Category;Real Category;Business Name;Address;City;State;Postal Code;Country;Phone;Email;Website;Latitude;Longitude;Map Link;Details Link
"komplek housing";"komplek housing";"Kec. Amurang";"Kabupaten Minahasa Selatan, Sulawesi Utara";"Kabupaten Minahasa Selatan, Sulawesi Utara";"SULAWESI UTARA";"";"Indonesia";"";"";"";"1.1846911";"124.575545";"https://maps.google.com/?cid=0x0:0xc0ecc4637a3a0d02";""
"komplek housing";"Pembangunan Perumahan";"Huntap Amurang";"5H7C+7R, Rumoong Bawah, Kec. Amurang Bar., Kabupaten Minahasa Selatan, Sulawesi Utara";"Kabupaten Minahasa Selatan, Sulawesi Utara";"SULAWESI UTARA";"";"Indonesia";"";"";"";"1.1632471";"124.5720236";"https://maps.google.com/?cid=0x0:0xd6d19d79673d06f";""
"komplek housing";"Pembangunan Perumahan";"Rumah";"5HWP+RG6, Jl. Trans Sulawesi, Lingkungan V, Bitung, Kec. Amurang, Kabupaten Minahasa Selatan, Sulawesi Utara 95954";"Jl. Trans Sulawesi, Lingkungan V, Bitung, Kec. Amurang, Kabupaten Minahasa Selatan";"SULAWESI UTARA";"95954";"Indonesia";"";"";"";"1.197104";"124.586208";"https://maps.google.com/?cid=0x0:0x2abcd0a2c03143a8";""
"komplek housing";"Perhimpunan Pengembang Perumahan";"lingkungan 5";"5HPJ+CR5, Lewet, Kec. Amurang, Kabupaten Minahasa Selatan, Sulawesi Utara";"Kabupaten Minahasa Selatan, Sulawesi Utara";"SULAWESI UTARA";"";"Indonesia";"";"";"";"1.1860133";"124.5821203";"https://maps.google.com/?cid=0x0:0xfeb9e6b24613c58";""
"komplek housing";"Pembangunan Perumahan";"Home";"6H2Q+4PR, Jl. E.A. Mangindaan, Pondang, Kec. Amurang Tim., Kabupaten Minahasa Selatan, Sulawesi Utara";"Kabupaten Minahasa Selatan, Sulawesi Utara";"SULAWESI UTARA";"";"Indonesia";"";"";"";"1.2003743";"124.5892478";"https://maps.google.com/?cid=0x0:0xa863213e3f30a522";""
"komplek housing";"Rumah wisata";"Valentin Cristy Kalangi Home";"5HQM+37V, Jl. 22 Juli, Bitung, Kec. Amurang, Kabupaten Minahasa Selatan, Sulawesi Utara 95954";"Jl. 22 Juli, Bitung, Kec. Amurang, Kabupaten Minahasa Selatan";"SULAWESI UTARA";"95954";"Indonesia";"";"";"";"1.1879792";"124.5830572";"https://maps.google.com/?cid=0x0:0x9868a02b3f91db8e";""
"komplek housing";"Komplek perumahan";"Kilos Amurang";"5HJJ+P6H, Uwuran Dua, Kec. Amurang, Kabupaten Minahasa Selatan, Sulawesi Utara";"Kabupaten Minahasa Selatan, Sulawesi Utara";"SULAWESI UTARA";"";"Indonesia";"";"";"";"1.1818209";"124.5806218";"https://maps.google.com/?cid=0x0:0x4f901d0dce0fe087";""
"komplek housing";"Pembangunan Perumahan";"Rumah";"5HRM+5Q, Bitung, Kec. Amurang, Kabupaten Minahasa Selatan, Sulawesi Utara";"Kabupaten Minahasa Selatan, Sulawesi Utara";"SULAWESI UTARA";"";"Indonesia";"";"";"";"1.1904336";"124.5845023";"https://maps.google.com/?cid=0x0:0xe76f0eda3a096897";""
"komplek housing";"Komplek perumahan";"W ROYAL RESIDENCE (Perumahan Asri Modern Kota Amurang)";"Jl. Pondang- Pinaling, Pondang, Kec. Amurang, Kabupaten Minahasa Selatan, Sulawesi Utara";"Kabupaten Minahasa Selatan, Sulawesi Utara";"SULAWESI UTARA";"";"Indonesia";" 085233352255";"";"";"1.2116064";"124.6060264";"https://maps.google.com/?cid=0x0:0x4f041a54812e8ef9";""
"komplek housing";"komplek housing";"Kec. Amurang Bar.";"Kabupaten Minahasa Selatan, Sulawesi Utara";"Kabupaten Minahasa Selatan, Sulawesi Utara";"SULAWESI UTARA";"";"Indonesia";"";"";"";"1.1867785";"124.5164503";"https://maps.google.com/?cid=0x0:0x96cf76748db66f92";""
"komplek housing";"Perhimpunan Pengembang Perumahan";"lingkungan 5";"5HPJ+CR5, Lewet, Kec. Amurang, Kabupaten Minahasa Selatan, Sulawesi Utara";"Kabupaten Minahasa Selatan, Sulawesi Utara";"SULAWESI UTARA";"";"Indonesia";"";"";"";"1.1860133";"124.5821203";"https://maps.google.com/?cid=0x0:0xfeb9e6b24613c58";""
"komplek housing";"Pembangunan Perumahan";"KILOS BLOK.M";"5HJH+8W4, Uwuran Dua, Kec. Amurang, Kabupaten Minahasa Selatan, Sulawesi Utara";"Kabupaten Minahasa Selatan, Sulawesi Utara";"SULAWESI UTARA";"";"Indonesia";"";"";"";"1.1807733";"124.5798406";"https://maps.google.com/?cid=0x0:0xaa86720e485fa41c";""
"komplek housing";"Gedung Apartemen";"Perumahan Teeptrans Indah";"5GH5+488, Desa Kec. Kab. Prov., Teep, Kec. Amurang Bar., Kabupaten Minahasa Selatan, Sulawesi Utara";"Kabupaten Minahasa Selatan, Sulawesi Utara";"SULAWESI UTARA";"";"Indonesia";" 085241761529";"";"";"1.177794";"124.5083389";"https://maps.google.com/?cid=0x0:0x4ff6cb3250e02200";""
"komplek housing";"Komplek perumahan";"Cozy Home Amurang";"5GQF+WPQ, Kapitu, Kec. Amurang Bar., Kabupaten Minahasa Selatan, Sulawesi Utara";"Kabupaten Minahasa Selatan, Sulawesi Utara";"SULAWESI UTARA";"";"Indonesia";" 082346441189";"";"";"1.1898343";"124.5243687";"https://maps.google.com/?cid=0x0:0x981a6626da42c6b4";""
"komplek housing";"Komplek perumahan";"Kilos Amurang";"5HJJ+P6H, Uwuran Dua, Kec. Amurang, Kabupaten Minahasa Selatan, Sulawesi Utara";"Kabupaten Minahasa Selatan, Sulawesi Utara";"SULAWESI UTARA";"";"Indonesia";"";"";"";"1.1818209";"124.5806218";"https://maps.google.com/?cid=0x0:0x4f901d0dce0fe087";""
"komplek housing";"Pembangunan Perumahan";"Rumah";"5HRM+5Q, Bitung, Kec. Amurang, Kabupaten Minahasa Selatan, Sulawesi Utara";"Kabupaten Minahasa Selatan, Sulawesi Utara";"SULAWESI UTARA";"";"Indonesia";"";"";"";"1.1904336";"124.5845023";"https://maps.google.com/?cid=0x0:0xe76f0eda3a096897";""
"komplek housing";"Komplek perumahan";"Rumah amurang (mas pur)";"5HMG+296, Uwuran Dua, Kec. Amurang, Kabupaten Minahasa Selatan, Sulawesi Utara";"Kabupaten Minahasa Selatan, Sulawesi Utara";"SULAWESI UTARA";"";"Indonesia";"";"";"";"1.1825395";"124.575899";"https://maps.google.com/?cid=0x0:0xc81206e807c0f827";""
"komplek housing";"Pembangunan Perumahan";"Home";"6H2Q+4PR, Jl. E.A. Mangindaan, Pondang, Kec. Amurang Tim., Kabupaten Minahasa Selatan, Sulawesi Utara";"Kabupaten Minahasa Selatan, Sulawesi Utara";"SULAWESI UTARA";"";"Indonesia";"";"";"";"1.2003743";"124.5892478";"https://maps.google.com/?cid=0x0:0xa863213e3f30a522";""
"komplek housing";"komplek housing";"Kec. Amurang Tim.";"Kabupaten Minahasa Selatan, Sulawesi Utara";"Kabupaten Minahasa Selatan, Sulawesi Utara";"SULAWESI UTARA";"";"Indonesia";"";"";"";"1.1982239";"124.5867155";"https://maps.google.com/?cid=0x0:0xb4cfe2dd829f0d3b";""
"komplek housing";"Pembangunan Perumahan";"Rumah";"5HWP+RG6, Jl. Trans Sulawesi, Lingkungan V, Bitung, Kec. Amurang, Kabupaten Minahasa Selatan, Sulawesi Utara 95954";"Jl. Trans Sulawesi, Lingkungan V, Bitung, Kec. Amurang, Kabupaten Minahasa Selatan";"SULAWESI UTARA";"95954";"Indonesia";"";"";"";"1.197104";"124.586208";"https://maps.google.com/?cid=0x0:0x2abcd0a2c03143a8";""
"komplek housing";"Pembangunan Perumahan";"Home";"6H2Q+4PR, Jl. E.A. Mangindaan, Pondang, Kec. Amurang Tim., Kabupaten Minahasa Selatan, Sulawesi Utara";"Kabupaten Minahasa Selatan, Sulawesi Utara";"SULAWESI UTARA";"";"Indonesia";"";"";"";"1.2003743";"124.5892478";"https://maps.google.com/?cid=0x0:0xa863213e3f30a522";""
"komplek housing";"Pembangunan Perumahan";"Rumah";"5HRM+5Q, Bitung, Kec. Amurang, Kabupaten Minahasa Selatan, Sulawesi Utara";"Kabupaten Minahasa Selatan, Sulawesi Utara";"SULAWESI UTARA";"";"Indonesia";"";"";"";"1.1904336";"124.5845023";"https://maps.google.com/?cid=0x0:0xe76f0eda3a096897";""
"komplek housing";"Pembangunan Perumahan";"Huntap Amurang";"5H7C+7R, Rumoong Bawah, Kec. Amurang Bar., Kabupaten Minahasa Selatan, Sulawesi Utara";"Kabupaten Minahasa Selatan, Sulawesi Utara";"SULAWESI UTARA";"";"Indonesia";"";"";"";"1.1632471";"124.5720236";"https://maps.google.com/?cid=0x0:0xd6d19d79673d06f";""
"komplek housing";"Komplek perumahan";"Rumah amurang (mas pur)";"5HMG+296, Uwuran Dua, Kec. Amurang, Kabupaten Minahasa Selatan, Sulawesi Utara";"Kabupaten Minahasa Selatan, Sulawesi Utara";"SULAWESI UTARA";"";"Indonesia";"";"";"";"1.1825395";"124.575899";"https://maps.google.com/?cid=0x0:0xc81206e807c0f827";""
"komplek housing";"Pembangunan Perumahan";"KILOS BLOK.M";"5HJH+8W4, Uwuran Dua, Kec. Amurang, Kabupaten Minahasa Selatan, Sulawesi Utara";"Kabupaten Minahasa Selatan, Sulawesi Utara";"SULAWESI UTARA";"";"Indonesia";"";"";"";"1.1807733";"124.5798406";"https://maps.google.com/?cid=0x0:0xaa86720e485fa41c";""
"komplek housing";"komplek housing";"Kec. Kumelembuai";"Kabupaten Minahasa Selatan, Sulawesi Utara";"Kabupaten Minahasa Selatan, Sulawesi Utara";"SULAWESI UTARA";"";"Indonesia";"";"";"";"1.0871129";"124.4894698";"https://maps.google.com/?cid=0x0:0xa2d03c63ae50dad";""
"komplek housing";"Kafe";"Jln ROMEO";"3FQW+H34, Kumelembuai I, Kec. Kumelembuai, Kabupaten Minahasa Selatan, Sulawesi Utara";"Kabupaten Minahasa Selatan, Sulawesi Utara";"SULAWESI UTARA";"";"Indonesia";" 085244916818";"";"";"1.0888989";"124.4952166";"https://maps.google.com/?cid=0x0:0xce7c3f22a245fc63";""
"komplek housing";"Toko bahan makanan";"KEN KEY mini cafe";"lingk 3 kec, Malola, Kec. Kumelembuai, Kabupaten Minahasa Selatan, Sulawesi Utara";"Kabupaten Minahasa Selatan, Sulawesi Utara";"SULAWESI UTARA";"";"Indonesia";"";"";"";"1.0617584";"124.4787666";"https://maps.google.com/?cid=0x0:0x21f294a13712dd6a";""
"komplek housing";"komplek housing";"Kec. Maesaan";"Kabupaten Minahasa Selatan, Sulawesi Utara";"Kabupaten Minahasa Selatan, Sulawesi Utara";"SULAWESI UTARA";"";"Indonesia";"";"";"";"0.8779406";"124.4741741";"https://maps.google.com/?cid=0x0:0x7b9cfccbb759dc4d";""
"komplek housing";"Komplek perumahan";"Lorong 9";"Perumahan Maesaan Permata Sagerat, Tambelang, Kec. Maesaan, Kabupaten Minahasa Selatan, Sulawesi Utara";"Kabupaten Minahasa Selatan, Sulawesi Utara";"SULAWESI UTARA";"";"Indonesia";"";"";"";"0.8779406";"124.4741741";"https://maps.google.com/?cid=0x0:0x66cfad8d0a9d9db8";""
"komplek housing";"Komplek perumahan";"Lorong Konarom";"WF46+X72, Lowian satu, Kec. Maesaan, Kabupaten Minahasa Selatan, Sulawesi Utara";"Kabupaten Minahasa Selatan, Sulawesi Utara";"SULAWESI UTARA";"";"Indonesia";"";"";"";"0.907396";"124.4606493";"https://maps.google.com/?cid=0x0:0x962aa51ee5217a1b";""
"komplek housing";"komplek housing";"Kec. Modoinding";"Kabupaten Minahasa Selatan, Sulawesi Utara";"Kabupaten Minahasa Selatan, Sulawesi Utara";"SULAWESI UTARA";"";"Indonesia";"";"";"";"0.7934377";"124.4536411";"https://maps.google.com/?cid=0x0:0xd408c5df1a05e95c";""
"komplek housing";"Komplek perumahan";"Radit";"2FF4+8XX, RT.Jaga/RW.6, Lalumpe, Kec. Motoling, Kabupaten Minahasa Selatan, Sulawesi Utara 95956";"RT.Jaga/RW.6, Lalumpe, Kec. Motoling, Kabupaten Minahasa Selatan";"SULAWESI UTARA";"95956";"Indonesia";"";"";"";"1.0228373";"124.4575724";"https://maps.google.com/?cid=0x0:0xb4afc340102c8f6b";""
"komplek housing";"Komplek perumahan";"Cindy";"29XR+JP3, Tondei Dua, Kec. Motoling Bar., Kabupaten Minahasa Selatan, Sulawesi Utara";"Kabupaten Minahasa Selatan, Sulawesi Utara";"SULAWESI UTARA";"";"Indonesia";"";"";"";"1.0490058";"124.3917823";"https://maps.google.com/?cid=0x0:0xed9ecb6372f79f2a";""
"komplek housing";"komplek housing";"Kec. Motoling Bar.";"Kabupaten Minahasa Selatan, Sulawesi Utara";"Kabupaten Minahasa Selatan, Sulawesi Utara";"SULAWESI UTARA";"";"Indonesia";"";"";"";"1.0414558";"124.4413862";"https://maps.google.com/?cid=0x0:0x6c6cffd8f0e2995b";""
"komplek housing";"Komplek perumahan";"Radit";"2FF4+8XX, RT.Jaga/RW.6, Lalumpe, Kec. Motoling, Kabupaten Minahasa Selatan, Sulawesi Utara 95956";"RT.Jaga/RW.6, Lalumpe, Kec. Motoling, Kabupaten Minahasa Selatan";"SULAWESI UTARA";"95956";"Indonesia";"";"";"";"1.0228373";"124.4575724";"https://maps.google.com/?cid=0x0:0xb4afc340102c8f6b";""
"komplek housing";"Komplek perumahan";"Cindy";"29XR+JP3, Tondei Dua, Kec. Motoling Bar., Kabupaten Minahasa Selatan, Sulawesi Utara";"Kabupaten Minahasa Selatan, Sulawesi Utara";"SULAWESI UTARA";"";"Indonesia";"";"";"";"1.0490058";"124.3917823";"https://maps.google.com/?cid=0x0:0xed9ecb6372f79f2a";""
"komplek housing";"komplek housing";"Kec. Motoling Tim.";"Kabupaten Minahasa Selatan, Sulawesi Utara";"Kabupaten Minahasa Selatan, Sulawesi Utara";"SULAWESI UTARA";"";"Indonesia";"";"";"";"1.0658557";"124.4966035";"https://maps.google.com/?cid=0x0:0xc31c83b5c58d6f0d";""
"komplek housing";"komplek housing";"Kec. Ranoyapo";"Kabupaten Minahasa Selatan, Sulawesi Utara";"Kabupaten Minahasa Selatan, Sulawesi Utara";"SULAWESI UTARA";"";"Indonesia";"";"";"";"0.9993883";"124.4993385";"https://maps.google.com/?cid=0x0:0x1e005a1bf0ed1cb7";""
"komplek housing";"komplek housing";"Ranoyapo";"Kec. Amurang, Kabupaten Minahasa Selatan, Sulawesi Utara";"Kabupaten Minahasa Selatan, Sulawesi Utara";"SULAWESI UTARA";"";"Indonesia";"";"";"";"1.1842417";"124.567375";"https://maps.google.com/?cid=0x0:0x4c4aa0a1088dc68d";""
"komplek housing";"komplek housing";"Kec. Sinonsayang";"Kabupaten Minahasa Selatan, Sulawesi Utara";"Kabupaten Minahasa Selatan, Sulawesi Utara";"SULAWESI UTARA";"";"Indonesia";"";"";"";"1.0964547";"124.3480233";"https://maps.google.com/?cid=0x0:0x459f24c060a3cdba";""
"komplek housing";"Komplek perumahan";"Kel. Sunarto Mokodompit";"Pertamini, Tanamon Utara Jaga 6 Pertigaan Depan, Kec. Sinonsayang, Kabupaten Minahasa Selatan, Sulawesi Utara 95959";"Tanamon Utara Jaga 6 Pertigaan Depan, Kec. Sinonsayang, Kabupaten Minahasa Selatan";"SULAWESI UTARA";"95959";"Indonesia";"";"";"";"1.0269933";"124.309175";"https://maps.google.com/?cid=0x0:0xabb5a29d24b01f57";""
"komplek housing";"Perhimpunan Pengembang Perumahan";"Warung Nelayan";"Tanamon, Kec. Sinonsayang, Kabupaten Minahasa Selatan, Sulawesi Utara 95959";"Kec. Sinonsayang, Kabupaten Minahasa Selatan";"SULAWESI UTARA";"95959";"Indonesia";" 081245247848";"";"";"1.0272729";"124.307528";"https://maps.google.com/?cid=0x0:0xa95bb17ad4115930";""
"komplek housing";"komplek housing";"Kec. Tareran";"Kabupaten Minahasa Selatan, Sulawesi Utara";"Kabupaten Minahasa Selatan, Sulawesi Utara";"SULAWESI UTARA";"";"Indonesia";"";"";"";"1.2295372";"124.7372988";"https://maps.google.com/?cid=0x0:0xac5d2c923abab162";""
"komplek housing";"komplek housing";"Kel. Tamboto Kowel";"Rumoong Atas, Kec. Tareran, Kabupaten Minahasa Selatan, Sulawesi Utara 95953";"Kec. Tareran, Kabupaten Minahasa Selatan";"SULAWESI UTARA";"95953";"Indonesia";" 0895384905808";"";"";"1.2301499";"124.7358784";"https://maps.google.com/?cid=0x0:0xdd88d2a4739ce304";""
"komplek housing";"Komplek perumahan";"Jesika Tujuwale Residence";"6PM3+6F3, RT.Jaga/RW.3, Wuwuk, Kec. Tareran, Kabupaten Minahasa Selatan, Sulawesi Utara 95953";"RT.Jaga/RW.3, Wuwuk, Kec. Tareran, Kabupaten Minahasa Selatan";"SULAWESI UTARA";"95953";"Indonesia";"";"";"";"1.2328609";"124.7035561";"https://maps.google.com/?cid=0x0:0x66b5fe998b6479af";""
"komplek housing";"Komplek perumahan";"Paslaten1";"7JQ4+W57, Paslaten, Kec. Tatapaan, Kabupaten Minahasa Selatan, Sulawesi Utara";"Kabupaten Minahasa Selatan, Sulawesi Utara";"SULAWESI UTARA";"";"Indonesia";"";"";"";"1.2897761";"124.6054345";"https://maps.google.com/?cid=0x0:0x98f92d680056c5c8";""
"komplek housing";"Komplek perumahan";"Paslaten satu";"7HWR+9JX, Paslaten Satu, Kec. Tatapaan, Kabupaten Minahasa Selatan, Sulawesi Utara";"Kabupaten Minahasa Selatan, Sulawesi Utara";"SULAWESI UTARA";"";"Indonesia";"";"";"";"1.2959777";"124.5915966";"https://maps.google.com/?cid=0x0:0x26c42314ff3dcebc";""
"komplek housing";"komplek housing";"Sulawesi Utara 95355";"Pakuweru, Kec. Tenga, Kabupaten Minahasa Selatan, Sulawesi Utara";"Kabupaten Minahasa Selatan, Sulawesi Utara";"SULAWESI UTARA";"";"Indonesia";"";"";"";"1.1636763";"124.4326123";"https://maps.google.com/?cid=0x0:0x19db91f9dd28ea10";""
"komplek housing";"Komplek perumahan";"Istana Ruth Rindorindo";"5C7M+96M, Pakuweru, Kec. Tenga, Kabupaten Minahasa Selatan, Sulawesi Utara";"Kabupaten Minahasa Selatan, Sulawesi Utara";"SULAWESI UTARA";"";"Indonesia";"";"";"";"1.1634542";"124.4330477";"https://maps.google.com/?cid=0x0:0xfdc2bb7d0e32af90";""
"komplek housing";"komplek housing";"Mondoringin-sahelangi";"5C7M+MCG, Jl. Desa Pakuweru, Pakuweru, Kec. Tenga, Kabupaten Minahasa Selatan, Sulawesi Utara 95355";"Jl. Desa Pakuweru, Pakuweru, Kec. Tenga, Kabupaten Minahasa Selatan";"SULAWESI UTARA";"95355";"Indonesia";"";"";"";"1.1641807";"124.4335775";"https://maps.google.com/?cid=0x0:0x6b6976ddc925881e";""
"komplek housing";"Komplek perumahan";"Kel. Rindorindo Mamesah";"5C7M+RC4, Jl. Pakuweru, Pakuweru, Kec. Tenga, Kabupaten Minahasa Selatan, Sulawesi Utara";"Kabupaten Minahasa Selatan, Sulawesi Utara";"SULAWESI UTARA";"";"Indonesia";"";"";"";"1.1645059";"124.4335721";"https://maps.google.com/?cid=0x0:0xd5e6f7f764f1cbe2";""
"komplek housing";"komplek housing";"Rumah Christy Tampi";"5C7M+P6Q, Pakuweru, Kec. Tenga, Kabupaten Minahasa Selatan, Sulawesi Utara";"Kabupaten Minahasa Selatan, Sulawesi Utara";"SULAWESI UTARA";"";"Indonesia";"";"";"";"1.1643385";"124.4331167";"https://maps.google.com/?cid=0x0:0x99335e5fa48f85f0";""
"komplek housing";"Komplek perumahan";"Kel. Iroth - Rintjap";"5C7M+99M, Jl. Pakuweru, Pakuweru, Kec. Tenga, Kabupaten Minahasa Selatan, Sulawesi Utara";"Kabupaten Minahasa Selatan, Sulawesi Utara";"SULAWESI UTARA";"";"Indonesia";"";"";"";"1.1636956";"124.4334792";"https://maps.google.com/?cid=0x0:0xf9b1c16643c941f6";""
"komplek housing";"komplek housing";"Egeten Kodongan";"5C7M+C5J, Pakuweru, Kec. Tenga, Kabupaten Minahasa Selatan, Sulawesi Utara";"Kabupaten Minahasa Selatan, Sulawesi Utara";"SULAWESI UTARA";"";"Indonesia";"";"";"";"1.1635783";"124.4328918";"https://maps.google.com/?cid=0x0:0x392a0f623a7a574e";""
"komplek housing";"Taman bermain";"pakuweru";"5C8M+M87, Jl. Pakuweru, Pakuweru, Kec. Tenga, Kabupaten Minahasa Selatan, Sulawesi Utara";"Kabupaten Minahasa Selatan, Sulawesi Utara";"SULAWESI UTARA";"";"Indonesia";"";"";"";"1.1669034";"124.4332385";"https://maps.google.com/?cid=0x0:0x4ec82cdec5e14678";""
"komplek housing";"komplek housing";"Komplek Housing";"Blok Bojong Nangka I, Jl. Ring Rudal Blok Bojong Nangka I No.68, RT.001/RW.007, Jatirahayu, Kec. Pd. Melati, Kota Bks, Jawa Barat 17414";"Jl. Ring Rudal Blok Bojong Nangka I No.68, RT.001/RW.007, Jatirahayu, Kec. Pd. Melati, Kota Bks";"SULAWESI UTARA";"17414";"Indonesia";"";"";"";"-6.293724";"106.9165114";"https://maps.google.com/?cid=0x0:0x9c50464976dee674";""
"komplek housing";"komplek housing";"Kec. Tompaso Baru";"Kabupaten Minahasa Selatan, Sulawesi Utara";"Kabupaten Minahasa Selatan, Sulawesi Utara";"SULAWESI UTARA";"";"Indonesia";"";"";"";"0.919931";"124.469716";"https://maps.google.com/?cid=0x0:0xd34cfb653da52844";""
"komplek housing";"Komplek perumahan";"rumah pribadi";"WF89+J4J, Lrg. Bugis, Tompaso Baru Dua, Kec. Tompaso Baru, Kabupaten Minahasa Selatan, Sulawesi Utara";"Kabupaten Minahasa Selatan, Sulawesi Utara";"SULAWESI UTARA";"";"Indonesia";"";"";"";"0.9165762";"124.4677804";"https://maps.google.com/?cid=0x0:0x1a232c8557852c7b";""
"komplek housing";"Komplek perumahan";"Sion tompasobaru";"WF95+5QV, Unnamed Road, Sion, Kec. Tompaso Baru, Kabupaten Minahasa Selatan, Sulawesi Utara";"Kabupaten Minahasa Selatan, Sulawesi Utara";"SULAWESI UTARA";"";"Indonesia";"";"";"";"0.9179982";"124.4594104";"https://maps.google.com/?cid=0x0:0xe568062a54432c2c";""
"komplek housing";"Komplek perumahan";"Village Tompasobaru";"WF9C+R3R, Tompaso Baru Satu, Kec. Tompaso Baru, Kabupaten Minahasa Selatan, Sulawesi Utara";"Kabupaten Minahasa Selatan, Sulawesi Utara";"SULAWESI UTARA";"";"Indonesia";"";"";"";"0.9196196";"124.4701362";"https://maps.google.com/?cid=0x0:0x58760bdcf9777c9a";""
"komplek housing";"Komplek perumahan";"Ekel home";"WFG9+QW8, Tompaso Baru Satu, Kec. Tompaso Baru, Kabupaten Minahasa Selatan, Sulawesi Utara";"Kabupaten Minahasa Selatan, Sulawesi Utara";"SULAWESI UTARA";"";"Indonesia";"";"";"";"0.9269089";"124.4698177";"https://maps.google.com/?cid=0x0:0xad8c16d9bf59b700";""
"komplek housing";"Komplek perumahan";"Vael";"WF89+5FH, Tompaso Baru Dua, Kec. Tompaso Baru, Kabupaten Minahasa Selatan, Sulawesi Utara";"Kabupaten Minahasa Selatan, Sulawesi Utara";"SULAWESI UTARA";"";"Indonesia";"";"";"";"0.9154266";"124.4687489";"https://maps.google.com/?cid=0x0:0x696fdd79f4313159";""
"komplek housing";"Kantor Pendaftaran Militer";"Depot RAVA-REVA TOMPASO BARU SATU, Depan kantor koramil TOMPASO BARU";"WFHC+5P8, Tompaso Baru Satu, Kec. Tompaso Baru, Kabupaten Minahasa Selatan, Sulawesi Utara";"Kabupaten Minahasa Selatan, Sulawesi Utara";"SULAWESI UTARA";"";"Indonesia";"";"";"";"0.9279656";"124.4717203";"https://maps.google.com/?cid=0x0:0x31c00d5dd8cd2ecd";""
"komplek housing";"komplek housing";"Kel.Memah Rewah";"Tumpaan Baru, Kec. Tumpaan, Kabupaten Minahasa Selatan, Sulawesi Utara";"Kabupaten Minahasa Selatan, Sulawesi Utara";"SULAWESI UTARA";"";"Indonesia";"";"";"";"1.2439336";"124.6182606";"https://maps.google.com/?cid=0x0:0x1ae702c17fafce92";""
"komplek housing";"komplek housing";"Tumpaan";"Tumpaan, Kec. Tumpaan, Kabupaten Minahasa Selatan, Sulawesi Utara";"Kabupaten Minahasa Selatan, Sulawesi Utara";"SULAWESI UTARA";"";"Indonesia";"";"";"";"1.238996";"124.6175";"https://maps.google.com/?cid=0x0:0xa5bfed7e82c26c62";""
"komplek housing";"komplek housing";"Kec. Tebet";"Kota Jakarta Selatan, Daerah Khusus Ibukota Jakarta";"Kota Jakarta Selatan, Daerah Khusus Ibukota Jakarta";"SULAWESI UTARA";"";"Indonesia";"";"";"";"-6.2251223";"106.8549881";"https://maps.google.com/?cid=0x0:0xd575e31c807295f9";""
"komplek housing";"Komplek perumahan";"Double A Mobile";"Lorong Meong, Tumpaan Satu, Kec. Tumpaan, Kabupaten Minahasa Selatan, Sulawesi Utara 95352";"Tumpaan Satu, Kec. Tumpaan, Kabupaten Minahasa Selatan";"SULAWESI UTARA";"95352";"Indonesia";"";"";"";"1.2393125";"124.6154375";"https://maps.google.com/?cid=0x0:0xbdba5ad1cc99093d";""
"komplek housing";"Komplek perumahan";"Jen Tambuwun";"Jl. Papokeyan jaga 4, Munte, Kec. Tumpaan, Kabupaten Minahasa Selatan, Sulawesi Utara 95352";"Munte, Kec. Tumpaan, Kabupaten Minahasa Selatan";"SULAWESI UTARA";"95352";"Indonesia";"";"";"";"1.3130547";"124.6659472";"https://maps.google.com/?cid=0x0:0xf80cc277468480a";""
"perumahan";"perumahan";"Kec. Amurang";"Kabupaten Minahasa Selatan, Sulawesi Utara";"Kabupaten Minahasa Selatan, Sulawesi Utara";"SULAWESI UTARA";"";"Indonesia";"";"";"";"1.1846911";"124.575545";"https://maps.google.com/?cid=0x0:0xc0ecc4637a3a0d02";""
"perumahan";"Pembangunan Perumahan";"Rumah";"5HWP+RG6, Jl. Trans Sulawesi, Lingkungan V, Bitung, Kec. Amurang, Kabupaten Minahasa Selatan, Sulawesi Utara 95954";"Jl. Trans Sulawesi, Lingkungan V, Bitung, Kec. Amurang, Kabupaten Minahasa Selatan";"SULAWESI UTARA";"95954";"Indonesia";"";"";"";"1.197104";"124.586208";"https://maps.google.com/?cid=0x0:0x2abcd0a2c03143a8";""
"perumahan";"Komplek perumahan";"Rumah amurang (mas pur)";"5HMG+296, Uwuran Dua, Kec. Amurang, Kabupaten Minahasa Selatan, Sulawesi Utara";"Kabupaten Minahasa Selatan, Sulawesi Utara";"SULAWESI UTARA";"";"Indonesia";"";"";"";"1.1825395";"124.575899";"https://maps.google.com/?cid=0x0:0xc81206e807c0f827";""
"perumahan";"Perhimpunan Pengembang Perumahan";"lingkungan 5";"5HPJ+CR5, Lewet, Kec. Amurang, Kabupaten Minahasa Selatan, Sulawesi Utara";"Kabupaten Minahasa Selatan, Sulawesi Utara";"SULAWESI UTARA";"";"Indonesia";"";"";"";"1.1860133";"124.5821203";"https://maps.google.com/?cid=0x0:0xfeb9e6b24613c58";""
"perumahan";"Komplek perumahan";"Kilos Amurang";"5HJJ+P6H, Uwuran Dua, Kec. Amurang, Kabupaten Minahasa Selatan, Sulawesi Utara";"Kabupaten Minahasa Selatan, Sulawesi Utara";"SULAWESI UTARA";"";"Indonesia";"";"";"";"1.1818209";"124.5806218";"https://maps.google.com/?cid=0x0:0x4f901d0dce0fe087";""
"perumahan";"Komplek perumahan";"Ranomea";"5HH7+HH6, Jl. Trans Sulawesi, Rumoong Bawah, Kec. Amurang Bar., Kabupaten Minahasa Selatan, Sulawesi Utara";"Kabupaten Minahasa Selatan, Sulawesi Utara";"SULAWESI UTARA";"";"Indonesia";"";"";"";"1.178968";"124.563856";"https://maps.google.com/?cid=0x0:0x2ee6084f749eb052";""
"perumahan";"Komplek perumahan";"RA3 Family";"Lingkungan 7, Uwuran Dua, Kec. Amurang, Kabupaten Minahasa Selatan, Sulawesi Utara";"Kabupaten Minahasa Selatan, Sulawesi Utara";"SULAWESI UTARA";"";"Indonesia";"";"";"";"1.1815872";"124.5791406";"https://maps.google.com/?cid=0x0:0xabfe22c1d5d6f6a1";""
"perumahan";"Gedung Apartemen";"Fikri Home";"Ranoyapo, Kec. Amurang, Kabupaten Minahasa Selatan, Sulawesi Utara";"Kabupaten Minahasa Selatan, Sulawesi Utara";"SULAWESI UTARA";"";"Indonesia";"";"";"";"1.1844566";"124.5695544";"https://maps.google.com/?cid=0x0:0xf0f029aa2f459f7";""
"perumahan";"Perhimpunan Pengembang Perumahan";"Rumah Mix Couple 13";"Jl. lelemboto Rumah No.13, Buyungon, Kec. Amurang, Kabupaten Minahasa Selatan, Sulawesi Utara";"Kabupaten Minahasa Selatan, Sulawesi Utara";"SULAWESI UTARA";"";"Indonesia";" 082284077132";"";"";"1.1796789";"124.568584";"https://maps.google.com/?cid=0x0:0x1664850ff51a34a9";""
"perumahan";"Komplek perumahan";"Rumah Oma";"Jl. Trans Sulawesi No.184, Rumoong Bawah, Kec. Amurang Bar., Kabupaten Minahasa Selatan, Sulawesi Utara 95354";"Rumoong Bawah, Kec. Amurang Bar., Kabupaten Minahasa Selatan";"SULAWESI UTARA";"95354";"Indonesia";"";"";"";"1.182555";"124.5614111";"https://maps.google.com/?cid=0x0:0x5e8bde1c551a9107";""
"perumahan";"perumahan";"GerzonAllolinggi (Allolinggi-Ondang)";"5HQ4+3QG, Kawangkoan Bawah, Kec. Amurang Bar., Kabupaten Minahasa Selatan, Sulawesi Utara";"Kabupaten Minahasa Selatan, Sulawesi Utara";"SULAWESI UTARA";"";"Indonesia";"";"";"";"1.1876955";"124.5569482";"https://maps.google.com/?cid=0x0:0xab462d950253a457";""
"perumahan";"Pembangunan Perumahan";"Pnkk";"5HQR+W3P, Ranomea, Kec. Amurang Tim., Kabupaten Minahasa Selatan, Sulawesi Utara";"Kabupaten Minahasa Selatan, Sulawesi Utara";"SULAWESI UTARA";"";"Indonesia";"";"";"";"1.1898443";"124.5901995";"https://maps.google.com/?cid=0x0:0x1f7e552daac13ffd";""
"perumahan";"Komplek perumahan";"Kel Gerungan Lendo";"5HRJ+4XV, Bitung, Kec. Amurang, Kabupaten Minahasa Selatan, Sulawesi Utara";"Kabupaten Minahasa Selatan, Sulawesi Utara";"SULAWESI UTARA";"";"Indonesia";"";"";"";"1.189119";"124.582118";"https://maps.google.com/?cid=0x0:0xde8b2ef089aefca2";""
"perumahan";"Pembangunan Perumahan";"My Home";"5HJG+X6F, Unnamed Road, Uwuran Dua, Kec. Amurang, Kabupaten Minahasa Selatan, Sulawesi Utara";"Kabupaten Minahasa Selatan, Sulawesi Utara";"SULAWESI UTARA";"";"Indonesia";"";"";"";"1.1824483";"124.5755386";"https://maps.google.com/?cid=0x0:0xe0b33e3aa33f80b0";""
"perumahan";"Komplek perumahan";"AVKIMKEN";"5HPJ+GM4, Lewet, Kec. Amurang, Kabupaten Minahasa Selatan, Sulawesi Utara";"Kabupaten Minahasa Selatan, Sulawesi Utara";"SULAWESI UTARA";"";"Indonesia";"";"";"";"1.187231";"124.5816144";"https://maps.google.com/?cid=0x0:0x18be5c6f7a2aadbc";""
"perumahan";"Komplek perumahan";"Tempat tinggal";"5HPF+F8Q, Uwuran Satu, Kec. Amurang, Kabupaten Minahasa Selatan, Sulawesi Utara";"Kabupaten Minahasa Selatan, Sulawesi Utara";"SULAWESI UTARA";"";"Indonesia";"";"";"";"1.1862052";"124.5733469";"https://maps.google.com/?cid=0x0:0x39c6ed07a3a1c48f";""
"perumahan";"Kantor Pendaftaran Militer";"Kompleks Koramil";"5HJ9+P33, Buyungon, Kec. Amurang, Kabupaten Minahasa Selatan, Sulawesi Utara";"Kabupaten Minahasa Selatan, Sulawesi Utara";"SULAWESI UTARA";"";"Indonesia";"";"";"";"1.1817658";"124.5676607";"https://maps.google.com/?cid=0x0:0xdaa8d2d04a2fe2be";""
"perumahan";"perumahan";"Rumah";"5HMF+XHF, Uwuran Satu, Kec. Amurang, Kabupaten Minahasa Selatan, Sulawesi Utara";"Kabupaten Minahasa Selatan, Sulawesi Utara";"SULAWESI UTARA";"";"Indonesia";"";"";"";"1.1849393";"124.5739265";"https://maps.google.com/?cid=0x0:0xffec50ecbc3142eb";""
"perumahan";"Komplek perumahan";"Kel Setligt Kusen";"5HMG+CMW, Uwuran Dua, Kec. Amurang, Kabupaten Minahasa Selatan, Sulawesi Utara";"Kabupaten Minahasa Selatan, Sulawesi Utara";"SULAWESI UTARA";"";"Indonesia";" 085893224757";"";"";"1.1836997";"124.5765287";"https://maps.google.com/?cid=0x0:0xc8458bd068088e56";""
"perumahan";"Komplek perumahan";"GH Hydrogen°";"5HQH+F9M, Bitung, Kec. Amurang, Kabupaten Minahasa Selatan, Sulawesi Utara";"Kabupaten Minahasa Selatan, Sulawesi Utara";"SULAWESI UTARA";"";"Indonesia";"";"";"";"1.188715";"124.5784314";"https://maps.google.com/?cid=0x0:0x674101eefea15c02";""
"perumahan";"Pembangunan Perumahan";"Rumah Walet";"5HJH+JJF, Uwuran Dua, Kec. Amurang, Kabupaten Minahasa Selatan, Sulawesi Utara";"Kabupaten Minahasa Selatan, Sulawesi Utara";"SULAWESI UTARA";"";"Indonesia";"";"";"";"1.1815614";"124.5790496";"https://maps.google.com/?cid=0x0:0xcc16bb4b6c023e55";""
"perumahan";"Perumahan";"Rumah greyta";"5HMM+5JQ, Lewet, Kec. Amurang, Kabupaten Minahasa Selatan, Sulawesi Utara";"Kabupaten Minahasa Selatan, Sulawesi Utara";"SULAWESI UTARA";"";"Indonesia";"";"";"";"1.1829644";"124.5841188";"https://maps.google.com/?cid=0x0:0x54185944c834dc00";""
"perumahan";"Pembangunan Perumahan";"Perum Korban Abrasi Amuran";"5H7C+PR8, Rumoong Bawah, Kec. Amurang Bar., Kabupaten Minahasa Selatan, Sulawesi Utara";"Kabupaten Minahasa Selatan, Sulawesi Utara";"SULAWESI UTARA";"";"Indonesia";"";"";"";"1.1642839";"124.5720666";"https://maps.google.com/?cid=0x0:0xf00c237787dfd478";""
"perumahan";"Pembangunan Perumahan";"Rumah";"5HRM+5Q, Bitung, Kec. Amurang, Kabupaten Minahasa Selatan, Sulawesi Utara";"Kabupaten Minahasa Selatan, Sulawesi Utara";"SULAWESI UTARA";"";"Indonesia";"";"";"";"1.1904336";"124.5845023";"https://maps.google.com/?cid=0x0:0xe76f0eda3a096897";""
"perumahan";"Hotel jangka panjang";"Tempat Kost Cruise Amurang Buyungon";"Jl. Trans Sulawesi, Buyungon, Kec. Amurang, Kabupaten Minahasa Selatan, Sulawesi Utara";"Kabupaten Minahasa Selatan, Sulawesi Utara";"SULAWESI UTARA";"";"Indonesia";" 081356769777";"";"";"1.1819606";"124.5677737";"https://maps.google.com/?cid=0x0:0xa2b15c488803c03d";""
"perumahan";"Pembangunan Perumahan";"Oly Rompas Moga";"5HVP+Q52, Ranomea, Kec. Amurang Tim., Kabupaten Minahasa Selatan, Sulawesi Utara";"Kabupaten Minahasa Selatan, Sulawesi Utara";"SULAWESI UTARA";"";"Indonesia";"";"";"";"1.1938907";"124.585046";"https://maps.google.com/?cid=0x0:0xd7b990e32dc2c961";""
"perumahan";"perumahan";"Kec. Amurang Bar.";"Kabupaten Minahasa Selatan, Sulawesi Utara";"Kabupaten Minahasa Selatan, Sulawesi Utara";"SULAWESI UTARA";"";"Indonesia";"";"";"";"1.1867785";"124.5164503";"https://maps.google.com/?cid=0x0:0x96cf76748db66f92";""
"perumahan";"perumahan";"Keluarga Tampemawa Kussoy";"5GP9+XRC, Kapitu, Kec. Amurang Bar., Kabupaten Minahasa Selatan, Sulawesi Utara";"Kabupaten Minahasa Selatan, Sulawesi Utara";"SULAWESI UTARA";"";"Indonesia";"";"";"";"1.187163";"124.519144";"https://maps.google.com/?cid=0x0:0xea011b7d70b1b104";""
"perumahan";"Gedung Apartemen";"Perumahan Teeptrans Indah";"5GH5+488, Desa Kec. Kab. Prov., Teep, Kec. Amurang Bar., Kabupaten Minahasa Selatan, Sulawesi Utara";"Kabupaten Minahasa Selatan, Sulawesi Utara";"SULAWESI UTARA";"";"Indonesia";" 085241761529";"";"";"1.177794";"124.5083389";"https://maps.google.com/?cid=0x0:0x4ff6cb3250e02200";""
"perumahan";"Komplek perumahan";"Rumah Nenek Feni";"5GM5+Q6J, Jl. Trans Sulawesi, Teep Trans, Kec. Amurang Bar., Kabupaten Minahasa Selatan, Sulawesi Utara";"Kabupaten Minahasa Selatan, Sulawesi Utara";"SULAWESI UTARA";"";"Indonesia";"";"";"";"1.184625";"124.5081961";"https://maps.google.com/?cid=0x0:0x713fbb6405422491";""
"perumahan";"Komplek perumahan";"Cozy Home Amurang";"5GQF+WPQ, Kapitu, Kec. Amurang Bar., Kabupaten Minahasa Selatan, Sulawesi Utara";"Kabupaten Minahasa Selatan, Sulawesi Utara";"SULAWESI UTARA";"";"Indonesia";" 082346441189";"";"";"1.1898343";"124.5243687";"https://maps.google.com/?cid=0x0:0x981a6626da42c6b4";""
"perumahan";"Kantor Perusahaan";"Lorong Tetewalanda, Kawangkoan Bawah";"5HQ4+3QG, Kawangkoan Bawah, Kec. Amurang Bar., Kabupaten Minahasa Selatan, Sulawesi Utara";"Kabupaten Minahasa Selatan, Sulawesi Utara";"SULAWESI UTARA";"";"Indonesia";"";"";"";"1.1876955";"124.5569482";"https://maps.google.com/?cid=0x0:0xe6a7a325e7064933";""
"perumahan";"Komplek perumahan";"Rumah Oma";"Jl. Trans Sulawesi No.184, Rumoong Bawah, Kec. Amurang Bar., Kabupaten Minahasa Selatan, Sulawesi Utara 95354";"Rumoong Bawah, Kec. Amurang Bar., Kabupaten Minahasa Selatan";"SULAWESI UTARA";"95354";"Indonesia";"";"";"";"1.182555";"124.5614111";"https://maps.google.com/?cid=0x0:0x5e8bde1c551a9107";""
"perumahan";"Komplek perumahan";"Perumahan Karmel Land Teep";"5GQ6+2HW, Teep, Kec. Amurang Bar., Kabupaten Minahasa Selatan, Sulawesi Utara";"Kabupaten Minahasa Selatan, Sulawesi Utara";"SULAWESI UTARA";"";"Indonesia";"";"";"";"1.1876203";"124.5114676";"https://maps.google.com/?cid=0x0:0x8c61ef85af57f6b2";""
"perumahan";"Komplek perumahan";"MunzRepi";"5HQ4+36X, Kawangkoan Bawah, Kec. Amurang Bar., Kabupaten Minahasa Selatan, Sulawesi Utara";"Kabupaten Minahasa Selatan, Sulawesi Utara";"SULAWESI UTARA";"";"Indonesia";" 0895323321129";"";"";"1.1877496";"124.5556203";"https://maps.google.com/?cid=0x0:0x3472b8b728bb72af";""
"perumahan";"perumahan";"Perum kapitu";"5GQF+XW6, Kapitu, Kec. Amurang Bar., Kabupaten Minahasa Selatan, Sulawesi Utara";"Kabupaten Minahasa Selatan, Sulawesi Utara";"SULAWESI UTARA";"";"Indonesia";"";"";"";"1.189912";"124.5247782";"https://maps.google.com/?cid=0x0:0x63143b492fe9cbda";""
"perumahan";"perumahan";"Mariana Laundry Amurang kapitu";"5GQC+995, Kapitu, Kec. Amurang Bar., Kabupaten Minahasa Selatan, Sulawesi Utara";"Kabupaten Minahasa Selatan, Sulawesi Utara";"SULAWESI UTARA";"";"Indonesia";"";"";"";"1.1883862";"124.5209891";"https://maps.google.com/?cid=0x0:0x9dec5a0db3ba6923";""
"perumahan";"Komplek perumahan";"Kilos Amurang";"5HJJ+P6H, Uwuran Dua, Kec. Amurang, Kabupaten Minahasa Selatan, Sulawesi Utara";"Kabupaten Minahasa Selatan, Sulawesi Utara";"SULAWESI UTARA";"";"Indonesia";"";"";"";"1.1818209";"124.5806218";"https://maps.google.com/?cid=0x0:0x4f901d0dce0fe087";""
"perumahan";"Perhimpunan Pengembang Perumahan";"Rumah Mix Couple 13";"Jl. lelemboto Rumah No.13, Buyungon, Kec. Amurang, Kabupaten Minahasa Selatan, Sulawesi Utara";"Kabupaten Minahasa Selatan, Sulawesi Utara";"SULAWESI UTARA";"";"Indonesia";" 082284077132";"";"";"1.1796789";"124.568584";"https://maps.google.com/?cid=0x0:0x1664850ff51a34a9";""
"perumahan";"Kompleks Apartemen";"Kel.tamburian maumina";"5GRC+VJW, Kapitu, Kec. Amurang Bar., Kabupaten Minahasa Selatan, Sulawesi Utara";"Kabupaten Minahasa Selatan, Sulawesi Utara";"SULAWESI UTARA";"";"Indonesia";"";"";"";"1.1922415";"124.5215874";"https://maps.google.com/?cid=0x0:0xd09a210c062d7316";""
"perumahan";"Komplek perumahan";"Ranomea";"5HH7+HH6, Jl. Trans Sulawesi, Rumoong Bawah, Kec. Amurang Bar., Kabupaten Minahasa Selatan, Sulawesi Utara";"Kabupaten Minahasa Selatan, Sulawesi Utara";"SULAWESI UTARA";"";"Indonesia";"";"";"";"1.178968";"124.563856";"https://maps.google.com/?cid=0x0:0x2ee6084f749eb052";""
"perumahan";"Restoran";"Kost MEGATARU";"Kapitu, Kec. Amurang Bar., Kabupaten Minahasa Selatan, Sulawesi Utara";"Kabupaten Minahasa Selatan, Sulawesi Utara";"SULAWESI UTARA";"";"Indonesia";" 082117049747";"";"";"1.1903143";"124.5219708";"https://maps.google.com/?cid=0x0:0xac89027dd6cc6866";""
"perumahan";"Komplek perumahan";"rumah";"5GJ4+MPR, Teep, Kec. Amurang Bar., Kabupaten Minahasa Selatan, Sulawesi Utara";"Kabupaten Minahasa Selatan, Sulawesi Utara";"SULAWESI UTARA";"";"Indonesia";"";"";"";"1.1817478";"124.5067672";"https://maps.google.com/?cid=0x0:0x79d9ba85e94517ee";""
"perumahan";"Komplek perumahan";"Rumah ArEl";"5HQ4+2G9, Kawangkoan Bawah, Kec. Amurang Bar., Kabupaten Minahasa Selatan, Sulawesi Utara";"Kabupaten Minahasa Selatan, Sulawesi Utara";"SULAWESI UTARA";"";"Indonesia";"";"";"";"1.1875334";"124.5563676";"https://maps.google.com/?cid=0x0:0x6dd4f6cf2293a36f";""
"perumahan";"Komplek perumahan";"Rumah";"5GXX+MWM, Jl. Trans Sulawesi, Kawangkoan Bawah, Kec. Amurang Bar., Kabupaten Minahasa Selatan, Sulawesi Utara";"Kabupaten Minahasa Selatan, Sulawesi Utara";"SULAWESI UTARA";"";"Indonesia";"";"";"";"1.1991348";"124.5500567";"https://maps.google.com/?cid=0x0:0x1d7e7cfa0985ad78";""
"perumahan";"perumahan";"Athan residence";"5GH5+68H, Jl. Trans Sulawesi, Teep, Kec. Amurang Bar., Kabupaten Minahasa Selatan, Sulawesi Utara";"Kabupaten Minahasa Selatan, Sulawesi Utara";"SULAWESI UTARA";"";"Indonesia";"";"";"";"1.177972";"124.5082874";"https://maps.google.com/?cid=0x0:0x7e01ef8dc551b2f4";""
"perumahan";"Komplek perumahan";"Rumah amurang (mas pur)";"5HMG+296, Uwuran Dua, Kec. Amurang, Kabupaten Minahasa Selatan, Sulawesi Utara";"Kabupaten Minahasa Selatan, Sulawesi Utara";"SULAWESI UTARA";"";"Indonesia";"";"";"";"1.1825395";"124.575899";"https://maps.google.com/?cid=0x0:0xc81206e807c0f827";""
"perumahan";"Pembangunan Perumahan";"Perum Korban Abrasi Amuran";"5H7C+PR8, Rumoong Bawah, Kec. Amurang Bar., Kabupaten Minahasa Selatan, Sulawesi Utara";"Kabupaten Minahasa Selatan, Sulawesi Utara";"SULAWESI UTARA";"";"Indonesia";"";"";"";"1.1642839";"124.5720666";"https://maps.google.com/?cid=0x0:0xf00c237787dfd478";""
"perumahan";"Komplek perumahan";"Kel. Makienggung Sarajar";"5HG9+Q9F, Rumoong Bawah, Kec. Amurang Bar., Kabupaten Minahasa Selatan, Sulawesi Utara";"Kabupaten Minahasa Selatan, Sulawesi Utara";"SULAWESI UTARA";"";"Indonesia";"";"";"";"1.1769448";"124.568429";"https://maps.google.com/?cid=0x0:0xc63141056254c23e";""
"perumahan";"perumahan";"Belung bulandala olvie";"5F88+2QJ, Tawaang, Kec. Tenga, Kabupaten Minahasa Selatan, Sulawesi Utara";"Kabupaten Minahasa Selatan, Sulawesi Utara";"SULAWESI UTARA";"";"Indonesia";"";"";"";"1.1650033";"124.466708";"https://maps.google.com/?cid=0x0:0xc75775be30ec075a";""
"perumahan";"Pembangunan Perumahan";"Kel. Manumpil Pailaha";"5GQ5+VV2, RT.Jaga/RW.5, Teep, Amurang Barat, South Minahasa Regency, North Sulawesi";"Kabupaten Minahasa Selatan, Sulawesi Utara";"SULAWESI UTARA";"";"Indonesia";" 0895801898578";"";"";"1.1896284";"124.5096341";"https://maps.google.com/?cid=0x0:0xc71c2b750e6869f6";""
"perumahan";"perumahan";"Rumah Kel. Tamburian Mamahit";"Lingkungan 11, Kawangkoan Bawah, Kec. Amurang Bar., Manado, Sulawesi Utara 95955";"Kawangkoan Bawah, Kec. Amurang Bar., Manado";"SULAWESI UTARA";"95955";"Indonesia";"";"";"";"1.1991501";"124.5481441";"https://maps.google.com/?cid=0x0:0xcb6159355af6719";""
"perumahan";"Komplek perumahan";"R.A.S Home";"5GQ9+HG7, RT.jaga/RW.5, Kapitu, Amurang Barat, South Minahasa Regency, North Sulawesi";"Kabupaten Minahasa Selatan, Sulawesi Utara";"SULAWESI UTARA";"";"Indonesia";"";"";"";"1.1889165";"124.5187858";"https://maps.google.com/?cid=0x0:0x7924f4a9795e6cc9";""
"perumahan";"perumahan";"Kec. Amurang Tim.";"Kabupaten Minahasa Selatan, Sulawesi Utara";"Kabupaten Minahasa Selatan, Sulawesi Utara";"SULAWESI UTARA";"";"Indonesia";"";"";"";"1.1982239";"124.5867155";"https://maps.google.com/?cid=0x0:0xb4cfe2dd829f0d3b";""
"perumahan";"Komplek perumahan";"W ROYAL RESIDENCE (Perumahan Asri Modern Kota Amurang)";"Jl. Pondang- Pinaling, Pondang, Kec. Amurang, Kabupaten Minahasa Selatan, Sulawesi Utara";"Kabupaten Minahasa Selatan, Sulawesi Utara";"SULAWESI UTARA";"";"Indonesia";" 085233352255";"";"";"1.2116064";"124.6060264";"https://maps.google.com/?cid=0x0:0x4f041a54812e8ef9";""
"perumahan";"Komplek perumahan";"Rumah kediaman";"5HVQ+R6Q, Ranomea, Kec. Amurang Tim., Kabupaten Minahasa Selatan, Sulawesi Utara";"Kabupaten Minahasa Selatan, Sulawesi Utara";"SULAWESI UTARA";"";"Indonesia";"";"";"";"1.1946009";"124.5887109";"https://maps.google.com/?cid=0x0:0x48dcd69d9c890d97";""
"perumahan";"Pembangunan Perumahan";"khay parfum";"Jl. Trans Sulawesi lingkungan No.7, Pondang, Kec. Amurang Tim., Kabupaten Minahasa Selatan, Sulawesi Utara";"Kabupaten Minahasa Selatan, Sulawesi Utara";"SULAWESI UTARA";"";"Indonesia";" 081331009186";"";"";"1.2105618";"124.5930345";"https://maps.google.com/?cid=0x0:0x1fac1e4c3918b276";""
"perumahan";"Kompleks Kondominium";"VINYAN RESIDENCE";"Jl. Trans Sulawesi No.5000, Pondang, Kec. Amurang Tim., Kabupaten Minahasa Selatan, Sulawesi Utara";"Kabupaten Minahasa Selatan, Sulawesi Utara";"SULAWESI UTARA";"";"Indonesia";"";"";"";"1.2198868";"124.6051819";"https://maps.google.com/?cid=0x0:0xb73ba4f5087a4f30";""
"perumahan";"Perhimpunan Pengembang Perumahan";"Rumah RR";"6JC6+PCP Lorong Kantor Camat, Lopana, Kec. Amurang Tim., Kabupaten Minahasa Selatan, Sulawesi Utara";"Kabupaten Minahasa Selatan, Sulawesi Utara";"SULAWESI UTARA";"";"Indonesia";"";"";"";"1.2218407";"124.611091";"https://maps.google.com/?cid=0x0:0x2833e61fab506c07";""
"perumahan";"Komplek perumahan";"AnthonDebby residence";"6H8W+WM3, Pondang, Kec. Amurang Tim., Kabupaten Minahasa Selatan, Sulawesi Utara";"Kabupaten Minahasa Selatan, Sulawesi Utara";"SULAWESI UTARA";"";"Indonesia";"";"";"";"1.2172501";"124.5966624";"https://maps.google.com/?cid=0x0:0x4a6d9c635bff728d";""
"perumahan";"Pembangunan Perumahan";"DP Area";"6H3R+JQR, Jl. Perum Pondang, Pondang, Kec. Amurang Tim., Kabupaten Minahasa Selatan, Sulawesi Utara";"Kabupaten Minahasa Selatan, Sulawesi Utara";"SULAWESI UTARA";"";"Indonesia";"";"";"";"1.2041108";"124.5918994";"https://maps.google.com/?cid=0x0:0x5f46268422960339";""
"perumahan";"Perumahan";"Pondang kec. Amurang timur";"6J34+WR, Pinaling, Kec. Amurang Tim., Kabupaten Minahasa Selatan, Sulawesi Utara";"Kabupaten Minahasa Selatan, Sulawesi Utara";"SULAWESI UTARA";"";"Indonesia";"";"";"";"1.2048269";"124.6070667";"https://maps.google.com/?cid=0x0:0x720bb6ee580e38fc";""
"perumahan";"Komplek perumahan";"RUMAH OPEL";"6JF5+363, Lopana, Kec. Amurang Tim., Kabupaten Minahasa Selatan, Sulawesi Utara";"Kabupaten Minahasa Selatan, Sulawesi Utara";"SULAWESI UTARA";"";"Indonesia";"";"";"";"1.2226482";"124.6080544";"https://maps.google.com/?cid=0x0:0xb4500488f90d674b";""
"perumahan";"Komplek perumahan";"Sumarab - Mangindaan Residence";"6H2Q+VCQ, Pondang, Kec. Amurang Tim., Kabupaten Minahasa Selatan, Sulawesi Utara";"Kabupaten Minahasa Selatan, Sulawesi Utara";"SULAWESI UTARA";"";"Indonesia";"";"";"";"1.2022133";"124.588595";"https://maps.google.com/?cid=0x0:0x91f638e613257ae1";""
"perumahan";"Komplek perumahan";"Manembu Mangalea";"6JC2+64R, Lopana, Kec. Amurang Tim., Kabupaten Minahasa Selatan, Sulawesi Utara";"Kabupaten Minahasa Selatan, Sulawesi Utara";"SULAWESI UTARA";"";"Indonesia";"";"";"";"1.2201798";"124.5999109";"https://maps.google.com/?cid=0x0:0x4f818e4cfddfa818";""
"perumahan";"Pembangunan Perumahan";"Kathleen's Home";"6J73+96M, Pondang, Kec. Amurang Tim., Kabupaten Minahasa Selatan, Sulawesi Utara";"Kabupaten Minahasa Selatan, Sulawesi Utara";"SULAWESI UTARA";"";"Indonesia";"";"";"";"1.213453";"124.6030558";"https://maps.google.com/?cid=0x0:0xcf542bef996f49fb";""
"perumahan";"Pembangunan Perumahan";"KirstenDuffHome";"6J94+F8G, Tim, Lopana, Kec. Amurang Tim., Kabupaten Minahasa Selatan, Sulawesi Utara";"Kabupaten Minahasa Selatan, Sulawesi Utara";"SULAWESI UTARA";"";"Indonesia";"";"";"";"1.2186974";"124.6058251";"https://maps.google.com/?cid=0x0:0x5e5e13027c0e4ec4";""
"perumahan";"Pembangunan Perumahan";"Pnkk";"5HQR+W3P, Ranomea, Kec. Amurang Tim., Kabupaten Minahasa Selatan, Sulawesi Utara";"Kabupaten Minahasa Selatan, Sulawesi Utara";"SULAWESI UTARA";"";"Indonesia";"";"";"";"1.1898443";"124.5901995";"https://maps.google.com/?cid=0x0:0x1f7e552daac13ffd";""
"perumahan";"Pembangunan Perumahan";"Oly Rompas Moga";"5HVP+Q52, Ranomea, Kec. Amurang Tim., Kabupaten Minahasa Selatan, Sulawesi Utara";"Kabupaten Minahasa Selatan, Sulawesi Utara";"SULAWESI UTARA";"";"Indonesia";"";"";"";"1.1938907";"124.585046";"https://maps.google.com/?cid=0x0:0xd7b990e32dc2c961";""
"perumahan";"Komplek perumahan";"Indah Pomantow Home";"5JX5+PP6, Pinaling, Kec. Amurang Tim., Kabupaten Minahasa Selatan, Sulawesi Utara";"Kabupaten Minahasa Selatan, Sulawesi Utara";"SULAWESI UTARA";"";"Indonesia";"";"";"";"1.1992968";"124.609256";"https://maps.google.com/?cid=0x0:0x401695b502ee5631";""
"perumahan";"Pembangunan Perumahan";"Winda Winowod Home";"5HVM+VWQ, Ranomea, Kec. Amurang Tim., Kabupaten Minahasa Selatan, Sulawesi Utara";"Kabupaten Minahasa Selatan, Sulawesi Utara";"SULAWESI UTARA";"";"Indonesia";"";"";"";"1.1947212";"124.584862";"https://maps.google.com/?cid=0x0:0x2b033996bfccddd0";""
"perumahan";"perumahan";"ThereHome";"6H3V+JC7, Pondang, Kec. Amurang Tim., Kabupaten Minahasa Selatan, Sulawesi Utara";"Kabupaten Minahasa Selatan, Sulawesi Utara";"SULAWESI UTARA";"";"Indonesia";"";"";"";"1.203735";"124.5937017";"https://maps.google.com/?cid=0x0:0x24b310643dc634ac";""
"perumahan";"Komplek perumahan";"R Mim";"5HVP+QP7, Unnamed Road, Ranomea, Kec. Amurang Tim., Kabupaten Minahasa Selatan, Sulawesi Utara";"Kabupaten Minahasa Selatan, Sulawesi Utara";"SULAWESI UTARA";"";"Indonesia";"";"";"";"1.1944054";"124.5867889";"https://maps.google.com/?cid=0x0:0xc402ef4d73af898";""
"perumahan";"Rumah Kaca";"Beby house";"6JC3+PPP, Lopana, Kec. Amurang Tim., Kabupaten Minahasa Selatan, Sulawesi Utara";"Kabupaten Minahasa Selatan, Sulawesi Utara";"SULAWESI UTARA";"";"Indonesia";"";"";"";"1.221839";"124.6043225";"https://maps.google.com/?cid=0x0:0xe4e45e4610c29454";""
"perumahan";"perumahan";"Kec. Kumelembuai";"Kabupaten Minahasa Selatan, Sulawesi Utara";"Kabupaten Minahasa Selatan, Sulawesi Utara";"SULAWESI UTARA";"";"Indonesia";"";"";"";"1.0871129";"124.4894698";"https://maps.google.com/?cid=0x0:0xa2d03c63ae50dad";""
"perumahan";"perumahan";"Keluarga Pongantung Pangkei";"3FMJ+JQV, Kumelembuai II, Kec. Kumelembuai, Kabupaten Minahasa Selatan, Sulawesi Utara";"Kabupaten Minahasa Selatan, Sulawesi Utara";"SULAWESI UTARA";"";"Indonesia";"";"";"";"1.0841057";"124.481928";"https://maps.google.com/?cid=0x0:0x40baf305c9f4eccf";""
"perumahan";"Komplek perumahan";"Ruma Kel.kontu.lumowa";"2FVP+R6Q, Picuan Baru, Kec. Motoling, Kabupaten Minahasa Selatan, Sulawesi Utara";"Kabupaten Minahasa Selatan, Sulawesi Utara";"SULAWESI UTARA";"";"Indonesia";"";"";"";"1.0448214";"124.4856998";"https://maps.google.com/?cid=0x0:0x435ac5c4460b48ac";""
"perumahan";"Komplek perumahan";"KaLiHome";"3FMH+9CF, Kumelembuai II, Kec. Kumelembuai, Kabupaten Minahasa Selatan, Sulawesi Utara";"Kabupaten Minahasa Selatan, Sulawesi Utara";"SULAWESI UTARA";"";"Indonesia";"";"";"";"1.0834377";"124.4785481";"https://maps.google.com/?cid=0x0:0xf1bffd1dd3b0c972";""
"perumahan";"Gedung Apartemen";"Kel. Sumakul - Tiwang";"3FQR+3C7, Kumelembuai I, Kec. Kumelembuai, Kabupaten Minahasa Selatan, Sulawesi Utara";"Kabupaten Minahasa Selatan, Sulawesi Utara";"SULAWESI UTARA";"";"Indonesia";"";"";"";"1.0876522";"124.4910581";"https://maps.google.com/?cid=0x0:0x9b12d4658e9e9a0e";""
"perumahan";"Komplek perumahan";"R.K";"3F6H+WP6, Malola, Kec. Kumelembuai, Kabupaten Minahasa Selatan, Sulawesi Utara";"Kabupaten Minahasa Selatan, Sulawesi Utara";"SULAWESI UTARA";"";"Indonesia";"";"";"";"1.06199";"124.4797846";"https://maps.google.com/?cid=0x0:0xc0a0147b0c2ea4ba";""
"perumahan";"Komplek perumahan";"Rumah Pribadi";"3F55+HFR, Malola, Kec. Kumelembuai, Kabupaten Minahasa Selatan, Sulawesi Utara";"Kabupaten Minahasa Selatan, Sulawesi Utara";"SULAWESI UTARA";"";"Indonesia";"";"";"";"1.0589976";"124.458641";"https://maps.google.com/?cid=0x0:0xa7e5022012841c46";""
"perumahan";"Komplek perumahan";"Kuntung";"3FW6+MHM, Makasili, Kec. Kumelembuai, Kabupaten Minahasa Selatan, Sulawesi Utara";"Kabupaten Minahasa Selatan, Sulawesi Utara";"SULAWESI UTARA";"";"Indonesia";"";"";"";"1.0967009";"124.4614129";"https://maps.google.com/?cid=0x0:0xa043e44ab282b257";""
"perumahan";"Komplek perumahan";"Home Polla Langkai";"3FMJ+66X, Jalan, Kumelembuai II, Kumelembuai, South Minahasa Regency, North Sulawesi";"Kabupaten Minahasa Selatan, Sulawesi Utara";"SULAWESI UTARA";"";"Indonesia";"";"";"";"1.0831494";"124.4806507";"https://maps.google.com/?cid=0x0:0x1127a0023939c035";""
"perumahan";"perumahan";"Repi Rumengan";"3GH8+86C, Tokin Baru, Kec. Motoling Tim., Kabupaten Minahasa Selatan, Sulawesi Utara";"Kabupaten Minahasa Selatan, Sulawesi Utara";"SULAWESI UTARA";"";"Indonesia";"";"";"";"1.0783134";"124.5155125";"https://maps.google.com/?cid=0x0:0x918ff378b74a665";""
"perumahan";"Komplek perumahan";"Rumah Keluarga Mintalangi-Herda";"3FJH+WHG, Kumelembuai II, Kec. Kumelembuai, Kabupaten Minahasa Selatan, Sulawesi Utara";"Kabupaten Minahasa Selatan, Sulawesi Utara";"SULAWESI UTARA";"";"Indonesia";"";"";"";"1.0823085";"124.4789548";"https://maps.google.com/?cid=0x0:0x468bce475c64514a";""
"perumahan";"Komplek perumahan";"Liow oping";"3FF6+4HV, Malola I, Kec. Kumelembuai, Kabupaten Minahasa Selatan, Sulawesi Utara";"Kabupaten Minahasa Selatan, Sulawesi Utara";"SULAWESI UTARA";"";"Indonesia";"";"";"";"1.0728613";"124.4614129";"https://maps.google.com/?cid=0x0:0x68a8c1abb83ee811";""
"perumahan";"Pembangunan Perumahan";"Jeremia siwu";"3F7W+75X, Wanga, Kec. Motoling Tim., Kabupaten Minahasa Selatan, Sulawesi Utara";"Kabupaten Minahasa Selatan, Sulawesi Utara";"SULAWESI UTARA";"";"Indonesia";" 085756639652";"";"";"1.0632494";"124.4954976";"https://maps.google.com/?cid=0x0:0x84bb40d0f114dd63";""
"perumahan";"Kios";"Kios Sumakul Makasili";"Makasili, Kec. Kumelembuai, Kabupaten Minahasa Selatan, Sulawesi Utara";"Kabupaten Minahasa Selatan, Sulawesi Utara";"SULAWESI UTARA";"";"Indonesia";"";"";"";"1.0928059";"124.4618496";"https://maps.google.com/?cid=0x0:0x569f7f69dacb82d2";""
"perumahan";"Komplek perumahan";"Rumah kel. Karuh kumayas";"3GQF+25P jaga 4, Karimbow, Kec. Motoling Tim., Kabupaten Minahasa Selatan, Sulawesi Utara";"Kabupaten Minahasa Selatan, Sulawesi Utara";"SULAWESI UTARA";"";"Indonesia";"";"";"";"1.087587";"124.5229508";"https://maps.google.com/?cid=0x0:0x292732a701a449c7";""
"perumahan";"Komplek perumahan";"𝙁𝙚𝙡𝙞𝙘𝙞𝙖'𝙨 𝙃𝙤𝙢𝙚";"3F7F+VGM, Malola I, Kec. Kumelembuai, Kabupaten Minahasa Selatan, Sulawesi Utara";"Kabupaten Minahasa Selatan, Sulawesi Utara";"SULAWESI UTARA";"";"Indonesia";"";"";"";"1.064719";"124.4738005";"https://maps.google.com/?cid=0x0:0x4f95d55e9cb5055d";""
"perumahan";"Komplek perumahan";"Kel.sinaulan madelu";"3F7G+7VF, Malola, Kec. Kumelembuai, Kabupaten Minahasa Selatan, Sulawesi Utara";"Kabupaten Minahasa Selatan, Sulawesi Utara";"SULAWESI UTARA";"";"Indonesia";"";"";"";"1.0631878";"124.4771677";"https://maps.google.com/?cid=0x0:0xdf60e0b2eeb96d4b";""
"perumahan";"Pembangunan Perumahan";"memell house";"3F6W+X79, Wanga, Kec. Motoling Tim., Kabupaten Minahasa Selatan, Sulawesi Utara";"Kabupaten Minahasa Selatan, Sulawesi Utara";"SULAWESI UTARA";"";"Indonesia";"";"";"";"1.0624083";"124.4957469";"https://maps.google.com/?cid=0x0:0xc7d33df3a0268a06";""
"perumahan";"Komplek perumahan";"sheril home";"3FMH+8XM, Kumelembuai II, Kec. Kumelembuai, Kabupaten Minahasa Selatan, Sulawesi Utara";"Kabupaten Minahasa Selatan, Sulawesi Utara";"SULAWESI UTARA";"";"Indonesia";"";"";"";"1.0833259";"124.4799283";"https://maps.google.com/?cid=0x0:0x42968094582a92b2";""
"perumahan";"Komplek perumahan";"Oma Din’s Home";"3FPQ+429, Kumelembuai, Kec. Kumelembuai, Kabupaten Minahasa Selatan, Sulawesi Utara";"Kabupaten Minahasa Selatan, Sulawesi Utara";"SULAWESI UTARA";"";"Indonesia";"";"";"";"1.0852236";"124.4874737";"https://maps.google.com/?cid=0x0:0x9db5e87d7a032dfe";""
"perumahan";"Rumah singgah";"Liando Rawis (Steny)";"Jl. Kumelembuai, Makasili, Kec. Kumelembuai, Kabupaten Minahasa Selatan, Sulawesi Utara";"Kabupaten Minahasa Selatan, Sulawesi Utara";"SULAWESI UTARA";"";"Indonesia";" 085217637187";"";"";"1.0937813";"124.4628678";"https://maps.google.com/?cid=0x0:0x1e66228f6678470c";""
"perumahan";"Komplek perumahan";"Rumah Eva muntu";"3GF3+M7R, Tokin Baru, Kec. Motoling Tim., Kabupaten Minahasa Selatan, Sulawesi Utara";"Kabupaten Minahasa Selatan, Sulawesi Utara";"SULAWESI UTARA";"";"Indonesia";"";"";"";"1.0742333";"124.5031476";"https://maps.google.com/?cid=0x0:0xdbf2ccfabbd2498e";""
"perumahan";"Kompleks Apartemen";"K.A";"2GR6+5VF, Picuan Satu, Kec. Motoling Tim., Kabupaten Minahasa Selatan, Sulawesi Utara";"Kabupaten Minahasa Selatan, Sulawesi Utara";"SULAWESI UTARA";"";"Indonesia";"";"";"";"1.0404438";"124.5121804";"https://maps.google.com/?cid=0x0:0x3b38ff42ce3eb20d";""
"perumahan";"Komplek perumahan";"Kel Rantung Muntu";"3GPC+F4R, desa, Karimbow Talikuran, Kec. Motoling Tim., Kabupaten Minahasa Selatan, Sulawesi Utara";"Kabupaten Minahasa Selatan, Sulawesi Utara";"SULAWESI UTARA";"";"Indonesia";"";"";"";"1.0859963";"124.5196414";"https://maps.google.com/?cid=0x0:0x2275027dee629c16";""
"perumahan";"perumahan";"Kec. Maesaan";"Kabupaten Minahasa Selatan, Sulawesi Utara";"Kabupaten Minahasa Selatan, Sulawesi Utara";"SULAWESI UTARA";"";"Indonesia";"";"";"";"0.8779406";"124.4741741";"https://maps.google.com/?cid=0x0:0x7b9cfccbb759dc4d";""
"perumahan";"Komplek perumahan";"perampatan";"WF46+JPV satu, Lowian, Kec. Maesaan, Kabupaten Minahasa Selatan, Sulawesi Utara";"Kabupaten Minahasa Selatan, Sulawesi Utara";"SULAWESI UTARA";"";"Indonesia";"";"";"";"0.9066206";"124.4617889";"https://maps.google.com/?cid=0x0:0x2914bf79cc727156";""
"perumahan";"Komplek perumahan";"ErS";"WF83+MGH, Raraatean, Kec. Tompaso Baru, Kabupaten Minahasa Selatan, Sulawesi Utara";"Kabupaten Minahasa Selatan, Sulawesi Utara";"SULAWESI UTARA";"";"Indonesia";"";"";"";"0.9167211";"124.4537783";"https://maps.google.com/?cid=0x0:0x1d00717edfafc82";""
"perumahan";"Komplek perumahan";"Rumah";"WFFC+453, Tompaso Baru Satu, Kec. Tompaso Baru, Kabupaten Minahasa Selatan, Sulawesi Utara";"Kabupaten Minahasa Selatan, Sulawesi Utara";"SULAWESI UTARA";"";"Indonesia";"";"";"";"0.9227729";"124.4704067";"https://maps.google.com/?cid=0x0:0x34a76c12842fe78";""
"perumahan";"Komplek perumahan";"rumah pribadi";"WF89+J4J, Lrg. Bugis, Tompaso Baru Dua, Kec. Tompaso Baru, Kabupaten Minahasa Selatan, Sulawesi Utara";"Kabupaten Minahasa Selatan, Sulawesi Utara";"SULAWESI UTARA";"";"Indonesia";"";"";"";"0.9165762";"124.4677804";"https://maps.google.com/?cid=0x0:0x1a232c8557852c7b";""
"perumahan";"Komplek perumahan";"kost";"WF5F+23M, lorong, Kec. Maesaan, Kabupaten Minahasa Selatan, Sulawesi Utara";"Kabupaten Minahasa Selatan, Sulawesi Utara";"SULAWESI UTARA";"";"Indonesia";"";"";"";"0.9075953";"124.4726626";"https://maps.google.com/?cid=0x0:0xce973fcc45ca1ab7";""
"perumahan";"Tempat Ibadah";"Rumah saya";"WF56+W32, Lowian, Kec. Maesaan, Kabupaten Minahasa Selatan, Sulawesi Utara";"Kabupaten Minahasa Selatan, Sulawesi Utara";"SULAWESI UTARA";"";"Indonesia";"";"";"";"0.9098167";"124.4602094";"https://maps.google.com/?cid=0x0:0x18e8ee3b8d93008a";""
"perumahan";"Komplek perumahan";"Rumah waseng yance";"VCWR+899, Temboan, Kec. Maesaan, Kabupaten Minahasa Selatan, Sulawesi Utara";"Kabupaten Minahasa Selatan, Sulawesi Utara";"SULAWESI UTARA";"";"Indonesia";"";"";"";"0.8957817";"124.4409951";"https://maps.google.com/?cid=0x0:0x583d2560b7f637e2";""
"perumahan";"Pembangunan Perumahan";"Sumual Home";"VFFC+MJ2, Tambelang, Kec. Maesaan, Kabupaten Minahasa Selatan, Sulawesi Utara";"Kabupaten Minahasa Selatan, Sulawesi Utara";"SULAWESI UTARA";"";"Indonesia";"";"";"";"0.8747725";"124.4718303";"https://maps.google.com/?cid=0x0:0x9ea2a376260cccb2";""
"perumahan";"Komplek perumahan";"Vanz Home";"VCWV+P4H, Temboan, Kec. Maesaan, Kabupaten Minahasa Selatan, Sulawesi Utara";"Kabupaten Minahasa Selatan, Sulawesi Utara";"SULAWESI UTARA";"";"Indonesia";"";"";"";"0.8961634";"124.4424071";"https://maps.google.com/?cid=0x0:0xe737f72c7bf6e063";""
"perumahan";"Komplek perumahan";"Kos A.D.A";"Tompaso Baru Dua, Kec. Tompaso Baru, Kabupaten Minahasa Selatan, Sulawesi Utara";"Kabupaten Minahasa Selatan, Sulawesi Utara";"SULAWESI UTARA";"";"Indonesia";"";"";"";"0.9161562";"124.4721654";"https://maps.google.com/?cid=0x0:0x676015d25cbac2d4";""
"perumahan";"Komplek perumahan";"Kel. Mawati Moningka";"VFWF+PV2, Tumani, Kec. Maesaan, Kabupaten Minahasa Selatan, Sulawesi Utara";"Kabupaten Minahasa Selatan, Sulawesi Utara";"SULAWESI UTARA";"";"Indonesia";"";"";"";"0.8967516";"124.4746336";"https://maps.google.com/?cid=0x0:0x715143885098dd9a";""
"perumahan";"Pembangunan Perumahan";"Lontoh";"VFXC+9X9, Tumani, Kec. Maesaan, Kabupaten Minahasa Selatan, Sulawesi Utara";"Kabupaten Minahasa Selatan, Sulawesi Utara";"SULAWESI UTARA";"";"Indonesia";"";"";"";"0.8984197";"124.4724711";"https://maps.google.com/?cid=0x0:0xf188f0b01ba355ca";""
"perumahan";"Komplek perumahan";"Balai desa Temboan";"VCWR+HJ3, Temboan, Kec. Maesaan, Kabupaten Minahasa Selatan, Sulawesi Utara";"Kabupaten Minahasa Selatan, Sulawesi Utara";"SULAWESI UTARA";"";"Indonesia";"";"";"";"0.8963965";"124.4415403";"https://maps.google.com/?cid=0x0:0xc538f35accdbc5d1";""
"perumahan";"perumahan";"Pertigaan Lowian";"WF46+52G, Lowian, Kec. Maesaan, Kabupaten Minahasa Selatan, Sulawesi Utara";"Kabupaten Minahasa Selatan, Sulawesi Utara";"SULAWESI UTARA";"";"Indonesia";"";"";"";"0.9053944";"124.4600154";"https://maps.google.com/?cid=0x0:0x10a8f522fe0fea1a";""
"perumahan";"perumahan";"PENYULINGAN NILAM 3M";"VFHF+HPC, Tambelang, Kec. Maesaan, Kabupaten Minahasa Selatan, Sulawesi Utara";"Kabupaten Minahasa Selatan, Sulawesi Utara";"SULAWESI UTARA";"";"Indonesia";" 081244017070";"";"";"0.878996";"124.4742921";"https://maps.google.com/?cid=0x0:0x934b3fee739e21e8";""
"perumahan";"Komplek perumahan";"GorakaManis";"WF25+C29, Lowian, Kec. Maesaan, Kabupaten Minahasa Selatan, Sulawesi Utara";"Kabupaten Minahasa Selatan, Sulawesi Utara";"SULAWESI UTARA";"";"Indonesia";"";"";"";"0.9008571";"124.4577266";"https://maps.google.com/?cid=0x0:0xf11206220bd273b5";""
"perumahan";"Komplek perumahan";"Perumahan Tiga Berlian";"8VF3+7V5, Paslaten Satu, Tatapaan, Kabupaten Minahasa Selatan, Sulawesi Utara";"Kabupaten Minahasa Selatan, Sulawesi Utara";"SULAWESI UTARA";"";"Indonesia";" 085298797832";"";"";"1.3231343";"124.8547331";"https://maps.google.com/?cid=0x0:0xb424d39313e96126";""
"perumahan";"Komplek perumahan";"rindorindo langi rumah .";"WF86+G7C, Sion, Kec. Tompaso Baru, Kabupaten Minahasa Selatan, Sulawesi Utara";"Kabupaten Minahasa Selatan, Sulawesi Utara";"SULAWESI UTARA";"";"Indonesia";"";"";"";"0.916857";"124.4607765";"https://maps.google.com/?cid=0x0:0xd2b775f75fc7f628";""
"perumahan";"Komplek perumahan";"Keluarga Manengkey-Sekko";"WF4C+PR2 Utara jaga 3, Tumani, Kec. Maesaan, Kabupaten Minahasa Selatan, Sulawesi Utara";"Kabupaten Minahasa Selatan, Sulawesi Utara";"SULAWESI UTARA";"";"Indonesia";"";"";"";"0.9067543";"124.4720212";"https://maps.google.com/?cid=0x0:0x33997cb0628cfd8e";""
"perumahan";"Komplek perumahan";"Rosa Home";"VF8H+X42, Kinamang Satu, Kec. Maesaan, Kabupaten Minahasa Selatan, Sulawesi Utara";"Kabupaten Minahasa Selatan, Sulawesi Utara";"SULAWESI UTARA";"";"Indonesia";"";"";"";"0.8673754";"124.4777811";"https://maps.google.com/?cid=0x0:0x23c58821941eb737";""
"perumahan";"Komplek perumahan";"GwenHome's";"WF25+FCP, Lowian, Kec. Maesaan, Kabupaten Minahasa Selatan, Sulawesi Utara";"Kabupaten Minahasa Selatan, Sulawesi Utara";"SULAWESI UTARA";"";"Indonesia";"";"";"";"0.9012034";"124.4585925";"https://maps.google.com/?cid=0x0:0x4c9703d2569bcbcf";""
"perumahan";"Komplek perumahan";"Mongkau-Sumajow";"WFFC+GFM, Tompaso Baru Satu, Kec. Tompaso Baru, Kabupaten Minahasa Selatan, Sulawesi Utara";"Kabupaten Minahasa Selatan, Sulawesi Utara";"SULAWESI UTARA";"";"Indonesia";"";"";"";"0.9238284";"124.4711686";"https://maps.google.com/?cid=0x0:0x5bc17f569f1b219";""
"perumahan";"Komplek perumahan";"Hana Home's";"WF25+MCG, Lowian, Kec. Maesaan, Kabupaten Minahasa Selatan, Sulawesi Utara";"Kabupaten Minahasa Selatan, Sulawesi Utara";"SULAWESI UTARA";"";"Indonesia";"";"";"";"0.9016809";"124.4585933";"https://maps.google.com/?cid=0x0:0xd75269e0511c04e";""
"perumahan";"Komplek perumahan";"Eman Montolalu";"WF25+M87, Lowian, Kec. Maesaan, Kabupaten Minahasa Selatan, Sulawesi Utara";"Kabupaten Minahasa Selatan, Sulawesi Utara";"SULAWESI UTARA";"";"Indonesia";"";"";"";"0.9017725";"124.4583025";"https://maps.google.com/?cid=0x0:0x1262ac0c27ce22c1";""
"perumahan";"Komplek perumahan";"keryn ombeng";"VF98+4JX, Tambelang, Kec. Maesaan, Kabupaten Minahasa Selatan, Sulawesi Utara";"Kabupaten Minahasa Selatan, Sulawesi Utara";"SULAWESI UTARA";"";"Indonesia";"";"";"";"0.86785";"124.466615";"https://maps.google.com/?cid=0x0:0xe37522ca473b082d";""
"perumahan";"Komplek perumahan";"Ezra Home";"VCW5+VF5, Temboan, Kec. Maesaan, Kabupaten Minahasa Selatan, Sulawesi Utara";"Kabupaten Minahasa Selatan, Sulawesi Utara";"SULAWESI UTARA";"";"Indonesia";"";"";"";"0.8971321";"124.4087307";"https://maps.google.com/?cid=0x0:0x5a2b095ad7982323";""
"perumahan";"Komplek perumahan";"My home";"WF3F+536, Tumani, Kec. Maesaan, Kabupaten Minahasa Selatan, Sulawesi Utara";"Kabupaten Minahasa Selatan, Sulawesi Utara";"SULAWESI UTARA";"";"Indonesia";"";"";"";"0.9027846";"124.4728766";"https://maps.google.com/?cid=0x0:0xa85d7c976ffc0b6c";""
"perumahan";"Komplek perumahan";"Lorong 9";"Perumahan Maesaan Permata Sagerat, Tambelang, Kec. Maesaan, Kabupaten Minahasa Selatan, Sulawesi Utara";"Kabupaten Minahasa Selatan, Sulawesi Utara";"SULAWESI UTARA";"";"Indonesia";"";"";"";"0.8779406";"124.4741741";"https://maps.google.com/?cid=0x0:0x66cfad8d0a9d9db8";""
"perumahan";"perumahan";"Kec. Modoinding";"Kabupaten Minahasa Selatan, Sulawesi Utara";"Kabupaten Minahasa Selatan, Sulawesi Utara";"SULAWESI UTARA";"";"Indonesia";"";"";"";"0.7934377";"124.4536411";"https://maps.google.com/?cid=0x0:0xd408c5df1a05e95c";""
"perumahan";"Komplek perumahan";"Makaaroyen";"RC3W+8MH, Makaaruyen, Kec. Modoinding, Kabupaten Minahasa Selatan, Sulawesi Utara";"Kabupaten Minahasa Selatan, Sulawesi Utara";"SULAWESI UTARA";"";"Indonesia";"";"";"";"0.8033171";"124.4467262";"https://maps.google.com/?cid=0x0:0x769e28dcaaaf9c6c";""
"perumahan";"Kantor Pemerintah Distrik";"Perumahan Camat Modoinding";"QFR3+C4C, Pinasungkulan, Kec. Modoinding, Kabupaten Minahasa Selatan, Sulawesi Utara";"Kabupaten Minahasa Selatan, Sulawesi Utara";"SULAWESI UTARA";"";"Indonesia";"";"";"";"0.7910676";"124.4527559";"https://maps.google.com/?cid=0x0:0x7e520ed0613bc39d";""
"perumahan";"Komplek perumahan";"Rendy Wagey";"QFR3+GJP, Pinasungkulan, Kec. Modoinding, Kabupaten Minahasa Selatan, Sulawesi Utara";"Kabupaten Minahasa Selatan, Sulawesi Utara";"SULAWESI UTARA";"";"Indonesia";"";"";"";"0.7907919";"124.4545386";"https://maps.google.com/?cid=0x0:0x710a62e15d6af6b0";""
"perumahan";"Gereja";"Pastori GMAHK Pinasungkulan";"Pinasungkulan, Kec. Modoinding, Kabupaten Minahasa Selatan, Sulawesi Utara";"Kabupaten Minahasa Selatan, Sulawesi Utara";"SULAWESI UTARA";"";"Indonesia";"";"";"";"0.7954214";"124.4501417";"https://maps.google.com/?cid=0x0:0x969abd5bb7aa034e";""
"perumahan";"Komplek perumahan";"ae";"RC5J+Q7X, Wulurmaatus, Kec. Modoinding, Kabupaten Minahasa Selatan, Sulawesi Utara";"Kabupaten Minahasa Selatan, Sulawesi Utara";"SULAWESI UTARA";"";"Indonesia";"";"";"";"0.8094768";"124.43074";"https://maps.google.com/?cid=0x0:0xb4fcd0e26d6fd19b";""
"perumahan";"perumahan";"kisko";"QFW2+FQ6, Pinasungkulan, Kec. Modoinding, Kabupaten Minahasa Selatan, Sulawesi Utara";"Kabupaten Minahasa Selatan, Sulawesi Utara";"SULAWESI UTARA";"";"Indonesia";"";"";"";"0.7961586";"124.4518764";"https://maps.google.com/?cid=0x0:0x47a46da0c698007a";""
"perumahan";"Pembangunan Perumahan";"Ging";"RCWP+5HW, Mokobang, Kec. Modoinding, Kabupaten Minahasa Selatan, Sulawesi Utara";"Kabupaten Minahasa Selatan, Sulawesi Utara";"SULAWESI UTARA";"";"Indonesia";"";"";"";"0.8454896";"124.4364621";"https://maps.google.com/?cid=0x0:0x335286081f72b7";""
"perumahan";"Komplek perumahan";"FT Home";"RC2X+58X, Makaaruyen, Kec. Modoinding, Kabupaten Minahasa Selatan, Sulawesi Utara";"Kabupaten Minahasa Selatan, Sulawesi Utara";"SULAWESI UTARA";"";"Indonesia";"";"";"";"0.8004977";"124.4483723";"https://maps.google.com/?cid=0x0:0x9b72c5e826dc1eb2";""
"perumahan";"Komplek perumahan";"Ina";"RC6H+3Q5, Wulurmaatus, Kec. Modoinding, Kabupaten Minahasa Selatan, Sulawesi Utara";"Kabupaten Minahasa Selatan, Sulawesi Utara";"SULAWESI UTARA";"";"Indonesia";"";"";"";"0.81015";"124.429486";"https://maps.google.com/?cid=0x0:0x45544dabc22ff8e0";""
"perumahan";"perumahan";"Mil's Home";"RC4W+5VM, Makaaruyen, Kec. Modoinding, Kabupaten Minahasa Selatan, Sulawesi Utara";"Kabupaten Minahasa Selatan, Sulawesi Utara";"SULAWESI UTARA";"";"Indonesia";"";"";"";"0.8054589";"124.4471571";"https://maps.google.com/?cid=0x0:0xa0e9d43337673452";""
"perumahan";"Komplek perumahan";"Oci Home";"RF25+V2Q, Linelean, Kec. Modoinding, Kabupaten Minahasa Selatan, Sulawesi Utara";"Kabupaten Minahasa Selatan, Sulawesi Utara";"SULAWESI UTARA";"";"Indonesia";"";"";"";"0.8022045";"124.4576122";"https://maps.google.com/?cid=0x0:0x22272016aac8050";""
"perumahan";"Komplek perumahan";"🏠Twins";"QFQC+J27, Kakenturan, Kec. Modoinding, Kabupaten Minahasa Selatan, Sulawesi Utara";"Kabupaten Minahasa Selatan, Sulawesi Utara";"SULAWESI UTARA";"";"Indonesia";"";"";"";"0.7890377";"124.4700467";"https://maps.google.com/?cid=0x0:0x2dfdf0f87925690b";""
"perumahan";"Komplek perumahan";"BabyHome";"QFV3+792, Pinasungkulan, Kec. Modoinding, Kabupaten Minahasa Selatan, Sulawesi Utara";"Kabupaten Minahasa Selatan, Sulawesi Utara";"SULAWESI UTARA";"";"Indonesia";"";"";"";"0.793125";"124.453384";"https://maps.google.com/?cid=0x0:0x802f95a7aa114f3";""
"perumahan";"Komplek perumahan";"Mumu Rumondor";"QFX4+6XX, Linelean, Kec. Modoinding, Kabupaten Minahasa Selatan, Sulawesi Utara";"Kabupaten Minahasa Selatan, Sulawesi Utara";"SULAWESI UTARA";"";"Indonesia";"";"";"";"0.7978833";"124.4569596";"https://maps.google.com/?cid=0x0:0x3b78ed510a7f68b9";""
"perumahan";"perumahan";"kis komaling";"QFW2+FQJ, Pinasungkulan, Kec. Modoinding, Kabupaten Minahasa Selatan, Sulawesi Utara";"Kabupaten Minahasa Selatan, Sulawesi Utara";"SULAWESI UTARA";"";"Indonesia";"";"";"";"0.7961955";"124.4518798";"https://maps.google.com/?cid=0x0:0x381b4bb4902865f5";""
"perumahan";"Komplek perumahan";"Monoarfa - Sangkaeng Resident";"RC4W+379, Makaaruyen, Kec. Modoinding, Kabupaten Minahasa Selatan, Sulawesi Utara";"Kabupaten Minahasa Selatan, Sulawesi Utara";"SULAWESI UTARA";"";"Indonesia";"";"";"";"0.8051509";"124.4457255";"https://maps.google.com/?cid=0x0:0xeb845fa711e29306";""
"perumahan";"Komplek perumahan";"Rumah dwi";"QFX3+3M3, Pinasungkulan, Kec. Modoinding, Kabupaten Minahasa Selatan, Sulawesi Utara";"Kabupaten Minahasa Selatan, Sulawesi Utara";"SULAWESI UTARA";"";"Indonesia";"";"";"";"0.7976498";"124.4541714";"https://maps.google.com/?cid=0x0:0x9692e4d1296b95ff";""
"perumahan";"Komplek perumahan";"IkaRifkaHome";"QCXX+4Q4, Pinasungkulan, Kec. Modoinding, Kabupaten Minahasa Selatan, Sulawesi Utara";"Kabupaten Minahasa Selatan, Sulawesi Utara";"SULAWESI UTARA";"";"Indonesia";"";"";"";"0.7977625";"124.4494531";"https://maps.google.com/?cid=0x0:0x7c0082f241deefdf";""
"perumahan";"Sekolah";"RDG (Rumah Dinas Guru) SD INPRES Sinisir";"QFP3+PJ3, Sinisir, Kec. Modoinding, Kabupaten Minahasa Selatan, Sulawesi Utara";"Kabupaten Minahasa Selatan, Sulawesi Utara";"SULAWESI UTARA";"";"Indonesia";"";"";"";"0.7867678";"124.4540477";"https://maps.google.com/?cid=0x0:0xead3a505e3f5bdd5";""
"perumahan";"Komplek perumahan";"Kel. Retor Pangau";"QFR8+P82, Kakenturan, Kec. Modoinding, Kabupaten Minahasa Selatan, Sulawesi Utara";"Kabupaten Minahasa Selatan, Sulawesi Utara";"SULAWESI UTARA";"";"Indonesia";"";"";"";"0.7917612";"124.4657538";"https://maps.google.com/?cid=0x0:0x4f87269e69a3e518";""
"perumahan";"Komplek perumahan";"Mini house Pdt Ferdy Tendean";"QFPC+HQ, Kakenturan, Kec. Modoinding, Kabupaten Minahasa Selatan, Sulawesi Utara";"Kabupaten Minahasa Selatan, Sulawesi Utara";"SULAWESI UTARA";"";"Indonesia";"";"";"";"0.78649";"124.47196";"https://maps.google.com/?cid=0x0:0xf51fe99542df780b";""
"perumahan";"perumahan";"Kec. Motoling Bar.";"Kabupaten Minahasa Selatan, Sulawesi Utara";"Kabupaten Minahasa Selatan, Sulawesi Utara";"SULAWESI UTARA";"";"Indonesia";"";"";"";"1.0414558";"124.4413862";"https://maps.google.com/?cid=0x0:0x6c6cffd8f0e2995b";""
"perumahan";"Komplek perumahan";"Rumah Maria Cantik";"2CRR+7HX, Raanan Baru I, Kec. Motoling Bar., Kabupaten Minahasa Selatan, Sulawesi Utara";"Kabupaten Minahasa Selatan, Sulawesi Utara";"SULAWESI UTARA";"";"Indonesia";"";"";"";"1.0407262";"124.4414969";"https://maps.google.com/?cid=0x0:0x60a5cdf27afa07e3";""
"perumahan";"Komplek perumahan";"Pelita, Sulawesi Utara, Indonesia.";"299H+49X, Tondei, Kec. Motoling Bar., Kabupaten Minahasa Selatan, Sulawesi Utara";"Kabupaten Minahasa Selatan, Sulawesi Utara";"SULAWESI UTARA";"";"Indonesia";"";"";"";"1.0178545";"124.3784818";"https://maps.google.com/?cid=0x0:0x5feaf7a036bc6af3";""
"perumahan";"Komplek perumahan";"Rumah HenslyMasengi";"2CRR+7HX, I, Raanan Baru, Kec. Motoling Bar., Kabupaten Minahasa Selatan, Sulawesi Utara";"Kabupaten Minahasa Selatan, Sulawesi Utara";"SULAWESI UTARA";"";"Indonesia";" 085242796629";"";"";"1.040658";"124.441739";"https://maps.google.com/?cid=0x0:0x48a854baf33027de";""
"perumahan";"Komplek perumahan";"Raanan Baru";"2CVQ+8Q9, Raanan Baru, Kec. Motoling Bar., Kabupaten Minahasa Selatan, Sulawesi Utara";"Kabupaten Minahasa Selatan, Sulawesi Utara";"SULAWESI UTARA";"";"Indonesia";"";"";"";"1.0432784";"124.439479";"https://maps.google.com/?cid=0x0:0xcf33154e004816eb";""
"perumahan";"perumahan";""Lumenta Bella"king";"29XP+FC2, Tondei, Kec. Motoling Bar., Kabupaten Minahasa Selatan, Sulawesi Utara";"Kabupaten Minahasa Selatan, Sulawesi Utara";"SULAWESI UTARA";"";"Indonesia";"";"";"";"1.0486375";"124.3860156";"https://maps.google.com/?cid=0x0:0xa701464fd01efb48";""
"perumahan";"perumahan";"Vhee homey";"Jl. Raya Tondei No.2, Tondei Dua, Kec. Motoling Bar., Kabupaten Minahasa Selatan, Sulawesi Utara";"Kabupaten Minahasa Selatan, Sulawesi Utara";"SULAWESI UTARA";"";"Indonesia";"";"";"";"1.0482863";"124.3900438";"https://maps.google.com/?cid=0x0:0x5987ff740bf3c3fa";""
"perumahan";"Komplek perumahan";"Persimpangan Motoling";"2FQH+XXP, Jl. Amurang - Kotamobagu, Motoling, Kec. Motoling, Kabupaten Minahasa Selatan, Sulawesi Utara";"Kabupaten Minahasa Selatan, Sulawesi Utara";"SULAWESI UTARA";"";"Indonesia";"";"";"";"1.039951";"124.4799551";"https://maps.google.com/?cid=0x0:0xb93585393700ae23";""
"perumahan";"Komplek perumahan";"Kel Wowor Rompas";"2CVQ+49R, Raanan Baru, Kec. Motoling Bar., Kabupaten Minahasa Selatan, Sulawesi Utara";"Kabupaten Minahasa Selatan, Sulawesi Utara";"SULAWESI UTARA";"";"Indonesia";"";"";"";"1.0428634";"124.4383943";"https://maps.google.com/?cid=0x0:0x59c04e06acecd5e7";""
"perumahan";"Komplek perumahan";"POCHINKI";"29XR+M4X, Tondei Dua, Kec. Motoling Bar., Kabupaten Minahasa Selatan, Sulawesi Utara";"Kabupaten Minahasa Selatan, Sulawesi Utara";"SULAWESI UTARA";"";"Indonesia";"";"";"";"1.049125";"124.3906996";"https://maps.google.com/?cid=0x0:0x2a873cf8ff3f3cf5";""
"perumahan";"Komplek perumahan";"LUMOPA TONDEI SATU KEC.MOTOLING BARAT";"394P+WCF, Tondei, Kec. Motoling Bar., Kabupaten Minahasa Selatan, Sulawesi Utara";"Kabupaten Minahasa Selatan, Sulawesi Utara";"SULAWESI UTARA";"";"Indonesia";"";"";"";"1.0573146";"124.386044";"https://maps.google.com/?cid=0x0:0x45ab019d18b3a3a5";""
"perumahan";"Komplek perumahan";"Lembah Area";"2CRQ+XG4 jaga 6, Raanan Baru, Kec. Motoling Bar., Kabupaten Minahasa Selatan, Sulawesi Utara";"Kabupaten Minahasa Selatan, Sulawesi Utara";"SULAWESI UTARA";"";"Indonesia";"";"";"";"1.0423753";"124.4388313";"https://maps.google.com/?cid=0x0:0xaa0bf8cf1b41cb2a";""
"perumahan";"Komplek perumahan";"Wotulo kawengian";"392Q+2XF, Tondei Dua, Kec. Motoling Bar., Kabupaten Minahasa Selatan, Sulawesi Utara";"Kabupaten Minahasa Selatan, Sulawesi Utara";"SULAWESI UTARA";"";"Indonesia";"";"";"";"1.0500374";"124.3898705";"https://maps.google.com/?cid=0x0:0x28185874904f688f";""
"perumahan";"Komplek perumahan";"Zero Point Motoling";"2FF7+MC, Motoling, Kec. Motoling, Kabupaten Minahasa Selatan, Sulawesi Utara";"Kabupaten Minahasa Selatan, Sulawesi Utara";"SULAWESI UTARA";"";"Indonesia";"";"";"";"1.039972";"124.4799539";"https://maps.google.com/?cid=0x0:0xa1a8ecbc9f90fd73";""
"perumahan";"Komplek perumahan";"Ratalaur";"2CXR+XP, Raanan Baru II, Kec. Motoling Bar., Kabupaten Minahasa Selatan, Sulawesi Utara";"Kabupaten Minahasa Selatan, Sulawesi Utara";"SULAWESI UTARA";"";"Indonesia";"";"";"";"1.0499844";"124.4418197";"https://maps.google.com/?cid=0x0:0x5f944c5dbf7259c4";""
"perumahan";"Komplek perumahan";"Rumah oma";"2FRG+2M4, Motoling Satu, Kec. Motoling, Kabupaten Minahasa Selatan, Sulawesi Utara";"Kabupaten Minahasa Selatan, Sulawesi Utara";"SULAWESI UTARA";"";"Indonesia";"";"";"";"1.039966";"124.4767092";"https://maps.google.com/?cid=0x0:0x6e4af90d9d403464";""
"perumahan";"perumahan";"TiwaHome";"2FQ9+M77, Motoling Dua, Kec. Motoling, Kabupaten Minahasa Selatan, Sulawesi Utara";"Kabupaten Minahasa Selatan, Sulawesi Utara";"SULAWESI UTARA";"";"Indonesia";"";"";"";"1.0391641";"124.4681843";"https://maps.google.com/?cid=0x0:0xe97948fda080bfb5";""
"perumahan";"Komplek perumahan";"Wowor-Longdong Family";"2CHP+2H4, Raanan Baru, Kec. Motoling Bar., Kabupaten Minahasa Selatan, Sulawesi Utara";"Kabupaten Minahasa Selatan, Sulawesi Utara";"SULAWESI UTARA";"";"Indonesia";"";"";"";"1.0275216";"124.4364621";"https://maps.google.com/?cid=0x0:0x9dcf24cddf6af7f9";""
"perumahan";"Komplek perumahan";"Todd";"2CWP+2XC, Raanan Baru, Kec. Motoling Bar., Kabupaten Minahasa Selatan, Sulawesi Utara";"Kabupaten Minahasa Selatan, Sulawesi Utara";"SULAWESI UTARA";"";"Indonesia";"";"";"";"1.0449791";"124.437416";"https://maps.google.com/?cid=0x0:0x2fed04fe15b0bcb5";""
"perumahan";"Komplek perumahan";"Merry Home Motoling 2";"2FQC+XCW, Motoling Dua, Kec. Motoling, Kabupaten Minahasa Selatan, Sulawesi Utara";"Kabupaten Minahasa Selatan, Sulawesi Utara";"SULAWESI UTARA";"";"Indonesia";" 082252544970";"";"";"1.0399971";"124.4710922";"https://maps.google.com/?cid=0x0:0xe895b9de0d47c46a";""
"perumahan";"perumahan";"Vita home";"29XQ+CWW, Tondei Dua, Kec. Motoling Bar., Kabupaten Minahasa Selatan, Sulawesi Utara";"Kabupaten Minahasa Selatan, Sulawesi Utara";"SULAWESI UTARA";"";"Indonesia";"";"";"";"1.0482953";"124.3900391";"https://maps.google.com/?cid=0x0:0x91a272eba8b71e93";""
"perumahan";"Komplek perumahan";"Kel. Wowor Longdong Family";"2CRQ+7W3, Raanan Baru I, Kec. Motoling Bar., Kabupaten Minahasa Selatan, Sulawesi Utara";"Kabupaten Minahasa Selatan, Sulawesi Utara";"SULAWESI UTARA";"";"Indonesia";" 081244558299";"";"";"1.0413351";"124.4397086";"https://maps.google.com/?cid=0x0:0x18698d222096fb32";""
"perumahan";"Komplek perumahan";"Cindy";"29XR+JP3, Tondei Dua, Kec. Motoling Bar., Kabupaten Minahasa Selatan, Sulawesi Utara";"Kabupaten Minahasa Selatan, Sulawesi Utara";"SULAWESI UTARA";"";"Indonesia";"";"";"";"1.0490058";"124.3917823";"https://maps.google.com/?cid=0x0:0xed9ecb6372f79f2a";""
"perumahan";"Pembangunan Perumahan";"Kel.Dien Ringkuangan";"I, Raanan Baru, Kec. Motoling Bar., Kabupaten Minahasa Selatan, Sulawesi Utara";"Kabupaten Minahasa Selatan, Sulawesi Utara";"SULAWESI UTARA";"";"Indonesia";"";"";"";"1.039541";"124.4381009";"https://maps.google.com/?cid=0x0:0x74c327c177cb8fa5";""
"perumahan";"Komplek perumahan";"rumah exo";"29XR+H9W, Tondei Dua, Kec. Motoling Bar., Kabupaten Minahasa Selatan, Sulawesi Utara";"Kabupaten Minahasa Selatan, Sulawesi Utara";"SULAWESI UTARA";"";"Indonesia";"";"";"";"1.0489875";"124.3909405";"https://maps.google.com/?cid=0x0:0x3b5b73d3c5d71cb6";""
"perumahan";"perumahan";"Kel: Wowor Bella";"392P+5CF, Tondei Satu, Kec. Motoling Bar., Kabupaten Minahasa Selatan, Sulawesi Utara";"Kabupaten Minahasa Selatan, Sulawesi Utara";"SULAWESI UTARA";"";"Indonesia";"";"";"";"1.0502845";"124.3861006";"https://maps.google.com/?cid=0x0:0x4f3cb277a3a5db62";""
"perumahan";"perumahan";"Kec. Motoling Tim.";"Kabupaten Minahasa Selatan, Sulawesi Utara";"Kabupaten Minahasa Selatan, Sulawesi Utara";"SULAWESI UTARA";"";"Indonesia";"";"";"";"1.0658557";"124.4966035";"https://maps.google.com/?cid=0x0:0xc31c83b5c58d6f0d";""
"perumahan";"perumahan";"Repi Rumengan";"3GH8+86C, Tokin Baru, Kec. Motoling Tim., Kabupaten Minahasa Selatan, Sulawesi Utara";"Kabupaten Minahasa Selatan, Sulawesi Utara";"SULAWESI UTARA";"";"Indonesia";"";"";"";"1.0783134";"124.5155125";"https://maps.google.com/?cid=0x0:0x918ff378b74a665";""
"perumahan";"Pembangunan Perumahan";"Jeremia siwu";"3F7W+75X, Wanga, Kec. Motoling Tim., Kabupaten Minahasa Selatan, Sulawesi Utara";"Kabupaten Minahasa Selatan, Sulawesi Utara";"SULAWESI UTARA";"";"Indonesia";" 085756639652";"";"";"1.0632494";"124.4954976";"https://maps.google.com/?cid=0x0:0x84bb40d0f114dd63";""
"perumahan";"Komplek perumahan";"Rumah";"3GP7+MC3, Karimbow Talikuran, Kec. Motoling Tim., Kabupaten Minahasa Selatan, Sulawesi Utara";"Kabupaten Minahasa Selatan, Sulawesi Utara";"SULAWESI UTARA";"";"Indonesia";"";"";"";"1.0866442";"124.5135346";"https://maps.google.com/?cid=0x0:0xf0eb6830665714c2";""
"perumahan";"Komplek perumahan";"Rumah Eva muntu";"3GF3+M7R, Tokin Baru, Kec. Motoling Tim., Kabupaten Minahasa Selatan, Sulawesi Utara";"Kabupaten Minahasa Selatan, Sulawesi Utara";"SULAWESI UTARA";"";"Indonesia";"";"";"";"1.0742333";"124.5031476";"https://maps.google.com/?cid=0x0:0xdbf2ccfabbd2498e";""
"perumahan";"Komplek perumahan";"lita hone";"3GJC+Q6R, Tokin, Kec. Motoling Tim., Kabupaten Minahasa Selatan, Sulawesi Utara";"Kabupaten Minahasa Selatan, Sulawesi Utara";"SULAWESI UTARA";"";"Indonesia";"";"";"";"1.0819857";"124.5205215";"https://maps.google.com/?cid=0x0:0xf53ea5a350f431f2";""
"perumahan";"perumahan";"Permukiman";"3GJF+MGV, Tokin, Kec. Motoling Tim., Kabupaten Minahasa Selatan, Sulawesi Utara";"Kabupaten Minahasa Selatan, Sulawesi Utara";"SULAWESI UTARA";"";"Indonesia";"";"";"";"1.0817278";"124.5237842";"https://maps.google.com/?cid=0x0:0xbd8dbeb0dd6ab7a5";""
"perumahan";"Kompleks Apartemen";"K.A";"2GR6+5VF, Picuan Satu, Kec. Motoling Tim., Kabupaten Minahasa Selatan, Sulawesi Utara";"Kabupaten Minahasa Selatan, Sulawesi Utara";"SULAWESI UTARA";"";"Indonesia";"";"";"";"1.0404438";"124.5121804";"https://maps.google.com/?cid=0x0:0x3b38ff42ce3eb20d";""
"perumahan";"Pembangunan Perumahan";"lorong tokar";"3GJC+P8M, Tokin, Kec. Motoling Tim., Kabupaten Minahasa Selatan, Sulawesi Utara";"Kabupaten Minahasa Selatan, Sulawesi Utara";"SULAWESI UTARA";"";"Indonesia";"";"";"";"1.0818296";"124.520812";"https://maps.google.com/?cid=0x0:0x2aff51a659cf9e77";""
"perumahan";"Komplek perumahan";"Persimpangan Motoling";"2FQH+XXP, Jl. Amurang - Kotamobagu, Motoling, Kec. Motoling, Kabupaten Minahasa Selatan, Sulawesi Utara";"Kabupaten Minahasa Selatan, Sulawesi Utara";"SULAWESI UTARA";"";"Indonesia";"";"";"";"1.039951";"124.4799551";"https://maps.google.com/?cid=0x0:0xb93585393700ae23";""
"perumahan";"Komplek perumahan";"Rumah Marentek Pongtuluran";"2GQ7+R56, Picuan Satu, Kec. Motoling Tim., Kabupaten Minahasa Selatan, Sulawesi Utara";"Kabupaten Minahasa Selatan, Sulawesi Utara";"SULAWESI UTARA";"";"Indonesia";"";"";"";"1.0395375";"124.5128906";"https://maps.google.com/?cid=0x0:0xff65abc66de533c";""
"perumahan";"Perhimpunan Pengembang Perumahan";"Prisilia Kumolontang";"3GG5+RJ6, Tokin Baru, Kec. Motoling Tim., Kabupaten Minahasa Selatan, Sulawesi Utara";"Kabupaten Minahasa Selatan, Sulawesi Utara";"SULAWESI UTARA";"";"Indonesia";"";"";"";"1.0770436";"124.5090149";"https://maps.google.com/?cid=0x0:0x16d72d9329597d25";""
"perumahan";"Komplek perumahan";"Ruma Kel.kontu.lumowa";"2FVP+R6Q, Picuan Baru, Kec. Motoling, Kabupaten Minahasa Selatan, Sulawesi Utara";"Kabupaten Minahasa Selatan, Sulawesi Utara";"SULAWESI UTARA";"";"Indonesia";"";"";"";"1.0448214";"124.4856998";"https://maps.google.com/?cid=0x0:0x435ac5c4460b48ac";""
"perumahan";"Komplek perumahan";"Karimbow";"3GQF+589, Karimbow, Kec. Motoling Tim., Kabupaten Minahasa Selatan, Sulawesi Utara";"Kabupaten Minahasa Selatan, Sulawesi Utara";"SULAWESI UTARA";"";"Indonesia";"";"";"";"1.0880286";"124.5232986";"https://maps.google.com/?cid=0x0:0x57d55adf78120028";""
"perumahan";"Inspektur Tempat Tinggal";"Kel Warong kaligis";"3GJC+V4F, Tokin, Kec. Motoling Tim., Kabupaten Minahasa Selatan, Sulawesi Utara";"Kabupaten Minahasa Selatan, Sulawesi Utara";"SULAWESI UTARA";"";"Indonesia";"";"";"";"1.0821976";"124.5202932";"https://maps.google.com/?cid=0x0:0x5ffa20ec726fe0ad";""
"perumahan";"Komplek perumahan";"Kubur Tokin Baru";"3GG6+3H4, Tokin Baru, Kec. Motoling Tim., Kabupaten Minahasa Selatan, Sulawesi Utara";"Kabupaten Minahasa Selatan, Sulawesi Utara";"SULAWESI UTARA";"";"Indonesia";"";"";"";"1.0751383";"124.5114661";"https://maps.google.com/?cid=0x0:0xd587925d8c6fb9e3";""
"perumahan";"Komplek perumahan";"Rumah Harvi";"3GQ8+CH8, Karimbow Talikuran, Kec. Motoling Tim., Kabupaten Minahasa Selatan, Sulawesi Utara";"Kabupaten Minahasa Selatan, Sulawesi Utara";"SULAWESI UTARA";"";"Indonesia";"";"";"";"1.088547";"124.5164495";"https://maps.google.com/?cid=0x0:0x31ea580ee68012f4";""
"perumahan";"Komplek perumahan";"Besar yaku";"3GF4+WG3, Unnamed Road, Tokin Baru, Kec. Motoling Tim., Kabupaten Minahasa Selatan, Sulawesi Utara";"Kabupaten Minahasa Selatan, Sulawesi Utara";"SULAWESI UTARA";"";"Indonesia";"";"";"";"1.0747665";"124.5063018";"https://maps.google.com/?cid=0x0:0x3ff4179dc0b769e2";""
"perumahan";"Komplek perumahan";"Home Natalia";"2GR6+GRP, Picuan Satu, Kec. Motoling Tim., Kabupaten Minahasa Selatan, Sulawesi Utara";"Kabupaten Minahasa Selatan, Sulawesi Utara";"SULAWESI UTARA";"";"Indonesia";"";"";"";"1.0413298";"124.512092";"https://maps.google.com/?cid=0x0:0x746b30df1ac6162b";""
"perumahan";"Pembangunan Perumahan";"Lorong TOAR-FERDY";"3GMF+7XJ, Tokin, Kec. Motoling Tim., Kabupaten Minahasa Selatan, Sulawesi Utara";"Kabupaten Minahasa Selatan, Sulawesi Utara";"SULAWESI UTARA";"";"Indonesia";"";"";"";"1.0832158";"124.5249308";"https://maps.google.com/?cid=0x0:0xec7cfc467edb0ccb";""
"perumahan";"Komplek perumahan";"KessekPelle DeniFintje";"3F8W+7R9, Wanga Amongena, Kec. Motoling Tim., Kabupaten Minahasa Selatan, Sulawesi Utara";"Kabupaten Minahasa Selatan, Sulawesi Utara";"SULAWESI UTARA";"";"Indonesia";"";"";"";"1.0655229";"124.4970743";"https://maps.google.com/?cid=0x0:0x5ce42fef2bbcbed";""
"perumahan";"Komplek perumahan";"KEL. PANTOW KASENDA";"2FXP+5HP, Picuan Baru, Kec. Motoling, Kabupaten Minahasa Selatan, Sulawesi Utara";"Kabupaten Minahasa Selatan, Sulawesi Utara";"SULAWESI UTARA";"";"Indonesia";"";"";"";"1.0479625";"124.4864531";"https://maps.google.com/?cid=0x0:0xa2a2aae4ce10bb5f";""
"perumahan";"perumahan";"Keluarga Pongantung Pangkei";"3FMJ+JQV, Kumelembuai II, Kec. Kumelembuai, Kabupaten Minahasa Selatan, Sulawesi Utara";"Kabupaten Minahasa Selatan, Sulawesi Utara";"SULAWESI UTARA";"";"Indonesia";"";"";"";"1.0841057";"124.481928";"https://maps.google.com/?cid=0x0:0x40baf305c9f4eccf";""
"perumahan";"Komplek perumahan";"Eldeto home";"3GVG+2QQ, Karimbow, Kec. Motoling Tim., Kabupaten Minahasa Selatan, Sulawesi Utara";"Kabupaten Minahasa Selatan, Sulawesi Utara";"SULAWESI UTARA";"";"Indonesia";"";"";"";"1.0925836";"124.5269729";"https://maps.google.com/?cid=0x0:0x2218171deeb54418";""
"perumahan";"Komplek perumahan";"Home Kel. Timporok Tompodung";"2GR7+F4J, Picuan Satu, Kec. Motoling Tim., Kabupaten Minahasa Selatan, Sulawesi Utara";"Kabupaten Minahasa Selatan, Sulawesi Utara";"SULAWESI UTARA";"";"Indonesia";"";"";"";"1.0412104";"124.5127532";"https://maps.google.com/?cid=0x0:0xfdde6869e0c7b3ee";""
"perumahan";"perumahan";"Kec. Motoling Tim.";"Kabupaten Minahasa Selatan, Sulawesi Utara";"Kabupaten Minahasa Selatan, Sulawesi Utara";"SULAWESI UTARA";"";"Indonesia";"";"";"";"1.0658557";"124.4966035";"https://maps.google.com/?cid=0x0:0xc31c83b5c58d6f0d";""
"perumahan";"Komplek perumahan";"Rumah Eva muntu";"3GF3+M7R, Tokin Baru, Kec. Motoling Tim., Kabupaten Minahasa Selatan, Sulawesi Utara";"Kabupaten Minahasa Selatan, Sulawesi Utara";"SULAWESI UTARA";"";"Indonesia";"";"";"";"1.0742333";"124.5031476";"https://maps.google.com/?cid=0x0:0xdbf2ccfabbd2498e";""
"perumahan";"perumahan";"Repi Rumengan";"3GH8+86C, Tokin Baru, Kec. Motoling Tim., Kabupaten Minahasa Selatan, Sulawesi Utara";"Kabupaten Minahasa Selatan, Sulawesi Utara";"SULAWESI UTARA";"";"Indonesia";"";"";"";"1.0783134";"124.5155125";"https://maps.google.com/?cid=0x0:0x918ff378b74a665";""
"perumahan";"perumahan";"Keluarga Pongantung Pangkei";"3FMJ+JQV, Kumelembuai II, Kec. Kumelembuai, Kabupaten Minahasa Selatan, Sulawesi Utara";"Kabupaten Minahasa Selatan, Sulawesi Utara";"SULAWESI UTARA";"";"Indonesia";"";"";"";"1.0841057";"124.481928";"https://maps.google.com/?cid=0x0:0x40baf305c9f4eccf";""
"perumahan";"Pembangunan Perumahan";"Jeremia siwu";"3F7W+75X, Wanga, Kec. Motoling Tim., Kabupaten Minahasa Selatan, Sulawesi Utara";"Kabupaten Minahasa Selatan, Sulawesi Utara";"SULAWESI UTARA";"";"Indonesia";" 085756639652";"";"";"1.0632494";"124.4954976";"https://maps.google.com/?cid=0x0:0x84bb40d0f114dd63";""
"perumahan";"Kompleks Apartemen";"Rumah irex";"2GP7+QMG, Picuan, Kec. Motoling Tim., Kabupaten Minahasa Selatan, Sulawesi Utara";"Kabupaten Minahasa Selatan, Sulawesi Utara";"SULAWESI UTARA";"";"Indonesia";"";"";"";"1.0369161";"124.5142178";"https://maps.google.com/?cid=0x0:0x59921fb2cff7e9cc";""
"perumahan";"Komplek perumahan";"Kel Rantung Muntu";"3GPC+F4R, desa, Karimbow Talikuran, Kec. Motoling Tim., Kabupaten Minahasa Selatan, Sulawesi Utara";"Kabupaten Minahasa Selatan, Sulawesi Utara";"SULAWESI UTARA";"";"Indonesia";"";"";"";"1.0859963";"124.5196414";"https://maps.google.com/?cid=0x0:0x2275027dee629c16";""
"perumahan";"Komplek perumahan";"Kel.Atmo-Raranta";"3GG6+G38, Tokin Baru, Kec. Motoling Tim., Kabupaten Minahasa Selatan, Sulawesi Utara";"Kabupaten Minahasa Selatan, Sulawesi Utara";"SULAWESI UTARA";"";"Indonesia";"";"";"";"1.0762914";"124.5101974";"https://maps.google.com/?cid=0x0:0x326ea043d852d138";""
"perumahan";"Komplek perumahan";"Pekuburan Umum Motoling";"2FPM+G4W, Motoling Mawale, Kec. Motoling, Kabupaten Minahasa Selatan, Sulawesi Utara";"Kabupaten Minahasa Selatan, Sulawesi Utara";"SULAWESI UTARA";"";"Indonesia";"";"";"";"1.0363554";"124.4828278";"https://maps.google.com/?cid=0x0:0x6d67f5cad9d8fc04";""
"perumahan";"Komplek perumahan";"Tokin jg 3";"3GJF+G2P, Tokin, Kec. Motoling Tim., Kabupaten Minahasa Selatan, Sulawesi Utara";"Kabupaten Minahasa Selatan, Sulawesi Utara";"SULAWESI UTARA";"";"Indonesia";" 085256768351";"";"";"1.0813321";"124.5225926";"https://maps.google.com/?cid=0x0:0xbda547775c94039b";""
"perumahan";"Kompleks Apartemen";"K.A";"2GR6+5VF, Picuan Satu, Kec. Motoling Tim., Kabupaten Minahasa Selatan, Sulawesi Utara";"Kabupaten Minahasa Selatan, Sulawesi Utara";"SULAWESI UTARA";"";"Indonesia";"";"";"";"1.0404438";"124.5121804";"https://maps.google.com/?cid=0x0:0x3b38ff42ce3eb20d";""
"perumahan";"Komplek perumahan";"Pendong Tololiu (Sonny Detty)";"3GG4+M9G, Tokin Baru, Kec. Motoling Tim., Kabupaten Minahasa Selatan, Sulawesi Utara";"Kabupaten Minahasa Selatan, Sulawesi Utara";"SULAWESI UTARA";"";"Indonesia";"";"";"";"1.0766868";"124.5059464";"https://maps.google.com/?cid=0x0:0xf47658fdbc525cc7";""
"perumahan";"Komplek perumahan";"Joy sumangkut tendean";"2GQ8+G9V, Picuan Satu, Kec. Motoling Tim., Kabupaten Minahasa Selatan, Sulawesi Utara";"Kabupaten Minahasa Selatan, Sulawesi Utara";"SULAWESI UTARA";"";"Indonesia";"";"";"";"1.0392802";"124.5166193";"https://maps.google.com/?cid=0x0:0x46a55a6a60fc697";""
"perumahan";"Komplek perumahan";"Kel.Ulaan-Runtunuwu";"3GVH+6JX, Karimbow, Kec. Motoling Tim., Kabupaten Minahasa Selatan, Sulawesi Utara";"Kabupaten Minahasa Selatan, Sulawesi Utara";"SULAWESI UTARA";"";"Indonesia";"";"";"";"1.0931219";"124.5290969";"https://maps.google.com/?cid=0x0:0x94b35cab3aab7636";""
"perumahan";"Pembangunan Perumahan";"Reyhan Kaligis";"3GG6+P23, Tokin Baru, Kec. Motoling Tim., Kabupaten Minahasa Selatan, Sulawesi Utara";"Kabupaten Minahasa Selatan, Sulawesi Utara";"SULAWESI UTARA";"";"Indonesia";"";"";"";"1.077174";"124.5094088";"https://maps.google.com/?cid=0x0:0x50c1ef925acba3cc";""
"perumahan";"Komplek perumahan";"Rumah";"3GP7+MC3, Karimbow Talikuran, Kec. Motoling Tim., Kabupaten Minahasa Selatan, Sulawesi Utara";"Kabupaten Minahasa Selatan, Sulawesi Utara";"SULAWESI UTARA";"";"Indonesia";"";"";"";"1.0866442";"124.5135346";"https://maps.google.com/?cid=0x0:0xf0eb6830665714c2";""
"perumahan";"Komplek perumahan";"Rumah Marentek Pongtuluran";"2GQ7+R56, Picuan Satu, Kec. Motoling Tim., Kabupaten Minahasa Selatan, Sulawesi Utara";"Kabupaten Minahasa Selatan, Sulawesi Utara";"SULAWESI UTARA";"";"Indonesia";"";"";"";"1.0395375";"124.5128906";"https://maps.google.com/?cid=0x0:0xff65abc66de533c";""
"perumahan";"Pembangunan Perumahan";"Atmo Raranta";"3GG6+G38, Tokin Baru, Kec. Motoling Tim., Kabupaten Minahasa Selatan, Sulawesi Utara";"Kabupaten Minahasa Selatan, Sulawesi Utara";"SULAWESI UTARA";"";"Indonesia";"";"";"";"1.076275";"124.510178";"https://maps.google.com/?cid=0x0:0x8c153576dd388fc5";""
"perumahan";"Perhimpunan Pengembang Perumahan";"Prisilia Kumolontang";"3GG5+RJ6, Tokin Baru, Kec. Motoling Tim., Kabupaten Minahasa Selatan, Sulawesi Utara";"Kabupaten Minahasa Selatan, Sulawesi Utara";"SULAWESI UTARA";"";"Indonesia";"";"";"";"1.0770436";"124.5090149";"https://maps.google.com/?cid=0x0:0x16d72d9329597d25";""
"perumahan";"Komplek perumahan";"Ruma Kel.kontu.lumowa";"2FVP+R6Q, Picuan Baru, Kec. Motoling, Kabupaten Minahasa Selatan, Sulawesi Utara";"Kabupaten Minahasa Selatan, Sulawesi Utara";"SULAWESI UTARA";"";"Indonesia";"";"";"";"1.0448214";"124.4856998";"https://maps.google.com/?cid=0x0:0x435ac5c4460b48ac";""
"perumahan";"Komplek perumahan";"KEL. PANTOW KASENDA";"2FXP+5HP, Picuan Baru, Kec. Motoling, Kabupaten Minahasa Selatan, Sulawesi Utara";"Kabupaten Minahasa Selatan, Sulawesi Utara";"SULAWESI UTARA";"";"Indonesia";"";"";"";"1.0479625";"124.4864531";"https://maps.google.com/?cid=0x0:0xa2a2aae4ce10bb5f";""
"perumahan";"perumahan";"House of Kel. SENGKEY RAMBITAN";"2FWQ+73X, Picuan Baru, Kec. Motoling Tim., Kabupaten Minahasa Selatan, Sulawesi Utara";"Kabupaten Minahasa Selatan, Sulawesi Utara";"SULAWESI UTARA";"";"Indonesia";"";"";"";"1.0457315";"124.4877423";"https://maps.google.com/?cid=0x0:0x2e211db0b2f8ff37";""
"perumahan";"Komplek perumahan";"KessekPelle DeniFintje";"3F8W+7R9, Wanga Amongena, Kec. Motoling Tim., Kabupaten Minahasa Selatan, Sulawesi Utara";"Kabupaten Minahasa Selatan, Sulawesi Utara";"SULAWESI UTARA";"";"Indonesia";"";"";"";"1.0655229";"124.4970743";"https://maps.google.com/?cid=0x0:0x5ce42fef2bbcbed";""
"perumahan";"Pembangunan Perumahan";"memell house";"3F6W+X79, Wanga, Kec. Motoling Tim., Kabupaten Minahasa Selatan, Sulawesi Utara";"Kabupaten Minahasa Selatan, Sulawesi Utara";"SULAWESI UTARA";"";"Indonesia";"";"";"";"1.0624083";"124.4957469";"https://maps.google.com/?cid=0x0:0xc7d33df3a0268a06";""
"perumahan";"Komplek perumahan";"Hizkia pendong";"3GG6+P23, Tokin Baru, Kec. Motoling Tim., Kabupaten Minahasa Selatan, Sulawesi Utara";"Kabupaten Minahasa Selatan, Sulawesi Utara";"SULAWESI UTARA";"";"Indonesia";"";"";"";"1.0772441";"124.5092224";"https://maps.google.com/?cid=0x0:0xdfecfc63cb54335d";""
"perumahan";"perumahan";"Kec. Ranoyapo";"Kabupaten Minahasa Selatan, Sulawesi Utara";"Kabupaten Minahasa Selatan, Sulawesi Utara";"SULAWESI UTARA";"";"Indonesia";"";"";"";"0.9993883";"124.4993385";"https://maps.google.com/?cid=0x0:0x1e005a1bf0ed1cb7";""
"perumahan";"perumahan";"Rumah";"XF7R+9QJ, Ranoiapo, Kec. Ranoyapo, Kabupaten Minahasa Selatan, Sulawesi Utara";"Kabupaten Minahasa Selatan, Sulawesi Utara";"SULAWESI UTARA";"";"Indonesia";"";"";"";"0.9634558";"124.4918988";"https://maps.google.com/?cid=0x0:0xab0471ff25e7f53c";""
"perumahan";"Komplek perumahan";"Mopolo village kecamatan Ranoyapo";"XGR9+8RQ, Mopolo, Kec. Ranoyapo, Kabupaten Minahasa Selatan, Sulawesi Utara";"Kabupaten Minahasa Selatan, Sulawesi Utara";"SULAWESI UTARA";"";"Indonesia";"";"";"";"0.9908424";"124.519604";"https://maps.google.com/?cid=0x0:0x73ea37b7ee0760ab";""
"perumahan";"Komplek perumahan";"Werung menajang";"XFQV+G78, Poopo, Kec. Ranoyapo, Kabupaten Minahasa Selatan, Sulawesi Utara";"Kabupaten Minahasa Selatan, Sulawesi Utara";"SULAWESI UTARA";"";"Indonesia";"";"";"";"0.9887821";"124.4932052";"https://maps.google.com/?cid=0x0:0x33104e07b3c37f67";""
"perumahan";"perumahan";"Rumah Nilam Jaya";"2GC8+86M, Lompad, Kec. Ranoyapo, Kabupaten Minahasa Selatan, Sulawesi Utara";"Kabupaten Minahasa Selatan, Sulawesi Utara";"SULAWESI UTARA";"";"Indonesia";"";"";"";"1.0208355";"124.5155137";"https://maps.google.com/?cid=0x0:0xbe4b727cc4e58ea8";""
"perumahan";"Komplek perumahan";"Istana Rivhael Kordak";"XFCV+P5X Komplex Smp N7Ranoiapo, Ranoiapo, Kec. Ranoyapo, Kabupaten Minahasa Selatan, Sulawesi Utara";"Kabupaten Minahasa Selatan, Sulawesi Utara";"SULAWESI UTARA";"";"Indonesia";"";"";"";"0.9718566";"124.4929698";"https://maps.google.com/?cid=0x0:0x52db54db57eb864c";""
"perumahan";"Komplek perumahan";"Kel. Lembong Londa";"XFQP+C33, Poopo Bar., Kec. Ranoyapo, Kabupaten Minahasa Selatan, Sulawesi Utara";"Kabupaten Minahasa Selatan, Sulawesi Utara";"SULAWESI UTARA";"";"Indonesia";"";"";"";"0.9885133";"124.4851791";"https://maps.google.com/?cid=0x0:0x85b109bc2c40c812";""
"perumahan";"Komplek perumahan";"Soputan-Rembet";"XGX2+J5P, Pontak Satu, Kec. Ranoyapo, Kabupaten Minahasa Selatan, Sulawesi Utara";"Kabupaten Minahasa Selatan, Sulawesi Utara";"SULAWESI UTARA";"";"Indonesia";"";"";"";"0.9990796";"124.500466";"https://maps.google.com/?cid=0x0:0xa0d4961ba850fa99";""
"perumahan";"Perhimpunan Pengembang Perumahan";"Yohana family";"2G28+85V, Mopolo, Kec. Ranoyapo, Kabupaten Minahasa Selatan, Sulawesi Utara";"Kabupaten Minahasa Selatan, Sulawesi Utara";"SULAWESI UTARA";"";"Indonesia";" 088704458062";"";"";"1.0008522";"124.5154371";"https://maps.google.com/?cid=0x0:0xd4c8cf0efd49b3ec";""
"perumahan";"Komplek perumahan";"Rizky yansen";"XFVR+QWV, Poopo Utara, Kec. Ranoyapo, Kabupaten Minahasa Selatan, Sulawesi Utara";"Kabupaten Minahasa Selatan, Sulawesi Utara";"SULAWESI UTARA";"";"Indonesia";"";"";"";"0.9951197";"124.4915823";"https://maps.google.com/?cid=0x0:0x783ddeb53cbd3b49";""
"perumahan";"Pembangunan Perumahan";"G.T";"2FCW+F5P, Lompad Baru, Kec. Ranoyapo, Kabupaten Minahasa Selatan, Sulawesi Utara";"Kabupaten Minahasa Selatan, Sulawesi Utara";"SULAWESI UTARA";"";"Indonesia";"";"";"";"1.0211797";"124.495387";"https://maps.google.com/?cid=0x0:0x740f875e6e6da0b2";""
"perumahan";"Pembangunan Perumahan";"Lorong Panzer";"2G3V+7M8, Powalutan, Kec. Ranoyapo, Kabupaten Minahasa Selatan, Sulawesi Utara";"Kabupaten Minahasa Selatan, Sulawesi Utara";"SULAWESI UTARA";"";"Indonesia";"";"";"";"1.0031699";"124.5441963";"https://maps.google.com/?cid=0x0:0x535e5b00f9f93e2e";""
"perumahan";"Pembangunan Perumahan";"Cerio Home";"Pontak, Kec. Ranoyapo, Kabupaten Minahasa Selatan, Sulawesi Utara";"Kabupaten Minahasa Selatan, Sulawesi Utara";"SULAWESI UTARA";"";"Indonesia";"";"";"";"1.0034734";"124.4980795";"https://maps.google.com/?cid=0x0:0xb830bb73b4c17b63";""
"perumahan";"Komplek perumahan";"Lumenta Mewo";"XFFW+C9J, Ranoiapo, Kec. Ranoyapo, Kabupaten Minahasa Selatan, Sulawesi Utara";"Kabupaten Minahasa Selatan, Sulawesi Utara";"SULAWESI UTARA";"";"Indonesia";"";"";"";"0.9735876";"124.4958938";"https://maps.google.com/?cid=0x0:0xc5af871ec07d4a59";""
"perumahan";"Komplek perumahan";"Assa Kawatu Residence";"XFVR+QWV, Poopo Utara, Kec. Ranoyapo, Kabupaten Minahasa Selatan, Sulawesi Utara";"Kabupaten Minahasa Selatan, Sulawesi Utara";"SULAWESI UTARA";"";"Indonesia";"";"";"";"0.9945628";"124.4915825";"https://maps.google.com/?cid=0x0:0x52afdd249a350a6d";""
"perumahan";"Komplek perumahan";"Kompleks abokza";"2F2W+QQX, Pontak, Kec. Ranoyapo, Kabupaten Minahasa Selatan, Sulawesi Utara";"Kabupaten Minahasa Selatan, Sulawesi Utara";"SULAWESI UTARA";"";"Indonesia";"";"";"";"1.0019983";"124.4969715";"https://maps.google.com/?cid=0x0:0xf32b6cb483874560";""
"perumahan";"perumahan";"N/A";"";"";"SULAWESI UTARA";"";"Indonesia";"";"";"";"";"";"https://maps.google.com/?cid=0x0:0xe7db5705d4e68da7";""
"perumahan";"perumahan";"Najoan Soputan (Nancy Najoan)";"2F4X+23F, Pontak, Kec. Ranoyapo, Kabupaten Minahasa Selatan, Sulawesi Utara";"Kabupaten Minahasa Selatan, Sulawesi Utara";"SULAWESI UTARA";"";"Indonesia";"";"";"";"1.0050565";"124.4976842";"https://maps.google.com/?cid=0x0:0xd4636f9e6da022c8";""
"perumahan";"Pembangunan Perumahan";"Rumah WangkoTamba";"XFCV+VF9 jaga 7, Ranoiapo, Kec. Ranoyapo, Kabupaten Minahasa Selatan, Sulawesi Utara";"Kabupaten Minahasa Selatan, Sulawesi Utara";"SULAWESI UTARA";"";"Indonesia";"";"";"";"0.9721704";"124.4937233";"https://maps.google.com/?cid=0x0:0x8fa02884c938b662";""
"perumahan";"Komplek perumahan";"KANONENG RESIDENCE";"XGW8+7F6, Mopolo, Kec. Ranoyapo, Kabupaten Minahasa Selatan, Sulawesi Utara";"Kabupaten Minahasa Selatan, Sulawesi Utara";"SULAWESI UTARA";"";"Indonesia";"";"";"";"0.995654";"124.5161289";"https://maps.google.com/?cid=0x0:0x257e26e1eaf318a5";""
"perumahan";"Komplek perumahan";"Kel. Rantung Ticoalu";"XFRW+63J, Poopo, Kec. Ranoyapo, Kabupaten Minahasa Selatan, Sulawesi Utara";"Kabupaten Minahasa Selatan, Sulawesi Utara";"SULAWESI UTARA";"";"Indonesia";"";"";"";"0.990583";"124.4951485";"https://maps.google.com/?cid=0x0:0xc1b897760a757c86";""
"perumahan";"Komplek perumahan";"Home jeju";"2F9V+W9G, Lompad Baru, Kec. Ranoyapo, Kabupaten Minahasa Selatan, Sulawesi Utara";"Kabupaten Minahasa Selatan, Sulawesi Utara";"SULAWESI UTARA";"";"Indonesia";"";"";"";"1.0198125";"124.4934574";"https://maps.google.com/?cid=0x0:0xcff69bab7a0b60d2";""
"perumahan";"Perhimpunan Pengembang Perumahan";"Rall home";"XF9W+324, Ranoiapo, Kec. Ranoyapo, Kabupaten Minahasa Selatan, Sulawesi Utara";"Kabupaten Minahasa Selatan, Sulawesi Utara";"SULAWESI UTARA";"";"Indonesia";"";"";"";"0.9676427";"124.4950868";"https://maps.google.com/?cid=0x0:0x483ef6d178a09811";""
"perumahan";"Perhimpunan Pengembang Perumahan";"HerLani Home";"XF9V+WQJ, Ranoiapo, Kec. Ranoyapo, Kabupaten Minahasa Selatan, Sulawesi Utara";"Kabupaten Minahasa Selatan, Sulawesi Utara";"SULAWESI UTARA";"";"Indonesia";"";"";"";"0.9698269";"124.4944052";"https://maps.google.com/?cid=0x0:0x3f5b15a2ed5098e0";""
"perumahan";"perumahan";"R Langi Waani";"2GC6+PWM, Lompad, Kec. Ranoyapo, Kabupaten Minahasa Selatan, Sulawesi Utara";"Kabupaten Minahasa Selatan, Sulawesi Utara";"SULAWESI UTARA";"";"Indonesia";"";"";"";"1.0218433";"124.5123043";"https://maps.google.com/?cid=0x0:0x6e38c0efa51df807";""
"perumahan";"Komplek perumahan";"Soputan";"XFQP+RXV, Poopo Bar., Kec. Ranoyapo, Kabupaten Minahasa Selatan, Sulawesi Utara";"Kabupaten Minahasa Selatan, Sulawesi Utara";"SULAWESI UTARA";"";"Indonesia";"";"";"";"0.9896115";"124.4874107";"https://maps.google.com/?cid=0x0:0x908328ec52c1ddf3";""
"perumahan";"perumahan";"Ranoyapo";"Kec. Amurang, Kabupaten Minahasa Selatan, Sulawesi Utara";"Kabupaten Minahasa Selatan, Sulawesi Utara";"SULAWESI UTARA";"";"Indonesia";"";"";"";"1.1842417";"124.567375";"https://maps.google.com/?cid=0x0:0x4c4aa0a1088dc68d";""
"perumahan";"perumahan";"Kec. Sinonsayang";"Kabupaten Minahasa Selatan, Sulawesi Utara";"Kabupaten Minahasa Selatan, Sulawesi Utara";"SULAWESI UTARA";"";"Indonesia";"";"";"";"1.0964547";"124.3480233";"https://maps.google.com/?cid=0x0:0x459f24c060a3cdba";""
"perumahan";"perumahan";"Kel.Tambun - Pangkey";"38VR+63C, Ongkaw I, Kec. Sinonsayang, Kabupaten Minahasa Selatan, Sulawesi Utara";"Kabupaten Minahasa Selatan, Sulawesi Utara";"SULAWESI UTARA";"";"Indonesia";"";"";"";"1.0930737";"124.3401534";"https://maps.google.com/?cid=0x0:0x24ca262eb04fd923";""
"perumahan";"Pembangunan Perumahan";"Triple A";"39RM+Q3R, Tiniawangko, Kec. Sinonsayang, Kabupaten Minahasa Selatan, Sulawesi Utara";"Kabupaten Minahasa Selatan, Sulawesi Utara";"SULAWESI UTARA";"";"Indonesia";"";"";"";"1.0919869";"124.3826339";"https://maps.google.com/?cid=0x0:0x8866a45bf1e8116b";""
"perumahan";"Perhimpunan Pengembang Perumahan";"Mikha Home";"38RP+PGX, Ongkaw I, Kec. Sinonsayang, Kabupaten Minahasa Selatan, Sulawesi Utara";"Kabupaten Minahasa Selatan, Sulawesi Utara";"SULAWESI UTARA";"";"Indonesia";"";"";"";"1.0918562";"124.3363557";"https://maps.google.com/?cid=0x0:0x14e79d2956fe4532";""
"perumahan";"Komplek perumahan";"Salla Rau";"486V+3VH, Boyong pante, dua, jaga 2, Kec. Sinonsayang, Kabupaten Minahasa Selatan, Sulawesi Utara";"Kabupaten Minahasa Selatan, Sulawesi Utara";"SULAWESI UTARA";"";"Indonesia";"";"";"";"1.1101875";"124.3447344";"https://maps.google.com/?cid=0x0:0x46d9b39a26f176f";""
"perumahan";"";"Boyongpante2";"485W+X26, II, Boyonpante, Kec. Sinonsayang, Kabupaten Minahasa Selatan, Sulawesi Utara";"Kabupaten Minahasa Selatan, Sulawesi Utara";"SULAWESI UTARA";"";"Indonesia";"";"";"";"1.1099125";"124.3450156";"https://maps.google.com/?cid=0x0:0x4308c96fd8cfcc6";""
"perumahan";"Komplek perumahan";"Celly Residence";"38XV+3WF, Ongkaw 1 jaga 3, Ongkaw II, Kec. Sinonsayang, Kabupaten Minahasa Selatan, Sulawesi Utara";"Kabupaten Minahasa Selatan, Sulawesi Utara";"SULAWESI UTARA";"";"Indonesia";"";"";"";"1.0976963";"124.3448046";"https://maps.google.com/?cid=0x0:0xa505628c94bc02f3";""
"perumahan";"perumahan";"Syong";"38RP+93F, Ongkaw I, Kec. Sinonsayang, Kabupaten Minahasa Selatan, Sulawesi Utara";"Kabupaten Minahasa Selatan, Sulawesi Utara";"SULAWESI UTARA";"";"Indonesia";"";"";"";"1.0909268";"124.3351595";"https://maps.google.com/?cid=0x0:0x96899a0862e3b766";""
"perumahan";"Komplek perumahan";"Kambey home";"28V7+7WW, Tanamon, Kec. Sinonsayang, Kabupaten Minahasa Selatan, Sulawesi Utara";"Kabupaten Minahasa Selatan, Sulawesi Utara";"SULAWESI UTARA";"";"Indonesia";"";"";"";"1.0430448";"124.3159015";"https://maps.google.com/?cid=0x0:0x4c515b2f96aa476b";""
"perumahan";"Komplek perumahan";"Jendri Home";"38XW+HMW, Jl. Gamel, Ongkaw II, Kec. Sinonsayang, Kabupaten Minahasa Selatan, Sulawesi Utara";"Kabupaten Minahasa Selatan, Sulawesi Utara";"SULAWESI UTARA";"";"Indonesia";"";"";"";"1.0989627";"124.3467084";"https://maps.google.com/?cid=0x0:0x4742d638999202d6";""
"perumahan";"Balai Kota";"Desa tiniawangko";"39RP+V44, Tiniawangko, Kec. Sinonsayang, Kabupaten Minahasa Selatan, Sulawesi Utara";"Kabupaten Minahasa Selatan, Sulawesi Utara";"SULAWESI UTARA";"";"Indonesia";"";"";"";"1.0921426";"124.3853188";"https://maps.google.com/?cid=0x0:0x8ffb670cbbe4b8c5";""
"perumahan";"perumahan";"Rumah andika";"28C5+VR8, Poigar II, Kec. Sinonsayang, Kabupaten Minahasa Selatan, Sulawesi Utara";"Kabupaten Minahasa Selatan, Sulawesi Utara";"SULAWESI UTARA";"";"Indonesia";"";"";"";"1.0219555";"124.3100793";"https://maps.google.com/?cid=0x0:0xd8410c21992a8df4";""
"perumahan";"Kantor Pemerintah";"Poskesdes desa Blongko";"Jaga, RW.3, Blongko, Kec. Sinonsayang, Kabupaten Minahasa Selatan, Sulawesi Utara";"Kabupaten Minahasa Selatan, Sulawesi Utara";"SULAWESI UTARA";"";"Indonesia";"";"";"";"1.1308083";"124.3536764";"https://maps.google.com/?cid=0x0:0xaf55405fd4a8767f";""
"perumahan";"Pembangunan Perumahan";"Kel. Situmorang sumolang";"39RM+GJC, Tiniawangko, Kec. Sinonsayang, Kabupaten Minahasa Selatan, Sulawesi Utara";"Kabupaten Minahasa Selatan, Sulawesi Utara";"SULAWESI UTARA";"";"Indonesia";"";"";"";"1.0912176";"124.3843397";"https://maps.google.com/?cid=0x0:0xaec5aa657a4657d1";""
"perumahan";"Komplek perumahan";"Rumah Fadli ano";"39VM+2QQ, Tiniawangko, Kec. Sinonsayang, Kabupaten Minahasa Selatan, Sulawesi Utara";"Kabupaten Minahasa Selatan, Sulawesi Utara";"SULAWESI UTARA";"";"Indonesia";"";"";"";"1.0925826";"124.3844735";"https://maps.google.com/?cid=0x0:0x312b673c82fd8f2b";""
"perumahan";"Komplek perumahan";"ello house";"38VQ+G94, Ongkaw I, Kec. Sinonsayang, Kabupaten Minahasa Selatan, Sulawesi Utara";"Kabupaten Minahasa Selatan, Sulawesi Utara";"SULAWESI UTARA";"";"Indonesia";"";"";"";"1.0937746";"124.3384475";"https://maps.google.com/?cid=0x0:0x925890436407a483";""
"perumahan";"Komplek perumahan";"Inkahome";"28GF+Q3G, Poigar I, Kec. Sinonsayang, Kabupaten Minahasa Selatan, Sulawesi Utara";"Kabupaten Minahasa Selatan, Sulawesi Utara";"SULAWESI UTARA";"";"Indonesia";"";"";"";"1.0269315";"124.3227079";"https://maps.google.com/?cid=0x0:0x5968d9d48d422cfb";""
"perumahan";"Perhimpunan Pengembang Perumahan";"Home Tols";"39RP+635, Tiniawangko, Kec. Sinonsayang, Kabupaten Minahasa Selatan, Sulawesi Utara";"Kabupaten Minahasa Selatan, Sulawesi Utara";"SULAWESI UTARA";"";"Indonesia";"";"";"";"1.090517";"124.3852212";"https://maps.google.com/?cid=0x0:0x63ce2762119f9a8a";""
"perumahan";"Perhimpunan Pengembang Perumahan";"Kintal Rama x-HGU";"38CH+J78, Aergale, Kec. Sinonsayang, Kabupaten Minahasa Selatan, Sulawesi Utara";"Kabupaten Minahasa Selatan, Sulawesi Utara";"SULAWESI UTARA";"";"Indonesia";"";"";"";"1.0715481";"124.328189";"https://maps.google.com/?cid=0x0:0x5e93b0bbfae16dbe";""
"perumahan";"Perhimpunan Pengembang Perumahan";"Sinta";"28F6+XG7, Tanamon, Kec. Sinonsayang, Kabupaten Minahasa Selatan, Sulawesi Utara";"Kabupaten Minahasa Selatan, Sulawesi Utara";"SULAWESI UTARA";"";"Indonesia";"";"";"";"1.024912";"124.311303";"https://maps.google.com/?cid=0x0:0xb6f9177f8bc3181c";""
"perumahan";"Komplek perumahan";"Rumah Injilia";"2894+3XH, Poigar II, Kec. Sinonsayang, Kabupaten Minahasa Selatan, Sulawesi Utara";"Kabupaten Minahasa Selatan, Sulawesi Utara";"SULAWESI UTARA";"";"Indonesia";"";"";"";"1.0183264";"124.3079626";"https://maps.google.com/?cid=0x0:0x5d8d543b123e5985";""
"perumahan";"Kantor Pemerintahan Kota";"Tanamon";"28F6+F7Q, Poigar II, Kec. Sinonsayang, Kabupaten Minahasa Selatan, Sulawesi Utara";"Kabupaten Minahasa Selatan, Sulawesi Utara";"SULAWESI UTARA";"";"Indonesia";"";"";"";"1.0237219";"124.3107463";"https://maps.google.com/?cid=0x0:0xcd5d46ee5eea68a3";""
"perumahan";"Komplek perumahan";"Hamenda laoh";"28C5+45M, Poigar II, Kec. Sinonsayang, Kabupaten Minahasa Selatan, Sulawesi Utara";"Kabupaten Minahasa Selatan, Sulawesi Utara";"SULAWESI UTARA";"";"Indonesia";"";"";"";"1.0203472";"124.3079357";"https://maps.google.com/?cid=0x0:0x80fc8368ab0c0333";""
"perumahan";"Komplek perumahan";"Jln.kopi";"28G6+G6V, Poigar II, Kec. Sinonsayang, Kabupaten Minahasa Selatan, Sulawesi Utara";"Kabupaten Minahasa Selatan, Sulawesi Utara";"SULAWESI UTARA";"";"Indonesia";"";"";"";"1.0263481";"124.3105451";"https://maps.google.com/?cid=0x0:0xaa71a6bf1f270d44";""
"perumahan";"Komplek perumahan";"Rumah Panggung";"2884+6GQ, Poigar II, Kec. Sinonsayang, Kabupaten Minahasa Selatan, Sulawesi Utara";"Kabupaten Minahasa Selatan, Sulawesi Utara";"SULAWESI UTARA";"";"Indonesia";"";"";"";"1.0161958";"124.306098";"https://maps.google.com/?cid=0x0:0x956bccb3d11a9650";""
"perumahan";"Komplek perumahan";"TAMBAYONG KANSIL";"486V+G3G, Boyonpante, Kec. Sinonsayang, Kabupaten Minahasa Selatan, Sulawesi Utara";"Kabupaten Minahasa Selatan, Sulawesi Utara";"SULAWESI UTARA";"";"Indonesia";"";"";"";"1.11131";"124.3427055";"https://maps.google.com/?cid=0x0:0x8c2c7f74b6dabbaa";""
"perumahan";"Komplek perumahan";"Edmart Tumanken home";"38XW+HMW, Jl. Gamel, Ongkaw II, Kec. Sinonsayang, Kabupaten Minahasa Selatan, Sulawesi Utara";"Kabupaten Minahasa Selatan, Sulawesi Utara";"SULAWESI UTARA";"";"Indonesia";"";"";"";"1.09911";"124.346172";"https://maps.google.com/?cid=0x0:0x26cc77dc4615285a";""
"perumahan";"Perhimpunan Pengembang Perumahan";"Karundeng datau";"38VR+53J, Unnamed Road, Ongkaw I, Kec. Sinonsayang, Kabupaten Minahasa Selatan, Sulawesi Utara";"Kabupaten Minahasa Selatan, Sulawesi Utara";"SULAWESI UTARA";"";"Indonesia";"";"";"";"1.092958";"124.3401416";"https://maps.google.com/?cid=0x0:0x273791d427e1bd2a";""
"perumahan";"Komplek perumahan";"E² home";"483W+MW5, Ongkaw II, Kec. Sinonsayang, Kabupaten Minahasa Selatan, Sulawesi Utara";"Kabupaten Minahasa Selatan, Sulawesi Utara";"SULAWESI UTARA";"";"Indonesia";"";"";"";"1.1041304";"124.3473661";"https://maps.google.com/?cid=0x0:0xefa9c003a100b021";""
"perumahan";"perumahan";"Kec. Tareran";"Kabupaten Minahasa Selatan, Sulawesi Utara";"Kabupaten Minahasa Selatan, Sulawesi Utara";"SULAWESI UTARA";"";"Indonesia";"";"";"";"1.2295372";"124.7372988";"https://maps.google.com/?cid=0x0:0xac5d2c923abab162";""
"perumahan";"Komplek perumahan";"Wuwuk kecamatan tareran";"6PQ2+9VX, Wuwuk, Kec. Tareran, Kabupaten Minahasa Selatan, Sulawesi Utara";"Kabupaten Minahasa Selatan, Sulawesi Utara";"SULAWESI UTARA";"";"Indonesia";"";"";"";"1.2384878";"124.7022382";"https://maps.google.com/?cid=0x0:0xd8a528456052a917";""
"perumahan";"perumahan";"House of Rori Mangimbulude";"6PRM+232, Wiau Lapi, Kec. Tareran, Kabupaten Minahasa Selatan, Sulawesi Utara";"Kabupaten Minahasa Selatan, Sulawesi Utara";"SULAWESI UTARA";"";"Indonesia";"";"";"";"1.240022";"124.7326398";"https://maps.google.com/?cid=0x0:0x97222d40b6039d5f";""
"perumahan";"perumahan";"Vell";"6P48+QJ4, Tumaluntung, Kec. Tareran, Kabupaten Minahasa Selatan, Sulawesi Utara";"Kabupaten Minahasa Selatan, Sulawesi Utara";"SULAWESI UTARA";"";"Indonesia";"";"";"";"1.2068786";"124.7165736";"https://maps.google.com/?cid=0x0:0x6a2f3725b5697f46";""
"perumahan";"Perhimpunan Pengembang Perumahan";"Karundeng Woran Residance";"6PMP+GFG, Lansot, Kec. Tareran, Kabupaten Minahasa Selatan, Sulawesi Utara";"Kabupaten Minahasa Selatan, Sulawesi Utara";"SULAWESI UTARA";"";"Indonesia";"";"";"";"1.2338131";"124.7362039";"https://maps.google.com/?cid=0x0:0x6bfa07308fa1201";""
"perumahan";"Komplek perumahan";"Rumah";"6PRJ+32W, Wiau Lapi, Kec. Tareran, Kabupaten Minahasa Selatan, Sulawesi Utara";"Kabupaten Minahasa Selatan, Sulawesi Utara";"SULAWESI UTARA";"";"Indonesia";" 085240331706";"";"";"1.2402196";"124.7302585";"https://maps.google.com/?cid=0x0:0x4cdbca014e47a4c6";""
"perumahan";"Komplek perumahan";"Rumah Maun Sinaulan";"6PRJ+3FJ, Wiau Lapi, Kec. Tareran, Kabupaten Minahasa Selatan, Sulawesi Utara";"Kabupaten Minahasa Selatan, Sulawesi Utara";"SULAWESI UTARA";"";"Indonesia";"";"";"";"1.2402242";"124.7311327";"https://maps.google.com/?cid=0x0:0x7b9457f0d979eca7";""
"perumahan";"Komplek perumahan";"Muka Rumah";"6P48+PXG, Tumaluntung, Kec. Tareran, Kabupaten Minahasa Selatan, Sulawesi Utara";"Kabupaten Minahasa Selatan, Sulawesi Utara";"SULAWESI UTARA";"";"Indonesia";"";"";"";"1.2067825";"124.7174171";"https://maps.google.com/?cid=0x0:0x5db2529941102cb7";""
"perumahan";"Komplek perumahan";"Tian room";"6PHM+C76, Rumoong Atas Dua, Kec. Tareran, Kabupaten Minahasa Selatan, Sulawesi Utara";"Kabupaten Minahasa Selatan, Sulawesi Utara";"SULAWESI UTARA";"";"Indonesia";"";"";"";"1.2284709";"124.7333159";"https://maps.google.com/?cid=0x0:0xa8824a13596b487f";""
"perumahan";"perumahan";"Kel. Tamboto Kowel";"Rumoong Atas, Kec. Tareran, Kabupaten Minahasa Selatan, Sulawesi Utara 95953";"Kec. Tareran, Kabupaten Minahasa Selatan";"SULAWESI UTARA";"95953";"Indonesia";" 0895384905808";"";"";"1.2301499";"124.7358784";"https://maps.google.com/?cid=0x0:0xdd88d2a4739ce304";""
"perumahan";"Komplek perumahan";"Rumah";"6P59+67M, Tumaluntung, Kec. Tareran, Kabupaten Minahasa Selatan, Sulawesi Utara";"Kabupaten Minahasa Selatan, Sulawesi Utara";"SULAWESI UTARA";"";"Indonesia";"";"";"";"1.2086483";"124.7183925";"https://maps.google.com/?cid=0x0:0x461e7e49bc195c7a";""
"perumahan";"Pembangunan Perumahan";"Tumbel - Rumengan";"6P58+HGX, Tumaluntung, Kec. Tareran, Kabupaten Minahasa Selatan, Sulawesi Utara";"Kabupaten Minahasa Selatan, Sulawesi Utara";"SULAWESI UTARA";"";"Indonesia";"";"";"";"1.2089845";"124.7163582";"https://maps.google.com/?cid=0x0:0x709c3ea1d3fdec26";""
"perumahan";"Komplek perumahan";"Rfp";"6PHM+C76, Rumoong Atas Dua, Kec. Tareran, Kabupaten Minahasa Selatan, Sulawesi Utara";"Kabupaten Minahasa Selatan, Sulawesi Utara";"SULAWESI UTARA";"";"Indonesia";" 088242680440";"";"";"1.2285457";"124.7331349";"https://maps.google.com/?cid=0x0:0xe21313ba4c9c742c";""
"perumahan";"Komplek perumahan";"LorTas";"6P58+7JV, Unnamed Road, Tumaluntung, Kec. Tareran, Kabupaten Minahasa Selatan, Sulawesi Utara";"Kabupaten Minahasa Selatan, Sulawesi Utara";"SULAWESI UTARA";"";"Indonesia";"";"";"";"1.2082448";"124.7165566";"https://maps.google.com/?cid=0x0:0x2fd53c277da9c574";""
"perumahan";"Komplek perumahan";"Pastori 3 GMIM";"6P59+75H, Tumaluntung, Kec. Tareran, Kabupaten Minahasa Selatan, Sulawesi Utara";"Kabupaten Minahasa Selatan, Sulawesi Utara";"SULAWESI UTARA";"";"Indonesia";"";"";"";"1.2081942";"124.7179919";"https://maps.google.com/?cid=0x0:0x876f8d2e11981f69";""
"perumahan";"perumahan";"Uit home";"6PJM+37X, Rumoong Atas Dua, Kec. Tareran, Kabupaten Minahasa Selatan, Sulawesi Utara";"Kabupaten Minahasa Selatan, Sulawesi Utara";"SULAWESI UTARA";"";"Indonesia";"";"";"";"1.230642";"124.7336693";"https://maps.google.com/?cid=0x0:0x27f1f738af237565";""
"perumahan";"Komplek perumahan";"RUMAH KARINA AESPA";"6PGQ+W22, Rumoong Atas, Kec. Tareran, Kabupaten Minahasa Selatan, Sulawesi Utara";"Kabupaten Minahasa Selatan, Sulawesi Utara";"SULAWESI UTARA";"";"Indonesia";"";"";"";"1.227263";"124.7375193";"https://maps.google.com/?cid=0x0:0xb2405d89c7750064";""
"perumahan";"perumahan";"Ka Ance L";"6PJM+852, Rumoong Atas Dua, Kec. Tareran, Kabupaten Minahasa Selatan, Sulawesi Utara";"Kabupaten Minahasa Selatan, Sulawesi Utara";"SULAWESI UTARA";"";"Indonesia";"";"";"";"1.2308188";"124.7328986";"https://maps.google.com/?cid=0x0:0x8bcf7380a54a158f";""
"perumahan";"Komplek perumahan";"Rumah Istimewa";"6PM4+5Q8, Wuwuk, Kec. Tareran, Kabupaten Minahasa Selatan, Sulawesi Utara";"Kabupaten Minahasa Selatan, Sulawesi Utara";"SULAWESI UTARA";"";"Indonesia";"";"";"";"1.2329215";"124.7069653";"https://maps.google.com/?cid=0x0:0x8dbe180d481adc8a";""
"perumahan";"Komplek perumahan";"Prilly Home";"6PRM+9GM, Wiau Lapi, Kec. Tareran, Kabupaten Minahasa Selatan, Sulawesi Utara";"Kabupaten Minahasa Selatan, Sulawesi Utara";"SULAWESI UTARA";"";"Indonesia";"";"";"";"1.2407697";"124.7335208";"https://maps.google.com/?cid=0x0:0x87cf0893011bc7a9";""
"perumahan";"Komplek perumahan";"Perumahan Tiga Berlian";"8VF3+7V5, Paslaten Satu, Tatapaan, Kabupaten Minahasa Selatan, Sulawesi Utara";"Kabupaten Minahasa Selatan, Sulawesi Utara";"SULAWESI UTARA";"";"Indonesia";" 085298797832";"";"";"1.3231343";"124.8547331";"https://maps.google.com/?cid=0x0:0xb424d39313e96126";""
"perumahan";"Komplek perumahan";"Sembel Rumengan residence";"6PJ3+WXW, Jl. Tumpaan - Kawangkoan, Wuwuk, Kec. Tareran, Kabupaten Minahasa Selatan, Sulawesi Utara";"Kabupaten Minahasa Selatan, Sulawesi Utara";"SULAWESI UTARA";"";"Indonesia";"";"";"";"1.232354";"124.7046246";"https://maps.google.com/?cid=0x0:0xa79dba7027e6ea72";""
"perumahan";"Pembangunan Perumahan";"Keluarga Karamoy Tawas";"6PGQ+R2M, Jl. Tumpaan - Kawangkoan, Rumoong Atas, Kec. Tareran, Kabupaten Minahasa Selatan, Sulawesi Utara";"Kabupaten Minahasa Selatan, Sulawesi Utara";"SULAWESI UTARA";"";"Indonesia";"";"";"";"1.2270879";"124.7375479";"https://maps.google.com/?cid=0x0:0x9fb4b37c0e96109d";""
"perumahan";"Komplek perumahan";"Jesika Tujuwale Residence";"6PM3+6F3, RT.Jaga/RW.3, Wuwuk, Kec. Tareran, Kabupaten Minahasa Selatan, Sulawesi Utara 95953";"RT.Jaga/RW.3, Wuwuk, Kec. Tareran, Kabupaten Minahasa Selatan";"SULAWESI UTARA";"95953";"Indonesia";"";"";"";"1.2328609";"124.7035561";"https://maps.google.com/?cid=0x0:0x66b5fe998b6479af";""
"perumahan";"Pembangunan Perumahan";"LORONG 69";"6PJP+2G5, Rumoong Atas, Kec. Tareran, Kabupaten Minahasa Selatan, Sulawesi Utara";"Kabupaten Minahasa Selatan, Sulawesi Utara";"SULAWESI UTARA";"";"Indonesia";"";"";"";"1.2300127";"124.7363501";"https://maps.google.com/?cid=0x0:0x7156fe0ad2d8ff0e";""
"perumahan";"perumahan";"Kec. Tatapaan";"Kabupaten Minahasa Selatan, Sulawesi Utara";"Kabupaten Minahasa Selatan, Sulawesi Utara";"SULAWESI UTARA";"";"Indonesia";"";"";"";"1.2864443";"124.6016444";"https://maps.google.com/?cid=0x0:0x2764afda0dd2b42d";""
"perumahan";"Komplek perumahan";"Wawona, Tatapaan";"8H56+XCV, Wawona, Kec. Tatapaan, Kabupaten Minahasa Selatan, Sulawesi Utara";"Kabupaten Minahasa Selatan, Sulawesi Utara";"SULAWESI UTARA";"";"Indonesia";"";"";"";"1.3099775";"124.5610573";"https://maps.google.com/?cid=0x0:0xdd2d7e489c187d1c";""
"perumahan";"Titik Pemandangan";"Terung Relinquenda Tatapaan Indah";"7JQ4+W57, Paslaten, Kec. Tatapaan, Kabupaten Minahasa Selatan, Sulawesi Utara";"Kabupaten Minahasa Selatan, Sulawesi Utara";"SULAWESI UTARA";"";"Indonesia";"";"";"";"1.2897761";"124.6054345";"https://maps.google.com/?cid=0x0:0x7fb70dfd7c9052a5";""
"perumahan";"Komplek perumahan";"Paslaten1";"7JQ4+W57, Paslaten, Kec. Tatapaan, Kabupaten Minahasa Selatan, Sulawesi Utara";"Kabupaten Minahasa Selatan, Sulawesi Utara";"SULAWESI UTARA";"";"Indonesia";"";"";"";"1.2897761";"124.6054345";"https://maps.google.com/?cid=0x0:0x98f92d680056c5c8";""
"perumahan";"Komplek perumahan";"Perumahan Tiga Berlian";"8VF3+7V5, Paslaten Satu, Tatapaan, Kabupaten Minahasa Selatan, Sulawesi Utara";"Kabupaten Minahasa Selatan, Sulawesi Utara";"SULAWESI UTARA";"";"Indonesia";" 085298797832";"";"";"1.3231343";"124.8547331";"https://maps.google.com/?cid=0x0:0xb424d39313e96126";""
"perumahan";"Pembangunan Perumahan";"Nobel Nachel Kambey";"7JP4+G2G, Paslaten, Kec. Tatapaan, Kabupaten Minahasa Selatan, Sulawesi Utara";"Kabupaten Minahasa Selatan, Sulawesi Utara";"SULAWESI UTARA";"";"Indonesia";"";"";"";"1.2863089";"124.6050802";"https://maps.google.com/?cid=0x0:0x83379d32fb933c00";""
"perumahan";"Komplek perumahan";"Paslaten satu";"7HWR+9JX, Paslaten Satu, Kec. Tatapaan, Kabupaten Minahasa Selatan, Sulawesi Utara";"Kabupaten Minahasa Selatan, Sulawesi Utara";"SULAWESI UTARA";"";"Indonesia";"";"";"";"1.2959777";"124.5915966";"https://maps.google.com/?cid=0x0:0x26c42314ff3dcebc";""
"perumahan";"Komplek perumahan";"Jln salunding";"8J4C+5RV, Sulu, Kec. Tatapaan, Kabupaten Minahasa Selatan, Sulawesi Utara";"Kabupaten Minahasa Selatan, Sulawesi Utara";"SULAWESI UTARA";"";"Indonesia";"";"";"";"1.3054794";"124.6220371";"https://maps.google.com/?cid=0x0:0xd0a9062e5c8fd916";""
"perumahan";"Perhimpunan Pengembang Perumahan";"Rumah Kel Regar Langi";"8H56+W4P, Wawona, Kec. Tatapaan, Kabupaten Minahasa Selatan, Sulawesi Utara";"Kabupaten Minahasa Selatan, Sulawesi Utara";"SULAWESI UTARA";"";"Indonesia";"";"";"";"1.3098437";"124.5603732";"https://maps.google.com/?cid=0x0:0xdfeb168dd3210759";""
"perumahan";"Komplek perumahan";"Nurliana A";"9HH4+4MF, Unnamed Road, Arakan, Kec. Tatapaan, Kabupaten Minahasa Selatan, Sulawesi Utara";"Kabupaten Minahasa Selatan, Sulawesi Utara";"SULAWESI UTARA";"";"Indonesia";"";"";"";"1.3778133";"124.5566637";"https://maps.google.com/?cid=0x0:0xaf54c1096c3e38e0";""
"perumahan";"Komplek perumahan";"Rumah Lian Kaligis";"7GHR+MFR, Popareng, Kec. Tatapaan, Kabupaten Minahasa Selatan, Sulawesi Utara";"Kabupaten Minahasa Selatan, Sulawesi Utara";"SULAWESI UTARA";"";"Indonesia";"";"";"";"1.2786777";"124.5418832";"https://maps.google.com/?cid=0x0:0xeed50aede00f2498";""
"perumahan";"Pembangunan Perumahan";"Intek home stay";"9H72+42M, Sondaken, Kec. Tatapaan, Kabupaten Minahasa Selatan, Sulawesi Utara";"Kabupaten Minahasa Selatan, Sulawesi Utara";"SULAWESI UTARA";"";"Indonesia";"";"";"";"1.3628402";"124.5500505";"https://maps.google.com/?cid=0x0:0x153a574fbf9612c4";""
"perumahan";"perumahan";"RUMAH (Wahyu Papeo)";"7HC5+WRF, Bajo, Kec. Tatapaan, Kabupaten Minahasa Selatan, Sulawesi Utara";"Kabupaten Minahasa Selatan, Sulawesi Utara";"SULAWESI UTARA";"";"Indonesia";"";"";"";"1.2723246";"124.55954";"https://maps.google.com/?cid=0x0:0xcfda1a7f33ef76dc";""
"perumahan";"Komplek perumahan";"Ello pe rumah.";"7JM6+PCX, Sulu, Kec. Tatapaan, Kabupaten Minahasa Selatan, Sulawesi Utara";"Kabupaten Minahasa Selatan, Sulawesi Utara";"SULAWESI UTARA";"";"Indonesia";"";"";"";"1.2843272";"124.6111143";"https://maps.google.com/?cid=0x0:0x807a9c786f6155f6";""
"perumahan";"Komplek perumahan";"Rumah Gue";"9H2J+R6J, Rap-Rap, Kec. Tatapaan, Kabupaten Minahasa Selatan, Sulawesi Utara";"Kabupaten Minahasa Selatan, Sulawesi Utara";"SULAWESI UTARA";"";"Indonesia";"";"";"";"1.3520836";"124.5805247";"https://maps.google.com/?cid=0x0:0x264c1b3fefa2a23b";""
"perumahan";"Komplek perumahan";"Kel. Tendean-Mottoh";"7JGM+94V, Jl. Trans Sulawesi, Popontolen, Kec. Tumpaan, Kabupaten Minahasa Selatan, Sulawesi Utara";"Kabupaten Minahasa Selatan, Sulawesi Utara";"SULAWESI UTARA";"";"Indonesia";"";"";"";"1.2755485";"124.6328256";"https://maps.google.com/?cid=0x0:0x81bc615a286b9c57";""
"perumahan";"Komplek perumahan";"Popareng Lorong Karlota";"7GGV+GC4, Popareng, Kec. Tatapaan, Kabupaten Minahasa Selatan, Sulawesi Utara";"Kabupaten Minahasa Selatan, Sulawesi Utara";"SULAWESI UTARA";"";"Indonesia";"";"";"";"1.2757865";"124.5426467";"https://maps.google.com/?cid=0x0:0xb9f172cefffe1052";""
"perumahan";"Pembangunan Perumahan";"Sabuah Waraney";"7HPX+PM2, Paslaten Satu, Kec. Tatapaan, Kabupaten Minahasa Selatan, Sulawesi Utara";"Kabupaten Minahasa Selatan, Sulawesi Utara";"SULAWESI UTARA";"";"Indonesia";"";"";"";"1.2872125";"124.598929";"https://maps.google.com/?cid=0x0:0xab7a1c3195fadc9c";""
"perumahan";"Komplek perumahan";"Villya'el Residence";"9H2J+R6J, Rap-Rap, Kec. Tatapaan, Kabupaten Minahasa Selatan, Sulawesi Utara";"Kabupaten Minahasa Selatan, Sulawesi Utara";"SULAWESI UTARA";"";"Indonesia";"";"";"";"1.3520836";"124.5805247";"https://maps.google.com/?cid=0x0:0xb275f82050b4ef08";""
"perumahan";"Komplek perumahan";"Timoty msmbee";"9H2J+R6J, Rap-Rap, Kec. Tatapaan, Kabupaten Minahasa Selatan, Sulawesi Utara";"Kabupaten Minahasa Selatan, Sulawesi Utara";"SULAWESI UTARA";"";"Indonesia";"";"";"";"1.3520836";"124.5805247";"https://maps.google.com/?cid=0x0:0xb53ce5961ae6f856";""
"perumahan";"Komplek perumahan";"Kireyna's House";"7GHV+966, Popareng, Kec. Tatapaan, Kabupaten Minahasa Selatan, Sulawesi Utara";"Kabupaten Minahasa Selatan, Sulawesi Utara";"SULAWESI UTARA";"";"Indonesia";"";"";"";"1.278493";"124.5431643";"https://maps.google.com/?cid=0x0:0x367200dde561a343";""
"perumahan";"Kompleks Kondominium";"lorong kuala, LOKU.popareng";"7GHR+H49, Popareng, Kec. Tatapaan, Kabupaten Minahasa Selatan, Sulawesi Utara";"Kabupaten Minahasa Selatan, Sulawesi Utara";"SULAWESI UTARA";"";"Indonesia";"";"";"";"1.2789199";"124.5403702";"https://maps.google.com/?cid=0x0:0x24c992e56879189e";""
"perumahan";"Komplek perumahan";"Home "Tamaweol-Tamusintang" Family";"8G99+W5P, Wawontulap, Kec. Tatapaan, Kabupaten Minahasa Selatan, Sulawesi Utara";"Kabupaten Minahasa Selatan, Sulawesi Utara";"SULAWESI UTARA";"";"Indonesia";"";"";"";"1.3198375";"124.5179531";"https://maps.google.com/?cid=0x0:0x710ad94db07e8112";""
"perumahan";"Sekolah Dasar";"Rumah Dinas Guru (RDG) SD Inpres Sondaken";"9G6W+VXX, Jl. Kamboja, Sondaken, Kec. Tatapaan, Kabupaten Minahasa Selatan, Sulawesi Utara";"Kabupaten Minahasa Selatan, Sulawesi Utara";"SULAWESI UTARA";"";"Indonesia";"";"";"";"1.3622467";"124.5474878";"https://maps.google.com/?cid=0x0:0x54abed5bf96c5b9b";""
"perumahan";"Komplek perumahan";"Balaati";"7JHQ+MFJ, Lelema, Kec. Tumpaan, Kabupaten Minahasa Selatan, Sulawesi Utara";"Kabupaten Minahasa Selatan, Sulawesi Utara";"SULAWESI UTARA";"";"Indonesia";"";"";"";"1.2789404";"124.638599";"https://maps.google.com/?cid=0x0:0xf82dc174ef57d002";""
"perumahan";"perumahan";"Sulawesi Utara 95355";"Pakuweru, Kec. Tenga, Kabupaten Minahasa Selatan, Sulawesi Utara";"Kabupaten Minahasa Selatan, Sulawesi Utara";"SULAWESI UTARA";"";"Indonesia";"";"";"";"1.1636763";"124.4326123";"https://maps.google.com/?cid=0x0:0x19db91f9dd28ea10";""
"perumahan";"Kantor Perusahaan";"Tenga";"5C7Q+VM5, Tenga, Kec. Tenga, Kabupaten Minahasa Selatan, Sulawesi Utara";"Kabupaten Minahasa Selatan, Sulawesi Utara";"SULAWESI UTARA";"";"Indonesia";" 082347579403";"";"";"1.1646452";"124.4392348";"https://maps.google.com/?cid=0x0:0x2cab4ff3bb717756";""
"perumahan";"perumahan";"Mondoringin-sahelangi";"5C7M+MCG, Jl. Desa Pakuweru, Pakuweru, Kec. Tenga, Kabupaten Minahasa Selatan, Sulawesi Utara 95355";"Jl. Desa Pakuweru, Pakuweru, Kec. Tenga, Kabupaten Minahasa Selatan";"SULAWESI UTARA";"95355";"Indonesia";"";"";"";"1.1641807";"124.4335775";"https://maps.google.com/?cid=0x0:0x6b6976ddc925881e";""
"perumahan";"perumahan";"Rumah Christy Tampi";"5C7M+P6Q, Pakuweru, Kec. Tenga, Kabupaten Minahasa Selatan, Sulawesi Utara";"Kabupaten Minahasa Selatan, Sulawesi Utara";"SULAWESI UTARA";"";"Indonesia";"";"";"";"1.1643385";"124.4331167";"https://maps.google.com/?cid=0x0:0x99335e5fa48f85f0";""
"perumahan";"Gedung Apartemen";"Perumahan Teeptrans Indah";"5GH5+488, Desa Kec. Kab. Prov., Teep, Kec. Amurang Bar., Kabupaten Minahasa Selatan, Sulawesi Utara";"Kabupaten Minahasa Selatan, Sulawesi Utara";"SULAWESI UTARA";"";"Indonesia";" 085241761529";"";"";"1.177794";"124.5083389";"https://maps.google.com/?cid=0x0:0x4ff6cb3250e02200";""
"perumahan";"Gedung Apartemen";"Kel. Ulaan Mamesah";"5C7M+RG, Pakuweru, Kec. Tenga, Kabupaten Minahasa Selatan, Sulawesi Utara";"Kabupaten Minahasa Selatan, Sulawesi Utara";"SULAWESI UTARA";"";"Indonesia";"";"";"";"1.1645202";"124.433676";"https://maps.google.com/?cid=0x0:0xa15f9b5c9b9ae7b7";""
"perumahan";"Komplek perumahan";"Kel. Rindorindo Mamesah";"5C7M+RC4, Jl. Pakuweru, Pakuweru, Kec. Tenga, Kabupaten Minahasa Selatan, Sulawesi Utara";"Kabupaten Minahasa Selatan, Sulawesi Utara";"SULAWESI UTARA";"";"Indonesia";"";"";"";"1.1645059";"124.4335721";"https://maps.google.com/?cid=0x0:0xd5e6f7f764f1cbe2";""
"perumahan";"Pembangunan Perumahan";"Perumahan Griya Mutiara Matungkas";"FXJH+54R, Unnamed Road, Matungkas, Kec. Dimembe, Kabupaten Minahasa Utara, Sulawesi Utara";"Kabupaten Minahasa Utara, Sulawesi Utara";"SULAWESI UTARA";"";"Indonesia";"";"";"";"1.4804989";"124.9777722";"https://maps.google.com/?cid=0x0:0x626319181b9c5130";""
"perumahan";"Pengembang Realestat";"Perumahan District M International";"FWFM+X27, Kolongan Tetempangan, Kec. Kalawat, Kabupaten Minahasa Utara, Sulawesi Utara";"Kabupaten Minahasa Utara, Sulawesi Utara";"SULAWESI UTARA";"";"Indonesia";" 085298562888";"";"";"1.4749122";"124.9325407";"https://maps.google.com/?cid=0x0:0x2d1a8184d03a4896";""
"perumahan";"Komplek perumahan";"Kel. Iroth - Rintjap";"5C7M+99M, Jl. Pakuweru, Pakuweru, Kec. Tenga, Kabupaten Minahasa Selatan, Sulawesi Utara";"Kabupaten Minahasa Selatan, Sulawesi Utara";"SULAWESI UTARA";"";"Indonesia";"";"";"";"1.1636956";"124.4334792";"https://maps.google.com/?cid=0x0:0xf9b1c16643c941f6";""
"perumahan";"Komplek perumahan";"Perumahan Tiga Berlian";"8VF3+7V5, Paslaten Satu, Tatapaan, Kabupaten Minahasa Selatan, Sulawesi Utara";"Kabupaten Minahasa Selatan, Sulawesi Utara";"SULAWESI UTARA";"";"Indonesia";" 085298797832";"";"";"1.3231343";"124.8547331";"https://maps.google.com/?cid=0x0:0xb424d39313e96126";""
"perumahan";"Developer Rumah Hunian Khusus";"Griya Sea Lestari 5";"Sea, Kec. Pineleng, Kabupaten Minahasa, Sulawesi Utara";"Kabupaten Minahasa, Sulawesi Utara";"SULAWESI UTARA";"";"Indonesia";"";"";"";"1.4236606";"124.8054093";"https://maps.google.com/?cid=0x0:0x682391fbf72d521e";""
"perumahan";"perumahan";"Modesto, California 95355";"Modesto, California, Amerika Serikat";"Modesto, California, Amerika Serikat";"SULAWESI UTARA";"";"Indonesia";"";"";"";"37.6704504";"-120.9302603";"https://maps.google.com/?cid=0x0:0x42956776a227ac5c";""
"perumahan";"perumahan";"Kec. Tompaso Baru";"Kabupaten Minahasa Selatan, Sulawesi Utara";"Kabupaten Minahasa Selatan, Sulawesi Utara";"SULAWESI UTARA";"";"Indonesia";"";"";"";"0.919931";"124.469716";"https://maps.google.com/?cid=0x0:0xd34cfb653da52844";""
"perumahan";"Komplek perumahan";"Rumah";"WFFC+453, Tompaso Baru Satu, Kec. Tompaso Baru, Kabupaten Minahasa Selatan, Sulawesi Utara";"Kabupaten Minahasa Selatan, Sulawesi Utara";"SULAWESI UTARA";"";"Indonesia";"";"";"";"0.9227729";"124.4704067";"https://maps.google.com/?cid=0x0:0x34a76c12842fe78";""
"perumahan";"Komplek perumahan";"rumah pribadi";"WF89+J4J, Lrg. Bugis, Tompaso Baru Dua, Kec. Tompaso Baru, Kabupaten Minahasa Selatan, Sulawesi Utara";"Kabupaten Minahasa Selatan, Sulawesi Utara";"SULAWESI UTARA";"";"Indonesia";"";"";"";"0.9165762";"124.4677804";"https://maps.google.com/?cid=0x0:0x1a232c8557852c7b";""
"perumahan";"Komplek perumahan";"Sion tompasobaru";"WF95+5QV, Unnamed Road, Sion, Kec. Tompaso Baru, Kabupaten Minahasa Selatan, Sulawesi Utara";"Kabupaten Minahasa Selatan, Sulawesi Utara";"SULAWESI UTARA";"";"Indonesia";"";"";"";"0.9179982";"124.4594104";"https://maps.google.com/?cid=0x0:0xe568062a54432c2c";""
"perumahan";"Komplek perumahan";"Lorong California Tumani Utara,Tompasobaru";"WF4C+MWV, Tumani Utara, Kec. Tompaso Baru, Kabupaten Minahasa Selatan, Sulawesi Utara";"Kabupaten Minahasa Selatan, Sulawesi Utara";"SULAWESI UTARA";"";"Indonesia";"";"";"";"0.9067383";"124.4723014";"https://maps.google.com/?cid=0x0:0x27ba394ca0c74428";""
"perumahan";"Komplek perumahan";"ErS";"WF83+MGH, Raraatean, Kec. Tompaso Baru, Kabupaten Minahasa Selatan, Sulawesi Utara";"Kabupaten Minahasa Selatan, Sulawesi Utara";"SULAWESI UTARA";"";"Indonesia";"";"";"";"0.9167211";"124.4537783";"https://maps.google.com/?cid=0x0:0x1d00717edfafc82";""
"perumahan";"Komplek perumahan";"SPC Dika";"WFRQ+6JP, Unnamed Road, Karowa, Kec. Tompaso Baru, Kabupaten Minahasa Selatan, Sulawesi Utara";"Kabupaten Minahasa Selatan, Sulawesi Utara";"SULAWESI UTARA";"";"Indonesia";" 081313966688";"";"";"0.9405902";"124.4890739";"https://maps.google.com/?cid=0x0:0x23eacd4b523fcb10";""
"perumahan";"Komplek perumahan";"Perumahan blakang";"Jl. Amurang - Kotamobagu No.30, Dua, Torout, Kec. Tompaso Baru, Kabupaten Minahasa Selatan, Sulawesi Utara";"Kabupaten Minahasa Selatan, Sulawesi Utara";"SULAWESI UTARA";"";"Indonesia";"";"";"";"0.9342541";"124.4781624";"https://maps.google.com/?cid=0x0:0x9fc5e52cdee1d89b";""
"perumahan";"Komplek perumahan";"Bens home";"WFC9+C8X, Pinaesaan, Kec. Tompaso Baru, Kabupaten Minahasa Selatan, Sulawesi Utara";"Kabupaten Minahasa Selatan, Sulawesi Utara";"SULAWESI UTARA";"";"Indonesia";"";"";"";"0.921119";"124.4683581";"https://maps.google.com/?cid=0x0:0x92e3c3a2b490f28c";""
"perumahan";"Komplek perumahan";"Kos A.D.A";"Tompaso Baru Dua, Kec. Tompaso Baru, Kabupaten Minahasa Selatan, Sulawesi Utara";"Kabupaten Minahasa Selatan, Sulawesi Utara";"SULAWESI UTARA";"";"Indonesia";"";"";"";"0.9161562";"124.4721654";"https://maps.google.com/?cid=0x0:0x676015d25cbac2d4";""
"perumahan";"Komplek perumahan";"Rumah theo ruaw";"WFGC+RCQ, Tompaso Baru Satu, Kec. Tompaso Baru, Kabupaten Minahasa Selatan, Sulawesi Utara";"Kabupaten Minahasa Selatan, Sulawesi Utara";"SULAWESI UTARA";"";"Indonesia";"";"";"";"0.9270966";"124.4711141";"https://maps.google.com/?cid=0x0:0x396ab6d9dba8e23b";""
"perumahan";"Komplek perumahan";"Home Heart";"WFGC+M24, Tompaso Baru Satu, Kec. Tompaso Baru, Kabupaten Minahasa Selatan, Sulawesi Utara";"Kabupaten Minahasa Selatan, Sulawesi Utara";"SULAWESI UTARA";"";"Indonesia";"";"";"";"0.9266271";"124.4700664";"https://maps.google.com/?cid=0x0:0x554fa560a3f53ca6";""
"perumahan";"Komplek perumahan";"tpe rumahh";"WF99+RJR, Tompaso Baru Dua, Kec. Tompaso Baru, Kabupaten Minahasa Selatan, Sulawesi Utara";"Kabupaten Minahasa Selatan, Sulawesi Utara";"SULAWESI UTARA";"";"Indonesia";"";"";"";"0.9196136";"124.4690213";"https://maps.google.com/?cid=0x0:0x8dbc12c3e570f129";""
"perumahan";"perumahan";"Rumah j n m";"WFMH+Q85, Torout, Kec. Tompaso Baru, Kabupaten Minahasa Selatan, Sulawesi Utara";"Kabupaten Minahasa Selatan, Sulawesi Utara";"SULAWESI UTARA";"";"Indonesia";"";"";"";"0.9353797";"124.4776926";"https://maps.google.com/?cid=0x0:0xe05c160ac7ae275a";""
"perumahan";"Komplek perumahan";"Tinamberan Katupayan";"WFQP+M7C, Karowa, Kec. Tompaso Baru, Kabupaten Minahasa Selatan, Sulawesi Utara";"Kabupaten Minahasa Selatan, Sulawesi Utara";"SULAWESI UTARA";"";"Indonesia";"";"";"";"0.939291";"124.485735";"https://maps.google.com/?cid=0x0:0x1f913871858c27fe";""
"perumahan";"Komplek perumahan";"rindorindo langi rumah .";"WF86+G7C, Sion, Kec. Tompaso Baru, Kabupaten Minahasa Selatan, Sulawesi Utara";"Kabupaten Minahasa Selatan, Sulawesi Utara";"SULAWESI UTARA";"";"Indonesia";"";"";"";"0.916857";"124.4607765";"https://maps.google.com/?cid=0x0:0xd2b775f75fc7f628";""
"perumahan";"Komplek perumahan";"Melinda’s house";"WFH9+GG8, Tompaso Baru Satu, Kec. Tompaso Baru, Kabupaten Minahasa Selatan, Sulawesi Utara";"Kabupaten Minahasa Selatan, Sulawesi Utara";"SULAWESI UTARA";"";"Indonesia";"";"";"";"0.9289189";"124.4686919";"https://maps.google.com/?cid=0x0:0xae7b36563ca0da3b";""
"perumahan";"perumahan";"Home Nando.m";"WFPP+QHP, Karowa, Kec. Tompaso Baru, Kabupaten Minahasa Selatan, Sulawesi Utara";"Kabupaten Minahasa Selatan, Sulawesi Utara";"SULAWESI UTARA";"";"Indonesia";"";"";"";"0.9369545";"124.486444";"https://maps.google.com/?cid=0x0:0x3e2f13239d659ebe";""
"perumahan";"Komplek perumahan";"My home TOMPASOBARU SATU";"WFF9+VPG, Tompaso Baru Satu, Kec. Tompaso Baru, Kabupaten Minahasa Selatan, Sulawesi Utara";"Kabupaten Minahasa Selatan, Sulawesi Utara";"SULAWESI UTARA";"";"Indonesia";"";"";"";"0.9246695";"124.4694996";"https://maps.google.com/?cid=0x0:0x87dd9fbc0434fec1";""
"perumahan";"Perhimpunan Pengembang Perumahan";"Garden House Linuh Kotambunan";"WF8F+W3X, Tompaso Baru Dua, Kec. Tompaso Baru, Kabupaten Minahasa Selatan, Sulawesi Utara";"Kabupaten Minahasa Selatan, Sulawesi Utara";"SULAWESI UTARA";"";"Indonesia";"";"";"";"0.9173668";"124.4727279";"https://maps.google.com/?cid=0x0:0x9e1a95023b487612";""
"perumahan";"Komplek perumahan";"My Family Mamahit";"WFGC+37Q, Tompaso Baru Satu, Kec. Tompaso Baru, Kabupaten Minahasa Selatan, Sulawesi Utara";"Kabupaten Minahasa Selatan, Sulawesi Utara";"SULAWESI UTARA";"";"Indonesia";"";"";"";"0.9252032";"124.470729";"https://maps.google.com/?cid=0x0:0xf8495be713707a2a";""
"perumahan";"Komplek perumahan";"William Home";"WFFC+R59, Tompaso Baru Satu, Kec. Tompaso Baru, Kabupaten Minahasa Selatan, Sulawesi Utara";"Kabupaten Minahasa Selatan, Sulawesi Utara";"SULAWESI UTARA";"";"Indonesia";"";"";"";"0.9244516";"124.4703924";"https://maps.google.com/?cid=0x0:0x8c495533d79ea1c1";""
"perumahan";"Komplek perumahan";"Perumahan Tiga Berlian";"8VF3+7V5, Paslaten Satu, Tatapaan, Kabupaten Minahasa Selatan, Sulawesi Utara";"Kabupaten Minahasa Selatan, Sulawesi Utara";"SULAWESI UTARA";"";"Indonesia";" 085298797832";"";"";"1.3231343";"124.8547331";"https://maps.google.com/?cid=0x0:0xb424d39313e96126";""
"perumahan";"Komplek perumahan";"Pastori 3 GMIM Lotta Pineleng";"CR9R+MHV, Desa Lotta, Kec. Pineleng, Kabupaten Minahasa, Sulawesi Utara";"Kabupaten Minahasa, Sulawesi Utara";"SULAWESI UTARA";"";"Indonesia";"";"";"";"1.4192369";"124.8414103";"https://maps.google.com/?cid=0x0:0x31529fa717f89e56";""
"perumahan";"Klinik Kesehatan Perempuan";"Bidan Praktek Mandiri Julin";"8VF3+GV3, Jl. Lingkar Timur, Paslaten Satu, Kec. Tomohon Tim., Kota Tomohon, Sulawesi Utara";"Kota Tomohon, Sulawesi Utara";"SULAWESI UTARA";"";"Indonesia";" 08114358338";"";"";"1.323664";"124.854701";"https://maps.google.com/?cid=0x0:0x932a249daa512fb";""
"perumahan";"Perumahan";"Rumah";"6JQ8+QJF, Tumpaan Satu, Kec. Tumpaan, Kabupaten Minahasa Selatan, Sulawesi Utara";"Kabupaten Minahasa Selatan, Sulawesi Utara";"SULAWESI UTARA";"";"Indonesia";"";"";"";"1.2394654";"124.6165044";"https://maps.google.com/?cid=0x0:0xf85b4d6ad9a413aa";""
"perumahan";"Pembangunan Perumahan";"Jackly Rompas K";"6JQ9+H2R, Jl Raya Kwk, Tumpaan, Kec. Tumpaan, Kabupaten Minahasa Selatan, Sulawesi Utara";"Kabupaten Minahasa Selatan, Sulawesi Utara";"SULAWESI UTARA";"";"Indonesia";"";"";"";"1.238996";"124.6175";"https://maps.google.com/?cid=0x0:0xb24e4baa8e2a342";""
"perumahan";"Komplek perumahan";"BETHEL VILLAGE";"6JQ9+RFW, Tumpaan, Kec. Tumpaan, Kabupaten Minahasa Selatan, Sulawesi Utara";"Kabupaten Minahasa Selatan, Sulawesi Utara";"SULAWESI UTARA";"";"Indonesia";"";"";"";"1.2396049";"124.6187179";"https://maps.google.com/?cid=0x0:0x9898e4cebcad2d6a";""
"perumahan";"Pengembang Realestat";"Perumahan District M International";"FWFM+X27, Kolongan Tetempangan, Kec. Kalawat, Kabupaten Minahasa Utara, Sulawesi Utara";"Kabupaten Minahasa Utara, Sulawesi Utara";"SULAWESI UTARA";"";"Indonesia";" 085298562888";"";"";"1.4749122";"124.9325407";"https://maps.google.com/?cid=0x0:0x2d1a8184d03a4896";""
"perumahan";"Komplek perumahan";"Kos kosan";"6JQ9+H2R, Tumpaan, Kec. Tumpaan, barru, Sulawesi Utara";"barru, Sulawesi Utara";"SULAWESI UTARA";"";"Indonesia";"";"";"";"1.238996";"124.6175";"https://maps.google.com/?cid=0x0:0xb2cf4fa6b72d67fe";""
