Category,Real Category,Business Name,Address,City,State,Postal Code,Country,Phone,Email,Website,Latitude,Longitude,Map Link,Details Link
hardware store,hardware store,Kec. Asakota,"Kab. Bima, Nusa Tenggara Bar.","Kab. Bima, Nusa Tenggara Bar.",NUSA TENGGARA BARAT,,Indonesia,,,,-84.384.574,1.187.340.556,https://maps.google.com/?cid=0x0:0xf6262609b5c77d5,
hardware store,Toko Bahan Bangunan,Fajar Cerah,"Sarae, Kec. Rasanae Bar., Kab. Bima, Nusa Tenggara Bar. 84118","Kec. Rasanae Bar., Kab. Bima",NUSA TENGGARA BARAT,84118.0,Indonesia,,,,-84.518.814,1.187.258.516,https://maps.google.com/?cid=0x0:0xfe237cc16fe8c957,
hardware store,Toko Bahan Bangunan,Toko Bahan Bangunan Sinar A.R,"Jl. Karantina, Jatiwangi, Kec. Asakota, Kab. Bima, Nusa Tenggara Bar. 84118","Jatiwangi, Kec. Asakota, Kab. Bima",NUSA TENGGARA BARAT,84118.0,Indonesia,85239202161,,,-84.439.427,1.187.315.427,https://maps.google.com/?cid=0x0:0x745b0a3c05b77773,
hardware store,Toko Perlengkapan Rumah,MR.DIY,"Ruko Bima, Jl. Gajah Mada No.113-49, Monggonao, Kec. Rasanae Bar., Kab. Bima, Nusa Tenggara Bar. 84117","Jl. Gajah Mada No.113-49, Monggonao, Kec. Rasanae Bar., Kab. Bima",NUSA TENGGARA BARAT,84117.0,Indonesia,2130022789,,,-84.556.667,1.187.399.135,https://maps.google.com/?cid=0x0:0x5780922262d88142,
hardware store,Toko Bahan Bangunan,UD.SAMBI JAYA,"Jl. Datuk Dibanta No.99, Jatiwangi, Kec. Asakota, Kab. Bima, Nusa Tenggara Bar. 84117","Jatiwangi, Kec. Asakota, Kab. Bima",NUSA TENGGARA BARAT,84117.0,Indonesia,85239403037,,,-84.493.922,1.187.336.465,https://maps.google.com/?cid=0x0:0xb277cb4ccc5de2e7,
hardware store,hardware store,IDSTEEL BIMA (Logam Nusantara 2) | Toko Baja Ringan,"Jl. Gajah Mada, Penatoi, Kec. Mpunda, Kab. Bima, Nusa Tenggara Bar. 84116","Penatoi, Kec. Mpunda, Kab. Bima",NUSA TENGGARA BARAT,84116.0,Indonesia,81916065392,,,-84.589.788,118.748.895,https://maps.google.com/?cid=0x0:0x45c9f250e3de34f3,
hardware store,Toko Bahan Bangunan,Toko Jaya Raya Bima,"Sarae, Kec. Rasanae Bar., Kab. Bima, Nusa Tenggara Bar. 84118","Kec. Rasanae Bar., Kab. Bima",NUSA TENGGARA BARAT,84118.0,Indonesia,85330528388,,,-84.518.611,1.187.262.007,https://maps.google.com/?cid=0x0:0xb6db89df32cc3e8d,
hardware store,Toko Bahan Bangunan,DEPO SUMBER BANGUNAN BIMA,"Paruga, Kec. Rasanae Bar., Kab. Bima, Nusa Tenggara Bar. 84118","Kec. Rasanae Bar., Kab. Bima",NUSA TENGGARA BARAT,84118.0,Indonesia,8113833767,,,-84.542.875,1.187.178.281,https://maps.google.com/?cid=0x0:0x5695533ae32f5737,
hardware store,Toko Bahan Bangunan,Duta bangunan bima,"GPXG+6JF, Jl. Sultan Hasannudin, Sarae, Kec. Rasanae Bar., Kab. Bima, Nusa Tenggara Bar. 84118","Jl. Sultan Hasannudin, Sarae, Kec. Rasanae Bar., Kab. Bima",NUSA TENGGARA BARAT,84118.0,Indonesia,"8,12144E+11",,,-84.519.374,1.187.265.603,https://maps.google.com/?cid=0x0:0x2694848498846a,
hardware store,Toko Bahan Bangunan,SUMBER BAJA BIMA (SBJ),"Jl. Soekarno Hatta, Paruga, Kec. Rasanae Bar., Kab. Bima, Nusa Tenggara Bar. 84118","Paruga, Kec. Rasanae Bar., Kab. Bima",NUSA TENGGARA BARAT,84118.0,Indonesia,81933023351,,,-84.542.252,1.187.249.505,https://maps.google.com/?cid=0x0:0xe6b3a7f8de548117,
hardware store,Toko Bahan Bangunan,Toko Jaya Raya Sadia,"Jl. Gatot Subroto, Sadia, Kec. Mpunda, Kab. Bima, Nusa Tenggara Bar. 84117","Sadia, Kec. Mpunda, Kab. Bima",NUSA TENGGARA BARAT,84117.0,Indonesia,85211115712,,,-84.629.024,1.187.446.262,https://maps.google.com/?cid=0x0:0xe45a8851654b6a11,
hardware store,Toko Alat Tulis Kantor,Toko Agunk Jaya Jatiwangi,"HP3W+87H, Jl. Datuk Dibanta, Jatiwangi, Kec. Asakota, Kab. Bima, Nusa Tenggara Bar. 84116","Jl. Datuk Dibanta, Jatiwangi, Kec. Asakota, Kab. Bima",NUSA TENGGARA BARAT,84116.0,Indonesia,85238958888,,,-8.446.682,118.745.719,https://maps.google.com/?cid=0x0:0xf9e163875474c3,
hardware store,Toko Bahan Bangunan,MITRA BANGUNAN,"Jl. Sultan Hasannudin No.8, Sarae, Kec. Rasanae Bar., Kab. Bima, Nusa Tenggara Bar. 84117","Sarae, Kec. Rasanae Bar., Kab. Bima",NUSA TENGGARA BARAT,84117.0,Indonesia,82335805080,,,-84.519.793,1.187.253.457,https://maps.google.com/?cid=0x0:0x7cbaac2e14760b45,
hardware store,Toko Bahan Bangunan,TB. Harmonis,"Jl. Soekarno Hatta No.51, Rabangodu Utara, Kec. Raba, Kab. Bima, Nusa Tenggara Bar. 84115","Rabangodu Utara, Kec. Raba, Kab. Bima",NUSA TENGGARA BARAT,84115.0,Indonesia,37444442,,,-84.688.655,1.187.601.888,https://maps.google.com/?cid=0x0:0x2490aa5b2a59ec7,
hardware store,Toko Bahan Bangunan,Toko Bangunan MUTIARA,"Jl. Jend.Sudirman No.2, Mande, Kec. Mpunda, Kab. Bima, Nusa Tenggara Bar. 84116","Mande, Kec. Mpunda, Kab. Bima",NUSA TENGGARA BARAT,84116.0,Indonesia,,,,-84.683.102,1.187.472.807,https://maps.google.com/?cid=0x0:0x13b4e5683147c156,
hardware store,Toko Bahan Bangunan,TOKO BANGUNAN RIZKI PERKASA,"Jl. Jend.Sudirman No.55, Rabangodu Sel., Kec. Raba, Kab. Bima, Nusa Tenggara Bar. 84111","Rabangodu Sel., Kec. Raba, Kab. Bima",NUSA TENGGARA BARAT,84111.0,Indonesia,85333711993,,,-84.706.138,1.187.530.179,https://maps.google.com/?cid=0x0:0xc564737777aa62a0,
hardware store,Toko Bahan Bangunan,TB. Arta Wiguna Bima,"Nae, Kec. Rasanae Bar., Kab. Bima, Nusa Tenggara Bar. 84117","Kec. Rasanae Bar., Kab. Bima",NUSA TENGGARA BARAT,84117.0,Indonesia,8124666130,,,-84.530.809,1.187.341.068,https://maps.google.com/?cid=0x0:0x342c0e4009c321e0,
hardware store,Toko Bahan Bangunan,Sinar Surya Bangunan,"Jl. Soekarno Hatta No.095, Rabangodu Utara, Kec. Raba, Kab. Bima, Nusa Tenggara Bar. 84113","Rabangodu Utara, Kec. Raba, Kab. Bima",NUSA TENGGARA BARAT,84113.0,Indonesia,81237979988,,,-84.660.992,1.187.564.456,https://maps.google.com/?cid=0x0:0xd8ebbf8799589138,
hardware store,Toko Bahan Bangunan,TB. Langgeng Jaya 1,"Penaraga, Kec. Raba, Kab. Bima, Nusa Tenggara Bar. 84115","Kec. Raba, Kab. Bima",NUSA TENGGARA BARAT,84115.0,Indonesia,,,,-8.462.476,1.187.598.229,https://maps.google.com/?cid=0x0:0x601ba20c689a82ed,
hardware store,Toko Bahan Bangunan,UD TUNAS JAYA,"Jl. Gatot Subroto, Santi, Kec. Mpunda, Kab. Bima, Nusa Tenggara Bar. 84116","Santi, Kec. Mpunda, Kab. Bima",NUSA TENGGARA BARAT,84116.0,Indonesia,82339862302,,,-84.579.868,1.187.471.572,https://maps.google.com/?cid=0x0:0x5467c3768a2eabf0,
hardware store,hardware store,Kec. Mpunda,"Kab. Bima, Nusa Tenggara Bar.","Kab. Bima, Nusa Tenggara Bar.",NUSA TENGGARA BARAT,,Indonesia,,,,-84.583.951,1.187.468.712,https://maps.google.com/?cid=0x0:0x5e73f7a401f39f2,
hardware store,hardware store,IDSTEEL BIMA (Logam Nusantara 2) | Toko Baja Ringan,"Jl. Gajah Mada, Penatoi, Kec. Mpunda, Kab. Bima, Nusa Tenggara Bar. 84116","Penatoi, Kec. Mpunda, Kab. Bima",NUSA TENGGARA BARAT,84116.0,Indonesia,81916065392,,,-84.589.788,118.748.895,https://maps.google.com/?cid=0x0:0x45c9f250e3de34f3,
hardware store,Toko Bahan Bangunan,Toko Bangunan MUTIARA,"Jl. Jend.Sudirman No.2, Mande, Kec. Mpunda, Kab. Bima, Nusa Tenggara Bar. 84116","Mande, Kec. Mpunda, Kab. Bima",NUSA TENGGARA BARAT,84116.0,Indonesia,,,,-84.683.102,1.187.472.807,https://maps.google.com/?cid=0x0:0x13b4e5683147c156,
hardware store,Toko,TB. Cahaya Makmur Lestari,"Santi 1 Barat Ruko Coklat Toko Bangunan Cahaya Makmur Lestari, Santi, Kec. Mpunda, Kab. Bima, Nusa Tenggara Bar. 84119","Santi, Kec. Mpunda, Kab. Bima",NUSA TENGGARA BARAT,84119.0,Indonesia,81236434428,,,-84.540.836,1.187.443.901,https://maps.google.com/?cid=0x0:0xcd7545fe3a3576cd,
hardware store,Toko Perlengkapan Rumah,MR.DIY,"Ruko Bima, Jl. Gajah Mada No.113-49, Monggonao, Kec. Rasanae Bar., Kab. Bima, Nusa Tenggara Bar. 84117","Jl. Gajah Mada No.113-49, Monggonao, Kec. Rasanae Bar., Kab. Bima",NUSA TENGGARA BARAT,84117.0,Indonesia,2130022789,,,-84.556.667,1.187.399.135,https://maps.google.com/?cid=0x0:0x5780922262d88142,
hardware store,Toko Bahan Bangunan,DEPO SUMBER BANGUNAN BIMA,"Paruga, Kec. Rasanae Bar., Kab. Bima, Nusa Tenggara Bar. 84118","Kec. Rasanae Bar., Kab. Bima",NUSA TENGGARA BARAT,84118.0,Indonesia,8113833767,,,-84.542.875,1.187.178.281,https://maps.google.com/?cid=0x0:0x5695533ae32f5737,
hardware store,Toko Bahan Bangunan,Toko Jaya Raya Sadia,"Jl. Gatot Subroto, Sadia, Kec. Mpunda, Kab. Bima, Nusa Tenggara Bar. 84117","Sadia, Kec. Mpunda, Kab. Bima",NUSA TENGGARA BARAT,84117.0,Indonesia,85211115712,,,-84.629.024,1.187.446.262,https://maps.google.com/?cid=0x0:0xe45a8851654b6a11,
hardware store,Toko Bahan Bangunan,Duta bangunan bima,"GPXG+6JF, Jl. Sultan Hasannudin, Sarae, Kec. Rasanae Bar., Kab. Bima, Nusa Tenggara Bar. 84118","Jl. Sultan Hasannudin, Sarae, Kec. Rasanae Bar., Kab. Bima",NUSA TENGGARA BARAT,84118.0,Indonesia,"8,12144E+11",,,-84.519.374,1.187.265.603,https://maps.google.com/?cid=0x0:0x2694848498846a,
hardware store,Toko Bahan Bangunan,UD TUNAS JAYA,"Jl. Gatot Subroto, Santi, Kec. Mpunda, Kab. Bima, Nusa Tenggara Bar. 84116","Santi, Kec. Mpunda, Kab. Bima",NUSA TENGGARA BARAT,84116.0,Indonesia,82339862302,,,-84.579.868,1.187.471.572,https://maps.google.com/?cid=0x0:0x5467c3768a2eabf0,
hardware store,Toko Bahan Bangunan,Sinar Surya Bangunan,"Jl. Soekarno Hatta No.095, Rabangodu Utara, Kec. Raba, Kab. Bima, Nusa Tenggara Bar. 84113","Rabangodu Utara, Kec. Raba, Kab. Bima",NUSA TENGGARA BARAT,84113.0,Indonesia,81237979988,,,-84.660.992,1.187.564.456,https://maps.google.com/?cid=0x0:0xd8ebbf8799589138,
hardware store,Toko Bahan Bangunan,MITRA BANGUNAN,"Jl. Sultan Hasannudin No.8, Sarae, Kec. Rasanae Bar., Kab. Bima, Nusa Tenggara Bar. 84117","Sarae, Kec. Rasanae Bar., Kab. Bima",NUSA TENGGARA BARAT,84117.0,Indonesia,82335805080,,,-84.519.793,1.187.253.457,https://maps.google.com/?cid=0x0:0x7cbaac2e14760b45,
hardware store,Toko Bahan Bangunan,Toko Bahan Bangunan Sinar A.R,"Jl. Karantina, Jatiwangi, Kec. Asakota, Kab. Bima, Nusa Tenggara Bar. 84118","Jatiwangi, Kec. Asakota, Kab. Bima",NUSA TENGGARA BARAT,84118.0,Indonesia,85239202161,,,-84.439.427,1.187.315.427,https://maps.google.com/?cid=0x0:0x745b0a3c05b77773,
hardware store,Toko Bahan Bangunan,TOKO BANGUNAN RIZKI PERKASA,"Jl. Jend.Sudirman No.55, Rabangodu Sel., Kec. Raba, Kab. Bima, Nusa Tenggara Bar. 84111","Rabangodu Sel., Kec. Raba, Kab. Bima",NUSA TENGGARA BARAT,84111.0,Indonesia,85333711993,,,-84.706.138,1.187.530.179,https://maps.google.com/?cid=0x0:0xc564737777aa62a0,
hardware store,Toko Bahan Bangunan,Toko Jaya Raya Bima,"Sarae, Kec. Rasanae Bar., Kab. Bima, Nusa Tenggara Bar. 84118","Kec. Rasanae Bar., Kab. Bima",NUSA TENGGARA BARAT,84118.0,Indonesia,85330528388,,,-84.518.611,1.187.262.007,https://maps.google.com/?cid=0x0:0xb6db89df32cc3e8d,
hardware store,Toko Bahan Bangunan,TB. Arta Wiguna Bima,"Nae, Kec. Rasanae Bar., Kab. Bima, Nusa Tenggara Bar. 84117","Kec. Rasanae Bar., Kab. Bima",NUSA TENGGARA BARAT,84117.0,Indonesia,8124666130,,,-84.530.809,1.187.341.068,https://maps.google.com/?cid=0x0:0x342c0e4009c321e0,
hardware store,Toko Bahan Bangunan,SUMBER BAJA BIMA (SBJ),"Jl. Soekarno Hatta, Paruga, Kec. Rasanae Bar., Kab. Bima, Nusa Tenggara Bar. 84118","Paruga, Kec. Rasanae Bar., Kab. Bima",NUSA TENGGARA BARAT,84118.0,Indonesia,81933023351,,,-84.542.252,1.187.249.505,https://maps.google.com/?cid=0x0:0xe6b3a7f8de548117,
hardware store,Toko Bahan Bangunan,M. Tajkis,"GPVQ+QXC, Monggonao, Kec. Mpunda, Kab. Bima, Nusa Tenggara Bar. 84117","Monggonao, Kec. Mpunda, Kab. Bima",NUSA TENGGARA BARAT,84117.0,Indonesia,,,,-84.555.698,1.187.399.038,https://maps.google.com/?cid=0x0:0xea50d4ffd1e89ba8,
hardware store,hardware store,Toko Bangunan HS (Harga Sama),"GQQ3+WFH, Jl. Gajah Mada, Penatoi, Kec. Mpunda, Kab. Bima, Nusa Tenggara Bar. 84111","Jl. Gajah Mada, Penatoi, Kec. Mpunda, Kab. Bima",NUSA TENGGARA BARAT,84111.0,Indonesia,,,,-84.601.924,1.187.537.378,https://maps.google.com/?cid=0x0:0x6ca46a0139db3baf,
hardware store,Toko Bahan Bangunan,Nusa Tenggara Barat,"GPPV+7XR, Lewirato, Kec. Mpunda, Kab. Bima, Nusa Tenggara Bar. 84116","Lewirato, Kec. Mpunda, Kab. Bima",NUSA TENGGARA BARAT,84116.0,Indonesia,82359329070,,,-84.642.567,1.187.448.783,https://maps.google.com/?cid=0x0:0x57c6cacdc293bb29,
hardware store,Toko Bahan Bangunan,TB. Harmonis,"Jl. Soekarno Hatta No.51, Rabangodu Utara, Kec. Raba, Kab. Bima, Nusa Tenggara Bar. 84115","Rabangodu Utara, Kec. Raba, Kab. Bima",NUSA TENGGARA BARAT,84115.0,Indonesia,37444442,,,-84.688.655,1.187.601.888,https://maps.google.com/?cid=0x0:0x2490aa5b2a59ec7,
hardware store,Biro Iklan,"Foto Copy, Cetak Foto Mangga 3","Monggonao, Kec. Mpunda, Kab. Bima, Nusa Tenggara Bar. 84116","Kec. Mpunda, Kab. Bima",NUSA TENGGARA BARAT,84116.0,Indonesia,85239567592,,,-84.560.646,1.187.409.897,https://maps.google.com/?cid=0x0:0x8413a00406d72c68,
hardware store,Toko Bahan Bangunan,UD.SAMBI JAYA,"Jl. Datuk Dibanta No.99, Jatiwangi, Kec. Asakota, Kab. Bima, Nusa Tenggara Bar. 84117","Jatiwangi, Kec. Asakota, Kab. Bima",NUSA TENGGARA BARAT,84117.0,Indonesia,85239403037,,,-84.493.922,1.187.336.465,https://maps.google.com/?cid=0x0:0xb277cb4ccc5de2e7,
hardware store,Toko Komputer,Johan Foto Computer,"Jl. Soekarno Hatta No.042, Pane, Kec. Rasanae Bar., Kab. Bima, Nusa Tenggara Bar. 84116","Pane, Kec. Rasanae Bar., Kab. Bima",NUSA TENGGARA BARAT,84116.0,Indonesia,81232996868,,,-84.565.445,1.187.324.587,https://maps.google.com/?cid=0x0:0x77322b1adfa72dc7,
hardware store,hardware store,Nusa Tenggara Bar. 84112,"Kec. Raba, Kabupaten Bima, Nusa Tenggara Bar.","Kabupaten Bima, Nusa Tenggara Bar.",NUSA TENGGARA BARAT,,Indonesia,,,,-84.917.671,1.187.518.671,https://maps.google.com/?cid=0x0:0x1f28a2016f7e7ff8,
hardware store,Toko Bahan Bangunan,Toko Bangunan MUTIARA,"Jl. Jend.Sudirman No.2, Mande, Kec. Mpunda, Kab. Bima, Nusa Tenggara Bar. 84116","Mande, Kec. Mpunda, Kab. Bima",NUSA TENGGARA BARAT,84116.0,Indonesia,,,,-84.683.102,1.187.472.807,https://maps.google.com/?cid=0x0:0x13b4e5683147c156,
hardware store,Toko Bahan Bangunan,TOKO BANGUNAN RIZKI PERKASA,"Jl. Jend.Sudirman No.55, Rabangodu Sel., Kec. Raba, Kab. Bima, Nusa Tenggara Bar. 84111","Rabangodu Sel., Kec. Raba, Kab. Bima",NUSA TENGGARA BARAT,84111.0,Indonesia,85333711993,,,-84.706.138,1.187.530.179,https://maps.google.com/?cid=0x0:0xc564737777aa62a0,
hardware store,Toko Bahan Bangunan,TB. Harmonis,"Jl. Soekarno Hatta No.51, Rabangodu Utara, Kec. Raba, Kab. Bima, Nusa Tenggara Bar. 84115","Rabangodu Utara, Kec. Raba, Kab. Bima",NUSA TENGGARA BARAT,84115.0,Indonesia,37444442,,,-84.688.655,1.187.601.888,https://maps.google.com/?cid=0x0:0x2490aa5b2a59ec7,
hardware store,Toko Alat Tulis Kantor,Global Mart Raba,"Jl. Soekarno Hatta, Rabangodu Utara, Kec. Raba, Kab. Bima, Nusa Tenggara Bar. 84115","Rabangodu Utara, Kec. Raba, Kab. Bima",NUSA TENGGARA BARAT,84115.0,Indonesia,81246705733,,,-84.692.601,1.187.602.517,https://maps.google.com/?cid=0x0:0x28c63ed314ce9638,
hardware store,hardware store,Toko Bangunan HS (Harga Sama),"GQQ3+WFH, Jl. Gajah Mada, Penatoi, Kec. Mpunda, Kab. Bima, Nusa Tenggara Bar. 84111","Jl. Gajah Mada, Penatoi, Kec. Mpunda, Kab. Bima",NUSA TENGGARA BARAT,84111.0,Indonesia,,,,-84.601.924,1.187.537.378,https://maps.google.com/?cid=0x0:0x6ca46a0139db3baf,
hardware store,Toko Alat Tulis,Toko Pasifik,"Jl. Soekarno Hatta No.113, Rabangodu Utara, Kec. Raba, Kab. Bima, Nusa Tenggara Bar. 84111","Rabangodu Utara, Kec. Raba, Kab. Bima",NUSA TENGGARA BARAT,84111.0,Indonesia,81239757493,,,-84.692.152,1.187.605.319,https://maps.google.com/?cid=0x0:0x87402de83d5c0de4,
hardware store,Toko Bahan Bangunan,Toko Bangunan MUTIARA,"Jl. Jend.Sudirman No.2, Mande, Kec. Mpunda, Kab. Bima, Nusa Tenggara Bar. 84116","Mande, Kec. Mpunda, Kab. Bima",NUSA TENGGARA BARAT,84116.0,Indonesia,,,,-84.683.102,1.187.472.807,https://maps.google.com/?cid=0x0:0x13b4e5683147c156,
hardware store,hardware store,Nusa Tenggara Bar. 84115,"Kab. Bima, Nusa Tenggara Bar.","Kab. Bima, Nusa Tenggara Bar.",NUSA TENGGARA BARAT,,Indonesia,,,,-84.769.135,1.187.839.274,https://maps.google.com/?cid=0x0:0x1211695e5508ddbe,
hardware store,Toko Bahan Bangunan,TB. Harmonis,"Jl. Soekarno Hatta No.51, Rabangodu Utara, Kec. Raba, Kab. Bima, Nusa Tenggara Bar. 84115","Rabangodu Utara, Kec. Raba, Kab. Bima",NUSA TENGGARA BARAT,84115.0,Indonesia,37444442,,,-84.688.655,1.187.601.888,https://maps.google.com/?cid=0x0:0x2490aa5b2a59ec7,
hardware store,Toko Bahan Bangunan,TOKO BANGUNAN RIZKI PERKASA,"Jl. Jend.Sudirman No.55, Rabangodu Sel., Kec. Raba, Kab. Bima, Nusa Tenggara Bar. 84111","Rabangodu Sel., Kec. Raba, Kab. Bima",NUSA TENGGARA BARAT,84111.0,Indonesia,85333711993,,,-84.706.138,1.187.530.179,https://maps.google.com/?cid=0x0:0xc564737777aa62a0,
hardware store,Toko Bahan Bangunan,TB. Langgeng Jaya 1,"Penaraga, Kec. Raba, Kab. Bima, Nusa Tenggara Bar. 84115","Kec. Raba, Kab. Bima",NUSA TENGGARA BARAT,84115.0,Indonesia,,,,-8.462.476,1.187.598.229,https://maps.google.com/?cid=0x0:0x601ba20c689a82ed,
hardware store,Toko Alat Tulis Kantor,Global Mart Raba,"Jl. Soekarno Hatta, Rabangodu Utara, Kec. Raba, Kab. Bima, Nusa Tenggara Bar. 84115","Rabangodu Utara, Kec. Raba, Kab. Bima",NUSA TENGGARA BARAT,84115.0,Indonesia,81246705733,,,-84.692.601,1.187.602.517,https://maps.google.com/?cid=0x0:0x28c63ed314ce9638,
hardware store,Toko Alat Tulis,Toko Pasifik,"Jl. Soekarno Hatta No.113, Rabangodu Utara, Kec. Raba, Kab. Bima, Nusa Tenggara Bar. 84111","Rabangodu Utara, Kec. Raba, Kab. Bima",NUSA TENGGARA BARAT,84111.0,Indonesia,81239757493,,,-84.692.152,1.187.605.319,https://maps.google.com/?cid=0x0:0x87402de83d5c0de4,
hardware store,hardware store,Toko Bangunan HS (Harga Sama),"GQQ3+WFH, Jl. Gajah Mada, Penatoi, Kec. Mpunda, Kab. Bima, Nusa Tenggara Bar. 84111","Jl. Gajah Mada, Penatoi, Kec. Mpunda, Kab. Bima",NUSA TENGGARA BARAT,84111.0,Indonesia,,,,-84.601.924,1.187.537.378,https://maps.google.com/?cid=0x0:0x6ca46a0139db3baf,
hardware store,hardware store,Kec. Mpunda,"Kab. Bima, Nusa Tenggara Bar.","Kab. Bima, Nusa Tenggara Bar.",NUSA TENGGARA BARAT,,Indonesia,,,,-84.583.951,1.187.468.712,https://maps.google.com/?cid=0x0:0x5e73f7a401f39f2,
hardware store,Toko,TB. Cahaya Makmur Lestari,"Santi 1 Barat Ruko Coklat Toko Bangunan Cahaya Makmur Lestari, Santi, Kec. Mpunda, Kab. Bima, Nusa Tenggara Bar. 84119","Santi, Kec. Mpunda, Kab. Bima",NUSA TENGGARA BARAT,84119.0,Indonesia,81236434428,,,-84.540.836,1.187.443.901,https://maps.google.com/?cid=0x0:0xcd7545fe3a3576cd,
hardware store,Toko Bahan Bangunan,Fajar Cerah,"Sarae, Kec. Rasanae Bar., Kab. Bima, Nusa Tenggara Bar. 84118","Kec. Rasanae Bar., Kab. Bima",NUSA TENGGARA BARAT,84118.0,Indonesia,,,,-84.518.814,1.187.258.516,https://maps.google.com/?cid=0x0:0xfe237cc16fe8c957,
hardware store,Toko Bahan Bangunan,Nusa Tenggara Barat,"GPPV+7XR, Lewirato, Kec. Mpunda, Kab. Bima, Nusa Tenggara Bar. 84116","Lewirato, Kec. Mpunda, Kab. Bima",NUSA TENGGARA BARAT,84116.0,Indonesia,82359329070,,,-84.642.567,1.187.448.783,https://maps.google.com/?cid=0x0:0x57c6cacdc293bb29,
hardware store,Toko Perlengkapan Rumah,MR.DIY,"Ruko Bima, Jl. Gajah Mada No.113-49, Monggonao, Kec. Rasanae Bar., Kab. Bima, Nusa Tenggara Bar. 84117","Jl. Gajah Mada No.113-49, Monggonao, Kec. Rasanae Bar., Kab. Bima",NUSA TENGGARA BARAT,84117.0,Indonesia,2130022789,,,-84.556.667,1.187.399.135,https://maps.google.com/?cid=0x0:0x5780922262d88142,
hardware store,Toko Bahan Bangunan,Toko Bangunan MUTIARA,"Jl. Jend.Sudirman No.2, Mande, Kec. Mpunda, Kab. Bima, Nusa Tenggara Bar. 84116","Mande, Kec. Mpunda, Kab. Bima",NUSA TENGGARA BARAT,84116.0,Indonesia,,,,-84.683.102,1.187.472.807,https://maps.google.com/?cid=0x0:0x13b4e5683147c156,
hardware store,Toko Bahan Bangunan,DEPO SUMBER BANGUNAN BIMA,"Paruga, Kec. Rasanae Bar., Kab. Bima, Nusa Tenggara Bar. 84118","Kec. Rasanae Bar., Kab. Bima",NUSA TENGGARA BARAT,84118.0,Indonesia,8113833767,,,-84.542.875,1.187.178.281,https://maps.google.com/?cid=0x0:0x5695533ae32f5737,
hardware store,Toko Bahan Bangunan,Duta bangunan bima,"GPXG+6JF, Jl. Sultan Hasannudin, Sarae, Kec. Rasanae Bar., Kab. Bima, Nusa Tenggara Bar. 84118","Jl. Sultan Hasannudin, Sarae, Kec. Rasanae Bar., Kab. Bima",NUSA TENGGARA BARAT,84118.0,Indonesia,"8,12144E+11",,,-84.519.374,1.187.265.603,https://maps.google.com/?cid=0x0:0x2694848498846a,
hardware store,Toko Bahan Bangunan,Toko Jaya Raya Sadia,"Jl. Gatot Subroto, Sadia, Kec. Mpunda, Kab. Bima, Nusa Tenggara Bar. 84117","Sadia, Kec. Mpunda, Kab. Bima",NUSA TENGGARA BARAT,84117.0,Indonesia,85211115712,,,-84.629.024,1.187.446.262,https://maps.google.com/?cid=0x0:0xe45a8851654b6a11,
hardware store,Toko Bahan Bangunan,UD TUNAS JAYA,"Jl. Gatot Subroto, Santi, Kec. Mpunda, Kab. Bima, Nusa Tenggara Bar. 84116","Santi, Kec. Mpunda, Kab. Bima",NUSA TENGGARA BARAT,84116.0,Indonesia,82339862302,,,-84.579.868,1.187.471.572,https://maps.google.com/?cid=0x0:0x5467c3768a2eabf0,
hardware store,Toko Bahan Bangunan,Toko Bahan Bangunan Sinar A.R,"Jl. Karantina, Jatiwangi, Kec. Asakota, Kab. Bima, Nusa Tenggara Bar. 84118","Jatiwangi, Kec. Asakota, Kab. Bima",NUSA TENGGARA BARAT,84118.0,Indonesia,85239202161,,,-84.439.427,1.187.315.427,https://maps.google.com/?cid=0x0:0x745b0a3c05b77773,
hardware store,Toko Bahan Bangunan,Sinar Surya Bangunan,"Jl. Soekarno Hatta No.095, Rabangodu Utara, Kec. Raba, Kab. Bima, Nusa Tenggara Bar. 84113","Rabangodu Utara, Kec. Raba, Kab. Bima",NUSA TENGGARA BARAT,84113.0,Indonesia,81237979988,,,-84.660.992,1.187.564.456,https://maps.google.com/?cid=0x0:0xd8ebbf8799589138,
hardware store,Toko Bahan Bangunan,MITRA BANGUNAN,"Jl. Sultan Hasannudin No.8, Sarae, Kec. Rasanae Bar., Kab. Bima, Nusa Tenggara Bar. 84117","Sarae, Kec. Rasanae Bar., Kab. Bima",NUSA TENGGARA BARAT,84117.0,Indonesia,82335805080,,,-84.519.793,1.187.253.457,https://maps.google.com/?cid=0x0:0x7cbaac2e14760b45,
hardware store,Toko Bahan Bangunan,M. Tajkis,"GPVQ+QXC, Monggonao, Kec. Mpunda, Kab. Bima, Nusa Tenggara Bar. 84117","Monggonao, Kec. Mpunda, Kab. Bima",NUSA TENGGARA BARAT,84117.0,Indonesia,,,,-84.555.698,1.187.399.038,https://maps.google.com/?cid=0x0:0xea50d4ffd1e89ba8,
hardware store,Toko Bahan Bangunan,SUMBER BAJA BIMA (SBJ),"Jl. Soekarno Hatta, Paruga, Kec. Rasanae Bar., Kab. Bima, Nusa Tenggara Bar. 84118","Paruga, Kec. Rasanae Bar., Kab. Bima",NUSA TENGGARA BARAT,84118.0,Indonesia,81933023351,,,-84.542.252,1.187.249.505,https://maps.google.com/?cid=0x0:0xe6b3a7f8de548117,
hardware store,hardware store,Toko Bangunan HS (Harga Sama),"GQQ3+WFH, Jl. Gajah Mada, Penatoi, Kec. Mpunda, Kab. Bima, Nusa Tenggara Bar. 84111","Jl. Gajah Mada, Penatoi, Kec. Mpunda, Kab. Bima",NUSA TENGGARA BARAT,84111.0,Indonesia,,,,-84.601.924,1.187.537.378,https://maps.google.com/?cid=0x0:0x6ca46a0139db3baf,
hardware store,Toko Bahan Bangunan,TB. Arta Wiguna Bima,"Nae, Kec. Rasanae Bar., Kab. Bima, Nusa Tenggara Bar. 84117","Kec. Rasanae Bar., Kab. Bima",NUSA TENGGARA BARAT,84117.0,Indonesia,8124666130,,,-84.530.809,1.187.341.068,https://maps.google.com/?cid=0x0:0x342c0e4009c321e0,
hardware store,Toko Bahan Bangunan,TB. Harmonis,"Jl. Soekarno Hatta No.51, Rabangodu Utara, Kec. Raba, Kab. Bima, Nusa Tenggara Bar. 84115","Rabangodu Utara, Kec. Raba, Kab. Bima",NUSA TENGGARA BARAT,84115.0,Indonesia,37444442,,,-84.688.655,1.187.601.888,https://maps.google.com/?cid=0x0:0x2490aa5b2a59ec7,
hardware store,Toko Bahan Bangunan,Toko Jaya Raya Bima,"Sarae, Kec. Rasanae Bar., Kab. Bima, Nusa Tenggara Bar. 84118","Kec. Rasanae Bar., Kab. Bima",NUSA TENGGARA BARAT,84118.0,Indonesia,85330528388,,,-84.518.611,1.187.262.007,https://maps.google.com/?cid=0x0:0xb6db89df32cc3e8d,
hardware store,Toko Bahan Bangunan,Sinar Surya Bangunan,"Jl. Soekarno Hatta No.095, Rabangodu Utara, Kec. Raba, Kab. Bima, Nusa Tenggara Bar. 84113","Rabangodu Utara, Kec. Raba, Kab. Bima",NUSA TENGGARA BARAT,84113.0,Indonesia,81237979988,,,-84.660.992,1.187.564.456,https://maps.google.com/?cid=0x0:0xd8ebbf8799589138,
hardware store,hardware store,Nusa Tenggara Bar. 84113,"Kabupaten Bima, Nusa Tenggara Bar.","Kabupaten Bima, Nusa Tenggara Bar.",NUSA TENGGARA BARAT,,Indonesia,,,,-85.152.898,1.187.955.841,https://maps.google.com/?cid=0x0:0x155acae54b6146de,
hardware store,Toko Bahan Bangunan,TB. Harmonis,"Jl. Soekarno Hatta No.51, Rabangodu Utara, Kec. Raba, Kab. Bima, Nusa Tenggara Bar. 84115","Rabangodu Utara, Kec. Raba, Kab. Bima",NUSA TENGGARA BARAT,84115.0,Indonesia,37444442,,,-84.688.655,1.187.601.888,https://maps.google.com/?cid=0x0:0x2490aa5b2a59ec7,
hardware store,Toko Swalayan,Holly Mart Raba,"Jl. Soekarno Hatta No.26, Rabangodu Utara, Kec. Raba, Kab. Bima, Nusa Tenggara Bar. 84113","Rabangodu Utara, Kec. Raba, Kab. Bima",NUSA TENGGARA BARAT,84113.0,Indonesia,82340198669,,,-84.698.066,1.187.605.611,https://maps.google.com/?cid=0x0:0xb8a2d8e67d04bf5b,
hardware store,Toko Alat Tulis Kantor,Global Mart Raba,"Jl. Soekarno Hatta, Rabangodu Utara, Kec. Raba, Kab. Bima, Nusa Tenggara Bar. 84115","Rabangodu Utara, Kec. Raba, Kab. Bima",NUSA TENGGARA BARAT,84115.0,Indonesia,81246705733,,,-84.692.601,1.187.602.517,https://maps.google.com/?cid=0x0:0x28c63ed314ce9638,
hardware store,Toko Bahan Bangunan,Toko Bangunan MUTIARA,"Jl. Jend.Sudirman No.2, Mande, Kec. Mpunda, Kab. Bima, Nusa Tenggara Bar. 84116","Mande, Kec. Mpunda, Kab. Bima",NUSA TENGGARA BARAT,84116.0,Indonesia,,,,-84.683.102,1.187.472.807,https://maps.google.com/?cid=0x0:0x13b4e5683147c156,
hardware store,Toko Komputer,Sentral Muslim Computer Bima,"Jl. Soekarno Hatta No.77, Rabangodu Utara, Kec. Raba, Kab. Bima, Nusa Tenggara Bar. 84111","Rabangodu Utara, Kec. Raba, Kab. Bima",NUSA TENGGARA BARAT,84111.0,Indonesia,374646806,,,-84.667.004,1.187.575.853,https://maps.google.com/?cid=0x0:0x91c324dee404aecb,
hardware store,Toko Alat-Alat,R Hardware,"Jalan Buaran Raya No.14, Klender, Duren Sawit, RT.8/RW.15, Duren Sawit, Kec. Duren Sawit, Kota Jakarta Timur, Daerah Khusus Ibukota Jakarta 13470","Klender, Duren Sawit, RT.8/RW.15, Duren Sawit, Kec. Duren Sawit, Kota Jakarta Timur",NUSA TENGGARA BARAT,13470.0,Indonesia,2186617280,,,-62.206.585,106.921.238,https://maps.google.com/?cid=0x0:0x2eb6bbca842d3c29,
hardware store,Toko Perlengkapan Rumah,R Hardware,"QVJP+GRC, Jl. Cipinang Jaya Raya, RT.8/RW.7, Cipinang Besar Sel., Kecamatan Jatinegara, Kota Jakarta Timur, Daerah Khusus Ibukota Jakarta 13470","Jl. Cipinang Jaya Raya, RT.8/RW.7, Cipinang Besar Sel., Kecamatan Jatinegara, Kota Jakarta Timur",NUSA TENGGARA BARAT,13470.0,Indonesia,2122896476,,,-62.186.862,1.068.870.233,https://maps.google.com/?cid=0x0:0xd4507280dfe2daab,
hardware store,hardware store,Nusa Tenggara Bar. 84115,"Kab. Bima, Nusa Tenggara Bar.","Kab. Bima, Nusa Tenggara Bar.",NUSA TENGGARA BARAT,,Indonesia,,,,-84.769.135,1.187.839.274,https://maps.google.com/?cid=0x0:0x1211695e5508ddbe,
hardware store,Toko Bahan Bangunan,TB. Harmonis,"Jl. Soekarno Hatta No.51, Rabangodu Utara, Kec. Raba, Kab. Bima, Nusa Tenggara Bar. 84115","Rabangodu Utara, Kec. Raba, Kab. Bima",NUSA TENGGARA BARAT,84115.0,Indonesia,37444442,,,-84.688.655,1.187.601.888,https://maps.google.com/?cid=0x0:0x2490aa5b2a59ec7,
hardware store,Toko Bahan Bangunan,Sinar Surya Bangunan,"Jl. Soekarno Hatta No.095, Rabangodu Utara, Kec. Raba, Kab. Bima, Nusa Tenggara Bar. 84113","Rabangodu Utara, Kec. Raba, Kab. Bima",NUSA TENGGARA BARAT,84113.0,Indonesia,81237979988,,,-84.660.992,1.187.564.456,https://maps.google.com/?cid=0x0:0xd8ebbf8799589138,
hardware store,Toko Bahan Bangunan,TOKO BANGUNAN RIZKI PERKASA,"Jl. Jend.Sudirman No.55, Rabangodu Sel., Kec. Raba, Kab. Bima, Nusa Tenggara Bar. 84111","Rabangodu Sel., Kec. Raba, Kab. Bima",NUSA TENGGARA BARAT,84111.0,Indonesia,85333711993,,,-84.706.138,1.187.530.179,https://maps.google.com/?cid=0x0:0xc564737777aa62a0,
hardware store,Toko Bahan Bangunan,Toko Bangunan MUTIARA,"Jl. Jend.Sudirman No.2, Mande, Kec. Mpunda, Kab. Bima, Nusa Tenggara Bar. 84116","Mande, Kec. Mpunda, Kab. Bima",NUSA TENGGARA BARAT,84116.0,Indonesia,,,,-84.683.102,1.187.472.807,https://maps.google.com/?cid=0x0:0x13b4e5683147c156,
hardware store,Toko Bahan Bangunan,TB. Langgeng Jaya 1,"Penaraga, Kec. Raba, Kab. Bima, Nusa Tenggara Bar. 84115","Kec. Raba, Kab. Bima",NUSA TENGGARA BARAT,84115.0,Indonesia,,,,-8.462.476,1.187.598.229,https://maps.google.com/?cid=0x0:0x601ba20c689a82ed,
hardware store,Toko Komputer,Sentral Muslim Computer Bima,"Jl. Soekarno Hatta No.77, Rabangodu Utara, Kec. Raba, Kab. Bima, Nusa Tenggara Bar. 84111","Rabangodu Utara, Kec. Raba, Kab. Bima",NUSA TENGGARA BARAT,84111.0,Indonesia,374646806,,,-84.667.004,1.187.575.853,https://maps.google.com/?cid=0x0:0x91c324dee404aecb,
hardware store,Toko Komputer,Grey Computer,"Jl Gadjahmada no 123, RT11/RW04, kel Penaraga, Kec Raba, Kota Bima, NTB, Penaraga, Kec. Raba, Kab. Bima, Nusa Tenggara Bar. 84115","RT11/RW04, kel Penaraga, Kec Raba, Kota Bima, NTB, Penaraga, Kec. Raba, Kab. Bima",NUSA TENGGARA BARAT,84115.0,Indonesia,85253879118,,,-84.614.244,1.187.576.319,https://maps.google.com/?cid=0x0:0x3561e5b8c6180e0a,
hardware store,Toko Alat Tulis,Toko Pasifik,"Jl. Soekarno Hatta No.113, Rabangodu Utara, Kec. Raba, Kab. Bima, Nusa Tenggara Bar. 84111","Rabangodu Utara, Kec. Raba, Kab. Bima",NUSA TENGGARA BARAT,84111.0,Indonesia,81239757493,,,-84.692.152,1.187.605.319,https://maps.google.com/?cid=0x0:0x87402de83d5c0de4,
hardware store,Toko Fotokopi,Foto Copy MAYRA,"GQP6+R32, Penaraga, Kec. Raba, Kab. Bima, Nusa Tenggara Bar. 84115","Penaraga, Kec. Raba, Kab. Bima",NUSA TENGGARA BARAT,84115.0,Indonesia,82359513009,,,-84.629.998,1.187.601.546,https://maps.google.com/?cid=0x0:0x427fe30568bb7e8f,
hardware store,Toko Perlengkapan Rumah,City Ace Hardware-4th South,"612 E 400 S, Salt Lake City, UT 84102, Amerika Serikat","Salt Lake City, UT",NUSA TENGGARA BARAT,84102.0,Indonesia,18013646567,,,40.759.786,-1.118.735.004,https://maps.google.com/?cid=0x0:0xdfbad1b7a2ee47d7,
hardware store,Pemasok peralatan petugas kebersihan,Hy-Ko True Value Hardware,"1908 Industrial Cir, Salt Lake City, UT 84104, Amerika Serikat","Salt Lake City, UT",NUSA TENGGARA BARAT,84104.0,Indonesia,18019736099,,,407.300.794,-1.119.452.192,https://maps.google.com/?cid=0x0:0x121d744614ca7cb2,
hardware store,Toko Bahan Bangunan,Marshalls Industrial Hardware,"2210 California Ave, Salt Lake City, UT 84104, Amerika Serikat","Salt Lake City, UT",NUSA TENGGARA BARAT,84104.0,Indonesia,18019780555,,,407.410.239,-1.119.515.151,https://maps.google.com/?cid=0x0:0x3d8c5ea168fe23f8,
hardware store,Toko Pipa,Standard True Value - South Sa,"185 W 3300 S, Salt Lake City, UT 84115, Amerika Serikat","Salt Lake City, UT",NUSA TENGGARA BARAT,84115.0,Indonesia,18014852304,,,406.993.477,-1.118.965.709,https://maps.google.com/?cid=0x0:0xd4e2b973a1ddfa38,
hardware store,Toko Bahan Bangunan,Ace Hardware of Olympus Hills,"3981 S Wasatch Blvd, Salt Lake City, UT 84124, Amerika Serikat","Salt Lake City, UT",NUSA TENGGARA BARAT,84124.0,Indonesia,18014241414,,,406.849.447,-1.117.944.025,https://maps.google.com/?cid=0x0:0x1bac2ec528244a61,
hardware store,hardware store,Kec. Raba,"Kab. Bima, Nusa Tenggara Bar.","Kab. Bima, Nusa Tenggara Bar.",NUSA TENGGARA BARAT,,Indonesia,,,,-84.666.508,118.757.814,https://maps.google.com/?cid=0x0:0xce956a7089b21641,
hardware store,Toko Bahan Bangunan,TB. Harmonis,"Jl. Soekarno Hatta No.51, Rabangodu Utara, Kec. Raba, Kab. Bima, Nusa Tenggara Bar. 84115","Rabangodu Utara, Kec. Raba, Kab. Bima",NUSA TENGGARA BARAT,84115.0,Indonesia,37444442,,,-84.688.655,1.187.601.888,https://maps.google.com/?cid=0x0:0x2490aa5b2a59ec7,
hardware store,Toko Perlengkapan Rumah,MR.DIY,"Ruko Bima, Jl. Gajah Mada No.113-49, Monggonao, Kec. Rasanae Bar., Kab. Bima, Nusa Tenggara Bar. 84117","Jl. Gajah Mada No.113-49, Monggonao, Kec. Rasanae Bar., Kab. Bima",NUSA TENGGARA BARAT,84117.0,Indonesia,2130022789,,,-84.556.667,1.187.399.135,https://maps.google.com/?cid=0x0:0x5780922262d88142,
hardware store,Toko Alat Tulis Kantor,Global Mart Raba,"Jl. Soekarno Hatta, Rabangodu Utara, Kec. Raba, Kab. Bima, Nusa Tenggara Bar. 84115","Rabangodu Utara, Kec. Raba, Kab. Bima",NUSA TENGGARA BARAT,84115.0,Indonesia,81246705733,,,-84.692.601,1.187.602.517,https://maps.google.com/?cid=0x0:0x28c63ed314ce9638,
hardware store,Toko Bahan Bangunan,TOKO BANGUNAN RIZKI PERKASA,"Jl. Jend.Sudirman No.55, Rabangodu Sel., Kec. Raba, Kab. Bima, Nusa Tenggara Bar. 84111","Rabangodu Sel., Kec. Raba, Kab. Bima",NUSA TENGGARA BARAT,84111.0,Indonesia,85333711993,,,-84.706.138,1.187.530.179,https://maps.google.com/?cid=0x0:0xc564737777aa62a0,
hardware store,Toko Bahan Bangunan,Sinar Surya Bangunan,"Jl. Soekarno Hatta No.095, Rabangodu Utara, Kec. Raba, Kab. Bima, Nusa Tenggara Bar. 84113","Rabangodu Utara, Kec. Raba, Kab. Bima",NUSA TENGGARA BARAT,84113.0,Indonesia,81237979988,,,-84.660.992,1.187.564.456,https://maps.google.com/?cid=0x0:0xd8ebbf8799589138,
hardware store,Toko,TB. Cahaya Makmur Lestari,"Santi 1 Barat Ruko Coklat Toko Bangunan Cahaya Makmur Lestari, Santi, Kec. Mpunda, Kab. Bima, Nusa Tenggara Bar. 84119","Santi, Kec. Mpunda, Kab. Bima",NUSA TENGGARA BARAT,84119.0,Indonesia,81236434428,,,-84.540.836,1.187.443.901,https://maps.google.com/?cid=0x0:0xcd7545fe3a3576cd,
hardware store,Toko Swalayan,Holly Mart Raba,"Jl. Soekarno Hatta No.26, Rabangodu Utara, Kec. Raba, Kab. Bima, Nusa Tenggara Bar. 84113","Rabangodu Utara, Kec. Raba, Kab. Bima",NUSA TENGGARA BARAT,84113.0,Indonesia,82340198669,,,-84.698.066,1.187.605.611,https://maps.google.com/?cid=0x0:0xb8a2d8e67d04bf5b,
hardware store,Toko Bahan Bangunan,TB. Langgeng Jaya 1,"Penaraga, Kec. Raba, Kab. Bima, Nusa Tenggara Bar. 84115","Kec. Raba, Kab. Bima",NUSA TENGGARA BARAT,84115.0,Indonesia,,,,-8.462.476,1.187.598.229,https://maps.google.com/?cid=0x0:0x601ba20c689a82ed,
hardware store,Toko Bahan Bangunan,Toko Jaya Raya Bima,"Sarae, Kec. Rasanae Bar., Kab. Bima, Nusa Tenggara Bar. 84118","Kec. Rasanae Bar., Kab. Bima",NUSA TENGGARA BARAT,84118.0,Indonesia,85330528388,,,-84.518.611,1.187.262.007,https://maps.google.com/?cid=0x0:0xb6db89df32cc3e8d,
hardware store,Toko Bahan Bangunan,Toko Jaya Raya Sadia,"Jl. Gatot Subroto, Sadia, Kec. Mpunda, Kab. Bima, Nusa Tenggara Bar. 84117","Sadia, Kec. Mpunda, Kab. Bima",NUSA TENGGARA BARAT,84117.0,Indonesia,85211115712,,,-84.629.024,1.187.446.262,https://maps.google.com/?cid=0x0:0xe45a8851654b6a11,
hardware store,Toko Bahan Bangunan,DEPO SUMBER BANGUNAN BIMA,"Paruga, Kec. Rasanae Bar., Kab. Bima, Nusa Tenggara Bar. 84118","Kec. Rasanae Bar., Kab. Bima",NUSA TENGGARA BARAT,84118.0,Indonesia,8113833767,,,-84.542.875,1.187.178.281,https://maps.google.com/?cid=0x0:0x5695533ae32f5737,
hardware store,hardware store,IDSTEEL BIMA (Logam Nusantara 2) | Toko Baja Ringan,"Jl. Gajah Mada, Penatoi, Kec. Mpunda, Kab. Bima, Nusa Tenggara Bar. 84116","Penatoi, Kec. Mpunda, Kab. Bima",NUSA TENGGARA BARAT,84116.0,Indonesia,81916065392,,,-84.589.788,118.748.895,https://maps.google.com/?cid=0x0:0x45c9f250e3de34f3,
hardware store,Toko Bahan Bangunan,Jaya raya,"GP76+7WX, Dara, Kec. Rasanae Bar., Kabupaten Bima, Nusa Tenggara Bar.","Kabupaten Bima, Nusa Tenggara Bar.",NUSA TENGGARA BARAT,,Indonesia,,,,-84.867.676,1.187.123.502,https://maps.google.com/?cid=0x0:0x4ae5c0a2c7847da9,
hardware store,Toko Bahan Bangunan,Toko Bangunan MUTIARA,"Jl. Jend.Sudirman No.2, Mande, Kec. Mpunda, Kab. Bima, Nusa Tenggara Bar. 84116","Mande, Kec. Mpunda, Kab. Bima",NUSA TENGGARA BARAT,84116.0,Indonesia,,,,-84.683.102,1.187.472.807,https://maps.google.com/?cid=0x0:0x13b4e5683147c156,
hardware store,Toko Bahan Bangunan,MITRA BANGUNAN,"Jl. Sultan Hasannudin No.8, Sarae, Kec. Rasanae Bar., Kab. Bima, Nusa Tenggara Bar. 84117","Sarae, Kec. Rasanae Bar., Kab. Bima",NUSA TENGGARA BARAT,84117.0,Indonesia,82335805080,,,-84.519.793,1.187.253.457,https://maps.google.com/?cid=0x0:0x7cbaac2e14760b45,
hardware store,Toko Bahan Bangunan,Toko Bahan Bangunan Sinar A.R,"Jl. Karantina, Jatiwangi, Kec. Asakota, Kab. Bima, Nusa Tenggara Bar. 84118","Jatiwangi, Kec. Asakota, Kab. Bima",NUSA TENGGARA BARAT,84118.0,Indonesia,85239202161,,,-84.439.427,1.187.315.427,https://maps.google.com/?cid=0x0:0x745b0a3c05b77773,
hardware store,Toko Bahan Bangunan,Duta bangunan bima,"GPXG+6JF, Jl. Sultan Hasannudin, Sarae, Kec. Rasanae Bar., Kab. Bima, Nusa Tenggara Bar. 84118","Jl. Sultan Hasannudin, Sarae, Kec. Rasanae Bar., Kab. Bima",NUSA TENGGARA BARAT,84118.0,Indonesia,"8,12144E+11",,,-84.519.374,1.187.265.603,https://maps.google.com/?cid=0x0:0x2694848498846a,
hardware store,Toko Bahan Bangunan,TB. Arta Wiguna Bima,"Nae, Kec. Rasanae Bar., Kab. Bima, Nusa Tenggara Bar. 84117","Kec. Rasanae Bar., Kab. Bima",NUSA TENGGARA BARAT,84117.0,Indonesia,8124666130,,,-84.530.809,1.187.341.068,https://maps.google.com/?cid=0x0:0x342c0e4009c321e0,
hardware store,Toko Bahan Bangunan,SUMBER BAJA BIMA (SBJ),"Jl. Soekarno Hatta, Paruga, Kec. Rasanae Bar., Kab. Bima, Nusa Tenggara Bar. 84118","Paruga, Kec. Rasanae Bar., Kab. Bima",NUSA TENGGARA BARAT,84118.0,Indonesia,81933023351,,,-84.542.252,1.187.249.505,https://maps.google.com/?cid=0x0:0xe6b3a7f8de548117,
hardware store,Toko Bahan Bangunan,UD TUNAS JAYA,"Jl. Gatot Subroto, Santi, Kec. Mpunda, Kab. Bima, Nusa Tenggara Bar. 84116","Santi, Kec. Mpunda, Kab. Bima",NUSA TENGGARA BARAT,84116.0,Indonesia,82339862302,,,-84.579.868,1.187.471.572,https://maps.google.com/?cid=0x0:0x5467c3768a2eabf0,
hardware store,Toko Perlengkapan Rumah,The Home Depot,"4581 S 4000 W, West Valley City, UT 84120, Amerika Serikat","West Valley City, UT",NUSA TENGGARA BARAT,84120.0,Indonesia,18019634700,,,406.703.859,-11.198.381,https://maps.google.com/?cid=0x0:0xf34ba7d1d91c8665,
hardware store,Toko Perlengkapan Rumah,Lowe's Home Improvement,"4050 S 5600 W, West Valley City, UT 84120, Amerika Serikat","West Valley City, UT",NUSA TENGGARA BARAT,84120.0,Indonesia,18019676829,,,40.683.554,-112.028.211,https://maps.google.com/?cid=0x0:0x9d2e4dc107c3b722,
hardware store,hardware store,Compact Power Equipment Rental,"4581 S 4000 W, West Valley City, UT 84120, Amerika Serikat","West Valley City, UT",NUSA TENGGARA BARAT,84120.0,Indonesia,18882667228,,,40.670.286,-111.983.954,https://maps.google.com/?cid=0x0:0xd9a9d952013b3181,
hardware store,hardware store,Kec. Rasanae Bar.,"Kab. Bima, Nusa Tenggara Bar.","Kab. Bima, Nusa Tenggara Bar.",NUSA TENGGARA BARAT,,Indonesia,,,,-84.540.632,1.187.241.865,https://maps.google.com/?cid=0x0:0x716674d420dfa05,
hardware store,Toko Bahan Bangunan,Fajar Cerah,"Sarae, Kec. Rasanae Bar., Kab. Bima, Nusa Tenggara Bar. 84118","Kec. Rasanae Bar., Kab. Bima",NUSA TENGGARA BARAT,84118.0,Indonesia,,,,-84.518.814,1.187.258.516,https://maps.google.com/?cid=0x0:0xfe237cc16fe8c957,
hardware store,Toko Perlengkapan Rumah,MR.DIY,"Ruko Bima, Jl. Gajah Mada No.113-49, Monggonao, Kec. Rasanae Bar., Kab. Bima, Nusa Tenggara Bar. 84117","Jl. Gajah Mada No.113-49, Monggonao, Kec. Rasanae Bar., Kab. Bima",NUSA TENGGARA BARAT,84117.0,Indonesia,2130022789,,,-84.556.667,1.187.399.135,https://maps.google.com/?cid=0x0:0x5780922262d88142,
hardware store,Toko Bahan Bangunan,Duta bangunan bima,"GPXG+6JF, Jl. Sultan Hasannudin, Sarae, Kec. Rasanae Bar., Kab. Bima, Nusa Tenggara Bar. 84118","Jl. Sultan Hasannudin, Sarae, Kec. Rasanae Bar., Kab. Bima",NUSA TENGGARA BARAT,84118.0,Indonesia,"8,12144E+11",,,-84.519.374,1.187.265.603,https://maps.google.com/?cid=0x0:0x2694848498846a,
hardware store,Toko Bahan Bangunan,DEPO SUMBER BANGUNAN BIMA,"Paruga, Kec. Rasanae Bar., Kab. Bima, Nusa Tenggara Bar. 84118","Kec. Rasanae Bar., Kab. Bima",NUSA TENGGARA BARAT,84118.0,Indonesia,8113833767,,,-84.542.875,1.187.178.281,https://maps.google.com/?cid=0x0:0x5695533ae32f5737,
hardware store,Toko Bahan Bangunan,MITRA BANGUNAN,"Jl. Sultan Hasannudin No.8, Sarae, Kec. Rasanae Bar., Kab. Bima, Nusa Tenggara Bar. 84117","Sarae, Kec. Rasanae Bar., Kab. Bima",NUSA TENGGARA BARAT,84117.0,Indonesia,82335805080,,,-84.519.793,1.187.253.457,https://maps.google.com/?cid=0x0:0x7cbaac2e14760b45,
hardware store,Toko Bahan Bangunan,Toko Bahan Bangunan Sinar A.R,"Jl. Karantina, Jatiwangi, Kec. Asakota, Kab. Bima, Nusa Tenggara Bar. 84118","Jatiwangi, Kec. Asakota, Kab. Bima",NUSA TENGGARA BARAT,84118.0,Indonesia,85239202161,,,-84.439.427,1.187.315.427,https://maps.google.com/?cid=0x0:0x745b0a3c05b77773,
hardware store,Toko Bahan Bangunan,Jaya raya,"GP76+7WX, Dara, Kec. Rasanae Bar., Kabupaten Bima, Nusa Tenggara Bar.","Kabupaten Bima, Nusa Tenggara Bar.",NUSA TENGGARA BARAT,,Indonesia,,,,-84.867.676,1.187.123.502,https://maps.google.com/?cid=0x0:0x4ae5c0a2c7847da9,
hardware store,Toko Bahan Bangunan,SUMBER BAJA BIMA (SBJ),"Jl. Soekarno Hatta, Paruga, Kec. Rasanae Bar., Kab. Bima, Nusa Tenggara Bar. 84118","Paruga, Kec. Rasanae Bar., Kab. Bima",NUSA TENGGARA BARAT,84118.0,Indonesia,81933023351,,,-84.542.252,1.187.249.505,https://maps.google.com/?cid=0x0:0xe6b3a7f8de548117,
hardware store,Toko Bahan Bangunan,TB. Arta Wiguna Bima,"Nae, Kec. Rasanae Bar., Kab. Bima, Nusa Tenggara Bar. 84117","Kec. Rasanae Bar., Kab. Bima",NUSA TENGGARA BARAT,84117.0,Indonesia,8124666130,,,-84.530.809,1.187.341.068,https://maps.google.com/?cid=0x0:0x342c0e4009c321e0,
hardware store,Toko Bahan Bangunan,Toko Bangunan,"GPWM+QJ4, Jl. Gajah Mada, Nae, Kec. Rasanae Bar., Kab. Bima, Nusa Tenggara Bar. 84117","Jl. Gajah Mada, Nae, Kec. Rasanae Bar., Kab. Bima",NUSA TENGGARA BARAT,84117.0,Indonesia,,,,-84.531.241,1.187.340.686,https://maps.google.com/?cid=0x0:0x83fe0f35102f017e,
hardware store,Toko Swalayan,Mai Mart,"Jl. Hasanuddin, Sarae, Rasanae Barat, Bima Regency, West Nusa Tenggara 84118","Sarae, Rasanae Barat, Bima Regency",NUSA TENGGARA BARAT,84118.0,Indonesia,,,,-8.452.028,1.187.277.648,https://maps.google.com/?cid=0x0:0x2ce42986702191b3,
hardware store,Toko Bahan Bangunan,Fajar Cerah,"Sarae, Kec. Rasanae Bar., Kab. Bima, Nusa Tenggara Bar. 84118","Kec. Rasanae Bar., Kab. Bima",NUSA TENGGARA BARAT,84118.0,Indonesia,,,,-84.518.814,1.187.258.516,https://maps.google.com/?cid=0x0:0xfe237cc16fe8c957,
hardware store,hardware store,Nusa Tenggara Bar. 84116,"Kab. Bima, Nusa Tenggara Bar.","Kab. Bima, Nusa Tenggara Bar.",NUSA TENGGARA BARAT,,Indonesia,,,,-84.328.109,1.187.518.671,https://maps.google.com/?cid=0x0:0x3031d935f9088a16,
hardware store,Toko Perlengkapan Rumah,MR.DIY,"Ruko Bima, Jl. Gajah Mada No.113-49, Monggonao, Kec. Rasanae Bar., Kab. Bima, Nusa Tenggara Bar. 84117","Jl. Gajah Mada No.113-49, Monggonao, Kec. Rasanae Bar., Kab. Bima",NUSA TENGGARA BARAT,84117.0,Indonesia,2130022789,,,-84.556.667,1.187.399.135,https://maps.google.com/?cid=0x0:0x5780922262d88142,
hardware store,hardware store,IDSTEEL BIMA (Logam Nusantara 2) | Toko Baja Ringan,"Jl. Gajah Mada, Penatoi, Kec. Mpunda, Kab. Bima, Nusa Tenggara Bar. 84116","Penatoi, Kec. Mpunda, Kab. Bima",NUSA TENGGARA BARAT,84116.0,Indonesia,81916065392,,,-84.589.788,118.748.895,https://maps.google.com/?cid=0x0:0x45c9f250e3de34f3,
hardware store,Toko Bahan Bangunan,Toko Jaya Raya Sadia,"Jl. Gatot Subroto, Sadia, Kec. Mpunda, Kab. Bima, Nusa Tenggara Bar. 84117","Sadia, Kec. Mpunda, Kab. Bima",NUSA TENGGARA BARAT,84117.0,Indonesia,85211115712,,,-84.629.024,1.187.446.262,https://maps.google.com/?cid=0x0:0xe45a8851654b6a11,
hardware store,Toko Bahan Bangunan,Sinar Surya Bangunan,"Jl. Soekarno Hatta No.095, Rabangodu Utara, Kec. Raba, Kab. Bima, Nusa Tenggara Bar. 84113","Rabangodu Utara, Kec. Raba, Kab. Bima",NUSA TENGGARA BARAT,84113.0,Indonesia,81237979988,,,-84.660.992,1.187.564.456,https://maps.google.com/?cid=0x0:0xd8ebbf8799589138,
hardware store,Toko Bahan Bangunan,MITRA BANGUNAN,"Jl. Sultan Hasannudin No.8, Sarae, Kec. Rasanae Bar., Kab. Bima, Nusa Tenggara Bar. 84117","Sarae, Kec. Rasanae Bar., Kab. Bima",NUSA TENGGARA BARAT,84117.0,Indonesia,82335805080,,,-84.519.793,1.187.253.457,https://maps.google.com/?cid=0x0:0x7cbaac2e14760b45,
hardware store,Toko Bahan Bangunan,TOKO BANGUNAN RIZKI PERKASA,"Jl. Jend.Sudirman No.55, Rabangodu Sel., Kec. Raba, Kab. Bima, Nusa Tenggara Bar. 84111","Rabangodu Sel., Kec. Raba, Kab. Bima",NUSA TENGGARA BARAT,84111.0,Indonesia,85333711993,,,-84.706.138,1.187.530.179,https://maps.google.com/?cid=0x0:0xc564737777aa62a0,
hardware store,Toko Bahan Bangunan,Duta bangunan bima,"GPXG+6JF, Jl. Sultan Hasannudin, Sarae, Kec. Rasanae Bar., Kab. Bima, Nusa Tenggara Bar. 84118","Jl. Sultan Hasannudin, Sarae, Kec. Rasanae Bar., Kab. Bima",NUSA TENGGARA BARAT,84118.0,Indonesia,"8,12144E+11",,,-84.519.374,1.187.265.603,https://maps.google.com/?cid=0x0:0x2694848498846a,
hardware store,Toko Bahan Bangunan,TB. Arta Wiguna Bima,"Nae, Kec. Rasanae Bar., Kab. Bima, Nusa Tenggara Bar. 84117","Kec. Rasanae Bar., Kab. Bima",NUSA TENGGARA BARAT,84117.0,Indonesia,8124666130,,,-84.530.809,1.187.341.068,https://maps.google.com/?cid=0x0:0x342c0e4009c321e0,
hardware store,Toko,TB. Cahaya Makmur Lestari,"Santi 1 Barat Ruko Coklat Toko Bangunan Cahaya Makmur Lestari, Santi, Kec. Mpunda, Kab. Bima, Nusa Tenggara Bar. 84119","Santi, Kec. Mpunda, Kab. Bima",NUSA TENGGARA BARAT,84119.0,Indonesia,81236434428,,,-84.540.836,1.187.443.901,https://maps.google.com/?cid=0x0:0xcd7545fe3a3576cd,
hardware store,Toko Bahan Bangunan,Toko Bahan Bangunan Sinar A.R,"Jl. Karantina, Jatiwangi, Kec. Asakota, Kab. Bima, Nusa Tenggara Bar. 84118","Jatiwangi, Kec. Asakota, Kab. Bima",NUSA TENGGARA BARAT,84118.0,Indonesia,85239202161,,,-84.439.427,1.187.315.427,https://maps.google.com/?cid=0x0:0x745b0a3c05b77773,
hardware store,Toko Bahan Bangunan,SUMBER BAJA BIMA (SBJ),"Jl. Soekarno Hatta, Paruga, Kec. Rasanae Bar., Kab. Bima, Nusa Tenggara Bar. 84118","Paruga, Kec. Rasanae Bar., Kab. Bima",NUSA TENGGARA BARAT,84118.0,Indonesia,81933023351,,,-84.542.252,1.187.249.505,https://maps.google.com/?cid=0x0:0xe6b3a7f8de548117,
hardware store,Toko Bahan Bangunan,UD TUNAS JAYA,"Jl. Gatot Subroto, Santi, Kec. Mpunda, Kab. Bima, Nusa Tenggara Bar. 84116","Santi, Kec. Mpunda, Kab. Bima",NUSA TENGGARA BARAT,84116.0,Indonesia,82339862302,,,-84.579.868,1.187.471.572,https://maps.google.com/?cid=0x0:0x5467c3768a2eabf0,
hardware store,Toko Swalayan,Mai Mart,"Jl. Hasanuddin, Sarae, Rasanae Barat, Bima Regency, West Nusa Tenggara 84118","Sarae, Rasanae Barat, Bima Regency",NUSA TENGGARA BARAT,84118.0,Indonesia,,,,-8.452.028,1.187.277.648,https://maps.google.com/?cid=0x0:0x2ce42986702191b3,
hardware store,Toko Bahan Bangunan,TB. Harmonis,"Jl. Soekarno Hatta No.51, Rabangodu Utara, Kec. Raba, Kab. Bima, Nusa Tenggara Bar. 84115","Rabangodu Utara, Kec. Raba, Kab. Bima",NUSA TENGGARA BARAT,84115.0,Indonesia,37444442,,,-84.688.655,1.187.601.888,https://maps.google.com/?cid=0x0:0x2490aa5b2a59ec7,
hardware store,Toko Bahan Bangunan,Toko Bangunan MUTIARA,"Jl. Jend.Sudirman No.2, Mande, Kec. Mpunda, Kab. Bima, Nusa Tenggara Bar. 84116","Mande, Kec. Mpunda, Kab. Bima",NUSA TENGGARA BARAT,84116.0,Indonesia,,,,-84.683.102,1.187.472.807,https://maps.google.com/?cid=0x0:0x13b4e5683147c156,
hardware store,Toko Bahan Bangunan,TB. Langgeng Jaya 1,"Penaraga, Kec. Raba, Kab. Bima, Nusa Tenggara Bar. 84115","Kec. Raba, Kab. Bima",NUSA TENGGARA BARAT,84115.0,Indonesia,,,,-8.462.476,1.187.598.229,https://maps.google.com/?cid=0x0:0x601ba20c689a82ed,
hardware store,Toko Komputer,Johan Foto Computer,"Jl. Soekarno Hatta No.042, Pane, Kec. Rasanae Bar., Kab. Bima, Nusa Tenggara Bar. 84116","Pane, Kec. Rasanae Bar., Kab. Bima",NUSA TENGGARA BARAT,84116.0,Indonesia,81232996868,,,-84.565.445,1.187.324.587,https://maps.google.com/?cid=0x0:0x77322b1adfa72dc7,
hardware store,Toko Bahan Bangunan,UD.SAMBI JAYA,"Jl. Datuk Dibanta No.99, Jatiwangi, Kec. Asakota, Kab. Bima, Nusa Tenggara Bar. 84117","Jatiwangi, Kec. Asakota, Kab. Bima",NUSA TENGGARA BARAT,84117.0,Indonesia,85239403037,,,-84.493.922,1.187.336.465,https://maps.google.com/?cid=0x0:0xb277cb4ccc5de2e7,
hardware store,Toko Bahan Bangunan,Toko Bangunan,"GPWM+QJ4, Jl. Gajah Mada, Nae, Kec. Rasanae Bar., Kab. Bima, Nusa Tenggara Bar. 84117","Jl. Gajah Mada, Nae, Kec. Rasanae Bar., Kab. Bima",NUSA TENGGARA BARAT,84117.0,Indonesia,,,,-84.531.241,1.187.340.686,https://maps.google.com/?cid=0x0:0x83fe0f35102f017e,
hardware store,hardware store,Kec. Rasanae Bar.,"Kab. Bima, Nusa Tenggara Bar.","Kab. Bima, Nusa Tenggara Bar.",NUSA TENGGARA BARAT,,Indonesia,,,,-84.540.632,1.187.241.865,https://maps.google.com/?cid=0x0:0x716674d420dfa05,
hardware store,Toko Bahan Bangunan,DEPO SUMBER BANGUNAN BIMA,"Paruga, Kec. Rasanae Bar., Kab. Bima, Nusa Tenggara Bar. 84118","Kec. Rasanae Bar., Kab. Bima",NUSA TENGGARA BARAT,84118.0,Indonesia,8113833767,,,-84.542.875,1.187.178.281,https://maps.google.com/?cid=0x0:0x5695533ae32f5737,
hardware store,Toko Bahan Bangunan,Jaya raya,"GP76+7WX, Dara, Kec. Rasanae Bar., Kabupaten Bima, Nusa Tenggara Bar.","Kabupaten Bima, Nusa Tenggara Bar.",NUSA TENGGARA BARAT,,Indonesia,,,,-84.867.676,1.187.123.502,https://maps.google.com/?cid=0x0:0x4ae5c0a2c7847da9,
hardware store,hardware store,Nusa Tenggara Bar. 84117,"Jatiwangi, Kec. Asakota, Kab. Bima, Nusa Tenggara Bar.","Kab. Bima, Nusa Tenggara Bar.",NUSA TENGGARA BARAT,,Indonesia,,,,-84.337.387,1.187.402.073,https://maps.google.com/?cid=0x0:0xb14cdce05e5da3df,
hardware store,Toko Bahan Bangunan,Fajar Cerah,"Sarae, Kec. Rasanae Bar., Kab. Bima, Nusa Tenggara Bar. 84118","Kec. Rasanae Bar., Kab. Bima",NUSA TENGGARA BARAT,84118.0,Indonesia,,,,-84.518.814,1.187.258.516,https://maps.google.com/?cid=0x0:0xfe237cc16fe8c957,
hardware store,Toko Perlengkapan Rumah,MR.DIY,"Ruko Bima, Jl. Gajah Mada No.113-49, Monggonao, Kec. Rasanae Bar., Kab. Bima, Nusa Tenggara Bar. 84117","Jl. Gajah Mada No.113-49, Monggonao, Kec. Rasanae Bar., Kab. Bima",NUSA TENGGARA BARAT,84117.0,Indonesia,2130022789,,,-84.556.667,1.187.399.135,https://maps.google.com/?cid=0x0:0x5780922262d88142,
hardware store,Toko Bahan Bangunan,Toko Jaya Raya Sadia,"Jl. Gatot Subroto, Sadia, Kec. Mpunda, Kab. Bima, Nusa Tenggara Bar. 84117","Sadia, Kec. Mpunda, Kab. Bima",NUSA TENGGARA BARAT,84117.0,Indonesia,85211115712,,,-84.629.024,1.187.446.262,https://maps.google.com/?cid=0x0:0xe45a8851654b6a11,
hardware store,Toko Bahan Bangunan,Duta bangunan bima,"GPXG+6JF, Jl. Sultan Hasannudin, Sarae, Kec. Rasanae Bar., Kab. Bima, Nusa Tenggara Bar. 84118","Jl. Sultan Hasannudin, Sarae, Kec. Rasanae Bar., Kab. Bima",NUSA TENGGARA BARAT,84118.0,Indonesia,"8,12144E+11",,,-84.519.374,1.187.265.603,https://maps.google.com/?cid=0x0:0x2694848498846a,
hardware store,Toko,TB. Cahaya Makmur Lestari,"Santi 1 Barat Ruko Coklat Toko Bangunan Cahaya Makmur Lestari, Santi, Kec. Mpunda, Kab. Bima, Nusa Tenggara Bar. 84119","Santi, Kec. Mpunda, Kab. Bima",NUSA TENGGARA BARAT,84119.0,Indonesia,81236434428,,,-84.540.836,1.187.443.901,https://maps.google.com/?cid=0x0:0xcd7545fe3a3576cd,
hardware store,Toko Bahan Bangunan,Toko Bangunan Nusantara Abadi,"sultan salahudin No.4, Dara, Kec. Rasanae Bar., Kab. Bima, Nusa Tenggara Bar. 84111","Dara, Kec. Rasanae Bar., Kab. Bima",NUSA TENGGARA BARAT,84111.0,Indonesia,,,,-84.562.579,1.187.237.965,https://maps.google.com/?cid=0x0:0xe3766b659013351e,
hardware store,Toko Bahan Bangunan,MITRA BANGUNAN,"Jl. Sultan Hasannudin No.8, Sarae, Kec. Rasanae Bar., Kab. Bima, Nusa Tenggara Bar. 84117","Sarae, Kec. Rasanae Bar., Kab. Bima",NUSA TENGGARA BARAT,84117.0,Indonesia,82335805080,,,-84.519.793,1.187.253.457,https://maps.google.com/?cid=0x0:0x7cbaac2e14760b45,
hardware store,Toko Bahan Bangunan,TB. Arta Wiguna Bima,"Nae, Kec. Rasanae Bar., Kab. Bima, Nusa Tenggara Bar. 84117","Kec. Rasanae Bar., Kab. Bima",NUSA TENGGARA BARAT,84117.0,Indonesia,8124666130,,,-84.530.809,1.187.341.068,https://maps.google.com/?cid=0x0:0x342c0e4009c321e0,
hardware store,Toko Bahan Bangunan,SUMBER BAJA BIMA (SBJ),"Jl. Soekarno Hatta, Paruga, Kec. Rasanae Bar., Kab. Bima, Nusa Tenggara Bar. 84118","Paruga, Kec. Rasanae Bar., Kab. Bima",NUSA TENGGARA BARAT,84118.0,Indonesia,81933023351,,,-84.542.252,1.187.249.505,https://maps.google.com/?cid=0x0:0xe6b3a7f8de548117,
hardware store,Toko Bahan Bangunan,Toko Bahan Bangunan Sinar A.R,"Jl. Karantina, Jatiwangi, Kec. Asakota, Kab. Bima, Nusa Tenggara Bar. 84118","Jatiwangi, Kec. Asakota, Kab. Bima",NUSA TENGGARA BARAT,84118.0,Indonesia,85239202161,,,-84.439.427,1.187.315.427,https://maps.google.com/?cid=0x0:0x745b0a3c05b77773,
hardware store,hardware store,IDSTEEL BIMA (Logam Nusantara 2) | Toko Baja Ringan,"Jl. Gajah Mada, Penatoi, Kec. Mpunda, Kab. Bima, Nusa Tenggara Bar. 84116","Penatoi, Kec. Mpunda, Kab. Bima",NUSA TENGGARA BARAT,84116.0,Indonesia,81916065392,,,-84.589.788,118.748.895,https://maps.google.com/?cid=0x0:0x45c9f250e3de34f3,
hardware store,Toko Swalayan,Mai Mart,"Jl. Hasanuddin, Sarae, Rasanae Barat, Bima Regency, West Nusa Tenggara 84118","Sarae, Rasanae Barat, Bima Regency",NUSA TENGGARA BARAT,84118.0,Indonesia,,,,-8.452.028,1.187.277.648,https://maps.google.com/?cid=0x0:0x2ce42986702191b3,
hardware store,Toko Bahan Bangunan,TOKO BANGUNAN RIZKI PERKASA,"Jl. Jend.Sudirman No.55, Rabangodu Sel., Kec. Raba, Kab. Bima, Nusa Tenggara Bar. 84111","Rabangodu Sel., Kec. Raba, Kab. Bima",NUSA TENGGARA BARAT,84111.0,Indonesia,85333711993,,,-84.706.138,1.187.530.179,https://maps.google.com/?cid=0x0:0xc564737777aa62a0,
hardware store,Toko Bahan Bangunan,UD.SAMBI JAYA,"Jl. Datuk Dibanta No.99, Jatiwangi, Kec. Asakota, Kab. Bima, Nusa Tenggara Bar. 84117","Jatiwangi, Kec. Asakota, Kab. Bima",NUSA TENGGARA BARAT,84117.0,Indonesia,85239403037,,,-84.493.922,1.187.336.465,https://maps.google.com/?cid=0x0:0xb277cb4ccc5de2e7,
hardware store,Toko Bahan Bangunan,Toko Bangunan,"GPWM+QJ4, Jl. Gajah Mada, Nae, Kec. Rasanae Bar., Kab. Bima, Nusa Tenggara Bar. 84117","Jl. Gajah Mada, Nae, Kec. Rasanae Bar., Kab. Bima",NUSA TENGGARA BARAT,84117.0,Indonesia,,,,-84.531.241,1.187.340.686,https://maps.google.com/?cid=0x0:0x83fe0f35102f017e,
hardware store,Toko Bahan Bangunan,Sinar Surya Bangunan,"Jl. Soekarno Hatta No.095, Rabangodu Utara, Kec. Raba, Kab. Bima, Nusa Tenggara Bar. 84113","Rabangodu Utara, Kec. Raba, Kab. Bima",NUSA TENGGARA BARAT,84113.0,Indonesia,81237979988,,,-84.660.992,1.187.564.456,https://maps.google.com/?cid=0x0:0xd8ebbf8799589138,
hardware store,Toko Bahan Bangunan,Toko Bangunan MUTIARA,"Jl. Jend.Sudirman No.2, Mande, Kec. Mpunda, Kab. Bima, Nusa Tenggara Bar. 84116","Mande, Kec. Mpunda, Kab. Bima",NUSA TENGGARA BARAT,84116.0,Indonesia,,,,-84.683.102,1.187.472.807,https://maps.google.com/?cid=0x0:0x13b4e5683147c156,
hardware store,Toko Komputer,Johan Foto Computer,"Jl. Soekarno Hatta No.042, Pane, Kec. Rasanae Bar., Kab. Bima, Nusa Tenggara Bar. 84116","Pane, Kec. Rasanae Bar., Kab. Bima",NUSA TENGGARA BARAT,84116.0,Indonesia,81232996868,,,-84.565.445,1.187.324.587,https://maps.google.com/?cid=0x0:0x77322b1adfa72dc7,
hardware store,Toko Bahan Bangunan,UD TUNAS JAYA,"Jl. Gatot Subroto, Santi, Kec. Mpunda, Kab. Bima, Nusa Tenggara Bar. 84116","Santi, Kec. Mpunda, Kab. Bima",NUSA TENGGARA BARAT,84116.0,Indonesia,82339862302,,,-84.579.868,1.187.471.572,https://maps.google.com/?cid=0x0:0x5467c3768a2eabf0,
hardware store,Toko Alat Tulis Kantor,Global Mart Bima,"Jl. Soekarno Hatta, Paruga, Kec. Rasanae Bar., Kab. Bima, Nusa Tenggara Bar. 84118","Paruga, Kec. Rasanae Bar., Kab. Bima",NUSA TENGGARA BARAT,84118.0,Indonesia,82114332556,,,-84.556.502,1.187.296.465,https://maps.google.com/?cid=0x0:0x2abc7b80ece08dff,
hardware store,Toko Alat Tulis Kantor,Toko Agunk Jaya Jatiwangi,"HP3W+87H, Jl. Datuk Dibanta, Jatiwangi, Kec. Asakota, Kab. Bima, Nusa Tenggara Bar. 84116","Jl. Datuk Dibanta, Jatiwangi, Kec. Asakota, Kab. Bima",NUSA TENGGARA BARAT,84116.0,Indonesia,85238958888,,,-8.446.682,118.745.719,https://maps.google.com/?cid=0x0:0xf9e163875474c3,
hardware store,Toko Bahan Bangunan,Tk Antara Bangunan,"GPWF+RX9, Jl. Flores, Sarae, Kec. Rasanae Bar., Kab. Bima, Nusa Tenggara Bar. 84118","Jl. Flores, Sarae, Kec. Rasanae Bar., Kab. Bima",NUSA TENGGARA BARAT,84118.0,Indonesia,,,,-8.452.957,1.187.249.968,https://maps.google.com/?cid=0x0:0x727fc31180ce7e3e,
hardware store,hardware store,Kec. Rasanae Bar.,"Kab. Bima, Nusa Tenggara Bar.","Kab. Bima, Nusa Tenggara Bar.",NUSA TENGGARA BARAT,,Indonesia,,,,-84.540.632,1.187.241.865,https://maps.google.com/?cid=0x0:0x716674d420dfa05,
hardware store,Toko Bahan Bangunan,Fajar Cerah,"Sarae, Kec. Rasanae Bar., Kab. Bima, Nusa Tenggara Bar. 84118","Kec. Rasanae Bar., Kab. Bima",NUSA TENGGARA BARAT,84118.0,Indonesia,,,,-84.518.814,1.187.258.516,https://maps.google.com/?cid=0x0:0xfe237cc16fe8c957,
hardware store,Toko Perlengkapan Rumah,MR.DIY,"Ruko Bima, Jl. Gajah Mada No.113-49, Monggonao, Kec. Rasanae Bar., Kab. Bima, Nusa Tenggara Bar. 84117","Jl. Gajah Mada No.113-49, Monggonao, Kec. Rasanae Bar., Kab. Bima",NUSA TENGGARA BARAT,84117.0,Indonesia,2130022789,,,-84.556.667,1.187.399.135,https://maps.google.com/?cid=0x0:0x5780922262d88142,
hardware store,Toko Bahan Bangunan,DEPO SUMBER BANGUNAN BIMA,"Paruga, Kec. Rasanae Bar., Kab. Bima, Nusa Tenggara Bar. 84118","Kec. Rasanae Bar., Kab. Bima",NUSA TENGGARA BARAT,84118.0,Indonesia,8113833767,,,-84.542.875,1.187.178.281,https://maps.google.com/?cid=0x0:0x5695533ae32f5737,
hardware store,Toko Bahan Bangunan,Duta bangunan bima,"GPXG+6JF, Jl. Sultan Hasannudin, Sarae, Kec. Rasanae Bar., Kab. Bima, Nusa Tenggara Bar. 84118","Jl. Sultan Hasannudin, Sarae, Kec. Rasanae Bar., Kab. Bima",NUSA TENGGARA BARAT,84118.0,Indonesia,"8,12144E+11",,,-84.519.374,1.187.265.603,https://maps.google.com/?cid=0x0:0x2694848498846a,
hardware store,Toko Bahan Bangunan,Jaya raya,"GP76+7WX, Dara, Kec. Rasanae Bar., Kabupaten Bima, Nusa Tenggara Bar.","Kabupaten Bima, Nusa Tenggara Bar.",NUSA TENGGARA BARAT,,Indonesia,,,,-84.867.676,1.187.123.502,https://maps.google.com/?cid=0x0:0x4ae5c0a2c7847da9,
hardware store,Toko Bahan Bangunan,MITRA BANGUNAN,"Jl. Sultan Hasannudin No.8, Sarae, Kec. Rasanae Bar., Kab. Bima, Nusa Tenggara Bar. 84117","Sarae, Kec. Rasanae Bar., Kab. Bima",NUSA TENGGARA BARAT,84117.0,Indonesia,82335805080,,,-84.519.793,1.187.253.457,https://maps.google.com/?cid=0x0:0x7cbaac2e14760b45,
hardware store,Toko Bahan Bangunan,SUMBER BAJA BIMA (SBJ),"Jl. Soekarno Hatta, Paruga, Kec. Rasanae Bar., Kab. Bima, Nusa Tenggara Bar. 84118","Paruga, Kec. Rasanae Bar., Kab. Bima",NUSA TENGGARA BARAT,84118.0,Indonesia,81933023351,,,-84.542.252,1.187.249.505,https://maps.google.com/?cid=0x0:0xe6b3a7f8de548117,
hardware store,Toko Bahan Bangunan,TB. Arta Wiguna Bima,"Nae, Kec. Rasanae Bar., Kab. Bima, Nusa Tenggara Bar. 84117","Kec. Rasanae Bar., Kab. Bima",NUSA TENGGARA BARAT,84117.0,Indonesia,8124666130,,,-84.530.809,1.187.341.068,https://maps.google.com/?cid=0x0:0x342c0e4009c321e0,
hardware store,Toko Swalayan,Mai Mart,"Jl. Hasanuddin, Sarae, Rasanae Barat, Bima Regency, West Nusa Tenggara 84118","Sarae, Rasanae Barat, Bima Regency",NUSA TENGGARA BARAT,84118.0,Indonesia,,,,-8.452.028,1.187.277.648,https://maps.google.com/?cid=0x0:0x2ce42986702191b3,
hardware store,Toko Bahan Bangunan,Tk Antara Bangunan,"GPWF+RX9, Jl. Flores, Sarae, Kec. Rasanae Bar., Kab. Bima, Nusa Tenggara Bar. 84118","Jl. Flores, Sarae, Kec. Rasanae Bar., Kab. Bima",NUSA TENGGARA BARAT,84118.0,Indonesia,,,,-8.452.957,1.187.249.968,https://maps.google.com/?cid=0x0:0x727fc31180ce7e3e,
hardware store,Toko Bahan Bangunan,Toko Bahan Bangunan Sinar A.R,"Jl. Karantina, Jatiwangi, Kec. Asakota, Kab. Bima, Nusa Tenggara Bar. 84118","Jatiwangi, Kec. Asakota, Kab. Bima",NUSA TENGGARA BARAT,84118.0,Indonesia,85239202161,,,-84.439.427,1.187.315.427,https://maps.google.com/?cid=0x0:0x745b0a3c05b77773,
hardware store,Toko Bahan Bangunan,Toko Bangunan Nusantara Abadi,"sultan salahudin No.4, Dara, Kec. Rasanae Bar., Kab. Bima, Nusa Tenggara Bar. 84111","Dara, Kec. Rasanae Bar., Kab. Bima",NUSA TENGGARA BARAT,84111.0,Indonesia,,,,-84.562.579,1.187.237.965,https://maps.google.com/?cid=0x0:0xe3766b659013351e,
hardware store,Toko Bahan Bangunan,Nusa Tenggara Barat,"GPPV+7XR, Lewirato, Kec. Mpunda, Kab. Bima, Nusa Tenggara Bar. 84116","Lewirato, Kec. Mpunda, Kab. Bima",NUSA TENGGARA BARAT,84116.0,Indonesia,82359329070,,,-84.642.567,1.187.448.783,https://maps.google.com/?cid=0x0:0x57c6cacdc293bb29,
hardware store,Toko Bahan Bangunan,Toko Bangunan,"GPWM+QJ4, Jl. Gajah Mada, Nae, Kec. Rasanae Bar., Kab. Bima, Nusa Tenggara Bar. 84117","Jl. Gajah Mada, Nae, Kec. Rasanae Bar., Kab. Bima",NUSA TENGGARA BARAT,84117.0,Indonesia,,,,-84.531.241,1.187.340.686,https://maps.google.com/?cid=0x0:0x83fe0f35102f017e,
hardware store,hardware store,Nusa Tenggara Bar. 84114,"Kabupaten Bima, Nusa Tenggara Bar.","Kabupaten Bima, Nusa Tenggara Bar.",NUSA TENGGARA BARAT,,Indonesia,,,,-85.134.128,1.188.188.948,https://maps.google.com/?cid=0x0:0x6d44046746f4d7e0,
hardware store,hardware store,Hotel Marina Inn,"Raya Pantai Lawata, Amahami, Kec. Rasanae Bar., Kab. Bima, Nusa Tenggara Bar. 84111","Amahami, Kec. Rasanae Bar., Kab. Bima",NUSA TENGGARA BARAT,84111.0,Indonesia,85337665568,,,-84.698.795,1.187.219.812,https://maps.google.com/?cid=0x0:0x5bfa1f11996a9613,
hardware store,Toko Bahan Bangunan,Toko Bangunan,"GPWM+QJ4, Jl. Gajah Mada, Nae, Kec. Rasanae Bar., Kab. Bima, Nusa Tenggara Bar. 84117","Jl. Gajah Mada, Nae, Kec. Rasanae Bar., Kab. Bima",NUSA TENGGARA BARAT,84117.0,Indonesia,,,,-84.531.241,1.187.340.686,https://maps.google.com/?cid=0x0:0x83fe0f35102f017e,
hardware store,hardware store,Kec. Rasanae Tim.,"Kab. Bima, Nusa Tenggara Bar.","Kab. Bima, Nusa Tenggara Bar.",NUSA TENGGARA BARAT,,Indonesia,,,,-84.848.559,1.187.712.912,https://maps.google.com/?cid=0x0:0x82aa28e384c4bfcd,
hardware store,Toko Bahan Bangunan,Toko Jaya Raya Bima,"Sarae, Kec. Rasanae Bar., Kab. Bima, Nusa Tenggara Bar. 84118","Kec. Rasanae Bar., Kab. Bima",NUSA TENGGARA BARAT,84118.0,Indonesia,85330528388,,,-84.518.611,1.187.262.007,https://maps.google.com/?cid=0x0:0xb6db89df32cc3e8d,
hardware store,Toko Bahan Bangunan,Fajar Cerah,"Sarae, Kec. Rasanae Bar., Kab. Bima, Nusa Tenggara Bar. 84118","Kec. Rasanae Bar., Kab. Bima",NUSA TENGGARA BARAT,84118.0,Indonesia,,,,-84.518.814,1.187.258.516,https://maps.google.com/?cid=0x0:0xfe237cc16fe8c957,
hardware store,Toko Perlengkapan Rumah,MR.DIY,"Ruko Bima, Jl. Gajah Mada No.113-49, Monggonao, Kec. Rasanae Bar., Kab. Bima, Nusa Tenggara Bar. 84117","Jl. Gajah Mada No.113-49, Monggonao, Kec. Rasanae Bar., Kab. Bima",NUSA TENGGARA BARAT,84117.0,Indonesia,2130022789,,,-84.556.667,1.187.399.135,https://maps.google.com/?cid=0x0:0x5780922262d88142,
hardware store,Toko Bahan Bangunan,TB. Harmonis,"Jl. Soekarno Hatta No.51, Rabangodu Utara, Kec. Raba, Kab. Bima, Nusa Tenggara Bar. 84115","Rabangodu Utara, Kec. Raba, Kab. Bima",NUSA TENGGARA BARAT,84115.0,Indonesia,37444442,,,-84.688.655,1.187.601.888,https://maps.google.com/?cid=0x0:0x2490aa5b2a59ec7,
hardware store,Toko Bahan Bangunan,Sinar Surya Bangunan,"Jl. Soekarno Hatta No.095, Rabangodu Utara, Kec. Raba, Kab. Bima, Nusa Tenggara Bar. 84113","Rabangodu Utara, Kec. Raba, Kab. Bima",NUSA TENGGARA BARAT,84113.0,Indonesia,81237979988,,,-84.660.992,1.187.564.456,https://maps.google.com/?cid=0x0:0xd8ebbf8799589138,
hardware store,Toko Bahan Bangunan,Toko Jaya Raya Sadia,"Jl. Gatot Subroto, Sadia, Kec. Mpunda, Kab. Bima, Nusa Tenggara Bar. 84117","Sadia, Kec. Mpunda, Kab. Bima",NUSA TENGGARA BARAT,84117.0,Indonesia,85211115712,,,-84.629.024,1.187.446.262,https://maps.google.com/?cid=0x0:0xe45a8851654b6a11,
hardware store,Toko Bahan Bangunan,TOKO BANGUNAN RIZKI PERKASA,"Jl. Jend.Sudirman No.55, Rabangodu Sel., Kec. Raba, Kab. Bima, Nusa Tenggara Bar. 84111","Rabangodu Sel., Kec. Raba, Kab. Bima",NUSA TENGGARA BARAT,84111.0,Indonesia,85333711993,,,-84.706.138,1.187.530.179,https://maps.google.com/?cid=0x0:0xc564737777aa62a0,
hardware store,Toko Bahan Bangunan,MITRA BANGUNAN,"Jl. Sultan Hasannudin No.8, Sarae, Kec. Rasanae Bar., Kab. Bima, Nusa Tenggara Bar. 84117","Sarae, Kec. Rasanae Bar., Kab. Bima",NUSA TENGGARA BARAT,84117.0,Indonesia,82335805080,,,-84.519.793,1.187.253.457,https://maps.google.com/?cid=0x0:0x7cbaac2e14760b45,
hardware store,hardware store,IDSTEEL BIMA (Logam Nusantara 2) | Toko Baja Ringan,"Jl. Gajah Mada, Penatoi, Kec. Mpunda, Kab. Bima, Nusa Tenggara Bar. 84116","Penatoi, Kec. Mpunda, Kab. Bima",NUSA TENGGARA BARAT,84116.0,Indonesia,81916065392,,,-84.589.788,118.748.895,https://maps.google.com/?cid=0x0:0x45c9f250e3de34f3,
hardware store,Toko,TB. Cahaya Makmur Lestari,"Santi 1 Barat Ruko Coklat Toko Bangunan Cahaya Makmur Lestari, Santi, Kec. Mpunda, Kab. Bima, Nusa Tenggara Bar. 84119","Santi, Kec. Mpunda, Kab. Bima",NUSA TENGGARA BARAT,84119.0,Indonesia,81236434428,,,-84.540.836,1.187.443.901,https://maps.google.com/?cid=0x0:0xcd7545fe3a3576cd,
hardware store,Toko Bahan Bangunan,TB. Langgeng Jaya 1,"Penaraga, Kec. Raba, Kab. Bima, Nusa Tenggara Bar. 84115","Kec. Raba, Kab. Bima",NUSA TENGGARA BARAT,84115.0,Indonesia,,,,-8.462.476,1.187.598.229,https://maps.google.com/?cid=0x0:0x601ba20c689a82ed,
hardware store,Toko Bahan Bangunan,"Toko Bangunan Cahaya Hati""""","FRRR+798, Jl. AMD Manunggal XLIII, Ntori, Kec. Wawo, Kabupaten Bima, Nusa Tenggara Bar. 84119","Jl. AMD Manunggal XLIII, Ntori, Kec. Wawo, Kabupaten Bima",NUSA TENGGARA BARAT,84119.0,Indonesia,,,,-85.093.316,1.188.409.554,https://maps.google.com/?cid=0x0:0x7eec476a8cfddfe3,
hardware store,Toko Bahan Bangunan,TB. Arta Wiguna Bima,"Nae, Kec. Rasanae Bar., Kab. Bima, Nusa Tenggara Bar. 84117","Kec. Rasanae Bar., Kab. Bima",NUSA TENGGARA BARAT,84117.0,Indonesia,8124666130,,,-84.530.809,1.187.341.068,https://maps.google.com/?cid=0x0:0x342c0e4009c321e0,
hardware store,Toko Bahan Bangunan,Duta bangunan bima,"GPXG+6JF, Jl. Sultan Hasannudin, Sarae, Kec. Rasanae Bar., Kab. Bima, Nusa Tenggara Bar. 84118","Jl. Sultan Hasannudin, Sarae, Kec. Rasanae Bar., Kab. Bima",NUSA TENGGARA BARAT,84118.0,Indonesia,"8,12144E+11",,,-84.519.374,1.187.265.603,https://maps.google.com/?cid=0x0:0x2694848498846a,
hardware store,Toko Bahan Bangunan,UD TUNAS JAYA,"Jl. Gatot Subroto, Santi, Kec. Mpunda, Kab. Bima, Nusa Tenggara Bar. 84116","Santi, Kec. Mpunda, Kab. Bima",NUSA TENGGARA BARAT,84116.0,Indonesia,82339862302,,,-84.579.868,1.187.471.572,https://maps.google.com/?cid=0x0:0x5467c3768a2eabf0,
hardware store,Toko Bahan Bangunan,Toko Bangunan MUTIARA,"Jl. Jend.Sudirman No.2, Mande, Kec. Mpunda, Kab. Bima, Nusa Tenggara Bar. 84116","Mande, Kec. Mpunda, Kab. Bima",NUSA TENGGARA BARAT,84116.0,Indonesia,,,,-84.683.102,1.187.472.807,https://maps.google.com/?cid=0x0:0x13b4e5683147c156,
hardware store,Toko Alat Tulis Kantor,Global Mart Raba,"Jl. Soekarno Hatta, Rabangodu Utara, Kec. Raba, Kab. Bima, Nusa Tenggara Bar. 84115","Rabangodu Utara, Kec. Raba, Kab. Bima",NUSA TENGGARA BARAT,84115.0,Indonesia,81246705733,,,-84.692.601,1.187.602.517,https://maps.google.com/?cid=0x0:0x28c63ed314ce9638,
hardware store,Toko Bahan Bangunan,SUMBER BAJA BIMA (SBJ),"Jl. Soekarno Hatta, Paruga, Kec. Rasanae Bar., Kab. Bima, Nusa Tenggara Bar. 84118","Paruga, Kec. Rasanae Bar., Kab. Bima",NUSA TENGGARA BARAT,84118.0,Indonesia,81933023351,,,-84.542.252,1.187.249.505,https://maps.google.com/?cid=0x0:0xe6b3a7f8de548117,
hardware store,Toko Bahan Bangunan,Toko Bahan Bangunan Sinar A.R,"Jl. Karantina, Jatiwangi, Kec. Asakota, Kab. Bima, Nusa Tenggara Bar. 84118","Jatiwangi, Kec. Asakota, Kab. Bima",NUSA TENGGARA BARAT,84118.0,Indonesia,85239202161,,,-84.439.427,1.187.315.427,https://maps.google.com/?cid=0x0:0x745b0a3c05b77773,
hardware store,hardware store,Kec. Rasanae Tim.,"Kab. Bima, Nusa Tenggara Bar.","Kab. Bima, Nusa Tenggara Bar.",NUSA TENGGARA BARAT,,Indonesia,,,,-84.848.559,1.187.712.912,https://maps.google.com/?cid=0x0:0x82aa28e384c4bfcd,
hardware store,Toko Bahan Bangunan,Fajar Cerah,"Sarae, Kec. Rasanae Bar., Kab. Bima, Nusa Tenggara Bar. 84118","Kec. Rasanae Bar., Kab. Bima",NUSA TENGGARA BARAT,84118.0,Indonesia,,,,-84.518.814,1.187.258.516,https://maps.google.com/?cid=0x0:0xfe237cc16fe8c957,
hardware store,Toko Bahan Bangunan,Toko Jaya Raya Bima,"Sarae, Kec. Rasanae Bar., Kab. Bima, Nusa Tenggara Bar. 84118","Kec. Rasanae Bar., Kab. Bima",NUSA TENGGARA BARAT,84118.0,Indonesia,85330528388,,,-84.518.611,1.187.262.007,https://maps.google.com/?cid=0x0:0xb6db89df32cc3e8d,
hardware store,Toko Bahan Bangunan,Toko Jaya Raya Sadia,"Jl. Gatot Subroto, Sadia, Kec. Mpunda, Kab. Bima, Nusa Tenggara Bar. 84117","Sadia, Kec. Mpunda, Kab. Bima",NUSA TENGGARA BARAT,84117.0,Indonesia,85211115712,,,-84.629.024,1.187.446.262,https://maps.google.com/?cid=0x0:0xe45a8851654b6a11,
hardware store,Toko Bahan Bangunan,MITRA BANGUNAN,"Jl. Sultan Hasannudin No.8, Sarae, Kec. Rasanae Bar., Kab. Bima, Nusa Tenggara Bar. 84117","Sarae, Kec. Rasanae Bar., Kab. Bima",NUSA TENGGARA BARAT,84117.0,Indonesia,82335805080,,,-84.519.793,1.187.253.457,https://maps.google.com/?cid=0x0:0x7cbaac2e14760b45,
hardware store,Toko Bahan Bangunan,"Toko Bangunan Cahaya Hati""""","FRRR+798, Jl. AMD Manunggal XLIII, Ntori, Kec. Wawo, Kabupaten Bima, Nusa Tenggara Bar. 84119","Jl. AMD Manunggal XLIII, Ntori, Kec. Wawo, Kabupaten Bima",NUSA TENGGARA BARAT,84119.0,Indonesia,,,,-85.093.316,1.188.409.554,https://maps.google.com/?cid=0x0:0x7eec476a8cfddfe3,
hardware store,Toko Bahan Bangunan,Sinar Surya Bangunan,"Jl. Soekarno Hatta No.095, Rabangodu Utara, Kec. Raba, Kab. Bima, Nusa Tenggara Bar. 84113","Rabangodu Utara, Kec. Raba, Kab. Bima",NUSA TENGGARA BARAT,84113.0,Indonesia,81237979988,,,-84.660.992,1.187.564.456,https://maps.google.com/?cid=0x0:0xd8ebbf8799589138,
hardware store,Toko Bahan Bangunan,TOKO BANGUNAN RIZKI PERKASA,"Jl. Jend.Sudirman No.55, Rabangodu Sel., Kec. Raba, Kab. Bima, Nusa Tenggara Bar. 84111","Rabangodu Sel., Kec. Raba, Kab. Bima",NUSA TENGGARA BARAT,84111.0,Indonesia,85333711993,,,-84.706.138,1.187.530.179,https://maps.google.com/?cid=0x0:0xc564737777aa62a0,
hardware store,Toko,TB. Cahaya Makmur Lestari,"Santi 1 Barat Ruko Coklat Toko Bangunan Cahaya Makmur Lestari, Santi, Kec. Mpunda, Kab. Bima, Nusa Tenggara Bar. 84119","Santi, Kec. Mpunda, Kab. Bima",NUSA TENGGARA BARAT,84119.0,Indonesia,81236434428,,,-84.540.836,1.187.443.901,https://maps.google.com/?cid=0x0:0xcd7545fe3a3576cd,
hardware store,Toko Bahan Bangunan,TB. Harmonis,"Jl. Soekarno Hatta No.51, Rabangodu Utara, Kec. Raba, Kab. Bima, Nusa Tenggara Bar. 84115","Rabangodu Utara, Kec. Raba, Kab. Bima",NUSA TENGGARA BARAT,84115.0,Indonesia,37444442,,,-84.688.655,1.187.601.888,https://maps.google.com/?cid=0x0:0x2490aa5b2a59ec7,
hardware store,Toko Bahan Bangunan,Duta bangunan bima,"GPXG+6JF, Jl. Sultan Hasannudin, Sarae, Kec. Rasanae Bar., Kab. Bima, Nusa Tenggara Bar. 84118","Jl. Sultan Hasannudin, Sarae, Kec. Rasanae Bar., Kab. Bima",NUSA TENGGARA BARAT,84118.0,Indonesia,"8,12144E+11",,,-84.519.374,1.187.265.603,https://maps.google.com/?cid=0x0:0x2694848498846a,
hardware store,Toko Bahan Bangunan,TB. Arta Wiguna Bima,"Nae, Kec. Rasanae Bar., Kab. Bima, Nusa Tenggara Bar. 84117","Kec. Rasanae Bar., Kab. Bima",NUSA TENGGARA BARAT,84117.0,Indonesia,8124666130,,,-84.530.809,1.187.341.068,https://maps.google.com/?cid=0x0:0x342c0e4009c321e0,
hardware store,Toko Bahan Bangunan,TB. Langgeng Jaya 1,"Penaraga, Kec. Raba, Kab. Bima, Nusa Tenggara Bar. 84115","Kec. Raba, Kab. Bima",NUSA TENGGARA BARAT,84115.0,Indonesia,,,,-8.462.476,1.187.598.229,https://maps.google.com/?cid=0x0:0x601ba20c689a82ed,
hardware store,Toko Bahan Bangunan,UD TUNAS JAYA,"Jl. Gatot Subroto, Santi, Kec. Mpunda, Kab. Bima, Nusa Tenggara Bar. 84116","Santi, Kec. Mpunda, Kab. Bima",NUSA TENGGARA BARAT,84116.0,Indonesia,82339862302,,,-84.579.868,1.187.471.572,https://maps.google.com/?cid=0x0:0x5467c3768a2eabf0,
hardware store,hardware store,IDSTEEL BIMA (Logam Nusantara 2) | Toko Baja Ringan,"Jl. Gajah Mada, Penatoi, Kec. Mpunda, Kab. Bima, Nusa Tenggara Bar. 84116","Penatoi, Kec. Mpunda, Kab. Bima",NUSA TENGGARA BARAT,84116.0,Indonesia,81916065392,,,-84.589.788,118.748.895,https://maps.google.com/?cid=0x0:0x45c9f250e3de34f3,
hardware store,Toko Bahan Bangunan,Toko Bangunan MUTIARA,"Jl. Jend.Sudirman No.2, Mande, Kec. Mpunda, Kab. Bima, Nusa Tenggara Bar. 84116","Mande, Kec. Mpunda, Kab. Bima",NUSA TENGGARA BARAT,84116.0,Indonesia,,,,-84.683.102,1.187.472.807,https://maps.google.com/?cid=0x0:0x13b4e5683147c156,
hardware store,Toko Bahan Bangunan,SUMBER BAJA BIMA (SBJ),"Jl. Soekarno Hatta, Paruga, Kec. Rasanae Bar., Kab. Bima, Nusa Tenggara Bar. 84118","Paruga, Kec. Rasanae Bar., Kab. Bima",NUSA TENGGARA BARAT,84118.0,Indonesia,81933023351,,,-84.542.252,1.187.249.505,https://maps.google.com/?cid=0x0:0xe6b3a7f8de548117,
hardware store,Toko Alat Tulis Kantor,Global Mart Raba,"Jl. Soekarno Hatta, Rabangodu Utara, Kec. Raba, Kab. Bima, Nusa Tenggara Bar. 84115","Rabangodu Utara, Kec. Raba, Kab. Bima",NUSA TENGGARA BARAT,84115.0,Indonesia,81246705733,,,-84.692.601,1.187.602.517,https://maps.google.com/?cid=0x0:0x28c63ed314ce9638,
hardware store,Toko Swalayan,Mai Mart,"Jl. Hasanuddin, Sarae, Rasanae Barat, Bima Regency, West Nusa Tenggara 84118","Sarae, Rasanae Barat, Bima Regency",NUSA TENGGARA BARAT,84118.0,Indonesia,,,,-8.452.028,1.187.277.648,https://maps.google.com/?cid=0x0:0x2ce42986702191b3,
hardware store,Toko Bahan Bangunan,Toko Bahan Bangunan Sinar A.R,"Jl. Karantina, Jatiwangi, Kec. Asakota, Kab. Bima, Nusa Tenggara Bar. 84118","Jatiwangi, Kec. Asakota, Kab. Bima",NUSA TENGGARA BARAT,84118.0,Indonesia,85239202161,,,-84.439.427,1.187.315.427,https://maps.google.com/?cid=0x0:0x745b0a3c05b77773,
hardware store,Toko Bahan Bangunan,Toko Bangunan Nusantara Abadi,"sultan salahudin No.4, Dara, Kec. Rasanae Bar., Kab. Bima, Nusa Tenggara Bar. 84111","Dara, Kec. Rasanae Bar., Kab. Bima",NUSA TENGGARA BARAT,84111.0,Indonesia,,,,-84.562.579,1.187.237.965,https://maps.google.com/?cid=0x0:0xe3766b659013351e,
hardware store,Toko Bahan Bangunan,Toko Idaman,"GPXG+8FM, Sarae, Kec. Rasanae Bar., Kab. Bima, Nusa Tenggara Bar. 84118","Sarae, Kec. Rasanae Bar., Kab. Bima",NUSA TENGGARA BARAT,84118.0,Indonesia,81338899518,,,-84.516.738,1.187.261.776,https://maps.google.com/?cid=0x0:0x61b8d9904370e487,
toko bangunan,toko bangunan,Kec. Asakota,"Kab. Bima, Nusa Tenggara Bar.","Kab. Bima, Nusa Tenggara Bar.",NUSA TENGGARA BARAT,,Indonesia,,,,-84.384.574,1.187.340.556,https://maps.google.com/?cid=0x0:0xf6262609b5c77d5,
toko bangunan,Toko Bahan Bangunan,Toko Sumber Bangunan,"Jl. Sultan Hasannudin, Sarae, Kec. Rasanae Bar., Kab. Bima, Nusa Tenggara Bar. 84118","Sarae, Kec. Rasanae Bar., Kab. Bima",NUSA TENGGARA BARAT,84118.0,Indonesia,,,,-84.517.985,1.187.254.249,https://maps.google.com/?cid=0x0:0x4ac52ceb0bceb7c3,
toko bangunan,Toko Bahan Bangunan,Toko Bangunan Nusantara Abadi,"sultan salahudin No.4, Dara, Kec. Rasanae Bar., Kab. Bima, Nusa Tenggara Bar. 84111","Dara, Kec. Rasanae Bar., Kab. Bima",NUSA TENGGARA BARAT,84111.0,Indonesia,,,,-84.562.579,1.187.237.965,https://maps.google.com/?cid=0x0:0xe3766b659013351e,
toko bangunan,Toko Bahan Bangunan,Toko Jaya Raya Bima,"Sarae, Kec. Rasanae Bar., Kab. Bima, Nusa Tenggara Bar. 84118","Kec. Rasanae Bar., Kab. Bima",NUSA TENGGARA BARAT,84118.0,Indonesia,85330528388,,,-84.518.611,1.187.262.007,https://maps.google.com/?cid=0x0:0xb6db89df32cc3e8d,
toko bangunan,Toko Bahan Bangunan,Sinar Abadi,"Jl. Sultan Hasannudin No.43, Sarae, Kec. Rasanae Bar., Kab. Bima, Nusa Tenggara Bar. 84118","Sarae, Kec. Rasanae Bar., Kab. Bima",NUSA TENGGARA BARAT,84118.0,Indonesia,85338178008,,,-84.519.157,1.187.249.905,https://maps.google.com/?cid=0x0:0xc9ccc6bc98ea86da,
toko bangunan,Toko Bahan Bangunan,DEPO SUMBER BANGUNAN BIMA,"Paruga, Kec. Rasanae Bar., Kab. Bima, Nusa Tenggara Bar. 84118","Kec. Rasanae Bar., Kab. Bima",NUSA TENGGARA BARAT,84118.0,Indonesia,8113833767,,,-84.542.875,1.187.178.281,https://maps.google.com/?cid=0x0:0x5695533ae32f5737,
toko bangunan,Toko Bahan Bangunan,UD. Antara Jaya,"Jl. Bandeng No.1, Paruga, Kec. Rasanae Bar., Kab. Bima, Nusa Tenggara Bar. 84118","Paruga, Kec. Rasanae Bar., Kab. Bima",NUSA TENGGARA BARAT,84118.0,Indonesia,85337731052,,,-84.537.394,1.187.216.624,https://maps.google.com/?cid=0x0:0xb63f3b38a8b0ada5,
toko bangunan,Toko Bahan Bangunan,MITRA BANGUNAN,"Jl. Sultan Hasannudin No.8, Sarae, Kec. Rasanae Bar., Kab. Bima, Nusa Tenggara Bar. 84117","Sarae, Kec. Rasanae Bar., Kab. Bima",NUSA TENGGARA BARAT,84117.0,Indonesia,82335805080,,,-84.519.793,1.187.253.457,https://maps.google.com/?cid=0x0:0x7cbaac2e14760b45,
toko bangunan,Toko Bahan Bangunan,Tb. Satria Perdana,"GPXJ+8RV, Jl. Datuk Dibanta, Jatiwangi, Kec. Asakota, Kab. Bima, Nusa Tenggara Bar. 84117","Jl. Datuk Dibanta, Jatiwangi, Kec. Asakota, Kab. Bima",NUSA TENGGARA BARAT,84117.0,Indonesia,,,,-845.163,1.187.320.559,https://maps.google.com/?cid=0x0:0x4046c74f1c30e375,
toko bangunan,Toko Bahan Bangunan,Toko Jaya Raya Sadia,"Jl. Gatot Subroto, Sadia, Kec. Mpunda, Kab. Bima, Nusa Tenggara Bar. 84117","Sadia, Kec. Mpunda, Kab. Bima",NUSA TENGGARA BARAT,84117.0,Indonesia,85211115712,,,-84.629.024,1.187.446.262,https://maps.google.com/?cid=0x0:0xe45a8851654b6a11,
toko bangunan,Toko Bahan Bangunan,UD.SAMBI JAYA,"Jl. Datuk Dibanta No.99, Jatiwangi, Kec. Asakota, Kab. Bima, Nusa Tenggara Bar. 84117","Jatiwangi, Kec. Asakota, Kab. Bima",NUSA TENGGARA BARAT,84117.0,Indonesia,85239403037,,,-84.493.922,1.187.336.465,https://maps.google.com/?cid=0x0:0xb277cb4ccc5de2e7,
toko bangunan,Toko Bahan Bangunan,Toko Bangunan MUTIARA,"Jl. Jend.Sudirman No.2, Mande, Kec. Mpunda, Kab. Bima, Nusa Tenggara Bar. 84116","Mande, Kec. Mpunda, Kab. Bima",NUSA TENGGARA BARAT,84116.0,Indonesia,,,,-84.683.102,1.187.472.807,https://maps.google.com/?cid=0x0:0x13b4e5683147c156,
toko bangunan,Toko Bahan Bangunan,Bintang mas,"Jl. Sultan Hasannudin, Sarae, Kec. Rasanae Bar., Kab. Bima, Nusa Tenggara Bar. 84118","Sarae, Kec. Rasanae Bar., Kab. Bima",NUSA TENGGARA BARAT,84118.0,Indonesia,85337205120,,,-84.521.036,1.187.296.354,https://maps.google.com/?cid=0x0:0xf54f985a2bb453e7,
toko bangunan,Toko Bahan Bangunan,Toko Bangunan Laba-laba,"JL Dana Traha, RT. 05 RW. 01, Bedi, Manggemaci, Manggemaci, Bima, Kab. Bima, Nusa Tenggara Bar. 84112","RT. 05 RW. 01, Bedi, Manggemaci, Manggemaci, Bima, Kab. Bima",NUSA TENGGARA BARAT,84112.0,Indonesia,37442249,,,-84.652.918,1.187.386.644,https://maps.google.com/?cid=0x0:0x54780128b44ad13f,
toko bangunan,Toko Bahan Bangunan,Nusa Tenggara Barat,"GPPV+7XR, Lewirato, Kec. Mpunda, Kab. Bima, Nusa Tenggara Bar. 84116","Lewirato, Kec. Mpunda, Kab. Bima",NUSA TENGGARA BARAT,84116.0,Indonesia,82359329070,,,-84.642.567,1.187.448.783,https://maps.google.com/?cid=0x0:0x57c6cacdc293bb29,
toko bangunan,Toko,TB. Cahaya Makmur Lestari,"Santi 1 Barat Ruko Coklat Toko Bangunan Cahaya Makmur Lestari, Santi, Kec. Mpunda, Kab. Bima, Nusa Tenggara Bar. 84119","Santi, Kec. Mpunda, Kab. Bima",NUSA TENGGARA BARAT,84119.0,Indonesia,81236434428,,,-84.540.836,1.187.443.901,https://maps.google.com/?cid=0x0:0xcd7545fe3a3576cd,
toko bangunan,Toko Bahan Bangunan,Toko Bangunan,"GPWM+QJ4, Jl. Gajah Mada, Nae, Kec. Rasanae Bar., Kab. Bima, Nusa Tenggara Bar. 84117","Jl. Gajah Mada, Nae, Kec. Rasanae Bar., Kab. Bima",NUSA TENGGARA BARAT,84117.0,Indonesia,,,,-84.531.241,1.187.340.686,https://maps.google.com/?cid=0x0:0x83fe0f35102f017e,
toko bangunan,Toko Bahan Bangunan,TOKO BANGUNAN RIZKI PERKASA,"Jl. Jend.Sudirman No.55, Rabangodu Sel., Kec. Raba, Kab. Bima, Nusa Tenggara Bar. 84111","Rabangodu Sel., Kec. Raba, Kab. Bima",NUSA TENGGARA BARAT,84111.0,Indonesia,85333711993,,,-84.706.138,1.187.530.179,https://maps.google.com/?cid=0x0:0xc564737777aa62a0,
toko bangunan,Toko Bahan Bangunan,TB. Langgeng Jaya 1,"Penaraga, Kec. Raba, Kab. Bima, Nusa Tenggara Bar. 84115","Kec. Raba, Kab. Bima",NUSA TENGGARA BARAT,84115.0,Indonesia,,,,-8.462.476,1.187.598.229,https://maps.google.com/?cid=0x0:0x601ba20c689a82ed,
toko bangunan,Toko,"TOKO NABILA.( materia Bangunan,)","2 NTB., Jl. Gatot Subroto, Sadia, Kec. Mpunda, Kab. Bima, Nusa Tenggara Bar. 84111","Jl. Gatot Subroto, Sadia, Kec. Mpunda, Kab. Bima",NUSA TENGGARA BARAT,84111.0,Indonesia,,,,-84.683.066,1.187.426.541,https://maps.google.com/?cid=0x0:0xcb478aee3caa8125,
toko bangunan,Toko Bahan Bangunan,TB. Arta Wiguna Bima,"Nae, Kec. Rasanae Bar., Kab. Bima, Nusa Tenggara Bar. 84117","Kec. Rasanae Bar., Kab. Bima",NUSA TENGGARA BARAT,84117.0,Indonesia,8124666130,,,-84.530.809,1.187.341.068,https://maps.google.com/?cid=0x0:0x342c0e4009c321e0,
toko bangunan,Toko Bahan Bangunan,Duta bangunan bima,"GPXG+6JF, Jl. Sultan Hasannudin, Sarae, Kec. Rasanae Bar., Kab. Bima, Nusa Tenggara Bar. 84118","Jl. Sultan Hasannudin, Sarae, Kec. Rasanae Bar., Kab. Bima",NUSA TENGGARA BARAT,84118.0,Indonesia,"8,12144E+11",,,-84.519.374,1.187.265.603,https://maps.google.com/?cid=0x0:0x2694848498846a,
toko bangunan,Toko Bahan Bangunan,Fajar Cerah,"Sarae, Kec. Rasanae Bar., Kab. Bima, Nusa Tenggara Bar. 84118","Kec. Rasanae Bar., Kab. Bima",NUSA TENGGARA BARAT,84118.0,Indonesia,,,,-84.518.814,1.187.258.516,https://maps.google.com/?cid=0x0:0xfe237cc16fe8c957,
toko bangunan,toko bangunan,Kec. Mpunda,"Kab. Bima, Nusa Tenggara Bar.","Kab. Bima, Nusa Tenggara Bar.",NUSA TENGGARA BARAT,,Indonesia,,,,-84.583.951,1.187.468.712,https://maps.google.com/?cid=0x0:0x5e73f7a401f39f2,
toko bangunan,Toko Bahan Bangunan,Toko Bangunan MUTIARA,"Jl. Jend.Sudirman No.2, Mande, Kec. Mpunda, Kab. Bima, Nusa Tenggara Bar. 84116","Mande, Kec. Mpunda, Kab. Bima",NUSA TENGGARA BARAT,84116.0,Indonesia,,,,-84.683.102,1.187.472.807,https://maps.google.com/?cid=0x0:0x13b4e5683147c156,
toko bangunan,Toko Bahan Bangunan,Toko Bangunan Nusantara Abadi,"sultan salahudin No.4, Dara, Kec. Rasanae Bar., Kab. Bima, Nusa Tenggara Bar. 84111","Dara, Kec. Rasanae Bar., Kab. Bima",NUSA TENGGARA BARAT,84111.0,Indonesia,,,,-84.562.579,1.187.237.965,https://maps.google.com/?cid=0x0:0xe3766b659013351e,
toko bangunan,Toko,"TOKO NABILA.( materia Bangunan,)","2 NTB., Jl. Gatot Subroto, Sadia, Kec. Mpunda, Kab. Bima, Nusa Tenggara Bar. 84111","Jl. Gatot Subroto, Sadia, Kec. Mpunda, Kab. Bima",NUSA TENGGARA BARAT,84111.0,Indonesia,,,,-84.683.066,1.187.426.541,https://maps.google.com/?cid=0x0:0xcb478aee3caa8125,
toko bangunan,Toko Bahan Bangunan,Nusa Tenggara Barat,"GPPV+7XR, Lewirato, Kec. Mpunda, Kab. Bima, Nusa Tenggara Bar. 84116","Lewirato, Kec. Mpunda, Kab. Bima",NUSA TENGGARA BARAT,84116.0,Indonesia,82359329070,,,-84.642.567,1.187.448.783,https://maps.google.com/?cid=0x0:0x57c6cacdc293bb29,
toko bangunan,Toko Bahan Bangunan,Toko Jaya Raya Sadia,"Jl. Gatot Subroto, Sadia, Kec. Mpunda, Kab. Bima, Nusa Tenggara Bar. 84117","Sadia, Kec. Mpunda, Kab. Bima",NUSA TENGGARA BARAT,84117.0,Indonesia,85211115712,,,-84.629.024,1.187.446.262,https://maps.google.com/?cid=0x0:0xe45a8851654b6a11,
toko bangunan,Toko Bahan Bangunan,TOKO BANGUNAN RIZKI PERKASA,"Jl. Jend.Sudirman No.55, Rabangodu Sel., Kec. Raba, Kab. Bima, Nusa Tenggara Bar. 84111","Rabangodu Sel., Kec. Raba, Kab. Bima",NUSA TENGGARA BARAT,84111.0,Indonesia,85333711993,,,-84.706.138,1.187.530.179,https://maps.google.com/?cid=0x0:0xc564737777aa62a0,
toko bangunan,Toko Bahan Bangunan,DEPO SUMBER BANGUNAN BIMA,"Paruga, Kec. Rasanae Bar., Kab. Bima, Nusa Tenggara Bar. 84118","Kec. Rasanae Bar., Kab. Bima",NUSA TENGGARA BARAT,84118.0,Indonesia,8113833767,,,-84.542.875,1.187.178.281,https://maps.google.com/?cid=0x0:0x5695533ae32f5737,
toko bangunan,Toko Bahan Bangunan,Toko Bangunan Laba-laba,"JL Dana Traha, RT. 05 RW. 01, Bedi, Manggemaci, Manggemaci, Bima, Kab. Bima, Nusa Tenggara Bar. 84112","RT. 05 RW. 01, Bedi, Manggemaci, Manggemaci, Bima, Kab. Bima",NUSA TENGGARA BARAT,84112.0,Indonesia,37442249,,,-84.652.918,1.187.386.644,https://maps.google.com/?cid=0x0:0x54780128b44ad13f,
toko bangunan,Toko Bahan Bangunan,UD. DELAPAN ENAM,"Jl. Jend.Sudirman No.42, Mande, Kec. Mpunda, Kab. Bima, Nusa Tenggara Bar. 84111","Mande, Kec. Mpunda, Kab. Bima",NUSA TENGGARA BARAT,84111.0,Indonesia,82340585185,,,-84.695.457,1.187.502.314,https://maps.google.com/?cid=0x0:0xac8375d80a5da332,
toko bangunan,Toko Bahan Bangunan,Bima Citra UD,"Jl. Gatot Subroto No.07, Sadia, Kec. Mpunda, Kab. Bima, Nusa Tenggara Bar. 84115","Sadia, Kec. Mpunda, Kab. Bima",NUSA TENGGARA BARAT,84115.0,Indonesia,37442836,,,-84.656.027,1.187.436.736,https://maps.google.com/?cid=0x0:0x6ef58664e72a7340,
toko bangunan,Toko Bahan Bangunan,UD TUNAS JAYA,"Jl. Gatot Subroto, Santi, Kec. Mpunda, Kab. Bima, Nusa Tenggara Bar. 84116","Santi, Kec. Mpunda, Kab. Bima",NUSA TENGGARA BARAT,84116.0,Indonesia,82339862302,,,-84.579.868,1.187.471.572,https://maps.google.com/?cid=0x0:0x5467c3768a2eabf0,
toko bangunan,Toko Bahan Bangunan,Toko Sumber Bangunan,"Jl. Sultan Hasannudin, Sarae, Kec. Rasanae Bar., Kab. Bima, Nusa Tenggara Bar. 84118","Sarae, Kec. Rasanae Bar., Kab. Bima",NUSA TENGGARA BARAT,84118.0,Indonesia,,,,-84.517.985,1.187.254.249,https://maps.google.com/?cid=0x0:0x4ac52ceb0bceb7c3,
toko bangunan,Toko,TB. Cahaya Makmur Lestari,"Santi 1 Barat Ruko Coklat Toko Bangunan Cahaya Makmur Lestari, Santi, Kec. Mpunda, Kab. Bima, Nusa Tenggara Bar. 84119","Santi, Kec. Mpunda, Kab. Bima",NUSA TENGGARA BARAT,84119.0,Indonesia,81236434428,,,-84.540.836,1.187.443.901,https://maps.google.com/?cid=0x0:0xcd7545fe3a3576cd,
toko bangunan,Toko Bahan Bangunan,Ud. Qalbi,"Jl. Gatot Subroto, Sadia, Kec. Mpunda, Kab. Bima, Nusa Tenggara Bar. 84116","Sadia, Kec. Mpunda, Kab. Bima",NUSA TENGGARA BARAT,84116.0,Indonesia,85217766454,,,-84.664.618,1.187.432.989,https://maps.google.com/?cid=0x0:0xa22c1ef3f30976d7,
toko bangunan,Toko Bahan Bangunan,UD. Karya Baru,"GPWM+6G3, JL Sultan Hasanuddin, Pane, Kec. Rasanae Bar., Kab. Bima, Nusa Tenggara Bar. 84111","JL Sultan Hasanuddin, Pane, Kec. Rasanae Bar., Kab. Bima",NUSA TENGGARA BARAT,84111.0,Indonesia,37442084,,,-84.544.928,1.187.337.946,https://maps.google.com/?cid=0x0:0x3fe33afc5350b7a9,
toko bangunan,toko bangunan,IDSTEEL BIMA (Logam Nusantara 2) | Toko Baja Ringan,"Jl. Gajah Mada, Penatoi, Kec. Mpunda, Kab. Bima, Nusa Tenggara Bar. 84116","Penatoi, Kec. Mpunda, Kab. Bima",NUSA TENGGARA BARAT,84116.0,Indonesia,81916065392,,,-84.589.788,118.748.895,https://maps.google.com/?cid=0x0:0x45c9f250e3de34f3,
toko bangunan,Toko Bahan Bangunan,TB. Arta Wiguna Bima,"Nae, Kec. Rasanae Bar., Kab. Bima, Nusa Tenggara Bar. 84117","Kec. Rasanae Bar., Kab. Bima",NUSA TENGGARA BARAT,84117.0,Indonesia,8124666130,,,-84.530.809,1.187.341.068,https://maps.google.com/?cid=0x0:0x342c0e4009c321e0,
toko bangunan,Toko Bahan Bangunan,Sinar Surya Bangunan,"Jl. Soekarno Hatta No.095, Rabangodu Utara, Kec. Raba, Kab. Bima, Nusa Tenggara Bar. 84113","Rabangodu Utara, Kec. Raba, Kab. Bima",NUSA TENGGARA BARAT,84113.0,Indonesia,81237979988,,,-84.660.992,1.187.564.456,https://maps.google.com/?cid=0x0:0xd8ebbf8799589138,
toko bangunan,Toko Bahan Bangunan,Nusa Abadi. CV,"JL Sultan Kaharudin, No. 07, Paruga, Rasanae Barat, Tanjung, Bima, Kab. Bima, Nusa Tenggara Bar. 84111","No. 07, Paruga, Rasanae Barat, Tanjung, Bima, Kab. Bima",NUSA TENGGARA BARAT,84111.0,Indonesia,37442053,,,-84.534.565,1.187.243.717,https://maps.google.com/?cid=0x0:0xd112717e77d8a1a,
toko bangunan,Toko Bahan Bangunan,Toko Bangunan,"GPWM+QJ4, Jl. Gajah Mada, Nae, Kec. Rasanae Bar., Kab. Bima, Nusa Tenggara Bar. 84117","Jl. Gajah Mada, Nae, Kec. Rasanae Bar., Kab. Bima",NUSA TENGGARA BARAT,84117.0,Indonesia,,,,-84.531.241,1.187.340.686,https://maps.google.com/?cid=0x0:0x83fe0f35102f017e,
toko bangunan,Toko Bahan Bangunan,UD. Antara Jaya,"Jl. Bandeng No.1, Paruga, Kec. Rasanae Bar., Kab. Bima, Nusa Tenggara Bar. 84118","Paruga, Kec. Rasanae Bar., Kab. Bima",NUSA TENGGARA BARAT,84118.0,Indonesia,85337731052,,,-84.537.394,1.187.216.624,https://maps.google.com/?cid=0x0:0xb63f3b38a8b0ada5,
toko bangunan,toko bangunan,Nusa Tenggara Bar. 84112,"Kec. Raba, Kabupaten Bima, Nusa Tenggara Bar.","Kabupaten Bima, Nusa Tenggara Bar.",NUSA TENGGARA BARAT,,Indonesia,,,,-84.917.671,1.187.518.671,https://maps.google.com/?cid=0x0:0x1f28a2016f7e7ff8,
toko bangunan,Toko Bahan Bangunan,Toko Bangunan MUTIARA,"Jl. Jend.Sudirman No.2, Mande, Kec. Mpunda, Kab. Bima, Nusa Tenggara Bar. 84116","Mande, Kec. Mpunda, Kab. Bima",NUSA TENGGARA BARAT,84116.0,Indonesia,,,,-84.683.102,1.187.472.807,https://maps.google.com/?cid=0x0:0x13b4e5683147c156,
toko bangunan,Toko Bahan Bangunan,UD. BERKAH Toko Bangunan,"ud berkah, Jl. Jend.Sudirman No.16, Mande, Kec. Mpunda, Kab. Bima, Nusa Tenggara Bar. 84116","Jl. Jend.Sudirman No.16, Mande, Kec. Mpunda, Kab. Bima",NUSA TENGGARA BARAT,84116.0,Indonesia,85205392224,,,-84.675.525,1.187.457.912,https://maps.google.com/?cid=0x0:0xd2625bed0d487d7a,
toko bangunan,Toko,"TOKO NABILA.( materia Bangunan,)","2 NTB., Jl. Gatot Subroto, Sadia, Kec. Mpunda, Kab. Bima, Nusa Tenggara Bar. 84111","Jl. Gatot Subroto, Sadia, Kec. Mpunda, Kab. Bima",NUSA TENGGARA BARAT,84111.0,Indonesia,,,,-84.683.066,1.187.426.541,https://maps.google.com/?cid=0x0:0xcb478aee3caa8125,
toko bangunan,Toko Bahan Bangunan,UD. DELAPAN ENAM,"Jl. Jend.Sudirman No.42, Mande, Kec. Mpunda, Kab. Bima, Nusa Tenggara Bar. 84111","Mande, Kec. Mpunda, Kab. Bima",NUSA TENGGARA BARAT,84111.0,Indonesia,82340585185,,,-84.695.457,1.187.502.314,https://maps.google.com/?cid=0x0:0xac8375d80a5da332,
toko bangunan,Toko Bahan Bangunan,Toko Bangunan Nusantara Abadi,"sultan salahudin No.4, Dara, Kec. Rasanae Bar., Kab. Bima, Nusa Tenggara Bar. 84111","Dara, Kec. Rasanae Bar., Kab. Bima",NUSA TENGGARA BARAT,84111.0,Indonesia,,,,-84.562.579,1.187.237.965,https://maps.google.com/?cid=0x0:0xe3766b659013351e,
toko bangunan,Toko Bahan Bangunan,Nusa Tenggara Barat,"GPPV+7XR, Lewirato, Kec. Mpunda, Kab. Bima, Nusa Tenggara Bar. 84116","Lewirato, Kec. Mpunda, Kab. Bima",NUSA TENGGARA BARAT,84116.0,Indonesia,82359329070,,,-84.642.567,1.187.448.783,https://maps.google.com/?cid=0x0:0x57c6cacdc293bb29,
toko bangunan,Toko Bahan Bangunan,DEPO SUMBER BANGUNAN BIMA,"Paruga, Kec. Rasanae Bar., Kab. Bima, Nusa Tenggara Bar. 84118","Kec. Rasanae Bar., Kab. Bima",NUSA TENGGARA BARAT,84118.0,Indonesia,8113833767,,,-84.542.875,1.187.178.281,https://maps.google.com/?cid=0x0:0x5695533ae32f5737,
toko bangunan,Toko Bahan Bangunan,Toko Jaya Raya Sadia,"Jl. Gatot Subroto, Sadia, Kec. Mpunda, Kab. Bima, Nusa Tenggara Bar. 84117","Sadia, Kec. Mpunda, Kab. Bima",NUSA TENGGARA BARAT,84117.0,Indonesia,85211115712,,,-84.629.024,1.187.446.262,https://maps.google.com/?cid=0x0:0xe45a8851654b6a11,
toko bangunan,Toko Bahan Bangunan,Toko Sumber Bangunan,"Jl. Sultan Hasannudin, Sarae, Kec. Rasanae Bar., Kab. Bima, Nusa Tenggara Bar. 84118","Sarae, Kec. Rasanae Bar., Kab. Bima",NUSA TENGGARA BARAT,84118.0,Indonesia,,,,-84.517.985,1.187.254.249,https://maps.google.com/?cid=0x0:0x4ac52ceb0bceb7c3,
toko bangunan,Toko Bahan Bangunan,Bima Citra UD,"Jl. Gatot Subroto No.07, Sadia, Kec. Mpunda, Kab. Bima, Nusa Tenggara Bar. 84115","Sadia, Kec. Mpunda, Kab. Bima",NUSA TENGGARA BARAT,84115.0,Indonesia,37442836,,,-84.656.027,1.187.436.736,https://maps.google.com/?cid=0x0:0x6ef58664e72a7340,
toko bangunan,Toko Bahan Bangunan,Sinar Surya Bangunan,"Jl. Soekarno Hatta No.095, Rabangodu Utara, Kec. Raba, Kab. Bima, Nusa Tenggara Bar. 84113","Rabangodu Utara, Kec. Raba, Kab. Bima",NUSA TENGGARA BARAT,84113.0,Indonesia,81237979988,,,-84.660.992,1.187.564.456,https://maps.google.com/?cid=0x0:0xd8ebbf8799589138,
toko bangunan,Toko Bahan Bangunan,Ud. Qalbi,"Jl. Gatot Subroto, Sadia, Kec. Mpunda, Kab. Bima, Nusa Tenggara Bar. 84116","Sadia, Kec. Mpunda, Kab. Bima",NUSA TENGGARA BARAT,84116.0,Indonesia,85217766454,,,-84.664.618,1.187.432.989,https://maps.google.com/?cid=0x0:0xa22c1ef3f30976d7,
toko bangunan,Toko,Toko Bangunan 75,"CM6W+GJG, Tenga, Kec. Woha, Kabupaten Bima, Nusa Tenggara Bar. 84171","Tenga, Kec. Woha, Kabupaten Bima",NUSA TENGGARA BARAT,84171.0,Indonesia,37481070,,,-85.886.849,1.186.965.868,https://maps.google.com/?cid=0x0:0x2cc9126a4373acda,
toko bangunan,Pemasok Suku Cadang Peralatan Rumah Tangga,Angin Dai UD,"Jl. Gatot Subroto No.5, Sadia, Kec. Mpunda, Kab. Bima, Nusa Tenggara Bar. 84115","Sadia, Kec. Mpunda, Kab. Bima",NUSA TENGGARA BARAT,84115.0,Indonesia,37444833,,,-84.660.919,1.187.437.423,https://maps.google.com/?cid=0x0:0x9e3714ef035ece52,
toko bangunan,Toko Bahan Bangunan,Duta bangunan bima,"GPXG+6JF, Jl. Sultan Hasannudin, Sarae, Kec. Rasanae Bar., Kab. Bima, Nusa Tenggara Bar. 84118","Jl. Sultan Hasannudin, Sarae, Kec. Rasanae Bar., Kab. Bima",NUSA TENGGARA BARAT,84118.0,Indonesia,"8,12144E+11",,,-84.519.374,1.187.265.603,https://maps.google.com/?cid=0x0:0x2694848498846a,
toko bangunan,Toko Bahan Bangunan,UD. Kurnia Jaya,"GPMP+9JQ, Jl. Ir Sutami, Sambinae, Kec. Mpunda, Kab. Bima, Nusa Tenggara Bar. 84113","Jl. Ir Sutami, Sambinae, Kec. Mpunda, Kab. Bima",NUSA TENGGARA BARAT,84113.0,Indonesia,37444154,,,-8.466.536,118.736.613,https://maps.google.com/?cid=0x0:0x7b1d3227536b9a7c,
toko bangunan,Toko Bahan Bangunan,TB. Harmonis,"Jl. Soekarno Hatta No.51, Rabangodu Utara, Kec. Raba, Kab. Bima, Nusa Tenggara Bar. 84115","Rabangodu Utara, Kec. Raba, Kab. Bima",NUSA TENGGARA BARAT,84115.0,Indonesia,37444442,,,-84.688.655,1.187.601.888,https://maps.google.com/?cid=0x0:0x2490aa5b2a59ec7,
toko bangunan,Toko Bahan Bangunan,TB. Arta Wiguna Bima,"Nae, Kec. Rasanae Bar., Kab. Bima, Nusa Tenggara Bar. 84117","Kec. Rasanae Bar., Kab. Bima",NUSA TENGGARA BARAT,84117.0,Indonesia,8124666130,,,-84.530.809,1.187.341.068,https://maps.google.com/?cid=0x0:0x342c0e4009c321e0,
toko bangunan,Toko Bahan Bangunan,Toko Bangunan,"GPWM+QJ4, Jl. Gajah Mada, Nae, Kec. Rasanae Bar., Kab. Bima, Nusa Tenggara Bar. 84117","Jl. Gajah Mada, Nae, Kec. Rasanae Bar., Kab. Bima",NUSA TENGGARA BARAT,84117.0,Indonesia,,,,-84.531.241,1.187.340.686,https://maps.google.com/?cid=0x0:0x83fe0f35102f017e,
toko bangunan,Toko Bahan Bangunan,UD TUNAS JAYA,"Jl. Gatot Subroto, Santi, Kec. Mpunda, Kab. Bima, Nusa Tenggara Bar. 84116","Santi, Kec. Mpunda, Kab. Bima",NUSA TENGGARA BARAT,84116.0,Indonesia,82339862302,,,-84.579.868,1.187.471.572,https://maps.google.com/?cid=0x0:0x5467c3768a2eabf0,
toko bangunan,Toko Bahan Bangunan,MITRA BANGUNAN,"Jl. Sultan Hasannudin No.8, Sarae, Kec. Rasanae Bar., Kab. Bima, Nusa Tenggara Bar. 84117","Sarae, Kec. Rasanae Bar., Kab. Bima",NUSA TENGGARA BARAT,84117.0,Indonesia,82335805080,,,-84.519.793,1.187.253.457,https://maps.google.com/?cid=0x0:0x7cbaac2e14760b45,
toko bangunan,Toko Bahan Bangunan,Toko Jaya Raya Bima,"Sarae, Kec. Rasanae Bar., Kab. Bima, Nusa Tenggara Bar. 84118","Kec. Rasanae Bar., Kab. Bima",NUSA TENGGARA BARAT,84118.0,Indonesia,85330528388,,,-84.518.611,1.187.262.007,https://maps.google.com/?cid=0x0:0xb6db89df32cc3e8d,
toko bangunan,Pemasok Bahan Bangunan,UD. SAKINAH Tente,"CM8X+M2H, Tente, Kec. Woha, Kabupaten Bima, Nusa Tenggara Bar. 84171","Tente, Kec. Woha, Kabupaten Bima",NUSA TENGGARA BARAT,84171.0,Indonesia,"8,53331E+11",,,-85.833.238,1.186.976.101,https://maps.google.com/?cid=0x0:0x1c5a67934f27a74d,
toko bangunan,Toko Bahan Bangunan,Toko Nusa Bangunan,"No. 8, JL Sultan Kaharudin, Paruga, Rasanae Barat, Tanjung, Bima, Kab. Bima, Nusa Tenggara Bar. 84111","JL Sultan Kaharudin, Paruga, Rasanae Barat, Tanjung, Bima, Kab. Bima",NUSA TENGGARA BARAT,84111.0,Indonesia,37442083,,,-84.525.018,1.187.243.119,https://maps.google.com/?cid=0x0:0x5ca11e302307568d,
toko bangunan,toko bangunan,Nusa Tenggara Bar. 84115,"Kab. Bima, Nusa Tenggara Bar.","Kab. Bima, Nusa Tenggara Bar.",NUSA TENGGARA BARAT,,Indonesia,,,,-84.769.135,1.187.839.274,https://maps.google.com/?cid=0x0:0x1211695e5508ddbe,
toko bangunan,Toko Bahan Bangunan,Toko Bangunan MUTIARA,"Jl. Jend.Sudirman No.2, Mande, Kec. Mpunda, Kab. Bima, Nusa Tenggara Bar. 84116","Mande, Kec. Mpunda, Kab. Bima",NUSA TENGGARA BARAT,84116.0,Indonesia,,,,-84.683.102,1.187.472.807,https://maps.google.com/?cid=0x0:0x13b4e5683147c156,
toko bangunan,Toko Bahan Bangunan,UD. BERKAH Toko Bangunan,"ud berkah, Jl. Jend.Sudirman No.16, Mande, Kec. Mpunda, Kab. Bima, Nusa Tenggara Bar. 84116","Jl. Jend.Sudirman No.16, Mande, Kec. Mpunda, Kab. Bima",NUSA TENGGARA BARAT,84116.0,Indonesia,85205392224,,,-84.675.525,1.187.457.912,https://maps.google.com/?cid=0x0:0xd2625bed0d487d7a,
toko bangunan,Toko Bahan Bangunan,Sinar Surya Bangunan,"Jl. Soekarno Hatta No.095, Rabangodu Utara, Kec. Raba, Kab. Bima, Nusa Tenggara Bar. 84113","Rabangodu Utara, Kec. Raba, Kab. Bima",NUSA TENGGARA BARAT,84113.0,Indonesia,81237979988,,,-84.660.992,1.187.564.456,https://maps.google.com/?cid=0x0:0xd8ebbf8799589138,
toko bangunan,Toko,"TOKO NABILA.( materia Bangunan,)","2 NTB., Jl. Gatot Subroto, Sadia, Kec. Mpunda, Kab. Bima, Nusa Tenggara Bar. 84111","Jl. Gatot Subroto, Sadia, Kec. Mpunda, Kab. Bima",NUSA TENGGARA BARAT,84111.0,Indonesia,,,,-84.683.066,1.187.426.541,https://maps.google.com/?cid=0x0:0xcb478aee3caa8125,
toko bangunan,Toko Bahan Bangunan,TB. Langgeng Jaya 1,"Penaraga, Kec. Raba, Kab. Bima, Nusa Tenggara Bar. 84115","Kec. Raba, Kab. Bima",NUSA TENGGARA BARAT,84115.0,Indonesia,,,,-8.462.476,1.187.598.229,https://maps.google.com/?cid=0x0:0x601ba20c689a82ed,
toko bangunan,Toko Bahan Bangunan,UD. DELAPAN ENAM,"Jl. Jend.Sudirman No.42, Mande, Kec. Mpunda, Kab. Bima, Nusa Tenggara Bar. 84111","Mande, Kec. Mpunda, Kab. Bima",NUSA TENGGARA BARAT,84111.0,Indonesia,82340585185,,,-84.695.457,1.187.502.314,https://maps.google.com/?cid=0x0:0xac8375d80a5da332,
toko bangunan,Toko Bahan Bangunan,Bima Citra UD,"Jl. Gatot Subroto No.07, Sadia, Kec. Mpunda, Kab. Bima, Nusa Tenggara Bar. 84115","Sadia, Kec. Mpunda, Kab. Bima",NUSA TENGGARA BARAT,84115.0,Indonesia,37442836,,,-84.656.027,1.187.436.736,https://maps.google.com/?cid=0x0:0x6ef58664e72a7340,
toko bangunan,Toko Bahan Bangunan,Toko Bangunan Nusantara Abadi,"sultan salahudin No.4, Dara, Kec. Rasanae Bar., Kab. Bima, Nusa Tenggara Bar. 84111","Dara, Kec. Rasanae Bar., Kab. Bima",NUSA TENGGARA BARAT,84111.0,Indonesia,,,,-84.562.579,1.187.237.965,https://maps.google.com/?cid=0x0:0xe3766b659013351e,
toko bangunan,Toko Bahan Bangunan,DEPO SUMBER BANGUNAN BIMA,"Paruga, Kec. Rasanae Bar., Kab. Bima, Nusa Tenggara Bar. 84118","Kec. Rasanae Bar., Kab. Bima",NUSA TENGGARA BARAT,84118.0,Indonesia,8113833767,,,-84.542.875,1.187.178.281,https://maps.google.com/?cid=0x0:0x5695533ae32f5737,
toko bangunan,Toko Bahan Bangunan,Nusa Tenggara Barat,"GPPV+7XR, Lewirato, Kec. Mpunda, Kab. Bima, Nusa Tenggara Bar. 84116","Lewirato, Kec. Mpunda, Kab. Bima",NUSA TENGGARA BARAT,84116.0,Indonesia,82359329070,,,-84.642.567,1.187.448.783,https://maps.google.com/?cid=0x0:0x57c6cacdc293bb29,
toko bangunan,Toko Bahan Bangunan,Toko Sumber Bangunan,"Jl. Sultan Hasannudin, Sarae, Kec. Rasanae Bar., Kab. Bima, Nusa Tenggara Bar. 84118","Sarae, Kec. Rasanae Bar., Kab. Bima",NUSA TENGGARA BARAT,84118.0,Indonesia,,,,-84.517.985,1.187.254.249,https://maps.google.com/?cid=0x0:0x4ac52ceb0bceb7c3,
toko bangunan,Toko Bahan Bangunan,UD. WAHYUNINGSIH,"GQP6+X3C, Jl. Pembangunan, Penaraga, Kec. Raba, Kab. Bima, Nusa Tenggara Bar. 84115","Jl. Pembangunan, Penaraga, Kec. Raba, Kab. Bima",NUSA TENGGARA BARAT,84115.0,Indonesia,85338376787,,,-84.625.671,1.187.601.389,https://maps.google.com/?cid=0x0:0x28d1b149534bb0c1,
toko bangunan,Toko Bahan Bangunan,UD TUNAS JAYA,"Jl. Gatot Subroto, Santi, Kec. Mpunda, Kab. Bima, Nusa Tenggara Bar. 84116","Santi, Kec. Mpunda, Kab. Bima",NUSA TENGGARA BARAT,84116.0,Indonesia,82339862302,,,-84.579.868,1.187.471.572,https://maps.google.com/?cid=0x0:0x5467c3768a2eabf0,
toko bangunan,Toko Bahan Bangunan,TB. Harmonis,"Jl. Soekarno Hatta No.51, Rabangodu Utara, Kec. Raba, Kab. Bima, Nusa Tenggara Bar. 84115","Rabangodu Utara, Kec. Raba, Kab. Bima",NUSA TENGGARA BARAT,84115.0,Indonesia,37444442,,,-84.688.655,1.187.601.888,https://maps.google.com/?cid=0x0:0x2490aa5b2a59ec7,
toko bangunan,Toko Bahan Bangunan,Ud. Qalbi,"Jl. Gatot Subroto, Sadia, Kec. Mpunda, Kab. Bima, Nusa Tenggara Bar. 84116","Sadia, Kec. Mpunda, Kab. Bima",NUSA TENGGARA BARAT,84116.0,Indonesia,85217766454,,,-84.664.618,1.187.432.989,https://maps.google.com/?cid=0x0:0xa22c1ef3f30976d7,
toko bangunan,Toko,Toko Bangunan 75,"CM6W+GJG, Tenga, Kec. Woha, Kabupaten Bima, Nusa Tenggara Bar. 84171","Tenga, Kec. Woha, Kabupaten Bima",NUSA TENGGARA BARAT,84171.0,Indonesia,37481070,,,-85.886.849,1.186.965.868,https://maps.google.com/?cid=0x0:0x2cc9126a4373acda,
toko bangunan,Toko Bahan Bangunan,UD. TUNAS HARAPAN,"Ntobo, Kec. Raba, Kab. Bima, Nusa Tenggara Bar. 84119","Kec. Raba, Kab. Bima",NUSA TENGGARA BARAT,84119.0,Indonesia,85339794375,,,-84.507.642,1.187.756.348,https://maps.google.com/?cid=0x0:0x470833802710d141,
toko bangunan,Pemasok Suku Cadang Peralatan Rumah Tangga,Angin Dai UD,"Jl. Gatot Subroto No.5, Sadia, Kec. Mpunda, Kab. Bima, Nusa Tenggara Bar. 84115","Sadia, Kec. Mpunda, Kab. Bima",NUSA TENGGARA BARAT,84115.0,Indonesia,37444833,,,-84.660.919,1.187.437.423,https://maps.google.com/?cid=0x0:0x9e3714ef035ece52,
toko bangunan,Toko Bahan Bangunan,Duta bangunan bima,"GPXG+6JF, Jl. Sultan Hasannudin, Sarae, Kec. Rasanae Bar., Kab. Bima, Nusa Tenggara Bar. 84118","Jl. Sultan Hasannudin, Sarae, Kec. Rasanae Bar., Kab. Bima",NUSA TENGGARA BARAT,84118.0,Indonesia,"8,12144E+11",,,-84.519.374,1.187.265.603,https://maps.google.com/?cid=0x0:0x2694848498846a,
toko bangunan,Toko Bahan Bangunan,Toko Jaya Raya Sadia,"Jl. Gatot Subroto, Sadia, Kec. Mpunda, Kab. Bima, Nusa Tenggara Bar. 84117","Sadia, Kec. Mpunda, Kab. Bima",NUSA TENGGARA BARAT,84117.0,Indonesia,85211115712,,,-84.629.024,1.187.446.262,https://maps.google.com/?cid=0x0:0xe45a8851654b6a11,
toko bangunan,Toko Bahan Bangunan,MITRA BANGUNAN,"Jl. Sultan Hasannudin No.8, Sarae, Kec. Rasanae Bar., Kab. Bima, Nusa Tenggara Bar. 84117","Sarae, Kec. Rasanae Bar., Kab. Bima",NUSA TENGGARA BARAT,84117.0,Indonesia,82335805080,,,-84.519.793,1.187.253.457,https://maps.google.com/?cid=0x0:0x7cbaac2e14760b45,
toko bangunan,Toko Bahan Bangunan,Toko Bangunan,"GPWM+QJ4, Jl. Gajah Mada, Nae, Kec. Rasanae Bar., Kab. Bima, Nusa Tenggara Bar. 84117","Jl. Gajah Mada, Nae, Kec. Rasanae Bar., Kab. Bima",NUSA TENGGARA BARAT,84117.0,Indonesia,,,,-84.531.241,1.187.340.686,https://maps.google.com/?cid=0x0:0x83fe0f35102f017e,
toko bangunan,toko bangunan,Toko Bangunan HS (Harga Sama),"GQQ3+WFH, Jl. Gajah Mada, Penatoi, Kec. Mpunda, Kab. Bima, Nusa Tenggara Bar. 84111","Jl. Gajah Mada, Penatoi, Kec. Mpunda, Kab. Bima",NUSA TENGGARA BARAT,84111.0,Indonesia,,,,-84.601.924,1.187.537.378,https://maps.google.com/?cid=0x0:0x6ca46a0139db3baf,
toko bangunan,Toko Bahan Bangunan,Toko Nusa Bangunan,"No. 8, JL Sultan Kaharudin, Paruga, Rasanae Barat, Tanjung, Bima, Kab. Bima, Nusa Tenggara Bar. 84111","JL Sultan Kaharudin, Paruga, Rasanae Barat, Tanjung, Bima, Kab. Bima",NUSA TENGGARA BARAT,84111.0,Indonesia,37442083,,,-84.525.018,1.187.243.119,https://maps.google.com/?cid=0x0:0x5ca11e302307568d,
toko bangunan,toko bangunan,Kec. Mpunda,"Kab. Bima, Nusa Tenggara Bar.","Kab. Bima, Nusa Tenggara Bar.",NUSA TENGGARA BARAT,,Indonesia,,,,-84.583.951,1.187.468.712,https://maps.google.com/?cid=0x0:0x5e73f7a401f39f2,
toko bangunan,Toko Bahan Bangunan,Toko Bangunan MUTIARA,"Jl. Jend.Sudirman No.2, Mande, Kec. Mpunda, Kab. Bima, Nusa Tenggara Bar. 84116","Mande, Kec. Mpunda, Kab. Bima",NUSA TENGGARA BARAT,84116.0,Indonesia,,,,-84.683.102,1.187.472.807,https://maps.google.com/?cid=0x0:0x13b4e5683147c156,
toko bangunan,Toko Bahan Bangunan,UD. BERKAH Toko Bangunan,"ud berkah, Jl. Jend.Sudirman No.16, Mande, Kec. Mpunda, Kab. Bima, Nusa Tenggara Bar. 84116","Jl. Jend.Sudirman No.16, Mande, Kec. Mpunda, Kab. Bima",NUSA TENGGARA BARAT,84116.0,Indonesia,85205392224,,,-84.675.525,1.187.457.912,https://maps.google.com/?cid=0x0:0xd2625bed0d487d7a,
toko bangunan,Toko Bahan Bangunan,DEPO SUMBER BANGUNAN BIMA,"Paruga, Kec. Rasanae Bar., Kab. Bima, Nusa Tenggara Bar. 84118","Kec. Rasanae Bar., Kab. Bima",NUSA TENGGARA BARAT,84118.0,Indonesia,8113833767,,,-84.542.875,1.187.178.281,https://maps.google.com/?cid=0x0:0x5695533ae32f5737,
toko bangunan,Toko Bahan Bangunan,Toko Jaya Raya Sadia,"Jl. Gatot Subroto, Sadia, Kec. Mpunda, Kab. Bima, Nusa Tenggara Bar. 84117","Sadia, Kec. Mpunda, Kab. Bima",NUSA TENGGARA BARAT,84117.0,Indonesia,85211115712,,,-84.629.024,1.187.446.262,https://maps.google.com/?cid=0x0:0xe45a8851654b6a11,
toko bangunan,Toko Bahan Bangunan,Nusa Tenggara Barat,"GPPV+7XR, Lewirato, Kec. Mpunda, Kab. Bima, Nusa Tenggara Bar. 84116","Lewirato, Kec. Mpunda, Kab. Bima",NUSA TENGGARA BARAT,84116.0,Indonesia,82359329070,,,-84.642.567,1.187.448.783,https://maps.google.com/?cid=0x0:0x57c6cacdc293bb29,
toko bangunan,Toko,"TOKO NABILA.( materia Bangunan,)","2 NTB., Jl. Gatot Subroto, Sadia, Kec. Mpunda, Kab. Bima, Nusa Tenggara Bar. 84111","Jl. Gatot Subroto, Sadia, Kec. Mpunda, Kab. Bima",NUSA TENGGARA BARAT,84111.0,Indonesia,,,,-84.683.066,1.187.426.541,https://maps.google.com/?cid=0x0:0xcb478aee3caa8125,
toko bangunan,Toko Bahan Bangunan,TOKO BANGUNAN RIZKI PERKASA,"Jl. Jend.Sudirman No.55, Rabangodu Sel., Kec. Raba, Kab. Bima, Nusa Tenggara Bar. 84111","Rabangodu Sel., Kec. Raba, Kab. Bima",NUSA TENGGARA BARAT,84111.0,Indonesia,85333711993,,,-84.706.138,1.187.530.179,https://maps.google.com/?cid=0x0:0xc564737777aa62a0,
toko bangunan,Toko Bahan Bangunan,Toko Sumber Bangunan,"Jl. Sultan Hasannudin, Sarae, Kec. Rasanae Bar., Kab. Bima, Nusa Tenggara Bar. 84118","Sarae, Kec. Rasanae Bar., Kab. Bima",NUSA TENGGARA BARAT,84118.0,Indonesia,,,,-84.517.985,1.187.254.249,https://maps.google.com/?cid=0x0:0x4ac52ceb0bceb7c3,
toko bangunan,Toko Bahan Bangunan,UD. DELAPAN ENAM,"Jl. Jend.Sudirman No.42, Mande, Kec. Mpunda, Kab. Bima, Nusa Tenggara Bar. 84111","Mande, Kec. Mpunda, Kab. Bima",NUSA TENGGARA BARAT,84111.0,Indonesia,82340585185,,,-84.695.457,1.187.502.314,https://maps.google.com/?cid=0x0:0xac8375d80a5da332,
toko bangunan,Toko Bahan Bangunan,Bima Citra UD,"Jl. Gatot Subroto No.07, Sadia, Kec. Mpunda, Kab. Bima, Nusa Tenggara Bar. 84115","Sadia, Kec. Mpunda, Kab. Bima",NUSA TENGGARA BARAT,84115.0,Indonesia,37442836,,,-84.656.027,1.187.436.736,https://maps.google.com/?cid=0x0:0x6ef58664e72a7340,
toko bangunan,Toko Bahan Bangunan,Toko Bangunan Laba-laba,"JL Dana Traha, RT. 05 RW. 01, Bedi, Manggemaci, Manggemaci, Bima, Kab. Bima, Nusa Tenggara Bar. 84112","RT. 05 RW. 01, Bedi, Manggemaci, Manggemaci, Bima, Kab. Bima",NUSA TENGGARA BARAT,84112.0,Indonesia,37442249,,,-84.652.918,1.187.386.644,https://maps.google.com/?cid=0x0:0x54780128b44ad13f,
toko bangunan,Toko,TB. Cahaya Makmur Lestari,"Santi 1 Barat Ruko Coklat Toko Bangunan Cahaya Makmur Lestari, Santi, Kec. Mpunda, Kab. Bima, Nusa Tenggara Bar. 84119","Santi, Kec. Mpunda, Kab. Bima",NUSA TENGGARA BARAT,84119.0,Indonesia,81236434428,,,-84.540.836,1.187.443.901,https://maps.google.com/?cid=0x0:0xcd7545fe3a3576cd,
toko bangunan,Toko Bahan Bangunan,UD TUNAS JAYA,"Jl. Gatot Subroto, Santi, Kec. Mpunda, Kab. Bima, Nusa Tenggara Bar. 84116","Santi, Kec. Mpunda, Kab. Bima",NUSA TENGGARA BARAT,84116.0,Indonesia,82339862302,,,-84.579.868,1.187.471.572,https://maps.google.com/?cid=0x0:0x5467c3768a2eabf0,
toko bangunan,Toko Bahan Bangunan,Ud. Qalbi,"Jl. Gatot Subroto, Sadia, Kec. Mpunda, Kab. Bima, Nusa Tenggara Bar. 84116","Sadia, Kec. Mpunda, Kab. Bima",NUSA TENGGARA BARAT,84116.0,Indonesia,85217766454,,,-84.664.618,1.187.432.989,https://maps.google.com/?cid=0x0:0xa22c1ef3f30976d7,
toko bangunan,Toko Bahan Bangunan,Toko Hasanah,"HQ52+J36, Jl. Datuk Dibanta, Jatibaru, Kec. Asakota, Kab. Bima, Nusa Tenggara Bar. 84116","Jl. Datuk Dibanta, Jatibaru, Kec. Asakota, Kab. Bima",NUSA TENGGARA BARAT,84116.0,Indonesia,82339519219,,,-84.409.742,1.187.501.424,https://maps.google.com/?cid=0x0:0x910b446e2ea8ba77,
toko bangunan,Toko Bahan Bangunan,TB. Arta Wiguna Bima,"Nae, Kec. Rasanae Bar., Kab. Bima, Nusa Tenggara Bar. 84117","Kec. Rasanae Bar., Kab. Bima",NUSA TENGGARA BARAT,84117.0,Indonesia,8124666130,,,-84.530.809,1.187.341.068,https://maps.google.com/?cid=0x0:0x342c0e4009c321e0,
toko bangunan,Toko Bahan Bangunan,Toko Bangunan,"GPWM+QJ4, Jl. Gajah Mada, Nae, Kec. Rasanae Bar., Kab. Bima, Nusa Tenggara Bar. 84117","Jl. Gajah Mada, Nae, Kec. Rasanae Bar., Kab. Bima",NUSA TENGGARA BARAT,84117.0,Indonesia,,,,-84.531.241,1.187.340.686,https://maps.google.com/?cid=0x0:0x83fe0f35102f017e,
toko bangunan,Toko Bahan Bangunan,UD. Antara Jaya,"Jl. Bandeng No.1, Paruga, Kec. Rasanae Bar., Kab. Bima, Nusa Tenggara Bar. 84118","Paruga, Kec. Rasanae Bar., Kab. Bima",NUSA TENGGARA BARAT,84118.0,Indonesia,85337731052,,,-84.537.394,1.187.216.624,https://maps.google.com/?cid=0x0:0xb63f3b38a8b0ada5,
toko bangunan,Toko Bahan Bangunan,MITRA BANGUNAN,"Jl. Sultan Hasannudin No.8, Sarae, Kec. Rasanae Bar., Kab. Bima, Nusa Tenggara Bar. 84117","Sarae, Kec. Rasanae Bar., Kab. Bima",NUSA TENGGARA BARAT,84117.0,Indonesia,82335805080,,,-84.519.793,1.187.253.457,https://maps.google.com/?cid=0x0:0x7cbaac2e14760b45,
toko bangunan,Toko Bahan Bangunan,Bintang mas,"Jl. Sultan Hasannudin, Sarae, Kec. Rasanae Bar., Kab. Bima, Nusa Tenggara Bar. 84118","Sarae, Kec. Rasanae Bar., Kab. Bima",NUSA TENGGARA BARAT,84118.0,Indonesia,85337205120,,,-84.521.036,1.187.296.354,https://maps.google.com/?cid=0x0:0xf54f985a2bb453e7,
toko bangunan,toko bangunan,IDSTEEL BIMA (Logam Nusantara 2) | Toko Baja Ringan,"Jl. Gajah Mada, Penatoi, Kec. Mpunda, Kab. Bima, Nusa Tenggara Bar. 84116","Penatoi, Kec. Mpunda, Kab. Bima",NUSA TENGGARA BARAT,84116.0,Indonesia,81916065392,,,-84.589.788,118.748.895,https://maps.google.com/?cid=0x0:0x45c9f250e3de34f3,
toko bangunan,Toko Bahan Bangunan,Sinar Surya Bangunan,"Jl. Soekarno Hatta No.095, Rabangodu Utara, Kec. Raba, Kab. Bima, Nusa Tenggara Bar. 84113","Rabangodu Utara, Kec. Raba, Kab. Bima",NUSA TENGGARA BARAT,84113.0,Indonesia,81237979988,,,-84.660.992,1.187.564.456,https://maps.google.com/?cid=0x0:0xd8ebbf8799589138,
toko bangunan,toko bangunan,Nusa Tenggara Bar. 84113,"Kabupaten Bima, Nusa Tenggara Bar.","Kabupaten Bima, Nusa Tenggara Bar.",NUSA TENGGARA BARAT,,Indonesia,,,,-85.152.898,1.187.955.841,https://maps.google.com/?cid=0x0:0x155acae54b6146de,
toko bangunan,Toko Bahan Bangunan,TOKO BANGUNAN RIZKI PERKASA,"Jl. Jend.Sudirman No.55, Rabangodu Sel., Kec. Raba, Kab. Bima, Nusa Tenggara Bar. 84111","Rabangodu Sel., Kec. Raba, Kab. Bima",NUSA TENGGARA BARAT,84111.0,Indonesia,85333711993,,,-84.706.138,1.187.530.179,https://maps.google.com/?cid=0x0:0xc564737777aa62a0,
toko bangunan,Toko Bahan Bangunan,Sinar Surya Bangunan,"Jl. Soekarno Hatta No.095, Rabangodu Utara, Kec. Raba, Kab. Bima, Nusa Tenggara Bar. 84113","Rabangodu Utara, Kec. Raba, Kab. Bima",NUSA TENGGARA BARAT,84113.0,Indonesia,81237979988,,,-84.660.992,1.187.564.456,https://maps.google.com/?cid=0x0:0xd8ebbf8799589138,
toko bangunan,Toko Bahan Bangunan,Toko Jaya Raya Bima,"Sarae, Kec. Rasanae Bar., Kab. Bima, Nusa Tenggara Bar. 84118","Kec. Rasanae Bar., Kab. Bima",NUSA TENGGARA BARAT,84118.0,Indonesia,85330528388,,,-84.518.611,1.187.262.007,https://maps.google.com/?cid=0x0:0xb6db89df32cc3e8d,
toko bangunan,Toko Bahan Bangunan,DEPO SUMBER BANGUNAN BIMA,"Paruga, Kec. Rasanae Bar., Kab. Bima, Nusa Tenggara Bar. 84118","Kec. Rasanae Bar., Kab. Bima",NUSA TENGGARA BARAT,84118.0,Indonesia,8113833767,,,-84.542.875,1.187.178.281,https://maps.google.com/?cid=0x0:0x5695533ae32f5737,
toko bangunan,Toko Bahan Bangunan,Toko Bangunan MUTIARA,"Jl. Jend.Sudirman No.2, Mande, Kec. Mpunda, Kab. Bima, Nusa Tenggara Bar. 84116","Mande, Kec. Mpunda, Kab. Bima",NUSA TENGGARA BARAT,84116.0,Indonesia,,,,-84.683.102,1.187.472.807,https://maps.google.com/?cid=0x0:0x13b4e5683147c156,
toko bangunan,Toko,Toko Fajar Terang,"JL Sultan Hasannuddin, No. 64, Rabangodu, Rasanae, 84113, Bima, 84118","Rabangodu, Rasanae,",NUSA TENGGARA BARAT,84113.0,Indonesia,37442664,,,-85.152.898,1.187.955.841,https://maps.google.com/?cid=0x0:0xe3a6f48ba664244d,
toko bangunan,Toko Bahan Bangunan,Toko Jaya Raya Sadia,"Jl. Gatot Subroto, Sadia, Kec. Mpunda, Kab. Bima, Nusa Tenggara Bar. 84117","Sadia, Kec. Mpunda, Kab. Bima",NUSA TENGGARA BARAT,84117.0,Indonesia,85211115712,,,-84.629.024,1.187.446.262,https://maps.google.com/?cid=0x0:0xe45a8851654b6a11,
toko bangunan,Toko Bahan Bangunan,Toko Semesta Bangunan lampe,"FRQ2+CGH, Jl. Lintas Bima-Sape, RT.03/RW.01, Lampe, Kec. Rasanae Tim., Tinur, Nusa Tenggara Bar.","Tinur, Nusa Tenggara Bar.",NUSA TENGGARA BARAT,,Indonesia,85337505788,,,-85.114.499,1.188.013.508,https://maps.google.com/?cid=0x0:0x1365226fef54d633,
toko bangunan,Toko Bahan Bangunan,TB. Harmonis,"Jl. Soekarno Hatta No.51, Rabangodu Utara, Kec. Raba, Kab. Bima, Nusa Tenggara Bar. 84115","Rabangodu Utara, Kec. Raba, Kab. Bima",NUSA TENGGARA BARAT,84115.0,Indonesia,37444442,,,-84.688.655,1.187.601.888,https://maps.google.com/?cid=0x0:0x2490aa5b2a59ec7,
toko bangunan,Toko,"TOKO NABILA.( materia Bangunan,)","2 NTB., Jl. Gatot Subroto, Sadia, Kec. Mpunda, Kab. Bima, Nusa Tenggara Bar. 84111","Jl. Gatot Subroto, Sadia, Kec. Mpunda, Kab. Bima",NUSA TENGGARA BARAT,84111.0,Indonesia,,,,-84.683.066,1.187.426.541,https://maps.google.com/?cid=0x0:0xcb478aee3caa8125,
toko bangunan,Toko Bahan Bangunan,UD. BERKAH Toko Bangunan,"ud berkah, Jl. Jend.Sudirman No.16, Mande, Kec. Mpunda, Kab. Bima, Nusa Tenggara Bar. 84116","Jl. Jend.Sudirman No.16, Mande, Kec. Mpunda, Kab. Bima",NUSA TENGGARA BARAT,84116.0,Indonesia,85205392224,,,-84.675.525,1.187.457.912,https://maps.google.com/?cid=0x0:0xd2625bed0d487d7a,
toko bangunan,Toko Bahan Bangunan,Duta bangunan bima,"GPXG+6JF, Jl. Sultan Hasannudin, Sarae, Kec. Rasanae Bar., Kab. Bima, Nusa Tenggara Bar. 84118","Jl. Sultan Hasannudin, Sarae, Kec. Rasanae Bar., Kab. Bima",NUSA TENGGARA BARAT,84118.0,Indonesia,"8,12144E+11",,,-84.519.374,1.187.265.603,https://maps.google.com/?cid=0x0:0x2694848498846a,
toko bangunan,Toko,Kompleks Pertokoan Raba,"Rabangodu Utara, Kec. Raba, Kab. Bima, Nusa Tenggara Bar. 84115","Kec. Raba, Kab. Bima",NUSA TENGGARA BARAT,84115.0,Indonesia,,,,-84.696.461,118.760.293,https://maps.google.com/?cid=0x0:0x9d1e7f2e03afd090,
toko bangunan,Toko Bahan Bangunan,UD. DELAPAN ENAM,"Jl. Jend.Sudirman No.42, Mande, Kec. Mpunda, Kab. Bima, Nusa Tenggara Bar. 84111","Mande, Kec. Mpunda, Kab. Bima",NUSA TENGGARA BARAT,84111.0,Indonesia,82340585185,,,-84.695.457,1.187.502.314,https://maps.google.com/?cid=0x0:0xac8375d80a5da332,
toko bangunan,Toko Bahan Bangunan,Toko Bangunan,"GPWM+QJ4, Jl. Gajah Mada, Nae, Kec. Rasanae Bar., Kab. Bima, Nusa Tenggara Bar. 84117","Jl. Gajah Mada, Nae, Kec. Rasanae Bar., Kab. Bima",NUSA TENGGARA BARAT,84117.0,Indonesia,,,,-84.531.241,1.187.340.686,https://maps.google.com/?cid=0x0:0x83fe0f35102f017e,
toko bangunan,Toko Perlengkapan Rumah,Sinar Sejati,"GQC8+6V5, Jl. Lintas Bima-Sape, Rabadompu Tim., Kec. Raba, Kab. Bima, Nusa Tenggara Bar. 84115","Jl. Lintas Bima-Sape, Rabadompu Tim., Kec. Raba, Kab. Bima",NUSA TENGGARA BARAT,84115.0,Indonesia,,,,-84.794.773,1.187.672.197,https://maps.google.com/?cid=0x0:0x64742d062e4b0ddf,
toko bangunan,Toko Bahan Bangunan,Bima Citra UD,"Jl. Gatot Subroto No.07, Sadia, Kec. Mpunda, Kab. Bima, Nusa Tenggara Bar. 84115","Sadia, Kec. Mpunda, Kab. Bima",NUSA TENGGARA BARAT,84115.0,Indonesia,37442836,,,-84.656.027,1.187.436.736,https://maps.google.com/?cid=0x0:0x6ef58664e72a7340,
toko bangunan,Toko Bahan Bangunan,Ud. Qalbi,"Jl. Gatot Subroto, Sadia, Kec. Mpunda, Kab. Bima, Nusa Tenggara Bar. 84116","Sadia, Kec. Mpunda, Kab. Bima",NUSA TENGGARA BARAT,84116.0,Indonesia,85217766454,,,-84.664.618,1.187.432.989,https://maps.google.com/?cid=0x0:0xa22c1ef3f30976d7,
toko bangunan,Toko Bahan Bangunan,SUMBER BAJA BIMA (SBJ),"Jl. Soekarno Hatta, Paruga, Kec. Rasanae Bar., Kab. Bima, Nusa Tenggara Bar. 84118","Paruga, Kec. Rasanae Bar., Kab. Bima",NUSA TENGGARA BARAT,84118.0,Indonesia,81933023351,,,-84.542.252,1.187.249.505,https://maps.google.com/?cid=0x0:0xe6b3a7f8de548117,
toko bangunan,Toko Bahan Bangunan,Toko Terima Kasih,"GPXG+74J, Jl. Sultan Hasannudin, Sarae, Kec. Rasanae Bar., Kab. Bima, Nusa Tenggara Bar. 84118","Jl. Sultan Hasannudin, Sarae, Kec. Rasanae Bar., Kab. Bima",NUSA TENGGARA BARAT,84118.0,Indonesia,,,,-84.517.774,1.187.252.528,https://maps.google.com/?cid=0x0:0xf20df92b9f4b3e15,
toko bangunan,Toko Perlengkapan Rumah,Toko Bangunan Relasi Jaya (RJ),"FPFQ+PRV, Jl. Raya Bantarsari, Bantarsari, Kec. Ranca Bungur, Kabupaten Bogor, Jawa Barat 16310","Jl. Raya Bantarsari, Bantarsari, Kec. Ranca Bungur, Kabupaten Bogor",NUSA TENGGARA BARAT,16310.0,Indonesia,,,,-65.256.371,1.067.395.612,https://maps.google.com/?cid=0x0:0x332f09d683a156bc,
toko bangunan,Toko Bahan Bangunan,TB.KOTA BARU,"Jl. Raya Dago No.89, Kabasiran, Kec. Parung Panjang, Kabupaten Bogor, Jawa Barat 16360","Kabasiran, Kec. Parung Panjang, Kabupaten Bogor",NUSA TENGGARA BARAT,16360.0,Indonesia,82124871300,,,-63.491.251,1.065.763.213,https://maps.google.com/?cid=0x0:0xdc24b1b7a5075d15,
toko bangunan,toko bangunan,Nusa Tenggara Bar. 84115,"Kab. Bima, Nusa Tenggara Bar.","Kab. Bima, Nusa Tenggara Bar.",NUSA TENGGARA BARAT,,Indonesia,,,,-84.769.135,1.187.839.274,https://maps.google.com/?cid=0x0:0x1211695e5508ddbe,
toko bangunan,Toko Bahan Bangunan,TOKO BANGUNAN RIZKI PERKASA,"Jl. Jend.Sudirman No.55, Rabangodu Sel., Kec. Raba, Kab. Bima, Nusa Tenggara Bar. 84111","Rabangodu Sel., Kec. Raba, Kab. Bima",NUSA TENGGARA BARAT,84111.0,Indonesia,85333711993,,,-84.706.138,1.187.530.179,https://maps.google.com/?cid=0x0:0xc564737777aa62a0,
toko bangunan,Toko Bahan Bangunan,Sinar Surya Bangunan,"Jl. Soekarno Hatta No.095, Rabangodu Utara, Kec. Raba, Kab. Bima, Nusa Tenggara Bar. 84113","Rabangodu Utara, Kec. Raba, Kab. Bima",NUSA TENGGARA BARAT,84113.0,Indonesia,81237979988,,,-84.660.992,1.187.564.456,https://maps.google.com/?cid=0x0:0xd8ebbf8799589138,
toko bangunan,Toko Bahan Bangunan,TB. Harmonis,"Jl. Soekarno Hatta No.51, Rabangodu Utara, Kec. Raba, Kab. Bima, Nusa Tenggara Bar. 84115","Rabangodu Utara, Kec. Raba, Kab. Bima",NUSA TENGGARA BARAT,84115.0,Indonesia,37444442,,,-84.688.655,1.187.601.888,https://maps.google.com/?cid=0x0:0x2490aa5b2a59ec7,
toko bangunan,Toko Bahan Bangunan,Toko Sumber Bangunan,"Jl. Sultan Hasannudin, Sarae, Kec. Rasanae Bar., Kab. Bima, Nusa Tenggara Bar. 84118","Sarae, Kec. Rasanae Bar., Kab. Bima",NUSA TENGGARA BARAT,84118.0,Indonesia,,,,-84.517.985,1.187.254.249,https://maps.google.com/?cid=0x0:0x4ac52ceb0bceb7c3,
toko bangunan,Toko Bahan Bangunan,Toko Bangunan MUTIARA,"Jl. Jend.Sudirman No.2, Mande, Kec. Mpunda, Kab. Bima, Nusa Tenggara Bar. 84116","Mande, Kec. Mpunda, Kab. Bima",NUSA TENGGARA BARAT,84116.0,Indonesia,,,,-84.683.102,1.187.472.807,https://maps.google.com/?cid=0x0:0x13b4e5683147c156,
toko bangunan,Toko Bahan Bangunan,DEPO SUMBER BANGUNAN BIMA,"Paruga, Kec. Rasanae Bar., Kab. Bima, Nusa Tenggara Bar. 84118","Kec. Rasanae Bar., Kab. Bima",NUSA TENGGARA BARAT,84118.0,Indonesia,8113833767,,,-84.542.875,1.187.178.281,https://maps.google.com/?cid=0x0:0x5695533ae32f5737,
toko bangunan,Toko Bahan Bangunan,Toko Jaya Raya Bima,"Sarae, Kec. Rasanae Bar., Kab. Bima, Nusa Tenggara Bar. 84118","Kec. Rasanae Bar., Kab. Bima",NUSA TENGGARA BARAT,84118.0,Indonesia,85330528388,,,-84.518.611,1.187.262.007,https://maps.google.com/?cid=0x0:0xb6db89df32cc3e8d,
toko bangunan,Toko Bahan Bangunan,UD. TUNAS HARAPAN,"Ntobo, Kec. Raba, Kab. Bima, Nusa Tenggara Bar. 84119","Kec. Raba, Kab. Bima",NUSA TENGGARA BARAT,84119.0,Indonesia,85339794375,,,-84.507.642,1.187.756.348,https://maps.google.com/?cid=0x0:0x470833802710d141,
toko bangunan,Toko Bahan Bangunan,UD. BERKAH Toko Bangunan,"ud berkah, Jl. Jend.Sudirman No.16, Mande, Kec. Mpunda, Kab. Bima, Nusa Tenggara Bar. 84116","Jl. Jend.Sudirman No.16, Mande, Kec. Mpunda, Kab. Bima",NUSA TENGGARA BARAT,84116.0,Indonesia,85205392224,,,-84.675.525,1.187.457.912,https://maps.google.com/?cid=0x0:0xd2625bed0d487d7a,
toko bangunan,Toko Bahan Bangunan,UD. WAHYUNINGSIH,"GQP6+X3C, Jl. Pembangunan, Penaraga, Kec. Raba, Kab. Bima, Nusa Tenggara Bar. 84115","Jl. Pembangunan, Penaraga, Kec. Raba, Kab. Bima",NUSA TENGGARA BARAT,84115.0,Indonesia,85338376787,,,-84.625.671,1.187.601.389,https://maps.google.com/?cid=0x0:0x28d1b149534bb0c1,
toko bangunan,Toko Bahan Bangunan,Toko Jaya Raya Sadia,"Jl. Gatot Subroto, Sadia, Kec. Mpunda, Kab. Bima, Nusa Tenggara Bar. 84117","Sadia, Kec. Mpunda, Kab. Bima",NUSA TENGGARA BARAT,84117.0,Indonesia,85211115712,,,-84.629.024,1.187.446.262,https://maps.google.com/?cid=0x0:0xe45a8851654b6a11,
toko bangunan,Toko Bahan Bangunan,UD. DELAPAN ENAM,"Jl. Jend.Sudirman No.42, Mande, Kec. Mpunda, Kab. Bima, Nusa Tenggara Bar. 84111","Mande, Kec. Mpunda, Kab. Bima",NUSA TENGGARA BARAT,84111.0,Indonesia,82340585185,,,-84.695.457,1.187.502.314,https://maps.google.com/?cid=0x0:0xac8375d80a5da332,
toko bangunan,Toko,Kompleks Pertokoan Raba,"Rabangodu Utara, Kec. Raba, Kab. Bima, Nusa Tenggara Bar. 84115","Kec. Raba, Kab. Bima",NUSA TENGGARA BARAT,84115.0,Indonesia,,,,-84.696.461,118.760.293,https://maps.google.com/?cid=0x0:0x9d1e7f2e03afd090,
toko bangunan,Toko Bahan Bangunan,Bima Citra UD,"Jl. Gatot Subroto No.07, Sadia, Kec. Mpunda, Kab. Bima, Nusa Tenggara Bar. 84115","Sadia, Kec. Mpunda, Kab. Bima",NUSA TENGGARA BARAT,84115.0,Indonesia,37442836,,,-84.656.027,1.187.436.736,https://maps.google.com/?cid=0x0:0x6ef58664e72a7340,
toko bangunan,Toko Bahan Bangunan,Duta bangunan bima,"GPXG+6JF, Jl. Sultan Hasannudin, Sarae, Kec. Rasanae Bar., Kab. Bima, Nusa Tenggara Bar. 84118","Jl. Sultan Hasannudin, Sarae, Kec. Rasanae Bar., Kab. Bima",NUSA TENGGARA BARAT,84118.0,Indonesia,"8,12144E+11",,,-84.519.374,1.187.265.603,https://maps.google.com/?cid=0x0:0x2694848498846a,
toko bangunan,Toko Bahan Bangunan,Toko Bangunan,"GPWM+QJ4, Jl. Gajah Mada, Nae, Kec. Rasanae Bar., Kab. Bima, Nusa Tenggara Bar. 84117","Jl. Gajah Mada, Nae, Kec. Rasanae Bar., Kab. Bima",NUSA TENGGARA BARAT,84117.0,Indonesia,,,,-84.531.241,1.187.340.686,https://maps.google.com/?cid=0x0:0x83fe0f35102f017e,
toko bangunan,Toko Bahan Bangunan,Ud. Qalbi,"Jl. Gatot Subroto, Sadia, Kec. Mpunda, Kab. Bima, Nusa Tenggara Bar. 84116","Sadia, Kec. Mpunda, Kab. Bima",NUSA TENGGARA BARAT,84116.0,Indonesia,85217766454,,,-84.664.618,1.187.432.989,https://maps.google.com/?cid=0x0:0xa22c1ef3f30976d7,
toko bangunan,Toko Perlengkapan Rumah,Sinar Sejati,"GQC8+6V5, Jl. Lintas Bima-Sape, Rabadompu Tim., Kec. Raba, Kab. Bima, Nusa Tenggara Bar. 84115","Jl. Lintas Bima-Sape, Rabadompu Tim., Kec. Raba, Kab. Bima",NUSA TENGGARA BARAT,84115.0,Indonesia,,,,-84.794.773,1.187.672.197,https://maps.google.com/?cid=0x0:0x64742d062e4b0ddf,
toko bangunan,Toko Bahan Bangunan,Toko Terima Kasih,"GPXG+74J, Jl. Sultan Hasannudin, Sarae, Kec. Rasanae Bar., Kab. Bima, Nusa Tenggara Bar. 84118","Jl. Sultan Hasannudin, Sarae, Kec. Rasanae Bar., Kab. Bima",NUSA TENGGARA BARAT,84118.0,Indonesia,,,,-84.517.774,1.187.252.528,https://maps.google.com/?cid=0x0:0xf20df92b9f4b3e15,
toko bangunan,Toko Bahan Bangunan,Super Bangunan Supermarket Bahan Bangun No #1,"Jl. Raya Cikaret No.8, Harapan Jaya, Kec. Cibinong, Kabupaten Bogor, Jawa Barat 16914","Harapan Jaya, Kec. Cibinong, Kabupaten Bogor",NUSA TENGGARA BARAT,16914.0,Indonesia,85710923235,,,-64.669.858,1.068.393.338,https://maps.google.com/?cid=0x0:0x53373791abd65da6,
toko bangunan,Toko Bahan Bangunan,Toko Bangunan Thalia,"Jl. Margonda No.96, Kemiri Muka, Kecamatan Beji, Kota Depok, Jawa Barat 16431","Kemiri Muka, Kecamatan Beji, Kota Depok",NUSA TENGGARA BARAT,16431.0,Indonesia,217774255,,,-638.795,1.068.265.356,https://maps.google.com/?cid=0x0:0xc0406bbed711ddfd,
toko bangunan,Toko Bahan Bangunan,TB. BERKAT MAKMUR,"Jl. Masjid Abidin No.24, RT.8/RW.6, Pd. Bambu, Kec. Duren Sawit, Kota Jakarta Timur, Daerah Khusus Ibukota Jakarta 13430","RT.8/RW.6, Pd. Bambu, Kec. Duren Sawit, Kota Jakarta Timur",NUSA TENGGARA BARAT,13430.0,Indonesia,,,,-62.290.933,1.069.029.323,https://maps.google.com/?cid=0x0:0xa0e6cebea53b5c2a,
toko bangunan,Toko Bahan Bangunan,TB.KOTA BARU,"Jl. Raya Dago No.89, Kabasiran, Kec. Parung Panjang, Kabupaten Bogor, Jawa Barat 16360","Kabasiran, Kec. Parung Panjang, Kabupaten Bogor",NUSA TENGGARA BARAT,16360.0,Indonesia,82124871300,,,-63.491.251,1.065.763.213,https://maps.google.com/?cid=0x0:0xdc24b1b7a5075d15,
toko bangunan,Toko Bahan Bangunan,Tirta Bangunan Supermarket,"Jl. Raya Sawangan No.88, Pancoran MAS, Kec. Pancoran Mas, Kota Depok, Jawa Barat 16436","Pancoran MAS, Kec. Pancoran Mas, Kota Depok",NUSA TENGGARA BARAT,16436.0,Indonesia,2177216007,,,-63.956.644,1.068.033.311,https://maps.google.com/?cid=0x0:0xb2a503adeb35329d,
toko bangunan,Toko Bahan Bangunan,Supermarket Acc Bangunan,"Jl. Raya Sawangan No.18, Depok I, Kec. Pancoran Mas, Kota Depok, Jawa Barat 16436","Depok I, Kec. Pancoran Mas, Kota Depok",NUSA TENGGARA BARAT,16436.0,Indonesia,87781340350,,,-6.398.724,10.681.099,https://maps.google.com/?cid=0x0:0xa5cc5981158e131e,
toko bangunan,Pemasok Bahan Bangunan,Toko Bahan Bangunan ACC,"Jl. Kramat Sentiong No.37B 11, RT.11/RW.6, Kramat, Kec. Senen, Kota Jakarta Pusat, Daerah Khusus Ibukota Jakarta 10450","RT.11/RW.6, Kramat, Kec. Senen, Kota Jakarta Pusat",NUSA TENGGARA BARAT,10450.0,Indonesia,81264671628,,,-61.869.307,1.068.487.651,https://maps.google.com/?cid=0x0:0xd964f4925c4ce79e,
toko bangunan,Toko,Toko Bangunan 75,"CM6W+GJG, Tenga, Kec. Woha, Kabupaten Bima, Nusa Tenggara Bar. 84171","Tenga, Kec. Woha, Kabupaten Bima",NUSA TENGGARA BARAT,84171.0,Indonesia,37481070,,,-85.886.849,1.186.965.868,https://maps.google.com/?cid=0x0:0x2cc9126a4373acda,
toko bangunan,Toko Bahan Bangunan,Sinar Abadi,"Jl. Sultan Hasannudin No.43, Sarae, Kec. Rasanae Bar., Kab. Bima, Nusa Tenggara Bar. 84118","Sarae, Kec. Rasanae Bar., Kab. Bima",NUSA TENGGARA BARAT,84118.0,Indonesia,85338178008,,,-84.519.157,1.187.249.905,https://maps.google.com/?cid=0x0:0xc9ccc6bc98ea86da,
toko bangunan,toko bangunan,Kec. Raba,"Kab. Bima, Nusa Tenggara Bar.","Kab. Bima, Nusa Tenggara Bar.",NUSA TENGGARA BARAT,,Indonesia,,,,-84.666.508,118.757.814,https://maps.google.com/?cid=0x0:0xce956a7089b21641,
toko bangunan,Toko Bahan Bangunan,TOKO BANGUNAN RIZKI PERKASA,"Jl. Jend.Sudirman No.55, Rabangodu Sel., Kec. Raba, Kab. Bima, Nusa Tenggara Bar. 84111","Rabangodu Sel., Kec. Raba, Kab. Bima",NUSA TENGGARA BARAT,84111.0,Indonesia,85333711993,,,-84.706.138,1.187.530.179,https://maps.google.com/?cid=0x0:0xc564737777aa62a0,
toko bangunan,Toko Bahan Bangunan,Sinar Surya Bangunan,"Jl. Soekarno Hatta No.095, Rabangodu Utara, Kec. Raba, Kab. Bima, Nusa Tenggara Bar. 84113","Rabangodu Utara, Kec. Raba, Kab. Bima",NUSA TENGGARA BARAT,84113.0,Indonesia,81237979988,,,-84.660.992,1.187.564.456,https://maps.google.com/?cid=0x0:0xd8ebbf8799589138,
toko bangunan,Toko Bahan Bangunan,Toko Jaya Raya Sadia,"Jl. Gatot Subroto, Sadia, Kec. Mpunda, Kab. Bima, Nusa Tenggara Bar. 84117","Sadia, Kec. Mpunda, Kab. Bima",NUSA TENGGARA BARAT,84117.0,Indonesia,85211115712,,,-84.629.024,1.187.446.262,https://maps.google.com/?cid=0x0:0xe45a8851654b6a11,
toko bangunan,Toko Bahan Bangunan,Toko Bangunan MUTIARA,"Jl. Jend.Sudirman No.2, Mande, Kec. Mpunda, Kab. Bima, Nusa Tenggara Bar. 84116","Mande, Kec. Mpunda, Kab. Bima",NUSA TENGGARA BARAT,84116.0,Indonesia,,,,-84.683.102,1.187.472.807,https://maps.google.com/?cid=0x0:0x13b4e5683147c156,
toko bangunan,Toko Bahan Bangunan,Toko Sumber Bangunan,"Jl. Sultan Hasannudin, Sarae, Kec. Rasanae Bar., Kab. Bima, Nusa Tenggara Bar. 84118","Sarae, Kec. Rasanae Bar., Kab. Bima",NUSA TENGGARA BARAT,84118.0,Indonesia,,,,-84.517.985,1.187.254.249,https://maps.google.com/?cid=0x0:0x4ac52ceb0bceb7c3,
toko bangunan,Toko Bahan Bangunan,TB. Harmonis,"Jl. Soekarno Hatta No.51, Rabangodu Utara, Kec. Raba, Kab. Bima, Nusa Tenggara Bar. 84115","Rabangodu Utara, Kec. Raba, Kab. Bima",NUSA TENGGARA BARAT,84115.0,Indonesia,37444442,,,-84.688.655,1.187.601.888,https://maps.google.com/?cid=0x0:0x2490aa5b2a59ec7,
toko bangunan,Toko Bahan Bangunan,Toko Bangunan Laba-laba,"JL Dana Traha, RT. 05 RW. 01, Bedi, Manggemaci, Manggemaci, Bima, Kab. Bima, Nusa Tenggara Bar. 84112","RT. 05 RW. 01, Bedi, Manggemaci, Manggemaci, Bima, Kab. Bima",NUSA TENGGARA BARAT,84112.0,Indonesia,37442249,,,-84.652.918,1.187.386.644,https://maps.google.com/?cid=0x0:0x54780128b44ad13f,
toko bangunan,Toko Bahan Bangunan,Toko Jaya Raya Bima,"Sarae, Kec. Rasanae Bar., Kab. Bima, Nusa Tenggara Bar. 84118","Kec. Rasanae Bar., Kab. Bima",NUSA TENGGARA BARAT,84118.0,Indonesia,85330528388,,,-84.518.611,1.187.262.007,https://maps.google.com/?cid=0x0:0xb6db89df32cc3e8d,
toko bangunan,Toko,"TOKO NABILA.( materia Bangunan,)","2 NTB., Jl. Gatot Subroto, Sadia, Kec. Mpunda, Kab. Bima, Nusa Tenggara Bar. 84111","Jl. Gatot Subroto, Sadia, Kec. Mpunda, Kab. Bima",NUSA TENGGARA BARAT,84111.0,Indonesia,,,,-84.683.066,1.187.426.541,https://maps.google.com/?cid=0x0:0xcb478aee3caa8125,
toko bangunan,Toko Bahan Bangunan,UD. BERKAH Toko Bangunan,"ud berkah, Jl. Jend.Sudirman No.16, Mande, Kec. Mpunda, Kab. Bima, Nusa Tenggara Bar. 84116","Jl. Jend.Sudirman No.16, Mande, Kec. Mpunda, Kab. Bima",NUSA TENGGARA BARAT,84116.0,Indonesia,85205392224,,,-84.675.525,1.187.457.912,https://maps.google.com/?cid=0x0:0xd2625bed0d487d7a,
toko bangunan,Toko Bahan Bangunan,DEPO SUMBER BANGUNAN BIMA,"Paruga, Kec. Rasanae Bar., Kab. Bima, Nusa Tenggara Bar. 84118","Kec. Rasanae Bar., Kab. Bima",NUSA TENGGARA BARAT,84118.0,Indonesia,8113833767,,,-84.542.875,1.187.178.281,https://maps.google.com/?cid=0x0:0x5695533ae32f5737,
toko bangunan,Toko Bahan Bangunan,UD. TUNAS HARAPAN,"Ntobo, Kec. Raba, Kab. Bima, Nusa Tenggara Bar. 84119","Kec. Raba, Kab. Bima",NUSA TENGGARA BARAT,84119.0,Indonesia,85339794375,,,-84.507.642,1.187.756.348,https://maps.google.com/?cid=0x0:0x470833802710d141,
toko bangunan,Toko,TB. Cahaya Makmur Lestari,"Santi 1 Barat Ruko Coklat Toko Bangunan Cahaya Makmur Lestari, Santi, Kec. Mpunda, Kab. Bima, Nusa Tenggara Bar. 84119","Santi, Kec. Mpunda, Kab. Bima",NUSA TENGGARA BARAT,84119.0,Indonesia,81236434428,,,-84.540.836,1.187.443.901,https://maps.google.com/?cid=0x0:0xcd7545fe3a3576cd,
toko bangunan,Toko Bahan Bangunan,UD. DELAPAN ENAM,"Jl. Jend.Sudirman No.42, Mande, Kec. Mpunda, Kab. Bima, Nusa Tenggara Bar. 84111","Mande, Kec. Mpunda, Kab. Bima",NUSA TENGGARA BARAT,84111.0,Indonesia,82340585185,,,-84.695.457,1.187.502.314,https://maps.google.com/?cid=0x0:0xac8375d80a5da332,
toko bangunan,Toko Bahan Bangunan,Bima Citra UD,"Jl. Gatot Subroto No.07, Sadia, Kec. Mpunda, Kab. Bima, Nusa Tenggara Bar. 84115","Sadia, Kec. Mpunda, Kab. Bima",NUSA TENGGARA BARAT,84115.0,Indonesia,37442836,,,-84.656.027,1.187.436.736,https://maps.google.com/?cid=0x0:0x6ef58664e72a7340,
toko bangunan,Toko Bahan Bangunan,Nusa Tenggara Barat,"GPPV+7XR, Lewirato, Kec. Mpunda, Kab. Bima, Nusa Tenggara Bar. 84116","Lewirato, Kec. Mpunda, Kab. Bima",NUSA TENGGARA BARAT,84116.0,Indonesia,82359329070,,,-84.642.567,1.187.448.783,https://maps.google.com/?cid=0x0:0x57c6cacdc293bb29,
toko bangunan,Toko Bahan Bangunan,UD TUNAS JAYA,"Jl. Gatot Subroto, Santi, Kec. Mpunda, Kab. Bima, Nusa Tenggara Bar. 84116","Santi, Kec. Mpunda, Kab. Bima",NUSA TENGGARA BARAT,84116.0,Indonesia,82339862302,,,-84.579.868,1.187.471.572,https://maps.google.com/?cid=0x0:0x5467c3768a2eabf0,
toko bangunan,Toko Bahan Bangunan,MITRA BANGUNAN,"Jl. Sultan Hasannudin No.8, Sarae, Kec. Rasanae Bar., Kab. Bima, Nusa Tenggara Bar. 84117","Sarae, Kec. Rasanae Bar., Kab. Bima",NUSA TENGGARA BARAT,84117.0,Indonesia,82335805080,,,-84.519.793,1.187.253.457,https://maps.google.com/?cid=0x0:0x7cbaac2e14760b45,
toko bangunan,Toko Bahan Bangunan,Ud. Qalbi,"Jl. Gatot Subroto, Sadia, Kec. Mpunda, Kab. Bima, Nusa Tenggara Bar. 84116","Sadia, Kec. Mpunda, Kab. Bima",NUSA TENGGARA BARAT,84116.0,Indonesia,85217766454,,,-84.664.618,1.187.432.989,https://maps.google.com/?cid=0x0:0xa22c1ef3f30976d7,
toko bangunan,Toko Bahan Bangunan,UD. WAHYUNINGSIH,"GQP6+X3C, Jl. Pembangunan, Penaraga, Kec. Raba, Kab. Bima, Nusa Tenggara Bar. 84115","Jl. Pembangunan, Penaraga, Kec. Raba, Kab. Bima",NUSA TENGGARA BARAT,84115.0,Indonesia,85338376787,,,-84.625.671,1.187.601.389,https://maps.google.com/?cid=0x0:0x28d1b149534bb0c1,
toko bangunan,Pemasok Bahan Bangunan,Toko Bahan Bangunan ACC,"Jl. Kramat Sentiong No.37B 11, RT.11/RW.6, Kramat, Kec. Senen, Kota Jakarta Pusat, Daerah Khusus Ibukota Jakarta 10450","RT.11/RW.6, Kramat, Kec. Senen, Kota Jakarta Pusat",NUSA TENGGARA BARAT,10450.0,Indonesia,81264671628,,,-61.869.307,1.068.487.651,https://maps.google.com/?cid=0x0:0xd964f4925c4ce79e,
toko bangunan,Toko Bahan Bangunan,TB. BERKAT MAKMUR,"Jl. Masjid Abidin No.24, RT.8/RW.6, Pd. Bambu, Kec. Duren Sawit, Kota Jakarta Timur, Daerah Khusus Ibukota Jakarta 13430","RT.8/RW.6, Pd. Bambu, Kec. Duren Sawit, Kota Jakarta Timur",NUSA TENGGARA BARAT,13430.0,Indonesia,,,,-62.290.933,1.069.029.323,https://maps.google.com/?cid=0x0:0xa0e6cebea53b5c2a,
toko bangunan,toko bangunan,Toko QurratuL Berkah,"Desa raba dusun raba wawo RT 09, Kabupaten Bima, Nusa Tenggara Bar.","Kabupaten Bima, Nusa Tenggara Bar.",NUSA TENGGARA BARAT,,Indonesia,,,,-85.569.031,1.188.888.064,https://maps.google.com/?cid=0x0:0x82322a8fdbd1160d,
toko bangunan,toko bangunan,Kec. Rasanae Bar.,"Kab. Bima, Nusa Tenggara Bar.","Kab. Bima, Nusa Tenggara Bar.",NUSA TENGGARA BARAT,,Indonesia,,,,-84.540.632,1.187.241.865,https://maps.google.com/?cid=0x0:0x716674d420dfa05,
toko bangunan,Toko Bahan Bangunan,Toko Jaya Raya Bima,"Sarae, Kec. Rasanae Bar., Kab. Bima, Nusa Tenggara Bar. 84118","Kec. Rasanae Bar., Kab. Bima",NUSA TENGGARA BARAT,84118.0,Indonesia,85330528388,,,-84.518.611,1.187.262.007,https://maps.google.com/?cid=0x0:0xb6db89df32cc3e8d,
toko bangunan,Toko Bahan Bangunan,Toko Sumber Bangunan,"Jl. Sultan Hasannudin, Sarae, Kec. Rasanae Bar., Kab. Bima, Nusa Tenggara Bar. 84118","Sarae, Kec. Rasanae Bar., Kab. Bima",NUSA TENGGARA BARAT,84118.0,Indonesia,,,,-84.517.985,1.187.254.249,https://maps.google.com/?cid=0x0:0x4ac52ceb0bceb7c3,
toko bangunan,Toko Bahan Bangunan,DEPO SUMBER BANGUNAN BIMA,"Paruga, Kec. Rasanae Bar., Kab. Bima, Nusa Tenggara Bar. 84118","Kec. Rasanae Bar., Kab. Bima",NUSA TENGGARA BARAT,84118.0,Indonesia,8113833767,,,-84.542.875,1.187.178.281,https://maps.google.com/?cid=0x0:0x5695533ae32f5737,
toko bangunan,Toko Bahan Bangunan,Sinar Abadi,"Jl. Sultan Hasannudin No.43, Sarae, Kec. Rasanae Bar., Kab. Bima, Nusa Tenggara Bar. 84118","Sarae, Kec. Rasanae Bar., Kab. Bima",NUSA TENGGARA BARAT,84118.0,Indonesia,85338178008,,,-84.519.157,1.187.249.905,https://maps.google.com/?cid=0x0:0xc9ccc6bc98ea86da,
toko bangunan,Toko Bahan Bangunan,MITRA BANGUNAN,"Jl. Sultan Hasannudin No.8, Sarae, Kec. Rasanae Bar., Kab. Bima, Nusa Tenggara Bar. 84117","Sarae, Kec. Rasanae Bar., Kab. Bima",NUSA TENGGARA BARAT,84117.0,Indonesia,82335805080,,,-84.519.793,1.187.253.457,https://maps.google.com/?cid=0x0:0x7cbaac2e14760b45,
toko bangunan,Toko Bahan Bangunan,UD. Antara Jaya,"Jl. Bandeng No.1, Paruga, Kec. Rasanae Bar., Kab. Bima, Nusa Tenggara Bar. 84118","Paruga, Kec. Rasanae Bar., Kab. Bima",NUSA TENGGARA BARAT,84118.0,Indonesia,85337731052,,,-84.537.394,1.187.216.624,https://maps.google.com/?cid=0x0:0xb63f3b38a8b0ada5,
toko bangunan,Toko Bahan Bangunan,TB. Arta Wiguna Bima,"Nae, Kec. Rasanae Bar., Kab. Bima, Nusa Tenggara Bar. 84117","Kec. Rasanae Bar., Kab. Bima",NUSA TENGGARA BARAT,84117.0,Indonesia,8124666130,,,-84.530.809,1.187.341.068,https://maps.google.com/?cid=0x0:0x342c0e4009c321e0,
toko bangunan,Toko Bahan Bangunan,UD. Karya Baru,"GPWM+6G3, JL Sultan Hasanuddin, Pane, Kec. Rasanae Bar., Kab. Bima, Nusa Tenggara Bar. 84111","JL Sultan Hasanuddin, Pane, Kec. Rasanae Bar., Kab. Bima",NUSA TENGGARA BARAT,84111.0,Indonesia,37442084,,,-84.544.928,1.187.337.946,https://maps.google.com/?cid=0x0:0x3fe33afc5350b7a9,
toko bangunan,Toko Bahan Bangunan,Toko Bangunan,"GPWM+QJ4, Jl. Gajah Mada, Nae, Kec. Rasanae Bar., Kab. Bima, Nusa Tenggara Bar. 84117","Jl. Gajah Mada, Nae, Kec. Rasanae Bar., Kab. Bima",NUSA TENGGARA BARAT,84117.0,Indonesia,,,,-84.531.241,1.187.340.686,https://maps.google.com/?cid=0x0:0x83fe0f35102f017e,
toko bangunan,Toko Bahan Bangunan,Toko Bangunan Laba-laba,"JL Dana Traha, RT. 05 RW. 01, Bedi, Manggemaci, Manggemaci, Bima, Kab. Bima, Nusa Tenggara Bar. 84112","RT. 05 RW. 01, Bedi, Manggemaci, Manggemaci, Bima, Kab. Bima",NUSA TENGGARA BARAT,84112.0,Indonesia,37442249,,,-84.652.918,1.187.386.644,https://maps.google.com/?cid=0x0:0x54780128b44ad13f,
toko bangunan,Toko Bahan Bangunan,Fajar Cerah,"Sarae, Kec. Rasanae Bar., Kab. Bima, Nusa Tenggara Bar. 84118","Kec. Rasanae Bar., Kab. Bima",NUSA TENGGARA BARAT,84118.0,Indonesia,,,,-84.518.814,1.187.258.516,https://maps.google.com/?cid=0x0:0xfe237cc16fe8c957,
toko bangunan,Toko Bahan Bangunan,Bintang mas,"Jl. Sultan Hasannudin, Sarae, Kec. Rasanae Bar., Kab. Bima, Nusa Tenggara Bar. 84118","Sarae, Kec. Rasanae Bar., Kab. Bima",NUSA TENGGARA BARAT,84118.0,Indonesia,85337205120,,,-84.521.036,1.187.296.354,https://maps.google.com/?cid=0x0:0xf54f985a2bb453e7,
toko bangunan,Toko Bahan Bangunan,Duta bangunan bima,"GPXG+6JF, Jl. Sultan Hasannudin, Sarae, Kec. Rasanae Bar., Kab. Bima, Nusa Tenggara Bar. 84118","Jl. Sultan Hasannudin, Sarae, Kec. Rasanae Bar., Kab. Bima",NUSA TENGGARA BARAT,84118.0,Indonesia,"8,12144E+11",,,-84.519.374,1.187.265.603,https://maps.google.com/?cid=0x0:0x2694848498846a,
toko bangunan,Toko Bahan Bangunan,Jaya raya,"GP76+7WX, Dara, Kec. Rasanae Bar., Kabupaten Bima, Nusa Tenggara Bar.","Kabupaten Bima, Nusa Tenggara Bar.",NUSA TENGGARA BARAT,,Indonesia,,,,-84.867.676,1.187.123.502,https://maps.google.com/?cid=0x0:0x4ae5c0a2c7847da9,
toko bangunan,Toko Bahan Bangunan,Nusa Abadi. CV,"JL Sultan Kaharudin, No. 07, Paruga, Rasanae Barat, Tanjung, Bima, Kab. Bima, Nusa Tenggara Bar. 84111","No. 07, Paruga, Rasanae Barat, Tanjung, Bima, Kab. Bima",NUSA TENGGARA BARAT,84111.0,Indonesia,37442053,,,-84.534.565,1.187.243.717,https://maps.google.com/?cid=0x0:0xd112717e77d8a1a,
toko bangunan,Toko Bahan Bangunan,Sinar Abadi Toko,"Jl. Sultan Muhamad Salahuddin No.4, Dara, Kec. Rasanae Bar., Kab. Bima, Nusa Tenggara Bar. 84118","Dara, Kec. Rasanae Bar., Kab. Bima",NUSA TENGGARA BARAT,84118.0,Indonesia,37442243,,,-84.602.993,1.187.271.845,https://maps.google.com/?cid=0x0:0x85089cf1a89be566,
toko bangunan,Toko Bahan Bangunan,TOKO BANGUNAN RIZKI PERKASA,"Jl. Jend.Sudirman No.55, Rabangodu Sel., Kec. Raba, Kab. Bima, Nusa Tenggara Bar. 84111","Rabangodu Sel., Kec. Raba, Kab. Bima",NUSA TENGGARA BARAT,84111.0,Indonesia,85333711993,,,-84.706.138,1.187.530.179,https://maps.google.com/?cid=0x0:0xc564737777aa62a0,
toko bangunan,Toko Bahan Bangunan,Toko Jaya Raya Sadia,"Jl. Gatot Subroto, Sadia, Kec. Mpunda, Kab. Bima, Nusa Tenggara Bar. 84117","Sadia, Kec. Mpunda, Kab. Bima",NUSA TENGGARA BARAT,84117.0,Indonesia,85211115712,,,-84.629.024,1.187.446.262,https://maps.google.com/?cid=0x0:0xe45a8851654b6a11,
toko bangunan,Toko Bahan Bangunan,Toko Idaman,"GPXG+8FM, Sarae, Kec. Rasanae Bar., Kab. Bima, Nusa Tenggara Bar. 84118","Sarae, Kec. Rasanae Bar., Kab. Bima",NUSA TENGGARA BARAT,84118.0,Indonesia,81338899518,,,-84.516.738,1.187.261.776,https://maps.google.com/?cid=0x0:0x61b8d9904370e487,
toko bangunan,Toko Bahan Bangunan,Hasrat. UD,"Jl. Sultan Muhamad Salahuddin No.4, Dara, Kec. Rasanae Bar., Kab. Bima, Nusa Tenggara Bar. 84118","Dara, Kec. Rasanae Bar., Kab. Bima",NUSA TENGGARA BARAT,84118.0,Indonesia,81339530710,,,-84.600.157,1.187.252.036,https://maps.google.com/?cid=0x0:0x94d301dc62943d3a,
toko bangunan,Toko Bahan Bangunan,Tb. Satria Perdana,"GPXJ+8RV, Jl. Datuk Dibanta, Jatiwangi, Kec. Asakota, Kab. Bima, Nusa Tenggara Bar. 84117","Jl. Datuk Dibanta, Jatiwangi, Kec. Asakota, Kab. Bima",NUSA TENGGARA BARAT,84117.0,Indonesia,,,,-845.163,1.187.320.559,https://maps.google.com/?cid=0x0:0x4046c74f1c30e375,
toko bangunan,Toko Bahan Bangunan,Tk Antara Bangunan,"GPWF+RX9, Jl. Flores, Sarae, Kec. Rasanae Bar., Kab. Bima, Nusa Tenggara Bar. 84118","Jl. Flores, Sarae, Kec. Rasanae Bar., Kab. Bima",NUSA TENGGARA BARAT,84118.0,Indonesia,,,,-8.452.957,1.187.249.968,https://maps.google.com/?cid=0x0:0x727fc31180ce7e3e,
toko bangunan,toko bangunan,Nusa Tenggara Bar. 84116,"Kab. Bima, Nusa Tenggara Bar.","Kab. Bima, Nusa Tenggara Bar.",NUSA TENGGARA BARAT,,Indonesia,,,,-84.328.109,1.187.518.671,https://maps.google.com/?cid=0x0:0x3031d935f9088a16,
toko bangunan,Toko Bahan Bangunan,Toko Jaya Raya Sadia,"Jl. Gatot Subroto, Sadia, Kec. Mpunda, Kab. Bima, Nusa Tenggara Bar. 84117","Sadia, Kec. Mpunda, Kab. Bima",NUSA TENGGARA BARAT,84117.0,Indonesia,85211115712,,,-84.629.024,1.187.446.262,https://maps.google.com/?cid=0x0:0xe45a8851654b6a11,
toko bangunan,Toko Bahan Bangunan,Toko Jaya Raya Bima,"Sarae, Kec. Rasanae Bar., Kab. Bima, Nusa Tenggara Bar. 84118","Kec. Rasanae Bar., Kab. Bima",NUSA TENGGARA BARAT,84118.0,Indonesia,85330528388,,,-84.518.611,1.187.262.007,https://maps.google.com/?cid=0x0:0xb6db89df32cc3e8d,
toko bangunan,Toko Bahan Bangunan,Toko Bangunan Laba-laba,"JL Dana Traha, RT. 05 RW. 01, Bedi, Manggemaci, Manggemaci, Bima, Kab. Bima, Nusa Tenggara Bar. 84112","RT. 05 RW. 01, Bedi, Manggemaci, Manggemaci, Bima, Kab. Bima",NUSA TENGGARA BARAT,84112.0,Indonesia,37442249,,,-84.652.918,1.187.386.644,https://maps.google.com/?cid=0x0:0x54780128b44ad13f,
toko bangunan,Toko Bahan Bangunan,TOKO BANGUNAN RIZKI PERKASA,"Jl. Jend.Sudirman No.55, Rabangodu Sel., Kec. Raba, Kab. Bima, Nusa Tenggara Bar. 84111","Rabangodu Sel., Kec. Raba, Kab. Bima",NUSA TENGGARA BARAT,84111.0,Indonesia,85333711993,,,-84.706.138,1.187.530.179,https://maps.google.com/?cid=0x0:0xc564737777aa62a0,
toko bangunan,Toko Bahan Bangunan,Toko Bangunan Nusantara Abadi,"sultan salahudin No.4, Dara, Kec. Rasanae Bar., Kab. Bima, Nusa Tenggara Bar. 84111","Dara, Kec. Rasanae Bar., Kab. Bima",NUSA TENGGARA BARAT,84111.0,Indonesia,,,,-84.562.579,1.187.237.965,https://maps.google.com/?cid=0x0:0xe3766b659013351e,
toko bangunan,Toko Bahan Bangunan,UD. BERKAH Toko Bangunan,"ud berkah, Jl. Jend.Sudirman No.16, Mande, Kec. Mpunda, Kab. Bima, Nusa Tenggara Bar. 84116","Jl. Jend.Sudirman No.16, Mande, Kec. Mpunda, Kab. Bima",NUSA TENGGARA BARAT,84116.0,Indonesia,85205392224,,,-84.675.525,1.187.457.912,https://maps.google.com/?cid=0x0:0xd2625bed0d487d7a,
toko bangunan,Toko Bahan Bangunan,Toko Sumber Bangunan,"Jl. Sultan Hasannudin, Sarae, Kec. Rasanae Bar., Kab. Bima, Nusa Tenggara Bar. 84118","Sarae, Kec. Rasanae Bar., Kab. Bima",NUSA TENGGARA BARAT,84118.0,Indonesia,,,,-84.517.985,1.187.254.249,https://maps.google.com/?cid=0x0:0x4ac52ceb0bceb7c3,
toko bangunan,Toko Bahan Bangunan,TB. Arta Wiguna Bima,"Nae, Kec. Rasanae Bar., Kab. Bima, Nusa Tenggara Bar. 84117","Kec. Rasanae Bar., Kab. Bima",NUSA TENGGARA BARAT,84117.0,Indonesia,8124666130,,,-84.530.809,1.187.341.068,https://maps.google.com/?cid=0x0:0x342c0e4009c321e0,
toko bangunan,Toko Bahan Bangunan,Sinar Surya Bangunan,"Jl. Soekarno Hatta No.095, Rabangodu Utara, Kec. Raba, Kab. Bima, Nusa Tenggara Bar. 84113","Rabangodu Utara, Kec. Raba, Kab. Bima",NUSA TENGGARA BARAT,84113.0,Indonesia,81237979988,,,-84.660.992,1.187.564.456,https://maps.google.com/?cid=0x0:0xd8ebbf8799589138,
toko bangunan,Toko Bahan Bangunan,DEPO SUMBER BANGUNAN BIMA,"Paruga, Kec. Rasanae Bar., Kab. Bima, Nusa Tenggara Bar. 84118","Kec. Rasanae Bar., Kab. Bima",NUSA TENGGARA BARAT,84118.0,Indonesia,8113833767,,,-84.542.875,1.187.178.281,https://maps.google.com/?cid=0x0:0x5695533ae32f5737,
toko bangunan,Toko Bahan Bangunan,Nusa Tenggara Barat,"GPPV+7XR, Lewirato, Kec. Mpunda, Kab. Bima, Nusa Tenggara Bar. 84116","Lewirato, Kec. Mpunda, Kab. Bima",NUSA TENGGARA BARAT,84116.0,Indonesia,82359329070,,,-84.642.567,1.187.448.783,https://maps.google.com/?cid=0x0:0x57c6cacdc293bb29,
toko bangunan,Toko Bahan Bangunan,Toko Bangunan,"GPWM+QJ4, Jl. Gajah Mada, Nae, Kec. Rasanae Bar., Kab. Bima, Nusa Tenggara Bar. 84117","Jl. Gajah Mada, Nae, Kec. Rasanae Bar., Kab. Bima",NUSA TENGGARA BARAT,84117.0,Indonesia,,,,-84.531.241,1.187.340.686,https://maps.google.com/?cid=0x0:0x83fe0f35102f017e,
toko bangunan,Toko Bahan Bangunan,Sinar Abadi,"Jl. Sultan Hasannudin No.43, Sarae, Kec. Rasanae Bar., Kab. Bima, Nusa Tenggara Bar. 84118","Sarae, Kec. Rasanae Bar., Kab. Bima",NUSA TENGGARA BARAT,84118.0,Indonesia,85338178008,,,-84.519.157,1.187.249.905,https://maps.google.com/?cid=0x0:0xc9ccc6bc98ea86da,
toko bangunan,Toko Bahan Bangunan,UD TUNAS JAYA,"Jl. Gatot Subroto, Santi, Kec. Mpunda, Kab. Bima, Nusa Tenggara Bar. 84116","Santi, Kec. Mpunda, Kab. Bima",NUSA TENGGARA BARAT,84116.0,Indonesia,82339862302,,,-84.579.868,1.187.471.572,https://maps.google.com/?cid=0x0:0x5467c3768a2eabf0,
toko bangunan,Toko,"TOKO NABILA.( materia Bangunan,)","2 NTB., Jl. Gatot Subroto, Sadia, Kec. Mpunda, Kab. Bima, Nusa Tenggara Bar. 84111","Jl. Gatot Subroto, Sadia, Kec. Mpunda, Kab. Bima",NUSA TENGGARA BARAT,84111.0,Indonesia,,,,-84.683.066,1.187.426.541,https://maps.google.com/?cid=0x0:0xcb478aee3caa8125,
toko bangunan,Toko Bahan Bangunan,MITRA BANGUNAN,"Jl. Sultan Hasannudin No.8, Sarae, Kec. Rasanae Bar., Kab. Bima, Nusa Tenggara Bar. 84117","Sarae, Kec. Rasanae Bar., Kab. Bima",NUSA TENGGARA BARAT,84117.0,Indonesia,82335805080,,,-84.519.793,1.187.253.457,https://maps.google.com/?cid=0x0:0x7cbaac2e14760b45,
toko bangunan,Toko Bahan Bangunan,Toko Hasanah,"HQ52+J36, Jl. Datuk Dibanta, Jatibaru, Kec. Asakota, Kab. Bima, Nusa Tenggara Bar. 84116","Jl. Datuk Dibanta, Jatibaru, Kec. Asakota, Kab. Bima",NUSA TENGGARA BARAT,84116.0,Indonesia,82339519219,,,-84.409.742,1.187.501.424,https://maps.google.com/?cid=0x0:0x910b446e2ea8ba77,
toko bangunan,Toko Bahan Bangunan,UD. Karya Baru,"GPWM+6G3, JL Sultan Hasanuddin, Pane, Kec. Rasanae Bar., Kab. Bima, Nusa Tenggara Bar. 84111","JL Sultan Hasanuddin, Pane, Kec. Rasanae Bar., Kab. Bima",NUSA TENGGARA BARAT,84111.0,Indonesia,37442084,,,-84.544.928,1.187.337.946,https://maps.google.com/?cid=0x0:0x3fe33afc5350b7a9,
toko bangunan,Toko Bahan Bangunan,UD. Antara Jaya,"Jl. Bandeng No.1, Paruga, Kec. Rasanae Bar., Kab. Bima, Nusa Tenggara Bar. 84118","Paruga, Kec. Rasanae Bar., Kab. Bima",NUSA TENGGARA BARAT,84118.0,Indonesia,85337731052,,,-84.537.394,1.187.216.624,https://maps.google.com/?cid=0x0:0xb63f3b38a8b0ada5,
toko bangunan,Toko Bahan Bangunan,Bintang mas,"Jl. Sultan Hasannudin, Sarae, Kec. Rasanae Bar., Kab. Bima, Nusa Tenggara Bar. 84118","Sarae, Kec. Rasanae Bar., Kab. Bima",NUSA TENGGARA BARAT,84118.0,Indonesia,85337205120,,,-84.521.036,1.187.296.354,https://maps.google.com/?cid=0x0:0xf54f985a2bb453e7,
toko bangunan,toko bangunan,Kec. Rasanae Bar.,"Kab. Bima, Nusa Tenggara Bar.","Kab. Bima, Nusa Tenggara Bar.",NUSA TENGGARA BARAT,,Indonesia,,,,-84.540.632,1.187.241.865,https://maps.google.com/?cid=0x0:0x716674d420dfa05,
toko bangunan,Toko Bahan Bangunan,Fajar Cerah,"Sarae, Kec. Rasanae Bar., Kab. Bima, Nusa Tenggara Bar. 84118","Kec. Rasanae Bar., Kab. Bima",NUSA TENGGARA BARAT,84118.0,Indonesia,,,,-84.518.814,1.187.258.516,https://maps.google.com/?cid=0x0:0xfe237cc16fe8c957,
toko bangunan,Toko Bahan Bangunan,Jaya raya,"GP76+7WX, Dara, Kec. Rasanae Bar., Kabupaten Bima, Nusa Tenggara Bar.","Kabupaten Bima, Nusa Tenggara Bar.",NUSA TENGGARA BARAT,,Indonesia,,,,-84.867.676,1.187.123.502,https://maps.google.com/?cid=0x0:0x4ae5c0a2c7847da9,
toko bangunan,Toko Bahan Bangunan,Duta bangunan bima,"GPXG+6JF, Jl. Sultan Hasannudin, Sarae, Kec. Rasanae Bar., Kab. Bima, Nusa Tenggara Bar. 84118","Jl. Sultan Hasannudin, Sarae, Kec. Rasanae Bar., Kab. Bima",NUSA TENGGARA BARAT,84118.0,Indonesia,"8,12144E+11",,,-84.519.374,1.187.265.603,https://maps.google.com/?cid=0x0:0x2694848498846a,
toko bangunan,Toko Bahan Bangunan,Tb. Satria Perdana,"GPXJ+8RV, Jl. Datuk Dibanta, Jatiwangi, Kec. Asakota, Kab. Bima, Nusa Tenggara Bar. 84117","Jl. Datuk Dibanta, Jatiwangi, Kec. Asakota, Kab. Bima",NUSA TENGGARA BARAT,84117.0,Indonesia,,,,-845.163,1.187.320.559,https://maps.google.com/?cid=0x0:0x4046c74f1c30e375,
toko bangunan,Toko Bahan Bangunan,Tk Antara Bangunan,"GPWF+RX9, Jl. Flores, Sarae, Kec. Rasanae Bar., Kab. Bima, Nusa Tenggara Bar. 84118","Jl. Flores, Sarae, Kec. Rasanae Bar., Kab. Bima",NUSA TENGGARA BARAT,84118.0,Indonesia,,,,-8.452.957,1.187.249.968,https://maps.google.com/?cid=0x0:0x727fc31180ce7e3e,
toko bangunan,Toko Bahan Bangunan,Hasrat. UD,"Jl. Sultan Muhamad Salahuddin No.4, Dara, Kec. Rasanae Bar., Kab. Bima, Nusa Tenggara Bar. 84118","Dara, Kec. Rasanae Bar., Kab. Bima",NUSA TENGGARA BARAT,84118.0,Indonesia,81339530710,,,-84.600.157,1.187.252.036,https://maps.google.com/?cid=0x0:0x94d301dc62943d3a,
toko bangunan,Toko Bahan Bangunan,Toko Idaman,"GPXG+8FM, Sarae, Kec. Rasanae Bar., Kab. Bima, Nusa Tenggara Bar. 84118","Sarae, Kec. Rasanae Bar., Kab. Bima",NUSA TENGGARA BARAT,84118.0,Indonesia,81338899518,,,-84.516.738,1.187.261.776,https://maps.google.com/?cid=0x0:0x61b8d9904370e487,
toko bangunan,toko bangunan,Nusa Tenggara Bar. 84117,"Jatiwangi, Kec. Asakota, Kab. Bima, Nusa Tenggara Bar.","Kab. Bima, Nusa Tenggara Bar.",NUSA TENGGARA BARAT,,Indonesia,,,,-84.337.387,1.187.402.073,https://maps.google.com/?cid=0x0:0xb14cdce05e5da3df,
toko bangunan,Toko Bahan Bangunan,Toko Jaya Raya Bima,"Sarae, Kec. Rasanae Bar., Kab. Bima, Nusa Tenggara Bar. 84118","Kec. Rasanae Bar., Kab. Bima",NUSA TENGGARA BARAT,84118.0,Indonesia,85330528388,,,-84.518.611,1.187.262.007,https://maps.google.com/?cid=0x0:0xb6db89df32cc3e8d,
toko bangunan,Toko Bahan Bangunan,Toko Jaya Raya Sadia,"Jl. Gatot Subroto, Sadia, Kec. Mpunda, Kab. Bima, Nusa Tenggara Bar. 84117","Sadia, Kec. Mpunda, Kab. Bima",NUSA TENGGARA BARAT,84117.0,Indonesia,85211115712,,,-84.629.024,1.187.446.262,https://maps.google.com/?cid=0x0:0xe45a8851654b6a11,
toko bangunan,Toko Bahan Bangunan,TB. Arta Wiguna Bima,"Nae, Kec. Rasanae Bar., Kab. Bima, Nusa Tenggara Bar. 84117","Kec. Rasanae Bar., Kab. Bima",NUSA TENGGARA BARAT,84117.0,Indonesia,8124666130,,,-84.530.809,1.187.341.068,https://maps.google.com/?cid=0x0:0x342c0e4009c321e0,
toko bangunan,Toko Bahan Bangunan,Toko Bangunan,"GPWM+QJ4, Jl. Gajah Mada, Nae, Kec. Rasanae Bar., Kab. Bima, Nusa Tenggara Bar. 84117","Jl. Gajah Mada, Nae, Kec. Rasanae Bar., Kab. Bima",NUSA TENGGARA BARAT,84117.0,Indonesia,,,,-84.531.241,1.187.340.686,https://maps.google.com/?cid=0x0:0x83fe0f35102f017e,
toko bangunan,Toko Bahan Bangunan,Toko Bangunan Laba-laba,"JL Dana Traha, RT. 05 RW. 01, Bedi, Manggemaci, Manggemaci, Bima, Kab. Bima, Nusa Tenggara Bar. 84112","RT. 05 RW. 01, Bedi, Manggemaci, Manggemaci, Bima, Kab. Bima",NUSA TENGGARA BARAT,84112.0,Indonesia,37442249,,,-84.652.918,1.187.386.644,https://maps.google.com/?cid=0x0:0x54780128b44ad13f,
toko bangunan,Toko Bahan Bangunan,Toko Bangunan Nusantara Abadi,"sultan salahudin No.4, Dara, Kec. Rasanae Bar., Kab. Bima, Nusa Tenggara Bar. 84111","Dara, Kec. Rasanae Bar., Kab. Bima",NUSA TENGGARA BARAT,84111.0,Indonesia,,,,-84.562.579,1.187.237.965,https://maps.google.com/?cid=0x0:0xe3766b659013351e,
toko bangunan,Toko Bahan Bangunan,MITRA BANGUNAN,"Jl. Sultan Hasannudin No.8, Sarae, Kec. Rasanae Bar., Kab. Bima, Nusa Tenggara Bar. 84117","Sarae, Kec. Rasanae Bar., Kab. Bima",NUSA TENGGARA BARAT,84117.0,Indonesia,82335805080,,,-84.519.793,1.187.253.457,https://maps.google.com/?cid=0x0:0x7cbaac2e14760b45,
toko bangunan,Toko Bahan Bangunan,Sinar Abadi,"Jl. Sultan Hasannudin No.43, Sarae, Kec. Rasanae Bar., Kab. Bima, Nusa Tenggara Bar. 84118","Sarae, Kec. Rasanae Bar., Kab. Bima",NUSA TENGGARA BARAT,84118.0,Indonesia,85338178008,,,-84.519.157,1.187.249.905,https://maps.google.com/?cid=0x0:0xc9ccc6bc98ea86da,
toko bangunan,Toko Bahan Bangunan,Bintang mas,"Jl. Sultan Hasannudin, Sarae, Kec. Rasanae Bar., Kab. Bima, Nusa Tenggara Bar. 84118","Sarae, Kec. Rasanae Bar., Kab. Bima",NUSA TENGGARA BARAT,84118.0,Indonesia,85337205120,,,-84.521.036,1.187.296.354,https://maps.google.com/?cid=0x0:0xf54f985a2bb453e7,
toko bangunan,Toko Bahan Bangunan,DEPO SUMBER BANGUNAN BIMA,"Paruga, Kec. Rasanae Bar., Kab. Bima, Nusa Tenggara Bar. 84118","Kec. Rasanae Bar., Kab. Bima",NUSA TENGGARA BARAT,84118.0,Indonesia,8113833767,,,-84.542.875,1.187.178.281,https://maps.google.com/?cid=0x0:0x5695533ae32f5737,
toko bangunan,Toko Bahan Bangunan,UD. Karya Baru,"GPWM+6G3, JL Sultan Hasanuddin, Pane, Kec. Rasanae Bar., Kab. Bima, Nusa Tenggara Bar. 84111","JL Sultan Hasanuddin, Pane, Kec. Rasanae Bar., Kab. Bima",NUSA TENGGARA BARAT,84111.0,Indonesia,37442084,,,-84.544.928,1.187.337.946,https://maps.google.com/?cid=0x0:0x3fe33afc5350b7a9,
toko bangunan,Toko Bahan Bangunan,Fajar Cerah,"Sarae, Kec. Rasanae Bar., Kab. Bima, Nusa Tenggara Bar. 84118","Kec. Rasanae Bar., Kab. Bima",NUSA TENGGARA BARAT,84118.0,Indonesia,,,,-84.518.814,1.187.258.516,https://maps.google.com/?cid=0x0:0xfe237cc16fe8c957,
toko bangunan,Toko Bahan Bangunan,Tb. Satria Perdana,"GPXJ+8RV, Jl. Datuk Dibanta, Jatiwangi, Kec. Asakota, Kab. Bima, Nusa Tenggara Bar. 84117","Jl. Datuk Dibanta, Jatiwangi, Kec. Asakota, Kab. Bima",NUSA TENGGARA BARAT,84117.0,Indonesia,,,,-845.163,1.187.320.559,https://maps.google.com/?cid=0x0:0x4046c74f1c30e375,
toko bangunan,Toko Bahan Bangunan,UD. Antara Jaya,"Jl. Bandeng No.1, Paruga, Kec. Rasanae Bar., Kab. Bima, Nusa Tenggara Bar. 84118","Paruga, Kec. Rasanae Bar., Kab. Bima",NUSA TENGGARA BARAT,84118.0,Indonesia,85337731052,,,-84.537.394,1.187.216.624,https://maps.google.com/?cid=0x0:0xb63f3b38a8b0ada5,
toko bangunan,Toko Bahan Bangunan,Nusa Tenggara Barat,"GPPV+7XR, Lewirato, Kec. Mpunda, Kab. Bima, Nusa Tenggara Bar. 84116","Lewirato, Kec. Mpunda, Kab. Bima",NUSA TENGGARA BARAT,84116.0,Indonesia,82359329070,,,-84.642.567,1.187.448.783,https://maps.google.com/?cid=0x0:0x57c6cacdc293bb29,
toko bangunan,Toko Bahan Bangunan,TOKO BANGUNAN RIZKI PERKASA,"Jl. Jend.Sudirman No.55, Rabangodu Sel., Kec. Raba, Kab. Bima, Nusa Tenggara Bar. 84111","Rabangodu Sel., Kec. Raba, Kab. Bima",NUSA TENGGARA BARAT,84111.0,Indonesia,85333711993,,,-84.706.138,1.187.530.179,https://maps.google.com/?cid=0x0:0xc564737777aa62a0,
toko bangunan,Toko Bahan Bangunan,Sinar Abadi Toko,"Jl. Sultan Muhamad Salahuddin No.4, Dara, Kec. Rasanae Bar., Kab. Bima, Nusa Tenggara Bar. 84118","Dara, Kec. Rasanae Bar., Kab. Bima",NUSA TENGGARA BARAT,84118.0,Indonesia,37442243,,,-84.602.993,1.187.271.845,https://maps.google.com/?cid=0x0:0x85089cf1a89be566,
toko bangunan,Toko Bahan Bangunan,Toko Bangunan MUTIARA,"Jl. Jend.Sudirman No.2, Mande, Kec. Mpunda, Kab. Bima, Nusa Tenggara Bar. 84116","Mande, Kec. Mpunda, Kab. Bima",NUSA TENGGARA BARAT,84116.0,Indonesia,,,,-84.683.102,1.187.472.807,https://maps.google.com/?cid=0x0:0x13b4e5683147c156,
toko bangunan,Toko Bahan Bangunan,Toko Hasanah,"HQ52+J36, Jl. Datuk Dibanta, Jatibaru, Kec. Asakota, Kab. Bima, Nusa Tenggara Bar. 84116","Jl. Datuk Dibanta, Jatibaru, Kec. Asakota, Kab. Bima",NUSA TENGGARA BARAT,84116.0,Indonesia,82339519219,,,-84.409.742,1.187.501.424,https://maps.google.com/?cid=0x0:0x910b446e2ea8ba77,
toko bangunan,Toko Bahan Bangunan,UD.SAMBI JAYA,"Jl. Datuk Dibanta No.99, Jatiwangi, Kec. Asakota, Kab. Bima, Nusa Tenggara Bar. 84117","Jatiwangi, Kec. Asakota, Kab. Bima",NUSA TENGGARA BARAT,84117.0,Indonesia,85239403037,,,-84.493.922,1.187.336.465,https://maps.google.com/?cid=0x0:0xb277cb4ccc5de2e7,
toko bangunan,Toko Bahan Bangunan,Satria Perdana. CV,"GPWP+RJ2, JL. Datuk Dibanta, Nae, Kec. Rasanae Bar., Kab. Bima, Nusa Tenggara Bar. 84117","JL. Datuk Dibanta, Nae, Kec. Rasanae Bar., Kab. Bima",NUSA TENGGARA BARAT,84117.0,Indonesia,37443807,,,-8.452.979,1.187.365.062,https://maps.google.com/?cid=0x0:0xf7dd917e2eee2eaa,
toko bangunan,Toko Bahan Bangunan,Duta bangunan bima,"GPXG+6JF, Jl. Sultan Hasannudin, Sarae, Kec. Rasanae Bar., Kab. Bima, Nusa Tenggara Bar. 84118","Jl. Sultan Hasannudin, Sarae, Kec. Rasanae Bar., Kab. Bima",NUSA TENGGARA BARAT,84118.0,Indonesia,"8,12144E+11",,,-84.519.374,1.187.265.603,https://maps.google.com/?cid=0x0:0x2694848498846a,
toko bangunan,toko bangunan,Nusa Tenggara Bar. 84118,"Kabupaten Bima, Nusa Tenggara Bar.","Kabupaten Bima, Nusa Tenggara Bar.",NUSA TENGGARA BARAT,,Indonesia,,,,-84.520.924,1.187.256.312,https://maps.google.com/?cid=0x0:0x244804bbbd58b04b,
toko bangunan,Toko Bahan Bangunan,Toko Jaya Raya Bima,"Sarae, Kec. Rasanae Bar., Kab. Bima, Nusa Tenggara Bar. 84118","Kec. Rasanae Bar., Kab. Bima",NUSA TENGGARA BARAT,84118.0,Indonesia,85330528388,,,-84.518.611,1.187.262.007,https://maps.google.com/?cid=0x0:0xb6db89df32cc3e8d,
toko bangunan,Toko Bahan Bangunan,Toko Sumber Bangunan,"Jl. Sultan Hasannudin, Sarae, Kec. Rasanae Bar., Kab. Bima, Nusa Tenggara Bar. 84118","Sarae, Kec. Rasanae Bar., Kab. Bima",NUSA TENGGARA BARAT,84118.0,Indonesia,,,,-84.517.985,1.187.254.249,https://maps.google.com/?cid=0x0:0x4ac52ceb0bceb7c3,
toko bangunan,Toko Bahan Bangunan,Sinar Abadi,"Jl. Sultan Hasannudin No.43, Sarae, Kec. Rasanae Bar., Kab. Bima, Nusa Tenggara Bar. 84118","Sarae, Kec. Rasanae Bar., Kab. Bima",NUSA TENGGARA BARAT,84118.0,Indonesia,85338178008,,,-84.519.157,1.187.249.905,https://maps.google.com/?cid=0x0:0xc9ccc6bc98ea86da,
toko bangunan,Toko Bahan Bangunan,Fajar Cerah,"Sarae, Kec. Rasanae Bar., Kab. Bima, Nusa Tenggara Bar. 84118","Kec. Rasanae Bar., Kab. Bima",NUSA TENGGARA BARAT,84118.0,Indonesia,,,,-84.518.814,1.187.258.516,https://maps.google.com/?cid=0x0:0xfe237cc16fe8c957,
toko bangunan,Toko Bahan Bangunan,MITRA BANGUNAN,"Jl. Sultan Hasannudin No.8, Sarae, Kec. Rasanae Bar., Kab. Bima, Nusa Tenggara Bar. 84117","Sarae, Kec. Rasanae Bar., Kab. Bima",NUSA TENGGARA BARAT,84117.0,Indonesia,82335805080,,,-84.519.793,1.187.253.457,https://maps.google.com/?cid=0x0:0x7cbaac2e14760b45,
toko bangunan,Toko Bahan Bangunan,UD. Antara Jaya,"Jl. Bandeng No.1, Paruga, Kec. Rasanae Bar., Kab. Bima, Nusa Tenggara Bar. 84118","Paruga, Kec. Rasanae Bar., Kab. Bima",NUSA TENGGARA BARAT,84118.0,Indonesia,85337731052,,,-84.537.394,1.187.216.624,https://maps.google.com/?cid=0x0:0xb63f3b38a8b0ada5,
toko bangunan,Toko Bahan Bangunan,Toko Bangunan Nusantara Abadi,"sultan salahudin No.4, Dara, Kec. Rasanae Bar., Kab. Bima, Nusa Tenggara Bar. 84111","Dara, Kec. Rasanae Bar., Kab. Bima",NUSA TENGGARA BARAT,84111.0,Indonesia,,,,-84.562.579,1.187.237.965,https://maps.google.com/?cid=0x0:0xe3766b659013351e,
toko bangunan,Toko Bahan Bangunan,TB. Arta Wiguna Bima,"Nae, Kec. Rasanae Bar., Kab. Bima, Nusa Tenggara Bar. 84117","Kec. Rasanae Bar., Kab. Bima",NUSA TENGGARA BARAT,84117.0,Indonesia,8124666130,,,-84.530.809,1.187.341.068,https://maps.google.com/?cid=0x0:0x342c0e4009c321e0,
toko bangunan,Toko Bahan Bangunan,Bintang mas,"Jl. Sultan Hasannudin, Sarae, Kec. Rasanae Bar., Kab. Bima, Nusa Tenggara Bar. 84118","Sarae, Kec. Rasanae Bar., Kab. Bima",NUSA TENGGARA BARAT,84118.0,Indonesia,85337205120,,,-84.521.036,1.187.296.354,https://maps.google.com/?cid=0x0:0xf54f985a2bb453e7,
toko bangunan,Toko Bahan Bangunan,Toko Bangunan,"GPWM+QJ4, Jl. Gajah Mada, Nae, Kec. Rasanae Bar., Kab. Bima, Nusa Tenggara Bar. 84117","Jl. Gajah Mada, Nae, Kec. Rasanae Bar., Kab. Bima",NUSA TENGGARA BARAT,84117.0,Indonesia,,,,-84.531.241,1.187.340.686,https://maps.google.com/?cid=0x0:0x83fe0f35102f017e,
toko bangunan,Toko Bahan Bangunan,Sinar Abadi Toko,"Jl. Sultan Muhamad Salahuddin No.4, Dara, Kec. Rasanae Bar., Kab. Bima, Nusa Tenggara Bar. 84118","Dara, Kec. Rasanae Bar., Kab. Bima",NUSA TENGGARA BARAT,84118.0,Indonesia,37442243,,,-84.602.993,1.187.271.845,https://maps.google.com/?cid=0x0:0x85089cf1a89be566,
toko bangunan,Toko Bahan Bangunan,UD. Karya Baru,"GPWM+6G3, JL Sultan Hasanuddin, Pane, Kec. Rasanae Bar., Kab. Bima, Nusa Tenggara Bar. 84111","JL Sultan Hasanuddin, Pane, Kec. Rasanae Bar., Kab. Bima",NUSA TENGGARA BARAT,84111.0,Indonesia,37442084,,,-84.544.928,1.187.337.946,https://maps.google.com/?cid=0x0:0x3fe33afc5350b7a9,
toko bangunan,Toko Bahan Bangunan,Toko Bangunan Laba-laba,"JL Dana Traha, RT. 05 RW. 01, Bedi, Manggemaci, Manggemaci, Bima, Kab. Bima, Nusa Tenggara Bar. 84112","RT. 05 RW. 01, Bedi, Manggemaci, Manggemaci, Bima, Kab. Bima",NUSA TENGGARA BARAT,84112.0,Indonesia,37442249,,,-84.652.918,1.187.386.644,https://maps.google.com/?cid=0x0:0x54780128b44ad13f,
toko bangunan,Toko Bahan Bangunan,Duta bangunan bima,"GPXG+6JF, Jl. Sultan Hasannudin, Sarae, Kec. Rasanae Bar., Kab. Bima, Nusa Tenggara Bar. 84118","Jl. Sultan Hasannudin, Sarae, Kec. Rasanae Bar., Kab. Bima",NUSA TENGGARA BARAT,84118.0,Indonesia,"8,12144E+11",,,-84.519.374,1.187.265.603,https://maps.google.com/?cid=0x0:0x2694848498846a,
toko bangunan,Toko Bahan Bangunan,Toko Idaman,"GPXG+8FM, Sarae, Kec. Rasanae Bar., Kab. Bima, Nusa Tenggara Bar. 84118","Sarae, Kec. Rasanae Bar., Kab. Bima",NUSA TENGGARA BARAT,84118.0,Indonesia,81338899518,,,-84.516.738,1.187.261.776,https://maps.google.com/?cid=0x0:0x61b8d9904370e487,
toko bangunan,Toko Bahan Bangunan,Toko Jaya Raya Sadia,"Jl. Gatot Subroto, Sadia, Kec. Mpunda, Kab. Bima, Nusa Tenggara Bar. 84117","Sadia, Kec. Mpunda, Kab. Bima",NUSA TENGGARA BARAT,84117.0,Indonesia,85211115712,,,-84.629.024,1.187.446.262,https://maps.google.com/?cid=0x0:0xe45a8851654b6a11,
toko bangunan,Toko Bahan Bangunan,Toko Terima Kasih,"GPXG+74J, Jl. Sultan Hasannudin, Sarae, Kec. Rasanae Bar., Kab. Bima, Nusa Tenggara Bar. 84118","Jl. Sultan Hasannudin, Sarae, Kec. Rasanae Bar., Kab. Bima",NUSA TENGGARA BARAT,84118.0,Indonesia,,,,-84.517.774,1.187.252.528,https://maps.google.com/?cid=0x0:0xf20df92b9f4b3e15,
toko bangunan,Toko Bahan Bangunan,Harmonis Toko,"Jl. Soekarno Hatta No.26, Paruga, Kec. Rasanae Bar., Kab. Bima, Nusa Tenggara Bar. 84118","Paruga, Kec. Rasanae Bar., Kab. Bima",NUSA TENGGARA BARAT,84118.0,Indonesia,37443136,,,-84.548.271,1.187.275.836,https://maps.google.com/?cid=0x0:0x224acc9ed840e8a0,
toko bangunan,Toko Bahan Bangunan,Toko Bahan Bangunan Sinar A.R,"Jl. Karantina, Jatiwangi, Kec. Asakota, Kab. Bima, Nusa Tenggara Bar. 84118","Jatiwangi, Kec. Asakota, Kab. Bima",NUSA TENGGARA BARAT,84118.0,Indonesia,85239202161,,,-84.439.427,1.187.315.427,https://maps.google.com/?cid=0x0:0x745b0a3c05b77773,
toko bangunan,Toko Bahan Bangunan,Tb. Satria Perdana,"GPXJ+8RV, Jl. Datuk Dibanta, Jatiwangi, Kec. Asakota, Kab. Bima, Nusa Tenggara Bar. 84117","Jl. Datuk Dibanta, Jatiwangi, Kec. Asakota, Kab. Bima",NUSA TENGGARA BARAT,84117.0,Indonesia,,,,-845.163,1.187.320.559,https://maps.google.com/?cid=0x0:0x4046c74f1c30e375,
toko bangunan,Toko Bahan Bangunan,Hasrat. UD,"Jl. Sultan Muhamad Salahuddin No.4, Dara, Kec. Rasanae Bar., Kab. Bima, Nusa Tenggara Bar. 84118","Dara, Kec. Rasanae Bar., Kab. Bima",NUSA TENGGARA BARAT,84118.0,Indonesia,81339530710,,,-84.600.157,1.187.252.036,https://maps.google.com/?cid=0x0:0x94d301dc62943d3a,
toko bangunan,Toko Bahan Bangunan,Nusa Abadi. CV,"JL Sultan Kaharudin, No. 07, Paruga, Rasanae Barat, Tanjung, Bima, Kab. Bima, Nusa Tenggara Bar. 84111","No. 07, Paruga, Rasanae Barat, Tanjung, Bima, Kab. Bima",NUSA TENGGARA BARAT,84111.0,Indonesia,37442053,,,-84.534.565,1.187.243.717,https://maps.google.com/?cid=0x0:0xd112717e77d8a1a,
toko bangunan,Toko Bahan Bangunan,SUMBER BAJA BIMA (SBJ),"Jl. Soekarno Hatta, Paruga, Kec. Rasanae Bar., Kab. Bima, Nusa Tenggara Bar. 84118","Paruga, Kec. Rasanae Bar., Kab. Bima",NUSA TENGGARA BARAT,84118.0,Indonesia,81933023351,,,-84.542.252,1.187.249.505,https://maps.google.com/?cid=0x0:0xe6b3a7f8de548117,
toko bangunan,Toko Bahan Bangunan,Tk Antara Bangunan,"GPWF+RX9, Jl. Flores, Sarae, Kec. Rasanae Bar., Kab. Bima, Nusa Tenggara Bar. 84118","Jl. Flores, Sarae, Kec. Rasanae Bar., Kab. Bima",NUSA TENGGARA BARAT,84118.0,Indonesia,,,,-8.452.957,1.187.249.968,https://maps.google.com/?cid=0x0:0x727fc31180ce7e3e,
toko bangunan,toko bangunan,Kec. Rasanae Bar.,"Kab. Bima, Nusa Tenggara Bar.","Kab. Bima, Nusa Tenggara Bar.",NUSA TENGGARA BARAT,,Indonesia,,,,-84.540.632,1.187.241.865,https://maps.google.com/?cid=0x0:0x716674d420dfa05,
toko bangunan,Toko Bahan Bangunan,Toko Jaya Raya Bima,"Sarae, Kec. Rasanae Bar., Kab. Bima, Nusa Tenggara Bar. 84118","Kec. Rasanae Bar., Kab. Bima",NUSA TENGGARA BARAT,84118.0,Indonesia,85330528388,,,-84.518.611,1.187.262.007,https://maps.google.com/?cid=0x0:0xb6db89df32cc3e8d,
toko bangunan,Toko Bahan Bangunan,DEPO SUMBER BANGUNAN BIMA,"Paruga, Kec. Rasanae Bar., Kab. Bima, Nusa Tenggara Bar. 84118","Kec. Rasanae Bar., Kab. Bima",NUSA TENGGARA BARAT,84118.0,Indonesia,8113833767,,,-84.542.875,1.187.178.281,https://maps.google.com/?cid=0x0:0x5695533ae32f5737,
toko bangunan,Toko Bahan Bangunan,Toko Bangunan Nusantara Abadi,"sultan salahudin No.4, Dara, Kec. Rasanae Bar., Kab. Bima, Nusa Tenggara Bar. 84111","Dara, Kec. Rasanae Bar., Kab. Bima",NUSA TENGGARA BARAT,84111.0,Indonesia,,,,-84.562.579,1.187.237.965,https://maps.google.com/?cid=0x0:0xe3766b659013351e,
toko bangunan,Toko Bahan Bangunan,UD. Antara Jaya,"Jl. Bandeng No.1, Paruga, Kec. Rasanae Bar., Kab. Bima, Nusa Tenggara Bar. 84118","Paruga, Kec. Rasanae Bar., Kab. Bima",NUSA TENGGARA BARAT,84118.0,Indonesia,85337731052,,,-84.537.394,1.187.216.624,https://maps.google.com/?cid=0x0:0xb63f3b38a8b0ada5,
toko bangunan,Toko Bahan Bangunan,Fajar Cerah,"Sarae, Kec. Rasanae Bar., Kab. Bima, Nusa Tenggara Bar. 84118","Kec. Rasanae Bar., Kab. Bima",NUSA TENGGARA BARAT,84118.0,Indonesia,,,,-84.518.814,1.187.258.516,https://maps.google.com/?cid=0x0:0xfe237cc16fe8c957,
toko bangunan,Toko Bahan Bangunan,Sinar Abadi,"Jl. Sultan Hasannudin No.43, Sarae, Kec. Rasanae Bar., Kab. Bima, Nusa Tenggara Bar. 84118","Sarae, Kec. Rasanae Bar., Kab. Bima",NUSA TENGGARA BARAT,84118.0,Indonesia,85338178008,,,-84.519.157,1.187.249.905,https://maps.google.com/?cid=0x0:0xc9ccc6bc98ea86da,
toko bangunan,Toko Bahan Bangunan,MITRA BANGUNAN,"Jl. Sultan Hasannudin No.8, Sarae, Kec. Rasanae Bar., Kab. Bima, Nusa Tenggara Bar. 84117","Sarae, Kec. Rasanae Bar., Kab. Bima",NUSA TENGGARA BARAT,84117.0,Indonesia,82335805080,,,-84.519.793,1.187.253.457,https://maps.google.com/?cid=0x0:0x7cbaac2e14760b45,
toko bangunan,Toko Bahan Bangunan,TB. Arta Wiguna Bima,"Nae, Kec. Rasanae Bar., Kab. Bima, Nusa Tenggara Bar. 84117","Kec. Rasanae Bar., Kab. Bima",NUSA TENGGARA BARAT,84117.0,Indonesia,8124666130,,,-84.530.809,1.187.341.068,https://maps.google.com/?cid=0x0:0x342c0e4009c321e0,
toko bangunan,Toko Bahan Bangunan,Bintang mas,"Jl. Sultan Hasannudin, Sarae, Kec. Rasanae Bar., Kab. Bima, Nusa Tenggara Bar. 84118","Sarae, Kec. Rasanae Bar., Kab. Bima",NUSA TENGGARA BARAT,84118.0,Indonesia,85337205120,,,-84.521.036,1.187.296.354,https://maps.google.com/?cid=0x0:0xf54f985a2bb453e7,
toko bangunan,Toko Bahan Bangunan,Toko Bangunan,"GPWM+QJ4, Jl. Gajah Mada, Nae, Kec. Rasanae Bar., Kab. Bima, Nusa Tenggara Bar. 84117","Jl. Gajah Mada, Nae, Kec. Rasanae Bar., Kab. Bima",NUSA TENGGARA BARAT,84117.0,Indonesia,,,,-84.531.241,1.187.340.686,https://maps.google.com/?cid=0x0:0x83fe0f35102f017e,
toko bangunan,Toko Bahan Bangunan,Jaya raya,"GP76+7WX, Dara, Kec. Rasanae Bar., Kabupaten Bima, Nusa Tenggara Bar.","Kabupaten Bima, Nusa Tenggara Bar.",NUSA TENGGARA BARAT,,Indonesia,,,,-84.867.676,1.187.123.502,https://maps.google.com/?cid=0x0:0x4ae5c0a2c7847da9,
toko bangunan,Toko Bahan Bangunan,Toko Bangunan Laba-laba,"JL Dana Traha, RT. 05 RW. 01, Bedi, Manggemaci, Manggemaci, Bima, Kab. Bima, Nusa Tenggara Bar. 84112","RT. 05 RW. 01, Bedi, Manggemaci, Manggemaci, Bima, Kab. Bima",NUSA TENGGARA BARAT,84112.0,Indonesia,37442249,,,-84.652.918,1.187.386.644,https://maps.google.com/?cid=0x0:0x54780128b44ad13f,
toko bangunan,Toko Bahan Bangunan,UD. Karya Baru,"GPWM+6G3, JL Sultan Hasanuddin, Pane, Kec. Rasanae Bar., Kab. Bima, Nusa Tenggara Bar. 84111","JL Sultan Hasanuddin, Pane, Kec. Rasanae Bar., Kab. Bima",NUSA TENGGARA BARAT,84111.0,Indonesia,37442084,,,-84.544.928,1.187.337.946,https://maps.google.com/?cid=0x0:0x3fe33afc5350b7a9,
toko bangunan,Toko Bahan Bangunan,Duta bangunan bima,"GPXG+6JF, Jl. Sultan Hasannudin, Sarae, Kec. Rasanae Bar., Kab. Bima, Nusa Tenggara Bar. 84118","Jl. Sultan Hasannudin, Sarae, Kec. Rasanae Bar., Kab. Bima",NUSA TENGGARA BARAT,84118.0,Indonesia,"8,12144E+11",,,-84.519.374,1.187.265.603,https://maps.google.com/?cid=0x0:0x2694848498846a,
toko bangunan,Toko Bahan Bangunan,Nusa Abadi. CV,"JL Sultan Kaharudin, No. 07, Paruga, Rasanae Barat, Tanjung, Bima, Kab. Bima, Nusa Tenggara Bar. 84111","No. 07, Paruga, Rasanae Barat, Tanjung, Bima, Kab. Bima",NUSA TENGGARA BARAT,84111.0,Indonesia,37442053,,,-84.534.565,1.187.243.717,https://maps.google.com/?cid=0x0:0xd112717e77d8a1a,
toko bangunan,Toko Bahan Bangunan,Toko Jaya Raya Sadia,"Jl. Gatot Subroto, Sadia, Kec. Mpunda, Kab. Bima, Nusa Tenggara Bar. 84117","Sadia, Kec. Mpunda, Kab. Bima",NUSA TENGGARA BARAT,84117.0,Indonesia,85211115712,,,-84.629.024,1.187.446.262,https://maps.google.com/?cid=0x0:0xe45a8851654b6a11,
toko bangunan,Toko Bahan Bangunan,Toko Idaman,"GPXG+8FM, Sarae, Kec. Rasanae Bar., Kab. Bima, Nusa Tenggara Bar. 84118","Sarae, Kec. Rasanae Bar., Kab. Bima",NUSA TENGGARA BARAT,84118.0,Indonesia,81338899518,,,-84.516.738,1.187.261.776,https://maps.google.com/?cid=0x0:0x61b8d9904370e487,
toko bangunan,Toko Bahan Bangunan,Sinar Abadi Toko,"Jl. Sultan Muhamad Salahuddin No.4, Dara, Kec. Rasanae Bar., Kab. Bima, Nusa Tenggara Bar. 84118","Dara, Kec. Rasanae Bar., Kab. Bima",NUSA TENGGARA BARAT,84118.0,Indonesia,37442243,,,-84.602.993,1.187.271.845,https://maps.google.com/?cid=0x0:0x85089cf1a89be566,
toko bangunan,Toko Bahan Bangunan,Toko Terima Kasih,"GPXG+74J, Jl. Sultan Hasannudin, Sarae, Kec. Rasanae Bar., Kab. Bima, Nusa Tenggara Bar. 84118","Jl. Sultan Hasannudin, Sarae, Kec. Rasanae Bar., Kab. Bima",NUSA TENGGARA BARAT,84118.0,Indonesia,,,,-84.517.774,1.187.252.528,https://maps.google.com/?cid=0x0:0xf20df92b9f4b3e15,
toko bangunan,Toko Bahan Bangunan,Tb. Satria Perdana,"GPXJ+8RV, Jl. Datuk Dibanta, Jatiwangi, Kec. Asakota, Kab. Bima, Nusa Tenggara Bar. 84117","Jl. Datuk Dibanta, Jatiwangi, Kec. Asakota, Kab. Bima",NUSA TENGGARA BARAT,84117.0,Indonesia,,,,-845.163,1.187.320.559,https://maps.google.com/?cid=0x0:0x4046c74f1c30e375,
toko bangunan,Toko Bahan Bangunan,Hasrat. UD,"Jl. Sultan Muhamad Salahuddin No.4, Dara, Kec. Rasanae Bar., Kab. Bima, Nusa Tenggara Bar. 84118","Dara, Kec. Rasanae Bar., Kab. Bima",NUSA TENGGARA BARAT,84118.0,Indonesia,81339530710,,,-84.600.157,1.187.252.036,https://maps.google.com/?cid=0x0:0x94d301dc62943d3a,
toko bangunan,Toko Bahan Bangunan,Tk Antara Bangunan,"GPWF+RX9, Jl. Flores, Sarae, Kec. Rasanae Bar., Kab. Bima, Nusa Tenggara Bar. 84118","Jl. Flores, Sarae, Kec. Rasanae Bar., Kab. Bima",NUSA TENGGARA BARAT,84118.0,Indonesia,,,,-8.452.957,1.187.249.968,https://maps.google.com/?cid=0x0:0x727fc31180ce7e3e,
toko bangunan,toko bangunan,Nusa Tenggara Bar. 84114,"Kabupaten Bima, Nusa Tenggara Bar.","Kabupaten Bima, Nusa Tenggara Bar.",NUSA TENGGARA BARAT,,Indonesia,,,,-85.134.128,1.188.188.948,https://maps.google.com/?cid=0x0:0x6d44046746f4d7e0,
toko bangunan,Toko Bahan Bangunan,Toko Semesta Bangunan lampe,"FRQ2+CGH, Jl. Lintas Bima-Sape, RT.03/RW.01, Lampe, Kec. Rasanae Tim., Tinur, Nusa Tenggara Bar.","Tinur, Nusa Tenggara Bar.",NUSA TENGGARA BARAT,,Indonesia,85337505788,,,-85.114.499,1.188.013.508,https://maps.google.com/?cid=0x0:0x1365226fef54d633,
toko bangunan,Toko Bahan Bangunan,Toko Jaya Raya Bima,"Sarae, Kec. Rasanae Bar., Kab. Bima, Nusa Tenggara Bar. 84118","Kec. Rasanae Bar., Kab. Bima",NUSA TENGGARA BARAT,84118.0,Indonesia,85330528388,,,-84.518.611,1.187.262.007,https://maps.google.com/?cid=0x0:0xb6db89df32cc3e8d,
toko bangunan,Toko Bahan Bangunan,TOKO BANGUNAN RIZKI PERKASA,"Jl. Jend.Sudirman No.55, Rabangodu Sel., Kec. Raba, Kab. Bima, Nusa Tenggara Bar. 84111","Rabangodu Sel., Kec. Raba, Kab. Bima",NUSA TENGGARA BARAT,84111.0,Indonesia,85333711993,,,-84.706.138,1.187.530.179,https://maps.google.com/?cid=0x0:0xc564737777aa62a0,
toko bangunan,Toko Bahan Bangunan,DEPO SUMBER BANGUNAN BIMA,"Paruga, Kec. Rasanae Bar., Kab. Bima, Nusa Tenggara Bar. 84118","Kec. Rasanae Bar., Kab. Bima",NUSA TENGGARA BARAT,84118.0,Indonesia,8113833767,,,-84.542.875,1.187.178.281,https://maps.google.com/?cid=0x0:0x5695533ae32f5737,
toko bangunan,Toko Bahan Bangunan,Toko Bangunan Nusantara Abadi,"sultan salahudin No.4, Dara, Kec. Rasanae Bar., Kab. Bima, Nusa Tenggara Bar. 84111","Dara, Kec. Rasanae Bar., Kab. Bima",NUSA TENGGARA BARAT,84111.0,Indonesia,,,,-84.562.579,1.187.237.965,https://maps.google.com/?cid=0x0:0xe3766b659013351e,
toko bangunan,Toko,Toko Fajar Terang,"JL Sultan Hasannuddin, No. 64, Rabangodu, Rasanae, 84113, Bima, 84118","Rabangodu, Rasanae,",NUSA TENGGARA BARAT,84113.0,Indonesia,37442664,,,-85.152.898,1.187.955.841,https://maps.google.com/?cid=0x0:0xe3a6f48ba664244d,
toko bangunan,Toko Bahan Bangunan,MITRA BANGUNAN,"Jl. Sultan Hasannudin No.8, Sarae, Kec. Rasanae Bar., Kab. Bima, Nusa Tenggara Bar. 84117","Sarae, Kec. Rasanae Bar., Kab. Bima",NUSA TENGGARA BARAT,84117.0,Indonesia,82335805080,,,-84.519.793,1.187.253.457,https://maps.google.com/?cid=0x0:0x7cbaac2e14760b45,
toko bangunan,Toko,Toko Bangunan 75,"CM6W+GJG, Tenga, Kec. Woha, Kabupaten Bima, Nusa Tenggara Bar. 84171","Tenga, Kec. Woha, Kabupaten Bima",NUSA TENGGARA BARAT,84171.0,Indonesia,37481070,,,-85.886.849,1.186.965.868,https://maps.google.com/?cid=0x0:0x2cc9126a4373acda,
toko bangunan,Toko Bahan Bangunan,Sinar Abadi,"Jl. Sultan Hasannudin No.43, Sarae, Kec. Rasanae Bar., Kab. Bima, Nusa Tenggara Bar. 84118","Sarae, Kec. Rasanae Bar., Kab. Bima",NUSA TENGGARA BARAT,84118.0,Indonesia,85338178008,,,-84.519.157,1.187.249.905,https://maps.google.com/?cid=0x0:0xc9ccc6bc98ea86da,
toko bangunan,Toko Bahan Bangunan,Toko Jaya Raya Sadia,"Jl. Gatot Subroto, Sadia, Kec. Mpunda, Kab. Bima, Nusa Tenggara Bar. 84117","Sadia, Kec. Mpunda, Kab. Bima",NUSA TENGGARA BARAT,84117.0,Indonesia,85211115712,,,-84.629.024,1.187.446.262,https://maps.google.com/?cid=0x0:0xe45a8851654b6a11,
toko bangunan,Toko Bahan Bangunan,Toko Bangunan,"GPWM+QJ4, Jl. Gajah Mada, Nae, Kec. Rasanae Bar., Kab. Bima, Nusa Tenggara Bar. 84117","Jl. Gajah Mada, Nae, Kec. Rasanae Bar., Kab. Bima",NUSA TENGGARA BARAT,84117.0,Indonesia,,,,-84.531.241,1.187.340.686,https://maps.google.com/?cid=0x0:0x83fe0f35102f017e,
toko bangunan,Toko Bahan Bangunan,Jaya raya,"GP76+7WX, Dara, Kec. Rasanae Bar., Kabupaten Bima, Nusa Tenggara Bar.","Kabupaten Bima, Nusa Tenggara Bar.",NUSA TENGGARA BARAT,,Indonesia,,,,-84.867.676,1.187.123.502,https://maps.google.com/?cid=0x0:0x4ae5c0a2c7847da9,
toko bangunan,Toko Bahan Bangunan,Nusa Tenggara Barat,"GPPV+7XR, Lewirato, Kec. Mpunda, Kab. Bima, Nusa Tenggara Bar. 84116","Lewirato, Kec. Mpunda, Kab. Bima",NUSA TENGGARA BARAT,84116.0,Indonesia,82359329070,,,-84.642.567,1.187.448.783,https://maps.google.com/?cid=0x0:0x57c6cacdc293bb29,
toko bangunan,Toko Bahan Bangunan,Toko Idaman,"GPXG+8FM, Sarae, Kec. Rasanae Bar., Kab. Bima, Nusa Tenggara Bar. 84118","Sarae, Kec. Rasanae Bar., Kab. Bima",NUSA TENGGARA BARAT,84118.0,Indonesia,81338899518,,,-84.516.738,1.187.261.776,https://maps.google.com/?cid=0x0:0x61b8d9904370e487,
toko bangunan,Toko Bahan Bangunan,Sinar Abadi Toko,"Jl. Sultan Muhamad Salahuddin No.4, Dara, Kec. Rasanae Bar., Kab. Bima, Nusa Tenggara Bar. 84118","Dara, Kec. Rasanae Bar., Kab. Bima",NUSA TENGGARA BARAT,84118.0,Indonesia,37442243,,,-84.602.993,1.187.271.845,https://maps.google.com/?cid=0x0:0x85089cf1a89be566,
toko bangunan,Toko Bahan Bangunan,Toko Bangunan Jonawan,"7P2J+4H5, Jl. Lintas Sumbawa - Bima, Brang Kolong, Kec. Plampang, Kabupaten Sumbawa, Nusa Tenggara Bar. 84383","Jl. Lintas Sumbawa - Bima, Brang Kolong, Kec. Plampang, Kabupaten Sumbawa",NUSA TENGGARA BARAT,84383.0,Indonesia,,,,-87.497.263,1.177.314.988,https://maps.google.com/?cid=0x0:0x168492a0befb48dc,
toko bangunan,Toko Bahan Bangunan,UD. TUNAS HARAPAN,"Ntobo, Kec. Raba, Kab. Bima, Nusa Tenggara Bar. 84119","Kec. Raba, Kab. Bima",NUSA TENGGARA BARAT,84119.0,Indonesia,85339794375,,,-84.507.642,1.187.756.348,https://maps.google.com/?cid=0x0:0x470833802710d141,
toko bangunan,Toko Bahan Bangunan,Toko Bangunan Ruby,"92H3+495, Lanta, Lambu, Kabupaten Bima, Nusa Tenggara Bar. 84182","Lanta, Lambu, Kabupaten Bima",NUSA TENGGARA BARAT,84182.0,Indonesia,,,,-86.222.487,1.190.034.693,https://maps.google.com/?cid=0x0:0xf0ad27a721883df3,
toko bangunan,Toko Bahan Bangunan,Duta bangunan bima,"GPXG+6JF, Jl. Sultan Hasannudin, Sarae, Kec. Rasanae Bar., Kab. Bima, Nusa Tenggara Bar. 84118","Jl. Sultan Hasannudin, Sarae, Kec. Rasanae Bar., Kab. Bima",NUSA TENGGARA BARAT,84118.0,Indonesia,"8,12144E+11",,,-84.519.374,1.187.265.603,https://maps.google.com/?cid=0x0:0x2694848498846a,
toko bangunan,Toko Bahan Bangunan,"Toko Bangunan Cahaya Hati""""","FRRR+798, Jl. AMD Manunggal XLIII, Ntori, Kec. Wawo, Kabupaten Bima, Nusa Tenggara Bar. 84119","Jl. AMD Manunggal XLIII, Ntori, Kec. Wawo, Kabupaten Bima",NUSA TENGGARA BARAT,84119.0,Indonesia,,,,-85.093.316,1.188.409.554,https://maps.google.com/?cid=0x0:0x7eec476a8cfddfe3,
toko bangunan,Toko Bahan Bangunan,Toko Bangunan Laba-laba,"JL Dana Traha, RT. 05 RW. 01, Bedi, Manggemaci, Manggemaci, Bima, Kab. Bima, Nusa Tenggara Bar. 84112","RT. 05 RW. 01, Bedi, Manggemaci, Manggemaci, Bima, Kab. Bima",NUSA TENGGARA BARAT,84112.0,Indonesia,37442249,,,-84.652.918,1.187.386.644,https://maps.google.com/?cid=0x0:0x54780128b44ad13f,
toko bangunan,Toko Bahan Bangunan,UD. Antara Jaya,"Jl. Bandeng No.1, Paruga, Kec. Rasanae Bar., Kab. Bima, Nusa Tenggara Bar. 84118","Paruga, Kec. Rasanae Bar., Kab. Bima",NUSA TENGGARA BARAT,84118.0,Indonesia,85337731052,,,-84.537.394,1.187.216.624,https://maps.google.com/?cid=0x0:0xb63f3b38a8b0ada5,
toko bangunan,Toko Bahan Bangunan,Toko Bangunan MUTIARA,"Jl. Jend.Sudirman No.2, Mande, Kec. Mpunda, Kab. Bima, Nusa Tenggara Bar. 84116","Mande, Kec. Mpunda, Kab. Bima",NUSA TENGGARA BARAT,84116.0,Indonesia,,,,-84.683.102,1.187.472.807,https://maps.google.com/?cid=0x0:0x13b4e5683147c156,
toko bangunan,Toko Bahan Bangunan,Toko Bangunan LANGGAM,"FJV8+PRW, Jl. Lintas Sumbawa - Bima, Rato, Kec. Bolo, Kabupaten Bima, Nusa Tenggara Bar. 84161","Jl. Lintas Sumbawa - Bima, Rato, Kec. Bolo, Kabupaten Bima",NUSA TENGGARA BARAT,84161.0,Indonesia,,,,-85.056.208,1.186.170.533,https://maps.google.com/?cid=0x0:0x2be85a751827a4c4,
toko bangunan,Toko Bahan Bangunan,Bintang mas,"Jl. Sultan Hasannudin, Sarae, Kec. Rasanae Bar., Kab. Bima, Nusa Tenggara Bar. 84118","Sarae, Kec. Rasanae Bar., Kab. Bima",NUSA TENGGARA BARAT,84118.0,Indonesia,85337205120,,,-84.521.036,1.187.296.354,https://maps.google.com/?cid=0x0:0xf54f985a2bb453e7,
toko bangunan,Pemasok Bahan Bangunan,UD. SAKINAH Tente,"CM8X+M2H, Tente, Kec. Woha, Kabupaten Bima, Nusa Tenggara Bar. 84171","Tente, Kec. Woha, Kabupaten Bima",NUSA TENGGARA BARAT,84171.0,Indonesia,"8,53331E+11",,,-85.833.238,1.186.976.101,https://maps.google.com/?cid=0x0:0x1c5a67934f27a74d,
toko bangunan,Toko Bahan Bangunan,Harmonis Toko,"Jl. Soekarno Hatta No.26, Paruga, Kec. Rasanae Bar., Kab. Bima, Nusa Tenggara Bar. 84118","Paruga, Kec. Rasanae Bar., Kab. Bima",NUSA TENGGARA BARAT,84118.0,Indonesia,37443136,,,-84.548.271,1.187.275.836,https://maps.google.com/?cid=0x0:0x224acc9ed840e8a0,
toko bangunan,Toko Bahan Bangunan,Hasrat. UD,"Jl. Sultan Muhamad Salahuddin No.4, Dara, Kec. Rasanae Bar., Kab. Bima, Nusa Tenggara Bar. 84118","Dara, Kec. Rasanae Bar., Kab. Bima",NUSA TENGGARA BARAT,84118.0,Indonesia,81339530710,,,-84.600.157,1.187.252.036,https://maps.google.com/?cid=0x0:0x94d301dc62943d3a,
toko bangunan,toko bangunan,Kec. Rasanae Tim.,"Kab. Bima, Nusa Tenggara Bar.","Kab. Bima, Nusa Tenggara Bar.",NUSA TENGGARA BARAT,,Indonesia,,,,-84.848.559,1.187.712.912,https://maps.google.com/?cid=0x0:0x82aa28e384c4bfcd,
toko bangunan,Toko Bahan Bangunan,"Toko Bangunan Cahaya Hati""""","FRRR+798, Jl. AMD Manunggal XLIII, Ntori, Kec. Wawo, Kabupaten Bima, Nusa Tenggara Bar. 84119","Jl. AMD Manunggal XLIII, Ntori, Kec. Wawo, Kabupaten Bima",NUSA TENGGARA BARAT,84119.0,Indonesia,,,,-85.093.316,1.188.409.554,https://maps.google.com/?cid=0x0:0x7eec476a8cfddfe3,
toko bangunan,Toko Bahan Bangunan,Toko Jaya Raya Bima,"Sarae, Kec. Rasanae Bar., Kab. Bima, Nusa Tenggara Bar. 84118","Kec. Rasanae Bar., Kab. Bima",NUSA TENGGARA BARAT,84118.0,Indonesia,85330528388,,,-84.518.611,1.187.262.007,https://maps.google.com/?cid=0x0:0xb6db89df32cc3e8d,
toko bangunan,Toko Bahan Bangunan,Toko Sumber Bangunan,"Jl. Sultan Hasannudin, Sarae, Kec. Rasanae Bar., Kab. Bima, Nusa Tenggara Bar. 84118","Sarae, Kec. Rasanae Bar., Kab. Bima",NUSA TENGGARA BARAT,84118.0,Indonesia,,,,-84.517.985,1.187.254.249,https://maps.google.com/?cid=0x0:0x4ac52ceb0bceb7c3,
toko bangunan,Toko Bahan Bangunan,TOKO BANGUNAN RIZKI PERKASA,"Jl. Jend.Sudirman No.55, Rabangodu Sel., Kec. Raba, Kab. Bima, Nusa Tenggara Bar. 84111","Rabangodu Sel., Kec. Raba, Kab. Bima",NUSA TENGGARA BARAT,84111.0,Indonesia,85333711993,,,-84.706.138,1.187.530.179,https://maps.google.com/?cid=0x0:0xc564737777aa62a0,
toko bangunan,Toko Bahan Bangunan,DEPO SUMBER BANGUNAN BIMA,"Paruga, Kec. Rasanae Bar., Kab. Bima, Nusa Tenggara Bar. 84118","Kec. Rasanae Bar., Kab. Bima",NUSA TENGGARA BARAT,84118.0,Indonesia,8113833767,,,-84.542.875,1.187.178.281,https://maps.google.com/?cid=0x0:0x5695533ae32f5737,
toko bangunan,Toko Bahan Bangunan,Toko Semesta Bangunan lampe,"FRQ2+CGH, Jl. Lintas Bima-Sape, RT.03/RW.01, Lampe, Kec. Rasanae Tim., Tinur, Nusa Tenggara Bar.","Tinur, Nusa Tenggara Bar.",NUSA TENGGARA BARAT,,Indonesia,85337505788,,,-85.114.499,1.188.013.508,https://maps.google.com/?cid=0x0:0x1365226fef54d633,
toko bangunan,Toko Bahan Bangunan,Toko Jaya Raya Sadia,"Jl. Gatot Subroto, Sadia, Kec. Mpunda, Kab. Bima, Nusa Tenggara Bar. 84117","Sadia, Kec. Mpunda, Kab. Bima",NUSA TENGGARA BARAT,84117.0,Indonesia,85211115712,,,-84.629.024,1.187.446.262,https://maps.google.com/?cid=0x0:0xe45a8851654b6a11,
toko bangunan,Toko,Toko Fajar Terang,"JL Sultan Hasannuddin, No. 64, Rabangodu, Rasanae, 84113, Bima, 84118","Rabangodu, Rasanae,",NUSA TENGGARA BARAT,84113.0,Indonesia,37442664,,,-85.152.898,1.187.955.841,https://maps.google.com/?cid=0x0:0xe3a6f48ba664244d,
toko bangunan,Toko Bahan Bangunan,MITRA BANGUNAN,"Jl. Sultan Hasannudin No.8, Sarae, Kec. Rasanae Bar., Kab. Bima, Nusa Tenggara Bar. 84117","Sarae, Kec. Rasanae Bar., Kab. Bima",NUSA TENGGARA BARAT,84117.0,Indonesia,82335805080,,,-84.519.793,1.187.253.457,https://maps.google.com/?cid=0x0:0x7cbaac2e14760b45,
toko bangunan,Toko Bahan Bangunan,Toko Bangunan Laba-laba,"JL Dana Traha, RT. 05 RW. 01, Bedi, Manggemaci, Manggemaci, Bima, Kab. Bima, Nusa Tenggara Bar. 84112","RT. 05 RW. 01, Bedi, Manggemaci, Manggemaci, Bima, Kab. Bima",NUSA TENGGARA BARAT,84112.0,Indonesia,37442249,,,-84.652.918,1.187.386.644,https://maps.google.com/?cid=0x0:0x54780128b44ad13f,
toko bangunan,Toko Bahan Bangunan,Sinar Surya Bangunan,"Jl. Soekarno Hatta No.095, Rabangodu Utara, Kec. Raba, Kab. Bima, Nusa Tenggara Bar. 84113","Rabangodu Utara, Kec. Raba, Kab. Bima",NUSA TENGGARA BARAT,84113.0,Indonesia,81237979988,,,-84.660.992,1.187.564.456,https://maps.google.com/?cid=0x0:0xd8ebbf8799589138,
toko bangunan,Toko Bahan Bangunan,UD. Antara Jaya,"Jl. Bandeng No.1, Paruga, Kec. Rasanae Bar., Kab. Bima, Nusa Tenggara Bar. 84118","Paruga, Kec. Rasanae Bar., Kab. Bima",NUSA TENGGARA BARAT,84118.0,Indonesia,85337731052,,,-84.537.394,1.187.216.624,https://maps.google.com/?cid=0x0:0xb63f3b38a8b0ada5,
toko bangunan,Toko Bahan Bangunan,TB. Langgeng Jaya 1,"Penaraga, Kec. Raba, Kab. Bima, Nusa Tenggara Bar. 84115","Kec. Raba, Kab. Bima",NUSA TENGGARA BARAT,84115.0,Indonesia,,,,-8.462.476,1.187.598.229,https://maps.google.com/?cid=0x0:0x601ba20c689a82ed,
toko bangunan,Toko Bahan Bangunan,Fajar Cerah,"Sarae, Kec. Rasanae Bar., Kab. Bima, Nusa Tenggara Bar. 84118","Kec. Rasanae Bar., Kab. Bima",NUSA TENGGARA BARAT,84118.0,Indonesia,,,,-84.518.814,1.187.258.516,https://maps.google.com/?cid=0x0:0xfe237cc16fe8c957,
toko bangunan,Toko Bahan Bangunan,Sinar Abadi,"Jl. Sultan Hasannudin No.43, Sarae, Kec. Rasanae Bar., Kab. Bima, Nusa Tenggara Bar. 84118","Sarae, Kec. Rasanae Bar., Kab. Bima",NUSA TENGGARA BARAT,84118.0,Indonesia,85338178008,,,-84.519.157,1.187.249.905,https://maps.google.com/?cid=0x0:0xc9ccc6bc98ea86da,
toko bangunan,Toko,"TOKO NABILA.( materia Bangunan,)","2 NTB., Jl. Gatot Subroto, Sadia, Kec. Mpunda, Kab. Bima, Nusa Tenggara Bar. 84111","Jl. Gatot Subroto, Sadia, Kec. Mpunda, Kab. Bima",NUSA TENGGARA BARAT,84111.0,Indonesia,,,,-84.683.066,1.187.426.541,https://maps.google.com/?cid=0x0:0xcb478aee3caa8125,
toko bangunan,Toko Bahan Bangunan,Toko Bangunan MUTIARA,"Jl. Jend.Sudirman No.2, Mande, Kec. Mpunda, Kab. Bima, Nusa Tenggara Bar. 84116","Mande, Kec. Mpunda, Kab. Bima",NUSA TENGGARA BARAT,84116.0,Indonesia,,,,-84.683.102,1.187.472.807,https://maps.google.com/?cid=0x0:0x13b4e5683147c156,
toko bangunan,Toko,Toko Bangunan 75,"CM6W+GJG, Tenga, Kec. Woha, Kabupaten Bima, Nusa Tenggara Bar. 84171","Tenga, Kec. Woha, Kabupaten Bima",NUSA TENGGARA BARAT,84171.0,Indonesia,37481070,,,-85.886.849,1.186.965.868,https://maps.google.com/?cid=0x0:0x2cc9126a4373acda,
toko bangunan,Toko Bahan Bangunan,Toko Bangunan,"GPWM+QJ4, Jl. Gajah Mada, Nae, Kec. Rasanae Bar., Kab. Bima, Nusa Tenggara Bar. 84117","Jl. Gajah Mada, Nae, Kec. Rasanae Bar., Kab. Bima",NUSA TENGGARA BARAT,84117.0,Indonesia,,,,-84.531.241,1.187.340.686,https://maps.google.com/?cid=0x0:0x83fe0f35102f017e,
toko bangunan,Toko Bahan Bangunan,TB. Harmonis,"Jl. Soekarno Hatta No.51, Rabangodu Utara, Kec. Raba, Kab. Bima, Nusa Tenggara Bar. 84115","Rabangodu Utara, Kec. Raba, Kab. Bima",NUSA TENGGARA BARAT,84115.0,Indonesia,37444442,,,-84.688.655,1.187.601.888,https://maps.google.com/?cid=0x0:0x2490aa5b2a59ec7,
toko bangunan,Toko Bahan Bangunan,TB. Arta Wiguna Bima,"Nae, Kec. Rasanae Bar., Kab. Bima, Nusa Tenggara Bar. 84117","Kec. Rasanae Bar., Kab. Bima",NUSA TENGGARA BARAT,84117.0,Indonesia,8124666130,,,-84.530.809,1.187.341.068,https://maps.google.com/?cid=0x0:0x342c0e4009c321e0,
