Category,Real Category,Business Name,Address,City,State,Postal Code,Country,Phone,Email,Website,Latitude,Longitude,Map Link,Details Link
perumahan,perumahan,Kec. Asakota,"Kab. Bima, Nusa Tenggara Bar.","Kab. Bima, Nusa Tenggara Bar.",NUSA TENGGARA BARAT,,Indonesia,,,,-84.384.574,1.187.340.556,https://maps.google.com/?cid=0x0:0xf6262609b5c77d5,
perumahan,Perhimpunan Pengembang Perumahan,LINGKUNGAN PAJURI asakota,"HP5H+X34, Jatiwangi, Kec. Asakota, Kab. Bima, Nusa Tenggara Bar. 84119","Jatiwangi, Kec. Asakota, Kab. Bima",NUSA TENGGARA BARAT,84119.0,Indonesia,82124800312,,,-84.401.171,1.187.276.171,https://maps.google.com/?cid=0x0:0x4be4b64b2dc798a1,
perumahan,perumahan,Rumah iannn,"HQ52+R8R, Jl. Datuk Dibanta, Jatibaru, Kec. Asakota, Kab. Bima, Nusa Tenggara Bar. 84116","Jl. Datuk Dibanta, Jatibaru, Kec. Asakota, Kab. Bima",NUSA TENGGARA BARAT,84116.0,Indonesia,,,,-84.403.434,1.187.508.216,https://maps.google.com/?cid=0x0:0xce76293973a56e0d,
perumahan,Komplek perumahan,Rumah koko dim,"HQ87+RC2, Jatibaru, Kec. Asakota, Kab. Bima, Nusa Tenggara Bar. 84119","Jatibaru, Kec. Asakota, Kab. Bima",NUSA TENGGARA BARAT,84119.0,Indonesia,,,,-84.317.812,1.187.638.184,https://maps.google.com/?cid=0x0:0xf190b95696ff08e1,
perumahan,Pembangunan Perumahan,rumah zhea,"GPXP+CCX, lingkungan radio permai, Jatiwangi, Kec. Asakota, Kab. Bima, Nusa Tenggara Bar. 84117","lingkungan radio permai, Jatiwangi, Kec. Asakota, Kab. Bima",NUSA TENGGARA BARAT,84117.0,Indonesia,,,,-84.513.874,1.187.360.968,https://maps.google.com/?cid=0x0:0x4e37b36149b7a863,
perumahan,perumahan,Rumah,"BTN Tambana, Jl. Bidara 7, Jatiwangi, Kec. Asakota, Kab. Bima, Nusa Tenggara Bar. 84117","Jl. Bidara 7, Jatiwangi, Kec. Asakota, Kab. Bima",NUSA TENGGARA BARAT,84117.0,Indonesia,,,,-84.448.045,1.187.350.836,https://maps.google.com/?cid=0x0:0x6d955a62c0de6299,
perumahan,Komplek perumahan,Perumahan Tolotongga Permai Jatiwangi,"HP5M+H8V, Jatiwangi, Kec. Asakota, Kab. Bima, Nusa Tenggara Bar. 84117","Jatiwangi, Kec. Asakota, Kab. Bima",NUSA TENGGARA BARAT,84117.0,Indonesia,,,,-84.410.007,118.733.312,https://maps.google.com/?cid=0x0:0xe95f3b14c9022ef1,
perumahan,Pembangunan Perumahan,"Lingk. SALATA, kelurahan jatiwangi, Kota Bima.","RT.011/004, Jatiwangi, Kec. Asakota, Kab. Bima, Nusa Tenggara Bar. 84119","Jatiwangi, Kec. Asakota, Kab. Bima",NUSA TENGGARA BARAT,84119.0,Indonesia,,,,-84.516.813,1.187.384.731,https://maps.google.com/?cid=0x0:0x7d45927ee8f1b5b4,
perumahan,Establishment,BTN LG TATO,"Jl. Datuk Dibanta No.99, Jatiwangi, Kec. Asakota, Kab. Bima, Nusa Tenggara Bar. 84117","Jatiwangi, Kec. Asakota, Kab. Bima",NUSA TENGGARA BARAT,84117.0,Indonesia,,,,-84.497.235,1.187.349.746,https://maps.google.com/?cid=0x0:0x3590cf3d94f9e731,
perumahan,Komplek perumahan,Rumah Ihsan,"HP6M+65F, Jatiwangi, Kec. Asakota, Kab. Bima, Nusa Tenggara Bar. 84119","Jatiwangi, Kec. Asakota, Kab. Bima",NUSA TENGGARA BARAT,84119.0,Indonesia,,,,-84.394.332,11.873.292,https://maps.google.com/?cid=0x0:0xb3e9dc8d9d7a972a,
perumahan,Pembangunan Perumahan,Perumahan Alam Sejuk So Te,"Jln. Lingkar Nggaro No.Te Kel, Jatiwangi, Kec. Asakota, Kab. Bima, Nusa Tenggara Bar.","Kab. Bima, Nusa Tenggara Bar.",NUSA TENGGARA BARAT,,Indonesia,,,,-84.341.021,1.187.388.084,https://maps.google.com/?cid=0x0:0xb161780a221638b7,
perumahan,Komplek perumahan,Perumahan Tolotongga,"Jl. Ababil Selatan No.02, Kel. Ule, Kec. Asakota, Kab. Bima, Nusa Tenggara Bar. 84119","Kel. Ule, Kec. Asakota, Kab. Bima",NUSA TENGGARA BARAT,84119.0,Indonesia,,,,-84.414.027,1.187.331.511,https://maps.google.com/?cid=0x0:0x6f00dc69552f5807,
perumahan,Komplek perumahan,Rumah Una,"HP4M+Q46, Lingkungan, Tolotongga, Kec. Asakota, Kab. Bima, Nusa Tenggara Bar. 84118","Lingkungan, Tolotongga, Kec. Asakota, Kab. Bima",NUSA TENGGARA BARAT,84118.0,Indonesia,,,,-84.431.118,118.732.832,https://maps.google.com/?cid=0x0:0xf351d7b402679425,
perumahan,Perhimpunan Pengembang Perumahan,Lokasi Headfully,"HQ88+GM, Jatibaru, Kec. Asakota, Kab. Bima, Nusa Tenggara Bar. 84119","Jatibaru, Kec. Asakota, Kab. Bima",NUSA TENGGARA BARAT,84119.0,Indonesia,,,,-84.336.051,1.187.667.061,https://maps.google.com/?cid=0x0:0xb41b2d1c6e20e0ad,
perumahan,Komplek perumahan,Linkungan Mekar Baru Kel. Ule Kec. Asakota,"HP6M+R6Q, Ule, Kec. Asakota, Kab. Bima, Nusa Tenggara Bar.","Kab. Bima, Nusa Tenggara Bar.",NUSA TENGGARA BARAT,,Indonesia,,,,-8.437.921,118.733.102,https://maps.google.com/?cid=0x0:0xc5e35b35c3c9c73f,
perumahan,Komplek perumahan,Rumah mas AL,"HP4P+9H2, Jl. Cemp. 4, Jatiwangi, Kec. Asakota, Kab. Bima, Nusa Tenggara Bar. 84117","Jl. Cemp. 4, Jatiwangi, Kec. Asakota, Kab. Bima",NUSA TENGGARA BARAT,84117.0,Indonesia,,,,-84.441.045,118.736.393,https://maps.google.com/?cid=0x0:0xf86f8e1dd1c74e3e,
perumahan,Komplek perumahan,Perumahan Grand City Tolotongga,"HP8P+G78, Jatiwangi, Kec. Asakota, Kab. Bima, Nusa Tenggara Bar. 84117","Jatiwangi, Kec. Asakota, Kab. Bima",NUSA TENGGARA BARAT,84117.0,Indonesia,,,,-84.337.207,1.187.356.974,https://maps.google.com/?cid=0x0:0x256b4ccd8bc1df99,
perumahan,Komplek perumahan,Rumah Dwi,"HQ82+694, Jatibaru, Kec. Asakota, Kab. Bima, Nusa Tenggara Bar. 84116","Jatibaru, Kec. Asakota, Kab. Bima",NUSA TENGGARA BARAT,84116.0,Indonesia,,,,-84.344.885,1.187.509.421,https://maps.google.com/?cid=0x0:0x3fcca69a09ded047,
perumahan,Komplek perumahan,"Ndano, madapangga","HP7H+JHF, Jl. Karantina, Jatiwangi, Kec. Asakota, Kab. Bima, Nusa Tenggara Bar. 84119","Jl. Karantina, Jatiwangi, Kec. Asakota, Kab. Bima",NUSA TENGGARA BARAT,84119.0,Indonesia,,,,-84.349.579,1.187.293.185,https://maps.google.com/?cid=0x0:0x78c9dc9d29d6483a,
perumahan,Pembangunan Perumahan,ADZAN,"HP2R+Q93, Jatiwangi, Kec. Asakota, Kab. Bima, Nusa Tenggara Bar. 84116","Jatiwangi, Kec. Asakota, Kab. Bima",NUSA TENGGARA BARAT,84116.0,Indonesia,,,,-8.448.118,118.741.356,https://maps.google.com/?cid=0x0:0xa75b3fe3bee49b19,
perumahan,Perhimpunan Pengembang Perumahan,Rumah A. Kadir,"HP5G+WC, Jatiwangi, Kec. Asakota, Kab. Bima, Nusa Tenggara Bar.","Kab. Bima, Nusa Tenggara Bar.",NUSA TENGGARA BARAT,,Indonesia,,,,-84.402.353,1.187.260.383,https://maps.google.com/?cid=0x0:0x25f2c422f7a956b6,
perumahan,Komplek perumahan,Rumah Farah,"HP4P+32J, Jl. Bidara 7, Jatiwangi, Kec. Asakota, Kab. Bima, Nusa Tenggara Bar. 84117","Jl. Bidara 7, Jatiwangi, Kec. Asakota, Kab. Bima",NUSA TENGGARA BARAT,84117.0,Indonesia,,,,-84.447.813,1.187.350.128,https://maps.google.com/?cid=0x0:0x9078f8c9dc277f24,
perumahan,Komplek perumahan,rumah umi ira,"HP3P+CW4, RT.16/RW.06, Jatiwangi, Kec. Asakota, Kab. Bima, Nusa Tenggara Bar.","Kab. Bima, Nusa Tenggara Bar.",NUSA TENGGARA BARAT,,Indonesia,,,,-84.463.394,1.187.372.662,https://maps.google.com/?cid=0x0:0x3b59ef3f82a2d445,
perumahan,Komplek perumahan,Khairin Al-Bimawi,"Jatiwangi, Kec. Asakota, Kab. Bima, Nusa Tenggara Bar. 84117","Kec. Asakota, Kab. Bima",NUSA TENGGARA BARAT,84117.0,Indonesia,85338501994,,,-84.452.835,1.187.352.646,https://maps.google.com/?cid=0x0:0xf5053263ca48d7d7,
perumahan,Komplek perumahan,Sugeng riyanto,"HQ72+6X3, Jatibaru, Kec. Asakota, Kab. Bima, Nusa Tenggara Bar. 84116","Jatibaru, Kec. Asakota, Kab. Bima",NUSA TENGGARA BARAT,84116.0,Indonesia,,,,-8.436.749,118.753.198,https://maps.google.com/?cid=0x0:0x466a1384632085f,
perumahan,Komplek perumahan,Rumah Ibu Faridah,"HP6M+HCJ, Jl. Karantina, Jatiwangi, Kec. Asakota, Kab. Bima, Nusa Tenggara Bar.","Kab. Bima, Nusa Tenggara Bar.",NUSA TENGGARA BARAT,,Indonesia,,,,-84.385.477,1.187.335.179,https://maps.google.com/?cid=0x0:0x8ead5ce5c75b230,
perumahan,Pembangunan Perumahan,Umat Ama La Pasha,"HP8P+G78, Jatiwangi, Kec. Asakota, Kab. Bima, Nusa Tenggara Bar. 84117","Jatiwangi, Kec. Asakota, Kab. Bima",NUSA TENGGARA BARAT,84117.0,Indonesia,,,,-8.433.773,118.736.592,https://maps.google.com/?cid=0x0:0x3e18e3994ac2be51,
perumahan,perumahan,Kec. Mpunda,"Kab. Bima, Nusa Tenggara Bar.","Kab. Bima, Nusa Tenggara Bar.",NUSA TENGGARA BARAT,,Indonesia,,,,-84.583.951,1.187.468.712,https://maps.google.com/?cid=0x0:0x5e73f7a401f39f2,
perumahan,Komplek perumahan,RUMAH LAIL,"GPJR+JHC, Sadia, Kec. Mpunda, Kab. Bima, Nusa Tenggara Bar. 84111","Sadia, Kec. Mpunda, Kab. Bima",NUSA TENGGARA BARAT,84111.0,Indonesia,,,,-84.684.337,1.187.413.932,https://maps.google.com/?cid=0x0:0x8cd03d8d0314fe4d,
perumahan,Pembangunan Perumahan,Perumahan GRAHA KOTA,"GPWV+MW9, Santi, Kec. Mpunda, Kab. Bima, Nusa Tenggara Bar. 84116","Santi, Kec. Mpunda, Kab. Bima",NUSA TENGGARA BARAT,84116.0,Indonesia,,,,-84.533.638,1.187.448.486,https://maps.google.com/?cid=0x0:0xaabbf5364d4fa564,
perumahan,Pembangunan Perumahan,Tanah hidayat,"GQX3+7VX, Matakando, Kec. Mpunda, Kab. Bima, Nusa Tenggara Bar. 84111","Matakando, Kec. Mpunda, Kab. Bima",NUSA TENGGARA BARAT,84111.0,Indonesia,85333973397,,,-8.451.767,1.187.547.306,https://maps.google.com/?cid=0x0:0x7e5156fc85d59e14,
perumahan,Perhimpunan Pengembang Perumahan,Puri LC Barat,"Jl. Kesejahteraan No.2, Lewirato, Kec. Mpunda, Kab. Bima, Nusa Tenggara Bar. 84111","Lewirato, Kec. Mpunda, Kab. Bima",NUSA TENGGARA BARAT,84111.0,Indonesia,85205265018,,,-84.676.607,1.187.503.851,https://maps.google.com/?cid=0x0:0x96e95dac033d7b1b,
perumahan,Komplek perumahan,Rumah Merpati 22,"Jl. Merpati No.22, Panggi, Kec. Mpunda, Kab. Bima, Nusa Tenggara Bar. 84111","Panggi, Kec. Mpunda, Kab. Bima",NUSA TENGGARA BARAT,84111.0,Indonesia,,,,-84.818.912,1.187.475.357,https://maps.google.com/?cid=0x0:0x4ff0d808de82c908,
perumahan,Pembangunan Perumahan,BTN MATAKANDO RESIDENCE,"GQX3+CQQ, Matakando, Kec. Mpunda, Kab. Bima, Nusa Tenggara Bar. 84111","Matakando, Kec. Mpunda, Kab. Bima",NUSA TENGGARA BARAT,84111.0,Indonesia,,,,-84.514.143,1.187.544.827,https://maps.google.com/?cid=0x0:0xd39252935a336a29,
perumahan,Komplek perumahan,Abubakar Muhdi,"GPRV+889, Gg. Sukun 2, Monggonao, Kec. Mpunda, Kab. Bima, Nusa Tenggara Bar. 84116","Gg. Sukun 2, Monggonao, Kec. Mpunda, Kab. Bima",NUSA TENGGARA BARAT,84116.0,Indonesia,,,,-84.592.098,1.187.433.732,https://maps.google.com/?cid=0x0:0xaf619f7e9f3a56da,
perumahan,Komplek perumahan,Pembibitan MHK,"GPHQ+QH9, Belakang BTN Sadia Permai, Sadia, Kec. Mpunda, Kab. Bima, Nusa Tenggara Bar. 84111","Belakang BTN Sadia Permai, Sadia, Kec. Mpunda, Kab. Bima",NUSA TENGGARA BARAT,84111.0,Indonesia,,,,-8.470.581,118.738.975,https://maps.google.com/?cid=0x0:0x23e9fd32cf2017a6,
perumahan,Pembangunan Perumahan,My Home,"GPHR+RFH, RT.13/RW.03, Sadia, Kec. Mpunda, Kab. Bima, Nusa Tenggara Bar. 84111","RT.13/RW.03, Sadia, Kec. Mpunda, Kab. Bima",NUSA TENGGARA BARAT,84111.0,Indonesia,82340111613,,,-84.704.257,1.187.412.464,https://maps.google.com/?cid=0x0:0x23551b6a7b901dfe,
perumahan,Komplek perumahan,Rumah Puput,"GQQ2+VX5, Penatoi, Kec. Mpunda, Kab. Bima, Nusa Tenggara Bar. 84111","Penatoi, Kec. Mpunda, Kab. Bima",NUSA TENGGARA BARAT,84111.0,Indonesia,,,,-84.603.697,1.187.524.888,https://maps.google.com/?cid=0x0:0x33a1f48bf04fab30,
perumahan,Komplek perumahan,rumah ibu ayu,"GPQP+RJF Bedi, RT.9-RW3, Manggemaci, Kec. Mpunda, Kab. Bima, Nusa Tenggara Bar.","Kab. Bima, Nusa Tenggara Bar.",NUSA TENGGARA BARAT,,Indonesia,,,,-8.460.443,1.187.365.545,https://maps.google.com/?cid=0x0:0xee416b2502c5695d,
perumahan,Komplek perumahan,Rumah Arifin,"Jl. Kesejahteraan No.7, Lewirato, Kec. Mpunda, Kab. Bima, Nusa Tenggara Bar. 84111","Lewirato, Kec. Mpunda, Kab. Bima",NUSA TENGGARA BARAT,84111.0,Indonesia,,,,-84.647.121,1.187.499.889,https://maps.google.com/?cid=0x0:0x16e36bb8712cfbcf,
perumahan,Pembangunan Perumahan,BTN Kelurahan Lewirato,"GPMX+FRJ, Lewirato, Kec. Mpunda, Kab. Bima, Nusa Tenggara Bar. 84111","Lewirato, Kec. Mpunda, Kab. Bima",NUSA TENGGARA BARAT,84111.0,Indonesia,,,,-84.662.871,118.749.517,https://maps.google.com/?cid=0x0:0xe801cddebf8e6f4d,
perumahan,Perhimpunan Pengembang Perumahan,Rumah ammu,"GQQ2+299, Penatoi, Kec. Mpunda, Kab. Bima, Nusa Tenggara Bar. 84111","Penatoi, Kec. Mpunda, Kab. Bima",NUSA TENGGARA BARAT,84111.0,Indonesia,,,,-84.625.984,1.187.509.695,https://maps.google.com/?cid=0x0:0xb68c1e40c7d1ef5d,
perumahan,Komplek perumahan,Rumah H. Rizal,"BTN Rontu Jl. Mahoni No.15, Panggi, Kec. Mpunda, Kab. Bima, Nusa Tenggara Bar. 84111","Panggi, Kec. Mpunda, Kab. Bima",NUSA TENGGARA BARAT,84111.0,Indonesia,,,,-84.814.538,1.187.454.768,https://maps.google.com/?cid=0x0:0x2a6d15e9e09af1d6,
perumahan,Pembangunan Perumahan,Elang,"GQP2+34M, Jl. Kesejahteraan, RT.04/RW.02, Lewirato, Kec. Mpunda, Kab. Bima, Nusa Tenggara Bar. 84111","Jl. Kesejahteraan, RT.04/RW.02, Lewirato, Kec. Mpunda, Kab. Bima",NUSA TENGGARA BARAT,84111.0,Indonesia,,,,-84.647.997,1.187.502.845,https://maps.google.com/?cid=0x0:0x2cc40c0353dc91e3,
perumahan,Pembangunan Perumahan,Uma Aba,"GPRV+25G, Gg. Sukun 2, Monggonao, Kec. Mpunda, Kab. Bima, Nusa Tenggara Bar. 84116","Gg. Sukun 2, Monggonao, Kec. Mpunda, Kab. Bima",NUSA TENGGARA BARAT,84116.0,Indonesia,,,,-84.599.259,1.187.429.642,https://maps.google.com/?cid=0x0:0x9bcfc17742b9f038,
perumahan,Komplek perumahan,Rumah pak A. Rifai ST,"GQM2+M47, Gg. Surau, Lewirato, Kec. Mpunda, Kab. Bima, Nusa Tenggara Bar. 84111","Gg. Surau, Lewirato, Kec. Mpunda, Kab. Bima",NUSA TENGGARA BARAT,84111.0,Indonesia,,,,-84.658.404,1.187.503.014,https://maps.google.com/?cid=0x0:0x50822106a6f6deb7,
perumahan,Perhimpunan Pengembang Perumahan,Rumah,"GQQ2+RGX, Penatoi, Kec. Mpunda, Kab. Bima, Nusa Tenggara Bar. 84111","Penatoi, Kec. Mpunda, Kab. Bima",NUSA TENGGARA BARAT,84111.0,Indonesia,,,,-84.603.472,1.187.509.608,https://maps.google.com/?cid=0x0:0x15c164337976edb,
perumahan,Komplek perumahan,Rumah Kobus,"GPFH+C3V, Sambinae, Kec. Mpunda, Kab. Bima, Nusa Tenggara Bar. 84111","Sambinae, Kec. Mpunda, Kab. Bima",NUSA TENGGARA BARAT,84111.0,Indonesia,,,,-8.476.466,118.727.822,https://maps.google.com/?cid=0x0:0xfb866f76e01feaa,
perumahan,Komplek perumahan,Rayyan Home,"Block B, RT.12/RW.02, BTN Sadia Permai, Sadia, Kec. Mpunda, Kab. Bima, Nusa Tenggara Bar. 84111","RT.12/RW.02, BTN Sadia Permai, Sadia, Kec. Mpunda, Kab. Bima",NUSA TENGGARA BARAT,84111.0,Indonesia,,,,-84.706.219,1.187.401.369,https://maps.google.com/?cid=0x0:0x82f29b71545e1b6a,
perumahan,Perhimpunan Pengembang Perumahan,Kota Bima,"GP9W+G2P, Jl. Gelatik, Panggi, Kec. Mpunda, Kab. Bima, Nusa Tenggara Bar. 84111","Jl. Gelatik, Panggi, Kec. Mpunda, Kab. Bima",NUSA TENGGARA BARAT,84111.0,Indonesia,,,,-84.811.617,1.187.450.667,https://maps.google.com/?cid=0x0:0x30f0c730881338b7,
perumahan,Komplek perumahan,Perumahan santi Regency,"Jl. Imam Bonjol, Santi, Kec. Mpunda, Kab. Bima, Nusa Tenggara Bar. 84119","Santi, Kec. Mpunda, Kab. Bima",NUSA TENGGARA BARAT,84119.0,Indonesia,,,,-8.452.365,1.187.425.542,https://maps.google.com/?cid=0x0:0x605f29f26a0fb690,
perumahan,Perhimpunan Pengembang Perumahan,RUMAH FUDHAIL,"GPCW+2GM, Panggi, Kec. Mpunda, Kab. Bima, Nusa Tenggara Bar. 84111","Panggi, Kec. Mpunda, Kab. Bima",NUSA TENGGARA BARAT,84111.0,Indonesia,,,,-84.799.129,1.187.462.993,https://maps.google.com/?cid=0x0:0x53d9d6c115d900f9,
perumahan,Komplek perumahan,Green Royalle Villa,"GPJW+36C, Gg. M. Nur A. Latif, Mande, Kec. Mpunda, Kab. Bima, Nusa Tenggara Bar. 84111","Gg. M. Nur A. Latif, Mande, Kec. Mpunda, Kab. Bima",NUSA TENGGARA BARAT,84111.0,Indonesia,,,,-8.470.084,1.187.460.075,https://maps.google.com/?cid=0x0:0x1531bbab01004650,
perumahan,Komplek perumahan,Rumah saya,"GPVW+48P, Santi, Kec. Mpunda, Kab. Bima, Nusa Tenggara Bar. 84116","Santi, Kec. Mpunda, Kab. Bima",NUSA TENGGARA BARAT,84116.0,Indonesia,,,,-84.571.031,11.874.576,https://maps.google.com/?cid=0x0:0x7b1c8793e19b6a7,
perumahan,Kantor Pemerintah,Komplek Rumah Dinas II KPKNL Bima,"GQQ3+CGG, Penatoi, Kec. Mpunda, Kab. Bima, Nusa Tenggara Bar. 84111","Penatoi, Kec. Mpunda, Kab. Bima",NUSA TENGGARA BARAT,84111.0,Indonesia,37442993,,,-84.614.339,1.187.538.361,https://maps.google.com/?cid=0x0:0xdbb982efd267fed6,
perumahan,perumahan,Kel Rite kota,"GPGH+7P8, Sambinae, Kec. Mpunda, Kab. Bima, Nusa Tenggara Bar. 84111","Sambinae, Kec. Mpunda, Kab. Bima",NUSA TENGGARA BARAT,84111.0,Indonesia,,,,-84.566.117,1.187.600.631,https://maps.google.com/?cid=0x0:0xc3ab9348f8505e8,
perumahan,Komplek perumahan,Rumah Merpati 22,"Jl. Merpati No.22, Panggi, Kec. Mpunda, Kab. Bima, Nusa Tenggara Bar. 84111","Panggi, Kec. Mpunda, Kab. Bima",NUSA TENGGARA BARAT,84111.0,Indonesia,,,,-84.818.912,1.187.475.357,https://maps.google.com/?cid=0x0:0x4ff0d808de82c908,
perumahan,perumahan,Nusa Tenggara Bar. 84112,"Kec. Raba, Kabupaten Bima, Nusa Tenggara Bar.","Kabupaten Bima, Nusa Tenggara Bar.",NUSA TENGGARA BARAT,,Indonesia,,,,-84.917.671,1.187.518.671,https://maps.google.com/?cid=0x0:0x1f28a2016f7e7ff8,
perumahan,Komplek perumahan,Rumah mertua,"GP9W+567, Jl. Adipura, Panggi, Kec. Mpunda, Kab. Bima, Nusa Tenggara Bar. 84112","Jl. Adipura, Panggi, Kec. Mpunda, Kab. Bima",NUSA TENGGARA BARAT,84112.0,Indonesia,,,,-84.821.207,1.187.455.378,https://maps.google.com/?cid=0x0:0xbea42025324826da,
perumahan,perumahan,A. Haris,"GP8W+Q83, Panggi, Kec. Mpunda, Kab. Bima, Nusa Tenggara Bar. 84112","Panggi, Kec. Mpunda, Kab. Bima",NUSA TENGGARA BARAT,84112.0,Indonesia,,,,-84.831.125,1.187.457.994,https://maps.google.com/?cid=0x0:0x28b4ee6aa4f4bd30,
perumahan,Komplek perumahan,Perumah Guru Rontu,"GP8W+R8H, Panggi, Kec. Mpunda, Kab. Bima, Nusa Tenggara Bar. 84112","Panggi, Kec. Mpunda, Kab. Bima",NUSA TENGGARA BARAT,84112.0,Indonesia,,,,-84.829.463,118.745.859,https://maps.google.com/?cid=0x0:0x477eeabe79b734ed,
perumahan,Komplek perumahan,TOLORATO Kel. Mande Kec. Mpunda,"GPJX+77, Mande, Kec. Mpunda, Kab. Bima, Nusa Tenggara Bar.","Kab. Bima, Nusa Tenggara Bar.",NUSA TENGGARA BARAT,,Indonesia,,,,-84.691.822,118.748.256,https://maps.google.com/?cid=0x0:0xe5d56e3ccc924e87,
perumahan,Komplek perumahan,Rumah H. Rizal,"BTN Rontu Jl. Mahoni No.15, Panggi, Kec. Mpunda, Kab. Bima, Nusa Tenggara Bar. 84111","Panggi, Kec. Mpunda, Kab. Bima",NUSA TENGGARA BARAT,84111.0,Indonesia,,,,-84.814.538,1.187.454.768,https://maps.google.com/?cid=0x0:0x2a6d15e9e09af1d6,
perumahan,Komplek perumahan,Mariatul Islamia,"GP8V+WWM, Panggi, Kec. Mpunda, Kab. Bima, Nusa Tenggara Bar. 84112","Panggi, Kec. Mpunda, Kab. Bima",NUSA TENGGARA BARAT,84112.0,Indonesia,,,,-84.832.735,1.187.448.024,https://maps.google.com/?cid=0x0:0x303efb481f450d0e,
perumahan,Pembangunan Perumahan,Perumahan Rontu Permai,"GP8X+WJP, Rontu, Kec. Raba, Kab. Bima, Nusa Tenggara Bar. 84112","Rontu, Kec. Raba, Kab. Bima",NUSA TENGGARA BARAT,84112.0,Indonesia,,,,-8.482.673,1.187.490.849,https://maps.google.com/?cid=0x0:0xf1376522ed9e0e6a,
perumahan,Pembangunan Perumahan,Rumah Gery,"Jl loka rt.10 rw.05 Bima, Panggi, Kec. Mpunda, Kab. Bima, Nusa Tenggara Bar. 84111","Panggi, Kec. Mpunda, Kab. Bima",NUSA TENGGARA BARAT,84111.0,Indonesia,,,,-84.811.876,1.187.454.221,https://maps.google.com/?cid=0x0:0xd95286f70fb3f232,
perumahan,Komplek perumahan,Rumah Ratu,"GPCR+69H, Panggi, Kec. Mpunda, Kab. Bima, Nusa Tenggara Bar. 84111","Panggi, Kec. Mpunda, Kab. Bima",NUSA TENGGARA BARAT,84111.0,Indonesia,,,,-84.794.368,1.187.409.931,https://maps.google.com/?cid=0x0:0xb9b0b07ccc3276ad,
perumahan,Pembangunan Perumahan,HERMAWAN,"GP9V+9CV, DEPAN KTR LURAH, Panggi, Kec. Mpunda, Kab. Bima, Nusa Tenggara Bar. 84111","DEPAN KTR LURAH, Panggi, Kec. Mpunda, Kab. Bima",NUSA TENGGARA BARAT,84111.0,Indonesia,,,,-84.815.089,1.187.435.389,https://maps.google.com/?cid=0x0:0xc3e93820fea277ab,
perumahan,Pembangunan Perumahan,Perumahan kadole,"GQ37+V9M, Oi Fo'o, Kec. Rasanae Tim., Kab. Bima, Nusa Tenggara Bar. 84113","Oi Fo'o, Kec. Rasanae Tim., Kab. Bima",NUSA TENGGARA BARAT,84113.0,Indonesia,,,,-84.952.877,1.187.634.083,https://maps.google.com/?cid=0x0:0x98952490b78e9d22,
perumahan,Pembangunan Perumahan,Sedia 2,"Sedia 2 kota bima, Mande, Kec. Mpunda, Kab. Bima, Nusa Tenggara Bar.","Kab. Bima, Nusa Tenggara Bar.",NUSA TENGGARA BARAT,,Indonesia,,,,-8.471.849,1.187.422.581,https://maps.google.com/?cid=0x0:0x3a6f77ba9289a50d,
perumahan,Komplek perumahan,Putri Wulandari,"GPHW+GX5, Mande, Kec. Mpunda, Kab. Bima, Nusa Tenggara Bar.","Kab. Bima, Nusa Tenggara Bar.",NUSA TENGGARA BARAT,,Indonesia,,,,-84.712.303,1.187.474.948,https://maps.google.com/?cid=0x0:0x82f3e0104958b8eb,
perumahan,Perhimpunan Pengembang Perumahan,Kota Bima,"GP9W+G2P, Jl. Gelatik, Panggi, Kec. Mpunda, Kab. Bima, Nusa Tenggara Bar. 84111","Jl. Gelatik, Panggi, Kec. Mpunda, Kab. Bima",NUSA TENGGARA BARAT,84111.0,Indonesia,,,,-84.811.617,1.187.450.667,https://maps.google.com/?cid=0x0:0x30f0c730881338b7,
perumahan,Perhimpunan Pengembang Perumahan,RUMAH FUDHAIL,"GPCW+2GM, Panggi, Kec. Mpunda, Kab. Bima, Nusa Tenggara Bar. 84111","Panggi, Kec. Mpunda, Kab. Bima",NUSA TENGGARA BARAT,84111.0,Indonesia,,,,-84.799.129,1.187.462.993,https://maps.google.com/?cid=0x0:0x53d9d6c115d900f9,
perumahan,Pembangunan Perumahan,BTN Kelurahan Lewirato,"GPMX+FRJ, Lewirato, Kec. Mpunda, Kab. Bima, Nusa Tenggara Bar. 84111","Lewirato, Kec. Mpunda, Kab. Bima",NUSA TENGGARA BARAT,84111.0,Indonesia,,,,-84.662.871,118.749.517,https://maps.google.com/?cid=0x0:0xe801cddebf8e6f4d,
perumahan,perumahan,Rumah Iyan,"GPHQ+2RH, Sadia, Kec. Mpunda, Kab. Bima, Nusa Tenggara Bar. 84111","Sadia, Kec. Mpunda, Kab. Bima",NUSA TENGGARA BARAT,84111.0,Indonesia,,,,-8.472.429,1.187.395.977,https://maps.google.com/?cid=0x0:0x5c93201d3c5118e5,
perumahan,Perhimpunan Pengembang Perumahan,Rumah pak junaid,"GQF4+693, Rabangodu Sel., Kec. Raba, Kab. Bima, Nusa Tenggara Bar. 84112","Rabangodu Sel., Kec. Raba, Kab. Bima",NUSA TENGGARA BARAT,84112.0,Indonesia,,,,-84.767.297,1.187.559.392,https://maps.google.com/?cid=0x0:0x8e65d1197762def5,
perumahan,Perhimpunan Pengembang Perumahan,Puri LC Barat,"Jl. Kesejahteraan No.2, Lewirato, Kec. Mpunda, Kab. Bima, Nusa Tenggara Bar. 84111","Lewirato, Kec. Mpunda, Kab. Bima",NUSA TENGGARA BARAT,84111.0,Indonesia,85205265018,,,-84.676.607,1.187.503.851,https://maps.google.com/?cid=0x0:0x96e95dac033d7b1b,
perumahan,Otoritas Perumahan,BTN Pengairan Asri - Kota Bima,"GPMV+2QG, Bar., Mande, Kec. Mpunda, Kab. Bima, Nusa Tenggara Bar. 84116","Bar., Mande, Kec. Mpunda, Kab. Bima",NUSA TENGGARA BARAT,84116.0,Indonesia,,,,-84.674.321,1.187.444.538,https://maps.google.com/?cid=0x0:0xba82836a5777e5a9,
perumahan,Perhimpunan Pengembang Perumahan,Rumah GONE ZIDAN,"GQG4+5CX, Rabangodu Sel., Kec. Raba, Kab. Bima, Nusa Tenggara Bar. 84112","Rabangodu Sel., Kec. Raba, Kab. Bima",NUSA TENGGARA BARAT,84112.0,Indonesia,,,,-84.745.555,11.875.608,https://maps.google.com/?cid=0x0:0x906e024bf403f946,
perumahan,Pembangunan Perumahan,Santawo Nggarobae,"GQ88+J29, Rabadompu Tim., Kec. Raba, Kab. Bima, Nusa Tenggara Bar. 84112","Rabadompu Tim., Kec. Raba, Kab. Bima",NUSA TENGGARA BARAT,84112.0,Indonesia,82340853406,,,-84.833.089,11.876.582,https://maps.google.com/?cid=0x0:0xf92d8cdeea03a6c8,
perumahan,Komplek perumahan,TOLORATO Kel. Mande Kec. Mpunda,"GPJX+77, Mande, Kec. Mpunda, Kab. Bima, Nusa Tenggara Bar.","Kab. Bima, Nusa Tenggara Bar.",NUSA TENGGARA BARAT,,Indonesia,,,,-84.691.822,118.748.256,https://maps.google.com/?cid=0x0:0xe5d56e3ccc924e87,
perumahan,perumahan,Nusa Tenggara Bar. 84115,"Kab. Bima, Nusa Tenggara Bar.","Kab. Bima, Nusa Tenggara Bar.",NUSA TENGGARA BARAT,,Indonesia,,,,-84.769.135,1.187.839.274,https://maps.google.com/?cid=0x0:0x1211695e5508ddbe,
perumahan,Komplek perumahan,Rumah Merpati 22,"Jl. Merpati No.22, Panggi, Kec. Mpunda, Kab. Bima, Nusa Tenggara Bar. 84111","Panggi, Kec. Mpunda, Kab. Bima",NUSA TENGGARA BARAT,84111.0,Indonesia,,,,-84.818.912,1.187.475.357,https://maps.google.com/?cid=0x0:0x4ff0d808de82c908,
perumahan,Komplek perumahan,Irwantech Bima05,"GQR4+6F8, Penatoi, Kec. Mpunda, Kab. Bima, Nusa Tenggara Bar.","Kab. Bima, Nusa Tenggara Bar.",NUSA TENGGARA BARAT,,Indonesia,,,,-84.594.596,1.187.562.126,https://maps.google.com/?cid=0x0:0xc11646cd8ca32294,
perumahan,Perhimpunan Pengembang Perumahan,Rumah Raodah,"GQJJ+C8H, Jl. Pembangunan, Kendo, Kec. Raba, Kab. Bima, Nusa Tenggara Bar. 84115","Jl. Pembangunan, Kendo, Kec. Raba, Kab. Bima",NUSA TENGGARA BARAT,84115.0,Indonesia,,,,-84.689.289,1.187.808.599,https://maps.google.com/?cid=0x0:0x468c0e7c1edc478e,
perumahan,Pembangunan Perumahan,Nungga,"GQM6+35C, Nungga, Kec. Rasanae Tim., Kab. Bima, Nusa Tenggara Bar. 84115","Nungga, Kec. Rasanae Tim., Kab. Bima",NUSA TENGGARA BARAT,84115.0,Indonesia,,,,-84.673.131,1.187.603.784,https://maps.google.com/?cid=0x0:0x56cb8e66402d9558,
perumahan,Komplek perumahan,Rumah mertua,"GP9W+567, Jl. Adipura, Panggi, Kec. Mpunda, Kab. Bima, Nusa Tenggara Bar. 84112","Jl. Adipura, Panggi, Kec. Mpunda, Kab. Bima",NUSA TENGGARA BARAT,84112.0,Indonesia,,,,-84.821.207,1.187.455.378,https://maps.google.com/?cid=0x0:0xbea42025324826da,
perumahan,perumahan,Kel Rite kota,"GPGH+7P8, Sambinae, Kec. Mpunda, Kab. Bima, Nusa Tenggara Bar. 84111","Sambinae, Kec. Mpunda, Kab. Bima",NUSA TENGGARA BARAT,84111.0,Indonesia,,,,-84.566.117,1.187.600.631,https://maps.google.com/?cid=0x0:0xc3ab9348f8505e8,
perumahan,Pembangunan Perumahan,Rumah Gery,"Jl loka rt.10 rw.05 Bima, Panggi, Kec. Mpunda, Kab. Bima, Nusa Tenggara Bar. 84111","Panggi, Kec. Mpunda, Kab. Bima",NUSA TENGGARA BARAT,84111.0,Indonesia,,,,-84.811.876,1.187.454.221,https://maps.google.com/?cid=0x0:0xd95286f70fb3f232,
perumahan,Perhimpunan Pengembang Perumahan,RUMAH FUDHAIL,"GPCW+2GM, Panggi, Kec. Mpunda, Kab. Bima, Nusa Tenggara Bar. 84111","Panggi, Kec. Mpunda, Kab. Bima",NUSA TENGGARA BARAT,84111.0,Indonesia,,,,-84.799.129,1.187.462.993,https://maps.google.com/?cid=0x0:0x53d9d6c115d900f9,
perumahan,Pembangunan Perumahan,M. BUDAYA PUTRA,"GQXG+QXX, Ntobo, Kec. Raba, Kab. Bima, Nusa Tenggara Bar.","Kab. Bima, Nusa Tenggara Bar.",NUSA TENGGARA BARAT,,Indonesia,,,,-84.505.145,1.187.774.882,https://maps.google.com/?cid=0x0:0x7d16cf9fa7393b05,
perumahan,Komplek perumahan,Perumahan Amaris Greenhouse,"GQH7+VX6, Rabadompu Bar., Kec. Raba, Kab. Bima, Nusa Tenggara Bar. 84115","Rabadompu Bar., Kec. Raba, Kab. Bima",NUSA TENGGARA BARAT,84115.0,Indonesia,,,,-84.689.407,118.765.186,https://maps.google.com/?cid=0x0:0x18e19487dc0ed4cc,
perumahan,Pembangunan Perumahan,Mariamah/amirudin,"GQXH+CHH, Ntobo, Kec. Raba, Kab. Bima, Nusa Tenggara Bar.","Kab. Bima, Nusa Tenggara Bar.",NUSA TENGGARA BARAT,,Indonesia,,,,-84.514.257,1.187.789.925,https://maps.google.com/?cid=0x0:0x16e83dff148af6b5,
perumahan,Pembangunan Perumahan,Perumahan kadole,"GQ37+V9M, Oi Fo'o, Kec. Rasanae Tim., Kab. Bima, Nusa Tenggara Bar. 84113","Oi Fo'o, Kec. Rasanae Tim., Kab. Bima",NUSA TENGGARA BARAT,84113.0,Indonesia,,,,-84.952.877,1.187.634.083,https://maps.google.com/?cid=0x0:0x98952490b78e9d22,
perumahan,Komplek perumahan,Nurmi,"GQ9V+28P, Jl. Pdam, Nungga, Kec. Rasanae Tim., Kab. Bima, Nusa Tenggara Bar. 84115","Jl. Pdam, Nungga, Kec. Rasanae Tim., Kab. Bima",NUSA TENGGARA BARAT,84115.0,Indonesia,,,,-84.824.012,1.187.933.289,https://maps.google.com/?cid=0x0:0x7cce302661b81583,
perumahan,perumahan,Rumah Ginaa,"GQ2Q+JWJ, Jl. Lintas Bima-Sape, Kodo, Kec. Rasanae Tim., Kab. Bima, Nusa Tenggara Bar. 84113","Jl. Lintas Bima-Sape, Kodo, Kec. Rasanae Tim., Kab. Bima",NUSA TENGGARA BARAT,84113.0,Indonesia,,,,-84.971.783,1.187.881.507,https://maps.google.com/?cid=0x0:0xff640f8fb63c33d0,
perumahan,Komplek perumahan,Rumah yuniar,"GQQ8+J3W, Jl. Pembangunan, Penanae, Kec. Raba, Kab. Bima, Nusa Tenggara Bar. 84115","Jl. Pembangunan, Penanae, Kec. Raba, Kab. Bima",NUSA TENGGARA BARAT,84115.0,Indonesia,,,,-8.461.006,118.765.916,https://maps.google.com/?cid=0x0:0xbd5a900085cc75cd,
perumahan,Perhimpunan Pengembang Perumahan,My Sweet Home Ichek_dp,"Jl. Belimbing, Rabadompu Bar., Kec. Raba, Kab. Bima, Nusa Tenggara Bar. 84115","Rabadompu Bar., Kec. Raba, Kab. Bima",NUSA TENGGARA BARAT,84115.0,Indonesia,,,,-84.770.226,1.187.629.931,https://maps.google.com/?cid=0x0:0xae15084fc6e5ccdc,
perumahan,Perhimpunan Pengembang Perumahan,Rumah NISA WOU TAI,"GQ7G+F7F, Jl. Lintas Bima-Sape, Kumbe, Kec. Rasanae Tim., Kab. Bima, Nusa Tenggara Bar. 84115","Jl. Lintas Bima-Sape, Kumbe, Kec. Rasanae Tim., Kab. Bima",NUSA TENGGARA BARAT,84115.0,Indonesia,,,,-84.863.325,1.187.757.596,https://maps.google.com/?cid=0x0:0xe68384141ab69d0b,
perumahan,Perhimpunan Pengembang Perumahan,Saiful Abdillah,"GQC6+755, Rabadompu Bar., Kec. Raba, Kab. Bima, Nusa Tenggara Bar. 84115","Rabadompu Bar., Kec. Raba, Kab. Bima",NUSA TENGGARA BARAT,84115.0,Indonesia,,,,-8.478.799,1.187.607.637,https://maps.google.com/?cid=0x0:0x160bacd8f02165b5,
perumahan,Komplek perumahan,Rumah Aqifa,"GQG4+8RM, Kelurahan, Rabangodu Sel., Kec. Raba, Kab. Bima, Nusa Tenggara Bar. 84115","Kelurahan, Rabangodu Sel., Kec. Raba, Kab. Bima",NUSA TENGGARA BARAT,84115.0,Indonesia,,,,-84.742.207,1.187.569.869,https://maps.google.com/?cid=0x0:0x56279a32b2ae5590,
perumahan,Perhimpunan Pengembang Perumahan,Puri LC Barat,"Jl. Kesejahteraan No.2, Lewirato, Kec. Mpunda, Kab. Bima, Nusa Tenggara Bar. 84111","Lewirato, Kec. Mpunda, Kab. Bima",NUSA TENGGARA BARAT,84111.0,Indonesia,85205265018,,,-84.676.607,1.187.503.851,https://maps.google.com/?cid=0x0:0x96e95dac033d7b1b,
perumahan,Pembangunan Perumahan,Griya Pesona Rite,"GQR4+854, Penatoi, Kec. Mpunda, Kab. Bima, Nusa Tenggara Bar. 84111","Penatoi, Kec. Mpunda, Kab. Bima",NUSA TENGGARA BARAT,84111.0,Indonesia,,,,-84.592.269,1.187.554.384,https://maps.google.com/?cid=0x0:0x57b31e531998895,
perumahan,Komplek perumahan,Rumah Dion,"GQ6G+H92, Gg. Al-Kautsar, Kumbe, Kec. Rasanae Tim., Kab. Bima, Nusa Tenggara Bar. 84115","Gg. Al-Kautsar, Kumbe, Kec. Rasanae Tim., Kab. Bima",NUSA TENGGARA BARAT,84115.0,Indonesia,,,,-84.885.846,1.187.767.012,https://maps.google.com/?cid=0x0:0x157066daea61b164,
perumahan,Komplek perumahan,Rabangodu Utara,"GQJ4+5V2, Jl. Pisang, Rabangodu Utara, Kec. Raba, Kab. Bima, Nusa Tenggara Bar. 84115","Jl. Pisang, Rabangodu Utara, Kec. Raba, Kab. Bima",NUSA TENGGARA BARAT,84115.0,Indonesia,,,,-8.469.604,1.187.571.518,https://maps.google.com/?cid=0x0:0xfda31b79d53cec25,
perumahan,Komplek perumahan,Rumah Q,"GQC8+CWJ, RW.Lewiloa, Rabadompu Tim., Kec. Raba, Kab. Bima, Nusa Tenggara Bar.","Kab. Bima, Nusa Tenggara Bar.",NUSA TENGGARA BARAT,,Indonesia,,,,-84.789.249,1.187.672.547,https://maps.google.com/?cid=0x0:0x3c2b237a65b74926,
perumahan,Pembangunan Perumahan,BTN Kelurahan Lewirato,"GPMX+FRJ, Lewirato, Kec. Mpunda, Kab. Bima, Nusa Tenggara Bar. 84111","Lewirato, Kec. Mpunda, Kab. Bima",NUSA TENGGARA BARAT,84111.0,Indonesia,,,,-84.662.871,118.749.517,https://maps.google.com/?cid=0x0:0xe801cddebf8e6f4d,
perumahan,Komplek perumahan,Rumah Kaharuddin,"Jl. Pembangunan, Penanae, Kec. Raba, Kab. Bima, Nusa Tenggara Bar.","Kab. Bima, Nusa Tenggara Bar.",NUSA TENGGARA BARAT,,Indonesia,,,,-84.628.455,1.187.693.816,https://maps.google.com/?cid=0x0:0xf576da4ad8e63d3f,
perumahan,Komplek perumahan,Rumah Silfia,"HQ2H+C8V, Ntobo, Kec. Raba, Kab. Bima, Nusa Tenggara Bar. 84119","Ntobo, Kec. Raba, Kab. Bima",NUSA TENGGARA BARAT,84119.0,Indonesia,,,,-8.449.105,1.187.787.067,https://maps.google.com/?cid=0x0:0x14020783894a8c84,
perumahan,perumahan,Kec. Mpunda,"Kab. Bima, Nusa Tenggara Bar.","Kab. Bima, Nusa Tenggara Bar.",NUSA TENGGARA BARAT,,Indonesia,,,,-84.583.951,1.187.468.712,https://maps.google.com/?cid=0x0:0x5e73f7a401f39f2,
perumahan,Pembangunan Perumahan,Perumahan GRAHA KOTA,"GPWV+MW9, Santi, Kec. Mpunda, Kab. Bima, Nusa Tenggara Bar. 84116","Santi, Kec. Mpunda, Kab. Bima",NUSA TENGGARA BARAT,84116.0,Indonesia,,,,-84.533.638,1.187.448.486,https://maps.google.com/?cid=0x0:0xaabbf5364d4fa564,
perumahan,Komplek perumahan,Rumahku,"GPPV+G95, Unnamed Road, Sadia, Kec. Mpunda, Kab. Bima, Nusa Tenggara Bar. 84116","Unnamed Road, Sadia, Kec. Mpunda, Kab. Bima",NUSA TENGGARA BARAT,84116.0,Indonesia,,,,-84.637.341,1.187.434.816,https://maps.google.com/?cid=0x0:0xf55ffeb4cb836a5a,
perumahan,Komplek perumahan,TOLORATO Kel. Mande Kec. Mpunda,"GPJX+77, Mande, Kec. Mpunda, Kab. Bima, Nusa Tenggara Bar.","Kab. Bima, Nusa Tenggara Bar.",NUSA TENGGARA BARAT,,Indonesia,,,,-84.691.822,118.748.256,https://maps.google.com/?cid=0x0:0xe5d56e3ccc924e87,
perumahan,Pembangunan Perumahan,BTN MATAKANDO RESIDENCE,"GQX3+CQQ, Matakando, Kec. Mpunda, Kab. Bima, Nusa Tenggara Bar. 84111","Matakando, Kec. Mpunda, Kab. Bima",NUSA TENGGARA BARAT,84111.0,Indonesia,,,,-84.514.143,1.187.544.827,https://maps.google.com/?cid=0x0:0xd39252935a336a29,
perumahan,Komplek perumahan,Abubakar Muhdi,"GPRV+889, Gg. Sukun 2, Monggonao, Kec. Mpunda, Kab. Bima, Nusa Tenggara Bar. 84116","Gg. Sukun 2, Monggonao, Kec. Mpunda, Kab. Bima",NUSA TENGGARA BARAT,84116.0,Indonesia,,,,-84.592.098,1.187.433.732,https://maps.google.com/?cid=0x0:0xaf619f7e9f3a56da,
perumahan,perumahan,Padolo,"GPPV+7XR, Lewirato, Kec. Mpunda, Kab. Bima, Nusa Tenggara Bar.","Kab. Bima, Nusa Tenggara Bar.",NUSA TENGGARA BARAT,,Indonesia,,,,-84.642.567,1.187.448.783,https://maps.google.com/?cid=0x0:0xf556a3f1ba7c72eb,
perumahan,Pembangunan Perumahan,Tanah hidayat,"GQX3+7VX, Matakando, Kec. Mpunda, Kab. Bima, Nusa Tenggara Bar. 84111","Matakando, Kec. Mpunda, Kab. Bima",NUSA TENGGARA BARAT,84111.0,Indonesia,85333973397,,,-8.451.767,1.187.547.306,https://maps.google.com/?cid=0x0:0x7e5156fc85d59e14,
perumahan,Pembangunan Perumahan,Elang,"GQP2+34M, Jl. Kesejahteraan, RT.04/RW.02, Lewirato, Kec. Mpunda, Kab. Bima, Nusa Tenggara Bar. 84111","Jl. Kesejahteraan, RT.04/RW.02, Lewirato, Kec. Mpunda, Kab. Bima",NUSA TENGGARA BARAT,84111.0,Indonesia,,,,-84.647.997,1.187.502.845,https://maps.google.com/?cid=0x0:0x2cc40c0353dc91e3,
perumahan,Pembangunan Perumahan,My Home,"GPWX+5M6, Jl. Imam Bonjol, Tolotando, RT.03/RW.02, Matakando, Kec. Mpunda, Kab. Bima, Nusa Tenggara Bar. 84116","Jl. Imam Bonjol, Tolotando, RT.03/RW.02, Matakando, Kec. Mpunda, Kab. Bima",NUSA TENGGARA BARAT,84116.0,Indonesia,,,,-84.545.843,1.187.491.534,https://maps.google.com/?cid=0x0:0xd310bbcaedaf090b,
perumahan,Komplek perumahan,Perumahan santi Regency,"Jl. Imam Bonjol, Santi, Kec. Mpunda, Kab. Bima, Nusa Tenggara Bar. 84119","Santi, Kec. Mpunda, Kab. Bima",NUSA TENGGARA BARAT,84119.0,Indonesia,,,,-8.452.365,1.187.425.542,https://maps.google.com/?cid=0x0:0x605f29f26a0fb690,
perumahan,Komplek perumahan,rumah dayat,"GPRR+WRH, Monggonao, Kec. Mpunda, Kab. Bima, Nusa Tenggara Bar.","Kab. Bima, Nusa Tenggara Bar.",NUSA TENGGARA BARAT,,Indonesia,,,,-84.576.874,1.187.421.242,https://maps.google.com/?cid=0x0:0x8c3ec3aeb89f9d9a,
perumahan,Gedung Apartemen,Rumah,"GPVQ+4GC, Monggonao, Kec. Mpunda, Kab. Bima, Nusa Tenggara Bar. 84117","Monggonao, Kec. Mpunda, Kab. Bima",NUSA TENGGARA BARAT,84117.0,Indonesia,,,,-84.582.481,1.187.379.949,https://maps.google.com/?cid=0x0:0xd57058f3cddc4128,
perumahan,Komplek perumahan,Rumah Kosong,"GPPR+FJV, Unnamed Road, Sadia, Kec. Mpunda, Kab. Bima, Nusa Tenggara Bar. 84116","Unnamed Road, Sadia, Kec. Mpunda, Kab. Bima",NUSA TENGGARA BARAT,84116.0,Indonesia,,,,-84.637.711,1.187.415.585,https://maps.google.com/?cid=0x0:0x7d57a6149cf1f71f,
perumahan,Komplek perumahan,Manggelewa,"GPPV+7XR, Lewirato, Kec. Mpunda, Kab. Bima, Nusa Tenggara Bar.","Kab. Bima, Nusa Tenggara Bar.",NUSA TENGGARA BARAT,,Indonesia,,,,-84.642.567,1.187.448.783,https://maps.google.com/?cid=0x0:0x7cad96b82fb12483,
perumahan,Gedung Apartemen,Rumah arthi,"GQX2+RJQ, Matakando, Kec. Mpunda, Kab. Bima, Nusa Tenggara Bar. 84116","Matakando, Kec. Mpunda, Kab. Bima",NUSA TENGGARA BARAT,84116.0,Indonesia,,,,-84.495.101,118.751.748,https://maps.google.com/?cid=0x0:0xee41157ea8eba5fc,
perumahan,Pembangunan Perumahan,Suci kurnia ilahi,"Jl. Kad'ondo gang kedondo No.3, Sambinae, Kec. Mpunda, Kab. Bima, Nusa Tenggara Bar. 84119","Sambinae, Kec. Mpunda, Kab. Bima",NUSA TENGGARA BARAT,84119.0,Indonesia,,,,-84.731.972,1.187.398.659,https://maps.google.com/?cid=0x0:0x1ccadcc508903c61,
perumahan,Pembangunan Perumahan,Uma Aba,"GPRV+25G, Gg. Sukun 2, Monggonao, Kec. Mpunda, Kab. Bima, Nusa Tenggara Bar. 84116","Gg. Sukun 2, Monggonao, Kec. Mpunda, Kab. Bima",NUSA TENGGARA BARAT,84116.0,Indonesia,,,,-84.599.259,1.187.429.642,https://maps.google.com/?cid=0x0:0x9bcfc17742b9f038,
perumahan,Pembangunan Perumahan,Villa cantik,"Jln. Akuntansi gg. Bima No.2D, Monggonao, Kec. Mpunda, Kab. Bima, Nusa Tenggara Bar. 84117","Monggonao, Kec. Mpunda, Kab. Bima",NUSA TENGGARA BARAT,84117.0,Indonesia,,,,-84.553.794,1.187.383.751,https://maps.google.com/?cid=0x0:0x4101e4c6f1bd3885,
perumahan,Komplek perumahan,KOS DAN RENT CAR,"GPRQ+6PJ, Monggonao, Kec. Mpunda, Kab. Bima, Nusa Tenggara Bar. 84117","Monggonao, Kec. Mpunda, Kab. Bima",NUSA TENGGARA BARAT,84117.0,Indonesia,,,,-84.594.213,1.187.392.674,https://maps.google.com/?cid=0x0:0x6e09455b3d5f4b77,
perumahan,Komplek perumahan,RUMAH AWANN,"GPJV+VPX, Sambinae, Kec. Mpunda, Kab. Bima, Nusa Tenggara Bar. 84116","Sambinae, Kec. Mpunda, Kab. Bima",NUSA TENGGARA BARAT,84116.0,Indonesia,,,,-84.677.526,118.744.352,https://maps.google.com/?cid=0x0:0xfd0ab286fc73901,
perumahan,Komplek perumahan,Pembibitan MHK,"GPHQ+QH9, Belakang BTN Sadia Permai, Sadia, Kec. Mpunda, Kab. Bima, Nusa Tenggara Bar. 84111","Belakang BTN Sadia Permai, Sadia, Kec. Mpunda, Kab. Bima",NUSA TENGGARA BARAT,84111.0,Indonesia,,,,-8.470.581,118.738.975,https://maps.google.com/?cid=0x0:0x23e9fd32cf2017a6,
perumahan,Pembangunan Perumahan,My Home,"GPHR+RFH, RT.13/RW.03, Sadia, Kec. Mpunda, Kab. Bima, Nusa Tenggara Bar. 84111","RT.13/RW.03, Sadia, Kec. Mpunda, Kab. Bima",NUSA TENGGARA BARAT,84111.0,Indonesia,82340111613,,,-84.704.257,1.187.412.464,https://maps.google.com/?cid=0x0:0x23551b6a7b901dfe,
perumahan,Komplek perumahan,Rumah saya,"GPVW+48P, Santi, Kec. Mpunda, Kab. Bima, Nusa Tenggara Bar. 84116","Santi, Kec. Mpunda, Kab. Bima",NUSA TENGGARA BARAT,84116.0,Indonesia,,,,-84.571.031,11.874.576,https://maps.google.com/?cid=0x0:0x7b1c8793e19b6a7,
perumahan,Pembangunan Perumahan,Perumahan Rutan,"GPPV+7XR, Lewirato, Kec. Mpunda, Kab. Bima, Nusa Tenggara Bar.","Kab. Bima, Nusa Tenggara Bar.",NUSA TENGGARA BARAT,,Indonesia,,,,-84.642.567,1.187.448.783,https://maps.google.com/?cid=0x0:0x2949bfd74f757adb,
perumahan,Komplek perumahan,SEKRET KPG REG BIMA,"GPPV+7XR, Lewirato, Kec. Mpunda, Kab. Bima, Nusa Tenggara Bar.","Kab. Bima, Nusa Tenggara Bar.",NUSA TENGGARA BARAT,,Indonesia,,,,-84.642.567,1.187.448.783,https://maps.google.com/?cid=0x0:0xdad5117d561651eb,
perumahan,Pembangunan Perumahan,BTN Kelurahan Lewirato,"GPMX+FRJ, Lewirato, Kec. Mpunda, Kab. Bima, Nusa Tenggara Bar. 84111","Lewirato, Kec. Mpunda, Kab. Bima",NUSA TENGGARA BARAT,84111.0,Indonesia,,,,-84.662.871,118.749.517,https://maps.google.com/?cid=0x0:0xe801cddebf8e6f4d,
perumahan,Komplek perumahan,Lapak macaru,"GPQM+W77, Gg. Mesjid, Manggemaci, Kec. Mpunda, Kab. Bima, Nusa Tenggara Bar. 84117","Gg. Mesjid, Manggemaci, Kec. Mpunda, Kab. Bima",NUSA TENGGARA BARAT,84117.0,Indonesia,85337260480,,,-84.602.209,1.187.331.759,https://maps.google.com/?cid=0x0:0xb585e55f096266c3,
perumahan,perumahan,Nusa Tenggara Bar. 84113,"Kabupaten Bima, Nusa Tenggara Bar.","Kabupaten Bima, Nusa Tenggara Bar.",NUSA TENGGARA BARAT,,Indonesia,,,,-85.152.898,1.187.955.841,https://maps.google.com/?cid=0x0:0x155acae54b6146de,
perumahan,Komplek perumahan,Rumah Q,"GQC8+CWJ, RW.Lewiloa, Rabadompu Tim., Kec. Raba, Kab. Bima, Nusa Tenggara Bar.","Kab. Bima, Nusa Tenggara Bar.",NUSA TENGGARA BARAT,,Indonesia,,,,-84.789.249,1.187.672.547,https://maps.google.com/?cid=0x0:0x3c2b237a65b74926,
perumahan,Komplek perumahan,Rumah Reyhan,"GQF4+75G, Kelurahan Rabangodu selatan, RT.006, Rt003, Kec. Raba","Kab. Bima, Nusa Tenggara Bar.",NUSA TENGGARA BARAT,,Indonesia,,,,-84.768.085,118.755.452,https://maps.google.com/?cid=0x0:0x50157ad8bdc5bafb,
perumahan,Pembangunan Perumahan,Perumahan kadole,"GQ37+V9M, Oi Fo'o, Kec. Rasanae Tim., Kab. Bima, Nusa Tenggara Bar. 84113","Oi Fo'o, Kec. Rasanae Tim., Kab. Bima",NUSA TENGGARA BARAT,84113.0,Indonesia,,,,-84.952.877,1.187.634.083,https://maps.google.com/?cid=0x0:0x98952490b78e9d22,
perumahan,Komplek perumahan,Nurdiati aspara bia,"GR35+C6W, Dodu, Kec. Rasanae Tim., Kab. Bima, Nusa Tenggara Bar. 84113","Dodu, Kec. Rasanae Tim., Kab. Bima",NUSA TENGGARA BARAT,84113.0,Indonesia,82147586187,,,-8.496.376,118.808.087,https://maps.google.com/?cid=0x0:0x143e04df1fd58b9e,
perumahan,Pembangunan Perumahan,Santawo Nggarobae,"GQ88+J29, Rabadompu Tim., Kec. Raba, Kab. Bima, Nusa Tenggara Bar. 84112","Rabadompu Tim., Kec. Raba, Kab. Bima",NUSA TENGGARA BARAT,84112.0,Indonesia,82340853406,,,-84.833.089,11.876.582,https://maps.google.com/?cid=0x0:0xf92d8cdeea03a6c8,
perumahan,Perhimpunan Pengembang Perumahan,Saiful Abdillah,"GQC6+755, Rabadompu Bar., Kec. Raba, Kab. Bima, Nusa Tenggara Bar. 84115","Rabadompu Bar., Kec. Raba, Kab. Bima",NUSA TENGGARA BARAT,84115.0,Indonesia,,,,-8.478.799,1.187.607.637,https://maps.google.com/?cid=0x0:0x160bacd8f02165b5,
perumahan,Komplek perumahan,Rabangodu Utara,"GQJ4+5V2, Jl. Pisang, Rabangodu Utara, Kec. Raba, Kab. Bima, Nusa Tenggara Bar. 84115","Jl. Pisang, Rabangodu Utara, Kec. Raba, Kab. Bima",NUSA TENGGARA BARAT,84115.0,Indonesia,,,,-8.469.604,1.187.571.518,https://maps.google.com/?cid=0x0:0xfda31b79d53cec25,
perumahan,perumahan,Raba dompu,"GQF7+6G5, Jl. Ir Sutami, Rabadompu Bar., Kec. Raba, Kab. Bima, Nusa Tenggara Bar. 84115","Jl. Ir Sutami, Rabadompu Bar., Kec. Raba, Kab. Bima",NUSA TENGGARA BARAT,84115.0,Indonesia,,,,-8.476.977,1.187.638.591,https://maps.google.com/?cid=0x0:0x91c06e6d16f4bfe5,
perumahan,Perhimpunan Pengembang Perumahan,RUMAH BANG IFENK,"GQF4+6CX, Rabangodu Sel., Kec. Raba, Kab. Bima, Nusa Tenggara Bar.","Kab. Bima, Nusa Tenggara Bar.",NUSA TENGGARA BARAT,,Indonesia,,,,-84.768.819,118.756.103,https://maps.google.com/?cid=0x0:0x2545c98405bd77f7,
perumahan,Pembangunan Perumahan,Kematan raba,"GQM5+J7P, Penaraga, Kec. Raba, Kab. Bima, Nusa Tenggara Bar. 84115","Penaraga, Kec. Raba, Kab. Bima",NUSA TENGGARA BARAT,84115.0,Indonesia,,,,-846.602,11.875.871,https://maps.google.com/?cid=0x0:0x2f06a83591876593,
perumahan,Komplek perumahan,TOLOSARI Kel. Rabangodu Utara Kec. Raba,"Rabangodu Utara, Kec. Raba, Kab. Bima, Nusa Tenggara Bar.","Kab. Bima, Nusa Tenggara Bar.",NUSA TENGGARA BARAT,,Indonesia,,,,-8.469.954,1.187.530.582,https://maps.google.com/?cid=0x0:0x4e1519fe116e13bf,
perumahan,Komplek perumahan,"Nitu,Kota Bima,Nusa Tengara Barat.Indonesia","FPRW+P8, Nitu, Kec. Raba, Kab. Bima, Nusa Tenggara Bar.","Kab. Bima, Nusa Tenggara Bar.",NUSA TENGGARA BARAT,,Indonesia,,,,-85.081.875,1.187.458.125,https://maps.google.com/?cid=0x0:0x97eb4b026e7f8fdd,
perumahan,Komplek perumahan,Abdul Malik M Ali,"GQ99+JQF, Jl. Lintas Bima-Sape, Rabadompu Tim., Kec. Raba, Kab. Bima, Nusa Tenggara Bar. 84115","Jl. Lintas Bima-Sape, Rabadompu Tim., Kec. Raba, Kab. Bima",NUSA TENGGARA BARAT,84115.0,Indonesia,,,,-84.809.416,1.187.694.125,https://maps.google.com/?cid=0x0:0x72f4f6b060f7b3a5,
perumahan,Pembangunan Perumahan,Rumah kost Bapak Sila,"Jl. Soekarno Hatta No.29, Rabangodu Utara, Kec. Raba, Kab. Bima, Nusa Tenggara Bar. 84113","Rabangodu Utara, Kec. Raba, Kab. Bima",NUSA TENGGARA BARAT,84113.0,Indonesia,,,,-84.669.758,118.756.042,https://maps.google.com/?cid=0x0:0xb8367a57a69da08e,
perumahan,Pembangunan Perumahan,jainudin,"GQ97+XV7, Rabadompu Bar., Kec. Raba, Kab. Bima, Nusa Tenggara Bar. 84115","Rabadompu Bar., Kec. Raba, Kab. Bima",NUSA TENGGARA BARAT,84115.0,Indonesia,,,,-84.800.987,1.187.646.813,https://maps.google.com/?cid=0x0:0x3fea0ec8f925b185,
perumahan,Komplek perumahan,RUMAH Di JUAL,"GQF4+RFF, Rabangodu Sel., Kec. Raba, Kab. Bima, Nusa Tenggara Bar.","Kab. Bima, Nusa Tenggara Bar.",NUSA TENGGARA BARAT,,Indonesia,87865922727,,,-84.754.405,1.187.561.619,https://maps.google.com/?cid=0x0:0xbe20dabfa352d3b2,
perumahan,Perhimpunan Pengembang Perumahan,Rumah GONE ZIDAN,"GQG4+5CX, Rabangodu Sel., Kec. Raba, Kab. Bima, Nusa Tenggara Bar. 84112","Rabangodu Sel., Kec. Raba, Kab. Bima",NUSA TENGGARA BARAT,84112.0,Indonesia,,,,-84.745.555,11.875.608,https://maps.google.com/?cid=0x0:0x906e024bf403f946,
perumahan,Perhimpunan Pengembang Perumahan,Rumah Pak Kepala,"GQF4+4J8, Rabangodu Sel., Kec. Raba, Kab. Bima, Nusa Tenggara Bar.","Kab. Bima, Nusa Tenggara Bar.",NUSA TENGGARA BARAT,,Indonesia,,,,-84.772.069,1.187.565.782,https://maps.google.com/?cid=0x0:0xbe91fcbec65afa01,
perumahan,Perhimpunan Pengembang Perumahan,Rumah pak junaid,"GQF4+693, Rabangodu Sel., Kec. Raba, Kab. Bima, Nusa Tenggara Bar. 84112","Rabangodu Sel., Kec. Raba, Kab. Bima",NUSA TENGGARA BARAT,84112.0,Indonesia,,,,-84.767.297,1.187.559.392,https://maps.google.com/?cid=0x0:0x8e65d1197762def5,
perumahan,Komplek perumahan,Rumah M. Jabir Sidik,"Jl. Durian, RT.3/RW.2, Rabangodu Utara, Kec. Raba, Kab. Bima, Nusa Tenggara Bar. 84113","RT.3/RW.2, Rabangodu Utara, Kec. Raba, Kab. Bima",NUSA TENGGARA BARAT,84113.0,Indonesia,,,,-846.889,1.187.596.554,https://maps.google.com/?cid=0x0:0x92facdf81fdc9e5f,
perumahan,Komplek perumahan,Perumahan Amaris Greenhouse,"GQH7+VX6, Rabadompu Bar., Kec. Raba, Kab. Bima, Nusa Tenggara Bar. 84115","Rabadompu Bar., Kec. Raba, Kab. Bima",NUSA TENGGARA BARAT,84115.0,Indonesia,,,,-84.689.407,118.765.186,https://maps.google.com/?cid=0x0:0x18e19487dc0ed4cc,
perumahan,Komplek perumahan,Perumahan Dinas Hakim,"Jl. Kedondong No.16, Rabangodu Sel., Kec. Raba, Kab. Bima, Nusa Tenggara Bar. 84113","Rabangodu Sel., Kec. Raba, Kab. Bima",NUSA TENGGARA BARAT,84113.0,Indonesia,,,,-84.737.754,1.187.589.384,https://maps.google.com/?cid=0x0:0x5712eddca1916f8e,
perumahan,perumahan,Nusa Tenggara Bar. 84115,"Kab. Bima, Nusa Tenggara Bar.","Kab. Bima, Nusa Tenggara Bar.",NUSA TENGGARA BARAT,,Indonesia,,,,-84.769.135,1.187.839.274,https://maps.google.com/?cid=0x0:0x1211695e5508ddbe,
perumahan,Komplek perumahan,Rumah Q,"GQC8+CWJ, RW.Lewiloa, Rabadompu Tim., Kec. Raba, Kab. Bima, Nusa Tenggara Bar.","Kab. Bima, Nusa Tenggara Bar.",NUSA TENGGARA BARAT,,Indonesia,,,,-84.789.249,1.187.672.547,https://maps.google.com/?cid=0x0:0x3c2b237a65b74926,
perumahan,Perhimpunan Pengembang Perumahan,Saiful Abdillah,"GQC6+755, Rabadompu Bar., Kec. Raba, Kab. Bima, Nusa Tenggara Bar. 84115","Rabadompu Bar., Kec. Raba, Kab. Bima",NUSA TENGGARA BARAT,84115.0,Indonesia,,,,-8.478.799,1.187.607.637,https://maps.google.com/?cid=0x0:0x160bacd8f02165b5,
perumahan,Komplek perumahan,Rabangodu Utara,"GQJ4+5V2, Jl. Pisang, Rabangodu Utara, Kec. Raba, Kab. Bima, Nusa Tenggara Bar. 84115","Jl. Pisang, Rabangodu Utara, Kec. Raba, Kab. Bima",NUSA TENGGARA BARAT,84115.0,Indonesia,,,,-8.469.604,1.187.571.518,https://maps.google.com/?cid=0x0:0xfda31b79d53cec25,
perumahan,Perhimpunan Pengembang Perumahan,Rumah Raodah,"GQJJ+C8H, Jl. Pembangunan, Kendo, Kec. Raba, Kab. Bima, Nusa Tenggara Bar. 84115","Jl. Pembangunan, Kendo, Kec. Raba, Kab. Bima",NUSA TENGGARA BARAT,84115.0,Indonesia,,,,-84.689.289,1.187.808.599,https://maps.google.com/?cid=0x0:0x468c0e7c1edc478e,
perumahan,Pembangunan Perumahan,Kematan raba,"GQM5+J7P, Penaraga, Kec. Raba, Kab. Bima, Nusa Tenggara Bar. 84115","Penaraga, Kec. Raba, Kab. Bima",NUSA TENGGARA BARAT,84115.0,Indonesia,,,,-846.602,11.875.871,https://maps.google.com/?cid=0x0:0x2f06a83591876593,
perumahan,Komplek perumahan,Rumah Aqifa,"GQG4+8RM, Kelurahan, Rabangodu Sel., Kec. Raba, Kab. Bima, Nusa Tenggara Bar. 84115","Kelurahan, Rabangodu Sel., Kec. Raba, Kab. Bima",NUSA TENGGARA BARAT,84115.0,Indonesia,,,,-84.742.207,1.187.569.869,https://maps.google.com/?cid=0x0:0x56279a32b2ae5590,
perumahan,Perhimpunan Pengembang Perumahan,My Sweet Home Ichek_dp,"Jl. Belimbing, Rabadompu Bar., Kec. Raba, Kab. Bima, Nusa Tenggara Bar. 84115","Rabadompu Bar., Kec. Raba, Kab. Bima",NUSA TENGGARA BARAT,84115.0,Indonesia,,,,-84.770.226,1.187.629.931,https://maps.google.com/?cid=0x0:0xae15084fc6e5ccdc,
perumahan,Komplek perumahan,Rumah Kaharuddin,"Jl. Pembangunan, Penanae, Kec. Raba, Kab. Bima, Nusa Tenggara Bar.","Kab. Bima, Nusa Tenggara Bar.",NUSA TENGGARA BARAT,,Indonesia,,,,-84.628.455,1.187.693.816,https://maps.google.com/?cid=0x0:0xf576da4ad8e63d3f,
perumahan,Komplek perumahan,Rumah Reyhan,"GQF4+75G, Kelurahan Rabangodu selatan, RT.006, Rt003, Kec. Raba","Kab. Bima, Nusa Tenggara Bar.",NUSA TENGGARA BARAT,,Indonesia,,,,-84.768.085,118.755.452,https://maps.google.com/?cid=0x0:0x50157ad8bdc5bafb,
perumahan,Perhimpunan Pengembang Perumahan,Rumah GONE ZIDAN,"GQG4+5CX, Rabangodu Sel., Kec. Raba, Kab. Bima, Nusa Tenggara Bar. 84112","Rabangodu Sel., Kec. Raba, Kab. Bima",NUSA TENGGARA BARAT,84112.0,Indonesia,,,,-84.745.555,11.875.608,https://maps.google.com/?cid=0x0:0x906e024bf403f946,
perumahan,perumahan,Raba dompu,"GQF7+6G5, Jl. Ir Sutami, Rabadompu Bar., Kec. Raba, Kab. Bima, Nusa Tenggara Bar. 84115","Jl. Ir Sutami, Rabadompu Bar., Kec. Raba, Kab. Bima",NUSA TENGGARA BARAT,84115.0,Indonesia,,,,-8.476.977,1.187.638.591,https://maps.google.com/?cid=0x0:0x91c06e6d16f4bfe5,
perumahan,Komplek perumahan,Rumah Silfia,"HQ2H+C8V, Ntobo, Kec. Raba, Kab. Bima, Nusa Tenggara Bar. 84119","Ntobo, Kec. Raba, Kab. Bima",NUSA TENGGARA BARAT,84119.0,Indonesia,,,,-8.449.105,1.187.787.067,https://maps.google.com/?cid=0x0:0x14020783894a8c84,
perumahan,Perhimpunan Pengembang Perumahan,RUMAH BANG IFENK,"GQF4+6CX, Rabangodu Sel., Kec. Raba, Kab. Bima, Nusa Tenggara Bar.","Kab. Bima, Nusa Tenggara Bar.",NUSA TENGGARA BARAT,,Indonesia,,,,-84.768.819,118.756.103,https://maps.google.com/?cid=0x0:0x2545c98405bd77f7,
perumahan,Komplek perumahan,A.Rafik A. Rajak,"Jl. Soekarno Hatta No.20, Rabangodu Utara, Raba, Bima, Rabangodu Utara, Kec. Raba, Kab. Bima, Nusa Tenggara Bar. 84115","Rabangodu Utara, Raba, Bima, Rabangodu Utara, Kec. Raba, Kab. Bima",NUSA TENGGARA BARAT,84115.0,Indonesia,,,,-84.703.458,1.187.625.912,https://maps.google.com/?cid=0x0:0x785655a7e763921a,
perumahan,Perhimpunan Pengembang Perumahan,Rumah Pak Kepala,"GQF4+4J8, Rabangodu Sel., Kec. Raba, Kab. Bima, Nusa Tenggara Bar.","Kab. Bima, Nusa Tenggara Bar.",NUSA TENGGARA BARAT,,Indonesia,,,,-84.772.069,1.187.565.782,https://maps.google.com/?cid=0x0:0xbe91fcbec65afa01,
perumahan,Pembangunan Perumahan,HAJARAH,"GQXJ+QC9, Ntobo, Kec. Raba, Kab. Bima, Nusa Tenggara Bar. 84119","Ntobo, Kec. Raba, Kab. Bima",NUSA TENGGARA BARAT,84119.0,Indonesia,,,,-84.505.843,1.187.811.014,https://maps.google.com/?cid=0x0:0xac649961cbf95a8f,
perumahan,Komplek perumahan,Perumahan Amaris Greenhouse,"GQH7+VX6, Rabadompu Bar., Kec. Raba, Kab. Bima, Nusa Tenggara Bar. 84115","Rabadompu Bar., Kec. Raba, Kab. Bima",NUSA TENGGARA BARAT,84115.0,Indonesia,,,,-84.689.407,118.765.186,https://maps.google.com/?cid=0x0:0x18e19487dc0ed4cc,
perumahan,perumahan,Nabil,"GQP5+MCJ, Penaraga, Kec. Raba, Kab. Bima, Nusa Tenggara Bar.","Kab. Bima, Nusa Tenggara Bar.",NUSA TENGGARA BARAT,,Indonesia,,,,-84.632.845,1.187.585.234,https://maps.google.com/?cid=0x0:0xf8e2af6c1a32a9b8,
perumahan,Pembangunan Perumahan,Mariamah/amirudin,"GQXH+CHH, Ntobo, Kec. Raba, Kab. Bima, Nusa Tenggara Bar.","Kab. Bima, Nusa Tenggara Bar.",NUSA TENGGARA BARAT,,Indonesia,,,,-84.514.257,1.187.789.925,https://maps.google.com/?cid=0x0:0x16e83dff148af6b5,
perumahan,Komplek perumahan,Abdul Malik M Ali,"GQ99+JQF, Jl. Lintas Bima-Sape, Rabadompu Tim., Kec. Raba, Kab. Bima, Nusa Tenggara Bar. 84115","Jl. Lintas Bima-Sape, Rabadompu Tim., Kec. Raba, Kab. Bima",NUSA TENGGARA BARAT,84115.0,Indonesia,,,,-84.809.416,1.187.694.125,https://maps.google.com/?cid=0x0:0x72f4f6b060f7b3a5,
perumahan,Pembangunan Perumahan,Nungga,"GQM6+35C, Nungga, Kec. Rasanae Tim., Kab. Bima, Nusa Tenggara Bar. 84115","Nungga, Kec. Rasanae Tim., Kab. Bima",NUSA TENGGARA BARAT,84115.0,Indonesia,,,,-84.673.131,1.187.603.784,https://maps.google.com/?cid=0x0:0x56cb8e66402d9558,
perumahan,Komplek perumahan,TOLOSARI Kel. Rabangodu Utara Kec. Raba,"Rabangodu Utara, Kec. Raba, Kab. Bima, Nusa Tenggara Bar.","Kab. Bima, Nusa Tenggara Bar.",NUSA TENGGARA BARAT,,Indonesia,,,,-8.469.954,1.187.530.582,https://maps.google.com/?cid=0x0:0x4e1519fe116e13bf,
perumahan,Pembangunan Perumahan,ANHAR,"GQXG+M6W, Ntobo, Kec. Raba, Kab. Bima, Nusa Tenggara Bar. 84119","Ntobo, Kec. Raba, Kab. Bima",NUSA TENGGARA BARAT,84119.0,Indonesia,,,,-84.507.721,1.187.755.913,https://maps.google.com/?cid=0x0:0x7ac0200d5417beed,
perumahan,Komplek perumahan,LAWOTO Kel. Rabangodu Selatan Kec. Raba,"GQH2+7J8, Rabangodu Sel., Kec. Raba, Kab. Bima, Nusa Tenggara Bar.","Kab. Bima, Nusa Tenggara Bar.",NUSA TENGGARA BARAT,,Indonesia,,,,-84.718.481,1.187.515.848,https://maps.google.com/?cid=0x0:0xdbe90d55789424d7,
perumahan,Komplek perumahan,Rumah Q,"GQC8+CWJ, RW.Lewiloa, Rabadompu Tim., Kec. Raba, Kab. Bima, Nusa Tenggara Bar.","Kab. Bima, Nusa Tenggara Bar.",NUSA TENGGARA BARAT,,Indonesia,,,,-84.789.249,1.187.672.547,https://maps.google.com/?cid=0x0:0x3c2b237a65b74926,
perumahan,perumahan,Kec. Raba,"Kab. Bima, Nusa Tenggara Bar.","Kab. Bima, Nusa Tenggara Bar.",NUSA TENGGARA BARAT,,Indonesia,,,,-84.666.508,118.757.814,https://maps.google.com/?cid=0x0:0xce956a7089b21641,
perumahan,Komplek perumahan,Rite Kec. Raba Kota Bima NTB,"GQV3+Q4Q, Jl. Pemuda, RT.06/RW.03, Rite, Kec. Raba, Kab. Bima, Nusa Tenggara Bar.","Kab. Bima, Nusa Tenggara Bar.",NUSA TENGGARA BARAT,,Indonesia,,,,-84.555.485,1.187.528.652,https://maps.google.com/?cid=0x0:0x5001ed4dcf35b320,
perumahan,Komplek perumahan,Rumah Kaharuddin,"Jl. Pembangunan, Penanae, Kec. Raba, Kab. Bima, Nusa Tenggara Bar.","Kab. Bima, Nusa Tenggara Bar.",NUSA TENGGARA BARAT,,Indonesia,,,,-84.628.455,1.187.693.816,https://maps.google.com/?cid=0x0:0xf576da4ad8e63d3f,
perumahan,Pembangunan Perumahan,Perumahan Rontu Permai,"GP8X+WJP, Rontu, Kec. Raba, Kab. Bima, Nusa Tenggara Bar. 84112","Rontu, Kec. Raba, Kab. Bima",NUSA TENGGARA BARAT,84112.0,Indonesia,,,,-8.482.673,1.187.490.849,https://maps.google.com/?cid=0x0:0xf1376522ed9e0e6a,
perumahan,Komplek perumahan,Rato,"GQJ4+QGC, Rabangodu Utara, Kec. Raba, Kab. Bima, Nusa Tenggara Bar. 84111","Rabangodu Utara, Kec. Raba, Kab. Bima",NUSA TENGGARA BARAT,84111.0,Indonesia,,,,-84.680.744,1.187.562.743,https://maps.google.com/?cid=0x0:0x2cadaa9f78906fa1,
perumahan,Perhimpunan Pengembang Perumahan,Rumah GONE ZIDAN,"GQG4+5CX, Rabangodu Sel., Kec. Raba, Kab. Bima, Nusa Tenggara Bar. 84112","Rabangodu Sel., Kec. Raba, Kab. Bima",NUSA TENGGARA BARAT,84112.0,Indonesia,,,,-84.745.555,11.875.608,https://maps.google.com/?cid=0x0:0x906e024bf403f946,
perumahan,Komplek perumahan,Rumah yuniar,"GQQ8+J3W, Jl. Pembangunan, Penanae, Kec. Raba, Kab. Bima, Nusa Tenggara Bar. 84115","Jl. Pembangunan, Penanae, Kec. Raba, Kab. Bima",NUSA TENGGARA BARAT,84115.0,Indonesia,,,,-8.461.006,118.765.916,https://maps.google.com/?cid=0x0:0xbd5a900085cc75cd,
perumahan,Komplek perumahan,Rabangodu Utara,"GQJ4+5V2, Jl. Pisang, Rabangodu Utara, Kec. Raba, Kab. Bima, Nusa Tenggara Bar. 84115","Jl. Pisang, Rabangodu Utara, Kec. Raba, Kab. Bima",NUSA TENGGARA BARAT,84115.0,Indonesia,,,,-8.469.604,1.187.571.518,https://maps.google.com/?cid=0x0:0xfda31b79d53cec25,
perumahan,perumahan,Raba dompu,"GQF7+6G5, Jl. Ir Sutami, Rabadompu Bar., Kec. Raba, Kab. Bima, Nusa Tenggara Bar. 84115","Jl. Ir Sutami, Rabadompu Bar., Kec. Raba, Kab. Bima",NUSA TENGGARA BARAT,84115.0,Indonesia,,,,-8.476.977,1.187.638.591,https://maps.google.com/?cid=0x0:0x91c06e6d16f4bfe5,
perumahan,perumahan,Nabil,"GQP5+MCJ, Penaraga, Kec. Raba, Kab. Bima, Nusa Tenggara Bar.","Kab. Bima, Nusa Tenggara Bar.",NUSA TENGGARA BARAT,,Indonesia,,,,-84.632.845,1.187.585.234,https://maps.google.com/?cid=0x0:0xf8e2af6c1a32a9b8,
perumahan,Pembangunan Perumahan,Kematan raba,"GQM5+J7P, Penaraga, Kec. Raba, Kab. Bima, Nusa Tenggara Bar. 84115","Penaraga, Kec. Raba, Kab. Bima",NUSA TENGGARA BARAT,84115.0,Indonesia,,,,-846.602,11.875.871,https://maps.google.com/?cid=0x0:0x2f06a83591876593,
perumahan,Komplek perumahan,Rumah Silfia,"HQ2H+C8V, Ntobo, Kec. Raba, Kab. Bima, Nusa Tenggara Bar. 84119","Ntobo, Kec. Raba, Kab. Bima",NUSA TENGGARA BARAT,84119.0,Indonesia,,,,-8.449.105,1.187.787.067,https://maps.google.com/?cid=0x0:0x14020783894a8c84,
perumahan,Komplek perumahan,A.Rafik A. Rajak,"Jl. Soekarno Hatta No.20, Rabangodu Utara, Raba, Bima, Rabangodu Utara, Kec. Raba, Kab. Bima, Nusa Tenggara Bar. 84115","Rabangodu Utara, Raba, Bima, Rabangodu Utara, Kec. Raba, Kab. Bima",NUSA TENGGARA BARAT,84115.0,Indonesia,,,,-84.703.458,1.187.625.912,https://maps.google.com/?cid=0x0:0x785655a7e763921a,
perumahan,Perhimpunan Pengembang Perumahan,My Sweet Home Ichek_dp,"Jl. Belimbing, Rabadompu Bar., Kec. Raba, Kab. Bima, Nusa Tenggara Bar. 84115","Rabadompu Bar., Kec. Raba, Kab. Bima",NUSA TENGGARA BARAT,84115.0,Indonesia,,,,-84.770.226,1.187.629.931,https://maps.google.com/?cid=0x0:0xae15084fc6e5ccdc,
perumahan,Komplek perumahan,RUMAH Di JUAL,"GQF4+RFF, Rabangodu Sel., Kec. Raba, Kab. Bima, Nusa Tenggara Bar.","Kab. Bima, Nusa Tenggara Bar.",NUSA TENGGARA BARAT,,Indonesia,87865922727,,,-84.754.405,1.187.561.619,https://maps.google.com/?cid=0x0:0xbe20dabfa352d3b2,
perumahan,perumahan,Rumahh oboo,"GQF7+HH4, Rabadompu Bar., Kec. Raba, Kab. Bima, Nusa Tenggara Bar. 84115","Rabadompu Bar., Kec. Raba, Kab. Bima",NUSA TENGGARA BARAT,84115.0,Indonesia,,,,-8.476.107,118.763.864,https://maps.google.com/?cid=0x0:0x9f15ece2f8123ff4,
perumahan,Perhimpunan Pengembang Perumahan,RUMAH BANG IFENK,"GQF4+6CX, Rabangodu Sel., Kec. Raba, Kab. Bima, Nusa Tenggara Bar.","Kab. Bima, Nusa Tenggara Bar.",NUSA TENGGARA BARAT,,Indonesia,,,,-84.768.819,118.756.103,https://maps.google.com/?cid=0x0:0x2545c98405bd77f7,
perumahan,Komplek perumahan,LAWOTO Kel. Rabangodu Selatan Kec. Raba,"GQH2+7J8, Rabangodu Sel., Kec. Raba, Kab. Bima, Nusa Tenggara Bar.","Kab. Bima, Nusa Tenggara Bar.",NUSA TENGGARA BARAT,,Indonesia,,,,-84.718.481,1.187.515.848,https://maps.google.com/?cid=0x0:0xdbe90d55789424d7,
perumahan,perumahan,Rumah H Sanusi MK,"GQP9+PWH, Penanae, Kec. Raba, Kab. Bima, Nusa Tenggara Bar.","Kab. Bima, Nusa Tenggara Bar.",NUSA TENGGARA BARAT,,Indonesia,,,,-846.313,1.187.697.567,https://maps.google.com/?cid=0x0:0xb20801f8ff2e8fa6,
perumahan,Pembangunan Perumahan,Aminah,"GQXH+CMP, Ntobo, Kec. Raba, Kab. Bima, Nusa Tenggara Bar. 84119","Ntobo, Kec. Raba, Kab. Bima",NUSA TENGGARA BARAT,84119.0,Indonesia,,,,-84.514.152,1.187.791.955,https://maps.google.com/?cid=0x0:0x8ef8762c8a3bbf11,
perumahan,Pembangunan Perumahan,HAJARAH,"GQXJ+QC9, Ntobo, Kec. Raba, Kab. Bima, Nusa Tenggara Bar. 84119","Ntobo, Kec. Raba, Kab. Bima",NUSA TENGGARA BARAT,84119.0,Indonesia,,,,-84.505.843,1.187.811.014,https://maps.google.com/?cid=0x0:0xac649961cbf95a8f,
perumahan,Pembangunan Perumahan,Alaeee de asek,"GQXJ+R6W, Ntobo, Kec. Raba, Kab. Bima, Nusa Tenggara Bar. 84119","Ntobo, Kec. Raba, Kab. Bima",NUSA TENGGARA BARAT,84119.0,Indonesia,,,,-84.503.894,1.187.805.701,https://maps.google.com/?cid=0x0:0xedc986b22eea8ecf,
perumahan,Perhimpunan Pengembang Perumahan,Saiful Abdillah,"GQC6+755, Rabadompu Bar., Kec. Raba, Kab. Bima, Nusa Tenggara Bar. 84115","Rabadompu Bar., Kec. Raba, Kab. Bima",NUSA TENGGARA BARAT,84115.0,Indonesia,,,,-8.478.799,1.187.607.637,https://maps.google.com/?cid=0x0:0x160bacd8f02165b5,
perumahan,Pembangunan Perumahan,Jalan yasuka,"HQ2J+JJ9, Ntobo, Kec. Raba, Kab. Bima, Nusa Tenggara Bar. 84119","Ntobo, Kec. Raba, Kab. Bima",NUSA TENGGARA BARAT,84119.0,Indonesia,,,,-84.484.653,1.187.815.975,https://maps.google.com/?cid=0x0:0x1f24852a0075e77e,
perumahan,Pembangunan Perumahan,Ntobo kecamatan raba kota bima,"HR4J+G67, Ntobo, Kec. Raba, Kab. Bima, Nusa Tenggara Bar.","Kab. Bima, Nusa Tenggara Bar.",NUSA TENGGARA BARAT,,Indonesia,,,,-84.437.183,1.188.305.489,https://maps.google.com/?cid=0x0:0x8ec8bb76b2eda178,
perumahan,Pembangunan Perumahan,Limbu,"HR8V+266, Ntobo, Kec. Raba, Kabupaten Bima, Nusa Tenggara Bar. 84119","Ntobo, Kec. Raba, Kabupaten Bima",NUSA TENGGARA BARAT,84119.0,Indonesia,,,,-84.349.501,11.884.301,https://maps.google.com/?cid=0x0:0x28c2ef6c99186223,
perumahan,Pembangunan Perumahan,ANHAR,"GQXG+M6W, Ntobo, Kec. Raba, Kab. Bima, Nusa Tenggara Bar. 84119","Ntobo, Kec. Raba, Kab. Bima",NUSA TENGGARA BARAT,84119.0,Indonesia,,,,-84.507.721,1.187.755.913,https://maps.google.com/?cid=0x0:0x7ac0200d5417beed,
perumahan,Pembangunan Perumahan,ABDULLAH HAMID,"GQXJ+J2P, Ntobo, Kec. Raba, Kab. Bima, Nusa Tenggara Bar. 84119","Ntobo, Kec. Raba, Kab. Bima",NUSA TENGGARA BARAT,84119.0,Indonesia,,,,-84.509.103,1.187.800.713,https://maps.google.com/?cid=0x0:0x8041507b26f54ab4,
perumahan,perumahan,Kec. Rasanae Bar.,"Kab. Bima, Nusa Tenggara Bar.","Kab. Bima, Nusa Tenggara Bar.",NUSA TENGGARA BARAT,,Indonesia,,,,-84.540.632,1.187.241.865,https://maps.google.com/?cid=0x0:0x716674d420dfa05,
perumahan,Komplek perumahan,Rumah Dinas Pajak,"Jl. Kartini No.1, Paruga, Kec. Rasanae Bar., Kab. Bima, Nusa Tenggara Bar. 84111","Paruga, Kec. Rasanae Bar., Kab. Bima",NUSA TENGGARA BARAT,84111.0,Indonesia,,,,-84.535.315,118.728.392,https://maps.google.com/?cid=0x0:0x4e0159068792764,
perumahan,Pembangunan Perumahan,Rumah sekar,"GPVH+C5H, Dara, Kec. Rasanae Bar., Kab. Bima, Nusa Tenggara Bar.","Kab. Bima, Nusa Tenggara Bar.",NUSA TENGGARA BARAT,,Indonesia,,,,-84.564.411,1.187.279.841,https://maps.google.com/?cid=0x0:0xc40cc4827b73d814,
perumahan,Komplek perumahan,Rumah Rakha Abdillah Ahsan,"GPR8+8C8, Dara, Kec. Rasanae Bar., Kab. Bima, Nusa Tenggara Bar. 84118","Dara, Kec. Rasanae Bar., Kab. Bima",NUSA TENGGARA BARAT,84118.0,Indonesia,,,,-84.592.165,118.716.068,https://maps.google.com/?cid=0x0:0x4379340c982308e8,
perumahan,Komplek perumahan,Kampung Bara,"GPVG+V2R, Gg. Elang, Paruga, Kec. Rasanae Bar., Kab. Bima, Nusa Tenggara Bar. 84118","Gg. Elang, Paruga, Kec. Rasanae Bar., Kab. Bima",NUSA TENGGARA BARAT,84118.0,Indonesia,,,,-84.552.747,1.187.250.222,https://maps.google.com/?cid=0x0:0xca87553b5bd745b2,
perumahan,Komplek perumahan,Rumah TITHA,"GPVJ+X68, Jl. Suntu, Paruga, Kec. Rasanae Bar., Kab. Bima, Nusa Tenggara Bar. 84118","Jl. Suntu, Paruga, Kec. Rasanae Bar., Kab. Bima",NUSA TENGGARA BARAT,84118.0,Indonesia,,,,-84.550.928,1.187.305.859,https://maps.google.com/?cid=0x0:0x4976134814710eee,
perumahan,Nasi,Rumah Rindu,"Jl. Soekarno Hatta No.271, Paruga, Kec. Rasanae Bar., Kab. Bima, Nusa Tenggara Bar. 84118","Paruga, Kec. Rasanae Bar., Kab. Bima",NUSA TENGGARA BARAT,84118.0,Indonesia,87766432185,,,-8.456.593,1.187.190.247,https://maps.google.com/?cid=0x0:0x503dd25233062bca,
perumahan,Pembangunan Perumahan,Perumahan Gilipanda,"Eka, Gg. Seroja 2 No.24, Sarae, Rasanae Barat, Bima Regency, West Nusa Tenggara 84118","Gg. Seroja 2 No.24, Sarae, Rasanae Barat, Bima Regency",NUSA TENGGARA BARAT,84118.0,Indonesia,,,,-84.476.703,1.187.309.496,https://maps.google.com/?cid=0x0:0x918e29e8b93bc099,
perumahan,Pembangunan Perumahan,Binabaru,"GPRC+Q26, Gg. Lumba Lumba No.2, Dara, Kec. Rasanae Bar., Kab. Bima, Nusa Tenggara Bar. 84118","Gg. Lumba Lumba No.2, Dara, Kec. Rasanae Bar., Kab. Bima",NUSA TENGGARA BARAT,84118.0,Indonesia,,,,-8.457.746,118.720.287,https://maps.google.com/?cid=0x0:0xe59e75cf18faf00e,
perumahan,Komplek perumahan,Rumah hamba Allah,"HP29+67G, Tanjung, Kec. Rasanae Bar., Kab. Bima, Nusa Tenggara Bar. 84118","Tanjung, Kec. Rasanae Bar., Kab. Bima",NUSA TENGGARA BARAT,84118.0,Indonesia,,,,-84.492.812,118.718.237,https://maps.google.com/?cid=0x0:0xa4a65097c7d2776e,
perumahan,Komplek perumahan,Rumah Qaila,"Jl. Imam Bonjol Salama No.57, Nae, Kec. Rasanae Bar., Kab. Bima, Nusa Tenggara Bar. 84116","Nae, Kec. Rasanae Bar., Kab. Bima",NUSA TENGGARA BARAT,84116.0,Indonesia,,,,-84.533.788,1.187.393.974,https://maps.google.com/?cid=0x0:0x3bcaedbabee1180,
perumahan,Komplek perumahan,Rumah Una,"HP4M+Q46, Lingkungan, Tolotongga, Kec. Asakota, Kab. Bima, Nusa Tenggara Bar. 84118","Lingkungan, Tolotongga, Kec. Asakota, Kab. Bima",NUSA TENGGARA BARAT,84118.0,Indonesia,,,,-84.431.118,118.732.832,https://maps.google.com/?cid=0x0:0xf351d7b402679425,
perumahan,Komplek perumahan,rumah gus,"GPWM+XGP, Nae, Kec. Rasanae Bar., Kab. Bima, Nusa Tenggara Bar. 84117","Nae, Kec. Rasanae Bar., Kab. Bima",NUSA TENGGARA BARAT,84117.0,Indonesia,,,,-84.525.272,1.187.338.291,https://maps.google.com/?cid=0x0:0x4b146e30edc307be,
perumahan,Komplek perumahan,Rumah Abah Ali,"GPWQ+V5X, Nae, Kec. Rasanae Bar., Kab. Bima, Nusa Tenggara Bar. 84117","Nae, Kec. Rasanae Bar., Kab. Bima",NUSA TENGGARA BARAT,84117.0,Indonesia,,,,-84.523.543,1.187.380.216,https://maps.google.com/?cid=0x0:0xb6dc5415cb3c1416,
perumahan,Komplek perumahan,Kebun Pribadi,"GPH9+283, Jl. SultanMuhammad Salahudin, Dara, Kec. Rasanae Bar., Kab. Bima, Nusa Tenggara Bar. 84111","Jl. SultanMuhammad Salahudin, Dara, Kec. Rasanae Bar., Kab. Bima",NUSA TENGGARA BARAT,84111.0,Indonesia,,,,-84.632.037,1.187.281.607,https://maps.google.com/?cid=0x0:0xa6f32cf12ed81b46,
perumahan,Komplek perumahan,Rumah Byan,"GPWJ+P9F, Jl. Melati, Pane, Kec. Rasanae Bar., Kab. Bima, Nusa Tenggara Bar. 84118","Jl. Melati, Pane, Kec. Rasanae Bar., Kab. Bima",NUSA TENGGARA BARAT,84118.0,Indonesia,,,,-84.531.789,1.187.309.204,https://maps.google.com/?cid=0x0:0xedc50b2270190276,
perumahan,,Tolobali,"Gg. Al-Muhajirin No.75, Sarae, Kec. Rasanae Bar., Kab. Bima, Nusa Tenggara Bar. 84118","Sarae, Kec. Rasanae Bar., Kab. Bima",NUSA TENGGARA BARAT,84118.0,Indonesia,,,,-84.474.993,1.187.283.531,https://maps.google.com/?cid=0x0:0xf513875016e8b2a3,
perumahan,Komplek perumahan,Rumah PAK ADI MINGGRAT,"GP48+JRV, Dara, Kec. Rasanae Bar., Kabupaten Bima, Nusa Tenggara Bar. 84111","Dara, Kec. Rasanae Bar., Kabupaten Bima",NUSA TENGGARA BARAT,84111.0,Indonesia,,,,-84.933.739,1.187.178.173,https://maps.google.com/?cid=0x0:0x1531c1fd7dc6906a,
perumahan,Komplek perumahan,Asnan,"HP2J+W8Q, Gg. Seroja 2, Sarae, Kec. Rasanae Bar., Kab. Bima, Nusa Tenggara Bar. 84118","Gg. Seroja 2, Sarae, Kec. Rasanae Bar., Kab. Bima",NUSA TENGGARA BARAT,84118.0,Indonesia,,,,-8.447.658,1.187.308.738,https://maps.google.com/?cid=0x0:0xf39c2613c0036e53,
perumahan,Pembangunan Perumahan,SITI ISAH,"Jl. Sultan Muhamad Salahuddin No.11, Dara, Kec. Rasanae Bar., Kab. Bima, Nusa Tenggara Bar. 84118","Dara, Kec. Rasanae Bar., Kab. Bima",NUSA TENGGARA BARAT,84118.0,Indonesia,85338664022,,,-84.598.436,1.187.257.778,https://maps.google.com/?cid=0x0:0xc853b39b9322d9,
perumahan,Pembangunan Perumahan,Arya Home,"GPHC+622, Dara, Kec. Rasanae Bar., Kab. Bima, Nusa Tenggara Bar.","Kab. Bima, Nusa Tenggara Bar.",NUSA TENGGARA BARAT,,Indonesia,,,,-84.719.959,1.187.200.233,https://maps.google.com/?cid=0x0:0x8c8b7c9f294cac7e,
perumahan,Pembangunan Perumahan,Lingkungan Tolodara,"GPRG+XPQ, Dara, Kec. Rasanae Bar., Kab. Bima, Nusa Tenggara Bar. 84118","Dara, Kec. Rasanae Bar., Kab. Bima",NUSA TENGGARA BARAT,84118.0,Indonesia,,,,-84.575.281,1.187.268.579,https://maps.google.com/?cid=0x0:0xe98958be39bcddd2,
perumahan,Komplek perumahan,Kios hadne,"GPWQ+J2V, Nae, Kec. Rasanae Bar., Kab. Bima, Nusa Tenggara Bar. 84117","Nae, Kec. Rasanae Bar., Kab. Bima",NUSA TENGGARA BARAT,84117.0,Indonesia,,,,-8.453.387,1.187.375.526,https://maps.google.com/?cid=0x0:0x29acb84e564df0e7,
perumahan,Komplek perumahan,Istana kerajaan bima,"GPWG+CXF, Paruga, Kec. Rasanae Bar., Kab. Bima, Nusa Tenggara Bar. 84118","Paruga, Kec. Rasanae Bar., Kab. Bima",NUSA TENGGARA BARAT,84118.0,Indonesia,,,,-84.540.858,1.187.274.533,https://maps.google.com/?cid=0x0:0x94ed87b4f9ada533,
perumahan,perumahan,Nusa Tenggara Bar. 84116,"Kab. Bima, Nusa Tenggara Bar.","Kab. Bima, Nusa Tenggara Bar.",NUSA TENGGARA BARAT,,Indonesia,,,,-84.328.109,1.187.518.671,https://maps.google.com/?cid=0x0:0x3031d935f9088a16,
perumahan,Komplek perumahan,Rumah Dinas Pajak,"Jl. Kartini No.1, Paruga, Kec. Rasanae Bar., Kab. Bima, Nusa Tenggara Bar. 84111","Paruga, Kec. Rasanae Bar., Kab. Bima",NUSA TENGGARA BARAT,84111.0,Indonesia,,,,-84.535.315,118.728.392,https://maps.google.com/?cid=0x0:0x4e0159068792764,
perumahan,Pembangunan Perumahan,Perumahan Gilipanda,"Eka, Gg. Seroja 2 No.24, Sarae, Rasanae Barat, Bima Regency, West Nusa Tenggara 84118","Gg. Seroja 2 No.24, Sarae, Rasanae Barat, Bima Regency",NUSA TENGGARA BARAT,84118.0,Indonesia,,,,-84.476.703,1.187.309.496,https://maps.google.com/?cid=0x0:0x918e29e8b93bc099,
perumahan,perumahan,Rumah iannn,"HQ52+R8R, Jl. Datuk Dibanta, Jatibaru, Kec. Asakota, Kab. Bima, Nusa Tenggara Bar. 84116","Jl. Datuk Dibanta, Jatibaru, Kec. Asakota, Kab. Bima",NUSA TENGGARA BARAT,84116.0,Indonesia,,,,-84.403.434,1.187.508.216,https://maps.google.com/?cid=0x0:0xce76293973a56e0d,
perumahan,Komplek perumahan,Rumah Kosong,"GPPR+FJV, Unnamed Road, Sadia, Kec. Mpunda, Kab. Bima, Nusa Tenggara Bar. 84116","Unnamed Road, Sadia, Kec. Mpunda, Kab. Bima",NUSA TENGGARA BARAT,84116.0,Indonesia,,,,-84.637.711,1.187.415.585,https://maps.google.com/?cid=0x0:0x7d57a6149cf1f71f,
perumahan,Komplek perumahan,Kios hadne,"GPWQ+J2V, Nae, Kec. Rasanae Bar., Kab. Bima, Nusa Tenggara Bar. 84117","Nae, Kec. Rasanae Bar., Kab. Bima",NUSA TENGGARA BARAT,84117.0,Indonesia,,,,-8.453.387,1.187.375.526,https://maps.google.com/?cid=0x0:0x29acb84e564df0e7,
perumahan,Pembangunan Perumahan,Radar Hidayat,"GPWQ+8Q2, Nae, Kec. Rasanae Bar., Kab. Bima, Nusa Tenggara Bar. 84117","Nae, Kec. Rasanae Bar., Kab. Bima",NUSA TENGGARA BARAT,84117.0,Indonesia,,,,-84.540.772,1.187.389.851,https://maps.google.com/?cid=0x0:0xb044bd7fd37022c4,
perumahan,Komplek perumahan,Rumah Qaila,"Jl. Imam Bonjol Salama No.57, Nae, Kec. Rasanae Bar., Kab. Bima, Nusa Tenggara Bar. 84116","Nae, Kec. Rasanae Bar., Kab. Bima",NUSA TENGGARA BARAT,84116.0,Indonesia,,,,-84.533.788,1.187.393.974,https://maps.google.com/?cid=0x0:0x3bcaedbabee1180,
perumahan,Komplek perumahan,Sugeng riyanto,"HQ72+6X3, Jatibaru, Kec. Asakota, Kab. Bima, Nusa Tenggara Bar. 84116","Jatibaru, Kec. Asakota, Kab. Bima",NUSA TENGGARA BARAT,84116.0,Indonesia,,,,-8.436.749,118.753.198,https://maps.google.com/?cid=0x0:0x466a1384632085f,
perumahan,Komplek perumahan,Rumah TITHA,"GPVJ+X68, Jl. Suntu, Paruga, Kec. Rasanae Bar., Kab. Bima, Nusa Tenggara Bar. 84118","Jl. Suntu, Paruga, Kec. Rasanae Bar., Kab. Bima",NUSA TENGGARA BARAT,84118.0,Indonesia,,,,-84.550.928,1.187.305.859,https://maps.google.com/?cid=0x0:0x4976134814710eee,
perumahan,Pusat Pendidikan,PR. Puri Bimantara,"Jl. Gindi Jatiwangi, Jatiwangi, Kec. Asakota, Kab. Bima, Nusa Tenggara Bar. 84117","Jatiwangi, Kec. Asakota, Kab. Bima",NUSA TENGGARA BARAT,84117.0,Indonesia,81238207025,,,-84.467.449,1.187.381.685,https://maps.google.com/?cid=0x0:0x7bbc48f23501e23,
perumahan,Komplek perumahan,Rumah,"HQ86+7FX, Jatibaru, Kec. Asakota, Kab. Bima, Nusa Tenggara Bar. 84116","Jatibaru, Kec. Asakota, Kab. Bima",NUSA TENGGARA BARAT,84116.0,Indonesia,,,,-8.434.598,118.760.582,https://maps.google.com/?cid=0x0:0x6d8e3a482d9733c6,
perumahan,Gedung Apartemen,Rumah arthi,"GQX2+RJQ, Matakando, Kec. Mpunda, Kab. Bima, Nusa Tenggara Bar. 84116","Matakando, Kec. Mpunda, Kab. Bima",NUSA TENGGARA BARAT,84116.0,Indonesia,,,,-84.495.101,118.751.748,https://maps.google.com/?cid=0x0:0xee41157ea8eba5fc,
perumahan,Pembangunan Perumahan,Perumahan GRAHA KOTA,"GPWV+MW9, Santi, Kec. Mpunda, Kab. Bima, Nusa Tenggara Bar. 84116","Santi, Kec. Mpunda, Kab. Bima",NUSA TENGGARA BARAT,84116.0,Indonesia,,,,-84.533.638,1.187.448.486,https://maps.google.com/?cid=0x0:0xaabbf5364d4fa564,
perumahan,Komplek perumahan,Rumah Riska,"GPRV+X2R, Jl. Sukun, Monggonao, Kec. Mpunda, Kab. Bima, Nusa Tenggara Bar. 84116","Jl. Sukun, Monggonao, Kec. Mpunda, Kab. Bima",NUSA TENGGARA BARAT,84116.0,Indonesia,,,,-84.575.088,1.187.425.019,https://maps.google.com/?cid=0x0:0x61691394c74f8628,
perumahan,Komplek perumahan,Rumah saya,"GPVW+48P, Santi, Kec. Mpunda, Kab. Bima, Nusa Tenggara Bar. 84116","Santi, Kec. Mpunda, Kab. Bima",NUSA TENGGARA BARAT,84116.0,Indonesia,,,,-84.571.031,11.874.576,https://maps.google.com/?cid=0x0:0x7b1c8793e19b6a7,
perumahan,Komplek perumahan,Rumah Dwi,"HQ82+694, Jatibaru, Kec. Asakota, Kab. Bima, Nusa Tenggara Bar. 84116","Jatibaru, Kec. Asakota, Kab. Bima",NUSA TENGGARA BARAT,84116.0,Indonesia,,,,-84.344.885,1.187.509.421,https://maps.google.com/?cid=0x0:0x3fcca69a09ded047,
perumahan,Komplek perumahan,Rumah Abah Ali,"GPWQ+V5X, Nae, Kec. Rasanae Bar., Kab. Bima, Nusa Tenggara Bar. 84117","Nae, Kec. Rasanae Bar., Kab. Bima",NUSA TENGGARA BARAT,84117.0,Indonesia,,,,-84.523.543,1.187.380.216,https://maps.google.com/?cid=0x0:0xb6dc5415cb3c1416,
perumahan,Komplek perumahan,Rumah yang bener,"Jl. Lintas Soncolela No.7, Matakando, Kec. Mpunda, Kab. Bima, Nusa Tenggara Bar. 84116","Matakando, Kec. Mpunda, Kab. Bima",NUSA TENGGARA BARAT,84116.0,Indonesia,,,,-8.452.822,1.187.514.289,https://maps.google.com/?cid=0x0:0x364d5d3cbcbaed89,
perumahan,Komplek perumahan,Eka Hadiyanto,"Gg. Seroja 2 No.24, Sarae, Kec. Rasanae Bar., Kab. Bima, Nusa Tenggara Bar. 84118","Sarae, Kec. Rasanae Bar., Kab. Bima",NUSA TENGGARA BARAT,84118.0,Indonesia,,,,-84.477.755,1.187.311.583,https://maps.google.com/?cid=0x0:0x6683afe780d0ecce,
perumahan,Komplek perumahan,Rumah M.H.N.D (Hakim),"Kode Pos, Jl. Soekarno Hatta Gang Pembangunan I No.Kelurahan, Pane, Kec. Rasanae Bar., Kab. Bima, Nusa Tenggara Bar. 84116","Jl. Soekarno Hatta Gang Pembangunan I No.Kelurahan, Pane, Kec. Rasanae Bar., Kab. Bima",NUSA TENGGARA BARAT,84116.0,Indonesia,,,,-84.558.978,118.734.583,https://maps.google.com/?cid=0x0:0x1d7725f1c0944ebd,
perumahan,Komplek perumahan,Perumahan santi Regency,"Jl. Imam Bonjol, Santi, Kec. Mpunda, Kab. Bima, Nusa Tenggara Bar. 84119","Santi, Kec. Mpunda, Kab. Bima",NUSA TENGGARA BARAT,84119.0,Indonesia,,,,-8.452.365,1.187.425.542,https://maps.google.com/?cid=0x0:0x605f29f26a0fb690,
perumahan,Komplek perumahan,Rumah Amar,"GPVJ+X6C, Jl. Suntu, Paruga, Kec. Rasanae Bar., Kab. Bima, Nusa Tenggara Bar. 84118","Jl. Suntu, Paruga, Kec. Rasanae Bar., Kab. Bima",NUSA TENGGARA BARAT,84118.0,Indonesia,,,,-8.455.065,1.187.305.282,https://maps.google.com/?cid=0x0:0x6a5abc23d72f7b1,
perumahan,Pembangunan Perumahan,Lingk. Radio Permai Jatiwangi,"Jl. Imam Bonjol No.16, Nae, Kec. Rasanae Bar., Kab. Bima, Nusa Tenggara Bar. 84117","Nae, Kec. Rasanae Bar., Kab. Bima",NUSA TENGGARA BARAT,84117.0,Indonesia,,,,-84.515.397,1.187.360.784,https://maps.google.com/?cid=0x0:0x9cd5d71732482eae,
perumahan,Komplek perumahan,Perumahan Tolotongga Permai Jatiwangi,"HP5M+H8V, Jatiwangi, Kec. Asakota, Kab. Bima, Nusa Tenggara Bar. 84117","Jatiwangi, Kec. Asakota, Kab. Bima",NUSA TENGGARA BARAT,84117.0,Indonesia,,,,-84.410.007,118.733.312,https://maps.google.com/?cid=0x0:0xe95f3b14c9022ef1,
perumahan,Motel,Kost Umi,"GPWQ+58G, Jl. Gajah Mada, Salama, Kec. Rasanae Bar., Kab. Bima, Nusa Tenggara Bar. 84116","Jl. Gajah Mada, Salama, Kec. Rasanae Bar., Kab. Bima",NUSA TENGGARA BARAT,84116.0,Indonesia,82186779880,,,-84.545.826,118.738.381,https://maps.google.com/?cid=0x0:0x14203c2c16cc2cec,
perumahan,Pembangunan Perumahan,Rumah sekar,"GPVH+C5H, Dara, Kec. Rasanae Bar., Kab. Bima, Nusa Tenggara Bar.","Kab. Bima, Nusa Tenggara Bar.",NUSA TENGGARA BARAT,,Indonesia,,,,-84.564.411,1.187.279.841,https://maps.google.com/?cid=0x0:0xc40cc4827b73d814,
perumahan,perumahan,Nusa Tenggara Bar. 84117,"Jatiwangi, Kec. Asakota, Kab. Bima, Nusa Tenggara Bar.","Kab. Bima, Nusa Tenggara Bar.",NUSA TENGGARA BARAT,,Indonesia,,,,-84.337.387,1.187.402.073,https://maps.google.com/?cid=0x0:0xb14cdce05e5da3df,
perumahan,Komplek perumahan,Perumahan Tolotongga Permai Jatiwangi,"HP5M+H8V, Jatiwangi, Kec. Asakota, Kab. Bima, Nusa Tenggara Bar. 84117","Jatiwangi, Kec. Asakota, Kab. Bima",NUSA TENGGARA BARAT,84117.0,Indonesia,,,,-84.410.007,118.733.312,https://maps.google.com/?cid=0x0:0xe95f3b14c9022ef1,
perumahan,Komplek perumahan,Rumah Dinas Pajak,"Jl. Kartini No.1, Paruga, Kec. Rasanae Bar., Kab. Bima, Nusa Tenggara Bar. 84111","Paruga, Kec. Rasanae Bar., Kab. Bima",NUSA TENGGARA BARAT,84111.0,Indonesia,,,,-84.535.315,118.728.392,https://maps.google.com/?cid=0x0:0x4e0159068792764,
perumahan,Komplek perumahan,Rumah TITHA,"GPVJ+X68, Jl. Suntu, Paruga, Kec. Rasanae Bar., Kab. Bima, Nusa Tenggara Bar. 84118","Jl. Suntu, Paruga, Kec. Rasanae Bar., Kab. Bima",NUSA TENGGARA BARAT,84118.0,Indonesia,,,,-84.550.928,1.187.305.859,https://maps.google.com/?cid=0x0:0x4976134814710eee,
perumahan,perumahan,Rumah,"BTN Tambana, Jl. Bidara 7, Jatiwangi, Kec. Asakota, Kab. Bima, Nusa Tenggara Bar. 84117","Jl. Bidara 7, Jatiwangi, Kec. Asakota, Kab. Bima",NUSA TENGGARA BARAT,84117.0,Indonesia,,,,-84.448.045,1.187.350.836,https://maps.google.com/?cid=0x0:0x6d955a62c0de6299,
perumahan,Establishment,BTN LG TATO,"Jl. Datuk Dibanta No.99, Jatiwangi, Kec. Asakota, Kab. Bima, Nusa Tenggara Bar. 84117","Jatiwangi, Kec. Asakota, Kab. Bima",NUSA TENGGARA BARAT,84117.0,Indonesia,,,,-84.497.235,1.187.349.746,https://maps.google.com/?cid=0x0:0x3590cf3d94f9e731,
perumahan,Pembangunan Perumahan,Radar Hidayat,"GPWQ+8Q2, Nae, Kec. Rasanae Bar., Kab. Bima, Nusa Tenggara Bar. 84117","Nae, Kec. Rasanae Bar., Kab. Bima",NUSA TENGGARA BARAT,84117.0,Indonesia,,,,-84.540.772,1.187.389.851,https://maps.google.com/?cid=0x0:0xb044bd7fd37022c4,
perumahan,Perhimpunan Pengembang Perumahan,Ruas Tambana,"Jl. Mawar 3 No.7, Jatiwangi, Kec. Asakota, Kab. Bima, Nusa Tenggara Bar. 84117","Jatiwangi, Kec. Asakota, Kab. Bima",NUSA TENGGARA BARAT,84117.0,Indonesia,,,,-8.446.559,1.187.370.857,https://maps.google.com/?cid=0x0:0x6add879368f6bf76,
perumahan,Komplek perumahan,Kios hadne,"GPWQ+J2V, Nae, Kec. Rasanae Bar., Kab. Bima, Nusa Tenggara Bar. 84117","Nae, Kec. Rasanae Bar., Kab. Bima",NUSA TENGGARA BARAT,84117.0,Indonesia,,,,-8.453.387,1.187.375.526,https://maps.google.com/?cid=0x0:0x29acb84e564df0e7,
perumahan,Komplek perumahan,BTN TAMBANA CEMPAKA 4,"Jl. Cemp. 4, Jatiwangi, Kec. Asakota, Kab. Bima, Nusa Tenggara Bar. 84117","Jatiwangi, Kec. Asakota, Kab. Bima",NUSA TENGGARA BARAT,84117.0,Indonesia,,,,-84.442.018,1.187.363.535,https://maps.google.com/?cid=0x0:0x3093f8dae6caf6da,
perumahan,Komplek perumahan,Perumahan Grand City Tolotongga,"HP8P+G78, Jatiwangi, Kec. Asakota, Kab. Bima, Nusa Tenggara Bar. 84117","Jatiwangi, Kec. Asakota, Kab. Bima",NUSA TENGGARA BARAT,84117.0,Indonesia,,,,-84.337.207,1.187.356.974,https://maps.google.com/?cid=0x0:0x256b4ccd8bc1df99,
perumahan,Pembangunan Perumahan,Perumahan Gilipanda,"Eka, Gg. Seroja 2 No.24, Sarae, Rasanae Barat, Bima Regency, West Nusa Tenggara 84118","Gg. Seroja 2 No.24, Sarae, Rasanae Barat, Bima Regency",NUSA TENGGARA BARAT,84118.0,Indonesia,,,,-84.476.703,1.187.309.496,https://maps.google.com/?cid=0x0:0x918e29e8b93bc099,
perumahan,Komplek perumahan,Rumah Farah,"HP4P+32J, Jl. Bidara 7, Jatiwangi, Kec. Asakota, Kab. Bima, Nusa Tenggara Bar. 84117","Jl. Bidara 7, Jatiwangi, Kec. Asakota, Kab. Bima",NUSA TENGGARA BARAT,84117.0,Indonesia,,,,-84.447.813,1.187.350.128,https://maps.google.com/?cid=0x0:0x9078f8c9dc277f24,
perumahan,Pembangunan Perumahan,Lingk. Radio Permai Jatiwangi,"Jl. Imam Bonjol No.16, Nae, Kec. Rasanae Bar., Kab. Bima, Nusa Tenggara Bar. 84117","Nae, Kec. Rasanae Bar., Kab. Bima",NUSA TENGGARA BARAT,84117.0,Indonesia,,,,-84.515.397,1.187.360.784,https://maps.google.com/?cid=0x0:0x9cd5d71732482eae,
perumahan,Pembangunan Perumahan,Uma PLuR,"Gg. Cemp. No.22, Sarae, Kec. Rasanae Bar., Kab. Bima, Nusa Tenggara Bar. 84117","Sarae, Kec. Rasanae Bar., Kab. Bima",NUSA TENGGARA BARAT,84117.0,Indonesia,,,,-84.388.488,1.187.342.651,https://maps.google.com/?cid=0x0:0xe7364e98bfddd439,
perumahan,Pusat Pendidikan,PR. Puri Bimantara,"Jl. Gindi Jatiwangi, Jatiwangi, Kec. Asakota, Kab. Bima, Nusa Tenggara Bar. 84117","Jatiwangi, Kec. Asakota, Kab. Bima",NUSA TENGGARA BARAT,84117.0,Indonesia,81238207025,,,-84.467.449,1.187.381.685,https://maps.google.com/?cid=0x0:0x7bbc48f23501e23,
perumahan,Komplek perumahan,Rumah Abah Ali,"GPWQ+V5X, Nae, Kec. Rasanae Bar., Kab. Bima, Nusa Tenggara Bar. 84117","Nae, Kec. Rasanae Bar., Kab. Bima",NUSA TENGGARA BARAT,84117.0,Indonesia,,,,-84.523.543,1.187.380.216,https://maps.google.com/?cid=0x0:0xb6dc5415cb3c1416,
perumahan,Komplek perumahan,Rumah tirtha,"GPWR+F34, Nae, Kec. Rasanae Bar., Kab. Bima, Nusa Tenggara Bar.","Kab. Bima, Nusa Tenggara Bar.",NUSA TENGGARA BARAT,,Indonesia,,,,-84.538.702,1.187.402.096,https://maps.google.com/?cid=0x0:0x71385d2a0c74cf9,
perumahan,Komplek perumahan,Eka Hadiyanto,"Gg. Seroja 2 No.24, Sarae, Kec. Rasanae Bar., Kab. Bima, Nusa Tenggara Bar. 84118","Sarae, Kec. Rasanae Bar., Kab. Bima",NUSA TENGGARA BARAT,84118.0,Indonesia,,,,-84.477.755,1.187.311.583,https://maps.google.com/?cid=0x0:0x6683afe780d0ecce,
perumahan,Komplek perumahan,Khairin Al-Bimawi,"Jatiwangi, Kec. Asakota, Kab. Bima, Nusa Tenggara Bar. 84117","Kec. Asakota, Kab. Bima",NUSA TENGGARA BARAT,84117.0,Indonesia,85338501994,,,-84.452.835,1.187.352.646,https://maps.google.com/?cid=0x0:0xf5053263ca48d7d7,
perumahan,Kantor Perusahaan,"LAW OFFICE MULYADIN, S.H., M.H.  PARTNERS","GPVM+WXW, Gg. A.Kadju, Pane, Kec. Rasanae Bar., Kab. Bima, Nusa Tenggara Bar. 84117","Gg. A.Kadju, Pane, Kec. Rasanae Bar., Kab. Bima",NUSA TENGGARA BARAT,84117.0,Indonesia,,,,-84.551.399,1.187.349.399,https://maps.google.com/?cid=0x0:0x93cf570a27e3dca9,
perumahan,perumahan,Rumah iannn,"HQ52+R8R, Jl. Datuk Dibanta, Jatibaru, Kec. Asakota, Kab. Bima, Nusa Tenggara Bar. 84116","Jl. Datuk Dibanta, Jatibaru, Kec. Asakota, Kab. Bima",NUSA TENGGARA BARAT,84116.0,Indonesia,,,,-84.403.434,1.187.508.216,https://maps.google.com/?cid=0x0:0xce76293973a56e0d,
perumahan,perumahan,Nusa Tenggara Bar. 84118,"Kabupaten Bima, Nusa Tenggara Bar.","Kabupaten Bima, Nusa Tenggara Bar.",NUSA TENGGARA BARAT,,Indonesia,,,,-84.520.924,1.187.256.312,https://maps.google.com/?cid=0x0:0x244804bbbd58b04b,
perumahan,Komplek perumahan,Rumah Rakha Abdillah Ahsan,"GPR8+8C8, Dara, Kec. Rasanae Bar., Kab. Bima, Nusa Tenggara Bar. 84118","Dara, Kec. Rasanae Bar., Kab. Bima",NUSA TENGGARA BARAT,84118.0,Indonesia,,,,-84.592.165,118.716.068,https://maps.google.com/?cid=0x0:0x4379340c982308e8,
perumahan,Komplek perumahan,Kampung Bara,"GPVG+V2R, Gg. Elang, Paruga, Kec. Rasanae Bar., Kab. Bima, Nusa Tenggara Bar. 84118","Gg. Elang, Paruga, Kec. Rasanae Bar., Kab. Bima",NUSA TENGGARA BARAT,84118.0,Indonesia,,,,-84.552.747,1.187.250.222,https://maps.google.com/?cid=0x0:0xca87553b5bd745b2,
perumahan,Pembangunan Perumahan,Perumahan Gilipanda,"Eka, Gg. Seroja 2 No.24, Sarae, Rasanae Barat, Bima Regency, West Nusa Tenggara 84118","Gg. Seroja 2 No.24, Sarae, Rasanae Barat, Bima Regency",NUSA TENGGARA BARAT,84118.0,Indonesia,,,,-84.476.703,1.187.309.496,https://maps.google.com/?cid=0x0:0x918e29e8b93bc099,
perumahan,Komplek perumahan,Rumah hamba Allah,"HP29+67G, Tanjung, Kec. Rasanae Bar., Kab. Bima, Nusa Tenggara Bar. 84118","Tanjung, Kec. Rasanae Bar., Kab. Bima",NUSA TENGGARA BARAT,84118.0,Indonesia,,,,-84.492.812,118.718.237,https://maps.google.com/?cid=0x0:0xa4a65097c7d2776e,
perumahan,Komplek perumahan,Rumah TITHA,"GPVJ+X68, Jl. Suntu, Paruga, Kec. Rasanae Bar., Kab. Bima, Nusa Tenggara Bar. 84118","Jl. Suntu, Paruga, Kec. Rasanae Bar., Kab. Bima",NUSA TENGGARA BARAT,84118.0,Indonesia,,,,-84.550.928,1.187.305.859,https://maps.google.com/?cid=0x0:0x4976134814710eee,
perumahan,Komplek perumahan,Rumah Ny. J.,"Jl. Soekarno Hatta No.47, Paruga, Kec. Rasanae Bar., Kab. Bima, Nusa Tenggara Bar. 84118","Paruga, Kec. Rasanae Bar., Kab. Bima",NUSA TENGGARA BARAT,84118.0,Indonesia,,,,-84.562.068,1.187.264.223,https://maps.google.com/?cid=0x0:0xc0639b5127dff570,
perumahan,Nasi,Rumah Rindu,"Jl. Soekarno Hatta No.271, Paruga, Kec. Rasanae Bar., Kab. Bima, Nusa Tenggara Bar. 84118","Paruga, Kec. Rasanae Bar., Kab. Bima",NUSA TENGGARA BARAT,84118.0,Indonesia,87766432185,,,-8.456.593,1.187.190.247,https://maps.google.com/?cid=0x0:0x503dd25233062bca,
perumahan,Pembangunan Perumahan,Tolobali,"Gg. Al-Muhajirin No.75, Sarae, Kec. Rasanae Bar., Kab. Bima, Nusa Tenggara Bar. 84118","Sarae, Kec. Rasanae Bar., Kab. Bima",NUSA TENGGARA BARAT,84118.0,Indonesia,,,,-84.474.993,1.187.283.531,https://maps.google.com/?cid=0x0:0xf513875016e8b2a3,
perumahan,Pembangunan Perumahan,Lingkungan Tolodara,"GPRG+XPQ, Dara, Kec. Rasanae Bar., Kab. Bima, Nusa Tenggara Bar. 84118","Dara, Kec. Rasanae Bar., Kab. Bima",NUSA TENGGARA BARAT,84118.0,Indonesia,,,,-84.575.281,1.187.268.579,https://maps.google.com/?cid=0x0:0xe98958be39bcddd2,
perumahan,Pembangunan Perumahan,Haji jamaluddin m saleh,"GPRG+CFM, Dara, Kec. Rasanae Bar., Kab. Bima, Nusa Tenggara Bar. 84118","Dara, Kec. Rasanae Bar., Kab. Bima",NUSA TENGGARA BARAT,84118.0,Indonesia,,,,-84.587.194,1.187.265.451,https://maps.google.com/?cid=0x0:0xb05e5d2408f51708,
perumahan,Komplek perumahan,Rumah Byan,"GPWJ+P9F, Jl. Melati, Pane, Kec. Rasanae Bar., Kab. Bima, Nusa Tenggara Bar. 84118","Jl. Melati, Pane, Kec. Rasanae Bar., Kab. Bima",NUSA TENGGARA BARAT,84118.0,Indonesia,,,,-84.531.789,1.187.309.204,https://maps.google.com/?cid=0x0:0xedc50b2270190276,
perumahan,Komplek perumahan,Rumah Dinas Pajak,"Jl. Kartini No.1, Paruga, Kec. Rasanae Bar., Kab. Bima, Nusa Tenggara Bar. 84111","Paruga, Kec. Rasanae Bar., Kab. Bima",NUSA TENGGARA BARAT,84111.0,Indonesia,,,,-84.535.315,118.728.392,https://maps.google.com/?cid=0x0:0x4e0159068792764,
perumahan,Komplek perumahan,Rumah Sasaaa,"Jl. Pahlawan No.28, Dara, Kec. Rasanae Bar., Kab. Bima, Nusa Tenggara Bar. 84118","Dara, Kec. Rasanae Bar., Kab. Bima",NUSA TENGGARA BARAT,84118.0,Indonesia,,,,-84.610.086,1.187.249.659,https://maps.google.com/?cid=0x0:0x52b61dc3349f4aa3,
perumahan,Komplek perumahan,"Rumah Gufransyah Dewantara,ST","Kampung sara'e, Sarae, Kec. Rasanae Bar., Kab. Bima, Nusa Tenggara Bar. 84118","Sarae, Kec. Rasanae Bar., Kab. Bima",NUSA TENGGARA BARAT,84118.0,Indonesia,,,,-84.500.573,1.187.278.384,https://maps.google.com/?cid=0x0:0xea231b26076cbd5a,
perumahan,Pembangunan Perumahan,Rumah sekar,"GPVH+C5H, Dara, Kec. Rasanae Bar., Kab. Bima, Nusa Tenggara Bar.","Kab. Bima, Nusa Tenggara Bar.",NUSA TENGGARA BARAT,,Indonesia,,,,-84.564.411,1.187.279.841,https://maps.google.com/?cid=0x0:0xc40cc4827b73d814,
perumahan,Pembangunan Perumahan,rumah zhea,"GPXP+CCX, lingkungan radio permai, Jatiwangi, Kec. Asakota, Kab. Bima, Nusa Tenggara Bar. 84117","lingkungan radio permai, Jatiwangi, Kec. Asakota, Kab. Bima",NUSA TENGGARA BARAT,84117.0,Indonesia,,,,-84.513.874,1.187.360.968,https://maps.google.com/?cid=0x0:0x4e37b36149b7a863,
perumahan,Komplek perumahan,Eka Hadiyanto,"Gg. Seroja 2 No.24, Sarae, Kec. Rasanae Bar., Kab. Bima, Nusa Tenggara Bar. 84118","Sarae, Kec. Rasanae Bar., Kab. Bima",NUSA TENGGARA BARAT,84118.0,Indonesia,,,,-84.477.755,1.187.311.583,https://maps.google.com/?cid=0x0:0x6683afe780d0ecce,
perumahan,Komplek perumahan,Rumah iswahyudin,"GPXG+GM8, RT.15/RW.Tolobali, Sarae, Kec. Rasanae Bar., Kab. Bima, Nusa Tenggara Bar. 84118","RT.15/RW.Tolobali, Sarae, Kec. Rasanae Bar., Kab. Bima",NUSA TENGGARA BARAT,84118.0,Indonesia,,,,-84.512.069,1.187.267.135,https://maps.google.com/?cid=0x0:0x7d3c1aed3dc6a6cf,
perumahan,Pembangunan Perumahan,SITI ISAH,"Jl. Sultan Muhamad Salahuddin No.11, Dara, Kec. Rasanae Bar., Kab. Bima, Nusa Tenggara Bar. 84118","Dara, Kec. Rasanae Bar., Kab. Bima",NUSA TENGGARA BARAT,84118.0,Indonesia,85338664022,,,-84.598.436,1.187.257.778,https://maps.google.com/?cid=0x0:0xc853b39b9322d9,
perumahan,Pembangunan Perumahan,Binabaru,"GPRC+Q26, Gg. Lumba Lumba No.2, Dara, Kec. Rasanae Bar., Kab. Bima, Nusa Tenggara Bar. 84118","Gg. Lumba Lumba No.2, Dara, Kec. Rasanae Bar., Kab. Bima",NUSA TENGGARA BARAT,84118.0,Indonesia,,,,-8.457.746,118.720.287,https://maps.google.com/?cid=0x0:0xe59e75cf18faf00e,
perumahan,Perhimpunan Pengembang Perumahan,"Bima, dara, kec","GPR8+8C8, Dara, Kec. Rasanae Bar., Kab. Bima, Nusa Tenggara Bar. 84118","Dara, Kec. Rasanae Bar., Kab. Bima",NUSA TENGGARA BARAT,84118.0,Indonesia,,,,-84.592.165,118.716.068,https://maps.google.com/?cid=0x0:0x65e21148ab0a074b,
perumahan,Pembangunan Perumahan,beler bratsc,"Jl. Soekarno Hatta No.26, Paruga, Kec. Rasanae Bar., Kab. Bima, Nusa Tenggara Bar. 84118","Paruga, Kec. Rasanae Bar., Kab. Bima",NUSA TENGGARA BARAT,84118.0,Indonesia,,,,-84.553.714,1.187.295.087,https://maps.google.com/?cid=0x0:0x92f220e6fbb0c006,
perumahan,Komplek perumahan,Istana kerajaan bima,"GPWG+CXF, Paruga, Kec. Rasanae Bar., Kab. Bima, Nusa Tenggara Bar. 84118","Paruga, Kec. Rasanae Bar., Kab. Bima",NUSA TENGGARA BARAT,84118.0,Indonesia,,,,-84.540.858,1.187.274.533,https://maps.google.com/?cid=0x0:0x94ed87b4f9ada533,
perumahan,Komplek perumahan,Perumahan Tolotongga Permai Jatiwangi,"HP5M+H8V, Jatiwangi, Kec. Asakota, Kab. Bima, Nusa Tenggara Bar. 84117","Jatiwangi, Kec. Asakota, Kab. Bima",NUSA TENGGARA BARAT,84117.0,Indonesia,,,,-84.410.007,118.733.312,https://maps.google.com/?cid=0x0:0xe95f3b14c9022ef1,
perumahan,perumahan,Kec. Rasanae Bar.,"Kab. Bima, Nusa Tenggara Bar.","Kab. Bima, Nusa Tenggara Bar.",NUSA TENGGARA BARAT,,Indonesia,,,,-84.540.632,1.187.241.865,https://maps.google.com/?cid=0x0:0x716674d420dfa05,
perumahan,Komplek perumahan,Rumah Rakha Abdillah Ahsan,"GPR8+8C8, Dara, Kec. Rasanae Bar., Kab. Bima, Nusa Tenggara Bar. 84118","Dara, Kec. Rasanae Bar., Kab. Bima",NUSA TENGGARA BARAT,84118.0,Indonesia,,,,-84.592.165,118.716.068,https://maps.google.com/?cid=0x0:0x4379340c982308e8,
perumahan,Pembangunan Perumahan,Perumahan Gilipanda,"Eka, Gg. Seroja 2 No.24, Sarae, Rasanae Barat, Bima Regency, West Nusa Tenggara 84118","Gg. Seroja 2 No.24, Sarae, Rasanae Barat, Bima Regency",NUSA TENGGARA BARAT,84118.0,Indonesia,,,,-84.476.703,1.187.309.496,https://maps.google.com/?cid=0x0:0x918e29e8b93bc099,
perumahan,Komplek perumahan,Naya,"GPVC+77V, Paruga, Kec. Rasanae Bar., Kab. Bima, Nusa Tenggara Bar. 84118","Paruga, Kec. Rasanae Bar., Kab. Bima",NUSA TENGGARA BARAT,84118.0,Indonesia,,,,-84.567.481,118.720.614,https://maps.google.com/?cid=0x0:0xd16bf4bafa1a6580,
perumahan,Pembangunan Perumahan,Rumah sekar,"GPVH+C5H, Dara, Kec. Rasanae Bar., Kab. Bima, Nusa Tenggara Bar.","Kab. Bima, Nusa Tenggara Bar.",NUSA TENGGARA BARAT,,Indonesia,,,,-84.564.411,1.187.279.841,https://maps.google.com/?cid=0x0:0xc40cc4827b73d814,
perumahan,Komplek perumahan,Kios hadne,"GPWQ+J2V, Nae, Kec. Rasanae Bar., Kab. Bima, Nusa Tenggara Bar. 84117","Nae, Kec. Rasanae Bar., Kab. Bima",NUSA TENGGARA BARAT,84117.0,Indonesia,,,,-8.453.387,1.187.375.526,https://maps.google.com/?cid=0x0:0x29acb84e564df0e7,
perumahan,Komplek perumahan,Rumah hamba Allah,"HP29+67G, Tanjung, Kec. Rasanae Bar., Kab. Bima, Nusa Tenggara Bar. 84118","Tanjung, Kec. Rasanae Bar., Kab. Bima",NUSA TENGGARA BARAT,84118.0,Indonesia,,,,-84.492.812,118.718.237,https://maps.google.com/?cid=0x0:0xa4a65097c7d2776e,
perumahan,Komplek perumahan,Rumah Dinas Pajak,"Jl. Kartini No.1, Paruga, Kec. Rasanae Bar., Kab. Bima, Nusa Tenggara Bar. 84111","Paruga, Kec. Rasanae Bar., Kab. Bima",NUSA TENGGARA BARAT,84111.0,Indonesia,,,,-84.535.315,118.728.392,https://maps.google.com/?cid=0x0:0x4e0159068792764,
perumahan,Pembangunan Perumahan,Lingkungan Tolodara,"GPRG+XPQ, Dara, Kec. Rasanae Bar., Kab. Bima, Nusa Tenggara Bar. 84118","Dara, Kec. Rasanae Bar., Kab. Bima",NUSA TENGGARA BARAT,84118.0,Indonesia,,,,-84.575.281,1.187.268.579,https://maps.google.com/?cid=0x0:0xe98958be39bcddd2,
perumahan,Pembangunan Perumahan,rumah zhea,"GPXP+CCX, lingkungan radio permai, Jatiwangi, Kec. Asakota, Kab. Bima, Nusa Tenggara Bar. 84117","lingkungan radio permai, Jatiwangi, Kec. Asakota, Kab. Bima",NUSA TENGGARA BARAT,84117.0,Indonesia,,,,-84.513.874,1.187.360.968,https://maps.google.com/?cid=0x0:0x4e37b36149b7a863,
perumahan,Komplek perumahan,Rumah Ny. J.,"Jl. Soekarno Hatta No.47, Paruga, Kec. Rasanae Bar., Kab. Bima, Nusa Tenggara Bar. 84118","Paruga, Kec. Rasanae Bar., Kab. Bima",NUSA TENGGARA BARAT,84118.0,Indonesia,,,,-84.562.068,1.187.264.223,https://maps.google.com/?cid=0x0:0xc0639b5127dff570,
perumahan,Nasi,Rumah Rindu,"Jl. Soekarno Hatta No.271, Paruga, Kec. Rasanae Bar., Kab. Bima, Nusa Tenggara Bar. 84118","Paruga, Kec. Rasanae Bar., Kab. Bima",NUSA TENGGARA BARAT,84118.0,Indonesia,87766432185,,,-8.456.593,1.187.190.247,https://maps.google.com/?cid=0x0:0x503dd25233062bca,
perumahan,Perhimpunan Pengembang Perumahan,"Bima, dara, kec","GPR8+8C8, Dara, Kec. Rasanae Bar., Kab. Bima, Nusa Tenggara Bar. 84118","Dara, Kec. Rasanae Bar., Kab. Bima",NUSA TENGGARA BARAT,84118.0,Indonesia,,,,-84.592.165,118.716.068,https://maps.google.com/?cid=0x0:0x65e21148ab0a074b,
perumahan,Komplek perumahan,Rumah Sasaaa,"Jl. Pahlawan No.28, Dara, Kec. Rasanae Bar., Kab. Bima, Nusa Tenggara Bar. 84118","Dara, Kec. Rasanae Bar., Kab. Bima",NUSA TENGGARA BARAT,84118.0,Indonesia,,,,-84.610.086,1.187.249.659,https://maps.google.com/?cid=0x0:0x52b61dc3349f4aa3,
perumahan,Komplek perumahan,Rumah TITHA,"GPVJ+X68, Jl. Suntu, Paruga, Kec. Rasanae Bar., Kab. Bima, Nusa Tenggara Bar. 84118","Jl. Suntu, Paruga, Kec. Rasanae Bar., Kab. Bima",NUSA TENGGARA BARAT,84118.0,Indonesia,,,,-84.550.928,1.187.305.859,https://maps.google.com/?cid=0x0:0x4976134814710eee,
perumahan,Komplek perumahan,Eka Hadiyanto,"Gg. Seroja 2 No.24, Sarae, Kec. Rasanae Bar., Kab. Bima, Nusa Tenggara Bar. 84118","Sarae, Kec. Rasanae Bar., Kab. Bima",NUSA TENGGARA BARAT,84118.0,Indonesia,,,,-84.477.755,1.187.311.583,https://maps.google.com/?cid=0x0:0x6683afe780d0ecce,
perumahan,Pembangunan Perumahan,Danilo,"GPVH+383, RT.01/RW.01, Dara, Kec. Rasanae Bar., Kab. Bima, Nusa Tenggara Bar. 84118","RT.01/RW.01, Dara, Kec. Rasanae Bar., Kab. Bima",NUSA TENGGARA BARAT,84118.0,Indonesia,,,,-84.573.821,1.187.282.827,https://maps.google.com/?cid=0x0:0x79e3da399b45ef2d,
perumahan,Komplek perumahan,"Rumah Gufransyah Dewantara,ST","Kampung sara'e, Sarae, Kec. Rasanae Bar., Kab. Bima, Nusa Tenggara Bar. 84118","Sarae, Kec. Rasanae Bar., Kab. Bima",NUSA TENGGARA BARAT,84118.0,Indonesia,,,,-84.500.573,1.187.278.384,https://maps.google.com/?cid=0x0:0xea231b26076cbd5a,
perumahan,Komplek perumahan,Rumah tatang,"GPVH+3C4, Dara, Kec. Rasanae Bar., Kab. Bima, Nusa Tenggara Bar.","Kab. Bima, Nusa Tenggara Bar.",NUSA TENGGARA BARAT,,Indonesia,,,,-84.573.995,1.187.287.502,https://maps.google.com/?cid=0x0:0x2b1d9d605f9d6cb4,
perumahan,Pembangunan Perumahan,Arya Home,"GPHC+622, Dara, Kec. Rasanae Bar., Kab. Bima, Nusa Tenggara Bar.","Kab. Bima, Nusa Tenggara Bar.",NUSA TENGGARA BARAT,,Indonesia,,,,-84.719.959,1.187.200.233,https://maps.google.com/?cid=0x0:0x8c8b7c9f294cac7e,
perumahan,Komplek perumahan,rumah mulyana,"GPXC+98R, Tanjung, Kec. Rasanae Bar., Kab. Bima, Nusa Tenggara Bar. 84118","Tanjung, Kec. Rasanae Bar., Kab. Bima",NUSA TENGGARA BARAT,84118.0,Indonesia,,,,-8.451.505,11.872.084,https://maps.google.com/?cid=0x0:0xb9cd826fe2b32277,
perumahan,Komplek perumahan,Perumahan santi Regency,"Jl. Imam Bonjol, Santi, Kec. Mpunda, Kab. Bima, Nusa Tenggara Bar. 84119","Santi, Kec. Mpunda, Kab. Bima",NUSA TENGGARA BARAT,84119.0,Indonesia,,,,-8.452.365,1.187.425.542,https://maps.google.com/?cid=0x0:0x605f29f26a0fb690,
perumahan,Pembangunan Perumahan,Radar Hidayat,"GPWQ+8Q2, Nae, Kec. Rasanae Bar., Kab. Bima, Nusa Tenggara Bar. 84117","Nae, Kec. Rasanae Bar., Kab. Bima",NUSA TENGGARA BARAT,84117.0,Indonesia,,,,-84.540.772,1.187.389.851,https://maps.google.com/?cid=0x0:0xb044bd7fd37022c4,
perumahan,Komplek perumahan,Perumahan Tolotongga Permai Jatiwangi,"HP5M+H8V, Jatiwangi, Kec. Asakota, Kab. Bima, Nusa Tenggara Bar. 84117","Jatiwangi, Kec. Asakota, Kab. Bima",NUSA TENGGARA BARAT,84117.0,Indonesia,,,,-84.410.007,118.733.312,https://maps.google.com/?cid=0x0:0xe95f3b14c9022ef1,
perumahan,Pembangunan Perumahan,Haji jamaluddin m saleh,"GPRG+CFM, Dara, Kec. Rasanae Bar., Kab. Bima, Nusa Tenggara Bar. 84118","Dara, Kec. Rasanae Bar., Kab. Bima",NUSA TENGGARA BARAT,84118.0,Indonesia,,,,-84.587.194,1.187.265.451,https://maps.google.com/?cid=0x0:0xb05e5d2408f51708,
perumahan,perumahan,Nusa Tenggara Bar. 84114,"Kabupaten Bima, Nusa Tenggara Bar.","Kabupaten Bima, Nusa Tenggara Bar.",NUSA TENGGARA BARAT,,Indonesia,,,,-85.134.128,1.188.188.948,https://maps.google.com/?cid=0x0:0x6d44046746f4d7e0,
perumahan,Komplek perumahan,Nurdiati aspara bia,"GR35+C6W, Dodu, Kec. Rasanae Tim., Kab. Bima, Nusa Tenggara Bar. 84113","Dodu, Kec. Rasanae Tim., Kab. Bima",NUSA TENGGARA BARAT,84113.0,Indonesia,82147586187,,,-8.496.376,118.808.087,https://maps.google.com/?cid=0x0:0x143e04df1fd58b9e,
perumahan,perumahan,Rumah a.andi,"CRV4+7XF, Kaowa, Kec. Lambitu, Kabupaten Bima, Nusa Tenggara Bar.","Kabupaten Bima, Nusa Tenggara Bar.",NUSA TENGGARA BARAT,,Indonesia,,,,-85.568.244,1.188.074.368,https://maps.google.com/?cid=0x0:0xa1cb0b353e6b5693,
perumahan,Komplek perumahan,"Sarang walet indah hayatun""""","Rt06, rw02, Dodu","Kab. Bima, Nusa Tenggara Bar.",NUSA TENGGARA BARAT,,Indonesia,,,,-84.964.496,1.188.159.812,https://maps.google.com/?cid=0x0:0x5f3d5982d469e38,
perumahan,Perumahan,Kodo,"GQ2V+M3F, Kodo, Kec. Rasanae Tim., Kabupaten Bima, Nusa Tenggara Bar.","Kabupaten Bima, Nusa Tenggara Bar.",NUSA TENGGARA BARAT,,Indonesia,,,,-84.983.229,11.879.267,https://maps.google.com/?cid=0x0:0x715fd4820730f7d1,
perumahan,Komplek perumahan,Nongkrong,"FRX8+CCX, Jl. Lintas Bima-Sape, Dodu, Kec. Rasanae Tim., Kab. Bima, Nusa Tenggara Bar. 84114","Jl. Lintas Bima-Sape, Dodu, Kec. Rasanae Tim., Kab. Bima",NUSA TENGGARA BARAT,84114.0,Indonesia,,,,-8.501.388,118.816.113,https://maps.google.com/?cid=0x0:0x5b0be84a60994422,
perumahan,Komplek perumahan,AL HAFIZ RISKY,"GR57+G3P, Gg. Cinta Wali, Dodu, Kec. Rasanae Tim., Kab. Bima, Nusa Tenggara Bar. 84113","Gg. Cinta Wali, Dodu, Kec. Rasanae Tim., Kab. Bima",NUSA TENGGARA BARAT,84113.0,Indonesia,,,,-84.911.662,118.812.703,https://maps.google.com/?cid=0x0:0xdf88a894c6360ef7,
perumahan,Pembangunan Perumahan,Uma Ama la and,"FR44+FV9, Dusun Kadi, Kaowa, Kec. Lambitu, Kabupaten Bima, Nusa Tenggara Bar.","Kabupaten Bima, Nusa Tenggara Bar.",NUSA TENGGARA BARAT,,Indonesia,,,,-85.438.461,1.188.072.399,https://maps.google.com/?cid=0x0:0x66caae28fa9ea6d5,
perumahan,Komplek perumahan,Siwe mbojo,"GRHH+J36, Nungga, Kec. Rasanae Tim., Kab. Bima, Nusa Tenggara Bar.","Kab. Bima, Nusa Tenggara Bar.",NUSA TENGGARA BARAT,,Indonesia,,,,-84.709.546,1.188.276.355,https://maps.google.com/?cid=0x0:0x91f665deb8076e42,
perumahan,Pembangunan Perumahan,La zerro,"Jl. Lintas Bima-Sape No.17, Ntori, Kec. Wawo, Kabupaten Bima, Nusa Tenggara Bar. 84119","Ntori, Kec. Wawo, Kabupaten Bima",NUSA TENGGARA BARAT,84119.0,Indonesia,,,,-8.502.909,1.188.357.646,https://maps.google.com/?cid=0x0:0xd26d792581cac58d,
perumahan,Komplek perumahan,Rangga chambera,"GR57+H35, RT.Dodu1Rt 011/RW.004, Dodu, Kec. Rasanae Tim., Kab. Bima, Nusa Tenggara Bar.","Kab. Bima, Nusa Tenggara Bar.",NUSA TENGGARA BARAT,,Indonesia,,,,-84.911.191,1.188.127.217,https://maps.google.com/?cid=0x0:0x2a42752c4d1d917b,
perumahan,Komplek perumahan,Nurmi,"GQ9V+28P, Jl. Pdam, Nungga, Kec. Rasanae Tim., Kab. Bima, Nusa Tenggara Bar. 84115","Jl. Pdam, Nungga, Kec. Rasanae Tim., Kab. Bima",NUSA TENGGARA BARAT,84115.0,Indonesia,,,,-84.824.012,1.187.933.289,https://maps.google.com/?cid=0x0:0x7cce302661b81583,
perumahan,Komplek perumahan,Ais JJ,"GR34+5QG, Dodu, Kec. Rasanae Tim., Kab. Bima, Nusa Tenggara Bar. 84113","Dodu, Kec. Rasanae Tim., Kab. Bima",NUSA TENGGARA BARAT,84113.0,Indonesia,,,,-84.970.308,1.188.069.825,https://maps.google.com/?cid=0x0:0xc13af3c85b617dc1,
perumahan,Komplek perumahan,Pardin Homestay,"FR53+5C5, Kaowa, Kec. Lambitu, Kabupaten Bima, Nusa Tenggara Bar. 84113","Kaowa, Kec. Lambitu, Kabupaten Bima",NUSA TENGGARA BARAT,84113.0,Indonesia,,,,-85.421.147,1.188.036.042,https://maps.google.com/?cid=0x0:0xd27b05ce88212f38,
perumahan,Kantor Pemerintah,Desa Ka'owa,"FR32+3HX, Kaowa, Kec. Lambitu, Kabupaten Bima, Nusa Tenggara Bar.","Kabupaten Bima, Nusa Tenggara Bar.",NUSA TENGGARA BARAT,,Indonesia,,,,-85.472.591,11.880.149,https://maps.google.com/?cid=0x0:0x287e9ec8e6bd865c,
perumahan,Pembangunan Perumahan,Basrin Homestay,"FR53+5C5, Kaowa, Kec. Lambitu, Kabupaten Bima, Nusa Tenggara Bar. 84113","Kaowa, Kec. Lambitu, Kabupaten Bima",NUSA TENGGARA BARAT,84113.0,Indonesia,,,,-85.413.091,1.188.044.408,https://maps.google.com/?cid=0x0:0xf663abda372911ef,
perumahan,Komplek perumahan,Di rumah Ririn Sf,"GQ6X+3G4, Jl. Lintas Dodu II, Dodu, Kec. Rasanae Tim., Kab. Bima, Nusa Tenggara Bar. 84113","Jl. Lintas Dodu II, Dodu, Kec. Rasanae Tim., Kab. Bima",NUSA TENGGARA BARAT,84113.0,Indonesia,,,,-8.489.852,1.187.988.241,https://maps.google.com/?cid=0x0:0x7004a05ef7b00dcb,
perumahan,Komplek perumahan,Rumah Basriani Lampe,"FRQ2+CVV, Lampe, Kec. Rasanae Tim., Kab. Bima, Nusa Tenggara Bar. 84113","Lampe, Kec. Rasanae Tim., Kab. Bima",NUSA TENGGARA BARAT,84113.0,Indonesia,,,,-85.113.736,1.188.027.777,https://maps.google.com/?cid=0x0:0xf730175ff627997b,
perumahan,perumahan,Rumah Abu Saiful WDR,"FQ6R+P5, Ntonggu, Kec. Palibelo, Kabupaten Bima, Nusa Tenggara Bar.","Kabupaten Bima, Nusa Tenggara Bar.",NUSA TENGGARA BARAT,,Indonesia,,,,-8.538.202,118.790.382,https://maps.google.com/?cid=0x0:0x9725b6f9352dc539,
perumahan,Komplek perumahan,Rumah Sodikin,"RT.01/RW.01, Dodu, Kec. Rasanae Tim., Kab. Bima, Nusa Tenggara Bar. 84119","Dodu, Kec. Rasanae Tim., Kab. Bima",NUSA TENGGARA BARAT,84119.0,Indonesia,,,,-8.489.255,118.790.976,https://maps.google.com/?cid=0x0:0x2381e761c891ab09,
perumahan,Komplek perumahan,Rumah zidan,"GR34+37W, Dodu, Kec. Rasanae Tim., Kab. Bima, Nusa Tenggara Bar.","Kab. Bima, Nusa Tenggara Bar.",NUSA TENGGARA BARAT,,Indonesia,,,,-84.972.733,1.188.057.061,https://maps.google.com/?cid=0x0:0xd0232c969570acd3,
perumahan,Komplek perumahan,Kaii Homes,"GQ5X+X83, Jl. Lintas Dodu II, Dodu, Kec. Rasanae Tim., Kab. Bima, Nusa Tenggara Bar. 84113","Jl. Lintas Dodu II, Dodu, Kec. Rasanae Tim., Kab. Bima",NUSA TENGGARA BARAT,84113.0,Indonesia,,,,-84.900.116,118.798.209,https://maps.google.com/?cid=0x0:0x347309aa2c86b46d,
perumahan,perumahan,Kec. Rasanae Tim.,"Kab. Bima, Nusa Tenggara Bar.","Kab. Bima, Nusa Tenggara Bar.",NUSA TENGGARA BARAT,,Indonesia,,,,-84.848.559,1.187.712.912,https://maps.google.com/?cid=0x0:0x82aa28e384c4bfcd,
perumahan,Pembangunan Perumahan,Perumahan kadole,"GQ37+V9M, Oi Fo'o, Kec. Rasanae Tim., Kab. Bima, Nusa Tenggara Bar. 84113","Oi Fo'o, Kec. Rasanae Tim., Kab. Bima",NUSA TENGGARA BARAT,84113.0,Indonesia,,,,-84.952.877,1.187.634.083,https://maps.google.com/?cid=0x0:0x98952490b78e9d22,
perumahan,Pembangunan Perumahan,Tujuan,"FQV9+WQR, Oi Fo'o, Kec. Rasanae Tim., Kabupaten Bima, Nusa Tenggara Bar.","Kabupaten Bima, Nusa Tenggara Bar.",NUSA TENGGARA BARAT,,Indonesia,,,,-85.051.426,1.187.693.952,https://maps.google.com/?cid=0x0:0xc7990181ca077e4d,
perumahan,Komplek perumahan,Rumah Kaharuddin,"Jl. Pembangunan, Penanae, Kec. Raba, Kab. Bima, Nusa Tenggara Bar.","Kab. Bima, Nusa Tenggara Bar.",NUSA TENGGARA BARAT,,Indonesia,,,,-84.628.455,1.187.693.816,https://maps.google.com/?cid=0x0:0xf576da4ad8e63d3f,
perumahan,Pembangunan Perumahan,Nungga,"GQM6+35C, Nungga, Kec. Rasanae Tim., Kab. Bima, Nusa Tenggara Bar. 84115","Nungga, Kec. Rasanae Tim., Kab. Bima",NUSA TENGGARA BARAT,84115.0,Indonesia,,,,-84.673.131,1.187.603.784,https://maps.google.com/?cid=0x0:0x56cb8e66402d9558,
perumahan,Pembangunan Perumahan,Perumahan Rontu Permai,"GP8X+WJP, Rontu, Kec. Raba, Kab. Bima, Nusa Tenggara Bar. 84112","Rontu, Kec. Raba, Kab. Bima",NUSA TENGGARA BARAT,84112.0,Indonesia,,,,-8.482.673,1.187.490.849,https://maps.google.com/?cid=0x0:0xf1376522ed9e0e6a,
perumahan,Komplek perumahan,Rumah Q,"GQC8+CWJ, RW.Lewiloa, Rabadompu Tim., Kec. Raba, Kab. Bima, Nusa Tenggara Bar.","Kab. Bima, Nusa Tenggara Bar.",NUSA TENGGARA BARAT,,Indonesia,,,,-84.789.249,1.187.672.547,https://maps.google.com/?cid=0x0:0x3c2b237a65b74926,
perumahan,Perumahan,Kodo,"GQ2V+M3F, Kodo, Kec. Rasanae Tim., Kabupaten Bima, Nusa Tenggara Bar.","Kabupaten Bima, Nusa Tenggara Bar.",NUSA TENGGARA BARAT,,Indonesia,,,,-84.983.229,11.879.267,https://maps.google.com/?cid=0x0:0x715fd4820730f7d1,
perumahan,Komplek perumahan,Ryan bedo,"GQ8C+VM7, Gg. Suhada, Kumbe, Kec. Rasanae Tim., Kab. Bima, Nusa Tenggara Bar. 84115","Gg. Suhada, Kumbe, Kec. Rasanae Tim., Kab. Bima",NUSA TENGGARA BARAT,84115.0,Indonesia,,,,-84.828.426,1.187.716.863,https://maps.google.com/?cid=0x0:0x286a6f19d10b6d67,
perumahan,perumahan,Rumah Ginaa,"GQ2Q+JWJ, Jl. Lintas Bima-Sape, Kodo, Kec. Rasanae Tim., Kab. Bima, Nusa Tenggara Bar. 84113","Jl. Lintas Bima-Sape, Kodo, Kec. Rasanae Tim., Kab. Bima",NUSA TENGGARA BARAT,84113.0,Indonesia,,,,-84.971.783,1.187.881.507,https://maps.google.com/?cid=0x0:0xff640f8fb63c33d0,
perumahan,Komplek perumahan,Rumah Reyhan,"GQF4+75G, Kelurahan Rabangodu selatan, RT.006, Rt003, Kec. Raba","Kab. Bima, Nusa Tenggara Bar.",NUSA TENGGARA BARAT,,Indonesia,,,,-84.768.085,118.755.452,https://maps.google.com/?cid=0x0:0x50157ad8bdc5bafb,
perumahan,Perhimpunan Pengembang Perumahan,Rumah NISA WOU TAI,"GQ7G+F7F, Jl. Lintas Bima-Sape, Kumbe, Kec. Rasanae Tim., Kab. Bima, Nusa Tenggara Bar. 84115","Jl. Lintas Bima-Sape, Kumbe, Kec. Rasanae Tim., Kab. Bima",NUSA TENGGARA BARAT,84115.0,Indonesia,,,,-84.863.325,1.187.757.596,https://maps.google.com/?cid=0x0:0xe68384141ab69d0b,
perumahan,Komplek perumahan,Nurmi,"GQ9V+28P, Jl. Pdam, Nungga, Kec. Rasanae Tim., Kab. Bima, Nusa Tenggara Bar. 84115","Jl. Pdam, Nungga, Kec. Rasanae Tim., Kab. Bima",NUSA TENGGARA BARAT,84115.0,Indonesia,,,,-84.824.012,1.187.933.289,https://maps.google.com/?cid=0x0:0x7cce302661b81583,
perumahan,Komplek perumahan,RunahQ,"GQ7F+6PX, Kumbe, Kec. Rasanae Tim., Kab. Bima, Nusa Tenggara Bar.","Kab. Bima, Nusa Tenggara Bar.",NUSA TENGGARA BARAT,,Indonesia,,,,-84.868.832,1.187.743.719,https://maps.google.com/?cid=0x0:0x7625a86bd1451463,
perumahan,Pembangunan Perumahan,Rasul m.yusuf salim,"GQ6P+66Q, Jl. Lintas Bima-Sape, Kodo, Kec. Rasanae Tim., Kab. Bima, Nusa Tenggara Bar. 84115","Jl. Lintas Bima-Sape, Kodo, Kec. Rasanae Tim., Kab. Bima",NUSA TENGGARA BARAT,84115.0,Indonesia,,,,-84.885.035,1.187.850.618,https://maps.google.com/?cid=0x0:0xbc82557795f85404,
perumahan,Perhimpunan Pengembang Perumahan,Rumah Raodah,"GQJJ+C8H, Jl. Pembangunan, Kendo, Kec. Raba, Kab. Bima, Nusa Tenggara Bar. 84115","Jl. Pembangunan, Kendo, Kec. Raba, Kab. Bima",NUSA TENGGARA BARAT,84115.0,Indonesia,,,,-84.689.289,1.187.808.599,https://maps.google.com/?cid=0x0:0x468c0e7c1edc478e,
perumahan,Komplek perumahan,Sabali,"GQ9C+HMM, Kumbe, Kec. Rasanae Tim., Kab. Bima, Nusa Tenggara Bar.","Kab. Bima, Nusa Tenggara Bar.",NUSA TENGGARA BARAT,,Indonesia,,,,-84.810.446,1.187.716.705,https://maps.google.com/?cid=0x0:0xe1ac3b3ab54c74a0,
perumahan,Pembangunan Perumahan,Rumah kembar,"GQ2Q+JWJ, Jl. Lintas Bima-Sape, Kodo, Kec. Rasanae Tim., Kab. Bima, Nusa Tenggara Bar. 84113","Jl. Lintas Bima-Sape, Kodo, Kec. Rasanae Tim., Kab. Bima",NUSA TENGGARA BARAT,84113.0,Indonesia,,,,-84.984.374,1.187.896.227,https://maps.google.com/?cid=0x0:0xb6f89b654955bcd1,
perumahan,Komplek perumahan,Rumah Sodikin,"RT.01/RW.01, Dodu, Kec. Rasanae Tim., Kab. Bima, Nusa Tenggara Bar. 84119","Dodu, Kec. Rasanae Tim., Kab. Bima",NUSA TENGGARA BARAT,84119.0,Indonesia,,,,-8.489.255,118.790.976,https://maps.google.com/?cid=0x0:0x2381e761c891ab09,
perumahan,Komplek perumahan,Rumah H. Rizal,"BTN Rontu Jl. Mahoni No.15, Panggi, Kec. Mpunda, Kab. Bima, Nusa Tenggara Bar. 84111","Panggi, Kec. Mpunda, Kab. Bima",NUSA TENGGARA BARAT,84111.0,Indonesia,,,,-84.814.538,1.187.454.768,https://maps.google.com/?cid=0x0:0x2a6d15e9e09af1d6,
perumahan,Pembangunan Perumahan,'Rumah Ayah Qisya',"86, Lelamase, Kec. Rasanae Tim., Kab. Bima, Nusa Tenggara Bar. 84119","Lelamase, Kec. Rasanae Tim., Kab. Bima",NUSA TENGGARA BARAT,84119.0,Indonesia,,,,-8.482.067,1.188.492.196,https://maps.google.com/?cid=0x0:0xec68f33a01b3f371,
perumahan,Komplek perumahan,Nurdiati aspara bia,"GR35+C6W, Dodu, Kec. Rasanae Tim., Kab. Bima, Nusa Tenggara Bar. 84113","Dodu, Kec. Rasanae Tim., Kab. Bima",NUSA TENGGARA BARAT,84113.0,Indonesia,82147586187,,,-8.496.376,118.808.087,https://maps.google.com/?cid=0x0:0x143e04df1fd58b9e,
perumahan,Rumah Kayu,Oimbo,"GQ7F+5WX, RT.02/RW.01, Kel. Oimbo, Kec. Rasanae Tim., Kab. Bima, Nusa Tenggara Bar. 84115","RT.02/RW.01, Kel. Oimbo, Kec. Rasanae Tim., Kab. Bima",NUSA TENGGARA BARAT,84115.0,Indonesia,,,,-84.870.033,1.187.748.733,https://maps.google.com/?cid=0x0:0xcc2d917ff9b851b9,
perumahan,Komplek perumahan,Eneng puspita,"FQVC+MR, Oi Fo'o, Kec. Rasanae Tim., Kab. Bima, Nusa Tenggara Bar.","Kab. Bima, Nusa Tenggara Bar.",NUSA TENGGARA BARAT,,Indonesia,,,,-85.057.833,1.187.720.862,https://maps.google.com/?cid=0x0:0x717bb8666f844a8f,
