Category,Real Category,Business Name,Address,City,State,Postal Code,Country,Phone,Email,Website,Latitude,Longitude,Map Link,Details Link
hotel,hotel,Sulawesi Tenggara 93673,"Kabupaten Buton Utara, Sulawesi Tenggara","Kabupaten Buton Utara, Sulawesi Tenggara",SULAWESI TENGGARA,,Indonesia,,,,-4.900844,122.9663018,https://maps.google.com/?cid=0x0:0x9ba45992a80e927e,
hotel,hotel,areef homestay kaledupa,"Lr. Gau Satoto, Ambeua, Kec. Kaledupa, Kabupaten Wakatobi, Sulawesi Tenggara 93792","Ambeua, Kec. Kaledupa, Kabupaten Wakatobi",SULAWESI TENGGARA,93792.0,Indonesia,85397314344.0,,,-5.4973662,123.7557119,https://maps.google.com/?cid=0x0:0xe6d2eb8133a572d4,
hotel,hotel,DJ Hotel,"Jl. Kantolalo Jl. By Pass Raha No.10, Kabupaten Muna, Sulawesi Tenggara 93611",Kabupaten Muna,SULAWESI TENGGARA,93611.0,Indonesia,85399838388.0,,,-4.8434231,122.7257284,https://maps.google.com/?cid=0x0:0xe5d2bc489ece3ef0,
hotel,hotel,Hotel Terapung Tomia,"Link bantea, Waha, Tomia, Kabupaten Wakatobi, Sulawesi Tenggara 93793","Waha, Tomia, Kabupaten Wakatobi",SULAWESI TENGGARA,93793.0,Indonesia,895417300072.0,,,-5.7213046,123.9023659,https://maps.google.com/?cid=0x0:0x38a43c26091e97f1,
hotel,hotel,Hotel Qubah 9 Kendari,"Jl. Martandu No.99A, Kambu, Kec. Kambu, Kota Kendari, Sulawesi Tenggara 93231","Kambu, Kec. Kambu, Kota Kendari",SULAWESI TENGGARA,93231.0,Indonesia,4013136047.0,,,-4.0082509,122.5345007,https://maps.google.com/?cid=0x0:0x16da52124c17b9e7,
hotel,hotel,THE BONTE HOTEL,"Jl. Budi Utomo No.1, Mataiwoi, Kec. Kadia, Kota Kendari, Sulawesi Tenggara","Kota Kendari, Sulawesi Tenggara",SULAWESI TENGGARA,,Indonesia,81356267213.0,,,-3.988472,122.5055925,https://maps.google.com/?cid=0x0:0x1674b5a580e0e1f9,
hotel,hotel,Kadena Glamping Dive Resort - Muna Island,"Jl. Poros Lombe No.Desa, RW.Kamama, Wakea Kea, Kec. Gu, Buton Tengah, Sulawesi Tenggara","Buton Tengah, Sulawesi Tenggara",SULAWESI TENGGARA,,Indonesia,81222777348.0,,,-5.3155071,122.6334774,https://maps.google.com/?cid=0x0:0xcdbf16bccf2ffd6a,
hotel,hotel,Wisma Maharani,"Jl. Jend. Ahmad Yani No.125, Pongo, Wangi-Wangi Sel., Kabupaten Wakatobi, Sulawesi Tenggara 93791","Pongo, Wangi-Wangi Sel., Kabupaten Wakatobi",SULAWESI TENGGARA,93791.0,Indonesia,85280001772.0,,,-5.3173276,123.5324614,https://maps.google.com/?cid=0x0:0xc48b92dd1b274cae,
hotel,hotel,Hotel Wisata Beach Wakatobi,"Jl. Jenderal Sudirman, Mandati II, Wangi-Wangi Sel., Kabupaten Wakatobi, Sulawesi Tenggara 93795","Mandati II, Wangi-Wangi Sel., Kabupaten Wakatobi",SULAWESI TENGGARA,93795.0,Indonesia,81245639300.0,,,-5.3305212,123.5379881,https://maps.google.com/?cid=0x0:0x4aa633eee4b45351,
hotel,hotel,NES_inn HOTEL,"Jl. Paelangkuta, Watonea, Kec. Katobu, Kabupaten Muna, Sulawesi Tenggara 93614","Watonea, Kec. Katobu, Kabupaten Muna",SULAWESI TENGGARA,93614.0,Indonesia,82187555824.0,,,-4.8227413,122.7200858,https://maps.google.com/?cid=0x0:0x7cedade9a3c64d3f,
hotel,hotel,Mangrove Inn Diving Wakatobi,"FPQX+QH5 Penginapan Mangrove, Jl. Poros Jembatan, Ambeua, Kec. Kaledupa, Kabupaten Wakatobi, Sulawesi Tenggara 93792","Jl. Poros Jembatan, Ambeua, Kec. Kaledupa, Kabupaten Wakatobi",SULAWESI TENGGARA,93792.0,Indonesia,82292328550.0,,,-5.510609,123.748979,https://maps.google.com/?cid=0x0:0xbe559cba9a20211d,
hotel,hotel,Wasabinua Hotel  Dive Resort,"Jl. A.H Nasution No.5, Wandoka Utara, Kec. Wangi-Wangi, Kabupaten Wakatobi, Sulawesi Tenggara 93791","Wandoka Utara, Kec. Wangi-Wangi, Kabupaten Wakatobi",SULAWESI TENGGARA,93791.0,Indonesia,82112618744.0,,,-5.2818363,123.5244352,https://maps.google.com/?cid=0x0:0xd2e98108ec835682,
hotel,hotel,Hotel Persada Bombana,"Jl. Gereja (Depan Gedung DPRD Bombana), Kasipute, Rumbia, Kasipute, Kec. Rumbia, Kabupaten Bombana, Sulawesi Tenggara 93771","Kasipute, Rumbia, Kasipute, Kec. Rumbia, Kabupaten Bombana",SULAWESI TENGGARA,93771.0,Indonesia,82292429890.0,,,-4.7752777,122.0496436,https://maps.google.com/?cid=0x0:0x198ce2fda171dad1,
hotel,hotel,Ar'Rafif Hotel,"Jl. Wa Opu Lessa No. 26 Pongo I, Mandati II, Kec. Wangi-Wangi, Kabupaten Wakatobi, Sulawesi Tenggara 93791","Mandati II, Kec. Wangi-Wangi, Kabupaten Wakatobi",SULAWESI TENGGARA,93791.0,Indonesia,85299345749.0,,,-5.3260519,123.5383135,https://maps.google.com/?cid=0x0:0x971a767b2d407a2d,
hotel,hotel,Marind Dive Eco Resort,"Jl. Rabat, Kollo Soha, Tomia, Kabupaten Wakatobi, Sulawesi Tenggara 93793","Kollo Soha, Tomia, Kabupaten Wakatobi",SULAWESI TENGGARA,93793.0,Indonesia,82146470765.0,,,-5.7346185,123.8945441,https://maps.google.com/?cid=0x0:0x2afcb85ca1f28d63,
hotel,hotel,Alia Hotel,"Jalan Jenderal Sudirman No.5, Raha, Katobu, Raha I, Kec. Katobu, Kabupaten Muna, Sulawesi Tenggara 93611","Raha, Katobu, Raha I, Kec. Katobu, Kabupaten Muna",SULAWESI TENGGARA,93611.0,Indonesia,4032521218.0,,,-4.8422645,122.7254741,https://maps.google.com/?cid=0x0:0x54eb0b2a130dc0b0,
hotel,hotel,RedDoorz near Lakota Beach Tomia Wakatobi,"Pulau Karang, Tomia, Kabupaten Wakatobi, Sulawesi Tenggara 93793","Tomia, Kabupaten Wakatobi",SULAWESI TENGGARA,93793.0,Indonesia,2180629666.0,,,-5.7211204,123.9038194,https://maps.google.com/?cid=0x0:0xbc9bc5a836b5e850,
hotel,hotel,RedDoorz @ Wangi-Wangi Island Wakatobi,"Jl KH As'ary No.3, Numana, Wangi-Wangi Sel., Kabupaten Wakatobi, Sulawesi Tenggara 93791","Numana, Wangi-Wangi Sel., Kabupaten Wakatobi",SULAWESI TENGGARA,93791.0,Indonesia,895417300072.0,,,-5.3556714,123.5573989,https://maps.google.com/?cid=0x0:0xaaf0b479fca01ed9,
hotel,hotel,Hotel Mutiara,"5PCG+QX3, Jl. Wamponiki 1, Butung-Butung, Kec. Katobu, Kabupaten Muna, Sulawesi Tenggara 93611","Jl. Wamponiki 1, Butung-Butung, Kec. Katobu, Kabupaten Muna",SULAWESI TENGGARA,93611.0,Indonesia,85255942333.0,,,-4.8281009,122.7274264,https://maps.google.com/?cid=0x0:0x802393a5ea8c1b3,
hotel,hotel,Villa Nadila,"Jalan jendral Sudirman manugela, desa pada raya makmur, Kabupaten Wakatobi, Sulawesi Tenggara 93791","desa pada raya makmur, Kabupaten Wakatobi",SULAWESI TENGGARA,93791.0,Indonesia,,,,-5.3120381,123.5355614,https://maps.google.com/?cid=0x0:0xadf69721fc13a34b,
hotel,hotel,Benua Hotel,"Jl. Diponegoro No.75, Benu-Benua, Kec. Kendari Bar., Kota Kendari, Sulawesi Tenggara 93123","Benu-Benua, Kec. Kendari Bar., Kota Kendari",SULAWESI TENGGARA,93123.0,Indonesia,4013131154.0,,,-3.9677016,122.5666293,https://maps.google.com/?cid=0x0:0x2995704724590615,
hotel,Hotel,Hotel Saraea City,"659J+V38, Jl. Keraton, Bangkudu, Kec. Kulisusu, Kabupaten Buton Utara, Sulawesi Tenggara 93672","Jl. Keraton, Bangkudu, Kec. Kulisusu, Kabupaten Buton Utara",SULAWESI TENGGARA,93672.0,Indonesia,,,,-4.7803498,123.1801953,https://maps.google.com/?cid=0x0:0xa5242da2270efab7,
hotel,hotel,Hotel Anawai Baruga,"XF2J+86M, Baruga, Kec. Baruga, Kota Kendari, Sulawesi Tenggara 93870","Baruga, Kec. Baruga, Kota Kendari",SULAWESI TENGGARA,93870.0,Indonesia,,,,-4.049768,122.4813139,https://maps.google.com/?cid=0x0:0xe577126f84756c02,
hotel,Hotel,Ereke,"659G+JRM, Bangkudu, Kec. Kulisusu, Kabupaten Buton Utara, Sulawesi Tenggara 93672","Bangkudu, Kec. Kulisusu, Kabupaten Buton Utara",SULAWESI TENGGARA,93672.0,Indonesia,8114007343.0,,,-4.7809023,123.1770566,https://maps.google.com/?cid=0x0:0x95ccd1d165a52976,
hotel,hotel,Sulawesi Tenggara 93673,"Kabupaten Buton Utara, Sulawesi Tenggara","Kabupaten Buton Utara, Sulawesi Tenggara",SULAWESI TENGGARA,,Indonesia,,,,-4.900844,122.9663018,https://maps.google.com/?cid=0x0:0x9ba45992a80e927e,
hotel,hotel,areef homestay kaledupa,"Lr. Gau Satoto, Ambeua, Kec. Kaledupa, Kabupaten Wakatobi, Sulawesi Tenggara 93792","Ambeua, Kec. Kaledupa, Kabupaten Wakatobi",SULAWESI TENGGARA,93792.0,Indonesia,85397314344.0,,,-5.4973662,123.7557119,https://maps.google.com/?cid=0x0:0xe6d2eb8133a572d4,
hotel,hotel,DJ Hotel,"Jl. Kantolalo Jl. By Pass Raha No.10, Kabupaten Muna, Sulawesi Tenggara 93611",Kabupaten Muna,SULAWESI TENGGARA,93611.0,Indonesia,85399838388.0,,,-4.8434231,122.7257284,https://maps.google.com/?cid=0x0:0xe5d2bc489ece3ef0,
hotel,hotel,Hotel Terapung Tomia,"Link bantea, Waha, Tomia, Kabupaten Wakatobi, Sulawesi Tenggara 93793","Waha, Tomia, Kabupaten Wakatobi",SULAWESI TENGGARA,93793.0,Indonesia,895417300072.0,,,-5.7213046,123.9023659,https://maps.google.com/?cid=0x0:0x38a43c26091e97f1,
hotel,hotel,Hotel Qubah 9 Kendari,"Jl. Martandu No.99A, Kambu, Kec. Kambu, Kota Kendari, Sulawesi Tenggara 93231","Kambu, Kec. Kambu, Kota Kendari",SULAWESI TENGGARA,93231.0,Indonesia,4013136047.0,,,-4.0082509,122.5345007,https://maps.google.com/?cid=0x0:0x16da52124c17b9e7,
hotel,hotel,Wisma Maharani,"Jl. Jend. Ahmad Yani No.125, Pongo, Wangi-Wangi Sel., Kabupaten Wakatobi, Sulawesi Tenggara 93791","Pongo, Wangi-Wangi Sel., Kabupaten Wakatobi",SULAWESI TENGGARA,93791.0,Indonesia,85280001772.0,,,-5.3173276,123.5324614,https://maps.google.com/?cid=0x0:0xc48b92dd1b274cae,
hotel,hotel,Kadena Glamping Dive Resort - Muna Island,"Jl. Poros Lombe No.Desa, RW.Kamama, Wakea Kea, Kec. Gu, Buton Tengah, Sulawesi Tenggara","Buton Tengah, Sulawesi Tenggara",SULAWESI TENGGARA,,Indonesia,81222777348.0,,,-5.3155071,122.6334774,https://maps.google.com/?cid=0x0:0xcdbf16bccf2ffd6a,
hotel,hotel,NES_inn HOTEL,"Jl. Paelangkuta, Watonea, Kec. Katobu, Kabupaten Muna, Sulawesi Tenggara 93614","Watonea, Kec. Katobu, Kabupaten Muna",SULAWESI TENGGARA,93614.0,Indonesia,82187555824.0,,,-4.8227413,122.7200858,https://maps.google.com/?cid=0x0:0x7cedade9a3c64d3f,
hotel,hotel,Hotel Wisata Beach Wakatobi,"Jl. Jenderal Sudirman, Mandati II, Wangi-Wangi Sel., Kabupaten Wakatobi, Sulawesi Tenggara 93795","Mandati II, Wangi-Wangi Sel., Kabupaten Wakatobi",SULAWESI TENGGARA,93795.0,Indonesia,81245639300.0,,,-5.3305212,123.5379881,https://maps.google.com/?cid=0x0:0x4aa633eee4b45351,
hotel,hotel,Mangrove Inn Diving Wakatobi,"FPQX+QH5 Penginapan Mangrove, Jl. Poros Jembatan, Ambeua, Kec. Kaledupa, Kabupaten Wakatobi, Sulawesi Tenggara 93792","Jl. Poros Jembatan, Ambeua, Kec. Kaledupa, Kabupaten Wakatobi",SULAWESI TENGGARA,93792.0,Indonesia,82292328550.0,,,-5.510609,123.748979,https://maps.google.com/?cid=0x0:0xbe559cba9a20211d,
hotel,hotel,Alia Hotel,"Jalan Jenderal Sudirman No.5, Raha, Katobu, Raha I, Kec. Katobu, Kabupaten Muna, Sulawesi Tenggara 93611","Raha, Katobu, Raha I, Kec. Katobu, Kabupaten Muna",SULAWESI TENGGARA,93611.0,Indonesia,4032521218.0,,,-4.8422645,122.7254741,https://maps.google.com/?cid=0x0:0x54eb0b2a130dc0b0,
hotel,hotel,Wasabinua Hotel  Dive Resort,"Jl. A.H Nasution No.5, Wandoka Utara, Kec. Wangi-Wangi, Kabupaten Wakatobi, Sulawesi Tenggara 93791","Wandoka Utara, Kec. Wangi-Wangi, Kabupaten Wakatobi",SULAWESI TENGGARA,93791.0,Indonesia,82112618744.0,,,-5.2818363,123.5244352,https://maps.google.com/?cid=0x0:0xd2e98108ec835682,
hotel,hotel,Ar'Rafif Hotel,"Jl. Wa Opu Lessa No. 26 Pongo I, Mandati II, Kec. Wangi-Wangi, Kabupaten Wakatobi, Sulawesi Tenggara 93791","Mandati II, Kec. Wangi-Wangi, Kabupaten Wakatobi",SULAWESI TENGGARA,93791.0,Indonesia,85299345749.0,,,-5.3260519,123.5383135,https://maps.google.com/?cid=0x0:0x971a767b2d407a2d,
hotel,hotel,RedDoorz @ Wangi-Wangi Island Wakatobi,"Jl KH As'ary No.3, Numana, Wangi-Wangi Sel., Kabupaten Wakatobi, Sulawesi Tenggara 93791","Numana, Wangi-Wangi Sel., Kabupaten Wakatobi",SULAWESI TENGGARA,93791.0,Indonesia,895417300072.0,,,-5.3556714,123.5573989,https://maps.google.com/?cid=0x0:0xaaf0b479fca01ed9,
hotel,hotel,Marind Dive Eco Resort,"Jl. Rabat, Kollo Soha, Tomia, Kabupaten Wakatobi, Sulawesi Tenggara 93793","Kollo Soha, Tomia, Kabupaten Wakatobi",SULAWESI TENGGARA,93793.0,Indonesia,82146470765.0,,,-5.7346185,123.8945441,https://maps.google.com/?cid=0x0:0x2afcb85ca1f28d63,
hotel,hotel,RedDoorz near Lakota Beach Tomia Wakatobi,"Pulau Karang, Tomia, Kabupaten Wakatobi, Sulawesi Tenggara 93793","Tomia, Kabupaten Wakatobi",SULAWESI TENGGARA,93793.0,Indonesia,2180629666.0,,,-5.7211204,123.9038194,https://maps.google.com/?cid=0x0:0xbc9bc5a836b5e850,
hotel,hotel,Hotel Mutiara,"5PCG+QX3, Jl. Wamponiki 1, Butung-Butung, Kec. Katobu, Kabupaten Muna, Sulawesi Tenggara 93611","Jl. Wamponiki 1, Butung-Butung, Kec. Katobu, Kabupaten Muna",SULAWESI TENGGARA,93611.0,Indonesia,85255942333.0,,,-4.8281009,122.7274264,https://maps.google.com/?cid=0x0:0x802393a5ea8c1b3,
hotel,hotel,Villa Nadila,"Jalan jendral Sudirman manugela, desa pada raya makmur, Kabupaten Wakatobi, Sulawesi Tenggara 93791","desa pada raya makmur, Kabupaten Wakatobi",SULAWESI TENGGARA,93791.0,Indonesia,,,,-5.3120381,123.5355614,https://maps.google.com/?cid=0x0:0xadf69721fc13a34b,
hotel,hotel,Hotel Nayang,"Waha, Tomia, Kabupaten Wakatobi, Sulawesi Tenggara 93793","Tomia, Kabupaten Wakatobi",SULAWESI TENGGARA,93793.0,Indonesia,85242320282.0,,,-5.7205073,123.9057277,https://maps.google.com/?cid=0x0:0x632546c5d7f50304,
hotel,hotel,Labore Stay,"Jl. Pelabuhan Waha, Kelurahan Waha, Kecamatan Tomia, Waha, Sulawesi Tenggara 93793","Kelurahan Waha, Kecamatan Tomia, Waha",SULAWESI TENGGARA,93793.0,Indonesia,82393083595.0,,,-5.719925,123.905046,https://maps.google.com/?cid=0x0:0x2e7fec0896b2f442,
hotel,hotel,THE BONTE HOTEL,"Jl. Budi Utomo No.1, Mataiwoi, Kec. Kadia, Kota Kendari, Sulawesi Tenggara","Kota Kendari, Sulawesi Tenggara",SULAWESI TENGGARA,,Indonesia,81356267213.0,,,-3.988472,122.5055925,https://maps.google.com/?cid=0x0:0x1674b5a580e0e1f9,
hotel,hotel,Hotel Dewa Bintang 2,"Jl. Tebaonunggu No.17, Mandonga, Kec. Kendari, Kota Kendari, Sulawesi Tenggara 93111","Mandonga, Kec. Kendari, Kota Kendari",SULAWESI TENGGARA,93111.0,Indonesia,4013126799.0,,,-3.9651662,122.517495,https://maps.google.com/?cid=0x0:0x6a608f24d97621c5,
hotel,hotel,Hotel Debora,"JL. RA. Kartini No.15, Wale, Kec. Wolio, Kota Bau-Bau, Sulawesi Tenggara 93717","Wale, Kec. Wolio, Kota Bau-Bau",SULAWESI TENGGARA,93717.0,Indonesia,4022821203.0,,,-5.456677,122.6076848,https://maps.google.com/?cid=0x0:0xf9e8feba6879d2f3,
hotel,Pondok,KIFAAT HOTEL,"Jl. Jend. Ahmad Yani, Tojabi, Kec. Lasusua, Kabupaten Kolaka Utara, Sulawesi Tenggara 93916","Tojabi, Kec. Lasusua, Kabupaten Kolaka Utara",SULAWESI TENGGARA,93916.0,Indonesia,85297192100.0,,,-3.5161888,120.9047312,https://maps.google.com/?cid=0x0:0x3b6078ebdc40a8,
hotel,Pondok,WISMA RIFA,"FWQ2+P83, Jl. Poros Lasusua - Ranteangin, Tojabi, Kec. Lasusua, Kabupaten Kolaka Utara, Sulawesi Tenggara 93916","Jl. Poros Lasusua - Ranteangin, Tojabi, Kec. Lasusua, Kabupaten Kolaka Utara",SULAWESI TENGGARA,93916.0,Indonesia,82347949747.0,,,-3.5107469,120.9007863,https://maps.google.com/?cid=0x0:0xbc685451ed56e6dc,
hotel,hotel,Kec. Kulisusu,"Kabupaten Buton Utara, Sulawesi Tenggara","Kabupaten Buton Utara, Sulawesi Tenggara",SULAWESI TENGGARA,,Indonesia,,,,-4.7781796,123.1769285,https://maps.google.com/?cid=0x0:0x9da2bec4811cc68e,
hotel,hotel,Kec. Kulisusu Bar.,"Kabupaten Buton Utara, Sulawesi Tenggara","Kabupaten Buton Utara, Sulawesi Tenggara",SULAWESI TENGGARA,,Indonesia,,,,-4.6699172,123.0647304,https://maps.google.com/?cid=0x0:0x27dee32db48a1fc5,
hotel,Hotel,Ereke,"659G+JRM, Bangkudu, Kec. Kulisusu, Kabupaten Buton Utara, Sulawesi Tenggara 93672","Bangkudu, Kec. Kulisusu, Kabupaten Buton Utara",SULAWESI TENGGARA,93672.0,Indonesia,8114007343.0,,,-4.7809023,123.1770566,https://maps.google.com/?cid=0x0:0x95ccd1d165a52976,
hotel,Hotel,Penginapan VORTUNA,"GWG4+239, Jl. Poros Maligano-Labuan, Labuan Bajo, Kec. Wakorumba, Kabupaten Buton Utara, Sulawesi Tenggara 93671","Jl. Poros Maligano-Labuan, Labuan Bajo, Kec. Wakorumba, Kabupaten Buton Utara",SULAWESI TENGGARA,93671.0,Indonesia,81355278718.0,,,-4.4749525,122.9052201,https://maps.google.com/?cid=0x0:0x904f11bed10c81ac,
hotel,Hotel,Hotel Indah Sari,"65FF+2Q4, Bangkudu, Kec. Kulisusu, Kabupaten Buton Utara, Sulawesi Tenggara 93672","Bangkudu, Kec. Kulisusu, Kabupaten Buton Utara",SULAWESI TENGGARA,93672.0,Indonesia,85241044613.0,,,-4.7774976,123.1744458,https://maps.google.com/?cid=0x0:0x2d80a8e651e8719c,
hotel,Hotel,Hotel Len-Lin,"65CF+J9C, Kelurahan Wandaka, Bangkudu, Kec. Kulisusu, Kabupaten Buton Utara, Sulawesi Tenggara 93672","Kelurahan Wandaka, Bangkudu, Kec. Kulisusu, Kabupaten Buton Utara",SULAWESI TENGGARA,93672.0,Indonesia,,,,-4.7784349,123.1733987,https://maps.google.com/?cid=0x0:0xbdb39b43c6aaef5f,
hotel,Hotel,Hotel Saraea City,"659J+V38, Jl. Keraton, Bangkudu, Kec. Kulisusu, Kabupaten Buton Utara, Sulawesi Tenggara 93672","Jl. Keraton, Bangkudu, Kec. Kulisusu, Kabupaten Buton Utara",SULAWESI TENGGARA,93672.0,Indonesia,,,,-4.7803498,123.1801953,https://maps.google.com/?cid=0x0:0xa5242da2270efab7,
hotel,Hotel,Hotel Wasilo Mata,"655H+7J2, Jl. Keraton, Linsowu, Kec. Kulisusu, Kabupaten Buton Utara, Sulawesi Tenggara 93672","Jl. Keraton, Linsowu, Kec. Kulisusu, Kabupaten Buton Utara",SULAWESI TENGGARA,93672.0,Indonesia,,,,-4.7918551,123.1790091,https://maps.google.com/?cid=0x0:0xf52d946cd486637f,
hotel,hotel,Sulawesi Tenggara 93672,"Kabupaten Buton Utara, Sulawesi Tenggara","Kabupaten Buton Utara, Sulawesi Tenggara",SULAWESI TENGGARA,,Indonesia,,,,-4.6317181,123.0338767,https://maps.google.com/?cid=0x0:0x22ef5ef6963e0828,
hotel,hotel,RedDoorz @ Green Homestay Syariah Baubau,"Jl. Lakarambau, Lipu, Kec. Betoambari, Kota Bau-Bau, Sulawesi Tenggara 93724","Lipu, Kec. Betoambari, Kota Bau-Bau",SULAWESI TENGGARA,93724.0,Indonesia,895417300072.0,,,-5.4830603,122.581514,https://maps.google.com/?cid=0x0:0x416e2ec42c090538,
hotel,hotel,ZENITH Premiere Hotel Baubau,"Jl. Pahlawan No.2, Batulo, Kec. Wolio, Kota Bau-Bau, Sulawesi Tenggara 93716","Batulo, Kec. Wolio, Kota Bau-Bau",SULAWESI TENGGARA,93716.0,Indonesia,4022818181.0,,,-5.4605781,122.6202256,https://maps.google.com/?cid=0x0:0x6804d2f2f593324b,
hotel,hotel,Calista Beach Hotel,"Jl. Yos Sudarso No.25, Wale, Kec. Wolio, Kota Bau-Bau, Sulawesi Tenggara 93711","Wale, Kec. Wolio, Kota Bau-Bau",SULAWESI TENGGARA,93711.0,Indonesia,4022823088.0,,,-5.4551628,122.6076955,https://maps.google.com/?cid=0x0:0xb6aa93333821debf,
hotel,hotel,RedDoorz Near Lippo Plaza Buton,"Jl. Pahlawan, Kadolo, Kec. Kokalukuna, Kota Bau-Bau, Sulawesi Tenggara 93711","Kadolo, Kec. Kokalukuna, Kota Bau-Bau",SULAWESI TENGGARA,93711.0,Indonesia,895417300072.0,,,-5.4631502,122.6225948,https://maps.google.com/?cid=0x0:0x876b994274395f18,
hotel,hotel,Lixxio Hotel,"Jl. Budi Utomo, Wangkanapi, Kec. Wolio, Kota Bau-Bau, Sulawesi Tenggara 93717","Wangkanapi, Kec. Wolio, Kota Bau-Bau",SULAWESI TENGGARA,93717.0,Indonesia,4022811575.0,,,-5.4666296,122.607907,https://maps.google.com/?cid=0x0:0xbf75eda8c5ed233d,
hotel,hotel,PENGINAPAN BINTANG TIMUR,"Jl. Kamali, Wale, Kec. Wolio, Kota Bau-Bau, Sulawesi Tenggara 93717","Wale, Kec. Wolio, Kota Bau-Bau",SULAWESI TENGGARA,93717.0,Indonesia,82294239246.0,,,-5.4562341,122.6070725,https://maps.google.com/?cid=0x0:0xdf2a93e9102410a8,
hotel,hotel,Wisma Mulia,"Wale, Kec. Wolio, Kota Bau-Bau, Sulawesi Tenggara 93717","Kec. Wolio, Kota Bau-Bau",SULAWESI TENGGARA,93717.0,Indonesia,4022821673.0,,,-5.4557221,122.6074078,https://maps.google.com/?cid=0x0:0x6115dd3369632f34,
hotel,hotel,RedDoorz @ Hotel Bravo Pantai Kamali Bau Bau,"Jl. Yos Sudarso No.19A, Wale, Kec. Wolio, Kota Bau-Bau, Sulawesi Tenggara 93717","Wale, Kec. Wolio, Kota Bau-Bau",SULAWESI TENGGARA,93717.0,Indonesia,895417300072.0,,,-5.4553279,122.6081926,https://maps.google.com/?cid=0x0:0x5149999a1bb19615,
hotel,hotel,Nirwana Buton Villa,"Jalan Dayanu Ikhsanuddin, Sulla - Betoambari, Sulaa, Kec. Betoambari, Kota Bau-Bau, Sulawesi Tenggara","Kota Bau-Bau, Sulawesi Tenggara",SULAWESI TENGGARA,,Indonesia,82395399962.0,,,-5.521921,122.565666,https://maps.google.com/?cid=0x0:0x9b537d4c9b6ad161,
hotel,hotel,Hing Amimah Hotel,"Jl. Diponegoro No.16C, Batulo, Kec. Wolio, Kota Bau-Bau, Sulawesi Tenggara 93717","Batulo, Kec. Wolio, Kota Bau-Bau",SULAWESI TENGGARA,93717.0,Indonesia,895417300072.0,,,-5.460841,122.6150883,https://maps.google.com/?cid=0x0:0x207762f3208662ed,
hotel,hotel,Hotel Galaxy Inn,"Jl. Budi Utomo No.71, Bataraguru, Kec. Wolio, Kota Bau-Bau, Sulawesi Tenggara 93717","Bataraguru, Kec. Wolio, Kota Bau-Bau",SULAWESI TENGGARA,93717.0,Indonesia,4022825003.0,,,-5.4666076,122.607875,https://maps.google.com/?cid=0x0:0x94aae5caad99a0ba,
hotel,hotel,Wisma Kahyangan,"Jl. Dr. Wahidin No.108, Lamangga, Kec. Murhum, Kota Bau-Bau, Sulawesi Tenggara 97000","Lamangga, Kec. Murhum, Kota Bau-Bau",SULAWESI TENGGARA,97000.0,Indonesia,81355508858.0,,,-5.4677596,122.5982659,https://maps.google.com/?cid=0x0:0x53ca2fa0026360b7,
hotel,hotel,Hotel Rosichan Bau-Bau,"Jl. Betoambari No.117, Lamangga, Kec. Murhum, Kota Bau-Bau, Sulawesi Tenggara 93713","Lamangga, Kec. Murhum, Kota Bau-Bau",SULAWESI TENGGARA,93713.0,Indonesia,895417300072.0,,,-5.465081,122.596467,https://maps.google.com/?cid=0x0:0x4b84b1a3577f7831,
hotel,hotel,BRAVO Hotel,"Jl. Yos Sudarso No.19 A, Wale, Kec. Wolio, Kota Bau-Bau, Sulawesi Tenggara 93711","Wale, Kec. Wolio, Kota Bau-Bau",SULAWESI TENGGARA,93711.0,Indonesia,82393512288.0,,,-5.455327,122.608185,https://maps.google.com/?cid=0x0:0x1121e149f74e5d6,
hotel,hotel,Sunset Resort Hotel,"Jl. Poros Lakeba Sulaa, Katobengke, Kec. Betoambari, Kota Bau-Bau, Sulawesi Tenggara 93721","Katobengke, Kec. Betoambari, Kota Bau-Bau",SULAWESI TENGGARA,93721.0,Indonesia,2180629666.0,,,-5.4890938,122.5629603,https://maps.google.com/?cid=0x0:0x4a21a5e9622fc2e4,
hotel,hotel,Athina Puncak Hotel  Resort,"GJMG+42J, Jl. Cendana, Kadolo, Kec. Kokalukuna, Kota Bau-Bau, Sulawesi Tenggara 93711","Jl. Cendana, Kadolo, Kec. Kokalukuna, Kota Bau-Bau",SULAWESI TENGGARA,93711.0,Indonesia,85241689034.0,,,-5.4671625,122.6250301,https://maps.google.com/?cid=0x0:0xfbecc0a711b2d55e,
hotel,hotel,Hotel Mira,"Jl. Mawar No.7, Sulawesi Tenggara 93716",Sulawesi Tenggara,SULAWESI TENGGARA,,Indonesia,4022822911.0,,,-5.4580111,122.6215632,https://maps.google.com/?cid=0x0:0xe1ed6673be7b57e7,
hotel,hotel,Hotel Lakamali,"Jl. Betoambari, Lipu, Kec. Betoambari, Kota Bau-Bau, Sulawesi Tenggara 93724","Lipu, Kec. Betoambari, Kota Bau-Bau",SULAWESI TENGGARA,93724.0,Indonesia,4022825372.0,,,-5.4780945,122.5820218,https://maps.google.com/?cid=0x0:0xe2c9a292cf1a0c7f,
hotel,hotel,Villa The View (0821-6409-4926),"Kadolo, Kec. Kokalukuna, Kota Bau-Bau, Sulawesi Tenggara 93716","Kec. Kokalukuna, Kota Bau-Bau",SULAWESI TENGGARA,93716.0,Indonesia,82164094926.0,,,-5.4636652,122.6191307,https://maps.google.com/?cid=0x0:0x3fc9dbd16a4d85a8,
hotel,hotel,Hotel Qubah 9 Kendari,"Jl. Martandu No.99A, Kambu, Kec. Kambu, Kota Kendari, Sulawesi Tenggara 93231","Kambu, Kec. Kambu, Kota Kendari",SULAWESI TENGGARA,93231.0,Indonesia,4013136047.0,,,-4.0082509,122.5345007,https://maps.google.com/?cid=0x0:0x16da52124c17b9e7,
hotel,hotel,Sulawesi Tenggara 93671,Sulawesi Tenggara,Sulawesi Tenggara,SULAWESI TENGGARA,,Indonesia,,,,-4.5493643,122.9212265,https://maps.google.com/?cid=0x0:0xe8e004ff2b736d21,
hotel,hotel,DJ Hotel,"Jl. Kantolalo Jl. By Pass Raha No.10, Kabupaten Muna, Sulawesi Tenggara 93611",Kabupaten Muna,SULAWESI TENGGARA,93611.0,Indonesia,85399838388.0,,,-4.8434231,122.7257284,https://maps.google.com/?cid=0x0:0xe5d2bc489ece3ef0,
hotel,hotel,NES_inn HOTEL,"Jl. Paelangkuta, Watonea, Kec. Katobu, Kabupaten Muna, Sulawesi Tenggara 93614","Watonea, Kec. Katobu, Kabupaten Muna",SULAWESI TENGGARA,93614.0,Indonesia,82187555824.0,,,-4.8227413,122.7200858,https://maps.google.com/?cid=0x0:0x7cedade9a3c64d3f,
hotel,hotel,Hotel Mutiara,"5PCG+QX3, Jl. Wamponiki 1, Butung-Butung, Kec. Katobu, Kabupaten Muna, Sulawesi Tenggara 93611","Jl. Wamponiki 1, Butung-Butung, Kec. Katobu, Kabupaten Muna",SULAWESI TENGGARA,93611.0,Indonesia,85255942333.0,,,-4.8281009,122.7274264,https://maps.google.com/?cid=0x0:0x802393a5ea8c1b3,
hotel,hotel,SAWA BEACH RESORT,"Ds, RW.Pekarooa, Matanggonawe, Kec. Sawa, Kabupaten Konawe Utara, Sulawesi Tenggara 93352","RW.Pekarooa, Matanggonawe, Kec. Sawa, Kabupaten Konawe Utara",SULAWESI TENGGARA,93352.0,Indonesia,8114056864.0,,,-3.783229,122.4511684,https://maps.google.com/?cid=0x0:0x21bbabf4006bce95,
hotel,hotel,Hotel Debora,"JL. RA. Kartini No.15, Wale, Kec. Wolio, Kota Bau-Bau, Sulawesi Tenggara 93717","Wale, Kec. Wolio, Kota Bau-Bau",SULAWESI TENGGARA,93717.0,Indonesia,4022821203.0,,,-5.456677,122.6076848,https://maps.google.com/?cid=0x0:0xf9e8feba6879d2f3,
restaurant,restaurant,Sulawesi Tenggara 93673,"Kabupaten Buton Utara, Sulawesi Tenggara","Kabupaten Buton Utara, Sulawesi Tenggara",SULAWESI TENGGARA,,Indonesia,,,,-4.900844,122.9663018,https://maps.google.com/?cid=0x0:0x9ba45992a80e927e,
restaurant,Kafetaria,RESTAURANT BANYUWANGI,"5XXM+6M7, Waode Angkalo, Kec. Bonegunu, Kabupaten Buton Utara, Sulawesi Tenggara 93673","Waode Angkalo, Kec. Bonegunu, Kabupaten Buton Utara",SULAWESI TENGGARA,93673.0,Indonesia,,,,-4.8019539,122.9841642,https://maps.google.com/?cid=0x0:0xd648299a2222927f,
restaurant,Kafetaria,Rumah Makan Dan Penginapan Berkah,"5XXM+RR4, Waode Angkalo, Kec. Bonegunu, Kabupaten Buton Utara, Sulawesi Tenggara 93673","Waode Angkalo, Kec. Bonegunu, Kabupaten Buton Utara",SULAWESI TENGGARA,93673.0,Indonesia,82297024077.0,,,-4.8004972,122.9845727,https://maps.google.com/?cid=0x0:0xe0a21ac729cca4a2,
restaurant,Kafetaria,RUMAH MAKAN TERATAI,"5XXM+9P7, Waode Angkalo, Kec. Bonegunu, Kabupaten Buton Utara, Sulawesi Tenggara 93673","Waode Angkalo, Kec. Bonegunu, Kabupaten Buton Utara",SULAWESI TENGGARA,93673.0,Indonesia,85342617596.0,,,-4.8015781,122.9842903,https://maps.google.com/?cid=0x0:0xacc05982d9e76da9,
restaurant,Kafe,RM. BANUA BUTUR,"6578+29W, Jl. Raya Bajo, Bangkudu, Kabupaten Buton Utara, Sulawesi Tenggara 93672","Jl. Raya Bajo, Bangkudu, Kabupaten Buton Utara",SULAWESI TENGGARA,93672.0,Indonesia,82291639859.0,,,-4.7873901,123.165949,https://maps.google.com/?cid=0x0:0x9cff328f8634a293,
restaurant,Makanan Kecil,WARUNG MAKAN SOLO,"3X5J+JX6, Bonegunu, Kec. Bonegunu, Kabupaten Buton Utara, Sulawesi Tenggara 93673","Bonegunu, Kec. Bonegunu, Kabupaten Buton Utara",SULAWESI TENGGARA,93673.0,Indonesia,,,,-4.9409537,122.982387,https://maps.google.com/?cid=0x0:0xc65ca36ac4dcc6ba,
restaurant,Makanan Kecil,Warung Gorengan Mama Bilqis,"5X5W+HCC, Waode Kalowo, Kec. Bonegunu, Kabupaten Buton Utara, Sulawesi Tenggara 93673","Waode Kalowo, Kec. Bonegunu, Kabupaten Buton Utara",SULAWESI TENGGARA,93673.0,Indonesia,,,,-4.8416821,122.9972781,https://maps.google.com/?cid=0x0:0xb396d20239859c93,
restaurant,Kafetaria,Persiapan pembangunan Dapur Umum,"5XJJ+GW9, Jl. Ronta-Buranga, Een Sumala, Kec. Bonegunu, Kabupaten Buton Utara, Sulawesi Tenggara 93673","Jl. Ronta-Buranga, Een Sumala, Kec. Bonegunu, Kabupaten Buton Utara",SULAWESI TENGGARA,93673.0,Indonesia,,,,-4.8187201,122.9823529,https://maps.google.com/?cid=0x0:0x28580be3576119ea,
restaurant,Sarapan,Warung mama anggi,"3X3H+877, Bonegunu, Kec. Bonegunu, Kabupaten Buton Utara, Sulawesi Tenggara","Kabupaten Buton Utara, Sulawesi Tenggara",SULAWESI TENGGARA,,Indonesia,,,,-4.94671,122.9781742,https://maps.google.com/?cid=0x0:0x70cf555f89500128,
restaurant,Gudang,Penjual kepiting,"5X4X+G5, Waode Kalowo, Kec. Bonegunu, Kabupaten Buton Utara, Sulawesi Tenggara","Kabupaten Buton Utara, Sulawesi Tenggara",SULAWESI TENGGARA,,Indonesia,,,,-4.8436582,122.9979114,https://maps.google.com/?cid=0x0:0xcd57c0daaf913c2d,
restaurant,Sarapan,Warung Makan Enjel,"2XX7+8CQ, Bubu, Kec. Kambowa, Kabupaten Buton Utara, Sulawesi Tenggara 93673","Bubu, Kec. Kambowa, Kabupaten Buton Utara",SULAWESI TENGGARA,93673.0,Indonesia,,,,-4.9516646,122.9636098,https://maps.google.com/?cid=0x0:0xdcad949664a45440,
restaurant,Restoran,Kedai Ungu,"6589+9V6, Jl. Mojimohalo, Bangkudu, Kec. Kulisusu, Kabupaten Buton Utara, Sulawesi Tenggara 93672","Jl. Mojimohalo, Bangkudu, Kec. Kulisusu, Kabupaten Buton Utara",SULAWESI TENGGARA,93672.0,Indonesia,85338620470.0,,,-4.7840899,123.1696504,https://maps.google.com/?cid=0x0:0x9e0ad541a04252e7,
restaurant,Rumah Makan,Prasmanan Mewalo,"65FG+WJ5, Jl. Gaumalanga, Lipu, Kec. Kulisusu, Kabupaten Buton Utara, Sulawesi Tenggara 93672","Jl. Gaumalanga, Lipu, Kec. Kulisusu, Kabupaten Buton Utara",SULAWESI TENGGARA,93672.0,Indonesia,82193888444.0,,,-4.775239,123.1766166,https://maps.google.com/?cid=0x0:0xa3d8d7ca1ece269a,
restaurant,Tegal,Depot Rindu Rasa,"Jln, RT.01/RW.01, Bangkudu, Kec. Kulisusu, Kabupaten Buton Utara, Sulawesi Tenggara 93672","RT.01/RW.01, Bangkudu, Kec. Kulisusu, Kabupaten Buton Utara",SULAWESI TENGGARA,93672.0,Indonesia,81279888151.0,,,-4.7702949,123.1775309,https://maps.google.com/?cid=0x0:0x1675fafdd13963d9,
restaurant,Tegal,Rumah makan Sumatra,"65CF+HGP, Jl. Laode Gure, Bangkudu, Kec. Kulisusu, Kabupaten Buton Utara, Sulawesi Tenggara 93672","Jl. Laode Gure, Bangkudu, Kec. Kulisusu, Kabupaten Buton Utara",SULAWESI TENGGARA,93672.0,Indonesia,82346520011.0,,,-4.7785426,123.1738288,https://maps.google.com/?cid=0x0:0x3c7259316122606f,
restaurant,Rumah Makan,Rumah Makan Jene Berang,"Jl. Jens Jl. Ahmad Yani No.65, Pulau, Kec. Katobu, Kabupaten Muna, Sulawesi Tenggara 93614","Pulau, Kec. Katobu, Kabupaten Muna",SULAWESI TENGGARA,93614.0,Indonesia,85241961400.0,,,-4.8349457,122.7248669,https://maps.google.com/?cid=0x0:0xcc7304e9b8e495c4,
restaurant,Makanan Kecil,Warung Ayam Kentucky MAMA FAAZ,"5X5W+HCC, Waode Kalowo, Kec. Bonegunu, Kabupaten Buton Utara, Sulawesi Tenggara 93673","Waode Kalowo, Kec. Bonegunu, Kabupaten Buton Utara",SULAWESI TENGGARA,93673.0,Indonesia,,,,-4.8416711,122.9972452,https://maps.google.com/?cid=0x0:0x840369ac16cf8124,
restaurant,Restoran,R.M Solo,"Jalan Pelabuhan RT. 1 / RW. 1, Kel. Bangkudu, Kec. Kulisusu, Kabupaten Buton Utara, Sulawesi Tenggara 93741","Kel. Bangkudu, Kec. Kulisusu, Kabupaten Buton Utara",SULAWESI TENGGARA,93741.0,Indonesia,,,,-4.7733723,123.175361,https://maps.google.com/?cid=0x0:0x4204d7cfd60a3de,
restaurant,restaurant,Sulawesi Tenggara 93673,"Kabupaten Buton Utara, Sulawesi Tenggara","Kabupaten Buton Utara, Sulawesi Tenggara",SULAWESI TENGGARA,,Indonesia,,,,-4.900844,122.9663018,https://maps.google.com/?cid=0x0:0x9ba45992a80e927e,
restaurant,Kafetaria,Rumah Makan Dan Penginapan Berkah,"5XXM+RR4, Waode Angkalo, Kec. Bonegunu, Kabupaten Buton Utara, Sulawesi Tenggara 93673","Waode Angkalo, Kec. Bonegunu, Kabupaten Buton Utara",SULAWESI TENGGARA,93673.0,Indonesia,82297024077.0,,,-4.8004972,122.9845727,https://maps.google.com/?cid=0x0:0xe0a21ac729cca4a2,
restaurant,Kafe,RM. BANUA BUTUR,"6578+29W, Jl. Raya Bajo, Bangkudu, Kabupaten Buton Utara, Sulawesi Tenggara 93672","Jl. Raya Bajo, Bangkudu, Kabupaten Buton Utara",SULAWESI TENGGARA,93672.0,Indonesia,82291639859.0,,,-4.7873901,123.165949,https://maps.google.com/?cid=0x0:0x9cff328f8634a293,
restaurant,Tegal,Rumah makan Sumatra,"65CF+HGP, Jl. Laode Gure, Bangkudu, Kec. Kulisusu, Kabupaten Buton Utara, Sulawesi Tenggara 93672","Jl. Laode Gure, Bangkudu, Kec. Kulisusu, Kabupaten Buton Utara",SULAWESI TENGGARA,93672.0,Indonesia,82346520011.0,,,-4.7785426,123.1738288,https://maps.google.com/?cid=0x0:0x3c7259316122606f,
restaurant,Rumah Makan,Prasmanan Mewalo,"65FG+WJ5, Jl. Gaumalanga, Lipu, Kec. Kulisusu, Kabupaten Buton Utara, Sulawesi Tenggara 93672","Jl. Gaumalanga, Lipu, Kec. Kulisusu, Kabupaten Buton Utara",SULAWESI TENGGARA,93672.0,Indonesia,82193888444.0,,,-4.775239,123.1766166,https://maps.google.com/?cid=0x0:0xa3d8d7ca1ece269a,
restaurant,Kafetaria,RESTAURANT BANYUWANGI,"5XXM+6M7, Waode Angkalo, Kec. Bonegunu, Kabupaten Buton Utara, Sulawesi Tenggara 93673","Waode Angkalo, Kec. Bonegunu, Kabupaten Buton Utara",SULAWESI TENGGARA,93673.0,Indonesia,,,,-4.8019539,122.9841642,https://maps.google.com/?cid=0x0:0xd648299a2222927f,
restaurant,Kafetaria,Warung Makan Sumber Rejeki,"6X6J+H6P, Waode Angkalo, Kec. Bonegunu, Kabupaten Buton Utara, Sulawesi Tenggara 93673","Waode Angkalo, Kec. Bonegunu, Kabupaten Buton Utara",SULAWESI TENGGARA,93673.0,Indonesia,,,,-4.7885336,122.9805642,https://maps.google.com/?cid=0x0:0xf2a33dffed2da42,
restaurant,Tujuan Wisata,Karamba Resto Gerak Makmur,"9P3W+QM3, Gerak Makmur, Kec. Sampolawa, Kabupaten Buton",Kabupaten Buton,SULAWESI TENGGARA,,Indonesia,,,,-5.645617,122.7466597,https://maps.google.com/?cid=0x0:0x1813fb2db1a0651a,
restaurant,Tegal,Depot Rindu Rasa,"Jln, RT.01/RW.01, Bangkudu, Kec. Kulisusu, Kabupaten Buton Utara, Sulawesi Tenggara 93672","RT.01/RW.01, Bangkudu, Kec. Kulisusu, Kabupaten Buton Utara",SULAWESI TENGGARA,93672.0,Indonesia,81279888151.0,,,-4.7702949,123.1775309,https://maps.google.com/?cid=0x0:0x1675fafdd13963d9,
restaurant,Kafetaria,RUMAH MAKAN TERATAI,"5XXM+9P7, Waode Angkalo, Kec. Bonegunu, Kabupaten Buton Utara, Sulawesi Tenggara 93673","Waode Angkalo, Kec. Bonegunu, Kabupaten Buton Utara",SULAWESI TENGGARA,93673.0,Indonesia,85342617596.0,,,-4.8015781,122.9842903,https://maps.google.com/?cid=0x0:0xacc05982d9e76da9,
restaurant,Dapur Umum,Warung Makan Ayam Geprek Dhiba,"Bangkudu, Kec. Kulisusu, Kabupaten Buton Utara, Sulawesi Tenggara 93672","Kec. Kulisusu, Kabupaten Buton Utara",SULAWESI TENGGARA,93672.0,Indonesia,82292952562.0,,,-4.7725378,123.1781308,https://maps.google.com/?cid=0x0:0x692102522de49433,
restaurant,Makanan Kecil,Warung Gorengan Mama Bilqis,"5X5W+HCC, Waode Kalowo, Kec. Bonegunu, Kabupaten Buton Utara, Sulawesi Tenggara 93673","Waode Kalowo, Kec. Bonegunu, Kabupaten Buton Utara",SULAWESI TENGGARA,93673.0,Indonesia,,,,-4.8416821,122.9972781,https://maps.google.com/?cid=0x0:0xb396d20239859c93,
restaurant,Kafetaria,Persiapan pembangunan Dapur Umum,"5XJJ+GW9, Jl. Ronta-Buranga, Een Sumala, Kec. Bonegunu, Kabupaten Buton Utara, Sulawesi Tenggara 93673","Jl. Ronta-Buranga, Een Sumala, Kec. Bonegunu, Kabupaten Buton Utara",SULAWESI TENGGARA,93673.0,Indonesia,,,,-4.8187201,122.9823529,https://maps.google.com/?cid=0x0:0x28580be3576119ea,
restaurant,Tegal,Warung Makan Mas Bayu,"65FH+7JM, saraeea, Kec. Kulisusu, Kabupaten Buton Utara, Sulawesi Tenggara 93672","saraeea, Kec. Kulisusu, Kabupaten Buton Utara",SULAWESI TENGGARA,93672.0,Indonesia,85341793909.0,,,-4.7767981,123.1790321,https://maps.google.com/?cid=0x0:0xefb4a8f918238e6f,
restaurant,restaurant,FOM_Drink,"55GH+V6J, Lemo, Kec. Kulisusu, Kabupaten Buton Utara, Sulawesi Tenggara 93672","Lemo, Kec. Kulisusu, Kabupaten Buton Utara",SULAWESI TENGGARA,93672.0,Indonesia,,,,-4.8227865,123.1780252,https://maps.google.com/?cid=0x0:0xbc13f43129c0e653,
restaurant,Makanan Kecil,WARUNG MAKAN SOLO,"3X5J+JX6, Bonegunu, Kec. Bonegunu, Kabupaten Buton Utara, Sulawesi Tenggara 93673","Bonegunu, Kec. Bonegunu, Kabupaten Buton Utara",SULAWESI TENGGARA,93673.0,Indonesia,,,,-4.9409537,122.982387,https://maps.google.com/?cid=0x0:0xc65ca36ac4dcc6ba,
restaurant,Restoran,Kedai Ungu,"6589+9V6, Jl. Mojimohalo, Bangkudu, Kec. Kulisusu, Kabupaten Buton Utara, Sulawesi Tenggara 93672","Jl. Mojimohalo, Bangkudu, Kec. Kulisusu, Kabupaten Buton Utara",SULAWESI TENGGARA,93672.0,Indonesia,85338620470.0,,,-4.7840899,123.1696504,https://maps.google.com/?cid=0x0:0x9e0ad541a04252e7,
restaurant,Tegal,warung makan nabil,"65GG+QQV, Jl. Keraton, Bangkudu, Kec. Kulisusu, Kabupaten Buton Utara, Sulawesi Tenggara 93672","Jl. Keraton, Bangkudu, Kec. Kulisusu, Kabupaten Buton Utara",SULAWESI TENGGARA,93672.0,Indonesia,82396198443.0,,,-4.7730211,123.1769252,https://maps.google.com/?cid=0x0:0x2b4c0b4317724104,
restaurant,Gudang,Penjual kepiting,"5X4X+G5, Waode Kalowo, Kec. Bonegunu, Kabupaten Buton Utara, Sulawesi Tenggara","Kabupaten Buton Utara, Sulawesi Tenggara",SULAWESI TENGGARA,,Indonesia,,,,-4.8436582,122.9979114,https://maps.google.com/?cid=0x0:0xcd57c0daaf913c2d,
restaurant,Rumah Makan,Rumah Makan Jene Berang,"Jl. Jens Jl. Ahmad Yani No.65, Pulau, Kec. Katobu, Kabupaten Muna, Sulawesi Tenggara 93614","Pulau, Kec. Katobu, Kabupaten Muna",SULAWESI TENGGARA,93614.0,Indonesia,85241961400.0,,,-4.8349457,122.7248669,https://maps.google.com/?cid=0x0:0xcc7304e9b8e495c4,
restaurant,Makanan Kecil,Warung Ayam Kentucky MAMA FAAZ,"5X5W+HCC, Waode Kalowo, Kec. Bonegunu, Kabupaten Buton Utara, Sulawesi Tenggara 93673","Waode Kalowo, Kec. Bonegunu, Kabupaten Buton Utara",SULAWESI TENGGARA,93673.0,Indonesia,,,,-4.8416711,122.9972452,https://maps.google.com/?cid=0x0:0x840369ac16cf8124,
restaurant,Timur Tengah,Restaurant Kamannana,"8X65+QG7, Jalan Raya Puncak Tugu No.Km. 83,8, Tugu Sel., Kec. Cisarua, Kabupaten Bogor, Jawa Barat 16750","Jalan Raya Puncak Tugu No.Km. 83,8, Tugu Sel., Kec. Cisarua, Kabupaten Bogor",SULAWESI TENGGARA,16750.0,Indonesia,82211334423.0,,,-6.6881856,106.958768,https://maps.google.com/?cid=0x0:0xc0f6ba09d0596136,
restaurant,Restoran,KASIMA Resto  Kopi,"Jl. Siliwangi No.1, Sumur Batu, Kec. Babakan Madang, Kabupaten Bogor, Jawa Barat 16810","Sumur Batu, Kec. Babakan Madang, Kabupaten Bogor",SULAWESI TENGGARA,16810.0,Indonesia,8111255315.0,,,-6.5841901,106.8810756,https://maps.google.com/?cid=0x0:0x61dae8d071d651d3,
restaurant,Timur Tengah,ÙØ·Ø¹Ù ÙØ§ÙÙÙØ§,"7XP3+XMQ, Tugu Sel., Kec. Cisarua, Kabupaten Bogor, Jawa Barat","Kabupaten Bogor, Jawa Barat",SULAWESI TENGGARA,,Indonesia,,,,-6.7125476,106.9542425,https://maps.google.com/?cid=0x0:0x40b52f540a3df35b,
restaurant,Thailand,KAMLAI,"Mall Pacific Place, Jl. Jenderal Sudirman, RT.5/RW.3, Senayan, Kec. Kby. Baru, Kota Jakarta Selatan, Daerah Khusus Ibukota Jakarta 12190","Jl. Jenderal Sudirman, RT.5/RW.3, Senayan, Kec. Kby. Baru, Kota Jakarta Selatan",SULAWESI TENGGARA,12190.0,Indonesia,85210767697.0,,,-6.2249479,106.809425,https://maps.google.com/?cid=0x0:0x1075823fe3ecb2b0,
restaurant,Thailand,Kamlai,"Mall Of Indonesia, Jl. Boulevard Bar. Raya GF-E10 Lobby 7, RT.18/RW.8, Klp. Gading Bar., Kec. Klp. Gading, Jkt Utara, Daerah Khusus Ibukota Jakarta 14240","Jl. Boulevard Bar. Raya GF-E10 Lobby 7, RT.18/RW.8, Klp. Gading Bar., Kec. Klp. Gading, Jkt Utara",SULAWESI TENGGARA,14240.0,Indonesia,82189289223.0,,,-6.1501819,106.8912414,https://maps.google.com/?cid=0x0:0x3c9f40d81e1bf8d5,
restaurant,Restoran,Kasima Resto  Kopi Puri Indah Mall,"RP6M+QFW, Jl. Puri Indah Raya Mall, Kembangan Sel., Kec. Kembangan, Kota Jakarta Barat, Daerah Khusus Ibukota Jakarta 11610","Jl. Puri Indah Raya Mall, Kembangan Sel., Kec. Kembangan, Kota Jakarta Barat",SULAWESI TENGGARA,11610.0,Indonesia,8111255315.0,,,-6.1880107,106.7337046,https://maps.google.com/?cid=0x0:0x8cf679b38a2cd355,
restaurant,Thailand,Busaba A Thai Cafe,"Pacific Place Mall, Jl. Jenderal Sudirman No.52-53 Ground Floor, RT.5/RW.3, Senayan, Kec. Kby. Baru, Kota Jakarta Selatan, Daerah Khusus Ibukota Jakarta 12190","Jl. Jenderal Sudirman No.52-53 Ground Floor, RT.5/RW.3, Senayan, Kec. Kby. Baru, Kota Jakarta Selatan",SULAWESI TENGGARA,12190.0,Indonesia,81936113485.0,,,-6.224618,106.8099103,https://maps.google.com/?cid=0x0:0x2012a2bd6be6f5b7,
restaurant,Makanan Kecil,Pancious Summarecon Mall Serpong,"Sumarecon Mall Serpong, Jl. Gading Serpong Boulevard No.245, Pakulonan Bar., Kec. Klp. Dua, Kabupaten Tangerang, Banten 15810","Jl. Gading Serpong Boulevard No.245, Pakulonan Bar., Kec. Klp. Dua, Kabupaten Tangerang",SULAWESI TENGGARA,15810.0,Indonesia,2129310402.0,,,-6.241532,106.627682,https://maps.google.com/?cid=0x0:0xe640a5f24708b94a,
restaurant,restaurant,Kali Susu,"Distrik Nabire, Kabupaten Nabire, Papua","Kabupaten Nabire, Papua",SULAWESI TENGGARA,,Indonesia,,,,-3.358954,135.5122317,https://maps.google.com/?cid=0x0:0x644f9d3e8f4b6ca7,
restaurant,restaurant,Kec. Kulisusu,"Kabupaten Buton Utara, Sulawesi Tenggara","Kabupaten Buton Utara, Sulawesi Tenggara",SULAWESI TENGGARA,,Indonesia,,,,-4.7781796,123.1769285,https://maps.google.com/?cid=0x0:0x9da2bec4811cc68e,
restaurant,restaurant,Kec. Kulisusu Bar.,"Kabupaten Buton Utara, Sulawesi Tenggara","Kabupaten Buton Utara, Sulawesi Tenggara",SULAWESI TENGGARA,,Indonesia,,,,-4.6699172,123.0647304,https://maps.google.com/?cid=0x0:0x27dee32db48a1fc5,
restaurant,Makanan Kecil,Warung Makan MAMA 2R,"83MC+94C, Desa Lapandewa, Karya Bhakti, Kec. Kulisusu Bar., Kabupaten Buton Utara, Sulawesi Tenggara 93672","Desa Lapandewa, Karya Bhakti, Kec. Kulisusu Bar., Kabupaten Buton Utara",SULAWESI TENGGARA,93672.0,Indonesia,81356547009.0,,,-4.6665526,123.0702808,https://maps.google.com/?cid=0x0:0x2d388cb600f174e4,
restaurant,Restoran,Warung Makan n.n Dua Putra,"82CW+WQG, Mekar jaya, Kec. Kulisusu Bar., Kabupaten Buton Utara, Sulawesi Tenggara 93672","Mekar jaya, Kec. Kulisusu Bar., Kabupaten Buton Utara",SULAWESI TENGGARA,93672.0,Indonesia,82349762443.0,,,-4.6776755,123.0469488,https://maps.google.com/?cid=0x0:0x691ef46f026fc719,
restaurant,Tegal,Rumah makan Sumatra,"65CF+HGP, Jl. Laode Gure, Bangkudu, Kec. Kulisusu, Kabupaten Buton Utara, Sulawesi Tenggara 93672","Jl. Laode Gure, Bangkudu, Kec. Kulisusu, Kabupaten Buton Utara",SULAWESI TENGGARA,93672.0,Indonesia,82346520011.0,,,-4.7785426,123.1738288,https://maps.google.com/?cid=0x0:0x3c7259316122606f,
restaurant,Rumah Makan,Warung Mbak Pin,"83W2+67C, Karya Bhakti, Kec. Kulisusu Bar., Kabupaten Buton Utara, Sulawesi Tenggara 93672","Karya Bhakti, Kec. Kulisusu Bar., Kabupaten Buton Utara",SULAWESI TENGGARA,93672.0,Indonesia,,,,-4.6544467,123.0506361,https://maps.google.com/?cid=0x0:0xfd9884e238d15534,
restaurant,Kedai Kopi,Kantin haffidz,"922R+8QV, Unnamed Road, Kotawo, Kec. Kulisusu Bar., Kabupaten Buton Utara, Sulawesi Tenggara 93672","Unnamed Road, Kotawo, Kec. Kulisusu Bar., Kabupaten Buton Utara",SULAWESI TENGGARA,93672.0,Indonesia,82272720226.0,,,-4.6491261,123.041926,https://maps.google.com/?cid=0x0:0xd127f1f9c2e9cf00,
restaurant,Kafe,KEDAI PUNCAK LAMARANGI,"83PG+82, Marga Karya, Kec. Kulisusu Bar., Kabupaten Buton Utara, Sulawesi Tenggara 93672","Marga Karya, Kec. Kulisusu Bar., Kabupaten Buton Utara",SULAWESI TENGGARA,93672.0,Indonesia,82193671104.0,,,-4.6642398,123.0750184,https://maps.google.com/?cid=0x0:0x6a3e413407d3b7da,
restaurant,Kedai Kopi,Kedai Alfin,"83G5+JQX, Jl. Poros Ereke - Buranga, Karya Bhakti, Kec. Kulisusu Bar., Kabupaten Buton Utara, Sulawesi Tenggara 93672","Jl. Poros Ereke - Buranga, Karya Bhakti, Kec. Kulisusu Bar., Kabupaten Buton Utara",SULAWESI TENGGARA,93672.0,Indonesia,82395326254.0,,,-4.6733868,123.0594884,https://maps.google.com/?cid=0x0:0x86482dcfd9906f4f,
restaurant,Restoran,Es Cendol Mama Irul,"829W+XWF, Desa, Mekar jaya, Kec. Kulisusu Bar., Kabupaten Buton Utara, Sulawesi Tenggara 93672","Desa, Mekar jaya, Kec. Kulisusu Bar., Kabupaten Buton Utara",SULAWESI TENGGARA,93672.0,Indonesia,82290055312.0,,,-4.6800625,123.0472969,https://maps.google.com/?cid=0x0:0xff28e5dc32046eea,
restaurant,Kafetaria,Rumah Makan Dan Penginapan Berkah,"5XXM+RR4, Waode Angkalo, Kec. Bonegunu, Kabupaten Buton Utara, Sulawesi Tenggara 93673","Waode Angkalo, Kec. Bonegunu, Kabupaten Buton Utara",SULAWESI TENGGARA,93673.0,Indonesia,82297024077.0,,,-4.8004972,122.9845727,https://maps.google.com/?cid=0x0:0xe0a21ac729cca4a2,
restaurant,restaurant,Rumah makan NN,"826V+QF6, Jl. Poros Ereke - Buranga, mekar jaya, Kec. Kulisusu Bar., Kabupaten Buton Utara, Sulawesi Tenggara 93672","Jl. Poros Ereke - Buranga, mekar jaya, Kec. Kulisusu Bar., Kabupaten Buton Utara",SULAWESI TENGGARA,93672.0,Indonesia,,,,-4.688082,123.0436529,https://maps.google.com/?cid=0x0:0x1666458d416dfea8,
restaurant,Rumah Makan,KEDAI BAKSO ABATA,"9335+FJX, Kotawo, Kec. Kulisusu Bar., Kabupaten Buton Utara, Sulawesi Tenggara 93672","Kotawo, Kec. Kulisusu Bar., Kabupaten Buton Utara",SULAWESI TENGGARA,93672.0,Indonesia,,,,-4.6462611,123.0590982,https://maps.google.com/?cid=0x0:0x607bdc5c64d5495a,
restaurant,Restoran,Warung Makan Nikmat,"65GH+69M, Jl. Yos Sudarso, Bangkudu, Kec. Kulisusu, Kabupaten Buton Utara, Sulawesi Tenggara 93672","Jl. Yos Sudarso, Bangkudu, Kec. Kulisusu, Kabupaten Buton Utara",SULAWESI TENGGARA,93672.0,Indonesia,,,,-4.7744038,123.1784264,https://maps.google.com/?cid=0x0:0x8559e7c38b2a109a,
restaurant,Tegal,Warung Makan Mas Bayu,"65FH+7JM, saraeea, Kec. Kulisusu, Kabupaten Buton Utara, Sulawesi Tenggara 93672","saraeea, Kec. Kulisusu, Kabupaten Buton Utara",SULAWESI TENGGARA,93672.0,Indonesia,85341793909.0,,,-4.7767981,123.1790321,https://maps.google.com/?cid=0x0:0xefb4a8f918238e6f,
restaurant,Tegal,Warung Arfi,"65HH+R2J, Jl. Murhum poros, Bangkudu, Kec. Kulisusu, Kabupaten Buton Utara, Sulawesi Tenggara 93672","Jl. Murhum poros, Bangkudu, Kec. Kulisusu, Kabupaten Buton Utara",SULAWESI TENGGARA,93672.0,Indonesia,85394072879.0,,,-4.7704012,123.1775237,https://maps.google.com/?cid=0x0:0x2042bddb8979b4d4,
restaurant,Tegal,warung makan nabil,"65GG+QQV, Jl. Keraton, Bangkudu, Kec. Kulisusu, Kabupaten Buton Utara, Sulawesi Tenggara 93672","Jl. Keraton, Bangkudu, Kec. Kulisusu, Kabupaten Buton Utara",SULAWESI TENGGARA,93672.0,Indonesia,82396198443.0,,,-4.7730211,123.1769252,https://maps.google.com/?cid=0x0:0x2b4c0b4317724104,
restaurant,Sarapan,Rumah Makan Pirla,"Jl. Bypass No.Kel, Lipu, Kec. Kulisusu, Kabupaten Buton Utara, Sulawesi Tenggara 93672","Lipu, Kec. Kulisusu, Kabupaten Buton Utara",SULAWESI TENGGARA,93672.0,Indonesia,82214551678.0,,,-4.7744661,123.1752152,https://maps.google.com/?cid=0x0:0x725f4e8aa7b9ec6d,
restaurant,Rumah Makan,Rumah Makan Mama Asrul,"65GH+CJ2, Jl. Yos Sudarso, Bangkudu, Kec. Kulisusu, Kabupaten Buton Utara, Sulawesi Tenggara 93672","Jl. Yos Sudarso, Bangkudu, Kec. Kulisusu, Kabupaten Buton Utara",SULAWESI TENGGARA,93672.0,Indonesia,,,,-4.7739958,123.1790138,https://maps.google.com/?cid=0x0:0xd6efdc9220594248,
restaurant,Tegal,Rumah makan Sumatra,"65CF+HGP, Jl. Laode Gure, Bangkudu, Kec. Kulisusu, Kabupaten Buton Utara, Sulawesi Tenggara 93672","Jl. Laode Gure, Bangkudu, Kec. Kulisusu, Kabupaten Buton Utara",SULAWESI TENGGARA,93672.0,Indonesia,82346520011.0,,,-4.7785426,123.1738288,https://maps.google.com/?cid=0x0:0x3c7259316122606f,
restaurant,restaurant,Sulawesi Tenggara 93672,"Kabupaten Buton Utara, Sulawesi Tenggara","Kabupaten Buton Utara, Sulawesi Tenggara",SULAWESI TENGGARA,,Indonesia,,,,-4.6317181,123.0338767,https://maps.google.com/?cid=0x0:0x22ef5ef6963e0828,
restaurant,Tegal,Depot Rindu Rasa,"Jln, RT.01/RW.01, Bangkudu, Kec. Kulisusu, Kabupaten Buton Utara, Sulawesi Tenggara 93672","RT.01/RW.01, Bangkudu, Kec. Kulisusu, Kabupaten Buton Utara",SULAWESI TENGGARA,93672.0,Indonesia,81279888151.0,,,-4.7702949,123.1775309,https://maps.google.com/?cid=0x0:0x1675fafdd13963d9,
restaurant,Kafe,RM. BANUA BUTUR,"6578+29W, Jl. Raya Bajo, Bangkudu, Kabupaten Buton Utara, Sulawesi Tenggara 93672","Jl. Raya Bajo, Bangkudu, Kabupaten Buton Utara",SULAWESI TENGGARA,93672.0,Indonesia,82291639859.0,,,-4.7873901,123.165949,https://maps.google.com/?cid=0x0:0x9cff328f8634a293,
restaurant,Dapur Umum,Warung Makan Ayam Geprek Dhiba,"Bangkudu, Kec. Kulisusu, Kabupaten Buton Utara, Sulawesi Tenggara 93672","Kec. Kulisusu, Kabupaten Buton Utara",SULAWESI TENGGARA,93672.0,Indonesia,82292952562.0,,,-4.7725378,123.1781308,https://maps.google.com/?cid=0x0:0x692102522de49433,
restaurant,Restoran,Warung Makan Nikmat,"65GH+69M, Jl. Yos Sudarso, Bangkudu, Kec. Kulisusu, Kabupaten Buton Utara, Sulawesi Tenggara 93672","Jl. Yos Sudarso, Bangkudu, Kec. Kulisusu, Kabupaten Buton Utara",SULAWESI TENGGARA,93672.0,Indonesia,,,,-4.7744038,123.1784264,https://maps.google.com/?cid=0x0:0x8559e7c38b2a109a,
restaurant,Tegal,Warung Makan Mas Bayu,"65FH+7JM, saraeea, Kec. Kulisusu, Kabupaten Buton Utara, Sulawesi Tenggara 93672","saraeea, Kec. Kulisusu, Kabupaten Buton Utara",SULAWESI TENGGARA,93672.0,Indonesia,85341793909.0,,,-4.7767981,123.1790321,https://maps.google.com/?cid=0x0:0xefb4a8f918238e6f,
restaurant,Restoran,KEDAI MAKAN SEMARANG,"Jl. Opa Wemp, Bangkudu, Kec. Kulisusu, Kabupaten Buton Utara, Sulawesi Tenggara 93672","Bangkudu, Kec. Kulisusu, Kabupaten Buton Utara",SULAWESI TENGGARA,93672.0,Indonesia,82213389319.0,,,-4.7767514,123.1822732,https://maps.google.com/?cid=0x0:0x4506793a2a1b3243,
restaurant,Tegal,Warung Arfi,"65HH+R2J, Jl. Murhum poros, Bangkudu, Kec. Kulisusu, Kabupaten Buton Utara, Sulawesi Tenggara 93672","Jl. Murhum poros, Bangkudu, Kec. Kulisusu, Kabupaten Buton Utara",SULAWESI TENGGARA,93672.0,Indonesia,85394072879.0,,,-4.7704012,123.1775237,https://maps.google.com/?cid=0x0:0x2042bddb8979b4d4,
restaurant,Restoran,RM Sederhana,"65PG+5MC, Loji, Kec. Kulisusu, Kabupaten Buton Utara, Sulawesi Tenggara 93672","Loji, Kec. Kulisusu, Kabupaten Buton Utara",SULAWESI TENGGARA,93672.0,Indonesia,82193162986.0,,,-4.7645501,123.1766511,https://maps.google.com/?cid=0x0:0x57a78f2783db2de8,
restaurant,Tegal,warung makan nabil,"65GG+QQV, Jl. Keraton, Bangkudu, Kec. Kulisusu, Kabupaten Buton Utara, Sulawesi Tenggara 93672","Jl. Keraton, Bangkudu, Kec. Kulisusu, Kabupaten Buton Utara",SULAWESI TENGGARA,93672.0,Indonesia,82396198443.0,,,-4.7730211,123.1769252,https://maps.google.com/?cid=0x0:0x2b4c0b4317724104,
restaurant,Restoran,Warung Makan n.n Dua Putra,"82CW+WQG, Mekar jaya, Kec. Kulisusu Bar., Kabupaten Buton Utara, Sulawesi Tenggara 93672","Mekar jaya, Kec. Kulisusu Bar., Kabupaten Buton Utara",SULAWESI TENGGARA,93672.0,Indonesia,82349762443.0,,,-4.6776755,123.0469488,https://maps.google.com/?cid=0x0:0x691ef46f026fc719,
restaurant,Restoran,Kedai Ungu,"6589+9V6, Jl. Mojimohalo, Bangkudu, Kec. Kulisusu, Kabupaten Buton Utara, Sulawesi Tenggara 93672","Jl. Mojimohalo, Bangkudu, Kec. Kulisusu, Kabupaten Buton Utara",SULAWESI TENGGARA,93672.0,Indonesia,85338620470.0,,,-4.7840899,123.1696504,https://maps.google.com/?cid=0x0:0x9e0ad541a04252e7,
restaurant,Dapur Umum,Bellsfood Burger Ereke,"65HG+4XH, Jl. Lajakati-Kadacua, Bangkudu, Kec. Kulisusu, Kabupaten Buton Utara, Sulawesi Tenggara 93672","Jl. Lajakati-Kadacua, Bangkudu, Kec. Kulisusu, Kabupaten Buton Utara",SULAWESI TENGGARA,93672.0,Indonesia,,,,-4.7721931,123.1774824,https://maps.google.com/?cid=0x0:0x107e7155b9c86b71,
restaurant,Rumah Makan,WARUNG MAKAN AYAM CRYSPI MEMBUKU,"65HR+429, Jl. Kadacua-Membuku, Bangkudu, Kec. Kulisusu, Kabupaten Buton Utara, Sulawesi Tenggara 93672","Jl. Kadacua-Membuku, Bangkudu, Kec. Kulisusu, Kabupaten Buton Utara",SULAWESI TENGGARA,93672.0,Indonesia,82271148199.0,,,-4.7722173,123.1900984,https://maps.google.com/?cid=0x0:0x3a3c71a388d73cf1,
restaurant,Rumah Makan,Rumah Makan Mama Asrul,"65GH+CJ2, Jl. Yos Sudarso, Bangkudu, Kec. Kulisusu, Kabupaten Buton Utara, Sulawesi Tenggara 93672","Jl. Yos Sudarso, Bangkudu, Kec. Kulisusu, Kabupaten Buton Utara",SULAWESI TENGGARA,93672.0,Indonesia,,,,-4.7739958,123.1790138,https://maps.google.com/?cid=0x0:0xd6efdc9220594248,
restaurant,Makanan Kecil,Warung Makan MAMA 2R,"83MC+94C, Desa Lapandewa, Karya Bhakti, Kec. Kulisusu Bar., Kabupaten Buton Utara, Sulawesi Tenggara 93672","Desa Lapandewa, Karya Bhakti, Kec. Kulisusu Bar., Kabupaten Buton Utara",SULAWESI TENGGARA,93672.0,Indonesia,81356547009.0,,,-4.6665526,123.0702808,https://maps.google.com/?cid=0x0:0x2d388cb600f174e4,
restaurant,Restoran,Warung ACIL,"83H7+VM5, Karya Bhakti, Kec. Kulisusu Bar., Kabupaten Buton Utara, Sulawesi Tenggara 93672","Karya Bhakti, Kec. Kulisusu Bar., Kabupaten Buton Utara",SULAWESI TENGGARA,93672.0,Indonesia,82393214504.0,,,-4.6703664,123.064227,https://maps.google.com/?cid=0x0:0x71adb5c13d4d2cfb,
restaurant,Restoran makanan pedesaan,Kedai Al Razzaq,"Jl. Laode Gure No.33, Bangkudu, Kec. Kulisusu, Kabupaten Buton Utara, Sulawesi Tenggara 93672","Bangkudu, Kec. Kulisusu, Kabupaten Buton Utara",SULAWESI TENGGARA,93672.0,Indonesia,85298696766.0,,,-4.7789101,123.1744211,https://maps.google.com/?cid=0x0:0x5461de387d719ebf,
restaurant,restaurant,FOM_Drink,"55GH+V6J, Lemo, Kec. Kulisusu, Kabupaten Buton Utara, Sulawesi Tenggara 93672","Lemo, Kec. Kulisusu, Kabupaten Buton Utara",SULAWESI TENGGARA,93672.0,Indonesia,,,,-4.8227865,123.1780252,https://maps.google.com/?cid=0x0:0xbc13f43129c0e653,
restaurant,Pemasok Kotak Makanan,Gorengan/Nasi Kuning,"65HG+QXJ, Unnamed Road, Bangkudu, Kec. Kulisusu, Kabupaten Buton Utara, Sulawesi Tenggara 93672","Unnamed Road, Bangkudu, Kec. Kulisusu, Kabupaten Buton Utara",SULAWESI TENGGARA,93672.0,Indonesia,85398999421.0,,,-4.7705274,123.177381,https://maps.google.com/?cid=0x0:0x6bdc8dfc3ae65982,
restaurant,restaurant,Sulawesi Tenggara 93671,Sulawesi Tenggara,Sulawesi Tenggara,SULAWESI TENGGARA,,Indonesia,,,,-4.5493643,122.9212265,https://maps.google.com/?cid=0x0:0xe8e004ff2b736d21,
restaurant,restaurant,Ayam crispy labuko palura,"GV8X+3CM, Desa Jl. Poros Maligano-Labuan, Lasiwa, kecamatan wakorumba utara, Kabupaten Buton Utara, Sulawesi Tenggara","Kabupaten Buton Utara, Sulawesi Tenggara",SULAWESI TENGGARA,,Indonesia,85242036874.0,,,-4.4847758,122.8985455,https://maps.google.com/?cid=0x0:0xdb9ea122d1ef3673,
restaurant,Restoran,WARUNG MAKAN RUMPUN BAMBU,"3RXP+WFV, Jl. Poros Maligano-Pure, Labunia(Pure), Kec. Wakorumba Sel., Kabupaten Muna, Sulawesi Tenggara 93674","Jl. Poros Maligano-Pure, Labunia(Pure), Kec. Wakorumba Sel., Kabupaten Muna",SULAWESI TENGGARA,93674.0,Indonesia,85229070215.0,,,-4.9001475,122.8361683,https://maps.google.com/?cid=0x0:0xf76a44c89011ac7e,
restaurant,Makanan Kecil,Warung Makan MAMA 2R,"83MC+94C, Desa Lapandewa, Karya Bhakti, Kec. Kulisusu Bar., Kabupaten Buton Utara, Sulawesi Tenggara 93672","Desa Lapandewa, Karya Bhakti, Kec. Kulisusu Bar., Kabupaten Buton Utara",SULAWESI TENGGARA,93672.0,Indonesia,81356547009.0,,,-4.6665526,123.0702808,https://maps.google.com/?cid=0x0:0x2d388cb600f174e4,
restaurant,Rumah Makan,Rumah Makan AGSA,"Mbak Sarsi, Jl. Poros Maligano-Pure, Labunia(Pure), Kabupaten Muna, Sulawesi Tenggara","Kabupaten Muna, Sulawesi Tenggara",SULAWESI TENGGARA,,Indonesia,82271659415.0,,,-4.8860547,122.8331287,https://maps.google.com/?cid=0x0:0x4eeb5b359ac2ee29,
restaurant,Tujuan Wisata,Karamba Resto Gerak Makmur,"9P3W+QM3, Gerak Makmur, Kec. Sampolawa, Kabupaten Buton",Kabupaten Buton,SULAWESI TENGGARA,,Indonesia,,,,-5.645617,122.7466597,https://maps.google.com/?cid=0x0:0x1813fb2db1a0651a,
restaurant,Rumah Makan,Rumah Makan Jene Berang,"Jl. Jens Jl. Ahmad Yani No.65, Pulau, Kec. Katobu, Kabupaten Muna, Sulawesi Tenggara 93614","Pulau, Kec. Katobu, Kabupaten Muna",SULAWESI TENGGARA,93614.0,Indonesia,85241961400.0,,,-4.8349457,122.7248669,https://maps.google.com/?cid=0x0:0xcc7304e9b8e495c4,
restaurant,Kafetaria,RESTAURANT BANYUWANGI,"5XXM+6M7, Waode Angkalo, Kec. Bonegunu, Kabupaten Buton Utara, Sulawesi Tenggara 93673","Waode Angkalo, Kec. Bonegunu, Kabupaten Buton Utara",SULAWESI TENGGARA,93673.0,Indonesia,,,,-4.8019539,122.9841642,https://maps.google.com/?cid=0x0:0xd648299a2222927f,
restaurant,Ikan Bakar,JR Resto Tepi Sawah  Pemancingan,"Desa Kasupute, Kec. Wawotobi, Kasupute, Kec. Unaaha, Kabupaten Konawe, Sulawesi Tenggara 93461","Kec. Wawotobi, Kasupute, Kec. Unaaha, Kabupaten Konawe",SULAWESI TENGGARA,93461.0,Indonesia,82348866666.0,,,-3.8775236,122.1242357,https://maps.google.com/?cid=0x0:0xf6e67f29ac38a494,
restaurant,Restoran,Warung Makan n.n Dua Putra,"82CW+WQG, Mekar jaya, Kec. Kulisusu Bar., Kabupaten Buton Utara, Sulawesi Tenggara 93672","Mekar jaya, Kec. Kulisusu Bar., Kabupaten Buton Utara",SULAWESI TENGGARA,93672.0,Indonesia,82349762443.0,,,-4.6776755,123.0469488,https://maps.google.com/?cid=0x0:0x691ef46f026fc719,
restaurant,Soto,Rumah makan Cahaya Pangkep Konro Coto,"5P4G+P33, Jl. Jend. Sudirman, Raha I, Kec. Katobu, Kabupaten Muna, Sulawesi Tenggara 93611","Jl. Jend. Sudirman, Raha I, Kec. Katobu, Kabupaten Muna",SULAWESI TENGGARA,93611.0,Indonesia,,,,-4.8432476,122.7251866,https://maps.google.com/?cid=0x0:0x91051a30be3788c,
restaurant,Kafetaria,RUMAH MAKAN TERATAI,"5XXM+9P7, Waode Angkalo, Kec. Bonegunu, Kabupaten Buton Utara, Sulawesi Tenggara 93673","Waode Angkalo, Kec. Bonegunu, Kabupaten Buton Utara",SULAWESI TENGGARA,93673.0,Indonesia,85342617596.0,,,-4.8015781,122.9842903,https://maps.google.com/?cid=0x0:0xacc05982d9e76da9,
restaurant,Rumah Makan,Bu Sri Cafe  Resto,"5PGF+648, Jl. Gatot Subroto, Wamponiki, Kec. Katobu, Kabupaten Muna, Sulawesi Tenggara 93614","Jl. Gatot Subroto, Wamponiki, Kec. Katobu, Kabupaten Muna",SULAWESI TENGGARA,93614.0,Indonesia,82271381940.0,,,-4.8244691,122.722827,https://maps.google.com/?cid=0x0:0x8e02569bb536f4c9,
restaurant,Restoran,Karamba Resto Lande,"8PXR+FPQ Des, Gerak Makmur, Kec. Sampolawa",,SULAWESI TENGGARA,,Indonesia,82211822157.0,,,-5.651285,122.741855,https://maps.google.com/?cid=0x0:0xc8fa7db431646446,
restaurant,Rumah Makan,Warung Mbak Pin,"83W2+67C, Karya Bhakti, Kec. Kulisusu Bar., Kabupaten Buton Utara, Sulawesi Tenggara 93672","Karya Bhakti, Kec. Kulisusu Bar., Kabupaten Buton Utara",SULAWESI TENGGARA,93672.0,Indonesia,,,,-4.6544467,123.0506361,https://maps.google.com/?cid=0x0:0xfd9884e238d15534,
restaurant,Kafetaria,Warung Makan Sumber Rejeki,"6X6J+H6P, Waode Angkalo, Kec. Bonegunu, Kabupaten Buton Utara, Sulawesi Tenggara 93673","Waode Angkalo, Kec. Bonegunu, Kabupaten Buton Utara",SULAWESI TENGGARA,93673.0,Indonesia,,,,-4.7885336,122.9805642,https://maps.google.com/?cid=0x0:0xf2a33dffed2da42,
restaurant,Restoran,RM. New Roxy Raha,"Jl. Jend. Sudirman No.43, Bone Balano, Kec. Duruka, Kabupaten Muna, Sulawesi Tenggara 93611","Bone Balano, Kec. Duruka, Kabupaten Muna",SULAWESI TENGGARA,93611.0,Indonesia,82188981997.0,,,-4.8441679,122.725091,https://maps.google.com/?cid=0x0:0x6dcb0bc62090b6a8,
restaurant,Makanan Kecil,Warung Gorengan Mama Bilqis,"5X5W+HCC, Waode Kalowo, Kec. Bonegunu, Kabupaten Buton Utara, Sulawesi Tenggara 93673","Waode Kalowo, Kec. Bonegunu, Kabupaten Buton Utara",SULAWESI TENGGARA,93673.0,Indonesia,,,,-4.8416821,122.9972781,https://maps.google.com/?cid=0x0:0xb396d20239859c93,
restaurant,Brunch,RM.AYA,"5PHC+HGM, Jalan Poros Raha, Tampo, Laiworu, Batalaiworu, Muna Regency, South East Sulawesi 93614","Jalan Poros Raha, Tampo, Laiworu, Batalaiworu, Muna Regency",SULAWESI TENGGARA,93614.0,Indonesia,85242743344.0,,,-4.8210314,122.7212902,https://maps.google.com/?cid=0x0:0x2918f869b66f7f55,
restaurant,Brunch,Warung Makan Simpang Tiga Pure,"4R3M+4P3, Jl. Poros Maligano-Pure, Labunia(Pure), Kec. Wakorumba Sel., Kabupaten Muna, Sulawesi Tenggara 93674","Jl. Poros Maligano-Pure, Labunia(Pure), Kec. Wakorumba Sel., Kabupaten Muna",SULAWESI TENGGARA,93674.0,Indonesia,,,,-4.8968797,122.8345286,https://maps.google.com/?cid=0x0:0x74f4ede53d5884f4,
restaurant,Bakso,Warung bakso ceria jawa timur,"JH6M+28X, Jl. Poros Kendari - Kolono, Pamandati, Kec. Lainea, Kabupaten Konawe Selatan, Sulawesi Tenggara 93671","Jl. Poros Kendari - Kolono, Pamandati, Kec. Lainea, Kabupaten Konawe Selatan",SULAWESI TENGGARA,93671.0,Indonesia,,,,-4.3898893,122.5833661,https://maps.google.com/?cid=0x0:0x90ed3b2c43cc2f1,
restaurant,restaurant,Home Ibu Masfiah,"Unnamed Road, Labuan, Kec. Wakorumba, Kabupaten Buton Utara, Sulawesi Tenggara 93671","Labuan, Kec. Wakorumba, Kabupaten Buton Utara",SULAWESI TENGGARA,93671.0,Indonesia,,,,-4.4268214,122.9573109,https://maps.google.com/?cid=0x0:0xad2240a956379194,
restaurant,restaurant,Depot Sari Laut DWINDA 78,"GWF4+X4Q Depan Bengkel, Labuan Bajo, Kec. Wakorumba, Kabupaten Buton Utara, Sulawesi Tenggara","Kabupaten Buton Utara, Sulawesi Tenggara",SULAWESI TENGGARA,,Indonesia,,,,-4.4750345,122.9053585,https://maps.google.com/?cid=0x0:0x61824691a6c01f8c,
restaurant,restaurant,Restoran Dewi,"4R2M+6X7, Jl. Korpri, Labunia(Pure), Kec. Wakorumba Sel., Kabupaten Muna, Sulawesi Tenggara 93674","Jl. Korpri, Labunia(Pure), Kec. Wakorumba Sel., Kabupaten Muna",SULAWESI TENGGARA,93674.0,Indonesia,,,,-4.8994673,122.8349149,https://maps.google.com/?cid=0x0:0xe4cdeb3664282c56,
restaurant,restaurant,Warung Makan Mama Kembar,"GWH4+88G, Labuan Bajo, Kec. Wakorumba, Kabupaten Buton Utara, Sulawesi Tenggara","Kabupaten Buton Utara, Sulawesi Tenggara",SULAWESI TENGGARA,,Indonesia,,,,-4.471154,122.9058522,https://maps.google.com/?cid=0x0:0xa4c576c0734033f6,
cafe,cafe,Sulawesi Tenggara 93673,"Kabupaten Buton Utara, Sulawesi Tenggara","Kabupaten Buton Utara, Sulawesi Tenggara",SULAWESI TENGGARA,,Indonesia,,,,-4.900844,122.9663018,https://maps.google.com/?cid=0x0:0x9ba45992a80e927e,
cafe,Kafetaria,Rumah Makan Dan Penginapan Berkah,"5XXM+RR4, Waode Angkalo, Kec. Bonegunu, Kabupaten Buton Utara, Sulawesi Tenggara 93673","Waode Angkalo, Kec. Bonegunu, Kabupaten Buton Utara",SULAWESI TENGGARA,93673.0,Indonesia,82297024077.0,,,-4.8004972,122.9845727,https://maps.google.com/?cid=0x0:0xe0a21ac729cca4a2,
cafe,Kafetaria,RESTAURANT BANYUWANGI,"5XXM+6M7, Waode Angkalo, Kec. Bonegunu, Kabupaten Buton Utara, Sulawesi Tenggara 93673","Waode Angkalo, Kec. Bonegunu, Kabupaten Buton Utara",SULAWESI TENGGARA,93673.0,Indonesia,,,,-4.8019539,122.9841642,https://maps.google.com/?cid=0x0:0xd648299a2222927f,
cafe,Makanan Kecil,WARUNG MAKAN SOLO,"3X5J+JX6, Bonegunu, Kec. Bonegunu, Kabupaten Buton Utara, Sulawesi Tenggara 93673","Bonegunu, Kec. Bonegunu, Kabupaten Buton Utara",SULAWESI TENGGARA,93673.0,Indonesia,,,,-4.9409537,122.982387,https://maps.google.com/?cid=0x0:0xc65ca36ac4dcc6ba,
cafe,Kafetaria,Warung Makan Sumber Rejeki,"6X6J+H6P, Waode Angkalo, Kec. Bonegunu, Kabupaten Buton Utara, Sulawesi Tenggara 93673","Waode Angkalo, Kec. Bonegunu, Kabupaten Buton Utara",SULAWESI TENGGARA,93673.0,Indonesia,,,,-4.7885336,122.9805642,https://maps.google.com/?cid=0x0:0xf2a33dffed2da42,
cafe,Kedai Kopi,Kedai Ceria,"6579+J46, Jl. Raya Bajo, Bangkudu, Kabupaten Buton Utara, Sulawesi Tenggara 93672","Jl. Raya Bajo, Bangkudu, Kabupaten Buton Utara",SULAWESI TENGGARA,93672.0,Indonesia,82217270411.0,,,-4.7859304,123.1675553,https://maps.google.com/?cid=0x0:0xc8dabaa0fc666623,
cafe,Kafetaria,Persiapan pembangunan Dapur Umum,"5XJJ+GW9, Jl. Ronta-Buranga, Een Sumala, Kec. Bonegunu, Kabupaten Buton Utara, Sulawesi Tenggara 93673","Jl. Ronta-Buranga, Een Sumala, Kec. Bonegunu, Kabupaten Buton Utara",SULAWESI TENGGARA,93673.0,Indonesia,,,,-4.8187201,122.9823529,https://maps.google.com/?cid=0x0:0x28580be3576119ea,
cafe,Kedai Kopi,RR Coffee,"65CC+6JJ, Gg. Geresa, Bangkudu, Kec. Kulisusu, Kabupaten Buton Utara, Sulawesi Tenggara 93672","Gg. Geresa, Bangkudu, Kec. Kulisusu, Kabupaten Buton Utara",SULAWESI TENGGARA,93672.0,Indonesia,,,,-4.7794082,123.1715417,https://maps.google.com/?cid=0x0:0x2c257ac0a927c9cd,
cafe,Makanan Kecil,Warung Gorengan Mama Bilqis,"5X5W+HCC, Waode Kalowo, Kec. Bonegunu, Kabupaten Buton Utara, Sulawesi Tenggara 93673","Waode Kalowo, Kec. Bonegunu, Kabupaten Buton Utara",SULAWESI TENGGARA,93673.0,Indonesia,,,,-4.8416821,122.9972781,https://maps.google.com/?cid=0x0:0xb396d20239859c93,
cafe,Toko,Bogem The Camp,"659C+MHV, wandaka, Kec. Kulisusu, Kabupaten Buton Utara, Sulawesi Tenggara 93672","wandaka, Kec. Kulisusu, Kabupaten Buton Utara",SULAWESI TENGGARA,93672.0,Indonesia,82261933343.0,,,-4.7807599,123.1713965,https://maps.google.com/?cid=0x0:0xa58ca3479f0413e9,
cafe,Toko,LARISSA CAFE,"Jl. Raya Bajo, Bangkudu, Kabupaten Buton Utara, Sulawesi Tenggara","Kabupaten Buton Utara, Sulawesi Tenggara",SULAWESI TENGGARA,,Indonesia,,,,-4.7860824,123.1674001,https://maps.google.com/?cid=0x0:0x9b38e728d5accca8,
cafe,Kedai Kopi,D'COFFEE,"Jl. Laode Gure No.31, Bangkudu, Kec. Kulisusu, Kabupaten Buton Utara, Sulawesi Tenggara 93672","Bangkudu, Kec. Kulisusu, Kabupaten Buton Utara",SULAWESI TENGGARA,93672.0,Indonesia,,,,-4.77944,123.1756548,https://maps.google.com/?cid=0x0:0xd573f313dc37eb50,
cafe,Kafetaria,RUMAH MAKAN TERATAI,"5XXM+9P7, Waode Angkalo, Kec. Bonegunu, Kabupaten Buton Utara, Sulawesi Tenggara 93673","Waode Angkalo, Kec. Bonegunu, Kabupaten Buton Utara",SULAWESI TENGGARA,93673.0,Indonesia,85342617596.0,,,-4.8015781,122.9842903,https://maps.google.com/?cid=0x0:0xacc05982d9e76da9,
cafe,Toko bahan makanan,Coffian.Shop,"WX8C+J6C Lagundi, Mata, Kec. Kambowa, Kabupaten Buton Utara, Sulawesi Tenggara 93756","Mata, Kec. Kambowa, Kabupaten Buton Utara",SULAWESI TENGGARA,93756.0,Indonesia,,,,-5.0835619,122.9707592,https://maps.google.com/?cid=0x0:0x8701e1d5fe12da5b,
cafe,Kedai Kopi,KEDAI CENDANA,"65CH+HJ9, Jl. Ki Hajar Dewantara, Bangkudu, Kec. Kulisusu, Kabupaten Buton Utara, Sulawesi Tenggara 93672","Jl. Ki Hajar Dewantara, Bangkudu, Kec. Kulisusu, Kabupaten Buton Utara",SULAWESI TENGGARA,93672.0,Indonesia,85244332741.0,,,-4.7785836,123.1791067,https://maps.google.com/?cid=0x0:0x9ad73ed2b7dd1efd,
cafe,Sarapan,Warung mama anggi,"3X3H+877, Bonegunu, Kec. Bonegunu, Kabupaten Buton Utara, Sulawesi Tenggara","Kabupaten Buton Utara, Sulawesi Tenggara",SULAWESI TENGGARA,,Indonesia,,,,-4.94671,122.9781742,https://maps.google.com/?cid=0x0:0x70cf555f89500128,
cafe,Kafe,Warkop LORPAS Wandaka,"Bangkudu, Kec. Kulisusu, Kabupaten Buton Utara, Sulawesi Tenggara 93672","Kec. Kulisusu, Kabupaten Buton Utara",SULAWESI TENGGARA,93672.0,Indonesia,,,,-4.7792173,123.1735613,https://maps.google.com/?cid=0x0:0x70aac68eec44d0de,
cafe,Kafe,RM. BANUA BUTUR,"6578+29W, Jl. Raya Bajo, Bangkudu, Kabupaten Buton Utara, Sulawesi Tenggara 93672","Jl. Raya Bajo, Bangkudu, Kabupaten Buton Utara",SULAWESI TENGGARA,93672.0,Indonesia,82291639859.0,,,-4.7873901,123.165949,https://maps.google.com/?cid=0x0:0x9cff328f8634a293,
cafe,Sarapan,Warung Makan Enjel,"2XX7+8CQ, Bubu, Kec. Kambowa, Kabupaten Buton Utara, Sulawesi Tenggara 93673","Bubu, Kec. Kambowa, Kabupaten Buton Utara",SULAWESI TENGGARA,93673.0,Indonesia,,,,-4.9516646,122.9636098,https://maps.google.com/?cid=0x0:0xdcad949664a45440,
cafe,Gudang,Penjual kepiting,"5X4X+G5, Waode Kalowo, Kec. Bonegunu, Kabupaten Buton Utara, Sulawesi Tenggara","Kabupaten Buton Utara, Sulawesi Tenggara",SULAWESI TENGGARA,,Indonesia,,,,-4.8436582,122.9979114,https://maps.google.com/?cid=0x0:0xcd57c0daaf913c2d,
cafe,Hidangan Laut,Warsab Banua,"Jl. Raya Bajo, Bangkudu, Kabupaten Buton Utara, Sulawesi Tenggara 93672","Bangkudu, Kabupaten Buton Utara",SULAWESI TENGGARA,93672.0,Indonesia,82259493923.0,,,-4.7859417,123.1681599,https://maps.google.com/?cid=0x0:0x1fcc3216ffd0ff6d,
cafe,Kedai Kopi,Coffee House Izzah,"Laangke, Jl. Murhum, Kabupaten Buton Utara, Sulawesi Tenggara","Kabupaten Buton Utara, Sulawesi Tenggara",SULAWESI TENGGARA,,Indonesia,82252949689.0,,,-4.7643781,123.1766352,https://maps.google.com/?cid=0x0:0x4c5e1248b36910bd,
cafe,Toko bahan makanan,Triple Capcin Cafe Raha,"Jl. Gatot Subroto No.59, Wamponiki, Kec. Katobu, Kabupaten Muna, Sulawesi Tenggara 93614","Wamponiki, Kec. Katobu, Kabupaten Muna",SULAWESI TENGGARA,93614.0,Indonesia,82291700800.0,,,-4.8244001,122.7227545,https://maps.google.com/?cid=0x0:0x32cff7b688b1dec6,
cafe,Kafe,KEDAI PUNCAK LAMARANGI,"83PG+82, Marga Karya, Kec. Kulisusu Bar., Kabupaten Buton Utara, Sulawesi Tenggara 93672","Marga Karya, Kec. Kulisusu Bar., Kabupaten Buton Utara",SULAWESI TENGGARA,93672.0,Indonesia,82193671104.0,,,-4.6642398,123.0750184,https://maps.google.com/?cid=0x0:0x6a3e413407d3b7da,
cafe,cafe,Bonegunu,"Kec. Bonegunu, Kabupaten Buton Utara, Sulawesi Tenggara","Kabupaten Buton Utara, Sulawesi Tenggara",SULAWESI TENGGARA,,Indonesia,,,,-4.9090998,122.9775675,https://maps.google.com/?cid=0x0:0x1bb016a60812523f,
cafe,cafe,Kafe Kapaki,"3X2G+RJP, Bonegunu, Kec. Bonegunu, Kabupaten Buton Utara, Sulawesi Tenggara 93673","Bonegunu, Kec. Bonegunu, Kabupaten Buton Utara",SULAWESI TENGGARA,93673.0,Indonesia,,,,-4.9479214,122.9765929,https://maps.google.com/?cid=0x0:0xaa79e9669c78a80b,
cafe,cafe,Sulawesi Tenggara 93673,"Kabupaten Buton Utara, Sulawesi Tenggara","Kabupaten Buton Utara, Sulawesi Tenggara",SULAWESI TENGGARA,,Indonesia,,,,-4.900844,122.9663018,https://maps.google.com/?cid=0x0:0x9ba45992a80e927e,
cafe,Toko bahan makanan,Coffian.Shop,"WX8C+J6C Lagundi, Mata, Kec. Kambowa, Kabupaten Buton Utara, Sulawesi Tenggara 93756","Mata, Kec. Kambowa, Kabupaten Buton Utara",SULAWESI TENGGARA,93756.0,Indonesia,,,,-5.0835619,122.9707592,https://maps.google.com/?cid=0x0:0x8701e1d5fe12da5b,
cafe,Kafetaria,Rumah Makan Dan Penginapan Berkah,"5XXM+RR4, Waode Angkalo, Kec. Bonegunu, Kabupaten Buton Utara, Sulawesi Tenggara 93673","Waode Angkalo, Kec. Bonegunu, Kabupaten Buton Utara",SULAWESI TENGGARA,93673.0,Indonesia,82297024077.0,,,-4.8004972,122.9845727,https://maps.google.com/?cid=0x0:0xe0a21ac729cca4a2,
cafe,Kedai Kopi,D'COFFEE,"Jl. Laode Gure No.31, Bangkudu, Kec. Kulisusu, Kabupaten Buton Utara, Sulawesi Tenggara 93672","Bangkudu, Kec. Kulisusu, Kabupaten Buton Utara",SULAWESI TENGGARA,93672.0,Indonesia,,,,-4.77944,123.1756548,https://maps.google.com/?cid=0x0:0xd573f313dc37eb50,
cafe,Sarapan,Warung Makan Enjel,"2XX7+8CQ, Bubu, Kec. Kambowa, Kabupaten Buton Utara, Sulawesi Tenggara 93673","Bubu, Kec. Kambowa, Kabupaten Buton Utara",SULAWESI TENGGARA,93673.0,Indonesia,,,,-4.9516646,122.9636098,https://maps.google.com/?cid=0x0:0xdcad949664a45440,
cafe,Kafe,Warkop LORPAS Wandaka,"Bangkudu, Kec. Kulisusu, Kabupaten Buton Utara, Sulawesi Tenggara 93672","Kec. Kulisusu, Kabupaten Buton Utara",SULAWESI TENGGARA,93672.0,Indonesia,,,,-4.7792173,123.1735613,https://maps.google.com/?cid=0x0:0x70aac68eec44d0de,
cafe,Kedai Kopi,Kedai Puncak Benteng,"659V+XP7, Bangkudu, Kec. Kulisusu, Kabupaten Buton Utara, Sulawesi Tenggara 93672","Bangkudu, Kec. Kulisusu, Kabupaten Buton Utara",SULAWESI TENGGARA,93672.0,Indonesia,85236321745.0,,,-4.7800838,123.1942879,https://maps.google.com/?cid=0x0:0x1a92dc4bde29c569,
cafe,Kedai Kopi,RR Coffee,"65CC+6JJ, Gg. Geresa, Bangkudu, Kec. Kulisusu, Kabupaten Buton Utara, Sulawesi Tenggara 93672","Gg. Geresa, Bangkudu, Kec. Kulisusu, Kabupaten Buton Utara",SULAWESI TENGGARA,93672.0,Indonesia,,,,-4.7794082,123.1715417,https://maps.google.com/?cid=0x0:0x2c257ac0a927c9cd,
cafe,Kedai Kopi,KEDAI CENDANA,"65CH+HJ9, Jl. Ki Hajar Dewantara, Bangkudu, Kec. Kulisusu, Kabupaten Buton Utara, Sulawesi Tenggara 93672","Jl. Ki Hajar Dewantara, Bangkudu, Kec. Kulisusu, Kabupaten Buton Utara",SULAWESI TENGGARA,93672.0,Indonesia,85244332741.0,,,-4.7785836,123.1791067,https://maps.google.com/?cid=0x0:0x9ad73ed2b7dd1efd,
cafe,Kafetaria,RESTAURANT BANYUWANGI,"5XXM+6M7, Waode Angkalo, Kec. Bonegunu, Kabupaten Buton Utara, Sulawesi Tenggara 93673","Waode Angkalo, Kec. Bonegunu, Kabupaten Buton Utara",SULAWESI TENGGARA,93673.0,Indonesia,,,,-4.8019539,122.9841642,https://maps.google.com/?cid=0x0:0xd648299a2222927f,
cafe,Kafetaria,Warung Makan Sumber Rejeki,"6X6J+H6P, Waode Angkalo, Kec. Bonegunu, Kabupaten Buton Utara, Sulawesi Tenggara 93673","Waode Angkalo, Kec. Bonegunu, Kabupaten Buton Utara",SULAWESI TENGGARA,93673.0,Indonesia,,,,-4.7885336,122.9805642,https://maps.google.com/?cid=0x0:0xf2a33dffed2da42,
cafe,Hidangan Laut,Warsab Banua,"Jl. Raya Bajo, Bangkudu, Kabupaten Buton Utara, Sulawesi Tenggara 93672","Bangkudu, Kabupaten Buton Utara",SULAWESI TENGGARA,93672.0,Indonesia,82259493923.0,,,-4.7859417,123.1681599,https://maps.google.com/?cid=0x0:0x1fcc3216ffd0ff6d,
cafe,Kafe,RM. BANUA BUTUR,"6578+29W, Jl. Raya Bajo, Bangkudu, Kabupaten Buton Utara, Sulawesi Tenggara 93672","Jl. Raya Bajo, Bangkudu, Kabupaten Buton Utara",SULAWESI TENGGARA,93672.0,Indonesia,82291639859.0,,,-4.7873901,123.165949,https://maps.google.com/?cid=0x0:0x9cff328f8634a293,
cafe,Kedai Kopi,Kedai Ceria,"6579+J46, Jl. Raya Bajo, Bangkudu, Kabupaten Buton Utara, Sulawesi Tenggara 93672","Jl. Raya Bajo, Bangkudu, Kabupaten Buton Utara",SULAWESI TENGGARA,93672.0,Indonesia,82217270411.0,,,-4.7859304,123.1675553,https://maps.google.com/?cid=0x0:0xc8dabaa0fc666623,
cafe,Kedai Kopi,Coffee Shop (Milkshake Pemuda),"5P5C+HW9, Jl. Sukowati, Raha I, Kec. Katobu, Kabupaten Muna, Sulawesi Tenggara 93611","Jl. Sukowati, Raha I, Kec. Katobu, Kabupaten Muna",SULAWESI TENGGARA,93611.0,Indonesia,82187604357.0,,,-4.8410986,122.7223586,https://maps.google.com/?cid=0x0:0x430c45926189fc2a,
cafe,Kedai Kopi,Tora Coffee,"659F+7RC, Bangkudu, Kec. Kulisusu, Kabupaten Buton Utara, Sulawesi Tenggara 93672","Bangkudu, Kec. Kulisusu, Kabupaten Buton Utara",SULAWESI TENGGARA,93672.0,Indonesia,82296449083.0,,,-4.7818145,123.1745117,https://maps.google.com/?cid=0x0:0x9a465d0f95abe9b5,
cafe,Restoran,KEDAI WAPALA / RM WAPALA/PENGINAPAN WAPALA,"Jl. Wa Ode Bilahi No.11, Bangkudu, Kec. Kulisusu, Kabupaten Buton Utara, Sulawesi Tenggara 93672","Bangkudu, Kec. Kulisusu, Kabupaten Buton Utara",SULAWESI TENGGARA,93672.0,Indonesia,82189680001.0,,,-4.777631,123.1741526,https://maps.google.com/?cid=0x0:0xe3b8b2f296ba6d47,
cafe,Toko,LARISSA CAFE,"Jl. Raya Bajo, Bangkudu, Kabupaten Buton Utara, Sulawesi Tenggara","Kabupaten Buton Utara, Sulawesi Tenggara",SULAWESI TENGGARA,,Indonesia,,,,-4.7860824,123.1674001,https://maps.google.com/?cid=0x0:0x9b38e728d5accca8,
cafe,Kedai Kopi,RESORT COFFE BREAK,"652R+GWM, Linsowu, Kec. Kulisusu, Kabupaten Buton Utara, Sulawesi Tenggara 93752","Linsowu, Kec. Kulisusu, Kabupaten Buton Utara",SULAWESI TENGGARA,93752.0,Indonesia,81356539163.0,,,-4.798668,123.192306,https://maps.google.com/?cid=0x0:0x83cb7b61692c9462,
cafe,Kedai Kopi,SIMPANG TIGA COFFEE,"Jl. Gatot Subroto, Raha II, Kec. Katobu, Kabupaten Muna, Sulawesi Tenggara 93614","Raha II, Kec. Katobu, Kabupaten Muna",SULAWESI TENGGARA,93614.0,Indonesia,82259491963.0,,,-4.8256706,122.724067,https://maps.google.com/?cid=0x0:0xa8ffe874e3c24a99,
cafe,Kafetaria,Persiapan pembangunan Dapur Umum,"5XJJ+GW9, Jl. Ronta-Buranga, Een Sumala, Kec. Bonegunu, Kabupaten Buton Utara, Sulawesi Tenggara 93673","Jl. Ronta-Buranga, Een Sumala, Kec. Bonegunu, Kabupaten Buton Utara",SULAWESI TENGGARA,93673.0,Indonesia,,,,-4.8187201,122.9823529,https://maps.google.com/?cid=0x0:0x28580be3576119ea,
cafe,Makanan Kecil,Warung Gorengan Mama Bilqis,"5X5W+HCC, Waode Kalowo, Kec. Bonegunu, Kabupaten Buton Utara, Sulawesi Tenggara 93673","Waode Kalowo, Kec. Bonegunu, Kabupaten Buton Utara",SULAWESI TENGGARA,93673.0,Indonesia,,,,-4.8416821,122.9972781,https://maps.google.com/?cid=0x0:0xb396d20239859c93,
cafe,Makanan Kecil,WARUNG MAKAN SOLO,"3X5J+JX6, Bonegunu, Kec. Bonegunu, Kabupaten Buton Utara, Sulawesi Tenggara 93673","Bonegunu, Kec. Bonegunu, Kabupaten Buton Utara",SULAWESI TENGGARA,93673.0,Indonesia,,,,-4.9409537,122.982387,https://maps.google.com/?cid=0x0:0xc65ca36ac4dcc6ba,
cafe,Kedai Kopi,Green House Cafe,"Jl. DKI Bar. III No.16 Blok K 3, Tajurhalang, Kec. Tajur Halang, Kabupaten Bogor, Jawa Barat 19320","Tajurhalang, Kec. Tajur Halang, Kabupaten Bogor",SULAWESI TENGGARA,19320.0,Indonesia,82175768874.0,,,-6.4849775,106.7734815,https://maps.google.com/?cid=0x0:0xd7a90e99ca10701a,
cafe,Sesuai untuk keluarga,Kamboja Green House Cafe,"Jl. Raya Pemuda No.33, Sasak Panjang, Kec. Tajur Halang, Kabupaten Bogor, Jawa Barat 16320","Sasak Panjang, Kec. Tajur Halang, Kabupaten Bogor",SULAWESI TENGGARA,16320.0,Indonesia,2518587689.0,,,-6.4606427,106.7664719,https://maps.google.com/?cid=0x0:0xe73734c901671f51,
cafe,Kafe,Cafe kebun,"Jl. Setapak No.56, RT.2/RW.11, Sasak Panjang, Kec. Tajur Halang, Kabupaten Bogor, Jawa Barat 16320","RT.2/RW.11, Sasak Panjang, Kec. Tajur Halang, Kabupaten Bogor",SULAWESI TENGGARA,16320.0,Indonesia,,,,-6.4531252,106.7676058,https://maps.google.com/?cid=0x0:0x886ee64ac801ee88,
cafe,Sesuai untuk keluarga,Be'Corner Resto  Coffee Shop,"GQW9+XF9, Jl. Setapak No.56, RT.1/RW.3, Sasak Panjang, Kec. Tajur Halang, Kabupaten Bogor, Jawa Barat 16320","Jl. Setapak No.56, RT.1/RW.3, Sasak Panjang, Kec. Tajur Halang, Kabupaten Bogor",SULAWESI TENGGARA,16320.0,Indonesia,81222505054.0,,,-6.4527292,106.7677089,https://maps.google.com/?cid=0x0:0x9b77e439df332088,
cafe,cafe,,,,SULAWESI TENGGARA,,Indonesia,,,,,,https://maps.google.com/?cid=0x0:0xe73734c901671f51u0026onu003dChicken+Steaku0026midu003d/g/11s1rh2gk0,
cafe,cafe,,,,SULAWESI TENGGARA,,Indonesia,,,,,,https://maps.google.com/?cid=0x0:0xe73734c901671f51u0026onu003dSpaghetti+Bologneseu0026midu003d/g/11s1rh2gk0,
cafe,cafe,Kec. Kulisusu,"Kabupaten Buton Utara, Sulawesi Tenggara","Kabupaten Buton Utara, Sulawesi Tenggara",SULAWESI TENGGARA,,Indonesia,,,,-4.7781796,123.1769285,https://maps.google.com/?cid=0x0:0x9da2bec4811cc68e,
cafe,Kafe,Mai'Ka Drinks,"65HG+8VX, Jl. Murhum, Bangkudu, Kec. Kulisusu, Kabupaten Buton Utara, Sulawesi Tenggara","Kabupaten Buton Utara, Sulawesi Tenggara",SULAWESI TENGGARA,,Indonesia,,,,-4.7716448,123.1772414,https://maps.google.com/?cid=0x0:0xd5899f7c241ac1a,
cafe,Kedai Kopi,Drink Me,"65GG+543, Jl. Akses Pelabuhan, Kec. Kulisusu, Kabupaten Buton Utara, Sulawesi Tenggara 93672","Jl. Akses Pelabuhan, Kec. Kulisusu, Kabupaten Buton Utara",SULAWESI TENGGARA,93672.0,Indonesia,,,,-4.7746181,123.1753112,https://maps.google.com/?cid=0x0:0x40b501df8b3bc6f5,
cafe,Kedai Kopi,Kel. Bangkudu,"65GH+V3H, Jl. Mata Air, Bangkudu, Kec. Kulisusu, Kabupaten Buton Utara, Sulawesi Tenggara 93672","Jl. Mata Air, Bangkudu, Kec. Kulisusu, Kabupaten Buton Utara",SULAWESI TENGGARA,93672.0,Indonesia,,,,-4.7728035,123.1777361,https://maps.google.com/?cid=0x0:0xb98a3127bcbf7803,
cafe,Restoran,Kedai Rezky ( Rezky Group),"55WF+6R7, taman, Jl. Mina Minanga, Linsowu, Kec. Kulisusu, Kabupaten Buton Utara, Sulawesi Tenggara 93752","taman, Jl. Mina Minanga, Linsowu, Kec. Kulisusu, Kabupaten Buton Utara",SULAWESI TENGGARA,93752.0,Indonesia,85263364795.0,,,-4.8044741,123.1745428,https://maps.google.com/?cid=0x0:0xe36d993d011bfdaf,
cafe,Kedai Kopi,Kedai Alfin,"83G5+JQX, Jl. Poros Ereke - Buranga, Karya Bhakti, Kec. Kulisusu Bar., Kabupaten Buton Utara, Sulawesi Tenggara 93672","Jl. Poros Ereke - Buranga, Karya Bhakti, Kec. Kulisusu Bar., Kabupaten Buton Utara",SULAWESI TENGGARA,93672.0,Indonesia,82395326254.0,,,-4.6733868,123.0594884,https://maps.google.com/?cid=0x0:0x86482dcfd9906f4f,
cafe,Kedai Kopi,Kedai Ss.t,"Jl. Laode Ode No.9a, Lipu, Kec. Kulisusu, Kabupaten Buton Utara, Sulawesi Tenggara 93672","Lipu, Kec. Kulisusu, Kabupaten Buton Utara",SULAWESI TENGGARA,93672.0,Indonesia,,,,-4.7758655,123.1756942,https://maps.google.com/?cid=0x0:0x2f4f78aca9d4441d,
cafe,Brunch,Foodies Kolut,"FVWP+5JX, Jl. Poros Lasusua - Ranteangin, Watuliu, Kec. Lasusua, Kabupaten Kolaka Utara, Sulawesi Tenggara 93913","Jl. Poros Lasusua - Ranteangin, Watuliu, Kec. Lasusua, Kabupaten Kolaka Utara",SULAWESI TENGGARA,93913.0,Indonesia,85281997239.0,,,-3.5045349,120.8866302,https://maps.google.com/?cid=0x0:0xb41468c456f40d5a,
cafe,cafe,Kec. Kulisusu Bar.,"Kabupaten Buton Utara, Sulawesi Tenggara","Kabupaten Buton Utara, Sulawesi Tenggara",SULAWESI TENGGARA,,Indonesia,,,,-4.6699172,123.0647304,https://maps.google.com/?cid=0x0:0x27dee32db48a1fc5,
cafe,Kafe,KEDAI PUNCAK LAMARANGI,"83PG+82, Marga Karya, Kec. Kulisusu Bar., Kabupaten Buton Utara, Sulawesi Tenggara 93672","Marga Karya, Kec. Kulisusu Bar., Kabupaten Buton Utara",SULAWESI TENGGARA,93672.0,Indonesia,82193671104.0,,,-4.6642398,123.0750184,https://maps.google.com/?cid=0x0:0x6a3e413407d3b7da,
cafe,Kedai Kopi,Kantin haffidz,"922R+8QV, Unnamed Road, Kotawo, Kec. Kulisusu Bar., Kabupaten Buton Utara, Sulawesi Tenggara 93672","Unnamed Road, Kotawo, Kec. Kulisusu Bar., Kabupaten Buton Utara",SULAWESI TENGGARA,93672.0,Indonesia,82272720226.0,,,-4.6491261,123.041926,https://maps.google.com/?cid=0x0:0xd127f1f9c2e9cf00,
cafe,Kedai Kopi,Kedai Alfin,"83G5+JQX, Jl. Poros Ereke - Buranga, Karya Bhakti, Kec. Kulisusu Bar., Kabupaten Buton Utara, Sulawesi Tenggara 93672","Jl. Poros Ereke - Buranga, Karya Bhakti, Kec. Kulisusu Bar., Kabupaten Buton Utara",SULAWESI TENGGARA,93672.0,Indonesia,82395326254.0,,,-4.6733868,123.0594884,https://maps.google.com/?cid=0x0:0x86482dcfd9906f4f,
cafe,Restoran,Warung Makan n.n Dua Putra,"82CW+WQG, Mekar jaya, Kec. Kulisusu Bar., Kabupaten Buton Utara, Sulawesi Tenggara 93672","Mekar jaya, Kec. Kulisusu Bar., Kabupaten Buton Utara",SULAWESI TENGGARA,93672.0,Indonesia,82349762443.0,,,-4.6776755,123.0469488,https://maps.google.com/?cid=0x0:0x691ef46f026fc719,
cafe,Kedai Kopi,Tora Coffee,"659F+7RC, Bangkudu, Kec. Kulisusu, Kabupaten Buton Utara, Sulawesi Tenggara 93672","Bangkudu, Kec. Kulisusu, Kabupaten Buton Utara",SULAWESI TENGGARA,93672.0,Indonesia,82296449083.0,,,-4.7818145,123.1745117,https://maps.google.com/?cid=0x0:0x9a465d0f95abe9b5,
cafe,Rumah Makan,Warung Mbak Pin,"83W2+67C, Karya Bhakti, Kec. Kulisusu Bar., Kabupaten Buton Utara, Sulawesi Tenggara 93672","Karya Bhakti, Kec. Kulisusu Bar., Kabupaten Buton Utara",SULAWESI TENGGARA,93672.0,Indonesia,,,,-4.6544467,123.0506361,https://maps.google.com/?cid=0x0:0xfd9884e238d15534,
cafe,Restoran,Warung ACIL,"83H7+VM5, Karya Bhakti, Kec. Kulisusu Bar., Kabupaten Buton Utara, Sulawesi Tenggara 93672","Karya Bhakti, Kec. Kulisusu Bar., Kabupaten Buton Utara",SULAWESI TENGGARA,93672.0,Indonesia,82393214504.0,,,-4.6703664,123.064227,https://maps.google.com/?cid=0x0:0x71adb5c13d4d2cfb,
cafe,Restoran,Es Cendol Mama Irul,"829W+XWF, Desa, Mekar jaya, Kec. Kulisusu Bar., Kabupaten Buton Utara, Sulawesi Tenggara 93672","Desa, Mekar jaya, Kec. Kulisusu Bar., Kabupaten Buton Utara",SULAWESI TENGGARA,93672.0,Indonesia,82290055312.0,,,-4.6800625,123.0472969,https://maps.google.com/?cid=0x0:0xff28e5dc32046eea,
cafe,Kedai Kopi,Drink Me,"65GG+543, Jl. Akses Pelabuhan, Kec. Kulisusu, Kabupaten Buton Utara, Sulawesi Tenggara 93672","Jl. Akses Pelabuhan, Kec. Kulisusu, Kabupaten Buton Utara",SULAWESI TENGGARA,93672.0,Indonesia,,,,-4.7746181,123.1753112,https://maps.google.com/?cid=0x0:0x40b501df8b3bc6f5,
cafe,Rumah Makan,KEDAI BAKSO ABATA,"9335+FJX, Kotawo, Kec. Kulisusu Bar., Kabupaten Buton Utara, Sulawesi Tenggara 93672","Kotawo, Kec. Kulisusu Bar., Kabupaten Buton Utara",SULAWESI TENGGARA,93672.0,Indonesia,,,,-4.6462611,123.0590982,https://maps.google.com/?cid=0x0:0x607bdc5c64d5495a,
cafe,cafe,Warkop Rizafi,"72X6+5CH, Teluk","Kabupaten Buton Utara, Sulawesi Tenggara",SULAWESI TENGGARA,,Indonesia,,,,-4.702055,123.011101,https://maps.google.com/?cid=0x0:0x48fd6b525a7bee8c,
cafe,Kedai Kopi,RR Coffee,"65CC+6JJ, Gg. Geresa, Bangkudu, Kec. Kulisusu, Kabupaten Buton Utara, Sulawesi Tenggara 93672","Gg. Geresa, Bangkudu, Kec. Kulisusu, Kabupaten Buton Utara",SULAWESI TENGGARA,93672.0,Indonesia,,,,-4.7794082,123.1715417,https://maps.google.com/?cid=0x0:0x2c257ac0a927c9cd,
cafe,Kafe,Warkop LORPAS Wandaka,"Bangkudu, Kec. Kulisusu, Kabupaten Buton Utara, Sulawesi Tenggara 93672","Kec. Kulisusu, Kabupaten Buton Utara",SULAWESI TENGGARA,93672.0,Indonesia,,,,-4.7792173,123.1735613,https://maps.google.com/?cid=0x0:0x70aac68eec44d0de,
cafe,cafe,Sulawesi Tenggara 93672,"Kabupaten Buton Utara, Sulawesi Tenggara","Kabupaten Buton Utara, Sulawesi Tenggara",SULAWESI TENGGARA,,Indonesia,,,,-4.6317181,123.0338767,https://maps.google.com/?cid=0x0:0x22ef5ef6963e0828,
cafe,Kedai Kopi,Kedai Puncak Benteng,"659V+XP7, Bangkudu, Kec. Kulisusu, Kabupaten Buton Utara, Sulawesi Tenggara 93672","Bangkudu, Kec. Kulisusu, Kabupaten Buton Utara",SULAWESI TENGGARA,93672.0,Indonesia,85236321745.0,,,-4.7800838,123.1942879,https://maps.google.com/?cid=0x0:0x1a92dc4bde29c569,
cafe,Kedai Kopi,RR Coffee,"65CC+6JJ, Gg. Geresa, Bangkudu, Kec. Kulisusu, Kabupaten Buton Utara, Sulawesi Tenggara 93672","Gg. Geresa, Bangkudu, Kec. Kulisusu, Kabupaten Buton Utara",SULAWESI TENGGARA,93672.0,Indonesia,,,,-4.7794082,123.1715417,https://maps.google.com/?cid=0x0:0x2c257ac0a927c9cd,
cafe,Kedai Kopi,Tora Coffee,"659F+7RC, Bangkudu, Kec. Kulisusu, Kabupaten Buton Utara, Sulawesi Tenggara 93672","Bangkudu, Kec. Kulisusu, Kabupaten Buton Utara",SULAWESI TENGGARA,93672.0,Indonesia,82296449083.0,,,-4.7818145,123.1745117,https://maps.google.com/?cid=0x0:0x9a465d0f95abe9b5,
cafe,Kafe,Warkop LORPAS Wandaka,"Bangkudu, Kec. Kulisusu, Kabupaten Buton Utara, Sulawesi Tenggara 93672","Kec. Kulisusu, Kabupaten Buton Utara",SULAWESI TENGGARA,93672.0,Indonesia,,,,-4.7792173,123.1735613,https://maps.google.com/?cid=0x0:0x70aac68eec44d0de,
cafe,Toko,LARISSA CAFE,"Jl. Raya Bajo, Bangkudu, Kabupaten Buton Utara, Sulawesi Tenggara","Kabupaten Buton Utara, Sulawesi Tenggara",SULAWESI TENGGARA,,Indonesia,,,,-4.7860824,123.1674001,https://maps.google.com/?cid=0x0:0x9b38e728d5accca8,
cafe,Tegal,Depot Rindu Rasa,"Jln, RT.01/RW.01, Bangkudu, Kec. Kulisusu, Kabupaten Buton Utara, Sulawesi Tenggara 93672","RT.01/RW.01, Bangkudu, Kec. Kulisusu, Kabupaten Buton Utara",SULAWESI TENGGARA,93672.0,Indonesia,81279888151.0,,,-4.7702949,123.1775309,https://maps.google.com/?cid=0x0:0x1675fafdd13963d9,
cafe,Kedai Kopi,Kedai Sangriarana,"8684+C3P, Unnamed Road, Waode Buri, Kec. Kulisusu Utara, Kabupaten Buton Utara, Sulawesi Tenggara 93672","Unnamed Road, Waode Buri, Kec. Kulisusu Utara, Kabupaten Buton Utara",SULAWESI TENGGARA,93672.0,Indonesia,85396380443.0,,,-4.6839169,123.2051904,https://maps.google.com/?cid=0x0:0x519bcb555201b32a,
cafe,Kedai Kopi,Warkop Barel,"Jl. Keraton, Lipu, Kec. Kulisusu, Kabupaten Buton Utara, Sulawesi Tenggara 93672","Lipu, Kec. Kulisusu, Kabupaten Buton Utara",SULAWESI TENGGARA,93672.0,Indonesia,82197273605.0,,,-4.7873875,123.1799263,https://maps.google.com/?cid=0x0:0x129e93b8e2c1de6c,
cafe,Kedai Kopi,Kedai HK,"65FH+X96, Bangkudu, Kec. Kulisusu, Kabupaten Buton Utara, Sulawesi Tenggara 93672","Bangkudu, Kec. Kulisusu, Kabupaten Buton Utara",SULAWESI TENGGARA,93672.0,Indonesia,82231027502.0,,,-4.7750905,123.1783897,https://maps.google.com/?cid=0x0:0x96dc3c1c5ea9699e,
cafe,Toko,Bogem The Camp,"659C+MHV, wandaka, Kec. Kulisusu, Kabupaten Buton Utara, Sulawesi Tenggara 93672","wandaka, Kec. Kulisusu, Kabupaten Buton Utara",SULAWESI TENGGARA,93672.0,Indonesia,82261933343.0,,,-4.7807599,123.1713965,https://maps.google.com/?cid=0x0:0xa58ca3479f0413e9,
cafe,cafe,FOM_Drink,"55GH+V6J, Lemo, Kec. Kulisusu, Kabupaten Buton Utara, Sulawesi Tenggara 93672","Lemo, Kec. Kulisusu, Kabupaten Buton Utara",SULAWESI TENGGARA,93672.0,Indonesia,,,,-4.8227865,123.1780252,https://maps.google.com/?cid=0x0:0xbc13f43129c0e653,
cafe,Restoran,KEDAI MAKAN SEMARANG,"Jl. Opa Wemp, Bangkudu, Kec. Kulisusu, Kabupaten Buton Utara, Sulawesi Tenggara 93672","Bangkudu, Kec. Kulisusu, Kabupaten Buton Utara",SULAWESI TENGGARA,93672.0,Indonesia,82213389319.0,,,-4.7767514,123.1822732,https://maps.google.com/?cid=0x0:0x4506793a2a1b3243,
cafe,Kedai Kopi,KEDAI CENDANA,"65CH+HJ9, Jl. Ki Hajar Dewantara, Bangkudu, Kec. Kulisusu, Kabupaten Buton Utara, Sulawesi Tenggara 93672","Jl. Ki Hajar Dewantara, Bangkudu, Kec. Kulisusu, Kabupaten Buton Utara",SULAWESI TENGGARA,93672.0,Indonesia,85244332741.0,,,-4.7785836,123.1791067,https://maps.google.com/?cid=0x0:0x9ad73ed2b7dd1efd,
cafe,Restoran,Kedai Ungu,"6589+9V6, Jl. Mojimohalo, Bangkudu, Kec. Kulisusu, Kabupaten Buton Utara, Sulawesi Tenggara 93672","Jl. Mojimohalo, Bangkudu, Kec. Kulisusu, Kabupaten Buton Utara",SULAWESI TENGGARA,93672.0,Indonesia,85338620470.0,,,-4.7840899,123.1696504,https://maps.google.com/?cid=0x0:0x9e0ad541a04252e7,
cafe,Kafe,KEDAI PUNCAK LAMARANGI,"83PG+82, Marga Karya, Kec. Kulisusu Bar., Kabupaten Buton Utara, Sulawesi Tenggara 93672","Marga Karya, Kec. Kulisusu Bar., Kabupaten Buton Utara",SULAWESI TENGGARA,93672.0,Indonesia,82193671104.0,,,-4.6642398,123.0750184,https://maps.google.com/?cid=0x0:0x6a3e413407d3b7da,
cafe,Restoran,Kedai Rezky ( Rezky Group),"55WF+6R7, taman, Jl. Mina Minanga, Linsowu, Kec. Kulisusu, Kabupaten Buton Utara, Sulawesi Tenggara 93752","taman, Jl. Mina Minanga, Linsowu, Kec. Kulisusu, Kabupaten Buton Utara",SULAWESI TENGGARA,93752.0,Indonesia,85263364795.0,,,-4.8044741,123.1745428,https://maps.google.com/?cid=0x0:0xe36d993d011bfdaf,
cafe,Dapur Umum,Warung Makan Ayam Geprek Dhiba,"Bangkudu, Kec. Kulisusu, Kabupaten Buton Utara, Sulawesi Tenggara 93672","Kec. Kulisusu, Kabupaten Buton Utara",SULAWESI TENGGARA,93672.0,Indonesia,82292952562.0,,,-4.7725378,123.1781308,https://maps.google.com/?cid=0x0:0x692102522de49433,
cafe,Kedai Kopi,Kedai Ceria,"6579+J46, Jl. Raya Bajo, Bangkudu, Kabupaten Buton Utara, Sulawesi Tenggara 93672","Jl. Raya Bajo, Bangkudu, Kabupaten Buton Utara",SULAWESI TENGGARA,93672.0,Indonesia,82217270411.0,,,-4.7859304,123.1675553,https://maps.google.com/?cid=0x0:0xc8dabaa0fc666623,
cafe,Restoran,Warung Makan Nikmat,"65GH+69M, Jl. Yos Sudarso, Bangkudu, Kec. Kulisusu, Kabupaten Buton Utara, Sulawesi Tenggara 93672","Jl. Yos Sudarso, Bangkudu, Kec. Kulisusu, Kabupaten Buton Utara",SULAWESI TENGGARA,93672.0,Indonesia,,,,-4.7744038,123.1784264,https://maps.google.com/?cid=0x0:0x8559e7c38b2a109a,
cafe,Kedai Kopi,Kedai Alfin,"83G5+JQX, Jl. Poros Ereke - Buranga, Karya Bhakti, Kec. Kulisusu Bar., Kabupaten Buton Utara, Sulawesi Tenggara 93672","Jl. Poros Ereke - Buranga, Karya Bhakti, Kec. Kulisusu Bar., Kabupaten Buton Utara",SULAWESI TENGGARA,93672.0,Indonesia,82395326254.0,,,-4.6733868,123.0594884,https://maps.google.com/?cid=0x0:0x86482dcfd9906f4f,
cafe,Tegal,Rumah makan Sumatra,"65CF+HGP, Jl. Laode Gure, Bangkudu, Kec. Kulisusu, Kabupaten Buton Utara, Sulawesi Tenggara 93672","Jl. Laode Gure, Bangkudu, Kec. Kulisusu, Kabupaten Buton Utara",SULAWESI TENGGARA,93672.0,Indonesia,82346520011.0,,,-4.7785426,123.1738288,https://maps.google.com/?cid=0x0:0x3c7259316122606f,
cafe,Rumah Makan,Prasmanan Mewalo,"65FG+WJ5, Jl. Gaumalanga, Lipu, Kec. Kulisusu, Kabupaten Buton Utara, Sulawesi Tenggara 93672","Jl. Gaumalanga, Lipu, Kec. Kulisusu, Kabupaten Buton Utara",SULAWESI TENGGARA,93672.0,Indonesia,82193888444.0,,,-4.775239,123.1766166,https://maps.google.com/?cid=0x0:0xa3d8d7ca1ece269a,
cafe,Kedai Kopi,Kantin haffidz,"922R+8QV, Unnamed Road, Kotawo, Kec. Kulisusu Bar., Kabupaten Buton Utara, Sulawesi Tenggara 93672","Unnamed Road, Kotawo, Kec. Kulisusu Bar., Kabupaten Buton Utara",SULAWESI TENGGARA,93672.0,Indonesia,82272720226.0,,,-4.6491261,123.041926,https://maps.google.com/?cid=0x0:0xd127f1f9c2e9cf00,
cafe,Restoran,KEDAI WAPALA / RM WAPALA/PENGINAPAN WAPALA,"Jl. Wa Ode Bilahi No.11, Bangkudu, Kec. Kulisusu, Kabupaten Buton Utara, Sulawesi Tenggara 93672","Bangkudu, Kec. Kulisusu, Kabupaten Buton Utara",SULAWESI TENGGARA,93672.0,Indonesia,82189680001.0,,,-4.777631,123.1741526,https://maps.google.com/?cid=0x0:0xe3b8b2f296ba6d47,
cafe,Kedai Kopi,Jovian Coffe,"HW6X+V3V, Labuan, Kec. Wakorumba, Kabupaten Buton Utara, Sulawesi Tenggara 93671","Labuan, Kec. Wakorumba, Kabupaten Buton Utara",SULAWESI TENGGARA,93671.0,Indonesia,85342005521.0,,,-4.4377594,122.9476648,https://maps.google.com/?cid=0x0:0x9ea949baf326c459,
cafe,Kedai Kopi,Coffee House Izzah,"Laangke, Jl. Murhum, Kabupaten Buton Utara, Sulawesi Tenggara","Kabupaten Buton Utara, Sulawesi Tenggara",SULAWESI TENGGARA,,Indonesia,82252949689.0,,,-4.7643781,123.1766352,https://maps.google.com/?cid=0x0:0x4c5e1248b36910bd,
