Category,Real Category,Business Name,Address,City,State,Postal Code,Country,Phone,Email,Website,Latitude,Longitude,Map Link,Details Link
building materials,Toko umum,Prima Alam Butur,"Jl. Raha Poros No.Desa, Laangke, Kec. Kulisusu, Kabupaten Buton Utara, Sulawesi Tenggara","Kabupaten Buton Utara, Sulawesi Tenggara",SULAWESI TENGGARA,,Indonesia,,,,-4.778215,123.177024,https://maps.google.com/?cid=0x0:0xdedf7b20c4ccfa3a,
building materials,Toko Bahan Bangunan,UD. Prima Alam Butur,"65PG+6JJ, Jl. Murhum, desa laangke, Kec. Kulisusu, Kabupaten Buton Utara, Sulawesi Tenggara 93672","Jl. Murhum, desa laangke, Kec. Kulisusu, Kabupaten Buton Utara",SULAWESI TENGGARA,93672.0,Indonesia,,,,-4.7643527,123.176427,https://maps.google.com/?cid=0x0:0x13cb48ee74021e44,
building materials,building materials,Sulawesi Tenggara 93673,"Kabupaten Buton Utara, Sulawesi Tenggara","Kabupaten Buton Utara, Sulawesi Tenggara",SULAWESI TENGGARA,,Indonesia,,,,-4.900844,122.9663018,https://maps.google.com/?cid=0x0:0x9ba45992a80e927e,
building materials,Toko Bahan Bangunan,Toko muda karya,"8664+X45, Wamboule, Waode Buri, Kec. Kulisusu Utara, Kabupaten Buton Utara, Sulawesi Tenggara 93672","Wamboule, Waode Buri, Kec. Kulisusu Utara, Kabupaten Buton Utara",SULAWESI TENGGARA,93672.0,Indonesia,82299405615.0,,,-4.687873,123.205256,https://maps.google.com/?cid=0x0:0x4c5f442b7043f23,
building materials,Toko Bahan Bangunan,UD AZAM JAYA,"Pongkowulu, Ereke, Kabupaten Buton Utara, Sulawesi Tenggara 93674","Ereke, Kabupaten Buton Utara",SULAWESI TENGGARA,93674.0,Indonesia,82293885961.0,,,-5.0335889,122.9613499,https://maps.google.com/?cid=0x0:0x8249aa9c2f12d770,
building materials,Minimarket,Toko Fadillah,"Dusun Tombuluruha, Balasuna, Bungi, Kabupaten Wakatobi, Sulawesi Tenggara 93792","Balasuna, Bungi, Kabupaten Wakatobi",SULAWESI TENGGARA,93792.0,Indonesia,81343732132.0,,,-5.5173851,123.7724196,https://maps.google.com/?cid=0x0:0x5cc18941abe90f9f,
building materials,Toko Bahan Bangunan,Toko Gafa Makmur,"Ruku-Ruku, Langge, Kec. Kaledupa Sel., Kabupaten Wakatobi, Sulawesi Tenggara 93790","Langge, Kec. Kaledupa Sel., Kabupaten Wakatobi",SULAWESI TENGGARA,93790.0,Indonesia,85259184762.0,,,-5.5465221,123.8024379,https://maps.google.com/?cid=0x0:0xf1abc01489fc2cdc,
building materials,Toko Bahan Bangunan,Wiron Karya Timber. PT,"5PCC+296, Desa Nihi, Lawa Raha, Raha II, Kec. Katobu, Kabupaten Muna, Sulawesi Tenggara 93611","Desa Nihi, Lawa Raha, Raha II, Kec. Katobu, Kabupaten Muna",SULAWESI TENGGARA,93611.0,Indonesia,40322022.0,,,-4.82997,122.720876,https://maps.google.com/?cid=0x0:0x891fc709cd116355,
building materials,building materials,Toko Tumada Jaya,"VQMM+C4J, Tumada, Kec. Kapontori, Kabupaten Buton, Sulawesi Tenggara","Kabupaten Buton, Sulawesi Tenggara",SULAWESI TENGGARA,,Indonesia,82291191105.0,,,-5.1164004,122.7827699,https://maps.google.com/?cid=0x0:0x1b9515b00d10e46e,
building materials,Toko Bahan Bangunan,Toko Enam Saudara Lombe,"PHXH+439, kompleks pasar lombe, Bombonawulu, Kec. Gu, Kabupaten Buton, Sulawesi Tenggara 93761","kompleks pasar lombe, Bombonawulu, Kec. Gu, Kabupaten Buton",SULAWESI TENGGARA,93761.0,Indonesia,85299578579.0,,,-5.2522026,122.5777204,https://maps.google.com/?cid=0x0:0x278b5a28c6ed5919,
building materials,Toko Bahan Bangunan,UD KAMARU JAYA,"R3M7+242, Kamaru, Kec. Lasalimu, Kabupaten Buton, Sulawesi Tenggara 93756","Kamaru, Kec. Lasalimu, Kabupaten Buton",SULAWESI TENGGARA,93756.0,Indonesia,81379094275.0,,,-5.1674831,123.0627768,https://maps.google.com/?cid=0x0:0x37712c6e64680482,
building materials,Toko umum,Prima Alam Butur,"Jl. Raha Poros No.Desa, Laangke, Kec. Kulisusu, Kabupaten Buton Utara, Sulawesi Tenggara","Kabupaten Buton Utara, Sulawesi Tenggara",SULAWESI TENGGARA,,Indonesia,,,,-4.778215,123.177024,https://maps.google.com/?cid=0x0:0xdedf7b20c4ccfa3a,
building materials,Pasar bahan bangunan,Intan Building Center,"Jl. Budi Utomo No.90, Bataraguru, Kec. Wolio, Kota Bau-Bau, Sulawesi Tenggara 93717","Bataraguru, Kec. Wolio, Kota Bau-Bau",SULAWESI TENGGARA,93717.0,Indonesia,82292888886.0,,,-5.4658703,122.607269,https://maps.google.com/?cid=0x0:0xdd0e5cfd517f12e5,
building materials,Toko Bahan Bangunan,Merkusi Karya Pratama. PT,"5P9C+J65, Desa Maperaha, Lawa Raha, Raha II, Kec. Katobu, Kabupaten Muna, Sulawesi Tenggara 93611","Desa Maperaha, Lawa Raha, Raha II, Kec. Katobu, Kabupaten Muna",SULAWESI TENGGARA,93611.0,Indonesia,40321039.0,,,-4.830997,122.720618,https://maps.google.com/?cid=0x0:0x989f34a5339dae31,
building materials,Balai Pertemuan Desa,desa lelamo,"8663+JFV, Waode Buri, Kec. Kulisusu Utara, Kabupaten Buton Utara, Sulawesi Tenggara 93672","Waode Buri, Kec. Kulisusu Utara, Kabupaten Buton Utara",SULAWESI TENGGARA,93672.0,Indonesia,,,,-4.6883881,123.2036871,https://maps.google.com/?cid=0x0:0x3aa76ddb896f2b21,
building materials,Toko Bahan Bangunan,UD. BERKAH ABADI,"656F+QHM, Lipu, Kec. Kulisusu, Kabupaten Buton Utara, Sulawesi Tenggara","Kabupaten Buton Utara, Sulawesi Tenggara",SULAWESI TENGGARA,,Indonesia,,,,-4.7880442,123.1739101,https://maps.google.com/?cid=0x0:0xf4ae845421c6e5d3,
building materials,Toko Bahan Bangunan,Toko bangunan ocha kamaru,"R3R7+JCH, Kamaru, Kec. Lasalimu, Kabupaten Buton, Sulawesi Tenggara","Kabupaten Buton, Sulawesi Tenggara",SULAWESI TENGGARA,,Indonesia,,,,-5.158434,123.063599,https://maps.google.com/?cid=0x0:0x4bf0d7f027ec609f,
building materials,Toko Bahan Bangunan,Toko Bangunan Len-lin,"658F+7M2, Bangkudu, Kec. Kulisusu, Kabupaten Buton Utara, Sulawesi Tenggara 93672","Bangkudu, Kec. Kulisusu, Kabupaten Buton Utara",SULAWESI TENGGARA,93672.0,Indonesia,,,,-4.7843589,123.1741537,https://maps.google.com/?cid=0x0:0xa8db02c25b613413,
building materials,Minimarket,Toko Iska Jaya,"Jln. Poros jembatan langge, kaledupa selatan, Kec. Kaledupa, Kabupaten Wakatobi, Sulawesi Tenggara 93790","kaledupa selatan, Kec. Kaledupa, Kabupaten Wakatobi",SULAWESI TENGGARA,93790.0,Indonesia,81283542252.0,,,-5.5463681,123.8024891,https://maps.google.com/?cid=0x0:0x998e87ba599ec857,
building materials,Toko Bahan Bangunan,Toko Bangunan Mama Mpou,"RV69+WG, Wambulu, Kec. Kapontori, Kabupaten Buton, Sulawesi Tenggara 93755","Wambulu, Kec. Kapontori, Kabupaten Buton",SULAWESI TENGGARA,93755.0,Indonesia,82213276297.0,,,-5.1868821,122.8691116,https://maps.google.com/?cid=0x0:0x19a6c4072fea81ed,
building materials,Toko Bahan Bangunan,PT. Fajar Alam Timber Corp,"5P9C+2CW, Raha II, Kec. Katobu, Kabupaten Muna, Sulawesi Tenggara 93611","Raha II, Kec. Katobu, Kabupaten Muna",SULAWESI TENGGARA,93611.0,Indonesia,4032521256.0,,,-4.832386,122.72108,https://maps.google.com/?cid=0x0:0x4e1ecd72ff3f520b,
building materials,Toko Bahan Bangunan,Toko Bangunan Haffisa,"PHXG+2H7, Bombonawulu, Kec. Gu, Kabupaten Buton, Sulawesi Tenggara 93761","Bombonawulu, Kec. Gu, Kabupaten Buton",SULAWESI TENGGARA,93761.0,Indonesia,85399543612.0,,,-5.2524619,122.5764101,https://maps.google.com/?cid=0x0:0x664eed9514923bea,
building materials,Toko Swalayan,Kios Romay K,"M798+5R2, Napa, Kec. Mawasangka, Kabupaten Buton, Sulawesi Tenggara 93762","Napa, Kec. Mawasangka, Kabupaten Buton",SULAWESI TENGGARA,93762.0,Indonesia,82399133980.0,,,-5.3331447,122.267695,https://maps.google.com/?cid=0x0:0x15510adbb540629a,
building materials,building materials,Kec. Kulisusu,"Kabupaten Buton Utara, Sulawesi Tenggara","Kabupaten Buton Utara, Sulawesi Tenggara",SULAWESI TENGGARA,,Indonesia,,,,-4.7781796,123.1769285,https://maps.google.com/?cid=0x0:0x9da2bec4811cc68e,
building materials,Toko bahan makanan,Agen Toko Usaha Baru,"659C+G9C, Bangkudu, Kec. Kulisusu, Kabupaten Buton Utara, Sulawesi Tenggara 93672","Bangkudu, Kec. Kulisusu, Kabupaten Buton Utara",SULAWESI TENGGARA,93672.0,Indonesia,,,,-4.7811906,123.1708892,https://maps.google.com/?cid=0x0:0xc1e0ab114ef3e2d4,
building materials,Toko umum,Prima Alam Butur,"Jl. Raha Poros No.Desa, Laangke, Kec. Kulisusu, Kabupaten Buton Utara, Sulawesi Tenggara","Kabupaten Buton Utara, Sulawesi Tenggara",SULAWESI TENGGARA,,Indonesia,,,,-4.778215,123.177024,https://maps.google.com/?cid=0x0:0xdedf7b20c4ccfa3a,
building materials,Toko Bahan Bangunan,Toko Bangunan Len-lin,"658F+7M2, Bangkudu, Kec. Kulisusu, Kabupaten Buton Utara, Sulawesi Tenggara 93672","Bangkudu, Kec. Kulisusu, Kabupaten Buton Utara",SULAWESI TENGGARA,93672.0,Indonesia,,,,-4.7843589,123.1741537,https://maps.google.com/?cid=0x0:0xa8db02c25b613413,
building materials,Toko Bahan Bangunan,Toko muda karya,"8664+X45, Wamboule, Waode Buri, Kec. Kulisusu Utara, Kabupaten Buton Utara, Sulawesi Tenggara 93672","Wamboule, Waode Buri, Kec. Kulisusu Utara, Kabupaten Buton Utara",SULAWESI TENGGARA,93672.0,Indonesia,82299405615.0,,,-4.687873,123.205256,https://maps.google.com/?cid=0x0:0x4c5f442b7043f23,
building materials,Toko Bahan Bangunan,TOKO BAHAN APLIKASI BANGUNAN,"GV5J+36H, Ponggiha, Kec. Lasusua, Kabupaten Kolaka Utara, Sulawesi Tenggara 93914","Ponggiha, Kec. Lasusua, Kabupaten Kolaka Utara",SULAWESI TENGGARA,93914.0,Indonesia,8114206900.0,,,-3.4924433,120.8804003,https://maps.google.com/?cid=0x0:0xf23c073d64879223,
building materials,Toko Bahan Bangunan,UD. BERKAH ABADI,"656F+QHM, Lipu, Kec. Kulisusu, Kabupaten Buton Utara, Sulawesi Tenggara","Kabupaten Buton Utara, Sulawesi Tenggara",SULAWESI TENGGARA,,Indonesia,,,,-4.7880442,123.1739101,https://maps.google.com/?cid=0x0:0xf4ae845421c6e5d3,
building materials,Toko Bahan Bangunan,Toko Nafis Bangunan,"Jl. Poros Lasusua - Ranteangin, Tojabi, Kec. Lasusua, Kabupaten Kolaka Utara, Sulawesi Tenggara 93913","Tojabi, Kec. Lasusua, Kabupaten Kolaka Utara",SULAWESI TENGGARA,93913.0,Indonesia,85215533644.0,,,-3.5063634,120.8962923,https://maps.google.com/?cid=0x0:0x502394c19276f82b,
building materials,,Toko Jaya Bangunan,"Jl. Sultan Hasanuddin, Lasusua, Kec. Lasusua, Kabupaten Kolaka Utara, Sulawesi Tenggara 93911","Lasusua, Kec. Lasusua, Kabupaten Kolaka Utara",SULAWESI TENGGARA,93911.0,Indonesia,85255124222.0,,,-3.5043678,120.8867283,https://maps.google.com/?cid=0x0:0x7f49a94c3d5c8a31,
building materials,Toko Bahan Bangunan,TK 37 Bangunan,"Jl. Trans sulawesi, Lasusua, Kec. Lasusua, Kabupaten Kolaka Utara, Sulawesi Tenggara 93911","Lasusua, Kec. Lasusua, Kabupaten Kolaka Utara",SULAWESI TENGGARA,93911.0,Indonesia,85255424921.0,,,-3.502534,120.8894586,https://maps.google.com/?cid=0x0:0x30e17bfaf817872a,
building materials,Toko Bahan Bangunan,Tb.Dewata,"V36Q+HJX, Jl. Poros Batuputih - Olooloho, Latali, Kec. Pakue Tengah, Kabupaten Kolaka Utara, Sulawesi Tenggara 93954","Jl. Poros Batuputih - Olooloho, Latali, Kec. Pakue Tengah, Kabupaten Kolaka Utara",SULAWESI TENGGARA,93954.0,Indonesia,895130809372.0,,,-3.138512,121.0891049,https://maps.google.com/?cid=0x0:0xe4af17b738ab7364,
building materials,Toko Bahan Bangunan,Toko irsan jaya,"HVVW+MM2, Simbula, Kec. Katoi, Kabupaten Kolaka Utara, Sulawesi Tenggara 93957","Simbula, Kec. Katoi, Kabupaten Kolaka Utara",SULAWESI TENGGARA,93957.0,Indonesia,85341333555.0,,,-3.4058606,120.8966552,https://maps.google.com/?cid=0x0:0xc81b1ab7f29dc31f,
building materials,Toko Bahan Bangunan,TB. MUTIARA,"Jln trans sulawesi, Meeto, Kec. Kodeoha, Kabupaten Kolaka Utara, Sulawesi Tenggara 93957","Meeto, Kec. Kodeoha, Kabupaten Kolaka Utara",SULAWESI TENGGARA,93957.0,Indonesia,82385728794.0,,,-3.3510496,120.9453282,https://maps.google.com/?cid=0x0:0x67daeac4a4fcf9b,
building materials,Toko Bahan Bangunan,Toko bangunan,"33CQ+H8H, Jl. Poros Malili - Batuputih, Tolala, Kec. Batu Putih, Kabupaten Kolaka Utara, Sulawesi Tenggara 93955","Jl. Poros Malili - Batuputih, Tolala, Kec. Batu Putih, Kabupaten Kolaka Utara",SULAWESI TENGGARA,93955.0,Indonesia,,,,-2.9289798,121.0880135,https://maps.google.com/?cid=0x0:0x2110d44706c9284b,
building materials,Toko,Agen Toko Nusa Indah,"65CF+XR7, Unnamed Road, Bangkudu, Kec. Kulisusu, Kabupaten Buton Utara, Sulawesi Tenggara 93672","Unnamed Road, Bangkudu, Kec. Kulisusu, Kabupaten Buton Utara",SULAWESI TENGGARA,93672.0,Indonesia,,,,-4.7775774,123.1745403,https://maps.google.com/?cid=0x0:0x58a04c4aac2a6168,
building materials,building materials,Kec. Kulisusu Bar.,"Kabupaten Buton Utara, Sulawesi Tenggara","Kabupaten Buton Utara, Sulawesi Tenggara",SULAWESI TENGGARA,,Indonesia,,,,-4.6699172,123.0647304,https://maps.google.com/?cid=0x0:0x27dee32db48a1fc5,
building materials,Toko Bahan Bangunan,Toko muda karya,"8664+X45, Wamboule, Waode Buri, Kec. Kulisusu Utara, Kabupaten Buton Utara, Sulawesi Tenggara 93672","Wamboule, Waode Buri, Kec. Kulisusu Utara, Kabupaten Buton Utara",SULAWESI TENGGARA,93672.0,Indonesia,82299405615.0,,,-4.687873,123.205256,https://maps.google.com/?cid=0x0:0x4c5f442b7043f23,
building materials,Toko Bahan Bangunan,Toko Bangunan Len-lin,"658F+7M2, Bangkudu, Kec. Kulisusu, Kabupaten Buton Utara, Sulawesi Tenggara 93672","Bangkudu, Kec. Kulisusu, Kabupaten Buton Utara",SULAWESI TENGGARA,93672.0,Indonesia,,,,-4.7843589,123.1741537,https://maps.google.com/?cid=0x0:0xa8db02c25b613413,
building materials,Toko bahan makanan,Agen Toko Usaha Baru,"659C+G9C, Bangkudu, Kec. Kulisusu, Kabupaten Buton Utara, Sulawesi Tenggara 93672","Bangkudu, Kec. Kulisusu, Kabupaten Buton Utara",SULAWESI TENGGARA,93672.0,Indonesia,,,,-4.7811906,123.1708892,https://maps.google.com/?cid=0x0:0xc1e0ab114ef3e2d4,
building materials,Toko umum,Prima Alam Butur,"Jl. Raha Poros No.Desa, Laangke, Kec. Kulisusu, Kabupaten Buton Utara, Sulawesi Tenggara","Kabupaten Buton Utara, Sulawesi Tenggara",SULAWESI TENGGARA,,Indonesia,,,,-4.778215,123.177024,https://maps.google.com/?cid=0x0:0xdedf7b20c4ccfa3a,
building materials,building materials,Sulawesi Tenggara 93672,"Kabupaten Buton Utara, Sulawesi Tenggara","Kabupaten Buton Utara, Sulawesi Tenggara",SULAWESI TENGGARA,,Indonesia,,,,-4.6317181,123.0338767,https://maps.google.com/?cid=0x0:0x22ef5ef6963e0828,
building materials,Toko Bahan Bangunan,Toko Bangunan Len-lin,"658F+7M2, Bangkudu, Kec. Kulisusu, Kabupaten Buton Utara, Sulawesi Tenggara 93672","Bangkudu, Kec. Kulisusu, Kabupaten Buton Utara",SULAWESI TENGGARA,93672.0,Indonesia,,,,-4.7843589,123.1741537,https://maps.google.com/?cid=0x0:0xa8db02c25b613413,
building materials,Toko Bahan Bangunan,Toko muda karya,"8664+X45, Wamboule, Waode Buri, Kec. Kulisusu Utara, Kabupaten Buton Utara, Sulawesi Tenggara 93672","Wamboule, Waode Buri, Kec. Kulisusu Utara, Kabupaten Buton Utara",SULAWESI TENGGARA,93672.0,Indonesia,82299405615.0,,,-4.687873,123.205256,https://maps.google.com/?cid=0x0:0x4c5f442b7043f23,
building materials,Toko bahan makanan,Agen Toko Usaha Baru,"659C+G9C, Bangkudu, Kec. Kulisusu, Kabupaten Buton Utara, Sulawesi Tenggara 93672","Bangkudu, Kec. Kulisusu, Kabupaten Buton Utara",SULAWESI TENGGARA,93672.0,Indonesia,,,,-4.7811906,123.1708892,https://maps.google.com/?cid=0x0:0xc1e0ab114ef3e2d4,
building materials,Balai Pertemuan Desa,desa lelamo,"8663+JFV, Waode Buri, Kec. Kulisusu Utara, Kabupaten Buton Utara, Sulawesi Tenggara 93672","Waode Buri, Kec. Kulisusu Utara, Kabupaten Buton Utara",SULAWESI TENGGARA,93672.0,Indonesia,,,,-4.6883881,123.2036871,https://maps.google.com/?cid=0x0:0x3aa76ddb896f2b21,
building materials,Toko umum,Prima Alam Butur,"Jl. Raha Poros No.Desa, Laangke, Kec. Kulisusu, Kabupaten Buton Utara, Sulawesi Tenggara","Kabupaten Buton Utara, Sulawesi Tenggara",SULAWESI TENGGARA,,Indonesia,,,,-4.778215,123.177024,https://maps.google.com/?cid=0x0:0xdedf7b20c4ccfa3a,
building materials,building materials,Sulawesi Tenggara 93671,Sulawesi Tenggara,Sulawesi Tenggara,SULAWESI TENGGARA,,Indonesia,,,,-4.5493643,122.9212265,https://maps.google.com/?cid=0x0:0xe8e004ff2b736d21,
building materials,Toko Bahan Bangunan,TAMA LANREA,"JH6Q+732, Jl. Poros Kendari - Kolono, Kaindi, Kec. Lainea, Kabupaten Konawe Selatan, Sulawesi Tenggara 93881","Jl. Poros Kendari - Kolono, Kaindi, Kec. Lainea, Kabupaten Konawe Selatan",SULAWESI TENGGARA,93881.0,Indonesia,,,,-4.3893538,122.5876345,https://maps.google.com/?cid=0x0:0xc9d2b05d386c6bb7,
building materials,Toko Bahan Bangunan,Wiron Karya Timber. PT,"5PCC+296, Desa Nihi, Lawa Raha, Raha II, Kec. Katobu, Kabupaten Muna, Sulawesi Tenggara 93611","Desa Nihi, Lawa Raha, Raha II, Kec. Katobu, Kabupaten Muna",SULAWESI TENGGARA,93611.0,Indonesia,40322022.0,,,-4.82997,122.720876,https://maps.google.com/?cid=0x0:0x891fc709cd116355,
building materials,Toko Perlengkapan Rumah,Tomu Jaya,"MF3X+WGF, Ambesea, Kec. Laeya, Kabupaten Konawe Selatan, Sulawesi Tenggara 93671","Ambesea, Kec. Laeya, Kabupaten Konawe Selatan",SULAWESI TENGGARA,93671.0,Indonesia,82298890650.0,,,-4.345189,122.4988097,https://maps.google.com/?cid=0x0:0x168da60177c3fedd,
building materials,Toko Bahan Bangunan,Tk AKBAR ABADI,"Jl. Poros Kendari - Torobulu, Laeya, Kec. Laeya, Kabupaten Konawe Selatan, Sulawesi Tenggara","Kabupaten Konawe Selatan, Sulawesi Tenggara",SULAWESI TENGGARA,,Indonesia,,,,-4.3555894,122.4844731,https://maps.google.com/?cid=0x0:0x8b8c53dd49e970f3,
building materials,Toko Bahan Bangunan,Merkusi Karya Pratama. PT,"5P9C+J65, Desa Maperaha, Lawa Raha, Raha II, Kec. Katobu, Kabupaten Muna, Sulawesi Tenggara 93611","Desa Maperaha, Lawa Raha, Raha II, Kec. Katobu, Kabupaten Muna",SULAWESI TENGGARA,93611.0,Indonesia,40321039.0,,,-4.830997,122.720618,https://maps.google.com/?cid=0x0:0x989f34a5339dae31,
building materials,Toko,Toko Nurhikmah 1 (Pamandati),"Jl. Poros Kendari - Kolono, Pamandati, Kec. Lainea, Kabupaten Konawe Selatan, Sulawesi Tenggara 93881","Pamandati, Kec. Lainea, Kabupaten Konawe Selatan",SULAWESI TENGGARA,93881.0,Indonesia,82159992739.0,,,-4.3896594,122.5832125,https://maps.google.com/?cid=0x0:0x4aa66333070726e9,
building materials,Toko Bahan Bangunan,UD.Srikandi 2,"MFWC+FMH, Jl. Poros Kendari - Andoolo, Punggaluku, Kec. Laeya, Kabupaten Konawe Selatan, Sulawesi Tenggara 93395","Jl. Poros Kendari - Andoolo, Punggaluku, Kec. Laeya, Kabupaten Konawe Selatan",SULAWESI TENGGARA,93395.0,Indonesia,8121673576.0,,,-4.3038087,122.4717236,https://maps.google.com/?cid=0x0:0x8105f227739e74ef,
building materials,Toko Bahan Bangunan,PT. Fajar Alam Timber Corp,"5P9C+2CW, Raha II, Kec. Katobu, Kabupaten Muna, Sulawesi Tenggara 93611","Raha II, Kec. Katobu, Kabupaten Muna",SULAWESI TENGGARA,93611.0,Indonesia,4032521256.0,,,-4.832386,122.72108,https://maps.google.com/?cid=0x0:0x4e1ecd72ff3f520b,
building materials,Toko Bahan Bangunan,Tb. Rahmat,"MCQR+JCF, Jl. Poros Kendari - Andoolo, Rambu Rambu, Kec. Laeya, Kabupaten Konawe Selatan, Sulawesi Tenggara 93881","Jl. Poros Kendari - Andoolo, Rambu Rambu, Kec. Laeya, Kabupaten Konawe Selatan",SULAWESI TENGGARA,93881.0,Indonesia,,,,-4.3109407,122.4410564,https://maps.google.com/?cid=0x0:0xbc8adad1e422058b,
building materials,Toko Bahan Bangunan,UD. RAUDHA 77,"5M6P+6PP, Jl. Poros Raha-Kusambi, Wali, Kec. Watopute, Kabupaten Muna, Sulawesi Tenggara 93656","Jl. Poros Raha-Kusambi, Wali, Kec. Watopute, Kabupaten Muna",SULAWESI TENGGARA,93656.0,Indonesia,81245812171.0,,,-4.8394068,122.6868417,https://maps.google.com/?cid=0x0:0x3d304d62f026517,
building materials,building materials,TB Syam Jaya,"HRJX+8G, Langgapulu, Kec. Kolono, Kabupaten Konawe Selatan, Sulawesi Tenggara","Kabupaten Konawe Selatan, Sulawesi Tenggara",SULAWESI TENGGARA,,Indonesia,,,,-4.4188942,122.8484435,https://maps.google.com/?cid=0x0:0xf6bf88f0ba40deec,
building materials,Toko Bahan Bangunan,Jatimber Indonusa. PT,"5P9C+892, Desa Wakadia, Kusambi Raha, Raha II, Kec. Katobu, Kabupaten Muna, Sulawesi Tenggara 93611","Desa Wakadia, Kusambi Raha, Raha II, Kec. Katobu, Kabupaten Muna",SULAWESI TENGGARA,93611.0,Indonesia,40321170.0,,,-4.831745,122.7208751,https://maps.google.com/?cid=0x0:0xa002cf4aae9c3045,
building materials,Toko Bahan Bangunan,Toko Dian Jaya,"5PJF+2GF, Jl. Lumba-Lumba, Wamponiki, Kec. Katobu, Kabupaten Muna, Sulawesi Tenggara 93614","Jl. Lumba-Lumba, Wamponiki, Kec. Katobu, Kabupaten Muna",SULAWESI TENGGARA,93614.0,Indonesia,,,,-4.8199283,122.7237948,https://maps.google.com/?cid=0x0:0x1cc7c90b3fbefd9a,
building materials,Toko Bahan Bangunan,Toko Bahan Bangunan RAFA,"HF72+H9, Torobulu, Kec. Laeya, Kabupaten Konawe Selatan, Sulawesi Tenggara","Kabupaten Konawe Selatan, Sulawesi Tenggara",SULAWESI TENGGARA,,Indonesia,85399043230.0,,,-4.4360891,122.4509813,https://maps.google.com/?cid=0x0:0x535c71538fa95735,
building materials,Bengkel Mesin,Ajun Motor,"JGQV+H5F, Lalonggombu, Kec. Lainea, Kabupaten Konawe Selatan, Sulawesi Tenggara 93671","Lalonggombu, Kec. Lainea, Kabupaten Konawe Selatan",SULAWESI TENGGARA,93671.0,Indonesia,85340094671.0,,,-4.3610607,122.5429309,https://maps.google.com/?cid=0x0:0x8348b91800da0a05,
building materials,Toko Bahan Bangunan,Sinar Karunia,"Jl. Poros No.2, Wapae Jaya, Tiworo Tengah, Kabupaten Muna, Sulawesi Tenggara 93648","Wapae Jaya, Tiworo Tengah, Kabupaten Muna",SULAWESI TENGGARA,93648.0,Indonesia,81242222245.0,,,-4.8167409,122.4020923,https://maps.google.com/?cid=0x0:0x4e38fd0b930d486a,
building materials,Toko Bahan Bangunan,Toko Rizka Bangunan,"MCJ7+JV4, Mekar Sari, Kec. Palangga, Kabupaten Konawe Selatan, Sulawesi Tenggara 93883","Mekar Sari, Kec. Palangga, Kabupaten Konawe Selatan",SULAWESI TENGGARA,93883.0,Indonesia,,,,-4.3184864,122.4147005,https://maps.google.com/?cid=0x0:0x2607e1cf068286f7,
building materials,Toko Bahan Bangunan,UD.TOKO SINAR TAMPO,"9PF5+748, Jl. Pelabuhan Tampo, Napabalano, Kec. Napabalano, Kabupaten Muna, Sulawesi Tenggara 93654","Jl. Pelabuhan Tampo, Napabalano, Kec. Napabalano, Kabupaten Muna",SULAWESI TENGGARA,93654.0,Indonesia,,,,-4.6268457,122.7078149,https://maps.google.com/?cid=0x0:0x2e60cbca8e402cd6,
building materials,Toko Bahan Bangunan,Toko Gelora Jaya 1,"Jl. Poros Kendari - Andoolo, Anggondara, Kec. Palangga, Kabupaten Konawe Selatan, Sulawesi Tenggara 93883","Anggondara, Kec. Palangga, Kabupaten Konawe Selatan",SULAWESI TENGGARA,93883.0,Indonesia,82259364571.0,,,-4.3102255,122.4165002,https://maps.google.com/?cid=0x0:0xe7ce00ff34cb563c,
building materials,,UD. Mitra Bangunan raha,"5PMM+64M, Jl. Lumba-Lumba, Laiworu, Kec. Batalaiworu, Kabupaten Muna, Sulawesi Tenggara 93614","Jl. Lumba-Lumba, Laiworu, Kec. Batalaiworu, Kabupaten Muna",SULAWESI TENGGARA,93614.0,Indonesia,,,,-4.8169218,122.7328068,https://maps.google.com/?cid=0x0:0xcb0c30522e00e004,
building materials,Toko Perlengkapan Rumah,Toko Kurniati,"2R87+JCM, Desa Pola, Kec. Pasir Putih, Kabupaten Muna, Sulawesi Tenggara 93674","Desa Pola, Kec. Pasir Putih, Kabupaten Muna",SULAWESI TENGGARA,93674.0,Indonesia,,,,-4.9834203,122.8135523,https://maps.google.com/?cid=0x0:0x25482553fc55cc36,
toko bangunan,toko bangunan,Sulawesi Tenggara 93673,"Kabupaten Buton Utara, Sulawesi Tenggara","Kabupaten Buton Utara, Sulawesi Tenggara",SULAWESI TENGGARA,,Indonesia,,,,-4.900844,122.9663018,https://maps.google.com/?cid=0x0:0x9ba45992a80e927e,
toko bangunan,Minimarket,Toko Fadillah,"Dusun Tombuluruha, Balasuna, Bungi, Kabupaten Wakatobi, Sulawesi Tenggara 93792","Balasuna, Bungi, Kabupaten Wakatobi",SULAWESI TENGGARA,93792.0,Indonesia,81343732132.0,,,-5.5173851,123.7724196,https://maps.google.com/?cid=0x0:0x5cc18941abe90f9f,
toko bangunan,Toko Perlengkapan Rumah,UD ANGEL DWITHA,"Buranga, Kec. Bonegunu, Kabupaten Buton Utara, Sulawesi Tenggara 93673","Kec. Bonegunu, Kabupaten Buton Utara",SULAWESI TENGGARA,93673.0,Indonesia,82188587111.0,,,-4.8128254,122.9952874,https://maps.google.com/?cid=0x0:0x966b829a4312175e,
toko bangunan,Minimarket,Toko Iska Jaya,"Jln. Poros jembatan langge, kaledupa selatan, Kec. Kaledupa, Kabupaten Wakatobi, Sulawesi Tenggara 93790","kaledupa selatan, Kec. Kaledupa, Kabupaten Wakatobi",SULAWESI TENGGARA,93790.0,Indonesia,81283542252.0,,,-5.5463681,123.8024891,https://maps.google.com/?cid=0x0:0x998e87ba599ec857,
toko bangunan,Toko Bahan Bangunan,UD AZAM JAYA,"Pongkowulu, Ereke, Kabupaten Buton Utara, Sulawesi Tenggara 93674","Ereke, Kabupaten Buton Utara",SULAWESI TENGGARA,93674.0,Indonesia,82293885961.0,,,-5.0335889,122.9613499,https://maps.google.com/?cid=0x0:0x8249aa9c2f12d770,
toko bangunan,Toko Bahan Bangunan,Toko era bangunan,"658F+6VW, Jl. Lasora, Bangkudu, Kec. Kulisusu, Kabupaten Buton Utara, Sulawesi Tenggara 93672","Jl. Lasora, Bangkudu, Kec. Kulisusu, Kabupaten Buton Utara",SULAWESI TENGGARA,93672.0,Indonesia,,,,-4.7843752,123.1746875,https://maps.google.com/?cid=0x0:0xc817cf4aa9d6501b,
toko bangunan,Toko Bahan Bangunan,Toko muda karya,"8664+X45, Wamboule, Waode Buri, Kec. Kulisusu Utara, Kabupaten Buton Utara, Sulawesi Tenggara 93672","Wamboule, Waode Buri, Kec. Kulisusu Utara, Kabupaten Buton Utara",SULAWESI TENGGARA,93672.0,Indonesia,82299405615.0,,,-4.687873,123.205256,https://maps.google.com/?cid=0x0:0x4c5f442b7043f23,
toko bangunan,Minimarket,TOKO Boni,"7P3J+5MQ, Bonea, Kec. Lasalepa, Kabupaten Muna, Sulawesi Tenggara 93654","Bonea, Kec. Lasalepa, Kabupaten Muna",SULAWESI TENGGARA,93654.0,Indonesia,,,,-4.7470486,122.7317384,https://maps.google.com/?cid=0x0:0xea9b7687406ba51,
toko bangunan,Toko Bahan Bangunan,UD. BERKAH ABADI,"656F+QHM, Lipu, Kec. Kulisusu, Kabupaten Buton Utara, Sulawesi Tenggara","Kabupaten Buton Utara, Sulawesi Tenggara",SULAWESI TENGGARA,,Indonesia,,,,-4.7880442,123.1739101,https://maps.google.com/?cid=0x0:0xf4ae845421c6e5d3,
toko bangunan,Toko Bahan Bangunan,Toko Gafa Makmur,"Ruku-Ruku, Langge, Kec. Kaledupa Sel., Kabupaten Wakatobi, Sulawesi Tenggara 93790","Langge, Kec. Kaledupa Sel., Kabupaten Wakatobi",SULAWESI TENGGARA,93790.0,Indonesia,85259184762.0,,,-5.5465221,123.8024379,https://maps.google.com/?cid=0x0:0xf1abc01489fc2cdc,
toko bangunan,Toko Bahan Bangunan,Toko Sumber Rezeki,"Jl. Pangeran Limboro, Banabungi, Kec. Ps. Wajo, Kabupaten Buton, Sulawesi Tenggara 93754","Banabungi, Kec. Ps. Wajo, Kabupaten Buton",SULAWESI TENGGARA,93754.0,Indonesia,85241637184.0,,,-5.5110635,122.8429251,https://maps.google.com/?cid=0x0:0x502705c8e2f51436,
toko bangunan,Grosir Pembibitan Tanaman,"Toko Akbar (Menjual Alat Bangunan, Alat Pertanian, Alat Mesin Dll)","83J7+7VG, Jl. Poros Ereke - Buranga, depan pasar, Kec. Kulisusu Bar., Kabupaten Buton Utara, Sulawesi Tenggara 93672","Jl. Poros Ereke - Buranga, depan pasar, Kec. Kulisusu Bar., Kabupaten Buton Utara",SULAWESI TENGGARA,93672.0,Indonesia,82293102420.0,,,-4.6693063,123.0646895,https://maps.google.com/?cid=0x0:0x43cd5bdb50be4247,
toko bangunan,Toko bahan makanan,Agen Toko Usaha Baru,"659C+G9C, Bangkudu, Kec. Kulisusu, Kabupaten Buton Utara, Sulawesi Tenggara 93672","Bangkudu, Kec. Kulisusu, Kabupaten Buton Utara",SULAWESI TENGGARA,93672.0,Indonesia,,,,-4.7811906,123.1708892,https://maps.google.com/?cid=0x0:0xc1e0ab114ef3e2d4,
toko bangunan,Toko Bahan Bangunan,Toko Sinar Samuli,"RGMC+PCV, Jl Poros Raha Wamengkoli, Watondo, Kec. Tongkuno Sel., Kabupaten Muna, Sulawesi Tenggara 93662","Jl Poros Raha Wamengkoli, Watondo, Kec. Tongkuno Sel., Kabupaten Muna",SULAWESI TENGGARA,93662.0,Indonesia,82271218088.0,,,-5.1656396,122.5210432,https://maps.google.com/?cid=0x0:0x409de9a2896c31b3,
toko bangunan,Toko Bahan Bangunan,Toko Bangunan Mukhlis,"M5J7+J49, jalan Sulawesi Desa, Ambuau Indah, Lasalimu Selatan, Buton Regency, South East Sulawesi 93756","jalan Sulawesi Desa, Ambuau Indah, Lasalimu Selatan, Buton Regency",SULAWESI TENGGARA,93756.0,Indonesia,,,,-5.3184709,123.1628725,https://maps.google.com/?cid=0x0:0xf58ed61e19c8e691,
toko bangunan,Toko,Kios Mambulu (Barokah) Jaya Utama,"Jl. Poros Batauga, Dusun Laporoworu, Gn. Sejuk, Kec. Sampolawa, Kabupaten Buton, Sulawesi Tenggara 93753","Dusun Laporoworu, Gn. Sejuk, Kec. Sampolawa, Kabupaten Buton",SULAWESI TENGGARA,93753.0,Indonesia,,,,-5.5819375,122.7381875,https://maps.google.com/?cid=0x0:0xc02d319280ee6290,
toko bangunan,Toko Bahan Bangunan,Toko Nafis Bangunan,"Jl. Poros Lasusua - Ranteangin, Tojabi, Kec. Lasusua, Kabupaten Kolaka Utara, Sulawesi Tenggara 93913","Tojabi, Kec. Lasusua, Kabupaten Kolaka Utara",SULAWESI TENGGARA,93913.0,Indonesia,85215533644.0,,,-3.5063634,120.8962923,https://maps.google.com/?cid=0x0:0x502394c19276f82b,
toko bangunan,Toko Alat Tulis Kantor,TOKO EKHSAND (ATK  BAHAN BANGUNAN),"9Q3P+FP2, Jaya, Kec. Lapandewa, Kabupaten Buton, Sulawesi Tenggara","Kabupaten Buton, Sulawesi Tenggara",SULAWESI TENGGARA,,Indonesia,85396889825.0,,,-5.6463579,122.7867517,https://maps.google.com/?cid=0x0:0x36c18903f7c4950e,
toko bangunan,Toko Bahan Bangunan,Toko Bangunan Mama Mpou,"RV69+WG, Wambulu, Kec. Kapontori, Kabupaten Buton, Sulawesi Tenggara 93755","Wambulu, Kec. Kapontori, Kabupaten Buton",SULAWESI TENGGARA,93755.0,Indonesia,82213276297.0,,,-5.1868821,122.8691116,https://maps.google.com/?cid=0x0:0x19a6c4072fea81ed,
toko bangunan,Pusat Perbelanjaan,Toko bangunan Melati,"FVF5+WPR, Wagola, Kec. Ps. Wajo, Kabupaten Buton, Sulawesi Tenggara 93754","Wagola, Kec. Ps. Wajo, Kabupaten Buton",SULAWESI TENGGARA,93754.0,Indonesia,,,,-5.5251448,122.8592612,https://maps.google.com/?cid=0x0:0xeba8ba6f03670240,
toko bangunan,Toko Perlengkapan Rumah,Toko Kurniati,"2R87+JCM, Desa Pola, Kec. Pasir Putih, Kabupaten Muna, Sulawesi Tenggara 93674","Desa Pola, Kec. Pasir Putih, Kabupaten Muna",SULAWESI TENGGARA,93674.0,Indonesia,,,,-4.9834203,122.8135523,https://maps.google.com/?cid=0x0:0x25482553fc55cc36,
toko bangunan,Toko Perlengkapan Rumah,Toko bangunan Sinar Jaya Raha,"Jl. Jend. Sudirman, Raha I, Kec. Katobu, Kabupaten Muna, Sulawesi Tenggara","Kabupaten Muna, Sulawesi Tenggara",SULAWESI TENGGARA,,Indonesia,81297776310.0,,,-4.8437193,122.7249394,https://maps.google.com/?cid=0x0:0xea69be720d849e4a,
toko bangunan,Toko Bahan Bangunan,Wiron Karya Timber. PT,"5PCC+296, Desa Nihi, Lawa Raha, Raha II, Kec. Katobu, Kabupaten Muna, Sulawesi Tenggara 93611","Desa Nihi, Lawa Raha, Raha II, Kec. Katobu, Kabupaten Muna",SULAWESI TENGGARA,93611.0,Indonesia,40322022.0,,,-4.82997,122.720876,https://maps.google.com/?cid=0x0:0x891fc709cd116355,
toko bangunan,Minimarket,Toko Fadillah,"Dusun Tombuluruha, Balasuna, Bungi, Kabupaten Wakatobi, Sulawesi Tenggara 93792","Balasuna, Bungi, Kabupaten Wakatobi",SULAWESI TENGGARA,93792.0,Indonesia,81343732132.0,,,-5.5173851,123.7724196,https://maps.google.com/?cid=0x0:0x5cc18941abe90f9f,
toko bangunan,Toko Bahan Bangunan,Toko muda karya,"8664+X45, Wamboule, Waode Buri, Kec. Kulisusu Utara, Kabupaten Buton Utara, Sulawesi Tenggara 93672","Wamboule, Waode Buri, Kec. Kulisusu Utara, Kabupaten Buton Utara",SULAWESI TENGGARA,93672.0,Indonesia,82299405615.0,,,-4.687873,123.205256,https://maps.google.com/?cid=0x0:0x4c5f442b7043f23,
toko bangunan,toko bangunan,Sulawesi Tenggara 93673,"Kabupaten Buton Utara, Sulawesi Tenggara","Kabupaten Buton Utara, Sulawesi Tenggara",SULAWESI TENGGARA,,Indonesia,,,,-4.900844,122.9663018,https://maps.google.com/?cid=0x0:0x9ba45992a80e927e,
toko bangunan,Toko Bahan Bangunan,Toko Gafa Makmur,"Ruku-Ruku, Langge, Kec. Kaledupa Sel., Kabupaten Wakatobi, Sulawesi Tenggara 93790","Langge, Kec. Kaledupa Sel., Kabupaten Wakatobi",SULAWESI TENGGARA,93790.0,Indonesia,85259184762.0,,,-5.5465221,123.8024379,https://maps.google.com/?cid=0x0:0xf1abc01489fc2cdc,
toko bangunan,Toko Bahan Bangunan,Toko bangunan ocha kamaru,"R3R7+JCH, Kamaru, Kec. Lasalimu, Kabupaten Buton, Sulawesi Tenggara","Kabupaten Buton, Sulawesi Tenggara",SULAWESI TENGGARA,,Indonesia,,,,-5.158434,123.063599,https://maps.google.com/?cid=0x0:0x4bf0d7f027ec609f,
toko bangunan,Toko Bahan Bangunan,Toko era bangunan,"658F+6VW, Jl. Lasora, Bangkudu, Kec. Kulisusu, Kabupaten Buton Utara, Sulawesi Tenggara 93672","Jl. Lasora, Bangkudu, Kec. Kulisusu, Kabupaten Buton Utara",SULAWESI TENGGARA,93672.0,Indonesia,,,,-4.7843752,123.1746875,https://maps.google.com/?cid=0x0:0xc817cf4aa9d6501b,
toko bangunan,Toko Bahan Bangunan,Toko Enam Saudara Lombe,"PHXH+439, kompleks pasar lombe, Bombonawulu, Kec. Gu, Kabupaten Buton, Sulawesi Tenggara 93761","kompleks pasar lombe, Bombonawulu, Kec. Gu, Kabupaten Buton",SULAWESI TENGGARA,93761.0,Indonesia,85299578579.0,,,-5.2522026,122.5777204,https://maps.google.com/?cid=0x0:0x278b5a28c6ed5919,
toko bangunan,Toko Perlengkapan Rumah,UD ANGEL DWITHA,"Buranga, Kec. Bonegunu, Kabupaten Buton Utara, Sulawesi Tenggara 93673","Kec. Bonegunu, Kabupaten Buton Utara",SULAWESI TENGGARA,93673.0,Indonesia,82188587111.0,,,-4.8128254,122.9952874,https://maps.google.com/?cid=0x0:0x966b829a4312175e,
toko bangunan,Toko Bahan Bangunan,UD AZAM JAYA,"Pongkowulu, Ereke, Kabupaten Buton Utara, Sulawesi Tenggara 93674","Ereke, Kabupaten Buton Utara",SULAWESI TENGGARA,93674.0,Indonesia,82293885961.0,,,-5.0335889,122.9613499,https://maps.google.com/?cid=0x0:0x8249aa9c2f12d770,
toko bangunan,Toko Bahan Bangunan,Toko Bangunan Rajawali,"Jl. Jend. Sudirman Lombe Buton Tengah No.7, Bombonawulu, Kec. Gu, Kabupaten Buton, Sulawesi Tenggara 93761","Bombonawulu, Kec. Gu, Kabupaten Buton",SULAWESI TENGGARA,93761.0,Indonesia,85241808922.0,,,-5.2526042,122.5763954,https://maps.google.com/?cid=0x0:0xf2f6cd42a4098c43,
toko bangunan,Toko Bahan Bangunan,Toko Bangunan Len-lin,"658F+7M2, Bangkudu, Kec. Kulisusu, Kabupaten Buton Utara, Sulawesi Tenggara 93672","Bangkudu, Kec. Kulisusu, Kabupaten Buton Utara",SULAWESI TENGGARA,93672.0,Indonesia,,,,-4.7843589,123.1741537,https://maps.google.com/?cid=0x0:0xa8db02c25b613413,
toko bangunan,Toko Alat Listrik,Toko Bangunan Cahaya Miliar,"Jl. Jend. Sudirman, Pongo, Wangi-Wangi Sel., Kabupaten Wakatobi, Sulawesi Tenggara 93791","Pongo, Wangi-Wangi Sel., Kabupaten Wakatobi",SULAWESI TENGGARA,93791.0,Indonesia,82191917305.0,,,-5.3259136,123.5367231,https://maps.google.com/?cid=0x0:0xaa0d57869628cc90,
toko bangunan,Pasar bahan bangunan,TOKO MEGA TAMA Wawotobi (Toko Bangunan),"Jl. Jend Sudirman No.17, Wawotobi, Kec. Wawotobi, Kabupaten Konawe, Sulawesi Tenggara 93461","Wawotobi, Kec. Wawotobi, Kabupaten Konawe",SULAWESI TENGGARA,93461.0,Indonesia,85216149991.0,,,-3.8766033,122.1086909,https://maps.google.com/?cid=0x0:0x6590efc314bd5d70,
toko bangunan,Grosir Pembibitan Tanaman,"Toko Akbar (Menjual Alat Bangunan, Alat Pertanian, Alat Mesin Dll)","83J7+7VG, Jl. Poros Ereke - Buranga, depan pasar, Kec. Kulisusu Bar., Kabupaten Buton Utara, Sulawesi Tenggara 93672","Jl. Poros Ereke - Buranga, depan pasar, Kec. Kulisusu Bar., Kabupaten Buton Utara",SULAWESI TENGGARA,93672.0,Indonesia,82293102420.0,,,-4.6693063,123.0646895,https://maps.google.com/?cid=0x0:0x43cd5bdb50be4247,
toko bangunan,Toko Bahan Bangunan,Toko Bangunan Mama Mpou,"RV69+WG, Wambulu, Kec. Kapontori, Kabupaten Buton, Sulawesi Tenggara 93755","Wambulu, Kec. Kapontori, Kabupaten Buton",SULAWESI TENGGARA,93755.0,Indonesia,82213276297.0,,,-5.1868821,122.8691116,https://maps.google.com/?cid=0x0:0x19a6c4072fea81ed,
toko bangunan,Toko Bahan Bangunan,UD KAMARU JAYA,"R3M7+242, Kamaru, Kec. Lasalimu, Kabupaten Buton, Sulawesi Tenggara 93756","Kamaru, Kec. Lasalimu, Kabupaten Buton",SULAWESI TENGGARA,93756.0,Indonesia,81379094275.0,,,-5.1674831,123.0627768,https://maps.google.com/?cid=0x0:0x37712c6e64680482,
toko bangunan,toko bangunan,Toko Tumada Jaya,"VQMM+C4J, Tumada, Kec. Kapontori, Kabupaten Buton, Sulawesi Tenggara","Kabupaten Buton, Sulawesi Tenggara",SULAWESI TENGGARA,,Indonesia,82291191105.0,,,-5.1164004,122.7827699,https://maps.google.com/?cid=0x0:0x1b9515b00d10e46e,
toko bangunan,Toko Bahan Bangunan,Toko Bangunan Haffisa,"PHXG+2H7, Bombonawulu, Kec. Gu, Kabupaten Buton, Sulawesi Tenggara 93761","Bombonawulu, Kec. Gu, Kabupaten Buton",SULAWESI TENGGARA,93761.0,Indonesia,85399543612.0,,,-5.2524619,122.5764101,https://maps.google.com/?cid=0x0:0x664eed9514923bea,
toko bangunan,toko bangunan,,,,SULAWESI TENGGARA,,Indonesia,,,,-4.829183,122.72211,https://maps.google.com/?cid=0x0:0xd2c7c04ac473e64b,
toko bangunan,Toko Bahan Bangunan,Toko Sumber Bangunan,"M3X6+GM8, Jl. Poros Basala-Benua, Lipu Masagena, Kec. Basala, Kabupaten Konawe Selatan, Sulawesi Tenggara 93875","Jl. Poros Basala-Benua, Lipu Masagena, Kec. Basala, Kabupaten Konawe Selatan",SULAWESI TENGGARA,93875.0,Indonesia,82112427393.0,,,-4.3012196,122.0617042,https://maps.google.com/?cid=0x0:0xfe3b3a09c506810e,
toko bangunan,Toko Bahan Bangunan,Toko Sumber Rezeki,"Jl. Pangeran Limboro, Banabungi, Kec. Ps. Wajo, Kabupaten Buton, Sulawesi Tenggara 93754","Banabungi, Kec. Ps. Wajo, Kabupaten Buton",SULAWESI TENGGARA,93754.0,Indonesia,85241637184.0,,,-5.5110635,122.8429251,https://maps.google.com/?cid=0x0:0x502705c8e2f51436,
toko bangunan,Toko Alat Tulis Kantor,TOKO EKHSAND (ATK  BAHAN BANGUNAN),"9Q3P+FP2, Jaya, Kec. Lapandewa, Kabupaten Buton, Sulawesi Tenggara","Kabupaten Buton, Sulawesi Tenggara",SULAWESI TENGGARA,,Indonesia,85396889825.0,,,-5.6463579,122.7867517,https://maps.google.com/?cid=0x0:0x36c18903f7c4950e,
toko bangunan,Toko Bahan Bangunan,Toko Sinar Samuli,"RGMC+PCV, Jl Poros Raha Wamengkoli, Watondo, Kec. Tongkuno Sel., Kabupaten Muna, Sulawesi Tenggara 93662","Jl Poros Raha Wamengkoli, Watondo, Kec. Tongkuno Sel., Kabupaten Muna",SULAWESI TENGGARA,93662.0,Indonesia,82271218088.0,,,-5.1656396,122.5210432,https://maps.google.com/?cid=0x0:0x409de9a2896c31b3,
toko bangunan,Toko Perlengkapan Rumah,Toko bangunan Sinar Jaya Raha,"Jl. Jend. Sudirman, Raha I, Kec. Katobu, Kabupaten Muna, Sulawesi Tenggara","Kabupaten Muna, Sulawesi Tenggara",SULAWESI TENGGARA,,Indonesia,81297776310.0,,,-4.8437193,122.7249394,https://maps.google.com/?cid=0x0:0xea69be720d849e4a,
toko bangunan,Toko Bahan Bangunan,Wiron Karya Timber. PT,"5PCC+296, Desa Nihi, Lawa Raha, Raha II, Kec. Katobu, Kabupaten Muna, Sulawesi Tenggara 93611","Desa Nihi, Lawa Raha, Raha II, Kec. Katobu, Kabupaten Muna",SULAWESI TENGGARA,93611.0,Indonesia,40322022.0,,,-4.82997,122.720876,https://maps.google.com/?cid=0x0:0x891fc709cd116355,
toko bangunan,Toko Bahan Bangunan,UD. BERKAH ABADI,"656F+QHM, Lipu, Kec. Kulisusu, Kabupaten Buton Utara, Sulawesi Tenggara","Kabupaten Buton Utara, Sulawesi Tenggara",SULAWESI TENGGARA,,Indonesia,,,,-4.7880442,123.1739101,https://maps.google.com/?cid=0x0:0xf4ae845421c6e5d3,
toko bangunan,toko bangunan,Kec. Kulisusu,"Kabupaten Buton Utara, Sulawesi Tenggara","Kabupaten Buton Utara, Sulawesi Tenggara",SULAWESI TENGGARA,,Indonesia,,,,-4.7781796,123.1769285,https://maps.google.com/?cid=0x0:0x9da2bec4811cc68e,
toko bangunan,Toko Bahan Bangunan,Toko Bangunan Len-lin,"658F+7M2, Bangkudu, Kec. Kulisusu, Kabupaten Buton Utara, Sulawesi Tenggara 93672","Bangkudu, Kec. Kulisusu, Kabupaten Buton Utara",SULAWESI TENGGARA,93672.0,Indonesia,,,,-4.7843589,123.1741537,https://maps.google.com/?cid=0x0:0xa8db02c25b613413,
toko bangunan,Toko Bahan Bangunan,Toko muda karya,"8664+X45, Wamboule, Waode Buri, Kec. Kulisusu Utara, Kabupaten Buton Utara, Sulawesi Tenggara 93672","Wamboule, Waode Buri, Kec. Kulisusu Utara, Kabupaten Buton Utara",SULAWESI TENGGARA,93672.0,Indonesia,82299405615.0,,,-4.687873,123.205256,https://maps.google.com/?cid=0x0:0x4c5f442b7043f23,
toko bangunan,Toko bahan makanan,Agen Toko Usaha Baru,"659C+G9C, Bangkudu, Kec. Kulisusu, Kabupaten Buton Utara, Sulawesi Tenggara 93672","Bangkudu, Kec. Kulisusu, Kabupaten Buton Utara",SULAWESI TENGGARA,93672.0,Indonesia,,,,-4.7811906,123.1708892,https://maps.google.com/?cid=0x0:0xc1e0ab114ef3e2d4,
toko bangunan,toko bangunan,Kec. Kulisusu Bar.,"Kabupaten Buton Utara, Sulawesi Tenggara","Kabupaten Buton Utara, Sulawesi Tenggara",SULAWESI TENGGARA,,Indonesia,,,,-4.6699172,123.0647304,https://maps.google.com/?cid=0x0:0x27dee32db48a1fc5,
toko bangunan,Toko Bahan Bangunan,Toko Bangunan Len-lin,"658F+7M2, Bangkudu, Kec. Kulisusu, Kabupaten Buton Utara, Sulawesi Tenggara 93672","Bangkudu, Kec. Kulisusu, Kabupaten Buton Utara",SULAWESI TENGGARA,93672.0,Indonesia,,,,-4.7843589,123.1741537,https://maps.google.com/?cid=0x0:0xa8db02c25b613413,
toko bangunan,Grosir Pembibitan Tanaman,"Toko Akbar (Menjual Alat Bangunan, Alat Pertanian, Alat Mesin Dll)","83J7+7VG, Jl. Poros Ereke - Buranga, depan pasar, Kec. Kulisusu Bar., Kabupaten Buton Utara, Sulawesi Tenggara 93672","Jl. Poros Ereke - Buranga, depan pasar, Kec. Kulisusu Bar., Kabupaten Buton Utara",SULAWESI TENGGARA,93672.0,Indonesia,82293102420.0,,,-4.6693063,123.0646895,https://maps.google.com/?cid=0x0:0x43cd5bdb50be4247,
toko bangunan,Toko bahan makanan,Agen Toko Usaha Baru,"659C+G9C, Bangkudu, Kec. Kulisusu, Kabupaten Buton Utara, Sulawesi Tenggara 93672","Bangkudu, Kec. Kulisusu, Kabupaten Buton Utara",SULAWESI TENGGARA,93672.0,Indonesia,,,,-4.7811906,123.1708892,https://maps.google.com/?cid=0x0:0xc1e0ab114ef3e2d4,
toko bangunan,Toko Bahan Bangunan,UD. BERKAH ABADI,"656F+QHM, Lipu, Kec. Kulisusu, Kabupaten Buton Utara, Sulawesi Tenggara","Kabupaten Buton Utara, Sulawesi Tenggara",SULAWESI TENGGARA,,Indonesia,,,,-4.7880442,123.1739101,https://maps.google.com/?cid=0x0:0xf4ae845421c6e5d3,
toko bangunan,Toko Bahan Bangunan,TOKO BAHAN APLIKASI BANGUNAN,"GV5J+36H, Ponggiha, Kec. Lasusua, Kabupaten Kolaka Utara, Sulawesi Tenggara 93914","Ponggiha, Kec. Lasusua, Kabupaten Kolaka Utara",SULAWESI TENGGARA,93914.0,Indonesia,8114206900.0,,,-3.4924433,120.8804003,https://maps.google.com/?cid=0x0:0xf23c073d64879223,
toko bangunan,Toko Bahan Bangunan,Toko Nafis Bangunan,"Jl. Poros Lasusua - Ranteangin, Tojabi, Kec. Lasusua, Kabupaten Kolaka Utara, Sulawesi Tenggara 93913","Tojabi, Kec. Lasusua, Kabupaten Kolaka Utara",SULAWESI TENGGARA,93913.0,Indonesia,85215533644.0,,,-3.5063634,120.8962923,https://maps.google.com/?cid=0x0:0x502394c19276f82b,
toko bangunan,Toko Bahan Bangunan,Toko Raja Bangunan Lasusua,"FVRW+226, Tojabi, Kec. Lasusua, Kabupaten Kolaka Utara, Sulawesi Tenggara 93913","Tojabi, Kec. Lasusua, Kabupaten Kolaka Utara",SULAWESI TENGGARA,93913.0,Indonesia,85190035887.0,,,-3.5099512,120.8950184,https://maps.google.com/?cid=0x0:0xf276281a7e8007a,
toko bangunan,Toko Bahan Bangunan,Tb.Dewata,"V36Q+HJX, Jl. Poros Batuputih - Olooloho, Latali, Kec. Pakue Tengah, Kabupaten Kolaka Utara, Sulawesi Tenggara 93954","Jl. Poros Batuputih - Olooloho, Latali, Kec. Pakue Tengah, Kabupaten Kolaka Utara",SULAWESI TENGGARA,93954.0,Indonesia,895130809372.0,,,-3.138512,121.0891049,https://maps.google.com/?cid=0x0:0xe4af17b738ab7364,
toko bangunan,Toko umum,Prima Alam Butur,"Jl. Raha Poros No.Desa, Laangke, Kec. Kulisusu, Kabupaten Buton Utara, Sulawesi Tenggara","Kabupaten Buton Utara, Sulawesi Tenggara",SULAWESI TENGGARA,,Indonesia,,,,-4.778215,123.177024,https://maps.google.com/?cid=0x0:0xdedf7b20c4ccfa3a,
toko bangunan,,Toko Jaya Bangunan,"Jl. Sultan Hasanuddin, Lasusua, Kec. Lasusua, Kabupaten Kolaka Utara, Sulawesi Tenggara 93911","Lasusua, Kec. Lasusua, Kabupaten Kolaka Utara",SULAWESI TENGGARA,93911.0,Indonesia,85255124222.0,,,-3.5043678,120.8867283,https://maps.google.com/?cid=0x0:0x7f49a94c3d5c8a31,
toko bangunan,Toko Bahan Bangunan,Toko Sentral Murah Bangunan  Alat Listrik,"Jl. Suprapto No.41 C, Mandonga, Kec. Mandonga, Kota Kendari, Sulawesi Tenggara 93112","Mandonga, Kec. Mandonga, Kota Kendari",SULAWESI TENGGARA,93112.0,Indonesia,8114044442.0,,,-3.9606833,122.5156274,https://maps.google.com/?cid=0x0:0x89907be4fe7f9e25,
toko bangunan,Toko Bahan Bangunan,Toko Bangun Perkasa,"JL Mayor Jenderal DI Panjaitan, No. 337, Lepo, Lepo-Lepo, Kendari, Kota Kendari, Sulawesi Tenggara 93118","No. 337, Lepo, Lepo-Lepo, Kendari, Kota Kendari",SULAWESI TENGGARA,93118.0,Indonesia,4013193055.0,,,-4.0238838,122.5106365,https://maps.google.com/?cid=0x0:0x6471f659dbca11fc,
toko bangunan,Toko Bahan Bangunan,Toko Jaya Perkasa,"Lalolara, Kec. Kambu, Kota Kendari, Sulawesi Tenggara 93561","Kec. Kambu, Kota Kendari",SULAWESI TENGGARA,93561.0,Indonesia,,,,-3.9983739,122.5164455,https://maps.google.com/?cid=0x0:0x7cbbbfbe2f92a9d5,
toko bangunan,Toko Bahan Bangunan,Toko irsan jaya,"HVVW+MM2, Simbula, Kec. Katoi, Kabupaten Kolaka Utara, Sulawesi Tenggara 93957","Simbula, Kec. Katoi, Kabupaten Kolaka Utara",SULAWESI TENGGARA,93957.0,Indonesia,85341333555.0,,,-3.4058606,120.8966552,https://maps.google.com/?cid=0x0:0xc81b1ab7f29dc31f,
toko bangunan,Toko Bahan Bangunan,TOKO BANGUNAN MAJESTY,"2H56+PFQ, Unnamed Road, Anggoeya, Kec. Poasia, Kota Kendari, Sulawesi Tenggara 93231","Unnamed Road, Anggoeya, Kec. Poasia, Kota Kendari",SULAWESI TENGGARA,93231.0,Indonesia,8114038009.0,,,-3.9906542,122.561224,https://maps.google.com/?cid=0x0:0x783f1075052d1ac5,
toko bangunan,Toko Bahan Bangunan,Toko Bangunan Indah jaya Kendari,"Jl. Jend. Ahmad Yani No.90, Anaiwoi, Kec. Kadia, Kota Kendari, Sulawesi Tenggara 93117","Anaiwoi, Kec. Kadia, Kota Kendari",SULAWESI TENGGARA,93117.0,Indonesia,81343569978.0,,,-3.9889427,122.5056916,https://maps.google.com/?cid=0x0:0x11e2e112d79b0eca,
toko bangunan,Pusat Perbelanjaan,TOKO ZAM2,"M99C+PMW, Lakorua, Kec. Mawasangka Tengah, Kabupaten Buton, Sulawesi Tenggara","Kabupaten Buton, Sulawesi Tenggara",SULAWESI TENGGARA,,Indonesia,,,,-5.3306331,122.3717017,https://maps.google.com/?cid=0x0:0x1d8b135911347334,
toko bangunan,toko bangunan,Sulawesi Tenggara 93672,"Kabupaten Buton Utara, Sulawesi Tenggara","Kabupaten Buton Utara, Sulawesi Tenggara",SULAWESI TENGGARA,,Indonesia,,,,-4.6317181,123.0338767,https://maps.google.com/?cid=0x0:0x22ef5ef6963e0828,
toko bangunan,Toko Bahan Bangunan,Toko Bangunan Len-lin,"658F+7M2, Bangkudu, Kec. Kulisusu, Kabupaten Buton Utara, Sulawesi Tenggara 93672","Bangkudu, Kec. Kulisusu, Kabupaten Buton Utara",SULAWESI TENGGARA,93672.0,Indonesia,,,,-4.7843589,123.1741537,https://maps.google.com/?cid=0x0:0xa8db02c25b613413,
toko bangunan,Toko Bahan Bangunan,Toko muda karya,"8664+X45, Wamboule, Waode Buri, Kec. Kulisusu Utara, Kabupaten Buton Utara, Sulawesi Tenggara 93672","Wamboule, Waode Buri, Kec. Kulisusu Utara, Kabupaten Buton Utara",SULAWESI TENGGARA,93672.0,Indonesia,82299405615.0,,,-4.687873,123.205256,https://maps.google.com/?cid=0x0:0x4c5f442b7043f23,
toko bangunan,Toko bahan makanan,Agen Toko Usaha Baru,"659C+G9C, Bangkudu, Kec. Kulisusu, Kabupaten Buton Utara, Sulawesi Tenggara 93672","Bangkudu, Kec. Kulisusu, Kabupaten Buton Utara",SULAWESI TENGGARA,93672.0,Indonesia,,,,-4.7811906,123.1708892,https://maps.google.com/?cid=0x0:0xc1e0ab114ef3e2d4,
toko bangunan,Grosir Pembibitan Tanaman,"Toko Akbar (Menjual Alat Bangunan, Alat Pertanian, Alat Mesin Dll)","83J7+7VG, Jl. Poros Ereke - Buranga, depan pasar, Kec. Kulisusu Bar., Kabupaten Buton Utara, Sulawesi Tenggara 93672","Jl. Poros Ereke - Buranga, depan pasar, Kec. Kulisusu Bar., Kabupaten Buton Utara",SULAWESI TENGGARA,93672.0,Indonesia,82293102420.0,,,-4.6693063,123.0646895,https://maps.google.com/?cid=0x0:0x43cd5bdb50be4247,
toko bangunan,Toko Bahan Bangunan,UD. BERKAH ABADI,"656F+QHM, Lipu, Kec. Kulisusu, Kabupaten Buton Utara, Sulawesi Tenggara","Kabupaten Buton Utara, Sulawesi Tenggara",SULAWESI TENGGARA,,Indonesia,,,,-4.7880442,123.1739101,https://maps.google.com/?cid=0x0:0xf4ae845421c6e5d3,
toko bangunan,Balai Pertemuan Desa,desa lelamo,"8663+JFV, Waode Buri, Kec. Kulisusu Utara, Kabupaten Buton Utara, Sulawesi Tenggara 93672","Waode Buri, Kec. Kulisusu Utara, Kabupaten Buton Utara",SULAWESI TENGGARA,93672.0,Indonesia,,,,-4.6883881,123.2036871,https://maps.google.com/?cid=0x0:0x3aa76ddb896f2b21,
toko bangunan,Toko Bahan Bangunan,Toko Bahan Bangunan Batauga Jaya,"Jl. Poros, pasar, Masiri, Batauga, Kabupaten Buton, Sulawesi Tenggara 93752","pasar, Masiri, Batauga, Kabupaten Buton",SULAWESI TENGGARA,93752.0,Indonesia,81242299192.0,,,-5.6058423,122.5966813,https://maps.google.com/?cid=0x0:0xa23110e6ef30e0e6,
toko bangunan,Toko umum,Prima Alam Butur,"Jl. Raha Poros No.Desa, Laangke, Kec. Kulisusu, Kabupaten Buton Utara, Sulawesi Tenggara","Kabupaten Buton Utara, Sulawesi Tenggara",SULAWESI TENGGARA,,Indonesia,,,,-4.778215,123.177024,https://maps.google.com/?cid=0x0:0xdedf7b20c4ccfa3a,
toko bangunan,,Toko Jaya Bangunan,"Jl. Sultan Hasanuddin, Lasusua, Kec. Lasusua, Kabupaten Kolaka Utara, Sulawesi Tenggara 93911","Lasusua, Kec. Lasusua, Kabupaten Kolaka Utara",SULAWESI TENGGARA,93911.0,Indonesia,85255124222.0,,,-3.5043678,120.8867283,https://maps.google.com/?cid=0x0:0x7f49a94c3d5c8a31,
toko bangunan,toko bangunan,Sulawesi Tenggara 93671,Sulawesi Tenggara,Sulawesi Tenggara,SULAWESI TENGGARA,,Indonesia,,,,-4.5493643,122.9212265,https://maps.google.com/?cid=0x0:0xe8e004ff2b736d21,
toko bangunan,Kios,TB. Assyifah,"MFV3+3CJ, Lerepako, Kec. Laeya, Kabupaten Konawe Selatan, Sulawesi Tenggara 93881","Lerepako, Kec. Laeya, Kabupaten Konawe Selatan",SULAWESI TENGGARA,93881.0,Indonesia,81341710034.0,,,-4.3072765,122.4535215,https://maps.google.com/?cid=0x0:0x45d63ca5211559d4,
toko bangunan,Toko Bahan Bangunan,Toko Bangunan SURABAYA,"WFX3+JMV, Jl. Poros Bandara Haluoleo, RT.003/RW.002, Ranomeeto, Kec. Ranomeeto, Kabupaten Konawe Selatan, Sulawesi Tenggara 93871","Jl. Poros Bandara Haluoleo, RT.003/RW.002, Ranomeeto, Kec. Ranomeeto, Kabupaten Konawe Selatan",SULAWESI TENGGARA,93871.0,Indonesia,81230677707.0,,,-4.0508771,122.4541799,https://maps.google.com/?cid=0x0:0x68ef04c6cae719e5,
toko bangunan,Toko Perlengkapan Rumah,Tomu Jaya,"MF3X+WGF, Ambesea, Kec. Laeya, Kabupaten Konawe Selatan, Sulawesi Tenggara 93671","Ambesea, Kec. Laeya, Kabupaten Konawe Selatan",SULAWESI TENGGARA,93671.0,Indonesia,82298890650.0,,,-4.345189,122.4988097,https://maps.google.com/?cid=0x0:0x168da60177c3fedd,
toko bangunan,Toko,Toko Nurhikmah 1 (Pamandati),"Jl. Poros Kendari - Kolono, Pamandati, Kec. Lainea, Kabupaten Konawe Selatan, Sulawesi Tenggara 93881","Pamandati, Kec. Lainea, Kabupaten Konawe Selatan",SULAWESI TENGGARA,93881.0,Indonesia,82159992739.0,,,-4.3896594,122.5832125,https://maps.google.com/?cid=0x0:0x4aa66333070726e9,
toko bangunan,Toko Bahan Bangunan,Wiron Karya Timber. PT,"5PCC+296, Desa Nihi, Lawa Raha, Raha II, Kec. Katobu, Kabupaten Muna, Sulawesi Tenggara 93611","Desa Nihi, Lawa Raha, Raha II, Kec. Katobu, Kabupaten Muna",SULAWESI TENGGARA,93611.0,Indonesia,40322022.0,,,-4.82997,122.720876,https://maps.google.com/?cid=0x0:0x891fc709cd116355,
toko bangunan,Toko Bahan Bangunan,Tk AKBAR ABADI,"Jl. Poros Kendari - Torobulu, Laeya, Kec. Laeya, Kabupaten Konawe Selatan, Sulawesi Tenggara","Kabupaten Konawe Selatan, Sulawesi Tenggara",SULAWESI TENGGARA,,Indonesia,,,,-4.3555894,122.4844731,https://maps.google.com/?cid=0x0:0x8b8c53dd49e970f3,
toko bangunan,Toko Bahan Bangunan,Toko muda karya,"8664+X45, Wamboule, Waode Buri, Kec. Kulisusu Utara, Kabupaten Buton Utara, Sulawesi Tenggara 93672","Wamboule, Waode Buri, Kec. Kulisusu Utara, Kabupaten Buton Utara",SULAWESI TENGGARA,93672.0,Indonesia,82299405615.0,,,-4.687873,123.205256,https://maps.google.com/?cid=0x0:0x4c5f442b7043f23,
toko bangunan,Toko Bahan Bangunan,Toko Bahan Bangunan RAFA,"HF72+H9, Torobulu, Kec. Laeya, Kabupaten Konawe Selatan, Sulawesi Tenggara","Kabupaten Konawe Selatan, Sulawesi Tenggara",SULAWESI TENGGARA,,Indonesia,85399043230.0,,,-4.4360891,122.4509813,https://maps.google.com/?cid=0x0:0x535c71538fa95735,
toko bangunan,Toko Bahan Bangunan,Toko Gelora Jaya 1,"Jl. Poros Kendari - Andoolo, Anggondara, Kec. Palangga, Kabupaten Konawe Selatan, Sulawesi Tenggara 93883","Anggondara, Kec. Palangga, Kabupaten Konawe Selatan",SULAWESI TENGGARA,93883.0,Indonesia,82259364571.0,,,-4.3102255,122.4165002,https://maps.google.com/?cid=0x0:0xe7ce00ff34cb563c,
toko bangunan,Toko Bahan Bangunan,Toko Rizka Bangunan,"MCJ7+JV4, Mekar Sari, Kec. Palangga, Kabupaten Konawe Selatan, Sulawesi Tenggara 93883","Mekar Sari, Kec. Palangga, Kabupaten Konawe Selatan",SULAWESI TENGGARA,93883.0,Indonesia,,,,-4.3184864,122.4147005,https://maps.google.com/?cid=0x0:0x2607e1cf068286f7,
toko bangunan,Toko Bahan Bangunan,Toko bangunan ocha kamaru,"R3R7+JCH, Kamaru, Kec. Lasalimu, Kabupaten Buton, Sulawesi Tenggara","Kabupaten Buton, Sulawesi Tenggara",SULAWESI TENGGARA,,Indonesia,,,,-5.158434,123.063599,https://maps.google.com/?cid=0x0:0x4bf0d7f027ec609f,
toko bangunan,Toko Bahan Bangunan,Toko Harapan Bangunan,"5PMM+74G, Jl. Lumba-Lumba, Laiworu, Kec. Batalaiworu, Kabupaten Muna, Sulawesi Tenggara 93614","Jl. Lumba-Lumba, Laiworu, Kec. Batalaiworu, Kabupaten Muna",SULAWESI TENGGARA,93614.0,Indonesia,,,,-4.8168059,122.732831,https://maps.google.com/?cid=0x0:0x25ffca479507cc9a,
toko bangunan,Grosir Pembibitan Tanaman,"Toko Akbar (Menjual Alat Bangunan, Alat Pertanian, Alat Mesin Dll)","83J7+7VG, Jl. Poros Ereke - Buranga, depan pasar, Kec. Kulisusu Bar., Kabupaten Buton Utara, Sulawesi Tenggara 93672","Jl. Poros Ereke - Buranga, depan pasar, Kec. Kulisusu Bar., Kabupaten Buton Utara",SULAWESI TENGGARA,93672.0,Indonesia,82293102420.0,,,-4.6693063,123.0646895,https://maps.google.com/?cid=0x0:0x43cd5bdb50be4247,
toko bangunan,Pasar bahan bangunan,TOKO MEGA TAMA Wawotobi (Toko Bangunan),"Jl. Jend Sudirman No.17, Wawotobi, Kec. Wawotobi, Kabupaten Konawe, Sulawesi Tenggara 93461","Wawotobi, Kec. Wawotobi, Kabupaten Konawe",SULAWESI TENGGARA,93461.0,Indonesia,85216149991.0,,,-3.8766033,122.1086909,https://maps.google.com/?cid=0x0:0x6590efc314bd5d70,
toko bangunan,Toko Bahan Bangunan,Merkusi Karya Pratama. PT,"5P9C+J65, Desa Maperaha, Lawa Raha, Raha II, Kec. Katobu, Kabupaten Muna, Sulawesi Tenggara 93611","Desa Maperaha, Lawa Raha, Raha II, Kec. Katobu, Kabupaten Muna",SULAWESI TENGGARA,93611.0,Indonesia,40321039.0,,,-4.830997,122.720618,https://maps.google.com/?cid=0x0:0x989f34a5339dae31,
toko bangunan,Toko Bahan Bangunan,TOKO BM BANGUNAN,"Jl. Poros Bandara Haluoleo, Ranomeeto, Kec. Ranomeeto, Kabupaten Konawe Selatan, Sulawesi Tenggara 93870","Ranomeeto, Kec. Ranomeeto, Kabupaten Konawe Selatan",SULAWESI TENGGARA,93870.0,Indonesia,85256000132.0,,,-4.0511688,122.4539663,https://maps.google.com/?cid=0x0:0xc46893209ac52dc8,
toko bangunan,Toko Bahan Bangunan,Tb.Dewata,"V36Q+HJX, Jl. Poros Batuputih - Olooloho, Latali, Kec. Pakue Tengah, Kabupaten Kolaka Utara, Sulawesi Tenggara 93954","Jl. Poros Batuputih - Olooloho, Latali, Kec. Pakue Tengah, Kabupaten Kolaka Utara",SULAWESI TENGGARA,93954.0,Indonesia,895130809372.0,,,-3.138512,121.0891049,https://maps.google.com/?cid=0x0:0xe4af17b738ab7364,
toko bangunan,Toko Bahan Bangunan,Sinar Karunia,"Jl. Poros No.2, Wapae Jaya, Tiworo Tengah, Kabupaten Muna, Sulawesi Tenggara 93648","Wapae Jaya, Tiworo Tengah, Kabupaten Muna",SULAWESI TENGGARA,93648.0,Indonesia,81242222245.0,,,-4.8167409,122.4020923,https://maps.google.com/?cid=0x0:0x4e38fd0b930d486a,
toko bangunan,Toko Perlengkapan Rumah,Toko Kurniati,"2R87+JCM, Desa Pola, Kec. Pasir Putih, Kabupaten Muna, Sulawesi Tenggara 93674","Desa Pola, Kec. Pasir Putih, Kabupaten Muna",SULAWESI TENGGARA,93674.0,Indonesia,,,,-4.9834203,122.8135523,https://maps.google.com/?cid=0x0:0x25482553fc55cc36,
toko bangunan,Pemasok peralatan penanganan material,Aneka Bangunan,"7G2J+8HJ, Boeara, Kec. Poleang, Kabupaten Bombana, Sulawesi Tenggara 93772","Boeara, Kec. Poleang, Kabupaten Bombana",SULAWESI TENGGARA,93772.0,Indonesia,85399524995.0,,,-4.7491667,121.5313934,https://maps.google.com/?cid=0x0:0x99bf22a650293e7c,
toko bangunan,Toko Bahan Bangunan,Toko SAHABAT BANGUNAN Puosu Jaya (murah  bersahabat),"Poros konda - baruga + 1km setelah simpang Brimob, Jl. Brigjen Katamso, Puosu Jaya, Kec. Konda, Kabupaten Konawe Selatan, Sulawesi Tenggara 93870","Jl. Brigjen Katamso, Puosu Jaya, Kec. Konda, Kabupaten Konawe Selatan",SULAWESI TENGGARA,93870.0,Indonesia,82112427393.0,,,-4.060166,122.4713702,https://maps.google.com/?cid=0x0:0x7a3380da8aac272d,
toko bangunan,,UD. Mitra Bangunan raha,"5PMM+64M, Jl. Lumba-Lumba, Laiworu, Kec. Batalaiworu, Kabupaten Muna, Sulawesi Tenggara 93614","Jl. Lumba-Lumba, Laiworu, Kec. Batalaiworu, Kabupaten Muna",SULAWESI TENGGARA,93614.0,Indonesia,,,,-4.8169218,122.7328068,https://maps.google.com/?cid=0x0:0xcb0c30522e00e004,
toko bangunan,Pusat Perbelanjaan,Toko Cahaya Nelayan,"HCCX+RRF, Jl. Pelabuhan, Torobulu, Kec. Laeya, Kabupaten Konawe Selatan, Sulawesi Tenggara","Kabupaten Konawe Selatan, Sulawesi Tenggara",SULAWESI TENGGARA,,Indonesia,8114134569.0,,,-4.4279426,122.4495525,https://maps.google.com/?cid=0x0:0x520a7fdb6e13c4a1,
toko bangunan,Toko Bahan Bangunan,Tb. Rahmat,"MCQR+JCF, Jl. Poros Kendari - Andoolo, Rambu Rambu, Kec. Laeya, Kabupaten Konawe Selatan, Sulawesi Tenggara 93881","Jl. Poros Kendari - Andoolo, Rambu Rambu, Kec. Laeya, Kabupaten Konawe Selatan",SULAWESI TENGGARA,93881.0,Indonesia,,,,-4.3109407,122.4410564,https://maps.google.com/?cid=0x0:0xbc8adad1e422058b,
toko bangunan,Toko Bahan Bangunan,Toko Harapan Baru Bangunan,"Jl. Bunggasi No.19, Anduonohu, Kec. Poasia, Kota Kendari, Sulawesi Tenggara 93232","Anduonohu, Kec. Poasia, Kota Kendari",SULAWESI TENGGARA,93232.0,Indonesia,81243205350.0,,,-4.0002074,122.5416766,https://maps.google.com/?cid=0x0:0xc46eece10997898f,
toko bangunan,Toko,UD.ADHAM,"JH6P+FMV, jln poros pamandati konsel, Kaindi, Kec. Lainea, Kabupaten Konawe Selatan, Sulawesi Tenggara 93881","jln poros pamandati konsel, Kaindi, Kec. Lainea, Kabupaten Konawe Selatan",SULAWESI TENGGARA,93881.0,Indonesia,82187894243.0,,,-4.3887712,122.5866686,https://maps.google.com/?cid=0x0:0x75b387ac9ba52cde,
toko bangunan,Toko Bahan Bangunan,Toko Dian Jaya,"5PJF+2GF, Jl. Lumba-Lumba, Wamponiki, Kec. Katobu, Kabupaten Muna, Sulawesi Tenggara 93614","Jl. Lumba-Lumba, Wamponiki, Kec. Katobu, Kabupaten Muna",SULAWESI TENGGARA,93614.0,Indonesia,,,,-4.8199283,122.7237948,https://maps.google.com/?cid=0x0:0x1cc7c90b3fbefd9a,
toko bangunan,Toko Perlengkapan Rumah,Toko bangunan Sinar Jaya Raha,"Jl. Jend. Sudirman, Raha I, Kec. Katobu, Kabupaten Muna, Sulawesi Tenggara","Kabupaten Muna, Sulawesi Tenggara",SULAWESI TENGGARA,,Indonesia,81297776310.0,,,-4.8437193,122.7249394,https://maps.google.com/?cid=0x0:0xea69be720d849e4a,
hardware store,hardware store,Bonegunu,"Kec. Bonegunu, Kabupaten Buton Utara, Sulawesi Tenggara","Kabupaten Buton Utara, Sulawesi Tenggara",SULAWESI TENGGARA,,Indonesia,,,,-4.9090998,122.9775675,https://maps.google.com/?cid=0x0:0x1bb016a60812523f,
hardware store,hardware store,Kec. Bonegunu,"Kabupaten Buton Utara, Sulawesi Tenggara","Kabupaten Buton Utara, Sulawesi Tenggara",SULAWESI TENGGARA,,Indonesia,,,,-4.7816316,122.987157,https://maps.google.com/?cid=0x0:0xfc08f728c088efce,
hardware store,hardware store,Sulawesi Tenggara 93673,"Kabupaten Buton Utara, Sulawesi Tenggara","Kabupaten Buton Utara, Sulawesi Tenggara",SULAWESI TENGGARA,,Indonesia,,,,-4.900844,122.9663018,https://maps.google.com/?cid=0x0:0x9ba45992a80e927e,
hardware store,Toko Perlengkapan Rumah,UD ANGEL DWITHA,"Buranga, Kec. Bonegunu, Kabupaten Buton Utara, Sulawesi Tenggara 93673","Kec. Bonegunu, Kabupaten Buton Utara",SULAWESI TENGGARA,93673.0,Indonesia,82188587111.0,,,-4.8128254,122.9952874,https://maps.google.com/?cid=0x0:0x966b829a4312175e,
hardware store,Toko Bahan Bangunan,UD AZAM JAYA,"Pongkowulu, Ereke, Kabupaten Buton Utara, Sulawesi Tenggara 93674","Ereke, Kabupaten Buton Utara",SULAWESI TENGGARA,93674.0,Indonesia,82293885961.0,,,-5.0335889,122.9613499,https://maps.google.com/?cid=0x0:0x8249aa9c2f12d770,
hardware store,Toko Swalayan,UD Syafa`at,"5XQW+JQP, Upt. Burangga, Kec. Bonegunu, Kabupaten Buton Utara, Sulawesi Tenggara 93673","Upt. Burangga, Kec. Bonegunu, Kabupaten Buton Utara",SULAWESI TENGGARA,93673.0,Indonesia,82292416978.0,,,-4.8109124,122.9969531,https://maps.google.com/?cid=0x0:0xfa41f5f534e2032c,
hardware store,Minimarket,Toko Fadillah,"Dusun Tombuluruha, Balasuna, Bungi, Kabupaten Wakatobi, Sulawesi Tenggara 93792","Balasuna, Bungi, Kabupaten Wakatobi",SULAWESI TENGGARA,93792.0,Indonesia,81343732132.0,,,-5.5173851,123.7724196,https://maps.google.com/?cid=0x0:0x5cc18941abe90f9f,
hardware store,Minimarket,Toko Iska Jaya,"Jln. Poros jembatan langge, kaledupa selatan, Kec. Kaledupa, Kabupaten Wakatobi, Sulawesi Tenggara 93790","kaledupa selatan, Kec. Kaledupa, Kabupaten Wakatobi",SULAWESI TENGGARA,93790.0,Indonesia,81283542252.0,,,-5.5463681,123.8024891,https://maps.google.com/?cid=0x0:0x998e87ba599ec857,
hardware store,hardware store,Sulawesi Tenggara 93673,"Kabupaten Buton Utara, Sulawesi Tenggara","Kabupaten Buton Utara, Sulawesi Tenggara",SULAWESI TENGGARA,,Indonesia,,,,-4.900844,122.9663018,https://maps.google.com/?cid=0x0:0x9ba45992a80e927e,
hardware store,Toko Bahan Bangunan,UD AZAM JAYA,"Pongkowulu, Ereke, Kabupaten Buton Utara, Sulawesi Tenggara 93674","Ereke, Kabupaten Buton Utara",SULAWESI TENGGARA,93674.0,Indonesia,82293885961.0,,,-5.0335889,122.9613499,https://maps.google.com/?cid=0x0:0x8249aa9c2f12d770,
hardware store,hardware store,Toko Tumada Jaya,"VQMM+C4J, Tumada, Kec. Kapontori, Kabupaten Buton, Sulawesi Tenggara","Kabupaten Buton, Sulawesi Tenggara",SULAWESI TENGGARA,,Indonesia,82291191105.0,,,-5.1164004,122.7827699,https://maps.google.com/?cid=0x0:0x1b9515b00d10e46e,
hardware store,Balai Pertemuan Desa,desa lelamo,"8663+JFV, Waode Buri, Kec. Kulisusu Utara, Kabupaten Buton Utara, Sulawesi Tenggara 93672","Waode Buri, Kec. Kulisusu Utara, Kabupaten Buton Utara",SULAWESI TENGGARA,93672.0,Indonesia,,,,-4.6883881,123.2036871,https://maps.google.com/?cid=0x0:0x3aa76ddb896f2b21,
hardware store,Toko,Kios Mambulu (Barokah) Jaya Utama,"Jl. Poros Batauga, Dusun Laporoworu, Gn. Sejuk, Kec. Sampolawa, Kabupaten Buton, Sulawesi Tenggara 93753","Dusun Laporoworu, Gn. Sejuk, Kec. Sampolawa, Kabupaten Buton",SULAWESI TENGGARA,93753.0,Indonesia,,,,-5.5819375,122.7381875,https://maps.google.com/?cid=0x0:0xc02d319280ee6290,
hardware store,Toko Swalayan,TOKO SJ EREKE,"Toko Depan SMA 1, Bangkudu, Kec. Kulisusu, Kabupaten Buton Utara, Sulawesi Tenggara 93672","Bangkudu, Kec. Kulisusu, Kabupaten Buton Utara",SULAWESI TENGGARA,93672.0,Indonesia,852136809666.0,,,-4.7746887,123.1810154,https://maps.google.com/?cid=0x0:0xc19f67c30f078b3e,
hardware store,Pusat Perbelanjaan,Toko Al Desa Wolowa,"HWFJ+R6H, Wolowa, Kec. Wolowa, Kabupaten Buton, Sulawesi Tenggara 93754","Wolowa, Kec. Wolowa, Kabupaten Buton",SULAWESI TENGGARA,93754.0,Indonesia,85241575161.0,,,-5.4254282,122.9306093,https://maps.google.com/?cid=0x0:0x257f3848d5f68cbf,
hardware store,Toko Bahan Bangunan,Toko Bangunan Len-lin,"658F+7M2, Bangkudu, Kec. Kulisusu, Kabupaten Buton Utara, Sulawesi Tenggara 93672","Bangkudu, Kec. Kulisusu, Kabupaten Buton Utara",SULAWESI TENGGARA,93672.0,Indonesia,,,,-4.7843589,123.1741537,https://maps.google.com/?cid=0x0:0xa8db02c25b613413,
hardware store,Toko Bahan Bangunan,Toko Sumber Rezeki,"Jl. Pangeran Limboro, Banabungi, Kec. Ps. Wajo, Kabupaten Buton, Sulawesi Tenggara 93754","Banabungi, Kec. Ps. Wajo, Kabupaten Buton",SULAWESI TENGGARA,93754.0,Indonesia,85241637184.0,,,-5.5110635,122.8429251,https://maps.google.com/?cid=0x0:0x502705c8e2f51436,
hardware store,Toko Batu,Batu Bata Mas Joko Todanga,"Desa, Todanga, Kec. Kapontori, Kabupaten Buton, Sulawesi Tenggara 93755","Todanga, Kec. Kapontori, Kabupaten Buton",SULAWESI TENGGARA,93755.0,Indonesia,82193111191.0,,,-5.1010451,122.7951472,https://maps.google.com/?cid=0x0:0x9f942c763ff9e45,
hardware store,Toko Elektronik,Khalid Computer,"FVVQ+P2X, Patowonua, Kec. Lasusua, Kabupaten Kolaka Utara, Sulawesi Tenggara 93913","Patowonua, Kec. Lasusua, Kabupaten Kolaka Utara",SULAWESI TENGGARA,93913.0,Indonesia,,,,-3.505633,120.8876116,https://maps.google.com/?cid=0x0:0x456ac0b8ab8b1d3a,
hardware store,Toko Komputer,Master Computer,"Lasusua, Kec. Lasusua, Kabupaten Kolaka Utara, Sulawesi Tenggara 93913","Kec. Lasusua, Kabupaten Kolaka Utara",SULAWESI TENGGARA,93913.0,Indonesia,82293905310.0,,,-3.5074375,120.8840625,https://maps.google.com/?cid=0x0:0x660f55fdc2adc5f9,
hardware store,hardware store,Kec. Kulisusu,"Kabupaten Buton Utara, Sulawesi Tenggara","Kabupaten Buton Utara, Sulawesi Tenggara",SULAWESI TENGGARA,,Indonesia,,,,-4.7781796,123.1769285,https://maps.google.com/?cid=0x0:0x9da2bec4811cc68e,
hardware store,hardware store,Kec. Kulisusu Bar.,"Kabupaten Buton Utara, Sulawesi Tenggara","Kabupaten Buton Utara, Sulawesi Tenggara",SULAWESI TENGGARA,,Indonesia,,,,-4.6699172,123.0647304,https://maps.google.com/?cid=0x0:0x27dee32db48a1fc5,
hardware store,hardware store,Jual Beli Motor,"2GCC+Q6V, Korumba, Kec. Mandonga, Kota Kendari, Sulawesi Tenggara 93461","Korumba, Kec. Mandonga, Kota Kendari",SULAWESI TENGGARA,93461.0,Indonesia,8124350048.0,,,-3.9780035,122.5205363,https://maps.google.com/?cid=0x0:0xb5a2adfcaeae8e05,
hardware store,Toko Perlengkapan Rumah,KSL Timber  Hardware S/B,"Jalan besar lot 151, 71500 Tanjung Ipoh, Negeri Sembilan, Malaysia",Tanjung Ipoh,SULAWESI TENGGARA,71500.0,Indonesia,60136600666.0,,,2.7402994,102.1889696,https://maps.google.com/?cid=0x0:0x84999cf61c6d5fd9,
hardware store,hardware store,Sulawesi Tenggara 93672,"Kabupaten Buton Utara, Sulawesi Tenggara","Kabupaten Buton Utara, Sulawesi Tenggara",SULAWESI TENGGARA,,Indonesia,,,,-4.6317181,123.0338767,https://maps.google.com/?cid=0x0:0x22ef5ef6963e0828,
hardware store,Toko Bahan Bangunan,Toko Bangunan Len-lin,"658F+7M2, Bangkudu, Kec. Kulisusu, Kabupaten Buton Utara, Sulawesi Tenggara 93672","Bangkudu, Kec. Kulisusu, Kabupaten Buton Utara",SULAWESI TENGGARA,93672.0,Indonesia,,,,-4.7843589,123.1741537,https://maps.google.com/?cid=0x0:0xa8db02c25b613413,
hardware store,Toko Swalayan,TOKO SJ EREKE,"Toko Depan SMA 1, Bangkudu, Kec. Kulisusu, Kabupaten Buton Utara, Sulawesi Tenggara 93672","Bangkudu, Kec. Kulisusu, Kabupaten Buton Utara",SULAWESI TENGGARA,93672.0,Indonesia,852136809666.0,,,-4.7746887,123.1810154,https://maps.google.com/?cid=0x0:0xc19f67c30f078b3e,
hardware store,Toko Buku,Toko Fuad,"Jl. Poros pelabuhan, Lelamo, Kec. Kulisusu Utara, Kabupaten Buton Utara, Sulawesi Tenggara 93672","Lelamo, Kec. Kulisusu Utara, Kabupaten Buton Utara",SULAWESI TENGGARA,93672.0,Indonesia,82291602259.0,,,-4.683176,123.2064213,https://maps.google.com/?cid=0x0:0xeb1785209811a437,
hardware store,Toko,UD ZAHRA,"65FJ+6MH SDN 1 SARA EA, Bangkudu, Kec. Kulisusu, Kabupaten Buton Utara, Sulawesi Tenggara 93672","Bangkudu, Kec. Kulisusu, Kabupaten Buton Utara",SULAWESI TENGGARA,93672.0,Indonesia,82188885801.0,,,-4.7769306,123.1817239,https://maps.google.com/?cid=0x0:0xa8283e97f3cd64fb,
hardware store,Gudang,Toko Jawi Konstruksi,"Lanto, Kec. Murhum, Kota Bau-Bau, Sulawesi Tenggara 93717","Kec. Murhum, Kota Bau-Bau",SULAWESI TENGGARA,93717.0,Indonesia,82119453925.0,,,-5.4571169,122.5991928,https://maps.google.com/?cid=0x0:0xca0f712e7cb09266,
hardware store,Toko,Kios Mambulu (Barokah) Jaya Utama,"Jl. Poros Batauga, Dusun Laporoworu, Gn. Sejuk, Kec. Sampolawa, Kabupaten Buton, Sulawesi Tenggara 93753","Dusun Laporoworu, Gn. Sejuk, Kec. Sampolawa, Kabupaten Buton",SULAWESI TENGGARA,93753.0,Indonesia,,,,-5.5819375,122.7381875,https://maps.google.com/?cid=0x0:0xc02d319280ee6290,
hardware store,hardware store,,,,SULAWESI TENGGARA,,Indonesia,82293486588.0,,,-2.44565,117.8888,https://maps.google.com/?cid=0x0:0xde387e986ecf8e6c,
hardware store,Toserba,MR.DIY Lippo Buton,"Lippo Plaza Buton, Jl. Sultan Hasanuddin No.58, Batulo, Kec. Wolio, Kota Bau-Bau, Sulawesi Tenggara 93716","Jl. Sultan Hasanuddin No.58, Batulo, Kec. Wolio, Kota Bau-Bau",SULAWESI TENGGARA,93716.0,Indonesia,2130022789.0,,,-5.4610252,122.6195438,https://maps.google.com/?cid=0x0:0xa034470c6f876dce,
hardware store,Toko Bahan Bangunan,Sinar Berlian,"Jl. Brigjen Katamso No.3 A, Wale, Kec. Wolio, Kota Bau-Bau, Sulawesi Tenggara 93717","Wale, Kec. Wolio, Kota Bau-Bau",SULAWESI TENGGARA,93717.0,Indonesia,4022821413.0,,,-5.4564908,122.6048778,https://maps.google.com/?cid=0x0:0xa0c883fa27494e61,
hardware store,Toko,Toko Hakiki,"Jl. Dr. Wahidin No.106, Lamangga, Kec. Murhum, Kota Bau-Bau, Sulawesi Tenggara 93713","Lamangga, Kec. Murhum, Kota Bau-Bau",SULAWESI TENGGARA,93713.0,Indonesia,,,,-5.4632577,122.5967795,https://maps.google.com/?cid=0x0:0x99f9d6a11094f05a,
hardware store,Rumah Kayu,Toko(WDR) Tolandona,"JJMC+7C2, Tolandona Matanaeo, Kec. Sangia Wambulu, Kabupaten Buton, Sulawesi Tenggara 93761","Tolandona Matanaeo, Kec. Sangia Wambulu, Kabupaten Buton",SULAWESI TENGGARA,93761.0,Indonesia,,,,-5.3668257,122.6208758,https://maps.google.com/?cid=0x0:0x613247cb39b5b94b,
hardware store,Toko Bahan Bangunan,Toko Artha Dico,"PGRQ+FPV, Mone, Kec. Lakudo, Kabupaten Buton, Sulawesi Tenggara 93763","Mone, Kec. Lakudo, Kabupaten Buton",SULAWESI TENGGARA,93763.0,Indonesia,,,,-5.2587621,122.5392985,https://maps.google.com/?cid=0x0:0x58fdcf6296ac5fe3,
hardware store,Toko Bahan Bangunan,"MAXCELL DEPO TEKNIK  BANGUNAN | Toko Listrik, Elektronik, Furniture Kendari","Ex, Jl. Laode Hadi Jl. Brigjen M. Yoenoes No.149-159, Bende, Kadia, Kendari City, South East Sulawesi 93118","Jl. Laode Hadi Jl. Brigjen M. Yoenoes No.149-159, Bende, Kadia, Kendari City",SULAWESI TENGGARA,93118.0,Indonesia,4013192000.0,,,-3.992658,122.5139203,https://maps.google.com/?cid=0x0:0x8135d7de339a4cf7,
hardware store,Pusat Perbelanjaan,Toko Al Desa Wolowa,"HWFJ+R6H, Wolowa, Kec. Wolowa, Kabupaten Buton, Sulawesi Tenggara 93754","Wolowa, Kec. Wolowa, Kabupaten Buton",SULAWESI TENGGARA,93754.0,Indonesia,85241575161.0,,,-5.4254282,122.9306093,https://maps.google.com/?cid=0x0:0x257f3848d5f68cbf,
hardware store,Toko Bahan Bangunan,Toko Roda Mas 88,"Jl. Yos Sudarso No.88, Wale, Kec. Wolio, Kota Bau-Bau, Sulawesi Tenggara 93711","Wale, Kec. Wolio, Kota Bau-Bau",SULAWESI TENGGARA,93711.0,Indonesia,82193135333.0,,,-5.4563469,122.6042567,https://maps.google.com/?cid=0x0:0x668f3e5a4d1b1366,
hardware store,Toko Bahan Bangunan,Toko Pasti Jaya,"Jl. Bunga Seroja No.55D, Lahundape, Kec. Kendari Bar., Kota Kendari, Sulawesi Tenggara 93121","Lahundape, Kec. Kendari Bar., Kota Kendari",SULAWESI TENGGARA,93121.0,Indonesia,81341758888.0,,,-3.966904,122.5297047,https://maps.google.com/?cid=0x0:0xc9913ae5132901e0,
hardware store,Toko bahan makanan,Toko Daffa al-fazza,"Depan PM celluler, Jalan poros, Matara, Kec. Mawasangka, Sulawesi Tenggara 93762","Jalan poros, Matara, Kec. Mawasangka",SULAWESI TENGGARA,93762.0,Indonesia,82398087792.0,,,-5.3270481,122.3218269,https://maps.google.com/?cid=0x0:0xa32662af35ff0ce0,
hardware store,Toko Bahan Bangunan,Toko Bangunan Haffisa,"PHXG+2H7, Bombonawulu, Kec. Gu, Kabupaten Buton, Sulawesi Tenggara 93761","Bombonawulu, Kec. Gu, Kabupaten Buton",SULAWESI TENGGARA,93761.0,Indonesia,85399543612.0,,,-5.2524619,122.5764101,https://maps.google.com/?cid=0x0:0x664eed9514923bea,
hardware store,Toko Bahan Bangunan,Jual Bahan Bangunan,"Jl. Pahlawan Lorong Perumahan Bukitsari, Kadolo Katapi, Kec. Wolio, Kota Bau-Bau, Sulawesi Tenggara","Kota Bau-Bau, Sulawesi Tenggara",SULAWESI TENGGARA,,Indonesia,81341938700.0,,,-5.4687118,122.6346344,https://maps.google.com/?cid=0x0:0x5132938d11933fa2,
hardware store,Pusat Perbelanjaan,DEPO SM,"2H45+WVX, Jl. H. Banawula Sin Apoy, Puday, Kec. Abeli, Kota Kendari, Sulawesi Tenggara 93231","Jl. H. Banawula Sin Apoy, Puday, Kec. Abeli, Kota Kendari",SULAWESI TENGGARA,93231.0,Indonesia,85333379607.0,,,-3.9926265,122.5597487,https://maps.google.com/?cid=0x0:0x54303337dbcc033e,
hardware store,hardware store,nW8-aIS4Gt2ohbIP5qvDqAk,,,SULAWESI TENGGARA,,Indonesia,81271109313.0,,,-4.8369366,122.5891495,https://maps.google.com/?cid=0x0:0x1ac683bcbcada761,
hardware store,Toko Bahan Bangunan,Toko Surya bombana,"Jln,poros desa tappuahi, Kp. Baru, Kec. Rumbia Tengah, Kassipute, Sulawesi Tenggara 93771","Kp. Baru, Kec. Rumbia Tengah, Kassipute",SULAWESI TENGGARA,93771.0,Indonesia,81330257655.0,,,-4.7783788,122.0637334,https://maps.google.com/?cid=0x0:0x85c43ea922fbcd90,
hardware store,Toko Bahan Bangunan,BM JAYA MANDIRI,"jln buncis No.01, Kasimpa Jaya, Tiworo Sel., Muna Barat, Sulawesi Tenggara","Muna Barat, Sulawesi Tenggara",SULAWESI TENGGARA,,Indonesia,81367781032.0,,,-4.8745068,122.3922714,https://maps.google.com/?cid=0x0:0x17287a8b3aea5cf5,
hardware store,Toko Bahan Bangunan,Toko MILA JAYA,"MGJM+CHJ, Wongko Lakudo, Kec. Lakudo, Kabupaten Buton, Sulawesi Tenggara 93763","Wongko Lakudo, Kec. Lakudo, Kabupaten Buton",SULAWESI TENGGARA,93763.0,Indonesia,,,,-5.3189193,122.5338982,https://maps.google.com/?cid=0x0:0x60aa9ab12b677be,
hardware store,Toko Bahan Bangunan,Toko Sumber Rezeki,"Jl. Pangeran Limboro, Banabungi, Kec. Ps. Wajo, Kabupaten Buton, Sulawesi Tenggara 93754","Banabungi, Kec. Ps. Wajo, Kabupaten Buton",SULAWESI TENGGARA,93754.0,Indonesia,85241637184.0,,,-5.5110635,122.8429251,https://maps.google.com/?cid=0x0:0x502705c8e2f51436,
hardware store,Toko Perlengkapan Rumah,UD ANGEL DWITHA,"Buranga, Kec. Bonegunu, Kabupaten Buton Utara, Sulawesi Tenggara 93673","Kec. Bonegunu, Kabupaten Buton Utara",SULAWESI TENGGARA,93673.0,Indonesia,82188587111.0,,,-4.8128254,122.9952874,https://maps.google.com/?cid=0x0:0x966b829a4312175e,
hardware store,hardware store,Sulawesi Tenggara 93671,Sulawesi Tenggara,Sulawesi Tenggara,SULAWESI TENGGARA,,Indonesia,,,,-4.5493643,122.9212265,https://maps.google.com/?cid=0x0:0xe8e004ff2b736d21,
hardware store,Kios,TB. Assyifah,"MFV3+3CJ, Lerepako, Kec. Laeya, Kabupaten Konawe Selatan, Sulawesi Tenggara 93881","Lerepako, Kec. Laeya, Kabupaten Konawe Selatan",SULAWESI TENGGARA,93881.0,Indonesia,81341710034.0,,,-4.3072765,122.4535215,https://maps.google.com/?cid=0x0:0x45d63ca5211559d4,
hardware store,Toko Bahan Bangunan,Toko Gelora Jaya 1,"Jl. Poros Kendari - Andoolo, Anggondara, Kec. Palangga, Kabupaten Konawe Selatan, Sulawesi Tenggara 93883","Anggondara, Kec. Palangga, Kabupaten Konawe Selatan",SULAWESI TENGGARA,93883.0,Indonesia,82259364571.0,,,-4.3102255,122.4165002,https://maps.google.com/?cid=0x0:0xe7ce00ff34cb563c,
hardware store,Toko Bahan Bangunan,Sinar Karunia,"Jl. Poros No.2, Wapae Jaya, Tiworo Tengah, Kabupaten Muna, Sulawesi Tenggara 93648","Wapae Jaya, Tiworo Tengah, Kabupaten Muna",SULAWESI TENGGARA,93648.0,Indonesia,81242222245.0,,,-4.8167409,122.4020923,https://maps.google.com/?cid=0x0:0x4e38fd0b930d486a,
hardware store,Toko Bahan Bangunan,BM JAYA MANDIRI,"jln buncis No.01, Kasimpa Jaya, Tiworo Sel., Muna Barat, Sulawesi Tenggara","Muna Barat, Sulawesi Tenggara",SULAWESI TENGGARA,,Indonesia,81367781032.0,,,-4.8745068,122.3922714,https://maps.google.com/?cid=0x0:0x17287a8b3aea5cf5,
hardware store,Toko Bahan Bangunan,Tb Berkah Ilahi,"5CP3+RCP, Jl. Poros, barat, Wapae Jaya, Tiworo Tengah, Kabupaten Muna, Sulawesi Tenggara","Kabupaten Muna, Sulawesi Tenggara",SULAWESI TENGGARA,,Indonesia,82293224969.0,,,-4.8129136,122.4035644,https://maps.google.com/?cid=0x0:0xe2dd79e4878d7c06,
hardware store,hardware store,TB Syam Jaya,"HRJX+8G, Langgapulu, Kec. Kolono, Kabupaten Konawe Selatan, Sulawesi Tenggara","Kabupaten Konawe Selatan, Sulawesi Tenggara",SULAWESI TENGGARA,,Indonesia,,,,-4.4188942,122.8484435,https://maps.google.com/?cid=0x0:0xf6bf88f0ba40deec,
hardware store,Toko Bahan Bangunan,UD Sinar Buana Bangunan 02,"498H+2V2, desa kasimpa jaya, kecamatan tiworo selatan, Kasimpa Jaya, barat, Kabupaten Muna, Sulawesi Tenggara 93664","desa kasimpa jaya, kecamatan tiworo selatan, Kasimpa Jaya, barat, Kabupaten Muna",SULAWESI TENGGARA,93664.0,Indonesia,81341066455.0,,,-4.8849852,122.3796289,https://maps.google.com/?cid=0x0:0xcafff15f6b6eecec,
hardware store,Toko Perlengkapan Rumah,UD ANGEL DWITHA,"Buranga, Kec. Bonegunu, Kabupaten Buton Utara, Sulawesi Tenggara 93673","Kec. Bonegunu, Kabupaten Buton Utara",SULAWESI TENGGARA,93673.0,Indonesia,82188587111.0,,,-4.8128254,122.9952874,https://maps.google.com/?cid=0x0:0x966b829a4312175e,
hardware store,Toko Perlengkapan Rumah,KIOS 25 SANDHI,"Jl. Lumba-Lumba, Wamponiki, Kec. Katobu, Kabupaten Muna, Sulawesi Tenggara 93614","Wamponiki, Kec. Katobu, Kabupaten Muna",SULAWESI TENGGARA,93614.0,Indonesia,82348007500.0,,,-4.8181523,122.7332285,https://maps.google.com/?cid=0x0:0xe960260fe3eb6f2,
hardware store,Toko Bahan Bangunan,UD.SIMPANG TIGA,"Jalan poros kasimpa jaya, Parura Jaya, Kambara, Sulawesi Tenggara","Kambara, Sulawesi Tenggara",SULAWESI TENGGARA,,Indonesia,,,,-4.8705404,122.395916,https://maps.google.com/?cid=0x0:0x7d6c85696b04b389,
hardware store,Toko Bahan Bangunan,AQkilla mart korihi,"Korihi, Kec. Lohia, Kabupaten Muna, Sulawesi Tenggara","Kabupaten Muna, Sulawesi Tenggara",SULAWESI TENGGARA,,Indonesia,83897267786.0,,,-4.9119516,122.7268074,https://maps.google.com/?cid=0x0:0x97fab8dbcad6435f,
hardware store,,UD. Mitra Bangunan raha,"5PMM+64M, Jl. Lumba-Lumba, Laiworu, Kec. Batalaiworu, Kabupaten Muna, Sulawesi Tenggara 93614","Jl. Lumba-Lumba, Laiworu, Kec. Batalaiworu, Kabupaten Muna",SULAWESI TENGGARA,93614.0,Indonesia,,,,-4.8169218,122.7328068,https://maps.google.com/?cid=0x0:0xcb0c30522e00e004,
hardware store,Akuntan sewaan,Mr D.I.Y,"5P6G+744, Jl. Ahmad Yani, Kabupaten Muna, Sulawesi Tenggara 93611","Jl. Ahmad Yani, Kabupaten Muna",SULAWESI TENGGARA,93611.0,Indonesia,,,,-4.8394031,122.7252278,https://maps.google.com/?cid=0x0:0x2dbeeba2ef5f3086,
hardware store,Dealer Sepeda Motor,Astra Motor Konsel,"Punggaluku, Kec. Laeya, Kabupaten Konawe Selatan, Sulawesi Tenggara 93381","Kec. Laeya, Kabupaten Konawe Selatan",SULAWESI TENGGARA,93381.0,Indonesia,85232429735.0,,,-4.3086475,122.4777287,https://maps.google.com/?cid=0x0:0x87708e78e287a652,
hardware store,Toko Bahan Bangunan,Nur Fika Jaya,"Labone, Kec. Lasalepa, Kabupaten Muna, Sulawesi Tenggara 93654","Kec. Lasalepa, Kabupaten Muna",SULAWESI TENGGARA,93654.0,Indonesia,82292945404.0,,,-4.7314961,122.7272026,https://maps.google.com/?cid=0x0:0x84819ef8b79923b3,
hardware store,Toko,Toko As-Syifa,"JF6J+54Q, Jl. Poros Kendari - Torobulu, Landetalo, Kec. Laeya, Kabupaten Konawe Selatan, Sulawesi Tenggara 93881","Jl. Poros Kendari - Torobulu, Landetalo, Kec. Laeya, Kabupaten Konawe Selatan",SULAWESI TENGGARA,93881.0,Indonesia,,,,-4.3895309,122.4803656,https://maps.google.com/?cid=0x0:0xda7f68bda2443d2f,
home improvement,home improvement,Bonegunu,"Kec. Bonegunu, Kabupaten Buton Utara, Sulawesi Tenggara","Kabupaten Buton Utara, Sulawesi Tenggara",SULAWESI TENGGARA,,Indonesia,,,,-4.9090998,122.9775675,https://maps.google.com/?cid=0x0:0x1bb016a60812523f,
home improvement,home improvement,Kec. Bonegunu,"Kabupaten Buton Utara, Sulawesi Tenggara","Kabupaten Buton Utara, Sulawesi Tenggara",SULAWESI TENGGARA,,Indonesia,,,,-4.7816316,122.987157,https://maps.google.com/?cid=0x0:0xfc08f728c088efce,
home improvement,home improvement,Sulawesi Tenggara 93673,"Kabupaten Buton Utara, Sulawesi Tenggara","Kabupaten Buton Utara, Sulawesi Tenggara",SULAWESI TENGGARA,,Indonesia,,,,-4.900844,122.9663018,https://maps.google.com/?cid=0x0:0x9ba45992a80e927e,
home improvement,,home industri,"Banabungi, Kec. Ps. Wajo, Kabupaten Buton, Sulawesi Tenggara 93754","Kec. Ps. Wajo, Kabupaten Buton",SULAWESI TENGGARA,93754.0,Indonesia,81242922650.0,,,-5.5198611,122.8418303,https://maps.google.com/?cid=0x0:0xc4814472808dc153,
home improvement,Toko Mebel,AQILAH BANGUN SARI MEBEL,"Bangkudu, Kec. Kulisusu, Kabupaten Buton Utara, Sulawesi Tenggara 93672","Kec. Kulisusu, Kabupaten Buton Utara",SULAWESI TENGGARA,93672.0,Indonesia,81356071345.0,,,-4.7789767,123.1807404,https://maps.google.com/?cid=0x0:0xc0a0814310883b98,
home improvement,Kantor Perusahaan,H2 Furniture Butur,"Terminal Lama Kel, Lipu, Kabupaten Buton Utara, Sulawesi Tenggara 93672","Lipu, Kabupaten Buton Utara",SULAWESI TENGGARA,93672.0,Indonesia,82259719864.0,,,-4.7768209,123.1733723,https://maps.google.com/?cid=0x0:0xc1ae25c64c982ab7,
home improvement,Komplek perumahan,Rumah yusuf,"desa lakansai, Kec. Kulisusu Utara, Kabupaten Buton Utara, Sulawesi Tenggara","Kabupaten Buton Utara, Sulawesi Tenggara",SULAWESI TENGGARA,,Indonesia,,,,-4.5297973,123.1573009,https://maps.google.com/?cid=0x0:0x1009fcccfa9121bc,
home improvement,Toko Mebel,UD. SYAKILA MEUBEL,"65VH+WCQ, Jln. Poros, Jl. Poros Kalibu Jl. Poros Ereke - Buranga, waode buri, Kabupaten Buton Utara","Kabupaten Buton Utara, Sulawesi Tenggara",SULAWESI TENGGARA,,Indonesia,,,,-4.7551576,123.1786024,https://maps.google.com/?cid=0x0:0x94cac734cf2d78ed,
home improvement,Perusahaan Konstruksi,CV.DUA CIKOOLS BERSAUDARA,"Jl. Laode Ana, Ps. Wajo, Kec. Ps. Wajo, Kabupaten Buton, Sulawesi Tenggara 93754","Ps. Wajo, Kec. Ps. Wajo, Kabupaten Buton",SULAWESI TENGGARA,93754.0,Indonesia,82191918008.0,,,-5.4971335,122.8457164,https://maps.google.com/?cid=0x0:0x2f52c4b8bd59672,
home improvement,Toko Mebel,BILAL MEUBEL WABULA (BMW),"R3Q5+VFX, Kamaru, Kec. Lasalimu, Kabupaten Buton, Sulawesi Tenggara 93756","Kamaru, Kec. Lasalimu, Kabupaten Buton",SULAWESI TENGGARA,93756.0,Indonesia,82261950733.0,,,-5.1603068,123.0586312,https://maps.google.com/?cid=0x0:0xb25ce16c960a10be,
home improvement,Toko Mebel Rotan,Toko aking,"55RF+5JG, Unnamed Road, Linsowu, Kec. Kulisusu, Kabupaten Buton Utara, Sulawesi Tenggara 93672","Unnamed Road, Linsowu, Kec. Kulisusu, Kabupaten Buton Utara",SULAWESI TENGGARA,93672.0,Indonesia,,,,-4.809562,123.1740851,https://maps.google.com/?cid=0x0:0xc31ce94590d6e43f,
home improvement,Toko Bahan Bangunan,Toko Bangunan Haffisa,"PHXG+2H7, Bombonawulu, Kec. Gu, Kabupaten Buton, Sulawesi Tenggara 93761","Bombonawulu, Kec. Gu, Kabupaten Buton",SULAWESI TENGGARA,93761.0,Indonesia,85399543612.0,,,-5.2524619,122.5764101,https://maps.google.com/?cid=0x0:0x664eed9514923bea,
home improvement,Toko Roti,HOME INDUSTRI,"8625+73X, Ulu Nambo, Kec. Kulisusu Utara, Kabupaten Buton Utara, Sulawesi Tenggara 93672","Ulu Nambo, Kec. Kulisusu Utara, Kabupaten Buton Utara",SULAWESI TENGGARA,93672.0,Indonesia,,,,-4.6992766,123.2077253,https://maps.google.com/?cid=0x0:0xd1a40bf6af858b86,
home improvement,home improvement,Kec. Kulisusu,"Kabupaten Buton Utara, Sulawesi Tenggara","Kabupaten Buton Utara, Sulawesi Tenggara",SULAWESI TENGGARA,,Indonesia,,,,-4.7781796,123.1769285,https://maps.google.com/?cid=0x0:0x9da2bec4811cc68e,
home improvement,Pembangunan Perumahan,Imam Tenda,"65FG+28F, Bangkudu, Kec. Kulisusu, Kabupaten Buton Utara, Sulawesi Tenggara 93672","Bangkudu, Kec. Kulisusu, Kabupaten Buton Utara",SULAWESI TENGGARA,93672.0,Indonesia,,,,-4.7773818,123.1758956,https://maps.google.com/?cid=0x0:0xbb053edc9f39afd9,
home improvement,home improvement,Sulawesi,,,SULAWESI TENGGARA,,Indonesia,,,,-1.8479,120.5279,https://maps.google.com/?cid=0x0:0xbc9a51d168f47742,
home improvement,home improvement,Kali Susu,"Distrik Nabire, Kabupaten Nabire, Papua","Kabupaten Nabire, Papua",SULAWESI TENGGARA,,Indonesia,,,,-3.358954,135.5122317,https://maps.google.com/?cid=0x0:0x644f9d3e8f4b6ca7,
home improvement,Pertanian Organik,BTN Huko Huko Lorong 6 Nomor 9,"RMC3+8G4, Unnamed Road, Huko Huko, Kec. Pomalaa, Kabupaten Kolaka, Sulawesi Tenggara 93562","Unnamed Road, Huko Huko, Kec. Pomalaa, Kabupaten Kolaka",SULAWESI TENGGARA,93562.0,Indonesia,81355500054.0,,,-4.1792273,121.6538162,https://maps.google.com/?cid=0x0:0x5dabbd6ceee078d,
home improvement,home improvement,Kec. Kulisusu Bar.,"Kabupaten Buton Utara, Sulawesi Tenggara","Kabupaten Buton Utara, Sulawesi Tenggara",SULAWESI TENGGARA,,Indonesia,,,,-4.6699172,123.0647304,https://maps.google.com/?cid=0x0:0x27dee32db48a1fc5,
home improvement,Komplek perumahan,Home Gallery,"72XM+3H6 Kantor PAN, Kotawo, Kec. Kulisusu Bar., Kabupaten Buton Utara, Sulawesi Tenggara","Kabupaten Buton Utara, Sulawesi Tenggara",SULAWESI TENGGARA,,Indonesia,,,,-4.7023424,123.0338767,https://maps.google.com/?cid=0x0:0x7d34a9edf364a7be,
home improvement,Komplek perumahan,My home,"F566+3F9, Desa, Jaya, Kec. Kulisusu Utara, Kabupaten Buton Utara, Sulawesi Tenggara","Kabupaten Buton Utara, Sulawesi Tenggara",SULAWESI TENGGARA,,Indonesia,,,,-4.540744,123.161767,https://maps.google.com/?cid=0x0:0xf19ec3ff3aad4f71,
home improvement,home improvement,Sulawesi Tenggara 93672,"Kabupaten Buton Utara, Sulawesi Tenggara","Kabupaten Buton Utara, Sulawesi Tenggara",SULAWESI TENGGARA,,Indonesia,,,,-4.6317181,123.0338767,https://maps.google.com/?cid=0x0:0x22ef5ef6963e0828,
home improvement,Toko Mebel,AQILAH BANGUN SARI MEBEL,"Bangkudu, Kec. Kulisusu, Kabupaten Buton Utara, Sulawesi Tenggara 93672","Kec. Kulisusu, Kabupaten Buton Utara",SULAWESI TENGGARA,93672.0,Indonesia,81356071345.0,,,-4.7789767,123.1807404,https://maps.google.com/?cid=0x0:0xc0a0814310883b98,
home improvement,Toko Roti,HOME INDUSTRI,"8625+73X, Ulu Nambo, Kec. Kulisusu Utara, Kabupaten Buton Utara, Sulawesi Tenggara 93672","Ulu Nambo, Kec. Kulisusu Utara, Kabupaten Buton Utara",SULAWESI TENGGARA,93672.0,Indonesia,,,,-4.6992766,123.2077253,https://maps.google.com/?cid=0x0:0xd1a40bf6af858b86,
home improvement,Toko Bahan Bangunan,IzzieHome Baubau,"Batulo, Kec. Wolio, Kota Bau-Bau, Sulawesi Tenggara 93717","Kec. Wolio, Kota Bau-Bau",SULAWESI TENGGARA,93717.0,Indonesia,4022821377.0,,,-5.4592394,122.6140646,https://maps.google.com/?cid=0x0:0x63f4893b60e877da,
home improvement,Komplek perumahan,Rumah yusuf,"desa lakansai, Kec. Kulisusu Utara, Kabupaten Buton Utara, Sulawesi Tenggara","Kabupaten Buton Utara, Sulawesi Tenggara",SULAWESI TENGGARA,,Indonesia,,,,-4.5297973,123.1573009,https://maps.google.com/?cid=0x0:0x1009fcccfa9121bc,
home improvement,Pembangunan Perumahan,Imam Tenda,"65FG+28F, Bangkudu, Kec. Kulisusu, Kabupaten Buton Utara, Sulawesi Tenggara 93672","Bangkudu, Kec. Kulisusu, Kabupaten Buton Utara",SULAWESI TENGGARA,93672.0,Indonesia,,,,-4.7773818,123.1758956,https://maps.google.com/?cid=0x0:0xbb053edc9f39afd9,
home improvement,Kantor Perusahaan,H2 Furniture Butur,"Terminal Lama Kel, Lipu, Kabupaten Buton Utara, Sulawesi Tenggara 93672","Lipu, Kabupaten Buton Utara",SULAWESI TENGGARA,93672.0,Indonesia,82259719864.0,,,-4.7768209,123.1733723,https://maps.google.com/?cid=0x0:0xc1ae25c64c982ab7,
home improvement,Toko Mebel,UD. SYAKILA MEUBEL,"65VH+WCQ, Jln. Poros, Jl. Poros Kalibu Jl. Poros Ereke - Buranga, waode buri, Kabupaten Buton Utara","Kabupaten Buton Utara, Sulawesi Tenggara",SULAWESI TENGGARA,,Indonesia,,,,-4.7551576,123.1786024,https://maps.google.com/?cid=0x0:0x94cac734cf2d78ed,
home improvement,Pasar bahan bangunan,Intan Building Center,"Jl. Budi Utomo No.90, Bataraguru, Kec. Wolio, Kota Bau-Bau, Sulawesi Tenggara 93717","Bataraguru, Kec. Wolio, Kota Bau-Bau",SULAWESI TENGGARA,93717.0,Indonesia,82292888886.0,,,-5.4658703,122.607269,https://maps.google.com/?cid=0x0:0xdd0e5cfd517f12e5,
home improvement,Toko Bahan Bangunan,Toko muda karya,"8664+X45, Wamboule, Waode Buri, Kec. Kulisusu Utara, Kabupaten Buton Utara, Sulawesi Tenggara 93672","Wamboule, Waode Buri, Kec. Kulisusu Utara, Kabupaten Buton Utara",SULAWESI TENGGARA,93672.0,Indonesia,82299405615.0,,,-4.687873,123.205256,https://maps.google.com/?cid=0x0:0x4c5f442b7043f23,
home improvement,Toko Perlengkapan Rumah,Toraja Meubel,"Samping Kantor BRI lama, Jl. Laode Gure, Bangkudu, Kec. Kulisusu, Kabupaten Buton Utara, Sulawesi Tenggara 93672","Jl. Laode Gure, Bangkudu, Kec. Kulisusu, Kabupaten Buton Utara",SULAWESI TENGGARA,93672.0,Indonesia,85241831988.0,,,-4.7801558,123.1757241,https://maps.google.com/?cid=0x0:0xafcd5184645f1b7d,
home improvement,Toko,PT LAODE MUSTAMIN,"65PG+6JJ, Jl. Murhum, desa laangke, Kec. Kulisusu, Kabupaten Buton Utara, Sulawesi Tenggara 93672","Jl. Murhum, desa laangke, Kec. Kulisusu, Kabupaten Buton Utara",SULAWESI TENGGARA,93672.0,Indonesia,,,,-4.7636423,123.1762148,https://maps.google.com/?cid=0x0:0xa2c39c72a7b677b,
home improvement,Bengkel Sepeda Motor,Rm.Afal,"F575+WX4, Jl. Labuan-Ereke/Bangkudu, Lamoahi, Kec. Kulisusu Utara, Kabupaten Buton Utara, Sulawesi Tenggara 93672","Jl. Labuan-Ereke/Bangkudu, Lamoahi, Kec. Kulisusu Utara, Kabupaten Buton Utara",SULAWESI TENGGARA,93672.0,Indonesia,,,,-4.5347604,123.1601464,https://maps.google.com/?cid=0x0:0x431a2ab50d53795,
home improvement,Servis Komputer,Servis Komputer KoodiPC,"Ulu Nambo, Kec. Kulisusu Utara, Kabupaten Buton Utara, Sulawesi Tenggara 93672","Kec. Kulisusu Utara, Kabupaten Buton Utara",SULAWESI TENGGARA,93672.0,Indonesia,82291029109.0,,,-4.7002782,123.2043849,https://maps.google.com/?cid=0x0:0xf72b366ebc0a5939,
home improvement,Komplek perumahan,Home Gallery,"72XM+3H6 Kantor PAN, Kotawo, Kec. Kulisusu Bar., Kabupaten Buton Utara, Sulawesi Tenggara","Kabupaten Buton Utara, Sulawesi Tenggara",SULAWESI TENGGARA,,Indonesia,,,,-4.7023424,123.0338767,https://maps.google.com/?cid=0x0:0x7d34a9edf364a7be,
home improvement,Jasa Konstruksi dan Bangunan,CV. PODJOK KALIBU,"65VH+VVQ, Jl. Poros Kalibu, Loji, Kec. Kulisusu, Kabupaten Buton Utara, Sulawesi Tenggara 93672","Jl. Poros Kalibu, Loji, Kec. Kulisusu, Kabupaten Buton Utara",SULAWESI TENGGARA,93672.0,Indonesia,,,,-4.7553074,123.1797576,https://maps.google.com/?cid=0x0:0xf1bc9c2e1e92cff3,
home improvement,home improvement,,,,SULAWESI TENGGARA,,Indonesia,81341230406.0,,,-5.4710754,122.6063884,https://maps.google.com/?cid=0x0:0x69ac12b56ca37d37,
home improvement,Toserba,MR.DIY Lippo Buton,"Lippo Plaza Buton, Jl. Sultan Hasanuddin No.58, Batulo, Kec. Wolio, Kota Bau-Bau, Sulawesi Tenggara 93716","Jl. Sultan Hasanuddin No.58, Batulo, Kec. Wolio, Kota Bau-Bau",SULAWESI TENGGARA,93716.0,Indonesia,2130022789.0,,,-5.4610252,122.6195438,https://maps.google.com/?cid=0x0:0xa034470c6f876dce,
home improvement,Toko Mebel,Pengolahan rotan,"76Q2+PJ, Tomoahi, Kec. Kulisusu, Kabupaten Buton Utara, Sulawesi Tenggara","Kabupaten Buton Utara, Sulawesi Tenggara",SULAWESI TENGGARA,,Indonesia,,,,-4.7106704,123.2016551,https://maps.google.com/?cid=0x0:0xf68341d67aad42e4,
home improvement,Toko Mebel Rotan,Toko aking,"55RF+5JG, Unnamed Road, Linsowu, Kec. Kulisusu, Kabupaten Buton Utara, Sulawesi Tenggara 93672","Unnamed Road, Linsowu, Kec. Kulisusu, Kabupaten Buton Utara",SULAWESI TENGGARA,93672.0,Indonesia,,,,-4.809562,123.1740851,https://maps.google.com/?cid=0x0:0xc31ce94590d6e43f,
home improvement,Kontraktor Umum,BLT punya rumah,"65GG+RVW, Bangkudu, Kec. Kulisusu, Kabupaten Buton Utara, Sulawesi Tenggara 93672","Bangkudu, Kec. Kulisusu, Kabupaten Buton Utara",SULAWESI TENGGARA,93672.0,Indonesia,,,,-4.7728875,123.1772031,https://maps.google.com/?cid=0x0:0xf11c4a7276d59de9,
home improvement,Jasa Konstruksi dan Bangunan,PT BERLIAN LAANGKE,"65PG+6JJ, Jl. Murhum, desa laangke, Kec. Kulisusu, Kabupaten Buton Utara, Sulawesi Tenggara 93672","Jl. Murhum, desa laangke, Kec. Kulisusu, Kabupaten Buton Utara",SULAWESI TENGGARA,93672.0,Indonesia,,,,-4.7636423,123.1762148,https://maps.google.com/?cid=0x0:0xd6e6df634600bada,
home improvement,home improvement,Sulawesi Tenggara 93671,Sulawesi Tenggara,Sulawesi Tenggara,SULAWESI TENGGARA,,Indonesia,,,,-4.5493643,122.9212265,https://maps.google.com/?cid=0x0:0xe8e004ff2b736d21,
home improvement,Jasa Konstruksi dan Bangunan,MEUBEL (RATNADI),"2WCM+P3F, Lahumoko(Tri Mulya), Kec. Kambowa, Kabupaten Buton Utara, Sulawesi Tenggara","Kabupaten Buton Utara, Sulawesi Tenggara",SULAWESI TENGGARA,,Indonesia,,,,-4.977843,122.9326903,https://maps.google.com/?cid=0x0:0xf4e23953e03b095e,
home improvement,Jasa Konstruksi dan Bangunan,MEUBEL Pak Jumadi,"2WFJ+85, Lahumoko(Tri Mulya), Kec. Kambowa, Kabupaten Buton Utara, Sulawesi Tenggara","Kabupaten Buton Utara, Sulawesi Tenggara",SULAWESI TENGGARA,,Indonesia,,,,-4.9765393,122.9303149,https://maps.google.com/?cid=0x0:0x16313d9699223f1a,
home improvement,,"WAKADIA SAHUR RENTAL EXCAVATOR, TRONTON, DUMP TRUK","6J3M+R29, Wakadia, Kec. Watopute, Kabupaten Muna, Sulawesi Tenggara","Kabupaten Muna, Sulawesi Tenggara",SULAWESI TENGGARA,,Indonesia,85280007661.0,,,-4.795454,122.6326216,https://maps.google.com/?cid=0x0:0xb8237cfbb6afd696,
home improvement,Inspektur Tempat Tinggal,Indomitrauniversal,"Jl. Lumba-Lumba, RT./RW/RW.002/004, Laiworu, Kec. Batalaiworu, Kabupaten Muna, Sulawesi Tenggara 93614","RT./RW/RW.002/004, Laiworu, Kec. Batalaiworu, Kabupaten Muna",SULAWESI TENGGARA,93614.0,Indonesia,82293314746.0,,,-4.8170416,122.7302201,https://maps.google.com/?cid=0x0:0x651efe50c1b2cb88,
home improvement,Toko Mebel,Naura meubel,"JH67+GW5, Watumeeto, Kec. Lainea, Kabupaten Konawe Selatan, Sulawesi Tenggara","Kabupaten Konawe Selatan, Sulawesi Tenggara",SULAWESI TENGGARA,,Indonesia,81299955771.0,,,-4.3887447,122.5648579,https://maps.google.com/?cid=0x0:0x87f82084105770d6,
home improvement,Toko Mebel,Tokoh Lemari Alumunium,"MFRH+M5W, Punggaluku, Kec. Laeya, Kabupaten Konawe Selatan, Sulawesi Tenggara 93881","Punggaluku, Kec. Laeya, Kabupaten Konawe Selatan",SULAWESI TENGGARA,93881.0,Indonesia,85314562222.0,,,-4.308593,122.4781116,https://maps.google.com/?cid=0x0:0xfef5f2d1f1e5c1e3,
home improvement,Jasa Konstruksi dan Bangunan,MEUBEL ARUNI BATU PUTIH,"HQJR+W4W, Batu Putih, Kec. Kolono, Kabupaten Konawe Selatan, Sulawesi Tenggara","Kabupaten Konawe Selatan, Sulawesi Tenggara",SULAWESI TENGGARA,,Indonesia,85241721670.0,,,-4.4175785,122.7902512,https://maps.google.com/?cid=0x0:0xd69773dd3f8d24e1,
home improvement,Tukang Kayu,Karwin Carpenter,"Bangun Sari, Kec. Lasalepa, Kabupaten Muna, Sulawesi Tenggara","Kabupaten Muna, Sulawesi Tenggara",SULAWESI TENGGARA,,Indonesia,82297085017.0,,,-4.7688256,122.6864636,https://maps.google.com/?cid=0x0:0x77824a0861cf8ea9,
home improvement,Jasa Konstruksi dan Bangunan,SHONAN LAS Jln. Ir. Soekarno - Ghonsume,"Jln. Ir. Soekarno, Ghonsume, Kec. Duruka, Kabupaten Muna, Sulawesi Tenggara 93617","Ghonsume, Kec. Duruka, Kabupaten Muna",SULAWESI TENGGARA,93617.0,Indonesia,,,,-4.8726182,122.7154427,https://maps.google.com/?cid=0x0:0x1779b44badafe921,
home improvement,Developer Rumah Hunian Khusus,UD. RARA SINAR SEDERHANA,"4P76+FV8, Waara, Kec. Lohia, Kabupaten Muna, Sulawesi Tenggara 93659","Waara, Kec. Lohia, Kabupaten Muna",SULAWESI TENGGARA,93659.0,Indonesia,85257882334.0,,,-4.8863398,122.7122012,https://maps.google.com/?cid=0x0:0xad5d0970ee967c42,
home improvement,Perusahaan Konstruksi,MEUBEL HASUDA,"9PG2+4PJ, Tampo, Kec. Napabalano, Kabupaten Muna, Sulawesi Tenggara 93654","Tampo, Kec. Napabalano, Kabupaten Muna",SULAWESI TENGGARA,93654.0,Indonesia,81219016079.0,,,-4.6246699,122.7017521,https://maps.google.com/?cid=0x0:0x5d2408b43be66cbf,
home improvement,Toko Mebel,JATI RAHA BAROKAH,"Laiworu, Kec. Batalaiworu, Kabupaten Muna, Sulawesi Tenggara 93614","Kec. Batalaiworu, Kabupaten Muna",SULAWESI TENGGARA,93614.0,Indonesia,85299805566.0,,,-4.8189575,122.725934,https://maps.google.com/?cid=0x0:0x3649bc2a2d952f82,
home improvement,Jasa Konstruksi dan Bangunan,Adham gypsum,"Jl. Jambu Mente, Butung-Butung, Kec. Katobu, Kabupaten Muna, Sulawesi Tenggara 93611","Butung-Butung, Kec. Katobu, Kabupaten Muna",SULAWESI TENGGARA,93611.0,Indonesia,85340860960.0,,,-4.8304939,122.7229106,https://maps.google.com/?cid=0x0:0xb454073f40b522dc,
home improvement,Toko Lemari,Wawouru blok H,"MCC5+P8W, Wawouru, Kec. Palangga, Kabupaten Konawe Selatan, Sulawesi Tenggara 93883","Wawouru, Kec. Palangga, Kabupaten Konawe Selatan",SULAWESI TENGGARA,93883.0,Indonesia,,,,-4.3281412,122.4083326,https://maps.google.com/?cid=0x0:0x1e543ef6931a9733,
home improvement,Akuntan sewaan,Mr D.I.Y,"5P6G+744, Jl. Ahmad Yani, Kabupaten Muna, Sulawesi Tenggara 93611","Jl. Ahmad Yani, Kabupaten Muna",SULAWESI TENGGARA,93611.0,Indonesia,,,,-4.8394031,122.7252278,https://maps.google.com/?cid=0x0:0x2dbeeba2ef5f3086,
home improvement,Produsen,Industri Percetakan Batu Merah Trans,"2WM5+GXG, Jl. Pisang jl.nanas, Lahumoko(Tri Mulya), Kec. Kambowa, Kabupaten Buton Utara, Sulawesi Tenggara","Kabupaten Buton Utara, Sulawesi Tenggara",SULAWESI TENGGARA,,Indonesia,,,,-4.9661786,122.9099545,https://maps.google.com/?cid=0x0:0xaf3f6d7d2ea8cb09,
home improvement,Kontraktor Umum,Wulandari Perkasa. PT,"JL. Kelinci, No. 41 RT. 03 RW. 02, Raha III, Raha III, Kec. Katobu, Kabupaten Muna, Sulawesi Tenggara 93614","No. 41 RT. 03 RW. 02, Raha III, Raha III, Kec. Katobu, Kabupaten Muna",SULAWESI TENGGARA,93614.0,Indonesia,4032521316.0,,,-4.8181228,122.7096578,https://maps.google.com/?cid=0x0:0xe2fb2e3518d17a8f,
