Category,Real Category,Business Name,Address,City,State,Postal Code,Country,Phone,Email,Website,Latitude,Longitude,Map Link,Details Link
komplek housing,komplek housing,Sulawesi Tenggara 93673,"Kabupaten Buton Utara, Sulawesi Tenggara","Kabupaten Buton Utara, Sulawesi Tenggara",SULAWESI TENGGARA,,Indonesia,,,,-4.900844,122.9663018,https://maps.google.com/?cid=0x0:0x9ba45992a80e927e,
komplek housing,Komplek perumahan,Home kuyu,"3X4M+WGJ, Bonegunu, Kec. Bonegunu, Kabupaten Buton Utara, Sulawesi Tenggara 93673","Bonegunu, Kec. Bonegunu, Kabupaten Buton Utara",SULAWESI TENGGARA,93673.0,Indonesia,,,,-4.9426691,122.9837714,https://maps.google.com/?cid=0x0:0x1678c1356ced5d2a,
komplek housing,Kios,"Kioko, Kelurahan Bonegunu","3X5M+8WP, Unnamed Road, Bonegunu, Kec. Bonegunu, Kabupaten Buton Utara, Sulawesi Tenggara 93673","Unnamed Road, Bonegunu, Kec. Bonegunu, Kabupaten Buton Utara",SULAWESI TENGGARA,93673.0,Indonesia,,,,-4.9416707,122.9848209,https://maps.google.com/?cid=0x0:0x5cdb101a03a20cf,
komplek housing,Pembangunan Perumahan,ARSY KIOKO'S HOUSE,"3X2H+9RV, Jl.poros Bau-Bau-ereke, Bonegunu, Kec. Bonegunu, Kabupaten Buton Utara, Sulawesi Tenggara 93673","Jl.poros Bau-Bau-ereke, Bonegunu, Kec. Bonegunu, Kabupaten Buton Utara",SULAWESI TENGGARA,93673.0,Indonesia,,,,-4.949018,122.979545,https://maps.google.com/?cid=0x0:0xc46dcd5ce04b4081,
komplek housing,,RUMAH MORNELLLLL,"3X6P+7RH, Bonegunu, Kec. Bonegunu, Kabupaten Buton Utara, Sulawesi Tenggara 93673","Bonegunu, Kec. Bonegunu, Kabupaten Buton Utara",SULAWESI TENGGARA,93673.0,Indonesia,,,,-4.9403622,122.9864551,https://maps.google.com/?cid=0x0:0x7717a520baaff218,
komplek housing,Pembangunan Perumahan,Rumah afran,"4X4V+JW2, Laanoipi, Kec. Bonegunu, Kabupaten Buton Utara, Sulawesi Tenggara 93673","Laanoipi, Kec. Bonegunu, Kabupaten Buton Utara",SULAWESI TENGGARA,93673.0,Indonesia,,,,-4.8926608,122.9955674,https://maps.google.com/?cid=0x0:0x867f2da12620ab1f,
komplek housing,Komplek perumahan,Rumah Danil Ronta,"6XVQ+JCJ, Ronta, Kec. Bonegunu, Kabupaten Buton Utara, Sulawesi Tenggara 93673","Ronta, Kec. Bonegunu, Kabupaten Buton Utara",SULAWESI TENGGARA,93673.0,Indonesia,,,,-4.7559058,122.9885085,https://maps.google.com/?cid=0x0:0xbc02e4b17a4b5c34,
komplek housing,komplek housing,Komplek perumahan,"2WM5+GXG, Lahumoko(Tri Mulya), Kec. Kambowa, Kabupaten Buton Utara, Sulawesi Tenggara","Kabupaten Buton Utara, Sulawesi Tenggara",SULAWESI TENGGARA,,Indonesia,,,,-4.9661786,122.9099545,https://maps.google.com/?cid=0x0:0xe0a138cafaef141f,
komplek housing,Komplek perumahan,House ashita,"4X4V+JW2, Laanoipi, Kec. Bonegunu, Kabupaten Buton Utara, Sulawesi Tenggara 93673","Laanoipi, Kec. Bonegunu, Kabupaten Buton Utara",SULAWESI TENGGARA,93673.0,Indonesia,,,,-4.8926605,122.9957139,https://maps.google.com/?cid=0x0:0x300c3798576d4733,
komplek housing,Komplek perumahan,Citra,"3X3H+MHP, Unnamed Road, Bonegunu, Kec. Bonegunu, Kabupaten Buton Utara, Sulawesi Tenggara 93673","Unnamed Road, Bonegunu, Kec. Bonegunu, Kabupaten Buton Utara",SULAWESI TENGGARA,93673.0,Indonesia,,,,-4.945793,122.978959,https://maps.google.com/?cid=0x0:0xc133b29d8021497a,
komplek housing,Kantor Administrasi Kota,sekretaris desa koboruno,"6245+P8P, Unnamed Road, Upt. Burangga, Kec. Bonegunu, Kabupaten Buton Utara, Sulawesi Tenggara 93673","Unnamed Road, Upt. Burangga, Kec. Bonegunu, Kabupaten Buton Utara",SULAWESI TENGGARA,93673.0,Indonesia,,,,-4.793153,123.0083169,https://maps.google.com/?cid=0x0:0x91261ee4f5eb0ba7,
komplek housing,Gedung Apartemen,Ketut darmikayasa,"6XPC+4H3, Ronta, Kec. Bonegunu, Kabupaten Buton Utara, Sulawesi Tenggara","Kabupaten Buton Utara, Sulawesi Tenggara",SULAWESI TENGGARA,,Indonesia,,,,-4.7647287,122.9714188,https://maps.google.com/?cid=0x0:0x7ef407942379521a,
komplek housing,Komplek perumahan,Rumah putu ledi,"6XPF+V7P, Ronta, Kec. Bonegunu, Kabupaten Buton Utara, Sulawesi Tenggara","Kabupaten Buton Utara, Sulawesi Tenggara",SULAWESI TENGGARA,,Indonesia,85246204159.0,,,-4.7627871,122.9731903,https://maps.google.com/?cid=0x0:0xc62a7601601e07b4,
komplek housing,Komplek perumahan,RUMAH SHACIFHA,"5XPW+JGF, Een Sumala, Kec. Bonegunu, Kabupaten Buton Utara, Sulawesi Tenggara 93673","Een Sumala, Kec. Bonegunu, Kabupaten Buton Utara",SULAWESI TENGGARA,93673.0,Indonesia,,,,-4.8138144,122.9967861,https://maps.google.com/?cid=0x0:0xa2bf685ae5d2aa35,
komplek housing,Komplek perumahan,Rmh nene byaz,"3X4P+PP, Bonegunu, Kec. Bonegunu, Kabupaten Buton Utara, Sulawesi Tenggara 93673","Bonegunu, Kec. Bonegunu, Kabupaten Buton Utara",SULAWESI TENGGARA,93673.0,Indonesia,,,,-4.9432164,122.9880176,https://maps.google.com/?cid=0x0:0xac0d64f32c538442,
komplek housing,Komplek perumahan,LABORONA,"3X4J+6X3, Kabupaten Buton Utara, Sulawesi Tenggara 93673",Kabupaten Buton Utara,SULAWESI TENGGARA,93673.0,Indonesia,,,,-4.9445135,122.9824271,https://maps.google.com/?cid=0x0:0xefb3f85703fa69ee,
komplek housing,Komplek perumahan,Rumah Raihan,"5XWJ+HH3, Jl. Poros Ereke - Buranga, Kalibu, Kec. Bonegunu, Kabupaten Buton Utara, Sulawesi Tenggara","Kabupaten Buton Utara, Sulawesi Tenggara",SULAWESI TENGGARA,,Indonesia,,,,-4.8036121,122.9814142,https://maps.google.com/?cid=0x0:0x88768300b43e5ce1,
komplek housing,Perhimpunan Pengembang Perumahan,Krist,"6XCQ+Q9J, Waode Angkalo, Kec. Bonegunu, Kabupaten Buton Utara, Sulawesi Tenggara 93673","Waode Angkalo, Kec. Bonegunu, Kabupaten Buton Utara",SULAWESI TENGGARA,93673.0,Indonesia,,,,-4.7780402,122.988404,https://maps.google.com/?cid=0x0:0xd508edf764274b3e,
komplek housing,Perhimpunan Pengembang Perumahan,Rumah NURIYASA,"6X8Q+HH9, Waode Angkalo, Kec. Bonegunu, Kabupaten Buton Utara, Sulawesi Tenggara 93673","Waode Angkalo, Kec. Bonegunu, Kabupaten Buton Utara",SULAWESI TENGGARA,93673.0,Indonesia,,,,-4.783731,122.989764,https://maps.google.com/?cid=0x0:0x7ee0505a8af25fe4,
komplek housing,Perhimpunan Pengembang Perumahan,Rumahnya waati,"6XQM+MPX, Jl. Poros Ereke - Buranga, Ronta, Kec. Bonegunu, Kabupaten Buton Utara, Sulawesi Tenggara 93673","Jl. Poros Ereke - Buranga, Ronta, Kec. Bonegunu, Kabupaten Buton Utara",SULAWESI TENGGARA,93673.0,Indonesia,,,,-4.7617661,122.9853468,https://maps.google.com/?cid=0x0:0x513a5cf7cdde466e,
komplek housing,Perhimpunan Pengembang Perumahan,Rumag Abizar,"2XXG+MGR, Bonegunu, Kec. Bonegunu, Kabupaten Buton Utara, Sulawesi Tenggara","Kabupaten Buton Utara, Sulawesi Tenggara",SULAWESI TENGGARA,,Indonesia,,,,-4.9509742,122.9756503,https://maps.google.com/?cid=0x0:0x81d95ed133ed6e65,
komplek housing,Komplek perumahan,rumah nene WILSON,"3X4P+PP, Bonegunu, Kec. Bonegunu, Kabupaten Buton Utara, Sulawesi Tenggara 93673","Bonegunu, Kec. Bonegunu, Kabupaten Buton Utara",SULAWESI TENGGARA,93673.0,Indonesia,,,,-4.9426536,122.9883133,https://maps.google.com/?cid=0x0:0xb15697de05fb0e3f,
komplek housing,,Rumah Alm Bpk Asri Lahayama,"3X3G+3R5, Bonegunu, Kec. Bonegunu, Kabupaten Buton Utara, Sulawesi Tenggara 93673","Bonegunu, Kec. Bonegunu, Kabupaten Buton Utara",SULAWESI TENGGARA,93673.0,Indonesia,,,,-4.947361,122.9771164,https://maps.google.com/?cid=0x0:0xfe139a25a79ca4f6,
komplek housing,Komplek perumahan,Toko tanaman hias Hanin,"Bonegunu, Kec. Bonegunu, Kabupaten Buton Utara, Sulawesi Tenggara 93673","Kec. Bonegunu, Kabupaten Buton Utara",SULAWESI TENGGARA,93673.0,Indonesia,81261386654.0,,,-4.9421954,122.9861022,https://maps.google.com/?cid=0x0:0x1b21f268d8c077e3,
komplek housing,komplek housing,Sulawesi Tenggara 93673,"Kabupaten Buton Utara, Sulawesi Tenggara","Kabupaten Buton Utara, Sulawesi Tenggara",SULAWESI TENGGARA,,Indonesia,,,,-4.900844,122.9663018,https://maps.google.com/?cid=0x0:0x9ba45992a80e927e,
komplek housing,komplek housing,Komplek perumahan,"2WM5+GXG, Lahumoko(Tri Mulya), Kec. Kambowa, Kabupaten Buton Utara, Sulawesi Tenggara","Kabupaten Buton Utara, Sulawesi Tenggara",SULAWESI TENGGARA,,Indonesia,,,,-4.9661786,122.9099545,https://maps.google.com/?cid=0x0:0xe0a138cafaef141f,
komplek housing,Komplek perumahan,Kompleks Perumahan Tengah,"5X6V+FP9 BATAS Desa Ngapaea - Waodeo Kalowo, Waode Kalowo, Kec. Bonegunu, Kabupaten Buton Utara, Sulawesi Tenggara","Kabupaten Buton Utara, Sulawesi Tenggara",SULAWESI TENGGARA,,Indonesia,,,,-4.8400572,122.9951476,https://maps.google.com/?cid=0x0:0xe194fb7cdc4759ab,
komplek housing,Komplek perumahan,Utunn,"XWJ5+5X8, Kambowa, Kec. Kambowa, Kabupaten Buton Utara, Sulawesi Tenggara","Kabupaten Buton Utara, Sulawesi Tenggara",SULAWESI TENGGARA,,Indonesia,,,,-5.0195799,122.9099545,https://maps.google.com/?cid=0x0:0x2fb13707a67c3e1b,
komplek housing,Komplek perumahan,tempat lahir agha chutank,"2XX7+8V8, Bubu, Kec. Kambowa, Kabupaten Buton Utara, Sulawesi Tenggara 93673","Bubu, Kec. Kambowa, Kabupaten Buton Utara",SULAWESI TENGGARA,93673.0,Indonesia,,,,-4.9517201,122.9647152,https://maps.google.com/?cid=0x0:0xb595bc6d02530aa7,
komplek housing,Kios,"Kioko, Kelurahan Bonegunu","3X5M+8WP, Unnamed Road, Bonegunu, Kec. Bonegunu, Kabupaten Buton Utara, Sulawesi Tenggara 93673","Unnamed Road, Bonegunu, Kec. Bonegunu, Kabupaten Buton Utara",SULAWESI TENGGARA,93673.0,Indonesia,,,,-4.9416707,122.9848209,https://maps.google.com/?cid=0x0:0x5cdb101a03a20cf,
komplek housing,Komplek perumahan,STN,"2XW5+66J, Bubu, Kec. Kambowa, Kabupaten Buton Utara, Sulawesi Tenggara 93673","Bubu, Kec. Kambowa, Kabupaten Buton Utara",SULAWESI TENGGARA,93673.0,Indonesia,,,,-4.9544174,122.9580266,https://maps.google.com/?cid=0x0:0xaff6e71961d2935e,
komplek housing,Komplek perumahan,Rumah Afrin,"WX8C+J6C, Unnamed Road, Lagundi, Mata, Kec. Kambowa, Kabupaten Buton Utara, Sulawesi Tenggara 93756","Unnamed Road, Lagundi, Mata, Kec. Kambowa, Kabupaten Buton Utara",SULAWESI TENGGARA,93756.0,Indonesia,,,,-5.0834255,122.9705172,https://maps.google.com/?cid=0x0:0x830475760814e3a,
komplek housing,Komplek perumahan,LAHUMOKO (TRY MULIA),"2WC9+9J6, Lahumoko(Tri Mulya), Kec. Kambowa, Kabupaten Buton Utara, Sulawesi Tenggara","Kabupaten Buton Utara, Sulawesi Tenggara",SULAWESI TENGGARA,,Indonesia,,,,-4.9790912,122.9190228,https://maps.google.com/?cid=0x0:0xaa4484cd4bd53e0a,
komplek housing,Komplek perumahan,LABORONA,"3X4J+6X3, Kabupaten Buton Utara, Sulawesi Tenggara 93673",Kabupaten Buton Utara,SULAWESI TENGGARA,93673.0,Indonesia,,,,-4.9445135,122.9824271,https://maps.google.com/?cid=0x0:0xefb3f85703fa69ee,
komplek housing,Komplek perumahan,House ashita,"4X4V+JW2, Laanoipi, Kec. Bonegunu, Kabupaten Buton Utara, Sulawesi Tenggara 93673","Laanoipi, Kec. Bonegunu, Kabupaten Buton Utara",SULAWESI TENGGARA,93673.0,Indonesia,,,,-4.8926605,122.9957139,https://maps.google.com/?cid=0x0:0x300c3798576d4733,
komplek housing,Pembangunan Perumahan,ARSY KIOKO'S HOUSE,"3X2H+9RV, Jl.poros Bau-Bau-ereke, Bonegunu, Kec. Bonegunu, Kabupaten Buton Utara, Sulawesi Tenggara 93673","Jl.poros Bau-Bau-ereke, Bonegunu, Kec. Bonegunu, Kabupaten Buton Utara",SULAWESI TENGGARA,93673.0,Indonesia,,,,-4.949018,122.979545,https://maps.google.com/?cid=0x0:0xc46dcd5ce04b4081,
komplek housing,Gedung Apartemen,Ketut darmikayasa,"6XPC+4H3, Ronta, Kec. Bonegunu, Kabupaten Buton Utara, Sulawesi Tenggara","Kabupaten Buton Utara, Sulawesi Tenggara",SULAWESI TENGGARA,,Indonesia,,,,-4.7647287,122.9714188,https://maps.google.com/?cid=0x0:0x7ef407942379521a,
komplek housing,Komplek perumahan,Rumah HARIS JONDEN,"2WFJ+77H, Lahumoko(Tri Mulya), Kec. Kambowa, Kabupaten Buton Utara, Sulawesi Tenggara 93673","Lahumoko(Tri Mulya), Kec. Kambowa, Kabupaten Buton Utara",SULAWESI TENGGARA,93673.0,Indonesia,,,,-4.9768135,122.9307266,https://maps.google.com/?cid=0x0:0xf2395678328ed265,
komplek housing,Kantor Administrasi Kota,sekretaris desa koboruno,"6245+P8P, Unnamed Road, Upt. Burangga, Kec. Bonegunu, Kabupaten Buton Utara, Sulawesi Tenggara 93673","Unnamed Road, Upt. Burangga, Kec. Bonegunu, Kabupaten Buton Utara",SULAWESI TENGGARA,93673.0,Indonesia,,,,-4.793153,123.0083169,https://maps.google.com/?cid=0x0:0x91261ee4f5eb0ba7,
komplek housing,Komplek perumahan,Rumah aka,"VXV4+G2V, Mata, Kec. Kambowa, Kabupaten Buton Utara, Sulawesi Tenggara 93756","Mata, Kec. Kambowa, Kabupaten Buton Utara",SULAWESI TENGGARA,93756.0,Indonesia,,,,-5.1061253,122.9550349,https://maps.google.com/?cid=0x0:0xc0a079b8d7f97b82,
komplek housing,Pertanian,Agro (Kampo dina/kampung lama),"5X9V+3FG, Buranga, Kec. Bonegunu, Kabupaten Buton Utara, Sulawesi Tenggara","Kabupaten Buton Utara, Sulawesi Tenggara",SULAWESI TENGGARA,,Indonesia,,,,-4.8320296,122.9937596,https://maps.google.com/?cid=0x0:0xce2115ac7624270c,
komplek housing,Komplek perumahan,Rumah Ayuka,"VXWC+5QQ, Kec. Kambowa, Kabupaten Buton Utara, Sulawesi Tenggara 93756","Kec. Kambowa, Kabupaten Buton Utara",SULAWESI TENGGARA,93756.0,Indonesia,,,,-5.1045256,122.971978,https://maps.google.com/?cid=0x0:0xde94c3cd490edc1f,
komplek housing,Pembangunan Perumahan,Rumah afran,"4X4V+JW2, Laanoipi, Kec. Bonegunu, Kabupaten Buton Utara, Sulawesi Tenggara 93673","Laanoipi, Kec. Bonegunu, Kabupaten Buton Utara",SULAWESI TENGGARA,93673.0,Indonesia,,,,-4.8926608,122.9955674,https://maps.google.com/?cid=0x0:0x867f2da12620ab1f,
komplek housing,Komplek perumahan,KALANDU,"VXH2+4R7, Mata, Kec. Kambowa, Kabupaten Buton Utara, Sulawesi Tenggara 93756","Mata, Kec. Kambowa, Kabupaten Buton Utara",SULAWESI TENGGARA,93756.0,Indonesia,,,,-5.1222152,122.9520362,https://maps.google.com/?cid=0x0:0xa07e83a89b727472,
komplek housing,Komplek perumahan,Ikbal Arjun,"2W6W+9M, Morindino, Kec. Kambowa, Kabupaten Buton Utara, Sulawesi Tenggara","Kabupaten Buton Utara, Sulawesi Tenggara",SULAWESI TENGGARA,,Indonesia,,,,-4.9890393,122.9466429,https://maps.google.com/?cid=0x0:0x9c6e9018f45d5a08,
komplek housing,Komplek perumahan,Rumah Danil Ronta,"6XVQ+JCJ, Ronta, Kec. Bonegunu, Kabupaten Buton Utara, Sulawesi Tenggara 93673","Ronta, Kec. Bonegunu, Kabupaten Buton Utara",SULAWESI TENGGARA,93673.0,Indonesia,,,,-4.7559058,122.9885085,https://maps.google.com/?cid=0x0:0xbc02e4b17a4b5c34,
komplek housing,Otoritas Perumahan,Perumahan Papan Indah 1,"Jl. Albasia Raya, Mangunjaya, Kec. Tambun Sel., Kabupaten Bekasi, Jawa Barat 17510","Mangunjaya, Kec. Tambun Sel., Kabupaten Bekasi",SULAWESI TENGGARA,17510.0,Indonesia,,,,-6.2307586,107.0569886,https://maps.google.com/?cid=0x0:0x4094f5e014976f5d,
komplek housing,komplek housing,Komplek Housing,"Blok Bojong Nangka I, Jl. Ring Rudal Blok Bojong Nangka I No.68, RT.001/RW.007, Jatirahayu, Kec. Pd. Melati, Kota Bks, Jawa Barat 17414","Jl. Ring Rudal Blok Bojong Nangka I No.68, RT.001/RW.007, Jatirahayu, Kec. Pd. Melati, Kota Bks",SULAWESI TENGGARA,17414.0,Indonesia,,,,-6.293724,106.9165114,https://maps.google.com/?cid=0x0:0x9c50464976dee674,
komplek housing,komplek housing,SiCepat Ekspres Buton Utara Kalisusu,"Lin, Kelurahan Wandaka, Jl. Mojimohalo, Kel. Wandaka, Kec. Kulisusu, Kabupaten Buton Utara, Sulawesi Tenggara 93672","Kelurahan Wandaka, Jl. Mojimohalo, Kel. Wandaka, Kec. Kulisusu, Kabupaten Buton Utara",SULAWESI TENGGARA,93672.0,Indonesia,2130205050.0,,,-4.7823308,123.1703798,https://maps.google.com/?cid=0x0:0xfa96a6ee23785222,
komplek housing,komplek housing,Kec. Kulisusu,"Kabupaten Buton Utara, Sulawesi Tenggara","Kabupaten Buton Utara, Sulawesi Tenggara",SULAWESI TENGGARA,,Indonesia,,,,-4.7781796,123.1769285,https://maps.google.com/?cid=0x0:0x9da2bec4811cc68e,
komplek housing,komplek housing,Kali Susu,"Distrik Nabire, Kabupaten Nabire, Papua","Kabupaten Nabire, Papua",SULAWESI TENGGARA,,Indonesia,,,,-3.358954,135.5122317,https://maps.google.com/?cid=0x0:0x644f9d3e8f4b6ca7,
komplek housing,komplek housing,Kec. Kulisusu Bar.,"Kabupaten Buton Utara, Sulawesi Tenggara","Kabupaten Buton Utara, Sulawesi Tenggara",SULAWESI TENGGARA,,Indonesia,,,,-4.6699172,123.0647304,https://maps.google.com/?cid=0x0:0x27dee32db48a1fc5,
komplek housing,Komplek perumahan,"Desa Mekar Jaya, Kecamatan Kulisusu Barat, Kabupaten Buton Utara","82CW+QP6, Jl. Poros Ereke - Buranga, Kotawo, Kec. Kulisusu Bar., Kabupaten Buton Utara, Sulawesi Tenggara 93672","Jl. Poros Ereke - Buranga, Kotawo, Kec. Kulisusu Bar., Kabupaten Buton Utara",SULAWESI TENGGARA,93672.0,Indonesia,,,,-4.6780751,123.0467748,https://maps.google.com/?cid=0x0:0x138c1db3437a08e4,
komplek housing,Pembangunan Perumahan,RUMAH TINGGAL MIFTARTO BALUMBI,"922V+49R, Desa, Karya Mulya, Kulisusu Barat, North Buton Regency, South East Sulawesi 93672","Desa, Karya Mulya, Kulisusu Barat, North Buton Regency",SULAWESI TENGGARA,93672.0,Indonesia,,,,-4.6496329,123.0433968,https://maps.google.com/?cid=0x0:0xe76e23c8946a8b8f,
komplek housing,Pembangunan Perumahan,Kecamatan Kulisusu Barat,"828M+4W9, Kotawo, Kec. Kulisusu Bar., Kabupaten Buton Utara, Sulawesi Tenggara","Kabupaten Buton Utara, Sulawesi Tenggara",SULAWESI TENGGARA,,Indonesia,,,,-4.6847172,123.0348741,https://maps.google.com/?cid=0x0:0x16ef2f4098b363d,
komplek housing,Pembangunan Perumahan,Rumah Syaqila,"83FP+22P, Kasulatombi, Kec. Kulisusu Bar., Kabupaten Buton Utara, Sulawesi Tenggara","Kabupaten Buton Utara, Sulawesi Tenggara",SULAWESI TENGGARA,,Indonesia,,,,-4.6774102,123.085077,https://maps.google.com/?cid=0x0:0xcf29befffff28f3e,
komplek housing,Komplek perumahan,"Desa Mekar Jaya, Kecamatan Kulisusu Barat","828X+6J4, Desa, Mekar Jaya, Kec. Kulisusu Bar., Kabupaten Buton Utara, Sulawesi Tenggara","Kabupaten Buton Utara, Sulawesi Tenggara",SULAWESI TENGGARA,,Indonesia,,,,-4.6844789,123.0490684,https://maps.google.com/?cid=0x0:0x5a2183658d55ca1,
komplek housing,Komplek perumahan,Wahyu,"82VW+HJ2, Unnamed Road, Kotawo, Kec. Kulisusu Bar., Kabupaten Buton Utara, Sulawesi Tenggara 93672","Unnamed Road, Kotawo, Kec. Kulisusu Bar., Kabupaten Buton Utara",SULAWESI TENGGARA,93672.0,Indonesia,,,,-4.6561009,123.0465256,https://maps.google.com/?cid=0x0:0xfe30beafb9b303b5,
komplek housing,Perhimpunan Pengembang Perumahan,Rumah gede swamba yasa,"8363+9P3, Dampala Jaya, Kec. Kulisusu Bar., Kabupaten Buton Utara, Sulawesi Tenggara","Kabupaten Buton Utara, Sulawesi Tenggara",SULAWESI TENGGARA,,Indonesia,,,,-4.688371,123.054519,https://maps.google.com/?cid=0x0:0xf1895d332b079d4,
komplek housing,Komplek perumahan,Bspak putri,"82WX+724, jl paus, Karya Bhakti, Kec. Kulisusu Bar., Kabupaten Buton Utara, Sulawesi Tenggara 93672","jl paus, Karya Bhakti, Kec. Kulisusu Bar., Kabupaten Buton Utara",SULAWESI TENGGARA,93672.0,Indonesia,,,,-4.6538569,123.0477346,https://maps.google.com/?cid=0x0:0x1ae185ef402adc4a,
komplek housing,Komplek perumahan,Rumah chandra,"82CW+VPC, Mekar jaya, Kec. Kulisusu Bar., Kabupaten Buton Utara, Sulawesi Tenggara 93672","Mekar jaya, Kec. Kulisusu Bar., Kabupaten Buton Utara",SULAWESI TENGGARA,93672.0,Indonesia,,,,-4.6773256,123.0465458,https://maps.google.com/?cid=0x0:0xd082deb3ec874c86,
komplek housing,komplek housing,Rumah Muhamad Alpin,"826X+PG, Kotawo, Kec. Kulisusu Bar., Kabupaten Buton Utara, Sulawesi Tenggara","Kabupaten Buton Utara, Sulawesi Tenggara",SULAWESI TENGGARA,,Indonesia,,,,-4.6881436,123.0487663,https://maps.google.com/?cid=0x0:0x71b411edc6810a58,
komplek housing,Komplek perumahan,Home Gallery,"72XM+3H6 Kantor PAN, Kotawo, Kec. Kulisusu Bar., Kabupaten Buton Utara, Sulawesi Tenggara","Kabupaten Buton Utara, Sulawesi Tenggara",SULAWESI TENGGARA,,Indonesia,,,,-4.7023424,123.0338767,https://maps.google.com/?cid=0x0:0x7d34a9edf364a7be,
komplek housing,Perumahan,Rumah Afianti,"827G+CFM, Kotawo, Kec. Kulisusu Bar., Kabupaten Buton Utara, Sulawesi Tenggara","Kabupaten Buton Utara, Sulawesi Tenggara",SULAWESI TENGGARA,,Indonesia,,,,-4.686408,123.0261573,https://maps.google.com/?cid=0x0:0x1afd7621613fd1b,
komplek housing,Komplek perumahan,Rumah yusir,"83X4+QR, Kotawo, Kec. Kulisusu Bar., Kabupaten Buton Utara, Sulawesi Tenggara","Kabupaten Buton Utara, Sulawesi Tenggara",SULAWESI TENGGARA,,Indonesia,,,,-4.6505933,123.0570687,https://maps.google.com/?cid=0x0:0x43e3c3e00cc8290f,
komplek housing,Komplek perumahan,Rumah harni,"72XM+3H6, Kotawo, Kec. Kulisusu Bar., Kabupaten Buton Utara, Sulawesi Tenggara","Kabupaten Buton Utara, Sulawesi Tenggara",SULAWESI TENGGARA,,Indonesia,,,,-4.7023424,123.0338767,https://maps.google.com/?cid=0x0:0x2134ce22e40ce658,
komplek housing,Toko bahan makanan,Rumah Riska,"83X7+V37, Kotawo, Kec. Kulisusu Bar., Kabupaten Buton Utara, Sulawesi Tenggara 93672","Kotawo, Kec. Kulisusu Bar., Kabupaten Buton Utara",SULAWESI TENGGARA,93672.0,Indonesia,,,,-4.6503358,123.0626868,https://maps.google.com/?cid=0x0:0x263a28682538378e,
komplek housing,Komplek perumahan,CITRAONYX-NET,"827F+68, Kotawo, Kec. Kulisusu Bar., Kabupaten Buton Utara, Sulawesi Tenggara","Kabupaten Buton Utara, Sulawesi Tenggara",SULAWESI TENGGARA,,Indonesia,,,,-4.6869685,123.0233627,https://maps.google.com/?cid=0x0:0x9969d984a0fef6e8,
komplek housing,Komplek perumahan,Azizah cell,"83RM+2RC, Marga Karya, Kec. Kulisusu Bar., Kabupaten Buton Utara, Sulawesi Tenggara","Kabupaten Buton Utara, Sulawesi Tenggara",SULAWESI TENGGARA,,Indonesia,82293696327.0,,,-4.6599328,123.0845277,https://maps.google.com/?cid=0x0:0xfe1e994c02fe8126,
komplek housing,Pembangunan Perumahan,Rumah Ibnu Perumnas,"72XM+3H6, Kotawo, BangkuduKec. KulisusuKabupaten, Kabupaten Buton Utara, Sulawesi Tenggara 93672","Kotawo, BangkuduKec. KulisusuKabupaten, Kabupaten Buton Utara",SULAWESI TENGGARA,93672.0,Indonesia,,,,-4.7023424,123.0338767,https://maps.google.com/?cid=0x0:0xe7f5566ac39e4888,
komplek housing,Komplek perumahan,Rumah TANTOWI,"82WX+VF, Kotawo, Kec. Kulisusu Bar., Kabupaten Buton Utara, Sulawesi Tenggara","Kabupaten Buton Utara, Sulawesi Tenggara",SULAWESI TENGGARA,,Indonesia,,,,-4.6527715,123.0486929,https://maps.google.com/?cid=0x0:0x59e30dbd9aa3f313,
komplek housing,Komplek perumahan,Rumah Divya,"827F+68, Kotawo, Kec. Kulisusu Bar., Kabupaten Buton Utara, Sulawesi Tenggara","Kabupaten Buton Utara, Sulawesi Tenggara",SULAWESI TENGGARA,,Indonesia,,,,-4.6869747,123.0233491,https://maps.google.com/?cid=0x0:0x442e2af8caba2dc9,
komplek housing,komplek housing,Sulawesi Tenggara 93672,"Kabupaten Buton Utara, Sulawesi Tenggara","Kabupaten Buton Utara, Sulawesi Tenggara",SULAWESI TENGGARA,,Indonesia,,,,-4.6317181,123.0338767,https://maps.google.com/?cid=0x0:0x22ef5ef6963e0828,
komplek housing,Komplek perumahan,Hyudi home,"C5JM+299, Jl. Labuan-Ereke/Bangkudu, Lanosangia, Kec. Kulisusu Utara, Kabupaten Buton Utara, Sulawesi Tenggara 93672","Jl. Labuan-Ereke/Bangkudu, Lanosangia, Kec. Kulisusu Utara, Kabupaten Buton Utara",SULAWESI TENGGARA,93672.0,Indonesia,,,,-4.5699784,123.1825911,https://maps.google.com/?cid=0x0:0xdffefb33f323a06a,
komplek housing,Komplek perumahan,"Desa Mekar Jaya, Kecamatan Kulisusu Barat, Kabupaten Buton Utara","82CW+QP6, Jl. Poros Ereke - Buranga, Kotawo, Kec. Kulisusu Bar., Kabupaten Buton Utara, Sulawesi Tenggara 93672","Jl. Poros Ereke - Buranga, Kotawo, Kec. Kulisusu Bar., Kabupaten Buton Utara",SULAWESI TENGGARA,93672.0,Indonesia,,,,-4.6780751,123.0467748,https://maps.google.com/?cid=0x0:0x138c1db3437a08e4,
komplek housing,Komplek perumahan,Rumah Fadel/cua,"65HM+224, Jl. Lajakati-Kadacua, Bangkudu, Kec. Kulisusu, Kabupaten Buton Utara, Sulawesi Tenggara 93672","Jl. Lajakati-Kadacua, Bangkudu, Kec. Kulisusu, Kabupaten Buton Utara",SULAWESI TENGGARA,93672.0,Indonesia,,,,-4.7732532,123.1835694,https://maps.google.com/?cid=0x0:0xa4ac68e754e2785f,
komplek housing,Komplek perumahan,RUMAH HAMSIL,"65HJ+6W7, Jl. Lajakati-Kadacua, Bangkudu, Kec. Kulisusu, Kabupaten Buton Utara, Sulawesi Tenggara 93672","Jl. Lajakati-Kadacua, Bangkudu, Kec. Kulisusu, Kabupaten Buton Utara",SULAWESI TENGGARA,93672.0,Indonesia,,,,-4.771974,123.182301,https://maps.google.com/?cid=0x0:0x9d7bb9a91e779cdb,
komplek housing,Komplek perumahan,Marsha Home,"65GP+XXG, Bangkudu, Kec. Kulisusu, Kabupaten Buton Utara, Sulawesi Tenggara 93672","Bangkudu, Kec. Kulisusu, Kabupaten Buton Utara",SULAWESI TENGGARA,93672.0,Indonesia,81333932958.0,,,-4.7719749,123.188055,https://maps.google.com/?cid=0x0:0x731b9944de7604eb,
komplek housing,Pembangunan Perumahan,Saiful House,"55FF+99G, Lemo, Kec. Kulisusu, Kabupaten Buton Utara, Sulawesi Tenggara 93672","Lemo, Kec. Kulisusu, Kabupaten Buton Utara",SULAWESI TENGGARA,93672.0,Indonesia,,,,-4.8273574,123.1736054,https://maps.google.com/?cid=0x0:0xfbc2ba7d7d929588,
komplek housing,Otoritas Perumahan,Kompleks Perumahan Dinas,"55WG+F63, Linsowu, Kec. Kulisusu, Kabupaten Buton Utara, Sulawesi Tenggara 93752","Linsowu, Kec. Kulisusu, Kabupaten Buton Utara",SULAWESI TENGGARA,93752.0,Indonesia,,,,-4.8038533,123.17556,https://maps.google.com/?cid=0x0:0xf3de88e435495cae,
komplek housing,Komplek perumahan,Ain House,"8694+7CV, Lelamo, Kec. Kulisusu Utara, Kabupaten Buton Utara, Sulawesi Tenggara 93672","Lelamo, Kec. Kulisusu Utara, Kabupaten Buton Utara",SULAWESI TENGGARA,93672.0,Indonesia,,,,-4.6815434,123.2068859,https://maps.google.com/?cid=0x0:0x4098964cec711ebd,
komplek housing,Komplek perumahan,Herschel's House,"65HJ+6W7, Jl. Lajakati-Kadacua, Bangkudu, Kec. Kulisusu, Kabupaten Buton Utara, Sulawesi Tenggara 93672","Jl. Lajakati-Kadacua, Bangkudu, Kec. Kulisusu, Kabupaten Buton Utara",SULAWESI TENGGARA,93672.0,Indonesia,,,,-4.7718701,123.1816773,https://maps.google.com/?cid=0x0:0x74d1579f081232,
komplek housing,Komplek perumahan,Rumah CiCi,"8684+72X, Waode Buri, Kec. Kulisusu Utara, Kabupaten Buton Utara, Sulawesi Tenggara 93672","Waode Buri, Kec. Kulisusu Utara, Kabupaten Buton Utara",SULAWESI TENGGARA,93672.0,Indonesia,,,,-4.6849175,123.2045611,https://maps.google.com/?cid=0x0:0xa0672cb18151c1cf,
komplek housing,Pembangunan Perumahan,Rumah hanisah,"8684+4MQ, Lelamo, Kec. Kulisusu Utara, Kabupaten Buton Utara, Sulawesi Tenggara","Kabupaten Buton Utara, Sulawesi Tenggara",SULAWESI TENGGARA,,Indonesia,,,,-4.6846627,123.2067236,https://maps.google.com/?cid=0x0:0xc66f3d58bbe2b963,
komplek housing,Pembangunan Perumahan,Kompleks Area Topisa,"83M9+7P3, Karya Bhakti, Kec. Kulisusu Bar., Kabupaten Buton Utara, Sulawesi Tenggara 93672","Karya Bhakti, Kec. Kulisusu Bar., Kabupaten Buton Utara",SULAWESI TENGGARA,93672.0,Indonesia,,,,-4.665869,123.0694642,https://maps.google.com/?cid=0x0:0xb7c835543552f047,
komplek housing,Komplek perumahan,Faat Home,"65JF+43X, Loji, Kec. Kulisusu, Kabupaten Buton Utara, Sulawesi Tenggara 93672","Loji, Kec. Kulisusu, Kabupaten Buton Utara",SULAWESI TENGGARA,93672.0,Indonesia,,,,-4.7696488,123.1727202,https://maps.google.com/?cid=0x0:0x78ffca04a9422b8,
komplek housing,Komplek perumahan,Rumah Daniel,"55CC+RXP, Lemo, Kec. Kulisusu, Kabupaten Buton Utara, Sulawesi Tenggara 93672","Lemo, Kec. Kulisusu, Kabupaten Buton Utara",SULAWESI TENGGARA,93672.0,Indonesia,,,,-4.827778,123.172651,https://maps.google.com/?cid=0x0:0x746cc610e43c1313,
komplek housing,Pembangunan Perumahan,RUMAH TINGGAL MIFTARTO BALUMBI,"922V+49R, Desa, Karya Mulya, Kulisusu Barat, North Buton Regency, South East Sulawesi 93672","Desa, Karya Mulya, Kulisusu Barat, North Buton Regency",SULAWESI TENGGARA,93672.0,Indonesia,,,,-4.6496329,123.0433968,https://maps.google.com/?cid=0x0:0xe76e23c8946a8b8f,
komplek housing,Komplek perumahan,Rumah Dika,"55HC+HXC, Lemo, Kec. Kulisusu, Kabupaten Buton Utara, Sulawesi Tenggara 93672","Lemo, Kec. Kulisusu, Kabupaten Buton Utara",SULAWESI TENGGARA,93672.0,Indonesia,82267482916.0,,,-4.8210682,123.1723883,https://maps.google.com/?cid=0x0:0x2d584e7416f28313,
komplek housing,Komplek perumahan,Yuniâs House,"65GJ+XV7, Jl. Lajakati-Kadacua, Bangkudu, Kec. Kulisusu, Kabupaten Buton Utara, Sulawesi Tenggara","Kabupaten Buton Utara, Sulawesi Tenggara",SULAWESI TENGGARA,,Indonesia,,,,-4.7725755,123.1821721,https://maps.google.com/?cid=0x0:0x94afe64d113e6b0c,
komplek housing,Pembangunan Perumahan,North Kulisusu district,"8694+QFJ, Lelamo, Kec. Kulisusu Utara, Kabupaten Buton Utara, Sulawesi Tenggara 93672","Lelamo, Kec. Kulisusu Utara, Kabupaten Buton Utara",SULAWESI TENGGARA,93672.0,Indonesia,,,,-4.6805322,123.2061449,https://maps.google.com/?cid=0x0:0xf03b4d1c5564cff,
komplek housing,Komplek perumahan,Arun/Azizah,"65CJ+WPQ, Jl. Opa Wemp, Bangkudu, Kec. Kulisusu, Kabupaten Buton Utara, Sulawesi Tenggara 93672","Jl. Opa Wemp, Bangkudu, Kec. Kulisusu, Kabupaten Buton Utara",SULAWESI TENGGARA,93672.0,Indonesia,,,,-4.7771399,123.1819299,https://maps.google.com/?cid=0x0:0x98ebd24b3f1089f8,
komplek housing,Perhimpunan Pengembang Perumahan,Rumah Muli,"J257+FM5, Wantulasi, Kec. Wakorumba, Kabupaten Buton Utara, Sulawesi Tenggara 93672","Wantulasi, Kec. Wakorumba, Kabupaten Buton Utara",SULAWESI TENGGARA,93672.0,Indonesia,,,,-4.3913917,123.0143237,https://maps.google.com/?cid=0x0:0xe3b5101b8bb77e54,
komplek housing,Komplek perumahan,Asrul House,"55FF+76P, Lemo, Kec. Kulisusu, Kabupaten Buton Utara, Sulawesi Tenggara","Kabupaten Buton Utara, Sulawesi Tenggara",SULAWESI TENGGARA,,Indonesia,,,,-4.8267961,123.1730703,https://maps.google.com/?cid=0x0:0xc6d6e01153c33873,
komplek housing,Pembangunan Perumahan,BTN GRYA membuku,"65GV+2PW, Bangkudu, Kec. Kulisusu, Kabupaten Buton Utara, Sulawesi Tenggara 93672","Bangkudu, Kec. Kulisusu, Kabupaten Buton Utara",SULAWESI TENGGARA,93672.0,Indonesia,,,,-4.7748798,123.1943335,https://maps.google.com/?cid=0x0:0x3a607d88b4d2fb41,
komplek housing,Perumahan,Lanosangia,"C42P+232, Lanosangia, Kec. Kulisusu Utara, Kabupaten Buton Utara, Sulawesi Tenggara","Kabupaten Buton Utara, Sulawesi Tenggara",SULAWESI TENGGARA,,Indonesia,81269646563.0,,,-4.599984,123.1351527,https://maps.google.com/?cid=0x0:0x336a46863a3988dc,
komplek housing,Pembangunan Perumahan,Rumah Syaqila,"83FP+22P, Kasulatombi, Kec. Kulisusu Bar., Kabupaten Buton Utara, Sulawesi Tenggara","Kabupaten Buton Utara, Sulawesi Tenggara",SULAWESI TENGGARA,,Indonesia,,,,-4.6774102,123.085077,https://maps.google.com/?cid=0x0:0xcf29befffff28f3e,
komplek housing,komplek housing,Kec. Kulisusu Utara,"Kabupaten Buton Utara, Sulawesi Tenggara","Kabupaten Buton Utara, Sulawesi Tenggara",SULAWESI TENGGARA,,Indonesia,,,,-4.6838679,123.205443,https://maps.google.com/?cid=0x0:0xa07ac85ddc22adca,
komplek housing,Komplek perumahan,Rumah shofi,"8694+R58, Lelamo, Kec. Kulisusu Utara, Kabupaten Buton Utara, Sulawesi Tenggara 93672","Lelamo, Kec. Kulisusu Utara, Kabupaten Buton Utara",SULAWESI TENGGARA,93672.0,Indonesia,,,,-4.680235,123.205932,https://maps.google.com/?cid=0x0:0x4ba46330c8495d19,
komplek housing,Komplek perumahan,WAODEBURI RAYA (Area),"8684+C3P, Waode Buri, Kec. Kulisusu Utara, Kabupaten Buton Utara, Sulawesi Tenggara 93672","Waode Buri, Kec. Kulisusu Utara, Kabupaten Buton Utara",SULAWESI TENGGARA,93672.0,Indonesia,,,,-4.6838451,123.2052429,https://maps.google.com/?cid=0x0:0xeb17b01d1a361f7b,
komplek housing,Komplek perumahan,RUMAH NALDIN,"J235+MX6, Desa, Bira, Kec. Kulisusu Utara, Kabupaten Buton Utara, Sulawesi Tenggara 93672","Desa, Bira, Kec. Kulisusu Utara, Kabupaten Buton Utara",SULAWESI TENGGARA,93672.0,Indonesia,,,,-4.3953219,123.0102518,https://maps.google.com/?cid=0x0:0xbe98576c00eeb403,
komplek housing,komplek housing,Sulawesi Tenggara 93671,Sulawesi Tenggara,Sulawesi Tenggara,SULAWESI TENGGARA,,Indonesia,,,,-4.5493643,122.9212265,https://maps.google.com/?cid=0x0:0xe8e004ff2b736d21,
komplek housing,Komplek perumahan,Rumah oyong,"HX85+VGV, Labuan, Kec. Wakorumba, Kabupaten Buton Utara, Sulawesi Tenggara","Kabupaten Buton Utara, Sulawesi Tenggara",SULAWESI TENGGARA,,Indonesia,,,,-4.4327554,122.9587849,https://maps.google.com/?cid=0x0:0xd87bdee4d98764df,
komplek housing,Komplek perumahan,Rumah La Ndikae,"Jln. Drs. Syarifudin No.120, Desa Oengkapala, Wakorumba, North Buton Regency, South East Sulawesi","Kabupaten Buton Utara, Sulawesi Tenggara",SULAWESI TENGGARA,,Indonesia,,,,-4.4326617,122.9572991,https://maps.google.com/?cid=0x0:0xa153d67164d385e6,
komplek housing,Komplek perumahan,Rumah Fyu,"Labuan, Kec. Wakorumba, Kabupaten Buton Utara, Sulawesi Tenggara 93671","Kec. Wakorumba, Kabupaten Buton Utara",SULAWESI TENGGARA,93671.0,Indonesia,,,,-4.4291402,122.9596224,https://maps.google.com/?cid=0x0:0x98e244950813c501,
komplek housing,Komplek perumahan,Rumah hafidz,"HX96+XW, Labuan, Kec. Wakorumba, Kabupaten Buton Utara, Sulawesi Tenggara","Kabupaten Buton Utara, Sulawesi Tenggara",SULAWESI TENGGARA,,Indonesia,,,,-4.4300207,122.9622749,https://maps.google.com/?cid=0x0:0x8f1868060db43c3d,
komplek housing,Komplek perumahan,Rumah ishak,"HX96+XMH, Labuan, Kec. Wakorumba, Kabupaten Buton Utara, Sulawesi Tenggara 93672","Labuan, Kec. Wakorumba, Kabupaten Buton Utara",SULAWESI TENGGARA,93672.0,Indonesia,,,,-4.4293588,122.9615657,https://maps.google.com/?cid=0x0:0x86f802fe704d281a,
komplek housing,Komplek perumahan,Rumah Dalle,"GV6W+HC2, Labuan, Kec. Wakorumba, Kabupaten Buton Utara, Sulawesi Tenggara","Kabupaten Buton Utara, Sulawesi Tenggara",SULAWESI TENGGARA,,Indonesia,,,,-4.4886124,122.8960009,https://maps.google.com/?cid=0x0:0x6df7d9c7b091d6b3,
komplek housing,komplek housing,Rumah (ZARNI- INDRAYANI),"HW4P+GP, Labuan Wolio, Kec. Wakorumba, Kabupaten Buton Utara, Sulawesi Tenggara","Kabupaten Buton Utara, Sulawesi Tenggara",SULAWESI TENGGARA,,Indonesia,,,,-4.4436829,122.9368498,https://maps.google.com/?cid=0x0:0xdc2968e3995c177c,
komplek housing,Komplek perumahan,Rumah adi,"HX96+XMH, Labuan, Kec. Wakorumba, Kabupaten Buton Utara, Sulawesi Tenggara 93672","Labuan, Kec. Wakorumba, Kabupaten Buton Utara",SULAWESI TENGGARA,93672.0,Indonesia,,,,-4.4293401,122.9615938,https://maps.google.com/?cid=0x0:0x5bd5556e47214604,
komplek housing,Komplek perumahan,Rumah Upi,"HXC5+XX, Labuan, Kec. Wakorumba, Kabupaten Buton Utara, Sulawesi Tenggara 93671","Labuan, Kec. Wakorumba, Kabupaten Buton Utara",SULAWESI TENGGARA,93671.0,Indonesia,,,,-4.4271221,122.9605192,https://maps.google.com/?cid=0x0:0xe67428691f087e5d,
komplek housing,Komplek perumahan,Rumah SSA,"HXC5+XX, Labuan, Kec. Wakorumba, Kabupaten Buton Utara, Sulawesi Tenggara 93671","Labuan, Kec. Wakorumba, Kabupaten Buton Utara",SULAWESI TENGGARA,93671.0,Indonesia,,,,-4.4270796,122.9604766,https://maps.google.com/?cid=0x0:0x2162cc6df8a377a1,
komplek housing,komplek housing,Rumah Sarman,"HXC4+CXC, Labuan, Kec. Wakorumba, Kabupaten Buton Utara, Sulawesi Tenggara","Kabupaten Buton Utara, Sulawesi Tenggara",SULAWESI TENGGARA,,Indonesia,,,,-4.4289333,122.9573958,https://maps.google.com/?cid=0x0:0x3f7703c5b69adf2f,
komplek housing,Komplek perumahan,Dahlia,"HXC5+XX, Labuan, Kec. Wakorumba, Kabupaten Buton Utara, Sulawesi Tenggara 93671","Labuan, Kec. Wakorumba, Kabupaten Buton Utara",SULAWESI TENGGARA,93671.0,Indonesia,,,,-4.4281538,122.9591966,https://maps.google.com/?cid=0x0:0xa53558bcc13f484,
komplek housing,Komplek perumahan,Rumah ALMISAFIR+TAHAYA,"HW3M+RH, Labuan Wolio, Kec. Wakorumba, Kabupaten Buton Utara, Sulawesi Tenggara","Kabupaten Buton Utara, Sulawesi Tenggara",SULAWESI TENGGARA,,Indonesia,,,,-4.4447039,122.9345927,https://maps.google.com/?cid=0x0:0xc3a38007ed1d74d2,
komplek housing,Perhimpunan Pengembang Perumahan,Rumah Muli,"J257+FM5, Wantulasi, Kec. Wakorumba, Kabupaten Buton Utara, Sulawesi Tenggara 93672","Wantulasi, Kec. Wakorumba, Kabupaten Buton Utara",SULAWESI TENGGARA,93672.0,Indonesia,,,,-4.3913917,123.0143237,https://maps.google.com/?cid=0x0:0xe3b5101b8bb77e54,
komplek housing,Kantor Pemerintah,Kelurahan Labuan,"HX7C+7QV, Labuan, Kec. Wakorumba, Kabupaten Buton Utara, Sulawesi Tenggara","Kabupaten Buton Utara, Sulawesi Tenggara",SULAWESI TENGGARA,,Indonesia,,,,-4.436765,122.9719348,https://maps.google.com/?cid=0x0:0x777d25b4e47447cc,
komplek housing,Komplek perumahan,Rumah bintang,"3R8Q+Q82, Wakorumba, Kec. Wakorumba Sel., Kabupaten Muna, Sulawesi Tenggara 93671","Wakorumba, Kec. Wakorumba Sel., Kabupaten Muna",SULAWESI TENGGARA,93671.0,Indonesia,,,,-4.9327144,122.8385103,https://maps.google.com/?cid=0x0:0x7294837540b93a97,
komplek housing,komplek housing,Rumah pak Redar,"HXC6+P5C, Labuan, Kec. Wakorumba, Kabupaten Buton Utara, Sulawesi Tenggara","Kabupaten Buton Utara, Sulawesi Tenggara",SULAWESI TENGGARA,,Indonesia,,,,-4.4281962,122.9603771,https://maps.google.com/?cid=0x0:0x68740f76a5742b81,
komplek housing,Perhimpunan Pengembang Perumahan,Lorong pasar,"GWGQ+G7R, Labuan Bajo, Kec. Wakorumba, Kabupaten Buton Utara, Sulawesi Tenggara","Kabupaten Buton Utara, Sulawesi Tenggara",SULAWESI TENGGARA,,Indonesia,,,,-4.4736406,122.9381321,https://maps.google.com/?cid=0x0:0xd7af5c849180f9aa,
komplek housing,Komplek perumahan,BOLA DARE',"HX7C+7QV, Labuan, Kec. Wakorumba, Kabupaten Buton Utara, Sulawesi Tenggara","Kabupaten Buton Utara, Sulawesi Tenggara",SULAWESI TENGGARA,,Indonesia,,,,-4.436765,122.9719348,https://maps.google.com/?cid=0x0:0xe4a145ddfe6f2bde,
komplek housing,komplek housing,Kec. Wakorumba,"Kabupaten Buton Utara, Sulawesi Tenggara","Kabupaten Buton Utara, Sulawesi Tenggara",SULAWESI TENGGARA,,Indonesia,,,,-4.5258817,122.8714966,https://maps.google.com/?cid=0x0:0x2960a385cacc9e5c,
komplek housing,Perumahan,Bapak udin,"HXC5+XX, Labuan, Kec. Wakorumba, Kabupaten Buton Utara, Sulawesi Tenggara 93671","Labuan, Kec. Wakorumba, Kabupaten Buton Utara",SULAWESI TENGGARA,93671.0,Indonesia,,,,-4.428603,122.958796,https://maps.google.com/?cid=0x0:0x1408f1116c23c9b0,
perumahan,perumahan,Sulawesi Tenggara 93673,"Kabupaten Buton Utara, Sulawesi Tenggara","Kabupaten Buton Utara, Sulawesi Tenggara",SULAWESI TENGGARA,,Indonesia,,,,-4.900844,122.9663018,https://maps.google.com/?cid=0x0:0x9ba45992a80e927e,
perumahan,Kios,"Kioko, Kelurahan Bonegunu","3X5M+8WP, Unnamed Road, Bonegunu, Kec. Bonegunu, Kabupaten Buton Utara, Sulawesi Tenggara 93673","Unnamed Road, Bonegunu, Kec. Bonegunu, Kabupaten Buton Utara",SULAWESI TENGGARA,93673.0,Indonesia,,,,-4.9416707,122.9848209,https://maps.google.com/?cid=0x0:0x5cdb101a03a20cf,
perumahan,perumahan,Ruma Lisna,"3X5P+V73, Bonegunu, Kec. Bonegunu, Kabupaten Buton Utara, Sulawesi Tenggara 93673","Bonegunu, Kec. Bonegunu, Kabupaten Buton Utara",SULAWESI TENGGARA,93673.0,Indonesia,,,,-4.9403625,122.9856693,https://maps.google.com/?cid=0x0:0x9bfc0262947268dc,
perumahan,Pembangunan Perumahan,Rumah afran,"4X4V+JW2, Laanoipi, Kec. Bonegunu, Kabupaten Buton Utara, Sulawesi Tenggara 93673","Laanoipi, Kec. Bonegunu, Kabupaten Buton Utara",SULAWESI TENGGARA,93673.0,Indonesia,,,,-4.8926608,122.9955674,https://maps.google.com/?cid=0x0:0x867f2da12620ab1f,
perumahan,Pembangunan Perumahan,ARSY KIOKO'S HOUSE,"3X2H+9RV, Jl.poros Bau-Bau-ereke, Bonegunu, Kec. Bonegunu, Kabupaten Buton Utara, Sulawesi Tenggara 93673","Jl.poros Bau-Bau-ereke, Bonegunu, Kec. Bonegunu, Kabupaten Buton Utara",SULAWESI TENGGARA,93673.0,Indonesia,,,,-4.949018,122.979545,https://maps.google.com/?cid=0x0:0xc46dcd5ce04b4081,
perumahan,,RUMAH MORNELLLLL,"3X6P+7RH, Bonegunu, Kec. Bonegunu, Kabupaten Buton Utara, Sulawesi Tenggara 93673","Bonegunu, Kec. Bonegunu, Kabupaten Buton Utara",SULAWESI TENGGARA,93673.0,Indonesia,,,,-4.9403622,122.9864551,https://maps.google.com/?cid=0x0:0x7717a520baaff218,
perumahan,Perhimpunan Pengembang Perumahan,Rumah Eva,"Lorong SD 2 Bonegunu, RT 001/RW 001, Damai Laborona, Bonegunu, Kec. Bonegunu, Kabupaten Buton Utara, Sulawesi Tenggara 93673","RT 001/RW 001, Damai Laborona, Bonegunu, Kec. Bonegunu, Kabupaten Buton Utara",SULAWESI TENGGARA,93673.0,Indonesia,,,,-4.9476837,122.9790956,https://maps.google.com/?cid=0x0:0xe6af1a2f7e876480,
perumahan,Komplek perumahan,Rumah Danil Ronta,"6XVQ+JCJ, Ronta, Kec. Bonegunu, Kabupaten Buton Utara, Sulawesi Tenggara 93673","Ronta, Kec. Bonegunu, Kabupaten Buton Utara",SULAWESI TENGGARA,93673.0,Indonesia,,,,-4.7559058,122.9885085,https://maps.google.com/?cid=0x0:0xbc02e4b17a4b5c34,
perumahan,Komplek perumahan,Rumah putu ledi,"6XPF+V7P, Ronta, Kec. Bonegunu, Kabupaten Buton Utara, Sulawesi Tenggara","Kabupaten Buton Utara, Sulawesi Tenggara",SULAWESI TENGGARA,,Indonesia,85246204159.0,,,-4.7627871,122.9731903,https://maps.google.com/?cid=0x0:0xc62a7601601e07b4,
perumahan,Komplek perumahan,ARIF HOUSE,"3X2G+8XF, Bonegunu, Kec. Bonegunu, Kabupaten Buton Utara, Sulawesi Tenggara 93673","Bonegunu, Kec. Bonegunu, Kabupaten Buton Utara",SULAWESI TENGGARA,93673.0,Indonesia,,,,-4.9491839,122.9774338,https://maps.google.com/?cid=0x0:0x7af956e9427e1ebb,
perumahan,Komplek perumahan,Kompleks Perumahan Tengah,"5X6V+FP9 BATAS Desa Ngapaea - Waodeo Kalowo, Waode Kalowo, Kec. Bonegunu, Kabupaten Buton Utara, Sulawesi Tenggara","Kabupaten Buton Utara, Sulawesi Tenggara",SULAWESI TENGGARA,,Indonesia,,,,-4.8400572,122.9951476,https://maps.google.com/?cid=0x0:0xe194fb7cdc4759ab,
perumahan,Perhimpunan Pengembang Perumahan,Rumah NURIYASA,"6X8Q+HH9, Waode Angkalo, Kec. Bonegunu, Kabupaten Buton Utara, Sulawesi Tenggara 93673","Waode Angkalo, Kec. Bonegunu, Kabupaten Buton Utara",SULAWESI TENGGARA,93673.0,Indonesia,,,,-4.783731,122.989764,https://maps.google.com/?cid=0x0:0x7ee0505a8af25fe4,
perumahan,Gedung Apartemen,Ketut darmikayasa,"6XPC+4H3, Ronta, Kec. Bonegunu, Kabupaten Buton Utara, Sulawesi Tenggara","Kabupaten Buton Utara, Sulawesi Tenggara",SULAWESI TENGGARA,,Indonesia,,,,-4.7647287,122.9714188,https://maps.google.com/?cid=0x0:0x7ef407942379521a,
perumahan,Komplek perumahan,Rmh nene byaz,"3X4P+PP, Bonegunu, Kec. Bonegunu, Kabupaten Buton Utara, Sulawesi Tenggara 93673","Bonegunu, Kec. Bonegunu, Kabupaten Buton Utara",SULAWESI TENGGARA,93673.0,Indonesia,,,,-4.9432164,122.9880176,https://maps.google.com/?cid=0x0:0xac0d64f32c538442,
perumahan,Komplek perumahan,Citra,"3X3H+MHP, Unnamed Road, Bonegunu, Kec. Bonegunu, Kabupaten Buton Utara, Sulawesi Tenggara 93673","Unnamed Road, Bonegunu, Kec. Bonegunu, Kabupaten Buton Utara",SULAWESI TENGGARA,93673.0,Indonesia,,,,-4.945793,122.978959,https://maps.google.com/?cid=0x0:0xc133b29d8021497a,
perumahan,Komplek perumahan,Rumah Raihan,"5XWJ+HH3, Jl. Poros Ereke - Buranga, Kalibu, Kec. Bonegunu, Kabupaten Buton Utara, Sulawesi Tenggara","Kabupaten Buton Utara, Sulawesi Tenggara",SULAWESI TENGGARA,,Indonesia,,,,-4.8036121,122.9814142,https://maps.google.com/?cid=0x0:0x88768300b43e5ce1,
perumahan,Komplek perumahan,rumah nene WILSON,"3X4P+PP, Bonegunu, Kec. Bonegunu, Kabupaten Buton Utara, Sulawesi Tenggara 93673","Bonegunu, Kec. Bonegunu, Kabupaten Buton Utara",SULAWESI TENGGARA,93673.0,Indonesia,,,,-4.9426536,122.9883133,https://maps.google.com/?cid=0x0:0xb15697de05fb0e3f,
perumahan,Komplek perumahan,LABORONA,"3X4J+6X3, Kabupaten Buton Utara, Sulawesi Tenggara 93673",Kabupaten Buton Utara,SULAWESI TENGGARA,93673.0,Indonesia,,,,-4.9445135,122.9824271,https://maps.google.com/?cid=0x0:0xefb3f85703fa69ee,
perumahan,Kantor Administrasi Kota,sekretaris desa koboruno,"6245+P8P, Unnamed Road, Upt. Burangga, Kec. Bonegunu, Kabupaten Buton Utara, Sulawesi Tenggara 93673","Unnamed Road, Upt. Burangga, Kec. Bonegunu, Kabupaten Buton Utara",SULAWESI TENGGARA,93673.0,Indonesia,,,,-4.793153,123.0083169,https://maps.google.com/?cid=0x0:0x91261ee4f5eb0ba7,
perumahan,perumahan,Eksal,"5X6V+CWG, Waode Kalowo, Kec. Bonegunu, Kabupaten Buton Utara, Sulawesi Tenggara","Kabupaten Buton Utara, Sulawesi Tenggara",SULAWESI TENGGARA,,Indonesia,,,,-4.8389274,122.9948267,https://maps.google.com/?cid=0x0:0xa93c068edeecc20f,
perumahan,Komplek perumahan,RUMAH SHACIFHA,"5XPW+JGF, Een Sumala, Kec. Bonegunu, Kabupaten Buton Utara, Sulawesi Tenggara 93673","Een Sumala, Kec. Bonegunu, Kabupaten Buton Utara",SULAWESI TENGGARA,93673.0,Indonesia,,,,-4.8138144,122.9967861,https://maps.google.com/?cid=0x0:0xa2bf685ae5d2aa35,
perumahan,Pembangunan Perumahan,Cipong,"6X7R+P6M, Unnamed Road, Waode Angkalo, Kec. Bonegunu, Kabupaten Buton Utara, Sulawesi Tenggara 93673","Unnamed Road, Waode Angkalo, Kec. Bonegunu, Kabupaten Buton Utara",SULAWESI TENGGARA,93673.0,Indonesia,,,,-4.7856562,122.9905551,https://maps.google.com/?cid=0x0:0x206729a4b149b7eb,
perumahan,Perumahan,Rumah Awen Virzha,"2XXG+MGR, Bonegunu, Kec. Bonegunu, Kabupaten Buton Utara, Sulawesi Tenggara","Kabupaten Buton Utara, Sulawesi Tenggara",SULAWESI TENGGARA,,Indonesia,,,,-4.9507676,122.9762659,https://maps.google.com/?cid=0x0:0x23a7b54eeee53575,
perumahan,Komplek perumahan,Watabako,"5343+68, Koepisino, Kec. Bonegunu, Kabupaten Buton Utara, Sulawesi Tenggara 93673","Koepisino, Kec. Bonegunu, Kabupaten Buton Utara",SULAWESI TENGGARA,93673.0,Indonesia,,,,-4.8444577,123.0533522,https://maps.google.com/?cid=0x0:0x1de63296584069b,
perumahan,perumahan,Sulawesi Tenggara 93673,"Kabupaten Buton Utara, Sulawesi Tenggara","Kabupaten Buton Utara, Sulawesi Tenggara",SULAWESI TENGGARA,,Indonesia,,,,-4.900844,122.9663018,https://maps.google.com/?cid=0x0:0x9ba45992a80e927e,
perumahan,perumahan,Ruma Lisna,"3X5P+V73, Bonegunu, Kec. Bonegunu, Kabupaten Buton Utara, Sulawesi Tenggara 93673","Bonegunu, Kec. Bonegunu, Kabupaten Buton Utara",SULAWESI TENGGARA,93673.0,Indonesia,,,,-4.9403625,122.9856693,https://maps.google.com/?cid=0x0:0x9bfc0262947268dc,
perumahan,perumahan,Komplek perumahan,"2WM5+GXG, Lahumoko(Tri Mulya), Kec. Kambowa, Kabupaten Buton Utara, Sulawesi Tenggara","Kabupaten Buton Utara, Sulawesi Tenggara",SULAWESI TENGGARA,,Indonesia,,,,-4.9661786,122.9099545,https://maps.google.com/?cid=0x0:0xe0a138cafaef141f,
perumahan,Komplek perumahan,Rumah Afrin,"WX8C+J6C, Unnamed Road, Lagundi, Mata, Kec. Kambowa, Kabupaten Buton Utara, Sulawesi Tenggara 93756","Unnamed Road, Lagundi, Mata, Kec. Kambowa, Kabupaten Buton Utara",SULAWESI TENGGARA,93756.0,Indonesia,,,,-5.0834255,122.9705172,https://maps.google.com/?cid=0x0:0x830475760814e3a,
perumahan,Komplek perumahan,Kompleks Perumahan Tengah,"5X6V+FP9 BATAS Desa Ngapaea - Waodeo Kalowo, Waode Kalowo, Kec. Bonegunu, Kabupaten Buton Utara, Sulawesi Tenggara","Kabupaten Buton Utara, Sulawesi Tenggara",SULAWESI TENGGARA,,Indonesia,,,,-4.8400572,122.9951476,https://maps.google.com/?cid=0x0:0xe194fb7cdc4759ab,
perumahan,Komplek perumahan,tempat lahir agha chutank,"2XX7+8V8, Bubu, Kec. Kambowa, Kabupaten Buton Utara, Sulawesi Tenggara 93673","Bubu, Kec. Kambowa, Kabupaten Buton Utara",SULAWESI TENGGARA,93673.0,Indonesia,,,,-4.9517201,122.9647152,https://maps.google.com/?cid=0x0:0xb595bc6d02530aa7,
perumahan,Komplek perumahan,LABORONA,"3X4J+6X3, Kabupaten Buton Utara, Sulawesi Tenggara 93673",Kabupaten Buton Utara,SULAWESI TENGGARA,93673.0,Indonesia,,,,-4.9445135,122.9824271,https://maps.google.com/?cid=0x0:0xefb3f85703fa69ee,
perumahan,Komplek perumahan,LAHUMOKO (TRY MULIA),"2WC9+9J6, Lahumoko(Tri Mulya), Kec. Kambowa, Kabupaten Buton Utara, Sulawesi Tenggara","Kabupaten Buton Utara, Sulawesi Tenggara",SULAWESI TENGGARA,,Indonesia,,,,-4.9790912,122.9190228,https://maps.google.com/?cid=0x0:0xaa4484cd4bd53e0a,
perumahan,Komplek perumahan,Rumah mama,"2W7G+2P9, Morindino, Kec. Kambowa, Kabupaten Buton Utara, Sulawesi Tenggara","Kabupaten Buton Utara, Sulawesi Tenggara",SULAWESI TENGGARA,,Indonesia,,,,-4.9874738,122.926862,https://maps.google.com/?cid=0x0:0x7d138c575c4a2e69,
perumahan,Kios,"Kioko, Kelurahan Bonegunu","3X5M+8WP, Unnamed Road, Bonegunu, Kec. Bonegunu, Kabupaten Buton Utara, Sulawesi Tenggara 93673","Unnamed Road, Bonegunu, Kec. Bonegunu, Kabupaten Buton Utara",SULAWESI TENGGARA,93673.0,Indonesia,,,,-4.9416707,122.9848209,https://maps.google.com/?cid=0x0:0x5cdb101a03a20cf,
perumahan,Pembangunan Perumahan,Rumah afran,"4X4V+JW2, Laanoipi, Kec. Bonegunu, Kabupaten Buton Utara, Sulawesi Tenggara 93673","Laanoipi, Kec. Bonegunu, Kabupaten Buton Utara",SULAWESI TENGGARA,93673.0,Indonesia,,,,-4.8926608,122.9955674,https://maps.google.com/?cid=0x0:0x867f2da12620ab1f,
perumahan,Kantor Pemerintah,Puskesmas KAMBOWA kec. Kambowa KAB. BUTON UTARA,"XXP2+2W8, Kambowa, Kec. Kambowa, Kabupaten Buton Utara, Sulawesi Tenggara 93673","Kambowa, Kec. Kambowa, Kabupaten Buton Utara",SULAWESI TENGGARA,93673.0,Indonesia,82291765303.0,,,-5.0149654,122.9523206,https://maps.google.com/?cid=0x0:0x5c76a473b14da899,
perumahan,Komplek perumahan,STN,"2XW5+66J, Bubu, Kec. Kambowa, Kabupaten Buton Utara, Sulawesi Tenggara 93673","Bubu, Kec. Kambowa, Kabupaten Buton Utara",SULAWESI TENGGARA,93673.0,Indonesia,,,,-4.9544174,122.9580266,https://maps.google.com/?cid=0x0:0xaff6e71961d2935e,
perumahan,Komplek perumahan,Rumah HARIS JONDEN,"2WFJ+77H, Lahumoko(Tri Mulya), Kec. Kambowa, Kabupaten Buton Utara, Sulawesi Tenggara 93673","Lahumoko(Tri Mulya), Kec. Kambowa, Kabupaten Buton Utara",SULAWESI TENGGARA,93673.0,Indonesia,,,,-4.9768135,122.9307266,https://maps.google.com/?cid=0x0:0xf2395678328ed265,
perumahan,Pembangunan Perumahan,Aris rahman,"2XW5+MMC, Unnamed Road, Bubu, Kec. Kambowa, Kabupaten Buton Utara, Sulawesi Tenggara 93673","Unnamed Road, Bubu, Kec. Kambowa, Kabupaten Buton Utara",SULAWESI TENGGARA,93673.0,Indonesia,,,,-4.9533245,122.959134,https://maps.google.com/?cid=0x0:0x510dc621e409e8d1,
perumahan,Komplek perumahan,Home kuyu,"3X4M+WGJ, Bonegunu, Kec. Bonegunu, Kabupaten Buton Utara, Sulawesi Tenggara 93673","Bonegunu, Kec. Bonegunu, Kabupaten Buton Utara",SULAWESI TENGGARA,93673.0,Indonesia,,,,-4.9426691,122.9837714,https://maps.google.com/?cid=0x0:0x1678c1356ced5d2a,
perumahan,Komplek perumahan,Rumah PutraCaesar,"VXVC+RC9, Unnamed Road, Konde, Kec. Kambowa, Kabupaten Buton Utara, Sulawesi Tenggara 93756","Unnamed Road, Konde, Kec. Kambowa, Kabupaten Buton Utara",SULAWESI TENGGARA,93756.0,Indonesia,,,,-5.105474,122.971121,https://maps.google.com/?cid=0x0:0x5630bcd0481faf48,
perumahan,Komplek perumahan,Rumah Ayuka,"VXWC+5QQ, Kec. Kambowa, Kabupaten Buton Utara, Sulawesi Tenggara 93756","Kec. Kambowa, Kabupaten Buton Utara",SULAWESI TENGGARA,93756.0,Indonesia,,,,-5.1045256,122.971978,https://maps.google.com/?cid=0x0:0xde94c3cd490edc1f,
perumahan,Gedung Apartemen,Ketut darmikayasa,"6XPC+4H3, Ronta, Kec. Bonegunu, Kabupaten Buton Utara, Sulawesi Tenggara","Kabupaten Buton Utara, Sulawesi Tenggara",SULAWESI TENGGARA,,Indonesia,,,,-4.7647287,122.9714188,https://maps.google.com/?cid=0x0:0x7ef407942379521a,
perumahan,Komplek perumahan,KAKEK GIBRAN,"VXJ4+J25, Desa, Bente, Kec. Kambowa, Kabupaten Buton Utara, Sulawesi Tenggara","Kabupaten Buton Utara, Sulawesi Tenggara",SULAWESI TENGGARA,,Indonesia,,,,-5.118272,122.955129,https://maps.google.com/?cid=0x0:0xc41c487b3eedacc4,
perumahan,Komplek perumahan,Rumah aka,"VXV4+G2V, Mata, Kec. Kambowa, Kabupaten Buton Utara, Sulawesi Tenggara 93756","Mata, Kec. Kambowa, Kabupaten Buton Utara",SULAWESI TENGGARA,93756.0,Indonesia,,,,-5.1061253,122.9550349,https://maps.google.com/?cid=0x0:0xc0a079b8d7f97b82,
perumahan,Komplek perumahan,RUMAH ATTAR,"VXC3+77, Mata, Kec. Kambowa, Kabupaten Buton Utara, Sulawesi Tenggara","Kabupaten Buton Utara, Sulawesi Tenggara",SULAWESI TENGGARA,,Indonesia,,,,-5.1293557,122.953218,https://maps.google.com/?cid=0x0:0x5532b52b53417511,
perumahan,Komplek perumahan,Rumah Danil Ronta,"6XVQ+JCJ, Ronta, Kec. Bonegunu, Kabupaten Buton Utara, Sulawesi Tenggara 93673","Ronta, Kec. Bonegunu, Kabupaten Buton Utara",SULAWESI TENGGARA,93673.0,Indonesia,,,,-4.7559058,122.9885085,https://maps.google.com/?cid=0x0:0xbc02e4b17a4b5c34,
perumahan,Pembangunan Perumahan,ARSY KIOKO'S HOUSE,"3X2H+9RV, Jl.poros Bau-Bau-ereke, Bonegunu, Kec. Bonegunu, Kabupaten Buton Utara, Sulawesi Tenggara 93673","Jl.poros Bau-Bau-ereke, Bonegunu, Kec. Bonegunu, Kabupaten Buton Utara",SULAWESI TENGGARA,93673.0,Indonesia,,,,-4.949018,122.979545,https://maps.google.com/?cid=0x0:0xc46dcd5ce04b4081,
perumahan,perumahan,Eksal,"5X6V+CWG, Waode Kalowo, Kec. Bonegunu, Kabupaten Buton Utara, Sulawesi Tenggara","Kabupaten Buton Utara, Sulawesi Tenggara",SULAWESI TENGGARA,,Indonesia,,,,-4.8389274,122.9948267,https://maps.google.com/?cid=0x0:0xa93c068edeecc20f,
perumahan,perumahan,SiCepat Ekspres Buton Utara Kalisusu,"Lin, Kelurahan Wandaka, Jl. Mojimohalo, Kel. Wandaka, Kec. Kulisusu, Kabupaten Buton Utara, Sulawesi Tenggara 93672","Kelurahan Wandaka, Jl. Mojimohalo, Kel. Wandaka, Kec. Kulisusu, Kabupaten Buton Utara",SULAWESI TENGGARA,93672.0,Indonesia,2130205050.0,,,-4.7823308,123.1703798,https://maps.google.com/?cid=0x0:0xfa96a6ee23785222,
perumahan,perumahan,Kali Susu,"Distrik Nabire, Kabupaten Nabire, Papua","Kabupaten Nabire, Papua",SULAWESI TENGGARA,,Indonesia,,,,-3.358954,135.5122317,https://maps.google.com/?cid=0x0:0x644f9d3e8f4b6ca7,
perumahan,perumahan,Kec. Kulisusu,"Kabupaten Buton Utara, Sulawesi Tenggara","Kabupaten Buton Utara, Sulawesi Tenggara",SULAWESI TENGGARA,,Indonesia,,,,-4.7781796,123.1769285,https://maps.google.com/?cid=0x0:0x9da2bec4811cc68e,
perumahan,perumahan,Kec. Kulisusu Bar.,"Kabupaten Buton Utara, Sulawesi Tenggara","Kabupaten Buton Utara, Sulawesi Tenggara",SULAWESI TENGGARA,,Indonesia,,,,-4.6699172,123.0647304,https://maps.google.com/?cid=0x0:0x27dee32db48a1fc5,
perumahan,Komplek perumahan,"Desa Mekar Jaya, Kecamatan Kulisusu Barat, Kabupaten Buton Utara","82CW+QP6, Jl. Poros Ereke - Buranga, Kotawo, Kec. Kulisusu Bar., Kabupaten Buton Utara, Sulawesi Tenggara 93672","Jl. Poros Ereke - Buranga, Kotawo, Kec. Kulisusu Bar., Kabupaten Buton Utara",SULAWESI TENGGARA,93672.0,Indonesia,,,,-4.6780751,123.0467748,https://maps.google.com/?cid=0x0:0x138c1db3437a08e4,
perumahan,Pembangunan Perumahan,RUMAH TINGGAL MIFTARTO BALUMBI,"922V+49R, Desa, Karya Mulya, Kulisusu Barat, North Buton Regency, South East Sulawesi 93672","Desa, Karya Mulya, Kulisusu Barat, North Buton Regency",SULAWESI TENGGARA,93672.0,Indonesia,,,,-4.6496329,123.0433968,https://maps.google.com/?cid=0x0:0xe76e23c8946a8b8f,
perumahan,Pembangunan Perumahan,Rumah Syaqila,"83FP+22P, Kasulatombi, Kec. Kulisusu Bar., Kabupaten Buton Utara, Sulawesi Tenggara","Kabupaten Buton Utara, Sulawesi Tenggara",SULAWESI TENGGARA,,Indonesia,,,,-4.6774102,123.085077,https://maps.google.com/?cid=0x0:0xcf29befffff28f3e,
perumahan,Kantor Pemerintah,"Desa Dampala Jaya, Kecamatan Kulisusu Barat, Kabupaten Buton Utara","8362+CQH, Kotawo, Kec. Kulisusu Bar., Kabupaten Buton Utara, Sulawesi Tenggara 93672","Kotawo, Kec. Kulisusu Bar., Kabupaten Buton Utara",SULAWESI TENGGARA,93672.0,Indonesia,,,,-4.6889436,123.051992,https://maps.google.com/?cid=0x0:0x229adb4a27aeedcb,
perumahan,Pembangunan Perumahan,Kecamatan Kulisusu Barat,"828M+4W9, Kotawo, Kec. Kulisusu Bar., Kabupaten Buton Utara, Sulawesi Tenggara","Kabupaten Buton Utara, Sulawesi Tenggara",SULAWESI TENGGARA,,Indonesia,,,,-4.6847172,123.0348741,https://maps.google.com/?cid=0x0:0x16ef2f4098b363d,
perumahan,Perumahan,Rumah Afianti,"827G+CFM, Kotawo, Kec. Kulisusu Bar., Kabupaten Buton Utara, Sulawesi Tenggara","Kabupaten Buton Utara, Sulawesi Tenggara",SULAWESI TENGGARA,,Indonesia,,,,-4.686408,123.0261573,https://maps.google.com/?cid=0x0:0x1afd7621613fd1b,
perumahan,Komplek perumahan,Rumah chandra,"82CW+VPC, Mekar jaya, Kec. Kulisusu Bar., Kabupaten Buton Utara, Sulawesi Tenggara 93672","Mekar jaya, Kec. Kulisusu Bar., Kabupaten Buton Utara",SULAWESI TENGGARA,93672.0,Indonesia,,,,-4.6773256,123.0465458,https://maps.google.com/?cid=0x0:0xd082deb3ec874c86,
perumahan,Pembangunan Perumahan,Kompleks Area Topisa,"83M9+7P3, Karya Bhakti, Kec. Kulisusu Bar., Kabupaten Buton Utara, Sulawesi Tenggara 93672","Karya Bhakti, Kec. Kulisusu Bar., Kabupaten Buton Utara",SULAWESI TENGGARA,93672.0,Indonesia,,,,-4.665869,123.0694642,https://maps.google.com/?cid=0x0:0xb7c835543552f047,
perumahan,perumahan,Langkumbe,"83M7+7W8, Jl. Poros Ereke - Buranga, Karya Bhakti, Kec. Kulisusu Bar., Kabupaten Buton Utara, Sulawesi Tenggara 93672","Jl. Poros Ereke - Buranga, Karya Bhakti, Kec. Kulisusu Bar., Kabupaten Buton Utara",SULAWESI TENGGARA,93672.0,Indonesia,,,,-4.6667497,123.0652978,https://maps.google.com/?cid=0x0:0x3f5c9ffe7ef7b45d,
perumahan,Toko bahan makanan,Rumah Riska,"83X7+V37, Kotawo, Kec. Kulisusu Bar., Kabupaten Buton Utara, Sulawesi Tenggara 93672","Kotawo, Kec. Kulisusu Bar., Kabupaten Buton Utara",SULAWESI TENGGARA,93672.0,Indonesia,,,,-4.6503358,123.0626868,https://maps.google.com/?cid=0x0:0x263a28682538378e,
perumahan,Komplek perumahan,Wahyu,"82VW+HJ2, Unnamed Road, Kotawo, Kec. Kulisusu Bar., Kabupaten Buton Utara, Sulawesi Tenggara 93672","Unnamed Road, Kotawo, Kec. Kulisusu Bar., Kabupaten Buton Utara",SULAWESI TENGGARA,93672.0,Indonesia,,,,-4.6561009,123.0465256,https://maps.google.com/?cid=0x0:0xfe30beafb9b303b5,
perumahan,Perhimpunan Pengembang Perumahan,Rumah gede swamba yasa,"8363+9P3, Dampala Jaya, Kec. Kulisusu Bar., Kabupaten Buton Utara, Sulawesi Tenggara","Kabupaten Buton Utara, Sulawesi Tenggara",SULAWESI TENGGARA,,Indonesia,,,,-4.688371,123.054519,https://maps.google.com/?cid=0x0:0xf1895d332b079d4,
perumahan,Komplek perumahan,Bspak putri,"82WX+724, jl paus, Karya Bhakti, Kec. Kulisusu Bar., Kabupaten Buton Utara, Sulawesi Tenggara 93672","jl paus, Karya Bhakti, Kec. Kulisusu Bar., Kabupaten Buton Utara",SULAWESI TENGGARA,93672.0,Indonesia,,,,-4.6538569,123.0477346,https://maps.google.com/?cid=0x0:0x1ae185ef402adc4a,
perumahan,Komplek perumahan,Rumah yusir,"83X4+QR, Kotawo, Kec. Kulisusu Bar., Kabupaten Buton Utara, Sulawesi Tenggara","Kabupaten Buton Utara, Sulawesi Tenggara",SULAWESI TENGGARA,,Indonesia,,,,-4.6505933,123.0570687,https://maps.google.com/?cid=0x0:0x43e3c3e00cc8290f,
perumahan,Komplek perumahan,"Desa Mekar Jaya, Kecamatan Kulisusu Barat","828X+6J4, Desa, Mekar Jaya, Kec. Kulisusu Bar., Kabupaten Buton Utara, Sulawesi Tenggara","Kabupaten Buton Utara, Sulawesi Tenggara",SULAWESI TENGGARA,,Indonesia,,,,-4.6844789,123.0490684,https://maps.google.com/?cid=0x0:0x5a2183658d55ca1,
perumahan,Komplek perumahan,Lorong bengkel,"83M9+HF9, Jl. Poros Ereke - Buranga, Karya Bhakti, Kec. Kulisusu Bar., Kabupaten Buton Utara, Sulawesi Tenggara 93672","Jl. Poros Ereke - Buranga, Karya Bhakti, Kec. Kulisusu Bar., Kabupaten Buton Utara",SULAWESI TENGGARA,93672.0,Indonesia,,,,-4.6660899,123.068737,https://maps.google.com/?cid=0x0:0xdf64eb0d3bb57364,
perumahan,Pembangunan Perumahan,Rumah Ibnu Perumnas,"72XM+3H6, Kotawo, BangkuduKec. KulisusuKabupaten, Kabupaten Buton Utara, Sulawesi Tenggara 93672","Kotawo, BangkuduKec. KulisusuKabupaten, Kabupaten Buton Utara",SULAWESI TENGGARA,93672.0,Indonesia,,,,-4.7023424,123.0338767,https://maps.google.com/?cid=0x0:0xe7f5566ac39e4888,
perumahan,Komplek perumahan,Rumah wisnu,"8327+JW4, Jl,kaktus, Dampala Jaya, Kec. Kulisusu Bar., Kabupaten Buton Utara, Sulawesi Tenggara","Kabupaten Buton Utara, Sulawesi Tenggara",SULAWESI TENGGARA,,Indonesia,,,,-4.6984892,123.0648331,https://maps.google.com/?cid=0x0:0x56c25d204f211ed5,
perumahan,Komplek perumahan,Rumah ngatini,"833M+WR2, Bumi Lapera, Kec. Kulisusu Bar., Kabupaten Buton Utara, Sulawesi Tenggara","Kabupaten Buton Utara, Sulawesi Tenggara",SULAWESI TENGGARA,,Indonesia,,,,-4.6952349,123.0845277,https://maps.google.com/?cid=0x0:0x2df8966743a5e9ca,
perumahan,perumahan,Rumah Muhamad Alpin,"826X+PG, Kotawo, Kec. Kulisusu Bar., Kabupaten Buton Utara, Sulawesi Tenggara","Kabupaten Buton Utara, Sulawesi Tenggara",SULAWESI TENGGARA,,Indonesia,,,,-4.6881436,123.0487663,https://maps.google.com/?cid=0x0:0x71b411edc6810a58,
perumahan,Komplek perumahan,CITRAONYX-NET,"827F+68, Kotawo, Kec. Kulisusu Bar., Kabupaten Buton Utara, Sulawesi Tenggara","Kabupaten Buton Utara, Sulawesi Tenggara",SULAWESI TENGGARA,,Indonesia,,,,-4.6869685,123.0233627,https://maps.google.com/?cid=0x0:0x9969d984a0fef6e8,
perumahan,perumahan,Sulawesi Tenggara 93672,"Kabupaten Buton Utara, Sulawesi Tenggara","Kabupaten Buton Utara, Sulawesi Tenggara",SULAWESI TENGGARA,,Indonesia,,,,-4.6317181,123.0338767,https://maps.google.com/?cid=0x0:0x22ef5ef6963e0828,
perumahan,Perhimpunan Pengembang Perumahan,PERUMAHAN GRAND WIMAL RESIDENCE,"Sara'ea, Jl. Wasalabose, Kec. Kulisusu, Kabupaten Buton Utara, Sulawesi Tenggara 93672","Jl. Wasalabose, Kec. Kulisusu, Kabupaten Buton Utara",SULAWESI TENGGARA,93672.0,Indonesia,85242831204.0,,,-4.7846844,123.183709,https://maps.google.com/?cid=0x0:0xc72156e7a43368ca,
perumahan,Komplek perumahan,"Desa Mekar Jaya, Kecamatan Kulisusu Barat, Kabupaten Buton Utara","82CW+QP6, Jl. Poros Ereke - Buranga, Kotawo, Kec. Kulisusu Bar., Kabupaten Buton Utara, Sulawesi Tenggara 93672","Jl. Poros Ereke - Buranga, Kotawo, Kec. Kulisusu Bar., Kabupaten Buton Utara",SULAWESI TENGGARA,93672.0,Indonesia,,,,-4.6780751,123.0467748,https://maps.google.com/?cid=0x0:0x138c1db3437a08e4,
perumahan,Pembangunan Perumahan,Ibnu Perumnas saraea,"65FR+7V6, Bangkudu, Kec. Kulisusu, Kabupaten Buton Utara, Sulawesi Tenggara 93672","Bangkudu, Kec. Kulisusu, Kabupaten Buton Utara",SULAWESI TENGGARA,93672.0,Indonesia,,,,-4.7769532,123.1924583,https://maps.google.com/?cid=0x0:0xc4fb66def8998a00,
perumahan,Komplek perumahan,Rumah rizma,"65HJ+6W7, Jl. Lajakati-Kadacua, Bangkudu, Kec. Kulisusu, Kabupaten Buton Utara, Sulawesi Tenggara 93672","Jl. Lajakati-Kadacua, Bangkudu, Kec. Kulisusu, Kabupaten Buton Utara",SULAWESI TENGGARA,93672.0,Indonesia,,,,-4.7717333,123.1831245,https://maps.google.com/?cid=0x0:0x3fe1a879c5b8d2e5,
perumahan,Komplek perumahan,Rumah Dika,"55HC+HXC, Lemo, Kec. Kulisusu, Kabupaten Buton Utara, Sulawesi Tenggara 93672","Lemo, Kec. Kulisusu, Kabupaten Buton Utara",SULAWESI TENGGARA,93672.0,Indonesia,82267482916.0,,,-4.8210682,123.1723883,https://maps.google.com/?cid=0x0:0x2d584e7416f28313,
perumahan,Komplek perumahan,Desa Pebao'a,"C5JM+299, Jl. Labuan-Ereke/Bangkudu, Lanosangia, Kec. Kulisusu Utara, Kabupaten Buton Utara, Sulawesi Tenggara 93672","Jl. Labuan-Ereke/Bangkudu, Lanosangia, Kec. Kulisusu Utara, Kabupaten Buton Utara",SULAWESI TENGGARA,93672.0,Indonesia,,,,-4.5699682,123.1834795,https://maps.google.com/?cid=0x0:0x1d1e269077a896d7,
perumahan,Pembangunan Perumahan,BTN GRYA membuku,"65GV+2PW, Bangkudu, Kec. Kulisusu, Kabupaten Buton Utara, Sulawesi Tenggara 93672","Bangkudu, Kec. Kulisusu, Kabupaten Buton Utara",SULAWESI TENGGARA,93672.0,Indonesia,,,,-4.7748798,123.1943335,https://maps.google.com/?cid=0x0:0x3a607d88b4d2fb41,
perumahan,Pembangunan Perumahan,RUMAH TINGGAL MIFTARTO BALUMBI,"922V+49R, Desa, Karya Mulya, Kulisusu Barat, North Buton Regency, South East Sulawesi 93672","Desa, Karya Mulya, Kulisusu Barat, North Buton Regency",SULAWESI TENGGARA,93672.0,Indonesia,,,,-4.6496329,123.0433968,https://maps.google.com/?cid=0x0:0xe76e23c8946a8b8f,
perumahan,Perhimpunan Pengembang Perumahan,Rumah Muli,"J257+FM5, Wantulasi, Kec. Wakorumba, Kabupaten Buton Utara, Sulawesi Tenggara 93672","Wantulasi, Kec. Wakorumba, Kabupaten Buton Utara",SULAWESI TENGGARA,93672.0,Indonesia,,,,-4.3913917,123.0143237,https://maps.google.com/?cid=0x0:0xe3b5101b8bb77e54,
perumahan,Komplek perumahan,Achmad khoirat PKG,"65C9+2Q, Bangkudu, Kec. Kulisusu, Kabupaten Buton Utara, Sulawesi Tenggara 93672","Bangkudu, Kec. Kulisusu, Kabupaten Buton Utara",SULAWESI TENGGARA,93672.0,Indonesia,,,,-4.7799655,123.1694781,https://maps.google.com/?cid=0x0:0xe247c83f37a6ab17,
perumahan,Pembangunan Perumahan,Rumah Syaqila,"83FP+22P, Kasulatombi, Kec. Kulisusu Bar., Kabupaten Buton Utara, Sulawesi Tenggara","Kabupaten Buton Utara, Sulawesi Tenggara",SULAWESI TENGGARA,,Indonesia,,,,-4.6774102,123.085077,https://maps.google.com/?cid=0x0:0xcf29befffff28f3e,
perumahan,Pembangunan Perumahan,Perumahan Pemda Buton Utara,"55WG+H9R, Jl. Minaminanga, Linsowu, Kec. Kulisusu, Kabupaten Buton Utara, Sulawesi Tenggara 93752","Jl. Minaminanga, Linsowu, Kec. Kulisusu, Kabupaten Buton Utara",SULAWESI TENGGARA,93752.0,Indonesia,,,,-4.8035197,123.1758867,https://maps.google.com/?cid=0x0:0x44c274941794d254,
perumahan,Balai masyarakat,Rombo,"55MM+GHC, Jl. Raya Rombo, Linsowu, Kec. Kulisusu, Kabupaten Buton Utara, Sulawesi Tenggara 93672","Jl. Raya Rombo, Linsowu, Kec. Kulisusu, Kabupaten Buton Utara",SULAWESI TENGGARA,93672.0,Indonesia,,,,-4.8161924,123.18389,https://maps.google.com/?cid=0x0:0x222f5e522ba7b8cb,
perumahan,Komplek perumahan,Yuliana,"65FG+W93, Bangkudu, Kec. Kulisusu, Kabupaten Buton Utara, Sulawesi Tenggara","Kabupaten Buton Utara, Sulawesi Tenggara",SULAWESI TENGGARA,,Indonesia,,,,-4.7752371,123.1759181,https://maps.google.com/?cid=0x0:0xc41c6403b62b4653,
perumahan,Otoritas Perumahan,Kompleks Perumahan Dinas,"55WG+F63, Linsowu, Kec. Kulisusu, Kabupaten Buton Utara, Sulawesi Tenggara 93752","Linsowu, Kec. Kulisusu, Kabupaten Buton Utara",SULAWESI TENGGARA,93752.0,Indonesia,,,,-4.8038533,123.17556,https://maps.google.com/?cid=0x0:0xf3de88e435495cae,
perumahan,Pembangunan Perumahan,Rumah hanisah,"8684+4MQ, Lelamo, Kec. Kulisusu Utara, Kabupaten Buton Utara, Sulawesi Tenggara","Kabupaten Buton Utara, Sulawesi Tenggara",SULAWESI TENGGARA,,Indonesia,,,,-4.6846627,123.2067236,https://maps.google.com/?cid=0x0:0xc66f3d58bbe2b963,
perumahan,Komplek perumahan,Arun/Azizah,"65CJ+WPQ, Jl. Opa Wemp, Bangkudu, Kec. Kulisusu, Kabupaten Buton Utara, Sulawesi Tenggara 93672","Jl. Opa Wemp, Bangkudu, Kec. Kulisusu, Kabupaten Buton Utara",SULAWESI TENGGARA,93672.0,Indonesia,,,,-4.7771399,123.1819299,https://maps.google.com/?cid=0x0:0x98ebd24b3f1089f8,
perumahan,Komplek perumahan,Rumah Anugrah PBS,"65JF+H66, Jl. Loji Pantai Kulisusu, Loji, Kec. Kulisusu, Kabupaten Buton Utara, Sulawesi Tenggara","Kabupaten Buton Utara, Sulawesi Tenggara",SULAWESI TENGGARA,,Indonesia,,,,-4.7685846,123.1730183,https://maps.google.com/?cid=0x0:0x1248ca4c1e1bbff1,
perumahan,Pembangunan Perumahan,Perumnas BUMI SARAEA,"Bangkudu, Kec. Kulisusu, Kabupaten Buton Utara, Sulawesi Tenggara 93672","Kec. Kulisusu, Kabupaten Buton Utara",SULAWESI TENGGARA,93672.0,Indonesia,,,,-4.7767089,123.1925599,https://maps.google.com/?cid=0x0:0xa237f7e25a014e0a,
perumahan,perumahan,Sulawesi Tenggara 93671,Sulawesi Tenggara,Sulawesi Tenggara,SULAWESI TENGGARA,,Indonesia,,,,-4.5493643,122.9212265,https://maps.google.com/?cid=0x0:0xe8e004ff2b736d21,
perumahan,Komplek perumahan,Rumah Fyu,"Labuan, Kec. Wakorumba, Kabupaten Buton Utara, Sulawesi Tenggara 93671","Kec. Wakorumba, Kabupaten Buton Utara",SULAWESI TENGGARA,93671.0,Indonesia,,,,-4.4291402,122.9596224,https://maps.google.com/?cid=0x0:0x98e244950813c501,
perumahan,perumahan,Rumah (ZARNI- INDRAYANI),"HW4P+GP, Labuan Wolio, Kec. Wakorumba, Kabupaten Buton Utara, Sulawesi Tenggara","Kabupaten Buton Utara, Sulawesi Tenggara",SULAWESI TENGGARA,,Indonesia,,,,-4.4436829,122.9368498,https://maps.google.com/?cid=0x0:0xdc2968e3995c177c,
perumahan,Komplek perumahan,Rumah La Ndikae,"Jln. Drs. Syarifudin No.120, Desa Oengkapala, Wakorumba, North Buton Regency, South East Sulawesi","Kabupaten Buton Utara, Sulawesi Tenggara",SULAWESI TENGGARA,,Indonesia,,,,-4.4326617,122.9572991,https://maps.google.com/?cid=0x0:0xa153d67164d385e6,
perumahan,Komplek perumahan,Rumah hafidz,"HX96+XW, Labuan, Kec. Wakorumba, Kabupaten Buton Utara, Sulawesi Tenggara","Kabupaten Buton Utara, Sulawesi Tenggara",SULAWESI TENGGARA,,Indonesia,,,,-4.4300207,122.9622749,https://maps.google.com/?cid=0x0:0x8f1868060db43c3d,
perumahan,Komplek perumahan,Yasra labuko,"GV6W+46J, Labuko, Kec. Wakorumba, Kabupaten Buton Utara, Sulawesi Tenggara 93671","Labuko, Kec. Wakorumba, Kabupaten Buton Utara",SULAWESI TENGGARA,93671.0,Indonesia,,,,-4.489671,122.8955307,https://maps.google.com/?cid=0x0:0xe506ffcd4accff8a,
perumahan,Komplek perumahan,Rumah Kafa,"HXC5+C63, Labuan, Kec. Wakorumba, Kabupaten Buton Utara, Sulawesi Tenggara 93671","Labuan, Kec. Wakorumba, Kabupaten Buton Utara",SULAWESI TENGGARA,93671.0,Indonesia,,,,-4.4297048,122.9568795,https://maps.google.com/?cid=0x0:0x6def9f2d8b555e84,
perumahan,Komplek perumahan,Rumah Dalle,"GV6W+HC2, Labuan, Kec. Wakorumba, Kabupaten Buton Utara, Sulawesi Tenggara","Kabupaten Buton Utara, Sulawesi Tenggara",SULAWESI TENGGARA,,Indonesia,,,,-4.4886124,122.8960009,https://maps.google.com/?cid=0x0:0x6df7d9c7b091d6b3,
perumahan,Komplek perumahan,Rumah halis,"GV5R+922, Lasiwa, Kec. Wakorumba, Kabupaten Buton Utara, Sulawesi Tenggara","Kabupaten Buton Utara, Sulawesi Tenggara",SULAWESI TENGGARA,,Indonesia,,,,-4.4916209,122.8900261,https://maps.google.com/?cid=0x0:0x4dd68e082c761ef9,
perumahan,Komplek perumahan,Rumah Upi,"HXC5+XX, Labuan, Kec. Wakorumba, Kabupaten Buton Utara, Sulawesi Tenggara 93671","Labuan, Kec. Wakorumba, Kabupaten Buton Utara",SULAWESI TENGGARA,93671.0,Indonesia,,,,-4.4271221,122.9605192,https://maps.google.com/?cid=0x0:0xe67428691f087e5d,
perumahan,Komplek perumahan,Rumah SSA,"HXC5+XX, Labuan, Kec. Wakorumba, Kabupaten Buton Utara, Sulawesi Tenggara 93671","Labuan, Kec. Wakorumba, Kabupaten Buton Utara",SULAWESI TENGGARA,93671.0,Indonesia,,,,-4.4270796,122.9604766,https://maps.google.com/?cid=0x0:0x2162cc6df8a377a1,
perumahan,Komplek perumahan,Rumah ishak,"HX96+XMH, Labuan, Kec. Wakorumba, Kabupaten Buton Utara, Sulawesi Tenggara 93672","Labuan, Kec. Wakorumba, Kabupaten Buton Utara",SULAWESI TENGGARA,93672.0,Indonesia,,,,-4.4293588,122.9615657,https://maps.google.com/?cid=0x0:0x86f802fe704d281a,
perumahan,Komplek perumahan,Kediaman Bapak La Uri,"Labuan, Kec. Wakorumba, Kabupaten Buton Utara, Sulawesi Tenggara 93671","Kec. Wakorumba, Kabupaten Buton Utara",SULAWESI TENGGARA,93671.0,Indonesia,,,,-4.4280414,122.960421,https://maps.google.com/?cid=0x0:0xd19d8a0bed34f5a9,
perumahan,Komplek perumahan,Kediaman Satri Dermawan,"Labuan, Kec. Wakorumba, Kabupaten Buton Utara, Sulawesi Tenggara 93671","Kec. Wakorumba, Kabupaten Buton Utara",SULAWESI TENGGARA,93671.0,Indonesia,,,,-4.4280609,122.9602094,https://maps.google.com/?cid=0x0:0x8c99cd2282c29a,
perumahan,Komplek perumahan,Rumah marsya,"HW7X+JJ9, Jl. Poros Maligano-Labuan, Labuan, Kec. Wakorumba, Kabupaten Buton Utara, Sulawesi Tenggara 93671","Jl. Poros Maligano-Labuan, Labuan, Kec. Wakorumba, Kabupaten Buton Utara",SULAWESI TENGGARA,93671.0,Indonesia,,,,-4.4359614,122.9490989,https://maps.google.com/?cid=0x0:0x2ab54b9f6d8ce6a2,
perumahan,Komplek perumahan,Rumah adi,"HX96+XMH, Labuan, Kec. Wakorumba, Kabupaten Buton Utara, Sulawesi Tenggara 93672","Labuan, Kec. Wakorumba, Kabupaten Buton Utara",SULAWESI TENGGARA,93672.0,Indonesia,,,,-4.4293401,122.9615938,https://maps.google.com/?cid=0x0:0x5bd5556e47214604,
perumahan,perumahan,Rumah Sarman,"HXC4+CXC, Labuan, Kec. Wakorumba, Kabupaten Buton Utara, Sulawesi Tenggara","Kabupaten Buton Utara, Sulawesi Tenggara",SULAWESI TENGGARA,,Indonesia,,,,-4.4289333,122.9573958,https://maps.google.com/?cid=0x0:0x3f7703c5b69adf2f,
perumahan,Vila,Rumah MUJIYO,"CVVQ+G9G, Laeya, Kec. Wakorumba, Kabupaten Buton Utara, Sulawesi Tenggara","Kabupaten Buton Utara, Sulawesi Tenggara",SULAWESI TENGGARA,,Indonesia,,,,-4.5561795,122.8884564,https://maps.google.com/?cid=0x0:0xbf560660de3ad9f3,
perumahan,Kantor Pemerintah,Kelurahan Labuan,"HX7C+7QV, Labuan, Kec. Wakorumba, Kabupaten Buton Utara, Sulawesi Tenggara","Kabupaten Buton Utara, Sulawesi Tenggara",SULAWESI TENGGARA,,Indonesia,,,,-4.436765,122.9719348,https://maps.google.com/?cid=0x0:0x777d25b4e47447cc,
perumahan,Komplek perumahan,Rumah bintang,"3R8Q+Q82, Wakorumba, Kec. Wakorumba Sel., Kabupaten Muna, Sulawesi Tenggara 93671","Wakorumba, Kec. Wakorumba Sel., Kabupaten Muna",SULAWESI TENGGARA,93671.0,Indonesia,,,,-4.9327144,122.8385103,https://maps.google.com/?cid=0x0:0x7294837540b93a97,
perumahan,Perhimpunan Pengembang Perumahan,Rumah Muli,"J257+FM5, Wantulasi, Kec. Wakorumba, Kabupaten Buton Utara, Sulawesi Tenggara 93672","Wantulasi, Kec. Wakorumba, Kabupaten Buton Utara",SULAWESI TENGGARA,93672.0,Indonesia,,,,-4.3913917,123.0143237,https://maps.google.com/?cid=0x0:0xe3b5101b8bb77e54,
perumahan,Komplek perumahan,Rumah ALMISAFIR+TAHAYA,"HW3M+RH, Labuan Wolio, Kec. Wakorumba, Kabupaten Buton Utara, Sulawesi Tenggara","Kabupaten Buton Utara, Sulawesi Tenggara",SULAWESI TENGGARA,,Indonesia,,,,-4.4447039,122.9345927,https://maps.google.com/?cid=0x0:0xc3a38007ed1d74d2,
