Category;Real Category;Business Name;Address;City;State;Postal Code;Country;Phone;Email;Website;Latitude;Longitude;Map Link;Details Link
building materials;building materials;Papua 98862;"Kabupaten Dogiyai, Papua";"Kabupaten Dogiyai, Papua";PAPUA;;Indonesia;;;;-39.828.074;1.360.944.845;https://maps.google.com/?cid=0x0:0xeac06bf36c87f14a;
building materials;Toko Bahan Bangunan;"Papua Bangunan, CV PAPUA ABADI";"Jl. Basuki Rahmat No.780, Klawuyuk, Distrik Sorong Timur, Kota Sorong, Papua Bar. 98416";"Klawuyuk, Distrik Sorong Timur, Kota Sorong";PAPUA;98416;Indonesia;081332017550;;;-0.8954087;1.313.186.922;https://maps.google.com/?cid=0x0:0x851804bc3aa7f033;
building materials;Toko Bahan Bangunan;Depo Bangunan Mbanyu Mili;"3VQM+2GP depan balai kampung sp 2, Prafi Mulia, Distrik Prafi, Kabupaten Manokwari, Papua Bar. 98356";"Prafi Mulia, Distrik Prafi, Kabupaten Manokwari";PAPUA;98356;Indonesia;085254126242;;;-0.9124191;1.338.838.245;https://maps.google.com/?cid=0x0:0x72bb281db456c91a;
building materials;Toko Bahan Bangunan;Investama Store Kurik;"P63X+M8G, Rawasari, Kec. Kurik, Kabupaten Merauke, Papua 99651";"Rawasari, Kec. Kurik, Kabupaten Merauke";PAPUA;99651;Indonesia;082198323032;;;-82.960.749;1.402.480.061;https://maps.google.com/?cid=0x0:0xef7f5ce8dffe74b0;
building materials;Toko Bahan Bangunan;Royal Bangunan (PT. Papua Jaya Bangunan);"43P8+87R, Jl. Percetakan Negara, Sanggeng, Kec. Manokwari Bar., Kabupaten Manokwari, Papua Bar. 98312";"Jl. Percetakan Negara, Sanggeng, Kec. Manokwari Bar., Kabupaten Manokwari";PAPUA;98312;Indonesia;087784554955;;;-0.8641385;1.340.656.252;https://maps.google.com/?cid=0x0:0x99b3b4ac0bad58a;
building materials;Toko Bahan Bangunan;PT. Bintuni Utama Murni Wood Industries;"Jl. Jend. Sudirman No.40, Padarni, Kec. Manokwari Bar., Kabupaten Manokwari, Papua Bar. 98312";"Padarni, Kec. Manokwari Bar., Kabupaten Manokwari";PAPUA;98312;Indonesia;0986211170;;;-0.8600523;1.340.722.125;https://maps.google.com/?cid=0x0:0xf2f8ff6d20bb8f63;
building materials;Toko Bahan Bangunan;CV. XA TRIO JAYA;"Jl. Cendrawasih Sp2, Simpang Lima, Kec. Mimika Baru, Kabupaten Mimika, Papua";"Kabupaten Mimika, Papua";PAPUA;;Indonesia;085244282610;;;-45.154.756;1.368.496.527;https://maps.google.com/?cid=0x0:0x49e9d0a78fcf7509;
building materials;building materials;Papua;;Papua;PAPUA;;Indonesia;;;;-4.269.928;1.380.803.529;https://maps.google.com/?cid=0x0:0xeba94e9c5eefe673;
building materials;Toko Bahan Bangunan;Depo Bangunan Mbanyu Mili;"3VQM+2GP depan balai kampung sp 2, Prafi Mulia, Distrik Prafi, Kabupaten Manokwari, Papua Bar. 98356";"Prafi Mulia, Distrik Prafi, Kabupaten Manokwari";PAPUA;98356;Indonesia;085254126242;;;-0.9124191;1.338.838.245;https://maps.google.com/?cid=0x0:0x72bb281db456c91a;
building materials;Toserba;TOKO MAJU MAKMUR;"4R8F+95V, Udapi Hilir, Distrik Prafi, Kabupaten Manokwari, Papua Bar. 98356";"Udapi Hilir, Distrik Prafi, Kabupaten Manokwari";PAPUA;98356;Indonesia;;;;-0.884108;1.338.229.369;https://maps.google.com/?cid=0x0:0x5dd0e3c69ab93bdc;
building materials;Pabrik Kimia;Sustainable | Mapei Indonesia | Polyurea | Waterproofing | Adhesive | Floor Coating | Epoxy | Resin | Obat Beton | Struktural;"Jl. TB Simatupang No.2, RW.5, Cilandak Tim., Kec. Ps. Minggu, Cibis Tower 9, Lantai: 6 Unit: A2, Kota Jakarta Selatan, Daerah Khusus Ibukota Jakarta 12560";"RW.5, Cilandak Tim., Kec. Ps. Minggu, Cibis Tower 9, Lantai: 6 Unit: A2, Kota Jakarta Selatan";PAPUA;12560;Indonesia;0217826976;;;-62.951.369;1.068.153.488;https://maps.google.com/?cid=0x0:0xe727df08572093d5;
building materials;building materials;Papua 98863;Papua;Papua;PAPUA;;Indonesia;;;;-38.009.799;1.360.944.845;https://maps.google.com/?cid=0x0:0x6da0fecc08c5d815;
building materials;Toko Bahan Bangunan;Investama Store Kurik;"P63X+M8G, Rawasari, Kec. Kurik, Kabupaten Merauke, Papua 99651";"Rawasari, Kec. Kurik, Kabupaten Merauke";PAPUA;99651;Indonesia;082198323032;;;-82.960.749;1.402.480.061;https://maps.google.com/?cid=0x0:0xef7f5ce8dffe74b0;
building materials;Kantor Perusahaan;Tambang material PT. Dewa Kresna;"W6R2+XM3, Wageta Raya, Ayate, Distrik Tigi Barat, Kabupaten Deiyai, Papua 98764";"Wageta Raya, Ayate, Distrik Tigi Barat, Kabupaten Deiyai";PAPUA;98764;Indonesia;;;;-40.576.237;1.362.016.669;https://maps.google.com/?cid=0x0:0xb7a38ded3104fb7b;
building materials;building materials;ICA MERBAU;"Nembukrang, Distrik Nimbokrang, Kabupaten Jayapura, Papua 99352";"Distrik Nimbokrang, Kabupaten Jayapura";PAPUA;99352;Indonesia;082197995447;;;-2.558.343;1.401.301.628;https://maps.google.com/?cid=0x0:0x76b2890b18d08a9d;
building materials;Toko Bahan Bangunan;TOKO ADIPATI;"X72G+VV9, Unnamed Road, Wagete I, Kec. Tigi, Kabupaten Deiyai, Papua 98764";"Unnamed Road, Wagete I, Kec. Tigi, Kabupaten Deiyai";PAPUA;98764;Indonesia;;;;-40.478.291;1.362.772.267;https://maps.google.com/?cid=0x0:0x5e5f483c1346142a;
building materials;Toko Bahan Bangunan;Horukie Toko Bangunan;"R38J+883 Wa Toko T??-89T3-T541 kami, Fandoi, Kec. Biak Kota, Kabupaten Biak Numfor, Papua 98111";"Fandoi, Kec. Biak Kota, Kabupaten Biak Numfor";PAPUA;98111;Indonesia;081344944374;;;-11.842.375;1.360.807.969;https://maps.google.com/?cid=0x0:0x9ef95c0249a63970;
building materials;Toko Bahan Bangunan;Toko AKBAR bangunan;"2W63+2XM, Dawaikunu, Distrik Mapia, Kabupaten Dogiyai, Papua";"Kabupaten Dogiyai, Papua";PAPUA;;Indonesia;08161999912;;;-3.989.908;135.904.907;https://maps.google.com/?cid=0x0:0x54762d941a6ba240;
building materials;building materials;Kec. Kamu Utara;"Kabupaten Dogiyai, Papua";"Kabupaten Dogiyai, Papua";PAPUA;;Indonesia;;;;-39.788.029;1.361.055.384;https://maps.google.com/?cid=0x0:0x6e571716278e8bd2;
building materials;Toko Mebel;Toko Lima utama;"X2QP+7FV, Kimupugi, Kec. Kamu, Kabupaten Dogiyai, Papua 98862";"Kimupugi, Kec. Kamu, Kabupaten Dogiyai";PAPUA;98862;Indonesia;;;;-40.117.335;1.360.360.948;https://maps.google.com/?cid=0x0:0xc8d46643286e1f7c;
building materials;Toko Bahan Bangunan;Toko AKBAR bangunan;"2W63+2XM, Dawaikunu, Distrik Mapia, Kabupaten Dogiyai, Papua";"Kabupaten Dogiyai, Papua";PAPUA;;Indonesia;08161999912;;;-3.989.908;135.904.907;https://maps.google.com/?cid=0x0:0x54762d941a6ba240;
building materials;Pemotongan Kayu;Kantor kaca PT.SWPI;"Tim, Awunawai, Distrik Yapen Timur, Kabupaten Kepulauan Yapen, Papua 98252";"Awunawai, Distrik Yapen Timur, Kabupaten Kepulauan Yapen";PAPUA;98252;Indonesia;;;;-18.226.475;1.367.595.672;https://maps.google.com/?cid=0x0:0xce8e51c2e764af51;
building materials;Bengkel Mobil;BENGKEL M.AB.AR;"5QG4+XH7, Awunawai, Distrik Yapen Timur, Kabupaten Kepulauan Yapen, Papua 98252";"Awunawai, Distrik Yapen Timur, Kabupaten Kepulauan Yapen";PAPUA;98252;Indonesia;;;;-18.224.504;1.367.576.891;https://maps.google.com/?cid=0x0:0xc6ca782424f0ea4b;
building materials;Pasar;PD MALIK JAYA;"Kp Pagenggang, Cipalabuh, Kec. Cijaku, Kabupaten Lebak, Banten 42397";"Cipalabuh, Kec. Cijaku, Kabupaten Lebak";PAPUA;42397;Indonesia;082114279245;;;-6.689.224;1.060.607.642;https://maps.google.com/?cid=0x0:0x1ad74e1d325b99a5;
building materials;Pusat Perbelanjaan;Pasar sukamaju;"73R9+3XR, Cijaku, Kec. Cijaku, Kabupaten Lebak, Banten 42395";"Cijaku, Kec. Cijaku, Kabupaten Lebak";PAPUA;42395;Indonesia;;;;-67.097.676;1.060.698.963;https://maps.google.com/?cid=0x0:0xc0003b6afb34c76a;
building materials;building materials;Distrik Mapia Barat;"Kabupaten Dogiyai, Papua";"Kabupaten Dogiyai, Papua";PAPUA;;Indonesia;;;;-40.494.504;1.357.394.361;https://maps.google.com/?cid=0x0:0x5153e9cb24245eec;
building materials;Toko Bahan Bangunan;Depo Bangunan Mbanyu Mili;"3VQM+2GP depan balai kampung sp 2, Prafi Mulia, Distrik Prafi, Kabupaten Manokwari, Papua Bar. 98356";"Prafi Mulia, Distrik Prafi, Kabupaten Manokwari";PAPUA;98356;Indonesia;085254126242;;;-0.9124191;1.338.838.245;https://maps.google.com/?cid=0x0:0x72bb281db456c91a;
building materials;Toko Mebel;Toko Lima utama;"X2QP+7FV, Kimupugi, Kec. Kamu, Kabupaten Dogiyai, Papua 98862";"Kimupugi, Kec. Kamu, Kabupaten Dogiyai";PAPUA;98862;Indonesia;;;;-40.117.335;1.360.360.948;https://maps.google.com/?cid=0x0:0xc8d46643286e1f7c;
building materials;Toko Bahan Bangunan;CV. XA TRIO JAYA;"Jl. Cendrawasih Sp2, Simpang Lima, Kec. Mimika Baru, Kabupaten Mimika, Papua";"Kabupaten Mimika, Papua";PAPUA;;Indonesia;085244282610;;;-45.154.756;1.368.496.527;https://maps.google.com/?cid=0x0:0x49e9d0a78fcf7509;
building materials;Toko Bahan Bangunan;TOKO ADIPATI;"X72G+VV9, Unnamed Road, Wagete I, Kec. Tigi, Kabupaten Deiyai, Papua 98764";"Unnamed Road, Wagete I, Kec. Tigi, Kabupaten Deiyai";PAPUA;98764;Indonesia;;;;-40.478.291;1.362.772.267;https://maps.google.com/?cid=0x0:0x5e5f483c1346142a;
building materials;Toserba;TOKO MAJU MAKMUR;"4R8F+95V, Udapi Hilir, Distrik Prafi, Kabupaten Manokwari, Papua Bar. 98356";"Udapi Hilir, Distrik Prafi, Kabupaten Manokwari";PAPUA;98356;Indonesia;;;;-0.884108;1.338.229.369;https://maps.google.com/?cid=0x0:0x5dd0e3c69ab93bdc;
building materials;Toko Bahan Bangunan;"Mega Jaya Barokah ( Jual Triplek, Mdf, Hmr, Blockmin, HPL, Lem Kuning, Hardware Interior )";"Depan RSI Aminah, Ruko No.E-01, Watutulis Utara, Watutulis, Kec. Prambon, Kabupaten Sidoarjo, Jawa Timur 61264";"Ruko No.E-01, Watutulis Utara, Watutulis, Kec. Prambon, Kabupaten Sidoarjo";PAPUA;61264;Indonesia;08566661000;;;-74.405.207;1.125.722.891;https://maps.google.com/?cid=0x0:0xac40a6d9f0abf32a;
building materials;Pemasok Bahan Bangunan;Distributor Triplek PT.BINTANG PLYWOOD SBY;"Jl. Parengan No.13, Semawut, Balongbendo, Kec. BalongBendo, Kabupaten Sidoarjo, Jawa Timur 61263";"Semawut, Balongbendo, Kec. BalongBendo, Kabupaten Sidoarjo";PAPUA;61263;Indonesia;0811515274;;;-74.115.767;1.125.508.567;https://maps.google.com/?cid=0x0:0x7af51e4ea633610c;
building materials;building materials;Papua 98862;"Kabupaten Dogiyai, Papua";"Kabupaten Dogiyai, Papua";PAPUA;;Indonesia;;;;-39.828.074;1.360.944.845;https://maps.google.com/?cid=0x0:0xeac06bf36c87f14a;
building materials;Toko Mebel;Toko Lima utama;"X2QP+7FV, Kimupugi, Kec. Kamu, Kabupaten Dogiyai, Papua 98862";"Kimupugi, Kec. Kamu, Kabupaten Dogiyai";PAPUA;98862;Indonesia;;;;-40.117.335;1.360.360.948;https://maps.google.com/?cid=0x0:0xc8d46643286e1f7c;
building materials;Toko Bahan Bangunan;TOKO RAJAWALI MAS;"Unnamed Road, Wagete I, Kec. Tigi, Kabupaten Deiyai, Papua 98764";"Wagete I, Kec. Tigi, Kabupaten Deiyai";PAPUA;98764;Indonesia;;;;-40.468.695;1.362.813.948;https://maps.google.com/?cid=0x0:0xd7783c1250e8410;
building materials;Toko Bahan Bangunan;Toko AKBAR bangunan;"2W63+2XM, Dawaikunu, Distrik Mapia, Kabupaten Dogiyai, Papua";"Kabupaten Dogiyai, Papua";PAPUA;;Indonesia;08161999912;;;-3.989.908;135.904.907;https://maps.google.com/?cid=0x0:0x54762d941a6ba240;
building materials;building materials;Kec. Kamu Tim.;"Kabupaten Dogiyai, Papua";"Kabupaten Dogiyai, Papua";PAPUA;;Indonesia;;;;-4.011.886;1.361.550.492;https://maps.google.com/?cid=0x0:0xff38d94f16554efc;
building materials;Toko Mebel;Toko Lima utama;"X2QP+7FV, Kimupugi, Kec. Kamu, Kabupaten Dogiyai, Papua 98862";"Kimupugi, Kec. Kamu, Kabupaten Dogiyai";PAPUA;98862;Indonesia;;;;-40.117.335;1.360.360.948;https://maps.google.com/?cid=0x0:0xc8d46643286e1f7c;
building materials;Kantor Perusahaan;Tambang material PT. Dewa Kresna;"W6R2+XM3, Wageta Raya, Ayate, Distrik Tigi Barat, Kabupaten Deiyai, Papua 98764";"Wageta Raya, Ayate, Distrik Tigi Barat, Kabupaten Deiyai";PAPUA;98764;Indonesia;;;;-40.576.237;1.362.016.669;https://maps.google.com/?cid=0x0:0xb7a38ded3104fb7b;
building materials;building materials;Somilbatu tela vandy.ok;"Jl.1 timur, Bebon Jaya, Kec. Bonggo, Kabupaten Sarmi, Papua 99381";"Bebon Jaya, Kec. Bonggo, Kabupaten Sarmi";PAPUA;99381;Indonesia;081247263895;;;-22.736.502;1.395.464.527;https://maps.google.com/?cid=0x0:0x603d08da04103670;
building materials;Toko Bahan Bangunan;Tiptore Building Material;"Jl. Poros Kuda Mati, Klp. Lima, Kec. Merauke, Kabupaten Merauke, Papua 99616";"Klp. Lima, Kec. Merauke, Kabupaten Merauke";PAPUA;99616;Indonesia;082293657714;;;-85.061.763;1.404.257.632;https://maps.google.com/?cid=0x0:0xbf132c61e5517b30;
building materials;Toko Bahan Bangunan;TOKO BANGUNAN DIKA JAYA;"Jl. Dermaga Aikai. Enarotali Distrik Paniai Timur Kabupaten Paniai. Papua, Aikai, Paniai Tim., Enarotali, Papua 98711";"Aikai, Paniai Tim., Enarotali";PAPUA;98711;Indonesia;081935935177;;;-39.309.089;1.363.727.901;https://maps.google.com/?cid=0x0:0x814ba48a8059765f;
building materials;Toko Mebel;Toko Lima utama;"X2QP+7FV, Kimupugi, Kec. Kamu, Kabupaten Dogiyai, Papua 98862";"Kimupugi, Kec. Kamu, Kabupaten Dogiyai";PAPUA;98862;Indonesia;;;;-40.117.335;1.360.360.948;https://maps.google.com/?cid=0x0:0xc8d46643286e1f7c;
building materials;Toko Bahan Bangunan;Toko AKBAR bangunan;"2W63+2XM, Dawaikunu, Distrik Mapia, Kabupaten Dogiyai, Papua";"Kabupaten Dogiyai, Papua";PAPUA;;Indonesia;08161999912;;;-3.989.908;135.904.907;https://maps.google.com/?cid=0x0:0x54762d941a6ba240;
building materials;building materials;Papua 98862;"Kabupaten Dogiyai, Papua";"Kabupaten Dogiyai, Papua";PAPUA;;Indonesia;;;;-39.828.074;1.360.944.845;https://maps.google.com/?cid=0x0:0xeac06bf36c87f14a;
building materials;Toko Mebel;Toko Lima utama;"X2QP+7FV, Kimupugi, Kec. Kamu, Kabupaten Dogiyai, Papua 98862";"Kimupugi, Kec. Kamu, Kabupaten Dogiyai";PAPUA;98862;Indonesia;;;;-40.117.335;1.360.360.948;https://maps.google.com/?cid=0x0:0xc8d46643286e1f7c;
building materials;Toko Bahan Bangunan;TOKO RAJAWALI MAS;"Unnamed Road, Wagete I, Kec. Tigi, Kabupaten Deiyai, Papua 98764";"Wagete I, Kec. Tigi, Kabupaten Deiyai";PAPUA;98764;Indonesia;;;;-40.468.695;1.362.813.948;https://maps.google.com/?cid=0x0:0xd7783c1250e8410;
building materials;building materials;Kabupaten Dogiyai;Papua;"Kabupaten Dogiyai, Papua";PAPUA;;Indonesia;;;;-40.454.139;1.356.763.443;https://maps.google.com/?cid=0x0:0xd3c51544b4d7ea0e;
toko bangunan;Toko Mebel;Toko Lima utama;"X2QP+7FV, Kimupugi, Kec. Kamu, Kabupaten Dogiyai, Papua 98862";"Kimupugi, Kec. Kamu, Kabupaten Dogiyai";PAPUA;98862;Indonesia;;;;-40.117.335;1.360.360.948;https://maps.google.com/?cid=0x0:0xc8d46643286e1f7c;
toko bangunan;Toko Bahan Bangunan;Toko AKBAR bangunan;"2W63+2XM, Dawaikunu, Distrik Mapia, Kabupaten Dogiyai, Papua";"Kabupaten Dogiyai, Papua";PAPUA;;Indonesia;08161999912;;;-3.989.908;135.904.907;https://maps.google.com/?cid=0x0:0x54762d941a6ba240;
toko bangunan;toko bangunan;Papua;;Papua;PAPUA;;Indonesia;;;;-4.269.928;1.380.803.529;https://maps.google.com/?cid=0x0:0xeba94e9c5eefe673;
toko bangunan;Toko Bahan Bangunan;Toko MITRA HUSNUL BANGUNAN;"46FX+82M, Warari, Kec. Yapen Sel., Kabupaten Kepulauan Yapen, Papua 98213";"Warari, Kec. Yapen Sel., Kabupaten Kepulauan Yapen";PAPUA;98213;Indonesia;;;;-18.766.528;136.247.547;https://maps.google.com/?cid=0x0:0xda1336700384c06c;
toko bangunan;Toko Bahan Bangunan;Supermarket Multi Bangunan;"Jl Baru No.98, Wai Mhorock, Abepura, Jayapura City, Papua 99225";"Wai Mhorock, Abepura, Jayapura City";PAPUA;99225;Indonesia;0967588677;;;-26.077.336;1.406.742.812;https://maps.google.com/?cid=0x0:0x3b19f301c68f1d6f;
toko bangunan;Toko Perlengkapan Rumah;Toko Jarwal Bangunan;"Kamoro Jaya, Kec. Mimika Baru, Kabupaten Mimika, Papua 99971";"Kec. Mimika Baru, Kabupaten Mimika";PAPUA;99971;Indonesia;;;;-45.656.564;1.368.718.615;https://maps.google.com/?cid=0x0:0x6cdc385accf4a8b;
toko bangunan;Toko Bahan Bangunan;Toko Bangunan Mutiara timur;"CJ3R+33F, Unnamed Road, Kp. Waena, Kec. Heram, Kota Jayapura, Papua 99225";"Unnamed Road, Kp. Waena, Kec. Heram, Kota Jayapura";PAPUA;99225;Indonesia;;;;-25.973.134;1.406.401.625;https://maps.google.com/?cid=0x0:0x392e56b1342d758c;
toko bangunan;Toko;TOKO BANGUNAN SUMBER ANUGERAH;"Persatuan, Kec. Mandobo, Kabupaten Boven Digoel, Papua 99663";"Kec. Mandobo, Kabupaten Boven Digoel";PAPUA;99663;Indonesia;;;;-60.903.965;1.403.331.897;https://maps.google.com/?cid=0x0:0x9b0d3e5a6263752a;
toko bangunan;Toko Bahan Bangunan;TOKO SUMBER NIAGA BANGUNAN;"Timika Jaya, Kec. Mimika Baru, Kabupaten Mimika, Papua 99971";"Kec. Mimika Baru, Kabupaten Mimika";PAPUA;99971;Indonesia;0856095797670;;;-4.569.129;136.878.701;https://maps.google.com/?cid=0x0:0xcd18f7af7f50af74;
toko bangunan;Toko Bahan Bangunan;CV. XA TRIO JAYA;"Jl. Cendrawasih Sp2, Simpang Lima, Kec. Mimika Baru, Kabupaten Mimika, Papua";"Kabupaten Mimika, Papua";PAPUA;;Indonesia;085244282610;;;-45.154.756;1.368.496.527;https://maps.google.com/?cid=0x0:0x49e9d0a78fcf7509;
toko bangunan;Pasar bahan bangunan;Toko Material Rizquna Abadi;"Karang Senang, Kec. Kuala Kencana, Kabupaten Mimika, Papua 99910";"Kec. Kuala Kencana, Kabupaten Mimika";PAPUA;99910;Indonesia;;;;-44.793.362;1.368.495.766;https://maps.google.com/?cid=0x0:0xc18e7b5c4d2c92d9;
toko bangunan;Toko Bahan Bangunan;Toko Multi Bangunan;"Q97H+9V2, Sarafambai, Kec. Waropen Bawah, Kabupaten Waropen, Papua 98261";"Sarafambai, Kec. Waropen Bawah, Kabupaten Waropen";PAPUA;98261;Indonesia;;;;-22.366.153;1.363.796.343;https://maps.google.com/?cid=0x0:0x8fe10ca526096f47;
toko bangunan;Toko Bahan Bangunan;Toko Maju Bangunan;"Jl. Mangga, Serui Kota, Kec. Yapen Sel., Kabupaten Kepulauan Yapen, Papua";"Kabupaten Kepulauan Yapen, Papua";PAPUA;;Indonesia;;;;-18.818.407;1.362.440.069;https://maps.google.com/?cid=0x0:0xb489e2fdea623b09;
toko bangunan;Toko;Toko Dua Sahabat/Jotun;"Jln. Trans Papua kilo 2, Kabupaten Boven Digoel";"Kabupaten Boven Digoel, Papua";PAPUA;;Indonesia;;;;-60.959.217;1.403.245.587;https://maps.google.com/?cid=0x0:0xe788284fb59d6345;
toko bangunan;Toko Bahan Bangunan;Toko Sentra Bangunan;"Jl. Garuda No.7, Yuwanain, Arso II, Kabupaten Keerom, Papua 99468";"Yuwanain, Arso II, Kabupaten Keerom";PAPUA;99468;Indonesia;081240505719;;;-29.027.275;1.407.524.692;https://maps.google.com/?cid=0x0:0x5a7a0ae632131e91;
toko bangunan;Toko Bahan Bangunan;TOKO SEMUWA;"Jl. Raya Doyo Baru, Doyo Baru, Distrik Waibu, Kabupaten Jayapura, Papua 99352";"Doyo Baru, Distrik Waibu, Kabupaten Jayapura";PAPUA;99352;Indonesia;;;;-25.412.248;140.467.993;https://maps.google.com/?cid=0x0:0x730a161bc4f81b34;
toko bangunan;Toko Bahan Bangunan;TOKO BINTANG BANGUNAN;"Wai Mhorock, Kec. Abepura, Kota Jayapura, Papua 99225";"Kec. Abepura, Kota Jayapura";PAPUA;99225;Indonesia;081211357969;;;-26.065.155;1.406.747.591;https://maps.google.com/?cid=0x0:0xedd7cb0b345a46c4;
toko bangunan;Toko Bahan Bangunan;Multi Bangunan Sentani;"Jl. Raya Abepura - Sentani No.19, Sentani Kota, Kec. Sentani, Kabupaten Jayapura, Papua";"Kabupaten Jayapura, Papua";PAPUA;;Indonesia;08114853030;;;-2.566.744;1.405.208.317;https://maps.google.com/?cid=0x0:0x6cac4890073c8297;
toko bangunan;Toko Bahan Bangunan;TOKO BANGUN NUSANTARA JAYA 2;"JL Yos Sudarso, Sempan, Timika (200 meter setelah SMAN 1, Papua 99971";"Sempan, Timika (200 meter setelah SMAN 1";PAPUA;99971;Indonesia;081334703021;;;-45.705.016;1.368.853.477;https://maps.google.com/?cid=0x0:0x439ec6c0e9985b9b;
toko bangunan;Toko Bahan Bangunan;Toko Bangunan HARMONI;"Jl. Yos Sudarso, Nawaripi, Kec. Mimika Baru, Kabupaten Mimika, Papua 99971";"Nawaripi, Kec. Mimika Baru, Kabupaten Mimika";PAPUA;99971;Indonesia;081344141432;;;-45.725.057;1.368.834.193;https://maps.google.com/?cid=0x0:0x381265cc01d98702;
toko bangunan;Toko Bahan Bangunan;Toko Bangunan Karunia Jaya Abadi;"4PCV+PQW, Asiaman, Kec. Arso, Kabupaten Keerom, Papua 99468";"Asiaman, Kec. Arso, Kabupaten Keerom";PAPUA;99468;Indonesia;082238365051;;;-28.781.414;1.407.444.425;https://maps.google.com/?cid=0x0:0xe5cd3a535bf4a26b;
toko bangunan;Toko Bahan Bangunan;TB. GUNA KARYA II;"Jl. Mentas Selatan I No.RT06 5, RT.5/RW.12, Menteng Atas, Kecamatan Setiabudi, Kota Jakarta Selatan, Daerah Khusus Ibukota Jakarta 12960";"RT.5/RW.12, Menteng Atas, Kecamatan Setiabudi, Kota Jakarta Selatan";PAPUA;12960;Indonesia;0811181895;;;-62.146.775;106.838.011;https://maps.google.com/?cid=0x0:0xf8ec30ea129b7776;
toko bangunan;Toko Bahan Bangunan;Guna Karya. TB;"1, Jl. Muria Tanjakan No.20, RT.2/RW.2, Menteng Atas, Kecamatan Setiabudi, Kota Jakarta Selatan, Daerah Khusus Ibukota Jakarta 12960";"Jl. Muria Tanjakan No.20, RT.2/RW.2, Menteng Atas, Kecamatan Setiabudi, Kota Jakarta Selatan";PAPUA;12960;Indonesia;081513523232;;;-62.108.588;1.068.379.406;https://maps.google.com/?cid=0x0:0x4547815bf964f6cb;
toko bangunan;Toko Bahan Bangunan;TB. Sinar Pedurenan;"Jl. Pedurenan Mesjid Raya No.72 9, RT.9/RW.4, Kuningan, Karet Kuningan, Kecamatan Setiabudi, Kota Jakarta Selatan, Daerah Khusus Ibukota Jakarta 12940";"RT.9/RW.4, Kuningan, Karet Kuningan, Kecamatan Setiabudi, Kota Jakarta Selatan";PAPUA;12940;Indonesia;;;;-62.211.396;1.068.277.684;https://maps.google.com/?cid=0x0:0x12debf374f265a41;
toko bangunan;Toko Bahan Bangunan;Matrial Toko Karya Selatan;"Jl. Duren Tiga Selatan No.53 8, RT.8/RW.3, Duren Tiga, Kec. Pancoran, Kota Jakarta Selatan, Daerah Khusus Ibukota Jakarta 12760";"RT.8/RW.3, Duren Tiga, Kec. Pancoran, Kota Jakarta Selatan";PAPUA;12760;Indonesia;082156236162;;;-62.587.579;1.068.366.425;https://maps.google.com/?cid=0x0:0xf94fef3a93a10324;
toko bangunan;Toko Bahan Bangunan;TB.Dd Bangunan Karet;"Jl. Anggrek I No.22, RT.10/RW.1, Kuningan, Karet Kuningan, Kecamatan Setiabudi, Kota Jakarta Selatan, Daerah Khusus Ibukota Jakarta 12940";"RT.10/RW.1, Kuningan, Karet Kuningan, Kecamatan Setiabudi, Kota Jakarta Selatan";PAPUA;12940;Indonesia;082299001171;;;-62.171.933;1.068.236.779;https://maps.google.com/?cid=0x0:0x86a0f50a61b9149b;
toko bangunan;Toko Bahan Bangunan;Toko Bangunan Penjuru;"Jl. Kemayoran Ketapang No.01 9, RT.1/RW.8, Kb. Kosong, Kec. Kemayoran, Kota Jakarta Pusat, Daerah Khusus Ibukota Jakarta 10620";"RT.1/RW.8, Kb. Kosong, Kec. Kemayoran, Kota Jakarta Pusat";PAPUA;10620;Indonesia;081312348098;;;-616.194;1.068.500.061;https://maps.google.com/?cid=0x0:0x1b46df32e9e1c7d1;
toko bangunan;Toko Bahan Bangunan;Toko Bangunan Batu Raden;"Jl. K.H. Mas Mansyur, RT.1/RW.8, Kb. Kacang, Kecamatan Tanah Abang, Kota Jakarta Pusat, Daerah Khusus Ibukota Jakarta 10230";"RT.1/RW.8, Kb. Kacang, Kecamatan Tanah Abang, Kota Jakarta Pusat";PAPUA;10230;Indonesia;;;;-61.926.875;1.068.146.875;https://maps.google.com/?cid=0x0:0xd9057f8cb80c7715;
toko bangunan;Toko Bahan Bangunan;Toko Bangunan Karunia;"Jl. Sultan Agung, RT.1/RW.10, Kuningan, Manggarai, Kecamatan Setiabudi, Kota Jakarta Selatan, Daerah Khusus Ibukota Jakarta 12970";"RT.1/RW.10, Kuningan, Manggarai, Kecamatan Setiabudi, Kota Jakarta Selatan";PAPUA;12970;Indonesia;;;;-62.086.317;1.068.448.878;https://maps.google.com/?cid=0x0:0x5a63efff8a33b18a;
toko bangunan;Toko Bahan Bangunan;Toko AKBAR bangunan;"2W63+2XM, Dawaikunu, Distrik Mapia, Kabupaten Dogiyai, Papua";"Kabupaten Dogiyai, Papua";PAPUA;;Indonesia;08161999912;;;-3.989.908;135.904.907;https://maps.google.com/?cid=0x0:0x54762d941a6ba240;
toko bangunan;Toko Mebel;Toko Lima utama;"X2QP+7FV, Kimupugi, Kec. Kamu, Kabupaten Dogiyai, Papua 98862";"Kimupugi, Kec. Kamu, Kabupaten Dogiyai";PAPUA;98862;Indonesia;;;;-40.117.335;1.360.360.948;https://maps.google.com/?cid=0x0:0xc8d46643286e1f7c;
toko bangunan;Toko Bahan Bangunan;Toko Bahan Bangunan Aneka Maju;"Blok i14 8, Jl. Pd. Kelapa Raya No.8, RT.7/RW.9, Pd. Klp., Kec. Duren Sawit, Kota Jakarta Timur, Daerah Khusus Ibukota Jakarta 13450";"Jl. Pd. Kelapa Raya No.8, RT.7/RW.9, Pd. Klp., Kec. Duren Sawit, Kota Jakarta Timur";PAPUA;13450;Indonesia;0218651606;;;-62.366.944;1.069.342.234;https://maps.google.com/?cid=0x0:0xc1d06a35075c2497;
toko bangunan;Toko Bahan Bangunan;toko bangunan TOTOMARIO;"indomaret, Jl. Palmerah Barat seberang No.54, RT.1/RW.15, Palmerah, Kec. Palmerah, Kota Jakarta Barat, Daerah Khusus Ibukota Jakarta 11480";"Jl. Palmerah Barat seberang No.54, RT.1/RW.15, Palmerah, Kec. Palmerah, Kota Jakarta Barat";PAPUA;11480;Indonesia;;;;-62.065.563;1.067.844.964;https://maps.google.com/?cid=0x0:0x7b3771f23ffe4938;
toko bangunan;toko bangunan;Papua 98863;Papua;Papua;PAPUA;;Indonesia;;;;-38.009.799;1.360.944.845;https://maps.google.com/?cid=0x0:0x6da0fecc08c5d815;
toko bangunan;Toko Bahan Bangunan;Toko AKBAR bangunan;"2W63+2XM, Dawaikunu, Distrik Mapia, Kabupaten Dogiyai, Papua";"Kabupaten Dogiyai, Papua";PAPUA;;Indonesia;08161999912;;;-3.989.908;135.904.907;https://maps.google.com/?cid=0x0:0x54762d941a6ba240;
toko bangunan;Toko Mebel;Toko Lima utama;"X2QP+7FV, Kimupugi, Kec. Kamu, Kabupaten Dogiyai, Papua 98862";"Kimupugi, Kec. Kamu, Kabupaten Dogiyai";PAPUA;98862;Indonesia;;;;-40.117.335;1.360.360.948;https://maps.google.com/?cid=0x0:0xc8d46643286e1f7c;
toko bangunan;toko bangunan;Papua 98857;Papua;Papua;PAPUA;;Indonesia;;;;-39.020.493;1.357.900.209;https://maps.google.com/?cid=0x0:0x99af57bbf9657b1;
toko bangunan;Toko Bahan Bangunan;Toko AKBAR bangunan;"2W63+2XM, Dawaikunu, Distrik Mapia, Kabupaten Dogiyai, Papua";"Kabupaten Dogiyai, Papua";PAPUA;;Indonesia;08161999912;;;-3.989.908;135.904.907;https://maps.google.com/?cid=0x0:0x54762d941a6ba240;
toko bangunan;Toko Mebel;Toko Lima utama;"X2QP+7FV, Kimupugi, Kec. Kamu, Kabupaten Dogiyai, Papua 98862";"Kimupugi, Kec. Kamu, Kabupaten Dogiyai";PAPUA;98862;Indonesia;;;;-40.117.335;1.360.360.948;https://maps.google.com/?cid=0x0:0xc8d46643286e1f7c;
toko bangunan;Toko Bahan Bangunan;Toko AKBAR bangunan;"2W63+2XM, Dawaikunu, Distrik Mapia, Kabupaten Dogiyai, Papua";"Kabupaten Dogiyai, Papua";PAPUA;;Indonesia;08161999912;;;-3.989.908;135.904.907;https://maps.google.com/?cid=0x0:0x54762d941a6ba240;
toko bangunan;Toko Mebel;Toko Lima utama;"X2QP+7FV, Kimupugi, Kec. Kamu, Kabupaten Dogiyai, Papua 98862";"Kimupugi, Kec. Kamu, Kabupaten Dogiyai";PAPUA;98862;Indonesia;;;;-40.117.335;1.360.360.948;https://maps.google.com/?cid=0x0:0xc8d46643286e1f7c;
toko bangunan;Toko Mebel;Toko Lima utama;"X2QP+7FV, Kimupugi, Kec. Kamu, Kabupaten Dogiyai, Papua 98862";"Kimupugi, Kec. Kamu, Kabupaten Dogiyai";PAPUA;98862;Indonesia;;;;-40.117.335;1.360.360.948;https://maps.google.com/?cid=0x0:0xc8d46643286e1f7c;
toko bangunan;Toko Bahan Bangunan;Toko AKBAR bangunan;"2W63+2XM, Dawaikunu, Distrik Mapia, Kabupaten Dogiyai, Papua";"Kabupaten Dogiyai, Papua";PAPUA;;Indonesia;08161999912;;;-3.989.908;135.904.907;https://maps.google.com/?cid=0x0:0x54762d941a6ba240;
toko bangunan;toko bangunan;Papua 98862;"Kabupaten Dogiyai, Papua";"Kabupaten Dogiyai, Papua";PAPUA;;Indonesia;;;;-39.828.074;1.360.944.845;https://maps.google.com/?cid=0x0:0xeac06bf36c87f14a;
toko bangunan;Toko Bahan Bangunan;TOKO RAJAWALI MAS;"Unnamed Road, Wagete I, Kec. Tigi, Kabupaten Deiyai, Papua 98764";"Wagete I, Kec. Tigi, Kabupaten Deiyai";PAPUA;98764;Indonesia;;;;-40.468.695;1.362.813.948;https://maps.google.com/?cid=0x0:0xd7783c1250e8410;
toko bangunan;Toko Bahan Bangunan;TOKO ADIPATI;"X72G+VV9, Unnamed Road, Wagete I, Kec. Tigi, Kabupaten Deiyai, Papua 98764";"Unnamed Road, Wagete I, Kec. Tigi, Kabupaten Deiyai";PAPUA;98764;Indonesia;;;;-40.478.291;1.362.772.267;https://maps.google.com/?cid=0x0:0x5e5f483c1346142a;
toko bangunan;toko bangunan;Kec. Kamu Tim.;"Kabupaten Dogiyai, Papua";"Kabupaten Dogiyai, Papua";PAPUA;;Indonesia;;;;-4.011.886;1.361.550.492;https://maps.google.com/?cid=0x0:0xff38d94f16554efc;
toko bangunan;Toko Mebel;Toko Lima utama;"X2QP+7FV, Kimupugi, Kec. Kamu, Kabupaten Dogiyai, Papua 98862";"Kimupugi, Kec. Kamu, Kabupaten Dogiyai";PAPUA;98862;Indonesia;;;;-40.117.335;1.360.360.948;https://maps.google.com/?cid=0x0:0xc8d46643286e1f7c;
toko bangunan;Toko Bahan Bangunan;TOKO BANGUNAN DIKA JAYA;"Jl. Dermaga Aikai. Enarotali Distrik Paniai Timur Kabupaten Paniai. Papua, Aikai, Paniai Tim., Enarotali, Papua 98711";"Aikai, Paniai Tim., Enarotali";PAPUA;98711;Indonesia;081935935177;;;-39.309.089;1.363.727.901;https://maps.google.com/?cid=0x0:0x814ba48a8059765f;
toko bangunan;Toko Bahan Bangunan;TOKO ADIPATI;"X72G+VV9, Unnamed Road, Wagete I, Kec. Tigi, Kabupaten Deiyai, Papua 98764";"Unnamed Road, Wagete I, Kec. Tigi, Kabupaten Deiyai";PAPUA;98764;Indonesia;;;;-40.478.291;1.362.772.267;https://maps.google.com/?cid=0x0:0x5e5f483c1346142a;
toko bangunan;Toko Bahan Bangunan;Toko Central Bangunan / AMK;"Jl. Perikanan No.08, Hamadi, Distrik Jayapura Selatan, Kota Jayapura, Papua 99222";"Hamadi, Distrik Jayapura Selatan, Kota Jayapura";PAPUA;99222;Indonesia;082261057928;;;-25.584.767;1.407.173.289;https://maps.google.com/?cid=0x0:0xcfdf592c00fbd20d;
toko bangunan;Toko Bahan Bangunan;TOKO RAJAWALI MAS;"Unnamed Road, Wagete I, Kec. Tigi, Kabupaten Deiyai, Papua 98764";"Wagete I, Kec. Tigi, Kabupaten Deiyai";PAPUA;98764;Indonesia;;;;-40.468.695;1.362.813.948;https://maps.google.com/?cid=0x0:0xd7783c1250e8410;
toko bangunan;Toko Bahan Bangunan;"TB. Timur Jaya, Kwitang";"Jl. Kramat Kwitang 1H No.1 3, RT.3/RW.5, Kwitang, Kec. Senen, Kota Jakarta Pusat, Daerah Khusus Ibukota Jakarta 10420";"RT.3/RW.5, Kwitang, Kec. Senen, Kota Jakarta Pusat";PAPUA;10420;Indonesia;0212305040;;;-61.839.852;106.840.895;https://maps.google.com/?cid=0x0:0x2b496184cabbd527;
toko bangunan;toko bangunan;Toko bangunan Surya Timur;"H2VJ+VQ8 kp, Jl. Gaok desa, Muktijaya, Kec. Setu, Jawa Barat 17320";"Jl. Gaok desa, Muktijaya, Kec. Setu";PAPUA;17320;Indonesia;085212439113;;;-64.067.086;1.070.321.628;https://maps.google.com/?cid=0x0:0xac0fc97b5756a03b;
toko bangunan;Toko Bahan Bangunan;Toko Bangunan Mitra Kita (kapuk);"13, Jl. Kapuk Kayu Besar No.35 A, RT.13/RW.11, Cengkareng Tim., Kecamatan Cengkareng, Kota Jakarta Barat, Daerah Khusus Ibukota Jakarta 11730";"Jl. Kapuk Kayu Besar No.35 A, RT.13/RW.11, Cengkareng Tim., Kecamatan Cengkareng, Kota Jakarta Barat";PAPUA;11730;Indonesia;081803878788;;;-61.229.512;1.067.329.576;https://maps.google.com/?cid=0x0:0x6dd4da837c3adf4d;
toko bangunan;toko bangunan;Distrik Mapia Tengah;"Kabupaten Dogiyai, Papua";"Kabupaten Dogiyai, Papua";PAPUA;;Indonesia;;;;-41.114.953;1.358.199.147;https://maps.google.com/?cid=0x0:0x9fa0506cdd07ca9b;
toko bangunan;Toko Bahan Bangunan;Toko AKBAR bangunan;"2W63+2XM, Dawaikunu, Distrik Mapia, Kabupaten Dogiyai, Papua";"Kabupaten Dogiyai, Papua";PAPUA;;Indonesia;08161999912;;;-3.989.908;135.904.907;https://maps.google.com/?cid=0x0:0x54762d941a6ba240;
toko bangunan;Toko Mebel;Toko Lima utama;"X2QP+7FV, Kimupugi, Kec. Kamu, Kabupaten Dogiyai, Papua 98862";"Kimupugi, Kec. Kamu, Kabupaten Dogiyai";PAPUA;98862;Indonesia;;;;-40.117.335;1.360.360.948;https://maps.google.com/?cid=0x0:0xc8d46643286e1f7c;
toko bangunan;Toko Mebel;Toko Lima utama;"X2QP+7FV, Kimupugi, Kec. Kamu, Kabupaten Dogiyai, Papua 98862";"Kimupugi, Kec. Kamu, Kabupaten Dogiyai";PAPUA;98862;Indonesia;;;;-40.117.335;1.360.360.948;https://maps.google.com/?cid=0x0:0xc8d46643286e1f7c;
toko bangunan;Toko Bahan Bangunan;Toko AKBAR bangunan;"2W63+2XM, Dawaikunu, Distrik Mapia, Kabupaten Dogiyai, Papua";"Kabupaten Dogiyai, Papua";PAPUA;;Indonesia;08161999912;;;-3.989.908;135.904.907;https://maps.google.com/?cid=0x0:0x54762d941a6ba240;
hardware store;hardware store;Papua 98862;"Kabupaten Dogiyai, Papua";"Kabupaten Dogiyai, Papua";PAPUA;;Indonesia;;;;-39.828.074;1.360.944.845;https://maps.google.com/?cid=0x0:0xeac06bf36c87f14a;
hardware store;Toko;Boyzcell;"GQGH+H9G, Nanggerang, Kec. Tajur Halang, Kabupaten Bogor, Jawa Barat 16320";"Nanggerang, Kec. Tajur Halang, Kabupaten Bogor";PAPUA;16320;Indonesia;081280926680;;;-64.735.682;1.067.784.564;https://maps.google.com/?cid=0x0:0xe0d65a49cc1b4af5;
hardware store;Kios;Konter Boy Cell;"Jl. Dudung Sukarta, Candali, Kec. Ranca Bungur, Kabupaten Bogor, Jawa Barat 16310";"Candali, Kec. Ranca Bungur, Kabupaten Bogor";PAPUA;16310;Indonesia;;;;-65.012.156;1.067.125.821;https://maps.google.com/?cid=0x0:0x646383b61fca5c43;
hardware store;Toko Alat-Alat;Mas Jaya Teknik;"Jl. Taman Kosambi Bar. Blok C14 No.15 Blok C14, RT.11/RW.10, Duri Kosambi, Kecamatan Cengkareng, Kota Jakarta Barat, Daerah Khusus Ibukota Jakarta 11750";"RT.11/RW.10, Duri Kosambi, Kecamatan Cengkareng, Kota Jakarta Barat";PAPUA;11750;Indonesia;0215450985;;;-617.342;1.067.145.166;https://maps.google.com/?cid=0x0:0x1885d33b0fc638ce;
hardware store;hardware store;Mapia;"Dawaikunu, Distrik Mapia, Kabupaten Dogiyai, Papua";"Kabupaten Dogiyai, Papua";PAPUA;;Indonesia;;;;-3.989.908;135.904.907;https://maps.google.com/?cid=0x0:0xa161b65eb173837d;
hardware store;hardware store;Kec. Tebet;"Kota Jakarta Selatan, Daerah Khusus Ibukota Jakarta";"Kota Jakarta Selatan, Daerah Khusus Ibukota Jakarta";PAPUA;;Indonesia;;;;-62.251.223;1.068.549.881;https://maps.google.com/?cid=0x0:0xd575e31c807295f9;
hardware store;Toko Bahan Bangunan;TB. Makmur Kencana;"Jalan Muara Karang No.189, RT.10/RW.3, Pluit, Kec. Penjaringan, Jkt Utara, Daerah Khusus Ibukota Jakarta 14450";"RT.10/RW.3, Pluit, Kec. Penjaringan, Jkt Utara";PAPUA;14450;Indonesia;0216603759;;;-61.165.671;1.067.784.213;https://maps.google.com/?cid=0x0:0xd12fecbbc2f36ef1;
hardware store;Toko Kerajinan Tangan;Pendopo;"Jl. Alam Sutera Boulevard No.21, Pakulonan, Kec. Serpong, Kota Tangerang Selatan, Banten 15325";"Pakulonan, Kec. Serpong, Kota Tangerang Selatan";PAPUA;15325;Indonesia;081382139554;;;-62.446.811;1.066.530.096;https://maps.google.com/?cid=0x0:0xeede17f1657b8c4d;
hardware store;hardware store;Papua 98863;Papua;Papua;PAPUA;;Indonesia;;;;-38.009.799;1.360.944.845;https://maps.google.com/?cid=0x0:0x6da0fecc08c5d815;
hardware store;hardware store;Kec. Kamu Utara;"Kabupaten Dogiyai, Papua";"Kabupaten Dogiyai, Papua";PAPUA;;Indonesia;;;;-39.788.029;1.361.055.384;https://maps.google.com/?cid=0x0:0x6e571716278e8bd2;
hardware store;Toko Mebel;Toko Lima utama;"X2QP+7FV, Kimupugi, Kec. Kamu, Kabupaten Dogiyai, Papua 98862";"Kimupugi, Kec. Kamu, Kabupaten Dogiyai";PAPUA;98862;Indonesia;;;;-40.117.335;1.360.360.948;https://maps.google.com/?cid=0x0:0xc8d46643286e1f7c;
hardware store;Toko Bahan Bangunan;Toko AKBAR bangunan;"2W63+2XM, Dawaikunu, Distrik Mapia, Kabupaten Dogiyai, Papua";"Kabupaten Dogiyai, Papua";PAPUA;;Indonesia;08161999912;;;-3.989.908;135.904.907;https://maps.google.com/?cid=0x0:0x54762d941a6ba240;
hardware store;hardware store;Sukikai Sel.;"Kabupaten Dogiyai, Papua";"Kabupaten Dogiyai, Papua";PAPUA;;Indonesia;;;;-41.123.068;1.353.369.459;https://maps.google.com/?cid=0x0:0xdadd6877b6e8d104;
hardware store;Toko Mebel;Toko Lima utama;"X2QP+7FV, Kimupugi, Kec. Kamu, Kabupaten Dogiyai, Papua 98862";"Kimupugi, Kec. Kamu, Kabupaten Dogiyai";PAPUA;98862;Indonesia;;;;-40.117.335;1.360.360.948;https://maps.google.com/?cid=0x0:0xc8d46643286e1f7c;
hardware store;Toko Bahan Bangunan;Toko AKBAR bangunan;"2W63+2XM, Dawaikunu, Distrik Mapia, Kabupaten Dogiyai, Papua";"Kabupaten Dogiyai, Papua";PAPUA;;Indonesia;08161999912;;;-3.989.908;135.904.907;https://maps.google.com/?cid=0x0:0x54762d941a6ba240;
hardware store;hardware store;Distrik Mapia Barat;"Kabupaten Dogiyai, Papua";"Kabupaten Dogiyai, Papua";PAPUA;;Indonesia;;;;-40.494.504;1.357.394.361;https://maps.google.com/?cid=0x0:0x5153e9cb24245eec;
hardware store;hardware store;Papua 98862;"Kabupaten Dogiyai, Papua";"Kabupaten Dogiyai, Papua";PAPUA;;Indonesia;;;;-39.828.074;1.360.944.845;https://maps.google.com/?cid=0x0:0xeac06bf36c87f14a;
hardware store;Toko Mebel;Toko Lima utama;"X2QP+7FV, Kimupugi, Kec. Kamu, Kabupaten Dogiyai, Papua 98862";"Kimupugi, Kec. Kamu, Kabupaten Dogiyai";PAPUA;98862;Indonesia;;;;-40.117.335;1.360.360.948;https://maps.google.com/?cid=0x0:0xc8d46643286e1f7c;
hardware store;Toko Bahan Bangunan;TOKO ADIPATI;"X72G+VV9, Unnamed Road, Wagete I, Kec. Tigi, Kabupaten Deiyai, Papua 98764";"Unnamed Road, Wagete I, Kec. Tigi, Kabupaten Deiyai";PAPUA;98764;Indonesia;;;;-40.478.291;1.362.772.267;https://maps.google.com/?cid=0x0:0x5e5f483c1346142a;
hardware store;Toko Perlengkapan Rumah;Bintang Jaya Teknik;"Samping PT BASF INDONESIA, Jl. Kp. Duri No.66, RT.5/RW.4, Daerah Khusus Ibukota Jakarta 11750";"Jl. Kp. Duri No.66, RT.5/RW.4";PAPUA;11750;Indonesia;081283909889;;;-61.565.077;1.067.220.966;https://maps.google.com/?cid=0x0:0x304fe04674931d7e;
hardware store;Toko Alat-Alat;Mas Jaya Teknik;"Jl. Taman Kosambi Bar. Blok C14 No.15 Blok C14, RT.11/RW.10, Duri Kosambi, Kecamatan Cengkareng, Kota Jakarta Barat, Daerah Khusus Ibukota Jakarta 11750";"RT.11/RW.10, Duri Kosambi, Kecamatan Cengkareng, Kota Jakarta Barat";PAPUA;11750;Indonesia;0215450985;;;-617.342;1.067.145.166;https://maps.google.com/?cid=0x0:0x1885d33b0fc638ce;
hardware store;hardware store;Kec. Kamu Tim.;"Kabupaten Dogiyai, Papua";"Kabupaten Dogiyai, Papua";PAPUA;;Indonesia;;;;-4.011.886;1.361.550.492;https://maps.google.com/?cid=0x0:0xff38d94f16554efc;
hardware store;Toko Perlengkapan Rumah;Bintang Jaya Teknik;"Samping PT BASF INDONESIA, Jl. Kp. Duri No.66, RT.5/RW.4, Daerah Khusus Ibukota Jakarta 11750";"Jl. Kp. Duri No.66, RT.5/RW.4";PAPUA;11750;Indonesia;081283909889;;;-61.565.077;1.067.220.966;https://maps.google.com/?cid=0x0:0x304fe04674931d7e;
hardware store;Toko Alat-Alat;Mas Jaya Teknik;"Jl. Taman Kosambi Bar. Blok C14 No.15 Blok C14, RT.11/RW.10, Duri Kosambi, Kecamatan Cengkareng, Kota Jakarta Barat, Daerah Khusus Ibukota Jakarta 11750";"RT.11/RW.10, Duri Kosambi, Kecamatan Cengkareng, Kota Jakarta Barat";PAPUA;11750;Indonesia;0215450985;;;-617.342;1.067.145.166;https://maps.google.com/?cid=0x0:0x1885d33b0fc638ce;
hardware store;Toko Mebel;Toko Lima utama;"X2QP+7FV, Kimupugi, Kec. Kamu, Kabupaten Dogiyai, Papua 98862";"Kimupugi, Kec. Kamu, Kabupaten Dogiyai";PAPUA;98862;Indonesia;;;;-40.117.335;1.360.360.948;https://maps.google.com/?cid=0x0:0xc8d46643286e1f7c;
hardware store;Toko Bahan Bangunan;Toko AKBAR bangunan;"2W63+2XM, Dawaikunu, Distrik Mapia, Kabupaten Dogiyai, Papua";"Kabupaten Dogiyai, Papua";PAPUA;;Indonesia;08161999912;;;-3.989.908;135.904.907;https://maps.google.com/?cid=0x0:0x54762d941a6ba240;
hardware store;hardware store;Papua 98862;"Kabupaten Dogiyai, Papua";"Kabupaten Dogiyai, Papua";PAPUA;;Indonesia;;;;-39.828.074;1.360.944.845;https://maps.google.com/?cid=0x0:0xeac06bf36c87f14a;
hardware store;Toko Mebel;Toko Lima utama;"X2QP+7FV, Kimupugi, Kec. Kamu, Kabupaten Dogiyai, Papua 98862";"Kimupugi, Kec. Kamu, Kabupaten Dogiyai";PAPUA;98862;Indonesia;;;;-40.117.335;1.360.360.948;https://maps.google.com/?cid=0x0:0xc8d46643286e1f7c;
hardware store;Toko Bahan Bangunan;TOKO ADIPATI;"X72G+VV9, Unnamed Road, Wagete I, Kec. Tigi, Kabupaten Deiyai, Papua 98764";"Unnamed Road, Wagete I, Kec. Tigi, Kabupaten Deiyai";PAPUA;98764;Indonesia;;;;-40.478.291;1.362.772.267;https://maps.google.com/?cid=0x0:0x5e5f483c1346142a;
hardware store;Toko Bahan Bangunan;TOKO BANGUNAN DIKA JAYA;"Jl. Dermaga Aikai. Enarotali Distrik Paniai Timur Kabupaten Paniai. Papua, Aikai, Paniai Tim., Enarotali, Papua 98711";"Aikai, Paniai Tim., Enarotali";PAPUA;98711;Indonesia;081935935177;;;-39.309.089;1.363.727.901;https://maps.google.com/?cid=0x0:0x814ba48a8059765f;
hardware store;Toko Bahan Bangunan;Toko AKBAR bangunan;"2W63+2XM, Dawaikunu, Distrik Mapia, Kabupaten Dogiyai, Papua";"Kabupaten Dogiyai, Papua";PAPUA;;Indonesia;08161999912;;;-3.989.908;135.904.907;https://maps.google.com/?cid=0x0:0x54762d941a6ba240;
home improvement;Toko Bahan Bangunan;Toko AKBAR bangunan;"2W63+2XM, Dawaikunu, Distrik Mapia, Kabupaten Dogiyai, Papua";"Kabupaten Dogiyai, Papua";PAPUA;;Indonesia;08161999912;;;-3.989.908;135.904.907;https://maps.google.com/?cid=0x0:0x54762d941a6ba240;
home improvement;Toko Mebel;Toko Lima utama;"X2QP+7FV, Kimupugi, Kec. Kamu, Kabupaten Dogiyai, Papua 98862";"Kimupugi, Kec. Kamu, Kabupaten Dogiyai";PAPUA;98862;Indonesia;;;;-40.117.335;1.360.360.948;https://maps.google.com/?cid=0x0:0xc8d46643286e1f7c;
home improvement;Steel construction company;PT. Multi Karya Primatama;"Jl. Raya Pos Pengumben No.41 1, RT.1/RW.5, Klp. Dua, Kec. Kb. Jeruk, Kota Jakarta Barat, Daerah Khusus Ibukota Jakarta 11630";"RT.1/RW.5, Klp. Dua, Kec. Kb. Jeruk, Kota Jakarta Barat";PAPUA;11630;Indonesia;0215871853;;;-62.163.479;1.067.720.049;https://maps.google.com/?cid=0x0:0xa11e47e09e401c5e;
home improvement;Gudang;Classic Exportindo. PT;"Graha KNS Jl. Raya Boulevard Barat Blok XC 5-6 A, RW.5, Klp. Gading Bar., Kec. Klp. Gading, Jkt Utara, Daerah Khusus Ibukota Jakarta 14240";"RW.5, Klp. Gading Bar., Kec. Klp. Gading, Jkt Utara";PAPUA;14240;Indonesia;02129382600;;;-61.566.471;1.068.980.373;https://maps.google.com/?cid=0x0:0xccbd5c8f5aa05221;
home improvement;Perusahaan Ekspor-Impor;PT. MAHKOTA SURYA PERKASA;"JL BOULEVARD BARAT RAYA BLOK XC 5-6 NO A, RW.5, Klp. Gading Tim., Kec. Klp. Gading, Jkt Utara, Daerah Khusus Ibukota Jakarta 14240";"RW.5, Klp. Gading Tim., Kec. Klp. Gading, Jkt Utara";PAPUA;14240;Indonesia;;;;-61.566.541;106.897.964;https://maps.google.com/?cid=0x0:0xfa5f51fb098e812c;
home improvement;Printer Digital;PT. Prima Mahkota Perkasa.;"JL. Daan Mogot Raya, KM. 12.8 Kav 15 No. 6, Rw. Buaya, Kecamatan Cengkareng jak bar, RT.8/RW.2, Rw. Buaya, Kecamatan Cengkareng, Kota Jakarta Barat, Daerah Khusus Ibukota Jakarta 11740";"KM. 12.8 Kav 15 No. 6, Rw. Buaya, Kecamatan Cengkareng jak bar, RT.8/RW.2, Rw. Buaya, Kecamatan Cengkareng, Kota Jakarta Barat";PAPUA;11740;Indonesia;02154374780;;;-61.572.991;1.067.372.065;https://maps.google.com/?cid=0x0:0x8ec6b250c5ba6bb7;
home improvement;Pemasok Energi Hijau;PT Mutuagung Lestari Tbk;"Jl. Raya Bogor KM 33 No.5 No.19, Curug, Kec. Cimanggis, Kota Depok, Jawa Barat 16453";"Curug, Kec. Cimanggis, Kota Depok";PAPUA;16453;Indonesia;0218740202;;;-63.928.498;1.068.654.107;https://maps.google.com/?cid=0x0:0x5da65424d839e711;
home improvement;;Carta Laminates;"Graha Vivere, RT.1/RW.5, Palmerah, Kec. Palmerah, Jakarta, Daerah Khusus Ibukota Jakarta 11480";"RT.1/RW.5, Palmerah, Kec. Palmerah, Jakarta";PAPUA;11480;Indonesia;02131116188;;;-62.014.189;1.067.987.834;https://maps.google.com/?cid=0x0:0xdf4190c9a254876e;
home improvement;Toko Bahan Bangunan;toko bangunan TOTOMARIO;"Jl. Raya Kb. Jeruk No.14 9, RT.9/RW.15, Palmerah, Kec. Palmerah, Kota Jakarta Barat, Daerah Khusus Ibukota Jakarta 11480";"RT.9/RW.15, Palmerah, Kec. Palmerah, Kota Jakarta Barat";PAPUA;11480;Indonesia;081316222080;;;-61.985.293;1.067.808.772;https://maps.google.com/?cid=0x0:0xe47e00fcfd559ffa;
home improvement;Toko Bahan Bangunan;toko bangunan TOTOMARIO;"indomaret, Jl. Palmerah Barat seberang No.54, RT.1/RW.15, Palmerah, Kec. Palmerah, Kota Jakarta Barat, Daerah Khusus Ibukota Jakarta 11480";"Jl. Palmerah Barat seberang No.54, RT.1/RW.15, Palmerah, Kec. Palmerah, Kota Jakarta Barat";PAPUA;11480;Indonesia;;;;-62.065.563;1.067.844.964;https://maps.google.com/?cid=0x0:0x7b3771f23ffe4938;
home improvement;Toko Gorden;Mega Interior;"Jl. Meruya Ilir Raya No.19B 8, RT.8/RW.2, Meruya Utara, Kec. Kembangan, Kota Jakarta Barat, Daerah Khusus Ibukota Jakarta 11620";"RT.8/RW.2, Meruya Utara, Kec. Kembangan, Kota Jakarta Barat";PAPUA;11620;Indonesia;0215854649;;;-61.974;1.067.444.416;https://maps.google.com/?cid=0x0:0xf88127fe1cc1f4df;
home improvement;Komplek perumahan;Perumahan Mutiara Bekasi Jaya;"Perum Jl. Mutiara Bekasi Jaya No.34, Sindangmulya, Kec. Cibarusah, Kabupaten Bekasi, Jawa Barat 17343";"Sindangmulya, Kec. Cibarusah, Kabupaten Bekasi";PAPUA;17343;Indonesia;;;;-64.174.272;1.070.965.208;https://maps.google.com/?cid=0x0:0xaa27d094915b4b26;
home improvement;Pembangunan Perumahan;MBJ;"Perum Mutiara Bekasi Jaya, No.blok F17/46, RT001/009, Sindangmulya, Kec. Cibarusah, Kabupaten Bekasi, Jawa Barat 17343";"No.blok F17/46, RT001/009, Sindangmulya, Kec. Cibarusah, Kabupaten Bekasi";PAPUA;17343;Indonesia;;;;-6.411.426;107.098.558;https://maps.google.com/?cid=0x0:0xb4e0636a8b842e2c;
home improvement;Gudang;Graha KNS;"Khusus Ibukota, Jl. Boulevard Bar. Raya Blok XC No.A, RW.5, Klp. Gading Bar., Kec. Klp. Gading, Jkt Utara, Daerah Khusus Ibukota Jakarta 14240";"Jl. Boulevard Bar. Raya Blok XC No.A, RW.5, Klp. Gading Bar., Kec. Klp. Gading, Jkt Utara";PAPUA;14240;Indonesia;029382611;;;-61.566.275;1.068.980.076;https://maps.google.com/?cid=0x0:0x64cd223480bcdcbd;
home improvement;Jasa Konstruksi dan Bangunan;PHI Home Indonesia;"Jl. Ateka Timur No.57, Ngoto, Bangunharjo, Kec. Sewon, Kabupaten Bantul, Daerah Istimewa Yogyakarta 55188";"Ngoto, Bangunharjo, Kec. Sewon, Kabupaten Bantul";PAPUA;55188;Indonesia;081363663657;;;-7.841.743;1.103.716.974;https://maps.google.com/?cid=0x0:0x528e82eda6f293a8;
home improvement;Pasar;Pasar Cipayung;"M6WC+6PG, Jl. Kp. Selang, Cipayung, Kec. Cikarang Tim., Kabupaten Bekasi, Jawa Barat 17530";"Jl. Kp. Selang, Cipayung, Kec. Cikarang Tim., Kabupaten Bekasi";PAPUA;17530;Indonesia;;;;-63.044.353;1.072.218.297;https://maps.google.com/?cid=0x0:0x47356a7137ca1758;
home improvement;Otoritas Perumahan;Mushollah At-Taqwa Komplek Graha Banua Matah;"5QQ5+XVC, Karang Taruna, Kec. Pelaihari, Kabupaten Tanah Laut, Kalimantan Selatan 70812";"Karang Taruna, Kec. Pelaihari, Kabupaten Tanah Laut";PAPUA;70812;Indonesia;;;;-3.810.073;114.759.656;https://maps.google.com/?cid=0x0:0x77cb093f23b9791e;
home improvement;Kontraktor;PT Prasetya Gema Mulia;"Graha Vivere, Jalan Jend. S. Parman No.6 Lantai 6, RT.1/RW.5, Palmerah, Kec. Palmerah, Kota Jakarta Barat, Daerah Khusus Ibukota Jakarta 11480";"Jalan Jend. S. Parman No.6 Lantai 6, RT.1/RW.5, Palmerah, Kec. Palmerah, Kota Jakarta Barat";PAPUA;11480;Indonesia;02153651558;;;-6.201.339;1.067.987.281;https://maps.google.com/?cid=0x0:0x6c52a41abc4cf0b;
home improvement;Pemasok Pintu;Master Home Concept;"120, Jalan Tasek Timur, Taman Tasek Indra, 31400 Ipoh, Perak, Malaysia";Ipoh;PAPUA;31400;Indonesia;6055468475;;;4.629.203;101.115.495;https://maps.google.com/?cid=0x0:0x852d2276bbc7f2bc;
home improvement;Pasar tradisional;Pasar Mutiara;"H3PX+H2R, Sindangmulya, Kec. Cibarusah, Kabupaten Bekasi, Jawa Barat 17340";"Sindangmulya, Kec. Cibarusah, Kabupaten Bekasi";PAPUA;17340;Indonesia;;;;-64.135.211;1.070.975.211;https://maps.google.com/?cid=0x0:0xf0716c9ec3db2eae;
home improvement;home improvement;Papua 98863;Papua;Papua;PAPUA;;Indonesia;;;;-38.009.799;1.360.944.845;https://maps.google.com/?cid=0x0:0x6da0fecc08c5d815;
home improvement;home improvement;Ikrar;"Kec. Kamu Utara, Kabupaten Dogiyai, Papua";"Kabupaten Dogiyai, Papua";PAPUA;;Indonesia;;;;-38.823.479;1.360.658.592;https://maps.google.com/?cid=0x0:0xd0721532abe77f02;
home improvement;Toko Bahan Bangunan;Toko AKBAR bangunan;"2W63+2XM, Dawaikunu, Distrik Mapia, Kabupaten Dogiyai, Papua";"Kabupaten Dogiyai, Papua";PAPUA;;Indonesia;08161999912;;;-3.989.908;135.904.907;https://maps.google.com/?cid=0x0:0x54762d941a6ba240;
home improvement;Toko Bahan Bangunan;Homega Hpl  Flooring;"Jelambar Baru, Kec. Grogol petamburan, Kota Jakarta Barat, Daerah Khusus Ibukota Jakarta";"Kota Jakarta Barat, Daerah Khusus Ibukota Jakarta";PAPUA;;Indonesia;;;;-61.439.583;1.067.839.978;https://maps.google.com/?cid=0x0:0xb618508423189e86;
home improvement;Toko Bahan Bangunan;Toko AKBAR bangunan;"2W63+2XM, Dawaikunu, Distrik Mapia, Kabupaten Dogiyai, Papua";"Kabupaten Dogiyai, Papua";PAPUA;;Indonesia;08161999912;;;-3.989.908;135.904.907;https://maps.google.com/?cid=0x0:0x54762d941a6ba240;
home improvement;Toko Mebel;Toko Lima utama;"X2QP+7FV, Kimupugi, Kec. Kamu, Kabupaten Dogiyai, Papua 98862";"Kimupugi, Kec. Kamu, Kabupaten Dogiyai";PAPUA;98862;Indonesia;;;;-40.117.335;1.360.360.948;https://maps.google.com/?cid=0x0:0xc8d46643286e1f7c;
home improvement;home improvement;Sukikai Sel.;"Kabupaten Dogiyai, Papua";"Kabupaten Dogiyai, Papua";PAPUA;;Indonesia;;;;-41.123.068;1.353.369.459;https://maps.google.com/?cid=0x0:0xdadd6877b6e8d104;
home improvement;home improvement;Distrik Mapia Barat;"Kabupaten Dogiyai, Papua";"Kabupaten Dogiyai, Papua";PAPUA;;Indonesia;;;;-40.494.504;1.357.394.361;https://maps.google.com/?cid=0x0:0x5153e9cb24245eec;
home improvement;Pembangunan Perumahan;Lapak Tukang;"Gg. Asem VI No.11 a, Tegal Harum, Kec. Denpasar Bar., Kota Denpasar, Bali 80117";"Tegal Harum, Kec. Denpasar Bar., Kota Denpasar";PAPUA;80117;Indonesia;08123900967;;;-86.661.717;1.151.910.768;https://maps.google.com/?cid=0x0:0x17ae42f745c1bca6;
home improvement;Tukang Cat;Jasa tukang bangunan;"Jl. Kebo Iwa Selatan Gg. Lb. Agung No.10, Padangsambian, Kec. Denpasar Bar., Kota Denpasar, Bali 80112";"Padangsambian, Kec. Denpasar Bar., Kota Denpasar";PAPUA;80112;Indonesia;085238267217;;;-86.456.473;115.186.299;https://maps.google.com/?cid=0x0:0xbec9149d52d1df55;
home improvement;Toko Bahan Bangunan;Toko AKBAR bangunan;"2W63+2XM, Dawaikunu, Distrik Mapia, Kabupaten Dogiyai, Papua";"Kabupaten Dogiyai, Papua";PAPUA;;Indonesia;08161999912;;;-3.989.908;135.904.907;https://maps.google.com/?cid=0x0:0x54762d941a6ba240;
home improvement;Toko Mebel;Toko Lima utama;"X2QP+7FV, Kimupugi, Kec. Kamu, Kabupaten Dogiyai, Papua 98862";"Kimupugi, Kec. Kamu, Kabupaten Dogiyai";PAPUA;98862;Indonesia;;;;-40.117.335;1.360.360.948;https://maps.google.com/?cid=0x0:0xc8d46643286e1f7c;
home improvement;home improvement;Kec. Kamu Sel.;"Kabupaten Dogiyai, Papua";"Kabupaten Dogiyai, Papua";PAPUA;;Indonesia;;;;-40.621.607;136.082.065;https://maps.google.com/?cid=0x0:0x381d20608184823;
home improvement;home improvement;Kec. Kamu Tim.;"Kabupaten Dogiyai, Papua";"Kabupaten Dogiyai, Papua";PAPUA;;Indonesia;;;;-4.011.886;1.361.550.492;https://maps.google.com/?cid=0x0:0xff38d94f16554efc;
home improvement;Toko Bahan Bangunan;"TOKO BAHAN BANGUNAN ?RINITY HOME?""Jalan Baru Pasar Lama, Wahno, Kec. Abepura, Kota Jayapura, Papua 99224""";"Wahno, Kec. Abepura, Kota Jayapura";PAPUA;99224;Indonesia;081232337934;;;-25.958.248;1.406.809.957;https://maps.google.com/?cid=0x0:0x41c321d86b054228;;
home improvement;Pembangunan Perumahan;Rumah petugas PLTD DAWAI;"5PPG+F7, Mereruni, Distrik Yapen Timur, Kabupaten Kepulauan Yapen, Papua";"Kabupaten Kepulauan Yapen, Papua";PAPUA;;Indonesia;;;;-18.143.683;1.367.245.669;https://maps.google.com/?cid=0x0:0x93c069466662b7c3;
home improvement;Pabrikan mebel;Mebel kayu yomeni;"X73H+62J, Wagete I, Kec. Tigi, Kabupaten Deiyai, Papua 98764";"Wagete I, Kec. Tigi, Kabupaten Deiyai";PAPUA;98764;Indonesia;;;;-4.046.918;1.362.775.224;https://maps.google.com/?cid=0x0:0x48e05a7926d17ecc;
home improvement;home improvement;K_OlshopTaylor;"X2RQ+72W, Moanemani/ Ikebo, Kec. Kamu, Kabupaten Dogiyai, Papua 98862";"Moanemani/ Ikebo, Kec. Kamu, Kabupaten Dogiyai";PAPUA;98862;Indonesia;;;;-40.092.416;1.360.376.087;https://maps.google.com/?cid=0x0:0x696912cd0d83d2bc;
home improvement;Toko Bahan Bangunan;Toko AKBAR bangunan;"2W63+2XM, Dawaikunu, Distrik Mapia, Kabupaten Dogiyai, Papua";"Kabupaten Dogiyai, Papua";PAPUA;;Indonesia;08161999912;;;-3.989.908;135.904.907;https://maps.google.com/?cid=0x0:0x54762d941a6ba240;
home improvement;Toko Mebel;Toko Lima utama;"X2QP+7FV, Kimupugi, Kec. Kamu, Kabupaten Dogiyai, Papua 98862";"Kimupugi, Kec. Kamu, Kabupaten Dogiyai";PAPUA;98862;Indonesia;;;;-40.117.335;1.360.360.948;https://maps.google.com/?cid=0x0:0xc8d46643286e1f7c;
home improvement;home improvement;Papua 98862;"Kabupaten Dogiyai, Papua";"Kabupaten Dogiyai, Papua";PAPUA;;Indonesia;;;;-39.828.074;1.360.944.845;https://maps.google.com/?cid=0x0:0xeac06bf36c87f14a;
home improvement;Toko Bahan Bangunan;Toko AKBAR bangunan;"2W63+2XM, Dawaikunu, Distrik Mapia, Kabupaten Dogiyai, Papua";"Kabupaten Dogiyai, Papua";PAPUA;;Indonesia;08161999912;;;-3.989.908;135.904.907;https://maps.google.com/?cid=0x0:0x54762d941a6ba240;
home improvement;Pabrikan mebel;Mebel kayu yomeni;"X73H+62J, Wagete I, Kec. Tigi, Kabupaten Deiyai, Papua 98764";"Wagete I, Kec. Tigi, Kabupaten Deiyai";PAPUA;98764;Indonesia;;;;-4.046.918;1.362.775.224;https://maps.google.com/?cid=0x0:0x48e05a7926d17ecc;
home improvement;home improvement;Kabupaten Dogiyai;Papua;"Kabupaten Dogiyai, Papua";PAPUA;;Indonesia;;;;-40.454.139;1.356.763.443;https://maps.google.com/?cid=0x0:0xd3c51544b4d7ea0e;
home improvement;home improvement;Kec. Dogiyai;"Kabupaten Dogiyai, Papua";"Kabupaten Dogiyai, Papua";PAPUA;;Indonesia;;;;-40.117.207;1.359.963.258;https://maps.google.com/?cid=0x0:0xd2f826950edbe8da;
hotel;hotel;Papua 98862;"Kabupaten Dogiyai, Papua";"Kabupaten Dogiyai, Papua";PAPUA;;Indonesia;;;;-39.828.074;1.360.944.845;https://maps.google.com/?cid=0x0:0xeac06bf36c87f14a;
hotel;hotel;Papua;;Papua;PAPUA;;Indonesia;;;;-4.269.928;1.380.803.529;https://maps.google.com/?cid=0x0:0xeba94e9c5eefe673;
hotel;Hotel;Hotel Yahukimo 2;"4FJP+X7F, Moruku, Kec. Dekai, Kabupaten Yahukimo, Papua 99571";"Moruku, Kec. Dekai, Kabupaten Yahukimo";PAPUA;99571;Indonesia;;;;-48.675.637;1.394.856.768;https://maps.google.com/?cid=0x0:0x3390bda10150da90;
hotel;Tujuan Wisata;Pasir Putih Wamena;"XX72+4CQ, Aikima, Kec. Kurulu, Kabupaten Jayawijaya, Papua 99566";"Aikima, Kec. Kurulu, Kabupaten Jayawijaya";PAPUA;99566;Indonesia;;;;-40.371.623;1.389.511.044;https://maps.google.com/?cid=0x0:0xb7451fcd39daf555;
hotel;hotel;Swiss-Belinn Timika;"Kwamki, Kec. Mimika Baru, Kabupaten Mimika, Papua 99971";"Kec. Mimika Baru, Kabupaten Mimika";PAPUA;99971;Indonesia;09013265949;;;-45.320.138;1.368.642.398;https://maps.google.com/?cid=0x0:0xe2933010e70ba939;
hotel;Taman;Pusat kota kuala kencana;"JV39+Q2H, Kuala Kencana, Kec. Kuala Kencana, Kabupaten Mimika, Papua";"Kabupaten Mimika, Papua";PAPUA;;Indonesia;;;;-43.955.572;1.368.676.097;https://maps.google.com/?cid=0x0:0xc130e6059a0d59c3;
hotel;hotel;CareInn Merauke;"Jalan Kampung Timur No. 234 Seringgu Jaya, Karang Indah, Kec. Merauke, Kabupaten Merauke, Papua 99614";"Karang Indah, Kec. Merauke, Kabupaten Merauke";PAPUA;99614;Indonesia;08114819234;;;-84.925.218;1.403.895.443;https://maps.google.com/?cid=0x0:0x1680e44651cf459a;
hotel;Tujuan Wisata;Pantai Lampu Satu;"F9QH+H3G, Jl. Menara Lampu Satu, Samkai, Kec. Merauke, Kabupaten Merauke, Papua Selatan 99614";"Jl. Menara Lampu Satu, Samkai, Kec. Merauke, Kabupaten Merauke";PAPUA;99614;Indonesia;;;;-85.110.648;1.403.777.131;https://maps.google.com/?cid=0x0:0x95e2d63b0f7f8492;
hotel;hotel;HOTEL PARKSIDE WAENA;"Jl. Raya Waena, Kp. Waena, Kec. Abepura, Kota Jayapura, Papua 99532";"Kp. Waena, Kec. Abepura, Kota Jayapura";PAPUA;99532;Indonesia;08114829200;;;-25.965.369;1.406.348.713;https://maps.google.com/?cid=0x0:0xeecc070595c2799f;
hotel;hotel;Pantai Base-G;"Tj. Ria, Kec. Jayapura Utara, Kota Jayapura, Papua";"Kota Jayapura, Papua";PAPUA;;Indonesia;;;;-25.174.272;1.407.397.204;https://maps.google.com/?cid=0x0:0x9c239c300165aea7;
hotel;hotel;"Swiss-Belhotel Jayapura, Papua";"Pusat Bisnis Jayapura, Jl. Pacific Permai, Bayangkara, Kec. Jayapura Utara, Kota Jayapura, Papua 99112";"Jl. Pacific Permai, Bayangkara, Kec. Jayapura Utara, Kota Jayapura";PAPUA;99112;Indonesia;0967551888;;;-2.539.046;140.711.573;https://maps.google.com/?cid=0x0:0xbd14f75af0c6e48b;
hotel;hotel;N/A;;;PAPUA;;Indonesia;;;;;;https://maps.google.com/?cid=0x0:0xbd14f75af0c6e48b%7C/g/120xv389%7Cen-ID;
hotel;hotel;Swiss-Belhotel Merauke;"Jl. Raya Mandala No.53, Bambu Pemali, Kec. Merauke, Kabupaten Merauke, Papua 99616";"Bambu Pemali, Kec. Merauke, Kabupaten Merauke";PAPUA;99616;Indonesia;0971326333;;;-85.040.683;1.403.988.254;https://maps.google.com/?cid=0x0:0x841b28b5dc2a0df4;
hotel;hotel;N/A;;;PAPUA;;Indonesia;;;;;;https://maps.google.com/?cid=0x0:0x841b28b5dc2a0df4%7C/g/1hc4dxg0b%7Cen-ID;
hotel;hotel;Hotel Suni Abepura;"Jl. Baru Ps. Lama Abepura, Wai Mhorock, Kec. Abepura, Kota Jayapura, Papua 99225";"Wai Mhorock, Kec. Abepura, Kota Jayapura";PAPUA;99225;Indonesia;09675540888;;;-26.085.094;1.406.741.951;https://maps.google.com/?cid=0x0:0x53835df7d2648dc3;
hotel;hotel;Hotel Horison Ultima Timika;"Jl. Hasanuddin No.9, Nawaripi, Kec. Mimika Baru, Kabupaten Mimika, Papua 99971";"Nawaripi, Kec. Mimika Baru, Kabupaten Mimika";PAPUA;99971;Indonesia;09013264888;;;-45.657.683;1.368.827.914;https://maps.google.com/?cid=0x0:0x2acb1e774fc2c064;
hotel;hotel;Grand ABE Hotel Jayapura;"Jl. Raya Abepura, Kotabaru, Kota Baru, Kec. Abepura, Kota Jayapura, Papua 99351";"Kotabaru, Kota Baru, Kec. Abepura, Kota Jayapura";PAPUA;99351;Indonesia;08114825123;;;-26.106.174;1.406.659.805;https://maps.google.com/?cid=0x0:0xadc84ceab536f6a;
hotel;hotel;N/A;;;PAPUA;;Indonesia;;;;;;https://maps.google.com/?cid=0x0:0xadc84ceab536f6a%7C/g/11btn18jtk%7Cen-ID;
hotel;hotel;Citihub Hotel;"Wai Mhorock, Abepura, Kota Jayapura, Papua 99225, Wai Mhorock, Kec. Abepura, Kota Jayapura, Papua 99552";"Abepura, Kota Jayapura, Papua";PAPUA;99225;Indonesia;09675180123;;;-26.081.763;1.406.741.417;https://maps.google.com/?cid=0x0:0x5a25068c30daecb0;
hotel;hotel;N/A;;;PAPUA;;Indonesia;;;;;;https://maps.google.com/?cid=0x0:0x5a25068c30daecb0%7C/g/11bx0dndr2%7Cen-ID;
hotel;Hotel bintang 3;Mercure Jayapura;"Jl. Ahmad Yani No.12, Gurabesi, Kec. Jayapura Utara, Kota Jayapura, Papua 99111";"Gurabesi, Kec. Jayapura Utara, Kota Jayapura";PAPUA;99111;Indonesia;09675161888;;;-25.425.064;1.407.031.376;https://maps.google.com/?cid=0x0:0x228d0b2bb9d7838c;
hotel;hotel;N/A;;;PAPUA;;Indonesia;;;;;;https://maps.google.com/?cid=0x0:0x228d0b2bb9d7838c%7C/g/11fr6srn7h%7Cen-ID;
hotel;hotel;Hotel Baliem Pilamo;"Jl. Trikora No.114, Wamena Kota, Distrik Wamena, Kabupaten Jayawijaya, Papua 99511";"Wamena Kota, Distrik Wamena, Kabupaten Jayawijaya";PAPUA;99511;Indonesia;081344090719;;;-4.089.872;1.389.452.891;https://maps.google.com/?cid=0x0:0x4c66aca0c6c4c202;
hotel;hotel;Hotel Grand Papua Sentani;"Jalan Sosial No.388, Hinekombe, Kec. Sentani, Kabupaten Jayapura, Papua 99352";"Hinekombe, Kec. Sentani, Kabupaten Jayapura";PAPUA;99352;Indonesia;08114827899;;;-2.557.344;1.404.958.181;https://maps.google.com/?cid=0x0:0x9afaf186d23bb377;
hotel;Tujuan Wisata;Bukit Tungku Wiri;"CFC2+4PC, Unnamed Road, Kwadeware, Waibu, Jayapura Regency, Papua 99352";"Unnamed Road, Kwadeware, Waibu, Jayapura Regency";PAPUA;99352;Indonesia;;;;-2.579.683;1.404.517.638;https://maps.google.com/?cid=0x0:0x80f15023fd6742d5;
hotel;hotel;The Baliem Valley Resort;"Desa Sekan Kecamatan Siepkosi, Pugima, Distrik Wamena, Kabupaten Jayawijaya, Papua 80034";"Pugima, Distrik Wamena, Kabupaten Jayawijaya";PAPUA;80034;Indonesia;;;;-40.595.129;1.390.293.485;https://maps.google.com/?cid=0x0:0xa5f70df54e54f86c;
hotel;hotel;Sunnyday Inn Merauke;"Jl. Biak, Mandala, Kec. Merauke, Kabupaten Merauke, Papua 99616";"Mandala, Kec. Merauke, Kabupaten Merauke";PAPUA;99616;Indonesia;082199965228;;;-849.719;140.398.002;https://maps.google.com/?cid=0x0:0xeab349269cdb9297;
hotel;Hotel bintang 3;Horison Ultima Entrop;"Jl. Klp. 2, Entrop, Distrik Jayapura Selatan, Kota Jayapura, Papua 99224";"Entrop, Distrik Jayapura Selatan, Kota Jayapura";PAPUA;99224;Indonesia;082248288877;;;-25.691.415;1.407.031.448;https://maps.google.com/?cid=0x0:0x606edeb95bbfcc9f;
hotel;hotel;Hotel Suni Sentani - Managed by East Season;"Jalan, Sentani Kota, Sentani, Jayapura Regency, Papua 99359";"Sentani Kota, Sentani, Jayapura Regency";PAPUA;99359;Indonesia;0967591900;;;-25.717.113;1.405.355.341;https://maps.google.com/?cid=0x0:0x18fc7a4a1035d3f1;
hotel;hotel;Mapia;"Dawaikunu, Distrik Mapia, Kabupaten Dogiyai, Papua";"Kabupaten Dogiyai, Papua";PAPUA;;Indonesia;;;;-3.989.908;135.904.907;https://maps.google.com/?cid=0x0:0xa161b65eb173837d;
hotel;hotel;HOTEL AINA;"CGM6+R9J, Jl. Raya Kemiri, Sentani Kota, Kec. Sentani, Kabupaten Jayapura, Papua";"Kabupaten Jayapura, Papua";PAPUA;;Indonesia;085243960057;;;-25.654.218;1.405.108.844;https://maps.google.com/?cid=0x0:0xe10f3eb6fe778f83;
hotel;hotel;Hotel Mapia;"Jl. Jend. Ahmad Yani No.23, Mandala, Kec. Biak Kota, Kabupaten Biak Numfor, Papua 98111";"Mandala, Kec. Biak Kota, Kabupaten Biak Numfor";PAPUA;98111;Indonesia;098121383;;;-11.848.375;1.360.856.602;https://maps.google.com/?cid=0x0:0x15f6e40202cd7120;
hotel;hotel;Hotel Marasi;"R445+X37, Jl. M Yamin, Ambroben, Kec. Biak Kota, Kabupaten Biak Numfor, Papua 98118";"Jl. M Yamin, Ambroben, Kec. Biak Kota, Kabupaten Biak Numfor";PAPUA;98118;Indonesia;;;;-1.192.595;1.361.076.812;https://maps.google.com/?cid=0x0:0x166c2b58a3cf153e;
hotel;hotel;Hotel MARIO MARANNU;"FM4X+G36, Jl. Perintis I clofcamp No.9, Gurabesi, Kec. Jayapura Utara, Kota Jayapura, Papua 99221";"Jl. Perintis I clofcamp No.9, Gurabesi, Kec. Jayapura Utara, Kota Jayapura";PAPUA;99221;Indonesia;081327895519;;;-25.437.478;14.069.772;https://maps.google.com/?cid=0x0:0xfc90c827549c436d;
hotel;hotel;Hotel Matoa;"Jl. Ahmad Yani No.14, Gurabesi, Kec. Jayapura Utara, Kota Jayapura, Papua 99222";"Gurabesi, Kec. Jayapura Utara, Kota Jayapura";PAPUA;99222;Indonesia;0967531633;;;-25.431.901;1.407.035.183;https://maps.google.com/?cid=0x0:0x81bb053fbf57415d;
hotel;hotel;Penginapan Paparisa Amungsa;"Koperapoka, Kec. Mimika Baru, Kabupaten Mimika, Papua 99971";"Kec. Mimika Baru, Kabupaten Mimika";PAPUA;99971;Indonesia;081343206383;;;-45.385.795;1.368.755.667;https://maps.google.com/?cid=0x0:0xfd07a1d4446c8f23;
hotel;hotel;Hotel Manna;"Jl. Imam Bonjol, Fandoi, Biak Papua, Kabupaten Biak Numfor, Papua 98112";"Fandoi, Biak Papua, Kabupaten Biak Numfor";PAPUA;98112;Indonesia;098122224;;;-11.808.075;1.360.821.667;https://maps.google.com/?cid=0x0:0x58ba27a7cb3a5bd6;
hotel;hotel;Hotel Maureen;"46GR+P4R, Jl. Sudirman, Serui Kota, Kec. Yapen Sel., Kabupaten Kepulauan Yapen, Papua 98213";"Jl. Sudirman, Serui Kota, Kec. Yapen Sel., Kabupaten Kepulauan Yapen";PAPUA;98213;Indonesia;081354165909;;;-18.731.433;1.362.401.965;https://maps.google.com/?cid=0x0:0xb028b61c6c000d80;
hotel;hotel;Arumbai Hotel;"Jl. Imam Bonjol No.2, Fandoi, Kec. Biak Kota, Kabupaten Biak Numfor, Papua 98111";"Fandoi, Kec. Biak Kota, Kabupaten Biak Numfor";PAPUA;98111;Indonesia;;;;-11.831.962;1.360.817.419;https://maps.google.com/?cid=0x0:0x92f1df543a771343;
hotel;hotel;Hotel Basana Inn;"Jl. Imam Bonjol, Fandoi, Biak, Kabupaten Biak Numfor, Papua 98112";"Fandoi, Biak, Kabupaten Biak Numfor";PAPUA;98112;Indonesia;098122281;;;-11.811.297;1.360.825.355;https://maps.google.com/?cid=0x0:0x1b08ff238ba2abe9;
hotel;hotel;Agung Hotel;"R36V+MW8, Mandala, Kec. Biak Kota, Kabupaten Biak Numfor, Papua 98111";"Mandala, Kec. Biak Kota, Kabupaten Biak Numfor";PAPUA;98111;Indonesia;;;;-11.883.413;1.360.948.382;https://maps.google.com/?cid=0x0:0x30d4b4e3f34c7a61;
hotel;hotel;HOMESTAY KARAWATU INN;"R39H+HC6, Jl. Dahlia, Burokub, Kec. Biak Kota, Kabupaten Biak Numfor, Papua 98111";"Jl. Dahlia, Burokub, Kec. Biak Kota, Kabupaten Biak Numfor";PAPUA;98111;Indonesia;09812911069;;;-11.810.921;1.360.785.209;https://maps.google.com/?cid=0x0:0xa2c4864ec378cf15;
hotel;hotel;Nirmala Beach Hotel and Resort;"R3G3+QH, Jalan Sorido No.26, Samau, Biak Kota, Biak Numfor Regency, Papua 98115";"Jalan Sorido No.26, Samau, Biak Kota, Biak Numfor Regency";PAPUA;98115;Indonesia;0811495195;;;-1.173.556;1.360.525.649;https://maps.google.com/?cid=0x0:0xb5989ec0f08e9def;
hotel;Museum;Objek Wisata Goa Jepang Biak Papua;"Kampung Wisata, Binsari, Jl. Goa Jepang, Kec. Samofa, Kabupaten Biak Numfor, Papua 98118";"Binsari, Jl. Goa Jepang, Kec. Samofa, Kabupaten Biak Numfor";PAPUA;98118;Indonesia;;;;-11.778.447;1.361.049.498;https://maps.google.com/?cid=0x0:0x93df93a4aad95a9b;
hotel;hotel;Ikrar;"Kec. Kamu Utara, Kabupaten Dogiyai, Papua";"Kabupaten Dogiyai, Papua";PAPUA;;Indonesia;;;;-38.823.479;1.360.658.592;https://maps.google.com/?cid=0x0:0xd0721532abe77f02;
hotel;hotel;Papua 98857;Papua;Papua;PAPUA;;Indonesia;;;;-39.020.493;1.357.900.209;https://maps.google.com/?cid=0x0:0x99af57bbf9657b1;
hotel;hotel;Hotel Suni Abepura;"Jl. Baru Ps. Lama Abepura, Wai Mhorock, Kec. Abepura, Kota Jayapura, Papua 99225";"Wai Mhorock, Kec. Abepura, Kota Jayapura";PAPUA;99225;Indonesia;09675540888;;;-26.085.094;1.406.741.951;https://maps.google.com/?cid=0x0:0x53835df7d2648dc3;
hotel;hotel;Citihub Hotel;"Wai Mhorock, Abepura, Kota Jayapura, Papua 99225, Wai Mhorock, Kec. Abepura, Kota Jayapura, Papua 99552";"Abepura, Kota Jayapura, Papua";PAPUA;99225;Indonesia;09675180123;;;-26.081.763;1.406.741.417;https://maps.google.com/?cid=0x0:0x5a25068c30daecb0;
hotel;hotel;Hotel Horison Kotaraja;"Jl. Raya Abepura No.80, Wai Mhorock, Kec. Abepura, Kota Jayapura, Papua 99221";"Wai Mhorock, Kec. Abepura, Kota Jayapura";PAPUA;99221;Indonesia;;;;-26.004.891;140.676.497;https://maps.google.com/?cid=0x0:0x928b6846e61f91de;
hotel;hotel;Grand ABE Hotel Jayapura;"Jl. Raya Abepura, Kotabaru, Kota Baru, Kec. Abepura, Kota Jayapura, Papua 99351";"Kotabaru, Kota Baru, Kec. Abepura, Kota Jayapura";PAPUA;99351;Indonesia;08114825123;;;-26.106.174;1.406.659.805;https://maps.google.com/?cid=0x0:0xadc84ceab536f6a;
hotel;hotel;@HOM Premiere Abepura by Horison;"Jl. Raya Tanah Hitam, Asano, Kec. Abepura, Kota Jayapura, Papua 99351";"Asano, Kec. Abepura, Kota Jayapura";PAPUA;99351;Indonesia;082110078800;;;-26.163.722;1.406.795.037;https://maps.google.com/?cid=0x0:0x232d3c1cc9df1530;
hotel;hotel;Hotel Horison Abepura;"Jl. Raya Abepura - Sentani, Hedam, Kec. Heram, Kota Jayapura, Papua 99351";"Hedam, Kec. Heram, Kota Jayapura";PAPUA;99351;Indonesia;08114915557;;;-26.067.187;1.406.493.524;https://maps.google.com/?cid=0x0:0xb60e7c638678e9e9;
hotel;hotel;Front One Budget Hotel;"Jl. Teruna Bhakti, Yabansai, Kec. Heram, Kota Jayapura, Papua 99351";"Yabansai, Kec. Heram, Kota Jayapura";PAPUA;99351;Indonesia;08114707808;;;-25.896.396;1.406.413.153;https://maps.google.com/?cid=0x0:0x16b4d25d7d51567a;
hotel;hotel;HOTEL PARKSIDE WAENA;"Jl. Raya Waena, Kp. Waena, Kec. Abepura, Kota Jayapura, Papua 99532";"Kp. Waena, Kec. Abepura, Kota Jayapura";PAPUA;99532;Indonesia;08114829200;;;-25.965.369;1.406.348.713;https://maps.google.com/?cid=0x0:0xeecc070595c2799f;
hotel;hotel;Pantai Base-G;"Tj. Ria, Kec. Jayapura Utara, Kota Jayapura, Papua";"Kota Jayapura, Papua";PAPUA;;Indonesia;;;;-25.174.272;1.407.397.204;https://maps.google.com/?cid=0x0:0x9c239c300165aea7;
hotel;hotel;dogiay;"Jaln airport No.3, Moanemani/ Ikebo, Kec. Kamu, Kabupaten Dogiyai, Papua 98863";"Moanemani/ Ikebo, Kec. Kamu, Kabupaten Dogiyai";PAPUA;98863;Indonesia;;;;-40.035.454;1.360.447.245;https://maps.google.com/?cid=0x0:0xfd255bc4fb92e565;
hotel;hotel;Hotel Merpati;"Jl. Yos Sudarso, Serui Kota, Kec. Yapen Sel., Kabupaten Kepulauan Yapen, Papua 98215";"Serui Kota, Kec. Yapen Sel., Kabupaten Kepulauan Yapen";PAPUA;98215;Indonesia;082359590808;;;-1.884.878;1.362.444.474;https://maps.google.com/?cid=0x0:0xe3554649eda8754d;
hotel;Tujuan Wisata;Pantai Sarawandori;"Sarawandori, Kabupaten Kepulauan Yapen, Papua 98215";Kabupaten Kepulauan Yapen;PAPUA;98215;Indonesia;;;;-18.726.789;1.361.916.924;https://maps.google.com/?cid=0x0:0x19b525c726fb1bc3;
hotel;hotel;Sawana Suites;"Jl. Danau Limboto No.B1 45, RT.5/RW.4, Bendungan Hilir, Tanah Abang, Central Jakarta City, Jakarta 10210";"RT.5/RW.4, Bendungan Hilir, Tanah Abang, Central Jakarta City";PAPUA;10210;Indonesia;02122531340;;;-62.085.489;1.068.058.757;https://maps.google.com/?cid=0x0:0x3e6d646716862049;
hotel;hotel;N/A;;;PAPUA;;Indonesia;;;;;;https://maps.google.com/?cid=0x0:0x3e6d646716862049%7C/g/11c3v_702h%7Cen-ID;
hotel;hotel;N/A;;;PAPUA;;Indonesia;;;;;;https://maps.google.com/?cid=0x0:0xafbfde68dafef873%7C/g/1jglx05z4%7Cen-ID;
hotel;hotel;Hotel Kosenda;"Jl. K.H. Wahid Hasyim No.127, Kb. Kacang, Kecamatan Tanah Abang, Kota Jakarta Pusat, Daerah Khusus Ibukota Jakarta 10240";"Kb. Kacang, Kecamatan Tanah Abang, Kota Jakarta Pusat";PAPUA;10240;Indonesia;02131936868;;;-6.187.201;1.068.217.148;https://maps.google.com/?cid=0x0:0xafbfde68dafef873;
hotel;hotel;Kec. Kamu Tim.;"Kabupaten Dogiyai, Papua";"Kabupaten Dogiyai, Papua";PAPUA;;Indonesia;;;;-4.011.886;1.361.550.492;https://maps.google.com/?cid=0x0:0xff38d94f16554efc;
hotel;hotel;Hotel Karya Papua;"JGX6+2PM, Jl. R.E. Martadinata Kalinona, Nabarua, Distrik Nabire, Papua 98816";"Jl. R.E. Martadinata Kalinona, Nabarua, Distrik Nabire";PAPUA;98816;Indonesia;082164655697;;;-33.524.082;1.355.118.114;https://maps.google.com/?cid=0x0:0x8196bf4b8aafbb3f;
hotel;hotel;BRILIAN HOME STAY;"Awabutu, Paniai Tim., Kabupaten Paniai, Papua 98726";"Paniai Tim., Kabupaten Paniai";PAPUA;98726;Indonesia;;;;-39.279.032;136.374.559;https://maps.google.com/?cid=0x0:0x7ec9835201b20301;
hotel;hotel;Buli Beach Hotel;"V7HV+VXV, Buli, Kec. Maba, Kabupaten Halmahera Timur, Maluku Utara";"Kabupaten Halmahera Timur, Maluku Utara";PAPUA;;Indonesia;;;;0.8797347;1.282.949.107;https://maps.google.com/?cid=0x0:0xb296680f8f217799;
hotel;hotel;Distrik Mapia Tengah;"Kabupaten Dogiyai, Papua";"Kabupaten Dogiyai, Papua";PAPUA;;Indonesia;;;;-41.114.953;1.358.199.147;https://maps.google.com/?cid=0x0:0x9fa0506cdd07ca9b;
hotel;hotel;Hotel Grand Papua Sentani;"Jalan Sosial No.388, Hinekombe, Kec. Sentani, Kabupaten Jayapura, Papua 99352";"Hinekombe, Kec. Sentani, Kabupaten Jayapura";PAPUA;99352;Indonesia;08114827899;;;-2.557.344;1.404.958.181;https://maps.google.com/?cid=0x0:0x9afaf186d23bb377;
hotel;hotel;HOTEL AINA;"CGM6+R9J, Jl. Raya Kemiri, Sentani Kota, Kec. Sentani, Kabupaten Jayapura, Papua";"Kabupaten Jayapura, Papua";PAPUA;;Indonesia;085243960057;;;-25.654.218;1.405.108.844;https://maps.google.com/?cid=0x0:0xe10f3eb6fe778f83;
hotel;hotel;Hotel Mapia;"Jl. Jend. Ahmad Yani No.23, Mandala, Kec. Biak Kota, Kabupaten Biak Numfor, Papua 98111";"Mandala, Kec. Biak Kota, Kabupaten Biak Numfor";PAPUA;98111;Indonesia;098121383;;;-11.848.375;1.360.856.602;https://maps.google.com/?cid=0x0:0x15f6e40202cd7120;
hotel;hotel;Hotel Bunga Youtefa;"9MRJ+339, Wai Mhorock, Kec. Abepura, Kota Jayapura, Papua 99225";"Wai Mhorock, Kec. Abepura, Kota Jayapura";PAPUA;99225;Indonesia;;;;-2.609.849;14.068.022;https://maps.google.com/?cid=0x0:0x6ed44eab0b6f0605;
hotel;hotel;Hotel MARIO MARANNU;"FM4X+G36, Jl. Perintis I clofcamp No.9, Gurabesi, Kec. Jayapura Utara, Kota Jayapura, Papua 99221";"Jl. Perintis I clofcamp No.9, Gurabesi, Kec. Jayapura Utara, Kota Jayapura";PAPUA;99221;Indonesia;081327895519;;;-25.437.478;14.069.772;https://maps.google.com/?cid=0x0:0xfc90c827549c436d;
hotel;hotel;Hotel Manna;"Jl. Imam Bonjol, Fandoi, Biak Papua, Kabupaten Biak Numfor, Papua 98112";"Fandoi, Biak Papua, Kabupaten Biak Numfor";PAPUA;98112;Indonesia;098122224;;;-11.808.075;1.360.821.667;https://maps.google.com/?cid=0x0:0x58ba27a7cb3a5bd6;
hotel;hotel;Patmos Guest House;"Jl. Pos 7 No.53, Sentani Kota, Kec. Sentani, Kabupaten Jayapura, Papua 99352";"Sentani Kota, Kec. Sentani, Kabupaten Jayapura";PAPUA;99352;Indonesia;081212748790;;;-2.561.908;1.405.084.075;https://maps.google.com/?cid=0x0:0xffe8a74235ae9f69;
hotel;hotel;AMABEL Hotel;"AP, Bayangkara, Kec. Jayapura Utara, Kota Jayapura, Papua 99112";"Bayangkara, Kec. Jayapura Utara, Kota Jayapura";PAPUA;99112;Indonesia;0967522102;;;-25.354.528;1.407.046.727;https://maps.google.com/?cid=0x0:0xd37dfedb9adff6b7;
hotel;hotel;Penginapan Paparisa Amungsa;"Koperapoka, Kec. Mimika Baru, Kabupaten Mimika, Papua 99971";"Kec. Mimika Baru, Kabupaten Mimika";PAPUA;99971;Indonesia;081343206383;;;-45.385.795;1.368.755.667;https://maps.google.com/?cid=0x0:0xfd07a1d4446c8f23;
hotel;hotel;Papua 98862;"Kabupaten Dogiyai, Papua";"Kabupaten Dogiyai, Papua";PAPUA;;Indonesia;;;;-39.828.074;1.360.944.845;https://maps.google.com/?cid=0x0:0xeac06bf36c87f14a;
hotel;hotel;Hotel Karya Papua;"JGX6+2PM, Jl. R.E. Martadinata Kalinona, Nabarua, Distrik Nabire, Papua 98816";"Jl. R.E. Martadinata Kalinona, Nabarua, Distrik Nabire";PAPUA;98816;Indonesia;082164655697;;;-33.524.082;1.355.118.114;https://maps.google.com/?cid=0x0:0x8196bf4b8aafbb3f;
hotel;hotel;BRILIAN HOME STAY;"Awabutu, Paniai Tim., Kabupaten Paniai, Papua 98726";"Paniai Tim., Kabupaten Paniai";PAPUA;98726;Indonesia;;;;-39.279.032;136.374.559;https://maps.google.com/?cid=0x0:0x7ec9835201b20301;
hotel;hotel;Kamusioh Guesthouse;"Jalan nyiur, 4. Malompo,, Nabarua, Distrik Nabire, Kabupaten Nabire, Papua 98816";"4. Malompo,, Nabarua, Distrik Nabire, Kabupaten Nabire";PAPUA;98816;Indonesia;;;;-33.492.309;1.355.137.239;https://maps.google.com/?cid=0x0:0x7213d70ef2355fba;
hotel;hotel;Kabupaten Dogiyai;Papua;"Kabupaten Dogiyai, Papua";PAPUA;;Indonesia;;;;-40.454.139;1.356.763.443;https://maps.google.com/?cid=0x0:0xd3c51544b4d7ea0e;
restaurant;restaurant;Papua 98862;"Kabupaten Dogiyai, Papua";"Kabupaten Dogiyai, Papua";PAPUA;;Indonesia;;;;-39.828.074;1.360.944.845;https://maps.google.com/?cid=0x0:0xeac06bf36c87f14a;
restaurant;Padang;Resto Yougwa Danau Sentani;"Jl. Batu Ceper No.73 15, RT.15/RW.1, Kb. Klp., Kecamatan Gambir, Kota Jakarta Pusat, Daerah Khusus Ibukota Jakarta 10120";"RT.15/RW.1, Kb. Klp., Kecamatan Gambir, Kota Jakarta Pusat";PAPUA;10120;Indonesia;08119622272;;;-6.162.043;1.068.243.928;https://maps.google.com/?cid=0x0:0xd6689d47fce71c89;
restaurant;Restoran;Restaurant Yougwa;"CJ63+H23, Jl. Raya Abepura - Sentani, Asei Kecil, Kec. Sentani Tim., Kabupaten Jayapura, Papua 99351";"Jl. Raya Abepura - Sentani, Asei Kecil, Kec. Sentani Tim., Kabupaten Jayapura";PAPUA;99351;Indonesia;08114801448;;;-25.886.245;140.602.559;https://maps.google.com/?cid=0x0:0x65e60fc66014e79c;
restaurant;Indonesia;Kaum Jakarta;"Jl. Dr. Kusuma Atmaja No.77, RT.10/RW.4, Menteng, Kec. Menteng, Kota Jakarta Pusat, Daerah Khusus Ibukota Jakarta 10310";"RT.10/RW.4, Menteng, Kec. Menteng, Kota Jakarta Pusat";PAPUA;10310;Indonesia;;;;-61.979.566;1.068.242.368;https://maps.google.com/?cid=0x0:0x9b4288374215aaed;
restaurant;Rumah Makan;Rumah Makan Sendok Garpu Jayapura;"Jl. Raya Abepura-Kotaraja Kota Baru, Wai Mhorock, Kec. Abepura, Kota Jayapura, Papua 99225";"Wai Mhorock, Kec. Abepura, Kota Jayapura";PAPUA;99225;Indonesia;082310000123;;;-26.057.136;1.406.694.308;https://maps.google.com/?cid=0x0:0x9b347169a4f00047;
restaurant;Sarapan;Kedai Utama KM.12;"38XF+6W9, Jl. A.M. Sangaji Gonof, Klasaman, Distrik Sorong Timur, Kota Sorong, Papua Bar. 98416";"Jl. A.M. Sangaji Gonof, Klasaman, Distrik Sorong Timur, Kota Sorong";PAPUA;98416;Indonesia;;;;-0.9019626;1.313.248.518;https://maps.google.com/?cid=0x0:0x5e948c02b737cac6;
restaurant;Restoran;Warung Makan Barokah 2;"4FMJ+8J8, Jalan Pemukiman Jalur 1, Massi, Kec. Dekai, Kabupaten Yahukimo, Papua 99571";"Jalan Pemukiman Jalur 1, Massi, Kec. Dekai, Kabupaten Yahukimo";PAPUA;99571;Indonesia;;;;-4.866.712;139.481.592;https://maps.google.com/?cid=0x0:0x931d10243e564b12;
restaurant;Masakan Asia;RM Kuala Oriental;"Jl. Budi Utomo No.88A, Kwamki, Kec. Mimika Baru, Kabupaten Mimika, Papua 99971";"Kwamki, Kec. Mimika Baru, Kabupaten Mimika";PAPUA;99971;Indonesia;081224989888;;;-45.432.787;1.368.840.215;https://maps.google.com/?cid=0x0:0xa200bb016a6f04d5;
restaurant;Restoran;So Yummy Resto;"FV3Q+QR9, Kwamki, Kec. Mimika Baru, Kabupaten Mimika, Papua 99971";"Kwamki, Kec. Mimika Baru, Kabupaten Mimika";PAPUA;99971;Indonesia;081240005760;;;-45.455.973;1.368.896.159;https://maps.google.com/?cid=0x0:0xad18f6a2fb6ee6f8;
restaurant;Sulawesi Selatan;Coto Mangkasara Galaxy;"FV4M+XVR, Kwamki, Kec. Mimika Baru, Kabupaten Mimika, Papua 99971";"Kwamki, Kec. Mimika Baru, Kabupaten Mimika";PAPUA;99971;Indonesia;;;;-45.425.091;1.368.846.267;https://maps.google.com/?cid=0x0:0x5fb4274cfb32211d;
restaurant;Restoran;Restoran Pinang Sirih;"F9WW+QV2, Jl. Sesate, Bambu Pemali, Kec. Merauke, Kabupaten Merauke, Papua 99614";"Jl. Sesate, Bambu Pemali, Kec. Merauke, Kabupaten Merauke";PAPUA;99614;Indonesia;082132128881;;;-85.030.737;1.403.966.377;https://maps.google.com/?cid=0x0:0x7c98c0bee5496ce9;
restaurant;Indonesia;Aghina Cafe and Restaurant;"478F+G45, Malabutor, Kecamatan Sorong Manoi, Kota Sorong, Papua Bar. 98412";"Malabutor, Kecamatan Sorong Manoi, Kota Sorong";PAPUA;98412;Indonesia;081344840839;;;-0.8837374;1.312.728.509;https://maps.google.com/?cid=0x0:0x57d56fb0e9f3b322;
restaurant;Ikan Bakar;Resto Jangkar;"Jl. Yos Sudarso, Nawaripi, Kec. Mimika Baru, Kabupaten Mimika, Papua 99971";"Nawaripi, Kec. Mimika Baru, Kabupaten Mimika";PAPUA;99971;Indonesia;082238302339;;;-45.681.968;1.368.865.993;https://maps.google.com/?cid=0x0:0x73ed65e33721012a;
restaurant;Indonesia;Warung Makan Koltom;"JL.Papua, Dekai,Yahukimo,Papua Pegunungan, Kabupaten Yahukimo, Papua 99571";"Dekai,Yahukimo,Papua Pegunungan, Kabupaten Yahukimo";PAPUA;99571;Indonesia;081360998299;;;-48.618.727;1.394.862.872;https://maps.google.com/?cid=0x0:0xd0cf7c4952cb1469;
restaurant;restaurant;Warung Makan Sesean Dogiyai;"X2WQ+HGM, Moanemani/ Ikebo, Kec. Kamu, Kabupaten Dogiyai, Papua 98862";"Moanemani/ Ikebo, Kec. Kamu, Kabupaten Dogiyai";PAPUA;98862;Indonesia;;;;-40.035.425;136.038.808;https://maps.google.com/?cid=0x0:0xb19b7e6a4f6ea1b4;
restaurant;Kedai Kopi;Kedai Coffee Anugrah;"Kimupugi, Kec. Kamu, Kabupaten Dogiyai, Papua 98862";"Kec. Kamu, Kabupaten Dogiyai";PAPUA;98862;Indonesia;085216047136;;;-40.111.098;1.360.343.117;https://maps.google.com/?cid=0x0:0x48690efb03ceb3a3;
restaurant;Perhimpunan Pengembang Perumahan;Epeida peiyo;"X2PF+F8V, Kimupugi, Kec. Kamu, Kabupaten Dogiyai, Papua 98862";"Kimupugi, Kec. Kamu, Kabupaten Dogiyai";PAPUA;98862;Indonesia;;;;-40.137.732;1.360.232.887;https://maps.google.com/?cid=0x0:0x62f5beaf405768b2;
restaurant;Restoran;Kamui Restaurant;"Jl. Teluk Betung No.44, RT.3/RW.1, Kb. Melati, Kecamatan Tanah Abang, Kota Jakarta Pusat, Daerah Khusus Ibukota Jakarta 10230";"RT.3/RW.1, Kb. Melati, Kecamatan Tanah Abang, Kota Jakarta Pusat";PAPUA;10230;Indonesia;08111355661;;;-61.960.713;106.821.028;https://maps.google.com/?cid=0x0:0xe447e5e74bdc617c;
restaurant;Indonesia;Piring Cantik;"Jl. Raya Parigi Lama No.4, RT.3/ rw/RW.4, Parigi, Kec. Pd. Aren, Kota Tangerang Selatan, Banten 15228";"RT.3/ rw/RW.4, Parigi, Kec. Pd. Aren, Kota Tangerang Selatan";PAPUA;15228;Indonesia;081999388998;;;-62.731.954;1.066.934.094;https://maps.google.com/?cid=0x0:0xd28f522b619206b7;
restaurant;restaurant;KOPI KAMU;"JL.Majapahit No26 U, V, RT.14/RW.8, Petojo Sel., Kecamatan Gambir, Kota Jakarta Pusat, Daerah Khusus Ibukota Jakarta 10160";"V, RT.14/RW.8, Petojo Sel., Kecamatan Gambir, Kota Jakarta Pusat";PAPUA;10160;Indonesia;0623501136;;;-61.698.132;1.068.204.649;https://maps.google.com/?cid=0x0:0xb8b02d62f39bb8ed;
restaurant;Korea;Legend of Noodle;"Jl. Senopati No.81 8, RT.8/RW.3, Selong, Kec. Kby. Baru, Kota Jakarta Selatan, Daerah Khusus Ibukota Jakarta 12180";"RT.8/RW.3, Selong, Kec. Kby. Baru, Kota Jakarta Selatan";PAPUA;12180;Indonesia;0215210230;;;-62.329.917;1.068.122.201;https://maps.google.com/?cid=0x0:0x6da189928d9eadc3;
restaurant;Toko Bahan Bangunan;Toko AKBAR bangunan;"2W63+2XM, Dawaikunu, Distrik Mapia, Kabupaten Dogiyai, Papua";"Kabupaten Dogiyai, Papua";PAPUA;;Indonesia;08161999912;;;-3.989.908;135.904.907;https://maps.google.com/?cid=0x0:0x54762d941a6ba240;
restaurant;Toko Mebel;Toko Lima utama;"X2QP+7FV, Kimupugi, Kec. Kamu, Kabupaten Dogiyai, Papua 98862";"Kimupugi, Kec. Kamu, Kabupaten Dogiyai";PAPUA;98862;Indonesia;;;;-40.117.335;1.360.360.948;https://maps.google.com/?cid=0x0:0xc8d46643286e1f7c;
restaurant;restaurant;Mapia;"Dawaikunu, Distrik Mapia, Kabupaten Dogiyai, Papua";"Kabupaten Dogiyai, Papua";PAPUA;;Indonesia;;;;-3.989.908;135.904.907;https://maps.google.com/?cid=0x0:0xa161b65eb173837d;
restaurant;Italia;Osteria Gia Plaza Indonesia;"Jl. M.H. Thamrin No.30, RT.9/RW.5, Gondangdia, Kec. Menteng, Kota Jakarta Pusat, Daerah Khusus Ibukota Jakarta 10350";"RT.9/RW.5, Gondangdia, Kec. Menteng, Kota Jakarta Pusat";PAPUA;10350;Indonesia;081299073300;;;-61.939.355;1.068.226.376;https://maps.google.com/?cid=0x0:0xe0b15216c2b89678;
restaurant;Italia;Popolamama Pizza and Pasta;"Jl. Letjen. S. Parman No.Kav 21, Tj. Duren Sel.,, RT.12/RW.1, Tanjung Duren Selatan, Grogol petamburan, RT.12/RW.1, Tj. Duren Sel., Kec. Grogol petamburan, Kota Jakarta Barat, Daerah Khusus Ibukota Jakarta 11470";"Tj. Duren Sel.,, RT.12/RW.1, Tanjung Duren Selatan, Grogol petamburan, RT.12/RW.1, Tj. Duren Sel., Kec. Grogol petamburan, Kota Jakarta Barat";PAPUA;11470;Indonesia;0215639339;;;-6.179.407;1.067.924.396;https://maps.google.com/?cid=0x0:0x84fbe0d245a6998c;
restaurant;Jepang;Sushi Hiro Kota Kasablanka;"Kota Casablanca Lt G Unit FSG No. 21 Jl. Casablanca Raya Kav. 88, RT.16/RW.5, Menteng Dalam, Kec. Tebet, Kota Jakarta Selatan, Daerah Khusus Ibukota Jakarta 12870";"RT.16/RW.5, Menteng Dalam, Kec. Tebet, Kota Jakarta Selatan";PAPUA;12870;Indonesia;02129069762;;;-62.231.821;106.842.069;https://maps.google.com/?cid=0x0:0xe0179fe2ca62c60b;
restaurant;restaurant;Papua 98863;Papua;Papua;PAPUA;;Indonesia;;;;-38.009.799;1.360.944.845;https://maps.google.com/?cid=0x0:0x6da0fecc08c5d815;
restaurant;restaurant;Ikrar;"Kec. Kamu Utara, Kabupaten Dogiyai, Papua";"Kabupaten Dogiyai, Papua";PAPUA;;Indonesia;;;;-38.823.479;1.360.658.592;https://maps.google.com/?cid=0x0:0xd0721532abe77f02;
restaurant;restaurant;Warung Makan LIFE Solata;"X2WQ+MGX, Moanemani/ Ikebo, Kec. Kamu, Kabupaten Dogiyai, Papua 98862";"Moanemani/ Ikebo, Kec. Kamu, Kabupaten Dogiyai";PAPUA;98862;Indonesia;;;;-40.032.667;1.360.388.531;https://maps.google.com/?cid=0x0:0xd8f3a3f21c3597;
restaurant;restaurant;Hageida;"WQHM+R7P, Unnamed Road, Modio, Distrik Mapia Tengah, Kabupaten Dogiyai, Papua 98857";"Unnamed Road, Modio, Distrik Mapia Tengah, Kabupaten Dogiyai";PAPUA;98857;Indonesia;;;;-40.704.225;1.357.832.164;https://maps.google.com/?cid=0x0:0x7515fd3d49caae30;
restaurant;restaurant;Papua 98862;"Kabupaten Dogiyai, Papua";"Kabupaten Dogiyai, Papua";PAPUA;;Indonesia;;;;-39.828.074;1.360.944.845;https://maps.google.com/?cid=0x0:0xeac06bf36c87f14a;
restaurant;Kedai Kopi;Kedai Coffee Anugrah;"Kimupugi, Kec. Kamu, Kabupaten Dogiyai, Papua 98862";"Kec. Kamu, Kabupaten Dogiyai";PAPUA;98862;Indonesia;085216047136;;;-40.111.098;1.360.343.117;https://maps.google.com/?cid=0x0:0x48690efb03ceb3a3;
restaurant;Rumah Makan;RestoCafe Rumah Laut;"Jl. Koti, Numbai, Distrik Jayapura Selatan, Kota Jayapura, Papua 99222";"Numbai, Distrik Jayapura Selatan, Kota Jayapura";PAPUA;99222;Indonesia;09675160842;;;-25.443.152;1.407.078.561;https://maps.google.com/?cid=0x0:0xa0b850e17d17f09d;
restaurant;Restoran;Restaurant Yougwa;"CJ63+H23, Jl. Raya Abepura - Sentani, Asei Kecil, Kec. Sentani Tim., Kabupaten Jayapura, Papua 99351";"Jl. Raya Abepura - Sentani, Asei Kecil, Kec. Sentani Tim., Kabupaten Jayapura";PAPUA;99351;Indonesia;08114801448;;;-25.886.245;140.602.559;https://maps.google.com/?cid=0x0:0x65e60fc66014e79c;
restaurant;Restoran;Warung Makan Barokah 2;"4FMJ+8J8, Jalan Pemukiman Jalur 1, Massi, Kec. Dekai, Kabupaten Yahukimo, Papua 99571";"Jalan Pemukiman Jalur 1, Massi, Kec. Dekai, Kabupaten Yahukimo";PAPUA;99571;Indonesia;;;;-4.866.712;139.481.592;https://maps.google.com/?cid=0x0:0x931d10243e564b12;
restaurant;Rumah Makan;Rumah Makan Sendok Garpu Jayapura;"Jl. Raya Abepura-Kotaraja Kota Baru, Wai Mhorock, Kec. Abepura, Kota Jayapura, Papua 99225";"Wai Mhorock, Kec. Abepura, Kota Jayapura";PAPUA;99225;Indonesia;082310000123;;;-26.057.136;1.406.694.308;https://maps.google.com/?cid=0x0:0x9b347169a4f00047;
restaurant;Restoran;So Yummy Resto;"FV3Q+QR9, Kwamki, Kec. Mimika Baru, Kabupaten Mimika, Papua 99971";"Kwamki, Kec. Mimika Baru, Kabupaten Mimika";PAPUA;99971;Indonesia;081240005760;;;-45.455.973;1.368.896.159;https://maps.google.com/?cid=0x0:0xad18f6a2fb6ee6f8;
restaurant;Masakan Asia;RM Kuala Oriental;"Jl. Budi Utomo No.88A, Kwamki, Kec. Mimika Baru, Kabupaten Mimika, Papua 99971";"Kwamki, Kec. Mimika Baru, Kabupaten Mimika";PAPUA;99971;Indonesia;081224989888;;;-45.432.787;1.368.840.215;https://maps.google.com/?cid=0x0:0xa200bb016a6f04d5;
restaurant;Ikan Bakar;Resto Jangkar;"Jl. Yos Sudarso, Nawaripi, Kec. Mimika Baru, Kabupaten Mimika, Papua 99971";"Nawaripi, Kec. Mimika Baru, Kabupaten Mimika";PAPUA;99971;Indonesia;082238302339;;;-45.681.968;1.368.865.993;https://maps.google.com/?cid=0x0:0x73ed65e33721012a;
restaurant;Restoran;Ivy;"Jl. Brawijaya II Jl. Dharmawangsa Raya No.48, RT.3/RW.2, Pulo, Kec. Kby. Baru, Kota Jakarta Selatan, Daerah Khusus Ibukota Jakarta 12160";"RT.3/RW.2, Pulo, Kec. Kby. Baru, Kota Jakarta Selatan";PAPUA;12160;Indonesia;0217265766;;;-62.548.197;1.068.042.824;https://maps.google.com/?cid=0x0:0xa93a2f194f5d1d1a;
restaurant;Kedai Kopi;Cafe Isasai;"Danau Sentani, Kp. Waena, Kec. Heram, Kota Jayapura, Papua 99351";"Kp. Waena, Kec. Heram, Kota Jayapura";PAPUA;99351;Indonesia;;;;-2.598.538;1.406.244.014;https://maps.google.com/?cid=0x0:0xc37a24107e869a96;
restaurant;Restoran;Dapur Papua Resto (tag by EnCHy);"CH94+3PC, Jl. Raya Airport Sentani, Nendali, Kec. Sentani Tim., Kabupaten Jayapura, Papua 99359";"Jl. Raya Airport Sentani, Nendali, Kec. Sentani Tim., Kabupaten Jayapura";PAPUA;99359;Indonesia;;;;-25.823.105;140.556.775;https://maps.google.com/?cid=0x0:0x31316751d4c3a979;
restaurant;Sarapan;Kedai Utama KM.12;"38XF+6W9, Jl. A.M. Sangaji Gonof, Klasaman, Distrik Sorong Timur, Kota Sorong, Papua Bar. 98416";"Jl. A.M. Sangaji Gonof, Klasaman, Distrik Sorong Timur, Kota Sorong";PAPUA;98416;Indonesia;;;;-0.9019626;1.313.248.518;https://maps.google.com/?cid=0x0:0x5e948c02b737cac6;
restaurant;Rumah Makan;Rumah Makan Nabila;"Jalan Bandara Baru No.1, Wagete I, Kec. Tigi, Kabupaten Deiyai, Papua 98764";"Wagete I, Kec. Tigi, Kabupaten Deiyai";PAPUA;98764;Indonesia;082198042640;;;-40.465.434;1.362.807.028;https://maps.google.com/?cid=0x0:0x176c4263deeb37fa;
restaurant;Restoran;Warung Makan Ajeng;"Doyo Baru, Distrik Waibu, Kec. Sentani, Kabupaten Jayapura, Papua 99352";"Distrik Waibu, Kec. Sentani, Kabupaten Jayapura";PAPUA;99352;Indonesia;;;;-2.544.657;1.404.721.151;https://maps.google.com/?cid=0x0:0xfd15ca78d29d46b;
restaurant;Brunch;Pondok Algano;"Jl.Raya Waena Sentani Koperasi Denintel, Kp. Waena, Kec. Abepura, Kota Jayapura, Papua 99351";"Kp. Waena, Kec. Abepura, Kota Jayapura";PAPUA;99351;Indonesia;09675172001;;;-26.010.988;1.406.382.825;https://maps.google.com/?cid=0x0:0x93c611f731c6d0f3;
restaurant;Perhimpunan Pengembang Perumahan;Epeida peiyo;"X2PF+F8V, Kimupugi, Kec. Kamu, Kabupaten Dogiyai, Papua 98862";"Kimupugi, Kec. Kamu, Kabupaten Dogiyai";PAPUA;98862;Indonesia;;;;-40.137.732;1.360.232.887;https://maps.google.com/?cid=0x0:0x62f5beaf405768b2;
restaurant;restaurant;Warung Makan Sesean Dogiyai;"X2WQ+HGM, Moanemani/ Ikebo, Kec. Kamu, Kabupaten Dogiyai, Papua 98862";"Moanemani/ Ikebo, Kec. Kamu, Kabupaten Dogiyai";PAPUA;98862;Indonesia;;;;-40.035.425;136.038.808;https://maps.google.com/?cid=0x0:0xb19b7e6a4f6ea1b4;
restaurant;restaurant;Warung Makan LIFE Solata;"X2WQ+MGX, Moanemani/ Ikebo, Kec. Kamu, Kabupaten Dogiyai, Papua 98862";"Moanemani/ Ikebo, Kec. Kamu, Kabupaten Dogiyai";PAPUA;98862;Indonesia;;;;-40.032.667;1.360.388.531;https://maps.google.com/?cid=0x0:0xd8f3a3f21c3597;
restaurant;restaurant;MEDICAL Loundry  Kedai Kopi;"X2QM+4W9, Depan puskemas Moanemani, kimipugi, Kimupugi, Kec. Kamu, Kabupaten Dogiyai, Papua 98862";"Depan puskemas Moanemani, kimipugi, Kimupugi, Kec. Kamu, Kabupaten Dogiyai";PAPUA;98862;Indonesia;;;;-40.122.071;1.360.348.542;https://maps.google.com/?cid=0x0:0x48ee145850ee3f0f;
restaurant;restaurant;Kec. Kamu Sel.;"Kabupaten Dogiyai, Papua";"Kabupaten Dogiyai, Papua";PAPUA;;Indonesia;;;;-40.621.607;136.082.065;https://maps.google.com/?cid=0x0:0x381d20608184823;
restaurant;restaurant;Rumah kediaman;"Jl. Katopa wiyai, Pouwouda, Dist. Kamsel, Kabupaten Dogiyai, Papua 99225";"Pouwouda, Dist. Kamsel, Kabupaten Dogiyai";PAPUA;99225;Indonesia;;;;-40.339.402;1.360.920.984;https://maps.google.com/?cid=0x0:0xc7b17bd8bdcd7692;
restaurant;restaurant;Kec. Kamu Tim.;"Kabupaten Dogiyai, Papua";"Kabupaten Dogiyai, Papua";PAPUA;;Indonesia;;;;-4.011.886;1.361.550.492;https://maps.google.com/?cid=0x0:0xff38d94f16554efc;
restaurant;Padang;Resto Yougwa Danau Sentani;"Jl. Batu Ceper No.73 15, RT.15/RW.1, Kb. Klp., Kecamatan Gambir, Kota Jakarta Pusat, Daerah Khusus Ibukota Jakarta 10120";"RT.15/RW.1, Kb. Klp., Kecamatan Gambir, Kota Jakarta Pusat";PAPUA;10120;Indonesia;08119622272;;;-6.162.043;1.068.243.928;https://maps.google.com/?cid=0x0:0xd6689d47fce71c89;
restaurant;restaurant;Warung Makan Sesean Dogiyai;"X2WQ+HGM, Moanemani/ Ikebo, Kec. Kamu, Kabupaten Dogiyai, Papua 98862";"Moanemani/ Ikebo, Kec. Kamu, Kabupaten Dogiyai";PAPUA;98862;Indonesia;;;;-40.035.425;136.038.808;https://maps.google.com/?cid=0x0:0xb19b7e6a4f6ea1b4;
restaurant;restaurant;Warung Makan LIFE Solata;"X2WQ+MGX, Moanemani/ Ikebo, Kec. Kamu, Kabupaten Dogiyai, Papua 98862";"Moanemani/ Ikebo, Kec. Kamu, Kabupaten Dogiyai";PAPUA;98862;Indonesia;;;;-40.032.667;1.360.388.531;https://maps.google.com/?cid=0x0:0xd8f3a3f21c3597;
restaurant;Kedai Kopi;Kupinami - Kedai Kupi dan Mie Aceh;"Jl. Bina Marga No.44, RT.2/RW.4, Ceger, Kec. Cipayung, Kota Jakarta Timur, Daerah Khusus Ibukota Jakarta 13820";"RT.2/RW.4, Ceger, Kec. Cipayung, Kota Jakarta Timur";PAPUA;13820;Indonesia;08111314314;;;-63.171.754;1.068.916.297;https://maps.google.com/?cid=0x0:0x7ccfa1e68ede4877;
restaurant;restaurant;Duntek;"234J+P33, Duntek, Kec. Kamu Utara, Kabupaten Dogiyai, Papua 98862";"Duntek, Kec. Kamu Utara, Kabupaten Dogiyai";PAPUA;98862;Indonesia;;;;-39.932.427;1.360.801.697;https://maps.google.com/?cid=0x0:0xb7b1957df731baba;
restaurant;restaurant;Hageida;"WQHM+R7P, Unnamed Road, Modio, Distrik Mapia Tengah, Kabupaten Dogiyai, Papua 98857";"Unnamed Road, Modio, Distrik Mapia Tengah, Kabupaten Dogiyai";PAPUA;98857;Indonesia;;;;-40.704.225;1.357.832.164;https://maps.google.com/?cid=0x0:0x7515fd3d49caae30;
restaurant;restaurant;Papua 98862;"Kabupaten Dogiyai, Papua";"Kabupaten Dogiyai, Papua";PAPUA;;Indonesia;;;;-39.828.074;1.360.944.845;https://maps.google.com/?cid=0x0:0xeac06bf36c87f14a;
restaurant;Kedai Kopi;Kedai Coffee Anugrah;"Kimupugi, Kec. Kamu, Kabupaten Dogiyai, Papua 98862";"Kec. Kamu, Kabupaten Dogiyai";PAPUA;98862;Indonesia;085216047136;;;-40.111.098;1.360.343.117;https://maps.google.com/?cid=0x0:0x48690efb03ceb3a3;
restaurant;Rumah Makan;Rumah Makan Blambangan;"Wagete I, Kec. Tigi, Kabupaten Deiyai, Papua";"Kabupaten Deiyai, Papua";PAPUA;;Indonesia;;;;-40.463.694;1.362.802.612;https://maps.google.com/?cid=0x0:0xa12c2d88599107af;
restaurant;restaurant;Warung Makan Sesean Dogiyai;"X2WQ+HGM, Moanemani/ Ikebo, Kec. Kamu, Kabupaten Dogiyai, Papua 98862";"Moanemani/ Ikebo, Kec. Kamu, Kabupaten Dogiyai";PAPUA;98862;Indonesia;;;;-40.035.425;136.038.808;https://maps.google.com/?cid=0x0:0xb19b7e6a4f6ea1b4;
restaurant;restaurant;Warung Makan LIFE Solata;"X2WQ+MGX, Moanemani/ Ikebo, Kec. Kamu, Kabupaten Dogiyai, Papua 98862";"Moanemani/ Ikebo, Kec. Kamu, Kabupaten Dogiyai";PAPUA;98862;Indonesia;;;;-40.032.667;1.360.388.531;https://maps.google.com/?cid=0x0:0xd8f3a3f21c3597;
restaurant;restaurant;Rumah kediaman;"Jl. Katopa wiyai, Pouwouda, Dist. Kamsel, Kabupaten Dogiyai, Papua 99225";"Pouwouda, Dist. Kamsel, Kabupaten Dogiyai";PAPUA;99225;Indonesia;;;;-40.339.402;1.360.920.984;https://maps.google.com/?cid=0x0:0xc7b17bd8bdcd7692;
restaurant;Jepang;Yuzuya;"Jl. Gunawarman No.9, Selong, Kec. Kby. Baru, Kota Jakarta Selatan, Daerah Khusus Ibukota Jakarta 12110";"Selong, Kec. Kby. Baru, Kota Jakarta Selatan";PAPUA;12110;Indonesia;081210022636;;;-62.319.688;1.068.077.606;https://maps.google.com/?cid=0x0:0xc1add60ee42ccb01;
restaurant;Sekolah;KOGOU;"Apogomakida, Distrik Piyaiye, Kabupaten Dogiyai, Papua 98711";"Distrik Piyaiye, Kabupaten Dogiyai";PAPUA;98711;Indonesia;082221271147;;;-39.507.612;1.353.933.422;https://maps.google.com/?cid=0x0:0xfbb97c4a3e34ee91;
restaurant;Rumah Makan;Rumah Makan Nabila;"Jalan Bandara Baru No.1, Wagete I, Kec. Tigi, Kabupaten Deiyai, Papua 98764";"Wagete I, Kec. Tigi, Kabupaten Deiyai";PAPUA;98764;Indonesia;082198042640;;;-40.465.434;1.362.807.028;https://maps.google.com/?cid=0x0:0x176c4263deeb37fa;
restaurant;restaurant;Hageida;"WQHM+R7P, Unnamed Road, Modio, Distrik Mapia Tengah, Kabupaten Dogiyai, Papua 98857";"Unnamed Road, Modio, Distrik Mapia Tengah, Kabupaten Dogiyai";PAPUA;98857;Indonesia;;;;-40.704.225;1.357.832.164;https://maps.google.com/?cid=0x0:0x7515fd3d49caae30;
restaurant;restaurant;Kabupaten Dogiyai;Papua;"Kabupaten Dogiyai, Papua";PAPUA;;Indonesia;;;;-40.454.139;1.356.763.443;https://maps.google.com/?cid=0x0:0xd3c51544b4d7ea0e;
cafe;Perhimpunan Pengembang Perumahan;Epeida peiyo;"X2PF+F8V, Kimupugi, Kec. Kamu, Kabupaten Dogiyai, Papua 98862";"Kimupugi, Kec. Kamu, Kabupaten Dogiyai";PAPUA;98862;Indonesia;;;;-40.137.732;1.360.232.887;https://maps.google.com/?cid=0x0:0x62f5beaf405768b2;
cafe;Kedai Kopi;Kedai Coffee Anugrah;"Kimupugi, Kec. Kamu, Kabupaten Dogiyai, Papua 98862";"Kec. Kamu, Kabupaten Dogiyai";PAPUA;98862;Indonesia;085216047136;;;-40.111.098;1.360.343.117;https://maps.google.com/?cid=0x0:0x48690efb03ceb3a3;
cafe;cafe;Papua;;Papua;PAPUA;;Indonesia;;;;-4.269.928;1.380.803.529;https://maps.google.com/?cid=0x0:0xeba94e9c5eefe673;
cafe;Kafe;Waanal Coffee And Resto;"Jl. Cendrawasih, Karang Senang, Kec. Kuala Kencana, Kabupaten Mimika, Papua 99910";"Karang Senang, Kec. Kuala Kencana, Kabupaten Mimika";PAPUA;99910;Indonesia;081248677897;;;-44.916.566;1.368.474.106;https://maps.google.com/?cid=0x0:0xe6f6936c8a14d771;
cafe;Kedai Kopi;Kopi Kamu Wijaya Jakarta Selatan;"Jl. Wijaya I No.62, RT.9/RW.5, Petogogan, Kec. Kby. Baru, Kota Jakarta Selatan, Daerah Khusus Ibukota Jakarta 12170";"RT.9/RW.5, Petogogan, Kec. Kby. Baru, Kota Jakarta Selatan";PAPUA;12170;Indonesia;085121217296;;;-62.444.568;1.068.094.263;https://maps.google.com/?cid=0x0:0xdd88bc5dbf7fcdba;
cafe;;Warung Maleo  Juragan Pinang El Kumis;"73VV+H89, Kalome / Pagargom, Kec. Tingginambut, Kabupaten Puncak Jaya, Papua 99563";"Kalome / Pagargom, Kec. Tingginambut, Kabupaten Puncak Jaya";PAPUA;99563;Indonesia;;;;-37.060.904;1.380.933.589;https://maps.google.com/?cid=0x0:0xf4e1e974e9dd6b85;
cafe;Kafe;Cafe And Resto Andalan;"4FHM+W4H, Massi, Kec. Dekai, Kabupaten Yahukimo, Papua";"Kabupaten Yahukimo, Papua";PAPUA;;Indonesia;;;;-48.701.969;1.394.828.478;https://maps.google.com/?cid=0x0:0xd86932eb5eb3bdad;
cafe;Kafe;Cafe 86;"Jl. Trans Papua, Titik Nol, Kec. Mandobo, Kabupaten Boven Digoel, Papua 99674";"Titik Nol, Kec. Mandobo, Kabupaten Boven Digoel";PAPUA;99674;Indonesia;082399197389;;;-60.799.025;1.402.757.948;https://maps.google.com/?cid=0x0:0xb73aeacabd5bf86c;
cafe;Bar;Tentang Kamu Drink;"Jl. Pendidikan No.28, Malaingkedi, Kecamatan Sorong Manoi, Kota Sorong, Papua Bar. 98412";"Malaingkedi, Kecamatan Sorong Manoi, Kota Sorong";PAPUA;98412;Indonesia;082216487878;;;-0.8868735;1.312.954.943;https://maps.google.com/?cid=0x0:0xa3f8d2ffc25eb32f;
cafe;Kedai Kopi;kota;"R3RP+7FX, Jalan belakanh SD Inpres, Mandouw, Kec. Samofa, Kabupaten Biak Numfor, Papua";"Kabupaten Biak Numfor, Papua";PAPUA;;Indonesia;;;;-11.586.575;1.360.860.111;https://maps.google.com/?cid=0x0:0x1f486532b25b4c77;
cafe;cafe;WASALMA CAFFE65;"Jl.trans Wamena -jayapura No.km 65, Lulum, Talambo, Dosumo, Papua 99085";"Lulum, Talambo, Dosumo";PAPUA;99085;Indonesia;081340047467;;;-36.974.746;1.400.015.642;https://maps.google.com/?cid=0x0:0x7cb1549015dd2b58;
cafe;Kedai Kopi;KEDAI BAKAU SHOP (AAA);"Kemon Jaya Sp V, Kec. Urei Faisei, Kabupaten Waropen, Papua 98261";"Kec. Urei Faisei, Kabupaten Waropen";PAPUA;98261;Indonesia;081247220162;;;-22.263.352;1.364.216.167;https://maps.google.com/?cid=0x0:0xfe9b3982a41e1b4f;
cafe;Kedai Kopi;Kopi Pace Papua;"Samofa, Kec. Samofa, Kabupaten Biak Numfor, Papua 98111";"Kec. Samofa, Kabupaten Biak Numfor";PAPUA;98111;Indonesia;;;;-11.676.661;1.360.830.875;https://maps.google.com/?cid=0x0:0x5150b1d5da5e6af2;
cafe;Kedai Kopi;Temu Kamu Coffee  Eatery Depok;"Jalan Raya Bogor KM 29,5 Nomor 17, Mekarsari, Depok, Kota Depok, Jawa Barat 16452";"Mekarsari, Depok, Kota Depok";PAPUA;16452;Indonesia;087815515579;;;-63.632.532;1.068.593.461;https://maps.google.com/?cid=0x0:0x4941b85bb852f39f;
cafe;Kafe;Temu Kamu Bekasi Coffee  Eatery;"Jl. Insinyur H. Juanda No.167, Bekasi Jaya, Kec. Bekasi Tim., Kota Bks, Jawa Barat 17112";"Bekasi Jaya, Kec. Bekasi Tim., Kota Bks";PAPUA;17112;Indonesia;081905156959;;;-62.457.884;1.070.086.739;https://maps.google.com/?cid=0x0:0xb10e82247fa4c021;
cafe;Toko kopi;Kayu Putih Kamu;"Jl. Kayu Putih Selatan No.176, RT.5/RW.5, Pulo Gadung, Kec. Pulo Gadung, Kota Jakarta Timur, Daerah Khusus Ibukota Jakarta 13260";"RT.5/RW.5, Pulo Gadung, Kec. Pulo Gadung, Kota Jakarta Timur";PAPUA;13260;Indonesia;088220220404;;;-61.877.022;106.895.964;https://maps.google.com/?cid=0x0:0x4419b021c6eeef28;
cafe;Kafe;Cafe Kamu;"Jl. Veteran, Nagasari, Kec. Karawang Baru, Karawang, Jawa Barat 41312";"Nagasari, Kec. Karawang Baru, Karawang";PAPUA;41312;Indonesia;0895322518118;;;-62.976.966;1.073.036.882;https://maps.google.com/?cid=0x0:0x9c6b83eb1d24d60b;
cafe;Restoran;Kamui Restaurant;"Jl. Teluk Betung No.44, RT.3/RW.1, Kb. Melati, Kecamatan Tanah Abang, Kota Jakarta Pusat, Daerah Khusus Ibukota Jakarta 10230";"RT.3/RW.1, Kb. Melati, Kecamatan Tanah Abang, Kota Jakarta Pusat";PAPUA;10230;Indonesia;08111355661;;;-61.960.713;106.821.028;https://maps.google.com/?cid=0x0:0xe447e5e74bdc617c;
cafe;cafe;Kamuku Coffee;"CITRA INDAH CITY, Cluster Meranti CH No.00 - 18, Cibodas, Kec. Jonggol, Kabupaten Bogor, Jawa Barat 16830";"Cluster Meranti CH No.00 - 18, Cibodas, Kec. Jonggol, Kabupaten Bogor";PAPUA;16830;Indonesia;081385696708;;;-64.911.563;1.070.342.297;https://maps.google.com/?cid=0x0:0x22a86ac7d796111c;
cafe;Kedai Kopi;Us Coffee (kedai kopi kita);"Jl. Kelapa Muda II No.34, RT.7/RW.7, Tugu Utara, Kec. Koja, Jkt Utara, Daerah Khusus Ibukota Jakarta 14260";"RT.7/RW.7, Tugu Utara, Kec. Koja, Jkt Utara";PAPUA;14260;Indonesia;081282373994;;;-61.246.721;1.069.042.396;https://maps.google.com/?cid=0x0:0x15d0b62e25d49e2;
cafe;cafe;Mapia;"Dawaikunu, Distrik Mapia, Kabupaten Dogiyai, Papua";"Kabupaten Dogiyai, Papua";PAPUA;;Indonesia;;;;-3.989.908;135.904.907;https://maps.google.com/?cid=0x0:0xa161b65eb173837d;
cafe;cafe;Kec. Tebet;"Kota Jakarta Selatan, Daerah Khusus Ibukota Jakarta";"Kota Jakarta Selatan, Daerah Khusus Ibukota Jakarta";PAPUA;;Indonesia;;;;-62.251.223;1.068.549.881;https://maps.google.com/?cid=0x0:0xd575e31c807295f9;
cafe;Kedai Kopi;Me.dia Coffee  Roastery;"Jl. Palem Raja Raya, Bencongan Indah, Kec. Klp. Dua, Kabupaten Tangerang, Banten 15810";"Bencongan Indah, Kec. Klp. Dua, Kabupaten Tangerang";PAPUA;15810;Indonesia;082323239036;;;-62.205.888;1.066.119.932;https://maps.google.com/?cid=0x0:0x657c7bff03c07710;
cafe;Kafe;CAFE MAPIA;"Lalampanua, Kec. Pamboang, Kabupaten Majene, Sulawesi Barat";"Kabupaten Majene, Sulawesi Barat";PAPUA;;Indonesia;;;;-34.803.307;1.188.857.972;https://maps.google.com/?cid=0x0:0xc64faadc22676c6;
cafe;Kafe;My Coffee Story;"Ruko Riviera, Jl. Palem Raja Raya No.6, Bencongan Indah, Kec. Klp. Dua, Kota Tangerang, Banten 15116";"Jl. Palem Raja Raya No.6, Bencongan Indah, Kec. Klp. Dua, Kota Tangerang";PAPUA;15116;Indonesia;087775074446;;;-62.205.609;1.066.111.155;https://maps.google.com/?cid=0x0:0xa663481d8f30f936;
cafe;cafe;Map19mycoffeestory;"QJJ6+H88, Jl. Kav. Perkebunan Raya, RT.006/RW.013, Panunggangan Bar., Kec. Cibodas, Kota Tangerang, Banten 15810";"Jl. Kav. Perkebunan Raya, RT.006/RW.013, Panunggangan Bar., Kec. Cibodas, Kota Tangerang";PAPUA;15810;Indonesia;087775074446;;;-62.185.767;1.066.108.416;https://maps.google.com/?cid=0x0:0xb61d4833ef3a0114;
cafe;cafe;MAPISSA;"2H62+56F, Pelabuhanratu, Kec. Pelabuhanratu, Kabupaten Sukabumi, Jawa Barat 43364";"Pelabuhanratu, Kec. Pelabuhanratu, Kabupaten Sukabumi";PAPUA;43364;Indonesia;085211801059;;;-69.895.623;1.065.505.317;https://maps.google.com/?cid=0x0:0x9729091ddf1bfa6e;
cafe;cafe;Papua 98863;Papua;Papua;PAPUA;;Indonesia;;;;-38.009.799;1.360.944.845;https://maps.google.com/?cid=0x0:0x6da0fecc08c5d815;
cafe;cafe;Ikrar;"Kec. Kamu Utara, Kabupaten Dogiyai, Papua";"Kabupaten Dogiyai, Papua";PAPUA;;Indonesia;;;;-38.823.479;1.360.658.592;https://maps.google.com/?cid=0x0:0xd0721532abe77f02;
cafe;Kedai Kopi;Kedai Coffee Anugrah;"Kimupugi, Kec. Kamu, Kabupaten Dogiyai, Papua 98862";"Kec. Kamu, Kabupaten Dogiyai";PAPUA;98862;Indonesia;085216047136;;;-40.111.098;1.360.343.117;https://maps.google.com/?cid=0x0:0x48690efb03ceb3a3;
cafe;Perhimpunan Pengembang Perumahan;Epeida peiyo;"X2PF+F8V, Kimupugi, Kec. Kamu, Kabupaten Dogiyai, Papua 98862";"Kimupugi, Kec. Kamu, Kabupaten Dogiyai";PAPUA;98862;Indonesia;;;;-40.137.732;1.360.232.887;https://maps.google.com/?cid=0x0:0x62f5beaf405768b2;
cafe;cafe;Papua 98857;Papua;Papua;PAPUA;;Indonesia;;;;-39.020.493;1.357.900.209;https://maps.google.com/?cid=0x0:0x99af57bbf9657b1;
cafe;Kedai Kopi;Kedai Coffee Anugrah;"Kimupugi, Kec. Kamu, Kabupaten Dogiyai, Papua 98862";"Kec. Kamu, Kabupaten Dogiyai";PAPUA;98862;Indonesia;085216047136;;;-40.111.098;1.360.343.117;https://maps.google.com/?cid=0x0:0x48690efb03ceb3a3;
cafe;Sekolah;KOGOU;"Apogomakida, Distrik Piyaiye, Kabupaten Dogiyai, Papua 98711";"Distrik Piyaiye, Kabupaten Dogiyai";PAPUA;98711;Indonesia;082221271147;;;-39.507.612;1.353.933.422;https://maps.google.com/?cid=0x0:0xfbb97c4a3e34ee91;
cafe;cafe;Hageida;"WQHM+R7P, Unnamed Road, Modio, Distrik Mapia Tengah, Kabupaten Dogiyai, Papua 98857";"Unnamed Road, Modio, Distrik Mapia Tengah, Kabupaten Dogiyai";PAPUA;98857;Indonesia;;;;-40.704.225;1.357.832.164;https://maps.google.com/?cid=0x0:0x7515fd3d49caae30;
cafe;cafe;MEDICAL Loundry  Kedai Kopi;"X2QM+4W9, Depan puskemas Moanemani, kimipugi, Kimupugi, Kec. Kamu, Kabupaten Dogiyai, Papua 98862";"Depan puskemas Moanemani, kimipugi, Kimupugi, Kec. Kamu, Kabupaten Dogiyai";PAPUA;98862;Indonesia;;;;-40.122.071;1.360.348.542;https://maps.google.com/?cid=0x0:0x48ee145850ee3f0f;
cafe;cafe;Kedai JENNY;"X2PM+QW3, Unnamed Road, Kimupugi, Kec. Kamu, Kabupaten Dogiyai, Papua 98862";"Unnamed Road, Kimupugi, Kec. Kamu, Kabupaten Dogiyai";PAPUA;98862;Indonesia;081240528425;;;-40.131.159;1.360.347.828;https://maps.google.com/?cid=0x0:0x3d3a063a4101833c;
cafe;Sekolah;Apogomakida;"WHQ7+VHF, Sukikai, Sukikai Sel., Kabupaten Dogiyai, Papua 99973";"Sukikai, Sukikai Sel., Kabupaten Dogiyai";PAPUA;99973;Indonesia;08512765213;;;-40.603.132;1.355.639.194;https://maps.google.com/?cid=0x0:0x38eaeed0b3d1201b;
cafe;cafe;Hageida;"WQHM+R7P, Unnamed Road, Modio, Distrik Mapia Tengah, Kabupaten Dogiyai, Papua 98857";"Unnamed Road, Modio, Distrik Mapia Tengah, Kabupaten Dogiyai";PAPUA;98857;Indonesia;;;;-40.704.225;1.357.832.164;https://maps.google.com/?cid=0x0:0x7515fd3d49caae30;
cafe;cafe;Distrik Mapia Barat;"Kabupaten Dogiyai, Papua";"Kabupaten Dogiyai, Papua";PAPUA;;Indonesia;;;;-40.494.504;1.357.394.361;https://maps.google.com/?cid=0x0:0x5153e9cb24245eec;
cafe;cafe;Papua 98862;"Kabupaten Dogiyai, Papua";"Kabupaten Dogiyai, Papua";PAPUA;;Indonesia;;;;-39.828.074;1.360.944.845;https://maps.google.com/?cid=0x0:0xeac06bf36c87f14a;
cafe;Kedai Kopi;Kedai Coffee Anugrah;"Kimupugi, Kec. Kamu, Kabupaten Dogiyai, Papua 98862";"Kec. Kamu, Kabupaten Dogiyai";PAPUA;98862;Indonesia;085216047136;;;-40.111.098;1.360.343.117;https://maps.google.com/?cid=0x0:0x48690efb03ceb3a3;
cafe;Kafe;RESISTANCE CAFE (24 JAM);"Ruko, Jl. Pacific Permai, belakang kantor, KADIN, Papua";Papua;PAPUA;;Indonesia;;;;-25.376.957;1.407.086.088;https://maps.google.com/?cid=0x0:0x633297421a426da1;
cafe;cafe;Kec. Kamu Sel.;"Kabupaten Dogiyai, Papua";"Kabupaten Dogiyai, Papua";PAPUA;;Indonesia;;;;-40.621.607;136.082.065;https://maps.google.com/?cid=0x0:0x381d20608184823;
cafe;cafe;Rumah kediaman;"Jl. Katopa wiyai, Pouwouda, Dist. Kamsel, Kabupaten Dogiyai, Papua 99225";"Pouwouda, Dist. Kamsel, Kabupaten Dogiyai";PAPUA;99225;Indonesia;;;;-40.339.402;1.360.920.984;https://maps.google.com/?cid=0x0:0xc7b17bd8bdcd7692;
cafe;Kedai Kopi;Kopi Kamu Wijaya Jakarta Selatan;"Jl. Wijaya I No.62, RT.9/RW.5, Petogogan, Kec. Kby. Baru, Kota Jakarta Selatan, Daerah Khusus Ibukota Jakarta 12170";"RT.9/RW.5, Petogogan, Kec. Kby. Baru, Kota Jakarta Selatan";PAPUA;12170;Indonesia;085121217296;;;-62.444.568;1.068.094.263;https://maps.google.com/?cid=0x0:0xdd88bc5dbf7fcdba;
cafe;Kedai Kopi;Kopi Sana Wijaya;"Jl. Wijaya II No.76, Melawai, Jakarta, Kota Jakarta Selatan, Daerah Khusus Ibukota Jakarta 12160";"Melawai, Jakarta, Kota Jakarta Selatan";PAPUA;12160;Indonesia;;;;-62.487.203;1.068.042.695;https://maps.google.com/?cid=0x0:0x4484a8b7b8e9b37d;
cafe;cafe;CU@CAFE Grand Wisata;"Jl. Grand Wisata No.Kavling 6B, Lambangsari, Kec. Tambun Sel., Kabupaten Bekasi, Jawa Barat 17510";"Lambangsari, Kec. Tambun Sel., Kabupaten Bekasi";PAPUA;17510;Indonesia;081298980203;;;-62.788.601;1.070.469.005;https://maps.google.com/?cid=0x0:0xc75734c42755450a;
cafe;Kedai Kopi;Treestori Coffee;"Jl. Taman Alfa Indah No.H3 No.24, Petukangan Utara, Kec. Pesanggrahan, Kota Jakarta Selatan, Daerah Khusus Ibukota Jakarta 12260";"Petukangan Utara, Kec. Pesanggrahan, Kota Jakarta Selatan";PAPUA;12260;Indonesia;;;;-62.243.141;1.067.513.711;https://maps.google.com/?cid=0x0:0x94aa5d0fe7482e51;
cafe;Kedai Kopi;Carikopi;"Jl. Pahlawan Revolusi No.21, RT.5/RW.4, Pd. Bambu, Kec. Duren Sawit, Kota Jakarta Timur, Daerah Khusus Ibukota Jakarta 13430";"RT.5/RW.4, Pd. Bambu, Kec. Duren Sawit, Kota Jakarta Timur";PAPUA;13430;Indonesia;;;;-62.402.929;1.069.003.374;https://maps.google.com/?cid=0x0:0xa6d320387dc5e787;
cafe;Kafe;TEMPAT KAMU CILANDAK;"Jl. KH Muhasim Raya No.49 14, RT.14/RW.6, Cilandak Bar., Kec. Cilandak, Kota Jakarta Selatan, Daerah Khusus Ibukota Jakarta 12430";"RT.14/RW.6, Cilandak Bar., Kec. Cilandak, Kota Jakarta Selatan";PAPUA;12430;Indonesia;;;;-62.902.606;1.067.909.104;https://maps.google.com/?cid=0x0:0x1bcef2325f3c6e3b;
cafe;Masakan Barat;Toodz House - Cipete;"Jl. Cipete Raya No.79 7, RT.7/RW.4, Cipete Sel., Kec. Cilandak, Kota Jakarta Selatan, Daerah Khusus Ibukota Jakarta 12410";"RT.7/RW.4, Cipete Sel., Kec. Cilandak, Kota Jakarta Selatan";PAPUA;12410;Indonesia;02175904015;;;-62.779.706;1.068.017.874;https://maps.google.com/?cid=0x0:0x1a6e486addc68100;
cafe;Kafe;Cafe Kamu;"Jl. Veteran, Nagasari, Kec. Karawang Baru, Karawang, Jawa Barat 41312";"Nagasari, Kec. Karawang Baru, Karawang";PAPUA;41312;Indonesia;0895322518118;;;-62.976.966;1.073.036.882;https://maps.google.com/?cid=0x0:0x9c6b83eb1d24d60b;
cafe;Restoran;Kana by Kenanga- Grand Wijaya Center;"Grand Wijaya Center, Jl. Wijaya II No.19 Blok F, RT.6/RW.2, Pulo, Kec. Kby. Baru, Kota Jakarta Selatan, Daerah Khusus Ibukota Jakarta 12160";"Jl. Wijaya II No.19 Blok F, RT.6/RW.2, Pulo, Kec. Kby. Baru, Kota Jakarta Selatan";PAPUA;12160;Indonesia;;;;-62.533.995;106.800.354;https://maps.google.com/?cid=0x0:0x8aeed16a7222048;
cafe;Kedai Kopi;Temmu Kopi;"14, Jl. KH Muhasim Raya No.49, RT.14/RW.6, Cilandak Bar., Kec. Cilandak, Kota Jakarta Selatan, Daerah Khusus Ibukota Jakarta 12430";"Jl. KH Muhasim Raya No.49, RT.14/RW.6, Cilandak Bar., Kec. Cilandak, Kota Jakarta Selatan";PAPUA;12430;Indonesia;;;;-62.902.548;1.067.908.993;https://maps.google.com/?cid=0x0:0x88e3058e7afba36f;
cafe;Kafe;Marka Coffee  Kitchen;"Jl. Talaga Bodas No.32, Malabar, Kec. Lengkong, Kota Bandung, Jawa Barat 40262";"Malabar, Kec. Lengkong, Kota Bandung";PAPUA;40262;Indonesia;081313317009;;;-69.283.957;1.076.214.676;https://maps.google.com/?cid=0x0:0xfaefd773dd5af29b;
cafe;Kedai Kopi;RP House BOGOR by KOPI KAMU;"Jl. Ciremei Ujung No.20, RT.05/RW.03, Bantarjati, Kec. Bogor Utara, Kota Bogor, Jawa Barat 16153";"RT.05/RW.03, Bantarjati, Kec. Bogor Utara, Kota Bogor";PAPUA;16153;Indonesia;083872585545;;;-65.842.442;1.068.002.797;https://maps.google.com/?cid=0x0:0x2ee5d5f90c61fe4b;
cafe;Toko Roti;UNION Deli Grand Indonesia;"Grand Indonesia East Mall, Ground Floor, Jl. M.H. Thamrin No.1, RT.1/RW.5, Kecamatan Tanah Abang, Kota Jakarta Pusat, Daerah Khusus Ibukota Jakarta 10230";"Ground Floor, Jl. M.H. Thamrin No.1, RT.1/RW.5, Kecamatan Tanah Abang, Kota Jakarta Pusat";PAPUA;10230;Indonesia;02123580476;;;-61.963.305;1.068.219.145;https://maps.google.com/?cid=0x0:0x4e51f3526d4fc8e9;
cafe;Kedai Kopi;Ngopi;"PRCH+44P, Pejaten Bar., Ps. Minggu, Kota Jakarta Selatan, Daerah Khusus Ibukota Jakarta";"Kota Jakarta Selatan, Daerah Khusus Ibukota Jakarta";PAPUA;;Indonesia;;;;-62.796.627;106.827.837;https://maps.google.com/?cid=0x0:0xf77b0e11eeeef9ee;
cafe;cafe;Kec. Kamu Tim.;"Kabupaten Dogiyai, Papua";"Kabupaten Dogiyai, Papua";PAPUA;;Indonesia;;;;-4.011.886;1.361.550.492;https://maps.google.com/?cid=0x0:0xff38d94f16554efc;
cafe;Kedai Kopi;Kedai Coffee Anugrah;"Kimupugi, Kec. Kamu, Kabupaten Dogiyai, Papua 98862";"Kec. Kamu, Kabupaten Dogiyai";PAPUA;98862;Indonesia;085216047136;;;-40.111.098;1.360.343.117;https://maps.google.com/?cid=0x0:0x48690efb03ceb3a3;
cafe;Kafe;Cafe And Resto Andalan;"4FHM+W4H, Massi, Kec. Dekai, Kabupaten Yahukimo, Papua";"Kabupaten Yahukimo, Papua";PAPUA;;Indonesia;;;;-48.701.969;1.394.828.478;https://maps.google.com/?cid=0x0:0xd86932eb5eb3bdad;
cafe;Kafe;RESISTANCE CAFE (24 JAM);"Ruko, Jl. Pacific Permai, belakang kantor, KADIN, Papua";Papua;PAPUA;;Indonesia;;;;-25.376.957;1.407.086.088;https://maps.google.com/?cid=0x0:0x633297421a426da1;
cafe;Kafe;Waanal Coffee And Resto;"Jl. Cendrawasih, Karang Senang, Kec. Kuala Kencana, Kabupaten Mimika, Papua 99910";"Karang Senang, Kec. Kuala Kencana, Kabupaten Mimika";PAPUA;99910;Indonesia;081248677897;;;-44.916.566;1.368.474.106;https://maps.google.com/?cid=0x0:0xe6f6936c8a14d771;
cafe;Kedai Kopi;KOPI.RUANGTU7U;"Jl. Dr. Sam Ratulangi, Trikora, Kec. Jayapura Utara, Kota Jayapura, Papua 99114";"Trikora, Kec. Jayapura Utara, Kota Jayapura";PAPUA;99114;Indonesia;082248787419;;;-25.305.805;1.407.183.853;https://maps.google.com/?cid=0x0:0xb4cda67f13794973;
cafe;Kedai Kopi;Kafe Bejo A95;"2/Yuwanain, Yuwanaim, Kec. Arso, Kabupaten Keerom, Papua 99468";"Yuwanaim, Kec. Arso, Kabupaten Keerom";PAPUA;99468;Indonesia;082199114114;;;-290.661;1.407.513.931;https://maps.google.com/?cid=0x0:0x8476fd6425654b61;
cafe;;Warung Maleo  Juragan Pinang El Kumis;"73VV+H89, Kalome / Pagargom, Kec. Tingginambut, Kabupaten Puncak Jaya, Papua 99563";"Kalome / Pagargom, Kec. Tingginambut, Kabupaten Puncak Jaya";PAPUA;99563;Indonesia;;;;-37.060.904;1.380.933.589;https://maps.google.com/?cid=0x0:0xf4e1e974e9dd6b85;
cafe;Kedai Kopi;Kopi Kamu Wijaya Jakarta Selatan;"Jl. Wijaya I No.62, RT.9/RW.5, Petogogan, Kec. Kby. Baru, Kota Jakarta Selatan, Daerah Khusus Ibukota Jakarta 12170";"RT.9/RW.5, Petogogan, Kec. Kby. Baru, Kota Jakarta Selatan";PAPUA;12170;Indonesia;085121217296;;;-62.444.568;1.068.094.263;https://maps.google.com/?cid=0x0:0xdd88bc5dbf7fcdba;
cafe;Kantor Perusahaan;Ruangkini Kamkey;"Jl. Gerilyawan No.140, Awiyo, Kec. Abepura, Kota Jayapura, Papua 99351";"Awiyo, Kec. Abepura, Kota Jayapura";PAPUA;99351;Indonesia;;;;-26.146.128;1.406.735.365;https://maps.google.com/?cid=0x0:0xcb13d0cd3437945;
cafe;Kedai Kopi;kota;"R3RP+7FX, Jalan belakanh SD Inpres, Mandouw, Kec. Samofa, Kabupaten Biak Numfor, Papua";"Kabupaten Biak Numfor, Papua";PAPUA;;Indonesia;;;;-11.586.575;1.360.860.111;https://maps.google.com/?cid=0x0:0x1f486532b25b4c77;
cafe;Kafe;Kedai ORMOE;"Jl. Raya Abepura - Sentani No.67, Hedam, Kec. Heram, Kota Jayapura, Papua 99351";"Hedam, Kec. Heram, Kota Jayapura";PAPUA;99351;Indonesia;082398828715;;;-2.605.448;140.644.274;https://maps.google.com/?cid=0x0:0x69f6d880a09139db;
cafe;Kafe;Carffein Of House;"CGM9+CQ8, Jl. Raya Abepura - Sentani, Hinekombe, Kec. Sentani, Kabupaten Jayapura, Papua";"Kabupaten Jayapura, Papua";PAPUA;;Indonesia;082248155536;;;-25.664.649;1.405.194.407;https://maps.google.com/?cid=0x0:0x13454181ab9468f2;
cafe;Kafe;Temu Kamu White Forest;"Jl. Witana Harja, Pamulang Bar., Kec. Pamulang, Kota Tangerang Selatan, Banten 15417";"Pamulang Bar., Kec. Pamulang, Kota Tangerang Selatan";PAPUA;15417;Indonesia;087752670260;;;-63.467.209;1.067.292.525;https://maps.google.com/?cid=0x0:0x444c771b379f314a;
cafe;Restoran;Kedai ojo lali mampir;"6H9P+FP, Arsopura, Kec. Skanto, Kabupaten Keerom, Papua";"Kabupaten Keerom, Papua";PAPUA;;Indonesia;082248429465;;;-27.812.798;1.405.868.704;https://maps.google.com/?cid=0x0:0x49d3c23cc07b343;
cafe;Kedai Kopi;Three - C Caffe  Resto;"Kios Putih, Belakang, Yafdas, Samofa, Biak Numfor Regency, Papua";"Kabupaten Biak Numfor, Papua";PAPUA;;Indonesia;08124825299;;;-11.568.604;1.360.741.199;https://maps.google.com/?cid=0x0:0xda23b17446b60b0c;
cafe;Toko Roti;Flavouw Cafe  Buddy Burger;"CGPC+2C2, Jl. Ifar Gn., Sentani Kota, Kec. Sentani, Kabupaten Jayapura, Papua 99359";"Jl. Ifar Gn., Sentani Kota, Kec. Sentani, Kabupaten Jayapura";PAPUA;99359;Indonesia;081240364286;;;-25.649.762;1.405.210.037;https://maps.google.com/?cid=0x0:0x74b52879855faad0;
cafe;cafe;Kamuku Coffee;"CITRA INDAH CITY, Cluster Meranti CH No.00 - 18, Cibodas, Kec. Jonggol, Kabupaten Bogor, Jawa Barat 16830";"Cluster Meranti CH No.00 - 18, Cibodas, Kec. Jonggol, Kabupaten Bogor";PAPUA;16830;Indonesia;081385696708;;;-64.911.563;1.070.342.297;https://maps.google.com/?cid=0x0:0x22a86ac7d796111c;
cafe;Bar;Tentang Kamu Drink;"Jl. Pendidikan No.28, Malaingkedi, Kecamatan Sorong Manoi, Kota Sorong, Papua Bar. 98412";"Malaingkedi, Kecamatan Sorong Manoi, Kota Sorong";PAPUA;98412;Indonesia;082216487878;;;-0.8868735;1.312.954.943;https://maps.google.com/?cid=0x0:0xa3f8d2ffc25eb32f;
cafe;Perhimpunan Pengembang Perumahan;Epeida peiyo;"X2PF+F8V, Kimupugi, Kec. Kamu, Kabupaten Dogiyai, Papua 98862";"Kimupugi, Kec. Kamu, Kabupaten Dogiyai";PAPUA;98862;Indonesia;;;;-40.137.732;1.360.232.887;https://maps.google.com/?cid=0x0:0x62f5beaf405768b2;
cafe;Kafe;PUA-PUA CAFE;"Jl. Budi Utomo, Nawaripi, Kec. Mimika Baru, Kabupaten Mimika, Papua 99952";"Nawaripi, Kec. Mimika Baru, Kabupaten Mimika";PAPUA;99952;Indonesia;082346750560;;;-45.620.805;1.368.806.057;https://maps.google.com/?cid=0x0:0xb7cc07f877baacb2;
cafe;cafe;Rumah kediaman;"Jl. Katopa wiyai, Pouwouda, Dist. Kamsel, Kabupaten Dogiyai, Papua 99225";"Pouwouda, Dist. Kamsel, Kabupaten Dogiyai";PAPUA;99225;Indonesia;;;;-40.339.402;1.360.920.984;https://maps.google.com/?cid=0x0:0xc7b17bd8bdcd7692;
cafe;cafe;Cafe B314;"467W+PXF, Serui Jaya, Kec. Yapen Sel., Kabupaten Kepulauan Yapen, Papua 98215";"Serui Jaya, Kec. Yapen Sel., Kabupaten Kepulauan Yapen";PAPUA;98215;Indonesia;;;;-18.859.275;1.362.486.682;https://maps.google.com/?cid=0x0:0x1f65246acfcac4d1;
cafe;Kafe;Temu Kamu Bekasi Coffee  Eatery;"Jl. Insinyur H. Juanda No.167, Bekasi Jaya, Kec. Bekasi Tim., Kota Bks, Jawa Barat 17112";"Bekasi Jaya, Kec. Bekasi Tim., Kota Bks";PAPUA;17112;Indonesia;081905156959;;;-62.457.884;1.070.086.739;https://maps.google.com/?cid=0x0:0xb10e82247fa4c021;
cafe;Kafe;The Temu Coffee  Eatery;"The Springlake, Ruko Freesia 01, Jl. Bulevar Ahmad Yani Summarecon Bekasi No.002, RT.005/RW.003, Marga Mulya, Bekasi Utara, Bekasi, West Java 17142";"Ruko Freesia 01, Jl. Bulevar Ahmad Yani Summarecon Bekasi No.002, RT.005/RW.003, Marga Mulya, Bekasi Utara, Bekasi";PAPUA;17142;Indonesia;082333666302;;;-62.225.388;1.070.010.642;https://maps.google.com/?cid=0x0:0x1ae186c8b73b13ac;
cafe;Kedai Kopi;Cafe MU Bekasi;"Villa Mutiara Gading 2 Blok X1/1, RT.03/RW.18, Karang Satria, Kec. Tambun Utara, Kabupaten Bekasi, Jawa Barat 17510";"RT.03/RW.18, Karang Satria, Kec. Tambun Utara, Kabupaten Bekasi";PAPUA;17510;Indonesia;0811376793;;;-62.142.854;1.070.365.741;https://maps.google.com/?cid=0x0:0x7921509fb9fb54f9;
cafe;Kafe;CAVEIN coffee  pool;"Masuk di Ruko Karang Satria, Jl. Karang Satria No.15, Duren Jaya, Kec. Bekasi Tim., Kota Bks, Jawa Barat 17111";"Jl. Karang Satria No.15, Duren Jaya, Kec. Bekasi Tim., Kota Bks";PAPUA;17111;Indonesia;;;;-62.323.355;1.070.227.206;https://maps.google.com/?cid=0x0:0x157e7f3aa6da350f;
cafe;cafe;N/A;;;PAPUA;;Indonesia;;;;;;https://maps.google.com/?cid=0x0:0xb10e82247fa4c021u0026onu003dMenuu0026midu003d/g/11rmg2z695;
cafe;cafe;N/A;;;PAPUA;;Indonesia;;;;;;https://maps.google.com/?cid=0x0:0xb10e82247fa4c021u0026onu003dCattie+Pieu0026midu003d/g/11rmg2z695;
cafe;cafe;Hageida;"WQHM+R7P, Unnamed Road, Modio, Distrik Mapia Tengah, Kabupaten Dogiyai, Papua 98857";"Unnamed Road, Modio, Distrik Mapia Tengah, Kabupaten Dogiyai";PAPUA;98857;Indonesia;;;;-40.704.225;1.357.832.164;https://maps.google.com/?cid=0x0:0x7515fd3d49caae30;
mall;mall;Papua 98862;"Kabupaten Dogiyai, Papua";"Kabupaten Dogiyai, Papua";PAPUA;;Indonesia;;;;-39.828.074;1.360.944.845;https://maps.google.com/?cid=0x0:0xeac06bf36c87f14a;
mall;Pusat Perbelanjaan;Mall Jayapura;"APO, Jl. Samratulangi, Bayangkara, Kec. Jayapura Utara, Kota Jayapura, Papua 99112";"Jl. Samratulangi, Bayangkara, Kec. Jayapura Utara, Kota Jayapura";PAPUA;99112;Indonesia;09675150000;;;-25.351.775;1.407.061.874;https://maps.google.com/?cid=0x0:0x54294cb27964023;
mall;mall;Pertokoan Ikebo;"X2QP+88F, Kimupugi, Kec. Kamu, Kabupaten Dogiyai, Papua 98862";"Kimupugi, Kec. Kamu, Kabupaten Dogiyai";PAPUA;98862;Indonesia;;;;-40.116.784;1.360.357.909;https://maps.google.com/?cid=0x0:0x50e241d478c33b6e;
mall;Pusat Perbelanjaan;PAPUA MART;"FCM5+7Q5, Rimba Jaya, Kec. Merauke, Kabupaten Merauke, Papua 99615";"Rimba Jaya, Kec. Merauke, Kabupaten Merauke";PAPUA;99615;Indonesia;082248232084;;;-85.168.698;1.404.094.999;https://maps.google.com/?cid=0x0:0x9deaa636eaaa0b0f;
mall;Pusat Perbelanjaan;Mall papua;"Jl. Gn. Aspen No.26, Bencongan, Kec. Klp. Dua, Kabupaten Tangerang, Banten 15810";"Bencongan, Kec. Klp. Dua, Kabupaten Tangerang";PAPUA;15810;Indonesia;;;;-62.338.406;1.065.937.941;https://maps.google.com/?cid=0x0:0xf2fc51e618acb94;
mall;Toko;KIOS KURNIA;"8657+H6X, Harapan Jaya Sp II, Toire Sp I, Inggerus, Kabupaten Waropen, Papua 98261";"Harapan Jaya Sp II, Toire Sp I, Inggerus, Kabupaten Waropen";PAPUA;98261;Indonesia;;;;-2.691.492;136.213.257;https://maps.google.com/?cid=0x0:0xfd722db2067ede3b;
mall;Toko;Papua Trade Centre;"JL Kelapa 2, Komplek Papua Trade Centre, Mandala, Kec. Jayapura Utara, Kota Jayapura, Papua";"Kota Jayapura, Papua";PAPUA;;Indonesia;0967551869;;;-2.533;140.717;https://maps.google.com/?cid=0x0:0xbd8fe8315ff72c67;
mall;Pusat Perbelanjaan;Lotte Shopping Avenue Mall;"Jl. Prof. DR. Satrio No.Kav.3, RW.5, Kuningan, Karet Kuningan, Kecamatan Setiabudi, Kota Jakarta Selatan, Daerah Khusus Ibukota Jakarta 12940";"RW.5, Kuningan, Karet Kuningan, Kecamatan Setiabudi, Kota Jakarta Selatan";PAPUA;12940;Indonesia;02129889292;;;-62.233.644;1.068.232.981;https://maps.google.com/?cid=0x0:0xe8323175da8b9770;
mall;Pusat Perbelanjaan;Ciputra World 1 Jakarta;"Jl. Prof. DR. Satrio No.Kav. 3-5, RT.17/RW.4, Kuningan, Karet Kuningan, Kecamatan Setiabudi, Kota Jakarta Selatan, Daerah Khusus Ibukota Jakarta 12940";"RT.17/RW.4, Kuningan, Karet Kuningan, Kecamatan Setiabudi, Kota Jakarta Selatan";PAPUA;12940;Indonesia;;;;-62.236.898;1.068.234.201;https://maps.google.com/?cid=0x0:0x4c000bf384ff9055;
mall;Pusat Perbelanjaan;Puri Indah Mall;"Jl. Puri Agung No.1, Kembangan Sel., Kec. Kembangan, Kota Jakarta Barat, Daerah Khusus Ibukota Jakarta 11610";"Kembangan Sel., Kec. Kembangan, Kota Jakarta Barat";PAPUA;11610;Indonesia;0215822582;;;-61.887.759;1.067.347.896;https://maps.google.com/?cid=0x0:0x6653aecc17740a12;
mall;Pusat Perbelanjaan;Mall Of Indonesia;"Jl. Boulevard Bar. Raya No.12, RT.18/RW.19, Klp. Gading Bar., Kec. Klp. Gading, Jkt Utara, Daerah Khusus Ibukota Jakarta 14240";"RT.18/RW.19, Klp. Gading Bar., Kec. Klp. Gading, Jkt Utara";PAPUA;14240;Indonesia;02145867888;;;-61.514.549;1.068.918.949;https://maps.google.com/?cid=0x0:0x3431c7aaadd1f1b6;
mall;Pusat Perbelanjaan;Gandaria City;"Jl. Sultan Iskandar Muda, Gandaria, Kec. Kby. Lama, Kota Jakarta Selatan, Daerah Khusus Ibukota Jakarta 12240";"Gandaria, Kec. Kby. Lama, Kota Jakarta Selatan";PAPUA;12240;Indonesia;02129052888;;;-62.443.009;1.067.829.375;https://maps.google.com/?cid=0x0:0x6173704d396d5a99;
mall;mall;Distrik Mapia;"Kabupaten Dogiyai, Papua";"Kabupaten Dogiyai, Papua";PAPUA;;Indonesia;;;;-39.611.613;1.359.437.422;https://maps.google.com/?cid=0x0:0x816fff739b1c0c5f;
mall;Pusat Perbelanjaan;Kampung Mogoya;"37J2+XC2, Obano, Distrik Paniai Barat, Kabupaten Paniai, Papua 98726";"Obano, Distrik Paniai Barat, Kabupaten Paniai";PAPUA;98726;Indonesia;;;;-39.176.032;1.362.510.182;https://maps.google.com/?cid=0x0:0x4bafea5a7bd913ad;
mall;Tujuan Wisata;Debay Odebutu;"37F2+CJ8, Muyetadi, Distrik Paniai Barat, Kabupaten Paniai, Papua 98726";"Muyetadi, Distrik Paniai Barat, Kabupaten Paniai";PAPUA;98726;Indonesia;081354187582;;;-39.264.706;1.362.515.774;https://maps.google.com/?cid=0x0:0x50ecd924e4c6eddc;
mall;Pusat Perbelanjaan;Plaza Indonesia;"Jl. M.H. Thamrin No.Kav.28-30, Gondangdia, Kec. Menteng, Kota Jakarta Pusat, Daerah Khusus Ibukota Jakarta 10350";"Gondangdia, Kec. Menteng, Kota Jakarta Pusat";PAPUA;10350;Indonesia;02129920000;;;-61.935.977;1.068.219.468;https://maps.google.com/?cid=0x0:0x7d7fe17ad64a053f;
mall;Mal outlet;Supermal Karawaci;"Jl. Boulevard Diponegoro No.105, Bencongan, Kec. Klp. Dua, Kabupaten Tangerang, Banten 15810";"Bencongan, Kec. Klp. Dua, Kabupaten Tangerang";PAPUA;15810;Indonesia;0215466666;;;-62.268.116;1.066.070.233;https://maps.google.com/?cid=0x0:0xc5927a7be82e23b8;
mall;Pusat Perbelanjaan;Grand Indonesia Shopping Town;"Jl. M.H. Thamrin No.1, Menteng, Kec. Menteng, Kota Jakarta Pusat, Daerah Khusus Ibukota Jakarta 10310";"Menteng, Kec. Menteng, Kota Jakarta Pusat";PAPUA;10310;Indonesia;02123580001;;;-61.965.848;1.068.224.882;https://maps.google.com/?cid=0x0:0xccfcc89b95aaf1ae;
mall;Toserba;Galeries Lafayette - Pacific Place;"Floor Pacific Place Mall Jakarta, Jl. Jend. Sudirman kav 52-53 No.5, RT.5/RW.3, Senayan, Kec. Kby. Baru, Kota Jakarta Selatan, Daerah Khusus Ibukota Jakarta 12190";"Jl. Jend. Sudirman kav 52-53 No.5, RT.5/RW.3, Senayan, Kec. Kby. Baru, Kota Jakarta Selatan";PAPUA;12190;Indonesia;;;;-62.252.329;1.068.099.256;https://maps.google.com/?cid=0x0:0xae670bf31a4fe49c;
mall;Toko Pakaian;MAPCLUB;"Jl. Jenderal Sudirman No.86, Karet Tengsin, Kecamatan Tanah Abang, Kota Jakarta Pusat, Daerah Khusus Ibukota Jakarta 10220";"Karet Tengsin, Kecamatan Tanah Abang, Kota Jakarta Pusat";PAPUA;10220;Indonesia;1500627;;;-62.100.129;1.068.196.519;https://maps.google.com/?cid=0x0:0xae091a75ef395f5a;
mall;Toko Hobi;POP! Korean Shop;"Blok M Square Lanta 3A, Jl. Melawai 5 No.33 Unit D, RT.3/RW.1, Melawai, Kec. Kby. Baru, Kota Jakarta Selatan, Daerah Khusus Ibukota Jakarta 12160";"Jl. Melawai 5 No.33 Unit D, RT.3/RW.1, Melawai, Kec. Kby. Baru, Kota Jakarta Selatan";PAPUA;12160;Indonesia;;;;-6.244.489;106.800.682;https://maps.google.com/?cid=0x0:0xc5a7daae0921c1ff;
mall;Toko Parfum;Promenade 20;"Promenade 20, Jl. Bangka Raya No.20 Unit Q, Pela Mampang, Kec. Mampang Prpt., Kota Jakarta Selatan, Daerah Khusus Ibukota Jakarta 12720";"Jl. Bangka Raya No.20 Unit Q, Pela Mampang, Kec. Mampang Prpt., Kota Jakarta Selatan";PAPUA;12720;Indonesia;082151109898;;;-62.535.058;1.068.147.461;https://maps.google.com/?cid=0x0:0x738a49486c275837;
mall;Kantor Perusahaan;MAGA INDONESIA MAIN OFFICIAL STORE;"PRW7+HXJ, Jl. Bangka Raya Jl. Kemang Raya, Pela Mampang, Kec. Mampang Prpt., Kota Jakarta Selatan, Daerah Khusus Ibukota Jakarta 12720";"Jl. Bangka Raya Jl. Kemang Raya, Pela Mampang, Kec. Mampang Prpt., Kota Jakarta Selatan";PAPUA;12720;Indonesia;;;;-62.535.349;1.068.148.927;https://maps.google.com/?cid=0x0:0x459b810ae595a7a4;
mall;Toko Komputer;Digimap Supermal Karawaci;"SUPERMall KARAWACI, Jl. Boulevard Diponegoro No.105, Bencongan, Kec. Klp. Dua, Kabupaten Tangerang, Banten 15810";"Jl. Boulevard Diponegoro No.105, Bencongan, Kec. Klp. Dua, Kabupaten Tangerang";PAPUA;15810;Indonesia;02154212358;;;-6.226.606;1.066.076.364;https://maps.google.com/?cid=0x0:0x55e0984c1af1fcbc;
mall;mall;Ikrar;"Kec. Kamu Utara, Kabupaten Dogiyai, Papua";"Kabupaten Dogiyai, Papua";PAPUA;;Indonesia;;;;-38.823.479;1.360.658.592;https://maps.google.com/?cid=0x0:0xd0721532abe77f02;
mall;mall;Papua 98863;Papua;Papua;PAPUA;;Indonesia;;;;-38.009.799;1.360.944.845;https://maps.google.com/?cid=0x0:0x6da0fecc08c5d815;
mall;mall;Papua 98857;Papua;Papua;PAPUA;;Indonesia;;;;-39.020.493;1.357.900.209;https://maps.google.com/?cid=0x0:0x99af57bbf9657b1;
mall;Pusat Perbelanjaan;Pacific Place Mall;"Jl. Jend. Sudirman kav 52-53, Senayan, Kec. Kby. Baru, Kota Jakarta Selatan, Daerah Khusus Ibukota Jakarta 12190";"Senayan, Kec. Kby. Baru, Kota Jakarta Selatan";PAPUA;12190;Indonesia;02151402828;;;-62.240.197;1.068.101.858;https://maps.google.com/?cid=0x0:0xc4a608b34b5f03cc;
mall;mall;Pertokoan Ikebo;"X2QP+88F, Kimupugi, Kec. Kamu, Kabupaten Dogiyai, Papua 98862";"Kimupugi, Kec. Kamu, Kabupaten Dogiyai";PAPUA;98862;Indonesia;;;;-40.116.784;1.360.357.909;https://maps.google.com/?cid=0x0:0x50e241d478c33b6e;
mall;Pusat Perbelanjaan;SAGA MALL;"Kota Baru, Kec. Abepura, Kota Jayapura, Papua 99351";"Kec. Abepura, Kota Jayapura";PAPUA;99351;Indonesia;;;;-26.105.845;1.406.654.189;https://maps.google.com/?cid=0x0:0xaf65e43ff84ff9e6;
mall;Kedai Kopi;JCO COFFEE  DONUTS MALL JAYAPURA;"Jl. Kab. No.99112, Bayangkara, Kec. Jayapura Utara, Kota Jayapura, Papua 99112";"Bayangkara, Kec. Jayapura Utara, Kota Jayapura";PAPUA;99112;Indonesia;;;;-25.353.252;1.407.060.198;https://maps.google.com/?cid=0x0:0x8cbe835113b8c269;
mall;Toko Swalayan;Hypermart Jayapura Mall;"Jl. Dr. Sam Ratulangi No.47, Bayangkara, Kec. Jayapura Utara, Kota Jayapura, Papua 99112";"Bayangkara, Kec. Jayapura Utara, Kota Jayapura";PAPUA;99112;Indonesia;0967522298;;;-25.350.388;1.407.055.769;https://maps.google.com/?cid=0x0:0xb1412384235d004a;
mall;mall;Sukikai Sel.;"Kabupaten Dogiyai, Papua";"Kabupaten Dogiyai, Papua";PAPUA;;Indonesia;;;;-41.123.068;1.353.369.459;https://maps.google.com/?cid=0x0:0xdadd6877b6e8d104;
mall;mall;Distrik Mapia Barat;"Kabupaten Dogiyai, Papua";"Kabupaten Dogiyai, Papua";PAPUA;;Indonesia;;;;-40.494.504;1.357.394.361;https://maps.google.com/?cid=0x0:0x5153e9cb24245eec;
mall;Pusat Perbelanjaan;Kuningan Citymall;"Jl. Prof. DR. Satrio No.Kav. 18, Kuningan, Karet Kuningan, Kecamatan Setiabudi, Kota Jakarta Selatan, Daerah Khusus Ibukota Jakarta 12940";"Kuningan, Karet Kuningan, Kecamatan Setiabudi, Kota Jakarta Selatan";PAPUA;12940;Indonesia;02157905555;;;-62.250.136;106.829.553;https://maps.google.com/?cid=0x0:0x420d8f1dfd4d9452;
mall;Pusat Perbelanjaan;Lotte Shopping Avenue Mall;"Jl. Prof. DR. Satrio No.Kav.3, RW.5, Kuningan, Karet Kuningan, Kecamatan Setiabudi, Kota Jakarta Selatan, Daerah Khusus Ibukota Jakarta 12940";"RW.5, Kuningan, Karet Kuningan, Kecamatan Setiabudi, Kota Jakarta Selatan";PAPUA;12940;Indonesia;02129889292;;;-62.233.644;1.068.232.981;https://maps.google.com/?cid=0x0:0xe8323175da8b9770;
mall;Pusat Perbelanjaan;"Kalbe Care, Lotte Shopping Avenue";"kav., Jl. Prof. DR. Satrio No.3-5 C03 - C05, RT.18/RW.4, Kuningan, Karet Kuningan, Kecamatan Setiabudi, Kota Jakarta Selatan, Daerah Khusus Ibukota Jakarta 12940";"Jl. Prof. DR. Satrio No.3-5 C03 - C05, RT.18/RW.4, Kuningan, Karet Kuningan, Kecamatan Setiabudi, Kota Jakarta Selatan";PAPUA;12940;Indonesia;02129889347;;;-62.243.244;1.068.232.529;https://maps.google.com/?cid=0x0:0x2f036dac03d8471c;
mall;Pusat Perbelanjaan;Ciputra World 1 Jakarta;"Jl. Prof. DR. Satrio No.Kav. 3-5, RT.17/RW.4, Kuningan, Karet Kuningan, Kecamatan Setiabudi, Kota Jakarta Selatan, Daerah Khusus Ibukota Jakarta 12940";"RT.17/RW.4, Kuningan, Karet Kuningan, Kecamatan Setiabudi, Kota Jakarta Selatan";PAPUA;12940;Indonesia;;;;-62.236.898;1.068.234.201;https://maps.google.com/?cid=0x0:0x4c000bf384ff9055;
mall;Jepang;Shokuyoku teppanyaki |Lotte Mall;"QRGF+MP8, Jl. Prof. DR. Satrio, RT.11/RW.4, Kuningan, Karet Kuningan, Kecamatan Setiabudi, Kota Jakarta Selatan, Daerah Khusus Ibukota Jakarta 12940";"Jl. Prof. DR. Satrio, RT.11/RW.4, Kuningan, Karet Kuningan, Kecamatan Setiabudi, Kota Jakarta Selatan";PAPUA;12940;Indonesia;;;;-62.233.271;1.068.243.207;https://maps.google.com/?cid=0x0:0x22b300bf35013b28;
mall;Vietnam;PHO BA BA Lotte Mall Jakarta;"LOTTE SHOPPING AVENUE, Jl. Prof. DR. Satrio No.Kav 3-5, Kuningan, Karet Kuningan, Setiabudi, South Jakarta City, Jakarta 12940";"Jl. Prof. DR. Satrio No.Kav 3-5, Kuningan, Karet Kuningan, Setiabudi, South Jakarta City";PAPUA;12940;Indonesia;081809874304;;;-62.245.303;1.068.227.118;https://maps.google.com/?cid=0x0:0x167be96a538c1de3;
mall;mall;Papua 98862;"Kabupaten Dogiyai, Papua";"Kabupaten Dogiyai, Papua";PAPUA;;Indonesia;;;;-39.828.074;1.360.944.845;https://maps.google.com/?cid=0x0:0xeac06bf36c87f14a;
mall;Pusat Perbelanjaan;Mall Jayapura;"APO, Jl. Samratulangi, Bayangkara, Kec. Jayapura Utara, Kota Jayapura, Papua 99112";"Jl. Samratulangi, Bayangkara, Kec. Jayapura Utara, Kota Jayapura";PAPUA;99112;Indonesia;09675150000;;;-25.351.775;1.407.061.874;https://maps.google.com/?cid=0x0:0x54294cb27964023;
mall;Pusat Perbelanjaan;Kampung Mogoya;"37J2+XC2, Obano, Distrik Paniai Barat, Kabupaten Paniai, Papua 98726";"Obano, Distrik Paniai Barat, Kabupaten Paniai";PAPUA;98726;Indonesia;;;;-39.176.032;1.362.510.182;https://maps.google.com/?cid=0x0:0x4bafea5a7bd913ad;
mall;Pusat Perbelanjaan;SAGA MALL;"Kota Baru, Kec. Abepura, Kota Jayapura, Papua 99351";"Kec. Abepura, Kota Jayapura";PAPUA;99351;Indonesia;;;;-26.105.845;1.406.654.189;https://maps.google.com/?cid=0x0:0xaf65e43ff84ff9e6;
mall;Pasar Grosir Pakaian;Ramayana Abepura;"Jl. Raya Abepura, Kel. Vin, Kec. Jayapura Selatan, Wai Mhorock, Kec. Abepura, Kota Jayapura, Papua 99351";"Kel. Vin, Kec. Jayapura Selatan, Wai Mhorock, Kec. Abepura, Kota Jayapura";PAPUA;99351;Indonesia;0967584745;;;-2.604.339;1.406.736.756;https://maps.google.com/?cid=0x0:0x103c0acf73345917;
mall;Pusat Perbelanjaan;Mall papua;"Jl. Gn. Aspen No.26, Bencongan, Kec. Klp. Dua, Kabupaten Tangerang, Banten 15810";"Bencongan, Kec. Klp. Dua, Kabupaten Tangerang";PAPUA;15810;Indonesia;;;;-62.338.406;1.065.937.941;https://maps.google.com/?cid=0x0:0xf2fc51e618acb94;
mall;Tujuan Wisata;Debay Odebutu;"37F2+CJ8, Muyetadi, Distrik Paniai Barat, Kabupaten Paniai, Papua 98726";"Muyetadi, Distrik Paniai Barat, Kabupaten Paniai";PAPUA;98726;Indonesia;081354187582;;;-39.264.706;1.362.515.774;https://maps.google.com/?cid=0x0:0x50ecd924e4c6eddc;
mall;mall;Kec. Kamu Sel.;"Kabupaten Dogiyai, Papua";"Kabupaten Dogiyai, Papua";PAPUA;;Indonesia;;;;-40.621.607;136.082.065;https://maps.google.com/?cid=0x0:0x381d20608184823;
mall;mall;Pertokoan Ikebo;"X2QP+88F, Kimupugi, Kec. Kamu, Kabupaten Dogiyai, Papua 98862";"Kimupugi, Kec. Kamu, Kabupaten Dogiyai";PAPUA;98862;Indonesia;;;;-40.116.784;1.360.357.909;https://maps.google.com/?cid=0x0:0x50e241d478c33b6e;
mall;mall;Kec. Kamu Tim.;"Kabupaten Dogiyai, Papua";"Kabupaten Dogiyai, Papua";PAPUA;;Indonesia;;;;-4.011.886;1.361.550.492;https://maps.google.com/?cid=0x0:0xff38d94f16554efc;
mall;Pusat Perbelanjaan;Timika Mall;"57522, Jl. Hasanuddin No.9, Nawaripi, Mimika Baru, Mimika Regency, Papua 99971";"Jl. Hasanuddin No.9, Nawaripi, Mimika Baru, Mimika Regency";PAPUA;99971;Indonesia;;;;-45.673.682;1.368.869.612;https://maps.google.com/?cid=0x0:0x146edd1a60cab3dd;
mall;mall;Pertokoan Ikebo;"X2QP+88F, Kimupugi, Kec. Kamu, Kabupaten Dogiyai, Papua 98862";"Kimupugi, Kec. Kamu, Kabupaten Dogiyai";PAPUA;98862;Indonesia;;;;-40.116.784;1.360.357.909;https://maps.google.com/?cid=0x0:0x50e241d478c33b6e;
mall;Pusat Perbelanjaan;Kuningan Citymall;"Jl. Prof. DR. Satrio No.Kav. 18, Kuningan, Karet Kuningan, Kecamatan Setiabudi, Kota Jakarta Selatan, Daerah Khusus Ibukota Jakarta 12940";"Kuningan, Karet Kuningan, Kecamatan Setiabudi, Kota Jakarta Selatan";PAPUA;12940;Indonesia;02157905555;;;-62.250.136;106.829.553;https://maps.google.com/?cid=0x0:0x420d8f1dfd4d9452;
mall;Pusat Perbelanjaan;"Avenue Lobby, Lotte Mall";"QRGF+62W, RT.18/RW.4, Kuningan, Karet Kuningan, Kecamatan Setiabudi, Kota Jakarta Selatan, Daerah Khusus Ibukota Jakarta 12940";"RT.18/RW.4, Kuningan, Karet Kuningan, Kecamatan Setiabudi, Kota Jakarta Selatan";PAPUA;12940;Indonesia;;;;-62.243.192;106.822.371;https://maps.google.com/?cid=0x0:0xfc181e0fb5103ad4;
mall;Pusat Perbelanjaan;"Kalbe Care, Lotte Shopping Avenue";"kav., Jl. Prof. DR. Satrio No.3-5 C03 - C05, RT.18/RW.4, Kuningan, Karet Kuningan, Kecamatan Setiabudi, Kota Jakarta Selatan, Daerah Khusus Ibukota Jakarta 12940";"Jl. Prof. DR. Satrio No.3-5 C03 - C05, RT.18/RW.4, Kuningan, Karet Kuningan, Kecamatan Setiabudi, Kota Jakarta Selatan";PAPUA;12940;Indonesia;02129889347;;;-62.243.244;1.068.232.529;https://maps.google.com/?cid=0x0:0x2f036dac03d8471c;
mall;Pusat Perbelanjaan;Ciputra World 1 Jakarta;"Jl. Prof. DR. Satrio No.Kav. 3-5, RT.17/RW.4, Kuningan, Karet Kuningan, Kecamatan Setiabudi, Kota Jakarta Selatan, Daerah Khusus Ibukota Jakarta 12940";"RT.17/RW.4, Kuningan, Karet Kuningan, Kecamatan Setiabudi, Kota Jakarta Selatan";PAPUA;12940;Indonesia;;;;-62.236.898;1.068.234.201;https://maps.google.com/?cid=0x0:0x4c000bf384ff9055;
mall;Jepang;Shokuyoku teppanyaki |Lotte Mall;"QRGF+MP8, Jl. Prof. DR. Satrio, RT.11/RW.4, Kuningan, Karet Kuningan, Kecamatan Setiabudi, Kota Jakarta Selatan, Daerah Khusus Ibukota Jakarta 12940";"Jl. Prof. DR. Satrio, RT.11/RW.4, Kuningan, Karet Kuningan, Kecamatan Setiabudi, Kota Jakarta Selatan";PAPUA;12940;Indonesia;;;;-62.233.271;1.068.243.207;https://maps.google.com/?cid=0x0:0x22b300bf35013b28;
mall;Vietnam;PHO BA BA Lotte Mall Jakarta;"LOTTE SHOPPING AVENUE, Jl. Prof. DR. Satrio No.Kav 3-5, Kuningan, Karet Kuningan, Setiabudi, South Jakarta City, Jakarta 12940";"Jl. Prof. DR. Satrio No.Kav 3-5, Kuningan, Karet Kuningan, Setiabudi, South Jakarta City";PAPUA;12940;Indonesia;081809874304;;;-62.245.303;1.068.227.118;https://maps.google.com/?cid=0x0:0x167be96a538c1de3;
mall;mall;Distrik Mapia Tengah;"Kabupaten Dogiyai, Papua";"Kabupaten Dogiyai, Papua";PAPUA;;Indonesia;;;;-41.114.953;1.358.199.147;https://maps.google.com/?cid=0x0:0x9fa0506cdd07ca9b;
mall;mall;Kantor Distrik Mapia Tengah;"VRX5+XHX, Jln. AUKI TEKEGE, Distrik, Modio, Distrik Mapia Tengah, Kabupaten Dogiyai, Papua 98857";"Jln. AUKI TEKEGE, Distrik, Modio, Distrik Mapia Tengah, Kabupaten Dogiyai";PAPUA;98857;Indonesia;;;;-4.100.001;1.358.089.935;https://maps.google.com/?cid=0x0:0x1fda710655bd0426;
mall;Balai Pertemuan Desa;Kantor Balai Kampung Atou;"VRP9+XWX, Putapa, Distrik Mapia Tengah, Kabupaten Dogiyai, Papua 98857";"Putapa, Distrik Mapia Tengah, Kabupaten Dogiyai";PAPUA;98857;Indonesia;;;;-41.125.083;135.819.866;https://maps.google.com/?cid=0x0:0x879db5f709c23520;
mall;mall;Papua 98862;"Kabupaten Dogiyai, Papua";"Kabupaten Dogiyai, Papua";PAPUA;;Indonesia;;;;-39.828.074;1.360.944.845;https://maps.google.com/?cid=0x0:0xeac06bf36c87f14a;
mall;Pusat Perbelanjaan;Kampung Mogoya;"37J2+XC2, Obano, Distrik Paniai Barat, Kabupaten Paniai, Papua 98726";"Obano, Distrik Paniai Barat, Kabupaten Paniai";PAPUA;98726;Indonesia;;;;-39.176.032;1.362.510.182;https://maps.google.com/?cid=0x0:0x4bafea5a7bd913ad;
mall;Tujuan Wisata;Debay Odebutu;"37F2+CJ8, Muyetadi, Distrik Paniai Barat, Kabupaten Paniai, Papua 98726";"Muyetadi, Distrik Paniai Barat, Kabupaten Paniai";PAPUA;98726;Indonesia;081354187582;;;-39.264.706;1.362.515.774;https://maps.google.com/?cid=0x0:0x50ecd924e4c6eddc;
supermarket;supermarket;Papua 98862;"Kabupaten Dogiyai, Papua";"Kabupaten Dogiyai, Papua";PAPUA;;Indonesia;;;;-39.828.074;1.360.944.845;https://maps.google.com/?cid=0x0:0xeac06bf36c87f14a;
supermarket;Toko Swalayan;Surya Mart;"C8V2+G83, Jl. Irian Kepi, Kepi, Kec. Obaa, Kabupaten Mappi, Papua 99881";"Jl. Irian Kepi, Kepi, Kec. Obaa, Kabupaten Mappi";PAPUA;99881;Indonesia;085254867242;;;-65.562.444;1.393.007.867;https://maps.google.com/?cid=0x0:0x160bad2921fdf723;
supermarket;Pusat Perbelanjaan;Papua Supermarket  Dept. Store;"4869+F77 Bar, Sawagumu, Kec. Sorong Utara, Kota Sorong, Papua Bar. 98416";"Sawagumu, Kec. Sorong Utara, Kota Sorong";PAPUA;98416;Indonesia;09513160123;;;-0.888831;1.313.181.847;https://maps.google.com/?cid=0x0:0x7b5f0926a74ad213;
supermarket;Toko bahan makanan;Papua Mart;"7XVG+F83, Pruleme, Distrik Mulia, Kabupaten Puncak Jaya, Papua";"Kabupaten Puncak Jaya, Papua";PAPUA;;Indonesia;;;;-37.063.653;1.379.757.822;https://maps.google.com/?cid=0x0:0xf49ab6ab8e5d1b97;
supermarket;Toko Swalayan;Kios Baru 2 Kimaam;"2R8W+48C, Kimaam, Kabupaten Merauke, Papua 99655";"Kimaam, Kabupaten Merauke";PAPUA;99655;Indonesia;;;;-79.846.802;1.388.457.605;https://maps.google.com/?cid=0x0:0xcce5b9458b4ce814;
supermarket;Toko bahan makanan;Welcome Mart + ATM;"F9XR+JCF, Seringgu Jaya, Kec. Merauke, Kabupaten Merauke, Papua 99614";"Seringgu Jaya, Kec. Merauke, Kabupaten Merauke";PAPUA;99614;Indonesia;;;;-85.009.364;1.403.910.371;https://maps.google.com/?cid=0x0:0x7713d19ee1798363;
supermarket;Toko Bahan Bangunan;Supermarket Multi Bangunan;"Jl Baru No.98, Wai Mhorock, Abepura, Jayapura City, Papua 99225";"Wai Mhorock, Abepura, Jayapura City";PAPUA;99225;Indonesia;0967588677;;;-26.077.336;1.406.742.812;https://maps.google.com/?cid=0x0:0x3b19f301c68f1d6f;
supermarket;Toko Swalayan;Kios Baru 1 Kimaam;"Jalan Gotong Royong No.RT.1, Kiworo, Kimaam, Kabupaten Merauke, Papua 99655";"Kiworo, Kimaam, Kabupaten Merauke";PAPUA;99655;Indonesia;081344263123;;;-79.855.171;138.845.935;https://maps.google.com/?cid=0x0:0xd3467309febfeb5d;
supermarket;Toko;SWALAYAN YOSIDO;"Jl. Dr. Sam Ratulangi, Oyehe, Distrik Nabire, Kabupaten Nabire, Papua 98811";"Oyehe, Distrik Nabire, Kabupaten Nabire";PAPUA;98811;Indonesia;085158125592;;;-33.591.841;1.355.029.322;https://maps.google.com/?cid=0x0:0x9d81296727523735;
supermarket;supermarket;Papuamart;"8F7H+HFQ, Karubaga, Kec. Karubaga, Kabupaten Tolikara, Papua 99567";"Karubaga, Kec. Karubaga, Kabupaten Tolikara";PAPUA;99567;Indonesia;082211028548;;;-36.860.415;1.384.787.244;https://maps.google.com/?cid=0x0:0x42f01a5a3eafbb7f;
supermarket;Toko bahan makanan;Lapak sembako;"Moanemani/ Ikebo, Kec. Kamu, Kabupaten Dogiyai, Papua 98862";"Kec. Kamu, Kabupaten Dogiyai";PAPUA;98862;Indonesia;081240234589;;;-40.101.141;1.360.366.697;https://maps.google.com/?cid=0x0:0x752918d736505e91;
supermarket;supermarket;Papua;;Papua;PAPUA;;Indonesia;;;;-4.269.928;1.380.803.529;https://maps.google.com/?cid=0x0:0xeba94e9c5eefe673;
supermarket;Toko bahan makanan;K Mart;"Jl. Imam Bonjol No.5, Fandoi, Kec. Biak Kota, Kabupaten Biak Numfor, Papua 98111";"Fandoi, Kec. Biak Kota, Kabupaten Biak Numfor";PAPUA;98111;Indonesia;081344919525;;;-11.836.947;1.360.819.066;https://maps.google.com/?cid=0x0:0xbb7ea430c4bdad88;
supermarket;Toko Swalayan;Toko Mujur;"36RC+8JF, Mur, Kec. Mambioman Bapai, Kabupaten Mappi, Papua 99872";"Mur, Kec. Mambioman Bapai, Kabupaten Mappi";PAPUA;99872;Indonesia;081311663253;;;-69.091.883;1.392.215.408;https://maps.google.com/?cid=0x0:0x3ac32eba1af23e22;
supermarket;Toko umum;Kios Mama Andi;"7XX7+2Q3, Wuyukwi, Distrik Mulia, Kabupaten Puncak Jaya, Papua 98973";"Wuyukwi, Distrik Mulia, Kabupaten Puncak Jaya";PAPUA;98973;Indonesia;081247174537;;;-37.024.971;1.379.644.274;https://maps.google.com/?cid=0x0:0x461f852ed7f20fc1;
supermarket;Toko bahan makanan;Toko Simon Dan Simon;"Jl. Raya Mandala No.92, Maro, Kec. Merauke, Kabupaten Merauke, Papua 99614";"Maro, Kec. Merauke, Kabupaten Merauke";PAPUA;99614;Indonesia;085254361993;;;-84.916.963;1.403.923.557;https://maps.google.com/?cid=0x0:0xd66f47f08a2065fc;
supermarket;Minimarket;KIOS MAEMUNA;"Gigobak, Kec. Sinak, Kabupaten Puncak, Papua 98977";"Kec. Sinak, Kabupaten Puncak";PAPUA;98977;Indonesia;;;;-38.094.272;1.378.480.759;https://maps.google.com/?cid=0x0:0x24f311077b969cbf;
supermarket;Toko Swalayan;Swalayan Senyum 5000;"Fandoi, Kec. Biak Kota, Kabupaten Biak Numfor, Papua 98111";"Kec. Biak Kota, Kabupaten Biak Numfor";PAPUA;98111;Indonesia;;;;-11.789.891;1.360.835.474;https://maps.google.com/?cid=0x0:0xae749dec19901478;
supermarket;Minimarket;Toko Wauju 1;"R39F+HPX, Waupnor, Kec. Biak Kota, Kabupaten Biak Numfor, Papua 98111";"Waupnor, Kec. Biak Kota, Kabupaten Biak Numfor";PAPUA;98111;Indonesia;082238873727;;;-11.810.044;1.360.743.513;https://maps.google.com/?cid=0x0:0xb2bb1102a151b0ea;
supermarket;supermarket;SA Kios Putra;"222Q+3J9, Moanemani/ Ikebo, Kec. Kamu, Kabupaten Dogiyai, Papua 98862";"Moanemani/ Ikebo, Kec. Kamu, Kabupaten Dogiyai";PAPUA;98862;Indonesia;;;;-39.998.454;1.360.390.954;https://maps.google.com/?cid=0x0:0xd00739287dcb3ebe;
supermarket;Toko bahan makanan;MW_M4rt;"Perum Darsua, Doyo Baru, Distrik Waibu, Kabupaten Jayapura, Papua 99352";"Doyo Baru, Distrik Waibu, Kabupaten Jayapura";PAPUA;99352;Indonesia;085244557005;;;-25.467.859;140.457.001;https://maps.google.com/?cid=0x0:0x868ce2e935c66436;
supermarket;Toko Kelontong Korea;Mu Gung Hwa Supermarket - Senopati;"Jl. Senayan No.43, RT.8/RW.5, Rw. Bar., Kec. Kby. Baru, Kota Jakarta Selatan, Daerah Khusus Ibukota Jakarta 12180";"RT.8/RW.5, Rw. Bar., Kec. Kby. Baru, Kota Jakarta Selatan";PAPUA;12180;Indonesia;0217222214;;;-62.353.938;1.068.158.782;https://maps.google.com/?cid=0x0:0x9ffba79e59c537d5;
supermarket;Toko bahan makanan;Sagar indian supermarket;"Jl. Danau Sunter Utara Block R no 67, RT.1/RW.19, Sunter Agung, Tanjung Priok, North Jakarta City, Jakarta 14350";"RT.1/RW.19, Sunter Agung, Tanjung Priok, North Jakarta City";PAPUA;14350;Indonesia;08164844875;;;-61.380.243;1.068.668.598;https://maps.google.com/?cid=0x0:0x93bf3a16f16ce723;
supermarket;Toko Makanan Sehat;Primo Supermarket Citos;"Town Square, Jl. TB Simatupang No.KAV.17 Lantai Dasar, West Cilandak, Cilandak, South Jakarta City, Jakarta 12430";"Jl. TB Simatupang No.KAV.17 Lantai Dasar, West Cilandak, Cilandak, South Jakarta City";PAPUA;12430;Indonesia;02175920390;;;-62.914.315;1.067.992.178;https://maps.google.com/?cid=0x0:0x110a936a8d153b27;
supermarket;supermarket;Mapia;"Dawaikunu, Distrik Mapia, Kabupaten Dogiyai, Papua";"Kabupaten Dogiyai, Papua";PAPUA;;Indonesia;;;;-3.989.908;135.904.907;https://maps.google.com/?cid=0x0:0xa161b65eb173837d;
supermarket;supermarket;Kec. Tebet;"Kota Jakarta Selatan, Daerah Khusus Ibukota Jakarta";"Kota Jakarta Selatan, Daerah Khusus Ibukota Jakarta";PAPUA;;Indonesia;;;;-62.251.223;1.068.549.881;https://maps.google.com/?cid=0x0:0xd575e31c807295f9;
supermarket;Toko Swalayan;FOODMART SUPERMARKET;"FOODMART SUPERMARKET, Lippo Mall Nusantara, Jl. Jend. Sudirman No.kav 50 Lt.B1, unit, Karet Semanggi, Kecamatan Setiabudi, Kota Jakarta Selatan, Daerah Khusus Ibukota Jakarta 12930";"Lippo Mall Nusantara, Jl. Jend. Sudirman No.kav 50 Lt.B1, unit, Karet Semanggi, Kecamatan Setiabudi, Kota Jakarta Selatan";PAPUA;12930;Indonesia;08118331631;;;-62.197.194;1.068.144.731;https://maps.google.com/?cid=0x0:0x9d9b624afb9570f0;
supermarket;Toko bahan makanan;Daily Supermarket Maggiore Junction;"Maggiore Junction, Jl. Maggiore Grande Blok U, No. 1, Cihuni, Kec. Pagedangan, Kabupaten Tangerang, Banten 15332";"Jl. Maggiore Grande Blok U, No. 1, Cihuni, Kec. Pagedangan, Kabupaten Tangerang";PAPUA;15332;Indonesia;;;;-62.721.417;1.066.337.758;https://maps.google.com/?cid=0x0:0x1c48da14be3f544e;
supermarket;Toko bahan makanan;Sagar indian supermarket;"Jl. Danau Sunter Utara Block R no 67, RT.1/RW.19, Sunter Agung, Tanjung Priok, North Jakarta City, Jakarta 14350";"RT.1/RW.19, Sunter Agung, Tanjung Priok, North Jakarta City";PAPUA;14350;Indonesia;08164844875;;;-61.380.243;1.068.668.598;https://maps.google.com/?cid=0x0:0x93bf3a16f16ce723;
supermarket;Toko Makanan Sehat;Primo Supermarket Citos;"Town Square, Jl. TB Simatupang No.KAV.17 Lantai Dasar, West Cilandak, Cilandak, South Jakarta City, Jakarta 12430";"Jl. TB Simatupang No.KAV.17 Lantai Dasar, West Cilandak, Cilandak, South Jakarta City";PAPUA;12430;Indonesia;02175920390;;;-62.914.315;1.067.992.178;https://maps.google.com/?cid=0x0:0x110a936a8d153b27;
supermarket;Toko bahan makanan;Kuri Mart;"2FPF+3WM, Maniwak, Distrik Wasior, Kabupaten Teluk Wondama, Papua Bar. 98362";"Maniwak, Distrik Wasior, Kabupaten Teluk Wondama";PAPUA;98362;Indonesia;;;;-29.647.961;1.344.748.018;https://maps.google.com/?cid=0x0:0xb22f95ce19a212d;
supermarket;Toko bahan makanan;Victory;"2FPF+3WM, Maniwak, Distrik Wasior, Kabupaten Teluk Wondama, Papua Bar. 98362";"Maniwak, Distrik Wasior, Kabupaten Teluk Wondama";PAPUA;98362;Indonesia;;;;-29.647.961;1.344.748.018;https://maps.google.com/?cid=0x0:0xaa14ccf319f55d2c;
supermarket;supermarket;Papua 98863;Papua;Papua;PAPUA;;Indonesia;;;;-38.009.799;1.360.944.845;https://maps.google.com/?cid=0x0:0x6da0fecc08c5d815;
supermarket;supermarket;Papua 98857;Papua;Papua;PAPUA;;Indonesia;;;;-39.020.493;1.357.900.209;https://maps.google.com/?cid=0x0:0x99af57bbf9657b1;
supermarket;Toko bahan makanan;Lapak sembako;"Moanemani/ Ikebo, Kec. Kamu, Kabupaten Dogiyai, Papua 98862";"Kec. Kamu, Kabupaten Dogiyai";PAPUA;98862;Indonesia;081240234589;;;-40.101.141;1.360.366.697;https://maps.google.com/?cid=0x0:0x752918d736505e91;
supermarket;supermarket;SA Kios Putra;"222Q+3J9, Moanemani/ Ikebo, Kec. Kamu, Kabupaten Dogiyai, Papua 98862";"Moanemani/ Ikebo, Kec. Kamu, Kabupaten Dogiyai";PAPUA;98862;Indonesia;;;;-39.998.454;1.360.390.954;https://maps.google.com/?cid=0x0:0xd00739287dcb3ebe;
supermarket;Pusat Perbelanjaan;Papua Supermarket  Dept. Store;"4869+F77 Bar, Sawagumu, Kec. Sorong Utara, Kota Sorong, Papua Bar. 98416";"Sawagumu, Kec. Sorong Utara, Kota Sorong";PAPUA;98416;Indonesia;09513160123;;;-0.888831;1.313.181.847;https://maps.google.com/?cid=0x0:0x7b5f0926a74ad213;
supermarket;Minimarket;SAGA Supermarket  Dept. Store;"Jalan A. Yani, Ruko Kuda Laut, Klademak, Kecamatan Sorong Manoi, Kota Sorong, Papua Bar. 98414";"Ruko Kuda Laut, Klademak, Kecamatan Sorong Manoi, Kota Sorong";PAPUA;98414;Indonesia;0951322784;;;-0.8765248;1.312.576.755;https://maps.google.com/?cid=0x0:0x963043ed646a7e1e;
supermarket;Komplek perumahan;Rumah Bpk Gustaf. L;"4859+784, Klawuyuk, Distrik Sorong Timur, Kota Sorong, Papua Bar. 98416";"Klawuyuk, Distrik Sorong Timur, Kota Sorong";PAPUA;98416;Indonesia;;;;-0.8918739;1.313.183.248;https://maps.google.com/?cid=0x0:0x30559e7e5eb96ee4;
supermarket;Toko Kelontong Korea;Mu Gung Hwa Supermarket - Senopati;"Jl. Senayan No.43, RT.8/RW.5, Rw. Bar., Kec. Kby. Baru, Kota Jakarta Selatan, Daerah Khusus Ibukota Jakarta 12180";"RT.8/RW.5, Rw. Bar., Kec. Kby. Baru, Kota Jakarta Selatan";PAPUA;12180;Indonesia;0217222214;;;-62.353.938;1.068.158.782;https://maps.google.com/?cid=0x0:0x9ffba79e59c537d5;
supermarket;Toko Makanan Sehat;Primo Supermarket Citos;"Town Square, Jl. TB Simatupang No.KAV.17 Lantai Dasar, West Cilandak, Cilandak, South Jakarta City, Jakarta 12430";"Jl. TB Simatupang No.KAV.17 Lantai Dasar, West Cilandak, Cilandak, South Jakarta City";PAPUA;12430;Indonesia;02175920390;;;-62.914.315;1.067.992.178;https://maps.google.com/?cid=0x0:0x110a936a8d153b27;
supermarket;Toko bahan makanan;Sagar indian supermarket;"Jl. Danau Sunter Utara Block R no 67, RT.1/RW.19, Sunter Agung, Tanjung Priok, North Jakarta City, Jakarta 14350";"RT.1/RW.19, Sunter Agung, Tanjung Priok, North Jakarta City";PAPUA;14350;Indonesia;08164844875;;;-61.380.243;1.068.668.598;https://maps.google.com/?cid=0x0:0x93bf3a16f16ce723;
supermarket;supermarket;Distrik Mapia Barat;"Kabupaten Dogiyai, Papua";"Kabupaten Dogiyai, Papua";PAPUA;;Indonesia;;;;-40.494.504;1.357.394.361;https://maps.google.com/?cid=0x0:0x5153e9cb24245eec;
supermarket;supermarket;Papua 98862;"Kabupaten Dogiyai, Papua";"Kabupaten Dogiyai, Papua";PAPUA;;Indonesia;;;;-39.828.074;1.360.944.845;https://maps.google.com/?cid=0x0:0xeac06bf36c87f14a;
supermarket;Toko bahan makanan;Lapak sembako;"Moanemani/ Ikebo, Kec. Kamu, Kabupaten Dogiyai, Papua 98862";"Kec. Kamu, Kabupaten Dogiyai";PAPUA;98862;Indonesia;081240234589;;;-40.101.141;1.360.366.697;https://maps.google.com/?cid=0x0:0x752918d736505e91;
supermarket;Pusat Perbelanjaan;Papua Supermarket  Dept. Store;"4869+F77 Bar, Sawagumu, Kec. Sorong Utara, Kota Sorong, Papua Bar. 98416";"Sawagumu, Kec. Sorong Utara, Kota Sorong";PAPUA;98416;Indonesia;09513160123;;;-0.888831;1.313.181.847;https://maps.google.com/?cid=0x0:0x7b5f0926a74ad213;
supermarket;Toko Kelontong Korea;Mu Gung Hwa Supermarket - Senopati;"Jl. Senayan No.43, RT.8/RW.5, Rw. Bar., Kec. Kby. Baru, Kota Jakarta Selatan, Daerah Khusus Ibukota Jakarta 12180";"RT.8/RW.5, Rw. Bar., Kec. Kby. Baru, Kota Jakarta Selatan";PAPUA;12180;Indonesia;0217222214;;;-62.353.938;1.068.158.782;https://maps.google.com/?cid=0x0:0x9ffba79e59c537d5;
supermarket;Pusat Perbelanjaan;Saga Jayapura;"Jl. Ahmad Yani, Gurabesi, Kec. Jayapura Utara, Kota Jayapura, Papua 99222";"Gurabesi, Kec. Jayapura Utara, Kota Jayapura";PAPUA;99222;Indonesia;0811480554;;;-25.433.433;1.407.016.688;https://maps.google.com/?cid=0x0:0x68f0411e320c4afb;
supermarket;Kios;Kios Doopitaka;"36MQ+M9, Obano, Distrik Paniai Barat, Kabupaten Paniai, Papua";"Kabupaten Paniai, Papua";PAPUA;;Indonesia;;;;-3.915.813;136.238.393;https://maps.google.com/?cid=0x0:0x4e8cfcc6a0800807;
supermarket;supermarket;SA Kios Putra;"222Q+3J9, Moanemani/ Ikebo, Kec. Kamu, Kabupaten Dogiyai, Papua 98862";"Moanemani/ Ikebo, Kec. Kamu, Kabupaten Dogiyai";PAPUA;98862;Indonesia;;;;-39.998.454;1.360.390.954;https://maps.google.com/?cid=0x0:0xd00739287dcb3ebe;
supermarket;Toko Makanan Sehat;Primo Supermarket Citos;"Town Square, Jl. TB Simatupang No.KAV.17 Lantai Dasar, West Cilandak, Cilandak, South Jakarta City, Jakarta 12430";"Jl. TB Simatupang No.KAV.17 Lantai Dasar, West Cilandak, Cilandak, South Jakarta City";PAPUA;12430;Indonesia;02175920390;;;-62.914.315;1.067.992.178;https://maps.google.com/?cid=0x0:0x110a936a8d153b27;
supermarket;Toko bahan makanan;Sagar indian supermarket;"Jl. Danau Sunter Utara Block R no 67, RT.1/RW.19, Sunter Agung, Tanjung Priok, North Jakarta City, Jakarta 14350";"RT.1/RW.19, Sunter Agung, Tanjung Priok, North Jakarta City";PAPUA;14350;Indonesia;08164844875;;;-61.380.243;1.068.668.598;https://maps.google.com/?cid=0x0:0x93bf3a16f16ce723;
supermarket;Toko bahan makanan;Toko Wijaya;"Jl. Jemb. Tinggi No.12 1, RT.1/RW.9, Kb. Kacang, Kecamatan Tanah Abang, Kota Jakarta Pusat, Daerah Khusus Ibukota Jakarta 10240";"RT.1/RW.9, Kb. Kacang, Kecamatan Tanah Abang, Kota Jakarta Pusat";PAPUA;10240;Indonesia;0213141513;;;-61.889.269;1.068.129.859;https://maps.google.com/?cid=0x0:0x3506e2aad5047ad6;
supermarket;Toko Makanan Sehat;NW FROZEN food;"Jl. Merbabu I Jl. Grand Kahuripan No.21 block MC, Klapanunggal, Kec. Klapanunggal, Kabupaten Bogor, Jawa Barat 16710";"Klapanunggal, Kec. Klapanunggal, Kabupaten Bogor";PAPUA;16710;Indonesia;081946555009;;;-64.507.034;1.069.591.362;https://maps.google.com/?cid=0x0:0xfc9ca0dd2db19de8;
supermarket;Minimarket;Tirta Abadi;"Jalan H.Jasirin No.44, RT.001 RW.05, Kp. Jati, Jatiuwung, RT.002/RW.006, Jatiuwung, Kec. Cibodas, Kota Tangerang, Banten 15138";"RT.001 RW.05, Kp. Jati, Jatiuwung, RT.002/RW.006, Jatiuwung, Kec. Cibodas, Kota Tangerang";PAPUA;15138;Indonesia;085714521252;;;-61.961.032;1.065.923.761;https://maps.google.com/?cid=0x0:0x6e3ca548cee1064d;
supermarket;Toko Swalayan;Surya Mart;"C8V2+G83, Jl. Irian Kepi, Kepi, Kec. Obaa, Kabupaten Mappi, Papua 99881";"Jl. Irian Kepi, Kepi, Kec. Obaa, Kabupaten Mappi";PAPUA;99881;Indonesia;085254867242;;;-65.562.444;1.393.007.867;https://maps.google.com/?cid=0x0:0x160bad2921fdf723;
supermarket;supermarket;Syafiq Mart;"Jl. Sudirman, Serui Kota, Kec. Yapen Sel., Kabupaten Kepulauan Yapen, Papua 98213";"Serui Kota, Kec. Yapen Sel., Kabupaten Kepulauan Yapen";PAPUA;98213;Indonesia;085117346218;;;-18.726.287;1.362.402.695;https://maps.google.com/?cid=0x0:0x7ca15fd1eb458c21;
supermarket;Pusat Perbelanjaan;Papua Supermarket  Dept. Store;"4869+F77 Bar, Sawagumu, Kec. Sorong Utara, Kota Sorong, Papua Bar. 98416";"Sawagumu, Kec. Sorong Utara, Kota Sorong";PAPUA;98416;Indonesia;09513160123;;;-0.888831;1.313.181.847;https://maps.google.com/?cid=0x0:0x7b5f0926a74ad213;
supermarket;supermarket;Kec. Kamu Tim.;"Kabupaten Dogiyai, Papua";"Kabupaten Dogiyai, Papua";PAPUA;;Indonesia;;;;-4.011.886;1.361.550.492;https://maps.google.com/?cid=0x0:0xff38d94f16554efc;
supermarket;Toko Swalayan;Toko Mujur;"36RC+8JF, Mur, Kec. Mambioman Bapai, Kabupaten Mappi, Papua 99872";"Mur, Kec. Mambioman Bapai, Kabupaten Mappi";PAPUA;99872;Indonesia;081311663253;;;-69.091.883;1.392.215.408;https://maps.google.com/?cid=0x0:0x3ac32eba1af23e22;
supermarket;Toko bahan makanan;Papua Mart;"7XVG+F83, Pruleme, Distrik Mulia, Kabupaten Puncak Jaya, Papua";"Kabupaten Puncak Jaya, Papua";PAPUA;;Indonesia;;;;-37.063.653;1.379.757.822;https://maps.google.com/?cid=0x0:0xf49ab6ab8e5d1b97;
supermarket;supermarket;Smart Minimarket;"JP66+WCF, Banamepe, Edera, Kabupaten Mappi, Papua";"Kabupaten Mappi, Papua";PAPUA;;Indonesia;;;;-73.876.836;1.397.110.495;https://maps.google.com/?cid=0x0:0x7b9d0e61f96daf74;
supermarket;Toserba;Toko Jawa Timur 1 SP1;"283W+C66, Unnamed Rd, Klamasen, Distrik Mariat, Kabupaten Sorong, Papua Bar. 98416";"Unnamed Rd, Klamasen, Distrik Mariat, Kabupaten Sorong";PAPUA;98416;Indonesia;;;;-0.9964672;1.313.455.178;https://maps.google.com/?cid=0x0:0x884de5de048a91f9;
supermarket;Kios;Kios Doopitaka;"36MQ+M9, Obano, Distrik Paniai Barat, Kabupaten Paniai, Papua";"Kabupaten Paniai, Papua";PAPUA;;Indonesia;;;;-3.915.813;136.238.393;https://maps.google.com/?cid=0x0:0x4e8cfcc6a0800807;
supermarket;Toko bahan makanan;Kios obano;"36HV+R3J, Obano, Distrik Paniai Barat, Kabupaten Paniai, Papua 98726";"Obano, Distrik Paniai Barat, Kabupaten Paniai";PAPUA;98726;Indonesia;082199378919;;;-39.204.215;1.362.426.511;https://maps.google.com/?cid=0x0:0xa437a750f9d82f89;
supermarket;supermarket;Distrik Mapia Tengah;"Kabupaten Dogiyai, Papua";"Kabupaten Dogiyai, Papua";PAPUA;;Indonesia;;;;-41.114.953;1.358.199.147;https://maps.google.com/?cid=0x0:0x9fa0506cdd07ca9b;
supermarket;supermarket;Kios bomomani;"2WMM+PWM, Bomomani, Distrik Mapia, Kabupaten Dogiyai, Papua 98854";"Bomomani, Distrik Mapia, Kabupaten Dogiyai";PAPUA;98854;Indonesia;;;;-39.654.136;135.935.068;https://maps.google.com/?cid=0x0:0x6733d98de1b3bead;
supermarket;Pusat Perbelanjaan;Papua Supermarket  Dept. Store;"4869+F77 Bar, Sawagumu, Kec. Sorong Utara, Kota Sorong, Papua Bar. 98416";"Sawagumu, Kec. Sorong Utara, Kota Sorong";PAPUA;98416;Indonesia;09513160123;;;-0.888831;1.313.181.847;https://maps.google.com/?cid=0x0:0x7b5f0926a74ad213;
supermarket;supermarket;Kantor Distrik Mapia Tengah;"VRX5+XHX, Jln. AUKI TEKEGE, Distrik, Modio, Distrik Mapia Tengah, Kabupaten Dogiyai, Papua 98857";"Jln. AUKI TEKEGE, Distrik, Modio, Distrik Mapia Tengah, Kabupaten Dogiyai";PAPUA;98857;Indonesia;;;;-4.100.001;1.358.089.935;https://maps.google.com/?cid=0x0:0x1fda710655bd0426;
supermarket;Toko Kelontong Korea;Swalayan New Seoul;"Jl. Wijaya I No.53 9, RT.8/RW.5, Petogogan, Kec. Kby. Baru, Kota Jakarta Selatan, Daerah Khusus Ibukota Jakarta 12170";"RT.8/RW.5, Petogogan, Kec. Kby. Baru, Kota Jakarta Selatan";PAPUA;12170;Indonesia;02122777981;;;-62.447.481;1.068.101.255;https://maps.google.com/?cid=0x0:0xb773a7ed3d7a043;
supermarket;Toko Kelontong Korea;Mu Gung Hwa Supermarket - Senopati;"Jl. Senayan No.43, RT.8/RW.5, Rw. Bar., Kec. Kby. Baru, Kota Jakarta Selatan, Daerah Khusus Ibukota Jakarta 12180";"RT.8/RW.5, Rw. Bar., Kec. Kby. Baru, Kota Jakarta Selatan";PAPUA;12180;Indonesia;0217222214;;;-62.353.938;1.068.158.782;https://maps.google.com/?cid=0x0:0x9ffba79e59c537d5;
supermarket;supermarket;Papua 98862;"Kabupaten Dogiyai, Papua";"Kabupaten Dogiyai, Papua";PAPUA;;Indonesia;;;;-39.828.074;1.360.944.845;https://maps.google.com/?cid=0x0:0xeac06bf36c87f14a;
supermarket;Toko bahan makanan;Lapak sembako;"Moanemani/ Ikebo, Kec. Kamu, Kabupaten Dogiyai, Papua 98862";"Kec. Kamu, Kabupaten Dogiyai";PAPUA;98862;Indonesia;081240234589;;;-40.101.141;1.360.366.697;https://maps.google.com/?cid=0x0:0x752918d736505e91;
supermarket;Toko Swalayan;GrandLucky - SCBD;"Kawasan Niaga Terpadu Sudirman (SCBD, Jl. Jenderal Sudirman LOT-12, Senayan, Kec. Kby. Baru, Kota Jakarta Selatan, Daerah Khusus Ibukota Jakarta 12190";"Jl. Jenderal Sudirman LOT-12, Senayan, Kec. Kby. Baru, Kota Jakarta Selatan";PAPUA;12190;Indonesia;085183118632;;;-622.691;1.068.059.153;https://maps.google.com/?cid=0x0:0x4efcd0d8d64cad53;
supermarket;Toko bahan makanan;Kios Jumpandang baru;"X73G+5XX, Jl. Waghete Raya, Wagete I, Kec. Tigi, Kabupaten Deiyai, Papua 98764";"Jl. Waghete Raya, Wagete I, Kec. Tigi, Kabupaten Deiyai";PAPUA;98764;Indonesia;;;;-40.470.104;1.362.774.824;https://maps.google.com/?cid=0x0:0x9883e6dcaf75ef44;
supermarket;supermarket;SA Kios Putra;"222Q+3J9, Moanemani/ Ikebo, Kec. Kamu, Kabupaten Dogiyai, Papua 98862";"Moanemani/ Ikebo, Kec. Kamu, Kabupaten Dogiyai";PAPUA;98862;Indonesia;;;;-39.998.454;1.360.390.954;https://maps.google.com/?cid=0x0:0xd00739287dcb3ebe;
supermarket;Toko Kelontong Korea;Mu Gung Hwa Supermarket - Senopati;"Jl. Senayan No.43, RT.8/RW.5, Rw. Bar., Kec. Kby. Baru, Kota Jakarta Selatan, Daerah Khusus Ibukota Jakarta 12180";"RT.8/RW.5, Rw. Bar., Kec. Kby. Baru, Kota Jakarta Selatan";PAPUA;12180;Indonesia;0217222214;;;-62.353.938;1.068.158.782;https://maps.google.com/?cid=0x0:0x9ffba79e59c537d5;
supermarket;Toko bahan makanan;Sagar indian supermarket;"Jl. Danau Sunter Utara Block R no 67, RT.1/RW.19, Sunter Agung, Tanjung Priok, North Jakarta City, Jakarta 14350";"RT.1/RW.19, Sunter Agung, Tanjung Priok, North Jakarta City";PAPUA;14350;Indonesia;08164844875;;;-61.380.243;1.068.668.598;https://maps.google.com/?cid=0x0:0x93bf3a16f16ce723;
supermarket;Toko Makanan Sehat;Primo Supermarket Citos;"Town Square, Jl. TB Simatupang No.KAV.17 Lantai Dasar, West Cilandak, Cilandak, South Jakarta City, Jakarta 12430";"Jl. TB Simatupang No.KAV.17 Lantai Dasar, West Cilandak, Cilandak, South Jakarta City";PAPUA;12430;Indonesia;02175920390;;;-62.914.315;1.067.992.178;https://maps.google.com/?cid=0x0:0x110a936a8d153b27;
supermarket;supermarket;Kabupaten Dogiyai;Papua;"Kabupaten Dogiyai, Papua";PAPUA;;Indonesia;;;;-40.454.139;1.356.763.443;https://maps.google.com/?cid=0x0:0xd3c51544b4d7ea0e;
