Category,Real Category,Business Name,Address,City,State,Postal Code,Country,Phone,Latitude,Longitude,Map Link
cafe,cafe,Papua 99221,"Kota Jayapura, Papua","Kota Jayapura, Papua",PAPUA,,Indonesia,,-2.5407181,140.6638119,https://maps.google.com/?cid=0x0:0x22734bd942608dca
cafe,Ramen,Kusuka Cafe  Resto,"Seberang Astra Honda, masuk lorong sebelah jayamart, Jl. Klp. 2 No.18, Entrop, Jayapura Selatan, Jayapura City, Papua 99221","masuk lorong sebelah jayamart, Jl. Klp. 2 No.18, Entrop, Jayapura Selatan, Jayapura City",PAPUA,99221.0,Indonesia,,-2.5689574,140.7025065,https://maps.google.com/?cid=0x0:0xc48e7a8e5d46dab5
cafe,Kedai Kopi,Cafe Hollandia Weref,"Jl Weref, Jl. Argapura Jl. Argapura Canon, Pohon Mangga Weref, Kota Jayapura, Papua 99222","Jl. Argapura Jl. Argapura Canon, Pohon Mangga Weref, Kota Jayapura",PAPUA,99222.0,Indonesia,81247713921.0,-2.5488345,140.7142902,https://maps.google.com/?cid=0x0:0x87f9b22942a90ec8
cafe,Kedai Kopi,OUTLAW Coffee and Burger Dogbar,"Jl. Raya Abepura No.3, Entrop, Distrik Jayapura Selatan, Kota Jayapura, Papua 99224","Entrop, Distrik Jayapura Selatan, Kota Jayapura",PAPUA,99224.0,Indonesia,,-2.5759879,140.6861933,https://maps.google.com/?cid=0x0:0x1a3857dd9b8b8965
cafe,Restoran,SOCIAL HUB JAYAPURA,"Jl. Klp. 2, Entrop, Distrik Jayapura Selatan, Kota Jayapura, Papua 99224","Entrop, Distrik Jayapura Selatan, Kota Jayapura",PAPUA,99224.0,Indonesia,82349831188.0,-2.5678047,140.7017466,https://maps.google.com/?cid=0x0:0x3fd4dc6a056eeb45
cafe,Kedai Kopi,ME Coffee,"Seberang Saga, Jl. Cenderawasih Pos No. 86 Ardipura, Entrop, Distrik Jayapura Selatan, Kota Jayapura, Papua 99221","Jl. Cenderawasih Pos No. 86 Ardipura, Entrop, Distrik Jayapura Selatan, Kota Jayapura",PAPUA,99221.0,Indonesia,8114828411.0,-2.5665645,140.7020391,https://maps.google.com/?cid=0x0:0xcedc6b8445b20d5a
cafe,Kafe,Cafe Socio Culture (Coffee and Eatery),"Jl. Raya Abepura Setani, Baru City, Abepura, Jayapura City, Papua 99351","Baru City, Abepura, Jayapura City",PAPUA,99351.0,Indonesia,81299939889.0,-2.610394,140.661513,https://maps.google.com/?cid=0x0:0xd714b57117860fbe
cafe,Kafe,CARSTENSZ CAFE,"CPJ2+VGW, Jl. Klp. 2, Entrop, Distrik Jayapura Selatan, Kota Jayapura, Papua 99221","Jl. Klp. 2, Entrop, Distrik Jayapura Selatan, Kota Jayapura",PAPUA,99221.0,Indonesia,85344065950.0,-2.5677593,140.701317,https://maps.google.com/?cid=0x0:0xbd3f5aacd7360153
cafe,Kedai Kopi,Teman Nongkrong Jayapura,"Hamadi, Distrik Jayapura Selatan, Kota Jayapura, Papua","Kota Jayapura, Papua",PAPUA,,Indonesia,81336667883.0,-2.5694524,140.7060403,https://maps.google.com/?cid=0x0:0x40bf8d3b2c554097
cafe,Toko bahan makanan,Ibiza Coffee Shop,"Holtekamp Bridge, Tobati, Distrik Jayapura Selatan, Kota Jayapura, Papua","Kota Jayapura, Papua",PAPUA,,Indonesia,,-2.5912293,140.7138469,https://maps.google.com/?cid=0x0:0xff0cb137c224cdf4
cafe,Kedai Kopi,At Here Cafe,"Jl. Klp. 2, Entrop, Distrik Jayapura Selatan, Kota Jayapura, Papua","Kota Jayapura, Papua",PAPUA,,Indonesia,81327868896.0,-2.5684255,140.7031204,https://maps.google.com/?cid=0x0:0x3deb442bf5f7cfcd
cafe,Kafe,MELANESIA CAFE,"CPR4+WVC, Ardipura, Distrik Jayapura Selatan, Kota Jayapura, Papua 99222","Ardipura, Distrik Jayapura Selatan, Kota Jayapura",PAPUA,99222.0,Indonesia,,-2.558129,140.7065495,https://maps.google.com/?cid=0x0:0xe2cf8fafd729ab8b
cafe,Kafe,KEDAI NYOKLAT KLASIK JAYAPURA SELATAN,"Jl. Klp. 2 No.18, Hamadi, Distrik Jayapura Selatan, Kota Jayapura, Papua 99221","Hamadi, Distrik Jayapura Selatan, Kota Jayapura",PAPUA,99221.0,Indonesia,81231900323.0,-2.5687822,140.7065837,https://maps.google.com/?cid=0x0:0xfa8e460ad502a7
cafe,Kedai Kopi,Kopi Djuang Jayapura,"Jl. Setiapura II, Gurabesi, Kec. Jayapura Utara, Kota Jayapura, Papua 99221","Gurabesi, Kec. Jayapura Utara, Kota Jayapura",PAPUA,99221.0,Indonesia,82199559321.0,-2.5449826,140.700933,https://maps.google.com/?cid=0x0:0x91e028251801a721
cafe,cafe,Papua 99222,"Distrik Jayapura Selatan, Kota Jayapura, Papua","Kota Jayapura, Papua",PAPUA,,Indonesia,,-2.5518785,140.7027292,https://maps.google.com/?cid=0x0:0xaed95d497fc99440
cafe,Rumah Makan,RestoCafe Rumah Laut,"Jl. Koti, Numbai, Distrik Jayapura Selatan, Kota Jayapura, Papua 99222","Numbai, Distrik Jayapura Selatan, Kota Jayapura",PAPUA,99222.0,Indonesia,9675160842.0,-2.5443152,140.7078561,https://maps.google.com/?cid=0x0:0xa0b850e17d17f09d
cafe,Kedai Kopi,Cafe Hollandia Weref,"Jl Weref, Jl. Argapura Jl. Argapura Canon, Pohon Mangga Weref, Kota Jayapura, Papua 99222","Jl. Argapura Jl. Argapura Canon, Pohon Mangga Weref, Kota Jayapura",PAPUA,99222.0,Indonesia,81247713921.0,-2.5488345,140.7142902,https://maps.google.com/?cid=0x0:0x87f9b22942a90ec8
cafe,Kafe,Cafe Horizon 2,"CMGX+MFF, Entrop, Distrik Jayapura Selatan, Kota Jayapura, Papua 99221","Entrop, Distrik Jayapura Selatan, Kota Jayapura",PAPUA,99221.0,Indonesia,81344853737.0,-2.5733175,140.698673,https://maps.google.com/?cid=0x0:0xd11fe55e5e23ed67
cafe,Restoran,SOCIAL HUB JAYAPURA,"Jl. Klp. 2, Entrop, Distrik Jayapura Selatan, Kota Jayapura, Papua 99224","Entrop, Distrik Jayapura Selatan, Kota Jayapura",PAPUA,99224.0,Indonesia,82349831188.0,-2.5678047,140.7017466,https://maps.google.com/?cid=0x0:0x3fd4dc6a056eeb45
cafe,Kedai Kopi,At Here Cafe,"Jl. Klp. 2, Entrop, Distrik Jayapura Selatan, Kota Jayapura, Papua","Kota Jayapura, Papua",PAPUA,,Indonesia,81327868896.0,-2.5684255,140.7031204,https://maps.google.com/?cid=0x0:0x3deb442bf5f7cfcd
cafe,Kedai Kopi,Coffee  You Jayapura,"Jl. Ahmad Yani No.24, Gurabesi, Kec. Jayapura Utara, Kota Jayapura, Papua 99222","Gurabesi, Kec. Jayapura Utara, Kota Jayapura",PAPUA,99222.0,Indonesia,,-2.5439531,140.6997079,https://maps.google.com/?cid=0x0:0xd6b191e0b9581aec
cafe,Kafe,Toko kopi renjana,"Jl. Raya Abepura, Entrop, Distrik Jayapura Selatan, Kota Jayapura, Papua 99221","Entrop, Distrik Jayapura Selatan, Kota Jayapura",PAPUA,99221.0,Indonesia,82235585741.0,-2.5618882,140.7036007,https://maps.google.com/?cid=0x0:0xc3bf5164e88881a9
cafe,Restoran,Dapur 88,"FP36+GP5, Numbai, Distrik Jayapura Selatan, Kota Jayapura, Papua","Kota Jayapura, Papua",PAPUA,,Indonesia,82199243930.0,-2.546229,140.7118602,https://maps.google.com/?cid=0x0:0x824200646cf429ce
cafe,Kedai Kopi,Pace Tan pu Kopitiam,"Jalan Pasifik Permai Blok B no 15, Kompleks Ruko Dok II, Jl. Pacific Permai No.16, Bayangkara, Kec. Jayapura Utara, Kota Jayapura, Papua 99111","Kompleks Ruko Dok II, Jl. Pacific Permai No.16, Bayangkara, Kec. Jayapura Utara, Kota Jayapura",PAPUA,99111.0,Indonesia,81376566794.0,-2.5373342,140.7092965,https://maps.google.com/?cid=0x0:0x1f1a43593e97ad0c
cafe,Kedai Kopi,JVLISCO JAYAPURA,"Jl. Dr. Soetomo, Gurabesi, Kec. Jayapura Utara, Kota Jayapura, Papua 99221","Gurabesi, Kec. Jayapura Utara, Kota Jayapura",PAPUA,99221.0,Indonesia,82334241892.0,-2.5449288,140.7010632,https://maps.google.com/?cid=0x0:0xb589eaa30a3fed63
cafe,Kedai Kopi,Dolpin Cafe,"Jl. Ahmad Yani No.14, Gurabesi, Kec. Jayapura Utara, Kota Jayapura, Papua 99222","Gurabesi, Kec. Jayapura Utara, Kota Jayapura",PAPUA,99222.0,Indonesia,,-2.542685,140.7027279,https://maps.google.com/?cid=0x0:0xb7356b423e43c3f8
cafe,Restoran,Pit's Corner ( Papua Specialty Coffee ),"Jalan kasuari no.2 Dok V Atas, Mandala, Jayapura Utara, Jayapura City, Papua 99114","Mandala, Jayapura Utara, Jayapura City",PAPUA,99114.0,Indonesia,9675160443.0,-2.5310642,140.71875,https://maps.google.com/?cid=0x0:0xf39f3950a3bf5ed2
cafe,Kedai Kopi,J'AMSS COFFEE,"Jl. Koti No.9, Numbai, Distrik Jayapura Selatan, Kota Jayapura, Papua 99000","Numbai, Distrik Jayapura Selatan, Kota Jayapura",PAPUA,99000.0,Indonesia,81248004330.0,-2.5467303,140.7131822,https://maps.google.com/?cid=0x0:0x70cb69caebb89807
cafe,cafe,Papua 99223,"Entrop, Distrik Jayapura Selatan, Kota Jayapura, Papua","Kota Jayapura, Papua",PAPUA,,Indonesia,,-2.5603966,140.6689995,https://maps.google.com/?cid=0x0:0xba9a08c8ddb16a58
cafe,Restoran,SOCIAL HUB JAYAPURA,"Jl. Klp. 2, Entrop, Distrik Jayapura Selatan, Kota Jayapura, Papua 99224","Entrop, Distrik Jayapura Selatan, Kota Jayapura",PAPUA,99224.0,Indonesia,82349831188.0,-2.5678047,140.7017466,https://maps.google.com/?cid=0x0:0x3fd4dc6a056eeb45
cafe,Kafe,Cafe Socio Culture (Coffee and Eatery),"Jl. Raya Abepura Setani, Baru City, Abepura, Jayapura City, Papua 99351","Baru City, Abepura, Jayapura City",PAPUA,99351.0,Indonesia,81299939889.0,-2.610394,140.661513,https://maps.google.com/?cid=0x0:0xd714b57117860fbe
cafe,Kedai Kopi,Cafe Hollandia Weref,"Jl Weref, Jl. Argapura Jl. Argapura Canon, Pohon Mangga Weref, Kota Jayapura, Papua 99222","Jl. Argapura Jl. Argapura Canon, Pohon Mangga Weref, Kota Jayapura",PAPUA,99222.0,Indonesia,81247713921.0,-2.5488345,140.7142902,https://maps.google.com/?cid=0x0:0x87f9b22942a90ec8
cafe,Kedai Kopi,At Here Cafe,"Jl. Klp. 2, Entrop, Distrik Jayapura Selatan, Kota Jayapura, Papua","Kota Jayapura, Papua",PAPUA,,Indonesia,81327868896.0,-2.5684255,140.7031204,https://maps.google.com/?cid=0x0:0x3deb442bf5f7cfcd
cafe,Kafe,Cafe Horizon 2,"CMGX+MFF, Entrop, Distrik Jayapura Selatan, Kota Jayapura, Papua 99221","Entrop, Distrik Jayapura Selatan, Kota Jayapura",PAPUA,99221.0,Indonesia,81344853737.0,-2.5733175,140.698673,https://maps.google.com/?cid=0x0:0xd11fe55e5e23ed67
cafe,Kafe,BaseCamp Cafe,"Jl. Klp. 2, Entrop, Distrik Jayapura Selatan, Kota Jayapura, Papua 99224","Entrop, Distrik Jayapura Selatan, Kota Jayapura",PAPUA,99224.0,Indonesia,81392989370.0,-2.5670273,140.6986313,https://maps.google.com/?cid=0x0:0x94d90c4b2a7bb631
cafe,Kafe,Cafe CLeo,"Jalan raya alternative walikota No.2, Entrop, Distrik Jayapura Selatan, Kota Jayapura, Papua 99223","Entrop, Distrik Jayapura Selatan, Kota Jayapura",PAPUA,99223.0,Indonesia,816200878.0,-2.5662079,140.6883641,https://maps.google.com/?cid=0x0:0xcb1ef7673263fb74
cafe,Kafe,CARSTENSZ CAFE,"CPJ2+VGW, Jl. Klp. 2, Entrop, Distrik Jayapura Selatan, Kota Jayapura, Papua 99221","Jl. Klp. 2, Entrop, Distrik Jayapura Selatan, Kota Jayapura",PAPUA,99221.0,Indonesia,85344065950.0,-2.5677593,140.701317,https://maps.google.com/?cid=0x0:0xbd3f5aacd7360153
cafe,Toko Rokok Elektrik,APE VAPE AND COFFEE,"Jl. Raya Ardipura II No.78, Ardipura, Distrik Jayapura Selatan, Kota Jayapura, Papua 99223","Ardipura, Distrik Jayapura Selatan, Kota Jayapura",PAPUA,99223.0,Indonesia,85281909495.0,-2.5556382,140.7045587,https://maps.google.com/?cid=0x0:0xd6bc11a271391722
cafe,Kedai Kopi,ME Coffee,"Seberang Saga, Jl. Cenderawasih Pos No. 86 Ardipura, Entrop, Distrik Jayapura Selatan, Kota Jayapura, Papua 99221","Jl. Cenderawasih Pos No. 86 Ardipura, Entrop, Distrik Jayapura Selatan, Kota Jayapura",PAPUA,99221.0,Indonesia,8114828411.0,-2.5665645,140.7020391,https://maps.google.com/?cid=0x0:0xcedc6b8445b20d5a
cafe,Toko bahan makanan,Ibiza Coffee Shop,"Holtekamp Bridge, Tobati, Distrik Jayapura Selatan, Kota Jayapura, Papua","Kota Jayapura, Papua",PAPUA,,Indonesia,,-2.5912293,140.7138469,https://maps.google.com/?cid=0x0:0xff0cb137c224cdf4
cafe,Kafe,cafe rizky kotamubagu,"Taman Trisila, Hamadi, Distrik Jayapura Selatan, Kota Jayapura, Papua","Kota Jayapura, Papua",PAPUA,,Indonesia,82193043646.0,-2.5683885,140.707436,https://maps.google.com/?cid=0x0:0x4f379a24f42cc7a4
cafe,Restoran,Pit's Corner ( Papua Specialty Coffee ),"Jalan kasuari no.2 Dok V Atas, Mandala, Jayapura Utara, Jayapura City, Papua 99114","Mandala, Jayapura Utara, Jayapura City",PAPUA,99114.0,Indonesia,9675160443.0,-2.5310642,140.71875,https://maps.google.com/?cid=0x0:0xf39f3950a3bf5ed2
cafe,Restoran,SOCIAL HUB JAYAPURA,"Jl. Klp. 2, Entrop, Distrik Jayapura Selatan, Kota Jayapura, Papua 99224","Entrop, Distrik Jayapura Selatan, Kota Jayapura",PAPUA,99224.0,Indonesia,82349831188.0,-2.5678047,140.7017466,https://maps.google.com/?cid=0x0:0x3fd4dc6a056eeb45
cafe,Kafe,Kopu Kopi CafÃ© (Coffee  Eatery),"Jl. Raya Abepura, Wahno, Kec. Abepura, Kota Jayapura, Papua 99224","Wahno, Kec. Abepura, Kota Jayapura",PAPUA,99224.0,Indonesia,81263800182.0,-2.5972248,140.6796506,https://maps.google.com/?cid=0x0:0x55eedda55f616417
cafe,cafe,Papua 99224,"Kota Jayapura, Papua","Kota Jayapura, Papua",PAPUA,,Indonesia,,-2.579706,140.6638119,https://maps.google.com/?cid=0x0:0x9db3c17a7f47219
cafe,Kafe,Rumah Kopi Jayapura,"CM3H+2P9, Jl. Raya Abepura Jl. Perkutut, Wahno, Kec. Abepura, Kota Jayapura, Papua 99224","Jl. Raya Abepura Jl. Perkutut, Wahno, Kec. Abepura, Kota Jayapura",PAPUA,99224.0,Indonesia,,-2.5974693,140.6793664,https://maps.google.com/?cid=0x0:0x9ed444aebde28b44
cafe,Kafe,Cafe Socio Culture (Coffee and Eatery),"Jl. Raya Abepura Setani, Baru City, Abepura, Jayapura City, Papua 99351","Baru City, Abepura, Jayapura City",PAPUA,99351.0,Indonesia,81299939889.0,-2.610394,140.661513,https://maps.google.com/?cid=0x0:0xd714b57117860fbe
cafe,Kafe,Tana Papua Coffee and Roastery,"Jl. Raya Abepura, Vim, Kec. Abepura, Kota Jayapura, Papua 99220","Vim, Kec. Abepura, Kota Jayapura",PAPUA,99220.0,Indonesia,82175416609.0,-2.6047712,140.6727079,https://maps.google.com/?cid=0x0:0x747c727d4b94ebf6
cafe,Kedai Kopi,Lokop Cafe,"CJ8W+CJV, Yabansai, Kec. Heram, Kota Jayapura, Papua 99224","Yabansai, Kec. Heram, Kota Jayapura",PAPUA,99224.0,Indonesia,82340178124.0,-2.5838881,140.6465539,https://maps.google.com/?cid=0x0:0xff3ce639e7a76185
cafe,Kedai Kopi,At Here Cafe,"Jl. Klp. 2, Entrop, Distrik Jayapura Selatan, Kota Jayapura, Papua","Kota Jayapura, Papua",PAPUA,,Indonesia,81327868896.0,-2.5684255,140.7031204,https://maps.google.com/?cid=0x0:0x3deb442bf5f7cfcd
cafe,Kafe,Saung Papua,"Jl. Raya Abepura, Wahno, Kec. Abepura, Kota Jayapura, Papua 99224","Wahno, Kec. Abepura, Kota Jayapura",PAPUA,99224.0,Indonesia,81248382789.0,-2.5959284,140.6810215,https://maps.google.com/?cid=0x0:0x75a98a06f6915771
cafe,Kedai Kopi,Cafe Hollandia Weref,"Jl Weref, Jl. Argapura Jl. Argapura Canon, Pohon Mangga Weref, Kota Jayapura, Papua 99222","Jl. Argapura Jl. Argapura Canon, Pohon Mangga Weref, Kota Jayapura",PAPUA,99222.0,Indonesia,81247713921.0,-2.5488345,140.7142902,https://maps.google.com/?cid=0x0:0x87f9b22942a90ec8
cafe,Toko bahan makanan,Ibiza Coffee Shop,"Holtekamp Bridge, Tobati, Distrik Jayapura Selatan, Kota Jayapura, Papua","Kota Jayapura, Papua",PAPUA,,Indonesia,,-2.5912293,140.7138469,https://maps.google.com/?cid=0x0:0xff0cb137c224cdf4
cafe,Restoran,Yasbeer Cafe dan resto,"Engros, Kec. Abepura, Kota Jayapura, Papua","Kota Jayapura, Papua",PAPUA,,Indonesia,81248941111.0,-2.6005334,140.7153915,https://maps.google.com/?cid=0x0:0x34cbd734e60fa36b
cafe,Kafe,BaseCamp Cafe,"Jl. Klp. 2, Entrop, Distrik Jayapura Selatan, Kota Jayapura, Papua 99224","Entrop, Distrik Jayapura Selatan, Kota Jayapura",PAPUA,99224.0,Indonesia,81392989370.0,-2.5670273,140.6986313,https://maps.google.com/?cid=0x0:0x94d90c4b2a7bb631
cafe,Kedai Kopi,Cafe Chateliya,"CM59+9JM Sky land, Vim, Kec. Abepura, Kota Jayapura, Papua 99224","Vim, Kec. Abepura, Kota Jayapura",PAPUA,99224.0,Indonesia,82239273381.0,-2.5915361,140.6690326,https://maps.google.com/?cid=0x0:0x2a7ad7a182327c33
cafe,Kafe,Cafe Socio Culture (Coffee and Eatery),"Jl. Raya Abepura Setani, Baru City, Abepura, Jayapura City, Papua 99351","Baru City, Abepura, Jayapura City",PAPUA,99351.0,Indonesia,81299939889.0,-2.610394,140.661513,https://maps.google.com/?cid=0x0:0xd714b57117860fbe
cafe,cafe,Papua 99225,"Kota Jayapura, Papua","Kota Jayapura, Papua",PAPUA,,Indonesia,,-2.5949282,140.653438,https://maps.google.com/?cid=0x0:0x21414c78014e775a
cafe,Kafe,SundShine Cafe  Library,"Yabansai, Kec. Heram, Kota Jayapura, Papua 99225","Kec. Heram, Kota Jayapura",PAPUA,99225.0,Indonesia,8114814415.0,-2.5931544,140.6408539,https://maps.google.com/?cid=0x0:0x3cef08c39a5b2d2b
cafe,Kafe,BUSOGI,"9MVC+H95, Wai Mhorock, Kec. Abepura, Kota Jayapura, Papua 99225","Wai Mhorock, Kec. Abepura, Kota Jayapura",PAPUA,99225.0,Indonesia,,-2.6060681,140.6709568,https://maps.google.com/?cid=0x0:0x2564902de643da51
cafe,Restoran,Raftel Cafe Jayapura,"9MPC+84Q, Jl. Gerilyawan, Yobe, Kec. Abepura, Kota Jayapura, Papua 99351","Jl. Gerilyawan, Yobe, Kec. Abepura, Kota Jayapura",PAPUA,99351.0,Indonesia,,-2.6141741,140.6703722,https://maps.google.com/?cid=0x0:0x22b32b53b260031b
cafe,Kafe,Saanjh Cafe,"CJ2G+C7W, Jl. Gelanggang Remaja, Waena, Kec. Heram, Kota Jayapura, Papua 99351","Jl. Gelanggang Remaja, Waena, Kec. Heram, Kota Jayapura",PAPUA,99351.0,Indonesia,,-2.5988941,140.6256974,https://maps.google.com/?cid=0x0:0xf472b389c2309050
cafe,Grosir Kopi,Papua Coffee,"Perum Taman Buper Bhayangkara B 3/1, Kp. Waena, Kec. Heram, Kota Jayapura, Papua 99358","Kp. Waena, Kec. Heram, Kota Jayapura",PAPUA,99358.0,Indonesia,82219192019.0,-2.5932318,140.6339916,https://maps.google.com/?cid=0x0:0x6525ad08e3ef5a95
cafe,Rumah Makan,Rumah Makan Sendok Garpu Jayapura,"Jl. Raya Abepura-Kotaraja Kota Baru, Wai Mhorock, Kec. Abepura, Kota Jayapura, Papua 99225","Wai Mhorock, Kec. Abepura, Kota Jayapura",PAPUA,99225.0,Indonesia,82310000123.0,-2.6057136,140.6694308,https://maps.google.com/?cid=0x0:0x9b347169a4f00047
cafe,Kafe,Distrik 24,"CJ4R+X9F, Yabansai, Kec. Heram, Kota Jayapura, Papua 99225","Yabansai, Kec. Heram, Kota Jayapura",PAPUA,99225.0,Indonesia,,-2.5926127,140.6409436,https://maps.google.com/?cid=0x0:0x668273c36d8732ed
cafe,Restoran,58 Hauzz Kitchen  Lounge,"Kota, Jl. Raya Abepura - Sentani, Kabupaten Jayapura, Papua","Kabupaten Jayapura, Papua",PAPUA,,Indonesia,8114858558.0,-2.6087433,140.6671875,https://maps.google.com/?cid=0x0:0xf9f022f92c8ea463
cafe,Kedai Kopi,Cafe Chateliya,"CM59+9JM Sky land, Vim, Kec. Abepura, Kota Jayapura, Papua 99224","Vim, Kec. Abepura, Kota Jayapura",PAPUA,99224.0,Indonesia,82239273381.0,-2.5915361,140.6690326,https://maps.google.com/?cid=0x0:0x2a7ad7a182327c33
cafe,Kedai Kopi,Kedai Bersama,"9MQ8+VP9, Jl. Baru Ps. Lama Abepura, Wai Mhorock, Kec. Abepura, Kota Jayapura, Papua 99225","Jl. Baru Ps. Lama Abepura, Wai Mhorock, Kec. Abepura, Kota Jayapura",PAPUA,99225.0,Indonesia,85228433447.0,-2.6103353,140.6668468,https://maps.google.com/?cid=0x0:0xc9fe85345230dedf
cafe,Toko bahan makanan,Ibiza Coffee Shop,"Holtekamp Bridge, Tobati, Distrik Jayapura Selatan, Kota Jayapura, Papua","Kota Jayapura, Papua",PAPUA,,Indonesia,,-2.5912293,140.7138469,https://maps.google.com/?cid=0x0:0xff0cb137c224cdf4
cafe,Kedai Kopi,STARBUCKS ABEPURA,"Jl. Garuda No.99, Wai Mhorock, Kec. Abepura, Kota Jayapura, Papua 99225","Wai Mhorock, Kec. Abepura, Kota Jayapura",PAPUA,99225.0,Indonesia,,-2.6078796,140.6742175,https://maps.google.com/?cid=0x0:0x59e67cceaaa6abde
cafe,cafe,Papua 99226,"Wahno, Kec. Abepura, Kota Jayapura, Papua","Kota Jayapura, Papua",PAPUA,,Indonesia,,-2.5940542,140.6740309,https://maps.google.com/?cid=0x0:0xfee9da6af66c7cd1
cafe,Restoran,SOCIAL HUB JAYAPURA,"Jl. Klp. 2, Entrop, Distrik Jayapura Selatan, Kota Jayapura, Papua 99224","Entrop, Distrik Jayapura Selatan, Kota Jayapura",PAPUA,99224.0,Indonesia,82349831188.0,-2.5678047,140.7017466,https://maps.google.com/?cid=0x0:0x3fd4dc6a056eeb45
cafe,Kafe,Cafe Socio Culture (Coffee and Eatery),"Jl. Raya Abepura Setani, Baru City, Abepura, Jayapura City, Papua 99351","Baru City, Abepura, Jayapura City",PAPUA,99351.0,Indonesia,81299939889.0,-2.610394,140.661513,https://maps.google.com/?cid=0x0:0xd714b57117860fbe
cafe,Toko bahan makanan,Ibiza Coffee Shop,"Holtekamp Bridge, Tobati, Distrik Jayapura Selatan, Kota Jayapura, Papua","Kota Jayapura, Papua",PAPUA,,Indonesia,,-2.5912293,140.7138469,https://maps.google.com/?cid=0x0:0xff0cb137c224cdf4
cafe,Kafe,Cafe Horizon 2,"CMGX+MFF, Entrop, Distrik Jayapura Selatan, Kota Jayapura, Papua 99221","Entrop, Distrik Jayapura Selatan, Kota Jayapura",PAPUA,99221.0,Indonesia,81344853737.0,-2.5733175,140.698673,https://maps.google.com/?cid=0x0:0xd11fe55e5e23ed67
cafe,Kedai Kopi,Teman Nongkrong Jayapura,"Hamadi, Distrik Jayapura Selatan, Kota Jayapura, Papua","Kota Jayapura, Papua",PAPUA,,Indonesia,81336667883.0,-2.5694524,140.7060403,https://maps.google.com/?cid=0x0:0x40bf8d3b2c554097
cafe,Pempek,Warung MPEK-MPEK Bang Her,"Jl. Jeruk Nipis Jalur 3 No.116, Wahno, Kec. Abepura, Kota Jayapura, Papua 99224","Wahno, Kec. Abepura, Kota Jayapura",PAPUA,99224.0,Indonesia,81344066211.0,-2.5939559,140.6741649,https://maps.google.com/?cid=0x0:0xa368d6e5d891c7d0
cafe,Restoran,Yasbeer Cafe dan resto,"Engros, Kec. Abepura, Kota Jayapura, Papua","Kota Jayapura, Papua",PAPUA,,Indonesia,81248941111.0,-2.6005334,140.7153915,https://maps.google.com/?cid=0x0:0x34cbd734e60fa36b
cafe,Kedai Kopi,Cafe Hollandia Weref,"Jl Weref, Jl. Argapura Jl. Argapura Canon, Pohon Mangga Weref, Kota Jayapura, Papua 99222","Jl. Argapura Jl. Argapura Canon, Pohon Mangga Weref, Kota Jayapura",PAPUA,99222.0,Indonesia,81247713921.0,-2.5488345,140.7142902,https://maps.google.com/?cid=0x0:0x87f9b22942a90ec8
cafe,Kafe,Saanjh Cafe,"CJ2G+C7W, Jl. Gelanggang Remaja, Waena, Kec. Heram, Kota Jayapura, Papua 99351","Jl. Gelanggang Remaja, Waena, Kec. Heram, Kota Jayapura",PAPUA,99351.0,Indonesia,,-2.5988941,140.6256974,https://maps.google.com/?cid=0x0:0xf472b389c2309050
cafe,Restoran,58 Hauzz Kitchen  Lounge,"Kota, Jl. Raya Abepura - Sentani, Kabupaten Jayapura, Papua","Kabupaten Jayapura, Papua",PAPUA,,Indonesia,8114858558.0,-2.6087433,140.6671875,https://maps.google.com/?cid=0x0:0xf9f022f92c8ea463
cafe,Kedai Kopi,D'lord Cafe,"CM32+2W7, Hedam, Kec. Heram, Kota Jayapura, Papua 99225","Hedam, Kec. Heram, Kota Jayapura",PAPUA,99225.0,Indonesia,,-2.5974659,140.6523119,https://maps.google.com/?cid=0x0:0xf23ed4fd9fa52c82
cafe,Grosir Kopi,Papua Coffee,"Perum Taman Buper Bhayangkara B 3/1, Kp. Waena, Kec. Heram, Kota Jayapura, Papua 99358","Kp. Waena, Kec. Heram, Kota Jayapura",PAPUA,99358.0,Indonesia,82219192019.0,-2.5932318,140.6339916,https://maps.google.com/?cid=0x0:0x6525ad08e3ef5a95
cafe,Kafe,cafe bakau holtekam kota jayapura,"9PRF+58, Nafri, Kec. Abepura, Kota Jayapura, Papua","Kota Jayapura, Papua",PAPUA,,Indonesia,8124022007.0,-2.6095335,140.7232587,https://maps.google.com/?cid=0x0:0x440c4543fd3a011e
cafe,Kedai Kopi,PILOS CAFE,"FP66+J79, Bayangkara, Kec. Jayapura Utara, Kota Jayapura, Papua","Kota Jayapura, Papua",PAPUA,,Indonesia,85237190567.0,-2.538451,140.7107331,https://maps.google.com/?cid=0x0:0x4c87e94ff2a84c0d
cafe,Kafe,BaseCamp Cafe,"Jl. Klp. 2, Entrop, Distrik Jayapura Selatan, Kota Jayapura, Papua 99224","Entrop, Distrik Jayapura Selatan, Kota Jayapura",PAPUA,99224.0,Indonesia,81392989370.0,-2.5670273,140.6986313,https://maps.google.com/?cid=0x0:0x94d90c4b2a7bb631
cafe,Restoran,Pit's Corner ( Papua Specialty Coffee ),"Jalan kasuari no.2 Dok V Atas, Mandala, Jayapura Utara, Jayapura City, Papua 99114","Mandala, Jayapura Utara, Jayapura City",PAPUA,99114.0,Indonesia,9675160443.0,-2.5310642,140.71875,https://maps.google.com/?cid=0x0:0xf39f3950a3bf5ed2
cafe,cafe,,,,PAPUA,,Indonesia,,,,https://maps.google.com/?cid=0x0:0xf39f3950a3bf5ed2u0026onu003dKopi+Wamenau0026midu003d/g/11bxf62kgj
cafe,cafe,,,,PAPUA,,Indonesia,,,,https://maps.google.com/?cid=0x0:0xf39f3950a3bf5ed2u0026onu003dPapua+Coffeeu0026midu003d/g/11bxf62kgj
cafe,cafe,,,,PAPUA,,Indonesia,,,,https://maps.google.com/?cid=0x0:0xf39f3950a3bf5ed2u0026onu003dEvening+Coffeeu0026midu003d/g/11bxf62kgj
cafe,cafe,,,,PAPUA,,Indonesia,,,,https://maps.google.com/?cid=0x0:0xf39f3950a3bf5ed2u0026onu003dMie+Goreng+Jawau0026midu003d/g/11bxf62kgj
cafe,cafe,,,,PAPUA,,Indonesia,,,,https://maps.google.com/?cid=0x0:0xf39f3950a3bf5ed2u0026onu003dBiji+Kopiu0026midu003d/g/11bxf62kgj
cafe,cafe,,,,PAPUA,,Indonesia,,,,https://maps.google.com/?cid=0x0:0xf39f3950a3bf5ed2u0026onu003dKopi+Tubruk+Wamenau0026midu003d/g/11bxf62kgj
cafe,cafe,,,,PAPUA,,Indonesia,,,,https://maps.google.com/?cid=0x0:0xf39f3950a3bf5ed2u0026onu003dEs+Kopi+Sunkistu0026midu003d/g/11bxf62kgj
cafe,cafe,,,,PAPUA,,Indonesia,,,,https://maps.google.com/?cid=0x0:0xf39f3950a3bf5ed2u0026onu003dSate+Maranggiu0026midu003d/g/11bxf62kgj
cafe,cafe,,,,PAPUA,,Indonesia,,,,https://maps.google.com/?cid=0x0:0xf39f3950a3bf5ed2u0026onu003dKopi+Papua+Arabicau0026midu003d/g/11bxf62kgj
cafe,cafe,,,,PAPUA,,Indonesia,,,,https://maps.google.com/?cid=0x0:0xf39f3950a3bf5ed2u0026onu003dAyam+Goreng+Pitc'h+Corner+Dan+Roti+Bakaru0026midu003d/g/11bxf62kgj
cafe,cafe,,,,PAPUA,,Indonesia,,,,https://maps.google.com/?cid=0x0:0xf39f3950a3bf5ed2u0026onu003dAyam+Goreng+Pitc'h+Corner+Dan+Pisang+Gorengu0026midu003d/g/11bxf62kgj
cafe,Restoran,Pit's Corner ( Papua Specialty Coffee ),"Jalan kasuari no.2 Dok V Atas, Mandala, Jayapura Utara, Jayapura City, Papua 99114","Mandala, Jayapura Utara, Jayapura City",PAPUA,99114.0,Indonesia,9675160443.0,-2.5310642,140.71875,https://maps.google.com/?cid=0x0:0xf39f3950a3bf5ed2
cafe,cafe,Papua 99112,"Bayangkara, Kec. Jayapura Utara, Kota Jayapura, Papua","Kota Jayapura, Papua",PAPUA,,Indonesia,,-2.5099296,140.6741875,https://maps.google.com/?cid=0x0:0x1e30ed7c2a61f1f1
cafe,Kafe,Cafe View Pasifik Garden (Cafe Payung),"Jl. Pasifik Indah Pasir 2 Atas No.2, Tj. Ria, Kec. Jayapura Utara, Kota Jayapura, Papua 99117","Tj. Ria, Kec. Jayapura Utara, Kota Jayapura",PAPUA,99117.0,Indonesia,8124040590.0,-2.5071765,140.7162744,https://maps.google.com/?cid=0x0:0x618102439f5f359f
cafe,Kedai Kopi,KOPI.RUANGTU7U,"Jl. Dr. Sam Ratulangi, Trikora, Kec. Jayapura Utara, Kota Jayapura, Papua 99114","Trikora, Kec. Jayapura Utara, Kota Jayapura",PAPUA,99114.0,Indonesia,82248787419.0,-2.5305805,140.7183853,https://maps.google.com/?cid=0x0:0xb4cda67f13794973
cafe,Kedai Kopi,IN VIEW 24,"FP78+QWX, Jl. Soa Siu, Mandala, Kota Jayapura, Papua","Kota Jayapura, Papua",PAPUA,,Indonesia,,-2.5355061,140.7173736,https://maps.google.com/?cid=0x0:0x652ee365f225b998
cafe,Kedai Kopi,Trian Coffee,"Jl. Trikora Dok V Atas No.8, Trikora, Kec. Jayapura Utara, Kota Jayapura, Papua","Kota Jayapura, Papua",PAPUA,,Indonesia,82397937765.0,-2.5306634,140.7201365,https://maps.google.com/?cid=0x0:0xa912bf7374e66f3
cafe,Kedai Kopi,Pace Tan pu Kopitiam,"Jalan Pasifik Permai Blok B no 15, Kompleks Ruko Dok II, Jl. Pacific Permai No.16, Bayangkara, Kec. Jayapura Utara, Kota Jayapura, Papua 99111","Kompleks Ruko Dok II, Jl. Pacific Permai No.16, Bayangkara, Kec. Jayapura Utara, Kota Jayapura",PAPUA,99111.0,Indonesia,81376566794.0,-2.5373342,140.7092965,https://maps.google.com/?cid=0x0:0x1f1a43593e97ad0c
cafe,,D'lord CafÃ©,"FP75+3MH, kompleks ruko, Bayangkara, Kec. Jayapura Utara, Kota Jayapura, Papua","Kota Jayapura, Papua",PAPUA,,Indonesia,,-2.5373041,140.7092341,https://maps.google.com/?cid=0x0:0x21d1bcc4c6bb664a
cafe,Kedai Kopi,Cafe Kawan Main Hollandia,"Jl. Dr. Sam Ratulangi, Bayangkara, Kec. Jayapura Utara, Kota Jayapura, Papua","Kota Jayapura, Papua",PAPUA,,Indonesia,81247713921.0,-2.5342243,140.7177632,https://maps.google.com/?cid=0x0:0xc5d4dfcf63b80866
cafe,Kafe,Meno Coffee,"Dekat Kantor Keuskupan, Jl Dr Sam Ratulangi Dok 2, Kota Jayapura, Papua 99112","Jl Dr Sam Ratulangi Dok 2, Kota Jayapura",PAPUA,99112.0,Indonesia,,-2.5370918,140.7130345,https://maps.google.com/?cid=0x0:0x85067b90164ffc5c
cafe,Kedai Kopi,PILOS CAFE,"FP66+J79, Bayangkara, Kec. Jayapura Utara, Kota Jayapura, Papua","Kota Jayapura, Papua",PAPUA,,Indonesia,85237190567.0,-2.538451,140.7107331,https://maps.google.com/?cid=0x0:0x4c87e94ff2a84c0d
cafe,Kedai Kopi,Kedai Kopi Bang Joni,"Ruko Dok 2, Jl. Pacific Permai, Bayangkara, Kec. Jayapura Utara, Kota Jayapura, Papua 99112","Jl. Pacific Permai, Bayangkara, Kec. Jayapura Utara, Kota Jayapura",PAPUA,99112.0,Indonesia,82198120414.0,-2.5371491,140.7088759,https://maps.google.com/?cid=0x0:0xd39e24e6768a9d7
cafe,Kedai Kopi,Excelso - Mall Jayapura,"Jl.Sam Ratulangi Lt.2 No.40, Excelso Mal Jayapura Lantai V, Scbd Complex, Bayangkara, Kec. Jayapura Utara, Kota Jayapura, Papua 99112","Excelso Mal Jayapura Lantai V, Scbd Complex, Bayangkara, Kec. Jayapura Utara, Kota Jayapura",PAPUA,99112.0,Indonesia,9675150114.0,-2.5352013,140.7060178,https://maps.google.com/?cid=0x0:0xd5e4d4451b65cf1d
cafe,Stan Kopi,Kopu Kopi,"Ruko, Blok E, Jl. Pacific Permai, Bayangkara, Kec. Jayapura Utara, Kota Jayapura, Papua","Kota Jayapura, Papua",PAPUA,,Indonesia,81369167113.0,-2.5380164,140.7106175,https://maps.google.com/?cid=0x0:0xacc5995cc1fb8589
cafe,Restoran,Pit's Corner ( Papua Specialty Coffee ),"Jalan kasuari no.2 Dok V Atas, Mandala, Jayapura Utara, Jayapura City, Papua 99114","Mandala, Jayapura Utara, Jayapura City",PAPUA,99114.0,Indonesia,9675160443.0,-2.5310642,140.71875,https://maps.google.com/?cid=0x0:0xf39f3950a3bf5ed2
cafe,cafe,Papua 99113,"Kec. Jayapura Utara, Kota Jayapura, Papua","Kota Jayapura, Papua",PAPUA,,Indonesia,,-2.4943571,140.6741875,https://maps.google.com/?cid=0x0:0x4a109ffe0e6c7e65
cafe,Kafe,Saanjh Cafe,"CJ2G+C7W, Jl. Gelanggang Remaja, Waena, Kec. Heram, Kota Jayapura, Papua 99351","Jl. Gelanggang Remaja, Waena, Kec. Heram, Kota Jayapura",PAPUA,99351.0,Indonesia,,-2.5988941,140.6256974,https://maps.google.com/?cid=0x0:0xf472b389c2309050
cafe,Restoran,SOCIAL HUB JAYAPURA,"Jl. Klp. 2, Entrop, Distrik Jayapura Selatan, Kota Jayapura, Papua 99224","Entrop, Distrik Jayapura Selatan, Kota Jayapura",PAPUA,99224.0,Indonesia,82349831188.0,-2.5678047,140.7017466,https://maps.google.com/?cid=0x0:0x3fd4dc6a056eeb45
cafe,Kedai Kopi,Pace Tan pu Kopitiam,"Jalan Pasifik Permai Blok B no 15, Kompleks Ruko Dok II, Jl. Pacific Permai No.16, Bayangkara, Kec. Jayapura Utara, Kota Jayapura, Papua 99111","Kompleks Ruko Dok II, Jl. Pacific Permai No.16, Bayangkara, Kec. Jayapura Utara, Kota Jayapura",PAPUA,99111.0,Indonesia,81376566794.0,-2.5373342,140.7092965,https://maps.google.com/?cid=0x0:0x1f1a43593e97ad0c
cafe,Ramen,Kusuka Cafe  Resto,"Seberang Astra Honda, masuk lorong sebelah jayamart, Jl. Klp. 2 No.18, Entrop, Jayapura Selatan, Jayapura City, Papua 99221","masuk lorong sebelah jayamart, Jl. Klp. 2 No.18, Entrop, Jayapura Selatan, Jayapura City",PAPUA,99221.0,Indonesia,,-2.5689574,140.7025065,https://maps.google.com/?cid=0x0:0xc48e7a8e5d46dab5
cafe,Kafe,Tropical Beach Cafe  Coffe House,"CP27+J8V, Engros, Kec. Abepura, Kota Jayapura, Papua","Kota Jayapura, Papua",PAPUA,,Indonesia,,-2.5983991,140.7133027,https://maps.google.com/?cid=0x0:0xdbf482c211ef3125
cafe,Kedai Kopi,Kopi Djuang Jayapura,"Jl. Setiapura II, Gurabesi, Kec. Jayapura Utara, Kota Jayapura, Papua 99221","Gurabesi, Kec. Jayapura Utara, Kota Jayapura",PAPUA,99221.0,Indonesia,82199559321.0,-2.5449826,140.700933,https://maps.google.com/?cid=0x0:0x91e028251801a721
cafe,Kedai Kopi,Cafe Hollandia Weref,"Jl Weref, Jl. Argapura Jl. Argapura Canon, Pohon Mangga Weref, Kota Jayapura, Papua 99222","Jl. Argapura Jl. Argapura Canon, Pohon Mangga Weref, Kota Jayapura",PAPUA,99222.0,Indonesia,81247713921.0,-2.5488345,140.7142902,https://maps.google.com/?cid=0x0:0x87f9b22942a90ec8
cafe,Kafe,cafe bakau holtekam kota jayapura,"9PRF+58, Nafri, Kec. Abepura, Kota Jayapura, Papua","Kota Jayapura, Papua",PAPUA,,Indonesia,8124022007.0,-2.6095335,140.7232587,https://maps.google.com/?cid=0x0:0x440c4543fd3a011e
cafe,Kafe,Cafe Socio Culture (Coffee and Eatery),"Jl. Raya Abepura Setani, Baru City, Abepura, Jayapura City, Papua 99351","Baru City, Abepura, Jayapura City",PAPUA,99351.0,Indonesia,81299939889.0,-2.610394,140.661513,https://maps.google.com/?cid=0x0:0xd714b57117860fbe
cafe,Restoran,Raftel Cafe Jayapura,"9MPC+84Q, Jl. Gerilyawan, Yobe, Kec. Abepura, Kota Jayapura, Papua 99351","Jl. Gerilyawan, Yobe, Kec. Abepura, Kota Jayapura",PAPUA,99351.0,Indonesia,,-2.6141741,140.6703722,https://maps.google.com/?cid=0x0:0x22b32b53b260031b
cafe,Kedai Kopi,At Here Cafe,"Jl. Klp. 2, Entrop, Distrik Jayapura Selatan, Kota Jayapura, Papua","Kota Jayapura, Papua",PAPUA,,Indonesia,81327868896.0,-2.5684255,140.7031204,https://maps.google.com/?cid=0x0:0x3deb442bf5f7cfcd
cafe,Restoran,Yasbeer Cafe dan resto,"Engros, Kec. Abepura, Kota Jayapura, Papua","Kota Jayapura, Papua",PAPUA,,Indonesia,81248941111.0,-2.6005334,140.7153915,https://maps.google.com/?cid=0x0:0x34cbd734e60fa36b
cafe,Restoran,Pit's Corner ( Papua Specialty Coffee ),"Jalan kasuari no.2 Dok V Atas, Mandala, Jayapura Utara, Jayapura City, Papua 99114","Mandala, Jayapura Utara, Jayapura City",PAPUA,99114.0,Indonesia,9675160443.0,-2.5310642,140.71875,https://maps.google.com/?cid=0x0:0xf39f3950a3bf5ed2
cafe,cafe,Papua 99114,"Kec. Jayapura Utara, Kabupaten Jayawijaya, Papua","Kabupaten Jayawijaya, Papua",PAPUA,,Indonesia,,-2.5167961,140.7027292,https://maps.google.com/?cid=0x0:0xfbf882c9b5d1cad7
cafe,Kafe,Tana Papua Coffee and Roastery,"Jl. Raya Abepura, Vim, Kec. Abepura, Kota Jayapura, Papua 99220","Vim, Kec. Abepura, Kota Jayapura",PAPUA,99220.0,Indonesia,82175416609.0,-2.6047712,140.6727079,https://maps.google.com/?cid=0x0:0x747c727d4b94ebf6
cafe,Perusahaan Konstruksi,Angkasa Cafe  Resto,"Jl. Sujarwo Condronegoro, Angkasapura, Kec. Jayapura Utara, Kota Jayapura, Papua 99114","Angkasapura, Kec. Jayapura Utara, Kota Jayapura",PAPUA,99114.0,Indonesia,81333121001.0,-2.5186417,140.7077602,https://maps.google.com/?cid=0x0:0x63b09be4131a5f9
cafe,Kafe,Saanjh Cafe,"CJ2G+C7W, Jl. Gelanggang Remaja, Waena, Kec. Heram, Kota Jayapura, Papua 99351","Jl. Gelanggang Remaja, Waena, Kec. Heram, Kota Jayapura",PAPUA,99351.0,Indonesia,,-2.5988941,140.6256974,https://maps.google.com/?cid=0x0:0xf472b389c2309050
cafe,Kafe,Cafe View Pasifik Garden (Cafe Payung),"Jl. Pasifik Indah Pasir 2 Atas No.2, Tj. Ria, Kec. Jayapura Utara, Kota Jayapura, Papua 99117","Tj. Ria, Kec. Jayapura Utara, Kota Jayapura",PAPUA,99117.0,Indonesia,8124040590.0,-2.5071765,140.7162744,https://maps.google.com/?cid=0x0:0x618102439f5f359f
cafe,Kedai Kopi,Cafe Brata Mangi PNG,"Jl. Soa Siu, Mandala, Kec. Jayapura Utara, Kota Jayapura, Papua","Kota Jayapura, Papua",PAPUA,,Indonesia,82396138782.0,-2.5350311,140.717898,https://maps.google.com/?cid=0x0:0xf716be1fee265f
cafe,Restoran,Sora Cafe,"Koya Tengah, Kec. Muara Tami, Kota Jayapura, Papua 99351","Kec. Muara Tami, Kota Jayapura",PAPUA,99351.0,Indonesia,82198566899.0,-2.6440425,140.806528,https://maps.google.com/?cid=0x0:0xa841f0ad6cb359a6
cafe,Hidangan Laut,Kaita Cafe  Gallery,"Tj. Ria, Kec. Jayapura Utara, Kota Jayapura, Papua 99117","Kec. Jayapura Utara, Kota Jayapura",PAPUA,99117.0,Indonesia,82198055571.0,-2.5035506,140.7169244,https://maps.google.com/?cid=0x0:0xc4945c6f20f301b7
cafe,Restoran,Yasbeer Cafe dan resto,"Engros, Kec. Abepura, Kota Jayapura, Papua","Kota Jayapura, Papua",PAPUA,,Indonesia,81248941111.0,-2.6005334,140.7153915,https://maps.google.com/?cid=0x0:0x34cbd734e60fa36b
cafe,Kafe,Cafe Socio Culture (Coffee and Eatery),"Jl. Raya Abepura Setani, Baru City, Abepura, Jayapura City, Papua 99351","Baru City, Abepura, Jayapura City",PAPUA,99351.0,Indonesia,81299939889.0,-2.610394,140.661513,https://maps.google.com/?cid=0x0:0xd714b57117860fbe
cafe,Indonesia,Angkasa cafe  resto Jayapura,"Jl. M Yamin, Angkasapura, Kec. Jayapura Utara, Kota Jayapura, Papua 99114","Angkasapura, Kec. Jayapura Utara, Kota Jayapura",PAPUA,99114.0,Indonesia,81333121001.0,-2.5155495,140.7050576,https://maps.google.com/?cid=0x0:0x25763f5fc0aa81de
cafe,Kedai Kopi,Cafe Kawan Main Hollandia,"Jl. Dr. Sam Ratulangi, Bayangkara, Kec. Jayapura Utara, Kota Jayapura, Papua","Kota Jayapura, Papua",PAPUA,,Indonesia,81247713921.0,-2.5342243,140.7177632,https://maps.google.com/?cid=0x0:0xc5d4dfcf63b80866
cafe,Kedai Kopi,Cafe Hollandia Weref,"Jl Weref, Jl. Argapura Jl. Argapura Canon, Pohon Mangga Weref, Kota Jayapura, Papua 99222","Jl. Argapura Jl. Argapura Canon, Pohon Mangga Weref, Kota Jayapura",PAPUA,99222.0,Indonesia,81247713921.0,-2.5488345,140.7142902,https://maps.google.com/?cid=0x0:0x87f9b22942a90ec8
cafe,Kedai Kopi,Trian Coffee,"Jl. Trikora Dok V Atas No.8, Trikora, Kec. Jayapura Utara, Kota Jayapura, Papua","Kota Jayapura, Papua",PAPUA,,Indonesia,82397937765.0,-2.5306634,140.7201365,https://maps.google.com/?cid=0x0:0xa912bf7374e66f3
cafe,cafe,Kec. Jayapura Utara,"Kota Jayapura, Papua","Kota Jayapura, Papua",PAPUA,,Indonesia,,-2.5312067,140.7199798,https://maps.google.com/?cid=0x0:0x13fe60c6bfbe82b0
cafe,Restoran,Pit's Corner ( Papua Specialty Coffee ),"Jalan kasuari no.2 Dok V Atas, Mandala, Jayapura Utara, Jayapura City, Papua 99114","Mandala, Jayapura Utara, Jayapura City",PAPUA,99114.0,Indonesia,9675160443.0,-2.5310642,140.71875,https://maps.google.com/?cid=0x0:0xf39f3950a3bf5ed2
cafe,Kedai Kopi,Cafe Brata Mangi PNG,"Jl. Soa Siu, Mandala, Kec. Jayapura Utara, Kota Jayapura, Papua","Kota Jayapura, Papua",PAPUA,,Indonesia,82396138782.0,-2.5350311,140.717898,https://maps.google.com/?cid=0x0:0xf716be1fee265f
cafe,Kedai Kopi,KOPI.RUANGTU7U,"Jl. Dr. Sam Ratulangi, Trikora, Kec. Jayapura Utara, Kota Jayapura, Papua 99114","Trikora, Kec. Jayapura Utara, Kota Jayapura",PAPUA,99114.0,Indonesia,82248787419.0,-2.5305805,140.7183853,https://maps.google.com/?cid=0x0:0xb4cda67f13794973
cafe,Kafetaria,cafe TCP'95,"FP99+6Q7, Mandala, Kec. Jayapura Utara, Kota Jayapura, Papua","Kota Jayapura, Papua",PAPUA,,Indonesia,82239646919.0,-2.5319748,140.7194199,https://maps.google.com/?cid=0x0:0xc207f7e67b1aef64
cafe,Kedai Kopi,IN VIEW 24,"FP78+QWX, Jl. Soa Siu, Mandala, Kota Jayapura, Papua","Kota Jayapura, Papua",PAPUA,,Indonesia,,-2.5355061,140.7173736,https://maps.google.com/?cid=0x0:0x652ee365f225b998
cafe,,D'lord CafÃ©,"FP75+3MH, kompleks ruko, Bayangkara, Kec. Jayapura Utara, Kota Jayapura, Papua","Kota Jayapura, Papua",PAPUA,,Indonesia,,-2.5373041,140.7092341,https://maps.google.com/?cid=0x0:0x21d1bcc4c6bb664a
cafe,Makanan Kecil,Jl.Agats no.8 dok5 bawah,"FP8C+P68, Mandala, Kec. Jayapura Utara, Kota Jayapura, Papua","Kota Jayapura, Papua",PAPUA,,Indonesia,,-2.5332004,140.7205918,https://maps.google.com/?cid=0x0:0x45fdc0edfbe8831b
cafe,Bakso,Bakso_dok_5,"Jl. Gn. Agung No.1, Trikora, Kec. Jayapura Utara, Kota Jayapura, Papua","Kota Jayapura, Papua",PAPUA,,Indonesia,81247103397.0,-2.5278791,140.7209945,https://maps.google.com/?cid=0x0:0x862df67e6e1dde6c
cafe,Kedai Kopi,Cafe Hollandia Weref,"Jl Weref, Jl. Argapura Jl. Argapura Canon, Pohon Mangga Weref, Kota Jayapura, Papua 99222","Jl. Argapura Jl. Argapura Canon, Pohon Mangga Weref, Kota Jayapura",PAPUA,99222.0,Indonesia,81247713921.0,-2.5488345,140.7142902,https://maps.google.com/?cid=0x0:0x87f9b22942a90ec8
cafe,Stan Kopi,Kopu Kopi,"Ruko, Blok E, Jl. Pacific Permai, Bayangkara, Kec. Jayapura Utara, Kota Jayapura, Papua","Kota Jayapura, Papua",PAPUA,,Indonesia,81369167113.0,-2.5380164,140.7106175,https://maps.google.com/?cid=0x0:0xacc5995cc1fb8589
cafe,Kedai Kopi,Cafe Kawan Main Hollandia,"Jl. Dr. Sam Ratulangi, Bayangkara, Kec. Jayapura Utara, Kota Jayapura, Papua","Kota Jayapura, Papua",PAPUA,,Indonesia,81247713921.0,-2.5342243,140.7177632,https://maps.google.com/?cid=0x0:0xc5d4dfcf63b80866
cafe,Kedai Kopi,Kopi Djuang Jayapura,"Jl. Setiapura II, Gurabesi, Kec. Jayapura Utara, Kota Jayapura, Papua 99221","Gurabesi, Kec. Jayapura Utara, Kota Jayapura",PAPUA,99221.0,Indonesia,82199559321.0,-2.5449826,140.700933,https://maps.google.com/?cid=0x0:0x91e028251801a721
cafe,cafe,Papua 99116,"Angkasapura, Kec. Jayapura Utara, Kota Jayapura, Papua","Kota Jayapura, Papua",PAPUA,,Indonesia,,-2.5091904,140.70792,https://maps.google.com/?cid=0x0:0x234bf316c4205d54
cafe,Kafe,Cafe 81 View,"Jl. Angkasa Raya, Tj. Ria, Kec. Jayapura Utara, Kota Jayapura, Papua 99116","Tj. Ria, Kec. Jayapura Utara, Kota Jayapura",PAPUA,99116.0,Indonesia,81247666753.0,-2.5064264,140.7135187,https://maps.google.com/?cid=0x0:0xdf206336d2af06c4
cafe,Kedai Kopi,Cafe Kawan Main Hollandia,"Jl. Dr. Sam Ratulangi, Bayangkara, Kec. Jayapura Utara, Kota Jayapura, Papua","Kota Jayapura, Papua",PAPUA,,Indonesia,81247713921.0,-2.5342243,140.7177632,https://maps.google.com/?cid=0x0:0xc5d4dfcf63b80866
cafe,Kafe,Cafe View Pasifik Garden (Cafe Payung),"Jl. Pasifik Indah Pasir 2 Atas No.2, Tj. Ria, Kec. Jayapura Utara, Kota Jayapura, Papua 99117","Tj. Ria, Kec. Jayapura Utara, Kota Jayapura",PAPUA,99117.0,Indonesia,8124040590.0,-2.5071765,140.7162744,https://maps.google.com/?cid=0x0:0x618102439f5f359f
cafe,Kedai Kopi,KOPI.RUANGTU7U,"Jl. Dr. Sam Ratulangi, Trikora, Kec. Jayapura Utara, Kota Jayapura, Papua 99114","Trikora, Kec. Jayapura Utara, Kota Jayapura",PAPUA,99114.0,Indonesia,82248787419.0,-2.5305805,140.7183853,https://maps.google.com/?cid=0x0:0xb4cda67f13794973
cafe,Restoran,Pit's Corner ( Papua Specialty Coffee ),"Jalan kasuari no.2 Dok V Atas, Mandala, Jayapura Utara, Jayapura City, Papua 99114","Mandala, Jayapura Utara, Jayapura City",PAPUA,99114.0,Indonesia,9675160443.0,-2.5310642,140.71875,https://maps.google.com/?cid=0x0:0xf39f3950a3bf5ed2
cafe,Hidangan Laut,Kaita Cafe  Gallery,"Tj. Ria, Kec. Jayapura Utara, Kota Jayapura, Papua 99117","Kec. Jayapura Utara, Kota Jayapura",PAPUA,99117.0,Indonesia,82198055571.0,-2.5035506,140.7169244,https://maps.google.com/?cid=0x0:0xc4945c6f20f301b7
cafe,Kedai Kopi,Cafe Hollandia Weref,"Jl Weref, Jl. Argapura Jl. Argapura Canon, Pohon Mangga Weref, Kota Jayapura, Papua 99222","Jl. Argapura Jl. Argapura Canon, Pohon Mangga Weref, Kota Jayapura",PAPUA,99222.0,Indonesia,81247713921.0,-2.5488345,140.7142902,https://maps.google.com/?cid=0x0:0x87f9b22942a90ec8
cafe,Stan Kopi,Kopu Kopi,"Ruko, Blok E, Jl. Pacific Permai, Bayangkara, Kec. Jayapura Utara, Kota Jayapura, Papua","Kota Jayapura, Papua",PAPUA,,Indonesia,81369167113.0,-2.5380164,140.7106175,https://maps.google.com/?cid=0x0:0xacc5995cc1fb8589
cafe,Kafe,Tana Papua Coffee and Roastery,"Jl. Raya Abepura, Vim, Kec. Abepura, Kota Jayapura, Papua 99220","Vim, Kec. Abepura, Kota Jayapura",PAPUA,99220.0,Indonesia,82175416609.0,-2.6047712,140.6727079,https://maps.google.com/?cid=0x0:0x747c727d4b94ebf6
cafe,Kedai Kopi,Trian Coffee,"Jl. Trikora Dok V Atas No.8, Trikora, Kec. Jayapura Utara, Kota Jayapura, Papua","Kota Jayapura, Papua",PAPUA,,Indonesia,82397937765.0,-2.5306634,140.7201365,https://maps.google.com/?cid=0x0:0xa912bf7374e66f3
cafe,Kedai Kopi,Cafe Brata Mangi PNG,"Jl. Soa Siu, Mandala, Kec. Jayapura Utara, Kota Jayapura, Papua","Kota Jayapura, Papua",PAPUA,,Indonesia,82396138782.0,-2.5350311,140.717898,https://maps.google.com/?cid=0x0:0xf716be1fee265f
cafe,Kedai Kopi,Pace Tan pu Kopitiam,"Jalan Pasifik Permai Blok B no 15, Kompleks Ruko Dok II, Jl. Pacific Permai No.16, Bayangkara, Kec. Jayapura Utara, Kota Jayapura, Papua 99111","Kompleks Ruko Dok II, Jl. Pacific Permai No.16, Bayangkara, Kec. Jayapura Utara, Kota Jayapura",PAPUA,99111.0,Indonesia,81376566794.0,-2.5373342,140.7092965,https://maps.google.com/?cid=0x0:0x1f1a43593e97ad0c
cafe,Kafe,Ropopang x Eskole Cafe Jayapura,"Jl. Ps. Yotefa No.33, Wai Mhorock, Kec. Abepura, Kota Jayapura, Papua 99351","Wai Mhorock, Kec. Abepura, Kota Jayapura",PAPUA,99351.0,Indonesia,81240970364.0,-2.6084375,140.6777793,https://maps.google.com/?cid=0x0:0x8aa1325684f15ea1
cafe,cafe,Papua 99117,"Tj. Ria, Kec. Jayapura Utara, Kota Jayapura, Papua","Kota Jayapura, Papua",PAPUA,,Indonesia,,-2.493242,140.6975389,https://maps.google.com/?cid=0x0:0xf4a40bbba525574f
cafe,Kafe,Cafe View Pasifik Garden (Cafe Payung),"Jl. Pasifik Indah Pasir 2 Atas No.2, Tj. Ria, Kec. Jayapura Utara, Kota Jayapura, Papua 99117","Tj. Ria, Kec. Jayapura Utara, Kota Jayapura",PAPUA,99117.0,Indonesia,8124040590.0,-2.5071765,140.7162744,https://maps.google.com/?cid=0x0:0x618102439f5f359f
cafe,Kedai Kopi,KOPI.RUANGTU7U,"Jl. Dr. Sam Ratulangi, Trikora, Kec. Jayapura Utara, Kota Jayapura, Papua 99114","Trikora, Kec. Jayapura Utara, Kota Jayapura",PAPUA,99114.0,Indonesia,82248787419.0,-2.5305805,140.7183853,https://maps.google.com/?cid=0x0:0xb4cda67f13794973
cafe,Kedai Kopi,Cafe Brata Mangi PNG,"Jl. Soa Siu, Mandala, Kec. Jayapura Utara, Kota Jayapura, Papua","Kota Jayapura, Papua",PAPUA,,Indonesia,82396138782.0,-2.5350311,140.717898,https://maps.google.com/?cid=0x0:0xf716be1fee265f
cafe,Hidangan Laut,Kaita Cafe  Gallery,"Tj. Ria, Kec. Jayapura Utara, Kota Jayapura, Papua 99117","Kec. Jayapura Utara, Kota Jayapura",PAPUA,99117.0,Indonesia,82198055571.0,-2.5035506,140.7169244,https://maps.google.com/?cid=0x0:0xc4945c6f20f301b7
cafe,Kafe,Cafe 81 View,"Jl. Angkasa Raya, Tj. Ria, Kec. Jayapura Utara, Kota Jayapura, Papua 99116","Tj. Ria, Kec. Jayapura Utara, Kota Jayapura",PAPUA,99116.0,Indonesia,81247666753.0,-2.5064264,140.7135187,https://maps.google.com/?cid=0x0:0xdf206336d2af06c4
cafe,Kafe,Tana Papua Coffee and Roastery,"Jl. Raya Abepura, Vim, Kec. Abepura, Kota Jayapura, Papua 99220","Vim, Kec. Abepura, Kota Jayapura",PAPUA,99220.0,Indonesia,82175416609.0,-2.6047712,140.6727079,https://maps.google.com/?cid=0x0:0x747c727d4b94ebf6
cafe,Kedai Kopi,Trian Coffee,"Jl. Trikora Dok V Atas No.8, Trikora, Kec. Jayapura Utara, Kota Jayapura, Papua","Kota Jayapura, Papua",PAPUA,,Indonesia,82397937765.0,-2.5306634,140.7201365,https://maps.google.com/?cid=0x0:0xa912bf7374e66f3
cafe,Kafetaria,cafe TCP'95,"FP99+6Q7, Mandala, Kec. Jayapura Utara, Kota Jayapura, Papua","Kota Jayapura, Papua",PAPUA,,Indonesia,82239646919.0,-2.5319748,140.7194199,https://maps.google.com/?cid=0x0:0xc207f7e67b1aef64
cafe,Kedai Kopi,IN VIEW 24,"FP78+QWX, Jl. Soa Siu, Mandala, Kota Jayapura, Papua","Kota Jayapura, Papua",PAPUA,,Indonesia,,-2.5355061,140.7173736,https://maps.google.com/?cid=0x0:0x652ee365f225b998
cafe,Kedai Kopi,Pace Tan pu Kopitiam,"Jalan Pasifik Permai Blok B no 15, Kompleks Ruko Dok II, Jl. Pacific Permai No.16, Bayangkara, Kec. Jayapura Utara, Kota Jayapura, Papua 99111","Kompleks Ruko Dok II, Jl. Pacific Permai No.16, Bayangkara, Kec. Jayapura Utara, Kota Jayapura",PAPUA,99111.0,Indonesia,81376566794.0,-2.5373342,140.7092965,https://maps.google.com/?cid=0x0:0x1f1a43593e97ad0c
cafe,Restoran,Steezy Coffee Service,"FPC9+54F, Trikora, Kec. Jayapura Utara, Kota Jayapura, Papua","Kota Jayapura, Papua",PAPUA,,Indonesia,,-2.5295947,140.7178365,https://maps.google.com/?cid=0x0:0x9d7efc7f3416c557
cafe,Perusahaan Konstruksi,Angkasa Cafe  Resto,"Jl. Sujarwo Condronegoro, Angkasapura, Kec. Jayapura Utara, Kota Jayapura, Papua 99114","Angkasapura, Kec. Jayapura Utara, Kota Jayapura",PAPUA,99114.0,Indonesia,81333121001.0,-2.5186417,140.7077602,https://maps.google.com/?cid=0x0:0x63b09be4131a5f9
cafe,Kedai Kopi,Coffee  You Jayapura,"Jl. Ahmad Yani No.24, Gurabesi, Kec. Jayapura Utara, Kota Jayapura, Papua 99222","Gurabesi, Kec. Jayapura Utara, Kota Jayapura",PAPUA,99222.0,Indonesia,,-2.5439531,140.6997079,https://maps.google.com/?cid=0x0:0xd6b191e0b9581aec
cafe,Kafe,Kopu Kopi CafÃ© (Coffee  Eatery),"Jl. Raya Abepura, Wahno, Kec. Abepura, Kota Jayapura, Papua 99224","Wahno, Kec. Abepura, Kota Jayapura",PAPUA,99224.0,Indonesia,81263800182.0,-2.5972248,140.6796506,https://maps.google.com/?cid=0x0:0x55eedda55f616417
cafe,Kafe,Cafe Socio Culture (Coffee and Eatery),"Jl. Raya Abepura Setani, Baru City, Abepura, Jayapura City, Papua 99351","Baru City, Abepura, Jayapura City",PAPUA,99351.0,Indonesia,81299939889.0,-2.610394,140.661513,https://maps.google.com/?cid=0x0:0xd714b57117860fbe
cafe,Kafe,Tana Papua Coffee and Roastery,"Jl. Raya Abepura, Vim, Kec. Abepura, Kota Jayapura, Papua 99220","Vim, Kec. Abepura, Kota Jayapura",PAPUA,99220.0,Indonesia,82175416609.0,-2.6047712,140.6727079,https://maps.google.com/?cid=0x0:0x747c727d4b94ebf6
cafe,Kedai Kopi,Kopi Djuang - Kopi Kue Abepura,"9MR8+8VW Sebelah LPKT ERVICOM, Jl. Raya Abepura Jl. Kali Acai, Kota Baru, Kec. Abepura, Kota Jayapura, Papua 99351","Jl. Raya Abepura Jl. Kali Acai, Kota Baru, Kec. Abepura, Kota Jayapura",PAPUA,99351.0,Indonesia,,-2.6091271,140.6672017,https://maps.google.com/?cid=0x0:0x348557384f451d62
cafe,Kedai Kopi,horyzon 1 Cafe Abepura,"9MQM+GX8, jln poros vihara tanah hitam, Wai Mhorock, Kec. Abepura, Kota Jayapura, Papua","Kota Jayapura, Papua",PAPUA,,Indonesia,81248883116.0,-2.6060672,140.6849956,https://maps.google.com/?cid=0x0:0x921ea46cc9db66aa
cafe,Mesin Sangrai Kopi,noaa coffee,"Jl. Raya Abepura - Sentani, Asano, Kec. Abepura, Kota Jayapura, Papua 99351","Asano, Kec. Abepura, Kota Jayapura",PAPUA,99351.0,Indonesia,,-2.6169916,140.680937,https://maps.google.com/?cid=0x0:0xf81fba9ddd855ed3
cafe,Kedai Kopi,JVLISCO JAYAPURA,"Jl. Dr. Soetomo, Gurabesi, Kec. Jayapura Utara, Kota Jayapura, Papua 99221","Gurabesi, Kec. Jayapura Utara, Kota Jayapura",PAPUA,99221.0,Indonesia,82334241892.0,-2.5449288,140.7010632,https://maps.google.com/?cid=0x0:0xb589eaa30a3fed63
cafe,Kedai Kopi,Kopi Djuang Jayapura,"Jl. Setiapura II, Gurabesi, Kec. Jayapura Utara, Kota Jayapura, Papua 99221","Gurabesi, Kec. Jayapura Utara, Kota Jayapura",PAPUA,99221.0,Indonesia,82199559321.0,-2.5449826,140.700933,https://maps.google.com/?cid=0x0:0x91e028251801a721
cafe,cafe,Papua 99221,"Kota Jayapura, Papua","Kota Jayapura, Papua",PAPUA,,Indonesia,,-2.5407181,140.6638119,https://maps.google.com/?cid=0x0:0x22734bd942608dca
cafe,Kedai Kopi,DIR COFFEE,"Depan LPTQ Kotaraja, Jl. Perkutut, Vim, Kec. Abepura, Kota Jayapura, Papua 99225","Jl. Perkutut, Vim, Kec. Abepura, Kota Jayapura",PAPUA,99225.0,Indonesia,81343381073.0,-2.5969248,140.6707822,https://maps.google.com/?cid=0x0:0x8a1442368972e3bd
cafe,Kedai Kopi,OUTLAW Coffee and Burger Dogbar,"Jl. Raya Abepura No.3, Entrop, Distrik Jayapura Selatan, Kota Jayapura, Papua 99224","Entrop, Distrik Jayapura Selatan, Kota Jayapura",PAPUA,99224.0,Indonesia,,-2.5759879,140.6861933,https://maps.google.com/?cid=0x0:0x1a3857dd9b8b8965
cafe,Kafe,Honai cafe,"CMWQ+QFP, Jl. Cenderawasih, Kota Baru, Kec. Abepura, Kota Jayapura, Papua 99351","Jl. Cenderawasih, Kota Baru, Kec. Abepura, Kota Jayapura",PAPUA,99351.0,Indonesia,,-2.553035,140.6887116,https://maps.google.com/?cid=0x0:0x3f7bfb878ede4056
cafe,Kedai Kopi,Cafe Hollandia Weref,"Jl Weref, Jl. Argapura Jl. Argapura Canon, Pohon Mangga Weref, Kota Jayapura, Papua 99222","Jl. Argapura Jl. Argapura Canon, Pohon Mangga Weref, Kota Jayapura",PAPUA,99222.0,Indonesia,81247713921.0,-2.5488345,140.7142902,https://maps.google.com/?cid=0x0:0x87f9b22942a90ec8
cafe,Kedai Kopi,Zamo Coffee,"CMJV+3Q4, Jl. Raya Abepura, Entrop, Distrik Jayapura Selatan, Kota Jayapura, Papua 99221","Jl. Raya Abepura, Entrop, Distrik Jayapura Selatan, Kota Jayapura",PAPUA,99221.0,Indonesia,85254479885.0,-2.5698673,140.6944384,https://maps.google.com/?cid=0x0:0x2256272f81aa49bf
cafe,cafe,Kec. Abepura,"Kota Jayapura, Papua","Kota Jayapura, Papua",PAPUA,,Indonesia,,-2.6813971,140.7662871,https://maps.google.com/?cid=0x0:0x75b53491c4439b2f
cafe,Kafe,Cafe Socio Culture (Coffee and Eatery),"Jl. Raya Abepura Setani, Baru City, Abepura, Jayapura City, Papua 99351","Baru City, Abepura, Jayapura City",PAPUA,99351.0,Indonesia,81299939889.0,-2.610394,140.661513,https://maps.google.com/?cid=0x0:0xd714b57117860fbe
cafe,Kafe,Tana Papua Coffee and Roastery,"Jl. Raya Abepura, Vim, Kec. Abepura, Kota Jayapura, Papua 99220","Vim, Kec. Abepura, Kota Jayapura",PAPUA,99220.0,Indonesia,82175416609.0,-2.6047712,140.6727079,https://maps.google.com/?cid=0x0:0x747c727d4b94ebf6
cafe,Mesin Sangrai Kopi,noaa coffee,"Jl. Raya Abepura - Sentani, Asano, Kec. Abepura, Kota Jayapura, Papua 99351","Asano, Kec. Abepura, Kota Jayapura",PAPUA,99351.0,Indonesia,,-2.6169916,140.680937,https://maps.google.com/?cid=0x0:0xf81fba9ddd855ed3
cafe,Kafe,Ropopang x Eskole Cafe Jayapura,"Jl. Ps. Yotefa No.33, Wai Mhorock, Kec. Abepura, Kota Jayapura, Papua 99351","Wai Mhorock, Kec. Abepura, Kota Jayapura",PAPUA,99351.0,Indonesia,81240970364.0,-2.6084375,140.6777793,https://maps.google.com/?cid=0x0:0x8aa1325684f15ea1
cafe,Kafe,Kopu Kopi CafÃ© (Coffee  Eatery),"Jl. Raya Abepura, Wahno, Kec. Abepura, Kota Jayapura, Papua 99224","Wahno, Kec. Abepura, Kota Jayapura",PAPUA,99224.0,Indonesia,81263800182.0,-2.5972248,140.6796506,https://maps.google.com/?cid=0x0:0x55eedda55f616417
cafe,Kafe,Janji Jiwa Toast Abepura,"Jl. Gerilyawan, Yobe, Kec. Abepura, Kota Jayapura, Papua 99351","Yobe, Kec. Abepura, Kota Jayapura",PAPUA,99351.0,Indonesia,82198085571.0,-2.6139106,140.6708385,https://maps.google.com/?cid=0x0:0xcdc3bb187921e3ce
cafe,Kedai Kopi,Kopi Djuang - Kopi Kue Abepura,"9MR8+8VW Sebelah LPKT ERVICOM, Jl. Raya Abepura Jl. Kali Acai, Kota Baru, Kec. Abepura, Kota Jayapura, Papua 99351","Jl. Raya Abepura Jl. Kali Acai, Kota Baru, Kec. Abepura, Kota Jayapura",PAPUA,99351.0,Indonesia,,-2.6091271,140.6672017,https://maps.google.com/?cid=0x0:0x348557384f451d62
cafe,Restoran,Raftel Cafe Jayapura,"9MPC+84Q, Jl. Gerilyawan, Yobe, Kec. Abepura, Kota Jayapura, Papua 99351","Jl. Gerilyawan, Yobe, Kec. Abepura, Kota Jayapura",PAPUA,99351.0,Indonesia,,-2.6141741,140.6703722,https://maps.google.com/?cid=0x0:0x22b32b53b260031b
cafe,Kafe,Rumah Kopi Jayapura,"CM3H+2P9, Jl. Raya Abepura Jl. Perkutut, Wahno, Kec. Abepura, Kota Jayapura, Papua 99224","Jl. Raya Abepura Jl. Perkutut, Wahno, Kec. Abepura, Kota Jayapura",PAPUA,99224.0,Indonesia,,-2.5974693,140.6793664,https://maps.google.com/?cid=0x0:0x9ed444aebde28b44
cafe,Kafe,Tropical Beach Cafe  Coffe House,"CP27+J8V, Engros, Kec. Abepura, Kota Jayapura, Papua","Kota Jayapura, Papua",PAPUA,,Indonesia,,-2.5983991,140.7133027,https://maps.google.com/?cid=0x0:0xdbf482c211ef3125
cafe,Kafe,cafe bakau holtekam kota jayapura,"9PRF+58, Nafri, Kec. Abepura, Kota Jayapura, Papua","Kota Jayapura, Papua",PAPUA,,Indonesia,8124022007.0,-2.6095335,140.7232587,https://maps.google.com/?cid=0x0:0x440c4543fd3a011e
cafe,Kedai Kopi,horyzon 1 Cafe Abepura,"9MQM+GX8, jln poros vihara tanah hitam, Wai Mhorock, Kec. Abepura, Kota Jayapura, Papua","Kota Jayapura, Papua",PAPUA,,Indonesia,81248883116.0,-2.6060672,140.6849956,https://maps.google.com/?cid=0x0:0x921ea46cc9db66aa
cafe,Kedai Kopi,STARBUCKS ABEPURA,"Jl. Garuda No.99, Wai Mhorock, Kec. Abepura, Kota Jayapura, Papua 99225","Wai Mhorock, Kec. Abepura, Kota Jayapura",PAPUA,99225.0,Indonesia,,-2.6078796,140.6742175,https://maps.google.com/?cid=0x0:0x59e67cceaaa6abde
cafe,cafe,Papua 99351,"Kota Jayapura, Papua","Kota Jayapura, Papua",PAPUA,,Indonesia,,-2.685882,140.8872648,https://maps.google.com/?cid=0x0:0x540583c400ca05b3
cafe,Kafe,Tana Papua Coffee and Roastery,"Jl. Raya Abepura, Vim, Kec. Abepura, Kota Jayapura, Papua 99220","Vim, Kec. Abepura, Kota Jayapura",PAPUA,99220.0,Indonesia,82175416609.0,-2.6047712,140.6727079,https://maps.google.com/?cid=0x0:0x747c727d4b94ebf6
cafe,Kedai Kopi,Katita Coffee  Space,"Jl. SMP, Koya Tengah, Kec. Muara Tami, Kota Jayapura, Papua","Kota Jayapura, Papua",PAPUA,,Indonesia,82196020834.0,-2.6450994,140.8056096,https://maps.google.com/?cid=0x0:0x5daa864d10a7522f
cafe,Restoran,Sora Cafe,"Koya Tengah, Kec. Muara Tami, Kota Jayapura, Papua 99351","Kec. Muara Tami, Kota Jayapura",PAPUA,99351.0,Indonesia,82198566899.0,-2.6440425,140.806528,https://maps.google.com/?cid=0x0:0xa841f0ad6cb359a6
cafe,Kafe,Cafe Socio Culture (Coffee and Eatery),"Jl. Raya Abepura Setani, Baru City, Abepura, Jayapura City, Papua 99351","Baru City, Abepura, Jayapura City",PAPUA,99351.0,Indonesia,81299939889.0,-2.610394,140.661513,https://maps.google.com/?cid=0x0:0xd714b57117860fbe
cafe,Kafe,PH Cafe  Resto,"Jl. Paniai, Koya Bar., Kec. Muara Tami, Kota Jayapura, Papua 99351","Koya Bar., Kec. Muara Tami, Kota Jayapura",PAPUA,99351.0,Indonesia,81247674929.0,-2.6725912,140.8041209,https://maps.google.com/?cid=0x0:0xfad0a53d510b188f
cafe,Kafe,Saanjh Cafe,"CJ2G+C7W, Jl. Gelanggang Remaja, Waena, Kec. Heram, Kota Jayapura, Papua 99351","Jl. Gelanggang Remaja, Waena, Kec. Heram, Kota Jayapura",PAPUA,99351.0,Indonesia,,-2.5988941,140.6256974,https://maps.google.com/?cid=0x0:0xf472b389c2309050
cafe,Kedai Kopi,NAY'Z Coffee,"8RJW+XH7, Jl. Cempedak 1, Koya Tim., Kec. Muara Tami, Kota Jayapura, Papua 99351","Jl. Cempedak 1, Koya Tim., Kec. Muara Tami, Kota Jayapura",PAPUA,99351.0,Indonesia,,-2.6675848,140.8464375,https://maps.google.com/?cid=0x0:0xe57e643ab4208ee0
cafe,Kedai Kopi,Cafe Arsyila,"8RH3+2P4, Jl. Paniai, Koya Bar., Kec. Muara Tami, Kota Jayapura, Papua 99351","Jl. Paniai, Koya Bar., Kec. Muara Tami, Kota Jayapura",PAPUA,99351.0,Indonesia,,-2.672476,140.804319,https://maps.google.com/?cid=0x0:0x387fee4cc07d271c
cafe,Kedai Kopi,Cafe Isasai,"Danau Sentani, Kp. Waena, Kec. Heram, Kota Jayapura, Papua 99351","Kp. Waena, Kec. Heram, Kota Jayapura",PAPUA,99351.0,Indonesia,,-2.598538,140.6244014,https://maps.google.com/?cid=0x0:0xc37a24107e869a96
cafe,Restoran,Raftel Cafe Jayapura,"9MPC+84Q, Jl. Gerilyawan, Yobe, Kec. Abepura, Kota Jayapura, Papua 99351","Jl. Gerilyawan, Yobe, Kec. Abepura, Kota Jayapura",PAPUA,99351.0,Indonesia,,-2.6141741,140.6703722,https://maps.google.com/?cid=0x0:0x22b32b53b260031b
cafe,Kafe,SIGMA Barbershop  Coffee Koya,"Jl. Poros, Koya Bar., Kec. Muara Tami, Kota Jayapura, Papua 99351","Koya Bar., Kec. Muara Tami, Kota Jayapura",PAPUA,99351.0,Indonesia,82198631957.0,-2.64714,140.8057925,https://maps.google.com/?cid=0x0:0xf874df7ece673ec2
cafe,Kedai Kopi,CEA Cafe,"8RG8+CMG, Jl. Swakarsa, Koya Bar., Kec. Muara Tami, Kota Jayapura, Papua 99351","Jl. Swakarsa, Koya Bar., Kec. Muara Tami, Kota Jayapura",PAPUA,99351.0,Indonesia,82248264963.0,-2.6739329,140.8167062,https://maps.google.com/?cid=0x0:0x9562edc031826256
cafe,Kafe,Kamsia Boba,"Unnamed Road, Koya Tengah, Kec. Muara Tami, Kota Jayapura, Papua 99351","Koya Tengah, Kec. Muara Tami, Kota Jayapura",PAPUA,99351.0,Indonesia,,-2.6448612,140.8059234,https://maps.google.com/?cid=0x0:0x5c37ee4ee0dfd826
cafe,Mesin Sangrai Kopi,Highland Roastery,"Jl. Yoka Pantai, Yoka, Kec. Heram, Kota Jayapura, Papua 99351","Yoka, Kec. Heram, Kota Jayapura",PAPUA,99351.0,Indonesia,82199253560.0,-2.6006245,140.6325081,https://maps.google.com/?cid=0x0:0x351b1a484bbe3165
cafe,cafe,Kec. Heram,"Kota Jayapura, Papua","Kota Jayapura, Papua",PAPUA,,Indonesia,,-2.5968715,140.6349408,https://maps.google.com/?cid=0x0:0xae4be183bc9835dc
cafe,Kafe,Saanjh Cafe,"CJ2G+C7W, Jl. Gelanggang Remaja, Waena, Kec. Heram, Kota Jayapura, Papua 99351","Jl. Gelanggang Remaja, Waena, Kec. Heram, Kota Jayapura",PAPUA,99351.0,Indonesia,,-2.5988941,140.6256974,https://maps.google.com/?cid=0x0:0xf472b389c2309050
cafe,Kedai Kopi,Kafe Phondabee,"Jl. Raya Sentani, Kp. Waena, Kec. Heram, Kota Jayapura, Papua 99351","Kp. Waena, Kec. Heram, Kota Jayapura",PAPUA,99351.0,Indonesia,81344479210.0,-2.5946227,140.6289201,https://maps.google.com/?cid=0x0:0x90b00c77a14ee94b
cafe,Manado,Ayumi Cafe,"CJ2P+X2P, Waena, Kec. Heram, Kota Jayapura, Papua 99351","Waena, Kec. Heram, Kota Jayapura",PAPUA,99351.0,Indonesia,81344679699.0,-2.5975436,140.6350761,https://maps.google.com/?cid=0x0:0x3e8481f5ab3f0d78
cafe,Kafe,Tana Papua Coffee and Roastery,"Jl. Raya Abepura, Vim, Kec. Abepura, Kota Jayapura, Papua 99220","Vim, Kec. Abepura, Kota Jayapura",PAPUA,99220.0,Indonesia,82175416609.0,-2.6047712,140.6727079,https://maps.google.com/?cid=0x0:0x747c727d4b94ebf6
cafe,Kedai Kopi,Cafe Isasai,"Danau Sentani, Kp. Waena, Kec. Heram, Kota Jayapura, Papua 99351","Kp. Waena, Kec. Heram, Kota Jayapura",PAPUA,99351.0,Indonesia,,-2.598538,140.6244014,https://maps.google.com/?cid=0x0:0xc37a24107e869a96
cafe,Rumah Makan,DapurQu Heram,"Belakang SMP N 11, Jl. Rajawali Jl. Kambolker Perumnas III No.88, Kp. Waena, Kec. Heram, Kota Jayapura, Papua 99351","Jl. Rajawali Jl. Kambolker Perumnas III No.88, Kp. Waena, Kec. Heram, Kota Jayapura",PAPUA,99351.0,Indonesia,85244694186.0,-2.5828415,140.6452014,https://maps.google.com/?cid=0x0:0x746b07724a11e20c
cafe,Kafe,SundShine Cafe  Library,"Yabansai, Kec. Heram, Kota Jayapura, Papua 99225","Kec. Heram, Kota Jayapura",PAPUA,99225.0,Indonesia,8114814415.0,-2.5931544,140.6408539,https://maps.google.com/?cid=0x0:0x3cef08c39a5b2d2b
cafe,Toko Roti,So Yummy Bakery  Cafe,"9JVX+7M3, Jl. Sosial Padang Bulan, Hedam, Kec. Heram, Kota Jayapura, Papua 99351","Jl. Sosial Padang Bulan, Hedam, Kec. Heram, Kota Jayapura",PAPUA,99351.0,Indonesia,,-2.606871,140.6491648,https://maps.google.com/?cid=0x0:0x13d87aab4db7fae
cafe,Kafe,REDZONE COFFEE,"CJ7R+3P5, Jl. Kambolker Perumnas III, Yabansai, Kec. Heram, Kota Jayapura, Papua 99225","Jl. Kambolker Perumnas III, Yabansai, Kec. Heram, Kota Jayapura",PAPUA,99225.0,Indonesia,,-2.5873573,140.6418731,https://maps.google.com/?cid=0x0:0xb1eceb62f48e3ee3
cafe,Kafe,Kedai ORMOE,"Jl. Raya Abepura - Sentani No.67, Hedam, Kec. Heram, Kota Jayapura, Papua 99351","Hedam, Kec. Heram, Kota Jayapura",PAPUA,99351.0,Indonesia,82398828715.0,-2.605448,140.644274,https://maps.google.com/?cid=0x0:0x69f6d880a09139db
cafe,Kedai Kopi,D'lord Cafe,"CM32+2W7, Hedam, Kec. Heram, Kota Jayapura, Papua 99225","Hedam, Kec. Heram, Kota Jayapura",PAPUA,99225.0,Indonesia,,-2.5974659,140.6523119,https://maps.google.com/?cid=0x0:0xf23ed4fd9fa52c82
cafe,Kedai Kopi,Sarabba Super Mie Rebus,"9JWR+MVR, Hedam, Kec. Heram, Kota Jayapura, Papua 99351","Hedam, Kec. Heram, Kota Jayapura",PAPUA,99351.0,Indonesia,82287785590.0,-2.6032719,140.6421436,https://maps.google.com/?cid=0x0:0xcd65c6388c3e643b
hotel,hotel,Papua 99221,"Kota Jayapura, Papua","Kota Jayapura, Papua",PAPUA,,Indonesia,,-2.5407181,140.6638119,https://maps.google.com/?cid=0x0:0x22734bd942608dca
hotel,hotel,Hotel Sahid Papua,"Jl. Klp. 2 No.18, Entrop, Distrik Jayapura Selatan, Kota Jayapura, Papua 99221","Entrop, Distrik Jayapura Selatan, Kota Jayapura",PAPUA,99221.0,Indonesia,8114814009.0,-2.5661461,140.6996539,https://maps.google.com/?cid=0x0:0x9c8a2fd141b3aa33
hotel,hotel,,,,PAPUA,,Indonesia,,,,https://maps.google.com/?cid=0x0:0x9c8a2fd141b3aa33%7C/g/11b73kkp76%7Cid-ID
hotel,hotel,Mercure Jayapura,"Jl. Ahmad Yani No.12, Gurabesi, Kec. Jayapura Utara, Kota Jayapura, Papua 99111","Gurabesi, Kec. Jayapura Utara, Kota Jayapura",PAPUA,99111.0,Indonesia,9675161888.0,-2.5425064,140.7031376,https://maps.google.com/?cid=0x0:0x228d0b2bb9d7838c
hotel,hotel,,,,PAPUA,,Indonesia,,,,https://maps.google.com/?cid=0x0:0x228d0b2bb9d7838c%7C/g/11fr6srn7h%7Cid-ID
hotel,hotel,"Swiss-Belhotel Jayapura, Papua","Pusat Bisnis Jayapura, Jl. Pacific Permai, Bayangkara, Kec. Jayapura Utara, Kota Jayapura, Papua 99112","Jl. Pacific Permai, Bayangkara, Kec. Jayapura Utara, Kota Jayapura",PAPUA,99112.0,Indonesia,967551888.0,-2.539046,140.711573,https://maps.google.com/?cid=0x0:0xbd14f75af0c6e48b
hotel,hotel,,,,PAPUA,,Indonesia,,,,https://maps.google.com/?cid=0x0:0xbd14f75af0c6e48b%7C/g/120xv389%7Cid-ID
hotel,hotel,ASTON Jayapura Hotel  Convention Center,"Jl. Percetakan Negara No.50 - 58, Gurabesi, Kec. Jayapura Utara, Kota Jayapura, Papua 99111","Gurabesi, Kec. Jayapura Utara, Kota Jayapura",PAPUA,99111.0,Indonesia,967537700.0,-2.5412731,140.7031631,https://maps.google.com/?cid=0x0:0x1a1d78b4fd358a65
hotel,hotel,,,,PAPUA,,Indonesia,,,,https://maps.google.com/?cid=0x0:0x1a1d78b4fd358a65%7C/g/1tctxpcc%7Cid-ID
hotel,hotel,,,,PAPUA,,Indonesia,,,,https://maps.google.com/?cid=0x0:0x80757dc95cf1b40f%7C/g/11xklhbdj%7Cid-ID
hotel,hotel,"Swiss-Belexpress Jayapura, Papua","Jl. Percetakan II No.2, Gurabesi, Kec. Jayapura Utara, Kota Jayapura, Papua 99111","Gurabesi, Kec. Jayapura Utara, Kota Jayapura",PAPUA,99111.0,Indonesia,82272727722.0,-2.5425313,140.7021858,https://maps.google.com/?cid=0x0:0x80757dc95cf1b40f
hotel,hotel,GOLDEN STYLE Hotel Jayapura,"Pusat Bisnis, Jl. Pacific Permai No.10-11 Blok C, Bayangkara, Kec. Jayapura Utara, Kota Jayapura, Papua 99110","Jl. Pacific Permai No.10-11 Blok C, Bayangkara, Kec. Jayapura Utara, Kota Jayapura",PAPUA,99110.0,Indonesia,811480388.0,-2.5377004,140.7104308,https://maps.google.com/?cid=0x0:0x15efde448a747754
hotel,hotel,Maxone Hotel Jayapura,"Jl. Percetakan Negara No.8, Gurabesi, Kec. Jayapura Utara, Kota Jayapura, Papua 99111","Gurabesi, Kec. Jayapura Utara, Kota Jayapura",PAPUA,99111.0,Indonesia,9675166111.0,-2.5401262,140.705014,https://maps.google.com/?cid=0x0:0xf6723813ba2c0961
hotel,hotel,Horison Ultima Entrop,"Jl. Klp. 2, Entrop, Distrik Jayapura Selatan, Kota Jayapura, Papua 99224","Entrop, Distrik Jayapura Selatan, Kota Jayapura",PAPUA,99224.0,Indonesia,82248288877.0,-2.5691415,140.7031448,https://maps.google.com/?cid=0x0:0x606edeb95bbfcc9f
hotel,hotel,Papua 99222,"Distrik Jayapura Selatan, Kota Jayapura, Papua","Kota Jayapura, Papua",PAPUA,,Indonesia,,-2.5518785,140.7027292,https://maps.google.com/?cid=0x0:0xaed95d497fc99440
hotel,hotel,Mercure Jayapura,"Jl. Ahmad Yani No.12, Gurabesi, Kec. Jayapura Utara, Kota Jayapura, Papua 99111","Gurabesi, Kec. Jayapura Utara, Kota Jayapura",PAPUA,99111.0,Indonesia,9675161888.0,-2.5425064,140.7031376,https://maps.google.com/?cid=0x0:0x228d0b2bb9d7838c
hotel,hotel,,,,PAPUA,,Indonesia,,,,https://maps.google.com/?cid=0x0:0x228d0b2bb9d7838c%7C/g/11fr6srn7h%7Cid-ID
hotel,hotel,,,,PAPUA,,Indonesia,,,,https://maps.google.com/?cid=0x0:0x1a1d78b4fd358a65%7C/g/1tctxpcc%7Cid-ID
hotel,hotel,,,,PAPUA,,Indonesia,,,,https://maps.google.com/?cid=0x0:0x80757dc95cf1b40f%7C/g/11xklhbdj%7Cid-ID
hotel,hotel,"Swiss-Belexpress Jayapura, Papua","Jl. Percetakan II No.2, Gurabesi, Kec. Jayapura Utara, Kota Jayapura, Papua 99111","Gurabesi, Kec. Jayapura Utara, Kota Jayapura",PAPUA,99111.0,Indonesia,82272727722.0,-2.5425313,140.7021858,https://maps.google.com/?cid=0x0:0x80757dc95cf1b40f
hotel,hotel,Maxone Hotel Jayapura,"Jl. Percetakan Negara No.8, Gurabesi, Kec. Jayapura Utara, Kota Jayapura, Papua 99111","Gurabesi, Kec. Jayapura Utara, Kota Jayapura",PAPUA,99111.0,Indonesia,9675166111.0,-2.5401262,140.705014,https://maps.google.com/?cid=0x0:0xf6723813ba2c0961
hotel,hotel,,,,PAPUA,,Indonesia,,,,https://maps.google.com/?cid=0x0:0xd6f39a8936229b37%7C/g/11jht6pnrl%7Cid-ID
hotel,hotel,FOX Hotel Jayapura,"Jl. Dr. Soetomo No.16, Gurabesi, Kec. Jayapura Utara, Kota Jayapura, Papua 99111","Gurabesi, Kec. Jayapura Utara, Kota Jayapura",PAPUA,99111.0,Indonesia,9675164888.0,-2.5446156,140.7012529,https://maps.google.com/?cid=0x0:0xd6f39a8936229b37
hotel,hotel,,,,PAPUA,,Indonesia,,,,https://maps.google.com/?cid=0x0:0x264fddf9f68e3b33%7C/g/12hl1k3bs%7Cid-ID
hotel,hotel,Hotel Jasmine Jayapura,"Jl. Percetakan Negara No.8, Gurabesi, Kec. Jayapura Utara, Kota Jayapura, Papua 99111","Gurabesi, Kec. Jayapura Utara, Kota Jayapura",PAPUA,99111.0,Indonesia,967533222.0,-2.5402997,140.704585,https://maps.google.com/?cid=0x0:0x264fddf9f68e3b33
hotel,hotel,,,,PAPUA,,Indonesia,,,,https://maps.google.com/?cid=0x0:0xbd14f75af0c6e48b%7C/g/120xv389%7Cid-ID
hotel,hotel,"Swiss-Belhotel Jayapura, Papua","Pusat Bisnis Jayapura, Jl. Pacific Permai, Bayangkara, Kec. Jayapura Utara, Kota Jayapura, Papua 99112","Jl. Pacific Permai, Bayangkara, Kec. Jayapura Utara, Kota Jayapura",PAPUA,99112.0,Indonesia,967551888.0,-2.539046,140.711573,https://maps.google.com/?cid=0x0:0xbd14f75af0c6e48b
hotel,hotel,Hotel Best Western Sagita Jayapura,"Jl. Klp. 2, Entrop, Distrik Jayapura Selatan, Kota Jayapura, Papua 99221","Entrop, Distrik Jayapura Selatan, Kota Jayapura",PAPUA,99221.0,Indonesia,9675166888.0,-2.5676407,140.7023793,https://maps.google.com/?cid=0x0:0x741f2100c3f7bc5a
hotel,hotel,Papua 99223,"Entrop, Distrik Jayapura Selatan, Kota Jayapura, Papua","Kota Jayapura, Papua",PAPUA,,Indonesia,,-2.5603966,140.6689995,https://maps.google.com/?cid=0x0:0xba9a08c8ddb16a58
hotel,hotel,,,,PAPUA,,Indonesia,,,,https://maps.google.com/?cid=0x0:0x9c8a2fd141b3aa33%7C/g/11b73kkp76%7Cid-ID
hotel,hotel,Hotel Sahid Papua,"Jl. Klp. 2 No.18, Entrop, Distrik Jayapura Selatan, Kota Jayapura, Papua 99221","Entrop, Distrik Jayapura Selatan, Kota Jayapura",PAPUA,99221.0,Indonesia,8114814009.0,-2.5661461,140.6996539,https://maps.google.com/?cid=0x0:0x9c8a2fd141b3aa33
hotel,hotel,Mercure Jayapura,"Jl. Ahmad Yani No.12, Gurabesi, Kec. Jayapura Utara, Kota Jayapura, Papua 99111","Gurabesi, Kec. Jayapura Utara, Kota Jayapura",PAPUA,99111.0,Indonesia,9675161888.0,-2.5425064,140.7031376,https://maps.google.com/?cid=0x0:0x228d0b2bb9d7838c
hotel,hotel,,,,PAPUA,,Indonesia,,,,https://maps.google.com/?cid=0x0:0x228d0b2bb9d7838c%7C/g/11fr6srn7h%7Cid-ID
hotel,hotel,Horison Ultima Entrop,"Jl. Klp. 2, Entrop, Distrik Jayapura Selatan, Kota Jayapura, Papua 99224","Entrop, Distrik Jayapura Selatan, Kota Jayapura",PAPUA,99224.0,Indonesia,82248288877.0,-2.5691415,140.7031448,https://maps.google.com/?cid=0x0:0x606edeb95bbfcc9f
hotel,hotel,ASTON Jayapura Hotel  Convention Center,"Jl. Percetakan Negara No.50 - 58, Gurabesi, Kec. Jayapura Utara, Kota Jayapura, Papua 99111","Gurabesi, Kec. Jayapura Utara, Kota Jayapura",PAPUA,99111.0,Indonesia,967537700.0,-2.5412731,140.7031631,https://maps.google.com/?cid=0x0:0x1a1d78b4fd358a65
hotel,hotel,Hotel New Season and Cafe,"Jl. Raya Abepura No.7, Entrop, Distrik Jayapura Selatan, Kota Jayapura, Papua 99223","Entrop, Distrik Jayapura Selatan, Kota Jayapura",PAPUA,99223.0,Indonesia,967533715.0,-2.5763222,140.6864142,https://maps.google.com/?cid=0x0:0x4528213be5051091
hotel,hotel,,,,PAPUA,,Indonesia,,,,https://maps.google.com/?cid=0x0:0x1a1d78b4fd358a65%7C/g/1tctxpcc%7Cid-ID
hotel,hotel,"Swiss-Belexpress Jayapura, Papua","Jl. Percetakan II No.2, Gurabesi, Kec. Jayapura Utara, Kota Jayapura, Papua 99111","Gurabesi, Kec. Jayapura Utara, Kota Jayapura",PAPUA,99111.0,Indonesia,82272727722.0,-2.5425313,140.7021858,https://maps.google.com/?cid=0x0:0x80757dc95cf1b40f
hotel,hotel,,,,PAPUA,,Indonesia,,,,https://maps.google.com/?cid=0x0:0x80757dc95cf1b40f%7C/g/11xklhbdj%7Cid-ID
hotel,hotel,,,,PAPUA,,Indonesia,,,,https://maps.google.com/?cid=0x0:0xd6f39a8936229b37%7C/g/11jht6pnrl%7Cid-ID
hotel,hotel,Maxone Hotel Jayapura,"Jl. Percetakan Negara No.8, Gurabesi, Kec. Jayapura Utara, Kota Jayapura, Papua 99111","Gurabesi, Kec. Jayapura Utara, Kota Jayapura",PAPUA,99111.0,Indonesia,9675166111.0,-2.5401262,140.705014,https://maps.google.com/?cid=0x0:0xf6723813ba2c0961
hotel,hotel,FOX Hotel Jayapura,"Jl. Dr. Soetomo No.16, Gurabesi, Kec. Jayapura Utara, Kota Jayapura, Papua 99111","Gurabesi, Kec. Jayapura Utara, Kota Jayapura",PAPUA,99111.0,Indonesia,9675164888.0,-2.5446156,140.7012529,https://maps.google.com/?cid=0x0:0xd6f39a8936229b37
hotel,hotel,Papua 99224,"Kota Jayapura, Papua","Kota Jayapura, Papua",PAPUA,,Indonesia,,-2.579706,140.6638119,https://maps.google.com/?cid=0x0:0x9db3c17a7f47219
hotel,hotel,Hotel Best Western Sagita Jayapura,"Jl. Klp. 2, Entrop, Distrik Jayapura Selatan, Kota Jayapura, Papua 99221","Entrop, Distrik Jayapura Selatan, Kota Jayapura",PAPUA,99221.0,Indonesia,9675166888.0,-2.5676407,140.7023793,https://maps.google.com/?cid=0x0:0x741f2100c3f7bc5a
hotel,hotel,Hotel Sahid Papua,"Jl. Klp. 2 No.18, Entrop, Distrik Jayapura Selatan, Kota Jayapura, Papua 99221","Entrop, Distrik Jayapura Selatan, Kota Jayapura",PAPUA,99221.0,Indonesia,8114814009.0,-2.5661461,140.6996539,https://maps.google.com/?cid=0x0:0x9c8a2fd141b3aa33
hotel,hotel,RAFA HOTEL,"9MXC+PQ7, Vim, Kec. Abepura, Kota Jayapura, Papua","Kota Jayapura, Papua",PAPUA,,Indonesia,,-2.6011488,140.6717368,https://maps.google.com/?cid=0x0:0x18c6cc75351cda98
hotel,hotel,Horison Ultima Entrop,"Jl. Klp. 2, Entrop, Distrik Jayapura Selatan, Kota Jayapura, Papua 99224","Entrop, Distrik Jayapura Selatan, Kota Jayapura",PAPUA,99224.0,Indonesia,82248288877.0,-2.5691415,140.7031448,https://maps.google.com/?cid=0x0:0x606edeb95bbfcc9f
hotel,hotel,Hotel Horison Kotaraja,"Jl. Raya Abepura No.80, Wai Mhorock, Kec. Abepura, Kota Jayapura, Papua 99221","Wai Mhorock, Kec. Abepura, Kota Jayapura",PAPUA,99221.0,Indonesia,,-2.6004891,140.676497,https://maps.google.com/?cid=0x0:0x928b6846e61f91de
hotel,hotel,,,,PAPUA,,Indonesia,,,,https://maps.google.com/?cid=0x0:0x928b6846e61f91de%7C/g/11flsv5z35%7Cid-ID
hotel,hotel,Grand ABE Hotel Jayapura,"Jl. Raya Abepura, Kotabaru, Kota Baru, Kec. Abepura, Kota Jayapura, Papua 99351","Kotabaru, Kota Baru, Kec. Abepura, Kota Jayapura",PAPUA,99351.0,Indonesia,8114825123.0,-2.6106174,140.6659805,https://maps.google.com/?cid=0x0:0xadc84ceab536f6a
hotel,hotel,Front One Budget Hotel,"Jl. Teruna Bhakti, Yabansai, Kec. Heram, Kota Jayapura, Papua 99351","Yabansai, Kec. Heram, Kota Jayapura",PAPUA,99351.0,Indonesia,8114707808.0,-2.5896396,140.6413153,https://maps.google.com/?cid=0x0:0x16b4d25d7d51567a
hotel,hotel,,,,PAPUA,,Indonesia,,,,https://maps.google.com/?cid=0x0:0xadc84ceab536f6a%7C/g/11btn18jtk%7Cid-ID
hotel,hotel,Hotel New Season and Cafe,"Jl. Raya Abepura No.7, Entrop, Distrik Jayapura Selatan, Kota Jayapura, Papua 99223","Entrop, Distrik Jayapura Selatan, Kota Jayapura",PAPUA,99223.0,Indonesia,967533715.0,-2.5763222,140.6864142,https://maps.google.com/?cid=0x0:0x4528213be5051091
hotel,hotel,Hotel Musi Entrop,"Entrop, Distrik Jayapura Selatan, Kota Jayapura, Papua 99221","Distrik Jayapura Selatan, Kota Jayapura",PAPUA,99221.0,Indonesia,895417300072.0,-2.5754909,140.6909951,https://maps.google.com/?cid=0x0:0x20e691e9ad57b566
hotel,hotel,Hotel Horison Abepura,"Jl. Raya Abepura - Sentani, Hedam, Kec. Heram, Kota Jayapura, Papua 99351","Hedam, Kec. Heram, Kota Jayapura",PAPUA,99351.0,Indonesia,8114915557.0,-2.6067187,140.6493524,https://maps.google.com/?cid=0x0:0xb60e7c638678e9e9
hotel,hotel,Hotel Suni Abepura,"Jl. Baru Ps. Lama Abepura, Wai Mhorock, Kec. Abepura, Kota Jayapura, Papua 99225","Wai Mhorock, Kec. Abepura, Kota Jayapura",PAPUA,99225.0,Indonesia,9675540888.0,-2.6085094,140.6741951,https://maps.google.com/?cid=0x0:0x53835df7d2648dc3
hotel,hotel,Papua 99225,"Kota Jayapura, Papua","Kota Jayapura, Papua",PAPUA,,Indonesia,,-2.5949282,140.653438,https://maps.google.com/?cid=0x0:0x21414c78014e775a
hotel,hotel,Grand ABE Hotel Jayapura,"Jl. Raya Abepura, Kotabaru, Kota Baru, Kec. Abepura, Kota Jayapura, Papua 99351","Kotabaru, Kota Baru, Kec. Abepura, Kota Jayapura",PAPUA,99351.0,Indonesia,8114825123.0,-2.6106174,140.6659805,https://maps.google.com/?cid=0x0:0xadc84ceab536f6a
hotel,hotel,,,,PAPUA,,Indonesia,,,,https://maps.google.com/?cid=0x0:0xadc84ceab536f6a%7C/g/11btn18jtk%7Cid-ID
hotel,hotel,Hotel Suni Abepura,"Jl. Baru Ps. Lama Abepura, Wai Mhorock, Kec. Abepura, Kota Jayapura, Papua 99225","Wai Mhorock, Kec. Abepura, Kota Jayapura",PAPUA,99225.0,Indonesia,9675540888.0,-2.6085094,140.6741951,https://maps.google.com/?cid=0x0:0x53835df7d2648dc3
hotel,hotel,,,,PAPUA,,Indonesia,,,,https://maps.google.com/?cid=0x0:0x928b6846e61f91de%7C/g/11flsv5z35%7Cid-ID
hotel,hotel,RAFA HOTEL,"9MXC+PQ7, Vim, Kec. Abepura, Kota Jayapura, Papua","Kota Jayapura, Papua",PAPUA,,Indonesia,,-2.6011488,140.6717368,https://maps.google.com/?cid=0x0:0x18c6cc75351cda98
hotel,hotel,Hotel Horison Kotaraja,"Jl. Raya Abepura No.80, Wai Mhorock, Kec. Abepura, Kota Jayapura, Papua 99221","Wai Mhorock, Kec. Abepura, Kota Jayapura",PAPUA,99221.0,Indonesia,,-2.6004891,140.676497,https://maps.google.com/?cid=0x0:0x928b6846e61f91de
hotel,hotel,Front One Budget Hotel,"Jl. Teruna Bhakti, Yabansai, Kec. Heram, Kota Jayapura, Papua 99351","Yabansai, Kec. Heram, Kota Jayapura",PAPUA,99351.0,Indonesia,8114707808.0,-2.5896396,140.6413153,https://maps.google.com/?cid=0x0:0x16b4d25d7d51567a
hotel,hotel,,,,PAPUA,,Indonesia,,,,https://maps.google.com/?cid=0x0:0x5a25068c30daecb0%7C/g/11bx0dndr2%7Cid-ID
hotel,hotel,Citihub Hotel,"Wai Mhorock, Abepura, Kota Jayapura, Papua 99225, Wai Mhorock, Kec. Abepura, Kota Jayapura, Papua 99552","Abepura, Kota Jayapura, Papua",PAPUA,99225.0,Indonesia,9675180123.0,-2.6081763,140.6741417,https://maps.google.com/?cid=0x0:0x5a25068c30daecb0
hotel,hotel,HOTEL PARKSIDE WAENA,"Jl. Raya Waena, Kp. Waena, Kec. Abepura, Kota Jayapura, Papua 99532","Kp. Waena, Kec. Abepura, Kota Jayapura",PAPUA,99532.0,Indonesia,8114829200.0,-2.5965369,140.6348713,https://maps.google.com/?cid=0x0:0xeecc070595c2799f
hotel,hotel,Homestay Galpera Papua,"Yabansai, Kec. Heram, Kota Jayapura, Papua 99225","Kec. Heram, Kota Jayapura",PAPUA,99225.0,Indonesia,82398738885.0,-2.5925929,140.6389683,https://maps.google.com/?cid=0x0:0x14836218d55585f8
hotel,hotel,Hotel Gamalama,"9MP9+G56, Jl. Gerilyawan, Yobe, Kec. Abepura, Kota Jayapura, Papua 99351","Jl. Gerilyawan, Yobe, Kec. Abepura, Kota Jayapura",PAPUA,99351.0,Indonesia,85337358893.0,-2.6137021,140.6678935,https://maps.google.com/?cid=0x0:0xf95001e3d53d211
hotel,hotel,Hotel Grand Talent Abepura,"9MV9+2QG, Jl. Kotaraja Grand, Wai Mhorock, Kec. Abepura, Kota Jayapura, Papua 99225","Jl. Kotaraja Grand, Wai Mhorock, Kec. Abepura, Kota Jayapura",PAPUA,99225.0,Indonesia,,-2.6074405,140.6694657,https://maps.google.com/?cid=0x0:0x589d02bf475f9068
hotel,hotel,Papua 99226,"Wahno, Kec. Abepura, Kota Jayapura, Papua","Kota Jayapura, Papua",PAPUA,,Indonesia,,-2.5940542,140.6740309,https://maps.google.com/?cid=0x0:0xfee9da6af66c7cd1
hotel,hotel,ASTON Jayapura Hotel  Convention Center,"Jl. Percetakan Negara No.50 - 58, Gurabesi, Kec. Jayapura Utara, Kota Jayapura, Papua 99111","Gurabesi, Kec. Jayapura Utara, Kota Jayapura",PAPUA,99111.0,Indonesia,967537700.0,-2.5412731,140.7031631,https://maps.google.com/?cid=0x0:0x1a1d78b4fd358a65
hotel,hotel,Mercure Jayapura,"Jl. Ahmad Yani No.12, Gurabesi, Kec. Jayapura Utara, Kota Jayapura, Papua 99111","Gurabesi, Kec. Jayapura Utara, Kota Jayapura",PAPUA,99111.0,Indonesia,9675161888.0,-2.5425064,140.7031376,https://maps.google.com/?cid=0x0:0x228d0b2bb9d7838c
hotel,hotel,RAFA HOTEL,"9MXC+PQ7, Vim, Kec. Abepura, Kota Jayapura, Papua","Kota Jayapura, Papua",PAPUA,,Indonesia,,-2.6011488,140.6717368,https://maps.google.com/?cid=0x0:0x18c6cc75351cda98
hotel,hotel,,,,PAPUA,,Indonesia,,,,https://maps.google.com/?cid=0x0:0x928b6846e61f91de%7C/g/11flsv5z35%7Cid-ID
hotel,hotel,Grand ABE Hotel Jayapura,"Jl. Raya Abepura, Kotabaru, Kota Baru, Kec. Abepura, Kota Jayapura, Papua 99351","Kotabaru, Kota Baru, Kec. Abepura, Kota Jayapura",PAPUA,99351.0,Indonesia,8114825123.0,-2.6106174,140.6659805,https://maps.google.com/?cid=0x0:0xadc84ceab536f6a
hotel,hotel,,,,PAPUA,,Indonesia,,,,https://maps.google.com/?cid=0x0:0xadc84ceab536f6a%7C/g/11btn18jtk%7Cid-ID
hotel,hotel,Hotel Sahid Papua,"Jl. Klp. 2 No.18, Entrop, Distrik Jayapura Selatan, Kota Jayapura, Papua 99221","Entrop, Distrik Jayapura Selatan, Kota Jayapura",PAPUA,99221.0,Indonesia,8114814009.0,-2.5661461,140.6996539,https://maps.google.com/?cid=0x0:0x9c8a2fd141b3aa33
hotel,hotel,,,,PAPUA,,Indonesia,,,,https://maps.google.com/?cid=0x0:0x9c8a2fd141b3aa33%7C/g/11b73kkp76%7Cid-ID
hotel,hotel,Hotel Best Western Sagita Jayapura,"Jl. Klp. 2, Entrop, Distrik Jayapura Selatan, Kota Jayapura, Papua 99221","Entrop, Distrik Jayapura Selatan, Kota Jayapura",PAPUA,99221.0,Indonesia,9675166888.0,-2.5676407,140.7023793,https://maps.google.com/?cid=0x0:0x741f2100c3f7bc5a
hotel,hotel,Hotel Suni Abepura,"Jl. Baru Ps. Lama Abepura, Wai Mhorock, Kec. Abepura, Kota Jayapura, Papua 99225","Wai Mhorock, Kec. Abepura, Kota Jayapura",PAPUA,99225.0,Indonesia,9675540888.0,-2.6085094,140.6741951,https://maps.google.com/?cid=0x0:0x53835df7d2648dc3
hotel,hotel,,,,PAPUA,,Indonesia,,,,https://maps.google.com/?cid=0x0:0x5a25068c30daecb0%7C/g/11bx0dndr2%7Cid-ID
hotel,hotel,Citihub Hotel,"Wai Mhorock, Abepura, Kota Jayapura, Papua 99225, Wai Mhorock, Kec. Abepura, Kota Jayapura, Papua 99552","Abepura, Kota Jayapura, Papua",PAPUA,99225.0,Indonesia,9675180123.0,-2.6081763,140.6741417,https://maps.google.com/?cid=0x0:0x5a25068c30daecb0
hotel,hotel,Horison Ultima Entrop,"Jl. Klp. 2, Entrop, Distrik Jayapura Selatan, Kota Jayapura, Papua 99224","Entrop, Distrik Jayapura Selatan, Kota Jayapura",PAPUA,99224.0,Indonesia,82248288877.0,-2.5691415,140.7031448,https://maps.google.com/?cid=0x0:0x606edeb95bbfcc9f
hotel,hotel,Papua 99111,"Kec. Jayapura Utara, Kota Jayapura, Papua","Kota Jayapura, Papua",PAPUA,,Indonesia,,-2.5084418,140.6326954,https://maps.google.com/?cid=0x0:0xdf06080a6648cb6c
hotel,hotel,ASTON Jayapura Hotel  Convention Center,"Jl. Percetakan Negara No.50 - 58, Gurabesi, Kec. Jayapura Utara, Kota Jayapura, Papua 99111","Gurabesi, Kec. Jayapura Utara, Kota Jayapura",PAPUA,99111.0,Indonesia,967537700.0,-2.5412731,140.7031631,https://maps.google.com/?cid=0x0:0x1a1d78b4fd358a65
hotel,hotel,,,,PAPUA,,Indonesia,,,,https://maps.google.com/?cid=0x0:0x1a1d78b4fd358a65%7C/g/1tctxpcc%7Cid-ID
hotel,hotel,,,,PAPUA,,Indonesia,,,,https://maps.google.com/?cid=0x0:0x228d0b2bb9d7838c%7C/g/11fr6srn7h%7Cid-ID
hotel,hotel,Hotel Jasmine Jayapura,"Jl. Percetakan Negara No.8, Gurabesi, Kec. Jayapura Utara, Kota Jayapura, Papua 99111","Gurabesi, Kec. Jayapura Utara, Kota Jayapura",PAPUA,99111.0,Indonesia,967533222.0,-2.5402997,140.704585,https://maps.google.com/?cid=0x0:0x264fddf9f68e3b33
hotel,hotel,Maxone Hotel Jayapura,"Jl. Percetakan Negara No.8, Gurabesi, Kec. Jayapura Utara, Kota Jayapura, Papua 99111","Gurabesi, Kec. Jayapura Utara, Kota Jayapura",PAPUA,99111.0,Indonesia,9675166111.0,-2.5401262,140.705014,https://maps.google.com/?cid=0x0:0xf6723813ba2c0961
hotel,hotel,GOLDEN STYLE Hotel Jayapura,"Pusat Bisnis, Jl. Pacific Permai No.10-11 Blok C, Bayangkara, Kec. Jayapura Utara, Kota Jayapura, Papua 99110","Jl. Pacific Permai No.10-11 Blok C, Bayangkara, Kec. Jayapura Utara, Kota Jayapura",PAPUA,99110.0,Indonesia,811480388.0,-2.5377004,140.7104308,https://maps.google.com/?cid=0x0:0x15efde448a747754
hotel,hotel,"Swiss-Belexpress Jayapura, Papua","Jl. Percetakan II No.2, Gurabesi, Kec. Jayapura Utara, Kota Jayapura, Papua 99111","Gurabesi, Kec. Jayapura Utara, Kota Jayapura",PAPUA,99111.0,Indonesia,82272727722.0,-2.5425313,140.7021858,https://maps.google.com/?cid=0x0:0x80757dc95cf1b40f
hotel,hotel,,,,PAPUA,,Indonesia,,,,https://maps.google.com/?cid=0x0:0x264fddf9f68e3b33%7C/g/12hl1k3bs%7Cid-ID
hotel,hotel,,,,PAPUA,,Indonesia,,,,https://maps.google.com/?cid=0x0:0x80757dc95cf1b40f%7C/g/11xklhbdj%7Cid-ID
hotel,hotel,Front One Hotel Jayapura,"Kompleks Ruko Jayapura, Jl. Pacific Permai No.C 39, Bayangkara, Kec. Jayapura Utara, Kota Jayapura, Papua 99111","Jl. Pacific Permai No.C 39, Bayangkara, Kec. Jayapura Utara, Kota Jayapura",PAPUA,99111.0,Indonesia,8114802000.0,-2.5381168,140.7118967,https://maps.google.com/?cid=0x0:0x797c69e00bad39f2
hotel,hotel,,,,PAPUA,,Indonesia,,,,https://maps.google.com/?cid=0x0:0x797c69e00bad39f2%7C/g/11dxhdlfs3%7Cid-ID
hotel,hotel,"Swiss-Belhotel Jayapura, Papua","Pusat Bisnis Jayapura, Jl. Pacific Permai, Bayangkara, Kec. Jayapura Utara, Kota Jayapura, Papua 99112","Jl. Pacific Permai, Bayangkara, Kec. Jayapura Utara, Kota Jayapura",PAPUA,99112.0,Indonesia,967551888.0,-2.539046,140.711573,https://maps.google.com/?cid=0x0:0xbd14f75af0c6e48b
hotel,hotel,,,,PAPUA,,Indonesia,,,,https://maps.google.com/?cid=0x0:0xbd14f75af0c6e48b%7C/g/120xv389%7Cid-ID
hotel,hotel,"Swiss-Belhotel Jayapura, Papua","Pusat Bisnis Jayapura, Jl. Pacific Permai, Bayangkara, Kec. Jayapura Utara, Kota Jayapura, Papua 99112","Jl. Pacific Permai, Bayangkara, Kec. Jayapura Utara, Kota Jayapura",PAPUA,99112.0,Indonesia,967551888.0,-2.539046,140.711573,https://maps.google.com/?cid=0x0:0xbd14f75af0c6e48b
hotel,hotel,Papua 99112,"Bayangkara, Kec. Jayapura Utara, Kota Jayapura, Papua","Kota Jayapura, Papua",PAPUA,,Indonesia,,-2.5099296,140.6741875,https://maps.google.com/?cid=0x0:0x1e30ed7c2a61f1f1
hotel,hotel,,,,PAPUA,,Indonesia,,,,https://maps.google.com/?cid=0x0:0x1a1d78b4fd358a65%7C/g/1tctxpcc%7Cid-ID
hotel,hotel,Mercure Jayapura,"Jl. Ahmad Yani No.12, Gurabesi, Kec. Jayapura Utara, Kota Jayapura, Papua 99111","Gurabesi, Kec. Jayapura Utara, Kota Jayapura",PAPUA,99111.0,Indonesia,9675161888.0,-2.5425064,140.7031376,https://maps.google.com/?cid=0x0:0x228d0b2bb9d7838c
hotel,hotel,,,,PAPUA,,Indonesia,,,,https://maps.google.com/?cid=0x0:0xbd14f75af0c6e48b%7C/g/120xv389%7Cid-ID
hotel,hotel,,,,PAPUA,,Indonesia,,,,https://maps.google.com/?cid=0x0:0x228d0b2bb9d7838c%7C/g/11fr6srn7h%7Cid-ID
hotel,hotel,Maxone Hotel Jayapura,"Jl. Percetakan Negara No.8, Gurabesi, Kec. Jayapura Utara, Kota Jayapura, Papua 99111","Gurabesi, Kec. Jayapura Utara, Kota Jayapura",PAPUA,99111.0,Indonesia,9675166111.0,-2.5401262,140.705014,https://maps.google.com/?cid=0x0:0xf6723813ba2c0961
hotel,hotel,GOLDEN STYLE Hotel Jayapura,"Pusat Bisnis, Jl. Pacific Permai No.10-11 Blok C, Bayangkara, Kec. Jayapura Utara, Kota Jayapura, Papua 99110","Jl. Pacific Permai No.10-11 Blok C, Bayangkara, Kec. Jayapura Utara, Kota Jayapura",PAPUA,99110.0,Indonesia,811480388.0,-2.5377004,140.7104308,https://maps.google.com/?cid=0x0:0x15efde448a747754
hotel,hotel,,,,PAPUA,,Indonesia,,,,https://maps.google.com/?cid=0x0:0x264fddf9f68e3b33%7C/g/12hl1k3bs%7Cid-ID
hotel,hotel,"Swiss-Belexpress Jayapura, Papua","Jl. Percetakan II No.2, Gurabesi, Kec. Jayapura Utara, Kota Jayapura, Papua 99111","Gurabesi, Kec. Jayapura Utara, Kota Jayapura",PAPUA,99111.0,Indonesia,82272727722.0,-2.5425313,140.7021858,https://maps.google.com/?cid=0x0:0x80757dc95cf1b40f
hotel,hotel,Hotel Jasmine Jayapura,"Jl. Percetakan Negara No.8, Gurabesi, Kec. Jayapura Utara, Kota Jayapura, Papua 99111","Gurabesi, Kec. Jayapura Utara, Kota Jayapura",PAPUA,99111.0,Indonesia,967533222.0,-2.5402997,140.704585,https://maps.google.com/?cid=0x0:0x264fddf9f68e3b33
hotel,hotel,,,,PAPUA,,Indonesia,,,,https://maps.google.com/?cid=0x0:0x80757dc95cf1b40f%7C/g/11xklhbdj%7Cid-ID
hotel,hotel,Front One Hotel Jayapura,"Kompleks Ruko Jayapura, Jl. Pacific Permai No.C 39, Bayangkara, Kec. Jayapura Utara, Kota Jayapura, Papua 99111","Jl. Pacific Permai No.C 39, Bayangkara, Kec. Jayapura Utara, Kota Jayapura",PAPUA,99111.0,Indonesia,8114802000.0,-2.5381168,140.7118967,https://maps.google.com/?cid=0x0:0x797c69e00bad39f2
hotel,hotel,,,,PAPUA,,Indonesia,,,,https://maps.google.com/?cid=0x0:0x797c69e00bad39f2%7C/g/11dxhdlfs3%7Cid-ID
hotel,hotel,Papua 99113,"Kec. Jayapura Utara, Kota Jayapura, Papua","Kota Jayapura, Papua",PAPUA,,Indonesia,,-2.4943571,140.6741875,https://maps.google.com/?cid=0x0:0x4a109ffe0e6c7e65
hotel,hotel,,,,PAPUA,,Indonesia,,,,https://maps.google.com/?cid=0x0:0x228d0b2bb9d7838c%7C/g/11fr6srn7h%7Cid-ID
hotel,hotel,Mercure Jayapura,"Jl. Ahmad Yani No.12, Gurabesi, Kec. Jayapura Utara, Kota Jayapura, Papua 99111","Gurabesi, Kec. Jayapura Utara, Kota Jayapura",PAPUA,99111.0,Indonesia,9675161888.0,-2.5425064,140.7031376,https://maps.google.com/?cid=0x0:0x228d0b2bb9d7838c
hotel,hotel,,,,PAPUA,,Indonesia,,,,https://maps.google.com/?cid=0x0:0x264fddf9f68e3b33%7C/g/12hl1k3bs%7Cid-ID
hotel,hotel,Hotel Jasmine Jayapura,"Jl. Percetakan Negara No.8, Gurabesi, Kec. Jayapura Utara, Kota Jayapura, Papua 99111","Gurabesi, Kec. Jayapura Utara, Kota Jayapura",PAPUA,99111.0,Indonesia,967533222.0,-2.5402997,140.704585,https://maps.google.com/?cid=0x0:0x264fddf9f68e3b33
hotel,hotel,ASTON Jayapura Hotel  Convention Center,"Jl. Percetakan Negara No.50 - 58, Gurabesi, Kec. Jayapura Utara, Kota Jayapura, Papua 99111","Gurabesi, Kec. Jayapura Utara, Kota Jayapura",PAPUA,99111.0,Indonesia,967537700.0,-2.5412731,140.7031631,https://maps.google.com/?cid=0x0:0x1a1d78b4fd358a65
hotel,hotel,,,,PAPUA,,Indonesia,,,,https://maps.google.com/?cid=0x0:0x1a1d78b4fd358a65%7C/g/1tctxpcc%7Cid-ID
hotel,hotel,,,,PAPUA,,Indonesia,,,,https://maps.google.com/?cid=0x0:0xbd14f75af0c6e48b%7C/g/120xv389%7Cid-ID
hotel,hotel,"Swiss-Belhotel Jayapura, Papua","Pusat Bisnis Jayapura, Jl. Pacific Permai, Bayangkara, Kec. Jayapura Utara, Kota Jayapura, Papua 99112","Jl. Pacific Permai, Bayangkara, Kec. Jayapura Utara, Kota Jayapura",PAPUA,99112.0,Indonesia,967551888.0,-2.539046,140.711573,https://maps.google.com/?cid=0x0:0xbd14f75af0c6e48b
hotel,hotel,"Swiss-Belexpress Jayapura, Papua","Jl. Percetakan II No.2, Gurabesi, Kec. Jayapura Utara, Kota Jayapura, Papua 99111","Gurabesi, Kec. Jayapura Utara, Kota Jayapura",PAPUA,99111.0,Indonesia,82272727722.0,-2.5425313,140.7021858,https://maps.google.com/?cid=0x0:0x80757dc95cf1b40f
hotel,hotel,,,,PAPUA,,Indonesia,,,,https://maps.google.com/?cid=0x0:0x80757dc95cf1b40f%7C/g/11xklhbdj%7Cid-ID
hotel,hotel,Maxone Hotel Jayapura,"Jl. Percetakan Negara No.8, Gurabesi, Kec. Jayapura Utara, Kota Jayapura, Papua 99111","Gurabesi, Kec. Jayapura Utara, Kota Jayapura",PAPUA,99111.0,Indonesia,9675166111.0,-2.5401262,140.705014,https://maps.google.com/?cid=0x0:0xf6723813ba2c0961
hotel,hotel,Hotel Best Western Sagita Jayapura,"Jl. Klp. 2, Entrop, Distrik Jayapura Selatan, Kota Jayapura, Papua 99221","Entrop, Distrik Jayapura Selatan, Kota Jayapura",PAPUA,99221.0,Indonesia,9675166888.0,-2.5676407,140.7023793,https://maps.google.com/?cid=0x0:0x741f2100c3f7bc5a
hotel,hotel,Front One Hotel Jayapura,"Kompleks Ruko Jayapura, Jl. Pacific Permai No.C 39, Bayangkara, Kec. Jayapura Utara, Kota Jayapura, Papua 99111","Jl. Pacific Permai No.C 39, Bayangkara, Kec. Jayapura Utara, Kota Jayapura",PAPUA,99111.0,Indonesia,8114802000.0,-2.5381168,140.7118967,https://maps.google.com/?cid=0x0:0x797c69e00bad39f2
hotel,hotel,Papua 99114,"Kec. Jayapura Utara, Kabupaten Jayawijaya, Papua","Kabupaten Jayawijaya, Papua",PAPUA,,Indonesia,,-2.5167961,140.7027292,https://maps.google.com/?cid=0x0:0xfbf882c9b5d1cad7
hotel,hotel,GOLDEN STYLE Hotel Jayapura,"Pusat Bisnis, Jl. Pacific Permai No.10-11 Blok C, Bayangkara, Kec. Jayapura Utara, Kota Jayapura, Papua 99110","Jl. Pacific Permai No.10-11 Blok C, Bayangkara, Kec. Jayapura Utara, Kota Jayapura",PAPUA,99110.0,Indonesia,811480388.0,-2.5377004,140.7104308,https://maps.google.com/?cid=0x0:0x15efde448a747754
hotel,hotel,Maxone Hotel Jayapura,"Jl. Percetakan Negara No.8, Gurabesi, Kec. Jayapura Utara, Kota Jayapura, Papua 99111","Gurabesi, Kec. Jayapura Utara, Kota Jayapura",PAPUA,99111.0,Indonesia,9675166111.0,-2.5401262,140.705014,https://maps.google.com/?cid=0x0:0xf6723813ba2c0961
hotel,hotel,Mercure Jayapura,"Jl. Ahmad Yani No.12, Gurabesi, Kec. Jayapura Utara, Kota Jayapura, Papua 99111","Gurabesi, Kec. Jayapura Utara, Kota Jayapura",PAPUA,99111.0,Indonesia,9675161888.0,-2.5425064,140.7031376,https://maps.google.com/?cid=0x0:0x228d0b2bb9d7838c
hotel,hotel,"Swiss-Belhotel Jayapura, Papua","Pusat Bisnis Jayapura, Jl. Pacific Permai, Bayangkara, Kec. Jayapura Utara, Kota Jayapura, Papua 99112","Jl. Pacific Permai, Bayangkara, Kec. Jayapura Utara, Kota Jayapura",PAPUA,99112.0,Indonesia,967551888.0,-2.539046,140.711573,https://maps.google.com/?cid=0x0:0xbd14f75af0c6e48b
hotel,hotel,Hotel Jasmine Jayapura,"Jl. Percetakan Negara No.8, Gurabesi, Kec. Jayapura Utara, Kota Jayapura, Papua 99111","Gurabesi, Kec. Jayapura Utara, Kota Jayapura",PAPUA,99111.0,Indonesia,967533222.0,-2.5402997,140.704585,https://maps.google.com/?cid=0x0:0x264fddf9f68e3b33
hotel,hotel,,,,PAPUA,,Indonesia,,,,https://maps.google.com/?cid=0x0:0xbd14f75af0c6e48b%7C/g/120xv389%7Cid-ID
hotel,hotel,,,,PAPUA,,Indonesia,,,,https://maps.google.com/?cid=0x0:0x264fddf9f68e3b33%7C/g/12hl1k3bs%7Cid-ID
hotel,hotel,,,,PAPUA,,Indonesia,,,,https://maps.google.com/?cid=0x0:0x1a1d78b4fd358a65%7C/g/1tctxpcc%7Cid-ID
hotel,hotel,ASTON Jayapura Hotel  Convention Center,"Jl. Percetakan Negara No.50 - 58, Gurabesi, Kec. Jayapura Utara, Kota Jayapura, Papua 99111","Gurabesi, Kec. Jayapura Utara, Kota Jayapura",PAPUA,99111.0,Indonesia,967537700.0,-2.5412731,140.7031631,https://maps.google.com/?cid=0x0:0x1a1d78b4fd358a65
hotel,hotel,"Swiss-Belexpress Jayapura, Papua","Jl. Percetakan II No.2, Gurabesi, Kec. Jayapura Utara, Kota Jayapura, Papua 99111","Gurabesi, Kec. Jayapura Utara, Kota Jayapura",PAPUA,99111.0,Indonesia,82272727722.0,-2.5425313,140.7021858,https://maps.google.com/?cid=0x0:0x80757dc95cf1b40f
hotel,hotel,,,,PAPUA,,Indonesia,,,,https://maps.google.com/?cid=0x0:0x80757dc95cf1b40f%7C/g/11xklhbdj%7Cid-ID
hotel,hotel,Front One Hotel Jayapura,"Kompleks Ruko Jayapura, Jl. Pacific Permai No.C 39, Bayangkara, Kec. Jayapura Utara, Kota Jayapura, Papua 99111","Jl. Pacific Permai No.C 39, Bayangkara, Kec. Jayapura Utara, Kota Jayapura",PAPUA,99111.0,Indonesia,8114802000.0,-2.5381168,140.7118967,https://maps.google.com/?cid=0x0:0x797c69e00bad39f2
hotel,hotel,,,,PAPUA,,Indonesia,,,,https://maps.google.com/?cid=0x0:0x797c69e00bad39f2%7C/g/11dxhdlfs3%7Cid-ID
hotel,hotel,Kec. Jayapura Utara,"Kota Jayapura, Papua","Kota Jayapura, Papua",PAPUA,,Indonesia,,-2.5312067,140.7199798,https://maps.google.com/?cid=0x0:0x13fe60c6bfbe82b0
hotel,hotel,"Swiss-Belhotel Jayapura, Papua","Pusat Bisnis Jayapura, Jl. Pacific Permai, Bayangkara, Kec. Jayapura Utara, Kota Jayapura, Papua 99112","Jl. Pacific Permai, Bayangkara, Kec. Jayapura Utara, Kota Jayapura",PAPUA,99112.0,Indonesia,967551888.0,-2.539046,140.711573,https://maps.google.com/?cid=0x0:0xbd14f75af0c6e48b
hotel,hotel,,,,PAPUA,,Indonesia,,,,https://maps.google.com/?cid=0x0:0xbd14f75af0c6e48b%7C/g/120xv389%7Cid-ID
hotel,hotel,,,,PAPUA,,Indonesia,,,,https://maps.google.com/?cid=0x0:0x228d0b2bb9d7838c%7C/g/11fr6srn7h%7Cid-ID
hotel,hotel,ASTON Jayapura Hotel  Convention Center,"Jl. Percetakan Negara No.50 - 58, Gurabesi, Kec. Jayapura Utara, Kota Jayapura, Papua 99111","Gurabesi, Kec. Jayapura Utara, Kota Jayapura",PAPUA,99111.0,Indonesia,967537700.0,-2.5412731,140.7031631,https://maps.google.com/?cid=0x0:0x1a1d78b4fd358a65
hotel,hotel,,,,PAPUA,,Indonesia,,,,https://maps.google.com/?cid=0x0:0x1a1d78b4fd358a65%7C/g/1tctxpcc%7Cid-ID
hotel,hotel,Hotel Best Western Sagita Jayapura,"Jl. Klp. 2, Entrop, Distrik Jayapura Selatan, Kota Jayapura, Papua 99221","Entrop, Distrik Jayapura Selatan, Kota Jayapura",PAPUA,99221.0,Indonesia,9675166888.0,-2.5676407,140.7023793,https://maps.google.com/?cid=0x0:0x741f2100c3f7bc5a
hotel,hotel,GOLDEN STYLE Hotel Jayapura,"Pusat Bisnis, Jl. Pacific Permai No.10-11 Blok C, Bayangkara, Kec. Jayapura Utara, Kota Jayapura, Papua 99110","Jl. Pacific Permai No.10-11 Blok C, Bayangkara, Kec. Jayapura Utara, Kota Jayapura",PAPUA,99110.0,Indonesia,811480388.0,-2.5377004,140.7104308,https://maps.google.com/?cid=0x0:0x15efde448a747754
hotel,hotel,"Swiss-Belexpress Jayapura, Papua","Jl. Percetakan II No.2, Gurabesi, Kec. Jayapura Utara, Kota Jayapura, Papua 99111","Gurabesi, Kec. Jayapura Utara, Kota Jayapura",PAPUA,99111.0,Indonesia,82272727722.0,-2.5425313,140.7021858,https://maps.google.com/?cid=0x0:0x80757dc95cf1b40f
hotel,hotel,Maxone Hotel Jayapura,"Jl. Percetakan Negara No.8, Gurabesi, Kec. Jayapura Utara, Kota Jayapura, Papua 99111","Gurabesi, Kec. Jayapura Utara, Kota Jayapura",PAPUA,99111.0,Indonesia,9675166111.0,-2.5401262,140.705014,https://maps.google.com/?cid=0x0:0xf6723813ba2c0961
hotel,hotel,Hotel Jasmine Jayapura,"Jl. Percetakan Negara No.8, Gurabesi, Kec. Jayapura Utara, Kota Jayapura, Papua 99111","Gurabesi, Kec. Jayapura Utara, Kota Jayapura",PAPUA,99111.0,Indonesia,967533222.0,-2.5402997,140.704585,https://maps.google.com/?cid=0x0:0x264fddf9f68e3b33
hotel,hotel,,,,PAPUA,,Indonesia,,,,https://maps.google.com/?cid=0x0:0x80757dc95cf1b40f%7C/g/11xklhbdj%7Cid-ID
hotel,hotel,Front One Hotel Jayapura,"Kompleks Ruko Jayapura, Jl. Pacific Permai No.C 39, Bayangkara, Kec. Jayapura Utara, Kota Jayapura, Papua 99111","Jl. Pacific Permai No.C 39, Bayangkara, Kec. Jayapura Utara, Kota Jayapura",PAPUA,99111.0,Indonesia,8114802000.0,-2.5381168,140.7118967,https://maps.google.com/?cid=0x0:0x797c69e00bad39f2
hotel,hotel,,,,PAPUA,,Indonesia,,,,https://maps.google.com/?cid=0x0:0x264fddf9f68e3b33%7C/g/12hl1k3bs%7Cid-ID
hotel,hotel,Papua 99116,"Angkasapura, Kec. Jayapura Utara, Kota Jayapura, Papua","Kota Jayapura, Papua",PAPUA,,Indonesia,,-2.5091904,140.70792,https://maps.google.com/?cid=0x0:0x234bf316c4205d54
hotel,hotel,GOLDEN STYLE Hotel Jayapura,"Pusat Bisnis, Jl. Pacific Permai No.10-11 Blok C, Bayangkara, Kec. Jayapura Utara, Kota Jayapura, Papua 99110","Jl. Pacific Permai No.10-11 Blok C, Bayangkara, Kec. Jayapura Utara, Kota Jayapura",PAPUA,99110.0,Indonesia,811480388.0,-2.5377004,140.7104308,https://maps.google.com/?cid=0x0:0x15efde448a747754
hotel,hotel,Mercure Jayapura,"Jl. Ahmad Yani No.12, Gurabesi, Kec. Jayapura Utara, Kota Jayapura, Papua 99111","Gurabesi, Kec. Jayapura Utara, Kota Jayapura",PAPUA,99111.0,Indonesia,9675161888.0,-2.5425064,140.7031376,https://maps.google.com/?cid=0x0:0x228d0b2bb9d7838c
hotel,hotel,,,,PAPUA,,Indonesia,,,,https://maps.google.com/?cid=0x0:0xbd14f75af0c6e48b%7C/g/120xv389%7Cid-ID
hotel,hotel,Maxone Hotel Jayapura,"Jl. Percetakan Negara No.8, Gurabesi, Kec. Jayapura Utara, Kota Jayapura, Papua 99111","Gurabesi, Kec. Jayapura Utara, Kota Jayapura",PAPUA,99111.0,Indonesia,9675166111.0,-2.5401262,140.705014,https://maps.google.com/?cid=0x0:0xf6723813ba2c0961
hotel,hotel,"Swiss-Belhotel Jayapura, Papua","Pusat Bisnis Jayapura, Jl. Pacific Permai, Bayangkara, Kec. Jayapura Utara, Kota Jayapura, Papua 99112","Jl. Pacific Permai, Bayangkara, Kec. Jayapura Utara, Kota Jayapura",PAPUA,99112.0,Indonesia,967551888.0,-2.539046,140.711573,https://maps.google.com/?cid=0x0:0xbd14f75af0c6e48b
hotel,hotel,Hotel Jasmine Jayapura,"Jl. Percetakan Negara No.8, Gurabesi, Kec. Jayapura Utara, Kota Jayapura, Papua 99111","Gurabesi, Kec. Jayapura Utara, Kota Jayapura",PAPUA,99111.0,Indonesia,967533222.0,-2.5402997,140.704585,https://maps.google.com/?cid=0x0:0x264fddf9f68e3b33
hotel,hotel,,,,PAPUA,,Indonesia,,,,https://maps.google.com/?cid=0x0:0x264fddf9f68e3b33%7C/g/12hl1k3bs%7Cid-ID
hotel,hotel,ASTON Jayapura Hotel  Convention Center,"Jl. Percetakan Negara No.50 - 58, Gurabesi, Kec. Jayapura Utara, Kota Jayapura, Papua 99111","Gurabesi, Kec. Jayapura Utara, Kota Jayapura",PAPUA,99111.0,Indonesia,967537700.0,-2.5412731,140.7031631,https://maps.google.com/?cid=0x0:0x1a1d78b4fd358a65
hotel,hotel,,,,PAPUA,,Indonesia,,,,https://maps.google.com/?cid=0x0:0x1a1d78b4fd358a65%7C/g/1tctxpcc%7Cid-ID
hotel,hotel,,,,PAPUA,,Indonesia,,,,https://maps.google.com/?cid=0x0:0x797c69e00bad39f2%7C/g/11dxhdlfs3%7Cid-ID
hotel,hotel,Front One Hotel Jayapura,"Kompleks Ruko Jayapura, Jl. Pacific Permai No.C 39, Bayangkara, Kec. Jayapura Utara, Kota Jayapura, Papua 99111","Jl. Pacific Permai No.C 39, Bayangkara, Kec. Jayapura Utara, Kota Jayapura",PAPUA,99111.0,Indonesia,8114802000.0,-2.5381168,140.7118967,https://maps.google.com/?cid=0x0:0x797c69e00bad39f2
hotel,hotel,"Swiss-Belexpress Jayapura, Papua","Jl. Percetakan II No.2, Gurabesi, Kec. Jayapura Utara, Kota Jayapura, Papua 99111","Gurabesi, Kec. Jayapura Utara, Kota Jayapura",PAPUA,99111.0,Indonesia,82272727722.0,-2.5425313,140.7021858,https://maps.google.com/?cid=0x0:0x80757dc95cf1b40f
hotel,hotel,,,,PAPUA,,Indonesia,,,,https://maps.google.com/?cid=0x0:0x80757dc95cf1b40f%7C/g/11xklhbdj%7Cid-ID
hotel,hotel,GOLDEN STYLE Hotel Jayapura,"Pusat Bisnis, Jl. Pacific Permai No.10-11 Blok C, Bayangkara, Kec. Jayapura Utara, Kota Jayapura, Papua 99110","Jl. Pacific Permai No.10-11 Blok C, Bayangkara, Kec. Jayapura Utara, Kota Jayapura",PAPUA,99110.0,Indonesia,811480388.0,-2.5377004,140.7104308,https://maps.google.com/?cid=0x0:0x15efde448a747754
hotel,hotel,Papua 99117,"Tj. Ria, Kec. Jayapura Utara, Kota Jayapura, Papua","Kota Jayapura, Papua",PAPUA,,Indonesia,,-2.493242,140.6975389,https://maps.google.com/?cid=0x0:0xf4a40bbba525574f
hotel,hotel,"Swiss-Belhotel Jayapura, Papua","Pusat Bisnis Jayapura, Jl. Pacific Permai, Bayangkara, Kec. Jayapura Utara, Kota Jayapura, Papua 99112","Jl. Pacific Permai, Bayangkara, Kec. Jayapura Utara, Kota Jayapura",PAPUA,99112.0,Indonesia,967551888.0,-2.539046,140.711573,https://maps.google.com/?cid=0x0:0xbd14f75af0c6e48b
hotel,hotel,,,,PAPUA,,Indonesia,,,,https://maps.google.com/?cid=0x0:0xbd14f75af0c6e48b%7C/g/120xv389%7Cid-ID
hotel,hotel,Mercure Jayapura,"Jl. Ahmad Yani No.12, Gurabesi, Kec. Jayapura Utara, Kota Jayapura, Papua 99111","Gurabesi, Kec. Jayapura Utara, Kota Jayapura",PAPUA,99111.0,Indonesia,9675161888.0,-2.5425064,140.7031376,https://maps.google.com/?cid=0x0:0x228d0b2bb9d7838c
hotel,hotel,,,,PAPUA,,Indonesia,,,,https://maps.google.com/?cid=0x0:0x264fddf9f68e3b33%7C/g/12hl1k3bs%7Cid-ID
hotel,hotel,Maxone Hotel Jayapura,"Jl. Percetakan Negara No.8, Gurabesi, Kec. Jayapura Utara, Kota Jayapura, Papua 99111","Gurabesi, Kec. Jayapura Utara, Kota Jayapura",PAPUA,99111.0,Indonesia,9675166111.0,-2.5401262,140.705014,https://maps.google.com/?cid=0x0:0xf6723813ba2c0961
hotel,hotel,Hotel Jasmine Jayapura,"Jl. Percetakan Negara No.8, Gurabesi, Kec. Jayapura Utara, Kota Jayapura, Papua 99111","Gurabesi, Kec. Jayapura Utara, Kota Jayapura",PAPUA,99111.0,Indonesia,967533222.0,-2.5402997,140.704585,https://maps.google.com/?cid=0x0:0x264fddf9f68e3b33
hotel,hotel,,,,PAPUA,,Indonesia,,,,https://maps.google.com/?cid=0x0:0x1a1d78b4fd358a65%7C/g/1tctxpcc%7Cid-ID
hotel,hotel,ASTON Jayapura Hotel  Convention Center,"Jl. Percetakan Negara No.50 - 58, Gurabesi, Kec. Jayapura Utara, Kota Jayapura, Papua 99111","Gurabesi, Kec. Jayapura Utara, Kota Jayapura",PAPUA,99111.0,Indonesia,967537700.0,-2.5412731,140.7031631,https://maps.google.com/?cid=0x0:0x1a1d78b4fd358a65
hotel,hotel,,,,PAPUA,,Indonesia,,,,https://maps.google.com/?cid=0x0:0x797c69e00bad39f2%7C/g/11dxhdlfs3%7Cid-ID
hotel,hotel,"Swiss-Belexpress Jayapura, Papua","Jl. Percetakan II No.2, Gurabesi, Kec. Jayapura Utara, Kota Jayapura, Papua 99111","Gurabesi, Kec. Jayapura Utara, Kota Jayapura",PAPUA,99111.0,Indonesia,82272727722.0,-2.5425313,140.7021858,https://maps.google.com/?cid=0x0:0x80757dc95cf1b40f
hotel,hotel,,,,PAPUA,,Indonesia,,,,https://maps.google.com/?cid=0x0:0x80757dc95cf1b40f%7C/g/11xklhbdj%7Cid-ID
hotel,hotel,Front One Hotel Jayapura,"Kompleks Ruko Jayapura, Jl. Pacific Permai No.C 39, Bayangkara, Kec. Jayapura Utara, Kota Jayapura, Papua 99111","Jl. Pacific Permai No.C 39, Bayangkara, Kec. Jayapura Utara, Kota Jayapura",PAPUA,99111.0,Indonesia,8114802000.0,-2.5381168,140.7118967,https://maps.google.com/?cid=0x0:0x797c69e00bad39f2
hotel,hotel,Papua 99221,"Kota Jayapura, Papua","Kota Jayapura, Papua",PAPUA,,Indonesia,,-2.5407181,140.6638119,https://maps.google.com/?cid=0x0:0x22734bd942608dca
hotel,hotel,Hotel Sahid Papua,"Jl. Klp. 2 No.18, Entrop, Distrik Jayapura Selatan, Kota Jayapura, Papua 99221","Entrop, Distrik Jayapura Selatan, Kota Jayapura",PAPUA,99221.0,Indonesia,8114814009.0,-2.5661461,140.6996539,https://maps.google.com/?cid=0x0:0x9c8a2fd141b3aa33
hotel,hotel,Mercure Jayapura,"Jl. Ahmad Yani No.12, Gurabesi, Kec. Jayapura Utara, Kota Jayapura, Papua 99111","Gurabesi, Kec. Jayapura Utara, Kota Jayapura",PAPUA,99111.0,Indonesia,9675161888.0,-2.5425064,140.7031376,https://maps.google.com/?cid=0x0:0x228d0b2bb9d7838c
hotel,hotel,,,,PAPUA,,Indonesia,,,,https://maps.google.com/?cid=0x0:0x9c8a2fd141b3aa33%7C/g/11b73kkp76%7Cid-ID
hotel,hotel,Maxone Hotel Jayapura,"Jl. Percetakan Negara No.8, Gurabesi, Kec. Jayapura Utara, Kota Jayapura, Papua 99111","Gurabesi, Kec. Jayapura Utara, Kota Jayapura",PAPUA,99111.0,Indonesia,9675166111.0,-2.5401262,140.705014,https://maps.google.com/?cid=0x0:0xf6723813ba2c0961
hotel,hotel,,,,PAPUA,,Indonesia,,,,https://maps.google.com/?cid=0x0:0x228d0b2bb9d7838c%7C/g/11fr6srn7h%7Cid-ID
hotel,hotel,"Swiss-Belhotel Jayapura, Papua","Pusat Bisnis Jayapura, Jl. Pacific Permai, Bayangkara, Kec. Jayapura Utara, Kota Jayapura, Papua 99112","Jl. Pacific Permai, Bayangkara, Kec. Jayapura Utara, Kota Jayapura",PAPUA,99112.0,Indonesia,967551888.0,-2.539046,140.711573,https://maps.google.com/?cid=0x0:0xbd14f75af0c6e48b
hotel,hotel,"Swiss-Belexpress Jayapura, Papua","Jl. Percetakan II No.2, Gurabesi, Kec. Jayapura Utara, Kota Jayapura, Papua 99111","Gurabesi, Kec. Jayapura Utara, Kota Jayapura",PAPUA,99111.0,Indonesia,82272727722.0,-2.5425313,140.7021858,https://maps.google.com/?cid=0x0:0x80757dc95cf1b40f
hotel,hotel,,,,PAPUA,,Indonesia,,,,https://maps.google.com/?cid=0x0:0x80757dc95cf1b40f%7C/g/11xklhbdj%7Cid-ID
hotel,hotel,,,,PAPUA,,Indonesia,,,,https://maps.google.com/?cid=0x0:0xbd14f75af0c6e48b%7C/g/120xv389%7Cid-ID
hotel,hotel,ASTON Jayapura Hotel  Convention Center,"Jl. Percetakan Negara No.50 - 58, Gurabesi, Kec. Jayapura Utara, Kota Jayapura, Papua 99111","Gurabesi, Kec. Jayapura Utara, Kota Jayapura",PAPUA,99111.0,Indonesia,967537700.0,-2.5412731,140.7031631,https://maps.google.com/?cid=0x0:0x1a1d78b4fd358a65
hotel,hotel,,,,PAPUA,,Indonesia,,,,https://maps.google.com/?cid=0x0:0x1a1d78b4fd358a65%7C/g/1tctxpcc%7Cid-ID
hotel,hotel,Hotel Horison Kotaraja,"Jl. Raya Abepura No.80, Wai Mhorock, Kec. Abepura, Kota Jayapura, Papua 99221","Wai Mhorock, Kec. Abepura, Kota Jayapura",PAPUA,99221.0,Indonesia,,-2.6004891,140.676497,https://maps.google.com/?cid=0x0:0x928b6846e61f91de
hotel,hotel,,,,PAPUA,,Indonesia,,,,https://maps.google.com/?cid=0x0:0x928b6846e61f91de%7C/g/11flsv5z35%7Cid-ID
hotel,hotel,Kec. Abepura,"Kota Jayapura, Papua","Kota Jayapura, Papua",PAPUA,,Indonesia,,-2.6813971,140.7662871,https://maps.google.com/?cid=0x0:0x75b53491c4439b2f
hotel,hotel,Grand ABE Hotel Jayapura,"Jl. Raya Abepura, Kotabaru, Kota Baru, Kec. Abepura, Kota Jayapura, Papua 99351","Kotabaru, Kota Baru, Kec. Abepura, Kota Jayapura",PAPUA,99351.0,Indonesia,8114825123.0,-2.6106174,140.6659805,https://maps.google.com/?cid=0x0:0xadc84ceab536f6a
hotel,hotel,Hotel Horison Abepura,"Jl. Raya Abepura - Sentani, Hedam, Kec. Heram, Kota Jayapura, Papua 99351","Hedam, Kec. Heram, Kota Jayapura",PAPUA,99351.0,Indonesia,8114915557.0,-2.6067187,140.6493524,https://maps.google.com/?cid=0x0:0xb60e7c638678e9e9
hotel,hotel,@HOM Premiere Abepura by Horison,"Jl. Raya Tanah Hitam, Asano, Kec. Abepura, Kota Jayapura, Papua 99351","Asano, Kec. Abepura, Kota Jayapura",PAPUA,99351.0,Indonesia,82110078800.0,-2.6163722,140.6795037,https://maps.google.com/?cid=0x0:0x232d3c1cc9df1530
hotel,hotel,Hotel Gamalama,"9MP9+G56, Jl. Gerilyawan, Yobe, Kec. Abepura, Kota Jayapura, Papua 99351","Jl. Gerilyawan, Yobe, Kec. Abepura, Kota Jayapura",PAPUA,99351.0,Indonesia,85337358893.0,-2.6137021,140.6678935,https://maps.google.com/?cid=0x0:0xf95001e3d53d211
hotel,hotel,,,,PAPUA,,Indonesia,,,,https://maps.google.com/?cid=0x0:0x232d3c1cc9df1530%7C/g/11c0xhccvj%7Cid-ID
hotel,hotel,Hotel Suni Abepura,"Jl. Baru Ps. Lama Abepura, Wai Mhorock, Kec. Abepura, Kota Jayapura, Papua 99225","Wai Mhorock, Kec. Abepura, Kota Jayapura",PAPUA,99225.0,Indonesia,9675540888.0,-2.6085094,140.6741951,https://maps.google.com/?cid=0x0:0x53835df7d2648dc3
hotel,hotel,,,,PAPUA,,Indonesia,,,,https://maps.google.com/?cid=0x0:0x4a570626468e5935%7C/g/11qg28n36t%7Cid-ID
hotel,hotel,Frontone Green Boutique Hotel,"Jl. Gerilyawan Jl. Bosnik BTN Kamkey No.111, Kamkey, Kec. Abepura, Kota Jayapura, Papua 99351","Kamkey, Kec. Abepura, Kota Jayapura",PAPUA,99351.0,Indonesia,967585010.0,-2.6140146,140.6711964,https://maps.google.com/?cid=0x0:0x4a570626468e5935
hotel,hotel,,,,PAPUA,,Indonesia,,,,https://maps.google.com/?cid=0x0:0x928b6846e61f91de%7C/g/11flsv5z35%7Cid-ID
hotel,hotel,Hotel Horison Kotaraja,"Jl. Raya Abepura No.80, Wai Mhorock, Kec. Abepura, Kota Jayapura, Papua 99221","Wai Mhorock, Kec. Abepura, Kota Jayapura",PAPUA,99221.0,Indonesia,,-2.6004891,140.676497,https://maps.google.com/?cid=0x0:0x928b6846e61f91de
hotel,hotel,RAFA HOTEL,"9MXC+PQ7, Vim, Kec. Abepura, Kota Jayapura, Papua","Kota Jayapura, Papua",PAPUA,,Indonesia,,-2.6011488,140.6717368,https://maps.google.com/?cid=0x0:0x18c6cc75351cda98
hotel,hotel,Citihub Hotel,"Wai Mhorock, Abepura, Kota Jayapura, Papua 99225, Wai Mhorock, Kec. Abepura, Kota Jayapura, Papua 99552","Abepura, Kota Jayapura, Papua",PAPUA,99225.0,Indonesia,9675180123.0,-2.6081763,140.6741417,https://maps.google.com/?cid=0x0:0x5a25068c30daecb0
hotel,hotel,,,,PAPUA,,Indonesia,,,,https://maps.google.com/?cid=0x0:0x5a25068c30daecb0%7C/g/11bx0dndr2%7Cid-ID
hotel,hotel,Hotel Horison Abepura,"Jl. Raya Abepura - Sentani, Hedam, Kec. Heram, Kota Jayapura, Papua 99351","Hedam, Kec. Heram, Kota Jayapura",PAPUA,99351.0,Indonesia,8114915557.0,-2.6067187,140.6493524,https://maps.google.com/?cid=0x0:0xb60e7c638678e9e9
hotel,hotel,Papua 99351,"Kota Jayapura, Papua","Kota Jayapura, Papua",PAPUA,,Indonesia,,-2.685882,140.8872648,https://maps.google.com/?cid=0x0:0x540583c400ca05b3
hotel,hotel,Grand ABE Hotel Jayapura,"Jl. Raya Abepura, Kotabaru, Kota Baru, Kec. Abepura, Kota Jayapura, Papua 99351","Kotabaru, Kota Baru, Kec. Abepura, Kota Jayapura",PAPUA,99351.0,Indonesia,8114825123.0,-2.6106174,140.6659805,https://maps.google.com/?cid=0x0:0xadc84ceab536f6a
hotel,hotel,Front One Budget Hotel,"Jl. Teruna Bhakti, Yabansai, Kec. Heram, Kota Jayapura, Papua 99351","Yabansai, Kec. Heram, Kota Jayapura",PAPUA,99351.0,Indonesia,8114707808.0,-2.5896396,140.6413153,https://maps.google.com/?cid=0x0:0x16b4d25d7d51567a
hotel,hotel,Hotel Gamalama,"9MP9+G56, Jl. Gerilyawan, Yobe, Kec. Abepura, Kota Jayapura, Papua 99351","Jl. Gerilyawan, Yobe, Kec. Abepura, Kota Jayapura",PAPUA,99351.0,Indonesia,85337358893.0,-2.6137021,140.6678935,https://maps.google.com/?cid=0x0:0xf95001e3d53d211
hotel,hotel,Hotel Clarence,"CJ3H+G8Q, Kp. Waena, Kec. Heram, Kota Jayapura, Papua 99351","Kp. Waena, Kec. Heram, Kota Jayapura",PAPUA,99351.0,Indonesia,85354572838.0,-2.596157,140.6283658,https://maps.google.com/?cid=0x0:0x8de34d35f89fb65e
hotel,hotel,HOTEL PARKSIDE WAENA,"Jl. Raya Waena, Kp. Waena, Kec. Abepura, Kota Jayapura, Papua 99532","Kp. Waena, Kec. Abepura, Kota Jayapura",PAPUA,99532.0,Indonesia,8114829200.0,-2.5965369,140.6348713,https://maps.google.com/?cid=0x0:0xeecc070595c2799f
hotel,hotel,,,,PAPUA,,Indonesia,,,,https://maps.google.com/?cid=0x0:0x4a570626468e5935%7C/g/11qg28n36t%7Cid-ID
hotel,hotel,Frontone Green Boutique Hotel,"Jl. Gerilyawan Jl. Bosnik BTN Kamkey No.111, Kamkey, Kec. Abepura, Kota Jayapura, Papua 99351","Kamkey, Kec. Abepura, Kota Jayapura",PAPUA,99351.0,Indonesia,967585010.0,-2.6140146,140.6711964,https://maps.google.com/?cid=0x0:0x4a570626468e5935
hotel,hotel,AKAVI HOMESTAY JAYAPURA,"9MPF+3QM, Jl. Raya Abepura - Sentani, Awiyo, Kec. Abepura, Kota Jayapura, Papua 99351","Jl. Raya Abepura - Sentani, Awiyo, Kec. Abepura, Kota Jayapura",PAPUA,99351.0,Indonesia,85240000220.0,-2.6147932,140.6744192,https://maps.google.com/?cid=0x0:0x3e595be894ddc04c
hotel,hotel,Hotel Horison Kotaraja,"Jl. Raya Abepura No.80, Wai Mhorock, Kec. Abepura, Kota Jayapura, Papua 99221","Wai Mhorock, Kec. Abepura, Kota Jayapura",PAPUA,99221.0,Indonesia,,-2.6004891,140.676497,https://maps.google.com/?cid=0x0:0x928b6846e61f91de
hotel,hotel,,,,PAPUA,,Indonesia,,,,https://maps.google.com/?cid=0x0:0x928b6846e61f91de%7C/g/11flsv5z35%7Cid-ID
hotel,hotel,Urbanview Hotel ME Jayapura,"Jl. Belut 13, Kp. Waena, expo, Kota Jayapura, Papua 99351","Kp. Waena, expo, Kota Jayapura",PAPUA,99351.0,Indonesia,895417300072.0,-2.5961874,140.6289663,https://maps.google.com/?cid=0x0:0x71d5532a01326fb7
hotel,hotel,RAFA HOTEL,"9MXC+PQ7, Vim, Kec. Abepura, Kota Jayapura, Papua","Kota Jayapura, Papua",PAPUA,,Indonesia,,-2.6011488,140.6717368,https://maps.google.com/?cid=0x0:0x18c6cc75351cda98
hotel,hotel,Kec. Heram,"Kota Jayapura, Papua","Kota Jayapura, Papua",PAPUA,,Indonesia,,-2.5968715,140.6349408,https://maps.google.com/?cid=0x0:0xae4be183bc9835dc
hotel,hotel,Hotel Horison Abepura,"Jl. Raya Abepura - Sentani, Hedam, Kec. Heram, Kota Jayapura, Papua 99351","Hedam, Kec. Heram, Kota Jayapura",PAPUA,99351.0,Indonesia,8114915557.0,-2.6067187,140.6493524,https://maps.google.com/?cid=0x0:0xb60e7c638678e9e9
hotel,hotel,Grand ABE Hotel Jayapura,"Jl. Raya Abepura, Kotabaru, Kota Baru, Kec. Abepura, Kota Jayapura, Papua 99351","Kotabaru, Kota Baru, Kec. Abepura, Kota Jayapura",PAPUA,99351.0,Indonesia,8114825123.0,-2.6106174,140.6659805,https://maps.google.com/?cid=0x0:0xadc84ceab536f6a
hotel,hotel,Front One Budget Hotel,"Jl. Teruna Bhakti, Yabansai, Kec. Heram, Kota Jayapura, Papua 99351","Yabansai, Kec. Heram, Kota Jayapura",PAPUA,99351.0,Indonesia,8114707808.0,-2.5896396,140.6413153,https://maps.google.com/?cid=0x0:0x16b4d25d7d51567a
hotel,hotel,HOTEL PARKSIDE WAENA,"Jl. Raya Waena, Kp. Waena, Kec. Abepura, Kota Jayapura, Papua 99532","Kp. Waena, Kec. Abepura, Kota Jayapura",PAPUA,99532.0,Indonesia,8114829200.0,-2.5965369,140.6348713,https://maps.google.com/?cid=0x0:0xeecc070595c2799f
hotel,hotel,Hotel Clarence,"CJ3H+G8Q, Kp. Waena, Kec. Heram, Kota Jayapura, Papua 99351","Kp. Waena, Kec. Heram, Kota Jayapura",PAPUA,99351.0,Indonesia,85354572838.0,-2.596157,140.6283658,https://maps.google.com/?cid=0x0:0x8de34d35f89fb65e
hotel,hotel,Urbanview Hotel ME Jayapura,"Jl. Belut 13, Kp. Waena, expo, Kota Jayapura, Papua 99351","Kp. Waena, expo, Kota Jayapura",PAPUA,99351.0,Indonesia,895417300072.0,-2.5961874,140.6289663,https://maps.google.com/?cid=0x0:0x71d5532a01326fb7
hotel,hotel,Hotel Suni Abepura,"Jl. Baru Ps. Lama Abepura, Wai Mhorock, Kec. Abepura, Kota Jayapura, Papua 99225","Wai Mhorock, Kec. Abepura, Kota Jayapura",PAPUA,99225.0,Indonesia,9675540888.0,-2.6085094,140.6741951,https://maps.google.com/?cid=0x0:0x53835df7d2648dc3
hotel,hotel,Hotel Horison Kotaraja,"Jl. Raya Abepura No.80, Wai Mhorock, Kec. Abepura, Kota Jayapura, Papua 99221","Wai Mhorock, Kec. Abepura, Kota Jayapura",PAPUA,99221.0,Indonesia,,-2.6004891,140.676497,https://maps.google.com/?cid=0x0:0x928b6846e61f91de
hotel,hotel,,,,PAPUA,,Indonesia,,,,https://maps.google.com/?cid=0x0:0x928b6846e61f91de%7C/g/11flsv5z35%7Cid-ID
hotel,hotel,,,,PAPUA,,Indonesia,,,,https://maps.google.com/?cid=0x0:0x4a570626468e5935%7C/g/11qg28n36t%7Cid-ID
hotel,hotel,Frontone Green Boutique Hotel,"Jl. Gerilyawan Jl. Bosnik BTN Kamkey No.111, Kamkey, Kec. Abepura, Kota Jayapura, Papua 99351","Kamkey, Kec. Abepura, Kota Jayapura",PAPUA,99351.0,Indonesia,967585010.0,-2.6140146,140.6711964,https://maps.google.com/?cid=0x0:0x4a570626468e5935
hotel,hotel,Hotel Gamalama,"9MP9+G56, Jl. Gerilyawan, Yobe, Kec. Abepura, Kota Jayapura, Papua 99351","Jl. Gerilyawan, Yobe, Kec. Abepura, Kota Jayapura",PAPUA,99351.0,Indonesia,85337358893.0,-2.6137021,140.6678935,https://maps.google.com/?cid=0x0:0xf95001e3d53d211
hotel,hotel,Homestay Galpera Papua,"Yabansai, Kec. Heram, Kota Jayapura, Papua 99225","Kec. Heram, Kota Jayapura",PAPUA,99225.0,Indonesia,82398738885.0,-2.5925929,140.6389683,https://maps.google.com/?cid=0x0:0x14836218d55585f8
restaurant,Rumah Makan,RestoCafe Rumah Laut,"Jl. Koti, Numbai, Distrik Jayapura Selatan, Kota Jayapura, Papua 99222","Numbai, Distrik Jayapura Selatan, Kota Jayapura",PAPUA,99222.0,Indonesia,9675160842.0,-2.5443152,140.7078561,https://maps.google.com/?cid=0x0:0xa0b850e17d17f09d
restaurant,restaurant,Papua 99221,"Kota Jayapura, Papua","Kota Jayapura, Papua",PAPUA,,Indonesia,,-2.5407181,140.6638119,https://maps.google.com/?cid=0x0:0x22734bd942608dca
restaurant,Ramen,Kusuka Cafe  Resto,"Seberang Astra Honda, masuk lorong sebelah jayamart, Jl. Klp. 2 No.18, Entrop, Jayapura Selatan, Jayapura City, Papua 99221","masuk lorong sebelah jayamart, Jl. Klp. 2 No.18, Entrop, Jayapura Selatan, Jayapura City",PAPUA,99221.0,Indonesia,,-2.5689574,140.7025065,https://maps.google.com/?cid=0x0:0xc48e7a8e5d46dab5
restaurant,Korea,Komasako grill  suki,"Jln. Smu 45 ( sebelum astra honda, Kota Jayapura, Papua","Kota Jayapura, Papua",PAPUA,,Indonesia,85243020302.0,-2.5668624,140.7018752,https://maps.google.com/?cid=0x0:0xd0ddad7abbf3e7fc
restaurant,Indonesia,RISKI RESTO,"CMJX+FFJ, Entrop, Distrik Jayapura Selatan, Kota Jayapura, Papua 99221","Entrop, Distrik Jayapura Selatan, Kota Jayapura",PAPUA,99221.0,Indonesia,81240072507.0,-2.5687852,140.698644,https://maps.google.com/?cid=0x0:0xbad724a0f8dd670d
restaurant,Rumah Makan,Rumah Makan Sendok Garpu Jayapura,"Jl. Raya Abepura-Kotaraja Kota Baru, Wai Mhorock, Kec. Abepura, Kota Jayapura, Papua 99225","Wai Mhorock, Kec. Abepura, Kota Jayapura",PAPUA,99225.0,Indonesia,82310000123.0,-2.6057136,140.6694308,https://maps.google.com/?cid=0x0:0x9b347169a4f00047
restaurant,Katering,Rumah makan Cantika Prasmanan 1 Entrop,"toko bangunan surya prima masuk 200 meter, Jalan baru kelapa 2 Entrop (kompleks PT.ABS, Lorong, Distrik Jayapura Selatan, Kota Jayapura, Papua 99221","Jalan baru kelapa 2 Entrop (kompleks PT.ABS, Lorong, Distrik Jayapura Selatan, Kota Jayapura",PAPUA,99221.0,Indonesia,8114841867.0,-2.5691257,140.7020927,https://maps.google.com/?cid=0x0:0xdd301761035cd1ff
restaurant,Restoran,Rumah Makan Sion,"Entrop, Jl. Raya Abepura, Entrop, Jayapura Selatan, Jayapura City, Papua 99221","Jl. Raya Abepura, Entrop, Jayapura Selatan, Jayapura City",PAPUA,99221.0,Indonesia,82399932716.0,-2.5665796,140.6950915,https://maps.google.com/?cid=0x0:0x22a6a141903c68b2
restaurant,Restoran,Food Street Jayapura,"CPV3+VJ9, Jl. Ardipura Raya, Ardipura, Distrik Jayapura Selatan, Kota Jayapura, Papua 99222","Jl. Ardipura Raya, Ardipura, Distrik Jayapura Selatan, Kota Jayapura",PAPUA,99222.0,Indonesia,85254243489.0,-2.5553251,140.704097,https://maps.google.com/?cid=0x0:0x8ac6a49f50884f3a
restaurant,Restoran,Cafe IRGI,"CMMX+4MR, Entrop, Distrik Jayapura Selatan, Kota Jayapura, Papua 99221","Entrop, Distrik Jayapura Selatan, Kota Jayapura",PAPUA,99221.0,Indonesia,81248821349.0,-2.56713,140.6991365,https://maps.google.com/?cid=0x0:0xf1dfd35e347f4803
restaurant,Padang,RM.WISATA MINANG,"CMMX+5M9 Depan SPBU Entrop, Jl. Klp. 2, Ardipura, Distrik Jayapura Selatan, Kota Jayapura, Papua 99221","Jl. Klp. 2, Ardipura, Distrik Jayapura Selatan, Kota Jayapura",PAPUA,99221.0,Indonesia,81372510005.0,-2.5670941,140.6992424,https://maps.google.com/?cid=0x0:0xa1f26d16efd62aef
restaurant,Masakan Asia,RM.Sulawesi,"CPJ2+GM6, Unnamed Road, Entrop, Distrik Jayapura Selatan, Kota Jayapura, Papua 99221","Unnamed Road, Entrop, Distrik Jayapura Selatan, Kota Jayapura",PAPUA,99221.0,Indonesia,82198908888.0,-2.568716,140.7016279,https://maps.google.com/?cid=0x0:0xfb9a3e390f2561dc
restaurant,China,RM. Mie Singkawang 88,"Jl. Klp. 2 No.21, Entrop, Distrik Jayapura Selatan, Kota Jayapura, Papua 99221","Entrop, Distrik Jayapura Selatan, Kota Jayapura",PAPUA,99221.0,Indonesia,,-2.5697329,140.7018205,https://maps.google.com/?cid=0x0:0xf1f11dc48f4819e2
restaurant,Sulawesi Selatan,COTO MAROS ( HJ. DIANA),"FP52+2MW, Gurabesi, Kec. Jayapura Utara, Kota Jayapura, Papua 99221","Gurabesi, Kec. Jayapura Utara, Kota Jayapura",PAPUA,99221.0,Indonesia,,-2.5423866,140.7016877,https://maps.google.com/?cid=0x0:0x4c7b0698240de218
restaurant,restaurant,Papua 99222,"Distrik Jayapura Selatan, Kota Jayapura, Papua","Kota Jayapura, Papua",PAPUA,,Indonesia,,-2.5518785,140.7027292,https://maps.google.com/?cid=0x0:0xaed95d497fc99440
restaurant,Rumah Makan,RestoCafe Rumah Laut,"Jl. Koti, Numbai, Distrik Jayapura Selatan, Kota Jayapura, Papua 99222","Numbai, Distrik Jayapura Selatan, Kota Jayapura",PAPUA,99222.0,Indonesia,9675160842.0,-2.5443152,140.7078561,https://maps.google.com/?cid=0x0:0xa0b850e17d17f09d
restaurant,Restoran,Food Street Jayapura,"CPV3+VJ9, Jl. Ardipura Raya, Ardipura, Distrik Jayapura Selatan, Kota Jayapura, Papua 99222","Jl. Ardipura Raya, Ardipura, Distrik Jayapura Selatan, Kota Jayapura",PAPUA,99222.0,Indonesia,85254243489.0,-2.5553251,140.704097,https://maps.google.com/?cid=0x0:0x8ac6a49f50884f3a
restaurant,Rumah Makan,Rumah Makan Sendok Garpu Jayapura,"Jl. Raya Abepura-Kotaraja Kota Baru, Wai Mhorock, Kec. Abepura, Kota Jayapura, Papua 99225","Wai Mhorock, Kec. Abepura, Kota Jayapura",PAPUA,99225.0,Indonesia,82310000123.0,-2.6057136,140.6694308,https://maps.google.com/?cid=0x0:0x9b347169a4f00047
restaurant,Makanan Siap Saji,Opa Resto Jayapura,"CPW3+558, Ardipura, Distrik Jayapura Selatan, Kota Jayapura, Papua 99222","Ardipura, Distrik Jayapura Selatan, Kota Jayapura",PAPUA,99222.0,Indonesia,81240897346.0,-2.5545833,140.7029416,https://maps.google.com/?cid=0x0:0xbafba4f6ccb6a60c
restaurant,Ramen,Kusuka Cafe  Resto,"Seberang Astra Honda, masuk lorong sebelah jayamart, Jl. Klp. 2 No.18, Entrop, Jayapura Selatan, Jayapura City, Papua 99221","masuk lorong sebelah jayamart, Jl. Klp. 2 No.18, Entrop, Jayapura Selatan, Jayapura City",PAPUA,99221.0,Indonesia,,-2.5689574,140.7025065,https://maps.google.com/?cid=0x0:0xc48e7a8e5d46dab5
restaurant,Indonesia,RISKI RESTO,"CMJX+FFJ, Entrop, Distrik Jayapura Selatan, Kota Jayapura, Papua 99221","Entrop, Distrik Jayapura Selatan, Kota Jayapura",PAPUA,99221.0,Indonesia,81240072507.0,-2.5687852,140.698644,https://maps.google.com/?cid=0x0:0xbad724a0f8dd670d
restaurant,Manado,RM. Amurang,"FP54+37V, Numbai, Distrik Jayapura Selatan, Kota Jayapura, Papua 99222","Numbai, Distrik Jayapura Selatan, Kota Jayapura",PAPUA,99222.0,Indonesia,,-2.542273,140.7056829,https://maps.google.com/?cid=0x0:0xb570001d9e04c2d0
restaurant,Restoran,Cafe IRGI,"CMMX+4MR, Entrop, Distrik Jayapura Selatan, Kota Jayapura, Papua 99221","Entrop, Distrik Jayapura Selatan, Kota Jayapura",PAPUA,99221.0,Indonesia,81248821349.0,-2.56713,140.6991365,https://maps.google.com/?cid=0x0:0xf1dfd35e347f4803
restaurant,Korea,Komasako grill  suki,"Jln. Smu 45 ( sebelum astra honda, Kota Jayapura, Papua","Kota Jayapura, Papua",PAPUA,,Indonesia,85243020302.0,-2.5668624,140.7018752,https://maps.google.com/?cid=0x0:0xd0ddad7abbf3e7fc
restaurant,Padang,RM.WISATA MINANG,"CMMX+5M9 Depan SPBU Entrop, Jl. Klp. 2, Ardipura, Distrik Jayapura Selatan, Kota Jayapura, Papua 99221","Jl. Klp. 2, Ardipura, Distrik Jayapura Selatan, Kota Jayapura",PAPUA,99221.0,Indonesia,81372510005.0,-2.5670941,140.6992424,https://maps.google.com/?cid=0x0:0xa1f26d16efd62aef
restaurant,Sulawesi Selatan,COTO MAROS ( HJ. DIANA),"FP52+2MW, Gurabesi, Kec. Jayapura Utara, Kota Jayapura, Papua 99221","Gurabesi, Kec. Jayapura Utara, Kota Jayapura",PAPUA,99221.0,Indonesia,,-2.5423866,140.7016877,https://maps.google.com/?cid=0x0:0x4c7b0698240de218
restaurant,Padang,RM FLOBAMORA,"Jl. Nindya Karya No.18, Gurabesi, Kec. Jayapura Utara, Kota Jayapura, Papua 99222","Gurabesi, Kec. Jayapura Utara, Kota Jayapura",PAPUA,99222.0,Indonesia,8114800597.0,-2.5433819,140.7039762,https://maps.google.com/?cid=0x0:0x920264ee67e49748
restaurant,Restoran,Testo Resto,"Jl. Amphibi Hamadi, Kompleks Angkatan Laut, Hamadi, Distrik Jayapura Selatan, Kota Jayapura, Papua 99221","Kompleks Angkatan Laut, Hamadi, Distrik Jayapura Selatan, Kota Jayapura",PAPUA,99221.0,Indonesia,82291450007.0,-2.567785,140.706105,https://maps.google.com/?cid=0x0:0xabb2ccc7bf7d07a
restaurant,restaurant,Papua 99223,"Entrop, Distrik Jayapura Selatan, Kota Jayapura, Papua","Kota Jayapura, Papua",PAPUA,,Indonesia,,-2.5603966,140.6689995,https://maps.google.com/?cid=0x0:0xba9a08c8ddb16a58
restaurant,Rumah Makan,RestoCafe Rumah Laut,"Jl. Koti, Numbai, Distrik Jayapura Selatan, Kota Jayapura, Papua 99222","Numbai, Distrik Jayapura Selatan, Kota Jayapura",PAPUA,99222.0,Indonesia,9675160842.0,-2.5443152,140.7078561,https://maps.google.com/?cid=0x0:0xa0b850e17d17f09d
restaurant,Rumah Makan,Rumah Makan Sendok Garpu Jayapura,"Jl. Raya Abepura-Kotaraja Kota Baru, Wai Mhorock, Kec. Abepura, Kota Jayapura, Papua 99225","Wai Mhorock, Kec. Abepura, Kota Jayapura",PAPUA,99225.0,Indonesia,82310000123.0,-2.6057136,140.6694308,https://maps.google.com/?cid=0x0:0x9b347169a4f00047
restaurant,Indonesia,RISKI RESTO,"CMJX+FFJ, Entrop, Distrik Jayapura Selatan, Kota Jayapura, Papua 99221","Entrop, Distrik Jayapura Selatan, Kota Jayapura",PAPUA,99221.0,Indonesia,81240072507.0,-2.5687852,140.698644,https://maps.google.com/?cid=0x0:0xbad724a0f8dd670d
restaurant,Restoran,Food Street Jayapura,"CPV3+VJ9, Jl. Ardipura Raya, Ardipura, Distrik Jayapura Selatan, Kota Jayapura, Papua 99222","Jl. Ardipura Raya, Ardipura, Distrik Jayapura Selatan, Kota Jayapura",PAPUA,99222.0,Indonesia,85254243489.0,-2.5553251,140.704097,https://maps.google.com/?cid=0x0:0x8ac6a49f50884f3a
restaurant,Korea,Komasako grill  suki,"Jln. Smu 45 ( sebelum astra honda, Kota Jayapura, Papua","Kota Jayapura, Papua",PAPUA,,Indonesia,85243020302.0,-2.5668624,140.7018752,https://maps.google.com/?cid=0x0:0xd0ddad7abbf3e7fc
restaurant,restaurant,Pecel Gudeg Bu Anna Entrop,"Jl. Klp. 2, Entrop, Distrik Jayapura Selatan, Kota Jayapura, Papua 99224","Entrop, Distrik Jayapura Selatan, Kota Jayapura",PAPUA,99224.0,Indonesia,81247232425.0,-2.566911,140.6983121,https://maps.google.com/?cid=0x0:0x9f83b00d0f9ba41b
restaurant,Restoran,Rumah Makan Simpang 3 Masakan Toraja,"CMJV+7VX, Entrop, Distrik Jayapura Selatan, Kota Jayapura, Papua 99221","Entrop, Distrik Jayapura Selatan, Kota Jayapura",PAPUA,99221.0,Indonesia,,-2.5692653,140.6947285,https://maps.google.com/?cid=0x0:0xa42bfe07347d46a1
restaurant,Rumah Makan,Warung Sumber Rejeki Jawa Timur,"Entrop, Distrik Jayapura Selatan, Kota Jayapura, Papua 99221","Distrik Jayapura Selatan, Kota Jayapura",PAPUA,99221.0,Indonesia,,-2.5731762,140.6916612,https://maps.google.com/?cid=0x0:0x74315bcd3f39fa87
restaurant,Kafe,HAPPY EAT JAYAPURA,"CMJQ+9JP, Entrop, Distrik Jayapura Selatan, Kota Jayapura, Papua 99223","Entrop, Distrik Jayapura Selatan, Kota Jayapura",PAPUA,99223.0,Indonesia,,-2.5690293,140.6890646,https://maps.google.com/?cid=0x0:0xc670408de60a2953
restaurant,Masakan Asia,RM.Sulawesi,"CPJ2+GM6, Unnamed Road, Entrop, Distrik Jayapura Selatan, Kota Jayapura, Papua 99221","Unnamed Road, Entrop, Distrik Jayapura Selatan, Kota Jayapura",PAPUA,99221.0,Indonesia,82198908888.0,-2.568716,140.7016279,https://maps.google.com/?cid=0x0:0xfb9a3e390f2561dc
restaurant,Restoran,Cafe IRGI,"CMMX+4MR, Entrop, Distrik Jayapura Selatan, Kota Jayapura, Papua 99221","Entrop, Distrik Jayapura Selatan, Kota Jayapura",PAPUA,99221.0,Indonesia,81248821349.0,-2.56713,140.6991365,https://maps.google.com/?cid=0x0:0xf1dfd35e347f4803
restaurant,Padang,RM.WISATA MINANG,"CMMX+5M9 Depan SPBU Entrop, Jl. Klp. 2, Ardipura, Distrik Jayapura Selatan, Kota Jayapura, Papua 99221","Jl. Klp. 2, Ardipura, Distrik Jayapura Selatan, Kota Jayapura",PAPUA,99221.0,Indonesia,81372510005.0,-2.5670941,140.6992424,https://maps.google.com/?cid=0x0:0xa1f26d16efd62aef
restaurant,Restoran,Restaurant Yougwa,"CJ63+H23, Jl. Raya Abepura - Sentani, Asei Kecil, Kec. Sentani Tim., Kabupaten Jayapura, Papua 99351","Jl. Raya Abepura - Sentani, Asei Kecil, Kec. Sentani Tim., Kabupaten Jayapura",PAPUA,99351.0,Indonesia,8114801448.0,-2.5886245,140.602559,https://maps.google.com/?cid=0x0:0x65e60fc66014e79c
restaurant,restaurant,Papua 99224,"Kota Jayapura, Papua","Kota Jayapura, Papua",PAPUA,,Indonesia,,-2.579706,140.6638119,https://maps.google.com/?cid=0x0:0x9db3c17a7f47219
restaurant,Rumah Makan,RestoCafe Rumah Laut,"Jl. Koti, Numbai, Distrik Jayapura Selatan, Kota Jayapura, Papua 99222","Numbai, Distrik Jayapura Selatan, Kota Jayapura",PAPUA,99222.0,Indonesia,9675160842.0,-2.5443152,140.7078561,https://maps.google.com/?cid=0x0:0xa0b850e17d17f09d
restaurant,Rumah Makan,Rumah Makan Sendok Garpu Jayapura,"Jl. Raya Abepura-Kotaraja Kota Baru, Wai Mhorock, Kec. Abepura, Kota Jayapura, Papua 99225","Wai Mhorock, Kec. Abepura, Kota Jayapura",PAPUA,99225.0,Indonesia,82310000123.0,-2.6057136,140.6694308,https://maps.google.com/?cid=0x0:0x9b347169a4f00047
restaurant,Dapur Umum,Umma Eatery,"Jl. Gerilyawan, Yobe, Kec. Abepura, Kota Jayapura, Papua 99351","Yobe, Kec. Abepura, Kota Jayapura",PAPUA,99351.0,Indonesia,811484688.0,-2.6139368,140.6708121,https://maps.google.com/?cid=0x0:0x81bb34f7cf8553c2
restaurant,Indonesia,RISKI RESTO,"CMJX+FFJ, Entrop, Distrik Jayapura Selatan, Kota Jayapura, Papua 99221","Entrop, Distrik Jayapura Selatan, Kota Jayapura",PAPUA,99221.0,Indonesia,81240072507.0,-2.5687852,140.698644,https://maps.google.com/?cid=0x0:0xbad724a0f8dd670d
restaurant,Dapur Umum,RM. PUTRI KEMBAR,"CM2G+7WG, Jalan Raya, Wai Mhorock, Abepura, Jayapura City, Papua 99225","Jalan Raya, Wai Mhorock, Abepura, Jayapura City",PAPUA,99225.0,Indonesia,81247266745.0,-2.5993248,140.6773373,https://maps.google.com/?cid=0x0:0x1139033488edfe5e
restaurant,Restoran,Restaurant Yougwa,"CJ63+H23, Jl. Raya Abepura - Sentani, Asei Kecil, Kec. Sentani Tim., Kabupaten Jayapura, Papua 99351","Jl. Raya Abepura - Sentani, Asei Kecil, Kec. Sentani Tim., Kabupaten Jayapura",PAPUA,99351.0,Indonesia,8114801448.0,-2.5886245,140.602559,https://maps.google.com/?cid=0x0:0x65e60fc66014e79c
restaurant,Restoran,Yasbeer Cafe dan resto,"Engros, Kec. Abepura, Kota Jayapura, Papua","Kota Jayapura, Papua",PAPUA,,Indonesia,81248941111.0,-2.6005334,140.7153915,https://maps.google.com/?cid=0x0:0x34cbd734e60fa36b
restaurant,Ikan Bakar,Mujair Bakar Yudisyah Entrop,"Jl. Klp. 2 No.22, Entrop, Distrik Jayapura Selatan, Kota Jayapura, Papua 99224","Entrop, Distrik Jayapura Selatan, Kota Jayapura",PAPUA,99224.0,Indonesia,82199649123.0,-2.5688777,140.7043302,https://maps.google.com/?cid=0x0:0x5dab285767de8edf
restaurant,Kafe,Kopu Kopi CafÃ© (Coffee  Eatery),"Jl. Raya Abepura, Wahno, Kec. Abepura, Kota Jayapura, Papua 99224","Wahno, Kec. Abepura, Kota Jayapura",PAPUA,99224.0,Indonesia,81263800182.0,-2.5972248,140.6796506,https://maps.google.com/?cid=0x0:0x55eedda55f616417
restaurant,Padang,RM.WISATA MINANG,"CMMX+5M9 Depan SPBU Entrop, Jl. Klp. 2, Ardipura, Distrik Jayapura Selatan, Kota Jayapura, Papua 99221","Jl. Klp. 2, Ardipura, Distrik Jayapura Selatan, Kota Jayapura",PAPUA,99221.0,Indonesia,81372510005.0,-2.5670941,140.6992424,https://maps.google.com/?cid=0x0:0xa1f26d16efd62aef
restaurant,Indonesia,"Nasi Pecel Pincuk Mandala Cak Temo, Kotaraja","Kotaraja, Jl. Jeruk Nipis, Wahno, Kec. Abepura, Kota Jayapura, Papua 99224","Jl. Jeruk Nipis, Wahno, Kec. Abepura, Kota Jayapura",PAPUA,99224.0,Indonesia,81248427313.0,-2.5944562,140.6764659,https://maps.google.com/?cid=0x0:0x80d8d47d928f29ad
restaurant,Soto Ayam,Soto Ayam Lamongan Cak Min,"CMGR+G9P, Jl. Raya Abepura, Entrop, Distrik Jayapura Selatan, Kota Jayapura, Papua 99223","Jl. Raya Abepura, Entrop, Distrik Jayapura Selatan, Kota Jayapura",PAPUA,99223.0,Indonesia,,-2.5736599,140.6909448,https://maps.google.com/?cid=0x0:0x39ea0cb6ab6e83ad
restaurant,Hidangan Laut,RM. Duta Cafe entrop,"Jl. Klp. 2 No.18, Entrop, Distrik Jayapura Selatan, Kota Jayapura, Papua 99221","Entrop, Distrik Jayapura Selatan, Kota Jayapura",PAPUA,99221.0,Indonesia,85344145982.0,-2.5690329,140.7073478,https://maps.google.com/?cid=0x0:0xdff23b03759e3754
restaurant,restaurant,Papua 99225,"Kota Jayapura, Papua","Kota Jayapura, Papua",PAPUA,,Indonesia,,-2.5949282,140.653438,https://maps.google.com/?cid=0x0:0x21414c78014e775a
restaurant,Rumah Makan,Rumah Makan Sendok Garpu Jayapura,"Jl. Raya Abepura-Kotaraja Kota Baru, Wai Mhorock, Kec. Abepura, Kota Jayapura, Papua 99225","Wai Mhorock, Kec. Abepura, Kota Jayapura",PAPUA,99225.0,Indonesia,82310000123.0,-2.6057136,140.6694308,https://maps.google.com/?cid=0x0:0x9b347169a4f00047
restaurant,Rumah Makan,"Restoran Halal GH CORNER Abepura Jayapura Papua, Nasi Briyani, Nasi Arab, Roti Canai, Martabak Malaysia, Teh Tarik..","Jl. Baru Ps. Lama Abepura No.313, Wai Mhorock, Kec. Abepura, Kota Jayapura, Papua 99225","Wai Mhorock, Kec. Abepura, Kota Jayapura",PAPUA,99225.0,Indonesia,82119487935.0,-2.609163,140.6734692,https://maps.google.com/?cid=0x0:0xd0b9b3e8fad214b8
restaurant,Restoran,Manse Korean Grill Abepura,"Jl. Baru Ps. Lama Abepura No.313, Wai Mhorock, Kec. Abepura, Kota Jayapura, Papua 99225","Wai Mhorock, Kec. Abepura, Kota Jayapura",PAPUA,99225.0,Indonesia,87708779039.0,-2.6088603,140.6733468,https://maps.google.com/?cid=0x0:0xaa06476a9c0a9595
restaurant,Dapur Umum,RM. PUTRI KEMBAR,"CM2G+7WG, Jalan Raya, Wai Mhorock, Abepura, Jayapura City, Papua 99225","Jalan Raya, Wai Mhorock, Abepura, Jayapura City",PAPUA,99225.0,Indonesia,81247266745.0,-2.5993248,140.6773373,https://maps.google.com/?cid=0x0:0x1139033488edfe5e
restaurant,Restoran,Kompleks 24 Rumah Makan Prima Rasa,"CJ3R+44V Spg, Kp. Waena, Kec. Heram, Kota Jayapura, Papua 99225","Kp. Waena, Kec. Heram, Kota Jayapura",PAPUA,99225.0,Indonesia,,-2.5971273,140.640305,https://maps.google.com/?cid=0x0:0x5bbe77a1ecaaea8
restaurant,Dapur Umum,Umma Eatery,"Jl. Gerilyawan, Yobe, Kec. Abepura, Kota Jayapura, Papua 99351","Yobe, Kec. Abepura, Kota Jayapura",PAPUA,99351.0,Indonesia,811484688.0,-2.6139368,140.6708121,https://maps.google.com/?cid=0x0:0x81bb34f7cf8553c2
restaurant,Ikan Bakar,Ikan Mujair Murni Rasa Abepura,"Wai Mhorock, Kec. Abepura, Kota Jayapura, Papua 99225","Kec. Abepura, Kota Jayapura",PAPUA,99225.0,Indonesia,81247335588.0,-2.606016,140.6696474,https://maps.google.com/?cid=0x0:0x1aa28394b51b3cba
restaurant,Ikan Bakar,Mujair Bakar Yudisyah Kotaraja,"Wai Mhorock, Kec. Abepura, Kota Jayapura, Papua 99225","Kec. Abepura, Kota Jayapura",PAPUA,99225.0,Indonesia,82399546212.0,-2.6004761,140.6763149,https://maps.google.com/?cid=0x0:0xef7eca24b91157a4
restaurant,Restoran,58 Hauzz Kitchen  Lounge,"Kota, Jl. Raya Abepura - Sentani, Kabupaten Jayapura, Papua","Kabupaten Jayapura, Papua",PAPUA,,Indonesia,8114858558.0,-2.6087433,140.6671875,https://maps.google.com/?cid=0x0:0xf9f022f92c8ea463
restaurant,Toko Kue,IRT Keripik Keladi Jayapura,"9MW8+4QF, Vim, Kec. Abepura, Kota Jayapura, Papua 99225","Vim, Kec. Abepura, Kota Jayapura",PAPUA,99225.0,Indonesia,81248175732.0,-2.604675,140.6669196,https://maps.google.com/?cid=0x0:0x83c6e5aecfc5f8b
restaurant,Restoran,RUMAH MAKAN LESTARI ABADI,"9MV9+HRX, Wai Mhorock, Kec. Abepura, Kota Jayapura, Papua 99225","Wai Mhorock, Kec. Abepura, Kota Jayapura",PAPUA,99225.0,Indonesia,85244401444.0,-2.6060194,140.6696038,https://maps.google.com/?cid=0x0:0x5f2a29031091d4a7
restaurant,Sesuai untuk keluarga,RM Aroma Toraya,"Vim, Kec. Abepura, Kota Jayapura, Papua 99225","Kec. Abepura, Kota Jayapura",PAPUA,99225.0,Indonesia,,-2.5989882,140.6729461,https://maps.google.com/?cid=0x0:0x23e379ff068c77a0
restaurant,Brunch,Pondok Algano,"Jl.Raya Waena Sentani Koperasi Denintel, Kp. Waena, Kec. Abepura, Kota Jayapura, Papua 99351","Kp. Waena, Kec. Abepura, Kota Jayapura",PAPUA,99351.0,Indonesia,9675172001.0,-2.6010988,140.6382825,https://maps.google.com/?cid=0x0:0x93c611f731c6d0f3
restaurant,restaurant,Papua 99226,"Wahno, Kec. Abepura, Kota Jayapura, Papua","Kota Jayapura, Papua",PAPUA,,Indonesia,,-2.5940542,140.6740309,https://maps.google.com/?cid=0x0:0xfee9da6af66c7cd1
restaurant,Rumah Makan,RestoCafe Rumah Laut,"Jl. Koti, Numbai, Distrik Jayapura Selatan, Kota Jayapura, Papua 99222","Numbai, Distrik Jayapura Selatan, Kota Jayapura",PAPUA,99222.0,Indonesia,9675160842.0,-2.5443152,140.7078561,https://maps.google.com/?cid=0x0:0xa0b850e17d17f09d
restaurant,Rumah Makan,Rumah Makan Sendok Garpu Jayapura,"Jl. Raya Abepura-Kotaraja Kota Baru, Wai Mhorock, Kec. Abepura, Kota Jayapura, Papua 99225","Wai Mhorock, Kec. Abepura, Kota Jayapura",PAPUA,99225.0,Indonesia,82310000123.0,-2.6057136,140.6694308,https://maps.google.com/?cid=0x0:0x9b347169a4f00047
restaurant,Dapur Umum,Umma Eatery,"Jl. Gerilyawan, Yobe, Kec. Abepura, Kota Jayapura, Papua 99351","Yobe, Kec. Abepura, Kota Jayapura",PAPUA,99351.0,Indonesia,811484688.0,-2.6139368,140.6708121,https://maps.google.com/?cid=0x0:0x81bb34f7cf8553c2
restaurant,Restoran,Yasbeer Cafe dan resto,"Engros, Kec. Abepura, Kota Jayapura, Papua","Kota Jayapura, Papua",PAPUA,,Indonesia,81248941111.0,-2.6005334,140.7153915,https://maps.google.com/?cid=0x0:0x34cbd734e60fa36b
restaurant,Restoran,Restaurant Yougwa,"CJ63+H23, Jl. Raya Abepura - Sentani, Asei Kecil, Kec. Sentani Tim., Kabupaten Jayapura, Papua 99351","Jl. Raya Abepura - Sentani, Asei Kecil, Kec. Sentani Tim., Kabupaten Jayapura",PAPUA,99351.0,Indonesia,8114801448.0,-2.5886245,140.602559,https://maps.google.com/?cid=0x0:0x65e60fc66014e79c
restaurant,Restoran,58 Hauzz Kitchen  Lounge,"Kota, Jl. Raya Abepura - Sentani, Kabupaten Jayapura, Papua","Kabupaten Jayapura, Papua",PAPUA,,Indonesia,8114858558.0,-2.6087433,140.6671875,https://maps.google.com/?cid=0x0:0xf9f022f92c8ea463
restaurant,Indonesia,RISKI RESTO,"CMJX+FFJ, Entrop, Distrik Jayapura Selatan, Kota Jayapura, Papua 99221","Entrop, Distrik Jayapura Selatan, Kota Jayapura",PAPUA,99221.0,Indonesia,81240072507.0,-2.5687852,140.698644,https://maps.google.com/?cid=0x0:0xbad724a0f8dd670d
restaurant,Restoran,Cristho Resto,"Jl. Raya Sentani - Waena, Asei Kecil, Kec. Sentani Tim., Kabupaten Jayapura, Papua 99351","Asei Kecil, Kec. Sentani Tim., Kabupaten Jayapura",PAPUA,99351.0,Indonesia,82248269002.0,-2.5885674,140.5954984,https://maps.google.com/?cid=0x0:0xe37fe4d7ad0bc892
restaurant,Hidangan Laut,B-One Restaurant,"FP45+5CR, Numbai, Distrik Jayapura Selatan, Kota Jayapura, Papua 99222","Numbai, Distrik Jayapura Selatan, Kota Jayapura",PAPUA,99222.0,Indonesia,81344533058.0,-2.5445125,140.7085143,https://maps.google.com/?cid=0x0:0xb8053f84d614fc3e
restaurant,Ikan Bakar,Mujair Bakar Yudisyah Kotaraja,"Wai Mhorock, Kec. Abepura, Kota Jayapura, Papua 99225","Kec. Abepura, Kota Jayapura",PAPUA,99225.0,Indonesia,82399546212.0,-2.6004761,140.6763149,https://maps.google.com/?cid=0x0:0xef7eca24b91157a4
restaurant,Kedai Kopi,Cafe Isasai,"Danau Sentani, Kp. Waena, Kec. Heram, Kota Jayapura, Papua 99351","Kp. Waena, Kec. Heram, Kota Jayapura",PAPUA,99351.0,Indonesia,,-2.598538,140.6244014,https://maps.google.com/?cid=0x0:0xc37a24107e869a96
restaurant,Kafe,Saanjh Cafe,"CJ2G+C7W, Jl. Gelanggang Remaja, Waena, Kec. Heram, Kota Jayapura, Papua 99351","Jl. Gelanggang Remaja, Waena, Kec. Heram, Kota Jayapura",PAPUA,99351.0,Indonesia,,-2.5988941,140.6256974,https://maps.google.com/?cid=0x0:0xf472b389c2309050
restaurant,Rumah Makan,Pondok Apung Tomarokai - PAT,"Doyo Lama, Distrik Waibu, Kabupaten Jayapura, Papua 99352","Distrik Waibu, Kabupaten Jayapura",PAPUA,99352.0,Indonesia,81240311499.0,-2.5662372,140.446269,https://maps.google.com/?cid=0x0:0x21c1f3b43605c3b5
restaurant,Rumah Makan,RestoCafe Rumah Laut,"Jl. Koti, Numbai, Distrik Jayapura Selatan, Kota Jayapura, Papua 99222","Numbai, Distrik Jayapura Selatan, Kota Jayapura",PAPUA,99222.0,Indonesia,9675160842.0,-2.5443152,140.7078561,https://maps.google.com/?cid=0x0:0xa0b850e17d17f09d
restaurant,restaurant,Papua 99111,"Kec. Jayapura Utara, Kota Jayapura, Papua","Kota Jayapura, Papua",PAPUA,,Indonesia,,-2.5084418,140.6326954,https://maps.google.com/?cid=0x0:0xdf06080a6648cb6c
restaurant,Padang,Restoran Surya manik,"Jl. Pacific Permai No.16, Bayangkara, Kec. Jayapura Utara, Kota Jayapura, Papua","Kota Jayapura, Papua",PAPUA,,Indonesia,8119593499.0,-2.5373873,140.709363,https://maps.google.com/?cid=0x0:0x65958e7339d47d91
restaurant,Hidangan Laut,B-One Restaurant,"FP45+5CR, Numbai, Distrik Jayapura Selatan, Kota Jayapura, Papua 99222","Numbai, Distrik Jayapura Selatan, Kota Jayapura",PAPUA,99222.0,Indonesia,81344533058.0,-2.5445125,140.7085143,https://maps.google.com/?cid=0x0:0xb8053f84d614fc3e
restaurant,Kafetaria,Wins Cafe and Resto,"Mall Jayapura, Jl. Dr. Sam Ratulangi lantai 3, Bayangkara, Kec. Jayapura Utara, Kota Jayapura, Papua 99221","Jl. Dr. Sam Ratulangi lantai 3, Bayangkara, Kec. Jayapura Utara, Kota Jayapura",PAPUA,99221.0,Indonesia,8114828100.0,-2.5352241,140.7061804,https://maps.google.com/?cid=0x0:0x9cbed137e3d3df24
restaurant,Kedai Kopi,Pace Tan pu Kopitiam,"Jalan Pasifik Permai Blok B no 15, Kompleks Ruko Dok II, Jl. Pacific Permai No.16, Bayangkara, Kec. Jayapura Utara, Kota Jayapura, Papua 99111","Kompleks Ruko Dok II, Jl. Pacific Permai No.16, Bayangkara, Kec. Jayapura Utara, Kota Jayapura",PAPUA,99111.0,Indonesia,81376566794.0,-2.5373342,140.7092965,https://maps.google.com/?cid=0x0:0x1f1a43593e97ad0c
restaurant,Rumah Makan,Rumah Makan Sendok Garpu Jayapura,"Jl. Raya Abepura-Kotaraja Kota Baru, Wai Mhorock, Kec. Abepura, Kota Jayapura, Papua 99225","Wai Mhorock, Kec. Abepura, Kota Jayapura",PAPUA,99225.0,Indonesia,82310000123.0,-2.6057136,140.6694308,https://maps.google.com/?cid=0x0:0x9b347169a4f00047
restaurant,Ayam Goreng,KFC Jayapura Papua,"FP54+G2R, Gurabesi, Kec. Jayapura Utara, Kota Jayapura, Papua 99111","Gurabesi, Kec. Jayapura Utara, Kota Jayapura",PAPUA,99111.0,Indonesia,2114022.0,-2.5409949,140.7050076,https://maps.google.com/?cid=0x0:0x23d502d21adf8e58
restaurant,Padang,RM NUSANTARA,"APO, Bayangkara, Kec. Jayapura Utara, Kota Jayapura, Papua 99112","Bayangkara, Kec. Jayapura Utara, Kota Jayapura",PAPUA,99112.0,Indonesia,967522735.0,-2.5348064,140.7064074,https://maps.google.com/?cid=0x0:0x3503aa175f618ba1
restaurant,Perusahaan Konstruksi,Angkasa Cafe  Resto,"Jl. Sujarwo Condronegoro, Angkasapura, Kec. Jayapura Utara, Kota Jayapura, Papua 99114","Angkasapura, Kec. Jayapura Utara, Kota Jayapura",PAPUA,99114.0,Indonesia,81333121001.0,-2.5186417,140.7077602,https://maps.google.com/?cid=0x0:0x63b09be4131a5f9
restaurant,Restoran,Restaurant Yougwa,"CJ63+H23, Jl. Raya Abepura - Sentani, Asei Kecil, Kec. Sentani Tim., Kabupaten Jayapura, Papua 99351","Jl. Raya Abepura - Sentani, Asei Kecil, Kec. Sentani Tim., Kabupaten Jayapura",PAPUA,99351.0,Indonesia,8114801448.0,-2.5886245,140.602559,https://maps.google.com/?cid=0x0:0x65e60fc66014e79c
restaurant,Ramen,Kusuka Cafe  Resto,"Seberang Astra Honda, masuk lorong sebelah jayamart, Jl. Klp. 2 No.18, Entrop, Jayapura Selatan, Jayapura City, Papua 99221","masuk lorong sebelah jayamart, Jl. Klp. 2 No.18, Entrop, Jayapura Selatan, Jayapura City",PAPUA,99221.0,Indonesia,,-2.5689574,140.7025065,https://maps.google.com/?cid=0x0:0xc48e7a8e5d46dab5
restaurant,China,Warung Makan Gemini Chinese Food,"FP75+HC7, Bayangkara, Kec. Jayapura Utara, Kota Jayapura, Papua","Kota Jayapura, Papua",PAPUA,,Indonesia,,-2.5360993,140.7085408,https://maps.google.com/?cid=0x0:0x27a738403e3150f9
restaurant,Mi,Bubur Mandala Jayapura,"Pusat Bisnis Jayapura Pasifik Permai Blok G No 7, Bayangkara, Kec. Jayapura Utara, Kota Jayapura, Papua 99112","Bayangkara, Kec. Jayapura Utara, Kota Jayapura",PAPUA,99112.0,Indonesia,967531058.0,-2.5384309,140.7107409,https://maps.google.com/?cid=0x0:0x2b0c2bfc207f8617
restaurant,restaurant,Papua 99112,"Bayangkara, Kec. Jayapura Utara, Kota Jayapura, Papua","Kota Jayapura, Papua",PAPUA,,Indonesia,,-2.5099296,140.6741875,https://maps.google.com/?cid=0x0:0x1e30ed7c2a61f1f1
restaurant,Prasmanan,Rm.Cantika Prasmanan 2,"Sebelah Hotel Grand View  Sebelah Hotel Swiss Bell, Jl. Pacific Permai No.1-16, Bayangkara, Kec. Jayapura Utara, Kota Jayapura, Papua 99112","Jl. Pacific Permai No.1-16, Bayangkara, Kec. Jayapura Utara, Kota Jayapura",PAPUA,99112.0,Indonesia,81391643037.0,-2.5382597,140.7125647,https://maps.google.com/?cid=0x0:0x7e238dd26e449659
restaurant,Rumah Makan,RestoCafe Rumah Laut,"Jl. Koti, Numbai, Distrik Jayapura Selatan, Kota Jayapura, Papua 99222","Numbai, Distrik Jayapura Selatan, Kota Jayapura",PAPUA,99222.0,Indonesia,9675160842.0,-2.5443152,140.7078561,https://maps.google.com/?cid=0x0:0xa0b850e17d17f09d
restaurant,Restoran,RM. Bambu Kuning,"Jl. RUKO PASIFIK PERMAI BLOG C.6, Bayangkara, Kec. Jayapura Utara, Kota Jayapura, Papua 99112","Bayangkara, Kec. Jayapura Utara, Kota Jayapura",PAPUA,99112.0,Indonesia,81296888872.0,-2.537569,140.71002,https://maps.google.com/?cid=0x0:0x83580e279412483f
restaurant,China,Warung Makan Gemini Chinese Food,"FP75+HC7, Bayangkara, Kec. Jayapura Utara, Kota Jayapura, Papua","Kota Jayapura, Papua",PAPUA,,Indonesia,,-2.5360993,140.7085408,https://maps.google.com/?cid=0x0:0x27a738403e3150f9
restaurant,Kafe,Outside Jayapura,"Jalan Soa Siu dok 2, Kec. Jayapura Utara, Kota Jayapura, Papua","Kota Jayapura, Papua",PAPUA,,Indonesia,81317579725.0,-2.5381508,140.7135431,https://maps.google.com/?cid=0x0:0xe7f590eaa4e0651e
restaurant,Kedai Kopi,Pace Tan pu Kopitiam,"Jalan Pasifik Permai Blok B no 15, Kompleks Ruko Dok II, Jl. Pacific Permai No.16, Bayangkara, Kec. Jayapura Utara, Kota Jayapura, Papua 99111","Kompleks Ruko Dok II, Jl. Pacific Permai No.16, Bayangkara, Kec. Jayapura Utara, Kota Jayapura",PAPUA,99111.0,Indonesia,81376566794.0,-2.5373342,140.7092965,https://maps.google.com/?cid=0x0:0x1f1a43593e97ad0c
restaurant,Perusahaan Konstruksi,Angkasa Cafe  Resto,"Jl. Sujarwo Condronegoro, Angkasapura, Kec. Jayapura Utara, Kota Jayapura, Papua 99114","Angkasapura, Kec. Jayapura Utara, Kota Jayapura",PAPUA,99114.0,Indonesia,81333121001.0,-2.5186417,140.7077602,https://maps.google.com/?cid=0x0:0x63b09be4131a5f9
restaurant,Kafetaria,Wins Cafe and Resto,"Mall Jayapura, Jl. Dr. Sam Ratulangi lantai 3, Bayangkara, Kec. Jayapura Utara, Kota Jayapura, Papua 99221","Jl. Dr. Sam Ratulangi lantai 3, Bayangkara, Kec. Jayapura Utara, Kota Jayapura",PAPUA,99221.0,Indonesia,8114828100.0,-2.5352241,140.7061804,https://maps.google.com/?cid=0x0:0x9cbed137e3d3df24
restaurant,China,Oriental Resto (Chinese Food),"Ruko Jayapura, Jl. Pacific Permai Jalan Pacific No.23 Blok C, Bayangkara, Kec. Jayapura Utara, Kota Jayapura, Papua 99111","Jl. Pacific Permai Jalan Pacific No.23 Blok C, Bayangkara, Kec. Jayapura Utara, Kota Jayapura",PAPUA,99111.0,Indonesia,811484909.0,-2.5377999,140.7108801,https://maps.google.com/?cid=0x0:0x5793d2ffbff0f23a
restaurant,Hidangan Laut,B-One Restaurant,"FP45+5CR, Numbai, Distrik Jayapura Selatan, Kota Jayapura, Papua 99222","Numbai, Distrik Jayapura Selatan, Kota Jayapura",PAPUA,99222.0,Indonesia,81344533058.0,-2.5445125,140.7085143,https://maps.google.com/?cid=0x0:0xb8053f84d614fc3e
restaurant,Padang,Restoran Surya manik,"Jl. Pacific Permai No.16, Bayangkara, Kec. Jayapura Utara, Kota Jayapura, Papua","Kota Jayapura, Papua",PAPUA,,Indonesia,8119593499.0,-2.5373873,140.709363,https://maps.google.com/?cid=0x0:0x65958e7339d47d91
restaurant,Nasi Goreng,RM Sabar Menanti,"FP84+977, Jl. Kab. 1, Bayangkara, Kec. Jayapura Utara, Kota Jayapura, Papua 99112","Jl. Kab. 1, Bayangkara, Kec. Jayapura Utara, Kota Jayapura",PAPUA,99112.0,Indonesia,,-2.5340877,140.7056632,https://maps.google.com/?cid=0x0:0x1fd2e38e8e6671b9
restaurant,Mi,Bubur Mandala Jayapura,"Pusat Bisnis Jayapura Pasifik Permai Blok G No 7, Bayangkara, Kec. Jayapura Utara, Kota Jayapura, Papua 99112","Bayangkara, Kec. Jayapura Utara, Kota Jayapura",PAPUA,99112.0,Indonesia,967531058.0,-2.5384309,140.7107409,https://maps.google.com/?cid=0x0:0x2b0c2bfc207f8617
restaurant,restaurant,Papua 99113,"Kec. Jayapura Utara, Kota Jayapura, Papua","Kota Jayapura, Papua",PAPUA,,Indonesia,,-2.4943571,140.6741875,https://maps.google.com/?cid=0x0:0x4a109ffe0e6c7e65
restaurant,Rumah Makan,Rumah Makan Sendok Garpu Jayapura,"Jl. Raya Abepura-Kotaraja Kota Baru, Wai Mhorock, Kec. Abepura, Kota Jayapura, Papua 99225","Wai Mhorock, Kec. Abepura, Kota Jayapura",PAPUA,99225.0,Indonesia,82310000123.0,-2.6057136,140.6694308,https://maps.google.com/?cid=0x0:0x9b347169a4f00047
restaurant,Rumah Makan,RestoCafe Rumah Laut,"Jl. Koti, Numbai, Distrik Jayapura Selatan, Kota Jayapura, Papua 99222","Numbai, Distrik Jayapura Selatan, Kota Jayapura",PAPUA,99222.0,Indonesia,9675160842.0,-2.5443152,140.7078561,https://maps.google.com/?cid=0x0:0xa0b850e17d17f09d
restaurant,Ramen,Kusuka Cafe  Resto,"Seberang Astra Honda, masuk lorong sebelah jayamart, Jl. Klp. 2 No.18, Entrop, Jayapura Selatan, Jayapura City, Papua 99221","masuk lorong sebelah jayamart, Jl. Klp. 2 No.18, Entrop, Jayapura Selatan, Jayapura City",PAPUA,99221.0,Indonesia,,-2.5689574,140.7025065,https://maps.google.com/?cid=0x0:0xc48e7a8e5d46dab5
restaurant,Restoran,Yasbeer Cafe dan resto,"Engros, Kec. Abepura, Kota Jayapura, Papua","Kota Jayapura, Papua",PAPUA,,Indonesia,81248941111.0,-2.6005334,140.7153915,https://maps.google.com/?cid=0x0:0x34cbd734e60fa36b
restaurant,Korea,Komasako grill  suki,"Jln. Smu 45 ( sebelum astra honda, Kota Jayapura, Papua","Kota Jayapura, Papua",PAPUA,,Indonesia,85243020302.0,-2.5668624,140.7018752,https://maps.google.com/?cid=0x0:0xd0ddad7abbf3e7fc
restaurant,Dapur Umum,Umma Eatery,"Jl. Gerilyawan, Yobe, Kec. Abepura, Kota Jayapura, Papua 99351","Yobe, Kec. Abepura, Kota Jayapura",PAPUA,99351.0,Indonesia,811484688.0,-2.6139368,140.6708121,https://maps.google.com/?cid=0x0:0x81bb34f7cf8553c2
restaurant,Restoran,Cristho Resto,"Jl. Raya Sentani - Waena, Asei Kecil, Kec. Sentani Tim., Kabupaten Jayapura, Papua 99351","Asei Kecil, Kec. Sentani Tim., Kabupaten Jayapura",PAPUA,99351.0,Indonesia,82248269002.0,-2.5885674,140.5954984,https://maps.google.com/?cid=0x0:0xe37fe4d7ad0bc892
restaurant,Restoran,Djoeragan Dapur Resto and Cafe,"Engros, Kec. Abepura, Kota Jayapura, Papua","Kota Jayapura, Papua",PAPUA,,Indonesia,81292006323.0,-2.5999813,140.7147104,https://maps.google.com/?cid=0x0:0xb8853f9fee2cdbc
restaurant,Restoran,Restaurant Yougwa,"CJ63+H23, Jl. Raya Abepura - Sentani, Asei Kecil, Kec. Sentani Tim., Kabupaten Jayapura, Papua 99351","Jl. Raya Abepura - Sentani, Asei Kecil, Kec. Sentani Tim., Kabupaten Jayapura",PAPUA,99351.0,Indonesia,8114801448.0,-2.5886245,140.602559,https://maps.google.com/?cid=0x0:0x65e60fc66014e79c
restaurant,Kafe,Outside Jayapura,"Jalan Soa Siu dok 2, Kec. Jayapura Utara, Kota Jayapura, Papua","Kota Jayapura, Papua",PAPUA,,Indonesia,81317579725.0,-2.5381508,140.7135431,https://maps.google.com/?cid=0x0:0xe7f590eaa4e0651e
restaurant,Kedai Kopi,Pace Tan pu Kopitiam,"Jalan Pasifik Permai Blok B no 15, Kompleks Ruko Dok II, Jl. Pacific Permai No.16, Bayangkara, Kec. Jayapura Utara, Kota Jayapura, Papua 99111","Kompleks Ruko Dok II, Jl. Pacific Permai No.16, Bayangkara, Kec. Jayapura Utara, Kota Jayapura",PAPUA,99111.0,Indonesia,81376566794.0,-2.5373342,140.7092965,https://maps.google.com/?cid=0x0:0x1f1a43593e97ad0c
restaurant,Ikan Bakar,Restaurant HIYAKE,"Asano, Kec. Abepura, Kota Jayapura, Papua 99351","Kec. Abepura, Kota Jayapura",PAPUA,99351.0,Indonesia,,-2.6170625,140.6810625,https://maps.google.com/?cid=0x0:0xd0238f33fd19f43
restaurant,Kedai Kopi,Cafe Isasai,"Danau Sentani, Kp. Waena, Kec. Heram, Kota Jayapura, Papua 99351","Kp. Waena, Kec. Heram, Kota Jayapura",PAPUA,99351.0,Indonesia,,-2.598538,140.6244014,https://maps.google.com/?cid=0x0:0xc37a24107e869a96
restaurant,restaurant,Papua 99114,"Kec. Jayapura Utara, Kabupaten Jayawijaya, Papua","Kabupaten Jayawijaya, Papua",PAPUA,,Indonesia,,-2.5167961,140.7027292,https://maps.google.com/?cid=0x0:0xfbf882c9b5d1cad7
restaurant,Perusahaan Konstruksi,Angkasa Cafe  Resto,"Jl. Sujarwo Condronegoro, Angkasapura, Kec. Jayapura Utara, Kota Jayapura, Papua 99114","Angkasapura, Kec. Jayapura Utara, Kota Jayapura",PAPUA,99114.0,Indonesia,81333121001.0,-2.5186417,140.7077602,https://maps.google.com/?cid=0x0:0x63b09be4131a5f9
restaurant,China,Oriental Resto (Chinese Food),"Ruko Jayapura, Jl. Pacific Permai Jalan Pacific No.23 Blok C, Bayangkara, Kec. Jayapura Utara, Kota Jayapura, Papua 99111","Jl. Pacific Permai Jalan Pacific No.23 Blok C, Bayangkara, Kec. Jayapura Utara, Kota Jayapura",PAPUA,99111.0,Indonesia,811484909.0,-2.5377999,140.7108801,https://maps.google.com/?cid=0x0:0x5793d2ffbff0f23a
restaurant,Rumah Makan,RestoCafe Rumah Laut,"Jl. Koti, Numbai, Distrik Jayapura Selatan, Kota Jayapura, Papua 99222","Numbai, Distrik Jayapura Selatan, Kota Jayapura",PAPUA,99222.0,Indonesia,9675160842.0,-2.5443152,140.7078561,https://maps.google.com/?cid=0x0:0xa0b850e17d17f09d
restaurant,Restoran,Restaurant Yougwa,"CJ63+H23, Jl. Raya Abepura - Sentani, Asei Kecil, Kec. Sentani Tim., Kabupaten Jayapura, Papua 99351","Jl. Raya Abepura - Sentani, Asei Kecil, Kec. Sentani Tim., Kabupaten Jayapura",PAPUA,99351.0,Indonesia,8114801448.0,-2.5886245,140.602559,https://maps.google.com/?cid=0x0:0x65e60fc66014e79c
restaurant,Hidangan Laut,B-One Restaurant,"FP45+5CR, Numbai, Distrik Jayapura Selatan, Kota Jayapura, Papua 99222","Numbai, Distrik Jayapura Selatan, Kota Jayapura",PAPUA,99222.0,Indonesia,81344533058.0,-2.5445125,140.7085143,https://maps.google.com/?cid=0x0:0xb8053f84d614fc3e
restaurant,Ramen,Kusuka Cafe  Resto,"Seberang Astra Honda, masuk lorong sebelah jayamart, Jl. Klp. 2 No.18, Entrop, Jayapura Selatan, Jayapura City, Papua 99221","masuk lorong sebelah jayamart, Jl. Klp. 2 No.18, Entrop, Jayapura Selatan, Jayapura City",PAPUA,99221.0,Indonesia,,-2.5689574,140.7025065,https://maps.google.com/?cid=0x0:0xc48e7a8e5d46dab5
restaurant,Hidangan Laut,Kaita Cafe  Gallery,"Tj. Ria, Kec. Jayapura Utara, Kota Jayapura, Papua 99117","Kec. Jayapura Utara, Kota Jayapura",PAPUA,99117.0,Indonesia,82198055571.0,-2.5035506,140.7169244,https://maps.google.com/?cid=0x0:0xc4945c6f20f301b7
restaurant,Rumah Makan,Rumah Makan Sendok Garpu Jayapura,"Jl. Raya Abepura-Kotaraja Kota Baru, Wai Mhorock, Kec. Abepura, Kota Jayapura, Papua 99225","Wai Mhorock, Kec. Abepura, Kota Jayapura",PAPUA,99225.0,Indonesia,82310000123.0,-2.6057136,140.6694308,https://maps.google.com/?cid=0x0:0x9b347169a4f00047
restaurant,Restoran,Pit's Corner ( Papua Specialty Coffee ),"Jalan kasuari no.2 Dok V Atas, Mandala, Jayapura Utara, Jayapura City, Papua 99114","Mandala, Jayapura Utara, Jayapura City",PAPUA,99114.0,Indonesia,9675160443.0,-2.5310642,140.71875,https://maps.google.com/?cid=0x0:0xf39f3950a3bf5ed2
restaurant,Restoran,Yasbeer Cafe dan resto,"Engros, Kec. Abepura, Kota Jayapura, Papua","Kota Jayapura, Papua",PAPUA,,Indonesia,81248941111.0,-2.6005334,140.7153915,https://maps.google.com/?cid=0x0:0x34cbd734e60fa36b
restaurant,Bakso,Bakso YAPIS Dok V,"FP98+WH4, Mandala, Kec. Jayapura Utara, Kota Jayapura, Papua","Kota Jayapura, Papua",PAPUA,,Indonesia,,-2.5302467,140.7164377,https://maps.google.com/?cid=0x0:0x398e3bb8e6fbcec0
restaurant,Makanan Kecil,Restoran,"FPC9+FQC, Trikora, Dok5, Kota Jayapura, Papua","Kota Jayapura, Papua",PAPUA,,Indonesia,,-2.5288229,140.7193967,https://maps.google.com/?cid=0x0:0xfb9e0399ac93466c
restaurant,Katering,Rumah makan Cantika Prasmanan 1 Entrop,"toko bangunan surya prima masuk 200 meter, Jalan baru kelapa 2 Entrop (kompleks PT.ABS, Lorong, Distrik Jayapura Selatan, Kota Jayapura, Papua 99221","Jalan baru kelapa 2 Entrop (kompleks PT.ABS, Lorong, Distrik Jayapura Selatan, Kota Jayapura",PAPUA,99221.0,Indonesia,8114841867.0,-2.5691257,140.7020927,https://maps.google.com/?cid=0x0:0xdd301761035cd1ff
restaurant,restaurant,Kec. Jayapura Utara,"Kota Jayapura, Papua","Kota Jayapura, Papua",PAPUA,,Indonesia,,-2.5312067,140.7199798,https://maps.google.com/?cid=0x0:0x13fe60c6bfbe82b0
restaurant,Padang,Restoran Surya manik,"Jl. Pacific Permai No.16, Bayangkara, Kec. Jayapura Utara, Kota Jayapura, Papua","Kota Jayapura, Papua",PAPUA,,Indonesia,8119593499.0,-2.5373873,140.709363,https://maps.google.com/?cid=0x0:0x65958e7339d47d91
restaurant,Rumah Makan,RestoCafe Rumah Laut,"Jl. Koti, Numbai, Distrik Jayapura Selatan, Kota Jayapura, Papua 99222","Numbai, Distrik Jayapura Selatan, Kota Jayapura",PAPUA,99222.0,Indonesia,9675160842.0,-2.5443152,140.7078561,https://maps.google.com/?cid=0x0:0xa0b850e17d17f09d
restaurant,Padang,RM NUSANTARA,"APO, Bayangkara, Kec. Jayapura Utara, Kota Jayapura, Papua 99112","Bayangkara, Kec. Jayapura Utara, Kota Jayapura",PAPUA,99112.0,Indonesia,967522735.0,-2.5348064,140.7064074,https://maps.google.com/?cid=0x0:0x3503aa175f618ba1
restaurant,Restoran,RM. Bambu Kuning,"Jl. RUKO PASIFIK PERMAI BLOG C.6, Bayangkara, Kec. Jayapura Utara, Kota Jayapura, Papua 99112","Bayangkara, Kec. Jayapura Utara, Kota Jayapura",PAPUA,99112.0,Indonesia,81296888872.0,-2.537569,140.71002,https://maps.google.com/?cid=0x0:0x83580e279412483f
restaurant,Restoran,Pit's Corner ( Papua Specialty Coffee ),"Jalan kasuari no.2 Dok V Atas, Mandala, Jayapura Utara, Jayapura City, Papua 99114","Mandala, Jayapura Utara, Jayapura City",PAPUA,99114.0,Indonesia,9675160443.0,-2.5310642,140.71875,https://maps.google.com/?cid=0x0:0xf39f3950a3bf5ed2
restaurant,Kafe,Outside Jayapura,"Jalan Soa Siu dok 2, Kec. Jayapura Utara, Kota Jayapura, Papua","Kota Jayapura, Papua",PAPUA,,Indonesia,81317579725.0,-2.5381508,140.7135431,https://maps.google.com/?cid=0x0:0xe7f590eaa4e0651e
restaurant,Ramen,Kusuka Cafe  Resto,"Seberang Astra Honda, masuk lorong sebelah jayamart, Jl. Klp. 2 No.18, Entrop, Jayapura Selatan, Jayapura City, Papua 99221","masuk lorong sebelah jayamart, Jl. Klp. 2 No.18, Entrop, Jayapura Selatan, Jayapura City",PAPUA,99221.0,Indonesia,,-2.5689574,140.7025065,https://maps.google.com/?cid=0x0:0xc48e7a8e5d46dab5
restaurant,Rumah Makan,Rumah Makan Sendok Garpu Jayapura,"Jl. Raya Abepura-Kotaraja Kota Baru, Wai Mhorock, Kec. Abepura, Kota Jayapura, Papua 99225","Wai Mhorock, Kec. Abepura, Kota Jayapura",PAPUA,99225.0,Indonesia,82310000123.0,-2.6057136,140.6694308,https://maps.google.com/?cid=0x0:0x9b347169a4f00047
restaurant,Kedai Kopi,Pace Tan pu Kopitiam,"Jalan Pasifik Permai Blok B no 15, Kompleks Ruko Dok II, Jl. Pacific Permai No.16, Bayangkara, Kec. Jayapura Utara, Kota Jayapura, Papua 99111","Kompleks Ruko Dok II, Jl. Pacific Permai No.16, Bayangkara, Kec. Jayapura Utara, Kota Jayapura",PAPUA,99111.0,Indonesia,81376566794.0,-2.5373342,140.7092965,https://maps.google.com/?cid=0x0:0x1f1a43593e97ad0c
restaurant,Restoran,Bolu ta,"FP75+3HV, Jl. Pacific Permai, Bayangkara, Kec. Jayapura Utara, Kota Jayapura, Papua","Kota Jayapura, Papua",PAPUA,,Indonesia,,-2.5372529,140.7089243,https://maps.google.com/?cid=0x0:0x612a5f6cbf348ebe
restaurant,Nasi Goreng,RM Sabar Menanti,"FP84+977, Jl. Kab. 1, Bayangkara, Kec. Jayapura Utara, Kota Jayapura, Papua 99112","Jl. Kab. 1, Bayangkara, Kec. Jayapura Utara, Kota Jayapura",PAPUA,99112.0,Indonesia,,-2.5340877,140.7056632,https://maps.google.com/?cid=0x0:0x1fd2e38e8e6671b9
restaurant,Mi,Bubur Mandala Jayapura,"Pusat Bisnis Jayapura Pasifik Permai Blok G No 7, Bayangkara, Kec. Jayapura Utara, Kota Jayapura, Papua 99112","Bayangkara, Kec. Jayapura Utara, Kota Jayapura",PAPUA,99112.0,Indonesia,967531058.0,-2.5384309,140.7107409,https://maps.google.com/?cid=0x0:0x2b0c2bfc207f8617
restaurant,Prasmanan,Rm.Cantika Prasmanan 2,"Sebelah Hotel Grand View  Sebelah Hotel Swiss Bell, Jl. Pacific Permai No.1-16, Bayangkara, Kec. Jayapura Utara, Kota Jayapura, Papua 99112","Jl. Pacific Permai No.1-16, Bayangkara, Kec. Jayapura Utara, Kota Jayapura",PAPUA,99112.0,Indonesia,81391643037.0,-2.5382597,140.7125647,https://maps.google.com/?cid=0x0:0x7e238dd26e449659
restaurant,Rumah Makan,RestoCafe Rumah Laut,"Jl. Koti, Numbai, Distrik Jayapura Selatan, Kota Jayapura, Papua 99222","Numbai, Distrik Jayapura Selatan, Kota Jayapura",PAPUA,99222.0,Indonesia,9675160842.0,-2.5443152,140.7078561,https://maps.google.com/?cid=0x0:0xa0b850e17d17f09d
restaurant,restaurant,Papua 99116,"Angkasapura, Kec. Jayapura Utara, Kota Jayapura, Papua","Kota Jayapura, Papua",PAPUA,,Indonesia,,-2.5091904,140.70792,https://maps.google.com/?cid=0x0:0x234bf316c4205d54
restaurant,Perusahaan Konstruksi,Angkasa Cafe  Resto,"Jl. Sujarwo Condronegoro, Angkasapura, Kec. Jayapura Utara, Kota Jayapura, Papua 99114","Angkasapura, Kec. Jayapura Utara, Kota Jayapura",PAPUA,99114.0,Indonesia,81333121001.0,-2.5186417,140.7077602,https://maps.google.com/?cid=0x0:0x63b09be4131a5f9
restaurant,Kafetaria,Wins Cafe and Resto,"Mall Jayapura, Jl. Dr. Sam Ratulangi lantai 3, Bayangkara, Kec. Jayapura Utara, Kota Jayapura, Papua 99221","Jl. Dr. Sam Ratulangi lantai 3, Bayangkara, Kec. Jayapura Utara, Kota Jayapura",PAPUA,99221.0,Indonesia,8114828100.0,-2.5352241,140.7061804,https://maps.google.com/?cid=0x0:0x9cbed137e3d3df24
restaurant,Padang,Restoran Surya manik,"Jl. Pacific Permai No.16, Bayangkara, Kec. Jayapura Utara, Kota Jayapura, Papua","Kota Jayapura, Papua",PAPUA,,Indonesia,8119593499.0,-2.5373873,140.709363,https://maps.google.com/?cid=0x0:0x65958e7339d47d91
restaurant,Restoran,Caroeng,"FP65+XWF, Bayangkara, Kec. Jayapura Utara, Kota Jayapura, Papua","Kota Jayapura, Papua",PAPUA,,Indonesia,81344244823.0,-2.5375523,140.709784,https://maps.google.com/?cid=0x0:0xd9898d0dfdf0d185
restaurant,Rumah Makan,Rumah Makan Sendok Garpu Jayapura,"Jl. Raya Abepura-Kotaraja Kota Baru, Wai Mhorock, Kec. Abepura, Kota Jayapura, Papua 99225","Wai Mhorock, Kec. Abepura, Kota Jayapura",PAPUA,99225.0,Indonesia,82310000123.0,-2.6057136,140.6694308,https://maps.google.com/?cid=0x0:0x9b347169a4f00047
restaurant,Hidangan Laut,Kaita Cafe  Gallery,"Tj. Ria, Kec. Jayapura Utara, Kota Jayapura, Papua 99117","Kec. Jayapura Utara, Kota Jayapura",PAPUA,99117.0,Indonesia,82198055571.0,-2.5035506,140.7169244,https://maps.google.com/?cid=0x0:0xc4945c6f20f301b7
restaurant,Ramen,Kusuka Cafe  Resto,"Seberang Astra Honda, masuk lorong sebelah jayamart, Jl. Klp. 2 No.18, Entrop, Jayapura Selatan, Jayapura City, Papua 99221","masuk lorong sebelah jayamart, Jl. Klp. 2 No.18, Entrop, Jayapura Selatan, Jayapura City",PAPUA,99221.0,Indonesia,,-2.5689574,140.7025065,https://maps.google.com/?cid=0x0:0xc48e7a8e5d46dab5
restaurant,Hidangan Laut,B-One Restaurant,"FP45+5CR, Numbai, Distrik Jayapura Selatan, Kota Jayapura, Papua 99222","Numbai, Distrik Jayapura Selatan, Kota Jayapura",PAPUA,99222.0,Indonesia,81344533058.0,-2.5445125,140.7085143,https://maps.google.com/?cid=0x0:0xb8053f84d614fc3e
restaurant,Prasmanan,Rm.Cantika Prasmanan 2,"Sebelah Hotel Grand View  Sebelah Hotel Swiss Bell, Jl. Pacific Permai No.1-16, Bayangkara, Kec. Jayapura Utara, Kota Jayapura, Papua 99112","Jl. Pacific Permai No.1-16, Bayangkara, Kec. Jayapura Utara, Kota Jayapura",PAPUA,99112.0,Indonesia,81391643037.0,-2.5382597,140.7125647,https://maps.google.com/?cid=0x0:0x7e238dd26e449659
restaurant,China,Warung Makan Gemini Chinese Food,"FP75+HC7, Bayangkara, Kec. Jayapura Utara, Kota Jayapura, Papua","Kota Jayapura, Papua",PAPUA,,Indonesia,,-2.5360993,140.7085408,https://maps.google.com/?cid=0x0:0x27a738403e3150f9
restaurant,Bakso,Bakso YAPIS Dok V,"FP98+WH4, Mandala, Kec. Jayapura Utara, Kota Jayapura, Papua","Kota Jayapura, Papua",PAPUA,,Indonesia,,-2.5302467,140.7164377,https://maps.google.com/?cid=0x0:0x398e3bb8e6fbcec0
restaurant,Restoran,Restaurant Yougwa,"CJ63+H23, Jl. Raya Abepura - Sentani, Asei Kecil, Kec. Sentani Tim., Kabupaten Jayapura, Papua 99351","Jl. Raya Abepura - Sentani, Asei Kecil, Kec. Sentani Tim., Kabupaten Jayapura",PAPUA,99351.0,Indonesia,8114801448.0,-2.5886245,140.602559,https://maps.google.com/?cid=0x0:0x65e60fc66014e79c
restaurant,restaurant,Papua 99117,"Tj. Ria, Kec. Jayapura Utara, Kota Jayapura, Papua","Kota Jayapura, Papua",PAPUA,,Indonesia,,-2.493242,140.6975389,https://maps.google.com/?cid=0x0:0xf4a40bbba525574f
restaurant,Hidangan Laut,Kaita Cafe  Gallery,"Tj. Ria, Kec. Jayapura Utara, Kota Jayapura, Papua 99117","Kec. Jayapura Utara, Kota Jayapura",PAPUA,99117.0,Indonesia,82198055571.0,-2.5035506,140.7169244,https://maps.google.com/?cid=0x0:0xc4945c6f20f301b7
restaurant,Rumah Makan,RestoCafe Rumah Laut,"Jl. Koti, Numbai, Distrik Jayapura Selatan, Kota Jayapura, Papua 99222","Numbai, Distrik Jayapura Selatan, Kota Jayapura",PAPUA,99222.0,Indonesia,9675160842.0,-2.5443152,140.7078561,https://maps.google.com/?cid=0x0:0xa0b850e17d17f09d
restaurant,Restoran,Restaurant Yougwa,"CJ63+H23, Jl. Raya Abepura - Sentani, Asei Kecil, Kec. Sentani Tim., Kabupaten Jayapura, Papua 99351","Jl. Raya Abepura - Sentani, Asei Kecil, Kec. Sentani Tim., Kabupaten Jayapura",PAPUA,99351.0,Indonesia,8114801448.0,-2.5886245,140.602559,https://maps.google.com/?cid=0x0:0x65e60fc66014e79c
restaurant,Hidangan Laut,Blue Cafe,"FP66+F5Q, Bayangkara, Kec. Jayapura Utara, Kota Jayapura, Papua","Kota Jayapura, Papua",PAPUA,,Indonesia,81248784973.0,-2.5387879,140.7104847,https://maps.google.com/?cid=0x0:0x8d41b2f6e432b200
restaurant,Kafetaria,Wins Cafe and Resto,"Mall Jayapura, Jl. Dr. Sam Ratulangi lantai 3, Bayangkara, Kec. Jayapura Utara, Kota Jayapura, Papua 99221","Jl. Dr. Sam Ratulangi lantai 3, Bayangkara, Kec. Jayapura Utara, Kota Jayapura",PAPUA,99221.0,Indonesia,8114828100.0,-2.5352241,140.7061804,https://maps.google.com/?cid=0x0:0x9cbed137e3d3df24
restaurant,Rumah Makan,Rumah Makan Sendok Garpu Jayapura,"Jl. Raya Abepura-Kotaraja Kota Baru, Wai Mhorock, Kec. Abepura, Kota Jayapura, Papua 99225","Wai Mhorock, Kec. Abepura, Kota Jayapura",PAPUA,99225.0,Indonesia,82310000123.0,-2.6057136,140.6694308,https://maps.google.com/?cid=0x0:0x9b347169a4f00047
restaurant,Ramen,Kusuka Cafe  Resto,"Seberang Astra Honda, masuk lorong sebelah jayamart, Jl. Klp. 2 No.18, Entrop, Jayapura Selatan, Jayapura City, Papua 99221","masuk lorong sebelah jayamart, Jl. Klp. 2 No.18, Entrop, Jayapura Selatan, Jayapura City",PAPUA,99221.0,Indonesia,,-2.5689574,140.7025065,https://maps.google.com/?cid=0x0:0xc48e7a8e5d46dab5
restaurant,Hidangan Laut,B-One Restaurant,"FP45+5CR, Numbai, Distrik Jayapura Selatan, Kota Jayapura, Papua 99222","Numbai, Distrik Jayapura Selatan, Kota Jayapura",PAPUA,99222.0,Indonesia,81344533058.0,-2.5445125,140.7085143,https://maps.google.com/?cid=0x0:0xb8053f84d614fc3e
restaurant,China,Oriental Resto (Chinese Food),"Ruko Jayapura, Jl. Pacific Permai Jalan Pacific No.23 Blok C, Bayangkara, Kec. Jayapura Utara, Kota Jayapura, Papua 99111","Jl. Pacific Permai Jalan Pacific No.23 Blok C, Bayangkara, Kec. Jayapura Utara, Kota Jayapura",PAPUA,99111.0,Indonesia,811484909.0,-2.5377999,140.7108801,https://maps.google.com/?cid=0x0:0x5793d2ffbff0f23a
restaurant,Perusahaan Konstruksi,Angkasa Cafe  Resto,"Jl. Sujarwo Condronegoro, Angkasapura, Kec. Jayapura Utara, Kota Jayapura, Papua 99114","Angkasapura, Kec. Jayapura Utara, Kota Jayapura",PAPUA,99114.0,Indonesia,81333121001.0,-2.5186417,140.7077602,https://maps.google.com/?cid=0x0:0x63b09be4131a5f9
restaurant,Prasmanan Kue Manis dan Makanan Penutup,Dapoer Agsella,"FPHM+R3W, Tj. Ria, Kec. Jayapura Utara, Kota Jayapura, Papua 99117","Tj. Ria, Kec. Jayapura Utara, Kota Jayapura",PAPUA,99117.0,Indonesia,81240879931.0,-2.5203954,140.7327181,https://maps.google.com/?cid=0x0:0xe4d472134e841765
restaurant,Prasmanan,Rm.Cantika Prasmanan 2,"Sebelah Hotel Grand View  Sebelah Hotel Swiss Bell, Jl. Pacific Permai No.1-16, Bayangkara, Kec. Jayapura Utara, Kota Jayapura, Papua 99112","Jl. Pacific Permai No.1-16, Bayangkara, Kec. Jayapura Utara, Kota Jayapura",PAPUA,99112.0,Indonesia,81391643037.0,-2.5382597,140.7125647,https://maps.google.com/?cid=0x0:0x7e238dd26e449659
restaurant,Kafe,Outside Jayapura,"Jalan Soa Siu dok 2, Kec. Jayapura Utara, Kota Jayapura, Papua","Kota Jayapura, Papua",PAPUA,,Indonesia,81317579725.0,-2.5381508,140.7135431,https://maps.google.com/?cid=0x0:0xe7f590eaa4e0651e
restaurant,restaurant,Papua 99221,"Kota Jayapura, Papua","Kota Jayapura, Papua",PAPUA,,Indonesia,,-2.5407181,140.6638119,https://maps.google.com/?cid=0x0:0x22734bd942608dca
restaurant,Restoran,Rumah Makan Sion,"Entrop, Jl. Raya Abepura, Entrop, Jayapura Selatan, Jayapura City, Papua 99221","Jl. Raya Abepura, Entrop, Jayapura Selatan, Jayapura City",PAPUA,99221.0,Indonesia,82399932716.0,-2.5665796,140.6950915,https://maps.google.com/?cid=0x0:0x22a6a141903c68b2
restaurant,Rumah Makan,Rumah Makan Sendok Garpu Jayapura,"Jl. Raya Abepura-Kotaraja Kota Baru, Wai Mhorock, Kec. Abepura, Kota Jayapura, Papua 99225","Wai Mhorock, Kec. Abepura, Kota Jayapura",PAPUA,99225.0,Indonesia,82310000123.0,-2.6057136,140.6694308,https://maps.google.com/?cid=0x0:0x9b347169a4f00047
restaurant,Restoran,Djoeragan Dapur Resto and Cafe,"Engros, Kec. Abepura, Kota Jayapura, Papua","Kota Jayapura, Papua",PAPUA,,Indonesia,81292006323.0,-2.5999813,140.7147104,https://maps.google.com/?cid=0x0:0xb8853f9fee2cdbc
restaurant,Katering,Rumah Makan Antariksa,"Jayapura, Wahno, Abepura, Wahno, Kec. Abepura, Kota Jayapura, Papua 99225","Wahno, Abepura, Wahno, Kec. Abepura, Kota Jayapura",PAPUA,99225.0,Indonesia,85254298383.0,-2.5966963,140.6802917,https://maps.google.com/?cid=0x0:0x92503b06b7db649f
restaurant,Nasi,RM FAKHIRA,"Jl. Raya Abepura, Ardipura, Distrik Jayapura Selatan, Kota Jayapura, Papua 99221","Ardipura, Distrik Jayapura Selatan, Kota Jayapura",PAPUA,99221.0,Indonesia,81248044407.0,-2.5649453,140.6996972,https://maps.google.com/?cid=0x0:0x95a485c170e04083
restaurant,Dapur Umum,Umma Eatery,"Jl. Gerilyawan, Yobe, Kec. Abepura, Kota Jayapura, Papua 99351","Yobe, Kec. Abepura, Kota Jayapura",PAPUA,99351.0,Indonesia,811484688.0,-2.6139368,140.6708121,https://maps.google.com/?cid=0x0:0x81bb34f7cf8553c2
restaurant,Ikan Bakar,Restaurant HIYAKE,"Asano, Kec. Abepura, Kota Jayapura, Papua 99351","Kec. Abepura, Kota Jayapura",PAPUA,99351.0,Indonesia,,-2.6170625,140.6810625,https://maps.google.com/?cid=0x0:0xd0238f33fd19f43
restaurant,Indonesia,Kedai Bang Doel,"CPP2+Q86, Jl. Raya Abepura, Ardipura, Distrik Jayapura Selatan, Kota Jayapura, Papua 99221","Jl. Raya Abepura, Ardipura, Distrik Jayapura Selatan, Kota Jayapura",PAPUA,99221.0,Indonesia,8114830422.0,-2.5630976,140.7007555,https://maps.google.com/?cid=0x0:0xbc5fac47e6e5ed23
restaurant,Restoran,58 Hauzz Kitchen  Lounge,"Kota, Jl. Raya Abepura - Sentani, Kabupaten Jayapura, Papua","Kabupaten Jayapura, Papua",PAPUA,,Indonesia,8114858558.0,-2.6087433,140.6671875,https://maps.google.com/?cid=0x0:0xf9f022f92c8ea463
restaurant,Ramen,Kusuka Cafe  Resto,"Seberang Astra Honda, masuk lorong sebelah jayamart, Jl. Klp. 2 No.18, Entrop, Jayapura Selatan, Jayapura City, Papua 99221","masuk lorong sebelah jayamart, Jl. Klp. 2 No.18, Entrop, Jayapura Selatan, Jayapura City",PAPUA,99221.0,Indonesia,,-2.5689574,140.7025065,https://maps.google.com/?cid=0x0:0xc48e7a8e5d46dab5
restaurant,Restoran,Restaurant Yougwa,"CJ63+H23, Jl. Raya Abepura - Sentani, Asei Kecil, Kec. Sentani Tim., Kabupaten Jayapura, Papua 99351","Jl. Raya Abepura - Sentani, Asei Kecil, Kec. Sentani Tim., Kabupaten Jayapura",PAPUA,99351.0,Indonesia,8114801448.0,-2.5886245,140.602559,https://maps.google.com/?cid=0x0:0x65e60fc66014e79c
restaurant,Korea,Komasako grill  suki,"Jln. Smu 45 ( sebelum astra honda, Kota Jayapura, Papua","Kota Jayapura, Papua",PAPUA,,Indonesia,85243020302.0,-2.5668624,140.7018752,https://maps.google.com/?cid=0x0:0xd0ddad7abbf3e7fc
restaurant,Restoran,Testo Resto,"Jl. Amphibi Hamadi, Kompleks Angkatan Laut, Hamadi, Distrik Jayapura Selatan, Kota Jayapura, Papua 99221","Kompleks Angkatan Laut, Hamadi, Distrik Jayapura Selatan, Kota Jayapura",PAPUA,99221.0,Indonesia,82291450007.0,-2.567785,140.706105,https://maps.google.com/?cid=0x0:0xabb2ccc7bf7d07a
restaurant,restaurant,Kec. Abepura,"Kota Jayapura, Papua","Kota Jayapura, Papua",PAPUA,,Indonesia,,-2.6813971,140.7662871,https://maps.google.com/?cid=0x0:0x75b53491c4439b2f
restaurant,Pizza,Pizza Hut Restoran - Matoa Square Abepura,"Matoa Square Abepura Ground Floor, Jl. Raya Abepura - Sentani, Kec. Abepura, Kota Jayapura, Papua 99351","Jl. Raya Abepura - Sentani, Kec. Abepura, Kota Jayapura",PAPUA,99351.0,Indonesia,1500600.0,-2.6100191,140.6674274,https://maps.google.com/?cid=0x0:0x8500628ad5da112c
restaurant,Ikan Bakar,Restaurant HIYAKE,"Asano, Kec. Abepura, Kota Jayapura, Papua 99351","Kec. Abepura, Kota Jayapura",PAPUA,99351.0,Indonesia,,-2.6170625,140.6810625,https://maps.google.com/?cid=0x0:0xd0238f33fd19f43
restaurant,Rumah Makan,Rumah Makan Sendok Garpu Jayapura,"Jl. Raya Abepura-Kotaraja Kota Baru, Wai Mhorock, Kec. Abepura, Kota Jayapura, Papua 99225","Wai Mhorock, Kec. Abepura, Kota Jayapura",PAPUA,99225.0,Indonesia,82310000123.0,-2.6057136,140.6694308,https://maps.google.com/?cid=0x0:0x9b347169a4f00047
restaurant,Dapur Umum,Umma Eatery,"Jl. Gerilyawan, Yobe, Kec. Abepura, Kota Jayapura, Papua 99351","Yobe, Kec. Abepura, Kota Jayapura",PAPUA,99351.0,Indonesia,811484688.0,-2.6139368,140.6708121,https://maps.google.com/?cid=0x0:0x81bb34f7cf8553c2
restaurant,Mi,Ayam Bakar Wong Solo Abepura,"Jl. Raya Abepura - Sentani, Kota Baru, Kec. Abepura, Kota Jayapura, Papua 99351","Kota Baru, Kec. Abepura, Kota Jayapura",PAPUA,99351.0,Indonesia,8116135383.0,-2.6110048,140.6622307,https://maps.google.com/?cid=0x0:0x93cd3d3dd927acf3
restaurant,Kafe,Vtekya Beach Resto and Cafe Jayapura,"9PJQ+324, Nafri, Kec. Abepura, Kota Jayapura, Papua","Kota Jayapura, Papua",PAPUA,,Indonesia,,-2.6198544,140.7375634,https://maps.google.com/?cid=0x0:0xe545b696148515a5
restaurant,Restoran,Solaria - Saga Mall,"Solaria Saga Mall, Jl. Raya Abepura lt 3, Kota Baru, Kec. Abepura, Kota Jayapura, Papua 99351","Jl. Raya Abepura lt 3, Kota Baru, Kec. Abepura, Kota Jayapura",PAPUA,99351.0,Indonesia,2114099.0,-2.6103376,140.6655043,https://maps.google.com/?cid=0x0:0xa0e9bc004d2d81f7
restaurant,Restoran,58 Hauzz Kitchen  Lounge,"Kota, Jl. Raya Abepura - Sentani, Kabupaten Jayapura, Papua","Kabupaten Jayapura, Papua",PAPUA,,Indonesia,8114858558.0,-2.6087433,140.6671875,https://maps.google.com/?cid=0x0:0xf9f022f92c8ea463
restaurant,Ikan Bakar,Ikan Mujair Murni Rasa Abepura,"Wai Mhorock, Kec. Abepura, Kota Jayapura, Papua 99225","Kec. Abepura, Kota Jayapura",PAPUA,99225.0,Indonesia,81247335588.0,-2.606016,140.6696474,https://maps.google.com/?cid=0x0:0x1aa28394b51b3cba
restaurant,Sate,Tong Pu Pork Abepura,"9MR9+43H, Kota Baru, Kec. Abepura, Kota Jayapura, Papua 99351","Kota Baru, Kec. Abepura, Kota Jayapura",PAPUA,99351.0,Indonesia,82399737019.0,-2.6096885,140.6677246,https://maps.google.com/?cid=0x0:0x70e3079071df3139
restaurant,Katering,Rumah Makan Antariksa,"Jayapura, Wahno, Abepura, Wahno, Kec. Abepura, Kota Jayapura, Papua 99225","Wahno, Abepura, Wahno, Kec. Abepura, Kota Jayapura",PAPUA,99225.0,Indonesia,85254298383.0,-2.5966963,140.6802917,https://maps.google.com/?cid=0x0:0x92503b06b7db649f
restaurant,Makanan Siap Saji,Lazatto Chicken And Burger Abepura,"9MP8+Q4P, Jl. Gerilyawan, Kota Baru, Kec. Abepura, Kota Jayapura, Papua 99351","Jl. Gerilyawan, Kota Baru, Kec. Abepura, Kota Jayapura",PAPUA,99351.0,Indonesia,,-2.6130675,140.6653108,https://maps.google.com/?cid=0x0:0xe1fdecad5f63c49e
restaurant,restaurant,Papua 99351,"Kota Jayapura, Papua","Kota Jayapura, Papua",PAPUA,,Indonesia,,-2.685882,140.8872648,https://maps.google.com/?cid=0x0:0x540583c400ca05b3
restaurant,Brunch,Rumah makan Saung Bumbu Desa,"8RG5+W2X Samping kios, Jln Paniai koya barat, Wijaya sakti, Kec. Muara Tami, Kota Jayapura, Papua 99351","Jln Paniai koya barat, Wijaya sakti, Kec. Muara Tami, Kota Jayapura",PAPUA,99351.0,Indonesia,81247517580.0,-2.6726479,140.8076034,https://maps.google.com/?cid=0x0:0x385d543c3bc8f335
restaurant,Kafe,PH Cafe  Resto,"Jl. Paniai, Koya Bar., Kec. Muara Tami, Kota Jayapura, Papua 99351","Koya Bar., Kec. Muara Tami, Kota Jayapura",PAPUA,99351.0,Indonesia,81247674929.0,-2.6725912,140.8041209,https://maps.google.com/?cid=0x0:0xfad0a53d510b188f
restaurant,Rumah Makan,Rumah Makan Sendok Garpu Jayapura,"Jl. Raya Abepura-Kotaraja Kota Baru, Wai Mhorock, Kec. Abepura, Kota Jayapura, Papua 99225","Wai Mhorock, Kec. Abepura, Kota Jayapura",PAPUA,99225.0,Indonesia,82310000123.0,-2.6057136,140.6694308,https://maps.google.com/?cid=0x0:0x9b347169a4f00047
restaurant,Restoran,Restaurant Yougwa,"CJ63+H23, Jl. Raya Abepura - Sentani, Asei Kecil, Kec. Sentani Tim., Kabupaten Jayapura, Papua 99351","Jl. Raya Abepura - Sentani, Asei Kecil, Kec. Sentani Tim., Kabupaten Jayapura",PAPUA,99351.0,Indonesia,8114801448.0,-2.5886245,140.602559,https://maps.google.com/?cid=0x0:0x65e60fc66014e79c
restaurant,Restoran,Dapur Melona,"Jl. Durian III, Koya Tim., Kec. Muara Tami, Kota Jayapura, Papua 99351","Koya Tim., Kec. Muara Tami, Kota Jayapura",PAPUA,99351.0,Indonesia,,-2.6693985,140.8564304,https://maps.google.com/?cid=0x0:0x4abc8c1e40e536d7
restaurant,Restoran,Cristho Resto,"Jl. Raya Sentani - Waena, Asei Kecil, Kec. Sentani Tim., Kabupaten Jayapura, Papua 99351","Asei Kecil, Kec. Sentani Tim., Kabupaten Jayapura",PAPUA,99351.0,Indonesia,82248269002.0,-2.5885674,140.5954984,https://maps.google.com/?cid=0x0:0xe37fe4d7ad0bc892
restaurant,Restoran,PERMATA HIJAU RESORT AGROMINA WISATA PEMANCINGAN,"Jl. Bandungan Tami No.99, Koya Bar., Kec. Muara Tami, Kota Jayapura, Papua 99351","Koya Bar., Kec. Muara Tami, Kota Jayapura",PAPUA,99351.0,Indonesia,81325757425.0,-2.6848471,140.8235312,https://maps.google.com/?cid=0x0:0xfd935fb70a677bf3
restaurant,Kafe,Vtekya Beach Resto and Cafe Jayapura,"9PJQ+324, Nafri, Kec. Abepura, Kota Jayapura, Papua","Kota Jayapura, Papua",PAPUA,,Indonesia,,-2.6198544,140.7375634,https://maps.google.com/?cid=0x0:0xe545b696148515a5
restaurant,Ikan Bakar,D'Santee Pemancingan dan Resto,"8R92+5Q3, Unnamed Road, Koya Bar., Kec. Muara Tami, Kota Jayapura, Papua 99351","Unnamed Road, Koya Bar., Kec. Muara Tami, Kota Jayapura",PAPUA,99351.0,Indonesia,,-2.6821197,140.8019335,https://maps.google.com/?cid=0x0:0x6646fef5c2e39bef
restaurant,Kafe,Ropopang x Eskole Cafe Jayapura,"Jl. Ps. Yotefa No.33, Wai Mhorock, Kec. Abepura, Kota Jayapura, Papua 99351","Wai Mhorock, Kec. Abepura, Kota Jayapura",PAPUA,99351.0,Indonesia,81240970364.0,-2.6084375,140.6777793,https://maps.google.com/?cid=0x0:0x8aa1325684f15ea1
restaurant,Ikan Bakar,Restaurant HIYAKE,"Asano, Kec. Abepura, Kota Jayapura, Papua 99351","Kec. Abepura, Kota Jayapura",PAPUA,99351.0,Indonesia,,-2.6170625,140.6810625,https://maps.google.com/?cid=0x0:0xd0238f33fd19f43
restaurant,Nasi,RM TIMOR,"8RQ3+6W2, Unnamed Road, Koya Bar., Kec. Muara Tami, Kota Jayapura, Papua 99351","Unnamed Road, Koya Bar., Kec. Muara Tami, Kota Jayapura",PAPUA,99351.0,Indonesia,82198249559.0,-2.6619945,140.8047689,https://maps.google.com/?cid=0x0:0x2ec70248314ee5db
restaurant,Ikan Bakar,Pemancingan Harangan Bagot,"pemancingan harangan bagot, Jl. Hanurata No.km 9, Koya Koso, Kec. Muara Tami, Kota Jayapura, Papua 99351","Jl. Hanurata No.km 9, Koya Koso, Kec. Muara Tami, Kota Jayapura",PAPUA,99351.0,Indonesia,85244010159.0,-2.6746003,140.7716954,https://maps.google.com/?cid=0x0:0x43bbb10edb821df3
restaurant,restaurant,Kec. Heram,"Kota Jayapura, Papua","Kota Jayapura, Papua",PAPUA,,Indonesia,,-2.5968715,140.6349408,https://maps.google.com/?cid=0x0:0xae4be183bc9835dc
restaurant,Manado,Ayumi Cafe,"CJ2P+X2P, Waena, Kec. Heram, Kota Jayapura, Papua 99351","Waena, Kec. Heram, Kota Jayapura",PAPUA,99351.0,Indonesia,81344679699.0,-2.5975436,140.6350761,https://maps.google.com/?cid=0x0:0x3e8481f5ab3f0d78
restaurant,Kafe,Ropopang x Eskole Cafe Jayapura,"Jl. Ps. Yotefa No.33, Wai Mhorock, Kec. Abepura, Kota Jayapura, Papua 99351","Wai Mhorock, Kec. Abepura, Kota Jayapura",PAPUA,99351.0,Indonesia,81240970364.0,-2.6084375,140.6777793,https://maps.google.com/?cid=0x0:0x8aa1325684f15ea1
restaurant,Makanan Kecil,Makan Makan,"Jl. Raya Abepura - Sentani, Hedam, Kec. Heram, Kota Jayapura, Papua 99331","Hedam, Kec. Heram, Kota Jayapura",PAPUA,99331.0,Indonesia,,-2.6065167,140.6450529,https://maps.google.com/?cid=0x0:0x1388f3b4cf13311f
restaurant,Sate,Rumah Makan Yanigmah (Sate Kambing),"9JXP+VX2, Jl. Raya Sentani, Kp. Waena, Kec. Heram, Kota Jayapura, Papua 99351","Jl. Raya Sentani, Kp. Waena, Kec. Heram, Kota Jayapura",PAPUA,99351.0,Indonesia,82141866668.0,-2.6003575,140.6373773,https://maps.google.com/?cid=0x0:0x3b9f872ebee2e863
restaurant,Rumah Makan,Rumah Makan Sendok Garpu Jayapura,"Jl. Raya Abepura-Kotaraja Kota Baru, Wai Mhorock, Kec. Abepura, Kota Jayapura, Papua 99225","Wai Mhorock, Kec. Abepura, Kota Jayapura",PAPUA,99225.0,Indonesia,82310000123.0,-2.6057136,140.6694308,https://maps.google.com/?cid=0x0:0x9b347169a4f00047
restaurant,Kedai Kopi,Yoka Resort,"9JWH+2W3, Yoka, Kec. Heram, Kota Jayapura, Papua 99351","Yoka, Kec. Heram, Kota Jayapura",PAPUA,99351.0,Indonesia,,-2.6049885,140.6298099,https://maps.google.com/?cid=0x0:0x19be1e3e89aa9053
restaurant,Kedai Kopi,Cafe Isasai,"Danau Sentani, Kp. Waena, Kec. Heram, Kota Jayapura, Papua 99351","Kp. Waena, Kec. Heram, Kota Jayapura",PAPUA,99351.0,Indonesia,,-2.598538,140.6244014,https://maps.google.com/?cid=0x0:0xc37a24107e869a96
restaurant,Bakso,Bakso Mahkota Cabang Waena,"CJ2P+W4J, Kp. Waena, Kec. Heram, Kota Jayapura, Papua 99351","Kp. Waena, Kec. Heram, Kota Jayapura",PAPUA,99351.0,Indonesia,,-2.5976636,140.6352641,https://maps.google.com/?cid=0x0:0xbeb575ae4b9500fe
restaurant,Restoran,HERAM,"CJ3M+7X4, Waena, Kec. Heram, Kota Jayapura, Papua 99351","Waena, Kec. Heram, Kota Jayapura",PAPUA,99351.0,Indonesia,82187390682.0,-2.5968715,140.6349408,https://maps.google.com/?cid=0x0:0x2484e5d6750fcb92
restaurant,Padang,Warung Makan Rizky(waena),"Jayapura, Yoka, Jayapura City, Papua 99351","Yoka, Jayapura City",PAPUA,99351.0,Indonesia,,-2.598942,140.632574,https://maps.google.com/?cid=0x0:0x63da8a7f3ee3d376
restaurant,Jawa,Warung Lalapan SUMBER RISKY,"9JVX+679, Hedam, Kec. Heram, Kota Jayapura, Papua 99351","Hedam, Kec. Heram, Kota Jayapura",PAPUA,99351.0,Indonesia,82239299388.0,-2.6069573,140.6482314,https://maps.google.com/?cid=0x0:0x3951fa69911e6f1
restaurant,Restoran,Rumah Makan Citra Bahagia,"9MV2+MWW, Hedam, Kec. Heram, Kota Jayapura, Papua 99351","Hedam, Kec. Heram, Kota Jayapura",PAPUA,99351.0,Indonesia,,-2.6057638,140.6523406,https://maps.google.com/?cid=0x0:0xcf7715a3b4b1c4
restaurant,Kafe,WarungAbid,"CJ4J+784, Kp. Waena, Kec. Heram, Kota Jayapura, Papua 99225","Kp. Waena, Kec. Heram, Kota Jayapura",PAPUA,99225.0,Indonesia,82248455696.0,-2.5943631,140.6308298,https://maps.google.com/?cid=0x0:0xb2e8bdfb8f5632db
