Category,Real Category,Business Name,Address,City,State,Postal Code,Country,Phone,Latitude,Longitude,Map Link
mall,Pusat Perbelanjaan,Mall Jayapura,"APO, Jl. Samratulangi, Bayangkara, Kec. Jayapura Utara, Kota Jayapura, Papua 99112","Jl. Samratulangi, Bayangkara, Kec. Jayapura Utara, Kota Jayapura",PAPUA,99112.0,Indonesia,9675150000.0,-2.5351775,140.7061874,https://maps.google.com/?cid=0x0:0x54294cb27964023
mall,Pusat Perbelanjaan,SAGA MALL,"Kota Baru, Kec. Abepura, Kota Jayapura, Papua 99351","Kec. Abepura, Kota Jayapura",PAPUA,99351.0,Indonesia,,-2.6105845,140.6654189,https://maps.google.com/?cid=0x0:0xaf65e43ff84ff9e6
mall,Kedai Kopi,JCO COFFEE  DONUTS MALL JAYAPURA,"Jl. Kab. No.99112, Bayangkara, Kec. Jayapura Utara, Kota Jayapura, Papua 99112","Bayangkara, Kec. Jayapura Utara, Kota Jayapura",PAPUA,99112.0,Indonesia,,-2.5353252,140.7060198,https://maps.google.com/?cid=0x0:0x8cbe835113b8c269
mall,Pusat Perbelanjaan,SAGA MALL,"Kota Baru, Kec. Abepura, Kota Jayapura, Papua 99351","Kec. Abepura, Kota Jayapura",PAPUA,99351.0,Indonesia,,-2.6105845,140.6654189,https://maps.google.com/?cid=0x0:0xaf65e43ff84ff9e6
mall,Pusat Perbelanjaan,Mall Jayapura,"APO, Jl. Samratulangi, Bayangkara, Kec. Jayapura Utara, Kota Jayapura, Papua 99112","Jl. Samratulangi, Bayangkara, Kec. Jayapura Utara, Kota Jayapura",PAPUA,99112.0,Indonesia,9675150000.0,-2.5351775,140.7061874,https://maps.google.com/?cid=0x0:0x54294cb27964023
mall,Kedai Kopi,JCO COFFEE  DONUTS MALL JAYAPURA,"Jl. Kab. No.99112, Bayangkara, Kec. Jayapura Utara, Kota Jayapura, Papua 99112","Bayangkara, Kec. Jayapura Utara, Kota Jayapura",PAPUA,99112.0,Indonesia,,-2.5353252,140.7060198,https://maps.google.com/?cid=0x0:0x8cbe835113b8c269
mall,Pusat Perbelanjaan,Mall Jayapura,"APO, Jl. Samratulangi, Bayangkara, Kec. Jayapura Utara, Kota Jayapura, Papua 99112","Jl. Samratulangi, Bayangkara, Kec. Jayapura Utara, Kota Jayapura",PAPUA,99112.0,Indonesia,9675150000.0,-2.5351775,140.7061874,https://maps.google.com/?cid=0x0:0x54294cb27964023
mall,Kedai Kopi,JCO COFFEE  DONUTS MALL JAYAPURA,"Jl. Kab. No.99112, Bayangkara, Kec. Jayapura Utara, Kota Jayapura, Papua 99112","Bayangkara, Kec. Jayapura Utara, Kota Jayapura",PAPUA,99112.0,Indonesia,,-2.5353252,140.7060198,https://maps.google.com/?cid=0x0:0x8cbe835113b8c269
mall,Pusat Perbelanjaan,SAGA MALL,"Kota Baru, Kec. Abepura, Kota Jayapura, Papua 99351","Kec. Abepura, Kota Jayapura",PAPUA,99351.0,Indonesia,,-2.6105845,140.6654189,https://maps.google.com/?cid=0x0:0xaf65e43ff84ff9e6
mall,Pusat Perbelanjaan,SAGA MALL,"Kota Baru, Kec. Abepura, Kota Jayapura, Papua 99351","Kec. Abepura, Kota Jayapura",PAPUA,99351.0,Indonesia,,-2.6105845,140.6654189,https://maps.google.com/?cid=0x0:0xaf65e43ff84ff9e6
mall,Pusat Perbelanjaan,Mall Jayapura,"APO, Jl. Samratulangi, Bayangkara, Kec. Jayapura Utara, Kota Jayapura, Papua 99112","Jl. Samratulangi, Bayangkara, Kec. Jayapura Utara, Kota Jayapura",PAPUA,99112.0,Indonesia,9675150000.0,-2.5351775,140.7061874,https://maps.google.com/?cid=0x0:0x54294cb27964023
mall,mall,Papua 99224,"Kota Jayapura, Papua","Kota Jayapura, Papua",PAPUA,,Indonesia,,-2.579706,140.6638119,https://maps.google.com/?cid=0x0:0x9db3c17a7f47219
mall,Kedai Kopi,JCO COFFEE  DONUTS MALL JAYAPURA,"Jl. Kab. No.99112, Bayangkara, Kec. Jayapura Utara, Kota Jayapura, Papua 99112","Bayangkara, Kec. Jayapura Utara, Kota Jayapura",PAPUA,99112.0,Indonesia,,-2.5353252,140.7060198,https://maps.google.com/?cid=0x0:0x8cbe835113b8c269
mall,Kolam Renang,PTC Entrop,"Entrop, Distrik Jayapura Selatan, Kota Jayapura, Papua 99221","Distrik Jayapura Selatan, Kota Jayapura",PAPUA,99221.0,Indonesia,,-2.5690544,140.6960323,https://maps.google.com/?cid=0x0:0xf85bd4594f0f13bc
mall,Pasar Grosir Pakaian,Ramayana Abepura,"Jl. Raya Abepura, Kel. Vin, Kec. Jayapura Selatan, Wai Mhorock, Kec. Abepura, Kota Jayapura, Papua 99351","Kel. Vin, Kec. Jayapura Selatan, Wai Mhorock, Kec. Abepura, Kota Jayapura",PAPUA,99351.0,Indonesia,967584745.0,-2.604339,140.6736756,https://maps.google.com/?cid=0x0:0x103c0acf73345917
mall,Toko,Mol jayapura,"CM59+9JM, Vim, Kec. Abepura, Kota Jayapura, Papua 99224","Vim, Kec. Abepura, Kota Jayapura",PAPUA,99224.0,Indonesia,,-2.5915361,140.6690326,https://maps.google.com/?cid=0x0:0xdeaac68987fe8a59
mall,Pusat Perbelanjaan,PUSAT PERBELANJAAN MASPUL,"9MQ8+C63, Jl. Raya Abepura - Sentani, Entrop, Distrik Jayapura Selatan, Kota Jayapura, Papua 99351","Jl. Raya Abepura - Sentani, Entrop, Distrik Jayapura Selatan, Kota Jayapura",PAPUA,99351.0,Indonesia,,-2.6114916,140.665547,https://maps.google.com/?cid=0x0:0x13472ba7475f3390
mall,Toko,Sellpi seseray,"CM6Q+WWC, Entrop, Distrik Jayapura Selatan, Kota Jayapura, Papua","Kota Jayapura, Papua",PAPUA,,Indonesia,82248631680.0,-2.5876864,140.6897785,https://maps.google.com/?cid=0x0:0x9cd19ecc009b731
mall,Toko Pakaian,PLANET SURF - SAGA MALL ABEPURA,"9MQ8+R64, Jl. Raya Abepura, Kota Baru, Kec. Abepura, Kota Jayapura, Papua 99224","Jl. Raya Abepura, Kota Baru, Kec. Abepura, Kota Jayapura",PAPUA,99224.0,Indonesia,,-2.6104997,140.6655731,https://maps.google.com/?cid=0x0:0x8af370b5f94bd090
mall,Pusat Perbelanjaan,Saga Mart,"9MVG+F44, Jl. Baru Ps. Lama Abepura, Wai Mhorock, Kec. Abepura, Kota Jayapura, Papua 99225","Jl. Baru Ps. Lama Abepura, Wai Mhorock, Kec. Abepura, Kota Jayapura",PAPUA,99225.0,Indonesia,,-2.6063557,140.6753333,https://maps.google.com/?cid=0x0:0x87e41d7df0d8cbcc
mall,Toserba,Mega Waena Departement Store,"Jl. Raya Waena Sentani, Waena, Kec. Heram, Kota Jayapura, Papua 99351","Waena, Kec. Heram, Kota Jayapura",PAPUA,99351.0,Indonesia,,-2.5973349,140.6348789,https://maps.google.com/?cid=0x0:0xd96e42f2c11ca1e9
mall,Pusat Perbelanjaan,Fun Station Saga Mall Abepura,"9MQ8+W74, Jalan Raya, Baru City, Abepura, Jayapura City, Papua 99351","Jalan Raya, Baru City, Abepura, Jayapura City",PAPUA,99351.0,Indonesia,,-2.6102449,140.6657012,https://maps.google.com/?cid=0x0:0x3f131aea7ac038cc
mall,Toko Pakaian,Mall matahari,"CM59+9JM, Vim, Kec. Abepura, Kota Jayapura, Papua","Kota Jayapura, Papua",PAPUA,,Indonesia,,-2.5915361,140.6690327,https://maps.google.com/?cid=0x0:0x31784cf5ff4f2766
mall,Pusat Perbelanjaan,SAGA MALL,"Kota Baru, Kec. Abepura, Kota Jayapura, Papua 99351","Kec. Abepura, Kota Jayapura",PAPUA,99351.0,Indonesia,,-2.6105845,140.6654189,https://maps.google.com/?cid=0x0:0xaf65e43ff84ff9e6
mall,Pusat Perbelanjaan,Mall Jayapura,"APO, Jl. Samratulangi, Bayangkara, Kec. Jayapura Utara, Kota Jayapura, Papua 99112","Jl. Samratulangi, Bayangkara, Kec. Jayapura Utara, Kota Jayapura",PAPUA,99112.0,Indonesia,9675150000.0,-2.5351775,140.7061874,https://maps.google.com/?cid=0x0:0x54294cb27964023
mall,mall,Papua 99225,"Kota Jayapura, Papua","Kota Jayapura, Papua",PAPUA,,Indonesia,,-2.5949282,140.653438,https://maps.google.com/?cid=0x0:0x21414c78014e775a
mall,Pasar Grosir Pakaian,Ramayana Abepura,"Jl. Raya Abepura, Kel. Vin, Kec. Jayapura Selatan, Wai Mhorock, Kec. Abepura, Kota Jayapura, Papua 99351","Kel. Vin, Kec. Jayapura Selatan, Wai Mhorock, Kec. Abepura, Kota Jayapura",PAPUA,99351.0,Indonesia,967584745.0,-2.604339,140.6736756,https://maps.google.com/?cid=0x0:0x103c0acf73345917
mall,Pusat Perbelanjaan,Saga Mart,"9MVG+F44, Jl. Baru Ps. Lama Abepura, Wai Mhorock, Kec. Abepura, Kota Jayapura, Papua 99225","Jl. Baru Ps. Lama Abepura, Wai Mhorock, Kec. Abepura, Kota Jayapura",PAPUA,99225.0,Indonesia,,-2.6063557,140.6753333,https://maps.google.com/?cid=0x0:0x87e41d7df0d8cbcc
mall,Kedai Kopi,JCO COFFEE  DONUTS MALL JAYAPURA,"Jl. Kab. No.99112, Bayangkara, Kec. Jayapura Utara, Kota Jayapura, Papua 99112","Bayangkara, Kec. Jayapura Utara, Kota Jayapura",PAPUA,99112.0,Indonesia,,-2.5353252,140.7060198,https://maps.google.com/?cid=0x0:0x8cbe835113b8c269
mall,Toserba,Mega Waena Departement Store,"Jl. Raya Waena Sentani, Waena, Kec. Heram, Kota Jayapura, Papua 99351","Waena, Kec. Heram, Kota Jayapura",PAPUA,99351.0,Indonesia,,-2.5973349,140.6348789,https://maps.google.com/?cid=0x0:0xd96e42f2c11ca1e9
mall,Pusat Perbelanjaan,Fun Station Saga Mall Abepura,"9MQ8+W74, Jalan Raya, Baru City, Abepura, Jayapura City, Papua 99351","Jalan Raya, Baru City, Abepura, Jayapura City",PAPUA,99351.0,Indonesia,,-2.6102449,140.6657012,https://maps.google.com/?cid=0x0:0x3f131aea7ac038cc
mall,Toko,Mol jayapura,"CM59+9JM, Vim, Kec. Abepura, Kota Jayapura, Papua 99224","Vim, Kec. Abepura, Kota Jayapura",PAPUA,99224.0,Indonesia,,-2.5915361,140.6690326,https://maps.google.com/?cid=0x0:0xdeaac68987fe8a59
mall,Kolam Renang,PTC Entrop,"Entrop, Distrik Jayapura Selatan, Kota Jayapura, Papua 99221","Distrik Jayapura Selatan, Kota Jayapura",PAPUA,99221.0,Indonesia,,-2.5690544,140.6960323,https://maps.google.com/?cid=0x0:0xf85bd4594f0f13bc
mall,Pusat Perbelanjaan,PUSAT PERBELANJAAN MASPUL,"9MQ8+C63, Jl. Raya Abepura - Sentani, Entrop, Distrik Jayapura Selatan, Kota Jayapura, Papua 99351","Jl. Raya Abepura - Sentani, Entrop, Distrik Jayapura Selatan, Kota Jayapura",PAPUA,99351.0,Indonesia,,-2.6114916,140.665547,https://maps.google.com/?cid=0x0:0x13472ba7475f3390
mall,Komplek perumahan,Lontar Jayapura (OlaLontar),"Jl. Silva Gria, Vim, Kec. Abepura, Kota Jayapura, Papua 99225","Vim, Kec. Abepura, Kota Jayapura",PAPUA,99225.0,Indonesia,8114816327.0,-2.6027317,140.6713278,https://maps.google.com/?cid=0x0:0xfbb2732c0691e845
mall,Salon Kecantikan,Inner Beauty Jayapura,"Jalan Guru No 84 Kotaraja, Vim, Kec. Abepura, Kota Jayapura, Papua 99225","Vim, Kec. Abepura, Kota Jayapura",PAPUA,99225.0,Indonesia,,-2.5959613,140.6758553,https://maps.google.com/?cid=0x0:0xc03e1cfa1bb7bda0
mall,Toko Pakaian,Mall matahari,"CM59+9JM, Vim, Kec. Abepura, Kota Jayapura, Papua","Kota Jayapura, Papua",PAPUA,,Indonesia,,-2.5915361,140.6690327,https://maps.google.com/?cid=0x0:0x31784cf5ff4f2766
mall,mall,Papua 99226,"Wahno, Kec. Abepura, Kota Jayapura, Papua","Kota Jayapura, Papua",PAPUA,,Indonesia,,-2.5940542,140.6740309,https://maps.google.com/?cid=0x0:0xfee9da6af66c7cd1
mall,Pusat Perbelanjaan,SAGA MALL,"Kota Baru, Kec. Abepura, Kota Jayapura, Papua 99351","Kec. Abepura, Kota Jayapura",PAPUA,99351.0,Indonesia,,-2.6105845,140.6654189,https://maps.google.com/?cid=0x0:0xaf65e43ff84ff9e6
mall,Pusat Perbelanjaan,Mall Jayapura,"APO, Jl. Samratulangi, Bayangkara, Kec. Jayapura Utara, Kota Jayapura, Papua 99112","Jl. Samratulangi, Bayangkara, Kec. Jayapura Utara, Kota Jayapura",PAPUA,99112.0,Indonesia,9675150000.0,-2.5351775,140.7061874,https://maps.google.com/?cid=0x0:0x54294cb27964023
mall,Toko Swalayan,Hypermart Jayapura Mall,"Jl. Dr. Sam Ratulangi No.47, Bayangkara, Kec. Jayapura Utara, Kota Jayapura, Papua 99112","Bayangkara, Kec. Jayapura Utara, Kota Jayapura",PAPUA,99112.0,Indonesia,967522298.0,-2.5350388,140.7055769,https://maps.google.com/?cid=0x0:0xb1412384235d004a
mall,Pusat Perbelanjaan,Mall Sentani City Square,"Jl. Raya Kemiri No.286, Hinekombe, Kec. Sentani, Kabupaten Jayapura, Papua 99352","Hinekombe, Kec. Sentani, Kabupaten Jayapura",PAPUA,99352.0,Indonesia,82198389205.0,-2.5632484,140.5006043,https://maps.google.com/?cid=0x0:0x666e57130aca06b8
mall,Toko Swalayan,Sagu Indah Plaza,"Jl. Ahmad Yani No.50, Gurabesi, Kec. Jayapura Utara, Kota Jayapura, Papua 99221","Gurabesi, Kec. Jayapura Utara, Kota Jayapura",PAPUA,99221.0,Indonesia,,-2.5436844,140.7014125,https://maps.google.com/?cid=0x0:0x2abad4741c92629b
mall,Pusat Perbelanjaan,PUSAT PERBELANJAAN MASPUL,"9MQ8+C63, Jl. Raya Abepura - Sentani, Entrop, Distrik Jayapura Selatan, Kota Jayapura, Papua 99351","Jl. Raya Abepura - Sentani, Entrop, Distrik Jayapura Selatan, Kota Jayapura",PAPUA,99351.0,Indonesia,,-2.6114916,140.665547,https://maps.google.com/?cid=0x0:0x13472ba7475f3390
mall,Pusat Perbelanjaan,Matahari Department Store - Mall Jayapura,"Jayapura Mall Lantai 1  2, Jl. Sam Ratulangi No. 45, Bhayangkara, Jayapura Utara, Bayangkara, Kec. Jayapura Utara, Kota Jayapura, Papua 99112","Jl. Sam Ratulangi No. 45, Bhayangkara, Jayapura Utara, Bayangkara, Kec. Jayapura Utara, Kota Jayapura",PAPUA,99112.0,Indonesia,9675150242.0,-2.5352864,140.7060379,https://maps.google.com/?cid=0x0:0x2f3594fedfb3ad93
mall,Toko Pakaian,Missippi Mal Jayapura,"FP84+35V, Mal Jl. Dr. Sam Ratulangi, Bayangkara, Kec. Jayapura Utara, Kota Jayapura, Papua 99112","Mal Jl. Dr. Sam Ratulangi, Bayangkara, Kec. Jayapura Utara, Kota Jayapura",PAPUA,99112.0,Indonesia,,-2.5347602,140.705421,https://maps.google.com/?cid=0x0:0xb99dc017ae53bd0b
mall,Komplek perumahan,Apphousejayapura,"Perumahan Jaya Asri No.blok A, Entrop, Distrik Jayapura Selatan, Kota Jayapura, Papua 99223","Entrop, Distrik Jayapura Selatan, Kota Jayapura",PAPUA,99223.0,Indonesia,81225726960.0,-2.5694021,140.6912044,https://maps.google.com/?cid=0x0:0x9d48d0145f2c55c6
mall,Pusat Perbelanjaan,Mall jayapura,"Jl. Ahmad Yani No.3, Gurabesi, Kec. Jayapura Utara, Kota Jayapura, Papua","Kota Jayapura, Papua",PAPUA,,Indonesia,,-2.5346553,140.705761,https://maps.google.com/?cid=0x0:0x552193b83e37c54c
mall,Kantor Pemerintah Distrik,Kantor Distrik Jayapura Selatan,"Jl. Raya Abepura No.3, Entrop, Distrik Jayapura Selatan, Kota Jayapura, Papua 99221","Entrop, Distrik Jayapura Selatan, Kota Jayapura",PAPUA,99221.0,Indonesia,,-2.5658406,140.6975675,https://maps.google.com/?cid=0x0:0x559d3e36cb90159e
mall,Restoran,Marugame Udon Mall Jayapura,"Jl. Dr. Sam Ratulangi, APO, Kec. Jayapura Utara, Kota Jayapura, Papua 99112","APO, Kec. Jayapura Utara, Kota Jayapura",PAPUA,99112.0,Indonesia,81110693820.0,-2.5352124,140.7061002,https://maps.google.com/?cid=0x0:0xf55c7dcd66fca84e
mall,Toko Optik,Optik Seis - Mall Jayapura,"Jl. Dr. Sam Ratulangi, Bayangkara, Kec. Jayapura Utara, Kota Jayapura, Papua 99112","Bayangkara, Kec. Jayapura Utara, Kota Jayapura",PAPUA,99112.0,Indonesia,9675142006.0,-2.5348907,140.7056783,https://maps.google.com/?cid=0x0:0xbc95c62344d37ce5
mall,mall,Papua 99111,"Kec. Jayapura Utara, Kota Jayapura, Papua","Kota Jayapura, Papua",PAPUA,,Indonesia,,-2.5084418,140.6326954,https://maps.google.com/?cid=0x0:0xdf06080a6648cb6c
mall,Pusat Perbelanjaan,Mall Jayapura,"APO, Jl. Samratulangi, Bayangkara, Kec. Jayapura Utara, Kota Jayapura, Papua 99112","Jl. Samratulangi, Bayangkara, Kec. Jayapura Utara, Kota Jayapura",PAPUA,99112.0,Indonesia,9675150000.0,-2.5351775,140.7061874,https://maps.google.com/?cid=0x0:0x54294cb27964023
mall,Toko Ponsel,Apple Jayapura,"Jl. Dr. Sam Ratulangi, Bayangkara, Kec. Jayapura Utara, Kota Jayapura, Papua 99112","Bayangkara, Kec. Jayapura Utara, Kota Jayapura",PAPUA,99112.0,Indonesia,81343133336.0,-2.5350543,140.7058465,https://maps.google.com/?cid=0x0:0x2da18e4d7d0b40b8
mall,Toko,Miniso Mall Jayapura,"FP84+44W, Jl. Dr. Sam Ratulangi, Bayangkara, Kec. Jayapura Utara, Kota Jayapura, Papua","Kota Jayapura, Papua",PAPUA,,Indonesia,,-2.5346381,140.7053234,https://maps.google.com/?cid=0x0:0x10478d3cdb4cdeac
mall,Pusat Perbelanjaan,Mall jayapura,"Jl. Ahmad Yani No.3, Gurabesi, Kec. Jayapura Utara, Kota Jayapura, Papua","Kota Jayapura, Papua",PAPUA,,Indonesia,,-2.5346553,140.705761,https://maps.google.com/?cid=0x0:0x552193b83e37c54c
mall,Pusat Perbelanjaan,Matahari Department Store - Mall Jayapura,"Jayapura Mall Lantai 1  2, Jl. Sam Ratulangi No. 45, Bhayangkara, Jayapura Utara, Bayangkara, Kec. Jayapura Utara, Kota Jayapura, Papua 99112","Jl. Sam Ratulangi No. 45, Bhayangkara, Jayapura Utara, Bayangkara, Kec. Jayapura Utara, Kota Jayapura",PAPUA,99112.0,Indonesia,9675150242.0,-2.5352864,140.7060379,https://maps.google.com/?cid=0x0:0x2f3594fedfb3ad93
mall,Pusat Perbelanjaan,SAGA MALL,"Kota Baru, Kec. Abepura, Kota Jayapura, Papua 99351","Kec. Abepura, Kota Jayapura",PAPUA,99351.0,Indonesia,,-2.6105845,140.6654189,https://maps.google.com/?cid=0x0:0xaf65e43ff84ff9e6
mall,Toko Optik,optik tiara mall jayapura,"Mall Jayapura lantai 2 No. 30, Bayangkara, Kec. Jayapura Utara, Kota Jayapura, Papua 99112","Bayangkara, Kec. Jayapura Utara, Kota Jayapura",PAPUA,99112.0,Indonesia,9675150019.0,-2.5352733,140.7061016,https://maps.google.com/?cid=0x0:0xd1464099f5932f2f
mall,Komplek perumahan,Mall jaya,"FP84+265, Bayangkara, Kec. Jayapura Utara, Kota Jayapura, Papua 99112","Bayangkara, Kec. Jayapura Utara, Kota Jayapura",PAPUA,99112.0,Indonesia,,-2.5349865,140.7056372,https://maps.google.com/?cid=0x0:0xfacae9b4d0af8ca4
mall,Toko Ponsel,Samsung Experience Store - Mall Jayapura,"APO, Mall Jayapura, Jl. Samratulangi, Bayangkara, Kec. Jayapura Utara, Kota Jayapura, Papua 99112","Mall Jayapura, Jl. Samratulangi, Bayangkara, Kec. Jayapura Utara, Kota Jayapura",PAPUA,99112.0,Indonesia,8114834032.0,-2.5351296,140.70617,https://maps.google.com/?cid=0x0:0x2a9502b51cdb044f
mall,Toko Swalayan,Sagu Indah Plaza,"Jl. Ahmad Yani No.50, Gurabesi, Kec. Jayapura Utara, Kota Jayapura, Papua 99221","Gurabesi, Kec. Jayapura Utara, Kota Jayapura",PAPUA,99221.0,Indonesia,,-2.5436844,140.7014125,https://maps.google.com/?cid=0x0:0x2abad4741c92629b
mall,Kedai Kopi,STARBUCKS MALL JAYAPURA,"JL. SAM RATULANGI APO, KOTA JAYAPURA .KEL.BHAYANGKARA Mall Jayapura, GF NO.15-16, Bayangkara, Kec. Jayapura Utara, Kota Jayapura, Papua 99112","KOTA JAYAPURA .KEL.BHAYANGKARA Mall Jayapura, GF NO.15-16, Bayangkara, Kec. Jayapura Utara, Kota Jayapura",PAPUA,99112.0,Indonesia,9675166227.0,-2.5353031,140.7060684,https://maps.google.com/?cid=0x0:0xfa7b3bbd59616326
mall,Toko Pakaian,Queensland Mall Jayapura,"Jl. Dr. Sam Ratulangi No.47, Bayangkara, Kec. Jayapura Utara, Kota Jayapura, Papua 99112","Bayangkara, Kec. Jayapura Utara, Kota Jayapura",PAPUA,99112.0,Indonesia,,-2.5351454,140.7056316,https://maps.google.com/?cid=0x0:0x9799122ab1ed2d10
mall,Toko,Pujasera Mall Papua,"FP84+489, Bayangkara, Kec. Jayapura Utara, Kota Jayapura, Papua 99112","Bayangkara, Kec. Jayapura Utara, Kota Jayapura",PAPUA,99112.0,Indonesia,,-2.5347085,140.7058523,https://maps.google.com/?cid=0x0:0xf8c429224d1fb1bb
mall,Pusat Perbelanjaan,Mall Jayapura,"APO, Jl. Samratulangi, Bayangkara, Kec. Jayapura Utara, Kota Jayapura, Papua 99112","Jl. Samratulangi, Bayangkara, Kec. Jayapura Utara, Kota Jayapura",PAPUA,99112.0,Indonesia,9675150000.0,-2.5351775,140.7061874,https://maps.google.com/?cid=0x0:0x54294cb27964023
mall,mall,Papua 99112,"Bayangkara, Kec. Jayapura Utara, Kota Jayapura, Papua","Kota Jayapura, Papua",PAPUA,,Indonesia,,-2.5099296,140.6741875,https://maps.google.com/?cid=0x0:0x1e30ed7c2a61f1f1
mall,Pusat Perbelanjaan,Matahari Department Store - Mall Jayapura,"Jayapura Mall Lantai 1  2, Jl. Sam Ratulangi No. 45, Bhayangkara, Jayapura Utara, Bayangkara, Kec. Jayapura Utara, Kota Jayapura, Papua 99112","Jl. Sam Ratulangi No. 45, Bhayangkara, Jayapura Utara, Bayangkara, Kec. Jayapura Utara, Kota Jayapura",PAPUA,99112.0,Indonesia,9675150242.0,-2.5352864,140.7060379,https://maps.google.com/?cid=0x0:0x2f3594fedfb3ad93
mall,Toko Swalayan,Hypermart Jayapura Mall,"Jl. Dr. Sam Ratulangi No.47, Bayangkara, Kec. Jayapura Utara, Kota Jayapura, Papua 99112","Bayangkara, Kec. Jayapura Utara, Kota Jayapura",PAPUA,99112.0,Indonesia,967522298.0,-2.5350388,140.7055769,https://maps.google.com/?cid=0x0:0xb1412384235d004a
mall,Toko Optik,optik tiara mall jayapura,"Mall Jayapura lantai 2 No. 30, Bayangkara, Kec. Jayapura Utara, Kota Jayapura, Papua 99112","Bayangkara, Kec. Jayapura Utara, Kota Jayapura",PAPUA,99112.0,Indonesia,9675150019.0,-2.5352733,140.7061016,https://maps.google.com/?cid=0x0:0xd1464099f5932f2f
mall,Toko Sepatu,Gino Mariani Mall Jayapura,"APO, Jl. Samratulangi No.30 lantai 2 Unit, Bayangkara, Jayapura Utara, Jayapura City, Papua 99112","Jl. Samratulangi No.30 lantai 2 Unit, Bayangkara, Jayapura Utara, Jayapura City",PAPUA,99112.0,Indonesia,82298983055.0,-2.5293188,140.7165648,https://maps.google.com/?cid=0x0:0xc0fd27012d9a6c1d
mall,Toko Ponsel,Samsung Experience Store - Mall Jayapura,"APO, Mall Jayapura, Jl. Samratulangi, Bayangkara, Kec. Jayapura Utara, Kota Jayapura, Papua 99112","Mall Jayapura, Jl. Samratulangi, Bayangkara, Kec. Jayapura Utara, Kota Jayapura",PAPUA,99112.0,Indonesia,8114834032.0,-2.5351296,140.70617,https://maps.google.com/?cid=0x0:0x2a9502b51cdb044f
mall,Toko,Miniso Mall Jayapura,"FP84+44W, Jl. Dr. Sam Ratulangi, Bayangkara, Kec. Jayapura Utara, Kota Jayapura, Papua","Kota Jayapura, Papua",PAPUA,,Indonesia,,-2.5346381,140.7053234,https://maps.google.com/?cid=0x0:0x10478d3cdb4cdeac
mall,Komplek perumahan,Mall jaya,"FP84+265, Bayangkara, Kec. Jayapura Utara, Kota Jayapura, Papua 99112","Bayangkara, Kec. Jayapura Utara, Kota Jayapura",PAPUA,99112.0,Indonesia,,-2.5349865,140.7056372,https://maps.google.com/?cid=0x0:0xfacae9b4d0af8ca4
mall,Toko,Pujasera Mall Papua,"FP84+489, Bayangkara, Kec. Jayapura Utara, Kota Jayapura, Papua 99112","Bayangkara, Kec. Jayapura Utara, Kota Jayapura",PAPUA,99112.0,Indonesia,,-2.5347085,140.7058523,https://maps.google.com/?cid=0x0:0xf8c429224d1fb1bb
mall,Kedai Kopi,STARBUCKS MALL JAYAPURA,"JL. SAM RATULANGI APO, KOTA JAYAPURA .KEL.BHAYANGKARA Mall Jayapura, GF NO.15-16, Bayangkara, Kec. Jayapura Utara, Kota Jayapura, Papua 99112","KOTA JAYAPURA .KEL.BHAYANGKARA Mall Jayapura, GF NO.15-16, Bayangkara, Kec. Jayapura Utara, Kota Jayapura",PAPUA,99112.0,Indonesia,9675166227.0,-2.5353031,140.7060684,https://maps.google.com/?cid=0x0:0xfa7b3bbd59616326
mall,Toko Pakaian,Queensland Mall Jayapura,"Jl. Dr. Sam Ratulangi No.47, Bayangkara, Kec. Jayapura Utara, Kota Jayapura, Papua 99112","Bayangkara, Kec. Jayapura Utara, Kota Jayapura",PAPUA,99112.0,Indonesia,,-2.5351454,140.7056316,https://maps.google.com/?cid=0x0:0x9799122ab1ed2d10
mall,Pusat Perbelanjaan,SAGA MALL,"Kota Baru, Kec. Abepura, Kota Jayapura, Papua 99351","Kec. Abepura, Kota Jayapura",PAPUA,99351.0,Indonesia,,-2.6105845,140.6654189,https://maps.google.com/?cid=0x0:0xaf65e43ff84ff9e6
mall,Kedai Kopi,Excelso - Mall Jayapura,"Jl.Sam Ratulangi Lt.2 No.40, Excelso Mal Jayapura Lantai V, Scbd Complex, Bayangkara, Kec. Jayapura Utara, Kota Jayapura, Papua 99112","Excelso Mal Jayapura Lantai V, Scbd Complex, Bayangkara, Kec. Jayapura Utara, Kota Jayapura",PAPUA,99112.0,Indonesia,9675150114.0,-2.5352013,140.7060178,https://maps.google.com/?cid=0x0:0xd5e4d4451b65cf1d
mall,Pusat Perbelanjaan,SAGA MALL,"Kota Baru, Kec. Abepura, Kota Jayapura, Papua 99351","Kec. Abepura, Kota Jayapura",PAPUA,99351.0,Indonesia,,-2.6105845,140.6654189,https://maps.google.com/?cid=0x0:0xaf65e43ff84ff9e6
mall,Kedai Kopi,JCO COFFEE  DONUTS MALL JAYAPURA,"Jl. Kab. No.99112, Bayangkara, Kec. Jayapura Utara, Kota Jayapura, Papua 99112","Bayangkara, Kec. Jayapura Utara, Kota Jayapura",PAPUA,99112.0,Indonesia,,-2.5353252,140.7060198,https://maps.google.com/?cid=0x0:0x8cbe835113b8c269
mall,Pusat Perbelanjaan,Mall Jayapura,"APO, Jl. Samratulangi, Bayangkara, Kec. Jayapura Utara, Kota Jayapura, Papua 99112","Jl. Samratulangi, Bayangkara, Kec. Jayapura Utara, Kota Jayapura",PAPUA,99112.0,Indonesia,9675150000.0,-2.5351775,140.7061874,https://maps.google.com/?cid=0x0:0x54294cb27964023
mall,Pusat Perbelanjaan,Mall Jayapura,"APO, Jl. Samratulangi, Bayangkara, Kec. Jayapura Utara, Kota Jayapura, Papua 99112","Jl. Samratulangi, Bayangkara, Kec. Jayapura Utara, Kota Jayapura",PAPUA,99112.0,Indonesia,9675150000.0,-2.5351775,140.7061874,https://maps.google.com/?cid=0x0:0x54294cb27964023
mall,Kedai Kopi,JCO COFFEE  DONUTS MALL JAYAPURA,"Jl. Kab. No.99112, Bayangkara, Kec. Jayapura Utara, Kota Jayapura, Papua 99112","Bayangkara, Kec. Jayapura Utara, Kota Jayapura",PAPUA,99112.0,Indonesia,,-2.5353252,140.7060198,https://maps.google.com/?cid=0x0:0x8cbe835113b8c269
mall,mall,Papua 99114,"Kec. Jayapura Utara, Kabupaten Jayawijaya, Papua","Kabupaten Jayawijaya, Papua",PAPUA,,Indonesia,,-2.5167961,140.7027292,https://maps.google.com/?cid=0x0:0xfbf882c9b5d1cad7
mall,Pusat Perbelanjaan,SAGA MALL,"Kota Baru, Kec. Abepura, Kota Jayapura, Papua 99351","Kec. Abepura, Kota Jayapura",PAPUA,99351.0,Indonesia,,-2.6105845,140.6654189,https://maps.google.com/?cid=0x0:0xaf65e43ff84ff9e6
mall,Pusat Perbelanjaan,Matahari Department Store - Mall Jayapura,"Jayapura Mall Lantai 1  2, Jl. Sam Ratulangi No. 45, Bhayangkara, Jayapura Utara, Bayangkara, Kec. Jayapura Utara, Kota Jayapura, Papua 99112","Jl. Sam Ratulangi No. 45, Bhayangkara, Jayapura Utara, Bayangkara, Kec. Jayapura Utara, Kota Jayapura",PAPUA,99112.0,Indonesia,9675150242.0,-2.5352864,140.7060379,https://maps.google.com/?cid=0x0:0x2f3594fedfb3ad93
mall,Toko Sepatu,Gino Mariani Mall Jayapura,"APO, Jl. Samratulangi No.30 lantai 2 Unit, Bayangkara, Jayapura Utara, Jayapura City, Papua 99112","Jl. Samratulangi No.30 lantai 2 Unit, Bayangkara, Jayapura Utara, Jayapura City",PAPUA,99112.0,Indonesia,82298983055.0,-2.5293188,140.7165648,https://maps.google.com/?cid=0x0:0xc0fd27012d9a6c1d
mall,Toko Pakaian,Queensland Mall Jayapura,"Jl. Dr. Sam Ratulangi No.47, Bayangkara, Kec. Jayapura Utara, Kota Jayapura, Papua 99112","Bayangkara, Kec. Jayapura Utara, Kota Jayapura",PAPUA,99112.0,Indonesia,,-2.5351454,140.7056316,https://maps.google.com/?cid=0x0:0x9799122ab1ed2d10
mall,Makanan Siap Saji,Ta Wan - Mall Jayapura,"Mall Jayapura, Jl. Samratulangi Lantai 2, Bayangkara, Kec. Jayapura Utara, Kota Jayapura, Papua 99112","Jl. Samratulangi Lantai 2, Bayangkara, Kec. Jayapura Utara, Kota Jayapura",PAPUA,99112.0,Indonesia,8176371528.0,-2.5293262,140.716513,https://maps.google.com/?cid=0x0:0xe23fda5d3a63865b
mall,Toko Swalayan,Sagu Indah Plaza,"Jl. Ahmad Yani No.50, Gurabesi, Kec. Jayapura Utara, Kota Jayapura, Papua 99221","Gurabesi, Kec. Jayapura Utara, Kota Jayapura",PAPUA,99221.0,Indonesia,,-2.5436844,140.7014125,https://maps.google.com/?cid=0x0:0x2abad4741c92629b
mall,Kolam Renang,PTC Entrop,"Entrop, Distrik Jayapura Selatan, Kota Jayapura, Papua 99221","Distrik Jayapura Selatan, Kota Jayapura",PAPUA,99221.0,Indonesia,,-2.5690544,140.6960323,https://maps.google.com/?cid=0x0:0xf85bd4594f0f13bc
mall,Produsen jam tangan,My Time Jayapura,"FPC8+7R7 APO, Jl. Samratulangi, Bayangkara, Kec. Jayapura Utara, Kota Jayapura, Papua 99112","Jl. Samratulangi, Bayangkara, Kec. Jayapura Utara, Kota Jayapura",PAPUA,99112.0,Indonesia,,-2.529347,140.7170407,https://maps.google.com/?cid=0x0:0x124c463296913ea8
mall,Kios,Legend Kios DOK VIII Atas Jayapura,"FPM8+2R7, Perumahan Sosial BTI Dok VIII Atas, Imbi, Kec. Jayapura Utara, Kota Jayapura, Papua 99116","Perumahan Sosial BTI Dok VIII Atas, Imbi, Kec. Jayapura Utara, Kota Jayapura",PAPUA,99116.0,Indonesia,85244093933.0,-2.5174658,140.7170458,https://maps.google.com/?cid=0x0:0xbb3726a0441730ea
mall,Pusat Perbelanjaan,Mall Jayapura,"APO, Jl. Samratulangi, Bayangkara, Kec. Jayapura Utara, Kota Jayapura, Papua 99112","Jl. Samratulangi, Bayangkara, Kec. Jayapura Utara, Kota Jayapura",PAPUA,99112.0,Indonesia,9675150000.0,-2.5351775,140.7061874,https://maps.google.com/?cid=0x0:0x54294cb27964023
mall,mall,Kec. Jayapura Utara,"Kota Jayapura, Papua","Kota Jayapura, Papua",PAPUA,,Indonesia,,-2.5312067,140.7199798,https://maps.google.com/?cid=0x0:0x13fe60c6bfbe82b0
mall,Toko Swalayan,Hypermart Jayapura Mall,"Jl. Dr. Sam Ratulangi No.47, Bayangkara, Kec. Jayapura Utara, Kota Jayapura, Papua 99112","Bayangkara, Kec. Jayapura Utara, Kota Jayapura",PAPUA,99112.0,Indonesia,967522298.0,-2.5350388,140.7055769,https://maps.google.com/?cid=0x0:0xb1412384235d004a
mall,Toko Ponsel,Samsung Experience Store - Mall Jayapura,"APO, Mall Jayapura, Jl. Samratulangi, Bayangkara, Kec. Jayapura Utara, Kota Jayapura, Papua 99112","Mall Jayapura, Jl. Samratulangi, Bayangkara, Kec. Jayapura Utara, Kota Jayapura",PAPUA,99112.0,Indonesia,8114834032.0,-2.5351296,140.70617,https://maps.google.com/?cid=0x0:0x2a9502b51cdb044f
mall,Pusat Perbelanjaan,SAGA MALL,"Kota Baru, Kec. Abepura, Kota Jayapura, Papua 99351","Kec. Abepura, Kota Jayapura",PAPUA,99351.0,Indonesia,,-2.6105845,140.6654189,https://maps.google.com/?cid=0x0:0xaf65e43ff84ff9e6
mall,Toko Swalayan,Sagu Indah Plaza,"Jl. Ahmad Yani No.50, Gurabesi, Kec. Jayapura Utara, Kota Jayapura, Papua 99221","Gurabesi, Kec. Jayapura Utara, Kota Jayapura",PAPUA,99221.0,Indonesia,,-2.5436844,140.7014125,https://maps.google.com/?cid=0x0:0x2abad4741c92629b
mall,Pusat Perbelanjaan,Mall jayapura,"Jl. Ahmad Yani No.3, Gurabesi, Kec. Jayapura Utara, Kota Jayapura, Papua","Kota Jayapura, Papua",PAPUA,,Indonesia,,-2.5346553,140.705761,https://maps.google.com/?cid=0x0:0x552193b83e37c54c
mall,Toko Ponsel,Apple Jayapura,"Jl. Dr. Sam Ratulangi, Bayangkara, Kec. Jayapura Utara, Kota Jayapura, Papua 99112","Bayangkara, Kec. Jayapura Utara, Kota Jayapura",PAPUA,99112.0,Indonesia,81343133336.0,-2.5350543,140.7058465,https://maps.google.com/?cid=0x0:0x2da18e4d7d0b40b8
mall,Toko,Miniso Mall Jayapura,"FP84+44W, Jl. Dr. Sam Ratulangi, Bayangkara, Kec. Jayapura Utara, Kota Jayapura, Papua","Kota Jayapura, Papua",PAPUA,,Indonesia,,-2.5346381,140.7053234,https://maps.google.com/?cid=0x0:0x10478d3cdb4cdeac
mall,Toko Optik,optik tiara mall jayapura,"Mall Jayapura lantai 2 No. 30, Bayangkara, Kec. Jayapura Utara, Kota Jayapura, Papua 99112","Bayangkara, Kec. Jayapura Utara, Kota Jayapura",PAPUA,99112.0,Indonesia,9675150019.0,-2.5352733,140.7061016,https://maps.google.com/?cid=0x0:0xd1464099f5932f2f
mall,Toko Pakaian,Queensland Mall Jayapura,"Jl. Dr. Sam Ratulangi No.47, Bayangkara, Kec. Jayapura Utara, Kota Jayapura, Papua 99112","Bayangkara, Kec. Jayapura Utara, Kota Jayapura",PAPUA,99112.0,Indonesia,,-2.5351454,140.7056316,https://maps.google.com/?cid=0x0:0x9799122ab1ed2d10
mall,Kedai Kopi,STARBUCKS MALL JAYAPURA,"JL. SAM RATULANGI APO, KOTA JAYAPURA .KEL.BHAYANGKARA Mall Jayapura, GF NO.15-16, Bayangkara, Kec. Jayapura Utara, Kota Jayapura, Papua 99112","KOTA JAYAPURA .KEL.BHAYANGKARA Mall Jayapura, GF NO.15-16, Bayangkara, Kec. Jayapura Utara, Kota Jayapura",PAPUA,99112.0,Indonesia,9675166227.0,-2.5353031,140.7060684,https://maps.google.com/?cid=0x0:0xfa7b3bbd59616326
mall,Toko Sepatu,Gino Mariani Mall Jayapura,"APO, Jl. Samratulangi No.30 lantai 2 Unit, Bayangkara, Jayapura Utara, Jayapura City, Papua 99112","Jl. Samratulangi No.30 lantai 2 Unit, Bayangkara, Jayapura Utara, Jayapura City",PAPUA,99112.0,Indonesia,82298983055.0,-2.5293188,140.7165648,https://maps.google.com/?cid=0x0:0xc0fd27012d9a6c1d
mall,Toko Swalayan,Saga Supermarket,"CPW3+83X, Ardipura, Distrik Jayapura Selatan, Kota Jayapura, Papua 99222","Ardipura, Distrik Jayapura Selatan, Kota Jayapura",PAPUA,99222.0,Indonesia,,-2.5541438,140.7027385,https://maps.google.com/?cid=0x0:0x287c7b2014785d97
mall,Pusat Perbelanjaan,Mall Jayapura,"APO, Jl. Samratulangi, Bayangkara, Kec. Jayapura Utara, Kota Jayapura, Papua 99112","Jl. Samratulangi, Bayangkara, Kec. Jayapura Utara, Kota Jayapura",PAPUA,99112.0,Indonesia,9675150000.0,-2.5351775,140.7061874,https://maps.google.com/?cid=0x0:0x54294cb27964023
mall,Kedai Kopi,JCO COFFEE  DONUTS MALL JAYAPURA,"Jl. Kab. No.99112, Bayangkara, Kec. Jayapura Utara, Kota Jayapura, Papua 99112","Bayangkara, Kec. Jayapura Utara, Kota Jayapura",PAPUA,99112.0,Indonesia,,-2.5353252,140.7060198,https://maps.google.com/?cid=0x0:0x8cbe835113b8c269
mall,Pusat Perbelanjaan,SAGA MALL,"Kota Baru, Kec. Abepura, Kota Jayapura, Papua 99351","Kec. Abepura, Kota Jayapura",PAPUA,99351.0,Indonesia,,-2.6105845,140.6654189,https://maps.google.com/?cid=0x0:0xaf65e43ff84ff9e6
mall,Pusat Perbelanjaan,Mall Jayapura,"APO, Jl. Samratulangi, Bayangkara, Kec. Jayapura Utara, Kota Jayapura, Papua 99112","Jl. Samratulangi, Bayangkara, Kec. Jayapura Utara, Kota Jayapura",PAPUA,99112.0,Indonesia,9675150000.0,-2.5351775,140.7061874,https://maps.google.com/?cid=0x0:0x54294cb27964023
mall,Pusat Perbelanjaan,SAGA MALL,"Kota Baru, Kec. Abepura, Kota Jayapura, Papua 99351","Kec. Abepura, Kota Jayapura",PAPUA,99351.0,Indonesia,,-2.6105845,140.6654189,https://maps.google.com/?cid=0x0:0xaf65e43ff84ff9e6
mall,Kedai Kopi,JCO COFFEE  DONUTS MALL JAYAPURA,"Jl. Kab. No.99112, Bayangkara, Kec. Jayapura Utara, Kota Jayapura, Papua 99112","Bayangkara, Kec. Jayapura Utara, Kota Jayapura",PAPUA,99112.0,Indonesia,,-2.5353252,140.7060198,https://maps.google.com/?cid=0x0:0x8cbe835113b8c269
mall,mall,Papua 99221,"Kota Jayapura, Papua","Kota Jayapura, Papua",PAPUA,,Indonesia,,-2.5407181,140.6638119,https://maps.google.com/?cid=0x0:0x22734bd942608dca
mall,Pusat Perbelanjaan,Mall Jayapura,"APO, Jl. Samratulangi, Bayangkara, Kec. Jayapura Utara, Kota Jayapura, Papua 99112","Jl. Samratulangi, Bayangkara, Kec. Jayapura Utara, Kota Jayapura",PAPUA,99112.0,Indonesia,9675150000.0,-2.5351775,140.7061874,https://maps.google.com/?cid=0x0:0x54294cb27964023
mall,Pasar Grosir Pakaian,Ramayana Abepura,"Jl. Raya Abepura, Kel. Vin, Kec. Jayapura Selatan, Wai Mhorock, Kec. Abepura, Kota Jayapura, Papua 99351","Kel. Vin, Kec. Jayapura Selatan, Wai Mhorock, Kec. Abepura, Kota Jayapura",PAPUA,99351.0,Indonesia,967584745.0,-2.604339,140.6736756,https://maps.google.com/?cid=0x0:0x103c0acf73345917
mall,Pusat Perbelanjaan,Saga Mart,"9MVG+F44, Jl. Baru Ps. Lama Abepura, Wai Mhorock, Kec. Abepura, Kota Jayapura, Papua 99225","Jl. Baru Ps. Lama Abepura, Wai Mhorock, Kec. Abepura, Kota Jayapura",PAPUA,99225.0,Indonesia,,-2.6063557,140.6753333,https://maps.google.com/?cid=0x0:0x87e41d7df0d8cbcc
mall,Kolam Renang,PTC Entrop,"Entrop, Distrik Jayapura Selatan, Kota Jayapura, Papua 99221","Distrik Jayapura Selatan, Kota Jayapura",PAPUA,99221.0,Indonesia,,-2.5690544,140.6960323,https://maps.google.com/?cid=0x0:0xf85bd4594f0f13bc
mall,Toko Swalayan,Hypermart Jayapura Mall,"Jl. Dr. Sam Ratulangi No.47, Bayangkara, Kec. Jayapura Utara, Kota Jayapura, Papua 99112","Bayangkara, Kec. Jayapura Utara, Kota Jayapura",PAPUA,99112.0,Indonesia,967522298.0,-2.5350388,140.7055769,https://maps.google.com/?cid=0x0:0xb1412384235d004a
mall,Pusat Perbelanjaan,Ramayana Mal Abepura,"Jalan raya Abepura kotaraja kec. Vim, 100, kotaraja, Kec. Abepura, Kota Jayapura, Papua 99351","100, kotaraja, Kec. Abepura, Kota Jayapura",PAPUA,99351.0,Indonesia,82198483415.0,-2.6042441,140.6738182,https://maps.google.com/?cid=0x0:0x50d6ae959a8afa27
mall,Komplek perumahan,Pertokoan Bucend II Entrop Puskop Kartika Cenderawasih,"CPP2+J6R, Ardipura, Distrik Jayapura Selatan, Kota Jayapura, Papua 99221","Ardipura, Distrik Jayapura Selatan, Kota Jayapura",PAPUA,99221.0,Indonesia,81248584171.0,-2.5633901,140.7005206,https://maps.google.com/?cid=0x0:0x22825c04b4e2d566
mall,Toko Swalayan,Saga Supermarket,"CPW3+83X, Ardipura, Distrik Jayapura Selatan, Kota Jayapura, Papua 99222","Ardipura, Distrik Jayapura Selatan, Kota Jayapura",PAPUA,99222.0,Indonesia,,-2.5541438,140.7027385,https://maps.google.com/?cid=0x0:0x287c7b2014785d97
mall,Pusat Perbelanjaan,Matahari Department Store - Mall Jayapura,"Jayapura Mall Lantai 1  2, Jl. Sam Ratulangi No. 45, Bhayangkara, Jayapura Utara, Bayangkara, Kec. Jayapura Utara, Kota Jayapura, Papua 99112","Jl. Sam Ratulangi No. 45, Bhayangkara, Jayapura Utara, Bayangkara, Kec. Jayapura Utara, Kota Jayapura",PAPUA,99112.0,Indonesia,9675150242.0,-2.5352864,140.7060379,https://maps.google.com/?cid=0x0:0x2f3594fedfb3ad93
mall,Toko Swalayan,Sagu Indah Plaza,"Jl. Ahmad Yani No.50, Gurabesi, Kec. Jayapura Utara, Kota Jayapura, Papua 99221","Gurabesi, Kec. Jayapura Utara, Kota Jayapura",PAPUA,99221.0,Indonesia,,-2.5436844,140.7014125,https://maps.google.com/?cid=0x0:0x2abad4741c92629b
mall,Toko Olahraga Luar Ruangan,EIGER ADVENTURE STORE JAYAPURA,"Jl. Percetakan Negara No.76, Gurabesi, Kec. Jayapura Utara, Kota Jayapura, Papua 99221","Gurabesi, Kec. Jayapura Utara, Kota Jayapura",PAPUA,99221.0,Indonesia,81120057688.0,-2.5416527,140.7025873,https://maps.google.com/?cid=0x0:0x423655c075b28824
mall,Toko Swalayan,Minimarket Sinar Setia,"CMMX+QQG, Jl. Raya Abepura, Entrop, Distrik Jayapura Selatan, Kota Jayapura, Papua 99221","Jl. Raya Abepura, Entrop, Distrik Jayapura Selatan, Kota Jayapura",PAPUA,99221.0,Indonesia,967535542.0,-2.5655707,140.6994615,https://maps.google.com/?cid=0x0:0xb2f38e8ba09af397
mall,Kantor Perusahaan,Sagita Furniture AGM  Cellini Jayapura,"Jl. Klp. 2, Entrop, Distrik Jayapura Selatan, Kota Jayapura, Papua","Kota Jayapura, Papua",PAPUA,,Indonesia,85244575757.0,-2.5682712,140.7027263,https://maps.google.com/?cid=0x0:0xead935b7253f09b5
mall,mall,Kec. Abepura,"Kota Jayapura, Papua","Kota Jayapura, Papua",PAPUA,,Indonesia,,-2.6813971,140.7662871,https://maps.google.com/?cid=0x0:0x75b53491c4439b2f
mall,Pasar Grosir Pakaian,Ramayana Abepura,"Jl. Raya Abepura, Kel. Vin, Kec. Jayapura Selatan, Wai Mhorock, Kec. Abepura, Kota Jayapura, Papua 99351","Kel. Vin, Kec. Jayapura Selatan, Wai Mhorock, Kec. Abepura, Kota Jayapura",PAPUA,99351.0,Indonesia,967584745.0,-2.604339,140.6736756,https://maps.google.com/?cid=0x0:0x103c0acf73345917
mall,Pusat Perbelanjaan,SAGA MALL,"Kota Baru, Kec. Abepura, Kota Jayapura, Papua 99351","Kec. Abepura, Kota Jayapura",PAPUA,99351.0,Indonesia,,-2.6105845,140.6654189,https://maps.google.com/?cid=0x0:0xaf65e43ff84ff9e6
mall,Pusat Perbelanjaan,Fun Station Saga Mall Abepura,"9MQ8+W74, Jalan Raya, Baru City, Abepura, Jayapura City, Papua 99351","Jalan Raya, Baru City, Abepura, Jayapura City",PAPUA,99351.0,Indonesia,,-2.6102449,140.6657012,https://maps.google.com/?cid=0x0:0x3f131aea7ac038cc
mall,Pusat Perbelanjaan,Saga Mart,"9MVG+F44, Jl. Baru Ps. Lama Abepura, Wai Mhorock, Kec. Abepura, Kota Jayapura, Papua 99225","Jl. Baru Ps. Lama Abepura, Wai Mhorock, Kec. Abepura, Kota Jayapura",PAPUA,99225.0,Indonesia,,-2.6063557,140.6753333,https://maps.google.com/?cid=0x0:0x87e41d7df0d8cbcc
mall,Pusat Perbelanjaan,Deppp,"Unnamed Road Blk. B No.1, Awiyo, Kec. Abepura, Kota Jayapura, Papua 99351","Awiyo, Kec. Abepura, Kota Jayapura",PAPUA,99351.0,Indonesia,85373778318.0,-2.618795,140.671301,https://maps.google.com/?cid=0x0:0xc36d46e4b6f8a8c6
mall,Toserba,Mega Mart Abepura,"9MQ8+7H6, Kota Baru, Kec. Abepura, Kota Jayapura, Papua 99351","Kota Baru, Kec. Abepura, Kota Jayapura",PAPUA,99351.0,Indonesia,,-2.6118458,140.6663926,https://maps.google.com/?cid=0x0:0x15b886c7dbf25b8b
mall,Pusat Perbelanjaan,CRM - SAGA MALL ABEPURA,"Jl. Raya Abepura - Sentani, Kota Baru, Kec. Abepura, Kota Jayapura, Papua 99351","Kota Baru, Kec. Abepura, Kota Jayapura",PAPUA,99351.0,Indonesia,2114017.0,-2.6106009,140.6657985,https://maps.google.com/?cid=0x0:0x6a686b32d4c51033
mall,Pusat Perbelanjaan,Ramayana Mal Abepura,"Jalan raya Abepura kotaraja kec. Vim, 100, kotaraja, Kec. Abepura, Kota Jayapura, Papua 99351","100, kotaraja, Kec. Abepura, Kota Jayapura",PAPUA,99351.0,Indonesia,82198483415.0,-2.6042441,140.6738182,https://maps.google.com/?cid=0x0:0x50d6ae959a8afa27
mall,Kantor Perusahaan,SUMBER MAKMUR SUPERMARKET  STUDIO FOTO,"Jl. Dewi Sartika Jl. Raya Abepura No.6, Kota Baru, Kec. Abepura, Kota Jayapura, Papua 99351","Kota Baru, Kec. Abepura, Kota Jayapura",PAPUA,99351.0,Indonesia,811480911.0,-2.6125024,140.663996,https://maps.google.com/?cid=0x0:0x20edd034fc268980
mall,Toserba,Mega Waena Departement Store,"Jl. Raya Waena Sentani, Waena, Kec. Heram, Kota Jayapura, Papua 99351","Waena, Kec. Heram, Kota Jayapura",PAPUA,99351.0,Indonesia,,-2.5973349,140.6348789,https://maps.google.com/?cid=0x0:0xd96e42f2c11ca1e9
mall,Pusat Perbelanjaan,Mega Abepura Department Store,"Jl. Raya Abepura - Sentani No.10, Kota Baru, Kec. Abepura, Kota Jayapura, Papua 99351","Kota Baru, Kec. Abepura, Kota Jayapura",PAPUA,99351.0,Indonesia,,-2.611092,140.6662139,https://maps.google.com/?cid=0x0:0x9667ed828f5238cc
mall,Toko,Mol jayapura,"CM59+9JM, Vim, Kec. Abepura, Kota Jayapura, Papua 99224","Vim, Kec. Abepura, Kota Jayapura",PAPUA,99224.0,Indonesia,,-2.5915361,140.6690326,https://maps.google.com/?cid=0x0:0xdeaac68987fe8a59
mall,Pusat Perbelanjaan,ETC Sophie Paris JAYAPURA,"Jalan Biak No.3 RT.02/05 Kel. Kota Baru Lingkaran Abepura Abepura ( Arah SMAN 1, Kota Baru, Kec. Abepura, Kota Jayapura, Papua 99351","Kota Baru, Kec. Abepura, Kota Jayapura",PAPUA,99351.0,Indonesia,81247841142.0,-2.612887,140.6639978,https://maps.google.com/?cid=0x0:0x22f3b0b1c702e3c
mall,mall,Papua 99351,"Kota Jayapura, Papua","Kota Jayapura, Papua",PAPUA,,Indonesia,,-2.685882,140.8872648,https://maps.google.com/?cid=0x0:0x540583c400ca05b3
mall,Pusat Perbelanjaan,Mall Jayapura,"APO, Jl. Samratulangi, Bayangkara, Kec. Jayapura Utara, Kota Jayapura, Papua 99112","Jl. Samratulangi, Bayangkara, Kec. Jayapura Utara, Kota Jayapura",PAPUA,99112.0,Indonesia,9675150000.0,-2.5351775,140.7061874,https://maps.google.com/?cid=0x0:0x54294cb27964023
mall,Pusat Perbelanjaan,SAGA MALL,"Kota Baru, Kec. Abepura, Kota Jayapura, Papua 99351","Kec. Abepura, Kota Jayapura",PAPUA,99351.0,Indonesia,,-2.6105845,140.6654189,https://maps.google.com/?cid=0x0:0xaf65e43ff84ff9e6
mall,mall,ALFA MIDI KOYA BARAT,"9R64+RH4, Koya Tengah, Kec. Muara Tami, Kota Jayapura, Papua 99351","Koya Tengah, Kec. Muara Tami, Kota Jayapura",PAPUA,99351.0,Indonesia,,-2.6379833,140.8064417,https://maps.google.com/?cid=0x0:0xfef35fc52a22d924
mall,Pasar Petani,Pasar Koya Timur,"8RPX+VPC, Koya Tim., Kec. Muara Tami, Kota Jayapura, Papua 99351","Koya Tim., Kec. Muara Tami, Kota Jayapura",PAPUA,99351.0,Indonesia,,-2.6628135,140.8492808,https://maps.google.com/?cid=0x0:0xe3a2ac94d197a4fb
mall,Toko,HS Mart I Waena,"Jl. Yoka Pantai, Yoka, Kec. Heram, Kota Jayapura, Papua 99351","Yoka, Kec. Heram, Kota Jayapura",PAPUA,99351.0,Indonesia,85244191111.0,-2.6031209,140.6324364,https://maps.google.com/?cid=0x0:0xfa7dd6e3506f52fd
mall,Pusat Perbelanjaan,Saga Mart,"9MVG+F44, Jl. Baru Ps. Lama Abepura, Wai Mhorock, Kec. Abepura, Kota Jayapura, Papua 99225","Jl. Baru Ps. Lama Abepura, Wai Mhorock, Kec. Abepura, Kota Jayapura",PAPUA,99225.0,Indonesia,,-2.6063557,140.6753333,https://maps.google.com/?cid=0x0:0x87e41d7df0d8cbcc
mall,Pusat Perbelanjaan,PUSAT PERBELANJAAN MASPUL,"9MQ8+C63, Jl. Raya Abepura - Sentani, Entrop, Distrik Jayapura Selatan, Kota Jayapura, Papua 99351","Jl. Raya Abepura - Sentani, Entrop, Distrik Jayapura Selatan, Kota Jayapura",PAPUA,99351.0,Indonesia,,-2.6114916,140.665547,https://maps.google.com/?cid=0x0:0x13472ba7475f3390
mall,Pusat Perbelanjaan,CABANG KIOS TIGA PUTRA PERMATA,"Koya Bar., Kec. Muara Tami, Kota Jayapura, Papua 99351","Kec. Muara Tami, Kota Jayapura",PAPUA,99351.0,Indonesia,81343049010.0,-2.6759262,140.8036076,https://maps.google.com/?cid=0x0:0x60b8f9ee459faeba
mall,Toko Swalayan,Hypermart Jayapura Mall,"Jl. Dr. Sam Ratulangi No.47, Bayangkara, Kec. Jayapura Utara, Kota Jayapura, Papua 99112","Bayangkara, Kec. Jayapura Utara, Kota Jayapura",PAPUA,99112.0,Indonesia,967522298.0,-2.5350388,140.7055769,https://maps.google.com/?cid=0x0:0xb1412384235d004a
mall,mall,Murni Jaya,"8RF3+G9Q, Jl. Fak-Fak, Koya Bar., Kec. Muara Tami, Kota Jayapura, Papua 99351","Jl. Fak-Fak, Koya Bar., Kec. Muara Tami, Kota Jayapura",PAPUA,99351.0,Indonesia,82198934985.0,-2.676154,140.803493,https://maps.google.com/?cid=0x0:0x72bb4e775100642
mall,Pusat Perbelanjaan,Pasar Pinang Koya,"8Q7Q+647, Jl. Poros, Koya Bar., Kec. Muara Tami, Kota Jayapura, Papua 99351","Jl. Poros, Koya Bar., Kec. Muara Tami, Kota Jayapura",PAPUA,99351.0,Indonesia,,-2.6869531,140.7877893,https://maps.google.com/?cid=0x0:0xa8623f9d4694501a
mall,Toko Perlengkapan Rumah,Kios D3,"8RMX+V8G, Koya Tim., Kec. Muara Tami, Kota Jayapura, Papua 99351","Koya Tim., Kec. Muara Tami, Kota Jayapura",PAPUA,99351.0,Indonesia,,-2.6653167,140.8483243,https://maps.google.com/?cid=0x0:0x5d1cc511f46cda64
mall,Pusat Perbelanjaan,Kinselshop,"8RMV+4Q8, Koya Tim., Kec. Muara Tami, Kota Jayapura, Papua 99351","Koya Tim., Kec. Muara Tami, Kota Jayapura",PAPUA,99351.0,Indonesia,81247610546.0,-2.667222,140.8444544,https://maps.google.com/?cid=0x0:0x96501de4af23a750
mall,mall,Kec. Heram,"Kota Jayapura, Papua","Kota Jayapura, Papua",PAPUA,,Indonesia,,-2.5968715,140.6349408,https://maps.google.com/?cid=0x0:0xae4be183bc9835dc
mall,Pasar Grosir Pakaian,Ramayana Abepura,"Jl. Raya Abepura, Kel. Vin, Kec. Jayapura Selatan, Wai Mhorock, Kec. Abepura, Kota Jayapura, Papua 99351","Kel. Vin, Kec. Jayapura Selatan, Wai Mhorock, Kec. Abepura, Kota Jayapura",PAPUA,99351.0,Indonesia,967584745.0,-2.604339,140.6736756,https://maps.google.com/?cid=0x0:0x103c0acf73345917
mall,Pusat Perbelanjaan,SAGA MALL,"Kota Baru, Kec. Abepura, Kota Jayapura, Papua 99351","Kec. Abepura, Kota Jayapura",PAPUA,99351.0,Indonesia,,-2.6105845,140.6654189,https://maps.google.com/?cid=0x0:0xaf65e43ff84ff9e6
mall,Pusat Perbelanjaan,Mall Jayapura,"APO, Jl. Samratulangi, Bayangkara, Kec. Jayapura Utara, Kota Jayapura, Papua 99112","Jl. Samratulangi, Bayangkara, Kec. Jayapura Utara, Kota Jayapura",PAPUA,99112.0,Indonesia,9675150000.0,-2.5351775,140.7061874,https://maps.google.com/?cid=0x0:0x54294cb27964023
mall,Toko,HS Mart I Waena,"Jl. Yoka Pantai, Yoka, Kec. Heram, Kota Jayapura, Papua 99351","Yoka, Kec. Heram, Kota Jayapura",PAPUA,99351.0,Indonesia,85244191111.0,-2.6031209,140.6324364,https://maps.google.com/?cid=0x0:0xfa7dd6e3506f52fd
mall,Toko Perlengkapan Rumah,SHEFA STORE,"CJ2Q+C3P, Kp. Waena, Kec. Heram, Kota Jayapura, Papua 99351","Kp. Waena, Kec. Heram, Kota Jayapura",PAPUA,99351.0,Indonesia,81358698624.0,-2.5988455,140.6377563,https://maps.google.com/?cid=0x0:0x6e16b562f7fdab5c
mall,Agen Persewaan Ruang Kantor,ELHANAN SEMESTA,"Kp. Waena, Kec. Heram, Kota Jayapura, Papua 99351","Kec. Heram, Kota Jayapura",PAPUA,99351.0,Indonesia,81248700460.0,-2.5977964,140.6328463,https://maps.google.com/?cid=0x0:0x679c331a1a8b1aa7
mall,Pusat Perbelanjaan,Fun Station Saga Mall Abepura,"9MQ8+W74, Jalan Raya, Baru City, Abepura, Jayapura City, Papua 99351","Jalan Raya, Baru City, Abepura, Jayapura City",PAPUA,99351.0,Indonesia,,-2.6102449,140.6657012,https://maps.google.com/?cid=0x0:0x3f131aea7ac038cc
mall,Kantor Perusahaan,SUMBER MAKMUR SUPERMARKET  STUDIO FOTO,"Jl. Dewi Sartika Jl. Raya Abepura No.6, Kota Baru, Kec. Abepura, Kota Jayapura, Papua 99351","Kota Baru, Kec. Abepura, Kota Jayapura",PAPUA,99351.0,Indonesia,811480911.0,-2.6125024,140.663996,https://maps.google.com/?cid=0x0:0x20edd034fc268980
mall,Kerajinan,Pantiracer_jayapuea,"CJ8R+3QM, Jl. Kambolker Perumnas III, Yabansai, Kec. Heram, Kota Jayapura, Papua 99225","Jl. Kambolker Perumnas III, Yabansai, Kec. Heram, Kota Jayapura",PAPUA,99225.0,Indonesia,85254205678.0,-2.5847931,140.641916,https://maps.google.com/?cid=0x0:0xe2024b668b1acc14
mall,Pusat Perbelanjaan,Mega Super Market,"CJ3F+PVH, Jl. Raya Sentani - Waena, Kp. Waena, Kec. Heram, Kota Jayapura, Papua 99351","Jl. Raya Sentani - Waena, Kp. Waena, Kec. Heram, Kota Jayapura",PAPUA,99351.0,Indonesia,,-2.5956863,140.6247458,https://maps.google.com/?cid=0x0:0x396440a79ab53605
mall,Toko Ponsel,Fantasy Mobile,"CJ2J+P89, JL.SENTANI RAYA SAMPING POS POLISI BANDARA RUKO, Waena, Kec. Heram, Kota Jayapura, Papua 99351","JL.SENTANI RAYA SAMPING POS POLISI BANDARA RUKO, Waena, Kec. Heram, Kota Jayapura",PAPUA,99351.0,Indonesia,,-2.5982167,140.6308517,https://maps.google.com/?cid=0x0:0xd1b25e301ec2f128
mall,Pusat Perbelanjaan,Honay mart,"CJ8V+258, Unnamed Road, Yabansai, Kec. Heram, Kota Jayapura, Papua 99225","Unnamed Road, Yabansai, Kec. Heram, Kota Jayapura",PAPUA,99225.0,Indonesia,82113725890.0,-2.5849585,140.6429564,https://maps.google.com/?cid=0x0:0x71cfbc4e9cf058fa
mall,Pusat Perbelanjaan,Saga Mart,"9MVG+F44, Jl. Baru Ps. Lama Abepura, Wai Mhorock, Kec. Abepura, Kota Jayapura, Papua 99225","Jl. Baru Ps. Lama Abepura, Wai Mhorock, Kec. Abepura, Kota Jayapura",PAPUA,99225.0,Indonesia,,-2.6063557,140.6753333,https://maps.google.com/?cid=0x0:0x87e41d7df0d8cbcc
supermarket,Pusat Perbelanjaan,GELAEL SUPERMARKET,"Jl. Halmahera No.1, Trikora, Kec. Jayapura Utara, Kota Jayapura, Papua 99111","Trikora, Kec. Jayapura Utara, Kota Jayapura",PAPUA,99111.0,Indonesia,967537260.0,-2.5409664,140.7049667,https://maps.google.com/?cid=0x0:0x5dac61c724bf3c86
supermarket,Toko Swalayan,Yohan Departement Store,"Jl. Ahmad Yani No.38, Gurabesi, Kec. Jayapura Utara, Kota Jayapura, Papua 99221","Gurabesi, Kec. Jayapura Utara, Kota Jayapura",PAPUA,99221.0,Indonesia,967531497.0,-2.5433684,140.7015959,https://maps.google.com/?cid=0x0:0xf35ee7be8d7a021c
supermarket,supermarket,Papua 99221,"Kota Jayapura, Papua","Kota Jayapura, Papua",PAPUA,,Indonesia,,-2.5407181,140.6638119,https://maps.google.com/?cid=0x0:0x22734bd942608dca
supermarket,Pusat Perbelanjaan,Saga Jayapura,"Jl. Ahmad Yani, Gurabesi, Kec. Jayapura Utara, Kota Jayapura, Papua 99222","Gurabesi, Kec. Jayapura Utara, Kota Jayapura",PAPUA,99222.0,Indonesia,811480554.0,-2.5433433,140.7016688,https://maps.google.com/?cid=0x0:0x68f0411e320c4afb
supermarket,Toko bahan makanan,Toko Surya,"FP42+R96, Jl. Percetakan Negara, Gurabesi, Kec. Jayapura Utara, Kota Jayapura, Papua 99221","Jl. Percetakan Negara, Gurabesi, Kec. Jayapura Utara, Kota Jayapura",PAPUA,99221.0,Indonesia,,-2.5429687,140.7009055,https://maps.google.com/?cid=0x0:0x4d2d5e576ffc6ea8
supermarket,Toko Swalayan,Aneka Market,"Jl. Ahmad Yani No.45, Gurabesi, Kec. Jayapura Utara, Kota Jayapura, Papua 99222","Gurabesi, Kec. Jayapura Utara, Kota Jayapura",PAPUA,99222.0,Indonesia,,-2.5436412,140.7017491,https://maps.google.com/?cid=0x0:0xf68d157c81ff3974
supermarket,Toko Bahan Bangunan,Supermarket Multi Bangunan,"Jl Baru No.98, Wai Mhorock, Abepura, Jayapura City, Papua 99225","Wai Mhorock, Abepura, Jayapura City",PAPUA,99225.0,Indonesia,967588677.0,-2.6077336,140.6742812,https://maps.google.com/?cid=0x0:0x3b19f301c68f1d6f
supermarket,Pusat Perbelanjaan,Toko Saudara Dua,"Jl. Klp. 2, Entrop, Distrik Jayapura Selatan, Kota Jayapura, Papua 99221","Entrop, Distrik Jayapura Selatan, Kota Jayapura",PAPUA,99221.0,Indonesia,967536270.0,-2.5683311,140.7029781,https://maps.google.com/?cid=0x0:0x3c24bf54b2e538b
supermarket,Toko Swalayan,MaxiMart,"Jl. Raya Abepura, Entrop, Distrik Jayapura Selatan, Kota Jayapura, Papua 99224","Entrop, Distrik Jayapura Selatan, Kota Jayapura",PAPUA,99224.0,Indonesia,,-2.5765073,140.6864191,https://maps.google.com/?cid=0x0:0x2058ccefda14d659
supermarket,Toko Bir,TOKO SEJATI,"Jl. Klp. 2 No.18, Entrop, Distrik Jayapura Selatan, Kota Jayapura, Papua 99221","Entrop, Distrik Jayapura Selatan, Kota Jayapura",PAPUA,99221.0,Indonesia,967523590.0,-2.5672343,140.6999034,https://maps.google.com/?cid=0x0:0x1c037f70fb08a98f
supermarket,Toko Bir,Toko Virgo,"Jl. Klp. 2 No.22, Hamadi, Distrik Jayapura Selatan, Kota Jayapura, Papua 99221","Hamadi, Distrik Jayapura Selatan, Kota Jayapura",PAPUA,99221.0,Indonesia,,-2.5694546,140.7047246,https://maps.google.com/?cid=0x0:0x82e7d1cb237b6689
supermarket,Kantor Perusahaan,Hypermart - Abepura,"Jl. Raya Abepura - Sentani No.81, Asano, Kec. Abepura, Kota Jayapura, Papua 99351","Asano, Kec. Abepura, Kota Jayapura",PAPUA,99351.0,Indonesia,8114467777.0,-2.6166812,140.6801223,https://maps.google.com/?cid=0x0:0x4a244a93dff8c00b
supermarket,Minimarket,Delicatessen Mart (Dc Mart),"CPP2+RC5, Ardipura, Distrik Jayapura Selatan, Kota Jayapura, Papua 99221","Ardipura, Distrik Jayapura Selatan, Kota Jayapura",PAPUA,99221.0,Indonesia,,-2.5629816,140.701103,https://maps.google.com/?cid=0x0:0x8cb9c70038b8b0c7
supermarket,Toko bahan makanan,toko Sinar Timur,"Jl. Percetakan Negara No.51, Gurabesi, Kec. Jayapura Utara, Kota Jayapura, Papua 99222","Gurabesi, Kec. Jayapura Utara, Kota Jayapura",PAPUA,99222.0,Indonesia,,-2.5420052,140.7021448,https://maps.google.com/?cid=0x0:0x806dda89bddae720
supermarket,Toko Swalayan,Saga Supermarket,"CPW3+83X, Ardipura, Distrik Jayapura Selatan, Kota Jayapura, Papua 99222","Ardipura, Distrik Jayapura Selatan, Kota Jayapura",PAPUA,99222.0,Indonesia,,-2.5541438,140.7027385,https://maps.google.com/?cid=0x0:0x287c7b2014785d97
supermarket,Pusat Perbelanjaan,GELAEL SUPERMARKET,"Jl. Halmahera No.1, Trikora, Kec. Jayapura Utara, Kota Jayapura, Papua 99111","Trikora, Kec. Jayapura Utara, Kota Jayapura",PAPUA,99111.0,Indonesia,967537260.0,-2.5409664,140.7049667,https://maps.google.com/?cid=0x0:0x5dac61c724bf3c86
supermarket,supermarket,Papua 99222,"Distrik Jayapura Selatan, Kota Jayapura, Papua","Kota Jayapura, Papua",PAPUA,,Indonesia,,-2.5518785,140.7027292,https://maps.google.com/?cid=0x0:0xaed95d497fc99440
supermarket,Toko Swalayan,Aneka Market,"Jl. Ahmad Yani No.45, Gurabesi, Kec. Jayapura Utara, Kota Jayapura, Papua 99222","Gurabesi, Kec. Jayapura Utara, Kota Jayapura",PAPUA,99222.0,Indonesia,,-2.5436412,140.7017491,https://maps.google.com/?cid=0x0:0xf68d157c81ff3974
supermarket,Toko Swalayan,Hypermart Jayapura Mall,"Jl. Dr. Sam Ratulangi No.47, Bayangkara, Kec. Jayapura Utara, Kota Jayapura, Papua 99112","Bayangkara, Kec. Jayapura Utara, Kota Jayapura",PAPUA,99112.0,Indonesia,967522298.0,-2.5350388,140.7055769,https://maps.google.com/?cid=0x0:0xb1412384235d004a
supermarket,Toko Swalayan,Yohan Departement Store,"Jl. Ahmad Yani No.38, Gurabesi, Kec. Jayapura Utara, Kota Jayapura, Papua 99221","Gurabesi, Kec. Jayapura Utara, Kota Jayapura",PAPUA,99221.0,Indonesia,967531497.0,-2.5433684,140.7015959,https://maps.google.com/?cid=0x0:0xf35ee7be8d7a021c
supermarket,Toko bahan makanan,Toko Surya,"FP42+R96, Jl. Percetakan Negara, Gurabesi, Kec. Jayapura Utara, Kota Jayapura, Papua 99221","Jl. Percetakan Negara, Gurabesi, Kec. Jayapura Utara, Kota Jayapura",PAPUA,99221.0,Indonesia,,-2.5429687,140.7009055,https://maps.google.com/?cid=0x0:0x4d2d5e576ffc6ea8
supermarket,Toko bahan makanan,toko Sinar Timur,"Jl. Percetakan Negara No.51, Gurabesi, Kec. Jayapura Utara, Kota Jayapura, Papua 99222","Gurabesi, Kec. Jayapura Utara, Kota Jayapura",PAPUA,99222.0,Indonesia,,-2.5420052,140.7021448,https://maps.google.com/?cid=0x0:0x806dda89bddae720
supermarket,Toko bahan makanan,Mrs. SIN MART,"CPW2+P3P, Ardipura, Distrik Jayapura Selatan, Kota Jayapura, Papua 99222","Ardipura, Distrik Jayapura Selatan, Kota Jayapura",PAPUA,99222.0,Indonesia,,-2.5531527,140.7001904,https://maps.google.com/?cid=0x0:0xf8bab29d6696f572
supermarket,Toko Bahan Bangunan,Supermarket Multi Bangunan,"Jl Baru No.98, Wai Mhorock, Abepura, Jayapura City, Papua 99225","Wai Mhorock, Abepura, Jayapura City",PAPUA,99225.0,Indonesia,967588677.0,-2.6077336,140.6742812,https://maps.google.com/?cid=0x0:0x3b19f301c68f1d6f
supermarket,Minimarket,Alfamidi Argapura,"Raya No.44, 99224, Jl. Argapura, Argapura, Distrik Jayapura Selatan, Kota Jayapura, Papua","Kota Jayapura, Papua",PAPUA,,Indonesia,8123447220.0,-2.5568197,140.71256,https://maps.google.com/?cid=0x0:0x1a1f99c63d53366
supermarket,Toko Swalayan,SAGA ENTROP,"CPM2+2JP, Jl. Cenderawasih Pos, Ardipura, Distrik Jayapura Selatan, Kota Jayapura, Papua 99221","Jl. Cenderawasih Pos, Ardipura, Distrik Jayapura Selatan, Kota Jayapura",PAPUA,99221.0,Indonesia,0.0,-2.5674116,140.7015833,https://maps.google.com/?cid=0x0:0x9d7d3c2f314357a9
supermarket,Pusat Perbelanjaan,Mall Jayapura,"APO, Jl. Samratulangi, Bayangkara, Kec. Jayapura Utara, Kota Jayapura, Papua 99112","Jl. Samratulangi, Bayangkara, Kec. Jayapura Utara, Kota Jayapura",PAPUA,99112.0,Indonesia,9675150000.0,-2.5351775,140.7061874,https://maps.google.com/?cid=0x0:0x54294cb27964023
supermarket,supermarket,Papua 99223,"Entrop, Distrik Jayapura Selatan, Kota Jayapura, Papua","Kota Jayapura, Papua",PAPUA,,Indonesia,,-2.5603966,140.6689995,https://maps.google.com/?cid=0x0:0xba9a08c8ddb16a58
supermarket,Toko Bahan Bangunan,Supermarket Multi Bangunan,"Jl Baru No.98, Wai Mhorock, Abepura, Jayapura City, Papua 99225","Wai Mhorock, Abepura, Jayapura City",PAPUA,99225.0,Indonesia,967588677.0,-2.6077336,140.6742812,https://maps.google.com/?cid=0x0:0x3b19f301c68f1d6f
supermarket,Toko Swalayan,Saga Supermarket,"CPW3+83X, Ardipura, Distrik Jayapura Selatan, Kota Jayapura, Papua 99222","Ardipura, Distrik Jayapura Selatan, Kota Jayapura",PAPUA,99222.0,Indonesia,,-2.5541438,140.7027385,https://maps.google.com/?cid=0x0:0x287c7b2014785d97
supermarket,Pusat Perbelanjaan,Saga Jayapura,"Jl. Ahmad Yani, Gurabesi, Kec. Jayapura Utara, Kota Jayapura, Papua 99222","Gurabesi, Kec. Jayapura Utara, Kota Jayapura",PAPUA,99222.0,Indonesia,811480554.0,-2.5433433,140.7016688,https://maps.google.com/?cid=0x0:0x68f0411e320c4afb
supermarket,Kantor Perusahaan,Hypermart - Abepura,"Jl. Raya Abepura - Sentani No.81, Asano, Kec. Abepura, Kota Jayapura, Papua 99351","Asano, Kec. Abepura, Kota Jayapura",PAPUA,99351.0,Indonesia,8114467777.0,-2.6166812,140.6801223,https://maps.google.com/?cid=0x0:0x4a244a93dff8c00b
supermarket,Pasar Grosir Pakaian,Ramayana Abepura,"Jl. Raya Abepura, Kel. Vin, Kec. Jayapura Selatan, Wai Mhorock, Kec. Abepura, Kota Jayapura, Papua 99351","Kel. Vin, Kec. Jayapura Selatan, Wai Mhorock, Kec. Abepura, Kota Jayapura",PAPUA,99351.0,Indonesia,967584745.0,-2.604339,140.6736756,https://maps.google.com/?cid=0x0:0x103c0acf73345917
supermarket,Pusat Perbelanjaan,Mega Abepura Department Store,"Jl. Raya Abepura - Sentani No.10, Kota Baru, Kec. Abepura, Kota Jayapura, Papua 99351","Kota Baru, Kec. Abepura, Kota Jayapura",PAPUA,99351.0,Indonesia,,-2.611092,140.6662139,https://maps.google.com/?cid=0x0:0x9667ed828f5238cc
supermarket,Toko Bahan Bangunan,Indo Utama,"samping bank syariah indonesia, Jl. Klp. 2, Entrop, Distrik Jayapura Selatan, Kota Jayapura, Papua 99223","Jl. Klp. 2, Entrop, Distrik Jayapura Selatan, Kota Jayapura",PAPUA,99223.0,Indonesia,8124811011.0,-2.5684546,140.7018893,https://maps.google.com/?cid=0x0:0x9e5e00706a8412ea
supermarket,Minimarket,Alfamidi Argapura,"Raya No.44, 99224, Jl. Argapura, Argapura, Distrik Jayapura Selatan, Kota Jayapura, Papua","Kota Jayapura, Papua",PAPUA,,Indonesia,8123447220.0,-2.5568197,140.71256,https://maps.google.com/?cid=0x0:0x1a1f99c63d53366
supermarket,Toko Bahan Bangunan,Toko Perkakas Krisbow,"CMJW+76J, JL.Raya Entrop, Blok C, Komplek Papua Trade Center, Entrop, Distrik Jayapura Selatan, Kota Jayapura, Papua 99221","JL.Raya Entrop, Blok C, Komplek Papua Trade Center, Entrop, Distrik Jayapura Selatan, Kota Jayapura",PAPUA,99221.0,Indonesia,967551887.0,-2.5692954,140.6955186,https://maps.google.com/?cid=0x0:0x6937d40a9bfee6f7
supermarket,Toko Swalayan,SAGA Fresh Dok V,"FP8F+CG5, Mandala, Kec. Jayapura Utara, Kota Jayapura, Papua","Kota Jayapura, Papua",PAPUA,,Indonesia,811481744.0,-2.5339841,140.7238702,https://maps.google.com/?cid=0x0:0x14ea247dbf0373ea
supermarket,Toko Swalayan,SAGA ENTROP,"CPM2+2JP, Jl. Cenderawasih Pos, Ardipura, Distrik Jayapura Selatan, Kota Jayapura, Papua 99221","Jl. Cenderawasih Pos, Ardipura, Distrik Jayapura Selatan, Kota Jayapura",PAPUA,99221.0,Indonesia,0.0,-2.5674116,140.7015833,https://maps.google.com/?cid=0x0:0x9d7d3c2f314357a9
supermarket,Toko Swalayan,Hypermart Jayapura Mall,"Jl. Dr. Sam Ratulangi No.47, Bayangkara, Kec. Jayapura Utara, Kota Jayapura, Papua 99112","Bayangkara, Kec. Jayapura Utara, Kota Jayapura",PAPUA,99112.0,Indonesia,967522298.0,-2.5350388,140.7055769,https://maps.google.com/?cid=0x0:0xb1412384235d004a
supermarket,Toko bahan makanan,F Mart,"FP42+565, Jl. Setiapura II, Gurabesi, Kec. Jayapura Utara, Kota Jayapura, Papua 99221","Jl. Setiapura II, Gurabesi, Kec. Jayapura Utara, Kota Jayapura",PAPUA,99221.0,Indonesia,,-2.5446076,140.7006168,https://maps.google.com/?cid=0x0:0x5d32623f4147251d
supermarket,Toko Swalayan,MaxiMart,"Jl. Raya Abepura, Entrop, Distrik Jayapura Selatan, Kota Jayapura, Papua 99224","Entrop, Distrik Jayapura Selatan, Kota Jayapura",PAPUA,99224.0,Indonesia,,-2.5765073,140.6864191,https://maps.google.com/?cid=0x0:0x2058ccefda14d659
supermarket,Toko Bahan Bangunan,Supermarket Multi Bangunan,"Jl Baru No.98, Wai Mhorock, Abepura, Jayapura City, Papua 99225","Wai Mhorock, Abepura, Jayapura City",PAPUA,99225.0,Indonesia,967588677.0,-2.6077336,140.6742812,https://maps.google.com/?cid=0x0:0x3b19f301c68f1d6f
supermarket,supermarket,Papua 99224,"Kota Jayapura, Papua","Kota Jayapura, Papua",PAPUA,,Indonesia,,-2.579706,140.6638119,https://maps.google.com/?cid=0x0:0x9db3c17a7f47219
supermarket,Pusat Perbelanjaan,Robinson Supermarket Mall Ramayana,"9MWF+7G4, Jalan Raya, Wai Mhorock, Abepura, Jayapura City, Papua 99225","Jalan Raya, Wai Mhorock, Abepura, Jayapura City",PAPUA,99225.0,Indonesia,,-2.6043521,140.6738283,https://maps.google.com/?cid=0x0:0xefb232f46e94116e
supermarket,Toko Swalayan,Saga Supermarket,"CPW3+83X, Ardipura, Distrik Jayapura Selatan, Kota Jayapura, Papua 99222","Ardipura, Distrik Jayapura Selatan, Kota Jayapura",PAPUA,99222.0,Indonesia,,-2.5541438,140.7027385,https://maps.google.com/?cid=0x0:0x287c7b2014785d97
supermarket,Kantor Perusahaan,Hypermart - Abepura,"Jl. Raya Abepura - Sentani No.81, Asano, Kec. Abepura, Kota Jayapura, Papua 99351","Asano, Kec. Abepura, Kota Jayapura",PAPUA,99351.0,Indonesia,8114467777.0,-2.6166812,140.6801223,https://maps.google.com/?cid=0x0:0x4a244a93dff8c00b
supermarket,Toko bahan makanan,Yes Mart,"Kp. Waena, Kec. Heram, Kota Jayapura, Papua 99225","Kec. Heram, Kota Jayapura",PAPUA,99225.0,Indonesia,85244442561.0,-2.5959678,140.6408112,https://maps.google.com/?cid=0x0:0xf4f2aa037c0e061f
supermarket,Pasar Grosir Pakaian,Ramayana Abepura,"Jl. Raya Abepura, Kel. Vin, Kec. Jayapura Selatan, Wai Mhorock, Kec. Abepura, Kota Jayapura, Papua 99351","Kel. Vin, Kec. Jayapura Selatan, Wai Mhorock, Kec. Abepura, Kota Jayapura",PAPUA,99351.0,Indonesia,967584745.0,-2.604339,140.6736756,https://maps.google.com/?cid=0x0:0x103c0acf73345917
supermarket,Toko,Zoar Mart,"CJ8V+QW8, Yabansai, Kec. Heram, Kota Jayapura, Papua 99224","Yabansai, Kec. Heram, Kota Jayapura",PAPUA,99224.0,Indonesia,,-2.5830406,140.6447892,https://maps.google.com/?cid=0x0:0xf5b03442268ab3f9
supermarket,Pusat Perbelanjaan,Mega Abepura Department Store,"Jl. Raya Abepura - Sentani No.10, Kota Baru, Kec. Abepura, Kota Jayapura, Papua 99351","Kota Baru, Kec. Abepura, Kota Jayapura",PAPUA,99351.0,Indonesia,,-2.611092,140.6662139,https://maps.google.com/?cid=0x0:0x9667ed828f5238cc
supermarket,Toko Alat Tulis,TOKO IMA,"JL. Sumber Kayu No.6, Entrop, Distrik Jayapura Selatan, Kota Jayapura, Papua 99224","Entrop, Distrik Jayapura Selatan, Kota Jayapura",PAPUA,99224.0,Indonesia,82397781606.0,-2.5729818,140.6901525,https://maps.google.com/?cid=0x0:0x3c0c75f55f046962
supermarket,Pusat Perbelanjaan,GELAEL SUPERMARKET,"Jl. Halmahera No.1, Trikora, Kec. Jayapura Utara, Kota Jayapura, Papua 99111","Trikora, Kec. Jayapura Utara, Kota Jayapura",PAPUA,99111.0,Indonesia,967537260.0,-2.5409664,140.7049667,https://maps.google.com/?cid=0x0:0x5dac61c724bf3c86
supermarket,Toko,RJH Store,"Furia Kotaraja, Jalur 2 kiri No.102, Vim, Kec. Abepura, Kota Jayapura, Papua 99224","Jalur 2 kiri No.102, Vim, Kec. Abepura, Kota Jayapura",PAPUA,99224.0,Indonesia,81253650197.0,-2.5937099,140.6710935,https://maps.google.com/?cid=0x0:0xa3ce4fa9128f262c
supermarket,Toko Bahan Bangunan,Supermarket Multi Bangunan,"Jl Baru No.98, Wai Mhorock, Abepura, Jayapura City, Papua 99225","Wai Mhorock, Abepura, Jayapura City",PAPUA,99225.0,Indonesia,967588677.0,-2.6077336,140.6742812,https://maps.google.com/?cid=0x0:0x3b19f301c68f1d6f
supermarket,Pusat Perbelanjaan,Robinson Supermarket Mall Ramayana,"9MWF+7G4, Jalan Raya, Wai Mhorock, Abepura, Jayapura City, Papua 99225","Jalan Raya, Wai Mhorock, Abepura, Jayapura City",PAPUA,99225.0,Indonesia,,-2.6043521,140.6738283,https://maps.google.com/?cid=0x0:0xefb232f46e94116e
supermarket,supermarket,Papua 99225,"Kota Jayapura, Papua","Kota Jayapura, Papua",PAPUA,,Indonesia,,-2.5949282,140.653438,https://maps.google.com/?cid=0x0:0x21414c78014e775a
supermarket,Toko Swalayan,Topaz Supermarket Waena,"CJ2P+HJ3, Kp. Waena, Kec. Heram, Kota Jayapura, Papua 99351","Kp. Waena, Kec. Heram, Kota Jayapura",PAPUA,99351.0,Indonesia,967571020.0,-2.5986201,140.6365328,https://maps.google.com/?cid=0x0:0xd60311bc15532587
supermarket,Pusat Perbelanjaan,Toko Jempol Mas,"Jl. Kali Acai, RT.002/RW.003, Yobe, Kec. Abepura, Kota Jayapura, Papua 99225","RT.002/RW.003, Yobe, Kec. Abepura, Kota Jayapura",PAPUA,99225.0,Indonesia,82140334541.0,-2.6109358,140.671196,https://maps.google.com/?cid=0x0:0x4f54539f3db40e3a
supermarket,Toko bahan makanan,Toko Lotus,"9MQC+C84, Yobe, Kec. Abepura, Kota Jayapura, Papua 99351","Yobe, Kec. Abepura, Kota Jayapura",PAPUA,99351.0,Indonesia,,-2.6114917,140.6708251,https://maps.google.com/?cid=0x0:0xd4bb3791afe707d3
supermarket,Toko bahan makanan,Yes Mart,"Kp. Waena, Kec. Heram, Kota Jayapura, Papua 99225","Kec. Heram, Kota Jayapura",PAPUA,99225.0,Indonesia,85244442561.0,-2.5959678,140.6408112,https://maps.google.com/?cid=0x0:0xf4f2aa037c0e061f
supermarket,Pusat Perbelanjaan,Mega Abepura Department Store,"Jl. Raya Abepura - Sentani No.10, Kota Baru, Kec. Abepura, Kota Jayapura, Papua 99351","Kota Baru, Kec. Abepura, Kota Jayapura",PAPUA,99351.0,Indonesia,,-2.611092,140.6662139,https://maps.google.com/?cid=0x0:0x9667ed828f5238cc
supermarket,Pusat Perbelanjaan,SAGA YOUTEFA,"9MVG+F3W, Jl. Garuda, Wai Mhorock, Kec. Abepura, Kota Jayapura, Papua 99225","Jl. Garuda, Wai Mhorock, Kec. Abepura, Kota Jayapura",PAPUA,99225.0,Indonesia,,-2.6062656,140.6752002,https://maps.google.com/?cid=0x0:0x3d7019ea8a81a006
supermarket,Toko,Toko Walet Mas,"9MQC+CFQ, Jl. Baru Ps. Lama Abepura, Wai Mhorock, Kec. Abepura, Kota Jayapura, Papua 99225","Jl. Baru Ps. Lama Abepura, Wai Mhorock, Kec. Abepura, Kota Jayapura",PAPUA,99225.0,Indonesia,87817800852.0,-2.6114164,140.6712326,https://maps.google.com/?cid=0x0:0x715651fb74983932
supermarket,Toko Swalayan,"Onyx swalayan , bike  accesorise. kotaraja","Jl. Raya Abepura, Kota Baru, Kec. Abepura, Kota Jayapura, Papua 99351","Kota Baru, Kec. Abepura, Kota Jayapura",PAPUA,99351.0,Indonesia,,-2.6103157,140.6668395,https://maps.google.com/?cid=0x0:0x1acb2ce7429625cf
supermarket,Minimarket,ANA RESELLER KUTUS2 JAYAPURA,"perum taman buper bhayangkara permai, gang sakura No.18, Kp. Waena, Kec. Heram, Kota Jayapura, Papua 99225","gang sakura No.18, Kp. Waena, Kec. Heram, Kota Jayapura",PAPUA,99225.0,Indonesia,81230702606.0,-2.5842505,140.6333733,https://maps.google.com/?cid=0x0:0x40bb83d1b5eaee21
supermarket,Toko Swalayan,Saga Supermarket,"CPW3+83X, Ardipura, Distrik Jayapura Selatan, Kota Jayapura, Papua 99222","Ardipura, Distrik Jayapura Selatan, Kota Jayapura",PAPUA,99222.0,Indonesia,,-2.5541438,140.7027385,https://maps.google.com/?cid=0x0:0x287c7b2014785d97
supermarket,Kantor Perusahaan,SUMBER MAKMUR SUPERMARKET  STUDIO FOTO,"Jl. Dewi Sartika Jl. Raya Abepura No.6, Kota Baru, Kec. Abepura, Kota Jayapura, Papua 99351","Kota Baru, Kec. Abepura, Kota Jayapura",PAPUA,99351.0,Indonesia,811480911.0,-2.6125024,140.663996,https://maps.google.com/?cid=0x0:0x20edd034fc268980
supermarket,Toko Bahan Bangunan,Supermarket Multi Bangunan,"Jl Baru No.98, Wai Mhorock, Abepura, Jayapura City, Papua 99225","Wai Mhorock, Abepura, Jayapura City",PAPUA,99225.0,Indonesia,967588677.0,-2.6077336,140.6742812,https://maps.google.com/?cid=0x0:0x3b19f301c68f1d6f
supermarket,Kantor Perusahaan,Hypermart - Abepura,"Jl. Raya Abepura - Sentani No.81, Asano, Kec. Abepura, Kota Jayapura, Papua 99351","Asano, Kec. Abepura, Kota Jayapura",PAPUA,99351.0,Indonesia,8114467777.0,-2.6166812,140.6801223,https://maps.google.com/?cid=0x0:0x4a244a93dff8c00b
supermarket,supermarket,Papua 99226,"Wahno, Kec. Abepura, Kota Jayapura, Papua","Kota Jayapura, Papua",PAPUA,,Indonesia,,-2.5940542,140.6740309,https://maps.google.com/?cid=0x0:0xfee9da6af66c7cd1
supermarket,Pusat Perbelanjaan,GELAEL SUPERMARKET,"Jl. Halmahera No.1, Trikora, Kec. Jayapura Utara, Kota Jayapura, Papua 99111","Trikora, Kec. Jayapura Utara, Kota Jayapura",PAPUA,99111.0,Indonesia,967537260.0,-2.5409664,140.7049667,https://maps.google.com/?cid=0x0:0x5dac61c724bf3c86
supermarket,Pusat Perbelanjaan,Mega Abepura Department Store,"Jl. Raya Abepura - Sentani No.10, Kota Baru, Kec. Abepura, Kota Jayapura, Papua 99351","Kota Baru, Kec. Abepura, Kota Jayapura",PAPUA,99351.0,Indonesia,,-2.611092,140.6662139,https://maps.google.com/?cid=0x0:0x9667ed828f5238cc
supermarket,Pusat Perbelanjaan,SAGA MALL,"Kota Baru, Kec. Abepura, Kota Jayapura, Papua 99351","Kec. Abepura, Kota Jayapura",PAPUA,99351.0,Indonesia,,-2.6105845,140.6654189,https://maps.google.com/?cid=0x0:0xaf65e43ff84ff9e6
supermarket,Pusat Perbelanjaan,Saga Jayapura,"Jl. Ahmad Yani, Gurabesi, Kec. Jayapura Utara, Kota Jayapura, Papua 99222","Gurabesi, Kec. Jayapura Utara, Kota Jayapura",PAPUA,99222.0,Indonesia,811480554.0,-2.5433433,140.7016688,https://maps.google.com/?cid=0x0:0x68f0411e320c4afb
supermarket,Pusat Perbelanjaan,SAGA YOUTEFA,"9MVG+F3W, Jl. Garuda, Wai Mhorock, Kec. Abepura, Kota Jayapura, Papua 99225","Jl. Garuda, Wai Mhorock, Kec. Abepura, Kota Jayapura",PAPUA,99225.0,Indonesia,,-2.6062656,140.6752002,https://maps.google.com/?cid=0x0:0x3d7019ea8a81a006
supermarket,Kios,Kios Bambang,"Unnamed Road, 99224, Wahno, Kec. Abepura, Kota Jayapura, Papua 99224","99224, Wahno, Kec. Abepura, Kota Jayapura",PAPUA,99224.0,Indonesia,81344100400.0,-2.5943112,140.672919,https://maps.google.com/?cid=0x0:0xaa8124446a2ce4f2
supermarket,Pusat Perbelanjaan,Saga Mart,"9MVG+F44, Jl. Baru Ps. Lama Abepura, Wai Mhorock, Kec. Abepura, Kota Jayapura, Papua 99225","Jl. Baru Ps. Lama Abepura, Wai Mhorock, Kec. Abepura, Kota Jayapura",PAPUA,99225.0,Indonesia,,-2.6063557,140.6753333,https://maps.google.com/?cid=0x0:0x87e41d7df0d8cbcc
supermarket,Toko Swalayan,Hypermart Jayapura Mall,"Jl. Dr. Sam Ratulangi No.47, Bayangkara, Kec. Jayapura Utara, Kota Jayapura, Papua 99112","Bayangkara, Kec. Jayapura Utara, Kota Jayapura",PAPUA,99112.0,Indonesia,967522298.0,-2.5350388,140.7055769,https://maps.google.com/?cid=0x0:0xb1412384235d004a
supermarket,Toko Ikan,MUDA Koi Farm Jayapura,"Jalur 3 No.119, Wahno, Kec. Abepura, Kota Jayapura, Papua 99226","Wahno, Kec. Abepura, Kota Jayapura",PAPUA,99226.0,Indonesia,81344272212.0,-2.5940537,140.6737282,https://maps.google.com/?cid=0x0:0x8236d9d2d06d9ba
supermarket,Toko Swalayan,SAGA WAENA,"CJ3M+HQ8, Jl. Raya Abepura - Sentani, Kp. Waena, Kec. Heram, Kota Jayapura, Papua 99225","Jl. Raya Abepura - Sentani, Kp. Waena, Kec. Heram, Kota Jayapura",PAPUA,99225.0,Indonesia,,-2.5961192,140.6345177,https://maps.google.com/?cid=0x0:0xbe5416ad4f79e596
supermarket,Toko Swalayan,SAGA Fresh Dok V,"FP8F+CG5, Mandala, Kec. Jayapura Utara, Kota Jayapura, Papua","Kota Jayapura, Papua",PAPUA,,Indonesia,811481744.0,-2.5339841,140.7238702,https://maps.google.com/?cid=0x0:0x14ea247dbf0373ea
supermarket,supermarket,Papua 99111,"Kec. Jayapura Utara, Kota Jayapura, Papua","Kota Jayapura, Papua",PAPUA,,Indonesia,,-2.5084418,140.6326954,https://maps.google.com/?cid=0x0:0xdf06080a6648cb6c
supermarket,Pusat Perbelanjaan,GELAEL SUPERMARKET,"Jl. Halmahera No.1, Trikora, Kec. Jayapura Utara, Kota Jayapura, Papua 99111","Trikora, Kec. Jayapura Utara, Kota Jayapura",PAPUA,99111.0,Indonesia,967537260.0,-2.5409664,140.7049667,https://maps.google.com/?cid=0x0:0x5dac61c724bf3c86
supermarket,Toko Swalayan,Saga Supermarket,"CPW3+83X, Ardipura, Distrik Jayapura Selatan, Kota Jayapura, Papua 99222","Ardipura, Distrik Jayapura Selatan, Kota Jayapura",PAPUA,99222.0,Indonesia,,-2.5541438,140.7027385,https://maps.google.com/?cid=0x0:0x287c7b2014785d97
supermarket,Toko Buku,Gramedia Jayapura,"Jl. Dr. Sam Ratulangi No.5, Gurabesi, Kec. Jayapura Utara, Kota Jayapura, Papua 99111","Gurabesi, Kec. Jayapura Utara, Kota Jayapura",PAPUA,99111.0,Indonesia,81240712119.0,-2.5403869,140.7058158,https://maps.google.com/?cid=0x0:0x1a3c148eb82547aa
supermarket,Toko Elektronik,Pstore Papua,"FP75+3MM, Jl. Pacific Permai, Bayangkara, Kec. Jayapura Utara, Kota Jayapura, Papua","Kota Jayapura, Papua",PAPUA,,Indonesia,82125466256.0,-2.5372015,140.7091975,https://maps.google.com/?cid=0x0:0xe32e9c991172e956
supermarket,Toko Bahan Bangunan,Supermarket Multi Bangunan,"Jl Baru No.98, Wai Mhorock, Abepura, Jayapura City, Papua 99225","Wai Mhorock, Abepura, Jayapura City",PAPUA,99225.0,Indonesia,967588677.0,-2.6077336,140.6742812,https://maps.google.com/?cid=0x0:0x3b19f301c68f1d6f
supermarket,Toko Ponsel,Samsung Experience Store - Mall Jayapura,"APO, Mall Jayapura, Jl. Samratulangi, Bayangkara, Kec. Jayapura Utara, Kota Jayapura, Papua 99112","Mall Jayapura, Jl. Samratulangi, Bayangkara, Kec. Jayapura Utara, Kota Jayapura",PAPUA,99112.0,Indonesia,8114834032.0,-2.5351296,140.70617,https://maps.google.com/?cid=0x0:0x2a9502b51cdb044f
supermarket,Pusat Perbelanjaan,Mall Jayapura,"APO, Jl. Samratulangi, Bayangkara, Kec. Jayapura Utara, Kota Jayapura, Papua 99112","Jl. Samratulangi, Bayangkara, Kec. Jayapura Utara, Kota Jayapura",PAPUA,99112.0,Indonesia,9675150000.0,-2.5351775,140.7061874,https://maps.google.com/?cid=0x0:0x54294cb27964023
supermarket,Kedai Kopi,Pace Tan pu Kopitiam,"Jalan Pasifik Permai Blok B no 15, Kompleks Ruko Dok II, Jl. Pacific Permai No.16, Bayangkara, Kec. Jayapura Utara, Kota Jayapura, Papua 99111","Kompleks Ruko Dok II, Jl. Pacific Permai No.16, Bayangkara, Kec. Jayapura Utara, Kota Jayapura",PAPUA,99111.0,Indonesia,81376566794.0,-2.5373342,140.7092965,https://maps.google.com/?cid=0x0:0x1f1a43593e97ad0c
supermarket,Pusat Perbelanjaan,Matahari Department Store - Mall Jayapura,"Jayapura Mall Lantai 1  2, Jl. Sam Ratulangi No. 45, Bhayangkara, Jayapura Utara, Bayangkara, Kec. Jayapura Utara, Kota Jayapura, Papua 99112","Jl. Sam Ratulangi No. 45, Bhayangkara, Jayapura Utara, Bayangkara, Kec. Jayapura Utara, Kota Jayapura",PAPUA,99112.0,Indonesia,9675150242.0,-2.5352864,140.7060379,https://maps.google.com/?cid=0x0:0x2f3594fedfb3ad93
supermarket,Pusat Perbelanjaan,Robinson Supermarket Mall Ramayana,"9MWF+7G4, Jalan Raya, Wai Mhorock, Abepura, Jayapura City, Papua 99225","Jalan Raya, Wai Mhorock, Abepura, Jayapura City",PAPUA,99225.0,Indonesia,,-2.6043521,140.6738283,https://maps.google.com/?cid=0x0:0xefb232f46e94116e
supermarket,Kantor Perusahaan,Pasar Pagi Paldam,"FP32+X48, Gurabesi, Kec. Jayapura Utara, Kota Jayapura, Papua 99221","Gurabesi, Kec. Jayapura Utara, Kota Jayapura",PAPUA,99221.0,Indonesia,,-2.5450906,140.7003295,https://maps.google.com/?cid=0x0:0xdeb49fa9e4aefd7f
supermarket,Kedai Kopi,JCO COFFEE  DONUTS MALL JAYAPURA,"Jl. Kab. No.99112, Bayangkara, Kec. Jayapura Utara, Kota Jayapura, Papua 99112","Bayangkara, Kec. Jayapura Utara, Kota Jayapura",PAPUA,99112.0,Indonesia,,-2.5353252,140.7060198,https://maps.google.com/?cid=0x0:0x8cbe835113b8c269
supermarket,Pusat Perbelanjaan,Mega Abepura Department Store,"Jl. Raya Abepura - Sentani No.10, Kota Baru, Kec. Abepura, Kota Jayapura, Papua 99351","Kota Baru, Kec. Abepura, Kota Jayapura",PAPUA,99351.0,Indonesia,,-2.611092,140.6662139,https://maps.google.com/?cid=0x0:0x9667ed828f5238cc
supermarket,Pusat Perbelanjaan,GELAEL SUPERMARKET,"Jl. Halmahera No.1, Trikora, Kec. Jayapura Utara, Kota Jayapura, Papua 99111","Trikora, Kec. Jayapura Utara, Kota Jayapura",PAPUA,99111.0,Indonesia,967537260.0,-2.5409664,140.7049667,https://maps.google.com/?cid=0x0:0x5dac61c724bf3c86
supermarket,Pusat Perbelanjaan,Saga Jayapura,"Jl. Ahmad Yani, Gurabesi, Kec. Jayapura Utara, Kota Jayapura, Papua 99222","Gurabesi, Kec. Jayapura Utara, Kota Jayapura",PAPUA,99222.0,Indonesia,811480554.0,-2.5433433,140.7016688,https://maps.google.com/?cid=0x0:0x68f0411e320c4afb
supermarket,supermarket,Papua 99112,"Bayangkara, Kec. Jayapura Utara, Kota Jayapura, Papua","Kota Jayapura, Papua",PAPUA,,Indonesia,,-2.5099296,140.6741875,https://maps.google.com/?cid=0x0:0x1e30ed7c2a61f1f1
supermarket,Toko Swalayan,Yohan Departement Store,"Jl. Ahmad Yani No.38, Gurabesi, Kec. Jayapura Utara, Kota Jayapura, Papua 99221","Gurabesi, Kec. Jayapura Utara, Kota Jayapura",PAPUA,99221.0,Indonesia,967531497.0,-2.5433684,140.7015959,https://maps.google.com/?cid=0x0:0xf35ee7be8d7a021c
supermarket,Toko bahan makanan,Medan jaya toko besar,"Gurabesi, Kec. Jayapura Utara, Kota Jayapura, Papua 99221","Kec. Jayapura Utara, Kota Jayapura",PAPUA,99221.0,Indonesia,,-2.5427574,140.7010138,https://maps.google.com/?cid=0x0:0x82785d0b1bfdafde
supermarket,Toko bahan makanan,toko Sinar Timur,"Jl. Percetakan Negara No.51, Gurabesi, Kec. Jayapura Utara, Kota Jayapura, Papua 99222","Gurabesi, Kec. Jayapura Utara, Kota Jayapura",PAPUA,99222.0,Indonesia,,-2.5420052,140.7021448,https://maps.google.com/?cid=0x0:0x806dda89bddae720
supermarket,Toko bahan makanan,Toko Surya,"FP42+R96, Jl. Percetakan Negara, Gurabesi, Kec. Jayapura Utara, Kota Jayapura, Papua 99221","Jl. Percetakan Negara, Gurabesi, Kec. Jayapura Utara, Kota Jayapura",PAPUA,99221.0,Indonesia,,-2.5429687,140.7009055,https://maps.google.com/?cid=0x0:0x4d2d5e576ffc6ea8
supermarket,Toko Ponsel,Samsung Experience Store - Mall Jayapura,"APO, Mall Jayapura, Jl. Samratulangi, Bayangkara, Kec. Jayapura Utara, Kota Jayapura, Papua 99112","Mall Jayapura, Jl. Samratulangi, Bayangkara, Kec. Jayapura Utara, Kota Jayapura",PAPUA,99112.0,Indonesia,8114834032.0,-2.5351296,140.70617,https://maps.google.com/?cid=0x0:0x2a9502b51cdb044f
supermarket,Toko Swalayan,SAGA APO,"FP73+VX4, Bayangkara, Kec. Jayapura Utara, Kota Jayapura, Papua 99112","Bayangkara, Kec. Jayapura Utara, Kota Jayapura",PAPUA,99112.0,Indonesia,,-2.5353611,140.704964,https://maps.google.com/?cid=0x0:0xf75fefd27ae6b79d
supermarket,Toko Bahan Bangunan,Supermarket Multi Bangunan,"Jl Baru No.98, Wai Mhorock, Abepura, Jayapura City, Papua 99225","Wai Mhorock, Abepura, Jayapura City",PAPUA,99225.0,Indonesia,967588677.0,-2.6077336,140.6742812,https://maps.google.com/?cid=0x0:0x3b19f301c68f1d6f
supermarket,Pusat Perbelanjaan,Matahari Department Store - Mall Jayapura,"Jayapura Mall Lantai 1  2, Jl. Sam Ratulangi No. 45, Bhayangkara, Jayapura Utara, Bayangkara, Kec. Jayapura Utara, Kota Jayapura, Papua 99112","Jl. Sam Ratulangi No. 45, Bhayangkara, Jayapura Utara, Bayangkara, Kec. Jayapura Utara, Kota Jayapura",PAPUA,99112.0,Indonesia,9675150242.0,-2.5352864,140.7060379,https://maps.google.com/?cid=0x0:0x2f3594fedfb3ad93
supermarket,Toko bahan makanan,Aneka Toserba. CV,"Jl. Irian No.17, Gurabesi, Kec. Jayapura Utara, Kota Jayapura, Papua","Kota Jayapura, Papua",PAPUA,,Indonesia,8114700180.0,-2.541402,140.70485,https://maps.google.com/?cid=0x0:0x557e8c7219da0d89
supermarket,Toko Swalayan,KIOS RIFAN,"FPF7+VWQ, Trikora, Kec. Jayapura Utara, Kota Jayapura, Papua 99112","Trikora, Kec. Jayapura Utara, Kota Jayapura",PAPUA,99112.0,Indonesia,,-2.5252751,140.7148496,https://maps.google.com/?cid=0x0:0xea7c7dc7fecfdea9
supermarket,Grosir Barang Kelontong,Toko Sinar Matahari,"Jalan Halmahera. Ruko No. 5-6 (Belakang Toko Buku Gramedia, Gurabesi, Kec. Jayapura Utara, Kota Jayapura, Papua","Kota Jayapura, Papua",PAPUA,,Indonesia,967533720.0,-2.5406691,140.7055289,https://maps.google.com/?cid=0x0:0xdd3e07901260960f
supermarket,Pusat Perbelanjaan,GELAEL SUPERMARKET,"Jl. Halmahera No.1, Trikora, Kec. Jayapura Utara, Kota Jayapura, Papua 99111","Trikora, Kec. Jayapura Utara, Kota Jayapura",PAPUA,99111.0,Indonesia,967537260.0,-2.5409664,140.7049667,https://maps.google.com/?cid=0x0:0x5dac61c724bf3c86
supermarket,supermarket,Papua 99113,"Kec. Jayapura Utara, Kota Jayapura, Papua","Kota Jayapura, Papua",PAPUA,,Indonesia,,-2.4943571,140.6741875,https://maps.google.com/?cid=0x0:0x4a109ffe0e6c7e65
supermarket,Toko Swalayan,Aneka Market,"Jl. Ahmad Yani No.45, Gurabesi, Kec. Jayapura Utara, Kota Jayapura, Papua 99222","Gurabesi, Kec. Jayapura Utara, Kota Jayapura",PAPUA,99222.0,Indonesia,,-2.5436412,140.7017491,https://maps.google.com/?cid=0x0:0xf68d157c81ff3974
supermarket,Pusat Perbelanjaan,Mega Abepura Department Store,"Jl. Raya Abepura - Sentani No.10, Kota Baru, Kec. Abepura, Kota Jayapura, Papua 99351","Kota Baru, Kec. Abepura, Kota Jayapura",PAPUA,99351.0,Indonesia,,-2.611092,140.6662139,https://maps.google.com/?cid=0x0:0x9667ed828f5238cc
supermarket,Pusat Perbelanjaan,Robinson Supermarket Mall Ramayana,"9MWF+7G4, Jalan Raya, Wai Mhorock, Abepura, Jayapura City, Papua 99225","Jalan Raya, Wai Mhorock, Abepura, Jayapura City",PAPUA,99225.0,Indonesia,,-2.6043521,140.6738283,https://maps.google.com/?cid=0x0:0xefb232f46e94116e
supermarket,Kantor Perusahaan,SUMBER MAKMUR SUPERMARKET  STUDIO FOTO,"Jl. Dewi Sartika Jl. Raya Abepura No.6, Kota Baru, Kec. Abepura, Kota Jayapura, Papua 99351","Kota Baru, Kec. Abepura, Kota Jayapura",PAPUA,99351.0,Indonesia,811480911.0,-2.6125024,140.663996,https://maps.google.com/?cid=0x0:0x20edd034fc268980
supermarket,Pusat Perbelanjaan,Mega Super Market,"CJ3F+PVH, Jl. Raya Sentani - Waena, Kp. Waena, Kec. Heram, Kota Jayapura, Papua 99351","Jl. Raya Sentani - Waena, Kp. Waena, Kec. Heram, Kota Jayapura",PAPUA,99351.0,Indonesia,,-2.5956863,140.6247458,https://maps.google.com/?cid=0x0:0x396440a79ab53605
supermarket,Toko Bahan Bangunan,Indo Utama,"samping bank syariah indonesia, Jl. Klp. 2, Entrop, Distrik Jayapura Selatan, Kota Jayapura, Papua 99223","Jl. Klp. 2, Entrop, Distrik Jayapura Selatan, Kota Jayapura",PAPUA,99223.0,Indonesia,8124811011.0,-2.5684546,140.7018893,https://maps.google.com/?cid=0x0:0x9e5e00706a8412ea
supermarket,Toko Kue,Themi wayoi,"Tj. Ria, Kec. Jayapura Utara, Kota Jayapura, Papua 99117","Kec. Jayapura Utara, Kota Jayapura",PAPUA,99117.0,Indonesia,,-2.493242,140.6975389,https://maps.google.com/?cid=0x0:0xb43359d9bef48fad
supermarket,Toko Swalayan,Topaz Supermarket Waena,"CJ2P+HJ3, Kp. Waena, Kec. Heram, Kota Jayapura, Papua 99351","Kp. Waena, Kec. Heram, Kota Jayapura",PAPUA,99351.0,Indonesia,967571020.0,-2.5986201,140.6365328,https://maps.google.com/?cid=0x0:0xd60311bc15532587
supermarket,Toko bahan makanan,Toko ELIM,"Tj. Ria, Kec. Jayapura Utara, Kota Jayapura, Papua","Kota Jayapura, Papua",PAPUA,,Indonesia,85244429497.0,-2.5202865,140.7347742,https://maps.google.com/?cid=0x0:0x38a55bb9f507c585
supermarket,Toko bahan makanan,F Mart,"FP42+565, Jl. Setiapura II, Gurabesi, Kec. Jayapura Utara, Kota Jayapura, Papua 99221","Jl. Setiapura II, Gurabesi, Kec. Jayapura Utara, Kota Jayapura",PAPUA,99221.0,Indonesia,,-2.5446076,140.7006168,https://maps.google.com/?cid=0x0:0x5d32623f4147251d
supermarket,supermarket,Jaya Supermarket,"JL Percetakan No.54-58, Gurabesi, Jayapura, Kota Jayapura, Papua 99111","Gurabesi, Jayapura, Kota Jayapura",PAPUA,99111.0,Indonesia,967524119.0,-2.5425704,140.7016495,https://maps.google.com/?cid=0x0:0x67971384ea6e67a5
supermarket,Kantor Perusahaan,Pegadaian Bhayangkara,"Bayangkara, Kec. Jayapura Utara, Kota Jayapura, Papua 99112","Kec. Jayapura Utara, Kota Jayapura",PAPUA,99112.0,Indonesia,967550665.0,-2.5099296,140.6741875,https://maps.google.com/?cid=0x0:0x166528b4a174492a
supermarket,Pusat Perbelanjaan,GELAEL SUPERMARKET,"Jl. Halmahera No.1, Trikora, Kec. Jayapura Utara, Kota Jayapura, Papua 99111","Trikora, Kec. Jayapura Utara, Kota Jayapura",PAPUA,99111.0,Indonesia,967537260.0,-2.5409664,140.7049667,https://maps.google.com/?cid=0x0:0x5dac61c724bf3c86
supermarket,supermarket,Papua 99114,"Kec. Jayapura Utara, Kabupaten Jayawijaya, Papua","Kabupaten Jayawijaya, Papua",PAPUA,,Indonesia,,-2.5167961,140.7027292,https://maps.google.com/?cid=0x0:0xfbf882c9b5d1cad7
supermarket,Toko Swalayan,Aneka Market,"Jl. Ahmad Yani No.45, Gurabesi, Kec. Jayapura Utara, Kota Jayapura, Papua 99222","Gurabesi, Kec. Jayapura Utara, Kota Jayapura",PAPUA,99222.0,Indonesia,,-2.5436412,140.7017491,https://maps.google.com/?cid=0x0:0xf68d157c81ff3974
supermarket,Toko Swalayan,SAGA Fresh Dok V,"FP8F+CG5, Mandala, Kec. Jayapura Utara, Kota Jayapura, Papua","Kota Jayapura, Papua",PAPUA,,Indonesia,811481744.0,-2.5339841,140.7238702,https://maps.google.com/?cid=0x0:0x14ea247dbf0373ea
supermarket,Toko Bahan Bangunan,Supermarket Multi Bangunan,"Jl Baru No.98, Wai Mhorock, Abepura, Jayapura City, Papua 99225","Wai Mhorock, Abepura, Jayapura City",PAPUA,99225.0,Indonesia,967588677.0,-2.6077336,140.6742812,https://maps.google.com/?cid=0x0:0x3b19f301c68f1d6f
supermarket,Toko bahan makanan,Toko Angsa Indah,"FPP4+HWR, Jl. Sujarwo Condronegoro, Angkasapura, Kec. Jayapura Utara, Kota Jayapura, Papua 99116","Jl. Sujarwo Condronegoro, Angkasapura, Kec. Jayapura Utara, Kota Jayapura",PAPUA,99116.0,Indonesia,82197911173.0,-2.5135015,140.7072644,https://maps.google.com/?cid=0x0:0xcbe57eda064ddf8
supermarket,Minimarket,Kios Orange,"FPF9+8WH, Jl. Halmahera, Trikora, Kec. Jayapura Utara, Kota Jayapura, Papua","Kota Jayapura, Papua",PAPUA,,Indonesia,8114910801.0,-2.526689,140.719849,https://maps.google.com/?cid=0x0:0x98f7c7e9e6533604
supermarket,Toko Swalayan,KIOS RIFAN,"FPF7+VWQ, Trikora, Kec. Jayapura Utara, Kota Jayapura, Papua 99112","Trikora, Kec. Jayapura Utara, Kota Jayapura",PAPUA,99112.0,Indonesia,,-2.5252751,140.7148496,https://maps.google.com/?cid=0x0:0xea7c7dc7fecfdea9
supermarket,Kantor Perusahaan,Hypermart - Abepura,"Jl. Raya Abepura - Sentani No.81, Asano, Kec. Abepura, Kota Jayapura, Papua 99351","Asano, Kec. Abepura, Kota Jayapura",PAPUA,99351.0,Indonesia,8114467777.0,-2.6166812,140.6801223,https://maps.google.com/?cid=0x0:0x4a244a93dff8c00b
supermarket,Pusat Perbelanjaan,Mega Abepura Department Store,"Jl. Raya Abepura - Sentani No.10, Kota Baru, Kec. Abepura, Kota Jayapura, Papua 99351","Kota Baru, Kec. Abepura, Kota Jayapura",PAPUA,99351.0,Indonesia,,-2.611092,140.6662139,https://maps.google.com/?cid=0x0:0x9667ed828f5238cc
supermarket,Layanan E-Niaga,Kios Assyfa,"FPQ4+2J6, Jl. Sujarwo Condronegoro, Angkasapura, Kec. Jayapura Utara, Kota Jayapura, Papua 99116","Jl. Sujarwo Condronegoro, Angkasapura, Kec. Jayapura Utara, Kota Jayapura",PAPUA,99116.0,Indonesia,,-2.512457,140.706511,https://maps.google.com/?cid=0x0:0xad3f6d428a3d3f99
supermarket,Pusat Perbelanjaan,Robinson Supermarket Mall Ramayana,"9MWF+7G4, Jalan Raya, Wai Mhorock, Abepura, Jayapura City, Papua 99225","Jalan Raya, Wai Mhorock, Abepura, Jayapura City",PAPUA,99225.0,Indonesia,,-2.6043521,140.6738283,https://maps.google.com/?cid=0x0:0xefb232f46e94116e
supermarket,Toko bahan makanan,Toko Flobeka Raya,"FPQ4+HW9, Jl. Angkasa Raya, Angkasapura, Kec. Jayapura Utara, Kota Jayapura, Papua 99116","Jl. Angkasa Raya, Angkasapura, Kec. Jayapura Utara, Kota Jayapura",PAPUA,99116.0,Indonesia,82221491959.0,-2.511082,140.7073498,https://maps.google.com/?cid=0x0:0xc2f3deb0a2885c08
supermarket,Toko Sepatu,Gino Mariani Mall Jayapura,"APO, Jl. Samratulangi No.30 lantai 2 Unit, Bayangkara, Jayapura Utara, Jayapura City, Papua 99112","Jl. Samratulangi No.30 lantai 2 Unit, Bayangkara, Jayapura Utara, Jayapura City",PAPUA,99112.0,Indonesia,82298983055.0,-2.5293188,140.7165648,https://maps.google.com/?cid=0x0:0xc0fd27012d9a6c1d
supermarket,supermarket,Kec. Jayapura Utara,"Kota Jayapura, Papua","Kota Jayapura, Papua",PAPUA,,Indonesia,,-2.5312067,140.7199798,https://maps.google.com/?cid=0x0:0x13fe60c6bfbe82b0
supermarket,Pusat Perbelanjaan,GELAEL SUPERMARKET,"Jl. Halmahera No.1, Trikora, Kec. Jayapura Utara, Kota Jayapura, Papua 99111","Trikora, Kec. Jayapura Utara, Kota Jayapura",PAPUA,99111.0,Indonesia,967537260.0,-2.5409664,140.7049667,https://maps.google.com/?cid=0x0:0x5dac61c724bf3c86
supermarket,Toko Swalayan,Aneka Market,"Jl. Ahmad Yani No.45, Gurabesi, Kec. Jayapura Utara, Kota Jayapura, Papua 99222","Gurabesi, Kec. Jayapura Utara, Kota Jayapura",PAPUA,99222.0,Indonesia,,-2.5436412,140.7017491,https://maps.google.com/?cid=0x0:0xf68d157c81ff3974
supermarket,Toko Elektronik,Pstore Papua,"FP75+3MM, Jl. Pacific Permai, Bayangkara, Kec. Jayapura Utara, Kota Jayapura, Papua","Kota Jayapura, Papua",PAPUA,,Indonesia,82125466256.0,-2.5372015,140.7091975,https://maps.google.com/?cid=0x0:0xe32e9c991172e956
supermarket,Pusat Perbelanjaan,Mall Jayapura,"APO, Jl. Samratulangi, Bayangkara, Kec. Jayapura Utara, Kota Jayapura, Papua 99112","Jl. Samratulangi, Bayangkara, Kec. Jayapura Utara, Kota Jayapura",PAPUA,99112.0,Indonesia,9675150000.0,-2.5351775,140.7061874,https://maps.google.com/?cid=0x0:0x54294cb27964023
supermarket,Toko Ponsel,Samsung Experience Store - Mall Jayapura,"APO, Mall Jayapura, Jl. Samratulangi, Bayangkara, Kec. Jayapura Utara, Kota Jayapura, Papua 99112","Mall Jayapura, Jl. Samratulangi, Bayangkara, Kec. Jayapura Utara, Kota Jayapura",PAPUA,99112.0,Indonesia,8114834032.0,-2.5351296,140.70617,https://maps.google.com/?cid=0x0:0x2a9502b51cdb044f
supermarket,Restoran,Pit's Corner ( Papua Specialty Coffee ),"Jalan kasuari no.2 Dok V Atas, Mandala, Jayapura Utara, Jayapura City, Papua 99114","Mandala, Jayapura Utara, Jayapura City",PAPUA,99114.0,Indonesia,9675160443.0,-2.5310642,140.71875,https://maps.google.com/?cid=0x0:0xf39f3950a3bf5ed2
supermarket,Pusat Perbelanjaan,Mega Abepura Department Store,"Jl. Raya Abepura - Sentani No.10, Kota Baru, Kec. Abepura, Kota Jayapura, Papua 99351","Kota Baru, Kec. Abepura, Kota Jayapura",PAPUA,99351.0,Indonesia,,-2.611092,140.6662139,https://maps.google.com/?cid=0x0:0x9667ed828f5238cc
supermarket,Toko Buku,Gramedia Jayapura,"Jl. Dr. Sam Ratulangi No.5, Gurabesi, Kec. Jayapura Utara, Kota Jayapura, Papua 99111","Gurabesi, Kec. Jayapura Utara, Kota Jayapura",PAPUA,99111.0,Indonesia,81240712119.0,-2.5403869,140.7058158,https://maps.google.com/?cid=0x0:0x1a3c148eb82547aa
supermarket,Kantor Perusahaan,Pasar Pagi Paldam,"FP32+X48, Gurabesi, Kec. Jayapura Utara, Kota Jayapura, Papua 99221","Gurabesi, Kec. Jayapura Utara, Kota Jayapura",PAPUA,99221.0,Indonesia,,-2.5450906,140.7003295,https://maps.google.com/?cid=0x0:0xdeb49fa9e4aefd7f
supermarket,Pusat Perbelanjaan,Matahari Department Store - Mall Jayapura,"Jayapura Mall Lantai 1  2, Jl. Sam Ratulangi No. 45, Bhayangkara, Jayapura Utara, Bayangkara, Kec. Jayapura Utara, Kota Jayapura, Papua 99112","Jl. Sam Ratulangi No. 45, Bhayangkara, Jayapura Utara, Bayangkara, Kec. Jayapura Utara, Kota Jayapura",PAPUA,99112.0,Indonesia,9675150242.0,-2.5352864,140.7060379,https://maps.google.com/?cid=0x0:0x2f3594fedfb3ad93
supermarket,Pusat Perbelanjaan,Robinson Supermarket Mall Ramayana,"9MWF+7G4, Jalan Raya, Wai Mhorock, Abepura, Jayapura City, Papua 99225","Jalan Raya, Wai Mhorock, Abepura, Jayapura City",PAPUA,99225.0,Indonesia,,-2.6043521,140.6738283,https://maps.google.com/?cid=0x0:0xefb232f46e94116e
supermarket,Kedai Hidangan Penutup,Manokwari Bakery,"FP64+V88, Gurabesi, Kec. Jayapura Utara, Kota Jayapura, Papua","Kota Jayapura, Papua",PAPUA,,Indonesia,85240280170.0,-2.5378262,140.7058158,https://maps.google.com/?cid=0x0:0xcf23f59ef620eb79
supermarket,Kedai Kopi,Pace Tan pu Kopitiam,"Jalan Pasifik Permai Blok B no 15, Kompleks Ruko Dok II, Jl. Pacific Permai No.16, Bayangkara, Kec. Jayapura Utara, Kota Jayapura, Papua 99111","Kompleks Ruko Dok II, Jl. Pacific Permai No.16, Bayangkara, Kec. Jayapura Utara, Kota Jayapura",PAPUA,99111.0,Indonesia,81376566794.0,-2.5373342,140.7092965,https://maps.google.com/?cid=0x0:0x1f1a43593e97ad0c
supermarket,Pusat Perbelanjaan,GELAEL SUPERMARKET,"Jl. Halmahera No.1, Trikora, Kec. Jayapura Utara, Kota Jayapura, Papua 99111","Trikora, Kec. Jayapura Utara, Kota Jayapura",PAPUA,99111.0,Indonesia,967537260.0,-2.5409664,140.7049667,https://maps.google.com/?cid=0x0:0x5dac61c724bf3c86
supermarket,supermarket,Papua 99116,"Angkasapura, Kec. Jayapura Utara, Kota Jayapura, Papua","Kota Jayapura, Papua",PAPUA,,Indonesia,,-2.5091904,140.70792,https://maps.google.com/?cid=0x0:0x234bf316c4205d54
supermarket,Toko Swalayan,Aneka Market,"Jl. Ahmad Yani No.45, Gurabesi, Kec. Jayapura Utara, Kota Jayapura, Papua 99222","Gurabesi, Kec. Jayapura Utara, Kota Jayapura",PAPUA,99222.0,Indonesia,,-2.5436412,140.7017491,https://maps.google.com/?cid=0x0:0xf68d157c81ff3974
supermarket,Pusat Perbelanjaan,Mall Jayapura,"APO, Jl. Samratulangi, Bayangkara, Kec. Jayapura Utara, Kota Jayapura, Papua 99112","Jl. Samratulangi, Bayangkara, Kec. Jayapura Utara, Kota Jayapura",PAPUA,99112.0,Indonesia,9675150000.0,-2.5351775,140.7061874,https://maps.google.com/?cid=0x0:0x54294cb27964023
supermarket,Toko Rokok Elektrik,Vapepacedok8,"Jl. Sungai Tami No.22, Dok 8 Atas, Imbi, Kec. Jayapura Utara, Kota Jayapura, Papua 99116","Dok 8 Atas, Imbi, Kec. Jayapura Utara, Kota Jayapura",PAPUA,99116.0,Indonesia,81344678852.0,-2.5240248,140.7227079,https://maps.google.com/?cid=0x0:0xb5f4962705bb0657
supermarket,Pusat Perbelanjaan,Matahari Department Store - Mall Jayapura,"Jayapura Mall Lantai 1  2, Jl. Sam Ratulangi No. 45, Bhayangkara, Jayapura Utara, Bayangkara, Kec. Jayapura Utara, Kota Jayapura, Papua 99112","Jl. Sam Ratulangi No. 45, Bhayangkara, Jayapura Utara, Bayangkara, Kec. Jayapura Utara, Kota Jayapura",PAPUA,99112.0,Indonesia,9675150242.0,-2.5352864,140.7060379,https://maps.google.com/?cid=0x0:0x2f3594fedfb3ad93
supermarket,Toko Elektronik,Pstore Papua,"FP75+3MM, Jl. Pacific Permai, Bayangkara, Kec. Jayapura Utara, Kota Jayapura, Papua","Kota Jayapura, Papua",PAPUA,,Indonesia,82125466256.0,-2.5372015,140.7091975,https://maps.google.com/?cid=0x0:0xe32e9c991172e956
supermarket,Pusat Perbelanjaan,Robinson Supermarket Mall Ramayana,"9MWF+7G4, Jalan Raya, Wai Mhorock, Abepura, Jayapura City, Papua 99225","Jalan Raya, Wai Mhorock, Abepura, Jayapura City",PAPUA,99225.0,Indonesia,,-2.6043521,140.6738283,https://maps.google.com/?cid=0x0:0xefb232f46e94116e
supermarket,Pusat Perbelanjaan,Mega Abepura Department Store,"Jl. Raya Abepura - Sentani No.10, Kota Baru, Kec. Abepura, Kota Jayapura, Papua 99351","Kota Baru, Kec. Abepura, Kota Jayapura",PAPUA,99351.0,Indonesia,,-2.611092,140.6662139,https://maps.google.com/?cid=0x0:0x9667ed828f5238cc
supermarket,supermarket,Kec. Jayapura Utara,"Kota Jayapura, Papua","Kota Jayapura, Papua",PAPUA,,Indonesia,,-2.5312067,140.7199798,https://maps.google.com/?cid=0x0:0x13fe60c6bfbe82b0
supermarket,Toko Sepatu,Gino Mariani Mall Jayapura,"APO, Jl. Samratulangi No.30 lantai 2 Unit, Bayangkara, Jayapura Utara, Jayapura City, Papua 99112","Jl. Samratulangi No.30 lantai 2 Unit, Bayangkara, Jayapura Utara, Jayapura City",PAPUA,99112.0,Indonesia,82298983055.0,-2.5293188,140.7165648,https://maps.google.com/?cid=0x0:0xc0fd27012d9a6c1d
supermarket,Toko Ponsel,Samsung Experience Store - Mall Jayapura,"APO, Mall Jayapura, Jl. Samratulangi, Bayangkara, Kec. Jayapura Utara, Kota Jayapura, Papua 99112","Mall Jayapura, Jl. Samratulangi, Bayangkara, Kec. Jayapura Utara, Kota Jayapura",PAPUA,99112.0,Indonesia,8114834032.0,-2.5351296,140.70617,https://maps.google.com/?cid=0x0:0x2a9502b51cdb044f
supermarket,Restoran,Pit's Corner ( Papua Specialty Coffee ),"Jalan kasuari no.2 Dok V Atas, Mandala, Jayapura Utara, Jayapura City, Papua 99114","Mandala, Jayapura Utara, Jayapura City",PAPUA,99114.0,Indonesia,9675160443.0,-2.5310642,140.71875,https://maps.google.com/?cid=0x0:0xf39f3950a3bf5ed2
supermarket,Toko Buku,Gramedia Jayapura,"Jl. Dr. Sam Ratulangi No.5, Gurabesi, Kec. Jayapura Utara, Kota Jayapura, Papua 99111","Gurabesi, Kec. Jayapura Utara, Kota Jayapura",PAPUA,99111.0,Indonesia,81240712119.0,-2.5403869,140.7058158,https://maps.google.com/?cid=0x0:0x1a3c148eb82547aa
supermarket,Toko bahan makanan,Toko Sinar Pagi,"FPHM+F54 depan kantor pp, jln, Tj. Ria, Kec. Jayapura Utara, Kota Jayapura, Papua 99117","jln, Tj. Ria, Kec. Jayapura Utara, Kota Jayapura",PAPUA,99117.0,Indonesia,,-2.5213506,140.7329487,https://maps.google.com/?cid=0x0:0xfb25a5290a53c1ef
supermarket,supermarket,Papua 99117,"Tj. Ria, Kec. Jayapura Utara, Kota Jayapura, Papua","Kota Jayapura, Papua",PAPUA,,Indonesia,,-2.493242,140.6975389,https://maps.google.com/?cid=0x0:0xf4a40bbba525574f
supermarket,Kios,Hiyakhe Supermarket,"Jl. Sulawesi No.38, Imbi, Kec. Jayapura Utara, Kota Jayapura, Papua 99117","Imbi, Kec. Jayapura Utara, Kota Jayapura",PAPUA,99117.0,Indonesia,,-2.5216911,140.7253428,https://maps.google.com/?cid=0x0:0xf3149bb5a68a1c34
supermarket,Toko bahan makanan,Tifa Mart Enny Lombe,"FPHM+36X, Jl. Tj. Ria, Tj. Ria, Kec. Jayapura Utara, Kota Jayapura, Papua 99117","Jl. Tj. Ria, Tj. Ria, Kec. Jayapura Utara, Kota Jayapura",PAPUA,99117.0,Indonesia,,-2.5222605,140.7331105,https://maps.google.com/?cid=0x0:0x201479f27a98a166
supermarket,Toko Swalayan,SAGA Fresh Dok V,"FP8F+CG5, Mandala, Kec. Jayapura Utara, Kota Jayapura, Papua","Kota Jayapura, Papua",PAPUA,,Indonesia,811481744.0,-2.5339841,140.7238702,https://maps.google.com/?cid=0x0:0x14ea247dbf0373ea
supermarket,Pusat Perbelanjaan,Saga Jayapura,"Jl. Ahmad Yani, Gurabesi, Kec. Jayapura Utara, Kota Jayapura, Papua 99222","Gurabesi, Kec. Jayapura Utara, Kota Jayapura",PAPUA,99222.0,Indonesia,811480554.0,-2.5433433,140.7016688,https://maps.google.com/?cid=0x0:0x68f0411e320c4afb
supermarket,Toko Swalayan,Saga Supermarket,"CPW3+83X, Ardipura, Distrik Jayapura Selatan, Kota Jayapura, Papua 99222","Ardipura, Distrik Jayapura Selatan, Kota Jayapura",PAPUA,99222.0,Indonesia,,-2.5541438,140.7027385,https://maps.google.com/?cid=0x0:0x287c7b2014785d97
supermarket,Layanan Pengiriman Barang Kelontong,toko polirindo I,"Jl. Tj. Ria No.9, Tj. Ria, Kec. Jayapura Utara, Kota Jayapura, Papua 99117","Tj. Ria, Kec. Jayapura Utara, Kota Jayapura",PAPUA,99117.0,Indonesia,,-2.5193475,140.7323781,https://maps.google.com/?cid=0x0:0x238596bb90a1709
supermarket,Toko Swalayan,Aneka Market,"Jl. Ahmad Yani No.45, Gurabesi, Kec. Jayapura Utara, Kota Jayapura, Papua 99222","Gurabesi, Kec. Jayapura Utara, Kota Jayapura",PAPUA,99222.0,Indonesia,,-2.5436412,140.7017491,https://maps.google.com/?cid=0x0:0xf68d157c81ff3974
supermarket,Toko Swalayan,SAGA FRESH DOK 9,"FPJJ+RHX, Jl. Tj. Ria, Tj. Ria, Kec. Jayapura Utara, Kota Jayapura, Papua 99117","Jl. Tj. Ria, Tj. Ria, Kec. Jayapura Utara, Kota Jayapura",PAPUA,99117.0,Indonesia,82397936417.0,-2.5178929,140.7314938,https://maps.google.com/?cid=0x0:0x88fa65475c04d510
supermarket,Pusat Perbelanjaan,GELAEL SUPERMARKET,"Jl. Halmahera No.1, Trikora, Kec. Jayapura Utara, Kota Jayapura, Papua 99111","Trikora, Kec. Jayapura Utara, Kota Jayapura",PAPUA,99111.0,Indonesia,967537260.0,-2.5409664,140.7049667,https://maps.google.com/?cid=0x0:0x5dac61c724bf3c86
supermarket,Toko bahan makanan,Aldillakireyyy,"kompleks BLK, Jl. Pasifik Indah I, pasir dua, Kec. Jayapura Utara, Kota Jayapura, Papua 99117","Jl. Pasifik Indah I, pasir dua, Kec. Jayapura Utara, Kota Jayapura",PAPUA,99117.0,Indonesia,82399722620.0,-2.5083895,140.7266706,https://maps.google.com/?cid=0x0:0x49ef1af6c2b44de9
supermarket,Toko bahan makanan,KIOS TUJUH,"FPQJ+5H2, Tj. Ria, Kec. Jayapura Utara, Kota Jayapura, Papua 99117","Tj. Ria, Kec. Jayapura Utara, Kota Jayapura",PAPUA,99117.0,Indonesia,8124804907.0,-2.5121006,140.731395,https://maps.google.com/?cid=0x0:0x126ff25e9f73e38
supermarket,Toko Swalayan,Yohan Departement Store,"Jl. Ahmad Yani No.38, Gurabesi, Kec. Jayapura Utara, Kota Jayapura, Papua 99221","Gurabesi, Kec. Jayapura Utara, Kota Jayapura",PAPUA,99221.0,Indonesia,967531497.0,-2.5433684,140.7015959,https://maps.google.com/?cid=0x0:0xf35ee7be8d7a021c
supermarket,Toko Bahan Bangunan,Supermarket Multi Bangunan,"Jl Baru No.98, Wai Mhorock, Abepura, Jayapura City, Papua 99225","Wai Mhorock, Abepura, Jayapura City",PAPUA,99225.0,Indonesia,967588677.0,-2.6077336,140.6742812,https://maps.google.com/?cid=0x0:0x3b19f301c68f1d6f
supermarket,supermarket,Papua 99221,"Kota Jayapura, Papua","Kota Jayapura, Papua",PAPUA,,Indonesia,,-2.5407181,140.6638119,https://maps.google.com/?cid=0x0:0x22734bd942608dca
supermarket,Kantor Perusahaan,Hypermart - Abepura,"Jl. Raya Abepura - Sentani No.81, Asano, Kec. Abepura, Kota Jayapura, Papua 99351","Asano, Kec. Abepura, Kota Jayapura",PAPUA,99351.0,Indonesia,8114467777.0,-2.6166812,140.6801223,https://maps.google.com/?cid=0x0:0x4a244a93dff8c00b
supermarket,Toko Swalayan,Saga Supermarket,"CPW3+83X, Ardipura, Distrik Jayapura Selatan, Kota Jayapura, Papua 99222","Ardipura, Distrik Jayapura Selatan, Kota Jayapura",PAPUA,99222.0,Indonesia,,-2.5541438,140.7027385,https://maps.google.com/?cid=0x0:0x287c7b2014785d97
supermarket,Pusat Perbelanjaan,Mega Abepura Department Store,"Jl. Raya Abepura - Sentani No.10, Kota Baru, Kec. Abepura, Kota Jayapura, Papua 99351","Kota Baru, Kec. Abepura, Kota Jayapura",PAPUA,99351.0,Indonesia,,-2.611092,140.6662139,https://maps.google.com/?cid=0x0:0x9667ed828f5238cc
supermarket,Pasar Grosir Pakaian,Ramayana Abepura,"Jl. Raya Abepura, Kel. Vin, Kec. Jayapura Selatan, Wai Mhorock, Kec. Abepura, Kota Jayapura, Papua 99351","Kel. Vin, Kec. Jayapura Selatan, Wai Mhorock, Kec. Abepura, Kota Jayapura",PAPUA,99351.0,Indonesia,967584745.0,-2.604339,140.6736756,https://maps.google.com/?cid=0x0:0x103c0acf73345917
supermarket,Pusat Perbelanjaan,Saga Jayapura,"Jl. Ahmad Yani, Gurabesi, Kec. Jayapura Utara, Kota Jayapura, Papua 99222","Gurabesi, Kec. Jayapura Utara, Kota Jayapura",PAPUA,99222.0,Indonesia,811480554.0,-2.5433433,140.7016688,https://maps.google.com/?cid=0x0:0x68f0411e320c4afb
supermarket,Pusat Perbelanjaan,Saga Mart,"9MVG+F44, Jl. Baru Ps. Lama Abepura, Wai Mhorock, Kec. Abepura, Kota Jayapura, Papua 99225","Jl. Baru Ps. Lama Abepura, Wai Mhorock, Kec. Abepura, Kota Jayapura",PAPUA,99225.0,Indonesia,,-2.6063557,140.6753333,https://maps.google.com/?cid=0x0:0x87e41d7df0d8cbcc
supermarket,Pusat Perbelanjaan,GELAEL SUPERMARKET,"Jl. Halmahera No.1, Trikora, Kec. Jayapura Utara, Kota Jayapura, Papua 99111","Trikora, Kec. Jayapura Utara, Kota Jayapura",PAPUA,99111.0,Indonesia,967537260.0,-2.5409664,140.7049667,https://maps.google.com/?cid=0x0:0x5dac61c724bf3c86
supermarket,Pusat Perbelanjaan,SAGA MALL,"Kota Baru, Kec. Abepura, Kota Jayapura, Papua 99351","Kec. Abepura, Kota Jayapura",PAPUA,99351.0,Indonesia,,-2.6105845,140.6654189,https://maps.google.com/?cid=0x0:0xaf65e43ff84ff9e6
supermarket,Toko bahan makanan,Medan jaya toko besar,"Gurabesi, Kec. Jayapura Utara, Kota Jayapura, Papua 99221","Kec. Jayapura Utara, Kota Jayapura",PAPUA,99221.0,Indonesia,,-2.5427574,140.7010138,https://maps.google.com/?cid=0x0:0x82785d0b1bfdafde
supermarket,Pusat Perbelanjaan,Toko Jempol Mas,"Jl. Kali Acai, RT.002/RW.003, Yobe, Kec. Abepura, Kota Jayapura, Papua 99225","RT.002/RW.003, Yobe, Kec. Abepura, Kota Jayapura",PAPUA,99225.0,Indonesia,82140334541.0,-2.6109358,140.671196,https://maps.google.com/?cid=0x0:0x4f54539f3db40e3a
supermarket,Toko Swalayan,SAGA Fresh Dok V,"FP8F+CG5, Mandala, Kec. Jayapura Utara, Kota Jayapura, Papua","Kota Jayapura, Papua",PAPUA,,Indonesia,811481744.0,-2.5339841,140.7238702,https://maps.google.com/?cid=0x0:0x14ea247dbf0373ea
supermarket,Kios,Toko Sumber Hidup,"Jl. Percetakan Negara No.86, Gurabesi, Kec. Jayapura Utara, Kota Jayapura, Papua 99221","Gurabesi, Kec. Jayapura Utara, Kota Jayapura",PAPUA,99221.0,Indonesia,967535986.0,-2.5419153,140.7024233,https://maps.google.com/?cid=0x0:0x2d30c3a0c68e75f6
supermarket,supermarket,Kec. Abepura,"Kota Jayapura, Papua","Kota Jayapura, Papua",PAPUA,,Indonesia,,-2.6813971,140.7662871,https://maps.google.com/?cid=0x0:0x75b53491c4439b2f
supermarket,Kantor Perusahaan,Hypermart - Abepura,"Jl. Raya Abepura - Sentani No.81, Asano, Kec. Abepura, Kota Jayapura, Papua 99351","Asano, Kec. Abepura, Kota Jayapura",PAPUA,99351.0,Indonesia,8114467777.0,-2.6166812,140.6801223,https://maps.google.com/?cid=0x0:0x4a244a93dff8c00b
supermarket,Pusat Perbelanjaan,Mega Abepura Department Store,"Jl. Raya Abepura - Sentani No.10, Kota Baru, Kec. Abepura, Kota Jayapura, Papua 99351","Kota Baru, Kec. Abepura, Kota Jayapura",PAPUA,99351.0,Indonesia,,-2.611092,140.6662139,https://maps.google.com/?cid=0x0:0x9667ed828f5238cc
supermarket,Toko Bahan Bangunan,Supermarket Multi Bangunan,"Jl Baru No.98, Wai Mhorock, Abepura, Jayapura City, Papua 99225","Wai Mhorock, Abepura, Jayapura City",PAPUA,99225.0,Indonesia,967588677.0,-2.6077336,140.6742812,https://maps.google.com/?cid=0x0:0x3b19f301c68f1d6f
supermarket,Pusat Perbelanjaan,SAGA MALL,"Kota Baru, Kec. Abepura, Kota Jayapura, Papua 99351","Kec. Abepura, Kota Jayapura",PAPUA,99351.0,Indonesia,,-2.6105845,140.6654189,https://maps.google.com/?cid=0x0:0xaf65e43ff84ff9e6
supermarket,Pusat Perbelanjaan,Saga Mart,"9MVG+F44, Jl. Baru Ps. Lama Abepura, Wai Mhorock, Kec. Abepura, Kota Jayapura, Papua 99225","Jl. Baru Ps. Lama Abepura, Wai Mhorock, Kec. Abepura, Kota Jayapura",PAPUA,99225.0,Indonesia,,-2.6063557,140.6753333,https://maps.google.com/?cid=0x0:0x87e41d7df0d8cbcc
supermarket,Kantor Perusahaan,SUMBER MAKMUR SUPERMARKET  STUDIO FOTO,"Jl. Dewi Sartika Jl. Raya Abepura No.6, Kota Baru, Kec. Abepura, Kota Jayapura, Papua 99351","Kota Baru, Kec. Abepura, Kota Jayapura",PAPUA,99351.0,Indonesia,811480911.0,-2.6125024,140.663996,https://maps.google.com/?cid=0x0:0x20edd034fc268980
supermarket,Distributor Kertas,Toko Niaga,"Jl. Raya Abepura, Kota Baru, Kec. Abepura, Kota Jayapura, Papua 99351","Kota Baru, Kec. Abepura, Kota Jayapura",PAPUA,99351.0,Indonesia,967584468.0,-2.6095954,140.6669508,https://maps.google.com/?cid=0x0:0x1d5c4f3a8e9a8f7c
supermarket,Toko Swalayan,Saga Supermarket,"CPW3+83X, Ardipura, Distrik Jayapura Selatan, Kota Jayapura, Papua 99222","Ardipura, Distrik Jayapura Selatan, Kota Jayapura",PAPUA,99222.0,Indonesia,,-2.5541438,140.7027385,https://maps.google.com/?cid=0x0:0x287c7b2014785d97
supermarket,Toko Pakaian,Toko Ifan Sport Abepura,"Jl. Gerilyawan, Kota Baru, Kec. Abepura, Kota Jayapura, Papua 99351","Kota Baru, Kec. Abepura, Kota Jayapura",PAPUA,99351.0,Indonesia,81247718090.0,-2.6133764,140.6652848,https://maps.google.com/?cid=0x0:0x57d729d84adb9183
supermarket,Pusat Perbelanjaan,SAGA YOUTEFA,"9MVG+F3W, Jl. Garuda, Wai Mhorock, Kec. Abepura, Kota Jayapura, Papua 99225","Jl. Garuda, Wai Mhorock, Kec. Abepura, Kota Jayapura",PAPUA,99225.0,Indonesia,,-2.6062656,140.6752002,https://maps.google.com/?cid=0x0:0x3d7019ea8a81a006
supermarket,Toko Swalayan,SAGA Fresh Dok V,"FP8F+CG5, Mandala, Kec. Jayapura Utara, Kota Jayapura, Papua","Kota Jayapura, Papua",PAPUA,,Indonesia,811481744.0,-2.5339841,140.7238702,https://maps.google.com/?cid=0x0:0x14ea247dbf0373ea
supermarket,Pusat Perbelanjaan,Saga Jayapura,"Jl. Ahmad Yani, Gurabesi, Kec. Jayapura Utara, Kota Jayapura, Papua 99222","Gurabesi, Kec. Jayapura Utara, Kota Jayapura",PAPUA,99222.0,Indonesia,811480554.0,-2.5433433,140.7016688,https://maps.google.com/?cid=0x0:0x68f0411e320c4afb
supermarket,Toko Fotokopi,Toko Adi Pratama,"9MQ7+FVP, Kota Baru, Kec. Abepura, Kota Jayapura, Papua 99351","Kota Baru, Kec. Abepura, Kota Jayapura",PAPUA,99351.0,Indonesia,967581271.0,-2.6112798,140.6647151,https://maps.google.com/?cid=0x0:0x69ea5411aaa15dd2
supermarket,Kantor Perusahaan,Hypermart - Abepura,"Jl. Raya Abepura - Sentani No.81, Asano, Kec. Abepura, Kota Jayapura, Papua 99351","Asano, Kec. Abepura, Kota Jayapura",PAPUA,99351.0,Indonesia,8114467777.0,-2.6166812,140.6801223,https://maps.google.com/?cid=0x0:0x4a244a93dff8c00b
supermarket,Toko Swalayan,Topaz Supermarket Waena,"CJ2P+HJ3, Kp. Waena, Kec. Heram, Kota Jayapura, Papua 99351","Kp. Waena, Kec. Heram, Kota Jayapura",PAPUA,99351.0,Indonesia,967571020.0,-2.5986201,140.6365328,https://maps.google.com/?cid=0x0:0xd60311bc15532587
supermarket,supermarket,Papua 99351,"Kota Jayapura, Papua","Kota Jayapura, Papua",PAPUA,,Indonesia,,-2.685882,140.8872648,https://maps.google.com/?cid=0x0:0x540583c400ca05b3
supermarket,Minimarket,WJ Mart 2,"Koya Bar., Kec. Muara Tami, Kota Jayapura, Papua 99351","Kec. Muara Tami, Kota Jayapura",PAPUA,99351.0,Indonesia,,-2.6789873,140.8033481,https://maps.google.com/?cid=0x0:0xf27c0d2d1b470f4f
supermarket,Toko Bahan Bangunan,Supermarket Multi Bangunan,"Jl Baru No.98, Wai Mhorock, Abepura, Jayapura City, Papua 99225","Wai Mhorock, Abepura, Jayapura City",PAPUA,99225.0,Indonesia,967588677.0,-2.6077336,140.6742812,https://maps.google.com/?cid=0x0:0x3b19f301c68f1d6f
supermarket,Minimarket,TOKO DARUSSALAM MART,"8RP3+2W, Koya Bar., Kec. Muara Tami, Kota Jayapura, Papua 99351","Koya Bar., Kec. Muara Tami, Kota Jayapura",PAPUA,99351.0,Indonesia,,-2.6649495,140.8048681,https://maps.google.com/?cid=0x0:0x7acd10822dc9508c
supermarket,Toko bahan makanan,SRC Sirbeh,"9R44+7CR, Koya Tengah, Kec. Muara Tami, Kota Jayapura, Papua 99351","Koya Tengah, Kec. Muara Tami, Kota Jayapura",PAPUA,99351.0,Indonesia,,-2.6442644,140.8060277,https://maps.google.com/?cid=0x0:0xa618f1d2b93f82b
supermarket,Toko Swalayan,Toko Sandy Jaya,"8RFF+35W, jl.Bendungan Tami, Swakarsa, Koya Bar., Kec. Muara Tami, Kota Jayapura, Papua 99351","jl.Bendungan Tami, Swakarsa, Koya Bar., Kec. Muara Tami, Kota Jayapura",PAPUA,99351.0,Indonesia,,-2.6772717,140.8229652,https://maps.google.com/?cid=0x0:0x9aebab82234cf7d2
supermarket,Toko umum,TOS,"9R64+9PG, Koya Tengah, Kec. Muara Tami, Kota Jayapura, Papua 99351","Koya Tengah, Kec. Muara Tami, Kota Jayapura",PAPUA,99351.0,Indonesia,,-2.6390959,140.8067684,https://maps.google.com/?cid=0x0:0x6a5b120ba834f56d
supermarket,Pusat Perbelanjaan,SAGA Fresh Koya,"Jl. Paniai, Koya Bar., Kec. Muara Tami, Kota Jayapura, Papua 99351","Koya Bar., Kec. Muara Tami, Kota Jayapura",PAPUA,99351.0,Indonesia,,-2.6726507,140.8042086,https://maps.google.com/?cid=0x0:0x6975514825f5d4f1
supermarket,Toko Perlengkapan Rumah,Kios Sinar Muara Tami,"8RPX+HRC, Koya Tim., Kec. Muara Tami, Kota Jayapura, Papua 99351","Koya Tim., Kec. Muara Tami, Kota Jayapura",PAPUA,99351.0,Indonesia,,-2.6635576,140.849514,https://maps.google.com/?cid=0x0:0x64a4a8e6b2fcd869
supermarket,Toko bahan makanan,Toko Ayyash Utama Indo,"8VQ2+F4M, Unnamed Road, Koya Tim., Kec. Muara Tami, Kota Jayapura, Papua 99351","Unnamed Road, Koya Tim., Kec. Muara Tami, Kota Jayapura",PAPUA,99351.0,Indonesia,,-2.6612848,140.8503069,https://maps.google.com/?cid=0x0:0x6cb963c44887b97f
supermarket,Minimarket,Toko Wijaya Sakti,"Unnamed Road, West Koya, Muara Tami, Jayapura City, Papua 99351","West Koya, Muara Tami, Jayapura City",PAPUA,99351.0,Indonesia,82143809980.0,-2.6728792,140.8076185,https://maps.google.com/?cid=0x0:0x3dca7b5c870afeeb
supermarket,Pusat Perbelanjaan,Kios PUTRA,"Koya Bar., Kec. Muara Tami, Kota Jayapura, Papua 99351","Kec. Muara Tami, Kota Jayapura",PAPUA,99351.0,Indonesia,81247777607.0,-2.6751517,140.803082,https://maps.google.com/?cid=0x0:0xb3b91a64da92f496
supermarket,supermarket,Kec. Heram,"Kota Jayapura, Papua","Kota Jayapura, Papua",PAPUA,,Indonesia,,-2.5968715,140.6349408,https://maps.google.com/?cid=0x0:0xae4be183bc9835dc
supermarket,Toko Swalayan,Topaz Supermarket Waena,"CJ2P+HJ3, Kp. Waena, Kec. Heram, Kota Jayapura, Papua 99351","Kp. Waena, Kec. Heram, Kota Jayapura",PAPUA,99351.0,Indonesia,967571020.0,-2.5986201,140.6365328,https://maps.google.com/?cid=0x0:0xd60311bc15532587
supermarket,Toserba,Mega Waena Departement Store,"Jl. Raya Waena Sentani, Waena, Kec. Heram, Kota Jayapura, Papua 99351","Waena, Kec. Heram, Kota Jayapura",PAPUA,99351.0,Indonesia,,-2.5973349,140.6348789,https://maps.google.com/?cid=0x0:0xd96e42f2c11ca1e9
supermarket,Toko Bahan Bangunan,Supermarket Multi Bangunan,"Jl Baru No.98, Wai Mhorock, Abepura, Jayapura City, Papua 99225","Wai Mhorock, Abepura, Jayapura City",PAPUA,99225.0,Indonesia,967588677.0,-2.6077336,140.6742812,https://maps.google.com/?cid=0x0:0x3b19f301c68f1d6f
supermarket,Pusat Perbelanjaan,Mega Abepura Department Store,"Jl. Raya Abepura - Sentani No.10, Kota Baru, Kec. Abepura, Kota Jayapura, Papua 99351","Kota Baru, Kec. Abepura, Kota Jayapura",PAPUA,99351.0,Indonesia,,-2.611092,140.6662139,https://maps.google.com/?cid=0x0:0x9667ed828f5238cc
supermarket,Toko bahan makanan,Toko Harapan Jaya,"9MPG+24C, Unnamed Road, Awiyo, Kec. Abepura, Kota Jayapura, Papua 99351","Unnamed Road, Awiyo, Kec. Abepura, Kota Jayapura",PAPUA,99351.0,Indonesia,821922327.0,-2.6149271,140.6752706,https://maps.google.com/?cid=0x0:0xe76a523fd4695fa8
supermarket,Kantor Perusahaan,SUMBER MAKMUR SUPERMARKET  STUDIO FOTO,"Jl. Dewi Sartika Jl. Raya Abepura No.6, Kota Baru, Kec. Abepura, Kota Jayapura, Papua 99351","Kota Baru, Kec. Abepura, Kota Jayapura",PAPUA,99351.0,Indonesia,811480911.0,-2.6125024,140.663996,https://maps.google.com/?cid=0x0:0x20edd034fc268980
supermarket,Toko Swalayan,"Onyx swalayan , bike  accesorise. kotaraja","Jl. Raya Abepura, Kota Baru, Kec. Abepura, Kota Jayapura, Papua 99351","Kota Baru, Kec. Abepura, Kota Jayapura",PAPUA,99351.0,Indonesia,,-2.6103157,140.6668395,https://maps.google.com/?cid=0x0:0x1acb2ce7429625cf
supermarket,Pusat Perbelanjaan,Robinson Supermarket Mall Ramayana,"9MWF+7G4, Jalan Raya, Wai Mhorock, Abepura, Jayapura City, Papua 99225","Jalan Raya, Wai Mhorock, Abepura, Jayapura City",PAPUA,99225.0,Indonesia,,-2.6043521,140.6738283,https://maps.google.com/?cid=0x0:0xefb232f46e94116e
supermarket,Toko bahan makanan,Toko FIAN JAYA,"9JVX+56F, Hedam, Kec. Heram, Kota Jayapura, Papua 99351","Hedam, Kec. Heram, Kota Jayapura",PAPUA,99351.0,Indonesia,82347744071.0,-2.6070711,140.6480362,https://maps.google.com/?cid=0x0:0xf831c1eccaab4070
supermarket,Toko Kelontong Asia,77 Fashion,"CJ2P+HCC, Kp. Waena, Kec. Heram, Kota Jayapura, Papua 99351","Kp. Waena, Kec. Heram, Kota Jayapura",PAPUA,99351.0,Indonesia,,-2.5985605,140.6360038,https://maps.google.com/?cid=0x0:0x28f2430b58da1849
supermarket,Minimarket,Toko Cahaya Rezeki,"CJ5R+QF6, Jl. Teruna Bhakti, Yabansai, Kec. Heram, Kota Jayapura, Papua 99225","Jl. Teruna Bhakti, Yabansai, Kec. Heram, Kota Jayapura",PAPUA,99225.0,Indonesia,81344302140.0,-2.5905786,140.641127,https://maps.google.com/?cid=0x0:0x27acdb17b403cb5a
supermarket,Toko,toko Hidayah,"Jl. Baru Ps. Lama Abepura, Yobe, Kec. Abepura, Kota Jayapura, Papua 99351","Yobe, Kec. Abepura, Kota Jayapura",PAPUA,99351.0,Indonesia,85242303813.0,-2.6119808,140.6709471,https://maps.google.com/?cid=0x0:0x78d8aacc2cb60ddb
supermarket,Toko bahan makanan,Toko Lotus,"9MQC+C84, Yobe, Kec. Abepura, Kota Jayapura, Papua 99351","Yobe, Kec. Abepura, Kota Jayapura",PAPUA,99351.0,Indonesia,,-2.6114917,140.6708251,https://maps.google.com/?cid=0x0:0xd4bb3791afe707d3
