Category,Real Category,Business Name,Address,City,State,Postal Code,Country,Phone,Latitude,Longitude,Map Link
perumahan,perumahan,Papua 99221,"Kota Jayapura, Papua","Kota Jayapura, Papua",PAPUA,,Indonesia,,-2.5407181,140.6638119,https://maps.google.com/?cid=0x0:0x22734bd942608dca
perumahan,Pembangunan Perumahan,Posisi sekarang,"Jl. Koti No.49, Numbai, Distrik Jayapura Selatan, Kota Jayapura, Papua 99221","Numbai, Distrik Jayapura Selatan, Kota Jayapura",PAPUA,99221.0,Indonesia,81231994410.0,-2.5470725,140.7059913,https://maps.google.com/?cid=0x0:0xd6f6fddfec2fd559
perumahan,perumahan,rumah jupol,"CPR2+5JC, Ardipura, Distrik Jayapura Selatan, Kota Jayapura, Papua 99221","Ardipura, Distrik Jayapura Selatan, Kota Jayapura",PAPUA,99221.0,Indonesia,,-2.5595575,140.7015211,https://maps.google.com/?cid=0x0:0x8996873393821708
perumahan,Pembangunan Perumahan,Rumah Clara Rahawarin,"CMJV+96M, Entrop, Distrik Jayapura Selatan, Kota Jayapura, Papua 99221","Entrop, Distrik Jayapura Selatan, Kota Jayapura",PAPUA,99221.0,Indonesia,,-2.569144,140.6928,https://maps.google.com/?cid=0x0:0x289c480613594169
perumahan,Komplek perumahan,Perum Kel.Hukubun,"CMPW+VMG, RW.Bucend 2, Entrop, Distrik Jayapura Selatan, Kota Jayapura, Papua 99221","RW.Bucend 2, Entrop, Distrik Jayapura Selatan, Kota Jayapura",PAPUA,99221.0,Indonesia,,-2.5627375,140.6964844,https://maps.google.com/?cid=0x0:0x4c3e906ab275cfce
perumahan,Komplek perumahan,Mm zkwn,"CMCV+W5C, Entrop, Distrik Jayapura Selatan, Kota Jayapura, Papua 99221","Entrop, Distrik Jayapura Selatan, Kota Jayapura",PAPUA,99221.0,Indonesia,,-2.5776814,140.6928913,https://maps.google.com/?cid=0x0:0xa3dfe5eaeaccc4d6
perumahan,Kompleks Townhouse,Kompleks Perumahan Pemda 1 Entrop,"CMFP+8C8, Kopleks perumagan pemda, RW.1, Entrop, Distrik Jayapura Selatan, Kota Jayapura, Papua 99223","Kopleks perumagan pemda, RW.1, Entrop, Distrik Jayapura Selatan, Kota Jayapura",PAPUA,99223.0,Indonesia,81346298518.0,-2.5767046,140.6860672,https://maps.google.com/?cid=0x0:0x74dd044596934088
perumahan,Komplek perumahan,RUMAH KEL. GAELAGOY,"CMPX+8P7, Ardipura, Distrik Jayapura Selatan, Kota Jayapura, Papua 99221","Ardipura, Distrik Jayapura Selatan, Kota Jayapura",PAPUA,99221.0,Indonesia,82199451880.0,-2.563866,140.69925,https://maps.google.com/?cid=0x0:0xb79f5bc688b5c25
perumahan,Komplek perumahan,"Polimak 4 Jayapura selatan,kota Jayapura,","Jln Markisa, Ardipura IV, Polimak 4, Distrik Jayapura Selatan, Kota Jayapura, 99222","Ardipura IV, Polimak 4, Distrik Jayapura Selatan",PAPUA,99222.0,Indonesia,81240233741.0,-2.5547742,140.6956047,https://maps.google.com/?cid=0x0:0xcfd820651dc80b3f
perumahan,Pembangunan Perumahan,Pondok 9,"CMMW+GVX, Entrop, Distrik Jayapura Selatan, Kota Jayapura, Papua 99221","Entrop, Distrik Jayapura Selatan, Kota Jayapura",PAPUA,99221.0,Indonesia,,-2.5653084,140.6974775,https://maps.google.com/?cid=0x0:0x6d1f9fc7d8f9d5cb
perumahan,Komplek perumahan,Family Dawali Datu,"CPQ4+5V9, Hamadi, Distrik Jayapura Selatan, Kota Jayapura, Papua 99221","Hamadi, Distrik Jayapura Selatan, Kota Jayapura",PAPUA,99221.0,Indonesia,,-2.5620786,140.7070364,https://maps.google.com/?cid=0x0:0xfea83b44cf3105ad
perumahan,Komplek perumahan,Rumah mami Selfina,"FM3V+M49, Jl. Gurabesi, Gurabesi, Kec. Jayapura Utara, Kota Jayapura, Papua 99221","Jl. Gurabesi, Gurabesi, Kec. Jayapura Utara, Kota Jayapura",PAPUA,99221.0,Indonesia,,-2.5458114,140.6926916,https://maps.google.com/?cid=0x0:0xd0f45bd7f579c439
perumahan,Komplek perumahan,Kompleks KPR BTN TNI AL,"CMPP+67G, KPR BTN AL, Sel, Entrop, Distrik Jayapura Selatan, Kota Jayapura, Papua 99223","KPR BTN AL, Sel, Entrop, Distrik Jayapura Selatan, Kota Jayapura",PAPUA,99223.0,Indonesia,82199575346.0,-2.5644496,140.6856908,https://maps.google.com/?cid=0x0:0x628461162a008ce7
perumahan,Komplek perumahan,Rumdis george,"CMPX+JF5, Unnamed Road, Ardipura, Distrik Jayapura Selatan, Kota Jayapura, Papua 99221","Unnamed Road, Ardipura, Distrik Jayapura Selatan, Kota Jayapura",PAPUA,99221.0,Indonesia,,-2.5634813,140.6987205,https://maps.google.com/?cid=0x0:0x4810906f7e1808a3
perumahan,perumahan,Papua 99222,"Distrik Jayapura Selatan, Kota Jayapura, Papua","Kota Jayapura, Papua",PAPUA,,Indonesia,,-2.5518785,140.7027292,https://maps.google.com/?cid=0x0:0xaed95d497fc99440
perumahan,perumahan,Rumah Alfa Kaigere,"CPV3+8MC, Polimak 2 Gunung (Lapangan, Ardipura, Jayapura Selatan, Jayapura City, Papua 99222","Polimak 2 Gunung (Lapangan, Ardipura, Jayapura Selatan, Jayapura City",PAPUA,99222.0,Indonesia,,-2.5566981,140.7041403,https://maps.google.com/?cid=0x0:0xc8ea9159097ed4b6
perumahan,perumahan,Keluarga Iriwadan,"CPX4+H8W, Ardipura, Distrik Jayapura Selatan, Kota Jayapura, Papua 99222","Ardipura, Distrik Jayapura Selatan, Kota Jayapura",PAPUA,99222.0,Indonesia,,-2.550868,140.705793,https://maps.google.com/?cid=0x0:0x934704acec3dc806
perumahan,Pembangunan Perumahan,Posisi sekarang,"Jl. Koti No.49, Numbai, Distrik Jayapura Selatan, Kota Jayapura, Papua 99221","Numbai, Distrik Jayapura Selatan, Kota Jayapura",PAPUA,99221.0,Indonesia,81231994410.0,-2.5470725,140.7059913,https://maps.google.com/?cid=0x0:0xd6f6fddfec2fd559
perumahan,Komplek perumahan,"Polimak 4 Jayapura selatan,kota Jayapura,","Jln Markisa, Ardipura IV, Polimak 4, Distrik Jayapura Selatan, Kota Jayapura, 99222","Ardipura IV, Polimak 4, Distrik Jayapura Selatan",PAPUA,99222.0,Indonesia,81240233741.0,-2.5547742,140.6956047,https://maps.google.com/?cid=0x0:0xcfd820651dc80b3f
perumahan,Perhimpunan Pengembang Perumahan,House,"CMWX+GP3, Jl. Ardipura Raya, Ardipura, Distrik Jayapura Selatan, Kota Jayapura, Papua 99222","Jl. Ardipura Raya, Ardipura, Distrik Jayapura Selatan, Kota Jayapura",PAPUA,99222.0,Indonesia,,-2.5535731,140.6989036,https://maps.google.com/?cid=0x0:0x561701f82b0a1183
perumahan,Pembangunan Perumahan,Rumah L,"CPV4+3FW Polimak 2 asri, Jl. Santa Rosa, Ardipura, Distrik Jayapura Selatan, Kota Jayapura, Papua 99222","Jl. Santa Rosa, Ardipura, Distrik Jayapura Selatan, Kota Jayapura",PAPUA,99222.0,Indonesia,,-2.5572695,140.7061985,https://maps.google.com/?cid=0x0:0xfbe845a839dfeed
perumahan,Komplek perumahan,Rumah Keira Golam,"Jl. Batu Karang Polimak ll No.31, Ardipura, Distrik Jayapura Selatan, Kota Jayapura, Papua 99222","Ardipura, Distrik Jayapura Selatan, Kota Jayapura",PAPUA,99222.0,Indonesia,82211171318.0,-2.5559535,140.7057945,https://maps.google.com/?cid=0x0:0xf6b8e8ae478d20ed
perumahan,perumahan,perumahan perhubungan,"Jl. Batu Karang Polimak ll, Ardipura, Distrik Jayapura Selatan, Kota Jayapura, Papua 99222","Ardipura, Distrik Jayapura Selatan, Kota Jayapura",PAPUA,99222.0,Indonesia,,-2.554074,140.7052433,https://maps.google.com/?cid=0x0:0x9e70d77490e77d45
perumahan,Perhimpunan Pengembang Perumahan,Rumah pa dance,"CPV4+GP8, Ardipura, Distrik Jayapura Selatan, Kota Jayapura, Papua 99222","Ardipura, Distrik Jayapura Selatan, Kota Jayapura",PAPUA,99222.0,Indonesia,,-2.5564382,140.7065502,https://maps.google.com/?cid=0x0:0xb444ae1099cce17c
perumahan,Komplek perumahan,Rumah prilly,"JL. Amphibi No.50-52, Ardipura, Distrik Jayapura Selatan, Kota Jayapura, Papua 99222","Ardipura, Distrik Jayapura Selatan, Kota Jayapura",PAPUA,99222.0,Indonesia,,-2.5517563,140.7029185,https://maps.google.com/?cid=0x0:0x7a08d8e95426981e
perumahan,Komplek perumahan,Kos2an Pak Saiful,"CMWX+HRV, Ardipura, Distrik Jayapura Selatan, Kota Jayapura, Papua 99222","Ardipura, Distrik Jayapura Selatan, Kota Jayapura",PAPUA,99222.0,Indonesia,81248459522.0,-2.5535115,140.699546,https://maps.google.com/?cid=0x0:0x5533171a3f1a6d7e
perumahan,Komplek perumahan,Disini,"CPW4+94J, Ardipura, Distrik Jayapura Selatan, Kota Jayapura, Papua 99222","Ardipura, Distrik Jayapura Selatan, Kota Jayapura",PAPUA,99222.0,Indonesia,,-2.5539452,140.7053087,https://maps.google.com/?cid=0x0:0xd3ce385041952ab5
perumahan,Gedung Apartemen,Rumah,"Jln ardipura 2, gang mawar No.18, Ardipura, Distrik Jayapura Selatan, Kota Jayapura, Papua 99222","gang mawar No.18, Ardipura, Distrik Jayapura Selatan, Kota Jayapura",PAPUA,99222.0,Indonesia,,-2.557721,140.7031609,https://maps.google.com/?cid=0x0:0xc5bcf4d685ac1bb2
perumahan,perumahan,Papua 99223,"Entrop, Distrik Jayapura Selatan, Kota Jayapura, Papua","Kota Jayapura, Papua",PAPUA,,Indonesia,,-2.5603966,140.6689995,https://maps.google.com/?cid=0x0:0xba9a08c8ddb16a58
perumahan,Komplek perumahan,"Polimak 4 Jayapura selatan,kota Jayapura,","Jln Markisa, Ardipura IV, Polimak 4, Distrik Jayapura Selatan, Kota Jayapura, 99222","Ardipura IV, Polimak 4, Distrik Jayapura Selatan",PAPUA,99222.0,Indonesia,81240233741.0,-2.5547742,140.6956047,https://maps.google.com/?cid=0x0:0xcfd820651dc80b3f
perumahan,Perumahan,Perumahan JAYA ASRI,"CMJQ+GP9, jl.jaya asri, Entrop, Distrik Jayapura Selatan, Kota Jayapura, Papua 99223","jl.jaya asri, Entrop, Distrik Jayapura Selatan, Kota Jayapura",PAPUA,99223.0,Indonesia,,-2.568705,140.6893533,https://maps.google.com/?cid=0x0:0xc91771180b370ac6
perumahan,Otoritas Perumahan,Perumahan Graha Entrop Permai,"CMFQ+8H2, Jl. Raya Abepura, Entrop, Distrik Jayapura Selatan, Kota Jayapura, Papua 99223","Jl. Raya Abepura, Entrop, Distrik Jayapura Selatan, Kota Jayapura",PAPUA,99223.0,Indonesia,,-2.5767446,140.6888855,https://maps.google.com/?cid=0x0:0x3a64a72d705a926c
perumahan,Pembangunan Perumahan,Perumahan BTN - Komplek kolam buaya Entrop,"CMFM+XM2, Unnamed Road, Entrop, Distrik Jayapura Selatan, Kota Jayapura, Papua 99223","Unnamed Road, Entrop, Distrik Jayapura Selatan, Kota Jayapura",PAPUA,99223.0,Indonesia,,-2.5751094,140.684142,https://maps.google.com/?cid=0x0:0x22af683caed86647
perumahan,Perhimpunan Pengembang Perumahan,ENTROP,"Blk. AE No.50, Entrop, Distrik Jayapura Selatan, Kota Jayapura, Papua 99223","Entrop, Distrik Jayapura Selatan, Kota Jayapura",PAPUA,99223.0,Indonesia,,-2.5686572,140.6893071,https://maps.google.com/?cid=0x0:0x6b51637b49570674
perumahan,Komplek perumahan,Kompleks KPR BTN TNI AL,"CMPP+67G, KPR BTN AL, Sel, Entrop, Distrik Jayapura Selatan, Kota Jayapura, Papua 99223","KPR BTN AL, Sel, Entrop, Distrik Jayapura Selatan, Kota Jayapura",PAPUA,99223.0,Indonesia,82199575346.0,-2.5644496,140.6856908,https://maps.google.com/?cid=0x0:0x628461162a008ce7
perumahan,Perumahan,Perumahan Jayaasri blok AD.03,"CMMQ+66F, Entrop, Distrik Jayapura Selatan, Kota Jayapura, Papua 99223","Entrop, Distrik Jayapura Selatan, Kota Jayapura",PAPUA,99223.0,Indonesia,,-2.5669438,140.6880408,https://maps.google.com/?cid=0x0:0x3fbdd336ccb9a848
perumahan,Kompleks Townhouse,Kompleks Perumahan Pemda 1 Entrop,"CMFP+8C8, Kopleks perumagan pemda, RW.1, Entrop, Distrik Jayapura Selatan, Kota Jayapura, Papua 99223","Kopleks perumagan pemda, RW.1, Entrop, Distrik Jayapura Selatan, Kota Jayapura",PAPUA,99223.0,Indonesia,81346298518.0,-2.5767046,140.6860672,https://maps.google.com/?cid=0x0:0x74dd044596934088
perumahan,Komplek perumahan,Perumahan JAYA ASRI block ad no. 19,"Perumahan Jaya Asri, Blk. AD No.19, Entrop, Distrik Jayapura Selatan, Kota Jayapura, Papua 99223","Blk. AD No.19, Entrop, Distrik Jayapura Selatan, Kota Jayapura",PAPUA,99223.0,Indonesia,85243117989.0,-2.5681544,140.689139,https://maps.google.com/?cid=0x0:0x198dbe1de6a8d241
perumahan,Pembangunan Perumahan,Perumahan Puncak Skyline Residence,"CM8H+W66, Perum Puncak Skyline Residence, Jl. Megapura Skyline, Kampung Buton, Entrop, Distrik Jayapura Selatan, Kota Jayapura, Papua 99224","Perum Puncak Skyline Residence, Jl. Megapura Skyline, Kampung Buton, Entrop, Distrik Jayapura Selatan, Kota Jayapura",PAPUA,99224.0,Indonesia,,-2.5827155,140.6780033,https://maps.google.com/?cid=0x0:0xabfc7dfd0392504
perumahan,Komplek perumahan,Kompleks Perumahan Ondoafi Entrop (Kapal kandas),"CMGQ+QJQ, Jl. Raya Abepura, Entrop, Distrik Jayapura Selatan, Kota Jayapura, Papua 99223","Jl. Raya Abepura, Entrop, Distrik Jayapura Selatan, Kota Jayapura",PAPUA,99223.0,Indonesia,,-2.5730314,140.6890974,https://maps.google.com/?cid=0x0:0x91d39a51ec02c839
perumahan,perumahan,AF27 Gaming House,"Jaya Asri, Blk. AF No.27, Entrop, Jayapura Selatan, Jayapura City, Papua 99223","Blk. AF No.27, Entrop, Jayapura Selatan, Jayapura City",PAPUA,99223.0,Indonesia,,-2.568363,140.6886127,https://maps.google.com/?cid=0x0:0x72d62263616b410d
perumahan,Komplek perumahan,CA 29,"Blk. CA No.33, Entrop, Distrik Jayapura Selatan, Kota Jayapura, Papua 99223","Entrop, Distrik Jayapura Selatan, Kota Jayapura",PAPUA,99223.0,Indonesia,,-2.5689408,140.6878412,https://maps.google.com/?cid=0x0:0xe0ec1896247803d3
perumahan,Otoritas Perumahan,Jaya Asri Blok I,"CMHQ+WWX, Entrop, Distrik Jayapura Selatan, Kota Jayapura, Papua 99223","Entrop, Distrik Jayapura Selatan, Kota Jayapura",PAPUA,99223.0,Indonesia,,-2.5701409,140.6898679,https://maps.google.com/?cid=0x0:0xa067a4cf7eee80ab
perumahan,Perumahan,Perumahan JAYA ASRI,"CMJQ+GP9, jl.jaya asri, Entrop, Distrik Jayapura Selatan, Kota Jayapura, Papua 99223","jl.jaya asri, Entrop, Distrik Jayapura Selatan, Kota Jayapura",PAPUA,99223.0,Indonesia,,-2.568705,140.6893533,https://maps.google.com/?cid=0x0:0xc91771180b370ac6
perumahan,Toko Roti,Swiss Cake N Cookies,"CMJV+23R, Entrop, Distrik Jayapura Selatan, Kota Jayapura, Papua 99223","Entrop, Distrik Jayapura Selatan, Kota Jayapura",PAPUA,99223.0,Indonesia,,-2.569742,140.6925823,https://maps.google.com/?cid=0x0:0x52b1f4c9ce60c43e
perumahan,Pembangunan Perumahan,Perumahan megapura skyland,"rumah nomer 2 dari atas pagar hitam cat pink, Perumahan megapura skyland, Jalur 4","Kota Jayapura, Papua",PAPUA,,Indonesia,,-2.585228,140.6775022,https://maps.google.com/?cid=0x0:0x3969abf37518816
perumahan,Otoritas Perumahan,Perumahan Graha Entrop Permai,"CMFQ+8H2, Jl. Raya Abepura, Entrop, Distrik Jayapura Selatan, Kota Jayapura, Papua 99223","Jl. Raya Abepura, Entrop, Distrik Jayapura Selatan, Kota Jayapura",PAPUA,99223.0,Indonesia,,-2.5767446,140.6888855,https://maps.google.com/?cid=0x0:0x3a64a72d705a926c
perumahan,perumahan,Rumah Keluarga Haruway,"Jalur 6 No.261, Wahno, Kec. Abepura, Kota Jayapura, Papua 99224","Wahno, Kec. Abepura, Kota Jayapura",PAPUA,99224.0,Indonesia,,-2.5928194,140.6744613,https://maps.google.com/?cid=0x0:0xe17a8fd46b18ed21
perumahan,Pembangunan Perumahan,Skyline Jayapura Papua - Indonesia,"CM7H+W22, Jln.Raya Abepura,Megapura, Skyline, Entrop, Distrik Jayapura Selatan, Kota Jayapura, 99224","Jln.Raya Abepura,Megapura, Skyline, Entrop, Distrik Jayapura Selatan",PAPUA,99224.0,Indonesia,,-2.585228,140.6775022,https://maps.google.com/?cid=0x0:0x7d7f146c8515e3de
perumahan,Komplek perumahan,PERUMAHAN BMKG SKYLANDKEL.Y.O,"CM6M+8X, Entrop, Distrik Jayapura Selatan, Kota Jayapura, Papua 99224","Entrop, Distrik Jayapura Selatan, Kota Jayapura",PAPUA,99224.0,Indonesia,,-2.5891399,140.6849098,https://maps.google.com/?cid=0x0:0x74122df06757d711
perumahan,Komplek perumahan,Rumah Kos Lambale,"CM9G+6PV, Entrop, Distrik Jayapura Selatan, Kota Jayapura, Papua 99224","Entrop, Distrik Jayapura Selatan, Kota Jayapura",PAPUA,99224.0,Indonesia,,-2.5818902,140.6767847,https://maps.google.com/?cid=0x0:0x15ff1623f9c44d9d
perumahan,Perhimpunan Pengembang Perumahan,"Perumahan Permata Wahno Jl. Jeruk Nipis Furia, Kotaraja, Jayapura","CM4G+CGW, Jl. Jeruk Nipis, Wahno, Kec. Abepura, Kota Jayapura, Papua 99224","Jl. Jeruk Nipis, Wahno, Kec. Abepura, Kota Jayapura",PAPUA,99224.0,Indonesia,,-2.5938423,140.676359,https://maps.google.com/?cid=0x0:0xfb477083673ff6ee
perumahan,Komplek perumahan,Keluarga N.F Apaseray,"CM7P+R8W, Entrop, Distrik Jayapura Selatan, Kota Jayapura, Papua 99224","Entrop, Distrik Jayapura Selatan, Kota Jayapura",PAPUA,99224.0,Indonesia,,-2.584569,140.6854241,https://maps.google.com/?cid=0x0:0x60512c0a4b564449
perumahan,Komplek perumahan,Kios keluarga,"CM7J+PWG, Entrop, Distrik Jayapura Selatan, Kota Jayapura, Papua 99224","Entrop, Distrik Jayapura Selatan, Kota Jayapura",PAPUA,99224.0,Indonesia,,-2.5856299,140.6823053,https://maps.google.com/?cid=0x0:0xccb13634fac87119
perumahan,Komplek perumahan,Perumahan Buana Permai Furia,"CM4G+M8C, Wahno, Kec. Abepura, Kota Jayapura, Papua 99224","Wahno, Kec. Abepura, Kota Jayapura",PAPUA,99224.0,Indonesia,,-2.5933235,140.6757803,https://maps.google.com/?cid=0x0:0xf2864484398aa10d
perumahan,Komplek perumahan,Perumahan mobuay,"CM6M+6X5, Entrop, Distrik Jayapura Selatan, Kota Jayapura, Papua","Kota Jayapura, Papua",PAPUA,,Indonesia,,-2.5894761,140.6849745,https://maps.google.com/?cid=0x0:0xf5979ed1ccb95736
perumahan,perumahan,Papua 99225,"Kota Jayapura, Papua","Kota Jayapura, Papua",PAPUA,,Indonesia,,-2.5949282,140.653438,https://maps.google.com/?cid=0x0:0x21414c78014e775a
perumahan,Pembangunan Perumahan,rumah jayapura,"9MW3+4V3, Jl. Kalibobo, Hedam, Kec. Heram, Kota Jayapura, Papua 99351","Jl. Kalibobo, Hedam, Kec. Heram, Kota Jayapura",PAPUA,99351.0,Indonesia,,-2.6047349,140.654658,https://maps.google.com/?cid=0x0:0x2e2254cd5adba45
perumahan,Komplek perumahan,Perumahan Kehutanan Waena,"CJ3V+QHR, Unnamed Road, Yabansai, Kec. Heram, Kota Jayapura, Papua 99225","Unnamed Road, Yabansai, Kec. Heram, Kota Jayapura",PAPUA,99225.0,Indonesia,,-2.5955156,140.6438911,https://maps.google.com/?cid=0x0:0x4f2d39b7bb984b19
perumahan,Komplek perumahan,Perumahan Kehutanan Padang Bulan Sosial,"CJ3X+7M9, Hedam, Kec. Heram, Kota Jayapura, Papua 99225","Hedam, Kec. Heram, Kota Jayapura",PAPUA,99225.0,Indonesia,,-2.5968334,140.6492351,https://maps.google.com/?cid=0x0:0x19ddbe17e05c00f8
perumahan,Komplek perumahan,pbl,"9MW5+X2Q, Unnamed Road, Hedam, Kec. Heram, Kota Jayapura, Papua 99225","Unnamed Road, Hedam, Kec. Heram, Kota Jayapura",PAPUA,99225.0,Indonesia,,-2.6025312,140.6576133,https://maps.google.com/?cid=0x0:0xa235573979665bd5
perumahan,Komplek perumahan,Kel. E. Dimo,"Perumahan Kehutanan, Jl. Perumnas IV Padang Bulan Sosial No.9, Hedam, Kec. Heram, Kota Jayapura, Papua 99225","Jl. Perumnas IV Padang Bulan Sosial No.9, Hedam, Kec. Heram, Kota Jayapura",PAPUA,99225.0,Indonesia,,-2.5968289,140.6492401,https://maps.google.com/?cid=0x0:0xb20432d652209693
perumahan,Komplek perumahan,Keluarga Dasinapa,"Hedam, Kec. Heram, Kota Jayapura, Papua 99225","Kec. Heram, Kota Jayapura",PAPUA,99225.0,Indonesia,,-2.6023255,140.6583991,https://maps.google.com/?cid=0x0:0xe859808c89b02642
perumahan,Komplek perumahan,Alamat Rumah Tinggal,"Jl. Perumnas IV Padang Bulan No.86 Blok F, Hedam, Kec. Heram, Kota Jayapura, Papua 99225","Hedam, Kec. Heram, Kota Jayapura",PAPUA,99225.0,Indonesia,85222905707.0,-2.5968902,140.6504522,https://maps.google.com/?cid=0x0:0x37eb3c944a3bd193
perumahan,Perumahan,Polipaga 2,"CM34+X8, Hedam, Kec. Heram, Kota Jayapura, Papua 99225","Hedam, Kec. Heram, Kota Jayapura",PAPUA,99225.0,Indonesia,,-2.5951224,140.6557934,https://maps.google.com/?cid=0x0:0xc2489db8ec1a8144
perumahan,Komplek perumahan,Rumahnya SIL,"CM32+H4F, Jl. Perumnas IV Padang Bulan, Hedam, Kec. Heram, Kota Jayapura, Papua 99225","Jl. Perumnas IV Padang Bulan, Hedam, Kec. Heram, Kota Jayapura",PAPUA,99225.0,Indonesia,,-2.5960726,140.6503123,https://maps.google.com/?cid=0x0:0xd2cc51b8d201e3b2
perumahan,Perhimpunan Pengembang Perumahan,Abepura Jayapura,"9MX2+68C, Padang bulan, Kec. Abepura, Kota Jayapura, Papua 99225","Padang bulan, Kec. Abepura, Kota Jayapura",PAPUA,99225.0,Indonesia,,-2.6019484,140.650751,https://maps.google.com/?cid=0x0:0x9df92ab56ae045e1
perumahan,Komplek perumahan,Rumah hattu,"Jl. Perumnas IV Padang Bulan No.2, Hedam, Kec. Heram, Kota Jayapura, Papua 99225","Hedam, Kec. Heram, Kota Jayapura",PAPUA,99225.0,Indonesia,,-2.597731,140.650427,https://maps.google.com/?cid=0x0:0x6432cd6181d47710
perumahan,Otoritas Perumahan,Perumahan PLN,"9MW2+R26, Hedam, Kec. Heram, Kota Jayapura, Papua 99351","Hedam, Kec. Heram, Kota Jayapura",PAPUA,99351.0,Indonesia,,-2.6029568,140.6500146,https://maps.google.com/?cid=0x0:0xd9491821bd6640ba
perumahan,Otoritas Perumahan,organda dalam,"CM25+8GM, Hedam, Kec. Heram, Kota Jayapura, Papua 99225","Hedam, Kec. Heram, Kota Jayapura",PAPUA,99225.0,Indonesia,,-2.5993967,140.6588783,https://maps.google.com/?cid=0x0:0xbcfd3b9a172bfb63
perumahan,Pembangunan Perumahan,Rmh,"CM4F+3G2, Vim, Kec. Abepura, Kota Jayapura, Papua 99224","Vim, Kec. Abepura, Kota Jayapura",PAPUA,99224.0,Indonesia,,-2.5948555,140.6734326,https://maps.google.com/?cid=0x0:0xa19f6835d517711
perumahan,perumahan,Papua 99226,"Wahno, Kec. Abepura, Kota Jayapura, Papua","Kota Jayapura, Papua",PAPUA,,Indonesia,,-2.5940542,140.6740309,https://maps.google.com/?cid=0x0:0xfee9da6af66c7cd1
perumahan,Komplek perumahan,Rumah Dion,"Jalur 3 No.124, Wahno, Kec. Abepura, Kota Jayapura, Papua 99224","Wahno, Kec. Abepura, Kota Jayapura",PAPUA,99224.0,Indonesia,,-2.5937756,140.6736537,https://maps.google.com/?cid=0x0:0x432ba5bae9157dde
perumahan,Komplek perumahan,Jalkos,"Furia indah Kotaraja, jalan Itik Jalur 0 No.25 A, Wahno, Kec. Abepura, Kota Jayapura, Papua 99224","jalan Itik Jalur 0 No.25 A, Wahno, Kec. Abepura, Kota Jayapura",PAPUA,99224.0,Indonesia,,-2.5948401,140.672398,https://maps.google.com/?cid=0x0:0x401dbdf59f7777e8
perumahan,Komplek perumahan,Rumah Manto,"CM4F+468, Vim, Kec. Abepura, Kota Jayapura, Papua 99224","Vim, Kec. Abepura, Kota Jayapura",PAPUA,99224.0,Indonesia,,-2.594692,140.6730566,https://maps.google.com/?cid=0x0:0x94cfcaff336bfdf8
perumahan,Perhimpunan Pengembang Perumahan,Perumahan Rollo Green Diamond,"perumahan Rollo grend diamond, Koya Tengah, Kec. Muara Tami, Kota Jayapura, Papua 99351","Koya Tengah, Kec. Muara Tami, Kota Jayapura",PAPUA,99351.0,Indonesia,,-2.6464855,140.8133531,https://maps.google.com/?cid=0x0:0x26ae5d8e3fabd4f4
perumahan,Komplek perumahan,Kediam keluarga Wanma,"Jl. Jeruk Nipis No.11, Wahno, Kec. Abepura, Kota Jayapura, Papua 99224","Wahno, Kec. Abepura, Kota Jayapura",PAPUA,99224.0,Indonesia,,-2.5948096,140.6732972,https://maps.google.com/?cid=0x0:0x898b9310bb85a7c
perumahan,Agen Gas Elpiji,Elpiji Jayapura_ Anggrek Elpiji Kotaraja Jayapura,"CM4C+5J5, Furia Jalur Kosong Kotaraja, Vim, Kec. Abepura, Kota Jayapura, Papua 99224","Furia Jalur Kosong Kotaraja, Vim, Kec. Abepura, Kota Jayapura",PAPUA,99224.0,Indonesia,82199980507.0,-2.5946072,140.6716174,https://maps.google.com/?cid=0x0:0xc7e55ee4506a7f6a
perumahan,Perumahan,"PERUMAHAN ANUGRAH REGENCY,HOLTEKAM","9Q5M+PC, Holtekam, Kec. Muara Tami, Kota Jayapura, Papua","Kota Jayapura, Papua",PAPUA,,Indonesia,,-2.6406717,140.7839135,https://maps.google.com/?cid=0x0:0x2de3934f59eacc45
perumahan,Penitipan Anak,Furia Daycare (Rumah Belajar dan Penitipan Anak),"CM4F+82M, Jalur 2, Wahno, Kec. Abepura, Kota Jayapura, Papua 99224","Jalur 2, Wahno, Kec. Abepura, Kota Jayapura",PAPUA,99224.0,Indonesia,82112211616.0,-2.5940971,140.6726122,https://maps.google.com/?cid=0x0:0x2dd23fe0d22f3fec
perumahan,Komplek perumahan,Jayapura,"Komp.Permata Indah, Jalur 2, kek, Asano, Kec. Abepura, Kota Jayapura, Papua 99224","Jalur 2, kek, Asano, Kec. Abepura, Kota Jayapura",PAPUA,99224.0,Indonesia,,-2.5941249,140.6727697,https://maps.google.com/?cid=0x0:0xf6729662d459596c
perumahan,Toko Kue,Basyira Kukis,"Perumahan furia indah, Vim, Jalur 2 No.65, Kotaraja, Kec. Abepura, Kota Jayapura, Papua 99224","Vim, Jalur 2 No.65, Kotaraja, Kec. Abepura, Kota Jayapura",PAPUA,99224.0,Indonesia,82198652356.0,-2.594343,140.6732338,https://maps.google.com/?cid=0x0:0xb3cd150ebc4a8cea
perumahan,Kios,Kios Bambang,"Unnamed Road, 99224, Wahno, Kec. Abepura, Kota Jayapura, Papua 99224","99224, Wahno, Kec. Abepura, Kota Jayapura",PAPUA,99224.0,Indonesia,81344100400.0,-2.5943112,140.672919,https://maps.google.com/?cid=0x0:0xaa8124446a2ce4f2
perumahan,Komplek perumahan,Grand vill's,"FF26+RWX, Doyo Baru, Distrik Waibu, Kabupaten Jayapura, Papua 99352","Doyo Baru, Distrik Waibu, Kabupaten Jayapura",PAPUA,99352.0,Indonesia,,-2.5476539,140.4623034,https://maps.google.com/?cid=0x0:0xe4ea21812579e6cb
perumahan,perumahan,Papua 99111,"Kec. Jayapura Utara, Kota Jayapura, Papua","Kota Jayapura, Papua",PAPUA,,Indonesia,,-2.5084418,140.6326954,https://maps.google.com/?cid=0x0:0xdf06080a6648cb6c
perumahan,Komplek perumahan,RUMAH BOWO TENTARA,"FP62+VWW, Jl. Tugu 1, Bayangkara, Kec. Jayapura Utara, Kota Jayapura, Papua","Kota Jayapura, Papua",PAPUA,,Indonesia,,-2.5377627,140.7023331,https://maps.google.com/?cid=0x0:0xcfe926c6cd689171
perumahan,Komplek perumahan,Rumah Zah,"FP73+C9F, Bayangkara, Kec. Jayapura Utara, Kota Jayapura, Papua","Kota Jayapura, Papua",PAPUA,,Indonesia,,-2.5364319,140.7034365,https://maps.google.com/?cid=0x0:0xfba4c00a11f0fe88
perumahan,Kantor Perusahaan,Perumahan Asisten Sekda Provinsi Papua,"FPJ5+PCW, Angkasapura, Kec. Jayapura Utara, Kota Jayapura, Papua 99114","Angkasapura, Kec. Jayapura Utara, Kota Jayapura",PAPUA,99114.0,Indonesia,,-2.5181372,140.7085688,https://maps.google.com/?cid=0x0:0x735af2def5609d2c
perumahan,Pembangunan Perumahan,Perumahan penerangan kabupaten 1 Apo Jayapura,"FP84+5MJ, Bayangkara, Kec. Jayapura Utara, Kota Jayapura, Papua 99112","Bayangkara, Kec. Jayapura Utara, Kota Jayapura",PAPUA,99112.0,Indonesia,,-2.5346272,140.7066521,https://maps.google.com/?cid=0x0:0x55d25f58cc649958
perumahan,Komplek perumahan,Rumah dr ata,"FP83+8CM, Jl. Kab. 2, Bayangkara, Kec. Jayapura Utara, Kota Jayapura, Papua 99112","Jl. Kab. 2, Bayangkara, Kec. Jayapura Utara, Kota Jayapura",PAPUA,99112.0,Indonesia,,-2.534282,140.703811,https://maps.google.com/?cid=0x0:0x36ca1a26017fac7
perumahan,Perumahan,Perumahan Keuangan,"Jl. Nirwana No.2, Angkasapura, Kec. Jayapura Utara, Kota Jayapura, Papua 99114","Angkasapura, Kec. Jayapura Utara, Kota Jayapura",PAPUA,99114.0,Indonesia,,-2.5221914,140.7114895,https://maps.google.com/?cid=0x0:0xc28cb8006e21a35d
perumahan,Komplek perumahan,Rumah Aril,"FP75+F4F, Bayangkara, Kec. Jayapura Utara, Kota Jayapura, Papua","Kota Jayapura, Papua",PAPUA,,Indonesia,,-2.5363036,140.707782,https://maps.google.com/?cid=0x0:0xc34a45c81f063585
perumahan,Pembangunan Perumahan,Rumah keluarga BONAI,"Jl. Perintis I No.1, Gurabesi, Kec. Jayapura Utara, Kota Jayapura, Papua 99221","Gurabesi, Kec. Jayapura Utara, Kota Jayapura",PAPUA,99221.0,Indonesia,,-2.5433737,140.6981167,https://maps.google.com/?cid=0x0:0x18dd7bc045d62fc5
perumahan,Pembangunan Perumahan,Keluarga Korwa,"FP73+PFM, Bayangkara, Kec. Jayapura Utara, Kota Jayapura, Papua","Kota Jayapura, Papua",PAPUA,,Indonesia,,-2.5355356,140.7035247,https://maps.google.com/?cid=0x0:0x8036d1850c869fd7
perumahan,Komplek perumahan,Sysl,"FM5X+82M, Gurabesi, Kec. Jayapura Utara, Kota Jayapura, Papua","Kota Jayapura, Papua",PAPUA,,Indonesia,,-2.5416543,140.6975349,https://maps.google.com/?cid=0x0:0xa7ce6214cf893ee8
perumahan,Komplek perumahan,Perumahan mandiri,"FP97+MRH, Jl. Bhayangkara I, Bayangkara, Kec. Jayapura Utara, Kota Jayapura, Papua","Kota Jayapura, Papua",PAPUA,,Indonesia,,-2.530818,140.7146068,https://maps.google.com/?cid=0x0:0xf2a0e6ee2d27c979
perumahan,Komplek perumahan,Saniel Home,"FM4W+4RH, Jl. Ahmad Yani, Gurabesi, Kec. Jayapura Utara, Kota Jayapura, Papua 99221","Jl. Ahmad Yani, Gurabesi, Kec. Jayapura Utara, Kota Jayapura",PAPUA,99221.0,Indonesia,,-2.5446853,140.6971145,https://maps.google.com/?cid=0x0:0x6bae4ea854356db2
perumahan,Komplek perumahan,Kompleks Perumahan BULOG,"FPJ4+QM2, Angkasapura, Kec. Jayapura Utara, Kota Jayapura, Papua 99114","Angkasapura, Kec. Jayapura Utara, Kota Jayapura",PAPUA,99114.0,Indonesia,,-2.5181235,140.7066293,https://maps.google.com/?cid=0x0:0x3639eefe775dce90
perumahan,perumahan,Papua 99112,"Bayangkara, Kec. Jayapura Utara, Kota Jayapura, Papua","Kota Jayapura, Papua",PAPUA,,Indonesia,,-2.5099296,140.6741875,https://maps.google.com/?cid=0x0:0x1e30ed7c2a61f1f1
perumahan,Komplek perumahan,Rumahku,"apo kali, Jl. Kab. 2, Bayangkara, Kec. Jayapura Utara, Kota Jayapura, Papua 99112","Jl. Kab. 2, Bayangkara, Kec. Jayapura Utara, Kota Jayapura",PAPUA,99112.0,Indonesia,,-2.5331641,140.7040933,https://maps.google.com/?cid=0x0:0xb21e894d544e4bb3
perumahan,Komplek perumahan,Komp. Perumahan Perikanan,"FPC8+H76, Dok. V, Trikora, Kec. Jayapura Utara, Kota Jayapura, Papua 99112","Dok. V, Trikora, Kec. Jayapura Utara, Kota Jayapura",PAPUA,99112.0,Indonesia,,-2.5285995,140.715653,https://maps.google.com/?cid=0x0:0xad9aa16e9a7d33ad
perumahan,Komplek perumahan,Kel.H. Manusama,"FP74+Q23, Bayangkara, Kec. Jayapura Utara, Kota Jayapura, Papua 99112","Bayangkara, Kec. Jayapura Utara, Kota Jayapura",PAPUA,99112.0,Indonesia,,-2.5354711,140.7051126,https://maps.google.com/?cid=0x0:0xe011cfad83b77d9d
perumahan,Komplek perumahan,Rumah dr ata,"FP83+8CM, Jl. Kab. 2, Bayangkara, Kec. Jayapura Utara, Kota Jayapura, Papua 99112","Jl. Kab. 2, Bayangkara, Kec. Jayapura Utara, Kota Jayapura",PAPUA,99112.0,Indonesia,,-2.534282,140.703811,https://maps.google.com/?cid=0x0:0x36ca1a26017fac7
perumahan,Komplek perumahan,Perumahan Sosial BTI dok 8 Atas,"FPJ9+VFG, Imbi, Kec. Jayapura Utara, Kota Jayapura, Papua 99116","Imbi, Kec. Jayapura Utara, Kota Jayapura",PAPUA,99116.0,Indonesia,8124806070.0,-2.5178164,140.7186956,https://maps.google.com/?cid=0x0:0x6148f1ac3b40110b
perumahan,Pembangunan Perumahan,Tanah kosong,"FPF5+H7X, Jl. Bhayangkara III, Bayangkara, Kec. Jayapura Utara, Kota Jayapura, Papua 99112","Jl. Bhayangkara III, Bayangkara, Kec. Jayapura Utara, Kota Jayapura",PAPUA,99112.0,Indonesia,82198935608.0,-2.526022,140.7082434,https://maps.google.com/?cid=0x0:0xa19bc6db56ff31e7
perumahan,Komplek perumahan,Rumah M iqbal,"FP97+494, Bayangkara, Kec. Jayapura Utara, Kota Jayapura, Papua 99112","Bayangkara, Kec. Jayapura Utara, Kota Jayapura",PAPUA,99112.0,Indonesia,,-2.532409,140.71305,https://maps.google.com/?cid=0x0:0x9425c500f70cf08a
perumahan,Pembangunan Perumahan,A.P.O.,"Jl. Kab. 1 No.33, Cendrawasih Selatan, Kec. Jayapura Utara, Kota Jayapura, Papua 99112","Cendrawasih Selatan, Kec. Jayapura Utara, Kota Jayapura",PAPUA,99112.0,Indonesia,81344256298.0,-2.5335145,140.7049664,https://maps.google.com/?cid=0x0:0xb9bf6a3cf805975c
perumahan,Komplek perumahan,Ebha. Aronggear,"FP85+VH9, Bayangkara, Kec. Jayapura Utara, Kota Jayapura, Papua 99112","Bayangkara, Kec. Jayapura Utara, Kota Jayapura",PAPUA,99112.0,Indonesia,,-2.53285,140.7089873,https://maps.google.com/?cid=0x0:0x1ce127c3d963bdd7
perumahan,Komplek perumahan,Rumah Zah,"FP73+C9F, Bayangkara, Kec. Jayapura Utara, Kota Jayapura, Papua","Kota Jayapura, Papua",PAPUA,,Indonesia,,-2.5364319,140.7034365,https://maps.google.com/?cid=0x0:0xfba4c00a11f0fe88
perumahan,Kantor Perusahaan,Perumahan Asisten Sekda Provinsi Papua,"FPJ5+PCW, Angkasapura, Kec. Jayapura Utara, Kota Jayapura, Papua 99114","Angkasapura, Kec. Jayapura Utara, Kota Jayapura",PAPUA,99114.0,Indonesia,,-2.5181372,140.7085688,https://maps.google.com/?cid=0x0:0x735af2def5609d2c
perumahan,perumahan,Rumah Kos Bu Desy,"FP95+63V, Bayangkara, Kec. Jayapura Utara, Kota Jayapura, Papua 99112","Bayangkara, Kec. Jayapura Utara, Kota Jayapura",PAPUA,99112.0,Indonesia,,-2.531887,140.707662,https://maps.google.com/?cid=0x0:0x560bd8adf9d59fe1
perumahan,Pembangunan Perumahan,Perumahan penerangan kabupaten 1 Apo Jayapura,"FP84+5MJ, Bayangkara, Kec. Jayapura Utara, Kota Jayapura, Papua 99112","Bayangkara, Kec. Jayapura Utara, Kota Jayapura",PAPUA,99112.0,Indonesia,,-2.5346272,140.7066521,https://maps.google.com/?cid=0x0:0x55d25f58cc649958
perumahan,perumahan,Papua 99113,"Kec. Jayapura Utara, Kota Jayapura, Papua","Kota Jayapura, Papua",PAPUA,,Indonesia,,-2.4943571,140.6741875,https://maps.google.com/?cid=0x0:0x4a109ffe0e6c7e65
perumahan,Komplek perumahan,Kotaraja jayapura,"FMJF+WM8, Bayangkara, Kec. Jayapura Utara, Kota Jayapura, Papua","Kota Jayapura, Papua",PAPUA,,Indonesia,,-2.5177184,140.6741875,https://maps.google.com/?cid=0x0:0x7f0edb754b8657d6
perumahan,Pembangunan Perumahan,Tanah,"FMJF+WM8, Bayangkara, Kec. Jayapura Utara, Kota Jayapura, Papua","Kota Jayapura, Papua",PAPUA,,Indonesia,,-2.5177184,140.6741875,https://maps.google.com/?cid=0x0:0x39404a5863d433bc
perumahan,Komplek perumahan,Ambang kribo,"GM7M+7RW, Tj. Ria, Kec. Jayapura Utara, Kota Jayapura, Papua 99117","Tj. Ria, Kec. Jayapura Utara, Kota Jayapura",PAPUA,99117.0,Indonesia,,-2.4867713,140.6845903,https://maps.google.com/?cid=0x0:0xea46b15eaf6bdd83
perumahan,Perumahan,Baseg deplat kiri,"GM7M+6RG, Tj. Ria, Kec. Jayapura Utara, Kota Jayapura, Papua 99117","Tj. Ria, Kec. Jayapura Utara, Kota Jayapura",PAPUA,99117.0,Indonesia,,-2.4869418,140.6845648,https://maps.google.com/?cid=0x0:0x3d62f004f3aed2eb
perumahan,Komplek perumahan,Triton Hill (Kel.Bonsapia),"GM7M+6RG, Tj. Ria, Kec. Jayapura Utara, Kota Jayapura, Papua","Kota Jayapura, Papua",PAPUA,,Indonesia,,-2.4869418,140.6845648,https://maps.google.com/?cid=0x0:0xadc1aded21dfa1de
perumahan,Komplek perumahan,Keluarga agus bandera,"GM7M+6RG, Tj. Ria, Kec. Jayapura Utara, Kota Jayapura, Papua","Kota Jayapura, Papua",PAPUA,,Indonesia,,-2.4869418,140.6845648,https://maps.google.com/?cid=0x0:0xbb550656adb371c3
perumahan,Komplek perumahan,Wbw home,"GM7M+6RG, Tj. Ria, Kec. Jayapura Utara, Kota Jayapura, Papua","Kota Jayapura, Papua",PAPUA,,Indonesia,,-2.4869418,140.6845648,https://maps.google.com/?cid=0x0:0x998ebcf4f8626b77
perumahan,perumahan,APO KALI,"FMJF+WM8, Bayangkara, Kec. Jayapura Utara, Kota Jayapura, Papua","Kota Jayapura, Papua",PAPUA,,Indonesia,,-2.5177184,140.6741875,https://maps.google.com/?cid=0x0:0x6faefdf6410d7337
perumahan,Komplek perumahan,SAJA (SEKITARAN ASPOL JAYAPURA),"FM3W+VW8, Gurabesi, Kec. Jayapura Utara, Kota Jayapura, Papua","Kota Jayapura, Papua",PAPUA,,Indonesia,,-2.5453425,140.6973305,https://maps.google.com/?cid=0x0:0x76536caf41faabf8
perumahan,perumahan,Papua 99114,"Kec. Jayapura Utara, Kabupaten Jayawijaya, Papua","Kabupaten Jayawijaya, Papua",PAPUA,,Indonesia,,-2.5167961,140.7027292,https://maps.google.com/?cid=0x0:0xfbf882c9b5d1cad7
perumahan,Kantor Perusahaan,Perumahan Asisten Sekda Provinsi Papua,"FPJ5+PCW, Angkasapura, Kec. Jayapura Utara, Kota Jayapura, Papua 99114","Angkasapura, Kec. Jayapura Utara, Kota Jayapura",PAPUA,99114.0,Indonesia,,-2.5181372,140.7085688,https://maps.google.com/?cid=0x0:0x735af2def5609d2c
perumahan,Komplek perumahan,Perumahan Sosial BTI dok 8 Atas,"FPJ9+VFG, Imbi, Kec. Jayapura Utara, Kota Jayapura, Papua 99116","Imbi, Kec. Jayapura Utara, Kota Jayapura",PAPUA,99116.0,Indonesia,8124806070.0,-2.5178164,140.7186956,https://maps.google.com/?cid=0x0:0x6148f1ac3b40110b
perumahan,Perumahan,Perumahan Keuangan,"Jl. Nirwana No.2, Angkasapura, Kec. Jayapura Utara, Kota Jayapura, Papua 99114","Angkasapura, Kec. Jayapura Utara, Kota Jayapura",PAPUA,99114.0,Indonesia,,-2.5221914,140.7114895,https://maps.google.com/?cid=0x0:0xc28cb8006e21a35d
perumahan,Komplek perumahan,FaRaShaâs,"Jl. Lembah Sunyi No.4 no 3B, Angkasapura, Kec. Jayapura Utara, Kota Jayapura, Papua 99114","Angkasapura, Kec. Jayapura Utara, Kota Jayapura",PAPUA,99114.0,Indonesia,,-2.5178666,140.7116926,https://maps.google.com/?cid=0x0:0x61e9172f793bf688
perumahan,Perhimpunan Pengembang Perumahan,Kel. A. Youwe,"FPF5+X59, Jl. Bhayangkara, Bayangkara, Kec. Jayapura Utara, Kota Jayapura, Papua","Kota Jayapura, Papua",PAPUA,,Indonesia,,-2.5250858,140.7079865,https://maps.google.com/?cid=0x0:0xcaf4208358440573
perumahan,Komplek perumahan,Komp. Perumahan Perikanan,"FPC8+H76, Dok. V, Trikora, Kec. Jayapura Utara, Kota Jayapura, Papua 99112","Dok. V, Trikora, Kec. Jayapura Utara, Kota Jayapura",PAPUA,99112.0,Indonesia,,-2.5285995,140.715653,https://maps.google.com/?cid=0x0:0xad9aa16e9a7d33ad
perumahan,Komplek perumahan,Kompleks Weya,"FPP8+JFW, Angkasapura, Kec. Jayapura Utara, Kota Jayapura, Papua 99116","Angkasapura, Kec. Jayapura Utara, Kota Jayapura",PAPUA,99116.0,Indonesia,81215261215.0,-2.5134027,140.7161394,https://maps.google.com/?cid=0x0:0x28972a49418e9a34
perumahan,Komplek perumahan,Kediaman Bumi 01,"FPJ5+MMR, Jl. Krisna, Angkasapura, Jayapura Utara, Jayapura City, Papua 99114","Jl. Krisna, Angkasapura, Jayapura Utara, Jayapura City",PAPUA,99114.0,Indonesia,,-2.5182551,140.7091261,https://maps.google.com/?cid=0x0:0x17af247c9fd95e69
perumahan,Komplek perumahan,PERUMAHAN ANGKASA PERMAI,"FPR5+HPH, Angkasapura, Kec. Jayapura Utara, Kota Jayapura, Papua 99116","Angkasapura, Kec. Jayapura Utara, Kota Jayapura",PAPUA,99116.0,Indonesia,81322005800.0,-2.5087778,140.7095833,https://maps.google.com/?cid=0x0:0x403bfc93f818c706
perumahan,Komplek perumahan,Rumaj keluarga wa esnaa,"FPM9+2C7 Panti monye magu, jl. Kapal, Dok 8 atas, Imbi, Kec. Jayapura Utara, Kota Jayapura, Papua 99116","jl. Kapal, Dok 8 atas, Imbi, Kec. Jayapura Utara, Kota Jayapura",PAPUA,99116.0,Indonesia,,-2.5174511,140.7185493,https://maps.google.com/?cid=0x0:0xbb78c084408c19ba
perumahan,Komplek perumahan,Marvin Home,"FPP4+2GR, Angkasapura, Kec. Jayapura Utara, Kota Jayapura, Papua 99114","Angkasapura, Kec. Jayapura Utara, Kota Jayapura",PAPUA,99114.0,Indonesia,,-2.5145643,140.7060895,https://maps.google.com/?cid=0x0:0x983ebd4b352c362b
perumahan,Komplek perumahan,Mama Vhey,"FPG7+2M5 MB D'Five, Trikora, Kec. Jayapura Utara, Kota Jayapura, Papua 99114","Trikora, Kec. Jayapura Utara, Kota Jayapura",PAPUA,99114.0,Indonesia,,-2.5250578,140.7141879,https://maps.google.com/?cid=0x0:0x5ba2ff227f3956a1
perumahan,Komplek perumahan,Rumah Keluarga Bpk Ezra Gavi Noah,"FPJ9+J6P, Imbi, Kec. Jayapura Utara, Kota Jayapura, Papua 99116","Imbi, Kec. Jayapura Utara, Kota Jayapura",PAPUA,99116.0,Indonesia,,-2.5188765,140.7177545,https://maps.google.com/?cid=0x0:0x87823a4f66ecaa94
perumahan,perumahan,Kec. Jayapura Utara,"Kota Jayapura, Papua","Kota Jayapura, Papua",PAPUA,,Indonesia,,-2.5312067,140.7199798,https://maps.google.com/?cid=0x0:0x13fe60c6bfbe82b0
perumahan,Komplek perumahan,Komp. Perumahan Perikanan,"FPC8+H76, Dok. V, Trikora, Kec. Jayapura Utara, Kota Jayapura, Papua 99112","Dok. V, Trikora, Kec. Jayapura Utara, Kota Jayapura",PAPUA,99112.0,Indonesia,,-2.5285995,140.715653,https://maps.google.com/?cid=0x0:0xad9aa16e9a7d33ad
perumahan,Komplek perumahan,Perumahan Sosial BTI dok 8 Atas,"FPJ9+VFG, Imbi, Kec. Jayapura Utara, Kota Jayapura, Papua 99116","Imbi, Kec. Jayapura Utara, Kota Jayapura",PAPUA,99116.0,Indonesia,8124806070.0,-2.5178164,140.7186956,https://maps.google.com/?cid=0x0:0x6148f1ac3b40110b
perumahan,perumahan,Rumah,"FPF7+PQR, Jl. Mandala dok 5 atas, Trikora, Kec. Jayapura Utara, Kota Jayapura, Papua","Kota Jayapura, Papua",PAPUA,,Indonesia,,-2.5256391,140.7143876,https://maps.google.com/?cid=0x0:0x276c739a707655e
perumahan,Komplek perumahan,Rumah S. Kafiar / Jodasa,"Jl. Nimboran Dok 7 Pertamina No.22, Imbi, Kec. Jayapura Utara, Kota Jayapura, Papua","Kota Jayapura, Papua",PAPUA,,Indonesia,,-2.5251555,140.7242686,https://maps.google.com/?cid=0x0:0x918bea9b2aff96da
perumahan,Komplek perumahan,Dok 5 Atas,"FPCC+C8F, Jl. Semeru, Trikora, Kec. Jayapura Utara, Kota Jayapura, Papua","Kota Jayapura, Papua",PAPUA,,Indonesia,,-2.5289444,140.7207899,https://maps.google.com/?cid=0x0:0x45b936ccf482eb20
perumahan,Komplek perumahan,Nopex,"FP8F+C33, Jl. Soa Siu, Mandala, Kec. Jayapura Utara, Kota Jayapura, Papua","Kota Jayapura, Papua",PAPUA,,Indonesia,,-2.5339975,140.7226646,https://maps.google.com/?cid=0x0:0xad0bfabce616d4e4
perumahan,Komplek perumahan,Rumah saya,"FPFF+PPQ Dok 7 pertamina, Imbi, Kec. Jayapura Utara, Kota Jayapura, Papua","Kota Jayapura, Papua",PAPUA,,Indonesia,,-2.5256615,140.7243641,https://maps.google.com/?cid=0x0:0x31308b2aaef12211
perumahan,Komplek perumahan,Perumahan mandiri,"FP97+MRH, Jl. Bhayangkara I, Bayangkara, Kec. Jayapura Utara, Kota Jayapura, Papua","Kota Jayapura, Papua",PAPUA,,Indonesia,,-2.530818,140.7146068,https://maps.google.com/?cid=0x0:0xf2a0e6ee2d27c979
perumahan,Komplek perumahan,Dok V Bawah Pantai,"FP8C+2JH, Jl. Soa Siu, Mandala, Kec. Jayapura Utara, Kota Jayapura, Papua","Kota Jayapura, Papua",PAPUA,,Indonesia,,-2.5349427,140.7216112,https://maps.google.com/?cid=0x0:0x7f8279572b245f5b
perumahan,Komplek perumahan,Rumah Tinggal,"Jl. Kanguru Dok 5 Atas No.: 33, Mandala, Kec. Jayapura Utara, Kota Jayapura, Papua","Kota Jayapura, Papua",PAPUA,,Indonesia,,-2.5318617,140.7195409,https://maps.google.com/?cid=0x0:0xd84c79a247f035e
perumahan,Komplek perumahan,Rumah Kel.Wanggai / Kios Product PNG,"FPGF+9R8, Imbi, Kec. Jayapura Utara, Kota Jayapura, Papua","Kota Jayapura, Papua",PAPUA,,Indonesia,,-2.5243452,140.7246026,https://maps.google.com/?cid=0x0:0x198580b161bc49a5
perumahan,Kantor Perusahaan,Rumah Dinas PT. PElNI Cabang Jayapura,"Jl. Mandala Dok 5 atas No.11, Trikora, Kec. Jayapura Utara, Kota Jayapura, Papua 99114","Trikora, Kec. Jayapura Utara, Kota Jayapura",PAPUA,99114.0,Indonesia,,-2.5242809,140.7129185,https://maps.google.com/?cid=0x0:0xb4cb9cd7517f266a
perumahan,Komplek perumahan,Dok 5 Yapis,"Jl. Samratulangi No.15, Mandala, Kec. Jayapura Utara, Kota Jayapura, Papua 99112","Mandala, Kec. Jayapura Utara, Kota Jayapura",PAPUA,99112.0,Indonesia,,-2.5290777,140.7162059,https://maps.google.com/?cid=0x0:0xe6ef35e0ee177501
perumahan,perumahan,Papua 99116,"Angkasapura, Kec. Jayapura Utara, Kota Jayapura, Papua","Kota Jayapura, Papua",PAPUA,,Indonesia,,-2.5091904,140.70792,https://maps.google.com/?cid=0x0:0x234bf316c4205d54
perumahan,Komplek perumahan,PERUMAHAN ANGKASA PERMAI,"FPR5+HPH, Angkasapura, Kec. Jayapura Utara, Kota Jayapura, Papua 99116","Angkasapura, Kec. Jayapura Utara, Kota Jayapura",PAPUA,99116.0,Indonesia,81322005800.0,-2.5087778,140.7095833,https://maps.google.com/?cid=0x0:0x403bfc93f818c706
perumahan,Komplek perumahan,Perumahan Sosial BTI dok 8 Atas,"FPJ9+VFG, Imbi, Kec. Jayapura Utara, Kota Jayapura, Papua 99116","Imbi, Kec. Jayapura Utara, Kota Jayapura",PAPUA,99116.0,Indonesia,8124806070.0,-2.5178164,140.7186956,https://maps.google.com/?cid=0x0:0x6148f1ac3b40110b
perumahan,Perumahan,Jdjdhddh,"FPHC+6C8, Imbi, Kec. Jayapura Utara, Kota Jayapura, Papua 99116","Imbi, Kec. Jayapura Utara, Kota Jayapura",PAPUA,99116.0,Indonesia,,-2.5219535,140.7210738,https://maps.google.com/?cid=0x0:0xc2e3c6279646b7c
perumahan,Kantor Perusahaan,Perumahan Asisten Sekda Provinsi Papua,"FPJ5+PCW, Angkasapura, Kec. Jayapura Utara, Kota Jayapura, Papua 99114","Angkasapura, Kec. Jayapura Utara, Kota Jayapura",PAPUA,99114.0,Indonesia,,-2.5181372,140.7085688,https://maps.google.com/?cid=0x0:0x735af2def5609d2c
perumahan,Komplek perumahan,Rumah Zidan dan Khalid,"Jl. Sungai Tami No.42, Imbi, Kec. Jayapura Utara, Kota Jayapura, Papua 99116","Imbi, Kec. Jayapura Utara, Kota Jayapura",PAPUA,99116.0,Indonesia,,-2.5230852,140.7216591,https://maps.google.com/?cid=0x0:0x513bcde0c3d27cd6
perumahan,Komplek perumahan,BALATKOP,"Angkasapura, Kec. Jayapura Utara, Kota Jayapura, Papua 99116","Kec. Jayapura Utara, Kota Jayapura",PAPUA,99116.0,Indonesia,,-2.5129041,140.7093999,https://maps.google.com/?cid=0x0:0xa018511bd154001e
perumahan,Pembangunan Perumahan,Home Pdt Tamalea,"FPR8+V28, Jl. Angkasa Raya, Tj. Ria, Kec. Jayapura Utara, Kota Jayapura, Papua 99116","Jl. Angkasa Raya, Tj. Ria, Kec. Jayapura Utara, Kota Jayapura",PAPUA,99116.0,Indonesia,,-2.5083337,140.7151128,https://maps.google.com/?cid=0x0:0xf689c8378ee05a9c
perumahan,Pembangunan Perumahan,Perumahan Perikanan Angkasa,"FPP6+W39, Angkasapura, Kec. Jayapura Utara, Kota Jayapura, Papua 99116","Angkasapura, Kec. Jayapura Utara, Kota Jayapura",PAPUA,99116.0,Indonesia,,-2.5127169,140.71025,https://maps.google.com/?cid=0x0:0x6dfbc52441313bc6
perumahan,Kantor Perusahaan,Perum Dinas Bank Indonesia,"FPQ5+RFM, Angkasapura, North Jayapura, Angkasapura, Kec. Jayapura Utara, Kota Jayapura, Papua 99116","Angkasapura, North Jayapura, Angkasapura, Kec. Jayapura Utara, Kota Jayapura",PAPUA,99116.0,Indonesia,,-2.5104213,140.7086655,https://maps.google.com/?cid=0x0:0x2dd59b319a01213b
perumahan,Komplek perumahan,Rumah dok VIII atas Kel A.W,"FPJ9+9CJ Perumahan Sosial BTI, Dok 8 Atas, Imbi, Kec. Jayapura Utara, Kota Jayapura, Papua 99116","Dok 8 Atas, Imbi, Kec. Jayapura Utara, Kota Jayapura",PAPUA,99116.0,Indonesia,,-2.5190473,140.7185196,https://maps.google.com/?cid=0x0:0x24632fd4de8155ef
perumahan,Perumahan,Perumahan Keuangan,"Jl. Nirwana No.2, Angkasapura, Kec. Jayapura Utara, Kota Jayapura, Papua 99114","Angkasapura, Kec. Jayapura Utara, Kota Jayapura",PAPUA,99114.0,Indonesia,,-2.5221914,140.7114895,https://maps.google.com/?cid=0x0:0xc28cb8006e21a35d
perumahan,Komplek perumahan,HS Wonatorey,"Jl. Sungai Tami No.04, Imbi, Kec. Jayapura Utara, Kota Jayapura, Papua 99116","Imbi, Kec. Jayapura Utara, Kota Jayapura",PAPUA,99116.0,Indonesia,,-2.5220122,140.7227997,https://maps.google.com/?cid=0x0:0xb4fc9c1f7da06fd1
perumahan,Komplek perumahan,PRT Anas,"FPR5+VJM, Jl. Angkasa Raya, Tj. Ria, Kec. Jayapura Utara, Kota Jayapura, Papua 99116","Jl. Angkasa Raya, Tj. Ria, Kec. Jayapura Utara, Kota Jayapura",PAPUA,99116.0,Indonesia,,-2.5073183,140.708932,https://maps.google.com/?cid=0x0:0xc3061ace6d82a2b1
perumahan,perumahan,Papua 99117,"Tj. Ria, Kec. Jayapura Utara, Kota Jayapura, Papua","Kota Jayapura, Papua",PAPUA,,Indonesia,,-2.493242,140.6975389,https://maps.google.com/?cid=0x0:0xf4a40bbba525574f
perumahan,Komplek perumahan,Perumahan PU BLK Pasir 2,"FPQJ+JC8, Jl. Pasifik Indah III, Tj. Ria, Kec. Jayapura Utara, Kota Jayapura, Papua 99117","Jl. Pasifik Indah III, Tj. Ria, Kec. Jayapura Utara, Kota Jayapura",PAPUA,99117.0,Indonesia,,-2.5109565,140.7310874,https://maps.google.com/?cid=0x0:0x707a5e715eecb83e
perumahan,Kantor Perusahaan,Perumahan Asisten Sekda Provinsi Papua,"FPJ5+PCW, Angkasapura, Kec. Jayapura Utara, Kota Jayapura, Papua 99114","Angkasapura, Kec. Jayapura Utara, Kota Jayapura",PAPUA,99114.0,Indonesia,,-2.5181372,140.7085688,https://maps.google.com/?cid=0x0:0x735af2def5609d2c
perumahan,Komplek perumahan,Kompleks Perumahan BULOG,"FPJ4+QM2, Angkasapura, Kec. Jayapura Utara, Kota Jayapura, Papua 99114","Angkasapura, Kec. Jayapura Utara, Kota Jayapura",PAPUA,99114.0,Indonesia,,-2.5181235,140.7066293,https://maps.google.com/?cid=0x0:0x3639eefe775dce90
perumahan,Komplek perumahan,Kompleks Aspol BaseG,"FPPM+HQP, jln. aspol base'G bengkel polda, 99117, Tj. Ria, Kec. Jayapura Utara, Kota Jayapura, Papua 99117","jln. aspol base'G bengkel polda,",PAPUA,99117.0,Indonesia,,-2.5159099,140.7328143,https://maps.google.com/?cid=0x0:0x8f57243bccabd3de
perumahan,Komplek perumahan,PERUMAHAN ANGKASA PERMAI,"FPR5+HPH, Angkasapura, Kec. Jayapura Utara, Kota Jayapura, Papua 99116","Angkasapura, Kec. Jayapura Utara, Kota Jayapura",PAPUA,99116.0,Indonesia,81322005800.0,-2.5087778,140.7095833,https://maps.google.com/?cid=0x0:0x403bfc93f818c706
perumahan,Pembangunan Perumahan,Perumahan Perikanan Angkasa,"FPP6+W39, Angkasapura, Kec. Jayapura Utara, Kota Jayapura, Papua 99116","Angkasapura, Kec. Jayapura Utara, Kota Jayapura",PAPUA,99116.0,Indonesia,,-2.5127169,140.71025,https://maps.google.com/?cid=0x0:0x6dfbc52441313bc6
perumahan,Komplek perumahan,Keluarga St. A. Pangaribuan/ br. Aruan,"FPVC+7VX, Jl. Angkasa Raya, Tj. Ria, Kec. Jayapura Utara, Kota Jayapura, Papua 99117","Jl. Angkasa Raya, Tj. Ria, Kec. Jayapura Utara, Kota Jayapura",PAPUA,99117.0,Indonesia,,-2.5067723,140.7222395,https://maps.google.com/?cid=0x0:0x66a99bd135e1ad9e
perumahan,Taman,Perumahan Skyline Residence,"9MWH+59M, Wai Mhorock, Kec. Abepura, Kota Jayapura, Papua 99225","Wai Mhorock, Kec. Abepura, Kota Jayapura",PAPUA,99225.0,Indonesia,,-2.6045343,140.6784145,https://maps.google.com/?cid=0x0:0x6cae189caba11bc0
perumahan,Komplek perumahan,Kompleks Angkasa AURI,"FPP4+8MP, Jl. Prof. M. Yamin, SH. III, Angkasapura, Kec. Jayapura Utara, Kota Jayapura, Papua 99113","Jl. Prof. M. Yamin, SH. III, Angkasapura, Kec. Jayapura Utara, Kota Jayapura",PAPUA,99113.0,Indonesia,,-2.5141547,140.7066902,https://maps.google.com/?cid=0x0:0x73af8e89eaa61c32
perumahan,Area Mendaki,Perumahan Khodam Baru,"FPPG+JMW, Imbi, Kec. Jayapura Utara, Kota Jayapura, Papua 99117","Imbi, Kec. Jayapura Utara, Kota Jayapura",PAPUA,99117.0,Indonesia,,-2.5133893,140.726701,https://maps.google.com/?cid=0x0:0x39974f33fed6e9f4
perumahan,Komplek perumahan,BALATKOP,"Angkasapura, Kec. Jayapura Utara, Kota Jayapura, Papua 99116","Kec. Jayapura Utara, Kota Jayapura",PAPUA,99116.0,Indonesia,,-2.5129041,140.7093999,https://maps.google.com/?cid=0x0:0xa018511bd154001e
perumahan,Padang,Perumahan Graha Ampera,"9MRP+439, Wai Mhorock, Kec. Abepura, Kota Jayapura, Papua","Kota Jayapura, Papua",PAPUA,,Indonesia,,-2.6097074,140.6852479,https://maps.google.com/?cid=0x0:0x600f17530fd67c05
perumahan,Pembangunan Perumahan,Rumah Kadis DPMK Prov. Papua,"FPVF+3G4, Tj. Ria, Kec. Jayapura Utara, Kota Jayapura, Papua 99117","Tj. Ria, Kec. Jayapura Utara, Kota Jayapura",PAPUA,99117.0,Indonesia,,-2.5073742,140.7238253,https://maps.google.com/?cid=0x0:0xff11dcf8277eff89
perumahan,perumahan,Papua 99221,"Kota Jayapura, Papua","Kota Jayapura, Papua",PAPUA,,Indonesia,,-2.5407181,140.6638119,https://maps.google.com/?cid=0x0:0x22734bd942608dca
perumahan,Pembangunan Perumahan,Posisi sekarang,"Jl. Koti No.49, Numbai, Distrik Jayapura Selatan, Kota Jayapura, Papua 99221","Numbai, Distrik Jayapura Selatan, Kota Jayapura",PAPUA,99221.0,Indonesia,81231994410.0,-2.5470725,140.7059913,https://maps.google.com/?cid=0x0:0xd6f6fddfec2fd559
perumahan,Pembangunan Perumahan,PURI GARDENIA I KOTARAJA GRAND,"9MRC+QP7, Wai Mhorock, Kec. Abepura, Kota Jayapura, Papua 99221","Wai Mhorock, Kec. Abepura, Kota Jayapura",PAPUA,99221.0,Indonesia,,-2.6080956,140.6717931,https://maps.google.com/?cid=0x0:0x5ac50e6a25b5735c
perumahan,Otoritas Perumahan,Perumahan Graha Entrop Permai,"CMFQ+8H2, Jl. Raya Abepura, Entrop, Distrik Jayapura Selatan, Kota Jayapura, Papua 99223","Jl. Raya Abepura, Entrop, Distrik Jayapura Selatan, Kota Jayapura",PAPUA,99223.0,Indonesia,,-2.5767446,140.6888855,https://maps.google.com/?cid=0x0:0x3a64a72d705a926c
perumahan,Komplek perumahan,Kompleks Perumahan Ondoafi Entrop (Kapal kandas),"CMGQ+QJQ, Jl. Raya Abepura, Entrop, Distrik Jayapura Selatan, Kota Jayapura, Papua 99223","Jl. Raya Abepura, Entrop, Distrik Jayapura Selatan, Kota Jayapura",PAPUA,99223.0,Indonesia,,-2.5730314,140.6890974,https://maps.google.com/?cid=0x0:0x91d39a51ec02c839
perumahan,perumahan,AKOMBEL,"FM3X+P3C, Jl. Setiapura II, Numbai, Distrik Jayapura Selatan, Kota Jayapura, Papua 99221","Jl. Setiapura II, Numbai, Distrik Jayapura Selatan, Kota Jayapura",PAPUA,99221.0,Indonesia,,-2.5455762,140.6977104,https://maps.google.com/?cid=0x0:0xe4187b5ffc27cbc2
perumahan,Pembangunan Perumahan,Perumahan BTN Permata Indah Abepura,"9MPH+5JH, Awiyo, Kec. Abepura, Kota Jayapura, Papua 99351","Awiyo, Kec. Abepura, Kota Jayapura",PAPUA,99351.0,Indonesia,85244346061.0,-2.614781,140.6795361,https://maps.google.com/?cid=0x0:0xe4dc32288dbbeee2
perumahan,Komplek perumahan,KEL. IBRAHIM HADI,"Jl. Ahmad Yani No.83, Gurabesi, Kec. Jayapura Utara, Kota Jayapura, Papua 99221","Gurabesi, Kec. Jayapura Utara, Kota Jayapura",PAPUA,99221.0,Indonesia,,-2.5445564,140.6985781,https://maps.google.com/?cid=0x0:0x8eea24dd990f422f
perumahan,Komplek perumahan,Alaika,"FM3V+5WX, Jl. Setiapura II, Mes, Bati Kodam Lama, Kota Jayapura, Papua 99221","Jl. Setiapura II, Mes, Bati Kodam Lama, Kota Jayapura",PAPUA,99221.0,Indonesia,,-2.5470165,140.6948598,https://maps.google.com/?cid=0x0:0xfe9e46c7332713af
perumahan,Komplek perumahan,Rumah mami Selfina,"FM3V+M49, Jl. Gurabesi, Gurabesi, Kec. Jayapura Utara, Kota Jayapura, Papua 99221","Jl. Gurabesi, Gurabesi, Kec. Jayapura Utara, Kota Jayapura",PAPUA,99221.0,Indonesia,,-2.5458114,140.6926916,https://maps.google.com/?cid=0x0:0xd0f45bd7f579c439
perumahan,Komplek perumahan,Main Deck,"CPP2+G4P, Jl. Abepura Abepura, Ardipura, Distrik Jayapura Selatan, Kota Jayapura, Papua 99221","Jl. Abepura Abepura, Ardipura, Distrik Jayapura Selatan, Kota Jayapura",PAPUA,99221.0,Indonesia,,-2.5636659,140.7003342,https://maps.google.com/?cid=0x0:0x58700fca539c8e43
perumahan,Pembangunan Perumahan,Skyline Jayapura Papua - Indonesia,"CM7H+W22, Jln.Raya Abepura,Megapura, Skyline, Entrop, Distrik Jayapura Selatan, Kota Jayapura, 99224","Jln.Raya Abepura,Megapura, Skyline, Entrop, Distrik Jayapura Selatan",PAPUA,99224.0,Indonesia,,-2.585228,140.6775022,https://maps.google.com/?cid=0x0:0x7d7f146c8515e3de
perumahan,Komplek perumahan,Rumahan,"Jl. Gurabesi No.63, Gurabesi, Kec. Jayapura Utara, Kota Jayapura, Papua 99221","Gurabesi, Kec. Jayapura Utara, Kota Jayapura",PAPUA,99221.0,Indonesia,,-2.546017,140.6926228,https://maps.google.com/?cid=0x0:0x169d17cfc624d0b4
perumahan,Pembangunan Perumahan,Rumah Clara Rahawarin,"CMJV+96M, Entrop, Distrik Jayapura Selatan, Kota Jayapura, Papua 99221","Entrop, Distrik Jayapura Selatan, Kota Jayapura",PAPUA,99221.0,Indonesia,,-2.569144,140.6928,https://maps.google.com/?cid=0x0:0x289c480613594169
perumahan,perumahan,Kec. Abepura,"Kota Jayapura, Papua","Kota Jayapura, Papua",PAPUA,,Indonesia,,-2.6813971,140.7662871,https://maps.google.com/?cid=0x0:0x75b53491c4439b2f
perumahan,Pembangunan Perumahan,Perumahan BTN Permata Indah Abepura,"9MPH+5JH, Awiyo, Kec. Abepura, Kota Jayapura, Papua 99351","Awiyo, Kec. Abepura, Kota Jayapura",PAPUA,99351.0,Indonesia,85244346061.0,-2.614781,140.6795361,https://maps.google.com/?cid=0x0:0xe4dc32288dbbeee2
perumahan,Komplek perumahan,PERUMAHAN ROYAL ABEPURA,"9MMJ+GPH, Asano, Kec. Abepura, Kota Jayapura, Papua 99351","Asano, Kec. Abepura, Kota Jayapura",PAPUA,99351.0,Indonesia,81233334828.0,-2.6161931,140.6818652,https://maps.google.com/?cid=0x0:0x1eb3668cf82f9995
perumahan,Perumahan,KOMPLEKS PERUMAHAN PURI GARDENIA ABEPURA,"Apuse 2 No.3, Wai Mhorock, Kec. Abepura, Kota Jayapura, Papua 99351","Wai Mhorock, Kec. Abepura, Kota Jayapura",PAPUA,99351.0,Indonesia,,-2.6088432,140.672681,https://maps.google.com/?cid=0x0:0xc1eef3644a5c8ccd
perumahan,Komplek perumahan,PERUM MAWAR SARON,"8QCX+CF8, Koya Bar., Kec. Muara Tami, Kota Jayapura, Papua 99351","Koya Bar., Kec. Muara Tami, Kota Jayapura",PAPUA,99351.0,Indonesia,82123884384.0,-2.6789707,140.7986897,https://maps.google.com/?cid=0x0:0x7f8c12d6ae4b4542
perumahan,Kantor Perusahaan,PERUMAHAN BP.RAMZI,"9Q2H+2C3, Koya Koso, Kec. Abepura, Kota Jayapura, Papua 99351","Koya Koso, Kec. Abepura, Kota Jayapura",PAPUA,99351.0,Indonesia,,-2.6499818,140.7785504,https://maps.google.com/?cid=0x0:0x4573a90c4817ba61
perumahan,Perumahan,Tanah Indah Fajarwati Langga,"8QX9+2G, Koya Koso, Kec. Abepura, Kota Jayapura, Papua","Kota Jayapura, Papua",PAPUA,,Indonesia,,-2.6524854,140.7687473,https://maps.google.com/?cid=0x0:0x9e8ce84c2678de1f
perumahan,Pembangunan Perumahan,Perumahan Grand FR Residence,"7QWR+3W3, Koya Bar., Kec. Muara Tami, Kota Jayapura, Papua 99351","Koya Bar., Kec. Muara Tami, Kota Jayapura",PAPUA,99351.0,Indonesia,85393509340.0,-2.7039151,140.7929797,https://maps.google.com/?cid=0x0:0x20f97aabe676e52b
perumahan,Komplek perumahan,Sopo Godang KMB,"8QC7+6R6, Koya Koso, Kec. Abepura, Kota Jayapura, Papua 99351","Koya Koso, Kec. Abepura, Kota Jayapura",PAPUA,99351.0,Indonesia,,-2.6794733,140.7645111,https://maps.google.com/?cid=0x0:0x1fb6c929647964ee
perumahan,Komplek perumahan,Kotaraja Jayapura,"9MWG+MX2, Wai Mhorock, Kec. Abepura, Kota Jayapura, Papua 99225","Wai Mhorock, Kec. Abepura, Kota Jayapura",PAPUA,99225.0,Indonesia,,-2.6033444,140.6772797,https://maps.google.com/?cid=0x0:0x55453b38be60dabf
perumahan,Komplek perumahan,Keluarga Wenno huwae,"8QVF+26V, Koya Koso, Kec. Abepura, Kota Jayapura, Papua 99351","Koya Koso, Kec. Abepura, Kota Jayapura",PAPUA,99351.0,Indonesia,,-2.6573809,140.7730373,https://maps.google.com/?cid=0x0:0x90968c90248abebb
perumahan,Perhimpunan Pengembang Perumahan,KUKUP - KILO 9 - KAMPUNG KOYA KOSO,"8QJ3+VHP, RT.01/RW.02, Koya Koso, Kec. Abepura, Kota Jayapura, Papua 99351","RT.01/RW.02, Koya Koso, Kec. Abepura, Kota Jayapura",PAPUA,99351.0,Indonesia,82396126232.0,-2.6674955,140.7540377,https://maps.google.com/?cid=0x0:0xe381ae69357285b6
perumahan,perumahan,Tanah,"8QWH+C53, Tanah Jayapura, Holtekam, Kec. Abepura, Kota Jayapura, Papua","Kota Jayapura, Papua",PAPUA,,Indonesia,,-2.6539924,140.7779228,https://maps.google.com/?cid=0x0:0x1b4c3489a1f97117
perumahan,Komplek perumahan,Perumnas 1 Waena,"Gang dahlia No.73, perumnas 1, Waena, Kec. Heram, Kota Jayapura, Papua","Kota Jayapura, Papua",PAPUA,,Indonesia,,-2.5973078,140.6371431,https://maps.google.com/?cid=0x0:0x1d3b36f6231c895a
perumahan,Komplek perumahan,"(Perumahan)Jl.Poros,Koya Barat, Kecamatan. Muara Tami, Kota Jayapura, Provinsi Papua, Indonesia","8RG3+H3C Perumahan)Jayapura, Jl. Nabire Koya Bar., Koya Bar., Kec. Muara Tami, Kota Jayapura, Papua 99351","Jl. Nabire Koya Bar., Koya Bar., Kec. Muara Tami, Kota Jayapura",PAPUA,99351.0,Indonesia,,-2.6735582,140.8026254,https://maps.google.com/?cid=0x0:0x9bab59c7bfb1993e
perumahan,perumahan,Papua 99351,"Kota Jayapura, Papua","Kota Jayapura, Papua",PAPUA,,Indonesia,,-2.685882,140.8872648,https://maps.google.com/?cid=0x0:0x540583c400ca05b3
perumahan,Perumahan,Perumahan Joyo Residence 1,"8QGX+3X, Koya Bar., Kec. Muara Tami, Kota Jayapura, Papua 99351","Koya Bar., Kec. Muara Tami, Kota Jayapura",PAPUA,99351.0,Indonesia,85254066110.0,-2.6749076,140.7999455,https://maps.google.com/?cid=0x0:0x6de08c86c7f69c
perumahan,Komplek perumahan,Perumahan SR,"8RH4+RQG, Koya Bar., Kec. Muara Tami, Kota Jayapura, Papua 99351","Koya Bar., Kec. Muara Tami, Kota Jayapura",PAPUA,99351.0,Indonesia,,-2.6704273,140.806946,https://maps.google.com/?cid=0x0:0xd7b272fbcfb495c2
perumahan,Perhimpunan Pengembang Perumahan,Perumahan Rollo Green Diamond,"perumahan Rollo grend diamond, Koya Tengah, Kec. Muara Tami, Kota Jayapura, Papua 99351","Koya Tengah, Kec. Muara Tami, Kota Jayapura",PAPUA,99351.0,Indonesia,,-2.6464855,140.8133531,https://maps.google.com/?cid=0x0:0x26ae5d8e3fabd4f4
perumahan,Komplek perumahan,Rumah Bulan,"8RJ3+CMW, Koya Bar., Kec. Muara Tami, Kota Jayapura, Papua 99351","Koya Bar., Kec. Muara Tami, Kota Jayapura",PAPUA,99351.0,Indonesia,,-2.6690351,140.8040884,https://maps.google.com/?cid=0x0:0xe1372bc84565fbf
perumahan,Komplek perumahan,Perumahan,"9R37+8XJ, Koya Tengah, Kec. Muara Tami, Kota Jayapura, Papua 99351","Koya Tengah, Kec. Muara Tami, Kota Jayapura",PAPUA,99351.0,Indonesia,,-2.646652,140.8148833,https://maps.google.com/?cid=0x0:0xfc81f63e1597c44a
perumahan,Pembangunan Perumahan,Perumahan Apernas Residence,"8RJ2+6M4, Koya Bar., Kec. Muara Tami, Kota Jayapura, Papua 99351","Koya Bar., Kec. Muara Tami, Kota Jayapura",PAPUA,99351.0,Indonesia,85344011111.0,-2.669487,140.8017031,https://maps.google.com/?cid=0x0:0x2c3be6b66dddad2d
perumahan,Pembangunan Perumahan,Perumahan Grand FR Residence,"7QWR+3W3, Koya Bar., Kec. Muara Tami, Kota Jayapura, Papua 99351","Koya Bar., Kec. Muara Tami, Kota Jayapura",PAPUA,99351.0,Indonesia,85393509340.0,-2.7039151,140.7929797,https://maps.google.com/?cid=0x0:0x20f97aabe676e52b
perumahan,Pembangunan Perumahan,PERUMAHAN GRAND MUTIARA,"JL. Manokwari, Koya Bar., Kec. Muara Tami, Kota Jayapura, Papua 99351","Koya Bar., Kec. Muara Tami, Kota Jayapura",PAPUA,99351.0,Indonesia,81247298769.0,-2.6708061,140.8079921,https://maps.google.com/?cid=0x0:0xf43fa07a35683667
perumahan,Pembangunan Perumahan,Perumahan Apernas,"9R45+X97, Jl. Poros, Koya Bar., Kec. Muara Tami, Kota Jayapura, Papua 99351","Jl. Poros, Koya Bar., Kec. Muara Tami, Kota Jayapura",PAPUA,99351.0,Indonesia,,-2.6425777,140.8084287,https://maps.google.com/?cid=0x0:0xe22864b00f179a44
perumahan,Gedung Apartemen,RUMAH BAGINDA,"8RC8+W6V, Jl. Tower 1, Koya Bar., Kec. Muara Tami, Kota Jayapura, Papua 99351","Jl. Tower 1, Koya Bar., Kec. Muara Tami, Kota Jayapura",PAPUA,99351.0,Indonesia,,-2.6776296,140.8155482,https://maps.google.com/?cid=0x0:0x4b0f3506859df0ae
perumahan,Pembangunan Perumahan,Perumahan mawar 4,"perumahan mawar saron 4, Jl. Serui, Koya Bar., Kec. Muara Tami, Kota Jayapura, Papua 99351","Jl. Serui, Koya Bar., Kec. Muara Tami, Kota Jayapura",PAPUA,99351.0,Indonesia,,-2.6689735,140.8000731,https://maps.google.com/?cid=0x0:0x95b656e4b49866b7
perumahan,Perumahan,Perumahan koya residence,"Jl. Paniai, Koya Bar., Kec. Muara Tami, Kota Jayapura, Papua 99351","Koya Bar., Kec. Muara Tami, Kota Jayapura",PAPUA,99351.0,Indonesia,85299816611.0,-2.6726913,140.8107539,https://maps.google.com/?cid=0x0:0x9b220206aa7f0c75
perumahan,Perumahan,Kompleks Asri Residence,"Kp. Waena, Kec. Heram, Kota Jayapura, Papua 99351","Kec. Heram, Kota Jayapura",PAPUA,99351.0,Indonesia,,-2.5960774,140.6294117,https://maps.google.com/?cid=0x0:0x11881a1f2d0d7adb
perumahan,perumahan,Kec. Heram,"Kota Jayapura, Papua","Kota Jayapura, Papua",PAPUA,,Indonesia,,-2.5968715,140.6349408,https://maps.google.com/?cid=0x0:0xae4be183bc9835dc
perumahan,Komplek perumahan,Perumnas 1 Waena,"Gang dahlia No.73, perumnas 1, Waena, Kec. Heram, Kota Jayapura, Papua","Kota Jayapura, Papua",PAPUA,,Indonesia,,-2.5973078,140.6371431,https://maps.google.com/?cid=0x0:0x1d3b36f6231c895a
perumahan,Komplek perumahan,Rumah Lutfi  Raihan,"CJ2H+JXF, Jl. Gelanggang II, Waena, Kec. Heram, Kota Jayapura, Papua 99351","Jl. Gelanggang II, Waena, Kec. Heram, Kota Jayapura",PAPUA,99351.0,Indonesia,,-2.5984486,140.629862,https://maps.google.com/?cid=0x0:0xd20e879c262ad79d
perumahan,Pembangunan Perumahan,PERUMAHAN GRIYA YOKA,"Perum Griya Yoka, Yoka, Kec. Heram, Kota Jayapura, Papua 99351","Yoka, Kec. Heram, Kota Jayapura",PAPUA,99351.0,Indonesia,,-2.6029267,140.6320616,https://maps.google.com/?cid=0x0:0x22c92ce8b7ef3581
perumahan,Komplek perumahan,Pesona Waena Indah,"CJ2J+984, Yoka, Kec. Heram, Kota Jayapura, Papua 99351","Yoka, Kec. Heram, Kota Jayapura",PAPUA,99351.0,Indonesia,8124810088.0,-2.5991135,140.6308348,https://maps.google.com/?cid=0x0:0x87f8a43efbd0975d
perumahan,Perumahan,Perumahan Griya Madani Expo,"CJ3H+GMF, Kp. Waena, Kec. Heram, Kota Jayapura, Papua 99351","Kp. Waena, Kec. Heram, Kota Jayapura",PAPUA,99351.0,Indonesia,,-2.5962654,140.6291393,https://maps.google.com/?cid=0x0:0x4a0828a4bc419775
perumahan,Komplek perumahan,Rumah,"9JXQ+PQF, Jl. Raya Abepura - Sentani, Hedam, Kec. Heram, Kota Jayapura, Papua 99351","Jl. Raya Abepura - Sentani, Hedam, Kec. Heram, Kota Jayapura",PAPUA,99351.0,Indonesia,,-2.6009797,140.6392419,https://maps.google.com/?cid=0x0:0xf58be2ce234a0d00
perumahan,Komplek perumahan,Rumah koko,"9JWM+V4H, Yoka, Kec. Heram, Kota Jayapura, Papua 99351","Yoka, Kec. Heram, Kota Jayapura",PAPUA,99351.0,Indonesia,,-2.6028869,140.6328765,https://maps.google.com/?cid=0x0:0x51fd6b5991439635
perumahan,Komplek perumahan,Rumah Mba Uli,"CJ3J+JGF, Kp. Waena, Kec. Heram, Kota Jayapura, Papua 99351","Kp. Waena, Kec. Heram, Kota Jayapura",PAPUA,99351.0,Indonesia,,-2.5962666,140.6313766,https://maps.google.com/?cid=0x0:0x254a0345d6c73851
perumahan,Pembangunan Perumahan,PERUMAHAN HUNIAN ASRI LUMBUNG BERKAT,"CJ4J+QQ6, Jl. Buper, Kp. Waena, Kec. Heram, Kota Jayapura, Papua 99225","Jl. Buper, Kp. Waena, Kec. Heram, Kota Jayapura",PAPUA,99225.0,Indonesia,,-2.5930931,140.631904,https://maps.google.com/?cid=0x0:0xcd4a533d4e225b9f
perumahan,Komplek perumahan,Rumah Hijau mas yok,"CJ2P+4WV, Kp. Waena, Kec. Heram, Kota Jayapura, Papua 99351","Kp. Waena, Kec. Heram, Kota Jayapura",PAPUA,99351.0,Indonesia,,-2.596637,140.633152,https://maps.google.com/?cid=0x0:0x8cd0018e768fd5c8
perumahan,Komplek perumahan,jayapura,"CJ2M+CXJ, Jl. Karang 4, Waena, Kec. Heram, Kota Jayapura, Papua 99351","Jl. Karang 4, Waena, Kec. Heram, Kota Jayapura",PAPUA,99351.0,Indonesia,,-2.5992049,140.6347096,https://maps.google.com/?cid=0x0:0xbddb444e84c2c463
perumahan,Komplek perumahan,Komp. TC Perkebunan Waena,"CJ2P+85F, Kp. Waena, Kec. Heram, Kota Jayapura, Papua 99351","Kp. Waena, Kec. Heram, Kota Jayapura",PAPUA,99351.0,Indonesia,,-2.5991787,140.6354068,https://maps.google.com/?cid=0x0:0xf05a6881c9a77ffc
housing complex,Perhimpunan Pengembang Perumahan,House,"CMWX+GP3, Jl. Ardipura Raya, Ardipura, Distrik Jayapura Selatan, Kota Jayapura, Papua 99222","Jl. Ardipura Raya, Ardipura, Distrik Jayapura Selatan, Kota Jayapura",PAPUA,99222.0,Indonesia,,-2.5535731,140.6989036,https://maps.google.com/?cid=0x0:0x561701f82b0a1183
housing complex,Komplek perumahan,Rezaldha House,"kompleks karantina grand, Gg. Matoa, Entrop, Distrik Jayapura Selatan, Kota Jayapura, Papua 99221","Gg. Matoa, Entrop, Distrik Jayapura Selatan, Kota Jayapura",PAPUA,99221.0,Indonesia,,-2.5761186,140.6908854,https://maps.google.com/?cid=0x0:0x87f03b215c42f55e
housing complex,Komplek perumahan,Family U House,"Hamadi, Distrik Jayapura Selatan, Kota Jayapura, Papua 99221","Distrik Jayapura Selatan, Kota Jayapura",PAPUA,99221.0,Indonesia,82248355043.0,-2.5620957,140.7072238,https://maps.google.com/?cid=0x0:0x459135b6f1f2ea33
housing complex,housing complex,Papua 99221,"Kota Jayapura, Papua","Kota Jayapura, Papua",PAPUA,,Indonesia,,-2.5407181,140.6638119,https://maps.google.com/?cid=0x0:0x22734bd942608dca
housing complex,Perumahan,Liam,"CMPX+GVP, Ardipura, Distrik Jayapura Selatan, Kota Jayapura, Papua 99221","Ardipura, Distrik Jayapura Selatan, Kota Jayapura",PAPUA,99221.0,Indonesia,,-2.5636736,140.6997124,https://maps.google.com/?cid=0x0:0x2787b0cb9df0347d
housing complex,Komplek perumahan,Perum Kel.Hukubun,"CMPW+VMG, RW.Bucend 2, Entrop, Distrik Jayapura Selatan, Kota Jayapura, Papua 99221","RW.Bucend 2, Entrop, Distrik Jayapura Selatan, Kota Jayapura",PAPUA,99221.0,Indonesia,,-2.5627375,140.6964844,https://maps.google.com/?cid=0x0:0x4c3e906ab275cfce
housing complex,Pembangunan Perumahan,Pondok 9,"CMMW+GVX, Entrop, Distrik Jayapura Selatan, Kota Jayapura, Papua 99221","Entrop, Distrik Jayapura Selatan, Kota Jayapura",PAPUA,99221.0,Indonesia,,-2.5653084,140.6974775,https://maps.google.com/?cid=0x0:0x6d1f9fc7d8f9d5cb
housing complex,housing complex,AKOMBEL,"FM3X+P3C, Jl. Setiapura II, Numbai, Distrik Jayapura Selatan, Kota Jayapura, Papua 99221","Jl. Setiapura II, Numbai, Distrik Jayapura Selatan, Kota Jayapura",PAPUA,99221.0,Indonesia,,-2.5455762,140.6977104,https://maps.google.com/?cid=0x0:0xe4187b5ffc27cbc2
housing complex,Komplek perumahan,Kompleks KPR BTN TNI AL,"CMPP+67G, KPR BTN AL, Sel, Entrop, Distrik Jayapura Selatan, Kota Jayapura, Papua 99223","KPR BTN AL, Sel, Entrop, Distrik Jayapura Selatan, Kota Jayapura",PAPUA,99223.0,Indonesia,82199575346.0,-2.5644496,140.6856908,https://maps.google.com/?cid=0x0:0x628461162a008ce7
housing complex,Komplek perumahan,Rumah hafidz,"FM2W+PFV, Numbai, Distrik Jayapura Selatan, Kota Jayapura, Papua","Kota Jayapura, Papua",PAPUA,,Indonesia,,-2.5481455,140.6961839,https://maps.google.com/?cid=0x0:0xffe5ee7fc2b95f3a
housing complex,Komplek perumahan,Imbiri House,"CPP5+37R, Jl. Klp. 2 No.22, Hamadi, Distrik Jayapura Selatan, Kota Jayapura, Papua 99221","Jl. Klp. 2 No.22, Hamadi, Distrik Jayapura Selatan, Kota Jayapura",PAPUA,99221.0,Indonesia,,-2.565084,140.7085263,https://maps.google.com/?cid=0x0:0x9781a2d40afdcca
housing complex,Komplek perumahan,Family Dawali Datu,"CPQ4+5V9, Hamadi, Distrik Jayapura Selatan, Kota Jayapura, Papua 99221","Hamadi, Distrik Jayapura Selatan, Kota Jayapura",PAPUA,99221.0,Indonesia,,-2.5620786,140.7070364,https://maps.google.com/?cid=0x0:0xfea83b44cf3105ad
housing complex,Komplek perumahan,Yoku Home,"CMMP+W2W, Entrop, Distrik Jayapura Selatan, Kota Jayapura, Papua 99223","Entrop, Distrik Jayapura Selatan, Kota Jayapura",PAPUA,99223.0,Indonesia,,-2.5651255,140.6850674,https://maps.google.com/?cid=0x0:0x5dbe96cbf319ffdf
housing complex,housing complex,rumah jupol,"CPR2+5JC, Ardipura, Distrik Jayapura Selatan, Kota Jayapura, Papua 99221","Ardipura, Distrik Jayapura Selatan, Kota Jayapura",PAPUA,99221.0,Indonesia,,-2.5595575,140.7015211,https://maps.google.com/?cid=0x0:0x8996873393821708
housing complex,housing complex,Papua 99222,"Distrik Jayapura Selatan, Kota Jayapura, Papua","Kota Jayapura, Papua",PAPUA,,Indonesia,,-2.5518785,140.7027292,https://maps.google.com/?cid=0x0:0xaed95d497fc99440
housing complex,Komplek perumahan,KOMPLEKS PERHUBUNGAN,"CPW4+94J, Ardipura, Distrik Jayapura Selatan, Kota Jayapura, Papua 99222","Ardipura, Distrik Jayapura Selatan, Kota Jayapura",PAPUA,99222.0,Indonesia,,-2.5540383,140.7052812,https://maps.google.com/?cid=0x0:0xe5318346e6ef74ba
housing complex,Perhimpunan Pengembang Perumahan,House,"CMWX+GP3, Jl. Ardipura Raya, Ardipura, Distrik Jayapura Selatan, Kota Jayapura, Papua 99222","Jl. Ardipura Raya, Ardipura, Distrik Jayapura Selatan, Kota Jayapura",PAPUA,99222.0,Indonesia,,-2.5535731,140.6989036,https://maps.google.com/?cid=0x0:0x561701f82b0a1183
housing complex,Komplek perumahan,Disini,"CPW4+94J, Ardipura, Distrik Jayapura Selatan, Kota Jayapura, Papua 99222","Ardipura, Distrik Jayapura Selatan, Kota Jayapura",PAPUA,99222.0,Indonesia,,-2.5539452,140.7053087,https://maps.google.com/?cid=0x0:0xd3ce385041952ab5
housing complex,housing complex,Rumah Alfa Kaigere,"CPV3+8MC, Polimak 2 Gunung (Lapangan, Ardipura, Jayapura Selatan, Jayapura City, Papua 99222","Polimak 2 Gunung (Lapangan, Ardipura, Jayapura Selatan, Jayapura City",PAPUA,99222.0,Indonesia,,-2.5566981,140.7041403,https://maps.google.com/?cid=0x0:0xc8ea9159097ed4b6
housing complex,housing complex,Keluarga Iriwadan,"CPX4+H8W, Ardipura, Distrik Jayapura Selatan, Kota Jayapura, Papua 99222","Ardipura, Distrik Jayapura Selatan, Kota Jayapura",PAPUA,99222.0,Indonesia,,-2.550868,140.705793,https://maps.google.com/?cid=0x0:0x934704acec3dc806
housing complex,Komplek perumahan,Lembah sikem,"FP34+Q77, Numbai, Distrik Jayapura Selatan, Kota Jayapura, Papua 99222","Numbai, Distrik Jayapura Selatan, Kota Jayapura",PAPUA,99222.0,Indonesia,,-2.5455906,140.7056657,https://maps.google.com/?cid=0x0:0x85a85789ebd2bf7e
housing complex,Pembangunan Perumahan,Home Kel Wambrauw,"Jl. Batu Karang Polimak ll Perum Kesehatan No.9, Ardipura, Distrik Jayapura Selatan, Kota Jayapura, Papua 99222","Ardipura, Distrik Jayapura Selatan, Kota Jayapura",PAPUA,99222.0,Indonesia,,-2.5544617,140.7050703,https://maps.google.com/?cid=0x0:0x8b47f315e1893c3c
housing complex,Pembangunan Perumahan,Komplek perumahan kesehatan Jl.batu karang,"CPW4+32G, Ardipura, Distrik Jayapura Selatan, Kota Jayapura, Papua 99222","Ardipura, Distrik Jayapura Selatan, Kota Jayapura",PAPUA,99222.0,Indonesia,,-2.5548087,140.7050767,https://maps.google.com/?cid=0x0:0x38dd6f19e6606fb9
housing complex,Komplek perumahan,KEL J E SUWAE,"Jl. Raya Ardipura No.20, RT.003/RW.009, Ardipura, Distrik Jayapura Selatan, Kota Jayapura, Papua 99222","RT.003/RW.009, Ardipura, Distrik Jayapura Selatan, Kota Jayapura",PAPUA,99222.0,Indonesia,,-2.5554208,140.7048251,https://maps.google.com/?cid=0x0:0x8c6fd29177b6e0f
housing complex,Komplek perumahan,Rumah prilly,"JL. Amphibi No.50-52, Ardipura, Distrik Jayapura Selatan, Kota Jayapura, Papua 99222","Ardipura, Distrik Jayapura Selatan, Kota Jayapura",PAPUA,99222.0,Indonesia,,-2.5517563,140.7029185,https://maps.google.com/?cid=0x0:0x7a08d8e95426981e
housing complex,housing complex,Kompleks Perumahan Bappeda Provinsi Papua,"Jl. Ardipura Raya No.20, Ardipura, Distrik Jayapura Selatan, Kota Jayapura, Papua 99222","Ardipura, Distrik Jayapura Selatan, Kota Jayapura",PAPUA,99222.0,Indonesia,,-2.5472239,140.7029547,https://maps.google.com/?cid=0x0:0xf990fe7733fbf722
housing complex,Komplek perumahan,Kos2an Pak Saiful,"CMWX+HRV, Ardipura, Distrik Jayapura Selatan, Kota Jayapura, Papua 99222","Ardipura, Distrik Jayapura Selatan, Kota Jayapura",PAPUA,99222.0,Indonesia,81248459522.0,-2.5535115,140.699546,https://maps.google.com/?cid=0x0:0x5533171a3f1a6d7e
housing complex,housing complex,Kompleks Perumahan Bappeda Motul Polimak,"FP33+44F, Jl. Ardipura Raya, Ardipura, Distrik Jayapura Selatan, Kota Jayapura, Papua","Kota Jayapura, Papua",PAPUA,,Indonesia,,-2.5471846,140.7028013,https://maps.google.com/?cid=0x0:0xe58e9b6ba1c8e8f1
housing complex,housing complex,Papua 99223,"Entrop, Distrik Jayapura Selatan, Kota Jayapura, Papua","Kota Jayapura, Papua",PAPUA,,Indonesia,,-2.5603966,140.6689995,https://maps.google.com/?cid=0x0:0xba9a08c8ddb16a58
housing complex,Perhimpunan Pengembang Perumahan,House,"CMWX+GP3, Jl. Ardipura Raya, Ardipura, Distrik Jayapura Selatan, Kota Jayapura, Papua 99222","Jl. Ardipura Raya, Ardipura, Distrik Jayapura Selatan, Kota Jayapura",PAPUA,99222.0,Indonesia,,-2.5535731,140.6989036,https://maps.google.com/?cid=0x0:0x561701f82b0a1183
housing complex,Komplek perumahan,CA 29,"Blk. CA No.33, Entrop, Distrik Jayapura Selatan, Kota Jayapura, Papua 99223","Entrop, Distrik Jayapura Selatan, Kota Jayapura",PAPUA,99223.0,Indonesia,,-2.5689408,140.6878412,https://maps.google.com/?cid=0x0:0xe0ec1896247803d3
housing complex,Komplek perumahan,Kompleks KPR BTN TNI AL,"CMPP+67G, KPR BTN AL, Sel, Entrop, Distrik Jayapura Selatan, Kota Jayapura, Papua 99223","KPR BTN AL, Sel, Entrop, Distrik Jayapura Selatan, Kota Jayapura",PAPUA,99223.0,Indonesia,82199575346.0,-2.5644496,140.6856908,https://maps.google.com/?cid=0x0:0x628461162a008ce7
housing complex,housing complex,AF27 Gaming House,"Jaya Asri, Blk. AF No.27, Entrop, Jayapura Selatan, Jayapura City, Papua 99223","Blk. AF No.27, Entrop, Jayapura Selatan, Jayapura City",PAPUA,99223.0,Indonesia,,-2.568363,140.6886127,https://maps.google.com/?cid=0x0:0x72d62263616b410d
housing complex,Komplek perumahan,KOMPLEKS PERHUBUNGAN,"CPW4+94J, Ardipura, Distrik Jayapura Selatan, Kota Jayapura, Papua 99222","Ardipura, Distrik Jayapura Selatan, Kota Jayapura",PAPUA,99222.0,Indonesia,,-2.5540383,140.7052812,https://maps.google.com/?cid=0x0:0xe5318346e6ef74ba
housing complex,Komplek perumahan,RUMAH,"Perum Jaya asri, Blk. AF No.38, Entrop, Distrik Jayapura Selatan, Kota Jayapura, Papua 99223","Blk. AF No.38, Entrop, Distrik Jayapura Selatan, Kota Jayapura",PAPUA,99223.0,Indonesia,,-2.568705,140.6893533,https://maps.google.com/?cid=0x0:0x6cebd4a6593bd2de
housing complex,Komplek perumahan,Yoku Home,"CMMP+W2W, Entrop, Distrik Jayapura Selatan, Kota Jayapura, Papua 99223","Entrop, Distrik Jayapura Selatan, Kota Jayapura",PAPUA,99223.0,Indonesia,,-2.5651255,140.6850674,https://maps.google.com/?cid=0x0:0x5dbe96cbf319ffdf
housing complex,Perumahan,Perumahan Jayaasri blok AD.03,"CMMQ+66F, Entrop, Distrik Jayapura Selatan, Kota Jayapura, Papua 99223","Entrop, Distrik Jayapura Selatan, Kota Jayapura",PAPUA,99223.0,Indonesia,,-2.5669438,140.6880408,https://maps.google.com/?cid=0x0:0x3fbdd336ccb9a848
housing complex,Komplek perumahan,Perumahan JAYA ASRI block ad no. 19,"Perumahan Jaya Asri, Blk. AD No.19, Entrop, Distrik Jayapura Selatan, Kota Jayapura, Papua 99223","Blk. AD No.19, Entrop, Distrik Jayapura Selatan, Kota Jayapura",PAPUA,99223.0,Indonesia,85243117989.0,-2.5681544,140.689139,https://maps.google.com/?cid=0x0:0x198dbe1de6a8d241
housing complex,Komplek perumahan,Zivania Home,"CMHP+P9M, Entrop, Distrik Jayapura Selatan, Kota Jayapura, Papua 99223","Entrop, Distrik Jayapura Selatan, Kota Jayapura",PAPUA,99223.0,Indonesia,,-2.5706387,140.6868779,https://maps.google.com/?cid=0x0:0x8ee24b36f0ba924c
housing complex,Kompleks Townhouse,Han,"CMPX+FC4, Ardipura, Distrik Jayapura Selatan, Kota Jayapura, Papua 99221","Ardipura, Distrik Jayapura Selatan, Kota Jayapura",PAPUA,99221.0,Indonesia,,-2.5638291,140.6986102,https://maps.google.com/?cid=0x0:0xa472001a9fac5a3d
housing complex,Komplek perumahan,Rezaldha House,"kompleks karantina grand, Gg. Matoa, Entrop, Distrik Jayapura Selatan, Kota Jayapura, Papua 99221","Gg. Matoa, Entrop, Distrik Jayapura Selatan, Kota Jayapura",PAPUA,99221.0,Indonesia,,-2.5761186,140.6908854,https://maps.google.com/?cid=0x0:0x87f03b215c42f55e
housing complex,Pembangunan Perumahan,Perumahan megapura skyland,"rumah nomer 2 dari atas pagar hitam cat pink, Perumahan megapura skyland, Jalur 4","Kota Jayapura, Papua",PAPUA,,Indonesia,,-2.585228,140.6775022,https://maps.google.com/?cid=0x0:0x3969abf37518816
housing complex,Pembangunan Perumahan,Perumahan megapura skyland,"rumah nomer 2 dari atas pagar hitam cat pink, Perumahan megapura skyland, Jalur 4","Kota Jayapura, Papua",PAPUA,,Indonesia,,-2.585228,140.6775022,https://maps.google.com/?cid=0x0:0x3969abf37518816
housing complex,housing complex,Papua 99224,"Kota Jayapura, Papua","Kota Jayapura, Papua",PAPUA,,Indonesia,,-2.579706,140.6638119,https://maps.google.com/?cid=0x0:0x9db3c17a7f47219
housing complex,Pembangunan Perumahan,Complex,"9JVG+27P, Yoka, Kec. Heram, Kota Jayapura, Papua 99351","Yoka, Kec. Heram, Kota Jayapura",PAPUA,99351.0,Indonesia,,-2.6073916,140.6257093,https://maps.google.com/?cid=0x0:0x6c0a5eb52b20c326
housing complex,Komplek perumahan,Rumah Kos Lambale,"CM9G+6PV, Entrop, Distrik Jayapura Selatan, Kota Jayapura, Papua 99224","Entrop, Distrik Jayapura Selatan, Kota Jayapura",PAPUA,99224.0,Indonesia,,-2.5818902,140.6767847,https://maps.google.com/?cid=0x0:0x15ff1623f9c44d9d
housing complex,Komplek perumahan,Kios keluarga,"CM7J+PWG, Entrop, Distrik Jayapura Selatan, Kota Jayapura, Papua 99224","Entrop, Distrik Jayapura Selatan, Kota Jayapura",PAPUA,99224.0,Indonesia,,-2.5856299,140.6823053,https://maps.google.com/?cid=0x0:0xccb13634fac87119
housing complex,Komplek perumahan,Perumahan Nifana Elok Residence,"CM6C+QGP, Wahno, Kec. Abepura, Kota Jayapura, Papua 99224","Wahno, Kec. Abepura, Kota Jayapura",PAPUA,99224.0,Indonesia,,-2.5878234,140.6718804,https://maps.google.com/?cid=0x0:0xa169f00e72db4140
housing complex,Komplek perumahan,Kediaman Keluarga Riswan,"CMCF+MWC, Entrop, Distrik Jayapura Selatan, Kota Jayapura, Papua","Kota Jayapura, Papua",PAPUA,,Indonesia,,-2.5782545,140.6751462,https://maps.google.com/?cid=0x0:0xcff8c340b7bc414e
housing complex,Pembangunan Perumahan,Kinmom II Skyline,"CM7J+PWG, Entrop, Distrik Jayapura Selatan, Kota Jayapura, Papua 99224","Entrop, Distrik Jayapura Selatan, Kota Jayapura",PAPUA,99224.0,Indonesia,,-2.585325,140.682693,https://maps.google.com/?cid=0x0:0x964393f135599e41
housing complex,Komplek perumahan,KIOS HAIKAL,"CM9G+HMJ, Entrop, Distrik Jayapura Selatan, Kota Jayapura, Papua","Kota Jayapura, Papua",PAPUA,,Indonesia,,-2.5810483,140.6766403,https://maps.google.com/?cid=0x0:0xe03e0e66bf3e0afb
housing complex,Komplek perumahan,ððªð¢ðð ððð¡. ð¿ðð¨ðð§ð¤ð£ð,"CM7G+2RG Tanjakan Gapura Asrama Brimob, Jl. Jeruk Nipis, Entrop, Kec. Abepura, Kota Jayapura, Papua 99224","Jl. Jeruk Nipis, Entrop, Kec. Abepura, Kota Jayapura",PAPUA,99224.0,Indonesia,,-2.5874437,140.6770741,https://maps.google.com/?cid=0x0:0x2180d0a78bb61fe1
housing complex,Perhimpunan Pengembang Perumahan,"Perumahan Permata Wahno Jl. Jeruk Nipis Furia, Kotaraja, Jayapura","CM4G+CGW, Jl. Jeruk Nipis, Wahno, Kec. Abepura, Kota Jayapura, Papua 99224","Jl. Jeruk Nipis, Wahno, Kec. Abepura, Kota Jayapura",PAPUA,99224.0,Indonesia,,-2.5938423,140.676359,https://maps.google.com/?cid=0x0:0xfb477083673ff6ee
housing complex,Komplek perumahan,Keluarga N.F Apaseray,"CM7P+R8W, Entrop, Distrik Jayapura Selatan, Kota Jayapura, Papua 99224","Entrop, Distrik Jayapura Selatan, Kota Jayapura",PAPUA,99224.0,Indonesia,,-2.584569,140.6854241,https://maps.google.com/?cid=0x0:0x60512c0a4b564449
housing complex,Komplek perumahan,KOMPLEKS PERHUBUNGAN,"CPW4+94J, Ardipura, Distrik Jayapura Selatan, Kota Jayapura, Papua 99222","Ardipura, Distrik Jayapura Selatan, Kota Jayapura",PAPUA,99222.0,Indonesia,,-2.5540383,140.7052812,https://maps.google.com/?cid=0x0:0xe5318346e6ef74ba
housing complex,Komplek perumahan,Shanty,"Jalur 4 No.180, Wahno, Kec. Abepura, Kota Jayapura, Papua 99224","Wahno, Kec. Abepura, Kota Jayapura",PAPUA,99224.0,Indonesia,,-2.593311,140.6735592,https://maps.google.com/?cid=0x0:0x7e72f93c933b0598
housing complex,Komplek perumahan,Kompleks Pagar Belanda,"9MX2+53G, Jl. Sosial Padang Bulan, Hedam, Kec. Heram, Kota Jayapura, Papua","Kota Jayapura, Papua",PAPUA,,Indonesia,,-2.6020722,140.6501914,https://maps.google.com/?cid=0x0:0xe9ebbc6d8b905c59
housing complex,housing complex,Papua 99225,"Kota Jayapura, Papua","Kota Jayapura, Papua",PAPUA,,Indonesia,,-2.5949282,140.653438,https://maps.google.com/?cid=0x0:0x21414c78014e775a
housing complex,Komplek perumahan,Kelabu home,"CJ8W+8JW, Yabansai, Kec. Heram, Kota Jayapura, Papua 99225","Yabansai, Kec. Heram, Kota Jayapura",PAPUA,99225.0,Indonesia,,-2.584143,140.6465847,https://maps.google.com/?cid=0x0:0x3ab7a5094d25e030
housing complex,Kantor Perusahaan,Perumnas IV Blok C No 28,"CM22+M48, Hedam, Kec. Heram, Kota Jayapura, Papua 99225","Hedam, Kec. Heram, Kota Jayapura",PAPUA,99225.0,Indonesia,,-2.5983575,140.6500683,https://maps.google.com/?cid=0x0:0x8d889be22ca5b10c
housing complex,Komplek perumahan,Pdt. Gelphy Nartha GBI. KWFC,"CJ5R+G7J, Jl. Taruna Bhakti, Kp. Waena, Kec. Heram, Kota Jayapura, Papua 99225","Jl. Taruna Bhakti, Kp. Waena, Kec. Heram, Kota Jayapura",PAPUA,99225.0,Indonesia,813330013330.0,-2.5911719,140.6406396,https://maps.google.com/?cid=0x0:0x1366002a81373c4d
housing complex,Pembangunan Perumahan,Complex,"9JVG+27P, Yoka, Kec. Heram, Kota Jayapura, Papua 99351","Yoka, Kec. Heram, Kota Jayapura",PAPUA,99351.0,Indonesia,,-2.6073916,140.6257093,https://maps.google.com/?cid=0x0:0x6c0a5eb52b20c326
housing complex,Komplek perumahan,Home,"CM32+M2M, Jl. Perumnas IV Padang Bulan, Hedam, Kec. Heram, Kota Jayapura, Papua 99225","Jl. Perumnas IV Padang Bulan, Hedam, Kec. Heram, Kota Jayapura",PAPUA,99225.0,Indonesia,,-2.5955669,140.6502198,https://maps.google.com/?cid=0x0:0x12c8bfa8545fe1d9
housing complex,Komplek perumahan,kota jayapura,"9MV2+JMH, Hedam, Kec. Heram, Kota Jayapura, Papua","Kota Jayapura, Papua",PAPUA,,Indonesia,,-2.6059354,140.6517359,https://maps.google.com/?cid=0x0:0xcf38ed1e37dddf37
housing complex,Komplek perumahan,Keluarga Dasinapa,"Hedam, Kec. Heram, Kota Jayapura, Papua 99225","Kec. Heram, Kota Jayapura",PAPUA,99225.0,Indonesia,,-2.6023255,140.6583991,https://maps.google.com/?cid=0x0:0xe859808c89b02642
housing complex,Komplek perumahan,Perumahan Kehutanan Padang Bulan Sosial,"CJ3X+7M9, Hedam, Kec. Heram, Kota Jayapura, Papua 99225","Hedam, Kec. Heram, Kota Jayapura",PAPUA,99225.0,Indonesia,,-2.5968334,140.6492351,https://maps.google.com/?cid=0x0:0x19ddbe17e05c00f8
housing complex,Komplek perumahan,Kel. E. Dimo,"Perumahan Kehutanan, Jl. Perumnas IV Padang Bulan Sosial No.9, Hedam, Kec. Heram, Kota Jayapura, Papua 99225","Jl. Perumnas IV Padang Bulan Sosial No.9, Hedam, Kec. Heram, Kota Jayapura",PAPUA,99225.0,Indonesia,,-2.5968289,140.6492401,https://maps.google.com/?cid=0x0:0xb20432d652209693
housing complex,Komplek perumahan,Mabes Iks.pi kera sakti kota jayapura,"CM32+954, Jl. Perumnas IV Padang Bulan, Hedam, Kec. Heram, Kota Jayapura, Papua 99225","Jl. Perumnas IV Padang Bulan, Hedam, Kec. Heram, Kota Jayapura",PAPUA,99225.0,Indonesia,,-2.5966238,140.6504531,https://maps.google.com/?cid=0x0:0x649d818855c998f9
housing complex,Perumahan,Polipaga 2,"CM34+X8, Hedam, Kec. Heram, Kota Jayapura, Papua 99225","Hedam, Kec. Heram, Kota Jayapura",PAPUA,99225.0,Indonesia,,-2.5951224,140.6557934,https://maps.google.com/?cid=0x0:0xc2489db8ec1a8144
housing complex,Pembangunan Perumahan,Kaper,"9MV3+WQC, Hedam, Kec. Heram, Kota Jayapura, Papua","Kota Jayapura, Papua",PAPUA,,Indonesia,,-2.6051784,140.6544056,https://maps.google.com/?cid=0x0:0xb10ec526ca462f81
housing complex,Komplek perumahan,Jalkos,"Furia indah Kotaraja, jalan Itik Jalur 0 No.25 A, Wahno, Kec. Abepura, Kota Jayapura, Papua 99224","jalan Itik Jalur 0 No.25 A, Wahno, Kec. Abepura, Kota Jayapura",PAPUA,99224.0,Indonesia,,-2.5948401,140.672398,https://maps.google.com/?cid=0x0:0x401dbdf59f7777e8
housing complex,housing complex,Papua 99226,"Wahno, Kec. Abepura, Kota Jayapura, Papua","Kota Jayapura, Papua",PAPUA,,Indonesia,,-2.5940542,140.6740309,https://maps.google.com/?cid=0x0:0xfee9da6af66c7cd1
housing complex,Pembangunan Perumahan,Complex,"9JVG+27P, Yoka, Kec. Heram, Kota Jayapura, Papua 99351","Yoka, Kec. Heram, Kota Jayapura",PAPUA,99351.0,Indonesia,,-2.6073916,140.6257093,https://maps.google.com/?cid=0x0:0x6c0a5eb52b20c326
housing complex,Pembangunan Perumahan,Rumah Furia,"Jalur 2 No.64, Wahno, Kec. Abepura, Kota Jayapura, Papua 99224","Wahno, Kec. Abepura, Kota Jayapura",PAPUA,99224.0,Indonesia,,-2.5942863,140.6736722,https://maps.google.com/?cid=0x0:0xc1091bb6fa8bb6cc
housing complex,Komplek perumahan,Rumah Manto,"CM4F+468, Vim, Kec. Abepura, Kota Jayapura, Papua 99224","Vim, Kec. Abepura, Kota Jayapura",PAPUA,99224.0,Indonesia,,-2.594692,140.6730566,https://maps.google.com/?cid=0x0:0x94cfcaff336bfdf8
housing complex,Taman,Jayapura indonesia,"CM59+9JM, Vim, Kec. Abepura, Kota Jayapura, Papua","Kota Jayapura, Papua",PAPUA,,Indonesia,,-2.5915361,140.6690327,https://maps.google.com/?cid=0x0:0x36d12b5d47b1acf
housing complex,Komplek perumahan,Rumah Zah,"FP73+C9F, Bayangkara, Kec. Jayapura Utara, Kota Jayapura, Papua","Kota Jayapura, Papua",PAPUA,,Indonesia,,-2.5364319,140.7034365,https://maps.google.com/?cid=0x0:0xfba4c00a11f0fe88
housing complex,housing complex,Papua 99111,"Kec. Jayapura Utara, Kota Jayapura, Papua","Kota Jayapura, Papua",PAPUA,,Indonesia,,-2.5084418,140.6326954,https://maps.google.com/?cid=0x0:0xdf06080a6648cb6c
housing complex,Komplek perumahan,Rumahku,"apo kali, Jl. Kab. 2, Bayangkara, Kec. Jayapura Utara, Kota Jayapura, Papua 99112","Jl. Kab. 2, Bayangkara, Kec. Jayapura Utara, Kota Jayapura",PAPUA,99112.0,Indonesia,,-2.5331641,140.7040933,https://maps.google.com/?cid=0x0:0xb21e894d544e4bb3
housing complex,Komplek perumahan,RUMAH BOWO TENTARA,"FP62+VWW, Jl. Tugu 1, Bayangkara, Kec. Jayapura Utara, Kota Jayapura, Papua","Kota Jayapura, Papua",PAPUA,,Indonesia,,-2.5377627,140.7023331,https://maps.google.com/?cid=0x0:0xcfe926c6cd689171
housing complex,Komplek perumahan,Sysl,"FM5X+82M, Gurabesi, Kec. Jayapura Utara, Kota Jayapura, Papua","Kota Jayapura, Papua",PAPUA,,Indonesia,,-2.5416543,140.6975349,https://maps.google.com/?cid=0x0:0xa7ce6214cf893ee8
housing complex,Komplek perumahan,Keluarga Manuhutu,"APO, Jl. Kab. 2 No.20, Bayangkara, Kec. Jayapura Utara, Kota Jayapura, Papua 99112","Jl. Kab. 2 No.20, Bayangkara, Kec. Jayapura Utara, Kota Jayapura",PAPUA,99112.0,Indonesia,,-2.5355551,140.7052008,https://maps.google.com/?cid=0x0:0x19798801f2be24e8
housing complex,Pembangunan Perumahan,Keluarga Korwa,"FP73+PFM, Bayangkara, Kec. Jayapura Utara, Kota Jayapura, Papua","Kota Jayapura, Papua",PAPUA,,Indonesia,,-2.5355356,140.7035247,https://maps.google.com/?cid=0x0:0x8036d1850c869fd7
housing complex,Komplek perumahan,Kompleks Toraja,"FP82+3W4, Jl. Tugu 1, Bayangkara, Kec. Jayapura Utara, Kota Jayapura, Papua","Kota Jayapura, Papua",PAPUA,,Indonesia,,-2.5351953,140.7023569,https://maps.google.com/?cid=0x0:0xce85653f0be5a073
housing complex,Komplek perumahan,Kloofkamp,"FM4W+266, Jl. Ahmad Yani, Gurabesi, Kec. Jayapura Utara, Kota Jayapura, Papua 99221","Jl. Ahmad Yani, Gurabesi, Kec. Jayapura Utara, Kota Jayapura",PAPUA,99221.0,Indonesia,81245853455.0,-2.5414062,140.6981676,https://maps.google.com/?cid=0x0:0xfc535990701ffdfa
housing complex,housing complex,Rumah Kel. Eddy Tan Rifurareany,"FP73+658, Jl. Tugu 1, Bayangkara, Kec. Jayapura Utara, Kota Jayapura, Papua","Kota Jayapura, Papua",PAPUA,,Indonesia,,-2.5366355,140.7029876,https://maps.google.com/?cid=0x0:0x32c39c74bd9e642d
housing complex,Komplek perumahan,Pondok Van De Venter,"FP84+H54, Bayangkara, Kec. Jayapura Utara, Kota Jayapura, Papua 99112","Bayangkara, Kec. Jayapura Utara, Kota Jayapura",PAPUA,99112.0,Indonesia,,-2.5335651,140.7054986,https://maps.google.com/?cid=0x0:0x99af892453b8f6a8
housing complex,Pembangunan Perumahan,Perumahan penerangan kabupaten 1 Apo Jayapura,"FP84+5MJ, Bayangkara, Kec. Jayapura Utara, Kota Jayapura, Papua 99112","Bayangkara, Kec. Jayapura Utara, Kota Jayapura",PAPUA,99112.0,Indonesia,,-2.5346272,140.7066521,https://maps.google.com/?cid=0x0:0x55d25f58cc649958
housing complex,Komplek perumahan,CIGOMBONG BLOK L 1,"Jl. Apeo kali, Bayangkara, Kec. Jayapura Utara, Kota Jayapura, Papua","Kota Jayapura, Papua",PAPUA,,Indonesia,,-2.5360934,140.7053902,https://maps.google.com/?cid=0x0:0xa5169af5dc373aa0
housing complex,Komplek perumahan,KEL. IBRAHIM HADI,"Jl. Ahmad Yani No.83, Gurabesi, Kec. Jayapura Utara, Kota Jayapura, Papua 99221","Gurabesi, Kec. Jayapura Utara, Kota Jayapura",PAPUA,99221.0,Indonesia,,-2.5445564,140.6985781,https://maps.google.com/?cid=0x0:0x8eea24dd990f422f
housing complex,housing complex,Papua 99112,"Bayangkara, Kec. Jayapura Utara, Kota Jayapura, Papua","Kota Jayapura, Papua",PAPUA,,Indonesia,,-2.5099296,140.6741875,https://maps.google.com/?cid=0x0:0x1e30ed7c2a61f1f1
housing complex,Komplek perumahan,Keluarga Manuhutu,"APO, Jl. Kab. 2 No.20, Bayangkara, Kec. Jayapura Utara, Kota Jayapura, Papua 99112","Jl. Kab. 2 No.20, Bayangkara, Kec. Jayapura Utara, Kota Jayapura",PAPUA,99112.0,Indonesia,,-2.5355551,140.7052008,https://maps.google.com/?cid=0x0:0x19798801f2be24e8
housing complex,Komplek perumahan,Rumahku,"apo kali, Jl. Kab. 2, Bayangkara, Kec. Jayapura Utara, Kota Jayapura, Papua 99112","Jl. Kab. 2, Bayangkara, Kec. Jayapura Utara, Kota Jayapura",PAPUA,99112.0,Indonesia,,-2.5331641,140.7040933,https://maps.google.com/?cid=0x0:0xb21e894d544e4bb3
housing complex,Komplek perumahan,Rumah M iqbal,"FP97+494, Bayangkara, Kec. Jayapura Utara, Kota Jayapura, Papua 99112","Bayangkara, Kec. Jayapura Utara, Kota Jayapura",PAPUA,99112.0,Indonesia,,-2.532409,140.71305,https://maps.google.com/?cid=0x0:0x9425c500f70cf08a
housing complex,Komplek perumahan,Ebha. Aronggear,"FP85+VH9, Bayangkara, Kec. Jayapura Utara, Kota Jayapura, Papua 99112","Bayangkara, Kec. Jayapura Utara, Kota Jayapura",PAPUA,99112.0,Indonesia,,-2.53285,140.7089873,https://maps.google.com/?cid=0x0:0x1ce127c3d963bdd7
housing complex,Komplek perumahan,Rumah Zah,"FP73+C9F, Bayangkara, Kec. Jayapura Utara, Kota Jayapura, Papua","Kota Jayapura, Papua",PAPUA,,Indonesia,,-2.5364319,140.7034365,https://maps.google.com/?cid=0x0:0xfba4c00a11f0fe88
housing complex,Komplek perumahan,Rumah dr ata,"FP83+8CM, Jl. Kab. 2, Bayangkara, Kec. Jayapura Utara, Kota Jayapura, Papua 99112","Jl. Kab. 2, Bayangkara, Kec. Jayapura Utara, Kota Jayapura",PAPUA,99112.0,Indonesia,,-2.534282,140.703811,https://maps.google.com/?cid=0x0:0x36ca1a26017fac7
housing complex,housing complex,Rumah Kos Bu Desy,"FP95+63V, Bayangkara, Kec. Jayapura Utara, Kota Jayapura, Papua 99112","Bayangkara, Kec. Jayapura Utara, Kota Jayapura",PAPUA,99112.0,Indonesia,,-2.531887,140.707662,https://maps.google.com/?cid=0x0:0x560bd8adf9d59fe1
housing complex,Komplek perumahan,Pondok Van De Venter,"FP84+H54, Bayangkara, Kec. Jayapura Utara, Kota Jayapura, Papua 99112","Bayangkara, Kec. Jayapura Utara, Kota Jayapura",PAPUA,99112.0,Indonesia,,-2.5335651,140.7054986,https://maps.google.com/?cid=0x0:0x99af892453b8f6a8
housing complex,Pembangunan Perumahan,amelia maniss,"Jl. Kesehatan Komp. RSUD No.II, Dok 2, Bayangkara, Kec. Jayapura Utara, Kota Jayapura, Papua 99112","Dok 2, Bayangkara, Kec. Jayapura Utara, Kota Jayapura",PAPUA,99112.0,Indonesia,,-2.5330694,140.7077974,https://maps.google.com/?cid=0x0:0x3672aa135e3aff5b
housing complex,Perhimpunan Pengembang Perumahan,Kel. A. Youwe,"FPF5+X59, Jl. Bhayangkara, Bayangkara, Kec. Jayapura Utara, Kota Jayapura, Papua","Kota Jayapura, Papua",PAPUA,,Indonesia,,-2.5250858,140.7079865,https://maps.google.com/?cid=0x0:0xcaf4208358440573
housing complex,Komplek perumahan,KURNIAKU,"FP84+J58, Jl. Kab. 2, Bayangkara, Kec. Jayapura Utara, Kota Jayapura, Papua 99112","Jl. Kab. 2, Bayangkara, Kec. Jayapura Utara, Kota Jayapura",PAPUA,99112.0,Indonesia,,-2.5333868,140.7052853,https://maps.google.com/?cid=0x0:0xb548c14747bf3ca3
housing complex,Komplek perumahan,RUMAH BOWO TENTARA,"FP62+VWW, Jl. Tugu 1, Bayangkara, Kec. Jayapura Utara, Kota Jayapura, Papua","Kota Jayapura, Papua",PAPUA,,Indonesia,,-2.5377627,140.7023331,https://maps.google.com/?cid=0x0:0xcfe926c6cd689171
housing complex,Komplek perumahan,Dok 5 Yapis,"Jl. Samratulangi No.15, Mandala, Kec. Jayapura Utara, Kota Jayapura, Papua 99112","Mandala, Kec. Jayapura Utara, Kota Jayapura",PAPUA,99112.0,Indonesia,,-2.5290777,140.7162059,https://maps.google.com/?cid=0x0:0xe6ef35e0ee177501
housing complex,housing complex,Papua 99113,"Kec. Jayapura Utara, Kota Jayapura, Papua","Kota Jayapura, Papua",PAPUA,,Indonesia,,-2.4943571,140.6741875,https://maps.google.com/?cid=0x0:0x4a109ffe0e6c7e65
housing complex,Pembangunan Perumahan,Tanah,"FMJF+WM8, Bayangkara, Kec. Jayapura Utara, Kota Jayapura, Papua","Kota Jayapura, Papua",PAPUA,,Indonesia,,-2.5177184,140.6741875,https://maps.google.com/?cid=0x0:0x39404a5863d433bc
housing complex,Komplek perumahan,KOMPLEKS PERHUBUNGAN,"CPW4+94J, Ardipura, Distrik Jayapura Selatan, Kota Jayapura, Papua 99222","Ardipura, Distrik Jayapura Selatan, Kota Jayapura",PAPUA,99222.0,Indonesia,,-2.5540383,140.7052812,https://maps.google.com/?cid=0x0:0xe5318346e6ef74ba
housing complex,Komplek perumahan,Wbw home,"GM7M+6RG, Tj. Ria, Kec. Jayapura Utara, Kota Jayapura, Papua","Kota Jayapura, Papua",PAPUA,,Indonesia,,-2.4869418,140.6845648,https://maps.google.com/?cid=0x0:0x998ebcf4f8626b77
housing complex,Komplek perumahan,Keluarga agus bandera,"GM7M+6RG, Tj. Ria, Kec. Jayapura Utara, Kota Jayapura, Papua","Kota Jayapura, Papua",PAPUA,,Indonesia,,-2.4869418,140.6845648,https://maps.google.com/?cid=0x0:0xbb550656adb371c3
housing complex,Pembangunan Perumahan,Complex,"9JVG+27P, Yoka, Kec. Heram, Kota Jayapura, Papua 99351","Yoka, Kec. Heram, Kota Jayapura",PAPUA,99351.0,Indonesia,,-2.6073916,140.6257093,https://maps.google.com/?cid=0x0:0x6c0a5eb52b20c326
housing complex,Komplek perumahan,SAJA (SEKITARAN ASPOL JAYAPURA),"FM3W+VW8, Gurabesi, Kec. Jayapura Utara, Kota Jayapura, Papua","Kota Jayapura, Papua",PAPUA,,Indonesia,,-2.5453425,140.6973305,https://maps.google.com/?cid=0x0:0x76536caf41faabf8
housing complex,Komplek perumahan,Perumahan Sosial BTI dok 8 Atas,"FPJ9+VFG, Imbi, Kec. Jayapura Utara, Kota Jayapura, Papua 99116","Imbi, Kec. Jayapura Utara, Kota Jayapura",PAPUA,99116.0,Indonesia,8124806070.0,-2.5178164,140.7186956,https://maps.google.com/?cid=0x0:0x6148f1ac3b40110b
housing complex,housing complex,Papua 99114,"Kec. Jayapura Utara, Kabupaten Jayawijaya, Papua","Kabupaten Jayawijaya, Papua",PAPUA,,Indonesia,,-2.5167961,140.7027292,https://maps.google.com/?cid=0x0:0xfbf882c9b5d1cad7
housing complex,Komplek perumahan,FaRaShaâs,"Jl. Lembah Sunyi No.4 no 3B, Angkasapura, Kec. Jayapura Utara, Kota Jayapura, Papua 99114","Angkasapura, Kec. Jayapura Utara, Kota Jayapura",PAPUA,99114.0,Indonesia,,-2.5178666,140.7116926,https://maps.google.com/?cid=0x0:0x61e9172f793bf688
housing complex,Komplek perumahan,Rumaj keluarga wa esnaa,"FPM9+2C7 Panti monye magu, jl. Kapal, Dok 8 atas, Imbi, Kec. Jayapura Utara, Kota Jayapura, Papua 99116","jl. Kapal, Dok 8 atas, Imbi, Kec. Jayapura Utara, Kota Jayapura",PAPUA,99116.0,Indonesia,,-2.5174511,140.7185493,https://maps.google.com/?cid=0x0:0xbb78c084408c19ba
housing complex,Perhimpunan Pengembang Perumahan,Kel. A. Youwe,"FPF5+X59, Jl. Bhayangkara, Bayangkara, Kec. Jayapura Utara, Kota Jayapura, Papua","Kota Jayapura, Papua",PAPUA,,Indonesia,,-2.5250858,140.7079865,https://maps.google.com/?cid=0x0:0xcaf4208358440573
housing complex,Kantor Perusahaan,Guest House BPKP,"Jl. S. Condronegoro No.9, Angkasapura, Kec. Jayapura Utara, Kota Jayapura, Papua 99114","Angkasapura, Kec. Jayapura Utara, Kota Jayapura",PAPUA,99114.0,Indonesia,,-2.516502,140.706012,https://maps.google.com/?cid=0x0:0xdf11b7fb373f9596
housing complex,Komplek perumahan,Kunume Honai Laki-Laki,"FPM9+Q76, Jl. Sungai Tami, Imbi, Kec. Jayapura Utara, Kota Jayapura, Papua","Kota Jayapura, Papua",PAPUA,,Indonesia,,-2.5155946,140.7181454,https://maps.google.com/?cid=0x0:0x88435f3c17cf2f30
housing complex,Komplek perumahan,Rumah Keluarga Bpk Ezra Gavi Noah,"FPJ9+J6P, Imbi, Kec. Jayapura Utara, Kota Jayapura, Papua 99116","Imbi, Kec. Jayapura Utara, Kota Jayapura",PAPUA,99116.0,Indonesia,,-2.5188765,140.7177545,https://maps.google.com/?cid=0x0:0x87823a4f66ecaa94
housing complex,Pembangunan Perumahan,Pak Wargono,"Jl. Prof Jl. M Yamin No.14, RT.01/RW.01, Angkasapura, Kec. Jayapura Utara, Kota Jayapura, Papua 99114","RT.01/RW.01, Angkasapura, Kec. Jayapura Utara, Kota Jayapura",PAPUA,99114.0,Indonesia,82136769025.0,-2.5141291,140.7070265,https://maps.google.com/?cid=0x0:0x73fac29dcdada775
housing complex,Komplek perumahan,Marvin Home,"FPP4+2GR, Angkasapura, Kec. Jayapura Utara, Kota Jayapura, Papua 99114","Angkasapura, Kec. Jayapura Utara, Kota Jayapura",PAPUA,99114.0,Indonesia,,-2.5145643,140.7060895,https://maps.google.com/?cid=0x0:0x983ebd4b352c362b
housing complex,Pembangunan Perumahan,Tanah kosong,"FPF5+H7X, Jl. Bhayangkara III, Bayangkara, Kec. Jayapura Utara, Kota Jayapura, Papua 99112","Jl. Bhayangkara III, Bayangkara, Kec. Jayapura Utara, Kota Jayapura",PAPUA,99112.0,Indonesia,82198935608.0,-2.526022,140.7082434,https://maps.google.com/?cid=0x0:0xa19bc6db56ff31e7
housing complex,Komplek perumahan,D Fam,"FPQ4+HW9, Jl. Angkasa Raya, Angkasapura, Kec. Jayapura Utara, Kota Jayapura, Papua 99116","Jl. Angkasa Raya, Angkasapura, Kec. Jayapura Utara, Kota Jayapura",PAPUA,99116.0,Indonesia,,-2.5109827,140.7076365,https://maps.google.com/?cid=0x0:0xccef50c03c3ab7f2
housing complex,Komplek perumahan,Wiitty home,"FPC7+QVF, Jl. Lembah Bahari, Bayangkara, Kec. Jayapura Utara, Kota Jayapura, Papua","Kota Jayapura, Papua",PAPUA,,Indonesia,,-2.5280622,140.714685,https://maps.google.com/?cid=0x0:0x9c9fcec10c37262e
housing complex,Kantor Pemerintah,Tanah Rumah Negara Gol II KSOP Jayapura,"FP9C+X25, Trikora, Kec. Jayapura Utara, Kota Jayapura, Papua","Kota Jayapura, Papua",PAPUA,,Indonesia,,-2.5301227,140.7201048,https://maps.google.com/?cid=0x0:0x26451dd561414d6e
housing complex,housing complex,Kec. Jayapura Utara,"Kota Jayapura, Papua","Kota Jayapura, Papua",PAPUA,,Indonesia,,-2.5312067,140.7199798,https://maps.google.com/?cid=0x0:0x13fe60c6bfbe82b0
housing complex,Komplek perumahan,KOMPLEKS PERHUBUNGAN,"CPW4+94J, Ardipura, Distrik Jayapura Selatan, Kota Jayapura, Papua 99222","Ardipura, Distrik Jayapura Selatan, Kota Jayapura",PAPUA,99222.0,Indonesia,,-2.5540383,140.7052812,https://maps.google.com/?cid=0x0:0xe5318346e6ef74ba
housing complex,Pembangunan Perumahan,Complex,"9JVG+27P, Yoka, Kec. Heram, Kota Jayapura, Papua 99351","Yoka, Kec. Heram, Kota Jayapura",PAPUA,99351.0,Indonesia,,-2.6073916,140.6257093,https://maps.google.com/?cid=0x0:0x6c0a5eb52b20c326
housing complex,Komplek perumahan,Jayapura utara,"CM49+H93, Vim, Kec. Abepura, Kota Jayapura, Papua","Kota Jayapura, Papua",PAPUA,,Indonesia,,-2.5936008,140.6684179,https://maps.google.com/?cid=0x0:0xd42a5ccd23b0f279
housing complex,Komplek perumahan,Kotaraja Jayapura,"9MWG+MX2, Wai Mhorock, Kec. Abepura, Kota Jayapura, Papua 99225","Wai Mhorock, Kec. Abepura, Kota Jayapura",PAPUA,99225.0,Indonesia,,-2.6033444,140.6772797,https://maps.google.com/?cid=0x0:0x55453b38be60dabf
housing complex,Komplek perumahan,SAJA (SEKITARAN ASPOL JAYAPURA),"FM3W+VW8, Gurabesi, Kec. Jayapura Utara, Kota Jayapura, Papua","Kota Jayapura, Papua",PAPUA,,Indonesia,,-2.5453425,140.6973305,https://maps.google.com/?cid=0x0:0x76536caf41faabf8
housing complex,Gedung Apartemen,Kediaman Kapolda,"Jl. Trikora No.48, Trikora, Kec. Jayapura Utara, Kota Jayapura, Papua 99114","Trikora, Kec. Jayapura Utara, Kota Jayapura",PAPUA,99114.0,Indonesia,,-2.5239167,140.7161667,https://maps.google.com/?cid=0x0:0x48bb3b8cfef20e7e
housing complex,Pembangunan Perumahan,A.P.O.,"Jl. Kab. 1 No.33, Cendrawasih Selatan, Kec. Jayapura Utara, Kota Jayapura, Papua 99112","Cendrawasih Selatan, Kec. Jayapura Utara, Kota Jayapura",PAPUA,99112.0,Indonesia,81344256298.0,-2.5335145,140.7049664,https://maps.google.com/?cid=0x0:0xb9bf6a3cf805975c
housing complex,Perhimpunan Pengembang Perumahan,Jhonna Olshop Polimak,"Jalan nanas Jl. Ardipura Raya No.1, Ardipura, Distrik Jayapura Selatan, Kota Jayapura, Papua 99222","Ardipura, Distrik Jayapura Selatan, Kota Jayapura",PAPUA,99222.0,Indonesia,85244399485.0,-2.5519332,140.7034228,https://maps.google.com/?cid=0x0:0x1021b94f6d10f546
housing complex,housing complex,Papua 99116,"Angkasapura, Kec. Jayapura Utara, Kota Jayapura, Papua","Kota Jayapura, Papua",PAPUA,,Indonesia,,-2.5091904,140.70792,https://maps.google.com/?cid=0x0:0x234bf316c4205d54
housing complex,Komplek perumahan,Perumahan Sosial BTI dok 8 Atas,"FPJ9+VFG, Imbi, Kec. Jayapura Utara, Kota Jayapura, Papua 99116","Imbi, Kec. Jayapura Utara, Kota Jayapura",PAPUA,99116.0,Indonesia,8124806070.0,-2.5178164,140.7186956,https://maps.google.com/?cid=0x0:0x6148f1ac3b40110b
housing complex,Komplek perumahan,HS Wonatorey,"Jl. Sungai Tami No.04, Imbi, Kec. Jayapura Utara, Kota Jayapura, Papua 99116","Imbi, Kec. Jayapura Utara, Kota Jayapura",PAPUA,99116.0,Indonesia,,-2.5220122,140.7227997,https://maps.google.com/?cid=0x0:0xb4fc9c1f7da06fd1
housing complex,Perumahan,KPAD BUCEND VI ANGKASA,"Angkasapura, Kec. Jayapura Utara, Kota Jayapura, Papua 99116","Kec. Jayapura Utara, Kota Jayapura",PAPUA,99116.0,Indonesia,,-2.5068714,140.7090001,https://maps.google.com/?cid=0x0:0x44c4aae3fb01e9a1
housing complex,Komplek perumahan,Kompleks Kehutanan,"Jl. Pasifik Indah III No.109, Tj. Ria, Kec. Jayapura Utara, Kota Jayapura, Papua 99117","Tj. Ria, Kec. Jayapura Utara, Kota Jayapura",PAPUA,99117.0,Indonesia,,-2.5074553,140.7246804,https://maps.google.com/?cid=0x0:0x1ed8f6b62eb05985
housing complex,Komplek perumahan,BALATKOP,"Angkasapura, Kec. Jayapura Utara, Kota Jayapura, Papua 99116","Kec. Jayapura Utara, Kota Jayapura",PAPUA,99116.0,Indonesia,,-2.5129041,140.7093999,https://maps.google.com/?cid=0x0:0xa018511bd154001e
housing complex,Pembangunan Perumahan,Home Pdt Tamalea,"FPR8+V28, Jl. Angkasa Raya, Tj. Ria, Kec. Jayapura Utara, Kota Jayapura, Papua 99116","Jl. Angkasa Raya, Tj. Ria, Kec. Jayapura Utara, Kota Jayapura",PAPUA,99116.0,Indonesia,,-2.5083337,140.7151128,https://maps.google.com/?cid=0x0:0xf689c8378ee05a9c
housing complex,Komplek perumahan,Kediaman Bumi 01,"FPJ5+MMR, Jl. Krisna, Angkasapura, Jayapura Utara, Jayapura City, Papua 99114","Jl. Krisna, Angkasapura, Jayapura Utara, Jayapura City",PAPUA,99114.0,Indonesia,,-2.5182551,140.7091261,https://maps.google.com/?cid=0x0:0x17af247c9fd95e69
housing complex,Komplek perumahan,PERUMAHAN ANGKASA PERMAI,"FPR5+HPH, Angkasapura, Kec. Jayapura Utara, Kota Jayapura, Papua 99116","Angkasapura, Kec. Jayapura Utara, Kota Jayapura",PAPUA,99116.0,Indonesia,81322005800.0,-2.5087778,140.7095833,https://maps.google.com/?cid=0x0:0x403bfc93f818c706
housing complex,Komplek perumahan,KEL. J KARURI,"Jl. Rakit No.7, Dok 8 Atas, Imbi, Kec. Jayapura Utara, Kota Jayapura, Papua 99116","Dok 8 Atas, Imbi, Kec. Jayapura Utara, Kota Jayapura",PAPUA,99116.0,Indonesia,85399883382.0,-2.5228856,140.7205338,https://maps.google.com/?cid=0x0:0xf83dedee98c787f5
housing complex,Komplek perumahan,HANS MANYAKORI,"Jl. Lembah No.12, Angkasapura, Kec. Jayapura Utara, Kota Jayapura, Papua 99116","Angkasapura, Kec. Jayapura Utara, Kota Jayapura",PAPUA,99116.0,Indonesia,,-2.5130346,140.7113752,https://maps.google.com/?cid=0x0:0xd8b530b445e1e72b
housing complex,Pembangunan Perumahan,Diana Ayamiseba,"Jl. Lembah No.4, Angkasapura, Kec. Jayapura Utara, Kota Jayapura, Papua 99116","Angkasapura, Kec. Jayapura Utara, Kota Jayapura",PAPUA,99116.0,Indonesia,,-2.5139477,140.7113276,https://maps.google.com/?cid=0x0:0x6b8b7de4c24392a1
housing complex,Pembangunan Perumahan,Perumahan Perikanan Angkasa,"FPP6+W39, Angkasapura, Kec. Jayapura Utara, Kota Jayapura, Papua 99116","Angkasapura, Kec. Jayapura Utara, Kota Jayapura",PAPUA,99116.0,Indonesia,,-2.5127169,140.71025,https://maps.google.com/?cid=0x0:0x6dfbc52441313bc6
housing complex,Komplek perumahan,Rumah dok VIII atas Kel A.W,"FPJ9+9CJ Perumahan Sosial BTI, Dok 8 Atas, Imbi, Kec. Jayapura Utara, Kota Jayapura, Papua 99116","Dok 8 Atas, Imbi, Kec. Jayapura Utara, Kota Jayapura",PAPUA,99116.0,Indonesia,,-2.5190473,140.7185196,https://maps.google.com/?cid=0x0:0x24632fd4de8155ef
housing complex,housing complex,Papua 99117,"Tj. Ria, Kec. Jayapura Utara, Kota Jayapura, Papua","Kota Jayapura, Papua",PAPUA,,Indonesia,,-2.493242,140.6975389,https://maps.google.com/?cid=0x0:0xf4a40bbba525574f
housing complex,Komplek perumahan,Kompleks Kehutanan,"Jl. Pasifik Indah III No.109, Tj. Ria, Kec. Jayapura Utara, Kota Jayapura, Papua 99117","Tj. Ria, Kec. Jayapura Utara, Kota Jayapura",PAPUA,99117.0,Indonesia,,-2.5074553,140.7246804,https://maps.google.com/?cid=0x0:0x1ed8f6b62eb05985
housing complex,Komplek perumahan,Edowai Residen,"FPRH+736, Tj. Ria, Kec. Jayapura Utara, Kota Jayapura, Papua 99117","Tj. Ria, Kec. Jayapura Utara, Kota Jayapura",PAPUA,99117.0,Indonesia,,-2.5091488,140.7269555,https://maps.google.com/?cid=0x0:0x8378d63fdd9c296d
housing complex,Komplek perumahan,Imonk House,"SPN Base'G, Aspol, Deplat Kiri, Tanjung Ria, Jayapura Utara, Jayapura City, Papua 99117","Aspol, Deplat Kiri, Tanjung Ria, Jayapura Utara, Jayapura City",PAPUA,99117.0,Indonesia,,-2.5163127,140.7344481,https://maps.google.com/?cid=0x0:0xe9f7f4e23227c9b9
housing complex,Gedung Apartemen,BLOCK NINE,"FPHJ+9X9, Jl. Tj. Ria, Tj. Ria, Kec. Jayapura Utara, Kota Jayapura, Papua 99117","Jl. Tj. Ria, Tj. Ria, Kec. Jayapura Utara, Kota Jayapura",PAPUA,99117.0,Indonesia,,-2.5215904,140.7324721,https://maps.google.com/?cid=0x0:0x63bd801dac8555ad
housing complex,Komplek perumahan,Keluarga Padwa,"Jln.layar No.6, Imbi, Kec. Jayapura Utara, Kota Jayapura, Papua 99117","Imbi, Kec. Jayapura Utara, Kota Jayapura",PAPUA,99117.0,Indonesia,,-2.5173049,140.7297379,https://maps.google.com/?cid=0x0:0x3f72efa56e21bb85
housing complex,Komplek perumahan,Home Doxem,"FPPJ+MCR, Jl. Tj. Ria, Tanjung Ria, dok 9, kali, Kec. Jayapura Utara, Kota Jayapura, Papua 99117","Jl. Tj. Ria, Tanjung Ria, dok 9, kali, Kec. Jayapura Utara, Kota Jayapura",PAPUA,99117.0,Indonesia,,-2.5132657,140.7310097,https://maps.google.com/?cid=0x0:0x271267e9ad395bc7
housing complex,Komplek perumahan,Keluarga St. A. Pangaribuan/ br. Aruan,"FPVC+7VX, Jl. Angkasa Raya, Tj. Ria, Kec. Jayapura Utara, Kota Jayapura, Papua 99117","Jl. Angkasa Raya, Tj. Ria, Kec. Jayapura Utara, Kota Jayapura",PAPUA,99117.0,Indonesia,,-2.5067723,140.7222395,https://maps.google.com/?cid=0x0:0x66a99bd135e1ad9e
housing complex,Komplek perumahan,Keluarga zr.burdam,"Jl.teluk no dok IX atas No.30, Imbi, Kec. Jayapura Utara, Kota Jayapura, Papua 99117","Imbi, Kec. Jayapura Utara, Kota Jayapura",PAPUA,99117.0,Indonesia,,-2.5199755,140.7262792,https://maps.google.com/?cid=0x0:0xf2db268f23e7275d
housing complex,Komplek perumahan,ABRESSO Complex,"FPHH+X7M, Imbi, Kec. Jayapura Utara, Kota Jayapura, Papua 99117","Imbi, Kec. Jayapura Utara, Kota Jayapura",PAPUA,99117.0,Indonesia,,-2.5200424,140.7281698,https://maps.google.com/?cid=0x0:0x49c3cc7599a9f781
housing complex,Komplek perumahan,Rumah ku,"FPHG+QRH, Jl. Sampan, Imbi, Kec. Jayapura Utara, Kota Jayapura, Papua 99117","Jl. Sampan, Imbi, Kec. Jayapura Utara, Kota Jayapura",PAPUA,99117.0,Indonesia,,-2.520571,140.7270956,https://maps.google.com/?cid=0x0:0x8ab121ee15e34899
housing complex,Komplek perumahan,FaRaShaâs,"Jl. Lembah Sunyi No.4 no 3B, Angkasapura, Kec. Jayapura Utara, Kota Jayapura, Papua 99114","Angkasapura, Kec. Jayapura Utara, Kota Jayapura",PAPUA,99114.0,Indonesia,,-2.5178666,140.7116926,https://maps.google.com/?cid=0x0:0x61e9172f793bf688
housing complex,Komplek perumahan,KEL. SERALURIN,"FPCP+PRX, Jl. Kayu Batu, Tj. Ria, Kec. Jayapura Utara, Kota Jayapura, Papua 99117","Jl. Kayu Batu, Tj. Ria, Kec. Jayapura Utara, Kota Jayapura",PAPUA,99117.0,Indonesia,,-2.5281352,140.7371147,https://maps.google.com/?cid=0x0:0x91135a37d166f831
housing complex,Komplek perumahan,Gun,"FPJH+QQP, Imbi, Kec. Jayapura Utara, Kota Jayapura, Papua 99117","Imbi, Kec. Jayapura Utara, Kota Jayapura",PAPUA,99117.0,Indonesia,,-2.5180416,140.7294503,https://maps.google.com/?cid=0x0:0xb3911b53236a2258
housing complex,housing complex,Papua 99221,"Kota Jayapura, Papua","Kota Jayapura, Papua",PAPUA,,Indonesia,,-2.5407181,140.6638119,https://maps.google.com/?cid=0x0:0x22734bd942608dca
housing complex,Komplek perumahan,Kompleks Perumahan Ondoafi Entrop (Kapal kandas),"CMGQ+QJQ, Jl. Raya Abepura, Entrop, Distrik Jayapura Selatan, Kota Jayapura, Papua 99223","Jl. Raya Abepura, Entrop, Distrik Jayapura Selatan, Kota Jayapura",PAPUA,99223.0,Indonesia,,-2.5730314,140.6890974,https://maps.google.com/?cid=0x0:0x91d39a51ec02c839
housing complex,Komplek perumahan,KEL. IBRAHIM HADI,"Jl. Ahmad Yani No.83, Gurabesi, Kec. Jayapura Utara, Kota Jayapura, Papua 99221","Gurabesi, Kec. Jayapura Utara, Kota Jayapura",PAPUA,99221.0,Indonesia,,-2.5445564,140.6985781,https://maps.google.com/?cid=0x0:0x8eea24dd990f422f
housing complex,Komplek perumahan,Rumah Kel A Bagre,"CMVV+VR6, Ardipura, Distrik Jayapura Selatan, Kota Jayapura, Papua 99221","Ardipura, Distrik Jayapura Selatan, Kota Jayapura",PAPUA,99221.0,Indonesia,,-2.555219,140.694519,https://maps.google.com/?cid=0x0:0xbed26084a9cab88e
housing complex,Rumah Lelang,Skyland Abepura,"CM7R+P6G, Jl. Raya Abepura, Entrop, Distrik Jayapura Selatan, Kota Jayapura, Papua","Kota Jayapura, Papua",PAPUA,,Indonesia,,-2.5856907,140.690581,https://maps.google.com/?cid=0x0:0xd95b7ee97d67d114
housing complex,housing complex,AKOMBEL,"FM3X+P3C, Jl. Setiapura II, Numbai, Distrik Jayapura Selatan, Kota Jayapura, Papua 99221","Jl. Setiapura II, Numbai, Distrik Jayapura Selatan, Kota Jayapura",PAPUA,99221.0,Indonesia,,-2.5455762,140.6977104,https://maps.google.com/?cid=0x0:0xe4187b5ffc27cbc2
housing complex,Komplek perumahan,Main Deck,"CPP2+G4P, Jl. Abepura Abepura, Ardipura, Distrik Jayapura Selatan, Kota Jayapura, Papua 99221","Jl. Abepura Abepura, Ardipura, Distrik Jayapura Selatan, Kota Jayapura",PAPUA,99221.0,Indonesia,,-2.5636659,140.7003342,https://maps.google.com/?cid=0x0:0x58700fca539c8e43
housing complex,housing complex,rumah jupol,"CPR2+5JC, Ardipura, Distrik Jayapura Selatan, Kota Jayapura, Papua 99221","Ardipura, Distrik Jayapura Selatan, Kota Jayapura",PAPUA,99221.0,Indonesia,,-2.5595575,140.7015211,https://maps.google.com/?cid=0x0:0x8996873393821708
housing complex,Pembangunan Perumahan,Pondok 9,"CMMW+GVX, Entrop, Distrik Jayapura Selatan, Kota Jayapura, Papua 99221","Entrop, Distrik Jayapura Selatan, Kota Jayapura",PAPUA,99221.0,Indonesia,,-2.5653084,140.6974775,https://maps.google.com/?cid=0x0:0x6d1f9fc7d8f9d5cb
housing complex,Pembangunan Perumahan,ELDEV HOME,"CMPP+8Q6, Entrop, Distrik Jayapura Selatan, Kota Jayapura, Papua","Kota Jayapura, Papua",PAPUA,,Indonesia,,-2.5642202,140.6869017,https://maps.google.com/?cid=0x0:0xca0c8b9d3a5eefaa
housing complex,Komplek perumahan,Perum Kel.Hukubun,"CMPW+VMG, RW.Bucend 2, Entrop, Distrik Jayapura Selatan, Kota Jayapura, Papua 99221","RW.Bucend 2, Entrop, Distrik Jayapura Selatan, Kota Jayapura",PAPUA,99221.0,Indonesia,,-2.5627375,140.6964844,https://maps.google.com/?cid=0x0:0x4c3e906ab275cfce
housing complex,Pembangunan Perumahan,Mandopma family,"CMPW+GXV, Komp Bucend II Entrop, Ardipura, Distrik Jayapura Selatan, Kota Jayapura, Papua 99221","Komp Bucend II Entrop, Ardipura, Distrik Jayapura Selatan, Kota Jayapura",PAPUA,99221.0,Indonesia,,-2.5636345,140.6974222,https://maps.google.com/?cid=0x0:0x3db9271aee993e08
housing complex,Perhimpunan Pengembang Perumahan,Abepura,"Jl. Batu Karang Polimak ll No.21, Ardipura, Distrik Jayapura Selatan, Kota Jayapura, Papua 99222","Ardipura, Distrik Jayapura Selatan, Kota Jayapura",PAPUA,99222.0,Indonesia,,-2.554705,140.7054218,https://maps.google.com/?cid=0x0:0x8b343ced890b93ee
housing complex,Pembangunan Perumahan,Rumah Clara Rahawarin,"CMJV+96M, Entrop, Distrik Jayapura Selatan, Kota Jayapura, Papua 99221","Entrop, Distrik Jayapura Selatan, Kota Jayapura",PAPUA,99221.0,Indonesia,,-2.569144,140.6928,https://maps.google.com/?cid=0x0:0x289c480613594169
housing complex,Penginapan Dalam Ruangan,"Belakangan Tokoh Citra, Kota Baru, Kota Jayapura, Papua, Indonesia","9MQ7+PQV, Kota Baru, Kec. Abepura, Kota Jayapura, Papua 99351","Kota Baru, Kec. Abepura, Kota Jayapura",PAPUA,99351.0,Indonesia,,-2.6106465,140.6644175,https://maps.google.com/?cid=0x0:0x9f7baab450d50cdd
housing complex,housing complex,Kec. Abepura,"Kota Jayapura, Papua","Kota Jayapura, Papua",PAPUA,,Indonesia,,-2.6813971,140.7662871,https://maps.google.com/?cid=0x0:0x75b53491c4439b2f
housing complex,Komplek perumahan,fhevalga house's,"8QXH+6W9, Koya Koso, Kec. Abepura, Kota Jayapura, Papua","Kota Jayapura, Papua",PAPUA,,Indonesia,,-2.651962,140.7798735,https://maps.google.com/?cid=0x0:0x290aa2aaa83292b3
housing complex,Komplek perumahan,Kotaraja Jayapura,"9MWG+MX2, Wai Mhorock, Kec. Abepura, Kota Jayapura, Papua 99225","Wai Mhorock, Kec. Abepura, Kota Jayapura",PAPUA,99225.0,Indonesia,,-2.6033444,140.6772797,https://maps.google.com/?cid=0x0:0x55453b38be60dabf
housing complex,housing complex,Tanah,"8QWH+C53, Tanah Jayapura, Holtekam, Kec. Abepura, Kota Jayapura, Papua","Kota Jayapura, Papua",PAPUA,,Indonesia,,-2.6539924,140.7779228,https://maps.google.com/?cid=0x0:0x1b4c3489a1f97117
housing complex,Komplek perumahan,"Abepante,nafri","9PF2+2X8, Nafri, Kec. Abepura, Kota Jayapura, Papua 99351","Nafri, Kec. Abepura, Kota Jayapura",PAPUA,99351.0,Indonesia,,-2.6266207,140.702671,https://maps.google.com/?cid=0x0:0x4197406dd4d7f747
housing complex,Komplek perumahan,JB House,"8QCX+CMX, Koya Bar., Kec. Muara Tami, Kota Jayapura, Papua 99351","Koya Bar., Kec. Muara Tami, Kota Jayapura",PAPUA,99351.0,Indonesia,,-2.6796581,140.7993674,https://maps.google.com/?cid=0x0:0x53fd6838de51bf40
housing complex,Pembangunan Perumahan,Perumahan Grand FR Residence,"7QWR+3W3, Koya Bar., Kec. Muara Tami, Kota Jayapura, Papua 99351","Koya Bar., Kec. Muara Tami, Kota Jayapura",PAPUA,99351.0,Indonesia,85393509340.0,-2.7039151,140.7929797,https://maps.google.com/?cid=0x0:0x20f97aabe676e52b
housing complex,Komplek perumahan,Perumahan Grand Vidi Lestari,"8QWF+PMJ, Jl. Hanurata Holtekamp, Holtekam, Kec. Abepura, Kota Jayapura, Papua 99351","Jl. Hanurata Holtekamp, Holtekam, Kec. Abepura, Kota Jayapura",PAPUA,99351.0,Indonesia,,-2.6535678,140.7737402,https://maps.google.com/?cid=0x0:0x82402dce09f963d
housing complex,Pembangunan Perumahan,Blok P,"9Q5H+4VX, Holtekam, Kec. Muara Tami, Kota Jayapura, Papua 99351","Holtekam, Kec. Muara Tami, Kota Jayapura",PAPUA,99351.0,Indonesia,,-2.642133,140.7797454,https://maps.google.com/?cid=0x0:0xa13018a93d4d3723
housing complex,Komplek perumahan,Abe,"8Q98+CGV, Koya Koso, Kec. Abepura, Kota Jayapura, Papua","Kota Jayapura, Papua",PAPUA,,Indonesia,,-2.6813971,140.7662871,https://maps.google.com/?cid=0x0:0x98c5623841456dcb
housing complex,Perhimpunan Pengembang Perumahan,KUKUP - KILO 9 - KAMPUNG KOYA KOSO,"8QJ3+VHP, RT.01/RW.02, Koya Koso, Kec. Abepura, Kota Jayapura, Papua 99351","RT.01/RW.02, Koya Koso, Kec. Abepura, Kota Jayapura",PAPUA,99351.0,Indonesia,82396126232.0,-2.6674955,140.7540377,https://maps.google.com/?cid=0x0:0xe381ae69357285b6
housing complex,Komplek perumahan,"Koya barat, Abe 1","8QPJ+HW5, Koya Bar., Kec. Muara Tami, Kota Jayapura, Papua","Kota Jayapura, Papua",PAPUA,,Indonesia,,-2.6636109,140.7823619,https://maps.google.com/?cid=0x0:0x80639bf1540100b9
housing complex,Komplek perumahan,YOWI,"8QV2+MW2, Koya Koso, Kec. Abepura, Kota Jayapura, Papua 99351","Koya Koso, Kec. Abepura, Kota Jayapura",PAPUA,99351.0,Indonesia,,-2.6556446,140.7523084,https://maps.google.com/?cid=0x0:0xa4d37468c154aa25
housing complex,housing complex,Papua 99351,"Kota Jayapura, Papua","Kota Jayapura, Papua",PAPUA,,Indonesia,,-2.685882,140.8872648,https://maps.google.com/?cid=0x0:0x540583c400ca05b3
housing complex,Komplek perumahan,Honai Residence,"8RJ2+V49, Jl. Wamena, Koya Bar., Kec. Muara Tami, Kota Jayapura, Papua 99351","Jl. Wamena, Koya Bar., Kec. Muara Tami, Kota Jayapura",PAPUA,99351.0,Indonesia,,-2.6678488,140.8003483,https://maps.google.com/?cid=0x0:0x631d0af1ecdc24c
housing complex,Komplek perumahan,Hadi gam,"Koya Bar., Kec. Muara Tami, Kota Jayapura, Papua 99351","Kec. Muara Tami, Kota Jayapura",PAPUA,99351.0,Indonesia,,-2.6705555,140.8100134,https://maps.google.com/?cid=0x0:0xa05565c50363e675
housing complex,Perusahaan Manajemen Properti,Perumahan Jannati Residence 1,"9R33+2WC, med Road, Koya Tengah, Kec. Muara Tami, Kota Jayapura, Papua 99351","med Road, Koya Tengah, Kec. Muara Tami, Kota Jayapura",PAPUA,99351.0,Indonesia,,-2.6474326,140.8047609,https://maps.google.com/?cid=0x0:0x49387c6c5dda22ca
housing complex,Komplek perumahan,Perumahan,"9R37+8XJ, Koya Tengah, Kec. Muara Tami, Kota Jayapura, Papua 99351","Koya Tengah, Kec. Muara Tami, Kota Jayapura",PAPUA,99351.0,Indonesia,,-2.646652,140.8148833,https://maps.google.com/?cid=0x0:0xfc81f63e1597c44a
housing complex,housing complex,Perumahan megapura 1 residence,"9R38+JR2, Koya Tengah, Kec. Muara Tami, Kota Jayapura, Papua 99351","Koya Tengah, Kec. Muara Tami, Kota Jayapura",PAPUA,99351.0,Indonesia,,-2.6459879,140.8170258,https://maps.google.com/?cid=0x0:0x8bb3f98f19d7cef3
housing complex,Pembangunan Perumahan,Perumahan Grand FR Residence,"7QWR+3W3, Koya Bar., Kec. Muara Tami, Kota Jayapura, Papua 99351","Koya Bar., Kec. Muara Tami, Kota Jayapura",PAPUA,99351.0,Indonesia,85393509340.0,-2.7039151,140.7929797,https://maps.google.com/?cid=0x0:0x20f97aabe676e52b
housing complex,Perhimpunan Pengembang Perumahan,EKA JASTIP,"8RGW+MRF, Jl. Sawo, Koya Tim., Kec. Muara Tami, Kota Jayapura, Papua 99351","Jl. Sawo, Koya Tim., Kec. Muara Tami, Kota Jayapura",PAPUA,99351.0,Indonesia,82171807896.0,-2.6733029,140.8470625,https://maps.google.com/?cid=0x0:0x6f824766e36a5b5f
housing complex,housing complex,Kamp.Telaga,"8V82+H8C, Koya Tim., Kec. Muara Tami, Kota Jayapura, Papua 99351","Koya Tim., Kec. Muara Tami, Kota Jayapura",PAPUA,99351.0,Indonesia,,-2.6835711,140.8507707,https://maps.google.com/?cid=0x0:0x18f428f287ce987e
housing complex,Komplek perumahan,Perumahan Demba Residence,"8RG2+C32, Koya Bar., Kec. Muara Tami, Kota Jayapura, Papua 99351","Koya Bar., Kec. Muara Tami, Kota Jayapura",PAPUA,99351.0,Indonesia,,-2.6743029,140.8005747,https://maps.google.com/?cid=0x0:0x3904ba57b827c6ae
housing complex,Komplek perumahan,Rumahnya faizalHK,"8RJX+W3P, Koya Tim., Kec. Muara Tami, Kota Jayapura, Papua","Kota Jayapura, Papua",PAPUA,,Indonesia,,-2.6676499,140.8470825,https://maps.google.com/?cid=0x0:0x39be5efb7feee643
housing complex,Komplek perumahan,Rumah Abbas Deasy,"8RC8+R6V, Jl. Swakarsa, Koya Bar., Kec. Muara Tami, Kota Jayapura, Papua 99351","Jl. Swakarsa, Koya Bar., Kec. Muara Tami, Kota Jayapura",PAPUA,99351.0,Indonesia,,-2.6778986,140.8155398,https://maps.google.com/?cid=0x0:0x7d988c1edaf3d659
housing complex,Komplek perumahan,jalan sentani,"8RF3+MMV, Koya Bar., Kec. Muara Tami, Kota Jayapura, Papua 99351","Koya Bar., Kec. Muara Tami, Kota Jayapura",PAPUA,99351.0,Indonesia,,-2.6757561,140.8041872,https://maps.google.com/?cid=0x0:0x1a4db4d270ad790f
housing complex,,Kos,"8RMX+X99, Koya Tim., Kec. Muara Tami, Kota Jayapura, Papua 99351","Koya Tim., Kec. Muara Tami, Kota Jayapura",PAPUA,99351.0,Indonesia,,-2.6666469,140.8476468,https://maps.google.com/?cid=0x0:0x59fa8dbd7d4277d3
housing complex,housing complex,Kec. Heram,"Kota Jayapura, Papua","Kota Jayapura, Papua",PAPUA,,Indonesia,,-2.5968715,140.6349408,https://maps.google.com/?cid=0x0:0xae4be183bc9835dc
housing complex,Komplek perumahan,jayapura,"CJ2M+CXJ, Jl. Karang 4, Waena, Kec. Heram, Kota Jayapura, Papua 99351","Jl. Karang 4, Waena, Kec. Heram, Kota Jayapura",PAPUA,99351.0,Indonesia,,-2.5992049,140.6347096,https://maps.google.com/?cid=0x0:0xbddb444e84c2c463
housing complex,Pembangunan Perumahan,Complex,"9JVG+27P, Yoka, Kec. Heram, Kota Jayapura, Papua 99351","Yoka, Kec. Heram, Kota Jayapura",PAPUA,99351.0,Indonesia,,-2.6073916,140.6257093,https://maps.google.com/?cid=0x0:0x6c0a5eb52b20c326
housing complex,Asrama Pelajar,ASRAMA WAME,"CJ5P+C5P, Kp. Waena, Kec. Heram, Kota Jayapura, Papua 99225","Kp. Waena, Kec. Heram, Kota Jayapura",PAPUA,99225.0,Indonesia,,-2.591421,140.6354438,https://maps.google.com/?cid=0x0:0x5734a4887adc2a76
housing complex,Kompleks Townhouse,Waena,"Jl. Dafonsoro No.53, Waena, Kec. Heram, Kota Jayapura, Papua 99225","Waena, Kec. Heram, Kota Jayapura",PAPUA,99225.0,Indonesia,,-2.5956419,140.6390981,https://maps.google.com/?cid=0x0:0x68d1d2d878529e0f
housing complex,Komplek perumahan,Rumah Hijau mas yok,"CJ2P+4WV, Kp. Waena, Kec. Heram, Kota Jayapura, Papua 99351","Kp. Waena, Kec. Heram, Kota Jayapura",PAPUA,99351.0,Indonesia,,-2.596637,140.633152,https://maps.google.com/?cid=0x0:0x8cd0018e768fd5c8
housing complex,Komplek perumahan,Komp. TC Perkebunan Waena,"CJ2P+85F, Kp. Waena, Kec. Heram, Kota Jayapura, Papua 99351","Kp. Waena, Kec. Heram, Kota Jayapura",PAPUA,99351.0,Indonesia,,-2.5991787,140.6354068,https://maps.google.com/?cid=0x0:0xf05a6881c9a77ffc
housing complex,housing complex,Tingkat kayu,"CJ2M+8G8, Jl. Karang 5, Kp. Waena, Kec. Heram, Kota Jayapura, Papua 99351","Jl. Karang 5, Kp. Waena, Kec. Heram, Kota Jayapura",PAPUA,99351.0,Indonesia,,-2.5992226,140.6338215,https://maps.google.com/?cid=0x0:0xcd7c6b13135bea3
housing complex,Komplek perumahan,Siahaan Home,"CJ3G+3RC, Kp. Waena, Kec. Heram, Kota Jayapura, Papua 99351","Kp. Waena, Kec. Heram, Kota Jayapura",PAPUA,99351.0,Indonesia,,-2.5975865,140.6270314,https://maps.google.com/?cid=0x0:0x942668ae8fe8a3db
housing complex,Komplek perumahan,Rumah,"9JXQ+PQF, Jl. Raya Abepura - Sentani, Hedam, Kec. Heram, Kota Jayapura, Papua 99351","Jl. Raya Abepura - Sentani, Hedam, Kec. Heram, Kota Jayapura",PAPUA,99351.0,Indonesia,,-2.6009797,140.6392419,https://maps.google.com/?cid=0x0:0xf58be2ce234a0d00
housing complex,Komplek perumahan,Rumah Mba Uli,"CJ3J+JGF, Kp. Waena, Kec. Heram, Kota Jayapura, Papua 99351","Kp. Waena, Kec. Heram, Kota Jayapura",PAPUA,99351.0,Indonesia,,-2.5962666,140.6313766,https://maps.google.com/?cid=0x0:0x254a0345d6c73851
housing complex,Komplek perumahan,Komplek KUD Gang Buntu,"CJ2M+V7X, Kp. Waena, Kec. Heram, Kota Jayapura, Papua 99351","Kp. Waena, Kec. Heram, Kota Jayapura",PAPUA,99351.0,Indonesia,,-2.5970272,140.6328479,https://maps.google.com/?cid=0x0:0x1830dbd266547542
housing complex,Pembangunan Perumahan,Atha.M-House,"CJ3M+7X4, Waena, Kec. Heram, Kota Jayapura, Papua","Kota Jayapura, Papua",PAPUA,,Indonesia,,-2.5968715,140.6349408,https://maps.google.com/?cid=0x0:0xfaabb8dc50c4e4ae
housing complex,Komplek perumahan,Kampung waibron,"depapre, Jl. Raya Sentani, Waena, Kec. Heram, Kota Jayapura, Papua 99351","Jl. Raya Sentani, Waena, Kec. Heram, Kota Jayapura",PAPUA,99351.0,Indonesia,,-2.5940145,140.626562,https://maps.google.com/?cid=0x0:0x10a1d6dd09732da8
