Category,Real Category,Business Name,Address,City,State,Postal Code,Country,Phone,Latitude,Longitude,Map Link
cafe,cafe,Dataran Isim,"Kab. Manokwari Selatan, Papua Bar.","Kab. Manokwari Selatan, Papua Bar.",PAPUA BARAT,,Indonesia,,-1.5213839,133.7525619,https://maps.google.com/?cid=0x0:0x5152c50d52f61896
cafe,cafe,Distrik Momi Waren,"Kab. Manokwari Selatan, Papua Bar.","Kab. Manokwari Selatan, Papua Bar.",PAPUA BARAT,,Indonesia,,-1.589112,134.1139979,https://maps.google.com/?cid=0x0:0xf7889c42ea8b544b
cafe,Kedai Kopi,FD Billiard  Coffeeshop,"Jln. Trans Manokwari, Ransiki Kota, Ransiki, Teluk Bintuni Regency, West Papua 98355","Ransiki Kota, Ransiki, Teluk Bintuni Regency",PAPUA BARAT,98355.0,Indonesia,81240269469.0,-1.5010586,134.1714819,https://maps.google.com/?cid=0x0:0xa3d36becfd448018
cafe,Tujuan Wisata,Tanah Cinta,"83CF+5VC, Yermatum, Distrik Tahota, Kab. Manokwari Selatan, Papua Bar. 98355","Yermatum, Distrik Tahota, Kab. Manokwari Selatan",PAPUA BARAT,98355.0,Indonesia,,-1.679558,134.074642,https://maps.google.com/?cid=0x0:0x14111f69526e7d65
cafe,Toko bahan makanan,Warung Barokah mas Bedjo,"Jl. Manokwari - Bintuni, Dembek, Distrik Momi Waren, Kab. Manokwari Selatan, Papua Bar. 98355","Dembek, Distrik Momi Waren, Kab. Manokwari Selatan",PAPUA BARAT,98355.0,Indonesia,85399390442.0,-1.5858411,134.1432356,https://maps.google.com/?cid=0x0:0x240902f27b7226c3
cafe,Sarapan,Rumah Makan Valdez,"F5QF+WXV, Jl. Manokwari - Bintuni, Ransiki Kota, Distrik Ransiki, Kab. Manokwari Selatan, Papua Bar. 98355","Jl. Manokwari - Bintuni, Ransiki Kota, Distrik Ransiki, Kab. Manokwari Selatan",PAPUA BARAT,98355.0,Indonesia,81240349500.0,-1.5101487,134.1749211,https://maps.google.com/?cid=0x0:0xc69943f9cf8dc3e0
cafe,Kafe,Klinik Kopi Ransiki,"depan plasa telkom, jalan poros Jl. Manokwari - Bintuni, kampung, Distrik Ransiki, kabupaten, Papua Bar. 98355","jalan poros Jl. Manokwari - Bintuni, kampung, Distrik Ransiki, kabupaten",PAPUA BARAT,98355.0,Indonesia,,-1.5101132,134.1746207,https://maps.google.com/?cid=0x0:0x5dc9e986f86c6997
cafe,Penginapan,Penginapan Raipawi,"F5QW+748, Unnamed Road, Ransiki Kota, Distrik Ransiki, Kab. Manokwari Selatan, Papua Bar. 98355","Unnamed Road, Ransiki Kota, Distrik Ransiki, Kab. Manokwari Selatan",PAPUA BARAT,98355.0,Indonesia,82397172759.0,-1.5118361,134.1953347,https://maps.google.com/?cid=0x0:0xd21b439da7e00685
cafe,Kafe,Coffee Toraja,"F5VC+43R, Jl. Manokwari - Bintuni, Ransiki Kota, Distrik Ransiki, Kab. Manokwari Selatan, Papua Bar. 98355","Jl. Manokwari - Bintuni, Ransiki Kota, Distrik Ransiki, Kab. Manokwari Selatan",PAPUA BARAT,98355.0,Indonesia,81355533258.0,-1.5071434,134.1701373,https://maps.google.com/?cid=0x0:0x9a69b688a2ce1500
cafe,Bar Kopi Espresso,Pionir billiard Titik kumpul coffee shop,"Sabri, Distrik Ransiki, Kab. Manokwari Selatan, Papua Bar. 98355","Distrik Ransiki, Kab. Manokwari Selatan",PAPUA BARAT,98355.0,Indonesia,,-1.4966425,134.1502484,https://maps.google.com/?cid=0x0:0x75f2e250a78b8af5
cafe,Rumah Kaca,Nongki Papua,"F5V9+FQG, Ransiki Kota, Distrik Ransiki, Kab. Manokwari Selatan, Papua Bar. 98355","Ransiki Kota, Distrik Ransiki, Kab. Manokwari Selatan",PAPUA BARAT,98355.0,Indonesia,85244484810.0,-1.5063242,134.1694519,https://maps.google.com/?cid=0x0:0x8b70c06583ba048c
cafe,Kedai Kopi,Cafe Kopi Boss Daeng Ransiki,"Sabri, Distrik Ransiki, Kabupaten Manokwari, Papua Bar.","Kabupaten Manokwari, Papua Bar.",PAPUA BARAT,,Indonesia,,-1.5014538,134.1590573,https://maps.google.com/?cid=0x0:0x5559d81594dbb944
cafe,Kedai Kopi,Titik Kumpul Cafe,"Jalan Sujarwo Condronegoro SH, Ransiki Kota, Distrik Ransiki, Kab. Manokwari Selatan, Papua Bar. 98324","Ransiki Kota, Distrik Ransiki, Kab. Manokwari Selatan",PAPUA BARAT,98324.0,Indonesia,82197517011.0,-1.516433,134.180298,https://maps.google.com/?cid=0x0:0x2417976b0770f56f
cafe,Kedai Kopi,Warung Kopi 513,"G523+R9C, Jl. Manokwari - Bintuni, Sabri, Distrik Manokwari, Kab. Manokwari Selatan, Papua Bar. 98355","Jl. Manokwari - Bintuni, Sabri, Distrik Manokwari, Kab. Manokwari Selatan",PAPUA BARAT,98355.0,Indonesia,,-1.4979384,134.1533848,https://maps.google.com/?cid=0x0:0x61468e15fb16bcf1
cafe,Rumah Makan,Kedai Family MTR,"F5VC+V34, Ransiki Kota, Distrik Ransiki, Kab. Manokwari Selatan, Papua Bar. 98355","Ransiki Kota, Distrik Ransiki, Kab. Manokwari Selatan",PAPUA BARAT,98355.0,Indonesia,82199251825.0,-1.5054509,134.1702643,https://maps.google.com/?cid=0x0:0xc6cbc7a494154db7
cafe,cafe,Distrik Neney,"Kab. Manokwari Selatan, Papua Bar.","Kab. Manokwari Selatan, Papua Bar.",PAPUA BARAT,,Indonesia,,-1.4926563,133.9961457,https://maps.google.com/?cid=0x0:0x8d599f8b59144cf3
cafe,Mesin Sangrai Kopi,Alenia Papua Coffee  Kitchen,"Jl. Kemang Raya No.66 B 8, RT.8/RW.2, Bangka, Kec. Mampang Prpt., Kota Jakarta Selatan, Daerah Khusus Ibukota Jakarta 12730","RT.8/RW.2, Bangka, Kec. Mampang Prpt., Kota Jakarta Selatan",PAPUA BARAT,12730.0,Indonesia,2171790141.0,-6.2638119,106.8158777,https://maps.google.com/?cid=0x0:0xe49807fcfab68b48
cafe,Kedai Kopi,N Nine Coffee,"Jl. Danau Limboto No.14, Bend. Hilir, Kecamatan Tanah Abang, Jakarta, Daerah Khusus Ibukota Jakarta 10210","Bend. Hilir, Kecamatan Tanah Abang, Jakarta",PAPUA BARAT,10210.0,Indonesia,85786633505.0,-6.2083197,106.8060062,https://maps.google.com/?cid=0x0:0x441ec9f9a6bd3686
cafe,Kafe,Jay  Ray Cafe Net,"V8X9+632, Persatuan, Kec. Mandobo, Kabupaten Boven Digoel, Papua 99663","Persatuan, Kec. Mandobo, Kabupaten Boven Digoel",PAPUA BARAT,99663.0,Indonesia,,-6.1019794,140.317631,https://maps.google.com/?cid=0x0:0x88f80a90654a8769
cafe,Kedai Kopi,TERU,"Jl. Barito I No.19, RT.4/RW.1, Kramat Pela, Kec. Kby. Baru, Kota Jakarta Selatan, Daerah Khusus Ibukota Jakarta 12130","RT.4/RW.1, Kramat Pela, Kec. Kby. Baru, Kota Jakarta Selatan",PAPUA BARAT,12130.0,Indonesia,81291004266.0,-6.2437594,106.7933397,https://maps.google.com/?cid=0x0:0xafcdf022dcc55410
cafe,Kafe,Keday MJM,"VGGR+XGG, Unnamed Road, Bintuni Tim., Distrik Bintuni, Kabupaten Teluk Bintuni, Papua Bar. 98364","Unnamed Road, Bintuni Tim., Distrik Bintuni, Kabupaten Teluk Bintuni",PAPUA BARAT,98364.0,Indonesia,82398401221.0,-2.1225684,133.5413437,https://maps.google.com/?cid=0x0:0x66762cea44710e2b
cafe,Kafe,NoSTRO CAFE  EATERY,"Brawijaya Hospital - Saharjo, Jl. Dr. Saharjo No.199, Tebet Bar., Kec. Tebet, Kota Jakarta Selatan, Daerah Khusus Ibukota Jakarta 12870","Jl. Dr. Saharjo No.199, Tebet Bar., Kec. Tebet, Kota Jakarta Selatan",PAPUA BARAT,12870.0,Indonesia,85156473016.0,-6.2246146,106.8477887,https://maps.google.com/?cid=0x0:0x77698ab879838e7c
cafe,Kedai Kopi,Familiy nyonge,"5PRM+M8Q, Dasa Wisma Anggrek Ungu, Bowi Subur, Distrik Masni, Kabupaten Manokwari, Papua Bar. 98357","Dasa Wisma Anggrek Ungu, Bowi Subur, Distrik Masni, Kabupaten Manokwari",PAPUA BARAT,98357.0,Indonesia,,-0.808186,133.733422,https://maps.google.com/?cid=0x0:0x3875b6d7e0ab2de8
cafe,Kafe,Alfredoe Mini Caffe,"425W+J68, Jalan, Gunung, Sowi, Manokwari Selatan, Manokwari Regency, West Papua 98315","Jalan, Gunung, Sowi, Manokwari Selatan, Manokwari Regency",PAPUA BARAT,98315.0,Indonesia,,-0.8909552,134.0455814,https://maps.google.com/?cid=0x0:0xcd0c223d0c01240f
cafe,Kedai Kopi,Warung Kopi Nenek IBU,"468R+7XQ, Serui Kota, Kec. Yapen Sel., Kabupaten Kepulauan Yapen, Papua 98215","Serui Kota, Kec. Yapen Sel., Kabupaten Kepulauan Yapen",PAPUA BARAT,98215.0,Indonesia,81340926864.0,-1.884299,136.242477,https://maps.google.com/?cid=0x0:0x57c02be4ee9fd4c
cafe,Thailand,Busaba A Thai Cafe,"Pacific Place Mall, Jl. Jenderal Sudirman No.52-53 Ground Floor, RT.5/RW.3, Senayan, Kec. Kby. Baru, Kota Jakarta Selatan, Daerah Khusus Ibukota Jakarta 12190","Jl. Jenderal Sudirman No.52-53 Ground Floor, RT.5/RW.3, Senayan, Kec. Kby. Baru, Kota Jakarta Selatan",PAPUA BARAT,12190.0,Indonesia,81936113485.0,-6.224618,106.8099103,https://maps.google.com/?cid=0x0:0x2012a2bd6be6f5b7
cafe,Kafe,Warung Nene,"Jl. Kusuma No.24 6, RT.5/RW.8, Ragunan, Ps. Minggu, Kota Jakarta Selatan, Daerah Khusus Ibukota Jakarta 12550","RT.5/RW.8, Ragunan, Ps. Minggu, Kota Jakarta Selatan",PAPUA BARAT,12550.0,Indonesia,81317416979.0,-6.3043191,106.8160169,https://maps.google.com/?cid=0x0:0x4c768c3ca08365e2
cafe,Kafe,Warung Econ,"1, Jl. Warung Jati Barat No.16, RT.1/RW.11, Ragunan, Ps. Minggu, Kota Jakarta Selatan, Daerah Khusus Ibukota Jakarta 12510","Jl. Warung Jati Barat No.16, RT.1/RW.11, Ragunan, Ps. Minggu, Kota Jakarta Selatan",PAPUA BARAT,12510.0,Indonesia,,-6.281369,106.8277419,https://maps.google.com/?cid=0x0:0x6a030ead6798522
cafe,cafe,Papua Bar. 98353,"Kabupaten Manokwari, Papua Bar.","Kabupaten Manokwari, Papua Bar.",PAPUA BARAT,,Indonesia,,-1.2869478,134.1340439,https://maps.google.com/?cid=0x0:0x8a0ea672dc22a2db
cafe,Kafe,ALZENA CAFE,"M6F9+4J9, Akeju, Kec. Oransbari, Kab. Manokwari Selatan, Papua Bar. 98353","Akeju, Kec. Oransbari, Kab. Manokwari Selatan",PAPUA BARAT,98353.0,Indonesia,,-1.3272125,134.2191094,https://maps.google.com/?cid=0x0:0xff49004cc70400e2
cafe,Indonesia,RUMAH MAKAN PAOTERE ORANSBARI MANOKWARI SELATAN,"M6J9+J4Q, Sidomulyo, Kec. Oransbari, Kab. Manokwari Selatan, Papua Bar. 98353","Sidomulyo, Kec. Oransbari, Kab. Manokwari Selatan",PAPUA BARAT,98353.0,Indonesia,82198935488.0,-1.3184086,134.2178642,https://maps.google.com/?cid=0x0:0x479ba19d179f77b5
cafe,Brunch,"RM Wonogiri, Oransbari, Manokwari Selatan","Jl. Merdeka No.RT 04, Margomulyo, Kec. Oransbari, Kab. Manokwari Selatan, Papua Bar. 98353","Margomulyo, Kec. Oransbari, Kab. Manokwari Selatan",PAPUA BARAT,98353.0,Indonesia,85314215658.0,-1.3371098,134.2281232,https://maps.google.com/?cid=0x0:0xa9e2effb13aabba5
cafe,Kafe,Shalon dan Cafe Janah,"M6F7+29X, Akeju, Kec. Oransbari, Kabupaten Manokwari, Papua Bar. 98353","Akeju, Kec. Oransbari, Kabupaten Manokwari",PAPUA BARAT,98353.0,Indonesia,82238397420.0,-1.3273886,134.2134985,https://maps.google.com/?cid=0x0:0xc16faef60b354aca
cafe,Padang,Warung Makan Putri Tunggal,"M67F+XGC, Margomulyo, Kec. Oransbari, Kabupaten Manokwari, Papua Bar. 98353","Margomulyo, Kec. Oransbari, Kabupaten Manokwari",PAPUA BARAT,98353.0,Indonesia,,-1.3350724,134.2237771,https://maps.google.com/?cid=0x0:0xb455b352ffee6102
cafe,Indonesia,Waroeng sawah,"M67P+J24, Unnamed Road, Muari, Kec. Oransbari, Kab. Manokwari Selatan, Papua Bar. 98353","Unnamed Road, Muari, Kec. Oransbari, Kab. Manokwari Selatan",PAPUA BARAT,98353.0,Indonesia,,-1.3359848,134.2350903,https://maps.google.com/?cid=0x0:0xff152faff9a9e1e5
cafe,Brunch,R.M. Otawar Oransbari,"M638+FXP, Muari, Kec. Oransbari, Kabupaten Manokwari, Papua Bar. 98353","Muari, Kec. Oransbari, Kabupaten Manokwari",PAPUA BARAT,98353.0,Indonesia,,-1.3462858,134.2174427,https://maps.google.com/?cid=0x0:0x811a68840257a9d5
cafe,Kafe,Kedai Waktu Luang,"Akeju, Sidomulyo, Kabupaten Manokwari, Papua Bar. 98321","Sidomulyo, Kabupaten Manokwari",PAPUA BARAT,98321.0,Indonesia,81248589891.0,-1.3245673,134.2175163,https://maps.google.com/?cid=0x0:0x966a5ebb0932749d
cafe,Brunch,Warung makan LUMAYAN BANGKONO,"M5VJ+6JR, Sidomulyo, Kec. Oransbari, Kab. Manokwari Selatan, Papua Bar. 98353","Sidomulyo, Kec. Oransbari, Kab. Manokwari Selatan",PAPUA BARAT,98353.0,Indonesia,,-1.3068935,134.1815176,https://maps.google.com/?cid=0x0:0xa004ea927db7ce02
cafe,Brunch,RM. PAPUA TURATEA,"M68C+XH9, Margomulyo, Kec. Oransbari, Kabupaten Manokwari, Papua Bar. 98353","Margomulyo, Kec. Oransbari, Kabupaten Manokwari",PAPUA BARAT,98353.0,Indonesia,82196466955.0,-1.3325994,134.2214754,https://maps.google.com/?cid=0x0:0xd7922be73a387289
cafe,Nasi,Rumah Makan Sederhana,"M69C+CC2, Margomulyo, Kec. Oransbari, Kabupaten Manokwari, Papua Bar. 98353","Margomulyo, Kec. Oransbari, Kabupaten Manokwari",PAPUA BARAT,98353.0,Indonesia,81229006341.0,-1.3315287,134.2210189,https://maps.google.com/?cid=0x0:0x548aede3c41a2904
cafe,Restoran,Warung safira,"M69C+CC2, Margomulyo, Kec. Oransbari, Kabupaten Manokwari, Papua Bar. 98353","Margomulyo, Kec. Oransbari, Kabupaten Manokwari",PAPUA BARAT,98353.0,Indonesia,,-1.3314472,134.221111,https://maps.google.com/?cid=0x0:0x1e42efc87b9c352f
cafe,Restoran,R.M. MANGGA DUA,"M6MH+JCF, Jl. Manokwari - Bintuni, Sindang Jaya, Kec. Oransbari, Kab. Manokwari Selatan, Papua Bar. 98353","Jl. Manokwari - Bintuni, Sindang Jaya, Kec. Oransbari, Kab. Manokwari Selatan",PAPUA BARAT,98353.0,Indonesia,,-1.3159443,134.228541,https://maps.google.com/?cid=0x0:0x4cccf41410bd39c7
cafe,cafe,Ransiki,"Ransiki Kota, Distrik Ransiki, Kab. Manokwari Selatan, Papua Bar.","Kab. Manokwari Selatan, Papua Bar.",PAPUA BARAT,,Indonesia,,-1.516433,134.180298,https://maps.google.com/?cid=0x0:0xc2f9404ccd6ec72a
cafe,Kafe,Klinik Kopi Ransiki,"depan plasa telkom, jalan poros Jl. Manokwari - Bintuni, kampung, Distrik Ransiki, kabupaten, Papua Bar. 98355","jalan poros Jl. Manokwari - Bintuni, kampung, Distrik Ransiki, kabupaten",PAPUA BARAT,98355.0,Indonesia,,-1.5101132,134.1746207,https://maps.google.com/?cid=0x0:0x5dc9e986f86c6997
cafe,Kedai Kopi,Cafe Kopi Boss Daeng Ransiki,"Sabri, Distrik Ransiki, Kabupaten Manokwari, Papua Bar.","Kabupaten Manokwari, Papua Bar.",PAPUA BARAT,,Indonesia,,-1.5014538,134.1590573,https://maps.google.com/?cid=0x0:0x5559d81594dbb944
cafe,Rumah Kaca,Nongki Papua,"F5V9+FQG, Ransiki Kota, Distrik Ransiki, Kab. Manokwari Selatan, Papua Bar. 98355","Ransiki Kota, Distrik Ransiki, Kab. Manokwari Selatan",PAPUA BARAT,98355.0,Indonesia,85244484810.0,-1.5063242,134.1694519,https://maps.google.com/?cid=0x0:0x8b70c06583ba048c
cafe,Gudang,Coffee Coklat,"KP.Abreso,Jalan Baru 2 Arah, Kab. Manokwari Selatan, Papua Bar.","Kab. Manokwari Selatan, Papua Bar.",PAPUA BARAT,,Indonesia,82238003267.0,-1.5081678,134.1950589,https://maps.google.com/?cid=0x0:0x71cba4ae223db3b
cafe,Kedai Kopi,Titik Kumpul Cafe,"Jalan Sujarwo Condronegoro SH, Ransiki Kota, Distrik Ransiki, Kab. Manokwari Selatan, Papua Bar. 98324","Ransiki Kota, Distrik Ransiki, Kab. Manokwari Selatan",PAPUA BARAT,98324.0,Indonesia,82197517011.0,-1.516433,134.180298,https://maps.google.com/?cid=0x0:0x2417976b0770f56f
cafe,Sate,Warung Makan Dila Ransiki,"F5WC+488, Jl. Abreso, Ransiki Kota, Distrik Ransiki, Kabupaten Manokwari, Papua Bar. 98355","Jl. Abreso, Ransiki Kota, Distrik Ransiki, Kabupaten Manokwari",PAPUA BARAT,98355.0,Indonesia,85254507304.0,-1.5047011,134.1708279,https://maps.google.com/?cid=0x0:0xac4ac7b675c9caba
cafe,Bar Kopi Espresso,Pionir billiard Titik kumpul coffee shop,"Sabri, Distrik Ransiki, Kab. Manokwari Selatan, Papua Bar. 98355","Distrik Ransiki, Kab. Manokwari Selatan",PAPUA BARAT,98355.0,Indonesia,,-1.4966425,134.1502484,https://maps.google.com/?cid=0x0:0x75f2e250a78b8af5
cafe,Kedai Kopi,WARKOP 21,"F5X5+J7F, Sabri, Distrik Ransiki, Kabupaten Manokwari, Papua Bar. 98355","Sabri, Distrik Ransiki, Kabupaten Manokwari",PAPUA BARAT,98355.0,Indonesia,81346483425.0,-1.5009308,134.1581596,https://maps.google.com/?cid=0x0:0x7e0becb6e1bfda81
cafe,Brunch,Warung makan,"Jl.ransiki kompleks kamasan depan kampus unipa, Papua Bar.","Kab. Manokwari Selatan, Papua Bar.",PAPUA BARAT,,Indonesia,82131398433.0,-1.516433,134.180298,https://maps.google.com/?cid=0x0:0xf0bb6008f73f5fd6
cafe,Kedai Kopi,Warung Sop Konro,"F5QV+F37, Ransiki Kota, Distrik Ransiki, Kab. Manokwari Selatan, Papua Bar. 98355","Ransiki Kota, Distrik Ransiki, Kab. Manokwari Selatan",PAPUA BARAT,98355.0,Indonesia,,-1.5113387,134.1926655,https://maps.google.com/?cid=0x0:0xc83cd2a49efaefec
cafe,Padang,Warung Makan Tampa Singgah,"F5WJ+JJJ, Ransiki Kota, Distrik Ransiki, Kab. Manokwari Selatan, Papua Bar. 98355","Ransiki Kota, Distrik Ransiki, Kab. Manokwari Selatan",PAPUA BARAT,98355.0,Indonesia,81247754774.0,-1.5034007,134.1815176,https://maps.google.com/?cid=0x0:0x874aec1ac772febc
cafe,Kedai Kopi,KOPIkir Sendiri Cafe,"425R+QWW Kantor bupati, Sowi, Distrik Manokwari, Kabupaten Manokwari, Papua Bar.","Kabupaten Manokwari, Papua Bar.",PAPUA BARAT,,Indonesia,81354179269.0,-0.8905188,134.0423211,https://maps.google.com/?cid=0x0:0xe18448fb10dff5fd
cafe,Kedai Kopi,HERMAN,"F6Q3+X32, Bamaha, Distrik Ransiki, Kab. Manokwari Selatan, Papua Bar. 98355","Bamaha, Distrik Ransiki, Kab. Manokwari Selatan",PAPUA BARAT,98355.0,Indonesia,,-1.5101205,134.2026367,https://maps.google.com/?cid=0x0:0xf4cb02fc78dc5d4
cafe,cafe,Papua Bar. 98355,"Kab. Manokwari Selatan, Papua Bar.","Kab. Manokwari Selatan, Papua Bar.",PAPUA BARAT,,Indonesia,,-1.8268019,134.0199152,https://maps.google.com/?cid=0x0:0x3c36f74a68c69218
cafe,Tujuan Wisata,Tanah Cinta,"83CF+5VC, Yermatum, Distrik Tahota, Kab. Manokwari Selatan, Papua Bar. 98355","Yermatum, Distrik Tahota, Kab. Manokwari Selatan",PAPUA BARAT,98355.0,Indonesia,,-1.679558,134.074642,https://maps.google.com/?cid=0x0:0x14111f69526e7d65
cafe,Kedai Kopi,FD Billiard  Coffeeshop,"Jln. Trans Manokwari, Ransiki Kota, Ransiki, Teluk Bintuni Regency, West Papua 98355","Ransiki Kota, Ransiki, Teluk Bintuni Regency",PAPUA BARAT,98355.0,Indonesia,81240269469.0,-1.5010586,134.1714819,https://maps.google.com/?cid=0x0:0xa3d36becfd448018
cafe,Kafe,Coffee Toraja,"F5VC+43R, Jl. Manokwari - Bintuni, Ransiki Kota, Distrik Ransiki, Kab. Manokwari Selatan, Papua Bar. 98355","Jl. Manokwari - Bintuni, Ransiki Kota, Distrik Ransiki, Kab. Manokwari Selatan",PAPUA BARAT,98355.0,Indonesia,81355533258.0,-1.5071434,134.1701373,https://maps.google.com/?cid=0x0:0x9a69b688a2ce1500
cafe,Nasi,Kedai Aqillah 17,"G43X+GVQ, Jl. Manokwari - Bintuni, Sabri, Distrik Ransiki, Kab. Manokwari Selatan, Papua Bar. 98355","Jl. Manokwari - Bintuni, Sabri, Distrik Ransiki, Kab. Manokwari Selatan",PAPUA BARAT,98355.0,Indonesia,,-1.4961665,134.1497345,https://maps.google.com/?cid=0x0:0x276e510edee12a4b
cafe,Gudang,Coffee Coklat,"KP.Abreso,Jalan Baru 2 Arah, Kab. Manokwari Selatan, Papua Bar.","Kab. Manokwari Selatan, Papua Bar.",PAPUA BARAT,,Indonesia,82238003267.0,-1.5081678,134.1950589,https://maps.google.com/?cid=0x0:0x71cba4ae223db3b
cafe,Kedai Kopi,Cafe Kopi Boss Daeng Ransiki,"Sabri, Distrik Ransiki, Kabupaten Manokwari, Papua Bar.","Kabupaten Manokwari, Papua Bar.",PAPUA BARAT,,Indonesia,,-1.5014538,134.1590573,https://maps.google.com/?cid=0x0:0x5559d81594dbb944
cafe,Penginapan,Penginapan Raipawi,"F5QW+748, Unnamed Road, Ransiki Kota, Distrik Ransiki, Kab. Manokwari Selatan, Papua Bar. 98355","Unnamed Road, Ransiki Kota, Distrik Ransiki, Kab. Manokwari Selatan",PAPUA BARAT,98355.0,Indonesia,82397172759.0,-1.5118361,134.1953347,https://maps.google.com/?cid=0x0:0xd21b439da7e00685
cafe,Dapur Umum,Catering TALITAKUM01,"G524+6FH, Sabri, Distrik Ransiki, Kab. Manokwari Selatan, Papua Bar. 98355","Sabri, Distrik Ransiki, Kab. Manokwari Selatan",PAPUA BARAT,98355.0,Indonesia,81340255101.0,-1.4994376,134.15624,https://maps.google.com/?cid=0x0:0x23e7397b39d52c9a
cafe,Sarapan,Rumah Makan Valdez,"F5QF+WXV, Jl. Manokwari - Bintuni, Ransiki Kota, Distrik Ransiki, Kab. Manokwari Selatan, Papua Bar. 98355","Jl. Manokwari - Bintuni, Ransiki Kota, Distrik Ransiki, Kab. Manokwari Selatan",PAPUA BARAT,98355.0,Indonesia,81240349500.0,-1.5101487,134.1749211,https://maps.google.com/?cid=0x0:0xc69943f9cf8dc3e0
cafe,Kafe,Klinik Kopi Ransiki,"depan plasa telkom, jalan poros Jl. Manokwari - Bintuni, kampung, Distrik Ransiki, kabupaten, Papua Bar. 98355","jalan poros Jl. Manokwari - Bintuni, kampung, Distrik Ransiki, kabupaten",PAPUA BARAT,98355.0,Indonesia,,-1.5101132,134.1746207,https://maps.google.com/?cid=0x0:0x5dc9e986f86c6997
cafe,Rumah Makan,Kedai Family MTR,"F5VC+V34, Ransiki Kota, Distrik Ransiki, Kab. Manokwari Selatan, Papua Bar. 98355","Ransiki Kota, Distrik Ransiki, Kab. Manokwari Selatan",PAPUA BARAT,98355.0,Indonesia,82199251825.0,-1.5054509,134.1702643,https://maps.google.com/?cid=0x0:0xc6cbc7a494154db7
cafe,Ikan Bakar,Dapoer Rosse,"F578+4JV, Jl. Manokwari - Bintuni, Hamawi, Kab. Manokwari Selatan, Papua Bar. 98355","Jl. Manokwari - Bintuni, Hamawi, Kab. Manokwari Selatan",PAPUA BARAT,98355.0,Indonesia,85254114300.0,-1.5371415,134.1665574,https://maps.google.com/?cid=0x0:0xcb50cf7155ac8e53
cafe,Kedai Kopi,Warung Kopi 513,"G523+R9C, Jl. Manokwari - Bintuni, Sabri, Distrik Manokwari, Kab. Manokwari Selatan, Papua Bar. 98355","Jl. Manokwari - Bintuni, Sabri, Distrik Manokwari, Kab. Manokwari Selatan",PAPUA BARAT,98355.0,Indonesia,,-1.4979384,134.1533848,https://maps.google.com/?cid=0x0:0x61468e15fb16bcf1
hotel,hotel,Papua Bar. 98359,Papua Bar.,Papua Bar.,PAPUA BARAT,,Indonesia,,-1.5213839,133.7525619,https://maps.google.com/?cid=0x0:0xc8a895044b18d7c8
hotel,hotel,Mahanaim Hotel dan Homestay Manokwari,"jln trikora kalidingin no 109, Wosi, Kec. Manokwari Bar., Kabupaten Manokwari, Papua Bar. 98312","Wosi, Kec. Manokwari Bar., Kabupaten Manokwari",PAPUA BARAT,98312.0,Indonesia,8124830147.0,-0.8699305,134.0471193,https://maps.google.com/?cid=0x0:0xeec6727952b4f3e6
hotel,hotel,Hotel Mapia,"Jl. Jend. Ahmad Yani No.23, Mandala, Kec. Biak Kota, Kabupaten Biak Numfor, Papua 98111","Mandala, Kec. Biak Kota, Kabupaten Biak Numfor",PAPUA BARAT,98111.0,Indonesia,98121383.0,-1.1848375,136.0856602,https://maps.google.com/?cid=0x0:0x15f6e40202cd7120
hotel,hotel,Frances Homestay,"CJF8+H7, Kurkapa, Kabupaten Raja Ampat, Papua Bar.","Kabupaten Raja Ampat, Papua Bar.",PAPUA BARAT,,Indonesia,,-0.5737089,130.6207701,https://maps.google.com/?cid=0x0:0x2da7e8e00eb3b56a
hotel,hotel,Hotel Marasi,"R445+X37, Jl. M Yamin, Ambroben, Kec. Biak Kota, Kabupaten Biak Numfor, Papua 98118","Jl. M Yamin, Ambroben, Kec. Biak Kota, Kabupaten Biak Numfor",PAPUA BARAT,98118.0,Indonesia,,-1.192595,136.1076812,https://maps.google.com/?cid=0x0:0x166c2b58a3cf153e
hotel,hotel,O,"Jl. Jend. A. Yani No.27, Malabutor, Kecamatan Sorong Manoi, Kota Sorong, Papua Bar. 98412","Malabutor, Kecamatan Sorong Manoi, Kota Sorong",PAPUA BARAT,98412.0,Indonesia,,-0.8827427,131.2828186,https://maps.google.com/?cid=0x0:0x9aebba5ddda67893
hotel,hotel,Distrik Momi Waren,"Kab. Manokwari Selatan, Papua Bar.","Kab. Manokwari Selatan, Papua Bar.",PAPUA BARAT,,Indonesia,,-1.589112,134.1139979,https://maps.google.com/?cid=0x0:0xf7889c42ea8b544b
hotel,Hotel,Srikandi Hotel,"Ransiki Kota, Distrik Ransiki, Kabupaten Manokwari, Papua Bar. 98355","Distrik Ransiki, Kabupaten Manokwari",PAPUA BARAT,98355.0,Indonesia,82395960356.0,-1.5051115,134.1702236,https://maps.google.com/?cid=0x0:0x136fe7052b246d49
hotel,Pondok,numax manufandu,"F5QW+9H9, Jl. Manokwari - Bintuni, Ransiki Kota, Distrik Ransiki, Kab. Manokwari Selatan, Papua Bar. 98355","Jl. Manokwari - Bintuni, Ransiki Kota, Distrik Ransiki, Kab. Manokwari Selatan",PAPUA BARAT,98355.0,Indonesia,,-1.5115819,134.1964992,https://maps.google.com/?cid=0x0:0xc5dbae926146f76d
hotel,Hotel,Srikandi hotel,"Jln. Sujarwo Condronegoro, Papua Bar. 98324","Kab. Manokwari Selatan, Papua Bar.",PAPUA BARAT,,Indonesia,81244960284.0,-1.5104235,134.1820505,https://maps.google.com/?cid=0x0:0x697582e8780db5ed
hotel,Hotel,Ransiki,"F5V9+JGP, Ransiki Kota, Distrik Ransiki, Kabupaten Manokwari, Papua Bar. 98355","Ransiki Kota, Distrik Ransiki, Kabupaten Manokwari",PAPUA BARAT,98355.0,Indonesia,,-1.5059231,134.1688136,https://maps.google.com/?cid=0x0:0xd1dbc857027caa73
hotel,hotel,,,,PAPUA BARAT,,Indonesia,,,,https://maps.google.com/?cid=0x0:0x92c98d5e96ee2a8f%7C/g/1yl475f47%7Cid-ID
hotel,hotel,Swiss Belhotel Manokwari,"Jl. Yos Sudarso Manokwari No.8, Manokwari Bar., Kec. Manokwari Bar., Kabupaten Manokwari, Papua Bar. 98312","Manokwari Bar., Kec. Manokwari Bar., Kabupaten Manokwari",PAPUA BARAT,98312.0,Indonesia,8114854000.0,-0.8572937,134.0672125,https://maps.google.com/?cid=0x0:0x92c98d5e96ee2a8f
hotel,hotel,Aston Niu Manokwari,"Sogun Hill, Jl. Drs Esau Sesa No.3 Blok B, Sowi, Distrik Manokwari, Kabupaten Manokwari, Papua Bar. 98315","Jl. Drs Esau Sesa No.3 Blok B, Sowi, Distrik Manokwari, Kabupaten Manokwari",PAPUA BARAT,98315.0,Indonesia,81369878787.0,-0.8978109,134.0416499,https://maps.google.com/?cid=0x0:0xe96b706fef94b3a2
hotel,hotel,Mahanaim Hotel dan Homestay Manokwari,"jln trikora kalidingin no 109, Wosi, Kec. Manokwari Bar., Kabupaten Manokwari, Papua Bar. 98312","Wosi, Kec. Manokwari Bar., Kabupaten Manokwari",PAPUA BARAT,98312.0,Indonesia,8124830147.0,-0.8699305,134.0471193,https://maps.google.com/?cid=0x0:0xeec6727952b4f3e6
hotel,hotel,Amban Beach House,"Amban, Pantai, Kabupaten Manokwari, Papua Bar. 98312","Pantai, Kabupaten Manokwari",PAPUA BARAT,98312.0,Indonesia,85251590060.0,-0.8151637,134.0780254,https://maps.google.com/?cid=0x0:0x6bfad7f54baf0beb
hotel,hotel,Pulau Mansinam,"Mansinam, Kec. Manokwari Tim., Kabupaten Manokwari, Papua Bar.","Kabupaten Manokwari, Papua Bar.",PAPUA BARAT,,Indonesia,,-0.9141667,134.1083333,https://maps.google.com/?cid=0x0:0x94a3a276c08ef3eb
hotel,hotel,The Alexander Hotel,"43V9+HX4, Jl. Jend. Sudirman, Padarni, Kec. Manokwari Bar., Kabupaten Manokwari, Papua Bar. 98312","Jl. Jend. Sudirman, Padarni, Kec. Manokwari Bar., Kabupaten Manokwari",PAPUA BARAT,98312.0,Indonesia,9862214551.0,-0.8561036,134.06994,https://maps.google.com/?cid=0x0:0xdc6bdc355d4e63ab
hotel,Taman bermain,Pantai Tembok Berlin,"46HW+373, Kp. Baru, Distrik Sorong, Kota Sorong, Papua Bar. 98411","Kp. Baru, Distrik Sorong, Kota Sorong",PAPUA BARAT,98411.0,Indonesia,,-0.8723739,131.2456856,https://maps.google.com/?cid=0x0:0x5ea7c8af20034304
hotel,hotel,New Waigo Hotel,"Jl. Yos. Sudarso, RT./RW/RW.007/08, Kp. Baru, Distrik Sorong, Kota Sorong, Papua Bar. 98411","RT./RW/RW.007/08, Kp. Baru, Distrik Sorong, Kota Sorong",PAPUA BARAT,98411.0,Indonesia,81148800550.0,-0.8687506,131.2466917,https://maps.google.com/?cid=0x0:0x3ea64c8c78b822af
hotel,hotel,Mansinam Beach Hotel,"43CR+H6X, Jl. Pasir Putih No.7, Pasir Putih, Kec. Manokwari Tim., Kabupaten Manokwari, Papua Bar. 98313","Jl. Pasir Putih No.7, Pasir Putih, Kec. Manokwari Tim., Kabupaten Manokwari",PAPUA BARAT,98313.0,Indonesia,986213585.0,-0.878422,134.0901197,https://maps.google.com/?cid=0x0:0x7d51b487bac82f8f
hotel,hotel,RAMA TRANSITO HOTEL,"42RV+276, Unnamed Road, Wosi, Kec. Manokwari Bar., Kabupaten Manokwari, Papua Bar. 98312","Unnamed Road, Wosi, Kec. Manokwari Bar., Kabupaten Manokwari",PAPUA BARAT,98312.0,Indonesia,82198250318.0,-0.8599684,134.0431297,https://maps.google.com/?cid=0x0:0x61e002737b3747f1
hotel,hotel,RedDoorz near Reremi Pemancar Manokwari,"JL. Ekonomi Reremi Manokwari, SMKN 3, Kabupaten Manokwari, Papua Bar. 98312","SMKN 3, Kabupaten Manokwari",PAPUA BARAT,98312.0,Indonesia,895417300072.0,-0.8564389,134.0627895,https://maps.google.com/?cid=0x0:0xe2ead707b1bdd259
hotel,hotel,Mahanaim Hotel dan Homestay Manokwari,"jln trikora kalidingin no 109, Wosi, Kec. Manokwari Bar., Kabupaten Manokwari, Papua Bar. 98312","Wosi, Kec. Manokwari Bar., Kabupaten Manokwari",PAPUA BARAT,98312.0,Indonesia,8124830147.0,-0.8699305,134.0471193,https://maps.google.com/?cid=0x0:0xeec6727952b4f3e6
hotel,hotel,Quattrick Dee Homestay,"Jl. KPR Reremi Permai, Manokwari Bar., Kec. Manokwari Bar., Kabupaten Manokwari, Papua Bar. 98312","Manokwari Bar., Kec. Manokwari Bar., Kabupaten Manokwari",PAPUA BARAT,98312.0,Indonesia,895417300072.0,-0.8533263,134.0555329,https://maps.google.com/?cid=0x0:0xf2c8eb1ca8dee63b
hotel,hotel,The Alexander Hotel,"43V9+HX4, Jl. Jend. Sudirman, Padarni, Kec. Manokwari Bar., Kabupaten Manokwari, Papua Bar. 98312","Jl. Jend. Sudirman, Padarni, Kec. Manokwari Bar., Kabupaten Manokwari",PAPUA BARAT,98312.0,Indonesia,9862214551.0,-0.8561036,134.06994,https://maps.google.com/?cid=0x0:0xdc6bdc355d4e63ab
hotel,hotel,Pulau Mansinam,"Mansinam, Kec. Manokwari Tim., Kabupaten Manokwari, Papua Bar.","Kabupaten Manokwari, Papua Bar.",PAPUA BARAT,,Indonesia,,-0.9141667,134.1083333,https://maps.google.com/?cid=0x0:0x94a3a276c08ef3eb
hotel,hotel,Papua Bar. 98353,"Kabupaten Manokwari, Papua Bar.","Kabupaten Manokwari, Papua Bar.",PAPUA BARAT,,Indonesia,,-1.2869478,134.1340439,https://maps.google.com/?cid=0x0:0x8a0ea672dc22a2db
hotel,hotel,Hotel Rama,"42JW+GWX, Jl. Trikora Rendani, Wosi, Kec. Manokwari Bar., Kabupaten Manokwari, Papua Bar. 98312","Jl. Trikora Rendani, Wosi, Kec. Manokwari Bar., Kabupaten Manokwari",PAPUA BARAT,98312.0,Indonesia,,-0.8686391,134.0473473,https://maps.google.com/?cid=0x0:0xbc8387651670c591
hotel,hotel,Swiss Belhotel Manokwari,"Jl. Yos Sudarso Manokwari No.8, Manokwari Bar., Kec. Manokwari Bar., Kabupaten Manokwari, Papua Bar. 98312","Manokwari Bar., Kec. Manokwari Bar., Kabupaten Manokwari",PAPUA BARAT,98312.0,Indonesia,8114854000.0,-0.8572937,134.0672125,https://maps.google.com/?cid=0x0:0x92c98d5e96ee2a8f
hotel,hotel,Hotel Triton,"Jl. Gn. Salju No.6, Manokwari Bar., Kec. Manokwari Bar., Kabupaten Manokwari, Papua Bar. 98311","Manokwari Bar., Kec. Manokwari Bar., Kabupaten Manokwari",PAPUA BARAT,98311.0,Indonesia,986212666.0,-0.8532727,134.068781,https://maps.google.com/?cid=0x0:0x6021b02b4fb20af
hotel,hotel,,,,PAPUA BARAT,,Indonesia,,,,https://maps.google.com/?cid=0x0:0xe96b706fef94b3a2%7C/g/120jr49w%7Cid-ID
hotel,hotel,Aston Niu Manokwari,"Sogun Hill, Jl. Drs Esau Sesa No.3 Blok B, Sowi, Distrik Manokwari, Kabupaten Manokwari, Papua Bar. 98315","Jl. Drs Esau Sesa No.3 Blok B, Sowi, Distrik Manokwari, Kabupaten Manokwari",PAPUA BARAT,98315.0,Indonesia,81369878787.0,-0.8978109,134.0416499,https://maps.google.com/?cid=0x0:0xe96b706fef94b3a2
hotel,hotel,RAMA TRANSITO HOTEL,"42RV+276, Unnamed Road, Wosi, Kec. Manokwari Bar., Kabupaten Manokwari, Papua Bar. 98312","Unnamed Road, Wosi, Kec. Manokwari Bar., Kabupaten Manokwari",PAPUA BARAT,98312.0,Indonesia,82198250318.0,-0.8599684,134.0431297,https://maps.google.com/?cid=0x0:0x61e002737b3747f1
hotel,hotel,Mahanaim Hotel dan Homestay Manokwari,"jln trikora kalidingin no 109, Wosi, Kec. Manokwari Bar., Kabupaten Manokwari, Papua Bar. 98312","Wosi, Kec. Manokwari Bar., Kabupaten Manokwari",PAPUA BARAT,98312.0,Indonesia,8124830147.0,-0.8699305,134.0471193,https://maps.google.com/?cid=0x0:0xeec6727952b4f3e6
hotel,hotel,Mansinam Beach Hotel,"43CR+H6X, Jl. Pasir Putih No.7, Pasir Putih, Kec. Manokwari Tim., Kabupaten Manokwari, Papua Bar. 98313","Jl. Pasir Putih No.7, Pasir Putih, Kec. Manokwari Tim., Kabupaten Manokwari",PAPUA BARAT,98313.0,Indonesia,986213585.0,-0.878422,134.0901197,https://maps.google.com/?cid=0x0:0x7d51b487bac82f8f
hotel,hotel,Oriestom Bay Hotel,"43F2+G29, Jl. Trikora Rendani, Wosi, Kec. Manokwari Bar., Kabupaten Manokwari, Papua Bar. 98312","Jl. Trikora Rendani, Wosi, Kec. Manokwari Bar., Kabupaten Manokwari",PAPUA BARAT,98312.0,Indonesia,81240197780.0,-0.8762108,134.0501061,https://maps.google.com/?cid=0x0:0x8bd50034329ebf97
hotel,hotel,RedDoorz near Reremi Pemancar Manokwari,"JL. Ekonomi Reremi Manokwari, SMKN 3, Kabupaten Manokwari, Papua Bar. 98312","SMKN 3, Kabupaten Manokwari",PAPUA BARAT,98312.0,Indonesia,895417300072.0,-0.8564389,134.0627895,https://maps.google.com/?cid=0x0:0xe2ead707b1bdd259
hotel,hotel,Hotel Fujita Papua,"Jl. Drs Esau Sesa, Wosi, Kec. Manokwari Bar., Kabupaten Manokwari, Papua Bar. 98312","Wosi, Kec. Manokwari Bar., Kabupaten Manokwari",PAPUA BARAT,98312.0,Indonesia,9862210707.0,-0.8727087,134.0465433,https://maps.google.com/?cid=0x0:0x12ad8f54a87fdc03
hotel,hotel,Lin Hotel,"Jl. Merdeka, Padarni, Kec. Manokwari Bar., Kabupaten Manokwari, Papua Bar. 98312","Padarni, Kec. Manokwari Bar., Kabupaten Manokwari",PAPUA BARAT,98312.0,Indonesia,9862210524.0,-0.8548281,134.0697853,https://maps.google.com/?cid=0x0:0xed579408172519e3
hotel,hotel,Valdos Hotel Manokwari,"43J5+F44, Jl. Trikora Wosi, Wosi, Kec. Manokwari Bar., Kabupaten Manokwari, Papua Bar. 98312","Jl. Trikora Wosi, Wosi, Kec. Manokwari Bar., Kabupaten Manokwari",PAPUA BARAT,98312.0,Indonesia,986213044.0,-0.8688721,134.0578193,https://maps.google.com/?cid=0x0:0x60b28ba9ef2d716e
hotel,hotel,Ransiki,"Ransiki Kota, Distrik Ransiki, Kab. Manokwari Selatan, Papua Bar.","Kab. Manokwari Selatan, Papua Bar.",PAPUA BARAT,,Indonesia,,-1.516433,134.180298,https://maps.google.com/?cid=0x0:0xc2f9404ccd6ec72a
hotel,hotel,Hotel Rama,"42JW+GWX, Jl. Trikora Rendani, Wosi, Kec. Manokwari Bar., Kabupaten Manokwari, Papua Bar. 98312","Jl. Trikora Rendani, Wosi, Kec. Manokwari Bar., Kabupaten Manokwari",PAPUA BARAT,98312.0,Indonesia,,-0.8686391,134.0473473,https://maps.google.com/?cid=0x0:0xbc8387651670c591
hotel,hotel,Mahanaim Hotel dan Homestay Manokwari,"jln trikora kalidingin no 109, Wosi, Kec. Manokwari Bar., Kabupaten Manokwari, Papua Bar. 98312","Wosi, Kec. Manokwari Bar., Kabupaten Manokwari",PAPUA BARAT,98312.0,Indonesia,8124830147.0,-0.8699305,134.0471193,https://maps.google.com/?cid=0x0:0xeec6727952b4f3e6
hotel,hotel,,,,PAPUA BARAT,,Indonesia,,,,https://maps.google.com/?cid=0x0:0x92c98d5e96ee2a8f%7C/g/1yl475f47%7Cid-ID
hotel,hotel,RAMA TRANSITO HOTEL,"42RV+276, Unnamed Road, Wosi, Kec. Manokwari Bar., Kabupaten Manokwari, Papua Bar. 98312","Unnamed Road, Wosi, Kec. Manokwari Bar., Kabupaten Manokwari",PAPUA BARAT,98312.0,Indonesia,82198250318.0,-0.8599684,134.0431297,https://maps.google.com/?cid=0x0:0x61e002737b3747f1
hotel,hotel,Lin Hotel,"Jl. Merdeka, Padarni, Kec. Manokwari Bar., Kabupaten Manokwari, Papua Bar. 98312","Padarni, Kec. Manokwari Bar., Kabupaten Manokwari",PAPUA BARAT,98312.0,Indonesia,9862210524.0,-0.8548281,134.0697853,https://maps.google.com/?cid=0x0:0xed579408172519e3
hotel,hotel,Fajar Roon Hotel,"Jl. Trikora Wosi, Wosi, Kec. Manokwari Bar., Kabupaten Manokwari, Papua Bar. 98312","Wosi, Kec. Manokwari Bar., Kabupaten Manokwari",PAPUA BARAT,98312.0,Indonesia,85333112338.0,-0.8680273,134.0564644,https://maps.google.com/?cid=0x0:0xec6cf3d20bba5444
hotel,hotel,Soribo Hotel,"42HX+88F, Jl. Trikora Taman Ria, Wosi, Kec. Manokwari Bar., Kabupaten Manokwari, Papua Bar. 98312","Jl. Trikora Taman Ria, Wosi, Kec. Manokwari Bar., Kabupaten Manokwari",PAPUA BARAT,98312.0,Indonesia,82399358933.0,-0.8716912,134.0482957,https://maps.google.com/?cid=0x0:0x2fa30b65d0c34345
hotel,Hotel,Srikandi Hotel,"Ransiki Kota, Distrik Ransiki, Kabupaten Manokwari, Papua Bar. 98355","Distrik Ransiki, Kabupaten Manokwari",PAPUA BARAT,98355.0,Indonesia,82395960356.0,-1.5051115,134.1702236,https://maps.google.com/?cid=0x0:0x136fe7052b246d49
hotel,hotel,Mangga Hotel,"Jl. Bhayangkara No.1, Manokwari Tim., Kec. Manokwari Bar., Kabupaten Manokwari, Papua Bar. 98312","Manokwari Tim., Kec. Manokwari Bar., Kabupaten Manokwari",PAPUA BARAT,98312.0,Indonesia,62986211693.0,-0.870176,134.0778405,https://maps.google.com/?cid=0x0:0x3d2ada72a869c631
hotel,Hotel,Ransiki,"F5V9+JGP, Ransiki Kota, Distrik Ransiki, Kabupaten Manokwari, Papua Bar. 98355","Ransiki Kota, Distrik Ransiki, Kabupaten Manokwari",PAPUA BARAT,98355.0,Indonesia,,-1.5059231,134.1688136,https://maps.google.com/?cid=0x0:0xd1dbc857027caa73
hotel,Hotel,Srikandi hotel,"Jln. Sujarwo Condronegoro, Papua Bar. 98324","Kab. Manokwari Selatan, Papua Bar.",PAPUA BARAT,,Indonesia,81244960284.0,-1.5104235,134.1820505,https://maps.google.com/?cid=0x0:0x697582e8780db5ed
hotel,hotel,Papua Bar. 98355,"Kab. Manokwari Selatan, Papua Bar.","Kab. Manokwari Selatan, Papua Bar.",PAPUA BARAT,,Indonesia,,-1.8268019,134.0199152,https://maps.google.com/?cid=0x0:0x3c36f74a68c69218
hotel,Hotel,Srikandi Hotel,"Ransiki Kota, Distrik Ransiki, Kabupaten Manokwari, Papua Bar. 98355","Distrik Ransiki, Kabupaten Manokwari",PAPUA BARAT,98355.0,Indonesia,82395960356.0,-1.5051115,134.1702236,https://maps.google.com/?cid=0x0:0x136fe7052b246d49
hotel,Hotel,Srikandi hotel,"Jln. Sujarwo Condronegoro, Papua Bar. 98324","Kab. Manokwari Selatan, Papua Bar.",PAPUA BARAT,,Indonesia,81244960284.0,-1.5104235,134.1820505,https://maps.google.com/?cid=0x0:0x697582e8780db5ed
hotel,hotel,Distrik Tahota,"Kab. Manokwari Selatan, Papua Bar.","Kab. Manokwari Selatan, Papua Bar.",PAPUA BARAT,,Indonesia,,-1.7908829,133.9862408,https://maps.google.com/?cid=0x0:0x169fe16a30d46c7b
hotel,Komplek perumahan,Kompleks H. Marala (indekos),"G524+G2F, Jl. Manokwari - Bintuni, Sabri, Distrik Ransiki, Kab. Manokwari Selatan, Papua Bar. 98355","Jl. Manokwari - Bintuni, Sabri, Distrik Ransiki, Kab. Manokwari Selatan",PAPUA BARAT,98355.0,Indonesia,81344800578.0,-1.4986803,134.155049,https://maps.google.com/?cid=0x0:0x4e3e5c7adf364e88
hotel,Hotel,Ransiki,"F5V9+JGP, Ransiki Kota, Distrik Ransiki, Kabupaten Manokwari, Papua Bar. 98355","Ransiki Kota, Distrik Ransiki, Kabupaten Manokwari",PAPUA BARAT,98355.0,Indonesia,,-1.5059231,134.1688136,https://maps.google.com/?cid=0x0:0xd1dbc857027caa73
hotel,Dealer Toyota,DEALER TOYOTA DEPOK - Kartikah,"Jl. Boulevard Grand Depok City, Tirtajaya, Kec. Sukmajaya, Kota Depok, Jawa Barat 16412","Tirtajaya, Kec. Sukmajaya, Kota Depok",PAPUA BARAT,16412.0,Indonesia,87876755500.0,-6.41583,106.8212405,https://maps.google.com/?cid=0x0:0xbd51b0a6c7afe47e
hotel,Dealer mobil,Toyota Auto2000 DEPOK,"Grand Depok City Jalan Boulevard Parung Serab, RT.09/RW.03, Tirtajaya, Kec. Sukmajaya, Kota Depok, Jawa Barat 16412","RT.09/RW.03, Tirtajaya, Kec. Sukmajaya, Kota Depok",PAPUA BARAT,16412.0,Indonesia,2129502000.0,-6.4158587,106.8212174,https://maps.google.com/?cid=0x0:0x480d1c3cac768e73
restaurant,restaurant,Dataran Isim,"Kab. Manokwari Selatan, Papua Bar.","Kab. Manokwari Selatan, Papua Bar.",PAPUA BARAT,,Indonesia,,-1.5213839,133.7525619,https://maps.google.com/?cid=0x0:0x5152c50d52f61896
restaurant,Rumah Makan,RM. Mujir Indah,"Jl. Manokwari - Bintuni, Ransiki Kota, Distrik Ransiki, Kab. Manokwari Selatan, Papua Bar. 98355","Ransiki Kota, Distrik Ransiki, Kab. Manokwari Selatan",PAPUA BARAT,98355.0,Indonesia,81248925803.0,-1.5081845,134.1716275,https://maps.google.com/?cid=0x0:0x722d1094cce82d32
restaurant,Toko bahan makanan,Warung Barokah mas Bedjo,"Jl. Manokwari - Bintuni, Dembek, Distrik Momi Waren, Kab. Manokwari Selatan, Papua Bar. 98355","Dembek, Distrik Momi Waren, Kab. Manokwari Selatan",PAPUA BARAT,98355.0,Indonesia,85399390442.0,-1.5858411,134.1432356,https://maps.google.com/?cid=0x0:0x240902f27b7226c3
restaurant,restaurant,Distrik Momi Waren,"Kab. Manokwari Selatan, Papua Bar.","Kab. Manokwari Selatan, Papua Bar.",PAPUA BARAT,,Indonesia,,-1.589112,134.1139979,https://maps.google.com/?cid=0x0:0xf7889c42ea8b544b
restaurant,Rumah Makan,Kedai Family MTR,"F5VC+V34, Ransiki Kota, Distrik Ransiki, Kab. Manokwari Selatan, Papua Bar. 98355","Ransiki Kota, Distrik Ransiki, Kab. Manokwari Selatan",PAPUA BARAT,98355.0,Indonesia,82199251825.0,-1.5054509,134.1702643,https://maps.google.com/?cid=0x0:0xc6cbc7a494154db7
restaurant,Nasi,RM SEGERI,"F5QV+CJF, Unnamed Road, Ransiki Kota, Distrik Ransiki, Kab. Manokwari Selatan, Papua Bar. 98355","Unnamed Road, Ransiki Kota, Distrik Ransiki, Kab. Manokwari Selatan",PAPUA BARAT,98355.0,Indonesia,,-1.5114305,134.1940504,https://maps.google.com/?cid=0x0:0xf51fbd110e6326c1
restaurant,Ikan Bakar,Dapoer Rosse,"F578+4JV, Jl. Manokwari - Bintuni, Hamawi, Kab. Manokwari Selatan, Papua Bar. 98355","Jl. Manokwari - Bintuni, Hamawi, Kab. Manokwari Selatan",PAPUA BARAT,98355.0,Indonesia,85254114300.0,-1.5371415,134.1665574,https://maps.google.com/?cid=0x0:0xcb50cf7155ac8e53
restaurant,Penginapan,Penginapan Raipawi,"F5QW+748, Unnamed Road, Ransiki Kota, Distrik Ransiki, Kab. Manokwari Selatan, Papua Bar. 98355","Unnamed Road, Ransiki Kota, Distrik Ransiki, Kab. Manokwari Selatan",PAPUA BARAT,98355.0,Indonesia,82397172759.0,-1.5118361,134.1953347,https://maps.google.com/?cid=0x0:0xd21b439da7e00685
restaurant,Padang,Rumah Makan Pangkep,"F5QX+4GC, Bamaha, Distrik Ransiki, Kab. Manokwari Selatan, Papua Bar. 98355","Bamaha, Distrik Ransiki, Kab. Manokwari Selatan",PAPUA BARAT,98355.0,Indonesia,,-1.5121781,134.1987739,https://maps.google.com/?cid=0x0:0xbc6e7ed76f70d52c
restaurant,Padang,Rumah Makan Simpang Tiga,"F5QF+H3C, Ransiki Kota, Distrik Ransiki, Kabupaten Manokwari, Papua Bar. 98355","Ransiki Kota, Distrik Ransiki, Kabupaten Manokwari",PAPUA BARAT,98355.0,Indonesia,,-1.5110713,134.1726506,https://maps.google.com/?cid=0x0:0x3b171644d9208e1e
restaurant,Sate,Warung Makan Dila Ransiki,"F5WC+488, Jl. Abreso, Ransiki Kota, Distrik Ransiki, Kabupaten Manokwari, Papua Bar. 98355","Jl. Abreso, Ransiki Kota, Distrik Ransiki, Kabupaten Manokwari",PAPUA BARAT,98355.0,Indonesia,85254507304.0,-1.5047011,134.1708279,https://maps.google.com/?cid=0x0:0xac4ac7b675c9caba
restaurant,Dapur Umum,Catering TALITAKUM01,"G524+6FH, Sabri, Distrik Ransiki, Kab. Manokwari Selatan, Papua Bar. 98355","Sabri, Distrik Ransiki, Kab. Manokwari Selatan",PAPUA BARAT,98355.0,Indonesia,81340255101.0,-1.4994376,134.15624,https://maps.google.com/?cid=0x0:0x23e7397b39d52c9a
restaurant,Tujuan Wisata,Tanah Cinta,"83CF+5VC, Yermatum, Distrik Tahota, Kab. Manokwari Selatan, Papua Bar. 98355","Yermatum, Distrik Tahota, Kab. Manokwari Selatan",PAPUA BARAT,98355.0,Indonesia,,-1.679558,134.074642,https://maps.google.com/?cid=0x0:0x14111f69526e7d65
restaurant,Brunch,Warung makan seafood,"masjid,an'nur, Jl.abreso,ransiki depan","Kab. Manokwari Selatan, Papua Bar.",PAPUA BARAT,,Indonesia,,-1.5062466,134.1702452,https://maps.google.com/?cid=0x0:0xb1973e4e87755a59
restaurant,Restoran,WR. LALAPAN SEDERHANA,"F5V9+PW2, Jl. Manokwari - Bintuni, Ransiki Kota, Distrik Ransiki, Kab. Manokwari Selatan, Papua Bar. 98355","Jl. Manokwari - Bintuni, Ransiki Kota, Distrik Ransiki, Kab. Manokwari Selatan",PAPUA BARAT,98355.0,Indonesia,,-1.5057462,134.1697628,https://maps.google.com/?cid=0x0:0x69ca03f56038f45b
restaurant,restaurant,Distrik Neney,"Kab. Manokwari Selatan, Papua Bar.","Kab. Manokwari Selatan, Papua Bar.",PAPUA BARAT,,Indonesia,,-1.4926563,133.9961457,https://maps.google.com/?cid=0x0:0x8d599f8b59144cf3
restaurant,Korea,NunWaYo - Jelambar,"Jl. Empang Bahagia Gg. VIII No. 26, RT 013 RW 05, Jelambar, Petamburan, Kec. Grogol petamburan, Kota Jakarta Barat, Daerah Khusus Ibukota Jakarta 11460","RT 013 RW 05, Jelambar, Petamburan, Kec. Grogol petamburan, Kota Jakarta Barat",PAPUA BARAT,11460.0,Indonesia,81233007785.0,-6.1596008,106.7886327,https://maps.google.com/?cid=0x0:0x81aab68a05c6a94b
restaurant,Kafe,Noeansa Cafe  Resto,"Ruko Maggiore Grande F-03, Cihuni, Kec. Pagedangan, Kabupaten Tangerang, Banten 15332","Cihuni, Kec. Pagedangan, Kabupaten Tangerang",PAPUA BARAT,15332.0,Indonesia,87707077999.0,-6.2724379,106.6361382,https://maps.google.com/?cid=0x0:0xc39c55fc468e2a5
restaurant,Rumah Makan,Warung Makan Manise,"F5QM+QFF, Jl. Manokwari - Bintuni, Ransiki Kota, Distrik Ransiki, Kab. Manokwari Selatan, Papua Bar. 98355","Jl. Manokwari - Bintuni, Ransiki Kota, Distrik Ransiki, Kab. Manokwari Selatan",PAPUA BARAT,98355.0,Indonesia,,-1.5105707,134.1836584,https://maps.google.com/?cid=0x0:0x2247c262cb0f6c77
restaurant,Dapur Umum,Kedai Masakan Nenek,"Jl. Wortel, Malawele, Kec. Aimas, Kabupaten Sorong, Papua Bar. 98444","Malawele, Kec. Aimas, Kabupaten Sorong",PAPUA BARAT,98444.0,Indonesia,8114820125.0,-0.9588884,131.3048442,https://maps.google.com/?cid=0x0:0x843c75c4f60e6e85
restaurant,Kafe,Warung Nene,"Pondok Jati Murni Blok.K No.16, RT.005/RW.007, Jatimurni, Pondok Melati, Bekasi, West Java 17431","RT.005/RW.007, Jatimurni, Pondok Melati, Bekasi",PAPUA BARAT,17431.0,Indonesia,81212111713.0,-6.3282971,106.9281866,https://maps.google.com/?cid=0x0:0xb5edd6cab73beeb3
restaurant,Sesuai untuk keluarga,Nicole's Garden Bistro,"Jl. Meruya Selatan No.21, RT.8/RW.1, Joglo, Kec. Kembangan, Kota Jakarta Barat, Daerah Khusus Ibukota Jakarta 11640","RT.8/RW.1, Joglo, Kec. Kembangan, Kota Jakarta Barat",PAPUA BARAT,11640.0,Indonesia,87888785777.0,-6.2164483,106.7373979,https://maps.google.com/?cid=0x0:0x6247d46f7c8fe52b
restaurant,Restoran,Warung Nene Ikah,"Jl. Lap. Golf Hankam No.33, RT.001/RW.006, Jatimurni, Kec. Pd. Melati, Kota Bks, Jawa Barat 17431","RT.001/RW.006, Jatimurni, Kec. Pd. Melati, Kota Bks",PAPUA BARAT,17431.0,Indonesia,,-6.327785,106.922037,https://maps.google.com/?cid=0x0:0x240e9dedc0eae652
restaurant,restaurant,,,,PAPUA BARAT,,Indonesia,,,,https://maps.google.com/?cid=0x0:0xb5edd6cab73beeb3u0026onu003dTumpeng+Nasi+Kuningu0026midu003d/g/11kh72xqfk
restaurant,restaurant,,,,PAPUA BARAT,,Indonesia,,,,https://maps.google.com/?cid=0x0:0xb5edd6cab73beeb3u0026onu003dKue+Cara+Ayamu0026midu003d/g/11kh72xqfk
restaurant,restaurant,,,,PAPUA BARAT,,Indonesia,,,,https://maps.google.com/?cid=0x0:0xb5edd6cab73beeb3u0026onu003dKuker+Sagu+Kejuu0026midu003d/g/11kh72xqfk
restaurant,restaurant,,,,PAPUA BARAT,,Indonesia,,,,https://maps.google.com/?cid=0x0:0xb5edd6cab73beeb3u0026onu003dBolkus+Merekahu0026midu003d/g/11kh72xqfk
restaurant,restaurant,,,,PAPUA BARAT,,Indonesia,,,,https://maps.google.com/?cid=0x0:0xb5edd6cab73beeb3u0026onu003dPempeu0026midu003d/g/11kh72xqfk
restaurant,restaurant,,,,PAPUA BARAT,,Indonesia,,,,https://maps.google.com/?cid=0x0:0xb5edd6cab73beeb3u0026onu003dKue+Keringu0026midu003d/g/11kh72xqfk
restaurant,Dapur Umum,Rumah makan aulia. Oransbari,"M6J9+P7C, Jl. Manokwari - Bintuni, Sidomulyo, Kec. Oransbari, Kab. Manokwari Selatan, Papua Bar. 98353","Jl. Manokwari - Bintuni, Sidomulyo, Kec. Oransbari, Kab. Manokwari Selatan",PAPUA BARAT,98353.0,Indonesia,,-1.3181876,134.2181507,https://maps.google.com/?cid=0x0:0xfa78230c4e484df4
restaurant,restaurant,Papua Bar. 98353,"Kabupaten Manokwari, Papua Bar.","Kabupaten Manokwari, Papua Bar.",PAPUA BARAT,,Indonesia,,-1.2869478,134.1340439,https://maps.google.com/?cid=0x0:0x8a0ea672dc22a2db
restaurant,Indonesia,RUMAH MAKAN PAOTERE ORANSBARI MANOKWARI SELATAN,"M6J9+J4Q, Sidomulyo, Kec. Oransbari, Kab. Manokwari Selatan, Papua Bar. 98353","Sidomulyo, Kec. Oransbari, Kab. Manokwari Selatan",PAPUA BARAT,98353.0,Indonesia,82198935488.0,-1.3184086,134.2178642,https://maps.google.com/?cid=0x0:0x479ba19d179f77b5
restaurant,Padang,Warung Makan Putri Tunggal,"M67F+XGC, Margomulyo, Kec. Oransbari, Kabupaten Manokwari, Papua Bar. 98353","Margomulyo, Kec. Oransbari, Kabupaten Manokwari",PAPUA BARAT,98353.0,Indonesia,,-1.3350724,134.2237771,https://maps.google.com/?cid=0x0:0xb455b352ffee6102
restaurant,Indonesia,Waroeng sawah,"M67P+J24, Unnamed Road, Muari, Kec. Oransbari, Kab. Manokwari Selatan, Papua Bar. 98353","Unnamed Road, Muari, Kec. Oransbari, Kab. Manokwari Selatan",PAPUA BARAT,98353.0,Indonesia,,-1.3359848,134.2350903,https://maps.google.com/?cid=0x0:0xff152faff9a9e1e5
restaurant,Kafe,ALZENA CAFE,"M6F9+4J9, Akeju, Kec. Oransbari, Kab. Manokwari Selatan, Papua Bar. 98353","Akeju, Kec. Oransbari, Kab. Manokwari Selatan",PAPUA BARAT,98353.0,Indonesia,,-1.3272125,134.2191094,https://maps.google.com/?cid=0x0:0xff49004cc70400e2
restaurant,Brunch,"RM Wonogiri, Oransbari, Manokwari Selatan","Jl. Merdeka No.RT 04, Margomulyo, Kec. Oransbari, Kab. Manokwari Selatan, Papua Bar. 98353","Margomulyo, Kec. Oransbari, Kab. Manokwari Selatan",PAPUA BARAT,98353.0,Indonesia,85314215658.0,-1.3371098,134.2281232,https://maps.google.com/?cid=0x0:0xa9e2effb13aabba5
restaurant,Nasi,Rumah Makan Sederhana,"M69C+CC2, Margomulyo, Kec. Oransbari, Kabupaten Manokwari, Papua Bar. 98353","Margomulyo, Kec. Oransbari, Kabupaten Manokwari",PAPUA BARAT,98353.0,Indonesia,81229006341.0,-1.3315287,134.2210189,https://maps.google.com/?cid=0x0:0x548aede3c41a2904
restaurant,Brunch,RM. PAPUA TURATEA,"M68C+XH9, Margomulyo, Kec. Oransbari, Kabupaten Manokwari, Papua Bar. 98353","Margomulyo, Kec. Oransbari, Kabupaten Manokwari",PAPUA BARAT,98353.0,Indonesia,82196466955.0,-1.3325994,134.2214754,https://maps.google.com/?cid=0x0:0xd7922be73a387289
restaurant,Nasi,Warung Gabilza,"M67H+837, Jl. Merdeka, Sindang Jaya, Kec. Oransbari, Kab. Manokwari Selatan, Papua Bar.","Kab. Manokwari Selatan, Papua Bar.",PAPUA BARAT,,Indonesia,81213505564.0,-1.3367061,134.2276826,https://maps.google.com/?cid=0x0:0xcfc3ca1657f3be4c
restaurant,Restoran,R.M. MANGGA DUA,"M6MH+JCF, Jl. Manokwari - Bintuni, Sindang Jaya, Kec. Oransbari, Kab. Manokwari Selatan, Papua Bar. 98353","Jl. Manokwari - Bintuni, Sindang Jaya, Kec. Oransbari, Kab. Manokwari Selatan",PAPUA BARAT,98353.0,Indonesia,,-1.3159443,134.228541,https://maps.google.com/?cid=0x0:0x4cccf41410bd39c7
restaurant,Dapur Umum,rumah makan Liana Muari oransbari,"M639+G6H, Muari, Kec. Oransbari, Kabupaten Manokwari, Papua Bar.","Kabupaten Manokwari, Papua Bar.",PAPUA BARAT,,Indonesia,82397253079.0,-1.3461825,134.2181103,https://maps.google.com/?cid=0x0:0x3b55d212c4a38af8
restaurant,Makanan Kecil,Bakso Avika,"M6H9+34H, Jl. Manokwari - Bintuni, Akeju, Kec. Oransbari, Kab. Manokwari Selatan, Papua Bar. 98353","Jl. Manokwari - Bintuni, Akeju, Kec. Oransbari, Kab. Manokwari Selatan",PAPUA BARAT,98353.0,Indonesia,81354058779.0,-1.3223004,134.2178512,https://maps.google.com/?cid=0x0:0xc14b4f208f7b1374
restaurant,Restoran,Warung safira,"M69C+CC2, Margomulyo, Kec. Oransbari, Kabupaten Manokwari, Papua Bar. 98353","Margomulyo, Kec. Oransbari, Kabupaten Manokwari",PAPUA BARAT,98353.0,Indonesia,,-1.3314472,134.221111,https://maps.google.com/?cid=0x0:0x1e42efc87b9c352f
restaurant,Sate,Warung Makan Dila Ransiki,"F5WC+488, Jl. Abreso, Ransiki Kota, Distrik Ransiki, Kabupaten Manokwari, Papua Bar. 98355","Jl. Abreso, Ransiki Kota, Distrik Ransiki, Kabupaten Manokwari",PAPUA BARAT,98355.0,Indonesia,85254507304.0,-1.5047011,134.1708279,https://maps.google.com/?cid=0x0:0xac4ac7b675c9caba
restaurant,Padang,Rumah Makan Simpang Tiga,"F5QF+H3C, Ransiki Kota, Distrik Ransiki, Kabupaten Manokwari, Papua Bar. 98355","Ransiki Kota, Distrik Ransiki, Kabupaten Manokwari",PAPUA BARAT,98355.0,Indonesia,,-1.5110713,134.1726506,https://maps.google.com/?cid=0x0:0x3b171644d9208e1e
restaurant,Rumah Makan,Warung Makan Cinta Rasa Ransiki,"F5QR+FHQ, Ransiki Kota, Distrik Ransiki, Kab. Manokwari Selatan, Papua Bar. 98355","Ransiki Kota, Distrik Ransiki, Kab. Manokwari Selatan",PAPUA BARAT,98355.0,Indonesia,81247784175.0,-1.5112996,134.1914701,https://maps.google.com/?cid=0x0:0xd33666fdeedd5f02
restaurant,restaurant,Ransiki,"Ransiki Kota, Distrik Ransiki, Kab. Manokwari Selatan, Papua Bar.","Kab. Manokwari Selatan, Papua Bar.",PAPUA BARAT,,Indonesia,,-1.516433,134.180298,https://maps.google.com/?cid=0x0:0xc2f9404ccd6ec72a
restaurant,restaurant,Ransiki,"F5MM+W8X, Ransiki Kota, Distrik Ransiki, Kabupaten Manokwari, Papua Bar. 98355","Ransiki Kota, Distrik Ransiki, Kabupaten Manokwari",PAPUA BARAT,98355.0,Indonesia,,-1.5151457,134.1833676,https://maps.google.com/?cid=0x0:0xfcbef4be02caccfd
restaurant,Padang,Warung Makan Tampa Singgah,"F5WJ+JJJ, Ransiki Kota, Distrik Ransiki, Kab. Manokwari Selatan, Papua Bar. 98355","Ransiki Kota, Distrik Ransiki, Kab. Manokwari Selatan",PAPUA BARAT,98355.0,Indonesia,81247754774.0,-1.5034007,134.1815176,https://maps.google.com/?cid=0x0:0x874aec1ac772febc
restaurant,Brunch,Warung makan,"Jl.ransiki kompleks kamasan depan kampus unipa, Papua Bar.","Kab. Manokwari Selatan, Papua Bar.",PAPUA BARAT,,Indonesia,82131398433.0,-1.516433,134.180298,https://maps.google.com/?cid=0x0:0xf0bb6008f73f5fd6
restaurant,Restoran,Inggandi Beach Restaurant,"43GV+7Q3, Jl. Pasir Putih No.33, Pasir Putih, Kec. Manokwari Tim., Kabupaten Manokwari, Papua Bar. 98313","Jl. Pasir Putih No.33, Pasir Putih, Kec. Manokwari Tim., Kabupaten Manokwari",PAPUA BARAT,98313.0,Indonesia,81240372255.0,-0.8780927,134.0933631,https://maps.google.com/?cid=0x0:0xba66c7a3124731e6
restaurant,Kedai Kopi,Titik Kumpul Cafe,"Jalan Sujarwo Condronegoro SH, Ransiki Kota, Distrik Ransiki, Kab. Manokwari Selatan, Papua Bar. 98324","Ransiki Kota, Distrik Ransiki, Kab. Manokwari Selatan",PAPUA BARAT,98324.0,Indonesia,82197517011.0,-1.516433,134.180298,https://maps.google.com/?cid=0x0:0x2417976b0770f56f
restaurant,Rumah Makan,Kedai Family MTR,"F5VC+V34, Ransiki Kota, Distrik Ransiki, Kab. Manokwari Selatan, Papua Bar. 98355","Ransiki Kota, Distrik Ransiki, Kab. Manokwari Selatan",PAPUA BARAT,98355.0,Indonesia,82199251825.0,-1.5054509,134.1702643,https://maps.google.com/?cid=0x0:0xc6cbc7a494154db7
restaurant,Nasi,RM SEGERI,"F5QV+CJF, Unnamed Road, Ransiki Kota, Distrik Ransiki, Kab. Manokwari Selatan, Papua Bar. 98355","Unnamed Road, Ransiki Kota, Distrik Ransiki, Kab. Manokwari Selatan",PAPUA BARAT,98355.0,Indonesia,,-1.5114305,134.1940504,https://maps.google.com/?cid=0x0:0xf51fbd110e6326c1
restaurant,Toko Pakaian,Aneka Jus Dan Gorengan Tahu Crispy Ransiki,"F5VC+M76, Ransiki Kota, Distrik Ransiki, Kab. Manokwari Selatan, Papua Bar. 98355","Ransiki Kota, Distrik Ransiki, Kab. Manokwari Selatan",PAPUA BARAT,98355.0,Indonesia,,-1.5058412,134.1706338,https://maps.google.com/?cid=0x0:0x73ab545ba9721a7b
restaurant,Brunch,Warung makan seafood,"masjid,an'nur, Jl.abreso,ransiki depan","Kab. Manokwari Selatan, Papua Bar.",PAPUA BARAT,,Indonesia,,-1.5062466,134.1702452,https://maps.google.com/?cid=0x0:0xb1973e4e87755a59
restaurant,Nasi,Warung Cipta Rasa,"G43X+FX6, Sabri, Distrik Ransiki, Kab. Manokwari Selatan, Papua Bar. 98355","Sabri, Distrik Ransiki, Kab. Manokwari Selatan",PAPUA BARAT,98355.0,Indonesia,,-1.4963486,134.149903,https://maps.google.com/?cid=0x0:0xd3da2cf989b017d1
restaurant,restaurant,Papua Bar. 98355,"Kab. Manokwari Selatan, Papua Bar.","Kab. Manokwari Selatan, Papua Bar.",PAPUA BARAT,,Indonesia,,-1.8268019,134.0199152,https://maps.google.com/?cid=0x0:0x3c36f74a68c69218
restaurant,Tujuan Wisata,Tanah Cinta,"83CF+5VC, Yermatum, Distrik Tahota, Kab. Manokwari Selatan, Papua Bar. 98355","Yermatum, Distrik Tahota, Kab. Manokwari Selatan",PAPUA BARAT,98355.0,Indonesia,,-1.679558,134.074642,https://maps.google.com/?cid=0x0:0x14111f69526e7d65
restaurant,Dapur Umum,Catering TALITAKUM01,"G524+6FH, Sabri, Distrik Ransiki, Kab. Manokwari Selatan, Papua Bar. 98355","Sabri, Distrik Ransiki, Kab. Manokwari Selatan",PAPUA BARAT,98355.0,Indonesia,81340255101.0,-1.4994376,134.15624,https://maps.google.com/?cid=0x0:0x23e7397b39d52c9a
restaurant,Sarapan,Rumah Makan Valdez,"F5QF+WXV, Jl. Manokwari - Bintuni, Ransiki Kota, Distrik Ransiki, Kab. Manokwari Selatan, Papua Bar. 98355","Jl. Manokwari - Bintuni, Ransiki Kota, Distrik Ransiki, Kab. Manokwari Selatan",PAPUA BARAT,98355.0,Indonesia,81240349500.0,-1.5101487,134.1749211,https://maps.google.com/?cid=0x0:0xc69943f9cf8dc3e0
restaurant,Padang,Rumah Makan Pangkep,"F5QX+4GC, Bamaha, Distrik Ransiki, Kab. Manokwari Selatan, Papua Bar. 98355","Bamaha, Distrik Ransiki, Kab. Manokwari Selatan",PAPUA BARAT,98355.0,Indonesia,,-1.5121781,134.1987739,https://maps.google.com/?cid=0x0:0xbc6e7ed76f70d52c
restaurant,Ikan Bakar,Dapoer Rosse,"F578+4JV, Jl. Manokwari - Bintuni, Hamawi, Kab. Manokwari Selatan, Papua Bar. 98355","Jl. Manokwari - Bintuni, Hamawi, Kab. Manokwari Selatan",PAPUA BARAT,98355.0,Indonesia,85254114300.0,-1.5371415,134.1665574,https://maps.google.com/?cid=0x0:0xcb50cf7155ac8e53
restaurant,Rumah Makan,Kedai Family MTR,"F5VC+V34, Ransiki Kota, Distrik Ransiki, Kab. Manokwari Selatan, Papua Bar. 98355","Ransiki Kota, Distrik Ransiki, Kab. Manokwari Selatan",PAPUA BARAT,98355.0,Indonesia,82199251825.0,-1.5054509,134.1702643,https://maps.google.com/?cid=0x0:0xc6cbc7a494154db7
restaurant,Nasi,Kedai Aqillah 17,"G43X+GVQ, Jl. Manokwari - Bintuni, Sabri, Distrik Ransiki, Kab. Manokwari Selatan, Papua Bar. 98355","Jl. Manokwari - Bintuni, Sabri, Distrik Ransiki, Kab. Manokwari Selatan",PAPUA BARAT,98355.0,Indonesia,,-1.4961665,134.1497345,https://maps.google.com/?cid=0x0:0x276e510edee12a4b
restaurant,Kafe,RM. Tampa Singga,"F5V8+HV7, Jl. Waspori, Ransiki Kota, Distrik Ransiki, Kabupaten Manokwari, Papua Bar. 98355","Jl. Waspori, Ransiki Kota, Distrik Ransiki, Kabupaten Manokwari",PAPUA BARAT,98355.0,Indonesia,81247754774.0,-1.5060838,134.1671762,https://maps.google.com/?cid=0x0:0xa636904ee6b5cb44
restaurant,Rumah Makan,RM. Mujir Indah,"Jl. Manokwari - Bintuni, Ransiki Kota, Distrik Ransiki, Kab. Manokwari Selatan, Papua Bar. 98355","Ransiki Kota, Distrik Ransiki, Kab. Manokwari Selatan",PAPUA BARAT,98355.0,Indonesia,81248925803.0,-1.5081845,134.1716275,https://maps.google.com/?cid=0x0:0x722d1094cce82d32
restaurant,Nasi,RM SEGERI,"F5QV+CJF, Unnamed Road, Ransiki Kota, Distrik Ransiki, Kab. Manokwari Selatan, Papua Bar. 98355","Unnamed Road, Ransiki Kota, Distrik Ransiki, Kab. Manokwari Selatan",PAPUA BARAT,98355.0,Indonesia,,-1.5114305,134.1940504,https://maps.google.com/?cid=0x0:0xf51fbd110e6326c1
restaurant,Penginapan,Penginapan Raipawi,"F5QW+748, Unnamed Road, Ransiki Kota, Distrik Ransiki, Kab. Manokwari Selatan, Papua Bar. 98355","Unnamed Road, Ransiki Kota, Distrik Ransiki, Kab. Manokwari Selatan",PAPUA BARAT,98355.0,Indonesia,82397172759.0,-1.5118361,134.1953347,https://maps.google.com/?cid=0x0:0xd21b439da7e00685
restaurant,Nasi,Warung Makan Saldi,"G532+4J2 Jl. Trans, Jl. Manokwari - Bintuni, Sabri, Distrik Ransiki, Kabupaten Manokwari, Papua Bar. 98355","Jl. Manokwari - Bintuni, Sabri, Distrik Ransiki, Kabupaten Manokwari",PAPUA BARAT,98355.0,Indonesia,82240816647.0,-1.4972361,134.1515137,https://maps.google.com/?cid=0x0:0x6c9bdd1c1ba93320
restaurant,Padang,Rumah Makan Simpang Tiga,"F5QF+H3C, Ransiki Kota, Distrik Ransiki, Kabupaten Manokwari, Papua Bar. 98355","Ransiki Kota, Distrik Ransiki, Kabupaten Manokwari",PAPUA BARAT,98355.0,Indonesia,,-1.5110713,134.1726506,https://maps.google.com/?cid=0x0:0x3b171644d9208e1e
