Category,Real Category,Business Name,Address,City,State,Postal Code,Country,Phone,Latitude,Longitude,Map Link
toko bangunan,toko bangunan,Papua Bar. 98359,Papua Bar.,Papua Bar.,PAPUA BARAT,,Indonesia,,-1.5213839,133.7525619,https://maps.google.com/?cid=0x0:0xc8a895044b18d7c8
toko bangunan,Pemasok Bahan Bangunan,Toko bangunan Sumber Makmur,"32CM+75G, Jl. Manokwari - Maruni, Anday, Distrik Manokwari, Kabupaten Manokwari, Papua Bar. 98315","Jl. Manokwari - Maruni, Anday, Distrik Manokwari, Kabupaten Manokwari",PAPUA BARAT,98315.0,Indonesia,8114846060.0,-0.9293075,134.0329487,https://maps.google.com/?cid=0x0:0xa0a85c7270dde255
toko bangunan,Toko Bahan Bangunan,ANEKA BANGUNAN,"Wosi, Kec. Manokwari Bar., Kabupaten Manokwari, Papua Bar. 98312","Kec. Manokwari Bar., Kabupaten Manokwari",PAPUA BARAT,98312.0,Indonesia,81344843001.0,-0.8631883,134.0498559,https://maps.google.com/?cid=0x0:0x3598159af16f30ea
toko bangunan,Toko Bahan Bangunan,Toko Bangunan Saudara,"Jl. Pasir, pantai, Wosi, Kec. Manokwari Bar., Kabupaten Manokwari, Papua Bar. 98312","pantai, Wosi, Kec. Manokwari Bar., Kabupaten Manokwari",PAPUA BARAT,98312.0,Indonesia,81219608601.0,-0.8691435,134.0499159,https://maps.google.com/?cid=0x0:0xd3c286debc960345
toko bangunan,Pemasok Bahan Bangunan,Depo Makmur Manokwari,"43P2+QWR, Jl. Trikora Wosi, Wosi, Kec. Manokwari Bar., Kabupaten Manokwari, Papua Bar. 98312","Jl. Trikora Wosi, Wosi, Kec. Manokwari Bar., Kabupaten Manokwari",PAPUA BARAT,98312.0,Indonesia,81248426402.0,-0.8630402,134.0521741,https://maps.google.com/?cid=0x0:0x387befda163fc63b
toko bangunan,Toko Bahan Bangunan,Toko Central Bangunan,"42JW+2CG, Wosi, Kec. Manokwari Bar., Kabupaten Manokwari, Papua Bar. 98312","Wosi, Kec. Manokwari Bar., Kabupaten Manokwari",PAPUA BARAT,98312.0,Indonesia,,-0.8696454,134.0463667,https://maps.google.com/?cid=0x0:0x7ec708d770758168
toko bangunan,Toko Bahan Bangunan,PAPUA BANGUNAN,"42GX+945, Wosi, Kec. Manokwari Bar., Kabupaten Manokwari, Papua Bar. 98312","Wosi, Kec. Manokwari Bar., Kabupaten Manokwari",PAPUA BARAT,98312.0,Indonesia,82198055550.0,-0.874101,134.0478473,https://maps.google.com/?cid=0x0:0x2c3683b193d9430f
toko bangunan,Toko Bahan Bangunan,Toko Bangunan Alva Center,"3299+WR4, Anday, Distrik Manokwari, Kabupaten Manokwari, Papua Bar. 98315","Anday, Distrik Manokwari, Kabupaten Manokwari",PAPUA BARAT,98315.0,Indonesia,82248894866.0,-0.9302448,134.0195768,https://maps.google.com/?cid=0x0:0xb10f5dd5b0339319
toko bangunan,Toko Bahan Bangunan,Toko Bangunan ATIGA,"5355+F7H, Jl. Angkasa Mulyono, Amban, Kec. Manokwari Bar., Kabupaten Manokwari, Papua Bar. 98312","Jl. Angkasa Mulyono, Amban, Kec. Manokwari Bar., Kabupaten Manokwari",PAPUA BARAT,98312.0,Indonesia,,-0.8413134,134.0582405,https://maps.google.com/?cid=0x0:0x6a0ea28d5492ed54
toko bangunan,Toko Bahan Bangunan,toko bangunan,"329G+VJ9, jln trikora arfai logpond, Anday, Kabupaten Manokwari","Kabupaten Manokwari, Papua Bar.",PAPUA BARAT,,Indonesia,,-0.9303319,134.0266147,https://maps.google.com/?cid=0x0:0x7ae5f49d1c059992
toko bangunan,Pusat Perbelanjaan,Toko Bangunan Pole Wali,"G523+VJ4, Jl. Manokwari - Bintuni, Sabri, Distrik Ransiki, Kab. Manokwari Selatan, Papua Bar. 98355","Jl. Manokwari - Bintuni, Sabri, Distrik Ransiki, Kab. Manokwari Selatan",PAPUA BARAT,98355.0,Indonesia,82199061888.0,-1.4978515,134.1540692,https://maps.google.com/?cid=0x0:0xd1498f23bc1ae81e
toko bangunan,toko bangunan,Distrik Momi Waren,"Kab. Manokwari Selatan, Papua Bar.","Kab. Manokwari Selatan, Papua Bar.",PAPUA BARAT,,Indonesia,,-1.589112,134.1139979,https://maps.google.com/?cid=0x0:0xf7889c42ea8b544b
toko bangunan,Toko bahan makanan,Toko Irian,"Jl. Manokwari - Bintuni, Ransiki Kota, Distrik Ransiki, Kab. Manokwari Selatan, Papua Bar. 98355","Ransiki Kota, Distrik Ransiki, Kab. Manokwari Selatan",PAPUA BARAT,98355.0,Indonesia,,-1.5078497,134.1712887,https://maps.google.com/?cid=0x0:0xf38ba09157a6ee94
toko bangunan,Toko Bahan Bangunan,Toko Rumba Raya,"G524+8HJ, Sabri, Distrik Ransiki, Kabupaten Manokwari, Papua Bar. 98355","Sabri, Distrik Ransiki, Kabupaten Manokwari",PAPUA BARAT,98355.0,Indonesia,,-1.4991633,134.1563785,https://maps.google.com/?cid=0x0:0xa9c01ef767a67dcb
toko bangunan,Toko Perlengkapan Rumah,TOKO SINAR GALESONG,"F5W6+8GW, Jl. Manokwari - Bintuni, Sabri, Distrik Ransiki, Kab. Manokwari Selatan, Papua Bar. 98355","Jl. Manokwari - Bintuni, Sabri, Distrik Ransiki, Kab. Manokwari Selatan",PAPUA BARAT,98355.0,Indonesia,,-1.5040347,134.1614536,https://maps.google.com/?cid=0x0:0x86990547a4bc40da
toko bangunan,Toko Bahan Bangunan,PAPUA BANGUNAN,"42GX+945, Wosi, Kec. Manokwari Bar., Kabupaten Manokwari, Papua Bar. 98312","Wosi, Kec. Manokwari Bar., Kabupaten Manokwari",PAPUA BARAT,98312.0,Indonesia,82198055550.0,-0.874101,134.0478473,https://maps.google.com/?cid=0x0:0x2c3683b193d9430f
toko bangunan,Toko Bahan Bangunan,ANEKA BANGUNAN,"Wosi, Kec. Manokwari Bar., Kabupaten Manokwari, Papua Bar. 98312","Kec. Manokwari Bar., Kabupaten Manokwari",PAPUA BARAT,98312.0,Indonesia,81344843001.0,-0.8631883,134.0498559,https://maps.google.com/?cid=0x0:0x3598159af16f30ea
toko bangunan,Toko,Cahaya sabri,"F5X4+VXM, Jln mkw , Bintuni waspiri, Sabri mansel, Sabri, Distrik Ransiki, Kab. Manokwari Selatan, Papua Bar. 98355","Jln mkw , Bintuni waspiri, Sabri mansel, Sabri, Distrik Ransiki, Kab. Manokwari Selatan",PAPUA BARAT,98355.0,Indonesia,82198117979.0,-1.5002988,134.1574359,https://maps.google.com/?cid=0x0:0xcbeb89abc0a2f440
toko bangunan,Toko Perlengkapan Rumah,Toko Bangunan Chaerul Perkasa,"G47W+272, Sabri, Distrik Ransiki, Kabupaten Manokwari, Papua Bar. 98355","Sabri, Distrik Ransiki, Kabupaten Manokwari",PAPUA BARAT,98355.0,Indonesia,,-1.4874778,134.1456266,https://maps.google.com/?cid=0x0:0x5d9f770235f478e
toko bangunan,Toko Bahan Bangunan,Toko Central Bangunan,"42JW+2CG, Wosi, Kec. Manokwari Bar., Kabupaten Manokwari, Papua Bar. 98312","Wosi, Kec. Manokwari Bar., Kabupaten Manokwari",PAPUA BARAT,98312.0,Indonesia,,-0.8696454,134.0463667,https://maps.google.com/?cid=0x0:0x7ec708d770758168
toko bangunan,Toko Bahan Bangunan,Toko Bangunan,"Jl. Trikora Taman Ria No.4, Sowi, Distrik Manokwari, Kabupaten Manokwari, Papua Bar. 98315","Sowi, Distrik Manokwari, Kabupaten Manokwari",PAPUA BARAT,98315.0,Indonesia,,-0.906996,134.035784,https://maps.google.com/?cid=0x0:0xe97020a60705142f
toko bangunan,Pemasok Bahan Bangunan,Depo Makmur Manokwari,"43P2+QWR, Jl. Trikora Wosi, Wosi, Kec. Manokwari Bar., Kabupaten Manokwari, Papua Bar. 98312","Jl. Trikora Wosi, Wosi, Kec. Manokwari Bar., Kabupaten Manokwari",PAPUA BARAT,98312.0,Indonesia,81248426402.0,-0.8630402,134.0521741,https://maps.google.com/?cid=0x0:0x387befda163fc63b
toko bangunan,Toko Bahan Bangunan,Toko Bangunan FIRMAN,"Jl. Trikora Wosi No.168, Wosi, Kec. Manokwari Bar., Kabupaten Manokwari, Papua Bar. 98312","Wosi, Kec. Manokwari Bar., Kabupaten Manokwari",PAPUA BARAT,98312.0,Indonesia,8114118555.0,-0.8672239,134.0562233,https://maps.google.com/?cid=0x0:0xad10e51218925944
toko bangunan,Toko Bahan Bangunan,Alfa Tree,"G524+2M4, Jl. Manokwari - Bintuni, Sabri, Distrik Ransiki, Kab. Manokwari Selatan, Papua Bar. 98355","Jl. Manokwari - Bintuni, Sabri, Distrik Ransiki, Kab. Manokwari Selatan",PAPUA BARAT,98355.0,Indonesia,,-1.4999985,134.1567128,https://maps.google.com/?cid=0x0:0xbcdca504294bf3fd
toko bangunan,Toko Bahan Bangunan,Toko Subur Jaya,"Jl. Danau Sunter Utara No.10-11 Blok G3, Sunter Agung, Tanjung Priok, North Jakarta City, Jakarta 14350","Sunter Agung, Tanjung Priok, North Jakarta City",PAPUA BARAT,14350.0,Indonesia,81808090335.0,-6.1382031,106.8689354,https://maps.google.com/?cid=0x0:0x4631f8f9504b7608
toko bangunan,Toko Bahan Bangunan,Toko New Jaya Bahan Bangunan,"1, Jl. Sunter Kemayoran No.3A, RT.1/RW.9, Sunter Jaya, Kec. Tj. Priok, Jkt Utara, Daerah Khusus Ibukota Jakarta 14360","Jl. Sunter Kemayoran No.3A, RT.1/RW.9, Sunter Jaya, Kec. Tj. Priok, Jkt Utara",PAPUA BARAT,14360.0,Indonesia,87782162397.0,-6.1622064,106.8755923,https://maps.google.com/?cid=0x0:0x95ad56007bbdd77c
toko bangunan,Toko Bahan Bangunan,Toko mentari,"4R74+WP, Waseki Indah, Distrik Prafi, Kabupaten Manokwari, Papua Bar.","Kabupaten Manokwari, Papua Bar.",PAPUA BARAT,,Indonesia,,-0.8853016,133.8068212,https://maps.google.com/?cid=0x0:0xdc35c757e123f91e
toko bangunan,toko bangunan,Nenei,"Distrik Neney, Kab. Manokwari Selatan, Papua Bar.","Kab. Manokwari Selatan, Papua Bar.",PAPUA BARAT,,Indonesia,,-1.5521393,133.9341408,https://maps.google.com/?cid=0x0:0x56180a919aad2564
toko bangunan,toko bangunan,Papua Bar. 98353,"Kabupaten Manokwari, Papua Bar.","Kabupaten Manokwari, Papua Bar.",PAPUA BARAT,,Indonesia,,-1.2869478,134.1340439,https://maps.google.com/?cid=0x0:0x8a0ea672dc22a2db
toko bangunan,Toko Perlengkapan Rumah,Toko bangunan imam Maliki,"M67F+XF2, Jl. Manokwari - Bintuni, Margomulyo, Kec. Oransbari, Kab. Manokwari Selatan, Papua Bar. 98353","Jl. Manokwari - Bintuni, Margomulyo, Kec. Oransbari, Kab. Manokwari Selatan",PAPUA BARAT,98353.0,Indonesia,,-1.335116,134.2236557,https://maps.google.com/?cid=0x0:0x8146ca56ddd49935
toko bangunan,toko bangunan,Oransbari,"J7XJ+PQH, Oransbari",,PAPUA BARAT,,Indonesia,,-1.350698,134.2819979,https://maps.google.com/?cid=0x0:0xd41b2d7acaf58d5b
toko bangunan,toko bangunan,Ransiki,"Ransiki Kota, Distrik Ransiki, Kab. Manokwari Selatan, Papua Bar.","Kab. Manokwari Selatan, Papua Bar.",PAPUA BARAT,,Indonesia,,-1.516433,134.180298,https://maps.google.com/?cid=0x0:0xc2f9404ccd6ec72a
toko bangunan,Toko bahan makanan,Toko Irian,"Jl. Manokwari - Bintuni, Ransiki Kota, Distrik Ransiki, Kab. Manokwari Selatan, Papua Bar. 98355","Ransiki Kota, Distrik Ransiki, Kab. Manokwari Selatan",PAPUA BARAT,98355.0,Indonesia,,-1.5078497,134.1712887,https://maps.google.com/?cid=0x0:0xf38ba09157a6ee94
toko bangunan,toko bangunan,Toko MarveL,"F5RG+H5W, Ransiki Kota, Distrik Ransiki, Kab. Manokwari Selatan, Papua Bar. 98355","Ransiki Kota, Distrik Ransiki, Kab. Manokwari Selatan",PAPUA BARAT,98355.0,Indonesia,,-1.5085066,134.1754377,https://maps.google.com/?cid=0x0:0x8b3ea15a75eba293
toko bangunan,Toko Bahan Bangunan,Toko Rumba Raya,"G524+8HJ, Sabri, Distrik Ransiki, Kabupaten Manokwari, Papua Bar. 98355","Sabri, Distrik Ransiki, Kabupaten Manokwari",PAPUA BARAT,98355.0,Indonesia,,-1.4991633,134.1563785,https://maps.google.com/?cid=0x0:0xa9c01ef767a67dcb
toko bangunan,Toko Perlengkapan Rumah,Toko Bangunan Chaerul Perkasa,"G47W+272, Sabri, Distrik Ransiki, Kabupaten Manokwari, Papua Bar. 98355","Sabri, Distrik Ransiki, Kabupaten Manokwari",PAPUA BARAT,98355.0,Indonesia,,-1.4874778,134.1456266,https://maps.google.com/?cid=0x0:0x5d9f770235f478e
toko bangunan,Pusat Perbelanjaan,Toko Bangunan Pole Wali,"G523+VJ4, Jl. Manokwari - Bintuni, Sabri, Distrik Ransiki, Kab. Manokwari Selatan, Papua Bar. 98355","Jl. Manokwari - Bintuni, Sabri, Distrik Ransiki, Kab. Manokwari Selatan",PAPUA BARAT,98355.0,Indonesia,82199061888.0,-1.4978515,134.1540692,https://maps.google.com/?cid=0x0:0xd1498f23bc1ae81e
toko bangunan,Toko bahan makanan,Toko Irian,"Jl. Manokwari - Bintuni, Ransiki Kota, Distrik Ransiki, Kab. Manokwari Selatan, Papua Bar. 98355","Ransiki Kota, Distrik Ransiki, Kab. Manokwari Selatan",PAPUA BARAT,98355.0,Indonesia,,-1.5078497,134.1712887,https://maps.google.com/?cid=0x0:0xf38ba09157a6ee94
toko bangunan,toko bangunan,Papua Bar. 98355,"Kab. Manokwari Selatan, Papua Bar.","Kab. Manokwari Selatan, Papua Bar.",PAPUA BARAT,,Indonesia,,-1.8268019,134.0199152,https://maps.google.com/?cid=0x0:0x3c36f74a68c69218
toko bangunan,Toko Perlengkapan Rumah,TOKO SINAR GALESONG,"F5W6+8GW, Jl. Manokwari - Bintuni, Sabri, Distrik Ransiki, Kab. Manokwari Selatan, Papua Bar. 98355","Jl. Manokwari - Bintuni, Sabri, Distrik Ransiki, Kab. Manokwari Selatan",PAPUA BARAT,98355.0,Indonesia,,-1.5040347,134.1614536,https://maps.google.com/?cid=0x0:0x86990547a4bc40da
toko bangunan,Toko Bahan Bangunan,Alfa Tree,"G524+2M4, Jl. Manokwari - Bintuni, Sabri, Distrik Ransiki, Kab. Manokwari Selatan, Papua Bar. 98355","Jl. Manokwari - Bintuni, Sabri, Distrik Ransiki, Kab. Manokwari Selatan",PAPUA BARAT,98355.0,Indonesia,,-1.4999985,134.1567128,https://maps.google.com/?cid=0x0:0xbcdca504294bf3fd
toko bangunan,Pusat Perbelanjaan,Toko Bangunan Pole Wali,"G523+VJ4, Jl. Manokwari - Bintuni, Sabri, Distrik Ransiki, Kab. Manokwari Selatan, Papua Bar. 98355","Jl. Manokwari - Bintuni, Sabri, Distrik Ransiki, Kab. Manokwari Selatan",PAPUA BARAT,98355.0,Indonesia,82199061888.0,-1.4978515,134.1540692,https://maps.google.com/?cid=0x0:0xd1498f23bc1ae81e
toko bangunan,Kios,ALYA JAYA ABADI,"Jalan Henka Dusun Tsunami I, Desa Jl. Abreso, Distrik Ransiki, Papua Bar. 98355","Desa Jl. Abreso, Distrik Ransiki",PAPUA BARAT,98355.0,Indonesia,81234777846.0,-1.5099887,134.2031959,https://maps.google.com/?cid=0x0:0x88993672f1bce372
toko bangunan,Toko,Cahaya sabri,"F5X4+VXM, Jln mkw , Bintuni waspiri, Sabri mansel, Sabri, Distrik Ransiki, Kab. Manokwari Selatan, Papua Bar. 98355","Jln mkw , Bintuni waspiri, Sabri mansel, Sabri, Distrik Ransiki, Kab. Manokwari Selatan",PAPUA BARAT,98355.0,Indonesia,82198117979.0,-1.5002988,134.1574359,https://maps.google.com/?cid=0x0:0xcbeb89abc0a2f440
toko bangunan,Toko Perlengkapan Rumah,Toko Bangunan Chaerul Perkasa,"G47W+272, Sabri, Distrik Ransiki, Kabupaten Manokwari, Papua Bar. 98355","Sabri, Distrik Ransiki, Kabupaten Manokwari",PAPUA BARAT,98355.0,Indonesia,,-1.4874778,134.1456266,https://maps.google.com/?cid=0x0:0x5d9f770235f478e
toko bangunan,Toko Bahan Bangunan,Ida Farida,"G47W+272, Sabri, Distrik Ransiki, Kab. Manokwari Selatan, Papua Bar. 98355","Sabri, Distrik Ransiki, Kab. Manokwari Selatan",PAPUA BARAT,98355.0,Indonesia,,-1.4874785,134.1456254,https://maps.google.com/?cid=0x0:0x95c3e377a1e4d692
building materials,building materials,Papua Bar. 98359,Papua Bar.,Papua Bar.,PAPUA BARAT,,Indonesia,,-1.5213839,133.7525619,https://maps.google.com/?cid=0x0:0xc8a895044b18d7c8
building materials,Toko Bahan Bangunan,ANEKA BANGUNAN,"Wosi, Kec. Manokwari Bar., Kabupaten Manokwari, Papua Bar. 98312","Kec. Manokwari Bar., Kabupaten Manokwari",PAPUA BARAT,98312.0,Indonesia,81344843001.0,-0.8631883,134.0498559,https://maps.google.com/?cid=0x0:0x3598159af16f30ea
building materials,Pemasok Bahan Bangunan,Depo Makmur Manokwari,"43P2+QWR, Jl. Trikora Wosi, Wosi, Kec. Manokwari Bar., Kabupaten Manokwari, Papua Bar. 98312","Jl. Trikora Wosi, Wosi, Kec. Manokwari Bar., Kabupaten Manokwari",PAPUA BARAT,98312.0,Indonesia,81248426402.0,-0.8630402,134.0521741,https://maps.google.com/?cid=0x0:0x387befda163fc63b
building materials,Toko Bahan Bangunan,PAPUA BANGUNAN,"42GX+945, Wosi, Kec. Manokwari Bar., Kabupaten Manokwari, Papua Bar. 98312","Wosi, Kec. Manokwari Bar., Kabupaten Manokwari",PAPUA BARAT,98312.0,Indonesia,82198055550.0,-0.874101,134.0478473,https://maps.google.com/?cid=0x0:0x2c3683b193d9430f
building materials,Toko Bahan Bangunan,DepoTeguh,"43QF+MP2, Padarni, Kec. Manokwari Bar., Kabupaten Manokwari, Papua Bar. 98312","Padarni, Kec. Manokwari Bar., Kabupaten Manokwari",PAPUA BARAT,98312.0,Indonesia,,-0.8608702,134.0742546,https://maps.google.com/?cid=0x0:0xa7aa87e22e73b4ed
building materials,building materials,Dataran Isim,"Kab. Manokwari Selatan, Papua Bar.","Kab. Manokwari Selatan, Papua Bar.",PAPUA BARAT,,Indonesia,,-1.5213839,133.7525619,https://maps.google.com/?cid=0x0:0x5152c50d52f61896
building materials,building materials,Distrik Momi Waren,"Kab. Manokwari Selatan, Papua Bar.","Kab. Manokwari Selatan, Papua Bar.",PAPUA BARAT,,Indonesia,,-1.589112,134.1139979,https://maps.google.com/?cid=0x0:0xf7889c42ea8b544b
building materials,Toko bahan makanan,Toko Irian,"Jl. Manokwari - Bintuni, Ransiki Kota, Distrik Ransiki, Kab. Manokwari Selatan, Papua Bar. 98355","Ransiki Kota, Distrik Ransiki, Kab. Manokwari Selatan",PAPUA BARAT,98355.0,Indonesia,,-1.5078497,134.1712887,https://maps.google.com/?cid=0x0:0xf38ba09157a6ee94
building materials,Toko Perlengkapan Rumah,TOKO SINAR GALESONG,"F5W6+8GW, Jl. Manokwari - Bintuni, Sabri, Distrik Ransiki, Kab. Manokwari Selatan, Papua Bar. 98355","Jl. Manokwari - Bintuni, Sabri, Distrik Ransiki, Kab. Manokwari Selatan",PAPUA BARAT,98355.0,Indonesia,,-1.5040347,134.1614536,https://maps.google.com/?cid=0x0:0x86990547a4bc40da
building materials,Toko,Cahaya sabri,"F5X4+VXM, Jln mkw , Bintuni waspiri, Sabri mansel, Sabri, Distrik Ransiki, Kab. Manokwari Selatan, Papua Bar. 98355","Jln mkw , Bintuni waspiri, Sabri mansel, Sabri, Distrik Ransiki, Kab. Manokwari Selatan",PAPUA BARAT,98355.0,Indonesia,82198117979.0,-1.5002988,134.1574359,https://maps.google.com/?cid=0x0:0xcbeb89abc0a2f440
building materials,Kantor Perusahaan,Stan Kayu Marsello,"C46W+R4C, Dembek, Distrik Momi Waren, Kabupaten Manokwari, Papua Bar. 98355","Dembek, Distrik Momi Waren, Kabupaten Manokwari",PAPUA BARAT,98355.0,Indonesia,81358733573.0,-1.5879288,134.1452688,https://maps.google.com/?cid=0x0:0x43f6f6f76e402a67
building materials,Toko Bahan Bangunan,Alfa Tree,"G524+2M4, Jl. Manokwari - Bintuni, Sabri, Distrik Ransiki, Kab. Manokwari Selatan, Papua Bar. 98355","Jl. Manokwari - Bintuni, Sabri, Distrik Ransiki, Kab. Manokwari Selatan",PAPUA BARAT,98355.0,Indonesia,,-1.4999985,134.1567128,https://maps.google.com/?cid=0x0:0xbcdca504294bf3fd
building materials,Pemasok Bahan Bangunan,Depo Makmur Manokwari,"43P2+QWR, Jl. Trikora Wosi, Wosi, Kec. Manokwari Bar., Kabupaten Manokwari, Papua Bar. 98312","Jl. Trikora Wosi, Wosi, Kec. Manokwari Bar., Kabupaten Manokwari",PAPUA BARAT,98312.0,Indonesia,81248426402.0,-0.8630402,134.0521741,https://maps.google.com/?cid=0x0:0x387befda163fc63b
building materials,Toko Bahan Bangunan,Depo Bangunan Mbanyu Mili,"3VQM+2GP depan balai kampung sp 2, Prafi Mulia, Distrik Prafi, Kabupaten Manokwari, Papua Bar. 98356","Prafi Mulia, Distrik Prafi, Kabupaten Manokwari",PAPUA BARAT,98356.0,Indonesia,85254126242.0,-0.9124191,133.8838245,https://maps.google.com/?cid=0x0:0x72bb281db456c91a
building materials,Toko Bahan Bangunan,Ida Farida,"G47W+272, Sabri, Distrik Ransiki, Kab. Manokwari Selatan, Papua Bar. 98355","Sabri, Distrik Ransiki, Kab. Manokwari Selatan",PAPUA BARAT,98355.0,Indonesia,,-1.4874785,134.1456254,https://maps.google.com/?cid=0x0:0x95c3e377a1e4d692
building materials,building materials,Toko MarveL,"F5RG+H5W, Ransiki Kota, Distrik Ransiki, Kab. Manokwari Selatan, Papua Bar. 98355","Ransiki Kota, Distrik Ransiki, Kab. Manokwari Selatan",PAPUA BARAT,98355.0,Indonesia,,-1.5085066,134.1754377,https://maps.google.com/?cid=0x0:0x8b3ea15a75eba293
building materials,Toko Bahan Bangunan,ANEKA BANGUNAN,"Wosi, Kec. Manokwari Bar., Kabupaten Manokwari, Papua Bar. 98312","Kec. Manokwari Bar., Kabupaten Manokwari",PAPUA BARAT,98312.0,Indonesia,81344843001.0,-0.8631883,134.0498559,https://maps.google.com/?cid=0x0:0x3598159af16f30ea
building materials,Toko Bahan Bangunan,NASYA BANGUNAN,"X8M9+469, Jl. Nusa Indah, Mariyai, Distrik Mariat, Kabupaten Sorong, Papua Bar. 98415","Jl. Nusa Indah, Mariyai, Distrik Mariat, Kabupaten Sorong",PAPUA BARAT,98415.0,Indonesia,,-1.0172176,131.3181156,https://maps.google.com/?cid=0x0:0x19e47aadec85996d
building materials,Toko Bahan Bangunan,Depo Bangunan Mbanyu Mili,"3VQM+2GP depan balai kampung sp 2, Prafi Mulia, Distrik Prafi, Kabupaten Manokwari, Papua Bar. 98356","Prafi Mulia, Distrik Prafi, Kabupaten Manokwari",PAPUA BARAT,98356.0,Indonesia,85254126242.0,-0.9124191,133.8838245,https://maps.google.com/?cid=0x0:0x72bb281db456c91a
building materials,Toko Bahan Bangunan,Bata Merah Jansae,"WM8P+GMW SP 1, Jalur 4, Waraitama, Distrik Manimeri, Kabupaten Teluk Bintuni, Papua Bar. 98364","Jalur 4, Waraitama, Distrik Manimeri, Kabupaten Teluk Bintuni",PAPUA BARAT,98364.0,Indonesia,81239398876.0,-2.0836485,133.6867113,https://maps.google.com/?cid=0x0:0x6f1da27cf1685bd3
building materials,Toko Bahan Bangunan,TOKO BANGUN NUSANTARA JAYA 2,"JL Yos Sudarso, Sempan, Timika (200 meter setelah SMAN 1, Papua 99971","Sempan, Timika (200 meter setelah SMAN 1",PAPUA BARAT,99971.0,Indonesia,81334703021.0,-4.5705016,136.8853477,https://maps.google.com/?cid=0x0:0x439ec6c0e9985b9b
building materials,Toko Bahan Bangunan,kios enny nur cemenes,"Jl. Dermaga Baru, Bis Agats, Distrik Agats, Kabupaten Asmat, Papua 99777","Bis Agats, Distrik Agats, Kabupaten Asmat",PAPUA BARAT,99777.0,Indonesia,81343209941.0,-5.5305575,138.1406968,https://maps.google.com/?cid=0x0:0xf058fc25a2aab75
building materials,building materials,Oransbari,"J7XJ+PQH, Oransbari",,PAPUA BARAT,,Indonesia,,-1.350698,134.2819979,https://maps.google.com/?cid=0x0:0xd41b2d7acaf58d5b
building materials,Toko,Cahaya sabri,"F5X4+VXM, Jln mkw , Bintuni waspiri, Sabri mansel, Sabri, Distrik Ransiki, Kab. Manokwari Selatan, Papua Bar. 98355","Jln mkw , Bintuni waspiri, Sabri mansel, Sabri, Distrik Ransiki, Kab. Manokwari Selatan",PAPUA BARAT,98355.0,Indonesia,82198117979.0,-1.5002988,134.1574359,https://maps.google.com/?cid=0x0:0xcbeb89abc0a2f440
building materials,building materials,Papua Bar. 98353,"Kabupaten Manokwari, Papua Bar.","Kabupaten Manokwari, Papua Bar.",PAPUA BARAT,,Indonesia,,-1.2869478,134.1340439,https://maps.google.com/?cid=0x0:0x8a0ea672dc22a2db
building materials,Toko Bahan Bangunan,Alfa Tree,"G524+2M4, Jl. Manokwari - Bintuni, Sabri, Distrik Ransiki, Kab. Manokwari Selatan, Papua Bar. 98355","Jl. Manokwari - Bintuni, Sabri, Distrik Ransiki, Kab. Manokwari Selatan",PAPUA BARAT,98355.0,Indonesia,,-1.4999985,134.1567128,https://maps.google.com/?cid=0x0:0xbcdca504294bf3fd
building materials,Toko bahan makanan,Toko Irian,"Jl. Manokwari - Bintuni, Ransiki Kota, Distrik Ransiki, Kab. Manokwari Selatan, Papua Bar. 98355","Ransiki Kota, Distrik Ransiki, Kab. Manokwari Selatan",PAPUA BARAT,98355.0,Indonesia,,-1.5078497,134.1712887,https://maps.google.com/?cid=0x0:0xf38ba09157a6ee94
building materials,Toko Perlengkapan Rumah,TOKO SINAR GALESONG,"F5W6+8GW, Jl. Manokwari - Bintuni, Sabri, Distrik Ransiki, Kab. Manokwari Selatan, Papua Bar. 98355","Jl. Manokwari - Bintuni, Sabri, Distrik Ransiki, Kab. Manokwari Selatan",PAPUA BARAT,98355.0,Indonesia,,-1.5040347,134.1614536,https://maps.google.com/?cid=0x0:0x86990547a4bc40da
building materials,Toko Bahan Bangunan,ANEKA BANGUNAN,"Wosi, Kec. Manokwari Bar., Kabupaten Manokwari, Papua Bar. 98312","Kec. Manokwari Bar., Kabupaten Manokwari",PAPUA BARAT,98312.0,Indonesia,81344843001.0,-0.8631883,134.0498559,https://maps.google.com/?cid=0x0:0x3598159af16f30ea
building materials,Pemasok Bahan Bangunan,Toko bangunan Sumber Makmur,"32CM+75G, Jl. Manokwari - Maruni, Anday, Distrik Manokwari, Kabupaten Manokwari, Papua Bar. 98315","Jl. Manokwari - Maruni, Anday, Distrik Manokwari, Kabupaten Manokwari",PAPUA BARAT,98315.0,Indonesia,8114846060.0,-0.9293075,134.0329487,https://maps.google.com/?cid=0x0:0xa0a85c7270dde255
building materials,Kios,ALYA JAYA ABADI,"Jalan Henka Dusun Tsunami I, Desa Jl. Abreso, Distrik Ransiki, Papua Bar. 98355","Desa Jl. Abreso, Distrik Ransiki",PAPUA BARAT,98355.0,Indonesia,81234777846.0,-1.5099887,134.2031959,https://maps.google.com/?cid=0x0:0x88993672f1bce372
building materials,Toko Bahan Bangunan,Ida Farida,"G47W+272, Sabri, Distrik Ransiki, Kab. Manokwari Selatan, Papua Bar. 98355","Sabri, Distrik Ransiki, Kab. Manokwari Selatan",PAPUA BARAT,98355.0,Indonesia,,-1.4874785,134.1456254,https://maps.google.com/?cid=0x0:0x95c3e377a1e4d692
building materials,building materials,Citra bangunan,"M67F+RGR, Margomulyo, Kec. Oransbari, Kabupaten Manokwari, Papua Bar. 98353","Margomulyo, Kec. Oransbari, Kabupaten Manokwari",PAPUA BARAT,98353.0,Indonesia,,-1.3353802,134.2237758,https://maps.google.com/?cid=0x0:0x19c7721be4b31fe1
building materials,Toko Bahan Bangunan,Toko Rumba Raya,"G524+8HJ, Sabri, Distrik Ransiki, Kabupaten Manokwari, Papua Bar. 98355","Sabri, Distrik Ransiki, Kabupaten Manokwari",PAPUA BARAT,98355.0,Indonesia,,-1.4991633,134.1563785,https://maps.google.com/?cid=0x0:0xa9c01ef767a67dcb
building materials,Toko bahan makanan,Toko Irian,"Jl. Manokwari - Bintuni, Ransiki Kota, Distrik Ransiki, Kab. Manokwari Selatan, Papua Bar. 98355","Ransiki Kota, Distrik Ransiki, Kab. Manokwari Selatan",PAPUA BARAT,98355.0,Indonesia,,-1.5078497,134.1712887,https://maps.google.com/?cid=0x0:0xf38ba09157a6ee94
building materials,building materials,Toko MarveL,"F5RG+H5W, Ransiki Kota, Distrik Ransiki, Kab. Manokwari Selatan, Papua Bar. 98355","Ransiki Kota, Distrik Ransiki, Kab. Manokwari Selatan",PAPUA BARAT,98355.0,Indonesia,,-1.5085066,134.1754377,https://maps.google.com/?cid=0x0:0x8b3ea15a75eba293
building materials,Toko Bahan Bangunan,Toko Rumba Raya,"G524+8HJ, Sabri, Distrik Ransiki, Kabupaten Manokwari, Papua Bar. 98355","Sabri, Distrik Ransiki, Kabupaten Manokwari",PAPUA BARAT,98355.0,Indonesia,,-1.4991633,134.1563785,https://maps.google.com/?cid=0x0:0xa9c01ef767a67dcb
building materials,building materials,Papua Bar. 98355,"Kab. Manokwari Selatan, Papua Bar.","Kab. Manokwari Selatan, Papua Bar.",PAPUA BARAT,,Indonesia,,-1.8268019,134.0199152,https://maps.google.com/?cid=0x0:0x3c36f74a68c69218
building materials,Toko,Cahaya sabri,"F5X4+VXM, Jln mkw , Bintuni waspiri, Sabri mansel, Sabri, Distrik Ransiki, Kab. Manokwari Selatan, Papua Bar. 98355","Jln mkw , Bintuni waspiri, Sabri mansel, Sabri, Distrik Ransiki, Kab. Manokwari Selatan",PAPUA BARAT,98355.0,Indonesia,82198117979.0,-1.5002988,134.1574359,https://maps.google.com/?cid=0x0:0xcbeb89abc0a2f440
building materials,Toko Bahan Bangunan,Alfa Tree,"G524+2M4, Jl. Manokwari - Bintuni, Sabri, Distrik Ransiki, Kab. Manokwari Selatan, Papua Bar. 98355","Jl. Manokwari - Bintuni, Sabri, Distrik Ransiki, Kab. Manokwari Selatan",PAPUA BARAT,98355.0,Indonesia,,-1.4999985,134.1567128,https://maps.google.com/?cid=0x0:0xbcdca504294bf3fd
building materials,building materials,Distrik Tahota,"Kab. Manokwari Selatan, Papua Bar.","Kab. Manokwari Selatan, Papua Bar.",PAPUA BARAT,,Indonesia,,-1.7908829,133.9862408,https://maps.google.com/?cid=0x0:0x169fe16a30d46c7b
building materials,Kios,ALYA JAYA ABADI,"Jalan Henka Dusun Tsunami I, Desa Jl. Abreso, Distrik Ransiki, Papua Bar. 98355","Desa Jl. Abreso, Distrik Ransiki",PAPUA BARAT,98355.0,Indonesia,81234777846.0,-1.5099887,134.2031959,https://maps.google.com/?cid=0x0:0x88993672f1bce372
building materials,Toko bahan makanan,Toko Irian,"Jl. Manokwari - Bintuni, Ransiki Kota, Distrik Ransiki, Kab. Manokwari Selatan, Papua Bar. 98355","Ransiki Kota, Distrik Ransiki, Kab. Manokwari Selatan",PAPUA BARAT,98355.0,Indonesia,,-1.5078497,134.1712887,https://maps.google.com/?cid=0x0:0xf38ba09157a6ee94
building materials,Toko Bahan Bangunan,Ida Farida,"G47W+272, Sabri, Distrik Ransiki, Kab. Manokwari Selatan, Papua Bar. 98355","Sabri, Distrik Ransiki, Kab. Manokwari Selatan",PAPUA BARAT,98355.0,Indonesia,,-1.4874785,134.1456254,https://maps.google.com/?cid=0x0:0x95c3e377a1e4d692
hardware store,Toko,MR.DIY,"Jl. S. Condronegoro, Manokwari Tim., Kec. Manokwari Bar., Kabupaten Manokwari, Papua Bar. 98312","Manokwari Tim., Kec. Manokwari Bar., Kabupaten Manokwari",PAPUA BARAT,98312.0,Indonesia,,-0.8598762,134.065071,https://maps.google.com/?cid=0x0:0xea9b14a17b8a2616
hardware store,Toko Perlengkapan Rumah,Mr. DIY Wosi,"42GX+74Q, Wosi, Kec. Manokwari Bar., Kabupaten Manokwari, Papua Bar. 98312","Wosi, Kec. Manokwari Bar., Kabupaten Manokwari",PAPUA BARAT,98312.0,Indonesia,,-0.8742799,134.0478833,https://maps.google.com/?cid=0x0:0x901fc121889010dd
hardware store,hardware store,Papua Bar. 98359,Papua Bar.,Papua Bar.,PAPUA BARAT,,Indonesia,,-1.5213839,133.7525619,https://maps.google.com/?cid=0x0:0xc8a895044b18d7c8
hardware store,hardware store,Distrik Momi Waren,"Kab. Manokwari Selatan, Papua Bar.","Kab. Manokwari Selatan, Papua Bar.",PAPUA BARAT,,Indonesia,,-1.589112,134.1139979,https://maps.google.com/?cid=0x0:0xf7889c42ea8b544b
hardware store,Toko bahan makanan,Toko Irian,"Jl. Manokwari - Bintuni, Ransiki Kota, Distrik Ransiki, Kab. Manokwari Selatan, Papua Bar. 98355","Ransiki Kota, Distrik Ransiki, Kab. Manokwari Selatan",PAPUA BARAT,98355.0,Indonesia,,-1.5078497,134.1712887,https://maps.google.com/?cid=0x0:0xf38ba09157a6ee94
hardware store,Toko Perlengkapan Rumah,TOKO SINAR GALESONG,"F5W6+8GW, Jl. Manokwari - Bintuni, Sabri, Distrik Ransiki, Kab. Manokwari Selatan, Papua Bar. 98355","Jl. Manokwari - Bintuni, Sabri, Distrik Ransiki, Kab. Manokwari Selatan",PAPUA BARAT,98355.0,Indonesia,,-1.5040347,134.1614536,https://maps.google.com/?cid=0x0:0x86990547a4bc40da
hardware store,Toko,Cahaya sabri,"F5X4+VXM, Jln mkw , Bintuni waspiri, Sabri mansel, Sabri, Distrik Ransiki, Kab. Manokwari Selatan, Papua Bar. 98355","Jln mkw , Bintuni waspiri, Sabri mansel, Sabri, Distrik Ransiki, Kab. Manokwari Selatan",PAPUA BARAT,98355.0,Indonesia,82198117979.0,-1.5002988,134.1574359,https://maps.google.com/?cid=0x0:0xcbeb89abc0a2f440
hardware store,Kios,ALYA JAYA ABADI,"Jalan Henka Dusun Tsunami I, Desa Jl. Abreso, Distrik Ransiki, Papua Bar. 98355","Desa Jl. Abreso, Distrik Ransiki",PAPUA BARAT,98355.0,Indonesia,81234777846.0,-1.5099887,134.2031959,https://maps.google.com/?cid=0x0:0x88993672f1bce372
hardware store,Grosir kosmetik,F3 GLOWING AGEN RATIH,"Jl. Berlian II No.4, Kuta Jaya, Kec. Ps. Kemis, Kabupaten Tangerang, Banten 15560","Kuta Jaya, Kec. Ps. Kemis, Kabupaten Tangerang",PAPUA BARAT,15560.0,Indonesia,81383355429.0,-6.1668493,106.5723234,https://maps.google.com/?cid=0x0:0x92cfa8f144b93825
hardware store,Toko Kosmetik,negoin aja,"Jl. Parkit II No.6, RT.05/RW.10, Kuta Baru, Kec. Ps. Kemis, Kabupaten Tangerang, Banten 15561","RT.05/RW.10, Kuta Baru, Kec. Ps. Kemis, Kabupaten Tangerang",PAPUA BARAT,15561.0,Indonesia,8521200366.0,-6.1569916,106.5725443,https://maps.google.com/?cid=0x0:0xd86bd23d9f52b693
hardware store,hardware store,Nenei,"Distrik Neney, Kab. Manokwari Selatan, Papua Bar.","Kab. Manokwari Selatan, Papua Bar.",PAPUA BARAT,,Indonesia,,-1.5521393,133.9341408,https://maps.google.com/?cid=0x0:0x56180a919aad2564
hardware store,hardware store,Papua Bar. 98353,"Kabupaten Manokwari, Papua Bar.","Kabupaten Manokwari, Papua Bar.",PAPUA BARAT,,Indonesia,,-1.2869478,134.1340439,https://maps.google.com/?cid=0x0:0x8a0ea672dc22a2db
hardware store,Toko umum,Oransbari,"M66H+MWP, Muari, Kec. Oransbari, Kab. Manokwari Selatan, Papua Bar.","Kab. Manokwari Selatan, Papua Bar.",PAPUA BARAT,,Indonesia,,-1.3382929,134.2298399,https://maps.google.com/?cid=0x0:0x78998a3efdcc223c
hardware store,Kios,ALYA JAYA ABADI,"Jalan Henka Dusun Tsunami I, Desa Jl. Abreso, Distrik Ransiki, Papua Bar. 98355","Desa Jl. Abreso, Distrik Ransiki",PAPUA BARAT,98355.0,Indonesia,81234777846.0,-1.5099887,134.2031959,https://maps.google.com/?cid=0x0:0x88993672f1bce372
hardware store,Toko,Cahaya sabri,"F5X4+VXM, Jln mkw , Bintuni waspiri, Sabri mansel, Sabri, Distrik Ransiki, Kab. Manokwari Selatan, Papua Bar. 98355","Jln mkw , Bintuni waspiri, Sabri mansel, Sabri, Distrik Ransiki, Kab. Manokwari Selatan",PAPUA BARAT,98355.0,Indonesia,82198117979.0,-1.5002988,134.1574359,https://maps.google.com/?cid=0x0:0xcbeb89abc0a2f440
hardware store,hardware store,Kec. Oransbari,"Kab. Manokwari Selatan, Papua Bar.","Kab. Manokwari Selatan, Papua Bar.",PAPUA BARAT,,Indonesia,,-1.317997,134.2177814,https://maps.google.com/?cid=0x0:0x6dc2ddd22e3d8580
hardware store,Toko,Jalur 2 Mansel,"F5RV+R62, Ransiki Kota, Distrik Ransiki, Kabupaten Manokwari, Papua Bar. 98355","Ransiki Kota, Distrik Ransiki, Kabupaten Manokwari",PAPUA BARAT,98355.0,Indonesia,,-1.5079763,134.1930034,https://maps.google.com/?cid=0x0:0x4683ee0676ecb5ea
hardware store,Layanan Transportasi,Mansel,"KP.Abreso,Jalan Baru 2 Arah, Ransiki Kota, Distrik Ransiki, Kab. Manokwari Selatan, Papua Bar.","Kab. Manokwari Selatan, Papua Bar.",PAPUA BARAT,,Indonesia,813141405.0,-1.5079537,134.1942016,https://maps.google.com/?cid=0x0:0xc7f58f7a5cfa605
hardware store,hardware store,Mansel abon ikan tuna,"Jl. Abreso, Ransiki Kota, Distrik Ransiki, Kab. Manokwari Selatan, Papua Bar. 98355","Ransiki Kota, Distrik Ransiki, Kab. Manokwari Selatan",PAPUA BARAT,98355.0,Indonesia,82116196860.0,-1.510741,134.1957948,https://maps.google.com/?cid=0x0:0x2c4fb7a366de90b0
hardware store,Kios,ALYA JAYA ABADI,"Jalan Henka Dusun Tsunami I, Desa Jl. Abreso, Distrik Ransiki, Papua Bar. 98355","Desa Jl. Abreso, Distrik Ransiki",PAPUA BARAT,98355.0,Indonesia,81234777846.0,-1.5099887,134.2031959,https://maps.google.com/?cid=0x0:0x88993672f1bce372
hardware store,Toko bahan makanan,Atifa99,"F6Q2+W36, Jl. Abreso, Bamaha, Distrik Ransiki, Kab. Manokwari Selatan, Papua Bar. 98355","Jl. Abreso, Bamaha, Distrik Ransiki, Kab. Manokwari Selatan",PAPUA BARAT,98355.0,Indonesia,,-1.510035,134.200431,https://maps.google.com/?cid=0x0:0x65b2deaf7271b8b6
supermarket bangunan,supermarket bangunan,Papua Bar. 98359,Papua Bar.,Papua Bar.,PAPUA BARAT,,Indonesia,,-1.5213839,133.7525619,https://maps.google.com/?cid=0x0:0xc8a895044b18d7c8
supermarket bangunan,Pemasok Bahan Bangunan,Toko bangunan Sumber Makmur,"32CM+75G, Jl. Manokwari - Maruni, Anday, Distrik Manokwari, Kabupaten Manokwari, Papua Bar. 98315","Jl. Manokwari - Maruni, Anday, Distrik Manokwari, Kabupaten Manokwari",PAPUA BARAT,98315.0,Indonesia,8114846060.0,-0.9293075,134.0329487,https://maps.google.com/?cid=0x0:0xa0a85c7270dde255
supermarket bangunan,Toko Bahan Bangunan,ANEKA BANGUNAN,"Wosi, Kec. Manokwari Bar., Kabupaten Manokwari, Papua Bar. 98312","Kec. Manokwari Bar., Kabupaten Manokwari",PAPUA BARAT,98312.0,Indonesia,81344843001.0,-0.8631883,134.0498559,https://maps.google.com/?cid=0x0:0x3598159af16f30ea
supermarket bangunan,Toko Bahan Bangunan,Toko Bangunan Saudara,"Jl. Pasir, pantai, Wosi, Kec. Manokwari Bar., Kabupaten Manokwari, Papua Bar. 98312","pantai, Wosi, Kec. Manokwari Bar., Kabupaten Manokwari",PAPUA BARAT,98312.0,Indonesia,81219608601.0,-0.8691435,134.0499159,https://maps.google.com/?cid=0x0:0xd3c286debc960345
supermarket bangunan,Pemasok Bahan Bangunan,Depo Makmur Manokwari,"43P2+QWR, Jl. Trikora Wosi, Wosi, Kec. Manokwari Bar., Kabupaten Manokwari, Papua Bar. 98312","Jl. Trikora Wosi, Wosi, Kec. Manokwari Bar., Kabupaten Manokwari",PAPUA BARAT,98312.0,Indonesia,81248426402.0,-0.8630402,134.0521741,https://maps.google.com/?cid=0x0:0x387befda163fc63b
supermarket bangunan,Toko Bahan Bangunan,PAPUA BANGUNAN,"42GX+945, Wosi, Kec. Manokwari Bar., Kabupaten Manokwari, Papua Bar. 98312","Wosi, Kec. Manokwari Bar., Kabupaten Manokwari",PAPUA BARAT,98312.0,Indonesia,82198055550.0,-0.874101,134.0478473,https://maps.google.com/?cid=0x0:0x2c3683b193d9430f
supermarket bangunan,Toko Bahan Bangunan,Toko Bangunan,"Jl. Trikora Taman Ria No.4, Sowi, Distrik Manokwari, Kabupaten Manokwari, Papua Bar. 98315","Sowi, Distrik Manokwari, Kabupaten Manokwari",PAPUA BARAT,98315.0,Indonesia,,-0.906996,134.035784,https://maps.google.com/?cid=0x0:0xe97020a60705142f
supermarket bangunan,Toko Bahan Bangunan,Toko Central Bangunan,"42JW+2CG, Wosi, Kec. Manokwari Bar., Kabupaten Manokwari, Papua Bar. 98312","Wosi, Kec. Manokwari Bar., Kabupaten Manokwari",PAPUA BARAT,98312.0,Indonesia,,-0.8696454,134.0463667,https://maps.google.com/?cid=0x0:0x7ec708d770758168
supermarket bangunan,Toko Bahan Bangunan,Toko Bangunan ATIGA,"5355+F7H, Jl. Angkasa Mulyono, Amban, Kec. Manokwari Bar., Kabupaten Manokwari, Papua Bar. 98312","Jl. Angkasa Mulyono, Amban, Kec. Manokwari Bar., Kabupaten Manokwari",PAPUA BARAT,98312.0,Indonesia,,-0.8413134,134.0582405,https://maps.google.com/?cid=0x0:0x6a0ea28d5492ed54
supermarket bangunan,Toko Bahan Bangunan,Toko Bangunan,"Jl. Gn. Salju No.70, Amban, Kec. Manokwari Bar., Kabupaten Manokwari, Papua Bar. 98314","Amban, Kec. Manokwari Bar., Kabupaten Manokwari",PAPUA BARAT,98314.0,Indonesia,,-0.8378489,134.0648609,https://maps.google.com/?cid=0x0:0x39e90745f521cce
supermarket bangunan,Toko Bahan Bangunan,Toko Bangunan Alva Center,"3299+WR4, Anday, Distrik Manokwari, Kabupaten Manokwari, Papua Bar. 98315","Anday, Distrik Manokwari, Kabupaten Manokwari",PAPUA BARAT,98315.0,Indonesia,82248894866.0,-0.9302448,134.0195768,https://maps.google.com/?cid=0x0:0xb10f5dd5b0339319
supermarket bangunan,supermarket bangunan,Distrik Momi Waren,"Kab. Manokwari Selatan, Papua Bar.","Kab. Manokwari Selatan, Papua Bar.",PAPUA BARAT,,Indonesia,,-1.589112,134.1139979,https://maps.google.com/?cid=0x0:0xf7889c42ea8b544b
supermarket bangunan,Toko bahan makanan,Toko Irian,"Jl. Manokwari - Bintuni, Ransiki Kota, Distrik Ransiki, Kab. Manokwari Selatan, Papua Bar. 98355","Ransiki Kota, Distrik Ransiki, Kab. Manokwari Selatan",PAPUA BARAT,98355.0,Indonesia,,-1.5078497,134.1712887,https://maps.google.com/?cid=0x0:0xf38ba09157a6ee94
supermarket bangunan,Pusat Perbelanjaan,Toko Bangunan Pole Wali,"G523+VJ4, Jl. Manokwari - Bintuni, Sabri, Distrik Ransiki, Kab. Manokwari Selatan, Papua Bar. 98355","Jl. Manokwari - Bintuni, Sabri, Distrik Ransiki, Kab. Manokwari Selatan",PAPUA BARAT,98355.0,Indonesia,82199061888.0,-1.4978515,134.1540692,https://maps.google.com/?cid=0x0:0xd1498f23bc1ae81e
supermarket bangunan,Toko Bahan Bangunan,Toko Rumba Raya,"G524+8HJ, Sabri, Distrik Ransiki, Kabupaten Manokwari, Papua Bar. 98355","Sabri, Distrik Ransiki, Kabupaten Manokwari",PAPUA BARAT,98355.0,Indonesia,,-1.4991633,134.1563785,https://maps.google.com/?cid=0x0:0xa9c01ef767a67dcb
supermarket bangunan,Toko Perlengkapan Rumah,TOKO SINAR GALESONG,"F5W6+8GW, Jl. Manokwari - Bintuni, Sabri, Distrik Ransiki, Kab. Manokwari Selatan, Papua Bar. 98355","Jl. Manokwari - Bintuni, Sabri, Distrik Ransiki, Kab. Manokwari Selatan",PAPUA BARAT,98355.0,Indonesia,,-1.5040347,134.1614536,https://maps.google.com/?cid=0x0:0x86990547a4bc40da
supermarket bangunan,Toko Bahan Bangunan,Supermarket Multi Bangunan,"Jl Baru No.98, Wai Mhorock, Abepura, Jayapura City, Papua 99225","Wai Mhorock, Abepura, Jayapura City",PAPUA BARAT,99225.0,Indonesia,967588677.0,-2.6077336,140.6742812,https://maps.google.com/?cid=0x0:0x3b19f301c68f1d6f
supermarket bangunan,Toko Bahan Bangunan,PAPUA BANGUNAN,"42GX+945, Wosi, Kec. Manokwari Bar., Kabupaten Manokwari, Papua Bar. 98312","Wosi, Kec. Manokwari Bar., Kabupaten Manokwari",PAPUA BARAT,98312.0,Indonesia,82198055550.0,-0.874101,134.0478473,https://maps.google.com/?cid=0x0:0x2c3683b193d9430f
supermarket bangunan,Toko,Cahaya sabri,"F5X4+VXM, Jln mkw , Bintuni waspiri, Sabri mansel, Sabri, Distrik Ransiki, Kab. Manokwari Selatan, Papua Bar. 98355","Jln mkw , Bintuni waspiri, Sabri mansel, Sabri, Distrik Ransiki, Kab. Manokwari Selatan",PAPUA BARAT,98355.0,Indonesia,82198117979.0,-1.5002988,134.1574359,https://maps.google.com/?cid=0x0:0xcbeb89abc0a2f440
supermarket bangunan,Pemasok Bahan Bangunan,Depo Makmur Manokwari,"43P2+QWR, Jl. Trikora Wosi, Wosi, Kec. Manokwari Bar., Kabupaten Manokwari, Papua Bar. 98312","Jl. Trikora Wosi, Wosi, Kec. Manokwari Bar., Kabupaten Manokwari",PAPUA BARAT,98312.0,Indonesia,81248426402.0,-0.8630402,134.0521741,https://maps.google.com/?cid=0x0:0x387befda163fc63b
supermarket bangunan,Kantor Perusahaan,Stan Kayu Marsello,"C46W+R4C, Dembek, Distrik Momi Waren, Kabupaten Manokwari, Papua Bar. 98355","Dembek, Distrik Momi Waren, Kabupaten Manokwari",PAPUA BARAT,98355.0,Indonesia,81358733573.0,-1.5879288,134.1452688,https://maps.google.com/?cid=0x0:0x43f6f6f76e402a67
supermarket bangunan,Toko Bahan Bangunan,Toko Bangunan,"Jl. Trikora Taman Ria No.4, Sowi, Distrik Manokwari, Kabupaten Manokwari, Papua Bar. 98315","Sowi, Distrik Manokwari, Kabupaten Manokwari",PAPUA BARAT,98315.0,Indonesia,,-0.906996,134.035784,https://maps.google.com/?cid=0x0:0xe97020a60705142f
supermarket bangunan,Komplek perumahan,Kampung Waren,"94V5+2M2, Waren, Distrik Momi Waren, Kab. Manokwari Selatan, Papua Bar. 98355","Waren, Distrik Momi Waren, Kab. Manokwari Selatan",PAPUA BARAT,98355.0,Indonesia,,-1.6074867,134.1091317,https://maps.google.com/?cid=0x0:0xa8dbd6d862057239
supermarket bangunan,Toko Bahan Bangunan,Toko Bangunan Saudara,"Jl. Pasir, pantai, Wosi, Kec. Manokwari Bar., Kabupaten Manokwari, Papua Bar. 98312","pantai, Wosi, Kec. Manokwari Bar., Kabupaten Manokwari",PAPUA BARAT,98312.0,Indonesia,81219608601.0,-0.8691435,134.0499159,https://maps.google.com/?cid=0x0:0xd3c286debc960345
supermarket bangunan,Toko Bahan Bangunan,Alfa Tree,"G524+2M4, Jl. Manokwari - Bintuni, Sabri, Distrik Ransiki, Kab. Manokwari Selatan, Papua Bar. 98355","Jl. Manokwari - Bintuni, Sabri, Distrik Ransiki, Kab. Manokwari Selatan",PAPUA BARAT,98355.0,Indonesia,,-1.4999985,134.1567128,https://maps.google.com/?cid=0x0:0xbcdca504294bf3fd
supermarket bangunan,Toko Bahan Bangunan,ANEKA BANGUNAN,"Wosi, Kec. Manokwari Bar., Kabupaten Manokwari, Papua Bar. 98312","Kec. Manokwari Bar., Kabupaten Manokwari",PAPUA BARAT,98312.0,Indonesia,81344843001.0,-0.8631883,134.0498559,https://maps.google.com/?cid=0x0:0x3598159af16f30ea
supermarket bangunan,Toko Bahan Bangunan,Toko Bangunan FIRMAN,"Jl. Trikora Wosi No.168, Wosi, Kec. Manokwari Bar., Kabupaten Manokwari, Papua Bar. 98312","Wosi, Kec. Manokwari Bar., Kabupaten Manokwari",PAPUA BARAT,98312.0,Indonesia,8114118555.0,-0.8672239,134.0562233,https://maps.google.com/?cid=0x0:0xad10e51218925944
supermarket bangunan,Toko Bahan Bangunan,Toko Multi Bangunan,"Q97H+9V2, Sarafambai, Kec. Waropen Bawah, Kabupaten Waropen, Papua 98261","Sarafambai, Kec. Waropen Bawah, Kabupaten Waropen",PAPUA BARAT,98261.0,Indonesia,,-2.2366153,136.3796343,https://maps.google.com/?cid=0x0:0x8fe10ca526096f47
supermarket bangunan,Toko Bahan Bangunan,PAPUA BANGUNAN,"42GX+945, Wosi, Kec. Manokwari Bar., Kabupaten Manokwari, Papua Bar. 98312","Wosi, Kec. Manokwari Bar., Kabupaten Manokwari",PAPUA BARAT,98312.0,Indonesia,82198055550.0,-0.874101,134.0478473,https://maps.google.com/?cid=0x0:0x2c3683b193d9430f
supermarket bangunan,Toko Bahan Bangunan,Supermarket Multi Bangunan,"Jl Baru No.98, Wai Mhorock, Abepura, Jayapura City, Papua 99225","Wai Mhorock, Abepura, Jayapura City",PAPUA BARAT,99225.0,Indonesia,967588677.0,-2.6077336,140.6742812,https://maps.google.com/?cid=0x0:0x3b19f301c68f1d6f
supermarket bangunan,Toko Bahan Bangunan,Toko Bangunan naira,"Wanagon, Jl. Poros SP V - SP II, Kec. Mimika Baru, Kabupaten Mimika, Papua 99952","Jl. Poros SP V - SP II, Kec. Mimika Baru, Kabupaten Mimika",PAPUA BARAT,99952.0,Indonesia,85145118770.0,-4.5180236,136.8426916,https://maps.google.com/?cid=0x0:0x41539a335a8db899
supermarket bangunan,Toko Bahan Bangunan,Toko Bangunan,"Jl. Gn. Salju No.70, Amban, Kec. Manokwari Bar., Kabupaten Manokwari, Papua Bar. 98314","Amban, Kec. Manokwari Bar., Kabupaten Manokwari",PAPUA BARAT,98314.0,Indonesia,,-0.8378489,134.0648609,https://maps.google.com/?cid=0x0:0x39e90745f521cce
supermarket bangunan,supermarket bangunan,Nenei,"Distrik Neney, Kab. Manokwari Selatan, Papua Bar.","Kab. Manokwari Selatan, Papua Bar.",PAPUA BARAT,,Indonesia,,-1.5521393,133.9341408,https://maps.google.com/?cid=0x0:0x56180a919aad2564
supermarket bangunan,Toko Bahan Bangunan,Fajar Bangunan,"Sowi, Distrik Manokwari, Kabupaten Manokwari, Papua Bar. 98315","Distrik Manokwari, Kabupaten Manokwari",PAPUA BARAT,98315.0,Indonesia,,-0.9062643,134.0359839,https://maps.google.com/?cid=0x0:0x9d0563299ba4e3f6
supermarket bangunan,Toko Bahan Bangunan,Toko Central Bangunan,"42JW+2CG, Wosi, Kec. Manokwari Bar., Kabupaten Manokwari, Papua Bar. 98312","Wosi, Kec. Manokwari Bar., Kabupaten Manokwari",PAPUA BARAT,98312.0,Indonesia,,-0.8696454,134.0463667,https://maps.google.com/?cid=0x0:0x7ec708d770758168
supermarket bangunan,Toko Bahan Bangunan,TOKO SUMBER NIAGA BANGUNAN,"Timika Jaya, Kec. Mimika Baru, Kabupaten Mimika, Papua 99971","Kec. Mimika Baru, Kabupaten Mimika",PAPUA BARAT,99971.0,Indonesia,856095797670.0,-4.569129,136.878701,https://maps.google.com/?cid=0x0:0xcd18f7af7f50af74
supermarket bangunan,Toko Bahan Bangunan,Toko Bangunan Ria-Utama,"Unnamed Road, Malaingkedi, Papua Bar. 98412, Malaingkedi, Kecamatan Sorong Manoi, Kota Sorong, Papua Bar. 98412","Malaingkedi, Papua Bar.",PAPUA BARAT,98412.0,Indonesia,82199656081.0,-0.8774608,131.2993409,https://maps.google.com/?cid=0x0:0x6fa2bf791344f50d
supermarket bangunan,Toko Bahan Bangunan,Toko Rahayu Babo,"FF52+F2R, Unnamed Road, Nusei, Babo, Kabupaten Teluk Bintuni, Papua Bar. 98363","Unnamed Road, Nusei, Babo, Kabupaten Teluk Bintuni",PAPUA BARAT,98363.0,Indonesia,85244200777.0,-2.5412733,133.45003,https://maps.google.com/?cid=0x0:0x2d6ca9cad594f391
supermarket bangunan,Toko Bahan Bangunan,Toko Karya Abadi,"WJ4X+24P, Tuasai, Distrik Bintuni, Kabupaten Teluk Bintuni, Papua Bar. 98364","Tuasai, Distrik Bintuni, Kabupaten Teluk Bintuni",PAPUA BARAT,98364.0,Indonesia,82244443838.0,-2.094909,133.6478193,https://maps.google.com/?cid=0x0:0x860a78b44fea4433
supermarket bangunan,supermarket bangunan,Papua Bar. 98353,"Kabupaten Manokwari, Papua Bar.","Kabupaten Manokwari, Papua Bar.",PAPUA BARAT,,Indonesia,,-1.2869478,134.1340439,https://maps.google.com/?cid=0x0:0x8a0ea672dc22a2db
supermarket bangunan,Toko Perlengkapan Rumah,Toko bangunan imam Maliki,"M67F+XF2, Jl. Manokwari - Bintuni, Margomulyo, Kec. Oransbari, Kab. Manokwari Selatan, Papua Bar. 98353","Jl. Manokwari - Bintuni, Margomulyo, Kec. Oransbari, Kab. Manokwari Selatan",PAPUA BARAT,98353.0,Indonesia,,-1.335116,134.2236557,https://maps.google.com/?cid=0x0:0x8146ca56ddd49935
supermarket bangunan,Toko Bahan Bangunan,ANEKA BANGUNAN,"Wosi, Kec. Manokwari Bar., Kabupaten Manokwari, Papua Bar. 98312","Kec. Manokwari Bar., Kabupaten Manokwari",PAPUA BARAT,98312.0,Indonesia,81344843001.0,-0.8631883,134.0498559,https://maps.google.com/?cid=0x0:0x3598159af16f30ea
supermarket bangunan,supermarket bangunan,Oransbari,"J7XJ+PQH, Oransbari",,PAPUA BARAT,,Indonesia,,-1.350698,134.2819979,https://maps.google.com/?cid=0x0:0xd41b2d7acaf58d5b
supermarket bangunan,Pusat Perbelanjaan,Toko Bangunan Pole Wali,"G523+VJ4, Jl. Manokwari - Bintuni, Sabri, Distrik Ransiki, Kab. Manokwari Selatan, Papua Bar. 98355","Jl. Manokwari - Bintuni, Sabri, Distrik Ransiki, Kab. Manokwari Selatan",PAPUA BARAT,98355.0,Indonesia,82199061888.0,-1.4978515,134.1540692,https://maps.google.com/?cid=0x0:0xd1498f23bc1ae81e
supermarket bangunan,Pemasok Bahan Bangunan,Depo Makmur Manokwari,"43P2+QWR, Jl. Trikora Wosi, Wosi, Kec. Manokwari Bar., Kabupaten Manokwari, Papua Bar. 98312","Jl. Trikora Wosi, Wosi, Kec. Manokwari Bar., Kabupaten Manokwari",PAPUA BARAT,98312.0,Indonesia,81248426402.0,-0.8630402,134.0521741,https://maps.google.com/?cid=0x0:0x387befda163fc63b
supermarket bangunan,Toko Bahan Bangunan,Toko Bangunan FIRMAN,"Jl. Trikora Wosi No.168, Wosi, Kec. Manokwari Bar., Kabupaten Manokwari, Papua Bar. 98312","Wosi, Kec. Manokwari Bar., Kabupaten Manokwari",PAPUA BARAT,98312.0,Indonesia,8114118555.0,-0.8672239,134.0562233,https://maps.google.com/?cid=0x0:0xad10e51218925944
supermarket bangunan,Toko Bahan Bangunan,Toko Bangunan Saudara,"Jl. Pasir, pantai, Wosi, Kec. Manokwari Bar., Kabupaten Manokwari, Papua Bar. 98312","pantai, Wosi, Kec. Manokwari Bar., Kabupaten Manokwari",PAPUA BARAT,98312.0,Indonesia,81219608601.0,-0.8691435,134.0499159,https://maps.google.com/?cid=0x0:0xd3c286debc960345
supermarket bangunan,Toko Bahan Bangunan,Toko Rumba Raya,"G524+8HJ, Sabri, Distrik Ransiki, Kabupaten Manokwari, Papua Bar. 98355","Sabri, Distrik Ransiki, Kabupaten Manokwari",PAPUA BARAT,98355.0,Indonesia,,-1.4991633,134.1563785,https://maps.google.com/?cid=0x0:0xa9c01ef767a67dcb
supermarket bangunan,Toko Bahan Bangunan,Toko Bangunan,"Jl. Trikora Taman Ria No.4, Sowi, Distrik Manokwari, Kabupaten Manokwari, Papua Bar. 98315","Sowi, Distrik Manokwari, Kabupaten Manokwari",PAPUA BARAT,98315.0,Indonesia,,-0.906996,134.035784,https://maps.google.com/?cid=0x0:0xe97020a60705142f
supermarket bangunan,Toko Bahan Bangunan,Supermarket Multi Bangunan,"Jl Baru No.98, Wai Mhorock, Abepura, Jayapura City, Papua 99225","Wai Mhorock, Abepura, Jayapura City",PAPUA BARAT,99225.0,Indonesia,967588677.0,-2.6077336,140.6742812,https://maps.google.com/?cid=0x0:0x3b19f301c68f1d6f
supermarket bangunan,Toko Perlengkapan Rumah,Toko Bangunan Chaerul Perkasa,"G47W+272, Sabri, Distrik Ransiki, Kabupaten Manokwari, Papua Bar. 98355","Sabri, Distrik Ransiki, Kabupaten Manokwari",PAPUA BARAT,98355.0,Indonesia,,-1.4874778,134.1456266,https://maps.google.com/?cid=0x0:0x5d9f770235f478e
supermarket bangunan,Toko Bahan Bangunan,Toko Central Bangunan,"42JW+2CG, Wosi, Kec. Manokwari Bar., Kabupaten Manokwari, Papua Bar. 98312","Wosi, Kec. Manokwari Bar., Kabupaten Manokwari",PAPUA BARAT,98312.0,Indonesia,,-0.8696454,134.0463667,https://maps.google.com/?cid=0x0:0x7ec708d770758168
supermarket bangunan,Toko Bahan Bangunan,PAPUA BANGUNAN,"42GX+945, Wosi, Kec. Manokwari Bar., Kabupaten Manokwari, Papua Bar. 98312","Wosi, Kec. Manokwari Bar., Kabupaten Manokwari",PAPUA BARAT,98312.0,Indonesia,82198055550.0,-0.874101,134.0478473,https://maps.google.com/?cid=0x0:0x2c3683b193d9430f
supermarket bangunan,supermarket bangunan,Ransiki,"Ransiki Kota, Distrik Ransiki, Kab. Manokwari Selatan, Papua Bar.","Kab. Manokwari Selatan, Papua Bar.",PAPUA BARAT,,Indonesia,,-1.516433,134.180298,https://maps.google.com/?cid=0x0:0xc2f9404ccd6ec72a
supermarket bangunan,Toko bahan makanan,Toko Irian,"Jl. Manokwari - Bintuni, Ransiki Kota, Distrik Ransiki, Kab. Manokwari Selatan, Papua Bar. 98355","Ransiki Kota, Distrik Ransiki, Kab. Manokwari Selatan",PAPUA BARAT,98355.0,Indonesia,,-1.5078497,134.1712887,https://maps.google.com/?cid=0x0:0xf38ba09157a6ee94
supermarket bangunan,supermarket bangunan,Toko MarveL,"F5RG+H5W, Ransiki Kota, Distrik Ransiki, Kab. Manokwari Selatan, Papua Bar. 98355","Ransiki Kota, Distrik Ransiki, Kab. Manokwari Selatan",PAPUA BARAT,98355.0,Indonesia,,-1.5085066,134.1754377,https://maps.google.com/?cid=0x0:0x8b3ea15a75eba293
supermarket bangunan,Toko Bahan Bangunan,ANEKA BANGUNAN,"Wosi, Kec. Manokwari Bar., Kabupaten Manokwari, Papua Bar. 98312","Kec. Manokwari Bar., Kabupaten Manokwari",PAPUA BARAT,98312.0,Indonesia,81344843001.0,-0.8631883,134.0498559,https://maps.google.com/?cid=0x0:0x3598159af16f30ea
supermarket bangunan,Toko Bahan Bangunan,Toko Bangunan,"Jl. Trikora Taman Ria No.4, Sowi, Distrik Manokwari, Kabupaten Manokwari, Papua Bar. 98315","Sowi, Distrik Manokwari, Kabupaten Manokwari",PAPUA BARAT,98315.0,Indonesia,,-0.906996,134.035784,https://maps.google.com/?cid=0x0:0xe97020a60705142f
supermarket bangunan,Toko Bahan Bangunan,Toko Bangunan ATIGA,"5355+F7H, Jl. Angkasa Mulyono, Amban, Kec. Manokwari Bar., Kabupaten Manokwari, Papua Bar. 98312","Jl. Angkasa Mulyono, Amban, Kec. Manokwari Bar., Kabupaten Manokwari",PAPUA BARAT,98312.0,Indonesia,,-0.8413134,134.0582405,https://maps.google.com/?cid=0x0:0x6a0ea28d5492ed54
supermarket bangunan,Toko Bahan Bangunan,Toko Bangunan,"Jl. Gn. Salju No.70, Amban, Kec. Manokwari Bar., Kabupaten Manokwari, Papua Bar. 98314","Amban, Kec. Manokwari Bar., Kabupaten Manokwari",PAPUA BARAT,98314.0,Indonesia,,-0.8378489,134.0648609,https://maps.google.com/?cid=0x0:0x39e90745f521cce
supermarket bangunan,Toko Bahan Bangunan,PAPUA BANGUNAN,"42GX+945, Wosi, Kec. Manokwari Bar., Kabupaten Manokwari, Papua Bar. 98312","Wosi, Kec. Manokwari Bar., Kabupaten Manokwari",PAPUA BARAT,98312.0,Indonesia,82198055550.0,-0.874101,134.0478473,https://maps.google.com/?cid=0x0:0x2c3683b193d9430f
supermarket bangunan,supermarket bangunan,Papua Bar. 98355,"Kab. Manokwari Selatan, Papua Bar.","Kab. Manokwari Selatan, Papua Bar.",PAPUA BARAT,,Indonesia,,-1.8268019,134.0199152,https://maps.google.com/?cid=0x0:0x3c36f74a68c69218
supermarket bangunan,Pusat Perbelanjaan,Toko Bangunan Pole Wali,"G523+VJ4, Jl. Manokwari - Bintuni, Sabri, Distrik Ransiki, Kab. Manokwari Selatan, Papua Bar. 98355","Jl. Manokwari - Bintuni, Sabri, Distrik Ransiki, Kab. Manokwari Selatan",PAPUA BARAT,98355.0,Indonesia,82199061888.0,-1.4978515,134.1540692,https://maps.google.com/?cid=0x0:0xd1498f23bc1ae81e
supermarket bangunan,Toko Bahan Bangunan,Toko Rumba Raya,"G524+8HJ, Sabri, Distrik Ransiki, Kabupaten Manokwari, Papua Bar. 98355","Sabri, Distrik Ransiki, Kabupaten Manokwari",PAPUA BARAT,98355.0,Indonesia,,-1.4991633,134.1563785,https://maps.google.com/?cid=0x0:0xa9c01ef767a67dcb
supermarket bangunan,Toko bahan makanan,Toko Irian,"Jl. Manokwari - Bintuni, Ransiki Kota, Distrik Ransiki, Kab. Manokwari Selatan, Papua Bar. 98355","Ransiki Kota, Distrik Ransiki, Kab. Manokwari Selatan",PAPUA BARAT,98355.0,Indonesia,,-1.5078497,134.1712887,https://maps.google.com/?cid=0x0:0xf38ba09157a6ee94
supermarket bangunan,Toko Perlengkapan Rumah,Toko Bangunan Chaerul Perkasa,"G47W+272, Sabri, Distrik Ransiki, Kabupaten Manokwari, Papua Bar. 98355","Sabri, Distrik Ransiki, Kabupaten Manokwari",PAPUA BARAT,98355.0,Indonesia,,-1.4874778,134.1456266,https://maps.google.com/?cid=0x0:0x5d9f770235f478e
supermarket bangunan,Toko Bahan Bangunan,Alfa Tree,"G524+2M4, Jl. Manokwari - Bintuni, Sabri, Distrik Ransiki, Kab. Manokwari Selatan, Papua Bar. 98355","Jl. Manokwari - Bintuni, Sabri, Distrik Ransiki, Kab. Manokwari Selatan",PAPUA BARAT,98355.0,Indonesia,,-1.4999985,134.1567128,https://maps.google.com/?cid=0x0:0xbcdca504294bf3fd
supermarket bangunan,Toko,Cahaya sabri,"F5X4+VXM, Jln mkw , Bintuni waspiri, Sabri mansel, Sabri, Distrik Ransiki, Kab. Manokwari Selatan, Papua Bar. 98355","Jln mkw , Bintuni waspiri, Sabri mansel, Sabri, Distrik Ransiki, Kab. Manokwari Selatan",PAPUA BARAT,98355.0,Indonesia,82198117979.0,-1.5002988,134.1574359,https://maps.google.com/?cid=0x0:0xcbeb89abc0a2f440
supermarket bangunan,Kios,ALYA JAYA ABADI,"Jalan Henka Dusun Tsunami I, Desa Jl. Abreso, Distrik Ransiki, Papua Bar. 98355","Desa Jl. Abreso, Distrik Ransiki",PAPUA BARAT,98355.0,Indonesia,81234777846.0,-1.5099887,134.2031959,https://maps.google.com/?cid=0x0:0x88993672f1bce372
supermarket bangunan,Toko Bahan Bangunan,Supermarket Multi Bangunan,"Jl Baru No.98, Wai Mhorock, Abepura, Jayapura City, Papua 99225","Wai Mhorock, Abepura, Jayapura City",PAPUA BARAT,99225.0,Indonesia,967588677.0,-2.6077336,140.6742812,https://maps.google.com/?cid=0x0:0x3b19f301c68f1d6f
supermarket bangunan,Toko Bahan Bangunan,Ida Farida,"G47W+272, Sabri, Distrik Ransiki, Kab. Manokwari Selatan, Papua Bar. 98355","Sabri, Distrik Ransiki, Kab. Manokwari Selatan",PAPUA BARAT,98355.0,Indonesia,,-1.4874785,134.1456254,https://maps.google.com/?cid=0x0:0x95c3e377a1e4d692
supermarket bangunan,Pemasok Bahan Bangunan,Toko bangunan Sumber Makmur,"32CM+75G, Jl. Manokwari - Maruni, Anday, Distrik Manokwari, Kabupaten Manokwari, Papua Bar. 98315","Jl. Manokwari - Maruni, Anday, Distrik Manokwari, Kabupaten Manokwari",PAPUA BARAT,98315.0,Indonesia,8114846060.0,-0.9293075,134.0329487,https://maps.google.com/?cid=0x0:0xa0a85c7270dde255
supermarket bangunan,Toko Bahan Bangunan,Toko Bangunan ATIGA,"5355+F7H, Jl. Angkasa Mulyono, Amban, Kec. Manokwari Bar., Kabupaten Manokwari, Papua Bar. 98312","Jl. Angkasa Mulyono, Amban, Kec. Manokwari Bar., Kabupaten Manokwari",PAPUA BARAT,98312.0,Indonesia,,-0.8413134,134.0582405,https://maps.google.com/?cid=0x0:0x6a0ea28d5492ed54
supermarket bangunan,Toko Bahan Bangunan,ANEKA BANGUNAN,"Wosi, Kec. Manokwari Bar., Kabupaten Manokwari, Papua Bar. 98312","Kec. Manokwari Bar., Kabupaten Manokwari",PAPUA BARAT,98312.0,Indonesia,81344843001.0,-0.8631883,134.0498559,https://maps.google.com/?cid=0x0:0x3598159af16f30ea
supermarket bangunan,Pemasok Bahan Bangunan,Depo Makmur Manokwari,"43P2+QWR, Jl. Trikora Wosi, Wosi, Kec. Manokwari Bar., Kabupaten Manokwari, Papua Bar. 98312","Jl. Trikora Wosi, Wosi, Kec. Manokwari Bar., Kabupaten Manokwari",PAPUA BARAT,98312.0,Indonesia,81248426402.0,-0.8630402,134.0521741,https://maps.google.com/?cid=0x0:0x387befda163fc63b
