Category,Real Category,Business Name,Address,City,State,Postal Code,Country,Phone,Email,Website,Latitude,Longitude,Map Link,Details Link
toko bangunan,toko bangunan,Banggae,"Kec. Banggae, Kabupaten Majene, Sulawesi Barat","Kabupaten Majene, Sulawesi Barat",SULAWESI BARAT,,Indonesia,,,,-3.5282697,118.9674195,https://maps.google.com/?cid=0x0:0xff8e6fe09c57690d,
toko bangunan,Toko Bahan Bangunan,Toko Indo Bangunan,"JL A Jl. Syukur Rahim No.20-22, Banggae, Kec. Banggae, Kabupaten Majene, Sulawesi Barat","Kabupaten Majene, Sulawesi Barat",SULAWESI BARAT,,Indonesia,42221321.0,,,-3.544385,118.9661537,https://maps.google.com/?cid=0x0:0x79968e5059e72082,
toko bangunan,Toko,Toko Fajar Bangunan Majene,"pakkola, Jl. Mayjen Azis Bustam, Banggae, Kec. Banggae, Kabupaten Majene, Sulawesi Barat 91412","Jl. Mayjen Azis Bustam, Banggae, Kec. Banggae, Kabupaten Majene",SULAWESI BARAT,91412.0,Indonesia,81355566646.0,,,-3.5372746,118.9682725,https://maps.google.com/?cid=0x0:0xcfb27e4cdc8945d6,
toko bangunan,Toko Bahan Bangunan,METRO,"Jl. Jend. Sudirman No.8, Labuang, Kec. Banggae Tim., Kabupaten Majene, Sulawesi Barat 91412","Labuang, Kec. Banggae Tim., Kabupaten Majene",SULAWESI BARAT,91412.0,Indonesia,42222047.0,,,-3.543368,118.9692323,https://maps.google.com/?cid=0x0:0x3a8d6b891e342471,
toko bangunan,Toko Bahan Bangunan,TOKO VICTORIA,"FX48+PVM, Jl. Poros Majene - Mamuju, Banggae, Kec. Banggae, Kabupaten Majene, Sulawesi Barat 91412","Jl. Poros Majene - Mamuju, Banggae, Kec. Banggae, Kabupaten Majene",SULAWESI BARAT,91412.0,Indonesia,81373974815.0,,,-3.5431565,118.9671759,https://maps.google.com/?cid=0x0:0xfc6e507a4a5e130b,
toko bangunan,toko bangunan,Toko pelita harmonis,"FX6C+7CF, Jl. Wolter Monginsidi, Labuang, Kec. Banggae Tim., Kabupaten Majene, Sulawesi Barat 91412","Jl. Wolter Monginsidi, Labuang, Kec. Banggae Tim., Kabupaten Majene",SULAWESI BARAT,91412.0,Indonesia,85200000091.0,,,-3.539303,118.9710798,https://maps.google.com/?cid=0x0:0x9f654b494d37ad78,
toko bangunan,Toko Bahan Bangunan,Sinar Baja,"Jl. Kanjuha No.3, Banggae, Kec. Banggae, Kabupaten Majene, Sulawesi Barat 91412","Banggae, Kec. Banggae, Kabupaten Majene",SULAWESI BARAT,91412.0,Indonesia,85290296222.0,,,-3.5377319,118.9684607,https://maps.google.com/?cid=0x0:0xf6220e0a36705530,
toko bangunan,Toko Bahan Bangunan,Toko Sumber Fajar,"Jl. Mayjen Azis Bustam No.55, Banggae, Kec. Banggae, Kabupaten Majene, Sulawesi Barat 91412","Banggae, Kec. Banggae, Kabupaten Majene",SULAWESI BARAT,91412.0,Indonesia,89518730016.0,,,-3.5392871,118.9681226,https://maps.google.com/?cid=0x0:0xe80859c2df93c601,
toko bangunan,Toko Bahan Bangunan,Fajar Mas Toko,"Jl. Lanto Dg. Pasewang No.2, Labuang, Kec. Banggae Tim., Kabupaten Majene, Sulawesi Barat 91412","Labuang, Kec. Banggae Tim., Kabupaten Majene",SULAWESI BARAT,91412.0,Indonesia,81241509242.0,,,-3.5389993,118.9695441,https://maps.google.com/?cid=0x0:0x77644e45e24c0e13,
toko bangunan,Toko Bahan Bangunan,Toko Pelita,"Jl. Lanto Dg. Pasewang No.2, Labuang, Kec. Banggae Tim., Kabupaten Majene, Sulawesi Barat 91412","Labuang, Kec. Banggae Tim., Kabupaten Majene",SULAWESI BARAT,91412.0,Indonesia,,,,-3.5390985,118.9696345,https://maps.google.com/?cid=0x0:0x96e400127005d839,
toko bangunan,Toko Bahan Bangunan,TOKO HENDY HERMAN,"FX79+3PP, Banggae, Kec. Banggae, Kabupaten Majene, Sulawesi Barat 91412","Banggae, Kec. Banggae, Kabupaten Majene",SULAWESI BARAT,91412.0,Indonesia,81242822254.0,,,-3.5372816,118.9693197,https://maps.google.com/?cid=0x0:0x4c79b7975f57ff0a,
toko bangunan,Toko Bahan Bangunan,Ud Karya Pembangunan,"FX69+593, Jl. Aco Benya, Banggae, Kec. Banggae, Kabupaten Majene, Sulawesi Barat 91412","Jl. Aco Benya, Banggae, Kec. Banggae, Kabupaten Majene",SULAWESI BARAT,91412.0,Indonesia,,,,-3.5396215,118.9684116,https://maps.google.com/?cid=0x0:0xd7136d0901734b82,
toko bangunan,Toko Bahan Bangunan,TB. In-Dini Warna,"FX49+H83, Jl. Muh. Yusuf Pusat Pertokoan, Banggae, Majene Regency, West Sulawesi 91412","Jl. Muh. Yusuf Pusat Pertokoan, Banggae, Majene Regency",SULAWESI BARAT,91412.0,Indonesia,85255272937.0,,,-3.5436182,118.9683021,https://maps.google.com/?cid=0x0:0xdcbde59548fd4980,
toko bangunan,Toko Bahan Bangunan,Toko Bangunan Berlian,"CWRV+QM2, Jl. Jend. Ahmad Yani, Totoli, Passarang, Kabupaten Majene, Sulawesi Barat","Kabupaten Majene, Sulawesi Barat",SULAWESI BARAT,,Indonesia,81373974815.0,,,-3.5581236,118.9441384,https://maps.google.com/?cid=0x0:0xe1a76e4c584d6953,
toko bangunan,Toko Bahan Bangunan,Toko Fajar,"Jl. K.H. Muh. Saleh No.49, Labuang, Kec. Banggae Tim., Kabupaten Majene, Sulawesi Barat 91412","Labuang, Kec. Banggae Tim., Kabupaten Majene",SULAWESI BARAT,91412.0,Indonesia,,,,-3.5416368,118.9730687,https://maps.google.com/?cid=0x0:0x4ebb29b503978d8,
toko bangunan,Toko Alat Listrik,Toko Karya Bersama,"FX59+3GR, Labuang, Kec. Banggae Tim., Kabupaten Majene, Sulawesi Barat 91412","Labuang, Kec. Banggae Tim., Kabupaten Majene",SULAWESI BARAT,91412.0,Indonesia,,,,-3.5422674,118.9687737,https://maps.google.com/?cid=0x0:0x707ee8b2bff868e,
toko bangunan,toko bangunan,Kama Kasmia Family,"Lembang Jl. AMD No.2, Lembang Jl. AMD No.2, Baurung, Kec. Banggae Tim., Kabupaten Majene, Sulawesi Barat 91412","Lembang Jl. AMD No.2, Baurung, Kec. Banggae Tim., Kabupaten Majene",SULAWESI BARAT,91412.0,Indonesia,82313525999.0,,,-3.5452975,118.9834896,https://maps.google.com/?cid=0x0:0x1e6a7b02c07937ec,
toko bangunan,Toko Bahan Bangunan,Toko Aneka Setia,"FX9X+RHM, Tande, Kec. Banggae Tim., Kabupaten Majene, Sulawesi Barat 91412","Tande, Kec. Banggae Tim., Kabupaten Majene",SULAWESI BARAT,91412.0,Indonesia,,,,-3.5304128,118.998936,https://maps.google.com/?cid=0x0:0x3d901f2f1362873b,
toko bangunan,Toko Bahan Bangunan,Toko bangunan sumber bahagia,"FWC6+H9C, Jl. Poros Majene - Mamuju, Bonde, Kec. Pamboang, Kabupaten Majene, Sulawesi Barat 91451","Jl. Poros Majene - Mamuju, Bonde, Kec. Pamboang, Kabupaten Majene",SULAWESI BARAT,91451.0,Indonesia,,,,-3.5287166,118.910906,https://maps.google.com/?cid=0x0:0x618cba9cfd6a2eb4,
toko bangunan,Toko Bahan Bangunan,TK. UD. PERKASA,"Jl. Jend. Ahmad Yani No.5, Totoli, Kec. Banggae, Kabupaten Majene, Sulawesi Barat","Kabupaten Majene, Sulawesi Barat",SULAWESI BARAT,,Indonesia,81350502812.0,,,-3.5487437,118.9490861,https://maps.google.com/?cid=0x0:0x5122467370781fb,
toko bangunan,toko bangunan,Sulawesi Barat 91411,"Kabupaten Majene, Sulawesi Barat","Kabupaten Majene, Sulawesi Barat",SULAWESI BARAT,,Indonesia,,,,-3.477543,118.9470422,https://maps.google.com/?cid=0x0:0x1c73f38c478ef4ab,
toko bangunan,Grosir,Semangat Baru,"CWRV+6J4, Jl. Jend. Ahmad Yani, Lingkungan Passarang, Totoli, Kec. Banggae, Kabupaten Majene, Sulawesi Barat 91415","Jl. Jend. Ahmad Yani, Lingkungan Passarang, Totoli, Kec. Banggae, Kabupaten Majene",SULAWESI BARAT,91415.0,Indonesia,85330816532.0,,,-3.5594844,118.9440866,https://maps.google.com/?cid=0x0:0xbec6d1145a05d5a5,
toko bangunan,toko bangunan,Sulawesi Barat 91415,"Kec. Banggae, Kabupaten Majene, Sulawesi Barat","Kabupaten Majene, Sulawesi Barat",SULAWESI BARAT,,Indonesia,,,,-3.5405453,118.9353968,https://maps.google.com/?cid=0x0:0x79fb9d43a72e97bf,
toko bangunan,Toko Bahan Bangunan,Toko Indo Bangunan,"JL A Jl. Syukur Rahim No.20-22, Banggae, Kec. Banggae, Kabupaten Majene, Sulawesi Barat","Kabupaten Majene, Sulawesi Barat",SULAWESI BARAT,,Indonesia,42221321.0,,,-3.544385,118.9661537,https://maps.google.com/?cid=0x0:0x79968e5059e72082,
toko bangunan,Grosir,Semangat Baru,"CWRV+6J4, Jl. Jend. Ahmad Yani, Lingkungan Passarang, Totoli, Kec. Banggae, Kabupaten Majene, Sulawesi Barat 91415","Jl. Jend. Ahmad Yani, Lingkungan Passarang, Totoli, Kec. Banggae, Kabupaten Majene",SULAWESI BARAT,91415.0,Indonesia,85330816532.0,,,-3.5594844,118.9440866,https://maps.google.com/?cid=0x0:0xbec6d1145a05d5a5,
toko bangunan,Toko Bahan Bangunan,Toko Bangunan Berlian,"CWRV+QM2, Jl. Jend. Ahmad Yani, Totoli, Passarang, Kabupaten Majene, Sulawesi Barat","Kabupaten Majene, Sulawesi Barat",SULAWESI BARAT,,Indonesia,81373974815.0,,,-3.5581236,118.9441384,https://maps.google.com/?cid=0x0:0xe1a76e4c584d6953,
toko bangunan,Toko Bahan Bangunan,Toko bangunan sumber bahagia,"FWC6+H9C, Jl. Poros Majene - Mamuju, Bonde, Kec. Pamboang, Kabupaten Majene, Sulawesi Barat 91451","Jl. Poros Majene - Mamuju, Bonde, Kec. Pamboang, Kabupaten Majene",SULAWESI BARAT,91451.0,Indonesia,,,,-3.5287166,118.910906,https://maps.google.com/?cid=0x0:0x618cba9cfd6a2eb4,
toko bangunan,Pemasok Bahan Bangunan,TOKO ASIA TIMUR (BAHAN BANGUNAN),"FX69+XQP, Jl. Lanto Dg. Pasewang, Banggae, Kec. Banggae, Kabupaten Majene, Sulawesi Barat 91412","Jl. Lanto Dg. Pasewang, Banggae, Kec. Banggae, Kabupaten Majene",SULAWESI BARAT,91412.0,Indonesia,4222420265.0,,,-3.5375355,118.9694601,https://maps.google.com/?cid=0x0:0xa219d91ef34acc13,
toko bangunan,Perusahaan Konstruksi,Toko bahan bangunan,"FW96+QPH, Bonde, Kec. Pamboang, Kabupaten Majene, Sulawesi Barat 91451","Bonde, Kec. Pamboang, Kabupaten Majene",SULAWESI BARAT,91451.0,Indonesia,,,,-3.5307301,118.9119833,https://maps.google.com/?cid=0x0:0xdd412366a0600f59,
toko bangunan,Toko Bahan Bangunan,TOKO VICTORIA,"FX48+PVM, Jl. Poros Majene - Mamuju, Banggae, Kec. Banggae, Kabupaten Majene, Sulawesi Barat 91412","Jl. Poros Majene - Mamuju, Banggae, Kec. Banggae, Kabupaten Majene",SULAWESI BARAT,91412.0,Indonesia,81373974815.0,,,-3.5431565,118.9671759,https://maps.google.com/?cid=0x0:0xfc6e507a4a5e130b,
toko bangunan,Toko Bahan Bangunan,TK. UD. PERKASA,"Jl. Jend. Ahmad Yani No.5, Totoli, Kec. Banggae, Kabupaten Majene, Sulawesi Barat","Kabupaten Majene, Sulawesi Barat",SULAWESI BARAT,,Indonesia,81350502812.0,,,-3.5487437,118.9490861,https://maps.google.com/?cid=0x0:0x5122467370781fb,
toko bangunan,Toko Bahan Bangunan,Toko Sumber Fajar,"Jl. Mayjen Azis Bustam No.55, Banggae, Kec. Banggae, Kabupaten Majene, Sulawesi Barat 91412","Banggae, Kec. Banggae, Kabupaten Majene",SULAWESI BARAT,91412.0,Indonesia,89518730016.0,,,-3.5392871,118.9681226,https://maps.google.com/?cid=0x0:0xe80859c2df93c601,
toko bangunan,Toko Bahan Bangunan,Sinar Baja,"Jl. Kanjuha No.3, Banggae, Kec. Banggae, Kabupaten Majene, Sulawesi Barat 91412","Banggae, Kec. Banggae, Kabupaten Majene",SULAWESI BARAT,91412.0,Indonesia,85290296222.0,,,-3.5377319,118.9684607,https://maps.google.com/?cid=0x0:0xf6220e0a36705530,
toko bangunan,Toko Bahan Bangunan,Toko Pelita,"Jl. Lanto Dg. Pasewang No.2, Labuang, Kec. Banggae Tim., Kabupaten Majene, Sulawesi Barat 91412","Labuang, Kec. Banggae Tim., Kabupaten Majene",SULAWESI BARAT,91412.0,Indonesia,,,,-3.5390985,118.9696345,https://maps.google.com/?cid=0x0:0x96e400127005d839,
toko bangunan,Toko Bahan Bangunan,TOKO HENDY HERMAN,"FX79+3PP, Banggae, Kec. Banggae, Kabupaten Majene, Sulawesi Barat 91412","Banggae, Kec. Banggae, Kabupaten Majene",SULAWESI BARAT,91412.0,Indonesia,81242822254.0,,,-3.5372816,118.9693197,https://maps.google.com/?cid=0x0:0x4c79b7975f57ff0a,
toko bangunan,Toko Bahan Bangunan,METRO,"Jl. Jend. Sudirman No.8, Labuang, Kec. Banggae Tim., Kabupaten Majene, Sulawesi Barat 91412","Labuang, Kec. Banggae Tim., Kabupaten Majene",SULAWESI BARAT,91412.0,Indonesia,42222047.0,,,-3.543368,118.9692323,https://maps.google.com/?cid=0x0:0x3a8d6b891e342471,
toko bangunan,Toko Bahan Bangunan,Fajar Mas Toko,"Jl. Lanto Dg. Pasewang No.2, Labuang, Kec. Banggae Tim., Kabupaten Majene, Sulawesi Barat 91412","Labuang, Kec. Banggae Tim., Kabupaten Majene",SULAWESI BARAT,91412.0,Indonesia,81241509242.0,,,-3.5389993,118.9695441,https://maps.google.com/?cid=0x0:0x77644e45e24c0e13,
toko bangunan,Toko Bahan Bangunan,Ud Karya Pembangunan,"FX69+593, Jl. Aco Benya, Banggae, Kec. Banggae, Kabupaten Majene, Sulawesi Barat 91412","Jl. Aco Benya, Banggae, Kec. Banggae, Kabupaten Majene",SULAWESI BARAT,91412.0,Indonesia,,,,-3.5396215,118.9684116,https://maps.google.com/?cid=0x0:0xd7136d0901734b82,
toko bangunan,Toko Bahan Bangunan,Toko bangunan Tande cemerlang,"FWQ2+RQX, Bababulo, Kec. Pamboang, Kabupaten Majene, Sulawesi Barat 91451","Bababulo, Kec. Pamboang, Kabupaten Majene",SULAWESI BARAT,91451.0,Indonesia,82191313585.0,,,-3.5103861,118.9019823,https://maps.google.com/?cid=0x0:0xc7d815cdd7c517de,
toko bangunan,toko bangunan,Sulawesi Barat 91411,"Kabupaten Majene, Sulawesi Barat","Kabupaten Majene, Sulawesi Barat",SULAWESI BARAT,,Indonesia,,,,-3.477543,118.9470422,https://maps.google.com/?cid=0x0:0x1c73f38c478ef4ab,
toko bangunan,Toko Bahan Bangunan,Toko Indo Bangunan,"JL A Jl. Syukur Rahim No.20-22, Banggae, Kec. Banggae, Kabupaten Majene, Sulawesi Barat","Kabupaten Majene, Sulawesi Barat",SULAWESI BARAT,,Indonesia,42221321.0,,,-3.544385,118.9661537,https://maps.google.com/?cid=0x0:0x79968e5059e72082,
toko bangunan,Toko,Toko Fajar Bangunan Majene,"pakkola, Jl. Mayjen Azis Bustam, Banggae, Kec. Banggae, Kabupaten Majene, Sulawesi Barat 91412","Jl. Mayjen Azis Bustam, Banggae, Kec. Banggae, Kabupaten Majene",SULAWESI BARAT,91412.0,Indonesia,81355566646.0,,,-3.5372746,118.9682725,https://maps.google.com/?cid=0x0:0xcfb27e4cdc8945d6,
toko bangunan,Toko Bahan Bangunan,METRO,"Jl. Jend. Sudirman No.8, Labuang, Kec. Banggae Tim., Kabupaten Majene, Sulawesi Barat 91412","Labuang, Kec. Banggae Tim., Kabupaten Majene",SULAWESI BARAT,91412.0,Indonesia,42222047.0,,,-3.543368,118.9692323,https://maps.google.com/?cid=0x0:0x3a8d6b891e342471,
toko bangunan,Toko Bahan Bangunan,TOKO VICTORIA,"FX48+PVM, Jl. Poros Majene - Mamuju, Banggae, Kec. Banggae, Kabupaten Majene, Sulawesi Barat 91412","Jl. Poros Majene - Mamuju, Banggae, Kec. Banggae, Kabupaten Majene",SULAWESI BARAT,91412.0,Indonesia,81373974815.0,,,-3.5431565,118.9671759,https://maps.google.com/?cid=0x0:0xfc6e507a4a5e130b,
toko bangunan,Toko Bahan Bangunan,Sinar Baja,"Jl. Kanjuha No.3, Banggae, Kec. Banggae, Kabupaten Majene, Sulawesi Barat 91412","Banggae, Kec. Banggae, Kabupaten Majene",SULAWESI BARAT,91412.0,Indonesia,85290296222.0,,,-3.5377319,118.9684607,https://maps.google.com/?cid=0x0:0xf6220e0a36705530,
toko bangunan,Toko Bahan Bangunan,Toko Sumber Fajar,"Jl. Mayjen Azis Bustam No.55, Banggae, Kec. Banggae, Kabupaten Majene, Sulawesi Barat 91412","Banggae, Kec. Banggae, Kabupaten Majene",SULAWESI BARAT,91412.0,Indonesia,89518730016.0,,,-3.5392871,118.9681226,https://maps.google.com/?cid=0x0:0xe80859c2df93c601,
toko bangunan,Toko Bahan Bangunan,Fajar Mas Toko,"Jl. Lanto Dg. Pasewang No.2, Labuang, Kec. Banggae Tim., Kabupaten Majene, Sulawesi Barat 91412","Labuang, Kec. Banggae Tim., Kabupaten Majene",SULAWESI BARAT,91412.0,Indonesia,81241509242.0,,,-3.5389993,118.9695441,https://maps.google.com/?cid=0x0:0x77644e45e24c0e13,
toko bangunan,Toko Bahan Bangunan,Toko Bangunan Berlian,"CWRV+QM2, Jl. Jend. Ahmad Yani, Totoli, Passarang, Kabupaten Majene, Sulawesi Barat","Kabupaten Majene, Sulawesi Barat",SULAWESI BARAT,,Indonesia,81373974815.0,,,-3.5581236,118.9441384,https://maps.google.com/?cid=0x0:0xe1a76e4c584d6953,
toko bangunan,Toko Bahan Bangunan,Toko Pelita,"Jl. Lanto Dg. Pasewang No.2, Labuang, Kec. Banggae Tim., Kabupaten Majene, Sulawesi Barat 91412","Labuang, Kec. Banggae Tim., Kabupaten Majene",SULAWESI BARAT,91412.0,Indonesia,,,,-3.5390985,118.9696345,https://maps.google.com/?cid=0x0:0x96e400127005d839,
toko bangunan,toko bangunan,Toko pelita harmonis,"FX6C+7CF, Jl. Wolter Monginsidi, Labuang, Kec. Banggae Tim., Kabupaten Majene, Sulawesi Barat 91412","Jl. Wolter Monginsidi, Labuang, Kec. Banggae Tim., Kabupaten Majene",SULAWESI BARAT,91412.0,Indonesia,85200000091.0,,,-3.539303,118.9710798,https://maps.google.com/?cid=0x0:0x9f654b494d37ad78,
toko bangunan,Toko Bahan Bangunan,Ud Karya Pembangunan,"FX69+593, Jl. Aco Benya, Banggae, Kec. Banggae, Kabupaten Majene, Sulawesi Barat 91412","Jl. Aco Benya, Banggae, Kec. Banggae, Kabupaten Majene",SULAWESI BARAT,91412.0,Indonesia,,,,-3.5396215,118.9684116,https://maps.google.com/?cid=0x0:0xd7136d0901734b82,
toko bangunan,Toko Bahan Bangunan,TOKO HENDY HERMAN,"FX79+3PP, Banggae, Kec. Banggae, Kabupaten Majene, Sulawesi Barat 91412","Banggae, Kec. Banggae, Kabupaten Majene",SULAWESI BARAT,91412.0,Indonesia,81242822254.0,,,-3.5372816,118.9693197,https://maps.google.com/?cid=0x0:0x4c79b7975f57ff0a,
toko bangunan,Toko Alat Listrik,Toko Karya Bersama,"FX59+3GR, Labuang, Kec. Banggae Tim., Kabupaten Majene, Sulawesi Barat 91412","Labuang, Kec. Banggae Tim., Kabupaten Majene",SULAWESI BARAT,91412.0,Indonesia,,,,-3.5422674,118.9687737,https://maps.google.com/?cid=0x0:0x707ee8b2bff868e,
toko bangunan,Toko Bahan Bangunan,Toko bangunan sumber bahagia,"FWC6+H9C, Jl. Poros Majene - Mamuju, Bonde, Kec. Pamboang, Kabupaten Majene, Sulawesi Barat 91451","Jl. Poros Majene - Mamuju, Bonde, Kec. Pamboang, Kabupaten Majene",SULAWESI BARAT,91451.0,Indonesia,,,,-3.5287166,118.910906,https://maps.google.com/?cid=0x0:0x618cba9cfd6a2eb4,
toko bangunan,Toko Bahan Bangunan,TB. In-Dini Warna,"FX49+H83, Jl. Muh. Yusuf Pusat Pertokoan, Banggae, Majene Regency, West Sulawesi 91412","Jl. Muh. Yusuf Pusat Pertokoan, Banggae, Majene Regency",SULAWESI BARAT,91412.0,Indonesia,85255272937.0,,,-3.5436182,118.9683021,https://maps.google.com/?cid=0x0:0xdcbde59548fd4980,
toko bangunan,toko bangunan,Kama Kasmia Family,"Lembang Jl. AMD No.2, Lembang Jl. AMD No.2, Baurung, Kec. Banggae Tim., Kabupaten Majene, Sulawesi Barat 91412","Lembang Jl. AMD No.2, Baurung, Kec. Banggae Tim., Kabupaten Majene",SULAWESI BARAT,91412.0,Indonesia,82313525999.0,,,-3.5452975,118.9834896,https://maps.google.com/?cid=0x0:0x1e6a7b02c07937ec,
toko bangunan,Toko Bahan Bangunan,Toko Aneka Setia,"FX9X+RHM, Tande, Kec. Banggae Tim., Kabupaten Majene, Sulawesi Barat 91412","Tande, Kec. Banggae Tim., Kabupaten Majene",SULAWESI BARAT,91412.0,Indonesia,,,,-3.5304128,118.998936,https://maps.google.com/?cid=0x0:0x3d901f2f1362873b,
toko bangunan,Grosir,Semangat Baru,"CWRV+6J4, Jl. Jend. Ahmad Yani, Lingkungan Passarang, Totoli, Kec. Banggae, Kabupaten Majene, Sulawesi Barat 91415","Jl. Jend. Ahmad Yani, Lingkungan Passarang, Totoli, Kec. Banggae, Kabupaten Majene",SULAWESI BARAT,91415.0,Indonesia,85330816532.0,,,-3.5594844,118.9440866,https://maps.google.com/?cid=0x0:0xbec6d1145a05d5a5,
toko bangunan,Toko Bahan Bangunan,TK. UD. PERKASA,"Jl. Jend. Ahmad Yani No.5, Totoli, Kec. Banggae, Kabupaten Majene, Sulawesi Barat","Kabupaten Majene, Sulawesi Barat",SULAWESI BARAT,,Indonesia,81350502812.0,,,-3.5487437,118.9490861,https://maps.google.com/?cid=0x0:0x5122467370781fb,
toko bangunan,toko bangunan,Kec. Banggae Tim.,"Kabupaten Majene, Sulawesi Barat","Kabupaten Majene, Sulawesi Barat",SULAWESI BARAT,,Indonesia,,,,-3.5443284,118.9724991,https://maps.google.com/?cid=0x0:0x8a3d219855bd6a6e,
toko bangunan,Toko Bahan Bangunan,Toko Rezeki Fajar,"Jl. Sultan hasanuddin, Tande, lutang, Kabupaten Majene, Sulawesi Barat 91412","Tande, lutang, Kabupaten Majene",SULAWESI BARAT,91412.0,Indonesia,,,,-3.532758,118.9975397,https://maps.google.com/?cid=0x0:0x37bd7d2dadf86d2c,
toko bangunan,Perusahaan Konstruksi,Toko bahan bangunan,"FW96+QPH, Bonde, Kec. Pamboang, Kabupaten Majene, Sulawesi Barat 91451","Bonde, Kec. Pamboang, Kabupaten Majene",SULAWESI BARAT,91451.0,Indonesia,,,,-3.5307301,118.9119833,https://maps.google.com/?cid=0x0:0xdd412366a0600f59,
toko bangunan,toko bangunan,Toko bahan bangunan,"FX8X+W24, Tande, Kec. Banggae Tim., Kabupaten Majene, Sulawesi Barat 91412","Tande, Kec. Banggae Tim., Kabupaten Majene",SULAWESI BARAT,91412.0,Indonesia,,,,-3.532732,118.9975865,https://maps.google.com/?cid=0x0:0xc6da5788269e53d4,
toko bangunan,toko bangunan,Sulawesi Barat 91412,"Kabupaten Majene, Sulawesi Barat","Kabupaten Majene, Sulawesi Barat",SULAWESI BARAT,,Indonesia,,,,-3.5389571,118.9819731,https://maps.google.com/?cid=0x0:0x5b7ee02006e2dbbd,
toko bangunan,Toko Bahan Bangunan,Toko Indo Bangunan,"JL A Jl. Syukur Rahim No.20-22, Banggae, Kec. Banggae, Kabupaten Majene, Sulawesi Barat","Kabupaten Majene, Sulawesi Barat",SULAWESI BARAT,,Indonesia,42221321.0,,,-3.544385,118.9661537,https://maps.google.com/?cid=0x0:0x79968e5059e72082,
toko bangunan,Pemasok Bahan Bangunan,TOKO ASIA TIMUR (BAHAN BANGUNAN),"FX69+XQP, Jl. Lanto Dg. Pasewang, Banggae, Kec. Banggae, Kabupaten Majene, Sulawesi Barat 91412","Jl. Lanto Dg. Pasewang, Banggae, Kec. Banggae, Kabupaten Majene",SULAWESI BARAT,91412.0,Indonesia,4222420265.0,,,-3.5375355,118.9694601,https://maps.google.com/?cid=0x0:0xa219d91ef34acc13,
toko bangunan,Toko Bahan Bangunan,METRO,"Jl. Jend. Sudirman No.8, Labuang, Kec. Banggae Tim., Kabupaten Majene, Sulawesi Barat 91412","Labuang, Kec. Banggae Tim., Kabupaten Majene",SULAWESI BARAT,91412.0,Indonesia,42222047.0,,,-3.543368,118.9692323,https://maps.google.com/?cid=0x0:0x3a8d6b891e342471,
toko bangunan,toko bangunan,Toko pelita harmonis,"FX6C+7CF, Jl. Wolter Monginsidi, Labuang, Kec. Banggae Tim., Kabupaten Majene, Sulawesi Barat 91412","Jl. Wolter Monginsidi, Labuang, Kec. Banggae Tim., Kabupaten Majene",SULAWESI BARAT,91412.0,Indonesia,85200000091.0,,,-3.539303,118.9710798,https://maps.google.com/?cid=0x0:0x9f654b494d37ad78,
toko bangunan,Toko Bahan Bangunan,Toko Pelita,"Jl. Lanto Dg. Pasewang No.2, Labuang, Kec. Banggae Tim., Kabupaten Majene, Sulawesi Barat 91412","Labuang, Kec. Banggae Tim., Kabupaten Majene",SULAWESI BARAT,91412.0,Indonesia,,,,-3.5390985,118.9696345,https://maps.google.com/?cid=0x0:0x96e400127005d839,
toko bangunan,Toko Bahan Bangunan,Sinar Baja,"Jl. Kanjuha No.3, Banggae, Kec. Banggae, Kabupaten Majene, Sulawesi Barat 91412","Banggae, Kec. Banggae, Kabupaten Majene",SULAWESI BARAT,91412.0,Indonesia,85290296222.0,,,-3.5377319,118.9684607,https://maps.google.com/?cid=0x0:0xf6220e0a36705530,
toko bangunan,Toko Bahan Bangunan,TOKO VICTORIA,"FX48+PVM, Jl. Poros Majene - Mamuju, Banggae, Kec. Banggae, Kabupaten Majene, Sulawesi Barat 91412","Jl. Poros Majene - Mamuju, Banggae, Kec. Banggae, Kabupaten Majene",SULAWESI BARAT,91412.0,Indonesia,81373974815.0,,,-3.5431565,118.9671759,https://maps.google.com/?cid=0x0:0xfc6e507a4a5e130b,
toko bangunan,Toko Bahan Bangunan,Toko Aneka Setia,"FX9X+RHM, Tande, Kec. Banggae Tim., Kabupaten Majene, Sulawesi Barat 91412","Tande, Kec. Banggae Tim., Kabupaten Majene",SULAWESI BARAT,91412.0,Indonesia,,,,-3.5304128,118.998936,https://maps.google.com/?cid=0x0:0x3d901f2f1362873b,
toko bangunan,Toko Bahan Bangunan,Fajar Mas Toko,"Jl. Lanto Dg. Pasewang No.2, Labuang, Kec. Banggae Tim., Kabupaten Majene, Sulawesi Barat 91412","Labuang, Kec. Banggae Tim., Kabupaten Majene",SULAWESI BARAT,91412.0,Indonesia,81241509242.0,,,-3.5389993,118.9695441,https://maps.google.com/?cid=0x0:0x77644e45e24c0e13,
toko bangunan,Toko Bahan Bangunan,Toko Sumber Fajar,"Jl. Mayjen Azis Bustam No.55, Banggae, Kec. Banggae, Kabupaten Majene, Sulawesi Barat 91412","Banggae, Kec. Banggae, Kabupaten Majene",SULAWESI BARAT,91412.0,Indonesia,89518730016.0,,,-3.5392871,118.9681226,https://maps.google.com/?cid=0x0:0xe80859c2df93c601,
toko bangunan,Toko Bahan Bangunan,TOKO HENDY HERMAN,"FX79+3PP, Banggae, Kec. Banggae, Kabupaten Majene, Sulawesi Barat 91412","Banggae, Kec. Banggae, Kabupaten Majene",SULAWESI BARAT,91412.0,Indonesia,81242822254.0,,,-3.5372816,118.9693197,https://maps.google.com/?cid=0x0:0x4c79b7975f57ff0a,
toko bangunan,toko bangunan,Kama Kasmia Family,"Lembang Jl. AMD No.2, Lembang Jl. AMD No.2, Baurung, Kec. Banggae Tim., Kabupaten Majene, Sulawesi Barat 91412","Lembang Jl. AMD No.2, Baurung, Kec. Banggae Tim., Kabupaten Majene",SULAWESI BARAT,91412.0,Indonesia,82313525999.0,,,-3.5452975,118.9834896,https://maps.google.com/?cid=0x0:0x1e6a7b02c07937ec,
toko bangunan,Toko Bahan Bangunan,Ud Karya Pembangunan,"FX69+593, Jl. Aco Benya, Banggae, Kec. Banggae, Kabupaten Majene, Sulawesi Barat 91412","Jl. Aco Benya, Banggae, Kec. Banggae, Kabupaten Majene",SULAWESI BARAT,91412.0,Indonesia,,,,-3.5396215,118.9684116,https://maps.google.com/?cid=0x0:0xd7136d0901734b82,
toko bangunan,Toko Bahan Bangunan,Toko Fajar,"Jl. K.H. Muh. Saleh No.49, Labuang, Kec. Banggae Tim., Kabupaten Majene, Sulawesi Barat 91412","Labuang, Kec. Banggae Tim., Kabupaten Majene",SULAWESI BARAT,91412.0,Indonesia,,,,-3.5416368,118.9730687,https://maps.google.com/?cid=0x0:0x4ebb29b503978d8,
toko bangunan,Toko Bahan Bangunan,Toko asia timur,"F2WC+78C, Tinambung, Kec. Tinambung, Kabupaten Polewali Mandar, Sulawesi Barat 91412","Tinambung, Kec. Tinambung, Kabupaten Polewali Mandar",SULAWESI BARAT,91412.0,Indonesia,42221317.0,,,-3.5043034,119.0207519,https://maps.google.com/?cid=0x0:0xc43362401320a5b8,
toko bangunan,Toko Bahan Bangunan,TB. In-Dini Warna,"FX49+H83, Jl. Muh. Yusuf Pusat Pertokoan, Banggae, Majene Regency, West Sulawesi 91412","Jl. Muh. Yusuf Pusat Pertokoan, Banggae, Majene Regency",SULAWESI BARAT,91412.0,Indonesia,85255272937.0,,,-3.5436182,118.9683021,https://maps.google.com/?cid=0x0:0xdcbde59548fd4980,
toko bangunan,Toko Bahan Bangunan,Toko Rezeki Fajar,"Jl. Sultan hasanuddin, Tande, lutang, Kabupaten Majene, Sulawesi Barat 91412","Tande, lutang, Kabupaten Majene",SULAWESI BARAT,91412.0,Indonesia,,,,-3.532758,118.9975397,https://maps.google.com/?cid=0x0:0x37bd7d2dadf86d2c,
toko bangunan,Toko Alat Listrik,Toko Karya Bersama,"FX59+3GR, Labuang, Kec. Banggae Tim., Kabupaten Majene, Sulawesi Barat 91412","Labuang, Kec. Banggae Tim., Kabupaten Majene",SULAWESI BARAT,91412.0,Indonesia,,,,-3.5422674,118.9687737,https://maps.google.com/?cid=0x0:0x707ee8b2bff868e,
toko bangunan,toko bangunan,Kec. Banggae Tim.,"Kabupaten Majene, Sulawesi Barat","Kabupaten Majene, Sulawesi Barat",SULAWESI BARAT,,Indonesia,,,,-3.5443284,118.9724991,https://maps.google.com/?cid=0x0:0x8a3d219855bd6a6e,
toko bangunan,Toko,Jotun,"FX6R+P4G, Jl. Poros Majene - Mamuju, Baurung, Kec. Banggae Tim., Kabupaten Majene, Sulawesi Barat 91412","Jl. Poros Majene - Mamuju, Baurung, Kec. Banggae Tim., Kabupaten Majene",SULAWESI BARAT,91412.0,Indonesia,,,,-3.5381876,118.9903263,https://maps.google.com/?cid=0x0:0xa7f9f72b87de31e3,
toko bangunan,toko bangunan,Sulawesi Barat 91413,"Kabupaten Polewali Mandar, Sulawesi Barat","Kabupaten Polewali Mandar, Sulawesi Barat",SULAWESI BARAT,,Indonesia,,,,-3.4627787,118.9877942,https://maps.google.com/?cid=0x0:0x36c6611542b63c82,
toko bangunan,Toko,Toko Fajar Bangunan Majene,"pakkola, Jl. Mayjen Azis Bustam, Banggae, Kec. Banggae, Kabupaten Majene, Sulawesi Barat 91412","Jl. Mayjen Azis Bustam, Banggae, Kec. Banggae, Kabupaten Majene",SULAWESI BARAT,91412.0,Indonesia,81355566646.0,,,-3.5372746,118.9682725,https://maps.google.com/?cid=0x0:0xcfb27e4cdc8945d6,
toko bangunan,Toko Bahan Bangunan,Toko Indo Bangunan,"JL A Jl. Syukur Rahim No.20-22, Banggae, Kec. Banggae, Kabupaten Majene, Sulawesi Barat","Kabupaten Majene, Sulawesi Barat",SULAWESI BARAT,,Indonesia,42221321.0,,,-3.544385,118.9661537,https://maps.google.com/?cid=0x0:0x79968e5059e72082,
toko bangunan,Toko Bahan Bangunan,Toko Aneka Setia,"FX9X+RHM, Tande, Kec. Banggae Tim., Kabupaten Majene, Sulawesi Barat 91412","Tande, Kec. Banggae Tim., Kabupaten Majene",SULAWESI BARAT,91412.0,Indonesia,,,,-3.5304128,118.998936,https://maps.google.com/?cid=0x0:0x3d901f2f1362873b,
toko bangunan,Komplek perumahan,Toko Bangunan,"HX6Q+XJQ, Mombi, Alu, Kabupaten Polewali Mandar, Sulawesi Barat 91413","Mombi, Alu, Kabupaten Polewali Mandar",SULAWESI BARAT,91413.0,Indonesia,,,,-3.4375335,118.9891104,https://maps.google.com/?cid=0x0:0xb7711384df6bd4b0,
toko bangunan,toko bangunan,Toko pelita harmonis,"FX6C+7CF, Jl. Wolter Monginsidi, Labuang, Kec. Banggae Tim., Kabupaten Majene, Sulawesi Barat 91412","Jl. Wolter Monginsidi, Labuang, Kec. Banggae Tim., Kabupaten Majene",SULAWESI BARAT,91412.0,Indonesia,85200000091.0,,,-3.539303,118.9710798,https://maps.google.com/?cid=0x0:0x9f654b494d37ad78,
toko bangunan,Toko Bahan Bangunan,METRO,"Jl. Jend. Sudirman No.8, Labuang, Kec. Banggae Tim., Kabupaten Majene, Sulawesi Barat 91412","Labuang, Kec. Banggae Tim., Kabupaten Majene",SULAWESI BARAT,91412.0,Indonesia,42222047.0,,,-3.543368,118.9692323,https://maps.google.com/?cid=0x0:0x3a8d6b891e342471,
toko bangunan,Toko Bahan Bangunan,Fajar Mas Toko,"Jl. Lanto Dg. Pasewang No.2, Labuang, Kec. Banggae Tim., Kabupaten Majene, Sulawesi Barat 91412","Labuang, Kec. Banggae Tim., Kabupaten Majene",SULAWESI BARAT,91412.0,Indonesia,81241509242.0,,,-3.5389993,118.9695441,https://maps.google.com/?cid=0x0:0x77644e45e24c0e13,
toko bangunan,Toko Bahan Bangunan,Toko Pelita,"Jl. Lanto Dg. Pasewang No.2, Labuang, Kec. Banggae Tim., Kabupaten Majene, Sulawesi Barat 91412","Labuang, Kec. Banggae Tim., Kabupaten Majene",SULAWESI BARAT,91412.0,Indonesia,,,,-3.5390985,118.9696345,https://maps.google.com/?cid=0x0:0x96e400127005d839,
toko bangunan,Toko Bahan Bangunan,Toko Rezeki Fajar,"Jl. Sultan hasanuddin, Tande, lutang, Kabupaten Majene, Sulawesi Barat 91412","Tande, lutang, Kabupaten Majene",SULAWESI BARAT,91412.0,Indonesia,,,,-3.532758,118.9975397,https://maps.google.com/?cid=0x0:0x37bd7d2dadf86d2c,
toko bangunan,Toko Bahan Bangunan,Toko Ilham Jual Bahan Bangunan,"G2J2+FGV, Lembang Lembang, Kec. Limboro, Kabupaten Polewali Mandar, Sulawesi Barat 91413","Lembang Lembang, Kec. Limboro, Kabupaten Polewali Mandar",SULAWESI BARAT,91413.0,Indonesia,81373974815.0,,,-3.4687505,119.001301,https://maps.google.com/?cid=0x0:0x60bee8f61addf22b,
toko bangunan,Toko Bahan Bangunan,Toko Bangunan Berlian,"CWRV+QM2, Jl. Jend. Ahmad Yani, Totoli, Passarang, Kabupaten Majene, Sulawesi Barat","Kabupaten Majene, Sulawesi Barat",SULAWESI BARAT,,Indonesia,81373974815.0,,,-3.5581236,118.9441384,https://maps.google.com/?cid=0x0:0xe1a76e4c584d6953,
toko bangunan,Toko Bahan Bangunan,Sinar Baja,"Jl. Kanjuha No.3, Banggae, Kec. Banggae, Kabupaten Majene, Sulawesi Barat 91412","Banggae, Kec. Banggae, Kabupaten Majene",SULAWESI BARAT,91412.0,Indonesia,85290296222.0,,,-3.5377319,118.9684607,https://maps.google.com/?cid=0x0:0xf6220e0a36705530,
toko bangunan,Toko Bahan Bangunan,TOKO VICTORIA,"FX48+PVM, Jl. Poros Majene - Mamuju, Banggae, Kec. Banggae, Kabupaten Majene, Sulawesi Barat 91412","Jl. Poros Majene - Mamuju, Banggae, Kec. Banggae, Kabupaten Majene",SULAWESI BARAT,91412.0,Indonesia,81373974815.0,,,-3.5431565,118.9671759,https://maps.google.com/?cid=0x0:0xfc6e507a4a5e130b,
toko bangunan,Toko Bahan Bangunan,Toko Sumber Fajar,"Jl. Mayjen Azis Bustam No.55, Banggae, Kec. Banggae, Kabupaten Majene, Sulawesi Barat 91412","Banggae, Kec. Banggae, Kabupaten Majene",SULAWESI BARAT,91412.0,Indonesia,89518730016.0,,,-3.5392871,118.9681226,https://maps.google.com/?cid=0x0:0xe80859c2df93c601,
toko bangunan,Toko Bahan Bangunan,Toko Cahaya 99,"G2J2+6Q3, Lembang Lembang, Kec. Limboro, Kabupaten Polewali Mandar, Sulawesi Barat 91413","Lembang Lembang, Kec. Limboro, Kabupaten Polewali Mandar",SULAWESI BARAT,91413.0,Indonesia,,,,-3.4694786,119.0019128,https://maps.google.com/?cid=0x0:0xd08246748cd1df91,
toko bangunan,Toko Bahan Bangunan,Toko bangunan sumber bahagia,"FWC6+H9C, Jl. Poros Majene - Mamuju, Bonde, Kec. Pamboang, Kabupaten Majene, Sulawesi Barat 91451","Jl. Poros Majene - Mamuju, Bonde, Kec. Pamboang, Kabupaten Majene",SULAWESI BARAT,91451.0,Indonesia,,,,-3.5287166,118.910906,https://maps.google.com/?cid=0x0:0x618cba9cfd6a2eb4,
toko bangunan,Toko Bahan Bangunan,Ud Karya Pembangunan,"FX69+593, Jl. Aco Benya, Banggae, Kec. Banggae, Kabupaten Majene, Sulawesi Barat 91412","Jl. Aco Benya, Banggae, Kec. Banggae, Kabupaten Majene",SULAWESI BARAT,91412.0,Indonesia,,,,-3.5396215,118.9684116,https://maps.google.com/?cid=0x0:0xd7136d0901734b82,
toko bangunan,toko bangunan,Kama Kasmia Family,"Lembang Jl. AMD No.2, Lembang Jl. AMD No.2, Baurung, Kec. Banggae Tim., Kabupaten Majene, Sulawesi Barat 91412","Lembang Jl. AMD No.2, Baurung, Kec. Banggae Tim., Kabupaten Majene",SULAWESI BARAT,91412.0,Indonesia,82313525999.0,,,-3.5452975,118.9834896,https://maps.google.com/?cid=0x0:0x1e6a7b02c07937ec,
toko bangunan,Toko Bahan Bangunan,TOKO HENDY HERMAN,"FX79+3PP, Banggae, Kec. Banggae, Kabupaten Majene, Sulawesi Barat 91412","Banggae, Kec. Banggae, Kabupaten Majene",SULAWESI BARAT,91412.0,Indonesia,81242822254.0,,,-3.5372816,118.9693197,https://maps.google.com/?cid=0x0:0x4c79b7975f57ff0a,
toko bangunan,toko bangunan,Kec. Banggae Tim.,"Kabupaten Majene, Sulawesi Barat","Kabupaten Majene, Sulawesi Barat",SULAWESI BARAT,,Indonesia,,,,-3.5443284,118.9724991,https://maps.google.com/?cid=0x0:0x8a3d219855bd6a6e,
toko bangunan,toko bangunan,Sulawesi Barat 91414,"Kec. Banggae Tim., Kabupaten Majene, Sulawesi Barat","Kabupaten Majene, Sulawesi Barat",SULAWESI BARAT,,Indonesia,,,,-3.504363,118.9470422,https://maps.google.com/?cid=0x0:0xa2a58b17ca1668be,
toko bangunan,Toko Bahan Bangunan,Toko Indo Bangunan,"JL A Jl. Syukur Rahim No.20-22, Banggae, Kec. Banggae, Kabupaten Majene, Sulawesi Barat","Kabupaten Majene, Sulawesi Barat",SULAWESI BARAT,,Indonesia,42221321.0,,,-3.544385,118.9661537,https://maps.google.com/?cid=0x0:0x79968e5059e72082,
toko bangunan,Toko,Toko Fajar Bangunan Majene,"pakkola, Jl. Mayjen Azis Bustam, Banggae, Kec. Banggae, Kabupaten Majene, Sulawesi Barat 91412","Jl. Mayjen Azis Bustam, Banggae, Kec. Banggae, Kabupaten Majene",SULAWESI BARAT,91412.0,Indonesia,81355566646.0,,,-3.5372746,118.9682725,https://maps.google.com/?cid=0x0:0xcfb27e4cdc8945d6,
toko bangunan,Pemasok Bahan Bangunan,TOKO ASIA TIMUR (BAHAN BANGUNAN),"FX69+XQP, Jl. Lanto Dg. Pasewang, Banggae, Kec. Banggae, Kabupaten Majene, Sulawesi Barat 91412","Jl. Lanto Dg. Pasewang, Banggae, Kec. Banggae, Kabupaten Majene",SULAWESI BARAT,91412.0,Indonesia,4222420265.0,,,-3.5375355,118.9694601,https://maps.google.com/?cid=0x0:0xa219d91ef34acc13,
toko bangunan,Toko Bahan Bangunan,METRO,"Jl. Jend. Sudirman No.8, Labuang, Kec. Banggae Tim., Kabupaten Majene, Sulawesi Barat 91412","Labuang, Kec. Banggae Tim., Kabupaten Majene",SULAWESI BARAT,91412.0,Indonesia,42222047.0,,,-3.543368,118.9692323,https://maps.google.com/?cid=0x0:0x3a8d6b891e342471,
toko bangunan,Toko Bahan Bangunan,Toko Pelita,"Jl. Lanto Dg. Pasewang No.2, Labuang, Kec. Banggae Tim., Kabupaten Majene, Sulawesi Barat 91412","Labuang, Kec. Banggae Tim., Kabupaten Majene",SULAWESI BARAT,91412.0,Indonesia,,,,-3.5390985,118.9696345,https://maps.google.com/?cid=0x0:0x96e400127005d839,
toko bangunan,Toko Bahan Bangunan,Toko Sumber Fajar,"Jl. Mayjen Azis Bustam No.55, Banggae, Kec. Banggae, Kabupaten Majene, Sulawesi Barat 91412","Banggae, Kec. Banggae, Kabupaten Majene",SULAWESI BARAT,91412.0,Indonesia,89518730016.0,,,-3.5392871,118.9681226,https://maps.google.com/?cid=0x0:0xe80859c2df93c601,
toko bangunan,Toko Bahan Bangunan,TOKO VICTORIA,"FX48+PVM, Jl. Poros Majene - Mamuju, Banggae, Kec. Banggae, Kabupaten Majene, Sulawesi Barat 91412","Jl. Poros Majene - Mamuju, Banggae, Kec. Banggae, Kabupaten Majene",SULAWESI BARAT,91412.0,Indonesia,81373974815.0,,,-3.5431565,118.9671759,https://maps.google.com/?cid=0x0:0xfc6e507a4a5e130b,
toko bangunan,Toko Bahan Bangunan,TOKO HENDY HERMAN,"FX79+3PP, Banggae, Kec. Banggae, Kabupaten Majene, Sulawesi Barat 91412","Banggae, Kec. Banggae, Kabupaten Majene",SULAWESI BARAT,91412.0,Indonesia,81242822254.0,,,-3.5372816,118.9693197,https://maps.google.com/?cid=0x0:0x4c79b7975f57ff0a,
toko bangunan,Toko Perlengkapan Rumah,Toko Abshar,"2V84+R5J, Jl. Poros Majene - Mamuju, desa lombongIndonesia, Kec. Malunda, Kabupaten Majene, Sulawesi Barat","Kabupaten Majene, Sulawesi Barat",SULAWESI BARAT,,Indonesia,,,,-2.9829124,118.8553929,https://maps.google.com/?cid=0x0:0x44732a91e7a6036c,
toko bangunan,Toko Bahan Bangunan,Toko Fajar,"Jl. K.H. Muh. Saleh No.49, Labuang, Kec. Banggae Tim., Kabupaten Majene, Sulawesi Barat 91412","Labuang, Kec. Banggae Tim., Kabupaten Majene",SULAWESI BARAT,91412.0,Indonesia,,,,-3.5416368,118.9730687,https://maps.google.com/?cid=0x0:0x4ebb29b503978d8,
toko bangunan,Toko Bahan Bangunan,Toko Mapan Bangunan,"J66F+CVP, Sumberejo, Kec. Wonomulyo, Kabupaten Polewali Mandar, Sulawesi Barat 91352","Sumberejo, Kec. Wonomulyo, Kabupaten Polewali Mandar",SULAWESI BARAT,91352.0,Indonesia,82190955225.0,,,-3.3889059,119.2247017,https://maps.google.com/?cid=0x0:0xaad22bfe1044cd4e,
toko bangunan,Toko Bahan Bangunan,Toko Nirwana (Bahan Bangunan),"JR9X+R7M, Jl. Poros Majene - Mamuju, Mosso, Kec. Sendana, Kabupaten Majene, Sulawesi Barat 91452","Jl. Poros Majene - Mamuju, Mosso, Kec. Sendana, Kabupaten Majene",SULAWESI BARAT,91452.0,Indonesia,,,,-3.3804231,118.8481764,https://maps.google.com/?cid=0x0:0xcbd387ba5a895013,
toko bangunan,Toko Bahan Bangunan,TOKO FAJAR BANGUNAN MAPILLI,"Jl. Poros Majene - Mamuju, Baru, Kec. Luyo, Kabupaten Polewali Mandar, Sulawesi Barat 91352","Baru, Kec. Luyo, Kabupaten Polewali Mandar",SULAWESI BARAT,91352.0,Indonesia,82292595546.0,,,-3.4189333,119.164406,https://maps.google.com/?cid=0x0:0x89a76f2924e54666,
toko bangunan,Pembangunan Perumahan,Toko Bangunan Putra Tande 5 Tapalang,"Galung, Kec. Tapalang, Kabupaten Mamuju, Sulawesi Barat 91352","Kec. Tapalang, Kabupaten Mamuju",SULAWESI BARAT,91352.0,Indonesia,85397048983.0,,,-2.8651937,118.8702682,https://maps.google.com/?cid=0x0:0x5ece193e63138999,
toko bangunan,Toko Bahan Bangunan,Toko Rezeki Fajar,"Jl. Sultan hasanuddin, Tande, lutang, Kabupaten Majene, Sulawesi Barat 91412","Tande, lutang, Kabupaten Majene",SULAWESI BARAT,91412.0,Indonesia,,,,-3.532758,118.9975397,https://maps.google.com/?cid=0x0:0x37bd7d2dadf86d2c,
toko bangunan,Toko Bahan Bangunan,Fajar Mas Toko,"Jl. Lanto Dg. Pasewang No.2, Labuang, Kec. Banggae Tim., Kabupaten Majene, Sulawesi Barat 91412","Labuang, Kec. Banggae Tim., Kabupaten Majene",SULAWESI BARAT,91412.0,Indonesia,81241509242.0,,,-3.5389993,118.9695441,https://maps.google.com/?cid=0x0:0x77644e45e24c0e13,
toko bangunan,Toko Bahan Bangunan,Toko Aneka Setia,"FX9X+RHM, Tande, Kec. Banggae Tim., Kabupaten Majene, Sulawesi Barat 91412","Tande, Kec. Banggae Tim., Kabupaten Majene",SULAWESI BARAT,91412.0,Indonesia,,,,-3.5304128,118.998936,https://maps.google.com/?cid=0x0:0x3d901f2f1362873b,
toko bangunan,Toko Bahan Bangunan,Sinar Baja,"Jl. Kanjuha No.3, Banggae, Kec. Banggae, Kabupaten Majene, Sulawesi Barat 91412","Banggae, Kec. Banggae, Kabupaten Majene",SULAWESI BARAT,91412.0,Indonesia,85290296222.0,,,-3.5377319,118.9684607,https://maps.google.com/?cid=0x0:0xf6220e0a36705530,
toko bangunan,Toko Bahan Bangunan,Toko Bangunan Berlian,"CWRV+QM2, Jl. Jend. Ahmad Yani, Totoli, Passarang, Kabupaten Majene, Sulawesi Barat","Kabupaten Majene, Sulawesi Barat",SULAWESI BARAT,,Indonesia,81373974815.0,,,-3.5581236,118.9441384,https://maps.google.com/?cid=0x0:0xe1a76e4c584d6953,
toko bangunan,Perusahaan Konstruksi,Toko bahan bangunan,"FW96+QPH, Bonde, Kec. Pamboang, Kabupaten Majene, Sulawesi Barat 91451","Bonde, Kec. Pamboang, Kabupaten Majene",SULAWESI BARAT,91451.0,Indonesia,,,,-3.5307301,118.9119833,https://maps.google.com/?cid=0x0:0xdd412366a0600f59,
toko bangunan,toko bangunan,Kec. Malunda,"Kabupaten Majene, Sulawesi Barat","Kabupaten Majene, Sulawesi Barat",SULAWESI BARAT,,Indonesia,,,,-3.0144575,118.8580249,https://maps.google.com/?cid=0x0:0x4b00fe7a2d4d1176,
toko bangunan,Toko Bahan Bangunan,Sinar Tammaende,"XVP4+FFQ, Malunda, Kec. Malunda, Kabupaten Majene, Sulawesi Barat 91453","Malunda, Kec. Malunda, Kabupaten Majene",SULAWESI BARAT,91453.0,Indonesia,81264671628.0,,,-3.0137983,118.8562415,https://maps.google.com/?cid=0x0:0x57eeaac6e5d11e2e,
toko bangunan,Toko Bahan Bangunan,Toko Putra Tande 4 (Maliaya),"3VGH+G24, Maliaya, Kec. Malunda, Kabupaten Majene, Sulawesi Barat 91453","Maliaya, Kec. Malunda, Kabupaten Majene",SULAWESI BARAT,91453.0,Indonesia,,,,-2.9237401,118.8775631,https://maps.google.com/?cid=0x0:0x99c69afa8b83e91f,
toko bangunan,Toko Perlengkapan Rumah,Toko Abshar,"2V84+R5J, Jl. Poros Majene - Mamuju, desa lombongIndonesia, Kec. Malunda, Kabupaten Majene, Sulawesi Barat","Kabupaten Majene, Sulawesi Barat",SULAWESI BARAT,,Indonesia,,,,-2.9829124,118.8553929,https://maps.google.com/?cid=0x0:0x44732a91e7a6036c,
toko bangunan,Toko Bahan Bangunan,Putra Tande 4 (Nippon Paint),"XVG6+QCM, Jl. Poros Majene - Mamuju, Malunda, Kec. Malunda, Kabupaten Majene, Sulawesi Barat 91453","Jl. Poros Majene - Mamuju, Malunda, Kec. Malunda, Kabupaten Majene",SULAWESI BARAT,91453.0,Indonesia,85299671888.0,,,-3.0230286,118.8610354,https://maps.google.com/?cid=0x0:0x4ed34d92a7605a67,
toko bangunan,Pembangunan Perumahan,Toko Bangunan Putra Tande 5 Tapalang,"Galung, Kec. Tapalang, Kabupaten Mamuju, Sulawesi Barat 91352","Kec. Tapalang, Kabupaten Mamuju",SULAWESI BARAT,91352.0,Indonesia,85397048983.0,,,-2.8651937,118.8702682,https://maps.google.com/?cid=0x0:0x5ece193e63138999,
toko bangunan,Pasar,MALUNDA PONSEL,"XVM5+M9X, Unnamed Road, Malunda, Kec. Malunda, Kabupaten Majene, Sulawesi Barat 91453","Unnamed Road, Malunda, Kec. Malunda, Kabupaten Majene",SULAWESI BARAT,91453.0,Indonesia,85394960671.0,,,-3.0157517,118.8584971,https://maps.google.com/?cid=0x0:0x5e62c37bc4fd8671,
toko bangunan,toko bangunan,Sulawesi Barat 91451,"Kec. Pamboang, Kabupaten Majene, Sulawesi Barat","Kabupaten Majene, Sulawesi Barat",SULAWESI BARAT,,Indonesia,,,,-3.4651099,118.917927,https://maps.google.com/?cid=0x0:0x284e3301f580930a,
toko bangunan,Perusahaan Konstruksi,Toko bangunan surya utama,"GV3W+R73, Jl. Poros Majene - Mamuju, Lalampanua, Kec. Pamboang, Kabupaten Majene, Sulawesi Barat 91451","Jl. Poros Majene - Mamuju, Lalampanua, Kec. Pamboang, Kabupaten Majene",SULAWESI BARAT,91451.0,Indonesia,,,,-3.4804914,118.8877015,https://maps.google.com/?cid=0x0:0x9a49d44f88b606f1,
toko bangunan,Toko Bahan Bangunan,TOKO TANDE BANGUNAN,"HV9F+HHF, Sirindu, Kec. Pamboang, Kabupaten Majene, Sulawesi Barat 91451","Sirindu, Kec. Pamboang, Kabupaten Majene",SULAWESI BARAT,91451.0,Indonesia,81355678743.0,,,-3.4309921,118.8737447,https://maps.google.com/?cid=0x0:0x9f14d6e95cc3fb49,
toko bangunan,Toko Bahan Bangunan,Toko bangunan Tande cemerlang,"FWQ2+RQX, Bababulo, Kec. Pamboang, Kabupaten Majene, Sulawesi Barat 91451","Bababulo, Kec. Pamboang, Kabupaten Majene",SULAWESI BARAT,91451.0,Indonesia,82191313585.0,,,-3.5103861,118.9019823,https://maps.google.com/?cid=0x0:0xc7d815cdd7c517de,
toko bangunan,Perusahaan Konstruksi,Toko bahan bangunan,"FW96+QPH, Bonde, Kec. Pamboang, Kabupaten Majene, Sulawesi Barat 91451","Bonde, Kec. Pamboang, Kabupaten Majene",SULAWESI BARAT,91451.0,Indonesia,,,,-3.5307301,118.9119833,https://maps.google.com/?cid=0x0:0xdd412366a0600f59,
toko bangunan,Pembangunan Perumahan,Toko Bangunan Putra Tande 5 Tapalang,"Galung, Kec. Tapalang, Kabupaten Mamuju, Sulawesi Barat 91352","Kec. Tapalang, Kabupaten Mamuju",SULAWESI BARAT,91352.0,Indonesia,85397048983.0,,,-2.8651937,118.8702682,https://maps.google.com/?cid=0x0:0x5ece193e63138999,
toko bangunan,Toko Bahan Bangunan,Toko Bangunan Berlian,"CWRV+QM2, Jl. Jend. Ahmad Yani, Totoli, Passarang, Kabupaten Majene, Sulawesi Barat","Kabupaten Majene, Sulawesi Barat",SULAWESI BARAT,,Indonesia,81373974815.0,,,-3.5581236,118.9441384,https://maps.google.com/?cid=0x0:0xe1a76e4c584d6953,
toko bangunan,Toko Bahan Bangunan,Toko buyung bangunan,"5V55+QW8, Jl. Poros Majene - Mamuju, Tampalang, Kec. Tapalang, Kabupaten Mamuju, Sulawesi Barat 91352","Jl. Poros Majene - Mamuju, Tampalang, Kec. Tapalang, Kabupaten Mamuju",SULAWESI BARAT,91352.0,Indonesia,,,,-2.840579,118.8598397,https://maps.google.com/?cid=0x0:0xdaa7f0c9eeaba7c8,
toko bangunan,Toko,Toko Fajar Bangunan Majene,"pakkola, Jl. Mayjen Azis Bustam, Banggae, Kec. Banggae, Kabupaten Majene, Sulawesi Barat 91412","Jl. Mayjen Azis Bustam, Banggae, Kec. Banggae, Kabupaten Majene",SULAWESI BARAT,91412.0,Indonesia,81355566646.0,,,-3.5372746,118.9682725,https://maps.google.com/?cid=0x0:0xcfb27e4cdc8945d6,
toko bangunan,Toko Bahan Bangunan,Toko Nirwana (Bahan Bangunan),"JR9X+R7M, Jl. Poros Majene - Mamuju, Mosso, Kec. Sendana, Kabupaten Majene, Sulawesi Barat 91452","Jl. Poros Majene - Mamuju, Mosso, Kec. Sendana, Kabupaten Majene",SULAWESI BARAT,91452.0,Indonesia,,,,-3.3804231,118.8481764,https://maps.google.com/?cid=0x0:0xcbd387ba5a895013,
toko bangunan,Toko Bahan Bangunan,Toko Fajar Bangunan Somba,"Mosso, Kec. Sendana, Kabupaten Majene, Sulawesi Barat 91452","Kec. Sendana, Kabupaten Majene",SULAWESI BARAT,91452.0,Indonesia,81355566646.0,,,-3.3691875,118.8489375,https://maps.google.com/?cid=0x0:0xaf501df1f4762db6,
toko bangunan,Pusat Perbelanjaan,Toko Nirwana 3,"Mosso, Kec. Sendana, Kabupaten Majene, Sulawesi Barat 91452","Kec. Sendana, Kabupaten Majene",SULAWESI BARAT,91452.0,Indonesia,82190363282.0,,,-3.3696424,118.8490542,https://maps.google.com/?cid=0x0:0x1f86fe7f111052cd,
toko bangunan,Toko Bahan Bangunan,TOKO CAHAYA TANDE (DEALER K-VISION),"Jl. Poros Majene - Mamuju, Tallu Banua, Kec. Sendana, Kabupaten Majene, Sulawesi Barat 91452","Tallu Banua, Kec. Sendana, Kabupaten Majene",SULAWESI BARAT,91452.0,Indonesia,81243018881.0,,,-3.2914016,118.8566182,https://maps.google.com/?cid=0x0:0xfd6fdb92ceef99fc,
toko bangunan,Toko Bahan Bangunan,TOKO TANDE BANGUNAN,"HV9F+HHF, Sirindu, Kec. Pamboang, Kabupaten Majene, Sulawesi Barat 91451","Sirindu, Kec. Pamboang, Kabupaten Majene",SULAWESI BARAT,91451.0,Indonesia,81355678743.0,,,-3.4309921,118.8737447,https://maps.google.com/?cid=0x0:0x9f14d6e95cc3fb49,
toko bangunan,Toko Bahan Bangunan,Tk. Alif Satria,"JR9X+J97, Mosso, Kec. Sendana, Kabupaten Majene, Sulawesi Barat 91452","Mosso, Kec. Sendana, Kabupaten Majene",SULAWESI BARAT,91452.0,Indonesia,81355480116.0,,,-3.3809553,118.8484222,https://maps.google.com/?cid=0x0:0x60f5d7e9406e7cc2,
toko bangunan,toko bangunan,TOKO ANUGRAH BANGUNAN,"JV25+8CW, Jl. Poros Majene - Mamuju, Mosso Dhua, Kec. Sendana, Kabupaten Majene, Sulawesi Barat 91452","Jl. Poros Majene - Mamuju, Mosso Dhua, Kec. Sendana, Kabupaten Majene",SULAWESI BARAT,91452.0,Indonesia,,,,-3.399145,118.8585719,https://maps.google.com/?cid=0x0:0x848b0671100a14e0,
toko bangunan,Toko bahan makanan,Toko Putra tande 7,"QR3R+Q9W, Tammerodo, Kabupaten Majene, Sulawesi Barat 91452","Tammerodo, Kabupaten Majene",SULAWESI BARAT,91452.0,Indonesia,81355815014.0,,,-3.2455166,118.8409444,https://maps.google.com/?cid=0x0:0x58455cbd3c6a0972,
toko bangunan,toko bangunan,Sulawesi Selatan 91925,Sulawesi Selatan,Sulawesi Selatan,SULAWESI BARAT,,Indonesia,,,,-3.0575625,120.1762494,https://maps.google.com/?cid=0x0:0xc8c26aa2cc63531b,
toko bangunan,Toko Bahan Bangunan,Toko Nirwana (Bahan Bangunan),"JR9X+R7M, Jl. Poros Majene - Mamuju, Mosso, Kec. Sendana, Kabupaten Majene, Sulawesi Barat 91452","Jl. Poros Majene - Mamuju, Mosso, Kec. Sendana, Kabupaten Majene",SULAWESI BARAT,91452.0,Indonesia,,,,-3.3804231,118.8481764,https://maps.google.com/?cid=0x0:0xcbd387ba5a895013,
toko bangunan,Toko Bahan Bangunan,Toko Fajar Bangunan Somba,"Mosso, Kec. Sendana, Kabupaten Majene, Sulawesi Barat 91452","Kec. Sendana, Kabupaten Majene",SULAWESI BARAT,91452.0,Indonesia,81355566646.0,,,-3.3691875,118.8489375,https://maps.google.com/?cid=0x0:0xaf501df1f4762db6,
toko bangunan,Pembangunan Perumahan,Toko Bangunan Putra Tande 5 Tapalang,"Galung, Kec. Tapalang, Kabupaten Mamuju, Sulawesi Barat 91352","Kec. Tapalang, Kabupaten Mamuju",SULAWESI BARAT,91352.0,Indonesia,85397048983.0,,,-2.8651937,118.8702682,https://maps.google.com/?cid=0x0:0x5ece193e63138999,
toko bangunan,Pusat Perbelanjaan,Toko Nirwana 3,"Mosso, Kec. Sendana, Kabupaten Majene, Sulawesi Barat 91452","Kec. Sendana, Kabupaten Majene",SULAWESI BARAT,91452.0,Indonesia,82190363282.0,,,-3.3696424,118.8490542,https://maps.google.com/?cid=0x0:0x1f86fe7f111052cd,
toko bangunan,Toko Bahan Bangunan,Toko Indo Bangunan,"JL A Jl. Syukur Rahim No.20-22, Banggae, Kec. Banggae, Kabupaten Majene, Sulawesi Barat","Kabupaten Majene, Sulawesi Barat",SULAWESI BARAT,,Indonesia,42221321.0,,,-3.544385,118.9661537,https://maps.google.com/?cid=0x0:0x79968e5059e72082,
toko bangunan,Toko Elektronik,Toko Adnanta Bangunan,"WQ8X+5F3, Rembon, Kec. Rembon, Kabupaten Tana Toraja, Sulawesi Selatan 91861","Rembon, Kec. Rembon, Kabupaten Tana Toraja",SULAWESI BARAT,91861.0,Indonesia,,,,-3.0846233,119.7986696,https://maps.google.com/?cid=0x0:0x8e8a2165c78196dc,
toko bangunan,Toko Bahan Bangunan,Toko. Fajar Bangunan - Mamuju,"8V6G+7WH, Jl. Diponegoro, Karema, Kec. Mamuju, Kabupaten Mamuju, Sulawesi Barat 91512","Jl. Diponegoro, Karema, Kec. Mamuju, Kabupaten Mamuju",SULAWESI BARAT,91512.0,Indonesia,85930982364.0,,,-2.689321,118.8773494,https://maps.google.com/?cid=0x0:0x6d4e74a959cf61d6,
toko bangunan,Toko Bahan Bangunan,Toko Bangunan,"H5J6+3Q9, Jl. Poros Majene - Mamuju, Topore, Kec. Papalang, Kabupaten Mamuju, Sulawesi Barat 91563","Jl. Poros Majene - Mamuju, Topore, Kec. Papalang, Kabupaten Mamuju",SULAWESI BARAT,91563.0,Indonesia,81264671628.0,,,-2.4197239,119.162057,https://maps.google.com/?cid=0x0:0xb8abda29e233da34,
toko bangunan,Toko,Toko Bangunan Satondo'ta,"V866+WC7, Sumarorong, Kec. Sumarorong, Kabupaten Mamasa, Sulawesi Barat 91361","Sumarorong, Kec. Sumarorong, Kabupaten Mamasa",SULAWESI BARAT,91361.0,Indonesia,81346669777.0,,,-3.1377039,119.311061,https://maps.google.com/?cid=0x0:0x7058556c45174885,
toko bangunan,Toko Bahan Bangunan,TOKO TANDE BANGUNAN,"HV9F+HHF, Sirindu, Kec. Pamboang, Kabupaten Majene, Sulawesi Barat 91451","Sirindu, Kec. Pamboang, Kabupaten Majene",SULAWESI BARAT,91451.0,Indonesia,81355678743.0,,,-3.4309921,118.8737447,https://maps.google.com/?cid=0x0:0x9f14d6e95cc3fb49,
toko bangunan,Pusat Perbelanjaan,Toko bangunan argadinata,"Lemo-Lemo, Kec. Pangale, Kabupaten Mamuju, Sulawesi Barat 91462","Kec. Pangale, Kabupaten Mamuju",SULAWESI BARAT,91462.0,Indonesia,82331313118.0,,,-2.2972382,119.17566,https://maps.google.com/?cid=0x0:0x9eb6c7242139d7af,
toko bangunan,Toko Bahan Bangunan,Toko Multi Bangunan,"Jl. Diponegoro No.c14-15, Karema, Kec. Mamuju, Kabupaten Mamuju, Sulawesi Barat 91512","Karema, Kec. Mamuju, Kabupaten Mamuju",SULAWESI BARAT,91512.0,Indonesia,81242298806.0,,,-2.6862595,118.8768742,https://maps.google.com/?cid=0x0:0xd05c6306c1a3648f,
toko bangunan,Toko Bahan Bangunan,Toko Delta Bangunan,"8V6H+X4H, Karema, Kec. Mamuju, Kabupaten Mamuju, Sulawesi Barat 91512","Karema, Kec. Mamuju, Kabupaten Mamuju",SULAWESI BARAT,91512.0,Indonesia,81524333299.0,,,-2.6875662,118.8778488,https://maps.google.com/?cid=0x0:0x600c10af92b1cb4f,
toko bangunan,Toko,Toko Rijal,"VQWH+J2, Onang Utara, Kec. Tubo Sendana, Kabupaten Majene, Sulawesi Barat","Kabupaten Majene, Sulawesi Barat",SULAWESI BARAT,,Indonesia,,,,-3.1033541,118.7775952,https://maps.google.com/?cid=0x0:0x8f372777542957e6,
toko bangunan,Toko Bahan Bangunan,UD. Sinar Bangunan,"Jl. Andi Djemma No.156, Tompotika, Kec. Wara, Kota Palopo, Sulawesi Selatan 91911","Tompotika, Kec. Wara, Kota Palopo",SULAWESI BARAT,91911.0,Indonesia,83872566044.0,,,-3.0048234,120.1999173,https://maps.google.com/?cid=0x0:0x77c54f4e90c283ce,
toko bangunan,Toko Bahan Bangunan,Toko Setia Bangunan,"Panjelesang, Kec. Wara, Kota Palopo, Sulawesi Selatan 91922","Kec. Wara, Kota Palopo",SULAWESI BARAT,91922.0,Indonesia,83850311313.0,,,-3.0110653,120.1932268,https://maps.google.com/?cid=0x0:0xa1eb301d7f1a129f,
toko bangunan,Toko Bahan Bangunan,Misi Depo Bangunan Building Material Store,"X5XV+P8R, Amasangan, Kec. Wara, Kota Palopo, Sulawesi Selatan 91911","Amasangan, Kec. Wara, Kota Palopo",SULAWESI BARAT,91911.0,Indonesia,87853781683.0,,,-3.0005805,120.1933155,https://maps.google.com/?cid=0x0:0x2e3b052c74c79b3e,
toko bangunan,Toko Bahan Bangunan,TOKO BANGUNAN DENITA,"59M4+32R, Waetuo, Kec. Malangke Bar., Kabupaten Luwu Utara, Sulawesi Selatan","Kabupaten Luwu Utara, Sulawesi Selatan",SULAWESI BARAT,,Indonesia,85346549459.0,,,-2.8172625,120.3550156,https://maps.google.com/?cid=0x0:0x11a54b72782fa95a,
toko bangunan,Toko Bahan Bangunan,Toko Bangunan Sinar Baru,"Tomarundung, Kec. Wara Bar., Kota Palopo, Sulawesi Selatan 91913","Kec. Wara Bar., Kota Palopo",SULAWESI BARAT,91913.0,Indonesia,,,,-2.9994906,120.185718,https://maps.google.com/?cid=0x0:0x4c177e62c05eb85d,
toko bangunan,Pasar bahan bangunan,Toko Bangunan Wapon Jaya,"Jl. Sea induk, Sea I, Kec. Pineleng, Kabupaten Minahasa, Sulawesi Utara","Kabupaten Minahasa, Sulawesi Utara",SULAWESI BARAT,,Indonesia,85340309099.0,,,1.4291092,124.7997913,https://maps.google.com/?cid=0x0:0x2216e5af37ff6b7a,
toko bangunan,Toko,Toko Fajar Bangunan Majene,"pakkola, Jl. Mayjen Azis Bustam, Banggae, Kec. Banggae, Kabupaten Majene, Sulawesi Barat 91412","Jl. Mayjen Azis Bustam, Banggae, Kec. Banggae, Kabupaten Majene",SULAWESI BARAT,91412.0,Indonesia,81355566646.0,,,-3.5372746,118.9682725,https://maps.google.com/?cid=0x0:0xcfb27e4cdc8945d6,
toko bangunan,Toko Bahan Bangunan,Toko bangunan,"255R+8R9, Sabbamparu, Kec. Wara Utara, Kota Palopo, Sulawesi Selatan 91913","Sabbamparu, Kec. Wara Utara, Kota Palopo",SULAWESI BARAT,91913.0,Indonesia,,,,-2.9917026,120.1921207,https://maps.google.com/?cid=0x0:0xe09511e65d449f21,
toko bangunan,toko bangunan,Sulawesi Selatan 91959,"Kec. Sendana, Kota Palopo, Sulawesi Selatan","Kota Palopo, Sulawesi Selatan",SULAWESI BARAT,,Indonesia,,,,-3.0655982,120.1993381,https://maps.google.com/?cid=0x0:0xb66b64b75a7884a,
toko bangunan,Toko Bahan Bangunan,Toko Nirwana (Bahan Bangunan),"JR9X+R7M, Jl. Poros Majene - Mamuju, Mosso, Kec. Sendana, Kabupaten Majene, Sulawesi Barat 91452","Jl. Poros Majene - Mamuju, Mosso, Kec. Sendana, Kabupaten Majene",SULAWESI BARAT,91452.0,Indonesia,,,,-3.3804231,118.8481764,https://maps.google.com/?cid=0x0:0xcbd387ba5a895013,
toko bangunan,Toko Bahan Bangunan,TOKO TANDE BANGUNAN,"HV9F+HHF, Sirindu, Kec. Pamboang, Kabupaten Majene, Sulawesi Barat 91451","Sirindu, Kec. Pamboang, Kabupaten Majene",SULAWESI BARAT,91451.0,Indonesia,81355678743.0,,,-3.4309921,118.8737447,https://maps.google.com/?cid=0x0:0x9f14d6e95cc3fb49,
toko bangunan,Toko Perlengkapan Rumah,Putra Tande 3 Bonde-Bonde,"Onang Utara, Kec. Tubo Sendana, Kabupaten Majene, Sulawesi Barat 91452","Kec. Tubo Sendana, Kabupaten Majene",SULAWESI BARAT,91452.0,Indonesia,82345305663.0,,,-3.1158518,118.7819089,https://maps.google.com/?cid=0x0:0xe615d8cd0221ced5,
toko bangunan,Pusat Perbelanjaan,Toko Nirwana 3,"Mosso, Kec. Sendana, Kabupaten Majene, Sulawesi Barat 91452","Kec. Sendana, Kabupaten Majene",SULAWESI BARAT,91452.0,Indonesia,82190363282.0,,,-3.3696424,118.8490542,https://maps.google.com/?cid=0x0:0x1f86fe7f111052cd,
toko bangunan,Pembangunan Perumahan,Toko Bangunan Putra Tande 5 Tapalang,"Galung, Kec. Tapalang, Kabupaten Mamuju, Sulawesi Barat 91352","Kec. Tapalang, Kabupaten Mamuju",SULAWESI BARAT,91352.0,Indonesia,85397048983.0,,,-2.8651937,118.8702682,https://maps.google.com/?cid=0x0:0x5ece193e63138999,
toko bangunan,Toko Bahan Bangunan,Toko Sinar Bangunan,"M5MG+H8H, Jl. Poros Palu - Mamuju, Tarailu, Kec. Sampaga, Kabupaten Mamuju, Sulawesi Barat 91563","Jl. Poros Palu - Mamuju, Tarailu, Kec. Sampaga, Kabupaten Mamuju",SULAWESI BARAT,91563.0,Indonesia,81373974815.0,,,-2.3160629,119.1758478,https://maps.google.com/?cid=0x0:0xa07dffa29ee1a4e8,
toko bangunan,Toko,Toko Bangunan Satondo'ta,"V866+WC7, Sumarorong, Kec. Sumarorong, Kabupaten Mamasa, Sulawesi Barat 91361","Sumarorong, Kec. Sumarorong, Kabupaten Mamasa",SULAWESI BARAT,91361.0,Indonesia,81346669777.0,,,-3.1377039,119.311061,https://maps.google.com/?cid=0x0:0x7058556c45174885,
toko bangunan,Toko Bahan Bangunan,Toko. Fajar Bangunan - Mamuju,"8V6G+7WH, Jl. Diponegoro, Karema, Kec. Mamuju, Kabupaten Mamuju, Sulawesi Barat 91512","Jl. Diponegoro, Karema, Kec. Mamuju, Kabupaten Mamuju",SULAWESI BARAT,91512.0,Indonesia,85930982364.0,,,-2.689321,118.8773494,https://maps.google.com/?cid=0x0:0x6d4e74a959cf61d6,
toko bangunan,Toko Bahan Bangunan,Toko Bangunan,"H5J6+3Q9, Jl. Poros Majene - Mamuju, Topore, Kec. Papalang, Kabupaten Mamuju, Sulawesi Barat 91563","Jl. Poros Majene - Mamuju, Topore, Kec. Papalang, Kabupaten Mamuju",SULAWESI BARAT,91563.0,Indonesia,81264671628.0,,,-2.4197239,119.162057,https://maps.google.com/?cid=0x0:0xb8abda29e233da34,
toko bangunan,Toko Elektronik,Toko Adnanta Bangunan,"WQ8X+5F3, Rembon, Kec. Rembon, Kabupaten Tana Toraja, Sulawesi Selatan 91861","Rembon, Kec. Rembon, Kabupaten Tana Toraja",SULAWESI BARAT,91861.0,Indonesia,,,,-3.0846233,119.7986696,https://maps.google.com/?cid=0x0:0x8e8a2165c78196dc,
toko bangunan,Pusat Perbelanjaan,Toko bangunan argadinata,"Lemo-Lemo, Kec. Pangale, Kabupaten Mamuju, Sulawesi Barat 91462","Kec. Pangale, Kabupaten Mamuju",SULAWESI BARAT,91462.0,Indonesia,82331313118.0,,,-2.2972382,119.17566,https://maps.google.com/?cid=0x0:0x9eb6c7242139d7af,
toko bangunan,Toko Bahan Bangunan,Toko buyung bangunan,"5V55+QW8, Jl. Poros Majene - Mamuju, Tampalang, Kec. Tapalang, Kabupaten Mamuju, Sulawesi Barat 91352","Jl. Poros Majene - Mamuju, Tampalang, Kec. Tapalang, Kabupaten Mamuju",SULAWESI BARAT,91352.0,Indonesia,,,,-2.840579,118.8598397,https://maps.google.com/?cid=0x0:0xdaa7f0c9eeaba7c8,
toko bangunan,Toko Bahan Bangunan,Toko Multi Bangunan,"Jl. Diponegoro No.c14-15, Karema, Kec. Mamuju, Kabupaten Mamuju, Sulawesi Barat 91512","Karema, Kec. Mamuju, Kabupaten Mamuju",SULAWESI BARAT,91512.0,Indonesia,81242298806.0,,,-2.6862595,118.8768742,https://maps.google.com/?cid=0x0:0xd05c6306c1a3648f,
toko bangunan,Toko Bahan Bangunan,Toko Delta Bangunan,"8V6H+X4H, Karema, Kec. Mamuju, Kabupaten Mamuju, Sulawesi Barat 91512","Karema, Kec. Mamuju, Kabupaten Mamuju",SULAWESI BARAT,91512.0,Indonesia,81524333299.0,,,-2.6875662,118.8778488,https://maps.google.com/?cid=0x0:0x600c10af92b1cb4f,
toko bangunan,Toko,Toko Rijal,"VQWH+J2, Onang Utara, Kec. Tubo Sendana, Kabupaten Majene, Sulawesi Barat","Kabupaten Majene, Sulawesi Barat",SULAWESI BARAT,,Indonesia,,,,-3.1033541,118.7775952,https://maps.google.com/?cid=0x0:0x8f372777542957e6,
toko bangunan,Toko Bahan Bangunan,Toko Indo Bangunan,"JL A Jl. Syukur Rahim No.20-22, Banggae, Kec. Banggae, Kabupaten Majene, Sulawesi Barat","Kabupaten Majene, Sulawesi Barat",SULAWESI BARAT,,Indonesia,42221321.0,,,-3.544385,118.9661537,https://maps.google.com/?cid=0x0:0x79968e5059e72082,
toko bangunan,Toko Bahan Bangunan,Tk. Buana Bangunan,"8V7G+MJJ, Karema, Kec. Mamuju, Kabupaten Mamuju, Sulawesi Barat 91512","Karema, Kec. Mamuju, Kabupaten Mamuju",SULAWESI BARAT,91512.0,Indonesia,82179264696.0,,,-2.6857866,118.8765206,https://maps.google.com/?cid=0x0:0x8cdc46a0e8fa0fe6,
toko bangunan,Toko,Toko Fajar Bangunan Majene,"pakkola, Jl. Mayjen Azis Bustam, Banggae, Kec. Banggae, Kabupaten Majene, Sulawesi Barat 91412","Jl. Mayjen Azis Bustam, Banggae, Kec. Banggae, Kabupaten Majene",SULAWESI BARAT,91412.0,Indonesia,81355566646.0,,,-3.5372746,118.9682725,https://maps.google.com/?cid=0x0:0xcfb27e4cdc8945d6,
toko bangunan,Toko Perlengkapan Rumah,Toko Fajar Mas,"78R3+4XG, Jl. Poros Majene - Mamuju, Sarudu, Kec. Sarudu, Kab. Pasangkayu, Sulawesi Barat 91573","Jl. Poros Majene - Mamuju, Sarudu, Kec. Sarudu, Kab. Pasangkayu",SULAWESI BARAT,91573.0,Indonesia,,,,-1.7096903,119.3049596,https://maps.google.com/?cid=0x0:0x9228cd946562eccc,
toko bangunan,Pemasok Bahan Bangunan,TOKO RAYA BANGUNAN BUA,"W6GM+C9J, Jl. Poros, Tana Rigella, Kec. Bua, Kabupaten Luwu, Sulawesi Selatan 91991","Jl. Poros, Tana Rigella, Kec. Bua, Kabupaten Luwu",SULAWESI BARAT,91991.0,Indonesia,82186748523.0,,,-3.0739134,120.233404,https://maps.google.com/?cid=0x0:0xce423bfcb3e56754,
toko bangunan,Toko Bahan Bangunan,Mitra Bangunan BUA,"Jalan Poros Palopo - Belopa, Desa Tanarigela, Kec. Bua, Kabupaten Luwu, Sulawesi Selatan 91991","Desa Tanarigela, Kec. Bua, Kabupaten Luwu",SULAWESI BARAT,91991.0,Indonesia,82146821345.0,,,-3.0789722,120.2297447,https://maps.google.com/?cid=0x0:0x876d1787337287cd,
toko bangunan,Komplek perumahan,Perumahan sikombang mawangi,"W6W2+5VH, Purangi, perumahan sikombang, mawangi, Kota Palopo","Kota Palopo, Sulawesi Selatan",SULAWESI BARAT,,Indonesia,,,,-3.0545703,120.2022239,https://maps.google.com/?cid=0x0:0xb55d119e15e65b9f,
toko bangunan,Toko Bahan Bangunan,UD. Sinar Bangunan,"Jl. Andi Djemma No.156, Tompotika, Kec. Wara, Kota Palopo, Sulawesi Selatan 91911","Tompotika, Kec. Wara, Kota Palopo",SULAWESI BARAT,91911.0,Indonesia,83872566044.0,,,-3.0048234,120.1999173,https://maps.google.com/?cid=0x0:0x77c54f4e90c283ce,
toko bangunan,Toko Bahan Bangunan,Toko Setia Bangunan,"Panjelesang, Kec. Wara, Kota Palopo, Sulawesi Selatan 91922","Kec. Wara, Kota Palopo",SULAWESI BARAT,91922.0,Indonesia,83850311313.0,,,-3.0110653,120.1932268,https://maps.google.com/?cid=0x0:0xa1eb301d7f1a129f,
toko bangunan,Toko Bahan Bangunan,UD. Putra Tunggal,"X697+JXC, Songka, Kec. Wara Sel., Kota Palopo, Sulawesi Selatan 91921","Songka, Kec. Wara Sel., Kota Palopo",SULAWESI BARAT,91921.0,Indonesia,83160635264.0,,,-3.0309361,120.214875,https://maps.google.com/?cid=0x0:0x7cd196e87c0cce50,
toko bangunan,Toko Bahan Bangunan,TOKO BANGUNAN DENITA,"59M4+32R, Waetuo, Kec. Malangke Bar., Kabupaten Luwu Utara, Sulawesi Selatan","Kabupaten Luwu Utara, Sulawesi Selatan",SULAWESI BARAT,,Indonesia,85346549459.0,,,-2.8172625,120.3550156,https://maps.google.com/?cid=0x0:0x11a54b72782fa95a,
toko bangunan,Toko Bahan Bangunan,Misi Depo Bangunan Building Material Store,"X5XV+P8R, Amasangan, Kec. Wara, Kota Palopo, Sulawesi Selatan 91911","Amasangan, Kec. Wara, Kota Palopo",SULAWESI BARAT,91911.0,Indonesia,87853781683.0,,,-3.0005805,120.1933155,https://maps.google.com/?cid=0x0:0x2e3b052c74c79b3e,
toko bangunan,Toko Bahan Bangunan,Toko Bangunan Sinar Baru,"Tomarundung, Kec. Wara Bar., Kota Palopo, Sulawesi Selatan 91913","Kec. Wara Bar., Kota Palopo",SULAWESI BARAT,91913.0,Indonesia,,,,-2.9994906,120.185718,https://maps.google.com/?cid=0x0:0x4c177e62c05eb85d,
toko bangunan,toko bangunan,Kec. Sendana,"Kabupaten Majene, Sulawesi Barat","Kabupaten Majene, Sulawesi Barat",SULAWESI BARAT,,Indonesia,,,,-3.3754875,118.8481537,https://maps.google.com/?cid=0x0:0x347ca767410bf307,
toko bangunan,Toko Bahan Bangunan,TOKO TANDE BANGUNAN,"HV9F+HHF, Sirindu, Kec. Pamboang, Kabupaten Majene, Sulawesi Barat 91451","Sirindu, Kec. Pamboang, Kabupaten Majene",SULAWESI BARAT,91451.0,Indonesia,81355678743.0,,,-3.4309921,118.8737447,https://maps.google.com/?cid=0x0:0x9f14d6e95cc3fb49,
toko bangunan,Toko Bahan Bangunan,Toko bangunan Tande cemerlang,"FWQ2+RQX, Bababulo, Kec. Pamboang, Kabupaten Majene, Sulawesi Barat 91451","Bababulo, Kec. Pamboang, Kabupaten Majene",SULAWESI BARAT,91451.0,Indonesia,82191313585.0,,,-3.5103861,118.9019823,https://maps.google.com/?cid=0x0:0xc7d815cdd7c517de,
toko bangunan,Toko Bahan Bangunan,SAPUTRA BANGUNAN,"Jl. Platina 2, Curug, Kec. Gn. Sindur, Kabupaten Bogor, Jawa Barat 16340","Curug, Kec. Gn. Sindur, Kabupaten Bogor",SULAWESI BARAT,16340.0,Indonesia,81212271905.0,,,-6.3824674,106.7169128,https://maps.google.com/?cid=0x0:0xcfbfb9e9caa63c52,
toko bangunan,toko bangunan,Tubo,"Kec. Tubo Sendana, Kabupaten Majene, Sulawesi Barat","Kabupaten Majene, Sulawesi Barat",SULAWESI BARAT,,Indonesia,,,,-3.0987385,118.8188948,https://maps.google.com/?cid=0x0:0xb76634d6c060e8ad,
toko bangunan,Toko Perlengkapan Rumah,Putra Tande 3 Bonde-Bonde,"Onang Utara, Kec. Tubo Sendana, Kabupaten Majene, Sulawesi Barat 91452","Kec. Tubo Sendana, Kabupaten Majene",SULAWESI BARAT,91452.0,Indonesia,82345305663.0,,,-3.1158518,118.7819089,https://maps.google.com/?cid=0x0:0xe615d8cd0221ced5,
toko bangunan,Jembatan,Jembatan Tubo,"WR3H+RVF, Jl. Poros Majene - Mamuju, Tubo, Kec. Tubo Sendana, Kabupaten Majene, Sulawesi Barat 91452","Jl. Poros Majene - Mamuju, Tubo, Kec. Tubo Sendana, Kabupaten Majene",SULAWESI BARAT,91452.0,Indonesia,,,,-3.0954496,118.8296597,https://maps.google.com/?cid=0x0:0xb47fec8de3cca407,
toko bangunan,Toko,Toko Rijal,"VQWH+J2, Onang Utara, Kec. Tubo Sendana, Kabupaten Majene, Sulawesi Barat","Kabupaten Majene, Sulawesi Barat",SULAWESI BARAT,,Indonesia,,,,-3.1033541,118.7775952,https://maps.google.com/?cid=0x0:0x8f372777542957e6,
toko bangunan,Toko Bahan Bangunan,Toko Indo Bangunan,"JL A Jl. Syukur Rahim No.20-22, Banggae, Kec. Banggae, Kabupaten Majene, Sulawesi Barat","Kabupaten Majene, Sulawesi Barat",SULAWESI BARAT,,Indonesia,42221321.0,,,-3.544385,118.9661537,https://maps.google.com/?cid=0x0:0x79968e5059e72082,
toko bangunan,Masjid,Masjid Haqqul Yaqin Dusun Tubo Masigi,"WR4J+389, Tubo, Kec. Tubo Sendana, Kabupaten Majene, Sulawesi Barat 91452","Tubo, Kec. Tubo Sendana, Kabupaten Majene",SULAWESI BARAT,91452.0,Indonesia,,,,-3.0948349,118.8308474,https://maps.google.com/?cid=0x0:0x4dfe38c0d73c2d4f,
toko bangunan,toko bangunan,Sulawesi Barat 91453,"Kabupaten Majene, Sulawesi Barat","Kabupaten Majene, Sulawesi Barat",SULAWESI BARAT,,Indonesia,,,,-3.0270061,118.9994357,https://maps.google.com/?cid=0x0:0xbece4f3ae0e9d313,
toko bangunan,Pembangunan Perumahan,Toko Bangunan Putra Tande 5 Tapalang,"Galung, Kec. Tapalang, Kabupaten Mamuju, Sulawesi Barat 91352","Kec. Tapalang, Kabupaten Mamuju",SULAWESI BARAT,91352.0,Indonesia,85397048983.0,,,-2.8651937,118.8702682,https://maps.google.com/?cid=0x0:0x5ece193e63138999,
toko bangunan,Toko Bahan Bangunan,Toko Multi Bangunan,"Jl. Diponegoro No.c14-15, Karema, Kec. Mamuju, Kabupaten Mamuju, Sulawesi Barat 91512","Karema, Kec. Mamuju, Kabupaten Mamuju",SULAWESI BARAT,91512.0,Indonesia,81242298806.0,,,-2.6862595,118.8768742,https://maps.google.com/?cid=0x0:0xd05c6306c1a3648f,
toko bangunan,Toko Bahan Bangunan,Sinar Tammaende,"XVP4+FFQ, Malunda, Kec. Malunda, Kabupaten Majene, Sulawesi Barat 91453","Malunda, Kec. Malunda, Kabupaten Majene",SULAWESI BARAT,91453.0,Indonesia,81264671628.0,,,-3.0137983,118.8562415,https://maps.google.com/?cid=0x0:0x57eeaac6e5d11e2e,
toko bangunan,Toko Bahan Bangunan,Toko Putra Tande 4 (Maliaya),"3VGH+G24, Maliaya, Kec. Malunda, Kabupaten Majene, Sulawesi Barat 91453","Maliaya, Kec. Malunda, Kabupaten Majene",SULAWESI BARAT,91453.0,Indonesia,,,,-2.9237401,118.8775631,https://maps.google.com/?cid=0x0:0x99c69afa8b83e91f,
toko bangunan,Toko bahan makanan,Toko Putra tande 7,"QR3R+Q9W, Tammerodo, Kabupaten Majene, Sulawesi Barat 91452","Tammerodo, Kabupaten Majene",SULAWESI BARAT,91452.0,Indonesia,81355815014.0,,,-3.2455166,118.8409444,https://maps.google.com/?cid=0x0:0x58455cbd3c6a0972,
toko bangunan,Toko Bahan Bangunan,TOKO TANDE BANGUNAN,"HV9F+HHF, Sirindu, Kec. Pamboang, Kabupaten Majene, Sulawesi Barat 91451","Sirindu, Kec. Pamboang, Kabupaten Majene",SULAWESI BARAT,91451.0,Indonesia,81355678743.0,,,-3.4309921,118.8737447,https://maps.google.com/?cid=0x0:0x9f14d6e95cc3fb49,
toko bangunan,Toko Perlengkapan Rumah,Putra Tande 3 Bonde-Bonde,"Onang Utara, Kec. Tubo Sendana, Kabupaten Majene, Sulawesi Barat 91452","Kec. Tubo Sendana, Kabupaten Majene",SULAWESI BARAT,91452.0,Indonesia,82345305663.0,,,-3.1158518,118.7819089,https://maps.google.com/?cid=0x0:0xe615d8cd0221ced5,
toko bangunan,Toko Perlengkapan Rumah,Toko Abshar,"2V84+R5J, Jl. Poros Majene - Mamuju, desa lombongIndonesia, Kec. Malunda, Kabupaten Majene, Sulawesi Barat","Kabupaten Majene, Sulawesi Barat",SULAWESI BARAT,,Indonesia,,,,-2.9829124,118.8553929,https://maps.google.com/?cid=0x0:0x44732a91e7a6036c,
toko bangunan,Perusahaan Konstruksi,Toko bangunan surya utama,"GV3W+R73, Jl. Poros Majene - Mamuju, Lalampanua, Kec. Pamboang, Kabupaten Majene, Sulawesi Barat 91451","Jl. Poros Majene - Mamuju, Lalampanua, Kec. Pamboang, Kabupaten Majene",SULAWESI BARAT,91451.0,Indonesia,,,,-3.4804914,118.8877015,https://maps.google.com/?cid=0x0:0x9a49d44f88b606f1,
toko bangunan,Toko Bahan Bangunan,Putra Tande 4 (Nippon Paint),"XVG6+QCM, Jl. Poros Majene - Mamuju, Malunda, Kec. Malunda, Kabupaten Majene, Sulawesi Barat 91453","Jl. Poros Majene - Mamuju, Malunda, Kec. Malunda, Kabupaten Majene",SULAWESI BARAT,91453.0,Indonesia,85299671888.0,,,-3.0230286,118.8610354,https://maps.google.com/?cid=0x0:0x4ed34d92a7605a67,
toko bangunan,Toko Bahan Bangunan,Toko Indo Bangunan,"JL A Jl. Syukur Rahim No.20-22, Banggae, Kec. Banggae, Kabupaten Majene, Sulawesi Barat","Kabupaten Majene, Sulawesi Barat",SULAWESI BARAT,,Indonesia,42221321.0,,,-3.544385,118.9661537,https://maps.google.com/?cid=0x0:0x79968e5059e72082,
toko bangunan,Toko Bahan Bangunan,TOKO FAJAR BANGUNAN MAPILLI,"Jl. Poros Majene - Mamuju, Baru, Kec. Luyo, Kabupaten Polewali Mandar, Sulawesi Barat 91352","Baru, Kec. Luyo, Kabupaten Polewali Mandar",SULAWESI BARAT,91352.0,Indonesia,82292595546.0,,,-3.4189333,119.164406,https://maps.google.com/?cid=0x0:0x89a76f2924e54666,
toko bangunan,Toko Bahan Bangunan,Toko Bangunan HJ. Nani hj.ramli,"M62P+8MG, Jl. Banato, Pelitakan, Kec. Tapango, Kabupaten Polewali Mandar, Sulawesi Barat 91352","Jl. Banato, Pelitakan, Kec. Tapango, Kabupaten Polewali Mandar",SULAWESI BARAT,91352.0,Indonesia,81373974815.0,,,-3.3491764,119.236703,https://maps.google.com/?cid=0x0:0x2079d8406ccc2bed,
toko bangunan,Toko Bahan Bangunan,Toko Bangunan Usaha Abadi,"25HW+2JC, Bambang Buda, Kec. Rantebulahan Tim., Kabupaten Mamasa, Sulawesi Barat 91371","Bambang Buda, Kec. Rantebulahan Tim., Kabupaten Mamasa",SULAWESI BARAT,91371.0,Indonesia,81264671628.0,,,-2.9724282,119.1965086,https://maps.google.com/?cid=0x0:0xae0c94fbc2df0fdf,
toko bangunan,Toko Bahan Bangunan,Putra Tande 3 Parabaya,"RRV8+MJ6, Jl. Poros Majene - Mamuju, Onang, Kec. Tubo Sendana, Kabupaten Majene, Sulawesi Barat 91452","Jl. Poros Majene - Mamuju, Onang, Kec. Tubo Sendana, Kabupaten Majene",SULAWESI BARAT,91452.0,Indonesia,,,,-3.1558429,118.816509,https://maps.google.com/?cid=0x0:0x67f2a81238280018,
toko bangunan,Toko Bahan Bangunan,Toko Mapan Bangunan,"J66F+CVP, Sumberejo, Kec. Wonomulyo, Kabupaten Polewali Mandar, Sulawesi Barat 91352","Sumberejo, Kec. Wonomulyo, Kabupaten Polewali Mandar",SULAWESI BARAT,91352.0,Indonesia,82190955225.0,,,-3.3889059,119.2247017,https://maps.google.com/?cid=0x0:0xaad22bfe1044cd4e,
toko bangunan,Toko bahan makanan,TB Cahaya Wajo,"XVX4+4P9, Jl. Poros Majene - Mamuju, Malunda, Kec. Malunda, Kabupaten Majene, Sulawesi Barat 91453","Jl. Poros Majene - Mamuju, Malunda, Kec. Malunda, Kabupaten Majene",SULAWESI BARAT,91453.0,Indonesia,,,,-3.0022185,118.8568712,https://maps.google.com/?cid=0x0:0x52e89b755b752568,
toko bangunan,Toko,Toko Fajar Bangunan Majene,"pakkola, Jl. Mayjen Azis Bustam, Banggae, Kec. Banggae, Kabupaten Majene, Sulawesi Barat 91412","Jl. Mayjen Azis Bustam, Banggae, Kec. Banggae, Kabupaten Majene",SULAWESI BARAT,91412.0,Indonesia,81355566646.0,,,-3.5372746,118.9682725,https://maps.google.com/?cid=0x0:0xcfb27e4cdc8945d6,
toko bangunan,Komplek perumahan,Toko Bangunan,"HX6Q+XJQ, Mombi, Alu, Kabupaten Polewali Mandar, Sulawesi Barat 91413","Mombi, Alu, Kabupaten Polewali Mandar",SULAWESI BARAT,91413.0,Indonesia,,,,-3.4375335,118.9891104,https://maps.google.com/?cid=0x0:0xb7711384df6bd4b0,
toko bangunan,Toko Bahan Bangunan,Toko Makmur Bangunan,"Jln. Jen. A. Yani No. 001, Bunde, Kec. Sampaga, Kabupaten Mamuju, Sulawesi Barat 91563","Bunde, Kec. Sampaga, Kabupaten Mamuju",SULAWESI BARAT,91563.0,Indonesia,82259648049.0,,,-2.3398082,119.1750407,https://maps.google.com/?cid=0x0:0x901692040dff7a42,
toko bangunan,Toko Bahan Bangunan,Toko Bangunan Putra Tande Lombang-Lombang,"C2GP+7RQ, lombang-lombang, Sinyonyoi, Kec. Kalukku, Kabupaten Mamuju, Sulawesi Barat 91561","lombang-lombang, Sinyonyoi, Kec. Kalukku, Kabupaten Mamuju",SULAWESI BARAT,91561.0,Indonesia,82398888856.0,,,-2.5742542,119.0368658,https://maps.google.com/?cid=0x0:0xfd16ae7e2f3692d9,
toko bangunan,Toko Bahan Bangunan,Toko. Fajar Bangunan - Mamuju,"8V6G+7WH, Jl. Diponegoro, Karema, Kec. Mamuju, Kabupaten Mamuju, Sulawesi Barat 91512","Jl. Diponegoro, Karema, Kec. Mamuju, Kabupaten Mamuju",SULAWESI BARAT,91512.0,Indonesia,85930982364.0,,,-2.689321,118.8773494,https://maps.google.com/?cid=0x0:0x6d4e74a959cf61d6,
toko bangunan,Toko Bahan Bangunan,Toko Bangunan 79,"8V8J+3MF, Karema, Kec. Mamuju, Kabupaten Mamuju, Sulawesi Barat 91511","Karema, Kec. Mamuju, Kabupaten Mamuju",SULAWESI BARAT,91511.0,Indonesia,,,,-2.684817,118.8816695,https://maps.google.com/?cid=0x0:0x101d0b0f58da7e81,
toko bangunan,Toko Bahan Bangunan,UD.MANDIRI 02,"RANTESEPANG, Balla Satanetean, Kec. Balla, Kabupaten Mamasa, Sulawesi Barat 91362","Balla Satanetean, Kec. Balla, Kabupaten Mamasa",SULAWESI BARAT,91362.0,Indonesia,85256417793.0,,,-2.9909045,119.3330361,https://maps.google.com/?cid=0x0:0x5a65537a052ddc36,
toko bangunan,Toko Bahan Bangunan,Toko Sinar Bangunan,"M5MG+H8H, Jl. Poros Palu - Mamuju, Tarailu, Kec. Sampaga, Kabupaten Mamuju, Sulawesi Barat 91563","Jl. Poros Palu - Mamuju, Tarailu, Kec. Sampaga, Kabupaten Mamuju",SULAWESI BARAT,91563.0,Indonesia,81373974815.0,,,-2.3160629,119.1758478,https://maps.google.com/?cid=0x0:0xa07dffa29ee1a4e8,
toko bangunan,Toko,TOKO UD.SIDOMULYO,"Salobaja, Kec. Tobadak, Kabupaten Mamuju Tengah, Sulawesi Barat 91563","Kec. Tobadak, Kabupaten Mamuju Tengah",SULAWESI BARAT,91563.0,Indonesia,85340789642.0,,,-2.1394203,119.3670683,https://maps.google.com/?cid=0x0:0xf8a1ba2a1c047de3,
toko bangunan,Toko Bahan Bangunan,Toko Sukses Bangunan,"Jl. Jend. Sudirman No.7A, Wawondula, Kec. Towuti, Kabupaten Luwu Timur, Sulawesi Selatan 92982","Wawondula, Kec. Towuti, Kabupaten Luwu Timur",SULAWESI BARAT,92982.0,Indonesia,85185536567.0,,,-2.635105,121.3693165,https://maps.google.com/?cid=0x0:0x29a597b424e520fa,
hardware store,hardware store,Banggae,"Kec. Banggae, Kabupaten Majene, Sulawesi Barat","Kabupaten Majene, Sulawesi Barat",SULAWESI BARAT,,Indonesia,,,,-3.5282697,118.9674195,https://maps.google.com/?cid=0x0:0xff8e6fe09c57690d,
hardware store,Toko,Toko Fajar Bangunan Majene,"pakkola, Jl. Mayjen Azis Bustam, Banggae, Kec. Banggae, Kabupaten Majene, Sulawesi Barat 91412","Jl. Mayjen Azis Bustam, Banggae, Kec. Banggae, Kabupaten Majene",SULAWESI BARAT,91412.0,Indonesia,81355566646.0,,,-3.5372746,118.9682725,https://maps.google.com/?cid=0x0:0xcfb27e4cdc8945d6,
hardware store,Toko Bahan Bangunan,Toko Indo Bangunan,"JL A Jl. Syukur Rahim No.20-22, Banggae, Kec. Banggae, Kabupaten Majene, Sulawesi Barat","Kabupaten Majene, Sulawesi Barat",SULAWESI BARAT,,Indonesia,42221321.0,,,-3.544385,118.9661537,https://maps.google.com/?cid=0x0:0x79968e5059e72082,
hardware store,Toko Bahan Bangunan,METRO,"Jl. Jend. Sudirman No.8, Labuang, Kec. Banggae Tim., Kabupaten Majene, Sulawesi Barat 91412","Labuang, Kec. Banggae Tim., Kabupaten Majene",SULAWESI BARAT,91412.0,Indonesia,42222047.0,,,-3.543368,118.9692323,https://maps.google.com/?cid=0x0:0x3a8d6b891e342471,
hardware store,Toko Bahan Bangunan,Toko Fajar,"Jl. K.H. Muh. Saleh No.49, Labuang, Kec. Banggae Tim., Kabupaten Majene, Sulawesi Barat 91412","Labuang, Kec. Banggae Tim., Kabupaten Majene",SULAWESI BARAT,91412.0,Indonesia,,,,-3.5416368,118.9730687,https://maps.google.com/?cid=0x0:0x4ebb29b503978d8,
hardware store,Toko Bahan Bangunan,Toko Pelita,"Jl. Lanto Dg. Pasewang No.2, Labuang, Kec. Banggae Tim., Kabupaten Majene, Sulawesi Barat 91412","Labuang, Kec. Banggae Tim., Kabupaten Majene",SULAWESI BARAT,91412.0,Indonesia,,,,-3.5390985,118.9696345,https://maps.google.com/?cid=0x0:0x96e400127005d839,
hardware store,Toko Bahan Bangunan,TB. In-Dini Warna,"FX49+H83, Jl. Muh. Yusuf Pusat Pertokoan, Banggae, Majene Regency, West Sulawesi 91412","Jl. Muh. Yusuf Pusat Pertokoan, Banggae, Majene Regency",SULAWESI BARAT,91412.0,Indonesia,85255272937.0,,,-3.5436182,118.9683021,https://maps.google.com/?cid=0x0:0xdcbde59548fd4980,
hardware store,Toko Bahan Bangunan,toko Pelita Mandar,"Jl. Mayjend. Azis Bustan No.68, Banggae, Kec. Banggae, Kabupaten Majene, Sulawesi Barat 91412","Banggae, Kec. Banggae, Kabupaten Majene",SULAWESI BARAT,91412.0,Indonesia,,,,-3.5392454,118.9680327,https://maps.google.com/?cid=0x0:0xc926e8265a0d43,
hardware store,Toko Bahan Bangunan,TOKO HENDY HERMAN,"FX79+3PP, Banggae, Kec. Banggae, Kabupaten Majene, Sulawesi Barat 91412","Banggae, Kec. Banggae, Kabupaten Majene",SULAWESI BARAT,91412.0,Indonesia,81242822254.0,,,-3.5372816,118.9693197,https://maps.google.com/?cid=0x0:0x4c79b7975f57ff0a,
hardware store,Toko Swalayan,PT. SIKAPAIYA MM,"FX4C+J5C, Jl. Jend. Sudirman, Labuang, Kec. Banggae Tim., Kabupaten Majene, Sulawesi Barat 91412","Jl. Jend. Sudirman, Labuang, Kec. Banggae Tim., Kabupaten Majene",SULAWESI BARAT,91412.0,Indonesia,82187417676.0,,,-3.5434411,118.970398,https://maps.google.com/?cid=0x0:0xb9d96517d6f27205,
hardware store,hardware store,Kama Kasmia Family,"Lembang Jl. AMD No.2, Lembang Jl. AMD No.2, Baurung, Kec. Banggae Tim., Kabupaten Majene, Sulawesi Barat 91412","Lembang Jl. AMD No.2, Baurung, Kec. Banggae Tim., Kabupaten Majene",SULAWESI BARAT,91412.0,Indonesia,82313525999.0,,,-3.5452975,118.9834896,https://maps.google.com/?cid=0x0:0x1e6a7b02c07937ec,
hardware store,Pusat Perbelanjaan,Pasar Sentral Majene,"FX69+GM7, Banggae, Kec. Banggae, Kabupaten Majene, Sulawesi Barat 91412","Banggae, Kec. Banggae, Kabupaten Majene",SULAWESI BARAT,91412.0,Indonesia,82351451083.0,,,-3.5387032,118.9691675,https://maps.google.com/?cid=0x0:0x4bffc444b6e6d47e,
hardware store,Toko Fotokopi,FOTOCOPY ANGKASA,"Jl. Lanto Dg. Pasewang, Banggae, Kec. Banggae, Kabupaten Majene, Sulawesi Barat 91412","Banggae, Kec. Banggae, Kabupaten Majene",SULAWESI BARAT,91412.0,Indonesia,,,,-3.5363502,118.9695719,https://maps.google.com/?cid=0x0:0x4043038e73e5eea6,
hardware store,Toko Bahan Bangunan,Toko Rezeki Fajar,"Jl. Sultan hasanuddin, Tande, lutang, Kabupaten Majene, Sulawesi Barat 91412","Tande, lutang, Kabupaten Majene",SULAWESI BARAT,91412.0,Indonesia,,,,-3.532758,118.9975397,https://maps.google.com/?cid=0x0:0x37bd7d2dadf86d2c,
hardware store,Toko,FOTOCOPY AULYA,"Jl. Poros Majene- Mamuju No.145, Garo'go, Baru, Kec. Banggae, Kabupaten Majene, Sulawesi Barat","Kabupaten Majene, Sulawesi Barat",SULAWESI BARAT,,Indonesia,85340403686.0,,,-3.5483364,118.9533977,https://maps.google.com/?cid=0x0:0x21267b4370a242f3,
hardware store,Layanan Binatu,My laundry,"FX4F+9G6, Jl. Poros Majene - Mamuju, Labuang, Kec. Banggae Tim., Kabupaten Majene, Sulawesi Barat 91412","Jl. Poros Majene - Mamuju, Labuang, Kec. Banggae Tim., Kabupaten Majene",SULAWESI BARAT,91412.0,Indonesia,82339518764.0,,,-3.5440794,118.9737639,https://maps.google.com/?cid=0x0:0x4c049ef4eb91fbc0,
hardware store,Toko Bahan Bangunan,Studio City Ace Hardware,"13241 Ventura Blvd, Studio City, CA 91604, Amerika Serikat",Ventura Blvd,SULAWESI BARAT,13241.0,Indonesia,18187846274.0,,,34.146592,-118.421101,https://maps.google.com/?cid=0x0:0x6b1b0970cdfbb819,
hardware store,Toko Bahan Bangunan,Ace Hardware of Van Nuys,"5960 Sepulveda Blvd, Van Nuys, CA 91411, Amerika Serikat","Van Nuys, CA",SULAWESI BARAT,91411.0,Indonesia,18184539537.0,,,34.1780669,-118.4642897,https://maps.google.com/?cid=0x0:0x21f420b7bcf0bb14,
hardware store,hardware store,Sulawesi Barat 91415,"Kec. Banggae, Kabupaten Majene, Sulawesi Barat","Kabupaten Majene, Sulawesi Barat",SULAWESI BARAT,,Indonesia,,,,-3.5405453,118.9353968,https://maps.google.com/?cid=0x0:0x79fb9d43a72e97bf,
hardware store,Toko,Toko Fajar Bangunan Majene,"pakkola, Jl. Mayjen Azis Bustam, Banggae, Kec. Banggae, Kabupaten Majene, Sulawesi Barat 91412","Jl. Mayjen Azis Bustam, Banggae, Kec. Banggae, Kabupaten Majene",SULAWESI BARAT,91412.0,Indonesia,81355566646.0,,,-3.5372746,118.9682725,https://maps.google.com/?cid=0x0:0xcfb27e4cdc8945d6,
hardware store,Toko Bahan Bangunan,Toko Indo Bangunan,"JL A Jl. Syukur Rahim No.20-22, Banggae, Kec. Banggae, Kabupaten Majene, Sulawesi Barat","Kabupaten Majene, Sulawesi Barat",SULAWESI BARAT,,Indonesia,42221321.0,,,-3.544385,118.9661537,https://maps.google.com/?cid=0x0:0x79968e5059e72082,
hardware store,Toko Bahan Bangunan,Toko Pelita,"Jl. Lanto Dg. Pasewang No.2, Labuang, Kec. Banggae Tim., Kabupaten Majene, Sulawesi Barat 91412","Labuang, Kec. Banggae Tim., Kabupaten Majene",SULAWESI BARAT,91412.0,Indonesia,,,,-3.5390985,118.9696345,https://maps.google.com/?cid=0x0:0x96e400127005d839,
hardware store,Toko Elektronik,PLANET KOMPUTER MURI,"FX22+H7P, Baru, Kec. Banggae, Kabupaten Majene, Sulawesi Barat","Kabupaten Majene, Sulawesi Barat",SULAWESI BARAT,,Indonesia,85255646509.0,,,-3.5485305,118.9507182,https://maps.google.com/?cid=0x0:0xfd1fe3ea8d20b12,
hardware store,Toko Bahan Bangunan,TOKO HENDY HERMAN,"FX79+3PP, Banggae, Kec. Banggae, Kabupaten Majene, Sulawesi Barat 91412","Banggae, Kec. Banggae, Kabupaten Majene",SULAWESI BARAT,91412.0,Indonesia,81242822254.0,,,-3.5372816,118.9693197,https://maps.google.com/?cid=0x0:0x4c79b7975f57ff0a,
hardware store,Toko Elektronik,Taman Langit Computer,"FX22+X3C, Baru, Kec. Banggae, Kabupaten Majene, Sulawesi Barat","Kabupaten Majene, Sulawesi Barat",SULAWESI BARAT,,Indonesia,82189137420.0,,,-3.5475652,118.9501475,https://maps.google.com/?cid=0x0:0x935597516a36c5a6,
hardware store,Toko Komputer,QK KOMPUTER MAJENE,"FX24+9M4, Jalan Poros Majene - Mamuju, Tanangan, Depan Makam Pahlawan, Pangali-Ali, Kec. Banggae, Kabupaten Majene, Sulawesi Barat","Kabupaten Majene, Sulawesi Barat",SULAWESI BARAT,,Indonesia,8114451434.0,,,-3.5491117,118.9567098,https://maps.google.com/?cid=0x0:0x9a48b820eb76e37b,
hardware store,Toko Bahan Bangunan,Toko Rezeki Fajar,"Jl. Sultan hasanuddin, Tande, lutang, Kabupaten Majene, Sulawesi Barat 91412","Tande, lutang, Kabupaten Majene",SULAWESI BARAT,91412.0,Indonesia,,,,-3.532758,118.9975397,https://maps.google.com/?cid=0x0:0x37bd7d2dadf86d2c,
hardware store,Toko Elektronik,SINAR KOMPUTER MAJENE,"Jl. Poros Majene - Mamuju, Labuang, Kec. Banggae Tim., Kabupaten Majene, Sulawesi Barat 91412","Labuang, Kec. Banggae Tim., Kabupaten Majene",SULAWESI BARAT,91412.0,Indonesia,,,,-3.5442961,118.9721751,https://maps.google.com/?cid=0x0:0x83f9ce0c0571c9bf,
hardware store,Toko Komputer,QK COMPUTER,"Jl. Gatot Subroto, Pangali-Ali, Kec. Banggae, Kabupaten Majene, Sulawesi Barat 91415","Pangali-Ali, Kec. Banggae, Kabupaten Majene",SULAWESI BARAT,91415.0,Indonesia,8114451434.0,,,-3.5458952,118.9619496,https://maps.google.com/?cid=0x0:0x510a6e337bf1cfd6,
hardware store,Toko Elektronik,EVOLUTION COMPUTER,"FX89+RVR, Banggae, Kec. Banggae, Kabupaten Majene, Sulawesi Barat 91412","Banggae, Kec. Banggae, Kabupaten Majene",SULAWESI BARAT,91412.0,Indonesia,82193568445.0,,,-3.5328895,118.9696323,https://maps.google.com/?cid=0x0:0x19b0b510ab9a050f,
hardware store,hardware store,Banggae,"Kec. Banggae, Kabupaten Majene, Sulawesi Barat","Kabupaten Majene, Sulawesi Barat",SULAWESI BARAT,,Indonesia,,,,-3.5282697,118.9674195,https://maps.google.com/?cid=0x0:0xff8e6fe09c57690d,
hardware store,Toko Bahan Bangunan,METRO,"Jl. Jend. Sudirman No.8, Labuang, Kec. Banggae Tim., Kabupaten Majene, Sulawesi Barat 91412","Labuang, Kec. Banggae Tim., Kabupaten Majene",SULAWESI BARAT,91412.0,Indonesia,42222047.0,,,-3.543368,118.9692323,https://maps.google.com/?cid=0x0:0x3a8d6b891e342471,
hardware store,Toko Swalayan,PT. SIKAPAIYA MM,"FX4C+J5C, Jl. Jend. Sudirman, Labuang, Kec. Banggae Tim., Kabupaten Majene, Sulawesi Barat 91412","Jl. Jend. Sudirman, Labuang, Kec. Banggae Tim., Kabupaten Majene",SULAWESI BARAT,91412.0,Indonesia,82187417676.0,,,-3.5434411,118.970398,https://maps.google.com/?cid=0x0:0xb9d96517d6f27205,
hardware store,Pemasok Bahan Bangunan,TOKO ASIA TIMUR (BAHAN BANGUNAN),"FX69+XQP, Jl. Lanto Dg. Pasewang, Banggae, Kec. Banggae, Kabupaten Majene, Sulawesi Barat 91412","Jl. Lanto Dg. Pasewang, Banggae, Kec. Banggae, Kabupaten Majene",SULAWESI BARAT,91412.0,Indonesia,4222420265.0,,,-3.5375355,118.9694601,https://maps.google.com/?cid=0x0:0xa219d91ef34acc13,
hardware store,Toko Bahan Bangunan,Fajar Mas Toko,"Jl. Lanto Dg. Pasewang No.2, Labuang, Kec. Banggae Tim., Kabupaten Majene, Sulawesi Barat 91412","Labuang, Kec. Banggae Tim., Kabupaten Majene",SULAWESI BARAT,91412.0,Indonesia,81241509242.0,,,-3.5389993,118.9695441,https://maps.google.com/?cid=0x0:0x77644e45e24c0e13,
hardware store,Toko Elektronik,M3 Home Teknik,"Jl. Jend. Sudirman No.68, Labuang, Kec. Banggae Tim., Kabupaten Majene, Sulawesi Barat 91412","Labuang, Kec. Banggae Tim., Kabupaten Majene",SULAWESI BARAT,91412.0,Indonesia,85103151123.0,,,-3.5444698,118.9722867,https://maps.google.com/?cid=0x0:0x149d32da84e6cd18,
hardware store,Toko Bahan Bangunan,toko Pelita Mandar,"Jl. Mayjend. Azis Bustan No.68, Banggae, Kec. Banggae, Kabupaten Majene, Sulawesi Barat 91412","Banggae, Kec. Banggae, Kabupaten Majene",SULAWESI BARAT,91412.0,Indonesia,,,,-3.5392454,118.9680327,https://maps.google.com/?cid=0x0:0xc926e8265a0d43,
hardware store,Toko,Denker Outdoor,"Jl. Manunggal Lingk. Galung Tengah, Galung, Kec. Banggae, Kabupaten Majene, Sulawesi Barat 91412","Galung, Kec. Banggae, Kabupaten Majene",SULAWESI BARAT,91412.0,Indonesia,81244680841.0,,,-3.5286649,118.9696115,https://maps.google.com/?cid=0x0:0x5858f87407513469,
hardware store,hardware store,Kama Kasmia Family,"Lembang Jl. AMD No.2, Lembang Jl. AMD No.2, Baurung, Kec. Banggae Tim., Kabupaten Majene, Sulawesi Barat 91412","Lembang Jl. AMD No.2, Baurung, Kec. Banggae Tim., Kabupaten Majene",SULAWESI BARAT,91412.0,Indonesia,82313525999.0,,,-3.5452975,118.9834896,https://maps.google.com/?cid=0x0:0x1e6a7b02c07937ec,
hardware store,Grosir Beras,TOKO BERAS UD. BERSAMA,"FW2X+57X, Totoli, Kec. Banggae, Kabupaten Majene, Sulawesi Barat 91415","Totoli, Kec. Banggae, Kabupaten Majene",SULAWESI BARAT,91415.0,Indonesia,85394684336.0,,,-3.5495062,118.9482307,https://maps.google.com/?cid=0x0:0x8ac716204c44331,
hardware store,Toko,MR.DIY,"Jl. Jend. Sudirman No.31, Labuang, Kec. Banggae Tim., Kabupaten Majene, Sulawesi Barat 91412","Labuang, Kec. Banggae Tim., Kabupaten Majene",SULAWESI BARAT,91412.0,Indonesia,,,,-3.5457566,118.9781385,https://maps.google.com/?cid=0x0:0x4341eca963312626,
hardware store,Pusat Perbelanjaan,Pasar Sentral Majene,"FX69+GM7, Banggae, Kec. Banggae, Kabupaten Majene, Sulawesi Barat 91412","Banggae, Kec. Banggae, Kabupaten Majene",SULAWESI BARAT,91412.0,Indonesia,82351451083.0,,,-3.5387032,118.9691675,https://maps.google.com/?cid=0x0:0x4bffc444b6e6d47e,
hardware store,Toko Bahan Bangunan,TB. In-Dini Warna,"FX49+H83, Jl. Muh. Yusuf Pusat Pertokoan, Banggae, Majene Regency, West Sulawesi 91412","Jl. Muh. Yusuf Pusat Pertokoan, Banggae, Majene Regency",SULAWESI BARAT,91412.0,Indonesia,85255272937.0,,,-3.5436182,118.9683021,https://maps.google.com/?cid=0x0:0xdcbde59548fd4980,
hardware store,Toko Fotokopi,FOTOCOPY ANGKASA,"Jl. Lanto Dg. Pasewang, Banggae, Kec. Banggae, Kabupaten Majene, Sulawesi Barat 91412","Banggae, Kec. Banggae, Kabupaten Majene",SULAWESI BARAT,91412.0,Indonesia,,,,-3.5363502,118.9695719,https://maps.google.com/?cid=0x0:0x4043038e73e5eea6,
hardware store,hardware store,Sulawesi Barat 91411,"Kabupaten Majene, Sulawesi Barat","Kabupaten Majene, Sulawesi Barat",SULAWESI BARAT,,Indonesia,,,,-3.477543,118.9470422,https://maps.google.com/?cid=0x0:0x1c73f38c478ef4ab,
hardware store,Toko Bahan Bangunan,Toko Indo Bangunan,"JL A Jl. Syukur Rahim No.20-22, Banggae, Kec. Banggae, Kabupaten Majene, Sulawesi Barat","Kabupaten Majene, Sulawesi Barat",SULAWESI BARAT,,Indonesia,42221321.0,,,-3.544385,118.9661537,https://maps.google.com/?cid=0x0:0x79968e5059e72082,
hardware store,Toko,Toko Fajar Bangunan Majene,"pakkola, Jl. Mayjen Azis Bustam, Banggae, Kec. Banggae, Kabupaten Majene, Sulawesi Barat 91412","Jl. Mayjen Azis Bustam, Banggae, Kec. Banggae, Kabupaten Majene",SULAWESI BARAT,91412.0,Indonesia,81355566646.0,,,-3.5372746,118.9682725,https://maps.google.com/?cid=0x0:0xcfb27e4cdc8945d6,
hardware store,Toko Bahan Bangunan,METRO,"Jl. Jend. Sudirman No.8, Labuang, Kec. Banggae Tim., Kabupaten Majene, Sulawesi Barat 91412","Labuang, Kec. Banggae Tim., Kabupaten Majene",SULAWESI BARAT,91412.0,Indonesia,42222047.0,,,-3.543368,118.9692323,https://maps.google.com/?cid=0x0:0x3a8d6b891e342471,
hardware store,Toko Bahan Bangunan,Toko Pelita,"Jl. Lanto Dg. Pasewang No.2, Labuang, Kec. Banggae Tim., Kabupaten Majene, Sulawesi Barat 91412","Labuang, Kec. Banggae Tim., Kabupaten Majene",SULAWESI BARAT,91412.0,Indonesia,,,,-3.5390985,118.9696345,https://maps.google.com/?cid=0x0:0x96e400127005d839,
hardware store,Toko Bahan Bangunan,TB. In-Dini Warna,"FX49+H83, Jl. Muh. Yusuf Pusat Pertokoan, Banggae, Majene Regency, West Sulawesi 91412","Jl. Muh. Yusuf Pusat Pertokoan, Banggae, Majene Regency",SULAWESI BARAT,91412.0,Indonesia,85255272937.0,,,-3.5436182,118.9683021,https://maps.google.com/?cid=0x0:0xdcbde59548fd4980,
hardware store,Toko Bahan Bangunan,Toko Fajar,"Jl. K.H. Muh. Saleh No.49, Labuang, Kec. Banggae Tim., Kabupaten Majene, Sulawesi Barat 91412","Labuang, Kec. Banggae Tim., Kabupaten Majene",SULAWESI BARAT,91412.0,Indonesia,,,,-3.5416368,118.9730687,https://maps.google.com/?cid=0x0:0x4ebb29b503978d8,
hardware store,Toko Bahan Bangunan,toko Pelita Mandar,"Jl. Mayjend. Azis Bustan No.68, Banggae, Kec. Banggae, Kabupaten Majene, Sulawesi Barat 91412","Banggae, Kec. Banggae, Kabupaten Majene",SULAWESI BARAT,91412.0,Indonesia,,,,-3.5392454,118.9680327,https://maps.google.com/?cid=0x0:0xc926e8265a0d43,
hardware store,Toko Swalayan,PT. SIKAPAIYA MM,"FX4C+J5C, Jl. Jend. Sudirman, Labuang, Kec. Banggae Tim., Kabupaten Majene, Sulawesi Barat 91412","Jl. Jend. Sudirman, Labuang, Kec. Banggae Tim., Kabupaten Majene",SULAWESI BARAT,91412.0,Indonesia,82187417676.0,,,-3.5434411,118.970398,https://maps.google.com/?cid=0x0:0xb9d96517d6f27205,
hardware store,Toko Bahan Bangunan,TOKO HENDY HERMAN,"FX79+3PP, Banggae, Kec. Banggae, Kabupaten Majene, Sulawesi Barat 91412","Banggae, Kec. Banggae, Kabupaten Majene",SULAWESI BARAT,91412.0,Indonesia,81242822254.0,,,-3.5372816,118.9693197,https://maps.google.com/?cid=0x0:0x4c79b7975f57ff0a,
hardware store,hardware store,Kama Kasmia Family,"Lembang Jl. AMD No.2, Lembang Jl. AMD No.2, Baurung, Kec. Banggae Tim., Kabupaten Majene, Sulawesi Barat 91412","Lembang Jl. AMD No.2, Baurung, Kec. Banggae Tim., Kabupaten Majene",SULAWESI BARAT,91412.0,Indonesia,82313525999.0,,,-3.5452975,118.9834896,https://maps.google.com/?cid=0x0:0x1e6a7b02c07937ec,
hardware store,Toko Elektronik,PLANET KOMPUTER MURI,"FX22+H7P, Baru, Kec. Banggae, Kabupaten Majene, Sulawesi Barat","Kabupaten Majene, Sulawesi Barat",SULAWESI BARAT,,Indonesia,85255646509.0,,,-3.5485305,118.9507182,https://maps.google.com/?cid=0x0:0xfd1fe3ea8d20b12,
hardware store,Toko Komputer,QK KOMPUTER MAJENE,"FX24+9M4, Jalan Poros Majene - Mamuju, Tanangan, Depan Makam Pahlawan, Pangali-Ali, Kec. Banggae, Kabupaten Majene, Sulawesi Barat","Kabupaten Majene, Sulawesi Barat",SULAWESI BARAT,,Indonesia,8114451434.0,,,-3.5491117,118.9567098,https://maps.google.com/?cid=0x0:0x9a48b820eb76e37b,
hardware store,Toko,FOTOCOPY AULYA,"Jl. Poros Majene- Mamuju No.145, Garo'go, Baru, Kec. Banggae, Kabupaten Majene, Sulawesi Barat","Kabupaten Majene, Sulawesi Barat",SULAWESI BARAT,,Indonesia,85340403686.0,,,-3.5483364,118.9533977,https://maps.google.com/?cid=0x0:0x21267b4370a242f3,
hardware store,Toko Bahan Bangunan,Toko Rezeki Fajar,"Jl. Sultan hasanuddin, Tande, lutang, Kabupaten Majene, Sulawesi Barat 91412","Tande, lutang, Kabupaten Majene",SULAWESI BARAT,91412.0,Indonesia,,,,-3.532758,118.9975397,https://maps.google.com/?cid=0x0:0x37bd7d2dadf86d2c,
hardware store,Toko Elektronik,Taman Langit Computer,"FX22+X3C, Baru, Kec. Banggae, Kabupaten Majene, Sulawesi Barat","Kabupaten Majene, Sulawesi Barat",SULAWESI BARAT,,Indonesia,82189137420.0,,,-3.5475652,118.9501475,https://maps.google.com/?cid=0x0:0x935597516a36c5a6,
hardware store,Pusat Perbelanjaan,Pasar Sentral Majene,"FX69+GM7, Banggae, Kec. Banggae, Kabupaten Majene, Sulawesi Barat 91412","Banggae, Kec. Banggae, Kabupaten Majene",SULAWESI BARAT,91412.0,Indonesia,82351451083.0,,,-3.5387032,118.9691675,https://maps.google.com/?cid=0x0:0x4bffc444b6e6d47e,
hardware store,Toko Fotokopi,FOTOCOPY ANGKASA,"Jl. Lanto Dg. Pasewang, Banggae, Kec. Banggae, Kabupaten Majene, Sulawesi Barat 91412","Banggae, Kec. Banggae, Kabupaten Majene",SULAWESI BARAT,91412.0,Indonesia,,,,-3.5363502,118.9695719,https://maps.google.com/?cid=0x0:0x4043038e73e5eea6,
hardware store,Toko Komputer,QK COMPUTER,"Jl. Gatot Subroto, Pangali-Ali, Kec. Banggae, Kabupaten Majene, Sulawesi Barat 91415","Pangali-Ali, Kec. Banggae, Kabupaten Majene",SULAWESI BARAT,91415.0,Indonesia,8114451434.0,,,-3.5458952,118.9619496,https://maps.google.com/?cid=0x0:0x510a6e337bf1cfd6,
hardware store,hardware store,Kec. Banggae Tim.,"Kabupaten Majene, Sulawesi Barat","Kabupaten Majene, Sulawesi Barat",SULAWESI BARAT,,Indonesia,,,,-3.5443284,118.9724991,https://maps.google.com/?cid=0x0:0x8a3d219855bd6a6e,
hardware store,Pemasok Bahan Bangunan,TOKO ASIA TIMUR (BAHAN BANGUNAN),"FX69+XQP, Jl. Lanto Dg. Pasewang, Banggae, Kec. Banggae, Kabupaten Majene, Sulawesi Barat 91412","Jl. Lanto Dg. Pasewang, Banggae, Kec. Banggae, Kabupaten Majene",SULAWESI BARAT,91412.0,Indonesia,4222420265.0,,,-3.5375355,118.9694601,https://maps.google.com/?cid=0x0:0xa219d91ef34acc13,
hardware store,Toko Alat Tulis,DELVATA,"Jl. Huriyah Dato, Baurung, Kec. Banggae Tim., Kabupaten Majene, Sulawesi Barat 91412","Baurung, Kec. Banggae Tim., Kabupaten Majene",SULAWESI BARAT,91412.0,Indonesia,82292368578.0,,,-3.5624031,118.995638,https://maps.google.com/?cid=0x0:0x70a32ed3a79adc2f,
hardware store,Toko Elektronik,EVOLUTION COMPUTER,"FX89+RVR, Banggae, Kec. Banggae, Kabupaten Majene, Sulawesi Barat 91412","Banggae, Kec. Banggae, Kabupaten Majene",SULAWESI BARAT,91412.0,Indonesia,82193568445.0,,,-3.5328895,118.9696323,https://maps.google.com/?cid=0x0:0x19b0b510ab9a050f,
hardware store,Servis Komputer,Arham Komputer,"Labuang, Kec. Banggae Tim., Kabupaten Majene, Sulawesi Barat 91412","Kec. Banggae Tim., Kabupaten Majene",SULAWESI BARAT,91412.0,Indonesia,85274129262.0,,,-3.5401369,118.9727264,https://maps.google.com/?cid=0x0:0x9d25ef2dea0f33c2,
hardware store,Toko Bahan Bangunan,Fajar Mas Toko,"Jl. Lanto Dg. Pasewang No.2, Labuang, Kec. Banggae Tim., Kabupaten Majene, Sulawesi Barat 91412","Labuang, Kec. Banggae Tim., Kabupaten Majene",SULAWESI BARAT,91412.0,Indonesia,81241509242.0,,,-3.5389993,118.9695441,https://maps.google.com/?cid=0x0:0x77644e45e24c0e13,
hardware store,Toko Elektronik,M3 Home Teknik,"Jl. Jend. Sudirman No.68, Labuang, Kec. Banggae Tim., Kabupaten Majene, Sulawesi Barat 91412","Labuang, Kec. Banggae Tim., Kabupaten Majene",SULAWESI BARAT,91412.0,Indonesia,85103151123.0,,,-3.5444698,118.9722867,https://maps.google.com/?cid=0x0:0x149d32da84e6cd18,
hardware store,Toko,Denker Outdoor,"Jl. Manunggal Lingk. Galung Tengah, Galung, Kec. Banggae, Kabupaten Majene, Sulawesi Barat 91412","Galung, Kec. Banggae, Kabupaten Majene",SULAWESI BARAT,91412.0,Indonesia,81244680841.0,,,-3.5286649,118.9696115,https://maps.google.com/?cid=0x0:0x5858f87407513469,
hardware store,Grosir Beras,TOKO BERAS UD. BERSAMA,"FW2X+57X, Totoli, Kec. Banggae, Kabupaten Majene, Sulawesi Barat 91415","Totoli, Kec. Banggae, Kabupaten Majene",SULAWESI BARAT,91415.0,Indonesia,85394684336.0,,,-3.5495062,118.9482307,https://maps.google.com/?cid=0x0:0x8ac716204c44331,
hardware store,hardware store,Sulawesi Barat 91412,"Kabupaten Majene, Sulawesi Barat","Kabupaten Majene, Sulawesi Barat",SULAWESI BARAT,,Indonesia,,,,-3.5389571,118.9819731,https://maps.google.com/?cid=0x0:0x5b7ee02006e2dbbd,
hardware store,Toko,MR.DIY,"Jl. Jend. Sudirman No.31, Labuang, Kec. Banggae Tim., Kabupaten Majene, Sulawesi Barat 91412","Labuang, Kec. Banggae Tim., Kabupaten Majene",SULAWESI BARAT,91412.0,Indonesia,,,,-3.5457566,118.9781385,https://maps.google.com/?cid=0x0:0x4341eca963312626,
hardware store,Toko,Toko Fajar Bangunan Majene,"pakkola, Jl. Mayjen Azis Bustam, Banggae, Kec. Banggae, Kabupaten Majene, Sulawesi Barat 91412","Jl. Mayjen Azis Bustam, Banggae, Kec. Banggae, Kabupaten Majene",SULAWESI BARAT,91412.0,Indonesia,81355566646.0,,,-3.5372746,118.9682725,https://maps.google.com/?cid=0x0:0xcfb27e4cdc8945d6,
hardware store,Toko Bahan Bangunan,METRO,"Jl. Jend. Sudirman No.8, Labuang, Kec. Banggae Tim., Kabupaten Majene, Sulawesi Barat 91412","Labuang, Kec. Banggae Tim., Kabupaten Majene",SULAWESI BARAT,91412.0,Indonesia,42222047.0,,,-3.543368,118.9692323,https://maps.google.com/?cid=0x0:0x3a8d6b891e342471,
hardware store,Toko Bahan Bangunan,Toko Fajar,"Jl. K.H. Muh. Saleh No.49, Labuang, Kec. Banggae Tim., Kabupaten Majene, Sulawesi Barat 91412","Labuang, Kec. Banggae Tim., Kabupaten Majene",SULAWESI BARAT,91412.0,Indonesia,,,,-3.5416368,118.9730687,https://maps.google.com/?cid=0x0:0x4ebb29b503978d8,
hardware store,Toko Bahan Bangunan,Toko Pelita,"Jl. Lanto Dg. Pasewang No.2, Labuang, Kec. Banggae Tim., Kabupaten Majene, Sulawesi Barat 91412","Labuang, Kec. Banggae Tim., Kabupaten Majene",SULAWESI BARAT,91412.0,Indonesia,,,,-3.5390985,118.9696345,https://maps.google.com/?cid=0x0:0x96e400127005d839,
hardware store,Toko Bahan Bangunan,TB. In-Dini Warna,"FX49+H83, Jl. Muh. Yusuf Pusat Pertokoan, Banggae, Majene Regency, West Sulawesi 91412","Jl. Muh. Yusuf Pusat Pertokoan, Banggae, Majene Regency",SULAWESI BARAT,91412.0,Indonesia,85255272937.0,,,-3.5436182,118.9683021,https://maps.google.com/?cid=0x0:0xdcbde59548fd4980,
hardware store,hardware store,Kama Kasmia Family,"Lembang Jl. AMD No.2, Lembang Jl. AMD No.2, Baurung, Kec. Banggae Tim., Kabupaten Majene, Sulawesi Barat 91412","Lembang Jl. AMD No.2, Baurung, Kec. Banggae Tim., Kabupaten Majene",SULAWESI BARAT,91412.0,Indonesia,82313525999.0,,,-3.5452975,118.9834896,https://maps.google.com/?cid=0x0:0x1e6a7b02c07937ec,
hardware store,Toko Bahan Bangunan,TOKO HENDY HERMAN,"FX79+3PP, Banggae, Kec. Banggae, Kabupaten Majene, Sulawesi Barat 91412","Banggae, Kec. Banggae, Kabupaten Majene",SULAWESI BARAT,91412.0,Indonesia,81242822254.0,,,-3.5372816,118.9693197,https://maps.google.com/?cid=0x0:0x4c79b7975f57ff0a,
hardware store,Toko Swalayan,PT. SIKAPAIYA MM,"FX4C+J5C, Jl. Jend. Sudirman, Labuang, Kec. Banggae Tim., Kabupaten Majene, Sulawesi Barat 91412","Jl. Jend. Sudirman, Labuang, Kec. Banggae Tim., Kabupaten Majene",SULAWESI BARAT,91412.0,Indonesia,82187417676.0,,,-3.5434411,118.970398,https://maps.google.com/?cid=0x0:0xb9d96517d6f27205,
hardware store,Toko Bahan Bangunan,toko Pelita Mandar,"Jl. Mayjend. Azis Bustan No.68, Banggae, Kec. Banggae, Kabupaten Majene, Sulawesi Barat 91412","Banggae, Kec. Banggae, Kabupaten Majene",SULAWESI BARAT,91412.0,Indonesia,,,,-3.5392454,118.9680327,https://maps.google.com/?cid=0x0:0xc926e8265a0d43,
hardware store,Toko Bahan Bangunan,Toko Rezeki Fajar,"Jl. Sultan hasanuddin, Tande, lutang, Kabupaten Majene, Sulawesi Barat 91412","Tande, lutang, Kabupaten Majene",SULAWESI BARAT,91412.0,Indonesia,,,,-3.532758,118.9975397,https://maps.google.com/?cid=0x0:0x37bd7d2dadf86d2c,
hardware store,Toko Alat Tulis,DELVATA,"Jl. Huriyah Dato, Baurung, Kec. Banggae Tim., Kabupaten Majene, Sulawesi Barat 91412","Baurung, Kec. Banggae Tim., Kabupaten Majene",SULAWESI BARAT,91412.0,Indonesia,82292368578.0,,,-3.5624031,118.995638,https://maps.google.com/?cid=0x0:0x70a32ed3a79adc2f,
hardware store,Pusat Perbelanjaan,Pasar Sentral Majene,"FX69+GM7, Banggae, Kec. Banggae, Kabupaten Majene, Sulawesi Barat 91412","Banggae, Kec. Banggae, Kabupaten Majene",SULAWESI BARAT,91412.0,Indonesia,82351451083.0,,,-3.5387032,118.9691675,https://maps.google.com/?cid=0x0:0x4bffc444b6e6d47e,
hardware store,Toko Fotokopi,FOTOCOPY ANGKASA,"Jl. Lanto Dg. Pasewang, Banggae, Kec. Banggae, Kabupaten Majene, Sulawesi Barat 91412","Banggae, Kec. Banggae, Kabupaten Majene",SULAWESI BARAT,91412.0,Indonesia,,,,-3.5363502,118.9695719,https://maps.google.com/?cid=0x0:0x4043038e73e5eea6,
hardware store,Toko Elektronik,PLANET KOMPUTER MURI,"FX22+H7P, Baru, Kec. Banggae, Kabupaten Majene, Sulawesi Barat","Kabupaten Majene, Sulawesi Barat",SULAWESI BARAT,,Indonesia,85255646509.0,,,-3.5485305,118.9507182,https://maps.google.com/?cid=0x0:0xfd1fe3ea8d20b12,
hardware store,Toko Elektronik,EVOLUTION COMPUTER,"FX89+RVR, Banggae, Kec. Banggae, Kabupaten Majene, Sulawesi Barat 91412","Banggae, Kec. Banggae, Kabupaten Majene",SULAWESI BARAT,91412.0,Indonesia,82193568445.0,,,-3.5328895,118.9696323,https://maps.google.com/?cid=0x0:0x19b0b510ab9a050f,
hardware store,Servis Komputer,Arham Komputer,"Labuang, Kec. Banggae Tim., Kabupaten Majene, Sulawesi Barat 91412","Kec. Banggae Tim., Kabupaten Majene",SULAWESI BARAT,91412.0,Indonesia,85274129262.0,,,-3.5401369,118.9727264,https://maps.google.com/?cid=0x0:0x9d25ef2dea0f33c2,
hardware store,Toko Elektronik,Taman Langit Computer,"FX22+X3C, Baru, Kec. Banggae, Kabupaten Majene, Sulawesi Barat","Kabupaten Majene, Sulawesi Barat",SULAWESI BARAT,,Indonesia,82189137420.0,,,-3.5475652,118.9501475,https://maps.google.com/?cid=0x0:0x935597516a36c5a6,
hardware store,hardware store,Kec. Banggae Tim.,"Kabupaten Majene, Sulawesi Barat","Kabupaten Majene, Sulawesi Barat",SULAWESI BARAT,,Indonesia,,,,-3.5443284,118.9724991,https://maps.google.com/?cid=0x0:0x8a3d219855bd6a6e,
hardware store,Layanan Binatu,My laundry,"FX4F+9G6, Jl. Poros Majene - Mamuju, Labuang, Kec. Banggae Tim., Kabupaten Majene, Sulawesi Barat 91412","Jl. Poros Majene - Mamuju, Labuang, Kec. Banggae Tim., Kabupaten Majene",SULAWESI BARAT,91412.0,Indonesia,82339518764.0,,,-3.5440794,118.9737639,https://maps.google.com/?cid=0x0:0x4c049ef4eb91fbc0,
hardware store,Pemasok Bahan Bangunan,TOKO ASIA TIMUR (BAHAN BANGUNAN),"FX69+XQP, Jl. Lanto Dg. Pasewang, Banggae, Kec. Banggae, Kabupaten Majene, Sulawesi Barat 91412","Jl. Lanto Dg. Pasewang, Banggae, Kec. Banggae, Kabupaten Majene",SULAWESI BARAT,91412.0,Indonesia,4222420265.0,,,-3.5375355,118.9694601,https://maps.google.com/?cid=0x0:0xa219d91ef34acc13,
hardware store,Toko Elektronik,M3 Home Teknik,"Jl. Jend. Sudirman No.68, Labuang, Kec. Banggae Tim., Kabupaten Majene, Sulawesi Barat 91412","Labuang, Kec. Banggae Tim., Kabupaten Majene",SULAWESI BARAT,91412.0,Indonesia,85103151123.0,,,-3.5444698,118.9722867,https://maps.google.com/?cid=0x0:0x149d32da84e6cd18,
hardware store,Toko,CV.SIKAPAIYA BULUQ BARAKKA,"Banggae, Majene, Sulawesi Bar., Banggae, Kec. Banggae, Kabupaten Majene, Sulawesi Barat 91412","Majene, Sulawesi Bar., Banggae, Kec. Banggae, Kabupaten Majene",SULAWESI BARAT,91412.0,Indonesia,82187417676.0,,,-3.5431763,118.9669622,https://maps.google.com/?cid=0x0:0xeb21f04a92cf4b24,
hardware store,Toko,Denker Outdoor,"Jl. Manunggal Lingk. Galung Tengah, Galung, Kec. Banggae, Kabupaten Majene, Sulawesi Barat 91412","Galung, Kec. Banggae, Kabupaten Majene",SULAWESI BARAT,91412.0,Indonesia,81244680841.0,,,-3.5286649,118.9696115,https://maps.google.com/?cid=0x0:0x5858f87407513469,
hardware store,Grosir Beras,TOKO BERAS UD. BERSAMA,"FW2X+57X, Totoli, Kec. Banggae, Kabupaten Majene, Sulawesi Barat 91415","Totoli, Kec. Banggae, Kabupaten Majene",SULAWESI BARAT,91415.0,Indonesia,85394684336.0,,,-3.5495062,118.9482307,https://maps.google.com/?cid=0x0:0x8ac716204c44331,
hardware store,hardware store,Sulawesi Barat 91413,"Kabupaten Polewali Mandar, Sulawesi Barat","Kabupaten Polewali Mandar, Sulawesi Barat",SULAWESI BARAT,,Indonesia,,,,-3.4627787,118.9877942,https://maps.google.com/?cid=0x0:0x36c6611542b63c82,
hardware store,Toko,MR.DIY,"Jl. Jend. Sudirman No.31, Labuang, Kec. Banggae Tim., Kabupaten Majene, Sulawesi Barat 91412","Labuang, Kec. Banggae Tim., Kabupaten Majene",SULAWESI BARAT,91412.0,Indonesia,,,,-3.5457566,118.9781385,https://maps.google.com/?cid=0x0:0x4341eca963312626,
hardware store,Toko,Toko Fajar Bangunan Majene,"pakkola, Jl. Mayjen Azis Bustam, Banggae, Kec. Banggae, Kabupaten Majene, Sulawesi Barat 91412","Jl. Mayjen Azis Bustam, Banggae, Kec. Banggae, Kabupaten Majene",SULAWESI BARAT,91412.0,Indonesia,81355566646.0,,,-3.5372746,118.9682725,https://maps.google.com/?cid=0x0:0xcfb27e4cdc8945d6,
hardware store,Toko Bahan Bangunan,Toko Indo Bangunan,"JL A Jl. Syukur Rahim No.20-22, Banggae, Kec. Banggae, Kabupaten Majene, Sulawesi Barat","Kabupaten Majene, Sulawesi Barat",SULAWESI BARAT,,Indonesia,42221321.0,,,-3.544385,118.9661537,https://maps.google.com/?cid=0x0:0x79968e5059e72082,
hardware store,Toko Bahan Bangunan,METRO,"Jl. Jend. Sudirman No.8, Labuang, Kec. Banggae Tim., Kabupaten Majene, Sulawesi Barat 91412","Labuang, Kec. Banggae Tim., Kabupaten Majene",SULAWESI BARAT,91412.0,Indonesia,42222047.0,,,-3.543368,118.9692323,https://maps.google.com/?cid=0x0:0x3a8d6b891e342471,
hardware store,Toko Bahan Bangunan,Toko Pelita,"Jl. Lanto Dg. Pasewang No.2, Labuang, Kec. Banggae Tim., Kabupaten Majene, Sulawesi Barat 91412","Labuang, Kec. Banggae Tim., Kabupaten Majene",SULAWESI BARAT,91412.0,Indonesia,,,,-3.5390985,118.9696345,https://maps.google.com/?cid=0x0:0x96e400127005d839,
hardware store,Toko Bahan Bangunan,Toko Fajar,"Jl. K.H. Muh. Saleh No.49, Labuang, Kec. Banggae Tim., Kabupaten Majene, Sulawesi Barat 91412","Labuang, Kec. Banggae Tim., Kabupaten Majene",SULAWESI BARAT,91412.0,Indonesia,,,,-3.5416368,118.9730687,https://maps.google.com/?cid=0x0:0x4ebb29b503978d8,
hardware store,Toko Bahan Bangunan,Toko Rezeki Fajar,"Jl. Sultan hasanuddin, Tande, lutang, Kabupaten Majene, Sulawesi Barat 91412","Tande, lutang, Kabupaten Majene",SULAWESI BARAT,91412.0,Indonesia,,,,-3.532758,118.9975397,https://maps.google.com/?cid=0x0:0x37bd7d2dadf86d2c,
hardware store,hardware store,Kama Kasmia Family,"Lembang Jl. AMD No.2, Lembang Jl. AMD No.2, Baurung, Kec. Banggae Tim., Kabupaten Majene, Sulawesi Barat 91412","Lembang Jl. AMD No.2, Baurung, Kec. Banggae Tim., Kabupaten Majene",SULAWESI BARAT,91412.0,Indonesia,82313525999.0,,,-3.5452975,118.9834896,https://maps.google.com/?cid=0x0:0x1e6a7b02c07937ec,
hardware store,Toko Bahan Bangunan,toko Pelita Mandar,"Jl. Mayjend. Azis Bustan No.68, Banggae, Kec. Banggae, Kabupaten Majene, Sulawesi Barat 91412","Banggae, Kec. Banggae, Kabupaten Majene",SULAWESI BARAT,91412.0,Indonesia,,,,-3.5392454,118.9680327,https://maps.google.com/?cid=0x0:0xc926e8265a0d43,
hardware store,Toko Swalayan,PT. SIKAPAIYA MM,"FX4C+J5C, Jl. Jend. Sudirman, Labuang, Kec. Banggae Tim., Kabupaten Majene, Sulawesi Barat 91412","Jl. Jend. Sudirman, Labuang, Kec. Banggae Tim., Kabupaten Majene",SULAWESI BARAT,91412.0,Indonesia,82187417676.0,,,-3.5434411,118.970398,https://maps.google.com/?cid=0x0:0xb9d96517d6f27205,
hardware store,Toko Bahan Bangunan,TOKO HENDY HERMAN,"FX79+3PP, Banggae, Kec. Banggae, Kabupaten Majene, Sulawesi Barat 91412","Banggae, Kec. Banggae, Kabupaten Majene",SULAWESI BARAT,91412.0,Indonesia,81242822254.0,,,-3.5372816,118.9693197,https://maps.google.com/?cid=0x0:0x4c79b7975f57ff0a,
hardware store,Toko Bahan Bangunan,TB. In-Dini Warna,"FX49+H83, Jl. Muh. Yusuf Pusat Pertokoan, Banggae, Majene Regency, West Sulawesi 91412","Jl. Muh. Yusuf Pusat Pertokoan, Banggae, Majene Regency",SULAWESI BARAT,91412.0,Indonesia,85255272937.0,,,-3.5436182,118.9683021,https://maps.google.com/?cid=0x0:0xdcbde59548fd4980,
hardware store,Pusat Perbelanjaan,Pasar Sentral Majene,"FX69+GM7, Banggae, Kec. Banggae, Kabupaten Majene, Sulawesi Barat 91412","Banggae, Kec. Banggae, Kabupaten Majene",SULAWESI BARAT,91412.0,Indonesia,82351451083.0,,,-3.5387032,118.9691675,https://maps.google.com/?cid=0x0:0x4bffc444b6e6d47e,
hardware store,Toko Fotokopi,FOTOCOPY ANGKASA,"Jl. Lanto Dg. Pasewang, Banggae, Kec. Banggae, Kabupaten Majene, Sulawesi Barat 91412","Banggae, Kec. Banggae, Kabupaten Majene",SULAWESI BARAT,91412.0,Indonesia,,,,-3.5363502,118.9695719,https://maps.google.com/?cid=0x0:0x4043038e73e5eea6,
hardware store,Toko Bahan Bangunan,Tb. Putra mandiri,"G2C4+W54, Palece, Kec. Limboro, Kabupaten Polewali Mandar, Sulawesi Barat 91413","Palece, Kec. Limboro, Kabupaten Polewali Mandar",SULAWESI BARAT,91413.0,Indonesia,85331257399.0,,,-3.4777482,119.0054384,https://maps.google.com/?cid=0x0:0x710c2866b4c714e3,
hardware store,Toko Percetakan,Allunk Computer,"Tangan Baru, Kec. Limboro, Kabupaten Polewali Mandar, Sulawesi Barat 91413","Kec. Limboro, Kabupaten Polewali Mandar",SULAWESI BARAT,91413.0,Indonesia,85255378531.0,,,-3.4527988,118.981888,https://maps.google.com/?cid=0x0:0xbf98b278e973d1e8,
hardware store,Toko Elektronik,PLANET KOMPUTER MURI,"FX22+H7P, Baru, Kec. Banggae, Kabupaten Majene, Sulawesi Barat","Kabupaten Majene, Sulawesi Barat",SULAWESI BARAT,,Indonesia,85255646509.0,,,-3.5485305,118.9507182,https://maps.google.com/?cid=0x0:0xfd1fe3ea8d20b12,
hardware store,Servis Komputer,Arham Komputer,"Labuang, Kec. Banggae Tim., Kabupaten Majene, Sulawesi Barat 91412","Kec. Banggae Tim., Kabupaten Majene",SULAWESI BARAT,91412.0,Indonesia,85274129262.0,,,-3.5401369,118.9727264,https://maps.google.com/?cid=0x0:0x9d25ef2dea0f33c2,
hardware store,Toko Komputer,QK KOMPUTER MAJENE,"FX24+9M4, Jalan Poros Majene - Mamuju, Tanangan, Depan Makam Pahlawan, Pangali-Ali, Kec. Banggae, Kabupaten Majene, Sulawesi Barat","Kabupaten Majene, Sulawesi Barat",SULAWESI BARAT,,Indonesia,8114451434.0,,,-3.5491117,118.9567098,https://maps.google.com/?cid=0x0:0x9a48b820eb76e37b,
hardware store,hardware store,Kec. Banggae Tim.,"Kabupaten Majene, Sulawesi Barat","Kabupaten Majene, Sulawesi Barat",SULAWESI BARAT,,Indonesia,,,,-3.5443284,118.9724991,https://maps.google.com/?cid=0x0:0x8a3d219855bd6a6e,
hardware store,Toko Alat Tulis,DELVATA,"Jl. Huriyah Dato, Baurung, Kec. Banggae Tim., Kabupaten Majene, Sulawesi Barat 91412","Baurung, Kec. Banggae Tim., Kabupaten Majene",SULAWESI BARAT,91412.0,Indonesia,82292368578.0,,,-3.5624031,118.995638,https://maps.google.com/?cid=0x0:0x70a32ed3a79adc2f,
hardware store,Toko Elektronik,Taman Langit Computer,"FX22+X3C, Baru, Kec. Banggae, Kabupaten Majene, Sulawesi Barat","Kabupaten Majene, Sulawesi Barat",SULAWESI BARAT,,Indonesia,82189137420.0,,,-3.5475652,118.9501475,https://maps.google.com/?cid=0x0:0x935597516a36c5a6,
hardware store,Toko,FOTOCOPY AULYA,"Jl. Poros Majene- Mamuju No.145, Garo'go, Baru, Kec. Banggae, Kabupaten Majene, Sulawesi Barat","Kabupaten Majene, Sulawesi Barat",SULAWESI BARAT,,Indonesia,85340403686.0,,,-3.5483364,118.9533977,https://maps.google.com/?cid=0x0:0x21267b4370a242f3,
hardware store,Pemasok Bahan Bangunan,TOKO ASIA TIMUR (BAHAN BANGUNAN),"FX69+XQP, Jl. Lanto Dg. Pasewang, Banggae, Kec. Banggae, Kabupaten Majene, Sulawesi Barat 91412","Jl. Lanto Dg. Pasewang, Banggae, Kec. Banggae, Kabupaten Majene",SULAWESI BARAT,91412.0,Indonesia,4222420265.0,,,-3.5375355,118.9694601,https://maps.google.com/?cid=0x0:0xa219d91ef34acc13,
hardware store,Toko Bahan Bangunan,Fajar Mas Toko,"Jl. Lanto Dg. Pasewang No.2, Labuang, Kec. Banggae Tim., Kabupaten Majene, Sulawesi Barat 91412","Labuang, Kec. Banggae Tim., Kabupaten Majene",SULAWESI BARAT,91412.0,Indonesia,81241509242.0,,,-3.5389993,118.9695441,https://maps.google.com/?cid=0x0:0x77644e45e24c0e13,
hardware store,Toko Elektronik,M3 Home Teknik,"Jl. Jend. Sudirman No.68, Labuang, Kec. Banggae Tim., Kabupaten Majene, Sulawesi Barat 91412","Labuang, Kec. Banggae Tim., Kabupaten Majene",SULAWESI BARAT,91412.0,Indonesia,85103151123.0,,,-3.5444698,118.9722867,https://maps.google.com/?cid=0x0:0x149d32da84e6cd18,
hardware store,Toko,Denker Outdoor,"Jl. Manunggal Lingk. Galung Tengah, Galung, Kec. Banggae, Kabupaten Majene, Sulawesi Barat 91412","Galung, Kec. Banggae, Kabupaten Majene",SULAWESI BARAT,91412.0,Indonesia,81244680841.0,,,-3.5286649,118.9696115,https://maps.google.com/?cid=0x0:0x5858f87407513469,
hardware store,Grosir Beras,TOKO BERAS UD. BERSAMA,"FW2X+57X, Totoli, Kec. Banggae, Kabupaten Majene, Sulawesi Barat 91415","Totoli, Kec. Banggae, Kabupaten Majene",SULAWESI BARAT,91415.0,Indonesia,85394684336.0,,,-3.5495062,118.9482307,https://maps.google.com/?cid=0x0:0x8ac716204c44331,
hardware store,hardware store,Sulawesi Barat 91414,"Kec. Banggae Tim., Kabupaten Majene, Sulawesi Barat","Kabupaten Majene, Sulawesi Barat",SULAWESI BARAT,,Indonesia,,,,-3.504363,118.9470422,https://maps.google.com/?cid=0x0:0xa2a58b17ca1668be,
hardware store,Toko,Toko Fajar Bangunan Majene,"pakkola, Jl. Mayjen Azis Bustam, Banggae, Kec. Banggae, Kabupaten Majene, Sulawesi Barat 91412","Jl. Mayjen Azis Bustam, Banggae, Kec. Banggae, Kabupaten Majene",SULAWESI BARAT,91412.0,Indonesia,81355566646.0,,,-3.5372746,118.9682725,https://maps.google.com/?cid=0x0:0xcfb27e4cdc8945d6,
hardware store,Toko Bahan Bangunan,Toko Indo Bangunan,"JL A Jl. Syukur Rahim No.20-22, Banggae, Kec. Banggae, Kabupaten Majene, Sulawesi Barat","Kabupaten Majene, Sulawesi Barat",SULAWESI BARAT,,Indonesia,42221321.0,,,-3.544385,118.9661537,https://maps.google.com/?cid=0x0:0x79968e5059e72082,
hardware store,Toko Bahan Bangunan,Toko Pelita,"Jl. Lanto Dg. Pasewang No.2, Labuang, Kec. Banggae Tim., Kabupaten Majene, Sulawesi Barat 91412","Labuang, Kec. Banggae Tim., Kabupaten Majene",SULAWESI BARAT,91412.0,Indonesia,,,,-3.5390985,118.9696345,https://maps.google.com/?cid=0x0:0x96e400127005d839,
hardware store,Toko Bahan Bangunan,Toko Fajar,"Jl. K.H. Muh. Saleh No.49, Labuang, Kec. Banggae Tim., Kabupaten Majene, Sulawesi Barat 91412","Labuang, Kec. Banggae Tim., Kabupaten Majene",SULAWESI BARAT,91412.0,Indonesia,,,,-3.5416368,118.9730687,https://maps.google.com/?cid=0x0:0x4ebb29b503978d8,
hardware store,Toko Bahan Bangunan,TOKO HENDY HERMAN,"FX79+3PP, Banggae, Kec. Banggae, Kabupaten Majene, Sulawesi Barat 91412","Banggae, Kec. Banggae, Kabupaten Majene",SULAWESI BARAT,91412.0,Indonesia,81242822254.0,,,-3.5372816,118.9693197,https://maps.google.com/?cid=0x0:0x4c79b7975f57ff0a,
hardware store,Toko Bahan Bangunan,Toko Rezeki Fajar,"Jl. Sultan hasanuddin, Tande, lutang, Kabupaten Majene, Sulawesi Barat 91412","Tande, lutang, Kabupaten Majene",SULAWESI BARAT,91412.0,Indonesia,,,,-3.532758,118.9975397,https://maps.google.com/?cid=0x0:0x37bd7d2dadf86d2c,
hardware store,Toko Elektronik,PLANET KOMPUTER MURI,"FX22+H7P, Baru, Kec. Banggae, Kabupaten Majene, Sulawesi Barat","Kabupaten Majene, Sulawesi Barat",SULAWESI BARAT,,Indonesia,85255646509.0,,,-3.5485305,118.9507182,https://maps.google.com/?cid=0x0:0xfd1fe3ea8d20b12,
hardware store,Toko Komputer,QK KOMPUTER MAJENE,"FX24+9M4, Jalan Poros Majene - Mamuju, Tanangan, Depan Makam Pahlawan, Pangali-Ali, Kec. Banggae, Kabupaten Majene, Sulawesi Barat","Kabupaten Majene, Sulawesi Barat",SULAWESI BARAT,,Indonesia,8114451434.0,,,-3.5491117,118.9567098,https://maps.google.com/?cid=0x0:0x9a48b820eb76e37b,
hardware store,Toko Elektronik,Taman Langit Computer,"FX22+X3C, Baru, Kec. Banggae, Kabupaten Majene, Sulawesi Barat","Kabupaten Majene, Sulawesi Barat",SULAWESI BARAT,,Indonesia,82189137420.0,,,-3.5475652,118.9501475,https://maps.google.com/?cid=0x0:0x935597516a36c5a6,
hardware store,Toko Elektronik,EVOLUTION COMPUTER,"FX89+RVR, Banggae, Kec. Banggae, Kabupaten Majene, Sulawesi Barat 91412","Banggae, Kec. Banggae, Kabupaten Majene",SULAWESI BARAT,91412.0,Indonesia,82193568445.0,,,-3.5328895,118.9696323,https://maps.google.com/?cid=0x0:0x19b0b510ab9a050f,
hardware store,Servis Komputer,Arham Komputer,"Labuang, Kec. Banggae Tim., Kabupaten Majene, Sulawesi Barat 91412","Kec. Banggae Tim., Kabupaten Majene",SULAWESI BARAT,91412.0,Indonesia,85274129262.0,,,-3.5401369,118.9727264,https://maps.google.com/?cid=0x0:0x9d25ef2dea0f33c2,
hardware store,hardware store,Kec. Banggae Tim.,"Kabupaten Majene, Sulawesi Barat","Kabupaten Majene, Sulawesi Barat",SULAWESI BARAT,,Indonesia,,,,-3.5443284,118.9724991,https://maps.google.com/?cid=0x0:0x8a3d219855bd6a6e,
hardware store,Pemasok Bahan Bangunan,TOKO ASIA TIMUR (BAHAN BANGUNAN),"FX69+XQP, Jl. Lanto Dg. Pasewang, Banggae, Kec. Banggae, Kabupaten Majene, Sulawesi Barat 91412","Jl. Lanto Dg. Pasewang, Banggae, Kec. Banggae, Kabupaten Majene",SULAWESI BARAT,91412.0,Indonesia,4222420265.0,,,-3.5375355,118.9694601,https://maps.google.com/?cid=0x0:0xa219d91ef34acc13,
hardware store,Toko,MR.DIY,"Jl. Jend. Sudirman No.31, Labuang, Kec. Banggae Tim., Kabupaten Majene, Sulawesi Barat 91412","Labuang, Kec. Banggae Tim., Kabupaten Majene",SULAWESI BARAT,91412.0,Indonesia,,,,-3.5457566,118.9781385,https://maps.google.com/?cid=0x0:0x4341eca963312626,
hardware store,Toko Bahan Bangunan,METRO,"Jl. Jend. Sudirman No.8, Labuang, Kec. Banggae Tim., Kabupaten Majene, Sulawesi Barat 91412","Labuang, Kec. Banggae Tim., Kabupaten Majene",SULAWESI BARAT,91412.0,Indonesia,42222047.0,,,-3.543368,118.9692323,https://maps.google.com/?cid=0x0:0x3a8d6b891e342471,
hardware store,Toko Elektronik,M3 Home Teknik,"Jl. Jend. Sudirman No.68, Labuang, Kec. Banggae Tim., Kabupaten Majene, Sulawesi Barat 91412","Labuang, Kec. Banggae Tim., Kabupaten Majene",SULAWESI BARAT,91412.0,Indonesia,85103151123.0,,,-3.5444698,118.9722867,https://maps.google.com/?cid=0x0:0x149d32da84e6cd18,
hardware store,Toko Swalayan,PT. SIKAPAIYA MM,"FX4C+J5C, Jl. Jend. Sudirman, Labuang, Kec. Banggae Tim., Kabupaten Majene, Sulawesi Barat 91412","Jl. Jend. Sudirman, Labuang, Kec. Banggae Tim., Kabupaten Majene",SULAWESI BARAT,91412.0,Indonesia,82187417676.0,,,-3.5434411,118.970398,https://maps.google.com/?cid=0x0:0xb9d96517d6f27205,
hardware store,hardware store,Kama Kasmia Family,"Lembang Jl. AMD No.2, Lembang Jl. AMD No.2, Baurung, Kec. Banggae Tim., Kabupaten Majene, Sulawesi Barat 91412","Lembang Jl. AMD No.2, Baurung, Kec. Banggae Tim., Kabupaten Majene",SULAWESI BARAT,91412.0,Indonesia,82313525999.0,,,-3.5452975,118.9834896,https://maps.google.com/?cid=0x0:0x1e6a7b02c07937ec,
hardware store,Toko,Denker Outdoor,"Jl. Manunggal Lingk. Galung Tengah, Galung, Kec. Banggae, Kabupaten Majene, Sulawesi Barat 91412","Galung, Kec. Banggae, Kabupaten Majene",SULAWESI BARAT,91412.0,Indonesia,81244680841.0,,,-3.5286649,118.9696115,https://maps.google.com/?cid=0x0:0x5858f87407513469,
hardware store,Toko Bahan Bangunan,toko Pelita Mandar,"Jl. Mayjend. Azis Bustan No.68, Banggae, Kec. Banggae, Kabupaten Majene, Sulawesi Barat 91412","Banggae, Kec. Banggae, Kabupaten Majene",SULAWESI BARAT,91412.0,Indonesia,,,,-3.5392454,118.9680327,https://maps.google.com/?cid=0x0:0xc926e8265a0d43,
hardware store,Toko Bahan Bangunan,TB. In-Dini Warna,"FX49+H83, Jl. Muh. Yusuf Pusat Pertokoan, Banggae, Majene Regency, West Sulawesi 91412","Jl. Muh. Yusuf Pusat Pertokoan, Banggae, Majene Regency",SULAWESI BARAT,91412.0,Indonesia,85255272937.0,,,-3.5436182,118.9683021,https://maps.google.com/?cid=0x0:0xdcbde59548fd4980,
hardware store,Toko Alat Tulis,DELVATA,"Jl. Huriyah Dato, Baurung, Kec. Banggae Tim., Kabupaten Majene, Sulawesi Barat 91412","Baurung, Kec. Banggae Tim., Kabupaten Majene",SULAWESI BARAT,91412.0,Indonesia,82292368578.0,,,-3.5624031,118.995638,https://maps.google.com/?cid=0x0:0x70a32ed3a79adc2f,
hardware store,Grosir Beras,TOKO BERAS UD. BERSAMA,"FW2X+57X, Totoli, Kec. Banggae, Kabupaten Majene, Sulawesi Barat 91415","Totoli, Kec. Banggae, Kabupaten Majene",SULAWESI BARAT,91415.0,Indonesia,85394684336.0,,,-3.5495062,118.9482307,https://maps.google.com/?cid=0x0:0x8ac716204c44331,
hardware store,Pusat Perbelanjaan,Pasar Sentral Majene,"FX69+GM7, Banggae, Kec. Banggae, Kabupaten Majene, Sulawesi Barat 91412","Banggae, Kec. Banggae, Kabupaten Majene",SULAWESI BARAT,91412.0,Indonesia,82351451083.0,,,-3.5387032,118.9691675,https://maps.google.com/?cid=0x0:0x4bffc444b6e6d47e,
hardware store,Kafe,Momoyo Majene,"FX4F+53Q, Jl. Jenderal Sudirman, Labuang, Kec. Banggae Tim., Kabupaten Majene, Sulawesi Barat 91412","Jl. Jenderal Sudirman, Labuang, Kec. Banggae Tim., Kabupaten Majene",SULAWESI BARAT,91412.0,Indonesia,,,,-3.5445494,118.9727324,https://maps.google.com/?cid=0x0:0x1134a5cf0c8763a4,
hardware store,hardware store,Kec. Malunda,"Kabupaten Majene, Sulawesi Barat","Kabupaten Majene, Sulawesi Barat",SULAWESI BARAT,,Indonesia,,,,-3.0144575,118.8580249,https://maps.google.com/?cid=0x0:0x4b00fe7a2d4d1176,
hardware store,Toko bahan makanan,TB Cahaya Wajo,"XVX4+4P9, Jl. Poros Majene - Mamuju, Malunda, Kec. Malunda, Kabupaten Majene, Sulawesi Barat 91453","Jl. Poros Majene - Mamuju, Malunda, Kec. Malunda, Kabupaten Majene",SULAWESI BARAT,91453.0,Indonesia,,,,-3.0022185,118.8568712,https://maps.google.com/?cid=0x0:0x52e89b755b752568,
hardware store,Toko Bahan Bangunan,Toko Putra Tande 4 (Maliaya),"3VGH+G24, Maliaya, Kec. Malunda, Kabupaten Majene, Sulawesi Barat 91453","Maliaya, Kec. Malunda, Kabupaten Majene",SULAWESI BARAT,91453.0,Indonesia,,,,-2.9237401,118.8775631,https://maps.google.com/?cid=0x0:0x99c69afa8b83e91f,
hardware store,Toko bahan makanan,Toko hidayah,"XVW4+VP8, Jl. Poros Majene - Mamuju, Malunda, Kec. Malunda, Kabupaten Majene, Sulawesi Barat 91453","Jl. Poros Majene - Mamuju, Malunda, Kec. Malunda, Kabupaten Majene",SULAWESI BARAT,91453.0,Indonesia,,,,-3.0028376,118.856829,https://maps.google.com/?cid=0x0:0x4ab348f0ba9b07dd,
hardware store,Toko Bahan Bangunan,Sinar Tammaende,"XVP4+FFQ, Malunda, Kec. Malunda, Kabupaten Majene, Sulawesi Barat 91453","Malunda, Kec. Malunda, Kabupaten Majene",SULAWESI BARAT,91453.0,Indonesia,81264671628.0,,,-3.0137983,118.8562415,https://maps.google.com/?cid=0x0:0x57eeaac6e5d11e2e,
hardware store,hardware store,Sulawesi Barat 91451,"Kec. Pamboang, Kabupaten Majene, Sulawesi Barat","Kabupaten Majene, Sulawesi Barat",SULAWESI BARAT,,Indonesia,,,,-3.4651099,118.917927,https://maps.google.com/?cid=0x0:0x284e3301f580930a,
hardware store,Toko Bahan Bangunan,TOKO TANDE BANGUNAN,"HV9F+HHF, Sirindu, Kec. Pamboang, Kabupaten Majene, Sulawesi Barat 91451","Sirindu, Kec. Pamboang, Kabupaten Majene",SULAWESI BARAT,91451.0,Indonesia,81355678743.0,,,-3.4309921,118.8737447,https://maps.google.com/?cid=0x0:0x9f14d6e95cc3fb49,
hardware store,Perusahaan Konstruksi,Toko bangunan surya utama,"GV3W+R73, Jl. Poros Majene - Mamuju, Lalampanua, Kec. Pamboang, Kabupaten Majene, Sulawesi Barat 91451","Jl. Poros Majene - Mamuju, Lalampanua, Kec. Pamboang, Kabupaten Majene",SULAWESI BARAT,91451.0,Indonesia,,,,-3.4804914,118.8877015,https://maps.google.com/?cid=0x0:0x9a49d44f88b606f1,
hardware store,Perusahaan Konstruksi,Toko bahan bangunan,"FW96+QPH, Bonde, Kec. Pamboang, Kabupaten Majene, Sulawesi Barat 91451","Bonde, Kec. Pamboang, Kabupaten Majene",SULAWESI BARAT,91451.0,Indonesia,,,,-3.5307301,118.9119833,https://maps.google.com/?cid=0x0:0xdd412366a0600f59,
hardware store,Bengkel Sepeda Motor,Bengkel Sepeda Motor,"GVGH+PC4, Jl. Poros Majene - Mamuju, Sirindu, Kec. Pamboang, Kabupaten Majene, Sulawesi Barat 91451","Jl. Poros Majene - Mamuju, Sirindu, Kec. Pamboang, Kabupaten Majene",SULAWESI BARAT,91451.0,Indonesia,,,,-3.4722405,118.8784447,https://maps.google.com/?cid=0x0:0xba735f589d52ad5c,
hardware store,Toko Pakaian,Toko KDR Baru,"8V7G+7Q2, Jl. Diponegoro, Karema, Kec. Mamuju, Kabupaten Mamuju, Sulawesi Barat 91512","Jl. Diponegoro, Karema, Kec. Mamuju, Kabupaten Mamuju",SULAWESI BARAT,91512.0,Indonesia,85256467478.0,,,-2.6868544,118.8768934,https://maps.google.com/?cid=0x0:0x36cc584c79da7fda,
hardware store,Toko Pakaian,TOKO JAKARTA BARU,"8V7H+35X, Karema, Kec. Mamuju, Kabupaten Mamuju, Sulawesi Barat 91512","Karema, Kec. Mamuju, Kabupaten Mamuju",SULAWESI BARAT,91512.0,Indonesia,,,,-2.6872534,118.8779995,https://maps.google.com/?cid=0x0:0x3f56910918ebac64,
hardware store,Pusat Perbelanjaan,Toko Nirwana 3,"Mosso, Kec. Sendana, Kabupaten Majene, Sulawesi Barat 91452","Kec. Sendana, Kabupaten Majene",SULAWESI BARAT,91452.0,Indonesia,82190363282.0,,,-3.3696424,118.8490542,https://maps.google.com/?cid=0x0:0x1f86fe7f111052cd,
hardware store,Kantor Pemerintah,Dusun Lakkading Desa Limbua,"JVG2+V49, Jl. Poros Majene - Mamuju, Mosso, Kec. Sendana, Kabupaten Majene, Sulawesi Barat 91452","Jl. Poros Majene - Mamuju, Mosso, Kec. Sendana, Kabupaten Majene",SULAWESI BARAT,91452.0,Indonesia,81543451767.0,,,-3.3728477,118.8503748,https://maps.google.com/?cid=0x0:0x49d9261dc93e4196,
hardware store,hardware store,Sulawesi Selatan 91925,Sulawesi Selatan,Sulawesi Selatan,SULAWESI BARAT,,Indonesia,,,,-3.0575625,120.1762494,https://maps.google.com/?cid=0x0:0xc8c26aa2cc63531b,
hardware store,Pusat Perbelanjaan,Toko Nirwana 3,"Mosso, Kec. Sendana, Kabupaten Majene, Sulawesi Barat 91452","Kec. Sendana, Kabupaten Majene",SULAWESI BARAT,91452.0,Indonesia,82190363282.0,,,-3.3696424,118.8490542,https://maps.google.com/?cid=0x0:0x1f86fe7f111052cd,
hardware store,Toko Bahan Bangunan,Toko Fajar Bangunan Somba,"Mosso, Kec. Sendana, Kabupaten Majene, Sulawesi Barat 91452","Kec. Sendana, Kabupaten Majene",SULAWESI BARAT,91452.0,Indonesia,81355566646.0,,,-3.3691875,118.8489375,https://maps.google.com/?cid=0x0:0xaf501df1f4762db6,
hardware store,Kantor Pemerintah,Dusun Lakkading Desa Limbua,"JVG2+V49, Jl. Poros Majene - Mamuju, Mosso, Kec. Sendana, Kabupaten Majene, Sulawesi Barat 91452","Jl. Poros Majene - Mamuju, Mosso, Kec. Sendana, Kabupaten Majene",SULAWESI BARAT,91452.0,Indonesia,81543451767.0,,,-3.3728477,118.8503748,https://maps.google.com/?cid=0x0:0x49d9261dc93e4196,
hardware store,Toko Bahan Bangunan,Ishadana Hardware,"4, 09200 Kupang, Kedah, Malaysia",Kupang,SULAWESI BARAT,9200.0,Indonesia,,,,5.617463,100.8428419,https://maps.google.com/?cid=0x0:0x972b19d7f7777915,
hardware store,Toko Mainan,Hashdanecklace,"Jalan Kamal Cengkareng No.6,Cengkareng, Kota Daerah Khusus Ibukota Tower H Lantai 6 no 3 Apartemen Citypark, RT.7/RW.14, Cengkareng Tim., Kecamatan Cengkareng, DKI Jakarta, Daerah Khusus Ibukota Jakarta 11730","Kota Daerah Khusus Ibukota Tower H Lantai 6 no 3 Apartemen Citypark, RT.7/RW.14, Cengkareng Tim., Kecamatan Cengkareng, DKI Jakarta",SULAWESI BARAT,11730.0,Indonesia,87782001097.0,,,-6.1307744,106.7366596,https://maps.google.com/?cid=0x0:0x4bb5902dea2d6d3a,
hardware store,Toko Bahan Bangunan,Sm Super Trading,"Lot 3, MPKK 6, 6,5 Mile, Jalan Tuaran, Yisu Industrial, 88400 Kota Kinabalu, Sabah, Malaysia",Kota Kinabalu,SULAWESI BARAT,88400.0,Indonesia,6088423989.0,,,6.001262,116.142045,https://maps.google.com/?cid=0x0:0x9bfd65de8601635,
hardware store,Toko Bahan Bangunan,SANGAM HARDWARE,"WHJC+HFG, LLR Rd, garden area, Shivamogga, Karnataka 577201, India","LLR Rd, garden area, Shivamogga, Karnataka",SULAWESI BARAT,577201.0,Indonesia,,,,13.9314448,75.5712153,https://maps.google.com/?cid=0x0:0xadbb878c56660e20,
hardware store,Toko Bahan Bangunan,Seng Hin Hardware Company,"Jalan Tuaran Bypass, Inanan Laut, 88856 Kota Kinabalu, Sabah, Malaysia",Kota Kinabalu,SULAWESI BARAT,88856.0,Indonesia,6088387299.0,,,5.9997463,116.1262867,https://maps.google.com/?cid=0x0:0xa7f451b5bad30d08,
hardware store,Pusat Perbelanjaan,Toko Nirwana 3,"Mosso, Kec. Sendana, Kabupaten Majene, Sulawesi Barat 91452","Kec. Sendana, Kabupaten Majene",SULAWESI BARAT,91452.0,Indonesia,82190363282.0,,,-3.3696424,118.8490542,https://maps.google.com/?cid=0x0:0x1f86fe7f111052cd,
hardware store,Toko Bahan Bangunan,Toko Nirwana (Bahan Bangunan),"JR9X+R7M, Jl. Poros Majene - Mamuju, Mosso, Kec. Sendana, Kabupaten Majene, Sulawesi Barat 91452","Jl. Poros Majene - Mamuju, Mosso, Kec. Sendana, Kabupaten Majene",SULAWESI BARAT,91452.0,Indonesia,,,,-3.3804231,118.8481764,https://maps.google.com/?cid=0x0:0xcbd387ba5a895013,
hardware store,Kantor Pemerintah,Dusun Lakkading Desa Limbua,"JVG2+V49, Jl. Poros Majene - Mamuju, Mosso, Kec. Sendana, Kabupaten Majene, Sulawesi Barat 91452","Jl. Poros Majene - Mamuju, Mosso, Kec. Sendana, Kabupaten Majene",SULAWESI BARAT,91452.0,Indonesia,81543451767.0,,,-3.3728477,118.8503748,https://maps.google.com/?cid=0x0:0x49d9261dc93e4196,
hardware store,Perusahaan Konstruksi,MIHM ENTERPRISE GEDUNG HARDWARE,"No 9, Lot 698, Jln Kemajuan, Pekan Baru Kupang, 09200 Kupang, Kedah, Malaysia",Kupang,SULAWESI BARAT,9200.0,Indonesia,6044765633.0,,,5.6384876,100.8458195,https://maps.google.com/?cid=0x0:0x71ac62a9008d84c,
hardware store,Toko umum,Kios Jihan Tammerodo Sendana,"PRRR+396, pelattoang desa, 100 meter ke Utara dari Masjid Manarul Islam, Tammerodo, Sendana, Majene Regency, West Sulawesi 91452","pelattoang desa, 100 meter ke Utara dari Masjid Manarul Islam, Tammerodo, Sendana, Majene Regency",SULAWESI BARAT,91452.0,Indonesia,,,,-3.2604272,118.8411634,https://maps.google.com/?cid=0x0:0xa57be9b29f73ade0,
hardware store,Kios,Haji Darmu Kios serba ada,"PW92+J7R, Tallu Banua, Kec. Sendana, Kabupaten Majene, Sulawesi Barat 91452","Tallu Banua, Kec. Sendana, Kabupaten Majene",SULAWESI BARAT,91452.0,Indonesia,,,,-3.2805788,118.9004353,https://maps.google.com/?cid=0x0:0x26c901ca5ec67d23,
hardware store,hardware store,Kec. Sendana,"Kabupaten Majene, Sulawesi Barat","Kabupaten Majene, Sulawesi Barat",SULAWESI BARAT,,Indonesia,,,,-3.3754875,118.8481537,https://maps.google.com/?cid=0x0:0x347ca767410bf307,
hardware store,hardware store,LST Hardwarestore,"Karanaan villa, lot 2, Kg karanaan, 89657 Tambunan, Sabah, Malaysia",Tambunan,SULAWESI BARAT,89657.0,Indonesia,60178549585.0,,,5.6849628,116.376226,https://maps.google.com/?cid=0x0:0xaadc2398b57234b9,
hardware store,hardware store,Tubo,"Kec. Tubo Sendana, Kabupaten Majene, Sulawesi Barat","Kabupaten Majene, Sulawesi Barat",SULAWESI BARAT,,Indonesia,,,,-3.0987385,118.8188948,https://maps.google.com/?cid=0x0:0xb76634d6c060e8ad,
hardware store,Toko Perlengkapan Rumah,Putra Tande 3 Bonde-Bonde,"Onang Utara, Kec. Tubo Sendana, Kabupaten Majene, Sulawesi Barat 91452","Kec. Tubo Sendana, Kabupaten Majene",SULAWESI BARAT,91452.0,Indonesia,82345305663.0,,,-3.1158518,118.7819089,https://maps.google.com/?cid=0x0:0xe615d8cd0221ced5,
hardware store,Jembatan,Jembatan Tubo,"WR3H+RVF, Jl. Poros Majene - Mamuju, Tubo, Kec. Tubo Sendana, Kabupaten Majene, Sulawesi Barat 91452","Jl. Poros Majene - Mamuju, Tubo, Kec. Tubo Sendana, Kabupaten Majene",SULAWESI BARAT,91452.0,Indonesia,,,,-3.0954496,118.8296597,https://maps.google.com/?cid=0x0:0xb47fec8de3cca407,
hardware store,Toko,Toko Rijal,"VQWH+J2, Onang Utara, Kec. Tubo Sendana, Kabupaten Majene, Sulawesi Barat","Kabupaten Majene, Sulawesi Barat",SULAWESI BARAT,,Indonesia,,,,-3.1033541,118.7775952,https://maps.google.com/?cid=0x0:0x8f372777542957e6,
hardware store,Toko Perlengkapan Rumah,Putra Tande II Salutambung,"WR8P+7WQ, Jl. Poros Majene - Mamuju, Sambabo, Kec. Ulumanda, Kabupaten Majene, Sulawesi Barat 91453","Jl. Poros Majene - Mamuju, Sambabo, Kec. Ulumanda, Kabupaten Majene",SULAWESI BARAT,91453.0,Indonesia,81355901472.0,,,-3.0842772,118.8373488,https://maps.google.com/?cid=0x0:0x4950c715ad9b4d3d,
hardware store,hardware store,Sulawesi Barat 91453,"Kabupaten Majene, Sulawesi Barat","Kabupaten Majene, Sulawesi Barat",SULAWESI BARAT,,Indonesia,,,,-3.0270061,118.9994357,https://maps.google.com/?cid=0x0:0xbece4f3ae0e9d313,
