Category,Real Category,Business Name,Address,City,State,Postal Code,Country,Phone,Email,Website,Latitude,Longitude,Map Link,Details Link
mall,mall,Banggae,"Kec. Banggae, Kabupaten Majene, Sulawesi Barat","Kabupaten Majene, Sulawesi Barat",SULAWESI BARAT,,Indonesia,,,,-3.5282697,118.9674195,https://maps.google.com/?cid=0x0:0xff8e6fe09c57690d,
mall,Pasar,Pusat Pertokoan Majene,"FX49+J6G, Banggae, Kec. Banggae, Kabupaten Majene, Sulawesi Barat 91412","Banggae, Kec. Banggae, Kabupaten Majene",SULAWESI BARAT,91412.0,Indonesia,,,,-3.5434343,118.9680843,https://maps.google.com/?cid=0x0:0xad10208da1689ce4,
mall,Toko umum,Mall panakungan,"Jl. Jend. Sudirman No.111, Labuang, Kec. Banggae Tim., Kabupaten Majene, Sulawesi Barat 91412","Labuang, Kec. Banggae Tim., Kabupaten Majene",SULAWESI BARAT,91412.0,Indonesia,,,,-3.5451723,118.9798964,https://maps.google.com/?cid=0x0:0xae36986cd6c3cdf0,
mall,Minimarket,Naimcell,"FXJ6+R8Q, Tim, Baruga, Kec. Banggae Tim., Kabupaten Majene, Sulawesi Barat 91411","Tim, Baruga, Kec. Banggae Tim., Kabupaten Majene",SULAWESI BARAT,91411.0,Indonesia,,,,-3.517923,118.9608544,https://maps.google.com/?cid=0x0:0xa3300e69c0ac3fd8,
mall,Pusat Perbelanjaan,"MOMA, mall mahasiswa","FXCJ+P8H Tim, Tande, Kec. Banggae Tim., Kabupaten Majene, Sulawesi Barat 91413","Tande, Kec. Banggae Tim., Kabupaten Majene",SULAWESI BARAT,91413.0,Indonesia,82287676739.0,,,-3.528605,118.980039,https://maps.google.com/?cid=0x0:0xf8633008adf5ce4d,
mall,Toko,Balu-Balu AL AZZAM,"FX4C+G2M, Tim, Labuang, Kec. Banggae Tim., Kabupaten Majene, Sulawesi Barat 91412","Tim, Labuang, Kec. Banggae Tim., Kabupaten Majene",SULAWESI BARAT,91412.0,Indonesia,85299121567.0,,,-3.5436683,118.9700586,https://maps.google.com/?cid=0x0:0x616b6835c3107ea3,
mall,Toko,Toko Aneka Jaya,"Jl. Gatot Subroto No.24, Banggae, Kec. Banggae, Kabupaten Majene, Sulawesi Barat 91412","Banggae, Kec. Banggae, Kabupaten Majene",SULAWESI BARAT,91412.0,Indonesia,42222017.0,,,-3.5431207,118.9678904,https://maps.google.com/?cid=0x0:0x7ca24fb43e0a8230,
mall,Toko Kesehatan dan Kecantikan,Toko Citra Madina,"FX69+H6P, Pakkola, Jl. Mayjen Azis Bustam, Banggae, Kec. Banggae, Kabupaten Majene, Sulawesi Barat 91411","Pakkola, Jl. Mayjen Azis Bustam, Banggae, Kec. Banggae, Kabupaten Majene",SULAWESI BARAT,91411.0,Indonesia,,,,-3.5385325,118.9680934,https://maps.google.com/?cid=0x0:0xbb436ebbdaddeb64,
mall,Pusat Perbelanjaan,TOKO HJ. LINA,"FX59+84Q, Banggae, Kec. Banggae, Kabupaten Majene, Sulawesi Barat 91412","Banggae, Kec. Banggae, Kabupaten Majene",SULAWESI BARAT,91412.0,Indonesia,,,,-3.5416659,118.9678712,https://maps.google.com/?cid=0x0:0xa90ec167c6d7ecc5,
mall,Pusat Perbelanjaan,Toko H.ABD.DJALIL,"FX69+F7X, Banggae, Kec. Banggae, Kabupaten Majene, Sulawesi Barat 91412","Banggae, Kec. Banggae, Kabupaten Majene",SULAWESI BARAT,91412.0,Indonesia,81355334981.0,,,-3.5387695,118.9682399,https://maps.google.com/?cid=0x0:0xc55a05fc875fdf75,
mall,Pusat Perbelanjaan,Kios Anugerah (Subarman PY),"FX6C+7G2, Labuang, Kec. Banggae Tim., Kabupaten Majene, Sulawesi Barat 91412","Labuang, Kec. Banggae Tim., Kabupaten Majene",SULAWESI BARAT,91412.0,Indonesia,82393666533.0,,,-3.5393644,118.9712744,https://maps.google.com/?cid=0x0:0xdea0a42b0cd61f52,
mall,Pusat Perbelanjaan,Megamart Binanga,"FX49+CMH, Jl. Abdul Jalil, Labuang, Kec. Banggae Tim., Kabupaten Majene, Sulawesi Barat 91412","Jl. Abdul Jalil, Labuang, Kec. Banggae Tim., Kabupaten Majene",SULAWESI BARAT,91412.0,Indonesia,,,,-3.5439455,118.9692386,https://maps.google.com/?cid=0x0:0x37acf0b826e976b3,
mall,Toko Pakaian,Toko Pusat Jilbab Segi Empat dan Rabbani Cabang Majene (Dyah Rabbani),"Jl. Melati, Banggae, Kec. Banggae, Kabupaten Majene, Sulawesi Barat 91412","Banggae, Kec. Banggae, Kabupaten Majene",SULAWESI BARAT,91412.0,Indonesia,82326538960.0,,,-3.5392918,118.969023,https://maps.google.com/?cid=0x0:0x5b272f867e988570,
mall,Toko Fotokopi,Jasa Prin Out Harga Foto Copy,"Jl. Mayjend. Azis Bustan No.68, Banggae, Kec. Banggae, Kabupaten Majene, Sulawesi Barat 91412","Banggae, Kec. Banggae, Kabupaten Majene",SULAWESI BARAT,91412.0,Indonesia,81242274356.0,,,-3.5361177,118.9680497,https://maps.google.com/?cid=0x0:0xf7c5b451b531d5e4,
mall,Toko,Toko muhas,"FX79+674, Banggae, Kec. Banggae, Kabupaten Majene, Sulawesi Barat 91412","Banggae, Kec. Banggae, Kabupaten Majene",SULAWESI BARAT,91412.0,Indonesia,82196524622.0,,,-3.5369981,118.9682077,https://maps.google.com/?cid=0x0:0xa9c2b73f0735c698,
mall,Pusat Perbelanjaan,@NRSHOP,"Prof. Baharuddin Lopa No.2A, Labuang, Kec. Banggae Tim., Kabupaten Majene, Sulawesi Barat","Kabupaten Majene, Sulawesi Barat",SULAWESI BARAT,,Indonesia,82346172382.0,,,-3.5461532,118.9717594,https://maps.google.com/?cid=0x0:0x63af25cab9853724,
mall,Toko Pakaian,REMIX Distro,"Jl. Poros Majene - Mamuju No.45, Labuang, Kec. Banggae Tim., Kabupaten Majene, Sulawesi Barat 91412","Labuang, Kec. Banggae Tim., Kabupaten Majene",SULAWESI BARAT,91412.0,Indonesia,,,,-3.5441317,118.9711877,https://maps.google.com/?cid=0x0:0x25105cbe20bdaade,
mall,Toko,Harapan Baru Motor,"FX4C+RJ9, Labuang, Kec. Banggae Tim., Kabupaten Majene, Sulawesi Barat 91412","Labuang, Kec. Banggae Tim., Kabupaten Majene",SULAWESI BARAT,91412.0,Indonesia,,,,-3.5429695,118.9716121,https://maps.google.com/?cid=0x0:0x9c35b7c1b4aeb94f,
mall,Toko,UMAR - FARIDHA BUTIK,"FX69+W63, Banggae, Kec. Banggae, Kabupaten Majene, Sulawesi Barat 91412","Banggae, Kec. Banggae, Kabupaten Majene",SULAWESI BARAT,91412.0,Indonesia,85342566915.0,,,-3.5377469,118.9680587,https://maps.google.com/?cid=0x0:0x464704102e02fe7a,
mall,Toko Parfum,ADHI WANGI PARFUM,"Jl. Poros Majene - Mamuju No.178, Pangali-Ali, Kec. Banggae, Kabupaten Majene, Sulawesi Barat 91411","Pangali-Ali, Kec. Banggae, Kabupaten Majene",SULAWESI BARAT,91411.0,Indonesia,81310396750.0,,,-3.5486553,118.9574018,https://maps.google.com/?cid=0x0:0xa706c7f1a66d6e2c,
mall,Pusat Perbelanjaan,TOKO PANCING MAS MAJENE,"Jl. Muh. Yusuf Pusat Pertokoan Majene Banggae, Banggae, Kec. Banggae, Kabupaten Majene, Sulawesi Barat 91412","Banggae, Kec. Banggae, Kabupaten Majene",SULAWESI BARAT,91412.0,Indonesia,81343793651.0,,,-3.543699,118.9681548,https://maps.google.com/?cid=0x0:0x51d35d0903ebfb42,
mall,mall,Sulawesi Barat 91415,"Kec. Banggae, Kabupaten Majene, Sulawesi Barat","Kabupaten Majene, Sulawesi Barat",SULAWESI BARAT,,Indonesia,,,,-3.5405453,118.9353968,https://maps.google.com/?cid=0x0:0x79fb9d43a72e97bf,
mall,Pasar,Pusat Pertokoan Majene,"FX49+J6G, Banggae, Kec. Banggae, Kabupaten Majene, Sulawesi Barat 91412","Banggae, Kec. Banggae, Kabupaten Majene",SULAWESI BARAT,91412.0,Indonesia,,,,-3.5434343,118.9680843,https://maps.google.com/?cid=0x0:0xad10208da1689ce4,
mall,Toko umum,Mall panakungan,"Jl. Jend. Sudirman No.111, Labuang, Kec. Banggae Tim., Kabupaten Majene, Sulawesi Barat 91412","Labuang, Kec. Banggae Tim., Kabupaten Majene",SULAWESI BARAT,91412.0,Indonesia,,,,-3.5451723,118.9798964,https://maps.google.com/?cid=0x0:0xae36986cd6c3cdf0,
mall,Pusat Perbelanjaan,Amazone Majene Rangas,"CWPR+M6, Totoli, Kec. Banggae, Kabupaten Majene, Sulawesi Barat","Kabupaten Majene, Sulawesi Barat",SULAWESI BARAT,,Indonesia,,,,-3.5633409,118.9405944,https://maps.google.com/?cid=0x0:0x4a44a0e7e2bef73f,
mall,Minimarket,Naimcell,"FXJ6+R8Q, Tim, Baruga, Kec. Banggae Tim., Kabupaten Majene, Sulawesi Barat 91411","Tim, Baruga, Kec. Banggae Tim., Kabupaten Majene",SULAWESI BARAT,91411.0,Indonesia,,,,-3.517923,118.9608544,https://maps.google.com/?cid=0x0:0xa3300e69c0ac3fd8,
mall,Toko,Toko Olshop,"CWXH+F5R, Jl. Poros Majene - Mamuju, Totoli, Kec. Banggae, Kabupaten Majene, Sulawesi Barat 91415","Jl. Poros Majene - Mamuju, Totoli, Kec. Banggae, Kabupaten Majene",SULAWESI BARAT,91415.0,Indonesia,,,,-3.5512612,118.9278916,https://maps.google.com/?cid=0x0:0x94528b16b071981b,
mall,Toko,G.Pacific,"CWQM+CJ3, Jl. Gatot Subroto, Totoli, Kec. Banggae, Kabupaten Majene, Sulawesi Barat 91415","Jl. Gatot Subroto, Totoli, Kec. Banggae, Kabupaten Majene",SULAWESI BARAT,91415.0,Indonesia,81355962340.0,,,-3.5614782,118.9340378,https://maps.google.com/?cid=0x0:0x5a63d791bf3f91ed,
mall,Tujuan Wisata,Majene passarang,"CWWV+6W5, lingk passarang Selatan, Totoli, Kec. Banggae, Kabupaten Majene, Sulawesi Barat","Kabupaten Majene, Sulawesi Barat",SULAWESI BARAT,,Indonesia,,,,-3.5568454,118.9444118,https://maps.google.com/?cid=0x0:0x2cf87963c8c32497,
mall,Toko,Kios Beda Dua,"CWRV+93W, Totoli, Kec. Banggae, Kabupaten Majene, Sulawesi Barat 91415","Totoli, Kec. Banggae, Kabupaten Majene",SULAWESI BARAT,91415.0,Indonesia,85335166674.0,,,-3.5590904,118.9427425,https://maps.google.com/?cid=0x0:0x90701c5a59e3625d,
mall,Pusat Perbelanjaan,Toko H.ABD.DJALIL,"FX69+F7X, Banggae, Kec. Banggae, Kabupaten Majene, Sulawesi Barat 91412","Banggae, Kec. Banggae, Kabupaten Majene",SULAWESI BARAT,91412.0,Indonesia,81355334981.0,,,-3.5387695,118.9682399,https://maps.google.com/?cid=0x0:0xc55a05fc875fdf75,
mall,Pusat Perbelanjaan,Kios Anugerah (Subarman PY),"FX6C+7G2, Labuang, Kec. Banggae Tim., Kabupaten Majene, Sulawesi Barat 91412","Labuang, Kec. Banggae Tim., Kabupaten Majene",SULAWESI BARAT,91412.0,Indonesia,82393666533.0,,,-3.5393644,118.9712744,https://maps.google.com/?cid=0x0:0xdea0a42b0cd61f52,
mall,Restoran,Dermaga TIPALAYO. LUAOR,"FW77+CCX, Bonde, Kec. Pamboang, Kabupaten Majene, Sulawesi Barat 91415","Bonde, Kec. Pamboang, Kabupaten Majene",SULAWESI BARAT,91415.0,Indonesia,,,,-3.5363998,118.9136182,https://maps.google.com/?cid=0x0:0xbc4206fa5d694f14,
mall,Toko Aksesori Komputer,Percetakan Ibnu Komputer,"CWJR+9G4, Totoli, Kec. Banggae, Kabupaten Majene, Sulawesi Barat 91415","Totoli, Kec. Banggae, Kabupaten Majene",SULAWESI BARAT,91415.0,Indonesia,85146084709.0,,,-3.5691144,118.9413206,https://maps.google.com/?cid=0x0:0xedc972070bcfc070,
mall,mall,Siti Nurhayani,"FW7V+J35, Baru, Kec. Banggae, Kabupaten Majene, Sulawesi Barat 91415","Baru, Kec. Banggae, Kabupaten Majene",SULAWESI BARAT,91415.0,Indonesia,,,,-3.5359853,118.9427328,https://maps.google.com/?cid=0x0:0x7579c5fc9f850e1,
mall,Toko,Toko muhas,"FX79+674, Banggae, Kec. Banggae, Kabupaten Majene, Sulawesi Barat 91412","Banggae, Kec. Banggae, Kabupaten Majene",SULAWESI BARAT,91412.0,Indonesia,82196524622.0,,,-3.5369981,118.9682077,https://maps.google.com/?cid=0x0:0xa9c2b73f0735c698,
mall,mall,Banggae,"Kec. Banggae, Kabupaten Majene, Sulawesi Barat","Kabupaten Majene, Sulawesi Barat",SULAWESI BARAT,,Indonesia,,,,-3.5282697,118.9674195,https://maps.google.com/?cid=0x0:0xff8e6fe09c57690d,
mall,Pusat Perbelanjaan,"MOMA, mall mahasiswa","FXCJ+P8H Tim, Tande, Kec. Banggae Tim., Kabupaten Majene, Sulawesi Barat 91413","Tande, Kec. Banggae Tim., Kabupaten Majene",SULAWESI BARAT,91413.0,Indonesia,82287676739.0,,,-3.528605,118.980039,https://maps.google.com/?cid=0x0:0xf8633008adf5ce4d,
mall,Toko Swalayan,OWEN CELL MAJENE,"FX89+WV7, Banggae, Kec. Banggae, Kabupaten Majene, Sulawesi Barat 91412","Banggae, Kec. Banggae, Kabupaten Majene",SULAWESI BARAT,91412.0,Indonesia,82394300555.0,,,-3.5327121,118.9696724,https://maps.google.com/?cid=0x0:0x6a3bbf8aedafcd3b,
mall,Toko,Balu-Balu AL AZZAM,"FX4C+G2M, Tim, Labuang, Kec. Banggae Tim., Kabupaten Majene, Sulawesi Barat 91412","Tim, Labuang, Kec. Banggae Tim., Kabupaten Majene",SULAWESI BARAT,91412.0,Indonesia,85299121567.0,,,-3.5436683,118.9700586,https://maps.google.com/?cid=0x0:0x616b6835c3107ea3,
mall,Toko Kesehatan dan Kecantikan,Toko Citra Madina,"FX69+H6P, Pakkola, Jl. Mayjen Azis Bustam, Banggae, Kec. Banggae, Kabupaten Majene, Sulawesi Barat 91411","Pakkola, Jl. Mayjen Azis Bustam, Banggae, Kec. Banggae, Kabupaten Majene",SULAWESI BARAT,91411.0,Indonesia,,,,-3.5385325,118.9680934,https://maps.google.com/?cid=0x0:0xbb436ebbdaddeb64,
mall,Pusat Perbelanjaan,TOKO HJ. LINA,"FX59+84Q, Banggae, Kec. Banggae, Kabupaten Majene, Sulawesi Barat 91412","Banggae, Kec. Banggae, Kabupaten Majene",SULAWESI BARAT,91412.0,Indonesia,,,,-3.5416659,118.9678712,https://maps.google.com/?cid=0x0:0xa90ec167c6d7ecc5,
mall,Pusat Perbelanjaan,Megamart Binanga,"FX49+CMH, Jl. Abdul Jalil, Labuang, Kec. Banggae Tim., Kabupaten Majene, Sulawesi Barat 91412","Jl. Abdul Jalil, Labuang, Kec. Banggae Tim., Kabupaten Majene",SULAWESI BARAT,91412.0,Indonesia,,,,-3.5439455,118.9692386,https://maps.google.com/?cid=0x0:0x37acf0b826e976b3,
mall,Toko,Toko Aneka Jaya,"Jl. Gatot Subroto No.24, Banggae, Kec. Banggae, Kabupaten Majene, Sulawesi Barat 91412","Banggae, Kec. Banggae, Kabupaten Majene",SULAWESI BARAT,91412.0,Indonesia,42222017.0,,,-3.5431207,118.9678904,https://maps.google.com/?cid=0x0:0x7ca24fb43e0a8230,
mall,Toko Fotokopi,Jasa Prin Out Harga Foto Copy,"Jl. Mayjend. Azis Bustan No.68, Banggae, Kec. Banggae, Kabupaten Majene, Sulawesi Barat 91412","Banggae, Kec. Banggae, Kabupaten Majene",SULAWESI BARAT,91412.0,Indonesia,81242274356.0,,,-3.5361177,118.9680497,https://maps.google.com/?cid=0x0:0xf7c5b451b531d5e4,
mall,Pusat Perbelanjaan,@NRSHOP,"Prof. Baharuddin Lopa No.2A, Labuang, Kec. Banggae Tim., Kabupaten Majene, Sulawesi Barat","Kabupaten Majene, Sulawesi Barat",SULAWESI BARAT,,Indonesia,82346172382.0,,,-3.5461532,118.9717594,https://maps.google.com/?cid=0x0:0x63af25cab9853724,
mall,Toko Pakaian,Toko Pusat Jilbab Segi Empat dan Rabbani Cabang Majene (Dyah Rabbani),"Jl. Melati, Banggae, Kec. Banggae, Kabupaten Majene, Sulawesi Barat 91412","Banggae, Kec. Banggae, Kabupaten Majene",SULAWESI BARAT,91412.0,Indonesia,82326538960.0,,,-3.5392918,118.969023,https://maps.google.com/?cid=0x0:0x5b272f867e988570,
mall,Toko,UMAR - FARIDHA BUTIK,"FX69+W63, Banggae, Kec. Banggae, Kabupaten Majene, Sulawesi Barat 91412","Banggae, Kec. Banggae, Kabupaten Majene",SULAWESI BARAT,91412.0,Indonesia,85342566915.0,,,-3.5377469,118.9680587,https://maps.google.com/?cid=0x0:0x464704102e02fe7a,
mall,Toko Pakaian,REMIX Distro,"Jl. Poros Majene - Mamuju No.45, Labuang, Kec. Banggae Tim., Kabupaten Majene, Sulawesi Barat 91412","Labuang, Kec. Banggae Tim., Kabupaten Majene",SULAWESI BARAT,91412.0,Indonesia,,,,-3.5441317,118.9711877,https://maps.google.com/?cid=0x0:0x25105cbe20bdaade,
mall,Toko,Harapan Baru Motor,"FX4C+RJ9, Labuang, Kec. Banggae Tim., Kabupaten Majene, Sulawesi Barat 91412","Labuang, Kec. Banggae Tim., Kabupaten Majene",SULAWESI BARAT,91412.0,Indonesia,,,,-3.5429695,118.9716121,https://maps.google.com/?cid=0x0:0x9c35b7c1b4aeb94f,
mall,mall,Sulawesi Barat 91411,"Kabupaten Majene, Sulawesi Barat","Kabupaten Majene, Sulawesi Barat",SULAWESI BARAT,,Indonesia,,,,-3.477543,118.9470422,https://maps.google.com/?cid=0x0:0x1c73f38c478ef4ab,
mall,Pasar,Pusat Pertokoan Majene,"FX49+J6G, Banggae, Kec. Banggae, Kabupaten Majene, Sulawesi Barat 91412","Banggae, Kec. Banggae, Kabupaten Majene",SULAWESI BARAT,91412.0,Indonesia,,,,-3.5434343,118.9680843,https://maps.google.com/?cid=0x0:0xad10208da1689ce4,
mall,Pusat Perbelanjaan,"MOMA, mall mahasiswa","FXCJ+P8H Tim, Tande, Kec. Banggae Tim., Kabupaten Majene, Sulawesi Barat 91413","Tande, Kec. Banggae Tim., Kabupaten Majene",SULAWESI BARAT,91413.0,Indonesia,82287676739.0,,,-3.528605,118.980039,https://maps.google.com/?cid=0x0:0xf8633008adf5ce4d,
mall,Toko umum,Mall panakungan,"Jl. Jend. Sudirman No.111, Labuang, Kec. Banggae Tim., Kabupaten Majene, Sulawesi Barat 91412","Labuang, Kec. Banggae Tim., Kabupaten Majene",SULAWESI BARAT,91412.0,Indonesia,,,,-3.5451723,118.9798964,https://maps.google.com/?cid=0x0:0xae36986cd6c3cdf0,
mall,Toko Swalayan,OWEN CELL MAJENE,"FX89+WV7, Banggae, Kec. Banggae, Kabupaten Majene, Sulawesi Barat 91412","Banggae, Kec. Banggae, Kabupaten Majene",SULAWESI BARAT,91412.0,Indonesia,82394300555.0,,,-3.5327121,118.9696724,https://maps.google.com/?cid=0x0:0x6a3bbf8aedafcd3b,
mall,Toko Kesehatan dan Kecantikan,Toko Citra Madina,"FX69+H6P, Pakkola, Jl. Mayjen Azis Bustam, Banggae, Kec. Banggae, Kabupaten Majene, Sulawesi Barat 91411","Pakkola, Jl. Mayjen Azis Bustam, Banggae, Kec. Banggae, Kabupaten Majene",SULAWESI BARAT,91411.0,Indonesia,,,,-3.5385325,118.9680934,https://maps.google.com/?cid=0x0:0xbb436ebbdaddeb64,
mall,Toko bahan makanan,BRMLink Solution - KiosRayya Mandiri,"Lingkingan Ratte Segeri, Baruga Dua, Kec. Banggae Tim., Kabupaten Majene, Sulawesi Barat 91411","Baruga Dua, Kec. Banggae Tim., Kabupaten Majene",SULAWESI BARAT,91411.0,Indonesia,81245410281.0,,,-3.5028253,118.9604893,https://maps.google.com/?cid=0x0:0xac0bac3c8013fa8b,
mall,Toko,Balu-Balu AL AZZAM,"FX4C+G2M, Tim, Labuang, Kec. Banggae Tim., Kabupaten Majene, Sulawesi Barat 91412","Tim, Labuang, Kec. Banggae Tim., Kabupaten Majene",SULAWESI BARAT,91412.0,Indonesia,85299121567.0,,,-3.5436683,118.9700586,https://maps.google.com/?cid=0x0:0x616b6835c3107ea3,
mall,Toko Parfum,ADHI WANGI PARFUM,"Jl. Poros Majene - Mamuju No.178, Pangali-Ali, Kec. Banggae, Kabupaten Majene, Sulawesi Barat 91411","Pangali-Ali, Kec. Banggae, Kabupaten Majene",SULAWESI BARAT,91411.0,Indonesia,81310396750.0,,,-3.5486553,118.9574018,https://maps.google.com/?cid=0x0:0xa706c7f1a66d6e2c,
mall,Pusat Perbelanjaan,TOKO HJ. LINA,"FX59+84Q, Banggae, Kec. Banggae, Kabupaten Majene, Sulawesi Barat 91412","Banggae, Kec. Banggae, Kabupaten Majene",SULAWESI BARAT,91412.0,Indonesia,,,,-3.5416659,118.9678712,https://maps.google.com/?cid=0x0:0xa90ec167c6d7ecc5,
mall,Pusat Perbelanjaan,Kios Anugerah (Subarman PY),"FX6C+7G2, Labuang, Kec. Banggae Tim., Kabupaten Majene, Sulawesi Barat 91412","Labuang, Kec. Banggae Tim., Kabupaten Majene",SULAWESI BARAT,91412.0,Indonesia,82393666533.0,,,-3.5393644,118.9712744,https://maps.google.com/?cid=0x0:0xdea0a42b0cd61f52,
mall,Toko,Toko Aneka Jaya,"Jl. Gatot Subroto No.24, Banggae, Kec. Banggae, Kabupaten Majene, Sulawesi Barat 91412","Banggae, Kec. Banggae, Kabupaten Majene",SULAWESI BARAT,91412.0,Indonesia,42222017.0,,,-3.5431207,118.9678904,https://maps.google.com/?cid=0x0:0x7ca24fb43e0a8230,
mall,Toko,Toko muhas,"FX79+674, Banggae, Kec. Banggae, Kabupaten Majene, Sulawesi Barat 91412","Banggae, Kec. Banggae, Kabupaten Majene",SULAWESI BARAT,91412.0,Indonesia,82196524622.0,,,-3.5369981,118.9682077,https://maps.google.com/?cid=0x0:0xa9c2b73f0735c698,
mall,Pusat Perbelanjaan,Toko H.ABD.DJALIL,"FX69+F7X, Banggae, Kec. Banggae, Kabupaten Majene, Sulawesi Barat 91412","Banggae, Kec. Banggae, Kabupaten Majene",SULAWESI BARAT,91412.0,Indonesia,81355334981.0,,,-3.5387695,118.9682399,https://maps.google.com/?cid=0x0:0xc55a05fc875fdf75,
mall,Pusat Perbelanjaan,Megamart Binanga,"FX49+CMH, Jl. Abdul Jalil, Labuang, Kec. Banggae Tim., Kabupaten Majene, Sulawesi Barat 91412","Jl. Abdul Jalil, Labuang, Kec. Banggae Tim., Kabupaten Majene",SULAWESI BARAT,91412.0,Indonesia,,,,-3.5439455,118.9692386,https://maps.google.com/?cid=0x0:0x37acf0b826e976b3,
mall,Toko Pakaian,Toko Pusat Jilbab Segi Empat dan Rabbani Cabang Majene (Dyah Rabbani),"Jl. Melati, Banggae, Kec. Banggae, Kabupaten Majene, Sulawesi Barat 91412","Banggae, Kec. Banggae, Kabupaten Majene",SULAWESI BARAT,91412.0,Indonesia,82326538960.0,,,-3.5392918,118.969023,https://maps.google.com/?cid=0x0:0x5b272f867e988570,
mall,Toko Fotokopi,Jasa Prin Out Harga Foto Copy,"Jl. Mayjend. Azis Bustan No.68, Banggae, Kec. Banggae, Kabupaten Majene, Sulawesi Barat 91412","Banggae, Kec. Banggae, Kabupaten Majene",SULAWESI BARAT,91412.0,Indonesia,81242274356.0,,,-3.5361177,118.9680497,https://maps.google.com/?cid=0x0:0xf7c5b451b531d5e4,
mall,mall,Rumah M.Abrar(Ci Cy),"Segeri Buttu Baruga, Baruga Dua, Kec. Banggae Tim., Kabupaten Majene, Sulawesi Barat","Kabupaten Majene, Sulawesi Barat",SULAWESI BARAT,,Indonesia,,,,-3.5035085,118.9609247,https://maps.google.com/?cid=0x0:0xe05634ee9bcd289d,
mall,Toko,Hj Asma,"CXX5+V7H, Jl. Tenno Heiko, Pangali-Ali, Kec. Banggae, Kabupaten Majene, Sulawesi Barat","Kabupaten Majene, Sulawesi Barat",SULAWESI BARAT,,Indonesia,,,,-3.550559,118.9586165,https://maps.google.com/?cid=0x0:0x1dd97ad28070c6ac,
mall,Pembangunan Perumahan,amma cell,"GX44+9V3, Baruga Dua, Kec. Banggae Tim., Kabupaten Majene, Sulawesi Barat 91414","Baruga Dua, Kec. Banggae Tim., Kabupaten Majene",SULAWESI BARAT,91414.0,Indonesia,,,,-3.4941242,118.9571847,https://maps.google.com/?cid=0x0:0xaa60b27ca11ad97f,
mall,mall,Kec. Banggae Tim.,"Kabupaten Majene, Sulawesi Barat","Kabupaten Majene, Sulawesi Barat",SULAWESI BARAT,,Indonesia,,,,-3.5443284,118.9724991,https://maps.google.com/?cid=0x0:0x8a3d219855bd6a6e,
mall,Toko Pakaian,REMIX Distro,"Jl. Poros Majene - Mamuju No.45, Labuang, Kec. Banggae Tim., Kabupaten Majene, Sulawesi Barat 91412","Labuang, Kec. Banggae Tim., Kabupaten Majene",SULAWESI BARAT,91412.0,Indonesia,,,,-3.5441317,118.9711877,https://maps.google.com/?cid=0x0:0x25105cbe20bdaade,
mall,Toko Pakaian,TOKO RAFAAHIYYAH,"FX4M+422, Jl. Poros Majene - Mamuju, Baurung, Kec. Banggae Tim., Kabupaten Majene, Sulawesi Barat 91412","Jl. Poros Majene - Mamuju, Baurung, Kec. Banggae Tim., Kabupaten Majene",SULAWESI BARAT,91412.0,Indonesia,,,,-3.5447447,118.982523,https://maps.google.com/?cid=0x0:0x5a0ff581c7af0294,
mall,Pusat Perbelanjaan,@NRSHOP,"Prof. Baharuddin Lopa No.2A, Labuang, Kec. Banggae Tim., Kabupaten Majene, Sulawesi Barat","Kabupaten Majene, Sulawesi Barat",SULAWESI BARAT,,Indonesia,82346172382.0,,,-3.5461532,118.9717594,https://maps.google.com/?cid=0x0:0x63af25cab9853724,
mall,Toko Kosmetik,Wiewieshop,"FX6R+VG2, Baurung, Kec. Banggae Tim., Kabupaten Majene, Sulawesi Barat 91412","Baurung, Kec. Banggae Tim., Kabupaten Majene",SULAWESI BARAT,91412.0,Indonesia,82291988110.0,,,-3.5378716,118.9912714,https://maps.google.com/?cid=0x0:0x5e233650030832a8,
mall,Pusat Perbelanjaan,MS Glow Majene,"Tim., Bar, Baurung, Kec. Banggae Tim., Kabupaten Majene, Sulawesi Barat 91412","Bar, Baurung, Kec. Banggae Tim., Kabupaten Majene",SULAWESI BARAT,91412.0,Indonesia,82294201859.0,,,-3.5388682,118.9921961,https://maps.google.com/?cid=0x0:0xe0c98da4911d5cb0,
mall,Toko,UMAR - FARIDHA BUTIK,"FX69+W63, Banggae, Kec. Banggae, Kabupaten Majene, Sulawesi Barat 91412","Banggae, Kec. Banggae, Kabupaten Majene",SULAWESI BARAT,91412.0,Indonesia,85342566915.0,,,-3.5377469,118.9680587,https://maps.google.com/?cid=0x0:0x464704102e02fe7a,
mall,mall,Sulawesi Barat 91412,"Kabupaten Majene, Sulawesi Barat","Kabupaten Majene, Sulawesi Barat",SULAWESI BARAT,,Indonesia,,,,-3.5389571,118.9819731,https://maps.google.com/?cid=0x0:0x5b7ee02006e2dbbd,
mall,Pasar,Pusat Pertokoan Majene,"FX49+J6G, Banggae, Kec. Banggae, Kabupaten Majene, Sulawesi Barat 91412","Banggae, Kec. Banggae, Kabupaten Majene",SULAWESI BARAT,91412.0,Indonesia,,,,-3.5434343,118.9680843,https://maps.google.com/?cid=0x0:0xad10208da1689ce4,
mall,Pusat Perbelanjaan,"MOMA, mall mahasiswa","FXCJ+P8H Tim, Tande, Kec. Banggae Tim., Kabupaten Majene, Sulawesi Barat 91413","Tande, Kec. Banggae Tim., Kabupaten Majene",SULAWESI BARAT,91413.0,Indonesia,82287676739.0,,,-3.528605,118.980039,https://maps.google.com/?cid=0x0:0xf8633008adf5ce4d,
mall,Toko umum,Mall panakungan,"Jl. Jend. Sudirman No.111, Labuang, Kec. Banggae Tim., Kabupaten Majene, Sulawesi Barat 91412","Labuang, Kec. Banggae Tim., Kabupaten Majene",SULAWESI BARAT,91412.0,Indonesia,,,,-3.5451723,118.9798964,https://maps.google.com/?cid=0x0:0xae36986cd6c3cdf0,
mall,Pusat Perbelanjaan,Kios Anugerah (Subarman PY),"FX6C+7G2, Labuang, Kec. Banggae Tim., Kabupaten Majene, Sulawesi Barat 91412","Labuang, Kec. Banggae Tim., Kabupaten Majene",SULAWESI BARAT,91412.0,Indonesia,82393666533.0,,,-3.5393644,118.9712744,https://maps.google.com/?cid=0x0:0xdea0a42b0cd61f52,
mall,Toko Swalayan,OWEN CELL MAJENE,"FX89+WV7, Banggae, Kec. Banggae, Kabupaten Majene, Sulawesi Barat 91412","Banggae, Kec. Banggae, Kabupaten Majene",SULAWESI BARAT,91412.0,Indonesia,82394300555.0,,,-3.5327121,118.9696724,https://maps.google.com/?cid=0x0:0x6a3bbf8aedafcd3b,
mall,Pusat Perbelanjaan,Toko H.ABD.DJALIL,"FX69+F7X, Banggae, Kec. Banggae, Kabupaten Majene, Sulawesi Barat 91412","Banggae, Kec. Banggae, Kabupaten Majene",SULAWESI BARAT,91412.0,Indonesia,81355334981.0,,,-3.5387695,118.9682399,https://maps.google.com/?cid=0x0:0xc55a05fc875fdf75,
mall,Pusat Perbelanjaan,Megamart Binanga,"FX49+CMH, Jl. Abdul Jalil, Labuang, Kec. Banggae Tim., Kabupaten Majene, Sulawesi Barat 91412","Jl. Abdul Jalil, Labuang, Kec. Banggae Tim., Kabupaten Majene",SULAWESI BARAT,91412.0,Indonesia,,,,-3.5439455,118.9692386,https://maps.google.com/?cid=0x0:0x37acf0b826e976b3,
mall,Pusat Perbelanjaan,MS Glow Majene,"Tim., Bar, Baurung, Kec. Banggae Tim., Kabupaten Majene, Sulawesi Barat 91412","Bar, Baurung, Kec. Banggae Tim., Kabupaten Majene",SULAWESI BARAT,91412.0,Indonesia,82294201859.0,,,-3.5388682,118.9921961,https://maps.google.com/?cid=0x0:0xe0c98da4911d5cb0,
mall,Toko,Toko Aneka Jaya,"Jl. Gatot Subroto No.24, Banggae, Kec. Banggae, Kabupaten Majene, Sulawesi Barat 91412","Banggae, Kec. Banggae, Kabupaten Majene",SULAWESI BARAT,91412.0,Indonesia,42222017.0,,,-3.5431207,118.9678904,https://maps.google.com/?cid=0x0:0x7ca24fb43e0a8230,
mall,Toko Pakaian,TOKO RAFAAHIYYAH,"FX4M+422, Jl. Poros Majene - Mamuju, Baurung, Kec. Banggae Tim., Kabupaten Majene, Sulawesi Barat 91412","Jl. Poros Majene - Mamuju, Baurung, Kec. Banggae Tim., Kabupaten Majene",SULAWESI BARAT,91412.0,Indonesia,,,,-3.5447447,118.982523,https://maps.google.com/?cid=0x0:0x5a0ff581c7af0294,
mall,Minimarket,Naimcell,"FXJ6+R8Q, Tim, Baruga, Kec. Banggae Tim., Kabupaten Majene, Sulawesi Barat 91411","Tim, Baruga, Kec. Banggae Tim., Kabupaten Majene",SULAWESI BARAT,91411.0,Indonesia,,,,-3.517923,118.9608544,https://maps.google.com/?cid=0x0:0xa3300e69c0ac3fd8,
mall,Toko Pakaian,REMIX Distro,"Jl. Poros Majene - Mamuju No.45, Labuang, Kec. Banggae Tim., Kabupaten Majene, Sulawesi Barat 91412","Labuang, Kec. Banggae Tim., Kabupaten Majene",SULAWESI BARAT,91412.0,Indonesia,,,,-3.5441317,118.9711877,https://maps.google.com/?cid=0x0:0x25105cbe20bdaade,
mall,Toko Pakaian,Toko Pusat Jilbab Segi Empat dan Rabbani Cabang Majene (Dyah Rabbani),"Jl. Melati, Banggae, Kec. Banggae, Kabupaten Majene, Sulawesi Barat 91412","Banggae, Kec. Banggae, Kabupaten Majene",SULAWESI BARAT,91412.0,Indonesia,82326538960.0,,,-3.5392918,118.969023,https://maps.google.com/?cid=0x0:0x5b272f867e988570,
mall,Toko Kesehatan dan Kecantikan,Toko Citra Madina,"FX69+H6P, Pakkola, Jl. Mayjen Azis Bustam, Banggae, Kec. Banggae, Kabupaten Majene, Sulawesi Barat 91411","Pakkola, Jl. Mayjen Azis Bustam, Banggae, Kec. Banggae, Kabupaten Majene",SULAWESI BARAT,91411.0,Indonesia,,,,-3.5385325,118.9680934,https://maps.google.com/?cid=0x0:0xbb436ebbdaddeb64,
mall,Pusat Perbelanjaan,TOKO HJ. LINA,"FX59+84Q, Banggae, Kec. Banggae, Kabupaten Majene, Sulawesi Barat 91412","Banggae, Kec. Banggae, Kabupaten Majene",SULAWESI BARAT,91412.0,Indonesia,,,,-3.5416659,118.9678712,https://maps.google.com/?cid=0x0:0xa90ec167c6d7ecc5,
mall,Toko,Toko muhas,"FX79+674, Banggae, Kec. Banggae, Kabupaten Majene, Sulawesi Barat 91412","Banggae, Kec. Banggae, Kabupaten Majene",SULAWESI BARAT,91412.0,Indonesia,82196524622.0,,,-3.5369981,118.9682077,https://maps.google.com/?cid=0x0:0xa9c2b73f0735c698,
mall,Toko,UMAR - FARIDHA BUTIK,"FX69+W63, Banggae, Kec. Banggae, Kabupaten Majene, Sulawesi Barat 91412","Banggae, Kec. Banggae, Kabupaten Majene",SULAWESI BARAT,91412.0,Indonesia,85342566915.0,,,-3.5377469,118.9680587,https://maps.google.com/?cid=0x0:0x464704102e02fe7a,
mall,Toko bahan makanan,BRMLink Solution - KiosRayya Mandiri,"Lingkingan Ratte Segeri, Baruga Dua, Kec. Banggae Tim., Kabupaten Majene, Sulawesi Barat 91411","Baruga Dua, Kec. Banggae Tim., Kabupaten Majene",SULAWESI BARAT,91411.0,Indonesia,81245410281.0,,,-3.5028253,118.9604893,https://maps.google.com/?cid=0x0:0xac0bac3c8013fa8b,
mall,Toko,Boss helm sulbar,"Jl. Poros Majene - Mamuju No.3, Baurung, Kec. Banggae Tim., Kabupaten Majene, Sulawesi Barat 91412","Baurung, Kec. Banggae Tim., Kabupaten Majene",SULAWESI BARAT,91412.0,Indonesia,85256029399.0,,,-3.5366224,118.9929065,https://maps.google.com/?cid=0x0:0x1e329eefef5998f7,
mall,mall,Kec. Banggae Tim.,"Kabupaten Majene, Sulawesi Barat","Kabupaten Majene, Sulawesi Barat",SULAWESI BARAT,,Indonesia,,,,-3.5443284,118.9724991,https://maps.google.com/?cid=0x0:0x8a3d219855bd6a6e,
mall,Pusat Perbelanjaan,@NRSHOP,"Prof. Baharuddin Lopa No.2A, Labuang, Kec. Banggae Tim., Kabupaten Majene, Sulawesi Barat","Kabupaten Majene, Sulawesi Barat",SULAWESI BARAT,,Indonesia,82346172382.0,,,-3.5461532,118.9717594,https://maps.google.com/?cid=0x0:0x63af25cab9853724,
mall,Toko Fotokopi,Jasa Prin Out Harga Foto Copy,"Jl. Mayjend. Azis Bustan No.68, Banggae, Kec. Banggae, Kabupaten Majene, Sulawesi Barat 91412","Banggae, Kec. Banggae, Kabupaten Majene",SULAWESI BARAT,91412.0,Indonesia,81242274356.0,,,-3.5361177,118.9680497,https://maps.google.com/?cid=0x0:0xf7c5b451b531d5e4,
mall,Toko Kosmetik,Wiewieshop,"FX6R+VG2, Baurung, Kec. Banggae Tim., Kabupaten Majene, Sulawesi Barat 91412","Baurung, Kec. Banggae Tim., Kabupaten Majene",SULAWESI BARAT,91412.0,Indonesia,82291988110.0,,,-3.5378716,118.9912714,https://maps.google.com/?cid=0x0:0x5e233650030832a8,
mall,mall,Sulawesi Barat 91413,"Kabupaten Polewali Mandar, Sulawesi Barat","Kabupaten Polewali Mandar, Sulawesi Barat",SULAWESI BARAT,,Indonesia,,,,-3.4627787,118.9877942,https://maps.google.com/?cid=0x0:0x36c6611542b63c82,
mall,Pasar,Pusat Pertokoan Majene,"FX49+J6G, Banggae, Kec. Banggae, Kabupaten Majene, Sulawesi Barat 91412","Banggae, Kec. Banggae, Kabupaten Majene",SULAWESI BARAT,91412.0,Indonesia,,,,-3.5434343,118.9680843,https://maps.google.com/?cid=0x0:0xad10208da1689ce4,
mall,Pusat Perbelanjaan,"MOMA, mall mahasiswa","FXCJ+P8H Tim, Tande, Kec. Banggae Tim., Kabupaten Majene, Sulawesi Barat 91413","Tande, Kec. Banggae Tim., Kabupaten Majene",SULAWESI BARAT,91413.0,Indonesia,82287676739.0,,,-3.528605,118.980039,https://maps.google.com/?cid=0x0:0xf8633008adf5ce4d,
mall,Toko,Balu-Balu AL AZZAM,"FX4C+G2M, Tim, Labuang, Kec. Banggae Tim., Kabupaten Majene, Sulawesi Barat 91412","Tim, Labuang, Kec. Banggae Tim., Kabupaten Majene",SULAWESI BARAT,91412.0,Indonesia,85299121567.0,,,-3.5436683,118.9700586,https://maps.google.com/?cid=0x0:0x616b6835c3107ea3,
mall,Toko umum,Mall panakungan,"Jl. Jend. Sudirman No.111, Labuang, Kec. Banggae Tim., Kabupaten Majene, Sulawesi Barat 91412","Labuang, Kec. Banggae Tim., Kabupaten Majene",SULAWESI BARAT,91412.0,Indonesia,,,,-3.5451723,118.9798964,https://maps.google.com/?cid=0x0:0xae36986cd6c3cdf0,
mall,Toko Swalayan,OWEN CELL MAJENE,"FX89+WV7, Banggae, Kec. Banggae, Kabupaten Majene, Sulawesi Barat 91412","Banggae, Kec. Banggae, Kabupaten Majene",SULAWESI BARAT,91412.0,Indonesia,82394300555.0,,,-3.5327121,118.9696724,https://maps.google.com/?cid=0x0:0x6a3bbf8aedafcd3b,
mall,Pembangunan Perumahan,amma cell,"GX44+9V3, Baruga Dua, Kec. Banggae Tim., Kabupaten Majene, Sulawesi Barat 91414","Baruga Dua, Kec. Banggae Tim., Kabupaten Majene",SULAWESI BARAT,91414.0,Indonesia,,,,-3.4941242,118.9571847,https://maps.google.com/?cid=0x0:0xaa60b27ca11ad97f,
mall,Pusat Perbelanjaan,Kios Anugerah (Subarman PY),"FX6C+7G2, Labuang, Kec. Banggae Tim., Kabupaten Majene, Sulawesi Barat 91412","Labuang, Kec. Banggae Tim., Kabupaten Majene",SULAWESI BARAT,91412.0,Indonesia,82393666533.0,,,-3.5393644,118.9712744,https://maps.google.com/?cid=0x0:0xdea0a42b0cd61f52,
mall,Toko bahan makanan,BRMLink Solution - KiosRayya Mandiri,"Lingkingan Ratte Segeri, Baruga Dua, Kec. Banggae Tim., Kabupaten Majene, Sulawesi Barat 91411","Baruga Dua, Kec. Banggae Tim., Kabupaten Majene",SULAWESI BARAT,91411.0,Indonesia,81245410281.0,,,-3.5028253,118.9604893,https://maps.google.com/?cid=0x0:0xac0bac3c8013fa8b,
mall,mall,Rumah M.Abrar(Ci Cy),"Segeri Buttu Baruga, Baruga Dua, Kec. Banggae Tim., Kabupaten Majene, Sulawesi Barat","Kabupaten Majene, Sulawesi Barat",SULAWESI BARAT,,Indonesia,,,,-3.5035085,118.9609247,https://maps.google.com/?cid=0x0:0xe05634ee9bcd289d,
mall,Toko Pakaian,Toko Pusat Jilbab Segi Empat dan Rabbani Cabang Majene (Dyah Rabbani),"Jl. Melati, Banggae, Kec. Banggae, Kabupaten Majene, Sulawesi Barat 91412","Banggae, Kec. Banggae, Kabupaten Majene",SULAWESI BARAT,91412.0,Indonesia,82326538960.0,,,-3.5392918,118.969023,https://maps.google.com/?cid=0x0:0x5b272f867e988570,
mall,Toko Kosmetik,Wiewieshop,"FX6R+VG2, Baurung, Kec. Banggae Tim., Kabupaten Majene, Sulawesi Barat 91412","Baurung, Kec. Banggae Tim., Kabupaten Majene",SULAWESI BARAT,91412.0,Indonesia,82291988110.0,,,-3.5378716,118.9912714,https://maps.google.com/?cid=0x0:0x5e233650030832a8,
mall,Toko,Toko Aneka Jaya,"Jl. Gatot Subroto No.24, Banggae, Kec. Banggae, Kabupaten Majene, Sulawesi Barat 91412","Banggae, Kec. Banggae, Kabupaten Majene",SULAWESI BARAT,91412.0,Indonesia,42222017.0,,,-3.5431207,118.9678904,https://maps.google.com/?cid=0x0:0x7ca24fb43e0a8230,
mall,Toko Pakaian,TOKO RAFAAHIYYAH,"FX4M+422, Jl. Poros Majene - Mamuju, Baurung, Kec. Banggae Tim., Kabupaten Majene, Sulawesi Barat 91412","Jl. Poros Majene - Mamuju, Baurung, Kec. Banggae Tim., Kabupaten Majene",SULAWESI BARAT,91412.0,Indonesia,,,,-3.5447447,118.982523,https://maps.google.com/?cid=0x0:0x5a0ff581c7af0294,
mall,Toko Pakaian,REMIX Distro,"Jl. Poros Majene - Mamuju No.45, Labuang, Kec. Banggae Tim., Kabupaten Majene, Sulawesi Barat 91412","Labuang, Kec. Banggae Tim., Kabupaten Majene",SULAWESI BARAT,91412.0,Indonesia,,,,-3.5441317,118.9711877,https://maps.google.com/?cid=0x0:0x25105cbe20bdaade,
mall,Toko Kesehatan dan Kecantikan,Toko Citra Madina,"FX69+H6P, Pakkola, Jl. Mayjen Azis Bustam, Banggae, Kec. Banggae, Kabupaten Majene, Sulawesi Barat 91411","Pakkola, Jl. Mayjen Azis Bustam, Banggae, Kec. Banggae, Kabupaten Majene",SULAWESI BARAT,91411.0,Indonesia,,,,-3.5385325,118.9680934,https://maps.google.com/?cid=0x0:0xbb436ebbdaddeb64,
mall,Pusat Perbelanjaan,Toko H.ABD.DJALIL,"FX69+F7X, Banggae, Kec. Banggae, Kabupaten Majene, Sulawesi Barat 91412","Banggae, Kec. Banggae, Kabupaten Majene",SULAWESI BARAT,91412.0,Indonesia,81355334981.0,,,-3.5387695,118.9682399,https://maps.google.com/?cid=0x0:0xc55a05fc875fdf75,
mall,Toko,Toko muhas,"FX79+674, Banggae, Kec. Banggae, Kabupaten Majene, Sulawesi Barat 91412","Banggae, Kec. Banggae, Kabupaten Majene",SULAWESI BARAT,91412.0,Indonesia,82196524622.0,,,-3.5369981,118.9682077,https://maps.google.com/?cid=0x0:0xa9c2b73f0735c698,
mall,Pusat Perbelanjaan,Megamart Binanga,"FX49+CMH, Jl. Abdul Jalil, Labuang, Kec. Banggae Tim., Kabupaten Majene, Sulawesi Barat 91412","Jl. Abdul Jalil, Labuang, Kec. Banggae Tim., Kabupaten Majene",SULAWESI BARAT,91412.0,Indonesia,,,,-3.5439455,118.9692386,https://maps.google.com/?cid=0x0:0x37acf0b826e976b3,
mall,Pusat Perbelanjaan,MS Glow Majene,"Tim., Bar, Baurung, Kec. Banggae Tim., Kabupaten Majene, Sulawesi Barat 91412","Bar, Baurung, Kec. Banggae Tim., Kabupaten Majene",SULAWESI BARAT,91412.0,Indonesia,82294201859.0,,,-3.5388682,118.9921961,https://maps.google.com/?cid=0x0:0xe0c98da4911d5cb0,
mall,mall,Kec. Banggae Tim.,"Kabupaten Majene, Sulawesi Barat","Kabupaten Majene, Sulawesi Barat",SULAWESI BARAT,,Indonesia,,,,-3.5443284,118.9724991,https://maps.google.com/?cid=0x0:0x8a3d219855bd6a6e,
mall,Pusat Perbelanjaan,@NRSHOP,"Prof. Baharuddin Lopa No.2A, Labuang, Kec. Banggae Tim., Kabupaten Majene, Sulawesi Barat","Kabupaten Majene, Sulawesi Barat",SULAWESI BARAT,,Indonesia,82346172382.0,,,-3.5461532,118.9717594,https://maps.google.com/?cid=0x0:0x63af25cab9853724,
mall,Pusat Perbelanjaan,TOKO HJ. LINA,"FX59+84Q, Banggae, Kec. Banggae, Kabupaten Majene, Sulawesi Barat 91412","Banggae, Kec. Banggae, Kabupaten Majene",SULAWESI BARAT,91412.0,Indonesia,,,,-3.5416659,118.9678712,https://maps.google.com/?cid=0x0:0xa90ec167c6d7ecc5,
mall,Toko,Harapan Baru Motor,"FX4C+RJ9, Labuang, Kec. Banggae Tim., Kabupaten Majene, Sulawesi Barat 91412","Labuang, Kec. Banggae Tim., Kabupaten Majene",SULAWESI BARAT,91412.0,Indonesia,,,,-3.5429695,118.9716121,https://maps.google.com/?cid=0x0:0x9c35b7c1b4aeb94f,
mall,mall,Sulawesi Barat 91414,"Kec. Banggae Tim., Kabupaten Majene, Sulawesi Barat","Kabupaten Majene, Sulawesi Barat",SULAWESI BARAT,,Indonesia,,,,-3.504363,118.9470422,https://maps.google.com/?cid=0x0:0xa2a58b17ca1668be,
mall,Minimarket,Naimcell,"FXJ6+R8Q, Tim, Baruga, Kec. Banggae Tim., Kabupaten Majene, Sulawesi Barat 91411","Tim, Baruga, Kec. Banggae Tim., Kabupaten Majene",SULAWESI BARAT,91411.0,Indonesia,,,,-3.517923,118.9608544,https://maps.google.com/?cid=0x0:0xa3300e69c0ac3fd8,
mall,Pasar,Pusat Pertokoan Majene,"FX49+J6G, Banggae, Kec. Banggae, Kabupaten Majene, Sulawesi Barat 91412","Banggae, Kec. Banggae, Kabupaten Majene",SULAWESI BARAT,91412.0,Indonesia,,,,-3.5434343,118.9680843,https://maps.google.com/?cid=0x0:0xad10208da1689ce4,
mall,Pembangunan Perumahan,amma cell,"GX44+9V3, Baruga Dua, Kec. Banggae Tim., Kabupaten Majene, Sulawesi Barat 91414","Baruga Dua, Kec. Banggae Tim., Kabupaten Majene",SULAWESI BARAT,91414.0,Indonesia,,,,-3.4941242,118.9571847,https://maps.google.com/?cid=0x0:0xaa60b27ca11ad97f,
mall,Toko bahan makanan,BRMLink Solution - KiosRayya Mandiri,"Lingkingan Ratte Segeri, Baruga Dua, Kec. Banggae Tim., Kabupaten Majene, Sulawesi Barat 91411","Baruga Dua, Kec. Banggae Tim., Kabupaten Majene",SULAWESI BARAT,91411.0,Indonesia,81245410281.0,,,-3.5028253,118.9604893,https://maps.google.com/?cid=0x0:0xac0bac3c8013fa8b,
mall,mall,Rumah M.Abrar(Ci Cy),"Segeri Buttu Baruga, Baruga Dua, Kec. Banggae Tim., Kabupaten Majene, Sulawesi Barat","Kabupaten Majene, Sulawesi Barat",SULAWESI BARAT,,Indonesia,,,,-3.5035085,118.9609247,https://maps.google.com/?cid=0x0:0xe05634ee9bcd289d,
mall,Pusat Perbelanjaan,Kios Anugerah (Subarman PY),"FX6C+7G2, Labuang, Kec. Banggae Tim., Kabupaten Majene, Sulawesi Barat 91412","Labuang, Kec. Banggae Tim., Kabupaten Majene",SULAWESI BARAT,91412.0,Indonesia,82393666533.0,,,-3.5393644,118.9712744,https://maps.google.com/?cid=0x0:0xdea0a42b0cd61f52,
mall,Pusat Perbelanjaan,Toko H.ABD.DJALIL,"FX69+F7X, Banggae, Kec. Banggae, Kabupaten Majene, Sulawesi Barat 91412","Banggae, Kec. Banggae, Kabupaten Majene",SULAWESI BARAT,91412.0,Indonesia,81355334981.0,,,-3.5387695,118.9682399,https://maps.google.com/?cid=0x0:0xc55a05fc875fdf75,
mall,mall,Kec. Banggae Tim.,"Kabupaten Majene, Sulawesi Barat","Kabupaten Majene, Sulawesi Barat",SULAWESI BARAT,,Indonesia,,,,-3.5443284,118.9724991,https://maps.google.com/?cid=0x0:0x8a3d219855bd6a6e,
mall,Toko,Toko Olshop,"CWXH+F5R, Jl. Poros Majene - Mamuju, Totoli, Kec. Banggae, Kabupaten Majene, Sulawesi Barat 91415","Jl. Poros Majene - Mamuju, Totoli, Kec. Banggae, Kabupaten Majene",SULAWESI BARAT,91415.0,Indonesia,,,,-3.5512612,118.9278916,https://maps.google.com/?cid=0x0:0x94528b16b071981b,
mall,Toko,Toko muhas,"FX79+674, Banggae, Kec. Banggae, Kabupaten Majene, Sulawesi Barat 91412","Banggae, Kec. Banggae, Kabupaten Majene",SULAWESI BARAT,91412.0,Indonesia,82196524622.0,,,-3.5369981,118.9682077,https://maps.google.com/?cid=0x0:0xa9c2b73f0735c698,
mall,mall,Kec. Malunda,"Kabupaten Majene, Sulawesi Barat","Kabupaten Majene, Sulawesi Barat",SULAWESI BARAT,,Indonesia,,,,-3.0144575,118.8580249,https://maps.google.com/?cid=0x0:0x4b00fe7a2d4d1176,
mall,Pusat Perbelanjaan,Adilah Collection,"2V54+PG6, Jl. Poros Majene - Mamuju, Malunda, Kec. Malunda, Kabupaten Majene, Sulawesi Barat 91453","Jl. Poros Majene - Mamuju, Malunda, Kec. Malunda, Kabupaten Majene",SULAWESI BARAT,91453.0,Indonesia,85242123580.0,,,-2.9907244,118.8562628,https://maps.google.com/?cid=0x0:0x1c83ff83cfad93b8,
mall,Toko bahan makanan,Toserba Murah Malunda,"XVW4+6J8, Jl. Poros Majene - Mamuju, Malunda, Kec. Malunda, Kabupaten Majene, Sulawesi Barat 91453","Jl. Poros Majene - Mamuju, Malunda, Kec. Malunda, Kabupaten Majene",SULAWESI BARAT,91453.0,Indonesia,82296759508.0,,,-3.0044473,118.856587,https://maps.google.com/?cid=0x0:0xd565676700fad533,
mall,Toserba,Toko galang,"XVR4+CM7, Malunda, Kec. Malunda, Kabupaten Majene, Sulawesi Barat 91453","Malunda, Kec. Malunda, Kabupaten Majene",SULAWESI BARAT,91453.0,Indonesia,85240873368.0,,,-3.0089644,118.856671,https://maps.google.com/?cid=0x0:0x814538e5e209b0cb,
mall,Pasar,MALUNDA PONSEL,"XVM5+M9X, Unnamed Road, Malunda, Kec. Malunda, Kabupaten Majene, Sulawesi Barat 91453","Unnamed Road, Malunda, Kec. Malunda, Kabupaten Majene",SULAWESI BARAT,91453.0,Indonesia,85394960671.0,,,-3.0157517,118.8584971,https://maps.google.com/?cid=0x0:0x5e62c37bc4fd8671,
mall,mall,Sulawesi Barat 91451,"Kec. Pamboang, Kabupaten Majene, Sulawesi Barat","Kabupaten Majene, Sulawesi Barat",SULAWESI BARAT,,Indonesia,,,,-3.4651099,118.917927,https://maps.google.com/?cid=0x0:0x284e3301f580930a,
mall,Pasar,Pasar Kecamatan Pamboang,"GV4W+7G4, Desa Tinambung, Lalampanua, Kec. Pamboang, Kabupaten Majene, Sulawesi Barat 91451","Desa Tinambung, Lalampanua, Kec. Pamboang, Kabupaten Majene",SULAWESI BARAT,91451.0,Indonesia,,,,-3.4943609,118.8963283,https://maps.google.com/?cid=0x0:0x6e46663ad32a3187,
mall,Toko umum,Mall panakungan,"Jl. Jend. Sudirman No.111, Labuang, Kec. Banggae Tim., Kabupaten Majene, Sulawesi Barat 91412","Labuang, Kec. Banggae Tim., Kabupaten Majene",SULAWESI BARAT,91412.0,Indonesia,,,,-3.5451723,118.9798964,https://maps.google.com/?cid=0x0:0xae36986cd6c3cdf0,
mall,Minimarket,Indomaret Pamboang Kabupaten Majene,"GV5W+QRX, Lalampanua, Kec. Pamboang, Kabupaten Majene, Sulawesi Barat 91451","Lalampanua, Kec. Pamboang, Kabupaten Majene",SULAWESI BARAT,91451.0,Indonesia,,,,-3.4905099,118.8971151,https://maps.google.com/?cid=0x0:0x469b6c8fbd376fbc,
mall,mall,PELO' PAMBOANG,"GV5W+JRQ, Jl. Poros Majene - Mamuju, Lalampanua, Kec. Pamboang, Kabupaten Majene, Sulawesi Barat 91451","Jl. Poros Majene - Mamuju, Lalampanua, Kec. Pamboang, Kabupaten Majene",SULAWESI BARAT,91451.0,Indonesia,85255895284.0,,,-3.4911002,118.8971748,https://maps.google.com/?cid=0x0:0xed526f122da9d69e,
mall,Pusat Perbelanjaan,Kios Anugerah (Subarman PY),"FX6C+7G2, Labuang, Kec. Banggae Tim., Kabupaten Majene, Sulawesi Barat 91412","Labuang, Kec. Banggae Tim., Kabupaten Majene",SULAWESI BARAT,91412.0,Indonesia,82393666533.0,,,-3.5393644,118.9712744,https://maps.google.com/?cid=0x0:0xdea0a42b0cd61f52,
mall,Pusat Perbelanjaan,INDRA CELL,"HVJC+4QG, Jl. Poros Majene - Mamuju, Mosso Dhua, Kec. Sendana, Kabupaten Majene, Sulawesi Barat 91452","Jl. Poros Majene - Mamuju, Mosso Dhua, Kec. Sendana, Kabupaten Majene",SULAWESI BARAT,91452.0,Indonesia,82192650798.0,,,-3.4196941,118.8719634,https://maps.google.com/?cid=0x0:0x45b057adc5d0fb8b,
mall,Pusat Perbelanjaan,Megamart Binanga,"FX49+CMH, Jl. Abdul Jalil, Labuang, Kec. Banggae Tim., Kabupaten Majene, Sulawesi Barat 91412","Jl. Abdul Jalil, Labuang, Kec. Banggae Tim., Kabupaten Majene",SULAWESI BARAT,91412.0,Indonesia,,,,-3.5439455,118.9692386,https://maps.google.com/?cid=0x0:0x37acf0b826e976b3,
mall,Kantor Perusahaan,Maleo Town Square,"Jl. Yos Sudarso No.37, Binanga, Kec. Mamuju, Kabupaten Mamuju, Sulawesi Barat 91511","Binanga, Kec. Mamuju, Kabupaten Mamuju",SULAWESI BARAT,91511.0,Indonesia,81280867009.0,,,-2.6692803,118.8916841,https://maps.google.com/?cid=0x0:0x87dbaf62ffc34e7c,
mall,Pusat Perbelanjaan,AMBO G'NDONG ( T'A'M ),"J6XP+9C2, Pelitakan, Kec. Tapango, Kabupaten Polewali Mandar, Sulawesi Barat 91352","Pelitakan, Kec. Tapango, Kabupaten Polewali Mandar",SULAWESI BARAT,91352.0,Indonesia,89669969669.0,,,-3.3516089,119.2360301,https://maps.google.com/?cid=0x0:0xe9876fa983e54289,
mall,Pusat Perbelanjaan,MATOS MALL OTC,"8VJR+7MC, Jl. Yos Sudarso, Binanga, Kec. Mamuju, Kabupaten Mamuju, Sulawesi Barat 91511","Jl. Yos Sudarso, Binanga, Kec. Mamuju, Kabupaten Mamuju",SULAWESI BARAT,91511.0,Indonesia,,,,-2.669308,118.8916431,https://maps.google.com/?cid=0x0:0xd0c1f3bfb34f7b6,
mall,Toko,"Ariana (Percetakan,Olshop)","HVX6+P8G, Mosso Dhua, Kec. Sendana, Kabupaten Majene, Sulawesi Barat 91452","Mosso Dhua, Kec. Sendana, Kabupaten Majene",SULAWESI BARAT,91452.0,Indonesia,85396978213.0,,,-3.4006884,118.8608215,https://maps.google.com/?cid=0x0:0x94419d53252fc71e,
mall,Taman,Pesisir Pantai Pamboang,"GV6W+6C3, Lalampanua, Kec. Pamboang, Kabupaten Majene, Sulawesi Barat 91451","Lalampanua, Kec. Pamboang, Kabupaten Majene",SULAWESI BARAT,91451.0,Indonesia,,,,-3.4894852,118.8960513,https://maps.google.com/?cid=0x0:0x574367055d596e3f,
mall,Makanan Siap Saji,RUMAH MAKAN DAPUR MANDAR,"JL. HASANUDDIN, LINGK. GALUNG-GALUNG, Lalampanua, Kec. Pamboang, Kabupaten Majene, Sulawesi Barat 91451","LINGK. GALUNG-GALUNG, Lalampanua, Kec. Pamboang, Kabupaten Majene",SULAWESI BARAT,91451.0,Indonesia,85256096346.0,,,-3.4899972,118.8963188,https://maps.google.com/?cid=0x0:0x8a06db4fedfbfb98,
mall,Toko Buku,Toko Baruga Art House Pamboang,"GV7X+J2M, Poros Majene Mamuju Dusun Tinambung Desa Tinambung, Kec. Pamboang, Kabupaten Majene, Sulawesi Barat","Kabupaten Majene, Sulawesi Barat",SULAWESI BARAT,,Indonesia,,,,-3.4958827,118.8948639,https://maps.google.com/?cid=0x0:0x2e09a453fd543c5b,
mall,Toko,Sendana Case,"MVW5+4RP, Jl. Poros Majene - Mamuju, Sendana, Kec. Sendana, Kabupaten Majene, Sulawesi Barat 91452","Jl. Poros Majene - Mamuju, Sendana, Kec. Sendana, Kabupaten Majene",SULAWESI BARAT,91452.0,Indonesia,82357975995.0,,,-3.3046631,118.8595722,https://maps.google.com/?cid=0x0:0xfebbe6271185b83a,
mall,,Sul-Cell,"JRCX+R56, Jl. Poros Majene - Mamuju, Mosso, Kec. Sendana, Kabupaten Majene, Sulawesi Barat 91452","Jl. Poros Majene - Mamuju, Mosso, Kec. Sendana, Kabupaten Majene",SULAWESI BARAT,91452.0,Indonesia,81242171726.0,,,-3.3779651,118.8478879,https://maps.google.com/?cid=0x0:0x3359a9042d4f11ce,
mall,Kantor Perusahaan,Maleo Town Square,"Jl. Yos Sudarso No.37, Binanga, Kec. Mamuju, Kabupaten Mamuju, Sulawesi Barat 91511","Binanga, Kec. Mamuju, Kabupaten Mamuju",SULAWESI BARAT,91511.0,Indonesia,81280867009.0,,,-2.6692803,118.8916841,https://maps.google.com/?cid=0x0:0x87dbaf62ffc34e7c,
mall,Toko,"Ariana (Percetakan,Olshop)","HVX6+P8G, Mosso Dhua, Kec. Sendana, Kabupaten Majene, Sulawesi Barat 91452","Mosso Dhua, Kec. Sendana, Kabupaten Majene",SULAWESI BARAT,91452.0,Indonesia,85396978213.0,,,-3.4006884,118.8608215,https://maps.google.com/?cid=0x0:0x94419d53252fc71e,
mall,Toko,APMarket,"JRFW+GR7, Mosso, Kec. Sendana, Kabupaten Majene, Sulawesi Barat 91452","Mosso, Kec. Sendana, Kabupaten Majene",SULAWESI BARAT,91452.0,Indonesia,85298555896.0,,,-3.3762025,118.8470501,https://maps.google.com/?cid=0x0:0x23f0a02ab6bb39d8,
mall,Toko,KEDAI LAWUAYA,"JVF2+CJR, Mosso, Kec. Sendana, Kabupaten Majene, Sulawesi Barat 91452","Mosso, Kec. Sendana, Kabupaten Majene",SULAWESI BARAT,91452.0,Indonesia,,,,-3.3763853,118.8515256,https://maps.google.com/?cid=0x0:0x15958b86bc98493f,
mall,Pusat Perbelanjaan,INDRA CELL,"HVJC+4QG, Jl. Poros Majene - Mamuju, Mosso Dhua, Kec. Sendana, Kabupaten Majene, Sulawesi Barat 91452","Jl. Poros Majene - Mamuju, Mosso Dhua, Kec. Sendana, Kabupaten Majene",SULAWESI BARAT,91452.0,Indonesia,82192650798.0,,,-3.4196941,118.8719634,https://maps.google.com/?cid=0x0:0x45b057adc5d0fb8b,
mall,mall,Kec. Sendana,"Kabupaten Majene, Sulawesi Barat","Kabupaten Majene, Sulawesi Barat",SULAWESI BARAT,,Indonesia,,,,-3.3754875,118.8481537,https://maps.google.com/?cid=0x0:0x347ca767410bf307,
mall,Bengkel Logam,AISYAH SPORT  BENGKEL LAS SOPONYONO,"Jl. Limbua Dusun Lakkading No.91452, Mosso, Kec. Sendana, Kabupaten Majene, Sulawesi Barat 91452","Mosso, Kec. Sendana, Kabupaten Majene",SULAWESI BARAT,91452.0,Indonesia,85340852229.0,,,-3.3733305,118.8488283,https://maps.google.com/?cid=0x0:0xfc211921af89e268,
mall,Toko Bahan Bangunan,Toko Nirwana (Bahan Bangunan),"JR9X+R7M, Jl. Poros Majene - Mamuju, Mosso, Kec. Sendana, Kabupaten Majene, Sulawesi Barat 91452","Jl. Poros Majene - Mamuju, Mosso, Kec. Sendana, Kabupaten Majene",SULAWESI BARAT,91452.0,Indonesia,,,,-3.3804231,118.8481764,https://maps.google.com/?cid=0x0:0xcbd387ba5a895013,
mall,Toko bahan makanan,Toko Rahmat,"JRCX+X37, Jl. Poros Majene - Mamuju, Mosso, Kec. Sendana, Kabupaten Majene, Sulawesi Barat 91452","Jl. Poros Majene - Mamuju, Mosso, Kec. Sendana, Kabupaten Majene",SULAWESI BARAT,91452.0,Indonesia,81543066676.0,,,-3.3775811,118.8476599,https://maps.google.com/?cid=0x0:0xe0efbf35f347fb2d,
mall,mall,Sulawesi Selatan 91925,Sulawesi Selatan,Sulawesi Selatan,SULAWESI BARAT,,Indonesia,,,,-3.0575625,120.1762494,https://maps.google.com/?cid=0x0:0xc8c26aa2cc63531b,
mall,Toko,Sendana Case,"MVW5+4RP, Jl. Poros Majene - Mamuju, Sendana, Kec. Sendana, Kabupaten Majene, Sulawesi Barat 91452","Jl. Poros Majene - Mamuju, Sendana, Kec. Sendana, Kabupaten Majene",SULAWESI BARAT,91452.0,Indonesia,82357975995.0,,,-3.3046631,118.8595722,https://maps.google.com/?cid=0x0:0xfebbe6271185b83a,
mall,Toko,"Ariana (Percetakan,Olshop)","HVX6+P8G, Mosso Dhua, Kec. Sendana, Kabupaten Majene, Sulawesi Barat 91452","Mosso Dhua, Kec. Sendana, Kabupaten Majene",SULAWESI BARAT,91452.0,Indonesia,85396978213.0,,,-3.4006884,118.8608215,https://maps.google.com/?cid=0x0:0x94419d53252fc71e,
mall,Toko,APMarket,"JRFW+GR7, Mosso, Kec. Sendana, Kabupaten Majene, Sulawesi Barat 91452","Mosso, Kec. Sendana, Kabupaten Majene",SULAWESI BARAT,91452.0,Indonesia,85298555896.0,,,-3.3762025,118.8470501,https://maps.google.com/?cid=0x0:0x23f0a02ab6bb39d8,
mall,Toko,KEDAI LAWUAYA,"JVF2+CJR, Mosso, Kec. Sendana, Kabupaten Majene, Sulawesi Barat 91452","Mosso, Kec. Sendana, Kabupaten Majene",SULAWESI BARAT,91452.0,Indonesia,,,,-3.3763853,118.8515256,https://maps.google.com/?cid=0x0:0x15958b86bc98493f,
mall,Pusat Perbelanjaan,INDRA CELL,"HVJC+4QG, Jl. Poros Majene - Mamuju, Mosso Dhua, Kec. Sendana, Kabupaten Majene, Sulawesi Barat 91452","Jl. Poros Majene - Mamuju, Mosso Dhua, Kec. Sendana, Kabupaten Majene",SULAWESI BARAT,91452.0,Indonesia,82192650798.0,,,-3.4196941,118.8719634,https://maps.google.com/?cid=0x0:0x45b057adc5d0fb8b,
mall,Pusat Perbelanjaan,Gandaria City,"Jl. Sultan Iskandar Muda, Gandaria, Kec. Kby. Lama, Kota Jakarta Selatan, Daerah Khusus Ibukota Jakarta 12240","Gandaria, Kec. Kby. Lama, Kota Jakarta Selatan",SULAWESI BARAT,12240.0,Indonesia,2129052888.0,,,-6.2443009,106.7829375,https://maps.google.com/?cid=0x0:0x6173704d396d5a99,
mall,Pusat Perbelanjaan,Blok M Plaza,"Jl. Bulungan No.76, RT.6/RW.6, Kramat Pela, Kec. Kby. Baru, Kota Jakarta Selatan, Daerah Khusus Ibukota Jakarta 12130","RT.6/RW.6, Kramat Pela, Kec. Kby. Baru, Kota Jakarta Selatan",SULAWESI BARAT,12130.0,Indonesia,217209288.0,,,-6.2441189,106.7976404,https://maps.google.com/?cid=0x0:0x3e110f817acb352d,
mall,Pusat Perbelanjaan,Lippo Mall Nusantara,"Kawasan Bisnis Granadha, Jl. Jend. Sudirman No.Kav. 50, Karet Semanggi, Kecamatan Setiabudi, Kota Jakarta Selatan, Daerah Khusus Ibukota Jakarta 12930","Jl. Jend. Sudirman No.Kav. 50, Karet Semanggi, Kecamatan Setiabudi, Kota Jakarta Selatan",SULAWESI BARAT,12930.0,Indonesia,81292197433.0,,,-6.2208309,106.813989,https://maps.google.com/?cid=0x0:0x7a508480f6b357e9,
mall,Pusat Perbelanjaan,Summarecon Mall Kelapa Gading,"Jl. Boulevard Raya, Klp. Gading Tim., Kec. Klp. Gading, Jkt Utara, Daerah Khusus Ibukota Jakarta 14240","Klp. Gading Tim., Kec. Klp. Gading, Jkt Utara",SULAWESI BARAT,14240.0,Indonesia,214531101.0,,,-6.1572666,106.9084263,https://maps.google.com/?cid=0x0:0x1c1a278e20ff1c47,
mall,Plaza,Plaza Semanggi,"Jl. Jend. Sudirman No.109 1, RT.1/RW.4, Kuningan, Karet Semanggi, Kecamatan Setiabudi, Kota Jakarta Selatan, Daerah Khusus Ibukota Jakarta 12930","RT.1/RW.4, Kuningan, Karet Semanggi, Kecamatan Setiabudi, Kota Jakarta Selatan",SULAWESI BARAT,12930.0,Indonesia,,,,-6.2202733,106.8144215,https://maps.google.com/?cid=0x0:0xa70174a31e62192f,
mall,Pusat Perbelanjaan,Plaza Indonesia,"Jl. M.H. Thamrin No.Kav.28-30, Gondangdia, Kec. Menteng, Kota Jakarta Pusat, Daerah Khusus Ibukota Jakarta 10350","Gondangdia, Kec. Menteng, Kota Jakarta Pusat",SULAWESI BARAT,10350.0,Indonesia,2129920000.0,,,-6.1935977,106.8219468,https://maps.google.com/?cid=0x0:0x7d7fe17ad64a053f,
mall,Pusat Perbelanjaan,Pasaraya The Pride Of Indonesia,"Jl. Iskandarsyah Raya No.2 3, RT.3/RW.1, Melawai, Kec. Kby. Baru, Kota Jakarta Selatan, Daerah Khusus Ibukota Jakarta 12160","RT.3/RW.1, Melawai, Kec. Kby. Baru, Kota Jakarta Selatan",SULAWESI BARAT,12160.0,Indonesia,,,,-6.2437201,106.8027126,https://maps.google.com/?cid=0x0:0xd378fb99a8c05fbb,
mall,Pusat Perbelanjaan,Mall Artha Gading Jakarta,"Jl. Artha Gading Sel. No.1, Klp. Gading Bar., Kec. Klp. Gading, Jkt Utara, Daerah Khusus Ibukota Jakarta 14240","Klp. Gading Bar., Kec. Klp. Gading, Jkt Utara",SULAWESI BARAT,14240.0,Indonesia,2145864000.0,,,-6.1457739,106.8919187,https://maps.google.com/?cid=0x0:0x176166b3d087c724,
mall,Toko bahan makanan,Daily Foodhall moi kelapa gading,"VV2R+32X, Mall Of Indonesia, JL. Boulevard Barat Raya, Kelapa Gading, RT.18/RW.8, Klp. Gading Bar., Kec. Klp. Gading, Jkt Utara, Daerah Khusus Ibukota Jakarta 14240","Mall Of Indonesia, JL. Boulevard Barat Raya, Kelapa Gading, RT.18/RW.8, Klp. Gading Bar., Kec. Klp. Gading, Jkt Utara",SULAWESI BARAT,14240.0,Indonesia,,,,-6.1497646,106.8901133,https://maps.google.com/?cid=0x0:0x1316d56418cbbf2,
mall,mall,Sulawesi Selatan 91959,"Kec. Sendana, Kota Palopo, Sulawesi Selatan","Kota Palopo, Sulawesi Selatan",SULAWESI BARAT,,Indonesia,,,,-3.0655982,120.1993381,https://maps.google.com/?cid=0x0:0xb66b64b75a7884a,
mall,Toko,Sendana Case,"MVW5+4RP, Jl. Poros Majene - Mamuju, Sendana, Kec. Sendana, Kabupaten Majene, Sulawesi Barat 91452","Jl. Poros Majene - Mamuju, Sendana, Kec. Sendana, Kabupaten Majene",SULAWESI BARAT,91452.0,Indonesia,82357975995.0,,,-3.3046631,118.8595722,https://maps.google.com/?cid=0x0:0xfebbe6271185b83a,
mall,,Sul-Cell,"JRCX+R56, Jl. Poros Majene - Mamuju, Mosso, Kec. Sendana, Kabupaten Majene, Sulawesi Barat 91452","Jl. Poros Majene - Mamuju, Mosso, Kec. Sendana, Kabupaten Majene",SULAWESI BARAT,91452.0,Indonesia,81242171726.0,,,-3.3779651,118.8478879,https://maps.google.com/?cid=0x0:0x3359a9042d4f11ce,
mall,Toko umum,Mall panakungan,"Jl. Jend. Sudirman No.111, Labuang, Kec. Banggae Tim., Kabupaten Majene, Sulawesi Barat 91412","Labuang, Kec. Banggae Tim., Kabupaten Majene",SULAWESI BARAT,91412.0,Indonesia,,,,-3.5451723,118.9798964,https://maps.google.com/?cid=0x0:0xae36986cd6c3cdf0,
mall,Toko,KEDAI LAWUAYA,"JVF2+CJR, Mosso, Kec. Sendana, Kabupaten Majene, Sulawesi Barat 91452","Mosso, Kec. Sendana, Kabupaten Majene",SULAWESI BARAT,91452.0,Indonesia,,,,-3.3763853,118.8515256,https://maps.google.com/?cid=0x0:0x15958b86bc98493f,
mall,Toko,"Ariana (Percetakan,Olshop)","HVX6+P8G, Mosso Dhua, Kec. Sendana, Kabupaten Majene, Sulawesi Barat 91452","Mosso Dhua, Kec. Sendana, Kabupaten Majene",SULAWESI BARAT,91452.0,Indonesia,85396978213.0,,,-3.4006884,118.8608215,https://maps.google.com/?cid=0x0:0x94419d53252fc71e,
mall,Pusat Perbelanjaan,INDRA CELL,"HVJC+4QG, Jl. Poros Majene - Mamuju, Mosso Dhua, Kec. Sendana, Kabupaten Majene, Sulawesi Barat 91452","Jl. Poros Majene - Mamuju, Mosso Dhua, Kec. Sendana, Kabupaten Majene",SULAWESI BARAT,91452.0,Indonesia,82192650798.0,,,-3.4196941,118.8719634,https://maps.google.com/?cid=0x0:0x45b057adc5d0fb8b,
mall,Toko umum,Kios Sahabat,"Jl. Poros Majene - Mamuju, Sendana, Kec. Sendana, Kabupaten Majene, Sulawesi Barat 91452","Sendana, Kec. Sendana, Kabupaten Majene",SULAWESI BARAT,91452.0,Indonesia,,,,-3.3228884,118.84454,https://maps.google.com/?cid=0x0:0x86f225d0aec6380c,
mall,Museum,Anjungan Sulawesi Selatan,"Jl. Taman Mini Indonesia Indah No.10c, Ceger, Kec. Cipayung, Kota Jakarta Timur, Daerah Khusus Ibukota Jakarta 13820","Ceger, Kec. Cipayung, Kota Jakarta Timur",SULAWESI BARAT,13820.0,Indonesia,2187792078.0,,,-6.3034929,106.8997065,https://maps.google.com/?cid=0x0:0x8db7b1e654f5da3d,
mall,Museum,Anjungan Sulawesi Tenggara,"MWW2+M2F, RT.4/RW.2, Ceger, Kec. Cipayung, Kota Jakarta Timur, Daerah Khusus Ibukota Jakarta 13820","RT.4/RW.2, Ceger, Kec. Cipayung, Kota Jakarta Timur",SULAWESI BARAT,13820.0,Indonesia,,,,-6.3033231,106.9000462,https://maps.google.com/?cid=0x0:0x89084cc7de475766,
mall,Museum,Anjungan Sulawesi Tengah TMII,"MWX2+P67, Taman Mini Indonesia Indah, Jalan Pintu 1, Ceger, Kec. Cipayung, Kota Jakarta Timur, Daerah Khusus Ibukota Jakarta 13820","Taman Mini Indonesia Indah, Jalan Pintu 1, Ceger, Kec. Cipayung, Kota Jakarta Timur",SULAWESI BARAT,13820.0,Indonesia,,,,-6.3007004,106.9005531,https://maps.google.com/?cid=0x0:0xf530bc623c6df521,
mall,Museum,Taman Mini Indonesia Indah,"Jl. Taman Mini Indonesia Indah, Ceger, Kec. Cipayung, Kota Jakarta Timur, Daerah Khusus Ibukota Jakarta 13820","Ceger, Kec. Cipayung, Kota Jakarta Timur",SULAWESI BARAT,13820.0,Indonesia,8041789789.0,,,-6.3020386,106.8898924,https://maps.google.com/?cid=0x0:0x73127b9ecf2da0c,
mall,mall,Tammerodo,"Kabupaten Majene, Sulawesi Barat","Kabupaten Majene, Sulawesi Barat",SULAWESI BARAT,,Indonesia,,,,-3.2348105,118.8713314,https://maps.google.com/?cid=0x0:0xbe1c01e3cc5e99fb,
mall,Toko umum,Kios Jihan Tammerodo Sendana,"PRRR+396, pelattoang desa, 100 meter ke Utara dari Masjid Manarul Islam, Tammerodo, Sendana, Majene Regency, West Sulawesi 91452","pelattoang desa, 100 meter ke Utara dari Masjid Manarul Islam, Tammerodo, Sendana, Majene Regency",SULAWESI BARAT,91452.0,Indonesia,,,,-3.2604272,118.8411634,https://maps.google.com/?cid=0x0:0xa57be9b29f73ade0,
mall,Toko,Sendana Case,"MVW5+4RP, Jl. Poros Majene - Mamuju, Sendana, Kec. Sendana, Kabupaten Majene, Sulawesi Barat 91452","Jl. Poros Majene - Mamuju, Sendana, Kec. Sendana, Kabupaten Majene",SULAWESI BARAT,91452.0,Indonesia,82357975995.0,,,-3.3046631,118.8595722,https://maps.google.com/?cid=0x0:0xfebbe6271185b83a,
mall,,Kios ARFHA 57,"RRQ9+GJ5, Onang, Kec. Tubo Sendana, Kabupaten Majene, Sulawesi Barat","Kabupaten Majene, Sulawesi Barat",SULAWESI BARAT,,Indonesia,,,,-3.1612368,118.8191136,https://maps.google.com/?cid=0x0:0x1175e279f6c02e08,
mall,mall,WR STORE,"PRVR+JCC, Tammerodo, Kabupaten Majene, Sulawesi Barat 91452","Tammerodo, Kabupaten Majene",SULAWESI BARAT,91452.0,Indonesia,,,,-3.2559449,118.8410127,https://maps.google.com/?cid=0x0:0x20c965932616f4d9,
mall,mall,T R Cell,"HVHC+VV7, Jl. Poros Majene - Mamuju, Mosso Dhua, Kec. Sendana, Kabupaten Majene, Sulawesi Barat 91452","Jl. Poros Majene - Mamuju, Mosso Dhua, Kec. Sendana, Kabupaten Majene",SULAWESI BARAT,91452.0,Indonesia,,,,-3.4203276,118.8721753,https://maps.google.com/?cid=0x0:0x5c3b93a361ee7e7d,
mall,mall,Tubo,"Kec. Tubo Sendana, Kabupaten Majene, Sulawesi Barat","Kabupaten Majene, Sulawesi Barat",SULAWESI BARAT,,Indonesia,,,,-3.0987385,118.8188948,https://maps.google.com/?cid=0x0:0xb76634d6c060e8ad,
mall,Jembatan,Jembatan Tubo,"WR3H+RVF, Jl. Poros Majene - Mamuju, Tubo, Kec. Tubo Sendana, Kabupaten Majene, Sulawesi Barat 91452","Jl. Poros Majene - Mamuju, Tubo, Kec. Tubo Sendana, Kabupaten Majene",SULAWESI BARAT,91452.0,Indonesia,,,,-3.0954496,118.8296597,https://maps.google.com/?cid=0x0:0xb47fec8de3cca407,
mall,mall,Kec. Tubo Sendana,"Kabupaten Majene, Sulawesi Barat","Kabupaten Majene, Sulawesi Barat",SULAWESI BARAT,,Indonesia,,,,-3.1612706,118.8191982,https://maps.google.com/?cid=0x0:0x4802ca1dd5715163,
mall,Kantor Perusahaan,"Desa Salutambung, Ulumanda","WR6P+W64, Salutambung, Kec. Ulumanda, Kabupaten Majene, Sulawesi Barat 91453","Salutambung, Kec. Ulumanda, Kabupaten Majene",SULAWESI BARAT,91453.0,Indonesia,,,,-3.0877309,118.8355907,https://maps.google.com/?cid=0x0:0x513d3718e4da279,
mall,,Pasir Putih Tubo Tengah,"WRH2+C4C, Unnamed Road, Onang Utara, Kec. Tubo Sendana, Kabupaten Majene, Sulawesi Barat 91452","Unnamed Road, Onang Utara, Kec. Tubo Sendana, Kabupaten Majene",SULAWESI BARAT,91452.0,Indonesia,,,,-3.0714264,118.800252,https://maps.google.com/?cid=0x0:0x14733cf86caaf60a,
mall,Toko bahan makanan,Wija Petani Rice Distributor,"VQMM+235, Onang Utara, Kec. Tubo Sendana, Kabupaten Majene, Sulawesi Barat 91452","Onang Utara, Kec. Tubo Sendana, Kabupaten Majene",SULAWESI BARAT,91452.0,Indonesia,81355533404.0,,,-3.1174857,118.7827377,https://maps.google.com/?cid=0x0:0xed2c88953fc09551,
mall,mall,Sulawesi Barat 91452,"Kabupaten Majene, Sulawesi Barat","Kabupaten Majene, Sulawesi Barat",SULAWESI BARAT,,Indonesia,,,,-3.2611346,118.8829816,https://maps.google.com/?cid=0x0:0x35b04303fe1b8718,
mall,,Kios ARFHA 57,"RRQ9+GJ5, Onang, Kec. Tubo Sendana, Kabupaten Majene, Sulawesi Barat","Kabupaten Majene, Sulawesi Barat",SULAWESI BARAT,,Indonesia,,,,-3.1612368,118.8191136,https://maps.google.com/?cid=0x0:0x1175e279f6c02e08,
mall,Jembatan,Tubo,"JRFX+R72, Mosso, Kec. Sendana, Kabupaten Majene, Sulawesi Barat 91452","Mosso, Kec. Sendana, Kabupaten Majene",SULAWESI BARAT,91452.0,Indonesia,,,,-3.3754875,118.8481537,https://maps.google.com/?cid=0x0:0x6221e50f4b493ba6,
mall,mall,Pasar Bonde-bonde,"VQMJ+7MQ, Onang Utara, Kec. Tubo Sendana, Kabupaten Majene, Sulawesi Barat 91452","Onang Utara, Kec. Tubo Sendana, Kabupaten Majene",SULAWESI BARAT,91452.0,Indonesia,,,,-3.1167769,118.7817371,https://maps.google.com/?cid=0x0:0x1718eaa7954f1340,
mall,mall,Smpn 3 Sendana,"jln prs majene mamuju km 65, Onang Utara, Kec. Tubo Sendana, Kabupaten Majene, Sulawesi Barat 91452","Onang Utara, Kec. Tubo Sendana, Kabupaten Majene",SULAWESI BARAT,91452.0,Indonesia,,,,-3.1184199,118.782391,https://maps.google.com/?cid=0x0:0xf2fd1077a100d487,
mall,mall,Sulawesi Barat 91453,"Kabupaten Majene, Sulawesi Barat","Kabupaten Majene, Sulawesi Barat",SULAWESI BARAT,,Indonesia,,,,-3.0270061,118.9994357,https://maps.google.com/?cid=0x0:0xbece4f3ae0e9d313,
mall,Kantor Perusahaan,"Desa Salutambung, Ulumanda","WR6P+W64, Salutambung, Kec. Ulumanda, Kabupaten Majene, Sulawesi Barat 91453","Salutambung, Kec. Ulumanda, Kabupaten Majene",SULAWESI BARAT,91453.0,Indonesia,,,,-3.0877309,118.8355907,https://maps.google.com/?cid=0x0:0x513d3718e4da279,
mall,Pusat Perbelanjaan,Adilah Collection,"2V54+PG6, Jl. Poros Majene - Mamuju, Malunda, Kec. Malunda, Kabupaten Majene, Sulawesi Barat 91453","Jl. Poros Majene - Mamuju, Malunda, Kec. Malunda, Kabupaten Majene",SULAWESI BARAT,91453.0,Indonesia,85242123580.0,,,-2.9907244,118.8562628,https://maps.google.com/?cid=0x0:0x1c83ff83cfad93b8,
mall,Toko umum,Mall panakungan,"Jl. Jend. Sudirman No.111, Labuang, Kec. Banggae Tim., Kabupaten Majene, Sulawesi Barat 91412","Labuang, Kec. Banggae Tim., Kabupaten Majene",SULAWESI BARAT,91412.0,Indonesia,,,,-3.5451723,118.9798964,https://maps.google.com/?cid=0x0:0xae36986cd6c3cdf0,
mall,Pusat Perbelanjaan,STUDIO Matahari,"2VWC+969, Jl. Poros Majene - Mamuju, Mekkatta, Kec. Malunda, Kabupaten Majene, Sulawesi Barat 91453","Jl. Poros Majene - Mamuju, Mekkatta, Kec. Malunda, Kabupaten Majene",SULAWESI BARAT,91453.0,Indonesia,,,,-2.954096,118.8706058,https://maps.google.com/?cid=0x0:0x9176f91fc0d279ea,
mall,,Kios ARFHA 57,"RRQ9+GJ5, Onang, Kec. Tubo Sendana, Kabupaten Majene, Sulawesi Barat","Kabupaten Majene, Sulawesi Barat",SULAWESI BARAT,,Indonesia,,,,-3.1612368,118.8191136,https://maps.google.com/?cid=0x0:0x1175e279f6c02e08,
mall,Pusat Perbelanjaan,Uptown Mall BSB City Semarang,"Jl. Rm. Hadisoebeno Sosro Wardoyo, Pesantren, Kec. Mijen, Kota Semarang, Jawa Tengah 50212","Pesantren, Kec. Mijen, Kota Semarang",SULAWESI BARAT,50212.0,Indonesia,2430001111.0,,,-7.0449271,110.324912,https://maps.google.com/?cid=0x0:0x6fbbd4d0df5f1d8e,
mall,Pusat Perbelanjaan,Plaza Taman Niaga BSB,"Plaza Taman Niaga G3 Lt. 2, BSB City, Pesantren, Mijen, Semarang City, Central Java 50212","BSB City, Pesantren, Mijen, Semarang City",SULAWESI BARAT,50212.0,Indonesia,,,,-7.0280923,110.3340283,https://maps.google.com/?cid=0x0:0x4f25630d0129ccd6,
mall,Pusat Perbelanjaan,"Seishin Mentai, Uptown Mall BSB","Jl. Rm. Hadisoebeno Sosro Wardoyo, Sosrowardoyo, Pesantren, Kec. Mijen, Kota Semarang, Jawa Tengah 50212","Sosrowardoyo, Pesantren, Kec. Mijen, Kota Semarang",SULAWESI BARAT,50212.0,Indonesia,85647114165.0,,,-7.0446019,110.3246121,https://maps.google.com/?cid=0x0:0x6a75168616ed7f0f,
mall,Taman,BSB City,"Jl. Rm. Hadisoebeno Sosro Wardoyo No.2 Blok G9, Pesantren, Kec. Mijen, Kota Semarang, Jawa Tengah 50212","Pesantren, Kec. Mijen, Kota Semarang",SULAWESI BARAT,50212.0,Indonesia,247711111.0,,,-7.0268365,110.334585,https://maps.google.com/?cid=0x0:0xb850d2c9e0a8ec0d,
mall,mall,Secret Kantin Karyawan UpTown,"X84G+92X, Pesantren, Kec. Mijen, Kota Semarang, Jawa Tengah","Kota Semarang, Jawa Tengah",SULAWESI BARAT,,Indonesia,,,,-7.0440402,110.3251984,https://maps.google.com/?cid=0x0:0x10a5f8970bc6412e,
supermarket,supermarket,Banggae,"Kec. Banggae, Kabupaten Majene, Sulawesi Barat","Kabupaten Majene, Sulawesi Barat",SULAWESI BARAT,,Indonesia,,,,-3.5282697,118.9674195,https://maps.google.com/?cid=0x0:0xff8e6fe09c57690d,
supermarket,Toko,CV.SIKAPAIYA BULUQ BARAKKA,"Banggae, Majene, Sulawesi Bar., Banggae, Kec. Banggae, Kabupaten Majene, Sulawesi Barat 91412","Majene, Sulawesi Bar., Banggae, Kec. Banggae, Kabupaten Majene",SULAWESI BARAT,91412.0,Indonesia,82187417676.0,,,-3.5431763,118.9669622,https://maps.google.com/?cid=0x0:0xeb21f04a92cf4b24,
supermarket,Pusat Perbelanjaan,"Toko Sipurennu (Toko Campuran, Sayuran, Dll)","FX69+JR4, Banggae, Kec. Banggae, Kabupaten Majene, Sulawesi Barat 91412","Banggae, Kec. Banggae, Kabupaten Majene",SULAWESI BARAT,91412.0,Indonesia,,,,-3.5384879,118.9695814,https://maps.google.com/?cid=0x0:0x575612bbca781b71,
supermarket,Minimarket,Toko IBU,"FX5P+962, Jl. Jenderal Sudirman, Baurung, Kec. Banggae Tim., Kabupaten Majene, Sulawesi Barat 91412","Jl. Jenderal Sudirman, Baurung, Kec. Banggae Tim., Kabupaten Majene",SULAWESI BARAT,91412.0,Indonesia,,,,-3.5416018,118.9855174,https://maps.google.com/?cid=0x0:0xef01fcdd101b6405,
supermarket,Minimarket,INDOMARET PLUS JEND. SUDIRMAN MAJENE,"Jl. Jend. Sudirman No.9, Labuang, Kec. Banggae Tim., Kabupaten Majene, Sulawesi Barat 91412","Labuang, Kec. Banggae Tim., Kabupaten Majene",SULAWESI BARAT,91412.0,Indonesia,,,,-3.5430551,118.9691778,https://maps.google.com/?cid=0x0:0x9ba6176508991f2c,
supermarket,Pusat Perbelanjaan,Usra R,"FX26+R7J, Pangali-Ali, Kec. Banggae, Kabupaten Majene, Sulawesi Barat","Kabupaten Majene, Sulawesi Barat",SULAWESI BARAT,,Indonesia,85340891189.0,,,-3.5479237,118.9606301,https://maps.google.com/?cid=0x0:0xea9d05b244c09c8a,
supermarket,Komplek perumahan,Rumah Boy Muhlis Lipu,"FX59+3JJ, Labuang, Kec. Banggae Tim., Kabupaten Majene, Sulawesi Barat 91412","Labuang, Kec. Banggae Tim., Kabupaten Majene",SULAWESI BARAT,91412.0,Indonesia,82348000953.0,,,-3.5422935,118.9690211,https://maps.google.com/?cid=0x0:0xe73ede57b011ba4c,
supermarket,Minimarket,TOKO SURABAYA MAJENE,"FX6C+R2F, Jl. Kanjuha, Banggae, Kec. Banggae, Kabupaten Majene, Sulawesi Barat 91412","Jl. Kanjuha, Banggae, Kec. Banggae, Kabupaten Majene",SULAWESI BARAT,91412.0,Indonesia,,,,-3.5379319,118.9700419,https://maps.google.com/?cid=0x0:0xfdb5962ffc5fc3a6,
supermarket,Toko Perlengkapan Rumah,Toko Sulawesi,"FX49+MQC, Jl. Poros Majene - Mamuju, Labuang, Kec. Banggae Tim., Kabupaten Majene, Sulawesi Barat 91412","Jl. Poros Majene - Mamuju, Labuang, Kec. Banggae Tim., Kabupaten Majene",SULAWESI BARAT,91412.0,Indonesia,,,,-3.5433162,118.9693882,https://maps.google.com/?cid=0x0:0x4ba4ce1ec8ee94d4,
supermarket,Toko Buah dan Sayur,Toko buah,"Banggae, Kec. Banggae, Kabupaten Majene, Sulawesi Barat","Kabupaten Majene, Sulawesi Barat",SULAWESI BARAT,,Indonesia,,,,-3.5436721,118.9659068,https://maps.google.com/?cid=0x0:0x39c49adc5dded612,
supermarket,Toko,Warung Reski Evy,"Jl. Poros Majene - Mamuju No.73, Baru, Kec. Banggae, Kabupaten Majene, Sulawesi Barat","Kabupaten Majene, Sulawesi Barat",SULAWESI BARAT,,Indonesia,81244612054.0,,,-3.549031,118.9489327,https://maps.google.com/?cid=0x0:0x5cc87a74ce8f3233,
supermarket,Toko umum,Warung Al - Barqah Idaman,"Jl. Melati No.14, Labuang, Kec. Banggae Tim., Kabupaten Majene, Sulawesi Barat 91412","Labuang, Kec. Banggae Tim., Kabupaten Majene",SULAWESI BARAT,91412.0,Indonesia,82347276033.0,,,-3.5406046,118.9746883,https://maps.google.com/?cid=0x0:0x5efa39b534023da9,
supermarket,supermarket,TOKO SRC Maya,"FX48+PQ6, Jl. Poros Majene - Mamuju, Banggae, Kec. Banggae, Kabupaten Majene, Sulawesi Barat 91412","Jl. Poros Majene - Mamuju, Banggae, Kec. Banggae, Kabupaten Majene",SULAWESI BARAT,91412.0,Indonesia,,,,-3.5432071,118.9668908,https://maps.google.com/?cid=0x0:0xb48f61c32cda51a5,
supermarket,Toko,Alfamidi Jend Sud Majene,"Jl. Jend. Sudirman No.68, Labuang, Kec. Banggae Tim., Kabupaten Majene, Sulawesi Barat 91412","Labuang, Kec. Banggae Tim., Kabupaten Majene",SULAWESI BARAT,91412.0,Indonesia,,,,-3.5443373,118.9728318,https://maps.google.com/?cid=0x0:0x16c4e93820add8a,
supermarket,Kios,kios jumrah,"lingk. Panggalo, Pangali-Ali, Kec. Banggae, Kabupaten Majene, Sulawesi Barat 91411","Pangali-Ali, Kec. Banggae, Kabupaten Majene",SULAWESI BARAT,91411.0,Indonesia,81341763442.0,,,-3.5374181,118.95777,https://maps.google.com/?cid=0x0:0x9ec84c94ef82167d,
supermarket,Pusat Perbelanjaan,Owen Cell 2,"FX6C+662, Banggae, Kec. Banggae, Kabupaten Majene, Sulawesi Barat 91412","Banggae, Kec. Banggae, Kabupaten Majene",SULAWESI BARAT,91412.0,Indonesia,,,,-3.5394905,118.9705121,https://maps.google.com/?cid=0x0:0x2e9eba5abb7674fc,
supermarket,Toko,Agung Net,"Jl. Poros Majene - Mamuju No.169-177, Baurung, Kec. Banggae Tim., Kabupaten Majene, Sulawesi Barat 91412","Baurung, Kec. Banggae Tim., Kabupaten Majene",SULAWESI BARAT,91412.0,Indonesia,,,,-3.5418213,118.9854054,https://maps.google.com/?cid=0x0:0xe2677925f0ad6f78,
supermarket,Toko,Toko Ananda,"Jl. Poros Majene - Mamuju No.28, Totoli, Kec. Banggae, Kabupaten Majene, Sulawesi Barat","Kabupaten Majene, Sulawesi Barat",SULAWESI BARAT,,Indonesia,,,,-3.5522459,118.9454075,https://maps.google.com/?cid=0x0:0x5396d8e371f21896,
supermarket,Toko Elektronik,Arman Muhammadiah,"FW6V+37X, Baru, Kec. Banggae, Kabupaten Majene, Sulawesi Barat 91415","Baru, Kec. Banggae, Kabupaten Majene",SULAWESI BARAT,91415.0,Indonesia,85340403803.0,,,-3.5397656,118.9432233,https://maps.google.com/?cid=0x0:0xd56aed00ff0bccf,
supermarket,Pembangunan Perumahan,kantor pemasaran PTP,"FX8W+6F5, Jl. Poros Majene - Mamuju, Tande, Kec. Banggae Tim., Kabupaten Majene, Sulawesi Barat 91412","Jl. Poros Majene - Mamuju, Tande, Kec. Banggae Tim., Kabupaten Majene",SULAWESI BARAT,91412.0,Indonesia,85340891601.0,,,-3.5344884,118.9962205,https://maps.google.com/?cid=0x0:0x7d113cbf1dda1ddd,
supermarket,Minimarket,Kios Bintang Selatan,"Jl. Manunggal No.35, Banggae, Kec. Banggae, Kabupaten Majene, Sulawesi Barat 91412","Banggae, Kec. Banggae, Kabupaten Majene",SULAWESI BARAT,91412.0,Indonesia,81343678859.0,,,-3.5325304,118.9695096,https://maps.google.com/?cid=0x0:0xd23969c02cdd5901,
supermarket,Toko Swalayan,GS The Fresh Mampang,"Jl. Buncit Raya No.301, Duren Tiga, Kec. Pancoran, Kota Jakarta Selatan, Daerah Khusus Ibukota Jakarta 12760","Duren Tiga, Kec. Pancoran, Kota Jakarta Selatan",SULAWESI BARAT,12760.0,Indonesia,2126961986.0,,,-6.256991,106.828987,https://maps.google.com/?cid=0x0:0x47a84d3b86619147,
supermarket,Toko Swalayan,GS Supermarket Jatiasih,"GsSupermarket :, Jl. Wibawa Mukti II No.125, RT.002/ RW017/RW.017, Jatiasih, Kec. Jatiasih, Kota Bks, Jawa Barat 17423","Jl. Wibawa Mukti II No.125, RT.002/ RW017/RW.017, Jatiasih, Kec. Jatiasih, Kota Bks",SULAWESI BARAT,17423.0,Indonesia,2182736918.0,,,-6.3070579,106.955731,https://maps.google.com/?cid=0x0:0x74efd6ce433268e6,
supermarket,Toko Swalayan,GS THE FRESH JATIBENING,"Jl. Caman Raya No.7-24, RT.004/RW.003, Jatibening, Kec. Pd. Gede, Kota Bks, Jawa Barat 17412","RT.004/RW.003, Jatibening, Kec. Pd. Gede, Kota Bks",SULAWESI BARAT,17412.0,Indonesia,2184982211.0,,,-6.2676455,106.9436409,https://maps.google.com/?cid=0x0:0x2cdb50c3ee3206c,
supermarket,Toko Swalayan,Gs supermarket,"Jl. KH. Hasyim Ashari No.93, RT.002/RW.003, Poris Plawad Utara, Kec. Cipondoh, Kota Tangerang, Banten 15148","RT.002/RW.003, Poris Plawad Utara, Kec. Cipondoh, Kota Tangerang",SULAWESI BARAT,15148.0,Indonesia,2155712070.0,,,-6.1879187,106.661738,https://maps.google.com/?cid=0x0:0x86a83e6d17a220b2,
supermarket,Toko Swalayan,GS The Fresh Supermarket Kemang Pratama,"Linc Square Kemang Pratama, Jl. Kemang Pratama Raya, RT.004/RW.001, Bojong Rawalumbu, Kec. Rawalumbu, Kota Bks, Jawa Barat 17116","Jl. Kemang Pratama Raya, RT.004/RW.001, Bojong Rawalumbu, Kec. Rawalumbu, Kota Bks",SULAWESI BARAT,17116.0,Indonesia,2182416910.0,,,-6.2779418,106.9910558,https://maps.google.com/?cid=0x0:0x4ce692f4b9ef21ee,
supermarket,Pusat Perbelanjaan,GS The Fresh BOXIES,"Jl. Raya Tajur No.125, RT.01/RW.06, Tajur, Kec. Bogor Tim., Kota Bogor, Jawa Barat 16141","RT.01/RW.06, Tajur, Kec. Bogor Tim., Kota Bogor",SULAWESI BARAT,16141.0,Indonesia,,,,-6.6338534,106.8265902,https://maps.google.com/?cid=0x0:0xf2e999dd0f1bdf6,
supermarket,supermarket,Sulawesi Barat 91415,"Kec. Banggae, Kabupaten Majene, Sulawesi Barat","Kabupaten Majene, Sulawesi Barat",SULAWESI BARAT,,Indonesia,,,,-3.5405453,118.9353968,https://maps.google.com/?cid=0x0:0x79fb9d43a72e97bf,
supermarket,Toko Elektronik,Arman Muhammadiah,"FW6V+37X, Baru, Kec. Banggae, Kabupaten Majene, Sulawesi Barat 91415","Baru, Kec. Banggae, Kabupaten Majene",SULAWESI BARAT,91415.0,Indonesia,85340403803.0,,,-3.5397656,118.9432233,https://maps.google.com/?cid=0x0:0xd56aed00ff0bccf,
supermarket,Toko,Warung Reski Evy,"Jl. Poros Majene - Mamuju No.73, Baru, Kec. Banggae, Kabupaten Majene, Sulawesi Barat","Kabupaten Majene, Sulawesi Barat",SULAWESI BARAT,,Indonesia,81244612054.0,,,-3.549031,118.9489327,https://maps.google.com/?cid=0x0:0x5cc87a74ce8f3233,
supermarket,Toko,Kios Amma' Randy,"CWHQ+W9W, Lingk. Rangas Pa'besoang, Kel. Rangas, Totoli, Banggae, Majene Regency, West Sulawesi 91415","Lingk. Rangas Pa'besoang, Kel. Rangas, Totoli, Banggae, Majene Regency",SULAWESI BARAT,91415.0,Indonesia,,,,-3.5701432,118.9384431,https://maps.google.com/?cid=0x0:0xe3dbc6efce3ddb08,
supermarket,Klinik Medis,Refleksi Batu Giok Tiga Putra,"CWWH+26V, Jl. Poros Majene - Mamuju, Desa Palipi Soreang, Kec. Banggae, Kabupaten Majene, Sulawesi Barat 91415","Jl. Poros Majene - Mamuju, Desa Palipi Soreang, Kec. Banggae, Kabupaten Majene",SULAWESI BARAT,91415.0,Indonesia,,,,-3.5548955,118.9280611,https://maps.google.com/?cid=0x0:0x98b4ff9e1b9d823e,
supermarket,Dapur Umum,Toko Ashila,"Jl. Jend. Ahmad Yani No.20deteng, detengTotoliKec, BanggaeKabupaten, Kabupaten Majene, Sulawesi Barat","Kabupaten Majene, Sulawesi Barat",SULAWESI BARAT,,Indonesia,,,,-3.555182,118.944696,https://maps.google.com/?cid=0x0:0x5e47231e16467f27,
supermarket,Toko umum,Kios Pua Bawi',"CWJQ+3FH, Rangas Bar., Totoli, Kec. Banggae, Kabupaten Majene, Sulawesi Barat 91415","Rangas Bar., Totoli, Kec. Banggae, Kabupaten Majene",SULAWESI BARAT,91415.0,Indonesia,,,,-3.5698047,118.9387357,https://maps.google.com/?cid=0x0:0x86390c185626d06b,
supermarket,Toko Swalayan,Toko campuran Beru beru,"tammalassu, Rangas Bar., Totoli, Kec. Banggae, Kabupaten Majene, Sulawesi Barat 91415","Rangas Bar., Totoli, Kec. Banggae, Kabupaten Majene",SULAWESI BARAT,91415.0,Indonesia,81248243841.0,,,-3.5682869,118.9412433,https://maps.google.com/?cid=0x0:0x930291bcd36d7a91,
supermarket,Toko Swalayan,Toko Siloe27,"CWVW+X56, Totoli, Kec. Banggae, Kabupaten Majene, Sulawesi Barat","Kabupaten Majene, Sulawesi Barat",SULAWESI BARAT,,Indonesia,81241065552.0,,,-3.5550792,118.9453902,https://maps.google.com/?cid=0x0:0xb315c1663fcf711c,
supermarket,Toko umum,Kios Ardan,"FW96+PJ5, Bonde, Kec. Pamboang, Kabupaten Majene, Sulawesi Barat 91451","Bonde, Kec. Pamboang, Kabupaten Majene",SULAWESI BARAT,91451.0,Indonesia,,,,-3.5307311,118.911618,https://maps.google.com/?cid=0x0:0xb720c9a41d552cf,
supermarket,Toko,Alfamidi Jend Sud Majene,"Jl. Jend. Sudirman No.68, Labuang, Kec. Banggae Tim., Kabupaten Majene, Sulawesi Barat 91412","Labuang, Kec. Banggae Tim., Kabupaten Majene",SULAWESI BARAT,91412.0,Indonesia,,,,-3.5443373,118.9728318,https://maps.google.com/?cid=0x0:0x16c4e93820add8a,
supermarket,Toko umum,Kios Berkah,"FXX3+W4P, Desa Buttu Baruga, Dusun Buttu, Lemo, Kec. Banggae Tim., Kabupaten Majene, Sulawesi Barat 91414","Desa Buttu Baruga, Dusun Buttu, Lemo, Kec. Banggae Tim., Kabupaten Majene",SULAWESI BARAT,91414.0,Indonesia,,,,-3.5001582,118.9528385,https://maps.google.com/?cid=0x0:0x75780d1dcbf943ea,
supermarket,Restoran,Nasi Kuning Ratih,"CWHQ+X93 Penjual nasi kuning, Totoli, Kec. Banggae, Kabupaten Majene, Sulawesi Barat 91415","Totoli, Kec. Banggae, Kabupaten Majene",SULAWESI BARAT,91415.0,Indonesia,,,,-3.5701241,118.9384127,https://maps.google.com/?cid=0x0:0x1710ab0c5c989add,
supermarket,supermarket,Toko Hulwa,"Rangas Bar., Totoli, Kec. Banggae, Kabupaten Majene, Sulawesi Barat 91415","Totoli, Kec. Banggae, Kabupaten Majene",SULAWESI BARAT,91415.0,Indonesia,,,,-3.5680732,118.9358807,https://maps.google.com/?cid=0x0:0xa42e19fbc65fd8c,
supermarket,supermarket,Banggae,"Kec. Banggae, Kabupaten Majene, Sulawesi Barat","Kabupaten Majene, Sulawesi Barat",SULAWESI BARAT,,Indonesia,,,,-3.5282697,118.9674195,https://maps.google.com/?cid=0x0:0xff8e6fe09c57690d,
supermarket,Toko,CV.SIKAPAIYA BULUQ BARAKKA,"Banggae, Majene, Sulawesi Bar., Banggae, Kec. Banggae, Kabupaten Majene, Sulawesi Barat 91412","Majene, Sulawesi Bar., Banggae, Kec. Banggae, Kabupaten Majene",SULAWESI BARAT,91412.0,Indonesia,82187417676.0,,,-3.5431763,118.9669622,https://maps.google.com/?cid=0x0:0xeb21f04a92cf4b24,
supermarket,Pusat Perbelanjaan,"Toko Sipurennu (Toko Campuran, Sayuran, Dll)","FX69+JR4, Banggae, Kec. Banggae, Kabupaten Majene, Sulawesi Barat 91412","Banggae, Kec. Banggae, Kabupaten Majene",SULAWESI BARAT,91412.0,Indonesia,,,,-3.5384879,118.9695814,https://maps.google.com/?cid=0x0:0x575612bbca781b71,
supermarket,Toko bahan makanan,SRC M.YUNUS,"FX4G+P7P, Jl. Hertasning, Labuang, Kec. Banggae Tim., Kabupaten Majene, Sulawesi Barat 91412","Jl. Hertasning, Labuang, Kec. Banggae Tim., Kabupaten Majene",SULAWESI BARAT,91412.0,Indonesia,,,,-3.5431502,118.9757071,https://maps.google.com/?cid=0x0:0x68ee6641726c6d50,
supermarket,Minimarket,INDOMARET PLUS JEND. SUDIRMAN MAJENE,"Jl. Jend. Sudirman No.9, Labuang, Kec. Banggae Tim., Kabupaten Majene, Sulawesi Barat 91412","Labuang, Kec. Banggae Tim., Kabupaten Majene",SULAWESI BARAT,91412.0,Indonesia,,,,-3.5430551,118.9691778,https://maps.google.com/?cid=0x0:0x9ba6176508991f2c,
supermarket,Pusat Perbelanjaan,Usra R,"FX26+R7J, Pangali-Ali, Kec. Banggae, Kabupaten Majene, Sulawesi Barat","Kabupaten Majene, Sulawesi Barat",SULAWESI BARAT,,Indonesia,85340891189.0,,,-3.5479237,118.9606301,https://maps.google.com/?cid=0x0:0xea9d05b244c09c8a,
supermarket,Minimarket,TOKO SURABAYA MAJENE,"FX6C+R2F, Jl. Kanjuha, Banggae, Kec. Banggae, Kabupaten Majene, Sulawesi Barat 91412","Jl. Kanjuha, Banggae, Kec. Banggae, Kabupaten Majene",SULAWESI BARAT,91412.0,Indonesia,,,,-3.5379319,118.9700419,https://maps.google.com/?cid=0x0:0xfdb5962ffc5fc3a6,
supermarket,Pusat Perbelanjaan,Owen Cell 2,"FX6C+662, Banggae, Kec. Banggae, Kabupaten Majene, Sulawesi Barat 91412","Banggae, Kec. Banggae, Kabupaten Majene",SULAWESI BARAT,91412.0,Indonesia,,,,-3.5394905,118.9705121,https://maps.google.com/?cid=0x0:0x2e9eba5abb7674fc,
supermarket,Toko Buah dan Sayur,Toko buah,"Banggae, Kec. Banggae, Kabupaten Majene, Sulawesi Barat","Kabupaten Majene, Sulawesi Barat",SULAWESI BARAT,,Indonesia,,,,-3.5436721,118.9659068,https://maps.google.com/?cid=0x0:0x39c49adc5dded612,
supermarket,Minimarket,Toko IBU,"FX5P+962, Jl. Jenderal Sudirman, Baurung, Kec. Banggae Tim., Kabupaten Majene, Sulawesi Barat 91412","Jl. Jenderal Sudirman, Baurung, Kec. Banggae Tim., Kabupaten Majene",SULAWESI BARAT,91412.0,Indonesia,,,,-3.5416018,118.9855174,https://maps.google.com/?cid=0x0:0xef01fcdd101b6405,
supermarket,Komplek perumahan,Rumah Boy Muhlis Lipu,"FX59+3JJ, Labuang, Kec. Banggae Tim., Kabupaten Majene, Sulawesi Barat 91412","Labuang, Kec. Banggae Tim., Kabupaten Majene",SULAWESI BARAT,91412.0,Indonesia,82348000953.0,,,-3.5422935,118.9690211,https://maps.google.com/?cid=0x0:0xe73ede57b011ba4c,
supermarket,Kios,kios jumrah,"lingk. Panggalo, Pangali-Ali, Kec. Banggae, Kabupaten Majene, Sulawesi Barat 91411","Pangali-Ali, Kec. Banggae, Kabupaten Majene",SULAWESI BARAT,91411.0,Indonesia,81341763442.0,,,-3.5374181,118.95777,https://maps.google.com/?cid=0x0:0x9ec84c94ef82167d,
supermarket,Toko umum,Warung Al - Barqah Idaman,"Jl. Melati No.14, Labuang, Kec. Banggae Tim., Kabupaten Majene, Sulawesi Barat 91412","Labuang, Kec. Banggae Tim., Kabupaten Majene",SULAWESI BARAT,91412.0,Indonesia,82347276033.0,,,-3.5406046,118.9746883,https://maps.google.com/?cid=0x0:0x5efa39b534023da9,
supermarket,supermarket,TOKO SRC Maya,"FX48+PQ6, Jl. Poros Majene - Mamuju, Banggae, Kec. Banggae, Kabupaten Majene, Sulawesi Barat 91412","Jl. Poros Majene - Mamuju, Banggae, Kec. Banggae, Kabupaten Majene",SULAWESI BARAT,91412.0,Indonesia,,,,-3.5432071,118.9668908,https://maps.google.com/?cid=0x0:0xb48f61c32cda51a5,
supermarket,supermarket,Sulawesi Barat 91411,"Kabupaten Majene, Sulawesi Barat","Kabupaten Majene, Sulawesi Barat",SULAWESI BARAT,,Indonesia,,,,-3.477543,118.9470422,https://maps.google.com/?cid=0x0:0x1c73f38c478ef4ab,
supermarket,Toko,CV.SIKAPAIYA BULUQ BARAKKA,"Banggae, Majene, Sulawesi Bar., Banggae, Kec. Banggae, Kabupaten Majene, Sulawesi Barat 91412","Majene, Sulawesi Bar., Banggae, Kec. Banggae, Kabupaten Majene",SULAWESI BARAT,91412.0,Indonesia,82187417676.0,,,-3.5431763,118.9669622,https://maps.google.com/?cid=0x0:0xeb21f04a92cf4b24,
supermarket,Toko Elektronik,Arman Muhammadiah,"FW6V+37X, Baru, Kec. Banggae, Kabupaten Majene, Sulawesi Barat 91415","Baru, Kec. Banggae, Kabupaten Majene",SULAWESI BARAT,91415.0,Indonesia,85340403803.0,,,-3.5397656,118.9432233,https://maps.google.com/?cid=0x0:0xd56aed00ff0bccf,
supermarket,Pusat Perbelanjaan,"Toko Sipurennu (Toko Campuran, Sayuran, Dll)","FX69+JR4, Banggae, Kec. Banggae, Kabupaten Majene, Sulawesi Barat 91412","Banggae, Kec. Banggae, Kabupaten Majene",SULAWESI BARAT,91412.0,Indonesia,,,,-3.5384879,118.9695814,https://maps.google.com/?cid=0x0:0x575612bbca781b71,
supermarket,Toko,Warung Reski Evy,"Jl. Poros Majene - Mamuju No.73, Baru, Kec. Banggae, Kabupaten Majene, Sulawesi Barat","Kabupaten Majene, Sulawesi Barat",SULAWESI BARAT,,Indonesia,81244612054.0,,,-3.549031,118.9489327,https://maps.google.com/?cid=0x0:0x5cc87a74ce8f3233,
supermarket,Toko bahan makanan,SRC M.YUNUS,"FX4G+P7P, Jl. Hertasning, Labuang, Kec. Banggae Tim., Kabupaten Majene, Sulawesi Barat 91412","Jl. Hertasning, Labuang, Kec. Banggae Tim., Kabupaten Majene",SULAWESI BARAT,91412.0,Indonesia,,,,-3.5431502,118.9757071,https://maps.google.com/?cid=0x0:0x68ee6641726c6d50,
supermarket,Minimarket,Toko IBU,"FX5P+962, Jl. Jenderal Sudirman, Baurung, Kec. Banggae Tim., Kabupaten Majene, Sulawesi Barat 91412","Jl. Jenderal Sudirman, Baurung, Kec. Banggae Tim., Kabupaten Majene",SULAWESI BARAT,91412.0,Indonesia,,,,-3.5416018,118.9855174,https://maps.google.com/?cid=0x0:0xef01fcdd101b6405,
supermarket,Toko umum,Kios Berkah,"FXX3+W4P, Desa Buttu Baruga, Dusun Buttu, Lemo, Kec. Banggae Tim., Kabupaten Majene, Sulawesi Barat 91414","Desa Buttu Baruga, Dusun Buttu, Lemo, Kec. Banggae Tim., Kabupaten Majene",SULAWESI BARAT,91414.0,Indonesia,,,,-3.5001582,118.9528385,https://maps.google.com/?cid=0x0:0x75780d1dcbf943ea,
supermarket,Toko bahan makanan,Kios CHAIRA BySukma,"CXWM+74V, Jl. Lettu Moh. Yamin, Baurung, Kec. Banggae Tim., Kabupaten Majene, Sulawesi Barat 91412","Jl. Lettu Moh. Yamin, Baurung, Kec. Banggae Tim., Kabupaten Majene",SULAWESI BARAT,91412.0,Indonesia,82394489766.0,,,-3.554261,118.9828036,https://maps.google.com/?cid=0x0:0x48bbaf0fc8496529,
supermarket,Toko Perlengkapan Rumah,Toko Sulawesi,"FX49+MQC, Jl. Poros Majene - Mamuju, Labuang, Kec. Banggae Tim., Kabupaten Majene, Sulawesi Barat 91412","Jl. Poros Majene - Mamuju, Labuang, Kec. Banggae Tim., Kabupaten Majene",SULAWESI BARAT,91412.0,Indonesia,,,,-3.5433162,118.9693882,https://maps.google.com/?cid=0x0:0x4ba4ce1ec8ee94d4,
supermarket,Komplek perumahan,Rumah Boy Muhlis Lipu,"FX59+3JJ, Labuang, Kec. Banggae Tim., Kabupaten Majene, Sulawesi Barat 91412","Labuang, Kec. Banggae Tim., Kabupaten Majene",SULAWESI BARAT,91412.0,Indonesia,82348000953.0,,,-3.5422935,118.9690211,https://maps.google.com/?cid=0x0:0xe73ede57b011ba4c,
supermarket,Minimarket,INDOMARET PLUS JEND. SUDIRMAN MAJENE,"Jl. Jend. Sudirman No.9, Labuang, Kec. Banggae Tim., Kabupaten Majene, Sulawesi Barat 91412","Labuang, Kec. Banggae Tim., Kabupaten Majene",SULAWESI BARAT,91412.0,Indonesia,,,,-3.5430551,118.9691778,https://maps.google.com/?cid=0x0:0x9ba6176508991f2c,
supermarket,Toko,Toko Ananda,"Jl. Poros Majene - Mamuju No.28, Totoli, Kec. Banggae, Kabupaten Majene, Sulawesi Barat","Kabupaten Majene, Sulawesi Barat",SULAWESI BARAT,,Indonesia,,,,-3.5522459,118.9454075,https://maps.google.com/?cid=0x0:0x5396d8e371f21896,
supermarket,Toko Buah dan Sayur,Toko buah,"Banggae, Kec. Banggae, Kabupaten Majene, Sulawesi Barat","Kabupaten Majene, Sulawesi Barat",SULAWESI BARAT,,Indonesia,,,,-3.5436721,118.9659068,https://maps.google.com/?cid=0x0:0x39c49adc5dded612,
supermarket,Kios,kios jumrah,"lingk. Panggalo, Pangali-Ali, Kec. Banggae, Kabupaten Majene, Sulawesi Barat 91411","Pangali-Ali, Kec. Banggae, Kabupaten Majene",SULAWESI BARAT,91411.0,Indonesia,81341763442.0,,,-3.5374181,118.95777,https://maps.google.com/?cid=0x0:0x9ec84c94ef82167d,
supermarket,supermarket,TOKO SRC Maya,"FX48+PQ6, Jl. Poros Majene - Mamuju, Banggae, Kec. Banggae, Kabupaten Majene, Sulawesi Barat 91412","Jl. Poros Majene - Mamuju, Banggae, Kec. Banggae, Kabupaten Majene",SULAWESI BARAT,91412.0,Indonesia,,,,-3.5432071,118.9668908,https://maps.google.com/?cid=0x0:0xb48f61c32cda51a5,
supermarket,Toko bahan makanan,Risma,"FX33+4Q4, Baru, Kec. Banggae, Kabupaten Majene, Sulawesi Barat","Kabupaten Majene, Sulawesi Barat",SULAWESI BARAT,,Indonesia,81365222682.0,,,-3.5472341,118.954456,https://maps.google.com/?cid=0x0:0x5d904bf1c15bda4c,
supermarket,Kios,KIOS AMANAH,"FXRC+WV3, Tande, Kec. Banggae Tim., Kabupaten Majene, Sulawesi Barat 91413","Tande, Kec. Banggae Tim., Kabupaten Majene",SULAWESI BARAT,91413.0,Indonesia,82189979998.0,,,-3.5077385,118.9721579,https://maps.google.com/?cid=0x0:0xd8cea9a0b8636241,
supermarket,Kios,Kios AL_Amin,"FXM4+GCH, Baruga, Kec. Banggae Tim., Kabupaten Majene, Sulawesi Barat 91411","Baruga, Kec. Banggae Tim., Kabupaten Majene",SULAWESI BARAT,91411.0,Indonesia,,,,-3.5161966,118.9560973,https://maps.google.com/?cid=0x0:0xea9716d9de34ac91,
supermarket,Minimarket,TOKO SURABAYA MAJENE,"FX6C+R2F, Jl. Kanjuha, Banggae, Kec. Banggae, Kabupaten Majene, Sulawesi Barat 91412","Jl. Kanjuha, Banggae, Kec. Banggae, Kabupaten Majene",SULAWESI BARAT,91412.0,Indonesia,,,,-3.5379319,118.9700419,https://maps.google.com/?cid=0x0:0xfdb5962ffc5fc3a6,
supermarket,supermarket,Kec. Banggae Tim.,"Kabupaten Majene, Sulawesi Barat","Kabupaten Majene, Sulawesi Barat",SULAWESI BARAT,,Indonesia,,,,-3.5443284,118.9724991,https://maps.google.com/?cid=0x0:0x8a3d219855bd6a6e,
supermarket,Pembangunan Perumahan,kantor pemasaran PTP,"FX8W+6F5, Jl. Poros Majene - Mamuju, Tande, Kec. Banggae Tim., Kabupaten Majene, Sulawesi Barat 91412","Jl. Poros Majene - Mamuju, Tande, Kec. Banggae Tim., Kabupaten Majene",SULAWESI BARAT,91412.0,Indonesia,85340891601.0,,,-3.5344884,118.9962205,https://maps.google.com/?cid=0x0:0x7d113cbf1dda1ddd,
supermarket,Toko,Agung Net,"Jl. Poros Majene - Mamuju No.169-177, Baurung, Kec. Banggae Tim., Kabupaten Majene, Sulawesi Barat 91412","Baurung, Kec. Banggae Tim., Kabupaten Majene",SULAWESI BARAT,91412.0,Indonesia,,,,-3.5418213,118.9854054,https://maps.google.com/?cid=0x0:0xe2677925f0ad6f78,
supermarket,supermarket,Fahrymart,"CXVX+265, Baurung, Kec. Banggae Tim., Kabupaten Majene, Sulawesi Barat","Kabupaten Majene, Sulawesi Barat",SULAWESI BARAT,,Indonesia,82225688297.0,,,-3.5569484,118.9975149,https://maps.google.com/?cid=0x0:0x485983a5c4e333c3,
supermarket,Toko,Alfamidi Jend Sud Majene,"Jl. Jend. Sudirman No.68, Labuang, Kec. Banggae Tim., Kabupaten Majene, Sulawesi Barat 91412","Labuang, Kec. Banggae Tim., Kabupaten Majene",SULAWESI BARAT,91412.0,Indonesia,,,,-3.5443373,118.9728318,https://maps.google.com/?cid=0x0:0x16c4e93820add8a,
supermarket,Pusat Perbelanjaan,Owen Cell 2,"FX6C+662, Banggae, Kec. Banggae, Kabupaten Majene, Sulawesi Barat 91412","Banggae, Kec. Banggae, Kabupaten Majene",SULAWESI BARAT,91412.0,Indonesia,,,,-3.5394905,118.9705121,https://maps.google.com/?cid=0x0:0x2e9eba5abb7674fc,
supermarket,Kantor Perusahaan,Minyak Kutus-Kutus Ecer/Grosir Sulbar,"jl. Nedan No. 2 Salabulo, Tande, Timur, Kabupaten Majene, Sulawesi Barat 91413","Tande, Timur, Kabupaten Majene",SULAWESI BARAT,91413.0,Indonesia,82191913888.0,,,-3.5273928,119.0007861,https://maps.google.com/?cid=0x0:0x506735364afcbe03,
supermarket,Toko Kosmetik,B Erl Cosmetics,"CXVV+RP6, Baurung, Kec. Banggae Tim., Kabupaten Majene, Sulawesi Barat","Kabupaten Majene, Sulawesi Barat",SULAWESI BARAT,,Indonesia,85256454042.0,,,-3.5554514,118.9942519,https://maps.google.com/?cid=0x0:0xff3278657a76c87b,
supermarket,Toko Percetakan,HASYIM DIGITAL PRINTING,"FX5P+X8M, Jl. Hertasning, Baurung, Kec. Banggae Tim., Kabupaten Majene, Sulawesi Barat 91412","Jl. Hertasning, Baurung, Kec. Banggae Tim., Kabupaten Majene",SULAWESI BARAT,91412.0,Indonesia,85256093575.0,,,-3.5400352,118.9857983,https://maps.google.com/?cid=0x0:0x47a92e6f58f11fbd,
supermarket,supermarket,Sulawesi Barat 91412,"Kabupaten Majene, Sulawesi Barat","Kabupaten Majene, Sulawesi Barat",SULAWESI BARAT,,Indonesia,,,,-3.5389571,118.9819731,https://maps.google.com/?cid=0x0:0x5b7ee02006e2dbbd,
supermarket,Toko,CV.SIKAPAIYA BULUQ BARAKKA,"Banggae, Majene, Sulawesi Bar., Banggae, Kec. Banggae, Kabupaten Majene, Sulawesi Barat 91412","Majene, Sulawesi Bar., Banggae, Kec. Banggae, Kabupaten Majene",SULAWESI BARAT,91412.0,Indonesia,82187417676.0,,,-3.5431763,118.9669622,https://maps.google.com/?cid=0x0:0xeb21f04a92cf4b24,
supermarket,Toko bahan makanan,SRC M.YUNUS,"FX4G+P7P, Jl. Hertasning, Labuang, Kec. Banggae Tim., Kabupaten Majene, Sulawesi Barat 91412","Jl. Hertasning, Labuang, Kec. Banggae Tim., Kabupaten Majene",SULAWESI BARAT,91412.0,Indonesia,,,,-3.5431502,118.9757071,https://maps.google.com/?cid=0x0:0x68ee6641726c6d50,
supermarket,Pusat Perbelanjaan,"Toko Sipurennu (Toko Campuran, Sayuran, Dll)","FX69+JR4, Banggae, Kec. Banggae, Kabupaten Majene, Sulawesi Barat 91412","Banggae, Kec. Banggae, Kabupaten Majene",SULAWESI BARAT,91412.0,Indonesia,,,,-3.5384879,118.9695814,https://maps.google.com/?cid=0x0:0x575612bbca781b71,
supermarket,Toko bahan makanan,Kios CHAIRA BySukma,"CXWM+74V, Jl. Lettu Moh. Yamin, Baurung, Kec. Banggae Tim., Kabupaten Majene, Sulawesi Barat 91412","Jl. Lettu Moh. Yamin, Baurung, Kec. Banggae Tim., Kabupaten Majene",SULAWESI BARAT,91412.0,Indonesia,82394489766.0,,,-3.554261,118.9828036,https://maps.google.com/?cid=0x0:0x48bbaf0fc8496529,
supermarket,Pembangunan Perumahan,kantor pemasaran PTP,"FX8W+6F5, Jl. Poros Majene - Mamuju, Tande, Kec. Banggae Tim., Kabupaten Majene, Sulawesi Barat 91412","Jl. Poros Majene - Mamuju, Tande, Kec. Banggae Tim., Kabupaten Majene",SULAWESI BARAT,91412.0,Indonesia,85340891601.0,,,-3.5344884,118.9962205,https://maps.google.com/?cid=0x0:0x7d113cbf1dda1ddd,
supermarket,supermarket,Fahrymart,"CXVX+265, Baurung, Kec. Banggae Tim., Kabupaten Majene, Sulawesi Barat","Kabupaten Majene, Sulawesi Barat",SULAWESI BARAT,,Indonesia,82225688297.0,,,-3.5569484,118.9975149,https://maps.google.com/?cid=0x0:0x485983a5c4e333c3,
supermarket,Toko,Agung Net,"Jl. Poros Majene - Mamuju No.169-177, Baurung, Kec. Banggae Tim., Kabupaten Majene, Sulawesi Barat 91412","Baurung, Kec. Banggae Tim., Kabupaten Majene",SULAWESI BARAT,91412.0,Indonesia,,,,-3.5418213,118.9854054,https://maps.google.com/?cid=0x0:0xe2677925f0ad6f78,
supermarket,Minimarket,INDOMARET PLUS JEND. SUDIRMAN MAJENE,"Jl. Jend. Sudirman No.9, Labuang, Kec. Banggae Tim., Kabupaten Majene, Sulawesi Barat 91412","Labuang, Kec. Banggae Tim., Kabupaten Majene",SULAWESI BARAT,91412.0,Indonesia,,,,-3.5430551,118.9691778,https://maps.google.com/?cid=0x0:0x9ba6176508991f2c,
supermarket,Komplek perumahan,Rumah Boy Muhlis Lipu,"FX59+3JJ, Labuang, Kec. Banggae Tim., Kabupaten Majene, Sulawesi Barat 91412","Labuang, Kec. Banggae Tim., Kabupaten Majene",SULAWESI BARAT,91412.0,Indonesia,82348000953.0,,,-3.5422935,118.9690211,https://maps.google.com/?cid=0x0:0xe73ede57b011ba4c,
supermarket,Toko Perlengkapan Rumah,Toko Sulawesi,"FX49+MQC, Jl. Poros Majene - Mamuju, Labuang, Kec. Banggae Tim., Kabupaten Majene, Sulawesi Barat 91412","Jl. Poros Majene - Mamuju, Labuang, Kec. Banggae Tim., Kabupaten Majene",SULAWESI BARAT,91412.0,Indonesia,,,,-3.5433162,118.9693882,https://maps.google.com/?cid=0x0:0x4ba4ce1ec8ee94d4,
supermarket,Pusat Perbelanjaan,Owen Cell 2,"FX6C+662, Banggae, Kec. Banggae, Kabupaten Majene, Sulawesi Barat 91412","Banggae, Kec. Banggae, Kabupaten Majene",SULAWESI BARAT,91412.0,Indonesia,,,,-3.5394905,118.9705121,https://maps.google.com/?cid=0x0:0x2e9eba5abb7674fc,
supermarket,Minimarket,TOKO SURABAYA MAJENE,"FX6C+R2F, Jl. Kanjuha, Banggae, Kec. Banggae, Kabupaten Majene, Sulawesi Barat 91412","Jl. Kanjuha, Banggae, Kec. Banggae, Kabupaten Majene",SULAWESI BARAT,91412.0,Indonesia,,,,-3.5379319,118.9700419,https://maps.google.com/?cid=0x0:0xfdb5962ffc5fc3a6,
supermarket,supermarket,TOKO SRC Maya,"FX48+PQ6, Jl. Poros Majene - Mamuju, Banggae, Kec. Banggae, Kabupaten Majene, Sulawesi Barat 91412","Jl. Poros Majene - Mamuju, Banggae, Kec. Banggae, Kabupaten Majene",SULAWESI BARAT,91412.0,Indonesia,,,,-3.5432071,118.9668908,https://maps.google.com/?cid=0x0:0xb48f61c32cda51a5,
supermarket,Toko,Alfamidi Jend Sud Majene,"Jl. Jend. Sudirman No.68, Labuang, Kec. Banggae Tim., Kabupaten Majene, Sulawesi Barat 91412","Labuang, Kec. Banggae Tim., Kabupaten Majene",SULAWESI BARAT,91412.0,Indonesia,,,,-3.5443373,118.9728318,https://maps.google.com/?cid=0x0:0x16c4e93820add8a,
supermarket,Kantor Perusahaan,Minyak Kutus-Kutus Ecer/Grosir Sulbar,"jl. Nedan No. 2 Salabulo, Tande, Timur, Kabupaten Majene, Sulawesi Barat 91413","Tande, Timur, Kabupaten Majene",SULAWESI BARAT,91413.0,Indonesia,82191913888.0,,,-3.5273928,119.0007861,https://maps.google.com/?cid=0x0:0x506735364afcbe03,
supermarket,Pusat Perbelanjaan,Usra R,"FX26+R7J, Pangali-Ali, Kec. Banggae, Kabupaten Majene, Sulawesi Barat","Kabupaten Majene, Sulawesi Barat",SULAWESI BARAT,,Indonesia,85340891189.0,,,-3.5479237,118.9606301,https://maps.google.com/?cid=0x0:0xea9d05b244c09c8a,
supermarket,Toko umum,Warung Al - Barqah Idaman,"Jl. Melati No.14, Labuang, Kec. Banggae Tim., Kabupaten Majene, Sulawesi Barat 91412","Labuang, Kec. Banggae Tim., Kabupaten Majene",SULAWESI BARAT,91412.0,Indonesia,82347276033.0,,,-3.5406046,118.9746883,https://maps.google.com/?cid=0x0:0x5efa39b534023da9,
supermarket,Toko,Warung Reski Evy,"Jl. Poros Majene - Mamuju No.73, Baru, Kec. Banggae, Kabupaten Majene, Sulawesi Barat","Kabupaten Majene, Sulawesi Barat",SULAWESI BARAT,,Indonesia,81244612054.0,,,-3.549031,118.9489327,https://maps.google.com/?cid=0x0:0x5cc87a74ce8f3233,
supermarket,Toko Percetakan,HASYIM DIGITAL PRINTING,"FX5P+X8M, Jl. Hertasning, Baurung, Kec. Banggae Tim., Kabupaten Majene, Sulawesi Barat 91412","Jl. Hertasning, Baurung, Kec. Banggae Tim., Kabupaten Majene",SULAWESI BARAT,91412.0,Indonesia,85256093575.0,,,-3.5400352,118.9857983,https://maps.google.com/?cid=0x0:0x47a92e6f58f11fbd,
supermarket,supermarket,Kec. Banggae Tim.,"Kabupaten Majene, Sulawesi Barat","Kabupaten Majene, Sulawesi Barat",SULAWESI BARAT,,Indonesia,,,,-3.5443284,118.9724991,https://maps.google.com/?cid=0x0:0x8a3d219855bd6a6e,
supermarket,Toko umum,Kios Berkah,"FXX3+W4P, Desa Buttu Baruga, Dusun Buttu, Lemo, Kec. Banggae Tim., Kabupaten Majene, Sulawesi Barat 91414","Desa Buttu Baruga, Dusun Buttu, Lemo, Kec. Banggae Tim., Kabupaten Majene",SULAWESI BARAT,91414.0,Indonesia,,,,-3.5001582,118.9528385,https://maps.google.com/?cid=0x0:0x75780d1dcbf943ea,
supermarket,Toko Kosmetik,B Erl Cosmetics,"CXVV+RP6, Baurung, Kec. Banggae Tim., Kabupaten Majene, Sulawesi Barat","Kabupaten Majene, Sulawesi Barat",SULAWESI BARAT,,Indonesia,85256454042.0,,,-3.5554514,118.9942519,https://maps.google.com/?cid=0x0:0xff3278657a76c87b,
supermarket,Kios,KIOS AMANAH,"FXRC+WV3, Tande, Kec. Banggae Tim., Kabupaten Majene, Sulawesi Barat 91413","Tande, Kec. Banggae Tim., Kabupaten Majene",SULAWESI BARAT,91413.0,Indonesia,82189979998.0,,,-3.5077385,118.9721579,https://maps.google.com/?cid=0x0:0xd8cea9a0b8636241,
supermarket,supermarket,Sulawesi Barat 91413,"Kabupaten Polewali Mandar, Sulawesi Barat","Kabupaten Polewali Mandar, Sulawesi Barat",SULAWESI BARAT,,Indonesia,,,,-3.4627787,118.9877942,https://maps.google.com/?cid=0x0:0x36c6611542b63c82,
supermarket,Pembangunan Perumahan,kantor pemasaran PTP,"FX8W+6F5, Jl. Poros Majene - Mamuju, Tande, Kec. Banggae Tim., Kabupaten Majene, Sulawesi Barat 91412","Jl. Poros Majene - Mamuju, Tande, Kec. Banggae Tim., Kabupaten Majene",SULAWESI BARAT,91412.0,Indonesia,85340891601.0,,,-3.5344884,118.9962205,https://maps.google.com/?cid=0x0:0x7d113cbf1dda1ddd,
supermarket,Toko,CV.SIKAPAIYA BULUQ BARAKKA,"Banggae, Majene, Sulawesi Bar., Banggae, Kec. Banggae, Kabupaten Majene, Sulawesi Barat 91412","Majene, Sulawesi Bar., Banggae, Kec. Banggae, Kabupaten Majene",SULAWESI BARAT,91412.0,Indonesia,82187417676.0,,,-3.5431763,118.9669622,https://maps.google.com/?cid=0x0:0xeb21f04a92cf4b24,
supermarket,Toko bahan makanan,SRC M.YUNUS,"FX4G+P7P, Jl. Hertasning, Labuang, Kec. Banggae Tim., Kabupaten Majene, Sulawesi Barat 91412","Jl. Hertasning, Labuang, Kec. Banggae Tim., Kabupaten Majene",SULAWESI BARAT,91412.0,Indonesia,,,,-3.5431502,118.9757071,https://maps.google.com/?cid=0x0:0x68ee6641726c6d50,
supermarket,Kantor Perusahaan,Minyak Kutus-Kutus Ecer/Grosir Sulbar,"jl. Nedan No. 2 Salabulo, Tande, Timur, Kabupaten Majene, Sulawesi Barat 91413","Tande, Timur, Kabupaten Majene",SULAWESI BARAT,91413.0,Indonesia,82191913888.0,,,-3.5273928,119.0007861,https://maps.google.com/?cid=0x0:0x506735364afcbe03,
supermarket,Pusat Perbelanjaan,"Toko Sipurennu (Toko Campuran, Sayuran, Dll)","FX69+JR4, Banggae, Kec. Banggae, Kabupaten Majene, Sulawesi Barat 91412","Banggae, Kec. Banggae, Kabupaten Majene",SULAWESI BARAT,91412.0,Indonesia,,,,-3.5384879,118.9695814,https://maps.google.com/?cid=0x0:0x575612bbca781b71,
supermarket,Toko umum,Kios Berkah,"FXX3+W4P, Desa Buttu Baruga, Dusun Buttu, Lemo, Kec. Banggae Tim., Kabupaten Majene, Sulawesi Barat 91414","Desa Buttu Baruga, Dusun Buttu, Lemo, Kec. Banggae Tim., Kabupaten Majene",SULAWESI BARAT,91414.0,Indonesia,,,,-3.5001582,118.9528385,https://maps.google.com/?cid=0x0:0x75780d1dcbf943ea,
supermarket,Toko,Agung Net,"Jl. Poros Majene - Mamuju No.169-177, Baurung, Kec. Banggae Tim., Kabupaten Majene, Sulawesi Barat 91412","Baurung, Kec. Banggae Tim., Kabupaten Majene",SULAWESI BARAT,91412.0,Indonesia,,,,-3.5418213,118.9854054,https://maps.google.com/?cid=0x0:0xe2677925f0ad6f78,
supermarket,Toko bahan makanan,Kios CHAIRA BySukma,"CXWM+74V, Jl. Lettu Moh. Yamin, Baurung, Kec. Banggae Tim., Kabupaten Majene, Sulawesi Barat 91412","Jl. Lettu Moh. Yamin, Baurung, Kec. Banggae Tim., Kabupaten Majene",SULAWESI BARAT,91412.0,Indonesia,82394489766.0,,,-3.554261,118.9828036,https://maps.google.com/?cid=0x0:0x48bbaf0fc8496529,
supermarket,Minimarket,INDOMARET PLUS JEND. SUDIRMAN MAJENE,"Jl. Jend. Sudirman No.9, Labuang, Kec. Banggae Tim., Kabupaten Majene, Sulawesi Barat 91412","Labuang, Kec. Banggae Tim., Kabupaten Majene",SULAWESI BARAT,91412.0,Indonesia,,,,-3.5430551,118.9691778,https://maps.google.com/?cid=0x0:0x9ba6176508991f2c,
supermarket,Kios,KIOS AMANAH,"FXRC+WV3, Tande, Kec. Banggae Tim., Kabupaten Majene, Sulawesi Barat 91413","Tande, Kec. Banggae Tim., Kabupaten Majene",SULAWESI BARAT,91413.0,Indonesia,82189979998.0,,,-3.5077385,118.9721579,https://maps.google.com/?cid=0x0:0xd8cea9a0b8636241,
supermarket,Toko,Alfamidi Jend Sud Majene,"Jl. Jend. Sudirman No.68, Labuang, Kec. Banggae Tim., Kabupaten Majene, Sulawesi Barat 91412","Labuang, Kec. Banggae Tim., Kabupaten Majene",SULAWESI BARAT,91412.0,Indonesia,,,,-3.5443373,118.9728318,https://maps.google.com/?cid=0x0:0x16c4e93820add8a,
supermarket,Toko Perlengkapan Rumah,Toko Sulawesi,"FX49+MQC, Jl. Poros Majene - Mamuju, Labuang, Kec. Banggae Tim., Kabupaten Majene, Sulawesi Barat 91412","Jl. Poros Majene - Mamuju, Labuang, Kec. Banggae Tim., Kabupaten Majene",SULAWESI BARAT,91412.0,Indonesia,,,,-3.5433162,118.9693882,https://maps.google.com/?cid=0x0:0x4ba4ce1ec8ee94d4,
supermarket,Toko umum,Warung Al - Barqah Idaman,"Jl. Melati No.14, Labuang, Kec. Banggae Tim., Kabupaten Majene, Sulawesi Barat 91412","Labuang, Kec. Banggae Tim., Kabupaten Majene",SULAWESI BARAT,91412.0,Indonesia,82347276033.0,,,-3.5406046,118.9746883,https://maps.google.com/?cid=0x0:0x5efa39b534023da9,
supermarket,Kios,Kios AL_Amin,"FXM4+GCH, Baruga, Kec. Banggae Tim., Kabupaten Majene, Sulawesi Barat 91411","Baruga, Kec. Banggae Tim., Kabupaten Majene",SULAWESI BARAT,91411.0,Indonesia,,,,-3.5161966,118.9560973,https://maps.google.com/?cid=0x0:0xea9716d9de34ac91,
supermarket,Toko,Warung Reski Evy,"Jl. Poros Majene - Mamuju No.73, Baru, Kec. Banggae, Kabupaten Majene, Sulawesi Barat","Kabupaten Majene, Sulawesi Barat",SULAWESI BARAT,,Indonesia,81244612054.0,,,-3.549031,118.9489327,https://maps.google.com/?cid=0x0:0x5cc87a74ce8f3233,
supermarket,Toko Elektronik,Arman Muhammadiah,"FW6V+37X, Baru, Kec. Banggae, Kabupaten Majene, Sulawesi Barat 91415","Baru, Kec. Banggae, Kabupaten Majene",SULAWESI BARAT,91415.0,Indonesia,85340403803.0,,,-3.5397656,118.9432233,https://maps.google.com/?cid=0x0:0xd56aed00ff0bccf,
supermarket,Toko,Toko Ananda,"Jl. Poros Majene - Mamuju No.28, Totoli, Kec. Banggae, Kabupaten Majene, Sulawesi Barat","Kabupaten Majene, Sulawesi Barat",SULAWESI BARAT,,Indonesia,,,,-3.5522459,118.9454075,https://maps.google.com/?cid=0x0:0x5396d8e371f21896,
supermarket,Minimarket,TOKO SURABAYA MAJENE,"FX6C+R2F, Jl. Kanjuha, Banggae, Kec. Banggae, Kabupaten Majene, Sulawesi Barat 91412","Jl. Kanjuha, Banggae, Kec. Banggae, Kabupaten Majene",SULAWESI BARAT,91412.0,Indonesia,,,,-3.5379319,118.9700419,https://maps.google.com/?cid=0x0:0xfdb5962ffc5fc3a6,
supermarket,Komplek perumahan,Rumah Boy Muhlis Lipu,"FX59+3JJ, Labuang, Kec. Banggae Tim., Kabupaten Majene, Sulawesi Barat 91412","Labuang, Kec. Banggae Tim., Kabupaten Majene",SULAWESI BARAT,91412.0,Indonesia,82348000953.0,,,-3.5422935,118.9690211,https://maps.google.com/?cid=0x0:0xe73ede57b011ba4c,
supermarket,supermarket,Kec. Banggae Tim.,"Kabupaten Majene, Sulawesi Barat","Kabupaten Majene, Sulawesi Barat",SULAWESI BARAT,,Indonesia,,,,-3.5443284,118.9724991,https://maps.google.com/?cid=0x0:0x8a3d219855bd6a6e,
supermarket,supermarket,Fahrymart,"CXVX+265, Baurung, Kec. Banggae Tim., Kabupaten Majene, Sulawesi Barat","Kabupaten Majene, Sulawesi Barat",SULAWESI BARAT,,Indonesia,82225688297.0,,,-3.5569484,118.9975149,https://maps.google.com/?cid=0x0:0x485983a5c4e333c3,
supermarket,Pusat Perbelanjaan,Owen Cell 2,"FX6C+662, Banggae, Kec. Banggae, Kabupaten Majene, Sulawesi Barat 91412","Banggae, Kec. Banggae, Kabupaten Majene",SULAWESI BARAT,91412.0,Indonesia,,,,-3.5394905,118.9705121,https://maps.google.com/?cid=0x0:0x2e9eba5abb7674fc,
supermarket,supermarket,TOKO SRC Maya,"FX48+PQ6, Jl. Poros Majene - Mamuju, Banggae, Kec. Banggae, Kabupaten Majene, Sulawesi Barat 91412","Jl. Poros Majene - Mamuju, Banggae, Kec. Banggae, Kabupaten Majene",SULAWESI BARAT,91412.0,Indonesia,,,,-3.5432071,118.9668908,https://maps.google.com/?cid=0x0:0xb48f61c32cda51a5,
supermarket,Toko Kosmetik,B Erl Cosmetics,"CXVV+RP6, Baurung, Kec. Banggae Tim., Kabupaten Majene, Sulawesi Barat","Kabupaten Majene, Sulawesi Barat",SULAWESI BARAT,,Indonesia,85256454042.0,,,-3.5554514,118.9942519,https://maps.google.com/?cid=0x0:0xff3278657a76c87b,
supermarket,Toko Buah dan Sayur,Toko buah,"Banggae, Kec. Banggae, Kabupaten Majene, Sulawesi Barat","Kabupaten Majene, Sulawesi Barat",SULAWESI BARAT,,Indonesia,,,,-3.5436721,118.9659068,https://maps.google.com/?cid=0x0:0x39c49adc5dded612,
supermarket,Pusat Perbelanjaan,Usra R,"FX26+R7J, Pangali-Ali, Kec. Banggae, Kabupaten Majene, Sulawesi Barat","Kabupaten Majene, Sulawesi Barat",SULAWESI BARAT,,Indonesia,85340891189.0,,,-3.5479237,118.9606301,https://maps.google.com/?cid=0x0:0xea9d05b244c09c8a,
supermarket,Toko bahan makanan,Toko Adiba,"Baurung, Kec. Banggae Tim., Kabupaten Majene, Sulawesi Barat","Kabupaten Majene, Sulawesi Barat",SULAWESI BARAT,,Indonesia,85241759759.0,,,-3.5449315,118.9808926,https://maps.google.com/?cid=0x0:0x22fe9723f7dbec29,
supermarket,Toko Percetakan,HASYIM DIGITAL PRINTING,"FX5P+X8M, Jl. Hertasning, Baurung, Kec. Banggae Tim., Kabupaten Majene, Sulawesi Barat 91412","Jl. Hertasning, Baurung, Kec. Banggae Tim., Kabupaten Majene",SULAWESI BARAT,91412.0,Indonesia,85256093575.0,,,-3.5400352,118.9857983,https://maps.google.com/?cid=0x0:0x47a92e6f58f11fbd,
supermarket,supermarket,Sulawesi Barat 91414,"Kec. Banggae Tim., Kabupaten Majene, Sulawesi Barat","Kabupaten Majene, Sulawesi Barat",SULAWESI BARAT,,Indonesia,,,,-3.504363,118.9470422,https://maps.google.com/?cid=0x0:0xa2a58b17ca1668be,
supermarket,Toko umum,Kios Berkah,"FXX3+W4P, Desa Buttu Baruga, Dusun Buttu, Lemo, Kec. Banggae Tim., Kabupaten Majene, Sulawesi Barat 91414","Desa Buttu Baruga, Dusun Buttu, Lemo, Kec. Banggae Tim., Kabupaten Majene",SULAWESI BARAT,91414.0,Indonesia,,,,-3.5001582,118.9528385,https://maps.google.com/?cid=0x0:0x75780d1dcbf943ea,
supermarket,Kios,Kios AL_Amin,"FXM4+GCH, Baruga, Kec. Banggae Tim., Kabupaten Majene, Sulawesi Barat 91411","Baruga, Kec. Banggae Tim., Kabupaten Majene",SULAWESI BARAT,91411.0,Indonesia,,,,-3.5161966,118.9560973,https://maps.google.com/?cid=0x0:0xea9716d9de34ac91,
supermarket,Toko,Toko Ananda,"Jl. Poros Majene - Mamuju No.28, Totoli, Kec. Banggae, Kabupaten Majene, Sulawesi Barat","Kabupaten Majene, Sulawesi Barat",SULAWESI BARAT,,Indonesia,,,,-3.5522459,118.9454075,https://maps.google.com/?cid=0x0:0x5396d8e371f21896,
supermarket,Toko Perlengkapan Rumah,Toko Sulawesi,"FX49+MQC, Jl. Poros Majene - Mamuju, Labuang, Kec. Banggae Tim., Kabupaten Majene, Sulawesi Barat 91412","Jl. Poros Majene - Mamuju, Labuang, Kec. Banggae Tim., Kabupaten Majene",SULAWESI BARAT,91412.0,Indonesia,,,,-3.5433162,118.9693882,https://maps.google.com/?cid=0x0:0x4ba4ce1ec8ee94d4,
supermarket,Toko Elektronik,Arman Muhammadiah,"FW6V+37X, Baru, Kec. Banggae, Kabupaten Majene, Sulawesi Barat 91415","Baru, Kec. Banggae, Kabupaten Majene",SULAWESI BARAT,91415.0,Indonesia,85340403803.0,,,-3.5397656,118.9432233,https://maps.google.com/?cid=0x0:0xd56aed00ff0bccf,
supermarket,Kios,KIOS AMANAH,"FXRC+WV3, Tande, Kec. Banggae Tim., Kabupaten Majene, Sulawesi Barat 91413","Tande, Kec. Banggae Tim., Kabupaten Majene",SULAWESI BARAT,91413.0,Indonesia,82189979998.0,,,-3.5077385,118.9721579,https://maps.google.com/?cid=0x0:0xd8cea9a0b8636241,
supermarket,Toko,Alfamidi Jend Sud Majene,"Jl. Jend. Sudirman No.68, Labuang, Kec. Banggae Tim., Kabupaten Majene, Sulawesi Barat 91412","Labuang, Kec. Banggae Tim., Kabupaten Majene",SULAWESI BARAT,91412.0,Indonesia,,,,-3.5443373,118.9728318,https://maps.google.com/?cid=0x0:0x16c4e93820add8a,
supermarket,Toko Makanan,Buras,"FW3G+RF5, Totoli, Kec. Banggae, Kabupaten Majene, Sulawesi Barat 91415","Totoli, Kec. Banggae, Kabupaten Majene",SULAWESI BARAT,91415.0,Indonesia,82259512018.0,,,-3.5454976,118.9262399,https://maps.google.com/?cid=0x0:0x527fe543bf215e93,
supermarket,Toko Ponsel,Warung madu cell,"GX2J+58X, Tande, Kec. Banggae Tim., Kabupaten Majene, Sulawesi Barat 91354","Tande, Kec. Banggae Tim., Kabupaten Majene",SULAWESI BARAT,91354.0,Indonesia,,,,-3.4983384,118.9817814,https://maps.google.com/?cid=0x0:0x43ba631679892c2e,
supermarket,supermarket,Kec. Malunda,"Kabupaten Majene, Sulawesi Barat","Kabupaten Majene, Sulawesi Barat",SULAWESI BARAT,,Indonesia,,,,-3.0144575,118.8580249,https://maps.google.com/?cid=0x0:0x4b00fe7a2d4d1176,
supermarket,Pasar,Indomaret Malunda Kabupaten Majene,"XVQ4+FQ2, Malunda, Kec. Malunda, Kabupaten Majene, Sulawesi Barat 91453","Malunda, Kec. Malunda, Kabupaten Majene",SULAWESI BARAT,91453.0,Indonesia,,,,-3.0113575,118.8569048,https://maps.google.com/?cid=0x0:0x612e01a02003bf68,
supermarket,Museum,Pasar Malunda,"XVM5+VJ5, Malunda, Kec. Malunda, Kabupaten Majene, Sulawesi Barat 91453","Malunda, Kec. Malunda, Kabupaten Majene",SULAWESI BARAT,91453.0,Indonesia,,,,-3.0153653,118.8591003,https://maps.google.com/?cid=0x0:0xbc2105d220bc310c,
supermarket,Toserba,Wahid,"2V55+MXC, Malunda, Kec. Malunda, Kabupaten Majene, Sulawesi Barat 91453","Malunda, Kec. Malunda, Kabupaten Majene",SULAWESI BARAT,91453.0,Indonesia,,,,-2.9908146,118.8598958,https://maps.google.com/?cid=0x0:0xb4819bb76ff4fbc7,
supermarket,Pasar,Pasar Deking,"2V94+RFM, Jl. Poros Majene - Mamuju, Malunda, Kec. Malunda, Kabupaten Majene, Sulawesi Barat 91453","Jl. Poros Majene - Mamuju, Malunda, Kec. Malunda, Kabupaten Majene",SULAWESI BARAT,91453.0,Indonesia,,,,-2.9804171,118.8561775,https://maps.google.com/?cid=0x0:0xf699e1357c4cb423,
supermarket,Toko bahan makanan,Toserba Murah Malunda,"XVW4+6J8, Jl. Poros Majene - Mamuju, Malunda, Kec. Malunda, Kabupaten Majene, Sulawesi Barat 91453","Jl. Poros Majene - Mamuju, Malunda, Kec. Malunda, Kabupaten Majene",SULAWESI BARAT,91453.0,Indonesia,82296759508.0,,,-3.0044473,118.856587,https://maps.google.com/?cid=0x0:0xd565676700fad533,
supermarket,Kios,Toko Sinar Wajo (H.Ambo Nani),"XVQ4+JVF, JLN Poros, Malunda, Majene Regency, West Sulawesi 91453","JLN Poros, Malunda, Majene Regency",SULAWESI BARAT,91453.0,Indonesia,82335367874.0,,,-3.0109378,118.8571797,https://maps.google.com/?cid=0x0:0xc4c673f961caf0e1,
supermarket,Toko bahan makanan,lulu safira,"2WFH+HRW, jln tamaende, Bambangan, Kec. Malunda, Kabupaten Majene, Sulawesi Barat 91453","jln tamaende, Bambangan, Kec. Malunda, Kabupaten Majene",SULAWESI BARAT,91453.0,Indonesia,82358883130.0,,,-2.9760007,118.9295737,https://maps.google.com/?cid=0x0:0x616a9aefcf52d013,
supermarket,Toko bahan makanan,TOKO CAHAYA SURYA,"Malunda, Kec. Malunda, Kabupaten Majene, Sulawesi Barat 91453","Kec. Malunda, Kabupaten Majene",SULAWESI BARAT,91453.0,Indonesia,82290899615.0,,,-3.011969,118.8556752,https://maps.google.com/?cid=0x0:0xc91c1dde70c4339c,
supermarket,supermarket,TOKO Aulian,"XVR4+QG3, Jl. Poros Majene - Mamuju, Malunda, Kec. Malunda, Kabupaten Majene, Sulawesi Barat 91453","Jl. Poros Majene - Mamuju, Malunda, Kec. Malunda, Kabupaten Majene",SULAWESI BARAT,91453.0,Indonesia,,,,-3.0081033,118.856294,https://maps.google.com/?cid=0x0:0xa9049508fdb159bc,
supermarket,Perhimpunan Pengembang Perumahan,Kios Cahaya Kalorang,"XVM4+9QQ, Malunda, Kec. Malunda, Kabupaten Majene, Sulawesi Barat 91453","Malunda, Kec. Malunda, Kabupaten Majene",SULAWESI BARAT,91453.0,Indonesia,,,,-3.0165449,118.8569775,https://maps.google.com/?cid=0x0:0x5f4296cbaafa2c9,
supermarket,Pom bensin/SPBU,SPBU MALUNDA DEPAN WARUNG SATE MADURA,"XVV4+8M4, Jl. Poros Majene - Mamuju, Malunda, Kec. Malunda, Kabupaten Majene, Sulawesi Barat 91453","Jl. Poros Majene - Mamuju, Malunda, Kec. Malunda, Kabupaten Majene",SULAWESI BARAT,91453.0,Indonesia,,,,-3.0067446,118.856709,https://maps.google.com/?cid=0x0:0xe7da72bdb7a9cabc,
supermarket,,Pasar Maliaya,"3VGG+HVF, Maliaya, Kec. Malunda, Kabupaten Majene, Sulawesi Barat 91453","Maliaya, Kec. Malunda, Kabupaten Majene",SULAWESI BARAT,91453.0,Indonesia,,,,-2.9235505,118.8771832,https://maps.google.com/?cid=0x0:0x7920d70c366cbb68,
supermarket,supermarket,ASTANA BUAH,"2VM7+8M6, Jl. Poros Majene - Mamuju, Mekkatta, Kec. Malunda, Kabupaten Majene, Sulawesi Barat 91453","Jl. Poros Majene - Mamuju, Mekkatta, Kec. Malunda, Kabupaten Majene",SULAWESI BARAT,91453.0,Indonesia,,,,-2.9667035,118.8641308,https://maps.google.com/?cid=0x0:0x4c3b7305ca81dd9f,
supermarket,Toko bahan makanan,toko resky,"XVP4+MP4, Jl. Empat Lima, Malunda, Kec. Malunda, Kabupaten Majene, Sulawesi Barat 91453","Jl. Empat Lima, Malunda, Kec. Malunda, Kabupaten Majene",SULAWESI BARAT,91453.0,Indonesia,82293183010.0,,,-3.0133613,118.8568372,https://maps.google.com/?cid=0x0:0xd99a872ccbd8a103,
supermarket,Toko,HERBAL MALUNDA,"Jl. Poros Majene Mamuju Lingk. Labuang kel, Lamungan Batu, Kec. Malunda, Kabupaten Majene, Sulawesi Barat 91453","Lamungan Batu, Kec. Malunda, Kabupaten Majene",SULAWESI BARAT,91453.0,Indonesia,82352855113.0,,,-3.0241992,118.8613857,https://maps.google.com/?cid=0x0:0xfb0e6c201d66de4b,
supermarket,Toko bahan makanan,TOKO FAIQA,"2VWC+H7M, Jl. Poros Majene - Mamuju, Mekkatta, Kec. Malunda, Kabupaten Majene, Sulawesi Barat 91453","Jl. Poros Majene - Mamuju, Mekkatta, Kec. Malunda, Kabupaten Majene",SULAWESI BARAT,91453.0,Indonesia,,,,-2.9535385,118.8706672,https://maps.google.com/?cid=0x0:0xdd4f171d1d694739,
supermarket,Toko bahan makanan,Toko Azka Jaya,"2VWC+679, Jl. Poros Majene - Mamuju, Mekkatta, Kec. Malunda, Kabupaten Majene, Sulawesi Barat 91453","Jl. Poros Majene - Mamuju, Mekkatta, Kec. Malunda, Kabupaten Majene",SULAWESI BARAT,91453.0,Indonesia,,,,-2.9544647,118.8707414,https://maps.google.com/?cid=0x0:0x13f843f51947430a,
supermarket,Toko bahan makanan,Toko Fajar Mas Tapalang,"4VP9+5R4, Galung, Kec. Tapalang, Kabupaten Mamuju, Sulawesi Barat 91352","Galung, Kec. Tapalang, Kabupaten Mamuju",SULAWESI BARAT,91352.0,Indonesia,82189484750.0,,,-2.8646132,118.8695764,https://maps.google.com/?cid=0x0:0x916674a773ed9834,
supermarket,,Kios raha,"2W37+35G, Bambangan, Kec. Malunda, Kabupaten Majene, Sulawesi Barat 91453","Bambangan, Kec. Malunda, Kabupaten Majene",SULAWESI BARAT,91453.0,Indonesia,,,,-2.9971273,118.9126163,https://maps.google.com/?cid=0x0:0x26e5e937c2427c39,
supermarket,Minimarket,Indomaret Tapalang Kota Mamuju,"4VQ8+M8W, Galung, Kec. Tapalang, Kabupaten Mamuju, Sulawesi Barat 91352","Galung, Kec. Tapalang, Kabupaten Mamuju",SULAWESI BARAT,91352.0,Indonesia,,,,-2.8607561,118.8658272,https://maps.google.com/?cid=0x0:0xc01237001fcda8d0,
supermarket,supermarket,Sulawesi Barat 91451,"Kec. Pamboang, Kabupaten Majene, Sulawesi Barat","Kabupaten Majene, Sulawesi Barat",SULAWESI BARAT,,Indonesia,,,,-3.4651099,118.917927,https://maps.google.com/?cid=0x0:0x284e3301f580930a,
supermarket,Pasar,Pasar Kecamatan Pamboang,"GV4W+7G4, Desa Tinambung, Lalampanua, Kec. Pamboang, Kabupaten Majene, Sulawesi Barat 91451","Desa Tinambung, Lalampanua, Kec. Pamboang, Kabupaten Majene",SULAWESI BARAT,91451.0,Indonesia,,,,-3.4943609,118.8963283,https://maps.google.com/?cid=0x0:0x6e46663ad32a3187,
supermarket,Minimarket,Indomaret Pamboang Kabupaten Majene,"GV5W+QRX, Lalampanua, Kec. Pamboang, Kabupaten Majene, Sulawesi Barat 91451","Lalampanua, Kec. Pamboang, Kabupaten Majene",SULAWESI BARAT,91451.0,Indonesia,,,,-3.4905099,118.8971151,https://maps.google.com/?cid=0x0:0x469b6c8fbd376fbc,
supermarket,supermarket,TOKO BINTANG MAS,"GVXJ+85R, Jl. Poros Majene - Mamuju, Sirindu, Kec. Pamboang, Kabupaten Majene, Sulawesi Barat 91451","Jl. Poros Majene - Mamuju, Sirindu, Kec. Pamboang, Kabupaten Majene",SULAWESI BARAT,91451.0,Indonesia,,,,-3.4516323,118.8803918,https://maps.google.com/?cid=0x0:0xcf23faa99b8e09f8,
supermarket,Toko,SAPO SAPO KURMA DAN HNI HALAL MART,"GVVJ+M23, Dusun Leba Desa Pesuloang, Sirindu, Kec. Pamboang, Kabupaten Majene, Sulawesi Barat 91451","Dusun Leba Desa Pesuloang, Sirindu, Kec. Pamboang, Kabupaten Majene",SULAWESI BARAT,91451.0,Indonesia,,,,-3.4558722,118.8800335,https://maps.google.com/?cid=0x0:0x2db40ab246e977e5,
supermarket,Toko umum,Kios Ardan,"FW96+PJ5, Bonde, Kec. Pamboang, Kabupaten Majene, Sulawesi Barat 91451","Bonde, Kec. Pamboang, Kabupaten Majene",SULAWESI BARAT,91451.0,Indonesia,,,,-3.5307311,118.911618,https://maps.google.com/?cid=0x0:0xb720c9a41d552cf,
supermarket,Toko bahan makanan,Toko Sumanti,"GV4W+78M, Lalampanua, Kec. Pamboang, Kabupaten Majene, Sulawesi Barat 91451","Lalampanua, Kec. Pamboang, Kabupaten Majene",SULAWESI BARAT,91451.0,Indonesia,,,,-3.4942972,118.8957898,https://maps.google.com/?cid=0x0:0x9bfdd47722239514,
supermarket,Minimarket,Kios Risky,"Jl. Pendidikan No.10, Lalampanua, Kec. Pamboang, Kabupaten Majene, Sulawesi Barat 91451","Lalampanua, Kec. Pamboang, Kabupaten Majene",SULAWESI BARAT,91451.0,Indonesia,85399456507.0,,,-3.4858886,118.8975315,https://maps.google.com/?cid=0x0:0x47e2a10257ffa9c3,
supermarket,Toko umum,Kios Berkah,"FXX3+W4P, Desa Buttu Baruga, Dusun Buttu, Lemo, Kec. Banggae Tim., Kabupaten Majene, Sulawesi Barat 91414","Desa Buttu Baruga, Dusun Buttu, Lemo, Kec. Banggae Tim., Kabupaten Majene",SULAWESI BARAT,91414.0,Indonesia,,,,-3.5001582,118.9528385,https://maps.google.com/?cid=0x0:0x75780d1dcbf943ea,
supermarket,Toko Ponsel,Aira Cell,"GV6W+PJH, Lalampanua, Kec. Pamboang, Kabupaten Majene, Sulawesi Barat 91451","Lalampanua, Kec. Pamboang, Kabupaten Majene",SULAWESI BARAT,91451.0,Indonesia,,,,-3.4881827,118.8966022,https://maps.google.com/?cid=0x0:0xf3ecd05422c0f729,
supermarket,Toko bahan makanan,TOKO Abid,"HVHC+QWW, Jl. Poros Majene - Mamuju, Mosso Dhua, Kec. Sendana, Kabupaten Majene, Sulawesi Barat 91452","Jl. Poros Majene - Mamuju, Mosso Dhua, Kec. Sendana, Kabupaten Majene",SULAWESI BARAT,91452.0,Indonesia,,,,-3.4205071,118.8723208,https://maps.google.com/?cid=0x0:0xf4824109ec6bbc28,
supermarket,Toko Makanan Sehat,Toko kerupuk mahir,"Balombong, Kec. Pamboang, Kabupaten Majene, Sulawesi Barat 91451","Kec. Pamboang, Kabupaten Majene",SULAWESI BARAT,91451.0,Indonesia,82190993765.0,,,-3.4536661,118.8800694,https://maps.google.com/?cid=0x0:0x4328c2cbcc0a4d36,
supermarket,Toko Elektronik,Arman Muhammadiah,"FW6V+37X, Baru, Kec. Banggae, Kabupaten Majene, Sulawesi Barat 91415","Baru, Kec. Banggae, Kabupaten Majene",SULAWESI BARAT,91415.0,Indonesia,85340403803.0,,,-3.5397656,118.9432233,https://maps.google.com/?cid=0x0:0xd56aed00ff0bccf,
supermarket,Toko bahan makanan,Indomaret Sendana Kabupaten Majene,"JRGX+29X, Jl. Poros Majene - Mamuju, Mosso, Kec. Sendana, Kabupaten Majene, Sulawesi Barat 91452","Jl. Poros Majene - Mamuju, Mosso, Kec. Sendana, Kabupaten Majene",SULAWESI BARAT,91452.0,Indonesia,,,,-3.374878,118.8484989,https://maps.google.com/?cid=0x0:0x9fd103bf35a44b81,
supermarket,Minimarket,Indomaret Pamboang Kabupaten Majene,"GV5W+QRX, Lalampanua, Kec. Pamboang, Kabupaten Majene, Sulawesi Barat 91451","Lalampanua, Kec. Pamboang, Kabupaten Majene",SULAWESI BARAT,91451.0,Indonesia,,,,-3.4905099,118.8971151,https://maps.google.com/?cid=0x0:0x469b6c8fbd376fbc,
supermarket,supermarket,Toko Rizka,"JRGX+JG9, Jl. Poros Majene - Mamuju, Mosso, Kec. Sendana, Kabupaten Majene, Sulawesi Barat 91452","Jl. Poros Majene - Mamuju, Mosso, Kec. Sendana, Kabupaten Majene",SULAWESI BARAT,91452.0,Indonesia,,,,-3.3734646,118.8488616,https://maps.google.com/?cid=0x0:0x7f5f05cecdbcaf5a,
supermarket,Pasar tradisional,Parassangan,"Unnamed Road, Tallu Banua, Kec. Sendana, Kabupaten Majene, Sulawesi Barat 91452","Tallu Banua, Kec. Sendana, Kabupaten Majene",SULAWESI BARAT,91452.0,Indonesia,85211405669.0,,,-3.2803324,118.8486325,https://maps.google.com/?cid=0x0:0xbc153d6777831b5e,
supermarket,Kios,UPKDB MART,"JRMX+M29, Jl. Poros Majene - Mamuju, Puttada, Kec. Sendana, Kabupaten Majene, Sulawesi Barat 91452","Jl. Poros Majene - Mamuju, Puttada, Kec. Sendana, Kabupaten Majene",SULAWESI BARAT,91452.0,Indonesia,,,,-3.3658405,118.847601,https://maps.google.com/?cid=0x0:0x7f54155c1a99bd,
supermarket,Komplek perumahan,Kios sul totolisi,"MRFV+P4C, Jl. Daeng Pasau, Sendana, Kec. Sendana, Kabupaten Majene, Sulawesi Barat 91452","Jl. Daeng Pasau, Sendana, Kec. Sendana, Kabupaten Majene",SULAWESI BARAT,91452.0,Indonesia,82344908128.0,,,-3.3256782,118.8427695,https://maps.google.com/?cid=0x0:0x2731a932537f5348,
supermarket,Kios,Toko ariny,"PVC6+375, Tallu Banua, Kec. Sendana, Kabupaten Majene, Sulawesi Barat 91452","Tallu Banua, Kec. Sendana, Kabupaten Majene",SULAWESI BARAT,91452.0,Indonesia,85341530902.0,,,-3.2798558,118.8607459,https://maps.google.com/?cid=0x0:0xf9a6c00b04dbf225,
supermarket,Toko,Toko MIDA SOMBA,"JRCX+V23, Jl. Poros Majene - Mamuju, Mosso, Kec. Sendana, Kabupaten Majene, Sulawesi Barat 91452","Jl. Poros Majene - Mamuju, Mosso, Kec. Sendana, Kabupaten Majene",SULAWESI BARAT,91452.0,Indonesia,81355755759.0,,,-3.3778711,118.8475422,https://maps.google.com/?cid=0x0:0x9e5bb84cfb868d66,
supermarket,,KIOS ASRUL,"MV22+44Q, Jl. Poros Majene - Mamuju, Puttada, Kec. Sendana, Kabupaten Majene, Sulawesi Barat 91452","Jl. Poros Majene - Mamuju, Puttada, Kec. Sendana, Kabupaten Majene",SULAWESI BARAT,91452.0,Indonesia,,,,-3.3496542,118.8503471,https://maps.google.com/?cid=0x0:0xd9c19190161a4d0d,
supermarket,Toko bahan makanan,Toko Adi Jaya,"QR5Q+9CV, tammerodo desk tammerodo, Utara, Tammerodo, Kec. Sendana, Kabupaten Majene, Sulawesi Barat 91452","tammerodo desk tammerodo, Utara, Tammerodo, Kec. Sendana, Kabupaten Majene",SULAWESI BARAT,91452.0,Indonesia,,,,-3.2415184,118.8385511,https://maps.google.com/?cid=0x0:0xf8ec6a740aaa0776,
supermarket,Toko bahan makanan,TOKO Abid,"HVHC+QWW, Jl. Poros Majene - Mamuju, Mosso Dhua, Kec. Sendana, Kabupaten Majene, Sulawesi Barat 91452","Jl. Poros Majene - Mamuju, Mosso Dhua, Kec. Sendana, Kabupaten Majene",SULAWESI BARAT,91452.0,Indonesia,,,,-3.4205071,118.8723208,https://maps.google.com/?cid=0x0:0xf4824109ec6bbc28,
supermarket,Kios,Kios Aris,"JV82+5MW, Jl. Poros Majene - Mamuju, Mosso, Kec. Sendana, Kabupaten Majene, Sulawesi Barat 91452","Jl. Poros Majene - Mamuju, Mosso, Kec. Sendana, Kabupaten Majene",SULAWESI BARAT,91452.0,Indonesia,,,,-3.3845217,118.851706,https://maps.google.com/?cid=0x0:0xa5ec0cd1b4fc48a8,
supermarket,supermarket,TOKO RUHANIA,"PV73+VPJ, Tallu Banua, Kec. Sendana, Kabupaten Majene, Sulawesi Barat 91452","Tallu Banua, Kec. Sendana, Kabupaten Majene",SULAWESI BARAT,91452.0,Indonesia,,,,-3.2852906,118.8542795,https://maps.google.com/?cid=0x0:0x16dbd96bd1d628b5,
supermarket,supermarket,Kec. Sendana,"Kabupaten Majene, Sulawesi Barat","Kabupaten Majene, Sulawesi Barat",SULAWESI BARAT,,Indonesia,,,,-3.3754875,118.8481537,https://maps.google.com/?cid=0x0:0x347ca767410bf307,
supermarket,Pasar,Pasar Lembang Limbua,"JRJX+6J6, Mosso, Kec. Sendana, Kabupaten Majene, Sulawesi Barat 91452","Mosso, Kec. Sendana, Kabupaten Majene",SULAWESI BARAT,91452.0,Indonesia,,,,-3.369469,118.8490214,https://maps.google.com/?cid=0x0:0xc9839b2d31903882,
supermarket,Toko bahan makanan,Kios Al-Fathi,"MRHV+8WX, Totolisi, Sendana, Kec. Sendana, Kabupaten Majene, Sulawesi Barat 91452","Totolisi, Sendana, Kec. Sendana, Kabupaten Majene",SULAWESI BARAT,91452.0,Indonesia,,,,-3.3216411,118.8448541,https://maps.google.com/?cid=0x0:0xdce96743a9165726,
supermarket,Toko umum,Teles/jepa amma aco,"JRCX+P6G, Mosso, Kec. Sendana, Kabupaten Majene, Sulawesi Barat 91452","Mosso, Kec. Sendana, Kabupaten Majene",SULAWESI BARAT,91452.0,Indonesia,81356517098.0,,,-3.3781755,118.8480776,https://maps.google.com/?cid=0x0:0xc670b5e3f7a51873,
supermarket,Toko Swalayan,Toko Emmy,"PRRR+396, pelattoang desa, Sendana, Tammerodo, Majene Regency, West Sulawesi 91452","pelattoang desa, Sendana, Tammerodo, Majene Regency",SULAWESI BARAT,91452.0,Indonesia,,,,-3.2595574,118.8411327,https://maps.google.com/?cid=0x0:0x6e95e350ba497404,
supermarket,Toko bahan makanan,Indomaret Sendana Kabupaten Majene,"JRGX+29X, Jl. Poros Majene - Mamuju, Mosso, Kec. Sendana, Kabupaten Majene, Sulawesi Barat 91452","Jl. Poros Majene - Mamuju, Mosso, Kec. Sendana, Kabupaten Majene",SULAWESI BARAT,91452.0,Indonesia,,,,-3.374878,118.8484989,https://maps.google.com/?cid=0x0:0x9fd103bf35a44b81,
supermarket,Minimarket,Indomaret Pamboang Kabupaten Majene,"GV5W+QRX, Lalampanua, Kec. Pamboang, Kabupaten Majene, Sulawesi Barat 91451","Lalampanua, Kec. Pamboang, Kabupaten Majene",SULAWESI BARAT,91451.0,Indonesia,,,,-3.4905099,118.8971151,https://maps.google.com/?cid=0x0:0x469b6c8fbd376fbc,
supermarket,supermarket,Sulawesi Selatan 91925,Sulawesi Selatan,Sulawesi Selatan,SULAWESI BARAT,,Indonesia,,,,-3.0575625,120.1762494,https://maps.google.com/?cid=0x0:0xc8c26aa2cc63531b,
supermarket,Pasar,TOKO BALANIPA,"JRGX+9CX, Lakkading Desa Limbua, Mosso, Kec. Sendana, Kabupaten Majene, Sulawesi Barat 91452","Lakkading Desa Limbua, Mosso, Kec. Sendana, Kabupaten Majene",SULAWESI BARAT,91452.0,Indonesia,81526140001.0,,,-3.3740123,118.8486248,https://maps.google.com/?cid=0x0:0x17e949f45b6a9853,
supermarket,Komplek perumahan,Kios sul totolisi,"MRFV+P4C, Jl. Daeng Pasau, Sendana, Kec. Sendana, Kabupaten Majene, Sulawesi Barat 91452","Jl. Daeng Pasau, Sendana, Kec. Sendana, Kabupaten Majene",SULAWESI BARAT,91452.0,Indonesia,82344908128.0,,,-3.3256782,118.8427695,https://maps.google.com/?cid=0x0:0x2731a932537f5348,
supermarket,Pasar tradisional,Parassangan,"Unnamed Road, Tallu Banua, Kec. Sendana, Kabupaten Majene, Sulawesi Barat 91452","Tallu Banua, Kec. Sendana, Kabupaten Majene",SULAWESI BARAT,91452.0,Indonesia,85211405669.0,,,-3.2803324,118.8486325,https://maps.google.com/?cid=0x0:0xbc153d6777831b5e,
supermarket,Pasar,Pasar Lembang Limbua,"JRJX+6J6, Mosso, Kec. Sendana, Kabupaten Majene, Sulawesi Barat 91452","Mosso, Kec. Sendana, Kabupaten Majene",SULAWESI BARAT,91452.0,Indonesia,,,,-3.369469,118.8490214,https://maps.google.com/?cid=0x0:0xc9839b2d31903882,
supermarket,Kios,Toko ariny,"PVC6+375, Tallu Banua, Kec. Sendana, Kabupaten Majene, Sulawesi Barat 91452","Tallu Banua, Kec. Sendana, Kabupaten Majene",SULAWESI BARAT,91452.0,Indonesia,85341530902.0,,,-3.2798558,118.8607459,https://maps.google.com/?cid=0x0:0xf9a6c00b04dbf225,
supermarket,supermarket,Toko Rizka,"JRGX+JG9, Jl. Poros Majene - Mamuju, Mosso, Kec. Sendana, Kabupaten Majene, Sulawesi Barat 91452","Jl. Poros Majene - Mamuju, Mosso, Kec. Sendana, Kabupaten Majene",SULAWESI BARAT,91452.0,Indonesia,,,,-3.3734646,118.8488616,https://maps.google.com/?cid=0x0:0x7f5f05cecdbcaf5a,
supermarket,Kios,UPKDB MART,"JRMX+M29, Jl. Poros Majene - Mamuju, Puttada, Kec. Sendana, Kabupaten Majene, Sulawesi Barat 91452","Jl. Poros Majene - Mamuju, Puttada, Kec. Sendana, Kabupaten Majene",SULAWESI BARAT,91452.0,Indonesia,,,,-3.3658405,118.847601,https://maps.google.com/?cid=0x0:0x7f54155c1a99bd,
supermarket,Toko bahan makanan,Toko Adi Jaya,"QR5Q+9CV, tammerodo desk tammerodo, Utara, Tammerodo, Kec. Sendana, Kabupaten Majene, Sulawesi Barat 91452","tammerodo desk tammerodo, Utara, Tammerodo, Kec. Sendana, Kabupaten Majene",SULAWESI BARAT,91452.0,Indonesia,,,,-3.2415184,118.8385511,https://maps.google.com/?cid=0x0:0xf8ec6a740aaa0776,
supermarket,Toko,SAPO SAPO KURMA DAN HNI HALAL MART,"GVVJ+M23, Dusun Leba Desa Pesuloang, Sirindu, Kec. Pamboang, Kabupaten Majene, Sulawesi Barat 91451","Dusun Leba Desa Pesuloang, Sirindu, Kec. Pamboang, Kabupaten Majene",SULAWESI BARAT,91451.0,Indonesia,,,,-3.4558722,118.8800335,https://maps.google.com/?cid=0x0:0x2db40ab246e977e5,
supermarket,Toko bahan makanan,Kios Al-Fathi,"MRHV+8WX, Totolisi, Sendana, Kec. Sendana, Kabupaten Majene, Sulawesi Barat 91452","Totolisi, Sendana, Kec. Sendana, Kabupaten Majene",SULAWESI BARAT,91452.0,Indonesia,,,,-3.3216411,118.8448541,https://maps.google.com/?cid=0x0:0xdce96743a9165726,
supermarket,,KIOS ASRUL,"MV22+44Q, Jl. Poros Majene - Mamuju, Puttada, Kec. Sendana, Kabupaten Majene, Sulawesi Barat 91452","Jl. Poros Majene - Mamuju, Puttada, Kec. Sendana, Kabupaten Majene",SULAWESI BARAT,91452.0,Indonesia,,,,-3.3496542,118.8503471,https://maps.google.com/?cid=0x0:0xd9c19190161a4d0d,
supermarket,Toko Swalayan,Toko Src Bee One's,"QR9M+8CC, Jl. Poros Majene - Mamuju, Ulidang, Tammerodo, Kabupaten Majene, Sulawesi Barat 91452","Jl. Poros Majene - Mamuju, Ulidang, Tammerodo, Kabupaten Majene",SULAWESI BARAT,91452.0,Indonesia,,,,-3.2316982,118.8335264,https://maps.google.com/?cid=0x0:0x2fd18f8030e1e942,
supermarket,Toko bahan makanan,TOKO Abid,"HVHC+QWW, Jl. Poros Majene - Mamuju, Mosso Dhua, Kec. Sendana, Kabupaten Majene, Sulawesi Barat 91452","Jl. Poros Majene - Mamuju, Mosso Dhua, Kec. Sendana, Kabupaten Majene",SULAWESI BARAT,91452.0,Indonesia,,,,-3.4205071,118.8723208,https://maps.google.com/?cid=0x0:0xf4824109ec6bbc28,
supermarket,Toko bahan makanan,Superindo Sawangan,"Jl. Raya Muchtar, RT.01/RW.07, Sawangan Baru, Kec. Sawangan, Kota Depok, Jawa Barat 16511","RT.01/RW.07, Sawangan Baru, Kec. Sawangan, Kota Depok",SULAWESI BARAT,16511.0,Indonesia,,,,-6.402711,106.7704683,https://maps.google.com/?cid=0x0:0x4f5c7951ced774b,
supermarket,Toko bahan makanan,Indomaret Sendana Kabupaten Majene,"JRGX+29X, Jl. Poros Majene - Mamuju, Mosso, Kec. Sendana, Kabupaten Majene, Sulawesi Barat 91452","Jl. Poros Majene - Mamuju, Mosso, Kec. Sendana, Kabupaten Majene",SULAWESI BARAT,91452.0,Indonesia,,,,-3.374878,118.8484989,https://maps.google.com/?cid=0x0:0x9fd103bf35a44b81,
supermarket,Minimarket,Indomaret Pamboang Kabupaten Majene,"GV5W+QRX, Lalampanua, Kec. Pamboang, Kabupaten Majene, Sulawesi Barat 91451","Lalampanua, Kec. Pamboang, Kabupaten Majene",SULAWESI BARAT,91451.0,Indonesia,,,,-3.4905099,118.8971151,https://maps.google.com/?cid=0x0:0x469b6c8fbd376fbc,
supermarket,supermarket,Sulawesi Selatan 91959,"Kec. Sendana, Kota Palopo, Sulawesi Selatan","Kota Palopo, Sulawesi Selatan",SULAWESI BARAT,,Indonesia,,,,-3.0655982,120.1993381,https://maps.google.com/?cid=0x0:0xb66b64b75a7884a,
supermarket,Toko,Toko MIDA SOMBA,"JRCX+V23, Jl. Poros Majene - Mamuju, Mosso, Kec. Sendana, Kabupaten Majene, Sulawesi Barat 91452","Jl. Poros Majene - Mamuju, Mosso, Kec. Sendana, Kabupaten Majene",SULAWESI BARAT,91452.0,Indonesia,81355755759.0,,,-3.3778711,118.8475422,https://maps.google.com/?cid=0x0:0x9e5bb84cfb868d66,
supermarket,Komplek perumahan,Kios sul totolisi,"MRFV+P4C, Jl. Daeng Pasau, Sendana, Kec. Sendana, Kabupaten Majene, Sulawesi Barat 91452","Jl. Daeng Pasau, Sendana, Kec. Sendana, Kabupaten Majene",SULAWESI BARAT,91452.0,Indonesia,82344908128.0,,,-3.3256782,118.8427695,https://maps.google.com/?cid=0x0:0x2731a932537f5348,
supermarket,Pasar tradisional,Parassangan,"Unnamed Road, Tallu Banua, Kec. Sendana, Kabupaten Majene, Sulawesi Barat 91452","Tallu Banua, Kec. Sendana, Kabupaten Majene",SULAWESI BARAT,91452.0,Indonesia,85211405669.0,,,-3.2803324,118.8486325,https://maps.google.com/?cid=0x0:0xbc153d6777831b5e,
supermarket,Kios,UPKDB MART,"JRMX+M29, Jl. Poros Majene - Mamuju, Puttada, Kec. Sendana, Kabupaten Majene, Sulawesi Barat 91452","Jl. Poros Majene - Mamuju, Puttada, Kec. Sendana, Kabupaten Majene",SULAWESI BARAT,91452.0,Indonesia,,,,-3.3658405,118.847601,https://maps.google.com/?cid=0x0:0x7f54155c1a99bd,
supermarket,Pasar,Pasar Lembang Limbua,"JRJX+6J6, Mosso, Kec. Sendana, Kabupaten Majene, Sulawesi Barat 91452","Mosso, Kec. Sendana, Kabupaten Majene",SULAWESI BARAT,91452.0,Indonesia,,,,-3.369469,118.8490214,https://maps.google.com/?cid=0x0:0xc9839b2d31903882,
supermarket,supermarket,Toko Rizka,"JRGX+JG9, Jl. Poros Majene - Mamuju, Mosso, Kec. Sendana, Kabupaten Majene, Sulawesi Barat 91452","Jl. Poros Majene - Mamuju, Mosso, Kec. Sendana, Kabupaten Majene",SULAWESI BARAT,91452.0,Indonesia,,,,-3.3734646,118.8488616,https://maps.google.com/?cid=0x0:0x7f5f05cecdbcaf5a,
supermarket,Kios,Toko ariny,"PVC6+375, Tallu Banua, Kec. Sendana, Kabupaten Majene, Sulawesi Barat 91452","Tallu Banua, Kec. Sendana, Kabupaten Majene",SULAWESI BARAT,91452.0,Indonesia,85341530902.0,,,-3.2798558,118.8607459,https://maps.google.com/?cid=0x0:0xf9a6c00b04dbf225,
supermarket,Toko,SAPO SAPO KURMA DAN HNI HALAL MART,"GVVJ+M23, Dusun Leba Desa Pesuloang, Sirindu, Kec. Pamboang, Kabupaten Majene, Sulawesi Barat 91451","Dusun Leba Desa Pesuloang, Sirindu, Kec. Pamboang, Kabupaten Majene",SULAWESI BARAT,91451.0,Indonesia,,,,-3.4558722,118.8800335,https://maps.google.com/?cid=0x0:0x2db40ab246e977e5,
supermarket,,KIOS ASRUL,"MV22+44Q, Jl. Poros Majene - Mamuju, Puttada, Kec. Sendana, Kabupaten Majene, Sulawesi Barat 91452","Jl. Poros Majene - Mamuju, Puttada, Kec. Sendana, Kabupaten Majene",SULAWESI BARAT,91452.0,Indonesia,,,,-3.3496542,118.8503471,https://maps.google.com/?cid=0x0:0xd9c19190161a4d0d,
supermarket,Toko bahan makanan,Kios Al-Fathi,"MRHV+8WX, Totolisi, Sendana, Kec. Sendana, Kabupaten Majene, Sulawesi Barat 91452","Totolisi, Sendana, Kec. Sendana, Kabupaten Majene",SULAWESI BARAT,91452.0,Indonesia,,,,-3.3216411,118.8448541,https://maps.google.com/?cid=0x0:0xdce96743a9165726,
supermarket,Toko bahan makanan,Toko Adi Jaya,"QR5Q+9CV, tammerodo desk tammerodo, Utara, Tammerodo, Kec. Sendana, Kabupaten Majene, Sulawesi Barat 91452","tammerodo desk tammerodo, Utara, Tammerodo, Kec. Sendana, Kabupaten Majene",SULAWESI BARAT,91452.0,Indonesia,,,,-3.2415184,118.8385511,https://maps.google.com/?cid=0x0:0xf8ec6a740aaa0776,
supermarket,Toko bahan makanan,TOKO Abid,"HVHC+QWW, Jl. Poros Majene - Mamuju, Mosso Dhua, Kec. Sendana, Kabupaten Majene, Sulawesi Barat 91452","Jl. Poros Majene - Mamuju, Mosso Dhua, Kec. Sendana, Kabupaten Majene",SULAWESI BARAT,91452.0,Indonesia,,,,-3.4205071,118.8723208,https://maps.google.com/?cid=0x0:0xf4824109ec6bbc28,
supermarket,supermarket,TOKO RUHANIA,"PV73+VPJ, Tallu Banua, Kec. Sendana, Kabupaten Majene, Sulawesi Barat 91452","Tallu Banua, Kec. Sendana, Kabupaten Majene",SULAWESI BARAT,91452.0,Indonesia,,,,-3.2852906,118.8542795,https://maps.google.com/?cid=0x0:0x16dbd96bd1d628b5,
supermarket,Pasar,Pasar Rakyat Tammerodo Sendana,"QR4R+9XW, Tammerodo, Kabupaten Majene, Sulawesi Barat 91452","Tammerodo, Kabupaten Majene",SULAWESI BARAT,91452.0,Indonesia,,,,-3.2440213,118.842453,https://maps.google.com/?cid=0x0:0xe9df0870d678d5f1,
supermarket,Pasar tradisional,Pasar Tammerodo,"PRVR+HC7, Jl. Poros Majene - Mamuju, Tammerodo, Kabupaten Majene, Sulawesi Barat 91452","Jl. Poros Majene - Mamuju, Tammerodo, Kabupaten Majene",SULAWESI BARAT,91452.0,Indonesia,,,,-3.2560764,118.8410413,https://maps.google.com/?cid=0x0:0x48ae282c2c6c569c,
supermarket,Toko Swalayan,Toko Emmy,"PRRR+396, pelattoang desa, Sendana, Tammerodo, Majene Regency, West Sulawesi 91452","pelattoang desa, Sendana, Tammerodo, Majene Regency",SULAWESI BARAT,91452.0,Indonesia,,,,-3.2595574,118.8411327,https://maps.google.com/?cid=0x0:0x6e95e350ba497404,
supermarket,supermarket,Tubo,"Kec. Tubo Sendana, Kabupaten Majene, Sulawesi Barat","Kabupaten Majene, Sulawesi Barat",SULAWESI BARAT,,Indonesia,,,,-3.0987385,118.8188948,https://maps.google.com/?cid=0x0:0xb76634d6c060e8ad,
supermarket,supermarket,Kec. Tubo Sendana,"Kabupaten Majene, Sulawesi Barat","Kabupaten Majene, Sulawesi Barat",SULAWESI BARAT,,Indonesia,,,,-3.1612706,118.8191982,https://maps.google.com/?cid=0x0:0x4802ca1dd5715163,
supermarket,Minimarket,Toko sarina,"WR9Q+PH3 Tabojo, dusun salupepakka desa salutambung, Sambabo, Kec. Ulumanda, Kabupaten Majene, Sulawesi Barat 91453","dusun salupepakka desa salutambung, Sambabo, Kec. Ulumanda, Kabupaten Majene",SULAWESI BARAT,91453.0,Indonesia,,,,-3.0807794,118.8389193,https://maps.google.com/?cid=0x0:0xc742304859f6ffb3,
supermarket,Toko,Toko Karsa Tani,"WR9Q+CFR, Jl. Poros Majene - Mamuju, Sambabo, Kec. Ulumanda, Kabupaten Majene, Sulawesi Barat 91453","Jl. Poros Majene - Mamuju, Sambabo, Kec. Ulumanda, Kabupaten Majene",SULAWESI BARAT,91453.0,Indonesia,,,,-3.0813984,118.8386526,https://maps.google.com/?cid=0x0:0x457fd644497d0979,
supermarket,Toko,TOKO MIRNA,"VQRH+5RJ, Jl. Poros Majene - Mamuju, Onang Utara, Kec. Tubo Sendana, Kabupaten Majene, Sulawesi Barat 91452","Jl. Poros Majene - Mamuju, Onang Utara, Kec. Tubo Sendana, Kabupaten Majene",SULAWESI BARAT,91452.0,Indonesia,,,,-3.109527,118.7795104,https://maps.google.com/?cid=0x0:0x1dcc6eb13700e483,
supermarket,Toko bahan makanan,Indomaret Sendana Kabupaten Majene,"JRGX+29X, Jl. Poros Majene - Mamuju, Mosso, Kec. Sendana, Kabupaten Majene, Sulawesi Barat 91452","Jl. Poros Majene - Mamuju, Mosso, Kec. Sendana, Kabupaten Majene",SULAWESI BARAT,91452.0,Indonesia,,,,-3.374878,118.8484989,https://maps.google.com/?cid=0x0:0x9fd103bf35a44b81,
supermarket,Toko bahan makanan,Toko Sembako Nunu,"VQ9Q+J59, Jl. Poros Majene - Mamuju, Onang Utara, Kec. Tubo Sendana, Kabupaten Majene, Sulawesi Barat 91452","Jl. Poros Majene - Mamuju, Onang Utara, Kec. Tubo Sendana, Kabupaten Majene",SULAWESI BARAT,91452.0,Indonesia,,,,-3.1309707,118.7879774,https://maps.google.com/?cid=0x0:0x9837feaf9835ae11,
supermarket,Toko umum,Mba Penjual Tempe,"WR5M+XPF, Jl. Poros Majene - Mamuju, Sambabo, Kec. Ulumanda, Kabupaten Majene, Sulawesi Barat 91452","Jl. Poros Majene - Mamuju, Sambabo, Kec. Ulumanda, Kabupaten Majene",SULAWESI BARAT,91452.0,Indonesia,,,,-3.0899542,118.8342512,https://maps.google.com/?cid=0x0:0x91424d92ceede601,
supermarket,Toko umum,Wandi Shop,"Jl. Poros Majene - Mamuju, dusun Sulai, desa, sulai, Kecamatan, Kabupaten Majene, Sulawesi Barat 91453","dusun Sulai, desa, sulai, Kecamatan, Kabupaten Majene",SULAWESI BARAT,91453.0,Indonesia,81241281145.0,,,-3.0688375,118.8482743,https://maps.google.com/?cid=0x0:0x51ea9bd5261d003,
supermarket,supermarket,Sulawesi Barat 91452,"Kabupaten Majene, Sulawesi Barat","Kabupaten Majene, Sulawesi Barat",SULAWESI BARAT,,Indonesia,,,,-3.2611346,118.8829816,https://maps.google.com/?cid=0x0:0x35b04303fe1b8718,
supermarket,supermarket,UD Akbar,"RRV8+CQ3, Jl. Poros Majene - Mamuju, Onang, Kec. Tubo Sendana, Kabupaten Majene, Sulawesi Barat 91452","Jl. Poros Majene - Mamuju, Onang, Kec. Tubo Sendana, Kabupaten Majene",SULAWESI BARAT,91452.0,Indonesia,,,,-3.156479,118.8169321,https://maps.google.com/?cid=0x0:0x8633757a515357e1,
supermarket,supermarket,Sulawesi Barat 91453,"Kabupaten Majene, Sulawesi Barat","Kabupaten Majene, Sulawesi Barat",SULAWESI BARAT,,Indonesia,,,,-3.0270061,118.9994357,https://maps.google.com/?cid=0x0:0xbece4f3ae0e9d313,
supermarket,supermarket,Super Market,"Rua Panama, 168 - Penha, Rio de Janeiro - RJ, 21020-310, Brasil",168 - Penha,SULAWESI BARAT,21020.0,Indonesia,552125841572.0,,,-22.836265,-43.2730769,https://maps.google.com/?cid=0x0:0x4a8d046ccd70de02,
