Category,Real Category,Business Name,Address,City,State,Postal Code,Country,Phone,Email,Website,Latitude,Longitude,Map Link,Details Link
komplek housing,komplek housing,Banggae,"Kec. Banggae, Kabupaten Majene, Sulawesi Barat","Kabupaten Majene, Sulawesi Barat",SULAWESI BARAT,,Indonesia,,,,-3.5282697,118.9674195,https://maps.google.com/?cid=0x0:0xff8e6fe09c57690d,
komplek housing,Perhimpunan Pengembang Perumahan,Home Dila,"FX7H+2GG, Baurung, Kec. Banggae Tim., Kabupaten Majene, Sulawesi Barat","Kabupaten Majene, Sulawesi Barat",SULAWESI BARAT,,Indonesia,,,,-3.5374376,118.9788138,https://maps.google.com/?cid=0x0:0xa970fabfb6f759a1,
komplek housing,Komplek perumahan,Makwek Home 1,"FX4C+QVF, jl.supriyadi, Labuang, Kec. Banggae Tim., Kabupaten Majene, Sulawesi Barat","Kabupaten Majene, Sulawesi Barat",SULAWESI BARAT,,Indonesia,,,,-3.5430567,118.9721705,https://maps.google.com/?cid=0x0:0x2dc4c164d19b4784,
komplek housing,Komplek perumahan,Cluster Ummi Rosna,"FX79+X96, Banggae, Kec. Banggae, Kabupaten Majene, Sulawesi Barat 91412","Banggae, Kec. Banggae, Kabupaten Majene",SULAWESI BARAT,91412.0,Indonesia,,,,-3.5349806,118.9683737,https://maps.google.com/?cid=0x0:0x87a2439f18a414bf,
komplek housing,Perhimpunan Pengembang Perumahan,H. Muhsyam House,"Jl. Kapt Muh Amir No.9, Labuang, Kec. Banggae Tim., Kabupaten Majene, Sulawesi Barat 91412","Labuang, Kec. Banggae Tim., Kabupaten Majene",SULAWESI BARAT,91412.0,Indonesia,,,,-3.5467154,118.9736177,https://maps.google.com/?cid=0x0:0xd39f72bdd570ec42,
komplek housing,Masjid,Muhajirin,"FXPH+HQC, Tande, Kec. Banggae Tim., Kabupaten Majene, Sulawesi Barat 91413","Tande, Kec. Banggae Tim., Kabupaten Majene",SULAWESI BARAT,91413.0,Indonesia,85282972597.0,,,-3.5135562,118.9793982,https://maps.google.com/?cid=0x0:0x4adf57861a01cf99,
komplek housing,Komplek perumahan,Subki house,"Jl. M. Saleh Banjar No.25, RW.Lingk. Layonga, Labuang, Kec. Banggae Tim., Kabupaten Majene, Sulawesi Barat 91412","RW.Lingk. Layonga, Labuang, Kec. Banggae Tim., Kabupaten Majene",SULAWESI BARAT,91412.0,Indonesia,,,,-3.53563,118.9703634,https://maps.google.com/?cid=0x0:0x956acc4a37d8040b,
komplek housing,Pembangunan Perumahan,Feelaâ€™s Home,"FXJ6+7WV, Simullu, Baruga, Kec. Banggae Tim., Kabupaten Majene, Sulawesi Barat 91411","Simullu, Baruga, Kec. Banggae Tim., Kabupaten Majene",SULAWESI BARAT,91411.0,Indonesia,,,,-3.5193593,118.9620916,https://maps.google.com/?cid=0x0:0xe2260392be445014,
komplek housing,Komplek perumahan,Aininnawa Home,"FX4H+JMH, Labuang, Kec. Banggae Tim., Kabupaten Majene, Sulawesi Barat 91412","Labuang, Kec. Banggae Tim., Kabupaten Majene",SULAWESI BARAT,91412.0,Indonesia,,,,-3.5434384,118.9792361,https://maps.google.com/?cid=0x0:0xd092a64df0a477fc,
komplek housing,Kantor Pemerintahan Daerah,Rumah Dinas Iship Majene,"FX33+PHV, Jl. RA Kartini, Baru, Kec. Banggae, Kabupaten Majene, Sulawesi Barat","Kabupaten Majene, Sulawesi Barat",SULAWESI BARAT,,Indonesia,,,,-3.5456365,118.9539152,https://maps.google.com/?cid=0x0:0x881868f56a9c6102,
komplek housing,komplek housing,Rumah Mude (Andi Mutmainnah Dewi),"FX5J+F4F, Baurung, Kec. Banggae Tim., Kabupaten Majene, Sulawesi Barat 91412","Baurung, Kec. Banggae Tim., Kabupaten Majene",SULAWESI BARAT,91412.0,Indonesia,,,,-3.5413201,118.9801137,https://maps.google.com/?cid=0x0:0x626990b515b7608e,
komplek housing,Komplek perumahan,Okvi Home,"Jl. Ahmad Kirang No.C10, Labuang, Kec. Banggae Tim., Kabupaten Majene, Sulawesi Barat 91412","Labuang, Kec. Banggae Tim., Kabupaten Majene",SULAWESI BARAT,91412.0,Indonesia,,,,-3.5435321,118.9744445,https://maps.google.com/?cid=0x0:0x77077d3c58c1a2da,
komplek housing,Penginapan,Awaliah kost,"FX59+P9J, Jl. Waris, Banggae, Kec. Banggae, Kabupaten Majene, Sulawesi Barat 91412","Jl. Waris, Banggae, Kec. Banggae, Kabupaten Majene",SULAWESI BARAT,91412.0,Indonesia,,,,-3.5406607,118.9684025,https://maps.google.com/?cid=0x0:0xbfda1009130af58f,
komplek housing,Komplek perumahan,RuUMAH SELVI,"Jl. Mayjend. Azis Bustan No.68, Banggae, Kec. Banggae, Kabupaten Majene, Sulawesi Barat 91412","Banggae, Kec. Banggae, Kabupaten Majene",SULAWESI BARAT,91412.0,Indonesia,,,,-3.536125,118.9680989,https://maps.google.com/?cid=0x0:0xfe4ce427708874a0,
komplek housing,Komplek perumahan,Makkayang,"FX77+FP7, Banggae, Kec. Banggae, Kabupaten Majene, Sulawesi Barat","Kabupaten Majene, Sulawesi Barat",SULAWESI BARAT,,Indonesia,,,,-3.5371146,118.964371,https://maps.google.com/?cid=0x0:0xbff2fc09188e26f5,
komplek housing,Pembangunan Perumahan,Nurdin  Munirah FamilyðŸ’š,"FX47+825, Pangali-Ali, Kec. Banggae, Kabupaten Majene, Sulawesi Barat","Kabupaten Majene, Sulawesi Barat",SULAWESI BARAT,,Indonesia,,,,-3.5427955,118.9619837,https://maps.google.com/?cid=0x0:0x99fa5b49996647c2,
komplek housing,Pembangunan Perumahan,Fatih Home,"FX7H+687, Baurung, Kec. Banggae Tim., Kabupaten Majene, Sulawesi Barat","Kabupaten Majene, Sulawesi Barat",SULAWESI BARAT,,Indonesia,,,,-3.5369597,118.9782888,https://maps.google.com/?cid=0x0:0xb4ab21e14ccfc2fd,
komplek housing,Perhimpunan Pengembang Perumahan,HOME SWEET,"FX6P+5JH, Lembang, Kec. Banggae Tim., Kabupaten Majene, Sulawesi Barat 91412","Lembang, Kec. Banggae Tim., Kabupaten Majene",SULAWESI BARAT,91412.0,Indonesia,,,,-3.5396773,118.9863596,https://maps.google.com/?cid=0x0:0x36a478525415027d,
komplek housing,Area Mendaki,Kepala lingkungan Tg. Batu barat,"FX3C+HHX, Jl. KH. Daeng, Labuang, Kec. Banggae Tim., Kabupaten Majene, Sulawesi Barat 91412","Jl. KH. Daeng, Labuang, Kec. Banggae Tim., Kabupaten Majene",SULAWESI BARAT,91412.0,Indonesia,,,,-3.5460151,118.9714721,https://maps.google.com/?cid=0x0:0x27e3dd20f02a8fc8,
komplek housing,Kompleks Apartemen,m.sail,"FX87+HPC, Banggae, Kec. Banggae, Kabupaten Majene, Sulawesi Barat","Kabupaten Majene, Sulawesi Barat",SULAWESI BARAT,,Indonesia,,,,-3.5335729,118.9642508,https://maps.google.com/?cid=0x0:0x9983f1af4669483b,
komplek housing,Komplek perumahan,Fateeh's Home,"Jl. Labora No.4, Baru, Batalaiworu, Kabupaten Majene, Sulawesi Barat 91415","Baru, Batalaiworu, Kabupaten Majene",SULAWESI BARAT,91415.0,Indonesia,,,,-3.5424793,118.9456008,https://maps.google.com/?cid=0x0:0x8fa49032f470e4f3,
komplek housing,komplek housing,Sulawesi Barat 91415,"Kec. Banggae, Kabupaten Majene, Sulawesi Barat","Kabupaten Majene, Sulawesi Barat",SULAWESI BARAT,,Indonesia,,,,-3.5405453,118.9353968,https://maps.google.com/?cid=0x0:0x79fb9d43a72e97bf,
komplek housing,Pembangunan Perumahan,Shoy,"CWMM+7X8, Totoli, Kec. Banggae, Kabupaten Majene, Sulawesi Barat 91415","Totoli, Kec. Banggae, Kabupaten Majene",SULAWESI BARAT,91415.0,Indonesia,,,,-3.567159,118.935268,https://maps.google.com/?cid=0x0:0x3cd46345821b04ab,
komplek housing,Taman Kanak-kanak,Kelompok Nelayan MASANNANG,"CWJR+G8R, Totoli, Kec. Banggae, Kabupaten Majene, Sulawesi Barat 91415","Totoli, Kec. Banggae, Kabupaten Majene",SULAWESI BARAT,91415.0,Indonesia,,,,-3.568679,118.9407806,https://maps.google.com/?cid=0x0:0x9cfca29f47e55281,
komplek housing,Organisasi Pemuda,GPR,"CWRJ+9V7, Jl. Poros Majene - Mamuju, Totoli, Kec. Banggae, Kabupaten Majene, Sulawesi Barat 91415","Jl. Poros Majene - Mamuju, Totoli, Kec. Banggae, Kabupaten Majene",SULAWESI BARAT,91415.0,Indonesia,,,,-3.5590822,118.9321589,https://maps.google.com/?cid=0x0:0x508f5b9b39b483f1,
komplek housing,komplek housing,Perumahan Griya Utama Residence Blok C-8,"FW4R+R2G, Jalan Lagama, Dusun Konja Selatan, Desa Pamboborang, Kec. Banggae, Kabupaten Majene, Sulawesi Barat","Kabupaten Majene, Sulawesi Barat",SULAWESI BARAT,,Indonesia,,,,-3.5429427,118.9400911,https://maps.google.com/?cid=0x0:0xa6bc710ad786bace,
komplek housing,Pembangunan Perumahan,Nur Alamsyah,"FX22+F72, Baru, Kec. Banggae, Kabupaten Majene, Sulawesi Barat","Kabupaten Majene, Sulawesi Barat",SULAWESI BARAT,,Indonesia,,,,-3.5488582,118.9506254,https://maps.google.com/?cid=0x0:0xd5bebe58c69cbda8,
komplek housing,Pemakaman,Perumahan Rahmatullah Rangas Tammalassu,"Jl. Poros Majene - Mamuju No.62, Totoli, Kec. Banggae, Kabupaten Majene, Sulawesi Barat 91415","Totoli, Kec. Banggae, Kabupaten Majene",SULAWESI BARAT,91415.0,Indonesia,85244546787.0,,,-3.5618059,118.9390588,https://maps.google.com/?cid=0x0:0x9298e56d2b6e034e,
komplek housing,Motel,Pondok Nazafa Khusus Putri,"CWXV+4Q7, Totoli, Kec. Banggae, Kabupaten Majene, Sulawesi Barat 91415","Totoli, Kec. Banggae, Kabupaten Majene",SULAWESI BARAT,91415.0,Indonesia,82347110011.0,,,-3.5522683,118.9437564,https://maps.google.com/?cid=0x0:0x70a0afc4ce8635f9,
komplek housing,Komplek perumahan,Mammis Residence,"Jl. Poros Majene - Mamuju No.62, Totoli, Kec. Banggae, Kabupaten Majene, Sulawesi Barat 91415","Totoli, Kec. Banggae, Kabupaten Majene",SULAWESI BARAT,91415.0,Indonesia,,,,-3.5607835,118.9395712,https://maps.google.com/?cid=0x0:0xbfc56e752c9445de,
komplek housing,Area Mendaki,Balanipa Hills,"FW4Q+XVX, Totoli, Kec. Banggae, Kabupaten Majene, Sulawesi Barat 91415","Totoli, Kec. Banggae, Kabupaten Majene",SULAWESI BARAT,91415.0,Indonesia,82120007772.0,,,-3.5419917,118.9397579,https://maps.google.com/?cid=0x0:0x254c936929a6a580,
komplek housing,Komplek perumahan,Blok F9,"FW4R+P5J Desa Pamboborang, Totoli, Kec. Banggae, Kabupaten Majene, Sulawesi Barat 91415","Totoli, Kec. Banggae, Kabupaten Majene",SULAWESI BARAT,91415.0,Indonesia,,,,-3.5431653,118.9404048,https://maps.google.com/?cid=0x0:0xf9f067f9c1667d44,
komplek housing,Komplek perumahan,Erwink kaktus,"FW2X+CVP, Baru, Kec. Banggae, Kabupaten Majene, Sulawesi Barat","Kabupaten Majene, Sulawesi Barat",SULAWESI BARAT,,Indonesia,,,,-3.5489051,118.9496981,https://maps.google.com/?cid=0x0:0x53f479432cfe550e,
komplek housing,Komplek perumahan,Sulawesi barat,"CWJR+PP7, Totoli, Kec. Banggae, Kabupaten Majene, Sulawesi Barat","Kabupaten Majene, Sulawesi Barat",SULAWESI BARAT,,Indonesia,,,,-3.5682009,118.9418099,https://maps.google.com/?cid=0x0:0x15d8e833f5f32aa9,
komplek housing,Komplek perumahan,Perumahan Mammis,"CWJP+W3H, Rangas Bar., Totoli, Kec. Banggae, Kabupaten Majene, Sulawesi Barat 91415","Rangas Bar., Totoli, Kec. Banggae, Kabupaten Majene",SULAWESI BARAT,91415.0,Indonesia,,,,-3.5676897,118.9352359,https://maps.google.com/?cid=0x0:0xc50b03b420fa1ad6,
komplek housing,Kantor Perusahaan,Boyang marasa,"FW3G+RF5, Totoli, Kec. Banggae, Kabupaten Majene, Sulawesi Barat 91415","Totoli, Kec. Banggae, Kabupaten Majene",SULAWESI BARAT,91415.0,Indonesia,,,,-3.5455965,118.926266,https://maps.google.com/?cid=0x0:0x2e7f8365bf25bc9a,
komplek housing,Otoritas Perumahan,Griya Utama Residence Totoli,"CWXR+R7M, Totoli, Kec. Banggae, Kabupaten Majene, Sulawesi Barat 91415","Totoli, Kec. Banggae, Kabupaten Majene",SULAWESI BARAT,91415.0,Indonesia,,,,-3.55136,118.941795,https://maps.google.com/?cid=0x0:0xf8ac43431750fe1a,
komplek housing,Komplek perumahan,Kost tiga putra,"CWWV+79V, Totoli, Kec. Banggae, Kabupaten Majene, Sulawesi Barat","Kabupaten Majene, Sulawesi Barat",SULAWESI BARAT,,Indonesia,,,,-3.5542503,118.9434154,https://maps.google.com/?cid=0x0:0x8b20ee5dc81533c0,
komplek housing,Pembangunan Perumahan,Penukaran Tabung Oksigen,"FW87+R49, Jl. Poros Majene - Mamuju, Bonde, Kec. Pamboang, Kabupaten Majene, Sulawesi Barat 91451","Jl. Poros Majene - Mamuju, Bonde, Kec. Pamboang, Kabupaten Majene",SULAWESI BARAT,91451.0,Indonesia,,,,-3.5328972,118.9126387,https://maps.google.com/?cid=0x0:0x74208d45b99702a8,
komplek housing,Komplek perumahan,Kost ibu ros,"CWMQ+238, Jl. Rangas, Totoli, Kec. Banggae, Kabupaten Majene, Sulawesi Barat","Kabupaten Majene, Sulawesi Barat",SULAWESI BARAT,,Indonesia,,,,-3.5673338,118.9376484,https://maps.google.com/?cid=0x0:0x124c35bede393643,
komplek housing,Rumah Pondokan,Kost manda,"CWMQ+238, Jl. Rangas, Totoli, Kec. Banggae, Kabupaten Majene, Sulawesi Barat","Kabupaten Majene, Sulawesi Barat",SULAWESI BARAT,,Indonesia,,,,-3.5672499,118.9376515,https://maps.google.com/?cid=0x0:0x39458a2096272264,
komplek housing,komplek housing,Kec. Banggae,"Kabupaten Majene, Sulawesi Barat","Kabupaten Majene, Sulawesi Barat",SULAWESI BARAT,,Indonesia,,,,-3.5432528,118.9676177,https://maps.google.com/?cid=0x0:0xbf167e1158f703cf,
komplek housing,komplek housing,Banggae,"Kec. Banggae, Kabupaten Majene, Sulawesi Barat","Kabupaten Majene, Sulawesi Barat",SULAWESI BARAT,,Indonesia,,,,-3.5282697,118.9674195,https://maps.google.com/?cid=0x0:0xff8e6fe09c57690d,
komplek housing,komplek housing,Sulawesi Barat 91411,"Kabupaten Majene, Sulawesi Barat","Kabupaten Majene, Sulawesi Barat",SULAWESI BARAT,,Indonesia,,,,-3.477543,118.9470422,https://maps.google.com/?cid=0x0:0x1c73f38c478ef4ab,
komplek housing,komplek housing,Perumahan Griya Utama Residence Blok C-8,"FW4R+R2G, Jalan Lagama, Dusun Konja Selatan, Desa Pamboborang, Kec. Banggae, Kabupaten Majene, Sulawesi Barat","Kabupaten Majene, Sulawesi Barat",SULAWESI BARAT,,Indonesia,,,,-3.5429427,118.9400911,https://maps.google.com/?cid=0x0:0xa6bc710ad786bace,
komplek housing,Masjid,Muhajirin,"FXPH+HQC, Tande, Kec. Banggae Tim., Kabupaten Majene, Sulawesi Barat 91413","Tande, Kec. Banggae Tim., Kabupaten Majene",SULAWESI BARAT,91413.0,Indonesia,85282972597.0,,,-3.5135562,118.9793982,https://maps.google.com/?cid=0x0:0x4adf57861a01cf99,
komplek housing,Perhimpunan Pengembang Perumahan,Home Dila,"FX7H+2GG, Baurung, Kec. Banggae Tim., Kabupaten Majene, Sulawesi Barat","Kabupaten Majene, Sulawesi Barat",SULAWESI BARAT,,Indonesia,,,,-3.5374376,118.9788138,https://maps.google.com/?cid=0x0:0xa970fabfb6f759a1,
komplek housing,Pembangunan Perumahan,Feelaâ€™s Home,"FXJ6+7WV, Simullu, Baruga, Kec. Banggae Tim., Kabupaten Majene, Sulawesi Barat 91411","Simullu, Baruga, Kec. Banggae Tim., Kabupaten Majene",SULAWESI BARAT,91411.0,Indonesia,,,,-3.5193593,118.9620916,https://maps.google.com/?cid=0x0:0xe2260392be445014,
komplek housing,Kantor Pemerintahan Daerah,Rumah Dinas Iship Majene,"FX33+PHV, Jl. RA Kartini, Baru, Kec. Banggae, Kabupaten Majene, Sulawesi Barat","Kabupaten Majene, Sulawesi Barat",SULAWESI BARAT,,Indonesia,,,,-3.5456365,118.9539152,https://maps.google.com/?cid=0x0:0x881868f56a9c6102,
komplek housing,komplek housing,Zahwa Home,"CXVP+PF5, Jl. Lettu Moh. Yamin, Baurung, Kec. Banggae Tim., Kabupaten Majene, Sulawesi Barat 91411","Jl. Lettu Moh. Yamin, Baurung, Kec. Banggae Tim., Kabupaten Majene",SULAWESI BARAT,91411.0,Indonesia,,,,-3.5556578,118.986428,https://maps.google.com/?cid=0x0:0x9ef14aff725e0c4d,
komplek housing,Komplek perumahan,Muhammad Akil,"FX67+7F4, Pangali-Ali, Kec. Banggae, Kabupaten Majene, Sulawesi Barat 91412","Pangali-Ali, Kec. Banggae, Kabupaten Majene",SULAWESI BARAT,91412.0,Indonesia,,,,-3.5395472,118.9629566,https://maps.google.com/?cid=0x0:0x8e2b6bfd5bb5c895,
komplek housing,Komplek perumahan,Perumahan Anak KKB,"CXXR+973, Baurung, Kec. Banggae Tim., Kabupaten Majene, Sulawesi Barat 91412","Baurung, Kec. Banggae Tim., Kabupaten Majene",SULAWESI BARAT,91412.0,Indonesia,82334455667.0,,,-3.5516141,118.990685,https://maps.google.com/?cid=0x0:0x4434618b57674b69,
komplek housing,Komplek perumahan,Makwek Home 1,"FX4C+QVF, jl.supriyadi, Labuang, Kec. Banggae Tim., Kabupaten Majene, Sulawesi Barat","Kabupaten Majene, Sulawesi Barat",SULAWESI BARAT,,Indonesia,,,,-3.5430567,118.9721705,https://maps.google.com/?cid=0x0:0x2dc4c164d19b4784,
komplek housing,Komplek perumahan,Aininnawa Home,"FX4H+JMH, Labuang, Kec. Banggae Tim., Kabupaten Majene, Sulawesi Barat 91412","Labuang, Kec. Banggae Tim., Kabupaten Majene",SULAWESI BARAT,91412.0,Indonesia,,,,-3.5434384,118.9792361,https://maps.google.com/?cid=0x0:0xd092a64df0a477fc,
komplek housing,Komplek perumahan,Kompleks Perumahan Lutang,"FX9W+27M, Jl. Jenderal Sudirman, Tande, Kec. Wonomulyo, Kabupaten Majene, Sulawesi Barat 91412","Jl. Jenderal Sudirman, Tande, Kec. Wonomulyo, Kabupaten Majene",SULAWESI BARAT,91412.0,Indonesia,,,,-3.5324023,118.9956764,https://maps.google.com/?cid=0x0:0x9483811bd2835672,
komplek housing,Komplek perumahan,Cluster Ummi Rosna,"FX79+X96, Banggae, Kec. Banggae, Kabupaten Majene, Sulawesi Barat 91412","Banggae, Kec. Banggae, Kabupaten Majene",SULAWESI BARAT,91412.0,Indonesia,,,,-3.5349806,118.9683737,https://maps.google.com/?cid=0x0:0x87a2439f18a414bf,
komplek housing,Perhimpunan Pengembang Perumahan,Muh fajar,"Jl. Poros Majene - Mamuju No.145, Pangali-Ali, Kec. Banggae, Kabupaten Majene, Sulawesi Barat","Kabupaten Majene, Sulawesi Barat",SULAWESI BARAT,,Indonesia,,,,-3.5483621,118.9609306,https://maps.google.com/?cid=0x0:0xe636af2d0669c20f,
komplek housing,Perhimpunan Pengembang Perumahan,H. Muhsyam House,"Jl. Kapt Muh Amir No.9, Labuang, Kec. Banggae Tim., Kabupaten Majene, Sulawesi Barat 91412","Labuang, Kec. Banggae Tim., Kabupaten Majene",SULAWESI BARAT,91412.0,Indonesia,,,,-3.5467154,118.9736177,https://maps.google.com/?cid=0x0:0xd39f72bdd570ec42,
komplek housing,Pembangunan Perumahan,Sunan Home,"Jl. KH Sirajuddin Salam No.13, Labuang, Kec. Banggae Tim., Kabupaten Majene, Sulawesi Barat 91412","Labuang, Kec. Banggae Tim., Kabupaten Majene",SULAWESI BARAT,91412.0,Indonesia,,,,-3.5453026,118.9710579,https://maps.google.com/?cid=0x0:0x7b3650a7fdd45c4b,
komplek housing,Komplek perumahan,Makkayang,"FX77+FP7, Banggae, Kec. Banggae, Kabupaten Majene, Sulawesi Barat","Kabupaten Majene, Sulawesi Barat",SULAWESI BARAT,,Indonesia,,,,-3.5371146,118.964371,https://maps.google.com/?cid=0x0:0xbff2fc09188e26f5,
komplek housing,Kompleks Apartemen,m.sail,"FX87+HPC, Banggae, Kec. Banggae, Kabupaten Majene, Sulawesi Barat","Kabupaten Majene, Sulawesi Barat",SULAWESI BARAT,,Indonesia,,,,-3.5335729,118.9642508,https://maps.google.com/?cid=0x0:0x9983f1af4669483b,
komplek housing,Perhimpunan Pengembang Perumahan,Majene,"GW5X+8F6, Baruga Dua, Kec. Banggae Tim., Kabupaten Majene, Sulawesi Barat","Kabupaten Majene, Sulawesi Barat",SULAWESI BARAT,,Indonesia,,,,-3.491711,118.9486501,https://maps.google.com/?cid=0x0:0x698fe91693e83970,
komplek housing,Pembangunan Perumahan,Nur Alamsyah,"FX22+F72, Baru, Kec. Banggae, Kabupaten Majene, Sulawesi Barat","Kabupaten Majene, Sulawesi Barat",SULAWESI BARAT,,Indonesia,,,,-3.5488582,118.9506254,https://maps.google.com/?cid=0x0:0xd5bebe58c69cbda8,
komplek housing,komplek housing,Kec. Banggae Tim.,"Kabupaten Majene, Sulawesi Barat","Kabupaten Majene, Sulawesi Barat",SULAWESI BARAT,,Indonesia,,,,-3.5443284,118.9724991,https://maps.google.com/?cid=0x0:0x8a3d219855bd6a6e,
komplek housing,komplek housing,Sulawesi Barat 91412,"Kabupaten Majene, Sulawesi Barat","Kabupaten Majene, Sulawesi Barat",SULAWESI BARAT,,Indonesia,,,,-3.5389571,118.9819731,https://maps.google.com/?cid=0x0:0x5b7ee02006e2dbbd,
komplek housing,Komplek perumahan,Perumahan Banggae Residence,"CXWQ+8F, Baurung, Kec. Banggae Tim., Kabupaten Majene, Sulawesi Barat","Kabupaten Majene, Sulawesi Barat",SULAWESI BARAT,,Indonesia,,,,-3.5532989,118.9891558,https://maps.google.com/?cid=0x0:0x44c2ee2dfc13cc27,
komplek housing,Komplek perumahan,PERUMAHAN AL-IKHLAS RESIDENCE MAJENE 2,"Lingkungan Leppe Kelurahan Lembang, Baurung, Kec. Banggae Tim., Kabupaten Majene, Sulawesi Barat 91412","Baurung, Kec. Banggae Tim., Kabupaten Majene",SULAWESI BARAT,91412.0,Indonesia,,,,-3.5518998,118.9862861,https://maps.google.com/?cid=0x0:0x72f3b7d9033e606a,
komplek housing,Perhimpunan Pengembang Perumahan,H. Muhsyam House,"Jl. Kapt Muh Amir No.9, Labuang, Kec. Banggae Tim., Kabupaten Majene, Sulawesi Barat 91412","Labuang, Kec. Banggae Tim., Kabupaten Majene",SULAWESI BARAT,91412.0,Indonesia,,,,-3.5467154,118.9736177,https://maps.google.com/?cid=0x0:0xd39f72bdd570ec42,
komplek housing,Perhimpunan Pengembang Perumahan,Home Dila,"FX7H+2GG, Baurung, Kec. Banggae Tim., Kabupaten Majene, Sulawesi Barat","Kabupaten Majene, Sulawesi Barat",SULAWESI BARAT,,Indonesia,,,,-3.5374376,118.9788138,https://maps.google.com/?cid=0x0:0xa970fabfb6f759a1,
komplek housing,Komplek perumahan,Kompleks BTN leppe,"CXXJ+H94, Baurung, Kec. Banggae Tim., Kabupaten Majene, Sulawesi Barat 91412","Baurung, Kec. Banggae Tim., Kabupaten Majene",SULAWESI BARAT,91412.0,Indonesia,85796455704.0,,,-3.5511093,118.9809409,https://maps.google.com/?cid=0x0:0xd06fe7a93c0830ca,
komplek housing,Perumahan,Home Windy pangale,"CXVQ+6CH, Jl. Pangale, Baurung, Kec. Banggae Tim., Kabupaten Majene, Sulawesi Barat 91412","Jl. Pangale, Baurung, Kec. Banggae Tim., Kabupaten Majene",SULAWESI BARAT,91412.0,Indonesia,,,,-3.556925,118.9886211,https://maps.google.com/?cid=0x0:0xf79f91d0db26ce4,
komplek housing,,PERUMAHAN GRIYA CAHAYA MASANNANG 2 MAJENE,"FX8H+GHV, Lingk. Tunda Utara, Labuang, Kec. Banggae Tim., Kabupaten Majene, Sulawesi Barat 91412","Lingk. Tunda Utara, Labuang, Kec. Banggae Tim., Kabupaten Majene",SULAWESI BARAT,91412.0,Indonesia,81273558025.0,,,-3.5336481,118.9789345,https://maps.google.com/?cid=0x0:0xc5b27603b1550e38,
komplek housing,Komplek perumahan,Kompleks Perumahan Lutang,"FX9W+27M, Jl. Jenderal Sudirman, Tande, Kec. Wonomulyo, Kabupaten Majene, Sulawesi Barat 91412","Jl. Jenderal Sudirman, Tande, Kec. Wonomulyo, Kabupaten Majene",SULAWESI BARAT,91412.0,Indonesia,,,,-3.5324023,118.9956764,https://maps.google.com/?cid=0x0:0x9483811bd2835672,
komplek housing,Pembangunan Perumahan,IRHA SATRYA HOME,"FX6P+5JH, Lembang, Kec. Banggae Tim., Kabupaten Majene, Sulawesi Barat 91412","Lembang, Kec. Banggae Tim., Kabupaten Majene",SULAWESI BARAT,91412.0,Indonesia,,,,-3.5396479,118.9864679,https://maps.google.com/?cid=0x0:0xce80dfa3177d0f63,
komplek housing,Komplek perumahan,Perumahan Anak KKB,"CXXR+973, Baurung, Kec. Banggae Tim., Kabupaten Majene, Sulawesi Barat 91412","Baurung, Kec. Banggae Tim., Kabupaten Majene",SULAWESI BARAT,91412.0,Indonesia,82334455667.0,,,-3.5516141,118.990685,https://maps.google.com/?cid=0x0:0x4434618b57674b69,
komplek housing,Komplek perumahan,Aininnawa Home,"FX4H+JMH, Labuang, Kec. Banggae Tim., Kabupaten Majene, Sulawesi Barat 91412","Labuang, Kec. Banggae Tim., Kabupaten Majene",SULAWESI BARAT,91412.0,Indonesia,,,,-3.5434384,118.9792361,https://maps.google.com/?cid=0x0:0xd092a64df0a477fc,
komplek housing,Komplek perumahan,Subki house,"Jl. M. Saleh Banjar No.25, RW.Lingk. Layonga, Labuang, Kec. Banggae Tim., Kabupaten Majene, Sulawesi Barat 91412","RW.Lingk. Layonga, Labuang, Kec. Banggae Tim., Kabupaten Majene",SULAWESI BARAT,91412.0,Indonesia,,,,-3.53563,118.9703634,https://maps.google.com/?cid=0x0:0x956acc4a37d8040b,
komplek housing,Perhimpunan Pengembang Perumahan,HOME SWEET,"FX6P+5JH, Lembang, Kec. Banggae Tim., Kabupaten Majene, Sulawesi Barat 91412","Lembang, Kec. Banggae Tim., Kabupaten Majene",SULAWESI BARAT,91412.0,Indonesia,,,,-3.5396773,118.9863596,https://maps.google.com/?cid=0x0:0x36a478525415027d,
komplek housing,Penginapan,Perumahan BTN Lembang Permai,"Pantai Munu, Baurung, Kec. Banggae Tim., Kabupaten Majene, Sulawesi Barat 91412","Baurung, Kec. Banggae Tim., Kabupaten Majene",SULAWESI BARAT,91412.0,Indonesia,,,,-3.551486,118.9875311,https://maps.google.com/?cid=0x0:0x411485cd7e7c7b3e,
komplek housing,Kantor Perusahaan,aqkh's house,"FX6M+FW4, Baurung, Kec. Banggae Tim., Kabupaten Majene, Sulawesi Barat 91412","Baurung, Kec. Banggae Tim., Kabupaten Majene",SULAWESI BARAT,91412.0,Indonesia,,,,-3.5388591,118.9848317,https://maps.google.com/?cid=0x0:0x6ffd566c364c9bf5,
komplek housing,Masjid,Muhajirin,"FXPH+HQC, Tande, Kec. Banggae Tim., Kabupaten Majene, Sulawesi Barat 91413","Tande, Kec. Banggae Tim., Kabupaten Majene",SULAWESI BARAT,91413.0,Indonesia,85282972597.0,,,-3.5135562,118.9793982,https://maps.google.com/?cid=0x0:0x4adf57861a01cf99,
komplek housing,Pembangunan Perumahan,Sunan Home,"Jl. KH Sirajuddin Salam No.13, Labuang, Kec. Banggae Tim., Kabupaten Majene, Sulawesi Barat 91412","Labuang, Kec. Banggae Tim., Kabupaten Majene",SULAWESI BARAT,91412.0,Indonesia,,,,-3.5453026,118.9710579,https://maps.google.com/?cid=0x0:0x7b3650a7fdd45c4b,
komplek housing,komplek housing,Zahwa Home,"CXVP+PF5, Jl. Lettu Moh. Yamin, Baurung, Kec. Banggae Tim., Kabupaten Majene, Sulawesi Barat 91411","Jl. Lettu Moh. Yamin, Baurung, Kec. Banggae Tim., Kabupaten Majene",SULAWESI BARAT,91411.0,Indonesia,,,,-3.5556578,118.986428,https://maps.google.com/?cid=0x0:0x9ef14aff725e0c4d,
komplek housing,komplek housing,Kec. Banggae Tim.,"Kabupaten Majene, Sulawesi Barat","Kabupaten Majene, Sulawesi Barat",SULAWESI BARAT,,Indonesia,,,,-3.5443284,118.9724991,https://maps.google.com/?cid=0x0:0x8a3d219855bd6a6e,
komplek housing,Perhimpunan Pengembang Perumahan,SYAM BASTA HOME,"Jl. Hertasning, Lembang, Kec. Banggae Tim., Kabupaten Majene, Sulawesi Barat 91412","Lembang, Kec. Banggae Tim., Kabupaten Majene",SULAWESI BARAT,91412.0,Indonesia,,,,-3.542493,118.9808865,https://maps.google.com/?cid=0x0:0x86feab255f90e0b4,
komplek housing,Otoritas Perumahan,Krida Insani Residence blok f10,"Jalan Ki Hajar Dewantara No. 18, Lembang, Baurung, Banggae Timur, Majene Regency, West Sulawesi 91412","Lembang, Baurung, Banggae Timur, Majene Regency",SULAWESI BARAT,91412.0,Indonesia,,,,-3.5419482,118.9834784,https://maps.google.com/?cid=0x0:0xc10cae501db7f61d,
komplek housing,Komplek perumahan,Cluster Ummi Rosna,"FX79+X96, Banggae, Kec. Banggae, Kabupaten Majene, Sulawesi Barat 91412","Banggae, Kec. Banggae, Kabupaten Majene",SULAWESI BARAT,91412.0,Indonesia,,,,-3.5349806,118.9683737,https://maps.google.com/?cid=0x0:0x87a2439f18a414bf,
komplek housing,komplek housing,Adzalina M15,"Jln. Letj. Hertasning, Lembang, Kec. Banggae Tim., Kabupaten Majene, Sulawesi Barat 91412","Lembang, Kec. Banggae Tim., Kabupaten Majene",SULAWESI BARAT,91412.0,Indonesia,,,,-3.5390855,118.9852716,https://maps.google.com/?cid=0x0:0x922a5aef468859ed,
komplek housing,Komplek perumahan,Rumah Kost Khusus Perempuan,"FX3F+5M3, Labuang, Kec. Banggae Tim., Kabupaten Majene, Sulawesi Barat 91412","Labuang, Kec. Banggae Tim., Kabupaten Majene",SULAWESI BARAT,91412.0,Indonesia,,,,-3.5471254,118.974135,https://maps.google.com/?cid=0x0:0x2291681a77625fd0,
komplek housing,Komplek perumahan,AYUB RESIDENCE,"CXWP+VH4, Baurung, Kec. Banggae Tim., Kabupaten Majene, Sulawesi Barat 91412","Baurung, Kec. Banggae Tim., Kabupaten Majene",SULAWESI BARAT,91412.0,Indonesia,81244443370.0,,,-3.5535121,118.9845772,https://maps.google.com/?cid=0x0:0x700d1e7efcf7a993,
komplek housing,komplek housing,Sulawesi Barat 91413,"Kabupaten Polewali Mandar, Sulawesi Barat","Kabupaten Polewali Mandar, Sulawesi Barat",SULAWESI BARAT,,Indonesia,,,,-3.4627787,118.9877942,https://maps.google.com/?cid=0x0:0x36c6611542b63c82,
komplek housing,Komplek perumahan,Kompleks Perumahan Lutang,"FX9W+27M, Jl. Jenderal Sudirman, Tande, Kec. Wonomulyo, Kabupaten Majene, Sulawesi Barat 91412","Jl. Jenderal Sudirman, Tande, Kec. Wonomulyo, Kabupaten Majene",SULAWESI BARAT,91412.0,Indonesia,,,,-3.5324023,118.9956764,https://maps.google.com/?cid=0x0:0x9483811bd2835672,
komplek housing,Perhimpunan Pengembang Perumahan,Home Dila,"FX7H+2GG, Baurung, Kec. Banggae Tim., Kabupaten Majene, Sulawesi Barat","Kabupaten Majene, Sulawesi Barat",SULAWESI BARAT,,Indonesia,,,,-3.5374376,118.9788138,https://maps.google.com/?cid=0x0:0xa970fabfb6f759a1,
komplek housing,Komplek perumahan,Perumahan Anak KKB,"CXXR+973, Baurung, Kec. Banggae Tim., Kabupaten Majene, Sulawesi Barat 91412","Baurung, Kec. Banggae Tim., Kabupaten Majene",SULAWESI BARAT,91412.0,Indonesia,82334455667.0,,,-3.5516141,118.990685,https://maps.google.com/?cid=0x0:0x4434618b57674b69,
komplek housing,Komplek perumahan,PERUMAHAN AL-IKHLAS RESIDENCE MAJENE 2,"Lingkungan Leppe Kelurahan Lembang, Baurung, Kec. Banggae Tim., Kabupaten Majene, Sulawesi Barat 91412","Baurung, Kec. Banggae Tim., Kabupaten Majene",SULAWESI BARAT,91412.0,Indonesia,,,,-3.5518998,118.9862861,https://maps.google.com/?cid=0x0:0x72f3b7d9033e606a,
komplek housing,komplek housing,Perumahan yoshie dyfa land blok E9,"FX9X+MPR, Jl. Poros Majene - Mamuju, Tande, Kec. Banggae Tim., Kabupaten Majene, Sulawesi Barat 91412","Jl. Poros Majene - Mamuju, Tande, Kec. Banggae Tim., Kabupaten Majene",SULAWESI BARAT,91412.0,Indonesia,,,,-3.530616,118.999968,https://maps.google.com/?cid=0x0:0x29ca35e9ca4ea0ce,
komplek housing,komplek housing,Perumahan Griya Cahaya MASANNANG 4 Majene,"FXFV+W24, Tande, Kec. Banggae Tim., Kabupaten Majene, Sulawesi Barat","Kabupaten Majene, Sulawesi Barat",SULAWESI BARAT,,Indonesia,81273558025.0,,,-3.5252332,118.9925923,https://maps.google.com/?cid=0x0:0xb0578d1c9cabff62,
komplek housing,,PERUMAHAN GRIYA CAHAYA MASANNANG 2 MAJENE,"FX8H+GHV, Lingk. Tunda Utara, Labuang, Kec. Banggae Tim., Kabupaten Majene, Sulawesi Barat 91412","Lingk. Tunda Utara, Labuang, Kec. Banggae Tim., Kabupaten Majene",SULAWESI BARAT,91412.0,Indonesia,81273558025.0,,,-3.5336481,118.9789345,https://maps.google.com/?cid=0x0:0xc5b27603b1550e38,
komplek housing,Komplek perumahan,Perumahan Villamas Blok B5,"Perumahan Villamas, Blok B5, Tande, Kec. Banggae Tim., Kabupaten Majene, Sulawesi Barat 91412","Blok B5, Tande, Kec. Banggae Tim., Kabupaten Majene",SULAWESI BARAT,91412.0,Indonesia,,,,-3.5331868,118.9944112,https://maps.google.com/?cid=0x0:0x3bd085b6ea0dfbba,
komplek housing,Pembangunan Perumahan,Feelaâ€™s Home,"FXJ6+7WV, Simullu, Baruga, Kec. Banggae Tim., Kabupaten Majene, Sulawesi Barat 91411","Simullu, Baruga, Kec. Banggae Tim., Kabupaten Majene",SULAWESI BARAT,91411.0,Indonesia,,,,-3.5193593,118.9620916,https://maps.google.com/?cid=0x0:0xe2260392be445014,
komplek housing,Komplek perumahan,PERUMAHAN AL-IKHLAS RESIDENCE MAJENE K-5,"FX3R+V74, Baurung, Kec. Banggae Tim., Kabupaten Majene, Sulawesi Barat","Kabupaten Majene, Sulawesi Barat",SULAWESI BARAT,,Indonesia,,,,-3.5453692,118.9907046,https://maps.google.com/?cid=0x0:0x681c3456da12ccc1,
komplek housing,Komplek perumahan,BTN VILLAMAS MAJENE,"Tande, Kec. Banggae Tim., Kabupaten Majene, Sulawesi Barat 91412","Kec. Banggae Tim., Kabupaten Majene",SULAWESI BARAT,91412.0,Indonesia,,,,-3.5330659,118.9944687,https://maps.google.com/?cid=0x0:0x2e10fcd68cba1e2c,
komplek housing,komplek housing,BTN paka kita,"FX9X+MPR, Jl. Poros Majene - Mamuju, Tande, Kec. Banggae Tim., Kabupaten Majene, Sulawesi Barat 91412","Jl. Poros Majene - Mamuju, Tande, Kec. Banggae Tim., Kabupaten Majene",SULAWESI BARAT,91412.0,Indonesia,,,,-3.5308984,118.9994488,https://maps.google.com/?cid=0x0:0x258cd9cc8a64c8ec,
komplek housing,Kantor Perusahaan,aqkh's house,"FX6M+FW4, Baurung, Kec. Banggae Tim., Kabupaten Majene, Sulawesi Barat 91412","Baurung, Kec. Banggae Tim., Kabupaten Majene",SULAWESI BARAT,91412.0,Indonesia,,,,-3.5388591,118.9848317,https://maps.google.com/?cid=0x0:0x6ffd566c364c9bf5,
komplek housing,Perhimpunan Pengembang Perumahan,H. Muhsyam House,"Jl. Kapt Muh Amir No.9, Labuang, Kec. Banggae Tim., Kabupaten Majene, Sulawesi Barat 91412","Labuang, Kec. Banggae Tim., Kabupaten Majene",SULAWESI BARAT,91412.0,Indonesia,,,,-3.5467154,118.9736177,https://maps.google.com/?cid=0x0:0xd39f72bdd570ec42,
komplek housing,Perhimpunan Pengembang Perumahan,HOME SWEET,"FX6P+5JH, Lembang, Kec. Banggae Tim., Kabupaten Majene, Sulawesi Barat 91412","Lembang, Kec. Banggae Tim., Kabupaten Majene",SULAWESI BARAT,91412.0,Indonesia,,,,-3.5396773,118.9863596,https://maps.google.com/?cid=0x0:0x36a478525415027d,
komplek housing,Komplek perumahan,Pondok Indah Mertua,"FXPJ+CW7, Tande, Kec. Banggae Tim., Kabupaten Majene, Sulawesi Barat 91413","Tande, Kec. Banggae Tim., Kabupaten Majene",SULAWESI BARAT,91413.0,Indonesia,,,,-3.5148399,118.9813489,https://maps.google.com/?cid=0x0:0xa79d13a96ed251db,
komplek housing,Perhimpunan Pengembang Perumahan,Syamsuddin,"GX85+3W8 PUAWANG, Baruga Dua, Kec. Banggae Tim., juga, Sulawesi Barat","juga, Sulawesi Barat",SULAWESI BARAT,,Indonesia,,,,-3.4848327,118.9598159,https://maps.google.com/?cid=0x0:0x53347424375dfe1f,
komplek housing,Pembangunan Perumahan,Fatih Home,"FX7H+687, Baurung, Kec. Banggae Tim., Kabupaten Majene, Sulawesi Barat","Kabupaten Majene, Sulawesi Barat",SULAWESI BARAT,,Indonesia,,,,-3.5369597,118.9782888,https://maps.google.com/?cid=0x0:0xb4ab21e14ccfc2fd,
komplek housing,Pembangunan Perumahan,IRHA SATRYA HOME,"FX6P+5JH, Lembang, Kec. Banggae Tim., Kabupaten Majene, Sulawesi Barat 91412","Lembang, Kec. Banggae Tim., Kabupaten Majene",SULAWESI BARAT,91412.0,Indonesia,,,,-3.5396479,118.9864679,https://maps.google.com/?cid=0x0:0xce80dfa3177d0f63,
komplek housing,Hostel,Kost Cokelat,"FXFV+J3V, Tande, Kec. Banggae Tim., Kabupaten Majene, Sulawesi Barat 91413","Tande, Kec. Banggae Tim., Kabupaten Majene",SULAWESI BARAT,91413.0,Indonesia,85146351981.0,,,-3.5254341,118.9933078,https://maps.google.com/?cid=0x0:0x8262425afaa263d3,
komplek housing,komplek housing,Kec. Banggae Tim.,"Kabupaten Majene, Sulawesi Barat","Kabupaten Majene, Sulawesi Barat",SULAWESI BARAT,,Indonesia,,,,-3.5443284,118.9724991,https://maps.google.com/?cid=0x0:0x8a3d219855bd6a6e,
komplek housing,Komplek perumahan,AL-IKHLAS TOWNHOUSE MAJENE,"F2C2+822, Jl. Poros Majene - Mamuju, Tande, Kec. Banggae Tim., Kabupaten Majene, Sulawesi Barat 91354","Jl. Poros Majene - Mamuju, Tande, Kec. Banggae Tim., Kabupaten Majene",SULAWESI BARAT,91354.0,Indonesia,82196031660.0,,,-3.5291,119.000295,https://maps.google.com/?cid=0x0:0xe61e710c3cdc3d46,
komplek housing,komplek housing,Sulawesi Barat 91414,"Kec. Banggae Tim., Kabupaten Majene, Sulawesi Barat","Kabupaten Majene, Sulawesi Barat",SULAWESI BARAT,,Indonesia,,,,-3.504363,118.9470422,https://maps.google.com/?cid=0x0:0xa2a58b17ca1668be,
komplek housing,Pembangunan Perumahan,Feelaâ€™s Home,"FXJ6+7WV, Simullu, Baruga, Kec. Banggae Tim., Kabupaten Majene, Sulawesi Barat 91411","Simullu, Baruga, Kec. Banggae Tim., Kabupaten Majene",SULAWESI BARAT,91411.0,Indonesia,,,,-3.5193593,118.9620916,https://maps.google.com/?cid=0x0:0xe2260392be445014,
komplek housing,Masjid,Muhajirin,"FXPH+HQC, Tande, Kec. Banggae Tim., Kabupaten Majene, Sulawesi Barat 91413","Tande, Kec. Banggae Tim., Kabupaten Majene",SULAWESI BARAT,91413.0,Indonesia,85282972597.0,,,-3.5135562,118.9793982,https://maps.google.com/?cid=0x0:0x4adf57861a01cf99,
komplek housing,Perhimpunan Pengembang Perumahan,Majene,"GW5X+8F6, Baruga Dua, Kec. Banggae Tim., Kabupaten Majene, Sulawesi Barat","Kabupaten Majene, Sulawesi Barat",SULAWESI BARAT,,Indonesia,,,,-3.491711,118.9486501,https://maps.google.com/?cid=0x0:0x698fe91693e83970,
komplek housing,Perhimpunan Pengembang Perumahan,Syamsuddin,"GX85+3W8 PUAWANG, Baruga Dua, Kec. Banggae Tim., juga, Sulawesi Barat","juga, Sulawesi Barat",SULAWESI BARAT,,Indonesia,,,,-3.4848327,118.9598159,https://maps.google.com/?cid=0x0:0x53347424375dfe1f,
komplek housing,Peternakan,Bina Lestari Farmers group,"GX66+QWJ Puawang, Baruga Dua, Kec. Banggae Tim., Kabupaten Majene, Sulawesi Barat","Kabupaten Majene, Sulawesi Barat",SULAWESI BARAT,,Indonesia,,,,-3.4880345,118.9622572,https://maps.google.com/?cid=0x0:0x3a5ec666e0e83f3a,
komplek housing,Pembangunan Perumahan,Pole Lembang Residence,"Baurung, Kec. Banggae Tim., Kabupaten Majene, Sulawesi Barat 91412","Kec. Banggae Tim., Kabupaten Majene",SULAWESI BARAT,91412.0,Indonesia,85343626432.0,,,-3.5475767,118.9862007,https://maps.google.com/?cid=0x0:0xad18a4e2a6732c14,
komplek housing,Komplek perumahan,Pondok Indah Mertua,"FXPJ+CW7, Tande, Kec. Banggae Tim., Kabupaten Majene, Sulawesi Barat 91413","Tande, Kec. Banggae Tim., Kabupaten Majene",SULAWESI BARAT,91413.0,Indonesia,,,,-3.5148399,118.9813489,https://maps.google.com/?cid=0x0:0xa79d13a96ed251db,
komplek housing,Penginapan,Griya Lembang Permai,"FX4M+5R5, Komplek Griya Lembang Permai, Jalan Amd, Kel. Baurung, Kec. Banggae Timur, Baurung, Majane, Kabupaten Majene, Sulawesi Barat 91412","Komplek Griya Lembang Permai, Jalan Amd, Kel. Baurung, Kec. Banggae Timur, Baurung, Majane, Kabupaten Majene",SULAWESI BARAT,91412.0,Indonesia,81355632322.0,,,-3.5446232,118.9846215,https://maps.google.com/?cid=0x0:0x40ef36da1e1c1e66,
komplek housing,Pembangunan Perumahan,ANAYA RESIDENCE,"FXH8+HRX, Unnamed Road, Banggae, Kec. Banggae, Kabupaten Majene, Sulawesi Barat 91413","Unnamed Road, Banggae, Kec. Banggae, Kabupaten Majene",SULAWESI BARAT,91413.0,Indonesia,,,,-3.5210128,118.9670996,https://maps.google.com/?cid=0x0:0xc976f7d34cffaeba,
komplek housing,Komplek perumahan,Nasaruddin Mustafa,"Jl. Korban 40000 Jiwa Labu-Labuang Desa Palipi, Soreang, Kec. Banggae, Kabupaten Majene, Sulawesi Barat",Jiwa Labu-Labuang Desa Palipi,SULAWESI BARAT,40000.0,Indonesia,,,,-3.4959886,118.9879862,https://maps.google.com/?cid=0x0:0x6f5718b9e7f3a5ec,
komplek housing,Pembangunan Perumahan,RUMAH anggota BPD,"GX3Q+JRJ, Galung Lombok, Kec. Tinambung, Kabupaten Polewali Mandar, Sulawesi Barat 91354","Galung Lombok, Kec. Tinambung, Kabupaten Polewali Mandar",SULAWESI BARAT,91354.0,Indonesia,,,,-3.4959078,118.9895101,https://maps.google.com/?cid=0x0:0x44527013817406c3,
komplek housing,Komplek perumahan,AL-IKHLAS TOWNHOUSE MAJENE,"F2C2+822, Jl. Poros Majene - Mamuju, Tande, Kec. Banggae Tim., Kabupaten Majene, Sulawesi Barat 91354","Jl. Poros Majene - Mamuju, Tande, Kec. Banggae Tim., Kabupaten Majene",SULAWESI BARAT,91354.0,Indonesia,82196031660.0,,,-3.5291,119.000295,https://maps.google.com/?cid=0x0:0xe61e710c3cdc3d46,
komplek housing,Otoritas Perumahan,perumahan pesona talumung permai,"FX7Q+H3C Tim, Baurung, Kec. Banggae Tim., Kabupaten Majene, Sulawesi Barat 91412","Baurung, Kec. Banggae Tim., Kabupaten Majene",SULAWESI BARAT,91412.0,Indonesia,,,,-3.5360097,118.9881852,https://maps.google.com/?cid=0x0:0x29dc4b71519c2987,
komplek housing,Otoritas Perumahan,BTN POLE LEMBANG,"FX4P+68X, Kelurahan Lembang, Kec. Banggae Tim., Kabupaten Majene, Sulawesi Barat 91412","Kelurahan Lembang, Kec. Banggae Tim., Kabupaten Majene",SULAWESI BARAT,91412.0,Indonesia,,,,-3.544392,118.9858717,https://maps.google.com/?cid=0x0:0xf0f18ae9c0138607,
komplek housing,Pembangunan Perumahan,Logo KKN unsulbar,"FXJC+JG5, Galung, Tapalang, Kabupaten Mamuju, Sulawesi Barat 91413","Galung, Tapalang, Kabupaten Mamuju",SULAWESI BARAT,91413.0,Indonesia,81210444465.0,,,-3.5184914,118.9713522,https://maps.google.com/?cid=0x0:0xfae55fe75f99c959,
komplek housing,Penginapan,Griya pesona lembang majene,"Baurung, Kec. Banggae Tim., Kabupaten Majene, Sulawesi Barat 91412","Kec. Banggae Tim., Kabupaten Majene",SULAWESI BARAT,91412.0,Indonesia,,,,-3.542822,118.9894414,https://maps.google.com/?cid=0x0:0xebc5a33610abfe6,
komplek housing,Taman,Nurdia ( Amma Lina ),"GX8W+F4G, Renggeang, Kec. Limboro, Kabupaten Polewali Mandar, Sulawesi Barat","Kabupaten Polewali Mandar, Sulawesi Barat",SULAWESI BARAT,,Indonesia,,,,-3.4838049,118.9953221,https://maps.google.com/?cid=0x0:0x8e22def7db4cd8e1,
komplek housing,Pembangunan Perumahan,BTN Bumi Lembang Harapan,"FX6P+J47, Lembang, Kec. Banggae Tim., Kabupaten Majene, Sulawesi Barat 91412","Lembang, Kec. Banggae Tim., Kabupaten Majene",SULAWESI BARAT,91412.0,Indonesia,,,,-3.5384706,118.9853037,https://maps.google.com/?cid=0x0:0x59b014fd612a8e5c,
komplek housing,komplek housing,Kec. Banggae Tim.,"Kabupaten Majene, Sulawesi Barat","Kabupaten Majene, Sulawesi Barat",SULAWESI BARAT,,Indonesia,,,,-3.5443284,118.9724991,https://maps.google.com/?cid=0x0:0x8a3d219855bd6a6e,
komplek housing,Komplek perumahan,Rumah Dian Ekawati,"FXXW+VH3, Galung Lombok, Kec. Tinambung, Kabupaten Polewali Mandar, Sulawesi Barat 91354","Galung Lombok, Kec. Tinambung, Kabupaten Polewali Mandar",SULAWESI BARAT,91354.0,Indonesia,,,,-3.5003654,118.9964269,https://maps.google.com/?cid=0x0:0x1ed95df8ac308804,
komplek housing,Pembangunan Perumahan,HOME EFENDI FAMILY,"CWWV+875, Jln BLK, Totoli, Banggae, Majene Regency, West Sulawesi","Kabupaten Majene, Sulawesi Barat",SULAWESI BARAT,,Indonesia,,,,-3.554247,118.9432199,https://maps.google.com/?cid=0x0:0xd1c9eee7d9eec868,
komplek housing,komplek housing,Kec. Malunda,"Kabupaten Majene, Sulawesi Barat","Kabupaten Majene, Sulawesi Barat",SULAWESI BARAT,,Indonesia,,,,-3.0144575,118.8580249,https://maps.google.com/?cid=0x0:0x4b00fe7a2d4d1176,
komplek housing,Pembangunan Perumahan,Icha,"2V55+MXC, Malunda, Kec. Malunda, Kabupaten Majene, Sulawesi Barat 91453","Malunda, Kec. Malunda, Kabupaten Majene",SULAWESI BARAT,91453.0,Indonesia,,,,-2.990807,118.860156,https://maps.google.com/?cid=0x0:0x36996409ad009aad,
komplek housing,Kantor Perusahaan,Mms Malunda,"XVQ4+X9G, Malunda, Kec. Malunda, Kabupaten Majene, Sulawesi Barat 91453","Malunda, Kec. Malunda, Kabupaten Majene",SULAWESI BARAT,91453.0,Indonesia,,,,-3.0094094,118.8558144,https://maps.google.com/?cid=0x0:0x6f8dd05e149978dc,
komplek housing,Komplek perumahan,Malatewa,"2VJC+JWQ, Mekkatta, Kec. Malunda, Kabupaten Majene, Sulawesi Barat 91453","Mekkatta, Kec. Malunda, Kabupaten Majene",SULAWESI BARAT,91453.0,Indonesia,,,,-2.9684153,118.8723566,https://maps.google.com/?cid=0x0:0xf907f6980bf41451,
komplek housing,komplek housing,Rmh gw,"2V5H+46C, Malunda, Kec. Malunda, Kabupaten Majene, Sulawesi Barat 91453","Malunda, Kec. Malunda, Kabupaten Majene",SULAWESI BARAT,91453.0,Indonesia,,,,-2.9921842,118.8780284,https://maps.google.com/?cid=0x0:0xea1c6b6e8677325c,
komplek housing,Komplek perumahan,Dito,"XVR4+CGH, Jl. Cendana, Malunda, Kec. Malunda, Kabupaten Majene, Sulawesi Barat 91453","Jl. Cendana, Malunda, Kec. Malunda, Kabupaten Majene",SULAWESI BARAT,91453.0,Indonesia,,,,-3.0089473,118.856372,https://maps.google.com/?cid=0x0:0xf2e32dd9c30cd144,
komplek housing,Komplek perumahan,Sri Susanti,"2V6F+F32, Jl. Durian, Malunda, Kec. Malunda, Kabupaten Majene, Sulawesi Barat 91453","Jl. Durian, Malunda, Kec. Malunda, Kabupaten Majene",SULAWESI BARAT,91453.0,Indonesia,,,,-2.9888633,118.8726527,https://maps.google.com/?cid=0x0:0x7241928bdab6d725,
komplek housing,Pembangunan Perumahan,Rumah MKH,"2VJ7+R5J, Mekkatta, Kec. Malunda, Kabupaten Majene, Sulawesi Barat 91453","Mekkatta, Kec. Malunda, Kabupaten Majene",SULAWESI BARAT,91453.0,Indonesia,,,,-2.9683541,118.8631885,https://maps.google.com/?cid=0x0:0x3ca2fb0a7ec155ad,
komplek housing,Komplek perumahan,Pole Lembang Residence Blok C No. 23,"XWC4+4G2, Lombang, Kec. Malunda, Kabupaten Majene, Sulawesi Barat","Kabupaten Majene, Sulawesi Barat",SULAWESI BARAT,,Indonesia,,,,-3.0297251,118.9062794,https://maps.google.com/?cid=0x0:0xd801618ee8bc011b,
komplek housing,Komplek perumahan,Home mom kes,"3V2C+633, Jalan poros Majene mamuju belakang kantor, Mekkatta","Kabupaten Majene, Sulawesi Barat",SULAWESI BARAT,,Indonesia,,,,-2.9494861,118.8701716,https://maps.google.com/?cid=0x0:0xe148af9a0fc3bded,
komplek housing,komplek housing,Rumah Amran Abu Syaddad,"XX9V+CC, Ulumanda, Kec. Ulumanda, Kabupaten Majene, Sulawesi Barat","Kabupaten Majene, Sulawesi Barat",SULAWESI BARAT,,Indonesia,,,,-3.0309176,118.9935566,https://maps.google.com/?cid=0x0:0x79fd1a128581216b,
komplek housing,Komplek perumahan,Pao pao,"XVP5+66M, Malunda, Kec. Malunda, Kabupaten Majene, Sulawesi Barat 91453","Malunda, Kec. Malunda, Kabupaten Majene",SULAWESI BARAT,91453.0,Indonesia,,,,-3.0144073,118.8580529,https://maps.google.com/?cid=0x0:0xe7fe83a686ab2dee,
komplek housing,Pembangunan Perumahan,Bapak sulfa,"2V67+726, Malunda, Kec. Malunda, Kabupaten Majene, Sulawesi Barat","Kabupaten Majene, Sulawesi Barat",SULAWESI BARAT,,Indonesia,,,,-2.989341,118.862503,https://maps.google.com/?cid=0x0:0x78e382c6216ca0c8,
komplek housing,Pembangunan Perumahan,Urekang,"X2J5+MQF, Ulumanda, Kec. Ulumanda, Kabupaten Majene, Sulawesi Barat 91453","Ulumanda, Kec. Ulumanda, Kabupaten Majene",SULAWESI BARAT,91453.0,Indonesia,,,,-3.0181478,119.0101756,https://maps.google.com/?cid=0x0:0xa95af091ddbe3130,
komplek housing,komplek housing,BTN Yena Majene,"XWC4+4G2 BTN Yena, Lombang, Kec. Malunda, Kabupaten Majene, Sulawesi Barat","Kabupaten Majene, Sulawesi Barat",SULAWESI BARAT,,Indonesia,,,,-3.0297251,118.9062794,https://maps.google.com/?cid=0x0:0xcf72d078d5492263,
komplek housing,Komplek perumahan,KELOMPOK TANI CERDAS,"WVX6+V2J, Kabiraan, Kec. Ulumanda, Kabupaten Majene, Sulawesi Barat 91453","Kabiraan, Kec. Ulumanda, Kabupaten Majene",SULAWESI BARAT,91453.0,Indonesia,82188328810.0,,,-3.0502772,118.8600111,https://maps.google.com/?cid=0x0:0x73ac41ad7252bcbb,
komplek housing,Perhimpunan Pengembang Perumahan,Kabiraan,"WVVC+3GG, Kabiraan, Kec. Ulumanda, Kabupaten Majene, Sulawesi Barat 91453","Kabiraan, Kec. Ulumanda, Kabupaten Majene",SULAWESI BARAT,91453.0,Indonesia,,,,-3.0573053,118.8713314,https://maps.google.com/?cid=0x0:0xe544fdc8e26888d1,
komplek housing,Perhimpunan Pengembang Perumahan,Ires home,"WWG6+5QH, Tandeallo, Kec. Ulumanda, Kabupaten Majene, Sulawesi Barat 91453","Tandeallo, Kec. Ulumanda, Kabupaten Majene",SULAWESI BARAT,91453.0,Indonesia,,,,-3.0745176,118.9118374,https://maps.google.com/?cid=0x0:0x1ca4ae6b695ae4b5,
komplek housing,komplek housing,Sulawesi Barat 91451,"Kec. Pamboang, Kabupaten Majene, Sulawesi Barat","Kabupaten Majene, Sulawesi Barat",SULAWESI BARAT,,Indonesia,,,,-3.4651099,118.917927,https://maps.google.com/?cid=0x0:0x284e3301f580930a,
komplek housing,Tujuan Wisata,Pamboang,"GV4W+5HM, Lalampanua, Kec. Pamboang, Kabupaten Majene, Sulawesi Barat","Kabupaten Majene, Sulawesi Barat",SULAWESI BARAT,,Indonesia,,,,-3.4945295,118.896417,https://maps.google.com/?cid=0x0:0x36d7e57607a8170f,
komplek housing,komplek housing,Zhand,"HV4H+7RJ, Sirindu, Kec. Pamboang, Kabupaten Majene, Sulawesi Barat","Kabupaten Majene, Sulawesi Barat",SULAWESI BARAT,,Indonesia,,,,-3.4442783,118.8795047,https://maps.google.com/?cid=0x0:0x83986dd39922beaa,
komplek housing,Komplek perumahan,Dusun siiyang,"HVHW+G49, Adolang, Kec. Pamboang, Kabupaten Majene, Sulawesi Barat 91451","Adolang, Kec. Pamboang, Kabupaten Majene",SULAWESI BARAT,91451.0,Indonesia,,,,-3.4214572,118.8952476,https://maps.google.com/?cid=0x0:0x9fcca60f7a66caa,
komplek housing,Komplek perumahan,Cio,"GV6X+C3H, Lalampanua, Kec. Pamboang, Kabupaten Majene, Sulawesi Barat 91451","Lalampanua, Kec. Pamboang, Kabupaten Majene",SULAWESI BARAT,91451.0,Indonesia,,,,-3.4889356,118.898356,https://maps.google.com/?cid=0x0:0xc8e22b4baa727a0a,
komplek housing,Komplek perumahan,Ammy.Rajab,"GV6W+3Q2, Lalampanua, Kec. Pamboang, Kabupaten Majene, Sulawesi Barat 91451","Lalampanua, Kec. Pamboang, Kabupaten Majene",SULAWESI BARAT,91451.0,Indonesia,,,,-3.489857,118.8968864,https://maps.google.com/?cid=0x0:0x56f849f5aa793824,
komplek housing,Pembangunan Perumahan,Penukaran Tabung Oksigen,"FW87+R49, Jl. Poros Majene - Mamuju, Bonde, Kec. Pamboang, Kabupaten Majene, Sulawesi Barat 91451","Jl. Poros Majene - Mamuju, Bonde, Kec. Pamboang, Kabupaten Majene",SULAWESI BARAT,91451.0,Indonesia,,,,-3.5328972,118.9126387,https://maps.google.com/?cid=0x0:0x74208d45b99702a8,
komplek housing,Perumahan,INDY,"HVHF+Q7J Belakang mesjid babussalam mosso, Ling. Mosso, Mosso Dhua, Kec. Sendana, Kabupaten Majene, Sulawesi Barat 91452","Ling. Mosso, Mosso Dhua, Kec. Sendana, Kabupaten Majene",SULAWESI BARAT,91452.0,Indonesia,,,,-3.4205343,118.8731436,https://maps.google.com/?cid=0x0:0xcabbe41a9c6fb426,
komplek housing,komplek housing,Perumahan Griya Utama Residence Blok C-8,"FW4R+R2G, Jalan Lagama, Dusun Konja Selatan, Desa Pamboborang, Kec. Banggae, Kabupaten Majene, Sulawesi Barat","Kabupaten Majene, Sulawesi Barat",SULAWESI BARAT,,Indonesia,,,,-3.5429427,118.9400911,https://maps.google.com/?cid=0x0:0xa6bc710ad786bace,
komplek housing,komplek housing,Kec. Pamboang,"Kabupaten Majene, Sulawesi Barat","Kabupaten Majene, Sulawesi Barat",SULAWESI BARAT,,Indonesia,,,,-3.4944747,118.8963863,https://maps.google.com/?cid=0x0:0xcfafebfcef2e2ada,
komplek housing,komplek housing,Kec. Sendana,"Kabupaten Majene, Sulawesi Barat","Kabupaten Majene, Sulawesi Barat",SULAWESI BARAT,,Indonesia,,,,-3.3754875,118.8481537,https://maps.google.com/?cid=0x0:0x347ca767410bf307,
komplek housing,Kantor Pemerintah,Totolisi,"MRCV+X67 Kantor Desa Totolisi, Jl. Poros Majene - Mamuju, Sendana, Kec. Sendana, Kabupaten Majene, Sulawesi Barat 91452","Jl. Poros Majene - Mamuju, Sendana, Kec. Sendana, Kabupaten Majene",SULAWESI BARAT,91452.0,Indonesia,,,,-3.327582,118.8430458,https://maps.google.com/?cid=0x0:0x4fc47bf268220fce,
komplek housing,Pembangunan Perumahan,Awing,"MRMW+GQF, Jl. Poros Majene - Mamuju, Sendana, Kec. Sendana, Kabupaten Majene, Sulawesi Barat 91452","Jl. Poros Majene - Mamuju, Sendana, Kec. Sendana, Kabupaten Majene",SULAWESI BARAT,91452.0,Indonesia,,,,-3.316179,118.846936,https://maps.google.com/?cid=0x0:0xba7a214f8723a093,
komplek housing,Komplek perumahan,TPU Sendana,"JRFX+R72, Mosso, Kec. Sendana, Kabupaten Majene, Sulawesi Barat 91452","Mosso, Kec. Sendana, Kabupaten Majene",SULAWESI BARAT,91452.0,Indonesia,,,,-3.3754875,118.8481537,https://maps.google.com/?cid=0x0:0x5cbbefe3d08cd371,
komplek housing,komplek housing,Wahyuddin,"MV64+282, Pundau, Kec. Sendana, Kabupaten Majene, Sulawesi Barat 91452","Pundau, Kec. Sendana, Kabupaten Majene",SULAWESI BARAT,91452.0,Indonesia,,,,-3.3399795,118.8557547,https://maps.google.com/?cid=0x0:0x3d7aedfdfe747700,
komplek housing,Pembangunan Perumahan,Bonde - Desa Binanga,"Jl. Poros Majene - Mamuju, Binanga, Kec. Sendana, Kabupaten Majene, Sulawesi Barat 91452","Binanga, Kec. Sendana, Kabupaten Majene",SULAWESI BARAT,91452.0,Indonesia,,,,-3.3456104,118.853728,https://maps.google.com/?cid=0x0:0xbd51aefd4f1cb4f6,
komplek housing,Perumahan,INDY,"HVHF+Q7J Belakang mesjid babussalam mosso, Ling. Mosso, Mosso Dhua, Kec. Sendana, Kabupaten Majene, Sulawesi Barat 91452","Ling. Mosso, Mosso Dhua, Kec. Sendana, Kabupaten Majene",SULAWESI BARAT,91452.0,Indonesia,,,,-3.4205343,118.8731436,https://maps.google.com/?cid=0x0:0xcabbe41a9c6fb426,
komplek housing,Komplek perumahan,Ari,"MV64+MP8, Pundau, Kec. Sendana, Kabupaten Majene, Sulawesi Barat 91452","Pundau, Kec. Sendana, Kabupaten Majene",SULAWESI BARAT,91452.0,Indonesia,,,,-3.338757,118.856307,https://maps.google.com/?cid=0x0:0x4057d90cbadff3d3,
komplek housing,Komplek perumahan,ARI MANDAR,"MV64+GF8, Pundau, Kec. Sendana, Kabupaten Majene, Sulawesi Barat 91452","Pundau, Kec. Sendana, Kabupaten Majene",SULAWESI BARAT,91452.0,Indonesia,,,,-3.3387166,118.8562029,https://maps.google.com/?cid=0x0:0xd572c20c071b4df7,
komplek housing,Vila,Villa Qiana,"JVF2+JRH, Mosso, Kec. Sendana, Kabupaten Majene, Sulawesi Barat 91452","Mosso, Kec. Sendana, Kabupaten Majene",SULAWESI BARAT,91452.0,Indonesia,,,,-3.3759469,118.852119,https://maps.google.com/?cid=0x0:0xccc7e4719bf20404,
komplek housing,Pembangunan Perumahan,Jiran,"JRFX+R72, Mosso, Kec. Sendana, Kabupaten Majene, Sulawesi Barat 91452","Mosso, Kec. Sendana, Kabupaten Majene",SULAWESI BARAT,91452.0,Indonesia,,,,-3.3754875,118.8481537,https://maps.google.com/?cid=0x0:0xb10565c45ef47d2d,
komplek housing,Komplek perumahan,Andawahyu,"MV64+282, Desa Binanga, Naulluyo, Pundau, Kec. Sendana, Kabupaten Majene, Sulawesi Barat 91452","Desa Binanga, Naulluyo, Pundau, Kec. Sendana, Kabupaten Majene",SULAWESI BARAT,91452.0,Indonesia,,,,-3.3399886,118.8557504,https://maps.google.com/?cid=0x0:0x7b2c59abf381e333,
komplek housing,Komplek perumahan,Naura Nur jasmin,"MV74+3PF, Pundau, Kec. Sendana, Kabupaten Majene, Sulawesi Barat 91452","Pundau, Kec. Sendana, Kabupaten Majene",SULAWESI BARAT,91452.0,Indonesia,,,,-3.3373204,118.8567871,https://maps.google.com/?cid=0x0:0xbb338fc91792b345,
komplek housing,Komplek perumahan,Tante Saharia Somba,"JRVW+MQ9, Jl. Poros Majene - Mamuju, Puttada, Kec. Sendana, Kabupaten Majene, Sulawesi Barat 91452","Jl. Poros Majene - Mamuju, Puttada, Kec. Sendana, Kabupaten Majene",SULAWESI BARAT,91452.0,Indonesia,,,,-3.3551201,118.8473321,https://maps.google.com/?cid=0x0:0xb9c0697dbceabbf9,
komplek housing,komplek housing,Rumah,"JRCW+QGW, Jl. Ridha Allah somba, Mosso, Kec. Sendana, Kabupaten Majene, Sulawesi Barat 91452","Jl. Ridha Allah somba, Mosso, Kec. Sendana, Kabupaten Majene",SULAWESI BARAT,91452.0,Indonesia,,,,-3.3780024,118.8463194,https://maps.google.com/?cid=0x0:0x6a0f6e9e7dbab2d3,
komplek housing,Komplek perumahan,Sunusi,"JVC4+XXX, Mosso, Kec. Sendana, Kabupaten Majene, Sulawesi Barat 91452","Mosso, Kec. Sendana, Kabupaten Majene",SULAWESI BARAT,91452.0,Indonesia,,,,-3.3775063,118.8574845,https://maps.google.com/?cid=0x0:0xeb347c3180cccdf4,
komplek housing,Komplek perumahan,Dusun siiyang,"HVHW+G49, Adolang, Kec. Pamboang, Kabupaten Majene, Sulawesi Barat 91451","Adolang, Kec. Pamboang, Kabupaten Majene",SULAWESI BARAT,91451.0,Indonesia,,,,-3.4214572,118.8952476,https://maps.google.com/?cid=0x0:0x9fcca60f7a66caa,
komplek housing,Komplek perumahan,Perumahan Nelayan,"JRFX+37V, Jl. Poros Majene - Mamuju, Mosso, Kec. Sendana, Kabupaten Majene, Sulawesi Barat 91452","Jl. Poros Majene - Mamuju, Mosso, Kec. Sendana, Kabupaten Majene",SULAWESI BARAT,91452.0,Indonesia,,,,-3.3733536,118.8505104,https://maps.google.com/?cid=0x0:0x919fc0b576830a49,
komplek housing,Perhimpunan Pengembang Perumahan,Bukit samang,"JV26+JP9 Bukit samang, Mosso Dhua, Kec. Sendana, Kabupaten Majene, Sulawesi Barat","Kabupaten Majene, Sulawesi Barat",SULAWESI BARAT,,Indonesia,,,,-3.398469,118.861848,https://maps.google.com/?cid=0x0:0x6e751d88a869605a,
komplek housing,Komplek perumahan,Kadus puttada selatan,"JVM7+CQC, Jl.Sirawei, Puttada, selatan, Kabupaten Majene, Sulawesi Barat 91452","Jl.Sirawei, Puttada, selatan, Kabupaten Majene",SULAWESI BARAT,91452.0,Indonesia,,,,-3.3664255,118.8644009,https://maps.google.com/?cid=0x0:0xee551a33217e3bf7,
komplek housing,Masjid,Dusun saburre,"QRFQ+6MQ, Dusun saburre, Ulidang, Tammerodo, Kabupaten Majene, Sulawesi Barat 91452","Dusun saburre, Ulidang, Tammerodo, Kabupaten Majene",SULAWESI BARAT,91452.0,Indonesia,,,,-3.2269125,118.8392259,https://maps.google.com/?cid=0x0:0x181e3062d09223b2,
komplek housing,Komplek perumahan,LABUANG,"JV72+7QW, Mosso, Kec. Sendana, Kabupaten Majene, Sulawesi Barat 91452","Mosso, Kec. Sendana, Kabupaten Majene",SULAWESI BARAT,91452.0,Indonesia,,,,-3.3864256,118.8524508,https://maps.google.com/?cid=0x0:0xbed4765d8bd02b91,
komplek housing,komplek housing,Sulawesi Selatan 91925,Sulawesi Selatan,Sulawesi Selatan,SULAWESI BARAT,,Indonesia,,,,-3.0575625,120.1762494,https://maps.google.com/?cid=0x0:0xc8c26aa2cc63531b,
komplek housing,komplek housing,Sendana,"Leling, Kec. Tommo, Kabupaten Mamuju, Sulawesi Barat","Kabupaten Mamuju, Sulawesi Barat",SULAWESI BARAT,,Indonesia,,,,-2.233333,119.466667,https://maps.google.com/?cid=0x0:0xf2ca84e80ae1d5d9,
komplek housing,Komplek perumahan,Cluster Samata - Kota Harapan Indah,"Setia Asih, Kec. Tarumajaya, Kabupaten Bekasi, Jawa Barat 17215","Kec. Tarumajaya, Kabupaten Bekasi",SULAWESI BARAT,17215.0,Indonesia,,,,-6.1643756,107.0020318,https://maps.google.com/?cid=0x0:0x9bcdbebfd9c7dc45,
komplek housing,Pembangunan Perumahan,SA.7.7.11,"SA.7, Cluster Jl. Samata 7.11, Setia Asih, Kec. Tarumajaya, Kabupaten Bekasi, Jawa Barat 17215","Cluster Jl. Samata 7.11, Setia Asih, Kec. Tarumajaya, Kabupaten Bekasi",SULAWESI BARAT,17215.0,Indonesia,,,,-6.1663026,107.003965,https://maps.google.com/?cid=0x0:0xb550f7b3f59aecb2,
komplek housing,Komplek perumahan,Komplek DDN B.23 Jatiwaringin pondok gede,"PW89+4F3, Jl. Cendrawasih, RT.001/RW.010, Jatimakmur, Kec. Pd. Gede, Kota Bks, Jawa Barat 17413","Jl. Cendrawasih, RT.001/RW.010, Jatimakmur, Kec. Pd. Gede, Kota Bks",SULAWESI BARAT,17413.0,Indonesia,,,,-6.2847437,106.918686,https://maps.google.com/?cid=0x0:0x7d3cc1ed6198c39d,
komplek housing,Developer Rumah Hunian Khusus,Andana,"Jl. Sumatera No.1, Jatibening, Kec. Pd. Gede, Kota Bks, Jawa Barat 17412","Jatibening, Kec. Pd. Gede, Kota Bks",SULAWESI BARAT,17412.0,Indonesia,,,,-6.2648623,106.9478041,https://maps.google.com/?cid=0x0:0x93a5f7baaaaa78b4,
komplek housing,komplek housing,Sulawesi Selatan 91959,"Kec. Sendana, Kota Palopo, Sulawesi Selatan","Kota Palopo, Sulawesi Selatan",SULAWESI BARAT,,Indonesia,,,,-3.0655982,120.1993381,https://maps.google.com/?cid=0x0:0xb66b64b75a7884a,
komplek housing,komplek housing,Kec. Sendana,"Kabupaten Majene, Sulawesi Barat","Kabupaten Majene, Sulawesi Barat",SULAWESI BARAT,,Indonesia,,,,-3.3754875,118.8481537,https://maps.google.com/?cid=0x0:0x347ca767410bf307,
komplek housing,komplek housing,Sendana,"Leling, Kec. Tommo, Kabupaten Mamuju, Sulawesi Barat","Kabupaten Mamuju, Sulawesi Barat",SULAWESI BARAT,,Indonesia,,,,-2.233333,119.466667,https://maps.google.com/?cid=0x0:0xf2ca84e80ae1d5d9,
komplek housing,Komplek perumahan,Dua Sthana Jeruk Purut,"PR86+64P, Jl. Jeruk Purut, RT.4/RW.3, Cilandak Tim., Ps. Minggu, Kota Jakarta Selatan, Daerah Khusus Ibukota Jakarta 12560","Jl. Jeruk Purut, RT.4/RW.3, Cilandak Tim., Ps. Minggu, Kota Jakarta Selatan",SULAWESI BARAT,12560.0,Indonesia,,,,-6.2844375,106.8103125,https://maps.google.com/?cid=0x0:0x501635f13e5df6cf,
komplek housing,komplek housing,Kec. Sendana,"Kabupaten Majene, Sulawesi Barat","Kabupaten Majene, Sulawesi Barat",SULAWESI BARAT,,Indonesia,,,,-3.3754875,118.8481537,https://maps.google.com/?cid=0x0:0x347ca767410bf307,
komplek housing,Komplek perumahan,Perumahan Puri Cendana,"Q389+J4X, Grand, Jl. Semeru Raya, Sumberjaya, Kec. Tambun Sel., Kabupaten Bekasi, Jawa Barat 17510","Grand, Jl. Semeru Raya, Sumberjaya, Kec. Tambun Sel., Kabupaten Bekasi",SULAWESI BARAT,17510.0,Indonesia,,,,-6.233377,107.0678622,https://maps.google.com/?cid=0x0:0x4024173714fa4c9f,
komplek housing,Komplek perumahan,Perumahan Alamanda Regency,"BLOK B1, Jl. Perumahan Taman Alamanda, Karangsatria, Kec. Tambun Utara, Kabupaten Bekasi, Jawa Barat 17510","Jl. Perumahan Taman Alamanda, Karangsatria, Kec. Tambun Utara, Kabupaten Bekasi",SULAWESI BARAT,17510.0,Indonesia,,,,-6.2201416,107.0446584,https://maps.google.com/?cid=0x0:0x7f30fe8df1022015,
komplek housing,komplek housing,Tubo,"Kec. Tubo Sendana, Kabupaten Majene, Sulawesi Barat","Kabupaten Majene, Sulawesi Barat",SULAWESI BARAT,,Indonesia,,,,-3.0987385,118.8188948,https://maps.google.com/?cid=0x0:0xb76634d6c060e8ad,
komplek housing,Komplek perumahan,Bunda Sultan's House,"VQMJ+8MQ, Onang Utara, Kec. Tubo Sendana, Kabupaten Majene, Sulawesi Barat 91452","Onang Utara, Kec. Tubo Sendana, Kabupaten Majene",SULAWESI BARAT,91452.0,Indonesia,,,,-3.1166629,118.7817473,https://maps.google.com/?cid=0x0:0x668bd047576edbfc,
komplek housing,Komplek perumahan,DIANA,"WR29+GH2, Tubo, Kec. Tubo Sendana, Kabupaten Majene, Sulawesi Barat","Kabupaten Majene, Sulawesi Barat",SULAWESI BARAT,,Indonesia,,,,-3.0987385,118.8188948,https://maps.google.com/?cid=0x0:0xf4b29b6d07f70bad,
komplek housing,komplek housing,Kec. Tubo Sendana,"Kabupaten Majene, Sulawesi Barat","Kabupaten Majene, Sulawesi Barat",SULAWESI BARAT,,Indonesia,,,,-3.1612706,118.8191982,https://maps.google.com/?cid=0x0:0x4802ca1dd5715163,
komplek housing,Komplek perumahan,Issra Sr,"Jl. Poros Majene - Mamuju, Tangnga-Tangnga, Kec. Tubo Sendana, Kabupaten Majene, Sulawesi Barat 91452","Tangnga-Tangnga, Kec. Tubo Sendana, Kabupaten Majene",SULAWESI BARAT,91452.0,Indonesia,,,,-3.0928538,118.7775053,https://maps.google.com/?cid=0x0:0xb0712e9bda26e662,
komplek housing,Komplek perumahan,Dian collection,"VQ9P+RWF, Onang Utara, Kec. Tubo Sendana, Kabupaten Majene, Sulawesi Barat 91452","Onang Utara, Kec. Tubo Sendana, Kabupaten Majene",SULAWESI BARAT,91452.0,Indonesia,,,,-3.1303066,118.7865257,https://maps.google.com/?cid=0x0:0x8059c692f50a005,
komplek housing,Perhimpunan Pengembang Perumahan,"Lombo, na","WQ8R+48V, Jl. Poros Majene - Mamuju, Onang Utara, Kec. Tubo Sendana, Kabupaten Majene, Sulawesi Barat 91452","Jl. Poros Majene - Mamuju, Onang Utara, Kec. Tubo Sendana, Kabupaten Majene",SULAWESI BARAT,91452.0,Indonesia,,,,-3.0846484,118.7898277,https://maps.google.com/?cid=0x0:0x2225ce751d6d704e,
komplek housing,Komplek perumahan,Luthfy Idris House,"VQJJ+WW6, Jl. Poros Majene - Mamuju, Onang Utara, Kec. Tubo Sendana, Kabupaten Majene, Sulawesi Barat 91452","Jl. Poros Majene - Mamuju, Onang Utara, Kec. Tubo Sendana, Kabupaten Majene",SULAWESI BARAT,91452.0,Indonesia,,,,-3.117751,118.7822981,https://maps.google.com/?cid=0x0:0x5060dc4d4aa34dc8,
komplek housing,Komplek perumahan,Ahmad,"WQ4H+X2W, Jl. Poros Majene - Mamuju, Onang Utara, Kec. Tubo Sendana, Kabupaten Majene, Sulawesi Barat 91452","Jl. Poros Majene - Mamuju, Onang Utara, Kec. Tubo Sendana, Kabupaten Majene",SULAWESI BARAT,91452.0,Indonesia,,,,-3.0924934,118.7776661,https://maps.google.com/?cid=0x0:0x6c5d49eeb0a4795c,
komplek housing,Komplek perumahan,Fargab moq,"WQ4H+X2W, Jl. Poros Majene - Mamuju, Onang Utara, Kec. Tubo Sendana, Kabupaten Majene, Sulawesi Barat 91452","Jl. Poros Majene - Mamuju, Onang Utara, Kec. Tubo Sendana, Kabupaten Majene",SULAWESI BARAT,91452.0,Indonesia,,,,-3.0923416,118.7777296,https://maps.google.com/?cid=0x0:0x298cb4336b9ac1d3,
komplek housing,Komplek perumahan,Persawahan,"WR8P+9XG, Sambabo, Kec. Ulumanda, Kabupaten Majene, Sulawesi Barat","Kabupaten Majene, Sulawesi Barat",SULAWESI BARAT,,Indonesia,,,,-3.0840655,118.8374538,https://maps.google.com/?cid=0x0:0xe2ae539dddce9744,
komplek housing,komplek housing,Desa salut ambung,"VRXQ+H2C, Sambabo, Kec. Ulumanda, Kabupaten Majene, Sulawesi Barat","Kabupaten Majene, Sulawesi Barat",SULAWESI BARAT,,Indonesia,,,,-3.1010559,118.837502,https://maps.google.com/?cid=0x0:0x726bae55dd53fd7e,
komplek housing,Pembangunan Perumahan,Posko,"WR6P+RG8, Sambabo, Kec. Ulumanda, Kabupaten Majene, Sulawesi Barat","Kabupaten Majene, Sulawesi Barat",SULAWESI BARAT,,Indonesia,,,,-3.0879746,118.8363218,https://maps.google.com/?cid=0x0:0xdf4fd60fbbfa9009,
komplek housing,komplek housing,Sulawesi Barat 91453,"Kabupaten Majene, Sulawesi Barat","Kabupaten Majene, Sulawesi Barat",SULAWESI BARAT,,Indonesia,,,,-3.0270061,118.9994357,https://maps.google.com/?cid=0x0:0xbece4f3ae0e9d313,
komplek housing,komplek housing,Kec. Ulumanda,"Kabupaten Majene, Sulawesi Barat","Kabupaten Majene, Sulawesi Barat",SULAWESI BARAT,,Indonesia,,,,-3.084022,118.8373786,https://maps.google.com/?cid=0x0:0xc10317b0338027eb,
komplek housing,Perhimpunan Pengembang Perumahan,Ires home,"WWG6+5QH, Tandeallo, Kec. Ulumanda, Kabupaten Majene, Sulawesi Barat 91453","Tandeallo, Kec. Ulumanda, Kabupaten Majene",SULAWESI BARAT,91453.0,Indonesia,,,,-3.0745176,118.9118374,https://maps.google.com/?cid=0x0:0x1ca4ae6b695ae4b5,
komplek housing,Komplek perumahan,SEKERTARIAT KELOMPOK TANI CERDAS,"XV26+55Q, Kabiraan, Kec. Ulumanda, Kabupaten Majene, Sulawesi Barat 91453","Kabiraan, Kec. Ulumanda, Kabupaten Majene",SULAWESI BARAT,91453.0,Indonesia,,,,-3.0501544,118.8609257,https://maps.google.com/?cid=0x0:0xf3a4b40c92d17582,
komplek housing,Komplek perumahan,KELOMPOK TANI CERDAS,"WVX6+V2J, Kabiraan, Kec. Ulumanda, Kabupaten Majene, Sulawesi Barat 91453","Kabiraan, Kec. Ulumanda, Kabupaten Majene",SULAWESI BARAT,91453.0,Indonesia,82188328810.0,,,-3.0502772,118.8600111,https://maps.google.com/?cid=0x0:0x73ac41ad7252bcbb,
komplek housing,Perhimpunan Pengembang Perumahan,Kabiraan,"WVVC+3GG, Kabiraan, Kec. Ulumanda, Kabupaten Majene, Sulawesi Barat 91453","Kabiraan, Kec. Ulumanda, Kabupaten Majene",SULAWESI BARAT,91453.0,Indonesia,,,,-3.0573053,118.8713314,https://maps.google.com/?cid=0x0:0xe544fdc8e26888d1,
komplek housing,komplek housing,Komplek Housing,"Blok Bojong Nangka I, Jl. Ring Rudal Blok Bojong Nangka I No.68, RT.001/RW.007, Jatirahayu, Kec. Pd. Melati, Kota Bks, Jawa Barat 17414","Jl. Ring Rudal Blok Bojong Nangka I No.68, RT.001/RW.007, Jatirahayu, Kec. Pd. Melati, Kota Bks",SULAWESI BARAT,17414.0,Indonesia,,,,-6.293724,106.9165114,https://maps.google.com/?cid=0x0:0x9c50464976dee674,
perumahan,perumahan,Banggae,"Kec. Banggae, Kabupaten Majene, Sulawesi Barat","Kabupaten Majene, Sulawesi Barat",SULAWESI BARAT,,Indonesia,,,,-3.5282697,118.9674195,https://maps.google.com/?cid=0x0:0xff8e6fe09c57690d,
perumahan,perumahan,Rumah Mude (Andi Mutmainnah Dewi),"FX5J+F4F, Baurung, Kec. Banggae Tim., Kabupaten Majene, Sulawesi Barat 91412","Baurung, Kec. Banggae Tim., Kabupaten Majene",SULAWESI BARAT,91412.0,Indonesia,,,,-3.5413201,118.9801137,https://maps.google.com/?cid=0x0:0x626990b515b7608e,
perumahan,Perumahan,Perumahan Shangri-La Majene,"FX9H+WHJ, Dekat, Baurung, Kec. Banggae Tim., Kabupaten Majene, Sulawesi Barat 91412","Dekat, Baurung, Kec. Banggae Tim., Kabupaten Majene",SULAWESI BARAT,91412.0,Indonesia,82188353277.0,,,-3.5301515,118.978898,https://maps.google.com/?cid=0x0:0x9473b92f00faed9f,
perumahan,Pembangunan Perumahan,ANAYA RESIDENCE,"FXH8+HRX, Unnamed Road, Banggae, Kec. Banggae, Kabupaten Majene, Sulawesi Barat 91413","Unnamed Road, Banggae, Kec. Banggae, Kabupaten Majene",SULAWESI BARAT,91413.0,Indonesia,,,,-3.5210128,118.9670996,https://maps.google.com/?cid=0x0:0xc976f7d34cffaeba,
perumahan,Pembangunan Perumahan,Lorong Mangga 1,"FX6C+Q69, Jl. Kanjuha, Banggae, Kec. Banggae, Kabupaten Majene, Sulawesi Barat 91412","Jl. Kanjuha, Banggae, Kec. Banggae, Kabupaten Majene",SULAWESI BARAT,91412.0,Indonesia,,,,-3.5375718,118.9708353,https://maps.google.com/?cid=0x0:0x6a6e8318e91fb59e,
perumahan,Pembangunan Perumahan,Perumahan Bukit Pappota Permai,"FX4H+PJC, Tim.,, Labuang, Kec. Banggae Tim., Kabupaten Majene, Sulawesi Barat 91412","Tim.,, Labuang, Kec. Banggae Tim., Kabupaten Majene",SULAWESI BARAT,91412.0,Indonesia,81342222268.0,,,-3.5431967,118.9790084,https://maps.google.com/?cid=0x0:0x10f7fef6dc7108e9,
perumahan,Komplek perumahan,Rumahku syahmah,"FXM6+583, Baruga, Kec. Banggae Tim., Kabupaten Majene, Sulawesi Barat 91411","Baruga, Kec. Banggae Tim., Kabupaten Majene",SULAWESI BARAT,91411.0,Indonesia,,,,-3.5171078,118.9607951,https://maps.google.com/?cid=0x0:0x15fc0f8e240cc503,
perumahan,Komplek perumahan,Cluster Ummi Rosna,"FX79+X96, Banggae, Kec. Banggae, Kabupaten Majene, Sulawesi Barat 91412","Banggae, Kec. Banggae, Kabupaten Majene",SULAWESI BARAT,91412.0,Indonesia,,,,-3.5349806,118.9683737,https://maps.google.com/?cid=0x0:0x87a2439f18a414bf,
perumahan,Rumah Kayu,Perum. Subsidi Tunda,"FX8H+49W, Unnamed Road, Baurung, Kec. Banggae Tim., Kabupaten Majene, Sulawesi Barat 91412","Unnamed Road, Baurung, Kec. Banggae Tim., Kabupaten Majene",SULAWESI BARAT,91412.0,Indonesia,,,,-3.53464,118.978458,https://maps.google.com/?cid=0x0:0x84b66718c00bb193,
perumahan,Komplek perumahan,Home Majene,"Jl. Zainal Abidin No.15, Banggae, Kec. Banggae, Kabupaten Majene, Sulawesi Barat 91412","Banggae, Kec. Banggae, Kabupaten Majene",SULAWESI BARAT,91412.0,Indonesia,,,,-3.5425134,118.9667959,https://maps.google.com/?cid=0x0:0xc37826b9b7899a0f,
perumahan,perumahan,Kost Lucky Laki,"FX4C+QVF, Labuang, Kec. Banggae Tim., Kabupaten Majene, Sulawesi Barat","Kabupaten Majene, Sulawesi Barat",SULAWESI BARAT,,Indonesia,,,,-3.5430567,118.9721705,https://maps.google.com/?cid=0x0:0xbab74c1463bcf0ec,
perumahan,,YENA RESIDEN,"Labuang, Kec. Banggae Tim., Kabupaten Majene, Sulawesi Barat","Kabupaten Majene, Sulawesi Barat",SULAWESI BARAT,,Indonesia,81242123182.0,,,-3.5372517,118.9772118,https://maps.google.com/?cid=0x0:0x9e09d987629eaf31,
perumahan,Komplek perumahan,Ruapiolo house,"FXFC+M93, Ling. Galung Utara, Banggae, Kec. Banggae, Kabupaten Majene, Sulawesi Barat 91412","Ling. Galung Utara, Banggae, Kec. Banggae, Kabupaten Majene",SULAWESI BARAT,91412.0,Indonesia,,,,-3.525857,118.970913,https://maps.google.com/?cid=0x0:0xf79776f9be12bb08,
perumahan,Perhimpunan Pengembang Perumahan,Kurir,"Jl. Rahmat Tamma, Baurung, Kec. Banggae Tim., Kabupaten Majene, Sulawesi Barat 91412","Baurung, Kec. Banggae Tim., Kabupaten Majene",SULAWESI BARAT,91412.0,Indonesia,,,,-3.5370432,118.9908232,https://maps.google.com/?cid=0x0:0x4546bcd859fb2dec,
perumahan,Komplek perumahan,HARAPAN JAYA,"Jl. Lanto Dg. Pasewang No.09, Pakkola, Banggae, Kec. Banggae Tim., Kabupaten Majene, Sulawesi Barat 91412","Pakkola, Banggae, Kec. Banggae Tim., Kabupaten Majene",SULAWESI BARAT,91412.0,Indonesia,,,,-3.5391948,118.9694185,https://maps.google.com/?cid=0x0:0x4988441a756c9e67,
perumahan,Masjid,Muhajirin,"FXPH+HQC, Tande, Kec. Banggae Tim., Kabupaten Majene, Sulawesi Barat 91413","Tande, Kec. Banggae Tim., Kabupaten Majene",SULAWESI BARAT,91413.0,Indonesia,85282972597.0,,,-3.5135562,118.9793982,https://maps.google.com/?cid=0x0:0x4adf57861a01cf99,
perumahan,Komplek perumahan,Rumah Mempelai Perempuan,"FXM6+87W, Baruga, Kec. Banggae Tim., Kabupaten Majene, Sulawesi Barat 91411","Baruga, Kec. Banggae Tim., Kabupaten Majene",SULAWESI BARAT,91411.0,Indonesia,,,,-3.5166403,118.9606969,https://maps.google.com/?cid=0x0:0xebcc53b7f7f1657,
perumahan,Komplek perumahan,Kampung belajar islami,"FW6V+VXJ, Baru, Kec. Banggae, Kabupaten Majene, Sulawesi Barat 91415","Baru, Kec. Banggae, Kabupaten Majene",SULAWESI BARAT,91415.0,Indonesia,,,,-3.537794,118.9448819,https://maps.google.com/?cid=0x0:0x6c73aae9ca55a776,
perumahan,Jasa Konstruksi dan Bangunan,Ilham,"FXJ6+7WV, Simullu, Baruga, Kec. Banggae Tim., Kabupaten Majene, Sulawesi Barat 91411","Simullu, Baruga, Kec. Banggae Tim., Kabupaten Majene",SULAWESI BARAT,91411.0,Indonesia,82191370949.0,,,-3.5192597,118.9622975,https://maps.google.com/?cid=0x0:0x5a7bbd0878fbe1b6,
perumahan,Brunch,Copala RT 3,"FXC9+C2M, Banggae, Kec. Banggae, Kabupaten Majene, Sulawesi Barat 91411","Banggae, Kec. Banggae, Kabupaten Majene",SULAWESI BARAT,91411.0,Indonesia,,,,-3.5289043,118.9675466,https://maps.google.com/?cid=0x0:0x937d75e87dab83b5,
perumahan,Komplek perumahan,Kompleks Perumahan ulumanda simpang 4,"FX4J+F24, Rusung Rusung Lembang, Labuang, Kec. Banggae Tim., Kabupaten Majene, Sulawesi Barat 91412","Rusung Rusung Lembang, Labuang, Kec. Banggae Tim., Kabupaten Majene",SULAWESI BARAT,91412.0,Indonesia,,,,-3.54387,118.9800765,https://maps.google.com/?cid=0x0:0x27807e693ce0528f,
perumahan,perumahan,Sulawesi Barat 91411,"Kabupaten Majene, Sulawesi Barat","Kabupaten Majene, Sulawesi Barat",SULAWESI BARAT,,Indonesia,,,,-3.477543,118.9470422,https://maps.google.com/?cid=0x0:0x1c73f38c478ef4ab,
perumahan,Komplek perumahan,Perumahan Banggae Residence,"CXWQ+8F, Baurung, Kec. Banggae Tim., Kabupaten Majene, Sulawesi Barat","Kabupaten Majene, Sulawesi Barat",SULAWESI BARAT,,Indonesia,,,,-3.5532989,118.9891558,https://maps.google.com/?cid=0x0:0x44c2ee2dfc13cc27,
perumahan,Komplek perumahan,PERUMAHAN AL-IKHLAS RESIDENCE MAJENE 2,"Lingkungan Leppe Kelurahan Lembang, Baurung, Kec. Banggae Tim., Kabupaten Majene, Sulawesi Barat 91412","Baurung, Kec. Banggae Tim., Kabupaten Majene",SULAWESI BARAT,91412.0,Indonesia,,,,-3.5518998,118.9862861,https://maps.google.com/?cid=0x0:0x72f3b7d9033e606a,
perumahan,Pembangunan Perumahan,Pole Lembang Residence,"Baurung, Kec. Banggae Tim., Kabupaten Majene, Sulawesi Barat 91412","Kec. Banggae Tim., Kabupaten Majene",SULAWESI BARAT,91412.0,Indonesia,85343626432.0,,,-3.5475767,118.9862007,https://maps.google.com/?cid=0x0:0xad18a4e2a6732c14,
perumahan,perumahan,Perumahan Griya Cahaya MASANNANG 4 Majene,"FXFV+W24, Tande, Kec. Banggae Tim., Kabupaten Majene, Sulawesi Barat","Kabupaten Majene, Sulawesi Barat",SULAWESI BARAT,,Indonesia,81273558025.0,,,-3.5252332,118.9925923,https://maps.google.com/?cid=0x0:0xb0578d1c9cabff62,
perumahan,Penginapan,Perumahan BTN Lembang Permai,"Pantai Munu, Baurung, Kec. Banggae Tim., Kabupaten Majene, Sulawesi Barat 91412","Baurung, Kec. Banggae Tim., Kabupaten Majene",SULAWESI BARAT,91412.0,Indonesia,,,,-3.551486,118.9875311,https://maps.google.com/?cid=0x0:0x411485cd7e7c7b3e,
perumahan,Otoritas Perumahan,perumahan pesona talumung permai,"FX7Q+H3C Tim, Baurung, Kec. Banggae Tim., Kabupaten Majene, Sulawesi Barat 91412","Baurung, Kec. Banggae Tim., Kabupaten Majene",SULAWESI BARAT,91412.0,Indonesia,,,,-3.5360097,118.9881852,https://maps.google.com/?cid=0x0:0x29dc4b71519c2987,
perumahan,Komplek perumahan,Afzani Home,"CXVP+PF5, Jl. Lettu Moh. Yamin, Baurung, Kec. Banggae Tim., Kabupaten Majene, Sulawesi Barat 91411","Jl. Lettu Moh. Yamin, Baurung, Kec. Banggae Tim., Kabupaten Majene",SULAWESI BARAT,91411.0,Indonesia,,,,-3.5556976,118.9864451,https://maps.google.com/?cid=0x0:0x8677c0dfe39b05fd,
perumahan,perumahan,Sulawesi Barat 91415,"Kec. Banggae, Kabupaten Majene, Sulawesi Barat","Kabupaten Majene, Sulawesi Barat",SULAWESI BARAT,,Indonesia,,,,-3.5405453,118.9353968,https://maps.google.com/?cid=0x0:0x79fb9d43a72e97bf,
perumahan,Organisasi Pemuda,GPR,"CWRJ+9V7, Jl. Poros Majene - Mamuju, Totoli, Kec. Banggae, Kabupaten Majene, Sulawesi Barat 91415","Jl. Poros Majene - Mamuju, Totoli, Kec. Banggae, Kabupaten Majene",SULAWESI BARAT,91415.0,Indonesia,,,,-3.5590822,118.9321589,https://maps.google.com/?cid=0x0:0x508f5b9b39b483f1,
perumahan,Komplek perumahan,Kampung belajar islami,"FW6V+VXJ, Baru, Kec. Banggae, Kabupaten Majene, Sulawesi Barat 91415","Baru, Kec. Banggae, Kabupaten Majene",SULAWESI BARAT,91415.0,Indonesia,,,,-3.537794,118.9448819,https://maps.google.com/?cid=0x0:0x6c73aae9ca55a776,
perumahan,Komplek perumahan,Perumahan Griya Pesona Leppangan,"Jl. Poros Majene - Mamuju No.28, Totoli, Kec. Banggae, Kabupaten Majene, Sulawesi Barat 91415","Totoli, Kec. Banggae, Kabupaten Majene",SULAWESI BARAT,91415.0,Indonesia,,,,-3.5516134,118.9462354,https://maps.google.com/?cid=0x0:0x999c0ffb9181297d,
perumahan,Komplek perumahan,Perumahan griya cahaya MASANNANG 3 Majene,"FW2R+FQQ, Totoli, Kec. Banggae, Kabupaten Majene, Sulawesi Barat 91415","Totoli, Kec. Banggae, Kabupaten Majene",SULAWESI BARAT,91415.0,Indonesia,85340501827.0,,,-3.548806,118.942028,https://maps.google.com/?cid=0x0:0x5a5ddf8110aa15d6,
perumahan,Agensi Persewaan Properti,IkramCOLECTION,"FW6P+JPW, Konja, Baru, Kec. Banggae, Kabupaten Majene, Sulawesi Barat 91415","Konja, Baru, Kec. Banggae, Kabupaten Majene",SULAWESI BARAT,91415.0,Indonesia,,,,-3.5383927,118.9368319,https://maps.google.com/?cid=0x0:0x34d13c3f19721db0,
perumahan,Komplek perumahan,Mammis Residence,"Jl. Poros Majene - Mamuju No.62, Totoli, Kec. Banggae, Kabupaten Majene, Sulawesi Barat 91415","Totoli, Kec. Banggae, Kabupaten Majene",SULAWESI BARAT,91415.0,Indonesia,,,,-3.5607835,118.9395712,https://maps.google.com/?cid=0x0:0xbfc56e752c9445de,
perumahan,Komplek perumahan,Perdos Griya Utama Residence,"FW5Q+4X8 Desa Pamboborang, Totoli, Kec. Banggae, Kabupaten Majene, Sulawesi Barat 91415","Totoli, Kec. Banggae, Kabupaten Majene",SULAWESI BARAT,91415.0,Indonesia,,,,-3.5422249,118.9399462,https://maps.google.com/?cid=0x0:0xb638c300e13200e4,
perumahan,Komplek perumahan,Perumahan Mammis,"CWJP+W3H, Rangas Bar., Totoli, Kec. Banggae, Kabupaten Majene, Sulawesi Barat 91415","Rangas Bar., Totoli, Kec. Banggae, Kabupaten Majene",SULAWESI BARAT,91415.0,Indonesia,,,,-3.5676897,118.9352359,https://maps.google.com/?cid=0x0:0xc50b03b420fa1ad6,
perumahan,Motel,Pondok Nazafa Khusus Putri,"CWXV+4Q7, Totoli, Kec. Banggae, Kabupaten Majene, Sulawesi Barat 91415","Totoli, Kec. Banggae, Kabupaten Majene",SULAWESI BARAT,91415.0,Indonesia,82347110011.0,,,-3.5522683,118.9437564,https://maps.google.com/?cid=0x0:0x70a0afc4ce8635f9,
perumahan,Area Mendaki,Balanipa Hills,"FW4Q+XVX, Totoli, Kec. Banggae, Kabupaten Majene, Sulawesi Barat 91415","Totoli, Kec. Banggae, Kabupaten Majene",SULAWESI BARAT,91415.0,Indonesia,82120007772.0,,,-3.5419917,118.9397579,https://maps.google.com/?cid=0x0:0x254c936929a6a580,
perumahan,Pembangunan Perumahan,Kerajaan Ny. Riri,"FW2X+57X, Totoli, Kec. Banggae, Kabupaten Majene, Sulawesi Barat 91415","Totoli, Kec. Banggae, Kabupaten Majene",SULAWESI BARAT,91415.0,Indonesia,,,,-3.5489825,118.9479051,https://maps.google.com/?cid=0x0:0x7f473bb6c1a9f7f8,
perumahan,Taman Kanak-kanak,Kelompok Nelayan MASANNANG,"CWJR+G8R, Totoli, Kec. Banggae, Kabupaten Majene, Sulawesi Barat 91415","Totoli, Kec. Banggae, Kabupaten Majene",SULAWESI BARAT,91415.0,Indonesia,,,,-3.568679,118.9407806,https://maps.google.com/?cid=0x0:0x9cfca29f47e55281,
perumahan,Pembangunan Perumahan,SRINURNA NINGSIH,"CWRJ+FMC, Totoli, Kec. Banggae, Kabupaten Majene, Sulawesi Barat 91415","Totoli, Kec. Banggae, Kabupaten Majene",SULAWESI BARAT,91415.0,Indonesia,,,,-3.5588237,118.9316456,https://maps.google.com/?cid=0x0:0xd7fd2b737073354e,
perumahan,Pembangunan Perumahan,Shoy,"CWMM+7X8, Totoli, Kec. Banggae, Kabupaten Majene, Sulawesi Barat 91415","Totoli, Kec. Banggae, Kabupaten Majene",SULAWESI BARAT,91415.0,Indonesia,,,,-3.567159,118.935268,https://maps.google.com/?cid=0x0:0x3cd46345821b04ab,
perumahan,Komplek perumahan,Qiaâ€™s home,"CWPQ+V6C, Totoli, Kec. Banggae, Kabupaten Majene, Sulawesi Barat 91415","Totoli, Kec. Banggae, Kabupaten Majene",SULAWESI BARAT,91415.0,Indonesia,,,,-3.563387,118.9377425,https://maps.google.com/?cid=0x0:0xa7a921ef54ff503f,
perumahan,Pemakaman,Perumahan Rahmatullah Rangas Tammalassu,"Jl. Poros Majene - Mamuju No.62, Totoli, Kec. Banggae, Kabupaten Majene, Sulawesi Barat 91415","Totoli, Kec. Banggae, Kabupaten Majene",SULAWESI BARAT,91415.0,Indonesia,85244546787.0,,,-3.5618059,118.9390588,https://maps.google.com/?cid=0x0:0x9298e56d2b6e034e,
perumahan,Komplek perumahan,Rmh klurga,"CWQQ+9H9, Jl. Rangas, Totoli, Kec. Banggae, Kabupaten Majene, Sulawesi Barat","Kabupaten Majene, Sulawesi Barat",SULAWESI BARAT,,Indonesia,,,,-3.5615884,118.9389948,https://maps.google.com/?cid=0x0:0x9ab9e25a500b59a1,
perumahan,Pembangunan Perumahan,Darma home,"CWJP+W3H, Rangas Bar., Totoli, Kec. Banggae, Kabupaten Majene, Sulawesi Barat 91415","Rangas Bar., Totoli, Kec. Banggae, Kabupaten Majene",SULAWESI BARAT,91415.0,Indonesia,,,,-3.5676897,118.9352359,https://maps.google.com/?cid=0x0:0x14f529365cbaf6b,
perumahan,perumahan,Perumahan Griya Utama Residence Blok C-8,"FW4R+R2G, Jalan Lagama, Dusun Konja Selatan, Desa Pamboborang, Kec. Banggae, Kabupaten Majene, Sulawesi Barat","Kabupaten Majene, Sulawesi Barat",SULAWESI BARAT,,Indonesia,,,,-3.5429427,118.9400911,https://maps.google.com/?cid=0x0:0xa6bc710ad786bace,
perumahan,Komplek perumahan,Erwink kaktus,"FW2X+CVP, Baru, Kec. Banggae, Kabupaten Majene, Sulawesi Barat","Kabupaten Majene, Sulawesi Barat",SULAWESI BARAT,,Indonesia,,,,-3.5489051,118.9496981,https://maps.google.com/?cid=0x0:0x53f479432cfe550e,
perumahan,Pembangunan Perumahan,HOME EFENDI FAMILY,"CWWV+875, Jln BLK, Totoli, Banggae, Majene Regency, West Sulawesi","Kabupaten Majene, Sulawesi Barat",SULAWESI BARAT,,Indonesia,,,,-3.554247,118.9432199,https://maps.google.com/?cid=0x0:0xd1c9eee7d9eec868,
perumahan,perumahan,Sulawesi Barat 91411,"Kabupaten Majene, Sulawesi Barat","Kabupaten Majene, Sulawesi Barat",SULAWESI BARAT,,Indonesia,,,,-3.477543,118.9470422,https://maps.google.com/?cid=0x0:0x1c73f38c478ef4ab,
perumahan,perumahan,Rumah Mude (Andi Mutmainnah Dewi),"FX5J+F4F, Baurung, Kec. Banggae Tim., Kabupaten Majene, Sulawesi Barat 91412","Baurung, Kec. Banggae Tim., Kabupaten Majene",SULAWESI BARAT,91412.0,Indonesia,,,,-3.5413201,118.9801137,https://maps.google.com/?cid=0x0:0x626990b515b7608e,
perumahan,Perumahan,Perumahan Shangri-La Majene,"FX9H+WHJ, Dekat, Baurung, Kec. Banggae Tim., Kabupaten Majene, Sulawesi Barat 91412","Dekat, Baurung, Kec. Banggae Tim., Kabupaten Majene",SULAWESI BARAT,91412.0,Indonesia,82188353277.0,,,-3.5301515,118.978898,https://maps.google.com/?cid=0x0:0x9473b92f00faed9f,
perumahan,Komplek perumahan,Rumahku syahmah,"FXM6+583, Baruga, Kec. Banggae Tim., Kabupaten Majene, Sulawesi Barat 91411","Baruga, Kec. Banggae Tim., Kabupaten Majene",SULAWESI BARAT,91411.0,Indonesia,,,,-3.5171078,118.9607951,https://maps.google.com/?cid=0x0:0x15fc0f8e240cc503,
perumahan,Masjid,Muhajirin,"FXPH+HQC, Tande, Kec. Banggae Tim., Kabupaten Majene, Sulawesi Barat 91413","Tande, Kec. Banggae Tim., Kabupaten Majene",SULAWESI BARAT,91413.0,Indonesia,85282972597.0,,,-3.5135562,118.9793982,https://maps.google.com/?cid=0x0:0x4adf57861a01cf99,
perumahan,Komplek perumahan,Perumahan Banggae Residence,"CXWQ+8F, Baurung, Kec. Banggae Tim., Kabupaten Majene, Sulawesi Barat","Kabupaten Majene, Sulawesi Barat",SULAWESI BARAT,,Indonesia,,,,-3.5532989,118.9891558,https://maps.google.com/?cid=0x0:0x44c2ee2dfc13cc27,
perumahan,Pembangunan Perumahan,Perumahan Bukit Pappota Permai,"FX4H+PJC, Tim.,, Labuang, Kec. Banggae Tim., Kabupaten Majene, Sulawesi Barat 91412","Tim.,, Labuang, Kec. Banggae Tim., Kabupaten Majene",SULAWESI BARAT,91412.0,Indonesia,81342222268.0,,,-3.5431967,118.9790084,https://maps.google.com/?cid=0x0:0x10f7fef6dc7108e9,
perumahan,Pembangunan Perumahan,ANAYA RESIDENCE,"FXH8+HRX, Unnamed Road, Banggae, Kec. Banggae, Kabupaten Majene, Sulawesi Barat 91413","Unnamed Road, Banggae, Kec. Banggae, Kabupaten Majene",SULAWESI BARAT,91413.0,Indonesia,,,,-3.5210128,118.9670996,https://maps.google.com/?cid=0x0:0xc976f7d34cffaeba,
perumahan,Komplek perumahan,Perumahan Anak KKB,"CXXR+973, Baurung, Kec. Banggae Tim., Kabupaten Majene, Sulawesi Barat 91412","Baurung, Kec. Banggae Tim., Kabupaten Majene",SULAWESI BARAT,91412.0,Indonesia,82334455667.0,,,-3.5516141,118.990685,https://maps.google.com/?cid=0x0:0x4434618b57674b69,
perumahan,Kantor Pemerintahan Daerah,Rumah Dinas Iship Majene,"FX33+PHV, Jl. RA Kartini, Baru, Kec. Banggae, Kabupaten Majene, Sulawesi Barat","Kabupaten Majene, Sulawesi Barat",SULAWESI BARAT,,Indonesia,,,,-3.5456365,118.9539152,https://maps.google.com/?cid=0x0:0x881868f56a9c6102,
perumahan,Komplek perumahan,GRIYA CAHAYA MASANNANG 1 MAJENE,"Griya Cahaya Masannag 1, Lingk.Tunda, Kel, Labuang Utara, Kec. Banggae Tim., Kabupaten Majene, Sulawesi Barat 91412","Lingk.Tunda, Kel, Labuang Utara, Kec. Banggae Tim., Kabupaten Majene",SULAWESI BARAT,91412.0,Indonesia,,,,-3.5345427,118.9784377,https://maps.google.com/?cid=0x0:0x1cfea5e27e5b45e5,
perumahan,Komplek perumahan,Rumah Mempelai Perempuan,"FXM6+87W, Baruga, Kec. Banggae Tim., Kabupaten Majene, Sulawesi Barat 91411","Baruga, Kec. Banggae Tim., Kabupaten Majene",SULAWESI BARAT,91411.0,Indonesia,,,,-3.5166403,118.9606969,https://maps.google.com/?cid=0x0:0xebcc53b7f7f1657,
perumahan,Jasa Konstruksi dan Bangunan,Ilham,"FXJ6+7WV, Simullu, Baruga, Kec. Banggae Tim., Kabupaten Majene, Sulawesi Barat 91411","Simullu, Baruga, Kec. Banggae Tim., Kabupaten Majene",SULAWESI BARAT,91411.0,Indonesia,82191370949.0,,,-3.5192597,118.9622975,https://maps.google.com/?cid=0x0:0x5a7bbd0878fbe1b6,
perumahan,Komplek perumahan,Ruapiolo house,"FXFC+M93, Ling. Galung Utara, Banggae, Kec. Banggae, Kabupaten Majene, Sulawesi Barat 91412","Ling. Galung Utara, Banggae, Kec. Banggae, Kabupaten Majene",SULAWESI BARAT,91412.0,Indonesia,,,,-3.525857,118.970913,https://maps.google.com/?cid=0x0:0xf79776f9be12bb08,
perumahan,Otoritas Perumahan,perumahan pesona talumung permai,"FX7Q+H3C Tim, Baurung, Kec. Banggae Tim., Kabupaten Majene, Sulawesi Barat 91412","Baurung, Kec. Banggae Tim., Kabupaten Majene",SULAWESI BARAT,91412.0,Indonesia,,,,-3.5360097,118.9881852,https://maps.google.com/?cid=0x0:0x29dc4b71519c2987,
perumahan,Rumah Kayu,Perum. Subsidi Tunda,"FX8H+49W, Unnamed Road, Baurung, Kec. Banggae Tim., Kabupaten Majene, Sulawesi Barat 91412","Unnamed Road, Baurung, Kec. Banggae Tim., Kabupaten Majene",SULAWESI BARAT,91412.0,Indonesia,,,,-3.53464,118.978458,https://maps.google.com/?cid=0x0:0x84b66718c00bb193,
perumahan,perumahan,Perumahan Amazone Residence,"FX34+754, Pangali-Ali, Kec. Banggae, Kabupaten Majene, Sulawesi Barat","Kabupaten Majene, Sulawesi Barat",SULAWESI BARAT,,Indonesia,,,,-3.5468698,118.9554719,https://maps.google.com/?cid=0x0:0x9a1cd38ff7ef255b,
perumahan,Komplek perumahan,Perumahan Griya Pesona Leppangan,"Jl. Poros Majene - Mamuju No.28, Totoli, Kec. Banggae, Kabupaten Majene, Sulawesi Barat 91415","Totoli, Kec. Banggae, Kabupaten Majene",SULAWESI BARAT,91415.0,Indonesia,,,,-3.5516134,118.9462354,https://maps.google.com/?cid=0x0:0x999c0ffb9181297d,
perumahan,Komplek perumahan,Cluster Ummi Rosna,"FX79+X96, Banggae, Kec. Banggae, Kabupaten Majene, Sulawesi Barat 91412","Banggae, Kec. Banggae, Kabupaten Majene",SULAWESI BARAT,91412.0,Indonesia,,,,-3.5349806,118.9683737,https://maps.google.com/?cid=0x0:0x87a2439f18a414bf,
perumahan,Komplek perumahan,PERUMAHAN AL-IKHLAS RESIDENCE MAJENE 2,"Lingkungan Leppe Kelurahan Lembang, Baurung, Kec. Banggae Tim., Kabupaten Majene, Sulawesi Barat 91412","Baurung, Kec. Banggae Tim., Kabupaten Majene",SULAWESI BARAT,91412.0,Indonesia,,,,-3.5518998,118.9862861,https://maps.google.com/?cid=0x0:0x72f3b7d9033e606a,
perumahan,Pembangunan Perumahan,Feelaâ€™s Home,"FXJ6+7WV, Simullu, Baruga, Kec. Banggae Tim., Kabupaten Majene, Sulawesi Barat 91411","Simullu, Baruga, Kec. Banggae Tim., Kabupaten Majene",SULAWESI BARAT,91411.0,Indonesia,,,,-3.5193593,118.9620916,https://maps.google.com/?cid=0x0:0xe2260392be445014,
perumahan,Perhimpunan Pengembang Perumahan,Majene,"GW5X+8F6, Baruga Dua, Kec. Banggae Tim., Kabupaten Majene, Sulawesi Barat","Kabupaten Majene, Sulawesi Barat",SULAWESI BARAT,,Indonesia,,,,-3.491711,118.9486501,https://maps.google.com/?cid=0x0:0x698fe91693e83970,
perumahan,perumahan,Rumah Fadlan,"GX45+22R, RT.005/rw111/RW.no 120, Baruga Dua, Kec. Banggae Tim., Kabupaten Majene, Sulawesi Barat","Kabupaten Majene, Sulawesi Barat",SULAWESI BARAT,,Indonesia,,,,-3.4948935,118.9575044,https://maps.google.com/?cid=0x0:0x74226ca753110ee4,
perumahan,Komplek perumahan,Kampung belajar islami,"FW6V+VXJ, Baru, Kec. Banggae, Kabupaten Majene, Sulawesi Barat 91415","Baru, Kec. Banggae, Kabupaten Majene",SULAWESI BARAT,91415.0,Indonesia,,,,-3.537794,118.9448819,https://maps.google.com/?cid=0x0:0x6c73aae9ca55a776,
perumahan,Pembangunan Perumahan,"Lorong Kanan Setelah Masjid, Sebelum Pesantren","FXP3+2MV, Baruga, Kec. Banggae Tim., Kabupaten Majene, Sulawesi Barat","Kabupaten Majene, Sulawesi Barat",SULAWESI BARAT,,Indonesia,,,,-3.5148885,118.9541855,https://maps.google.com/?cid=0x0:0xdae2a6a31795b0a9,
perumahan,Komplek perumahan,Pondok Basta,"FXC7+45G, Jl. Hertasning, Labuang, Kec. Banggae Tim., Kabupaten Majene, Sulawesi Barat 91411","Jl. Hertasning, Labuang, Kec. Banggae Tim., Kabupaten Majene",SULAWESI BARAT,91411.0,Indonesia,,,,-3.529687,118.9629533,https://maps.google.com/?cid=0x0:0xb090499be370c4a2,
perumahan,Komplek perumahan,Afzani Home,"CXVP+PF5, Jl. Lettu Moh. Yamin, Baurung, Kec. Banggae Tim., Kabupaten Majene, Sulawesi Barat 91411","Jl. Lettu Moh. Yamin, Baurung, Kec. Banggae Tim., Kabupaten Majene",SULAWESI BARAT,91411.0,Indonesia,,,,-3.5556976,118.9864451,https://maps.google.com/?cid=0x0:0x8677c0dfe39b05fd,
perumahan,Pembangunan Perumahan,Tadii mamuju,"Jalan Jendral Sudirman No.157, Baurung, Kec. Banggae Tim., Kabupaten Majene, Sulawesi Barat 91412","Baurung, Kec. Banggae Tim., Kabupaten Majene",SULAWESI BARAT,91412.0,Indonesia,,,,-3.5425617,118.941415,https://maps.google.com/?cid=0x0:0x1b2d0b80d3e9faa4,
perumahan,perumahan,Sulawesi Barat 91412,"Kabupaten Majene, Sulawesi Barat","Kabupaten Majene, Sulawesi Barat",SULAWESI BARAT,,Indonesia,,,,-3.5389571,118.9819731,https://maps.google.com/?cid=0x0:0x5b7ee02006e2dbbd,
perumahan,perumahan,Rumah Mude (Andi Mutmainnah Dewi),"FX5J+F4F, Baurung, Kec. Banggae Tim., Kabupaten Majene, Sulawesi Barat 91412","Baurung, Kec. Banggae Tim., Kabupaten Majene",SULAWESI BARAT,91412.0,Indonesia,,,,-3.5413201,118.9801137,https://maps.google.com/?cid=0x0:0x626990b515b7608e,
perumahan,Komplek perumahan,PERUMAHAN AL-IKHLAS RESIDENCE MAJENE 2,"Lingkungan Leppe Kelurahan Lembang, Baurung, Kec. Banggae Tim., Kabupaten Majene, Sulawesi Barat 91412","Baurung, Kec. Banggae Tim., Kabupaten Majene",SULAWESI BARAT,91412.0,Indonesia,,,,-3.5518998,118.9862861,https://maps.google.com/?cid=0x0:0x72f3b7d9033e606a,
perumahan,Komplek perumahan,Perumahan Anak KKB,"CXXR+973, Baurung, Kec. Banggae Tim., Kabupaten Majene, Sulawesi Barat 91412","Baurung, Kec. Banggae Tim., Kabupaten Majene",SULAWESI BARAT,91412.0,Indonesia,82334455667.0,,,-3.5516141,118.990685,https://maps.google.com/?cid=0x0:0x4434618b57674b69,
perumahan,,PERUMAHAN GRIYA CAHAYA MASANNANG 2 MAJENE,"FX8H+GHV, Lingk. Tunda Utara, Labuang, Kec. Banggae Tim., Kabupaten Majene, Sulawesi Barat 91412","Lingk. Tunda Utara, Labuang, Kec. Banggae Tim., Kabupaten Majene",SULAWESI BARAT,91412.0,Indonesia,81273558025.0,,,-3.5336481,118.9789345,https://maps.google.com/?cid=0x0:0xc5b27603b1550e38,
perumahan,Perumahan,Perumahan Shangri-La Majene,"FX9H+WHJ, Dekat, Baurung, Kec. Banggae Tim., Kabupaten Majene, Sulawesi Barat 91412","Dekat, Baurung, Kec. Banggae Tim., Kabupaten Majene",SULAWESI BARAT,91412.0,Indonesia,82188353277.0,,,-3.5301515,118.978898,https://maps.google.com/?cid=0x0:0x9473b92f00faed9f,
perumahan,Komplek perumahan,Perumahan Banggae Residence,"CXWQ+8F, Baurung, Kec. Banggae Tim., Kabupaten Majene, Sulawesi Barat","Kabupaten Majene, Sulawesi Barat",SULAWESI BARAT,,Indonesia,,,,-3.5532989,118.9891558,https://maps.google.com/?cid=0x0:0x44c2ee2dfc13cc27,
perumahan,Komplek perumahan,Kompleks Perumahan Lutang,"FX9W+27M, Jl. Jenderal Sudirman, Tande, Kec. Wonomulyo, Kabupaten Majene, Sulawesi Barat 91412","Jl. Jenderal Sudirman, Tande, Kec. Wonomulyo, Kabupaten Majene",SULAWESI BARAT,91412.0,Indonesia,,,,-3.5324023,118.9956764,https://maps.google.com/?cid=0x0:0x9483811bd2835672,
perumahan,Penginapan,Perumahan BTN Lembang Permai,"Pantai Munu, Baurung, Kec. Banggae Tim., Kabupaten Majene, Sulawesi Barat 91412","Baurung, Kec. Banggae Tim., Kabupaten Majene",SULAWESI BARAT,91412.0,Indonesia,,,,-3.551486,118.9875311,https://maps.google.com/?cid=0x0:0x411485cd7e7c7b3e,
perumahan,Perhimpunan Pengembang Perumahan,Kurir,"Jl. Rahmat Tamma, Baurung, Kec. Banggae Tim., Kabupaten Majene, Sulawesi Barat 91412","Baurung, Kec. Banggae Tim., Kabupaten Majene",SULAWESI BARAT,91412.0,Indonesia,,,,-3.5370432,118.9908232,https://maps.google.com/?cid=0x0:0x4546bcd859fb2dec,
perumahan,Rumah Kayu,Perum. Subsidi Tunda,"FX8H+49W, Unnamed Road, Baurung, Kec. Banggae Tim., Kabupaten Majene, Sulawesi Barat 91412","Unnamed Road, Baurung, Kec. Banggae Tim., Kabupaten Majene",SULAWESI BARAT,91412.0,Indonesia,,,,-3.53464,118.978458,https://maps.google.com/?cid=0x0:0x84b66718c00bb193,
perumahan,Komplek perumahan,Kompleks Perumahan ulumanda simpang 4,"FX4J+F24, Rusung Rusung Lembang, Labuang, Kec. Banggae Tim., Kabupaten Majene, Sulawesi Barat 91412","Rusung Rusung Lembang, Labuang, Kec. Banggae Tim., Kabupaten Majene",SULAWESI BARAT,91412.0,Indonesia,,,,-3.54387,118.9800765,https://maps.google.com/?cid=0x0:0x27807e693ce0528f,
perumahan,Otoritas Perumahan,perumahan pesona talumung permai,"FX7Q+H3C Tim, Baurung, Kec. Banggae Tim., Kabupaten Majene, Sulawesi Barat 91412","Baurung, Kec. Banggae Tim., Kabupaten Majene",SULAWESI BARAT,91412.0,Indonesia,,,,-3.5360097,118.9881852,https://maps.google.com/?cid=0x0:0x29dc4b71519c2987,
perumahan,Pembangunan Perumahan,LORONG BUNTU 2,"FX5J+497, Jl. Hertasning, Baurung, Kec. Banggae Tim., Kabupaten Majene, Sulawesi Barat 91412","Jl. Hertasning, Baurung, Kec. Banggae Tim., Kabupaten Majene",SULAWESI BARAT,91412.0,Indonesia,,,,-3.5422186,118.980929,https://maps.google.com/?cid=0x0:0x5c8dc717e562f8f5,
perumahan,Komplek perumahan,Kompleks BTN leppe,"CXXJ+H94, Baurung, Kec. Banggae Tim., Kabupaten Majene, Sulawesi Barat 91412","Baurung, Kec. Banggae Tim., Kabupaten Majene",SULAWESI BARAT,91412.0,Indonesia,85796455704.0,,,-3.5511093,118.9809409,https://maps.google.com/?cid=0x0:0xd06fe7a93c0830ca,
perumahan,Penginapan,Pesona Lembang Regency Majene,"FX4J+6MV, Baurung, Kec. Banggae Tim., Kabupaten Majene, Sulawesi Barat 91412","Baurung, Kec. Banggae Tim., Kabupaten Majene",SULAWESI BARAT,91412.0,Indonesia,82344949986.0,,,-3.5443845,118.9816829,https://maps.google.com/?cid=0x0:0x374842725a4150e0,
perumahan,Pembangunan Perumahan,Percetakan Purma,"Baurung, Kec. Banggae Tim., Kabupaten Majene, Sulawesi Barat 91412","Kec. Banggae Tim., Kabupaten Majene",SULAWESI BARAT,91412.0,Indonesia,,,,-3.5367509,118.9936646,https://maps.google.com/?cid=0x0:0x4556050fd2ea5815,
perumahan,Pembangunan Perumahan,IRHA SATRYA HOME,"FX6P+5JH, Lembang, Kec. Banggae Tim., Kabupaten Majene, Sulawesi Barat 91412","Lembang, Kec. Banggae Tim., Kabupaten Majene",SULAWESI BARAT,91412.0,Indonesia,,,,-3.5396479,118.9864679,https://maps.google.com/?cid=0x0:0xce80dfa3177d0f63,
perumahan,Pembangunan Perumahan,Pole Lembang Residence,"Baurung, Kec. Banggae Tim., Kabupaten Majene, Sulawesi Barat 91412","Kec. Banggae Tim., Kabupaten Majene",SULAWESI BARAT,91412.0,Indonesia,85343626432.0,,,-3.5475767,118.9862007,https://maps.google.com/?cid=0x0:0xad18a4e2a6732c14,
perumahan,Vila,"Muhiddin,S.sos","FX4M+6P7, Baurung, Kec. Banggae Tim., Kabupaten Majene, Sulawesi Barat 91412","Baurung, Kec. Banggae Tim., Kabupaten Majene",SULAWESI BARAT,91412.0,Indonesia,,,,-3.5444529,118.9843114,https://maps.google.com/?cid=0x0:0x4eb08465cfdb8c3c,
perumahan,Penginapan,Griya Lembang Permai,"FX4M+5R5, Komplek Griya Lembang Permai, Jalan Amd, Kel. Baurung, Kec. Banggae Timur, Baurung, Majane, Kabupaten Majene, Sulawesi Barat 91412","Komplek Griya Lembang Permai, Jalan Amd, Kel. Baurung, Kec. Banggae Timur, Baurung, Majane, Kabupaten Majene",SULAWESI BARAT,91412.0,Indonesia,81355632322.0,,,-3.5446232,118.9846215,https://maps.google.com/?cid=0x0:0x40ef36da1e1c1e66,
perumahan,Kantor Perusahaan,Perumahan Syariah Al Fath Hills Majene,"CXXM+7WM, Lingkungan Leppe Kelurahan Lembang, Baurung, Kec. Banggae Tim., Kabupaten Majene, Sulawesi Barat 91412","Lingkungan Leppe Kelurahan Lembang, Baurung, Kec. Banggae Tim., Kabupaten Majene",SULAWESI BARAT,91412.0,Indonesia,82293045981.0,,,-3.5517851,118.9848039,https://maps.google.com/?cid=0x0:0xb4270d5a996ae082,
perumahan,Pembangunan Perumahan,BTN.GRIYA TANAMPALI LEMBANG INDAH,"FX2Q+45X, Jl. LINGK. LEMBANG DHUA-BAURUNG KEL. LEMBANG, Baurung, Kec. Banggae Tim., KAB. MAJENE, Sulawesi Barat 91412","Jl. LINGK. LEMBANG DHUA-BAURUNG KEL. LEMBANG, Baurung, Kec. Banggae Tim., KAB. MAJENE",SULAWESI BARAT,91412.0,Indonesia,,,,-3.5496395,118.9879798,https://maps.google.com/?cid=0x0:0xe2b869625762e13e,
perumahan,Komplek perumahan,Puncak Sipakaraya Melus Jl.Surullah Poros Lembang Baurung Lingkungan Lembang Dhua,"FX4P+68X, Kelurahan Lembang, Kec. Banggae Tim., Kabupaten Majene, Sulawesi Barat 91412","Kelurahan Lembang, Kec. Banggae Tim., Kabupaten Majene",SULAWESI BARAT,91412.0,Indonesia,,,,-3.544392,118.9858717,https://maps.google.com/?cid=0x0:0x2a6c1ae3ec55b79b,
perumahan,Komplek perumahan,GRIYA CAHAYA MASANNANG 1 MAJENE,"Griya Cahaya Masannag 1, Lingk.Tunda, Kel, Labuang Utara, Kec. Banggae Tim., Kabupaten Majene, Sulawesi Barat 91412","Lingk.Tunda, Kel, Labuang Utara, Kec. Banggae Tim., Kabupaten Majene",SULAWESI BARAT,91412.0,Indonesia,,,,-3.5345427,118.9784377,https://maps.google.com/?cid=0x0:0x1cfea5e27e5b45e5,
perumahan,Penginapan,Griya pesona lembang majene,"Baurung, Kec. Banggae Tim., Kabupaten Majene, Sulawesi Barat 91412","Kec. Banggae Tim., Kabupaten Majene",SULAWESI BARAT,91412.0,Indonesia,,,,-3.542822,118.9894414,https://maps.google.com/?cid=0x0:0xebc5a33610abfe6,
perumahan,Otoritas Perumahan,BTN POLE LEMBANG,"FX4P+68X, Kelurahan Lembang, Kec. Banggae Tim., Kabupaten Majene, Sulawesi Barat 91412","Kelurahan Lembang, Kec. Banggae Tim., Kabupaten Majene",SULAWESI BARAT,91412.0,Indonesia,,,,-3.544392,118.9858717,https://maps.google.com/?cid=0x0:0xf0f18ae9c0138607,
perumahan,Pembangunan Perumahan,BTN Bumi Lembang Harapan,"FX6P+J47, Lembang, Kec. Banggae Tim., Kabupaten Majene, Sulawesi Barat 91412","Lembang, Kec. Banggae Tim., Kabupaten Majene",SULAWESI BARAT,91412.0,Indonesia,,,,-3.5384706,118.9853037,https://maps.google.com/?cid=0x0:0x59b014fd612a8e5c,
perumahan,Komplek perumahan,Aininnawa Home,"FX4H+JMH, Labuang, Kec. Banggae Tim., Kabupaten Majene, Sulawesi Barat 91412","Labuang, Kec. Banggae Tim., Kabupaten Majene",SULAWESI BARAT,91412.0,Indonesia,,,,-3.5434384,118.9792361,https://maps.google.com/?cid=0x0:0xd092a64df0a477fc,
perumahan,perumahan,Sulawesi Barat 91413,"Kabupaten Polewali Mandar, Sulawesi Barat","Kabupaten Polewali Mandar, Sulawesi Barat",SULAWESI BARAT,,Indonesia,,,,-3.4627787,118.9877942,https://maps.google.com/?cid=0x0:0x36c6611542b63c82,
perumahan,Komplek perumahan,Perumahan Banggae Residence,"CXWQ+8F, Baurung, Kec. Banggae Tim., Kabupaten Majene, Sulawesi Barat","Kabupaten Majene, Sulawesi Barat",SULAWESI BARAT,,Indonesia,,,,-3.5532989,118.9891558,https://maps.google.com/?cid=0x0:0x44c2ee2dfc13cc27,
perumahan,Komplek perumahan,PERUMAHAN AL-IKHLAS RESIDENCE MAJENE 2,"Lingkungan Leppe Kelurahan Lembang, Baurung, Kec. Banggae Tim., Kabupaten Majene, Sulawesi Barat 91412","Baurung, Kec. Banggae Tim., Kabupaten Majene",SULAWESI BARAT,91412.0,Indonesia,,,,-3.5518998,118.9862861,https://maps.google.com/?cid=0x0:0x72f3b7d9033e606a,
perumahan,Pembangunan Perumahan,Pole Lembang Residence,"Baurung, Kec. Banggae Tim., Kabupaten Majene, Sulawesi Barat 91412","Kec. Banggae Tim., Kabupaten Majene",SULAWESI BARAT,91412.0,Indonesia,85343626432.0,,,-3.5475767,118.9862007,https://maps.google.com/?cid=0x0:0xad18a4e2a6732c14,
perumahan,Kantor Perusahaan,Perumahan Syariah Al Fath Hills Majene,"CXXM+7WM, Lingkungan Leppe Kelurahan Lembang, Baurung, Kec. Banggae Tim., Kabupaten Majene, Sulawesi Barat 91412","Lingkungan Leppe Kelurahan Lembang, Baurung, Kec. Banggae Tim., Kabupaten Majene",SULAWESI BARAT,91412.0,Indonesia,82293045981.0,,,-3.5517851,118.9848039,https://maps.google.com/?cid=0x0:0xb4270d5a996ae082,
perumahan,Otoritas Perumahan,perumahan pesona talumung permai,"FX7Q+H3C Tim, Baurung, Kec. Banggae Tim., Kabupaten Majene, Sulawesi Barat 91412","Baurung, Kec. Banggae Tim., Kabupaten Majene",SULAWESI BARAT,91412.0,Indonesia,,,,-3.5360097,118.9881852,https://maps.google.com/?cid=0x0:0x29dc4b71519c2987,
perumahan,Komplek perumahan,Perumahan Anak KKB,"CXXR+973, Baurung, Kec. Banggae Tim., Kabupaten Majene, Sulawesi Barat 91412","Baurung, Kec. Banggae Tim., Kabupaten Majene",SULAWESI BARAT,91412.0,Indonesia,82334455667.0,,,-3.5516141,118.990685,https://maps.google.com/?cid=0x0:0x4434618b57674b69,
perumahan,Pembangunan Perumahan,Perumahan Bukit Pappota Permai,"FX4H+PJC, Tim.,, Labuang, Kec. Banggae Tim., Kabupaten Majene, Sulawesi Barat 91412","Tim.,, Labuang, Kec. Banggae Tim., Kabupaten Majene",SULAWESI BARAT,91412.0,Indonesia,81342222268.0,,,-3.5431967,118.9790084,https://maps.google.com/?cid=0x0:0x10f7fef6dc7108e9,
perumahan,Komplek perumahan,Kompleks Perumahan ulumanda simpang 4,"FX4J+F24, Rusung Rusung Lembang, Labuang, Kec. Banggae Tim., Kabupaten Majene, Sulawesi Barat 91412","Rusung Rusung Lembang, Labuang, Kec. Banggae Tim., Kabupaten Majene",SULAWESI BARAT,91412.0,Indonesia,,,,-3.54387,118.9800765,https://maps.google.com/?cid=0x0:0x27807e693ce0528f,
perumahan,Pembangunan Perumahan,Perumahan Lutang no. 48,"FX8W+V9Q Perumahan lutang, Tande, Kec. Banggae Tim., Kabupaten Majene, Sulawesi Barat","Kabupaten Majene, Sulawesi Barat",SULAWESI BARAT,,Indonesia,,,,-3.532799,118.9959995,https://maps.google.com/?cid=0x0:0xf9e588505da9ffc9,
perumahan,Masjid,Muhajirin,"FXPH+HQC, Tande, Kec. Banggae Tim., Kabupaten Majene, Sulawesi Barat 91413","Tande, Kec. Banggae Tim., Kabupaten Majene",SULAWESI BARAT,91413.0,Indonesia,85282972597.0,,,-3.5135562,118.9793982,https://maps.google.com/?cid=0x0:0x4adf57861a01cf99,
perumahan,perumahan,Perumahan Griya Cahaya MASANNANG 4 Majene,"FXFV+W24, Tande, Kec. Banggae Tim., Kabupaten Majene, Sulawesi Barat","Kabupaten Majene, Sulawesi Barat",SULAWESI BARAT,,Indonesia,81273558025.0,,,-3.5252332,118.9925923,https://maps.google.com/?cid=0x0:0xb0578d1c9cabff62,
perumahan,Komplek perumahan,GRIYA CAHAYA MASANNANG 1 MAJENE,"Griya Cahaya Masannag 1, Lingk.Tunda, Kel, Labuang Utara, Kec. Banggae Tim., Kabupaten Majene, Sulawesi Barat 91412","Lingk.Tunda, Kel, Labuang Utara, Kec. Banggae Tim., Kabupaten Majene",SULAWESI BARAT,91412.0,Indonesia,,,,-3.5345427,118.9784377,https://maps.google.com/?cid=0x0:0x1cfea5e27e5b45e5,
perumahan,,PERUMAHAN GRIYA CAHAYA MASANNANG 2 MAJENE,"FX8H+GHV, Lingk. Tunda Utara, Labuang, Kec. Banggae Tim., Kabupaten Majene, Sulawesi Barat 91412","Lingk. Tunda Utara, Labuang, Kec. Banggae Tim., Kabupaten Majene",SULAWESI BARAT,91412.0,Indonesia,81273558025.0,,,-3.5336481,118.9789345,https://maps.google.com/?cid=0x0:0xc5b27603b1550e38,
perumahan,perumahan,Rumah Mude (Andi Mutmainnah Dewi),"FX5J+F4F, Baurung, Kec. Banggae Tim., Kabupaten Majene, Sulawesi Barat 91412","Baurung, Kec. Banggae Tim., Kabupaten Majene",SULAWESI BARAT,91412.0,Indonesia,,,,-3.5413201,118.9801137,https://maps.google.com/?cid=0x0:0x626990b515b7608e,
perumahan,Komplek perumahan,BTN VILLAMAS MAJENE,"Tande, Kec. Banggae Tim., Kabupaten Majene, Sulawesi Barat 91412","Kec. Banggae Tim., Kabupaten Majene",SULAWESI BARAT,91412.0,Indonesia,,,,-3.5330659,118.9944687,https://maps.google.com/?cid=0x0:0x2e10fcd68cba1e2c,
perumahan,Komplek perumahan,Posko KKN Unsulbar,"FXW9+CG, Tande, Kec. Banggae Tim., Kabupaten Majene, Sulawesi Barat 91413","Tande, Kec. Banggae Tim., Kabupaten Majene",SULAWESI BARAT,91413.0,Indonesia,85824386706.0,,,-3.5038973,118.9687613,https://maps.google.com/?cid=0x0:0x44a6c32ec0d51996,
perumahan,Pembangunan Perumahan,ANAYA RESIDENCE,"FXH8+HRX, Unnamed Road, Banggae, Kec. Banggae, Kabupaten Majene, Sulawesi Barat 91413","Unnamed Road, Banggae, Kec. Banggae, Kabupaten Majene",SULAWESI BARAT,91413.0,Indonesia,,,,-3.5210128,118.9670996,https://maps.google.com/?cid=0x0:0xc976f7d34cffaeba,
perumahan,perumahan,Rumah Fadlan,"GX45+22R, RT.005/rw111/RW.no 120, Baruga Dua, Kec. Banggae Tim., Kabupaten Majene, Sulawesi Barat","Kabupaten Majene, Sulawesi Barat",SULAWESI BARAT,,Indonesia,,,,-3.4948935,118.9575044,https://maps.google.com/?cid=0x0:0x74226ca753110ee4,
perumahan,Penginapan,Griya Lembang Permai,"FX4M+5R5, Komplek Griya Lembang Permai, Jalan Amd, Kel. Baurung, Kec. Banggae Timur, Baurung, Majane, Kabupaten Majene, Sulawesi Barat 91412","Komplek Griya Lembang Permai, Jalan Amd, Kel. Baurung, Kec. Banggae Timur, Baurung, Majane, Kabupaten Majene",SULAWESI BARAT,91412.0,Indonesia,81355632322.0,,,-3.5446232,118.9846215,https://maps.google.com/?cid=0x0:0x40ef36da1e1c1e66,
perumahan,Pembangunan Perumahan,Perumahan Mattangnga Land,"FX9V+7VX, Tande, Kec. Banggae Tim., Kabupaten Majene, Sulawesi Barat","Kabupaten Majene, Sulawesi Barat",SULAWESI BARAT,,Indonesia,82193294249.0,,,-3.5317745,118.9941651,https://maps.google.com/?cid=0x0:0x20419153698e57d7,
perumahan,perumahan,BTN paka kita,"FX9X+MPR, Jl. Poros Majene - Mamuju, Tande, Kec. Banggae Tim., Kabupaten Majene, Sulawesi Barat 91412","Jl. Poros Majene - Mamuju, Tande, Kec. Banggae Tim., Kabupaten Majene",SULAWESI BARAT,91412.0,Indonesia,,,,-3.5308984,118.9994488,https://maps.google.com/?cid=0x0:0x258cd9cc8a64c8ec,
perumahan,Penginapan,Perumahan BTN Lembang Permai,"Pantai Munu, Baurung, Kec. Banggae Tim., Kabupaten Majene, Sulawesi Barat 91412","Baurung, Kec. Banggae Tim., Kabupaten Majene",SULAWESI BARAT,91412.0,Indonesia,,,,-3.551486,118.9875311,https://maps.google.com/?cid=0x0:0x411485cd7e7c7b3e,
perumahan,Komplek perumahan,Lutang,"FX8W+29C, Perum Villamas Blok C11, Tande, Kec. Banggae Tim., Kabupaten Majene, Sulawesi Barat 91412","Perum Villamas Blok C11, Tande, Kec. Banggae Tim., Kabupaten Majene",SULAWESI BARAT,91412.0,Indonesia,,,,-3.533265,118.9940167,https://maps.google.com/?cid=0x0:0x14c929d0b9d3a7dd,
perumahan,Komplek perumahan,Rumahku syahmah,"FXM6+583, Baruga, Kec. Banggae Tim., Kabupaten Majene, Sulawesi Barat 91411","Baruga, Kec. Banggae Tim., Kabupaten Majene",SULAWESI BARAT,91411.0,Indonesia,,,,-3.5171078,118.9607951,https://maps.google.com/?cid=0x0:0x15fc0f8e240cc503,
perumahan,Komplek perumahan,Rumah Mempelai Perempuan,"FXM6+87W, Baruga, Kec. Banggae Tim., Kabupaten Majene, Sulawesi Barat 91411","Baruga, Kec. Banggae Tim., Kabupaten Majene",SULAWESI BARAT,91411.0,Indonesia,,,,-3.5166403,118.9606969,https://maps.google.com/?cid=0x0:0xebcc53b7f7f1657,
perumahan,Komplek perumahan,Pondok Indah Mertua,"FXPJ+CW7, Tande, Kec. Banggae Tim., Kabupaten Majene, Sulawesi Barat 91413","Tande, Kec. Banggae Tim., Kabupaten Majene",SULAWESI BARAT,91413.0,Indonesia,,,,-3.5148399,118.9813489,https://maps.google.com/?cid=0x0:0xa79d13a96ed251db,
perumahan,Peternakan,Bina Lestari Farmers group,"GX66+QWJ Puawang, Baruga Dua, Kec. Banggae Tim., Kabupaten Majene, Sulawesi Barat","Kabupaten Majene, Sulawesi Barat",SULAWESI BARAT,,Indonesia,,,,-3.4880345,118.9622572,https://maps.google.com/?cid=0x0:0x3a5ec666e0e83f3a,
perumahan,Pembangunan Perumahan,IRPOM,"FXQV+46, Tande, Kec. Banggae Tim., Kabupaten Majene, Sulawesi Barat","Kabupaten Majene, Sulawesi Barat",SULAWESI BARAT,,Indonesia,,,,-3.5121967,118.993096,https://maps.google.com/?cid=0x0:0x8efea44f44fed097,
perumahan,perumahan,Sulawesi Barat 91414,"Kec. Banggae Tim., Kabupaten Majene, Sulawesi Barat","Kabupaten Majene, Sulawesi Barat",SULAWESI BARAT,,Indonesia,,,,-3.504363,118.9470422,https://maps.google.com/?cid=0x0:0xa2a58b17ca1668be,
perumahan,Komplek perumahan,Rumahku syahmah,"FXM6+583, Baruga, Kec. Banggae Tim., Kabupaten Majene, Sulawesi Barat 91411","Baruga, Kec. Banggae Tim., Kabupaten Majene",SULAWESI BARAT,91411.0,Indonesia,,,,-3.5171078,118.9607951,https://maps.google.com/?cid=0x0:0x15fc0f8e240cc503,
perumahan,perumahan,Rumah Fadlan,"GX45+22R, RT.005/rw111/RW.no 120, Baruga Dua, Kec. Banggae Tim., Kabupaten Majene, Sulawesi Barat","Kabupaten Majene, Sulawesi Barat",SULAWESI BARAT,,Indonesia,,,,-3.4948935,118.9575044,https://maps.google.com/?cid=0x0:0x74226ca753110ee4,
perumahan,Komplek perumahan,Rumah Mempelai Perempuan,"FXM6+87W, Baruga, Kec. Banggae Tim., Kabupaten Majene, Sulawesi Barat 91411","Baruga, Kec. Banggae Tim., Kabupaten Majene",SULAWESI BARAT,91411.0,Indonesia,,,,-3.5166403,118.9606969,https://maps.google.com/?cid=0x0:0xebcc53b7f7f1657,
perumahan,Masjid,Muhajirin,"FXPH+HQC, Tande, Kec. Banggae Tim., Kabupaten Majene, Sulawesi Barat 91413","Tande, Kec. Banggae Tim., Kabupaten Majene",SULAWESI BARAT,91413.0,Indonesia,85282972597.0,,,-3.5135562,118.9793982,https://maps.google.com/?cid=0x0:0x4adf57861a01cf99,
perumahan,Peternakan,Bina Lestari Farmers group,"GX66+QWJ Puawang, Baruga Dua, Kec. Banggae Tim., Kabupaten Majene, Sulawesi Barat","Kabupaten Majene, Sulawesi Barat",SULAWESI BARAT,,Indonesia,,,,-3.4880345,118.9622572,https://maps.google.com/?cid=0x0:0x3a5ec666e0e83f3a,
perumahan,Perhimpunan Pengembang Perumahan,Majene,"GW5X+8F6, Baruga Dua, Kec. Banggae Tim., Kabupaten Majene, Sulawesi Barat","Kabupaten Majene, Sulawesi Barat",SULAWESI BARAT,,Indonesia,,,,-3.491711,118.9486501,https://maps.google.com/?cid=0x0:0x698fe91693e83970,
perumahan,Pembangunan Perumahan,"Lorong Kanan Setelah Masjid, Sebelum Pesantren","FXP3+2MV, Baruga, Kec. Banggae Tim., Kabupaten Majene, Sulawesi Barat","Kabupaten Majene, Sulawesi Barat",SULAWESI BARAT,,Indonesia,,,,-3.5148885,118.9541855,https://maps.google.com/?cid=0x0:0xdae2a6a31795b0a9,
perumahan,Pembangunan Perumahan,Posko KKN BARUGA DHUA XXII,"GX25+QQX, Baruga Dua, Kec. Banggae Tim., Kabupaten Majene, Sulawesi Barat","Kabupaten Majene, Sulawesi Barat",SULAWESI BARAT,,Indonesia,,,,-3.4980683,118.9594998,https://maps.google.com/?cid=0x0:0x696e2e359a5065f6,
perumahan,Jasa Konstruksi dan Bangunan,Ilham,"FXJ6+7WV, Simullu, Baruga, Kec. Banggae Tim., Kabupaten Majene, Sulawesi Barat 91411","Simullu, Baruga, Kec. Banggae Tim., Kabupaten Majene",SULAWESI BARAT,91411.0,Indonesia,82191370949.0,,,-3.5192597,118.9622975,https://maps.google.com/?cid=0x0:0x5a7bbd0878fbe1b6,
perumahan,Pembangunan Perumahan,Feelaâ€™s Home,"FXJ6+7WV, Simullu, Baruga, Kec. Banggae Tim., Kabupaten Majene, Sulawesi Barat 91411","Simullu, Baruga, Kec. Banggae Tim., Kabupaten Majene",SULAWESI BARAT,91411.0,Indonesia,,,,-3.5193593,118.9620916,https://maps.google.com/?cid=0x0:0xe2260392be445014,
perumahan,Perhimpunan Pengembang Perumahan,Syamsuddin,"GX85+3W8 PUAWANG, Baruga Dua, Kec. Banggae Tim., juga, Sulawesi Barat","juga, Sulawesi Barat",SULAWESI BARAT,,Indonesia,,,,-3.4848327,118.9598159,https://maps.google.com/?cid=0x0:0x53347424375dfe1f,
perumahan,Komplek perumahan,Posko KKN Unsulbar,"FXW9+CG, Tande, Kec. Banggae Tim., Kabupaten Majene, Sulawesi Barat 91413","Tande, Kec. Banggae Tim., Kabupaten Majene",SULAWESI BARAT,91413.0,Indonesia,85824386706.0,,,-3.5038973,118.9687613,https://maps.google.com/?cid=0x0:0x44a6c32ec0d51996,
perumahan,perumahan,Rumah M.Abrar(Ci Cy),"Segeri Buttu Baruga, Baruga Dua, Kec. Banggae Tim., Kabupaten Majene, Sulawesi Barat","Kabupaten Majene, Sulawesi Barat",SULAWESI BARAT,,Indonesia,,,,-3.5035085,118.9609247,https://maps.google.com/?cid=0x0:0xe05634ee9bcd289d,
perumahan,Komplek perumahan,Ruapiolo house,"FXFC+M93, Ling. Galung Utara, Banggae, Kec. Banggae, Kabupaten Majene, Sulawesi Barat 91412","Ling. Galung Utara, Banggae, Kec. Banggae, Kabupaten Majene",SULAWESI BARAT,91412.0,Indonesia,,,,-3.525857,118.970913,https://maps.google.com/?cid=0x0:0xf79776f9be12bb08,
perumahan,Area Mendaki,Rumah kepala lingkungan segeri,"GX26+VHM, Baruga Dua, Kec. Banggae Tim., Kabupaten Majene, Sulawesi Barat 91413","Baruga Dua, Kec. Banggae Tim., Kabupaten Majene",SULAWESI BARAT,91413.0,Indonesia,83852265095.0,,,-3.4977999,118.9614327,https://maps.google.com/?cid=0x0:0xbb59e2294c3c58a0,
perumahan,Pembangunan Perumahan,Venamula (TNT.LND.TND),"FXP7+FJ2, Baruga, Kec. Banggae Tim., Kabupaten Majene, Sulawesi Barat","Kabupaten Majene, Sulawesi Barat",SULAWESI BARAT,,Indonesia,,,,-3.5138568,118.9640248,https://maps.google.com/?cid=0x0:0x4415eab6cca948de,
perumahan,Komplek perumahan,Rumah PaPa Bia,"FWPW+MRF, Baruga, Kec. Banggae Tim., Kabupaten Majene, Sulawesi Barat","Kabupaten Majene, Sulawesi Barat",SULAWESI BARAT,,Indonesia,,,,-3.5133066,118.9470422,https://maps.google.com/?cid=0x0:0xb7b94aa5a4596911,
perumahan,Toko,RUMAH PARANG MANDAR MAJENE (BASRI.C),"FWJM+687, Baru, Kec. Banggae, Kabupaten Majene, Sulawesi Barat 91415","Baru, Kec. Banggae, Kabupaten Majene",SULAWESI BARAT,91415.0,Indonesia,82228882225.0,,,-3.5194731,118.9333018,https://maps.google.com/?cid=0x0:0xbc776848e05ab1ed,
perumahan,Pembangunan Perumahan,Tanah Binuang,"FXG9+H2C, Banggae, Kec. Banggae, Kabupaten Majene, Sulawesi Barat 91412","Banggae, Kec. Banggae, Kabupaten Majene",SULAWESI BARAT,91412.0,Indonesia,,,,-3.5239361,118.9678123,https://maps.google.com/?cid=0x0:0xe9d77a7d723840b,
perumahan,Rumah Kayu,Mandar Family,"GX76+C8F, Baruga Dua, Kec. Banggae Tim., Kabupaten Majene, Sulawesi Barat 91414","Baruga Dua, Kec. Banggae Tim., Kabupaten Majene",SULAWESI BARAT,91414.0,Indonesia,85145407832.0,,,-3.4864168,118.9607563,https://maps.google.com/?cid=0x0:0x623cc804bee36dce,
perumahan,Perguruan Tinggi,Rumah Seni Majene,"FXP6+266, Baruga, Kec. Banggae Tim., Kabupaten Majene, Sulawesi Barat","Kabupaten Majene, Sulawesi Barat",SULAWESI BARAT,,Indonesia,,,,-3.5149585,118.960513,https://maps.google.com/?cid=0x0:0x616298a889c7b2d,
perumahan,perumahan,Kec. Malunda,"Kabupaten Majene, Sulawesi Barat","Kabupaten Majene, Sulawesi Barat",SULAWESI BARAT,,Indonesia,,,,-3.0144575,118.8580249,https://maps.google.com/?cid=0x0:0x4b00fe7a2d4d1176,
perumahan,Perhimpunan Pengembang Perumahan,Desa Lombang Kec.Malunda Kab.Majene Provinsi Sulawesi Barat,"Lombang, Kec. Malunda, Kabupaten Majene, Sulawesi Barat","Kabupaten Majene, Sulawesi Barat",SULAWESI BARAT,,Indonesia,87763015732.0,,,-3.0047223,118.8883969,https://maps.google.com/?cid=0x0:0x623a8d44d250e9e2,
perumahan,Perumahan,Babalombi,"X2XR+Q7Q, Lombang, Kec. Malunda, Kabupaten Majene, Sulawesi Barat 91453","Lombang, Kec. Malunda, Kabupaten Majene",SULAWESI BARAT,91453.0,Indonesia,,,,-3.0005333,119.0407445,https://maps.google.com/?cid=0x0:0x5f4e892d3d53963f,
perumahan,Komplek perumahan,Malatewa,"2VJC+JWQ, Mekkatta, Kec. Malunda, Kabupaten Majene, Sulawesi Barat 91453","Mekkatta, Kec. Malunda, Kabupaten Majene",SULAWESI BARAT,91453.0,Indonesia,,,,-2.9684153,118.8723566,https://maps.google.com/?cid=0x0:0xf907f6980bf41451,
perumahan,Kantor Perusahaan,Mms Malunda,"XVQ4+X9G, Malunda, Kec. Malunda, Kabupaten Majene, Sulawesi Barat 91453","Malunda, Kec. Malunda, Kabupaten Majene",SULAWESI BARAT,91453.0,Indonesia,,,,-3.0094094,118.8558144,https://maps.google.com/?cid=0x0:0x6f8dd05e149978dc,
perumahan,Pembangunan Perumahan,Icha,"2V55+MXC, Malunda, Kec. Malunda, Kabupaten Majene, Sulawesi Barat 91453","Malunda, Kec. Malunda, Kabupaten Majene",SULAWESI BARAT,91453.0,Indonesia,,,,-2.990807,118.860156,https://maps.google.com/?cid=0x0:0x36996409ad009aad,
perumahan,Komplek perumahan,Sri Susanti,"2V6F+F32, Jl. Durian, Malunda, Kec. Malunda, Kabupaten Majene, Sulawesi Barat 91453","Jl. Durian, Malunda, Kec. Malunda, Kabupaten Majene",SULAWESI BARAT,91453.0,Indonesia,,,,-2.9888633,118.8726527,https://maps.google.com/?cid=0x0:0x7241928bdab6d725,
perumahan,Pembangunan Perumahan,Mata urang,"2VC8+P3V, Malunda, Kec. Malunda, Kabupaten Majene, Sulawesi Barat 91453","Malunda, Kec. Malunda, Kabupaten Majene",SULAWESI BARAT,91453.0,Indonesia,,,,-2.9781403,118.865163,https://maps.google.com/?cid=0x0:0x9539d89c4f23a1e8,
perumahan,Pembangunan Perumahan,Arfah,"XVQ4+C29, Jl. Pelabuhan, Malunda, Kec. Malunda, Kabupaten Majene, Sulawesi Barat 91453","Jl. Pelabuhan, Malunda, Kec. Malunda, Kabupaten Majene",SULAWESI BARAT,91453.0,Indonesia,,,,-3.011488,118.8551228,https://maps.google.com/?cid=0x0:0xab512b8950c30efc,
perumahan,Komplek perumahan,Muh jefri,"XVP5+66R, Malunda, Kec. Malunda, Kabupaten Majene, Sulawesi Barat 91453","Malunda, Kec. Malunda, Kabupaten Majene",SULAWESI BARAT,91453.0,Indonesia,,,,-3.0143773,118.8580281,https://maps.google.com/?cid=0x0:0x3c8efe9191efa0c5,
perumahan,Komplek perumahan,Ayub,"2V74+GH3, Malunda, Kec. Malunda, Kabupaten Majene, Sulawesi Barat 91453","Malunda, Kec. Malunda, Kabupaten Majene",SULAWESI BARAT,91453.0,Indonesia,,,,-2.986236,118.856252,https://maps.google.com/?cid=0x0:0x9af197e243438154,
perumahan,Komplek perumahan,Dito,"XVR4+CGH, Jl. Cendana, Malunda, Kec. Malunda, Kabupaten Majene, Sulawesi Barat 91453","Jl. Cendana, Malunda, Kec. Malunda, Kabupaten Majene",SULAWESI BARAT,91453.0,Indonesia,,,,-3.0089473,118.856372,https://maps.google.com/?cid=0x0:0xf2e32dd9c30cd144,
perumahan,perumahan,Rmh gw,"2V5H+46C, Malunda, Kec. Malunda, Kabupaten Majene, Sulawesi Barat 91453","Malunda, Kec. Malunda, Kabupaten Majene",SULAWESI BARAT,91453.0,Indonesia,,,,-2.9921842,118.8780284,https://maps.google.com/?cid=0x0:0xea1c6b6e8677325c,
perumahan,Komplek perumahan,Rumahnya Linda,"2VJ6+2X6, Mekkatta, Kec. Malunda, Kabupaten Majene, Sulawesi Barat 91453","Mekkatta, Kec. Malunda, Kabupaten Majene",SULAWESI BARAT,91453.0,Indonesia,,,,-2.9692015,118.8620831,https://maps.google.com/?cid=0x0:0x23db8a5fc19d0458,
perumahan,Pembangunan Perumahan,Kediaman Fira,"XVJ6+42P, Jl. Poros Majene - Mamuju, Malunda, Kec. Malunda, Kabupaten Majene, Sulawesi Barat 91453","Jl. Poros Majene - Mamuju, Malunda, Kec. Malunda, Kabupaten Majene",SULAWESI BARAT,91453.0,Indonesia,,,,-3.0194471,118.8601069,https://maps.google.com/?cid=0x0:0x3f19dc3d01393c9a,
perumahan,Pembangunan Perumahan,Rumah MKH,"2VJ7+R5J, Mekkatta, Kec. Malunda, Kabupaten Majene, Sulawesi Barat 91453","Mekkatta, Kec. Malunda, Kabupaten Majene",SULAWESI BARAT,91453.0,Indonesia,,,,-2.9683541,118.8631885,https://maps.google.com/?cid=0x0:0x3ca2fb0a7ec155ad,
perumahan,Komplek perumahan,Posko gempa Rahmat Sophyan,"XVW9+JPM, Malunda, Kec. Malunda, Kabupaten Majene, Sulawesi Barat 91453","Malunda, Kec. Malunda, Kabupaten Majene",SULAWESI BARAT,91453.0,Indonesia,82315450392.0,,,-3.0034166,118.8692933,https://maps.google.com/?cid=0x0:0x8becca1aa5657a2c,
perumahan,Komplek perumahan,Pao pao,"XVP5+66M, Malunda, Kec. Malunda, Kabupaten Majene, Sulawesi Barat 91453","Malunda, Kec. Malunda, Kabupaten Majene",SULAWESI BARAT,91453.0,Indonesia,,,,-3.0144073,118.8580529,https://maps.google.com/?cid=0x0:0xe7fe83a686ab2dee,
perumahan,Komplek perumahan,Sasende. Dhua,"Sasende dhua, Malunda, Kec. Malunda, Kabupaten Majene, Sulawesi Barat 91453","Malunda, Kec. Malunda, Kabupaten Majene",SULAWESI BARAT,91453.0,Indonesia,,,,-3.0111867,118.8559833,https://maps.google.com/?cid=0x0:0x853120d9fc54d745,
perumahan,Pembangunan Perumahan,Rattepunaga,"2VWC+Q6G, Rattepunaga, Bambangan, Mekkatta, Kec. Malunda, Kabupaten Majene, Sulawesi Barat 91453","Rattepunaga, Bambangan, Mekkatta, Kec. Malunda, Kabupaten Majene",SULAWESI BARAT,91453.0,Indonesia,,,,-2.9530625,118.8705658,https://maps.google.com/?cid=0x0:0xb9abffca8cea633d,
perumahan,Komplek perumahan,Pole Lembang Residence Blok C No. 23,"XWC4+4G2, Lombang, Kec. Malunda, Kabupaten Majene, Sulawesi Barat","Kabupaten Majene, Sulawesi Barat",SULAWESI BARAT,,Indonesia,,,,-3.0297251,118.9062794,https://maps.google.com/?cid=0x0:0xd801618ee8bc011b,
perumahan,perumahan,Sulawesi Barat 91451,"Kec. Pamboang, Kabupaten Majene, Sulawesi Barat","Kabupaten Majene, Sulawesi Barat",SULAWESI BARAT,,Indonesia,,,,-3.4651099,118.917927,https://maps.google.com/?cid=0x0:0x284e3301f580930a,
perumahan,Tujuan Wisata,Pamboang,"GV4W+5HM, Lalampanua, Kec. Pamboang, Kabupaten Majene, Sulawesi Barat","Kabupaten Majene, Sulawesi Barat",SULAWESI BARAT,,Indonesia,,,,-3.4945295,118.896417,https://maps.google.com/?cid=0x0:0x36d7e57607a8170f,
perumahan,Komplek perumahan,Dusun siiyang,"HVHW+G49, Adolang, Kec. Pamboang, Kabupaten Majene, Sulawesi Barat 91451","Adolang, Kec. Pamboang, Kabupaten Majene",SULAWESI BARAT,91451.0,Indonesia,,,,-3.4214572,118.8952476,https://maps.google.com/?cid=0x0:0x9fcca60f7a66caa,
perumahan,Komplek perumahan,Mujiba,"FWQ2+8FQ, Bababulo, Kec. Pamboang, Kabupaten Majene, Sulawesi Barat 91451","Bababulo, Kec. Pamboang, Kabupaten Majene",SULAWESI BARAT,91451.0,Indonesia,,,,-3.5116542,118.9012322,https://maps.google.com/?cid=0x0:0x1a47bd8b30d06a32,
perumahan,perumahan,ERWIN,"GV9R+GVX, Jl. Poros Majene - Mamuju, Lalampanua, Kec. Pamboang, Kabupaten Majene, Sulawesi Barat 91451","Jl. Poros Majene - Mamuju, Lalampanua, Kec. Pamboang, Kabupaten Majene",SULAWESI BARAT,91451.0,Indonesia,,,,-3.4811217,118.8922571,https://maps.google.com/?cid=0x0:0xa955467cba6364a5,
perumahan,Komplek perumahan,Cio,"GV6X+C3H, Lalampanua, Kec. Pamboang, Kabupaten Majene, Sulawesi Barat 91451","Lalampanua, Kec. Pamboang, Kabupaten Majene",SULAWESI BARAT,91451.0,Indonesia,,,,-3.4889356,118.898356,https://maps.google.com/?cid=0x0:0xc8e22b4baa727a0a,
perumahan,perumahan,Zhand,"HV4H+7RJ, Sirindu, Kec. Pamboang, Kabupaten Majene, Sulawesi Barat","Kabupaten Majene, Sulawesi Barat",SULAWESI BARAT,,Indonesia,,,,-3.4442783,118.8795047,https://maps.google.com/?cid=0x0:0x83986dd39922beaa,
perumahan,perumahan,Pumbalanu,"HW9X+4WJ, Kalumammang, Alu, Kabupaten Polewali Mandar, Sulawesi Barat 96365","Kalumammang, Alu, Kabupaten Polewali Mandar",SULAWESI BARAT,96365.0,Indonesia,,,,-3.432892,118.9505201,https://maps.google.com/?cid=0x0:0x7afd714b90462166,
perumahan,Makanan Siap Saji,RUMAH MAKAN DAPUR MANDAR,"JL. HASANUDDIN, LINGK. GALUNG-GALUNG, Lalampanua, Kec. Pamboang, Kabupaten Majene, Sulawesi Barat 91451","LINGK. GALUNG-GALUNG, Lalampanua, Kec. Pamboang, Kabupaten Majene",SULAWESI BARAT,91451.0,Indonesia,85256096346.0,,,-3.4899972,118.8963188,https://maps.google.com/?cid=0x0:0x8a06db4fedfbfb98,
perumahan,Komplek perumahan,Najamuddin's,"GV6W+6JG, Jl. Hasanuddin, Lalampanua, Kec. Pamboang, Kabupaten Majene, Sulawesi Barat 91451","Jl. Hasanuddin, Lalampanua, Kec. Pamboang, Kabupaten Majene",SULAWESI BARAT,91451.0,Indonesia,,,,-3.4894259,118.8965891,https://maps.google.com/?cid=0x0:0x3c282c67055956d2,
perumahan,Perhimpunan Pengembang Perumahan,Lingk. Pesa'i,"GV4W+5HM, Lalampanua, Kec. Pamboang, Kabupaten Majene, Sulawesi Barat","Kabupaten Majene, Sulawesi Barat",SULAWESI BARAT,,Indonesia,,,,-3.4945294,118.896417,https://maps.google.com/?cid=0x0:0x4c32d681a1aae6a4,
perumahan,Komplek perumahan,Perdos Griya Utama Residence,"FW5Q+4X8 Desa Pamboborang, Totoli, Kec. Banggae, Kabupaten Majene, Sulawesi Barat 91415","Totoli, Kec. Banggae, Kabupaten Majene",SULAWESI BARAT,91415.0,Indonesia,,,,-3.5422249,118.9399462,https://maps.google.com/?cid=0x0:0xb638c300e13200e4,
perumahan,Komplek perumahan,Adolang pesapoang tengah,"HV8V+29G, Adolang, Kec. Pamboang, Kabupaten Majene, Sulawesi Barat 91451","Adolang, Kec. Pamboang, Kabupaten Majene",SULAWESI BARAT,91451.0,Indonesia,,,,-3.435403,118.892781,https://maps.google.com/?cid=0x0:0xdc2ff7e408f4361f,
perumahan,Pembangunan Perumahan,Kebun Najiah Panggalo Mumin,"GV4W+5HM, Lalampanua, Kec. Pamboang, Kabupaten Majene, Sulawesi Barat","Kabupaten Majene, Sulawesi Barat",SULAWESI BARAT,,Indonesia,,,,-3.4945294,118.896417,https://maps.google.com/?cid=0x0:0xd1721918c5095d24,
perumahan,Pembangunan Perumahan,Riska,"FWR6+FRF, Dusun puare, desa buttu, Kec. Pamboang, Kabupaten Majene, Sulawesi Barat 91451","Dusun puare, desa buttu, Kec. Pamboang, Kabupaten Majene",SULAWESI BARAT,91451.0,Indonesia,,,,-3.5088089,118.9120406,https://maps.google.com/?cid=0x0:0x713a5fce7bb5382d,
perumahan,Toko Makanan,Rumah Cemilan Pamboang,"Bababulo, Kec. Pamboang, Kabupaten Majene, Sulawesi Barat","Kabupaten Majene, Sulawesi Barat",SULAWESI BARAT,,Indonesia,81242826669.0,,,-3.5029003,118.8956281,https://maps.google.com/?cid=0x0:0x9c66601c8afa24a3,
perumahan,Pembangunan Perumahan,Kebun Najiah Semba 1,"GV4W+5HM, Lalampanua, Kec. Pamboang, Kabupaten Majene, Sulawesi Barat","Kabupaten Majene, Sulawesi Barat",SULAWESI BARAT,,Indonesia,,,,-3.4945294,118.896417,https://maps.google.com/?cid=0x0:0xc62c8bda4dc740a9,
perumahan,Pusat Pendidikan,Rumah kata pamboang,"GV3W+QW4, Lalampanua, Kec. Pamboang, Kabupaten Majene, Sulawesi Barat 91451","Lalampanua, Kec. Pamboang, Kabupaten Majene",SULAWESI BARAT,91451.0,Indonesia,82196340197.0,,,-3.4956081,118.897333,https://maps.google.com/?cid=0x0:0xf7088080d7c02b40,
perumahan,Komplek perumahan,Ammy.Rajab,"GV6W+3Q2, Lalampanua, Kec. Pamboang, Kabupaten Majene, Sulawesi Barat 91451","Lalampanua, Kec. Pamboang, Kabupaten Majene",SULAWESI BARAT,91451.0,Indonesia,,,,-3.489857,118.8968864,https://maps.google.com/?cid=0x0:0x56f849f5aa793824,
perumahan,Komplek perumahan,Melaka,"GV4W+5HM, Lalampanua, Kec. Pamboang, Kabupaten Majene, Sulawesi Barat","Kabupaten Majene, Sulawesi Barat",SULAWESI BARAT,,Indonesia,,,,-3.4945294,118.896417,https://maps.google.com/?cid=0x0:0x1c078bcd03f926cf,
perumahan,Komplek perumahan,Banua,"GWV7+MW, Betteng, Kec. Pamboang, Kabupaten Majene, Sulawesi Barat 91451","Betteng, Kec. Pamboang, Kabupaten Majene",SULAWESI BARAT,91451.0,Indonesia,,,,-3.4557764,118.9148662,https://maps.google.com/?cid=0x0:0x1dae2d580d2342d8,
perumahan,perumahan,Kec. Sendana,"Kabupaten Majene, Sulawesi Barat","Kabupaten Majene, Sulawesi Barat",SULAWESI BARAT,,Indonesia,,,,-3.3754875,118.8481537,https://maps.google.com/?cid=0x0:0x347ca767410bf307,
perumahan,Kantor Pemerintah,Totolisi,"MRCV+X67 Kantor Desa Totolisi, Jl. Poros Majene - Mamuju, Sendana, Kec. Sendana, Kabupaten Majene, Sulawesi Barat 91452","Jl. Poros Majene - Mamuju, Sendana, Kec. Sendana, Kabupaten Majene",SULAWESI BARAT,91452.0,Indonesia,,,,-3.327582,118.8430458,https://maps.google.com/?cid=0x0:0x4fc47bf268220fce,
perumahan,Pembangunan Perumahan,Awing,"MRMW+GQF, Jl. Poros Majene - Mamuju, Sendana, Kec. Sendana, Kabupaten Majene, Sulawesi Barat 91452","Jl. Poros Majene - Mamuju, Sendana, Kec. Sendana, Kabupaten Majene",SULAWESI BARAT,91452.0,Indonesia,,,,-3.316179,118.846936,https://maps.google.com/?cid=0x0:0xba7a214f8723a093,
perumahan,Kantor Pemerintah,Desa Sendana,"MRMX+MPP, Jl. Poros Majene - Mamuju, Sendana, Kec. Sendana, Kabupaten Majene, Sulawesi Barat 91452","Jl. Poros Majene - Mamuju, Sendana, Kec. Sendana, Kabupaten Majene",SULAWESI BARAT,91452.0,Indonesia,,,,-3.3157965,118.8493284,https://maps.google.com/?cid=0x0:0xc4aa7bc4b06b8e3d,
perumahan,Komplek perumahan,TPU Sendana,"JRFX+R72, Mosso, Kec. Sendana, Kabupaten Majene, Sulawesi Barat 91452","Mosso, Kec. Sendana, Kabupaten Majene",SULAWESI BARAT,91452.0,Indonesia,,,,-3.3754875,118.8481537,https://maps.google.com/?cid=0x0:0x5cbbefe3d08cd371,
perumahan,Pembangunan Perumahan,Kepala Dusun,"MV43+H8X, Pundau, Kec. Sendana, Kabupaten Majene, Sulawesi Barat 91452","Pundau, Kec. Sendana, Kabupaten Majene",SULAWESI BARAT,91452.0,Indonesia,,,,-3.3434788,118.8533845,https://maps.google.com/?cid=0x0:0xe693f35dc7dc2e1,
perumahan,perumahan,Wahyuddin,"MV64+282, Pundau, Kec. Sendana, Kabupaten Majene, Sulawesi Barat 91452","Pundau, Kec. Sendana, Kabupaten Majene",SULAWESI BARAT,91452.0,Indonesia,,,,-3.3399795,118.8557547,https://maps.google.com/?cid=0x0:0x3d7aedfdfe747700,
perumahan,Pembangunan Perumahan,Bonde - Desa Binanga,"Jl. Poros Majene - Mamuju, Binanga, Kec. Sendana, Kabupaten Majene, Sulawesi Barat 91452","Binanga, Kec. Sendana, Kabupaten Majene",SULAWESI BARAT,91452.0,Indonesia,,,,-3.3456104,118.853728,https://maps.google.com/?cid=0x0:0xbd51aefd4f1cb4f6,
perumahan,Pembangunan Perumahan,Surati bisnis,"MRGV+2X6, Sendana, Kec. Sendana, Kabupaten Majene, Sulawesi Barat 91452","Sendana, Kec. Sendana, Kabupaten Majene",SULAWESI BARAT,91452.0,Indonesia,,,,-3.3249709,118.8448908,https://maps.google.com/?cid=0x0:0x429e967b19320e47,
perumahan,Komplek perumahan,Syamsu Alam. MS,"MRCV+X84, Totolisi Utara Desa, Totolisi, Sendana, Kec. Sendana, Kabupaten Majene, Sulawesi Barat 91452","Totolisi Utara Desa, Totolisi, Sendana, Kec. Sendana, Kabupaten Majene",SULAWESI BARAT,91452.0,Indonesia,,,,-3.3276117,118.8433267,https://maps.google.com/?cid=0x0:0x6ffd21fa6846e444,
perumahan,Perumahan,INDY,"HVHF+Q7J Belakang mesjid babussalam mosso, Ling. Mosso, Mosso Dhua, Kec. Sendana, Kabupaten Majene, Sulawesi Barat 91452","Ling. Mosso, Mosso Dhua, Kec. Sendana, Kabupaten Majene",SULAWESI BARAT,91452.0,Indonesia,,,,-3.4205343,118.8731436,https://maps.google.com/?cid=0x0:0xcabbe41a9c6fb426,
perumahan,Komplek perumahan,Naura Nur jasmin,"MV74+3PF, Pundau, Kec. Sendana, Kabupaten Majene, Sulawesi Barat 91452","Pundau, Kec. Sendana, Kabupaten Majene",SULAWESI BARAT,91452.0,Indonesia,,,,-3.3373204,118.8567871,https://maps.google.com/?cid=0x0:0xbb338fc91792b345,
perumahan,Komplek perumahan,Sunusi,"JVC4+XXX, Mosso, Kec. Sendana, Kabupaten Majene, Sulawesi Barat 91452","Mosso, Kec. Sendana, Kabupaten Majene",SULAWESI BARAT,91452.0,Indonesia,,,,-3.3775063,118.8574845,https://maps.google.com/?cid=0x0:0xeb347c3180cccdf4,
perumahan,Pembangunan Perumahan,Jiran,"JRFX+R72, Mosso, Kec. Sendana, Kabupaten Majene, Sulawesi Barat 91452","Mosso, Kec. Sendana, Kabupaten Majene",SULAWESI BARAT,91452.0,Indonesia,,,,-3.3754875,118.8481537,https://maps.google.com/?cid=0x0:0xb10565c45ef47d2d,
perumahan,perumahan,Rumah,"JRCW+QGW, Jl. Ridha Allah somba, Mosso, Kec. Sendana, Kabupaten Majene, Sulawesi Barat 91452","Jl. Ridha Allah somba, Mosso, Kec. Sendana, Kabupaten Majene",SULAWESI BARAT,91452.0,Indonesia,,,,-3.3780024,118.8463194,https://maps.google.com/?cid=0x0:0x6a0f6e9e7dbab2d3,
perumahan,Komplek perumahan,ARI MANDAR,"MV64+GF8, Pundau, Kec. Sendana, Kabupaten Majene, Sulawesi Barat 91452","Pundau, Kec. Sendana, Kabupaten Majene",SULAWESI BARAT,91452.0,Indonesia,,,,-3.3387166,118.8562029,https://maps.google.com/?cid=0x0:0xd572c20c071b4df7,
perumahan,Komplek perumahan,Andawahyu,"MV64+282, Desa Binanga, Naulluyo, Pundau, Kec. Sendana, Kabupaten Majene, Sulawesi Barat 91452","Desa Binanga, Naulluyo, Pundau, Kec. Sendana, Kabupaten Majene",SULAWESI BARAT,91452.0,Indonesia,,,,-3.3399886,118.8557504,https://maps.google.com/?cid=0x0:0x7b2c59abf381e333,
perumahan,Komplek perumahan,Ari,"MV64+MP8, Pundau, Kec. Sendana, Kabupaten Majene, Sulawesi Barat 91452","Pundau, Kec. Sendana, Kabupaten Majene",SULAWESI BARAT,91452.0,Indonesia,,,,-3.338757,118.856307,https://maps.google.com/?cid=0x0:0x4057d90cbadff3d3,
perumahan,Vila,Villa Qiana,"JVF2+JRH, Mosso, Kec. Sendana, Kabupaten Majene, Sulawesi Barat 91452","Mosso, Kec. Sendana, Kabupaten Majene",SULAWESI BARAT,91452.0,Indonesia,,,,-3.3759469,118.852119,https://maps.google.com/?cid=0x0:0xccc7e4719bf20404,
perumahan,Pembangunan Perumahan,DAHANLOC,"Jl. Poros Majene - Mamuju No.16, Sendana, Kec. Sendana, Kabupaten Majene, Sulawesi Barat 91452","Sendana, Kec. Sendana, Kabupaten Majene",SULAWESI BARAT,91452.0,Indonesia,,,,-3.3144663,118.8518947,https://maps.google.com/?cid=0x0:0x5479e6dca71cfa22,
perumahan,perumahan,Sulawesi Selatan 91925,Sulawesi Selatan,Sulawesi Selatan,SULAWESI BARAT,,Indonesia,,,,-3.0575625,120.1762494,https://maps.google.com/?cid=0x0:0xc8c26aa2cc63531b,
perumahan,perumahan,Kec. Sendana,"Kabupaten Majene, Sulawesi Barat","Kabupaten Majene, Sulawesi Barat",SULAWESI BARAT,,Indonesia,,,,-3.3754875,118.8481537,https://maps.google.com/?cid=0x0:0x347ca767410bf307,
perumahan,perumahan,Sendana,"Leling, Kec. Tommo, Kabupaten Mamuju, Sulawesi Barat","Kabupaten Mamuju, Sulawesi Barat",SULAWESI BARAT,,Indonesia,,,,-2.233333,119.466667,https://maps.google.com/?cid=0x0:0xf2ca84e80ae1d5d9,
perumahan,Komplek perumahan,Puri Pesona Zarindah Mamuju,"Simboro, Kec. Simboro Dan Kepulauan, Kabupaten Mamuju, Sulawesi Barat 91512","Kec. Simboro Dan Kepulauan, Kabupaten Mamuju",SULAWESI BARAT,91512.0,Indonesia,82190234333.0,,,-2.682709,118.8604492,https://maps.google.com/?cid=0x0:0x8a519849b692dc10,
perumahan,Komplek perumahan,Kampung Cedde',"X55F+389, Mawa, Kec. Sendana, Kota Palopo, Sulawesi Selatan","Kota Palopo, Sulawesi Selatan",SULAWESI BARAT,,Indonesia,,,,-3.0423379,120.1733631,https://maps.google.com/?cid=0x0:0x77f4c639724122ba,
perumahan,Perumahan,Perumahan Griya Bukit Peta,"Kode Pos, Griya Bukit Peta No.Blok.A, Peta, Kec. Sendana, Kota Palopo, Sulawesi Selatan 91921","Griya Bukit Peta No.Blok.A, Peta, Kec. Sendana, Kota Palopo",SULAWESI BARAT,91921.0,Indonesia,,,,-3.0280719,120.1755521,https://maps.google.com/?cid=0x0:0xb2d3dfa96d03a3d4,
perumahan,Komplek perumahan,Perumahan Anindya Residence 4,"X59J+XJV, Jl. Andi Bintang, Mawa, Kec. Sendana, Kota Palopo, Sulawesi Selatan 91921","Jl. Andi Bintang, Mawa, Kec. Sendana, Kota Palopo",SULAWESI BARAT,91921.0,Indonesia,,,,-3.0304944,120.1817594,https://maps.google.com/?cid=0x0:0xae43f33362e3b392,
perumahan,Perumahan,Perumahan Graha Peta Permai,"X5CF+X4W, Peta, Kec. Sendana, Kota Palopo, Sulawesi Selatan 91921","Peta, Kec. Sendana, Kota Palopo",SULAWESI BARAT,91921.0,Indonesia,,,,-3.0275005,120.172817,https://maps.google.com/?cid=0x0:0x8487e93ca85cfdbc,
perumahan,Pembangunan Perumahan,Rumah Yuyun,"X59J+WQR, Jl. Andi Bintang, Sendana, Kec. Sendana, Kota Palopo, Sulawesi Selatan 91921","Jl. Andi Bintang, Sendana, Kec. Sendana, Kota Palopo",SULAWESI BARAT,91921.0,Indonesia,,,,-3.0301264,120.1818878,https://maps.google.com/?cid=0x0:0xcdb3add4725345d9,
perumahan,Hostel,RUMAH KELUARGA BESAR DAMMULLA  SAGO,"X53R+F88, Sendana, Kec. Sendana, Kota Palopo, Sulawesi Selatan 91926","Sendana, Kec. Sendana, Kota Palopo",SULAWESI BARAT,91926.0,Indonesia,82193670515.0,,,-3.046329,120.1908367,https://maps.google.com/?cid=0x0:0x7e285eab8d64dba6,
perumahan,Pembangunan Perumahan,Ujung Aspal Menuju Tandung,"X586+7HW, Peta, Kec. Sendana, Kota Palopo, Sulawesi Selatan","Kota Palopo, Sulawesi Selatan",SULAWESI BARAT,,Indonesia,,,,-3.0348489,120.161483,https://maps.google.com/?cid=0x0:0xdaa6ba56390eb0f3,
perumahan,perumahan,A12 Peta,"X5FF+268, Peta, Kec. Sendana, Kota Palopo, Sulawesi Selatan","Kota Palopo, Sulawesi Selatan",SULAWESI BARAT,,Indonesia,,,,-3.027388,120.173718,https://maps.google.com/?cid=0x0:0x8c2a22f9295b60d1,
perumahan,Rumah Pondokan,pondok saenal,"W5WC+77, Mawa, Kec. Sendana, Kota Palopo, Sulawesi Selatan 91925","Mawa, Kec. Sendana, Kota Palopo",SULAWESI BARAT,91925.0,Indonesia,,,,-3.053262,120.1708382,https://maps.google.com/?cid=0x0:0xa5b77f69a7fbd69d,
perumahan,perumahan,Sulawesi Selatan 91959,"Kec. Sendana, Kota Palopo, Sulawesi Selatan","Kota Palopo, Sulawesi Selatan",SULAWESI BARAT,,Indonesia,,,,-3.0655982,120.1993381,https://maps.google.com/?cid=0x0:0xb66b64b75a7884a,
perumahan,perumahan,Kec. Sendana,"Kabupaten Majene, Sulawesi Barat","Kabupaten Majene, Sulawesi Barat",SULAWESI BARAT,,Indonesia,,,,-3.3754875,118.8481537,https://maps.google.com/?cid=0x0:0x347ca767410bf307,
perumahan,perumahan,Sendana,"Leling, Kec. Tommo, Kabupaten Mamuju, Sulawesi Barat","Kabupaten Mamuju, Sulawesi Barat",SULAWESI BARAT,,Indonesia,,,,-2.233333,119.466667,https://maps.google.com/?cid=0x0:0xf2ca84e80ae1d5d9,
perumahan,Kantor Pemerintah,Kantor Desa Sendana-Mambi,"25XJ+G76, Sendana, Kec. Mambi, Kabupaten Mamasa, Sulawesi Barat 91371","Sendana, Kec. Mambi, Kabupaten Mamasa",SULAWESI BARAT,91371.0,Indonesia,,,,-2.9522147,119.1797036,https://maps.google.com/?cid=0x0:0x651112f5ead5d2fa,
perumahan,Komplek perumahan,Perumahan Puri Bukit Indah Palopo,"W6V6+XV9, Purangi, Kec. Sendana, Kota Palopo, Sulawesi Selatan 91959","Purangi, Kec. Sendana, Kota Palopo",SULAWESI BARAT,91959.0,Indonesia,85357222227.0,,,-3.0550998,120.2122226,https://maps.google.com/?cid=0x0:0xb85a7bb547020616,
perumahan,Komplek perumahan,Perumahan Green Songka Permai 2,"Purangi, Kec. Sendana, Kota Palopo, Sulawesi Selatan 91926","Kec. Sendana, Kota Palopo",SULAWESI BARAT,91926.0,Indonesia,,,,-3.0456435,120.2079953,https://maps.google.com/?cid=0x0:0x4c3a9049b8a0d278,
perumahan,Pembangunan Perumahan,Perumahan Nelyan 2,"Sampoddo, Kec. Wara Sel., Kota Palopo, Sulawesi Selatan 91959","Kec. Wara Sel., Kota Palopo",SULAWESI BARAT,91959.0,Indonesia,,,,-3.047252,120.218784,https://maps.google.com/?cid=0x0:0x96210ddc0f391b6b,
perumahan,Kantor Perusahaan,Perumahan lewadang permai,"X628+W8H, Sampoddo, Kec. Wara Sel., Kota Palopo, Sulawesi Selatan 91959","Sampoddo, Kec. Wara Sel., Kota Palopo",SULAWESI BARAT,91959.0,Indonesia,,,,-3.0482932,120.2150911,https://maps.google.com/?cid=0x0:0x20ff33ebfba8f689,
perumahan,Kantor Perusahaan,Perumahan Griya Razqa bukit lewadang,"W6X4+5W, Purangi, Kec. Sendana, Kota Palopo, Sulawesi Selatan","Kota Palopo, Sulawesi Selatan",SULAWESI BARAT,,Indonesia,,,,-3.05209,120.207333,https://maps.google.com/?cid=0x0:0xae142fe0a385c4f,
perumahan,Komplek perumahan,Rumah tiwi cantik,"X639+84M, Sampoddo, Kec. Wara Sel., Kota Palopo, Sulawesi Selatan 91959","Sampoddo, Kec. Wara Sel., Kota Palopo",SULAWESI BARAT,91959.0,Indonesia,,,,-3.046663,120.2177978,https://maps.google.com/?cid=0x0:0xba93d8773fa78f6d,
perumahan,Komplek perumahan,Perumahan To Makkaturang,"W6W5+FX8, Purangi, Kec. Sendana, Kota Palopo, Sulawesi Selatan","Kota Palopo, Sulawesi Selatan",SULAWESI BARAT,,Indonesia,,,,-3.0549278,120.2105599,https://maps.google.com/?cid=0x0:0xd18d7abae0733538,
perumahan,Komplek perumahan,Perumahan Sampoddo Lestari,"X639+3XW, Sampoddo, Kec. Wara Sel., Kota Palopo, Sulawesi Selatan 91959","Sampoddo, Kec. Wara Sel., Kota Palopo",SULAWESI BARAT,91959.0,Indonesia,,,,-3.0472572,120.2199464,https://maps.google.com/?cid=0x0:0x2ca372c0eeb18acb,
perumahan,Pembangunan Perumahan,Perumahan Sampoddo NSD NUSP-2 Kota Palopo,"X639+7MH, Unnamed Road, Sampoddo, Kec. Wara Sel., Kota Palopo, Sulawesi Selatan 91959","Unnamed Road, Sampoddo, Kec. Wara Sel., Kota Palopo",SULAWESI BARAT,91959.0,Indonesia,,,,-3.0468201,120.2192201,https://maps.google.com/?cid=0x0:0x9918e386bd1b7fb4,
perumahan,Komplek perumahan,Rumah indo hayati,"W5WX+QJQ, Purangi, Kec. Sendana, Kota Palopo, Sulawesi Selatan 91959","Purangi, Kec. Sendana, Kota Palopo",SULAWESI BARAT,91959.0,Indonesia,,,,-3.0530462,120.1991095,https://maps.google.com/?cid=0x0:0x16e7df9746f5affe,
perumahan,Komplek perumahan,Bualantua,"W5WW+59H, Unnamed Road, Purangi, Kec. Sendana, Kota Palopo, Sulawesi Selatan 91959","Unnamed Road, Purangi, Kec. Sendana, Kota Palopo",SULAWESI BARAT,91959.0,Indonesia,,,,-3.0545631,120.195999,https://maps.google.com/?cid=0x0:0x5e367c56443ff10b,
perumahan,Pembangunan Perumahan,Perumahan Griya Sampodo Asri,"X627+6F3, Jl. Poros Palopo - Makassar, Sampoddo, Kec. Wara Sel., Kota Palopo, Sulawesi Selatan 91959","Jl. Poros Palopo - Makassar, Sampoddo, Kec. Wara Sel., Kota Palopo",SULAWESI BARAT,91959.0,Indonesia,,,,-3.0494994,120.2136702,https://maps.google.com/?cid=0x0:0xe66daa7ba40486ec,
perumahan,Komplek perumahan,RUMAH IMIN JBLAY,"W6W6+875, Purangi, Kec. Sendana, Kota Palopo, Sulawesi Selatan","Kota Palopo, Sulawesi Selatan",SULAWESI BARAT,,Indonesia,,,,-3.054243,120.210727,https://maps.google.com/?cid=0x0:0x7290151cc644779d,
perumahan,Perhimpunan Pengembang Perumahan,ADA KAH UNTa,"X627+2G2, Sampoddo, Kec. Wara Sel., Kota Palopo, Sulawesi Selatan 91959","Sampoddo, Kec. Wara Sel., Kota Palopo",SULAWESI BARAT,91959.0,Indonesia,,,,-3.0499914,120.2137656,https://maps.google.com/?cid=0x0:0xaf2e4e97538cd8a5,
perumahan,Pembangunan Perumahan,Ungu loundri,"X627+6F3, Jl. Poros Palopo - Makassar, Sampoddo, Kec. Wara Sel., Kota Palopo, Sulawesi Selatan 91959","Jl. Poros Palopo - Makassar, Sampoddo, Kec. Wara Sel., Kota Palopo",SULAWESI BARAT,91959.0,Indonesia,,,,-3.0495137,120.2138143,https://maps.google.com/?cid=0x0:0xd2945fef76f9959,
perumahan,perumahan,Rumah feyza,"X55X+HQX, Sendana, Kec. Sendana, Kota Palopo, Sulawesi Selatan","Kota Palopo, Sulawesi Selatan",SULAWESI BARAT,,Indonesia,,,,-3.0410133,120.1994939,https://maps.google.com/?cid=0x0:0x2d76322d88bfc298,
perumahan,Pembangunan Perumahan,Momon,"Perumahan Green Songka Permai, Blok E1. No.10, Songka, Kec. Wara Sel., Kota Palopo, Sulawesi Selatan 91926","Blok E1. No.10, Songka, Kec. Wara Sel., Kota Palopo",SULAWESI BARAT,91926.0,Indonesia,,,,-3.0439149,120.2072971,https://maps.google.com/?cid=0x0:0xe2bfed9ef4631049,
perumahan,Pembangunan Perumahan,SALEANG GRUP,"X64F+XC, Sampoddo, Kec. Wara Sel., Kota Palopo, Sulawesi Selatan","Kota Palopo, Sulawesi Selatan",SULAWESI BARAT,,Indonesia,,,,-3.0425625,120.2235625,https://maps.google.com/?cid=0x0:0xe6bf640fcf28ee40,
perumahan,Komplek perumahan,Rumah anggi,"X5CW+RP, Sendana, Kec. Sendana, Kota Palopo, Sulawesi Selatan","Kota Palopo, Sulawesi Selatan",SULAWESI BARAT,,Indonesia,,,,-3.0278658,120.1968386,https://maps.google.com/?cid=0x0:0x82031652b5f5fbd4,
perumahan,perumahan,Tammerodo,"Kabupaten Majene, Sulawesi Barat","Kabupaten Majene, Sulawesi Barat",SULAWESI BARAT,,Indonesia,,,,-3.2348105,118.8713314,https://maps.google.com/?cid=0x0:0xbe1c01e3cc5e99fb,
perumahan,Kantor Administrasi Kota,Manyamba,"QV8C+3GG, Seppong, Tammerodo, Kabupaten Majene, Sulawesi Barat","Kabupaten Majene, Sulawesi Barat",SULAWESI BARAT,,Indonesia,,,,-3.2348105,118.8713314,https://maps.google.com/?cid=0x0:0x48434e406f32b7b6,
perumahan,perumahan,Dusun taninni,"QRCM+JG5, Jl. Poros Majene - Mamuju, Tammerodo, Kabupaten Majene, Sulawesi Barat 91452","Jl. Poros Majene - Mamuju, Tammerodo, Kabupaten Majene",SULAWESI BARAT,91452.0,Indonesia,,,,-3.228483,118.8338724,https://maps.google.com/?cid=0x0:0x472d4095e47f1568,
perumahan,Komplek perumahan,Zamrah,"QRPR+826, Ulidang, Tammerodo, Kabupaten Majene, Sulawesi Barat 91452","Ulidang, Tammerodo, Kabupaten Majene",SULAWESI BARAT,91452.0,Indonesia,,,,-3.2142192,118.8400119,https://maps.google.com/?cid=0x0:0x78ea6a8e20766b04,
perumahan,Pertanian,Dusun Batu Sure,"QVXF+443, Batu Sure, Awo, Tammerodo, Kabupaten Majene, Sulawesi Barat 91452","Batu Sure, Awo, Tammerodo, Kabupaten Majene",SULAWESI BARAT,91452.0,Indonesia,,,,-3.2023658,118.8730272,https://maps.google.com/?cid=0x0:0x6ea66a82fb92660b,
perumahan,Komplek perumahan,Plantamor,"QR8M+5HQ, Jl Poros Majene - Mamuju, Dsn Ujung Baru, Ds Tammerodo Utara, Tammerodo","Kabupaten Majene, Sulawesi Barat",SULAWESI BARAT,,Indonesia,,,,-3.2345499,118.8339754,https://maps.google.com/?cid=0x0:0x89068d6a0343059c,
perumahan,Komplek perumahan,amel,"QRPR+826, Ulidang, Tammerodo, Kabupaten Majene, Sulawesi Barat 91452","Ulidang, Tammerodo, Kabupaten Majene",SULAWESI BARAT,91452.0,Indonesia,,,,-3.2141996,118.8405135,https://maps.google.com/?cid=0x0:0xf7bdcfc8e3c80aa4,
perumahan,Perhimpunan Pengembang Perumahan,Dusun taninni desa ulidang,"RV2C+7GW, Ulidang, Tammerodo, Kabupaten Majene, Sulawesi Barat","Kabupaten Majene, Sulawesi Barat",SULAWESI BARAT,,Indonesia,,,,-3.1992507,118.8713314,https://maps.google.com/?cid=0x0:0xde53c5dfa73ee44,
perumahan,Komplek perumahan,Amaliah,"QRPR+826, Ulidang, Tammerodo, Kabupaten Majene, Sulawesi Barat 91452","Ulidang, Tammerodo, Kabupaten Majene",SULAWESI BARAT,91452.0,Indonesia,,,,-3.21419,118.840568,https://maps.google.com/?cid=0x0:0x7f790fe2c9109a94,
perumahan,Pertanian,Dusun seppong,"QVH8+86J, Seppong, Tammerodo, Kabupaten Majene, Sulawesi Barat 91452","Seppong, Tammerodo, Kabupaten Majene",SULAWESI BARAT,91452.0,Indonesia,,,,-3.2216523,118.865506,https://maps.google.com/?cid=0x0:0x897be6be0212a276,
perumahan,Pembangunan Perumahan,Poniang Sendana,"PV45+M78, Tallu Banua, Kec. Sendana, Kabupaten Majene, Sulawesi Barat 91452","Tallu Banua, Kec. Sendana, Kabupaten Majene",SULAWESI BARAT,91452.0,Indonesia,82351627744.0,,,-3.2933352,118.8582164,https://maps.google.com/?cid=0x0:0xfc896c02bf3d090c,
perumahan,Komplek perumahan,Linda,"QV25+P62, Tallambalao, Tammerodo, Kabupaten Majene, Sulawesi Barat","Kabupaten Majene, Sulawesi Barat",SULAWESI BARAT,,Indonesia,,,,-3.2482333,118.858031,https://maps.google.com/?cid=0x0:0xbfccee27d6b53fb7,
perumahan,Komplek perumahan,Fatmawati,"QRJQ+64C, Jl. Poros Majene - Mamuju, Ulidang, Tammerodo, Kabupaten Majene, Sulawesi Barat 91452","Jl. Poros Majene - Mamuju, Ulidang, Tammerodo, Kabupaten Majene",SULAWESI BARAT,91452.0,Indonesia,,,,-3.2194327,118.8377796,https://maps.google.com/?cid=0x0:0xc1a2570da74bb6f6,
perumahan,Pembangunan Perumahan,Ildha,"QR3W+RFF, Tallambalao, Tammerodo, Kabupaten Majene, Sulawesi Barat 91452","Tallambalao, Tammerodo, Kabupaten Majene",SULAWESI BARAT,91452.0,Indonesia,,,,-3.245303,118.845418,https://maps.google.com/?cid=0x0:0xe7d59b03fb809366,
perumahan,Perhimpunan Pengembang Perumahan,Mawin,"QRFP+3Q, Ulidang, Tammerodo, Kabupaten Majene, Sulawesi Barat","Kabupaten Majene, Sulawesi Barat",SULAWESI BARAT,,Indonesia,,,,-3.2273672,118.8368824,https://maps.google.com/?cid=0x0:0x5cc73d883e47a77a,
perumahan,Komplek perumahan,Ammang House,"QVM9+2G, Seppong, Tammerodo, Kabupaten Majene, Sulawesi Barat","Kabupaten Majene, Sulawesi Barat",SULAWESI BARAT,,Indonesia,,,,-3.2174791,118.8687915,https://maps.google.com/?cid=0x0:0x56981b17c86dd348,
perumahan,Perkebunan Pohon,Buttu Tembo',"PVWR+W4, Tallambalao, Tammerodo, Kabupaten Majene, Sulawesi Barat","Kabupaten Majene, Sulawesi Barat",SULAWESI BARAT,,Indonesia,,,,-3.2527147,118.8903506,https://maps.google.com/?cid=0x0:0xdc92f22dfe4395fc,
perumahan,perumahan,Rumah Appi,"PV95+WVJ, Tallu Banua, Kec. Sendana, Kabupaten Majene, Sulawesi Barat 91452","Tallu Banua, Kec. Sendana, Kabupaten Majene",SULAWESI BARAT,91452.0,Indonesia,,,,-3.2801667,118.8596309,https://maps.google.com/?cid=0x0:0x5a0d28de248c4ce3,
perumahan,Komplek perumahan,RATTE BILA,"QR3W+MH9 RATTE BILA, Tallambalao, Tammerodo, Kabupaten Majene, Sulawesi Barat","Kabupaten Majene, Sulawesi Barat",SULAWESI BARAT,,Indonesia,,,,-3.2458387,118.8464978,https://maps.google.com/?cid=0x0:0x1c45005235e57564,
perumahan,Komplek perumahan,Nur Asmira,"RRV8+HR2, Onang, Kec. Tubo Sendana, Kabupaten Majene, Sulawesi Barat","Kabupaten Majene, Sulawesi Barat",SULAWESI BARAT,,Indonesia,,,,-3.1561107,118.8170096,https://maps.google.com/?cid=0x0:0x609dbefa5f45a3c,
perumahan,perumahan,Pos ronda gaul,"QVQ2+85V, Ulidang, Tammerodo, Kabupaten Majene, Sulawesi Barat 91452","Ulidang, Tammerodo, Kabupaten Majene",SULAWESI BARAT,91452.0,Indonesia,,,,-3.2108159,118.8514542,https://maps.google.com/?cid=0x0:0x9d1459d3c9ef7a43,
perumahan,perumahan,Tubo,"Kec. Tubo Sendana, Kabupaten Majene, Sulawesi Barat","Kabupaten Majene, Sulawesi Barat",SULAWESI BARAT,,Indonesia,,,,-3.0987385,118.8188948,https://maps.google.com/?cid=0x0:0xb76634d6c060e8ad,
perumahan,Komplek perumahan,SAPOKU,"WR5F+RW8, Tubo, Kec. Tubo Sendana, Kabupaten Majene, Sulawesi Barat 91452","Tubo, Kec. Tubo Sendana, Kabupaten Majene",SULAWESI BARAT,91452.0,Indonesia,,,,-3.0899013,118.8249245,https://maps.google.com/?cid=0x0:0x32bff3d1923d8e4d,
perumahan,Area Mendaki,Lorong Bonde,"WQ6H+9G9, Onang Utara, Kec. Tubo Sendana, Kabupaten Majene, Sulawesi Barat 91452","Onang Utara, Kec. Tubo Sendana, Kabupaten Majene",SULAWESI BARAT,91452.0,Indonesia,,,,-3.0890914,118.778873,https://maps.google.com/?cid=0x0:0x8e9374d24db2880e,
perumahan,Komplek perumahan,DIANA,"WR29+GH2, Tubo, Kec. Tubo Sendana, Kabupaten Majene, Sulawesi Barat","Kabupaten Majene, Sulawesi Barat",SULAWESI BARAT,,Indonesia,,,,-3.0987385,118.8188948,https://maps.google.com/?cid=0x0:0xf4b29b6d07f70bad,
perumahan,perumahan,Ocang,"WQ5H+75R, Jl. Poros Majene - Mamuju, Onang Utara, Kec. Tubo Sendana, Kabupaten Majene, Sulawesi Barat 91452","Jl. Poros Majene - Mamuju, Onang Utara, Kec. Tubo Sendana, Kabupaten Majene",SULAWESI BARAT,91452.0,Indonesia,,,,-3.0919241,118.7778225,https://maps.google.com/?cid=0x0:0x72af488010d1a05e,
perumahan,Kantor Perusahaan,Kanne Baturoro,"VQXG+8WC, Tubo Selatan, Onang Utara, Kec. Tubo Sendana, Kabupaten Majene, Sulawesi Barat 91452","Tubo Selatan, Onang Utara, Kec. Tubo Sendana, Kabupaten Majene",SULAWESI BARAT,91452.0,Indonesia,,,,-3.102038,118.7770135,https://maps.google.com/?cid=0x0:0x764d69b3997f76d8,
perumahan,Komplek perumahan,Bunda Sultan's House,"VQMJ+8MQ, Onang Utara, Kec. Tubo Sendana, Kabupaten Majene, Sulawesi Barat 91452","Onang Utara, Kec. Tubo Sendana, Kabupaten Majene",SULAWESI BARAT,91452.0,Indonesia,,,,-3.1166629,118.7817473,https://maps.google.com/?cid=0x0:0x668bd047576edbfc,
perumahan,Kantor Pemerintah,Rumah kepala desa Tubo selatan,"Jl. Poros Majene - Mamuju No.Km 65, Onang Utara, Kec. Tubo Sendana, Kabupaten Majene, Sulawesi Barat 91452","Onang Utara, Kec. Tubo Sendana, Kabupaten Majene",SULAWESI BARAT,91452.0,Indonesia,,,,-3.0990594,118.7772287,https://maps.google.com/?cid=0x0:0x98defdd649ce620f,
perumahan,Komplek perumahan,Fargab moq,"WQ4H+X2W, Jl. Poros Majene - Mamuju, Onang Utara, Kec. Tubo Sendana, Kabupaten Majene, Sulawesi Barat 91452","Jl. Poros Majene - Mamuju, Onang Utara, Kec. Tubo Sendana, Kabupaten Majene",SULAWESI BARAT,91452.0,Indonesia,,,,-3.0923416,118.7777296,https://maps.google.com/?cid=0x0:0x298cb4336b9ac1d3,
perumahan,Komplek perumahan,Luthfy Idris House,"VQJJ+WW6, Jl. Poros Majene - Mamuju, Onang Utara, Kec. Tubo Sendana, Kabupaten Majene, Sulawesi Barat 91452","Jl. Poros Majene - Mamuju, Onang Utara, Kec. Tubo Sendana, Kabupaten Majene",SULAWESI BARAT,91452.0,Indonesia,,,,-3.117751,118.7822981,https://maps.google.com/?cid=0x0:0x5060dc4d4aa34dc8,
perumahan,Perhimpunan Pengembang Perumahan,"Lombo, na","WQ8R+48V, Jl. Poros Majene - Mamuju, Onang Utara, Kec. Tubo Sendana, Kabupaten Majene, Sulawesi Barat 91452","Jl. Poros Majene - Mamuju, Onang Utara, Kec. Tubo Sendana, Kabupaten Majene",SULAWESI BARAT,91452.0,Indonesia,,,,-3.0846484,118.7898277,https://maps.google.com/?cid=0x0:0x2225ce751d6d704e,
perumahan,Komplek perumahan,Ahmad,"WQ4H+X2W, Jl. Poros Majene - Mamuju, Onang Utara, Kec. Tubo Sendana, Kabupaten Majene, Sulawesi Barat 91452","Jl. Poros Majene - Mamuju, Onang Utara, Kec. Tubo Sendana, Kabupaten Majene",SULAWESI BARAT,91452.0,Indonesia,,,,-3.0924934,118.7776661,https://maps.google.com/?cid=0x0:0x6c5d49eeb0a4795c,
perumahan,Komplek perumahan,Dian collection,"VQ9P+RWF, Onang Utara, Kec. Tubo Sendana, Kabupaten Majene, Sulawesi Barat 91452","Onang Utara, Kec. Tubo Sendana, Kabupaten Majene",SULAWESI BARAT,91452.0,Indonesia,,,,-3.1303066,118.7865257,https://maps.google.com/?cid=0x0:0x8059c692f50a005,
perumahan,perumahan,Desa salut ambung,"VRXQ+H2C, Sambabo, Kec. Ulumanda, Kabupaten Majene, Sulawesi Barat","Kabupaten Majene, Sulawesi Barat",SULAWESI BARAT,,Indonesia,,,,-3.1010559,118.837502,https://maps.google.com/?cid=0x0:0x726bae55dd53fd7e,
perumahan,perumahan,Kec. Tubo Sendana,"Kabupaten Majene, Sulawesi Barat","Kabupaten Majene, Sulawesi Barat",SULAWESI BARAT,,Indonesia,,,,-3.1612706,118.8191982,https://maps.google.com/?cid=0x0:0x4802ca1dd5715163,
perumahan,Komplek perumahan,Persawahan,"WR8P+9XG, Sambabo, Kec. Ulumanda, Kabupaten Majene, Sulawesi Barat","Kabupaten Majene, Sulawesi Barat",SULAWESI BARAT,,Indonesia,,,,-3.0840655,118.8374538,https://maps.google.com/?cid=0x0:0xe2ae539dddce9744,
perumahan,Vila,Villa,"VQMM+8WC, bonde-bonde, Onang Utara, Kec. Tubo Sendana, Kabupaten Majene, Sulawesi Barat 91452","bonde-bonde, Onang Utara, Kec. Tubo Sendana, Kabupaten Majene",SULAWESI BARAT,91452.0,Indonesia,,,,-3.1166807,118.7847624,https://maps.google.com/?cid=0x0:0x72f78f63da5dcb05,
perumahan,Masjid,Rumah Qur'an Athallah,"VQMM+8WC bonde-bonde, Onang Utara, Kec. Tubo Sendana, Kabupaten Majene, Sulawesi Barat 91452","Onang Utara, Kec. Tubo Sendana, Kabupaten Majene",SULAWESI BARAT,91452.0,Indonesia,,,,-3.1167205,118.7841522,https://maps.google.com/?cid=0x0:0xb5d09cb29d646817,
perumahan,Pembangunan Perumahan,Posko,"WR6P+RG8, Sambabo, Kec. Ulumanda, Kabupaten Majene, Sulawesi Barat","Kabupaten Majene, Sulawesi Barat",SULAWESI BARAT,,Indonesia,,,,-3.0879746,118.8363218,https://maps.google.com/?cid=0x0:0xdf4fd60fbbfa9009,
perumahan,Padang,Rumah Makan Zara,"WQ2G+QPG, Jl. Poros Majene - Mamuju, Onang Utara, Kec. Tubo Sendana, Kabupaten Majene, Sulawesi Barat 91452","Jl. Poros Majene - Mamuju, Onang Utara, Kec. Tubo Sendana, Kabupaten Majene",SULAWESI BARAT,91452.0,Indonesia,,,,-3.0980641,118.776818,https://maps.google.com/?cid=0x0:0x2a6126d46aa64d0d,
perumahan,Komplek perumahan,Home Edy,"VQJJ+FMJ TPA ADRIANSYAH, Onang Utara, Kec. Tubo Sendana, Kabupaten Majene, Sulawesi Barat 91452","Onang Utara, Kec. Tubo Sendana, Kabupaten Majene",SULAWESI BARAT,91452.0,Indonesia,,,,-3.1189237,118.7819515,https://maps.google.com/?cid=0x0:0xd6da6ae9681767d4,
perumahan,Salon Kecantikan,RUMAH PAK RAMLI,"WQ8M+298, Tatakko, Tengah, Kec. Tubo Sendana","Kabupaten Majene, Sulawesi Barat",SULAWESI BARAT,,Indonesia,,,,-3.0849554,118.7834672,https://maps.google.com/?cid=0x0:0xb97b4d2a2124a9f9,
perumahan,Komplek perumahan,Kebun Bapak Takdir,"WVH5+2R, Kabiraan, Kec. Ulumanda, Kabupaten Majene, Sulawesi Barat","Kabupaten Majene, Sulawesi Barat",SULAWESI BARAT,,Indonesia,,,,-3.072487,118.859552,https://maps.google.com/?cid=0x0:0xf942f8dc93aa1aa3,
perumahan,perumahan,Sulawesi Barat 91453,"Kabupaten Majene, Sulawesi Barat","Kabupaten Majene, Sulawesi Barat",SULAWESI BARAT,,Indonesia,,,,-3.0270061,118.9994357,https://maps.google.com/?cid=0x0:0xbece4f3ae0e9d313,
perumahan,perumahan,Rumah Amran Abu Syaddad,"XX9V+CC, Ulumanda, Kec. Ulumanda, Kabupaten Majene, Sulawesi Barat","Kabupaten Majene, Sulawesi Barat",SULAWESI BARAT,,Indonesia,,,,-3.0309176,118.9935566,https://maps.google.com/?cid=0x0:0x79fd1a128581216b,
perumahan,Pembangunan Perumahan,Urekang,"X2J5+MQF, Ulumanda, Kec. Ulumanda, Kabupaten Majene, Sulawesi Barat 91453","Ulumanda, Kec. Ulumanda, Kabupaten Majene",SULAWESI BARAT,91453.0,Indonesia,,,,-3.0181478,119.0101756,https://maps.google.com/?cid=0x0:0xa95af091ddbe3130,
perumahan,Komplek perumahan,Indra,"XVV4+4HW, Sambabo, Kec. Ulumanda, Kabupaten Majene, Sulawesi Barat 91453","Sambabo, Kec. Ulumanda, Kabupaten Majene",SULAWESI BARAT,91453.0,Indonesia,,,,-3.0071275,118.8564473,https://maps.google.com/?cid=0x0:0xbda0efea625c2aa2,
perumahan,Pembangunan Perumahan,Batannato,"X2J5+92, Ulumanda, Kec. Ulumanda, Kabupaten Majene, Sulawesi Barat","Kabupaten Majene, Sulawesi Barat",SULAWESI BARAT,,Indonesia,,,,-3.0190521,119.0075116,https://maps.google.com/?cid=0x0:0x33fcc10754d2f24d,
perumahan,Perhimpunan Pengembang Perumahan,Ires home,"WWG6+5QH, Tandeallo, Kec. Ulumanda, Kabupaten Majene, Sulawesi Barat 91453","Tandeallo, Kec. Ulumanda, Kabupaten Majene",SULAWESI BARAT,91453.0,Indonesia,,,,-3.0745176,118.9118374,https://maps.google.com/?cid=0x0:0x1ca4ae6b695ae4b5,
perumahan,Komplek perumahan,KELOMPOK TANI CERDAS,"WVX6+V2J, Kabiraan, Kec. Ulumanda, Kabupaten Majene, Sulawesi Barat 91453","Kabiraan, Kec. Ulumanda, Kabupaten Majene",SULAWESI BARAT,91453.0,Indonesia,82188328810.0,,,-3.0502772,118.8600111,https://maps.google.com/?cid=0x0:0x73ac41ad7252bcbb,
perumahan,Komplek perumahan,Puko,"Tandeallo, Kec. Ulumanda, Kabupaten Majene, Sulawesi Barat","Kabupaten Majene, Sulawesi Barat",SULAWESI BARAT,,Indonesia,,,,-3.0735538,118.9118468,https://maps.google.com/?cid=0x0:0x8301f78ea0e9d54c,
perumahan,Komplek perumahan,Tanah leluhur Pullao ri urekang,"X2M6+95, Ulumanda, Kec. Ulumanda, Kabupaten Majene, Sulawesi Barat","Kabupaten Majene, Sulawesi Barat",SULAWESI BARAT,,Indonesia,,,,-3.0165737,119.0103781,https://maps.google.com/?cid=0x0:0x5c04bb7c86d1c32a,
perumahan,perumahan,Loronh damai,"WWG6+6WV, Tandeallo, Kec. Ulumanda, Kabupaten Majene, Sulawesi Barat 91453","Tandeallo, Kec. Ulumanda, Kabupaten Majene",SULAWESI BARAT,91453.0,Indonesia,,,,-3.0743852,118.9122848,https://maps.google.com/?cid=0x0:0xf29e4b11d05c2e8b,
perumahan,Komplek perumahan,Lapangan,"WVVC+3GG, Kabiraan, Kec. Ulumanda, Kabupaten Majene, Sulawesi Barat 91453","Kabiraan, Kec. Ulumanda, Kabupaten Majene",SULAWESI BARAT,91453.0,Indonesia,,,,-3.0573053,118.8713314,https://maps.google.com/?cid=0x0:0xb91f10373c9f9664,
perumahan,Perhimpunan Pengembang Perumahan,Kabiraan,"WVVC+3GG, Kabiraan, Kec. Ulumanda, Kabupaten Majene, Sulawesi Barat 91453","Kabiraan, Kec. Ulumanda, Kabupaten Majene",SULAWESI BARAT,91453.0,Indonesia,,,,-3.0573053,118.8713314,https://maps.google.com/?cid=0x0:0xe544fdc8e26888d1,
perumahan,perumahan,Rumah Parengnge'/Tomakaka MambiÃ«,"25XG+P2X, Mambi, Kec. Mambi, Kabupaten Mamasa, Sulawesi Barat","Kabupaten Mamasa, Sulawesi Barat",SULAWESI BARAT,,Indonesia,,,,-2.950739,119.175228,https://maps.google.com/?cid=0x0:0xd30509f84787fa46,
perumahan,Komplek perumahan,SEKERTARIAT KELOMPOK TANI CERDAS,"XV26+55Q, Kabiraan, Kec. Ulumanda, Kabupaten Majene, Sulawesi Barat 91453","Kabiraan, Kec. Ulumanda, Kabupaten Majene",SULAWESI BARAT,91453.0,Indonesia,,,,-3.0501544,118.8609257,https://maps.google.com/?cid=0x0:0xf3a4b40c92d17582,
perumahan,Komplek perumahan,Mardan house,"WW2X+GX, Ulumanda, Kec. Ulumanda, Kabupaten Majene, Sulawesi Barat","Kabupaten Majene, Sulawesi Barat",SULAWESI BARAT,,Indonesia,,,,-3.0987186,118.9499979,https://maps.google.com/?cid=0x0:0xa9005f0264ebb252,
perumahan,Pembangunan Perumahan,Posko,"WR6P+RG8, Sambabo, Kec. Ulumanda, Kabupaten Majene, Sulawesi Barat","Kabupaten Majene, Sulawesi Barat",SULAWESI BARAT,,Indonesia,,,,-3.0879746,118.8363218,https://maps.google.com/?cid=0x0:0xdf4fd60fbbfa9009,
perumahan,Pembangunan Perumahan,Garden 3 A,"3VQQ+V98, Taan, Kec. Tapalang, Kabupaten Mamuju, Sulawesi Barat","Kabupaten Mamuju, Sulawesi Barat",SULAWESI BARAT,,Indonesia,,,,-2.9103365,118.8884556,https://maps.google.com/?cid=0x0:0xf89fb67678ee5cd5,
perumahan,Komplek perumahan,Pitri,"WVVC+3GG, Kabiraan, Kec. Ulumanda, Kabupaten Majene, Sulawesi Barat 91453","Kabiraan, Kec. Ulumanda, Kabupaten Majene",SULAWESI BARAT,91453.0,Indonesia,,,,-3.0573053,118.8713314,https://maps.google.com/?cid=0x0:0xd88f98089c822180,
perumahan,Komplek perumahan,Ayub,"2V74+GH3, Malunda, Kec. Malunda, Kabupaten Majene, Sulawesi Barat 91453","Malunda, Kec. Malunda, Kabupaten Majene",SULAWESI BARAT,91453.0,Indonesia,,,,-2.986236,118.856252,https://maps.google.com/?cid=0x0:0x9af197e243438154,
perumahan,Komplek perumahan,Aco salulemo,"WWG6+899, Tandeallo, Kec. Ulumanda, Kabupaten Majene, Sulawesi Barat 91453","Tandeallo, Kec. Ulumanda, Kabupaten Majene",SULAWESI BARAT,91453.0,Indonesia,,,,-3.0733599,118.9105402,https://maps.google.com/?cid=0x0:0xa082bdc969aa7ee9,
perumahan,Komplek perumahan,Malatewa,"2VJC+JWQ, Mekkatta, Kec. Malunda, Kabupaten Majene, Sulawesi Barat 91453","Mekkatta, Kec. Malunda, Kabupaten Majene",SULAWESI BARAT,91453.0,Indonesia,,,,-2.9684153,118.8723566,https://maps.google.com/?cid=0x0:0xf907f6980bf41451,
perumahan,Komplek perumahan,Persawahan,"WR8P+9XG, Sambabo, Kec. Ulumanda, Kabupaten Majene, Sulawesi Barat","Kabupaten Majene, Sulawesi Barat",SULAWESI BARAT,,Indonesia,,,,-3.0840655,118.8374538,https://maps.google.com/?cid=0x0:0xe2ae539dddce9744,
perumahan,Komplek perumahan,Perumahan Griya Yumna,"7V27+HMV, Bangkala, Kec. Maiwa, Kabupaten Enrekang, Sulawesi Selatan 91761","Bangkala, Kec. Maiwa, Kabupaten Enrekang",SULAWESI BARAT,91761.0,Indonesia,85200003359.0,,,-3.7485204,119.8641621,https://maps.google.com/?cid=0x0:0xcd22cb5a9446277b,
perumahan,Perumahan,Griya Yumna 2,"7V89+545, Jalan jeruk manis, Botto Mallangga, Kec. Maiwa, Kabupaten Enrekang, Sulawesi Selatan","Kabupaten Enrekang, Sulawesi Selatan",SULAWESI BARAT,,Indonesia,,,,-3.7346034,119.867855,https://maps.google.com/?cid=0x0:0x265eb303eb51d381,
