Category;Real Category;Business Name;Address;City;State;Postal Code;Country;Phone;Latitude;Longitude;Map Link
"hardware store";"hardware store";"Pulau Mangoli";"Kabupaten Kepulauan Sula, Maluku Utara";"Kabupaten Kepulauan Sula, Maluku Utara";"MALUKU UTARA";"";"Indonesia";"";"-1.8321222";"125.958777";"https://maps.google.com/?cid=0x0:0xbd9fadcb148e1f3b"
"hardware store";"Toko Bahan Bangunan";"Toko.Timur Raya";"8VPJ+29R, Unnamed Road, Fidi Jaya, Kec. Weda, Kabupaten Halmahera Tengah, Maluku Utara";"Kabupaten Halmahera Tengah, Maluku Utara";"MALUKU UTARA";"";"Indonesia";"";"0.3351116";"127.8809053";"https://maps.google.com/?cid=0x0:0x23faf8ae84e5052a"
"hardware store";"Toko Bahan Bangunan";"Toko Royal Berkat";"Fidi Jaya, Kec. Weda, Kabupaten Halmahera Tengah, Maluku Utara";"Kabupaten Halmahera Tengah, Maluku Utara";"MALUKU UTARA";"";"Indonesia";"";"0.3366136";"127.8744648";"https://maps.google.com/?cid=0x0:0x1ba28ed8202b8f7"
"hardware store";"Toko Bahan Bangunan";"toko fariasi";"Fagudu, Kec. Sanana, Kabupaten Kepulauan Sula, Maluku Utara 97795";"Kec. Sanana, Kabupaten Kepulauan Sula";"MALUKU UTARA";"97795";"Indonesia";"";"-2.0613406";"125.982371";"https://maps.google.com/?cid=0x0:0xc7d11f3f54634ae8"
"hardware store";"Toko Bahan Bangunan";"Bangunan Toko";"WXWG+656, Fagudu, Kec. Sanana, Kabupaten Kepulauan Sula, Maluku Utara";"Kabupaten Kepulauan Sula, Maluku Utara";"MALUKU UTARA";"";"Indonesia";" 092921018";"-2.054462";"125.975403";"https://maps.google.com/?cid=0x0:0xe128a2c2968ec91c"
"hardware store";"Toko Bahan Bangunan";"toko fariasi";"Fagudu, Kec. Sanana, Kabupaten Kepulauan Sula, Maluku Utara 97795";"Kec. Sanana, Kabupaten Kepulauan Sula";"MALUKU UTARA";"97795";"Indonesia";"";"-2.0613406";"125.982371";"https://maps.google.com/?cid=0x0:0xc7d11f3f54634ae8"
"hardware store";"Toko Bahan Bangunan";"Bangunan Toko";"WXWG+656, Fagudu, Kec. Sanana, Kabupaten Kepulauan Sula, Maluku Utara";"Kabupaten Kepulauan Sula, Maluku Utara";"MALUKU UTARA";"";"Indonesia";" 092921018";"-2.054462";"125.975403";"https://maps.google.com/?cid=0x0:0xe128a2c2968ec91c"
"hardware store";"hardware store";"Maluku Utara";"";"Maluku Utara";"MALUKU UTARA";"";"Indonesia";"";"1.5709993";"127.8087693";"https://maps.google.com/?cid=0x0:0x1030bfbcaf71ac0"
"hardware store";"Toko Bahan Bangunan";"Toko Surya Jaya - Labuha";"9FCJ+69H, Unnamed Road, Labuha, Kec. Bacan, Kabupaten Halmahera Selatan, Maluku Utara";"Kabupaten Halmahera Selatan, Maluku Utara";"MALUKU UTARA";"";"Indonesia";" 09272321732";"-0.6294262";"127.4809969";"https://maps.google.com/?cid=0x0:0xdad7b98c88e223e3"
"hardware store";"hardware store";"Toko bangunan";"FPQF+JGJ, Pulau, Obi Sel., Kabupaten Halmahera Selatan, Maluku Utara";"Kabupaten Halmahera Selatan, Maluku Utara";"MALUKU UTARA";"";"Indonesia";"";"-1.5109015";"127.7237678";"https://maps.google.com/?cid=0x0:0xbd7517ef81383967"
"hardware store";"Toko Bahan Bangunan";"Toko Fajar Bangunan";"Gufasa, Kec. Jailolo, Kabupaten Halmahera Barat, Maluku Utara";"Kabupaten Halmahera Barat, Maluku Utara";"MALUKU UTARA";"";"Indonesia";"";"1.0627302";"127.4677077";"https://maps.google.com/?cid=0x0:0x489f67ee1f329e08"
"hardware store";"hardware store";"Kec. Mangoli Bar.";"Kabupaten Kepulauan Sula, Maluku Utara";"Kabupaten Kepulauan Sula, Maluku Utara";"MALUKU UTARA";"";"Indonesia";"";"-1.8071861";"125.3556926";"https://maps.google.com/?cid=0x0:0x9235093942d7b06a"
"hardware store";"Toko Bahan Bangunan";"Bangunan Toko";"WXWG+656, Fagudu, Kec. Sanana, Kabupaten Kepulauan Sula, Maluku Utara";"Kabupaten Kepulauan Sula, Maluku Utara";"MALUKU UTARA";"";"Indonesia";" 092921018";"-2.054462";"125.975403";"https://maps.google.com/?cid=0x0:0xe128a2c2968ec91c"
"hardware store";"hardware store";"Kec. Sulabesi Tengah";"Kabupaten Kepulauan Sula, Maluku Utara";"Kabupaten Kepulauan Sula, Maluku Utara";"MALUKU UTARA";"";"Indonesia";"";"-2.2660437";"126.0041676";"https://maps.google.com/?cid=0x0:0xfbd0a140fc92e4f2"
"hardware store";"Toko Bahan Bangunan";"toko fariasi";"Fagudu, Kec. Sanana, Kabupaten Kepulauan Sula, Maluku Utara 97795";"Kec. Sanana, Kabupaten Kepulauan Sula";"MALUKU UTARA";"97795";"Indonesia";"";"-2.0613406";"125.982371";"https://maps.google.com/?cid=0x0:0xc7d11f3f54634ae8"
"hardware store";"Toko Bahan Bangunan";"toko fariasi";"Fagudu, Kec. Sanana, Kabupaten Kepulauan Sula, Maluku Utara 97795";"Kec. Sanana, Kabupaten Kepulauan Sula";"MALUKU UTARA";"97795";"Indonesia";"";"-2.0613406";"125.982371";"https://maps.google.com/?cid=0x0:0xc7d11f3f54634ae8"
"hardware store";"Toko Bahan Bangunan";"Bangunan Toko";"WXWG+656, Fagudu, Kec. Sanana, Kabupaten Kepulauan Sula, Maluku Utara";"Kabupaten Kepulauan Sula, Maluku Utara";"MALUKU UTARA";"";"Indonesia";" 092921018";"-2.054462";"125.975403";"https://maps.google.com/?cid=0x0:0xe128a2c2968ec91c"
"hardware store";"hardware store";"Maluku Utara 97795";"Falahu, Kec. Sanana, Kabupaten Kepulauan Sula, Maluku Utara";"Kabupaten Kepulauan Sula, Maluku Utara";"MALUKU UTARA";"";"Indonesia";"";"-2.0613593";"125.9823727";"https://maps.google.com/?cid=0x0:0x25db49ff4002ccf8"
"hardware store";"Toko Bahan Bangunan";"Bangunan Toko";"WXWG+656, Fagudu, Kec. Sanana, Kabupaten Kepulauan Sula, Maluku Utara";"Kabupaten Kepulauan Sula, Maluku Utara";"MALUKU UTARA";"";"Indonesia";" 092921018";"-2.054462";"125.975403";"https://maps.google.com/?cid=0x0:0xe128a2c2968ec91c"
"hardware store";"Toko Bahan Bangunan";"toko fariasi";"Fagudu, Kec. Sanana, Kabupaten Kepulauan Sula, Maluku Utara 97795";"Kec. Sanana, Kabupaten Kepulauan Sula";"MALUKU UTARA";"97795";"Indonesia";"";"-2.0613406";"125.982371";"https://maps.google.com/?cid=0x0:0xc7d11f3f54634ae8"
"hardware store";"hardware store";"Maluku Utara 97795";"Falahu, Kec. Sanana, Kabupaten Kepulauan Sula, Maluku Utara";"Kabupaten Kepulauan Sula, Maluku Utara";"MALUKU UTARA";"";"Indonesia";"";"-2.0613593";"125.9823727";"https://maps.google.com/?cid=0x0:0x25db49ff4002ccf8"
"hardware store";"hardware store";"Hardware Galala";"PHVH+PHG, galala Sofifi, Galala, Oba Utara, Kota Tidore Kepulauan, Maluku Utara";"Kota Tidore Kepulauan, Maluku Utara";"MALUKU UTARA";"";"Indonesia";"";"0.7443129";"127.5789647";"https://maps.google.com/?cid=0x0:0x77ec4e639a04a77"
"hardware store";"hardware store";"Toko bangunan";"FPQF+JGJ, Pulau, Obi Sel., Kabupaten Halmahera Selatan, Maluku Utara";"Kabupaten Halmahera Selatan, Maluku Utara";"MALUKU UTARA";"";"Indonesia";"";"-1.5109015";"127.7237678";"https://maps.google.com/?cid=0x0:0xbd7517ef81383967"
"hardware store";"Komplek perumahan";"Arpon";"WXWH+FPF, Mangon, Kec. Sanana, Kabupaten Kepulauan Sula, Maluku Utara";"Kabupaten Kepulauan Sula, Maluku Utara";"MALUKU UTARA";"";"Indonesia";"";"-2.054325";"125.979051";"https://maps.google.com/?cid=0x0:0x344d511ece9997e2"
"hardware store";"Kios";"Kompleks Arpon";"WXWH+FPF, Mangon, Kec. Sanana, Kabupaten Kepulauan Sula, Maluku Utara";"Kabupaten Kepulauan Sula, Maluku Utara";"MALUKU UTARA";"";"Indonesia";"";"-2.0538089";"125.9792865";"https://maps.google.com/?cid=0x0:0xca12095bcea8b05a"
"hardware store";"hardware store";"Mangoli Utara";"Kabupaten Kepulauan Sula, Maluku Utara";"Kabupaten Kepulauan Sula, Maluku Utara";"MALUKU UTARA";"";"Indonesia";"";"-1.7870032";"125.4804915";"https://maps.google.com/?cid=0x0:0x821bd9ab23ff70b4"
"hardware store";"hardware store";"Kec. Mangoli Tengah";"Kabupaten Kepulauan Sula, Maluku Utara";"Kabupaten Kepulauan Sula, Maluku Utara";"MALUKU UTARA";"";"Indonesia";"";"-1.9272257";"125.9383491";"https://maps.google.com/?cid=0x0:0xa42c94bee3686447"
"hardware store";"hardware store";"Pulau Mangoli";"Kabupaten Kepulauan Sula, Maluku Utara";"Kabupaten Kepulauan Sula, Maluku Utara";"MALUKU UTARA";"";"Indonesia";"";"-1.8321222";"125.958777";"https://maps.google.com/?cid=0x0:0xbd9fadcb148e1f3b"
"hardware store";"hardware store";"Mangoli Utara Tim.";"Kabupaten Kepulauan Sula, Maluku Utara";"Kabupaten Kepulauan Sula, Maluku Utara";"MALUKU UTARA";"";"Indonesia";"";"-1.8414454";"126.241388";"https://maps.google.com/?cid=0x0:0x17e3b0f466e504e3"
"hardware store";"hardware store";"Kec. Mangoli Sel.";"Kabupaten Kepulauan Sula, Maluku Utara";"Kabupaten Kepulauan Sula, Maluku Utara";"MALUKU UTARA";"";"Indonesia";"";"-1.9281685";"125.5811446";"https://maps.google.com/?cid=0x0:0xe82e6eef47e4f664"
"hardware store";"Toko Bahan Bangunan";"toko fariasi";"Fagudu, Kec. Sanana, Kabupaten Kepulauan Sula, Maluku Utara 97795";"Kec. Sanana, Kabupaten Kepulauan Sula";"MALUKU UTARA";"97795";"Indonesia";"";"-2.0613406";"125.982371";"https://maps.google.com/?cid=0x0:0xc7d11f3f54634ae8"
"hardware store";"Toko Bahan Bangunan";"Bangunan Toko";"WXWG+656, Fagudu, Kec. Sanana, Kabupaten Kepulauan Sula, Maluku Utara";"Kabupaten Kepulauan Sula, Maluku Utara";"MALUKU UTARA";"";"Indonesia";" 092921018";"-2.054462";"125.975403";"https://maps.google.com/?cid=0x0:0xe128a2c2968ec91c"
"supermarket bangunan";"supermarket bangunan";"Kec. Mangoli Tim.";"Kabupaten Kepulauan Sula, Maluku Utara";"Kabupaten Kepulauan Sula, Maluku Utara";"MALUKU UTARA";"";"Indonesia";"";"-1.9120347";"125.9824503";"https://maps.google.com/?cid=0x0:0x8b05f627cf49bd0a"
"supermarket bangunan";"Toko Bahan Bangunan";"Makmur Utama Supermarket Bahan Bangunan";"Jl. Yasin Gamsungi No.2 Kec. ternate tengah, Kel, Makassar Tim., Makassar Timur, Kota Ternate, Maluku Utara 97724";"Kel, Makassar Tim., Makassar Timur, Kota Ternate";"MALUKU UTARA";"97724";"Indonesia";" 08114313799";"0.7940352";"127.3876695";"https://maps.google.com/?cid=0x0:0x2f492ae87bf64247"
"supermarket bangunan";"Toko Bahan Bangunan";"Makmur Utama Supermarket Bahan Bangunan";"Jambula, Kec. Pulau Ternate, Kota Ternate, Maluku Utara";"Kota Ternate, Maluku Utara";"MALUKU UTARA";"";"Indonesia";" 08114313899";"0.7581804";"127.3220409";"https://maps.google.com/?cid=0x0:0xe3a01731f7851efa"
"supermarket bangunan";"supermarket bangunan";"Maluku Utara 97795";"Falahu, Kec. Sanana, Kabupaten Kepulauan Sula, Maluku Utara";"Kabupaten Kepulauan Sula, Maluku Utara";"MALUKU UTARA";"";"Indonesia";"";"-2.0613593";"125.9823727";"https://maps.google.com/?cid=0x0:0x25db49ff4002ccf8"
"supermarket bangunan";"Toko Bahan Bangunan";"Distributor Semen Conch Sanana";"Jalan Raya, Falahu, Kec. Sanana, Kabupaten Kepulauan Sula, Maluku Utara 97795";"Falahu, Kec. Sanana, Kabupaten Kepulauan Sula";"MALUKU UTARA";"97795";"Indonesia";" 082233920834";"-2.059688";"125.9824895";"https://maps.google.com/?cid=0x0:0x6eb1605814b08aea"
"supermarket bangunan";"Toko Bahan Bangunan";"toko fariasi";"Fagudu, Kec. Sanana, Kabupaten Kepulauan Sula, Maluku Utara 97795";"Kec. Sanana, Kabupaten Kepulauan Sula";"MALUKU UTARA";"97795";"Indonesia";"";"-2.0613406";"125.982371";"https://maps.google.com/?cid=0x0:0xc7d11f3f54634ae8"
"supermarket bangunan";"supermarket bangunan";"Maluku Utara 97795";"Falahu, Kec. Sanana, Kabupaten Kepulauan Sula, Maluku Utara";"Kabupaten Kepulauan Sula, Maluku Utara";"MALUKU UTARA";"";"Indonesia";"";"-2.0613593";"125.9823727";"https://maps.google.com/?cid=0x0:0x25db49ff4002ccf8"
"supermarket bangunan";"Toko Bahan Bangunan";"toko fariasi";"Fagudu, Kec. Sanana, Kabupaten Kepulauan Sula, Maluku Utara 97795";"Kec. Sanana, Kabupaten Kepulauan Sula";"MALUKU UTARA";"97795";"Indonesia";"";"-2.0613406";"125.982371";"https://maps.google.com/?cid=0x0:0xc7d11f3f54634ae8"
"supermarket bangunan";"Toko Bahan Bangunan";"Bangunan Toko";"WXWG+656, Fagudu, Kec. Sanana, Kabupaten Kepulauan Sula, Maluku Utara";"Kabupaten Kepulauan Sula, Maluku Utara";"MALUKU UTARA";"";"Indonesia";" 092921018";"-2.054462";"125.975403";"https://maps.google.com/?cid=0x0:0xe128a2c2968ec91c"
"supermarket bangunan";"supermarket bangunan";"Kec. Mangoli Bar.";"Kabupaten Kepulauan Sula, Maluku Utara";"Kabupaten Kepulauan Sula, Maluku Utara";"MALUKU UTARA";"";"Indonesia";"";"-1.8071861";"125.3556926";"https://maps.google.com/?cid=0x0:0x9235093942d7b06a"
"supermarket bangunan";"supermarket bangunan";"Maluku Utara 97795";"Falahu, Kec. Sanana, Kabupaten Kepulauan Sula, Maluku Utara";"Kabupaten Kepulauan Sula, Maluku Utara";"MALUKU UTARA";"";"Indonesia";"";"-2.0613593";"125.9823727";"https://maps.google.com/?cid=0x0:0x25db49ff4002ccf8"
"supermarket bangunan";"Toko Bahan Bangunan";"toko fariasi";"Fagudu, Kec. Sanana, Kabupaten Kepulauan Sula, Maluku Utara 97795";"Kec. Sanana, Kabupaten Kepulauan Sula";"MALUKU UTARA";"97795";"Indonesia";"";"-2.0613406";"125.982371";"https://maps.google.com/?cid=0x0:0xc7d11f3f54634ae8"
"supermarket bangunan";"Toko Bahan Bangunan";"Bangunan Toko";"WXWG+656, Fagudu, Kec. Sanana, Kabupaten Kepulauan Sula, Maluku Utara";"Kabupaten Kepulauan Sula, Maluku Utara";"MALUKU UTARA";"";"Indonesia";" 092921018";"-2.054462";"125.975403";"https://maps.google.com/?cid=0x0:0xe128a2c2968ec91c"
"supermarket bangunan";"Toko Bahan Bangunan";"Toko Sejahtera";"WXWJ+556, Mangon, Kec. Sanana, Kabupaten Kepulauan Sula, Maluku Utara";"Kabupaten Kepulauan Sula, Maluku Utara";"MALUKU UTARA";"";"Indonesia";"";"-2.0545963";"125.9803939";"https://maps.google.com/?cid=0x0:0x9c83e67a40dd0af7"
"supermarket bangunan";"Toko Bahan Bangunan";"Bangunan Toko";"WXWG+656, Fagudu, Kec. Sanana, Kabupaten Kepulauan Sula, Maluku Utara";"Kabupaten Kepulauan Sula, Maluku Utara";"MALUKU UTARA";"";"Indonesia";" 092921018";"-2.054462";"125.975403";"https://maps.google.com/?cid=0x0:0xe128a2c2968ec91c"
"supermarket bangunan";"Toko Bahan Bangunan";"Toko Sejahtera";"WXWJ+556, Mangon, Kec. Sanana, Kabupaten Kepulauan Sula, Maluku Utara";"Kabupaten Kepulauan Sula, Maluku Utara";"MALUKU UTARA";"";"Indonesia";"";"-2.0545963";"125.9803939";"https://maps.google.com/?cid=0x0:0x9c83e67a40dd0af7"
"supermarket bangunan";"Toko Perlengkapan Rumah";"Supermarket Bahan Bangunan";"2F2F+92V, Teladan, Kec. Toboali, Kabupaten Bangka Selatan, Kepulauan Bangka Belitung 33783";"Teladan, Kec. Toboali, Kabupaten Bangka Selatan";"MALUKU UTARA";"33783";"Indonesia";" 082183195877";"-2.9990211";"106.4725558";"https://maps.google.com/?cid=0x0:0x3a7d30ee82e20779"
"supermarket bangunan";"supermarket bangunan";"Maluku Utara 97795";"Falahu, Kec. Sanana, Kabupaten Kepulauan Sula, Maluku Utara";"Kabupaten Kepulauan Sula, Maluku Utara";"MALUKU UTARA";"";"Indonesia";"";"-2.0613593";"125.9823727";"https://maps.google.com/?cid=0x0:0x25db49ff4002ccf8"
"supermarket bangunan";"Toko Bahan Bangunan";"toko fariasi";"Fagudu, Kec. Sanana, Kabupaten Kepulauan Sula, Maluku Utara 97795";"Kec. Sanana, Kabupaten Kepulauan Sula";"MALUKU UTARA";"97795";"Indonesia";"";"-2.0613406";"125.982371";"https://maps.google.com/?cid=0x0:0xc7d11f3f54634ae8"
"supermarket bangunan";"Toko Bahan Bangunan";"Bangunan Toko";"WXWG+656, Fagudu, Kec. Sanana, Kabupaten Kepulauan Sula, Maluku Utara";"Kabupaten Kepulauan Sula, Maluku Utara";"MALUKU UTARA";"";"Indonesia";" 092921018";"-2.054462";"125.975403";"https://maps.google.com/?cid=0x0:0xe128a2c2968ec91c"
"supermarket bangunan";"supermarket bangunan";"Mangoli Utara";"Kabupaten Kepulauan Sula, Maluku Utara";"Kabupaten Kepulauan Sula, Maluku Utara";"MALUKU UTARA";"";"Indonesia";"";"-1.7870032";"125.4804915";"https://maps.google.com/?cid=0x0:0x821bd9ab23ff70b4"
"supermarket bangunan";"Toko Bahan Bangunan";"Makmur Utama Supermarket Bahan Bangunan";"Jambula, Kec. Pulau Ternate, Kota Ternate, Maluku Utara";"Kota Ternate, Maluku Utara";"MALUKU UTARA";"";"Indonesia";" 08114313899";"0.7581804";"127.3220409";"https://maps.google.com/?cid=0x0:0xe3a01731f7851efa"
"supermarket bangunan";"Toko Bahan Bangunan";"Makmur Utama Supermarket Bahan Bangunan";"Jl. Yasin Gamsungi No.2 Kec. ternate tengah, Kel, Makassar Tim., Makassar Timur, Kota Ternate, Maluku Utara 97724";"Kel, Makassar Tim., Makassar Timur, Kota Ternate";"MALUKU UTARA";"97724";"Indonesia";" 08114313799";"0.7940352";"127.3876695";"https://maps.google.com/?cid=0x0:0x2f492ae87bf64247"
"supermarket bangunan";"supermarket bangunan";"Kec. Mangoli Tengah";"Kabupaten Kepulauan Sula, Maluku Utara";"Kabupaten Kepulauan Sula, Maluku Utara";"MALUKU UTARA";"";"Indonesia";"";"-1.9272257";"125.9383491";"https://maps.google.com/?cid=0x0:0xa42c94bee3686447"
"supermarket bangunan";"Toko Bahan Bangunan";"Makmur Utama Supermarket Bahan Bangunan";"Jl. Yasin Gamsungi No.2 Kec. ternate tengah, Kel, Makassar Tim., Makassar Timur, Kota Ternate, Maluku Utara 97724";"Kel, Makassar Tim., Makassar Timur, Kota Ternate";"MALUKU UTARA";"97724";"Indonesia";" 08114313799";"0.7940352";"127.3876695";"https://maps.google.com/?cid=0x0:0x2f492ae87bf64247"
"supermarket bangunan";"supermarket bangunan";"Desa Mangoli";"3WGQ+2V9, Mangoli, Kec. Mangoli Tengah, Kabupaten Kepulauan Sula, Maluku Utara";"Kabupaten Kepulauan Sula, Maluku Utara";"MALUKU UTARA";"";"Indonesia";"";"-1.9249556";"125.9397257";"https://maps.google.com/?cid=0x0:0x1b31c796d71261f5"
"supermarket bangunan";"supermarket bangunan";"Mangoli Utara Tim.";"Kabupaten Kepulauan Sula, Maluku Utara";"Kabupaten Kepulauan Sula, Maluku Utara";"MALUKU UTARA";"";"Indonesia";"";"-1.8414454";"126.241388";"https://maps.google.com/?cid=0x0:0x17e3b0f466e504e3"
"supermarket bangunan";"Toko Bahan Bangunan";"Makmur Utama Supermarket Bahan Bangunan";"Jl. Yasin Gamsungi No.2 Kec. ternate tengah, Kel, Makassar Tim., Makassar Timur, Kota Ternate, Maluku Utara 97724";"Kel, Makassar Tim., Makassar Timur, Kota Ternate";"MALUKU UTARA";"97724";"Indonesia";" 08114313799";"0.7940352";"127.3876695";"https://maps.google.com/?cid=0x0:0x2f492ae87bf64247"
"supermarket bangunan";"Toko Bahan Bangunan";"Makmur Utama Supermarket Bahan Bangunan";"Jambula, Kec. Pulau Ternate, Kota Ternate, Maluku Utara";"Kota Ternate, Maluku Utara";"MALUKU UTARA";"";"Indonesia";" 08114313899";"0.7581804";"127.3220409";"https://maps.google.com/?cid=0x0:0xe3a01731f7851efa"
"supermarket bangunan";"supermarket bangunan";"Kec. Mangoli Sel.";"Kabupaten Kepulauan Sula, Maluku Utara";"Kabupaten Kepulauan Sula, Maluku Utara";"MALUKU UTARA";"";"Indonesia";"";"-1.9281685";"125.5811446";"https://maps.google.com/?cid=0x0:0xe82e6eef47e4f664"
"supermarket bangunan";"Toko Bahan Bangunan";"Makmur Utama Supermarket Bahan Bangunan";"Jl. Yasin Gamsungi No.2 Kec. ternate tengah, Kel, Makassar Tim., Makassar Timur, Kota Ternate, Maluku Utara 97724";"Kel, Makassar Tim., Makassar Timur, Kota Ternate";"MALUKU UTARA";"97724";"Indonesia";" 08114313799";"0.7940352";"127.3876695";"https://maps.google.com/?cid=0x0:0x2f492ae87bf64247"
"supermarket bangunan";"supermarket bangunan";"Toko bangunan";"FPQF+JGJ, Pulau, Obi Sel., Kabupaten Halmahera Selatan, Maluku Utara";"Kabupaten Halmahera Selatan, Maluku Utara";"MALUKU UTARA";"";"Indonesia";"";"-1.5109015";"127.7237678";"https://maps.google.com/?cid=0x0:0xbd7517ef81383967"
"supermarket bangunan";"supermarket bangunan";"Maluku Utara 97795";"Falahu, Kec. Sanana, Kabupaten Kepulauan Sula, Maluku Utara";"Kabupaten Kepulauan Sula, Maluku Utara";"MALUKU UTARA";"";"Indonesia";"";"-2.0613593";"125.9823727";"https://maps.google.com/?cid=0x0:0x25db49ff4002ccf8"
"supermarket bangunan";"Toko Bahan Bangunan";"Distributor Semen Conch Sanana";"Jalan Raya, Falahu, Kec. Sanana, Kabupaten Kepulauan Sula, Maluku Utara 97795";"Falahu, Kec. Sanana, Kabupaten Kepulauan Sula";"MALUKU UTARA";"97795";"Indonesia";" 082233920834";"-2.059688";"125.9824895";"https://maps.google.com/?cid=0x0:0x6eb1605814b08aea"
"supermarket bangunan";"Toko Bahan Bangunan";"toko fariasi";"Fagudu, Kec. Sanana, Kabupaten Kepulauan Sula, Maluku Utara 97795";"Kec. Sanana, Kabupaten Kepulauan Sula";"MALUKU UTARA";"97795";"Indonesia";"";"-2.0613406";"125.982371";"https://maps.google.com/?cid=0x0:0xc7d11f3f54634ae8"
"supermarket bangunan";"Toko Barang Pecah Belah";"Toko Moro Asih";"WXJJ+9C3, Fatce, Kec. Sanana, Kabupaten Kepulauan Sula, Maluku Utara";"Kabupaten Kepulauan Sula, Maluku Utara";"MALUKU UTARA";"";"Indonesia";"";"-2.0691034";"125.981046";"https://maps.google.com/?cid=0x0:0x6c709744209ad66c"
"mall";"mall";"Desa Mangoli";"3WGQ+2V9, Mangoli, Kec. Mangoli Tengah, Kabupaten Kepulauan Sula, Maluku Utara";"Kabupaten Kepulauan Sula, Maluku Utara";"MALUKU UTARA";"";"Indonesia";"";"-1.9249556";"125.9397257";"https://maps.google.com/?cid=0x0:0x1b31c796d71261f5"
"mall";"Minimarket";"TOKO KITA";"3WFP+V4, Mangoli, Kec. Mangoli Tengah, Kabupaten Kepulauan Sula, Maluku Utara";"Kabupaten Kepulauan Sula, Maluku Utara";"MALUKU UTARA";"";"Indonesia";" 081243749219";"-1.9253205";"125.9353555";"https://maps.google.com/?cid=0x0:0x4c32ab2f65abce8"
"mall";"Minimarket";"TOKO KITA";"3XM7+4P4, Karamat Titdoy, Kec. Mangoli Tim., Kabupaten Kepulauan Sula, Maluku Utara";"Kabupaten Kepulauan Sula, Maluku Utara";"MALUKU UTARA";"";"Indonesia";" 082191464644";"-1.9172281";"125.9643355";"https://maps.google.com/?cid=0x0:0x9855b40dfc56bbca"
"mall";"mall";"Maluku Utara 97795";"Falahu, Kec. Sanana, Kabupaten Kepulauan Sula, Maluku Utara";"Kabupaten Kepulauan Sula, Maluku Utara";"MALUKU UTARA";"";"Indonesia";"";"-2.0613593";"125.9823727";"https://maps.google.com/?cid=0x0:0x25db49ff4002ccf8"
"mall";"Pusat Perbelanjaan";"Toko Sula Baru";"WXQJ+XHX, Fagudu, Kec. Sanana, Kabupaten Kepulauan Sula, Maluku Utara";"Kabupaten Kepulauan Sula, Maluku Utara";"MALUKU UTARA";"";"Indonesia";"";"-2.0600218";"125.9814746";"https://maps.google.com/?cid=0x0:0x2247677237edbfc5"
"mall";"Pusat Perbelanjaan";"Pusat Perbelanjaan Rombengan Sanana Tegar Jaya";"WXJJ+QGR, Jl. Soekarno Hatta, Fatce, Kec. Sanana, Kabupaten Kepulauan Sula, Maluku Utara";"Kabupaten Kepulauan Sula, Maluku Utara";"MALUKU UTARA";"";"Indonesia";" 081241486606";"-2.0680239";"125.9812705";"https://maps.google.com/?cid=0x0:0x5a590346004f9b49"
"mall";"Pusat Perbelanjaan";"BOMBAY SHOP";"WXWP+P95, Mangon, Kec. Sanana, Kabupaten Kepulauan Sula, Maluku Utara";"Kabupaten Kepulauan Sula, Maluku Utara";"MALUKU UTARA";"";"Indonesia";" 082113132478";"-2.0532334";"125.9859761";"https://maps.google.com/?cid=0x0:0x67a9879f6b916c46"
"mall";"mall";"aminam Store";"WXRJ+CHP, Fagudu, Kec. Sanana, Kabupaten Kepulauan Sula, Maluku Utara";"Kabupaten Kepulauan Sula, Maluku Utara";"MALUKU UTARA";"";"Indonesia";"";"-2.0589122";"125.98145";"https://maps.google.com/?cid=0x0:0xb427a97362edb210"
"mall";"Pusat Perbelanjaan";"Toko SURYA";"WXRJ+9JC, Fagudu, Kec. Sanana, Kabupaten Kepulauan Sula, Maluku Utara";"Kabupaten Kepulauan Sula, Maluku Utara";"MALUKU UTARA";"";"Indonesia";" 085256789026";"-2.0590609";"125.9815216";"https://maps.google.com/?cid=0x0:0x8108562eb52baeff"
"mall";"Pusat Perbelanjaan";"Toko Sula Baru";"WXQJ+XHX, Fagudu, Kec. Sanana, Kabupaten Kepulauan Sula, Maluku Utara";"Kabupaten Kepulauan Sula, Maluku Utara";"MALUKU UTARA";"";"Indonesia";"";"-2.0600218";"125.9814746";"https://maps.google.com/?cid=0x0:0x2247677237edbfc5"
"mall";"Pusat Perbelanjaan";"Toko SURYA";"WXRJ+9JC, Fagudu, Kec. Sanana, Kabupaten Kepulauan Sula, Maluku Utara";"Kabupaten Kepulauan Sula, Maluku Utara";"MALUKU UTARA";"";"Indonesia";" 085256789026";"-2.0590609";"125.9815216";"https://maps.google.com/?cid=0x0:0x8108562eb52baeff"
"mall";"Pusat Perbelanjaan";"Pusat Perbelanjaan Rombengan Sanana Tegar Jaya";"WXJJ+QGR, Jl. Soekarno Hatta, Fatce, Kec. Sanana, Kabupaten Kepulauan Sula, Maluku Utara";"Kabupaten Kepulauan Sula, Maluku Utara";"MALUKU UTARA";"";"Indonesia";" 081241486606";"-2.0680239";"125.9812705";"https://maps.google.com/?cid=0x0:0x5a590346004f9b49"
"mall";"mall";"Maluku Utara 97795";"Falahu, Kec. Sanana, Kabupaten Kepulauan Sula, Maluku Utara";"Kabupaten Kepulauan Sula, Maluku Utara";"MALUKU UTARA";"";"Indonesia";"";"-2.0613593";"125.9823727";"https://maps.google.com/?cid=0x0:0x25db49ff4002ccf8"
"mall";"Pusat Perbelanjaan";"Toko taufiq";"WXHJ+W8V, Fogi, Kec. Sanana, Kabupaten Kepulauan Sula, Maluku Utara";"Kabupaten Kepulauan Sula, Maluku Utara";"MALUKU UTARA";"";"Indonesia";" 085240505090";"-2.0701414";"125.9807838";"https://maps.google.com/?cid=0x0:0x54c4642c5e058e9f"
"mall";"Pusat Perbelanjaan";"BOMBAY SHOP";"WXWP+P95, Mangon, Kec. Sanana, Kabupaten Kepulauan Sula, Maluku Utara";"Kabupaten Kepulauan Sula, Maluku Utara";"MALUKU UTARA";"";"Indonesia";" 082113132478";"-2.0532334";"125.9859761";"https://maps.google.com/?cid=0x0:0x67a9879f6b916c46"
"mall";"mall";"aminam Store";"WXRJ+CHP, Fagudu, Kec. Sanana, Kabupaten Kepulauan Sula, Maluku Utara";"Kabupaten Kepulauan Sula, Maluku Utara";"MALUKU UTARA";"";"Indonesia";"";"-2.0589122";"125.98145";"https://maps.google.com/?cid=0x0:0xb427a97362edb210"
"mall";"mall";"boy's store";"499G+5Q8, Pas Ipa, Kec. Mangoli Bar., Kabupaten Kepulauan Sula, Maluku Utara";"Kabupaten Kepulauan Sula, Maluku Utara";"MALUKU UTARA";"";"Indonesia";"";"-1.8820899";"125.3769396";"https://maps.google.com/?cid=0x0:0xad9b6bdfbef3cf98"
"mall";"Pusat Perbelanjaan";"Toko Sula Baru";"WXQJ+XHX, Fagudu, Kec. Sanana, Kabupaten Kepulauan Sula, Maluku Utara";"Kabupaten Kepulauan Sula, Maluku Utara";"MALUKU UTARA";"";"Indonesia";"";"-2.0600218";"125.9814746";"https://maps.google.com/?cid=0x0:0x2247677237edbfc5"
"mall";"mall";"Kec. Sulabesi Tengah";"Kabupaten Kepulauan Sula, Maluku Utara";"Kabupaten Kepulauan Sula, Maluku Utara";"MALUKU UTARA";"";"Indonesia";"";"-2.2660437";"126.0041676";"https://maps.google.com/?cid=0x0:0xfbd0a140fc92e4f2"
"mall";"Pusat Perbelanjaan";"Toko SURYA";"WXRJ+9JC, Fagudu, Kec. Sanana, Kabupaten Kepulauan Sula, Maluku Utara";"Kabupaten Kepulauan Sula, Maluku Utara";"MALUKU UTARA";"";"Indonesia";" 085256789026";"-2.0590609";"125.9815216";"https://maps.google.com/?cid=0x0:0x8108562eb52baeff"
"mall";"Pusat Perbelanjaan";"Toko Sula Baru";"WXQJ+XHX, Fagudu, Kec. Sanana, Kabupaten Kepulauan Sula, Maluku Utara";"Kabupaten Kepulauan Sula, Maluku Utara";"MALUKU UTARA";"";"Indonesia";"";"-2.0600218";"125.9814746";"https://maps.google.com/?cid=0x0:0x2247677237edbfc5"
"mall";"Pusat Perbelanjaan";"Toko SURYA";"WXRJ+9JC, Fagudu, Kec. Sanana, Kabupaten Kepulauan Sula, Maluku Utara";"Kabupaten Kepulauan Sula, Maluku Utara";"MALUKU UTARA";"";"Indonesia";" 085256789026";"-2.0590609";"125.9815216";"https://maps.google.com/?cid=0x0:0x8108562eb52baeff"
"mall";"mall";"Maluku Utara 97795";"Falahu, Kec. Sanana, Kabupaten Kepulauan Sula, Maluku Utara";"Kabupaten Kepulauan Sula, Maluku Utara";"MALUKU UTARA";"";"Indonesia";"";"-2.0613593";"125.9823727";"https://maps.google.com/?cid=0x0:0x25db49ff4002ccf8"
"mall";"mall";"aminam Store";"WXRJ+CHP, Fagudu, Kec. Sanana, Kabupaten Kepulauan Sula, Maluku Utara";"Kabupaten Kepulauan Sula, Maluku Utara";"MALUKU UTARA";"";"Indonesia";"";"-2.0589122";"125.98145";"https://maps.google.com/?cid=0x0:0xb427a97362edb210"
"mall";"Pusat Perbelanjaan";"Toko Sula Baru";"WXQJ+XHX, Fagudu, Kec. Sanana, Kabupaten Kepulauan Sula, Maluku Utara";"Kabupaten Kepulauan Sula, Maluku Utara";"MALUKU UTARA";"";"Indonesia";"";"-2.0600218";"125.9814746";"https://maps.google.com/?cid=0x0:0x2247677237edbfc5"
"mall";"Pusat Perbelanjaan";"Toko SURYA";"WXRJ+9JC, Fagudu, Kec. Sanana, Kabupaten Kepulauan Sula, Maluku Utara";"Kabupaten Kepulauan Sula, Maluku Utara";"MALUKU UTARA";"";"Indonesia";" 085256789026";"-2.0590609";"125.9815216";"https://maps.google.com/?cid=0x0:0x8108562eb52baeff"
"mall";"mall";"Mangoli Utara";"Kabupaten Kepulauan Sula, Maluku Utara";"Kabupaten Kepulauan Sula, Maluku Utara";"MALUKU UTARA";"";"Indonesia";"";"-1.7870032";"125.4804915";"https://maps.google.com/?cid=0x0:0x821bd9ab23ff70b4"
"mall";"mall";"Kec. Mangoli Tengah";"Kabupaten Kepulauan Sula, Maluku Utara";"Kabupaten Kepulauan Sula, Maluku Utara";"MALUKU UTARA";"";"Indonesia";"";"-1.9272257";"125.9383491";"https://maps.google.com/?cid=0x0:0xa42c94bee3686447"
"mall";"Minimarket";"TOKO KITA";"3XM7+4P4, Karamat Titdoy, Kec. Mangoli Tim., Kabupaten Kepulauan Sula, Maluku Utara";"Kabupaten Kepulauan Sula, Maluku Utara";"MALUKU UTARA";"";"Indonesia";" 082191464644";"-1.9172281";"125.9643355";"https://maps.google.com/?cid=0x0:0x9855b40dfc56bbca"
"mall";"mall";"Desa Mangoli";"3WGQ+2V9, Mangoli, Kec. Mangoli Tengah, Kabupaten Kepulauan Sula, Maluku Utara";"Kabupaten Kepulauan Sula, Maluku Utara";"MALUKU UTARA";"";"Indonesia";"";"-1.9249556";"125.9397257";"https://maps.google.com/?cid=0x0:0x1b31c796d71261f5"
"mall";"mall";"Mangoli Utara Tim.";"Kabupaten Kepulauan Sula, Maluku Utara";"Kabupaten Kepulauan Sula, Maluku Utara";"MALUKU UTARA";"";"Indonesia";"";"-1.8414454";"126.241388";"https://maps.google.com/?cid=0x0:0x17e3b0f466e504e3"
"mall";"mall";"Kec. Mangoli Sel.";"Kabupaten Kepulauan Sula, Maluku Utara";"Kabupaten Kepulauan Sula, Maluku Utara";"MALUKU UTARA";"";"Indonesia";"";"-1.9281685";"125.5811446";"https://maps.google.com/?cid=0x0:0xe82e6eef47e4f664"
"mall";"mall";"Maluku Utara 97795";"Falahu, Kec. Sanana, Kabupaten Kepulauan Sula, Maluku Utara";"Kabupaten Kepulauan Sula, Maluku Utara";"MALUKU UTARA";"";"Indonesia";"";"-2.0613593";"125.9823727";"https://maps.google.com/?cid=0x0:0x25db49ff4002ccf8"
"mall";"Pusat Perbelanjaan";"Toko Sula Baru";"WXQJ+XHX, Fagudu, Kec. Sanana, Kabupaten Kepulauan Sula, Maluku Utara";"Kabupaten Kepulauan Sula, Maluku Utara";"MALUKU UTARA";"";"Indonesia";"";"-2.0600218";"125.9814746";"https://maps.google.com/?cid=0x0:0x2247677237edbfc5"
"mall";"Pusat Perbelanjaan";"Pusat Perbelanjaan Rombengan Sanana Tegar Jaya";"WXJJ+QGR, Jl. Soekarno Hatta, Fatce, Kec. Sanana, Kabupaten Kepulauan Sula, Maluku Utara";"Kabupaten Kepulauan Sula, Maluku Utara";"MALUKU UTARA";"";"Indonesia";" 081241486606";"-2.0680239";"125.9812705";"https://maps.google.com/?cid=0x0:0x5a590346004f9b49"
"mall";"Pusat Perbelanjaan";"BOMBAY SHOP";"WXWP+P95, Mangon, Kec. Sanana, Kabupaten Kepulauan Sula, Maluku Utara";"Kabupaten Kepulauan Sula, Maluku Utara";"MALUKU UTARA";"";"Indonesia";" 082113132478";"-2.0532334";"125.9859761";"https://maps.google.com/?cid=0x0:0x67a9879f6b916c46"
"mall";"mall";"Kec. Sanana Utara";"Kabupaten Kepulauan Sula, Maluku Utara";"Kabupaten Kepulauan Sula, Maluku Utara";"MALUKU UTARA";"";"Indonesia";"";"-2.0052999";"125.9683499";"https://maps.google.com/?cid=0x0:0xa4fdb7c28266eee1"
"mall";"Kompleks Kondominium";"Rumah mila mangon";"XX5C+8X2, Mangon, Kec. Sanana, Kabupaten Kepulauan Sula, Maluku Utara";"Kabupaten Kepulauan Sula, Maluku Utara";"MALUKU UTARA";"";"Indonesia";"";"-2.0417277";"125.9723876";"https://maps.google.com/?cid=0x0:0xcadd6d18ca87eb56"
"mall";"mall";"aminam Store";"WXRJ+CHP, Fagudu, Kec. Sanana, Kabupaten Kepulauan Sula, Maluku Utara";"Kabupaten Kepulauan Sula, Maluku Utara";"MALUKU UTARA";"";"Indonesia";"";"-2.0589122";"125.98145";"https://maps.google.com/?cid=0x0:0xb427a97362edb210"
"mall";"Pusat Perbelanjaan";"Toko SURYA";"WXRJ+9JC, Fagudu, Kec. Sanana, Kabupaten Kepulauan Sula, Maluku Utara";"Kabupaten Kepulauan Sula, Maluku Utara";"MALUKU UTARA";"";"Indonesia";" 085256789026";"-2.0590609";"125.9815216";"https://maps.google.com/?cid=0x0:0x8108562eb52baeff"
"supermarket";"Toko bahan makanan";"KITA MART";"3W9J+6MJ, Jl. Lain, Mangoli, Kec. Mangoli Tengah, Kabupaten Kepulauan Sula, Maluku Utara";"Kabupaten Kepulauan Sula, Maluku Utara";"MALUKU UTARA";"";"Indonesia";" 085293097766";"-1.9313195";"125.9326808";"https://maps.google.com/?cid=0x0:0x21ff8b2966d06aef"
"supermarket";"Minimarket";"TOKO KITA";"3WFP+V4, Mangoli, Kec. Mangoli Tengah, Kabupaten Kepulauan Sula, Maluku Utara";"Kabupaten Kepulauan Sula, Maluku Utara";"MALUKU UTARA";"";"Indonesia";" 081243749219";"-1.9253205";"125.9353555";"https://maps.google.com/?cid=0x0:0x4c32ab2f65abce8"
"supermarket";"supermarket";"Kec. Mangoli Tim.";"Kabupaten Kepulauan Sula, Maluku Utara";"Kabupaten Kepulauan Sula, Maluku Utara";"MALUKU UTARA";"";"Indonesia";"";"-1.9120347";"125.9824503";"https://maps.google.com/?cid=0x0:0x8b05f627cf49bd0a"
"supermarket";"Toko umum";"Waitina";"3XPM+MV7, Waitina, Kec. Mangoli Tim., Kabupaten Kepulauan Sula, Maluku Utara";"Kabupaten Kepulauan Sula, Maluku Utara";"MALUKU UTARA";"";"Indonesia";"";"-1.912083";"125.9848596";"https://maps.google.com/?cid=0x0:0x793c1a5acbfe7cc3"
"supermarket";"Toko bahan makanan";"Toko Karya Baru";"Jl. Lain, Mangoli, Kec. Mangoli Tengah, Kabupaten Kepulauan Sula, Maluku Utara";"Kabupaten Kepulauan Sula, Maluku Utara";"MALUKU UTARA";"";"Indonesia";" 082194934859";"-1.9243006";"125.9412097";"https://maps.google.com/?cid=0x0:0x14d9843f22a0d3f0"
"supermarket";"Minimarket";"Mama Tuti";"3XPM+MV7, Waitina, Kec. Mangoli Tim., Kabupaten Kepulauan Sula, Maluku Utara";"Kabupaten Kepulauan Sula, Maluku Utara";"MALUKU UTARA";"";"Indonesia";"";"-1.9133171";"125.9840259";"https://maps.google.com/?cid=0x0:0xd204cc4e3a23baca"
"supermarket";"Toko";"Daeng Jere";"3XJ2+PQG, Mangoli, Kec. Mangoli Tengah, Kabupaten Kepulauan Sula, Maluku Utara";"Kabupaten Kepulauan Sula, Maluku Utara";"MALUKU UTARA";"";"Indonesia";"";"-1.9187347";"125.9515307";"https://maps.google.com/?cid=0x0:0xac415ad96170baa4"
"supermarket";"Toko";"Toko lancar jaya";"5X95+5G2, Mangoli, Kec. Mangoli Tengah, Kabupaten Kepulauan Sula, Maluku Utara";"Kabupaten Kepulauan Sula, Maluku Utara";"MALUKU UTARA";"";"Indonesia";"";"-1.8321222";"125.958777";"https://maps.google.com/?cid=0x0:0x6729f7264e253f7"
"supermarket";"Grosir";"Aldi Jaya Toko";"5X95+5G2, JL Bacan, Mangoli, Mangole, Kabupaten Kepulauan Sula, Maluku Utara 97796";"JL Bacan, Mangoli, Mangole, Kabupaten Kepulauan Sula";"MALUKU UTARA";"97796";"Indonesia";" 092961690";"-1.8321222";"125.958777";"https://maps.google.com/?cid=0x0:0x6352eb32e8dd49c"
"supermarket";"Toko bahan makanan";"Kios Ayana";"3WCJ+G49, Mangoli, Kec. Mangoli Tengah, Kabupaten Kepulauan Sula, Maluku Utara";"Kabupaten Kepulauan Sula, Maluku Utara";"MALUKU UTARA";"";"Indonesia";" 082195835886";"-1.9287049";"125.9303675";"https://maps.google.com/?cid=0x0:0x4446a07228a33cc6"
"supermarket";"Toko umum";"TOKO DEWI FIKSAN";"4496+77W, Wai Tamela, Kec. Mangoli Tim., Kabupaten Kepulauan Sula, depan kantor desa, desa, waitamela, Maluku Utara 97793";"Wai Tamela, Kec. Mangoli Tim., Kabupaten Kepulauan Sula, depan kantor desa, desa, waitamela";"MALUKU UTARA";"97793";"Indonesia";" 085352553597";"-1.8817853";"126.1106875";"https://maps.google.com/?cid=0x0:0x929ac4a737c552ac"
"supermarket";"supermarket";"Maluku Utara 97795";"Falahu, Kec. Sanana, Kabupaten Kepulauan Sula, Maluku Utara";"Kabupaten Kepulauan Sula, Maluku Utara";"MALUKU UTARA";"";"Indonesia";"";"-2.0613593";"125.9823727";"https://maps.google.com/?cid=0x0:0x25db49ff4002ccf8"
"supermarket";"Toko";"Alya Mart";"WXRJ+3VG, Falahu, Kec. Sanana, Kabupaten Kepulauan Sula, Maluku Utara";"Kabupaten Kepulauan Sula, Maluku Utara";"MALUKU UTARA";"";"Indonesia";"";"-2.059804";"125.9822097";"https://maps.google.com/?cid=0x0:0x9f24780a49bf8142"
"supermarket";"Toko Swalayan";"Toko gabriel";"Jl. Desa Pohea, Mangon, Kec. Sanana, Kabupaten Kepulauan Sula, Maluku Utara 97795";"Mangon, Kec. Sanana, Kabupaten Kepulauan Sula";"MALUKU UTARA";"97795";"Indonesia";" 081245678076";"-2.0448896";"125.9917767";"https://maps.google.com/?cid=0x0:0xbf7ec3c79d6a1fa"
"supermarket";"Toko Bahan Bangunan";"toko fariasi";"Fagudu, Kec. Sanana, Kabupaten Kepulauan Sula, Maluku Utara 97795";"Kec. Sanana, Kabupaten Kepulauan Sula";"MALUKU UTARA";"97795";"Indonesia";"";"-2.0613406";"125.982371";"https://maps.google.com/?cid=0x0:0xc7d11f3f54634ae8"
"supermarket";"Toko Barang Pecah Belah";"Toko Moro Asih";"WXJJ+9C3, Fatce, Kec. Sanana, Kabupaten Kepulauan Sula, Maluku Utara";"Kabupaten Kepulauan Sula, Maluku Utara";"MALUKU UTARA";"";"Indonesia";"";"-2.0691034";"125.981046";"https://maps.google.com/?cid=0x0:0x6c709744209ad66c"
"supermarket";"Toko";"Toko Damai";"WXRJ+5XC, Fagudu, Kec. Sanana, Kabupaten Kepulauan Sula, Maluku Utara";"Kabupaten Kepulauan Sula, Maluku Utara";"MALUKU UTARA";"";"Indonesia";"";"-2.0595656";"125.9823932";"https://maps.google.com/?cid=0x0:0xce2149c0cc608c57"
"supermarket";"supermarket";"DGs2aP_0KpPhseMP8crkgQc"-,null,null,1,null,"https://www.google.com/maps/preview/place/Toko+Narti/@-1.890486,125.8175384,3988a,13.1y/datau003d!4m2!3m1!1s0x4845f2050fc70a37:0x7b2608e511e55a2e";"";"";"MALUKU UTARA";"";"Indonesia";" 082197216302";"-1.890486";"125.8175384";"https://maps.google.com/?cid=0x0:0x7b2608e511e55a2e"
"supermarket";"Komplek perumahan";"Arpon";"WXWH+FPF, Mangon, Kec. Sanana, Kabupaten Kepulauan Sula, Maluku Utara";"Kabupaten Kepulauan Sula, Maluku Utara";"MALUKU UTARA";"";"Indonesia";"";"-2.054325";"125.979051";"https://maps.google.com/?cid=0x0:0x344d511ece9997e2"
"supermarket";"Kedai Kopi";"IN_TIME";"Mangon, Kec. Sanana, Kabupaten Kepulauan Sula, Maluku Utara 97795";"Kec. Sanana, Kabupaten Kepulauan Sula";"MALUKU UTARA";"97795";"Indonesia";" 081354636058";"-2.0613406";"125.982371";"https://maps.google.com/?cid=0x0:0xec9669d250217c01"
"supermarket";"Toko Ponsel";"Konter Atma Cell";"WXQJ+JJP, Falahu, Kec. Sanana, Kabupaten Kepulauan Sula, Maluku Utara";"Kabupaten Kepulauan Sula, Maluku Utara";"MALUKU UTARA";"";"Indonesia";" 082112533775";"-2.0609202";"125.9815676";"https://maps.google.com/?cid=0x0:0xf6cf9e0c6bfe1dc8"
"supermarket";"Pabrik Coklat";"Serius coklat sula";"WXQM+J65 Al-qaidah, Falahu, Kec. Sanana, Kabupaten Kepulauan Sula, Maluku Utara";"Kabupaten Kepulauan Sula, Maluku Utara";"MALUKU UTARA";"";"Indonesia";" 082291140480";"-2.0609786";"125.9831008";"https://maps.google.com/?cid=0x0:0x2bb57127a2f3acf3"
"supermarket";"Kantor Administrasi Kota";"KP2KP SANANA";"WXHH+G2H, Jl. Jenderal Besar Soeharto, Fogi, Kec. Sanana, Kabupaten Kepulauan Sula, Maluku Utara";"Kabupaten Kepulauan Sula, Maluku Utara";"MALUKU UTARA";"";"Indonesia";" 082335444219";"-2.0711935";"125.9776202";"https://maps.google.com/?cid=0x0:0x10c269ef1b7cc519"
"supermarket";"Toko Cat";"Umecat Shop";"Falahu, Kec. Sanana, Kabupaten Kepulauan Sula, Maluku Utara 97795";"Kec. Sanana, Kabupaten Kepulauan Sula";"MALUKU UTARA";"97795";"Indonesia";" 082196639926";"-2.0614294";"125.9809194";"https://maps.google.com/?cid=0x0:0x38e5140dc0986805"
"supermarket";"Komplek perumahan";"KAMASMATA";"WXPM+543, Fatce, Kec. Sanana, Kabupaten Kepulauan Sula, Maluku Utara";"Kabupaten Kepulauan Sula, Maluku Utara";"MALUKU UTARA";"";"Indonesia";"";"-2.0646115";"125.9828025";"https://maps.google.com/?cid=0x0:0x17cf0485e4d572eb"
"supermarket";"supermarket";"Maluku Utara 97795";"Falahu, Kec. Sanana, Kabupaten Kepulauan Sula, Maluku Utara";"Kabupaten Kepulauan Sula, Maluku Utara";"MALUKU UTARA";"";"Indonesia";"";"-2.0613593";"125.9823727";"https://maps.google.com/?cid=0x0:0x25db49ff4002ccf8"
"supermarket";"Toko Swalayan";"Kios 5A Ujung Desa";"Fogi, Kec. Sanana, Kabupaten Kepulauan Sula, Maluku Utara 97795";"Kec. Sanana, Kabupaten Kepulauan Sula";"MALUKU UTARA";"97795";"Indonesia";"";"-2.0633867";"125.9600169";"https://maps.google.com/?cid=0x0:0x47f94fd5de32c3dc"
"supermarket";"Pusat Perbelanjaan";"Toko Dina";"WXQJ+G8P, Falahu, Kec. Sanana, Kabupaten Kepulauan Sula, Maluku Utara";"Kabupaten Kepulauan Sula, Maluku Utara";"MALUKU UTARA";"";"Indonesia";"";"-2.0611537";"125.9808429";"https://maps.google.com/?cid=0x0:0x9b90731ae2491044"
"supermarket";"Toko";"Alya Mart";"WXRJ+3VG, Falahu, Kec. Sanana, Kabupaten Kepulauan Sula, Maluku Utara";"Kabupaten Kepulauan Sula, Maluku Utara";"MALUKU UTARA";"";"Indonesia";"";"-2.059804";"125.9822097";"https://maps.google.com/?cid=0x0:0x9f24780a49bf8142"
"supermarket";"Toko";"Toko Damai";"WXRJ+5XC, Fagudu, Kec. Sanana, Kabupaten Kepulauan Sula, Maluku Utara";"Kabupaten Kepulauan Sula, Maluku Utara";"MALUKU UTARA";"";"Indonesia";"";"-2.0595656";"125.9823932";"https://maps.google.com/?cid=0x0:0xce2149c0cc608c57"
"supermarket";"Pabrik Coklat";"Serius coklat sula";"WXQM+J65 Al-qaidah, Falahu, Kec. Sanana, Kabupaten Kepulauan Sula, Maluku Utara";"Kabupaten Kepulauan Sula, Maluku Utara";"MALUKU UTARA";"";"Indonesia";" 082291140480";"-2.0609786";"125.9831008";"https://maps.google.com/?cid=0x0:0x2bb57127a2f3acf3"
"supermarket";"Toko Ponsel";"Konter Atma Cell";"WXQJ+JJP, Falahu, Kec. Sanana, Kabupaten Kepulauan Sula, Maluku Utara";"Kabupaten Kepulauan Sula, Maluku Utara";"MALUKU UTARA";"";"Indonesia";" 082112533775";"-2.0609202";"125.9815676";"https://maps.google.com/?cid=0x0:0xf6cf9e0c6bfe1dc8"
"supermarket";"Kedai Kopi";"IN_TIME";"Mangon, Kec. Sanana, Kabupaten Kepulauan Sula, Maluku Utara 97795";"Kec. Sanana, Kabupaten Kepulauan Sula";"MALUKU UTARA";"97795";"Indonesia";" 081354636058";"-2.0613406";"125.982371";"https://maps.google.com/?cid=0x0:0xec9669d250217c01"
"supermarket";"supermarket";"Rofiq Aldzuhri";"Kalibomba, Kec. Sanana, Kabupaten Kepulauan Sula, Maluku Utara 97795";"Kec. Sanana, Kabupaten Kepulauan Sula";"MALUKU UTARA";"97795";"Indonesia";" 082348115264";"-2.0613406";"125.982371";"https://maps.google.com/?cid=0x0:0x60a41de5cf856aa7"
"supermarket";"Toko Cat";"Umecat Shop";"Falahu, Kec. Sanana, Kabupaten Kepulauan Sula, Maluku Utara 97795";"Kec. Sanana, Kabupaten Kepulauan Sula";"MALUKU UTARA";"97795";"Indonesia";" 082196639926";"-2.0614294";"125.9809194";"https://maps.google.com/?cid=0x0:0x38e5140dc0986805"
"supermarket";"supermarket";"Usaha";"587H+7V, Pelita, Kec. Mangoli Bar., Kabupaten Kepulauan Sula, Maluku Utara";"Kabupaten Kepulauan Sula, Maluku Utara";"MALUKU UTARA";"";"Indonesia";"";"-1.8369756";"125.3293725";"https://maps.google.com/?cid=0x0:0x2bc935254ab4a07"
"supermarket";"supermarket";"Kec. Mangoli Bar.";"Kabupaten Kepulauan Sula, Maluku Utara";"Kabupaten Kepulauan Sula, Maluku Utara";"MALUKU UTARA";"";"Indonesia";"";"-1.8071861";"125.3556926";"https://maps.google.com/?cid=0x0:0x9235093942d7b06a"
"supermarket";"Toko";"Kios janu";"59V3+FF5, Dofa, Kec. Mangoli Bar., Kabupaten Kepulauan Sula, Maluku Utara";"Kabupaten Kepulauan Sula, Maluku Utara";"MALUKU UTARA";"";"Indonesia";"";"-1.8059005";"125.3537759";"https://maps.google.com/?cid=0x0:0x3d9a3fff95e02da"
"supermarket";"Toko Pakaian";"Toko Palahidu";"59R4+MP2, Unnamed Road, Dofa, Kec. Mangoli Bar., Kabupaten Kepulauan Sula, Maluku Utara";"Kabupaten Kepulauan Sula, Maluku Utara";"MALUKU UTARA";"";"Indonesia";"";"-1.8083635";"125.3567662";"https://maps.google.com/?cid=0x0:0xcdc960592103ce09"
"supermarket";"Toko";"SAFIRA COLLECTION";"587H+RG, Pelita, Kec. Mangoli Bar., Kabupaten Kepulauan Sula, Maluku Utara";"Kabupaten Kepulauan Sula, Maluku Utara";"MALUKU UTARA";"";"Indonesia";"";"-1.8354314";"125.3288719";"https://maps.google.com/?cid=0x0:0xfbe8b0dee7730874"
"supermarket";"Toko";"kios arini";"59Q6+W9, Dofa, Kec. Mangoli Bar., Kabupaten Kepulauan Sula, Maluku Utara";"Kabupaten Kepulauan Sula, Maluku Utara";"MALUKU UTARA";"";"Indonesia";"";"-1.8102452";"125.360977";"https://maps.google.com/?cid=0x0:0xc571d2727ab64814"
"supermarket";"Toko umum";"Kios Tanta Eca";"59V3+7W9, Dofa, Kec. Mangoli Bar., Kabupaten Kepulauan Sula, Maluku Utara";"Kabupaten Kepulauan Sula, Maluku Utara";"MALUKU UTARA";"";"Indonesia";"";"-1.8066129";"125.354539";"https://maps.google.com/?cid=0x0:0xb525bcf4e8d2e8e8"
"supermarket";"supermarket";"KIOS ZYAHRANA";"587H+6P9, Pelita, Kec. Mangoli Bar., Kabupaten Kepulauan Sula, Maluku Utara";"Kabupaten Kepulauan Sula, Maluku Utara";"MALUKU UTARA";"";"Indonesia";"";"-1.8369701";"125.3293675";"https://maps.google.com/?cid=0x0:0xaef2daf050cc517f"
"supermarket";"Toko umum";"WARUNG SEMBAKO. FITRIA SALEH KOTA";"6F6F+HQ7, Falabisahaya, Mangoli Utara, Kabupaten Kepulauan Sula, Maluku Utara";"Kabupaten Kepulauan Sula, Maluku Utara";"MALUKU UTARA";"";"Indonesia";" 082290633277";"-1.789104";"125.4754047";"https://maps.google.com/?cid=0x0:0xc6642e7efe293881"
"supermarket";"Toko";"Kios fikram";"3G53+R6F, Auponhia, Kec. Mangoli Sel., Kabupaten Kepulauan Sula, Maluku Utara";"Kabupaten Kepulauan Sula, Maluku Utara";"MALUKU UTARA";"";"Indonesia";"";"-1.9404791";"125.5030808";"https://maps.google.com/?cid=0x0:0xc3f872d2d45bc2e2"
"supermarket";"Toko";"Toko rama";"59Q6+9P3, Dofa, Kec. Mangoli Bar., Kabupaten Kepulauan Sula, Maluku Utara";"Kabupaten Kepulauan Sula, Maluku Utara";"MALUKU UTARA";"";"Indonesia";"";"-1.8115011";"125.3624415";"https://maps.google.com/?cid=0x0:0xd8d03d9dbed4929c"
"supermarket";"supermarket";"Maluku Utara 97795";"Falahu, Kec. Sanana, Kabupaten Kepulauan Sula, Maluku Utara";"Kabupaten Kepulauan Sula, Maluku Utara";"MALUKU UTARA";"";"Indonesia";"";"-2.0613593";"125.9823727";"https://maps.google.com/?cid=0x0:0x25db49ff4002ccf8"
"supermarket";"Toko";"Alya Mart";"WXRJ+3VG, Falahu, Kec. Sanana, Kabupaten Kepulauan Sula, Maluku Utara";"Kabupaten Kepulauan Sula, Maluku Utara";"MALUKU UTARA";"";"Indonesia";"";"-2.059804";"125.9822097";"https://maps.google.com/?cid=0x0:0x9f24780a49bf8142"
"supermarket";"Toko Swalayan";"Kios 5A Ujung Desa";"Fogi, Kec. Sanana, Kabupaten Kepulauan Sula, Maluku Utara 97795";"Kec. Sanana, Kabupaten Kepulauan Sula";"MALUKU UTARA";"97795";"Indonesia";"";"-2.0633867";"125.9600169";"https://maps.google.com/?cid=0x0:0x47f94fd5de32c3dc"
"supermarket";"Pusat Perbelanjaan";"Toko Dina";"WXQJ+G8P, Falahu, Kec. Sanana, Kabupaten Kepulauan Sula, Maluku Utara";"Kabupaten Kepulauan Sula, Maluku Utara";"MALUKU UTARA";"";"Indonesia";"";"-2.0611537";"125.9808429";"https://maps.google.com/?cid=0x0:0x9b90731ae2491044"
"supermarket";"Toko";"Toko Damai";"WXRJ+5XC, Fagudu, Kec. Sanana, Kabupaten Kepulauan Sula, Maluku Utara";"Kabupaten Kepulauan Sula, Maluku Utara";"MALUKU UTARA";"";"Indonesia";"";"-2.0595656";"125.9823932";"https://maps.google.com/?cid=0x0:0xce2149c0cc608c57"
"supermarket";"Pabrik Coklat";"Serius coklat sula";"WXQM+J65 Al-qaidah, Falahu, Kec. Sanana, Kabupaten Kepulauan Sula, Maluku Utara";"Kabupaten Kepulauan Sula, Maluku Utara";"MALUKU UTARA";"";"Indonesia";" 082291140480";"-2.0609786";"125.9831008";"https://maps.google.com/?cid=0x0:0x2bb57127a2f3acf3"
"supermarket";"Kedai Kopi";"IN_TIME";"Mangon, Kec. Sanana, Kabupaten Kepulauan Sula, Maluku Utara 97795";"Kec. Sanana, Kabupaten Kepulauan Sula";"MALUKU UTARA";"97795";"Indonesia";" 081354636058";"-2.0613406";"125.982371";"https://maps.google.com/?cid=0x0:0xec9669d250217c01"
"supermarket";"Toko Ponsel";"Konter Atma Cell";"WXQJ+JJP, Falahu, Kec. Sanana, Kabupaten Kepulauan Sula, Maluku Utara";"Kabupaten Kepulauan Sula, Maluku Utara";"MALUKU UTARA";"";"Indonesia";" 082112533775";"-2.0609202";"125.9815676";"https://maps.google.com/?cid=0x0:0xf6cf9e0c6bfe1dc8"
"supermarket";"supermarket";"Rofiq Aldzuhri";"Kalibomba, Kec. Sanana, Kabupaten Kepulauan Sula, Maluku Utara 97795";"Kec. Sanana, Kabupaten Kepulauan Sula";"MALUKU UTARA";"97795";"Indonesia";" 082348115264";"-2.0613406";"125.982371";"https://maps.google.com/?cid=0x0:0x60a41de5cf856aa7"
"supermarket";"Toko Cat";"Umecat Shop";"Falahu, Kec. Sanana, Kabupaten Kepulauan Sula, Maluku Utara 97795";"Kec. Sanana, Kabupaten Kepulauan Sula";"MALUKU UTARA";"97795";"Indonesia";" 082196639926";"-2.0614294";"125.9809194";"https://maps.google.com/?cid=0x0:0x38e5140dc0986805"
"supermarket";"supermarket";"qms2aKu4KPz0juMPiNDPqQ8"-,null,null,1,null,"https://www.google.com/maps/preview/place/Toko+Narti/@-1.890486,125.8175384,3988a,13.1y/datau003d!4m2!3m1!1s0x4845f2050fc70a37:0x7b2608e511e55a2e";"";"";"MALUKU UTARA";"";"Indonesia";" 082197216302";"-1.890486";"125.8175384";"https://maps.google.com/?cid=0x0:0x7b2608e511e55a2e"
"supermarket";"supermarket";"Kec. Sulabesi Tengah";"Kabupaten Kepulauan Sula, Maluku Utara";"Kabupaten Kepulauan Sula, Maluku Utara";"MALUKU UTARA";"";"Indonesia";"";"-2.2660437";"126.0041676";"https://maps.google.com/?cid=0x0:0xfbd0a140fc92e4f2"
"supermarket";"Toko umum";"Kios Dafa";"M2RC+6F, Bega, Kec. Sulabesi Tengah, Kabupaten Kepulauan Sula, Maluku Utara";"Kabupaten Kepulauan Sula, Maluku Utara";"MALUKU UTARA";"";"Indonesia";"";"-2.3104776";"126.02102";"https://maps.google.com/?cid=0x0:0x90b158f1a7b59974"
"supermarket";"Toko umum";"Kios lesti silvan";"M2MF+57, Bega, Kec. Sulabesi Tengah, Kabupaten Kepulauan Sula, Maluku Utara";"Kabupaten Kepulauan Sula, Maluku Utara";"MALUKU UTARA";"";"Indonesia";"";"-2.3170186";"126.0231597";"https://maps.google.com/?cid=0x0:0x3ff71ddf343cd06e"
"supermarket";"supermarket";"Kec. Sulabesi Timur";"Kabupaten Kepulauan Sula, Maluku Utara";"Kabupaten Kepulauan Sula, Maluku Utara";"MALUKU UTARA";"";"Indonesia";"";"-2.3972103";"126.0597014";"https://maps.google.com/?cid=0x0:0xb7e818da71ae9c3d"
"supermarket";"Toko";"Alya Mart";"WXRJ+3VG, Falahu, Kec. Sanana, Kabupaten Kepulauan Sula, Maluku Utara";"Kabupaten Kepulauan Sula, Maluku Utara";"MALUKU UTARA";"";"Indonesia";"";"-2.059804";"125.9822097";"https://maps.google.com/?cid=0x0:0x9f24780a49bf8142"
"supermarket";"Toko umum";"Kios lesti silvan";"M2MF+57, Bega, Kec. Sulabesi Tengah, Kabupaten Kepulauan Sula, Maluku Utara";"Kabupaten Kepulauan Sula, Maluku Utara";"MALUKU UTARA";"";"Indonesia";"";"-2.3170186";"126.0231597";"https://maps.google.com/?cid=0x0:0x3ff71ddf343cd06e"
"supermarket";"Toko umum";"Kios Galaksi";"JXR6+G2J, Desa waitamua, Kec. Sulabesi Sel., Kabupaten Kepulauan Sula, Maluku Utara";"Kabupaten Kepulauan Sula, Maluku Utara";"MALUKU UTARA";"";"Indonesia";" 085214092298";"-2.3586539";"125.9600051";"https://maps.google.com/?cid=0x0:0x8d69f54d1ebf4284"
"supermarket";"Kios";"RAFISQY KIOS";"M2MF+57, Bega, Kec. Sulabesi Tengah, Kabupaten Kepulauan Sula, Maluku Utara";"Kabupaten Kepulauan Sula, Maluku Utara";"MALUKU UTARA";"";"Indonesia";"";"-2.317079";"126.0231753";"https://maps.google.com/?cid=0x0:0xb24c62d99769558"
"supermarket";"supermarket";"Pabrik kelapa Putih (Rumah Produksi Kelapa Putih)";"MX76+M9, Wai Tamua, Kec. Sulabesi Sel., Kabupaten Kepulauan Sula, Maluku Utara";"Kabupaten Kepulauan Sula, Maluku Utara";"MALUKU UTARA";"";"Indonesia";"";"-2.3381271";"125.9612292";"https://maps.google.com/?cid=0x0:0x261888beb807bac5"
"supermarket";"Kios";"Warung Wiska Cell";"Fatkauyon, tanjung waka, Sanana, Maluku Utara 97795";"tanjung waka, Sanana";"MALUKU UTARA";"97795";"Indonesia";" 085320138226";"-2.4554893";"126.0672039";"https://maps.google.com/?cid=0x0:0x406cf812c91dcf96"
"supermarket";"Toko Bahan Bangunan";"toko fariasi";"Fagudu, Kec. Sanana, Kabupaten Kepulauan Sula, Maluku Utara 97795";"Kec. Sanana, Kabupaten Kepulauan Sula";"MALUKU UTARA";"97795";"Indonesia";"";"-2.0613406";"125.982371";"https://maps.google.com/?cid=0x0:0xc7d11f3f54634ae8"
"supermarket";"Toko Bahan Bangunan";"Makmur Utama Supermarket Bahan Bangunan";"Jl. Yasin Gamsungi No.2 Kec. ternate tengah, Kel, Makassar Tim., Makassar Timur, Kota Ternate, Maluku Utara 97724";"Kel, Makassar Tim., Makassar Timur, Kota Ternate";"MALUKU UTARA";"97724";"Indonesia";" 08114313799";"0.7940352";"127.3876695";"https://maps.google.com/?cid=0x0:0x2f492ae87bf64247"
"supermarket";"Pusat Perbelanjaan";"Toko Dina";"WXQJ+G8P, Falahu, Kec. Sanana, Kabupaten Kepulauan Sula, Maluku Utara";"Kabupaten Kepulauan Sula, Maluku Utara";"MALUKU UTARA";"";"Indonesia";"";"-2.0611537";"125.9808429";"https://maps.google.com/?cid=0x0:0x9b90731ae2491044"
"supermarket";"Pabrik Coklat";"Serius coklat sula";"WXQM+J65 Al-qaidah, Falahu, Kec. Sanana, Kabupaten Kepulauan Sula, Maluku Utara";"Kabupaten Kepulauan Sula, Maluku Utara";"MALUKU UTARA";"";"Indonesia";" 082291140480";"-2.0609786";"125.9831008";"https://maps.google.com/?cid=0x0:0x2bb57127a2f3acf3"
"supermarket";"Toko";"Toko Damai";"WXRJ+5XC, Fagudu, Kec. Sanana, Kabupaten Kepulauan Sula, Maluku Utara";"Kabupaten Kepulauan Sula, Maluku Utara";"MALUKU UTARA";"";"Indonesia";"";"-2.0595656";"125.9823932";"https://maps.google.com/?cid=0x0:0xce2149c0cc608c57"
"supermarket";"Toko umum";"Depot Air A2";"JXR6+334, Jl. Desa Pohea, Fuata, Kec. Sulabesi Sel., Kabupaten Kepulauan Sula, Maluku Utara";"Kabupaten Kepulauan Sula, Maluku Utara";"MALUKU UTARA";"";"Indonesia";" 081362529747";"-2.3599651";"125.9601927";"https://maps.google.com/?cid=0x0:0x44a5feebf40f3291"
"supermarket";"supermarket";"1Gs2aPLUFovG4-EPmtC76Ao"-,null,null,1,null,"https://www.google.com/maps/preview/place/Toko+Narti/@-1.890486,125.8175384,3988a,13.1y/datau003d!4m2!3m1!1s0x4845f2050fc70a37:0x7b2608e511e55a2e";"";"";"MALUKU UTARA";"";"Indonesia";" 082197216302";"-1.890486";"125.8175384";"https://maps.google.com/?cid=0x0:0x7b2608e511e55a2e"
"supermarket";"Toko Swalayan";"Kios 5A Ujung Desa";"Fogi, Kec. Sanana, Kabupaten Kepulauan Sula, Maluku Utara 97795";"Kec. Sanana, Kabupaten Kepulauan Sula";"MALUKU UTARA";"97795";"Indonesia";"";"-2.0633867";"125.9600169";"https://maps.google.com/?cid=0x0:0x47f94fd5de32c3dc"
"supermarket";"Supermarket Diskon";"Kios ibu ida";"WXVF+W7H, Unnamed Road, Waibau, Kec. Sanana, Kabupaten Kepulauan Sula, Maluku Utara";"Kabupaten Kepulauan Sula, Maluku Utara";"MALUKU UTARA";"";"Indonesia";"";"-2.0551817";"125.9732313";"https://maps.google.com/?cid=0x0:0x566c86416d7953be"
"supermarket";"supermarket";"Maluku Utara 97795";"Falahu, Kec. Sanana, Kabupaten Kepulauan Sula, Maluku Utara";"Kabupaten Kepulauan Sula, Maluku Utara";"MALUKU UTARA";"";"Indonesia";"";"-2.0613593";"125.9823727";"https://maps.google.com/?cid=0x0:0x25db49ff4002ccf8"
"supermarket";"supermarket";"AWw2aKDMDNfg4-EPsK_dkA8"-,null,null,1,null,"https://www.google.com/maps/preview/place/Toko+Narti/@-1.890486,125.8175384,3988a,13.1y/datau003d!4m2!3m1!1s0x4845f2050fc70a37:0x7b2608e511e55a2e";"";"";"MALUKU UTARA";"";"Indonesia";" 082197216302";"-1.890486";"125.8175384";"https://maps.google.com/?cid=0x0:0x7b2608e511e55a2e"
"supermarket";"Toko Bahan Bangunan";"toko fariasi";"Fagudu, Kec. Sanana, Kabupaten Kepulauan Sula, Maluku Utara 97795";"Kec. Sanana, Kabupaten Kepulauan Sula";"MALUKU UTARA";"97795";"Indonesia";"";"-2.0613406";"125.982371";"https://maps.google.com/?cid=0x0:0xc7d11f3f54634ae8"
"supermarket";"Pusat Perbelanjaan";"Toko Dina";"WXQJ+G8P, Falahu, Kec. Sanana, Kabupaten Kepulauan Sula, Maluku Utara";"Kabupaten Kepulauan Sula, Maluku Utara";"MALUKU UTARA";"";"Indonesia";"";"-2.0611537";"125.9808429";"https://maps.google.com/?cid=0x0:0x9b90731ae2491044"
"supermarket";"Toko";"Toko Damai";"WXRJ+5XC, Fagudu, Kec. Sanana, Kabupaten Kepulauan Sula, Maluku Utara";"Kabupaten Kepulauan Sula, Maluku Utara";"MALUKU UTARA";"";"Indonesia";"";"-2.0595656";"125.9823932";"https://maps.google.com/?cid=0x0:0xce2149c0cc608c57"
"supermarket";"Pabrik Coklat";"Serius coklat sula";"WXQM+J65 Al-qaidah, Falahu, Kec. Sanana, Kabupaten Kepulauan Sula, Maluku Utara";"Kabupaten Kepulauan Sula, Maluku Utara";"MALUKU UTARA";"";"Indonesia";" 082291140480";"-2.0609786";"125.9831008";"https://maps.google.com/?cid=0x0:0x2bb57127a2f3acf3"
"supermarket";"Toko Ponsel";"Konter Atma Cell";"WXQJ+JJP, Falahu, Kec. Sanana, Kabupaten Kepulauan Sula, Maluku Utara";"Kabupaten Kepulauan Sula, Maluku Utara";"MALUKU UTARA";"";"Indonesia";" 082112533775";"-2.0609202";"125.9815676";"https://maps.google.com/?cid=0x0:0xf6cf9e0c6bfe1dc8"
"supermarket";"Kedai Kopi";"IN_TIME";"Mangon, Kec. Sanana, Kabupaten Kepulauan Sula, Maluku Utara 97795";"Kec. Sanana, Kabupaten Kepulauan Sula";"MALUKU UTARA";"97795";"Indonesia";" 081354636058";"-2.0613406";"125.982371";"https://maps.google.com/?cid=0x0:0xec9669d250217c01"
"supermarket";"supermarket";"Rofiq Aldzuhri";"Kalibomba, Kec. Sanana, Kabupaten Kepulauan Sula, Maluku Utara 97795";"Kec. Sanana, Kabupaten Kepulauan Sula";"MALUKU UTARA";"97795";"Indonesia";" 082348115264";"-2.0613406";"125.982371";"https://maps.google.com/?cid=0x0:0x60a41de5cf856aa7"
"supermarket";"Toko Cat";"Umecat Shop";"Falahu, Kec. Sanana, Kabupaten Kepulauan Sula, Maluku Utara 97795";"Kec. Sanana, Kabupaten Kepulauan Sula";"MALUKU UTARA";"97795";"Indonesia";" 082196639926";"-2.0614294";"125.9809194";"https://maps.google.com/?cid=0x0:0x38e5140dc0986805"
"supermarket";"supermarket";"Maluku Utara";"";"Maluku Utara";"MALUKU UTARA";"";"Indonesia";"";"1.5709993";"127.8087693";"https://maps.google.com/?cid=0x0:0x1030bfbcaf71ac0"
"supermarket";"Toko bahan makanan";"KITA MART";"3W9J+6MJ, Jl. Lain, Mangoli, Kec. Mangoli Tengah, Kabupaten Kepulauan Sula, Maluku Utara";"Kabupaten Kepulauan Sula, Maluku Utara";"MALUKU UTARA";"";"Indonesia";" 085293097766";"-1.9313195";"125.9326808";"https://maps.google.com/?cid=0x0:0x21ff8b2966d06aef"
"supermarket";"Toko Bahan Bangunan";"Makmur Utama Supermarket Bahan Bangunan";"Jl. Yasin Gamsungi No.2 Kec. ternate tengah, Kel, Makassar Tim., Makassar Timur, Kota Ternate, Maluku Utara 97724";"Kel, Makassar Tim., Makassar Timur, Kota Ternate";"MALUKU UTARA";"97724";"Indonesia";" 08114313799";"0.7940352";"127.3876695";"https://maps.google.com/?cid=0x0:0x2f492ae87bf64247"
"supermarket";"supermarket";"Mangoli Utara";"Kabupaten Kepulauan Sula, Maluku Utara";"Kabupaten Kepulauan Sula, Maluku Utara";"MALUKU UTARA";"";"Indonesia";"";"-1.7870032";"125.4804915";"https://maps.google.com/?cid=0x0:0x821bd9ab23ff70b4"
"supermarket";"Toko Perlengkapan Rumah";"Toko Glori";"6F6M+2HJ, Pelabuhan Falabisahayaa, Falabisahaya, Mangoli Utara, Kabupaten Kepulauan Sula, Maluku Utara";"Kabupaten Kepulauan Sula, Maluku Utara";"MALUKU UTARA";"";"Indonesia";" 082244858363";"-1.7894941";"125.4837289";"https://maps.google.com/?cid=0x0:0x925354578c339e1"
"supermarket";"Toko Game";"Rental Anugerah";"6F6H+GGW, Falabisahaya, Mangoli Utara, Kabupaten Kepulauan Sula, Maluku Utara";"Kabupaten Kepulauan Sula, Maluku Utara";"MALUKU UTARA";"";"Indonesia";" 0929226178";"-1.7886333";"125.4788197";"https://maps.google.com/?cid=0x0:0xf3d4f7e072255d9b"
"supermarket";"Toko umum";"Kios Mama Lin";"6F7M+6CW, Falabisahaya, Mangoli Utara, Kabupaten Kepulauan Sula, Maluku Utara";"Kabupaten Kepulauan Sula, Maluku Utara";"MALUKU UTARA";"";"Indonesia";" 081354743667";"-1.7868936";"125.4835737";"https://maps.google.com/?cid=0x0:0xad52118c53929059"
"supermarket";"Toko umum";"FALABISAHAYA";"5F8Q+2MC, Falabisahaya, Mangoli Utara, Kabupaten Kepulauan Sula, Maluku Utara";"Kabupaten Kepulauan Sula, Maluku Utara";"MALUKU UTARA";"";"Indonesia";"";"-1.8349259";"125.489147";"https://maps.google.com/?cid=0x0:0xfa504b2cd5fa51dc"
"supermarket";"Toko";"Toko Merry";"6F7J+F6G, Falabisahaya, Mangoli Utara, Kabupaten Kepulauan Sula, Maluku Utara";"Kabupaten Kepulauan Sula, Maluku Utara";"MALUKU UTARA";"";"Indonesia";"";"-1.7863031";"125.4805919";"https://maps.google.com/?cid=0x0:0x1440ad518dc192a4"
"supermarket";"Toko";"Toko Citra";"Jln. Rawa Mangoli. Komplex KM, 1, RW.2, Falabisahaya, Mangoli Utara, Kabupaten Kepulauan Sula, Maluku Utara";"Kabupaten Kepulauan Sula, Maluku Utara";"MALUKU UTARA";"";"Indonesia";"";"-1.8349259";"125.489147";"https://maps.google.com/?cid=0x0:0x97e8faa89677cf8b"
"supermarket";"Toko";"Toko aisyah";"5F8Q+2MC, Falabisahaya, Mangoli Utara, Kabupaten Kepulauan Sula, Maluku Utara";"Kabupaten Kepulauan Sula, Maluku Utara";"MALUKU UTARA";"";"Indonesia";"";"-1.8349259";"125.489147";"https://maps.google.com/?cid=0x0:0xd56ebb2c4561bfac"
"supermarket";"Toko";"Sabanur";"6F43+HRF, Lekosula, Kec. Mangoli Bar., Kabupaten Kepulauan Sula, Maluku Utara";"Kabupaten Kepulauan Sula, Maluku Utara";"MALUKU UTARA";"";"Indonesia";"";"-1.7929636";"125.453629";"https://maps.google.com/?cid=0x0:0x7ca1175875f3ace7"
"supermarket";"Toko umum";"WARUNG SEMBAKO. FITRIA SALEH KOTA";"6F6F+HQ7, Falabisahaya, Mangoli Utara, Kabupaten Kepulauan Sula, Maluku Utara";"Kabupaten Kepulauan Sula, Maluku Utara";"MALUKU UTARA";"";"Indonesia";" 082290633277";"-1.789104";"125.4754047";"https://maps.google.com/?cid=0x0:0xc6642e7efe293881"
"supermarket";"Toko";"Toko Rajawali";"6F7P+29P, Falabisahaya, Mangoli Utara, Kabupaten Kepulauan Sula, Maluku Utara";"Kabupaten Kepulauan Sula, Maluku Utara";"MALUKU UTARA";"";"Indonesia";"";"-1.7874214";"125.4859545";"https://maps.google.com/?cid=0x0:0x5347903f4c905959"
"supermarket";"Toko bahan makanan";"KITA MART";"3W9J+6MJ, Jl. Lain, Mangoli, Kec. Mangoli Tengah, Kabupaten Kepulauan Sula, Maluku Utara";"Kabupaten Kepulauan Sula, Maluku Utara";"MALUKU UTARA";"";"Indonesia";" 085293097766";"-1.9313195";"125.9326808";"https://maps.google.com/?cid=0x0:0x21ff8b2966d06aef"
"supermarket";"Minimarket";"TOKO KITA";"3WFP+V4, Mangoli, Kec. Mangoli Tengah, Kabupaten Kepulauan Sula, Maluku Utara";"Kabupaten Kepulauan Sula, Maluku Utara";"MALUKU UTARA";"";"Indonesia";" 081243749219";"-1.9253205";"125.9353555";"https://maps.google.com/?cid=0x0:0x4c32ab2f65abce8"
"supermarket";"supermarket";"Kec. Mangoli Tengah";"Kabupaten Kepulauan Sula, Maluku Utara";"Kabupaten Kepulauan Sula, Maluku Utara";"MALUKU UTARA";"";"Indonesia";"";"-1.9272257";"125.9383491";"https://maps.google.com/?cid=0x0:0xa42c94bee3686447"
"supermarket";"Toko bahan makanan";"Kios Ayana";"3WCJ+G49, Mangoli, Kec. Mangoli Tengah, Kabupaten Kepulauan Sula, Maluku Utara";"Kabupaten Kepulauan Sula, Maluku Utara";"MALUKU UTARA";"";"Indonesia";" 082195835886";"-1.9287049";"125.9303675";"https://maps.google.com/?cid=0x0:0x4446a07228a33cc6"
"supermarket";"Minimarket";"Fhyza Mart";"3XPJ+5R9, Waitina, Kec. Mangoli Tim., Kabupaten Kepulauan Sula, Maluku Utara";"Kabupaten Kepulauan Sula, Maluku Utara";"MALUKU UTARA";"";"Indonesia";"";"-1.9145853";"125.9821124";"https://maps.google.com/?cid=0x0:0x76cf094ac09e9ace"
"supermarket";"Toko";"Toko lancar jaya";"5X95+5G2, Mangoli, Kec. Mangoli Tengah, Kabupaten Kepulauan Sula, Maluku Utara";"Kabupaten Kepulauan Sula, Maluku Utara";"MALUKU UTARA";"";"Indonesia";"";"-1.8321222";"125.958777";"https://maps.google.com/?cid=0x0:0x6729f7264e253f7"
"supermarket";"Toko umum";"Waitina";"3XPM+MV7, Waitina, Kec. Mangoli Tim., Kabupaten Kepulauan Sula, Maluku Utara";"Kabupaten Kepulauan Sula, Maluku Utara";"MALUKU UTARA";"";"Indonesia";"";"-1.912083";"125.9848596";"https://maps.google.com/?cid=0x0:0x793c1a5acbfe7cc3"
"supermarket";"Komplek perumahan";"Waitulia";"3W85+VM5, Waitulia, Kec. Mangoli Tengah, Kabupaten Kepulauan Sula, Maluku Utara";"Kabupaten Kepulauan Sula, Maluku Utara";"MALUKU UTARA";"";"Indonesia";"";"-1.9328743";"125.9092252";"https://maps.google.com/?cid=0x0:0x7d5506ab6f7207fd"
"supermarket";"Toko";"Daeng Jere";"3XJ2+PQG, Mangoli, Kec. Mangoli Tengah, Kabupaten Kepulauan Sula, Maluku Utara";"Kabupaten Kepulauan Sula, Maluku Utara";"MALUKU UTARA";"";"Indonesia";"";"-1.9187347";"125.9515307";"https://maps.google.com/?cid=0x0:0xac415ad96170baa4"
"supermarket";"Toko bahan makanan";"M.Ali Umacina";"3WFQ+HQ3, Mangoli, Kec. Mangoli Tengah, Kabupaten Kepulauan Sula, Maluku Utara";"Kabupaten Kepulauan Sula, Maluku Utara";"MALUKU UTARA";"";"Indonesia";"";"-1.9262574";"125.9392561";"https://maps.google.com/?cid=0x0:0x3758503e171d447"
"supermarket";"Grosir";"Aldi Jaya Toko";"5X95+5G2, JL Bacan, Mangoli, Mangole, Kabupaten Kepulauan Sula, Maluku Utara 97796";"JL Bacan, Mangoli, Mangole, Kabupaten Kepulauan Sula";"MALUKU UTARA";"97796";"Indonesia";" 092961690";"-1.8321222";"125.958777";"https://maps.google.com/?cid=0x0:0x6352eb32e8dd49c"
"supermarket";"Toko Komputer";"CAHAYA PRINTING MANGOLI";"3WCM+7QF, Mangoli, Kec. Mangoli Tengah, Kabupaten Kepulauan Sula, Maluku Utara";"Kabupaten Kepulauan Sula, Maluku Utara";"MALUKU UTARA";"";"Indonesia";" 081354888361";"-1.929305";"125.9344309";"https://maps.google.com/?cid=0x0:0x9e809527f4c953d0"
"supermarket";"Toko bahan makanan";"Toko Rumi Jaya";"3W84+HXJ, Waitulia, Kec. Mangoli Tengah, Kabupaten Kepulauan Sula, Maluku Utara";"Kabupaten Kepulauan Sula, Maluku Utara";"MALUKU UTARA";"";"Indonesia";"";"-1.9333032";"125.9083122";"https://maps.google.com/?cid=0x0:0xb145a9de6bafa6bd"
"supermarket";"Minimarket";"Mama Tuti";"3XPM+MV7, Waitina, Kec. Mangoli Tim., Kabupaten Kepulauan Sula, Maluku Utara";"Kabupaten Kepulauan Sula, Maluku Utara";"MALUKU UTARA";"";"Indonesia";"";"-1.9133171";"125.9840259";"https://maps.google.com/?cid=0x0:0xd204cc4e3a23baca"
"supermarket";"Minimarket";"TOKO KITA";"3WFP+V4, Mangoli, Kec. Mangoli Tengah, Kabupaten Kepulauan Sula, Maluku Utara";"Kabupaten Kepulauan Sula, Maluku Utara";"MALUKU UTARA";"";"Indonesia";" 081243749219";"-1.9253205";"125.9353555";"https://maps.google.com/?cid=0x0:0x4c32ab2f65abce8"
"supermarket";"Toko bahan makanan";"KITA MART";"3W9J+6MJ, Jl. Lain, Mangoli, Kec. Mangoli Tengah, Kabupaten Kepulauan Sula, Maluku Utara";"Kabupaten Kepulauan Sula, Maluku Utara";"MALUKU UTARA";"";"Indonesia";" 085293097766";"-1.9313195";"125.9326808";"https://maps.google.com/?cid=0x0:0x21ff8b2966d06aef"
"supermarket";"supermarket";"Mangoli Utara Tim.";"Kabupaten Kepulauan Sula, Maluku Utara";"Kabupaten Kepulauan Sula, Maluku Utara";"MALUKU UTARA";"";"Indonesia";"";"-1.8414454";"126.241388";"https://maps.google.com/?cid=0x0:0x17e3b0f466e504e3"
"supermarket";"supermarket";"Kec. Mangoli Sel.";"Kabupaten Kepulauan Sula, Maluku Utara";"Kabupaten Kepulauan Sula, Maluku Utara";"MALUKU UTARA";"";"Indonesia";"";"-1.9281685";"125.5811446";"https://maps.google.com/?cid=0x0:0xe82e6eef47e4f664"
"supermarket";"Toko";"Kios fikram";"3G53+R6F, Auponhia, Kec. Mangoli Sel., Kabupaten Kepulauan Sula, Maluku Utara";"Kabupaten Kepulauan Sula, Maluku Utara";"MALUKU UTARA";"";"Indonesia";"";"-1.9404791";"125.5030808";"https://maps.google.com/?cid=0x0:0xc3f872d2d45bc2e2"
"supermarket";"Toko bahan makanan";"KITA MART";"3W9J+6MJ, Jl. Lain, Mangoli, Kec. Mangoli Tengah, Kabupaten Kepulauan Sula, Maluku Utara";"Kabupaten Kepulauan Sula, Maluku Utara";"MALUKU UTARA";"";"Indonesia";" 085293097766";"-1.9313195";"125.9326808";"https://maps.google.com/?cid=0x0:0x21ff8b2966d06aef"
"supermarket";"Toko";"Toko Citra";"Jln. Rawa Mangoli. Komplex KM, 1, RW.2, Falabisahaya, Mangoli Utara, Kabupaten Kepulauan Sula, Maluku Utara";"Kabupaten Kepulauan Sula, Maluku Utara";"MALUKU UTARA";"";"Indonesia";"";"-1.8349259";"125.489147";"https://maps.google.com/?cid=0x0:0x97e8faa89677cf8b"
"supermarket";"Toko";"Toko aisyah";"5F8Q+2MC, Falabisahaya, Mangoli Utara, Kabupaten Kepulauan Sula, Maluku Utara";"Kabupaten Kepulauan Sula, Maluku Utara";"MALUKU UTARA";"";"Indonesia";"";"-1.8349259";"125.489147";"https://maps.google.com/?cid=0x0:0xd56ebb2c4561bfac"
"supermarket";"supermarket";"Maluku Utara 97795";"Falahu, Kec. Sanana, Kabupaten Kepulauan Sula, Maluku Utara";"Kabupaten Kepulauan Sula, Maluku Utara";"MALUKU UTARA";"";"Indonesia";"";"-2.0613593";"125.9823727";"https://maps.google.com/?cid=0x0:0x25db49ff4002ccf8"
"supermarket";"Toko";"Alya Mart";"WXRJ+3VG, Falahu, Kec. Sanana, Kabupaten Kepulauan Sula, Maluku Utara";"Kabupaten Kepulauan Sula, Maluku Utara";"MALUKU UTARA";"";"Indonesia";"";"-2.059804";"125.9822097";"https://maps.google.com/?cid=0x0:0x9f24780a49bf8142"
"supermarket";"Toko bahan makanan";"Toko Sinar Agape";"Fagudu, Kec. Sanana, Kabupaten Kepulauan Sula, Maluku Utara";"Kabupaten Kepulauan Sula, Maluku Utara";"MALUKU UTARA";"";"Indonesia";" 09292221375";"-2.0590926";"125.9811933";"https://maps.google.com/?cid=0x0:0x31a179081c853043"
"supermarket";"Toko Swalayan";"Kios 5A Ujung Desa";"Fogi, Kec. Sanana, Kabupaten Kepulauan Sula, Maluku Utara 97795";"Kec. Sanana, Kabupaten Kepulauan Sula";"MALUKU UTARA";"97795";"Indonesia";"";"-2.0633867";"125.9600169";"https://maps.google.com/?cid=0x0:0x47f94fd5de32c3dc"
"supermarket";"Toko Bahan Bangunan";"toko fariasi";"Fagudu, Kec. Sanana, Kabupaten Kepulauan Sula, Maluku Utara 97795";"Kec. Sanana, Kabupaten Kepulauan Sula";"MALUKU UTARA";"97795";"Indonesia";"";"-2.0613406";"125.982371";"https://maps.google.com/?cid=0x0:0xc7d11f3f54634ae8"
"supermarket";"Toko Swalayan";"Toko gabriel";"Jl. Desa Pohea, Mangon, Kec. Sanana, Kabupaten Kepulauan Sula, Maluku Utara 97795";"Mangon, Kec. Sanana, Kabupaten Kepulauan Sula";"MALUKU UTARA";"97795";"Indonesia";" 081245678076";"-2.0448896";"125.9917767";"https://maps.google.com/?cid=0x0:0xbf7ec3c79d6a1fa"
"supermarket";"Toko Barang Pecah Belah";"Toko Moro Asih";"WXJJ+9C3, Fatce, Kec. Sanana, Kabupaten Kepulauan Sula, Maluku Utara";"Kabupaten Kepulauan Sula, Maluku Utara";"MALUKU UTARA";"";"Indonesia";"";"-2.0691034";"125.981046";"https://maps.google.com/?cid=0x0:0x6c709744209ad66c"
"supermarket";"supermarket";"PG02aOjVKP_KqfkPzOLY6AE"-,null,null,1,null,"https://www.google.com/maps/preview/place/Toko+Narti/@-1.890486,125.8175384,3988a,13.1y/datau003d!4m2!3m1!1s0x4845f2050fc70a37:0x7b2608e511e55a2e";"";"";"MALUKU UTARA";"";"Indonesia";" 082197216302";"-1.890486";"125.8175384";"https://maps.google.com/?cid=0x0:0x7b2608e511e55a2e"
"supermarket";"Toko";"Toko Damai";"WXRJ+5XC, Fagudu, Kec. Sanana, Kabupaten Kepulauan Sula, Maluku Utara";"Kabupaten Kepulauan Sula, Maluku Utara";"MALUKU UTARA";"";"Indonesia";"";"-2.0595656";"125.9823932";"https://maps.google.com/?cid=0x0:0xce2149c0cc608c57"
"supermarket";"Komplek perumahan";"Arpon";"WXWH+FPF, Mangon, Kec. Sanana, Kabupaten Kepulauan Sula, Maluku Utara";"Kabupaten Kepulauan Sula, Maluku Utara";"MALUKU UTARA";"";"Indonesia";"";"-2.054325";"125.979051";"https://maps.google.com/?cid=0x0:0x344d511ece9997e2"
"supermarket";"Kedai Kopi";"IN_TIME";"Mangon, Kec. Sanana, Kabupaten Kepulauan Sula, Maluku Utara 97795";"Kec. Sanana, Kabupaten Kepulauan Sula";"MALUKU UTARA";"97795";"Indonesia";" 081354636058";"-2.0613406";"125.982371";"https://maps.google.com/?cid=0x0:0xec9669d250217c01"
"supermarket";"Toko Ponsel";"Konter Atma Cell";"WXQJ+JJP, Falahu, Kec. Sanana, Kabupaten Kepulauan Sula, Maluku Utara";"Kabupaten Kepulauan Sula, Maluku Utara";"MALUKU UTARA";"";"Indonesia";" 082112533775";"-2.0609202";"125.9815676";"https://maps.google.com/?cid=0x0:0xf6cf9e0c6bfe1dc8"
"supermarket";"Toko bahan makanan";"Sederhana Mart";"WXRJ+X2W, Fagudu, Kec. Sanana, Kabupaten Kepulauan Sula, Maluku Utara";"Kabupaten Kepulauan Sula, Maluku Utara";"MALUKU UTARA";"";"Indonesia";"";"-2.0575036";"125.9800825";"https://maps.google.com/?cid=0x0:0x961275bcb80c4983"
"supermarket";"Toko Elektronik";"Toko Imanuel";"WXRJ+H77, Jl. A.K Syahlan, Fagudu, Kec. Sanana, Kabupaten Kepulauan Sula, Maluku Utara";"Kabupaten Kepulauan Sula, Maluku Utara";"MALUKU UTARA";"";"Indonesia";" 081343656096";"-2.058596";"125.9806821";"https://maps.google.com/?cid=0x0:0x81e26603230c2ac1"
"cafe";"cafe";"cafe mangoli";"6F7H+XQG, Falabisahaya, Mangoli Utara, Kabupaten Kepulauan Sula, Maluku Utara";"Kabupaten Kepulauan Sula, Maluku Utara";"MALUKU UTARA";"";"Indonesia";"";"-1.785059";"125.4794404";"https://maps.google.com/?cid=0x0:0x4e37abb8669bd1a1"
"cafe";"Ayam";"Rumah aldy marsaoly";"4496+77W, Wai Tamela, Kec. Mangoli Tim., Kabupaten Kepulauan Sula, Maluku Utara";"Kabupaten Kepulauan Sula, Maluku Utara";"MALUKU UTARA";"";"Indonesia";"";"-1.8821741";"126.1126372";"https://maps.google.com/?cid=0x0:0x2447e7bc68dc8ed4"
"cafe";"Kedai Kopi";"Rumah Al bhory Marsaoly";"4497+F3, Wai Tamela, Kec. Mangoli Tim., Kabupaten Kepulauan Sula, Maluku Utara";"Kabupaten Kepulauan Sula, Maluku Utara";"MALUKU UTARA";"";"Indonesia";"";"-1.8813381";"126.1127066";"https://maps.google.com/?cid=0x0:0xdfadfd6c7de8bc96"
"cafe";"cafe";"Maluku Utara 97795";"Falahu, Kec. Sanana, Kabupaten Kepulauan Sula, Maluku Utara";"Kabupaten Kepulauan Sula, Maluku Utara";"MALUKU UTARA";"";"Indonesia";"";"-2.0613593";"125.9823727";"https://maps.google.com/?cid=0x0:0x25db49ff4002ccf8"
"cafe";"Kedai Kopi";"IN_TIME";"Mangon, Kec. Sanana, Kabupaten Kepulauan Sula, Maluku Utara 97795";"Kec. Sanana, Kabupaten Kepulauan Sula";"MALUKU UTARA";"97795";"Indonesia";" 081354636058";"-2.0613406";"125.982371";"https://maps.google.com/?cid=0x0:0xec9669d250217c01"
"cafe";"Kedai Kopi";"coffeeshop";"WXMJ+J6H, Jl. Jenderal Besar Soeharto, Fatce, Kec. Sanana, Kabupaten Kepulauan Sula, Maluku Utara";"Kabupaten Kepulauan Sula, Maluku Utara";"MALUKU UTARA";"";"Indonesia";" 082343874574";"-2.0659349";"125.9805966";"https://maps.google.com/?cid=0x0:0x37cd2f787b5163de"
"cafe";"Kafe";"Cafe Corona Fogi - Sanana";"WXJH+85W, Jl. Jenderal Besar Soeharto, Fogi, Kec. Sanana, Kabupaten Kepulauan Sula, Maluku Utara";"Kabupaten Kepulauan Sula, Maluku Utara";"MALUKU UTARA";"";"Indonesia";"";"-2.0691451";"125.9779455";"https://maps.google.com/?cid=0x0:0x2c730581a49a66b9"
"cafe";"Pabrik Coklat";"Serius coklat sula";"WXQM+J65 Al-qaidah, Falahu, Kec. Sanana, Kabupaten Kepulauan Sula, Maluku Utara";"Kabupaten Kepulauan Sula, Maluku Utara";"MALUKU UTARA";"";"Indonesia";" 082291140480";"-2.0609786";"125.9831008";"https://maps.google.com/?cid=0x0:0x2bb57127a2f3acf3"
"cafe";"Kafe";"Sanana Cafe And Resto";"852G+V9J, Jl. Hative Ambon, Kel Silale, Kec. Nusaniwe, Kota Ambon, Maluku";"Kota Ambon, Maluku";"MALUKU UTARA";"";"Indonesia";"";"-3.6977866";"128.1758967";"https://maps.google.com/?cid=0x0:0xc110ea39be62ed9c"
"cafe";"Restoran";"RM BUNDA";"WXQJ+MQF, Jl. A.K Syahlan, Falahu, Kec. Sanana, Kabupaten Kepulauan Sula, Maluku Utara";"Kabupaten Kepulauan Sula, Maluku Utara";"MALUKU UTARA";"";"Indonesia";" 082296675344";"-2.0608231";"125.9819256";"https://maps.google.com/?cid=0x0:0xe8c572014b144ab7"
"cafe";"Kedai Kopi";"Mie Begadang Haibusa";"Fatce, Kec. Sanana, Kabupaten Kepulauan Sula, Maluku Utara 97795";"Kec. Sanana, Kabupaten Kepulauan Sula";"MALUKU UTARA";"97795";"Indonesia";"";"-2.0613406";"125.982371";"https://maps.google.com/?cid=0x0:0x506d12946d069858"
"cafe";"Toko";"Alya Mart";"WXRJ+3VG, Falahu, Kec. Sanana, Kabupaten Kepulauan Sula, Maluku Utara";"Kabupaten Kepulauan Sula, Maluku Utara";"MALUKU UTARA";"";"Indonesia";"";"-2.059804";"125.9822097";"https://maps.google.com/?cid=0x0:0x9f24780a49bf8142"
"cafe";"cafe";"Sanana";"Fagudu, Kec. Sanana, Kabupaten Kepulauan Sula, Maluku Utara";"Kabupaten Kepulauan Sula, Maluku Utara";"MALUKU UTARA";"";"Indonesia";"";"-2.054462";"125.975403";"https://maps.google.com/?cid=0x0:0x794f7fcc9fc05834"
"cafe";"Kedai Kopi";"SANAYU COFFEE";"Jl. Pd. Rumput I No.65, Kb. Pedes, Kec. Tanah Sereal, Kota Bogor, Jawa Barat 16162";"Kb. Pedes, Kec. Tanah Sereal, Kota Bogor";"MALUKU UTARA";"16162";"Indonesia";" 081294018552";"-6.5708894";"106.7930643";"https://maps.google.com/?cid=0x0:0xe1f0a7cbed30bd02"
"cafe";"Kedai Kopi";"SANA COFFEE";"Jl. Pramuka 18, Sario Kotabaru, Kec. Sario, Kota Manado, Sulawesi Utara 95113";"Sario Kotabaru, Kec. Sario, Kota Manado";"MALUKU UTARA";"95113";"Indonesia";" 082114862377";"1.464944";"124.8369593";"https://maps.google.com/?cid=0x0:0xd166ccd745153b9d"
"cafe";"cafe";"Kec. Sanana";"Kabupaten Kepulauan Sula, Maluku Utara";"Kabupaten Kepulauan Sula, Maluku Utara";"MALUKU UTARA";"";"Indonesia";"";"-2.0691681";"125.9790065";"https://maps.google.com/?cid=0x0:0x2d5117e449c43e36"
"cafe";"cafe";"Maluku Utara 97795";"Falahu, Kec. Sanana, Kabupaten Kepulauan Sula, Maluku Utara";"Kabupaten Kepulauan Sula, Maluku Utara";"MALUKU UTARA";"";"Indonesia";"";"-2.0613593";"125.9823727";"https://maps.google.com/?cid=0x0:0x25db49ff4002ccf8"
"cafe";"Kedai Kopi";"IN_TIME";"Mangon, Kec. Sanana, Kabupaten Kepulauan Sula, Maluku Utara 97795";"Kec. Sanana, Kabupaten Kepulauan Sula";"MALUKU UTARA";"97795";"Indonesia";" 081354636058";"-2.0613406";"125.982371";"https://maps.google.com/?cid=0x0:0xec9669d250217c01"
"cafe";"Pabrik Coklat";"Serius coklat sula";"WXQM+J65 Al-qaidah, Falahu, Kec. Sanana, Kabupaten Kepulauan Sula, Maluku Utara";"Kabupaten Kepulauan Sula, Maluku Utara";"MALUKU UTARA";"";"Indonesia";" 082291140480";"-2.0609786";"125.9831008";"https://maps.google.com/?cid=0x0:0x2bb57127a2f3acf3"
"cafe";"Kafe";"Js coffee";"WXPJ+H93, Fatce, Kec. Sanana, Kabupaten Kepulauan Sula, Maluku Utara";"Kabupaten Kepulauan Sula, Maluku Utara";"MALUKU UTARA";"";"Indonesia";"";"-2.063607";"125.9809162";"https://maps.google.com/?cid=0x0:0xc54b2b1e3bc96a81"
"cafe";"Kedai Kopi";"Warkop Fina Gauu";"WXQM+W85, Unnamed Road, Falahu, Kec. Sanana, Kabupaten Kepulauan Sula, Maluku Utara";"Kabupaten Kepulauan Sula, Maluku Utara";"MALUKU UTARA";"";"Indonesia";" 081244662066";"-2.0602441";"125.9833636";"https://maps.google.com/?cid=0x0:0x69de2e2a68bfda03"
"cafe";"Jawa";"D'Cafe";"Swering, Mangon, Kec. Sanana, Kabupaten Kepulauan Sula, Maluku Utara 97795";"Mangon, Kec. Sanana, Kabupaten Kepulauan Sula";"MALUKU UTARA";"97795";"Indonesia";" 082188622959";"-2.0497225";"125.9902172";"https://maps.google.com/?cid=0x0:0x6fee1ab6d73f9020"
"cafe";"Restoran";"RM BUNDA";"WXQJ+MQF, Jl. A.K Syahlan, Falahu, Kec. Sanana, Kabupaten Kepulauan Sula, Maluku Utara";"Kabupaten Kepulauan Sula, Maluku Utara";"MALUKU UTARA";"";"Indonesia";" 082296675344";"-2.0608231";"125.9819256";"https://maps.google.com/?cid=0x0:0xe8c572014b144ab7"
"cafe";"Kedai Kopi";"Bakrin Norau";"WWVX+VM5, Fogi, Kec. Sanana, Kabupaten Kepulauan Sula, Maluku Utara";"Kabupaten Kepulauan Sula, Maluku Utara";"MALUKU UTARA";"";"Indonesia";"";"-2.0553643";"125.9492482";"https://maps.google.com/?cid=0x0:0x5868d0c3a8d84421"
"cafe";"Kedai Kopi";"Warini caffee";"Pelita, Kec. Mangoli Bar., Kabupaten Kepulauan Sula, Maluku Utara";"Kabupaten Kepulauan Sula, Maluku Utara";"MALUKU UTARA";"";"Indonesia";" 082187725373";"-1.8353722";"125.3286171";"https://maps.google.com/?cid=0x0:0x4e368c759a148cf2"
"cafe";"Kedai Kopi";"Mie Begadang Haibusa";"Fatce, Kec. Sanana, Kabupaten Kepulauan Sula, Maluku Utara 97795";"Kec. Sanana, Kabupaten Kepulauan Sula";"MALUKU UTARA";"97795";"Indonesia";"";"-2.0613406";"125.982371";"https://maps.google.com/?cid=0x0:0x506d12946d069858"
"cafe";"cafe";"cafe mangoli";"6F7H+XQG, Falabisahaya, Mangoli Utara, Kabupaten Kepulauan Sula, Maluku Utara";"Kabupaten Kepulauan Sula, Maluku Utara";"MALUKU UTARA";"";"Indonesia";"";"-1.785059";"125.4794404";"https://maps.google.com/?cid=0x0:0x4e37abb8669bd1a1"
"cafe";"cafe";"Kec. Mangoli Bar.";"Kabupaten Kepulauan Sula, Maluku Utara";"Kabupaten Kepulauan Sula, Maluku Utara";"MALUKU UTARA";"";"Indonesia";"";"-1.8071861";"125.3556926";"https://maps.google.com/?cid=0x0:0x9235093942d7b06a"
"cafe";"Kedai Kopi";"Warini caffee";"Pelita, Kec. Mangoli Bar., Kabupaten Kepulauan Sula, Maluku Utara";"Kabupaten Kepulauan Sula, Maluku Utara";"MALUKU UTARA";"";"Indonesia";" 082187725373";"-1.8353722";"125.3286171";"https://maps.google.com/?cid=0x0:0x4e368c759a148cf2"
"cafe";"cafe";"Taka";"59HH+FR3, Dofa, Kec. Mangoli Bar., Kabupaten Kepulauan Sula, Maluku Utara";"Kabupaten Kepulauan Sula, Maluku Utara";"MALUKU UTARA";"";"Indonesia";"";"-1.8213645";"125.379537";"https://maps.google.com/?cid=0x0:0xe09e4eaad10a2087"
"cafe";"Kedai Kopi";"Coffee Samudera";"6F7F+9QG, Falabisahaya, Mangoli Utara, Kabupaten Kepulauan Sula, Maluku Utara";"Kabupaten Kepulauan Sula, Maluku Utara";"MALUKU UTARA";"";"Indonesia";" 082348614028";"-1.7865655";"125.4744376";"https://maps.google.com/?cid=0x0:0x881e12b1f1f20bcb"
"cafe";"cafe";"Warung makan Mentari";"59R4+MP2, Dofa, Kec. Mangoli Bar., Kabupaten Kepulauan Sula, Maluku Utara";"Kabupaten Kepulauan Sula, Maluku Utara";"MALUKU UTARA";"";"Indonesia";"";"-1.8074844";"125.3570907";"https://maps.google.com/?cid=0x0:0x990291f12acff3b9"
"cafe";"Kedai Kopi";"Rumah Kopi Waimaka";"6F6G+9QX Jln. Lorong Plastik, Falabisahaya, Mangoli Utara, Kabupaten Kepulauan Sula, Maluku Utara";"Kabupaten Kepulauan Sula, Maluku Utara";"MALUKU UTARA";"";"Indonesia";" 082271153115";"-1.7890099";"125.4769845";"https://maps.google.com/?cid=0x0:0xf8defd6f5204164d"
"cafe";"cafe";"Beta Cafe";"586H+PV8, Pelita, Kec. Mangoli Bar., Kabupaten Kepulauan Sula, Maluku Utara";"Kabupaten Kepulauan Sula, Maluku Utara";"MALUKU UTARA";"";"Indonesia";"";"-1.8382359";"125.3297321";"https://maps.google.com/?cid=0x0:0x355bcb3846c11437"
"cafe";"cafe";"Maluku Utara 97795";"Falahu, Kec. Sanana, Kabupaten Kepulauan Sula, Maluku Utara";"Kabupaten Kepulauan Sula, Maluku Utara";"MALUKU UTARA";"";"Indonesia";"";"-2.0613593";"125.9823727";"https://maps.google.com/?cid=0x0:0x25db49ff4002ccf8"
"cafe";"Kedai Kopi";"IN_TIME";"Mangon, Kec. Sanana, Kabupaten Kepulauan Sula, Maluku Utara 97795";"Kec. Sanana, Kabupaten Kepulauan Sula";"MALUKU UTARA";"97795";"Indonesia";" 081354636058";"-2.0613406";"125.982371";"https://maps.google.com/?cid=0x0:0xec9669d250217c01"
"cafe";"Pabrik Coklat";"Serius coklat sula";"WXQM+J65 Al-qaidah, Falahu, Kec. Sanana, Kabupaten Kepulauan Sula, Maluku Utara";"Kabupaten Kepulauan Sula, Maluku Utara";"MALUKU UTARA";"";"Indonesia";" 082291140480";"-2.0609786";"125.9831008";"https://maps.google.com/?cid=0x0:0x2bb57127a2f3acf3"
"cafe";"Restoran";"Spice Island Cafe";"Nusantara, Banda, Nusantara, Kec. Banda, Central Maluku Regency, Maluku";"Central Maluku Regency, Maluku";"MALUKU UTARA";"";"Indonesia";" 081321585332";"-4.5254486";"129.8971799";"https://maps.google.com/?cid=0x0:0xd251109fef3fd171"
"cafe";"Kafetaria";"Santui Weda cafe";"8VJG+QQH, Fidi Jaya, Kec. Weda Tengah, Kabupaten Halmahera Tengah, Maluku Utara";"Kabupaten Halmahera Tengah, Maluku Utara";"MALUKU UTARA";"";"Indonesia";"";"0.331947";"127.8768595";"https://maps.google.com/?cid=0x0:0xb165a3589af98b92"
"cafe";"Kedai Kopi";"Mie Begadang Haibusa";"Fatce, Kec. Sanana, Kabupaten Kepulauan Sula, Maluku Utara 97795";"Kec. Sanana, Kabupaten Kepulauan Sula";"MALUKU UTARA";"97795";"Indonesia";"";"-2.0613406";"125.982371";"https://maps.google.com/?cid=0x0:0x506d12946d069858"
"cafe";"Restoran";"RM BUNDA";"WXQJ+MQF, Jl. A.K Syahlan, Falahu, Kec. Sanana, Kabupaten Kepulauan Sula, Maluku Utara";"Kabupaten Kepulauan Sula, Maluku Utara";"MALUKU UTARA";"";"Indonesia";" 082296675344";"-2.0608231";"125.9819256";"https://maps.google.com/?cid=0x0:0xe8c572014b144ab7"
"cafe";"cafe";"Kec. Sulabesi Tengah";"Kabupaten Kepulauan Sula, Maluku Utara";"Kabupaten Kepulauan Sula, Maluku Utara";"MALUKU UTARA";"";"Indonesia";"";"-2.2660437";"126.0041676";"https://maps.google.com/?cid=0x0:0xfbd0a140fc92e4f2"
"cafe";"Kedai Kopi";"WaiBak Coffee";"XX6R+V37, Jl. Desa Pohea, MAN Gega, Kec. Sanana Utara, Kabupaten Kepulauan Sula, Maluku Utara";"Kabupaten Kepulauan Sula, Maluku Utara";"MALUKU UTARA";"";"Indonesia";"";"-2.0378271";"125.9901857";"https://maps.google.com/?cid=0x0:0xde6d50c390631794"
"cafe";"Kedai Kopi";"Kamfa Coffee";"Fatce, Kec. Sanana, Kabupaten Kepulauan Sula, Maluku Utara";"Kabupaten Kepulauan Sula, Maluku Utara";"MALUKU UTARA";"";"Indonesia";" 082393420972";"-2.0635985";"125.9824362";"https://maps.google.com/?cid=0x0:0xc09d977959595517"
"cafe";"Kedai Kopi";"coffeeshop";"WXMJ+J6H, Jl. Jenderal Besar Soeharto, Fatce, Kec. Sanana, Kabupaten Kepulauan Sula, Maluku Utara";"Kabupaten Kepulauan Sula, Maluku Utara";"MALUKU UTARA";"";"Indonesia";" 082343874574";"-2.0659349";"125.9805966";"https://maps.google.com/?cid=0x0:0x37cd2f787b5163de"
"cafe";"Kafe";"Js coffee";"WXPJ+H93, Fatce, Kec. Sanana, Kabupaten Kepulauan Sula, Maluku Utara";"Kabupaten Kepulauan Sula, Maluku Utara";"MALUKU UTARA";"";"Indonesia";"";"-2.063607";"125.9809162";"https://maps.google.com/?cid=0x0:0xc54b2b1e3bc96a81"
"cafe";"Kedai Kopi";"L-Ava Tasty";"Jl. R.A. Kartini, Waiguaben, Fogi, Sanana, Kepulauan Sula Regency, North Maluku 97795";"Waiguaben, Fogi, Sanana, Kepulauan Sula Regency";"MALUKU UTARA";"97795";"Indonesia";" 082189850788";"-2.0736282";"125.9774696";"https://maps.google.com/?cid=0x0:0xa28e023feba67e42"
"cafe";"Kafe";"Beta Cafe";"WX7C+5V7, Jln, Wai Ipa, Kec. Sanana, Kabupaten Kepulauan Sula, Maluku Utara";"Kabupaten Kepulauan Sula, Maluku Utara";"MALUKU UTARA";"";"Indonesia";"";"-2.0870838";"125.9721743";"https://maps.google.com/?cid=0x0:0xc26aa6f70c96a8ff"
"cafe";"Jawa";"Rumah makan ibu Nurhayati yoisangadji";"H22J+5XG, Wailia, Kec. Sulabesi Timur, Kabupaten Kepulauan Sula, Maluku Utara";"Kabupaten Kepulauan Sula, Maluku Utara";"MALUKU UTARA";"";"Indonesia";"";"-2.4495613";"126.0324596";"https://maps.google.com/?cid=0x0:0x58099f871a8dcf45"
"cafe";"Rumah Makan";"Warung Bu Salma";"WXJJ+78R depan terminal, Fogi, Kec. Sanana, Kabupaten Kepulauan Sula, Maluku Utara";"Kabupaten Kepulauan Sula, Maluku Utara";"MALUKU UTARA";"";"Indonesia";" 082193777759";"-2.0692702";"125.9807755";"https://maps.google.com/?cid=0x0:0xce88059b393e2710"
"cafe";"cafe";"Maluku Utara 97795";"Falahu, Kec. Sanana, Kabupaten Kepulauan Sula, Maluku Utara";"Kabupaten Kepulauan Sula, Maluku Utara";"MALUKU UTARA";"";"Indonesia";"";"-2.0613593";"125.9823727";"https://maps.google.com/?cid=0x0:0x25db49ff4002ccf8"
"cafe";"Pabrik Coklat";"Serius coklat sula";"WXQM+J65 Al-qaidah, Falahu, Kec. Sanana, Kabupaten Kepulauan Sula, Maluku Utara";"Kabupaten Kepulauan Sula, Maluku Utara";"MALUKU UTARA";"";"Indonesia";" 082291140480";"-2.0609786";"125.9831008";"https://maps.google.com/?cid=0x0:0x2bb57127a2f3acf3"
"cafe";"Kafe";"Js coffee";"WXPJ+H93, Fatce, Kec. Sanana, Kabupaten Kepulauan Sula, Maluku Utara";"Kabupaten Kepulauan Sula, Maluku Utara";"MALUKU UTARA";"";"Indonesia";"";"-2.063607";"125.9809162";"https://maps.google.com/?cid=0x0:0xc54b2b1e3bc96a81"
"cafe";"Kedai Kopi";"coffeeshop";"WXMJ+J6H, Jl. Jenderal Besar Soeharto, Fatce, Kec. Sanana, Kabupaten Kepulauan Sula, Maluku Utara";"Kabupaten Kepulauan Sula, Maluku Utara";"MALUKU UTARA";"";"Indonesia";" 082343874574";"-2.0659349";"125.9805966";"https://maps.google.com/?cid=0x0:0x37cd2f787b5163de"
"cafe";"cafe";"Maluku Utara 97795";"Falahu, Kec. Sanana, Kabupaten Kepulauan Sula, Maluku Utara";"Kabupaten Kepulauan Sula, Maluku Utara";"MALUKU UTARA";"";"Indonesia";"";"-2.0613593";"125.9823727";"https://maps.google.com/?cid=0x0:0x25db49ff4002ccf8"
"cafe";"Kedai Kopi";"IN_TIME";"Mangon, Kec. Sanana, Kabupaten Kepulauan Sula, Maluku Utara 97795";"Kec. Sanana, Kabupaten Kepulauan Sula";"MALUKU UTARA";"97795";"Indonesia";" 081354636058";"-2.0613406";"125.982371";"https://maps.google.com/?cid=0x0:0xec9669d250217c01"
"cafe";"Pabrik Coklat";"Serius coklat sula";"WXQM+J65 Al-qaidah, Falahu, Kec. Sanana, Kabupaten Kepulauan Sula, Maluku Utara";"Kabupaten Kepulauan Sula, Maluku Utara";"MALUKU UTARA";"";"Indonesia";" 082291140480";"-2.0609786";"125.9831008";"https://maps.google.com/?cid=0x0:0x2bb57127a2f3acf3"
"cafe";"Kedai Kopi";"Mie Begadang Haibusa";"Fatce, Kec. Sanana, Kabupaten Kepulauan Sula, Maluku Utara 97795";"Kec. Sanana, Kabupaten Kepulauan Sula";"MALUKU UTARA";"97795";"Indonesia";"";"-2.0613406";"125.982371";"https://maps.google.com/?cid=0x0:0x506d12946d069858"
"cafe";"Kedai Kopi";"coffeeshop";"WXMJ+J6H, Jl. Jenderal Besar Soeharto, Fatce, Kec. Sanana, Kabupaten Kepulauan Sula, Maluku Utara";"Kabupaten Kepulauan Sula, Maluku Utara";"MALUKU UTARA";"";"Indonesia";" 082343874574";"-2.0659349";"125.9805966";"https://maps.google.com/?cid=0x0:0x37cd2f787b5163de"
"cafe";"Kedai Kopi";"WaiBak Coffee";"XX6R+V37, Jl. Desa Pohea, MAN Gega, Kec. Sanana Utara, Kabupaten Kepulauan Sula, Maluku Utara";"Kabupaten Kepulauan Sula, Maluku Utara";"MALUKU UTARA";"";"Indonesia";"";"-2.0378271";"125.9901857";"https://maps.google.com/?cid=0x0:0xde6d50c390631794"
"cafe";"cafe";"cafe mangoli";"6F7H+XQG, Falabisahaya, Mangoli Utara, Kabupaten Kepulauan Sula, Maluku Utara";"Kabupaten Kepulauan Sula, Maluku Utara";"MALUKU UTARA";"";"Indonesia";"";"-1.785059";"125.4794404";"https://maps.google.com/?cid=0x0:0x4e37abb8669bd1a1"
"cafe";"cafe";"Mangoli Utara";"Kabupaten Kepulauan Sula, Maluku Utara";"Kabupaten Kepulauan Sula, Maluku Utara";"MALUKU UTARA";"";"Indonesia";"";"-1.7870032";"125.4804915";"https://maps.google.com/?cid=0x0:0x821bd9ab23ff70b4"
"cafe";"Kedai Kopi";"Coffee Samudera";"6F7F+9QG, Falabisahaya, Mangoli Utara, Kabupaten Kepulauan Sula, Maluku Utara";"Kabupaten Kepulauan Sula, Maluku Utara";"MALUKU UTARA";"";"Indonesia";" 082348614028";"-1.7865655";"125.4744376";"https://maps.google.com/?cid=0x0:0x881e12b1f1f20bcb"
"cafe";"Komplek perumahan";"Tempat ayosewa starlink";"6F43+364, Lekosula, Kec. Mangoli Bar., Kabupaten Kepulauan Sula, Maluku Utara";"Kabupaten Kepulauan Sula, Maluku Utara";"MALUKU UTARA";"";"Indonesia";"";"-1.7948549";"125.4530787";"https://maps.google.com/?cid=0x0:0x4ec50236ce30fba5"
"cafe";"Toko bahan makanan";"Kios FALA PUTRA net";"6F6P+V7R, Falabisahaya, Mangoli Utara, Kabupaten Kepulauan Sula, Maluku Utara";"Kabupaten Kepulauan Sula, Maluku Utara";"MALUKU UTARA";"";"Indonesia";" 082394753485";"-1.7877596";"125.48564";"https://maps.google.com/?cid=0x0:0x6643158acdd76414"
"cafe";"cafe";"Kafe Alo";"6F6H+WM5, Falabisahaya, Mangoli Utara, Kabupaten Kepulauan Sula, Maluku Utara";"Kabupaten Kepulauan Sula, Maluku Utara";"MALUKU UTARA";"";"Indonesia";"";"-1.787748";"125.479221";"https://maps.google.com/?cid=0x0:0x46bf7ebd35786878"
"cafe";"cafe";"Kedai Kopi";"6F7J+43Q, Falabisahaya, Mangoli Utara, Kabupaten Kepulauan Sula, Maluku Utara";"Kabupaten Kepulauan Sula, Maluku Utara";"MALUKU UTARA";"";"Indonesia";"";"-1.7871651";"125.4802427";"https://maps.google.com/?cid=0x0:0x6e1f9fb1056bffaa"
"cafe";"cafe";"RAUF CAFE";"6F8G+PHC, Falabisahaya, Mangoli Utara, Kabupaten Kepulauan Sula, Maluku Utara";"Kabupaten Kepulauan Sula, Maluku Utara";"MALUKU UTARA";"";"Indonesia";"";"-1.783176";"125.476395";"https://maps.google.com/?cid=0x0:0x98f444838aac7ea4"
"cafe";"cafe";"cafe mangoli";"6F7H+XQG, Falabisahaya, Mangoli Utara, Kabupaten Kepulauan Sula, Maluku Utara";"Kabupaten Kepulauan Sula, Maluku Utara";"MALUKU UTARA";"";"Indonesia";"";"-1.785059";"125.4794404";"https://maps.google.com/?cid=0x0:0x4e37abb8669bd1a1"
"cafe";"cafe";"Kec. Mangoli Tengah";"Kabupaten Kepulauan Sula, Maluku Utara";"Kabupaten Kepulauan Sula, Maluku Utara";"MALUKU UTARA";"";"Indonesia";"";"-1.9272257";"125.9383491";"https://maps.google.com/?cid=0x0:0xa42c94bee3686447"
"cafe";"Toko bahan makanan";"KITA MART";"3W9J+6MJ, Jl. Lain, Mangoli, Kec. Mangoli Tengah, Kabupaten Kepulauan Sula, Maluku Utara";"Kabupaten Kepulauan Sula, Maluku Utara";"MALUKU UTARA";"";"Indonesia";" 085293097766";"-1.9313195";"125.9326808";"https://maps.google.com/?cid=0x0:0x21ff8b2966d06aef"
"cafe";"Minimarket";"TOKO KITA";"3WFP+V4, Mangoli, Kec. Mangoli Tengah, Kabupaten Kepulauan Sula, Maluku Utara";"Kabupaten Kepulauan Sula, Maluku Utara";"MALUKU UTARA";"";"Indonesia";" 081243749219";"-1.9253205";"125.9353555";"https://maps.google.com/?cid=0x0:0x4c32ab2f65abce8"
"cafe";"cafe";"RM BALAPAN SOLO";"5XGR+JHW, Mangoli, Kec. Mangoli Tengah, Kabupaten Kepulauan Sula, Maluku Utara";"Kabupaten Kepulauan Sula, Maluku Utara";"MALUKU UTARA";"";"Indonesia";"";"-1.8233938";"125.9914384";"https://maps.google.com/?cid=0x0:0x44b178cbe709f7a5"
"cafe";"Toko bahan makanan";"Kios Ayana";"3WCJ+G49, Mangoli, Kec. Mangoli Tengah, Kabupaten Kepulauan Sula, Maluku Utara";"Kabupaten Kepulauan Sula, Maluku Utara";"MALUKU UTARA";"";"Indonesia";" 082195835886";"-1.9287049";"125.9303675";"https://maps.google.com/?cid=0x0:0x4446a07228a33cc6"
"cafe";"Warnet";"Soamole.net";"3QH9+R6, Baru Akol, Kec. Mangoli Tengah, Kabupaten Kepulauan Sula, Maluku Utara";"Kabupaten Kepulauan Sula, Maluku Utara";"MALUKU UTARA";"";"Indonesia";"";"-1.9204446";"125.7680837";"https://maps.google.com/?cid=0x0:0xcc5c557da8abbee7"
"cafe";"cafe";"Warung Estu Eco";"3WCP+849, Jl. Lain, Mangoli, Kec. Mangoli Tengah, Kabupaten Kepulauan Sula, Maluku Utara";"Kabupaten Kepulauan Sula, Maluku Utara";"MALUKU UTARA";"";"Indonesia";"";"-1.929211";"125.9353457";"https://maps.google.com/?cid=0x0:0xdee2567d3975754b"
"cafe";"cafe";"Toko MATANGTENGIN";"3WCJ+86R, Unnamed Road, Mangoli, Kec. Mangoli Tengah, Kabupaten Kepulauan Sula, Maluku Utara";"Kabupaten Kepulauan Sula, Maluku Utara";"MALUKU UTARA";"";"Indonesia";"";"-1.9291367";"125.9305154";"https://maps.google.com/?cid=0x0:0x8cb9e21762aae421"
"cafe";"cafe";"Warung makan";"3WGQ+2V9 dusun 3, Mangoli, Kec. Mangoli Tengah, Kabupaten Kepulauan Sula, Maluku Utara";"Kabupaten Kepulauan Sula, Maluku Utara";"MALUKU UTARA";"";"Indonesia";"";"-1.9249556";"125.9397257";"https://maps.google.com/?cid=0x0:0x5664e3244034bc99"
"cafe";"cafe";"Mangoli Utara Tim.";"Kabupaten Kepulauan Sula, Maluku Utara";"Kabupaten Kepulauan Sula, Maluku Utara";"MALUKU UTARA";"";"Indonesia";"";"-1.8414454";"126.241388";"https://maps.google.com/?cid=0x0:0x17e3b0f466e504e3"
"cafe";"Kantor Keselamatan Publik";"Tanjung suar dehekolano";"47P7+49Q, Jln. Hi. Daeng Mustafa, Waisakai, Mangoli Utara Tim., Kabupaten Kepulauan Sula, Maluku Utara";"Kabupaten Kepulauan Sula, Maluku Utara";"MALUKU UTARA";"";"Indonesia";"";"-1.8647588";"126.2633185";"https://maps.google.com/?cid=0x0:0x86555d048bea5ce"
"cafe";"Ayam";"Rumah aldy marsaoly";"4496+77W, Wai Tamela, Kec. Mangoli Tim., Kabupaten Kepulauan Sula, Maluku Utara";"Kabupaten Kepulauan Sula, Maluku Utara";"MALUKU UTARA";"";"Indonesia";"";"-1.8821741";"126.1126372";"https://maps.google.com/?cid=0x0:0x2447e7bc68dc8ed4"
"cafe";"cafe";"cafe mangoli";"6F7H+XQG, Falabisahaya, Mangoli Utara, Kabupaten Kepulauan Sula, Maluku Utara";"Kabupaten Kepulauan Sula, Maluku Utara";"MALUKU UTARA";"";"Indonesia";"";"-1.785059";"125.4794404";"https://maps.google.com/?cid=0x0:0x4e37abb8669bd1a1"
"cafe";"cafe";"Maluku Utara 97795";"Falahu, Kec. Sanana, Kabupaten Kepulauan Sula, Maluku Utara";"Kabupaten Kepulauan Sula, Maluku Utara";"MALUKU UTARA";"";"Indonesia";"";"-2.0613593";"125.9823727";"https://maps.google.com/?cid=0x0:0x25db49ff4002ccf8"
"cafe";"Kafe";"Waimua Coffee";"WXQM+FFX, Falahu, Kec. Sanana, Kabupaten Kepulauan Sula, Maluku Utara";"Kabupaten Kepulauan Sula, Maluku Utara";"MALUKU UTARA";"";"Indonesia";"";"-2.0612653";"125.9837315";"https://maps.google.com/?cid=0x0:0x9e2d7fce3f5b893f"
"cafe";"Kedai Kopi";"IN_TIME";"Mangon, Kec. Sanana, Kabupaten Kepulauan Sula, Maluku Utara 97795";"Kec. Sanana, Kabupaten Kepulauan Sula";"MALUKU UTARA";"97795";"Indonesia";" 081354636058";"-2.0613406";"125.982371";"https://maps.google.com/?cid=0x0:0xec9669d250217c01"
"cafe";"Kedai Kopi";"WaiBak Coffee";"XX6R+V37, Jl. Desa Pohea, MAN Gega, Kec. Sanana Utara, Kabupaten Kepulauan Sula, Maluku Utara";"Kabupaten Kepulauan Sula, Maluku Utara";"MALUKU UTARA";"";"Indonesia";"";"-2.0378271";"125.9901857";"https://maps.google.com/?cid=0x0:0xde6d50c390631794"
"cafe";"Kafe";"Cafe Corona Fogi - Sanana";"WXJH+85W, Jl. Jenderal Besar Soeharto, Fogi, Kec. Sanana, Kabupaten Kepulauan Sula, Maluku Utara";"Kabupaten Kepulauan Sula, Maluku Utara";"MALUKU UTARA";"";"Indonesia";"";"-2.0691451";"125.9779455";"https://maps.google.com/?cid=0x0:0x2c730581a49a66b9"
"cafe";"Kedai Kopi";"Kedai aupon";"WXXQ+42C, Jl. Jenderal Besar Soeharto, Mangon, Kec. Sanana, Kabupaten Kepulauan Sula, Maluku Utara";"Kabupaten Kepulauan Sula, Maluku Utara";"MALUKU UTARA";"";"Indonesia";"";"-2.0521885";"125.9875044";"https://maps.google.com/?cid=0x0:0x7e677a1641849c4b"
"cafe";"Pabrik Coklat";"Serius coklat sula";"WXQM+J65 Al-qaidah, Falahu, Kec. Sanana, Kabupaten Kepulauan Sula, Maluku Utara";"Kabupaten Kepulauan Sula, Maluku Utara";"MALUKU UTARA";"";"Indonesia";" 082291140480";"-2.0609786";"125.9831008";"https://maps.google.com/?cid=0x0:0x2bb57127a2f3acf3"
"cafe";"Kafe";"Js coffee";"WXPJ+H93, Fatce, Kec. Sanana, Kabupaten Kepulauan Sula, Maluku Utara";"Kabupaten Kepulauan Sula, Maluku Utara";"MALUKU UTARA";"";"Indonesia";"";"-2.063607";"125.9809162";"https://maps.google.com/?cid=0x0:0xc54b2b1e3bc96a81"
"cafe";"Kedai Kopi";"Kamfa Coffee";"Fatce, Kec. Sanana, Kabupaten Kepulauan Sula, Maluku Utara";"Kabupaten Kepulauan Sula, Maluku Utara";"MALUKU UTARA";"";"Indonesia";" 082393420972";"-2.0635985";"125.9824362";"https://maps.google.com/?cid=0x0:0xc09d977959595517"
"cafe";"Kedai Kopi";"Warkop Fina Gauu";"WXQM+W85, Unnamed Road, Falahu, Kec. Sanana, Kabupaten Kepulauan Sula, Maluku Utara";"Kabupaten Kepulauan Sula, Maluku Utara";"MALUKU UTARA";"";"Indonesia";" 081244662066";"-2.0602441";"125.9833636";"https://maps.google.com/?cid=0x0:0x69de2e2a68bfda03"
"cafe";"Toko";"Alya Mart";"WXRJ+3VG, Falahu, Kec. Sanana, Kabupaten Kepulauan Sula, Maluku Utara";"Kabupaten Kepulauan Sula, Maluku Utara";"MALUKU UTARA";"";"Indonesia";"";"-2.059804";"125.9822097";"https://maps.google.com/?cid=0x0:0x9f24780a49bf8142"
"cafe";"Restoran";"RM BUNDA";"WXQJ+MQF, Jl. A.K Syahlan, Falahu, Kec. Sanana, Kabupaten Kepulauan Sula, Maluku Utara";"Kabupaten Kepulauan Sula, Maluku Utara";"MALUKU UTARA";"";"Indonesia";" 082296675344";"-2.0608231";"125.9819256";"https://maps.google.com/?cid=0x0:0xe8c572014b144ab7"
"cafe";"Penginapan";"Penginapan Desi";"WXVJ+R5X, Mangon, Kec. Sanana, Kabupaten Kepulauan Sula, Maluku Utara";"Kabupaten Kepulauan Sula, Maluku Utara";"MALUKU UTARA";"";"Indonesia";" 081242213705";"-2.0553964";"125.9804799";"https://maps.google.com/?cid=0x0:0xe326f68110ab5c77"
"cafe";"Kedai Kopi";"Mie Begadang Haibusa";"Fatce, Kec. Sanana, Kabupaten Kepulauan Sula, Maluku Utara 97795";"Kec. Sanana, Kabupaten Kepulauan Sula";"MALUKU UTARA";"97795";"Indonesia";"";"-2.0613406";"125.982371";"https://maps.google.com/?cid=0x0:0x506d12946d069858"
"hotel";"Pondok";"DEVINDA D'COST";"5X95+5G2 Belakang POLRES, Mangoli, Kec. Mangoli Tengah, Kabupaten Kepulauan Sula, Maluku Utara";"Kabupaten Kepulauan Sula, Maluku Utara";"MALUKU UTARA";"";"Indonesia";" 082197218662";"-1.8321222";"125.958777";"https://maps.google.com/?cid=0x0:0xca83187a7220410a"
"hotel";"Penginapan";"Penginapan Desi";"WXVJ+R5X, Mangon, Kec. Sanana, Kabupaten Kepulauan Sula, Maluku Utara";"Kabupaten Kepulauan Sula, Maluku Utara";"MALUKU UTARA";"";"Indonesia";" 081242213705";"-2.0553964";"125.9804799";"https://maps.google.com/?cid=0x0:0xe326f68110ab5c77"
"hotel";"hotel";"Maluku Utara 97795";"Falahu, Kec. Sanana, Kabupaten Kepulauan Sula, Maluku Utara";"Kabupaten Kepulauan Sula, Maluku Utara";"MALUKU UTARA";"";"Indonesia";"";"-2.0613593";"125.9823727";"https://maps.google.com/?cid=0x0:0x25db49ff4002ccf8"
"hotel";"Losmen";"Penginapan Yuki Ona";"WXMJ+4PQ, Fatce, Kec. Sanana, Kabupaten Kepulauan Sula, Maluku Utara";"Kabupaten Kepulauan Sula, Maluku Utara";"MALUKU UTARA";"";"Indonesia";"";"-2.0671546";"125.9818703";"https://maps.google.com/?cid=0x0:0xb8f2c0e09b1988ad"
"hotel";"Penginapan";"Penginapan Desi";"WXVJ+R5X, Mangon, Kec. Sanana, Kabupaten Kepulauan Sula, Maluku Utara";"Kabupaten Kepulauan Sula, Maluku Utara";"MALUKU UTARA";"";"Indonesia";" 081242213705";"-2.0553964";"125.9804799";"https://maps.google.com/?cid=0x0:0xe326f68110ab5c77"
"hotel";"Guest house";"Penginapan Wakatobi 2";"WXRJ+C32, Fagudu, Kec. Sanana, Kabupaten Kepulauan Sula, Maluku Utara";"Kabupaten Kepulauan Sula, Maluku Utara";"MALUKU UTARA";"";"Indonesia";" 082196512332";"-2.0589942";"125.9801436";"https://maps.google.com/?cid=0x0:0x666bbbad60dc8855"
"hotel";"hotel";"Green Sula Hotel";"WXPJ+2VR, Fatce, Kec. Sanana, Kabupaten Kepulauan Sula, Maluku Utara";"Kabupaten Kepulauan Sula, Maluku Utara";"MALUKU UTARA";"";"Indonesia";"";"-2.064882";"125.982128";"https://maps.google.com/?cid=0x0:0x1c5747be88715389"
"hotel";"hotel";"Juliana Hotel";"Gamsungi, Kec. Tobelo, Kabupaten Halmahera Utara, Maluku Utara";"Kabupaten Halmahera Utara, Maluku Utara";"MALUKU UTARA";"";"Indonesia";" 082191159141";"1.7272579";"128.0105717";"https://maps.google.com/?cid=0x0:0x97231ba37bd2cf65"
"hotel";"hotel";"Saloi inn";"3FXQ+VR2, Tedeng, Kec. Jailolo, Kabupaten Halmahera Barat, Maluku Utara";"Kabupaten Halmahera Barat, Maluku Utara";"MALUKU UTARA";"";"Indonesia";" 08111020812";"1.0996348";"127.4895301";"https://maps.google.com/?cid=0x0:0x1139fc5cb3804c4"
"hotel";"hotel";"Maluku Utara 97795";"Falahu, Kec. Sanana, Kabupaten Kepulauan Sula, Maluku Utara";"Kabupaten Kepulauan Sula, Maluku Utara";"MALUKU UTARA";"";"Indonesia";"";"-2.0613593";"125.9823727";"https://maps.google.com/?cid=0x0:0x25db49ff4002ccf8"
"hotel";"hotel";"Saloi inn";"3FXQ+VR2, Tedeng, Kec. Jailolo, Kabupaten Halmahera Barat, Maluku Utara";"Kabupaten Halmahera Barat, Maluku Utara";"MALUKU UTARA";"";"Indonesia";" 08111020812";"1.0996348";"127.4895301";"https://maps.google.com/?cid=0x0:0x1139fc5cb3804c4"
"hotel";"hotel";"Hotel Astonia Tobelo";"Gosoma, Kec. Tobelo, Kabupaten Halmahera Utara, Maluku Utara";"Kabupaten Halmahera Utara, Maluku Utara";"MALUKU UTARA";"";"Indonesia";" 09242621900";"1.7223761";"127.9947995";"https://maps.google.com/?cid=0x0:0x99ff7dd9ff5c49af"
"hotel";"Penginapan";"Penginapan Desi";"WXVJ+R5X, Mangon, Kec. Sanana, Kabupaten Kepulauan Sula, Maluku Utara";"Kabupaten Kepulauan Sula, Maluku Utara";"MALUKU UTARA";"";"Indonesia";" 081242213705";"-2.0553964";"125.9804799";"https://maps.google.com/?cid=0x0:0xe326f68110ab5c77"
"hotel";"Pondok";"Beliga Hotel";"Fagudu, Kec. Sanana, Kabupaten Kepulauan Sula, Maluku Utara";"Kabupaten Kepulauan Sula, Maluku Utara";"MALUKU UTARA";"";"Indonesia";" 082129005813";"-2.0556949";"125.9769118";"https://maps.google.com/?cid=0x0:0x7b33914fa4208e39"
"hotel";"Guest house";"Penginapan Wakatobi 2";"WXRJ+C32, Fagudu, Kec. Sanana, Kabupaten Kepulauan Sula, Maluku Utara";"Kabupaten Kepulauan Sula, Maluku Utara";"MALUKU UTARA";"";"Indonesia";" 082196512332";"-2.0589942";"125.9801436";"https://maps.google.com/?cid=0x0:0x666bbbad60dc8855"
"hotel";"hotel";"Green Sula Hotel";"WXPJ+2VR, Fatce, Kec. Sanana, Kabupaten Kepulauan Sula, Maluku Utara";"Kabupaten Kepulauan Sula, Maluku Utara";"MALUKU UTARA";"";"Indonesia";"";"-2.064882";"125.982128";"https://maps.google.com/?cid=0x0:0x1c5747be88715389"
"hotel";"hotel";"Kec. Mangoli Bar.";"Kabupaten Kepulauan Sula, Maluku Utara";"Kabupaten Kepulauan Sula, Maluku Utara";"MALUKU UTARA";"";"Indonesia";"";"-1.8071861";"125.3556926";"https://maps.google.com/?cid=0x0:0x9235093942d7b06a"
"hotel";"Pondok";"Beliga Hotel";"Fagudu, Kec. Sanana, Kabupaten Kepulauan Sula, Maluku Utara";"Kabupaten Kepulauan Sula, Maluku Utara";"MALUKU UTARA";"";"Indonesia";" 082129005813";"-2.0556949";"125.9769118";"https://maps.google.com/?cid=0x0:0x7b33914fa4208e39"
"hotel";"Penginapan";"Penginapan Desi";"WXVJ+R5X, Mangon, Kec. Sanana, Kabupaten Kepulauan Sula, Maluku Utara";"Kabupaten Kepulauan Sula, Maluku Utara";"MALUKU UTARA";"";"Indonesia";" 081242213705";"-2.0553964";"125.9804799";"https://maps.google.com/?cid=0x0:0xe326f68110ab5c77"
"hotel";"Rumah wisata";"Penginapan Surya pagi Falabisahaya";"6F6P+V7R, Falabisahaya, Mangoli Utara, Kabupaten Kepulauan Sula, Maluku Utara";"Kabupaten Kepulauan Sula, Maluku Utara";"MALUKU UTARA";"";"Indonesia";"";"-1.7874338";"125.485645";"https://maps.google.com/?cid=0x0:0x6b54f8c07b8e682d"
"hotel";"hotel";"Juliana Hotel";"Gamsungi, Kec. Tobelo, Kabupaten Halmahera Utara, Maluku Utara";"Kabupaten Halmahera Utara, Maluku Utara";"MALUKU UTARA";"";"Indonesia";" 082191159141";"1.7272579";"128.0105717";"https://maps.google.com/?cid=0x0:0x97231ba37bd2cf65"
"hotel";"hotel";"Maluku Utara 97795";"Falahu, Kec. Sanana, Kabupaten Kepulauan Sula, Maluku Utara";"Kabupaten Kepulauan Sula, Maluku Utara";"MALUKU UTARA";"";"Indonesia";"";"-2.0613593";"125.9823727";"https://maps.google.com/?cid=0x0:0x25db49ff4002ccf8"
"hotel";"hotel";"Saloi inn";"3FXQ+VR2, Tedeng, Kec. Jailolo, Kabupaten Halmahera Barat, Maluku Utara";"Kabupaten Halmahera Barat, Maluku Utara";"MALUKU UTARA";"";"Indonesia";" 08111020812";"1.0996348";"127.4895301";"https://maps.google.com/?cid=0x0:0x1139fc5cb3804c4"
"hotel";"hotel";"New Elshinta Hotel";"Jl. Pahlawan Revolusi No.58-60, Gamalama, Kec. Ternate Tengah, Kota Ternate, Maluku Utara 97721";"Gamalama, Kec. Ternate Tengah, Kota Ternate";"MALUKU UTARA";"97721";"Indonesia";" 09213121059";"0.7876913";"127.3886475";"https://maps.google.com/?cid=0x0:0x389548d6595850cd"
"hotel";"hotel";"Kec. Sulabesi Tengah";"Kabupaten Kepulauan Sula, Maluku Utara";"Kabupaten Kepulauan Sula, Maluku Utara";"MALUKU UTARA";"";"Indonesia";"";"-2.2660437";"126.0041676";"https://maps.google.com/?cid=0x0:0xfbd0a140fc92e4f2"
"hotel";"Penginapan";"Qit Hotel";"WX79+VR4, Wai Ipa, Kec. Sanana, Kabupaten Kepulauan Sula, Maluku Utara";"Kabupaten Kepulauan Sula, Maluku Utara";"MALUKU UTARA";"";"Indonesia";"";"-2.0853552";"125.9695753";"https://maps.google.com/?cid=0x0:0x88f1ec1325557eeb"
"hotel";"Losmen";"Penginapan Yuki Ona";"WXMJ+4PQ, Fatce, Kec. Sanana, Kabupaten Kepulauan Sula, Maluku Utara";"Kabupaten Kepulauan Sula, Maluku Utara";"MALUKU UTARA";"";"Indonesia";"";"-2.0671546";"125.9818703";"https://maps.google.com/?cid=0x0:0xb8f2c0e09b1988ad"
"hotel";"Penginapan";"Penginapan Desi";"WXVJ+R5X, Mangon, Kec. Sanana, Kabupaten Kepulauan Sula, Maluku Utara";"Kabupaten Kepulauan Sula, Maluku Utara";"MALUKU UTARA";"";"Indonesia";" 081242213705";"-2.0553964";"125.9804799";"https://maps.google.com/?cid=0x0:0xe326f68110ab5c77"
"hotel";"Pondok";"Beliga Hotel";"Fagudu, Kec. Sanana, Kabupaten Kepulauan Sula, Maluku Utara";"Kabupaten Kepulauan Sula, Maluku Utara";"MALUKU UTARA";"";"Indonesia";" 082129005813";"-2.0556949";"125.9769118";"https://maps.google.com/?cid=0x0:0x7b33914fa4208e39"
"hotel";"Gedung Apartemen";"CENTRO PARK RESIDENCE";"Jl. Soekarno Hatta No.168, Fatce, Kec. Sanana, Kabupaten Kepulauan Sula, Maluku Utara 97795";"Fatce, Kec. Sanana, Kabupaten Kepulauan Sula";"MALUKU UTARA";"97795";"Indonesia";"";"-2.0671663";"125.9817329";"https://maps.google.com/?cid=0x0:0x554f6abfdc6685d"
"hotel";"Pondok";"Penginapan Sulawesi";"WXPM+Q4W, Fatce, Kec. Sanana, Kabupaten Kepulauan Sula, Maluku Utara";"Kabupaten Kepulauan Sula, Maluku Utara";"MALUKU UTARA";"";"Indonesia";" 081241094373";"-2.0630175";"125.9828369";"https://maps.google.com/?cid=0x0:0xa68fa63a2b9c242c"
"hotel";"Guest house";"Penginapan Wakatobi 2";"WXRJ+C32, Fagudu, Kec. Sanana, Kabupaten Kepulauan Sula, Maluku Utara";"Kabupaten Kepulauan Sula, Maluku Utara";"MALUKU UTARA";"";"Indonesia";" 082196512332";"-2.0589942";"125.9801436";"https://maps.google.com/?cid=0x0:0x666bbbad60dc8855"
"hotel";"Hotel";"Namrole Wamosisi";"WXHG+3FG, Unnamed Road, Fogi, Kec. Sanana, Kabupaten Kepulauan Sula, Maluku Utara";"Kabupaten Kepulauan Sula, Maluku Utara";"MALUKU UTARA";"";"Indonesia";"";"-2.0723075";"125.9762145";"https://maps.google.com/?cid=0x0:0x182797a668f8ebb4"
"hotel";"Rumah wisata";"Rumahnya Baim";"XXW8+6V5, Pohea, Kec. Sanana Utara, Kabupaten Kepulauan Sula, Maluku Utara";"Kabupaten Kepulauan Sula, Maluku Utara";"MALUKU UTARA";"";"Indonesia";"";"-2.005083";"125.9673991";"https://maps.google.com/?cid=0x0:0xc3d5e5d62da9ec"
"hotel";"hotel";"Kec. Sulabesi Timur";"Kabupaten Kepulauan Sula, Maluku Utara";"Kabupaten Kepulauan Sula, Maluku Utara";"MALUKU UTARA";"";"Indonesia";"";"-2.3972103";"126.0597014";"https://maps.google.com/?cid=0x0:0xb7e818da71ae9c3d"
"hotel";"Pondok";"Beliga Hotel";"Fagudu, Kec. Sanana, Kabupaten Kepulauan Sula, Maluku Utara";"Kabupaten Kepulauan Sula, Maluku Utara";"MALUKU UTARA";"";"Indonesia";" 082129005813";"-2.0556949";"125.9769118";"https://maps.google.com/?cid=0x0:0x7b33914fa4208e39"
"hotel";"Penginapan";"Penginapan Desi";"WXVJ+R5X, Mangon, Kec. Sanana, Kabupaten Kepulauan Sula, Maluku Utara";"Kabupaten Kepulauan Sula, Maluku Utara";"MALUKU UTARA";"";"Indonesia";" 081242213705";"-2.0553964";"125.9804799";"https://maps.google.com/?cid=0x0:0xe326f68110ab5c77"
"hotel";"hotel";"Green Sula Hotel";"WXPJ+2VR, Fatce, Kec. Sanana, Kabupaten Kepulauan Sula, Maluku Utara";"Kabupaten Kepulauan Sula, Maluku Utara";"MALUKU UTARA";"";"Indonesia";"";"-2.064882";"125.982128";"https://maps.google.com/?cid=0x0:0x1c5747be88715389"
"hotel";"hotel";"Maluku Utara 97795";"Falahu, Kec. Sanana, Kabupaten Kepulauan Sula, Maluku Utara";"Kabupaten Kepulauan Sula, Maluku Utara";"MALUKU UTARA";"";"Indonesia";"";"-2.0613593";"125.9823727";"https://maps.google.com/?cid=0x0:0x25db49ff4002ccf8"
"hotel";"hotel";"Maluku Utara 97795";"Falahu, Kec. Sanana, Kabupaten Kepulauan Sula, Maluku Utara";"Kabupaten Kepulauan Sula, Maluku Utara";"MALUKU UTARA";"";"Indonesia";"";"-2.0613593";"125.9823727";"https://maps.google.com/?cid=0x0:0x25db49ff4002ccf8"
"hotel";"Penginapan";"Penginapan Desi";"WXVJ+R5X, Mangon, Kec. Sanana, Kabupaten Kepulauan Sula, Maluku Utara";"Kabupaten Kepulauan Sula, Maluku Utara";"MALUKU UTARA";"";"Indonesia";" 081242213705";"-2.0553964";"125.9804799";"https://maps.google.com/?cid=0x0:0xe326f68110ab5c77"
"hotel";"Pondok";"Beliga Hotel";"Fagudu, Kec. Sanana, Kabupaten Kepulauan Sula, Maluku Utara";"Kabupaten Kepulauan Sula, Maluku Utara";"MALUKU UTARA";"";"Indonesia";" 082129005813";"-2.0556949";"125.9769118";"https://maps.google.com/?cid=0x0:0x7b33914fa4208e39"
"hotel";"hotel";"Green Sula Hotel";"WXPJ+2VR, Fatce, Kec. Sanana, Kabupaten Kepulauan Sula, Maluku Utara";"Kabupaten Kepulauan Sula, Maluku Utara";"MALUKU UTARA";"";"Indonesia";"";"-2.064882";"125.982128";"https://maps.google.com/?cid=0x0:0x1c5747be88715389"
"hotel";"hotel";"Mangoli Utara";"Kabupaten Kepulauan Sula, Maluku Utara";"Kabupaten Kepulauan Sula, Maluku Utara";"MALUKU UTARA";"";"Indonesia";"";"-1.7870032";"125.4804915";"https://maps.google.com/?cid=0x0:0x821bd9ab23ff70b4"
"hotel";"hotel";"Bianda Hotel";"P2G6+VGM, Jl. Kemakmuran, Gamsungi, Kec. Tobelo, Kabupaten Halmahera Utara, Maluku Utara";"Kabupaten Halmahera Utara, Maluku Utara";"MALUKU UTARA";"";"Indonesia";"";"1.7272204";"128.011288";"https://maps.google.com/?cid=0x0:0x94545d064d6051e5"
"hotel";"hotel";"Juliana Hotel";"Gamsungi, Kec. Tobelo, Kabupaten Halmahera Utara, Maluku Utara";"Kabupaten Halmahera Utara, Maluku Utara";"MALUKU UTARA";"";"Indonesia";" 082191159141";"1.7272579";"128.0105717";"https://maps.google.com/?cid=0x0:0x97231ba37bd2cf65"
"hotel";"hotel";"Hotel Astonia Tobelo";"Gosoma, Kec. Tobelo, Kabupaten Halmahera Utara, Maluku Utara";"Kabupaten Halmahera Utara, Maluku Utara";"MALUKU UTARA";"";"Indonesia";" 09242621900";"1.7223761";"127.9947995";"https://maps.google.com/?cid=0x0:0x99ff7dd9ff5c49af"
"hotel";"hotel";"Johana Hotel";"P2F6+F4F, Gosoma, Kec. Tobelo, Kabupaten Halmahera Utara, Maluku Utara";"Kabupaten Halmahera Utara, Maluku Utara";"MALUKU UTARA";"";"Indonesia";" 09242623343";"1.7236844";"128.0102915";"https://maps.google.com/?cid=0x0:0x1b997a52170a6c31"
"hotel";"hotel";"D'Lodge Village Tobelo";"PXFM+G47, Jl Dukono, Gamsungi, Kec. Tobelo, Kabupaten Halmahera Utara, Maluku Utara";"Kabupaten Halmahera Utara, Maluku Utara";"MALUKU UTARA";"";"Indonesia";" 082187899793";"1.7237953";"127.9828016";"https://maps.google.com/?cid=0x0:0x97255e7444041343"
"hotel";"hotel";"Wisma Mulia";"P286+P48, Rawajaya, Kec. Tobelo, Kabupaten Halmahera Utara, Maluku Utara";"Kabupaten Halmahera Utara, Maluku Utara";"MALUKU UTARA";"";"Indonesia";"";"1.7167897";"128.0103356";"https://maps.google.com/?cid=0x0:0x611811aff0d3d758"
"hotel";"Apartemen sewa liburan";"WISMA AQUI";"Lokasi Pelabuhan, Falabisahaya";"";"MALUKU UTARA";"";"Indonesia";" 081355777705";"-1.7885819";"125.4837688";"https://maps.google.com/?cid=0x0:0xc266b4d4f01f65c0"
"hotel";"hotel";"Iman Kost";"6F8J+4FC, Falabisahaya, Mangoli Utara, Kabupaten Kepulauan Sula, Maluku Utara";"Kabupaten Kepulauan Sula, Maluku Utara";"MALUKU UTARA";"";"Indonesia";" 081354689060";"-1.7835077";"125.4805856";"https://maps.google.com/?cid=0x0:0xfe52f4c30a5a9f19"
"hotel";"hotel";"Kec. Mangoli Tengah";"Kabupaten Kepulauan Sula, Maluku Utara";"Kabupaten Kepulauan Sula, Maluku Utara";"MALUKU UTARA";"";"Indonesia";"";"-1.9272257";"125.9383491";"https://maps.google.com/?cid=0x0:0xa42c94bee3686447"
"hotel";"Rumah wisata";"Kostan ilham";"3WFP+V4, Mangoli, Kec. Mangoli Tengah, Kabupaten Kepulauan Sula, Maluku Utara";"Kabupaten Kepulauan Sula, Maluku Utara";"MALUKU UTARA";"";"Indonesia";"";"-1.9253504";"125.9352992";"https://maps.google.com/?cid=0x0:0x328109aa5b5ff025"
"hotel";"Pondok";"DEVINDA D'COST";"5X95+5G2 Belakang POLRES, Mangoli, Kec. Mangoli Tengah, Kabupaten Kepulauan Sula, Maluku Utara";"Kabupaten Kepulauan Sula, Maluku Utara";"MALUKU UTARA";"";"Indonesia";" 082197218662";"-1.8321222";"125.958777";"https://maps.google.com/?cid=0x0:0xca83187a7220410a"
"hotel";"hotel";"Johana Hotel";"P2F6+F4F, Gosoma, Kec. Tobelo, Kabupaten Halmahera Utara, Maluku Utara";"Kabupaten Halmahera Utara, Maluku Utara";"MALUKU UTARA";"";"Indonesia";" 09242623343";"1.7236844";"128.0102915";"https://maps.google.com/?cid=0x0:0x1b997a52170a6c31"
"hotel";"hotel";"Hotel Astonia Tobelo";"Gosoma, Kec. Tobelo, Kabupaten Halmahera Utara, Maluku Utara";"Kabupaten Halmahera Utara, Maluku Utara";"MALUKU UTARA";"";"Indonesia";" 09242621900";"1.7223761";"127.9947995";"https://maps.google.com/?cid=0x0:0x99ff7dd9ff5c49af"
"hotel";"Pondok";"Penginapan Widy";"WXWH+489, Mangon, Kec. Sanana, Kabupaten Kepulauan Sula, Maluku Utara";"Kabupaten Kepulauan Sula, Maluku Utara";"MALUKU UTARA";"";"Indonesia";" 082297866014";"-2.0547143";"125.9783632";"https://maps.google.com/?cid=0x0:0x5c4e5a310d8d2c5a"
"hotel";"Penginapan";"Penginapan Desi";"WXVJ+R5X, Mangon, Kec. Sanana, Kabupaten Kepulauan Sula, Maluku Utara";"Kabupaten Kepulauan Sula, Maluku Utara";"MALUKU UTARA";"";"Indonesia";" 081242213705";"-2.0553964";"125.9804799";"https://maps.google.com/?cid=0x0:0xe326f68110ab5c77"
"hotel";"Pondok";"Beliga Hotel";"Fagudu, Kec. Sanana, Kabupaten Kepulauan Sula, Maluku Utara";"Kabupaten Kepulauan Sula, Maluku Utara";"MALUKU UTARA";"";"Indonesia";" 082129005813";"-2.0556949";"125.9769118";"https://maps.google.com/?cid=0x0:0x7b33914fa4208e39"
"hotel";"Pondok";"Beliga Hotel";"Fagudu, Kec. Sanana, Kabupaten Kepulauan Sula, Maluku Utara";"Kabupaten Kepulauan Sula, Maluku Utara";"MALUKU UTARA";"";"Indonesia";" 082129005813";"-2.0556949";"125.9769118";"https://maps.google.com/?cid=0x0:0x7b33914fa4208e39"
"hotel";"Penginapan";"Penginapan Desi";"WXVJ+R5X, Mangon, Kec. Sanana, Kabupaten Kepulauan Sula, Maluku Utara";"Kabupaten Kepulauan Sula, Maluku Utara";"MALUKU UTARA";"";"Indonesia";" 081242213705";"-2.0553964";"125.9804799";"https://maps.google.com/?cid=0x0:0xe326f68110ab5c77"
"hotel";"Kios";"Kios Finia Beliga";"WXVH+X9C, Fagudu, Kec. Sanana, Kabupaten Kepulauan Sula, Maluku Utara";"Kabupaten Kepulauan Sula, Maluku Utara";"MALUKU UTARA";"";"Indonesia";" 082298879044";"-2.0558156";"125.9784533";"https://maps.google.com/?cid=0x0:0x9c227c9870691c2d"
"hotel";"hotel";"Maluku Utara 97795";"Falahu, Kec. Sanana, Kabupaten Kepulauan Sula, Maluku Utara";"Kabupaten Kepulauan Sula, Maluku Utara";"MALUKU UTARA";"";"Indonesia";"";"-2.0613593";"125.9823727";"https://maps.google.com/?cid=0x0:0x25db49ff4002ccf8"
"hotel";"hotel";"Bianda Hotel";"P2G6+VGM, Jl. Kemakmuran, Gamsungi, Kec. Tobelo, Kabupaten Halmahera Utara, Maluku Utara";"Kabupaten Halmahera Utara, Maluku Utara";"MALUKU UTARA";"";"Indonesia";"";"1.7272204";"128.011288";"https://maps.google.com/?cid=0x0:0x94545d064d6051e5"
"hotel";"hotel";"Juliana Hotel";"Gamsungi, Kec. Tobelo, Kabupaten Halmahera Utara, Maluku Utara";"Kabupaten Halmahera Utara, Maluku Utara";"MALUKU UTARA";"";"Indonesia";" 082191159141";"1.7272579";"128.0105717";"https://maps.google.com/?cid=0x0:0x97231ba37bd2cf65"
"hotel";"hotel";"Hotel Astonia Tobelo";"Gosoma, Kec. Tobelo, Kabupaten Halmahera Utara, Maluku Utara";"Kabupaten Halmahera Utara, Maluku Utara";"MALUKU UTARA";"";"Indonesia";" 09242621900";"1.7223761";"127.9947995";"https://maps.google.com/?cid=0x0:0x99ff7dd9ff5c49af"
"hotel";"hotel";"Saloi inn";"3FXQ+VR2, Tedeng, Kec. Jailolo, Kabupaten Halmahera Barat, Maluku Utara";"Kabupaten Halmahera Barat, Maluku Utara";"MALUKU UTARA";"";"Indonesia";" 08111020812";"1.0996348";"127.4895301";"https://maps.google.com/?cid=0x0:0x1139fc5cb3804c4"
"hotel";"hotel";"Hotel Elizabeth";"Jl. Kemakmuran, Gura, Kec. Tobelo, Kabupaten Halmahera Utara, Maluku Utara 97762";"Gura, Kec. Tobelo, Kabupaten Halmahera Utara";"MALUKU UTARA";"97762";"Indonesia";"";"1.7308941";"128.0102163";"https://maps.google.com/?cid=0x0:0x64ae6c4240cbb4c7"
"hotel";"hotel";"Wisma Mulia";"P286+P48, Rawajaya, Kec. Tobelo, Kabupaten Halmahera Utara, Maluku Utara";"Kabupaten Halmahera Utara, Maluku Utara";"MALUKU UTARA";"";"Indonesia";"";"1.7167897";"128.0103356";"https://maps.google.com/?cid=0x0:0x611811aff0d3d758"
"hotel";"Penginapan";"Penginapan Desi";"WXVJ+R5X, Mangon, Kec. Sanana, Kabupaten Kepulauan Sula, Maluku Utara";"Kabupaten Kepulauan Sula, Maluku Utara";"MALUKU UTARA";"";"Indonesia";" 081242213705";"-2.0553964";"125.9804799";"https://maps.google.com/?cid=0x0:0xe326f68110ab5c77"
"hotel";"Losmen";"Penginapan Yuki Ona";"WXMJ+4PQ, Fatce, Kec. Sanana, Kabupaten Kepulauan Sula, Maluku Utara";"Kabupaten Kepulauan Sula, Maluku Utara";"MALUKU UTARA";"";"Indonesia";"";"-2.0671546";"125.9818703";"https://maps.google.com/?cid=0x0:0xb8f2c0e09b1988ad"
"hotel";"Pondok";"Beliga Hotel";"Fagudu, Kec. Sanana, Kabupaten Kepulauan Sula, Maluku Utara";"Kabupaten Kepulauan Sula, Maluku Utara";"MALUKU UTARA";"";"Indonesia";" 082129005813";"-2.0556949";"125.9769118";"https://maps.google.com/?cid=0x0:0x7b33914fa4208e39"
"hotel";"Guest house";"Penginapan Wakatobi 2";"WXRJ+C32, Fagudu, Kec. Sanana, Kabupaten Kepulauan Sula, Maluku Utara";"Kabupaten Kepulauan Sula, Maluku Utara";"MALUKU UTARA";"";"Indonesia";" 082196512332";"-2.0589942";"125.9801436";"https://maps.google.com/?cid=0x0:0x666bbbad60dc8855"
"hotel";"hotel";"Green Sula Hotel";"WXPJ+2VR, Fatce, Kec. Sanana, Kabupaten Kepulauan Sula, Maluku Utara";"Kabupaten Kepulauan Sula, Maluku Utara";"MALUKU UTARA";"";"Indonesia";"";"-2.064882";"125.982128";"https://maps.google.com/?cid=0x0:0x1c5747be88715389"
"restaurant";"restaurant";"Kec. Mangoli Tim.";"Kabupaten Kepulauan Sula, Maluku Utara";"Kabupaten Kepulauan Sula, Maluku Utara";"MALUKU UTARA";"";"Indonesia";"";"-1.9120347";"125.9824503";"https://maps.google.com/?cid=0x0:0x8b05f627cf49bd0a"
"restaurant";"restaurant";"RM BALAPAN SOLO";"5XGR+JHW, Mangoli, Kec. Mangoli Tengah, Kabupaten Kepulauan Sula, Maluku Utara";"Kabupaten Kepulauan Sula, Maluku Utara";"MALUKU UTARA";"";"Indonesia";"";"-1.8233938";"125.9914384";"https://maps.google.com/?cid=0x0:0x44b178cbe709f7a5"
"restaurant";"Kedai Kopi";"Rumah Al bhory Marsaoly";"4497+F3, Wai Tamela, Kec. Mangoli Tim., Kabupaten Kepulauan Sula, Maluku Utara";"Kabupaten Kepulauan Sula, Maluku Utara";"MALUKU UTARA";"";"Indonesia";"";"-1.8813381";"126.1127066";"https://maps.google.com/?cid=0x0:0xdfadfd6c7de8bc96"
"restaurant";"restaurant";"Warung makan";"3WGQ+2V9 dusun 3, Mangoli, Kec. Mangoli Tengah, Kabupaten Kepulauan Sula, Maluku Utara";"Kabupaten Kepulauan Sula, Maluku Utara";"MALUKU UTARA";"";"Indonesia";"";"-1.9249556";"125.9397257";"https://maps.google.com/?cid=0x0:0x5664e3244034bc99"
"restaurant";"restaurant";"Maluku Utara 97795";"Falahu, Kec. Sanana, Kabupaten Kepulauan Sula, Maluku Utara";"Kabupaten Kepulauan Sula, Maluku Utara";"MALUKU UTARA";"";"Indonesia";"";"-2.0613593";"125.9823727";"https://maps.google.com/?cid=0x0:0x25db49ff4002ccf8"
"restaurant";"Rumah Makan";"Resto Benteng";"WXVJ+Q8F, Mangon, Kec. Sanana, Kabupaten Kepulauan Sula, Maluku Utara";"Kabupaten Kepulauan Sula, Maluku Utara";"MALUKU UTARA";"";"Indonesia";"";"-2.0555533";"125.9808036";"https://maps.google.com/?cid=0x0:0x5c9c51fdbc5f5028"
"restaurant";"Restoran";"RM BUNDA";"WXQJ+MQF, Jl. A.K Syahlan, Falahu, Kec. Sanana, Kabupaten Kepulauan Sula, Maluku Utara";"Kabupaten Kepulauan Sula, Maluku Utara";"MALUKU UTARA";"";"Indonesia";" 082296675344";"-2.0608231";"125.9819256";"https://maps.google.com/?cid=0x0:0xe8c572014b144ab7"
"restaurant";"Penginapan";"Penginapan Desi";"WXVJ+R5X, Mangon, Kec. Sanana, Kabupaten Kepulauan Sula, Maluku Utara";"Kabupaten Kepulauan Sula, Maluku Utara";"MALUKU UTARA";"";"Indonesia";" 081242213705";"-2.0553964";"125.9804799";"https://maps.google.com/?cid=0x0:0xe326f68110ab5c77"
"restaurant";"Kedai Kopi";"Mie Begadang Haibusa";"Fatce, Kec. Sanana, Kabupaten Kepulauan Sula, Maluku Utara 97795";"Kec. Sanana, Kabupaten Kepulauan Sula";"MALUKU UTARA";"97795";"Indonesia";"";"-2.0613406";"125.982371";"https://maps.google.com/?cid=0x0:0x506d12946d069858"
"restaurant";"Padang";"warung makan mama ani";"WXHH+RQ4, Fogi, Kec. Sanana, lauh, Maluku Utara 97796";"Fogi, Kec. Sanana, lauh";"MALUKU UTARA";"97796";"Indonesia";"";"-2.07048";"125.9794625";"https://maps.google.com/?cid=0x0:0x1d180680fb2734f2"
"restaurant";"Kedai Kopi";"WaiBak Coffee";"XX6R+V37, Jl. Desa Pohea, MAN Gega, Kec. Sanana Utara, Kabupaten Kepulauan Sula, Maluku Utara";"Kabupaten Kepulauan Sula, Maluku Utara";"MALUKU UTARA";"";"Indonesia";"";"-2.0378271";"125.9901857";"https://maps.google.com/?cid=0x0:0xde6d50c390631794"
"restaurant";"restaurant";"Maluku Utara 97795";"Falahu, Kec. Sanana, Kabupaten Kepulauan Sula, Maluku Utara";"Kabupaten Kepulauan Sula, Maluku Utara";"MALUKU UTARA";"";"Indonesia";"";"-2.0613593";"125.9823727";"https://maps.google.com/?cid=0x0:0x25db49ff4002ccf8"
"restaurant";"Restoran";"RM BUNDA";"WXQJ+MQF, Jl. A.K Syahlan, Falahu, Kec. Sanana, Kabupaten Kepulauan Sula, Maluku Utara";"Kabupaten Kepulauan Sula, Maluku Utara";"MALUKU UTARA";"";"Indonesia";" 082296675344";"-2.0608231";"125.9819256";"https://maps.google.com/?cid=0x0:0xe8c572014b144ab7"
"restaurant";"Kedai Kopi";"Mie Begadang Haibusa";"Fatce, Kec. Sanana, Kabupaten Kepulauan Sula, Maluku Utara 97795";"Kec. Sanana, Kabupaten Kepulauan Sula";"MALUKU UTARA";"97795";"Indonesia";"";"-2.0613406";"125.982371";"https://maps.google.com/?cid=0x0:0x506d12946d069858"
"restaurant";"restaurant";"Warung makan tradisional sula";"WXQM+H67, Jl. Soekarno Hatta, Falahu, Kec. Sanana, Kabupaten Kepulauan Sula, Maluku Utara";"Kabupaten Kepulauan Sula, Maluku Utara";"MALUKU UTARA";"";"Indonesia";"";"-2.0610853";"125.9830369";"https://maps.google.com/?cid=0x0:0x33a52a025e77e2ae"
"restaurant";"Padang";"Resto aurelya";"falahu, pantai, timbunan, Kec. Sanana, Kabupaten Kepulauan Sula, Maluku Utara 97795";"pantai, timbunan, Kec. Sanana, Kabupaten Kepulauan Sula";"MALUKU UTARA";"97795";"Indonesia";" 082176513171";"-2.0606101";"125.9833705";"https://maps.google.com/?cid=0x0:0x70d6e199259a54da"
"restaurant";"Rumah Makan";"Resto Benteng";"WXVJ+Q8F, Mangon, Kec. Sanana, Kabupaten Kepulauan Sula, Maluku Utara";"Kabupaten Kepulauan Sula, Maluku Utara";"MALUKU UTARA";"";"Indonesia";"";"-2.0555533";"125.9808036";"https://maps.google.com/?cid=0x0:0x5c9c51fdbc5f5028"
"restaurant";"Jawa";"Warung Makan Firdaus";"WXHH+RQQ, Fogi, Kec. Sanana, Kabupaten Kepulauan Sula, Maluku Utara";"Kabupaten Kepulauan Sula, Maluku Utara";"MALUKU UTARA";"";"Indonesia";" 082290573650";"-2.0704181";"125.9794743";"https://maps.google.com/?cid=0x0:0x6bbea28e6943ac58"
"restaurant";"Restoran";"RM. Ananda";"WXMJ+332, Fatce, Kec. Sanana, Kabupaten Kepulauan Sula, Maluku Utara";"Kabupaten Kepulauan Sula, Maluku Utara";"MALUKU UTARA";"";"Indonesia";"";"-2.0673606";"125.9801426";"https://maps.google.com/?cid=0x0:0x4636d98de38e8447"
"restaurant";"Restoran";"RM. Cita Rasa";"Jl. Trans Sula, Fagudu, Kec. Sanana, Kabupaten Kepulauan Sula, Maluku Utara";"Kabupaten Kepulauan Sula, Maluku Utara";"MALUKU UTARA";"";"Indonesia";"";"-2.05881";"125.9806682";"https://maps.google.com/?cid=0x0:0xb7c035f9a48d7666"
"restaurant";"Rumah Makan";"Warung Makan Lesehan";"WXXR+X2W, Mangon, Kec. Sanana, Kabupaten Kepulauan Sula, Maluku Utara";"Kabupaten Kepulauan Sula, Maluku Utara";"MALUKU UTARA";"";"Indonesia";"";"-2.050005";"125.990063";"https://maps.google.com/?cid=0x0:0xce9484bfac08f551"
"restaurant";"Padang";"RUMAH MAKAN";"WXPJ+9CG, Jl. Jenderal Besar Soeharto, Fatce, Kec. Sanana, Kabupaten Kepulauan Sula, Maluku Utara";"Kabupaten Kepulauan Sula, Maluku Utara";"MALUKU UTARA";"";"Indonesia";"";"-2.0640745";"125.9810695";"https://maps.google.com/?cid=0x0:0xa913dadf6f0b21b2"
"restaurant";"Jawa";"Warung sula sunda";"Jl. Kantor, Pelabuhan, Sanana, Kepulauan Sula Regency, North Maluku 64472";"Pelabuhan, Sanana, Kepulauan Sula Regency";"MALUKU UTARA";"64472";"Indonesia";" 085342802360";"-2.0691681";"125.9790065";"https://maps.google.com/?cid=0x0:0xbbb8e1cdb66cceb7"
"restaurant";"Rumah Makan";"Warung Bu Salma";"WXJJ+78R depan terminal, Fogi, Kec. Sanana, Kabupaten Kepulauan Sula, Maluku Utara";"Kabupaten Kepulauan Sula, Maluku Utara";"MALUKU UTARA";"";"Indonesia";" 082193777759";"-2.0692702";"125.9807755";"https://maps.google.com/?cid=0x0:0xce88059b393e2710"
"restaurant";"Jawa";"D'Cafe";"Swering, Mangon, Kec. Sanana, Kabupaten Kepulauan Sula, Maluku Utara 97795";"Mangon, Kec. Sanana, Kabupaten Kepulauan Sula";"MALUKU UTARA";"97795";"Indonesia";" 082188622959";"-2.0497225";"125.9902172";"https://maps.google.com/?cid=0x0:0x6fee1ab6d73f9020"
"restaurant";"restaurant";"Warung makan Mentari";"59R4+MP2, Dofa, Kec. Mangoli Bar., Kabupaten Kepulauan Sula, Maluku Utara";"Kabupaten Kepulauan Sula, Maluku Utara";"MALUKU UTARA";"";"Indonesia";"";"-1.8074844";"125.3570907";"https://maps.google.com/?cid=0x0:0x990291f12acff3b9"
"restaurant";"restaurant";"Maluku Utara";"";"Maluku Utara";"MALUKU UTARA";"";"Indonesia";"";"1.5709993";"127.8087693";"https://maps.google.com/?cid=0x0:0x1030bfbcaf71ac0"
"restaurant";"Hidangan Laut";"SMORGAN Resto";"PXJV+JGQ, Jl. Pemerintahan, depan KODIM, Halut, Mkcm, Tobelo, North Halmahera Regency, North Maluku";"Kabupaten Halmahera Utara, Maluku Utara";"MALUKU UTARA";"";"Indonesia";" 085201115150";"1.7315784";"127.9938588";"https://maps.google.com/?cid=0x0:0xd45d6fcd651f0c5c"
"restaurant";"Hidangan Laut";"Rumah Makan Chokent";"P2F6+QJQ, Gamsungi, Kec. Tobelo, Kabupaten Halmahera Utara, Maluku Utara";"Kabupaten Halmahera Utara, Maluku Utara";"MALUKU UTARA";"";"Indonesia";" 085146223636";"1.7244736";"128.0116017";"https://maps.google.com/?cid=0x0:0xb2418c82a0f026be"
"restaurant";"Tujuan Wisata";"Limau Jiko Eco Culture Resort";"Bobanehena, Kec. Jailolo, Kabupaten Halmahera Barat, Maluku Utara";"Kabupaten Halmahera Barat, Maluku Utara";"MALUKU UTARA";"";"Indonesia";" 082258085588";"1.051123";"127.446605";"https://maps.google.com/?cid=0x0:0xbe87d8ffd59d3fd5"
"restaurant";"";"Bualawa Resto";"3C3W+4XM, Bobanehena, Kec. Jailolo, Kabupaten Halmahera Barat, Maluku Utara";"Kabupaten Halmahera Barat, Maluku Utara";"MALUKU UTARA";"";"Indonesia";"";"1.0516385";"127.4473055";"https://maps.google.com/?cid=0x0:0x1072845be258038f"
"restaurant";"restaurant";"Kec. Mangoli Bar.";"Kabupaten Kepulauan Sula, Maluku Utara";"Kabupaten Kepulauan Sula, Maluku Utara";"MALUKU UTARA";"";"Indonesia";"";"-1.8071861";"125.3556926";"https://maps.google.com/?cid=0x0:0x9235093942d7b06a"
"restaurant";"Kedai Kopi";"Warini caffee";"Pelita, Kec. Mangoli Bar., Kabupaten Kepulauan Sula, Maluku Utara";"Kabupaten Kepulauan Sula, Maluku Utara";"MALUKU UTARA";"";"Indonesia";" 082187725373";"-1.8353722";"125.3286171";"https://maps.google.com/?cid=0x0:0x4e368c759a148cf2"
"restaurant";"restaurant";"Taka";"59HH+FR3, Dofa, Kec. Mangoli Bar., Kabupaten Kepulauan Sula, Maluku Utara";"Kabupaten Kepulauan Sula, Maluku Utara";"MALUKU UTARA";"";"Indonesia";"";"-1.8213645";"125.379537";"https://maps.google.com/?cid=0x0:0xe09e4eaad10a2087"
"restaurant";"Kedai Kopi";"Coffee Samudera";"6F7F+9QG, Falabisahaya, Mangoli Utara, Kabupaten Kepulauan Sula, Maluku Utara";"Kabupaten Kepulauan Sula, Maluku Utara";"MALUKU UTARA";"";"Indonesia";" 082348614028";"-1.7865655";"125.4744376";"https://maps.google.com/?cid=0x0:0x881e12b1f1f20bcb"
"restaurant";"Kedai Kopi";"TUD PAI CAFFE";"59R5+F6M, Dofa, Kec. Mangoli Bar., Kabupaten Kepulauan Sula, Maluku Utara";"Kabupaten Kepulauan Sula, Maluku Utara";"MALUKU UTARA";"";"Indonesia";"";"-1.8093732";"125.3580302";"https://maps.google.com/?cid=0x0:0xeb9e85fe21ea3025"
"restaurant";"Komplek perumahan";"Tempat ayosewa starlink";"6F43+364, Lekosula, Kec. Mangoli Bar., Kabupaten Kepulauan Sula, Maluku Utara";"Kabupaten Kepulauan Sula, Maluku Utara";"MALUKU UTARA";"";"Indonesia";"";"-1.7948549";"125.4530787";"https://maps.google.com/?cid=0x0:0x4ec50236ce30fba5"
"restaurant";"Kedai Kopi";"Rumah Kopi Waimaka";"6F6G+9QX Jln. Lorong Plastik, Falabisahaya, Mangoli Utara, Kabupaten Kepulauan Sula, Maluku Utara";"Kabupaten Kepulauan Sula, Maluku Utara";"MALUKU UTARA";"";"Indonesia";" 082271153115";"-1.7890099";"125.4769845";"https://maps.google.com/?cid=0x0:0xf8defd6f5204164d"
"restaurant";"restaurant";"Maluku Utara 97795";"Falahu, Kec. Sanana, Kabupaten Kepulauan Sula, Maluku Utara";"Kabupaten Kepulauan Sula, Maluku Utara";"MALUKU UTARA";"";"Indonesia";"";"-2.0613593";"125.9823727";"https://maps.google.com/?cid=0x0:0x25db49ff4002ccf8"
"restaurant";"Restoran";"RM BUNDA";"WXQJ+MQF, Jl. A.K Syahlan, Falahu, Kec. Sanana, Kabupaten Kepulauan Sula, Maluku Utara";"Kabupaten Kepulauan Sula, Maluku Utara";"MALUKU UTARA";"";"Indonesia";" 082296675344";"-2.0608231";"125.9819256";"https://maps.google.com/?cid=0x0:0xe8c572014b144ab7"
"restaurant";"Kedai Kopi";"Mie Begadang Haibusa";"Fatce, Kec. Sanana, Kabupaten Kepulauan Sula, Maluku Utara 97795";"Kec. Sanana, Kabupaten Kepulauan Sula";"MALUKU UTARA";"97795";"Indonesia";"";"-2.0613406";"125.982371";"https://maps.google.com/?cid=0x0:0x506d12946d069858"
"restaurant";"restaurant";"Warung makan tradisional sula";"WXQM+H67, Jl. Soekarno Hatta, Falahu, Kec. Sanana, Kabupaten Kepulauan Sula, Maluku Utara";"Kabupaten Kepulauan Sula, Maluku Utara";"MALUKU UTARA";"";"Indonesia";"";"-2.0610853";"125.9830369";"https://maps.google.com/?cid=0x0:0x33a52a025e77e2ae"
"restaurant";"restaurant";"Kec. Sulabesi Tengah";"Kabupaten Kepulauan Sula, Maluku Utara";"Kabupaten Kepulauan Sula, Maluku Utara";"MALUKU UTARA";"";"Indonesia";"";"-2.2660437";"126.0041676";"https://maps.google.com/?cid=0x0:0xfbd0a140fc92e4f2"
"restaurant";"Padang";"Resto aurelya";"falahu, pantai, timbunan, Kec. Sanana, Kabupaten Kepulauan Sula, Maluku Utara 97795";"pantai, timbunan, Kec. Sanana, Kabupaten Kepulauan Sula";"MALUKU UTARA";"97795";"Indonesia";" 082176513171";"-2.0606101";"125.9833705";"https://maps.google.com/?cid=0x0:0x70d6e199259a54da"
"restaurant";"Rumah Makan";"Rumah Makan Sido Mampir";"WXMJ+W7Q, Fatce, Kec. Sanana, Kabupaten Kepulauan Sula, Maluku Utara";"Kabupaten Kepulauan Sula, Maluku Utara";"MALUKU UTARA";"";"Indonesia";"";"-2.0651511";"125.9807437";"https://maps.google.com/?cid=0x0:0x412d9d099451d0dd"
"restaurant";"Rumah Makan";"Steak 89";"WXQM+36V, Fatce, Kec. Sanana, Kabupaten Kepulauan Sula, Maluku Utara";"Kabupaten Kepulauan Sula, Maluku Utara";"MALUKU UTARA";"";"Indonesia";" 081326228283";"-2.0622559";"125.9830488";"https://maps.google.com/?cid=0x0:0x8d0e89789b5697fc"
"restaurant";"Rumah Makan";"Resto Benteng";"WXVJ+Q8F, Mangon, Kec. Sanana, Kabupaten Kepulauan Sula, Maluku Utara";"Kabupaten Kepulauan Sula, Maluku Utara";"MALUKU UTARA";"";"Indonesia";"";"-2.0555533";"125.9808036";"https://maps.google.com/?cid=0x0:0x5c9c51fdbc5f5028"
"restaurant";"Jawa";"Warung Makan Firdaus";"WXHH+RQQ, Fogi, Kec. Sanana, Kabupaten Kepulauan Sula, Maluku Utara";"Kabupaten Kepulauan Sula, Maluku Utara";"MALUKU UTARA";"";"Indonesia";" 082290573650";"-2.0704181";"125.9794743";"https://maps.google.com/?cid=0x0:0x6bbea28e6943ac58"
"restaurant";"Padang";"Rumah Makan PAPEDA";"Fatce, Kec. Sanana, Kabupaten Kepulauan Sula, Maluku Utara";"Kabupaten Kepulauan Sula, Maluku Utara";"MALUKU UTARA";"";"Indonesia";" 082189394030";"-2.0655095";"125.9806588";"https://maps.google.com/?cid=0x0:0x86f88cc25d66a585"
"restaurant";"Restoran";"Kedai favoritte";"Komplek waigoben, Fogi, Kec. Sanana, Kabupaten Kepulauan Sula, Maluku Utara 97795";"Fogi, Kec. Sanana, Kabupaten Kepulauan Sula";"MALUKU UTARA";"97795";"Indonesia";" 089691698539";"-2.0738987";"125.9756673";"https://maps.google.com/?cid=0x0:0xbcf9a38ab936700b"
"restaurant";"Brunch";"Rm Mbak Chi";"WXHH+F27, Fogi, Kec. Sanana, Kabupaten Kepulauan Sula, Maluku Utara";"Kabupaten Kepulauan Sula, Maluku Utara";"MALUKU UTARA";"";"Indonesia";" 082116305277";"-2.0713251";"125.9775349";"https://maps.google.com/?cid=0x0:0x3fd489cf234c0ca9"
"restaurant";"Restoran";"Bakso Solo Belakang Benteng";"Mangon, Kec. Sanana, Kabupaten Kepulauan Sula, Maluku Utara";"Kabupaten Kepulauan Sula, Maluku Utara";"MALUKU UTARA";"";"Indonesia";" 082116763738";"-2.0550743";"125.9796446";"https://maps.google.com/?cid=0x0:0x429f77b95e7d39f5"
"restaurant";"Jawa";"Rumah makan ibu Nurhayati yoisangadji";"H22J+5XG, Wailia, Kec. Sulabesi Timur, Kabupaten Kepulauan Sula, Maluku Utara";"Kabupaten Kepulauan Sula, Maluku Utara";"MALUKU UTARA";"";"Indonesia";"";"-2.4495613";"126.0324596";"https://maps.google.com/?cid=0x0:0x58099f871a8dcf45"
"restaurant";"Rumah Makan";"Warung Bu Salma";"WXJJ+78R depan terminal, Fogi, Kec. Sanana, Kabupaten Kepulauan Sula, Maluku Utara";"Kabupaten Kepulauan Sula, Maluku Utara";"MALUKU UTARA";"";"Indonesia";" 082193777759";"-2.0692702";"125.9807755";"https://maps.google.com/?cid=0x0:0xce88059b393e2710"
"restaurant";"restaurant";"Maluku Utara 97795";"Falahu, Kec. Sanana, Kabupaten Kepulauan Sula, Maluku Utara";"Kabupaten Kepulauan Sula, Maluku Utara";"MALUKU UTARA";"";"Indonesia";"";"-2.0613593";"125.9823727";"https://maps.google.com/?cid=0x0:0x25db49ff4002ccf8"
"restaurant";"Kedai Kopi";"IN_TIME";"Mangon, Kec. Sanana, Kabupaten Kepulauan Sula, Maluku Utara 97795";"Kec. Sanana, Kabupaten Kepulauan Sula";"MALUKU UTARA";"97795";"Indonesia";" 081354636058";"-2.0613406";"125.982371";"https://maps.google.com/?cid=0x0:0xec9669d250217c01"
"restaurant";"Kedai Kopi";"Mie Begadang Haibusa";"Fatce, Kec. Sanana, Kabupaten Kepulauan Sula, Maluku Utara 97795";"Kec. Sanana, Kabupaten Kepulauan Sula";"MALUKU UTARA";"97795";"Indonesia";"";"-2.0613406";"125.982371";"https://maps.google.com/?cid=0x0:0x506d12946d069858"
"restaurant";"restaurant";"Warung makan tradisional sula";"WXQM+H67, Jl. Soekarno Hatta, Falahu, Kec. Sanana, Kabupaten Kepulauan Sula, Maluku Utara";"Kabupaten Kepulauan Sula, Maluku Utara";"MALUKU UTARA";"";"Indonesia";"";"-2.0610853";"125.9830369";"https://maps.google.com/?cid=0x0:0x33a52a025e77e2ae"
"restaurant";"Padang";"Resto aurelya";"falahu, pantai, timbunan, Kec. Sanana, Kabupaten Kepulauan Sula, Maluku Utara 97795";"pantai, timbunan, Kec. Sanana, Kabupaten Kepulauan Sula";"MALUKU UTARA";"97795";"Indonesia";" 082176513171";"-2.0606101";"125.9833705";"https://maps.google.com/?cid=0x0:0x70d6e199259a54da"
"restaurant";"Rumah Makan";"Warung Makan Lesehan";"WXXR+X2W, Mangon, Kec. Sanana, Kabupaten Kepulauan Sula, Maluku Utara";"Kabupaten Kepulauan Sula, Maluku Utara";"MALUKU UTARA";"";"Indonesia";"";"-2.050005";"125.990063";"https://maps.google.com/?cid=0x0:0xce9484bfac08f551"
"restaurant";"Jawa";"D'Cafe";"Swering, Mangon, Kec. Sanana, Kabupaten Kepulauan Sula, Maluku Utara 97795";"Mangon, Kec. Sanana, Kabupaten Kepulauan Sula";"MALUKU UTARA";"97795";"Indonesia";" 082188622959";"-2.0497225";"125.9902172";"https://maps.google.com/?cid=0x0:0x6fee1ab6d73f9020"
"restaurant";"Restoran";"Warung Makan Lida Wub";"WX48+PMW, Jl. Desa Pohea, Wai Ipa, Kec. Sanana, Kabupaten Kepulauan Sula, Maluku Utara";"Kabupaten Kepulauan Sula, Maluku Utara";"MALUKU UTARA";"";"Indonesia";" 082261969878";"-2.0931431";"125.9666895";"https://maps.google.com/?cid=0x0:0x90aa85d4d1f1ae7f"
"restaurant";"Pabrik Coklat";"Serius coklat sula";"WXQM+J65 Al-qaidah, Falahu, Kec. Sanana, Kabupaten Kepulauan Sula, Maluku Utara";"Kabupaten Kepulauan Sula, Maluku Utara";"MALUKU UTARA";"";"Indonesia";" 082291140480";"-2.0609786";"125.9831008";"https://maps.google.com/?cid=0x0:0x2bb57127a2f3acf3"
"restaurant";"Jawa";"Warung sula sunda";"Jl. Kantor, Pelabuhan, Sanana, Kepulauan Sula Regency, North Maluku 64472";"Pelabuhan, Sanana, Kepulauan Sula Regency";"MALUKU UTARA";"64472";"Indonesia";" 085342802360";"-2.0691681";"125.9790065";"https://maps.google.com/?cid=0x0:0xbbb8e1cdb66cceb7"
"restaurant";"restaurant";"Maluku Utara 97795";"Falahu, Kec. Sanana, Kabupaten Kepulauan Sula, Maluku Utara";"Kabupaten Kepulauan Sula, Maluku Utara";"MALUKU UTARA";"";"Indonesia";"";"-2.0613593";"125.9823727";"https://maps.google.com/?cid=0x0:0x25db49ff4002ccf8"
"restaurant";"Restoran";"RM BUNDA";"WXQJ+MQF, Jl. A.K Syahlan, Falahu, Kec. Sanana, Kabupaten Kepulauan Sula, Maluku Utara";"Kabupaten Kepulauan Sula, Maluku Utara";"MALUKU UTARA";"";"Indonesia";" 082296675344";"-2.0608231";"125.9819256";"https://maps.google.com/?cid=0x0:0xe8c572014b144ab7"
"restaurant";"Kedai Kopi";"Mie Begadang Haibusa";"Fatce, Kec. Sanana, Kabupaten Kepulauan Sula, Maluku Utara 97795";"Kec. Sanana, Kabupaten Kepulauan Sula";"MALUKU UTARA";"97795";"Indonesia";"";"-2.0613406";"125.982371";"https://maps.google.com/?cid=0x0:0x506d12946d069858"
"restaurant";"restaurant";"Warung makan tradisional sula";"WXQM+H67, Jl. Soekarno Hatta, Falahu, Kec. Sanana, Kabupaten Kepulauan Sula, Maluku Utara";"Kabupaten Kepulauan Sula, Maluku Utara";"MALUKU UTARA";"";"Indonesia";"";"-2.0610853";"125.9830369";"https://maps.google.com/?cid=0x0:0x33a52a025e77e2ae"
"restaurant";"Jawa";"D'Cafe";"Swering, Mangon, Kec. Sanana, Kabupaten Kepulauan Sula, Maluku Utara 97795";"Mangon, Kec. Sanana, Kabupaten Kepulauan Sula";"MALUKU UTARA";"97795";"Indonesia";" 082188622959";"-2.0497225";"125.9902172";"https://maps.google.com/?cid=0x0:0x6fee1ab6d73f9020"
"restaurant";"Rumah Makan";"Warung Makan Lesehan";"WXXR+X2W, Mangon, Kec. Sanana, Kabupaten Kepulauan Sula, Maluku Utara";"Kabupaten Kepulauan Sula, Maluku Utara";"MALUKU UTARA";"";"Indonesia";"";"-2.050005";"125.990063";"https://maps.google.com/?cid=0x0:0xce9484bfac08f551"
"restaurant";"restaurant";"Mangoli Utara";"Kabupaten Kepulauan Sula, Maluku Utara";"Kabupaten Kepulauan Sula, Maluku Utara";"MALUKU UTARA";"";"Indonesia";"";"-1.7870032";"125.4804915";"https://maps.google.com/?cid=0x0:0x821bd9ab23ff70b4"
"restaurant";"restaurant";"Igor crispy chicken";"6F6M+768, Falabisahaya, Kabupaten Kepulauan Sula, Maluku Utara";"Kabupaten Kepulauan Sula, Maluku Utara";"MALUKU UTARA";"";"Indonesia";"";"-1.7895799";"125.4831389";"https://maps.google.com/?cid=0x0:0xfd166fdbb65f286c"
"restaurant";"Kedai Kopi";"Coffee Samudera";"6F7F+9QG, Falabisahaya, Mangoli Utara, Kabupaten Kepulauan Sula, Maluku Utara";"Kabupaten Kepulauan Sula, Maluku Utara";"MALUKU UTARA";"";"Indonesia";" 082348614028";"-1.7865655";"125.4744376";"https://maps.google.com/?cid=0x0:0x881e12b1f1f20bcb"
"restaurant";"Kedai Kopi";"Rumah Kopi Waimaka";"6F6G+9QX Jln. Lorong Plastik, Falabisahaya, Mangoli Utara, Kabupaten Kepulauan Sula, Maluku Utara";"Kabupaten Kepulauan Sula, Maluku Utara";"MALUKU UTARA";"";"Indonesia";" 082271153115";"-1.7890099";"125.4769845";"https://maps.google.com/?cid=0x0:0xf8defd6f5204164d"
"restaurant";"restaurant";"cafe mangoli";"6F7H+XQG, Falabisahaya, Mangoli Utara, Kabupaten Kepulauan Sula, Maluku Utara";"Kabupaten Kepulauan Sula, Maluku Utara";"MALUKU UTARA";"";"Indonesia";"";"-1.785059";"125.4794404";"https://maps.google.com/?cid=0x0:0x4e37abb8669bd1a1"
"restaurant";"restaurant";"Kedai Kopi";"6F7J+43Q, Falabisahaya, Mangoli Utara, Kabupaten Kepulauan Sula, Maluku Utara";"Kabupaten Kepulauan Sula, Maluku Utara";"MALUKU UTARA";"";"Indonesia";"";"-1.7871651";"125.4802427";"https://maps.google.com/?cid=0x0:0x6e1f9fb1056bffaa"
"restaurant";"restaurant";"Kafe Alo";"6F6H+WM5, Falabisahaya, Mangoli Utara, Kabupaten Kepulauan Sula, Maluku Utara";"Kabupaten Kepulauan Sula, Maluku Utara";"MALUKU UTARA";"";"Indonesia";"";"-1.787748";"125.479221";"https://maps.google.com/?cid=0x0:0x46bf7ebd35786878"
"restaurant";"restaurant";"Warung makan Mentari";"59R4+MP2, Dofa, Kec. Mangoli Bar., Kabupaten Kepulauan Sula, Maluku Utara";"Kabupaten Kepulauan Sula, Maluku Utara";"MALUKU UTARA";"";"Indonesia";"";"-1.8074844";"125.3570907";"https://maps.google.com/?cid=0x0:0x990291f12acff3b9"
"restaurant";"restaurant";"RAUF CAFE";"6F8G+PHC, Falabisahaya, Mangoli Utara, Kabupaten Kepulauan Sula, Maluku Utara";"Kabupaten Kepulauan Sula, Maluku Utara";"MALUKU UTARA";"";"Indonesia";"";"-1.783176";"125.476395";"https://maps.google.com/?cid=0x0:0x98f444838aac7ea4"
"restaurant";"restaurant";"Kec. Mangoli Tengah";"Kabupaten Kepulauan Sula, Maluku Utara";"Kabupaten Kepulauan Sula, Maluku Utara";"MALUKU UTARA";"";"Indonesia";"";"-1.9272257";"125.9383491";"https://maps.google.com/?cid=0x0:0xa42c94bee3686447"
"restaurant";"restaurant";"RM BALAPAN SOLO";"5XGR+JHW, Mangoli, Kec. Mangoli Tengah, Kabupaten Kepulauan Sula, Maluku Utara";"Kabupaten Kepulauan Sula, Maluku Utara";"MALUKU UTARA";"";"Indonesia";"";"-1.8233938";"125.9914384";"https://maps.google.com/?cid=0x0:0x44b178cbe709f7a5"
"restaurant";"restaurant";"Warung Estu Eco";"3WCP+849, Jl. Lain, Mangoli, Kec. Mangoli Tengah, Kabupaten Kepulauan Sula, Maluku Utara";"Kabupaten Kepulauan Sula, Maluku Utara";"MALUKU UTARA";"";"Indonesia";"";"-1.929211";"125.9353457";"https://maps.google.com/?cid=0x0:0xdee2567d3975754b"
"restaurant";"restaurant";"Warung Makan";"3W9J+5HR, Jl. Lain, Mangoli, Kec. Mangoli Tengah, Kabupaten Kepulauan Sula, Maluku Utara";"Kabupaten Kepulauan Sula, Maluku Utara";"MALUKU UTARA";"";"Indonesia";" 081244489483";"-1.9320128";"125.9313954";"https://maps.google.com/?cid=0x0:0x67dbcc01ccacc584"
"restaurant";"Kedai Kopi";"Rumah Al bhory Marsaoly";"4497+F3, Wai Tamela, Kec. Mangoli Tim., Kabupaten Kepulauan Sula, Maluku Utara";"Kabupaten Kepulauan Sula, Maluku Utara";"MALUKU UTARA";"";"Indonesia";"";"-1.8813381";"126.1127066";"https://maps.google.com/?cid=0x0:0xdfadfd6c7de8bc96"
"restaurant";"Ayam";"Rumah aldy marsaoly";"4496+77W, Wai Tamela, Kec. Mangoli Tim., Kabupaten Kepulauan Sula, Maluku Utara";"Kabupaten Kepulauan Sula, Maluku Utara";"MALUKU UTARA";"";"Indonesia";"";"-1.8821741";"126.1126372";"https://maps.google.com/?cid=0x0:0x2447e7bc68dc8ed4"
"restaurant";"restaurant";"Kec. Mangoli Sel.";"Kabupaten Kepulauan Sula, Maluku Utara";"Kabupaten Kepulauan Sula, Maluku Utara";"MALUKU UTARA";"";"Indonesia";"";"-1.9281685";"125.5811446";"https://maps.google.com/?cid=0x0:0xe82e6eef47e4f664"
"restaurant";"restaurant";"Maluku Utara 97795";"Falahu, Kec. Sanana, Kabupaten Kepulauan Sula, Maluku Utara";"Kabupaten Kepulauan Sula, Maluku Utara";"MALUKU UTARA";"";"Indonesia";"";"-2.0613593";"125.9823727";"https://maps.google.com/?cid=0x0:0x25db49ff4002ccf8"
"restaurant";"Restoran";"RM BUNDA";"WXQJ+MQF, Jl. A.K Syahlan, Falahu, Kec. Sanana, Kabupaten Kepulauan Sula, Maluku Utara";"Kabupaten Kepulauan Sula, Maluku Utara";"MALUKU UTARA";"";"Indonesia";" 082296675344";"-2.0608231";"125.9819256";"https://maps.google.com/?cid=0x0:0xe8c572014b144ab7"
"restaurant";"Kedai Kopi";"IN_TIME";"Mangon, Kec. Sanana, Kabupaten Kepulauan Sula, Maluku Utara 97795";"Kec. Sanana, Kabupaten Kepulauan Sula";"MALUKU UTARA";"97795";"Indonesia";" 081354636058";"-2.0613406";"125.982371";"https://maps.google.com/?cid=0x0:0xec9669d250217c01"
"restaurant";"Padang";"warung makan mama ani";"WXHH+RQ4, Fogi, Kec. Sanana, lauh, Maluku Utara 97796";"Fogi, Kec. Sanana, lauh";"MALUKU UTARA";"97796";"Indonesia";"";"-2.07048";"125.9794625";"https://maps.google.com/?cid=0x0:0x1d180680fb2734f2"
"restaurant";"Rumah Makan";"Resto Benteng";"WXVJ+Q8F, Mangon, Kec. Sanana, Kabupaten Kepulauan Sula, Maluku Utara";"Kabupaten Kepulauan Sula, Maluku Utara";"MALUKU UTARA";"";"Indonesia";"";"-2.0555533";"125.9808036";"https://maps.google.com/?cid=0x0:0x5c9c51fdbc5f5028"
"restaurant";"Jawa";"D'Cafe";"Swering, Mangon, Kec. Sanana, Kabupaten Kepulauan Sula, Maluku Utara 97795";"Mangon, Kec. Sanana, Kabupaten Kepulauan Sula";"MALUKU UTARA";"97795";"Indonesia";" 082188622959";"-2.0497225";"125.9902172";"https://maps.google.com/?cid=0x0:0x6fee1ab6d73f9020"
"restaurant";"Penginapan";"Penginapan Desi";"WXVJ+R5X, Mangon, Kec. Sanana, Kabupaten Kepulauan Sula, Maluku Utara";"Kabupaten Kepulauan Sula, Maluku Utara";"MALUKU UTARA";"";"Indonesia";" 081242213705";"-2.0553964";"125.9804799";"https://maps.google.com/?cid=0x0:0xe326f68110ab5c77"
