Category,Real Category,Business Name,Address,City,State,Postal Code,Country,Phone,Email,Website,Latitude,Longitude,Map Link,Details Link
building materials,building materials,Kec. Rote Bar. Daya,"Kabupaten Rote Ndao, Nusa Tenggara Tim.","Kabupaten Rote Ndao, Nusa Tenggara Tim.",NUSA TENGGARA TIMUR,,Indonesia,,,,-108.599.138,1.230.152.055,https://maps.google.com/?cid=0x0:0xc8d7144834ab28c0,
building materials,Pom bensin/SPBU,"DasarMaju, Lalukoen","No.19, Lalukoen, Kec. Rote Bar. Daya, Kabupaten Rote Ndao, Nusa Tenggara Tim. 85982","Lalukoen, Kec. Rote Bar. Daya, Kabupaten Rote Ndao",NUSA TENGGARA TIMUR,85982.0,Indonesia,81213161019.0,,,-10.861.694,1.229.289.688,https://maps.google.com/?cid=0x0:0x3b3093eed014541f,
building materials,Toko Bahan Bangunan,CV. Tujuh Jaya,"723W+C6P, Unnamed Rd, Mokdale, Kec. Lobalain, Kabupaten Rote Ndao, Nusa Tenggara Tim.","Kabupaten Rote Ndao, Nusa Tenggara Tim.",NUSA TENGGARA TIMUR,,Indonesia,,,,-107.464.098,12.304.558,https://maps.google.com/?cid=0x0:0x575a85c650ddf9e4,
building materials,Toko Bahan Bangunan,UD. Adikara Jaya Bangunan,"Mokdale, Kec. Lobalain, Kabupaten Rote Ndao, Nusa Tenggara Tim. 85914","Kec. Lobalain, Kabupaten Rote Ndao",NUSA TENGGARA TIMUR,85914.0,Indonesia,82236420433.0,,,-10.758.659,1.230.367.714,https://maps.google.com/?cid=0x0:0xc42be311b39e209,
building materials,Perhimpunan Pengembang Perumahan,Mbadokai,"42RF+GP7, Fuafuni jl Lolotali sanama, Oelasin, Kec. Rote Bar. Daya, Kabupaten Rote Ndao, Nusa Tenggara Tim.","Kabupaten Rote Ndao, Nusa Tenggara Tim.",NUSA TENGGARA TIMUR,,Indonesia,,,,-10.858.708,123.024.302,https://maps.google.com/?cid=0x0:0xf30c4f8e1c636987,
building materials,Rumah Sakit,Toko Elim Jaya,"722V+4F6, Jl. Baa Busalangga, Mokdale, Kec. Lobalain, Kabupaten Rote Ndao, Nusa Tenggara Tim.","Kabupaten Rote Ndao, Nusa Tenggara Tim.",NUSA TENGGARA TIMUR,,Indonesia,81339338888.0,,,-107.529.719,1.230.419.021,https://maps.google.com/?cid=0x0:0x42543e6a746c84fb,
building materials,Toko Elektronik,UD. Sumber Rejeki,"6272+VP6, Unnamed Road, Busalangga, Rote Barat Laut, Rote Ndao Regency, East Nusa Tenggara","Kabupaten Rote Ndao, Nusa Tenggara Tim.",NUSA TENGGARA TIMUR,,Indonesia,81337988900.0,,,-107.853.275,1.230.017.641,https://maps.google.com/?cid=0x0:0xf189e0e4dfe3c3d0,
building materials,building materials,CV .Timor Jaya Makmur,"Jl. Baa Busalangga, Mokdale, Kec. Lobalain, Kabupaten Rote Ndao, Nusa Tenggara Tim. 85911","Mokdale, Kec. Lobalain, Kabupaten Rote Ndao",NUSA TENGGARA TIMUR,85911.0,Indonesia,81236375011.0,,,-107.510.458,1.230.429.039,https://maps.google.com/?cid=0x0:0xaf2bb4f12467828e,
building materials,Komplek perumahan,"Percetakan BATAKO UD LIMA SAUDARA""""","Kelurahan mokdale, RT.006/RW.002, Ba'a, Nusa Tenggara Tim. 85914","RT.006/RW.002, Ba'a",NUSA TENGGARA TIMUR,85914.0,Indonesia,82177229233.0,,,-107.571.236,123.038.728,https://maps.google.com/?cid=0x0:0x7a9dc3609eea69c,
building materials,building materials,UD. AISELE,"4WM5+PMR, Jalan Baa-Nemberala, Lalukoen, Kec. Rote Bar. Daya, Kabupaten Rote Ndao, Nusa Tenggara Tim.","Kabupaten Rote Ndao, Nusa Tenggara Tim.",NUSA TENGGARA TIMUR,,Indonesia,,,,-108.656.366,1.229.091.322,https://maps.google.com/?cid=0x0:0x76e4309145ce22bb,
building materials,building materials,Kec. Rote Bar. Laut,"Kabupaten Rote Ndao, Nusa Tenggara Tim.","Kabupaten Rote Ndao, Nusa Tenggara Tim.",NUSA TENGGARA TIMUR,,Indonesia,,,,-107.597.977,1.229.182.941,https://maps.google.com/?cid=0x0:0xf1092e07a83097a2,
building materials,Toko Bahan Bangunan,CV. Tujuh Jaya,"723W+C6P, Unnamed Rd, Mokdale, Kec. Lobalain, Kabupaten Rote Ndao, Nusa Tenggara Tim.","Kabupaten Rote Ndao, Nusa Tenggara Tim.",NUSA TENGGARA TIMUR,,Indonesia,,,,-107.464.098,12.304.558,https://maps.google.com/?cid=0x0:0x575a85c650ddf9e4,
building materials,Minimarket,toko hebron,"725V+CW9, Unnamed Rd, Mokdale, Kec. Lobalain, Kabupaten Rote Ndao, Nusa Tenggara Tim.","Kabupaten Rote Ndao, Nusa Tenggara Tim.",NUSA TENGGARA TIMUR,,Indonesia,,,,-107.414.723,1.230.448.675,https://maps.google.com/?cid=0x0:0x699558aa9d2e663a,
building materials,building materials,Toko Zebada,"62RQ+X53, Mokdale, Kec. Lobalain, Kabupaten Rote Ndao, Nusa Tenggara Tim.","Kabupaten Rote Ndao, Nusa Tenggara Tim.",NUSA TENGGARA TIMUR,,Indonesia,,,,-107.576.161,1.230.379.074,https://maps.google.com/?cid=0x0:0x6a53e34db7a737ed,
building materials,Toko Bahan Bangunan,UD. Adikara Jaya Bangunan,"Mokdale, Kec. Lobalain, Kabupaten Rote Ndao, Nusa Tenggara Tim. 85914","Kec. Lobalain, Kabupaten Rote Ndao",NUSA TENGGARA TIMUR,85914.0,Indonesia,82236420433.0,,,-10.758.659,1.230.367.714,https://maps.google.com/?cid=0x0:0xc42be311b39e209,
building materials,Toko Elektronik,UD. Sumber Rejeki,"6272+VP6, Unnamed Road, Busalangga, Rote Barat Laut, Rote Ndao Regency, East Nusa Tenggara","Kabupaten Rote Ndao, Nusa Tenggara Tim.",NUSA TENGGARA TIMUR,,Indonesia,81337988900.0,,,-107.853.275,1.230.017.641,https://maps.google.com/?cid=0x0:0xf189e0e4dfe3c3d0,
building materials,Pom bensin/SPBU,"DasarMaju, Lalukoen","No.19, Lalukoen, Kec. Rote Bar. Daya, Kabupaten Rote Ndao, Nusa Tenggara Tim. 85982","Lalukoen, Kec. Rote Bar. Daya, Kabupaten Rote Ndao",NUSA TENGGARA TIMUR,85982.0,Indonesia,81213161019.0,,,-10.861.694,1.229.289.688,https://maps.google.com/?cid=0x0:0x3b3093eed014541f,
building materials,building materials,CV .Timor Jaya Makmur,"Jl. Baa Busalangga, Mokdale, Kec. Lobalain, Kabupaten Rote Ndao, Nusa Tenggara Tim. 85911","Mokdale, Kec. Lobalain, Kabupaten Rote Ndao",NUSA TENGGARA TIMUR,85911.0,Indonesia,81236375011.0,,,-107.510.458,1.230.429.039,https://maps.google.com/?cid=0x0:0xaf2bb4f12467828e,
building materials,Komplek perumahan,"Percetakan BATAKO UD LIMA SAUDARA""""","Kelurahan mokdale, RT.006/RW.002, Ba'a, Nusa Tenggara Tim. 85914","RT.006/RW.002, Ba'a",NUSA TENGGARA TIMUR,85914.0,Indonesia,82177229233.0,,,-107.571.236,123.038.728,https://maps.google.com/?cid=0x0:0x7a9dc3609eea69c,
building materials,Rumah Sakit,Toko Elim Jaya,"722V+4F6, Jl. Baa Busalangga, Mokdale, Kec. Lobalain, Kabupaten Rote Ndao, Nusa Tenggara Tim.","Kabupaten Rote Ndao, Nusa Tenggara Tim.",NUSA TENGGARA TIMUR,,Indonesia,81339338888.0,,,-107.529.719,1.230.419.021,https://maps.google.com/?cid=0x0:0x42543e6a746c84fb,
building materials,Toko Alat Tulis Kantor,Toko Ebenhaezer Rote,"725W+772, Mokdale, Kec. Lobalain, Kabupaten Rote Ndao, Nusa Tenggara Tim.","Kabupaten Rote Ndao, Nusa Tenggara Tim.",NUSA TENGGARA TIMUR,,Indonesia,,,,-107.418.663,1.230.456.442,https://maps.google.com/?cid=0x0:0x9bd1994397bb8e5c,
building materials,Kios,Toko Sahabat Baru,"63P8+PH5, Jl. Lekunik, Mokdale, Kec. Lobalain, Kabupaten Rote Ndao, Nusa Tenggara Tim.","Kabupaten Rote Ndao, Nusa Tenggara Tim.",NUSA TENGGARA TIMUR,,Indonesia,,,,-10.763.019,1.230.674.043,https://maps.google.com/?cid=0x0:0x2fb78fa246d4a8a3,
building materials,building materials,UD. AISELE,"4WM5+PMR, Jalan Baa-Nemberala, Lalukoen, Kec. Rote Bar. Daya, Kabupaten Rote Ndao, Nusa Tenggara Tim.","Kabupaten Rote Ndao, Nusa Tenggara Tim.",NUSA TENGGARA TIMUR,,Indonesia,,,,-108.656.366,1.229.091.322,https://maps.google.com/?cid=0x0:0x76e4309145ce22bb,
building materials,building materials,Pdan MGZ,"4RMX+FGQ, Unnamed Road, Oenitas, Kec. Rote Bar., Kabupaten Rote Ndao, Nusa Tenggara Tim.","Kabupaten Rote Ndao, Nusa Tenggara Tim.",NUSA TENGGARA TIMUR,,Indonesia,,,,-10.866.284,1.228.488.663,https://maps.google.com/?cid=0x0:0xa76d0122dd2856e1,
building materials,building materials,Axl bangunan,"7324+GHV, Jl. Lekunik, Mokdale, Kec. Lobalain, Kabupaten Rote Ndao, Nusa Tenggara Tim.","Kabupaten Rote Ndao, Nusa Tenggara Tim.",NUSA TENGGARA TIMUR,,Indonesia,,,,-107.486.265,1.230.564.334,https://maps.google.com/?cid=0x0:0x50dc9ae21d3739d3,
building materials,building materials,Kec. Lobalain,"Kabupaten Rote Ndao, Nusa Tenggara Tim.","Kabupaten Rote Ndao, Nusa Tenggara Tim.",NUSA TENGGARA TIMUR,,Indonesia,,,,-107.290.879,1.230.460.405,https://maps.google.com/?cid=0x0:0x618add3ee97f8439,
building materials,Minimarket,toko hebron,"725V+CW9, Unnamed Rd, Mokdale, Kec. Lobalain, Kabupaten Rote Ndao, Nusa Tenggara Tim.","Kabupaten Rote Ndao, Nusa Tenggara Tim.",NUSA TENGGARA TIMUR,,Indonesia,,,,-107.414.723,1.230.448.675,https://maps.google.com/?cid=0x0:0x699558aa9d2e663a,
building materials,Toko Bahan Bangunan,UD. Adikara Jaya Bangunan,"Mokdale, Kec. Lobalain, Kabupaten Rote Ndao, Nusa Tenggara Tim. 85914","Kec. Lobalain, Kabupaten Rote Ndao",NUSA TENGGARA TIMUR,85914.0,Indonesia,82236420433.0,,,-10.758.659,1.230.367.714,https://maps.google.com/?cid=0x0:0xc42be311b39e209,
building materials,Toko Bahan Bangunan,UD TUJUH JAYA BANGUNAN I,"72GX+8M5, Metina, Kec. Lobalain, Kabupaten Rote Ndao, Nusa Tenggara Tim.","Kabupaten Rote Ndao, Nusa Tenggara Tim.",NUSA TENGGARA TIMUR,,Indonesia,,,,-107.242.448,1.230.492.313,https://maps.google.com/?cid=0x0:0xca85d779b23c1d9d,
building materials,building materials,Axl bangunan,"7324+GHV, Jl. Lekunik, Mokdale, Kec. Lobalain, Kabupaten Rote Ndao, Nusa Tenggara Tim.","Kabupaten Rote Ndao, Nusa Tenggara Tim.",NUSA TENGGARA TIMUR,,Indonesia,,,,-107.486.265,1.230.564.334,https://maps.google.com/?cid=0x0:0x50dc9ae21d3739d3,
building materials,building materials,CV .Timor Jaya Makmur,"Jl. Baa Busalangga, Mokdale, Kec. Lobalain, Kabupaten Rote Ndao, Nusa Tenggara Tim. 85911","Mokdale, Kec. Lobalain, Kabupaten Rote Ndao",NUSA TENGGARA TIMUR,85911.0,Indonesia,81236375011.0,,,-107.510.458,1.230.429.039,https://maps.google.com/?cid=0x0:0xaf2bb4f12467828e,
building materials,Komplek perumahan,"Percetakan BATAKO UD LIMA SAUDARA""""","Kelurahan mokdale, RT.006/RW.002, Ba'a, Nusa Tenggara Tim. 85914","RT.006/RW.002, Ba'a",NUSA TENGGARA TIMUR,85914.0,Indonesia,82177229233.0,,,-107.571.236,123.038.728,https://maps.google.com/?cid=0x0:0x7a9dc3609eea69c,
building materials,Rumah Sakit,Toko Elim Jaya,"722V+4F6, Jl. Baa Busalangga, Mokdale, Kec. Lobalain, Kabupaten Rote Ndao, Nusa Tenggara Tim.","Kabupaten Rote Ndao, Nusa Tenggara Tim.",NUSA TENGGARA TIMUR,,Indonesia,81339338888.0,,,-107.529.719,1.230.419.021,https://maps.google.com/?cid=0x0:0x42543e6a746c84fb,
building materials,Kios,Toko Sahabat Baru,"63P8+PH5, Jl. Lekunik, Mokdale, Kec. Lobalain, Kabupaten Rote Ndao, Nusa Tenggara Tim.","Kabupaten Rote Ndao, Nusa Tenggara Tim.",NUSA TENGGARA TIMUR,,Indonesia,,,,-10.763.019,1.230.674.043,https://maps.google.com/?cid=0x0:0x2fb78fa246d4a8a3,
building materials,building materials,AGEN46 MELANIA,"6577+9CH, Daleholu, Kec. Rote Sel., Kabupaten Rote Ndao, Nusa Tenggara Tim.","Kabupaten Rote Ndao, Nusa Tenggara Tim.",NUSA TENGGARA TIMUR,,Indonesia,,,,-10.786.558,1.231.635.964,https://maps.google.com/?cid=0x0:0xa111018f86c89b56,
building materials,building materials,Kec. Lobalain,"Kabupaten Rote Ndao, Nusa Tenggara Tim.","Kabupaten Rote Ndao, Nusa Tenggara Tim.",NUSA TENGGARA TIMUR,,Indonesia,,,,-107.290.879,1.230.460.405,https://maps.google.com/?cid=0x0:0x618add3ee97f8439,
building materials,Minimarket,toko hebron,"725V+CW9, Unnamed Rd, Mokdale, Kec. Lobalain, Kabupaten Rote Ndao, Nusa Tenggara Tim.","Kabupaten Rote Ndao, Nusa Tenggara Tim.",NUSA TENGGARA TIMUR,,Indonesia,,,,-107.414.723,1.230.448.675,https://maps.google.com/?cid=0x0:0x699558aa9d2e663a,
building materials,Toko Bahan Bangunan,UD. Adikara Jaya Bangunan,"Mokdale, Kec. Lobalain, Kabupaten Rote Ndao, Nusa Tenggara Tim. 85914","Kec. Lobalain, Kabupaten Rote Ndao",NUSA TENGGARA TIMUR,85914.0,Indonesia,82236420433.0,,,-10.758.659,1.230.367.714,https://maps.google.com/?cid=0x0:0xc42be311b39e209,
building materials,building materials,Axl bangunan,"7324+GHV, Jl. Lekunik, Mokdale, Kec. Lobalain, Kabupaten Rote Ndao, Nusa Tenggara Tim.","Kabupaten Rote Ndao, Nusa Tenggara Tim.",NUSA TENGGARA TIMUR,,Indonesia,,,,-107.486.265,1.230.564.334,https://maps.google.com/?cid=0x0:0x50dc9ae21d3739d3,
building materials,Toko Bahan Bangunan,UD TUJUH JAYA BANGUNAN I,"72GX+8M5, Metina, Kec. Lobalain, Kabupaten Rote Ndao, Nusa Tenggara Tim.","Kabupaten Rote Ndao, Nusa Tenggara Tim.",NUSA TENGGARA TIMUR,,Indonesia,,,,-107.242.448,1.230.492.313,https://maps.google.com/?cid=0x0:0xca85d779b23c1d9d,
building materials,building materials,CV .Timor Jaya Makmur,"Jl. Baa Busalangga, Mokdale, Kec. Lobalain, Kabupaten Rote Ndao, Nusa Tenggara Tim. 85911","Mokdale, Kec. Lobalain, Kabupaten Rote Ndao",NUSA TENGGARA TIMUR,85911.0,Indonesia,81236375011.0,,,-107.510.458,1.230.429.039,https://maps.google.com/?cid=0x0:0xaf2bb4f12467828e,
building materials,Komplek perumahan,"Percetakan BATAKO UD LIMA SAUDARA""""","Kelurahan mokdale, RT.006/RW.002, Ba'a, Nusa Tenggara Tim. 85914","RT.006/RW.002, Ba'a",NUSA TENGGARA TIMUR,85914.0,Indonesia,82177229233.0,,,-107.571.236,123.038.728,https://maps.google.com/?cid=0x0:0x7a9dc3609eea69c,
building materials,Rumah Sakit,Toko Elim Jaya,"722V+4F6, Jl. Baa Busalangga, Mokdale, Kec. Lobalain, Kabupaten Rote Ndao, Nusa Tenggara Tim.","Kabupaten Rote Ndao, Nusa Tenggara Tim.",NUSA TENGGARA TIMUR,,Indonesia,81339338888.0,,,-107.529.719,1.230.419.021,https://maps.google.com/?cid=0x0:0x42543e6a746c84fb,
building materials,Kios,Toko Sahabat Baru,"63P8+PH5, Jl. Lekunik, Mokdale, Kec. Lobalain, Kabupaten Rote Ndao, Nusa Tenggara Tim.","Kabupaten Rote Ndao, Nusa Tenggara Tim.",NUSA TENGGARA TIMUR,,Indonesia,,,,-10.763.019,1.230.674.043,https://maps.google.com/?cid=0x0:0x2fb78fa246d4a8a3,
building materials,building materials,AGEN46 MELANIA,"6577+9CH, Daleholu, Kec. Rote Sel., Kabupaten Rote Ndao, Nusa Tenggara Tim.","Kabupaten Rote Ndao, Nusa Tenggara Tim.",NUSA TENGGARA TIMUR,,Indonesia,,,,-10.786.558,1.231.635.964,https://maps.google.com/?cid=0x0:0xa111018f86c89b56,
building materials,building materials,Kec. Lobalain,"Kabupaten Rote Ndao, Nusa Tenggara Tim.","Kabupaten Rote Ndao, Nusa Tenggara Tim.",NUSA TENGGARA TIMUR,,Indonesia,,,,-107.290.879,1.230.460.405,https://maps.google.com/?cid=0x0:0x618add3ee97f8439,
building materials,Toko Bahan Bangunan,UD. Adikara Jaya Bangunan,"Mokdale, Kec. Lobalain, Kabupaten Rote Ndao, Nusa Tenggara Tim. 85914","Kec. Lobalain, Kabupaten Rote Ndao",NUSA TENGGARA TIMUR,85914.0,Indonesia,82236420433.0,,,-10.758.659,1.230.367.714,https://maps.google.com/?cid=0x0:0xc42be311b39e209,
building materials,Minimarket,toko hebron,"725V+CW9, Unnamed Rd, Mokdale, Kec. Lobalain, Kabupaten Rote Ndao, Nusa Tenggara Tim.","Kabupaten Rote Ndao, Nusa Tenggara Tim.",NUSA TENGGARA TIMUR,,Indonesia,,,,-107.414.723,1.230.448.675,https://maps.google.com/?cid=0x0:0x699558aa9d2e663a,
building materials,Komplek perumahan,"Percetakan BATAKO UD LIMA SAUDARA""""","Kelurahan mokdale, RT.006/RW.002, Ba'a, Nusa Tenggara Tim. 85914","RT.006/RW.002, Ba'a",NUSA TENGGARA TIMUR,85914.0,Indonesia,82177229233.0,,,-107.571.236,123.038.728,https://maps.google.com/?cid=0x0:0x7a9dc3609eea69c,
building materials,building materials,Axl bangunan,"7324+GHV, Jl. Lekunik, Mokdale, Kec. Lobalain, Kabupaten Rote Ndao, Nusa Tenggara Tim.","Kabupaten Rote Ndao, Nusa Tenggara Tim.",NUSA TENGGARA TIMUR,,Indonesia,,,,-107.486.265,1.230.564.334,https://maps.google.com/?cid=0x0:0x50dc9ae21d3739d3,
building materials,building materials,CV .Timor Jaya Makmur,"Jl. Baa Busalangga, Mokdale, Kec. Lobalain, Kabupaten Rote Ndao, Nusa Tenggara Tim. 85911","Mokdale, Kec. Lobalain, Kabupaten Rote Ndao",NUSA TENGGARA TIMUR,85911.0,Indonesia,81236375011.0,,,-107.510.458,1.230.429.039,https://maps.google.com/?cid=0x0:0xaf2bb4f12467828e,
building materials,Rumah Sakit,Toko Elim Jaya,"722V+4F6, Jl. Baa Busalangga, Mokdale, Kec. Lobalain, Kabupaten Rote Ndao, Nusa Tenggara Tim.","Kabupaten Rote Ndao, Nusa Tenggara Tim.",NUSA TENGGARA TIMUR,,Indonesia,81339338888.0,,,-107.529.719,1.230.419.021,https://maps.google.com/?cid=0x0:0x42543e6a746c84fb,
building materials,Kios,Toko Sahabat Baru,"63P8+PH5, Jl. Lekunik, Mokdale, Kec. Lobalain, Kabupaten Rote Ndao, Nusa Tenggara Tim.","Kabupaten Rote Ndao, Nusa Tenggara Tim.",NUSA TENGGARA TIMUR,,Indonesia,,,,-10.763.019,1.230.674.043,https://maps.google.com/?cid=0x0:0x2fb78fa246d4a8a3,
building materials,building materials,AGEN46 MELANIA,"6577+9CH, Daleholu, Kec. Rote Sel., Kabupaten Rote Ndao, Nusa Tenggara Tim.","Kabupaten Rote Ndao, Nusa Tenggara Tim.",NUSA TENGGARA TIMUR,,Indonesia,,,,-10.786.558,1.231.635.964,https://maps.google.com/?cid=0x0:0xa111018f86c89b56,
building materials,building materials,Kec. Lobalain,"Kabupaten Rote Ndao, Nusa Tenggara Tim.","Kabupaten Rote Ndao, Nusa Tenggara Tim.",NUSA TENGGARA TIMUR,,Indonesia,,,,-107.290.879,1.230.460.405,https://maps.google.com/?cid=0x0:0x618add3ee97f8439,
building materials,Kantor Perusahaan,PT. Flosindo Berkat Abadi Timor,"RJCX+593, Naimata, Kec. Maulafa, Kota Kupang, Nusa Tenggara Tim.","Kota Kupang, Nusa Tenggara Tim.",NUSA TENGGARA TIMUR,,Indonesia,81239162717.0,,,-101.796.097,123.648.431,https://maps.google.com/?cid=0x0:0xa0587933358a45f8,
building materials,building materials,Axl bangunan,"7324+GHV, Jl. Lekunik, Mokdale, Kec. Lobalain, Kabupaten Rote Ndao, Nusa Tenggara Tim.","Kabupaten Rote Ndao, Nusa Tenggara Tim.",NUSA TENGGARA TIMUR,,Indonesia,,,,-107.486.265,1.230.564.334,https://maps.google.com/?cid=0x0:0x50dc9ae21d3739d3,
building materials,Toko Bahan Bangunan,UD TUJUH JAYA BANGUNAN I,"72GX+8M5, Metina, Kec. Lobalain, Kabupaten Rote Ndao, Nusa Tenggara Tim.","Kabupaten Rote Ndao, Nusa Tenggara Tim.",NUSA TENGGARA TIMUR,,Indonesia,,,,-107.242.448,1.230.492.313,https://maps.google.com/?cid=0x0:0xca85d779b23c1d9d,
building materials,Minimarket,toko hebron,"725V+CW9, Unnamed Rd, Mokdale, Kec. Lobalain, Kabupaten Rote Ndao, Nusa Tenggara Tim.","Kabupaten Rote Ndao, Nusa Tenggara Tim.",NUSA TENGGARA TIMUR,,Indonesia,,,,-107.414.723,1.230.448.675,https://maps.google.com/?cid=0x0:0x699558aa9d2e663a,
building materials,Toko Bahan Bangunan,CV. Tujuh Jaya,"723W+C6P, Unnamed Rd, Mokdale, Kec. Lobalain, Kabupaten Rote Ndao, Nusa Tenggara Tim.","Kabupaten Rote Ndao, Nusa Tenggara Tim.",NUSA TENGGARA TIMUR,,Indonesia,,,,-107.464.098,12.304.558,https://maps.google.com/?cid=0x0:0x575a85c650ddf9e4,
building materials,Toko Bahan Bangunan,UD. Adikara Jaya Bangunan,"Mokdale, Kec. Lobalain, Kabupaten Rote Ndao, Nusa Tenggara Tim. 85914","Kec. Lobalain, Kabupaten Rote Ndao",NUSA TENGGARA TIMUR,85914.0,Indonesia,82236420433.0,,,-10.758.659,1.230.367.714,https://maps.google.com/?cid=0x0:0xc42be311b39e209,
building materials,building materials,CV .Timor Jaya Makmur,"Jl. Baa Busalangga, Mokdale, Kec. Lobalain, Kabupaten Rote Ndao, Nusa Tenggara Tim. 85911","Mokdale, Kec. Lobalain, Kabupaten Rote Ndao",NUSA TENGGARA TIMUR,85911.0,Indonesia,81236375011.0,,,-107.510.458,1.230.429.039,https://maps.google.com/?cid=0x0:0xaf2bb4f12467828e,
building materials,Komplek perumahan,"Percetakan BATAKO UD LIMA SAUDARA""""","Kelurahan mokdale, RT.006/RW.002, Ba'a, Nusa Tenggara Tim. 85914","RT.006/RW.002, Ba'a",NUSA TENGGARA TIMUR,85914.0,Indonesia,82177229233.0,,,-107.571.236,123.038.728,https://maps.google.com/?cid=0x0:0x7a9dc3609eea69c,
building materials,Rumah Sakit,Toko Elim Jaya,"722V+4F6, Jl. Baa Busalangga, Mokdale, Kec. Lobalain, Kabupaten Rote Ndao, Nusa Tenggara Tim.","Kabupaten Rote Ndao, Nusa Tenggara Tim.",NUSA TENGGARA TIMUR,,Indonesia,81339338888.0,,,-107.529.719,1.230.419.021,https://maps.google.com/?cid=0x0:0x42543e6a746c84fb,
building materials,Kios,Toko Sahabat Baru,"63P8+PH5, Jl. Lekunik, Mokdale, Kec. Lobalain, Kabupaten Rote Ndao, Nusa Tenggara Tim.","Kabupaten Rote Ndao, Nusa Tenggara Tim.",NUSA TENGGARA TIMUR,,Indonesia,,,,-10.763.019,1.230.674.043,https://maps.google.com/?cid=0x0:0x2fb78fa246d4a8a3,
building materials,building materials,AGEN46 MELANIA,"6577+9CH, Daleholu, Kec. Rote Sel., Kabupaten Rote Ndao, Nusa Tenggara Tim.","Kabupaten Rote Ndao, Nusa Tenggara Tim.",NUSA TENGGARA TIMUR,,Indonesia,,,,-10.786.558,1.231.635.964,https://maps.google.com/?cid=0x0:0xa111018f86c89b56,
building materials,building materials,Kec. Lobalain,"Kabupaten Rote Ndao, Nusa Tenggara Tim.","Kabupaten Rote Ndao, Nusa Tenggara Tim.",NUSA TENGGARA TIMUR,,Indonesia,,,,-107.290.879,1.230.460.405,https://maps.google.com/?cid=0x0:0x618add3ee97f8439,
building materials,Minimarket,toko hebron,"725V+CW9, Unnamed Rd, Mokdale, Kec. Lobalain, Kabupaten Rote Ndao, Nusa Tenggara Tim.","Kabupaten Rote Ndao, Nusa Tenggara Tim.",NUSA TENGGARA TIMUR,,Indonesia,,,,-107.414.723,1.230.448.675,https://maps.google.com/?cid=0x0:0x699558aa9d2e663a,
building materials,Toko Bahan Bangunan,CV. Tujuh Jaya,"723W+C6P, Unnamed Rd, Mokdale, Kec. Lobalain, Kabupaten Rote Ndao, Nusa Tenggara Tim.","Kabupaten Rote Ndao, Nusa Tenggara Tim.",NUSA TENGGARA TIMUR,,Indonesia,,,,-107.464.098,12.304.558,https://maps.google.com/?cid=0x0:0x575a85c650ddf9e4,
building materials,building materials,Axl bangunan,"7324+GHV, Jl. Lekunik, Mokdale, Kec. Lobalain, Kabupaten Rote Ndao, Nusa Tenggara Tim.","Kabupaten Rote Ndao, Nusa Tenggara Tim.",NUSA TENGGARA TIMUR,,Indonesia,,,,-107.486.265,1.230.564.334,https://maps.google.com/?cid=0x0:0x50dc9ae21d3739d3,
building materials,Toko Bahan Bangunan,UD TUJUH JAYA BANGUNAN I,"72GX+8M5, Metina, Kec. Lobalain, Kabupaten Rote Ndao, Nusa Tenggara Tim.","Kabupaten Rote Ndao, Nusa Tenggara Tim.",NUSA TENGGARA TIMUR,,Indonesia,,,,-107.242.448,1.230.492.313,https://maps.google.com/?cid=0x0:0xca85d779b23c1d9d,
building materials,building materials,CV .Timor Jaya Makmur,"Jl. Baa Busalangga, Mokdale, Kec. Lobalain, Kabupaten Rote Ndao, Nusa Tenggara Tim. 85911","Mokdale, Kec. Lobalain, Kabupaten Rote Ndao",NUSA TENGGARA TIMUR,85911.0,Indonesia,81236375011.0,,,-107.510.458,1.230.429.039,https://maps.google.com/?cid=0x0:0xaf2bb4f12467828e,
building materials,Rumah Sakit,Toko Elim Jaya,"722V+4F6, Jl. Baa Busalangga, Mokdale, Kec. Lobalain, Kabupaten Rote Ndao, Nusa Tenggara Tim.","Kabupaten Rote Ndao, Nusa Tenggara Tim.",NUSA TENGGARA TIMUR,,Indonesia,81339338888.0,,,-107.529.719,1.230.419.021,https://maps.google.com/?cid=0x0:0x42543e6a746c84fb,
building materials,Komplek perumahan,"Percetakan BATAKO UD LIMA SAUDARA""""","Kelurahan mokdale, RT.006/RW.002, Ba'a, Nusa Tenggara Tim. 85914","RT.006/RW.002, Ba'a",NUSA TENGGARA TIMUR,85914.0,Indonesia,82177229233.0,,,-107.571.236,123.038.728,https://maps.google.com/?cid=0x0:0x7a9dc3609eea69c,
building materials,Kios,Toko Sahabat Baru,"63P8+PH5, Jl. Lekunik, Mokdale, Kec. Lobalain, Kabupaten Rote Ndao, Nusa Tenggara Tim.","Kabupaten Rote Ndao, Nusa Tenggara Tim.",NUSA TENGGARA TIMUR,,Indonesia,,,,-10.763.019,1.230.674.043,https://maps.google.com/?cid=0x0:0x2fb78fa246d4a8a3,
building materials,building materials,AGEN46 MELANIA,"6577+9CH, Daleholu, Kec. Rote Sel., Kabupaten Rote Ndao, Nusa Tenggara Tim.","Kabupaten Rote Ndao, Nusa Tenggara Tim.",NUSA TENGGARA TIMUR,,Indonesia,,,,-10.786.558,1.231.635.964,https://maps.google.com/?cid=0x0:0xa111018f86c89b56,
building materials,building materials,Kec. Lobalain,"Kabupaten Rote Ndao, Nusa Tenggara Tim.","Kabupaten Rote Ndao, Nusa Tenggara Tim.",NUSA TENGGARA TIMUR,,Indonesia,,,,-107.290.879,1.230.460.405,https://maps.google.com/?cid=0x0:0x618add3ee97f8439,
building materials,Minimarket,toko hebron,"725V+CW9, Unnamed Rd, Mokdale, Kec. Lobalain, Kabupaten Rote Ndao, Nusa Tenggara Tim.","Kabupaten Rote Ndao, Nusa Tenggara Tim.",NUSA TENGGARA TIMUR,,Indonesia,,,,-107.414.723,1.230.448.675,https://maps.google.com/?cid=0x0:0x699558aa9d2e663a,
building materials,Toko Bahan Bangunan,UD. Adikara Jaya Bangunan,"Mokdale, Kec. Lobalain, Kabupaten Rote Ndao, Nusa Tenggara Tim. 85914","Kec. Lobalain, Kabupaten Rote Ndao",NUSA TENGGARA TIMUR,85914.0,Indonesia,82236420433.0,,,-10.758.659,1.230.367.714,https://maps.google.com/?cid=0x0:0xc42be311b39e209,
building materials,building materials,Axl bangunan,"7324+GHV, Jl. Lekunik, Mokdale, Kec. Lobalain, Kabupaten Rote Ndao, Nusa Tenggara Tim.","Kabupaten Rote Ndao, Nusa Tenggara Tim.",NUSA TENGGARA TIMUR,,Indonesia,,,,-107.486.265,1.230.564.334,https://maps.google.com/?cid=0x0:0x50dc9ae21d3739d3,
building materials,Toko Bahan Bangunan,UD TUJUH JAYA BANGUNAN I,"72GX+8M5, Metina, Kec. Lobalain, Kabupaten Rote Ndao, Nusa Tenggara Tim.","Kabupaten Rote Ndao, Nusa Tenggara Tim.",NUSA TENGGARA TIMUR,,Indonesia,,,,-107.242.448,1.230.492.313,https://maps.google.com/?cid=0x0:0xca85d779b23c1d9d,
building materials,building materials,CV .Timor Jaya Makmur,"Jl. Baa Busalangga, Mokdale, Kec. Lobalain, Kabupaten Rote Ndao, Nusa Tenggara Tim. 85911","Mokdale, Kec. Lobalain, Kabupaten Rote Ndao",NUSA TENGGARA TIMUR,85911.0,Indonesia,81236375011.0,,,-107.510.458,1.230.429.039,https://maps.google.com/?cid=0x0:0xaf2bb4f12467828e,
building materials,Komplek perumahan,"Percetakan BATAKO UD LIMA SAUDARA""""","Kelurahan mokdale, RT.006/RW.002, Ba'a, Nusa Tenggara Tim. 85914","RT.006/RW.002, Ba'a",NUSA TENGGARA TIMUR,85914.0,Indonesia,82177229233.0,,,-107.571.236,123.038.728,https://maps.google.com/?cid=0x0:0x7a9dc3609eea69c,
building materials,Rumah Sakit,Toko Elim Jaya,"722V+4F6, Jl. Baa Busalangga, Mokdale, Kec. Lobalain, Kabupaten Rote Ndao, Nusa Tenggara Tim.","Kabupaten Rote Ndao, Nusa Tenggara Tim.",NUSA TENGGARA TIMUR,,Indonesia,81339338888.0,,,-107.529.719,1.230.419.021,https://maps.google.com/?cid=0x0:0x42543e6a746c84fb,
building materials,Kios,Toko Sahabat Baru,"63P8+PH5, Jl. Lekunik, Mokdale, Kec. Lobalain, Kabupaten Rote Ndao, Nusa Tenggara Tim.","Kabupaten Rote Ndao, Nusa Tenggara Tim.",NUSA TENGGARA TIMUR,,Indonesia,,,,-10.763.019,1.230.674.043,https://maps.google.com/?cid=0x0:0x2fb78fa246d4a8a3,
building materials,building materials,AGEN46 MELANIA,"6577+9CH, Daleholu, Kec. Rote Sel., Kabupaten Rote Ndao, Nusa Tenggara Tim.","Kabupaten Rote Ndao, Nusa Tenggara Tim.",NUSA TENGGARA TIMUR,,Indonesia,,,,-10.786.558,1.231.635.964,https://maps.google.com/?cid=0x0:0xa111018f86c89b56,
building materials,building materials,Kec. Rote Tengah,"Kabupaten Rote Ndao, Nusa Tenggara Tim.","Kabupaten Rote Ndao, Nusa Tenggara Tim.",NUSA TENGGARA TIMUR,,Indonesia,,,,-106.702.912,1.231.279.559,https://maps.google.com/?cid=0x0:0x44ac523cb3546567,
building materials,Toko Bahan Bangunan,CV. Tujuh Jaya,"723W+C6P, Unnamed Rd, Mokdale, Kec. Lobalain, Kabupaten Rote Ndao, Nusa Tenggara Tim.","Kabupaten Rote Ndao, Nusa Tenggara Tim.",NUSA TENGGARA TIMUR,,Indonesia,,,,-107.464.098,12.304.558,https://maps.google.com/?cid=0x0:0x575a85c650ddf9e4,
building materials,Minimarket,toko hebron,"725V+CW9, Unnamed Rd, Mokdale, Kec. Lobalain, Kabupaten Rote Ndao, Nusa Tenggara Tim.","Kabupaten Rote Ndao, Nusa Tenggara Tim.",NUSA TENGGARA TIMUR,,Indonesia,,,,-107.414.723,1.230.448.675,https://maps.google.com/?cid=0x0:0x699558aa9d2e663a,
building materials,building materials,Kec. Rote Tim.,"Kabupaten Rote Ndao, Nusa Tenggara Tim.","Kabupaten Rote Ndao, Nusa Tenggara Tim.",NUSA TENGGARA TIMUR,,Indonesia,,,,-106.018.337,1.233.792.441,https://maps.google.com/?cid=0x0:0x20409773de900efa,
building materials,Toko Bahan Bangunan,CV. Tujuh Jaya,"723W+C6P, Unnamed Rd, Mokdale, Kec. Lobalain, Kabupaten Rote Ndao, Nusa Tenggara Tim.","Kabupaten Rote Ndao, Nusa Tenggara Tim.",NUSA TENGGARA TIMUR,,Indonesia,,,,-107.464.098,12.304.558,https://maps.google.com/?cid=0x0:0x575a85c650ddf9e4,
building materials,building materials,Wendy Salean CV New Bilba,"Mukekuku-Danolon, Kec. Rote Tim., Kabupaten Rote Ndao, Nusa Tenggara Tim. 85974","Kec. Rote Tim., Kabupaten Rote Ndao",NUSA TENGGARA TIMUR,85974.0,Indonesia,82147466787.0,,,-106.834.013,123.373.846,https://maps.google.com/?cid=0x0:0x47a2891cbd668b74,
building materials,building materials,UD Madona,"99XH+CP4, Londalusi, Kec. Rote Tim., Kabupaten Rote Ndao, Nusa Tenggara Tim.","Kabupaten Rote Ndao, Nusa Tenggara Tim.",NUSA TENGGARA TIMUR,,Indonesia,,,,-106.014.879,1.233.793.297,https://maps.google.com/?cid=0x0:0x9ddf0bbefe8d43b3,
building materials,building materials,UD 9 mata air,"98Q4+4W4, Matasio, Kec. Rote Tim., Kabupaten Rote Ndao, Nusa Tenggara Tim.","Kabupaten Rote Ndao, Nusa Tenggara Tim.",NUSA TENGGARA TIMUR,,Indonesia,82342227399.0,,,-106.122.387,1.233.073.293,https://maps.google.com/?cid=0x0:0x2fcc053049bd45a2,
building materials,building materials,Alya Saleh,"Pelabuhan Papela, Londalusi, Kec. Rote Tim., Kabupaten Rote Ndao, Nusa Tenggara Tim.","Kabupaten Rote Ndao, Nusa Tenggara Tim.",NUSA TENGGARA TIMUR,,Indonesia,81212844871.0,,,-105.996.492,1.233.799.497,https://maps.google.com/?cid=0x0:0xb3628f597badb537,
building materials,building materials,Kec. Rote Bar.,"Kabupaten Rote Ndao, Nusa Tenggara Tim.","Kabupaten Rote Ndao, Nusa Tenggara Tim.",NUSA TENGGARA TIMUR,,Indonesia,,,,-108.858.919,1.228.260.101,https://maps.google.com/?cid=0x0:0x20873fb50a5b50f7,
building materials,Toko Bahan Bangunan,CV. Tujuh Jaya,"723W+C6P, Unnamed Rd, Mokdale, Kec. Lobalain, Kabupaten Rote Ndao, Nusa Tenggara Tim.","Kabupaten Rote Ndao, Nusa Tenggara Tim.",NUSA TENGGARA TIMUR,,Indonesia,,,,-107.464.098,12.304.558,https://maps.google.com/?cid=0x0:0x575a85c650ddf9e4,
building materials,Pom bensin/SPBU,"DasarMaju, Lalukoen","No.19, Lalukoen, Kec. Rote Bar. Daya, Kabupaten Rote Ndao, Nusa Tenggara Tim. 85982","Lalukoen, Kec. Rote Bar. Daya, Kabupaten Rote Ndao",NUSA TENGGARA TIMUR,85982.0,Indonesia,81213161019.0,,,-10.861.694,1.229.289.688,https://maps.google.com/?cid=0x0:0x3b3093eed014541f,
building materials,Sekolah Dasar,UPTD SMP Negeri 3 Rote Barat,"5RRH+GQF, Mbueain, Kec. Rote Bar., Kabupaten Rote Ndao, Nusa Tenggara Tim.","Kabupaten Rote Ndao, Nusa Tenggara Tim.",NUSA TENGGARA TIMUR,,Indonesia,,,,-108.086.772,1.228.294.065,https://maps.google.com/?cid=0x0:0x5fee20ec2fbafe01,
building materials,Perhimpunan Pengembang Perumahan,Desa oelolot,"5RCH+M5R, Oelolot, Kec. Rote Bar., Kabupaten Rote Ndao, Nusa Tenggara Tim.","Kabupaten Rote Ndao, Nusa Tenggara Tim.",NUSA TENGGARA TIMUR,,Indonesia,,,,-108.282.436,1.228.278.961,https://maps.google.com/?cid=0x0:0x7ad3929b671f4f30,
building materials,Toko Bahan Bangunan,UD TUJUH JAYA BANGUNAN I,"72GX+8M5, Metina, Kec. Lobalain, Kabupaten Rote Ndao, Nusa Tenggara Tim.","Kabupaten Rote Ndao, Nusa Tenggara Tim.",NUSA TENGGARA TIMUR,,Indonesia,,,,-107.242.448,1.230.492.313,https://maps.google.com/?cid=0x0:0xca85d779b23c1d9d,
building materials,Perumahan,Loedi Jack,"3VH5+RJW, Boa, Kec. Rote Bar., Kabupaten Rote Ndao, Nusa Tenggara Tim.","Kabupaten Rote Ndao, Nusa Tenggara Tim.",NUSA TENGGARA TIMUR,,Indonesia,,,,-109.205.481,1.228.590.015,https://maps.google.com/?cid=0x0:0x3c828eca8f912391,
building materials,Sekolah,SD GMIT MBUEAIN,"sd gmit, Mbueain, Kec. Rote Bar., Kabupaten Rote Ndao, Nusa Tenggara Tim.","Kabupaten Rote Ndao, Nusa Tenggara Tim.",NUSA TENGGARA TIMUR,,Indonesia,,,,-10.807.137,1.228.296.249,https://maps.google.com/?cid=0x0:0x781cf66eb463a422,
building materials,building materials,UD. AISELE,"4WM5+PMR, Jalan Baa-Nemberala, Lalukoen, Kec. Rote Bar. Daya, Kabupaten Rote Ndao, Nusa Tenggara Tim.","Kabupaten Rote Ndao, Nusa Tenggara Tim.",NUSA TENGGARA TIMUR,,Indonesia,,,,-108.656.366,1.229.091.322,https://maps.google.com/?cid=0x0:0x76e4309145ce22bb,
building materials,building materials,Pdan MGZ,"4RMX+FGQ, Unnamed Road, Oenitas, Kec. Rote Bar., Kabupaten Rote Ndao, Nusa Tenggara Tim.","Kabupaten Rote Ndao, Nusa Tenggara Tim.",NUSA TENGGARA TIMUR,,Indonesia,,,,-10.866.284,1.228.488.663,https://maps.google.com/?cid=0x0:0xa76d0122dd2856e1,
building materials,building materials,Kec. Rote Bar.,"Kabupaten Rote Ndao, Nusa Tenggara Tim.","Kabupaten Rote Ndao, Nusa Tenggara Tim.",NUSA TENGGARA TIMUR,,Indonesia,,,,-108.858.919,1.228.260.101,https://maps.google.com/?cid=0x0:0x20873fb50a5b50f7,
building materials,Pom bensin/SPBU,"DasarMaju, Lalukoen","No.19, Lalukoen, Kec. Rote Bar. Daya, Kabupaten Rote Ndao, Nusa Tenggara Tim. 85982","Lalukoen, Kec. Rote Bar. Daya, Kabupaten Rote Ndao",NUSA TENGGARA TIMUR,85982.0,Indonesia,81213161019.0,,,-10.861.694,1.229.289.688,https://maps.google.com/?cid=0x0:0x3b3093eed014541f,
building materials,Toko Bahan Bangunan,CV. Tujuh Jaya,"723W+C6P, Unnamed Rd, Mokdale, Kec. Lobalain, Kabupaten Rote Ndao, Nusa Tenggara Tim.","Kabupaten Rote Ndao, Nusa Tenggara Tim.",NUSA TENGGARA TIMUR,,Indonesia,,,,-107.464.098,12.304.558,https://maps.google.com/?cid=0x0:0x575a85c650ddf9e4,
building materials,building materials,UD. AISELE,"4WM5+PMR, Jalan Baa-Nemberala, Lalukoen, Kec. Rote Bar. Daya, Kabupaten Rote Ndao, Nusa Tenggara Tim.","Kabupaten Rote Ndao, Nusa Tenggara Tim.",NUSA TENGGARA TIMUR,,Indonesia,,,,-108.656.366,1.229.091.322,https://maps.google.com/?cid=0x0:0x76e4309145ce22bb,
building materials,building materials,Pdan MGZ,"4RMX+FGQ, Unnamed Road, Oenitas, Kec. Rote Bar., Kabupaten Rote Ndao, Nusa Tenggara Tim.","Kabupaten Rote Ndao, Nusa Tenggara Tim.",NUSA TENGGARA TIMUR,,Indonesia,,,,-10.866.284,1.228.488.663,https://maps.google.com/?cid=0x0:0xa76d0122dd2856e1,
building materials,building materials,Kec. Rote Sel.,"Kabupaten Rote Ndao, Nusa Tenggara Tim.","Kabupaten Rote Ndao, Nusa Tenggara Tim.",NUSA TENGGARA TIMUR,,Indonesia,,,,-107.849.831,1.231.594.105,https://maps.google.com/?cid=0x0:0x57324d947a721c0a,
building materials,Toko Bahan Bangunan,CV. Tujuh Jaya,"723W+C6P, Unnamed Rd, Mokdale, Kec. Lobalain, Kabupaten Rote Ndao, Nusa Tenggara Tim.","Kabupaten Rote Ndao, Nusa Tenggara Tim.",NUSA TENGGARA TIMUR,,Indonesia,,,,-107.464.098,12.304.558,https://maps.google.com/?cid=0x0:0x575a85c650ddf9e4,
building materials,Minimarket,toko hebron,"725V+CW9, Unnamed Rd, Mokdale, Kec. Lobalain, Kabupaten Rote Ndao, Nusa Tenggara Tim.","Kabupaten Rote Ndao, Nusa Tenggara Tim.",NUSA TENGGARA TIMUR,,Indonesia,,,,-107.414.723,1.230.448.675,https://maps.google.com/?cid=0x0:0x699558aa9d2e663a,
building materials,building materials,UD Madona,"99XH+CP4, Londalusi, Kec. Rote Tim., Kabupaten Rote Ndao, Nusa Tenggara Tim.","Kabupaten Rote Ndao, Nusa Tenggara Tim.",NUSA TENGGARA TIMUR,,Indonesia,,,,-106.014.879,1.233.793.297,https://maps.google.com/?cid=0x0:0x9ddf0bbefe8d43b3,
building materials,building materials,Ndao Nuse,"Kec. Ndao Nuse, Kabupaten Rote Ndao, Nusa Tenggara Tim.","Kabupaten Rote Ndao, Nusa Tenggara Tim.",NUSA TENGGARA TIMUR,,Indonesia,,,,-108.311.123,1.227.379.001,https://maps.google.com/?cid=0x0:0xa599a843e70bb45a,
building materials,Toko Bahan Bangunan,CV. Tujuh Jaya,"723W+C6P, Unnamed Rd, Mokdale, Kec. Lobalain, Kabupaten Rote Ndao, Nusa Tenggara Tim.","Kabupaten Rote Ndao, Nusa Tenggara Tim.",NUSA TENGGARA TIMUR,,Indonesia,,,,-107.464.098,12.304.558,https://maps.google.com/?cid=0x0:0x575a85c650ddf9e4,
building materials,building materials,UD Madona,"99XH+CP4, Londalusi, Kec. Rote Tim., Kabupaten Rote Ndao, Nusa Tenggara Tim.","Kabupaten Rote Ndao, Nusa Tenggara Tim.",NUSA TENGGARA TIMUR,,Indonesia,,,,-106.014.879,1.233.793.297,https://maps.google.com/?cid=0x0:0x9ddf0bbefe8d43b3,
building improvement,building improvement,Kec. Rote Bar. Daya,"Kabupaten Rote Ndao, Nusa Tenggara Tim.","Kabupaten Rote Ndao, Nusa Tenggara Tim.",NUSA TENGGARA TIMUR,,Indonesia,,,,-108.599.138,1.230.152.055,https://maps.google.com/?cid=0x0:0xc8d7144834ab28c0,
building improvement,building improvement,Kec. Rote Bar. Laut,"Kabupaten Rote Ndao, Nusa Tenggara Tim.","Kabupaten Rote Ndao, Nusa Tenggara Tim.",NUSA TENGGARA TIMUR,,Indonesia,,,,-107.597.977,1.229.182.941,https://maps.google.com/?cid=0x0:0xf1092e07a83097a2,
building improvement,Komplek perumahan,Yandri Foes,"6XWQ+H6, Daudolu, Kec. Rote Bar. Laut, Kabupaten Rote Ndao, Nusa Tenggara Tim.","Kabupaten Rote Ndao, Nusa Tenggara Tim.",NUSA TENGGARA TIMUR,,Indonesia,,,,-107.536.875,1.229.880.625,https://maps.google.com/?cid=0x0:0x353141bce9df9e02,
building improvement,Komplek perumahan,Yandri andderias nggili,"6WR7+Q8C, Oelua, Kec. Rote Bar. Laut, Kabupaten Rote Ndao, Nusa Tenggara Tim.","Kabupaten Rote Ndao, Nusa Tenggara Tim.",NUSA TENGGARA TIMUR,,Indonesia,,,,-107.588.165,1.229.125.061,https://maps.google.com/?cid=0x0:0x668fa6d51903890c,
building improvement,building improvement,Kec. Lobalain,"Kabupaten Rote Ndao, Nusa Tenggara Tim.","Kabupaten Rote Ndao, Nusa Tenggara Tim.",NUSA TENGGARA TIMUR,,Indonesia,,,,-107.290.879,1.230.460.405,https://maps.google.com/?cid=0x0:0x618add3ee97f8439,
building improvement,Perusahaan Konstruksi,Leovanzha Contractor,"63V7+PH7, Mokdale, Kec. Lobalain, Kabupaten Rote Ndao, Nusa Tenggara Tim.","Kabupaten Rote Ndao, Nusa Tenggara Tim.",NUSA TENGGARA TIMUR,,Indonesia,81338053053.0,,,-107.557.118,1.230.639.071,https://maps.google.com/?cid=0x0:0x98be33eb16a11d9d,
building improvement,Tempat Cukur Rambut,Jln ABRi,"63W2+X45, Jl. Abri, Mokdale, Kec. Lobalain, Kabupaten Rote Ndao, Nusa Tenggara Tim.","Kabupaten Rote Ndao, Nusa Tenggara Tim.",NUSA TENGGARA TIMUR,,Indonesia,,,,-107.525.672,1.230.503.672,https://maps.google.com/?cid=0x0:0x834c0973712dce94,
building improvement,Rumah singgah,RonalHome,"73P5+M5R, Metina, Kec. Lobalain, Kabupaten Rote Ndao, Nusa Tenggara Tim.","Kabupaten Rote Ndao, Nusa Tenggara Tim.",NUSA TENGGARA TIMUR,,Indonesia,,,,-107.127.956,1.230.576.803,https://maps.google.com/?cid=0x0:0x3bf856e72921851c,
building improvement,Rumah Kaca,Obet nalle,"628H+77Q, Holoama, Kec. Lobalain, Kabupaten Rote Ndao, Nusa Tenggara Tim.","Kabupaten Rote Ndao, Nusa Tenggara Tim.",NUSA TENGGARA TIMUR,,Indonesia,,,,-107.842.888,1.230.282.472,https://maps.google.com/?cid=0x0:0xbba921b7ef0f511a,
building improvement,Bangunan Bersejarah,Dylan Home,"73G2+P4, Metina, Kec. Lobalain, Kabupaten Rote Ndao, Nusa Tenggara Tim.","Kabupaten Rote Ndao, Nusa Tenggara Tim.",NUSA TENGGARA TIMUR,,Indonesia,,,,-107.232.479,1.230.503.741,https://maps.google.com/?cid=0x0:0x40b84ce62096d045,
building improvement,building improvement,Wendy Salean CV New Bilba,"Mukekuku-Danolon, Kec. Rote Tim., Kabupaten Rote Ndao, Nusa Tenggara Tim. 85974","Kec. Rote Tim., Kabupaten Rote Ndao",NUSA TENGGARA TIMUR,85974.0,Indonesia,82147466787.0,,,-106.834.013,123.373.846,https://maps.google.com/?cid=0x0:0x47a2891cbd668b74,
building improvement,Rumah Kaca,Bungsu foenale,"646G+QHH, Oematamboli, Kec. Lobalain, Kabupaten Rote Ndao, Nusa Tenggara Tim.","Kabupaten Rote Ndao, Nusa Tenggara Tim.",NUSA TENGGARA TIMUR,,Indonesia,,,,-10.787.715,123.126.685,https://maps.google.com/?cid=0x0:0x9fa7cd7ba948a55a,
building improvement,Perusahaan Konstruksi,Las Listrik 135,"Takai, RT.017/RW.008, Sanggaoen, Kec. Lobalain, Kabupaten Rote Ndao, Nusa Tenggara Tim. 85918","RT.017/RW.008, Sanggaoen, Kec. Lobalain, Kabupaten Rote Ndao",NUSA TENGGARA TIMUR,85918.0,Indonesia,85205947991.0,,,-107.723.705,1.230.521.313,https://maps.google.com/?cid=0x0:0x4f53d8d8e3f15589,
building improvement,Dinas Pekerjaan Umum,Dinas Penanaman Modal dan Pelayanan Terpadu Satu Pintu Kab. Rote Ndao,"63R6+93V, Mokdale, Kec. Lobalain, Kabupaten Rote Ndao, Nusa Tenggara Tim.","Kabupaten Rote Ndao, Nusa Tenggara Tim.",NUSA TENGGARA TIMUR,,Indonesia,3808571005.0,,,-107.590.121,1.230.601.627,https://maps.google.com/?cid=0x0:0xf32b5e930acca9b8,
building improvement,Minimarket,Rumah Lintan adu,"628H+77Q, Tasioen desa, Holoama, Kec. Lobalain, Kabupaten Rote Ndao, Nusa Tenggara Tim.","Kabupaten Rote Ndao, Nusa Tenggara Tim.",NUSA TENGGARA TIMUR,,Indonesia,,,,-107.842.888,1.230.282.472,https://maps.google.com/?cid=0x0:0x5fc45ce9b8174813,
building improvement,Perhimpunan Pengembang Perumahan,Lole,"53PM+H78, Suelain, Kec. Lobalain, Kabupaten Rote Ndao, Nusa Tenggara Tim.","Kabupaten Rote Ndao, Nusa Tenggara Tim.",NUSA TENGGARA TIMUR,,Indonesia,,,,-108.135.875,1.230.832.031,https://maps.google.com/?cid=0x0:0x6ec82672f41a38a8,
building improvement,Nasi,Baubafan,"72CW+9F2, Namodale, Kec. Lobalain, Kabupaten Rote Ndao, Nusa Tenggara Tim.","Kabupaten Rote Ndao, Nusa Tenggara Tim.",NUSA TENGGARA TIMUR,,Indonesia,,,,-107.291.009,1.230.461.395,https://maps.google.com/?cid=0x0:0x8984263edd70dfcd,
building improvement,building improvement,Kec. Lobalain,"Kabupaten Rote Ndao, Nusa Tenggara Tim.","Kabupaten Rote Ndao, Nusa Tenggara Tim.",NUSA TENGGARA TIMUR,,Indonesia,,,,-107.290.879,1.230.460.405,https://maps.google.com/?cid=0x0:0x618add3ee97f8439,
building improvement,Perusahaan Konstruksi,Leovanzha Contractor,"63V7+PH7, Mokdale, Kec. Lobalain, Kabupaten Rote Ndao, Nusa Tenggara Tim.","Kabupaten Rote Ndao, Nusa Tenggara Tim.",NUSA TENGGARA TIMUR,,Indonesia,81338053053.0,,,-107.557.118,1.230.639.071,https://maps.google.com/?cid=0x0:0x98be33eb16a11d9d,
building improvement,Komplek perumahan,Daniel Balukh,"53RR+RP5, Jl. Lingkar selatan, Bebalain, Kec. Lobalain, Kabupaten Rote Ndao, Nusa Tenggara Tim.","Kabupaten Rote Ndao, Nusa Tenggara Tim.",NUSA TENGGARA TIMUR,,Indonesia,,,,-108.074.146,1.230.921.926,https://maps.google.com/?cid=0x0:0x59e2385fbd705640,
building improvement,Komplek perumahan,Rumah Semuael Balukh  Loisa Manukoa,"53RR+VQC, Suelain, Kec. Lobalain, Kabupaten Rote Ndao, Nusa Tenggara Tim.","Kabupaten Rote Ndao, Nusa Tenggara Tim.",NUSA TENGGARA TIMUR,,Indonesia,,,,-108.078.078,1.230.919.006,https://maps.google.com/?cid=0x0:0x7d46ed6c2d0a322b,
building improvement,Rumah singgah,RonalHome,"73P5+M5R, Metina, Kec. Lobalain, Kabupaten Rote Ndao, Nusa Tenggara Tim.","Kabupaten Rote Ndao, Nusa Tenggara Tim.",NUSA TENGGARA TIMUR,,Indonesia,,,,-107.127.956,1.230.576.803,https://maps.google.com/?cid=0x0:0x3bf856e72921851c,
building improvement,Rumah Kaca,Obet nalle,"628H+77Q, Holoama, Kec. Lobalain, Kabupaten Rote Ndao, Nusa Tenggara Tim.","Kabupaten Rote Ndao, Nusa Tenggara Tim.",NUSA TENGGARA TIMUR,,Indonesia,,,,-107.842.888,1.230.282.472,https://maps.google.com/?cid=0x0:0xbba921b7ef0f511a,
building improvement,Rumah Kaca,Bungsu foenale,"646G+QHH, Oematamboli, Kec. Lobalain, Kabupaten Rote Ndao, Nusa Tenggara Tim.","Kabupaten Rote Ndao, Nusa Tenggara Tim.",NUSA TENGGARA TIMUR,,Indonesia,,,,-10.787.715,123.126.685,https://maps.google.com/?cid=0x0:0x9fa7cd7ba948a55a,
building improvement,Bangunan Bersejarah,Dylan Home,"73G2+P4, Metina, Kec. Lobalain, Kabupaten Rote Ndao, Nusa Tenggara Tim.","Kabupaten Rote Ndao, Nusa Tenggara Tim.",NUSA TENGGARA TIMUR,,Indonesia,,,,-107.232.479,1.230.503.741,https://maps.google.com/?cid=0x0:0x40b84ce62096d045,
building improvement,Perusahaan Konstruksi,Las Listrik 135,"Takai, RT.017/RW.008, Sanggaoen, Kec. Lobalain, Kabupaten Rote Ndao, Nusa Tenggara Tim. 85918","RT.017/RW.008, Sanggaoen, Kec. Lobalain, Kabupaten Rote Ndao",NUSA TENGGARA TIMUR,85918.0,Indonesia,85205947991.0,,,-107.723.705,1.230.521.313,https://maps.google.com/?cid=0x0:0x4f53d8d8e3f15589,
building improvement,Dinas Pekerjaan Umum,Dinas Penanaman Modal dan Pelayanan Terpadu Satu Pintu Kab. Rote Ndao,"63R6+93V, Mokdale, Kec. Lobalain, Kabupaten Rote Ndao, Nusa Tenggara Tim.","Kabupaten Rote Ndao, Nusa Tenggara Tim.",NUSA TENGGARA TIMUR,,Indonesia,3808571005.0,,,-107.590.121,1.230.601.627,https://maps.google.com/?cid=0x0:0xf32b5e930acca9b8,
building improvement,Perhimpunan Pengembang Perumahan,Lole,"53PM+H78, Suelain, Kec. Lobalain, Kabupaten Rote Ndao, Nusa Tenggara Tim.","Kabupaten Rote Ndao, Nusa Tenggara Tim.",NUSA TENGGARA TIMUR,,Indonesia,,,,-108.135.875,1.230.832.031,https://maps.google.com/?cid=0x0:0x6ec82672f41a38a8,
building improvement,building improvement,Kec. Lobalain,"Kabupaten Rote Ndao, Nusa Tenggara Tim.","Kabupaten Rote Ndao, Nusa Tenggara Tim.",NUSA TENGGARA TIMUR,,Indonesia,,,,-107.290.879,1.230.460.405,https://maps.google.com/?cid=0x0:0x618add3ee97f8439,
building improvement,Perusahaan Konstruksi,Leovanzha Contractor,"63V7+PH7, Mokdale, Kec. Lobalain, Kabupaten Rote Ndao, Nusa Tenggara Tim.","Kabupaten Rote Ndao, Nusa Tenggara Tim.",NUSA TENGGARA TIMUR,,Indonesia,81338053053.0,,,-107.557.118,1.230.639.071,https://maps.google.com/?cid=0x0:0x98be33eb16a11d9d,
building improvement,Komplek perumahan,Daniel Balukh,"53RR+RP5, Jl. Lingkar selatan, Bebalain, Kec. Lobalain, Kabupaten Rote Ndao, Nusa Tenggara Tim.","Kabupaten Rote Ndao, Nusa Tenggara Tim.",NUSA TENGGARA TIMUR,,Indonesia,,,,-108.074.146,1.230.921.926,https://maps.google.com/?cid=0x0:0x59e2385fbd705640,
building improvement,Tempat Cukur Rambut,Jln ABRi,"63W2+X45, Jl. Abri, Mokdale, Kec. Lobalain, Kabupaten Rote Ndao, Nusa Tenggara Tim.","Kabupaten Rote Ndao, Nusa Tenggara Tim.",NUSA TENGGARA TIMUR,,Indonesia,,,,-107.525.672,1.230.503.672,https://maps.google.com/?cid=0x0:0x834c0973712dce94,
building improvement,Rumah singgah,RonalHome,"73P5+M5R, Metina, Kec. Lobalain, Kabupaten Rote Ndao, Nusa Tenggara Tim.","Kabupaten Rote Ndao, Nusa Tenggara Tim.",NUSA TENGGARA TIMUR,,Indonesia,,,,-107.127.956,1.230.576.803,https://maps.google.com/?cid=0x0:0x3bf856e72921851c,
building improvement,building improvement,Wendy Salean CV New Bilba,"Mukekuku-Danolon, Kec. Rote Tim., Kabupaten Rote Ndao, Nusa Tenggara Tim. 85974","Kec. Rote Tim., Kabupaten Rote Ndao",NUSA TENGGARA TIMUR,85974.0,Indonesia,82147466787.0,,,-106.834.013,123.373.846,https://maps.google.com/?cid=0x0:0x47a2891cbd668b74,
building improvement,Balai Pertemuan Desa,KANTOR DESA LOLEOEN KECAMATAN LOBALAIN KABUPATEN ROTE NDAO,"54V5+2J, Suelain, Kec. Lobalain, Kabupaten Rote Ndao, Nusa Tenggara Tim.","Kabupaten Rote Ndao, Nusa Tenggara Tim.",NUSA TENGGARA TIMUR,,Indonesia,,,,-108.075.391,1.231.090.279,https://maps.google.com/?cid=0x0:0x6e0b4b6796819d74,
building improvement,Rumah Kaca,Obet nalle,"628H+77Q, Holoama, Kec. Lobalain, Kabupaten Rote Ndao, Nusa Tenggara Tim.","Kabupaten Rote Ndao, Nusa Tenggara Tim.",NUSA TENGGARA TIMUR,,Indonesia,,,,-107.842.888,1.230.282.472,https://maps.google.com/?cid=0x0:0xbba921b7ef0f511a,
building improvement,Bangunan Bersejarah,Dylan Home,"73G2+P4, Metina, Kec. Lobalain, Kabupaten Rote Ndao, Nusa Tenggara Tim.","Kabupaten Rote Ndao, Nusa Tenggara Tim.",NUSA TENGGARA TIMUR,,Indonesia,,,,-107.232.479,1.230.503.741,https://maps.google.com/?cid=0x0:0x40b84ce62096d045,
building improvement,Rumah Kaca,Bungsu foenale,"646G+QHH, Oematamboli, Kec. Lobalain, Kabupaten Rote Ndao, Nusa Tenggara Tim.","Kabupaten Rote Ndao, Nusa Tenggara Tim.",NUSA TENGGARA TIMUR,,Indonesia,,,,-10.787.715,123.126.685,https://maps.google.com/?cid=0x0:0x9fa7cd7ba948a55a,
building improvement,Perusahaan Konstruksi,Las Listrik 135,"Takai, RT.017/RW.008, Sanggaoen, Kec. Lobalain, Kabupaten Rote Ndao, Nusa Tenggara Tim. 85918","RT.017/RW.008, Sanggaoen, Kec. Lobalain, Kabupaten Rote Ndao",NUSA TENGGARA TIMUR,85918.0,Indonesia,85205947991.0,,,-107.723.705,1.230.521.313,https://maps.google.com/?cid=0x0:0x4f53d8d8e3f15589,
building improvement,Kompleks Apartemen,Kantor Bupati Rote Ndao,"Mokdale, Kec. Lobalain, Kabupaten Rote Ndao, Nusa Tenggara Tim.","Kabupaten Rote Ndao, Nusa Tenggara Tim.",NUSA TENGGARA TIMUR,,Indonesia,,,,-107.578.072,1.230.626.013,https://maps.google.com/?cid=0x0:0x7fcc8a717349d22b,
building improvement,Dinas Pekerjaan Umum,Dinas Penanaman Modal dan Pelayanan Terpadu Satu Pintu Kab. Rote Ndao,"63R6+93V, Mokdale, Kec. Lobalain, Kabupaten Rote Ndao, Nusa Tenggara Tim.","Kabupaten Rote Ndao, Nusa Tenggara Tim.",NUSA TENGGARA TIMUR,,Indonesia,3808571005.0,,,-107.590.121,1.230.601.627,https://maps.google.com/?cid=0x0:0xf32b5e930acca9b8,
building improvement,Minimarket,Rumah Lintan adu,"628H+77Q, Tasioen desa, Holoama, Kec. Lobalain, Kabupaten Rote Ndao, Nusa Tenggara Tim.","Kabupaten Rote Ndao, Nusa Tenggara Tim.",NUSA TENGGARA TIMUR,,Indonesia,,,,-107.842.888,1.230.282.472,https://maps.google.com/?cid=0x0:0x5fc45ce9b8174813,
building improvement,Perhimpunan Pengembang Perumahan,Lole,"53PM+H78, Suelain, Kec. Lobalain, Kabupaten Rote Ndao, Nusa Tenggara Tim.","Kabupaten Rote Ndao, Nusa Tenggara Tim.",NUSA TENGGARA TIMUR,,Indonesia,,,,-108.135.875,1.230.832.031,https://maps.google.com/?cid=0x0:0x6ec82672f41a38a8,
building improvement,building improvement,Kec. Lobalain,"Kabupaten Rote Ndao, Nusa Tenggara Tim.","Kabupaten Rote Ndao, Nusa Tenggara Tim.",NUSA TENGGARA TIMUR,,Indonesia,,,,-107.290.879,1.230.460.405,https://maps.google.com/?cid=0x0:0x618add3ee97f8439,
building improvement,Perusahaan Konstruksi,Leovanzha Contractor,"63V7+PH7, Mokdale, Kec. Lobalain, Kabupaten Rote Ndao, Nusa Tenggara Tim.","Kabupaten Rote Ndao, Nusa Tenggara Tim.",NUSA TENGGARA TIMUR,,Indonesia,81338053053.0,,,-107.557.118,1.230.639.071,https://maps.google.com/?cid=0x0:0x98be33eb16a11d9d,
building improvement,Tempat Cukur Rambut,Jln ABRi,"63W2+X45, Jl. Abri, Mokdale, Kec. Lobalain, Kabupaten Rote Ndao, Nusa Tenggara Tim.","Kabupaten Rote Ndao, Nusa Tenggara Tim.",NUSA TENGGARA TIMUR,,Indonesia,,,,-107.525.672,1.230.503.672,https://maps.google.com/?cid=0x0:0x834c0973712dce94,
building improvement,Rumah Kaca,Obet nalle,"628H+77Q, Holoama, Kec. Lobalain, Kabupaten Rote Ndao, Nusa Tenggara Tim.","Kabupaten Rote Ndao, Nusa Tenggara Tim.",NUSA TENGGARA TIMUR,,Indonesia,,,,-107.842.888,1.230.282.472,https://maps.google.com/?cid=0x0:0xbba921b7ef0f511a,
building improvement,Rumah Kaca,Bungsu foenale,"646G+QHH, Oematamboli, Kec. Lobalain, Kabupaten Rote Ndao, Nusa Tenggara Tim.","Kabupaten Rote Ndao, Nusa Tenggara Tim.",NUSA TENGGARA TIMUR,,Indonesia,,,,-10.787.715,123.126.685,https://maps.google.com/?cid=0x0:0x9fa7cd7ba948a55a,
building improvement,Bangunan Bersejarah,Dylan Home,"73G2+P4, Metina, Kec. Lobalain, Kabupaten Rote Ndao, Nusa Tenggara Tim.","Kabupaten Rote Ndao, Nusa Tenggara Tim.",NUSA TENGGARA TIMUR,,Indonesia,,,,-107.232.479,1.230.503.741,https://maps.google.com/?cid=0x0:0x40b84ce62096d045,
building improvement,Perusahaan Konstruksi,Las Listrik 135,"Takai, RT.017/RW.008, Sanggaoen, Kec. Lobalain, Kabupaten Rote Ndao, Nusa Tenggara Tim. 85918","RT.017/RW.008, Sanggaoen, Kec. Lobalain, Kabupaten Rote Ndao",NUSA TENGGARA TIMUR,85918.0,Indonesia,85205947991.0,,,-107.723.705,1.230.521.313,https://maps.google.com/?cid=0x0:0x4f53d8d8e3f15589,
building improvement,Komplek perumahan,Daniel Balukh,"53RR+RP5, Jl. Lingkar selatan, Bebalain, Kec. Lobalain, Kabupaten Rote Ndao, Nusa Tenggara Tim.","Kabupaten Rote Ndao, Nusa Tenggara Tim.",NUSA TENGGARA TIMUR,,Indonesia,,,,-108.074.146,1.230.921.926,https://maps.google.com/?cid=0x0:0x59e2385fbd705640,
building improvement,Komplek perumahan,Rumah Semuael Balukh  Loisa Manukoa,"53RR+VQC, Suelain, Kec. Lobalain, Kabupaten Rote Ndao, Nusa Tenggara Tim.","Kabupaten Rote Ndao, Nusa Tenggara Tim.",NUSA TENGGARA TIMUR,,Indonesia,,,,-108.078.078,1.230.919.006,https://maps.google.com/?cid=0x0:0x7d46ed6c2d0a322b,
building improvement,building improvement,Kec. Lobalain,"Kabupaten Rote Ndao, Nusa Tenggara Tim.","Kabupaten Rote Ndao, Nusa Tenggara Tim.",NUSA TENGGARA TIMUR,,Indonesia,,,,-107.290.879,1.230.460.405,https://maps.google.com/?cid=0x0:0x618add3ee97f8439,
building improvement,Perusahaan Konstruksi,Leovanzha Contractor,"63V7+PH7, Mokdale, Kec. Lobalain, Kabupaten Rote Ndao, Nusa Tenggara Tim.","Kabupaten Rote Ndao, Nusa Tenggara Tim.",NUSA TENGGARA TIMUR,,Indonesia,81338053053.0,,,-107.557.118,1.230.639.071,https://maps.google.com/?cid=0x0:0x98be33eb16a11d9d,
building improvement,Komplek perumahan,Daniel Balukh,"53RR+RP5, Jl. Lingkar selatan, Bebalain, Kec. Lobalain, Kabupaten Rote Ndao, Nusa Tenggara Tim.","Kabupaten Rote Ndao, Nusa Tenggara Tim.",NUSA TENGGARA TIMUR,,Indonesia,,,,-108.074.146,1.230.921.926,https://maps.google.com/?cid=0x0:0x59e2385fbd705640,
building improvement,Komplek perumahan,Rumah Semuael Balukh  Loisa Manukoa,"53RR+VQC, Suelain, Kec. Lobalain, Kabupaten Rote Ndao, Nusa Tenggara Tim.","Kabupaten Rote Ndao, Nusa Tenggara Tim.",NUSA TENGGARA TIMUR,,Indonesia,,,,-108.078.078,1.230.919.006,https://maps.google.com/?cid=0x0:0x7d46ed6c2d0a322b,
building improvement,Perusahaan Konstruksi,Las Listrik 135,"Takai, RT.017/RW.008, Sanggaoen, Kec. Lobalain, Kabupaten Rote Ndao, Nusa Tenggara Tim. 85918","RT.017/RW.008, Sanggaoen, Kec. Lobalain, Kabupaten Rote Ndao",NUSA TENGGARA TIMUR,85918.0,Indonesia,85205947991.0,,,-107.723.705,1.230.521.313,https://maps.google.com/?cid=0x0:0x4f53d8d8e3f15589,
building improvement,Rumah singgah,RonalHome,"73P5+M5R, Metina, Kec. Lobalain, Kabupaten Rote Ndao, Nusa Tenggara Tim.","Kabupaten Rote Ndao, Nusa Tenggara Tim.",NUSA TENGGARA TIMUR,,Indonesia,,,,-107.127.956,1.230.576.803,https://maps.google.com/?cid=0x0:0x3bf856e72921851c,
building improvement,Rumah Kaca,Bungsu foenale,"646G+QHH, Oematamboli, Kec. Lobalain, Kabupaten Rote Ndao, Nusa Tenggara Tim.","Kabupaten Rote Ndao, Nusa Tenggara Tim.",NUSA TENGGARA TIMUR,,Indonesia,,,,-10.787.715,123.126.685,https://maps.google.com/?cid=0x0:0x9fa7cd7ba948a55a,
building improvement,Bangunan Bersejarah,Dylan Home,"73G2+P4, Metina, Kec. Lobalain, Kabupaten Rote Ndao, Nusa Tenggara Tim.","Kabupaten Rote Ndao, Nusa Tenggara Tim.",NUSA TENGGARA TIMUR,,Indonesia,,,,-107.232.479,1.230.503.741,https://maps.google.com/?cid=0x0:0x40b84ce62096d045,
building improvement,building improvement,Kec. Lobalain,"Kabupaten Rote Ndao, Nusa Tenggara Tim.","Kabupaten Rote Ndao, Nusa Tenggara Tim.",NUSA TENGGARA TIMUR,,Indonesia,,,,-107.290.879,1.230.460.405,https://maps.google.com/?cid=0x0:0x618add3ee97f8439,
building improvement,Perusahaan Konstruksi,Leovanzha Contractor,"63V7+PH7, Mokdale, Kec. Lobalain, Kabupaten Rote Ndao, Nusa Tenggara Tim.","Kabupaten Rote Ndao, Nusa Tenggara Tim.",NUSA TENGGARA TIMUR,,Indonesia,81338053053.0,,,-107.557.118,1.230.639.071,https://maps.google.com/?cid=0x0:0x98be33eb16a11d9d,
building improvement,Tempat Cukur Rambut,Jln ABRi,"63W2+X45, Jl. Abri, Mokdale, Kec. Lobalain, Kabupaten Rote Ndao, Nusa Tenggara Tim.","Kabupaten Rote Ndao, Nusa Tenggara Tim.",NUSA TENGGARA TIMUR,,Indonesia,,,,-107.525.672,1.230.503.672,https://maps.google.com/?cid=0x0:0x834c0973712dce94,
building improvement,Perusahaan Konstruksi,Las Listrik 135,"Takai, RT.017/RW.008, Sanggaoen, Kec. Lobalain, Kabupaten Rote Ndao, Nusa Tenggara Tim. 85918","RT.017/RW.008, Sanggaoen, Kec. Lobalain, Kabupaten Rote Ndao",NUSA TENGGARA TIMUR,85918.0,Indonesia,85205947991.0,,,-107.723.705,1.230.521.313,https://maps.google.com/?cid=0x0:0x4f53d8d8e3f15589,
building improvement,Rumah singgah,RonalHome,"73P5+M5R, Metina, Kec. Lobalain, Kabupaten Rote Ndao, Nusa Tenggara Tim.","Kabupaten Rote Ndao, Nusa Tenggara Tim.",NUSA TENGGARA TIMUR,,Indonesia,,,,-107.127.956,1.230.576.803,https://maps.google.com/?cid=0x0:0x3bf856e72921851c,
building improvement,Rumah Kaca,Obet nalle,"628H+77Q, Holoama, Kec. Lobalain, Kabupaten Rote Ndao, Nusa Tenggara Tim.","Kabupaten Rote Ndao, Nusa Tenggara Tim.",NUSA TENGGARA TIMUR,,Indonesia,,,,-107.842.888,1.230.282.472,https://maps.google.com/?cid=0x0:0xbba921b7ef0f511a,
building improvement,Bangunan Bersejarah,Dylan Home,"73G2+P4, Metina, Kec. Lobalain, Kabupaten Rote Ndao, Nusa Tenggara Tim.","Kabupaten Rote Ndao, Nusa Tenggara Tim.",NUSA TENGGARA TIMUR,,Indonesia,,,,-107.232.479,1.230.503.741,https://maps.google.com/?cid=0x0:0x40b84ce62096d045,
building improvement,Rumah Kaca,Bungsu foenale,"646G+QHH, Oematamboli, Kec. Lobalain, Kabupaten Rote Ndao, Nusa Tenggara Tim.","Kabupaten Rote Ndao, Nusa Tenggara Tim.",NUSA TENGGARA TIMUR,,Indonesia,,,,-10.787.715,123.126.685,https://maps.google.com/?cid=0x0:0x9fa7cd7ba948a55a,
building improvement,Kompleks Apartemen,Kantor Bupati Rote Ndao,"Mokdale, Kec. Lobalain, Kabupaten Rote Ndao, Nusa Tenggara Tim.","Kabupaten Rote Ndao, Nusa Tenggara Tim.",NUSA TENGGARA TIMUR,,Indonesia,,,,-107.578.072,1.230.626.013,https://maps.google.com/?cid=0x0:0x7fcc8a717349d22b,
building improvement,Dinas Pekerjaan Umum,Dinas Penanaman Modal dan Pelayanan Terpadu Satu Pintu Kab. Rote Ndao,"63R6+93V, Mokdale, Kec. Lobalain, Kabupaten Rote Ndao, Nusa Tenggara Tim.","Kabupaten Rote Ndao, Nusa Tenggara Tim.",NUSA TENGGARA TIMUR,,Indonesia,3808571005.0,,,-107.590.121,1.230.601.627,https://maps.google.com/?cid=0x0:0xf32b5e930acca9b8,
building improvement,Minimarket,Rumah Lintan adu,"628H+77Q, Tasioen desa, Holoama, Kec. Lobalain, Kabupaten Rote Ndao, Nusa Tenggara Tim.","Kabupaten Rote Ndao, Nusa Tenggara Tim.",NUSA TENGGARA TIMUR,,Indonesia,,,,-107.842.888,1.230.282.472,https://maps.google.com/?cid=0x0:0x5fc45ce9b8174813,
building improvement,Pembangunan Perumahan,Soleman Suy,"4WH7+V36, Jalan Salib Masioba, Barat Daya, Kabupaten Rote Ndao, Nusa Tenggara Tim., Lalukoen, Rote Barat Daya, Rote Ndao Regency, East Nusa Tenggara","Kabupaten Rote Ndao, Nusa Tenggara Tim.",NUSA TENGGARA TIMUR,,Indonesia,81326184392.0,,,-108.703.295,1.229.126.295,https://maps.google.com/?cid=0x0:0x7fef8ad947835aa4,
building improvement,Perhimpunan Pengembang Perumahan,Lole,"53PM+H78, Suelain, Kec. Lobalain, Kabupaten Rote Ndao, Nusa Tenggara Tim.","Kabupaten Rote Ndao, Nusa Tenggara Tim.",NUSA TENGGARA TIMUR,,Indonesia,,,,-108.135.875,1.230.832.031,https://maps.google.com/?cid=0x0:0x6ec82672f41a38a8,
building improvement,Balai Pertemuan Desa,KANTOR DESA LOLEOEN KECAMATAN LOBALAIN KABUPATEN ROTE NDAO,"54V5+2J, Suelain, Kec. Lobalain, Kabupaten Rote Ndao, Nusa Tenggara Tim.","Kabupaten Rote Ndao, Nusa Tenggara Tim.",NUSA TENGGARA TIMUR,,Indonesia,,,,-108.075.391,1.231.090.279,https://maps.google.com/?cid=0x0:0x6e0b4b6796819d74,
building improvement,Komplek perumahan,Daniel Balukh,"53RR+RP5, Jl. Lingkar selatan, Bebalain, Kec. Lobalain, Kabupaten Rote Ndao, Nusa Tenggara Tim.","Kabupaten Rote Ndao, Nusa Tenggara Tim.",NUSA TENGGARA TIMUR,,Indonesia,,,,-108.074.146,1.230.921.926,https://maps.google.com/?cid=0x0:0x59e2385fbd705640,
building improvement,building improvement,Kec. Rote Tengah,"Kabupaten Rote Ndao, Nusa Tenggara Tim.","Kabupaten Rote Ndao, Nusa Tenggara Tim.",NUSA TENGGARA TIMUR,,Indonesia,,,,-106.702.912,1.231.279.559,https://maps.google.com/?cid=0x0:0x44ac523cb3546567,
building improvement,building improvement,New Hotel Ricky,"72FX+83Q, Onotali, Kec. Rote Tengah, Kabupaten Rote Ndao, Nusa Tenggara Tim.","Kabupaten Rote Ndao, Nusa Tenggara Tim.",NUSA TENGGARA TIMUR,,Indonesia,81331450005.0,,,-107.266.555,1.230.477.495,https://maps.google.com/?cid=0x0:0x8d7387bc103c64f4,
building improvement,Tujuan Wisata,Batu Termanu,"83GW+83H, Onotali, Kec. Rote Tengah, Kabupaten Rote Ndao, Nusa Tenggara Tim.","Kabupaten Rote Ndao, Nusa Tenggara Tim.",NUSA TENGGARA TIMUR,,Indonesia,,,,-106.741.859,1.230.952.443,https://maps.google.com/?cid=0x0:0x6f48315944dabb10,
building improvement,building improvement,Wendy Salean CV New Bilba,"Mukekuku-Danolon, Kec. Rote Tim., Kabupaten Rote Ndao, Nusa Tenggara Tim. 85974","Kec. Rote Tim., Kabupaten Rote Ndao",NUSA TENGGARA TIMUR,85974.0,Indonesia,82147466787.0,,,-106.834.013,123.373.846,https://maps.google.com/?cid=0x0:0x47a2891cbd668b74,
building improvement,building improvement,Kec. Rote Tim.,"Kabupaten Rote Ndao, Nusa Tenggara Tim.","Kabupaten Rote Ndao, Nusa Tenggara Tim.",NUSA TENGGARA TIMUR,,Indonesia,,,,-106.018.337,1.233.792.441,https://maps.google.com/?cid=0x0:0x20409773de900efa,
building improvement,Area Mendaki,ROBI ADU HOME,"5X8P+7V, Oebatu, Kec. Rote Bar. Daya, Kabupaten Rote Ndao, Nusa Tenggara Tim.","Kabupaten Rote Ndao, Nusa Tenggara Tim.",NUSA TENGGARA TIMUR,,Indonesia,,,,-108.343.726,1.229.871.546,https://maps.google.com/?cid=0x0:0x410d11ef9ee877db,
building improvement,Area Mendaki,Rumah guto,"5X7V+9XR, Unnamed Road, Oebatu, Kec. Rote Bar. Daya, Kabupaten Rote Ndao, Nusa Tenggara Tim.","Kabupaten Rote Ndao, Nusa Tenggara Tim.",NUSA TENGGARA TIMUR,,Indonesia,,,,-108.365.153,1.229.948.901,https://maps.google.com/?cid=0x0:0x2042dc763d7e1ff8,
building improvement,building improvement,Kec. Rote Bar.,"Kabupaten Rote Ndao, Nusa Tenggara Tim.","Kabupaten Rote Ndao, Nusa Tenggara Tim.",NUSA TENGGARA TIMUR,,Indonesia,,,,-108.858.919,1.228.260.101,https://maps.google.com/?cid=0x0:0x20873fb50a5b50f7,
building improvement,building improvement,Kec. Rote Bar.,"Kabupaten Rote Ndao, Nusa Tenggara Tim.","Kabupaten Rote Ndao, Nusa Tenggara Tim.",NUSA TENGGARA TIMUR,,Indonesia,,,,-108.858.919,1.228.260.101,https://maps.google.com/?cid=0x0:0x20873fb50a5b50f7,
building improvement,building improvement,LONTAR PROPERTY ROTE,"4R4F+G79, Nemberala, Kec. Rote Bar., Kabupaten Rote Ndao, Nusa Tenggara Tim. 85982","Nemberala, Kec. Rote Bar., Kabupaten Rote Ndao",NUSA TENGGARA TIMUR,85982.0,Indonesia,81339932867.0,,,-108.936.875,1.228.231.875,https://maps.google.com/?cid=0x0:0x55cd67c772391075,
building improvement,Komplek perumahan,"Tiang teras rumah,Loster dan batako","42X8+7G2, Desa oelasin.kecamatan Rote barat daya, Dusun fau barat, langgoen, Kabupaten Rote Ndao, Nusa Tenggara Tim. 85985","Desa oelasin.kecamatan Rote barat daya, Dusun fau barat, langgoen, Kabupaten Rote Ndao",NUSA TENGGARA TIMUR,85985.0,Indonesia,81398303641.0,,,-108.518.562,1.230.162.764,https://maps.google.com/?cid=0x0:0x237e608ad9c4390c,
building improvement,Area Mendaki,ROBI ADU HOME,"5X8P+7V, Oebatu, Kec. Rote Bar. Daya, Kabupaten Rote Ndao, Nusa Tenggara Tim.","Kabupaten Rote Ndao, Nusa Tenggara Tim.",NUSA TENGGARA TIMUR,,Indonesia,,,,-108.343.726,1.229.871.546,https://maps.google.com/?cid=0x0:0x410d11ef9ee877db,
building improvement,building improvement,Kec. Rote Sel.,"Kabupaten Rote Ndao, Nusa Tenggara Tim.","Kabupaten Rote Ndao, Nusa Tenggara Tim.",NUSA TENGGARA TIMUR,,Indonesia,,,,-107.849.831,1.231.594.105,https://maps.google.com/?cid=0x0:0x57324d947a721c0a,
building improvement,building improvement,Ndao Nuse,"Kec. Ndao Nuse, Kabupaten Rote Ndao, Nusa Tenggara Tim.","Kabupaten Rote Ndao, Nusa Tenggara Tim.",NUSA TENGGARA TIMUR,,Indonesia,,,,-108.311.123,1.227.379.001,https://maps.google.com/?cid=0x0:0xa599a843e70bb45a,
building improvement,building improvement,Kec. Ndao Nuse,"Ndao Nuse, Kabupaten Rote Ndao, Nusa Tenggara Tim.","Kabupaten Rote Ndao, Nusa Tenggara Tim.",NUSA TENGGARA TIMUR,,Indonesia,,,,-108.168.497,1.226.672.521,https://maps.google.com/?cid=0x0:0x9d585f1fd1968a49,
building improvement,building improvement,Kec. Landu Leko,"Kabupaten Rote Ndao, Nusa Tenggara Tim.","Kabupaten Rote Ndao, Nusa Tenggara Tim.",NUSA TENGGARA TIMUR,,Indonesia,,,,-105.683.899,1.233.761.005,https://maps.google.com/?cid=0x0:0x2770e84300ca8ac7,
building improvement,building improvement,Kec. Pantai Baru,"Kabupaten Rote Ndao, Nusa Tenggara Tim.","Kabupaten Rote Ndao, Nusa Tenggara Tim.",NUSA TENGGARA TIMUR,,Indonesia,,,,-107.134.149,1.232.926.241,https://maps.google.com/?cid=0x0:0x1cee30470e179e69,
building improvement,Tujuan Wisata,Pantai baru,"Jl. Pantai Baru, Ngentak, Poncosari, Kec. Srandakan, Kabupaten Bantul, Daerah Istimewa Yogyakarta 55762","Ngentak, Poncosari, Kec. Srandakan, Kabupaten Bantul",NUSA TENGGARA TIMUR,55762.0,Indonesia,,,,-79.889.745,1.102.210.588,https://maps.google.com/?cid=0x0:0xec52c7a5cf80c536,
building improvement,Tujuan Wisata,Pantai Kuwaru,"Kawaru, Poncosari, Kec. Srandakan, Kabupaten Bantul, Daerah Istimewa Yogyakarta 55762","Poncosari, Kec. Srandakan, Kabupaten Bantul",NUSA TENGGARA TIMUR,55762.0,Indonesia,,,,-79.903.041,1.102.263.882,https://maps.google.com/?cid=0x0:0xf52a57f605404c70,
hardware store,hardware store,Kec. Rote Bar. Daya,"Kabupaten Rote Ndao, Nusa Tenggara Tim.","Kabupaten Rote Ndao, Nusa Tenggara Tim.",NUSA TENGGARA TIMUR,,Indonesia,,,,-108.599.138,1.230.152.055,https://maps.google.com/?cid=0x0:0xc8d7144834ab28c0,
hardware store,Toko Bahan Bangunan,CV. Tujuh Jaya,"723W+C6P, Unnamed Rd, Mokdale, Kec. Lobalain, Kabupaten Rote Ndao, Nusa Tenggara Tim.","Kabupaten Rote Ndao, Nusa Tenggara Tim.",NUSA TENGGARA TIMUR,,Indonesia,,,,-107.464.098,12.304.558,https://maps.google.com/?cid=0x0:0x575a85c650ddf9e4,
hardware store,Minimarket,toko hebron,"725V+CW9, Unnamed Rd, Mokdale, Kec. Lobalain, Kabupaten Rote Ndao, Nusa Tenggara Tim.","Kabupaten Rote Ndao, Nusa Tenggara Tim.",NUSA TENGGARA TIMUR,,Indonesia,,,,-107.414.723,1.230.448.675,https://maps.google.com/?cid=0x0:0x699558aa9d2e663a,
hardware store,,KIOS GLORIA,"62QP+J44, Rote, Ba, Blok a, Sanggaoen, Kec. Lobalain, Kabupaten Rote Ndao, Nusa Tenggara Tim.","Kabupaten Rote Ndao, Nusa Tenggara Tim.",NUSA TENGGARA TIMUR,,Indonesia,81280240480.0,,,-107.609.752,1.230.353.288,https://maps.google.com/?cid=0x0:0x63aaef4ff2b4032c,
hardware store,hardware store,UD. AISELE,"4WM5+PMR, Jalan Baa-Nemberala, Lalukoen, Kec. Rote Bar. Daya, Kabupaten Rote Ndao, Nusa Tenggara Tim.","Kabupaten Rote Ndao, Nusa Tenggara Tim.",NUSA TENGGARA TIMUR,,Indonesia,,,,-108.656.366,1.229.091.322,https://maps.google.com/?cid=0x0:0x76e4309145ce22bb,
hardware store,hardware store,Toko Zebada,"62RQ+X53, Mokdale, Kec. Lobalain, Kabupaten Rote Ndao, Nusa Tenggara Tim.","Kabupaten Rote Ndao, Nusa Tenggara Tim.",NUSA TENGGARA TIMUR,,Indonesia,,,,-107.576.161,1.230.379.074,https://maps.google.com/?cid=0x0:0x6a53e34db7a737ed,
hardware store,hardware store,CV .Timor Jaya Makmur,"Jl. Baa Busalangga, Mokdale, Kec. Lobalain, Kabupaten Rote Ndao, Nusa Tenggara Tim. 85911","Mokdale, Kec. Lobalain, Kabupaten Rote Ndao",NUSA TENGGARA TIMUR,85911.0,Indonesia,81236375011.0,,,-107.510.458,1.230.429.039,https://maps.google.com/?cid=0x0:0xaf2bb4f12467828e,
hardware store,Toko Alat Tulis Kantor,Toko Ebenhaezer Rote,"725W+772, Mokdale, Kec. Lobalain, Kabupaten Rote Ndao, Nusa Tenggara Tim.","Kabupaten Rote Ndao, Nusa Tenggara Tim.",NUSA TENGGARA TIMUR,,Indonesia,,,,-107.418.663,1.230.456.442,https://maps.google.com/?cid=0x0:0x9bd1994397bb8e5c,
hardware store,Rumah Sakit,Toko Elim Jaya,"722V+4F6, Jl. Baa Busalangga, Mokdale, Kec. Lobalain, Kabupaten Rote Ndao, Nusa Tenggara Tim.","Kabupaten Rote Ndao, Nusa Tenggara Tim.",NUSA TENGGARA TIMUR,,Indonesia,81339338888.0,,,-107.529.719,1.230.419.021,https://maps.google.com/?cid=0x0:0x42543e6a746c84fb,
hardware store,Minimarket,Dolarosa,"4R5F+VVX, Unnamed Road, Nemberala, Kec. Rote Bar., Kabupaten Rote Ndao, Nusa Tenggara Tim.","Kabupaten Rote Ndao, Nusa Tenggara Tim.",NUSA TENGGARA TIMUR,,Indonesia,,,,-108.902.703,1.228.247.242,https://maps.google.com/?cid=0x0:0x212998d69c754fd,
hardware store,Toko Alat Tulis Kantor,Toko Kasih Rote,"724W+5X8, Jl. Baa Busalangga, Mokdale, Kec. Lobalain, Kabupaten Rote Ndao, Nusa Tenggara Tim.","Kabupaten Rote Ndao, Nusa Tenggara Tim.",NUSA TENGGARA TIMUR,,Indonesia,81236689755.0,,,-107.445.946,1.230.474.673,https://maps.google.com/?cid=0x0:0x2e8520d08f0ff3e3,
hardware store,hardware store,Kec. Rote Bar. Laut,"Kabupaten Rote Ndao, Nusa Tenggara Tim.","Kabupaten Rote Ndao, Nusa Tenggara Tim.",NUSA TENGGARA TIMUR,,Indonesia,,,,-107.597.977,1.229.182.941,https://maps.google.com/?cid=0x0:0xf1092e07a83097a2,
hardware store,Toko Bahan Bangunan,CV. Tujuh Jaya,"723W+C6P, Unnamed Rd, Mokdale, Kec. Lobalain, Kabupaten Rote Ndao, Nusa Tenggara Tim.","Kabupaten Rote Ndao, Nusa Tenggara Tim.",NUSA TENGGARA TIMUR,,Indonesia,,,,-107.464.098,12.304.558,https://maps.google.com/?cid=0x0:0x575a85c650ddf9e4,
hardware store,Minimarket,toko hebron,"725V+CW9, Unnamed Rd, Mokdale, Kec. Lobalain, Kabupaten Rote Ndao, Nusa Tenggara Tim.","Kabupaten Rote Ndao, Nusa Tenggara Tim.",NUSA TENGGARA TIMUR,,Indonesia,,,,-107.414.723,1.230.448.675,https://maps.google.com/?cid=0x0:0x699558aa9d2e663a,
hardware store,Toko Bahan Bangunan,UD TUJUH JAYA BANGUNAN I,"72GX+8M5, Metina, Kec. Lobalain, Kabupaten Rote Ndao, Nusa Tenggara Tim.","Kabupaten Rote Ndao, Nusa Tenggara Tim.",NUSA TENGGARA TIMUR,,Indonesia,,,,-107.242.448,1.230.492.313,https://maps.google.com/?cid=0x0:0xca85d779b23c1d9d,
hardware store,hardware store,UD. AISELE,"4WM5+PMR, Jalan Baa-Nemberala, Lalukoen, Kec. Rote Bar. Daya, Kabupaten Rote Ndao, Nusa Tenggara Tim.","Kabupaten Rote Ndao, Nusa Tenggara Tim.",NUSA TENGGARA TIMUR,,Indonesia,,,,-108.656.366,1.229.091.322,https://maps.google.com/?cid=0x0:0x76e4309145ce22bb,
hardware store,hardware store,Toko Zebada,"62RQ+X53, Mokdale, Kec. Lobalain, Kabupaten Rote Ndao, Nusa Tenggara Tim.","Kabupaten Rote Ndao, Nusa Tenggara Tim.",NUSA TENGGARA TIMUR,,Indonesia,,,,-107.576.161,1.230.379.074,https://maps.google.com/?cid=0x0:0x6a53e34db7a737ed,
hardware store,Rumah Sakit,Toko Elim Jaya,"722V+4F6, Jl. Baa Busalangga, Mokdale, Kec. Lobalain, Kabupaten Rote Ndao, Nusa Tenggara Tim.","Kabupaten Rote Ndao, Nusa Tenggara Tim.",NUSA TENGGARA TIMUR,,Indonesia,81339338888.0,,,-107.529.719,1.230.419.021,https://maps.google.com/?cid=0x0:0x42543e6a746c84fb,
hardware store,Toko Alat Tulis Kantor,Toko Ebenhaezer Rote,"725W+772, Mokdale, Kec. Lobalain, Kabupaten Rote Ndao, Nusa Tenggara Tim.","Kabupaten Rote Ndao, Nusa Tenggara Tim.",NUSA TENGGARA TIMUR,,Indonesia,,,,-107.418.663,1.230.456.442,https://maps.google.com/?cid=0x0:0x9bd1994397bb8e5c,
hardware store,hardware store,CV .Timor Jaya Makmur,"Jl. Baa Busalangga, Mokdale, Kec. Lobalain, Kabupaten Rote Ndao, Nusa Tenggara Tim. 85911","Mokdale, Kec. Lobalain, Kabupaten Rote Ndao",NUSA TENGGARA TIMUR,85911.0,Indonesia,81236375011.0,,,-107.510.458,1.230.429.039,https://maps.google.com/?cid=0x0:0xaf2bb4f12467828e,
hardware store,Pembangunan Perumahan,Oenggelak,"6XW2+JG, Netenaen, Kec. Rote Bar. Laut, Kabupaten Rote Ndao, Nusa Tenggara Tim.","Kabupaten Rote Ndao, Nusa Tenggara Tim.",NUSA TENGGARA TIMUR,,Indonesia,,,,-107.533.948,1.229.512.824,https://maps.google.com/?cid=0x0:0xd09165a2c0ede32f,
hardware store,Minimarket,Dolarosa,"4R5F+VVX, Unnamed Road, Nemberala, Kec. Rote Bar., Kabupaten Rote Ndao, Nusa Tenggara Tim.","Kabupaten Rote Ndao, Nusa Tenggara Tim.",NUSA TENGGARA TIMUR,,Indonesia,,,,-108.902.703,1.228.247.242,https://maps.google.com/?cid=0x0:0x212998d69c754fd,
hardware store,Toko Alat Tulis Kantor,Toko Kasih Rote,"724W+5X8, Jl. Baa Busalangga, Mokdale, Kec. Lobalain, Kabupaten Rote Ndao, Nusa Tenggara Tim.","Kabupaten Rote Ndao, Nusa Tenggara Tim.",NUSA TENGGARA TIMUR,,Indonesia,81236689755.0,,,-107.445.946,1.230.474.673,https://maps.google.com/?cid=0x0:0x2e8520d08f0ff3e3,
hardware store,hardware store,Kec. Lobalain,"Kabupaten Rote Ndao, Nusa Tenggara Tim.","Kabupaten Rote Ndao, Nusa Tenggara Tim.",NUSA TENGGARA TIMUR,,Indonesia,,,,-107.290.879,1.230.460.405,https://maps.google.com/?cid=0x0:0x618add3ee97f8439,
hardware store,Minimarket,toko hebron,"725V+CW9, Unnamed Rd, Mokdale, Kec. Lobalain, Kabupaten Rote Ndao, Nusa Tenggara Tim.","Kabupaten Rote Ndao, Nusa Tenggara Tim.",NUSA TENGGARA TIMUR,,Indonesia,,,,-107.414.723,1.230.448.675,https://maps.google.com/?cid=0x0:0x699558aa9d2e663a,
hardware store,hardware store,CV .Timor Jaya Makmur,"Jl. Baa Busalangga, Mokdale, Kec. Lobalain, Kabupaten Rote Ndao, Nusa Tenggara Tim. 85911","Mokdale, Kec. Lobalain, Kabupaten Rote Ndao",NUSA TENGGARA TIMUR,85911.0,Indonesia,81236375011.0,,,-107.510.458,1.230.429.039,https://maps.google.com/?cid=0x0:0xaf2bb4f12467828e,
hardware store,Rumah Sakit,Toko Elim Jaya,"722V+4F6, Jl. Baa Busalangga, Mokdale, Kec. Lobalain, Kabupaten Rote Ndao, Nusa Tenggara Tim.","Kabupaten Rote Ndao, Nusa Tenggara Tim.",NUSA TENGGARA TIMUR,,Indonesia,81339338888.0,,,-107.529.719,1.230.419.021,https://maps.google.com/?cid=0x0:0x42543e6a746c84fb,
hardware store,Toko Bahan Bangunan,UD TUJUH JAYA BANGUNAN I,"72GX+8M5, Metina, Kec. Lobalain, Kabupaten Rote Ndao, Nusa Tenggara Tim.","Kabupaten Rote Ndao, Nusa Tenggara Tim.",NUSA TENGGARA TIMUR,,Indonesia,,,,-107.242.448,1.230.492.313,https://maps.google.com/?cid=0x0:0xca85d779b23c1d9d,
hardware store,,KIOS GLORIA,"62QP+J44, Rote, Ba, Blok a, Sanggaoen, Kec. Lobalain, Kabupaten Rote Ndao, Nusa Tenggara Tim.","Kabupaten Rote Ndao, Nusa Tenggara Tim.",NUSA TENGGARA TIMUR,,Indonesia,81280240480.0,,,-107.609.752,1.230.353.288,https://maps.google.com/?cid=0x0:0x63aaef4ff2b4032c,
hardware store,Toko Alat Tulis Kantor,Toko Ebenhaezer Rote,"725W+772, Mokdale, Kec. Lobalain, Kabupaten Rote Ndao, Nusa Tenggara Tim.","Kabupaten Rote Ndao, Nusa Tenggara Tim.",NUSA TENGGARA TIMUR,,Indonesia,,,,-107.418.663,1.230.456.442,https://maps.google.com/?cid=0x0:0x9bd1994397bb8e5c,
hardware store,Toko Bahan Bangunan,Dewa gunshop,"65W8+5C, Lidamanu, Kec. Rote Tengah, Kabupaten Rote Ndao, Nusa Tenggara Tim.","Kabupaten Rote Ndao, Nusa Tenggara Tim.",NUSA TENGGARA TIMUR,,Indonesia,,,,-107.545.812,1.231.660.526,https://maps.google.com/?cid=0x0:0x79b6addc4752e06a,
hardware store,hardware store,Kec. Lobalain,"Kabupaten Rote Ndao, Nusa Tenggara Tim.","Kabupaten Rote Ndao, Nusa Tenggara Tim.",NUSA TENGGARA TIMUR,,Indonesia,,,,-107.290.879,1.230.460.405,https://maps.google.com/?cid=0x0:0x618add3ee97f8439,
hardware store,Minimarket,toko hebron,"725V+CW9, Unnamed Rd, Mokdale, Kec. Lobalain, Kabupaten Rote Ndao, Nusa Tenggara Tim.","Kabupaten Rote Ndao, Nusa Tenggara Tim.",NUSA TENGGARA TIMUR,,Indonesia,,,,-107.414.723,1.230.448.675,https://maps.google.com/?cid=0x0:0x699558aa9d2e663a,
hardware store,Toko Bahan Bangunan,CV. Tujuh Jaya,"723W+C6P, Unnamed Rd, Mokdale, Kec. Lobalain, Kabupaten Rote Ndao, Nusa Tenggara Tim.","Kabupaten Rote Ndao, Nusa Tenggara Tim.",NUSA TENGGARA TIMUR,,Indonesia,81236375011.0,,,-107.464.098,12.304.558,https://maps.google.com/?cid=0x0:0x575a85c650ddf9e4,
hardware store,hardware store,CV .Timor Jaya Makmur,"Jl. Baa Busalangga, Mokdale, Kec. Lobalain, Kabupaten Rote Ndao, Nusa Tenggara Tim. 85911","Mokdale, Kec. Lobalain, Kabupaten Rote Ndao",NUSA TENGGARA TIMUR,85911.0,Indonesia,81236375011.0,,,-107.510.458,1.230.429.039,https://maps.google.com/?cid=0x0:0xaf2bb4f12467828e,
hardware store,,KIOS GLORIA,"62QP+J44, Rote, Ba, Blok a, Sanggaoen, Kec. Lobalain, Kabupaten Rote Ndao, Nusa Tenggara Tim.","Kabupaten Rote Ndao, Nusa Tenggara Tim.",NUSA TENGGARA TIMUR,,Indonesia,81280240480.0,,,-107.609.752,1.230.353.288,https://maps.google.com/?cid=0x0:0x63aaef4ff2b4032c,
hardware store,Toko Alat Tulis Kantor,Toko Ebenhaezer Rote,"725W+772, Mokdale, Kec. Lobalain, Kabupaten Rote Ndao, Nusa Tenggara Tim.","Kabupaten Rote Ndao, Nusa Tenggara Tim.",NUSA TENGGARA TIMUR,,Indonesia,,,,-107.418.663,1.230.456.442,https://maps.google.com/?cid=0x0:0x9bd1994397bb8e5c,
hardware store,Toko Bahan Bangunan,UD TUJUH JAYA BANGUNAN I,"72GX+8M5, Metina, Kec. Lobalain, Kabupaten Rote Ndao, Nusa Tenggara Tim.","Kabupaten Rote Ndao, Nusa Tenggara Tim.",NUSA TENGGARA TIMUR,,Indonesia,,,,-107.242.448,1.230.492.313,https://maps.google.com/?cid=0x0:0xca85d779b23c1d9d,
hardware store,Toko Bahan Bangunan,Dewa gunshop,"65W8+5C, Lidamanu, Kec. Rote Tengah, Kabupaten Rote Ndao, Nusa Tenggara Tim.","Kabupaten Rote Ndao, Nusa Tenggara Tim.",NUSA TENGGARA TIMUR,,Indonesia,,,,-107.545.812,1.231.660.526,https://maps.google.com/?cid=0x0:0x79b6addc4752e06a,
hardware store,hardware store,Kec. Lobalain,"Kabupaten Rote Ndao, Nusa Tenggara Tim.","Kabupaten Rote Ndao, Nusa Tenggara Tim.",NUSA TENGGARA TIMUR,,Indonesia,,,,-107.290.879,1.230.460.405,https://maps.google.com/?cid=0x0:0x618add3ee97f8439,
hardware store,Minimarket,toko hebron,"725V+CW9, Unnamed Rd, Mokdale, Kec. Lobalain, Kabupaten Rote Ndao, Nusa Tenggara Tim.","Kabupaten Rote Ndao, Nusa Tenggara Tim.",NUSA TENGGARA TIMUR,,Indonesia,,,,-107.414.723,1.230.448.675,https://maps.google.com/?cid=0x0:0x699558aa9d2e663a,
hardware store,hardware store,CV .Timor Jaya Makmur,"Jl. Baa Busalangga, Mokdale, Kec. Lobalain, Kabupaten Rote Ndao, Nusa Tenggara Tim. 85911","Mokdale, Kec. Lobalain, Kabupaten Rote Ndao",NUSA TENGGARA TIMUR,85911.0,Indonesia,81236375011.0,,,-107.510.458,1.230.429.039,https://maps.google.com/?cid=0x0:0xaf2bb4f12467828e,
hardware store,Toko Bahan Bangunan,CV. Tujuh Jaya,"723W+C6P, Unnamed Rd, Mokdale, Kec. Lobalain, Kabupaten Rote Ndao, Nusa Tenggara Tim.","Kabupaten Rote Ndao, Nusa Tenggara Tim.",NUSA TENGGARA TIMUR,,Indonesia,81236375011.0,,,-107.464.098,12.304.558,https://maps.google.com/?cid=0x0:0x575a85c650ddf9e4,
hardware store,Toko Bahan Bangunan,UD TUJUH JAYA BANGUNAN I,"72GX+8M5, Metina, Kec. Lobalain, Kabupaten Rote Ndao, Nusa Tenggara Tim.","Kabupaten Rote Ndao, Nusa Tenggara Tim.",NUSA TENGGARA TIMUR,,Indonesia,,,,-107.242.448,1.230.492.313,https://maps.google.com/?cid=0x0:0xca85d779b23c1d9d,
hardware store,,KIOS GLORIA,"62QP+J44, Rote, Ba, Blok a, Sanggaoen, Kec. Lobalain, Kabupaten Rote Ndao, Nusa Tenggara Tim.","Kabupaten Rote Ndao, Nusa Tenggara Tim.",NUSA TENGGARA TIMUR,,Indonesia,81280240480.0,,,-107.609.752,1.230.353.288,https://maps.google.com/?cid=0x0:0x63aaef4ff2b4032c,
hardware store,Toko Alat Tulis Kantor,Toko Ebenhaezer Rote,"725W+772, Mokdale, Kec. Lobalain, Kabupaten Rote Ndao, Nusa Tenggara Tim.","Kabupaten Rote Ndao, Nusa Tenggara Tim.",NUSA TENGGARA TIMUR,,Indonesia,,,,-107.418.663,1.230.456.442,https://maps.google.com/?cid=0x0:0x9bd1994397bb8e5c,
hardware store,Toko Bahan Bangunan,Dewa gunshop,"65W8+5C, Lidamanu, Kec. Rote Tengah, Kabupaten Rote Ndao, Nusa Tenggara Tim.","Kabupaten Rote Ndao, Nusa Tenggara Tim.",NUSA TENGGARA TIMUR,,Indonesia,,,,-107.545.812,1.231.660.526,https://maps.google.com/?cid=0x0:0x79b6addc4752e06a,
hardware store,hardware store,Kec. Lobalain,"Kabupaten Rote Ndao, Nusa Tenggara Tim.","Kabupaten Rote Ndao, Nusa Tenggara Tim.",NUSA TENGGARA TIMUR,,Indonesia,,,,-107.290.879,1.230.460.405,https://maps.google.com/?cid=0x0:0x618add3ee97f8439,
hardware store,Minimarket,toko hebron,"725V+CW9, Unnamed Rd, Mokdale, Kec. Lobalain, Kabupaten Rote Ndao, Nusa Tenggara Tim.","Kabupaten Rote Ndao, Nusa Tenggara Tim.",NUSA TENGGARA TIMUR,,Indonesia,,,,-107.414.723,1.230.448.675,https://maps.google.com/?cid=0x0:0x699558aa9d2e663a,
hardware store,hardware store,CV .Timor Jaya Makmur,"Jl. Baa Busalangga, Mokdale, Kec. Lobalain, Kabupaten Rote Ndao, Nusa Tenggara Tim. 85911","Mokdale, Kec. Lobalain, Kabupaten Rote Ndao",NUSA TENGGARA TIMUR,85911.0,Indonesia,81236375011.0,,,-107.510.458,1.230.429.039,https://maps.google.com/?cid=0x0:0xaf2bb4f12467828e,
hardware store,Toko Bahan Bangunan,CV. Tujuh Jaya,"723W+C6P, Unnamed Rd, Mokdale, Kec. Lobalain, Kabupaten Rote Ndao, Nusa Tenggara Tim.","Kabupaten Rote Ndao, Nusa Tenggara Tim.",NUSA TENGGARA TIMUR,,Indonesia,,,,-107.464.098,12.304.558,https://maps.google.com/?cid=0x0:0x575a85c650ddf9e4,
hardware store,Toko Bahan Bangunan,Dewa gunshop,"65W8+5C, Lidamanu, Kec. Rote Tengah, Kabupaten Rote Ndao, Nusa Tenggara Tim.","Kabupaten Rote Ndao, Nusa Tenggara Tim.",NUSA TENGGARA TIMUR,,Indonesia,,,,-107.545.812,1.231.660.526,https://maps.google.com/?cid=0x0:0x79b6addc4752e06a,
hardware store,Toko Alat Tulis Kantor,Toko Ebenhaezer Rote,"725W+772, Mokdale, Kec. Lobalain, Kabupaten Rote Ndao, Nusa Tenggara Tim.","Kabupaten Rote Ndao, Nusa Tenggara Tim.",NUSA TENGGARA TIMUR,,Indonesia,,,,-107.418.663,1.230.456.442,https://maps.google.com/?cid=0x0:0x9bd1994397bb8e5c,
hardware store,Toko Suku Cadang Motor,Sasando Motor 2,"724W+QHC, Mokdale, Kec. Lobalain, Kabupaten Rote Ndao, Nusa Tenggara Tim.","Kabupaten Rote Ndao, Nusa Tenggara Tim.",NUSA TENGGARA TIMUR,,Indonesia,,,,-107.430.699,1.230.464.019,https://maps.google.com/?cid=0x0:0x5ed77d83ff210fd8,
hardware store,hardware store,Kec. Lobalain,"Kabupaten Rote Ndao, Nusa Tenggara Tim.","Kabupaten Rote Ndao, Nusa Tenggara Tim.",NUSA TENGGARA TIMUR,,Indonesia,,,,-107.290.879,1.230.460.405,https://maps.google.com/?cid=0x0:0x618add3ee97f8439,
hardware store,Minimarket,toko hebron,"725V+CW9, Unnamed Rd, Mokdale, Kec. Lobalain, Kabupaten Rote Ndao, Nusa Tenggara Tim.","Kabupaten Rote Ndao, Nusa Tenggara Tim.",NUSA TENGGARA TIMUR,,Indonesia,,,,-107.414.723,1.230.448.675,https://maps.google.com/?cid=0x0:0x699558aa9d2e663a,
hardware store,Toko Bahan Bangunan,CV. Tujuh Jaya,"723W+C6P, Unnamed Rd, Mokdale, Kec. Lobalain, Kabupaten Rote Ndao, Nusa Tenggara Tim.","Kabupaten Rote Ndao, Nusa Tenggara Tim.",NUSA TENGGARA TIMUR,,Indonesia,81236375011.0,,,-107.464.098,12.304.558,https://maps.google.com/?cid=0x0:0x575a85c650ddf9e4,
hardware store,,KIOS GLORIA,"62QP+J44, Rote, Ba, Blok a, Sanggaoen, Kec. Lobalain, Kabupaten Rote Ndao, Nusa Tenggara Tim.","Kabupaten Rote Ndao, Nusa Tenggara Tim.",NUSA TENGGARA TIMUR,,Indonesia,81280240480.0,,,-107.609.752,1.230.353.288,https://maps.google.com/?cid=0x0:0x63aaef4ff2b4032c,
hardware store,hardware store,CV .Timor Jaya Makmur,"Jl. Baa Busalangga, Mokdale, Kec. Lobalain, Kabupaten Rote Ndao, Nusa Tenggara Tim. 85911","Mokdale, Kec. Lobalain, Kabupaten Rote Ndao",NUSA TENGGARA TIMUR,85911.0,Indonesia,81236375011.0,,,-107.510.458,1.230.429.039,https://maps.google.com/?cid=0x0:0xaf2bb4f12467828e,
hardware store,Rumah Sakit,Toko Elim Jaya,"722V+4F6, Jl. Baa Busalangga, Mokdale, Kec. Lobalain, Kabupaten Rote Ndao, Nusa Tenggara Tim.","Kabupaten Rote Ndao, Nusa Tenggara Tim.",NUSA TENGGARA TIMUR,,Indonesia,81339338888.0,,,-107.529.719,1.230.419.021,https://maps.google.com/?cid=0x0:0x42543e6a746c84fb,
hardware store,Toko Bahan Bangunan,Dewa gunshop,"65W8+5C, Lidamanu, Kec. Rote Tengah, Kabupaten Rote Ndao, Nusa Tenggara Tim.","Kabupaten Rote Ndao, Nusa Tenggara Tim.",NUSA TENGGARA TIMUR,,Indonesia,,,,-107.545.812,1.231.660.526,https://maps.google.com/?cid=0x0:0x79b6addc4752e06a,
hardware store,Toko Alat Tulis Kantor,Toko Ebenhaezer Rote,"725W+772, Mokdale, Kec. Lobalain, Kabupaten Rote Ndao, Nusa Tenggara Tim.","Kabupaten Rote Ndao, Nusa Tenggara Tim.",NUSA TENGGARA TIMUR,,Indonesia,,,,-107.418.663,1.230.456.442,https://maps.google.com/?cid=0x0:0x9bd1994397bb8e5c,
hardware store,hardware store,Kec. Lobalain,"Kabupaten Rote Ndao, Nusa Tenggara Tim.","Kabupaten Rote Ndao, Nusa Tenggara Tim.",NUSA TENGGARA TIMUR,,Indonesia,,,,-107.290.879,1.230.460.405,https://maps.google.com/?cid=0x0:0x618add3ee97f8439,
hardware store,Minimarket,toko hebron,"725V+CW9, Unnamed Rd, Mokdale, Kec. Lobalain, Kabupaten Rote Ndao, Nusa Tenggara Tim.","Kabupaten Rote Ndao, Nusa Tenggara Tim.",NUSA TENGGARA TIMUR,,Indonesia,,,,-107.414.723,1.230.448.675,https://maps.google.com/?cid=0x0:0x699558aa9d2e663a,
hardware store,hardware store,CV .Timor Jaya Makmur,"Jl. Baa Busalangga, Mokdale, Kec. Lobalain, Kabupaten Rote Ndao, Nusa Tenggara Tim. 85911","Mokdale, Kec. Lobalain, Kabupaten Rote Ndao",NUSA TENGGARA TIMUR,85911.0,Indonesia,81236375011.0,,,-107.510.458,1.230.429.039,https://maps.google.com/?cid=0x0:0xaf2bb4f12467828e,
hardware store,Toko Bahan Bangunan,CV. Tujuh Jaya,"723W+C6P, Unnamed Rd, Mokdale, Kec. Lobalain, Kabupaten Rote Ndao, Nusa Tenggara Tim.","Kabupaten Rote Ndao, Nusa Tenggara Tim.",NUSA TENGGARA TIMUR,,Indonesia,81236375011.0,,,-107.464.098,12.304.558,https://maps.google.com/?cid=0x0:0x575a85c650ddf9e4,
hardware store,Toko Alat Tulis Kantor,Toko Ebenhaezer Rote,"725W+772, Mokdale, Kec. Lobalain, Kabupaten Rote Ndao, Nusa Tenggara Tim.","Kabupaten Rote Ndao, Nusa Tenggara Tim.",NUSA TENGGARA TIMUR,,Indonesia,,,,-107.418.663,1.230.456.442,https://maps.google.com/?cid=0x0:0x9bd1994397bb8e5c,
hardware store,Toko Bahan Bangunan,Dewa gunshop,"65W8+5C, Lidamanu, Kec. Rote Tengah, Kabupaten Rote Ndao, Nusa Tenggara Tim.","Kabupaten Rote Ndao, Nusa Tenggara Tim.",NUSA TENGGARA TIMUR,,Indonesia,,,,-107.545.812,1.231.660.526,https://maps.google.com/?cid=0x0:0x79b6addc4752e06a,
hardware store,hardware store,Kec. Rote Tengah,"Kabupaten Rote Ndao, Nusa Tenggara Tim.","Kabupaten Rote Ndao, Nusa Tenggara Tim.",NUSA TENGGARA TIMUR,,Indonesia,,,,-106.702.912,1.231.279.559,https://maps.google.com/?cid=0x0:0x44ac523cb3546567,
hardware store,Toko Bahan Bangunan,CV. Tujuh Jaya,"723W+C6P, Unnamed Rd, Mokdale, Kec. Lobalain, Kabupaten Rote Ndao, Nusa Tenggara Tim.","Kabupaten Rote Ndao, Nusa Tenggara Tim.",NUSA TENGGARA TIMUR,,Indonesia,81236375011.0,,,-107.464.098,12.304.558,https://maps.google.com/?cid=0x0:0x575a85c650ddf9e4,
hardware store,Minimarket,toko hebron,"725V+CW9, Unnamed Rd, Mokdale, Kec. Lobalain, Kabupaten Rote Ndao, Nusa Tenggara Tim.","Kabupaten Rote Ndao, Nusa Tenggara Tim.",NUSA TENGGARA TIMUR,,Indonesia,,,,-107.414.723,1.230.448.675,https://maps.google.com/?cid=0x0:0x699558aa9d2e663a,
hardware store,,KIOS GLORIA,"62QP+J44, Rote, Ba, Blok a, Sanggaoen, Kec. Lobalain, Kabupaten Rote Ndao, Nusa Tenggara Tim.","Kabupaten Rote Ndao, Nusa Tenggara Tim.",NUSA TENGGARA TIMUR,,Indonesia,81280240480.0,,,-107.609.752,1.230.353.288,https://maps.google.com/?cid=0x0:0x63aaef4ff2b4032c,
hardware store,Toko Bahan Bangunan,Dewa gunshop,"65W8+5C, Lidamanu, Kec. Rote Tengah, Kabupaten Rote Ndao, Nusa Tenggara Tim.","Kabupaten Rote Ndao, Nusa Tenggara Tim.",NUSA TENGGARA TIMUR,,Indonesia,,,,-107.545.812,1.231.660.526,https://maps.google.com/?cid=0x0:0x79b6addc4752e06a,
hardware store,Toko Alat Tulis Kantor,Toko Ebenhaezer Rote,"725W+772, Mokdale, Kec. Lobalain, Kabupaten Rote Ndao, Nusa Tenggara Tim.","Kabupaten Rote Ndao, Nusa Tenggara Tim.",NUSA TENGGARA TIMUR,,Indonesia,,,,-107.418.663,1.230.456.442,https://maps.google.com/?cid=0x0:0x9bd1994397bb8e5c,
hardware store,Rumah Sakit,Toko Elim Jaya,"722V+4F6, Jl. Baa Busalangga, Mokdale, Kec. Lobalain, Kabupaten Rote Ndao, Nusa Tenggara Tim.","Kabupaten Rote Ndao, Nusa Tenggara Tim.",NUSA TENGGARA TIMUR,,Indonesia,81339338888.0,,,-107.529.719,1.230.419.021,https://maps.google.com/?cid=0x0:0x42543e6a746c84fb,
hardware store,hardware store,CV .Timor Jaya Makmur,"Jl. Baa Busalangga, Mokdale, Kec. Lobalain, Kabupaten Rote Ndao, Nusa Tenggara Tim. 85911","Mokdale, Kec. Lobalain, Kabupaten Rote Ndao",NUSA TENGGARA TIMUR,85911.0,Indonesia,81236375011.0,,,-107.510.458,1.230.429.039,https://maps.google.com/?cid=0x0:0xaf2bb4f12467828e,
hardware store,hardware store,Kec. Rote Tim.,"Kabupaten Rote Ndao, Nusa Tenggara Tim.","Kabupaten Rote Ndao, Nusa Tenggara Tim.",NUSA TENGGARA TIMUR,,Indonesia,,,,-106.018.337,1.233.792.441,https://maps.google.com/?cid=0x0:0x20409773de900efa,
hardware store,Toko Bahan Bangunan,CV. Tujuh Jaya,"723W+C6P, Unnamed Rd, Mokdale, Kec. Lobalain, Kabupaten Rote Ndao, Nusa Tenggara Tim.","Kabupaten Rote Ndao, Nusa Tenggara Tim.",NUSA TENGGARA TIMUR,,Indonesia,81236375011.0,,,-107.464.098,12.304.558,https://maps.google.com/?cid=0x0:0x575a85c650ddf9e4,
hardware store,Minimarket,toko hebron,"725V+CW9, Unnamed Rd, Mokdale, Kec. Lobalain, Kabupaten Rote Ndao, Nusa Tenggara Tim.","Kabupaten Rote Ndao, Nusa Tenggara Tim.",NUSA TENGGARA TIMUR,,Indonesia,,,,-107.414.723,1.230.448.675,https://maps.google.com/?cid=0x0:0x699558aa9d2e663a,
hardware store,hardware store,UD. AISELE,"4WM5+PMR, Jalan Baa-Nemberala, Lalukoen, Kec. Rote Bar. Daya, Kabupaten Rote Ndao, Nusa Tenggara Tim.","Kabupaten Rote Ndao, Nusa Tenggara Tim.",NUSA TENGGARA TIMUR,,Indonesia,,,,-108.656.366,1.229.091.322,https://maps.google.com/?cid=0x0:0x76e4309145ce22bb,
hardware store,Sekolah menengah,SMA NEGERI 1 ROTE TIMUR,"Serubeba, Kec. Rote Tim., Kabupaten Rote Ndao, Nusa Tenggara Tim.","Kabupaten Rote Ndao, Nusa Tenggara Tim.",NUSA TENGGARA TIMUR,,Indonesia,,,,-106.250.451,1.233.672.028,https://maps.google.com/?cid=0x0:0x5c0743d86cc2f5b,
hardware store,hardware store,Kec. Rote Bar.,"Kabupaten Rote Ndao, Nusa Tenggara Tim.","Kabupaten Rote Ndao, Nusa Tenggara Tim.",NUSA TENGGARA TIMUR,,Indonesia,,,,-108.858.919,1.228.260.101,https://maps.google.com/?cid=0x0:0x20873fb50a5b50f7,
hardware store,Toko Bahan Bangunan,CV. Tujuh Jaya,"723W+C6P, Unnamed Rd, Mokdale, Kec. Lobalain, Kabupaten Rote Ndao, Nusa Tenggara Tim.","Kabupaten Rote Ndao, Nusa Tenggara Tim.",NUSA TENGGARA TIMUR,,Indonesia,81236375011.0,,,-107.464.098,12.304.558,https://maps.google.com/?cid=0x0:0x575a85c650ddf9e4,
hardware store,Minimarket,toko hebron,"725V+CW9, Unnamed Rd, Mokdale, Kec. Lobalain, Kabupaten Rote Ndao, Nusa Tenggara Tim.","Kabupaten Rote Ndao, Nusa Tenggara Tim.",NUSA TENGGARA TIMUR,,Indonesia,,,,-107.414.723,1.230.448.675,https://maps.google.com/?cid=0x0:0x699558aa9d2e663a,
hardware store,,KIOS GLORIA,"62QP+J44, Rote, Ba, Blok a, Sanggaoen, Kec. Lobalain, Kabupaten Rote Ndao, Nusa Tenggara Tim.","Kabupaten Rote Ndao, Nusa Tenggara Tim.",NUSA TENGGARA TIMUR,,Indonesia,81280240480.0,,,-107.609.752,1.230.353.288,https://maps.google.com/?cid=0x0:0x63aaef4ff2b4032c,
hardware store,hardware store,UD. AISELE,"4WM5+PMR, Jalan Baa-Nemberala, Lalukoen, Kec. Rote Bar. Daya, Kabupaten Rote Ndao, Nusa Tenggara Tim.","Kabupaten Rote Ndao, Nusa Tenggara Tim.",NUSA TENGGARA TIMUR,,Indonesia,,,,-108.656.366,1.229.091.322,https://maps.google.com/?cid=0x0:0x76e4309145ce22bb,
hardware store,Minimarket,Dolarosa,"4R5F+VVX, Unnamed Road, Nemberala, Kec. Rote Bar., Kabupaten Rote Ndao, Nusa Tenggara Tim.","Kabupaten Rote Ndao, Nusa Tenggara Tim.",NUSA TENGGARA TIMUR,,Indonesia,,,,-108.902.703,1.228.247.242,https://maps.google.com/?cid=0x0:0x212998d69c754fd,
hardware store,Toko umum,Toko Mini Palugada ToANa,"GG.JAMBU No.17, RT./RW/RW.03/02, Karang Asem Tim., Kec. Citeureup, Kabupaten Bogor, Jawa Barat 16810","RT./RW/RW.03/02, Karang Asem Tim., Kec. Citeureup, Kabupaten Bogor",NUSA TENGGARA TIMUR,16810.0,Indonesia,82246104011.0,,,-64.921.923,1.068.800.875,https://maps.google.com/?cid=0x0:0xa9ded79b269adee6,
hardware store,hardware store,Toko Zebada,"62RQ+X53, Mokdale, Kec. Lobalain, Kabupaten Rote Ndao, Nusa Tenggara Tim.","Kabupaten Rote Ndao, Nusa Tenggara Tim.",NUSA TENGGARA TIMUR,,Indonesia,,,,-107.576.161,1.230.379.074,https://maps.google.com/?cid=0x0:0x6a53e34db7a737ed,
hardware store,hardware store,Kec. Rote Bar.,"Kabupaten Rote Ndao, Nusa Tenggara Tim.","Kabupaten Rote Ndao, Nusa Tenggara Tim.",NUSA TENGGARA TIMUR,,Indonesia,,,,-108.858.919,1.228.260.101,https://maps.google.com/?cid=0x0:0x20873fb50a5b50f7,
hardware store,Toko Bahan Bangunan,CV. Tujuh Jaya,"723W+C6P, Unnamed Rd, Mokdale, Kec. Lobalain, Kabupaten Rote Ndao, Nusa Tenggara Tim.","Kabupaten Rote Ndao, Nusa Tenggara Tim.",NUSA TENGGARA TIMUR,,Indonesia,81236375011.0,,,-107.464.098,12.304.558,https://maps.google.com/?cid=0x0:0x575a85c650ddf9e4,
hardware store,Minimarket,toko hebron,"725V+CW9, Unnamed Rd, Mokdale, Kec. Lobalain, Kabupaten Rote Ndao, Nusa Tenggara Tim.","Kabupaten Rote Ndao, Nusa Tenggara Tim.",NUSA TENGGARA TIMUR,,Indonesia,,,,-107.414.723,1.230.448.675,https://maps.google.com/?cid=0x0:0x699558aa9d2e663a,
hardware store,,KIOS GLORIA,"62QP+J44, Rote, Ba, Blok a, Sanggaoen, Kec. Lobalain, Kabupaten Rote Ndao, Nusa Tenggara Tim.","Kabupaten Rote Ndao, Nusa Tenggara Tim.",NUSA TENGGARA TIMUR,,Indonesia,81280240480.0,,,-107.609.752,1.230.353.288,https://maps.google.com/?cid=0x0:0x63aaef4ff2b4032c,
hardware store,hardware store,UD. AISELE,"4WM5+PMR, Jalan Baa-Nemberala, Lalukoen, Kec. Rote Bar. Daya, Kabupaten Rote Ndao, Nusa Tenggara Tim.","Kabupaten Rote Ndao, Nusa Tenggara Tim.",NUSA TENGGARA TIMUR,,Indonesia,,,,-108.656.366,1.229.091.322,https://maps.google.com/?cid=0x0:0x76e4309145ce22bb,
hardware store,Minimarket,Dolarosa,"4R5F+VVX, Unnamed Road, Nemberala, Kec. Rote Bar., Kabupaten Rote Ndao, Nusa Tenggara Tim.","Kabupaten Rote Ndao, Nusa Tenggara Tim.",NUSA TENGGARA TIMUR,,Indonesia,,,,-108.902.703,1.228.247.242,https://maps.google.com/?cid=0x0:0x212998d69c754fd,
hardware store,hardware store,Kec. Rote Sel.,"Kabupaten Rote Ndao, Nusa Tenggara Tim.","Kabupaten Rote Ndao, Nusa Tenggara Tim.",NUSA TENGGARA TIMUR,,Indonesia,,,,-107.849.831,1.231.594.105,https://maps.google.com/?cid=0x0:0x57324d947a721c0a,
hardware store,Toko Bahan Bangunan,CV. Tujuh Jaya,"723W+C6P, Unnamed Rd, Mokdale, Kec. Lobalain, Kabupaten Rote Ndao, Nusa Tenggara Tim.","Kabupaten Rote Ndao, Nusa Tenggara Tim.",NUSA TENGGARA TIMUR,,Indonesia,81236375011.0,,,-107.464.098,12.304.558,https://maps.google.com/?cid=0x0:0x575a85c650ddf9e4,
hardware store,Minimarket,toko hebron,"725V+CW9, Unnamed Rd, Mokdale, Kec. Lobalain, Kabupaten Rote Ndao, Nusa Tenggara Tim.","Kabupaten Rote Ndao, Nusa Tenggara Tim.",NUSA TENGGARA TIMUR,,Indonesia,,,,-107.414.723,1.230.448.675,https://maps.google.com/?cid=0x0:0x699558aa9d2e663a,
hardware store,,KIOS GLORIA,"62QP+J44, Rote, Ba, Blok a, Sanggaoen, Kec. Lobalain, Kabupaten Rote Ndao, Nusa Tenggara Tim.","Kabupaten Rote Ndao, Nusa Tenggara Tim.",NUSA TENGGARA TIMUR,,Indonesia,81280240480.0,,,-107.609.752,1.230.353.288,https://maps.google.com/?cid=0x0:0x63aaef4ff2b4032c,
hardware store,hardware store,UD. AISELE,"4WM5+PMR, Jalan Baa-Nemberala, Lalukoen, Kec. Rote Bar. Daya, Kabupaten Rote Ndao, Nusa Tenggara Tim.","Kabupaten Rote Ndao, Nusa Tenggara Tim.",NUSA TENGGARA TIMUR,,Indonesia,,,,-108.656.366,1.229.091.322,https://maps.google.com/?cid=0x0:0x76e4309145ce22bb,
hardware store,Toko Bahan Bangunan,Dewa gunshop,"65W8+5C, Lidamanu, Kec. Rote Tengah, Kabupaten Rote Ndao, Nusa Tenggara Tim.","Kabupaten Rote Ndao, Nusa Tenggara Tim.",NUSA TENGGARA TIMUR,,Indonesia,,,,-107.545.812,1.231.660.526,https://maps.google.com/?cid=0x0:0x79b6addc4752e06a,
hardware store,hardware store,Ndao Nuse,"Kec. Ndao Nuse, Kabupaten Rote Ndao, Nusa Tenggara Tim.","Kabupaten Rote Ndao, Nusa Tenggara Tim.",NUSA TENGGARA TIMUR,,Indonesia,,,,-108.311.123,1.227.379.001,https://maps.google.com/?cid=0x0:0xa599a843e70bb45a,
hardware store,hardware store,Kec. Ndao Nuse,"Ndao Nuse, Kabupaten Rote Ndao, Nusa Tenggara Tim.","Kabupaten Rote Ndao, Nusa Tenggara Tim.",NUSA TENGGARA TIMUR,,Indonesia,,,,-108.168.497,1.226.672.521,https://maps.google.com/?cid=0x0:0x9d585f1fd1968a49,
hardware store,,KIOS GLORIA,"62QP+J44, Rote, Ba, Blok a, Sanggaoen, Kec. Lobalain, Kabupaten Rote Ndao, Nusa Tenggara Tim.","Kabupaten Rote Ndao, Nusa Tenggara Tim.",NUSA TENGGARA TIMUR,,Indonesia,81280240480.0,,,-107.609.752,1.230.353.288,https://maps.google.com/?cid=0x0:0x63aaef4ff2b4032c,
hardware store,Toko Bahan Bangunan,CV. Tujuh Jaya,"723W+C6P, Unnamed Rd, Mokdale, Kec. Lobalain, Kabupaten Rote Ndao, Nusa Tenggara Tim.","Kabupaten Rote Ndao, Nusa Tenggara Tim.",NUSA TENGGARA TIMUR,,Indonesia,81236375011.0,,,-107.464.098,12.304.558,https://maps.google.com/?cid=0x0:0x575a85c650ddf9e4,
hardware store,hardware store,UD. AISELE,"4WM5+PMR, Jalan Baa-Nemberala, Lalukoen, Kec. Rote Bar. Daya, Kabupaten Rote Ndao, Nusa Tenggara Tim.","Kabupaten Rote Ndao, Nusa Tenggara Tim.",NUSA TENGGARA TIMUR,,Indonesia,,,,-108.656.366,1.229.091.322,https://maps.google.com/?cid=0x0:0x76e4309145ce22bb,
hardware store,hardware store,Kec. Landu Leko,"Kabupaten Rote Ndao, Nusa Tenggara Tim.","Kabupaten Rote Ndao, Nusa Tenggara Tim.",NUSA TENGGARA TIMUR,,Indonesia,,,,-105.683.899,1.233.761.005,https://maps.google.com/?cid=0x0:0x2770e84300ca8ac7,
hardware store,Kantor Pemerintah,Desa Lekona,"967J+44R, Olafulihaa, Kec. Pantai Baru, Kabupaten Rote Ndao, Nusa Tenggara Tim.","Kabupaten Rote Ndao, Nusa Tenggara Tim.",NUSA TENGGARA TIMUR,,Indonesia,,,,-106.371.369,1.232.302.503,https://maps.google.com/?cid=0x0:0x8aee3e17a2d5f3cd,
hardware store,Pembangunan Perumahan,Kantor Desa Lekona,"963H+HG5, Olafulihaa, Kec. Pantai Baru, Kabupaten Rote Ndao, Nusa Tenggara Tim.","Kabupaten Rote Ndao, Nusa Tenggara Tim.",NUSA TENGGARA TIMUR,,Indonesia,,,,-106.461.022,1.232.288.593,https://maps.google.com/?cid=0x0:0x7ce27c3b33da25f8,
hardware store,hardware store,Kec. Pantai Baru,"Kabupaten Rote Ndao, Nusa Tenggara Tim.","Kabupaten Rote Ndao, Nusa Tenggara Tim.",NUSA TENGGARA TIMUR,,Indonesia,,,,-107.134.149,1.232.926.241,https://maps.google.com/?cid=0x0:0x1cee30470e179e69,
hardware store,Toko Bahan Bangunan,CV. Tujuh Jaya,"723W+C6P, Unnamed Rd, Mokdale, Kec. Lobalain, Kabupaten Rote Ndao, Nusa Tenggara Tim.","Kabupaten Rote Ndao, Nusa Tenggara Tim.",NUSA TENGGARA TIMUR,,Indonesia,81236375011.0,,,-107.464.098,12.304.558,https://maps.google.com/?cid=0x0:0x575a85c650ddf9e4,
hardware store,Toko Bahan Bangunan,UD. Adikara Jaya Bangunan,"Mokdale, Kec. Lobalain, Kabupaten Rote Ndao, Nusa Tenggara Tim. 85914","Kec. Lobalain, Kabupaten Rote Ndao",NUSA TENGGARA TIMUR,85914.0,Indonesia,82236420433.0,,,-10.758.659,1.230.367.714,https://maps.google.com/?cid=0x0:0xc42be311b39e209,
toko bangunan,toko bangunan,Kec. Rote Bar. Daya,"Kabupaten Rote Ndao, Nusa Tenggara Tim.","Kabupaten Rote Ndao, Nusa Tenggara Tim.",NUSA TENGGARA TIMUR,,Indonesia,,,,-108.599.138,1.230.152.055,https://maps.google.com/?cid=0x0:0xc8d7144834ab28c0,
toko bangunan,Toko Bahan Bangunan,CV. Tujuh Jaya,"723W+C6P, Unnamed Rd, Mokdale, Kec. Lobalain, Kabupaten Rote Ndao, Nusa Tenggara Tim.","Kabupaten Rote Ndao, Nusa Tenggara Tim.",NUSA TENGGARA TIMUR,,Indonesia,,,,-107.464.098,12.304.558,https://maps.google.com/?cid=0x0:0x575a85c650ddf9e4,
toko bangunan,Minimarket,toko hebron,"725V+CW9, Unnamed Rd, Mokdale, Kec. Lobalain, Kabupaten Rote Ndao, Nusa Tenggara Tim.","Kabupaten Rote Ndao, Nusa Tenggara Tim.",NUSA TENGGARA TIMUR,,Indonesia,,,,-107.414.723,1.230.448.675,https://maps.google.com/?cid=0x0:0x699558aa9d2e663a,
toko bangunan,toko bangunan,UD. AISELE,"4WM5+PMR, Jalan Baa-Nemberala, Lalukoen, Kec. Rote Bar. Daya, Kabupaten Rote Ndao, Nusa Tenggara Tim.","Kabupaten Rote Ndao, Nusa Tenggara Tim.",NUSA TENGGARA TIMUR,,Indonesia,,,,-108.656.366,1.229.091.322,https://maps.google.com/?cid=0x0:0x76e4309145ce22bb,
toko bangunan,toko bangunan,Toko Zebada,"62RQ+X53, Mokdale, Kec. Lobalain, Kabupaten Rote Ndao, Nusa Tenggara Tim.","Kabupaten Rote Ndao, Nusa Tenggara Tim.",NUSA TENGGARA TIMUR,,Indonesia,,,,-107.576.161,1.230.379.074,https://maps.google.com/?cid=0x0:0x6a53e34db7a737ed,
toko bangunan,Toko bahan makanan,UD. KASIH ABADI,"4XVW+3C7, Dolasi, Kec. Rote Bar. Daya, Kabupaten Rote Ndao, Nusa Tenggara Tim.","Kabupaten Rote Ndao, Nusa Tenggara Tim.",NUSA TENGGARA TIMUR,,Indonesia,81237212367.0,,,-108.573.452,1.229.960.515,https://maps.google.com/?cid=0x0:0xe3828ef8c680eca8,
toko bangunan,Pom bensin/SPBU,"DasarMaju, Lalukoen","No.19, Lalukoen, Kec. Rote Bar. Daya, Kabupaten Rote Ndao, Nusa Tenggara Tim. 85982","Lalukoen, Kec. Rote Bar. Daya, Kabupaten Rote Ndao",NUSA TENGGARA TIMUR,85982.0,Indonesia,81213161019.0,,,-10.861.694,1.229.289.688,https://maps.google.com/?cid=0x0:0x3b3093eed014541f,
toko bangunan,Toko Bahan Bangunan,UD. Adikara Jaya Bangunan,"Mokdale, Kec. Lobalain, Kabupaten Rote Ndao, Nusa Tenggara Tim. 85914","Kec. Lobalain, Kabupaten Rote Ndao",NUSA TENGGARA TIMUR,85914.0,Indonesia,82236420433.0,,,-10.758.659,1.230.367.714,https://maps.google.com/?cid=0x0:0xc42be311b39e209,
toko bangunan,Toko bahan makanan,TOKO TIGA PUTRI BANGUNAN,"62XV+W7H, Jl. Baa Busalangga, Mokdale, Kec. Lobalain, Kabupaten Rote Ndao, Nusa Tenggara Tim.","Kabupaten Rote Ndao, Nusa Tenggara Tim.",NUSA TENGGARA TIMUR,,Indonesia,,,,-107.501.785,1.230.432.403,https://maps.google.com/?cid=0x0:0xe53acca87f949eaf,
toko bangunan,Kios,Toko Sahabat Baru,"63P8+PH5, Jl. Lekunik, Mokdale, Kec. Lobalain, Kabupaten Rote Ndao, Nusa Tenggara Tim.","Kabupaten Rote Ndao, Nusa Tenggara Tim.",NUSA TENGGARA TIMUR,,Indonesia,,,,-10.763.019,1.230.674.043,https://maps.google.com/?cid=0x0:0x2fb78fa246d4a8a3,
toko bangunan,Toko Elektronik,UD. Sumber Rejeki,"6272+VP6, Unnamed Road, Busalangga, Rote Barat Laut, Rote Ndao Regency, East Nusa Tenggara","Kabupaten Rote Ndao, Nusa Tenggara Tim.",NUSA TENGGARA TIMUR,,Indonesia,81337988900.0,,,-107.853.275,1.230.017.641,https://maps.google.com/?cid=0x0:0xf189e0e4dfe3c3d0,
toko bangunan,Perhimpunan Pengembang Perumahan,Mbadokai,"42RF+GP7, Fuafuni jl Lolotali sanama, Oelasin, Kec. Rote Bar. Daya, Kabupaten Rote Ndao, Nusa Tenggara Tim.","Kabupaten Rote Ndao, Nusa Tenggara Tim.",NUSA TENGGARA TIMUR,,Indonesia,,,,-10.858.708,123.024.302,https://maps.google.com/?cid=0x0:0xf30c4f8e1c636987,
toko bangunan,toko bangunan,CV .Timor Jaya Makmur,"Jl. Baa Busalangga, Mokdale, Kec. Lobalain, Kabupaten Rote Ndao, Nusa Tenggara Tim. 85911","Mokdale, Kec. Lobalain, Kabupaten Rote Ndao",NUSA TENGGARA TIMUR,85911.0,Indonesia,81236375011.0,,,-107.510.458,1.230.429.039,https://maps.google.com/?cid=0x0:0xaf2bb4f12467828e,
toko bangunan,Toko Bahan Bangunan,Toko Metro Bangunan,"Jl. Pulau Indah, Oesapa Bar., Kec. Klp. Lima, Kota Kupang, Nusa Tenggara Tim. 85228","Oesapa Bar., Kec. Klp. Lima, Kota Kupang",NUSA TENGGARA TIMUR,85228.0,Indonesia,82164218639.0,,,-101.488.046,1.236.344.972,https://maps.google.com/?cid=0x0:0x4afb0da23e208afb,
toko bangunan,Gereja,Gereja Petra Oederas,"4XRP+V7M, Batutua, Kec. Rote Bar. Daya, Kabupaten Rote Ndao, Nusa Tenggara Tim.","Kabupaten Rote Ndao, Nusa Tenggara Tim.",NUSA TENGGARA TIMUR,,Indonesia,81353025343.0,,,-108.577.957,1.229.856.807,https://maps.google.com/?cid=0x0:0xa7be078c69358f4,
toko bangunan,toko bangunan,Lidamanu,"4XX4+V8W, Oehandi, Kec. Rote Bar. Daya, Kabupaten Rote Ndao, Nusa Tenggara Tim.","Kabupaten Rote Ndao, Nusa Tenggara Tim.",NUSA TENGGARA TIMUR,,Indonesia,,,,-10.850.253,12.295.582,https://maps.google.com/?cid=0x0:0xca4c9b751e1ac939,
toko bangunan,Kantor Pemerintah,Kantor Desa Lentera,"5X42+WWQ, Unnamed Road, Meoain, Kec. Rote Bar. Daya, Kabupaten Rote Ndao, Nusa Tenggara Tim.","Kabupaten Rote Ndao, Nusa Tenggara Tim.",NUSA TENGGARA TIMUR,,Indonesia,,,,-108.426.731,1.229.523.523,https://maps.google.com/?cid=0x0:0x122a86bedf81633f,
toko bangunan,Pemasok Pipa,Toko Buana Bangunan,"Lasiana, Kec. Klp. Lima, Kota Kupang, Nusa Tenggara Tim.","Kota Kupang, Nusa Tenggara Tim.",NUSA TENGGARA TIMUR,,Indonesia,82244376888.0,,,-101.373.266,1.236.764.484,https://maps.google.com/?cid=0x0:0x9fc6cad7dda4e71a,
toko bangunan,Rumah Sakit,Toko Elim Jaya,"722V+4F6, Jl. Baa Busalangga, Mokdale, Kec. Lobalain, Kabupaten Rote Ndao, Nusa Tenggara Tim.","Kabupaten Rote Ndao, Nusa Tenggara Tim.",NUSA TENGGARA TIMUR,,Indonesia,81339338888.0,,,-107.529.719,1.230.419.021,https://maps.google.com/?cid=0x0:0x42543e6a746c84fb,
toko bangunan,toko bangunan,Toko UTOMO ROTE,"724W+8V7, Jl. Baa Busalangga, RT.01/RW.01, Mokdale, Kec. Lobalain, Kabupaten Rote Ndao, Nusa Tenggara Tim.","Kabupaten Rote Ndao, Nusa Tenggara Tim.",NUSA TENGGARA TIMUR,,Indonesia,85339014875.0,,,-107.442.017,123.047.166,https://maps.google.com/?cid=0x0:0x5b64e059f2b569bf,
toko bangunan,Komplek perumahan,"Percetakan BATAKO UD LIMA SAUDARA""""","Kelurahan mokdale, RT.006/RW.002, Ba'a, Nusa Tenggara Tim. 85914","RT.006/RW.002, Ba'a",NUSA TENGGARA TIMUR,85914.0,Indonesia,82177229233.0,,,-107.571.236,123.038.728,https://maps.google.com/?cid=0x0:0x7a9dc3609eea69c,
toko bangunan,toko bangunan,Kec. Rote Bar. Laut,"Kabupaten Rote Ndao, Nusa Tenggara Tim.","Kabupaten Rote Ndao, Nusa Tenggara Tim.",NUSA TENGGARA TIMUR,,Indonesia,,,,-107.597.977,1.229.182.941,https://maps.google.com/?cid=0x0:0xf1092e07a83097a2,
toko bangunan,Toko Bahan Bangunan,CV. Tujuh Jaya,"723W+C6P, Unnamed Rd, Mokdale, Kec. Lobalain, Kabupaten Rote Ndao, Nusa Tenggara Tim.","Kabupaten Rote Ndao, Nusa Tenggara Tim.",NUSA TENGGARA TIMUR,,Indonesia,81236375011.0,,,-107.464.098,12.304.558,https://maps.google.com/?cid=0x0:0x575a85c650ddf9e4,
toko bangunan,Minimarket,toko hebron,"725V+CW9, Unnamed Rd, Mokdale, Kec. Lobalain, Kabupaten Rote Ndao, Nusa Tenggara Tim.","Kabupaten Rote Ndao, Nusa Tenggara Tim.",NUSA TENGGARA TIMUR,,Indonesia,,,,-107.414.723,1.230.448.675,https://maps.google.com/?cid=0x0:0x699558aa9d2e663a,
toko bangunan,Toko bahan makanan,TOKO TIGA PUTRI BANGUNAN,"62XV+W7H, Jl. Baa Busalangga, Mokdale, Kec. Lobalain, Kabupaten Rote Ndao, Nusa Tenggara Tim.","Kabupaten Rote Ndao, Nusa Tenggara Tim.",NUSA TENGGARA TIMUR,,Indonesia,,,,-107.501.785,1.230.432.403,https://maps.google.com/?cid=0x0:0xe53acca87f949eaf,
toko bangunan,Toko bahan makanan,UD. KASIH ABADI,"4XVW+3C7, Dolasi, Kec. Rote Bar. Daya, Kabupaten Rote Ndao, Nusa Tenggara Tim.","Kabupaten Rote Ndao, Nusa Tenggara Tim.",NUSA TENGGARA TIMUR,,Indonesia,81237212367.0,,,-108.573.452,1.229.960.515,https://maps.google.com/?cid=0x0:0xe3828ef8c680eca8,
toko bangunan,Toko Elektronik,UD. Sumber Rejeki,"6272+VP6, Unnamed Road, Busalangga, Rote Barat Laut, Rote Ndao Regency, East Nusa Tenggara","Kabupaten Rote Ndao, Nusa Tenggara Tim.",NUSA TENGGARA TIMUR,,Indonesia,81337988900.0,,,-107.853.275,1.230.017.641,https://maps.google.com/?cid=0x0:0xf189e0e4dfe3c3d0,
toko bangunan,Toko Bahan Bangunan,UD TUJUH JAYA BANGUNAN I,"72GX+8M5, Metina, Kec. Lobalain, Kabupaten Rote Ndao, Nusa Tenggara Tim.","Kabupaten Rote Ndao, Nusa Tenggara Tim.",NUSA TENGGARA TIMUR,,Indonesia,,,,-107.242.448,1.230.492.313,https://maps.google.com/?cid=0x0:0xca85d779b23c1d9d,
toko bangunan,Pom bensin/SPBU,"DasarMaju, Lalukoen","No.19, Lalukoen, Kec. Rote Bar. Daya, Kabupaten Rote Ndao, Nusa Tenggara Tim. 85982","Lalukoen, Kec. Rote Bar. Daya, Kabupaten Rote Ndao",NUSA TENGGARA TIMUR,85982.0,Indonesia,81213161019.0,,,-10.861.694,1.229.289.688,https://maps.google.com/?cid=0x0:0x3b3093eed014541f,
toko bangunan,Rumah Sakit,Toko Elim Jaya,"722V+4F6, Jl. Baa Busalangga, Mokdale, Kec. Lobalain, Kabupaten Rote Ndao, Nusa Tenggara Tim.","Kabupaten Rote Ndao, Nusa Tenggara Tim.",NUSA TENGGARA TIMUR,,Indonesia,81339338888.0,,,-107.529.719,1.230.419.021,https://maps.google.com/?cid=0x0:0x42543e6a746c84fb,
toko bangunan,Pasar,Pasar Oenitas,"5V3G+CGX, Unnamed Road, Oenitas, Kec. Rote Bar., Kabupaten Rote Ndao, Nusa Tenggara Tim.","Kabupaten Rote Ndao, Nusa Tenggara Tim.",NUSA TENGGARA TIMUR,,Indonesia,81267108806.0,,,-108.463.775,1.228.763.588,https://maps.google.com/?cid=0x0:0xd81189962c5d3b1a,
toko bangunan,Kios,Toko Sahabat Baru,"63P8+PH5, Jl. Lekunik, Mokdale, Kec. Lobalain, Kabupaten Rote Ndao, Nusa Tenggara Tim.","Kabupaten Rote Ndao, Nusa Tenggara Tim.",NUSA TENGGARA TIMUR,,Indonesia,,,,-10.763.019,1.230.674.043,https://maps.google.com/?cid=0x0:0x2fb78fa246d4a8a3,
toko bangunan,toko bangunan,CV .Timor Jaya Makmur,"Jl. Baa Busalangga, Mokdale, Kec. Lobalain, Kabupaten Rote Ndao, Nusa Tenggara Tim. 85911","Mokdale, Kec. Lobalain, Kabupaten Rote Ndao",NUSA TENGGARA TIMUR,85911.0,Indonesia,81236375011.0,,,-107.510.458,1.230.429.039,https://maps.google.com/?cid=0x0:0xaf2bb4f12467828e,
toko bangunan,toko bangunan,UD. AISELE,"4WM5+PMR, Jalan Baa-Nemberala, Lalukoen, Kec. Rote Bar. Daya, Kabupaten Rote Ndao, Nusa Tenggara Tim.","Kabupaten Rote Ndao, Nusa Tenggara Tim.",NUSA TENGGARA TIMUR,,Indonesia,,,,-108.656.366,1.229.091.322,https://maps.google.com/?cid=0x0:0x76e4309145ce22bb,
toko bangunan,toko bangunan,Toko Zebada,"62RQ+X53, Mokdale, Kec. Lobalain, Kabupaten Rote Ndao, Nusa Tenggara Tim.","Kabupaten Rote Ndao, Nusa Tenggara Tim.",NUSA TENGGARA TIMUR,,Indonesia,,,,-107.576.161,1.230.379.074,https://maps.google.com/?cid=0x0:0x6a53e34db7a737ed,
toko bangunan,,Sumber Logam Mulia,"Tuanatuk, Kec. Lobalain, Kabupaten Rote Ndao, Nusa Tenggara Tim.","Kabupaten Rote Ndao, Nusa Tenggara Tim.",NUSA TENGGARA TIMUR,,Indonesia,81331720518.0,,,-107.596.611,123.035.666,https://maps.google.com/?cid=0x0:0x621f787799b64233,
toko bangunan,toko bangunan,Toko UTOMO ROTE,"724W+8V7, Jl. Baa Busalangga, RT.01/RW.01, Mokdale, Kec. Lobalain, Kabupaten Rote Ndao, Nusa Tenggara Tim.","Kabupaten Rote Ndao, Nusa Tenggara Tim.",NUSA TENGGARA TIMUR,,Indonesia,85339014875.0,,,-107.442.017,123.047.166,https://maps.google.com/?cid=0x0:0x5b64e059f2b569bf,
toko bangunan,Layanan Transportasi,Oemilal,"6X7X+8R4, Unnamed Road, Busalangga, Kec. Rote Bar. Laut, Kabupaten Rote Ndao, Nusa Tenggara Tim.","Kabupaten Rote Ndao, Nusa Tenggara Tim.",NUSA TENGGARA TIMUR,,Indonesia,82146552869.0,,,-10.786.745,122.999.573,https://maps.google.com/?cid=0x0:0x30e215ff3914d59c,
toko bangunan,,KIOS GLORIA,"62QP+J44, Rote, Ba, Blok a, Sanggaoen, Kec. Lobalain, Kabupaten Rote Ndao, Nusa Tenggara Tim.","Kabupaten Rote Ndao, Nusa Tenggara Tim.",NUSA TENGGARA TIMUR,,Indonesia,81280240480.0,,,-107.609.752,1.230.353.288,https://maps.google.com/?cid=0x0:0x63aaef4ff2b4032c,
toko bangunan,Toko Mebel,Meubel KAYU,"6267+C5X, Unnamed Road, Busalangga, Kec. Rote Bar. Laut, Kabupaten Rote Ndao, Nusa Tenggara Tim.","Kabupaten Rote Ndao, Nusa Tenggara Tim.",NUSA TENGGARA TIMUR,,Indonesia,82145820669.0,,,-107.888.944,1.230.129.774,https://maps.google.com/?cid=0x0:0x97576a47fde308d5,
toko bangunan,toko bangunan,Kec. Lobalain,"Kabupaten Rote Ndao, Nusa Tenggara Tim.","Kabupaten Rote Ndao, Nusa Tenggara Tim.",NUSA TENGGARA TIMUR,,Indonesia,,,,-107.290.879,1.230.460.405,https://maps.google.com/?cid=0x0:0x618add3ee97f8439,
toko bangunan,Minimarket,toko hebron,"725V+CW9, Unnamed Rd, Mokdale, Kec. Lobalain, Kabupaten Rote Ndao, Nusa Tenggara Tim.","Kabupaten Rote Ndao, Nusa Tenggara Tim.",NUSA TENGGARA TIMUR,,Indonesia,,,,-107.414.723,1.230.448.675,https://maps.google.com/?cid=0x0:0x699558aa9d2e663a,
toko bangunan,Toko Bahan Bangunan,UD. Adikara Jaya Bangunan,"Mokdale, Kec. Lobalain, Kabupaten Rote Ndao, Nusa Tenggara Tim. 85914","Kec. Lobalain, Kabupaten Rote Ndao",NUSA TENGGARA TIMUR,85914.0,Indonesia,82236420433.0,,,-10.758.659,1.230.367.714,https://maps.google.com/?cid=0x0:0xc42be311b39e209,
toko bangunan,Toko Bahan Bangunan,UD TUJUH JAYA BANGUNAN I,"72GX+8M5, Metina, Kec. Lobalain, Kabupaten Rote Ndao, Nusa Tenggara Tim.","Kabupaten Rote Ndao, Nusa Tenggara Tim.",NUSA TENGGARA TIMUR,,Indonesia,,,,-107.242.448,1.230.492.313,https://maps.google.com/?cid=0x0:0xca85d779b23c1d9d,
toko bangunan,toko bangunan,Toko Zebada,"62RQ+X53, Mokdale, Kec. Lobalain, Kabupaten Rote Ndao, Nusa Tenggara Tim.","Kabupaten Rote Ndao, Nusa Tenggara Tim.",NUSA TENGGARA TIMUR,,Indonesia,,,,-107.576.161,1.230.379.074,https://maps.google.com/?cid=0x0:0x6a53e34db7a737ed,
toko bangunan,toko bangunan,CV .Timor Jaya Makmur,"Jl. Baa Busalangga, Mokdale, Kec. Lobalain, Kabupaten Rote Ndao, Nusa Tenggara Tim. 85911","Mokdale, Kec. Lobalain, Kabupaten Rote Ndao",NUSA TENGGARA TIMUR,85911.0,Indonesia,81236375011.0,,,-107.510.458,1.230.429.039,https://maps.google.com/?cid=0x0:0xaf2bb4f12467828e,
toko bangunan,Toko bahan makanan,TOKO TIGA PUTRI BANGUNAN,"62XV+W7H, Jl. Baa Busalangga, Mokdale, Kec. Lobalain, Kabupaten Rote Ndao, Nusa Tenggara Tim.","Kabupaten Rote Ndao, Nusa Tenggara Tim.",NUSA TENGGARA TIMUR,,Indonesia,,,,-107.501.785,1.230.432.403,https://maps.google.com/?cid=0x0:0xe53acca87f949eaf,
toko bangunan,,Sumber Logam Mulia,"Tuanatuk, Kec. Lobalain, Kabupaten Rote Ndao, Nusa Tenggara Tim.","Kabupaten Rote Ndao, Nusa Tenggara Tim.",NUSA TENGGARA TIMUR,,Indonesia,81331720518.0,,,-107.596.611,123.035.666,https://maps.google.com/?cid=0x0:0x621f787799b64233,
toko bangunan,Kios,Toko Sahabat Baru,"63P8+PH5, Jl. Lekunik, Mokdale, Kec. Lobalain, Kabupaten Rote Ndao, Nusa Tenggara Tim.","Kabupaten Rote Ndao, Nusa Tenggara Tim.",NUSA TENGGARA TIMUR,,Indonesia,,,,-10.763.019,1.230.674.043,https://maps.google.com/?cid=0x0:0x2fb78fa246d4a8a3,
toko bangunan,Rumah Sakit,Toko Elim Jaya,"722V+4F6, Jl. Baa Busalangga, Mokdale, Kec. Lobalain, Kabupaten Rote Ndao, Nusa Tenggara Tim.","Kabupaten Rote Ndao, Nusa Tenggara Tim.",NUSA TENGGARA TIMUR,,Indonesia,81339338888.0,,,-107.529.719,1.230.419.021,https://maps.google.com/?cid=0x0:0x42543e6a746c84fb,
toko bangunan,toko bangunan,Toko UTOMO ROTE,"724W+8V7, Jl. Baa Busalangga, RT.01/RW.01, Mokdale, Kec. Lobalain, Kabupaten Rote Ndao, Nusa Tenggara Tim.","Kabupaten Rote Ndao, Nusa Tenggara Tim.",NUSA TENGGARA TIMUR,,Indonesia,85339014875.0,,,-107.442.017,123.047.166,https://maps.google.com/?cid=0x0:0x5b64e059f2b569bf,
toko bangunan,Toko Bahan Bangunan,Dewa gunshop,"65W8+5C, Lidamanu, Kec. Rote Tengah, Kabupaten Rote Ndao, Nusa Tenggara Tim.","Kabupaten Rote Ndao, Nusa Tenggara Tim.",NUSA TENGGARA TIMUR,,Indonesia,,,,-107.545.812,1.231.660.526,https://maps.google.com/?cid=0x0:0x79b6addc4752e06a,
toko bangunan,toko bangunan,Axl bangunan,"7324+GHV, Jl. Lekunik, Mokdale, Kec. Lobalain, Kabupaten Rote Ndao, Nusa Tenggara Tim.","Kabupaten Rote Ndao, Nusa Tenggara Tim.",NUSA TENGGARA TIMUR,,Indonesia,,,,-107.486.265,1.230.564.334,https://maps.google.com/?cid=0x0:0x50dc9ae21d3739d3,
toko bangunan,toko bangunan,AGEN46 MELANIA,"6577+9CH, Daleholu, Kec. Rote Sel., Kabupaten Rote Ndao, Nusa Tenggara Tim.","Kabupaten Rote Ndao, Nusa Tenggara Tim.",NUSA TENGGARA TIMUR,,Indonesia,,,,-10.786.558,1.231.635.964,https://maps.google.com/?cid=0x0:0xa111018f86c89b56,
toko bangunan,toko bangunan,Kec. Lobalain,"Kabupaten Rote Ndao, Nusa Tenggara Tim.","Kabupaten Rote Ndao, Nusa Tenggara Tim.",NUSA TENGGARA TIMUR,,Indonesia,,,,-107.290.879,1.230.460.405,https://maps.google.com/?cid=0x0:0x618add3ee97f8439,
toko bangunan,Minimarket,toko hebron,"725V+CW9, Unnamed Rd, Mokdale, Kec. Lobalain, Kabupaten Rote Ndao, Nusa Tenggara Tim.","Kabupaten Rote Ndao, Nusa Tenggara Tim.",NUSA TENGGARA TIMUR,,Indonesia,,,,-107.414.723,1.230.448.675,https://maps.google.com/?cid=0x0:0x699558aa9d2e663a,
toko bangunan,Toko Bahan Bangunan,UD. Adikara Jaya Bangunan,"Mokdale, Kec. Lobalain, Kabupaten Rote Ndao, Nusa Tenggara Tim. 85914","Kec. Lobalain, Kabupaten Rote Ndao",NUSA TENGGARA TIMUR,85914.0,Indonesia,82236420433.0,,,-10.758.659,1.230.367.714,https://maps.google.com/?cid=0x0:0xc42be311b39e209,
toko bangunan,Toko Bahan Bangunan,UD TUJUH JAYA BANGUNAN I,"72GX+8M5, Metina, Kec. Lobalain, Kabupaten Rote Ndao, Nusa Tenggara Tim.","Kabupaten Rote Ndao, Nusa Tenggara Tim.",NUSA TENGGARA TIMUR,,Indonesia,,,,-107.242.448,1.230.492.313,https://maps.google.com/?cid=0x0:0xca85d779b23c1d9d,
toko bangunan,toko bangunan,Toko Zebada,"62RQ+X53, Mokdale, Kec. Lobalain, Kabupaten Rote Ndao, Nusa Tenggara Tim.","Kabupaten Rote Ndao, Nusa Tenggara Tim.",NUSA TENGGARA TIMUR,,Indonesia,,,,-107.576.161,1.230.379.074,https://maps.google.com/?cid=0x0:0x6a53e34db7a737ed,
toko bangunan,toko bangunan,Axl bangunan,"7324+GHV, Jl. Lekunik, Mokdale, Kec. Lobalain, Kabupaten Rote Ndao, Nusa Tenggara Tim.","Kabupaten Rote Ndao, Nusa Tenggara Tim.",NUSA TENGGARA TIMUR,,Indonesia,,,,-107.486.265,1.230.564.334,https://maps.google.com/?cid=0x0:0x50dc9ae21d3739d3,
toko bangunan,toko bangunan,CV .Timor Jaya Makmur,"Jl. Baa Busalangga, Mokdale, Kec. Lobalain, Kabupaten Rote Ndao, Nusa Tenggara Tim. 85911","Mokdale, Kec. Lobalain, Kabupaten Rote Ndao",NUSA TENGGARA TIMUR,85911.0,Indonesia,81236375011.0,,,-107.510.458,1.230.429.039,https://maps.google.com/?cid=0x0:0xaf2bb4f12467828e,
toko bangunan,Toko bahan makanan,TOKO TIGA PUTRI BANGUNAN,"62XV+W7H, Jl. Baa Busalangga, Mokdale, Kec. Lobalain, Kabupaten Rote Ndao, Nusa Tenggara Tim.","Kabupaten Rote Ndao, Nusa Tenggara Tim.",NUSA TENGGARA TIMUR,,Indonesia,,,,-107.501.785,1.230.432.403,https://maps.google.com/?cid=0x0:0xe53acca87f949eaf,
toko bangunan,Kios,Toko Sahabat Baru,"63P8+PH5, Jl. Lekunik, Mokdale, Kec. Lobalain, Kabupaten Rote Ndao, Nusa Tenggara Tim.","Kabupaten Rote Ndao, Nusa Tenggara Tim.",NUSA TENGGARA TIMUR,,Indonesia,,,,-10.763.019,1.230.674.043,https://maps.google.com/?cid=0x0:0x2fb78fa246d4a8a3,
toko bangunan,Rumah Sakit,Toko Elim Jaya,"722V+4F6, Jl. Baa Busalangga, Mokdale, Kec. Lobalain, Kabupaten Rote Ndao, Nusa Tenggara Tim.","Kabupaten Rote Ndao, Nusa Tenggara Tim.",NUSA TENGGARA TIMUR,,Indonesia,81339338888.0,,,-107.529.719,1.230.419.021,https://maps.google.com/?cid=0x0:0x42543e6a746c84fb,
toko bangunan,,Sumber Logam Mulia,"Tuanatuk, Kec. Lobalain, Kabupaten Rote Ndao, Nusa Tenggara Tim.","Kabupaten Rote Ndao, Nusa Tenggara Tim.",NUSA TENGGARA TIMUR,,Indonesia,81331720518.0,,,-107.596.611,123.035.666,https://maps.google.com/?cid=0x0:0x621f787799b64233,
toko bangunan,toko bangunan,Toko UTOMO ROTE,"724W+8V7, Jl. Baa Busalangga, RT.01/RW.01, Mokdale, Kec. Lobalain, Kabupaten Rote Ndao, Nusa Tenggara Tim.","Kabupaten Rote Ndao, Nusa Tenggara Tim.",NUSA TENGGARA TIMUR,,Indonesia,85339014875.0,,,-107.442.017,123.047.166,https://maps.google.com/?cid=0x0:0x5b64e059f2b569bf,
toko bangunan,Toko Bahan Bangunan,Dewa gunshop,"65W8+5C, Lidamanu, Kec. Rote Tengah, Kabupaten Rote Ndao, Nusa Tenggara Tim.","Kabupaten Rote Ndao, Nusa Tenggara Tim.",NUSA TENGGARA TIMUR,,Indonesia,,,,-107.545.812,1.231.660.526,https://maps.google.com/?cid=0x0:0x79b6addc4752e06a,
toko bangunan,toko bangunan,AGEN46 MELANIA,"6577+9CH, Daleholu, Kec. Rote Sel., Kabupaten Rote Ndao, Nusa Tenggara Tim.","Kabupaten Rote Ndao, Nusa Tenggara Tim.",NUSA TENGGARA TIMUR,,Indonesia,,,,-10.786.558,1.231.635.964,https://maps.google.com/?cid=0x0:0xa111018f86c89b56,
toko bangunan,toko bangunan,Kec. Lobalain,"Kabupaten Rote Ndao, Nusa Tenggara Tim.","Kabupaten Rote Ndao, Nusa Tenggara Tim.",NUSA TENGGARA TIMUR,,Indonesia,,,,-107.290.879,1.230.460.405,https://maps.google.com/?cid=0x0:0x618add3ee97f8439,
toko bangunan,Minimarket,toko hebron,"725V+CW9, Unnamed Rd, Mokdale, Kec. Lobalain, Kabupaten Rote Ndao, Nusa Tenggara Tim.","Kabupaten Rote Ndao, Nusa Tenggara Tim.",NUSA TENGGARA TIMUR,,Indonesia,,,,-107.414.723,1.230.448.675,https://maps.google.com/?cid=0x0:0x699558aa9d2e663a,
toko bangunan,Toko Bahan Bangunan,UD. Adikara Jaya Bangunan,"Mokdale, Kec. Lobalain, Kabupaten Rote Ndao, Nusa Tenggara Tim. 85914","Kec. Lobalain, Kabupaten Rote Ndao",NUSA TENGGARA TIMUR,85914.0,Indonesia,82236420433.0,,,-10.758.659,1.230.367.714,https://maps.google.com/?cid=0x0:0xc42be311b39e209,
toko bangunan,Toko Bahan Bangunan,UD TUJUH JAYA BANGUNAN I,"72GX+8M5, Metina, Kec. Lobalain, Kabupaten Rote Ndao, Nusa Tenggara Tim.","Kabupaten Rote Ndao, Nusa Tenggara Tim.",NUSA TENGGARA TIMUR,,Indonesia,,,,-107.242.448,1.230.492.313,https://maps.google.com/?cid=0x0:0xca85d779b23c1d9d,
toko bangunan,toko bangunan,CV .Timor Jaya Makmur,"Jl. Baa Busalangga, Mokdale, Kec. Lobalain, Kabupaten Rote Ndao, Nusa Tenggara Tim. 85911","Mokdale, Kec. Lobalain, Kabupaten Rote Ndao",NUSA TENGGARA TIMUR,85911.0,Indonesia,81236375011.0,,,-107.510.458,1.230.429.039,https://maps.google.com/?cid=0x0:0xaf2bb4f12467828e,
toko bangunan,Toko bahan makanan,TOKO TIGA PUTRI BANGUNAN,"62XV+W7H, Jl. Baa Busalangga, Mokdale, Kec. Lobalain, Kabupaten Rote Ndao, Nusa Tenggara Tim.","Kabupaten Rote Ndao, Nusa Tenggara Tim.",NUSA TENGGARA TIMUR,,Indonesia,,,,-107.501.785,1.230.432.403,https://maps.google.com/?cid=0x0:0xe53acca87f949eaf,
toko bangunan,Kios,Toko Sahabat Baru,"63P8+PH5, Jl. Lekunik, Mokdale, Kec. Lobalain, Kabupaten Rote Ndao, Nusa Tenggara Tim.","Kabupaten Rote Ndao, Nusa Tenggara Tim.",NUSA TENGGARA TIMUR,,Indonesia,,,,-10.763.019,1.230.674.043,https://maps.google.com/?cid=0x0:0x2fb78fa246d4a8a3,
toko bangunan,,Sumber Logam Mulia,"Tuanatuk, Kec. Lobalain, Kabupaten Rote Ndao, Nusa Tenggara Tim.","Kabupaten Rote Ndao, Nusa Tenggara Tim.",NUSA TENGGARA TIMUR,,Indonesia,81331720518.0,,,-107.596.611,123.035.666,https://maps.google.com/?cid=0x0:0x621f787799b64233,
toko bangunan,Rumah Sakit,Toko Elim Jaya,"722V+4F6, Jl. Baa Busalangga, Mokdale, Kec. Lobalain, Kabupaten Rote Ndao, Nusa Tenggara Tim.","Kabupaten Rote Ndao, Nusa Tenggara Tim.",NUSA TENGGARA TIMUR,,Indonesia,81339338888.0,,,-107.529.719,1.230.419.021,https://maps.google.com/?cid=0x0:0x42543e6a746c84fb,
toko bangunan,toko bangunan,Toko UTOMO ROTE,"724W+8V7, Jl. Baa Busalangga, RT.01/RW.01, Mokdale, Kec. Lobalain, Kabupaten Rote Ndao, Nusa Tenggara Tim.","Kabupaten Rote Ndao, Nusa Tenggara Tim.",NUSA TENGGARA TIMUR,,Indonesia,85339014875.0,,,-107.442.017,123.047.166,https://maps.google.com/?cid=0x0:0x5b64e059f2b569bf,
toko bangunan,Pemasok Pipa,Toko Buana Bangunan,"Lasiana, Kec. Klp. Lima, Kota Kupang, Nusa Tenggara Tim.","Kota Kupang, Nusa Tenggara Tim.",NUSA TENGGARA TIMUR,,Indonesia,82244376888.0,,,-101.373.266,1.236.764.484,https://maps.google.com/?cid=0x0:0x9fc6cad7dda4e71a,
toko bangunan,Toko Bahan Bangunan,Dewa gunshop,"65W8+5C, Lidamanu, Kec. Rote Tengah, Kabupaten Rote Ndao, Nusa Tenggara Tim.","Kabupaten Rote Ndao, Nusa Tenggara Tim.",NUSA TENGGARA TIMUR,,Indonesia,,,,-107.545.812,1.231.660.526,https://maps.google.com/?cid=0x0:0x79b6addc4752e06a,
toko bangunan,toko bangunan,Toko Zebada,"62RQ+X53, Mokdale, Kec. Lobalain, Kabupaten Rote Ndao, Nusa Tenggara Tim.","Kabupaten Rote Ndao, Nusa Tenggara Tim.",NUSA TENGGARA TIMUR,,Indonesia,,,,-107.576.161,1.230.379.074,https://maps.google.com/?cid=0x0:0x6a53e34db7a737ed,
toko bangunan,toko bangunan,AGEN46 MELANIA,"6577+9CH, Daleholu, Kec. Rote Sel., Kabupaten Rote Ndao, Nusa Tenggara Tim.","Kabupaten Rote Ndao, Nusa Tenggara Tim.",NUSA TENGGARA TIMUR,,Indonesia,,,,-10.786.558,1.231.635.964,https://maps.google.com/?cid=0x0:0xa111018f86c89b56,
toko bangunan,toko bangunan,Axl bangunan,"7324+GHV, Jl. Lekunik, Mokdale, Kec. Lobalain, Kabupaten Rote Ndao, Nusa Tenggara Tim.","Kabupaten Rote Ndao, Nusa Tenggara Tim.",NUSA TENGGARA TIMUR,,Indonesia,,,,-107.486.265,1.230.564.334,https://maps.google.com/?cid=0x0:0x50dc9ae21d3739d3,
toko bangunan,toko bangunan,Kec. Lobalain,"Kabupaten Rote Ndao, Nusa Tenggara Tim.","Kabupaten Rote Ndao, Nusa Tenggara Tim.",NUSA TENGGARA TIMUR,,Indonesia,,,,-107.290.879,1.230.460.405,https://maps.google.com/?cid=0x0:0x618add3ee97f8439,
toko bangunan,Minimarket,toko hebron,"725V+CW9, Unnamed Rd, Mokdale, Kec. Lobalain, Kabupaten Rote Ndao, Nusa Tenggara Tim.","Kabupaten Rote Ndao, Nusa Tenggara Tim.",NUSA TENGGARA TIMUR,,Indonesia,,,,-107.414.723,1.230.448.675,https://maps.google.com/?cid=0x0:0x699558aa9d2e663a,
toko bangunan,Toko Bahan Bangunan,CV. Tujuh Jaya,"723W+C6P, Unnamed Rd, Mokdale, Kec. Lobalain, Kabupaten Rote Ndao, Nusa Tenggara Tim.","Kabupaten Rote Ndao, Nusa Tenggara Tim.",NUSA TENGGARA TIMUR,,Indonesia,,,,-107.464.098,12.304.558,https://maps.google.com/?cid=0x0:0x575a85c650ddf9e4,
toko bangunan,toko bangunan,CV .Timor Jaya Makmur,"Jl. Baa Busalangga, Mokdale, Kec. Lobalain, Kabupaten Rote Ndao, Nusa Tenggara Tim. 85911","Mokdale, Kec. Lobalain, Kabupaten Rote Ndao",NUSA TENGGARA TIMUR,85911.0,Indonesia,81236375011.0,,,-107.510.458,1.230.429.039,https://maps.google.com/?cid=0x0:0xaf2bb4f12467828e,
toko bangunan,Toko Bahan Bangunan,UD TUJUH JAYA BANGUNAN I,"72GX+8M5, Metina, Kec. Lobalain, Kabupaten Rote Ndao, Nusa Tenggara Tim.","Kabupaten Rote Ndao, Nusa Tenggara Tim.",NUSA TENGGARA TIMUR,,Indonesia,,,,-107.242.448,1.230.492.313,https://maps.google.com/?cid=0x0:0xca85d779b23c1d9d,
toko bangunan,Toko bahan makanan,TOKO TIGA PUTRI BANGUNAN,"62XV+W7H, Jl. Baa Busalangga, Mokdale, Kec. Lobalain, Kabupaten Rote Ndao, Nusa Tenggara Tim.","Kabupaten Rote Ndao, Nusa Tenggara Tim.",NUSA TENGGARA TIMUR,,Indonesia,,,,-107.501.785,1.230.432.403,https://maps.google.com/?cid=0x0:0xe53acca87f949eaf,
toko bangunan,Kios,Toko Sahabat Baru,"63P8+PH5, Jl. Lekunik, Mokdale, Kec. Lobalain, Kabupaten Rote Ndao, Nusa Tenggara Tim.","Kabupaten Rote Ndao, Nusa Tenggara Tim.",NUSA TENGGARA TIMUR,,Indonesia,,,,-10.763.019,1.230.674.043,https://maps.google.com/?cid=0x0:0x2fb78fa246d4a8a3,
toko bangunan,,Sumber Logam Mulia,"Tuanatuk, Kec. Lobalain, Kabupaten Rote Ndao, Nusa Tenggara Tim.","Kabupaten Rote Ndao, Nusa Tenggara Tim.",NUSA TENGGARA TIMUR,,Indonesia,81331720518.0,,,-107.596.611,123.035.666,https://maps.google.com/?cid=0x0:0x621f787799b64233,
toko bangunan,Rumah Sakit,Toko Elim Jaya,"722V+4F6, Jl. Baa Busalangga, Mokdale, Kec. Lobalain, Kabupaten Rote Ndao, Nusa Tenggara Tim.","Kabupaten Rote Ndao, Nusa Tenggara Tim.",NUSA TENGGARA TIMUR,,Indonesia,81339338888.0,,,-107.529.719,1.230.419.021,https://maps.google.com/?cid=0x0:0x42543e6a746c84fb,
toko bangunan,toko bangunan,Toko UTOMO ROTE,"724W+8V7, Jl. Baa Busalangga, RT.01/RW.01, Mokdale, Kec. Lobalain, Kabupaten Rote Ndao, Nusa Tenggara Tim.","Kabupaten Rote Ndao, Nusa Tenggara Tim.",NUSA TENGGARA TIMUR,,Indonesia,85339014875.0,,,-107.442.017,123.047.166,https://maps.google.com/?cid=0x0:0x5b64e059f2b569bf,
toko bangunan,Pemasok Pipa,Toko Buana Bangunan,"Lasiana, Kec. Klp. Lima, Kota Kupang, Nusa Tenggara Tim.","Kota Kupang, Nusa Tenggara Tim.",NUSA TENGGARA TIMUR,,Indonesia,82244376888.0,,,-101.373.266,1.236.764.484,https://maps.google.com/?cid=0x0:0x9fc6cad7dda4e71a,
toko bangunan,Toko Bahan Bangunan,Sinar Bangunan Building Center,"Jl. Bund. PU No.12, Tuak Daun Merah, Kec. Oebobo, Kota Kupang, Nusa Tenggara Tim. 85228","Tuak Daun Merah, Kec. Oebobo, Kota Kupang",NUSA TENGGARA TIMUR,85228.0,Indonesia,81236648694.0,,,-101.675.355,1.236.289.538,https://maps.google.com/?cid=0x0:0x8b34913a09e207d2,
toko bangunan,Toko Bahan Bangunan,Dewa gunshop,"65W8+5C, Lidamanu, Kec. Rote Tengah, Kabupaten Rote Ndao, Nusa Tenggara Tim.","Kabupaten Rote Ndao, Nusa Tenggara Tim.",NUSA TENGGARA TIMUR,,Indonesia,,,,-107.545.812,1.231.660.526,https://maps.google.com/?cid=0x0:0x79b6addc4752e06a,
toko bangunan,toko bangunan,Axl bangunan,"7324+GHV, Jl. Lekunik, Mokdale, Kec. Lobalain, Kabupaten Rote Ndao, Nusa Tenggara Tim.","Kabupaten Rote Ndao, Nusa Tenggara Tim.",NUSA TENGGARA TIMUR,,Indonesia,,,,-107.486.265,1.230.564.334,https://maps.google.com/?cid=0x0:0x50dc9ae21d3739d3,
toko bangunan,toko bangunan,AGEN46 MELANIA,"6577+9CH, Daleholu, Kec. Rote Sel., Kabupaten Rote Ndao, Nusa Tenggara Tim.","Kabupaten Rote Ndao, Nusa Tenggara Tim.",NUSA TENGGARA TIMUR,,Indonesia,,,,-10.786.558,1.231.635.964,https://maps.google.com/?cid=0x0:0xa111018f86c89b56,
toko bangunan,Toko Bahan Bangunan,Toko Bravo Bangunan,"Jl. Terusan Timor Raya, Pasir Panjang, Kec. Kota Lama, Kota Kupang, Nusa Tenggara Tim. 85000","Pasir Panjang, Kec. Kota Lama, Kota Kupang",NUSA TENGGARA TIMUR,85000.0,Indonesia,81246295800.0,,,-101.509.378,1.236.033.391,https://maps.google.com/?cid=0x0:0xdf4da131f9948aff,
toko bangunan,Pemasok Pipa,Toko Bangunan,"Manulai II, Kec. Alak, Kota Kupang, Nusa Tenggara Tim.","Kota Kupang, Nusa Tenggara Tim.",NUSA TENGGARA TIMUR,,Indonesia,85123255522.0,,,-10.213.815,1.235.749.527,https://maps.google.com/?cid=0x0:0x5559349e9e4fc36f,
toko bangunan,Toko Perlengkapan Rumah,Toko Karya Bangunan,"RJQV+H9Q, Jl. Bumi I, Oesapa Sel., Kec. Klp. Lima, Kota Kupang, Nusa Tenggara Tim.","Kota Kupang, Nusa Tenggara Tim.",NUSA TENGGARA TIMUR,,Indonesia,,,,-101.610.333,1.236.434.727,https://maps.google.com/?cid=0x0:0x480107de15c2a6cf,
toko bangunan,toko bangunan,Toko Zebada,"62RQ+X53, Mokdale, Kec. Lobalain, Kabupaten Rote Ndao, Nusa Tenggara Tim.","Kabupaten Rote Ndao, Nusa Tenggara Tim.",NUSA TENGGARA TIMUR,,Indonesia,,,,-107.576.161,1.230.379.074,https://maps.google.com/?cid=0x0:0x6a53e34db7a737ed,
toko bangunan,Toko Bahan Bangunan,TB KARYA BANGUNAN LUMBUNG,"Jl. Atang Senjaya, RT.02/RW.07, Kp. Lumbung, Semplak Bar., Kec. Kemang, Kabupaten Bogor, Jawa Barat 46258","RT.02/RW.07, Kp. Lumbung, Semplak Bar., Kec. Kemang, Kabupaten Bogor",NUSA TENGGARA TIMUR,46258.0,Indonesia,81545449212.0,,,-65.424.503,1.067.464.868,https://maps.google.com/?cid=0x0:0x1e69b96fa34180b,
toko bangunan,Toko Bahan Bangunan,TB.DALIMA JAYA,"Jl. Nurkim Jl. Kp. Cibogel No.38, Kota Batu, Kec. Ciomas, Kabupaten Bogor, Jawa Barat 16610","Kota Batu, Kec. Ciomas, Kabupaten Bogor",NUSA TENGGARA TIMUR,16610.0,Indonesia,,,,-66.231.667,1.067.769.938,https://maps.google.com/?cid=0x0:0x53c58466a88603d5,
toko bangunan,toko bangunan,Kec. Lobalain,"Kabupaten Rote Ndao, Nusa Tenggara Tim.","Kabupaten Rote Ndao, Nusa Tenggara Tim.",NUSA TENGGARA TIMUR,,Indonesia,,,,-107.290.879,1.230.460.405,https://maps.google.com/?cid=0x0:0x618add3ee97f8439,
toko bangunan,Minimarket,toko hebron,"725V+CW9, Unnamed Rd, Mokdale, Kec. Lobalain, Kabupaten Rote Ndao, Nusa Tenggara Tim.","Kabupaten Rote Ndao, Nusa Tenggara Tim.",NUSA TENGGARA TIMUR,,Indonesia,,,,-107.414.723,1.230.448.675,https://maps.google.com/?cid=0x0:0x699558aa9d2e663a,
toko bangunan,Toko Bahan Bangunan,CV. Tujuh Jaya,"723W+C6P, Unnamed Rd, Mokdale, Kec. Lobalain, Kabupaten Rote Ndao, Nusa Tenggara Tim.","Kabupaten Rote Ndao, Nusa Tenggara Tim.",NUSA TENGGARA TIMUR,,Indonesia,,,,-107.464.098,12.304.558,https://maps.google.com/?cid=0x0:0x575a85c650ddf9e4,
toko bangunan,Toko Bahan Bangunan,UD TUJUH JAYA BANGUNAN I,"72GX+8M5, Metina, Kec. Lobalain, Kabupaten Rote Ndao, Nusa Tenggara Tim.","Kabupaten Rote Ndao, Nusa Tenggara Tim.",NUSA TENGGARA TIMUR,,Indonesia,,,,-107.242.448,1.230.492.313,https://maps.google.com/?cid=0x0:0xca85d779b23c1d9d,
toko bangunan,toko bangunan,CV .Timor Jaya Makmur,"Jl. Baa Busalangga, Mokdale, Kec. Lobalain, Kabupaten Rote Ndao, Nusa Tenggara Tim. 85911","Mokdale, Kec. Lobalain, Kabupaten Rote Ndao",NUSA TENGGARA TIMUR,85911.0,Indonesia,81236375011.0,,,-107.510.458,1.230.429.039,https://maps.google.com/?cid=0x0:0xaf2bb4f12467828e,
toko bangunan,Toko bahan makanan,TOKO TIGA PUTRI BANGUNAN,"62XV+W7H, Jl. Baa Busalangga, Mokdale, Kec. Lobalain, Kabupaten Rote Ndao, Nusa Tenggara Tim.","Kabupaten Rote Ndao, Nusa Tenggara Tim.",NUSA TENGGARA TIMUR,,Indonesia,,,,-107.501.785,1.230.432.403,https://maps.google.com/?cid=0x0:0xe53acca87f949eaf,
toko bangunan,Kios,Toko Sahabat Baru,"63P8+PH5, Jl. Lekunik, Mokdale, Kec. Lobalain, Kabupaten Rote Ndao, Nusa Tenggara Tim.","Kabupaten Rote Ndao, Nusa Tenggara Tim.",NUSA TENGGARA TIMUR,,Indonesia,,,,-10.763.019,1.230.674.043,https://maps.google.com/?cid=0x0:0x2fb78fa246d4a8a3,
toko bangunan,,Sumber Logam Mulia,"Tuanatuk, Kec. Lobalain, Kabupaten Rote Ndao, Nusa Tenggara Tim.","Kabupaten Rote Ndao, Nusa Tenggara Tim.",NUSA TENGGARA TIMUR,,Indonesia,81331720518.0,,,-107.596.611,123.035.666,https://maps.google.com/?cid=0x0:0x621f787799b64233,
toko bangunan,Rumah Sakit,Toko Elim Jaya,"722V+4F6, Jl. Baa Busalangga, Mokdale, Kec. Lobalain, Kabupaten Rote Ndao, Nusa Tenggara Tim.","Kabupaten Rote Ndao, Nusa Tenggara Tim.",NUSA TENGGARA TIMUR,,Indonesia,81339338888.0,,,-107.529.719,1.230.419.021,https://maps.google.com/?cid=0x0:0x42543e6a746c84fb,
toko bangunan,toko bangunan,Toko UTOMO ROTE,"724W+8V7, Jl. Baa Busalangga, RT.01/RW.01, Mokdale, Kec. Lobalain, Kabupaten Rote Ndao, Nusa Tenggara Tim.","Kabupaten Rote Ndao, Nusa Tenggara Tim.",NUSA TENGGARA TIMUR,,Indonesia,85339014875.0,,,-107.442.017,123.047.166,https://maps.google.com/?cid=0x0:0x5b64e059f2b569bf,
toko bangunan,Pemasok Pipa,Toko Buana Bangunan,"Lasiana, Kec. Klp. Lima, Kota Kupang, Nusa Tenggara Tim.","Kota Kupang, Nusa Tenggara Tim.",NUSA TENGGARA TIMUR,,Indonesia,82244376888.0,,,-101.373.266,1.236.764.484,https://maps.google.com/?cid=0x0:0x9fc6cad7dda4e71a,
toko bangunan,Toko Bahan Bangunan,Dewa gunshop,"65W8+5C, Lidamanu, Kec. Rote Tengah, Kabupaten Rote Ndao, Nusa Tenggara Tim.","Kabupaten Rote Ndao, Nusa Tenggara Tim.",NUSA TENGGARA TIMUR,,Indonesia,,,,-107.545.812,1.231.660.526,https://maps.google.com/?cid=0x0:0x79b6addc4752e06a,
toko bangunan,toko bangunan,Toko Zebada,"62RQ+X53, Mokdale, Kec. Lobalain, Kabupaten Rote Ndao, Nusa Tenggara Tim.","Kabupaten Rote Ndao, Nusa Tenggara Tim.",NUSA TENGGARA TIMUR,,Indonesia,,,,-107.576.161,1.230.379.074,https://maps.google.com/?cid=0x0:0x6a53e34db7a737ed,
toko bangunan,toko bangunan,AGEN46 MELANIA,"6577+9CH, Daleholu, Kec. Rote Sel., Kabupaten Rote Ndao, Nusa Tenggara Tim.","Kabupaten Rote Ndao, Nusa Tenggara Tim.",NUSA TENGGARA TIMUR,,Indonesia,,,,-10.786.558,1.231.635.964,https://maps.google.com/?cid=0x0:0xa111018f86c89b56,
toko bangunan,toko bangunan,Axl bangunan,"7324+GHV, Jl. Lekunik, Mokdale, Kec. Lobalain, Kabupaten Rote Ndao, Nusa Tenggara Tim.","Kabupaten Rote Ndao, Nusa Tenggara Tim.",NUSA TENGGARA TIMUR,,Indonesia,,,,-107.486.265,1.230.564.334,https://maps.google.com/?cid=0x0:0x50dc9ae21d3739d3,
toko bangunan,toko bangunan,Kec. Lobalain,"Kabupaten Rote Ndao, Nusa Tenggara Tim.","Kabupaten Rote Ndao, Nusa Tenggara Tim.",NUSA TENGGARA TIMUR,,Indonesia,,,,-107.290.879,1.230.460.405,https://maps.google.com/?cid=0x0:0x618add3ee97f8439,
toko bangunan,Minimarket,toko hebron,"725V+CW9, Unnamed Rd, Mokdale, Kec. Lobalain, Kabupaten Rote Ndao, Nusa Tenggara Tim.","Kabupaten Rote Ndao, Nusa Tenggara Tim.",NUSA TENGGARA TIMUR,,Indonesia,,,,-107.414.723,1.230.448.675,https://maps.google.com/?cid=0x0:0x699558aa9d2e663a,
toko bangunan,Toko Bahan Bangunan,UD. Adikara Jaya Bangunan,"Mokdale, Kec. Lobalain, Kabupaten Rote Ndao, Nusa Tenggara Tim. 85914","Kec. Lobalain, Kabupaten Rote Ndao",NUSA TENGGARA TIMUR,85914.0,Indonesia,82236420433.0,,,-10.758.659,1.230.367.714,https://maps.google.com/?cid=0x0:0xc42be311b39e209,
toko bangunan,Toko Bahan Bangunan,UD TUJUH JAYA BANGUNAN I,"72GX+8M5, Metina, Kec. Lobalain, Kabupaten Rote Ndao, Nusa Tenggara Tim.","Kabupaten Rote Ndao, Nusa Tenggara Tim.",NUSA TENGGARA TIMUR,,Indonesia,,,,-107.242.448,1.230.492.313,https://maps.google.com/?cid=0x0:0xca85d779b23c1d9d,
toko bangunan,toko bangunan,Toko Zebada,"62RQ+X53, Mokdale, Kec. Lobalain, Kabupaten Rote Ndao, Nusa Tenggara Tim.","Kabupaten Rote Ndao, Nusa Tenggara Tim.",NUSA TENGGARA TIMUR,,Indonesia,,,,-107.576.161,1.230.379.074,https://maps.google.com/?cid=0x0:0x6a53e34db7a737ed,
toko bangunan,toko bangunan,Axl bangunan,"7324+GHV, Jl. Lekunik, Mokdale, Kec. Lobalain, Kabupaten Rote Ndao, Nusa Tenggara Tim.","Kabupaten Rote Ndao, Nusa Tenggara Tim.",NUSA TENGGARA TIMUR,,Indonesia,,,,-107.486.265,1.230.564.334,https://maps.google.com/?cid=0x0:0x50dc9ae21d3739d3,
toko bangunan,toko bangunan,CV .Timor Jaya Makmur,"Jl. Baa Busalangga, Mokdale, Kec. Lobalain, Kabupaten Rote Ndao, Nusa Tenggara Tim. 85911","Mokdale, Kec. Lobalain, Kabupaten Rote Ndao",NUSA TENGGARA TIMUR,85911.0,Indonesia,81236375011.0,,,-107.510.458,1.230.429.039,https://maps.google.com/?cid=0x0:0xaf2bb4f12467828e,
toko bangunan,Toko bahan makanan,TOKO TIGA PUTRI BANGUNAN,"62XV+W7H, Jl. Baa Busalangga, Mokdale, Kec. Lobalain, Kabupaten Rote Ndao, Nusa Tenggara Tim.","Kabupaten Rote Ndao, Nusa Tenggara Tim.",NUSA TENGGARA TIMUR,,Indonesia,,,,-107.501.785,1.230.432.403,https://maps.google.com/?cid=0x0:0xe53acca87f949eaf,
toko bangunan,Kios,Toko Sahabat Baru,"63P8+PH5, Jl. Lekunik, Mokdale, Kec. Lobalain, Kabupaten Rote Ndao, Nusa Tenggara Tim.","Kabupaten Rote Ndao, Nusa Tenggara Tim.",NUSA TENGGARA TIMUR,,Indonesia,,,,-10.763.019,1.230.674.043,https://maps.google.com/?cid=0x0:0x2fb78fa246d4a8a3,
toko bangunan,Rumah Sakit,Toko Elim Jaya,"722V+4F6, Jl. Baa Busalangga, Mokdale, Kec. Lobalain, Kabupaten Rote Ndao, Nusa Tenggara Tim.","Kabupaten Rote Ndao, Nusa Tenggara Tim.",NUSA TENGGARA TIMUR,,Indonesia,81339338888.0,,,-107.529.719,1.230.419.021,https://maps.google.com/?cid=0x0:0x42543e6a746c84fb,
toko bangunan,,Sumber Logam Mulia,"Tuanatuk, Kec. Lobalain, Kabupaten Rote Ndao, Nusa Tenggara Tim.","Kabupaten Rote Ndao, Nusa Tenggara Tim.",NUSA TENGGARA TIMUR,,Indonesia,81331720518.0,,,-107.596.611,123.035.666,https://maps.google.com/?cid=0x0:0x621f787799b64233,
toko bangunan,toko bangunan,Toko UTOMO ROTE,"724W+8V7, Jl. Baa Busalangga, RT.01/RW.01, Mokdale, Kec. Lobalain, Kabupaten Rote Ndao, Nusa Tenggara Tim.","Kabupaten Rote Ndao, Nusa Tenggara Tim.",NUSA TENGGARA TIMUR,,Indonesia,85339014875.0,,,-107.442.017,123.047.166,https://maps.google.com/?cid=0x0:0x5b64e059f2b569bf,
toko bangunan,Toko Bahan Bangunan,Dewa gunshop,"65W8+5C, Lidamanu, Kec. Rote Tengah, Kabupaten Rote Ndao, Nusa Tenggara Tim.","Kabupaten Rote Ndao, Nusa Tenggara Tim.",NUSA TENGGARA TIMUR,,Indonesia,,,,-107.545.812,1.231.660.526,https://maps.google.com/?cid=0x0:0x79b6addc4752e06a,
toko bangunan,toko bangunan,AGEN46 MELANIA,"6577+9CH, Daleholu, Kec. Rote Sel., Kabupaten Rote Ndao, Nusa Tenggara Tim.","Kabupaten Rote Ndao, Nusa Tenggara Tim.",NUSA TENGGARA TIMUR,,Indonesia,,,,-10.786.558,1.231.635.964,https://maps.google.com/?cid=0x0:0xa111018f86c89b56,
toko bangunan,toko bangunan,Kec. Rote Tengah,"Kabupaten Rote Ndao, Nusa Tenggara Tim.","Kabupaten Rote Ndao, Nusa Tenggara Tim.",NUSA TENGGARA TIMUR,,Indonesia,,,,-106.702.912,1.231.279.559,https://maps.google.com/?cid=0x0:0x44ac523cb3546567,
toko bangunan,Toko Bahan Bangunan,CV. Tujuh Jaya,"723W+C6P, Unnamed Rd, Mokdale, Kec. Lobalain, Kabupaten Rote Ndao, Nusa Tenggara Tim.","Kabupaten Rote Ndao, Nusa Tenggara Tim.",NUSA TENGGARA TIMUR,,Indonesia,81236375011.0,,,-107.464.098,12.304.558,https://maps.google.com/?cid=0x0:0x575a85c650ddf9e4,
toko bangunan,Toko Bahan Bangunan,UD TUJUH JAYA BANGUNAN I,"72GX+8M5, Metina, Kec. Lobalain, Kabupaten Rote Ndao, Nusa Tenggara Tim.","Kabupaten Rote Ndao, Nusa Tenggara Tim.",NUSA TENGGARA TIMUR,,Indonesia,,,,-107.242.448,1.230.492.313,https://maps.google.com/?cid=0x0:0xca85d779b23c1d9d,
toko bangunan,Toko Bahan Bangunan,Dewa gunshop,"65W8+5C, Lidamanu, Kec. Rote Tengah, Kabupaten Rote Ndao, Nusa Tenggara Tim.","Kabupaten Rote Ndao, Nusa Tenggara Tim.",NUSA TENGGARA TIMUR,,Indonesia,,,,-107.545.812,1.231.660.526,https://maps.google.com/?cid=0x0:0x79b6addc4752e06a,
toko bangunan,Minimarket,toko hebron,"725V+CW9, Unnamed Rd, Mokdale, Kec. Lobalain, Kabupaten Rote Ndao, Nusa Tenggara Tim.","Kabupaten Rote Ndao, Nusa Tenggara Tim.",NUSA TENGGARA TIMUR,,Indonesia,,,,-107.414.723,1.230.448.675,https://maps.google.com/?cid=0x0:0x699558aa9d2e663a,
toko bangunan,Toko Bahan Bangunan,UD. Adikara Jaya Bangunan,"Mokdale, Kec. Lobalain, Kabupaten Rote Ndao, Nusa Tenggara Tim. 85914","Kec. Lobalain, Kabupaten Rote Ndao",NUSA TENGGARA TIMUR,85914.0,Indonesia,82236420433.0,,,-10.758.659,1.230.367.714,https://maps.google.com/?cid=0x0:0xc42be311b39e209,
toko bangunan,Kios,Toko Sahabat Baru,"63P8+PH5, Jl. Lekunik, Mokdale, Kec. Lobalain, Kabupaten Rote Ndao, Nusa Tenggara Tim.","Kabupaten Rote Ndao, Nusa Tenggara Tim.",NUSA TENGGARA TIMUR,,Indonesia,,,,-10.763.019,1.230.674.043,https://maps.google.com/?cid=0x0:0x2fb78fa246d4a8a3,
toko bangunan,Rumah Sakit,Toko Elim Jaya,"722V+4F6, Jl. Baa Busalangga, Mokdale, Kec. Lobalain, Kabupaten Rote Ndao, Nusa Tenggara Tim.","Kabupaten Rote Ndao, Nusa Tenggara Tim.",NUSA TENGGARA TIMUR,,Indonesia,81339338888.0,,,-107.529.719,1.230.419.021,https://maps.google.com/?cid=0x0:0x42543e6a746c84fb,
toko bangunan,toko bangunan,Toko UTOMO ROTE,"724W+8V7, Jl. Baa Busalangga, RT.01/RW.01, Mokdale, Kec. Lobalain, Kabupaten Rote Ndao, Nusa Tenggara Tim.","Kabupaten Rote Ndao, Nusa Tenggara Tim.",NUSA TENGGARA TIMUR,,Indonesia,85339014875.0,,,-107.442.017,123.047.166,https://maps.google.com/?cid=0x0:0x5b64e059f2b569bf,
toko bangunan,Toko bahan makanan,UD PALBERS,"Nggelodae, Kec. Rote Sel., Kabupaten Rote Ndao, Nusa Tenggara Tim. 85972","Kec. Rote Sel., Kabupaten Rote Ndao",NUSA TENGGARA TIMUR,85972.0,Indonesia,,,,-107.828.143,1.231.818.295,https://maps.google.com/?cid=0x0:0x44999b54e678931c,
toko bangunan,toko bangunan,CV .Timor Jaya Makmur,"Jl. Baa Busalangga, Mokdale, Kec. Lobalain, Kabupaten Rote Ndao, Nusa Tenggara Tim. 85911","Mokdale, Kec. Lobalain, Kabupaten Rote Ndao",NUSA TENGGARA TIMUR,85911.0,Indonesia,81236375011.0,,,-107.510.458,1.230.429.039,https://maps.google.com/?cid=0x0:0xaf2bb4f12467828e,
toko bangunan,toko bangunan,Kec. Rote Tim.,"Kabupaten Rote Ndao, Nusa Tenggara Tim.","Kabupaten Rote Ndao, Nusa Tenggara Tim.",NUSA TENGGARA TIMUR,,Indonesia,,,,-106.018.337,1.233.792.441,https://maps.google.com/?cid=0x0:0x20409773de900efa,
toko bangunan,Toko Bahan Bangunan,CV. Tujuh Jaya,"723W+C6P, Unnamed Rd, Mokdale, Kec. Lobalain, Kabupaten Rote Ndao, Nusa Tenggara Tim.","Kabupaten Rote Ndao, Nusa Tenggara Tim.",NUSA TENGGARA TIMUR,,Indonesia,81236375011.0,,,-107.464.098,12.304.558,https://maps.google.com/?cid=0x0:0x575a85c650ddf9e4,
toko bangunan,Minimarket,toko hebron,"725V+CW9, Unnamed Rd, Mokdale, Kec. Lobalain, Kabupaten Rote Ndao, Nusa Tenggara Tim.","Kabupaten Rote Ndao, Nusa Tenggara Tim.",NUSA TENGGARA TIMUR,,Indonesia,,,,-107.414.723,1.230.448.675,https://maps.google.com/?cid=0x0:0x699558aa9d2e663a,
toko bangunan,Toko Bahan Bangunan,Mitra Bangunan,"Jl. Moch Hatta No.52, Fontein, Kec. Kota Raja, Kota Kupang, Nusa Tenggara Tim. 85112","Fontein, Kec. Kota Raja, Kota Kupang",NUSA TENGGARA TIMUR,85112.0,Indonesia,82236636819.0,,,-10.169.089,123.585.355,https://maps.google.com/?cid=0x0:0xb133bd5d1eaec0af,
toko bangunan,Toko Bahan Bangunan,UD TUJUH JAYA BANGUNAN I,"72GX+8M5, Metina, Kec. Lobalain, Kabupaten Rote Ndao, Nusa Tenggara Tim.","Kabupaten Rote Ndao, Nusa Tenggara Tim.",NUSA TENGGARA TIMUR,,Indonesia,,,,-107.242.448,1.230.492.313,https://maps.google.com/?cid=0x0:0xca85d779b23c1d9d,
toko bangunan,toko bangunan,UD Madona,"99XH+CP4, Londalusi, Kec. Rote Tim., Kabupaten Rote Ndao, Nusa Tenggara Tim.","Kabupaten Rote Ndao, Nusa Tenggara Tim.",NUSA TENGGARA TIMUR,,Indonesia,,,,-106.014.879,1.233.793.297,https://maps.google.com/?cid=0x0:0x9ddf0bbefe8d43b3,
toko bangunan,toko bangunan,UD 9 mata air,"98Q4+4W4, Matasio, Kec. Rote Tim., Kabupaten Rote Ndao, Nusa Tenggara Tim.","Kabupaten Rote Ndao, Nusa Tenggara Tim.",NUSA TENGGARA TIMUR,,Indonesia,82342227399.0,,,-106.122.387,1.233.073.293,https://maps.google.com/?cid=0x0:0x2fcc053049bd45a2,
toko bangunan,Pemasok Pipa,Toko Bangunan,"Manulai II, Kec. Alak, Kota Kupang, Nusa Tenggara Tim.","Kota Kupang, Nusa Tenggara Tim.",NUSA TENGGARA TIMUR,,Indonesia,85123255522.0,,,-10.213.815,1.235.749.527,https://maps.google.com/?cid=0x0:0x5559349e9e4fc36f,
toko bangunan,toko bangunan,Toko Zebada,"62RQ+X53, Mokdale, Kec. Lobalain, Kabupaten Rote Ndao, Nusa Tenggara Tim.","Kabupaten Rote Ndao, Nusa Tenggara Tim.",NUSA TENGGARA TIMUR,,Indonesia,,,,-107.576.161,1.230.379.074,https://maps.google.com/?cid=0x0:0x6a53e34db7a737ed,
toko bangunan,toko bangunan,Kec. Rote Bar.,"Kabupaten Rote Ndao, Nusa Tenggara Tim.","Kabupaten Rote Ndao, Nusa Tenggara Tim.",NUSA TENGGARA TIMUR,,Indonesia,,,,-108.858.919,1.228.260.101,https://maps.google.com/?cid=0x0:0x20873fb50a5b50f7,
toko bangunan,Toko Bahan Bangunan,CV. Tujuh Jaya,"723W+C6P, Unnamed Rd, Mokdale, Kec. Lobalain, Kabupaten Rote Ndao, Nusa Tenggara Tim.","Kabupaten Rote Ndao, Nusa Tenggara Tim.",NUSA TENGGARA TIMUR,,Indonesia,81236375011.0,,,-107.464.098,12.304.558,https://maps.google.com/?cid=0x0:0x575a85c650ddf9e4,
toko bangunan,Minimarket,toko hebron,"725V+CW9, Unnamed Rd, Mokdale, Kec. Lobalain, Kabupaten Rote Ndao, Nusa Tenggara Tim.","Kabupaten Rote Ndao, Nusa Tenggara Tim.",NUSA TENGGARA TIMUR,,Indonesia,,,,-107.414.723,1.230.448.675,https://maps.google.com/?cid=0x0:0x699558aa9d2e663a,
toko bangunan,Pom bensin/SPBU,"DasarMaju, Lalukoen","No.19, Lalukoen, Kec. Rote Bar. Daya, Kabupaten Rote Ndao, Nusa Tenggara Tim. 85982","Lalukoen, Kec. Rote Bar. Daya, Kabupaten Rote Ndao",NUSA TENGGARA TIMUR,85982.0,Indonesia,81213161019.0,,,-10.861.694,1.229.289.688,https://maps.google.com/?cid=0x0:0x3b3093eed014541f,
toko bangunan,Toko Bahan Bangunan,UD TUJUH JAYA BANGUNAN I,"72GX+8M5, Metina, Kec. Lobalain, Kabupaten Rote Ndao, Nusa Tenggara Tim.","Kabupaten Rote Ndao, Nusa Tenggara Tim.",NUSA TENGGARA TIMUR,,Indonesia,,,,-107.242.448,1.230.492.313,https://maps.google.com/?cid=0x0:0xca85d779b23c1d9d,
toko bangunan,toko bangunan,Anugerah Surf  Dive Resort,"Baadale, Jl. Nemberala, Nemberala, Kec. Rote Bar., Kabupaten Rote Ndao, Nusa Tenggara Tim.","Kabupaten Rote Ndao, Nusa Tenggara Tim.",NUSA TENGGARA TIMUR,,Indonesia,8113823441.0,,,-108.906.055,122.823.133,https://maps.google.com/?cid=0x0:0xa4a8ba4ea68143fc,
toko bangunan,toko bangunan,Lualemba Bungalows,"Lualemba Bungalow Resort, Nemberala, Kec. Rote Bar., Kabupaten Rote Ndao, Nusa Tenggara Tim. 85982","Nemberala, Kec. Rote Bar., Kabupaten Rote Ndao",NUSA TENGGARA TIMUR,85982.0,Indonesia,,,,-10.889.101,1.228.284.006,https://maps.google.com/?cid=0x0:0xfdb82fc10785aa21,
toko bangunan,toko bangunan,Casa Narrow villa,"Jalan Oenggaut, Bar, Oenggaut, Rote Barat, Rote Ndao Regency, East Nusa Tenggara","Kabupaten Rote Ndao, Nusa Tenggara Tim.",NUSA TENGGARA TIMUR,,Indonesia,,,,-10.907.176,1.228.227.761,https://maps.google.com/?cid=0x0:0x9f5d7f680eb1d28c,
toko bangunan,toko bangunan,COCOKABANAS,"Jalan, Nusa Tenggara Tim. 80810","Kabupaten Rote Ndao, Nusa Tenggara Tim.",NUSA TENGGARA TIMUR,,Indonesia,81281011094.0,,,-108.926.056,1.228.238.965,https://maps.google.com/?cid=0x0:0x6f89cd7675c70002,
toko bangunan,toko bangunan,Mulia Bungalows Nemberala,"Sedeoen, Kec. Rote Bar., Kabupaten Rote Ndao, Nusa Tenggara Tim.","Kabupaten Rote Ndao, Nusa Tenggara Tim.",NUSA TENGGARA TIMUR,,Indonesia,82337878111.0,,,-108.712.797,1.228.312.683,https://maps.google.com/?cid=0x0:0xe575236b3d42570e,
toko bangunan,toko bangunan,Utopia Rote Lodge,"Sedeoen, Kec. Rote Bar., Kabupaten Rote Ndao, Nusa Tenggara Tim.","Kabupaten Rote Ndao, Nusa Tenggara Tim.",NUSA TENGGARA TIMUR,,Indonesia,81237126174.0,,,-108.809.702,1.228.543.907,https://maps.google.com/?cid=0x0:0x2d2be96569333078,
toko bangunan,toko bangunan,Sunset Bungalow,"Nemberala, Kec. Rote Bar., Kabupaten Rote Ndao, Nusa Tenggara Tim. 85982","Kec. Rote Bar., Kabupaten Rote Ndao",NUSA TENGGARA TIMUR,85982.0,Indonesia,,,,-108.943.259,1.228.252.325,https://maps.google.com/?cid=0x0:0xcb32332b4471fa4e,
toko bangunan,toko bangunan,"Blu Oceano, BB, Italian Restaurant, Rote Nembrala","rw 004 rt 002, Sedeoen, Rote Barat, Rote Ndao Regency, East Nusa Tenggara 85983","Sedeoen, Rote Barat, Rote Ndao Regency",NUSA TENGGARA TIMUR,85983.0,Indonesia,82237711555.0,,,-108.792.601,1.228.298.024,https://maps.google.com/?cid=0x0:0x7b38de7c1f93b105,
toko bangunan,Hotel Resor,Pantai Nemberala,"Nemberala, Kec. Rote Bar., Kabupaten Rote Ndao, Nusa Tenggara Tim.","Kabupaten Rote Ndao, Nusa Tenggara Tim.",NUSA TENGGARA TIMUR,,Indonesia,,,,-10.889.968,1.228.226.098,https://maps.google.com/?cid=0x0:0xfd64cfbb565d9f6c,
toko bangunan,toko bangunan,UD. AISELE,"4WM5+PMR, Jalan Baa-Nemberala, Lalukoen, Kec. Rote Bar. Daya, Kabupaten Rote Ndao, Nusa Tenggara Tim.","Kabupaten Rote Ndao, Nusa Tenggara Tim.",NUSA TENGGARA TIMUR,,Indonesia,,,,-108.656.366,1.229.091.322,https://maps.google.com/?cid=0x0:0x76e4309145ce22bb,
toko bangunan,toko bangunan,Pdan MGZ,"4RMX+FGQ, Unnamed Road, Oenitas, Kec. Rote Bar., Kabupaten Rote Ndao, Nusa Tenggara Tim.","Kabupaten Rote Ndao, Nusa Tenggara Tim.",NUSA TENGGARA TIMUR,,Indonesia,,,,-10.866.284,1.228.488.663,https://maps.google.com/?cid=0x0:0xa76d0122dd2856e1,
toko bangunan,toko bangunan,Toko Zebada,"62RQ+X53, Mokdale, Kec. Lobalain, Kabupaten Rote Ndao, Nusa Tenggara Tim.","Kabupaten Rote Ndao, Nusa Tenggara Tim.",NUSA TENGGARA TIMUR,,Indonesia,,,,-107.576.161,1.230.379.074,https://maps.google.com/?cid=0x0:0x6a53e34db7a737ed,
toko bangunan,toko bangunan,Kec. Rote Bar.,"Kabupaten Rote Ndao, Nusa Tenggara Tim.","Kabupaten Rote Ndao, Nusa Tenggara Tim.",NUSA TENGGARA TIMUR,,Indonesia,,,,-108.858.919,1.228.260.101,https://maps.google.com/?cid=0x0:0x20873fb50a5b50f7,
toko bangunan,Toko Bahan Bangunan,CV. Tujuh Jaya,"723W+C6P, Unnamed Rd, Mokdale, Kec. Lobalain, Kabupaten Rote Ndao, Nusa Tenggara Tim.","Kabupaten Rote Ndao, Nusa Tenggara Tim.",NUSA TENGGARA TIMUR,,Indonesia,81236375011.0,,,-107.464.098,12.304.558,https://maps.google.com/?cid=0x0:0x575a85c650ddf9e4,
toko bangunan,Minimarket,toko hebron,"725V+CW9, Unnamed Rd, Mokdale, Kec. Lobalain, Kabupaten Rote Ndao, Nusa Tenggara Tim.","Kabupaten Rote Ndao, Nusa Tenggara Tim.",NUSA TENGGARA TIMUR,,Indonesia,,,,-107.414.723,1.230.448.675,https://maps.google.com/?cid=0x0:0x699558aa9d2e663a,
toko bangunan,Pom bensin/SPBU,"DasarMaju, Lalukoen","No.19, Lalukoen, Kec. Rote Bar. Daya, Kabupaten Rote Ndao, Nusa Tenggara Tim. 85982","Lalukoen, Kec. Rote Bar. Daya, Kabupaten Rote Ndao",NUSA TENGGARA TIMUR,85982.0,Indonesia,81213161019.0,,,-10.861.694,1.229.289.688,https://maps.google.com/?cid=0x0:0x3b3093eed014541f,
toko bangunan,toko bangunan,Anugerah Surf  Dive Resort,"Baadale, Jl. Nemberala, Nemberala, Kec. Rote Bar., Kabupaten Rote Ndao, Nusa Tenggara Tim.","Kabupaten Rote Ndao, Nusa Tenggara Tim.",NUSA TENGGARA TIMUR,,Indonesia,8113823441.0,,,-108.906.055,122.823.133,https://maps.google.com/?cid=0x0:0xa4a8ba4ea68143fc,
toko bangunan,toko bangunan,Lualemba Bungalows,"Lualemba Bungalow Resort, Nemberala, Kec. Rote Bar., Kabupaten Rote Ndao, Nusa Tenggara Tim. 85982","Nemberala, Kec. Rote Bar., Kabupaten Rote Ndao",NUSA TENGGARA TIMUR,85982.0,Indonesia,,,,-10.889.101,1.228.284.006,https://maps.google.com/?cid=0x0:0xfdb82fc10785aa21,
toko bangunan,toko bangunan,COCOKABANAS,"Jalan, Nusa Tenggara Tim. 80810","Kabupaten Rote Ndao, Nusa Tenggara Tim.",NUSA TENGGARA TIMUR,,Indonesia,81281011094.0,,,-108.926.056,1.228.238.965,https://maps.google.com/?cid=0x0:0x6f89cd7675c70002,
toko bangunan,toko bangunan,Casa Narrow villa,"Jalan Oenggaut, Bar, Oenggaut, Rote Barat, Rote Ndao Regency, East Nusa Tenggara","Kabupaten Rote Ndao, Nusa Tenggara Tim.",NUSA TENGGARA TIMUR,,Indonesia,,,,-10.907.176,1.228.227.761,https://maps.google.com/?cid=0x0:0x9f5d7f680eb1d28c,
toko bangunan,toko bangunan,Mulia Bungalows Nemberala,"Sedeoen, Kec. Rote Bar., Kabupaten Rote Ndao, Nusa Tenggara Tim.","Kabupaten Rote Ndao, Nusa Tenggara Tim.",NUSA TENGGARA TIMUR,,Indonesia,82337878111.0,,,-108.712.797,1.228.312.683,https://maps.google.com/?cid=0x0:0xe575236b3d42570e,
toko bangunan,toko bangunan,Utopia Rote Lodge,"Sedeoen, Kec. Rote Bar., Kabupaten Rote Ndao, Nusa Tenggara Tim.","Kabupaten Rote Ndao, Nusa Tenggara Tim.",NUSA TENGGARA TIMUR,,Indonesia,81237126174.0,,,-108.809.702,1.228.543.907,https://maps.google.com/?cid=0x0:0x2d2be96569333078,
toko bangunan,toko bangunan,Sunset Bungalow,"Nemberala, Kec. Rote Bar., Kabupaten Rote Ndao, Nusa Tenggara Tim. 85982","Kec. Rote Bar., Kabupaten Rote Ndao",NUSA TENGGARA TIMUR,85982.0,Indonesia,,,,-108.943.259,1.228.252.325,https://maps.google.com/?cid=0x0:0xcb32332b4471fa4e,
toko bangunan,toko bangunan,"Blu Oceano, BB, Italian Restaurant, Rote Nembrala","rw 004 rt 002, Sedeoen, Rote Barat, Rote Ndao Regency, East Nusa Tenggara 85983","Sedeoen, Rote Barat, Rote Ndao Regency",NUSA TENGGARA TIMUR,85983.0,Indonesia,82237711555.0,,,-108.792.601,1.228.298.024,https://maps.google.com/?cid=0x0:0x7b38de7c1f93b105,
toko bangunan,Hotel Resor,Pantai Nemberala,"Nemberala, Kec. Rote Bar., Kabupaten Rote Ndao, Nusa Tenggara Tim.","Kabupaten Rote Ndao, Nusa Tenggara Tim.",NUSA TENGGARA TIMUR,,Indonesia,,,,-10.889.968,1.228.226.098,https://maps.google.com/?cid=0x0:0xfd64cfbb565d9f6c,
toko bangunan,Toko Bahan Bangunan,UD TUJUH JAYA BANGUNAN I,"72GX+8M5, Metina, Kec. Lobalain, Kabupaten Rote Ndao, Nusa Tenggara Tim.","Kabupaten Rote Ndao, Nusa Tenggara Tim.",NUSA TENGGARA TIMUR,,Indonesia,,,,-107.242.448,1.230.492.313,https://maps.google.com/?cid=0x0:0xca85d779b23c1d9d,
toko bangunan,toko bangunan,UD. AISELE,"4WM5+PMR, Jalan Baa-Nemberala, Lalukoen, Kec. Rote Bar. Daya, Kabupaten Rote Ndao, Nusa Tenggara Tim.","Kabupaten Rote Ndao, Nusa Tenggara Tim.",NUSA TENGGARA TIMUR,,Indonesia,,,,-108.656.366,1.229.091.322,https://maps.google.com/?cid=0x0:0x76e4309145ce22bb,
toko bangunan,toko bangunan,Pdan MGZ,"4RMX+FGQ, Unnamed Road, Oenitas, Kec. Rote Bar., Kabupaten Rote Ndao, Nusa Tenggara Tim.","Kabupaten Rote Ndao, Nusa Tenggara Tim.",NUSA TENGGARA TIMUR,,Indonesia,,,,-10.866.284,1.228.488.663,https://maps.google.com/?cid=0x0:0xa76d0122dd2856e1,
toko bangunan,toko bangunan,Toko Zebada,"62RQ+X53, Mokdale, Kec. Lobalain, Kabupaten Rote Ndao, Nusa Tenggara Tim.","Kabupaten Rote Ndao, Nusa Tenggara Tim.",NUSA TENGGARA TIMUR,,Indonesia,,,,-107.576.161,1.230.379.074,https://maps.google.com/?cid=0x0:0x6a53e34db7a737ed,
toko bangunan,Toko Bahan Bangunan,CV. Tujuh Jaya,"723W+C6P, Unnamed Rd, Mokdale, Kec. Lobalain, Kabupaten Rote Ndao, Nusa Tenggara Tim.","Kabupaten Rote Ndao, Nusa Tenggara Tim.",NUSA TENGGARA TIMUR,,Indonesia,81236375011.0,,,-107.464.098,12.304.558,https://maps.google.com/?cid=0x0:0x575a85c650ddf9e4,
toko bangunan,toko bangunan,Kec. Rote Sel.,"Kabupaten Rote Ndao, Nusa Tenggara Tim.","Kabupaten Rote Ndao, Nusa Tenggara Tim.",NUSA TENGGARA TIMUR,,Indonesia,,,,-107.849.831,1.231.594.105,https://maps.google.com/?cid=0x0:0x57324d947a721c0a,
toko bangunan,Minimarket,toko hebron,"725V+CW9, Unnamed Rd, Mokdale, Kec. Lobalain, Kabupaten Rote Ndao, Nusa Tenggara Tim.","Kabupaten Rote Ndao, Nusa Tenggara Tim.",NUSA TENGGARA TIMUR,,Indonesia,,,,-107.414.723,1.230.448.675,https://maps.google.com/?cid=0x0:0x699558aa9d2e663a,
toko bangunan,Toko Bahan Bangunan,UD TUJUH JAYA BANGUNAN I,"72GX+8M5, Metina, Kec. Lobalain, Kabupaten Rote Ndao, Nusa Tenggara Tim.","Kabupaten Rote Ndao, Nusa Tenggara Tim.",NUSA TENGGARA TIMUR,,Indonesia,,,,-107.242.448,1.230.492.313,https://maps.google.com/?cid=0x0:0xca85d779b23c1d9d,
toko bangunan,toko bangunan,UD. AISELE,"4WM5+PMR, Jalan Baa-Nemberala, Lalukoen, Kec. Rote Bar. Daya, Kabupaten Rote Ndao, Nusa Tenggara Tim.","Kabupaten Rote Ndao, Nusa Tenggara Tim.",NUSA TENGGARA TIMUR,,Indonesia,,,,-108.656.366,1.229.091.322,https://maps.google.com/?cid=0x0:0x76e4309145ce22bb,
toko bangunan,toko bangunan,Toko Zebada,"62RQ+X53, Mokdale, Kec. Lobalain, Kabupaten Rote Ndao, Nusa Tenggara Tim.","Kabupaten Rote Ndao, Nusa Tenggara Tim.",NUSA TENGGARA TIMUR,,Indonesia,,,,-107.576.161,1.230.379.074,https://maps.google.com/?cid=0x0:0x6a53e34db7a737ed,
toko bangunan,Toko Bahan Bangunan,Dewa gunshop,"65W8+5C, Lidamanu, Kec. Rote Tengah, Kabupaten Rote Ndao, Nusa Tenggara Tim.","Kabupaten Rote Ndao, Nusa Tenggara Tim.",NUSA TENGGARA TIMUR,,Indonesia,,,,-107.545.812,1.231.660.526,https://maps.google.com/?cid=0x0:0x79b6addc4752e06a,
toko bangunan,Toko bahan makanan,TOKO TIGA PUTRI BANGUNAN,"62XV+W7H, Jl. Baa Busalangga, Mokdale, Kec. Lobalain, Kabupaten Rote Ndao, Nusa Tenggara Tim.","Kabupaten Rote Ndao, Nusa Tenggara Tim.",NUSA TENGGARA TIMUR,,Indonesia,,,,-107.501.785,1.230.432.403,https://maps.google.com/?cid=0x0:0xe53acca87f949eaf,
toko bangunan,toko bangunan,AGEN46 MELANIA,"6577+9CH, Daleholu, Kec. Rote Sel., Kabupaten Rote Ndao, Nusa Tenggara Tim.","Kabupaten Rote Ndao, Nusa Tenggara Tim.",NUSA TENGGARA TIMUR,,Indonesia,,,,-10.786.558,1.231.635.964,https://maps.google.com/?cid=0x0:0xa111018f86c89b56,
toko bangunan,toko bangunan,Nusa Tenggara Tim.,,Nusa Tenggara Tim.,NUSA TENGGARA TIMUR,,Indonesia,,,,-86.573.819,1.210.793.705,https://maps.google.com/?cid=0x0:0x1030bfbcaf71ae0,
toko bangunan,Toko Bahan Bangunan,CV. Tujuh Jaya,"723W+C6P, Unnamed Rd, Mokdale, Kec. Lobalain, Kabupaten Rote Ndao, Nusa Tenggara Tim.","Kabupaten Rote Ndao, Nusa Tenggara Tim.",NUSA TENGGARA TIMUR,,Indonesia,81236375011.0,,,-107.464.098,12.304.558,https://maps.google.com/?cid=0x0:0x575a85c650ddf9e4,
toko bangunan,Minimarket,toko hebron,"725V+CW9, Unnamed Rd, Mokdale, Kec. Lobalain, Kabupaten Rote Ndao, Nusa Tenggara Tim.","Kabupaten Rote Ndao, Nusa Tenggara Tim.",NUSA TENGGARA TIMUR,,Indonesia,,,,-107.414.723,1.230.448.675,https://maps.google.com/?cid=0x0:0x699558aa9d2e663a,
toko bangunan,Pemasok Bahan Bangunan,Toko Hero Bangunan,"Toko Hero Bangunan, Tini, Manuaman, Kec. Kota Atambua, Kabupaten Belu, Nusa Tenggara Tim. 85712","Tini, Manuaman, Kec. Kota Atambua, Kabupaten Belu",NUSA TENGGARA TIMUR,85712.0,Indonesia,82221202985.0,,,-91.117.919,1.248.871.833,https://maps.google.com/?cid=0x0:0xb79f7fc42724fd10,
toko bangunan,Toko Perlengkapan Rumah,Toko Karya Bangunan,"RJQV+H9Q, Jl. Bumi I, Oesapa Sel., Kec. Klp. Lima, Kota Kupang, Nusa Tenggara Tim.","Kota Kupang, Nusa Tenggara Tim.",NUSA TENGGARA TIMUR,,Indonesia,,,,-101.610.333,1.236.434.727,https://maps.google.com/?cid=0x0:0x480107de15c2a6cf,
toko bangunan,Toko Bahan Bangunan,Toko Bravo Bangunan,"Jl. Terusan Timor Raya, Pasir Panjang, Kec. Kota Lama, Kota Kupang, Nusa Tenggara Tim. 85000","Pasir Panjang, Kec. Kota Lama, Kota Kupang",NUSA TENGGARA TIMUR,85000.0,Indonesia,81246295800.0,,,-101.509.378,1.236.033.391,https://maps.google.com/?cid=0x0:0xdf4da131f9948aff,
toko bangunan,Toko,Toko lancar bangunan,"QHQ6+CPH, Welai Tim., Kec. Tlk. Mutiara, Kabupaten Alor, Nusa Tenggara Tim.","Kabupaten Alor, Nusa Tenggara Tim.",NUSA TENGGARA TIMUR,,Indonesia,,,,-82.114.421,1.245.618.588,https://maps.google.com/?cid=0x0:0x423f09fbf0e1baf7,
toko bangunan,toko bangunan,UD. AISELE,"4WM5+PMR, Jalan Baa-Nemberala, Lalukoen, Kec. Rote Bar. Daya, Kabupaten Rote Ndao, Nusa Tenggara Tim.","Kabupaten Rote Ndao, Nusa Tenggara Tim.",NUSA TENGGARA TIMUR,,Indonesia,,,,-108.656.366,1.229.091.322,https://maps.google.com/?cid=0x0:0x76e4309145ce22bb,
toko bangunan,toko bangunan,Toko Zebada,"62RQ+X53, Mokdale, Kec. Lobalain, Kabupaten Rote Ndao, Nusa Tenggara Tim.","Kabupaten Rote Ndao, Nusa Tenggara Tim.",NUSA TENGGARA TIMUR,,Indonesia,,,,-107.576.161,1.230.379.074,https://maps.google.com/?cid=0x0:0x6a53e34db7a737ed,
toko bangunan,toko bangunan,Kec. Landu Leko,"Kabupaten Rote Ndao, Nusa Tenggara Tim.","Kabupaten Rote Ndao, Nusa Tenggara Tim.",NUSA TENGGARA TIMUR,,Indonesia,,,,-105.683.899,1.233.761.005,https://maps.google.com/?cid=0x0:0x2770e84300ca8ac7,
toko bangunan,Toko Bahan Bangunan,CV. Tujuh Jaya,"723W+C6P, Unnamed Rd, Mokdale, Kec. Lobalain, Kabupaten Rote Ndao, Nusa Tenggara Tim.","Kabupaten Rote Ndao, Nusa Tenggara Tim.",NUSA TENGGARA TIMUR,,Indonesia,81236375011.0,,,-107.464.098,12.304.558,https://maps.google.com/?cid=0x0:0x575a85c650ddf9e4,
toko bangunan,Toko Bahan Bangunan,UD TUJUH JAYA BANGUNAN I,"72GX+8M5, Metina, Kec. Lobalain, Kabupaten Rote Ndao, Nusa Tenggara Tim.","Kabupaten Rote Ndao, Nusa Tenggara Tim.",NUSA TENGGARA TIMUR,,Indonesia,,,,-107.242.448,1.230.492.313,https://maps.google.com/?cid=0x0:0xca85d779b23c1d9d,
toko bangunan,Sekolah Menengah Pertama,SMP Negeri 1 Landu Leko,"C7QW+QQJ, Sotimori, Kec. Rote Tim., Kabupaten Rote Ndao, Nusa Tenggara Tim.","Kabupaten Rote Ndao, Nusa Tenggara Tim.",NUSA TENGGARA TIMUR,,Indonesia,,,,-105.605.464,1.232.968.844,https://maps.google.com/?cid=0x0:0xa9466b4033f78125,
toko bangunan,toko bangunan,Toko Gala Bangunan,"96GJ+9WC, Olafulihaa, Kec. Pantai Baru, Kabupaten Rote Ndao, Nusa Tenggara Tim.","Kabupaten Rote Ndao, Nusa Tenggara Tim.",NUSA TENGGARA TIMUR,,Indonesia,,,,-106.240.598,1.232.322.599,https://maps.google.com/?cid=0x0:0x16d3d9405c8e2bea,
toko bangunan,toko bangunan,UD Madona,"99XH+CP4, Londalusi, Kec. Rote Tim., Kabupaten Rote Ndao, Nusa Tenggara Tim.","Kabupaten Rote Ndao, Nusa Tenggara Tim.",NUSA TENGGARA TIMUR,,Indonesia,,,,-106.014.879,1.233.793.297,https://maps.google.com/?cid=0x0:0x9ddf0bbefe8d43b3,
toko bangunan,toko bangunan,UD 9 mata air,"98Q4+4W4, Matasio, Kec. Rote Tim., Kabupaten Rote Ndao, Nusa Tenggara Tim.","Kabupaten Rote Ndao, Nusa Tenggara Tim.",NUSA TENGGARA TIMUR,,Indonesia,82342227399.0,,,-106.122.387,1.233.073.293,https://maps.google.com/?cid=0x0:0x2fcc053049bd45a2,
toko bangunan,toko bangunan,Kec. Pantai Baru,"Kabupaten Rote Ndao, Nusa Tenggara Tim.","Kabupaten Rote Ndao, Nusa Tenggara Tim.",NUSA TENGGARA TIMUR,,Indonesia,,,,-107.134.149,1.232.926.241,https://maps.google.com/?cid=0x0:0x1cee30470e179e69,
toko bangunan,Toko Bahan Bangunan,CV. Tujuh Jaya,"723W+C6P, Unnamed Rd, Mokdale, Kec. Lobalain, Kabupaten Rote Ndao, Nusa Tenggara Tim.","Kabupaten Rote Ndao, Nusa Tenggara Tim.",NUSA TENGGARA TIMUR,,Indonesia,81236375011.0,,,-107.464.098,12.304.558,https://maps.google.com/?cid=0x0:0x575a85c650ddf9e4,
toko bangunan,Toko Bahan Bangunan,Sinar Bangunan Building Center,"Jl. Bund. PU No.12, Tuak Daun Merah, Kec. Oebobo, Kota Kupang, Nusa Tenggara Tim. 85228","Tuak Daun Merah, Kec. Oebobo, Kota Kupang",NUSA TENGGARA TIMUR,85228.0,Indonesia,81236648694.0,,,-101.675.355,1.236.289.538,https://maps.google.com/?cid=0x0:0x8b34913a09e207d2,
toko bangunan,Pemasok Bahan Bangunan,Toko Hero Bangunan,"Toko Hero Bangunan, Tini, Manuaman, Kec. Kota Atambua, Kabupaten Belu, Nusa Tenggara Tim. 85712","Tini, Manuaman, Kec. Kota Atambua, Kabupaten Belu",NUSA TENGGARA TIMUR,85712.0,Indonesia,82221202985.0,,,-91.117.919,1.248.871.833,https://maps.google.com/?cid=0x0:0xb79f7fc42724fd10,
toko bangunan,Pemasok Pipa,Toko Buana Bangunan,"Lasiana, Kec. Klp. Lima, Kota Kupang, Nusa Tenggara Tim.","Kota Kupang, Nusa Tenggara Tim.",NUSA TENGGARA TIMUR,,Indonesia,82244376888.0,,,-101.373.266,1.236.764.484,https://maps.google.com/?cid=0x0:0x9fc6cad7dda4e71a,
toko bangunan,Toko Bahan Bangunan,UD TUJUH JAYA BANGUNAN I,"72GX+8M5, Metina, Kec. Lobalain, Kabupaten Rote Ndao, Nusa Tenggara Tim.","Kabupaten Rote Ndao, Nusa Tenggara Tim.",NUSA TENGGARA TIMUR,,Indonesia,,,,-107.242.448,1.230.492.313,https://maps.google.com/?cid=0x0:0xca85d779b23c1d9d,
toko bangunan,Minimarket,toko hebron,"725V+CW9, Unnamed Rd, Mokdale, Kec. Lobalain, Kabupaten Rote Ndao, Nusa Tenggara Tim.","Kabupaten Rote Ndao, Nusa Tenggara Tim.",NUSA TENGGARA TIMUR,,Indonesia,,,,-107.414.723,1.230.448.675,https://maps.google.com/?cid=0x0:0x699558aa9d2e663a,
toko bangunan,toko bangunan,Toko Gala Bangunan,"96GJ+9WC, Olafulihaa, Kec. Pantai Baru, Kabupaten Rote Ndao, Nusa Tenggara Tim.","Kabupaten Rote Ndao, Nusa Tenggara Tim.",NUSA TENGGARA TIMUR,,Indonesia,,,,-106.240.598,1.232.322.599,https://maps.google.com/?cid=0x0:0x16d3d9405c8e2bea,
toko bangunan,toko bangunan,UD 9 mata air,"98Q4+4W4, Matasio, Kec. Rote Tim., Kabupaten Rote Ndao, Nusa Tenggara Tim.","Kabupaten Rote Ndao, Nusa Tenggara Tim.",NUSA TENGGARA TIMUR,,Indonesia,82342227399.0,,,-106.122.387,1.233.073.293,https://maps.google.com/?cid=0x0:0x2fcc053049bd45a2,
toko bangunan,Toko Bahan Bangunan,Toko Bangunan Jaya,"Jl. Terusan Timor Raya No.9u KM. 6, Oesapa Bar., Kec. Klp. Lima, Kota Kupang, Nusa Tenggara Tim.","Kota Kupang, Nusa Tenggara Tim.",NUSA TENGGARA TIMUR,,Indonesia,81338567839.0,,,-1.014.441,1.236.254.719,https://maps.google.com/?cid=0x0:0x4a94c89160bbe62c,
toko bangunan,Toko Bahan Bangunan,Toko Bravo Bangunan,"Jl. Terusan Timor Raya, Pasir Panjang, Kec. Kota Lama, Kota Kupang, Nusa Tenggara Tim. 85000","Pasir Panjang, Kec. Kota Lama, Kota Kupang",NUSA TENGGARA TIMUR,85000.0,Indonesia,81246295800.0,,,-101.509.378,1.236.033.391,https://maps.google.com/?cid=0x0:0xdf4da131f9948aff,
toko bangunan,Toko Bahan Bangunan,Toko bangunan,"VM4C+R79, Lasiana, Kec. Klp. Lima, Kota Kupang, Nusa Tenggara Tim.","Kota Kupang, Nusa Tenggara Tim.",NUSA TENGGARA TIMUR,,Indonesia,,,,-10.142.954,1.236.707.233,https://maps.google.com/?cid=0x0:0xb111458939496520,
toko bangunan,Toko Bahan Bangunan,Toko Graha Bangunan,"Gedung Graha Ariadi, Oesapa Bar., Kec. Klp. Lima, Kota Kupang, Nusa Tenggara Tim. 85228","Oesapa Bar., Kec. Klp. Lima, Kota Kupang",NUSA TENGGARA TIMUR,85228.0,Indonesia,81312893723.0,,,-101.468.703,123.631.267,https://maps.google.com/?cid=0x0:0x4167d73ee95fc845,
toko bangunan,Pemasok Pipa,Toko Bangunan,"Manulai II, Kec. Alak, Kota Kupang, Nusa Tenggara Tim.","Kota Kupang, Nusa Tenggara Tim.",NUSA TENGGARA TIMUR,,Indonesia,85123255522.0,,,-10.213.815,1.235.749.527,https://maps.google.com/?cid=0x0:0x5559349e9e4fc36f,
toko bangunan,Toko Bahan Bangunan,TB. Bangunan Baru,"Jl. Kayu Putih No.8, Pd. Cabe Udik, Kec. Pamulang, Kota Tangerang Selatan, Banten 15418","Pd. Cabe Udik, Kec. Pamulang, Kota Tangerang Selatan",NUSA TENGGARA TIMUR,15418.0,Indonesia,87771358308.0,,,-6.360.062,106.762.374,https://maps.google.com/?cid=0x0:0xfed108a8da383888,
toko bangunan,Pemasok Bahan Bangunan,PD. Bintang Bangunan,"Ruko Pantai Indah Kapuk Blok DC No. 6, Jalan Pantai Indah Selatan 1, Kapuk Muara, Penjaringan, RT.2/RW.3, Kamal Muara, Kecamatan Penjaringan, Jkt Utara, Daerah Khusus Ibukota Jakarta 14470","Jalan Pantai Indah Selatan 1, Kapuk Muara, Penjaringan, RT.2/RW.3, Kamal Muara, Kecamatan Penjaringan, Jkt Utara",NUSA TENGGARA TIMUR,14470.0,Indonesia,215881878.0,,,-61.248.434,1.067.569.862,https://maps.google.com/?cid=0x0:0x790055ea697fa4f1,
toko bangunan,toko bangunan,Toko Enggal Baru,"Jalan Pantai Raya No.18, Dadap, Puger, Kabupaten Tangerang, Banten 68164","Dadap, Puger, Kabupaten Tangerang",NUSA TENGGARA TIMUR,68164.0,Indonesia,336721149.0,,,-6.088.998,106.720.928,https://maps.google.com/?cid=0x0:0x685b79f9b0783365,
