Category,Real Category,Business Name,Address,City,State,Postal Code,Country,Phone,Email,Website,Latitude,Longitude,Map Link,Details Link
mall,mall,Kec. Rote Bar. Daya,"Kabupaten Rote Ndao, Nusa Tenggara Tim.","Kabupaten Rote Ndao, Nusa Tenggara Tim.",NUSA TENGGARA TIMUR,,Indonesia,,,,-108.599.138,1.230.152.055,https://maps.google.com/?cid=0x0:0xc8d7144834ab28c0,
mall,Pusat Perbelanjaan,Esa,"4WHH+563, Lalukoen, Kec. Rote Bar. Daya, Kabupaten Rote Ndao, Nusa Tenggara Tim.","Kabupaten Rote Ndao, Nusa Tenggara Tim.",NUSA TENGGARA TIMUR,,Indonesia,,,,-108.718.034,1.229.285.282,https://maps.google.com/?cid=0x0:0x128ffecb5ca387b4,
mall,Komplek perumahan,Marten,"4WHH+563, Lalukoen, Kec. Rote Bar. Daya, Kabupaten Rote Ndao, Nusa Tenggara Tim.","Kabupaten Rote Ndao, Nusa Tenggara Tim.",NUSA TENGGARA TIMUR,,Indonesia,,,,-10.871.807,1.229.285.084,https://maps.google.com/?cid=0x0:0xe589c8e67c777f70,
mall,Pusat Perbelanjaan,Lalukoen,"4WPH+8GR, Lalukoen, Kec. Rote Bar. Daya, Kabupaten Rote Ndao, Nusa Tenggara Tim.","Kabupaten Rote Ndao, Nusa Tenggara Tim.",NUSA TENGGARA TIMUR,,Indonesia,,,,-108.641.464,1.229.287.582,https://maps.google.com/?cid=0x0:0xc99e567e6c44caab,
mall,Toko bahan makanan,Pusat jual ikan,"3WX2+WGP Frans mbeo, Oeseli, Kec. Rote Bar. Daya, Kabupaten Rote Ndao, Nusa Tenggara Tim.","Kabupaten Rote Ndao, Nusa Tenggara Tim.",NUSA TENGGARA TIMUR,,Indonesia,85348459876.0,,,-109.001.574,1.229.013.199,https://maps.google.com/?cid=0x0:0x7481acc56625c990,
mall,Toko bahan makanan,Bintang Messah,"4XF2+FHP, Oeteffu, Kec. Rote Bar. Daya, Kabupaten Rote Ndao, Nusa Tenggara Tim.","Kabupaten Rote Ndao, Nusa Tenggara Tim.",NUSA TENGGARA TIMUR,,Indonesia,,,,-108.763.278,1.229.514.835,https://maps.google.com/?cid=0x0:0x90925b199be5e110,
mall,Rumah Kayu,Pet Nalle,"4WHH+563, Lalukoen, Kec. Rote Bar. Daya, Kabupaten Rote Ndao, Nusa Tenggara Tim.","Kabupaten Rote Ndao, Nusa Tenggara Tim.",NUSA TENGGARA TIMUR,,Indonesia,,,,-108.717.352,122.928.375,https://maps.google.com/?cid=0x0:0xbea42dc250966be4,
mall,Toko,Kios R3,"Unnamed Road, Bar. Laut, Busalangga, Kec. Rote Bar. Laut, Kabupaten Rote Ndao, Nusa Tenggara Tim.","Kabupaten Rote Ndao, Nusa Tenggara Tim.",NUSA TENGGARA TIMUR,,Indonesia,85291125567.0,,,-108.050.667,1.229.958.447,https://maps.google.com/?cid=0x0:0xa266435057884b5c,
mall,Toko bahan makanan,Kios putri tunggal,"42V3+9JP, Dolasi, Kec. Rote Bar. Daya, Kabupaten Rote Ndao, Nusa Tenggara Tim.","Kabupaten Rote Ndao, Nusa Tenggara Tim.",NUSA TENGGARA TIMUR,,Indonesia,,,,-108.563.907,123.003.156,https://maps.google.com/?cid=0x0:0xe64681463839dd7,
mall,Pusat Perbelanjaan,Kios imanuel,"4XW3+WX8, Oehandi, Kec. Rote Bar. Daya, Kabupaten Rote Ndao, Nusa Tenggara Tim.","Kabupaten Rote Ndao, Nusa Tenggara Tim.",NUSA TENGGARA TIMUR,,Indonesia,,,,-108.529.913,1.229.547.689,https://maps.google.com/?cid=0x0:0xeeee6a0e63d54003,
mall,Toko,Agatha retail dan sembako,"4XG5+H4X, Oeteffu, Kec. Rote Bar. Daya, Kabupaten Rote Ndao, Nusa Tenggara Tim.","Kabupaten Rote Ndao, Nusa Tenggara Tim.",NUSA TENGGARA TIMUR,,Indonesia,85333484647.0,,,-108.735.089,1.229.578.517,https://maps.google.com/?cid=0x0:0xeddf0d84a0591d72,
mall,Toko outlet,Kios Pelangi Cell  Bengkel,"4WQJ+FC7, Lalukoen, Kec. Rote Bar. Daya, Kabupaten Rote Ndao, Nusa Tenggara Tim.","Kabupaten Rote Ndao, Nusa Tenggara Tim.",NUSA TENGGARA TIMUR,,Indonesia,82144857893.0,,,-108.613.292,1.229.310.415,https://maps.google.com/?cid=0x0:0xdf108422f21336ff,
mall,Pusat Perbelanjaan,Kios Geriani,"4XM2+2F5, Oeteffu, Kec. Rote Bar. Daya, Kabupaten Rote Ndao, Nusa Tenggara Tim.","Kabupaten Rote Ndao, Nusa Tenggara Tim.",NUSA TENGGARA TIMUR,,Indonesia,81237496876.0,,,-108.674.901,1.229.512.482,https://maps.google.com/?cid=0x0:0x6fb498e41e62946f,
mall,Toko bahan makanan,Toko Safari,"62XV+V9M, Mokdale, Kec. Lobalain, Kabupaten Rote Ndao, Nusa Tenggara Tim.","Kabupaten Rote Ndao, Nusa Tenggara Tim.",NUSA TENGGARA TIMUR,,Indonesia,,,,-107.502.982,1.230.434.327,https://maps.google.com/?cid=0x0:0xe5fad266a227e243,
mall,Pusat Perbelanjaan,Kios Yadit,"3VJ5+3JX, Boa, Kec. Rote Bar., Kabupaten Rote Ndao, Nusa Tenggara Tim.","Kabupaten Rote Ndao, Nusa Tenggara Tim.",NUSA TENGGARA TIMUR,,Indonesia,,,,-109.197.731,1.228.591.154,https://maps.google.com/?cid=0x0:0x4e21c0969a8930c8,
mall,,Since Solukh,"6X36+W4X, Modosinal, Kec. Rote Bar. Laut, Kabupaten Rote Ndao, Nusa Tenggara Tim.","Kabupaten Rote Ndao, Nusa Tenggara Tim.",NUSA TENGGARA TIMUR,,Indonesia,,,,-107.951.412,12.296.036,https://maps.google.com/?cid=0x0:0x8a44f16287a1c8e9,
mall,Pusat Perbelanjaan,Laddies house,"42RF+GP7, Fuafuni jl Lolotali sanama, Kec. Rote Bar. Daya, Kabupaten Rote Ndao, Nusa Tenggara Tim.","Kabupaten Rote Ndao, Nusa Tenggara Tim.",NUSA TENGGARA TIMUR,,Indonesia,,,,-10.858.708,123.024.302,https://maps.google.com/?cid=0x0:0x1fe394b2287b0d67,
mall,Bengkel Sepeda Motor,Bengkel Motor,"4WMX+49M, Oeteffu, Kec. Rote Bar. Daya, Kabupaten Rote Ndao, Nusa Tenggara Tim.","Kabupaten Rote Ndao, Nusa Tenggara Tim.",NUSA TENGGARA TIMUR,,Indonesia,81338938402.0,,,-108.671.704,1.229.484.366,https://maps.google.com/?cid=0x0:0x438d0b6a37e9b6b8,
mall,Toko Bunga,Bunga,"62JF+CR3, Holoama, Kec. Lobalain, Kabupaten Rote Ndao, Nusa Tenggara Tim.","Kabupaten Rote Ndao, Nusa Tenggara Tim.",NUSA TENGGARA TIMUR,,Indonesia,,,,-107.689.945,123.024.562,https://maps.google.com/?cid=0x0:0x12c8b2d22a6c8f0b,
mall,Pusat Perbelanjaan,Kios Charen,"6X42+C65, Ingguinak, Kec. Rote Bar. Laut, Kabupaten Rote Ndao, Nusa Tenggara Tim.","Kabupaten Rote Ndao, Nusa Tenggara Tim.",NUSA TENGGARA TIMUR,,Indonesia,,,,-107.939.875,1.229.506.094,https://maps.google.com/?cid=0x0:0x583369f069a76854,
mall,Gudang,UD Cahaya mulia,"72GX+GMV, Metina, Kec. Lobalain, Kabupaten Rote Ndao, Nusa Tenggara Tim.","Kabupaten Rote Ndao, Nusa Tenggara Tim.",NUSA TENGGARA TIMUR,,Indonesia,8124218999.0,,,-10.723.641,1.230.491.772,https://maps.google.com/?cid=0x0:0xf7f3d33cfc44dbee,
mall,mall,Kec. Rote Bar. Laut,"Kabupaten Rote Ndao, Nusa Tenggara Tim.","Kabupaten Rote Ndao, Nusa Tenggara Tim.",NUSA TENGGARA TIMUR,,Indonesia,,,,-107.597.977,1.229.182.941,https://maps.google.com/?cid=0x0:0xf1092e07a83097a2,
mall,Pusat Perbelanjaan,Esa,"4WHH+563, Lalukoen, Kec. Rote Bar. Daya, Kabupaten Rote Ndao, Nusa Tenggara Tim.","Kabupaten Rote Ndao, Nusa Tenggara Tim.",NUSA TENGGARA TIMUR,,Indonesia,,,,-108.718.034,1.229.285.282,https://maps.google.com/?cid=0x0:0x128ffecb5ca387b4,
mall,Toko,Kios R3,"Unnamed Road, Bar. Laut, Busalangga, Kec. Rote Bar. Laut, Kabupaten Rote Ndao, Nusa Tenggara Tim.","Kabupaten Rote Ndao, Nusa Tenggara Tim.",NUSA TENGGARA TIMUR,,Indonesia,85291125567.0,,,-108.050.667,1.229.958.447,https://maps.google.com/?cid=0x0:0xa266435057884b5c,
mall,Pusat Perbelanjaan,Dion Nome,"5X57+R8P, Meoain, Kec. Rote Bar. Daya, Kabupaten Rote Ndao, Nusa Tenggara Tim.","Kabupaten Rote Ndao, Nusa Tenggara Tim.",NUSA TENGGARA TIMUR,,Indonesia,,,,-108.404.402,1.229.633.422,https://maps.google.com/?cid=0x0:0x5553923cf4f1ada6,
mall,Toko bahan makanan,Toko Safari,"62XV+V9M, Mokdale, Kec. Lobalain, Kabupaten Rote Ndao, Nusa Tenggara Tim.","Kabupaten Rote Ndao, Nusa Tenggara Tim.",NUSA TENGGARA TIMUR,,Indonesia,,,,-107.502.982,1.230.434.327,https://maps.google.com/?cid=0x0:0xe5fad266a227e243,
mall,Toko Bunga,Bunga,"62JF+CR3, Holoama, Kec. Lobalain, Kabupaten Rote Ndao, Nusa Tenggara Tim.","Kabupaten Rote Ndao, Nusa Tenggara Tim.",NUSA TENGGARA TIMUR,,Indonesia,,,,-107.689.945,123.024.562,https://maps.google.com/?cid=0x0:0x12c8b2d22a6c8f0b,
mall,,Since Solukh,"6X36+W4X, Modosinal, Kec. Rote Bar. Laut, Kabupaten Rote Ndao, Nusa Tenggara Tim.","Kabupaten Rote Ndao, Nusa Tenggara Tim.",NUSA TENGGARA TIMUR,,Indonesia,,,,-107.951.412,12.296.036,https://maps.google.com/?cid=0x0:0x8a44f16287a1c8e9,
mall,Komplek perumahan,Rumah Yuan ndolu,"6W7V+CF, Ingguinak, Kec. Rote Bar. Laut, Kabupaten Rote Ndao, Nusa Tenggara Tim.","Kabupaten Rote Ndao, Nusa Tenggara Tim.",NUSA TENGGARA TIMUR,,Indonesia,,,,-10.786.479,122.943.717,https://maps.google.com/?cid=0x0:0xfe0becdc5146259e,
mall,Komplek perumahan,Marten,"4WHH+563, Lalukoen, Kec. Rote Bar. Daya, Kabupaten Rote Ndao, Nusa Tenggara Tim.","Kabupaten Rote Ndao, Nusa Tenggara Tim.",NUSA TENGGARA TIMUR,,Indonesia,,,,-10.871.807,1.229.285.084,https://maps.google.com/?cid=0x0:0xe589c8e67c777f70,
mall,Kios,Kios Lailete sejatera,"Boni, Kec. Rote Bar. Laut, Kabupaten Rote Ndao, Nusa Tenggara Tim.","Kabupaten Rote Ndao, Nusa Tenggara Tim.",NUSA TENGGARA TIMUR,,Indonesia,81339579694.0,,,-108.074.953,1.228.787.997,https://maps.google.com/?cid=0x0:0xb7366569f68b3883,
mall,Rumah Kayu,Pet Nalle,"4WHH+563, Lalukoen, Kec. Rote Bar. Daya, Kabupaten Rote Ndao, Nusa Tenggara Tim.","Kabupaten Rote Ndao, Nusa Tenggara Tim.",NUSA TENGGARA TIMUR,,Indonesia,,,,-108.717.352,122.928.375,https://maps.google.com/?cid=0x0:0xbea42dc250966be4,
mall,Gudang,UD Cahaya mulia,"72GX+GMV, Metina, Kec. Lobalain, Kabupaten Rote Ndao, Nusa Tenggara Tim.","Kabupaten Rote Ndao, Nusa Tenggara Tim.",NUSA TENGGARA TIMUR,,Indonesia,8124218999.0,,,-10.723.641,1.230.491.772,https://maps.google.com/?cid=0x0:0xf7f3d33cfc44dbee,
mall,Pusat Perbelanjaan,Kios Charen,"6X42+C65, Ingguinak, Kec. Rote Bar. Laut, Kabupaten Rote Ndao, Nusa Tenggara Tim.","Kabupaten Rote Ndao, Nusa Tenggara Tim.",NUSA TENGGARA TIMUR,,Indonesia,,,,-107.939.875,1.229.506.094,https://maps.google.com/?cid=0x0:0x583369f069a76854,
mall,Toko bahan makanan,Bintang Messah,"4XF2+FHP, Oeteffu, Kec. Rote Bar. Daya, Kabupaten Rote Ndao, Nusa Tenggara Tim.","Kabupaten Rote Ndao, Nusa Tenggara Tim.",NUSA TENGGARA TIMUR,,Indonesia,,,,-108.763.278,1.229.514.835,https://maps.google.com/?cid=0x0:0x90925b199be5e110,
mall,Toko Perhiasan,Payaro Gold And Boat Rote Ndao,"72CV+CG3, Namodale, Kec. Lobalain, Kabupaten Rote Ndao, Nusa Tenggara Tim.","Kabupaten Rote Ndao, Nusa Tenggara Tim.",NUSA TENGGARA TIMUR,,Indonesia,82339223456.0,,,-107.289.772,1.230.438.124,https://maps.google.com/?cid=0x0:0xff5a46a232bbc0aa,
mall,Toko bahan makanan,Pusat jual ikan,"3WX2+WGP Frans mbeo, Oeseli, Kec. Rote Bar. Daya, Kabupaten Rote Ndao, Nusa Tenggara Tim.","Kabupaten Rote Ndao, Nusa Tenggara Tim.",NUSA TENGGARA TIMUR,,Indonesia,85348459876.0,,,-109.001.574,1.229.013.199,https://maps.google.com/?cid=0x0:0x7481acc56625c990,
mall,Komplek perumahan,Mr. DIY Rote,"Jl. Lekunik No.1, Mokdale, Kec. Lobalain, Kabupaten Rote Ndao, Nusa Tenggara Tim. 85912","Mokdale, Kec. Lobalain, Kabupaten Rote Ndao",NUSA TENGGARA TIMUR,85912.0,Indonesia,82144882077.0,,,-107.472.776,123.054.986,https://maps.google.com/?cid=0x0:0x8b2f1ba34e482fdd,
mall,Toko Pakaian,Blessing Shop Rote Ndao,"62MM+RMP, Sanggaoen, Kec. Lobalain, Kabupaten Rote Ndao, Nusa Tenggara Tim.","Kabupaten Rote Ndao, Nusa Tenggara Tim.",NUSA TENGGARA TIMUR,,Indonesia,81337660199.0,,,-107.654.031,1.230.341.942,https://maps.google.com/?cid=0x0:0x9deab863d7b87292,
mall,Pusat Perbelanjaan,DnD artshop,"62QP+2VG, Sanggaoen, Kec. Lobalain, Kabupaten Rote Ndao, Nusa Tenggara Tim.","Kabupaten Rote Ndao, Nusa Tenggara Tim.",NUSA TENGGARA TIMUR,,Indonesia,81239148645.0,,,-107.623.253,1.230.350.461,https://maps.google.com/?cid=0x0:0xc6df05e634817f38,
mall,Pusat Perbelanjaan,Toko Anjangsana kab Rote Ndao,"72FX+J48, Jl. Kartini, Namodale, Kec. Lobalain, Kabupaten Rote Ndao, Nusa Tenggara Tim.","Kabupaten Rote Ndao, Nusa Tenggara Tim.",NUSA TENGGARA TIMUR,,Indonesia,,,,-107.259.508,1.230.478.402,https://maps.google.com/?cid=0x0:0xd0abbb2f4a19369e,
mall,Toko,Agatha retail dan sembako,"4XG5+H4X, Oeteffu, Kec. Rote Bar. Daya, Kabupaten Rote Ndao, Nusa Tenggara Tim.","Kabupaten Rote Ndao, Nusa Tenggara Tim.",NUSA TENGGARA TIMUR,,Indonesia,85333484647.0,,,-108.735.089,1.229.578.517,https://maps.google.com/?cid=0x0:0xeddf0d84a0591d72,
mall,Toko outlet,Kios Pelangi Cell  Bengkel,"4WQJ+FC7, Lalukoen, Kec. Rote Bar. Daya, Kabupaten Rote Ndao, Nusa Tenggara Tim.","Kabupaten Rote Ndao, Nusa Tenggara Tim.",NUSA TENGGARA TIMUR,,Indonesia,82144857893.0,,,-108.613.292,1.229.310.415,https://maps.google.com/?cid=0x0:0xdf108422f21336ff,
mall,Pusat Perbelanjaan,Kios Geriani,"4XM2+2F5, Oeteffu, Kec. Rote Bar. Daya, Kabupaten Rote Ndao, Nusa Tenggara Tim.","Kabupaten Rote Ndao, Nusa Tenggara Tim.",NUSA TENGGARA TIMUR,,Indonesia,81237496876.0,,,-108.674.901,1.229.512.482,https://maps.google.com/?cid=0x0:0x6fb498e41e62946f,
mall,mall,Kec. Lobalain,"Kabupaten Rote Ndao, Nusa Tenggara Tim.","Kabupaten Rote Ndao, Nusa Tenggara Tim.",NUSA TENGGARA TIMUR,,Indonesia,,,,-107.290.879,1.230.460.405,https://maps.google.com/?cid=0x0:0x618add3ee97f8439,
mall,Toko bahan makanan,Toko Safari,"62XV+V9M, Mokdale, Kec. Lobalain, Kabupaten Rote Ndao, Nusa Tenggara Tim.","Kabupaten Rote Ndao, Nusa Tenggara Tim.",NUSA TENGGARA TIMUR,,Indonesia,,,,-107.502.982,1.230.434.327,https://maps.google.com/?cid=0x0:0xe5fad266a227e243,
mall,Toko Bunga,Bunga,"62JF+CR3, Holoama, Kec. Lobalain, Kabupaten Rote Ndao, Nusa Tenggara Tim.","Kabupaten Rote Ndao, Nusa Tenggara Tim.",NUSA TENGGARA TIMUR,,Indonesia,,,,-107.689.945,123.024.562,https://maps.google.com/?cid=0x0:0x12c8b2d22a6c8f0b,
mall,Toko bahan makanan,CENTER mart / Toko Center,"Unnamed Road, Mokdale, Lobalain, Rote Ndao Regency, East Nusa Tenggara","Kabupaten Rote Ndao, Nusa Tenggara Tim.",NUSA TENGGARA TIMUR,,Indonesia,,,,-107.551.754,1.230.625.374,https://maps.google.com/?cid=0x0:0x231ea46bcfa68675,
mall,,Rumah,"62XV+H5J, Jl. Baa Busalangga, Mokdale, Kec. Lobalain, Kabupaten Rote Ndao, Nusa Tenggara Tim.","Kabupaten Rote Ndao, Nusa Tenggara Tim.",NUSA TENGGARA TIMUR,,Indonesia,,,,-107.510.458,1.230.429.039,https://maps.google.com/?cid=0x0:0xe6e81112da6fcb69,
mall,Pusat Perbelanjaan,Lole Dakek,10°48'13.4>>,"Kabupaten Rote Ndao, Nusa Tenggara Tim.",NUSA TENGGARA TIMUR,,Indonesia,,,,-107.291.009,1.230.461.394,https://maps.google.com/?cid=0x0:0x1d587d5f4215e0c0,
mall,Toko bahan makanan,Toko Rahmat,"73G2+978, Jl. Tondao, Metina, Kec. Lobalain, Kabupaten Rote Ndao, Nusa Tenggara Tim.","Kabupaten Rote Ndao, Nusa Tenggara Tim.",NUSA TENGGARA TIMUR,,Indonesia,81237693067.0,,,-107.240.973,1.230.507.039,https://maps.google.com/?cid=0x0:0x75ceb9dbce21ec4b,
mall,Kantor Perusahaan,Sentra Tenunan Rote Ndao,"72CX+2F8, Baadale, Kec. Lobalain, Kabupaten Rote Ndao, Nusa Tenggara Tim.","Kabupaten Rote Ndao, Nusa Tenggara Tim.",NUSA TENGGARA TIMUR,,Indonesia,81246092074.0,,,-107.299.655,1.230.486.963,https://maps.google.com/?cid=0x0:0xd3f262d2adb31e88,
mall,Kios,Kios,"62WG+Q37, Tuanatuk, Kec. Lobalain, Kabupaten Rote Ndao, Nusa Tenggara Tim.","Kabupaten Rote Ndao, Nusa Tenggara Tim.",NUSA TENGGARA TIMUR,,Indonesia,,,,-107.535.496,1.230.252.272,https://maps.google.com/?cid=0x0:0x8d46623c2fd6ba76,
mall,Gudang,UD Cahaya mulia,"72GX+GMV, Metina, Kec. Lobalain, Kabupaten Rote Ndao, Nusa Tenggara Tim.","Kabupaten Rote Ndao, Nusa Tenggara Tim.",NUSA TENGGARA TIMUR,,Indonesia,8124218999.0,,,-10.723.641,1.230.491.772,https://maps.google.com/?cid=0x0:0xf7f3d33cfc44dbee,
mall,Toko Pakaian,Toko Bintang Mutiara,"Namodale, Kec. Lobalain, Kabupaten Rote Ndao, Nusa Tenggara Tim.","Kabupaten Rote Ndao, Nusa Tenggara Tim.",NUSA TENGGARA TIMUR,,Indonesia,81325103438.0,,,-107.265.177,1.230.486.801,https://maps.google.com/?cid=0x0:0x1b93045c58f69114,
mall,,Kios Anugrah Rote  Agen BRILINk,"Mokdale, Kec. Lobalain, Kabupaten Rote Ndao, Nusa Tenggara Tim. 85971","Kec. Lobalain, Kabupaten Rote Ndao",NUSA TENGGARA TIMUR,85971.0,Indonesia,,,,-107.466.041,1.230.527.051,https://maps.google.com/?cid=0x0:0x350f44b3af6f0c01,
mall,Pusat Perbelanjaan,Toko Anjangsana kab Rote Ndao,"72FX+J48, Jl. Kartini, Namodale, Kec. Lobalain, Kabupaten Rote Ndao, Nusa Tenggara Tim.","Kabupaten Rote Ndao, Nusa Tenggara Tim.",NUSA TENGGARA TIMUR,,Indonesia,,,,-107.259.508,1.230.478.402,https://maps.google.com/?cid=0x0:0xd0abbb2f4a19369e,
mall,Toko bahan makanan,smart minimarket,"725W+82W, Unnamed Rd, Lobalain, Kabupaten Ndao, Nusa Tenggara Tim., Mokdale, Kec. Lobalain, Kabupaten Rote Ndao, Nusa Tenggara Tim.","Kabupaten Rote Ndao, Nusa Tenggara Tim.",NUSA TENGGARA TIMUR,,Indonesia,380871113.0,,,-107.416.499,1.230.450.803,https://maps.google.com/?cid=0x0:0x9eb8cdef3a58cfc3,
mall,Pusat Perbelanjaan,DnD artshop,"62QP+2VG, Sanggaoen, Kec. Lobalain, Kabupaten Rote Ndao, Nusa Tenggara Tim.","Kabupaten Rote Ndao, Nusa Tenggara Tim.",NUSA TENGGARA TIMUR,,Indonesia,81239148645.0,,,-107.623.253,1.230.350.461,https://maps.google.com/?cid=0x0:0xc6df05e634817f38,
mall,Toko Perhiasan,Payaro Gold And Boat Rote Ndao,"72CV+CG3, Namodale, Kec. Lobalain, Kabupaten Rote Ndao, Nusa Tenggara Tim.","Kabupaten Rote Ndao, Nusa Tenggara Tim.",NUSA TENGGARA TIMUR,,Indonesia,82339223456.0,,,-107.289.772,1.230.438.124,https://maps.google.com/?cid=0x0:0xff5a46a232bbc0aa,
mall,Toko Pakaian,Blessing Shop Rote Ndao,"62MM+RMP, Sanggaoen, Kec. Lobalain, Kabupaten Rote Ndao, Nusa Tenggara Tim.","Kabupaten Rote Ndao, Nusa Tenggara Tim.",NUSA TENGGARA TIMUR,,Indonesia,81337660199.0,,,-107.654.031,1.230.341.942,https://maps.google.com/?cid=0x0:0x9deab863d7b87292,
mall,Toko Elektronik,Emen Vape Store,"723W+XMR, Jl. Baa Busalangga, Mokdale, Kec. Lobalain, Kabupaten Rote Ndao, Nusa Tenggara Tim.","Kabupaten Rote Ndao, Nusa Tenggara Tim.",NUSA TENGGARA TIMUR,,Indonesia,82147517070.0,,,-107.450.152,1.230.466.282,https://maps.google.com/?cid=0x0:0x21de1323e30ecb8c,
mall,Toko,KADUALIMA SHOP  FN KOS,"725V+9RP, Mokdale, Kec. Lobalain, Kabupaten Rote Ndao, Nusa Tenggara Tim.","Kabupaten Rote Ndao, Nusa Tenggara Tim.",NUSA TENGGARA TIMUR,,Indonesia,85336589339.0,,,-107.415.277,1.230.445.679,https://maps.google.com/?cid=0x0:0xa8e32f3e11c49a3a,
mall,Pusat Perbelanjaan,Kios Kasih Ibu (Oma Detakiuk),"73J3+HRG, Metina, Kec. Lobalain, Kabupaten Rote Ndao, Nusa Tenggara Tim.","Kabupaten Rote Ndao, Nusa Tenggara Tim.",NUSA TENGGARA TIMUR,,Indonesia,,,,-107.185.524,1.230.545.642,https://maps.google.com/?cid=0x0:0xef3cb9ad95e13118,
mall,Toko umum,Kios biru,"54V9+JP, Bebalain, Loleoen, Kabupaten Rote Ndao, Nusa Tenggara Tim.","Kabupaten Rote Ndao, Nusa Tenggara Tim.",NUSA TENGGARA TIMUR,,Indonesia,,,,-108.058.986,1.231.193.143,https://maps.google.com/?cid=0x0:0xe0fa0c5d1830af9a,
mall,mall,Kec. Lobalain,"Kabupaten Rote Ndao, Nusa Tenggara Tim.","Kabupaten Rote Ndao, Nusa Tenggara Tim.",NUSA TENGGARA TIMUR,,Indonesia,,,,-107.290.879,1.230.460.405,https://maps.google.com/?cid=0x0:0x618add3ee97f8439,
mall,Toko Bunga,Bunga,"62JF+CR3, Holoama, Kec. Lobalain, Kabupaten Rote Ndao, Nusa Tenggara Tim.","Kabupaten Rote Ndao, Nusa Tenggara Tim.",NUSA TENGGARA TIMUR,,Indonesia,,,,-107.689.945,123.024.562,https://maps.google.com/?cid=0x0:0x12c8b2d22a6c8f0b,
mall,Toko bahan makanan,Toko Safari,"62XV+V9M, Mokdale, Kec. Lobalain, Kabupaten Rote Ndao, Nusa Tenggara Tim.","Kabupaten Rote Ndao, Nusa Tenggara Tim.",NUSA TENGGARA TIMUR,,Indonesia,,,,-107.502.982,1.230.434.327,https://maps.google.com/?cid=0x0:0xe5fad266a227e243,
mall,Pusat Perbelanjaan,Lole Dakek,10°48'13.4>>,"Kabupaten Rote Ndao, Nusa Tenggara Tim.",NUSA TENGGARA TIMUR,,Indonesia,,,,-107.291.009,1.230.461.394,https://maps.google.com/?cid=0x0:0x1d587d5f4215e0c0,
mall,Komplek perumahan,Mr. DIY Rote,"Jl. Lekunik No.1, Mokdale, Kec. Lobalain, Kabupaten Rote Ndao, Nusa Tenggara Tim. 85912","Mokdale, Kec. Lobalain, Kabupaten Rote Ndao",NUSA TENGGARA TIMUR,85912.0,Indonesia,82144882077.0,,,-107.472.776,123.054.986,https://maps.google.com/?cid=0x0:0x8b2f1ba34e482fdd,
mall,Toko bahan makanan,CENTER mart / Toko Center,"Unnamed Road, Mokdale, Lobalain, Rote Ndao Regency, East Nusa Tenggara","Kabupaten Rote Ndao, Nusa Tenggara Tim.",NUSA TENGGARA TIMUR,,Indonesia,,,,-107.551.754,1.230.625.374,https://maps.google.com/?cid=0x0:0x231ea46bcfa68675,
mall,Pusat Perbelanjaan,Toko Anjangsana kab Rote Ndao,"72FX+J48, Jl. Kartini, Namodale, Kec. Lobalain, Kabupaten Rote Ndao, Nusa Tenggara Tim.","Kabupaten Rote Ndao, Nusa Tenggara Tim.",NUSA TENGGARA TIMUR,,Indonesia,,,,-107.259.508,1.230.478.402,https://maps.google.com/?cid=0x0:0xd0abbb2f4a19369e,
mall,,Rumah,"62XV+H5J, Jl. Baa Busalangga, Mokdale, Kec. Lobalain, Kabupaten Rote Ndao, Nusa Tenggara Tim.","Kabupaten Rote Ndao, Nusa Tenggara Tim.",NUSA TENGGARA TIMUR,,Indonesia,,,,-107.510.458,1.230.429.039,https://maps.google.com/?cid=0x0:0xe6e81112da6fcb69,
mall,Toko Pakaian,Toko Bintang Mutiara,"Namodale, Kec. Lobalain, Kabupaten Rote Ndao, Nusa Tenggara Tim.","Kabupaten Rote Ndao, Nusa Tenggara Tim.",NUSA TENGGARA TIMUR,,Indonesia,81325103438.0,,,-107.265.177,1.230.486.801,https://maps.google.com/?cid=0x0:0x1b93045c58f69114,
mall,,Kios Anugrah Rote  Agen BRILINk,"Mokdale, Kec. Lobalain, Kabupaten Rote Ndao, Nusa Tenggara Tim. 85971","Kec. Lobalain, Kabupaten Rote Ndao",NUSA TENGGARA TIMUR,85971.0,Indonesia,,,,-107.466.041,1.230.527.051,https://maps.google.com/?cid=0x0:0x350f44b3af6f0c01,
mall,Toko bahan makanan,smart minimarket,"725W+82W, Unnamed Rd, Lobalain, Kabupaten Ndao, Nusa Tenggara Tim., Mokdale, Kec. Lobalain, Kabupaten Rote Ndao, Nusa Tenggara Tim.","Kabupaten Rote Ndao, Nusa Tenggara Tim.",NUSA TENGGARA TIMUR,,Indonesia,380871113.0,,,-107.416.499,1.230.450.803,https://maps.google.com/?cid=0x0:0x9eb8cdef3a58cfc3,
mall,Pusat Perbelanjaan,DnD artshop,"62QP+2VG, Sanggaoen, Kec. Lobalain, Kabupaten Rote Ndao, Nusa Tenggara Tim.","Kabupaten Rote Ndao, Nusa Tenggara Tim.",NUSA TENGGARA TIMUR,,Indonesia,81239148645.0,,,-107.623.253,1.230.350.461,https://maps.google.com/?cid=0x0:0xc6df05e634817f38,
mall,Toko Perhiasan,Payaro Gold And Boat Rote Ndao,"72CV+CG3, Namodale, Kec. Lobalain, Kabupaten Rote Ndao, Nusa Tenggara Tim.","Kabupaten Rote Ndao, Nusa Tenggara Tim.",NUSA TENGGARA TIMUR,,Indonesia,82339223456.0,,,-107.289.772,1.230.438.124,https://maps.google.com/?cid=0x0:0xff5a46a232bbc0aa,
mall,Toko Pakaian,Blessing Shop Rote Ndao,"62MM+RMP, Sanggaoen, Kec. Lobalain, Kabupaten Rote Ndao, Nusa Tenggara Tim.","Kabupaten Rote Ndao, Nusa Tenggara Tim.",NUSA TENGGARA TIMUR,,Indonesia,81337660199.0,,,-107.654.031,1.230.341.942,https://maps.google.com/?cid=0x0:0x9deab863d7b87292,
mall,Kantor Perusahaan,Sentra Tenunan Rote Ndao,"72CX+2F8, Baadale, Kec. Lobalain, Kabupaten Rote Ndao, Nusa Tenggara Tim.","Kabupaten Rote Ndao, Nusa Tenggara Tim.",NUSA TENGGARA TIMUR,,Indonesia,81246092074.0,,,-107.299.655,1.230.486.963,https://maps.google.com/?cid=0x0:0xd3f262d2adb31e88,
mall,Toko bahan makanan,Toko Rahmat,"73G2+978, Jl. Tondao, Metina, Kec. Lobalain, Kabupaten Rote Ndao, Nusa Tenggara Tim.","Kabupaten Rote Ndao, Nusa Tenggara Tim.",NUSA TENGGARA TIMUR,,Indonesia,81237693067.0,,,-107.240.973,1.230.507.039,https://maps.google.com/?cid=0x0:0x75ceb9dbce21ec4b,
mall,Toko Elektronik,Emen Vape Store,"723W+XMR, Jl. Baa Busalangga, Mokdale, Kec. Lobalain, Kabupaten Rote Ndao, Nusa Tenggara Tim.","Kabupaten Rote Ndao, Nusa Tenggara Tim.",NUSA TENGGARA TIMUR,,Indonesia,82147517070.0,,,-107.450.152,1.230.466.282,https://maps.google.com/?cid=0x0:0x21de1323e30ecb8c,
mall,Kios,Kios,"62WG+Q37, Tuanatuk, Kec. Lobalain, Kabupaten Rote Ndao, Nusa Tenggara Tim.","Kabupaten Rote Ndao, Nusa Tenggara Tim.",NUSA TENGGARA TIMUR,,Indonesia,,,,-107.535.496,1.230.252.272,https://maps.google.com/?cid=0x0:0x8d46623c2fd6ba76,
mall,Toko,KADUALIMA SHOP  FN KOS,"725V+9RP, Mokdale, Kec. Lobalain, Kabupaten Rote Ndao, Nusa Tenggara Tim.","Kabupaten Rote Ndao, Nusa Tenggara Tim.",NUSA TENGGARA TIMUR,,Indonesia,85336589339.0,,,-107.415.277,1.230.445.679,https://maps.google.com/?cid=0x0:0xa8e32f3e11c49a3a,
mall,Toko umum,Kios biru,"54V9+JP, Bebalain, Loleoen, Kabupaten Rote Ndao, Nusa Tenggara Tim.","Kabupaten Rote Ndao, Nusa Tenggara Tim.",NUSA TENGGARA TIMUR,,Indonesia,,,,-108.058.986,1.231.193.143,https://maps.google.com/?cid=0x0:0xe0fa0c5d1830af9a,
mall,Pusat Perbelanjaan,Kios Kasih Ibu (Oma Detakiuk),"73J3+HRG, Metina, Kec. Lobalain, Kabupaten Rote Ndao, Nusa Tenggara Tim.","Kabupaten Rote Ndao, Nusa Tenggara Tim.",NUSA TENGGARA TIMUR,,Indonesia,,,,-107.185.524,1.230.545.642,https://maps.google.com/?cid=0x0:0xef3cb9ad95e13118,
mall,mall,Kec. Lobalain,"Kabupaten Rote Ndao, Nusa Tenggara Tim.","Kabupaten Rote Ndao, Nusa Tenggara Tim.",NUSA TENGGARA TIMUR,,Indonesia,,,,-107.290.879,1.230.460.405,https://maps.google.com/?cid=0x0:0x618add3ee97f8439,
mall,Toko Bunga,Bunga,"62JF+CR3, Holoama, Kec. Lobalain, Kabupaten Rote Ndao, Nusa Tenggara Tim.","Kabupaten Rote Ndao, Nusa Tenggara Tim.",NUSA TENGGARA TIMUR,,Indonesia,,,,-107.689.945,123.024.562,https://maps.google.com/?cid=0x0:0x12c8b2d22a6c8f0b,
mall,Toko bahan makanan,Toko Safari,"62XV+V9M, Mokdale, Kec. Lobalain, Kabupaten Rote Ndao, Nusa Tenggara Tim.","Kabupaten Rote Ndao, Nusa Tenggara Tim.",NUSA TENGGARA TIMUR,,Indonesia,,,,-107.502.982,1.230.434.327,https://maps.google.com/?cid=0x0:0xe5fad266a227e243,
mall,Komplek perumahan,Mr. DIY Rote,"Jl. Lekunik No.1, Mokdale, Kec. Lobalain, Kabupaten Rote Ndao, Nusa Tenggara Tim. 85912","Mokdale, Kec. Lobalain, Kabupaten Rote Ndao",NUSA TENGGARA TIMUR,85912.0,Indonesia,82144882077.0,,,-107.472.776,123.054.986,https://maps.google.com/?cid=0x0:0x8b2f1ba34e482fdd,
mall,,Rumah,"62XV+H5J, Jl. Baa Busalangga, Mokdale, Kec. Lobalain, Kabupaten Rote Ndao, Nusa Tenggara Tim.","Kabupaten Rote Ndao, Nusa Tenggara Tim.",NUSA TENGGARA TIMUR,,Indonesia,,,,-107.510.458,1.230.429.039,https://maps.google.com/?cid=0x0:0xe6e81112da6fcb69,
mall,Toko bahan makanan,CENTER mart / Toko Center,"Unnamed Road, Mokdale, Lobalain, Rote Ndao Regency, East Nusa Tenggara","Kabupaten Rote Ndao, Nusa Tenggara Tim.",NUSA TENGGARA TIMUR,,Indonesia,,,,-107.551.754,1.230.625.374,https://maps.google.com/?cid=0x0:0x231ea46bcfa68675,
mall,Toko bahan makanan,Toko Rahmat,"73G2+978, Jl. Tondao, Metina, Kec. Lobalain, Kabupaten Rote Ndao, Nusa Tenggara Tim.","Kabupaten Rote Ndao, Nusa Tenggara Tim.",NUSA TENGGARA TIMUR,,Indonesia,81237693067.0,,,-107.240.973,1.230.507.039,https://maps.google.com/?cid=0x0:0x75ceb9dbce21ec4b,
mall,Kios,Kios,"62WG+Q37, Tuanatuk, Kec. Lobalain, Kabupaten Rote Ndao, Nusa Tenggara Tim.","Kabupaten Rote Ndao, Nusa Tenggara Tim.",NUSA TENGGARA TIMUR,,Indonesia,,,,-107.535.496,1.230.252.272,https://maps.google.com/?cid=0x0:0x8d46623c2fd6ba76,
mall,Gudang,UD Cahaya mulia,"72GX+GMV, Metina, Kec. Lobalain, Kabupaten Rote Ndao, Nusa Tenggara Tim.","Kabupaten Rote Ndao, Nusa Tenggara Tim.",NUSA TENGGARA TIMUR,,Indonesia,8124218999.0,,,-10.723.641,1.230.491.772,https://maps.google.com/?cid=0x0:0xf7f3d33cfc44dbee,
mall,,Kios Anugrah Rote  Agen BRILINk,"Mokdale, Kec. Lobalain, Kabupaten Rote Ndao, Nusa Tenggara Tim. 85971","Kec. Lobalain, Kabupaten Rote Ndao",NUSA TENGGARA TIMUR,85971.0,Indonesia,,,,-107.466.041,1.230.527.051,https://maps.google.com/?cid=0x0:0x350f44b3af6f0c01,
mall,Pusat Perbelanjaan,Toko Anjangsana kab Rote Ndao,"72FX+J48, Jl. Kartini, Namodale, Kec. Lobalain, Kabupaten Rote Ndao, Nusa Tenggara Tim.","Kabupaten Rote Ndao, Nusa Tenggara Tim.",NUSA TENGGARA TIMUR,,Indonesia,,,,-107.259.508,1.230.478.402,https://maps.google.com/?cid=0x0:0xd0abbb2f4a19369e,
mall,Toko Pakaian,Toko Bintang Mutiara,"Namodale, Kec. Lobalain, Kabupaten Rote Ndao, Nusa Tenggara Tim.","Kabupaten Rote Ndao, Nusa Tenggara Tim.",NUSA TENGGARA TIMUR,,Indonesia,81325103438.0,,,-107.265.177,1.230.486.801,https://maps.google.com/?cid=0x0:0x1b93045c58f69114,
mall,Pusat Perbelanjaan,DnD artshop,"62QP+2VG, Sanggaoen, Kec. Lobalain, Kabupaten Rote Ndao, Nusa Tenggara Tim.","Kabupaten Rote Ndao, Nusa Tenggara Tim.",NUSA TENGGARA TIMUR,,Indonesia,81239148645.0,,,-107.623.253,1.230.350.461,https://maps.google.com/?cid=0x0:0xc6df05e634817f38,
mall,Toko Perhiasan,Payaro Gold And Boat Rote Ndao,"72CV+CG3, Namodale, Kec. Lobalain, Kabupaten Rote Ndao, Nusa Tenggara Tim.","Kabupaten Rote Ndao, Nusa Tenggara Tim.",NUSA TENGGARA TIMUR,,Indonesia,82339223456.0,,,-107.289.772,1.230.438.124,https://maps.google.com/?cid=0x0:0xff5a46a232bbc0aa,
mall,Toko Pakaian,Blessing Shop Rote Ndao,"62MM+RMP, Sanggaoen, Kec. Lobalain, Kabupaten Rote Ndao, Nusa Tenggara Tim.","Kabupaten Rote Ndao, Nusa Tenggara Tim.",NUSA TENGGARA TIMUR,,Indonesia,81337660199.0,,,-107.654.031,1.230.341.942,https://maps.google.com/?cid=0x0:0x9deab863d7b87292,
mall,Kantor Perusahaan,Sentra Tenunan Rote Ndao,"72CX+2F8, Baadale, Kec. Lobalain, Kabupaten Rote Ndao, Nusa Tenggara Tim.","Kabupaten Rote Ndao, Nusa Tenggara Tim.",NUSA TENGGARA TIMUR,,Indonesia,81246092074.0,,,-107.299.655,1.230.486.963,https://maps.google.com/?cid=0x0:0xd3f262d2adb31e88,
mall,Toko bahan makanan,smart minimarket,"725W+82W, Unnamed Rd, Lobalain, Kabupaten Ndao, Nusa Tenggara Tim., Mokdale, Kec. Lobalain, Kabupaten Rote Ndao, Nusa Tenggara Tim.","Kabupaten Rote Ndao, Nusa Tenggara Tim.",NUSA TENGGARA TIMUR,,Indonesia,380871113.0,,,-107.416.499,1.230.450.803,https://maps.google.com/?cid=0x0:0x9eb8cdef3a58cfc3,
mall,Toko Elektronik,Emen Vape Store,"723W+XMR, Jl. Baa Busalangga, Mokdale, Kec. Lobalain, Kabupaten Rote Ndao, Nusa Tenggara Tim.","Kabupaten Rote Ndao, Nusa Tenggara Tim.",NUSA TENGGARA TIMUR,,Indonesia,82147517070.0,,,-107.450.152,1.230.466.282,https://maps.google.com/?cid=0x0:0x21de1323e30ecb8c,
mall,Pusat Perbelanjaan,Kios Kasih Ibu (Oma Detakiuk),"73J3+HRG, Metina, Kec. Lobalain, Kabupaten Rote Ndao, Nusa Tenggara Tim.","Kabupaten Rote Ndao, Nusa Tenggara Tim.",NUSA TENGGARA TIMUR,,Indonesia,,,,-107.185.524,1.230.545.642,https://maps.google.com/?cid=0x0:0xef3cb9ad95e13118,
mall,Toko,KADUALIMA SHOP  FN KOS,"725V+9RP, Mokdale, Kec. Lobalain, Kabupaten Rote Ndao, Nusa Tenggara Tim.","Kabupaten Rote Ndao, Nusa Tenggara Tim.",NUSA TENGGARA TIMUR,,Indonesia,85336589339.0,,,-107.415.277,1.230.445.679,https://maps.google.com/?cid=0x0:0xa8e32f3e11c49a3a,
mall,mall,Kec. Lobalain,"Kabupaten Rote Ndao, Nusa Tenggara Tim.","Kabupaten Rote Ndao, Nusa Tenggara Tim.",NUSA TENGGARA TIMUR,,Indonesia,,,,-107.290.879,1.230.460.405,https://maps.google.com/?cid=0x0:0x618add3ee97f8439,
mall,Toko Bunga,Bunga,"62JF+CR3, Holoama, Kec. Lobalain, Kabupaten Rote Ndao, Nusa Tenggara Tim.","Kabupaten Rote Ndao, Nusa Tenggara Tim.",NUSA TENGGARA TIMUR,,Indonesia,,,,-107.689.945,123.024.562,https://maps.google.com/?cid=0x0:0x12c8b2d22a6c8f0b,
mall,Toko bahan makanan,Toko Safari,"62XV+V9M, Mokdale, Kec. Lobalain, Kabupaten Rote Ndao, Nusa Tenggara Tim.","Kabupaten Rote Ndao, Nusa Tenggara Tim.",NUSA TENGGARA TIMUR,,Indonesia,,,,-107.502.982,1.230.434.327,https://maps.google.com/?cid=0x0:0xe5fad266a227e243,
mall,,Rumah,"62XV+H5J, Jl. Baa Busalangga, Mokdale, Kec. Lobalain, Kabupaten Rote Ndao, Nusa Tenggara Tim.","Kabupaten Rote Ndao, Nusa Tenggara Tim.",NUSA TENGGARA TIMUR,,Indonesia,,,,-107.510.458,1.230.429.039,https://maps.google.com/?cid=0x0:0xe6e81112da6fcb69,
mall,Komplek perumahan,Mr. DIY Rote,"Jl. Lekunik No.1, Mokdale, Kec. Lobalain, Kabupaten Rote Ndao, Nusa Tenggara Tim. 85912","Mokdale, Kec. Lobalain, Kabupaten Rote Ndao",NUSA TENGGARA TIMUR,85912.0,Indonesia,82144882077.0,,,-107.472.776,123.054.986,https://maps.google.com/?cid=0x0:0x8b2f1ba34e482fdd,
mall,Toko bahan makanan,CENTER mart / Toko Center,"Unnamed Road, Mokdale, Lobalain, Rote Ndao Regency, East Nusa Tenggara","Kabupaten Rote Ndao, Nusa Tenggara Tim.",NUSA TENGGARA TIMUR,,Indonesia,,,,-107.551.754,1.230.625.374,https://maps.google.com/?cid=0x0:0x231ea46bcfa68675,
mall,Kios,Kios,"62WG+Q37, Tuanatuk, Kec. Lobalain, Kabupaten Rote Ndao, Nusa Tenggara Tim.","Kabupaten Rote Ndao, Nusa Tenggara Tim.",NUSA TENGGARA TIMUR,,Indonesia,,,,-107.535.496,1.230.252.272,https://maps.google.com/?cid=0x0:0x8d46623c2fd6ba76,
mall,Gudang,UD Cahaya mulia,"72GX+GMV, Metina, Kec. Lobalain, Kabupaten Rote Ndao, Nusa Tenggara Tim.","Kabupaten Rote Ndao, Nusa Tenggara Tim.",NUSA TENGGARA TIMUR,,Indonesia,8124218999.0,,,-10.723.641,1.230.491.772,https://maps.google.com/?cid=0x0:0xf7f3d33cfc44dbee,
mall,Toko Pakaian,Toko Bintang Mutiara,"Namodale, Kec. Lobalain, Kabupaten Rote Ndao, Nusa Tenggara Tim.","Kabupaten Rote Ndao, Nusa Tenggara Tim.",NUSA TENGGARA TIMUR,,Indonesia,81325103438.0,,,-107.265.177,1.230.486.801,https://maps.google.com/?cid=0x0:0x1b93045c58f69114,
mall,Pusat Perbelanjaan,Toko Anjangsana kab Rote Ndao,"72FX+J48, Jl. Kartini, Namodale, Kec. Lobalain, Kabupaten Rote Ndao, Nusa Tenggara Tim.","Kabupaten Rote Ndao, Nusa Tenggara Tim.",NUSA TENGGARA TIMUR,,Indonesia,,,,-107.259.508,1.230.478.402,https://maps.google.com/?cid=0x0:0xd0abbb2f4a19369e,
mall,,Kios Anugrah Rote  Agen BRILINk,"Mokdale, Kec. Lobalain, Kabupaten Rote Ndao, Nusa Tenggara Tim. 85971","Kec. Lobalain, Kabupaten Rote Ndao",NUSA TENGGARA TIMUR,85971.0,Indonesia,,,,-107.466.041,1.230.527.051,https://maps.google.com/?cid=0x0:0x350f44b3af6f0c01,
mall,Toko Perhiasan,Payaro Gold And Boat Rote Ndao,"72CV+CG3, Namodale, Kec. Lobalain, Kabupaten Rote Ndao, Nusa Tenggara Tim.","Kabupaten Rote Ndao, Nusa Tenggara Tim.",NUSA TENGGARA TIMUR,,Indonesia,82339223456.0,,,-107.289.772,1.230.438.124,https://maps.google.com/?cid=0x0:0xff5a46a232bbc0aa,
mall,Pusat Perbelanjaan,DnD artshop,"62QP+2VG, Sanggaoen, Kec. Lobalain, Kabupaten Rote Ndao, Nusa Tenggara Tim.","Kabupaten Rote Ndao, Nusa Tenggara Tim.",NUSA TENGGARA TIMUR,,Indonesia,81239148645.0,,,-107.623.253,1.230.350.461,https://maps.google.com/?cid=0x0:0xc6df05e634817f38,
mall,Toko Pakaian,Blessing Shop Rote Ndao,"62MM+RMP, Sanggaoen, Kec. Lobalain, Kabupaten Rote Ndao, Nusa Tenggara Tim.","Kabupaten Rote Ndao, Nusa Tenggara Tim.",NUSA TENGGARA TIMUR,,Indonesia,81337660199.0,,,-107.654.031,1.230.341.942,https://maps.google.com/?cid=0x0:0x9deab863d7b87292,
mall,Kantor Perusahaan,Sentra Tenunan Rote Ndao,"72CX+2F8, Baadale, Kec. Lobalain, Kabupaten Rote Ndao, Nusa Tenggara Tim.","Kabupaten Rote Ndao, Nusa Tenggara Tim.",NUSA TENGGARA TIMUR,,Indonesia,81246092074.0,,,-107.299.655,1.230.486.963,https://maps.google.com/?cid=0x0:0xd3f262d2adb31e88,
mall,Toko bahan makanan,Toko Rahmat,"73G2+978, Jl. Tondao, Metina, Kec. Lobalain, Kabupaten Rote Ndao, Nusa Tenggara Tim.","Kabupaten Rote Ndao, Nusa Tenggara Tim.",NUSA TENGGARA TIMUR,,Indonesia,81237693067.0,,,-107.240.973,1.230.507.039,https://maps.google.com/?cid=0x0:0x75ceb9dbce21ec4b,
mall,Toko bahan makanan,smart minimarket,"725W+82W, Unnamed Rd, Lobalain, Kabupaten Ndao, Nusa Tenggara Tim., Mokdale, Kec. Lobalain, Kabupaten Rote Ndao, Nusa Tenggara Tim.","Kabupaten Rote Ndao, Nusa Tenggara Tim.",NUSA TENGGARA TIMUR,,Indonesia,380871113.0,,,-107.416.499,1.230.450.803,https://maps.google.com/?cid=0x0:0x9eb8cdef3a58cfc3,
mall,Toko Elektronik,Emen Vape Store,"723W+XMR, Jl. Baa Busalangga, Mokdale, Kec. Lobalain, Kabupaten Rote Ndao, Nusa Tenggara Tim.","Kabupaten Rote Ndao, Nusa Tenggara Tim.",NUSA TENGGARA TIMUR,,Indonesia,82147517070.0,,,-107.450.152,1.230.466.282,https://maps.google.com/?cid=0x0:0x21de1323e30ecb8c,
mall,Pusat Perbelanjaan,Kios Kasih Ibu (Oma Detakiuk),"73J3+HRG, Metina, Kec. Lobalain, Kabupaten Rote Ndao, Nusa Tenggara Tim.","Kabupaten Rote Ndao, Nusa Tenggara Tim.",NUSA TENGGARA TIMUR,,Indonesia,,,,-107.185.524,1.230.545.642,https://maps.google.com/?cid=0x0:0xef3cb9ad95e13118,
mall,Toko,KADUALIMA SHOP  FN KOS,"725V+9RP, Mokdale, Kec. Lobalain, Kabupaten Rote Ndao, Nusa Tenggara Tim.","Kabupaten Rote Ndao, Nusa Tenggara Tim.",NUSA TENGGARA TIMUR,,Indonesia,85336589339.0,,,-107.415.277,1.230.445.679,https://maps.google.com/?cid=0x0:0xa8e32f3e11c49a3a,
mall,mall,Kec. Lobalain,"Kabupaten Rote Ndao, Nusa Tenggara Tim.","Kabupaten Rote Ndao, Nusa Tenggara Tim.",NUSA TENGGARA TIMUR,,Indonesia,,,,-107.290.879,1.230.460.405,https://maps.google.com/?cid=0x0:0x618add3ee97f8439,
mall,Toko Bunga,Bunga,"62JF+CR3, Holoama, Kec. Lobalain, Kabupaten Rote Ndao, Nusa Tenggara Tim.","Kabupaten Rote Ndao, Nusa Tenggara Tim.",NUSA TENGGARA TIMUR,,Indonesia,,,,-107.689.945,123.024.562,https://maps.google.com/?cid=0x0:0x12c8b2d22a6c8f0b,
mall,Toko bahan makanan,Toko Safari,"62XV+V9M, Mokdale, Kec. Lobalain, Kabupaten Rote Ndao, Nusa Tenggara Tim.","Kabupaten Rote Ndao, Nusa Tenggara Tim.",NUSA TENGGARA TIMUR,,Indonesia,,,,-107.502.982,1.230.434.327,https://maps.google.com/?cid=0x0:0xe5fad266a227e243,
mall,Komplek perumahan,Mr. DIY Rote,"Jl. Lekunik No.1, Mokdale, Kec. Lobalain, Kabupaten Rote Ndao, Nusa Tenggara Tim. 85912","Mokdale, Kec. Lobalain, Kabupaten Rote Ndao",NUSA TENGGARA TIMUR,85912.0,Indonesia,82144882077.0,,,-107.472.776,123.054.986,https://maps.google.com/?cid=0x0:0x8b2f1ba34e482fdd,
mall,,Rumah,"62XV+H5J, Jl. Baa Busalangga, Mokdale, Kec. Lobalain, Kabupaten Rote Ndao, Nusa Tenggara Tim.","Kabupaten Rote Ndao, Nusa Tenggara Tim.",NUSA TENGGARA TIMUR,,Indonesia,,,,-107.510.458,1.230.429.039,https://maps.google.com/?cid=0x0:0xe6e81112da6fcb69,
mall,Toko bahan makanan,CENTER mart / Toko Center,"Unnamed Road, Mokdale, Lobalain, Rote Ndao Regency, East Nusa Tenggara","Kabupaten Rote Ndao, Nusa Tenggara Tim.",NUSA TENGGARA TIMUR,,Indonesia,,,,-107.551.754,1.230.625.374,https://maps.google.com/?cid=0x0:0x231ea46bcfa68675,
mall,Kantor Perusahaan,Sentra Tenunan Rote Ndao,"72CX+2F8, Baadale, Kec. Lobalain, Kabupaten Rote Ndao, Nusa Tenggara Tim.","Kabupaten Rote Ndao, Nusa Tenggara Tim.",NUSA TENGGARA TIMUR,,Indonesia,81246092074.0,,,-107.299.655,1.230.486.963,https://maps.google.com/?cid=0x0:0xd3f262d2adb31e88,
mall,Toko Pakaian,Blessing Shop Rote Ndao,"62MM+RMP, Sanggaoen, Kec. Lobalain, Kabupaten Rote Ndao, Nusa Tenggara Tim.","Kabupaten Rote Ndao, Nusa Tenggara Tim.",NUSA TENGGARA TIMUR,,Indonesia,81337660199.0,,,-107.654.031,1.230.341.942,https://maps.google.com/?cid=0x0:0x9deab863d7b87292,
mall,Toko bahan makanan,Toko Rahmat,"73G2+978, Jl. Tondao, Metina, Kec. Lobalain, Kabupaten Rote Ndao, Nusa Tenggara Tim.","Kabupaten Rote Ndao, Nusa Tenggara Tim.",NUSA TENGGARA TIMUR,,Indonesia,81237693067.0,,,-107.240.973,1.230.507.039,https://maps.google.com/?cid=0x0:0x75ceb9dbce21ec4b,
mall,Kios,Kios,"62WG+Q37, Tuanatuk, Kec. Lobalain, Kabupaten Rote Ndao, Nusa Tenggara Tim.","Kabupaten Rote Ndao, Nusa Tenggara Tim.",NUSA TENGGARA TIMUR,,Indonesia,,,,-107.535.496,1.230.252.272,https://maps.google.com/?cid=0x0:0x8d46623c2fd6ba76,
mall,Gudang,UD Cahaya mulia,"72GX+GMV, Metina, Kec. Lobalain, Kabupaten Rote Ndao, Nusa Tenggara Tim.","Kabupaten Rote Ndao, Nusa Tenggara Tim.",NUSA TENGGARA TIMUR,,Indonesia,8124218999.0,,,-10.723.641,1.230.491.772,https://maps.google.com/?cid=0x0:0xf7f3d33cfc44dbee,
mall,Toko Pakaian,Toko Bintang Mutiara,"Namodale, Kec. Lobalain, Kabupaten Rote Ndao, Nusa Tenggara Tim.","Kabupaten Rote Ndao, Nusa Tenggara Tim.",NUSA TENGGARA TIMUR,,Indonesia,81325103438.0,,,-107.265.177,1.230.486.801,https://maps.google.com/?cid=0x0:0x1b93045c58f69114,
mall,Pusat Perbelanjaan,Toko Anjangsana kab Rote Ndao,"72FX+J48, Jl. Kartini, Namodale, Kec. Lobalain, Kabupaten Rote Ndao, Nusa Tenggara Tim.","Kabupaten Rote Ndao, Nusa Tenggara Tim.",NUSA TENGGARA TIMUR,,Indonesia,,,,-107.259.508,1.230.478.402,https://maps.google.com/?cid=0x0:0xd0abbb2f4a19369e,
mall,,Kios Anugrah Rote  Agen BRILINk,"Mokdale, Kec. Lobalain, Kabupaten Rote Ndao, Nusa Tenggara Tim. 85971","Kec. Lobalain, Kabupaten Rote Ndao",NUSA TENGGARA TIMUR,85971.0,Indonesia,,,,-107.466.041,1.230.527.051,https://maps.google.com/?cid=0x0:0x350f44b3af6f0c01,
mall,Pusat Perbelanjaan,DnD artshop,"62QP+2VG, Sanggaoen, Kec. Lobalain, Kabupaten Rote Ndao, Nusa Tenggara Tim.","Kabupaten Rote Ndao, Nusa Tenggara Tim.",NUSA TENGGARA TIMUR,,Indonesia,81239148645.0,,,-107.623.253,1.230.350.461,https://maps.google.com/?cid=0x0:0xc6df05e634817f38,
mall,Toko Perhiasan,Payaro Gold And Boat Rote Ndao,"72CV+CG3, Namodale, Kec. Lobalain, Kabupaten Rote Ndao, Nusa Tenggara Tim.","Kabupaten Rote Ndao, Nusa Tenggara Tim.",NUSA TENGGARA TIMUR,,Indonesia,82339223456.0,,,-107.289.772,1.230.438.124,https://maps.google.com/?cid=0x0:0xff5a46a232bbc0aa,
mall,Toko Elektronik,Emen Vape Store,"723W+XMR, Jl. Baa Busalangga, Mokdale, Kec. Lobalain, Kabupaten Rote Ndao, Nusa Tenggara Tim.","Kabupaten Rote Ndao, Nusa Tenggara Tim.",NUSA TENGGARA TIMUR,,Indonesia,82147517070.0,,,-107.450.152,1.230.466.282,https://maps.google.com/?cid=0x0:0x21de1323e30ecb8c,
mall,Toko bahan makanan,smart minimarket,"725W+82W, Unnamed Rd, Lobalain, Kabupaten Ndao, Nusa Tenggara Tim., Mokdale, Kec. Lobalain, Kabupaten Rote Ndao, Nusa Tenggara Tim.","Kabupaten Rote Ndao, Nusa Tenggara Tim.",NUSA TENGGARA TIMUR,,Indonesia,380871113.0,,,-107.416.499,1.230.450.803,https://maps.google.com/?cid=0x0:0x9eb8cdef3a58cfc3,
mall,Pusat Perbelanjaan,Kios Kasih Ibu (Oma Detakiuk),"73J3+HRG, Metina, Kec. Lobalain, Kabupaten Rote Ndao, Nusa Tenggara Tim.","Kabupaten Rote Ndao, Nusa Tenggara Tim.",NUSA TENGGARA TIMUR,,Indonesia,,,,-107.185.524,1.230.545.642,https://maps.google.com/?cid=0x0:0xef3cb9ad95e13118,
mall,Toko,KADUALIMA SHOP  FN KOS,"725V+9RP, Mokdale, Kec. Lobalain, Kabupaten Rote Ndao, Nusa Tenggara Tim.","Kabupaten Rote Ndao, Nusa Tenggara Tim.",NUSA TENGGARA TIMUR,,Indonesia,85336589339.0,,,-107.415.277,1.230.445.679,https://maps.google.com/?cid=0x0:0xa8e32f3e11c49a3a,
mall,Toko bahan makanan,Liora Minimarkett,"63W6+F6M, Mokdale, Kec. Lobalain, Kabupaten Rote Ndao, Nusa Tenggara Tim.","Kabupaten Rote Ndao, Nusa Tenggara Tim.",NUSA TENGGARA TIMUR,,Indonesia,,,,-107.537.894,1.230.605.576,https://maps.google.com/?cid=0x0:0x5b51e6d47d44f8a8,
mall,Perusahaan Ekspedisi,SPX Express Lobalain Hub,"62GH+73, Holoama, Kec. Lobalain, Kabupaten Rote Ndao, Nusa Tenggara Tim. 85918","Holoama, Kec. Lobalain, Kabupaten Rote Ndao",NUSA TENGGARA TIMUR,85918.0,Indonesia,,,,-10.774.137,1.230.277.369,https://maps.google.com/?cid=0x0:0x6c26d4517965a14a,
mall,mall,Kec. Lobalain,"Kabupaten Rote Ndao, Nusa Tenggara Tim.","Kabupaten Rote Ndao, Nusa Tenggara Tim.",NUSA TENGGARA TIMUR,,Indonesia,,,,-107.290.879,1.230.460.405,https://maps.google.com/?cid=0x0:0x618add3ee97f8439,
mall,Toko Bunga,Bunga,"62JF+CR3, Holoama, Kec. Lobalain, Kabupaten Rote Ndao, Nusa Tenggara Tim.","Kabupaten Rote Ndao, Nusa Tenggara Tim.",NUSA TENGGARA TIMUR,,Indonesia,,,,-107.689.945,123.024.562,https://maps.google.com/?cid=0x0:0x12c8b2d22a6c8f0b,
mall,Toko bahan makanan,Toko Safari,"62XV+V9M, Mokdale, Kec. Lobalain, Kabupaten Rote Ndao, Nusa Tenggara Tim.","Kabupaten Rote Ndao, Nusa Tenggara Tim.",NUSA TENGGARA TIMUR,,Indonesia,,,,-107.502.982,1.230.434.327,https://maps.google.com/?cid=0x0:0xe5fad266a227e243,
mall,Pusat Perbelanjaan,Lole Dakek,10°48'13.4>>,"Kabupaten Rote Ndao, Nusa Tenggara Tim.",NUSA TENGGARA TIMUR,,Indonesia,,,,-107.291.009,1.230.461.394,https://maps.google.com/?cid=0x0:0x1d587d5f4215e0c0,
mall,,Rumah,"62XV+H5J, Jl. Baa Busalangga, Mokdale, Kec. Lobalain, Kabupaten Rote Ndao, Nusa Tenggara Tim.","Kabupaten Rote Ndao, Nusa Tenggara Tim.",NUSA TENGGARA TIMUR,,Indonesia,,,,-107.510.458,1.230.429.039,https://maps.google.com/?cid=0x0:0xe6e81112da6fcb69,
mall,Toko bahan makanan,CENTER mart / Toko Center,"Unnamed Road, Mokdale, Lobalain, Rote Ndao Regency, East Nusa Tenggara","Kabupaten Rote Ndao, Nusa Tenggara Tim.",NUSA TENGGARA TIMUR,,Indonesia,,,,-107.551.754,1.230.625.374,https://maps.google.com/?cid=0x0:0x231ea46bcfa68675,
mall,Toko Pakaian,Blessing Shop Rote Ndao,"62MM+RMP, Sanggaoen, Kec. Lobalain, Kabupaten Rote Ndao, Nusa Tenggara Tim.","Kabupaten Rote Ndao, Nusa Tenggara Tim.",NUSA TENGGARA TIMUR,,Indonesia,81337660199.0,,,-107.654.031,1.230.341.942,https://maps.google.com/?cid=0x0:0x9deab863d7b87292,
mall,Toko bahan makanan,Toko Rahmat,"73G2+978, Jl. Tondao, Metina, Kec. Lobalain, Kabupaten Rote Ndao, Nusa Tenggara Tim.","Kabupaten Rote Ndao, Nusa Tenggara Tim.",NUSA TENGGARA TIMUR,,Indonesia,81237693067.0,,,-107.240.973,1.230.507.039,https://maps.google.com/?cid=0x0:0x75ceb9dbce21ec4b,
mall,Kantor Perusahaan,Sentra Tenunan Rote Ndao,"72CX+2F8, Baadale, Kec. Lobalain, Kabupaten Rote Ndao, Nusa Tenggara Tim.","Kabupaten Rote Ndao, Nusa Tenggara Tim.",NUSA TENGGARA TIMUR,,Indonesia,81246092074.0,,,-107.299.655,1.230.486.963,https://maps.google.com/?cid=0x0:0xd3f262d2adb31e88,
mall,Kios,Kios,"62WG+Q37, Tuanatuk, Kec. Lobalain, Kabupaten Rote Ndao, Nusa Tenggara Tim.","Kabupaten Rote Ndao, Nusa Tenggara Tim.",NUSA TENGGARA TIMUR,,Indonesia,,,,-107.535.496,1.230.252.272,https://maps.google.com/?cid=0x0:0x8d46623c2fd6ba76,
mall,Gudang,UD Cahaya mulia,"72GX+GMV, Metina, Kec. Lobalain, Kabupaten Rote Ndao, Nusa Tenggara Tim.","Kabupaten Rote Ndao, Nusa Tenggara Tim.",NUSA TENGGARA TIMUR,,Indonesia,8124218999.0,,,-10.723.641,1.230.491.772,https://maps.google.com/?cid=0x0:0xf7f3d33cfc44dbee,
mall,,Kios Anugrah Rote  Agen BRILINk,"Mokdale, Kec. Lobalain, Kabupaten Rote Ndao, Nusa Tenggara Tim. 85971","Kec. Lobalain, Kabupaten Rote Ndao",NUSA TENGGARA TIMUR,85971.0,Indonesia,,,,-107.466.041,1.230.527.051,https://maps.google.com/?cid=0x0:0x350f44b3af6f0c01,
mall,Pusat Perbelanjaan,Toko Anjangsana kab Rote Ndao,"72FX+J48, Jl. Kartini, Namodale, Kec. Lobalain, Kabupaten Rote Ndao, Nusa Tenggara Tim.","Kabupaten Rote Ndao, Nusa Tenggara Tim.",NUSA TENGGARA TIMUR,,Indonesia,,,,-107.259.508,1.230.478.402,https://maps.google.com/?cid=0x0:0xd0abbb2f4a19369e,
mall,Toko Pakaian,Toko Bintang Mutiara,"Namodale, Kec. Lobalain, Kabupaten Rote Ndao, Nusa Tenggara Tim.","Kabupaten Rote Ndao, Nusa Tenggara Tim.",NUSA TENGGARA TIMUR,,Indonesia,81325103438.0,,,-107.265.177,1.230.486.801,https://maps.google.com/?cid=0x0:0x1b93045c58f69114,
mall,Toko Perhiasan,Payaro Gold And Boat Rote Ndao,"72CV+CG3, Namodale, Kec. Lobalain, Kabupaten Rote Ndao, Nusa Tenggara Tim.","Kabupaten Rote Ndao, Nusa Tenggara Tim.",NUSA TENGGARA TIMUR,,Indonesia,82339223456.0,,,-107.289.772,1.230.438.124,https://maps.google.com/?cid=0x0:0xff5a46a232bbc0aa,
mall,Pusat Perbelanjaan,DnD artshop,"62QP+2VG, Sanggaoen, Kec. Lobalain, Kabupaten Rote Ndao, Nusa Tenggara Tim.","Kabupaten Rote Ndao, Nusa Tenggara Tim.",NUSA TENGGARA TIMUR,,Indonesia,81239148645.0,,,-107.623.253,1.230.350.461,https://maps.google.com/?cid=0x0:0xc6df05e634817f38,
mall,Toko bahan makanan,smart minimarket,"725W+82W, Unnamed Rd, Lobalain, Kabupaten Ndao, Nusa Tenggara Tim., Mokdale, Kec. Lobalain, Kabupaten Rote Ndao, Nusa Tenggara Tim.","Kabupaten Rote Ndao, Nusa Tenggara Tim.",NUSA TENGGARA TIMUR,,Indonesia,380871113.0,,,-107.416.499,1.230.450.803,https://maps.google.com/?cid=0x0:0x9eb8cdef3a58cfc3,
mall,Toko Elektronik,Emen Vape Store,"723W+XMR, Jl. Baa Busalangga, Mokdale, Kec. Lobalain, Kabupaten Rote Ndao, Nusa Tenggara Tim.","Kabupaten Rote Ndao, Nusa Tenggara Tim.",NUSA TENGGARA TIMUR,,Indonesia,82147517070.0,,,-107.450.152,1.230.466.282,https://maps.google.com/?cid=0x0:0x21de1323e30ecb8c,
mall,Pusat Perbelanjaan,Kios Kasih Ibu (Oma Detakiuk),"73J3+HRG, Metina, Kec. Lobalain, Kabupaten Rote Ndao, Nusa Tenggara Tim.","Kabupaten Rote Ndao, Nusa Tenggara Tim.",NUSA TENGGARA TIMUR,,Indonesia,,,,-107.185.524,1.230.545.642,https://maps.google.com/?cid=0x0:0xef3cb9ad95e13118,
mall,Toko,KADUALIMA SHOP  FN KOS,"725V+9RP, Mokdale, Kec. Lobalain, Kabupaten Rote Ndao, Nusa Tenggara Tim.","Kabupaten Rote Ndao, Nusa Tenggara Tim.",NUSA TENGGARA TIMUR,,Indonesia,85336589339.0,,,-107.415.277,1.230.445.679,https://maps.google.com/?cid=0x0:0xa8e32f3e11c49a3a,
mall,mall,Kec. Rote Tengah,"Kabupaten Rote Ndao, Nusa Tenggara Tim.","Kabupaten Rote Ndao, Nusa Tenggara Tim.",NUSA TENGGARA TIMUR,,Indonesia,,,,-106.702.912,1.231.279.559,https://maps.google.com/?cid=0x0:0x44ac523cb3546567,
mall,Gudang,UD Cahaya mulia,"72GX+GMV, Metina, Kec. Lobalain, Kabupaten Rote Ndao, Nusa Tenggara Tim.","Kabupaten Rote Ndao, Nusa Tenggara Tim.",NUSA TENGGARA TIMUR,,Indonesia,8124218999.0,,,-10.723.641,1.230.491.772,https://maps.google.com/?cid=0x0:0xf7f3d33cfc44dbee,
mall,Toko bahan makanan,Toko Safari,"62XV+V9M, Mokdale, Kec. Lobalain, Kabupaten Rote Ndao, Nusa Tenggara Tim.","Kabupaten Rote Ndao, Nusa Tenggara Tim.",NUSA TENGGARA TIMUR,,Indonesia,,,,-107.502.982,1.230.434.327,https://maps.google.com/?cid=0x0:0xe5fad266a227e243,
mall,Kantor Perusahaan,Sentra Tenunan Rote Ndao,"72CX+2F8, Baadale, Kec. Lobalain, Kabupaten Rote Ndao, Nusa Tenggara Tim.","Kabupaten Rote Ndao, Nusa Tenggara Tim.",NUSA TENGGARA TIMUR,,Indonesia,81246092074.0,,,-107.299.655,1.230.486.963,https://maps.google.com/?cid=0x0:0xd3f262d2adb31e88,
mall,Toko Perhiasan,Payaro Gold And Boat Rote Ndao,"72CV+CG3, Namodale, Kec. Lobalain, Kabupaten Rote Ndao, Nusa Tenggara Tim.","Kabupaten Rote Ndao, Nusa Tenggara Tim.",NUSA TENGGARA TIMUR,,Indonesia,82339223456.0,,,-107.289.772,1.230.438.124,https://maps.google.com/?cid=0x0:0xff5a46a232bbc0aa,
mall,Pusat Perbelanjaan,Toko Anjangsana kab Rote Ndao,"72FX+J48, Jl. Kartini, Namodale, Kec. Lobalain, Kabupaten Rote Ndao, Nusa Tenggara Tim.","Kabupaten Rote Ndao, Nusa Tenggara Tim.",NUSA TENGGARA TIMUR,,Indonesia,,,,-107.259.508,1.230.478.402,https://maps.google.com/?cid=0x0:0xd0abbb2f4a19369e,
mall,Toko bahan makanan,Toko Rahmat,"73G2+978, Jl. Tondao, Metina, Kec. Lobalain, Kabupaten Rote Ndao, Nusa Tenggara Tim.","Kabupaten Rote Ndao, Nusa Tenggara Tim.",NUSA TENGGARA TIMUR,,Indonesia,81237693067.0,,,-107.240.973,1.230.507.039,https://maps.google.com/?cid=0x0:0x75ceb9dbce21ec4b,
mall,Toko outlet,JP TRANS Tunganamo,"95JV+RQ4, Tunganamo, Kec. Pantai Baru, Kabupaten Rote Ndao, Nusa Tenggara Tim.","Kabupaten Rote Ndao, Nusa Tenggara Tim.",NUSA TENGGARA TIMUR,,Indonesia,81236405551.0,,,-106.179.872,1.231.944.654,https://maps.google.com/?cid=0x0:0x9ca77387c45d3570,
mall,Komplek perumahan,Mr. DIY Rote,"Jl. Lekunik No.1, Mokdale, Kec. Lobalain, Kabupaten Rote Ndao, Nusa Tenggara Tim. 85912","Mokdale, Kec. Lobalain, Kabupaten Rote Ndao",NUSA TENGGARA TIMUR,85912.0,Indonesia,82144882077.0,,,-107.472.776,123.054.986,https://maps.google.com/?cid=0x0:0x8b2f1ba34e482fdd,
mall,Kios,Kios Helena,"658H+GMX, Daleholu, Kec. Rote Sel., Kabupaten Rote Ndao, Nusa Tenggara Tim.","Kabupaten Rote Ndao, Nusa Tenggara Tim.",NUSA TENGGARA TIMUR,,Indonesia,,,,-107.839.328,1.231.783.451,https://maps.google.com/?cid=0x0:0x3580bbebfbe55371,
mall,Toko Pakaian,Toko Bintang Mutiara,"Namodale, Kec. Lobalain, Kabupaten Rote Ndao, Nusa Tenggara Tim.","Kabupaten Rote Ndao, Nusa Tenggara Tim.",NUSA TENGGARA TIMUR,,Indonesia,81325103438.0,,,-107.265.177,1.230.486.801,https://maps.google.com/?cid=0x0:0x1b93045c58f69114,
mall,Komplek perumahan,Shandy liu,"658P+7GM, Daleholu, Kec. Rote Sel., Kabupaten Rote Ndao, Nusa Tenggara Tim.","Kabupaten Rote Ndao, Nusa Tenggara Tim.",NUSA TENGGARA TIMUR,,Indonesia,82339991853.0,,,-107.842.954,1.231.862.939,https://maps.google.com/?cid=0x0:0xffcd73d4579c37dc,
mall,Pusat Perbelanjaan,Kios Kasih Ibu (Oma Detakiuk),"73J3+HRG, Metina, Kec. Lobalain, Kabupaten Rote Ndao, Nusa Tenggara Tim.","Kabupaten Rote Ndao, Nusa Tenggara Tim.",NUSA TENGGARA TIMUR,,Indonesia,,,,-107.185.524,1.230.545.642,https://maps.google.com/?cid=0x0:0xef3cb9ad95e13118,
mall,,Rumah,"62XV+H5J, Jl. Baa Busalangga, Mokdale, Kec. Lobalain, Kabupaten Rote Ndao, Nusa Tenggara Tim.","Kabupaten Rote Ndao, Nusa Tenggara Tim.",NUSA TENGGARA TIMUR,,Indonesia,,,,-107.510.458,1.230.429.039,https://maps.google.com/?cid=0x0:0xe6e81112da6fcb69,
mall,,Kios Anugrah Rote  Agen BRILINk,"Mokdale, Kec. Lobalain, Kabupaten Rote Ndao, Nusa Tenggara Tim. 85971","Kec. Lobalain, Kabupaten Rote Ndao",NUSA TENGGARA TIMUR,85971.0,Indonesia,,,,-107.466.041,1.230.527.051,https://maps.google.com/?cid=0x0:0x350f44b3af6f0c01,
mall,Pusat Perbelanjaan,Lole Dakek,10°48'13.4>>,"Kabupaten Rote Ndao, Nusa Tenggara Tim.",NUSA TENGGARA TIMUR,,Indonesia,,,,-107.291.009,1.230.461.394,https://maps.google.com/?cid=0x0:0x1d587d5f4215e0c0,
mall,Toko Elektronik,Emen Vape Store,"723W+XMR, Jl. Baa Busalangga, Mokdale, Kec. Lobalain, Kabupaten Rote Ndao, Nusa Tenggara Tim.","Kabupaten Rote Ndao, Nusa Tenggara Tim.",NUSA TENGGARA TIMUR,,Indonesia,82147517070.0,,,-107.450.152,1.230.466.282,https://maps.google.com/?cid=0x0:0x21de1323e30ecb8c,
mall,Pusat Perbelanjaan,Ike pello,"55WP+JJF, Daleholu, Kec. Rote Sel., Kabupaten Rote Ndao, Nusa Tenggara Tim.","Kabupaten Rote Ndao, Nusa Tenggara Tim.",NUSA TENGGARA TIMUR,,Indonesia,,,,-108.034.346,1.231.865.467,https://maps.google.com/?cid=0x0:0x2f311d6fe47e852,
mall,Toko Pakaian,Blessing Shop Rote Ndao,"62MM+RMP, Sanggaoen, Kec. Lobalain, Kabupaten Rote Ndao, Nusa Tenggara Tim.","Kabupaten Rote Ndao, Nusa Tenggara Tim.",NUSA TENGGARA TIMUR,,Indonesia,81337660199.0,,,-107.654.031,1.230.341.942,https://maps.google.com/?cid=0x0:0x9deab863d7b87292,
mall,Toko umum,Kios biru,"54V9+JP, Bebalain, Loleoen, Kabupaten Rote Ndao, Nusa Tenggara Tim.","Kabupaten Rote Ndao, Nusa Tenggara Tim.",NUSA TENGGARA TIMUR,,Indonesia,,,,-108.058.986,1.231.193.143,https://maps.google.com/?cid=0x0:0xe0fa0c5d1830af9a,
mall,Pelestarian Situs Peninggalan,"Istana Uma Batu, Feapopi Nusak Termanu Rote tengah","8476+X26, Onotali, Kec. Rote Tengah, Kabupaten Rote Ndao, Nusa Tenggara Tim.","Kabupaten Rote Ndao, Nusa Tenggara Tim.",NUSA TENGGARA TIMUR,,Indonesia,,,,-106.850.996,1.231.100.224,https://maps.google.com/?cid=0x0:0x20c897158376805c,
mall,Rumah Kayu,Maubesi_Hunulain,"73FX+HJW, Jalan Hunalain, Maubesi, Kec. Rote Tengah, Kabupaten Rote Ndao, Nusa Tenggara Tim.","Kabupaten Rote Ndao, Nusa Tenggara Tim.",NUSA TENGGARA TIMUR,,Indonesia,,,,-107.262.262,1.230.983.811,https://maps.google.com/?cid=0x0:0x154239ef27cefd1e,
mall,Biro Perjalanan dan Wisata,Rote tengah,"953G+5JC, Oenitas, Kec. Rote Tengah, Kabupaten Rote Ndao, Nusa Tenggara Tim.","Kabupaten Rote Ndao, Nusa Tenggara Tim.",NUSA TENGGARA TIMUR,,Indonesia,,,,-106.466.963,123.175.166,https://maps.google.com/?cid=0x0:0xc5ed8f6cd351cc27,
mall,Sekolah menengah,SMA Negeri 1 Rote Tengah,"84F7+M93, Onotali, Kec. Rote Tengah, Kabupaten Rote Ndao, Nusa Tenggara Tim.","Kabupaten Rote Ndao, Nusa Tenggara Tim.",NUSA TENGGARA TIMUR,,Indonesia,,,,-106.758.524,1.231.134.119,https://maps.google.com/?cid=0x0:0x99a938d621800e16,
mall,mall,Kec. Rote Tim.,"Kabupaten Rote Ndao, Nusa Tenggara Tim.","Kabupaten Rote Ndao, Nusa Tenggara Tim.",NUSA TENGGARA TIMUR,,Indonesia,,,,-106.018.337,1.233.792.441,https://maps.google.com/?cid=0x0:0x20409773de900efa,
mall,Pusat Perbelanjaan,Penaoen,"99C7+3JP, Serubeba, Kec. Rote Tim., Kabupaten Rote Ndao, Nusa Tenggara Tim.","Kabupaten Rote Ndao, Nusa Tenggara Tim.",NUSA TENGGARA TIMUR,,Indonesia,,,,-106.297.796,1.233.640.697,https://maps.google.com/?cid=0x0:0xe0ab528f3268f1,
mall,Toko outlet,Toko Rizquna,"C92J+44R, Londalusi, Kec. Rote Tim., Kabupaten Rote Ndao, Nusa Tenggara Tim.","Kabupaten Rote Ndao, Nusa Tenggara Tim.",NUSA TENGGARA TIMUR,,Indonesia,,,,-105.996.292,1.233.802.574,https://maps.google.com/?cid=0x0:0x8d2bf76dab1bad57,
mall,Tempat Ibadah,Kios Garuda Depan Barat Gereja Imanuel Eahun,"99HJ+9M8, Unnamed Road, Londalusi, Kec. Rote Tim., Kabupaten Rote Ndao, Nusa Tenggara Tim.","Kabupaten Rote Ndao, Nusa Tenggara Tim.",NUSA TENGGARA TIMUR,,Indonesia,85253760612.0,,,-106.215.923,1.233.817.003,https://maps.google.com/?cid=0x0:0xdeb4ecb58aaa9556,
mall,mall,Rz Cemerlang,"99XH+4MC, Londalusi, Kec. Rote Tim., Kabupaten Rote Ndao, Nusa Tenggara Tim.","Kabupaten Rote Ndao, Nusa Tenggara Tim.",NUSA TENGGARA TIMUR,,Indonesia,,,,-106.023.348,1.233.792.315,https://maps.google.com/?cid=0x0:0xdb28d91624e87f97,
mall,mall,Ruko UD RIZQUNA,"99VJ+V24, Londalusi, Kec. Rote Tim., Kabupaten Rote Ndao, Nusa Tenggara Tim.","Kabupaten Rote Ndao, Nusa Tenggara Tim.",NUSA TENGGARA TIMUR,,Indonesia,82146140009.0,,,-106.053.684,1.233.800.932,https://maps.google.com/?cid=0x0:0x6bd4162598c2a7cc,
mall,mall,Kec. Rote Bar.,"Kabupaten Rote Ndao, Nusa Tenggara Tim.","Kabupaten Rote Ndao, Nusa Tenggara Tim.",NUSA TENGGARA TIMUR,,Indonesia,,,,-108.858.919,1.228.260.101,https://maps.google.com/?cid=0x0:0x20873fb50a5b50f7,
mall,Pusat Perbelanjaan,Esa,"4WHH+563, Lalukoen, Kec. Rote Bar. Daya, Kabupaten Rote Ndao, Nusa Tenggara Tim.","Kabupaten Rote Ndao, Nusa Tenggara Tim.",NUSA TENGGARA TIMUR,,Indonesia,,,,-108.718.034,1.229.285.282,https://maps.google.com/?cid=0x0:0x128ffecb5ca387b4,
mall,Toko,AIR GALLON,"4R7G+C7C, Nemberala, Kec. Rote Bar., Kabupaten Rote Ndao, Nusa Tenggara Tim.","Kabupaten Rote Ndao, Nusa Tenggara Tim.",NUSA TENGGARA TIMUR,,Indonesia,85338198004.0,,,-108.864.428,1.228.256.296,https://maps.google.com/?cid=0x0:0x61b1bcfce58ed30f,
mall,Pusat Perbelanjaan,Lalukoen,"4WPH+8GR, Lalukoen, Kec. Rote Bar. Daya, Kabupaten Rote Ndao, Nusa Tenggara Tim.","Kabupaten Rote Ndao, Nusa Tenggara Tim.",NUSA TENGGARA TIMUR,,Indonesia,,,,-108.641.464,1.229.287.582,https://maps.google.com/?cid=0x0:0xc99e567e6c44caab,
mall,Pusat Perbelanjaan,Dion Nome,"5X57+R8P, Meoain, Kec. Rote Bar. Daya, Kabupaten Rote Ndao, Nusa Tenggara Tim.","Kabupaten Rote Ndao, Nusa Tenggara Tim.",NUSA TENGGARA TIMUR,,Indonesia,,,,-108.404.402,1.229.633.422,https://maps.google.com/?cid=0x0:0x5553923cf4f1ada6,
mall,Komplek perumahan,Marten,"4WHH+563, Lalukoen, Kec. Rote Bar. Daya, Kabupaten Rote Ndao, Nusa Tenggara Tim.","Kabupaten Rote Ndao, Nusa Tenggara Tim.",NUSA TENGGARA TIMUR,,Indonesia,,,,-10.871.807,1.229.285.084,https://maps.google.com/?cid=0x0:0xe589c8e67c777f70,
mall,Pusat Perbelanjaan,Kios Yadit,"3VJ5+3JX, Boa, Kec. Rote Bar., Kabupaten Rote Ndao, Nusa Tenggara Tim.","Kabupaten Rote Ndao, Nusa Tenggara Tim.",NUSA TENGGARA TIMUR,,Indonesia,,,,-109.197.731,1.228.591.154,https://maps.google.com/?cid=0x0:0x4e21c0969a8930c8,
mall,Kios,Kios Lailete sejatera,"Boni, Kec. Rote Bar. Laut, Kabupaten Rote Ndao, Nusa Tenggara Tim.","Kabupaten Rote Ndao, Nusa Tenggara Tim.",NUSA TENGGARA TIMUR,,Indonesia,81339579694.0,,,-108.074.953,1.228.787.997,https://maps.google.com/?cid=0x0:0xb7366569f68b3883,
mall,Rumah Kayu,Pet Nalle,"4WHH+563, Lalukoen, Kec. Rote Bar. Daya, Kabupaten Rote Ndao, Nusa Tenggara Tim.","Kabupaten Rote Ndao, Nusa Tenggara Tim.",NUSA TENGGARA TIMUR,,Indonesia,,,,-108.717.352,122.928.375,https://maps.google.com/?cid=0x0:0xbea42dc250966be4,
mall,Toko bahan makanan,Bintang Messah,"4XF2+FHP, Oeteffu, Kec. Rote Bar. Daya, Kabupaten Rote Ndao, Nusa Tenggara Tim.","Kabupaten Rote Ndao, Nusa Tenggara Tim.",NUSA TENGGARA TIMUR,,Indonesia,,,,-108.763.278,1.229.514.835,https://maps.google.com/?cid=0x0:0x90925b199be5e110,
mall,Toko,Agatha retail dan sembako,"4XG5+H4X, Oeteffu, Kec. Rote Bar. Daya, Kabupaten Rote Ndao, Nusa Tenggara Tim.","Kabupaten Rote Ndao, Nusa Tenggara Tim.",NUSA TENGGARA TIMUR,,Indonesia,85333484647.0,,,-108.735.089,1.229.578.517,https://maps.google.com/?cid=0x0:0xeddf0d84a0591d72,
mall,Toko outlet,Kios Pelangi Cell  Bengkel,"4WQJ+FC7, Lalukoen, Kec. Rote Bar. Daya, Kabupaten Rote Ndao, Nusa Tenggara Tim.","Kabupaten Rote Ndao, Nusa Tenggara Tim.",NUSA TENGGARA TIMUR,,Indonesia,82144857893.0,,,-108.613.292,1.229.310.415,https://maps.google.com/?cid=0x0:0xdf108422f21336ff,
mall,Pusat Perbelanjaan,Kios imanuel,"4XW3+WX8, Oehandi, Kec. Rote Bar. Daya, Kabupaten Rote Ndao, Nusa Tenggara Tim.","Kabupaten Rote Ndao, Nusa Tenggara Tim.",NUSA TENGGARA TIMUR,,Indonesia,,,,-108.529.913,1.229.547.689,https://maps.google.com/?cid=0x0:0xeeee6a0e63d54003,
mall,Pusat Perbelanjaan,Kios Geriani,"4XM2+2F5, Oeteffu, Kec. Rote Bar. Daya, Kabupaten Rote Ndao, Nusa Tenggara Tim.","Kabupaten Rote Ndao, Nusa Tenggara Tim.",NUSA TENGGARA TIMUR,,Indonesia,81237496876.0,,,-108.674.901,1.229.512.482,https://maps.google.com/?cid=0x0:0x6fb498e41e62946f,
mall,Komplek perumahan,Rumah Yuan ndolu,"6W7V+CF, Ingguinak, Kec. Rote Bar. Laut, Kabupaten Rote Ndao, Nusa Tenggara Tim.","Kabupaten Rote Ndao, Nusa Tenggara Tim.",NUSA TENGGARA TIMUR,,Indonesia,,,,-10.786.479,122.943.717,https://maps.google.com/?cid=0x0:0xfe0becdc5146259e,
mall,Toko,vonnytha,"Temas, Dusun Fatunao, Kabupaten Rote Ndao, Nusa Tenggara Tim.","Kabupaten Rote Ndao, Nusa Tenggara Tim.",NUSA TENGGARA TIMUR,,Indonesia,85337448347.0,,,-108.075.351,1.229.277,https://maps.google.com/?cid=0x0:0xe0f54914b2761cb7,
mall,Bengkel Sepeda Motor,Bengkel Motor,"4WMX+49M, Oeteffu, Kec. Rote Bar. Daya, Kabupaten Rote Ndao, Nusa Tenggara Tim.","Kabupaten Rote Ndao, Nusa Tenggara Tim.",NUSA TENGGARA TIMUR,,Indonesia,81338938402.0,,,-108.671.704,1.229.484.366,https://maps.google.com/?cid=0x0:0x438d0b6a37e9b6b8,
mall,mall,Rote barat desa oenggaut,"3RVP+WM6, Oenggaut, Kec. Rote Bar., Kabupaten Rote Ndao, Nusa Tenggara Tim.","Kabupaten Rote Ndao, Nusa Tenggara Tim.",NUSA TENGGARA TIMUR,,Indonesia,,,,-109.052.167,1.228.366.556,https://maps.google.com/?cid=0x0:0x5f7668d9b4db2f6c,
mall,mall,Rote barat desa oenggaut,"3RVP+WM6, Oenggaut, Kec. Rote Bar., Kabupaten Rote Ndao, Nusa Tenggara Tim.","Kabupaten Rote Ndao, Nusa Tenggara Tim.",NUSA TENGGARA TIMUR,,Indonesia,,,,-109.052.167,1.228.366.556,https://maps.google.com/?cid=0x0:0x5f7668d9b4db2f6c,
mall,mall,Kec. Rote Bar.,"Kabupaten Rote Ndao, Nusa Tenggara Tim.","Kabupaten Rote Ndao, Nusa Tenggara Tim.",NUSA TENGGARA TIMUR,,Indonesia,,,,-108.858.919,1.228.260.101,https://maps.google.com/?cid=0x0:0x20873fb50a5b50f7,
mall,Pusat Perbelanjaan,Esa,"4WHH+563, Lalukoen, Kec. Rote Bar. Daya, Kabupaten Rote Ndao, Nusa Tenggara Tim.","Kabupaten Rote Ndao, Nusa Tenggara Tim.",NUSA TENGGARA TIMUR,,Indonesia,,,,-108.718.034,1.229.285.282,https://maps.google.com/?cid=0x0:0x128ffecb5ca387b4,
mall,Toko bahan makanan,Pusat jual ikan,"3WX2+WGP Frans mbeo, Oeseli, Kec. Rote Bar. Daya, Kabupaten Rote Ndao, Nusa Tenggara Tim.","Kabupaten Rote Ndao, Nusa Tenggara Tim.",NUSA TENGGARA TIMUR,,Indonesia,85348459876.0,,,-109.001.574,1.229.013.199,https://maps.google.com/?cid=0x0:0x7481acc56625c990,
mall,Pusat Perbelanjaan,Lalukoen,"4WPH+8GR, Lalukoen, Kec. Rote Bar. Daya, Kabupaten Rote Ndao, Nusa Tenggara Tim.","Kabupaten Rote Ndao, Nusa Tenggara Tim.",NUSA TENGGARA TIMUR,,Indonesia,,,,-108.641.464,1.229.287.582,https://maps.google.com/?cid=0x0:0xc99e567e6c44caab,
mall,Komplek perumahan,Marten,"4WHH+563, Lalukoen, Kec. Rote Bar. Daya, Kabupaten Rote Ndao, Nusa Tenggara Tim.","Kabupaten Rote Ndao, Nusa Tenggara Tim.",NUSA TENGGARA TIMUR,,Indonesia,,,,-10.871.807,1.229.285.084,https://maps.google.com/?cid=0x0:0xe589c8e67c777f70,
mall,Kios,Kios Lailete sejatera,"Boni, Kec. Rote Bar. Laut, Kabupaten Rote Ndao, Nusa Tenggara Tim.","Kabupaten Rote Ndao, Nusa Tenggara Tim.",NUSA TENGGARA TIMUR,,Indonesia,81339579694.0,,,-108.074.953,1.228.787.997,https://maps.google.com/?cid=0x0:0xb7366569f68b3883,
mall,Pusat Perbelanjaan,Kios Yadit,"3VJ5+3JX, Boa, Kec. Rote Bar., Kabupaten Rote Ndao, Nusa Tenggara Tim.","Kabupaten Rote Ndao, Nusa Tenggara Tim.",NUSA TENGGARA TIMUR,,Indonesia,,,,-109.197.731,1.228.591.154,https://maps.google.com/?cid=0x0:0x4e21c0969a8930c8,
mall,Pusat Perbelanjaan,Dion Nome,"5X57+R8P, Meoain, Kec. Rote Bar. Daya, Kabupaten Rote Ndao, Nusa Tenggara Tim.","Kabupaten Rote Ndao, Nusa Tenggara Tim.",NUSA TENGGARA TIMUR,,Indonesia,,,,-108.404.402,1.229.633.422,https://maps.google.com/?cid=0x0:0x5553923cf4f1ada6,
mall,Rumah Kayu,Pet Nalle,"4WHH+563, Lalukoen, Kec. Rote Bar. Daya, Kabupaten Rote Ndao, Nusa Tenggara Tim.","Kabupaten Rote Ndao, Nusa Tenggara Tim.",NUSA TENGGARA TIMUR,,Indonesia,,,,-108.717.352,122.928.375,https://maps.google.com/?cid=0x0:0xbea42dc250966be4,
mall,Toko bahan makanan,Bintang Messah,"4XF2+FHP, Oeteffu, Kec. Rote Bar. Daya, Kabupaten Rote Ndao, Nusa Tenggara Tim.","Kabupaten Rote Ndao, Nusa Tenggara Tim.",NUSA TENGGARA TIMUR,,Indonesia,,,,-108.763.278,1.229.514.835,https://maps.google.com/?cid=0x0:0x90925b199be5e110,
mall,Toko,Kios R3,"Unnamed Road, Bar. Laut, Busalangga, Kec. Rote Bar. Laut, Kabupaten Rote Ndao, Nusa Tenggara Tim.","Kabupaten Rote Ndao, Nusa Tenggara Tim.",NUSA TENGGARA TIMUR,,Indonesia,85291125567.0,,,-108.050.667,1.229.958.447,https://maps.google.com/?cid=0x0:0xa266435057884b5c,
mall,Toko,Agatha retail dan sembako,"4XG5+H4X, Oeteffu, Kec. Rote Bar. Daya, Kabupaten Rote Ndao, Nusa Tenggara Tim.","Kabupaten Rote Ndao, Nusa Tenggara Tim.",NUSA TENGGARA TIMUR,,Indonesia,85333484647.0,,,-108.735.089,1.229.578.517,https://maps.google.com/?cid=0x0:0xeddf0d84a0591d72,
mall,Pusat Perbelanjaan,Kios imanuel,"4XW3+WX8, Oehandi, Kec. Rote Bar. Daya, Kabupaten Rote Ndao, Nusa Tenggara Tim.","Kabupaten Rote Ndao, Nusa Tenggara Tim.",NUSA TENGGARA TIMUR,,Indonesia,,,,-108.529.913,1.229.547.689,https://maps.google.com/?cid=0x0:0xeeee6a0e63d54003,
mall,Toko outlet,Kios Pelangi Cell  Bengkel,"4WQJ+FC7, Lalukoen, Kec. Rote Bar. Daya, Kabupaten Rote Ndao, Nusa Tenggara Tim.","Kabupaten Rote Ndao, Nusa Tenggara Tim.",NUSA TENGGARA TIMUR,,Indonesia,82144857893.0,,,-108.613.292,1.229.310.415,https://maps.google.com/?cid=0x0:0xdf108422f21336ff,
mall,Pusat Perbelanjaan,Kios Geriani,"4XM2+2F5, Oeteffu, Kec. Rote Bar. Daya, Kabupaten Rote Ndao, Nusa Tenggara Tim.","Kabupaten Rote Ndao, Nusa Tenggara Tim.",NUSA TENGGARA TIMUR,,Indonesia,81237496876.0,,,-108.674.901,1.229.512.482,https://maps.google.com/?cid=0x0:0x6fb498e41e62946f,
mall,Komplek perumahan,Rumah Yuan ndolu,"6W7V+CF, Ingguinak, Kec. Rote Bar. Laut, Kabupaten Rote Ndao, Nusa Tenggara Tim.","Kabupaten Rote Ndao, Nusa Tenggara Tim.",NUSA TENGGARA TIMUR,,Indonesia,,,,-10.786.479,122.943.717,https://maps.google.com/?cid=0x0:0xfe0becdc5146259e,
mall,Toko,vonnytha,"Temas, Dusun Fatunao, Kabupaten Rote Ndao, Nusa Tenggara Tim.","Kabupaten Rote Ndao, Nusa Tenggara Tim.",NUSA TENGGARA TIMUR,,Indonesia,85337448347.0,,,-108.075.351,1.229.277,https://maps.google.com/?cid=0x0:0xe0f54914b2761cb7,
mall,Bengkel Sepeda Motor,Bengkel Motor,"4WMX+49M, Oeteffu, Kec. Rote Bar. Daya, Kabupaten Rote Ndao, Nusa Tenggara Tim.","Kabupaten Rote Ndao, Nusa Tenggara Tim.",NUSA TENGGARA TIMUR,,Indonesia,81338938402.0,,,-108.671.704,1.229.484.366,https://maps.google.com/?cid=0x0:0x438d0b6a37e9b6b8,
mall,mall,Kec. Rote Sel.,"Kabupaten Rote Ndao, Nusa Tenggara Tim.","Kabupaten Rote Ndao, Nusa Tenggara Tim.",NUSA TENGGARA TIMUR,,Indonesia,,,,-107.849.831,1.231.594.105,https://maps.google.com/?cid=0x0:0x57324d947a721c0a,
mall,Pusat Perbelanjaan,Ike pello,"55WP+JJF, Daleholu, Kec. Rote Sel., Kabupaten Rote Ndao, Nusa Tenggara Tim.","Kabupaten Rote Ndao, Nusa Tenggara Tim.",NUSA TENGGARA TIMUR,,Indonesia,,,,-108.034.346,1.231.865.467,https://maps.google.com/?cid=0x0:0x2f311d6fe47e852,
mall,Toko,Kios R3,"Unnamed Road, Bar. Laut, Busalangga, Kec. Rote Bar. Laut, Kabupaten Rote Ndao, Nusa Tenggara Tim.","Kabupaten Rote Ndao, Nusa Tenggara Tim.",NUSA TENGGARA TIMUR,,Indonesia,85291125567.0,,,-108.050.667,1.229.958.447,https://maps.google.com/?cid=0x0:0xa266435057884b5c,
mall,Komplek perumahan,Shandy liu,"658P+7GM, Daleholu, Kec. Rote Sel., Kabupaten Rote Ndao, Nusa Tenggara Tim.","Kabupaten Rote Ndao, Nusa Tenggara Tim.",NUSA TENGGARA TIMUR,,Indonesia,82339991853.0,,,-107.842.954,1.231.862.939,https://maps.google.com/?cid=0x0:0xffcd73d4579c37dc,
mall,Komplek perumahan,Fafalu,"65J2+324, Daleholu, Kec. Rote Sel., Kabupaten Rote Ndao, Nusa Tenggara Tim.","Kabupaten Rote Ndao, Nusa Tenggara Tim.",NUSA TENGGARA TIMUR,,Indonesia,,,,-10.770.114,123.150.384,https://maps.google.com/?cid=0x0:0x2dee88dab0944b93,
mall,Toko umum,Kios biru,"54V9+JP, Bebalain, Loleoen, Kabupaten Rote Ndao, Nusa Tenggara Tim.","Kabupaten Rote Ndao, Nusa Tenggara Tim.",NUSA TENGGARA TIMUR,,Indonesia,,,,-108.058.986,1.231.193.143,https://maps.google.com/?cid=0x0:0xe0fa0c5d1830af9a,
mall,mall,Nusa Tenggara Tim.,,Nusa Tenggara Tim.,NUSA TENGGARA TIMUR,,Indonesia,,,,-86.573.819,1.210.793.705,https://maps.google.com/?cid=0x0:0x1030bfbcaf71ae0,
mall,Minimarket,MEILINDA KIOS,"5MH7+XMP, Ndao Nuse, Kec. Ndao Nuse, Kabupaten Rote Ndao, Nusa Tenggara Tim.","Kabupaten Rote Ndao, Nusa Tenggara Tim.",NUSA TENGGARA TIMUR,,Indonesia,82339237766.0,,,-108.200.717,1.226.639.633,https://maps.google.com/?cid=0x0:0x8347e2e57bd5c404,
mall,Pusat Perbelanjaan,Toko Anjangsana kab Rote Ndao,"72FX+J48, Jl. Kartini, Namodale, Kec. Lobalain, Kabupaten Rote Ndao, Nusa Tenggara Tim.","Kabupaten Rote Ndao, Nusa Tenggara Tim.",NUSA TENGGARA TIMUR,,Indonesia,,,,-107.259.508,1.230.478.402,https://maps.google.com/?cid=0x0:0xd0abbb2f4a19369e,
mall,Toko Pakaian,Blessing Shop Rote Ndao,"62MM+RMP, Sanggaoen, Kec. Lobalain, Kabupaten Rote Ndao, Nusa Tenggara Tim.","Kabupaten Rote Ndao, Nusa Tenggara Tim.",NUSA TENGGARA TIMUR,,Indonesia,81337660199.0,,,-107.654.031,1.230.341.942,https://maps.google.com/?cid=0x0:0x9deab863d7b87292,
mall,Toko bahan makanan,Kios Imel,"4R2F+45R, Oenggaut, Kec. Rote Bar., Kabupaten Rote Ndao, Nusa Tenggara Tim.","Kabupaten Rote Ndao, Nusa Tenggara Tim.",NUSA TENGGARA TIMUR,,Indonesia,,,,-108.992.554,1.228.227.315,https://maps.google.com/?cid=0x0:0x59367c7c4c25a75a,
mall,mall,Kec. Landu Leko,"Kabupaten Rote Ndao, Nusa Tenggara Tim.","Kabupaten Rote Ndao, Nusa Tenggara Tim.",NUSA TENGGARA TIMUR,,Indonesia,,,,-105.683.899,1.233.761.005,https://maps.google.com/?cid=0x0:0x2770e84300ca8ac7,
mall,mall,Pasar Landu Leko,"C8Q7+CFC, Sotimori, Kec. Rote Tim., Kabupaten Rote Ndao, Nusa Tenggara Tim.","Kabupaten Rote Ndao, Nusa Tenggara Tim.",NUSA TENGGARA TIMUR,,Indonesia,,,,-10.561.434,1.233.136.458,https://maps.google.com/?cid=0x0:0x3bbef358c5b8b328,
mall,Perhimpunan Pengembang Perumahan,"Mokdale, Landu Leko","Sotimori, Kec. Rote Tim., Kabupaten Rote Ndao, Nusa Tenggara Tim.","Kabupaten Rote Ndao, Nusa Tenggara Tim.",NUSA TENGGARA TIMUR,,Indonesia,81337897791.0,,,-105.585.991,1.233.202.126,https://maps.google.com/?cid=0x0:0xb2bba89c42e591d8,
mall,Sekolah Menengah Pertama,SMP Negeri 1 Landu Leko,"C7QW+QQJ, Sotimori, Kec. Rote Tim., Kabupaten Rote Ndao, Nusa Tenggara Tim.","Kabupaten Rote Ndao, Nusa Tenggara Tim.",NUSA TENGGARA TIMUR,,Indonesia,,,,-105.605.464,1.232.968.844,https://maps.google.com/?cid=0x0:0xa9466b4033f78125,
mall,Toko Elektronik,VICHO PARABOLA,"Londalusi, Kec. Rote Tim., Kabupaten Rote Ndao, Nusa Tenggara Tim.","Kabupaten Rote Ndao, Nusa Tenggara Tim.",NUSA TENGGARA TIMUR,,Indonesia,85253987234.0,,,-106.215.702,1.233.829.266,https://maps.google.com/?cid=0x0:0xdc442878ce102f39,
mall,Tempat Ibadah,Kios Garuda Depan Barat Gereja Imanuel Eahun,"99HJ+9M8, Unnamed Road, Londalusi, Kec. Rote Tim., Kabupaten Rote Ndao, Nusa Tenggara Tim.","Kabupaten Rote Ndao, Nusa Tenggara Tim.",NUSA TENGGARA TIMUR,,Indonesia,85253760612.0,,,-106.215.923,1.233.817.003,https://maps.google.com/?cid=0x0:0xdeb4ecb58aaa9556,
mall,mall,Rz Cemerlang,"99XH+4MC, Londalusi, Kec. Rote Tim., Kabupaten Rote Ndao, Nusa Tenggara Tim.","Kabupaten Rote Ndao, Nusa Tenggara Tim.",NUSA TENGGARA TIMUR,,Indonesia,,,,-106.023.348,1.233.792.315,https://maps.google.com/?cid=0x0:0xdb28d91624e87f97,
mall,Kantor Perusahaan,Kantor camat landu leko,"C89J+XVV, Daiama, Kec. Rote Tim., Kabupaten Rote Ndao, Nusa Tenggara Tim.","Kabupaten Rote Ndao, Nusa Tenggara Tim.",NUSA TENGGARA TIMUR,,Indonesia,,,,-105.800.036,1.233.321.668,https://maps.google.com/?cid=0x0:0x1a7beac09b0b94df,
mall,mall,Kec. Pantai Baru,"Kabupaten Rote Ndao, Nusa Tenggara Tim.","Kabupaten Rote Ndao, Nusa Tenggara Tim.",NUSA TENGGARA TIMUR,,Indonesia,,,,-107.134.149,1.232.926.241,https://maps.google.com/?cid=0x0:0x1cee30470e179e69,
mall,Toko outlet,JP TRANS Tunganamo,"95JV+RQ4, Tunganamo, Kec. Pantai Baru, Kabupaten Rote Ndao, Nusa Tenggara Tim.","Kabupaten Rote Ndao, Nusa Tenggara Tim.",NUSA TENGGARA TIMUR,,Indonesia,81236405551.0,,,-106.179.872,1.231.944.654,https://maps.google.com/?cid=0x0:0x9ca77387c45d3570,
mall,Tujuan Wisata,Pelabuhan Pantai Baru,"96VJ+XX6, Tesabela, Kec. Pantai Baru, Kabupaten Rote Ndao, Nusa Tenggara Tim.","Kabupaten Rote Ndao, Nusa Tenggara Tim.",NUSA TENGGARA TIMUR,,Indonesia,,,,-106.050.777,1.232.323.907,https://maps.google.com/?cid=0x0:0xd833466523a438df,
mall,Pusat Perbelanjaan,Ozone Eatery Mall,"VQP2+VX8, Pantai Indah Kapuk Jl. Pantai Indah Utara 3, RT.7/RW.2, Kapuk Muara, Kecamatan Penjaringan, Jkt Utara, Daerah Khusus Ibukota Jakarta 14460","Pantai Indah Kapuk Jl. Pantai Indah Utara 3, RT.7/RW.2, Kapuk Muara, Kecamatan Penjaringan, Jkt Utara",NUSA TENGGARA TIMUR,14460.0,Indonesia,2129673664.0,,,-61.128.295,1.067.524.654,https://maps.google.com/?cid=0x0:0xd8075a7f28d4266a,
mall,Pusat Perbelanjaan,PIK Avenue,"Jl. Pantai Indah Kapuk Boulevard, RT.6/RW.2, Kamal Muara, Kecamatan Penjaringan, Jkt Utara, Daerah Khusus Ibukota Jakarta 14470","RT.6/RW.2, Kamal Muara, Kecamatan Penjaringan, Jkt Utara",NUSA TENGGARA TIMUR,14470.0,Indonesia,2122570999.0,,,-61.088.281,10.674.021,https://maps.google.com/?cid=0x0:0xa57ef5bb9b685927,
mall,mall,Ozone Hotel Pantai Indah Kapuk,"Jl. Marina Raya No.40, Kapuk Muara, Kecamatan Penjaringan, Jkt Utara, Daerah Khusus Ibukota Jakarta 14460","Kapuk Muara, Kecamatan Penjaringan, Jkt Utara",NUSA TENGGARA TIMUR,14460.0,Indonesia,2129673700.0,,,-61.127.908,106.752.577,https://maps.google.com/?cid=0x0:0x714c6c208c3f5060,
supermarket,supermarket,Kec. Rote Bar. Daya,"Kabupaten Rote Ndao, Nusa Tenggara Tim.","Kabupaten Rote Ndao, Nusa Tenggara Tim.",NUSA TENGGARA TIMUR,,Indonesia,,,,-108.599.138,1.230.152.055,https://maps.google.com/?cid=0x0:0xc8d7144834ab28c0,
supermarket,Komplek perumahan,Rumah Oehandi AvA,"4XR3+GFR, Oehandi, Kec. Rote Bar. Daya, Kabupaten Rote Ndao, Nusa Tenggara Tim.","Kabupaten Rote Ndao, Nusa Tenggara Tim.",NUSA TENGGARA TIMUR,,Indonesia,85238325610.0,,,-108.586.439,1.229.536.447,https://maps.google.com/?cid=0x0:0xc0a6550d0601f12d,
supermarket,Pusat Perbelanjaan,Marthen Lae,"4XRR+7G6, Batutua, Kec. Rote Bar. Daya, Kabupaten Rote Ndao, Nusa Tenggara Tim.","Kabupaten Rote Ndao, Nusa Tenggara Tim.",NUSA TENGGARA TIMUR,,Indonesia,,,,-108.593.338,1.229.912.654,https://maps.google.com/?cid=0x0:0xcf308896e95a7123,
supermarket,Toko umum,Abed Messah,"4XF2+FHP, Oeteffu, Kec. Rote Bar. Daya, Kabupaten Rote Ndao, Nusa Tenggara Tim.","Kabupaten Rote Ndao, Nusa Tenggara Tim.",NUSA TENGGARA TIMUR,,Indonesia,,,,-108.762.996,1.229.514.564,https://maps.google.com/?cid=0x0:0x3d0c65cf4288deab,
supermarket,Toko umum,Kios Lita,"Batutua, Kec. Rote Bar. Daya, Kabupaten Rote Ndao, Nusa Tenggara Tim.","Kabupaten Rote Ndao, Nusa Tenggara Tim.",NUSA TENGGARA TIMUR,,Indonesia,82237880225.0,,,-108.624.151,122.979.051,https://maps.google.com/?cid=0x0:0xa8d2ba56f9e6416a,
supermarket,Toko umum,Oebatu,"52R6+RH5, Oebatu, Kec. Rote Bar. Daya, Kabupaten Rote Ndao, Nusa Tenggara Tim.","Kabupaten Rote Ndao, Nusa Tenggara Tim.",NUSA TENGGARA TIMUR,,Indonesia,,,,-108.079.812,1.230.114.796,https://maps.google.com/?cid=0x0:0x83f6c8e0de191003,
supermarket,Toko bahan makanan,Kios Ocrim,"4XPC+QFJ, Oeteffu, Kec. Rote Bar. Daya, Kabupaten Rote Ndao, Nusa Tenggara Tim.","Kabupaten Rote Ndao, Nusa Tenggara Tim.",NUSA TENGGARA TIMUR,,Indonesia,,,,-108.631.876,1.229.709.641,https://maps.google.com/?cid=0x0:0xffeda942d71ca9b,
supermarket,Toko,Kios Biru,"5XPJ+4WR, Oebaffok, Kec. Rote Bar. Daya, Kabupaten Rote Ndao, Nusa Tenggara Tim.","Kabupaten Rote Ndao, Nusa Tenggara Tim.",NUSA TENGGARA TIMUR,,Indonesia,,,,-108.146.441,122.982.258,https://maps.google.com/?cid=0x0:0xcca968bd3d060560,
supermarket,Toko Swalayan,ALTREN Jr,"5X24+G43, Oehandi, Kec. Rote Bar. Daya, Kabupaten Rote Ndao, Nusa Tenggara Tim.","Kabupaten Rote Ndao, Nusa Tenggara Tim.",NUSA TENGGARA TIMUR,,Indonesia,85237301645.0,,,-108.484.926,1.229.554.388,https://maps.google.com/?cid=0x0:0xa825b0262995a5c4,
supermarket,Toko Elektronik,UD. Sumber Rejeki,"6272+VP6, Unnamed Road, Busalangga, Rote Barat Laut, Rote Ndao Regency, East Nusa Tenggara","Kabupaten Rote Ndao, Nusa Tenggara Tim.",NUSA TENGGARA TIMUR,,Indonesia,81337988900.0,,,-107.853.275,1.230.017.641,https://maps.google.com/?cid=0x0:0xf189e0e4dfe3c3d0,
supermarket,Toko bahan makanan,YB,"42V9+9J, Oelasin, Kec. Rote Bar. Daya, Kabupaten Rote Ndao, Nusa Tenggara Tim.","Kabupaten Rote Ndao, Nusa Tenggara Tim.",NUSA TENGGARA TIMUR,,Indonesia,,,,-108.573.805,1.230.182.387,https://maps.google.com/?cid=0x0:0x9c76e9961ab71a29,
supermarket,Toko bahan makanan,Mini market,"52GH+59X, Mbokak, Kec. Rote Bar. Daya, Kabupaten Rote Ndao, Nusa Tenggara Tim.","Kabupaten Rote Ndao, Nusa Tenggara Tim.",NUSA TENGGARA TIMUR,,Indonesia,,,,-108.246.615,1.230.295.414,https://maps.google.com/?cid=0x0:0x6675190ff6d2231e,
supermarket,Toko bahan makanan,Kios KEZARIA - Mataboen,"4XR3+642, Oehandi, Kec. Rote Bar. Daya, Kabupaten Rote Ndao, Nusa Tenggara Tim.","Kabupaten Rote Ndao, Nusa Tenggara Tim.",NUSA TENGGARA TIMUR,,Indonesia,85326002140.0,,,-108.594.859,1.229.527.703,https://maps.google.com/?cid=0x0:0xc18f527f64977209,
supermarket,Toko bahan makanan,UD. KASIH ABADI,"4XVW+3C7, Dolasi, Kec. Rote Bar. Daya, Kabupaten Rote Ndao, Nusa Tenggara Tim.","Kabupaten Rote Ndao, Nusa Tenggara Tim.",NUSA TENGGARA TIMUR,,Indonesia,81237212367.0,,,-108.573.452,1.229.960.515,https://maps.google.com/?cid=0x0:0xe3828ef8c680eca8,
supermarket,Toko bahan makanan,KIOS NAILA,"DESA LENTERA, Oehandi, Kec. Rote Bar. Daya, Kabupaten Rote Ndao, Nusa Tenggara Tim. 85982","Oehandi, Kec. Rote Bar. Daya, Kabupaten Rote Ndao",NUSA TENGGARA TIMUR,85982.0,Indonesia,82237880225.0,,,-108.554.278,1.229.598.229,https://maps.google.com/?cid=0x0:0x4effb26c38d8d65a,
supermarket,Kios,Danduper Gang,"4WP7+QR4, Lalukoen, Kec. Rote Bar. Daya, Kabupaten Rote Ndao, Nusa Tenggara Tim.","Kabupaten Rote Ndao, Nusa Tenggara Tim.",NUSA TENGGARA TIMUR,,Indonesia,,,,-108.633.687,1.229.146.015,https://maps.google.com/?cid=0x0:0xf351c31c433402d1,
supermarket,Toko bahan makanan,Kios lusi,"52R7+PFH, Oebatu, Kec. Rote Bar. Daya, Kabupaten Rote Ndao, Nusa Tenggara Tim.","Kabupaten Rote Ndao, Nusa Tenggara Tim.",NUSA TENGGARA TIMUR,,Indonesia,,,,-108.081.804,123.013.739,https://maps.google.com/?cid=0x0:0x80f37f392e02a2c9,
supermarket,Toko,Melati Swalayan,"72FX+VCR, Metina, Kec. Lobalain, Kabupaten Rote Ndao, Nusa Tenggara Tim.","Kabupaten Rote Ndao, Nusa Tenggara Tim.",NUSA TENGGARA TIMUR,,Indonesia,,,,-107.252.561,1.230.485.289,https://maps.google.com/?cid=0x0:0x8a6acee70d95a835,
supermarket,Paket Makanan Pokok,Kios Tunas Harapan Cabang Oebatu,"Unnamed Road, Busalangga, Kec. Rote Bar. Laut, Kabupaten Rote Ndao, Nusa Tenggara Tim.","Kabupaten Rote Ndao, Nusa Tenggara Tim.",NUSA TENGGARA TIMUR,,Indonesia,81232235707.0,,,-108.003.163,1.230.062.331,https://maps.google.com/?cid=0x0:0xf00233e80bf8de76,
supermarket,Perhimpunan Pengembang Perumahan,Petrus sanda,"52C9+5R8, Mbokak, Kec. Rote Bar. Daya, Kabupaten Rote Ndao, Nusa Tenggara Tim.","Kabupaten Rote Ndao, Nusa Tenggara Tim.",NUSA TENGGARA TIMUR,,Indonesia,,,,-108.295.404,1.230.195.649,https://maps.google.com/?cid=0x0:0xe42cedccc7443dbb,
supermarket,Toko Roti,Toko Kue Ibu Dewi,"4XQP+PQ3, jln, Batutua, Kec. Rote Bar. Daya, Kabupaten Rote Ndao, Nusa Tenggara Tim.","Kabupaten Rote Ndao, Nusa Tenggara Tim.",NUSA TENGGARA TIMUR,,Indonesia,,,,-108.607.361,1.229.869.106,https://maps.google.com/?cid=0x0:0x7dbd5b3ccdfa766,
supermarket,Toko,Agatha retail dan sembako,"4XG5+H4X, Oeteffu, Kec. Rote Bar. Daya, Kabupaten Rote Ndao, Nusa Tenggara Tim.","Kabupaten Rote Ndao, Nusa Tenggara Tim.",NUSA TENGGARA TIMUR,,Indonesia,85333484647.0,,,-108.735.089,1.229.578.517,https://maps.google.com/?cid=0x0:0xeddf0d84a0591d72,
supermarket,Toko,KPU Kios Paling Ujung,"RT.01/RW.01, dusun Nggaelai Barat, Mbokak, Kec. Rote Bar. Daya, Kabupaten Roten Ndao, Nusa Tenggara Tim. 85982","dusun Nggaelai Barat, Mbokak, Kec. Rote Bar. Daya, Kabupaten Roten Ndao",NUSA TENGGARA TIMUR,85982.0,Indonesia,,,,-108.287.169,1.230.173.661,https://maps.google.com/?cid=0x0:0x89a906646c9da582,
supermarket,Toko Swalayan,Melati Mart Oenggaut.,"Jalan Nemberala, Oenggaut, Rote Barat, Rote Ndao Regency, East Nusa Tenggara 85982","Oenggaut, Rote Barat, Rote Ndao Regency",NUSA TENGGARA TIMUR,85982.0,Indonesia,81236776776.0,,,-108.964.922,122.822.934,https://maps.google.com/?cid=0x0:0xc1e054f7f2c0bba1,
supermarket,Minimarket,Kios Elim,"3R8V+9MV, Unnamed Road, Boa, Kec. Rote Bar., Kabupaten Rote Ndao, Nusa Tenggara Tim.","Kabupaten Rote Ndao, Nusa Tenggara Tim.",NUSA TENGGARA TIMUR,,Indonesia,82144835950.0,,,-109.340.225,1.228.441.764,https://maps.google.com/?cid=0x0:0xd730860fa96845,
supermarket,Toko outlet,Rumah Kios Sarce Cell,"5XPJ+3GR, Oebaffok, Kec. Rote Bar. Daya, Kabupaten Rote Ndao, Nusa Tenggara Tim.","Kabupaten Rote Ndao, Nusa Tenggara Tim.",NUSA TENGGARA TIMUR,,Indonesia,,,,-108.147.539,1.229.812.744,https://maps.google.com/?cid=0x0:0x14443ed5d064a428,
supermarket,Minimarket,Dolarosa,"4R5F+VVX, Unnamed Road, Nemberala, Kec. Rote Bar., Kabupaten Rote Ndao, Nusa Tenggara Tim.","Kabupaten Rote Ndao, Nusa Tenggara Tim.",NUSA TENGGARA TIMUR,,Indonesia,,,,-108.902.703,1.228.247.242,https://maps.google.com/?cid=0x0:0x212998d69c754fd,
supermarket,Toko umum,Kios GoGo,"5366+VJ, Kuli, Kec. Lobalain, Kabupaten Rote Ndao, Nusa Tenggara Tim.","Kabupaten Rote Ndao, Nusa Tenggara Tim.",NUSA TENGGARA TIMUR,,Indonesia,,,,-108.378.253,1.230.615.705,https://maps.google.com/?cid=0x0:0x2fec91f6a4902aa9,
supermarket,Pusat Perbelanjaan,LAPAK IKAN,"3VWX+M6Q, Belakang SD N, Oeseli, Kec. Rote Bar. Daya, Kabupaten Rote Ndao, Nusa Tenggara Tim.","Kabupaten Rote Ndao, Nusa Tenggara Tim.",NUSA TENGGARA TIMUR,,Indonesia,,,,-10.903.295,1.228.981.237,https://maps.google.com/?cid=0x0:0x2f92487a336da56a,
supermarket,supermarket,Kec. Rote Bar. Laut,"Kabupaten Rote Ndao, Nusa Tenggara Tim.","Kabupaten Rote Ndao, Nusa Tenggara Tim.",NUSA TENGGARA TIMUR,,Indonesia,,,,-107.597.977,1.229.182.941,https://maps.google.com/?cid=0x0:0xf1092e07a83097a2,
supermarket,Toko Elektronik,UD. Sumber Rejeki,"6272+VP6, Unnamed Road, Busalangga, Rote Barat Laut, Rote Ndao Regency, East Nusa Tenggara","Kabupaten Rote Ndao, Nusa Tenggara Tim.",NUSA TENGGARA TIMUR,,Indonesia,81337988900.0,,,-107.853.275,1.230.017.641,https://maps.google.com/?cid=0x0:0xf189e0e4dfe3c3d0,
supermarket,Toko bahan makanan,KIP Mart,"Jl. Lelain No.Ba'a, Holoama, Kec. Lobalain, Kabupaten Rote Ndao, Nusa Tenggara Tim.","Kabupaten Rote Ndao, Nusa Tenggara Tim.",NUSA TENGGARA TIMUR,,Indonesia,81239280187.0,,,-107.680.281,1.230.334.322,https://maps.google.com/?cid=0x0:0x3223fbf351adfcec,
supermarket,Toko,Melati Swalayan,"72FX+VCR, Metina, Kec. Lobalain, Kabupaten Rote Ndao, Nusa Tenggara Tim.","Kabupaten Rote Ndao, Nusa Tenggara Tim.",NUSA TENGGARA TIMUR,,Indonesia,,,,-107.252.561,1.230.485.289,https://maps.google.com/?cid=0x0:0x8a6acee70d95a835,
supermarket,Pasar,Pasar Oenitas,"5V3G+CGX, Unnamed Road, Oenitas, Kec. Rote Bar., Kabupaten Rote Ndao, Nusa Tenggara Tim.","Kabupaten Rote Ndao, Nusa Tenggara Tim.",NUSA TENGGARA TIMUR,,Indonesia,81267108806.0,,,-108.463.775,1.228.763.588,https://maps.google.com/?cid=0x0:0xd81189962c5d3b1a,
supermarket,Paket Makanan Pokok,Kios Tunas Harapan Cabang Oebatu,"Unnamed Road, Busalangga, Kec. Rote Bar. Laut, Kabupaten Rote Ndao, Nusa Tenggara Tim.","Kabupaten Rote Ndao, Nusa Tenggara Tim.",NUSA TENGGARA TIMUR,,Indonesia,81232235707.0,,,-108.003.163,1.230.062.331,https://maps.google.com/?cid=0x0:0xf00233e80bf8de76,
supermarket,Toko umum,Oebatu,"52R6+RH5, Oebatu, Kec. Rote Bar. Daya, Kabupaten Rote Ndao, Nusa Tenggara Tim.","Kabupaten Rote Ndao, Nusa Tenggara Tim.",NUSA TENGGARA TIMUR,,Indonesia,,,,-108.079.812,1.230.114.796,https://maps.google.com/?cid=0x0:0x83f6c8e0de191003,
supermarket,Toko bahan makanan,smart minimarket,"725W+82W, Unnamed Rd, Lobalain, Kabupaten Ndao, Nusa Tenggara Tim., Mokdale, Kec. Lobalain, Kabupaten Rote Ndao, Nusa Tenggara Tim.","Kabupaten Rote Ndao, Nusa Tenggara Tim.",NUSA TENGGARA TIMUR,,Indonesia,380871113.0,,,-107.416.499,1.230.450.803,https://maps.google.com/?cid=0x0:0x9eb8cdef3a58cfc3,
supermarket,Toko bahan makanan,Adhy Sinlae,"6WRF+W7H, Oelua, Kec. Rote Bar. Laut, Kabupaten Rote Ndao, Nusa Tenggara Tim.","Kabupaten Rote Ndao, Nusa Tenggara Tim.",NUSA TENGGARA TIMUR,,Indonesia,81337772900.0,,,-107.576.817,1.229.232.409,https://maps.google.com/?cid=0x0:0x44f7ae42cd0835ff,
supermarket,Komplek perumahan,Rumah Oehandi AvA,"4XR3+GFR, Oehandi, Kec. Rote Bar. Daya, Kabupaten Rote Ndao, Nusa Tenggara Tim.","Kabupaten Rote Ndao, Nusa Tenggara Tim.",NUSA TENGGARA TIMUR,,Indonesia,85238325610.0,,,-108.586.439,1.229.536.447,https://maps.google.com/?cid=0x0:0xc0a6550d0601f12d,
supermarket,Kios,Kios Barca,"6267+WJM, Unnamed Road, Busalangga, Kec. Rote Bar. Laut, Kabupaten Rote Ndao, Nusa Tenggara Tim.","Kabupaten Rote Ndao, Nusa Tenggara Tim.",NUSA TENGGARA TIMUR,,Indonesia,,,,-107.876.527,1.230.140.321,https://maps.google.com/?cid=0x0:0xa74e88315a79bc5c,
supermarket,Toko bahan makanan,Toko Murah,"Jl.pabean, Baadale, rote, Kabupaten Rote Ndao, Nusa Tenggara Tim.","Kabupaten Rote Ndao, Nusa Tenggara Tim.",NUSA TENGGARA TIMUR,,Indonesia,82237580771.0,,,-107.257.736,1.230.481.316,https://maps.google.com/?cid=0x0:0x61602f5e68355c6c,
supermarket,Kios,Leoama,"5VVG+JH, Boni, Kec. Rote Bar. Laut, Kabupaten Rote Ndao, Nusa Tenggara Tim.","Kabupaten Rote Ndao, Nusa Tenggara Tim.",NUSA TENGGARA TIMUR,,Indonesia,,,,-10.804.629,122.876.738,https://maps.google.com/?cid=0x0:0x230614b633f014f4,
supermarket,Toko bahan makanan,Kios berkat baru,"7W3J+4MR, Desa:, Hundihuk, Kec. Rote Bar. Laut, Kabupaten Rote Ndao, Nusa Tenggara Tim.","Kabupaten Rote Ndao, Nusa Tenggara Tim.",NUSA TENGGARA TIMUR,,Indonesia,,,,-10.747.132,1.229.316.393,https://maps.google.com/?cid=0x0:0xe139d4478211caa5,
supermarket,Toko umum,"Moneoen Ingguinak, Rote Barat Laut","6W7V+8GX, Moneoen, Ingguinak, Kec. Rote Bar. Laut, Kabupaten Rote Ndao, Nusa Tenggara Tim.","Kabupaten Rote Ndao, Nusa Tenggara Tim.",NUSA TENGGARA TIMUR,,Indonesia,,,,-107.866.363,1.229.438.629,https://maps.google.com/?cid=0x0:0xdb4e447d0aa47111,
supermarket,Toko,Kios Biru,"5XPJ+4WR, Oebaffok, Kec. Rote Bar. Daya, Kabupaten Rote Ndao, Nusa Tenggara Tim.","Kabupaten Rote Ndao, Nusa Tenggara Tim.",NUSA TENGGARA TIMUR,,Indonesia,,,,-108.146.441,122.982.258,https://maps.google.com/?cid=0x0:0xcca968bd3d060560,
supermarket,supermarket,Ronal home,"6V7R+VP, Tolama, Kec. Rote Bar. Laut, Kabupaten Rote Ndao, Nusa Tenggara Tim.","Kabupaten Rote Ndao, Nusa Tenggara Tim.",NUSA TENGGARA TIMUR,,Indonesia,,,,-107.862.056,122.892.494,https://maps.google.com/?cid=0x0:0x73e1b5f40d1e11cc,
supermarket,Toko bahan makanan,Kios aci serli,"62F7+96W, Oetutulu, Kec. Rote Bar. Laut, Kabupaten Rote Ndao, Nusa Tenggara Tim.","Kabupaten Rote Ndao, Nusa Tenggara Tim.",NUSA TENGGARA TIMUR,,Indonesia,,,,-107.758.026,1.230.135.435,https://maps.google.com/?cid=0x0:0x894d25c0d596c383,
supermarket,Toko umum,Abed Messah,"4XF2+FHP, Oeteffu, Kec. Rote Bar. Daya, Kabupaten Rote Ndao, Nusa Tenggara Tim.","Kabupaten Rote Ndao, Nusa Tenggara Tim.",NUSA TENGGARA TIMUR,,Indonesia,,,,-108.762.996,1.229.514.564,https://maps.google.com/?cid=0x0:0x3d0c65cf4288deab,
supermarket,Toko bahan makanan,FM Mart,"725W+596, Mokdale, Kec. Lobalain, Kabupaten Rote Ndao, Nusa Tenggara Tim.","Kabupaten Rote Ndao, Nusa Tenggara Tim.",NUSA TENGGARA TIMUR,,Indonesia,,,,-107.420.784,1.230.458.761,https://maps.google.com/?cid=0x0:0x92eeb32c0b0b7fad,
supermarket,Toko bahan makanan,Kios lusi,"52R7+PFH, Oebatu, Kec. Rote Bar. Daya, Kabupaten Rote Ndao, Nusa Tenggara Tim.","Kabupaten Rote Ndao, Nusa Tenggara Tim.",NUSA TENGGARA TIMUR,,Indonesia,,,,-108.081.804,123.013.739,https://maps.google.com/?cid=0x0:0x80f37f392e02a2c9,
supermarket,Toko,Agatha retail dan sembako,"4XG5+H4X, Oeteffu, Kec. Rote Bar. Daya, Kabupaten Rote Ndao, Nusa Tenggara Tim.","Kabupaten Rote Ndao, Nusa Tenggara Tim.",NUSA TENGGARA TIMUR,,Indonesia,85333484647.0,,,-108.735.089,1.229.578.517,https://maps.google.com/?cid=0x0:0xeddf0d84a0591d72,
supermarket,Toko bahan makanan,KIOS ARIES/AGEN PEGADAIAN,"62C9+7CG, Unnamed Road, Busalangga, Kec. Rote Bar. Laut, Kabupaten Rote Ndao, Nusa Tenggara Tim.","Kabupaten Rote Ndao, Nusa Tenggara Tim.",NUSA TENGGARA TIMUR,,Indonesia,,,,-107.793.055,1.230.185.777,https://maps.google.com/?cid=0x0:0x4a14ac02ee60e0f8,
supermarket,Minimarket,Triv Mart,"Ba'a, Holoama, Kec. Lobalain, Kabupaten Rote Ndao, Nusa Tenggara Tim. 85971","Holoama, Kec. Lobalain, Kabupaten Rote Ndao",NUSA TENGGARA TIMUR,85971.0,Indonesia,82146458897.0,,,-107.842.888,1.230.282.472,https://maps.google.com/?cid=0x0:0xba5f2fc004b092ab,
supermarket,Toko outlet,Rumah Kios Sarce Cell,"5XPJ+3GR, Oebaffok, Kec. Rote Bar. Daya, Kabupaten Rote Ndao, Nusa Tenggara Tim.","Kabupaten Rote Ndao, Nusa Tenggara Tim.",NUSA TENGGARA TIMUR,,Indonesia,,,,-108.147.539,1.229.812.744,https://maps.google.com/?cid=0x0:0x14443ed5d064a428,
supermarket,Minimarket,Toko Buah Cha-Ca,"62JM+4G8, Holoama, Kec. Lobalain, Kabupaten Rote Ndao, Nusa Tenggara Tim.","Kabupaten Rote Ndao, Nusa Tenggara Tim.",NUSA TENGGARA TIMUR,,Indonesia,82266432402.0,,,-107.697.218,1.230.338.401,https://maps.google.com/?cid=0x0:0xff71dda16a756fed,
supermarket,Toko bahan makanan,Liora Minimarkett,"63W6+F6M, Mokdale, Kec. Lobalain, Kabupaten Rote Ndao, Nusa Tenggara Tim.","Kabupaten Rote Ndao, Nusa Tenggara Tim.",NUSA TENGGARA TIMUR,,Indonesia,,,,-107.537.894,1.230.605.576,https://maps.google.com/?cid=0x0:0x5b51e6d47d44f8a8,
supermarket,Toko bahan makanan,Kios Ocrim,"4XPC+QFJ, Oeteffu, Kec. Rote Bar. Daya, Kabupaten Rote Ndao, Nusa Tenggara Tim.","Kabupaten Rote Ndao, Nusa Tenggara Tim.",NUSA TENGGARA TIMUR,,Indonesia,,,,-108.631.876,1.229.709.641,https://maps.google.com/?cid=0x0:0xffeda942d71ca9b,
supermarket,supermarket,Kec. Lobalain,"Kabupaten Rote Ndao, Nusa Tenggara Tim.","Kabupaten Rote Ndao, Nusa Tenggara Tim.",NUSA TENGGARA TIMUR,,Indonesia,,,,-107.290.879,1.230.460.405,https://maps.google.com/?cid=0x0:0x618add3ee97f8439,
supermarket,Toko,Melati Swalayan,"72FX+VCR, Metina, Kec. Lobalain, Kabupaten Rote Ndao, Nusa Tenggara Tim.","Kabupaten Rote Ndao, Nusa Tenggara Tim.",NUSA TENGGARA TIMUR,,Indonesia,,,,-107.252.561,1.230.485.289,https://maps.google.com/?cid=0x0:0x8a6acee70d95a835,
supermarket,Toko bahan makanan,Liora Minimarkett,"63W6+F6M, Mokdale, Kec. Lobalain, Kabupaten Rote Ndao, Nusa Tenggara Tim.","Kabupaten Rote Ndao, Nusa Tenggara Tim.",NUSA TENGGARA TIMUR,,Indonesia,,,,-107.537.894,1.230.605.576,https://maps.google.com/?cid=0x0:0x5b51e6d47d44f8a8,
supermarket,Toko bahan makanan,FM Mart,"725W+596, Mokdale, Kec. Lobalain, Kabupaten Rote Ndao, Nusa Tenggara Tim.","Kabupaten Rote Ndao, Nusa Tenggara Tim.",NUSA TENGGARA TIMUR,,Indonesia,,,,-107.420.784,1.230.458.761,https://maps.google.com/?cid=0x0:0x92eeb32c0b0b7fad,
supermarket,Toko bahan makanan,CENTER mart / Toko Center,"Unnamed Road, Mokdale, Lobalain, Rote Ndao Regency, East Nusa Tenggara","Kabupaten Rote Ndao, Nusa Tenggara Tim.",NUSA TENGGARA TIMUR,,Indonesia,,,,-107.551.754,1.230.625.374,https://maps.google.com/?cid=0x0:0x231ea46bcfa68675,
supermarket,Pusat Perbelanjaan,Toko safari,"Namodale, Kec. Lobalain, Kabupaten Rote Ndao, Nusa Tenggara Tim.","Kabupaten Rote Ndao, Nusa Tenggara Tim.",NUSA TENGGARA TIMUR,,Indonesia,,,,-107.263.129,1.230.472.799,https://maps.google.com/?cid=0x0:0x3e56fd1548d019d4,
supermarket,Toko,Kios Talenta,"62WR+WQ2, Mokdale, Kec. Lobalain, Kabupaten Rote Ndao, Nusa Tenggara Tim.","Kabupaten Rote Ndao, Nusa Tenggara Tim.",NUSA TENGGARA TIMUR,,Indonesia,82236831473.0,,,-107.527.417,1.230.418.854,https://maps.google.com/?cid=0x0:0xb0b182cab4a50989,
supermarket,Toko,Toko Angkasa Grosir  Ecer,"Mokdale, Kec. Lobalain, Kabupaten Rote Ndao, Nusa Tenggara Tim.","Kabupaten Rote Ndao, Nusa Tenggara Tim.",NUSA TENGGARA TIMUR,,Indonesia,81338631655.0,,,-10.746.672,12.305.331,https://maps.google.com/?cid=0x0:0x7f41189f76dc6f9e,
supermarket,Minimarket,Toko ALVINO,"63X4+XW4, Mokdale, Kec. Lobalain, Kabupaten Rote Ndao, Nusa Tenggara Tim.","Kabupaten Rote Ndao, Nusa Tenggara Tim.",NUSA TENGGARA TIMUR,,Indonesia,82144501233.0,,,-107.501.098,1.230.573.433,https://maps.google.com/?cid=0x0:0x84ebd478e9cf2b7c,
supermarket,Toko bahan makanan,Toko Palapa,"72FW+GW9, Namodale, Kec. Lobalain, Kabupaten Rote Ndao, Nusa Tenggara Tim.","Kabupaten Rote Ndao, Nusa Tenggara Tim.",NUSA TENGGARA TIMUR,,Indonesia,85231066166.0,,,-107.262.163,123.047.358,https://maps.google.com/?cid=0x0:0x32caea60f6a768f6,
supermarket,Toko umum,Ruko Delov,"Jl. Lekunik No.1, Mokdale, Kec. Lobalain, Kabupaten Rote Ndao, Nusa Tenggara Tim. 85912","Mokdale, Kec. Lobalain, Kabupaten Rote Ndao",NUSA TENGGARA TIMUR,85912.0,Indonesia,82236971807.0,,,-107.470.727,1.230.552.971,https://maps.google.com/?cid=0x0:0x95f72450c3b403cc,
supermarket,Toko bahan makanan,Kios Neda Messakh,"63W6+F6M, Mokdale, Kec. Lobalain, Kabupaten Rote Ndao, Nusa Tenggara Tim.","Kabupaten Rote Ndao, Nusa Tenggara Tim.",NUSA TENGGARA TIMUR,,Indonesia,,,,-107.537.473,1.230.608.598,https://maps.google.com/?cid=0x0:0x7a5472841260a8f5,
supermarket,Minimarket,Triv Mart,"Ba'a, Holoama, Kec. Lobalain, Kabupaten Rote Ndao, Nusa Tenggara Tim. 85971","Holoama, Kec. Lobalain, Kabupaten Rote Ndao",NUSA TENGGARA TIMUR,85971.0,Indonesia,82146458897.0,,,-107.842.888,1.230.282.472,https://maps.google.com/?cid=0x0:0xba5f2fc004b092ab,
supermarket,Toko bahan makanan,RF Mart,"73H2+G4J, Metina, Kec. Lobalain, Kabupaten Rote Ndao, Nusa Tenggara Tim.","Kabupaten Rote Ndao, Nusa Tenggara Tim.",NUSA TENGGARA TIMUR,,Indonesia,82144577799.0,,,-107.210.761,1.230.503.407,https://maps.google.com/?cid=0x0:0xaaf65b9960194fc4,
supermarket,Toko,BBM,"724X+96X, Mokdale, Kec. Lobalain, Kabupaten Rote Ndao, Nusa Tenggara Tim.","Kabupaten Rote Ndao, Nusa Tenggara Tim.",NUSA TENGGARA TIMUR,,Indonesia,,,,-107.440.034,1.230.481.195,https://maps.google.com/?cid=0x0:0xb4f9b097ec3c934c,
supermarket,Toko umum,Kios BBM A2 Kimferen,"72CX+M42, Namodale, Kec. Lobalain, Kabupaten Rote Ndao, Nusa Tenggara Tim.","Kabupaten Rote Ndao, Nusa Tenggara Tim.",NUSA TENGGARA TIMUR,,Indonesia,82266020470.0,,,-107.283.651,1.230.477.684,https://maps.google.com/?cid=0x0:0xf01896b51a79e998,
supermarket,Kios,Kios Jamila Depan Toko Ebehaezer Baa,"72FW+FP6, Namodale, Kec. Lobalain, Kabupaten Rote Ndao, Nusa Tenggara Tim.","Kabupaten Rote Ndao, Nusa Tenggara Tim.",NUSA TENGGARA TIMUR,,Indonesia,81246699919.0,,,-107.263.422,1.230.467.737,https://maps.google.com/?cid=0x0:0x9326cedc074057dc,
supermarket,Minimarket,ALFAMART METINA,"72GX+8M5, Metina, Kec. Lobalain, Kabupaten Rote Ndao, Nusa Tenggara Tim.","Kabupaten Rote Ndao, Nusa Tenggara Tim.",NUSA TENGGARA TIMUR,,Indonesia,,,,-107.241.437,1.230.492.664,https://maps.google.com/?cid=0x0:0x4bf7dfe93fc135a1,
supermarket,Toko bahan makanan,Kios MASAGENA,"73G2+J8X, Unnamed Road, Jl. Tondao, Metina, Kec. Lobalain, Kabupaten Rote Ndao, Nusa Tenggara Tim.","Kabupaten Rote Ndao, Nusa Tenggara Tim.",NUSA TENGGARA TIMUR,,Indonesia,81337949033.0,,,-107.230.594,1.230.510.653,https://maps.google.com/?cid=0x0:0x38e027157efa9065,
supermarket,Toko bahan makanan,BAROKAH FROZEN FOOD,"725W+49R, Jl. Alukama, Mokdale, Kec. Lobalain, Kabupaten Rote Ndao, Nusa Tenggara Tim.","Kabupaten Rote Ndao, Nusa Tenggara Tim.",NUSA TENGGARA TIMUR,,Indonesia,82341666613.0,,,-107.421.401,1.230.458.971,https://maps.google.com/?cid=0x0:0x97e243512e72dfdf,
supermarket,Toko bahan makanan,Toko Murah,"Jl.pabean, Baadale, rote, Kabupaten Rote Ndao, Nusa Tenggara Tim.","Kabupaten Rote Ndao, Nusa Tenggara Tim.",NUSA TENGGARA TIMUR,,Indonesia,82237580771.0,,,-107.257.736,1.230.481.316,https://maps.google.com/?cid=0x0:0x61602f5e68355c6c,
supermarket,Toko bahan makanan,KIP Mart,"Jl. Lelain No.Ba'a, Holoama, Kec. Lobalain, Kabupaten Rote Ndao, Nusa Tenggara Tim.","Kabupaten Rote Ndao, Nusa Tenggara Tim.",NUSA TENGGARA TIMUR,,Indonesia,81239280187.0,,,-107.680.281,1.230.334.322,https://maps.google.com/?cid=0x0:0x3223fbf351adfcec,
supermarket,Minimarket,Toko Buah Cha-Ca,"62JM+4G8, Holoama, Kec. Lobalain, Kabupaten Rote Ndao, Nusa Tenggara Tim.","Kabupaten Rote Ndao, Nusa Tenggara Tim.",NUSA TENGGARA TIMUR,,Indonesia,82266432402.0,,,-107.697.218,1.230.338.401,https://maps.google.com/?cid=0x0:0xff71dda16a756fed,
supermarket,Toko umum,BATUlO,"Kolobolon, Kec. Lobalain, Kabupaten Rote Ndao, Nusa Tenggara Tim.","Kabupaten Rote Ndao, Nusa Tenggara Tim.",NUSA TENGGARA TIMUR,,Indonesia,,,,-107.976.142,1.231.426.479,https://maps.google.com/?cid=0x0:0xecec6d0f31093646,
supermarket,Kios,KIOS JANGKAR,"636G+HGQ, Jln.Hambelaten - Noanadale, Helebeik, Kabupaten Rote Ndao, Nusa Tenggara Tim.","Kabupaten Rote Ndao, Nusa Tenggara Tim.",NUSA TENGGARA TIMUR,,Indonesia,81246899931.0,,,-107.885.447,1.230.763.632,https://maps.google.com/?cid=0x0:0xfbac92a8f959426f,
supermarket,supermarket,Toko mulia jaya,"73G2+86X, Jl. Tondao, Metina, Kec. Lobalain, Kabupaten Rote Ndao, Nusa Tenggara Tim.","Kabupaten Rote Ndao, Nusa Tenggara Tim.",NUSA TENGGARA TIMUR,,Indonesia,,,,-107.233.962,1.230.508.653,https://maps.google.com/?cid=0x0:0x2d65f39dc8f8c9b,
supermarket,supermarket,Kec. Lobalain,"Kabupaten Rote Ndao, Nusa Tenggara Tim.","Kabupaten Rote Ndao, Nusa Tenggara Tim.",NUSA TENGGARA TIMUR,,Indonesia,,,,-107.290.879,1.230.460.405,https://maps.google.com/?cid=0x0:0x618add3ee97f8439,
supermarket,Toko,Melati Swalayan,"72FX+VCR, Metina, Kec. Lobalain, Kabupaten Rote Ndao, Nusa Tenggara Tim.","Kabupaten Rote Ndao, Nusa Tenggara Tim.",NUSA TENGGARA TIMUR,,Indonesia,,,,-107.252.561,1.230.485.289,https://maps.google.com/?cid=0x0:0x8a6acee70d95a835,
supermarket,Toko bahan makanan,Liora Minimarkett,"63W6+F6M, Mokdale, Kec. Lobalain, Kabupaten Rote Ndao, Nusa Tenggara Tim.","Kabupaten Rote Ndao, Nusa Tenggara Tim.",NUSA TENGGARA TIMUR,,Indonesia,,,,-107.537.894,1.230.605.576,https://maps.google.com/?cid=0x0:0x5b51e6d47d44f8a8,
supermarket,Toko bahan makanan,FM Mart,"725W+596, Mokdale, Kec. Lobalain, Kabupaten Rote Ndao, Nusa Tenggara Tim.","Kabupaten Rote Ndao, Nusa Tenggara Tim.",NUSA TENGGARA TIMUR,,Indonesia,,,,-107.420.784,1.230.458.761,https://maps.google.com/?cid=0x0:0x92eeb32c0b0b7fad,
supermarket,Toko bahan makanan,CENTER mart / Toko Center,"Unnamed Road, Mokdale, Lobalain, Rote Ndao Regency, East Nusa Tenggara","Kabupaten Rote Ndao, Nusa Tenggara Tim.",NUSA TENGGARA TIMUR,,Indonesia,,,,-107.551.754,1.230.625.374,https://maps.google.com/?cid=0x0:0x231ea46bcfa68675,
supermarket,Toko,Kios Talenta,"62WR+WQ2, Mokdale, Kec. Lobalain, Kabupaten Rote Ndao, Nusa Tenggara Tim.","Kabupaten Rote Ndao, Nusa Tenggara Tim.",NUSA TENGGARA TIMUR,,Indonesia,82236831473.0,,,-107.527.417,1.230.418.854,https://maps.google.com/?cid=0x0:0xb0b182cab4a50989,
supermarket,Minimarket,Triv Mart,"Ba'a, Holoama, Kec. Lobalain, Kabupaten Rote Ndao, Nusa Tenggara Tim. 85971","Holoama, Kec. Lobalain, Kabupaten Rote Ndao",NUSA TENGGARA TIMUR,85971.0,Indonesia,82146458897.0,,,-107.842.888,1.230.282.472,https://maps.google.com/?cid=0x0:0xba5f2fc004b092ab,
supermarket,Toko,ALFAMART HOLOAMA,"62PM+7MG, Jl. Baa Busalangga, Holoama, Kec. Lobalain, Kabupaten Rote Ndao, Nusa Tenggara Tim.","Kabupaten Rote Ndao, Nusa Tenggara Tim.",NUSA TENGGARA TIMUR,,Indonesia,,,,-10.764.218,1.230.342.991,https://maps.google.com/?cid=0x0:0x6d2326fd70c382de,
supermarket,Minimarket,Toko hebron mart,"63W2+V6H, Jl. Abri, Mokdale, Kec. Lobalain, Kabupaten Rote Ndao, Nusa Tenggara Tim.","Kabupaten Rote Ndao, Nusa Tenggara Tim.",NUSA TENGGARA TIMUR,,Indonesia,,,,-107.528.211,1.230.506.087,https://maps.google.com/?cid=0x0:0xbebd7f386e1592ca,
supermarket,Toko umum,Kios GoGo,"5366+VJ, Kuli, Kec. Lobalain, Kabupaten Rote Ndao, Nusa Tenggara Tim.","Kabupaten Rote Ndao, Nusa Tenggara Tim.",NUSA TENGGARA TIMUR,,Indonesia,,,,-108.378.253,1.230.615.705,https://maps.google.com/?cid=0x0:0x2fec91f6a4902aa9,
supermarket,Pusat Perbelanjaan,Toko safari,"Namodale, Kec. Lobalain, Kabupaten Rote Ndao, Nusa Tenggara Tim.","Kabupaten Rote Ndao, Nusa Tenggara Tim.",NUSA TENGGARA TIMUR,,Indonesia,,,,-107.263.129,1.230.472.799,https://maps.google.com/?cid=0x0:0x3e56fd1548d019d4,
supermarket,Toko,Toko Angkasa Grosir  Ecer,"Mokdale, Kec. Lobalain, Kabupaten Rote Ndao, Nusa Tenggara Tim.","Kabupaten Rote Ndao, Nusa Tenggara Tim.",NUSA TENGGARA TIMUR,,Indonesia,81338631655.0,,,-10.746.672,12.305.331,https://maps.google.com/?cid=0x0:0x7f41189f76dc6f9e,
supermarket,Minimarket,Toko ALVINO,"63X4+XW4, Mokdale, Kec. Lobalain, Kabupaten Rote Ndao, Nusa Tenggara Tim.","Kabupaten Rote Ndao, Nusa Tenggara Tim.",NUSA TENGGARA TIMUR,,Indonesia,82144501233.0,,,-107.501.098,1.230.573.433,https://maps.google.com/?cid=0x0:0x84ebd478e9cf2b7c,
supermarket,Toko bahan makanan,Toko Palapa,"72FW+GW9, Namodale, Kec. Lobalain, Kabupaten Rote Ndao, Nusa Tenggara Tim.","Kabupaten Rote Ndao, Nusa Tenggara Tim.",NUSA TENGGARA TIMUR,,Indonesia,85231066166.0,,,-107.262.163,123.047.358,https://maps.google.com/?cid=0x0:0x32caea60f6a768f6,
supermarket,Minimarket,Toko Buah Cha-Ca,"62JM+4G8, Holoama, Kec. Lobalain, Kabupaten Rote Ndao, Nusa Tenggara Tim.","Kabupaten Rote Ndao, Nusa Tenggara Tim.",NUSA TENGGARA TIMUR,,Indonesia,82266432402.0,,,-107.697.218,1.230.338.401,https://maps.google.com/?cid=0x0:0xff71dda16a756fed,
supermarket,Toko bahan makanan,Kios Neda Messakh,"63W6+F6M, Mokdale, Kec. Lobalain, Kabupaten Rote Ndao, Nusa Tenggara Tim.","Kabupaten Rote Ndao, Nusa Tenggara Tim.",NUSA TENGGARA TIMUR,,Indonesia,,,,-107.537.473,1.230.608.598,https://maps.google.com/?cid=0x0:0x7a5472841260a8f5,
supermarket,Toko,BBM,"724X+96X, Mokdale, Kec. Lobalain, Kabupaten Rote Ndao, Nusa Tenggara Tim.","Kabupaten Rote Ndao, Nusa Tenggara Tim.",NUSA TENGGARA TIMUR,,Indonesia,,,,-107.440.034,1.230.481.195,https://maps.google.com/?cid=0x0:0xb4f9b097ec3c934c,
supermarket,Toko bahan makanan,RF Mart,"73H2+G4J, Metina, Kec. Lobalain, Kabupaten Rote Ndao, Nusa Tenggara Tim.","Kabupaten Rote Ndao, Nusa Tenggara Tim.",NUSA TENGGARA TIMUR,,Indonesia,82144577799.0,,,-107.210.761,1.230.503.407,https://maps.google.com/?cid=0x0:0xaaf65b9960194fc4,
supermarket,Minimarket,ALFAMART METINA,"72GX+8M5, Metina, Kec. Lobalain, Kabupaten Rote Ndao, Nusa Tenggara Tim.","Kabupaten Rote Ndao, Nusa Tenggara Tim.",NUSA TENGGARA TIMUR,,Indonesia,,,,-107.241.437,1.230.492.664,https://maps.google.com/?cid=0x0:0x4bf7dfe93fc135a1,
supermarket,Kios,Kios Jamila Depan Toko Ebehaezer Baa,"72FW+FP6, Namodale, Kec. Lobalain, Kabupaten Rote Ndao, Nusa Tenggara Tim.","Kabupaten Rote Ndao, Nusa Tenggara Tim.",NUSA TENGGARA TIMUR,,Indonesia,81246699919.0,,,-107.263.422,1.230.467.737,https://maps.google.com/?cid=0x0:0x9326cedc074057dc,
supermarket,Minimarket,ALFAMART UTOMO,"723W+QFC, Jl. Baa Busalangga, Mokdale, Kec. Lobalain, Kabupaten Rote Ndao, Nusa Tenggara Tim.","Kabupaten Rote Ndao, Nusa Tenggara Tim.",NUSA TENGGARA TIMUR,,Indonesia,,,,-107.453.227,1.230.460.395,https://maps.google.com/?cid=0x0:0xd779b61bf936f7c9,
supermarket,Toko bahan makanan,BAROKAH FROZEN FOOD,"725W+49R, Jl. Alukama, Mokdale, Kec. Lobalain, Kabupaten Rote Ndao, Nusa Tenggara Tim.","Kabupaten Rote Ndao, Nusa Tenggara Tim.",NUSA TENGGARA TIMUR,,Indonesia,82341666613.0,,,-107.421.401,1.230.458.971,https://maps.google.com/?cid=0x0:0x97e243512e72dfdf,
supermarket,Toko bahan makanan,KIP Mart,"Jl. Lelain No.Ba'a, Holoama, Kec. Lobalain, Kabupaten Rote Ndao, Nusa Tenggara Tim.","Kabupaten Rote Ndao, Nusa Tenggara Tim.",NUSA TENGGARA TIMUR,,Indonesia,81239280187.0,,,-107.680.281,1.230.334.322,https://maps.google.com/?cid=0x0:0x3223fbf351adfcec,
supermarket,Toko umum,BATUlO,"Kolobolon, Kec. Lobalain, Kabupaten Rote Ndao, Nusa Tenggara Tim.","Kabupaten Rote Ndao, Nusa Tenggara Tim.",NUSA TENGGARA TIMUR,,Indonesia,,,,-107.976.142,1.231.426.479,https://maps.google.com/?cid=0x0:0xecec6d0f31093646,
supermarket,Toko bahan makanan,Kios MASAGENA,"73G2+J8X, Unnamed Road, Jl. Tondao, Metina, Kec. Lobalain, Kabupaten Rote Ndao, Nusa Tenggara Tim.","Kabupaten Rote Ndao, Nusa Tenggara Tim.",NUSA TENGGARA TIMUR,,Indonesia,81337949033.0,,,-107.230.594,1.230.510.653,https://maps.google.com/?cid=0x0:0x38e027157efa9065,
supermarket,supermarket,Toko mulia jaya,"73G2+86X, Jl. Tondao, Metina, Kec. Lobalain, Kabupaten Rote Ndao, Nusa Tenggara Tim.","Kabupaten Rote Ndao, Nusa Tenggara Tim.",NUSA TENGGARA TIMUR,,Indonesia,,,,-107.233.962,1.230.508.653,https://maps.google.com/?cid=0x0:0x2d65f39dc8f8c9b,
supermarket,Toko bahan makanan,Toko Murah,"Jl.pabean, Baadale, rote, Kabupaten Rote Ndao, Nusa Tenggara Tim.","Kabupaten Rote Ndao, Nusa Tenggara Tim.",NUSA TENGGARA TIMUR,,Indonesia,82237580771.0,,,-107.257.736,1.230.481.316,https://maps.google.com/?cid=0x0:0x61602f5e68355c6c,
supermarket,Toko bahan makanan,frozen Food Abadi,"72GX+RQM, Jl. Tanggul Laut, Metina, Kec. Lobalain, Kabupaten Rote Ndao, Nusa Tenggara Tim.","Kabupaten Rote Ndao, Nusa Tenggara Tim.",NUSA TENGGARA TIMUR,,Indonesia,81237621513.0,,,-107.228.752,1.230.494.365,https://maps.google.com/?cid=0x0:0x2857802cb32d2eda,
supermarket,supermarket,Kec. Lobalain,"Kabupaten Rote Ndao, Nusa Tenggara Tim.","Kabupaten Rote Ndao, Nusa Tenggara Tim.",NUSA TENGGARA TIMUR,,Indonesia,,,,-107.290.879,1.230.460.405,https://maps.google.com/?cid=0x0:0x618add3ee97f8439,
supermarket,Toko,Melati Swalayan,"72FX+VCR, Metina, Kec. Lobalain, Kabupaten Rote Ndao, Nusa Tenggara Tim.","Kabupaten Rote Ndao, Nusa Tenggara Tim.",NUSA TENGGARA TIMUR,,Indonesia,,,,-107.252.561,1.230.485.289,https://maps.google.com/?cid=0x0:0x8a6acee70d95a835,
supermarket,Toko bahan makanan,Liora Minimarkett,"63W6+F6M, Mokdale, Kec. Lobalain, Kabupaten Rote Ndao, Nusa Tenggara Tim.","Kabupaten Rote Ndao, Nusa Tenggara Tim.",NUSA TENGGARA TIMUR,,Indonesia,,,,-107.537.894,1.230.605.576,https://maps.google.com/?cid=0x0:0x5b51e6d47d44f8a8,
supermarket,Toko bahan makanan,FM Mart,"725W+596, Mokdale, Kec. Lobalain, Kabupaten Rote Ndao, Nusa Tenggara Tim.","Kabupaten Rote Ndao, Nusa Tenggara Tim.",NUSA TENGGARA TIMUR,,Indonesia,,,,-107.420.784,1.230.458.761,https://maps.google.com/?cid=0x0:0x92eeb32c0b0b7fad,
supermarket,Toko bahan makanan,CENTER mart / Toko Center,"Unnamed Road, Mokdale, Lobalain, Rote Ndao Regency, East Nusa Tenggara","Kabupaten Rote Ndao, Nusa Tenggara Tim.",NUSA TENGGARA TIMUR,,Indonesia,,,,-107.551.754,1.230.625.374,https://maps.google.com/?cid=0x0:0x231ea46bcfa68675,
supermarket,Pusat Perbelanjaan,Toko safari,"Namodale, Kec. Lobalain, Kabupaten Rote Ndao, Nusa Tenggara Tim.","Kabupaten Rote Ndao, Nusa Tenggara Tim.",NUSA TENGGARA TIMUR,,Indonesia,,,,-107.263.129,1.230.472.799,https://maps.google.com/?cid=0x0:0x3e56fd1548d019d4,
supermarket,Toko,Kios Talenta,"62WR+WQ2, Mokdale, Kec. Lobalain, Kabupaten Rote Ndao, Nusa Tenggara Tim.","Kabupaten Rote Ndao, Nusa Tenggara Tim.",NUSA TENGGARA TIMUR,,Indonesia,82236831473.0,,,-107.527.417,1.230.418.854,https://maps.google.com/?cid=0x0:0xb0b182cab4a50989,
supermarket,Toko,Toko Angkasa Grosir  Ecer,"Mokdale, Kec. Lobalain, Kabupaten Rote Ndao, Nusa Tenggara Tim.","Kabupaten Rote Ndao, Nusa Tenggara Tim.",NUSA TENGGARA TIMUR,,Indonesia,81338631655.0,,,-10.746.672,12.305.331,https://maps.google.com/?cid=0x0:0x7f41189f76dc6f9e,
supermarket,Toko bahan makanan,Toko Palapa,"72FW+GW9, Namodale, Kec. Lobalain, Kabupaten Rote Ndao, Nusa Tenggara Tim.","Kabupaten Rote Ndao, Nusa Tenggara Tim.",NUSA TENGGARA TIMUR,,Indonesia,85231066166.0,,,-107.262.163,123.047.358,https://maps.google.com/?cid=0x0:0x32caea60f6a768f6,
supermarket,Minimarket,Toko ALVINO,"63X4+XW4, Mokdale, Kec. Lobalain, Kabupaten Rote Ndao, Nusa Tenggara Tim.","Kabupaten Rote Ndao, Nusa Tenggara Tim.",NUSA TENGGARA TIMUR,,Indonesia,82144501233.0,,,-107.501.098,1.230.573.433,https://maps.google.com/?cid=0x0:0x84ebd478e9cf2b7c,
supermarket,Minimarket,Toko Buah Cha-Ca,"62JM+4G8, Holoama, Kec. Lobalain, Kabupaten Rote Ndao, Nusa Tenggara Tim.","Kabupaten Rote Ndao, Nusa Tenggara Tim.",NUSA TENGGARA TIMUR,,Indonesia,82266432402.0,,,-107.697.218,1.230.338.401,https://maps.google.com/?cid=0x0:0xff71dda16a756fed,
supermarket,Toko bahan makanan,RF Mart,"73H2+G4J, Metina, Kec. Lobalain, Kabupaten Rote Ndao, Nusa Tenggara Tim.","Kabupaten Rote Ndao, Nusa Tenggara Tim.",NUSA TENGGARA TIMUR,,Indonesia,82144577799.0,,,-107.210.761,1.230.503.407,https://maps.google.com/?cid=0x0:0xaaf65b9960194fc4,
supermarket,Minimarket,Triv Mart,"Ba'a, Holoama, Kec. Lobalain, Kabupaten Rote Ndao, Nusa Tenggara Tim. 85971","Holoama, Kec. Lobalain, Kabupaten Rote Ndao",NUSA TENGGARA TIMUR,85971.0,Indonesia,82146458897.0,,,-107.842.888,1.230.282.472,https://maps.google.com/?cid=0x0:0xba5f2fc004b092ab,
supermarket,Minimarket,ALFAMART METINA,"72GX+8M5, Metina, Kec. Lobalain, Kabupaten Rote Ndao, Nusa Tenggara Tim.","Kabupaten Rote Ndao, Nusa Tenggara Tim.",NUSA TENGGARA TIMUR,,Indonesia,,,,-107.241.437,1.230.492.664,https://maps.google.com/?cid=0x0:0x4bf7dfe93fc135a1,
supermarket,Kios,Kios Jamila Depan Toko Ebehaezer Baa,"72FW+FP6, Namodale, Kec. Lobalain, Kabupaten Rote Ndao, Nusa Tenggara Tim.","Kabupaten Rote Ndao, Nusa Tenggara Tim.",NUSA TENGGARA TIMUR,,Indonesia,81246699919.0,,,-107.263.422,1.230.467.737,https://maps.google.com/?cid=0x0:0x9326cedc074057dc,
supermarket,Toko,BBM,"724X+96X, Mokdale, Kec. Lobalain, Kabupaten Rote Ndao, Nusa Tenggara Tim.","Kabupaten Rote Ndao, Nusa Tenggara Tim.",NUSA TENGGARA TIMUR,,Indonesia,,,,-107.440.034,1.230.481.195,https://maps.google.com/?cid=0x0:0xb4f9b097ec3c934c,
supermarket,Toko bahan makanan,Kios Neda Messakh,"63W6+F6M, Mokdale, Kec. Lobalain, Kabupaten Rote Ndao, Nusa Tenggara Tim.","Kabupaten Rote Ndao, Nusa Tenggara Tim.",NUSA TENGGARA TIMUR,,Indonesia,,,,-107.537.473,1.230.608.598,https://maps.google.com/?cid=0x0:0x7a5472841260a8f5,
supermarket,Toko bahan makanan,Kios MASAGENA,"73G2+J8X, Unnamed Road, Jl. Tondao, Metina, Kec. Lobalain, Kabupaten Rote Ndao, Nusa Tenggara Tim.","Kabupaten Rote Ndao, Nusa Tenggara Tim.",NUSA TENGGARA TIMUR,,Indonesia,81337949033.0,,,-107.230.594,1.230.510.653,https://maps.google.com/?cid=0x0:0x38e027157efa9065,
supermarket,Toko,ALFAMART HOLOAMA,"62PM+7MG, Jl. Baa Busalangga, Holoama, Kec. Lobalain, Kabupaten Rote Ndao, Nusa Tenggara Tim.","Kabupaten Rote Ndao, Nusa Tenggara Tim.",NUSA TENGGARA TIMUR,,Indonesia,,,,-10.764.218,1.230.342.991,https://maps.google.com/?cid=0x0:0x6d2326fd70c382de,
supermarket,Minimarket,ALFAMART UTOMO,"723W+QFC, Jl. Baa Busalangga, Mokdale, Kec. Lobalain, Kabupaten Rote Ndao, Nusa Tenggara Tim.","Kabupaten Rote Ndao, Nusa Tenggara Tim.",NUSA TENGGARA TIMUR,,Indonesia,,,,-107.453.227,1.230.460.395,https://maps.google.com/?cid=0x0:0xd779b61bf936f7c9,
supermarket,Minimarket,toko hebron,"725V+CW9, Unnamed Rd, Mokdale, Kec. Lobalain, Kabupaten Rote Ndao, Nusa Tenggara Tim.","Kabupaten Rote Ndao, Nusa Tenggara Tim.",NUSA TENGGARA TIMUR,,Indonesia,,,,-107.414.723,1.230.448.675,https://maps.google.com/?cid=0x0:0x699558aa9d2e663a,
supermarket,Toko bahan makanan,KIP Mart,"Jl. Lelain No.Ba'a, Holoama, Kec. Lobalain, Kabupaten Rote Ndao, Nusa Tenggara Tim.","Kabupaten Rote Ndao, Nusa Tenggara Tim.",NUSA TENGGARA TIMUR,,Indonesia,81239280187.0,,,-107.680.281,1.230.334.322,https://maps.google.com/?cid=0x0:0x3223fbf351adfcec,
supermarket,Toko umum,BATUlO,"Kolobolon, Kec. Lobalain, Kabupaten Rote Ndao, Nusa Tenggara Tim.","Kabupaten Rote Ndao, Nusa Tenggara Tim.",NUSA TENGGARA TIMUR,,Indonesia,,,,-107.976.142,1.231.426.479,https://maps.google.com/?cid=0x0:0xecec6d0f31093646,
supermarket,Toko bahan makanan,BAROKAH FROZEN FOOD,"725W+49R, Jl. Alukama, Mokdale, Kec. Lobalain, Kabupaten Rote Ndao, Nusa Tenggara Tim.","Kabupaten Rote Ndao, Nusa Tenggara Tim.",NUSA TENGGARA TIMUR,,Indonesia,82341666613.0,,,-107.421.401,1.230.458.971,https://maps.google.com/?cid=0x0:0x97e243512e72dfdf,
supermarket,Toko bahan makanan,frozen Food Abadi,"72GX+RQM, Jl. Tanggul Laut, Metina, Kec. Lobalain, Kabupaten Rote Ndao, Nusa Tenggara Tim.","Kabupaten Rote Ndao, Nusa Tenggara Tim.",NUSA TENGGARA TIMUR,,Indonesia,81237621513.0,,,-107.228.752,1.230.494.365,https://maps.google.com/?cid=0x0:0x2857802cb32d2eda,
supermarket,supermarket,Toko mulia jaya,"73G2+86X, Jl. Tondao, Metina, Kec. Lobalain, Kabupaten Rote Ndao, Nusa Tenggara Tim.","Kabupaten Rote Ndao, Nusa Tenggara Tim.",NUSA TENGGARA TIMUR,,Indonesia,,,,-107.233.962,1.230.508.653,https://maps.google.com/?cid=0x0:0x2d65f39dc8f8c9b,
supermarket,Kios,KIOS JANGKAR,"636G+HGQ, Jln.Hambelaten - Noanadale, Helebeik, Kabupaten Rote Ndao, Nusa Tenggara Tim.","Kabupaten Rote Ndao, Nusa Tenggara Tim.",NUSA TENGGARA TIMUR,,Indonesia,81246899931.0,,,-107.885.447,1.230.763.632,https://maps.google.com/?cid=0x0:0xfbac92a8f959426f,
supermarket,supermarket,Kec. Lobalain,"Kabupaten Rote Ndao, Nusa Tenggara Tim.","Kabupaten Rote Ndao, Nusa Tenggara Tim.",NUSA TENGGARA TIMUR,,Indonesia,,,,-107.290.879,1.230.460.405,https://maps.google.com/?cid=0x0:0x618add3ee97f8439,
supermarket,Toko,Melati Swalayan,"72FX+VCR, Metina, Kec. Lobalain, Kabupaten Rote Ndao, Nusa Tenggara Tim.","Kabupaten Rote Ndao, Nusa Tenggara Tim.",NUSA TENGGARA TIMUR,,Indonesia,,,,-107.252.561,1.230.485.289,https://maps.google.com/?cid=0x0:0x8a6acee70d95a835,
supermarket,Toko bahan makanan,Liora Minimarkett,"63W6+F6M, Mokdale, Kec. Lobalain, Kabupaten Rote Ndao, Nusa Tenggara Tim.","Kabupaten Rote Ndao, Nusa Tenggara Tim.",NUSA TENGGARA TIMUR,,Indonesia,,,,-107.537.894,1.230.605.576,https://maps.google.com/?cid=0x0:0x5b51e6d47d44f8a8,
supermarket,Toko bahan makanan,smart minimarket,"725W+82W, Unnamed Rd, Lobalain, Kabupaten Ndao, Nusa Tenggara Tim., Mokdale, Kec. Lobalain, Kabupaten Rote Ndao, Nusa Tenggara Tim.","Kabupaten Rote Ndao, Nusa Tenggara Tim.",NUSA TENGGARA TIMUR,,Indonesia,380871113.0,,,-107.416.499,1.230.450.803,https://maps.google.com/?cid=0x0:0x9eb8cdef3a58cfc3,
supermarket,Toko,Kios Talenta,"62WR+WQ2, Mokdale, Kec. Lobalain, Kabupaten Rote Ndao, Nusa Tenggara Tim.","Kabupaten Rote Ndao, Nusa Tenggara Tim.",NUSA TENGGARA TIMUR,,Indonesia,82236831473.0,,,-107.527.417,1.230.418.854,https://maps.google.com/?cid=0x0:0xb0b182cab4a50989,
supermarket,Minimarket,Triv Mart,"Ba'a, Holoama, Kec. Lobalain, Kabupaten Rote Ndao, Nusa Tenggara Tim. 85971","Holoama, Kec. Lobalain, Kabupaten Rote Ndao",NUSA TENGGARA TIMUR,85971.0,Indonesia,82146458897.0,,,-107.842.888,1.230.282.472,https://maps.google.com/?cid=0x0:0xba5f2fc004b092ab,
supermarket,Toko,ALFAMART HOLOAMA,"62PM+7MG, Jl. Baa Busalangga, Holoama, Kec. Lobalain, Kabupaten Rote Ndao, Nusa Tenggara Tim.","Kabupaten Rote Ndao, Nusa Tenggara Tim.",NUSA TENGGARA TIMUR,,Indonesia,,,,-10.764.218,1.230.342.991,https://maps.google.com/?cid=0x0:0x6d2326fd70c382de,
supermarket,Toko umum,Kios GoGo,"5366+VJ, Kuli, Kec. Lobalain, Kabupaten Rote Ndao, Nusa Tenggara Tim.","Kabupaten Rote Ndao, Nusa Tenggara Tim.",NUSA TENGGARA TIMUR,,Indonesia,,,,-108.378.253,1.230.615.705,https://maps.google.com/?cid=0x0:0x2fec91f6a4902aa9,
supermarket,Toko bahan makanan,Toko CLAISA,"7333+3QM, Mokdale, Kec. Lobalain, Kabupaten Rote Ndao, Nusa Tenggara Tim.","Kabupaten Rote Ndao, Nusa Tenggara Tim.",NUSA TENGGARA TIMUR,,Indonesia,81332391700.0,,,-107.472.867,1.230.544.127,https://maps.google.com/?cid=0x0:0xccc10e071871553b,
supermarket,Toko bahan makanan,KIP Mart,"Jl. Lelain No.Ba'a, Holoama, Kec. Lobalain, Kabupaten Rote Ndao, Nusa Tenggara Tim.","Kabupaten Rote Ndao, Nusa Tenggara Tim.",NUSA TENGGARA TIMUR,,Indonesia,81239280187.0,,,-107.680.281,1.230.334.322,https://maps.google.com/?cid=0x0:0x3223fbf351adfcec,
supermarket,Toko bahan makanan,FM Mart,"725W+596, Mokdale, Kec. Lobalain, Kabupaten Rote Ndao, Nusa Tenggara Tim.","Kabupaten Rote Ndao, Nusa Tenggara Tim.",NUSA TENGGARA TIMUR,,Indonesia,,,,-107.420.784,1.230.458.761,https://maps.google.com/?cid=0x0:0x92eeb32c0b0b7fad,
supermarket,Toko,Toko Angkasa Grosir  Ecer,"Mokdale, Kec. Lobalain, Kabupaten Rote Ndao, Nusa Tenggara Tim.","Kabupaten Rote Ndao, Nusa Tenggara Tim.",NUSA TENGGARA TIMUR,,Indonesia,81338631655.0,,,-10.746.672,12.305.331,https://maps.google.com/?cid=0x0:0x7f41189f76dc6f9e,
supermarket,Pusat Perbelanjaan,Toko safari,"Namodale, Kec. Lobalain, Kabupaten Rote Ndao, Nusa Tenggara Tim.","Kabupaten Rote Ndao, Nusa Tenggara Tim.",NUSA TENGGARA TIMUR,,Indonesia,,,,-107.263.129,1.230.472.799,https://maps.google.com/?cid=0x0:0x3e56fd1548d019d4,
supermarket,Toko bahan makanan,Toko Palapa,"72FW+GW9, Namodale, Kec. Lobalain, Kabupaten Rote Ndao, Nusa Tenggara Tim.","Kabupaten Rote Ndao, Nusa Tenggara Tim.",NUSA TENGGARA TIMUR,,Indonesia,85231066166.0,,,-107.262.163,123.047.358,https://maps.google.com/?cid=0x0:0x32caea60f6a768f6,
supermarket,Minimarket,Toko ALVINO,"63X4+XW4, Mokdale, Kec. Lobalain, Kabupaten Rote Ndao, Nusa Tenggara Tim.","Kabupaten Rote Ndao, Nusa Tenggara Tim.",NUSA TENGGARA TIMUR,,Indonesia,82144501233.0,,,-107.501.098,1.230.573.433,https://maps.google.com/?cid=0x0:0x84ebd478e9cf2b7c,
supermarket,Minimarket,Toko Buah Cha-Ca,"62JM+4G8, Holoama, Kec. Lobalain, Kabupaten Rote Ndao, Nusa Tenggara Tim.","Kabupaten Rote Ndao, Nusa Tenggara Tim.",NUSA TENGGARA TIMUR,,Indonesia,82266432402.0,,,-107.697.218,1.230.338.401,https://maps.google.com/?cid=0x0:0xff71dda16a756fed,
supermarket,Minimarket,toko hebron,"725V+CW9, Unnamed Rd, Mokdale, Kec. Lobalain, Kabupaten Rote Ndao, Nusa Tenggara Tim.","Kabupaten Rote Ndao, Nusa Tenggara Tim.",NUSA TENGGARA TIMUR,,Indonesia,,,,-107.414.723,1.230.448.675,https://maps.google.com/?cid=0x0:0x699558aa9d2e663a,
supermarket,Toko,BBM,"724X+96X, Mokdale, Kec. Lobalain, Kabupaten Rote Ndao, Nusa Tenggara Tim.","Kabupaten Rote Ndao, Nusa Tenggara Tim.",NUSA TENGGARA TIMUR,,Indonesia,,,,-107.440.034,1.230.481.195,https://maps.google.com/?cid=0x0:0xb4f9b097ec3c934c,
supermarket,Toko bahan makanan,RF Mart,"73H2+G4J, Metina, Kec. Lobalain, Kabupaten Rote Ndao, Nusa Tenggara Tim.","Kabupaten Rote Ndao, Nusa Tenggara Tim.",NUSA TENGGARA TIMUR,,Indonesia,82144577799.0,,,-107.210.761,1.230.503.407,https://maps.google.com/?cid=0x0:0xaaf65b9960194fc4,
supermarket,Toko bahan makanan,Kios Neda Messakh,"63W6+F6M, Mokdale, Kec. Lobalain, Kabupaten Rote Ndao, Nusa Tenggara Tim.","Kabupaten Rote Ndao, Nusa Tenggara Tim.",NUSA TENGGARA TIMUR,,Indonesia,,,,-107.537.473,1.230.608.598,https://maps.google.com/?cid=0x0:0x7a5472841260a8f5,
supermarket,Toko Pakaian,Toko Bintang Mutiara,"Namodale, Kec. Lobalain, Kabupaten Rote Ndao, Nusa Tenggara Tim.","Kabupaten Rote Ndao, Nusa Tenggara Tim.",NUSA TENGGARA TIMUR,,Indonesia,81325103438.0,,,-107.265.177,1.230.486.801,https://maps.google.com/?cid=0x0:0x1b93045c58f69114,
supermarket,Toko bahan makanan,BAROKAH FROZEN FOOD,"725W+49R, Jl. Alukama, Mokdale, Kec. Lobalain, Kabupaten Rote Ndao, Nusa Tenggara Tim.","Kabupaten Rote Ndao, Nusa Tenggara Tim.",NUSA TENGGARA TIMUR,,Indonesia,82341666613.0,,,-107.421.401,1.230.458.971,https://maps.google.com/?cid=0x0:0x97e243512e72dfdf,
supermarket,Kios,Kios Jamila Depan Toko Ebehaezer Baa,"72FW+FP6, Namodale, Kec. Lobalain, Kabupaten Rote Ndao, Nusa Tenggara Tim.","Kabupaten Rote Ndao, Nusa Tenggara Tim.",NUSA TENGGARA TIMUR,,Indonesia,81246699919.0,,,-107.263.422,1.230.467.737,https://maps.google.com/?cid=0x0:0x9326cedc074057dc,
supermarket,Toko umum,BATUlO,"Kolobolon, Kec. Lobalain, Kabupaten Rote Ndao, Nusa Tenggara Tim.","Kabupaten Rote Ndao, Nusa Tenggara Tim.",NUSA TENGGARA TIMUR,,Indonesia,,,,-107.976.142,1.231.426.479,https://maps.google.com/?cid=0x0:0xecec6d0f31093646,
supermarket,Toko bahan makanan,Kios MASAGENA,"73G2+J8X, Unnamed Road, Jl. Tondao, Metina, Kec. Lobalain, Kabupaten Rote Ndao, Nusa Tenggara Tim.","Kabupaten Rote Ndao, Nusa Tenggara Tim.",NUSA TENGGARA TIMUR,,Indonesia,81337949033.0,,,-107.230.594,1.230.510.653,https://maps.google.com/?cid=0x0:0x38e027157efa9065,
supermarket,Toko bahan makanan,Toko Murah,"Jl.pabean, Baadale, rote, Kabupaten Rote Ndao, Nusa Tenggara Tim.","Kabupaten Rote Ndao, Nusa Tenggara Tim.",NUSA TENGGARA TIMUR,,Indonesia,82237580771.0,,,-107.257.736,1.230.481.316,https://maps.google.com/?cid=0x0:0x61602f5e68355c6c,
supermarket,Toko bahan makanan,Toko 46  Prince exepedition,"73H2+MR2, Jl. Tondao, Metina, Kec. Lobalain, Kabupaten Rote Ndao, Nusa Tenggara Tim.","Kabupaten Rote Ndao, Nusa Tenggara Tim.",NUSA TENGGARA TIMUR,,Indonesia,85253383833.0,,,-107.208.529,1.230.520.242,https://maps.google.com/?cid=0x0:0xa23e5013a668f334,
supermarket,Toko bahan makanan,frozen Food Abadi,"72GX+RQM, Jl. Tanggul Laut, Metina, Kec. Lobalain, Kabupaten Rote Ndao, Nusa Tenggara Tim.","Kabupaten Rote Ndao, Nusa Tenggara Tim.",NUSA TENGGARA TIMUR,,Indonesia,81237621513.0,,,-107.228.752,1.230.494.365,https://maps.google.com/?cid=0x0:0x2857802cb32d2eda,
supermarket,supermarket,Kec. Lobalain,"Kabupaten Rote Ndao, Nusa Tenggara Tim.","Kabupaten Rote Ndao, Nusa Tenggara Tim.",NUSA TENGGARA TIMUR,,Indonesia,,,,-107.290.879,1.230.460.405,https://maps.google.com/?cid=0x0:0x618add3ee97f8439,
supermarket,Toko,Melati Swalayan,"72FX+VCR, Metina, Kec. Lobalain, Kabupaten Rote Ndao, Nusa Tenggara Tim.","Kabupaten Rote Ndao, Nusa Tenggara Tim.",NUSA TENGGARA TIMUR,,Indonesia,,,,-107.252.561,1.230.485.289,https://maps.google.com/?cid=0x0:0x8a6acee70d95a835,
supermarket,Toko bahan makanan,Liora Minimarkett,"63W6+F6M, Mokdale, Kec. Lobalain, Kabupaten Rote Ndao, Nusa Tenggara Tim.","Kabupaten Rote Ndao, Nusa Tenggara Tim.",NUSA TENGGARA TIMUR,,Indonesia,,,,-107.537.894,1.230.605.576,https://maps.google.com/?cid=0x0:0x5b51e6d47d44f8a8,
supermarket,Toko bahan makanan,CENTER mart / Toko Center,"Unnamed Road, Mokdale, Lobalain, Rote Ndao Regency, East Nusa Tenggara","Kabupaten Rote Ndao, Nusa Tenggara Tim.",NUSA TENGGARA TIMUR,,Indonesia,,,,-107.551.754,1.230.625.374,https://maps.google.com/?cid=0x0:0x231ea46bcfa68675,
supermarket,Toko bahan makanan,smart minimarket,"725W+82W, Unnamed Rd, Lobalain, Kabupaten Ndao, Nusa Tenggara Tim., Mokdale, Kec. Lobalain, Kabupaten Rote Ndao, Nusa Tenggara Tim.","Kabupaten Rote Ndao, Nusa Tenggara Tim.",NUSA TENGGARA TIMUR,,Indonesia,380871113.0,,,-107.416.499,1.230.450.803,https://maps.google.com/?cid=0x0:0x9eb8cdef3a58cfc3,
supermarket,Toko,Kios Talenta,"62WR+WQ2, Mokdale, Kec. Lobalain, Kabupaten Rote Ndao, Nusa Tenggara Tim.","Kabupaten Rote Ndao, Nusa Tenggara Tim.",NUSA TENGGARA TIMUR,,Indonesia,82236831473.0,,,-107.527.417,1.230.418.854,https://maps.google.com/?cid=0x0:0xb0b182cab4a50989,
supermarket,Toko bahan makanan,Toko Palapa,"72FW+GW9, Namodale, Kec. Lobalain, Kabupaten Rote Ndao, Nusa Tenggara Tim.","Kabupaten Rote Ndao, Nusa Tenggara Tim.",NUSA TENGGARA TIMUR,,Indonesia,85231066166.0,,,-107.262.163,123.047.358,https://maps.google.com/?cid=0x0:0x32caea60f6a768f6,
supermarket,Minimarket,Triv Mart,"Ba'a, Holoama, Kec. Lobalain, Kabupaten Rote Ndao, Nusa Tenggara Tim. 85971","Holoama, Kec. Lobalain, Kabupaten Rote Ndao",NUSA TENGGARA TIMUR,85971.0,Indonesia,82146458897.0,,,-107.842.888,1.230.282.472,https://maps.google.com/?cid=0x0:0xba5f2fc004b092ab,
supermarket,Toko bahan makanan,RF Mart,"73H2+G4J, Metina, Kec. Lobalain, Kabupaten Rote Ndao, Nusa Tenggara Tim.","Kabupaten Rote Ndao, Nusa Tenggara Tim.",NUSA TENGGARA TIMUR,,Indonesia,82144577799.0,,,-107.210.761,1.230.503.407,https://maps.google.com/?cid=0x0:0xaaf65b9960194fc4,
supermarket,Toko,ALFAMART HOLOAMA,"62PM+7MG, Jl. Baa Busalangga, Holoama, Kec. Lobalain, Kabupaten Rote Ndao, Nusa Tenggara Tim.","Kabupaten Rote Ndao, Nusa Tenggara Tim.",NUSA TENGGARA TIMUR,,Indonesia,,,,-10.764.218,1.230.342.991,https://maps.google.com/?cid=0x0:0x6d2326fd70c382de,
supermarket,Minimarket,Toko hebron mart,"63W2+V6H, Jl. Abri, Mokdale, Kec. Lobalain, Kabupaten Rote Ndao, Nusa Tenggara Tim.","Kabupaten Rote Ndao, Nusa Tenggara Tim.",NUSA TENGGARA TIMUR,,Indonesia,,,,-107.528.211,1.230.506.087,https://maps.google.com/?cid=0x0:0xbebd7f386e1592ca,
supermarket,Minimarket,ALFAMART ALUKAMA,"724W+RJP, Jl. Alukama, Mokdale, Kec. Lobalain, Kabupaten Rote Ndao, Nusa Tenggara Tim.","Kabupaten Rote Ndao, Nusa Tenggara Tim.",NUSA TENGGARA TIMUR,,Indonesia,,,,-107.428.825,1.230.465.756,https://maps.google.com/?cid=0x0:0x1d113771a9af6835,
supermarket,Pusat Perbelanjaan,Toko safari,"Namodale, Kec. Lobalain, Kabupaten Rote Ndao, Nusa Tenggara Tim.","Kabupaten Rote Ndao, Nusa Tenggara Tim.",NUSA TENGGARA TIMUR,,Indonesia,,,,-107.263.129,1.230.472.799,https://maps.google.com/?cid=0x0:0x3e56fd1548d019d4,
supermarket,Toko,Toko Angkasa Grosir  Ecer,"Mokdale, Kec. Lobalain, Kabupaten Rote Ndao, Nusa Tenggara Tim.","Kabupaten Rote Ndao, Nusa Tenggara Tim.",NUSA TENGGARA TIMUR,,Indonesia,81338631655.0,,,-10.746.672,12.305.331,https://maps.google.com/?cid=0x0:0x7f41189f76dc6f9e,
supermarket,Minimarket,Toko Buah Cha-Ca,"62JM+4G8, Holoama, Kec. Lobalain, Kabupaten Rote Ndao, Nusa Tenggara Tim.","Kabupaten Rote Ndao, Nusa Tenggara Tim.",NUSA TENGGARA TIMUR,,Indonesia,82266432402.0,,,-107.697.218,1.230.338.401,https://maps.google.com/?cid=0x0:0xff71dda16a756fed,
supermarket,Toko bahan makanan,Kios Neda Messakh,"63W6+F6M, Mokdale, Kec. Lobalain, Kabupaten Rote Ndao, Nusa Tenggara Tim.","Kabupaten Rote Ndao, Nusa Tenggara Tim.",NUSA TENGGARA TIMUR,,Indonesia,,,,-107.537.473,1.230.608.598,https://maps.google.com/?cid=0x0:0x7a5472841260a8f5,
supermarket,Toko,ALFAMART MOKDALE,"7333+5C9, Mokdale, Kec. Lobalain, Kabupaten Rote Ndao, Nusa Tenggara Tim.","Kabupaten Rote Ndao, Nusa Tenggara Tim.",NUSA TENGGARA TIMUR,,Indonesia,,,,-107.470.751,1.230.536.208,https://maps.google.com/?cid=0x0:0xabf7702de3b9e146,
supermarket,Toko bahan makanan,Kios MASAGENA,"73G2+J8X, Unnamed Road, Jl. Tondao, Metina, Kec. Lobalain, Kabupaten Rote Ndao, Nusa Tenggara Tim.","Kabupaten Rote Ndao, Nusa Tenggara Tim.",NUSA TENGGARA TIMUR,,Indonesia,81337949033.0,,,-107.230.594,1.230.510.653,https://maps.google.com/?cid=0x0:0x38e027157efa9065,
supermarket,Toko,BBM,"724X+96X, Mokdale, Kec. Lobalain, Kabupaten Rote Ndao, Nusa Tenggara Tim.","Kabupaten Rote Ndao, Nusa Tenggara Tim.",NUSA TENGGARA TIMUR,,Indonesia,,,,-107.440.034,1.230.481.195,https://maps.google.com/?cid=0x0:0xb4f9b097ec3c934c,
supermarket,Toko bahan makanan,Toko Murah,"Jl.pabean, Baadale, rote, Kabupaten Rote Ndao, Nusa Tenggara Tim.","Kabupaten Rote Ndao, Nusa Tenggara Tim.",NUSA TENGGARA TIMUR,,Indonesia,82237580771.0,,,-107.257.736,1.230.481.316,https://maps.google.com/?cid=0x0:0x61602f5e68355c6c,
supermarket,Minimarket,ALFAMART METINA,"72GX+8M5, Metina, Kec. Lobalain, Kabupaten Rote Ndao, Nusa Tenggara Tim.","Kabupaten Rote Ndao, Nusa Tenggara Tim.",NUSA TENGGARA TIMUR,,Indonesia,,,,-107.241.437,1.230.492.664,https://maps.google.com/?cid=0x0:0x4bf7dfe93fc135a1,
supermarket,Kios,Kios Jamila Depan Toko Ebehaezer Baa,"72FW+FP6, Namodale, Kec. Lobalain, Kabupaten Rote Ndao, Nusa Tenggara Tim.","Kabupaten Rote Ndao, Nusa Tenggara Tim.",NUSA TENGGARA TIMUR,,Indonesia,81246699919.0,,,-107.263.422,1.230.467.737,https://maps.google.com/?cid=0x0:0x9326cedc074057dc,
supermarket,Toko umum,Kios BBM A2 Kimferen,"72CX+M42, Namodale, Kec. Lobalain, Kabupaten Rote Ndao, Nusa Tenggara Tim.","Kabupaten Rote Ndao, Nusa Tenggara Tim.",NUSA TENGGARA TIMUR,,Indonesia,82266020470.0,,,-107.283.651,1.230.477.684,https://maps.google.com/?cid=0x0:0xf01896b51a79e998,
supermarket,Toko bahan makanan,KIP Mart,"Jl. Lelain No.Ba'a, Holoama, Kec. Lobalain, Kabupaten Rote Ndao, Nusa Tenggara Tim.","Kabupaten Rote Ndao, Nusa Tenggara Tim.",NUSA TENGGARA TIMUR,,Indonesia,81239280187.0,,,-107.680.281,1.230.334.322,https://maps.google.com/?cid=0x0:0x3223fbf351adfcec,
supermarket,Minimarket,Toko ALVINO,"63X4+XW4, Mokdale, Kec. Lobalain, Kabupaten Rote Ndao, Nusa Tenggara Tim.","Kabupaten Rote Ndao, Nusa Tenggara Tim.",NUSA TENGGARA TIMUR,,Indonesia,82144501233.0,,,-107.501.098,1.230.573.433,https://maps.google.com/?cid=0x0:0x84ebd478e9cf2b7c,
supermarket,Toko umum,BATUlO,"Kolobolon, Kec. Lobalain, Kabupaten Rote Ndao, Nusa Tenggara Tim.","Kabupaten Rote Ndao, Nusa Tenggara Tim.",NUSA TENGGARA TIMUR,,Indonesia,,,,-107.976.142,1.231.426.479,https://maps.google.com/?cid=0x0:0xecec6d0f31093646,
supermarket,Toko bahan makanan,BAROKAH FROZEN FOOD,"725W+49R, Jl. Alukama, Mokdale, Kec. Lobalain, Kabupaten Rote Ndao, Nusa Tenggara Tim.","Kabupaten Rote Ndao, Nusa Tenggara Tim.",NUSA TENGGARA TIMUR,,Indonesia,82341666613.0,,,-107.421.401,1.230.458.971,https://maps.google.com/?cid=0x0:0x97e243512e72dfdf,
supermarket,supermarket,Toko mulia jaya,"73G2+86X, Jl. Tondao, Metina, Kec. Lobalain, Kabupaten Rote Ndao, Nusa Tenggara Tim.","Kabupaten Rote Ndao, Nusa Tenggara Tim.",NUSA TENGGARA TIMUR,,Indonesia,,,,-107.233.962,1.230.508.653,https://maps.google.com/?cid=0x0:0x2d65f39dc8f8c9b,
supermarket,Toko bahan makanan,frozen Food Abadi,"72GX+RQM, Jl. Tanggul Laut, Metina, Kec. Lobalain, Kabupaten Rote Ndao, Nusa Tenggara Tim.","Kabupaten Rote Ndao, Nusa Tenggara Tim.",NUSA TENGGARA TIMUR,,Indonesia,81237621513.0,,,-107.228.752,1.230.494.365,https://maps.google.com/?cid=0x0:0x2857802cb32d2eda,
supermarket,supermarket,Kec. Lobalain,"Kabupaten Rote Ndao, Nusa Tenggara Tim.","Kabupaten Rote Ndao, Nusa Tenggara Tim.",NUSA TENGGARA TIMUR,,Indonesia,,,,-107.290.879,1.230.460.405,https://maps.google.com/?cid=0x0:0x618add3ee97f8439,
supermarket,Toko,Melati Swalayan,"72FX+VCR, Metina, Kec. Lobalain, Kabupaten Rote Ndao, Nusa Tenggara Tim.","Kabupaten Rote Ndao, Nusa Tenggara Tim.",NUSA TENGGARA TIMUR,,Indonesia,,,,-107.252.561,1.230.485.289,https://maps.google.com/?cid=0x0:0x8a6acee70d95a835,
supermarket,Toko bahan makanan,Liora Minimarkett,"63W6+F6M, Mokdale, Kec. Lobalain, Kabupaten Rote Ndao, Nusa Tenggara Tim.","Kabupaten Rote Ndao, Nusa Tenggara Tim.",NUSA TENGGARA TIMUR,,Indonesia,,,,-107.537.894,1.230.605.576,https://maps.google.com/?cid=0x0:0x5b51e6d47d44f8a8,
supermarket,Toko bahan makanan,FM Mart,"725W+596, Mokdale, Kec. Lobalain, Kabupaten Rote Ndao, Nusa Tenggara Tim.","Kabupaten Rote Ndao, Nusa Tenggara Tim.",NUSA TENGGARA TIMUR,,Indonesia,,,,-107.420.784,1.230.458.761,https://maps.google.com/?cid=0x0:0x92eeb32c0b0b7fad,
supermarket,Toko bahan makanan,CENTER mart / Toko Center,"Unnamed Road, Mokdale, Lobalain, Rote Ndao Regency, East Nusa Tenggara","Kabupaten Rote Ndao, Nusa Tenggara Tim.",NUSA TENGGARA TIMUR,,Indonesia,,,,-107.551.754,1.230.625.374,https://maps.google.com/?cid=0x0:0x231ea46bcfa68675,
supermarket,Pusat Perbelanjaan,Toko safari,"Namodale, Kec. Lobalain, Kabupaten Rote Ndao, Nusa Tenggara Tim.","Kabupaten Rote Ndao, Nusa Tenggara Tim.",NUSA TENGGARA TIMUR,,Indonesia,,,,-107.263.129,1.230.472.799,https://maps.google.com/?cid=0x0:0x3e56fd1548d019d4,
supermarket,Toko,Kios Talenta,"62WR+WQ2, Mokdale, Kec. Lobalain, Kabupaten Rote Ndao, Nusa Tenggara Tim.","Kabupaten Rote Ndao, Nusa Tenggara Tim.",NUSA TENGGARA TIMUR,,Indonesia,82236831473.0,,,-107.527.417,1.230.418.854,https://maps.google.com/?cid=0x0:0xb0b182cab4a50989,
supermarket,Toko,Toko Angkasa Grosir  Ecer,"Mokdale, Kec. Lobalain, Kabupaten Rote Ndao, Nusa Tenggara Tim.","Kabupaten Rote Ndao, Nusa Tenggara Tim.",NUSA TENGGARA TIMUR,,Indonesia,81338631655.0,,,-10.746.672,12.305.331,https://maps.google.com/?cid=0x0:0x7f41189f76dc6f9e,
supermarket,Toko bahan makanan,Toko Palapa,"72FW+GW9, Namodale, Kec. Lobalain, Kabupaten Rote Ndao, Nusa Tenggara Tim.","Kabupaten Rote Ndao, Nusa Tenggara Tim.",NUSA TENGGARA TIMUR,,Indonesia,85231066166.0,,,-107.262.163,123.047.358,https://maps.google.com/?cid=0x0:0x32caea60f6a768f6,
supermarket,Minimarket,Toko Buah Cha-Ca,"62JM+4G8, Holoama, Kec. Lobalain, Kabupaten Rote Ndao, Nusa Tenggara Tim.","Kabupaten Rote Ndao, Nusa Tenggara Tim.",NUSA TENGGARA TIMUR,,Indonesia,82266432402.0,,,-107.697.218,1.230.338.401,https://maps.google.com/?cid=0x0:0xff71dda16a756fed,
supermarket,Toko bahan makanan,RF Mart,"73H2+G4J, Metina, Kec. Lobalain, Kabupaten Rote Ndao, Nusa Tenggara Tim.","Kabupaten Rote Ndao, Nusa Tenggara Tim.",NUSA TENGGARA TIMUR,,Indonesia,82144577799.0,,,-107.210.761,1.230.503.407,https://maps.google.com/?cid=0x0:0xaaf65b9960194fc4,
supermarket,Minimarket,Triv Mart,"Ba'a, Holoama, Kec. Lobalain, Kabupaten Rote Ndao, Nusa Tenggara Tim. 85971","Holoama, Kec. Lobalain, Kabupaten Rote Ndao",NUSA TENGGARA TIMUR,85971.0,Indonesia,82146458897.0,,,-107.842.888,1.230.282.472,https://maps.google.com/?cid=0x0:0xba5f2fc004b092ab,
supermarket,Toko,ALFAMART MOKDALE,"7333+5C9, Mokdale, Kec. Lobalain, Kabupaten Rote Ndao, Nusa Tenggara Tim.","Kabupaten Rote Ndao, Nusa Tenggara Tim.",NUSA TENGGARA TIMUR,,Indonesia,,,,-107.470.751,1.230.536.208,https://maps.google.com/?cid=0x0:0xabf7702de3b9e146,
supermarket,Kios,Kios Jamila Depan Toko Ebehaezer Baa,"72FW+FP6, Namodale, Kec. Lobalain, Kabupaten Rote Ndao, Nusa Tenggara Tim.","Kabupaten Rote Ndao, Nusa Tenggara Tim.",NUSA TENGGARA TIMUR,,Indonesia,81246699919.0,,,-107.263.422,1.230.467.737,https://maps.google.com/?cid=0x0:0x9326cedc074057dc,
supermarket,Minimarket,ALFAMART METINA,"72GX+8M5, Metina, Kec. Lobalain, Kabupaten Rote Ndao, Nusa Tenggara Tim.","Kabupaten Rote Ndao, Nusa Tenggara Tim.",NUSA TENGGARA TIMUR,,Indonesia,,,,-107.241.437,1.230.492.664,https://maps.google.com/?cid=0x0:0x4bf7dfe93fc135a1,
supermarket,Toko bahan makanan,Kios Neda Messakh,"63W6+F6M, Mokdale, Kec. Lobalain, Kabupaten Rote Ndao, Nusa Tenggara Tim.","Kabupaten Rote Ndao, Nusa Tenggara Tim.",NUSA TENGGARA TIMUR,,Indonesia,,,,-107.537.473,1.230.608.598,https://maps.google.com/?cid=0x0:0x7a5472841260a8f5,
supermarket,Toko,BBM,"724X+96X, Mokdale, Kec. Lobalain, Kabupaten Rote Ndao, Nusa Tenggara Tim.","Kabupaten Rote Ndao, Nusa Tenggara Tim.",NUSA TENGGARA TIMUR,,Indonesia,,,,-107.440.034,1.230.481.195,https://maps.google.com/?cid=0x0:0xb4f9b097ec3c934c,
supermarket,Toko,ALFAMART HOLOAMA,"62PM+7MG, Jl. Baa Busalangga, Holoama, Kec. Lobalain, Kabupaten Rote Ndao, Nusa Tenggara Tim.","Kabupaten Rote Ndao, Nusa Tenggara Tim.",NUSA TENGGARA TIMUR,,Indonesia,,,,-10.764.218,1.230.342.991,https://maps.google.com/?cid=0x0:0x6d2326fd70c382de,
supermarket,Toko bahan makanan,Kios MASAGENA,"73G2+J8X, Unnamed Road, Jl. Tondao, Metina, Kec. Lobalain, Kabupaten Rote Ndao, Nusa Tenggara Tim.","Kabupaten Rote Ndao, Nusa Tenggara Tim.",NUSA TENGGARA TIMUR,,Indonesia,81337949033.0,,,-107.230.594,1.230.510.653,https://maps.google.com/?cid=0x0:0x38e027157efa9065,
supermarket,Toko bahan makanan,Toko Murah,"Jl.pabean, Baadale, rote, Kabupaten Rote Ndao, Nusa Tenggara Tim.","Kabupaten Rote Ndao, Nusa Tenggara Tim.",NUSA TENGGARA TIMUR,,Indonesia,82237580771.0,,,-107.257.736,1.230.481.316,https://maps.google.com/?cid=0x0:0x61602f5e68355c6c,
supermarket,Minimarket,Toko ALVINO,"63X4+XW4, Mokdale, Kec. Lobalain, Kabupaten Rote Ndao, Nusa Tenggara Tim.","Kabupaten Rote Ndao, Nusa Tenggara Tim.",NUSA TENGGARA TIMUR,,Indonesia,82144501233.0,,,-107.501.098,1.230.573.433,https://maps.google.com/?cid=0x0:0x84ebd478e9cf2b7c,
supermarket,Toko Elektronik,Lestari Elektronik,"72GX+XRC, Metina, Kec. Lobalain, Kabupaten Rote Ndao, Nusa Tenggara Tim.","Kabupaten Rote Ndao, Nusa Tenggara Tim.",NUSA TENGGARA TIMUR,,Indonesia,,,,-107.225.628,1.230.496.766,https://maps.google.com/?cid=0x0:0x26b1a407dd4dbdc,
supermarket,Toko Pakaian,Toko Bintang Mutiara,"Namodale, Kec. Lobalain, Kabupaten Rote Ndao, Nusa Tenggara Tim.","Kabupaten Rote Ndao, Nusa Tenggara Tim.",NUSA TENGGARA TIMUR,,Indonesia,81325103438.0,,,-107.265.177,1.230.486.801,https://maps.google.com/?cid=0x0:0x1b93045c58f69114,
supermarket,Toko umum,Kios BBM A2 Kimferen,"72CX+M42, Namodale, Kec. Lobalain, Kabupaten Rote Ndao, Nusa Tenggara Tim.","Kabupaten Rote Ndao, Nusa Tenggara Tim.",NUSA TENGGARA TIMUR,,Indonesia,82266020470.0,,,-107.283.651,1.230.477.684,https://maps.google.com/?cid=0x0:0xf01896b51a79e998,
supermarket,Toko bahan makanan,KIP Mart,"Jl. Lelain No.Ba'a, Holoama, Kec. Lobalain, Kabupaten Rote Ndao, Nusa Tenggara Tim.","Kabupaten Rote Ndao, Nusa Tenggara Tim.",NUSA TENGGARA TIMUR,,Indonesia,81239280187.0,,,-107.680.281,1.230.334.322,https://maps.google.com/?cid=0x0:0x3223fbf351adfcec,
supermarket,Toko umum,BATUlO,"Kolobolon, Kec. Lobalain, Kabupaten Rote Ndao, Nusa Tenggara Tim.","Kabupaten Rote Ndao, Nusa Tenggara Tim.",NUSA TENGGARA TIMUR,,Indonesia,,,,-107.976.142,1.231.426.479,https://maps.google.com/?cid=0x0:0xecec6d0f31093646,
supermarket,Toko bahan makanan,BAROKAH FROZEN FOOD,"725W+49R, Jl. Alukama, Mokdale, Kec. Lobalain, Kabupaten Rote Ndao, Nusa Tenggara Tim.","Kabupaten Rote Ndao, Nusa Tenggara Tim.",NUSA TENGGARA TIMUR,,Indonesia,82341666613.0,,,-107.421.401,1.230.458.971,https://maps.google.com/?cid=0x0:0x97e243512e72dfdf,
supermarket,supermarket,Toko mulia jaya,"73G2+86X, Jl. Tondao, Metina, Kec. Lobalain, Kabupaten Rote Ndao, Nusa Tenggara Tim.","Kabupaten Rote Ndao, Nusa Tenggara Tim.",NUSA TENGGARA TIMUR,,Indonesia,,,,-107.233.962,1.230.508.653,https://maps.google.com/?cid=0x0:0x2d65f39dc8f8c9b,
supermarket,Kios,KIOS JANGKAR,"636G+HGQ, Jln.Hambelaten - Noanadale, Helebeik, Kabupaten Rote Ndao, Nusa Tenggara Tim.","Kabupaten Rote Ndao, Nusa Tenggara Tim.",NUSA TENGGARA TIMUR,,Indonesia,81246899931.0,,,-107.885.447,1.230.763.632,https://maps.google.com/?cid=0x0:0xfbac92a8f959426f,
supermarket,supermarket,Kec. Rote Tengah,"Kabupaten Rote Ndao, Nusa Tenggara Tim.","Kabupaten Rote Ndao, Nusa Tenggara Tim.",NUSA TENGGARA TIMUR,,Indonesia,,,,-106.702.912,1.231.279.559,https://maps.google.com/?cid=0x0:0x44ac523cb3546567,
supermarket,Toko,Melati Swalayan,"72FX+VCR, Metina, Kec. Lobalain, Kabupaten Rote Ndao, Nusa Tenggara Tim.","Kabupaten Rote Ndao, Nusa Tenggara Tim.",NUSA TENGGARA TIMUR,,Indonesia,,,,-107.252.561,1.230.485.289,https://maps.google.com/?cid=0x0:0x8a6acee70d95a835,
supermarket,Kios,Kios JuniorT,"8434+HQH, Distrik Batuleli, Tengah, Lidabesi, Kec. Rote Tengah, Kabupaten Rote Ndao, Nusa Tenggara Tim.","Kabupaten Rote Ndao, Nusa Tenggara Tim.",NUSA TENGGARA TIMUR,,Indonesia,,,,-106.960.614,1.231.069.724,https://maps.google.com/?cid=0x0:0xffd4717f06a8bf84,
supermarket,Minimarket,KIOS GEVAL,"64Q3+59F, Lidabesi, Kec. Rote Tengah, Kabupaten Rote Ndao, Nusa Tenggara Tim.","Kabupaten Rote Ndao, Nusa Tenggara Tim.",NUSA TENGGARA TIMUR,,Indonesia,82312940989.0,,,-107.618.574,1.231.033.578,https://maps.google.com/?cid=0x0:0xc2af2a04326e42cd,
supermarket,Toko,Kios sejahtera tiga putry,"64X6+M5C, Unnamed Road, lain, Lidabesi, Kec. Rote Tengah, Kabupaten Rote Ndao, Nusa Tenggara Tim.","Kabupaten Rote Ndao, Nusa Tenggara Tim.",NUSA TENGGARA TIMUR,,Indonesia,82145178187.0,,,-10.750.817,1.231.103.868,https://maps.google.com/?cid=0x0:0x5359d85897d06dde,
supermarket,Toko Swalayan,Toko T I R T A,"73VC+R34, Baudale, Maubesi, Kec. Rote Tengah, Kabupaten Rote Ndao, Nusa Tenggara Tim.","Kabupaten Rote Ndao, Nusa Tenggara Tim.",NUSA TENGGARA TIMUR,,Indonesia,82359279949.0,,,-107.054.887,1.230.701.999,https://maps.google.com/?cid=0x0:0x117f941b413c588f,
supermarket,Toko Swalayan,Kios Murah Baudale,"73XG+PXV, Unnamed Road, Maubesi, Kec. Rote Tengah, Kabupaten Rote Ndao, Nusa Tenggara Tim.","Kabupaten Rote Ndao, Nusa Tenggara Tim.",NUSA TENGGARA TIMUR,,Indonesia,,,,-107.006.421,1.230.774.093,https://maps.google.com/?cid=0x0:0x7b692d351d8167d2,
supermarket,Toko bahan makanan,smart minimarket,"725W+82W, Unnamed Rd, Lobalain, Kabupaten Ndao, Nusa Tenggara Tim., Mokdale, Kec. Lobalain, Kabupaten Rote Ndao, Nusa Tenggara Tim.","Kabupaten Rote Ndao, Nusa Tenggara Tim.",NUSA TENGGARA TIMUR,,Indonesia,380871113.0,,,-107.416.499,1.230.450.803,https://maps.google.com/?cid=0x0:0x9eb8cdef3a58cfc3,
supermarket,Toko Pakaian Wanita,Dua Putri,"747F+VRW, Lela Puamata, Tengah, Lidamanu, Kec. Rote Tengah, Kabupaten Rote Ndao, Nusa Tenggara Tim.","Kabupaten Rote Ndao, Nusa Tenggara Tim.",NUSA TENGGARA TIMUR,,Indonesia,,,,-10.735.259,123.124.584,https://maps.google.com/?cid=0x0:0x80a2fab2c9e3d709,
supermarket,Toko Swalayan,Kios bunda wathy,"Onotali, Kec. Rote Tengah, Kabupaten Rote Ndao, Nusa Tenggara Tim. 85553","Kec. Rote Tengah, Kabupaten Rote Ndao",NUSA TENGGARA TIMUR,85553.0,Indonesia,82214652074.0,,,-106.703.751,1.231.279.874,https://maps.google.com/?cid=0x0:0xd14e6fd1003314a6,
supermarket,Sekolah,PASAR OELE,"6576+W59, Daleholu, Kec. Rote Sel., Kabupaten Rote Ndao, Nusa Tenggara Tim.","Kabupaten Rote Ndao, Nusa Tenggara Tim.",NUSA TENGGARA TIMUR,,Indonesia,,,,-107.852.125,1.231.604.789,https://maps.google.com/?cid=0x0:0x849821de8c59f8df,
supermarket,Toko bahan makanan,Liora Minimarkett,"63W6+F6M, Mokdale, Kec. Lobalain, Kabupaten Rote Ndao, Nusa Tenggara Tim.","Kabupaten Rote Ndao, Nusa Tenggara Tim.",NUSA TENGGARA TIMUR,,Indonesia,,,,-107.537.894,1.230.605.576,https://maps.google.com/?cid=0x0:0x5b51e6d47d44f8a8,
supermarket,Toko bahan makanan,KKS Cell,"Jl Pantai Baru - Ba'a, Tunganamo, Pantai Baru, Rote Ndao Regency, East Nusa Tenggara","Kabupaten Rote Ndao, Nusa Tenggara Tim.",NUSA TENGGARA TIMUR,,Indonesia,82145628123.0,,,-106.246.564,1.231.980.568,https://maps.google.com/?cid=0x0:0xe967a32960009dee,
supermarket,Toko bahan makanan,Kios MASAGENA,"73G2+J8X, Unnamed Road, Jl. Tondao, Metina, Kec. Lobalain, Kabupaten Rote Ndao, Nusa Tenggara Tim.","Kabupaten Rote Ndao, Nusa Tenggara Tim.",NUSA TENGGARA TIMUR,,Indonesia,81337949033.0,,,-107.230.594,1.230.510.653,https://maps.google.com/?cid=0x0:0x38e027157efa9065,
supermarket,Toko bahan makanan,CENTER mart / Toko Center,"Unnamed Road, Mokdale, Lobalain, Rote Ndao Regency, East Nusa Tenggara","Kabupaten Rote Ndao, Nusa Tenggara Tim.",NUSA TENGGARA TIMUR,,Indonesia,,,,-107.551.754,1.230.625.374,https://maps.google.com/?cid=0x0:0x231ea46bcfa68675,
supermarket,Toko,Apriyanti sinlaeloe,"73VF+284, Maubesi, Kec. Rote Tengah, Kabupaten Rote Ndao, Nusa Tenggara Tim.","Kabupaten Rote Ndao, Nusa Tenggara Tim.",NUSA TENGGARA TIMUR,,Indonesia,,,,-107.074.875,1.230.733.281,https://maps.google.com/?cid=0x0:0x45a84bb784265a22,
supermarket,Toko bahan makanan,FM Mart,"725W+596, Mokdale, Kec. Lobalain, Kabupaten Rote Ndao, Nusa Tenggara Tim.","Kabupaten Rote Ndao, Nusa Tenggara Tim.",NUSA TENGGARA TIMUR,,Indonesia,,,,-107.420.784,1.230.458.761,https://maps.google.com/?cid=0x0:0x92eeb32c0b0b7fad,
supermarket,Toko bahan makanan,Toko 46  Prince exepedition,"73H2+MR2, Jl. Tondao, Metina, Kec. Lobalain, Kabupaten Rote Ndao, Nusa Tenggara Tim.","Kabupaten Rote Ndao, Nusa Tenggara Tim.",NUSA TENGGARA TIMUR,,Indonesia,85253383833.0,,,-107.208.529,1.230.520.242,https://maps.google.com/?cid=0x0:0xa23e5013a668f334,
supermarket,Toko,Kios termanu sejahtera,"837Q+676, Onatali, Kec. Rote Tengah, Kabupaten Rote Ndao, Nusa Tenggara Tim.","Kabupaten Rote Ndao, Nusa Tenggara Tim.",NUSA TENGGARA TIMUR,,Indonesia,82311805150.0,,,-106.869.576,1.230.881.402,https://maps.google.com/?cid=0x0:0x70e42dac7334cc8f,
supermarket,supermarket,DEPOT GIGA,"85X9+9CF, Nggodimeda, Kec. Rote Tengah, Kabupaten Rote Ndao, Nusa Tenggara Tim.","Kabupaten Rote Ndao, Nusa Tenggara Tim.",NUSA TENGGARA TIMUR,,Indonesia,,,,-106.515.553,1.231.685.498,https://maps.google.com/?cid=0x0:0x6398ea008e3e61b6,
supermarket,Kios,Rumah,"65J2+74P, Daleholu, Kec. Rote Sel., Kabupaten Rote Ndao, Nusa Tenggara Tim.","Kabupaten Rote Ndao, Nusa Tenggara Tim.",NUSA TENGGARA TIMUR,,Indonesia,,,,-107.692.844,1.231.503.164,https://maps.google.com/?cid=0x0:0x90afaebde1e12bfa,
supermarket,Toko outlet,SIMON CELL,"85Q2+X37, Unnamed Road, Siomeda, Kec. Rote Tengah, Kabupaten Rote Ndao, Nusa Tenggara Tim.","Kabupaten Rote Ndao, Nusa Tenggara Tim.",NUSA TENGGARA TIMUR,,Indonesia,82236455083.0,,,-106.600.824,1.231.501.833,https://maps.google.com/?cid=0x0:0x64b88a7082784b4b,
supermarket,supermarket,Kios D'ELIOS,"833G+8J7, Maubesi, Kec. Rote Tengah, Kabupaten Rote Ndao, Nusa Tenggara Tim.","Kabupaten Rote Ndao, Nusa Tenggara Tim.",NUSA TENGGARA TIMUR,,Indonesia,,,,-106.967.233,1.230.765.453,https://maps.google.com/?cid=0x0:0xd7efd68b3b5f5dc5,
supermarket,supermarket,Nanda Latifah pattiradjawane,"7494+X5, Maubesi, Kec. Rote Tengah, Kabupaten Rote Ndao, Nusa Tenggara Tim.","Kabupaten Rote Ndao, Nusa Tenggara Tim.",NUSA TENGGARA TIMUR,,Indonesia,,,,-10.730.006,123.105.448,https://maps.google.com/?cid=0x0:0x8b18cc4b2bb43900,
supermarket,Toko outlet,PUTRACLARA CELL,"952G+Q3G, Unnamed Road, Nggodimeda, Kec. Rote Tengah, Kabupaten Rote Ndao, Nusa Tenggara Tim.","Kabupaten Rote Ndao, Nusa Tenggara Tim.",NUSA TENGGARA TIMUR,,Indonesia,81337666054.0,,,-106.480.659,1.231.751.946,https://maps.google.com/?cid=0x0:0x1856be6619785e8c,
supermarket,supermarket,Kios Flora Cell,"84HG+PP6, Onotali, Kec. Rote Tengah, Kabupaten Rote Ndao, Nusa Tenggara Tim.","Kabupaten Rote Ndao, Nusa Tenggara Tim.",NUSA TENGGARA TIMUR,,Indonesia,,,,-106.707.089,1.231.267.804,https://maps.google.com/?cid=0x0:0xdae0659227586354,
supermarket,supermarket,Nusa Tenggara Tim.,,Nusa Tenggara Tim.,NUSA TENGGARA TIMUR,,Indonesia,,,,-86.573.819,1.210.793.705,https://maps.google.com/?cid=0x0:0x1030bfbcaf71ae0,
supermarket,Toserba,Supermarket Matahari,"pasar inpres naikoten No.1, Naikoten I, Kec. Kota Raja, Kota Kupang, Nusa Tenggara Tim. 85142","Naikoten I, Kec. Kota Raja, Kota Kupang",NUSA TENGGARA TIMUR,85142.0,Indonesia,,,,-101.813.187,1.236.009.175,https://maps.google.com/?cid=0x0:0x47fc92b423019c18,
supermarket,Pusat Perbelanjaan,Agen Brilink Ichiro,"Lakamola, Kec. Rote Tim., Kabupaten Rote Ndao, Nusa Tenggara Tim. 85974","Kec. Rote Tim., Kabupaten Rote Ndao",NUSA TENGGARA TIMUR,85974.0,Indonesia,82236729777.0,,,-106.361.806,123.354.464,https://maps.google.com/?cid=0x0:0x6a7f68ed83845c,
supermarket,Restoran,"The Pasar - Restaurant, Bakery, Deli","3RXF+X43, Oenggaut, Kec. Rote Bar., Kabupaten Rote Ndao, Nusa Tenggara Tim.","Kabupaten Rote Ndao, Nusa Tenggara Tim.",NUSA TENGGARA TIMUR,,Indonesia,8113855106.0,,,-109.000.775,1.228.228.119,https://maps.google.com/?cid=0x0:0xdf888e47a3d39f4f,
supermarket,Pasar,Pasar Inpres Naikoten,"RJ92+XG5, Jl. Kenari, Naikoten I, Kec. Kota Raja, Kota Kupang, Nusa Tenggara Tim. 85142","Jl. Kenari, Naikoten I, Kec. Kota Raja, Kota Kupang",NUSA TENGGARA TIMUR,85142.0,Indonesia,82129574755.0,,,-101.801.087,1.236.013.578,https://maps.google.com/?cid=0x0:0x1d6a708706633782,
supermarket,,KIOS GLORIA,"62QP+J44, Rote, Ba, Blok a, Sanggaoen, Kec. Lobalain, Kabupaten Rote Ndao, Nusa Tenggara Tim.","Kabupaten Rote Ndao, Nusa Tenggara Tim.",NUSA TENGGARA TIMUR,,Indonesia,81280240480.0,,,-107.609.752,1.230.353.288,https://maps.google.com/?cid=0x0:0x63aaef4ff2b4032c,
supermarket,Pusat Perbelanjaan,Nickh Meka parabola,"Jalan, Londalusi, Kec. Rote Tim., Kabupaten Rote Ndao, Nusa Tenggara Tim. 85974","Londalusi, Kec. Rote Tim., Kabupaten Rote Ndao",NUSA TENGGARA TIMUR,85974.0,Indonesia,82211348730.0,,,-106.216.087,1.233.829.408,https://maps.google.com/?cid=0x0:0xe1fedf870fee55c4,
supermarket,Pasar,Pasar Oebobo,"Fatululi, Kec. Oebobo, Kota Kupang, Nusa Tenggara Tim.","Kota Kupang, Nusa Tenggara Tim.",NUSA TENGGARA TIMUR,,Indonesia,,,,-101.602.132,1.236.087.636,https://maps.google.com/?cid=0x0:0x6aec122219568a6,
supermarket,Kios,Lekioen,"62VQ+CPH Depan samping smp2, Mokdale, Kec. Lobalain, Kabupaten Rote Ndao, Nusa Tenggara Tim.","Kabupaten Rote Ndao, Nusa Tenggara Tim.",NUSA TENGGARA TIMUR,,Indonesia,,,,-107.564.365,1.230.393.694,https://maps.google.com/?cid=0x0:0x8339618885d6331e,
supermarket,Kios,Kios Merlin Bakunase,"RH8Q+WQR, Air Nona, Kec. Kota Raja, Kota Kupang, Nusa Tenggara Tim.","Kota Kupang, Nusa Tenggara Tim.",NUSA TENGGARA TIMUR,,Indonesia,85253457167.0,,,-101.826.313,1.235.893.769,https://maps.google.com/?cid=0x0:0x3a8c0547ffa8fec4,
supermarket,supermarket,Toko Rote Mart,"Oebatu, Kec. Rote Bar. Daya, Kabupaten Rote Ndao, Nusa Tenggara Tim.","Kabupaten Rote Ndao, Nusa Tenggara Tim.",NUSA TENGGARA TIMUR,,Indonesia,,,,-108.072.712,1.230.102.896,https://maps.google.com/?cid=0x0:0x2d7f4e17336a2af7,
supermarket,supermarket,Kec. Rote Tim.,"Kabupaten Rote Ndao, Nusa Tenggara Tim.","Kabupaten Rote Ndao, Nusa Tenggara Tim.",NUSA TENGGARA TIMUR,,Indonesia,,,,-106.018.337,1.233.792.441,https://maps.google.com/?cid=0x0:0x20409773de900efa,
supermarket,Kios,Kios BERKAT SESAMA,"9CF2+J7, Hundi Hopo, Kec. Rote Tim., Kabupaten Rote Ndao, Nusa Tenggara Tim.","Kabupaten Rote Ndao, Nusa Tenggara Tim.",NUSA TENGGARA TIMUR,,Indonesia,,,,-106.258.989,1.234.007.442,https://maps.google.com/?cid=0x0:0x703bcf0abbfe24cf,
supermarket,Asosiasi/organisasi,ARJUNA PAPELA,"99GH+6M6, Unnamed Road, Londalusi, Kec. Rote Tim., Kabupaten Rote Ndao, Nusa Tenggara Tim.","Kabupaten Rote Ndao, Nusa Tenggara Tim.",NUSA TENGGARA TIMUR,,Indonesia,,,,-106.244.557,1.233.791.422,https://maps.google.com/?cid=0x0:0x8b72885a1b2855e5,
supermarket,Minimarket,Alfamart PAPELA,"99VJ+J3J, Londalusi, Kec. Rote Tim., Kabupaten Rote Ndao, Nusa Tenggara Tim.","Kabupaten Rote Ndao, Nusa Tenggara Tim.",NUSA TENGGARA TIMUR,,Indonesia,,,,-106.059.194,1.233.801.274,https://maps.google.com/?cid=0x0:0xecc87c118496055,
supermarket,Toko bahan makanan,Cindy lona,"88GG+W34, Desa Pengodua, Kec. Rote Tim., Kabupaten Rote Ndao, Nusa Tenggara Tim.","Kabupaten Rote Ndao, Nusa Tenggara Tim.",NUSA TENGGARA TIMUR,,Indonesia,,,,-106.729.853,1.233.249.513,https://maps.google.com/?cid=0x0:0x1a0f025e185d0f8e,
supermarket,Toko,Kios Akrab,"C92J+74P, Pelabuhan Papela, Londalusi, Kec. Rote Tim., Kabupaten Rote Ndao, Nusa Tenggara Tim.","Kabupaten Rote Ndao, Nusa Tenggara Tim.",NUSA TENGGARA TIMUR,,Indonesia,,,,-105.992.993,123.380.319,https://maps.google.com/?cid=0x0:0x8aff6d00442ee024,
supermarket,Kios,Kios Teluk Bilba. CV Teluk Bilba,"Lakamola, Kec. Rote Tim., Kabupaten Rote Ndao, Nusa Tenggara Tim.","Kabupaten Rote Ndao, Nusa Tenggara Tim.",NUSA TENGGARA TIMUR,,Indonesia,82147466787.0,,,-10.650.644,123.335.008,https://maps.google.com/?cid=0x0:0x5a29e05f8d7b3a0c,
supermarket,Toko outlet,Friko cell,"99F8+VMF, HAILEAN, Serubeba, Kec. Rote Tim., Kabupaten Rote Ndao, Nusa Tenggara Tim.","Kabupaten Rote Ndao, Nusa Tenggara Tim.",NUSA TENGGARA TIMUR,,Indonesia,,,,-106.253.155,1.233.666.567,https://maps.google.com/?cid=0x0:0x9a33dcc241c4db16,
supermarket,Toko,KIOS BERKAT (Boidanon),"Serubeba, Kec. Rote Tim., Kabupaten Rote Ndao, Nusa Tenggara Tim.","Kabupaten Rote Ndao, Nusa Tenggara Tim.",NUSA TENGGARA TIMUR,,Indonesia,81236166865.0,,,-106.058.323,123.341.265,https://maps.google.com/?cid=0x0:0xd8a8d0ff391618fa,
supermarket,Pusat Perbelanjaan,RANY CELL,"C93J+3PR, Unnamed Road, Londalusi, Kec. Rote Tim., Kabupaten Rote Ndao, Nusa Tenggara Tim.","Kabupaten Rote Ndao, Nusa Tenggara Tim.",NUSA TENGGARA TIMUR,,Indonesia,81237064828.0,,,-105.972.673,1.233.817.578,https://maps.google.com/?cid=0x0:0xbf39728287fb13d1,
supermarket,supermarket,Toko CHENWARI,"99WH+JQ3, Londalusi, Kec. Rote Tim., Kabupaten Rote Ndao, Nusa Tenggara Tim.","Kabupaten Rote Ndao, Nusa Tenggara Tim.",NUSA TENGGARA TIMUR,,Indonesia,,,,-106.034.895,1.233.794.333,https://maps.google.com/?cid=0x0:0x147bef513951cdef,
supermarket,Kios,Kios Berkat ( Gustaf Fuah ),"99F8+QP5, Serubeba, Kec. Rote Tim., Kabupaten Rote Ndao, Nusa Tenggara Tim.","Kabupaten Rote Ndao, Nusa Tenggara Tim.",NUSA TENGGARA TIMUR,,Indonesia,,,,-106.256.109,1.233.668.642,https://maps.google.com/?cid=0x0:0xc65c73cc240d0360,
supermarket,supermarket,Kios Brendy,"99FP+75, Londalusi, Kec. Rote Tim., Kabupaten Rote Ndao, Nusa Tenggara Tim.","Kabupaten Rote Ndao, Nusa Tenggara Tim.",NUSA TENGGARA TIMUR,,Indonesia,,,,-106.274.658,1.233.857.661,https://maps.google.com/?cid=0x0:0xc5ef5d2f7227c06b,
supermarket,Komplek perumahan,Sakarolu Toko dan Studio,"99XH+GM9, Unnamed Road, Londalusi, Kec. Rote Tim., Kabupaten Rote Ndao, Nusa Tenggara Tim.","Kabupaten Rote Ndao, Nusa Tenggara Tim.",NUSA TENGGARA TIMUR,,Indonesia,82145712182.0,,,-106.012.166,1.233.792.203,https://maps.google.com/?cid=0x0:0x56f42474e17a1603,
supermarket,Kios,Mabes Boidanon Rote Timur,"98RW+FQ7, Serubeba, Kec. Rote Tim., Kabupaten Rote Ndao, Nusa Tenggara Tim.","Kabupaten Rote Ndao, Nusa Tenggara Tim.",NUSA TENGGARA TIMUR,,Indonesia,,,,-106.088.428,1.233.469.351,https://maps.google.com/?cid=0x0:0x37e05f6e4afc72d1,
supermarket,Pusat Perbelanjaan,Mushab,"99XH+6HP, Londalusi, Kec. Rote Tim., Kabupaten Rote Ndao, Nusa Tenggara Tim.","Kabupaten Rote Ndao, Nusa Tenggara Tim.",NUSA TENGGARA TIMUR,,Indonesia,,,,-106.019.016,1.233.789.512,https://maps.google.com/?cid=0x0:0x289fe64db8a5bda3,
supermarket,Toko bahan makanan,Toko Dalediu,"98P2+MGG, Keoen, Kec. Pantai Baru, Kabupaten Rote Ndao, Nusa Tenggara Tim.","Kabupaten Rote Ndao, Nusa Tenggara Tim.",NUSA TENGGARA TIMUR,,Indonesia,,,,-106.133.239,1.233.013.132,https://maps.google.com/?cid=0x0:0x1cc3f1f86a60134b,
supermarket,Pusat Perbelanjaan,QINQIN Thirftshop,"Londalusi, Kec. Rote Tim., Kabupaten Rote Ndao, Nusa Tenggara Tim.","Kabupaten Rote Ndao, Nusa Tenggara Tim.",NUSA TENGGARA TIMUR,,Indonesia,82146719477.0,,,-10.620.092,1.233.812.233,https://maps.google.com/?cid=0x0:0x891d0713e49e6ad9,
supermarket,supermarket,Kec. Rote Bar.,"Kabupaten Rote Ndao, Nusa Tenggara Tim.","Kabupaten Rote Ndao, Nusa Tenggara Tim.",NUSA TENGGARA TIMUR,,Indonesia,,,,-108.858.919,1.228.260.101,https://maps.google.com/?cid=0x0:0x20873fb50a5b50f7,
supermarket,Kafe,Indika Health Store,"Jalan Raya Nemberala, Nemberala, Kec. Rote Bar., Nemberala, Nusa Tenggara Tim. 85982","Nemberala, Kec. Rote Bar., Nemberala",NUSA TENGGARA TIMUR,85982.0,Indonesia,81238572301.0,,,-108.909.115,1.228.248.746,https://maps.google.com/?cid=0x0:0x4386ef1842d69b21,
supermarket,supermarket,Anugerah Surf  Dive Resort,"Baadale, Jl. Nemberala, Nemberala, Kec. Rote Bar., Kabupaten Rote Ndao, Nusa Tenggara Tim.","Kabupaten Rote Ndao, Nusa Tenggara Tim.",NUSA TENGGARA TIMUR,,Indonesia,8113823441.0,,,-108.906.055,122.823.133,https://maps.google.com/?cid=0x0:0xa4a8ba4ea68143fc,
supermarket,supermarket,"Blu Oceano, BB, Italian Restaurant, Rote Nembrala","rw 004 rt 002, Sedeoen, Rote Barat, Rote Ndao Regency, East Nusa Tenggara 85983","Sedeoen, Rote Barat, Rote Ndao Regency",NUSA TENGGARA TIMUR,85983.0,Indonesia,82237711555.0,,,-108.792.601,1.228.298.024,https://maps.google.com/?cid=0x0:0x7b38de7c1f93b105,
supermarket,Toko Selancar,Danny's Surf Shop,"4R4F+XQX, Jalan Nemberala Baa, Nemberala, Kec. Rote Bar., Kabupaten Rote Ndao, Nusa Tenggara Tim.","Kabupaten Rote Ndao, Nusa Tenggara Tim.",NUSA TENGGARA TIMUR,,Indonesia,85239314274.0,,,-108.925.086,1.228.244.932,https://maps.google.com/?cid=0x0:0x7a1a96786c46a1b8,
supermarket,Hotel Resor,Rote Dive Adventures,"4R5C+FP2, Nemberala, Kec. Rote Bar., Kabupaten Rote Ndao, Nusa Tenggara Tim.","Kabupaten Rote Ndao, Nusa Tenggara Tim.",NUSA TENGGARA TIMUR,,Indonesia,81353343993.0,,,-108.915.631,122.823.024,https://maps.google.com/?cid=0x0:0xc4e1ee5eff22db38,
supermarket,Toko Swalayan,Melati Mart Oenggaut.,"Jalan Nemberala, Oenggaut, Rote Barat, Rote Ndao Regency, East Nusa Tenggara 85982","Oenggaut, Rote Barat, Rote Ndao Regency",NUSA TENGGARA TIMUR,85982.0,Indonesia,81236776776.0,,,-108.964.922,122.822.934,https://maps.google.com/?cid=0x0:0xc1e054f7f2c0bba1,
supermarket,Minimarket,Kios Elim,"3R8V+9MV, Unnamed Road, Boa, Kec. Rote Bar., Kabupaten Rote Ndao, Nusa Tenggara Tim.","Kabupaten Rote Ndao, Nusa Tenggara Tim.",NUSA TENGGARA TIMUR,,Indonesia,82144835950.0,,,-109.340.225,1.228.441.764,https://maps.google.com/?cid=0x0:0xd730860fa96845,
supermarket,Minimarket,Dolarosa,"4R5F+VVX, Unnamed Road, Nemberala, Kec. Rote Bar., Kabupaten Rote Ndao, Nusa Tenggara Tim.","Kabupaten Rote Ndao, Nusa Tenggara Tim.",NUSA TENGGARA TIMUR,,Indonesia,,,,-108.902.703,1.228.247.242,https://maps.google.com/?cid=0x0:0x212998d69c754fd,
supermarket,Pasar,Pasar Oenitas,"5V3G+CGX, Unnamed Road, Oenitas, Kec. Rote Bar., Kabupaten Rote Ndao, Nusa Tenggara Tim.","Kabupaten Rote Ndao, Nusa Tenggara Tim.",NUSA TENGGARA TIMUR,,Indonesia,81267108806.0,,,-108.463.775,1.228.763.588,https://maps.google.com/?cid=0x0:0xd81189962c5d3b1a,
supermarket,Toko Swalayan,Della Mart,"4R6G+G2Q, Nemberala, Kec. Rote Bar., Kabupaten Rote Ndao, Nusa Tenggara Tim.","Kabupaten Rote Ndao, Nusa Tenggara Tim.",NUSA TENGGARA TIMUR,,Indonesia,,,,-108.886.672,1.228.251.059,https://maps.google.com/?cid=0x0:0x60467c5e429f40b2,
supermarket,Toko umum,Kios sederhana,"4RMX+HJ7, Jl. Tudameda, Sedeoen, Kec. Rote Bar., Kabupaten Rote Ndao, Nusa Tenggara Tim.","Kabupaten Rote Ndao, Nusa Tenggara Tim.",NUSA TENGGARA TIMUR,,Indonesia,81246008334.0,,,-108.651.586,1.228.496.374,https://maps.google.com/?cid=0x0:0x57537a633ec3e301,
supermarket,Kios,Namolilo Mart,"Sedeoen, Kec. Rote Bar., Kabupaten Rote Ndao, Nusa Tenggara Tim. 85982","Kec. Rote Bar., Kabupaten Rote Ndao",NUSA TENGGARA TIMUR,85982.0,Indonesia,82236818915.0,,,-108.828.331,1.228.308.465,https://maps.google.com/?cid=0x0:0x46038543b74c690d,
supermarket,Komplek perumahan,Rumah Oehandi AvA,"4XR3+GFR, Oehandi, Kec. Rote Bar. Daya, Kabupaten Rote Ndao, Nusa Tenggara Tim.","Kabupaten Rote Ndao, Nusa Tenggara Tim.",NUSA TENGGARA TIMUR,,Indonesia,85238325610.0,,,-108.586.439,1.229.536.447,https://maps.google.com/?cid=0x0:0xc0a6550d0601f12d,
supermarket,Minimarket,ORAETLABORA,"5R7G+4G5, Oelolot, Kec. Rote Bar., Kabupaten Rote Ndao, Nusa Tenggara Tim.","Kabupaten Rote Ndao, Nusa Tenggara Tim.",NUSA TENGGARA TIMUR,,Indonesia,,,,-108.372.325,1.228.263.619,https://maps.google.com/?cid=0x0:0x9a5e28aaebb66d23,
supermarket,Komplek perumahan,sedeoen,"4R9J+G4F belakang pasar, Sedeoen, Kec. Rote Bar., Kabupaten Rote Ndao, Nusa Tenggara Tim.","Kabupaten Rote Ndao, Nusa Tenggara Tim.",NUSA TENGGARA TIMUR,,Indonesia,,,,-108.811.891,1.228.303.098,https://maps.google.com/?cid=0x0:0xf4e1f47570bfb5fc,
supermarket,Toko umum,Kios Faisue,"5VFP+GFP, Oebela, Kec. Rote Bar. Laut, Kabupaten Rote Ndao, Nusa Tenggara Tim.","Kabupaten Rote Ndao, Nusa Tenggara Tim.",NUSA TENGGARA TIMUR,,Indonesia,,,,-108.261.703,1.228.862.063,https://maps.google.com/?cid=0x0:0xfe2582bcfa830dd3,
supermarket,Kios,Danduper Gang,"4WP7+QR4, Lalukoen, Kec. Rote Bar. Daya, Kabupaten Rote Ndao, Nusa Tenggara Tim.","Kabupaten Rote Ndao, Nusa Tenggara Tim.",NUSA TENGGARA TIMUR,,Indonesia,,,,-108.633.687,1.229.146.015,https://maps.google.com/?cid=0x0:0xf351c31c433402d1,
supermarket,Kios,Blink,"4RPM+G53, Sedeoen, Kec. Rote Bar., Kabupaten Rote Ndao, Nusa Tenggara Tim.","Kabupaten Rote Ndao, Nusa Tenggara Tim.",NUSA TENGGARA TIMUR,,Indonesia,,,,-108.637.373,1.228.329.317,https://maps.google.com/?cid=0x0:0x9ae159838dd297f6,
supermarket,Indonesia,Queen Seafood Nemberala,"3RVF+3WC, Oenggaut, Kec. Rote Bar., Kabupaten Rote Ndao, Nusa Tenggara Tim.","Kabupaten Rote Ndao, Nusa Tenggara Tim.",NUSA TENGGARA TIMUR,,Indonesia,81339718657.0,,,-108.869.239,1.228.240.974,https://maps.google.com/?cid=0x0:0x50797594e50fd379,
supermarket,Toko umum,Abed Messah,"4XF2+FHP, Oeteffu, Kec. Rote Bar. Daya, Kabupaten Rote Ndao, Nusa Tenggara Tim.","Kabupaten Rote Ndao, Nusa Tenggara Tim.",NUSA TENGGARA TIMUR,,Indonesia,,,,-108.762.996,1.229.514.564,https://maps.google.com/?cid=0x0:0x3d0c65cf4288deab,
supermarket,Toko umum,Daud mesah,"4RMM+HPC, Sedeoen, Kec. Rote Bar., Kabupaten Rote Ndao, Nusa Tenggara Tim.","Kabupaten Rote Ndao, Nusa Tenggara Tim.",NUSA TENGGARA TIMUR,,Indonesia,,,,-108.660.633,122.834.275,https://maps.google.com/?cid=0x0:0xdc0e735f5ec1f37d,
supermarket,Minimarket,Kios Paman Jery,"4VR2+6XG, Oenale, Kec. Rote Bar., Kabupaten Rote Ndao, Nusa Tenggara Tim.","Kabupaten Rote Ndao, Nusa Tenggara Tim.",NUSA TENGGARA TIMUR,,Indonesia,,,,-108.595.213,1.228.524.812,https://maps.google.com/?cid=0x0:0x26217980d3368205,
supermarket,Toko umum,Amarasi City,"4W2M+674, Oebou, Kec. Rote Bar. Daya, Kabupaten Rote Ndao, Nusa Tenggara Tim.","Kabupaten Rote Ndao, Nusa Tenggara Tim.",NUSA TENGGARA TIMUR,,Indonesia,81340067770.0,,,-108.994.784,1.229.332.012,https://maps.google.com/?cid=0x0:0x8aac317852831aa6,
supermarket,Kios,Leoama,"5VVG+JH, Boni, Kec. Rote Bar. Laut, Kabupaten Rote Ndao, Nusa Tenggara Tim.","Kabupaten Rote Ndao, Nusa Tenggara Tim.",NUSA TENGGARA TIMUR,,Indonesia,,,,-10.804.629,122.876.738,https://maps.google.com/?cid=0x0:0x230614b633f014f4,
supermarket,,KIOS GLORIA,"62QP+J44, Rote, Ba, Blok a, Sanggaoen, Kec. Lobalain, Kabupaten Rote Ndao, Nusa Tenggara Tim.","Kabupaten Rote Ndao, Nusa Tenggara Tim.",NUSA TENGGARA TIMUR,,Indonesia,81280240480.0,,,-107.609.752,1.230.353.288,https://maps.google.com/?cid=0x0:0x63aaef4ff2b4032c,
supermarket,Toko,Kios Anugerah,"727W+XFV, Jl. Menggelama, Namodale, Kec. Lobalain, Kabupaten Rote Ndao, Nusa Tenggara Tim.","Kabupaten Rote Ndao, Nusa Tenggara Tim.",NUSA TENGGARA TIMUR,,Indonesia,,,,-107.350.158,1.230.461.589,https://maps.google.com/?cid=0x0:0x15b48f12bbb2a031,
supermarket,supermarket,Kec. Rote Bar.,"Kabupaten Rote Ndao, Nusa Tenggara Tim.","Kabupaten Rote Ndao, Nusa Tenggara Tim.",NUSA TENGGARA TIMUR,,Indonesia,,,,-108.858.919,1.228.260.101,https://maps.google.com/?cid=0x0:0x20873fb50a5b50f7,
supermarket,Toko Swalayan,Melati Mart Oenggaut.,"Jalan Nemberala, Oenggaut, Rote Barat, Rote Ndao Regency, East Nusa Tenggara 85982","Oenggaut, Rote Barat, Rote Ndao Regency",NUSA TENGGARA TIMUR,85982.0,Indonesia,81236776776.0,,,-108.964.922,122.822.934,https://maps.google.com/?cid=0x0:0xc1e054f7f2c0bba1,
supermarket,Minimarket,Dolarosa,"4R5F+VVX, Unnamed Road, Nemberala, Kec. Rote Bar., Kabupaten Rote Ndao, Nusa Tenggara Tim.","Kabupaten Rote Ndao, Nusa Tenggara Tim.",NUSA TENGGARA TIMUR,,Indonesia,,,,-108.902.703,1.228.247.242,https://maps.google.com/?cid=0x0:0x212998d69c754fd,
supermarket,Pasar,Pasar Oenitas,"5V3G+CGX, Unnamed Road, Oenitas, Kec. Rote Bar., Kabupaten Rote Ndao, Nusa Tenggara Tim.","Kabupaten Rote Ndao, Nusa Tenggara Tim.",NUSA TENGGARA TIMUR,,Indonesia,81267108806.0,,,-108.463.775,1.228.763.588,https://maps.google.com/?cid=0x0:0xd81189962c5d3b1a,
supermarket,Toko Swalayan,Della Mart,"4R6G+G2Q, Nemberala, Kec. Rote Bar., Kabupaten Rote Ndao, Nusa Tenggara Tim.","Kabupaten Rote Ndao, Nusa Tenggara Tim.",NUSA TENGGARA TIMUR,,Indonesia,,,,-108.886.672,1.228.251.059,https://maps.google.com/?cid=0x0:0x60467c5e429f40b2,
supermarket,Kios,Namolilo Mart,"Sedeoen, Kec. Rote Bar., Kabupaten Rote Ndao, Nusa Tenggara Tim. 85982","Kec. Rote Bar., Kabupaten Rote Ndao",NUSA TENGGARA TIMUR,85982.0,Indonesia,82236818915.0,,,-108.828.331,1.228.308.465,https://maps.google.com/?cid=0x0:0x46038543b74c690d,
supermarket,Toko umum,Kios sederhana,"4RMX+HJ7, Jl. Tudameda, Sedeoen, Kec. Rote Bar., Kabupaten Rote Ndao, Nusa Tenggara Tim.","Kabupaten Rote Ndao, Nusa Tenggara Tim.",NUSA TENGGARA TIMUR,,Indonesia,81246008334.0,,,-108.651.586,1.228.496.374,https://maps.google.com/?cid=0x0:0x57537a633ec3e301,
supermarket,Kafe,Indika Health Store,"Jalan Raya Nemberala, Nemberala, Kec. Rote Bar., Nemberala, Nusa Tenggara Tim. 85982","Nemberala, Kec. Rote Bar., Nemberala",NUSA TENGGARA TIMUR,85982.0,Indonesia,81238572301.0,,,-108.909.115,1.228.248.746,https://maps.google.com/?cid=0x0:0x4386ef1842d69b21,
supermarket,Komplek perumahan,Rumah Oehandi AvA,"4XR3+GFR, Oehandi, Kec. Rote Bar. Daya, Kabupaten Rote Ndao, Nusa Tenggara Tim.","Kabupaten Rote Ndao, Nusa Tenggara Tim.",NUSA TENGGARA TIMUR,,Indonesia,85238325610.0,,,-108.586.439,1.229.536.447,https://maps.google.com/?cid=0x0:0xc0a6550d0601f12d,
supermarket,Minimarket,ORAETLABORA,"5R7G+4G5, Oelolot, Kec. Rote Bar., Kabupaten Rote Ndao, Nusa Tenggara Tim.","Kabupaten Rote Ndao, Nusa Tenggara Tim.",NUSA TENGGARA TIMUR,,Indonesia,,,,-108.372.325,1.228.263.619,https://maps.google.com/?cid=0x0:0x9a5e28aaebb66d23,
supermarket,Komplek perumahan,sedeoen,"4R9J+G4F belakang pasar, Sedeoen, Kec. Rote Bar., Kabupaten Rote Ndao, Nusa Tenggara Tim.","Kabupaten Rote Ndao, Nusa Tenggara Tim.",NUSA TENGGARA TIMUR,,Indonesia,,,,-108.811.891,1.228.303.098,https://maps.google.com/?cid=0x0:0xf4e1f47570bfb5fc,
supermarket,Indonesia,Queen Seafood Nemberala,"3RVF+3WC, Oenggaut, Kec. Rote Bar., Kabupaten Rote Ndao, Nusa Tenggara Tim.","Kabupaten Rote Ndao, Nusa Tenggara Tim.",NUSA TENGGARA TIMUR,,Indonesia,81339718657.0,,,-108.869.239,1.228.240.974,https://maps.google.com/?cid=0x0:0x50797594e50fd379,
supermarket,Kios,Danduper Gang,"4WP7+QR4, Lalukoen, Kec. Rote Bar. Daya, Kabupaten Rote Ndao, Nusa Tenggara Tim.","Kabupaten Rote Ndao, Nusa Tenggara Tim.",NUSA TENGGARA TIMUR,,Indonesia,,,,-108.633.687,1.229.146.015,https://maps.google.com/?cid=0x0:0xf351c31c433402d1,
supermarket,Kios,Blink,"4RPM+G53, Sedeoen, Kec. Rote Bar., Kabupaten Rote Ndao, Nusa Tenggara Tim.","Kabupaten Rote Ndao, Nusa Tenggara Tim.",NUSA TENGGARA TIMUR,,Indonesia,,,,-108.637.373,1.228.329.317,https://maps.google.com/?cid=0x0:0x9ae159838dd297f6,
supermarket,Toko umum,Abed Messah,"4XF2+FHP, Oeteffu, Kec. Rote Bar. Daya, Kabupaten Rote Ndao, Nusa Tenggara Tim.","Kabupaten Rote Ndao, Nusa Tenggara Tim.",NUSA TENGGARA TIMUR,,Indonesia,,,,-108.762.996,1.229.514.564,https://maps.google.com/?cid=0x0:0x3d0c65cf4288deab,
supermarket,Toko umum,Amarasi City,"4W2M+674, Oebou, Kec. Rote Bar. Daya, Kabupaten Rote Ndao, Nusa Tenggara Tim.","Kabupaten Rote Ndao, Nusa Tenggara Tim.",NUSA TENGGARA TIMUR,,Indonesia,81340067770.0,,,-108.994.784,1.229.332.012,https://maps.google.com/?cid=0x0:0x8aac317852831aa6,
supermarket,Toko umum,Kios Faisue,"5VFP+GFP, Oebela, Kec. Rote Bar. Laut, Kabupaten Rote Ndao, Nusa Tenggara Tim.","Kabupaten Rote Ndao, Nusa Tenggara Tim.",NUSA TENGGARA TIMUR,,Indonesia,,,,-108.261.703,1.228.862.063,https://maps.google.com/?cid=0x0:0xfe2582bcfa830dd3,
supermarket,Toko umum,Daud mesah,"4RMM+HPC, Sedeoen, Kec. Rote Bar., Kabupaten Rote Ndao, Nusa Tenggara Tim.","Kabupaten Rote Ndao, Nusa Tenggara Tim.",NUSA TENGGARA TIMUR,,Indonesia,,,,-108.660.633,122.834.275,https://maps.google.com/?cid=0x0:0xdc0e735f5ec1f37d,
supermarket,Kios,Leoama,"5VVG+JH, Boni, Kec. Rote Bar. Laut, Kabupaten Rote Ndao, Nusa Tenggara Tim.","Kabupaten Rote Ndao, Nusa Tenggara Tim.",NUSA TENGGARA TIMUR,,Indonesia,,,,-10.804.629,122.876.738,https://maps.google.com/?cid=0x0:0x230614b633f014f4,
supermarket,Minimarket,Kios Paman Jery,"4VR2+6XG, Oenale, Kec. Rote Bar., Kabupaten Rote Ndao, Nusa Tenggara Tim.","Kabupaten Rote Ndao, Nusa Tenggara Tim.",NUSA TENGGARA TIMUR,,Indonesia,,,,-108.595.213,1.228.524.812,https://maps.google.com/?cid=0x0:0x26217980d3368205,
supermarket,Toko,Kios Moen Meto,"5VFQ+Q78 Kios Moen Meto, Oebela, Kec. Rote Bar. Laut, Kabupaten Rote Ndao, Nusa Tenggara Tim.","Kabupaten Rote Ndao, Nusa Tenggara Tim.",NUSA TENGGARA TIMUR,,Indonesia,,,,-108.255.956,1.228.881.925,https://maps.google.com/?cid=0x0:0x84aa0bfa660d60b5,
supermarket,,KIOS GLORIA,"62QP+J44, Rote, Ba, Blok a, Sanggaoen, Kec. Lobalain, Kabupaten Rote Ndao, Nusa Tenggara Tim.","Kabupaten Rote Ndao, Nusa Tenggara Tim.",NUSA TENGGARA TIMUR,,Indonesia,81280240480.0,,,-107.609.752,1.230.353.288,https://maps.google.com/?cid=0x0:0x63aaef4ff2b4032c,
supermarket,Toko,Kios Anugerah,"727W+XFV, Jl. Menggelama, Namodale, Kec. Lobalain, Kabupaten Rote Ndao, Nusa Tenggara Tim.","Kabupaten Rote Ndao, Nusa Tenggara Tim.",NUSA TENGGARA TIMUR,,Indonesia,,,,-107.350.158,1.230.461.589,https://maps.google.com/?cid=0x0:0x15b48f12bbb2a031,
supermarket,supermarket,Nusa Tenggara Tim.,,Nusa Tenggara Tim.,NUSA TENGGARA TIMUR,,Indonesia,,,,-86.573.819,1.210.793.705,https://maps.google.com/?cid=0x0:0x1030bfbcaf71ae0,
supermarket,Toko bahan makanan,Toko Murah,"Jl.pabean, Baadale, rote, Kabupaten Rote Ndao, Nusa Tenggara Tim.","Kabupaten Rote Ndao, Nusa Tenggara Tim.",NUSA TENGGARA TIMUR,,Indonesia,82237580771.0,,,-107.257.736,1.230.481.316,https://maps.google.com/?cid=0x0:0x61602f5e68355c6c,
supermarket,Toko bahan makanan,Adhy Sinlae,"6WRF+W7H, Oelua, Kec. Rote Bar. Laut, Kabupaten Rote Ndao, Nusa Tenggara Tim.","Kabupaten Rote Ndao, Nusa Tenggara Tim.",NUSA TENGGARA TIMUR,,Indonesia,81337772900.0,,,-107.576.817,1.229.232.409,https://maps.google.com/?cid=0x0:0x44f7ae42cd0835ff,
supermarket,,KIOS GLORIA,"62QP+J44, Rote, Ba, Blok a, Sanggaoen, Kec. Lobalain, Kabupaten Rote Ndao, Nusa Tenggara Tim.","Kabupaten Rote Ndao, Nusa Tenggara Tim.",NUSA TENGGARA TIMUR,,Indonesia,81280240480.0,,,-107.609.752,1.230.353.288,https://maps.google.com/?cid=0x0:0x63aaef4ff2b4032c,
supermarket,supermarket,Kec. Rote Sel.,"Kabupaten Rote Ndao, Nusa Tenggara Tim.","Kabupaten Rote Ndao, Nusa Tenggara Tim.",NUSA TENGGARA TIMUR,,Indonesia,,,,-107.849.831,1.231.594.105,https://maps.google.com/?cid=0x0:0x57324d947a721c0a,
supermarket,Sekolah,PASAR OELE,"6576+W59, Daleholu, Kec. Rote Sel., Kabupaten Rote Ndao, Nusa Tenggara Tim.","Kabupaten Rote Ndao, Nusa Tenggara Tim.",NUSA TENGGARA TIMUR,,Indonesia,,,,-107.852.125,1.231.604.789,https://maps.google.com/?cid=0x0:0x849821de8c59f8df,
supermarket,Kios,Rumah,"65J2+74P, Daleholu, Kec. Rote Sel., Kabupaten Rote Ndao, Nusa Tenggara Tim.","Kabupaten Rote Ndao, Nusa Tenggara Tim.",NUSA TENGGARA TIMUR,,Indonesia,,,,-107.692.844,1.231.503.164,https://maps.google.com/?cid=0x0:0x90afaebde1e12bfa,
supermarket,Toko,Melati Swalayan,"72FX+VCR, Metina, Kec. Lobalain, Kabupaten Rote Ndao, Nusa Tenggara Tim.","Kabupaten Rote Ndao, Nusa Tenggara Tim.",NUSA TENGGARA TIMUR,,Indonesia,,,,-107.252.561,1.230.485.289,https://maps.google.com/?cid=0x0:0x8a6acee70d95a835,
supermarket,supermarket,Rista Siokain,"Inaoe, Kec. Rote Sel., Kabupaten Rote Ndao, Nusa Tenggara Tim.","Kabupaten Rote Ndao, Nusa Tenggara Tim.",NUSA TENGGARA TIMUR,,Indonesia,,,,-108.033.266,1.231.857.514,https://maps.google.com/?cid=0x0:0x9e71721f23b842f1,
supermarket,Pusat Perbelanjaan,kios enocha,"65Q8+36F, Unnamed Road, Daleholu, Kec. Rote Sel., Kabupaten Rote Ndao, Nusa Tenggara Tim.","Kabupaten Rote Ndao, Nusa Tenggara Tim.",NUSA TENGGARA TIMUR,,Indonesia,82236196404.0,,,-107.623.007,1.231.655.465,https://maps.google.com/?cid=0x0:0x41527ad5959d58b6,
supermarket,Minimarket,DARVP MART,"6585+2QR, Daleholu, Kec. Rote Sel., Kabupaten Rote Ndao, Nusa Tenggara Tim.","Kabupaten Rote Ndao, Nusa Tenggara Tim.",NUSA TENGGARA TIMUR,,Indonesia,,,,-107.848.589,1.231.593.997,https://maps.google.com/?cid=0x0:0xeafc3a35e43d8b0c,
supermarket,Toko,Oana,"6585+2Q8, Daleholu, Kec. Rote Sel., Kabupaten Rote Ndao, Nusa Tenggara Tim.","Kabupaten Rote Ndao, Nusa Tenggara Tim.",NUSA TENGGARA TIMUR,,Indonesia,,,,-107.849.615,1.231.594.424,https://maps.google.com/?cid=0x0:0x474517910f5b9e44,
supermarket,Toko,Jermias Malelak,"65H3+CH3, Daleholu, Kec. Rote Sel., Kabupaten Rote Ndao, Nusa Tenggara Tim.","Kabupaten Rote Ndao, Nusa Tenggara Tim.",NUSA TENGGARA TIMUR,,Indonesia,82144974171.0,,,-107.714.655,1.231.538.636,https://maps.google.com/?cid=0x0:0x294639c2215b36ad,
supermarket,,Grace souk,"659M+8WP, Daleholu, Kec. Rote Sel., Kabupaten Rote Ndao, Nusa Tenggara Tim.","Kabupaten Rote Ndao, Nusa Tenggara Tim.",NUSA TENGGARA TIMUR,,Indonesia,,,,-107.816.345,1.231.848.085,https://maps.google.com/?cid=0x0:0xcb521a68e965a452,
supermarket,Kios,Imha Pingak,"6575+JR5, Oele, Daleholu, Kec. Rote Sel., Kabupaten Rote Ndao, Nusa Tenggara Tim.","Kabupaten Rote Ndao, Nusa Tenggara Tim.",NUSA TENGGARA TIMUR,,Indonesia,82146583769.0,,,-107.861.444,1.231.597.497,https://maps.google.com/?cid=0x0:0xf5c4fb49a8cd07ef,
supermarket,Toko bahan makanan,Modopedak,"644W+Q93, Kolobolon, Kec. Lobalain, Kabupaten Rote Ndao, Nusa Tenggara Tim.","Kabupaten Rote Ndao, Nusa Tenggara Tim.",NUSA TENGGARA TIMUR,,Indonesia,,,,-107.931.065,1.231.459.216,https://maps.google.com/?cid=0x0:0xe65efc3833decbe,
supermarket,Kios,Ezra pingah,"66P2+XG2, Unnamed Road, Lenguselu, Kec. Rote Sel., Kabupaten Rote Ndao, Nusa Tenggara Tim.","Kabupaten Rote Ndao, Nusa Tenggara Tim.",NUSA TENGGARA TIMUR,,Indonesia,82340287485.0,,,-107.626.138,1.232.012.521,https://maps.google.com/?cid=0x0:0x6b093c25a0b31691,
supermarket,Kios,Oana city,"6585+2QR, Oele, Daleholu, Kec. Rote Sel., Kabupaten Rote Ndao, Nusa Tenggara Tim.","Kabupaten Rote Ndao, Nusa Tenggara Tim.",NUSA TENGGARA TIMUR,,Indonesia,,,,-107.848.988,1.231.593.952,https://maps.google.com/?cid=0x0:0x6c94a9b120891df0,
supermarket,Toko Makanan,yusup malelak,"659M+8WP, Daleholu, Kec. Rote Sel., Kabupaten Rote Ndao, Nusa Tenggara Tim.","Kabupaten Rote Ndao, Nusa Tenggara Tim.",NUSA TENGGARA TIMUR,,Indonesia,,,,-107.816.702,1.231.848.186,https://maps.google.com/?cid=0x0:0x36f13eae8d0e6add,
supermarket,Pusat Perbelanjaan,KIOS RESTU IBU,"66FQ+5JG, Tebole, Kec. Rote Sel., Kabupaten Rote Ndao, Nusa Tenggara Tim.","Kabupaten Rote Ndao, Nusa Tenggara Tim.",NUSA TENGGARA TIMUR,,Indonesia,,,,-107.770.479,1.232.391.538,https://maps.google.com/?cid=0x0:0x1f748b080f390f39,
supermarket,supermarket,Rosi ndun,"664J+6J2, Tebole, Kec. Rote Sel., Kabupaten Rote Ndao, Nusa Tenggara Tim.","Kabupaten Rote Ndao, Nusa Tenggara Tim.",NUSA TENGGARA TIMUR,,Indonesia,,,,-10.794.488,1.232.315.189,https://maps.google.com/?cid=0x0:0x5f873bd0002629ec,
supermarket,Pusat Perbelanjaan,Halensi Muloko,"657F+FRC, Oele, Daleholu, Kec. Rote Sel., Kabupaten Rote Ndao, Nusa Tenggara Tim.","Kabupaten Rote Ndao, Nusa Tenggara Tim.",NUSA TENGGARA TIMUR,,Indonesia,82340287485.0,,,-107.863.154,1.231.745.097,https://maps.google.com/?cid=0x0:0xb965f000c01b5c2c,
supermarket,Dapur Umum,Toko lokal,"Balokama desa pilasue Ba'a, Nusa Tenggara Tim. 85914","Kabupaten Rote Ndao, Nusa Tenggara Tim.",NUSA TENGGARA TIMUR,,Indonesia,,,,-107.709.382,1.232.114.702,https://maps.google.com/?cid=0x0:0x4f1a5fbef75c4c06,
supermarket,supermarket,Rumah arlyn bengu,"657F+FRC, Daleholu, Kec. Rote Sel., Kabupaten Rote Ndao, Nusa Tenggara Tim.","Kabupaten Rote Ndao, Nusa Tenggara Tim.",NUSA TENGGARA TIMUR,,Indonesia,,,,-107.863.154,1.231.745.097,https://maps.google.com/?cid=0x0:0x3878f8c38d8730b0,
supermarket,Komplek perumahan,Apris Fanggidae,"65C5+9MJ, Daleholu, Kec. Rote Sel., Kabupaten Rote Ndao, Nusa Tenggara Tim.","Kabupaten Rote Ndao, Nusa Tenggara Tim.",NUSA TENGGARA TIMUR,,Indonesia,,,,-107.798.172,1.231.588.748,https://maps.google.com/?cid=0x0:0x392aaec223b393b6,
supermarket,supermarket,Kios Erma,"5MMF+42C, Ndao Nuse, Kec. Ndao Nuse, Kabupaten Rote Ndao, Nusa Tenggara Tim. 85321","Ndao Nuse, Kec. Ndao Nuse, Kabupaten Rote Ndao",NUSA TENGGARA TIMUR,85321.0,Indonesia,85156899388.0,,,-10.817.181,1.226.725.197,https://maps.google.com/?cid=0x0:0x839dd89817bd0ba2,
supermarket,Toko bahan makanan,Kios MASAGENA,"73G2+J8X, Unnamed Road, Jl. Tondao, Metina, Kec. Lobalain, Kabupaten Rote Ndao, Nusa Tenggara Tim.","Kabupaten Rote Ndao, Nusa Tenggara Tim.",NUSA TENGGARA TIMUR,,Indonesia,81337949033.0,,,-107.230.594,1.230.510.653,https://maps.google.com/?cid=0x0:0x38e027157efa9065,
supermarket,Minimarket,Antipas Battu,"5MCF+F3, Ndao Nuse, Kec. Ndao Nuse, Kabupaten Rote Ndao, Nusa Tenggara Tim.","Kabupaten Rote Ndao, Nusa Tenggara Tim.",NUSA TENGGARA TIMUR,,Indonesia,,,,-108.272.436,1.226.734.891,https://maps.google.com/?cid=0x0:0x8062d88e8696cf45,
supermarket,supermarket,Pasar Landu Leko,"C8Q7+CFC, Sotimori, Kec. Rote Tim., Kabupaten Rote Ndao, Nusa Tenggara Tim.","Kabupaten Rote Ndao, Nusa Tenggara Tim.",NUSA TENGGARA TIMUR,,Indonesia,,,,-10.561.434,1.233.136.458,https://maps.google.com/?cid=0x0:0x3bbef358c5b8b328,
supermarket,supermarket,Kec. Landu Leko,"Kabupaten Rote Ndao, Nusa Tenggara Tim.","Kabupaten Rote Ndao, Nusa Tenggara Tim.",NUSA TENGGARA TIMUR,,Indonesia,,,,-105.683.899,1.233.761.005,https://maps.google.com/?cid=0x0:0x2770e84300ca8ac7,
supermarket,supermarket,Kios Gray,"C89M+C66, Naulaor, Daiama, Kec. Landu Leko, Kabupaten Rote Ndao, Nusa Tenggara Tim.","Kabupaten Rote Ndao, Nusa Tenggara Tim.",NUSA TENGGARA TIMUR,,Indonesia,,,,-105.814.728,1.233.330.171,https://maps.google.com/?cid=0x0:0x55dbab3b5d0b6469,
supermarket,Rumah Kaca,Rumah Megi Nadek,"G9PF+68, Daiama, Kec. Landu Leko, Kabupaten Rote Ndao, Nusa Tenggara Tim.","Kabupaten Rote Ndao, Nusa Tenggara Tim.",NUSA TENGGARA TIMUR,,Indonesia,,,,-10.463.934,123.373.394,https://maps.google.com/?cid=0x0:0x837872dbaf91a68e,
supermarket,Toko umum,Demitrius forah,"C9QH+2W5, Unnamed Road, Daiama, Kec. Rote Tim., Kabupaten Rote Ndao, Nusa Tenggara Tim.","Kabupaten Rote Ndao, Nusa Tenggara Tim.",NUSA TENGGARA TIMUR,,Indonesia,,,,-105.624.963,1.233.798.441,https://maps.google.com/?cid=0x0:0x2ce43731d83f459b,
supermarket,Sekolah Menengah Pertama,SMP Negeri 1 Landu Leko,"C7QW+QQJ, Sotimori, Kec. Rote Tim., Kabupaten Rote Ndao, Nusa Tenggara Tim.","Kabupaten Rote Ndao, Nusa Tenggara Tim.",NUSA TENGGARA TIMUR,,Indonesia,,,,-105.605.464,1.232.968.844,https://maps.google.com/?cid=0x0:0xa9466b4033f78125,
supermarket,supermarket,Kios joni,"C6VR+P23, Bolatena, Kec. Rote Tim., Kabupaten Rote Ndao, Nusa Tenggara Tim.","Kabupaten Rote Ndao, Nusa Tenggara Tim.",NUSA TENGGARA TIMUR,,Indonesia,,,,-105.557.349,1.232.400.534,https://maps.google.com/?cid=0x0:0xef16df77cc536b8e,
supermarket,Toko,Kios Akrab,"C92J+74P, Pelabuhan Papela, Londalusi, Kec. Rote Tim., Kabupaten Rote Ndao, Nusa Tenggara Tim.","Kabupaten Rote Ndao, Nusa Tenggara Tim.",NUSA TENGGARA TIMUR,,Indonesia,,,,-105.992.993,123.380.319,https://maps.google.com/?cid=0x0:0x8aff6d00442ee024,
supermarket,Toko umum,Kios kharisma,"96MJ+CMF, Tesabela, Kec. Pantai Baru, Kabupaten Rote Ndao, Nusa Tenggara Tim.","Kabupaten Rote Ndao, Nusa Tenggara Tim.",NUSA TENGGARA TIMUR,,Indonesia,85239162741.0,,,-10.616.431,123.231.686,https://maps.google.com/?cid=0x0:0x8e37059caf55d823,
supermarket,Asosiasi/organisasi,ARJUNA PAPELA,"99GH+6M6, Unnamed Road, Londalusi, Kec. Rote Tim., Kabupaten Rote Ndao, Nusa Tenggara Tim.","Kabupaten Rote Ndao, Nusa Tenggara Tim.",NUSA TENGGARA TIMUR,,Indonesia,,,,-106.244.557,1.233.791.422,https://maps.google.com/?cid=0x0:0x8b72885a1b2855e5,
supermarket,Pusat Perbelanjaan,RANY CELL,"C93J+3PR, Unnamed Road, Londalusi, Kec. Rote Tim., Kabupaten Rote Ndao, Nusa Tenggara Tim.","Kabupaten Rote Ndao, Nusa Tenggara Tim.",NUSA TENGGARA TIMUR,,Indonesia,81237064828.0,,,-105.972.673,1.233.817.578,https://maps.google.com/?cid=0x0:0xbf39728287fb13d1,
supermarket,Toko outlet,Friko cell,"99F8+VMF, HAILEAN, Serubeba, Kec. Rote Tim., Kabupaten Rote Ndao, Nusa Tenggara Tim.","Kabupaten Rote Ndao, Nusa Tenggara Tim.",NUSA TENGGARA TIMUR,,Indonesia,,,,-106.253.155,1.233.666.567,https://maps.google.com/?cid=0x0:0x9a33dcc241c4db16,
supermarket,,Felesya Mini Shop,"96HJ+JHQ, Ofalangga, Kec. Pantai Baru, Kabupaten Rote Ndao, Nusa Tenggara Tim.","Kabupaten Rote Ndao, Nusa Tenggara Tim.",NUSA TENGGARA TIMUR,,Indonesia,85339428024.0,,,-106.209.216,1.232.314.887,https://maps.google.com/?cid=0x0:0xd7e62f88a88351b3,
supermarket,Toko bahan makanan,Toko Dalediu,"98P2+MGG, Keoen, Kec. Pantai Baru, Kabupaten Rote Ndao, Nusa Tenggara Tim.","Kabupaten Rote Ndao, Nusa Tenggara Tim.",NUSA TENGGARA TIMUR,,Indonesia,,,,-106.133.239,1.233.013.132,https://maps.google.com/?cid=0x0:0x1cc3f1f86a60134b,
supermarket,Minimarket,Alfamart PAPELA,"99VJ+J3J, Londalusi, Kec. Rote Tim., Kabupaten Rote Ndao, Nusa Tenggara Tim.","Kabupaten Rote Ndao, Nusa Tenggara Tim.",NUSA TENGGARA TIMUR,,Indonesia,,,,-106.059.194,1.233.801.274,https://maps.google.com/?cid=0x0:0xecc87c118496055,
supermarket,Toko umum,Toko Ramayana,"96JJ+6MC, Tesabela, Kec. Pantai Baru, Kabupaten Rote Ndao, Nusa Tenggara Tim.","Kabupaten Rote Ndao, Nusa Tenggara Tim.",NUSA TENGGARA TIMUR,,Indonesia,,,,-106.194.358,1.232.316.543,https://maps.google.com/?cid=0x0:0x6ea0dd2c0991874,
supermarket,Pusat Perbelanjaan,Mushab,"99XH+6HP, Londalusi, Kec. Rote Tim., Kabupaten Rote Ndao, Nusa Tenggara Tim.","Kabupaten Rote Ndao, Nusa Tenggara Tim.",NUSA TENGGARA TIMUR,,Indonesia,,,,-106.019.016,1.233.789.512,https://maps.google.com/?cid=0x0:0x289fe64db8a5bda3,
supermarket,Kios,Kios BERKAT SESAMA,"9CF2+J7, Hundi Hopo, Kec. Rote Tim., Kabupaten Rote Ndao, Nusa Tenggara Tim.","Kabupaten Rote Ndao, Nusa Tenggara Tim.",NUSA TENGGARA TIMUR,,Indonesia,,,,-106.258.989,1.234.007.442,https://maps.google.com/?cid=0x0:0x703bcf0abbfe24cf,
supermarket,supermarket,Dirwan lay,"C9WP+G38, Daiama, Kec. Landu Leko, Kabupaten Rote Ndao, Nusa Tenggara Tim.","Kabupaten Rote Ndao, Nusa Tenggara Tim.",NUSA TENGGARA TIMUR,,Indonesia,,,,-105.537.167,1.233.851.974,https://maps.google.com/?cid=0x0:0xf2d0cee84451717c,
supermarket,Toko,Melati Swalayan,"72FX+VCR, Metina, Kec. Lobalain, Kabupaten Rote Ndao, Nusa Tenggara Tim.","Kabupaten Rote Ndao, Nusa Tenggara Tim.",NUSA TENGGARA TIMUR,,Indonesia,,,,-107.252.561,1.230.485.289,https://maps.google.com/?cid=0x0:0x8a6acee70d95a835,
supermarket,Toko bahan makanan,Liora Minimarkett,"63W6+F6M, Mokdale, Kec. Lobalain, Kabupaten Rote Ndao, Nusa Tenggara Tim.","Kabupaten Rote Ndao, Nusa Tenggara Tim.",NUSA TENGGARA TIMUR,,Indonesia,,,,-107.537.894,1.230.605.576,https://maps.google.com/?cid=0x0:0x5b51e6d47d44f8a8,
supermarket,Toko bahan makanan,lndolik market,"Sukamulya, Kec. Rumpin, Kabupaten Bogor, Jawa Barat 16350","Kec. Rumpin, Kabupaten Bogor",NUSA TENGGARA TIMUR,16350.0,Indonesia,85217705084.0,,,-63.695.771,1.066.326.782,https://maps.google.com/?cid=0x0:0x990827b92b95ac34,
supermarket,Pasar,Pasar Pantai Baru (Pasar Senin),"96CM+P39, Olafulihaa, Kec. Pantai Baru, Kabupaten Rote Ndao, Nusa Tenggara Tim.","Kabupaten Rote Ndao, Nusa Tenggara Tim.",NUSA TENGGARA TIMUR,,Indonesia,,,,-106.282.192,1.232.327.362,https://maps.google.com/?cid=0x0:0x692a8ef8a5ee8c4,
supermarket,Kantor Pemerintahan Daerah,Kantor Desa Pukuafu,"GCH5+X72, Unnamed Road, Daiama, Rote Tim., Kabupaten Rote Ndao, Nusa Tenggara Tim.","Kabupaten Rote Ndao, Nusa Tenggara Tim.",NUSA TENGGARA TIMUR,,Indonesia,,,,-104.701.166,123.408.142,https://maps.google.com/?cid=0x0:0x501e019398d12cdc,
supermarket,Toko bahan makanan,Cindy lona,"88GG+W34, Desa Pengodua, Kec. Rote Tim., Kabupaten Rote Ndao, Nusa Tenggara Tim.","Kabupaten Rote Ndao, Nusa Tenggara Tim.",NUSA TENGGARA TIMUR,,Indonesia,,,,-106.729.853,1.233.249.513,https://maps.google.com/?cid=0x0:0x1a0f025e185d0f8e,
supermarket,Kios,Kios Teluk Bilba. CV Teluk Bilba,"Lakamola, Kec. Rote Tim., Kabupaten Rote Ndao, Nusa Tenggara Tim.","Kabupaten Rote Ndao, Nusa Tenggara Tim.",NUSA TENGGARA TIMUR,,Indonesia,82147466787.0,,,-10.650.644,123.335.008,https://maps.google.com/?cid=0x0:0x5a29e05f8d7b3a0c,
supermarket,supermarket,Kios Arona.,"99XH+8J9, Londalusi, Kec. Rote Tim., Kabupaten Rote Ndao, Nusa Tenggara Tim.","Kabupaten Rote Ndao, Nusa Tenggara Tim.",NUSA TENGGARA TIMUR,,Indonesia,,,,-106.017.129,1.233.791.042,https://maps.google.com/?cid=0x0:0x3e5b1e275617d8f,
supermarket,supermarket,Kios Elvano Pantai Baru,"96FV+8GC, Edalode, Kec. Pantai Baru, Kabupaten Rote Ndao, Nusa Tenggara Tim.","Kabupaten Rote Ndao, Nusa Tenggara Tim.",NUSA TENGGARA TIMUR,,Indonesia,,,,-106.267,1.232.437.773,https://maps.google.com/?cid=0x0:0xf0909a92514a4752,
supermarket,supermarket,Kec. Pantai Baru,"Kabupaten Rote Ndao, Nusa Tenggara Tim.","Kabupaten Rote Ndao, Nusa Tenggara Tim.",NUSA TENGGARA TIMUR,,Indonesia,,,,-107.134.149,1.232.926.241,https://maps.google.com/?cid=0x0:0x1cee30470e179e69,
supermarket,Pasar,Pasar Pantai Baru (Pasar Senin),"96CM+P39, Olafulihaa, Kec. Pantai Baru, Kabupaten Rote Ndao, Nusa Tenggara Tim.","Kabupaten Rote Ndao, Nusa Tenggara Tim.",NUSA TENGGARA TIMUR,,Indonesia,,,,-106.282.192,1.232.327.362,https://maps.google.com/?cid=0x0:0x692a8ef8a5ee8c4,
supermarket,Minimarket,ALFAMART PANTAI BARU,"96JJ+6MC, Tesabela, Kec. Pantai Baru, Kabupaten Rote Ndao, Nusa Tenggara Tim.","Kabupaten Rote Ndao, Nusa Tenggara Tim.",NUSA TENGGARA TIMUR,,Indonesia,,,,-106.194.516,12.323.194,https://maps.google.com/?cid=0x0:0x1100a7ac56877e67,
supermarket,Toko bahan makanan,KKS Cell,"Jl Pantai Baru - Ba'a, Tunganamo, Pantai Baru, Rote Ndao Regency, East Nusa Tenggara","Kabupaten Rote Ndao, Nusa Tenggara Tim.",NUSA TENGGARA TIMUR,,Indonesia,82145628123.0,,,-106.246.564,1.231.980.568,https://maps.google.com/?cid=0x0:0xe967a32960009dee,
supermarket,Toko umum,Pasar Sonimanu,"77PR+H9X, Sonimanu, Kec. Pantai Baru, Kabupaten Rote Ndao, Nusa Tenggara Tim.","Kabupaten Rote Ndao, Nusa Tenggara Tim.",NUSA TENGGARA TIMUR,,Indonesia,81246489108.0,,,-107.135.038,1.232.909.693,https://maps.google.com/?cid=0x0:0xd4a190bef232213,
supermarket,Toko umum,Thobias Mone,"Jl. Pelabuhan Pantai Baru, Olafulihaa, Kec. Pantai Baru, Kabupaten Rote Ndao, Nusa Tenggara Tim.","Kabupaten Rote Ndao, Nusa Tenggara Tim.",NUSA TENGGARA TIMUR,,Indonesia,,,,-10.629.203,123.234.269,https://maps.google.com/?cid=0x0:0xa38fae3b1c7f5c2d,
supermarket,Toko umum,Kios kharisma,"96MJ+CMF, Tesabela, Kec. Pantai Baru, Kabupaten Rote Ndao, Nusa Tenggara Tim.","Kabupaten Rote Ndao, Nusa Tenggara Tim.",NUSA TENGGARA TIMUR,,Indonesia,85239162741.0,,,-10.616.431,123.231.686,https://maps.google.com/?cid=0x0:0x8e37059caf55d823,
supermarket,Toko umum,Kios Merciani,"77PV+J2Q, Sonimanu, Kec. Pantai Baru, Kabupaten Rote Ndao, Nusa Tenggara Tim.","Kabupaten Rote Ndao, Nusa Tenggara Tim.",NUSA TENGGARA TIMUR,,Indonesia,,,,-107.133.167,1.232.929.425,https://maps.google.com/?cid=0x0:0xa9a06a834aa1d130,
supermarket,Toko,Kios Kokadale,"Tunganamo, Kec. Pantai Baru, Kabupaten Rote Ndao, Nusa Tenggara Tim.","Kabupaten Rote Ndao, Nusa Tenggara Tim.",NUSA TENGGARA TIMUR,,Indonesia,,,,-106.255.345,123.187.134,https://maps.google.com/?cid=0x0:0x1a6b99c1be72aee4,
supermarket,Toko umum,Toko Ramayana,"96JJ+6MC, Tesabela, Kec. Pantai Baru, Kabupaten Rote Ndao, Nusa Tenggara Tim.","Kabupaten Rote Ndao, Nusa Tenggara Tim.",NUSA TENGGARA TIMUR,,Indonesia,,,,-106.194.358,1.232.316.543,https://maps.google.com/?cid=0x0:0x6ea0dd2c0991874,
supermarket,Toko umum,KIOS BAPAK YOLKI,"77X2+RQP, Oebau, Kec. Pantai Baru, Kabupaten Rote Ndao, Nusa Tenggara Tim.","Kabupaten Rote Ndao, Nusa Tenggara Tim.",NUSA TENGGARA TIMUR,,Indonesia,,,,-107.004.011,1.232.519.413,https://maps.google.com/?cid=0x0:0x5bad77f27d15562,
supermarket,Toko,Toko Tira Sari,"Jl, Olafulihaa, Kec. Pantai Baru, Kabupaten Rote Ndao, Nusa Tenggara Tim.","Kabupaten Rote Ndao, Nusa Tenggara Tim.",NUSA TENGGARA TIMUR,,Indonesia,81246339675.0,,,-106.314.029,1.232.308.534,https://maps.google.com/?cid=0x0:0xbdf8ec4017cfd8d2,
supermarket,Toko umum,Kios Mercy,"864X+527, Oekima, Oebau, Kec. Pantai Baru, Kabupaten Rote Ndao, Nusa Tenggara Tim.","Kabupaten Rote Ndao, Nusa Tenggara Tim.",NUSA TENGGARA TIMUR,,Indonesia,,,,-106.945.818,1.232.475.594,https://maps.google.com/?cid=0x0:0x2313e655e7432e8,
supermarket,Toko bahan makanan,Toko Dalediu,"98P2+MGG, Keoen, Kec. Pantai Baru, Kabupaten Rote Ndao, Nusa Tenggara Tim.","Kabupaten Rote Ndao, Nusa Tenggara Tim.",NUSA TENGGARA TIMUR,,Indonesia,,,,-106.133.239,1.233.013.132,https://maps.google.com/?cid=0x0:0x1cc3f1f86a60134b,
supermarket,Toko outlet,BCL CELL,"95HV+6M3, Unnamed Road, Tunganamo, Kec. Pantai Baru, Kabupaten Rote Ndao, Nusa Tenggara Tim.","Kabupaten Rote Ndao, Nusa Tenggara Tim.",NUSA TENGGARA TIMUR,,Indonesia,81236418811.0,,,-106.219.946,123.194.174,https://maps.google.com/?cid=0x0:0xc93367df53afdac,
supermarket,Toko umum,Kios Yati,"77V6+P8F, Inguleo, Oebau, Kec. Pantai Baru, Kabupaten Rote Ndao, Nusa Tenggara Tim.","Kabupaten Rote Ndao, Nusa Tenggara Tim.",NUSA TENGGARA TIMUR,,Indonesia,,,,-107.056.834,1.232.607.912,https://maps.google.com/?cid=0x0:0xe47916436f247c53,
supermarket,Toko umum,"Kios Sahabat, Hery Lomang","77QC+PG, Oebau, Kec. Pantai Baru, Kabupaten Rote Ndao, Nusa Tenggara Tim.","Kabupaten Rote Ndao, Nusa Tenggara Tim.",NUSA TENGGARA TIMUR,,Indonesia,,,,-107.107.182,1.232.712.938,https://maps.google.com/?cid=0x0:0x8d679611e358bf2d,
supermarket,Toko outlet,Viany Cell,"969J+GCG, Unnamed Road, Olafulihaa, Kec. Pantai Baru, Kabupaten Rote Ndao, Nusa Tenggara Tim.","Kabupaten Rote Ndao, Nusa Tenggara Tim.",NUSA TENGGARA TIMUR,,Indonesia,81236033346.0,,,-106.311.899,1.232.310.688,https://maps.google.com/?cid=0x0:0x7680301b57119b35,
supermarket,Kios,Green Zippy,"95FP+869, Tunganamo, Kec. Pantai Baru, Kabupaten Rote Ndao, Nusa Tenggara Tim.","Kabupaten Rote Ndao, Nusa Tenggara Tim.",NUSA TENGGARA TIMUR,,Indonesia,,,,-106.267.097,1.231.856.022,https://maps.google.com/?cid=0x0:0xf9d2cfcaf5c0b4b4,
supermarket,Toko outlet,WINDA CELL,"95JV+HC4, Unnamed Road, Tunganamo, Kec. Pantai Baru, Kabupaten Rote Ndao, Nusa Tenggara Tim.","Kabupaten Rote Ndao, Nusa Tenggara Tim.",NUSA TENGGARA TIMUR,,Indonesia,82144227646.0,,,-106.186.152,1.231.935.689,https://maps.google.com/?cid=0x0:0xdd2b226141cdcb1e,
supermarket,Toko bahan makanan,Cindy lona,"88GG+W34, Desa Pengodua, Kec. Rote Tim., Kabupaten Rote Ndao, Nusa Tenggara Tim.","Kabupaten Rote Ndao, Nusa Tenggara Tim.",NUSA TENGGARA TIMUR,,Indonesia,,,,-106.729.853,1.233.249.513,https://maps.google.com/?cid=0x0:0x1a0f025e185d0f8e,
