Category,Real Category,Business Name,Address,City,State,Postal Code,Country,Phone,Email,Website,Latitude,Longitude,Map Link,Details Link
perumahan,Komplek perumahan,Rumah Lexy,"42R2+QV9, Dolasi, Kec. Rote Bar. Daya, Kabupaten Rote Ndao, Nusa Tenggara Tim.","Kabupaten Rote Ndao, Nusa Tenggara Tim.",NUSA TENGGARA TIMUR,,Indonesia,,,,-1.085.809,1.230.022.246,https://maps.google.com/?cid=0x0:0xaba226bdbc31b349,
perumahan,perumahan,Kec. Rote Bar. Daya,"Kabupaten Rote Ndao, Nusa Tenggara Tim.","Kabupaten Rote Ndao, Nusa Tenggara Tim.",NUSA TENGGARA TIMUR,,Indonesia,,,,-108.599.138,1.230.152.055,https://maps.google.com/?cid=0x0:0xc8d7144834ab28c0,
perumahan,Perumahan,R.B.O,"5269+X93, Mbokak, Kec. Rote Bar. Daya, Kabupaten Rote Ndao, Nusa Tenggara Tim.","Kabupaten Rote Ndao, Nusa Tenggara Tim.",NUSA TENGGARA TIMUR,,Indonesia,,,,-108.376.218,1.230.184.166,https://maps.google.com/?cid=0x0:0x1ae642508da0b6a0,
perumahan,Komplek perumahan,Mustafa Lahaya,"4XQP+PQ3, jln, Batutua, Kec. Rote Bar. Daya, Kabupaten Rote Ndao, Nusa Tenggara Tim.","Kabupaten Rote Ndao, Nusa Tenggara Tim.",NUSA TENGGARA TIMUR,,Indonesia,,,,-108.607.411,1.229.871.975,https://maps.google.com/?cid=0x0:0x356b98b1e15c8542,
perumahan,Komplek perumahan,Handende,"522F+F5, Oelasin, Kec. Rote Bar. Daya, Kabupaten Rote Ndao, Nusa Tenggara Tim.","Kabupaten Rote Ndao, Nusa Tenggara Tim.",NUSA TENGGARA TIMUR,,Indonesia,,,,-10.848.867,1.230.229.299,https://maps.google.com/?cid=0x0:0xdddd945413770b69,
perumahan,Pembangunan Perumahan,MilfanLangga,"42R7+5RM, Dolasi, Kec. Rote Bar. Daya, Kabupaten Rote Ndao, Nusa Tenggara Tim.","Kabupaten Rote Ndao, Nusa Tenggara Tim.",NUSA TENGGARA TIMUR,,Indonesia,,,,-108.584.857,1.230.147.125,https://maps.google.com/?cid=0x0:0x943c9fd65557bdfd,
perumahan,Pembangunan Perumahan,Opa Deranitan,"42Q7+72R, Dolasi, Kec. Rote Bar. Daya, Kabupaten Rote Ndao, Nusa Tenggara Tim.","Kabupaten Rote Ndao, Nusa Tenggara Tim.",NUSA TENGGARA TIMUR,,Indonesia,,,,-108.616.896,123.012.468,https://maps.google.com/?cid=0x0:0x15aa13b01e46efbb,
perumahan,Perhimpunan Pengembang Perumahan,Helena Ressie,"52Q5+VQM, Oebatu, Kec. Rote Bar. Daya, Kabupaten Rote Ndao, Nusa Tenggara Tim.","Kabupaten Rote Ndao, Nusa Tenggara Tim.",NUSA TENGGARA TIMUR,,Indonesia,,,,-108.102.987,1.230.094.275,https://maps.google.com/?cid=0x0:0x71479af2ec6560ec,
perumahan,Pembangunan Perumahan,Oebatu,"52M4+F79, Oebatu, Kec. Rote Bar. Daya, Kabupaten Rote Ndao, Nusa Tenggara Tim.","Kabupaten Rote Ndao, Nusa Tenggara Tim.",NUSA TENGGARA TIMUR,,Indonesia,,,,-108.163.426,1.230.057.261,https://maps.google.com/?cid=0x0:0x80f15ddd191d9b3a,
perumahan,Komplek perumahan,OEDALE Rumah tiga,"5XQX+H3, Oebaffok, Kec. Rote Bar. Daya, Kabupaten Rote Ndao, Nusa Tenggara Tim.","Kabupaten Rote Ndao, Nusa Tenggara Tim.",NUSA TENGGARA TIMUR,,Indonesia,,,,-108.110.148,1.229.976.581,https://maps.google.com/?cid=0x0:0x5aba18b95f7fd0b9,
perumahan,Pembangunan Perumahan,Ardi Suek,"42VR+W7J Sanama, Fuafuni, Kec. Rote Bar. Daya, Kabupaten Rote Ndao, Nusa Tenggara Tim.","Kabupaten Rote Ndao, Nusa Tenggara Tim.",NUSA TENGGARA TIMUR,,Indonesia,,,,-108.551.542,1.230.406.416,https://maps.google.com/?cid=0x0:0x14ce2700ecb97457,
perumahan,Komplek perumahan,Demsi langga,"42R7+3P8, Unnamed Road, Dolasi, Kec. Rote Bar. Daya, Kabupaten Rote Ndao, Nusa Tenggara Tim.","Kabupaten Rote Ndao, Nusa Tenggara Tim.",NUSA TENGGARA TIMUR,,Indonesia,,,,-108.598.333,1.230.143.415,https://maps.google.com/?cid=0x0:0x30fdf3831ceb2b34,
perumahan,Komplek perumahan,Mirna Nalle,"5X36+4QJ, Oehandi, Kec. Rote Bar. Daya, Kabupaten Rote Ndao, Nusa Tenggara Tim.","Kabupaten Rote Ndao, Nusa Tenggara Tim.",NUSA TENGGARA TIMUR,,Indonesia,,,,-108.471.689,1.229.618.996,https://maps.google.com/?cid=0x0:0xc6ae2a69343393f1,
perumahan,Komplek perumahan,MR. Mourist,"42RG+QMX, Unnamed Road, Oelasin, Kec. Rote Bar. Daya, Kabupaten Rote Ndao, Nusa Tenggara Tim.","Kabupaten Rote Ndao, Nusa Tenggara Tim.",NUSA TENGGARA TIMUR,,Indonesia,81246761048.0,,,-108.580.215,1.230.267.283,https://maps.google.com/?cid=0x0:0xe08f4968cc6c1682,
perumahan,Komplek perumahan,Rumah frit fora,"4XW6+657, Oehandi, Kec. Rote Bar. Daya, Kabupaten Rote Ndao, Nusa Tenggara Tim.","Kabupaten Rote Ndao, Nusa Tenggara Tim.",NUSA TENGGARA TIMUR,,Indonesia,,,,-1.085.546,1.229.602.283,https://maps.google.com/?cid=0x0:0x468a014417e1b0d0,
perumahan,Komplek perumahan,Cantika,"4XQQ+XW3 KUB Rizki Ilahi, Batutua, Kec. Rote Bar. Daya, Kabupaten Rote Ndao, Nusa Tenggara Tim.","Kabupaten Rote Ndao, Nusa Tenggara Tim.",NUSA TENGGARA TIMUR,,Indonesia,,,,-108.599.419,1.229.891.365,https://maps.google.com/?cid=0x0:0x1f112b84e08c4d42,
perumahan,Pembangunan Perumahan,Frid J. Pandie,"42QC+GPW, Oelasin, Kec. Rote Bar. Daya, Kabupaten Rote Ndao, Nusa Tenggara Tim.","Kabupaten Rote Ndao, Nusa Tenggara Tim.",NUSA TENGGARA TIMUR,,Indonesia,,,,-108.611.437,1.230.218.216,https://maps.google.com/?cid=0x0:0xc5de0caa32200ea,
perumahan,Perhimpunan Pengembang Perumahan,Mbadokai,"42RF+GP7, Fuafuni jl Lolotali sanama, Oelasin, Kec. Rote Bar. Daya, Kabupaten Rote Ndao, Nusa Tenggara Tim.","Kabupaten Rote Ndao, Nusa Tenggara Tim.",NUSA TENGGARA TIMUR,,Indonesia,,,,-10.858.708,123.024.302,https://maps.google.com/?cid=0x0:0xf30c4f8e1c636987,
perumahan,Komplek perumahan,Roi Dama,"42VJ+5JG, Sanama, Kec. Rote Bar. Daya, Kabupaten Rote Ndao, Nusa Tenggara Tim.","Kabupaten Rote Ndao, Nusa Tenggara Tim.",NUSA TENGGARA TIMUR,,Indonesia,,,,-108.570.664,1.230.315.911,https://maps.google.com/?cid=0x0:0xb10ac11e387ab931,
perumahan,perumahan,Rumah pratama,"4XWP+5F, Batutua, Kec. Rote Bar. Daya, Kabupaten Rote Ndao, Nusa Tenggara Tim.","Kabupaten Rote Ndao, Nusa Tenggara Tim.",NUSA TENGGARA TIMUR,,Indonesia,,,,-108.534.095,1.229.861.374,https://maps.google.com/?cid=0x0:0xb53cfcda2742b5d2,
perumahan,Pembangunan Perumahan,Rumah Amri Soru,"5XMJ+H5H, Oebaffok, Kec. Rote Bar. Daya, Kabupaten Rote Ndao, Nusa Tenggara Tim.","Kabupaten Rote Ndao, Nusa Tenggara Tim.",NUSA TENGGARA TIMUR,,Indonesia,,,,-108.161.725,1.229.800.999,https://maps.google.com/?cid=0x0:0xf8083ca363152509,
perumahan,Komplek perumahan,Wilvan adu,"42WH+V7H, Oelasin, Kec. Rote Bar. Daya, Kabupaten Rote Ndao, Nusa Tenggara Tim.","Kabupaten Rote Ndao, Nusa Tenggara Tim.",NUSA TENGGARA TIMUR,,Indonesia,,,,-108.528.042,1.230.282.472,https://maps.google.com/?cid=0x0:0xc8ce3ae12fdeffaa,
perumahan,Komplek perumahan,Dedi mesah,"42WC+4C8, Oelasin, Kec. Rote Bar. Daya, Kabupaten Rote Ndao, Nusa Tenggara Tim.","Kabupaten Rote Ndao, Nusa Tenggara Tim.",NUSA TENGGARA TIMUR,,Indonesia,,,,-108.541.391,1.230.202.524,https://maps.google.com/?cid=0x0:0x5e325b05baf3d6be,
perumahan,Perhimpunan Pengembang Perumahan,Posyandu PG 04,"42V7+6MF, Dolasi, Kec. Rote Bar. Daya, Kabupaten Rote Ndao, Nusa Tenggara Tim.","Kabupaten Rote Ndao, Nusa Tenggara Tim.",NUSA TENGGARA TIMUR,,Indonesia,,,,-108.569.444,1.230.141.721,https://maps.google.com/?cid=0x0:0x3974a2373d897383,
perumahan,perumahan,Kec. Rote Bar. Laut,"Kabupaten Rote Ndao, Nusa Tenggara Tim.","Kabupaten Rote Ndao, Nusa Tenggara Tim.",NUSA TENGGARA TIMUR,,Indonesia,,,,-107.597.977,1.229.182.941,https://maps.google.com/?cid=0x0:0xf1092e07a83097a2,
perumahan,perumahan,"Kab. Rote Ndao, kec. Rote barat laut, Kel. Busalangga ( Danoselik)","6X2V+QQ4, Busalangga, Kabupaten Rote Ndao, Busalangga, Danoselik, Nusa Tenggara Tim.","Danoselik, Nusa Tenggara Tim.",NUSA TENGGARA TIMUR,,Indonesia,,,,-107.981.117,1.229.944.636,https://maps.google.com/?cid=0x0:0x6c0b769b109a4c7c,
perumahan,Pembangunan Perumahan,No as,"5WXQ+8M, Temas, Kec. Rote Bar. Laut, Kabupaten Rote Ndao, Nusa Tenggara Tim.","Kabupaten Rote Ndao, Nusa Tenggara Tim.",NUSA TENGGARA TIMUR,,Indonesia,,,,-108.016.266,1.229.391.256,https://maps.google.com/?cid=0x0:0xf721bb5bdf82dc03,
perumahan,Komplek perumahan,Rumah Ronal,"5WWM+7GR, Temas, Kec. Rote Bar. Laut, Kabupaten Rote Ndao, Nusa Tenggara Tim.","Kabupaten Rote Ndao, Nusa Tenggara Tim.",NUSA TENGGARA TIMUR,,Indonesia,,,,-108.042.731,1.229.337.709,https://maps.google.com/?cid=0x0:0xbf0aad9f17192cad,
perumahan,Komplek perumahan,NIRMALA LEDOH,"6WR8+VMX, Oelua, Kec. Rote Bar. Laut, Kabupaten Rote Ndao, Nusa Tenggara Tim.","Kabupaten Rote Ndao, Nusa Tenggara Tim.",NUSA TENGGARA TIMUR,,Indonesia,82146222123.0,,,-107.577.717,1.229.167.292,https://maps.google.com/?cid=0x0:0x5d4bdf4ea5ada158,
perumahan,Pembangunan Perumahan,Oenggelak,"6XW2+JG, Netenaen, Kec. Rote Bar. Laut, Kabupaten Rote Ndao, Nusa Tenggara Tim.","Kabupaten Rote Ndao, Nusa Tenggara Tim.",NUSA TENGGARA TIMUR,,Indonesia,,,,-107.533.948,1.229.512.824,https://maps.google.com/?cid=0x0:0xd09165a2c0ede32f,
perumahan,Komplek perumahan,"Manamolo, Desa Daudolu, Rote Barat Laut","6XPC+VC4, Daudolu, Kec. Rote Bar. Laut, Kabupaten Rote Ndao, Nusa Tenggara Tim.","Kabupaten Rote Ndao, Nusa Tenggara Tim.",NUSA TENGGARA TIMUR,,Indonesia,,,,-107.628.612,1.229.710.694,https://maps.google.com/?cid=0x0:0xe9fe9d0189f29962,
perumahan,Pembangunan Perumahan,JONI M SELLY,"5WRJ+Q6, Temas, Kec. Rote Bar. Laut, Kabupaten Rote Ndao, Nusa Tenggara Tim.","Kabupaten Rote Ndao, Nusa Tenggara Tim.",NUSA TENGGARA TIMUR,,Indonesia,,,,-108.080.943,1.229.305.191,https://maps.google.com/?cid=0x0:0x90c86fe90428d329,
perumahan,Komplek perumahan,Rb,"6W8X+F2, Ingguinak, Kec. Rote Bar. Laut, Kabupaten Rote Ndao, Nusa Tenggara Tim.","Kabupaten Rote Ndao, Nusa Tenggara Tim.",NUSA TENGGARA TIMUR,,Indonesia,,,,-107.837.777,1.229.475.981,https://maps.google.com/?cid=0x0:0x2c907ca15c313405,
perumahan,Perhimpunan Pengembang Perumahan,Oelua,"6WQJ+W86, Netenaen, Kec. Rote Bar. Laut, Kabupaten Rote Ndao, Nusa Tenggara Tim.","Kabupaten Rote Ndao, Nusa Tenggara Tim.",NUSA TENGGARA TIMUR,,Indonesia,,,,-107.602.135,1.229.307.745,https://maps.google.com/?cid=0x0:0xe23b72b12ced2b7b,
perumahan,Komplek perumahan,Rmh. Chella Hello,"6X72+83V, Ingguinak, Kec. Rote Bar. Laut, Kabupaten Rote Ndao, Nusa Tenggara Tim.","Kabupaten Rote Ndao, Nusa Tenggara Tim.",NUSA TENGGARA TIMUR,,Indonesia,82145622829.0,,,-107.859.461,1.229.498.629,https://maps.google.com/?cid=0x0:0x8cc4b4c53630ed2d,
perumahan,Komplek perumahan,Rumahh Rote,"6X35+RFF, Modosinal, Kec. Rote Bar. Laut, Kabupaten Rote Ndao, Nusa Tenggara Tim.","Kabupaten Rote Ndao, Nusa Tenggara Tim.",NUSA TENGGARA TIMUR,,Indonesia,,,,-107.958.174,1.229.591.477,https://maps.google.com/?cid=0x0:0x3be428f5dab2776e,
perumahan,Komplek perumahan,Rumah Idjan Tahyas,"6WW6+PX2, Oelua, Kec. Rote Bar. Laut, Kabupaten Rote Ndao, Nusa Tenggara Tim.","Kabupaten Rote Ndao, Nusa Tenggara Tim.",NUSA TENGGARA TIMUR,,Indonesia,,,,-107.532.396,1.229.123.857,https://maps.google.com/?cid=0x0:0x2032a115a761d832,
perumahan,Komplek perumahan,Rumah Gerson Tallo,"6WVM+MJ8, Netenaen, Kec. Rote Bar. Laut, Kabupaten Rote Ndao, Nusa Tenggara Tim.","Kabupaten Rote Ndao, Nusa Tenggara Tim.",NUSA TENGGARA TIMUR,,Indonesia,,,,-107.558.573,1.229.349.585,https://maps.google.com/?cid=0x0:0x6dc0a18b19cb9c4c,
perumahan,Komplek perumahan,"Landeoe, desa modosinal kecamatan rote barat laut","6X6Q+CHM, desa, Modosinal, Kec. Rote Bar. Laut, Kabupaten Rote Ndao, Nusa Tenggara Tim.","Kabupaten Rote Ndao, Nusa Tenggara Tim.",NUSA TENGGARA TIMUR,,Indonesia,,,,-107.893.541,1.229.892.876,https://maps.google.com/?cid=0x0:0x753cdbe552983b61,
perumahan,perumahan,Lein Home,"6WR5+JW7, Oelua, Kec. Rote Bar. Laut, Kabupaten Rote Ndao, Nusa Tenggara Tim.","Kabupaten Rote Ndao, Nusa Tenggara Tim.",NUSA TENGGARA TIMUR,,Indonesia,81236463150.0,,,-107.584.551,1.229.097.923,https://maps.google.com/?cid=0x0:0xb1c85bdb92f8bc5b,
perumahan,Komplek perumahan,Ryan Home,"6X42+F4P, Ingguinak, Kec. Rote Bar. Laut, Kabupaten Rote Ndao, Nusa Tenggara Tim.","Kabupaten Rote Ndao, Nusa Tenggara Tim.",NUSA TENGGARA TIMUR,,Indonesia,,,,-107.933.349,1.229.503.536,https://maps.google.com/?cid=0x0:0x8cc174f417cb1783,
perumahan,Perhimpunan Pengembang Perumahan,SEMUEL HENUK,"6WQ6+XHH, Oelua, Kec. Rote Bar. Laut, Kabupaten Rote Ndao, Nusa Tenggara Tim.","Kabupaten Rote Ndao, Nusa Tenggara Tim.",NUSA TENGGARA TIMUR,,Indonesia,,,,-107.600.533,1.229.114.848,https://maps.google.com/?cid=0x0:0x9c0a0be6ce50e5bd,
perumahan,Pembangunan Perumahan,Backry modokh,"6XW2+JG, Netenaen, Kec. Rote Bar. Laut, Kabupaten Rote Ndao, Nusa Tenggara Tim.","Kabupaten Rote Ndao, Nusa Tenggara Tim.",NUSA TENGGARA TIMUR,,Indonesia,,,,-107.543.019,1.229.520.002,https://maps.google.com/?cid=0x0:0x8d9835510b46a424,
perumahan,Komplek perumahan,Rumah,"6WW6+589, Oelua, Kec. Rote Bar. Laut, Kabupaten Rote Ndao, Nusa Tenggara Tim.","Kabupaten Rote Ndao, Nusa Tenggara Tim.",NUSA TENGGARA TIMUR,,Indonesia,,,,-10.754.455,122.910.735,https://maps.google.com/?cid=0x0:0xfe804dfe0b8eb654,
perumahan,Komplek perumahan,Rumah Elias Tungga,"6W3V+498, Temas, Kec. Rote Bar. Laut, Kabupaten Rote Ndao, Nusa Tenggara Tim.","Kabupaten Rote Ndao, Nusa Tenggara Tim.",NUSA TENGGARA TIMUR,,Indonesia,,,,-107.962.568,1.229.432.273,https://maps.google.com/?cid=0x0:0x790b6748190b8bb9,
perumahan,Komplek perumahan,RUMAH BESAR KELUARGA HENUK(Mbaahumbuk),"6WR5+WQ4, Oelua, Kec. Rote Bar. Laut, Kabupaten Rote Ndao, Nusa Tenggara Tim.","Kabupaten Rote Ndao, Nusa Tenggara Tim.",NUSA TENGGARA TIMUR,,Indonesia,,,,-107.577.334,1.229.094.386,https://maps.google.com/?cid=0x0:0xb6cea06c8018d875,
perumahan,Inspektur Tempat Tinggal,Rumah pak NIMROT BIA oebole,"6VH7+QW7, Tolama, Kec. Rote Bar. Laut, Kabupaten Rote Ndao, Nusa Tenggara Tim.","Kabupaten Rote Ndao, Nusa Tenggara Tim.",NUSA TENGGARA TIMUR,,Indonesia,,,,-107.705.926,1.228.647.966,https://maps.google.com/?cid=0x0:0x7a876831ac58cbc2,
perumahan,Komplek perumahan,Rumah,"6295+3V7, Busalangga, Kec. Rote Bar. Laut, Kabupaten Rote Ndao, Nusa Tenggara Tim.","Kabupaten Rote Ndao, Nusa Tenggara Tim.",NUSA TENGGARA TIMUR,,Indonesia,,,,-107.823.417,1.230.096.624,https://maps.google.com/?cid=0x0:0x620504c84ce0df9,
perumahan,Komplek perumahan,Rumah Handry Henuk,"6WR5+7JP, Oelua, Kec. Rote Bar. Laut, Kabupaten Rote Ndao, Nusa Tenggara Tim.","Kabupaten Rote Ndao, Nusa Tenggara Tim.",NUSA TENGGARA TIMUR,,Indonesia,,,,-107.592.885,1.229.090.701,https://maps.google.com/?cid=0x0:0xab83538ecf38774c,
perumahan,Komplek perumahan,Lucky Home,"5WVM+WHX, Temas, Kec. Rote Bar. Laut, Kabupaten Rote Ndao, Nusa Tenggara Tim.","Kabupaten Rote Ndao, Nusa Tenggara Tim.",NUSA TENGGARA TIMUR,,Indonesia,,,,-108.051.322,1.229.339.694,https://maps.google.com/?cid=0x0:0xe4e553d987af8675,
perumahan,Gedung Apartemen,Taman laut,"7X5J+FCR, Daudolu, Kec. Rote Bar. Laut, Kabupaten Rote Ndao, Nusa Tenggara Tim.","Kabupaten Rote Ndao, Nusa Tenggara Tim.",NUSA TENGGARA TIMUR,,Indonesia,,,,-107.412.895,12.298.142,https://maps.google.com/?cid=0x0:0xaea304c040fb9afb,
perumahan,perumahan,Kec. Lobalain,"Kabupaten Rote Ndao, Nusa Tenggara Tim.","Kabupaten Rote Ndao, Nusa Tenggara Tim.",NUSA TENGGARA TIMUR,,Indonesia,,,,-107.290.879,1.230.460.405,https://maps.google.com/?cid=0x0:0x618add3ee97f8439,
perumahan,Pembangunan Perumahan,TendaPutih.,"727W+MHJ, Jl. Menggelama, Mokdale, Kec. Lobalain, Kabupaten Rote Ndao, Nusa Tenggara Tim.","Kabupaten Rote Ndao, Nusa Tenggara Tim.",NUSA TENGGARA TIMUR,,Indonesia,,,,-107.357.773,1.230.463.788,https://maps.google.com/?cid=0x0:0x180198abf30faf16,
perumahan,Pembangunan Perumahan,My home,"728P+87, Baadale, Kec. Lobalain, Kabupaten Rote Ndao, Nusa Tenggara Tim.","Kabupaten Rote Ndao, Nusa Tenggara Tim.",NUSA TENGGARA TIMUR,,Indonesia,,,,-107.341.579,1.230.356.412,https://maps.google.com/?cid=0x0:0x7e4aa1dfc37f9ac3,
perumahan,Komplek perumahan,Fm home,"72FV+2X8, Jalan sebelah kali, Namodale, Lobalain, Rote Ndao Regency, East Nusa Tenggara","Kabupaten Rote Ndao, Nusa Tenggara Tim.",NUSA TENGGARA TIMUR,,Indonesia,,,,-107.274.599,1.230.449.384,https://maps.google.com/?cid=0x0:0x699a4ba8d60d05c4,
perumahan,Komplek perumahan,Ghanng Te Maloa,"7345+QF, Oelunggu, Kec. Lobalain, Kabupaten Rote Ndao, Nusa Tenggara Tim.","Kabupaten Rote Ndao, Nusa Tenggara Tim.",NUSA TENGGARA TIMUR,,Indonesia,,,,-107.430.847,1.230.587.347,https://maps.google.com/?cid=0x0:0x563acd488844aecd,
perumahan,Pembangunan Perumahan,Letelangga üè° Yan S,"72CV+2X, Namodale, Kec. Lobalain, Kabupaten Rote Ndao, Nusa Tenggara Tim.","Kabupaten Rote Ndao, Nusa Tenggara Tim.",NUSA TENGGARA TIMUR,,Indonesia,81239616299.0,,,-107.303.146,1.230.449.032,https://maps.google.com/?cid=0x0:0xdd8fe326b51f906b,
perumahan,Perumahan,Rumah Pak Mat Anin,"722W+6G, Mokdale, Kec. Lobalain, Kabupaten Rote Ndao, Nusa Tenggara Tim.","Kabupaten Rote Ndao, Nusa Tenggara Tim.",NUSA TENGGARA TIMUR,,Indonesia,,,,-107.493.874,1.230.463.094,https://maps.google.com/?cid=0x0:0x187d16465a204b2b,
perumahan,Komplek perumahan,Rumah Tn. Ista Ambesa,"7345+QC2, Oelunggu, Kec. Lobalain, Kabupaten Rote Ndao, Nusa Tenggara Tim.","Kabupaten Rote Ndao, Nusa Tenggara Tim.",NUSA TENGGARA TIMUR,,Indonesia,,,,-107.431.246,1.230.585.087,https://maps.google.com/?cid=0x0:0xc6858793892853ba,
perumahan,Komplek perumahan,Rumah Jonas pandie,"722W+76H, Jl. Dalek Esa, Mokdale, Kec. Lobalain, Kabupaten Rote Ndao, Nusa Tenggara Tim.","Kabupaten Rote Ndao, Nusa Tenggara Tim.",NUSA TENGGARA TIMUR,,Indonesia,,,,-10.749.304,1.230.456.038,https://maps.google.com/?cid=0x0:0xa451932a52587472,
perumahan,Pembangunan Perumahan,Salmun Muskananfola,"73G2+QFJ, Metina, Kec. Lobalain, Kabupaten Rote Ndao, Nusa Tenggara Tim.","Kabupaten Rote Ndao, Nusa Tenggara Tim.",NUSA TENGGARA TIMUR,,Indonesia,,,,-107.230.348,123.051.134,https://maps.google.com/?cid=0x0:0x45852b55863f5551,
perumahan,Pembangunan Perumahan,jesiya ndun,"7392+J7G, Namodale, Kec. Lobalain, Kabupaten Rote Ndao, Nusa Tenggara Tim.","Kabupaten Rote Ndao, Nusa Tenggara Tim.",NUSA TENGGARA TIMUR,,Indonesia,,,,-107.309.254,1.230.507.015,https://maps.google.com/?cid=0x0:0x5d1278db621e472c,
perumahan,Komplek perumahan,Rumah Efraim Tule Pao,"63X3+MHW, Jl. Kunan, Mokdale, Kec. Lobalain, Kabupaten Rote Ndao, Nusa Tenggara Tim.","Kabupaten Rote Ndao, Nusa Tenggara Tim.",NUSA TENGGARA TIMUR,,Indonesia,,,,-107.508.657,1.230.539.556,https://maps.google.com/?cid=0x0:0x2207d1b7d6a0fb56,
perumahan,Komplek perumahan,RM. Mandala,"7356+7VR, Oelunggu, Kec. Lobalain, Kabupaten Rote Ndao, Nusa Tenggara Tim.","Kabupaten Rote Ndao, Nusa Tenggara Tim.",NUSA TENGGARA TIMUR,,Indonesia,,,,-107.418.037,1.230.621.364,https://maps.google.com/?cid=0x0:0xb0024172f1c34d18,
perumahan,Komplek perumahan,ùôçùô™ùô¢ùôñùôù ùôàùôñùôßùô®ùôöùô°,"7332+CR2, Lekik, Kec. Lobalain, Kabupaten Rote Ndao, Nusa Tenggara Tim.","Kabupaten Rote Ndao, Nusa Tenggara Tim.",NUSA TENGGARA TIMUR,,Indonesia,,,,-107.464.774,1.230.520.008,https://maps.google.com/?cid=0x0:0x9c378ea2ea4d38dd,
perumahan,Perhimpunan Pengembang Perumahan,Bait-R,"72CX+2F4, RT.003/RW.001, matanitan, Namodale, Kec. Lobalain, Kabupaten Rote Ndao, Nusa Tenggara Tim.","Kabupaten Rote Ndao, Nusa Tenggara Tim.",NUSA TENGGARA TIMUR,,Indonesia,,,,-107.299.785,1.230.486.882,https://maps.google.com/?cid=0x0:0x9fa6676e3ed52d7d,
perumahan,perumahan,Rumah V.I. Tolla,"73H2+F86, Metina, Kec. Lobalain, Kabupaten Rote Ndao, Nusa Tenggara Tim.","Kabupaten Rote Ndao, Nusa Tenggara Tim.",NUSA TENGGARA TIMUR,,Indonesia,,,,-10.721.336,1.230.507.558,https://maps.google.com/?cid=0x0:0x344d313d30f32c31,
perumahan,Gedung Apartemen,Merlyn Adoe,"725R+VPC, sanggaoen, Kec. Lobalain, Kabupaten Rote Ndao, Nusa Tenggara Tim.","Kabupaten Rote Ndao, Nusa Tenggara Tim.",NUSA TENGGARA TIMUR,,Indonesia,,,,-107.386.561,123.042.101,https://maps.google.com/?cid=0x0:0xda21fe1d73bfe932,
perumahan,Pembangunan Perumahan,Sambuku,"724Q+FGF, Baadale, Kec. Lobalain, Kabupaten Rote Ndao, Nusa Tenggara Tim.","Kabupaten Rote Ndao, Nusa Tenggara Tim.",NUSA TENGGARA TIMUR,,Indonesia,,,,-107.438.009,1.230.387.815,https://maps.google.com/?cid=0x0:0x4ff24cefc6f03f14,
perumahan,Komplek perumahan,Rumah,"63X4+C3Q, Mokdale, Kec. Lobalain, Kabupaten Rote Ndao, Nusa Tenggara Tim.","Kabupaten Rote Ndao, Nusa Tenggara Tim.",NUSA TENGGARA TIMUR,,Indonesia,,,,-107.514.109,1.230.552.401,https://maps.google.com/?cid=0x0:0xb6df80af1670a94c,
perumahan,Komplek perumahan,MizaMakoHome,"73C8+2JC, Oelunggu, Kec. Lobalain, Kabupaten Rote Ndao, Nusa Tenggara Tim.","Kabupaten Rote Ndao, Nusa Tenggara Tim.",NUSA TENGGARA TIMUR,,Indonesia,,,,-107.304.462,1.230.666.658,https://maps.google.com/?cid=0x0:0x888c35e3e0b88ebd,
perumahan,Komplek perumahan,Rumah Dinas BMKG Rote,"7333+74J, Jl. Lekunik, Mokdale, Kec. Lobalain, Kabupaten Rote Ndao, Nusa Tenggara Tim.","Kabupaten Rote Ndao, Nusa Tenggara Tim.",NUSA TENGGARA TIMUR,,Indonesia,,,,-107.467.752,1.230.527.647,https://maps.google.com/?cid=0x0:0x9056adbc54be8027,
perumahan,Komplek perumahan,Rumah Tn. Yudi Pandie,"7345+QF, Oelunggu, Kec. Lobalain, Kabupaten Rote Ndao, Nusa Tenggara Tim.","Kabupaten Rote Ndao, Nusa Tenggara Tim.",NUSA TENGGARA TIMUR,,Indonesia,,,,-107.435.578,1.230.586.298,https://maps.google.com/?cid=0x0:0xeaa8243d745f7324,
perumahan,Komplek perumahan,Jonas Antoni,"7333+24F, Mokdale, Kec. Lobalain, Kabupaten Rote Ndao, Nusa Tenggara Tim.","Kabupaten Rote Ndao, Nusa Tenggara Tim.",NUSA TENGGARA TIMUR,,Indonesia,,,,-107.474.766,1.230.527.725,https://maps.google.com/?cid=0x0:0xf287257127d0dd2b,
perumahan,Pembangunan Perumahan,Mp home,"73J8+5JC, Oelunggu, Kec. Lobalain, Kabupaten Rote Ndao, Nusa Tenggara Tim.","Kabupaten Rote Ndao, Nusa Tenggara Tim.",NUSA TENGGARA TIMUR,,Indonesia,,,,-107.195.576,1.230.665.298,https://maps.google.com/?cid=0x0:0x39f6252fd7d3901e,
perumahan,perumahan,Kos,"73G2+GCG, Jl. Tondao, Metina, Kec. Lobalain, Kabupaten Rote Ndao, Nusa Tenggara Tim.","Kabupaten Rote Ndao, Nusa Tenggara Tim.",NUSA TENGGARA TIMUR,,Indonesia,,,,-107.236.774,1.230.510.641,https://maps.google.com/?cid=0x0:0xc3a51c390f034063,
perumahan,Balai Kota,Ba'a,"72CW+8FR, Namodale, Pulau Rote, Kabupaten Rote Ndao, Nusa Tenggara Tim.","Kabupaten Rote Ndao, Nusa Tenggara Tim.",NUSA TENGGARA TIMUR,,Indonesia,,,,-107.291.291,1.230.461.395,https://maps.google.com/?cid=0x0:0xd56f92f258175243,
perumahan,Komplek perumahan,Rumah Novi Thonak,"724Q+J8F Sambuku, RT.004/RW.002, Baadale, Kec. Lobalain, Kabupaten Rote Ndao, Nusa Tenggara Tim.","Kabupaten Rote Ndao, Nusa Tenggara Tim.",NUSA TENGGARA TIMUR,,Indonesia,,,,-107.434.346,1.230.383.033,https://maps.google.com/?cid=0x0:0x4931f648439dd829,
perumahan,perumahan,Rumah tinggal,"62WV+76F, Jl. Baa Busalangga, Mokdale, Kec. Lobalain, Kabupaten Rote Ndao, Nusa Tenggara Tim.","Kabupaten Rote Ndao, Nusa Tenggara Tim.",NUSA TENGGARA TIMUR,,Indonesia,,,,-107.537.635,123.043.786,https://maps.google.com/?cid=0x0:0xa8ce3b8c34072244,
perumahan,Perumahan,Rmh. Pak Max Oeina,"723W+H87, Jl. Baa Busalangga, Mokdale, Kec. Lobalain, Kabupaten Rote Ndao, Nusa Tenggara Tim.","Kabupaten Rote Ndao, Nusa Tenggara Tim.",NUSA TENGGARA TIMUR,,Indonesia,,,,-107.460.971,1.230.458.112,https://maps.google.com/?cid=0x0:0x6a252e7fae96d625,
perumahan,perumahan,Kec. Lobalain,"Kabupaten Rote Ndao, Nusa Tenggara Tim.","Kabupaten Rote Ndao, Nusa Tenggara Tim.",NUSA TENGGARA TIMUR,,Indonesia,,,,-107.290.879,1.230.460.405,https://maps.google.com/?cid=0x0:0x618add3ee97f8439,
perumahan,Komplek perumahan,LOMAN,"Mokdale, Kec. Lobalain, Kabupaten Rote Ndao, Nusa Tenggara Tim.","Kabupaten Rote Ndao, Nusa Tenggara Tim.",NUSA TENGGARA TIMUR,,Indonesia,,,,-107.471.963,1.230.567.358,https://maps.google.com/?cid=0x0:0x18b40b80e79c3b02,
perumahan,Tempat Ibadah,Yayasan Rumah Lontar Nusantara,"Dusun Ndudale, Baadale, Kec. Lobalain, Kabupaten Rote Ndao, Nusa Tenggara Tim. 85912","Baadale, Kec. Lobalain, Kabupaten Rote Ndao",NUSA TENGGARA TIMUR,85912.0,Indonesia,81338886688.0,,,-10.733.326,123.035.284,https://maps.google.com/?cid=0x0:0x6d15315b07716dfb,
perumahan,Pembangunan Perumahan,Anderias Ndun,"6249+8GJ, Busalangga, Kec. Rote Bar. Laut, Kabupaten Rote Ndao, Nusa Tenggara Tim.","Kabupaten Rote Ndao, Nusa Tenggara Tim.",NUSA TENGGARA TIMUR,,Indonesia,,,,-107.939.536,1.230.184.242,https://maps.google.com/?cid=0x0:0xf91c3303b6c9ec10,
perumahan,Rumah Makan,"Rumah makan Padang SINGGALANG RAYA""","Jl. Baa Busalangga, Utomo, Mokdale, Kec. Lobalain, Kabupaten Rote Ndao, Nusa Tenggara Tim.","Kabupaten Rote Ndao, Nusa Tenggara Tim.",NUSA TENGGARA TIMUR,,Indonesia,81231482145.0,,,-107.456.972,1.230.460.428,https://maps.google.com/?cid=0x0:0x8e5c9760efd64a8c,
perumahan,Pembangunan Perumahan,PERUMAHAN FLOSINDO PERMAI,"BTN Bak Biru, Bello, Kec. Maulafa, Kota Kupang, Nusa Tenggara Tim. 85142","Bello, Kec. Maulafa, Kota Kupang",NUSA TENGGARA TIMUR,85142.0,Indonesia,85239033755.0,,,-102.094.093,1.236.250.254,https://maps.google.com/?cid=0x0:0x50630cb0afc8db0d,
perumahan,perumahan,Baadale,"Kec. Lobalain, Kabupaten Rote Ndao, Nusa Tenggara Tim.","Kabupaten Rote Ndao, Nusa Tenggara Tim.",NUSA TENGGARA TIMUR,,Indonesia,,,,-107.333.259,123.035.284,https://maps.google.com/?cid=0x0:0xae15e8f96dbb1393,
perumahan,perumahan,Mokdale,"Kec. Lobalain, Kabupaten Rote Ndao, Nusa Tenggara Tim.","Kabupaten Rote Ndao, Nusa Tenggara Tim.",NUSA TENGGARA TIMUR,,Indonesia,,,,-107.522.587,1.230.507.632,https://maps.google.com/?cid=0x0:0x2e0812d6069e6275,
perumahan,perumahan,Suelain,"Kec. Lobalain, Kabupaten Rote Ndao, Nusa Tenggara Tim.","Kabupaten Rote Ndao, Nusa Tenggara Tim.",NUSA TENGGARA TIMUR,,Indonesia,,,,-10.815.328,1.230.957.799,https://maps.google.com/?cid=0x0:0xe9b2b6de1bf2a966,
perumahan,Restoran,RM. KELAPA SATU,"73H2+G24, jl. raya ba'a, Metina, Kec. Lobalain, Kabupaten Rote Ndao, Nusa Tenggara Tim.","Kabupaten Rote Ndao, Nusa Tenggara Tim.",NUSA TENGGARA TIMUR,,Indonesia,380871165.0,,,-107.212.382,1.230.500.755,https://maps.google.com/?cid=0x0:0xcabae73cffaffa2e,
perumahan,Pembangunan Perumahan,TendaPutih.,"727W+MHJ, Jl. Menggelama, Mokdale, Kec. Lobalain, Kabupaten Rote Ndao, Nusa Tenggara Tim.","Kabupaten Rote Ndao, Nusa Tenggara Tim.",NUSA TENGGARA TIMUR,,Indonesia,,,,-107.357.773,1.230.463.788,https://maps.google.com/?cid=0x0:0x180198abf30faf16,
perumahan,Pembangunan Perumahan,My home,"728P+87, Baadale, Kec. Lobalain, Kabupaten Rote Ndao, Nusa Tenggara Tim.","Kabupaten Rote Ndao, Nusa Tenggara Tim.",NUSA TENGGARA TIMUR,,Indonesia,,,,-107.341.579,1.230.356.412,https://maps.google.com/?cid=0x0:0x7e4aa1dfc37f9ac3,
perumahan,perumahan,Rumah V.I. Tolla,"73H2+F86, Metina, Kec. Lobalain, Kabupaten Rote Ndao, Nusa Tenggara Tim.","Kabupaten Rote Ndao, Nusa Tenggara Tim.",NUSA TENGGARA TIMUR,,Indonesia,,,,-10.721.336,1.230.507.558,https://maps.google.com/?cid=0x0:0x344d313d30f32c31,
perumahan,Komplek perumahan,Fm home,"72FV+2X8, Jalan sebelah kali, Namodale, Lobalain, Rote Ndao Regency, East Nusa Tenggara","Kabupaten Rote Ndao, Nusa Tenggara Tim.",NUSA TENGGARA TIMUR,,Indonesia,,,,-107.274.599,1.230.449.384,https://maps.google.com/?cid=0x0:0x699a4ba8d60d05c4,
perumahan,Komplek perumahan,RUMAH JEMBO NDUN,"73F4+2P8, Oelunggu, Kec. Lobalain, Kabupaten Rote Ndao, Nusa Tenggara Tim.","Kabupaten Rote Ndao, Nusa Tenggara Tim.",NUSA TENGGARA TIMUR,,Indonesia,,,,-107.274.642,1.230.568.288,https://maps.google.com/?cid=0x0:0x5a8174f7a3831ec4,
perumahan,Komplek perumahan,Kampung Biru,"63X7+J3W, RT.021/RW.006, Mokdale, Kec. Lobalain, Kabupaten Rote Ndao, Nusa Tenggara Tim.","Kabupaten Rote Ndao, Nusa Tenggara Tim.",NUSA TENGGARA TIMUR,,Indonesia,81338060545.0,,,-107.508.759,1.230.627.134,https://maps.google.com/?cid=0x0:0x3a2ec6cff2f411c8,
perumahan,Komplek perumahan,Rumah Tn. Ista Ambesa,"7345+QC2, Oelunggu, Kec. Lobalain, Kabupaten Rote Ndao, Nusa Tenggara Tim.","Kabupaten Rote Ndao, Nusa Tenggara Tim.",NUSA TENGGARA TIMUR,,Indonesia,,,,-107.431.246,1.230.585.087,https://maps.google.com/?cid=0x0:0xc6858793892853ba,
perumahan,Pembangunan Perumahan,Salmun Muskananfola,"73G2+QFJ, Metina, Kec. Lobalain, Kabupaten Rote Ndao, Nusa Tenggara Tim.","Kabupaten Rote Ndao, Nusa Tenggara Tim.",NUSA TENGGARA TIMUR,,Indonesia,,,,-107.230.348,123.051.134,https://maps.google.com/?cid=0x0:0x45852b55863f5551,
perumahan,Komplek perumahan,Rumah Jonas pandie,"722W+76H, Jl. Dalek Esa, Mokdale, Kec. Lobalain, Kabupaten Rote Ndao, Nusa Tenggara Tim.","Kabupaten Rote Ndao, Nusa Tenggara Tim.",NUSA TENGGARA TIMUR,,Indonesia,,,,-10.749.304,1.230.456.038,https://maps.google.com/?cid=0x0:0xa451932a52587472,
perumahan,Pembangunan Perumahan,Letelangga üè° Yan S,"72CV+2X, Namodale, Kec. Lobalain, Kabupaten Rote Ndao, Nusa Tenggara Tim.","Kabupaten Rote Ndao, Nusa Tenggara Tim.",NUSA TENGGARA TIMUR,,Indonesia,81239616299.0,,,-107.303.146,1.230.449.032,https://maps.google.com/?cid=0x0:0xdd8fe326b51f906b,
perumahan,Komplek perumahan,Rumah Novi Thonak,"724Q+J8F Sambuku, RT.004/RW.002, Baadale, Kec. Lobalain, Kabupaten Rote Ndao, Nusa Tenggara Tim.","Kabupaten Rote Ndao, Nusa Tenggara Tim.",NUSA TENGGARA TIMUR,,Indonesia,,,,-107.434.346,1.230.383.033,https://maps.google.com/?cid=0x0:0x4931f648439dd829,
perumahan,Komplek perumahan,Rumah Efraim Tule Pao,"63X3+MHW, Jl. Kunan, Mokdale, Kec. Lobalain, Kabupaten Rote Ndao, Nusa Tenggara Tim.","Kabupaten Rote Ndao, Nusa Tenggara Tim.",NUSA TENGGARA TIMUR,,Indonesia,,,,-107.508.657,1.230.539.556,https://maps.google.com/?cid=0x0:0x2207d1b7d6a0fb56,
perumahan,Komplek perumahan,Rumah,"63X4+C3Q, Mokdale, Kec. Lobalain, Kabupaten Rote Ndao, Nusa Tenggara Tim.","Kabupaten Rote Ndao, Nusa Tenggara Tim.",NUSA TENGGARA TIMUR,,Indonesia,,,,-107.514.109,1.230.552.401,https://maps.google.com/?cid=0x0:0xb6df80af1670a94c,
perumahan,perumahan,Kos,"73G2+GCG, Jl. Tondao, Metina, Kec. Lobalain, Kabupaten Rote Ndao, Nusa Tenggara Tim.","Kabupaten Rote Ndao, Nusa Tenggara Tim.",NUSA TENGGARA TIMUR,,Indonesia,,,,-107.236.774,1.230.510.641,https://maps.google.com/?cid=0x0:0xc3a51c390f034063,
perumahan,Komplek perumahan,Rumah Jeskial Paulus,"63X2+9G6, Jalan Jamin Habid Jl. Nasedale Utara, Mokdale, Kec. Lobalain, Kabupaten Rote Ndao, Nusa Tenggara Tim.","Kabupaten Rote Ndao, Nusa Tenggara Tim.",NUSA TENGGARA TIMUR,,Indonesia,,,,-107.515.908,1.230.512.801,https://maps.google.com/?cid=0x0:0x32e8532d4d571911,
perumahan,Komplek perumahan,Rumah Tn. Yudi Pandie,"7345+QF, Oelunggu, Kec. Lobalain, Kabupaten Rote Ndao, Nusa Tenggara Tim.","Kabupaten Rote Ndao, Nusa Tenggara Tim.",NUSA TENGGARA TIMUR,,Indonesia,,,,-107.435.578,1.230.586.298,https://maps.google.com/?cid=0x0:0xeaa8243d745f7324,
perumahan,Komplek perumahan,Rumah Keluarga Lette,"728P+M47, Blok M. Matanitan, Baadale, Kec. Lobalain, Kabupaten Rote Ndao, Nusa Tenggara Tim.","Kabupaten Rote Ndao, Nusa Tenggara Tim.",NUSA TENGGARA TIMUR,,Indonesia,,,,-107.333.259,123.035.284,https://maps.google.com/?cid=0x0:0x7a7b4223986b18a6,
perumahan,Komplek perumahan,Jonas Antoni,"7333+24F, Mokdale, Kec. Lobalain, Kabupaten Rote Ndao, Nusa Tenggara Tim.","Kabupaten Rote Ndao, Nusa Tenggara Tim.",NUSA TENGGARA TIMUR,,Indonesia,,,,-107.474.766,1.230.527.725,https://maps.google.com/?cid=0x0:0xf287257127d0dd2b,
perumahan,Komplek perumahan,Rumah Dinas BMKG Rote,"7333+74J, Jl. Lekunik, Mokdale, Kec. Lobalain, Kabupaten Rote Ndao, Nusa Tenggara Tim.","Kabupaten Rote Ndao, Nusa Tenggara Tim.",NUSA TENGGARA TIMUR,,Indonesia,,,,-107.467.752,1.230.527.647,https://maps.google.com/?cid=0x0:0x9056adbc54be8027,
perumahan,perumahan,Kec. Lobalain,"Kabupaten Rote Ndao, Nusa Tenggara Tim.","Kabupaten Rote Ndao, Nusa Tenggara Tim.",NUSA TENGGARA TIMUR,,Indonesia,,,,-107.290.879,1.230.460.405,https://maps.google.com/?cid=0x0:0x618add3ee97f8439,
perumahan,Komplek perumahan,LOMAN,"Mokdale, Kec. Lobalain, Kabupaten Rote Ndao, Nusa Tenggara Tim.","Kabupaten Rote Ndao, Nusa Tenggara Tim.",NUSA TENGGARA TIMUR,,Indonesia,,,,-107.471.963,1.230.567.358,https://maps.google.com/?cid=0x0:0x18b40b80e79c3b02,
perumahan,Tempat Ibadah,Yayasan Rumah Lontar Nusantara,"Dusun Ndudale, Baadale, Kec. Lobalain, Kabupaten Rote Ndao, Nusa Tenggara Tim. 85912","Baadale, Kec. Lobalain, Kabupaten Rote Ndao",NUSA TENGGARA TIMUR,85912.0,Indonesia,81338886688.0,,,-10.733.326,123.035.284,https://maps.google.com/?cid=0x0:0x6d15315b07716dfb,
perumahan,Pembangunan Perumahan,Anderias Ndun,"6249+8GJ, Busalangga, Kec. Rote Bar. Laut, Kabupaten Rote Ndao, Nusa Tenggara Tim.","Kabupaten Rote Ndao, Nusa Tenggara Tim.",NUSA TENGGARA TIMUR,,Indonesia,,,,-107.939.536,1.230.184.242,https://maps.google.com/?cid=0x0:0xf91c3303b6c9ec10,
perumahan,Rumah Makan,"Rumah makan Padang SINGGALANG RAYA""","Jl. Baa Busalangga, Utomo, Mokdale, Kec. Lobalain, Kabupaten Rote Ndao, Nusa Tenggara Tim.","Kabupaten Rote Ndao, Nusa Tenggara Tim.",NUSA TENGGARA TIMUR,,Indonesia,81231482145.0,,,-107.456.972,1.230.460.428,https://maps.google.com/?cid=0x0:0x8e5c9760efd64a8c,
perumahan,Kedai Kopi,Cafe 777,"Metina RT. 08/03, Metina, Kec. Lobalain, Kabupaten Rote Ndao, Nusa Tenggara Tim.","Kabupaten Rote Ndao, Nusa Tenggara Tim.",NUSA TENGGARA TIMUR,,Indonesia,81236379118.0,,,-107.216.425,1.230.497.726,https://maps.google.com/?cid=0x0:0xfd4f5fe0ecc638a8,
perumahan,Pembangunan Perumahan,Perumahan Osiloa D 20,"VM2M+WQ9, Tarus, Kec. Kupang Tengah, Kabupaten Kupang, Nusa Tenggara Tim.","Kabupaten Kupang, Nusa Tenggara Tim.",NUSA TENGGARA TIMUR,,Indonesia,,,,-101.477.096,1.236.844.904,https://maps.google.com/?cid=0x0:0x2134dcbc7c2b8df0,
perumahan,Rumah Makan,Rm.lumayan 2,"722V+HPX, jln.ba'a-busalanga ,lekioen kelurahan, Mokdale, Kec. Lobalain, Kabupaten Rote Ndao, Nusa Tenggara Tim.","Kabupaten Rote Ndao, Nusa Tenggara Tim.",NUSA TENGGARA TIMUR,,Indonesia,82144673140.0,,,-107.485.073,1.230.443.678,https://maps.google.com/?cid=0x0:0xa9a6eb11a2b1588c,
perumahan,Restoran,RM. KELAPA SATU,"73H2+G24, jl. raya ba'a, Metina, Kec. Lobalain, Kabupaten Rote Ndao, Nusa Tenggara Tim.","Kabupaten Rote Ndao, Nusa Tenggara Tim.",NUSA TENGGARA TIMUR,,Indonesia,380871165.0,,,-107.212.382,1.230.500.755,https://maps.google.com/?cid=0x0:0xcabae73cffaffa2e,
perumahan,Tujuan Wisata,Mata Air Oemau,"Mokdale, Kec. Lobalain, Kabupaten Rote Ndao, Nusa Tenggara Tim. 85914","Kec. Lobalain, Kabupaten Rote Ndao",NUSA TENGGARA TIMUR,85914.0,Indonesia,,,,-107.461.244,1.230.562.347,https://maps.google.com/?cid=0x0:0xd6135c7ddfc52fcf,
perumahan,Pembangunan Perumahan,PERUMAHAN FLOSINDO PERMAI,"BTN Bak Biru, Bello, Kec. Maulafa, Kota Kupang, Nusa Tenggara Tim. 85142","Bello, Kec. Maulafa, Kota Kupang",NUSA TENGGARA TIMUR,85142.0,Indonesia,85239033755.0,,,-102.094.093,1.236.250.254,https://maps.google.com/?cid=0x0:0x50630cb0afc8db0d,
perumahan,perumahan,Baadale,"Kec. Lobalain, Kabupaten Rote Ndao, Nusa Tenggara Tim.","Kabupaten Rote Ndao, Nusa Tenggara Tim.",NUSA TENGGARA TIMUR,,Indonesia,,,,-107.333.259,123.035.284,https://maps.google.com/?cid=0x0:0xae15e8f96dbb1393,
perumahan,Pondok,Narwastu Home Stay  Hall,"Jl. Baa Busalangga, Sanggaoen, Kec. Lobalain, Kabupaten Rote Ndao, Nusa Tenggara Tim. 85918","Sanggaoen, Kec. Lobalain, Kabupaten Rote Ndao",NUSA TENGGARA TIMUR,85918.0,Indonesia,81353171111.0,,,-107.585.169,123.037.089,https://maps.google.com/?cid=0x0:0x1604b7d6575e2897,
perumahan,Pembangunan Perumahan,TendaPutih.,"727W+MHJ, Jl. Menggelama, Mokdale, Kec. Lobalain, Kabupaten Rote Ndao, Nusa Tenggara Tim.","Kabupaten Rote Ndao, Nusa Tenggara Tim.",NUSA TENGGARA TIMUR,,Indonesia,,,,-107.357.773,1.230.463.788,https://maps.google.com/?cid=0x0:0x180198abf30faf16,
perumahan,Pembangunan Perumahan,My home,"728P+87, Baadale, Kec. Lobalain, Kabupaten Rote Ndao, Nusa Tenggara Tim.","Kabupaten Rote Ndao, Nusa Tenggara Tim.",NUSA TENGGARA TIMUR,,Indonesia,,,,-107.341.579,1.230.356.412,https://maps.google.com/?cid=0x0:0x7e4aa1dfc37f9ac3,
perumahan,Pembangunan Perumahan,Mp home,"73J8+5JC, Oelunggu, Kec. Lobalain, Kabupaten Rote Ndao, Nusa Tenggara Tim.","Kabupaten Rote Ndao, Nusa Tenggara Tim.",NUSA TENGGARA TIMUR,,Indonesia,,,,-107.195.576,1.230.665.298,https://maps.google.com/?cid=0x0:0x39f6252fd7d3901e,
perumahan,Komplek perumahan,Fm home,"72FV+2X8, Jalan sebelah kali, Namodale, Lobalain, Rote Ndao Regency, East Nusa Tenggara","Kabupaten Rote Ndao, Nusa Tenggara Tim.",NUSA TENGGARA TIMUR,,Indonesia,,,,-107.274.599,1.230.449.384,https://maps.google.com/?cid=0x0:0x699a4ba8d60d05c4,
perumahan,Komplek perumahan,Rumah Tn. Ista Ambesa,"7345+QC2, Oelunggu, Kec. Lobalain, Kabupaten Rote Ndao, Nusa Tenggara Tim.","Kabupaten Rote Ndao, Nusa Tenggara Tim.",NUSA TENGGARA TIMUR,,Indonesia,,,,-107.431.246,1.230.585.087,https://maps.google.com/?cid=0x0:0xc6858793892853ba,
perumahan,Komplek perumahan,RUMAH JEMBO NDUN,"73F4+2P8, Oelunggu, Kec. Lobalain, Kabupaten Rote Ndao, Nusa Tenggara Tim.","Kabupaten Rote Ndao, Nusa Tenggara Tim.",NUSA TENGGARA TIMUR,,Indonesia,,,,-107.274.642,1.230.568.288,https://maps.google.com/?cid=0x0:0x5a8174f7a3831ec4,
perumahan,Pembangunan Perumahan,Letelangga üè° Yan S,"72CV+2X, Namodale, Kec. Lobalain, Kabupaten Rote Ndao, Nusa Tenggara Tim.","Kabupaten Rote Ndao, Nusa Tenggara Tim.",NUSA TENGGARA TIMUR,,Indonesia,81239616299.0,,,-107.303.146,1.230.449.032,https://maps.google.com/?cid=0x0:0xdd8fe326b51f906b,
perumahan,Komplek perumahan,Rumah pak maxilona,"63W2+953, Mokdale, Kec. Lobalain, Kabupaten Rote Ndao, Nusa Tenggara Tim.","Kabupaten Rote Ndao, Nusa Tenggara Tim.",NUSA TENGGARA TIMUR,,Indonesia,,,,-107.541.125,1.230.504.219,https://maps.google.com/?cid=0x0:0x2f98d34abbcdd61b,
perumahan,Pembangunan Perumahan,Salmun Muskananfola,"73G2+QFJ, Metina, Kec. Lobalain, Kabupaten Rote Ndao, Nusa Tenggara Tim.","Kabupaten Rote Ndao, Nusa Tenggara Tim.",NUSA TENGGARA TIMUR,,Indonesia,,,,-107.230.348,123.051.134,https://maps.google.com/?cid=0x0:0x45852b55863f5551,
perumahan,Komplek perumahan,Rumah Novi Thonak,"724Q+J8F Sambuku, RT.004/RW.002, Baadale, Kec. Lobalain, Kabupaten Rote Ndao, Nusa Tenggara Tim.","Kabupaten Rote Ndao, Nusa Tenggara Tim.",NUSA TENGGARA TIMUR,,Indonesia,,,,-107.434.346,1.230.383.033,https://maps.google.com/?cid=0x0:0x4931f648439dd829,
perumahan,perumahan,Rumah V.I. Tolla,"73H2+F86, Metina, Kec. Lobalain, Kabupaten Rote Ndao, Nusa Tenggara Tim.","Kabupaten Rote Ndao, Nusa Tenggara Tim.",NUSA TENGGARA TIMUR,,Indonesia,,,,-10.721.336,1.230.507.558,https://maps.google.com/?cid=0x0:0x344d313d30f32c31,
perumahan,Komplek perumahan,Rumah Efraim Tule Pao,"63X3+MHW, Jl. Kunan, Mokdale, Kec. Lobalain, Kabupaten Rote Ndao, Nusa Tenggara Tim.","Kabupaten Rote Ndao, Nusa Tenggara Tim.",NUSA TENGGARA TIMUR,,Indonesia,,,,-107.508.657,1.230.539.556,https://maps.google.com/?cid=0x0:0x2207d1b7d6a0fb56,
perumahan,Komplek perumahan,Kampung Biru,"63X7+J3W, RT.021/RW.006, Mokdale, Kec. Lobalain, Kabupaten Rote Ndao, Nusa Tenggara Tim.","Kabupaten Rote Ndao, Nusa Tenggara Tim.",NUSA TENGGARA TIMUR,,Indonesia,81338060545.0,,,-107.508.759,1.230.627.134,https://maps.google.com/?cid=0x0:0x3a2ec6cff2f411c8,
perumahan,Komplek perumahan,Rumah Tn. Yudi Pandie,"7345+QF, Oelunggu, Kec. Lobalain, Kabupaten Rote Ndao, Nusa Tenggara Tim.","Kabupaten Rote Ndao, Nusa Tenggara Tim.",NUSA TENGGARA TIMUR,,Indonesia,,,,-107.435.578,1.230.586.298,https://maps.google.com/?cid=0x0:0xeaa8243d745f7324,
perumahan,Komplek perumahan,Rumah Jonas pandie,"722W+76H, Jl. Dalek Esa, Mokdale, Kec. Lobalain, Kabupaten Rote Ndao, Nusa Tenggara Tim.","Kabupaten Rote Ndao, Nusa Tenggara Tim.",NUSA TENGGARA TIMUR,,Indonesia,,,,-10.749.304,1.230.456.038,https://maps.google.com/?cid=0x0:0xa451932a52587472,
perumahan,Komplek perumahan,Upe Bauana,"73C9+H6C, Oelunggu, Kec. Lobalain, Kabupaten Rote Ndao, Nusa Tenggara Tim.","Kabupaten Rote Ndao, Nusa Tenggara Tim.",NUSA TENGGARA TIMUR,,Indonesia,,,,-107.285.656,1.230.680.216,https://maps.google.com/?cid=0x0:0x7387462e8d940d62,
perumahan,perumahan,Kec. Lobalain,"Kabupaten Rote Ndao, Nusa Tenggara Tim.","Kabupaten Rote Ndao, Nusa Tenggara Tim.",NUSA TENGGARA TIMUR,,Indonesia,,,,-107.290.879,1.230.460.405,https://maps.google.com/?cid=0x0:0x618add3ee97f8439,
perumahan,Pembangunan Perumahan,My home,"728P+87, Baadale, Kec. Lobalain, Kabupaten Rote Ndao, Nusa Tenggara Tim.","Kabupaten Rote Ndao, Nusa Tenggara Tim.",NUSA TENGGARA TIMUR,,Indonesia,,,,-107.341.579,1.230.356.412,https://maps.google.com/?cid=0x0:0x7e4aa1dfc37f9ac3,
perumahan,Pembangunan Perumahan,TendaPutih.,"727W+MHJ, Jl. Menggelama, Mokdale, Kec. Lobalain, Kabupaten Rote Ndao, Nusa Tenggara Tim.","Kabupaten Rote Ndao, Nusa Tenggara Tim.",NUSA TENGGARA TIMUR,,Indonesia,,,,-107.357.773,1.230.463.788,https://maps.google.com/?cid=0x0:0x180198abf30faf16,
perumahan,Komplek perumahan,Fm home,"72FV+2X8, Jalan sebelah kali, Namodale, Lobalain, Rote Ndao Regency, East Nusa Tenggara","Kabupaten Rote Ndao, Nusa Tenggara Tim.",NUSA TENGGARA TIMUR,,Indonesia,,,,-107.274.599,1.230.449.384,https://maps.google.com/?cid=0x0:0x699a4ba8d60d05c4,
perumahan,perumahan,Rumah V.I. Tolla,"73H2+F86, Metina, Kec. Lobalain, Kabupaten Rote Ndao, Nusa Tenggara Tim.","Kabupaten Rote Ndao, Nusa Tenggara Tim.",NUSA TENGGARA TIMUR,,Indonesia,,,,-10.721.336,1.230.507.558,https://maps.google.com/?cid=0x0:0x344d313d30f32c31,
perumahan,Komplek perumahan,Rumah Jonas pandie,"722W+76H, Jl. Dalek Esa, Mokdale, Kec. Lobalain, Kabupaten Rote Ndao, Nusa Tenggara Tim.","Kabupaten Rote Ndao, Nusa Tenggara Tim.",NUSA TENGGARA TIMUR,,Indonesia,,,,-10.749.304,1.230.456.038,https://maps.google.com/?cid=0x0:0xa451932a52587472,
perumahan,Komplek perumahan,RUMAH JEMBO NDUN,"73F4+2P8, Oelunggu, Kec. Lobalain, Kabupaten Rote Ndao, Nusa Tenggara Tim.","Kabupaten Rote Ndao, Nusa Tenggara Tim.",NUSA TENGGARA TIMUR,,Indonesia,,,,-107.274.642,1.230.568.288,https://maps.google.com/?cid=0x0:0x5a8174f7a3831ec4,
perumahan,Komplek perumahan,Rumah Efraim Tule Pao,"63X3+MHW, Jl. Kunan, Mokdale, Kec. Lobalain, Kabupaten Rote Ndao, Nusa Tenggara Tim.","Kabupaten Rote Ndao, Nusa Tenggara Tim.",NUSA TENGGARA TIMUR,,Indonesia,,,,-107.508.657,1.230.539.556,https://maps.google.com/?cid=0x0:0x2207d1b7d6a0fb56,
perumahan,Pembangunan Perumahan,Salmun Muskananfola,"73G2+QFJ, Metina, Kec. Lobalain, Kabupaten Rote Ndao, Nusa Tenggara Tim.","Kabupaten Rote Ndao, Nusa Tenggara Tim.",NUSA TENGGARA TIMUR,,Indonesia,,,,-107.230.348,123.051.134,https://maps.google.com/?cid=0x0:0x45852b55863f5551,
perumahan,Komplek perumahan,Rumah Tn. Ista Ambesa,"7345+QC2, Oelunggu, Kec. Lobalain, Kabupaten Rote Ndao, Nusa Tenggara Tim.","Kabupaten Rote Ndao, Nusa Tenggara Tim.",NUSA TENGGARA TIMUR,,Indonesia,,,,-107.431.246,1.230.585.087,https://maps.google.com/?cid=0x0:0xc6858793892853ba,
perumahan,Komplek perumahan,Rumah Neno mali,"63W6+8H9, Mokdale, Kec. Lobalain, Kabupaten Rote Ndao, Nusa Tenggara Tim.","Kabupaten Rote Ndao, Nusa Tenggara Tim.",NUSA TENGGARA TIMUR,,Indonesia,,,,-107.523.793,1.230.623.327,https://maps.google.com/?cid=0x0:0xfb002ec6a45d0462,
perumahan,Komplek perumahan,Jonas Antoni,"7333+24F, Mokdale, Kec. Lobalain, Kabupaten Rote Ndao, Nusa Tenggara Tim.","Kabupaten Rote Ndao, Nusa Tenggara Tim.",NUSA TENGGARA TIMUR,,Indonesia,,,,-107.474.766,1.230.527.725,https://maps.google.com/?cid=0x0:0xf287257127d0dd2b,
perumahan,Pembangunan Perumahan,Letelangga üè° Yan S,"72CV+2X, Namodale, Kec. Lobalain, Kabupaten Rote Ndao, Nusa Tenggara Tim.","Kabupaten Rote Ndao, Nusa Tenggara Tim.",NUSA TENGGARA TIMUR,,Indonesia,81239616299.0,,,-107.303.146,1.230.449.032,https://maps.google.com/?cid=0x0:0xdd8fe326b51f906b,
perumahan,Komplek perumahan,Rumah Tn. Yudi Pandie,"7345+QF, Oelunggu, Kec. Lobalain, Kabupaten Rote Ndao, Nusa Tenggara Tim.","Kabupaten Rote Ndao, Nusa Tenggara Tim.",NUSA TENGGARA TIMUR,,Indonesia,,,,-107.435.578,1.230.586.298,https://maps.google.com/?cid=0x0:0xeaa8243d745f7324,
perumahan,Komplek perumahan,Rumah Z.Y. Solokana,"73H2+G4J, Metina, Kec. Lobalain, Kabupaten Rote Ndao, Nusa Tenggara Tim.","Kabupaten Rote Ndao, Nusa Tenggara Tim.",NUSA TENGGARA TIMUR,,Indonesia,,,,-107.213.737,1.230.508.191,https://maps.google.com/?cid=0x0:0xf8a871cb3c14fbdc,
perumahan,Perhimpunan Pengembang Perumahan,Bait-R,"72CX+2F4, RT.003/RW.001, matanitan, Namodale, Kec. Lobalain, Kabupaten Rote Ndao, Nusa Tenggara Tim.","Kabupaten Rote Ndao, Nusa Tenggara Tim.",NUSA TENGGARA TIMUR,,Indonesia,,,,-107.299.785,1.230.486.882,https://maps.google.com/?cid=0x0:0x9fa6676e3ed52d7d,
perumahan,Komplek perumahan,Daniel mbone,"Jl. Abri Jl. Nasedale Barat, Mokdale, Kec. Lobalain, Kabupaten Rote Ndao, Nusa Tenggara Tim.","Kabupaten Rote Ndao, Nusa Tenggara Tim.",NUSA TENGGARA TIMUR,,Indonesia,,,,-107.539.604,1.230.499.986,https://maps.google.com/?cid=0x0:0x75f2b77df42b4d26,
perumahan,Komplek perumahan,Rumah Novi Thonak,"724Q+J8F Sambuku, RT.004/RW.002, Baadale, Kec. Lobalain, Kabupaten Rote Ndao, Nusa Tenggara Tim.","Kabupaten Rote Ndao, Nusa Tenggara Tim.",NUSA TENGGARA TIMUR,,Indonesia,,,,-107.434.346,1.230.383.033,https://maps.google.com/?cid=0x0:0x4931f648439dd829,
perumahan,Komplek perumahan,Rumah,"63X4+C3Q, Mokdale, Kec. Lobalain, Kabupaten Rote Ndao, Nusa Tenggara Tim.","Kabupaten Rote Ndao, Nusa Tenggara Tim.",NUSA TENGGARA TIMUR,,Indonesia,,,,-107.514.109,1.230.552.401,https://maps.google.com/?cid=0x0:0xb6df80af1670a94c,
perumahan,Komplek perumahan,Rumah fajrid,"72FV+7M6, Namodale, Kec. Lobalain, Kabupaten Rote Ndao, Nusa Tenggara Tim.","Kabupaten Rote Ndao, Nusa Tenggara Tim.",NUSA TENGGARA TIMUR,,Indonesia,,,,-107.269.862,1.230.442.421,https://maps.google.com/?cid=0x0:0xbdea09908d59514c,
perumahan,Komplek perumahan,Rumah pak maxilona,"63W2+953, Mokdale, Kec. Lobalain, Kabupaten Rote Ndao, Nusa Tenggara Tim.","Kabupaten Rote Ndao, Nusa Tenggara Tim.",NUSA TENGGARA TIMUR,,Indonesia,,,,-107.541.125,1.230.504.219,https://maps.google.com/?cid=0x0:0x2f98d34abbcdd61b,
perumahan,Komplek perumahan,Rumah Meta Sinlaeloe,"62WR+R8V, Mokdale, Kec. Lobalain, Kabupaten Rote Ndao, Nusa Tenggara Tim.","Kabupaten Rote Ndao, Nusa Tenggara Tim.",NUSA TENGGARA TIMUR,,Indonesia,,,,-107.526.154,1.230.409.688,https://maps.google.com/?cid=0x0:0x9a1dd87552649a58,
perumahan,Pembangunan Perumahan,jesiya ndun,"7392+J7G, Namodale, Kec. Lobalain, Kabupaten Rote Ndao, Nusa Tenggara Tim.","Kabupaten Rote Ndao, Nusa Tenggara Tim.",NUSA TENGGARA TIMUR,,Indonesia,,,,-107.309.254,1.230.507.015,https://maps.google.com/?cid=0x0:0x5d1278db621e472c,
perumahan,Komplek perumahan,Bapak Meslik Panie,"7377+4VR, Lekik, Kec. Lobalain, Kabupaten Rote Ndao, Nusa Tenggara Tim.","Kabupaten Rote Ndao, Nusa Tenggara Tim.",NUSA TENGGARA TIMUR,,Indonesia,,,,-107.371.384,1.230.646.426,https://maps.google.com/?cid=0x0:0xce34b8bb51d4b863,
perumahan,perumahan,Kos,"73G2+GCG, Jl. Tondao, Metina, Kec. Lobalain, Kabupaten Rote Ndao, Nusa Tenggara Tim.","Kabupaten Rote Ndao, Nusa Tenggara Tim.",NUSA TENGGARA TIMUR,,Indonesia,,,,-107.236.774,1.230.510.641,https://maps.google.com/?cid=0x0:0xc3a51c390f034063,
perumahan,Komplek perumahan,Rumah Nelly Thonak,"724Q+FCW, Jl.Balai Benih Utama Pertanian, Buisan Sambuku, Kec. Lobalain, Kabupaten Rote Ndao, Nusa Tenggara Tim.","Kabupaten Rote Ndao, Nusa Tenggara Tim.",NUSA TENGGARA TIMUR,,Indonesia,,,,-107.437.694,1.230.385.926,https://maps.google.com/?cid=0x0:0xebefe75f236de554,
perumahan,Perumahan,Rmh. Pak Max Oeina,"723W+H87, Jl. Baa Busalangga, Mokdale, Kec. Lobalain, Kabupaten Rote Ndao, Nusa Tenggara Tim.","Kabupaten Rote Ndao, Nusa Tenggara Tim.",NUSA TENGGARA TIMUR,,Indonesia,,,,-107.460.971,1.230.458.112,https://maps.google.com/?cid=0x0:0x6a252e7fae96d625,
perumahan,Balai Kota,Ba'a,"72CW+8FR, Namodale, Pulau Rote, Kabupaten Rote Ndao, Nusa Tenggara Tim.","Kabupaten Rote Ndao, Nusa Tenggara Tim.",NUSA TENGGARA TIMUR,,Indonesia,,,,-107.291.291,1.230.461.395,https://maps.google.com/?cid=0x0:0xd56f92f258175243,
perumahan,perumahan,Rumah tinggal,"62WV+76F, Jl. Baa Busalangga, Mokdale, Kec. Lobalain, Kabupaten Rote Ndao, Nusa Tenggara Tim.","Kabupaten Rote Ndao, Nusa Tenggara Tim.",NUSA TENGGARA TIMUR,,Indonesia,,,,-107.537.635,123.043.786,https://maps.google.com/?cid=0x0:0xa8ce3b8c34072244,
perumahan,perumahan,Kec. Rote Tengah,"Kabupaten Rote Ndao, Nusa Tenggara Tim.","Kabupaten Rote Ndao, Nusa Tenggara Tim.",NUSA TENGGARA TIMUR,,Indonesia,,,,-106.702.912,1.231.279.559,https://maps.google.com/?cid=0x0:0x44ac523cb3546567,
perumahan,Komplek perumahan,M Z Bulan,"85R2+3CX, Nggodimeda, Kec. Rote Tengah, Kabupaten Rote Ndao, Nusa Tenggara Tim.","Kabupaten Rote Ndao, Nusa Tenggara Tim.",NUSA TENGGARA TIMUR,,Indonesia,,,,-10.659.773,1.231.510.959,https://maps.google.com/?cid=0x0:0x32cb3da41f7554f6,
perumahan,Komplek perumahan,Yude,"84F6+4X8, Onotali, Kec. Rote Tengah, Kabupaten Rote Ndao, Nusa Tenggara Tim.","Kabupaten Rote Ndao, Nusa Tenggara Tim.",NUSA TENGGARA TIMUR,,Indonesia,,,,-106.772.005,1.231.124.581,https://maps.google.com/?cid=0x0:0xae4eacdeb665f24d,
perumahan,Komplek perumahan,RUMAH WANDY ADU,"75C3+PM, Lidamanu, Kec. Rote Tengah, Kabupaten Rote Ndao, Nusa Tenggara Tim.","Kabupaten Rote Ndao, Nusa Tenggara Tim.",NUSA TENGGARA TIMUR,,Indonesia,81883417680.0,,,-107.284.224,1.231.551.139,https://maps.google.com/?cid=0x0:0x2dabf8e8156aef24,
perumahan,Komplek perumahan,Rumah Alexsander Ngik,"Rt 003/Rw 001, block'm, Kabupaten Rote Ndao","Kabupaten Rote Ndao, Nusa Tenggara Tim.",NUSA TENGGARA TIMUR,,Indonesia,81381469963.0,,,-10.686.076,123.110.583,https://maps.google.com/?cid=0x0:0x6520926e58ea7750,
perumahan,Komplek perumahan,Rk home,"73VF+3C6, Maubesi, Kec. Rote Tengah, Kabupaten Rote Ndao, Nusa Tenggara Tim.","Kabupaten Rote Ndao, Nusa Tenggara Tim.",NUSA TENGGARA TIMUR,,Indonesia,,,,-107.073.381,1.230.735.144,https://maps.google.com/?cid=0x0:0x20ca474309158354,
perumahan,Komplek perumahan,Onatali,"84C6+Q8X, Onotali, Kec. Rote Tengah, Kabupaten Rote Ndao, Nusa Tenggara Tim.","Kabupaten Rote Ndao, Nusa Tenggara Tim.",NUSA TENGGARA TIMUR,,Indonesia,,,,-106.780.325,1.231.108.723,https://maps.google.com/?cid=0x0:0x746ca96642094b8d,
perumahan,Komplek perumahan,Yanto Nggie,"8424+PCC, Lidabesi, Kec. Rote Tengah, Kabupaten Rote Ndao, Nusa Tenggara Tim.","Kabupaten Rote Ndao, Nusa Tenggara Tim.",NUSA TENGGARA TIMUR,,Indonesia,,,,-106.981.757,12.310.601,https://maps.google.com/?cid=0x0:0xda483f61eb8402fb,
perumahan,Komplek perumahan,Rumah,"85P3+6X, Nggodimeda, Kec. Rote Tengah, Kabupaten Rote Ndao, Nusa Tenggara Tim.","Kabupaten Rote Ndao, Nusa Tenggara Tim.",NUSA TENGGARA TIMUR,,Indonesia,,,,-10.665.074,123.156.008,https://maps.google.com/?cid=0x0:0x74f08536767f1e3d,
perumahan,Komplek perumahan,Rinto soludale,"64V5+C45, Maubesi, Kec. Rote Tengah, Kabupaten Rote Ndao, Nusa Tenggara Tim.","Kabupaten Rote Ndao, Nusa Tenggara Tim.",NUSA TENGGARA TIMUR,,Indonesia,,,,-107.564.841,1.231.078.637,https://maps.google.com/?cid=0x0:0x542afa8fa53e1f2d,
perumahan,Komplek perumahan,Daud Mandala,"64WP+2F, Lidamanu, Kec. Rote Tengah, Kabupaten Rote Ndao, Nusa Tenggara Tim.","Kabupaten Rote Ndao, Nusa Tenggara Tim.",NUSA TENGGARA TIMUR,,Indonesia,,,,-107.553.836,1.231.371.226,https://maps.google.com/?cid=0x0:0xac265c5ccab848a0,
perumahan,Komplek perumahan,rumah charlene.A,"746F+GHR, Lidamanu, Kec. Rote Tengah, Kabupaten Rote Ndao, Nusa Tenggara Tim.","Kabupaten Rote Ndao, Nusa Tenggara Tim.",NUSA TENGGARA TIMUR,,Indonesia,,,,-107.386.421,1.231.239.049,https://maps.google.com/?cid=0x0:0x7a7c7ca03cecd464,
perumahan,Pembangunan Perumahan,KAMPUNG BARU,"746F+GHR, Lidamanu, Kec. Rote Tengah, Kabupaten Rote Ndao, Nusa Tenggara Tim.","Kabupaten Rote Ndao, Nusa Tenggara Tim.",NUSA TENGGARA TIMUR,,Indonesia,,,,-107.386.421,1.231.239.049,https://maps.google.com/?cid=0x0:0xc5ba4d56c0aeef44,
perumahan,Pembangunan Perumahan,A.Bessie,"746F+GHR, n, Lidamanu, Kec. Rote Tengah, Kabupaten Rote Ndao, Nusa Tenggara Tim.","Kabupaten Rote Ndao, Nusa Tenggara Tim.",NUSA TENGGARA TIMUR,,Indonesia,,,,-107.386.421,1.231.239.049,https://maps.google.com/?cid=0x0:0x19e18468ca280635,
perumahan,Pembangunan Perumahan,OTNIAL PELLONDOU,"747F+H49, Puamata, Desa, Lidamanu, Kec. Rote Tengah, Kabupaten Rote Ndao, Nusa Tenggara Tim.","Kabupaten Rote Ndao, Nusa Tenggara Tim.",NUSA TENGGARA TIMUR,,Indonesia,,,,-107.360.925,123.122.871,https://maps.google.com/?cid=0x0:0x3939c06d15f1788,
perumahan,Pembangunan Perumahan,Rmh Yes Muskananfola,"8434+4GR, Batuleli, Lidabesi, Kec. Rote Tengah, Kabupaten Rote Ndao, Nusa Tenggara Tim.","Kabupaten Rote Ndao, Nusa Tenggara Tim.",NUSA TENGGARA TIMUR,,Indonesia,,,,-106.977.764,1.231.061.857,https://maps.google.com/?cid=0x0:0x41fd44519f785a95,
perumahan,Komplek perumahan,Rumah Omri Adu,"842C+WF, Lidabesi, Kec. Rote Tengah, Kabupaten Rote Ndao, Nusa Tenggara Tim.","Kabupaten Rote Ndao, Nusa Tenggara Tim.",NUSA TENGGARA TIMUR,,Indonesia,,,,-106.976.874,123.121.144,https://maps.google.com/?cid=0x0:0x9e6ed69dfe42d820,
perumahan,Komplek perumahan,Rumah Cha Lesiangi,"73FW+386, Dusun nggelamalole, Maubesi, Kec. Rote Tengah, Kabupaten Rote Ndao, Nusa Tenggara Tim.","Kabupaten Rote Ndao, Nusa Tenggara Tim.",NUSA TENGGARA TIMUR,,Indonesia,,,,-107.273.429,1.230.957.799,https://maps.google.com/?cid=0x0:0x8b34c4b42fd79dcf,
perumahan,Pembangunan Perumahan,Nice Tallo,"74FR+3X4, Lidamanu, Kec. Rote Tengah, Kabupaten Rote Ndao, Nusa Tenggara Tim.","Kabupaten Rote Ndao, Nusa Tenggara Tim.",NUSA TENGGARA TIMUR,,Indonesia,,,,-107.284.202,1.231.425.705,https://maps.google.com/?cid=0x0:0x6dca29ed98ac598d,
perumahan,Komplek perumahan,Rumah tika,"84HC+4W3, Onotali, Kec. Rote Tengah, Kabupaten Rote Ndao, Nusa Tenggara Tim.","Kabupaten Rote Ndao, Nusa Tenggara Tim.",NUSA TENGGARA TIMUR,,Indonesia,,,,-10.672.241,123.121.943,https://maps.google.com/?cid=0x0:0x8c7b50bb81c294e1,
perumahan,Komplek perumahan,"Pedro,celline,Isco(Putra Flores)","84MP+JXV, Nggodimeda, Kec. Rote Tengah, Kabupaten Rote Ndao, Nusa Tenggara Tim.","Kabupaten Rote Ndao, Nusa Tenggara Tim.",NUSA TENGGARA TIMUR,,Indonesia,,,,-106.658.757,1.231.374.108,https://maps.google.com/?cid=0x0:0xabea98582f76149a,
perumahan,Pembangunan Perumahan,R. Kevin pinga,"84G6+MV7, Onotali, Kec. Rote Tengah, Kabupaten Rote Ndao, Nusa Tenggara Tim.","Kabupaten Rote Ndao, Nusa Tenggara Tim.",NUSA TENGGARA TIMUR,,Indonesia,,,,-106.733.552,1.231.121.554,https://maps.google.com/?cid=0x0:0xb6f2573ff312a278,
perumahan,Komplek perumahan,Rumah Hanly kiuk,"74FR+3X4, Lidamanu, Kec. Rote Tengah, Kabupaten Rote Ndao, Nusa Tenggara Tim.","Kabupaten Rote Ndao, Nusa Tenggara Tim.",NUSA TENGGARA TIMUR,,Indonesia,81236162510.0,,,-107.272.962,1.231.427.901,https://maps.google.com/?cid=0x0:0x525a1ad00f4d5e06,
perumahan,Pembangunan Perumahan,Sawah,"952G+Q3G, Nggodimeda, Kec. Rote Tengah, Kabupaten Rote Ndao, Nusa Tenggara Tim.","Kabupaten Rote Ndao, Nusa Tenggara Tim.",NUSA TENGGARA TIMUR,,Indonesia,,,,-106.484.291,123.176.243,https://maps.google.com/?cid=0x0:0x9cfd386fc720c06,
perumahan,Pembangunan Perumahan,Helsi Lnk,"953H+HC8, Sabaoen, Kec. Rote Tengah, Kabupaten Rote Ndao, Nusa Tenggara Tim.","Kabupaten Rote Ndao, Nusa Tenggara Tim.",NUSA TENGGARA TIMUR,,Indonesia,,,,-106.460.943,1.231.785.653,https://maps.google.com/?cid=0x0:0xf0737f206b684f57,
perumahan,perumahan,Kec. Rote Tim.,"Kabupaten Rote Ndao, Nusa Tenggara Tim.","Kabupaten Rote Ndao, Nusa Tenggara Tim.",NUSA TENGGARA TIMUR,,Indonesia,,,,-106.018.337,1.233.792.441,https://maps.google.com/?cid=0x0:0x20409773de900efa,
perumahan,Pembangunan Perumahan,Komplek Perumahan Sasando,"62MP+XVF, Sanggaoen, Kec. Lobalain, Kabupaten Rote Ndao, Nusa Tenggara Tim.","Kabupaten Rote Ndao, Nusa Tenggara Tim.",NUSA TENGGARA TIMUR,,Indonesia,,,,-10.765.072,1.230.371.844,https://maps.google.com/?cid=0x0:0xbac4f3b7b8017a8,
perumahan,Pembangunan Perumahan,"perumahan Pondok Indah Rote Ba,a","62PP+5XG, Sanggaoen, Kec. Lobalain, Kabupaten Rote Ndao, Nusa Tenggara Tim.","Kabupaten Rote Ndao, Nusa Tenggara Tim.",NUSA TENGGARA TIMUR,,Indonesia,81236102585.0,,,-107.645.512,1.230.374.515,https://maps.google.com/?cid=0x0:0x51f4d959eb1c2112,
perumahan,Restoran,Rumah Makan Rizkita Papela,"99XH+5MF, Londalusi, Kec. Rote Tim., Kabupaten Rote Ndao, Nusa Tenggara Tim.","Kabupaten Rote Ndao, Nusa Tenggara Tim.",NUSA TENGGARA TIMUR,,Indonesia,85257174756.0,,,-10.602.059,1.233.791.692,https://maps.google.com/?cid=0x0:0xccc2b710065ee7ff,
perumahan,Kantor Pemerintah,Kantor Pos Papela,"Londalusi, Kec. Rote Tim., Kabupaten Rote Ndao, Nusa Tenggara Tim.","Kabupaten Rote Ndao, Nusa Tenggara Tim.",NUSA TENGGARA TIMUR,,Indonesia,380833225.0,,,-106.063.346,1.233.804.298,https://maps.google.com/?cid=0x0:0x6993cc2e13be167a,
perumahan,Komplek perumahan,Samuel esau Bolla,"983J+7QJ, Unnamed Road, Lakamola, Kec. Rote Tim., Kabupaten Rote Ndao, Nusa Tenggara Tim.","Kabupaten Rote Ndao, Nusa Tenggara Tim.",NUSA TENGGARA TIMUR,,Indonesia,81246242626.0,,,-106.467.974,1.233.318.763,https://maps.google.com/?cid=0x0:0xa8ef331289092fc,
perumahan,perumahan,Rumah putra bolla,"99F9+G3G, Serubeba, Kec. Rote Tim., Kabupaten Rote Ndao, Nusa Tenggara Tim.","Kabupaten Rote Ndao, Nusa Tenggara Tim.",NUSA TENGGARA TIMUR,,Indonesia,,,,-106.261.764,1.233.677.041,https://maps.google.com/?cid=0x0:0xc306a8ea4e7db8b1,
perumahan,Komplek perumahan,Oesuti,"98P5+824, Matasio, Kec. Rote Tim., Kabupaten Rote Ndao, Nusa Tenggara Tim.","Kabupaten Rote Ndao, Nusa Tenggara Tim.",NUSA TENGGARA TIMUR,,Indonesia,,,,-10.614.235,123.307.563,https://maps.google.com/?cid=0x0:0x189bbe9c3c44df92,
perumahan,perumahan,naysila salim,"99WH+M2P, Londalusi, Kec. Rote Tim., Kabupaten Rote Ndao, Nusa Tenggara Tim.","Kabupaten Rote Ndao, Nusa Tenggara Tim.",NUSA TENGGARA TIMUR,,Indonesia,,,,-106.032.926,1.233.775.742,https://maps.google.com/?cid=0x0:0xe1c96dc685ba8639,
perumahan,perumahan,Jitro Home,"99FP+78W, Londalusi, Kec. Rote Tim., Kabupaten Rote Ndao, Nusa Tenggara Tim.","Kabupaten Rote Ndao, Nusa Tenggara Tim.",NUSA TENGGARA TIMUR,,Indonesia,,,,-106.267.692,1.233.858.261,https://maps.google.com/?cid=0x0:0x153c6308740b242b,
perumahan,Komplek perumahan,Lesten Tupu,"99HG+57, Londalusi, Kec. Rote Tim., Kabupaten Rote Ndao, Nusa Tenggara Tim.","Kabupaten Rote Ndao, Nusa Tenggara Tim.",NUSA TENGGARA TIMUR,,Indonesia,,,,-106.216.707,1.233.760.069,https://maps.google.com/?cid=0x0:0x89057d697e6b942b,
perumahan,Komplek perumahan,Rumah tinggal,"99XH+FCC, Londalusi, Kec. Rote Tim., Kabupaten Rote Ndao, Nusa Tenggara Tim.","Kabupaten Rote Ndao, Nusa Tenggara Tim.",NUSA TENGGARA TIMUR,,Indonesia,,,,-106.013.317,1.233.784.772,https://maps.google.com/?cid=0x0:0x152bfb7c69aa5b56,
perumahan,Komplek perumahan,Anugerah Home,"99QP+MQG, Londalusi, Kec. Rote Tim., Kabupaten Rote Ndao, Nusa Tenggara Tim.","Kabupaten Rote Ndao, Nusa Tenggara Tim.",NUSA TENGGARA TIMUR,,Indonesia,,,,-106.108.174,123.386.961,https://maps.google.com/?cid=0x0:0x29b65ef770201bcb,
perumahan,Pembangunan Perumahan,Taboa,"99HG+957, Serubeba, Kec. Rote Tim., Kabupaten Rote Ndao, Nusa Tenggara Tim.","Kabupaten Rote Ndao, Nusa Tenggara Tim.",NUSA TENGGARA TIMUR,,Indonesia,81337742545.0,,,-106.215.824,1.233.754.285,https://maps.google.com/?cid=0x0:0xb778fa0098ffa2f8,
perumahan,Komplek perumahan,Lily,"99JJ+5XQ, Londalusi, Kec. Rote Tim., Kabupaten Rote Ndao, Nusa Tenggara Tim.","Kabupaten Rote Ndao, Nusa Tenggara Tim.",NUSA TENGGARA TIMUR,,Indonesia,,,,-106.195.373,1.233.824.689,https://maps.google.com/?cid=0x0:0xcbd61ce526ac760f,
perumahan,Komplek perumahan,Tokobatu,"9CJ3+772, Tokobatu, Desa, Hundi Hopo, Kec. Rote Tim., Kabupaten Rote Ndao, Nusa Tenggara Tim.","Kabupaten Rote Ndao, Nusa Tenggara Tim.",NUSA TENGGARA TIMUR,,Indonesia,,,,-106.193.682,1.234.031.401,https://maps.google.com/?cid=0x0:0x9e5880707f29ad0b,
perumahan,Komplek perumahan,Metty Home,"99FP+983, Ikumanuklain, Desa Matanae, Kec. Rote Tim., Kabupaten Rote Ndao, Nusa Tenggara Tim.","Kabupaten Rote Ndao, Nusa Tenggara Tim.",NUSA TENGGARA TIMUR,,Indonesia,81237870492.0,,,-106.266.064,1.233.858.076,https://maps.google.com/?cid=0x0:0xb09357157bc47b7,
perumahan,Pembangunan Perumahan,Jekisoma,"99HJ+7MX, Londalusi, Kec. Rote Tim., Kabupaten Rote Ndao, Nusa Tenggara Tim.","Kabupaten Rote Ndao, Nusa Tenggara Tim.",NUSA TENGGARA TIMUR,,Indonesia,,,,-106.217.547,1.233.817.444,https://maps.google.com/?cid=0x0:0xa2e2f5acf12ee8b1,
perumahan,Komplek perumahan,Junus Lay,"99HG+57, Londalusi, Kec. Rote Tim., Kabupaten Rote Ndao, Nusa Tenggara Tim.","Kabupaten Rote Ndao, Nusa Tenggara Tim.",NUSA TENGGARA TIMUR,,Indonesia,,,,-106.215.844,1.233.757.762,https://maps.google.com/?cid=0x0:0xfc464917bde82e0a,
perumahan,Komplek perumahan,Inkha  Indira Home,"99PH+548, Haraklain, Londalusi, Kec. Rote Tim., Kabupaten Rote Ndao, Nusa Tenggara Tim.","Kabupaten Rote Ndao, Nusa Tenggara Tim.",NUSA TENGGARA TIMUR,,Indonesia,,,,-106.145.857,1.233.778.405,https://maps.google.com/?cid=0x0:0x12946e73a9281a22,
perumahan,Komplek perumahan,Batas kota,"99WG+GPC, Londalusi, Kec. Rote Tim., Kabupaten Rote Ndao, Nusa Tenggara Tim.","Kabupaten Rote Ndao, Nusa Tenggara Tim.",NUSA TENGGARA TIMUR,,Indonesia,,,,-106.036.758,1.233.767.736,https://maps.google.com/?cid=0x0:0xb6dc71e60616634a,
perumahan,Komplek perumahan,Gen Daik,"99M8+M67, Serubeba, Kec. Rote Tim., Kabupaten Rote Ndao, Nusa Tenggara Tim.","Kabupaten Rote Ndao, Nusa Tenggara Tim.",NUSA TENGGARA TIMUR,,Indonesia,,,,-106.158.356,1.233.655.456,https://maps.google.com/?cid=0x0:0x5ec79c691fa7b1c9,
perumahan,Pembangunan Perumahan,H,"99WG+HV2, Londalusi, Kec. Rote Tim., Kabupaten Rote Ndao, Nusa Tenggara Tim.","Kabupaten Rote Ndao, Nusa Tenggara Tim.",NUSA TENGGARA TIMUR,,Indonesia,,,,-106.045.474,1.233.772.259,https://maps.google.com/?cid=0x0:0x541b436a841ea4d1,
perumahan,Pembangunan Perumahan,Rumah Esau Setty,"9CR2+43, Londalusi, Kec. Rote Tim., Kabupaten Rote Ndao, Nusa Tenggara Tim.","Kabupaten Rote Ndao, Nusa Tenggara Tim.",NUSA TENGGARA TIMUR,,Indonesia,,,,-106.097.187,1.234.001.709,https://maps.google.com/?cid=0x0:0xe518f0fec31e6b91,
perumahan,Pembangunan Perumahan,Rumah Ukhe,"992V+29, Rumah Yulce, RW.Deteasa, Hundi Hopo, Kec. Rote Tim., Kabupaten Rote Ndao, Nusa Tenggara Tim.","Kabupaten Rote Ndao, Nusa Tenggara Tim.",NUSA TENGGARA TIMUR,,Indonesia,,,,-106.499.375,1.233.934.375,https://maps.google.com/?cid=0x0:0xc4e5307375d54518,
perumahan,Komplek perumahan,BERCY BOLLA,"99F9+58W, Serubeba, Kec. Rote Tim., Kabupaten Rote Ndao, Nusa Tenggara Tim.","Kabupaten Rote Ndao, Nusa Tenggara Tim.",NUSA TENGGARA TIMUR,,Indonesia,,,,-106.270.008,1.233.683.136,https://maps.google.com/?cid=0x0:0x2d9e323f1384575a,
perumahan,Komplek perumahan,Al Arief bakuama,"99WH+97P, Londalusi, Kec. Rote Tim., Kabupaten Rote Ndao, Nusa Tenggara Tim.","Kabupaten Rote Ndao, Nusa Tenggara Tim.",NUSA TENGGARA TIMUR,,Indonesia,,,,-106.040.334,1.233.782.118,https://maps.google.com/?cid=0x0:0x7064b90be0007c49,
perumahan,Komplek perumahan,Rumah Lepo,"99J3+HMX, Serubeba, Kec. Rote Tim., Kabupaten Rote Ndao, Nusa Tenggara Tim.","Kabupaten Rote Ndao, Nusa Tenggara Tim.",NUSA TENGGARA TIMUR,,Indonesia,,,,-106.185.144,1.233.542.258,https://maps.google.com/?cid=0x0:0xc9ba70b47583a3ca,
perumahan,Komplek perumahan,Iskandar Lauwoe,"89WQ+GR5, Hundi Hopo, Kec. Rote Tim., Kabupaten Rote Ndao, Nusa Tenggara Tim.","Kabupaten Rote Ndao, Nusa Tenggara Tim.",NUSA TENGGARA TIMUR,,Indonesia,,,,-106.537.352,1.233.896.029,https://maps.google.com/?cid=0x0:0xb60ce0fd8d6baa50,
perumahan,perumahan,Kec. Rote Bar.,"Kabupaten Rote Ndao, Nusa Tenggara Tim.","Kabupaten Rote Ndao, Nusa Tenggara Tim.",NUSA TENGGARA TIMUR,,Indonesia,,,,-108.858.919,1.228.260.101,https://maps.google.com/?cid=0x0:0x20873fb50a5b50f7,
perumahan,Komplek perumahan,To'o,"3VH5+57R, Boa, Kec. Rote Bar., Kabupaten Rote Ndao, Nusa Tenggara Tim.","Kabupaten Rote Ndao, Nusa Tenggara Tim.",NUSA TENGGARA TIMUR,,Indonesia,,,,-109.220.045,1.228.581.296,https://maps.google.com/?cid=0x0:0x3e94d14784a06937,
perumahan,Tujuan Wisata,Tongga,"6R67+VVP, Mbueain, Kec. Rote Bar., Kabupaten Rote Ndao, Nusa Tenggara Tim.","Kabupaten Rote Ndao, Nusa Tenggara Tim.",NUSA TENGGARA TIMUR,,Indonesia,,,,-107.875.049,1.228.136.565,https://maps.google.com/?cid=0x0:0x242fa44563b14f66,
perumahan,Komplek perumahan,KUB lohaen,"3WJP+83, Oebou, Kec. Rote Bar. Daya, Kabupaten Rote Ndao, Nusa Tenggara Tim.","Kabupaten Rote Ndao, Nusa Tenggara Tim.",NUSA TENGGARA TIMUR,,Indonesia,,,,-109.191.851,1.229.351.592,https://maps.google.com/?cid=0x0:0xf106d4bdae126b46,
perumahan,perumahan,COCOKABANAS,"Jalan, Nusa Tenggara Tim. 80810","Kabupaten Rote Ndao, Nusa Tenggara Tim.",NUSA TENGGARA TIMUR,,Indonesia,81281011094.0,,,-108.926.056,1.228.238.965,https://maps.google.com/?cid=0x0:0x6f89cd7675c70002,
perumahan,perumahan,Talenta Mas Hotel,"4R7G+9CC, Nemberala, Kec. Rote Bar., Kabupaten Rote Ndao, Nusa Tenggara Tim.","Kabupaten Rote Ndao, Nusa Tenggara Tim.",NUSA TENGGARA TIMUR,,Indonesia,,,,-108.865.737,1.228.260.071,https://maps.google.com/?cid=0x0:0xfff31f88824039fe,
perumahan,perumahan,Casa Narrow villa,"Jalan Oenggaut, Bar, Oenggaut, Rote Barat, Rote Ndao Regency, East Nusa Tenggara","Kabupaten Rote Ndao, Nusa Tenggara Tim.",NUSA TENGGARA TIMUR,,Indonesia,,,,-10.907.176,1.228.227.761,https://maps.google.com/?cid=0x0:0x9f5d7f680eb1d28c,
perumahan,perumahan,Mulia Bungalows Nemberala,"Sedeoen, Kec. Rote Bar., Kabupaten Rote Ndao, Nusa Tenggara Tim.","Kabupaten Rote Ndao, Nusa Tenggara Tim.",NUSA TENGGARA TIMUR,,Indonesia,82337878111.0,,,-108.712.797,1.228.312.683,https://maps.google.com/?cid=0x0:0xe575236b3d42570e,
perumahan,perumahan,Anugerah Surf  Dive Resort,"Baadale, Jl. Nemberala, Nemberala, Kec. Rote Bar., Kabupaten Rote Ndao, Nusa Tenggara Tim.","Kabupaten Rote Ndao, Nusa Tenggara Tim.",NUSA TENGGARA TIMUR,,Indonesia,8113823441.0,,,-108.906.055,122.823.133,https://maps.google.com/?cid=0x0:0xa4a8ba4ea68143fc,
perumahan,perumahan,Sunset Bungalow,"Nemberala, Kec. Rote Bar., Kabupaten Rote Ndao, Nusa Tenggara Tim. 85982","Kec. Rote Bar., Kabupaten Rote Ndao",NUSA TENGGARA TIMUR,85982.0,Indonesia,,,,-108.943.259,1.228.252.325,https://maps.google.com/?cid=0x0:0xcb32332b4471fa4e,
perumahan,perumahan,"Blu Oceano, BB, Italian Restaurant, Rote Nembrala","rw 004 rt 002, Sedeoen, Rote Barat, Rote Ndao Regency, East Nusa Tenggara 85983","Sedeoen, Rote Barat, Rote Ndao Regency",NUSA TENGGARA TIMUR,85983.0,Indonesia,82237711555.0,,,-108.792.601,1.228.298.024,https://maps.google.com/?cid=0x0:0x7b38de7c1f93b105,
perumahan,Hotel Resor,Pantai Nemberala,"Nemberala, Kec. Rote Bar., Kabupaten Rote Ndao, Nusa Tenggara Tim.","Kabupaten Rote Ndao, Nusa Tenggara Tim.",NUSA TENGGARA TIMUR,,Indonesia,,,,-10.889.968,1.228.226.098,https://maps.google.com/?cid=0x0:0xfd64cfbb565d9f6c,
perumahan,Kafe,Indika Health Store,"Jalan Raya Nemberala, Nemberala, Kec. Rote Bar., Nemberala, Nusa Tenggara Tim. 85982","Nemberala, Kec. Rote Bar., Nemberala",NUSA TENGGARA TIMUR,85982.0,Indonesia,81238572301.0,,,-108.909.115,1.228.248.746,https://maps.google.com/?cid=0x0:0x4386ef1842d69b21,
perumahan,Pembangunan Perumahan,Perumahan guru,"4R3F+7R3, Unnamed Road, Oenggaut, Kec. Rote Bar., Kabupaten Rote Ndao, Nusa Tenggara Tim.","Kabupaten Rote Ndao, Nusa Tenggara Tim.",NUSA TENGGARA TIMUR,,Indonesia,,,,-108.968.721,1.228.245.605,https://maps.google.com/?cid=0x0:0x73f3828de3a055ab,
perumahan,Komplek perumahan,Rumah semuel feoh,"4VM2+RH8, Oenitas, Kec. Rote Bar., Kabupaten Rote Ndao, Nusa Tenggara Tim.","Kabupaten Rote Ndao, Nusa Tenggara Tim.",NUSA TENGGARA TIMUR,,Indonesia,,,,-10.865.474,1.228.514.586,https://maps.google.com/?cid=0x0:0xf917ec2d2ed55cf8,
perumahan,Komplek perumahan,Rumah Tuaneo,"4R9Q+48, Nemberala, Kec. Rote Bar., Kabupaten Rote Ndao, Nusa Tenggara Tim.","Kabupaten Rote Ndao, Nusa Tenggara Tim.",NUSA TENGGARA TIMUR,,Indonesia,81331581082.0,,,-108.822.216,1.228.383.195,https://maps.google.com/?cid=0x0:0x2eb5c92ea9f77956,
perumahan,Komplek perumahan,Mbore,"4V84+9G6, Sedeoen, Kec. Rote Bar., Kabupaten Rote Ndao, Nusa Tenggara Tim.","Kabupaten Rote Ndao, Nusa Tenggara Tim.",NUSA TENGGARA TIMUR,,Indonesia,82247701664.0,,,-108.845.589,1.228.550.769,https://maps.google.com/?cid=0x0:0xe4b7a6dcc0b21cbf,
perumahan,Perumahan,Rumah RIF LENGGU,"4VP2+92H, Oenitas, Kec. Rote Bar., Kabupaten Rote Ndao, Nusa Tenggara Tim.","Kabupaten Rote Ndao, Nusa Tenggara Tim.",NUSA TENGGARA TIMUR,,Indonesia,,,,-108.640.575,1.228.501.051,https://maps.google.com/?cid=0x0:0x76b54e2d1eee491a,
perumahan,Perhimpunan Pengembang Perumahan,Desa oelolot,"5RCH+M5R, Oelolot, Kec. Rote Bar., Kabupaten Rote Ndao, Nusa Tenggara Tim.","Kabupaten Rote Ndao, Nusa Tenggara Tim.",NUSA TENGGARA TIMUR,,Indonesia,,,,-108.282.436,1.228.278.961,https://maps.google.com/?cid=0x0:0x7ad3929b671f4f30,
perumahan,Komplek perumahan,Rumah Petrus Pasole,"5RRM+95M, Oelolot, Kec. Rote Bar., Kabupaten Rote Ndao, Nusa Tenggara Tim.","Kabupaten Rote Ndao, Nusa Tenggara Tim.",NUSA TENGGARA TIMUR,,Indonesia,,,,-108.090.253,1.228.329.161,https://maps.google.com/?cid=0x0:0x61dc915daa4d8557,
perumahan,Komplek perumahan,Marina Home Stay,"5RXG+8M, Mbueain, Kec. Rote Bar., Kabupaten Rote Ndao, Nusa Tenggara Tim.","Kabupaten Rote Ndao, Nusa Tenggara Tim.",NUSA TENGGARA TIMUR,,Indonesia,,,,-108.012.903,1.228.269.738,https://maps.google.com/?cid=0x0:0xc575a6cf6a25702f,
perumahan,Pembangunan Perumahan,Su'imok,"5RFP+8M2, Gang Agast, Oelolot, Kec. Rote Bar., Kabupaten Rote Ndao, Nusa Tenggara Tim.","Kabupaten Rote Ndao, Nusa Tenggara Tim.",NUSA TENGGARA TIMUR,,Indonesia,,,,-108.267.316,1.228.366.556,https://maps.google.com/?cid=0x0:0x189a1d180be97f14,
perumahan,Perhimpunan Pengembang Perumahan,Zakarias Nggadas,"5V3G+4RG, Oenitas, Kec. Rote Bar., Kabupaten Rote Ndao, Nusa Tenggara Tim.","Kabupaten Rote Ndao, Nusa Tenggara Tim.",NUSA TENGGARA TIMUR,,Indonesia,,,,-108.471.794,1.228.770.895,https://maps.google.com/?cid=0x0:0x1991641468b33cb2,
perumahan,perumahan,Gani Seubelan,"4R8J+RF6, Nemberala, Kec. Rote Bar., Kabupaten Rote Ndao, Nusa Tenggara Tim.","Kabupaten Rote Ndao, Nusa Tenggara Tim.",NUSA TENGGARA TIMUR,,Indonesia,,,,-108.824.247,1.228.304.472,https://maps.google.com/?cid=0x0:0x59aa49844ff41ac1,
perumahan,Inspektur Tempat Tinggal,Rote Barat Laut,"5RRC+4QX, Mbueain, Kec. Rote Bar., Kabupaten Rote Ndao, Nusa Tenggara Tim.","Kabupaten Rote Ndao, Nusa Tenggara Tim.",NUSA TENGGARA TIMUR,,Indonesia,,,,-108.096.402,1.228.219.952,https://maps.google.com/?cid=0x0:0xd62c4299081ffa2a,
perumahan,Komplek perumahan,Rumah Yongky Molle,"4WR3+25, Lidor, Kec. Rote Bar. Laut, Kabupaten Rote Ndao, Nusa Tenggara Tim.","Kabupaten Rote Ndao, Nusa Tenggara Tim.",NUSA TENGGARA TIMUR,,Indonesia,,,,-108.598.833,1.229.029.128,https://maps.google.com/?cid=0x0:0xa452bcc9ad2e9c1e,
perumahan,Kompleks Apartemen,Ruma brandy,"3R9X+2W, Boa, Kec. Rote Bar., Kabupaten Rote Ndao, Nusa Tenggara Tim.","Kabupaten Rote Ndao, Nusa Tenggara Tim.",NUSA TENGGARA TIMUR,,Indonesia,,,,-109.311.262,1.228.507.072,https://maps.google.com/?cid=0x0:0x7cfaae4cc602039e,
perumahan,Komplek perumahan,LhiaNdun,"4RMM+7PJ, Sedeoen, Kec. Rote Bar., Kabupaten Rote Ndao, Nusa Tenggara Tim.","Kabupaten Rote Ndao, Nusa Tenggara Tim.",NUSA TENGGARA TIMUR,,Indonesia,,,,-108.667.881,1.228.342.767,https://maps.google.com/?cid=0x0:0x27f99e810d76a60b,
perumahan,Komplek perumahan,Rumah Lucky Molle,"4WV3+CR, Lidor, Kec. Rote Bar. Laut, Kabupaten Rote Ndao, Nusa Tenggara Tim.","Kabupaten Rote Ndao, Nusa Tenggara Tim.",NUSA TENGGARA TIMUR,,Indonesia,,,,-108.564.263,1.229.045.527,https://maps.google.com/?cid=0x0:0x303378acb5173cc9,
perumahan,perumahan,Kec. Rote Bar.,"Kabupaten Rote Ndao, Nusa Tenggara Tim.","Kabupaten Rote Ndao, Nusa Tenggara Tim.",NUSA TENGGARA TIMUR,,Indonesia,,,,-108.858.919,1.228.260.101,https://maps.google.com/?cid=0x0:0x20873fb50a5b50f7,
perumahan,Pembangunan Perumahan,Perumahan guru,"4R3F+7R3, Unnamed Road, Oenggaut, Kec. Rote Bar., Kabupaten Rote Ndao, Nusa Tenggara Tim.","Kabupaten Rote Ndao, Nusa Tenggara Tim.",NUSA TENGGARA TIMUR,,Indonesia,,,,-108.968.721,1.228.245.605,https://maps.google.com/?cid=0x0:0x73f3828de3a055ab,
perumahan,Komplek perumahan,To'o,"3VH5+57R, Boa, Kec. Rote Bar., Kabupaten Rote Ndao, Nusa Tenggara Tim.","Kabupaten Rote Ndao, Nusa Tenggara Tim.",NUSA TENGGARA TIMUR,,Indonesia,,,,-109.220.045,1.228.581.296,https://maps.google.com/?cid=0x0:0x3e94d14784a06937,
perumahan,Komplek perumahan,Mbore,"4V84+9G6, Sedeoen, Kec. Rote Bar., Kabupaten Rote Ndao, Nusa Tenggara Tim.","Kabupaten Rote Ndao, Nusa Tenggara Tim.",NUSA TENGGARA TIMUR,,Indonesia,82247701664.0,,,-108.845.589,1.228.550.769,https://maps.google.com/?cid=0x0:0xe4b7a6dcc0b21cbf,
perumahan,Komplek perumahan,Marina Home Stay,"5RXG+8M, Mbueain, Kec. Rote Bar., Kabupaten Rote Ndao, Nusa Tenggara Tim.","Kabupaten Rote Ndao, Nusa Tenggara Tim.",NUSA TENGGARA TIMUR,,Indonesia,,,,-108.012.903,1.228.269.738,https://maps.google.com/?cid=0x0:0xc575a6cf6a25702f,
perumahan,Komplek perumahan,Rumah Petrus Pasole,"5RRM+95M, Oelolot, Kec. Rote Bar., Kabupaten Rote Ndao, Nusa Tenggara Tim.","Kabupaten Rote Ndao, Nusa Tenggara Tim.",NUSA TENGGARA TIMUR,,Indonesia,,,,-108.090.253,1.228.329.161,https://maps.google.com/?cid=0x0:0x61dc915daa4d8557,
perumahan,Komplek perumahan,Rumah Tuaneo,"4R9Q+48, Nemberala, Kec. Rote Bar., Kabupaten Rote Ndao, Nusa Tenggara Tim.","Kabupaten Rote Ndao, Nusa Tenggara Tim.",NUSA TENGGARA TIMUR,,Indonesia,81331581082.0,,,-108.822.216,1.228.383.195,https://maps.google.com/?cid=0x0:0x2eb5c92ea9f77956,
perumahan,Pembangunan Perumahan,Su'imok,"5RFP+8M2, Gang Agast, Oelolot, Kec. Rote Bar., Kabupaten Rote Ndao, Nusa Tenggara Tim.","Kabupaten Rote Ndao, Nusa Tenggara Tim.",NUSA TENGGARA TIMUR,,Indonesia,,,,-108.267.316,1.228.366.556,https://maps.google.com/?cid=0x0:0x189a1d180be97f14,
perumahan,perumahan,Gani Seubelan,"4R8J+RF6, Nemberala, Kec. Rote Bar., Kabupaten Rote Ndao, Nusa Tenggara Tim.","Kabupaten Rote Ndao, Nusa Tenggara Tim.",NUSA TENGGARA TIMUR,,Indonesia,,,,-108.824.247,1.228.304.472,https://maps.google.com/?cid=0x0:0x59aa49844ff41ac1,
perumahan,Komplek perumahan,Rumah semuel feoh,"4VM2+RH8, Oenitas, Kec. Rote Bar., Kabupaten Rote Ndao, Nusa Tenggara Tim.","Kabupaten Rote Ndao, Nusa Tenggara Tim.",NUSA TENGGARA TIMUR,,Indonesia,,,,-10.865.474,1.228.514.586,https://maps.google.com/?cid=0x0:0xf917ec2d2ed55cf8,
perumahan,Komplek perumahan,LhiaNdun,"4RMM+7PJ, Sedeoen, Kec. Rote Bar., Kabupaten Rote Ndao, Nusa Tenggara Tim.","Kabupaten Rote Ndao, Nusa Tenggara Tim.",NUSA TENGGARA TIMUR,,Indonesia,,,,-108.667.881,1.228.342.767,https://maps.google.com/?cid=0x0:0x27f99e810d76a60b,
perumahan,Inspektur Tempat Tinggal,Rote Barat Laut,"5RRC+4QX, Mbueain, Kec. Rote Bar., Kabupaten Rote Ndao, Nusa Tenggara Tim.","Kabupaten Rote Ndao, Nusa Tenggara Tim.",NUSA TENGGARA TIMUR,,Indonesia,,,,-108.096.402,1.228.219.952,https://maps.google.com/?cid=0x0:0xd62c4299081ffa2a,
perumahan,Perumahan,Rumah RIF LENGGU,"4VP2+92H, Oenitas, Kec. Rote Bar., Kabupaten Rote Ndao, Nusa Tenggara Tim.","Kabupaten Rote Ndao, Nusa Tenggara Tim.",NUSA TENGGARA TIMUR,,Indonesia,,,,-108.640.575,1.228.501.051,https://maps.google.com/?cid=0x0:0x76b54e2d1eee491a,
perumahan,Perhimpunan Pengembang Perumahan,Desa oelolot,"5RCH+M5R, Oelolot, Kec. Rote Bar., Kabupaten Rote Ndao, Nusa Tenggara Tim.","Kabupaten Rote Ndao, Nusa Tenggara Tim.",NUSA TENGGARA TIMUR,,Indonesia,,,,-108.282.436,1.228.278.961,https://maps.google.com/?cid=0x0:0x7ad3929b671f4f30,
perumahan,Pembangunan Perumahan,Eden,"3RXG+7CV, Oenggaut, Kec. Rote Bar., Kabupaten Rote Ndao, Nusa Tenggara Tim.","Kabupaten Rote Ndao, Nusa Tenggara Tim.",NUSA TENGGARA TIMUR,,Indonesia,,,,-109.017.507,1.228.260.357,https://maps.google.com/?cid=0x0:0x7bcdf5b3dfd1af1e,
perumahan,Komplek perumahan,Rumah Maya,"5RR9+MQ, Mbueain, Kec. Rote Bar., Kabupaten Rote Ndao, Nusa Tenggara Tim.","Kabupaten Rote Ndao, Nusa Tenggara Tim.",NUSA TENGGARA TIMUR,,Indonesia,,,,-1.080.804,1.228.195.038,https://maps.google.com/?cid=0x0:0xcdbde1ecdfea2e5b,
perumahan,Komplek perumahan,Rumah Yongky Molle,"4WR3+25, Lidor, Kec. Rote Bar. Laut, Kabupaten Rote Ndao, Nusa Tenggara Tim.","Kabupaten Rote Ndao, Nusa Tenggara Tim.",NUSA TENGGARA TIMUR,,Indonesia,,,,-108.598.833,1.229.029.128,https://maps.google.com/?cid=0x0:0xa452bcc9ad2e9c1e,
perumahan,Komplek perumahan,BUNIOEN,"4RFV+H95, Sedeoen, Kec. Rote Bar., Kabupaten Rote Ndao, Nusa Tenggara Tim.","Kabupaten Rote Ndao, Nusa Tenggara Tim.",NUSA TENGGARA TIMUR,,Indonesia,,,,-108.761.005,1.228.434.928,https://maps.google.com/?cid=0x0:0x70a87ad5a32d383a,
perumahan,Kompleks Apartemen,Ruma brandy,"3R9X+2W, Boa, Kec. Rote Bar., Kabupaten Rote Ndao, Nusa Tenggara Tim.","Kabupaten Rote Ndao, Nusa Tenggara Tim.",NUSA TENGGARA TIMUR,,Indonesia,,,,-109.311.262,1.228.507.072,https://maps.google.com/?cid=0x0:0x7cfaae4cc602039e,
perumahan,Perumahan,Rumah Rinto,"4VP2+J64, Oenitas, Kec. Rote Bar., Kabupaten Rote Ndao, Nusa Tenggara Tim.","Kabupaten Rote Ndao, Nusa Tenggara Tim.",NUSA TENGGARA TIMUR,,Indonesia,,,,-108.637.364,1.228.502.429,https://maps.google.com/?cid=0x0:0x6310676339e9a291,
perumahan,Komplek perumahan,Andry lifu,"5R9G+5WJ, Oelolot, Kec. Rote Bar., Kabupaten Rote Ndao, Nusa Tenggara Tim.","Kabupaten Rote Ndao, Nusa Tenggara Tim.",NUSA TENGGARA TIMUR,,Indonesia,,,,-108.320.415,1.228.272.574,https://maps.google.com/?cid=0x0:0x9b35adbeaa027b50,
perumahan,Pembangunan Perumahan,Yoal RDC,"4RPX+HVG, Oenitas, Kec. Rote Bar., Kabupaten Rote Ndao, Nusa Tenggara Tim.","Kabupaten Rote Ndao, Nusa Tenggara Tim.",NUSA TENGGARA TIMUR,,Indonesia,,,,-10.863.879,1.228.496.552,https://maps.google.com/?cid=0x0:0x452d4e89bfff83f6,
perumahan,Komplek perumahan,Rumah Lucky Molle,"4WV3+CR, Lidor, Kec. Rote Bar. Laut, Kabupaten Rote Ndao, Nusa Tenggara Tim.","Kabupaten Rote Ndao, Nusa Tenggara Tim.",NUSA TENGGARA TIMUR,,Indonesia,,,,-108.564.263,1.229.045.527,https://maps.google.com/?cid=0x0:0x303378acb5173cc9,
perumahan,Komplek perumahan,Rumah mama Orpa mooy,"4WJF+235, Lalukoen, Kec. Rote Bar. Daya, Kabupaten Rote Ndao, Nusa Tenggara Tim.","Kabupaten Rote Ndao, Nusa Tenggara Tim.",NUSA TENGGARA TIMUR,,Indonesia,,,,-1.087.057,1.229.215.733,https://maps.google.com/?cid=0x0:0x172f9366be047ffb,
perumahan,perumahan,Kec. Rote Sel.,"Kabupaten Rote Ndao, Nusa Tenggara Tim.","Kabupaten Rote Ndao, Nusa Tenggara Tim.",NUSA TENGGARA TIMUR,,Indonesia,,,,-107.849.831,1.231.594.105,https://maps.google.com/?cid=0x0:0x57324d947a721c0a,
perumahan,Komplek perumahan,Dk,"55RP+3Q, Inaoe, Kec. Rote Sel., Kabupaten Rote Ndao, Nusa Tenggara Tim.","Kabupaten Rote Ndao, Nusa Tenggara Tim.",NUSA TENGGARA TIMUR,,Indonesia,,,,-108.097.262,1.231.869.516,https://maps.google.com/?cid=0x0:0xab30991d89cfcd8a,
perumahan,Komplek perumahan,Lenguselu,"65PP+QFM, Lenguselu, Kec. Rote Sel., Kabupaten Rote Ndao, Nusa Tenggara Tim.","Kabupaten Rote Ndao, Nusa Tenggara Tim.",NUSA TENGGARA TIMUR,,Indonesia,,,,-107.630.312,1.231.861.852,https://maps.google.com/?cid=0x0:0xe36496369578a2f,
perumahan,perumahan,Nggaukdale,"658G+7P5, Dusun osiufi, Kec. Rote Sel., Kabupaten Rote Ndao, Nusa Tenggara Tim.","Kabupaten Rote Ndao, Nusa Tenggara Tim.",NUSA TENGGARA TIMUR,,Indonesia,,,,-107.843.544,1.231.768.532,https://maps.google.com/?cid=0x0:0xb6ebb3df81bd5d96,
perumahan,perumahan,Translok oeteas,"65QC+J8, Lenguselu, Kec. Rote Sel., Kabupaten Rote Ndao, Nusa Tenggara Tim.","Kabupaten Rote Ndao, Nusa Tenggara Tim.",NUSA TENGGARA TIMUR,,Indonesia,,,,-10.760.964,123.170.824,https://maps.google.com/?cid=0x0:0xf4ee005600a93f69,
perumahan,Komplek perumahan,Kulebiiana,"652P+4V5, mardiliu, Daleholu, Kec. Rote Sel., Kabupaten Rote Ndao, Nusa Tenggara Tim.","Kabupaten Rote Ndao, Nusa Tenggara Tim.",NUSA TENGGARA TIMUR,,Indonesia,,,,-108.000.737,1.231.880.462,https://maps.google.com/?cid=0x0:0xeba9132bb3b98204,
perumahan,Pembangunan Perumahan,Marlinda Sinlae,"659M+7P7, Unnamed Road, Daleholu, Kec. Rote Sel., Kabupaten Rote Ndao, Nusa Tenggara Tim.","Kabupaten Rote Ndao, Nusa Tenggara Tim.",NUSA TENGGARA TIMUR,,Indonesia,,,,-107.818.365,1.231.843.101,https://maps.google.com/?cid=0x0:0xe7df28210796c943,
perumahan,Pembangunan Perumahan,Oepiak,"6585+FGR, Daleholu, Kec. Rote Sel., Kabupaten Rote Ndao, Nusa Tenggara Tim.","Kabupaten Rote Ndao, Nusa Tenggara Tim.",NUSA TENGGARA TIMUR,,Indonesia,,,,-107.837.722,123.158.773,https://maps.google.com/?cid=0x0:0xa3dcc0fbd2d48ca6,
perumahan,Pembangunan Perumahan,Piter dethan,"66H2+6C8, Pilasue, Kec. Rote Sel., Kabupaten Rote Ndao, Nusa Tenggara Tim.","Kabupaten Rote Ndao, Nusa Tenggara Tim.",NUSA TENGGARA TIMUR,,Indonesia,,,,-107.719.672,1.232.010.925,https://maps.google.com/?cid=0x0:0xea2d7eab1659d97d,
perumahan,Perhimpunan Pengembang Perumahan,CHARDIO KETTY,"657F+FRC, Daleholu, Kec. Rote Sel., Kabupaten Rote Ndao, Nusa Tenggara Tim.","Kabupaten Rote Ndao, Nusa Tenggara Tim.",NUSA TENGGARA TIMUR,,Indonesia,81999493285.0,,,-107.863.154,1.231.745.097,https://maps.google.com/?cid=0x0:0xf5184af94b34e001,
perumahan,Komplek perumahan,DelGio Home,"65F7+22R, Daleholu, Kec. Rote Sel., Kabupaten Rote Ndao, Nusa Tenggara Tim.","Kabupaten Rote Ndao, Nusa Tenggara Tim.",NUSA TENGGARA TIMUR,,Indonesia,,,,-10.777.759,1.231.645.234,https://maps.google.com/?cid=0x0:0x26e6938cdbab903f,
perumahan,Komplek perumahan,Fafalu,"65J2+324, Daleholu, Kec. Rote Sel., Kabupaten Rote Ndao, Nusa Tenggara Tim.","Kabupaten Rote Ndao, Nusa Tenggara Tim.",NUSA TENGGARA TIMUR,,Indonesia,,,,-10.770.114,123.150.384,https://maps.google.com/?cid=0x0:0x2dee88dab0944b93,
perumahan,Kantor Perusahaan,Gereja GMIT Sion Nusak,"55RV+69, Inaoe, Kec. Rote Sel., Kabupaten Rote Ndao, Nusa Tenggara Tim.","Kabupaten Rote Ndao, Nusa Tenggara Tim.",NUSA TENGGARA TIMUR,,Indonesia,,,,-108.094.258,1.231.934.467,https://maps.google.com/?cid=0x0:0xb8b3aa51abdf4f44,
perumahan,Pembangunan Perumahan,Deta bei lalten,"66P2+Q37, pilasue, Kec. Rote Sel., Kabupaten Rote Ndao, Nusa Tenggara Tim.","Kabupaten Rote Ndao, Nusa Tenggara Tim.",NUSA TENGGARA TIMUR,,Indonesia,,,,-107.635.933,123.200.415,https://maps.google.com/?cid=0x0:0x2690e51ebdf31599,
perumahan,Komplek perumahan,FredLy,"65C5+9MM, Unnamed Road, Daleholu, Kec. Rote Sel., Kabupaten Rote Ndao, Nusa Tenggara Tim.","Kabupaten Rote Ndao, Nusa Tenggara Tim.",NUSA TENGGARA TIMUR,,Indonesia,,,,-107.790.262,1.231.591.777,https://maps.google.com/?cid=0x0:0x50846601f5d734ef,
perumahan,Pembangunan Perumahan,A.Bessie,"66M6+P75, Lenguselu, Kec. Rote Sel., Kabupaten Rote Ndao, Nusa Tenggara Tim.","Kabupaten Rote Ndao, Nusa Tenggara Tim.",NUSA TENGGARA TIMUR,,Indonesia,,,,-107.657.375,1.232.107.344,https://maps.google.com/?cid=0x0:0x79c7d5508eb8467f,
perumahan,Komplek perumahan,Rumah Semuel mbolik,"646W+X9M, Kolobolon, Kec. Lobalain, Kabupaten Rote Ndao, Nusa Tenggara Tim.","Kabupaten Rote Ndao, Nusa Tenggara Tim.",NUSA TENGGARA TIMUR,,Indonesia,,,,-107.875.287,1.231.459.327,https://maps.google.com/?cid=0x0:0x7544eaddc1a15d9d,
perumahan,Komplek perumahan,Deniss,"6579+R85, Daleholu, Kec. Rote Sel., Kabupaten Rote Ndao, Nusa Tenggara Tim.","Kabupaten Rote Ndao, Nusa Tenggara Tim.",NUSA TENGGARA TIMUR,,Indonesia,,,,-10.785.946,123.168.171,https://maps.google.com/?cid=0x0:0xc1fb20d83f826058,
perumahan,Komplek perumahan,Rumah Reski Dethan,"65QJ+FH9, Lenguselu, Kec. Rote Sel., Kabupaten Rote Ndao, Nusa Tenggara Tim.","Kabupaten Rote Ndao, Nusa Tenggara Tim.",NUSA TENGGARA TIMUR,,Indonesia,,,,-107.609.533,1.231.816.408,https://maps.google.com/?cid=0x0:0x6984ea856409216e,
perumahan,Pembangunan Perumahan,Chiro Fanggidae,"65G5+47X, Daleholu, Kec. Rote Sel., Kabupaten Rote Ndao, Nusa Tenggara Tim.","Kabupaten Rote Ndao, Nusa Tenggara Tim.",NUSA TENGGARA TIMUR,,Indonesia,82320604138.0,,,-107.746.475,1.231.582.282,https://maps.google.com/?cid=0x0:0x48484f3d53f1e31b,
perumahan,perumahan,Rumah Marthen Sinlae,"6579+RVX, Jl.Keka Talae, Dilaboiana, Daleholu, Kec. Rote Sel., Kabupaten Rote Ndao, Nusa Tenggara Tim.","Kabupaten Rote Ndao, Nusa Tenggara Tim.",NUSA TENGGARA TIMUR,,Indonesia,,,,-107.853.804,1.231.697.447,https://maps.google.com/?cid=0x0:0x4b3cc972fa7b13c9,
perumahan,Komplek perumahan,Rumah Zhirea Patola,"65QH+7PV, Lenguselu, Kec. Rote Sel., Kabupaten Rote Ndao, Nusa Tenggara Tim.","Kabupaten Rote Ndao, Nusa Tenggara Tim.",NUSA TENGGARA TIMUR,,Indonesia,,,,-107.619.175,1.231.783.493,https://maps.google.com/?cid=0x0:0x65f2f56944e40144,
perumahan,Komplek perumahan,Rumah Bujang,"658F+3RG, Daleholu, Kec. Rote Sel., Kabupaten Rote Ndao, Nusa Tenggara Tim.","Kabupaten Rote Ndao, Nusa Tenggara Tim.",NUSA TENGGARA TIMUR,,Indonesia,,,,-107.848.155,1.231.745.997,https://maps.google.com/?cid=0x0:0x3234bac8e4a91e01,
perumahan,perumahan,Ndao Nuse,"Kec. Ndao Nuse, Kabupaten Rote Ndao, Nusa Tenggara Tim.","Kabupaten Rote Ndao, Nusa Tenggara Tim.",NUSA TENGGARA TIMUR,,Indonesia,,,,-108.311.123,1.227.379.001,https://maps.google.com/?cid=0x0:0xa599a843e70bb45a,
perumahan,perumahan,Kec. Ndao Nuse,"Ndao Nuse, Kabupaten Rote Ndao, Nusa Tenggara Tim.","Kabupaten Rote Ndao, Nusa Tenggara Tim.",NUSA TENGGARA TIMUR,,Indonesia,,,,-108.168.497,1.226.672.521,https://maps.google.com/?cid=0x0:0x9d585f1fd1968a49,
perumahan,Komplek perumahan,Ndao Nuse,"5MM8+7V4, Ndao Nuse, Kec. Ndao Nuse, Kabupaten Rote Ndao, Nusa Tenggara Tim.","Kabupaten Rote Ndao, Nusa Tenggara Tim.",NUSA TENGGARA TIMUR,,Indonesia,,,,-108.168.556,1.226.671.975,https://maps.google.com/?cid=0x0:0x3672fb35f3bdcace,
perumahan,Pembangunan Perumahan,HERMAN,"5MCF+F3, Ndao Nuse, Kec. Ndao Nuse, Kabupaten Rote Ndao, Nusa Tenggara Tim.","Kabupaten Rote Ndao, Nusa Tenggara Tim.",NUSA TENGGARA TIMUR,,Indonesia,,,,-10.827.993,12.267.279,https://maps.google.com/?cid=0x0:0xb3e34a182add84bd,
perumahan,Komplek perumahan,Dusun Darapadoa,"Ndao Nuse, Kec. Rote Bar., Kabupaten Rote Ndao, Nusa Tenggara Tim.","Kabupaten Rote Ndao, Nusa Tenggara Tim.",NUSA TENGGARA TIMUR,,Indonesia,,,,-108.167.938,1.226.649.955,https://maps.google.com/?cid=0x0:0x8df5d7c702a696df,
perumahan,perumahan,Marsya,"Pulau ndao, Ndao Nuse, Kec. Ndao Nuse, Kabupaten Rote Ndao, Nusa Tenggara Tim.","Kabupaten Rote Ndao, Nusa Tenggara Tim.",NUSA TENGGARA TIMUR,,Indonesia,,,,-10.815.045,122.669.173,https://maps.google.com/?cid=0x0:0x9adc14bda2ccc2c9,
perumahan,Pembangunan Perumahan,Oedai,"5MQ8+HR8, Ndao Nuse, Kec. Ndao Nuse, Kabupaten Rote Ndao, Nusa Tenggara Tim.","Kabupaten Rote Ndao, Nusa Tenggara Tim.",NUSA TENGGARA TIMUR,,Indonesia,,,,-108.104.304,1.226.669.628,https://maps.google.com/?cid=0x0:0x6e23798e55280ec5,
perumahan,perumahan,Petrus Nalle,"6Q9H+P2, Ndao Nuse, Kec. Ndao Nuse, Kabupaten Rote Ndao, Nusa Tenggara Tim.","Kabupaten Rote Ndao, Nusa Tenggara Tim.",NUSA TENGGARA TIMUR,,Indonesia,,,,-107.806.333,1.227.775.272,https://maps.google.com/?cid=0x0:0xf6685eb5e1c75e96,
perumahan,Pembangunan Perumahan,Rumah Presiden ndao,"5MFC+76, Ndao Nuse, Kec. Ndao Nuse, Kabupaten Rote Ndao, Nusa Tenggara Tim.","Kabupaten Rote Ndao, Nusa Tenggara Tim.",NUSA TENGGARA TIMUR,,Indonesia,,,,-108.267.402,1.226.705.643,https://maps.google.com/?cid=0x0:0xae197d5ed79825fd,
perumahan,Komplek perumahan,Dusun Lendeiki,"5MJ8+XRX, Ndao Nuse, Kec. Rote Bar., Kabupaten Rote Ndao, Nusa Tenggara Tim.","Kabupaten Rote Ndao, Nusa Tenggara Tim.",NUSA TENGGARA TIMUR,,Indonesia,,,,-108.175.179,1.226.671.054,https://maps.google.com/?cid=0x0:0xcd205e133fc187bf,
perumahan,perumahan,Desmy Fattu,"5MHJ+Q5W, Ndao Nuse, Kec. Ndao Nuse, Kabupaten Rote Ndao, Nusa Tenggara Tim.","Kabupaten Rote Ndao, Nusa Tenggara Tim.",NUSA TENGGARA TIMUR,,Indonesia,,,,-10.821.523,1.226.799.864,https://maps.google.com/?cid=0x0:0xfff6f8fb719f59fc,
perumahan,Pembangunan Perumahan,Jun nisnoni,"5MJ7+Q8, Ndao Nuse, Kec. Ndao Nuse, Kabupaten Rote Ndao, Nusa Tenggara Tim.","Kabupaten Rote Ndao, Nusa Tenggara Tim.",NUSA TENGGARA TIMUR,,Indonesia,,,,-108.174.169,122.663.746,https://maps.google.com/?cid=0x0:0x588b471632003964,
perumahan,Komplek perumahan,Dusun Rae Hiu,"5MH7+XMP, Ndao Nuse, Kec. Ndao Nuse, Kabupaten Rote Ndao, Nusa Tenggara Tim.","Kabupaten Rote Ndao, Nusa Tenggara Tim.",NUSA TENGGARA TIMUR,,Indonesia,,,,-108.200.431,122.664.216,https://maps.google.com/?cid=0x0:0xe425e579800a249f,
perumahan,Komplek perumahan,Rumah BPK Renhard ndun,"5MM8+7V4, Ndao Nuse, Kec. Ndao Nuse, Kabupaten Rote Ndao, Nusa Tenggara Tim.","Kabupaten Rote Ndao, Nusa Tenggara Tim.",NUSA TENGGARA TIMUR,,Indonesia,,,,-108.168.556,1.226.671.975,https://maps.google.com/?cid=0x0:0x3e73ee1f321c7a77,
perumahan,Komplek perumahan,Donker,"5MP8+4JG, RT.002/RW.003, Daramakei, Desa Mbali Lendeiki, Kec. Ndao Nuse, Kabupaten Rote Ndao, Nusa Tenggara Tim.","Kabupaten Rote Ndao, Nusa Tenggara Tim.",NUSA TENGGARA TIMUR,,Indonesia,,,,-10.814.694,1.226.665.765,https://maps.google.com/?cid=0x0:0x2f3d3493e56284b8,
perumahan,Pembangunan Perumahan,FATULA,"5MJG+8XF, Fatula, Ndao Nuse, Kec. Ndao Nuse, Kabupaten Rote Ndao, Nusa Tenggara Tim.","Kabupaten Rote Ndao, Nusa Tenggara Tim.",NUSA TENGGARA TIMUR,,Indonesia,,,,-108.191.806,1.226.774.161,https://maps.google.com/?cid=0x0:0x377aa43d1d14333c,
perumahan,Perhimpunan Pengembang Perumahan,Emon chr,"5MV7+WQC, Anarae, Ndao Nuse, Kec. Ndao Nuse, Kabupaten Rote Ndao, Nusa Tenggara Tim.","Kabupaten Rote Ndao, Nusa Tenggara Tim.",NUSA TENGGARA TIMUR,,Indonesia,,,,-108.051.841,1.226.643.947,https://maps.google.com/?cid=0x0:0xe69611d3009b265f,
perumahan,Pembangunan Perumahan,Feama,"5MM8+6WF, Ndao Nuse, Kec. Ndao Nuse, Kabupaten Rote Ndao, Nusa Tenggara Tim.","Kabupaten Rote Ndao, Nusa Tenggara Tim.",NUSA TENGGARA TIMUR,,Indonesia,,,,-10.816.932,1.226.672.982,https://maps.google.com/?cid=0x0:0x9171f0af33a41068,
perumahan,Perhimpunan Pengembang Perumahan,Tanah Warisan Kelurga Muda,"5MFC+76, Ndao Nuse, Kec. Ndao Nuse, Kabupaten Rote Ndao, Nusa Tenggara Tim.","Kabupaten Rote Ndao, Nusa Tenggara Tim.",NUSA TENGGARA TIMUR,,Indonesia,,,,-10.826.576,122.669.137,https://maps.google.com/?cid=0x0:0xedc29629740f89c4,
perumahan,Komplek perumahan,Fr.Bela,"5MM8+5FH, Ndao Nuse, Kec. Ndao Nuse, Kabupaten Rote Ndao, Nusa Tenggara Tim.","Kabupaten Rote Ndao, Nusa Tenggara Tim.",NUSA TENGGARA TIMUR,,Indonesia,,,,-108.170.596,1.226.662.491,https://maps.google.com/?cid=0x0:0x3710781ecb66e145,
perumahan,Komplek perumahan,Kenan Tolla,"5MV8+PPF, Ndao Nuse, Kec. Ndao Nuse, Kabupaten Rote Ndao, Nusa Tenggara Tim.","Kabupaten Rote Ndao, Nusa Tenggara Tim.",NUSA TENGGARA TIMUR,,Indonesia,81338603582.0,,,-108.056.866,1.226.668.124,https://maps.google.com/?cid=0x0:0x2eadef14b3fc2e06,
perumahan,perumahan,Kelapa dua,"5P9Q+H52 Desa mbali, Ndao Nuse, Kec. Rote Bar., Kabupaten Rote Ndao, Nusa Tenggara Tim.","Kabupaten Rote Ndao, Nusa Tenggara Tim.",NUSA TENGGARA TIMUR,,Indonesia,,,,-108.311.123,1.227.379.001,https://maps.google.com/?cid=0x0:0x9807e12951381d64,
perumahan,perumahan,Kec. Landu Leko,"Kabupaten Rote Ndao, Nusa Tenggara Tim.","Kabupaten Rote Ndao, Nusa Tenggara Tim.",NUSA TENGGARA TIMUR,,Indonesia,,,,-105.683.899,1.233.761.005,https://maps.google.com/?cid=0x0:0x2770e84300ca8ac7,
perumahan,Komplek perumahan,Rumah Ivan Rotte,"F73J+CR, Sotimori, Kec. Landu Leko, Kabupaten Rote Ndao, Nusa Tenggara Tim.","Kabupaten Rote Ndao, Nusa Tenggara Tim.",NUSA TENGGARA TIMUR,,Indonesia,,,,-105.449.719,1.232.822.244,https://maps.google.com/?cid=0x0:0x20e066e348ce2798,
perumahan,Perhimpunan Pengembang Perumahan,"Mokdale, Landu Leko","Sotimori, Kec. Rote Tim., Kabupaten Rote Ndao, Nusa Tenggara Tim.","Kabupaten Rote Ndao, Nusa Tenggara Tim.",NUSA TENGGARA TIMUR,,Indonesia,81337897791.0,,,-105.585.991,1.233.202.126,https://maps.google.com/?cid=0x0:0xb2bba89c42e591d8,
perumahan,Komplek perumahan,Rumah melan haiain,"F75R+MV4, Sotimori, Kec. Landu Leko, Kabupaten Rote Ndao, Nusa Tenggara Tim.","Kabupaten Rote Ndao, Nusa Tenggara Tim.",NUSA TENGGARA TIMUR,,Indonesia,,,,-105.408.655,1.232.921.996,https://maps.google.com/?cid=0x0:0xc6662d4311811a19,
perumahan,Komplek perumahan,Gang kaco,"C9JC+6R, Daiama, Kec. Landu Leko, Kabupaten Rote Ndao, Nusa Tenggara Tim.","Kabupaten Rote Ndao, Nusa Tenggara Tim.",NUSA TENGGARA TIMUR,,Indonesia,,,,-10.569.295,1.233.720.046,https://maps.google.com/?cid=0x0:0xda1efa9979926995,
perumahan,Pembangunan Perumahan,Rifat Bulan,"C9PJ+Q3, Daiama, Kec. Landu Leko, Kabupaten Rote Ndao, Nusa Tenggara Tim.","Kabupaten Rote Ndao, Nusa Tenggara Tim.",NUSA TENGGARA TIMUR,,Indonesia,,,,-105.629.782,1.233.802.228,https://maps.google.com/?cid=0x0:0xad52fa15c0e87e73,
perumahan,Komplek perumahan,chen loko,"C9JG+FC9, Daiama, Kec. Landu Leko, Kabupaten Rote Ndao, Nusa Tenggara Tim.","Kabupaten Rote Ndao, Nusa Tenggara Tim.",NUSA TENGGARA TIMUR,,Indonesia,,,,-105.696.796,1.233.753.668,https://maps.google.com/?cid=0x0:0x27cc15654e998221,
perumahan,Komplek perumahan,Rumah Mas Ivan Rotte,"F897+PX4, Sotimori, Kec. Landu Leko, Kabupaten Rote Ndao, Nusa Tenggara Tim.","Kabupaten Rote Ndao, Nusa Tenggara Tim.",NUSA TENGGARA TIMUR,,Indonesia,,,,-10.530.737,1.233.149.413,https://maps.google.com/?cid=0x0:0x218d940511270742,
perumahan,Perhimpunan Pengembang Perumahan,Jhee pada,"C9JC+6R, Daiama, Kec. Landu Leko, Kabupaten Rote Ndao, Nusa Tenggara Tim.","Kabupaten Rote Ndao, Nusa Tenggara Tim.",NUSA TENGGARA TIMUR,,Indonesia,,,,-105.692.858,1.233.719.327,https://maps.google.com/?cid=0x0:0x14e37bfa70842986,
perumahan,perumahan,naysila salim,"99WH+M2P, Londalusi, Kec. Rote Tim., Kabupaten Rote Ndao, Nusa Tenggara Tim.","Kabupaten Rote Ndao, Nusa Tenggara Tim.",NUSA TENGGARA TIMUR,,Indonesia,,,,-106.032.926,1.233.775.742,https://maps.google.com/?cid=0x0:0xe1c96dc685ba8639,
perumahan,Komplek perumahan,Varo loko,"C9JG+FC9, Daiama, Kec. Landu Leko, Kabupaten Rote Ndao, Nusa Tenggara Tim.","Kabupaten Rote Ndao, Nusa Tenggara Tim.",NUSA TENGGARA TIMUR,,Indonesia,,,,-105.695.878,1.233.752.518,https://maps.google.com/?cid=0x0:0x14b6bd48e40326cf,
perumahan,Komplek perumahan,Hesrom Lako,"F9GG+6QP, Oeinalain, Daiama, Kec. Landu Leko, Kabupaten Rote Ndao, Nusa Tenggara Tim.","Kabupaten Rote Ndao, Nusa Tenggara Tim.",NUSA TENGGARA TIMUR,,Indonesia,,,,-105.244.173,1.233.769.584,https://maps.google.com/?cid=0x0:0x942dc282dc812f08,
perumahan,Kompleks Apartemen,Ari Regiyanto Muris,"F885+264, Sotimori, Kec. Landu Leko, Kabupaten Rote Ndao, Nusa Tenggara Tim.","Kabupaten Rote Ndao, Nusa Tenggara Tim.",NUSA TENGGARA TIMUR,,Indonesia,,,,-105.349.913,1.233.080.922,https://maps.google.com/?cid=0x0:0xa2b991de7abc759f,
perumahan,perumahan,Rumah putra bolla,"99F9+G3G, Serubeba, Kec. Rote Tim., Kabupaten Rote Ndao, Nusa Tenggara Tim.","Kabupaten Rote Ndao, Nusa Tenggara Tim.",NUSA TENGGARA TIMUR,,Indonesia,,,,-106.261.764,1.233.677.041,https://maps.google.com/?cid=0x0:0xc306a8ea4e7db8b1,
perumahan,Pembangunan Perumahan,Bpk Loko,"C9JG+FC9, Daiama, Kec. Landu Leko, Kabupaten Rote Ndao, Nusa Tenggara Tim.","Kabupaten Rote Ndao, Nusa Tenggara Tim.",NUSA TENGGARA TIMUR,,Indonesia,,,,-105.696.795,1.233.753.665,https://maps.google.com/?cid=0x0:0xb6d1387d31f3958a,
perumahan,Pembangunan Perumahan,Yotam bero,"F9RG+FM3, Daiama, Kec. Landu Leko, Kabupaten Rote Ndao, Nusa Tenggara Tim.","Kabupaten Rote Ndao, Nusa Tenggara Tim.",NUSA TENGGARA TIMUR,,Indonesia,,,,-105.088.622,1.233.766.669,https://maps.google.com/?cid=0x0:0x417a86a08f291be6,
perumahan,Komplek perumahan,IRVAN MEOK,"FCWM+CJG, Daiama, Kec. Landu Leko, Kabupaten Rote Ndao, Nusa Tenggara Tim.","Kabupaten Rote Ndao, Nusa Tenggara Tim.",NUSA TENGGARA TIMUR,,Indonesia,,,,-105.039.398,1.234.340.721,https://maps.google.com/?cid=0x0:0x749cff88e8c98070,
perumahan,Komplek perumahan,Abner seseli,"F94F+H22, Pulau Usu, Tenalai, Kec. Landu Leko, Kabupaten Rote Ndao, Nusa Tenggara Tim.","Kabupaten Rote Ndao, Nusa Tenggara Tim.",NUSA TENGGARA TIMUR,,Indonesia,,,,-105.436.111,1.233.725,https://maps.google.com/?cid=0x0:0x3c1cd3c987307277,
perumahan,Komplek perumahan,Rumah Kost,"C8Q7+PX2, Sotimori, Kec. Rote Tim., Kabupaten Rote Ndao, Nusa Tenggara Tim.","Kabupaten Rote Ndao, Nusa Tenggara Tim.",NUSA TENGGARA TIMUR,,Indonesia,,,,-105.609.037,1.233.152.012,https://maps.google.com/?cid=0x0:0xcce93fae43615cab,
perumahan,Komplek perumahan,Rumah tinggal,"99XH+FCC, Londalusi, Kec. Rote Tim., Kabupaten Rote Ndao, Nusa Tenggara Tim.","Kabupaten Rote Ndao, Nusa Tenggara Tim.",NUSA TENGGARA TIMUR,,Indonesia,,,,-106.013.317,1.233.784.772,https://maps.google.com/?cid=0x0:0x152bfb7c69aa5b56,
perumahan,perumahan,Josep muris,"F897+PX4, Sotimori, Kec. Landu Leko, Kabupaten Rote Ndao, Nusa Tenggara Tim.","Kabupaten Rote Ndao, Nusa Tenggara Tim.",NUSA TENGGARA TIMUR,,Indonesia,,,,-10.530.737,1.233.149.413,https://maps.google.com/?cid=0x0:0x675336e147c94d5d,
perumahan,perumahan,Rumah Irwan,"C93J+3M6, Londalusi, Kec. Rote Tim., Kabupaten Rote Ndao, Nusa Tenggara Tim.","Kabupaten Rote Ndao, Nusa Tenggara Tim.",NUSA TENGGARA TIMUR,,Indonesia,,,,-105.973.363,1.233.816.462,https://maps.google.com/?cid=0x0:0xe9b4ffc4fccd7cf2,
perumahan,perumahan,Kec. Pantai Baru,"Kabupaten Rote Ndao, Nusa Tenggara Tim.","Kabupaten Rote Ndao, Nusa Tenggara Tim.",NUSA TENGGARA TIMUR,,Indonesia,,,,-107.134.149,1.232.926.241,https://maps.google.com/?cid=0x0:0x1cee30470e179e69,
perumahan,Tujuan Wisata,Dermaga Pantai Baru,"96VM+R6F, desa ofalangga, Kec. Pantai Baru, Kabupaten Rote Ndao, Nusa Tenggara Tim.","Kabupaten Rote Ndao, Nusa Tenggara Tim.",NUSA TENGGARA TIMUR,,Indonesia,82236990067.0,,,-106.054.432,1.232.330.452,https://maps.google.com/?cid=0x0:0xd2ca7638e0629eb9,
perumahan,Perumahan,Perumahan MBR Petuk,"Perumahan MBR Petuk, Blk. E, Kolhua, Kec. Maulafa, Kota Kupang, Nusa Tenggara Tim.","Kota Kupang, Nusa Tenggara Tim.",NUSA TENGGARA TIMUR,,Indonesia,85847009539.0,,,-101.985.144,1.236.246.492,https://maps.google.com/?cid=0x0:0x257c7254e0e5cdee,
perumahan,Rumah Makan,Warung fadhilah,"969J+JVR, Olafulihaa, Kec. Pantai Baru, Kabupaten Rote Ndao, Nusa Tenggara Tim.","Kabupaten Rote Ndao, Nusa Tenggara Tim.",NUSA TENGGARA TIMUR,,Indonesia,82144407950.0,,,-106.308.889,1.232.321.529,https://maps.google.com/?cid=0x0:0xe69abc84bb8ce90c,
perumahan,perumahan,Mias Ndun,"766H+R83, LETEK, Nusakdale, Kec. Pantai Baru, Kabupaten Rote Ndao, Nusa Tenggara Tim.","Kabupaten Rote Ndao, Nusa Tenggara Tim.",NUSA TENGGARA TIMUR,,Indonesia,,,,-107.374.207,1.232.271.496,https://maps.google.com/?cid=0x0:0xdb1c37ae80c2bcab,
perumahan,Komplek perumahan,L.A,"78Q2+V9F, Oebau, Kec. Pantai Baru, Kabupaten Rote Ndao, Nusa Tenggara Tim.","Kabupaten Rote Ndao, Nusa Tenggara Tim.",NUSA TENGGARA TIMUR,,Indonesia,,,,-107.103.154,1.233.009.258,https://maps.google.com/?cid=0x0:0xaad28617527d7df7,
perumahan,Komplek perumahan,AGUSTINUS TASSI,"964P+C4M, Olafulihaa, Kec. Pantai Baru, Kabupaten Rote Ndao, Nusa Tenggara Tim.","Kabupaten Rote Ndao, Nusa Tenggara Tim.",NUSA TENGGARA TIMUR,,Indonesia,,,,-106.439.014,1.232.352.834,https://maps.google.com/?cid=0x0:0x3bda0fad8039da9a,
perumahan,Pembangunan Perumahan,Lekona,"77PV+J2Q, Sonimanu, Kec. Pantai Baru, Kabupaten Rote Ndao, Nusa Tenggara Tim.","Kabupaten Rote Ndao, Nusa Tenggara Tim.",NUSA TENGGARA TIMUR,,Indonesia,,,,-107.134.149,1.232.926.241,https://maps.google.com/?cid=0x0:0xa048edb9df58205f,
perumahan,Perhimpunan Pengembang Perumahan,"Kec.Pantai Baru, Rote Ndao","96HJ+XQP, Jl. Pelabuhan Pantai Baru, Tesabela, Kec. Pantai Baru, Kabupaten Rote Ndao, Nusa Tenggara Tim.","Kabupaten Rote Ndao, Nusa Tenggara Tim.",NUSA TENGGARA TIMUR,,Indonesia,,,,-106.200.438,1.232.319.413,https://maps.google.com/?cid=0x0:0x4073d449d2438b1f,
perumahan,Pembangunan Perumahan,"Desa fatelilo,dusun olak","77PV+J2Q, Sonimanu, Kec. Pantai Baru, Kabupaten Rote Ndao, Nusa Tenggara Tim.","Kabupaten Rote Ndao, Nusa Tenggara Tim.",NUSA TENGGARA TIMUR,,Indonesia,,,,-107.134.149,1.232.926.241,https://maps.google.com/?cid=0x0:0xfc092d3211699be3,
perumahan,Komplek perumahan,Rumah mex bulan,"96H4+QH, Tunganamo, Kec. Pantai Baru, Kabupaten Rote Ndao, Nusa Tenggara Tim.","Kabupaten Rote Ndao, Nusa Tenggara Tim.",NUSA TENGGARA TIMUR,,Indonesia,,,,-106.205.563,1.232.064.672,https://maps.google.com/?cid=0x0:0xf373c72d0386a948,
perumahan,Perhimpunan Pengembang Perumahan,Apet Pethan,"966J+H3Q, Olafulihaa, Kec. Pantai Baru, Kabupaten Rote Ndao, Nusa Tenggara Tim.","Kabupaten Rote Ndao, Nusa Tenggara Tim.",NUSA TENGGARA TIMUR,,Indonesia,,,,-10.638.534,1.232.302.499,https://maps.google.com/?cid=0x0:0x256c83ea06cb341,
perumahan,Komplek perumahan,Rumah,"962H+WM4, Olafulihaa, Kec. Pantai Baru, Kabupaten Rote Ndao, Nusa Tenggara Tim.","Kabupaten Rote Ndao, Nusa Tenggara Tim.",NUSA TENGGARA TIMUR,,Indonesia,,,,-106.477.338,1.232.291.982,https://maps.google.com/?cid=0x0:0x367d46f36a7dd06d,
perumahan,Komplek perumahan,Bpk. Max A. Welkis,"966J+957, Olafulihaa, Kec. Pantai Baru, Kabupaten Rote Ndao, Nusa Tenggara Tim.","Kabupaten Rote Ndao, Nusa Tenggara Tim.",NUSA TENGGARA TIMUR,,Indonesia,,,,-106.390.981,1.232.304.302,https://maps.google.com/?cid=0x0:0x2dc770788abc2,
perumahan,Komplek perumahan,Anisa Nabilla,"964R+CHJ, Olafulihaa, Kec. Pantai Baru, Kabupaten Rote Ndao, Nusa Tenggara Tim.","Kabupaten Rote Ndao, Nusa Tenggara Tim.",NUSA TENGGARA TIMUR,,Indonesia,,,,-106.439.202,1.232.413.938,https://maps.google.com/?cid=0x0:0x32a075c3a8889d2f,
perumahan,perumahan,Rumah Noviandi Napitupulu,"97J8+V2G, Edalode, Kec. Pantai Baru, Kabupaten Rote Ndao, Nusa Tenggara Tim.","Kabupaten Rote Ndao, Nusa Tenggara Tim.",NUSA TENGGARA TIMUR,,Indonesia,,,,-106.178.053,1.232.650.789,https://maps.google.com/?cid=0x0:0xa3ec38101c335cb8,
perumahan,Perhimpunan Pengembang Perumahan,Rumah Yungki Bollu,"8825+JXJ, Oeledo, Kec. Pantai Baru, Kabupaten Rote Ndao, Nusa Tenggara Tim.","Kabupaten Rote Ndao, Nusa Tenggara Tim.",NUSA TENGGARA TIMUR,,Indonesia,,,,-106.984.056,1.233.098.763,https://maps.google.com/?cid=0x0:0x55690dd414b98184,
perumahan,Pembangunan Perumahan,"Falanoen, Desa Fatelilo","8848+RVW, Oeledo, Kec. Pantai Baru, Kabupaten Rote Ndao, Nusa Tenggara Tim.","Kabupaten Rote Ndao, Nusa Tenggara Tim.",NUSA TENGGARA TIMUR,,Indonesia,,,,-106.928.809,1.233.172.137,https://maps.google.com/?cid=0x0:0x8d5e90a3dcfb5669,
perumahan,Kantor Pemerintah,Desa Lekona,"967J+44R, Olafulihaa, Kec. Pantai Baru, Kabupaten Rote Ndao, Nusa Tenggara Tim.","Kabupaten Rote Ndao, Nusa Tenggara Tim.",NUSA TENGGARA TIMUR,,Indonesia,,,,-106.371.369,1.232.302.503,https://maps.google.com/?cid=0x0:0x8aee3e17a2d5f3cd,
perumahan,Komplek perumahan,Nacho Pays,"Rt.008/RW.004, Dusun Mamaluk, Keoen, Kec. Pantai Baru","Kabupaten Rote Ndao, Nusa Tenggara Tim.",NUSA TENGGARA TIMUR,,Indonesia,,,,-106.412.525,1.232.988.586,https://maps.google.com/?cid=0x0:0x479d8133803280d7,
perumahan,Perhimpunan Pengembang Perumahan,Rumah Sean Bulan,"Jl Pantai Baru No.Ba'a, Tunganamo, Kec. Pantai Baru, Kabupaten Rote Ndao, Nusa Tenggara Tim.","Kabupaten Rote Ndao, Nusa Tenggara Tim.",NUSA TENGGARA TIMUR,,Indonesia,,,,-106.246.009,1.231.986.933,https://maps.google.com/?cid=0x0:0x6fa5236f8341bcd1,
perumahan,perumahan,Jublina Pellondou,"766H+72, Nusakdale, Kec. Pantai Baru, Kabupaten Rote Ndao, Nusa Tenggara Tim.","Kabupaten Rote Ndao, Nusa Tenggara Tim.",NUSA TENGGARA TIMUR,,Indonesia,,,,-107.393.526,1.232.276.234,https://maps.google.com/?cid=0x0:0xad07b780b4fe9064,
perumahan,Komplek perumahan,Yarib,"9798+PF, Edalode, Kec. Pantai Baru, Kabupaten Rote Ndao, Nusa Tenggara Tim.","Kabupaten Rote Ndao, Nusa Tenggara Tim.",NUSA TENGGARA TIMUR,,Indonesia,,,,-106.306.728,1.232.662.008,https://maps.google.com/?cid=0x0:0x2ef9085f9ea68f94,
perumahan,perumahan,Yakobis Pellondou,"766H+R83, LETEK, Nusakdale, Kec. Pantai Baru, Kabupaten Rote Ndao, Nusa Tenggara Tim.","Kabupaten Rote Ndao, Nusa Tenggara Tim.",NUSA TENGGARA TIMUR,,Indonesia,,,,-107.392.376,1.232.275.023,https://maps.google.com/?cid=0x0:0xa423b3f12a2527a6,
