Category;Real Category;Business Name;Address;City;State;Postal Code;Country;Phone;Email;Website;Latitude;Longitude;Map Link;Details Link
"komplek housing";"komplek housing";"Kec. Karubaga";"Kabupaten Tolikara, Papua";"Kabupaten Tolikara, Papua";"PAPUA";"";"Indonesia";"";"";"";"-3.6837789";"138.4763233";"https://maps.google.com/?cid=0x0:0x7a7aac168c153399";""
"komplek housing";"Komplek perumahan";"Komplek Perumahan YPPGI";"8F7J+Q63, Karubaga, Kec. Karubaga, Kabupaten Tolikara, Papua";"Kabupaten Tolikara, Papua";"PAPUA";"";"Indonesia";"";"";"";"-3.6856154";"138.4805518";"https://maps.google.com/?cid=0x0:0x1e996dde1edb3b03";""
"komplek housing";"Pembangunan Perumahan";"Perumahan PEMDA";"8FCG+33Q, Muara, Kec. Karubaga, Kabupaten Tolikara, Papua 99567";"Muara, Kec. Karubaga, Kabupaten Tolikara";"PAPUA";"99567";"Indonesia";"";"";"";"-3.6797785";"138.4752409";"https://maps.google.com/?cid=0x0:0x92f2706a088cac78";""
"komplek housing";"Pembangunan Perumahan";"MESS BAKTI (HUP)";"8F8H+R2X, Karubaga, Kec. Karubaga, Kabupaten Tolikara, Papua 99567";"Karubaga, Kec. Karubaga, Kabupaten Tolikara";"PAPUA";"99567";"Indonesia";"";"";"";"-3.6828849";"138.4776154";"https://maps.google.com/?cid=0x0:0x191d22cf391b74d6";""
"komplek housing";"Gedung Apartemen";"Kimobur";"7FP3+XH, Abepur, Distrik Kuari, Kabupaten Tolikara, Papua";"Kabupaten Tolikara, Papua";"PAPUA";"";"Indonesia";"";"";"";"-3.71258";"138.453943";"https://maps.google.com/?cid=0x0:0xcb39f5ecb3e7026d";""
"komplek housing";"komplek housing";"Paremal Boys {PRM}";"8M98+4WJ, Bokondini, Kec. Bokondini, Kabupaten Tolikara, Papua 99556";"Bokondini, Kec. Bokondini, Kabupaten Tolikara";"PAPUA";"99556";"Indonesia";" 081221416127";"";"";"-3.6832944";"138.6664513";"https://maps.google.com/?cid=0x0:0x6f72c9da0d8b50a4";""
"komplek housing";"komplek housing";"Bokondini";"Bokondini, Kec. Bokondini, Kabupaten Tolikara, Papua";"Kabupaten Tolikara, Papua";"PAPUA";"";"Indonesia";"";"";"";"-3.6881806";"138.6803623";"https://maps.google.com/?cid=0x0:0x54885a86dafb328d";""
"komplek housing";"komplek housing";"Kec. Tebet";"Kota Jakarta Selatan, Daerah Khusus Ibukota Jakarta";"Kota Jakarta Selatan, Daerah Khusus Ibukota Jakarta";"PAPUA";"";"Indonesia";"";"";"";"-6.2251223";"106.8549881";"https://maps.google.com/?cid=0x0:0xd575e31c807295f9";""
"komplek housing";"Perhimpunan Pengembang Perumahan";"Yogoluk";"89M9+CV, Kanggime, Distrik Kanggime, Kabupaten Tolikara, Papua";"Kabupaten Tolikara, Papua";"PAPUA";"";"Indonesia";"";"";"";"-3.6664425";"138.3696546";"https://maps.google.com/?cid=0x0:0x3a27233d6e6a4f40";""
"komplek housing";"Pembangunan Perumahan";"JELEKPELEK";"8FCF+C8G, Muara, Kec. Karubaga, Kabupaten Tolikara, Papua 99567";"Muara, Kec. Karubaga, Kabupaten Tolikara";"PAPUA";"99567";"Indonesia";"";"";"";"-3.6801995";"138.4736612";"https://maps.google.com/?cid=0x0:0x6dd4edeca684d55a";""
"komplek housing";"komplek housing";"Distrik Kanggime";"Kabupaten Tolikara, Papua";"Kabupaten Tolikara, Papua";"PAPUA";"";"Indonesia";"";"";"";"-3.665848";"138.3631975";"https://maps.google.com/?cid=0x0:0x6995094a6721688";""
"komplek housing";"komplek housing";"Distrik Kanggime";"Kabupaten Tolikara, Papua";"Kabupaten Tolikara, Papua";"PAPUA";"";"Indonesia";"";"";"";"-3.665848";"138.3631975";"https://maps.google.com/?cid=0x0:0x6995094a6721688";""
"komplek housing";"Perhimpunan Pengembang Perumahan";"Yogoluk";"89M9+CV, Kanggime, Distrik Kanggime, Kabupaten Tolikara, Papua";"Kabupaten Tolikara, Papua";"PAPUA";"";"Indonesia";"";"";"";"-3.6664425";"138.3696546";"https://maps.google.com/?cid=0x0:0x3a27233d6e6a4f40";""
"komplek housing";"komplek housing";"Talinamber Village";"Tolineri, Jln. Raya Khai, Distrik Kanggime, Kabupaten Tolikara, Papua 99042";"Jln. Raya Khai, Distrik Kanggime, Kabupaten Tolikara";"PAPUA";"99042";"Indonesia";"";"";"";"-3.6702654";"138.3309452";"https://maps.google.com/?cid=0x0:0xd666154fcc9319c1";""
"komplek housing";"komplek housing";"Distrik Kembu";"Kabupaten Tolikara, Papua";"Kabupaten Tolikara, Papua";"PAPUA";"";"Indonesia";"";"";"";"-3.5890462";"138.3960902";"https://maps.google.com/?cid=0x0:0xa5a67da0991adaf4";""
"komplek housing";"Komplek perumahan";"Komplek Kemhan Mabes TNI K97";"Jl. Mawarputih K97, Jl. Mawar Putih No.K-97, RT.005/RW.018, Jatimakmur, Pondok Gede, Bekasi, West Java 17413";"Jl. Mawar Putih No.K-97, RT.005/RW.018, Jatimakmur, Pondok Gede, Bekasi";"PAPUA";"17413";"Indonesia";"";"";"";"-6.2905026";"106.9325305";"https://maps.google.com/?cid=0x0:0xaeef1c3ddd111228";""
"komplek housing";"Komplek perumahan";"KOMPLEK KEMHAN/MABES TNI";"Komplek Kemhan/Mabes TNI, Jl. Raya Jati Makmur Jl. Mawarkuning No.K-102, RT./rw:/RW.005, 018, Jatimakmur, Kec. Pd. Gede, Kota Bks, Jawa Barat";"Kota Bks, Jawa Barat";"PAPUA";"";"Indonesia";"";"";"";"-6.2837045";"106.9218279";"https://maps.google.com/?cid=0x0:0x2fd61e446e384499";""
"komplek housing";"Gedung Apartemen";"Kimobur";"7FP3+XH, Abepur, Distrik Kuari, Kabupaten Tolikara, Papua";"Kabupaten Tolikara, Papua";"PAPUA";"";"Indonesia";"";"";"";"-3.71258";"138.453943";"https://maps.google.com/?cid=0x0:0xcb39f5ecb3e7026d";""
"komplek housing";"komplek housing";"Distrik Goyage";"Kabupaten Tolikara, Papua";"Kabupaten Tolikara, Papua";"PAPUA";"";"Indonesia";"";"";"";"-3.7233251";"138.4342412";"https://maps.google.com/?cid=0x0:0x56e653bedf73f861";""
"komplek housing";"Komplek perumahan";"Kampung mibur";"7CVW+H7C, Kurik, Distrik Kuari, Kabupaten Tolikara, Papua 99567";"Kurik, Distrik Kuari, Kabupaten Tolikara";"PAPUA";"99567";"Indonesia";"";"";"";"-3.7060553";"138.4456339";"https://maps.google.com/?cid=0x0:0x5d0b78c6009c103b";""
"komplek housing";"Komplek perumahan";"Pondok Gede Housing 1";"Jl. Cipta Raya No.45-3, RT.001/RW.003, Jatirahayu, Kec. Pd. Melati, Kota Bks, Jawa Barat 17414";"RT.001/RW.003, Jatirahayu, Kec. Pd. Melati, Kota Bks";"PAPUA";"17414";"Indonesia";"";"";"";"-6.2852504";"106.9163397";"https://maps.google.com/?cid=0x0:0x3132afedbf38cd61";""
"komplek housing";"komplek housing";"Distrik Wunim";"Kabupaten Tolikara, Papua";"Kabupaten Tolikara, Papua";"PAPUA";"";"Indonesia";"";"";"";"-3.6584953";"138.5735215";"https://maps.google.com/?cid=0x0:0x999a56454046c64";""
"komplek housing";"komplek housing";"Papua 99569";"Kabupaten Tolikara, Papua";"Kabupaten Tolikara, Papua";"PAPUA";"";"Indonesia";"";"";"";"-3.3489271";"138.3190276";"https://maps.google.com/?cid=0x0:0xdfdec4d1cb3753f4";""
"komplek housing";"komplek housing";"HOTEL PARKSIDE WAENA";"Jl. Raya Waena, Kp. Waena, Kec. Abepura, Kota Jayapura, Papua 99532";"Kp. Waena, Kec. Abepura, Kota Jayapura";"PAPUA";"99532";"Indonesia";" 08114829200";"";"";"-2.5965369";"140.6348713";"https://maps.google.com/?cid=0x0:0xeecc070595c2799f";""
"komplek housing";"komplek housing";"Papua";"";"Papua";"PAPUA";"";"Indonesia";"";"";"";"-4.269928";"138.0803529";"https://maps.google.com/?cid=0x0:0xeba94e9c5eefe673";""
"komplek housing";"Minimarket";"Wina";"Jl. Komp. Yonhub Jl. Raya Pos Pengumben No.3 A 4, RT.4/RW.4, Klp. Dua, Kec. Kb. Jeruk, Kota Jakarta Barat, Daerah Khusus Ibukota Jakarta 11550";"RT.4/RW.4, Klp. Dua, Kec. Kb. Jeruk, Kota Jakarta Barat";"PAPUA";"11550";"Indonesia";" 0215364526";"";"";"-6.2162845";"106.7728112";"https://maps.google.com/?cid=0x0:0xe538ea297c463b0a";""
"komplek housing";"komplek housing";"Karnaen residence";"R3P5+VM9, Srimukti, Kec. Tambun Utara, Kabupaten Bekasi, Jawa Barat 17510";"Srimukti, Kec. Tambun Utara, Kabupaten Bekasi";"PAPUA";"17510";"Indonesia";"";"";"";"-6.1628491";"107.0592483";"https://maps.google.com/?cid=0x0:0x4c026f494de96bdb";""
"komplek housing";"Kompleks Townhouse";"9 Residence Townhouse Jatibening Bekasi";"Jl. Swakarsa IV, RT.003/RW.004, Jatibening Baru, Kec. Pd. Gede, Kota Bks, Jawa Barat 17412";"RT.003/RW.004, Jatibening Baru, Kec. Pd. Gede, Kota Bks";"PAPUA";"17412";"Indonesia";"";"";"";"-6.2590395";"106.9295843";"https://maps.google.com/?cid=0x0:0x2573d05e7bc2bf7d";""
"komplek housing";"Perumahan";"Grand Viona Kuripan (GVK)";"PERUMAHAN GRAND VIONA, Kuripan, Kec. Ciseeng, Kabupaten Bogor, Jawa Barat 16120";"Kuripan, Kec. Ciseeng, Kabupaten Bogor";"PAPUA";"16120";"Indonesia";"";"";"";"-6.4262313";"106.6567514";"https://maps.google.com/?cid=0x0:0xed7e731fc4a452ec";""
"komplek housing";"Komplek perumahan";"Malaika Sandrina  Akasya";"Perumahan Malaika Sandrina  Akasya, RT.003/RW.019, Kedungjaya, Kec. Babelan, Kabupaten Bekasi, Jawa Barat 17610";"RT.003/RW.019, Kedungjaya, Kec. Babelan, Kabupaten Bekasi";"PAPUA";"17610";"Indonesia";"";"";"";"-6.1470404";"107.0246371";"https://maps.google.com/?cid=0x0:0xaa9d9d13040c31ff";""
"komplek housing";"Komplek perumahan";"Nirwana Bojong Residence";"Kantor Marketing, Perumahan Nirwana bojong, Residence, Bojong, Kec. Klapanunggal, Kabupaten Bogor, Jawa Barat 16710";"Perumahan Nirwana bojong, Residence, Bojong, Kec. Klapanunggal, Kabupaten Bogor";"PAPUA";"16710";"Indonesia";" 082121217143";"";"";"-6.4456733";"106.9987308";"https://maps.google.com/?cid=0x0:0x99093bd921986d94";""
"komplek housing";"Perumahan";"PERUMAHAN CIBENDA INDAH";"H4XP+P82, desa Jl. Cibenda No.04, RT.07, Sirnajaya, Kec. Serang Baru, Kabupaten Bekasi, Jawa Barat 17330";"desa Jl. Cibenda No.04, RT.07, Sirnajaya, Kec. Serang Baru, Kabupaten Bekasi";"PAPUA";"17330";"Indonesia";" 083804835232";"";"";"-6.3999921";"107.1362827";"https://maps.google.com/?cid=0x0:0x510e3aa9a34c9e";""
"komplek housing";"Pembangunan Perumahan";"Perumahan Griya Mulya Indah";"Jl. Sampora, Jayamulya, Kec. Serang Baru, Kabupaten Bekasi, Jawa Barat 17330";"Jayamulya, Kec. Serang Baru, Kabupaten Bekasi";"PAPUA";"17330";"Indonesia";" 02189845437";"";"";"-6.4033822";"107.0746017";"https://maps.google.com/?cid=0x0:0xb491fa8e879a4f2d";""
"komplek housing";"komplek housing";"Komplek Housing";"Blok Bojong Nangka I, Jl. Ring Rudal Blok Bojong Nangka I No.68, RT.001/RW.007, Jatirahayu, Kec. Pd. Melati, Kota Bks, Jawa Barat 17414";"Jl. Ring Rudal Blok Bojong Nangka I No.68, RT.001/RW.007, Jatirahayu, Kec. Pd. Melati, Kota Bks";"PAPUA";"17414";"Indonesia";"";"";"";"-6.293724";"106.9165114";"https://maps.google.com/?cid=0x0:0x9c50464976dee674";""
"komplek housing";"Kantor Perusahaan";"Grand Sukamulya Cisauk";"Jalan kampung Leuwiranji, Sukamulya, Kec. Rumpin, Kabupaten Bogor, Jawa Barat 16350";"Sukamulya, Kec. Rumpin, Kabupaten Bogor";"PAPUA";"16350";"Indonesia";" 085780881004";"";"";"-6.3721068";"106.6459588";"https://maps.google.com/?cid=0x0:0x13e210069e886101";""
"komplek housing";"komplek housing";"Papua 99569";"Kabupaten Tolikara, Papua";"Kabupaten Tolikara, Papua";"PAPUA";"";"Indonesia";"";"";"";"-3.3489271";"138.3190276";"https://maps.google.com/?cid=0x0:0xdfdec4d1cb3753f4";""
"komplek housing";"Komplek perumahan";"Rumah puhili";"9HQP+F4P, Itakiwa, Kec. Sentani Tim., Kabupaten Jayapura, Papua 99569";"Itakiwa, Kec. Sentani Tim., Kabupaten Jayapura";"PAPUA";"99569";"Indonesia";"";"";"";"-2.6112882";"140.5853414";"https://maps.google.com/?cid=0x0:0x32db5af5b5824be6";""
"komplek housing";"Pembangunan Perumahan";"Kampung Fru";"P6M7+2X3, Dusun fru kampung dou, Mamberamo Ulu";"Kabupaten Tolikara, Papua";"PAPUA";"";"Indonesia";"";"";"";"-3.2674982";"138.2149323";"https://maps.google.com/?cid=0x0:0x849d935fba3501cc";""
"komplek housing";"Komplek perumahan";"-Mabes- Esalon";"GF9H+GFX, Umar, Karubaga, Kabupaten Tolikara, Papua 99562";"Umar, Karubaga, Kabupaten Tolikara";"PAPUA";"99562";"Indonesia";"";"";"";"-3.481132";"138.4787258";"https://maps.google.com/?cid=0x0:0x9ba8536ae7126942";""
"komplek housing";"Komplek perumahan";"Elcyt";"CH3M+5QP Tim, Asei Besar, Kec. Sentani Tim., Kabupaten Jayapura, Papua 99569";"Asei Besar, Kec. Sentani Tim., Kabupaten Jayapura";"PAPUA";"99569";"Indonesia";"";"";"";"-2.5971424";"140.5843652";"https://maps.google.com/?cid=0x0:0x96258604bd4e1e8b";""
"komplek housing";"Pembangunan Perumahan";"EDS Rumah Tinggal";"86QW+GM, Jagrang, Distrik Kemtuk Gresi, Kabupaten Jayapura, Papua";"Kabupaten Jayapura, Papua";"PAPUA";"";"Indonesia";"";"";"";"-2.661176";"140.246654";"https://maps.google.com/?cid=0x0:0x6d59001e6473066e";""
"komplek housing";"Komplek perumahan";"Op. Gamaliel House";"FF2C+QJJ, Doyo Baru, Distrik Waibu, Kabupaten Jayapura, Papua";"Kabupaten Jayapura, Papua";"PAPUA";"";"Indonesia";"";"";"";"-2.5484675";"140.4710788";"https://maps.google.com/?cid=0x0:0xb77023ff1e83cbb0";""
"komplek housing";"Pembangunan Perumahan";"Kampung Melaga, Klasis Yali Gua, wilayah Toli";"GF9H+GFX, Umar, Gundagi, Kabupaten Tolikara, Papua";"Kabupaten Tolikara, Papua";"PAPUA";"";"Indonesia";"";"";"";"-3.481132";"138.4787258";"https://maps.google.com/?cid=0x0:0xc3153678a0b8d7c9";""
"komplek housing";"Komplek perumahan";"Aser home";"CH6P+M9F, Asei Kecil, Kec. Sentani Tim., Kabupaten Jayapura, Papua 99569";"Asei Kecil, Kec. Sentani Tim., Kabupaten Jayapura";"PAPUA";"99569";"Indonesia";"";"";"";"-2.5883686";"140.5859646";"https://maps.google.com/?cid=0x0:0x328f28ace3213eca";""
"komplek housing";"Perhimpunan Pengembang Perumahan";"Yogoluk";"89M9+CV, Kanggime, Distrik Kanggime, Kabupaten Tolikara, Papua";"Kabupaten Tolikara, Papua";"PAPUA";"";"Indonesia";"";"";"";"-3.6664425";"138.3696546";"https://maps.google.com/?cid=0x0:0x3a27233d6e6a4f40";""
"komplek housing";"Komplek perumahan";"GRAND IFALE - KEMIRI AURUM TOWNHOUSE";"Hinekombe, Kec. Sentani, Kabupaten Jayapura, Papua 99352";"Kec. Sentani, Kabupaten Jayapura";"PAPUA";"99352";"Indonesia";" 081344333334";"";"";"-2.5560349";"140.4879733";"https://maps.google.com/?cid=0x0:0x318f8a6daeae133b";""
"komplek housing";"Komplek perumahan";"Nyongpapua House";"BTN Sereh Pos 7, Blk. B No.08, RT.001/RW.07";"Kabupaten Jayapura, Papua";"PAPUA";"";"Indonesia";"";"";"";"-2.5698521";"140.4991974";"https://maps.google.com/?cid=0x0:0x27a7fb2e265f3e66";""
"komplek housing";"komplek housing";"Imaluk ulaga gilimenak";"M38P+R4P, Piriluk, Kec. Umagi, Kabupaten Tolikara, Papua 98975";"Piriluk, Kec. Umagi, Kabupaten Tolikara";"PAPUA";"98975";"Indonesia";"";"";"";"-3.3329212";"138.0853146";"https://maps.google.com/?cid=0x0:0x6201cdaab07407f6";""
"komplek housing";"Komplek perumahan";"Poskamling Maribu kkn uningrat Papua 2024";"Maribu, Sentani, Kabupaten Jayapura, Papua 99358";"Sentani, Kabupaten Jayapura";"PAPUA";"99358";"Indonesia";" 081361315106";"";"";"-2.4976672";"140.3744134";"https://maps.google.com/?cid=0x0:0xc1b843d3b211ea63";""
"komplek housing";"Pembangunan Perumahan";"Jalan Kotaraja Grand, Wai Mhorock, Kota Jayapura, Papua, Indonesia";"9MRC+W35, Jl. Kotaraja Grand, Wai Mhorock, Kec. Abepura, Kota Jayapura, Papua 99225";"Jl. Kotaraja Grand, Wai Mhorock, Kec. Abepura, Kota Jayapura";"PAPUA";"99225";"Indonesia";"";"";"";"-2.6077266";"140.6702297";"https://maps.google.com/?cid=0x0:0x416a6e749b1b97d";""
"komplek housing";"Komplek perumahan";"KOMPLEK PERUMAHAN JOKO INDAH SENTANI";"BTN JOKO INDAH Blk. E No.12, Yahim, Kec. Sentani, Kabupaten Jayapura, Papua 99352";"Yahim, Kec. Sentani, Kabupaten Jayapura";"PAPUA";"99352";"Indonesia";" 081344958171";"";"";"-2.5788915";"140.5015449";"https://maps.google.com/?cid=0x0:0x5b0eeae30e321e4b";""
"komplek housing";"Pembangunan Perumahan";"ROY HOME STAY";"C9VW+66W, Sosiri, Distrik Waibu, Kabupaten Jayapura, Papua 99358";"Sosiri, Distrik Waibu, Kabupaten Jayapura";"PAPUA";"99358";"Indonesia";"";"";"";"-2.556877";"140.3955822";"https://maps.google.com/?cid=0x0:0x1ad5b4633142c0f5";""
"komplek housing";"Perumahan";"Echo 6";"4W3G+H3, Yadauw, Kaureh, Kabupaten Jayapura, Papua";"Kabupaten Jayapura, Papua";"PAPUA";"";"Indonesia";"";"";"";"-2.896043";"139.925241";"https://maps.google.com/?cid=0x0:0x8c0dbce6c92ba187";""
"komplek housing";"Komplek perumahan";"Rumah Keluarga Singgamui";"C764+XP9, Kwansu, Kec. Kemtuk, Kabupaten Jayapura, Papua 99361";"Kwansu, Kec. Kemtuk, Kabupaten Jayapura";"PAPUA";"99361";"Indonesia";"";"";"";"-2.5875816";"140.2569197";"https://maps.google.com/?cid=0x0:0xf38c4ff3022dcb7e";""
"komplek housing";"komplek housing";"Rumah Sukardi Rubinem";"C64J+735, Jalan Inpres, Karya Bumi, Nimboran Tim. / Namblong, Kabupaten Jayapura, Papua 99361";"Jalan Inpres, Karya Bumi, Nimboran Tim. / Namblong, Kabupaten Jayapura";"PAPUA";"99361";"Indonesia";"";"";"";"-2.5944047";"140.2308635";"https://maps.google.com/?cid=0x0:0xb454e1e0e9a1e1ce";""
"komplek housing";"komplek housing";"Kec. Umagi";"Kabupaten Tolikara, Papua";"Kabupaten Tolikara, Papua";"PAPUA";"";"Indonesia";"";"";"";"-3.4453215";"138.1002024";"https://maps.google.com/?cid=0x0:0x85b7cae34bc867da";""
"komplek housing";"Komplek perumahan";"Pondok Gede Housing II";"Housing II, Jl. Raya Hankam, RT.001/RW.004, Jatirahayu, Pondok Gede, Bekasi, West Java";"Kota Bks, Jawa Barat";"PAPUA";"";"Indonesia";"";"";"";"-6.2876701";"106.9147674";"https://maps.google.com/?cid=0x0:0x2a52e601c20d18f2";""
"komplek housing";"Komplek perumahan";"Perumahan housing 2";"Jl. Raya Hankam No.12 Blok U, RT.005/RW.002, Jatirahayu, Kec. Pd. Melati, Kota Bks, Jawa Barat 17414";"RT.005/RW.002, Jatirahayu, Kec. Pd. Melati, Kota Bks";"PAPUA";"17414";"Indonesia";"";"";"";"-6.287153";"106.9155932";"https://maps.google.com/?cid=0x0:0x60205f6f07650dd6";""
"komplek housing";"komplek housing";"Distrik Panaga";"Kabupaten Tolikara, Papua";"Kabupaten Tolikara, Papua";"PAPUA";"";"Indonesia";"";"";"";"-3.5788649";"138.4379425";"https://maps.google.com/?cid=0x0:0xd9b0a975f678d928";""
"komplek housing";"Pembangunan Perumahan";"Perumahan Pondok Ungu Permai";"Jl. Raya Pd. Ungu Permai Melati 4 No.4 Blok B8, RT.002/RW.008, Kaliabang Tengah, Kec. Bekasi Utara, Kota Bks, Jawa Barat 17125";"RT.002/RW.008, Kaliabang Tengah, Kec. Bekasi Utara, Kota Bks";"PAPUA";"17125";"Indonesia";"";"";"";"-6.1764808";"107.0012361";"https://maps.google.com/?cid=0x0:0x19c96507d85ecc28";""
"komplek housing";"Pembangunan Perumahan";"KAVLING ASYANA";"V2M7+M9F, Samudra Jaya, Kec. Tarumajaya, Kabupaten Bekasi, Jawa Barat";"Kabupaten Bekasi, Jawa Barat";"PAPUA";"";"Indonesia";"";"";"";"-6.1158012";"107.013431";"https://maps.google.com/?cid=0x0:0x232cc9f9a9c34282";""
"komplek housing";"Otoritas Perumahan";"Mutiara Puri Harmoni 3";"Jl. Mutiara Puri Harmoni, Jayamulya, Kec. Serang Baru, Kabupaten Bekasi, Jawa Barat 17330";"Jayamulya, Kec. Serang Baru, Kabupaten Bekasi";"PAPUA";"17330";"Indonesia";" 081398885422";"";"";"-6.4101441";"107.0679748";"https://maps.google.com/?cid=0x0:0xa981be2a677fa200";""
"komplek housing";"Komplek perumahan";"Puri Cileungsi";"H2J4+GHM, Gandoang, Kec. Cileungsi, Kabupaten Bogor, Jawa Barat 16820";"Gandoang, Kec. Cileungsi, Kabupaten Bogor";"PAPUA";"16820";"Indonesia";"";"";"";"-6.4197382";"107.00523";"https://maps.google.com/?cid=0x0:0x6fe0ecc091482a58";""
"komplek housing";"Otoritas Perumahan";"Grand Kahuripan Cluster Semeru";"HX49+7G8, Jl. Semeru, Klapanunggal, Kec. Cileungsi, Kabupaten Bogor, Jawa Barat 16820";"Jl. Semeru, Klapanunggal, Kec. Cileungsi, Kabupaten Bogor";"PAPUA";"16820";"Indonesia";"";"";"";"-6.4443479";"106.9688409";"https://maps.google.com/?cid=0x0:0x3ec04a8add187fab";""
"komplek housing";"komplek housing";"Komplek Housing";"Blok Bojong Nangka I, Jl. Ring Rudal Blok Bojong Nangka I No.68, RT.001/RW.007, Jatirahayu, Kec. Pd. Melati, Kota Bks, Jawa Barat 17414";"Jl. Ring Rudal Blok Bojong Nangka I No.68, RT.001/RW.007, Jatirahayu, Kec. Pd. Melati, Kota Bks";"PAPUA";"17414";"Indonesia";"";"";"";"-6.293724";"106.9165114";"https://maps.google.com/?cid=0x0:0x9c50464976dee674";""
"komplek housing";"komplek housing";"Distrik Woniki";"Kabupaten Tolikara, Papua";"Kabupaten Tolikara, Papua";"PAPUA";"";"Indonesia";"";"";"";"-3.6867767";"138.3120892";"https://maps.google.com/?cid=0x0:0x1f3b8c4a6a10c153";""
"komplek housing";"komplek housing";"Woniki";"Kec. Biak Tim., Kabupaten Biak Numfor, Papua";"Kabupaten Biak Numfor, Papua";"PAPUA";"";"Indonesia";"";"";"";"-1.1595576";"136.2259";"https://maps.google.com/?cid=0x0:0xc8a5154a9cdad020";""
"komplek housing";"komplek housing";"Papua";"";"Papua";"PAPUA";"";"Indonesia";"";"";"";"-4.269928";"138.0803529";"https://maps.google.com/?cid=0x0:0xeba94e9c5eefe673";""
"komplek housing";"Komplek perumahan";"PERUMAHAN JANN";"8RF3+MMV SMP NEGERI 9, Jl, West Koya, Muara Tami, Jayapura City, Papua 99351";"Jl, West Koya, Muara Tami, Jayapura City";"PAPUA";"99351";"Indonesia";"";"";"";"-2.6757561";"140.8041872";"https://maps.google.com/?cid=0x0:0xc0a596f6202d6fc7";""
"komplek housing";"Komplek perumahan";"PARJAN_Jayapura";"8RF2+GF9, Jl. Fak-Fak, Koya Bar., Kec. Muara Tami, Kota Jayapura, Papua 99351";"Jl. Fak-Fak, Koya Bar., Kec. Muara Tami, Kota Jayapura";"PAPUA";"99351";"Indonesia";"";"";"";"-2.6762104";"140.8012413";"https://maps.google.com/?cid=0x0:0xd206d732d7566316";""
"komplek housing";"Komplek perumahan";"Perumahan Mahoni Residence";"JR96+53H, Mahoni, RT.1/RW.6, Beji, Kecamatan Beji, Kota Depok, Jawa Barat 16421";"Mahoni, RT.1/RW.6, Beji, Kecamatan Beji, Kota Depok";"PAPUA";"16421";"Indonesia";"";"";"";"-6.3820612";"106.8102362";"https://maps.google.com/?cid=0x0:0x4d723859c5c6d6a8";""
"komplek housing";"komplek housing";"Komplek Housing";"Blok Bojong Nangka I, Jl. Ring Rudal Blok Bojong Nangka I No.68, RT.001/RW.007, Jatirahayu, Kec. Pd. Melati, Kota Bks, Jawa Barat 17414";"Jl. Ring Rudal Blok Bojong Nangka I No.68, RT.001/RW.007, Jatirahayu, Kec. Pd. Melati, Kota Bks";"PAPUA";"17414";"Indonesia";"";"";"";"-6.293724";"106.9165114";"https://maps.google.com/?cid=0x0:0x9c50464976dee674";""
"komplek housing";"komplek housing";"Kubu";"Kubu, Kec. Kubu, Kabupaten Kubu Raya, Kalimantan Barat";"Kabupaten Kubu Raya, Kalimantan Barat";"PAPUA";"";"Indonesia";"";"";"";"-0.483762";"109.378899";"https://maps.google.com/?cid=0x0:0x3198742738a7ec1b";""
"komplek housing";"komplek housing";"Papua";"";"Papua";"PAPUA";"";"Indonesia";"";"";"";"-4.269928";"138.0803529";"https://maps.google.com/?cid=0x0:0xeba94e9c5eefe673";""
"komplek housing";"komplek housing";"Kec. Tebet";"Kota Jakarta Selatan, Daerah Khusus Ibukota Jakarta";"Kota Jakarta Selatan, Daerah Khusus Ibukota Jakarta";"PAPUA";"";"Indonesia";"";"";"";"-6.2251223";"106.8549881";"https://maps.google.com/?cid=0x0:0xd575e31c807295f9";""
"komplek housing";"komplek housing";"Kubu";"Kubu, Kec. Kubu, Kabupaten Karangasem, Bali";"Kabupaten Karangasem, Bali";"PAPUA";"";"Indonesia";"";"";"";"-8.25944";"115.566002";"https://maps.google.com/?cid=0x0:0x7361d170964b4850";""
"komplek housing";"komplek housing";"Papua";"";"Papua";"PAPUA";"";"Indonesia";"";"";"";"-4.269928";"138.0803529";"https://maps.google.com/?cid=0x0:0xeba94e9c5eefe673";""
"komplek housing";"Inspektur Tempat Tinggal";"Rumah Tempat Tinggal";"PHR8+GQW Banjar dinas karanganyar, Kubu, Kec. Kubu, Kabupaten Karangasem, Bali 80853";"Kubu, Kec. Kubu, Kabupaten Karangasem";"PAPUA";"80853";"Indonesia";"";"";"";"-8.2586315";"115.5669578";"https://maps.google.com/?cid=0x0:0x241869fad4fec8da";""
"komplek housing";"komplek housing";"Papua 99562";"Kabupaten Tolikara, Papua";"Kabupaten Tolikara, Papua";"PAPUA";"";"Indonesia";"";"";"";"-3.576543";"138.5187229";"https://maps.google.com/?cid=0x0:0xba78f888ca44ae7d";""
"komplek housing";"komplek housing";"Papua";"";"Papua";"PAPUA";"";"Indonesia";"";"";"";"-4.269928";"138.0803529";"https://maps.google.com/?cid=0x0:0xeba94e9c5eefe673";""
"komplek housing";"Komplek perumahan";"Komplek Perumahan YPPGI";"8F7J+Q63, Karubaga, Kec. Karubaga, Kabupaten Tolikara, Papua";"Kabupaten Tolikara, Papua";"PAPUA";"";"Indonesia";"";"";"";"-3.6856154";"138.4805518";"https://maps.google.com/?cid=0x0:0x1e996dde1edb3b03";""
"komplek housing";"Komplek perumahan";"Perumahan Graha Cipta 5 Jejalen";"Jejalenjaya, Kec. Tambun Utara, Kabupaten Bekasi, Jawa Barat 17510";"Kec. Tambun Utara, Kabupaten Bekasi";"PAPUA";"17510";"Indonesia";" 081315755470";"";"";"-6.2098759";"107.0744829";"https://maps.google.com/?cid=0x0:0x4e428bb84a21f83f";""
"komplek housing";"Komplek perumahan";"Asia Tropis";"RXGG+J3X, Jl. Raya Asia Tropis No.10 10, RT.10/RW.8, Medan Satria, Kecamatan Medan Satria, Kota Bks, Jawa Barat 17132";"Jl. Raya Asia Tropis No.10 10, RT.10/RW.8, Medan Satria, Kecamatan Medan Satria, Kota Bks";"PAPUA";"17132";"Indonesia";"";"";"";"-6.172931";"106.9747909";"https://maps.google.com/?cid=0x0:0x71d48d7a493fdf43";""
"komplek housing";"Kompleks Townhouse";"Pakubuwono Town House Telajung";"Pakubuwono Town House, Telajung, Kec. Cikarang Bar., Kabupaten Bekasi, Jawa Barat 17530";"Telajung, Kec. Cikarang Bar., Kabupaten Bekasi";"PAPUA";"17530";"Indonesia";" 088212627395";"";"";"-6.3402618";"107.0536468";"https://maps.google.com/?cid=0x0:0x7710a6ba0105b282";""
"komplek housing";"Komplek perumahan";"Perumahan Tanpa DP";"R5QF+293, Jl. Buni Ayu Raya, Sukamulya, Kec. Sukatani, Kabupaten Bekasi, Jawa Barat 17630";"Jl. Buni Ayu Raya, Sukamulya, Kec. Sukatani, Kabupaten Bekasi";"PAPUA";"17630";"Indonesia";" 081381821321";"";"";"-6.1624998";"107.173433";"https://maps.google.com/?cid=0x0:0x3cd836869dfb9e0";""
"komplek housing";"Kompleks Kondominium";"Puri Nilam Kencana";"Puri Nilam Kencana Gg. Buntu Blok AU, No. 6, Jatirahayu, Kec. Pd. Melati, Kota Bks, Jawa Barat 17413";"No. 6, Jatirahayu, Kec. Pd. Melati, Kota Bks";"PAPUA";"17413";"Indonesia";" 088212554680";"";"";"-6.2903689";"106.9226453";"https://maps.google.com/?cid=0x0:0xcb28b86c64260d16";""
"komplek housing";"Pembangunan Perumahan";"TAMAN KERTAMUKTI RESIDENCE";"taman kertaMukti residence, Jl. Raya Kali CBL, cibitung, Kec. Cibitung, Kabupaten Bekasi, Jawa Barat 17520";"Jl. Raya Kali CBL, cibitung, Kec. Cibitung, Kabupaten Bekasi";"PAPUA";"17520";"Indonesia";"";"";"";"-6.2331013";"107.1219252";"https://maps.google.com/?cid=0x0:0xd9ba8986afaf5f72";""
"komplek housing";"Perumahan";"Rumah subsidi di Bekasi";"Puri Harmoni, Mutiara Puri Harmoni 3 Wisma Asri Cibening, Grand Harmoni Park, Vinewood Srijaya City, Kertamukti, Kota Bks, Jawa Barat 17320";"Mutiara Puri Harmoni 3 Wisma Asri Cibening, Grand Harmoni Park, Vinewood Srijaya City, Kertamukti, Kota Bks";"PAPUA";"17320";"Indonesia";"";"";"";"-6.2162097";"107.0266083";"https://maps.google.com/?cid=0x0:0x959de7b8e5f86bc5";""
"komplek housing";"Perumahan";"Perumahan Bumi Citra Lestari";"P5HM+JQ4, Jl. Pandawa 6, Waluya, Kec. Cikarang Utara, Kabupaten Bekasi, Jawa Barat 17530";"Jl. Pandawa 6, Waluya, Kec. Cikarang Utara, Kabupaten Bekasi";"PAPUA";"17530";"Indonesia";" 02189837113";"";"";"-6.2709955";"107.1844448";"https://maps.google.com/?cid=0x0:0x437f723d204c92d6";""
"komplek housing";"Otoritas Perumahan";"PURI MUTIARA INDAH";"Perumahan Puri Mutiara Indah Blok CB No. 1-2, Jl. Kakap Raya, Karangraharja, Kec. Cikarang Utara, Kabupaten Bekasi, Jawa Barat 17530";"Jl. Kakap Raya, Karangraharja, Kec. Cikarang Utara, Kabupaten Bekasi";"PAPUA";"17530";"Indonesia";" 085780007736";"";"";"-6.2585167";"107.1830461";"https://maps.google.com/?cid=0x0:0x6e6cfd7d19ac5ed1";""
"komplek housing";"Perumahan";"Perumahan Grand Cikarang City";"City, Jl. Grand Cikarang, Karangraharja, Kec. Cikarang Utara, Kabupaten Bekasi, Jawa Barat 17530";"Jl. Grand Cikarang, Karangraharja, Kec. Cikarang Utara, Kabupaten Bekasi";"PAPUA";"17530";"Indonesia";"";"";"";"-6.2501437";"107.1729371";"https://maps.google.com/?cid=0x0:0xa19a559d73996f30";""
"komplek housing";"Otoritas Perumahan";"Mutiara Citra Residence 3";"Q644+372, Jl. Kalenderwak Panjang, Karangsari, Kec. Cikarang Tim., Kabupaten Bekasi, Jawa Barat 17530";"Jl. Kalenderwak Panjang, Karangsari, Kec. Cikarang Tim., Kabupaten Bekasi";"PAPUA";"17530";"Indonesia";" 081295565166";"";"";"-6.2452878";"107.205718";"https://maps.google.com/?cid=0x0:0x80389bdcff9ecff1";""
"komplek housing";"Apartemen Liburan";"Apartment The Habitat";"Jl. Palem Ratu, Bencongan Indah, Kec. Karawaci, Kabupaten Tangerang, Banten 15810";"Bencongan Indah, Kec. Karawaci, Kabupaten Tangerang";"PAPUA";"15810";"Indonesia";" 089693258800";"";"";"-6.223719";"106.6059503";"https://maps.google.com/?cid=0x0:0x7bb1315e163b52";""
"komplek housing";"komplek housing";"Komplek Housing";"Blok Bojong Nangka I, Jl. Ring Rudal Blok Bojong Nangka I No.68, RT.001/RW.007, Jatirahayu, Kec. Pd. Melati, Kota Bks, Jawa Barat 17414";"Jl. Ring Rudal Blok Bojong Nangka I No.68, RT.001/RW.007, Jatirahayu, Kec. Pd. Melati, Kota Bks";"PAPUA";"17414";"Indonesia";"";"";"";"-6.293724";"106.9165114";"https://maps.google.com/?cid=0x0:0x9c50464976dee674";""
"komplek housing";"Rumah Kayu";"perumahan Subsidi";"Jl. Perum Logam Bangun Setia 2, Muktiwari, Kec. Cibitung, Kabupaten Bekasi, Jawa Barat 17520";"Muktiwari, Kec. Cibitung, Kabupaten Bekasi";"PAPUA";"17520";"Indonesia";"";"";"";"-6.2099735";"107.1047097";"https://maps.google.com/?cid=0x0:0x8c998a7ec02c095a";""
"komplek housing";"komplek housing";"Distrik Kondaga";"Kabupaten Tolikara, Papua";"Kabupaten Tolikara, Papua";"PAPUA";"";"Indonesia";"";"";"";"-3.6125361";"138.4558265";"https://maps.google.com/?cid=0x0:0xb1a80b566f60f7d3";""
"komplek housing";"komplek housing";"Distrik Nelawi";"Kabupaten Tolikara, Papua";"Kabupaten Tolikara, Papua";"PAPUA";"";"Indonesia";"";"";"";"-3.6470814";"138.4370946";"https://maps.google.com/?cid=0x0:0xa30930aa79ca8db7";""
"komplek housing";"Pembangunan Perumahan";"Perumahan PEMDA";"8FCG+33Q, Muara, Kec. Karubaga, Kabupaten Tolikara, Papua 99567";"Muara, Kec. Karubaga, Kabupaten Tolikara";"PAPUA";"99567";"Indonesia";"";"";"";"-3.6797785";"138.4752409";"https://maps.google.com/?cid=0x0:0x92f2706a088cac78";""
"komplek housing";"Gedung Apartemen";"Kios Kogome";"8F9H+H2Q, Jl Kesehatan, Karubaga, Kec. Karubaga, Kabupaten Tolikara, Papua 99567";"Jl Kesehatan, Karubaga, Kec. Karubaga, Kabupaten Tolikara";"PAPUA";"99567";"Indonesia";"";"";"";"-3.6810159";"138.4773797";"https://maps.google.com/?cid=0x0:0x7df16040d5c70d4c";""
"komplek housing";"Pembangunan Perumahan";"MESS BAKTI (HUP)";"8F8H+R2X, Karubaga, Kec. Karubaga, Kabupaten Tolikara, Papua 99567";"Karubaga, Kec. Karubaga, Kabupaten Tolikara";"PAPUA";"99567";"Indonesia";"";"";"";"-3.6828849";"138.4776154";"https://maps.google.com/?cid=0x0:0x191d22cf391b74d6";""
"komplek housing";"Komplek perumahan";"Komplek Perumahan YPPGI";"8F7J+Q63, Karubaga, Kec. Karubaga, Kabupaten Tolikara, Papua";"Kabupaten Tolikara, Papua";"PAPUA";"";"Indonesia";"";"";"";"-3.6856154";"138.4805518";"https://maps.google.com/?cid=0x0:0x1e996dde1edb3b03";""
"komplek housing";"komplek housing";"Distrik Kuari";"Kabupaten Tolikara, Papua";"Kabupaten Tolikara, Papua";"PAPUA";"";"Indonesia";"";"";"";"-3.7060553";"138.4456339";"https://maps.google.com/?cid=0x0:0x9f7f080cecb9920b";""
"komplek housing";"Gedung Apartemen";"Kimobur";"7FP3+XH, Abepur, Distrik Kuari, Kabupaten Tolikara, Papua";"Kabupaten Tolikara, Papua";"PAPUA";"";"Indonesia";"";"";"";"-3.71258";"138.453943";"https://maps.google.com/?cid=0x0:0xcb39f5ecb3e7026d";""
"komplek housing";"Gedung Apartemen";"Kios Kogome";"8F9H+H2Q, Jl Kesehatan, Karubaga, Kec. Karubaga, Kabupaten Tolikara, Papua 99567";"Jl Kesehatan, Karubaga, Kec. Karubaga, Kabupaten Tolikara";"PAPUA";"99567";"Indonesia";"";"";"";"-3.6810159";"138.4773797";"https://maps.google.com/?cid=0x0:0x7df16040d5c70d4c";""
"komplek housing";"Komplek perumahan";"Derby Dedeo";"8C9V+G9W, Jinulira, Distrik Biuk, Kabupaten Tolikara, Papua 99567";"Jinulira, Distrik Biuk, Kabupaten Tolikara";"PAPUA";"99567";"Indonesia";"";"";"";"-3.6811389";"138.4434628";"https://maps.google.com/?cid=0x0:0x13fb5867f9b4852a";""
"komplek housing";"Pembangunan Perumahan";"MESS BAKTI (HUP)";"8F8H+R2X, Karubaga, Kec. Karubaga, Kabupaten Tolikara, Papua 99567";"Karubaga, Kec. Karubaga, Kabupaten Tolikara";"PAPUA";"99567";"Indonesia";"";"";"";"-3.6828849";"138.4776154";"https://maps.google.com/?cid=0x0:0x191d22cf391b74d6";""
"komplek housing";"Pembangunan Perumahan";"Komplek SD Parari";"8CH7+R3, Wonitu, Parari, Kabupaten Tolikara, Papua";"Kabupaten Tolikara, Papua";"PAPUA";"";"Indonesia";"";"";"";"-3.6703573";"138.412649";"https://maps.google.com/?cid=0x0:0xd23a778e8dcfa873";""
"komplek housing";"komplek housing";"Komplek Housing";"Blok Bojong Nangka I, Jl. Ring Rudal Blok Bojong Nangka I No.68, RT.001/RW.007, Jatirahayu, Kec. Pd. Melati, Kota Bks, Jawa Barat 17414";"Jl. Ring Rudal Blok Bojong Nangka I No.68, RT.001/RW.007, Jatirahayu, Kec. Pd. Melati, Kota Bks";"PAPUA";"17414";"Indonesia";"";"";"";"-6.293724";"106.9165114";"https://maps.google.com/?cid=0x0:0x9c50464976dee674";""
"komplek housing";"komplek housing";"Housing komplek";"";"";"PAPUA";"";"Indonesia";"";"";"";"-6.8040914";"107.1994";"https://maps.google.com/?cid=0x0:0x569b9ae5fed1ecd5";""
"komplek housing";"komplek housing";"Paremal Boys {PRM}";"8M98+4WJ, Bokondini, Kec. Bokondini, Kabupaten Tolikara, Papua 99556";"Bokondini, Kec. Bokondini, Kabupaten Tolikara";"PAPUA";"99556";"Indonesia";" 081221416127";"";"";"-3.6832944";"138.6664513";"https://maps.google.com/?cid=0x0:0x6f72c9da0d8b50a4";""
"komplek housing";"komplek housing";"Distrik Bokoneri";"Kabupaten Tolikara, Papua";"Kabupaten Tolikara, Papua";"PAPUA";"";"Indonesia";"";"";"";"-3.6849588";"138.6436435";"https://maps.google.com/?cid=0x0:0x8412144e58b28e7b";""
"komplek housing";"komplek housing";"Bewani";"Kabupaten Tolikara, Papua";"Kabupaten Tolikara, Papua";"PAPUA";"";"Indonesia";"";"";"";"-3.3985904";"138.6790007";"https://maps.google.com/?cid=0x0:0xa6b289dad9095af";""
"komplek housing";"komplek housing";"Distrik Nabunage";"Kabupaten Tolikara, Papua";"Kabupaten Tolikara, Papua";"PAPUA";"";"Indonesia";"";"";"";"-3.6583843";"138.4238803";"https://maps.google.com/?cid=0x0:0x699d5c5bcc2e9d64";""
"komplek housing";"Gedung Apartemen";"Kimobur";"7FP3+XH, Abepur, Distrik Kuari, Kabupaten Tolikara, Papua";"Kabupaten Tolikara, Papua";"PAPUA";"";"Indonesia";"";"";"";"-3.71258";"138.453943";"https://maps.google.com/?cid=0x0:0xcb39f5ecb3e7026d";""
"komplek housing";"Pembangunan Perumahan";"Perumahan PEMDA";"8FCG+33Q, Muara, Kec. Karubaga, Kabupaten Tolikara, Papua 99567";"Muara, Kec. Karubaga, Kabupaten Tolikara";"PAPUA";"99567";"Indonesia";"";"";"";"-3.6797785";"138.4752409";"https://maps.google.com/?cid=0x0:0x92f2706a088cac78";""
"komplek housing";"Pembangunan Perumahan";"MESS BAKTI (HUP)";"8F8H+R2X, Karubaga, Kec. Karubaga, Kabupaten Tolikara, Papua 99567";"Karubaga, Kec. Karubaga, Kabupaten Tolikara";"PAPUA";"99567";"Indonesia";"";"";"";"-3.6828849";"138.4776154";"https://maps.google.com/?cid=0x0:0x191d22cf391b74d6";""
"komplek housing";"Gedung Apartemen";"Kios Kogome";"8F9H+H2Q, Jl Kesehatan, Karubaga, Kec. Karubaga, Kabupaten Tolikara, Papua 99567";"Jl Kesehatan, Karubaga, Kec. Karubaga, Kabupaten Tolikara";"PAPUA";"99567";"Indonesia";"";"";"";"-3.6810159";"138.4773797";"https://maps.google.com/?cid=0x0:0x7df16040d5c70d4c";""
"komplek housing";"Pembangunan Perumahan";"Komplek SD Parari";"8CH7+R3, Wonitu, Parari, Kabupaten Tolikara, Papua";"Kabupaten Tolikara, Papua";"PAPUA";"";"Indonesia";"";"";"";"-3.6703573";"138.412649";"https://maps.google.com/?cid=0x0:0xd23a778e8dcfa873";""
"komplek housing";"komplek housing";"Distrik Gilubandu";"Kabupaten Tolikara, Papua";"Kabupaten Tolikara, Papua";"PAPUA";"";"Indonesia";"";"";"";"-3.6348495";"138.3090619";"https://maps.google.com/?cid=0x0:0x77f4a9c2c5690028";""
"komplek housing";"komplek housing";"Nunggawi";"Kabupaten Tolikara, Papua";"Kabupaten Tolikara, Papua";"PAPUA";"";"Indonesia";"";"";"";"-3.7472595";"138.3688834";"https://maps.google.com/?cid=0x0:0x3b6d7225a3d9ddc0";""
"komplek housing";"Kantor Pemerintah Distrik";"Distrik Nunggawi Kab.Tolikara";"68MJ+9HQ, Kanggineri, Nunggawi, Kabupaten Tolikara, Papua 99567";"Kanggineri, Nunggawi, Kabupaten Tolikara";"PAPUA";"99567";"Indonesia";"";"";"";"-3.7665332";"138.3314873";"https://maps.google.com/?cid=0x0:0xfe1a11cca2d119ac";""
"komplek housing";"Komplek perumahan";"Komplek Perumahan YPPGI";"8F7J+Q63, Karubaga, Kec. Karubaga, Kabupaten Tolikara, Papua";"Kabupaten Tolikara, Papua";"PAPUA";"";"Indonesia";"";"";"";"-3.6856154";"138.4805518";"https://maps.google.com/?cid=0x0:0x1e996dde1edb3b03";""
"komplek housing";"komplek housing";"Gundagi";"Kabupaten Tolikara, Papua";"Kabupaten Tolikara, Papua";"PAPUA";"";"Indonesia";"";"";"";"-3.4977286";"138.4987208";"https://maps.google.com/?cid=0x0:0xf4f52a0e958ee55c";""
"komplek housing";"Komplek perumahan";"Pondok Gede Housing II";"Housing II, Jl. Raya Hankam, RT.001/RW.004, Jatirahayu, Pondok Gede, Bekasi, West Java";"Kota Bks, Jawa Barat";"PAPUA";"";"Indonesia";"";"";"";"-6.2876701";"106.9147674";"https://maps.google.com/?cid=0x0:0x2a52e601c20d18f2";""
"komplek housing";"Komplek perumahan";"Pondok Gede Housing 1";"Jl. Cipta Raya No.45-3, RT.001/RW.003, Jatirahayu, Kec. Pd. Melati, Kota Bks, Jawa Barat 17414";"RT.001/RW.003, Jatirahayu, Kec. Pd. Melati, Kota Bks";"PAPUA";"17414";"Indonesia";"";"";"";"-6.2852504";"106.9163397";"https://maps.google.com/?cid=0x0:0x3132afedbf38cd61";""
"komplek housing";"komplek housing";"Distrik Numba";"Kabupaten Tolikara, Papua";"Kabupaten Tolikara, Papua";"PAPUA";"";"Indonesia";"";"";"";"-3.6381947";"138.529402";"https://maps.google.com/?cid=0x0:0xbe2dee5a53e47bb4";""
"komplek housing";"Komplek perumahan";"Perumahan housing 2";"Jl. Raya Hankam No.12 Blok U, RT.005/RW.002, Jatirahayu, Kec. Pd. Melati, Kota Bks, Jawa Barat 17414";"RT.005/RW.002, Jatirahayu, Kec. Pd. Melati, Kota Bks";"PAPUA";"17414";"Indonesia";"";"";"";"-6.287153";"106.9155932";"https://maps.google.com/?cid=0x0:0x60205f6f07650dd6";""
"komplek housing";"Komplek perumahan";"Pondok Gede Housing II";"Housing II, Jl. Raya Hankam, RT.001/RW.004, Jatirahayu, Pondok Gede, Bekasi, West Java";"Kota Bks, Jawa Barat";"PAPUA";"";"Indonesia";"";"";"";"-6.2876701";"106.9147674";"https://maps.google.com/?cid=0x0:0x2a52e601c20d18f2";""
"komplek housing";"komplek housing";"Distrik Timori";"Kabupaten Tolikara, Papua";"Kabupaten Tolikara, Papua";"PAPUA";"";"Indonesia";"";"";"";"-3.637626";"138.4840197";"https://maps.google.com/?cid=0x0:0x56b36a26c30c4f2f";""
"komplek housing";"Penginapan";"Komplek Deminimalis Caman";"PWRX+5FG, Jl. Caman Raya, RT.002/RW.003, Jatibening, Kec. Pd. Gede, Kota Bks, Jawa Barat 17412";"Jl. Caman Raya, RT.002/RW.003, Jatibening, Kec. Pd. Gede, Kota Bks";"PAPUA";"17412";"Indonesia";"";"";"";"-6.2595609";"106.948689";"https://maps.google.com/?cid=0x0:0xb337eeb8d465b872";""
"komplek housing";"Pembangunan Perumahan";"WILZI House";"Jl. Setia 1 Gg. Mutaqin II No.2, RT.004/RW.012, Jatiwaringin, Kec. Pd. Gede, Kota Bks, Jawa Barat 17411";"RT.004/RW.012, Jatiwaringin, Kec. Pd. Gede, Kota Bks";"PAPUA";"17411";"Indonesia";"";"";"";"-6.2689651";"106.9189788";"https://maps.google.com/?cid=0x0:0xd3f738024eca8e6c";""
"komplek housing";"komplek housing";"Komplek Housing";"Blok Bojong Nangka I, Jl. Ring Rudal Blok Bojong Nangka I No.68, RT.001/RW.007, Jatirahayu, Kec. Pd. Melati, Kota Bks, Jawa Barat 17414";"Jl. Ring Rudal Blok Bojong Nangka I No.68, RT.001/RW.007, Jatirahayu, Kec. Pd. Melati, Kota Bks";"PAPUA";"17414";"Indonesia";"";"";"";"-6.293724";"106.9165114";"https://maps.google.com/?cid=0x0:0x9c50464976dee674";""
"komplek housing";"komplek housing";"Distrik Dundu";"Kabupaten Tolikara, Papua";"Kabupaten Tolikara, Papua";"PAPUA";"";"Indonesia";"";"";"";"-3.4797508";"138.3090619";"https://maps.google.com/?cid=0x0:0x382247aff41fdc2c";""
"komplek housing";"komplek housing";"Komplek Housing";"Blok Bojong Nangka I, Jl. Ring Rudal Blok Bojong Nangka I No.68, RT.001/RW.007, Jatirahayu, Kec. Pd. Melati, Kota Bks, Jawa Barat 17414";"Jl. Ring Rudal Blok Bojong Nangka I No.68, RT.001/RW.007, Jatirahayu, Kec. Pd. Melati, Kota Bks";"PAPUA";"17414";"Indonesia";"";"";"";"-6.293724";"106.9165114";"https://maps.google.com/?cid=0x0:0x9c50464976dee674";""
"komplek housing";"komplek housing";"Distrik Dundu";"Kabupaten Tolikara, Papua";"Kabupaten Tolikara, Papua";"PAPUA";"";"Indonesia";"";"";"";"-3.4797508";"138.3090619";"https://maps.google.com/?cid=0x0:0x382247aff41fdc2c";""
"komplek housing";"komplek housing";"Komplek Housing";"Blok Bojong Nangka I, Jl. Ring Rudal Blok Bojong Nangka I No.68, RT.001/RW.007, Jatirahayu, Kec. Pd. Melati, Kota Bks, Jawa Barat 17414";"Jl. Ring Rudal Blok Bojong Nangka I No.68, RT.001/RW.007, Jatirahayu, Kec. Pd. Melati, Kota Bks";"PAPUA";"17414";"Indonesia";"";"";"";"-6.293724";"106.9165114";"https://maps.google.com/?cid=0x0:0x9c50464976dee674";""
"komplek housing";"Komplek perumahan";"Komplek Perumahan YPPGI";"8F7J+Q63, Karubaga, Kec. Karubaga, Kabupaten Tolikara, Papua";"Kabupaten Tolikara, Papua";"PAPUA";"";"Indonesia";"";"";"";"-3.6856154";"138.4805518";"https://maps.google.com/?cid=0x0:0x1e996dde1edb3b03";""
"komplek housing";"Pembangunan Perumahan";"Perumahan PEMDA";"8FCG+33Q, Muara, Kec. Karubaga, Kabupaten Tolikara, Papua 99567";"Muara, Kec. Karubaga, Kabupaten Tolikara";"PAPUA";"99567";"Indonesia";"";"";"";"-3.6797785";"138.4752409";"https://maps.google.com/?cid=0x0:0x92f2706a088cac78";""
"komplek housing";"Sekolah Dasar";"SD YPPGI Karubaga";"8F8J+35G, Karubaga, Kec. Karubaga, Kabupaten Tolikara, Papua 99567";"Karubaga, Kec. Karubaga, Kabupaten Tolikara";"PAPUA";"99567";"Indonesia";"";"";"";"-3.6848142";"138.4804659";"https://maps.google.com/?cid=0x0:0x8d7209b01bb6bb3f";""
"komplek housing";"Komplek perumahan";"Pondok Gede Housing 1";"Jl. Cipta Raya No.45-3, RT.001/RW.003, Jatirahayu, Kec. Pd. Melati, Kota Bks, Jawa Barat 17414";"RT.001/RW.003, Jatirahayu, Kec. Pd. Melati, Kota Bks";"PAPUA";"17414";"Indonesia";"";"";"";"-6.2852504";"106.9163397";"https://maps.google.com/?cid=0x0:0x3132afedbf38cd61";""
"komplek housing";"Komplek perumahan";"White House";"Jl. Komp. Pd. Gede Housing.II Blok FF. 1A, Jatirahayu, Pondok Melati, Bekasi, West Java 17414";"Jatirahayu, Pondok Melati, Bekasi";"PAPUA";"17414";"Indonesia";"";"";"";"-6.2883969";"106.9160196";"https://maps.google.com/?cid=0x0:0x2bf8b8029130581f";""
"komplek housing";"komplek housing";"Distrik Egiam";"Kabupaten Tolikara, Papua";"Kabupaten Tolikara, Papua";"PAPUA";"";"Indonesia";"";"";"";"-3.2975685";"138.2194523";"https://maps.google.com/?cid=0x0:0x62d47dc752ea2d25";""
"komplek housing";"Pembangunan Perumahan";"Kampung Fru";"P6M7+2X3, Dusun fru kampung dou, Mamberamo Ulu";"Kabupaten Tolikara, Papua";"PAPUA";"";"Indonesia";"";"";"";"-3.2674982";"138.2149323";"https://maps.google.com/?cid=0x0:0x849d935fba3501cc";""
"komplek housing";"komplek housing";"Imaluk ulaga gilimenak";"M38P+R4P, Piriluk, Kec. Umagi, Kabupaten Tolikara, Papua 98975";"Piriluk, Kec. Umagi, Kabupaten Tolikara";"PAPUA";"98975";"Indonesia";"";"";"";"-3.3329212";"138.0853146";"https://maps.google.com/?cid=0x0:0x6201cdaab07407f6";""
"komplek housing";"Pembangunan Perumahan";"Perumahan PEMDA";"8FCG+33Q, Muara, Kec. Karubaga, Kabupaten Tolikara, Papua 99567";"Muara, Kec. Karubaga, Kabupaten Tolikara";"PAPUA";"99567";"Indonesia";"";"";"";"-3.6797785";"138.4752409";"https://maps.google.com/?cid=0x0:0x92f2706a088cac78";""
"komplek housing";"Komplek perumahan";"Komplek Perumahan YPPGI";"8F7J+Q63, Karubaga, Kec. Karubaga, Kabupaten Tolikara, Papua";"Kabupaten Tolikara, Papua";"PAPUA";"";"Indonesia";"";"";"";"-3.6856154";"138.4805518";"https://maps.google.com/?cid=0x0:0x1e996dde1edb3b03";""
"komplek housing";"Sekolah Dasar";"SD YPPGI Karubaga";"8F8J+35G, Karubaga, Kec. Karubaga, Kabupaten Tolikara, Papua 99567";"Karubaga, Kec. Karubaga, Kabupaten Tolikara";"PAPUA";"99567";"Indonesia";"";"";"";"-3.6848142";"138.4804659";"https://maps.google.com/?cid=0x0:0x8d7209b01bb6bb3f";""
"komplek housing";"komplek housing";"Papua 99561";"Kabupaten Mamberamo Tengah, Papua";"Kabupaten Mamberamo Tengah, Papua";"PAPUA";"";"Indonesia";"";"";"";"-3.5154377";"139.1221414";"https://maps.google.com/?cid=0x0:0x6daa3ce0e2559bf1";""
"komplek housing";"komplek housing";"Kamboneri";"Kabupaten Tolikara, Papua";"Kabupaten Tolikara, Papua";"PAPUA";"";"Indonesia";"";"";"";"-3.3612384";"138.2592606";"https://maps.google.com/?cid=0x0:0x34282022d63af179";""
"komplek housing";"Komplek perumahan";"Pondok Gede Housing 1";"Jl. Cipta Raya No.45-3, RT.001/RW.003, Jatirahayu, Kec. Pd. Melati, Kota Bks, Jawa Barat 17414";"RT.001/RW.003, Jatirahayu, Kec. Pd. Melati, Kota Bks";"PAPUA";"17414";"Indonesia";"";"";"";"-6.2852504";"106.9163397";"https://maps.google.com/?cid=0x0:0x3132afedbf38cd61";""
"komplek housing";"komplek housing";"Distrik Airgaram";"Kabupaten Tolikara, Papua";"Kabupaten Tolikara, Papua";"PAPUA";"";"Indonesia";"";"";"";"-3.2894004";"138.0605108";"https://maps.google.com/?cid=0x0:0xe20e5821ce21a89d";""
"komplek housing";"komplek housing";"Papua";"";"Papua";"PAPUA";"";"Indonesia";"";"";"";"-4.269928";"138.0803529";"https://maps.google.com/?cid=0x0:0xeba94e9c5eefe673";""
"komplek housing";"Komplek perumahan";"Rumah tinggal";"Gg. Jaman Jalan Raya Bumi Kahuripan Indah No.2, RT.014/RW.06, Harapan Baru, Kec. Bekasi Utara, Kota Bks, Jawa Barat";"Kota Bks, Jawa Barat";"PAPUA";"";"Indonesia";"";"";"";"-6.2109581";"107.023779";"https://maps.google.com/?cid=0x0:0x5e64bcfa0a1f1934";""
"komplek housing";"komplek housing";"Wakumendek / Frudale";"Dorman, Kabupaten Tolikara, Papua";"Kabupaten Tolikara, Papua";"PAPUA";"";"Indonesia";"";"";"";"-3.3865306";"138.3738715";"https://maps.google.com/?cid=0x0:0xaa769aae8a54a71a";""
"komplek housing";"komplek housing";"Papua 99569";"Kabupaten Tolikara, Papua";"Kabupaten Tolikara, Papua";"PAPUA";"";"Indonesia";"";"";"";"-3.3489271";"138.3190276";"https://maps.google.com/?cid=0x0:0xdfdec4d1cb3753f4";""
"komplek housing";"komplek housing";"HOTEL PARKSIDE WAENA";"Jl. Raya Waena, Kp. Waena, Kec. Abepura, Kota Jayapura, Papua 99532";"Kp. Waena, Kec. Abepura, Kota Jayapura";"PAPUA";"99532";"Indonesia";" 08114829200";"";"";"-2.5965369";"140.6348713";"https://maps.google.com/?cid=0x0:0xeecc070595c2799f";""
"komplek housing";"komplek housing";"Papua";"";"Papua";"PAPUA";"";"Indonesia";"";"";"";"-4.269928";"138.0803529";"https://maps.google.com/?cid=0x0:0xeba94e9c5eefe673";""
"komplek housing";"komplek housing";"Komplek Housing";"Blok Bojong Nangka I, Jl. Ring Rudal Blok Bojong Nangka I No.68, RT.001/RW.007, Jatirahayu, Kec. Pd. Melati, Kota Bks, Jawa Barat 17414";"Jl. Ring Rudal Blok Bojong Nangka I No.68, RT.001/RW.007, Jatirahayu, Kec. Pd. Melati, Kota Bks";"PAPUA";"17414";"Indonesia";"";"";"";"-6.293724";"106.9165114";"https://maps.google.com/?cid=0x0:0x9c50464976dee674";""
"komplek housing";"komplek housing";"Papua 99557";"Kabupaten Mamberamo Tengah, Papua";"Kabupaten Mamberamo Tengah, Papua";"PAPUA";"";"Indonesia";"";"";"";"-3.7408827";"138.9404364";"https://maps.google.com/?cid=0x0:0xb128d87fca34f08d";""
"komplek housing";"Komplek perumahan";"Desa kalarin";"5WPJ+VF, Wirima, Kec. Ilugwa, Kabupaten Mamberamo Tengah, Papua";"Kabupaten Mamberamo Tengah, Papua";"PAPUA";"";"Indonesia";"";"";"";"-3.8128162";"138.9312457";"https://maps.google.com/?cid=0x0:0x6ca3af6521ff96ea";""
"komplek housing";"Pembangunan Perumahan";"Arimagame";"5MXM+36, Injuta, Tagineri, Kabupaten Jayawijaya, Papua";"Kabupaten Jayawijaya, Papua";"PAPUA";"";"Indonesia";"";"";"";"-3.8023476";"138.6831159";"https://maps.google.com/?cid=0x0:0x568c140bf14e2d24";""
"komplek housing";"Komplek perumahan";"Kampung Liluikma";"65CQ+HQ, Dombomi, Kec. Abenaho, Kabupaten Yalimo, Papua";"Kabupaten Yalimo, Papua";"PAPUA";"";"Indonesia";"";"";"";"-3.7785625";"139.1894375";"https://maps.google.com/?cid=0x0:0x5809a90eb37c618";""
"komplek housing";"Perhimpunan Pengembang Perumahan";"Abenahi";"5356+3J6, Abenaho, Kec. Abenaho, Kabupaten Yalimo, Papua";"Kabupaten Yalimo, Papua";"PAPUA";"";"Indonesia";"";"";"";"-3.842344";"139.0615086";"https://maps.google.com/?cid=0x0:0x71aabccd42752b3a";""
"komplek housing";"Komplek perumahan";"Mas weedt";"66C2+3V, Dombomi, Kec. Abenaho, Kabupaten Yalimo, Papua";"Kabupaten Yalimo, Papua";"PAPUA";"";"Indonesia";"";"";"";"-3.77979";"139.202131";"https://maps.google.com/?cid=0x0:0x9c160546112a2890";""
"komplek housing";"Komplek perumahan";"Kampung Kalarin";"5WH8+53Q, Kalarin, Kec. Ilugwa, Kabupaten Mamberamo Tengah, Papua";"Kabupaten Mamberamo Tengah, Papua";"PAPUA";"";"Indonesia";"";"";"";"-3.8220372";"138.9152456";"https://maps.google.com/?cid=0x0:0xaf45763755807a60";""
"komplek housing";"Pembangunan Perumahan";"KAMPUNG KUMBU";"8P7M+JM8, Kumbu, Distrik Kelila, Kabupaten Mamberamo Tengah, Papua";"Kabupaten Mamberamo Tengah, Papua";"PAPUA";"";"Indonesia";"";"";"";"-3.6859516";"138.7342049";"https://maps.google.com/?cid=0x0:0xb2ae383598a58a9e";""
"komplek housing";"Komplek perumahan";"Wageo, Kediaman Ita Pagawak";"83F2+CHV, Kobakma, Distrik Kobagma, Kabupaten Mamberamo Tengah, Papua";"Kabupaten Mamberamo Tengah, Papua";"PAPUA";"";"Indonesia";"";"";"";"-3.6763761";"139.0514094";"https://maps.google.com/?cid=0x0:0x235abcdb58b8ea3a";""
"komplek housing";"Komplek perumahan";"Kabupaten Mamberamo Tengah";"83J7+3FF, Kobakma, Distrik Kobagma, Kabupaten Mamberamo Tengah, Papua";"Kabupaten Mamberamo Tengah, Papua";"PAPUA";"";"Indonesia";"";"";"";"-3.6698129";"139.0636745";"https://maps.google.com/?cid=0x0:0x192310995ab682ef";""
"komplek housing";"Komplek perumahan";"Dusun Wiknggop";"3QR9+4X7, Piramid, Distrik Piramid, Kabupaten Jayawijaya, Papua";"Kabupaten Jayawijaya, Papua";"PAPUA";"";"Indonesia";"";"";"";"-3.9097142";"138.769937";"https://maps.google.com/?cid=0x0:0xf95b4e98fb24d8fd";""
"komplek housing";"Komplek perumahan";"Perumahan Eselon 3A";"83M8+356, Kobakma, Distrik Kobagma, Kabupaten Mamberamo Tengah, Papua 99553";"Kobakma, Distrik Kobagma, Kabupaten Mamberamo Tengah";"PAPUA";"99553";"Indonesia";"";"";"";"-3.6673282";"139.0653753";"https://maps.google.com/?cid=0x0:0x3c450aca74ae7953";""
"komplek housing";"Komplek perumahan";"Kampung wollo";"5V38+V8J, Pirambot, Wollo, Kabupaten Jayawijaya, Papua";"Kabupaten Jayawijaya, Papua";"PAPUA";"";"Indonesia";"";"";"";"-3.8452753";"138.865767";"https://maps.google.com/?cid=0x0:0x7d3cb826b534c5dd";""
"komplek housing";"Komplek perumahan";"Kelapa 1 Kobakma Mamteng";"83J7+3FF, Kobakma, Distrik Kobagma, Kabupaten Mamberamo Tengah, Papua";"Kabupaten Mamberamo Tengah, Papua";"PAPUA";"";"Indonesia";"";"";"";"-3.6698129";"139.0636745";"https://maps.google.com/?cid=0x0:0x768fa24986aaf113";""
"komplek housing";"Komplek perumahan";"Dusun Kulonggu";"4PFX+2Q, Algonik, Distrik Piramid, Kabupaten Jayawijaya, Papua";"Kabupaten Jayawijaya, Papua";"PAPUA";"";"Indonesia";"";"";"";"-3.8774411";"138.7495133";"https://maps.google.com/?cid=0x0:0x422831d97217f5ce";""
"komplek housing";"komplek housing";"Paremal Boys {PRM}";"8M98+4WJ, Bokondini, Kec. Bokondini, Kabupaten Tolikara, Papua 99556";"Bokondini, Kec. Bokondini, Kabupaten Tolikara";"PAPUA";"99556";"Indonesia";" 081221416127";"";"";"-3.6832944";"138.6664513";"https://maps.google.com/?cid=0x0:0x6f72c9da0d8b50a4";""
"komplek housing";"Komplek perumahan";"Dusun Luime";"3QW7+24X, Piramid, Distrik Piramid, Kabupaten Jayawijaya, Papua";"Kabupaten Jayawijaya, Papua";"PAPUA";"";"Indonesia";"";"";"";"-3.9051924";"138.7622756";"https://maps.google.com/?cid=0x0:0x600f54c31434878f";""
"komplek housing";"Komplek perumahan";"kobakma Mamberamo Tengah";"8338+QX, Baliblabuk, Distrik Kobagma, Kabupaten Mamberamo Tengah, Papua";"Kabupaten Mamberamo Tengah, Papua";"PAPUA";"";"Indonesia";"";"";"";"-3.6664653";"139.1209906";"https://maps.google.com/?cid=0x0:0x3b03bc5d999c17ef";""
"komplek housing";"Komplek perumahan";"Dusun Anggurok Kunik";"3QJ6+HG, Piramid, Distrik Piramid, Kabupaten Jayawijaya, Papua";"Kabupaten Jayawijaya, Papua";"PAPUA";"";"Indonesia";"";"";"";"-3.9186037";"138.7613023";"https://maps.google.com/?cid=0x0:0x8fcf259711b0c0f3";""
"komplek housing";"Komplek perumahan";"Dusun Kambolok";"3QC2+9VR, Wame, Asologaima, Kabupaten Jayawijaya, Papua 99555";"Wame, Asologaima, Kabupaten Jayawijaya";"PAPUA";"99555";"Indonesia";"";"";"";"-3.9294565";"138.7513721";"https://maps.google.com/?cid=0x0:0xcc6d31dd35cce21f";""
"komplek housing";"komplek housing";"Tagineri";"Kabupaten Jayawijaya, Papua";"Kabupaten Jayawijaya, Papua";"PAPUA";"";"Indonesia";"";"";"";"-4.2950352";"138.6990679";"https://maps.google.com/?cid=0x0:0x860d6c88b04a67da";""
"komplek housing";"komplek housing";"Papua 99561";"Kabupaten Mamberamo Tengah, Papua";"Kabupaten Mamberamo Tengah, Papua";"PAPUA";"";"Indonesia";"";"";"";"-3.5154377";"139.1221414";"https://maps.google.com/?cid=0x0:0x6daa3ce0e2559bf1";""
"komplek housing";"komplek housing";"Tagineri";"Kabupaten Jayawijaya, Papua";"Kabupaten Jayawijaya, Papua";"PAPUA";"";"Indonesia";"";"";"";"-4.2950352";"138.6990679";"https://maps.google.com/?cid=0x0:0x860d6c88b04a67da";""
"komplek housing";"komplek housing";"Yuneri";"Kabupaten Tolikara, Papua";"Kabupaten Tolikara, Papua";"PAPUA";"";"Indonesia";"";"";"";"-3.5007419";"138.3856532";"https://maps.google.com/?cid=0x0:0xd253f5075e1119eb";""
"komplek housing";"Pembangunan Perumahan";"Komplek SD Parari";"8CH7+R3, Wonitu, Parari, Kabupaten Tolikara, Papua";"Kabupaten Tolikara, Papua";"PAPUA";"";"Indonesia";"";"";"";"-3.6703573";"138.412649";"https://maps.google.com/?cid=0x0:0xd23a778e8dcfa873";""
"komplek housing";"Pembangunan Perumahan";"febri";"8F8G+FGP, Karubaga, Kec. Karubaga, Kabupaten Tolikara, Papua";"Kabupaten Tolikara, Papua";"PAPUA";"";"Indonesia";"";"";"";"-3.6837789";"138.4763233";"https://maps.google.com/?cid=0x0:0x5d3a3dbf76f03d2";""
"komplek housing";"komplek housing";"Distrik Wakuo";"Kabupaten Tolikara, Papua";"Kabupaten Tolikara, Papua";"PAPUA";"";"Indonesia";"";"";"";"-3.668192";"138.4233483";"https://maps.google.com/?cid=0x0:0x9e6f1d3a46b0ac6f";""
"komplek housing";"Komplek perumahan";"Komplek Perumahan YPPGI";"8F7J+Q63, Karubaga, Kec. Karubaga, Kabupaten Tolikara, Papua";"Kabupaten Tolikara, Papua";"PAPUA";"";"Indonesia";"";"";"";"-3.6856154";"138.4805518";"https://maps.google.com/?cid=0x0:0x1e996dde1edb3b03";""
"komplek housing";"Pembangunan Perumahan";"Perumahan PEMDA";"8FCG+33Q, Muara, Kec. Karubaga, Kabupaten Tolikara, Papua 99567";"Muara, Kec. Karubaga, Kabupaten Tolikara";"PAPUA";"99567";"Indonesia";"";"";"";"-3.6797785";"138.4752409";"https://maps.google.com/?cid=0x0:0x92f2706a088cac78";""
"komplek housing";"Sekolah Dasar";"SD YPPGI Karubaga";"8F8J+35G, Karubaga, Kec. Karubaga, Kabupaten Tolikara, Papua 99567";"Karubaga, Kec. Karubaga, Kabupaten Tolikara";"PAPUA";"99567";"Indonesia";"";"";"";"-3.6848142";"138.4804659";"https://maps.google.com/?cid=0x0:0x8d7209b01bb6bb3f";""
"komplek housing";"komplek housing";"Telenggeme";"Distrik Kembu, Kabupaten Tolikara, Papua";"Kabupaten Tolikara, Papua";"PAPUA";"";"Indonesia";"";"";"";"-3.6046251";"138.3938283";"https://maps.google.com/?cid=0x0:0x5c122e75fd9bdab4";""
"komplek housing";"komplek housing";"Distrik Telenggeme";"Kabupaten Tolikara, Papua";"Kabupaten Tolikara, Papua";"PAPUA";"";"Indonesia";"";"";"";"-3.5927412";"138.3619774";"https://maps.google.com/?cid=0x0:0xf9a0467a900604c6";""
"komplek housing";"Pembangunan Perumahan";"Cluster Jasmine Residence";"Jl. Ciliwung (Arah Jembatan Besi) RT3 RT1, Jl. Raya Pondok Rajeg, Pd. Rajeg, Kec. Cibinong, Kabupaten Bogor, Jawa Barat 16914";"Jl. Raya Pondok Rajeg, Pd. Rajeg, Kec. Cibinong, Kabupaten Bogor";"PAPUA";"16914";"Indonesia";"";"";"";"-6.4457017";"106.8151143";"https://maps.google.com/?cid=0x0:0xc764492a1aaaca5b";""
"komplek housing";"Komplek perumahan";"Nirwana Bojong Residence";"Kantor Marketing, Perumahan Nirwana bojong, Residence, Bojong, Kec. Klapanunggal, Kabupaten Bogor, Jawa Barat 16710";"Perumahan Nirwana bojong, Residence, Bojong, Kec. Klapanunggal, Kabupaten Bogor";"PAPUA";"16710";"Indonesia";" 082121217143";"";"";"-6.4456733";"106.9987308";"https://maps.google.com/?cid=0x0:0x99093bd921986d94";""
"komplek housing";"komplek housing";"Komplek Housing";"Blok Bojong Nangka I, Jl. Ring Rudal Blok Bojong Nangka I No.68, RT.001/RW.007, Jatirahayu, Kec. Pd. Melati, Kota Bks, Jawa Barat 17414";"Jl. Ring Rudal Blok Bojong Nangka I No.68, RT.001/RW.007, Jatirahayu, Kec. Pd. Melati, Kota Bks";"PAPUA";"17414";"Indonesia";"";"";"";"-6.293724";"106.9165114";"https://maps.google.com/?cid=0x0:0x9c50464976dee674";""
"komplek housing";"komplek housing";"Distrik Anawi";"Kabupaten Tolikara, Papua";"Kabupaten Tolikara, Papua";"PAPUA";"";"Indonesia";"";"";"";"-3.7167202";"138.4981264";"https://maps.google.com/?cid=0x0:0x701ae4b208b8e524";""
"komplek housing";"Komplek perumahan";"Pondok Gede Housing II";"Housing II, Jl. Raya Hankam, RT.001/RW.004, Jatirahayu, Pondok Gede, Bekasi, West Java";"Kota Bks, Jawa Barat";"PAPUA";"";"Indonesia";"";"";"";"-6.2876701";"106.9147674";"https://maps.google.com/?cid=0x0:0x2a52e601c20d18f2";""
"komplek housing";"Komplek perumahan";"Perumahan housing 2";"Jl. Raya Hankam No.12 Blok U, RT.005/RW.002, Jatirahayu, Kec. Pd. Melati, Kota Bks, Jawa Barat 17414";"RT.005/RW.002, Jatirahayu, Kec. Pd. Melati, Kota Bks";"PAPUA";"17414";"Indonesia";"";"";"";"-6.287153";"106.9155932";"https://maps.google.com/?cid=0x0:0x60205f6f07650dd6";""
"komplek housing";"komplek housing";"Wenam";"Distrik Pirime, Kabupaten Lanny Jaya, Papua";"Kabupaten Lanny Jaya, Papua";"PAPUA";"";"Indonesia";"";"";"";"-3.9530441";"138.4737282";"https://maps.google.com/?cid=0x0:0x10b1455faa3424c4";""
"komplek housing";"Komplek perumahan";"Dusun Kinnime";"2FCR+H3, Karunggame, Distrik Pirime, Kabupaten Lanny Jaya, Papua";"Kabupaten Lanny Jaya, Papua";"PAPUA";"";"Indonesia";"";"";"";"-3.9785621";"138.4901193";"https://maps.google.com/?cid=0x0:0x5a80afcfe8d14433";""
"komplek housing";"Komplek perumahan";"Rumah Evan";"Jalan Gang jati 9, perumnas 2, Kp. Waena, Kec. Heram, Kota Jayapura, Papua 99225";"perumnas 2, Kp. Waena, Kec. Heram, Kota Jayapura";"PAPUA";"99225";"Indonesia";"";"";"";"-2.588324";"140.6392368";"https://maps.google.com/?cid=0x0:0xdab36dbafd8ef9d3";""
"komplek housing";"komplek housing";"Papua";"";"Papua";"PAPUA";"";"Indonesia";"";"";"";"-4.269928";"138.0803529";"https://maps.google.com/?cid=0x0:0xeba94e9c5eefe673";""
"komplek housing";"Gedung Apartemen";"HIDDEN VALLEY COMPLEX";"R3WX+8Q7, Tembagapura, Kec. Tembagapura, Kabupaten Mimika, Papua 99967";"Tembagapura, Kec. Tembagapura, Kabupaten Mimika";"PAPUA";"99967";"Indonesia";"";"";"";"-4.1542159";"137.0994215";"https://maps.google.com/?cid=0x0:0x8f548cbaf64490ca";""
"komplek housing";"Komplek perumahan";"Komplek Daerah Menawi (KODAM)";"MGJR+MH6, Jl. Yan Mamoribo, Sanoba, Distrik Nabire, Kabupaten Nabire, Papua 98816";"Jl. Yan Mamoribo, Sanoba, Distrik Nabire, Kabupaten Nabire";"PAPUA";"98816";"Indonesia";"";"";"";"-3.318333";"135.5413819";"https://maps.google.com/?cid=0x0:0x5df3f1bb23fd91f";""
"komplek housing";"komplek housing";"InlbaJjeE72X4-EPjaa6uAY"-,null,null,1,null,"https://www.google.com/maps/preview/place/Rumah+Meilin/@-2.44565,117.8888,3986a,13.1y/datau003d!4m2!3m1!1s0x686cef953856aa87:0x70cb59bcf14deab7";"";"";"PAPUA";"";"Indonesia";" 081344831826";"";"";"-2.44565";"117.8888";"https://maps.google.com/?cid=0x0:0x70cb59bcf14deab7";""
"komplek housing";"Komplek perumahan";"Shiva Housing";"Perumahan Wahana Pondok Gede, K3/20, RT.018/RW.007, Jatiranggon, Jatisampurna, Bekasi, West Java 17431";"K3/20, RT.018/RW.007, Jatiranggon, Jatisampurna, Bekasi";"PAPUA";"17431";"Indonesia";"";"";"";"-6.3395969";"106.9387521";"https://maps.google.com/?cid=0x0:0xeff80149be4a471";""
"komplek housing";"Komplek perumahan";"Perumahan housing 2";"Jl. Raya Hankam No.12 Blok U, RT.005/RW.002, Jatirahayu, Kec. Pd. Melati, Kota Bks, Jawa Barat 17414";"RT.005/RW.002, Jatirahayu, Kec. Pd. Melati, Kota Bks";"PAPUA";"17414";"Indonesia";"";"";"";"-6.287153";"106.9155932";"https://maps.google.com/?cid=0x0:0x60205f6f07650dd6";""
"komplek housing";"komplek housing";"Distrik Wugi";"Kabupaten Tolikara, Papua";"Kabupaten Tolikara, Papua";"PAPUA";"";"Indonesia";"";"";"";"-3.7219706";"138.5079501";"https://maps.google.com/?cid=0x0:0x59c08c49201b13f2";""
"komplek housing";"Komplek perumahan";"Pondok Gede Housing II";"Housing II, Jl. Raya Hankam, RT.001/RW.004, Jatirahayu, Pondok Gede, Bekasi, West Java";"Kota Bks, Jawa Barat";"PAPUA";"";"Indonesia";"";"";"";"-6.2876701";"106.9147674";"https://maps.google.com/?cid=0x0:0x2a52e601c20d18f2";""
"komplek housing";"Komplek perumahan";"Pondok Gede Housing 1";"Jl. Cipta Raya No.45-3, RT.001/RW.003, Jatirahayu, Kec. Pd. Melati, Kota Bks, Jawa Barat 17414";"RT.001/RW.003, Jatirahayu, Kec. Pd. Melati, Kota Bks";"PAPUA";"17414";"Indonesia";"";"";"";"-6.2852504";"106.9163397";"https://maps.google.com/?cid=0x0:0x3132afedbf38cd61";""
"komplek housing";"komplek housing";"Papua 99561";"Kabupaten Mamberamo Tengah, Papua";"Kabupaten Mamberamo Tengah, Papua";"PAPUA";"";"Indonesia";"";"";"";"-3.5154377";"139.1221414";"https://maps.google.com/?cid=0x0:0x6daa3ce0e2559bf1";""
"komplek housing";"komplek housing";"Distrik Danime";"Kabupaten Tolikara, Papua";"Kabupaten Tolikara, Papua";"PAPUA";"";"Indonesia";"";"";"";"-3.3986646";"138.1647635";"https://maps.google.com/?cid=0x0:0x714076e2682d29ed";""
"komplek housing";"Penginapan";"Komplek Deminimalis Caman";"PWRX+5FG, Jl. Caman Raya, RT.002/RW.003, Jatibening, Kec. Pd. Gede, Kota Bks, Jawa Barat 17412";"Jl. Caman Raya, RT.002/RW.003, Jatibening, Kec. Pd. Gede, Kota Bks";"PAPUA";"17412";"Indonesia";"";"";"";"-6.2595609";"106.948689";"https://maps.google.com/?cid=0x0:0xb337eeb8d465b872";""
"komplek housing";"Komplek perumahan";"Dani House";"Jl. Bintara 12A No.7, RT.008/RW.009, Bintara, Kec. Bekasi Bar., Kota Bks, Jawa Barat 17134";"RT.008/RW.009, Bintara, Kec. Bekasi Bar., Kota Bks";"PAPUA";"17134";"Indonesia";"";"";"";"-6.2313605";"106.9623243";"https://maps.google.com/?cid=0x0:0x90017bf28e266cc";""
"komplek housing";"Komplek perumahan";"rumah dani";"MX6P+788, RT.002/RW.004, Cikiwul, Kec. Bantar Gebang, Kota Bks, Jawa Barat 17152";"RT.002/RW.004, Cikiwul, Kec. Bantar Gebang, Kota Bks";"PAPUA";"17152";"Indonesia";"";"";"";"-6.3393484";"106.9858346";"https://maps.google.com/?cid=0x0:0x91322adc83a22fc5";""
"komplek housing";"Komplek perumahan";"Denaya Green Residence";"JWHP+J68 Denaya Green Residence, RT.002/RW.003, Jatirangga, Jatisampurna, Bekasi, West Java 17434";"RT.002/RW.003, Jatirangga, Jatisampurna, Bekasi";"PAPUA";"17434";"Indonesia";"";"";"";"-6.3709549";"106.9355911";"https://maps.google.com/?cid=0x0:0x3e309490323d864d";""
"komplek housing";"Komplek perumahan";"Rumah Aja";"Jl. Dukuh Zamrud Blk. I-45 No.55, RT.006/RW.010, Cimuning, Mustika Jaya, Bekasi Regency, West Java 17156";"RT.006/RW.010, Cimuning, Mustika Jaya, Bekasi Regency";"PAPUA";"17156";"Indonesia";"";"";"";"-6.310473";"107.026957";"https://maps.google.com/?cid=0x0:0x4e16d82c10dfe79e";""
"komplek housing";"Komplek perumahan";"DyanDanilHome";"Jl. Nakula No.36, RT.003/RW.008, Harjamukti, Kec. Cimanggis, Kota Depok, Jawa Barat 16454";"RT.003/RW.008, Harjamukti, Kec. Cimanggis, Kota Depok";"PAPUA";"16454";"Indonesia";"";"";"";"-6.383316";"106.8827514";"https://maps.google.com/?cid=0x0:0xbb7e3f25a149ff33";""
"komplek housing";"Pembangunan Perumahan";"Denaya Margahayu Residence";"Jl. Caringin 3, RT.002/RW.002, Mustikasari, Kec. Mustika Jaya, Kota Bks, Jawa Barat 17157";"RT.002/RW.002, Mustikasari, Kec. Mustika Jaya, Kota Bks";"PAPUA";"17157";"Indonesia";" 081299338900";"";"";"-6.2915609";"107.0098162";"https://maps.google.com/?cid=0x0:0x39a6942794c910d2";""
"komplek housing";"Kompleks Townhouse";"Denaya Pavilion Residence";"Jl. Siti 1 No.152, RT.002/RW.008, Mustikajaya, Kec. Mustika Jaya, Kota Bks, Jawa Barat 17158";"RT.002/RW.008, Mustikajaya, Kec. Mustika Jaya, Kota Bks";"PAPUA";"17158";"Indonesia";"";"";"";"-6.3024493";"107.0325885";"https://maps.google.com/?cid=0x0:0xdc726a0d4ae669dd";""
"komplek housing";"Komplek perumahan";"Rumah kita";"Blok D16 No.15, RT.006/RW.024, Cimuning, Kec. Mustika Jaya, Kota Bks, Jawa Barat 17155";"RT.006/RW.024, Cimuning, Kec. Mustika Jaya, Kota Bks";"PAPUA";"17155";"Indonesia";"";"";"";"-6.318816";"107.019728";"https://maps.google.com/?cid=0x0:0xcb7f24e6fa004c6a";""
"komplek housing";"komplek housing";"Tagime";"Kabupaten Jayawijaya, Papua";"Kabupaten Jayawijaya, Papua";"PAPUA";"";"Indonesia";"";"";"";"-3.8151532";"138.7291822";"https://maps.google.com/?cid=0x0:0xdfba9de3bc233fe8";""
"komplek housing";"komplek housing";"Distrik Tagime";"Kabupaten Tolikara, Papua";"Kabupaten Tolikara, Papua";"PAPUA";"";"Indonesia";"";"";"";"-3.3807104";"138.1896152";"https://maps.google.com/?cid=0x0:0x23209925defcdd85";""
"komplek housing";"Komplek perumahan";"Jagakarsa Signature";"No.38JagakarsaKec, Jl. Raya Jagakarsa No.38, Jagakarsa, Kec. Jagakarsa, Kota Jakarta Selatan, Daerah Khusus Ibukota Jakarta 12620";"Jl. Raya Jagakarsa No.38, Jagakarsa, Kec. Jagakarsa, Kota Jakarta Selatan";"PAPUA";"12620";"Indonesia";" 081288850038";"";"";"-6.3272381";"106.8143868";"https://maps.google.com/?cid=0x0:0x4215443281912720";""
"komplek housing";"Pengembang Realestat";"CATALIA PRIVATE RESIDENCE 3";"Jl. Baru No.35-41, RT.3/RW.06, Jatimurni, Kec. Pd. Melati, Kota Bks, Jawa Barat 17341";"RT.3/RW.06, Jatimurni, Kec. Pd. Melati, Kota Bks";"PAPUA";"17341";"Indonesia";" 085280155595";"";"";"-6.3307247";"106.9228958";"https://maps.google.com/?cid=0x0:0xe83868a97c64a80e";""
"komplek housing";"Perumahan";"Perumahan Vinewood babelan";"Jl. Raya Ps. Babelan, Kedung Pengawas, Kec. Babelan, Kabupaten Bekasi, Jawa Barat 17610";"Kedung Pengawas, Kec. Babelan, Kabupaten Bekasi";"PAPUA";"17610";"Indonesia";"";"";"";"-6.1362332";"107.0532841";"https://maps.google.com/?cid=0x0:0xcf53c23932af693d";""
"komplek housing";"Komplek perumahan";"Sunrise River Muktijaya";"H2WP+3JH, Jl. Muktijaya - Cigelam, Muktijaya, Kec. Setu, Kabupaten Bekasi, Jawa Barat 17320";"Jl. Muktijaya - Cigelam, Muktijaya, Kec. Setu, Kabupaten Bekasi";"PAPUA";"17320";"Indonesia";" 081381381789";"";"";"-6.4048186";"107.0366116";"https://maps.google.com/?cid=0x0:0x4531fe10b04fec4c";""
"komplek housing";"Rumah Kaca";"Kavling Babelan City Regency (BCR)";"Kedung Pengawas, Kec. Babelan, Kabupaten Bekasi, Jawa Barat 17610";"Kec. Babelan, Kabupaten Bekasi";"PAPUA";"17610";"Indonesia";"";"";"";"-6.1366673";"107.0494889";"https://maps.google.com/?cid=0x0:0xb67bb7b09cd6e63f";""
"komplek housing";"Pembangunan Perumahan";"Perumahan Villa Mutiara";"Jl. Mirah Raya Blk. W-AW No.4, Sawah Baru, Kec. Ciputat, Kota Tangerang Selatan, Banten 15413";"Sawah Baru, Kec. Ciputat, Kota Tangerang Selatan";"PAPUA";"15413";"Indonesia";"";"";"";"-6.2972435";"106.7210888";"https://maps.google.com/?cid=0x0:0x9c97803849419901";""
"komplek housing";"Komplek perumahan";"Perumahan Sapta Villa";"Jl. Sirojul Munir, Pakansari, Kec. Cibinong, Kabupaten Bogor, Jawa Barat 16915";"Pakansari, Kec. Cibinong, Kabupaten Bogor";"PAPUA";"16915";"Indonesia";" 081270090101";"";"";"-6.4965869";"106.8221036";"https://maps.google.com/?cid=0x0:0xba4d343ee861af86";""
"komplek housing";"Perumahan";"Bamboo Prime Residence";"Bambu Apus, Kec. Pamulang, Kota Tangerang Selatan, Banten 15415";"Kec. Pamulang, Kota Tangerang Selatan";"PAPUA";"15415";"Indonesia";" 081319620006";"";"";"-6.3303692";"106.7249788";"https://maps.google.com/?cid=0x0:0xfa37e412cf1ab783";""
"komplek housing";"komplek housing";"Papua 99561";"Kabupaten Mamberamo Tengah, Papua";"Kabupaten Mamberamo Tengah, Papua";"PAPUA";"";"Indonesia";"";"";"";"-3.5154377";"139.1221414";"https://maps.google.com/?cid=0x0:0x6daa3ce0e2559bf1";""
"komplek housing";"komplek housing";"Distrik Tagime";"Kabupaten Tolikara, Papua";"Kabupaten Tolikara, Papua";"PAPUA";"";"Indonesia";"";"";"";"-3.3807104";"138.1896152";"https://maps.google.com/?cid=0x0:0x23209925defcdd85";""
"komplek housing";"Perumahan";"Grand Viona Kuripan (GVK)";"PERUMAHAN GRAND VIONA, Kuripan, Kec. Ciseeng, Kabupaten Bogor, Jawa Barat 16120";"Kuripan, Kec. Ciseeng, Kabupaten Bogor";"PAPUA";"16120";"Indonesia";"";"";"";"-6.4262313";"106.6567514";"https://maps.google.com/?cid=0x0:0xed7e731fc4a452ec";""
"komplek housing";"Komplek perumahan";"Jagakarsa Signature";"No.38JagakarsaKec, Jl. Raya Jagakarsa No.38, Jagakarsa, Kec. Jagakarsa, Kota Jakarta Selatan, Daerah Khusus Ibukota Jakarta 12620";"Jl. Raya Jagakarsa No.38, Jagakarsa, Kec. Jagakarsa, Kota Jakarta Selatan";"PAPUA";"12620";"Indonesia";" 081288850038";"";"";"-6.3272381";"106.8143868";"https://maps.google.com/?cid=0x0:0x4215443281912720";""
"komplek housing";"Perumahan";"Perumahan Cikarang Utama Residence";"cikarang utama residence, Jayasampurna, Kec. Serang Baru, Kabupaten Bekasi, Jawa Barat 17330";"Jayasampurna, Kec. Serang Baru, Kabupaten Bekasi";"PAPUA";"17330";"Indonesia";"";"";"";"-6.3769939";"107.0863038";"https://maps.google.com/?cid=0x0:0xfca033f80de7c8af";""
"komplek housing";"Rumah Kaca";"Kavling Babelan City Regency (BCR)";"Kedung Pengawas, Kec. Babelan, Kabupaten Bekasi, Jawa Barat 17610";"Kec. Babelan, Kabupaten Bekasi";"PAPUA";"17610";"Indonesia";"";"";"";"-6.1366673";"107.0494889";"https://maps.google.com/?cid=0x0:0xb67bb7b09cd6e63f";""
"komplek housing";"Otoritas Perumahan";"Perum Cluster Rajeg City Mansion (RCM)";"Rajeg Mulya, Kec. Rajeg, Kabupaten Tangerang, Banten";"Kabupaten Tangerang, Banten";"PAPUA";"";"Indonesia";"";"";"";"-6.1114733";"106.539408";"https://maps.google.com/?cid=0x0:0x6f1d4ed9b22ba5d8";""
"komplek housing";"Pembangunan Perumahan";"Cluster Granada Rajeg City";"VGVM+75G, Rajeg Mulya, Kec. Rajeg, Kabupaten Tangerang, Banten 15540";"Rajeg Mulya, Kec. Rajeg, Kabupaten Tangerang";"PAPUA";"15540";"Indonesia";" 02155780069";"";"";"-6.1068165";"106.5329396";"https://maps.google.com/?cid=0x0:0x7db83b6a611947bc";""
"komplek housing";"Perumahan";"Perumahan Vinewood babelan";"Jl. Raya Ps. Babelan, Kedung Pengawas, Kec. Babelan, Kabupaten Bekasi, Jawa Barat 17610";"Kedung Pengawas, Kec. Babelan, Kabupaten Bekasi";"PAPUA";"17610";"Indonesia";"";"";"";"-6.1362332";"107.0532841";"https://maps.google.com/?cid=0x0:0xcf53c23932af693d";""
"komplek housing";"Pembangunan Perumahan";"Perumahan Wahana Srimukti";"Srimukti, Kec. Tambun Utara, Kabupaten Bekasi, Jawa Barat 17510";"Kec. Tambun Utara, Kabupaten Bekasi";"PAPUA";"17510";"Indonesia";" 089655979719";"";"";"-6.1643577";"107.0601001";"https://maps.google.com/?cid=0x0:0x52b4bad9cf43dc4d";""
"komplek housing";"Komplek perumahan";"Taman Asri Regency";"Jl. Raya Srimahi Bekasi, Srimahi, Kec. Tambun Utara, Kabupaten Bekasi, Jawa Barat 17510";"Srimahi, Kec. Tambun Utara, Kabupaten Bekasi";"PAPUA";"17510";"Indonesia";"";"";"";"-6.1717323";"107.0862095";"https://maps.google.com/?cid=0x0:0x3a91ef3fbb8ed67c";""
"komplek housing";"Komplek perumahan";"Sunrise River Muktijaya";"H2WP+3JH, Jl. Muktijaya - Cigelam, Muktijaya, Kec. Setu, Kabupaten Bekasi, Jawa Barat 17320";"Jl. Muktijaya - Cigelam, Muktijaya, Kec. Setu, Kabupaten Bekasi";"PAPUA";"17320";"Indonesia";" 081381381789";"";"";"-6.4048186";"107.0366116";"https://maps.google.com/?cid=0x0:0x4531fe10b04fec4c";""
"komplek housing";"Komplek perumahan";"Perumahan Sapta Villa";"Jl. Sirojul Munir, Pakansari, Kec. Cibinong, Kabupaten Bogor, Jawa Barat 16915";"Pakansari, Kec. Cibinong, Kabupaten Bogor";"PAPUA";"16915";"Indonesia";" 081270090101";"";"";"-6.4965869";"106.8221036";"https://maps.google.com/?cid=0x0:0xba4d343ee861af86";""
"komplek housing";"Pembangunan Perumahan";"Perumahan Villa Mutiara";"Jl. Mirah Raya Blk. W-AW No.4, Sawah Baru, Kec. Ciputat, Kota Tangerang Selatan, Banten 15413";"Sawah Baru, Kec. Ciputat, Kota Tangerang Selatan";"PAPUA";"15413";"Indonesia";"";"";"";"-6.2972435";"106.7210888";"https://maps.google.com/?cid=0x0:0x9c97803849419901";""
"komplek housing";"Perumahan";"Perumahan Pesona Kahuripan 2";"Klapanunggal, Kec. Klapanunggal, Kabupaten Bogor, Jawa Barat 16710";"Kec. Klapanunggal, Kabupaten Bogor";"PAPUA";"16710";"Indonesia";" 082310001213";"";"";"-6.4592284";"106.9659879";"https://maps.google.com/?cid=0x0:0x6c4acf464ef09611";""
"komplek housing";"Pembangunan Perumahan";"Puri Begawan Kemang";"GP3F+M69, Pabuaran, Kec. Kemang, Kabupaten Bogor, Jawa Barat";"Kabupaten Bogor, Jawa Barat";"PAPUA";"";"Indonesia";" 082246711633";"";"";"-6.4958375";"106.7231094";"https://maps.google.com/?cid=0x0:0x8145a526382ffc39";""
"komplek housing";"Komplek perumahan";"Bumi Bantar Panjang";"Bantar Panjang, Kec. Tigaraksa, Kabupaten Tangerang, Banten 15720";"Kec. Tigaraksa, Kabupaten Tangerang";"PAPUA";"15720";"Indonesia";" 081389938480";"";"";"-6.3063107";"106.4595235";"https://maps.google.com/?cid=0x0:0x63920f40858552a8";""
"komplek housing";"Komplek perumahan";"Perum Tera Damai,";"Cluster Curtina TC, Jl. Perumahan Tera Damai No.07.01, Sriamur, Kec. Tambun Utara, Kabupaten Bekasi, Jawa Barat 17510";"Jl. Perumahan Tera Damai No.07.01, Sriamur, Kec. Tambun Utara, Kabupaten Bekasi";"PAPUA";"17510";"Indonesia";"";"";"";"-6.1730353";"107.0545645";"https://maps.google.com/?cid=0x0:0x91630c8e26227c0b";""
"komplek housing";"Kantor Perusahaan";"Grand Sukamulya Cisauk";"Jalan kampung Leuwiranji, Sukamulya, Kec. Rumpin, Kabupaten Bogor, Jawa Barat 16350";"Sukamulya, Kec. Rumpin, Kabupaten Bogor";"PAPUA";"16350";"Indonesia";" 085780881004";"";"";"-6.3721068";"106.6459588";"https://maps.google.com/?cid=0x0:0x13e210069e886101";""
"komplek housing";"komplek housing";"Komplek Housing";"Blok Bojong Nangka I, Jl. Ring Rudal Blok Bojong Nangka I No.68, RT.001/RW.007, Jatirahayu, Kec. Pd. Melati, Kota Bks, Jawa Barat 17414";"Jl. Ring Rudal Blok Bojong Nangka I No.68, RT.001/RW.007, Jatirahayu, Kec. Pd. Melati, Kota Bks";"PAPUA";"17414";"Indonesia";"";"";"";"-6.293724";"106.9165114";"https://maps.google.com/?cid=0x0:0x9c50464976dee674";""
"komplek housing";"komplek housing";"Papua 99562";"Kabupaten Tolikara, Papua";"Kabupaten Tolikara, Papua";"PAPUA";"";"Indonesia";"";"";"";"-3.576543";"138.5187229";"https://maps.google.com/?cid=0x0:0xba78f888ca44ae7d";""
"komplek housing";"komplek housing";"Papua";"";"Papua";"PAPUA";"";"Indonesia";"";"";"";"-4.269928";"138.0803529";"https://maps.google.com/?cid=0x0:0xeba94e9c5eefe673";""
"komplek housing";"Komplek perumahan";"Pondok Gede Housing II";"Housing II, Jl. Raya Hankam, RT.001/RW.004, Jatirahayu, Pondok Gede, Bekasi, West Java";"Kota Bks, Jawa Barat";"PAPUA";"";"Indonesia";"";"";"";"-6.2876701";"106.9147674";"https://maps.google.com/?cid=0x0:0x2a52e601c20d18f2";""
"komplek housing";"Komplek perumahan";"Kai’s House";"Jl. Melati No.56, RT.004/RW.002, Jatibening Baru, Kec. Pd. Gede, Kota Bks, Jawa Barat 17412";"RT.004/RW.002, Jatibening Baru, Kec. Pd. Gede, Kota Bks";"PAPUA";"17412";"Indonesia";"";"";"";"-6.2538165";"106.9367002";"https://maps.google.com/?cid=0x0:0x41e80d051c29b522";""
"komplek housing";"Pembangunan Perumahan";"Kayana 2 Residence Kav C Diamond";"PW4H+RFR, Jl. Masjid Rw. Bacang, RT.007/RW.012, Jatirahayu, Kec. Pd. Melati, Kota Bks, Jawa Barat 17414";"Jl. Masjid Rw. Bacang, RT.007/RW.012, Jatirahayu, Kec. Pd. Melati, Kota Bks";"PAPUA";"17414";"Indonesia";"";"";"";"-6.2928938";"106.9286399";"https://maps.google.com/?cid=0x0:0x3524c59a65b1f0a0";""
"komplek housing";"komplek housing";"Distrik Aweku";"Kabupaten Tolikara, Papua";"Kabupaten Tolikara, Papua";"PAPUA";"";"Indonesia";"";"";"";"-3.6039131";"138.3642641";"https://maps.google.com/?cid=0x0:0x3ae9eabf0c9c0739";""
"komplek housing";"komplek housing";"Distrik Bogonuk";"Kabupaten Tolikara, Papua";"Kabupaten Tolikara, Papua";"PAPUA";"";"Indonesia";"";"";"";"-3.7084478";"138.2831997";"https://maps.google.com/?cid=0x0:0x6d7ee5a8e5240c5c";""
"komplek housing";"Komplek perumahan";"Pondok Gede Housing 1";"Jl. Cipta Raya No.45-3, RT.001/RW.003, Jatirahayu, Kec. Pd. Melati, Kota Bks, Jawa Barat 17414";"RT.001/RW.003, Jatirahayu, Kec. Pd. Melati, Kota Bks";"PAPUA";"17414";"Indonesia";"";"";"";"-6.2852504";"106.9163397";"https://maps.google.com/?cid=0x0:0x3132afedbf38cd61";""
"komplek housing";"Komplek perumahan";"Pondok Gede Housing II";"Housing II, Jl. Raya Hankam, RT.001/RW.004, Jatirahayu, Pondok Gede, Bekasi, West Java";"Kota Bks, Jawa Barat";"PAPUA";"";"Indonesia";"";"";"";"-6.2876701";"106.9147674";"https://maps.google.com/?cid=0x0:0x2a52e601c20d18f2";""
"komplek housing";"Komplek perumahan";"Komplek Perumahan YPPGI";"8F7J+Q63, Karubaga, Kec. Karubaga, Kabupaten Tolikara, Papua";"Kabupaten Tolikara, Papua";"PAPUA";"";"Indonesia";"";"";"";"-3.6856154";"138.4805518";"https://maps.google.com/?cid=0x0:0x1e996dde1edb3b03";""
"komplek housing";"Pembangunan Perumahan";"Perumahan PEMDA";"8FCG+33Q, Muara, Kec. Karubaga, Kabupaten Tolikara, Papua 99567";"Muara, Kec. Karubaga, Kabupaten Tolikara";"PAPUA";"99567";"Indonesia";"";"";"";"-3.6797785";"138.4752409";"https://maps.google.com/?cid=0x0:0x92f2706a088cac78";""
"komplek housing";"Sekolah Dasar";"SD YPPGI Karubaga";"8F8J+35G, Karubaga, Kec. Karubaga, Kabupaten Tolikara, Papua 99567";"Karubaga, Kec. Karubaga, Kabupaten Tolikara";"PAPUA";"99567";"Indonesia";"";"";"";"-3.6848142";"138.4804659";"https://maps.google.com/?cid=0x0:0x8d7209b01bb6bb3f";""
"komplek housing";"komplek housing";"Distrik Biuk";"Kabupaten Tolikara, Papua";"Kabupaten Tolikara, Papua";"PAPUA";"";"Indonesia";"";"";"";"-3.6811389";"138.4434628";"https://maps.google.com/?cid=0x0:0x2ddfd16b03b73827";""
"komplek housing";"Pembangunan Perumahan";"Perumahan PEMDA";"8FCG+33Q, Muara, Kec. Karubaga, Kabupaten Tolikara, Papua 99567";"Muara, Kec. Karubaga, Kabupaten Tolikara";"PAPUA";"99567";"Indonesia";"";"";"";"-3.6797785";"138.4752409";"https://maps.google.com/?cid=0x0:0x92f2706a088cac78";""
"komplek housing";"Gedung Apartemen";"Kios Kogome";"8F9H+H2Q, Jl Kesehatan, Karubaga, Kec. Karubaga, Kabupaten Tolikara, Papua 99567";"Jl Kesehatan, Karubaga, Kec. Karubaga, Kabupaten Tolikara";"PAPUA";"99567";"Indonesia";"";"";"";"-3.6810159";"138.4773797";"https://maps.google.com/?cid=0x0:0x7df16040d5c70d4c";""
"komplek housing";"Gedung Apartemen";"Kimobur";"7FP3+XH, Abepur, Distrik Kuari, Kabupaten Tolikara, Papua";"Kabupaten Tolikara, Papua";"PAPUA";"";"Indonesia";"";"";"";"-3.71258";"138.453943";"https://maps.google.com/?cid=0x0:0xcb39f5ecb3e7026d";""
"komplek housing";"Komplek perumahan";"Derby Dedeo";"8C9V+G9W, Jinulira, Distrik Biuk, Kabupaten Tolikara, Papua 99567";"Jinulira, Distrik Biuk, Kabupaten Tolikara";"PAPUA";"99567";"Indonesia";"";"";"";"-3.6811389";"138.4434628";"https://maps.google.com/?cid=0x0:0x13fb5867f9b4852a";""
"komplek housing";"komplek housing";"Papua";"";"Papua";"PAPUA";"";"Indonesia";"";"";"";"-4.269928";"138.0803529";"https://maps.google.com/?cid=0x0:0xeba94e9c5eefe673";""
"komplek housing";"komplek housing";"Perumahan";"Perumahan Jl. Alinda II No.9 blok c3, RT.06/RW.027, Kaliabang Tengah, Kec. Bekasi Utara, Kota Bks, Jawa Barat 17125";"RT.06/RW.027, Kaliabang Tengah, Kec. Bekasi Utara, Kota Bks";"PAPUA";"17125";"Indonesia";"";"";"";"-6.196398";"107.0108123";"https://maps.google.com/?cid=0x0:0x717d52c2e715063b";""
"komplek housing";"Komplek perumahan";"Perumahan Kyra Residence 3 kantor pemasaran";"Jl. Gudang Bin Ali, Bahagia, Kec. Babelan, Kabupaten Bekasi, Jawa Barat 17610";"Bahagia, Kec. Babelan, Kabupaten Bekasi";"PAPUA";"17610";"Indonesia";" 082112762916";"";"";"-6.1945388";"107.0274494";"https://maps.google.com/?cid=0x0:0x3874af9c9c530e23";""
"komplek housing";"Komplek perumahan";"Cluster Kyra Taruma Jaya";"VX5X+R3V, Jl. Pahlawan Setia, Pahlawan Setia, Kec. Tarumajaya, Kabupaten Bekasi, Jawa Barat 17216";"Jl. Pahlawan Setia, Pahlawan Setia, Kec. Tarumajaya, Kabupaten Bekasi";"PAPUA";"17216";"Indonesia";" 089655979719";"";"";"-6.1403838";"106.9976826";"https://maps.google.com/?cid=0x0:0x39d254a570c4a3dd";""
"komplek housing";"komplek housing";"Komplek Housing";"Blok Bojong Nangka I, Jl. Ring Rudal Blok Bojong Nangka I No.68, RT.001/RW.007, Jatirahayu, Kec. Pd. Melati, Kota Bks, Jawa Barat 17414";"Jl. Ring Rudal Blok Bojong Nangka I No.68, RT.001/RW.007, Jatirahayu, Kec. Pd. Melati, Kota Bks";"PAPUA";"17414";"Indonesia";"";"";"";"-6.293724";"106.9165114";"https://maps.google.com/?cid=0x0:0x9c50464976dee674";""
"komplek housing";"komplek housing";"Papua 99569";"Kabupaten Tolikara, Papua";"Kabupaten Tolikara, Papua";"PAPUA";"";"Indonesia";"";"";"";"-3.3489271";"138.3190276";"https://maps.google.com/?cid=0x0:0xdfdec4d1cb3753f4";""
"komplek housing";"komplek housing";"HOTEL PARKSIDE WAENA";"Jl. Raya Waena, Kp. Waena, Kec. Abepura, Kota Jayapura, Papua 99532";"Kp. Waena, Kec. Abepura, Kota Jayapura";"PAPUA";"99532";"Indonesia";" 08114829200";"";"";"-2.5965369";"140.6348713";"https://maps.google.com/?cid=0x0:0xeecc070595c2799f";""
"komplek housing";"komplek housing";"Papua";"";"Papua";"PAPUA";"";"Indonesia";"";"";"";"-4.269928";"138.0803529";"https://maps.google.com/?cid=0x0:0xeba94e9c5eefe673";""
"perumahan";"perumahan";"Kec. Karubaga";"Kabupaten Tolikara, Papua";"Kabupaten Tolikara, Papua";"PAPUA";"";"Indonesia";"";"";"";"-3.6837789";"138.4763233";"https://maps.google.com/?cid=0x0:0x7a7aac168c153399";""
"perumahan";"Komplek perumahan";"Komplek Perumahan YPPGI";"8F7J+Q63, Karubaga, Kec. Karubaga, Kabupaten Tolikara, Papua";"Kabupaten Tolikara, Papua";"PAPUA";"";"Indonesia";"";"";"";"-3.6856154";"138.4805518";"https://maps.google.com/?cid=0x0:0x1e996dde1edb3b03";""
"perumahan";"Pembangunan Perumahan";"Perumahan PEMDA";"8FCG+33Q, Muara, Kec. Karubaga, Kabupaten Tolikara, Papua 99567";"Muara, Kec. Karubaga, Kabupaten Tolikara";"PAPUA";"99567";"Indonesia";"";"";"";"-3.6797785";"138.4752409";"https://maps.google.com/?cid=0x0:0x92f2706a088cac78";""
"perumahan";"Komplek perumahan";"Kota baru";"8F8G+FGP, Karubaga, Kec. Karubaga, Kabupaten Tolikara, Papua";"Kabupaten Tolikara, Papua";"PAPUA";"";"Indonesia";" 082327888169";"";"";"-3.6837789";"138.4763233";"https://maps.google.com/?cid=0x0:0xd911ecb25350fee0";""
"perumahan";"Komplek perumahan";"Mashudanah";"Jln irian No.3, Karubaga, Kec. Karubaga, Kabupaten Tolikara, Papua 99562";"Karubaga, Kec. Karubaga, Kabupaten Tolikara";"PAPUA";"99562";"Indonesia";"";"";"";"-3.684661";"138.476819";"https://maps.google.com/?cid=0x0:0xa885b79c3e478d2b";""
"perumahan";"Pembangunan Perumahan";"febri";"8F8G+FGP, Karubaga, Kec. Karubaga, Kabupaten Tolikara, Papua";"Kabupaten Tolikara, Papua";"PAPUA";"";"Indonesia";"";"";"";"-3.6837789";"138.4763233";"https://maps.google.com/?cid=0x0:0x5d3a3dbf76f03d2";""
"perumahan";"Pembangunan Perumahan";"sutm existing distrik wagi";"8F4R+689, Gininggadonak, Kec. Karubaga, Kabupaten Tolikara, Papua 99567";"Gininggadonak, Kec. Karubaga, Kabupaten Tolikara";"PAPUA";"99567";"Indonesia";"";"";"";"-3.6944689";"138.4908493";"https://maps.google.com/?cid=0x0:0xc1188aaac37910be";""
"perumahan";"Gedung Apartemen";"Kios Kogome";"8F9H+H2Q, Jl Kesehatan, Karubaga, Kec. Karubaga, Kabupaten Tolikara, Papua 99567";"Jl Kesehatan, Karubaga, Kec. Karubaga, Kabupaten Tolikara";"PAPUA";"99567";"Indonesia";"";"";"";"-3.6810159";"138.4773797";"https://maps.google.com/?cid=0x0:0x7df16040d5c70d4c";""
"perumahan";"Area Mendaki";"Rajahotspot";"8F8J+CG7, Unnamed Road, Karubaga, Kec. Karubaga, Kabupaten Tolikara, Papua 99567";"Unnamed Road, Karubaga, Kec. Karubaga, Kabupaten Tolikara";"PAPUA";"99567";"Indonesia";" 081240621830";"";"";"-3.6839734";"138.4813056";"https://maps.google.com/?cid=0x0:0x55fa1cbf79c95735";""
"perumahan";"Pembangunan Perumahan";"MESS BAKTI (HUP)";"8F8H+R2X, Karubaga, Kec. Karubaga, Kabupaten Tolikara, Papua 99567";"Karubaga, Kec. Karubaga, Kabupaten Tolikara";"PAPUA";"99567";"Indonesia";"";"";"";"-3.6828849";"138.4776154";"https://maps.google.com/?cid=0x0:0x191d22cf391b74d6";""
"perumahan";"Rumah Sakit";"RSUD Karubaga";"8F9G+GV9, Kogome, Kec. Karubaga, Kabupaten Tolikara, Papua 99567";"Kogome, Kec. Karubaga, Kabupaten Tolikara";"PAPUA";"99567";"Indonesia";"";"";"";"-3.6812222";"138.4772427";"https://maps.google.com/?cid=0x0:0xc15a1cdbacafcf70";""
"perumahan";"Kantor Pemerintah";"Kantor Dinas Perumahan Dan Kawasan Permukiman Kab. Tolikara";"8F45+WQ4, Luanggi, Kec. Karubaga, Kabupaten Tolikara, Papua";"Kabupaten Tolikara, Papua";"PAPUA";"";"Indonesia";"";"";"";"-3.6927308";"138.4594639";"https://maps.google.com/?cid=0x0:0x1193e2d9dc694a1c";""
"perumahan";"Gedung Apartemen";"Kimobur";"7FP3+XH, Abepur, Distrik Kuari, Kabupaten Tolikara, Papua";"Kabupaten Tolikara, Papua";"PAPUA";"";"Indonesia";"";"";"";"-3.71258";"138.453943";"https://maps.google.com/?cid=0x0:0xcb39f5ecb3e7026d";""
"perumahan";"perumahan";"Rumah Makan Karubaga";"8F8H+7C9, Karubaga, Kec. Karubaga, Kabupaten Tolikara, Papua 99567";"Karubaga, Kec. Karubaga, Kabupaten Tolikara";"PAPUA";"99567";"Indonesia";"";"";"";"-3.6843481";"138.4786024";"https://maps.google.com/?cid=0x0:0x416ee39b0a4f1683";""
"perumahan";"Penginapan Dalam Ruangan";"kopiko";"8F9H+P3F, Karubaga, Kec. Karubaga, Kabupaten Tolikara, Papua 99567";"Karubaga, Kec. Karubaga, Kabupaten Tolikara";"PAPUA";"99567";"Indonesia";"";"";"";"-3.6807774";"138.4777369";"https://maps.google.com/?cid=0x0:0xd839d0b442265a48";""
"perumahan";"perumahan";"BINTANG REJEKI 2";"8F7J+CFG, Karubaga, Kec. Karubaga, Kabupaten Tolikara, Papua 99567";"Karubaga, Kec. Karubaga, Kabupaten Tolikara";"PAPUA";"99567";"Indonesia";"";"";"";"-3.6864501";"138.4812082";"https://maps.google.com/?cid=0x0:0x987f13c5687f0c70";""
"perumahan";"Sekolah";"RUMAH ferry";"8FCF+C8G, Muara, Kec. Karubaga, Kabupaten Tolikara, Papua 99567";"Muara, Kec. Karubaga, Kabupaten Tolikara";"PAPUA";"99567";"Indonesia";"";"";"";"-3.678944";"138.4733197";"https://maps.google.com/?cid=0x0:0xb349a687dc24ab1f";""
"perumahan";"Pusat Kesehatan Masyarakat";"Puskesmas Karubaga";"8F5P+GWV, Gininggadonak, Kec. Karubaga, Kabupaten Tolikara, Papua 99567";"Gininggadonak, Kec. Karubaga, Kabupaten Tolikara";"PAPUA";"99567";"Indonesia";"";"";"";"-3.6911413";"138.4872968";"https://maps.google.com/?cid=0x0:0x348e90aeed3e4384";""
"perumahan";"Komplek perumahan";"Kampung kelila";"CQ82+M29, Tenggama, Kec. Bokondini, Kabupaten Tolikara, Papua 99561";"Tenggama, Kec. Bokondini, Kabupaten Tolikara";"PAPUA";"99561";"Indonesia";"";"";"";"-3.583333";"138.75";"https://maps.google.com/?cid=0x0:0x161815d0fd9250a8";""
"perumahan";"Pembangunan Perumahan";"KAMPUNG KUMBU";"8P7M+JM8, Kumbu, Distrik Kelila, Kabupaten Mamberamo Tengah, Papua";"Kabupaten Mamberamo Tengah, Papua";"PAPUA";"";"Indonesia";"";"";"";"-3.6859516";"138.7342049";"https://maps.google.com/?cid=0x0:0xb2ae383598a58a9e";""
"perumahan";"perumahan";"Distrik Kanggime";"Kabupaten Tolikara, Papua";"Kabupaten Tolikara, Papua";"PAPUA";"";"Indonesia";"";"";"";"-3.665848";"138.3631975";"https://maps.google.com/?cid=0x0:0x6995094a6721688";""
"perumahan";"Gereja";"Gereja Kanggime";"89M6+62Q, Kanggime, Distrik Kanggime, Kabupaten Tolikara, Papua 99567";"Kanggime, Distrik Kanggime, Kabupaten Tolikara";"PAPUA";"99567";"Indonesia";"";"";"";"-3.6669154";"138.3601021";"https://maps.google.com/?cid=0x0:0x7b4cf535500b18af";""
"perumahan";"perumahan";"Talinamber Village";"Tolineri, Jln. Raya Khai, Distrik Kanggime, Kabupaten Tolikara, Papua 99042";"Jln. Raya Khai, Distrik Kanggime, Kabupaten Tolikara";"PAPUA";"99042";"Indonesia";"";"";"";"-3.6702654";"138.3309452";"https://maps.google.com/?cid=0x0:0xd666154fcc9319c1";""
"perumahan";"Perhimpunan Pengembang Perumahan";"Yogoluk";"89M9+CV, Kanggime, Distrik Kanggime, Kabupaten Tolikara, Papua";"Kabupaten Tolikara, Papua";"PAPUA";"";"Indonesia";"";"";"";"-3.6664425";"138.3696546";"https://maps.google.com/?cid=0x0:0x3a27233d6e6a4f40";""
"perumahan";"Pusat Kesehatan Masyarakat";"PKM KANGGIME";"89Q6+96, Kanggime, Distrik Kanggime, Kabupaten Tolikara, Papua";"Kabupaten Tolikara, Papua";"PAPUA";"";"Indonesia";"";"";"";"-3.6616299";"138.3605323";"https://maps.google.com/?cid=0x0:0xee26f74ce2b3c618";""
"perumahan";"perumahan";"Distrik Kanggime";"Kabupaten Tolikara, Papua";"Kabupaten Tolikara, Papua";"PAPUA";"";"Indonesia";"";"";"";"-3.665848";"138.3631975";"https://maps.google.com/?cid=0x0:0x6995094a6721688";""
"perumahan";"Perhimpunan Pengembang Perumahan";"Yogoluk";"89M9+CV, Kanggime, Distrik Kanggime, Kabupaten Tolikara, Papua";"Kabupaten Tolikara, Papua";"PAPUA";"";"Indonesia";"";"";"";"-3.6664425";"138.3696546";"https://maps.google.com/?cid=0x0:0x3a27233d6e6a4f40";""
"perumahan";"perumahan";"Kanggime";"Distrik Kanggime, Kabupaten Tolikara, Papua";"Kabupaten Tolikara, Papua";"PAPUA";"";"Indonesia";"";"";"";"-3.6729507";"138.3638958";"https://maps.google.com/?cid=0x0:0x8f4a15603fb47d90";""
"perumahan";"Gereja";"Gereja Kanggime";"89M6+62Q, Kanggime, Distrik Kanggime, Kabupaten Tolikara, Papua 99567";"Kanggime, Distrik Kanggime, Kabupaten Tolikara";"PAPUA";"99567";"Indonesia";"";"";"";"-3.6669154";"138.3601021";"https://maps.google.com/?cid=0x0:0x7b4cf535500b18af";""
"perumahan";"perumahan";"Distrik Kembu";"Kabupaten Tolikara, Papua";"Kabupaten Tolikara, Papua";"PAPUA";"";"Indonesia";"";"";"";"-3.5890462";"138.3960902";"https://maps.google.com/?cid=0x0:0xa5a67da0991adaf4";""
"perumahan";"Pembangunan Perumahan";"Ayumi azahra";"C96W+9CP, RT.003/RW.1, karanganyar, Distrik Kembu, Kabupaten Tolikara, Papua";"Kabupaten Tolikara, Papua";"PAPUA";"";"Indonesia";"";"";"";"-3.5890462";"138.3960902";"https://maps.google.com/?cid=0x0:0xf64086014a87cafe";""
"perumahan";"Sekolah Dasar";"Numbang geser";"F98G+XPG, Kembu, Distrik Kembu, Kabupaten Tolikara, Papua 99562";"Kembu, Distrik Kembu, Kabupaten Tolikara";"PAPUA";"99562";"Indonesia";"";"";"";"-3.5325723";"138.3768173";"https://maps.google.com/?cid=0x0:0x7265b40f42d922d";""
"perumahan";"Tempat Ibadah";"Gereja Gwendo";"C9HX+7GC, Mamit, Gundagi, Kabupaten Tolikara, Papua 99562";"Mamit, Gundagi, Kabupaten Tolikara";"PAPUA";"99562";"Indonesia";"";"";"";"-3.5718156";"138.3987762";"https://maps.google.com/?cid=0x0:0x530ef62eda349ba5";""
"perumahan";"Pembangunan Perumahan";"Perumahan De' Keraton";"2, Jl. Raya Telagasari - Kosambi No.KM, Pancawati, Kec. Klari, Karawang, Jawa Barat 41371";"Jl. Raya Telagasari - Kosambi No.KM, Pancawati, Kec. Klari, Karawang";"PAPUA";"41371";"Indonesia";" 02678402117";"";"";"-6.3569733";"107.3794638";"https://maps.google.com/?cid=0x0:0x93ab94c88cdb683f";""
"perumahan";"Komplek perumahan";"Saung Kebon CKM";"M992+HPG, Bengle, Kec. Majalaya, Karawang, Jawa Barat 41371";"Bengle, Kec. Majalaya, Karawang";"PAPUA";"41371";"Indonesia";" 085719495911";"";"";"-6.3310568";"107.3518422";"https://maps.google.com/?cid=0x0:0xd3054fe32debe623";""
"perumahan";"Perumahan";"Trias estate";"Jl. Trias Raya, Wanasari, Kec. Cibitung, Kabupaten Bekasi, Jawa Barat 17520";"Wanasari, Kec. Cibitung, Kabupaten Bekasi";"PAPUA";"17520";"Indonesia";"";"";"";"-6.2506773";"107.0823428";"https://maps.google.com/?cid=0x0:0xdbd65ec9edbeed48";""
"perumahan";"Perumahan";"Mustika Village Karawang";"Lemahmulya, Kec. Majalaya, Karawang, Jawa Barat 41371";"Kec. Majalaya, Karawang";"PAPUA";"41371";"Indonesia";" 08118777878";"";"";"-6.334995";"107.372249";"https://maps.google.com/?cid=0x0:0xba96e93fa9e245d1";""
"perumahan";"Komplek perumahan";"Perumahan Puri Kosambi";"Jl. Perum Puri Kosambi 1 Jl. Raya Klari No.25 blok 6, Duren, Kec. Klari, Karawang, Jawa Barat 41371";"Duren, Kec. Klari, Karawang";"PAPUA";"41371";"Indonesia";"";"";"";"-6.3664236";"107.3794181";"https://maps.google.com/?cid=0x0:0x8ea9f2e063b8eccf";""
"perumahan";"Pembangunan Perumahan";"IT NET KARAWANG";"Perum Mahkota Regency Blok E7. 3, Jl. HS.Ronggo Waluyo No.1, Sirnabaya, Telukjambe Timur, Karawang, Jawa Barat 41361";"Jl. HS.Ronggo Waluyo No.1, Sirnabaya, Telukjambe Timur, Karawang";"PAPUA";"41361";"Indonesia";"";"";"";"-6.3261562";"107.3062133";"https://maps.google.com/?cid=0x0:0x318d11575fe0f9bf";""
"perumahan";"Gedung Apartemen";"Kimobur";"7FP3+XH, Abepur, Distrik Kuari, Kabupaten Tolikara, Papua";"Kabupaten Tolikara, Papua";"PAPUA";"";"Indonesia";"";"";"";"-3.71258";"138.453943";"https://maps.google.com/?cid=0x0:0xcb39f5ecb3e7026d";""
"perumahan";"Komplek perumahan";"Kampung mibur";"7CVW+H7C, Kurik, Distrik Kuari, Kabupaten Tolikara, Papua 99567";"Kurik, Distrik Kuari, Kabupaten Tolikara";"PAPUA";"99567";"Indonesia";"";"";"";"-3.7060553";"138.4456339";"https://maps.google.com/?cid=0x0:0x5d0b78c6009c103b";""
"perumahan";"perumahan";"Distrik Goyage";"Kabupaten Tolikara, Papua";"Kabupaten Tolikara, Papua";"PAPUA";"";"Indonesia";"";"";"";"-3.7233251";"138.4342412";"https://maps.google.com/?cid=0x0:0x56e653bedf73f861";""
"perumahan";"perumahan";"Distrik Wunim";"Kabupaten Tolikara, Papua";"Kabupaten Tolikara, Papua";"PAPUA";"";"Indonesia";"";"";"";"-3.6584953";"138.5735215";"https://maps.google.com/?cid=0x0:0x999a56454046c64";""
"perumahan";"perumahan";"Papua 99569";"Kabupaten Tolikara, Papua";"Kabupaten Tolikara, Papua";"PAPUA";"";"Indonesia";"";"";"";"-3.3489271";"138.3190276";"https://maps.google.com/?cid=0x0:0xdfdec4d1cb3753f4";""
"perumahan";"perumahan";"HOTEL PARKSIDE WAENA";"Jl. Raya Waena, Kp. Waena, Kec. Abepura, Kota Jayapura, Papua 99532";"Kp. Waena, Kec. Abepura, Kota Jayapura";"PAPUA";"99532";"Indonesia";" 08114829200";"";"";"-2.5965369";"140.6348713";"https://maps.google.com/?cid=0x0:0xeecc070595c2799f";""
"perumahan";"Komplek perumahan";"Wina Sonita ( Belvana Nail Art )";"HVW4+259, Jl. H. Sairan, Sukamaju, Kec. Cilodong, Kota Depok, Jawa Barat 16415";"Jl. H. Sairan, Sukamaju, Kec. Cilodong, Kota Depok";"PAPUA";"16415";"Indonesia";"";"";"";"-6.4049747";"106.8554774";"https://maps.google.com/?cid=0x0:0x51c2b58acb459bce";""
"perumahan";"Minimarket";"Wina";"Jl. Komp. Yonhub Jl. Raya Pos Pengumben No.3 A 4, RT.4/RW.4, Klp. Dua, Kec. Kb. Jeruk, Kota Jakarta Barat, Daerah Khusus Ibukota Jakarta 11550";"RT.4/RW.4, Klp. Dua, Kec. Kb. Jeruk, Kota Jakarta Barat";"PAPUA";"11550";"Indonesia";" 0215364526";"";"";"-6.2162845";"106.7728112";"https://maps.google.com/?cid=0x0:0xe538ea297c463b0a";""
"perumahan";"Perhimpunan Pengembang Perumahan";"Wina";"Jl. Margahurip Indah No.387, RT.9/RW.12, Jagabaya, Kec. Banjaran, Kabupaten Bandung, Jawa Barat 40377";"RT.9/RW.12, Jagabaya, Kec. Banjaran, Kabupaten Bandung";"PAPUA";"40377";"Indonesia";"";"";"";"-7.0686127";"107.5652962";"https://maps.google.com/?cid=0x0:0xd6dd38774b0892c2";""
"perumahan";"Perumahan";"Cluster Vienna";"Jl. Kota Wisata Cluster Vienna No.J3/54, Ciangsana, Kec. Gn. Putri, Kabupaten Bogor, Jawa Barat";"Kabupaten Bogor, Jawa Barat";"PAPUA";"";"Indonesia";"";"";"";"-6.3720008";"106.9531046";"https://maps.google.com/?cid=0x0:0xc9ae20a90836a17";""
"perumahan";"Komplek perumahan";"Rumah wina";"RCHR+82V, Jl. Pangeran Mas, Engkahan, Kec. Sekayam, Kabupaten Sanggau, Kalimantan Barat 78556";"Jl. Pangeran Mas, Engkahan, Kec. Sekayam, Kabupaten Sanggau";"PAPUA";"78556";"Indonesia";"";"";"";"0.828373";"110.4400381";"https://maps.google.com/?cid=0x0:0xf4fb06ee825500fa";""
"perumahan";"Komplek perumahan";"Perumahan Villa Kania";"M822+MQ7, Jl. Kasim, Way Huwi, Kec. Jati Agung, Kabupaten Lampung Selatan, Lampung 35131";"Jl. Kasim, Way Huwi, Kec. Jati Agung, Kabupaten Lampung Selatan";"PAPUA";"35131";"Indonesia";" 08117919951";"";"";"-5.3483319";"105.301924";"https://maps.google.com/?cid=0x0:0x33b3a7c69c8e7e2c";""
"perumahan";"perumahan";"Papua 99569";"Kabupaten Tolikara, Papua";"Kabupaten Tolikara, Papua";"PAPUA";"";"Indonesia";"";"";"";"-3.3489271";"138.3190276";"https://maps.google.com/?cid=0x0:0xdfdec4d1cb3753f4";""
"perumahan";"Komplek perumahan";"Perumahan Anha Helem Foi";"CGGM+R5W, Sentani Kota, Kec. Sentani, Kabupaten Jayapura, Papua 99359";"Sentani Kota, Kec. Sentani, Kabupaten Jayapura";"PAPUA";"99359";"Indonesia";"";"";"";"-2.572878";"140.5329538";"https://maps.google.com/?cid=0x0:0xbf83025349da6fb0";""
"perumahan";"Komplek perumahan";"Rumah puhili";"9HQP+F4P, Itakiwa, Kec. Sentani Tim., Kabupaten Jayapura, Papua 99569";"Itakiwa, Kec. Sentani Tim., Kabupaten Jayapura";"PAPUA";"99569";"Indonesia";"";"";"";"-2.6112882";"140.5853414";"https://maps.google.com/?cid=0x0:0x32db5af5b5824be6";""
"perumahan";"Perhimpunan Pengembang Perumahan";"Perumahan Polomo Graha";"Jl. Stakin Depan Batalyon No.751, Hinekombe, Kec. Sentani, Kabupaten Jayapura, Papua 99359";"Hinekombe, Kec. Sentani, Kabupaten Jayapura";"PAPUA";"99359";"Indonesia";"";"";"";"-2.5638263";"140.4982086";"https://maps.google.com/?cid=0x0:0x78282975f637bb0e";""
"perumahan";"Perhimpunan Pengembang Perumahan";"Yogoluk";"89M9+CV, Kanggime, Distrik Kanggime, Kabupaten Tolikara, Papua";"Kabupaten Tolikara, Papua";"PAPUA";"";"Indonesia";"";"";"";"-3.6664425";"138.3696546";"https://maps.google.com/?cid=0x0:0x3a27233d6e6a4f40";""
"perumahan";"perumahan";"Imaluk ulaga gilimenak";"M38P+R4P, Piriluk, Kec. Umagi, Kabupaten Tolikara, Papua 98975";"Piriluk, Kec. Umagi, Kabupaten Tolikara";"PAPUA";"98975";"Indonesia";"";"";"";"-3.3329212";"138.0853146";"https://maps.google.com/?cid=0x0:0x6201cdaab07407f6";""
"perumahan";"Pembangunan Perumahan";"Kampung Melaga, Klasis Yali Gua, wilayah Toli";"GF9H+GFX, Umar, Gundagi, Kabupaten Tolikara, Papua";"Kabupaten Tolikara, Papua";"PAPUA";"";"Indonesia";"";"";"";"-3.481132";"138.4787258";"https://maps.google.com/?cid=0x0:0xc3153678a0b8d7c9";""
"perumahan";"Komplek perumahan";"-Mabes- Esalon";"GF9H+GFX, Umar, Karubaga, Kabupaten Tolikara, Papua 99562";"Umar, Karubaga, Kabupaten Tolikara";"PAPUA";"99562";"Indonesia";"";"";"";"-3.481132";"138.4787258";"https://maps.google.com/?cid=0x0:0x9ba8536ae7126942";""
"perumahan";"Komplek perumahan";"Rumah Keluarga Singgamui";"C764+XP9, Kwansu, Kec. Kemtuk, Kabupaten Jayapura, Papua 99361";"Kwansu, Kec. Kemtuk, Kabupaten Jayapura";"PAPUA";"99361";"Indonesia";"";"";"";"-2.5875816";"140.2569197";"https://maps.google.com/?cid=0x0:0xf38c4ff3022dcb7e";""
"perumahan";"perumahan";"Rumah Sukardi Rubinem";"C64J+735, Jalan Inpres, Karya Bumi, Nimboran Tim. / Namblong, Kabupaten Jayapura, Papua 99361";"Jalan Inpres, Karya Bumi, Nimboran Tim. / Namblong, Kabupaten Jayapura";"PAPUA";"99361";"Indonesia";"";"";"";"-2.5944047";"140.2308635";"https://maps.google.com/?cid=0x0:0xb454e1e0e9a1e1ce";""
"perumahan";"Pembangunan Perumahan";"EDS Rumah Tinggal";"86QW+GM, Jagrang, Distrik Kemtuk Gresi, Kabupaten Jayapura, Papua";"Kabupaten Jayapura, Papua";"PAPUA";"";"Indonesia";"";"";"";"-2.661176";"140.246654";"https://maps.google.com/?cid=0x0:0x6d59001e6473066e";""
"perumahan";"Pengembang Realestat";"Perumahan Graha Mandiri";"Komplek Efata, Jl. Doyo Lama, Doyo Lama, Distrik Waibu, Kabupaten Jayapura, Papua 99352";"Jl. Doyo Lama, Doyo Lama, Distrik Waibu, Kabupaten Jayapura";"PAPUA";"99352";"Indonesia";" 0811482540";"";"";"-2.563796";"140.4658299";"https://maps.google.com/?cid=0x0:0xf6029f4b5d5ab407";""
"perumahan";"Komplek perumahan";"Perumahan Echo 4 NURE";"3WJW+MW6, Yadauw, Kaureh, Kabupaten Jayapura, Papua";"Kabupaten Jayapura, Papua";"PAPUA";"";"Indonesia";"";"";"";"-2.9183413";"139.9472678";"https://maps.google.com/?cid=0x0:0x16cdd2a0de1e0284";""
"perumahan";"Komplek perumahan";"PERUMAHAN PINANG INDAH VILLAGE";"Holtekamp, Samping SD Kampung Holtekamp, Jl. Hanurata, Holtekam, Kec. Muara Tami, Kota Jayapura, Papua 99351";"Samping SD Kampung Holtekamp, Jl. Hanurata, Holtekam, Kec. Muara Tami, Kota Jayapura";"PAPUA";"99351";"Indonesia";" 08219881922";"";"";"-2.6417081";"140.7771988";"https://maps.google.com/?cid=0x0:0xafdd84ef15a42989";""
"perumahan";"Kantor Pemerintah";"Kampung Ilugwa";"5XP2+73, Melenggama, Kec. Ilugwa, Kabupaten Mamberamo Tengah, Papua";"Kabupaten Mamberamo Tengah, Papua";"PAPUA";"";"Indonesia";"";"";"";"-3.8143577";"138.9502414";"https://maps.google.com/?cid=0x0:0x535f031bf9748cb";""
"perumahan";"Komplek perumahan";"Garusa";"GV72+99, Garusa, Kec. Unurum Guay, Kabupaten Jayapura, Papua 99362";"Garusa, Kec. Unurum Guay, Kabupaten Jayapura";"PAPUA";"99362";"Indonesia";"";"";"";"-2.4866034";"139.8508926";"https://maps.google.com/?cid=0x0:0xa37bc392a2ea7754";""
"perumahan";"Pembangunan Perumahan";"Arimagame";"5MXM+36, Injuta, Tagineri, Kabupaten Jayawijaya, Papua";"Kabupaten Jayawijaya, Papua";"PAPUA";"";"Indonesia";"";"";"";"-3.8023476";"138.6831159";"https://maps.google.com/?cid=0x0:0x568c140bf14e2d24";""
"perumahan";"perumahan";"Wagagu";"699J+3X, Elelim, Distrik Elelim, Kabupaten Yalimo, Papua";"Kabupaten Yalimo, Papua";"PAPUA";"";"Indonesia";"";"";"";"-3.78232";"139.3824267";"https://maps.google.com/?cid=0x0:0x156a30a6bf136702";""
"perumahan";"perumahan";"Kampung Hubakma";"6CG7+X4kampung hubakmaDistrik, Honita, Distrik Elelim, Kabupaten Yalimo, Papua 99558";"Honita, Distrik Elelim, Kabupaten Yalimo";"PAPUA";"99558";"Indonesia";"";"";"";"-3.7725625";"139.4128125";"https://maps.google.com/?cid=0x0:0xfc1707ff52288a9b";""
"perumahan";"Komplek perumahan";"NIMBO RESIDENCE";"C4V8+4H9, Unnamed Road, Bunyom, Distrik Nimbokrang, Kabupaten Jayapura, Papua 99361";"Unnamed Road, Bunyom, Distrik Nimbokrang, Kabupaten Jayapura";"PAPUA";"99361";"Indonesia";" 08114890908";"";"";"-2.5572191";"140.1164906";"https://maps.google.com/?cid=0x0:0xd4938e5ec62ac7e4";""
"perumahan";"Komplek perumahan";"Poskamling Maribu kkn uningrat Papua 2024";"Maribu, Sentani, Kabupaten Jayapura, Papua 99358";"Sentani, Kabupaten Jayapura";"PAPUA";"99358";"Indonesia";" 081361315106";"";"";"-2.4976672";"140.3744134";"https://maps.google.com/?cid=0x0:0xc1b843d3b211ea63";""
"perumahan";"Sekolah";"kab.tolikara";"GF9H+GFX, Umar, Gundagi, Kabupaten Tolikara, Papua";"Kabupaten Tolikara, Papua";"PAPUA";"";"Indonesia";"";"";"";"-3.481132";"138.4787258";"https://maps.google.com/?cid=0x0:0xa757e7e75e0eff85";""
"perumahan";"Komplek perumahan";"Kampung kelila";"CQ82+M29, Tenggama, Kec. Bokondini, Kabupaten Tolikara, Papua 99561";"Tenggama, Kec. Bokondini, Kabupaten Tolikara";"PAPUA";"99561";"Indonesia";"";"";"";"-3.583333";"138.75";"https://maps.google.com/?cid=0x0:0x161815d0fd9250a8";""
"perumahan";"Pembangunan Perumahan";"Ayumi azahra";"C96W+9CP, RT.003/RW.1, karanganyar, Distrik Kembu, Kabupaten Tolikara, Papua";"Kabupaten Tolikara, Papua";"PAPUA";"";"Indonesia";"";"";"";"-3.5890462";"138.3960902";"https://maps.google.com/?cid=0x0:0xf64086014a87cafe";""
"perumahan";"Komplek perumahan";"Komplek Perumahan YPPGI";"8F7J+Q63, Karubaga, Kec. Karubaga, Kabupaten Tolikara, Papua";"Kabupaten Tolikara, Papua";"PAPUA";"";"Indonesia";"";"";"";"-3.6856154";"138.4805518";"https://maps.google.com/?cid=0x0:0x1e996dde1edb3b03";""
"perumahan";"Kantor Perusahaan";"Kkpa Pt.rimba matoa.Lestari";"GW8Q+H9J, Desa, Buasem, Kec. Unurum Guay, Kabupaten Jayapura, Papua 99362";"Desa, Buasem, Kec. Unurum Guay, Kabupaten Jayapura";"PAPUA";"99362";"Indonesia";"";"";"";"-2.4835396";"139.9383944";"https://maps.google.com/?cid=0x0:0xd3483a61b45e9d94";""
"perumahan";"Kantor Pemerintah Distrik";"Distrik Nunggawi Kab.Tolikara";"68MJ+9HQ, Kanggineri, Nunggawi, Kabupaten Tolikara, Papua 99567";"Kanggineri, Nunggawi, Kabupaten Tolikara";"PAPUA";"99567";"Indonesia";"";"";"";"-3.7665332";"138.3314873";"https://maps.google.com/?cid=0x0:0xfe1a11cca2d119ac";""
"perumahan";"Pembangunan Perumahan";"Kelompok dolinggame, jemaat aniwo";"952R+5R9, Dolinggame, kampung aniwo, Kabupaten Puncak Jaya, Papua";"Kabupaten Puncak Jaya, Papua";"PAPUA";"";"Indonesia";"";"";"";"-3.6495871";"138.192101";"https://maps.google.com/?cid=0x0:0xfad033fc13849368";""
"perumahan";"Perumahan";"Echo 6";"4W3G+H3, Yadauw, Kaureh, Kabupaten Jayapura, Papua";"Kabupaten Jayapura, Papua";"PAPUA";"";"Indonesia";"";"";"";"-2.896043";"139.925241";"https://maps.google.com/?cid=0x0:0x8c0dbce6c92ba187";""
"perumahan";"perumahan";"Distrik Panaga";"Kabupaten Tolikara, Papua";"Kabupaten Tolikara, Papua";"PAPUA";"";"Indonesia";"";"";"";"-3.5788649";"138.4379425";"https://maps.google.com/?cid=0x0:0xd9b0a975f678d928";""
"perumahan";"Pembangunan Perumahan";"Ayumi azahra";"C96W+9CP, RT.003/RW.1, karanganyar, Distrik Kembu, Kabupaten Tolikara, Papua";"Kabupaten Tolikara, Papua";"PAPUA";"";"Indonesia";"";"";"";"-3.5890462";"138.3960902";"https://maps.google.com/?cid=0x0:0xf64086014a87cafe";""
"perumahan";"Tempat Ibadah";"Gereja Gwendo";"C9HX+7GC, Mamit, Gundagi, Kabupaten Tolikara, Papua 99562";"Mamit, Gundagi, Kabupaten Tolikara";"PAPUA";"99562";"Indonesia";"";"";"";"-3.5718156";"138.3987762";"https://maps.google.com/?cid=0x0:0x530ef62eda349ba5";""
"perumahan";"Gedung Apartemen";"The Pakubuwono View";"Jl. Sultan Iskandar Muda Jl. Nasional No.12, RT.10/RW.1, Kby. Lama Utara, Kec. Kby. Lama, Kota Jakarta Selatan, Daerah Khusus Ibukota Jakarta 12240";"RT.10/RW.1, Kby. Lama Utara, Kec. Kby. Lama, Kota Jakarta Selatan";"PAPUA";"12240";"Indonesia";" 081119205959";"";"";"-6.2365825";"106.7844953";"https://maps.google.com/?cid=0x0:0x74d5ebf7049666df";""
"perumahan";"perumahan";"Distrik Woniki";"Kabupaten Tolikara, Papua";"Kabupaten Tolikara, Papua";"PAPUA";"";"Indonesia";"";"";"";"-3.6867767";"138.3120892";"https://maps.google.com/?cid=0x0:0x1f3b8c4a6a10c153";""
"perumahan";"perumahan";"Woniki";"Kec. Biak Tim., Kabupaten Biak Numfor, Papua";"Kabupaten Biak Numfor, Papua";"PAPUA";"";"Indonesia";"";"";"";"-1.1595576";"136.2259";"https://maps.google.com/?cid=0x0:0xc8a5154a9cdad020";""
"perumahan";"perumahan";"Papua";"";"Papua";"PAPUA";"";"Indonesia";"";"";"";"-4.269928";"138.0803529";"https://maps.google.com/?cid=0x0:0xeba94e9c5eefe673";""
"perumahan";"Pembangunan Perumahan";"Kubu, Rokan hilir";"3J4F+732, Sungai Kubu, Kubu, Kabupaten Rokan Hilir, Riau 28991";"Sungai Kubu, Kubu, Kabupaten Rokan Hilir";"PAPUA";"28991";"Indonesia";"";"";"";"2.0556307";"100.622635";"https://maps.google.com/?cid=0x0:0xdbf9e0230ac015da";""
"perumahan";"Pembangunan Perumahan";"Kubu babussalam";"3J2J+9HV, Rantau Panjang Kiri, Kec. Kubu Babussalam, Kabupaten Rokan Hilir, Riau 28991";"Rantau Panjang Kiri, Kec. Kubu Babussalam, Kabupaten Rokan Hilir";"PAPUA";"28991";"Indonesia";"";"";"";"2.0503583";"100.63188";"https://maps.google.com/?cid=0x0:0x29e6fedcebd57a3d";""
"perumahan";"Pembangunan Perumahan";"Kubu simpang pasir";"3HJW+F4R, Jl. Simpang Pasir, Sei Segajah Makmur, Kubu, Kabupaten Rokan Hilir, Riau 28991";"Jl. Simpang Pasir, Sei Segajah Makmur, Kubu, Kabupaten Rokan Hilir";"PAPUA";"28991";"Indonesia";"";"";"";"2.0812327";"100.5952725";"https://maps.google.com/?cid=0x0:0x1dee84066dd84bd0";""
"perumahan";"Pembangunan Perumahan";"Kubu";"3MM2+265, Tlk. Merbau, Kubu, Kabupaten Rokan Hilir, Riau 28991";"Tlk. Merbau, Kubu, Kabupaten Rokan Hilir";"PAPUA";"28991";"Indonesia";"";"";"";"2.0825244";"100.650597";"https://maps.google.com/?cid=0x0:0x1d10d5f7640a85bc";""
"perumahan";"perumahan";"Rumah nadin";"2JRJ+45W, Jl. Sidodadi, Rantau Panjang Kiri, Kec. Kubu Babussalam, Kabupaten Rokan Hilir, Riau 28991";"Jl. Sidodadi, Rantau Panjang Kiri, Kec. Kubu Babussalam, Kabupaten Rokan Hilir";"PAPUA";"28991";"Indonesia";"";"";"";"2.0403582";"100.6304487";"https://maps.google.com/?cid=0x0:0x5a69c40259a8f838";""
"perumahan";"Pembangunan Perumahan";"Sp Bandung";"3HPM+4R6, Jl. Dam 1 simpang Bandung, Sei Segajah Makmur, Kubu, Kabupaten Rokan Hilir, Riau 28991";"Jl. Dam 1 simpang Bandung, Sei Segajah Makmur, Kubu, Kabupaten Rokan Hilir";"PAPUA";"28991";"Indonesia";"";"";"";"2.085295";"100.584525";"https://maps.google.com/?cid=0x0:0xb6cae21240a73add";""
"perumahan";"perumahan";"Anton";"3H8G+442, Sungai Sigajah, Kubu, Kabupaten Rokan Hilir, Riau 28991";"Sungai Sigajah, Kubu, Kabupaten Rokan Hilir";"PAPUA";"28991";"Indonesia";"";"";"";"2.06401";"100.574857";"https://maps.google.com/?cid=0x0:0x4432b598ccf163cb";""
"perumahan";"Komplek perumahan";"Jalan Tentram";"2JWJ+GX8, Rantau Panjang Kiri, Kec. Kubu Babussalam, Kabupaten Rokan Hilir, Riau 28991";"Rantau Panjang Kiri, Kec. Kubu Babussalam, Kabupaten Rokan Hilir";"PAPUA";"28991";"Indonesia";" 082285979866";"";"";"2.0461313";"100.6325467";"https://maps.google.com/?cid=0x0:0x2c29b972291461bc";""
"perumahan";"Komplek perumahan";"Serusa";"2M9F+7W, Sungai Pinang, Kec. Kubu Babussalam, Kabupaten Rokan Hilir, Riau 28991";"Sungai Pinang, Kec. Kubu Babussalam, Kabupaten Rokan Hilir";"PAPUA";"28991";"Indonesia";"";"";"";"2.0181765";"100.6748657";"https://maps.google.com/?cid=0x0:0x956f8efd9368386a";""
"perumahan";"Pembangunan Perumahan";"jalan simpang durian kecamatan kubu kabupaten rokan hilir provinsi riau";"3HFW+7CQ, Jl. Simpang Durian, Sungai Sigajah, Kubu, Kabupaten Rokan Hilir, Riau 28991";"Jl. Simpang Durian, Sungai Sigajah, Kubu, Kabupaten Rokan Hilir";"PAPUA";"28991";"Indonesia";"";"";"";"2.0732092";"100.5961144";"https://maps.google.com/?cid=0x0:0xb2a68b14ef293b18";""
"perumahan";"Pembangunan Perumahan";"Rafika";"2JVM+FPH, Rantau Panjang Kiri, Kec. Kubu Babussalam, Kabupaten Rokan Hilir, Riau 28991";"Rantau Panjang Kiri, Kec. Kubu Babussalam, Kabupaten Rokan Hilir";"PAPUA";"28991";"Indonesia";"";"";"";"2.0436964";"100.6343727";"https://maps.google.com/?cid=0x0:0xb876f877e231b75e";""
"perumahan";"Pembangunan Perumahan";"KEBUN SIMIS 07";"2JQW+3PX, Sungai Majo, Kec. Kubu Babussalam, Kabupaten Rokan Hilir, Riau 28991";"Sungai Majo, Kec. Kubu Babussalam, Kabupaten Rokan Hilir";"PAPUA";"28991";"Indonesia";"";"";"";"2.0367881";"100.6476396";"https://maps.google.com/?cid=0x0:0x89bb6e1ae157685d";""
"perumahan";"Komplek perumahan";"Rumah Zaki selebew";"2JQP+2RJ, Jl. Abu Bakar, Sungai Majo, Kec. Kubu Babussalam, Kabupaten Rokan Hilir, Riau 28991";"Jl. Abu Bakar, Sungai Majo, Kec. Kubu Babussalam, Kabupaten Rokan Hilir";"PAPUA";"28991";"Indonesia";"";"";"";"2.0373996";"100.6379025";"https://maps.google.com/?cid=0x0:0x98cd253bde6a36b0";""
"perumahan";"Komplek perumahan";"Rumah";"3HJM+WH7, Sei Segajah Makmur, Kubu, Kabupaten Rokan Hilir, Riau 28991";"Sei Segajah Makmur, Kubu, Kabupaten Rokan Hilir";"PAPUA";"28991";"Indonesia";"";"";"";"2.0817373";"100.5829604";"https://maps.google.com/?cid=0x0:0x89e95ceb65450236";""
"perumahan";"perumahan";"Rumah donok kece";"2JQP+2RJ, Jl. Abu Bakar, Sungai Majo, Kec. Kubu Babussalam, Kabupaten Rokan Hilir, Riau 28991";"Jl. Abu Bakar, Sungai Majo, Kec. Kubu Babussalam, Kabupaten Rokan Hilir";"PAPUA";"28991";"Indonesia";"";"";"";"2.037871";"100.63835";"https://maps.google.com/?cid=0x0:0xd02119baabad242c";""
"perumahan";"Komplek perumahan";"Rumah kak alya";"3J4V+PW6, Sungai Pinang, Kec. Kubu Babussalam, Kabupaten Rokan Hilir, Riau 28991";"Sungai Pinang, Kec. Kubu Babussalam, Kabupaten Rokan Hilir";"PAPUA";"28991";"Indonesia";"";"";"";"2.0565698";"100.6439254";"https://maps.google.com/?cid=0x0:0xc1d49f626d4e2f21";""
"perumahan";"Pembangunan Perumahan";"Tanah Azhar";"3J36+WHV, Sungai Kubu, Kubu, Kabupaten Rokan Hilir, Riau 28991";"Sungai Kubu, Kubu, Kabupaten Rokan Hilir";"PAPUA";"28991";"Indonesia";"";"";"";"2.0548004";"100.6110448";"https://maps.google.com/?cid=0x0:0x9bbbae8e815ec3d4";""
"perumahan";"Komplek perumahan";"Rumah M.Elfi";"2MRG+599, H. Moh soleh, Sungai Pinang, Kec. Kubu Babussalam, Kabupaten Rokan Hilir, Riau 28991";"H. Moh soleh, Sungai Pinang, Kec. Kubu Babussalam, Kabupaten Rokan Hilir";"PAPUA";"28991";"Indonesia";"";"";"";"2.0404159";"100.6759772";"https://maps.google.com/?cid=0x0:0x7f809b15a7df47b6";""
"perumahan";"Komplek perumahan";"Rumah Andi dewa";"3J3C+WH5, Jl.kh.suil, Sungai Kubu, Kubu, Kabupaten Rokan Hilir, Riau 28991";"Jl.kh.suil, Sungai Kubu, Kubu, Kabupaten Rokan Hilir";"PAPUA";"28991";"Indonesia";"";"";"";"2.0547726";"100.6214984";"https://maps.google.com/?cid=0x0:0xa91b004be178b66e";""
"perumahan";"perumahan";"Kubu";"Kubu, Kec. Kubu, Kabupaten Kubu Raya, Kalimantan Barat";"Kabupaten Kubu Raya, Kalimantan Barat";"PAPUA";"";"Indonesia";"";"";"";"-0.483762";"109.378899";"https://maps.google.com/?cid=0x0:0x3198742738a7ec1b";""
"perumahan";"perumahan";"Papua";"";"Papua";"PAPUA";"";"Indonesia";"";"";"";"-4.269928";"138.0803529";"https://maps.google.com/?cid=0x0:0xeba94e9c5eefe673";""
"perumahan";"Pembangunan Perumahan";"PERUMAHAN KEMYLA 5";"W7Q4+59F, Jl. Raya Sungai Kakap, Pal IX, Kec. Sungai Kakap, Kabupaten Kubu Raya, Kalimantan Barat 78381";"Jl. Raya Sungai Kakap, Pal IX, Kec. Sungai Kakap, Kabupaten Kubu Raya";"PAPUA";"78381";"Indonesia";" 085754678055";"";"";"-0.0648193";"109.2516836";"https://maps.google.com/?cid=0x0:0x4a9fa3963556570";""
"perumahan";"Pembangunan Perumahan";"Areca Residence 4";"X775+MHG, Jl. Cendana, Sungai Rengas, Kec. Sungai Kakap, Kabupaten Kubu Raya, Kalimantan Barat 78381";"Jl. Cendana, Sungai Rengas, Kec. Sungai Kakap, Kabupaten Kubu Raya";"PAPUA";"78381";"Indonesia";" 085651435552";"";"";"-0.0358139";"109.258946";"https://maps.google.com/?cid=0x0:0x728a223653920016";""
"perumahan";"Pembangunan Perumahan";"Lokasi survey";"G98H+FHR, Kubu, Kec. Kubu, Kabupaten Kubu Raya, Kalimantan Barat";"Kabupaten Kubu Raya, Kalimantan Barat";"PAPUA";"";"Indonesia";"";"";"";"-0.483762";"109.378899";"https://maps.google.com/?cid=0x0:0x384dc9a1f997eb85";""
"perumahan";"Perumahan";"Kualamandor B";"G98H+FHR, Kubu, Kec. Kubu, Kabupaten Kubu Raya, Kalimantan Barat";"Kabupaten Kubu Raya, Kalimantan Barat";"PAPUA";"";"Indonesia";"";"";"";"-0.483762";"109.378899";"https://maps.google.com/?cid=0x0:0x5b68f2d694325ef9";""
"perumahan";"perumahan";"Kubu";"Kubu, Kec. Kubu, Kabupaten Karangasem, Bali";"Kabupaten Karangasem, Bali";"PAPUA";"";"Indonesia";"";"";"";"-8.25944";"115.566002";"https://maps.google.com/?cid=0x0:0x7361d170964b4850";""
"perumahan";"perumahan";"Papua";"";"Papua";"PAPUA";"";"Indonesia";"";"";"";"-4.269928";"138.0803529";"https://maps.google.com/?cid=0x0:0xeba94e9c5eefe673";""
"perumahan";"Inspektur Tempat Tinggal";"Rumah Tempat Tinggal";"PHR8+GQW Banjar dinas karanganyar, Kubu, Kec. Kubu, Kabupaten Karangasem, Bali 80853";"Kubu, Kec. Kubu, Kabupaten Karangasem";"PAPUA";"80853";"Indonesia";"";"";"";"-8.2586315";"115.5669578";"https://maps.google.com/?cid=0x0:0x241869fad4fec8da";""
"perumahan";"Komplek perumahan";"Ni luh susini";"PHQ8+VC8, Kubu, Kec. Kubu, Kabupaten Karangasem, Bali 80853";"Kubu, Kec. Kubu, Kabupaten Karangasem";"PAPUA";"80853";"Indonesia";"";"";"";"-8.2603838";"115.5660903";"https://maps.google.com/?cid=0x0:0x6eaec884d50ba527";""
"perumahan";"Pembangunan Perumahan";"Rumah Bayu";"PHR8+6CC, Kubu, Kec. Kubu, Kabupaten Karangasem, Bali";"Kabupaten Karangasem, Bali";"PAPUA";"";"Indonesia";"";"";"";"-8.25944";"115.566002";"https://maps.google.com/?cid=0x0:0x6852024983fd3022";""
"perumahan";"Komplek perumahan";"Delut jirr kutun'Bumi";"PHR8+6CC, Kubu, Kec. Kubu, Kabupaten Karangasem, Bali";"Kabupaten Karangasem, Bali";"PAPUA";"";"Indonesia";"";"";"";"-8.25944";"115.566002";"https://maps.google.com/?cid=0x0:0x7c9f69cff2dff4df";""
"perumahan";"perumahan";"Jurgen hous";"PHR8+6CC, Kubu, Kec. Kubu, Kabupaten Karangasem, Bali";"Kabupaten Karangasem, Bali";"PAPUA";"";"Indonesia";"";"";"";"-8.25944";"115.566002";"https://maps.google.com/?cid=0x0:0x1ff1dc35a640c93d";""
"perumahan";"perumahan";"Papua 99562";"Kabupaten Tolikara, Papua";"Kabupaten Tolikara, Papua";"PAPUA";"";"Indonesia";"";"";"";"-3.576543";"138.5187229";"https://maps.google.com/?cid=0x0:0xba78f888ca44ae7d";""
"perumahan";"perumahan";"Distrik Kondaga";"Kabupaten Tolikara, Papua";"Kabupaten Tolikara, Papua";"PAPUA";"";"Indonesia";"";"";"";"-3.6125361";"138.4558265";"https://maps.google.com/?cid=0x0:0xb1a80b566f60f7d3";""
"perumahan";"perumahan";"Distrik Nelawi";"Kabupaten Tolikara, Papua";"Kabupaten Tolikara, Papua";"PAPUA";"";"Indonesia";"";"";"";"-3.6470814";"138.4370946";"https://maps.google.com/?cid=0x0:0xa30930aa79ca8db7";""
"perumahan";"Pembangunan Perumahan";"JELEKPELEK";"8FCF+C8G, Muara, Kec. Karubaga, Kabupaten Tolikara, Papua 99567";"Muara, Kec. Karubaga, Kabupaten Tolikara";"PAPUA";"99567";"Indonesia";"";"";"";"-3.6801995";"138.4736612";"https://maps.google.com/?cid=0x0:0x6dd4edeca684d55a";""
"perumahan";"Komplek perumahan";"Mashudanah";"Jln irian No.3, Karubaga, Kec. Karubaga, Kabupaten Tolikara, Papua 99562";"Karubaga, Kec. Karubaga, Kabupaten Tolikara";"PAPUA";"99562";"Indonesia";"";"";"";"-3.684661";"138.476819";"https://maps.google.com/?cid=0x0:0xa885b79c3e478d2b";""
"perumahan";"Pembangunan Perumahan";"febri";"8F8G+FGP, Karubaga, Kec. Karubaga, Kabupaten Tolikara, Papua";"Kabupaten Tolikara, Papua";"PAPUA";"";"Indonesia";"";"";"";"-3.6837789";"138.4763233";"https://maps.google.com/?cid=0x0:0x5d3a3dbf76f03d2";""
"perumahan";"Komplek perumahan";"Kota baru";"8F8G+FGP, Karubaga, Kec. Karubaga, Kabupaten Tolikara, Papua";"Kabupaten Tolikara, Papua";"PAPUA";"";"Indonesia";" 082327888169";"";"";"-3.6837789";"138.4763233";"https://maps.google.com/?cid=0x0:0xd911ecb25350fee0";""
"perumahan";"Gedung Apartemen";"Kios Kogome";"8F9H+H2Q, Jl Kesehatan, Karubaga, Kec. Karubaga, Kabupaten Tolikara, Papua 99567";"Jl Kesehatan, Karubaga, Kec. Karubaga, Kabupaten Tolikara";"PAPUA";"99567";"Indonesia";"";"";"";"-3.6810159";"138.4773797";"https://maps.google.com/?cid=0x0:0x7df16040d5c70d4c";""
"perumahan";"Pembangunan Perumahan";"MESS BAKTI (HUP)";"8F8H+R2X, Karubaga, Kec. Karubaga, Kabupaten Tolikara, Papua 99567";"Karubaga, Kec. Karubaga, Kabupaten Tolikara";"PAPUA";"99567";"Indonesia";"";"";"";"-3.6828849";"138.4776154";"https://maps.google.com/?cid=0x0:0x191d22cf391b74d6";""
"perumahan";"Komplek perumahan";"Derby Dedeo";"8C9V+G9W, Jinulira, Distrik Biuk, Kabupaten Tolikara, Papua 99567";"Jinulira, Distrik Biuk, Kabupaten Tolikara";"PAPUA";"99567";"Indonesia";"";"";"";"-3.6811389";"138.4434628";"https://maps.google.com/?cid=0x0:0x13fb5867f9b4852a";""
"perumahan";"Sekolah";"RUMAH ferry";"8FCF+C8G, Muara, Kec. Karubaga, Kabupaten Tolikara, Papua 99567";"Muara, Kec. Karubaga, Kabupaten Tolikara";"PAPUA";"99567";"Indonesia";"";"";"";"-3.678944";"138.4733197";"https://maps.google.com/?cid=0x0:0xb349a687dc24ab1f";""
"perumahan";"perumahan";"Rumah Makan Karubaga";"8F8H+7C9, Karubaga, Kec. Karubaga, Kabupaten Tolikara, Papua 99567";"Karubaga, Kec. Karubaga, Kabupaten Tolikara";"PAPUA";"99567";"Indonesia";"";"";"";"-3.6843481";"138.4786024";"https://maps.google.com/?cid=0x0:0x416ee39b0a4f1683";""
"perumahan";"Rumah Sakit";"RSUD Karubaga";"8F9G+GV9, Kogome, Kec. Karubaga, Kabupaten Tolikara, Papua 99567";"Kogome, Kec. Karubaga, Kabupaten Tolikara";"PAPUA";"99567";"Indonesia";"";"";"";"-3.6812222";"138.4772427";"https://maps.google.com/?cid=0x0:0xc15a1cdbacafcf70";""
"perumahan";"Otoritas Perumahan";"Perumahan Nawaripi Permai";"Jl. Sultan Nuku, Desa Mawokauw Jaya, Inauga, Kec. Mimika Baru, Kabupaten Mimika, Papua 99971";"Desa Mawokauw Jaya, Inauga, Kec. Mimika Baru, Kabupaten Mimika";"PAPUA";"99971";"Indonesia";" 08114916277";"";"";"-4.5803388";"136.8839269";"https://maps.google.com/?cid=0x0:0xec3bcb0e8e2d4305";""
"perumahan";"Rumah Ibadat Bahá'í";"Tenolome";"8FP5+PJ, Kendemeya, Distrik Nelawi, Kabupaten Tolikara, Papua";"Kabupaten Tolikara, Papua";"PAPUA";"";"Indonesia";"";"";"";"-3.6632523";"138.4590522";"https://maps.google.com/?cid=0x0:0x46a49a0717f73b8b";""
"perumahan";"Kantor Pemerintah";"Kantor Dinas Perumahan Dan Kawasan Permukiman Kab. Tolikara";"8F45+WQ4, Luanggi, Kec. Karubaga, Kabupaten Tolikara, Papua";"Kabupaten Tolikara, Papua";"PAPUA";"";"Indonesia";"";"";"";"-3.6927308";"138.4594639";"https://maps.google.com/?cid=0x0:0x1193e2d9dc694a1c";""
"perumahan";"Penginapan Dalam Ruangan";"kopiko";"8F9H+P3F, Karubaga, Kec. Karubaga, Kabupaten Tolikara, Papua 99567";"Karubaga, Kec. Karubaga, Kabupaten Tolikara";"PAPUA";"99567";"Indonesia";"";"";"";"-3.6807774";"138.4777369";"https://maps.google.com/?cid=0x0:0xd839d0b442265a48";""
"perumahan";"perumahan";"Warung Makan Nirwana";"8F8G+RJF, Jalan Kesehatan, Karubaga, Kec. Karubaga, Kabupaten Tolikara, Papua 99567";"Jalan Kesehatan, Karubaga, Kec. Karubaga, Kabupaten Tolikara";"PAPUA";"99567";"Indonesia";" 082187842753";"";"";"-3.6829339";"138.4765406";"https://maps.google.com/?cid=0x0:0x5b9ec1e0de1f1950";""
"perumahan";"Gedung Apartemen";"Kimobur";"7FP3+XH, Abepur, Distrik Kuari, Kabupaten Tolikara, Papua";"Kabupaten Tolikara, Papua";"PAPUA";"";"Indonesia";"";"";"";"-3.71258";"138.453943";"https://maps.google.com/?cid=0x0:0xcb39f5ecb3e7026d";""
"perumahan";"perumahan";"Distrik Kuari";"Kabupaten Tolikara, Papua";"Kabupaten Tolikara, Papua";"PAPUA";"";"Indonesia";"";"";"";"-3.7060553";"138.4456339";"https://maps.google.com/?cid=0x0:0x9f7f080cecb9920b";""
"perumahan";"Pembangunan Perumahan";"JELEKPELEK";"8FCF+C8G, Muara, Kec. Karubaga, Kabupaten Tolikara, Papua 99567";"Muara, Kec. Karubaga, Kabupaten Tolikara";"PAPUA";"99567";"Indonesia";"";"";"";"-3.6801995";"138.4736612";"https://maps.google.com/?cid=0x0:0x6dd4edeca684d55a";""
"perumahan";"Pembangunan Perumahan";"febri";"8F8G+FGP, Karubaga, Kec. Karubaga, Kabupaten Tolikara, Papua";"Kabupaten Tolikara, Papua";"PAPUA";"";"Indonesia";"";"";"";"-3.6837789";"138.4763233";"https://maps.google.com/?cid=0x0:0x5d3a3dbf76f03d2";""
"perumahan";"Komplek perumahan";"Kota baru";"8F8G+FGP, Karubaga, Kec. Karubaga, Kabupaten Tolikara, Papua";"Kabupaten Tolikara, Papua";"PAPUA";"";"Indonesia";" 082327888169";"";"";"-3.6837789";"138.4763233";"https://maps.google.com/?cid=0x0:0xd911ecb25350fee0";""
"perumahan";"Komplek perumahan";"Mashudanah";"Jln irian No.3, Karubaga, Kec. Karubaga, Kabupaten Tolikara, Papua 99562";"Karubaga, Kec. Karubaga, Kabupaten Tolikara";"PAPUA";"99562";"Indonesia";"";"";"";"-3.684661";"138.476819";"https://maps.google.com/?cid=0x0:0xa885b79c3e478d2b";""
"perumahan";"Gedung Apartemen";"Kios Kogome";"8F9H+H2Q, Jl Kesehatan, Karubaga, Kec. Karubaga, Kabupaten Tolikara, Papua 99567";"Jl Kesehatan, Karubaga, Kec. Karubaga, Kabupaten Tolikara";"PAPUA";"99567";"Indonesia";"";"";"";"-3.6810159";"138.4773797";"https://maps.google.com/?cid=0x0:0x7df16040d5c70d4c";""
"perumahan";"Komplek perumahan";"Derby Dedeo";"8C9V+G9W, Jinulira, Distrik Biuk, Kabupaten Tolikara, Papua 99567";"Jinulira, Distrik Biuk, Kabupaten Tolikara";"PAPUA";"99567";"Indonesia";"";"";"";"-3.6811389";"138.4434628";"https://maps.google.com/?cid=0x0:0x13fb5867f9b4852a";""
"perumahan";"Kantor Pemerintah";"Kantor Dinas Perumahan Dan Kawasan Permukiman Kab. Tolikara";"8F45+WQ4, Luanggi, Kec. Karubaga, Kabupaten Tolikara, Papua";"Kabupaten Tolikara, Papua";"PAPUA";"";"Indonesia";"";"";"";"-3.6927308";"138.4594639";"https://maps.google.com/?cid=0x0:0x1193e2d9dc694a1c";""
"perumahan";"Pembangunan Perumahan";"Komplek SD Parari";"8CH7+R3, Wonitu, Parari, Kabupaten Tolikara, Papua";"Kabupaten Tolikara, Papua";"PAPUA";"";"Indonesia";"";"";"";"-3.6703573";"138.412649";"https://maps.google.com/?cid=0x0:0xd23a778e8dcfa873";""
"perumahan";"Komplek perumahan";"Kampung mibur";"7CVW+H7C, Kurik, Distrik Kuari, Kabupaten Tolikara, Papua 99567";"Kurik, Distrik Kuari, Kabupaten Tolikara";"PAPUA";"99567";"Indonesia";"";"";"";"-3.7060553";"138.4456339";"https://maps.google.com/?cid=0x0:0x5d0b78c6009c103b";""
"perumahan";"perumahan";"Papua 99562";"Kabupaten Tolikara, Papua";"Kabupaten Tolikara, Papua";"PAPUA";"";"Indonesia";"";"";"";"-3.576543";"138.5187229";"https://maps.google.com/?cid=0x0:0xba78f888ca44ae7d";""
"perumahan";"perumahan";"Paremal Boys {PRM}";"8M98+4WJ, Bokondini, Kec. Bokondini, Kabupaten Tolikara, Papua 99556";"Bokondini, Kec. Bokondini, Kabupaten Tolikara";"PAPUA";"99556";"Indonesia";" 081221416127";"";"";"-3.6832944";"138.6664513";"https://maps.google.com/?cid=0x0:0x6f72c9da0d8b50a4";""
"perumahan";"perumahan";"Distrik Bokoneri";"Kabupaten Tolikara, Papua";"Kabupaten Tolikara, Papua";"PAPUA";"";"Indonesia";"";"";"";"-3.6849588";"138.6436435";"https://maps.google.com/?cid=0x0:0x8412144e58b28e7b";""
"perumahan";"Komplek perumahan";"Segara City";"Jl. Tarumajaya Raya, Pantai Makmur, Kec. Tarumajaya, Kabupaten Bekasi, Jawa Barat 17216";"Pantai Makmur, Kec. Tarumajaya, Kabupaten Bekasi";"PAPUA";"17216";"Indonesia";" 02129373060";"";"";"-6.1191747";"107.0029212";"https://maps.google.com/?cid=0x0:0x94e0f076806de53a";""
"perumahan";"Minimarket";"SEGARA FROZEN FOOD";"V2M2+GW7, Segarajaya, Kec. Tarumajaya, Kabupaten Bekasi, Jawa Barat 17216";"Segarajaya, Kec. Tarumajaya, Kabupaten Bekasi";"PAPUA";"17216";"Indonesia";"";"";"";"-6.1162585";"107.0023245";"https://maps.google.com/?cid=0x0:0xb882d0c22233155f";""
"perumahan";"perumahan";"Bewani";"Kabupaten Tolikara, Papua";"Kabupaten Tolikara, Papua";"PAPUA";"";"Indonesia";"";"";"";"-3.3985904";"138.6790007";"https://maps.google.com/?cid=0x0:0xa6b289dad9095af";""
"perumahan";"Komplek perumahan";"Puri Greenville";"Suwaan, Kec. Kalawat, Kabupaten Minahasa Utara, Sulawesi Utara 95378";"Kec. Kalawat, Kabupaten Minahasa Utara";"PAPUA";"95378";"Indonesia";" 085256754166";"";"";"1.4549128";"124.954042";"https://maps.google.com/?cid=0x0:0x54dd4305c87d4793";""
"perumahan";"Pembangunan Perumahan";"Puri Greenville Blok G.5";"FX33+8J7, Suwaan, Kec. Kalawat, Kabupaten Minahasa Utara, Sulawesi Utara";"Kabupaten Minahasa Utara, Sulawesi Utara";"PAPUA";"";"Indonesia";" 085256521380";"";"";"1.4532839";"124.954059";"https://maps.google.com/?cid=0x0:0x214d82bd252f371a";""
"perumahan";"perumahan";"Distrik Nabunage";"Kabupaten Tolikara, Papua";"Kabupaten Tolikara, Papua";"PAPUA";"";"Indonesia";"";"";"";"-3.6583843";"138.4238803";"https://maps.google.com/?cid=0x0:0x699d5c5bcc2e9d64";""
"perumahan";"Pembangunan Perumahan";"JELEKPELEK";"8FCF+C8G, Muara, Kec. Karubaga, Kabupaten Tolikara, Papua 99567";"Muara, Kec. Karubaga, Kabupaten Tolikara";"PAPUA";"99567";"Indonesia";"";"";"";"-3.6801995";"138.4736612";"https://maps.google.com/?cid=0x0:0x6dd4edeca684d55a";""
"perumahan";"Komplek perumahan";"Mashudanah";"Jln irian No.3, Karubaga, Kec. Karubaga, Kabupaten Tolikara, Papua 99562";"Karubaga, Kec. Karubaga, Kabupaten Tolikara";"PAPUA";"99562";"Indonesia";"";"";"";"-3.684661";"138.476819";"https://maps.google.com/?cid=0x0:0xa885b79c3e478d2b";""
"perumahan";"Pembangunan Perumahan";"febri";"8F8G+FGP, Karubaga, Kec. Karubaga, Kabupaten Tolikara, Papua";"Kabupaten Tolikara, Papua";"PAPUA";"";"Indonesia";"";"";"";"-3.6837789";"138.4763233";"https://maps.google.com/?cid=0x0:0x5d3a3dbf76f03d2";""
"perumahan";"Gedung Apartemen";"Kimobur";"7FP3+XH, Abepur, Distrik Kuari, Kabupaten Tolikara, Papua";"Kabupaten Tolikara, Papua";"PAPUA";"";"Indonesia";"";"";"";"-3.71258";"138.453943";"https://maps.google.com/?cid=0x0:0xcb39f5ecb3e7026d";""
"perumahan";"Pembangunan Perumahan";"Ayumi azahra";"C96W+9CP, RT.003/RW.1, karanganyar, Distrik Kembu, Kabupaten Tolikara, Papua";"Kabupaten Tolikara, Papua";"PAPUA";"";"Indonesia";"";"";"";"-3.5890462";"138.3960902";"https://maps.google.com/?cid=0x0:0xf64086014a87cafe";""
"perumahan";"Komplek perumahan";"Derby Dedeo";"8C9V+G9W, Jinulira, Distrik Biuk, Kabupaten Tolikara, Papua 99567";"Jinulira, Distrik Biuk, Kabupaten Tolikara";"PAPUA";"99567";"Indonesia";"";"";"";"-3.6811389";"138.4434628";"https://maps.google.com/?cid=0x0:0x13fb5867f9b4852a";""
"perumahan";"Komplek perumahan";"Kota baru";"8F8G+FGP, Karubaga, Kec. Karubaga, Kabupaten Tolikara, Papua";"Kabupaten Tolikara, Papua";"PAPUA";"";"Indonesia";" 082327888169";"";"";"-3.6837789";"138.4763233";"https://maps.google.com/?cid=0x0:0xd911ecb25350fee0";""
"perumahan";"Gedung Apartemen";"Kios Kogome";"8F9H+H2Q, Jl Kesehatan, Karubaga, Kec. Karubaga, Kabupaten Tolikara, Papua 99567";"Jl Kesehatan, Karubaga, Kec. Karubaga, Kabupaten Tolikara";"PAPUA";"99567";"Indonesia";"";"";"";"-3.6810159";"138.4773797";"https://maps.google.com/?cid=0x0:0x7df16040d5c70d4c";""
"perumahan";"Pembangunan Perumahan";"MESS BAKTI (HUP)";"8F8H+R2X, Karubaga, Kec. Karubaga, Kabupaten Tolikara, Papua 99567";"Karubaga, Kec. Karubaga, Kabupaten Tolikara";"PAPUA";"99567";"Indonesia";"";"";"";"-3.6828849";"138.4776154";"https://maps.google.com/?cid=0x0:0x191d22cf391b74d6";""
"perumahan";"Pembangunan Perumahan";"Komplek SD Parari";"8CH7+R3, Wonitu, Parari, Kabupaten Tolikara, Papua";"Kabupaten Tolikara, Papua";"PAPUA";"";"Indonesia";"";"";"";"-3.6703573";"138.412649";"https://maps.google.com/?cid=0x0:0xd23a778e8dcfa873";""
"perumahan";"Kantor Pemerintah";"Kantor Dinas Perumahan Dan Kawasan Permukiman Kab. Tolikara";"8F45+WQ4, Luanggi, Kec. Karubaga, Kabupaten Tolikara, Papua";"Kabupaten Tolikara, Papua";"PAPUA";"";"Indonesia";"";"";"";"-3.6927308";"138.4594639";"https://maps.google.com/?cid=0x0:0x1193e2d9dc694a1c";""
"perumahan";"perumahan";"Distrik Gilubandu";"Kabupaten Tolikara, Papua";"Kabupaten Tolikara, Papua";"PAPUA";"";"Indonesia";"";"";"";"-3.6348495";"138.3090619";"https://maps.google.com/?cid=0x0:0x77f4a9c2c5690028";""
"perumahan";"Kantor Pemerintah Distrik";"Distrik Nunggawi Kab.Tolikara";"68MJ+9HQ, Kanggineri, Nunggawi, Kabupaten Tolikara, Papua 99567";"Kanggineri, Nunggawi, Kabupaten Tolikara";"PAPUA";"99567";"Indonesia";"";"";"";"-3.7665332";"138.3314873";"https://maps.google.com/?cid=0x0:0xfe1a11cca2d119ac";""
"perumahan";"Kantor Pemerintah";"Distrik Woniki";"8876+7RP, Bogum, Distrik Woniki, Kabupaten Tolikara, Papua 99567";"Bogum, Distrik Woniki, Kabupaten Tolikara";"PAPUA";"99567";"Indonesia";"";"";"";"-3.6867767";"138.3120892";"https://maps.google.com/?cid=0x0:0x6ac7c53b94809015";""
"perumahan";"perumahan";"Gundagi";"Kabupaten Tolikara, Papua";"Kabupaten Tolikara, Papua";"PAPUA";"";"Indonesia";"";"";"";"-3.4977286";"138.4987208";"https://maps.google.com/?cid=0x0:0xf4f52a0e958ee55c";""
"perumahan";"perumahan";"Distrik Numba";"Kabupaten Tolikara, Papua";"Kabupaten Tolikara, Papua";"PAPUA";"";"Indonesia";"";"";"";"-3.6381947";"138.529402";"https://maps.google.com/?cid=0x0:0xbe2dee5a53e47bb4";""
"perumahan";"perumahan";"Papua 99562";"Kabupaten Tolikara, Papua";"Kabupaten Tolikara, Papua";"PAPUA";"";"Indonesia";"";"";"";"-3.576543";"138.5187229";"https://maps.google.com/?cid=0x0:0xba78f888ca44ae7d";""
"perumahan";"Komplek perumahan";"RRI PAK IZAK RUMAINUM";"FF36+XJ8, Doyo Baru, Distrik Waibu, Kabupaten Jayapura, Papua 99352";"Doyo Baru, Distrik Waibu, Kabupaten Jayapura";"PAPUA";"99352";"Indonesia";"";"";"";"-2.5450953";"140.4615847";"https://maps.google.com/?cid=0x0:0xa9d82bc13d7abcf9";""
"perumahan";"Komplek perumahan";"RKM";"CFP8+VW9, Doyo Lama, Distrik Waibu, Kabupaten Jayapura, Papua";"Kabupaten Jayapura, Papua";"PAPUA";"";"Indonesia";"";"";"";"-2.5628281";"140.4673438";"https://maps.google.com/?cid=0x0:0xf8bce3e0226ec493";""
"perumahan";"perumahan";"Distrik Timori";"Kabupaten Tolikara, Papua";"Kabupaten Tolikara, Papua";"PAPUA";"";"Indonesia";"";"";"";"-3.637626";"138.4840197";"https://maps.google.com/?cid=0x0:0x56b36a26c30c4f2f";""
"perumahan";"Pembangunan Perumahan";"Vila Dago Pamulang";"Komplek Vila Dago Ruko Blok A No.01A, Benda Baru, Kec. Pamulang, Kota Tangerang Selatan, Banten 15415";"Benda Baru, Kec. Pamulang, Kota Tangerang Selatan";"PAPUA";"15415";"Indonesia";"";"";"";"-6.3376675";"106.7173695";"https://maps.google.com/?cid=0x0:0x365c59219a88146b";""
"perumahan";"perumahan";"Papua 99568";"Kabupaten Tolikara, Papua";"Kabupaten Tolikara, Papua";"PAPUA";"";"Indonesia";"";"";"";"-3.5589183";"138.1995591";"https://maps.google.com/?cid=0x0:0x5be6ecdc75c05f33";""
"perumahan";"perumahan";"Distrik Dundu";"Kabupaten Tolikara, Papua";"Kabupaten Tolikara, Papua";"PAPUA";"";"Indonesia";"";"";"";"-3.4797508";"138.3090619";"https://maps.google.com/?cid=0x0:0x382247aff41fdc2c";""
"perumahan";"perumahan";"Distrik Dundu";"Kabupaten Tolikara, Papua";"Kabupaten Tolikara, Papua";"PAPUA";"";"Indonesia";"";"";"";"-3.4797508";"138.3090619";"https://maps.google.com/?cid=0x0:0x382247aff41fdc2c";""
"perumahan";"perumahan";"Papua 99569";"Kabupaten Tolikara, Papua";"Kabupaten Tolikara, Papua";"PAPUA";"";"Indonesia";"";"";"";"-3.3489271";"138.3190276";"https://maps.google.com/?cid=0x0:0xdfdec4d1cb3753f4";""
"perumahan";"perumahan";"HOTEL PARKSIDE WAENA";"Jl. Raya Waena, Kp. Waena, Kec. Abepura, Kota Jayapura, Papua 99532";"Kp. Waena, Kec. Abepura, Kota Jayapura";"PAPUA";"99532";"Indonesia";" 08114829200";"";"";"-2.5965369";"140.6348713";"https://maps.google.com/?cid=0x0:0xeecc070595c2799f";""
"perumahan";"perumahan";"Geya";"Kabupaten Tolikara, Papua";"Kabupaten Tolikara, Papua";"PAPUA";"";"Indonesia";"";"";"";"-3.6795336";"138.5487397";"https://maps.google.com/?cid=0x0:0x678dd6a8ea8a162f";""
"perumahan";"Komplek perumahan";"Komplek Perumahan YPPGI";"8F7J+Q63, Karubaga, Kec. Karubaga, Kabupaten Tolikara, Papua";"Kabupaten Tolikara, Papua";"PAPUA";"";"Indonesia";"";"";"";"-3.6856154";"138.4805518";"https://maps.google.com/?cid=0x0:0x1e996dde1edb3b03";""
"perumahan";"Perumahan";"Graha Cenderawasih Permai 2";"8RJ4+CJX, Jl. Jayawijaya, Koya Bar., Kec. Muara Tami, Kota Jayapura, Papua 99351";"Jl. Jayawijaya, Koya Bar., Kec. Muara Tami, Kota Jayapura";"PAPUA";"99351";"Indonesia";" 081344274601";"";"";"-2.6688857";"140.8066134";"https://maps.google.com/?cid=0x0:0xf9ad7443cfccc057";""
"perumahan";"Rumah Ibadat Bahá'í";"Gereja Wunin";"8HX3+953, Baganagapur, Distrik Wunim, Kabupaten Tolikara, Papua 99562";"Baganagapur, Distrik Wunim, Kabupaten Tolikara";"PAPUA";"99562";"Indonesia";"";"";"";"-3.6516205";"138.5529168";"https://maps.google.com/?cid=0x0:0x62139b9fd2b10fc7";""
"perumahan";"Gereja";"Gereja Geneleme";"9G6H+PQC, Tingwi, Distrik Timori, Kabupaten Tolikara, Papua 99562";"Tingwi, Distrik Timori, Kabupaten Tolikara";"PAPUA";"99562";"Indonesia";"";"";"";"-3.6381874";"138.5294005";"https://maps.google.com/?cid=0x0:0xb39e56f393db3fae";""
"perumahan";"Pembangunan Perumahan";"Kompleks perumahan lama";"X78W+HP4, Waghete II, Kec. Tigi, Kabupaten Deiyai, Papua 98764";"Waghete II, Kec. Tigi, Kabupaten Deiyai";"PAPUA";"98764";"Indonesia";"";"";"";"-4.0336182";"136.2968279";"https://maps.google.com/?cid=0x0:0x871bbe0d682765d9";""
"perumahan";"Komplek perumahan";"Griya Marwah Indah 2";"Griya Marwah Indah, Jl. Kehiran No.2, belakang gudang saga, Kec. Sentani, Kabupaten Jayapura, Papua 99359";"Jl. Kehiran No.2, belakang gudang saga, Kec. Sentani, Kabupaten Jayapura";"PAPUA";"99359";"Indonesia";"";"";"";"-2.578096";"140.4976886";"https://maps.google.com/?cid=0x0:0xfb0e588940eeda19";""
"perumahan";"Area Mendaki";"Rajahotspot";"8F8J+CG7, Unnamed Road, Karubaga, Kec. Karubaga, Kabupaten Tolikara, Papua 99567";"Unnamed Road, Karubaga, Kec. Karubaga, Kabupaten Tolikara";"PAPUA";"99567";"Indonesia";" 081240621830";"";"";"-3.6839734";"138.4813056";"https://maps.google.com/?cid=0x0:0x55fa1cbf79c95735";""
"perumahan";"Rumah Ibadat Bahá'í";"Gereja Ponggwi";"9G6R+Q4G, Pokegi, Distrik Wunim, Kabupaten Tolikara, Papua 99562";"Pokegi, Distrik Wunim, Kabupaten Tolikara";"PAPUA";"99562";"Indonesia";"";"";"";"-3.6380692";"138.5403275";"https://maps.google.com/?cid=0x0:0xeb705ac5c0290ce6";""
"perumahan";"perumahan";"Distrik Egiam";"Kabupaten Tolikara, Papua";"Kabupaten Tolikara, Papua";"PAPUA";"";"Indonesia";"";"";"";"-3.2975685";"138.2194523";"https://maps.google.com/?cid=0x0:0x62d47dc752ea2d25";""
"perumahan";"Pembangunan Perumahan";"Kampung Fru";"P6M7+2X3, Dusun fru kampung dou, Mamberamo Ulu";"Kabupaten Tolikara, Papua";"PAPUA";"";"Indonesia";"";"";"";"-3.2674982";"138.2149323";"https://maps.google.com/?cid=0x0:0x849d935fba3501cc";""
"perumahan";"perumahan";"Imaluk ulaga gilimenak";"M38P+R4P, Piriluk, Kec. Umagi, Kabupaten Tolikara, Papua 98975";"Piriluk, Kec. Umagi, Kabupaten Tolikara";"PAPUA";"98975";"Indonesia";"";"";"";"-3.3329212";"138.0853146";"https://maps.google.com/?cid=0x0:0x6201cdaab07407f6";""
"perumahan";"perumahan";"Distrik Poganeri";"Kabupaten Tolikara, Papua";"Kabupaten Tolikara, Papua";"PAPUA";"";"Indonesia";"";"";"";"-3.4250848";"138.299098";"https://maps.google.com/?cid=0x0:0x6763382739f00c91";""
"perumahan";"Komplek perumahan";"Kampung kelila";"CQ82+M29, Tenggama, Kec. Bokondini, Kabupaten Tolikara, Papua 99561";"Tenggama, Kec. Bokondini, Kabupaten Tolikara";"PAPUA";"99561";"Indonesia";"";"";"";"-3.583333";"138.75";"https://maps.google.com/?cid=0x0:0x161815d0fd9250a8";""
"perumahan";"Pembangunan Perumahan";"KAMPUNG KUMBU";"8P7M+JM8, Kumbu, Distrik Kelila, Kabupaten Mamberamo Tengah, Papua";"Kabupaten Mamberamo Tengah, Papua";"PAPUA";"";"Indonesia";"";"";"";"-3.6859516";"138.7342049";"https://maps.google.com/?cid=0x0:0xb2ae383598a58a9e";""
"perumahan";"Gedung Apartemen";"Kimobur";"7FP3+XH, Abepur, Distrik Kuari, Kabupaten Tolikara, Papua";"Kabupaten Tolikara, Papua";"PAPUA";"";"Indonesia";"";"";"";"-3.71258";"138.453943";"https://maps.google.com/?cid=0x0:0xcb39f5ecb3e7026d";""
"perumahan";"perumahan";"Distrik Airgaram";"Kabupaten Tolikara, Papua";"Kabupaten Tolikara, Papua";"PAPUA";"";"Indonesia";"";"";"";"-3.2894004";"138.0605108";"https://maps.google.com/?cid=0x0:0xe20e5821ce21a89d";""
"perumahan";"perumahan";"Wakumendek / Frudale";"Dorman, Kabupaten Tolikara, Papua";"Kabupaten Tolikara, Papua";"PAPUA";"";"Indonesia";"";"";"";"-3.3865306";"138.3738715";"https://maps.google.com/?cid=0x0:0xaa769aae8a54a71a";""
"perumahan";"perumahan";"Distrik Wari / Taiyeve";"Kabupaten Tolikara, Papua";"Kabupaten Tolikara, Papua";"PAPUA";"";"Indonesia";"";"";"";"-3.2380828";"138.2592606";"https://maps.google.com/?cid=0x0:0xa81cc5ac3f8378ce";""
"perumahan";"perumahan";"Papua 99569";"Kabupaten Tolikara, Papua";"Kabupaten Tolikara, Papua";"PAPUA";"";"Indonesia";"";"";"";"-3.3489271";"138.3190276";"https://maps.google.com/?cid=0x0:0xdfdec4d1cb3753f4";""
"perumahan";"perumahan";"HOTEL PARKSIDE WAENA";"Jl. Raya Waena, Kp. Waena, Kec. Abepura, Kota Jayapura, Papua 99532";"Kp. Waena, Kec. Abepura, Kota Jayapura";"PAPUA";"99532";"Indonesia";" 08114829200";"";"";"-2.5965369";"140.6348713";"https://maps.google.com/?cid=0x0:0xeecc070595c2799f";""
"perumahan";"Dinas Tenaga Kerja";"PT Dow Indonesia";"World Trade Center 3, Jl. Jenderal Sudirman No.Kav. 29, RT.8/RW.3, Kuningan, Karet, Setiabudi, South Jakarta City, Jakarta 12920";"Jl. Jenderal Sudirman No.Kav. 29, RT.8/RW.3, Kuningan, Karet, Setiabudi, South Jakarta City";"PAPUA";"12920";"Indonesia";" 02129956200";"";"";"-6.2146108";"106.8208722";"https://maps.google.com/?cid=0x0:0xdf9f68d0c5b3295a";""
"perumahan";"Kantor Perusahaan";"Wisma GKBI";"Jl. Jend. Sudirman No.28, RT.14/RW.1, Bend. Hilir, Kecamatan Tanah Abang, Kota Jakarta Pusat, Daerah Khusus Ibukota Jakarta 10210";"RT.14/RW.1, Bend. Hilir, Kecamatan Tanah Abang, Kota Jakarta Pusat";"PAPUA";"10210";"Indonesia";"";"";"";"-6.2175333";"106.8128861";"https://maps.google.com/?cid=0x0:0x97a842ff8d410c75";""
"perumahan";"perumahan";"Papua 99557";"Kabupaten Mamberamo Tengah, Papua";"Kabupaten Mamberamo Tengah, Papua";"PAPUA";"";"Indonesia";"";"";"";"-3.7408827";"138.9404364";"https://maps.google.com/?cid=0x0:0xb128d87fca34f08d";""
"perumahan";"Komplek perumahan";"Desa kalarin";"5WPJ+VF, Wirima, Kec. Ilugwa, Kabupaten Mamberamo Tengah, Papua";"Kabupaten Mamberamo Tengah, Papua";"PAPUA";"";"Indonesia";"";"";"";"-3.8128162";"138.9312457";"https://maps.google.com/?cid=0x0:0x6ca3af6521ff96ea";""
"perumahan";"Kantor Pemerintah";"Kampung Ilugwa";"5XP2+73, Melenggama, Kec. Ilugwa, Kabupaten Mamberamo Tengah, Papua";"Kabupaten Mamberamo Tengah, Papua";"PAPUA";"";"Indonesia";"";"";"";"-3.8143577";"138.9502414";"https://maps.google.com/?cid=0x0:0x535f031bf9748cb";""
"perumahan";"Perhimpunan Pengembang Perumahan";"Borengga";"5V5G+2F, Pirambot, Wollo, Kabupaten Jayawijaya, Papua 99554";"Pirambot, Wollo, Kabupaten Jayawijaya";"PAPUA";"99554";"Indonesia";"";"";"";"-3.842127";"138.8757562";"https://maps.google.com/?cid=0x0:0x7e327721605226c6";""
"perumahan";"Komplek perumahan";"Kampung Liluikma";"65CQ+HQ, Dombomi, Kec. Abenaho, Kabupaten Yalimo, Papua";"Kabupaten Yalimo, Papua";"PAPUA";"";"Indonesia";"";"";"";"-3.7785625";"139.1894375";"https://maps.google.com/?cid=0x0:0x5809a90eb37c618";""
"perumahan";"Komplek perumahan";"Kampung Kalarin";"5WH8+53Q, Kalarin, Kec. Ilugwa, Kabupaten Mamberamo Tengah, Papua";"Kabupaten Mamberamo Tengah, Papua";"PAPUA";"";"Indonesia";"";"";"";"-3.8220372";"138.9152456";"https://maps.google.com/?cid=0x0:0xaf45763755807a60";""
"perumahan";"Pembangunan Perumahan";"onggabaga";"5R43+Q95, Jl. Trans Wollo, Tamokilu, Distrik Bolakme, Kabupaten Jayawijaya, Papua 99555";"Jl. Trans Wollo, Tamokilu, Distrik Bolakme, Kabupaten Jayawijaya";"PAPUA";"99555";"Indonesia";"";"";"";"-3.8431017";"138.8034961";"https://maps.google.com/?cid=0x0:0x2d2d2365327c9770";""
"perumahan";"perumahan";"Timbugulik";"5XQ4+9F, Melenggama, Kec. Ilugwa, Kabupaten Mamberamo Tengah, Papua";"Kabupaten Mamberamo Tengah, Papua";"PAPUA";"";"Indonesia";"";"";"";"-3.8115804";"138.9609176";"https://maps.google.com/?cid=0x0:0x77f70a804ba6fe6f";""
"perumahan";"Komplek perumahan";"Mas weedt";"66C2+3V, Dombomi, Kec. Abenaho, Kabupaten Yalimo, Papua";"Kabupaten Yalimo, Papua";"PAPUA";"";"Indonesia";"";"";"";"-3.77979";"139.202131";"https://maps.google.com/?cid=0x0:0x9c160546112a2890";""
"perumahan";"Pembangunan Perumahan";"KAMPUNG KUMBU";"8P7M+JM8, Kumbu, Distrik Kelila, Kabupaten Mamberamo Tengah, Papua";"Kabupaten Mamberamo Tengah, Papua";"PAPUA";"";"Indonesia";"";"";"";"-3.6859516";"138.7342049";"https://maps.google.com/?cid=0x0:0xb2ae383598a58a9e";""
"perumahan";"Perhimpunan Pengembang Perumahan";"Abenahi";"5356+3J6, Abenaho, Kec. Abenaho, Kabupaten Yalimo, Papua";"Kabupaten Yalimo, Papua";"PAPUA";"";"Indonesia";"";"";"";"-3.842344";"139.0615086";"https://maps.google.com/?cid=0x0:0x71aabccd42752b3a";""
"perumahan";"Komplek perumahan";"Kabupaten Mamberamo Tengah";"83J7+3FF, Kobakma, Distrik Kobagma, Kabupaten Mamberamo Tengah, Papua";"Kabupaten Mamberamo Tengah, Papua";"PAPUA";"";"Indonesia";"";"";"";"-3.6698129";"139.0636745";"https://maps.google.com/?cid=0x0:0x192310995ab682ef";""
"perumahan";"Pembangunan Perumahan";"Tagime";"5PVG+WMF, Tagime, Kabupaten Jayawijaya, Papua";"Kabupaten Jayawijaya, Papua";"PAPUA";"";"Indonesia";"";"";"";"-3.8051935";"138.7266721";"https://maps.google.com/?cid=0x0:0x50b51bdd0f2c04e8";""
"perumahan";"Komplek perumahan";"Perumahan Eselon 3A";"83M8+356, Kobakma, Distrik Kobagma, Kabupaten Mamberamo Tengah, Papua 99553";"Kobakma, Distrik Kobagma, Kabupaten Mamberamo Tengah";"PAPUA";"99553";"Indonesia";"";"";"";"-3.6673282";"139.0653753";"https://maps.google.com/?cid=0x0:0x3c450aca74ae7953";""
"perumahan";"Perhimpunan Pengembang Perumahan";"Ap Inuaktaga";"4R2J+5VR, Kampung Walak Selatan, Distrik Bugi, Kabupaten Jayawijaya, Papua";"Kabupaten Jayawijaya, Papua";"PAPUA";"";"Indonesia";"";"";"";"-3.8995067";"138.8321417";"https://maps.google.com/?cid=0x0:0x62291bc3d64f14b2";""
"perumahan";"Perhimpunan Pengembang Perumahan";"SKY";"7M9J+Q24, Dogobak, Distrik Kelila, Kabupaten Mamberamo Tengah, Papua 99556";"Dogobak, Distrik Kelila, Kabupaten Mamberamo Tengah";"PAPUA";"99556";"Indonesia";" 081344359348";"";"";"-3.7306246";"138.6800776";"https://maps.google.com/?cid=0x0:0xa3e34c3a2d0be7";""
"perumahan";"Pembangunan Perumahan";"Distrik Tagime";"5PMH+WMM, Lakwame, Tagime, Kabupaten Jayawijaya, Papua 99555";"Lakwame, Tagime, Kabupaten Jayawijaya";"PAPUA";"99555";"Indonesia";"";"";"";"-3.8151532";"138.7291822";"https://maps.google.com/?cid=0x0:0x61e7465087444a70";""
"perumahan";"Komplek perumahan";"Wageo, Kediaman Ita Pagawak";"83F2+CHV, Kobakma, Distrik Kobagma, Kabupaten Mamberamo Tengah, Papua";"Kabupaten Mamberamo Tengah, Papua";"PAPUA";"";"Indonesia";"";"";"";"-3.6763761";"139.0514094";"https://maps.google.com/?cid=0x0:0x235abcdb58b8ea3a";""
"perumahan";"perumahan";"Paremal Boys {PRM}";"8M98+4WJ, Bokondini, Kec. Bokondini, Kabupaten Tolikara, Papua 99556";"Bokondini, Kec. Bokondini, Kabupaten Tolikara";"PAPUA";"99556";"Indonesia";" 081221416127";"";"";"-3.6832944";"138.6664513";"https://maps.google.com/?cid=0x0:0x6f72c9da0d8b50a4";""
"perumahan";"Balai masyarakat";"Mimiragi Yalkom";"5XFF+Q58, Ilusilimo, Kec. Ilugwa, Kabupaten Mamberamo Tengah, Papua";"Kabupaten Mamberamo Tengah, Papua";"PAPUA";"";"Indonesia";"";"";"";"-3.8255983";"138.9729517";"https://maps.google.com/?cid=0x0:0x830b06ea694f8476";""
"perumahan";"Komplek perumahan";"Kampung wollo";"5V38+V8J, Pirambot, Wollo, Kabupaten Jayawijaya, Papua";"Kabupaten Jayawijaya, Papua";"PAPUA";"";"Indonesia";"";"";"";"-3.8452753";"138.865767";"https://maps.google.com/?cid=0x0:0x7d3cb826b534c5dd";""
"perumahan";"perumahan";"Papua 99561";"Kabupaten Mamberamo Tengah, Papua";"Kabupaten Mamberamo Tengah, Papua";"PAPUA";"";"Indonesia";"";"";"";"-3.5154377";"139.1221414";"https://maps.google.com/?cid=0x0:0x6daa3ce0e2559bf1";""
"perumahan";"Pembangunan Perumahan";"Arimagame";"5MXM+36, Injuta, Tagineri, Kabupaten Jayawijaya, Papua";"Kabupaten Jayawijaya, Papua";"PAPUA";"";"Indonesia";"";"";"";"-3.8023476";"138.6831159";"https://maps.google.com/?cid=0x0:0x568c140bf14e2d24";""
"perumahan";"Pembangunan Perumahan";"Tagime";"5PVG+WMF, Tagime, Kabupaten Jayawijaya, Papua";"Kabupaten Jayawijaya, Papua";"PAPUA";"";"Indonesia";"";"";"";"-3.8051935";"138.7266721";"https://maps.google.com/?cid=0x0:0x50b51bdd0f2c04e8";""
"perumahan";"perumahan";"Yuneri";"Kabupaten Tolikara, Papua";"Kabupaten Tolikara, Papua";"PAPUA";"";"Indonesia";"";"";"";"-3.5007419";"138.3856532";"https://maps.google.com/?cid=0x0:0xd253f5075e1119eb";""
"perumahan";"Sekolah Dasar";"Numbang geser";"F98G+XPG, Kembu, Distrik Kembu, Kabupaten Tolikara, Papua 99562";"Kembu, Distrik Kembu, Kabupaten Tolikara";"PAPUA";"99562";"Indonesia";"";"";"";"-3.5325723";"138.3768173";"https://maps.google.com/?cid=0x0:0x7265b40f42d922d";""
"perumahan";"Sekolah";"nuga";"9G6H+PQC, Jl. SD inpres, nuga, Distrik Numba, Kabupaten Tolikara, Papua 99562";"Jl. SD inpres, nuga, Distrik Numba, Kabupaten Tolikara";"PAPUA";"99562";"Indonesia";"";"";"";"-3.6381947";"138.529402";"https://maps.google.com/?cid=0x0:0x36c5b5ce1565e2d0";""
"perumahan";"perumahan";"Distrik Wakuo";"Kabupaten Tolikara, Papua";"Kabupaten Tolikara, Papua";"PAPUA";"";"Indonesia";"";"";"";"-3.668192";"138.4233483";"https://maps.google.com/?cid=0x0:0x9e6f1d3a46b0ac6f";""
"perumahan";"perumahan";"GUNUNG AWON WAKUWO";"8CJF+P8H, Weyage, Distrik Wakuo, Kabupaten Tolikara, Papua 99567";"Weyage, Distrik Wakuo, Kabupaten Tolikara";"PAPUA";"99567";"Indonesia";"";"";"";"-3.668192";"138.4233483";"https://maps.google.com/?cid=0x0:0x3fc86b876bd1c723";""
"perumahan";"Pembangunan Perumahan";"Komplek SD Parari";"8CH7+R3, Wonitu, Parari, Kabupaten Tolikara, Papua";"Kabupaten Tolikara, Papua";"PAPUA";"";"Indonesia";"";"";"";"-3.6703573";"138.412649";"https://maps.google.com/?cid=0x0:0xd23a778e8dcfa873";""
"perumahan";"Perumahan";"Perum Puri Raya Asri";"M8X7+M4Q, Jl. Lurah Suntara, Karawang Wetan, Kec. Karawang Tim., Karawang, Jawa Barat 41314";"Jl. Lurah Suntara, Karawang Wetan, Kec. Karawang Tim., Karawang";"PAPUA";"41314";"Indonesia";"";"";"";"-6.3007954";"107.312846";"https://maps.google.com/?cid=0x0:0x6fc723a6cd794f56";""
"perumahan";"Toko Kue";"BAKPIA JR KARAWANG (AGEN)";"M9P5+QC8, Pasirjengkol, Kec. Majalaya, Karawang, Jawa Barat 41371";"Pasirjengkol, Kec. Majalaya, Karawang";"PAPUA";"41371";"Indonesia";" 085728707751";"";"";"-6.3130436";"107.3590559";"https://maps.google.com/?cid=0x0:0xf42a8657a7de0ccf";""
"perumahan";"perumahan";"Distrik Gika";"Kabupaten Tolikara, Papua";"Kabupaten Tolikara, Papua";"PAPUA";"";"Indonesia";"";"";"";"-3.5137789";"138.2941167";"https://maps.google.com/?cid=0x0:0xfcd9dc1f8b56ce03";""
"perumahan";"perumahan";"Papua 99569";"Kabupaten Tolikara, Papua";"Kabupaten Tolikara, Papua";"PAPUA";"";"Indonesia";"";"";"";"-3.3489271";"138.3190276";"https://maps.google.com/?cid=0x0:0xdfdec4d1cb3753f4";""
"perumahan";"perumahan";"HOTEL PARKSIDE WAENA";"Jl. Raya Waena, Kp. Waena, Kec. Abepura, Kota Jayapura, Papua 99532";"Kp. Waena, Kec. Abepura, Kota Jayapura";"PAPUA";"99532";"Indonesia";" 08114829200";"";"";"-2.5965369";"140.6348713";"https://maps.google.com/?cid=0x0:0xeecc070595c2799f";""
"perumahan";"perumahan";"Telenggeme";"Distrik Kembu, Kabupaten Tolikara, Papua";"Kabupaten Tolikara, Papua";"PAPUA";"";"Indonesia";"";"";"";"-3.6046251";"138.3938283";"https://maps.google.com/?cid=0x0:0x5c122e75fd9bdab4";""
"perumahan";"perumahan";"Distrik Telenggeme";"Kabupaten Tolikara, Papua";"Kabupaten Tolikara, Papua";"PAPUA";"";"Indonesia";"";"";"";"-3.5927412";"138.3619774";"https://maps.google.com/?cid=0x0:0xf9a0467a900604c6";""
"perumahan";"Komplek perumahan";"GREEN NINE VILLAGE";"Jl Raya Babakan Tenjo Kp Boja, Babakan, Kec. Tenjo, Kabupaten Bogor, Jawa Barat";"Kabupaten Bogor, Jawa Barat";"PAPUA";"";"Indonesia";" 081286676749";"";"";"-6.3568125";"106.4886875";"https://maps.google.com/?cid=0x0:0x8cc4e01d9f55e679";""
"perumahan";"perumahan";"Distrik Anawi";"Kabupaten Tolikara, Papua";"Kabupaten Tolikara, Papua";"PAPUA";"";"Indonesia";"";"";"";"-3.7167202";"138.4981264";"https://maps.google.com/?cid=0x0:0x701ae4b208b8e524";""
"perumahan";"perumahan";"Wenam";"Distrik Pirime, Kabupaten Lanny Jaya, Papua";"Kabupaten Lanny Jaya, Papua";"PAPUA";"";"Indonesia";"";"";"";"-3.9530441";"138.4737282";"https://maps.google.com/?cid=0x0:0x10b1455faa3424c4";""
"perumahan";"Komplek perumahan";"Wenyatma";"RX2M+FX, Putagaima, Distrik Asotipo, Kabupaten Jayawijaya, Papua";"Kabupaten Jayawijaya, Papua";"PAPUA";"";"Indonesia";"";"";"";"-4.1988476";"138.9849084";"https://maps.google.com/?cid=0x0:0x888deba496a0dd1e";""
"perumahan";"Komplek perumahan";"Rumah Evan";"Jalan Gang jati 9, perumnas 2, Kp. Waena, Kec. Heram, Kota Jayapura, Papua 99225";"perumnas 2, Kp. Waena, Kec. Heram, Kota Jayapura";"PAPUA";"99225";"Indonesia";"";"";"";"-2.588324";"140.6392368";"https://maps.google.com/?cid=0x0:0xdab36dbafd8ef9d3";""
"perumahan";"Komplek perumahan";"Dusun Kinnime";"2FCR+H3, Karunggame, Distrik Pirime, Kabupaten Lanny Jaya, Papua";"Kabupaten Lanny Jaya, Papua";"PAPUA";"";"Indonesia";"";"";"";"-3.9785621";"138.4901193";"https://maps.google.com/?cid=0x0:0x5a80afcfe8d14433";""
"perumahan";"Pembangunan Perumahan";"WANEM";"Q27M+VJJ, Wanem, Kec. Kurima, Kabupaten Yahukimo, Papua 99511";"Wanem, Kec. Kurima, Kabupaten Yahukimo";"PAPUA";"99511";"Indonesia";"";"";"";"-4.2352942";"139.034009";"https://maps.google.com/?cid=0x0:0x38862425406ccc28";""
"perumahan";"Komplek perumahan";"Perumahan grand Wamuar Recidence";"9P92+FR4, Jalan, Raya, Abe Pantai, Kec. Abepura, Kota Jayapura, Papua";"Kota Jayapura, Papua";"PAPUA";"";"Indonesia";"";"";"";"-2.6313626";"140.7020689";"https://maps.google.com/?cid=0x0:0x9290c6c3f25a2b6b";""
"perumahan";"Komplek perumahan";"Dusun Yigebbu";"2FCV+XC, Karunggame, Distrik Pirime, Kabupaten Lanny Jaya, Papua";"Kabupaten Lanny Jaya, Papua";"PAPUA";"";"Indonesia";"";"";"";"-3.9776084";"138.4935742";"https://maps.google.com/?cid=0x0:0xced5df09cea544dd";""
"perumahan";"perumahan";"Papua 99562";"Kabupaten Tolikara, Papua";"Kabupaten Tolikara, Papua";"PAPUA";"";"Indonesia";"";"";"";"-3.576543";"138.5187229";"https://maps.google.com/?cid=0x0:0xba78f888ca44ae7d";""
"perumahan";"perumahan";"Distrik Wugi";"Kabupaten Tolikara, Papua";"Kabupaten Tolikara, Papua";"PAPUA";"";"Indonesia";"";"";"";"-3.7219706";"138.5079501";"https://maps.google.com/?cid=0x0:0x59c08c49201b13f2";""
"perumahan";"Komplek perumahan";"Komplek Perumahan YPPGI";"8F7J+Q63, Karubaga, Kec. Karubaga, Kabupaten Tolikara, Papua";"Kabupaten Tolikara, Papua";"PAPUA";"";"Indonesia";"";"";"";"-3.6856154";"138.4805518";"https://maps.google.com/?cid=0x0:0x1e996dde1edb3b03";""
"perumahan";"Pembangunan Perumahan";"sutm existing distrik wagi";"8F4R+689, Gininggadonak, Kec. Karubaga, Kabupaten Tolikara, Papua 99567";"Gininggadonak, Kec. Karubaga, Kabupaten Tolikara";"PAPUA";"99567";"Indonesia";"";"";"";"-3.6944689";"138.4908493";"https://maps.google.com/?cid=0x0:0xc1188aaac37910be";""
"perumahan";"Tujuan Wisata";"Kampung kuragapura";"8F7F+FFH, Muara, Kec. Karubaga, Kabupaten Tolikara, Papua 99567";"Muara, Kec. Karubaga, Kabupaten Tolikara";"PAPUA";"99567";"Indonesia";"";"";"";"-3.6863033";"138.4737349";"https://maps.google.com/?cid=0x0:0xa46849b8c56fcec3";""
"perumahan";"perumahan";"Papua 99561";"Kabupaten Mamberamo Tengah, Papua";"Kabupaten Mamberamo Tengah, Papua";"PAPUA";"";"Indonesia";"";"";"";"-3.5154377";"139.1221414";"https://maps.google.com/?cid=0x0:0x6daa3ce0e2559bf1";""
"perumahan";"perumahan";"Distrik Danime";"Kabupaten Tolikara, Papua";"Kabupaten Tolikara, Papua";"PAPUA";"";"Indonesia";"";"";"";"-3.3986646";"138.1647635";"https://maps.google.com/?cid=0x0:0x714076e2682d29ed";""
"perumahan";"Pembangunan Perumahan";"Distrik Tagime";"5PMH+WMM, Lakwame, Tagime, Kabupaten Jayawijaya, Papua 99555";"Lakwame, Tagime, Kabupaten Jayawijaya";"PAPUA";"99555";"Indonesia";"";"";"";"-3.8151532";"138.7291822";"https://maps.google.com/?cid=0x0:0x61e7465087444a70";""
"perumahan";"Pembangunan Perumahan";"Tagime";"5PVG+WMF, Tagime, Kabupaten Jayawijaya, Papua";"Kabupaten Jayawijaya, Papua";"PAPUA";"";"Indonesia";"";"";"";"-3.8051935";"138.7266721";"https://maps.google.com/?cid=0x0:0x50b51bdd0f2c04e8";""
"perumahan";"perumahan";"Papua 99557";"Kabupaten Mamberamo Tengah, Papua";"Kabupaten Mamberamo Tengah, Papua";"PAPUA";"";"Indonesia";"";"";"";"-3.7408827";"138.9404364";"https://maps.google.com/?cid=0x0:0xb128d87fca34f08d";""
"perumahan";"Pembangunan Perumahan";"Distrik Tagime";"5PMH+WMM, Lakwame, Tagime, Kabupaten Jayawijaya, Papua 99555";"Lakwame, Tagime, Kabupaten Jayawijaya";"PAPUA";"99555";"Indonesia";"";"";"";"-3.8151532";"138.7291822";"https://maps.google.com/?cid=0x0:0x61e7465087444a70";""
"perumahan";"Pembangunan Perumahan";"Tagime";"5PVG+WMF, Tagime, Kabupaten Jayawijaya, Papua";"Kabupaten Jayawijaya, Papua";"PAPUA";"";"Indonesia";"";"";"";"-3.8051935";"138.7266721";"https://maps.google.com/?cid=0x0:0x50b51bdd0f2c04e8";""
"perumahan";"perumahan";"Papua 99562";"Kabupaten Tolikara, Papua";"Kabupaten Tolikara, Papua";"PAPUA";"";"Indonesia";"";"";"";"-3.576543";"138.5187229";"https://maps.google.com/?cid=0x0:0xba78f888ca44ae7d";""
"perumahan";"Pembangunan Perumahan";"Ayumi azahra";"C96W+9CP, RT.003/RW.1, karanganyar, Distrik Kembu, Kabupaten Tolikara, Papua";"Kabupaten Tolikara, Papua";"PAPUA";"";"Indonesia";"";"";"";"-3.5890462";"138.3960902";"https://maps.google.com/?cid=0x0:0xf64086014a87cafe";""
"perumahan";"Tempat Ibadah";"Gereja yume";"4MJ3+4HV, Kali yume, distrik yiluk, Kabupaten Lanny Jaya, Papua";"Kabupaten Lanny Jaya, Papua";"PAPUA";"";"Indonesia";"";"";"";"-3.8696312";"138.6539268";"https://maps.google.com/?cid=0x0:0x978836f0b28443f2";""
"perumahan";"perumahan";"Distrik Aweku";"Kabupaten Tolikara, Papua";"Kabupaten Tolikara, Papua";"PAPUA";"";"Indonesia";"";"";"";"-3.6039131";"138.3642641";"https://maps.google.com/?cid=0x0:0x3ae9eabf0c9c0739";""
"perumahan";"Perhimpunan Pengembang Perumahan";"Rumah Kelapa Desa nioga";"76QM+4Q6, Nioga, Jigonikme, Kabupaten Puncak Jaya, Papua 99563";"Nioga, Jigonikme, Kabupaten Puncak Jaya";"PAPUA";"99563";"Indonesia";"";"";"";"-3.7122202";"138.234377";"https://maps.google.com/?cid=0x0:0x5072ac953dbbcbd2";""
"perumahan";"perumahan";"Distrik Bogonuk";"Kabupaten Tolikara, Papua";"Kabupaten Tolikara, Papua";"PAPUA";"";"Indonesia";"";"";"";"-3.7084478";"138.2831997";"https://maps.google.com/?cid=0x0:0x6d7ee5a8e5240c5c";""
"perumahan";"Pembangunan Perumahan";"Desa Kaypur";"74XJ+R62, Jigobak, Kec. Tingginambut, Kabupaten Puncak Jaya, Papua 99563";"Jigobak, Kec. Tingginambut, Kabupaten Puncak Jaya";"PAPUA";"99563";"Indonesia";"";"";"";"-3.7004827";"138.130522";"https://maps.google.com/?cid=0x0:0xf1ac28b4a62e5cd9";""
"perumahan";"perumahan";"Distrik Li Anogomma";"Kabupaten Tolikara, Papua";"Kabupaten Tolikara, Papua";"PAPUA";"";"Indonesia";"";"";"";"-3.6211096";"138.471132";"https://maps.google.com/?cid=0x0:0x57dfce47d127a501";""
"perumahan";"Tempat Ibadah";"Gereja Lubuk";"9FHC+HF6, Lubuk, Distrik Timori, Kabupaten Tolikara, Papua 99562";"Lubuk, Distrik Timori, Kabupaten Tolikara";"PAPUA";"99562";"Indonesia";"";"";"";"-3.6210975";"138.4711389";"https://maps.google.com/?cid=0x0:0x2b4f373c15dac2c2";""
"perumahan";"Rumah Ibadat Bahá'í";"Gereja Bolubur";"9FP6+X77, Tingapura, Distrik Timori, Kabupaten Tolikara, Papua 99562";"Tingapura, Distrik Timori, Kabupaten Tolikara";"PAPUA";"99562";"Indonesia";"";"";"";"-3.6125753";"138.4606639";"https://maps.google.com/?cid=0x0:0x53283cd7036038ce";""
"perumahan";"Pembangunan Perumahan";"JELEKPELEK";"8FCF+C8G, Muara, Kec. Karubaga, Kabupaten Tolikara, Papua 99567";"Muara, Kec. Karubaga, Kabupaten Tolikara";"PAPUA";"99567";"Indonesia";"";"";"";"-3.6801995";"138.4736612";"https://maps.google.com/?cid=0x0:0x6dd4edeca684d55a";""
"perumahan";"perumahan";"Distrik Biuk";"Kabupaten Tolikara, Papua";"Kabupaten Tolikara, Papua";"PAPUA";"";"Indonesia";"";"";"";"-3.6811389";"138.4434628";"https://maps.google.com/?cid=0x0:0x2ddfd16b03b73827";""
"perumahan";"Pembangunan Perumahan";"Perumahan PEMDA";"8FCG+33Q, Muara, Kec. Karubaga, Kabupaten Tolikara, Papua 99567";"Muara, Kec. Karubaga, Kabupaten Tolikara";"PAPUA";"99567";"Indonesia";"";"";"";"-3.6797785";"138.4752409";"https://maps.google.com/?cid=0x0:0x92f2706a088cac78";""
"perumahan";"Gedung Apartemen";"Kimobur";"7FP3+XH, Abepur, Distrik Kuari, Kabupaten Tolikara, Papua";"Kabupaten Tolikara, Papua";"PAPUA";"";"Indonesia";"";"";"";"-3.71258";"138.453943";"https://maps.google.com/?cid=0x0:0xcb39f5ecb3e7026d";""
"perumahan";"Komplek perumahan";"Kota baru";"8F8G+FGP, Karubaga, Kec. Karubaga, Kabupaten Tolikara, Papua";"Kabupaten Tolikara, Papua";"PAPUA";"";"Indonesia";" 082327888169";"";"";"-3.6837789";"138.4763233";"https://maps.google.com/?cid=0x0:0xd911ecb25350fee0";""
"perumahan";"Komplek perumahan";"Mashudanah";"Jln irian No.3, Karubaga, Kec. Karubaga, Kabupaten Tolikara, Papua 99562";"Karubaga, Kec. Karubaga, Kabupaten Tolikara";"PAPUA";"99562";"Indonesia";"";"";"";"-3.684661";"138.476819";"https://maps.google.com/?cid=0x0:0xa885b79c3e478d2b";""
"perumahan";"Komplek perumahan";"Derby Dedeo";"8C9V+G9W, Jinulira, Distrik Biuk, Kabupaten Tolikara, Papua 99567";"Jinulira, Distrik Biuk, Kabupaten Tolikara";"PAPUA";"99567";"Indonesia";"";"";"";"-3.6811389";"138.4434628";"https://maps.google.com/?cid=0x0:0x13fb5867f9b4852a";""
"perumahan";"Gedung Apartemen";"Kios Kogome";"8F9H+H2Q, Jl Kesehatan, Karubaga, Kec. Karubaga, Kabupaten Tolikara, Papua 99567";"Jl Kesehatan, Karubaga, Kec. Karubaga, Kabupaten Tolikara";"PAPUA";"99567";"Indonesia";"";"";"";"-3.6810159";"138.4773797";"https://maps.google.com/?cid=0x0:0x7df16040d5c70d4c";""
"perumahan";"Pembangunan Perumahan";"MESS BAKTI (HUP)";"8F8H+R2X, Karubaga, Kec. Karubaga, Kabupaten Tolikara, Papua 99567";"Karubaga, Kec. Karubaga, Kabupaten Tolikara";"PAPUA";"99567";"Indonesia";"";"";"";"-3.6828849";"138.4776154";"https://maps.google.com/?cid=0x0:0x191d22cf391b74d6";""
"perumahan";"Kantor Pemerintah";"Kantor Dinas Perumahan Dan Kawasan Permukiman Kab. Tolikara";"8F45+WQ4, Luanggi, Kec. Karubaga, Kabupaten Tolikara, Papua";"Kabupaten Tolikara, Papua";"PAPUA";"";"Indonesia";"";"";"";"-3.6927308";"138.4594639";"https://maps.google.com/?cid=0x0:0x1193e2d9dc694a1c";""
"perumahan";"perumahan";"Rumah Makan Karubaga";"8F8H+7C9, Karubaga, Kec. Karubaga, Kabupaten Tolikara, Papua 99567";"Karubaga, Kec. Karubaga, Kabupaten Tolikara";"PAPUA";"99567";"Indonesia";"";"";"";"-3.6843481";"138.4786024";"https://maps.google.com/?cid=0x0:0x416ee39b0a4f1683";""
"perumahan";"Rumah Sakit";"RSUD Karubaga";"8F9G+GV9, Kogome, Kec. Karubaga, Kabupaten Tolikara, Papua 99567";"Kogome, Kec. Karubaga, Kabupaten Tolikara";"PAPUA";"99567";"Indonesia";"";"";"";"-3.6812222";"138.4772427";"https://maps.google.com/?cid=0x0:0xc15a1cdbacafcf70";""
"perumahan";"Penginapan Dalam Ruangan";"kopiko";"8F9H+P3F, Karubaga, Kec. Karubaga, Kabupaten Tolikara, Papua 99567";"Karubaga, Kec. Karubaga, Kabupaten Tolikara";"PAPUA";"99567";"Indonesia";"";"";"";"-3.6807774";"138.4777369";"https://maps.google.com/?cid=0x0:0xd839d0b442265a48";""
"perumahan";"perumahan";"Papua 99569";"Kabupaten Tolikara, Papua";"Kabupaten Tolikara, Papua";"PAPUA";"";"Indonesia";"";"";"";"-3.3489271";"138.3190276";"https://maps.google.com/?cid=0x0:0xdfdec4d1cb3753f4";""
"perumahan";"perumahan";"HOTEL PARKSIDE WAENA";"Jl. Raya Waena, Kp. Waena, Kec. Abepura, Kota Jayapura, Papua 99532";"Kp. Waena, Kec. Abepura, Kota Jayapura";"PAPUA";"99532";"Indonesia";" 08114829200";"";"";"-2.5965369";"140.6348713";"https://maps.google.com/?cid=0x0:0xeecc070595c2799f";""
"perumahan";"Pembangunan Perumahan";"Rumah YUKO";"WRV4+8FX, Gundi, Kec. Godong, Kabupaten Grobogan, Jawa Tengah 58162";"Gundi, Kec. Godong, Kabupaten Grobogan";"PAPUA";"58162";"Indonesia";"";"";"";"-7.0566432";"110.8062486";"https://maps.google.com/?cid=0x0:0x395d8073a57ac366";""
