Category,Real Category,Business Name,Address,City,State,Postal Code,Country,Phone,Email,Website,Latitude,Longitude,Map Link,Details Link
hotel,hotel,Papua 98972,Papua,Papua,PAPUA,,Indonesia,,,,-3.921.968,1.375.275.422,https://maps.google.com/?cid=0x0:0x765d582b762840f7,
hotel,hotel,Bisnis Hotel,"Kwamki, Kec. Mimika Baru, Kabupaten Mimika, Papua 99971","Kec. Mimika Baru, Kabupaten Mimika",PAPUA,99971,Indonesia,09013264510,,,-45.452.777,1.368.833.867,https://maps.google.com/?cid=0x0:0x690d0340d9882c9c,
hotel,hotel,RedDoorz @ Jalan Cendrawasih Timika,"Jalan Cendrawasih Belakang Manna, Kwamki, Bakerei, Kabupaten Mimika, Papua 99910","Kwamki, Bakerei, Kabupaten Mimika",PAPUA,99910,Indonesia,0895417300072,,,-45.424.845,1.368.797.499,https://maps.google.com/?cid=0x0:0xe497a05bd4efc640,
hotel,hotel,Rimba Papua Hotel,"Jl. Kwamki Narama No. 1, Kwamki, Kec. Mimika Baru, Kabupaten Mimika, Papua 99971","Kwamki, Kec. Mimika Baru, Kabupaten Mimika",PAPUA,99971,Indonesia,0901494949,,,-45.151.124,136.884.599,https://maps.google.com/?cid=0x0:0xa65056700db32492,
hotel,hotel,Horison Inn Relat Jayapura,"Jl. Pantai Klp. No.21 - 23, Argapura, Distrik Jayapura Selatan, Kota Jayapura, Papua","Kota Jayapura, Papua",PAPUA,,Indonesia,09675160779,,,-25.537.101,1.407.148.929,https://maps.google.com/?cid=0x0:0xb98fc1bbb5c5c494,
hotel,hotel,SAMUMAMBO HOTEL,"jl. cenderawasih belakang manna bakerei, Kwamki, Kec. Mimika Baru, Kabupaten Mimika, Papua 99910","Kwamki, Kec. Mimika Baru, Kabupaten Mimika",PAPUA,99910,Indonesia,081344090664,,,-45.424.836,1.368.797.497,https://maps.google.com/?cid=0x0:0xcb5241de257efb93,
hotel,hotel,Penginapan Paparisa Amungsa,"Koperapoka, Kec. Mimika Baru, Kabupaten Mimika, Papua 99971","Kec. Mimika Baru, Kabupaten Mimika",PAPUA,99971,Indonesia,081343206383,,,-45.385.795,1.368.755.667,https://maps.google.com/?cid=0x0:0xfd07a1d4446c8f23,
hotel,hotel,Penginapan 69,"Kp. Waena, Kec. Heram, Kota Jayapura, Papua 99225","Kec. Heram, Kota Jayapura",PAPUA,99225,Indonesia,081248523621,,,-2.593.495,1.406.310.796,https://maps.google.com/?cid=0x0:0x12711ec27878fab8,
hotel,hotel,Home Inn Executive Residence,"Jl. Guru Mughni No.12, Kuningan, Kuningan Tim., Kecamatan Setiabudi, Kota Jakarta Selatan, Daerah Khusus Ibukota Jakarta 12950","Kuningan, Kuningan Tim., Kecamatan Setiabudi, Kota Jakarta Selatan",PAPUA,12950,Indonesia,087877336535,,,-62.300.691,1.068.216.472,https://maps.google.com/?cid=0x0:0x3f0bbbd8b8484b,
hotel,Museum Sejarah Lokal,Monumen Nasional,"Merdeka Square, Jalan Lapangan Monas, Gambir, Kecamatan Gambir, Kota Jakarta Pusat, Daerah Khusus Ibukota Jakarta 10110","Jalan Lapangan Monas, Gambir, Kecamatan Gambir, Kota Jakarta Pusat",PAPUA,10110,Indonesia,0213853040,,,-61.753.924,1.068.271.528,https://maps.google.com/?cid=0x0:0x3d2ad6e1e0e9bcc8,
hotel,Stasiun Kereta,Stasiun Sudirman,"10, Jl. Kendal No.24, RW.6, Menteng, 10310","Jl. Kendal No.24, RW.6",PAPUA,10310,Indonesia,,,,-62.024.499,1.068.237.671,https://maps.google.com/?cid=0x0:0x13f90424139e1edf,
hotel,hotel,W Home Benhil,"Jl. Bend. Jatiluhur No.60 2, RT.2/RW.1, Bend. Hilir, Kecamatan Tanah Abang, Kota Jakarta Pusat, Daerah Khusus Ibukota Jakarta 10210","RT.2/RW.1, Bend. Hilir, Kecamatan Tanah Abang, Kota Jakarta Pusat",PAPUA,10210,Indonesia,02150101690,,,-62.136.004,1.068.113.997,https://maps.google.com/?cid=0x0:0xf58fcbf482e2ff59,
hotel,Perhentian bus,Stadiun Karet,"Kb. Melati, Kecamatan Tanah Abang, Kota Jakarta Pusat, Daerah Khusus Ibukota Jakarta","Kota Jakarta Pusat, Daerah Khusus Ibukota Jakarta",PAPUA,,Indonesia,,,,-62.008.419,1.068.159.048,https://maps.google.com/?cid=0x0:0x6b67090796653b2b,
hotel,Kantor Perusahaan,Palmerah,"Gelora, Kecamatan Tanah Abang, Kota Jakarta Pusat, Daerah Khusus Ibukota Jakarta","Kota Jakarta Pusat, Daerah Khusus Ibukota Jakarta",PAPUA,,Indonesia,,,,-62.075.944,106.797.382,https://maps.google.com/?cid=0x0:0x116987b9272f716d,
hotel,Hotel,The Home,"Jl. Srengseng Raya No.16, RT.4/RW.1, Srengseng, Kec. Kembangan, Kota Jakarta Barat, Daerah Khusus Ibukota Jakarta 11630","RT.4/RW.1, Srengseng, Kec. Kembangan, Kota Jakarta Barat",PAPUA,11630,Indonesia,081938028816,,,-61.989.089,106.756.422,https://maps.google.com/?cid=0x0:0xb71a0fe6e498a179,
hotel,Hotel bintang 3,M HOME,"M HOME, Jl. Senopati No.32 7, RT.6/RW.2, Selong, Kec. Kby. Baru, Kota Jakarta Selatan, Daerah Khusus Ibukota Jakarta 12110","Jl. Senopati No.32 7, RT.6/RW.2, Selong, Kec. Kby. Baru, Kota Jakarta Selatan",PAPUA,12110,Indonesia,081382166189,,,-62.305.706,1.068.069.221,https://maps.google.com/?cid=0x0:0xf66462075a00f45b,
hotel,Hotel bintang 2,HOME INN,"Jl. Sawo No.31 16, RT.16/RW.7, Kuningan, Karet Kuningan, Kecamatan Setiabudi, Kota Jakarta Selatan, Daerah Khusus Ibukota Jakarta 12940","RT.16/RW.7, Kuningan, Karet Kuningan, Kecamatan Setiabudi, Kota Jakarta Selatan",PAPUA,12940,Indonesia,081311391999,,,-62.181.916,1.068.267.994,https://maps.google.com/?cid=0x0:0xa47190859960dc50,
hotel,hotel,I Home Residence,"Jl. Kb. Kacang 1 No.57, Kb. Kacang, Kecamatan Tanah Abang, Kota Jakarta Pusat, Daerah Khusus Ibukota Jakarta 10240","Kb. Kacang, Kecamatan Tanah Abang, Kota Jakarta Pusat",PAPUA,10240,Indonesia,081908081899,,,-61.879.901,1.068.182.126,https://maps.google.com/?cid=0x0:0xf112ce2810cb4280,
hotel,Layanan Transportasi,Stasiun Tanahabang,"Jalan Jati Baru Raya, Jl. Cideng Timur, Kecamatan Tanah Abang, 10250",Jl. Cideng Timur,PAPUA,10250,Indonesia,,,,-61.856.886,1.068.108.579,https://maps.google.com/?cid=0x0:0x790a6a4bfd2f5502,
hotel,Guest house,HOME STAY Try_disono,"Jl. Gg. Gading 6 No.19 8, RT.8/RW.2, Kp. Rw., Kec. Johar Baru, Kota Jakarta Pusat, Daerah Khusus Ibukota Jakarta 10550","RT.8/RW.2, Kp. Rw., Kec. Johar Baru, Kota Jakarta Pusat",PAPUA,10550,Indonesia,,,,-6.179.764,1.068.530.983,https://maps.google.com/?cid=0x0:0xdf5d4e48d2ec1911,
hotel,hotel,W Home Senopati,"Jl. Cikatomas II No.24-26, RT.4/RW.4, Rw. Bar., Kec. Kby. Baru, Kota Jakarta Selatan, Daerah Khusus Ibukota Jakarta 12180","RT.4/RW.4, Rw. Bar., Kec. Kby. Baru, Kota Jakarta Selatan",PAPUA,12180,Indonesia,0217247858,,,-6.237.165,1.068.133.208,https://maps.google.com/?cid=0x0:0x47d7e1cb84499dc,
hotel,Apartemen sewa liburan,home,"MQP3+3FJ, Jl. Ciputat Molek IV, Pisangan, Kec. Ciputat Tim., Kota Tangerang Selatan, Banten 15419","Jl. Ciputat Molek IV, Pisangan, Kec. Ciputat Tim., Kota Tangerang Selatan",PAPUA,15419,Indonesia,,,,-63.147.797,1.067.536.425,https://maps.google.com/?cid=0x0:0xb095f2a5423ff1db,
hotel,hotel,,,,PAPUA,,Indonesia,,,,,,https://maps.google.com/?cid=0x0:0xd45e8fa6473f0470%7C/g/11fwg2cl3z%7Cen-ID,
hotel,hotel,"OYO 3755 Sweet Home Near Masjid Agung Istiqlal, Pasar baru, Ancol","02, RW.2, Kec. Taman Sari, Kota Jakarta Barat, Daerah Khusus Ibukota Jakarta 11150","RW.2, Kec. Taman Sari, Kota Jakarta Barat",PAPUA,11150,Indonesia,02129707601,,,-61.509.657,1.068.208.161,https://maps.google.com/?cid=0x0:0xd45e8fa6473f0470,
hotel,Depot kereta api,Mangga Besar,"Jl. Karang Anyar, Karang Anyar, Kecamatan Sawah Besar, Kota Jakarta Pusat, Daerah Khusus Ibukota Jakarta","Kota Jakarta Pusat, Daerah Khusus Ibukota Jakarta",PAPUA,,Indonesia,,,,-61.498,10.682.698,https://maps.google.com/?cid=0x0:0x88f81dc9cad772bc,
hotel,Rumah wisata,Home stay krisnandi,"Jl. Merah Delima II No.11 4, RT.4/RW.11, Cipinang Cempedak, Kecamatan Jatinegara, Kota Jakarta Timur, Daerah Khusus Ibukota Jakarta 13340","RT.4/RW.11, Cipinang Cempedak, Kecamatan Jatinegara, Kota Jakarta Timur",PAPUA,13340,Indonesia,,,,-62.418.416,1.068.750.162,https://maps.google.com/?cid=0x0:0x570c152682a6b17a,
hotel,hotel,WA 082279245244We Stay Coliving,"Jl. Warga Baru No.17 14, RT.17/RW.3, Pejaten Bar., Ps. Minggu, Kota Jakarta Selatan, Daerah Khusus Ibukota Jakarta 12510","RT.17/RW.3, Pejaten Bar., Ps. Minggu, Kota Jakarta Selatan",PAPUA,12510,Indonesia,08118000983,,,-62.725.848,1.068.392.494,https://maps.google.com/?cid=0x0:0x3a096c66d099c868,
hotel,Museum,Taman Mini Indonesia Indah,"Jl. Taman Mini Indonesia Indah, Ceger, Kec. Cipayung, Kota Jakarta Timur, Daerah Khusus Ibukota Jakarta 13820","Ceger, Kec. Cipayung, Kota Jakarta Timur",PAPUA,13820,Indonesia,08041789789,,,-63.020.386,1.068.898.924,https://maps.google.com/?cid=0x0:0x73127b9ecf2da0c,
hotel,Stasiun Kereta,Stasiun Pasar Minggu,"Stasiun, Lenteng Agung, Pasar Minggu, South Jakarta City, Jakarta","Kota Jakarta Selatan, Daerah Khusus Ibukota Jakarta",PAPUA,,Indonesia,,,,-62.842.072,1.068.445.676,https://maps.google.com/?cid=0x0:0xc0f0b2c9ca75475d,
hotel,hotel,Papua 98911,"Kabupaten Puncak Jaya, Papua","Kabupaten Puncak Jaya, Papua",PAPUA,,Indonesia,,,,-35.879.887,1.377.538.931,https://maps.google.com/?cid=0x0:0x87fbe061dff44735,
hotel,hotel,Hotel Sahid Papua,"Jl. Klp. 2 No.18, Entrop, Distrik Jayapura Selatan, Kota Jayapura, Papua 99221","Entrop, Distrik Jayapura Selatan, Kota Jayapura",PAPUA,99221,Indonesia,0811481167,,,-25.661.461,1.406.996.539,https://maps.google.com/?cid=0x0:0x9c8a2fd141b3aa33,
hotel,hotel,,,,PAPUA,,Indonesia,,,,,,https://maps.google.com/?cid=0x0:0x9c8a2fd141b3aa33%7C/g/11b73kkp76%7Cen-ID,
hotel,Hotel,Hotel Muliain,"7XMM+9VG, Pruleme, Distrik Mulia, Kabupaten Puncak Jaya, Papua 98973","Pruleme, Distrik Mulia, Kabupaten Puncak Jaya",PAPUA,98973,Indonesia,,,,-37.179.134,1.379.849.194,https://maps.google.com/?cid=0x0:0x27b549b9e5e5bb3,
hotel,Hotel,MULIA,"7WFX+VJX, Berelema, Distrik Mulia, Kabupaten Puncak Jaya, Papua 98973","Berelema, Distrik Mulia, Kabupaten Puncak Jaya",PAPUA,98973,Indonesia,,,,-37.252.683,1.379.491.211,https://maps.google.com/?cid=0x0:0x634251ba449f6712,
hotel,hotel,Hotel Mulia,"Jalan Asia Afrika Senayan, RT.1/RW.3, Gelora, Kecamatan Tanah Abang, Kota Jakarta Pusat, Daerah Khusus Ibukota Jakarta 10270","RT.1/RW.3, Gelora, Kecamatan Tanah Abang, Kota Jakarta Pusat",PAPUA,10270,Indonesia,0215747777,,,-62.151.599,106.797.062,https://maps.google.com/?cid=0x0:0x40c7383d6eb0bab5,
hotel,hotel,,,,PAPUA,,Indonesia,,,,,,https://maps.google.com/?cid=0x0:0x40c7383d6eb0bab5%7C/m/0wfg26t%7Cen-ID,
hotel,Museum Sejarah Lokal,Monumen Nasional,"Merdeka Square, Jalan Lapangan Monas, Gambir, Kecamatan Gambir, Kota Jakarta Pusat, Daerah Khusus Ibukota Jakarta 10110","Jalan Lapangan Monas, Gambir, Kecamatan Gambir, Kota Jakarta Pusat",PAPUA,10110,Indonesia,0213853040,,,-61.753.924,1.068.271.528,https://maps.google.com/?cid=0x0:0x3d2ad6e1e0e9bcc8,
hotel,Kantor Perusahaan,Palmerah,"Gelora, Kecamatan Tanah Abang, Kota Jakarta Pusat, Daerah Khusus Ibukota Jakarta","Kota Jakarta Pusat, Daerah Khusus Ibukota Jakarta",PAPUA,,Indonesia,,,,-62.075.944,106.797.382,https://maps.google.com/?cid=0x0:0x116987b9272f716d,
hotel,Pub,CJ's Bar,"Hotel Mulia, Jalan Asia Afrika, Gelora, RT.1/RW.3, Gelora, Kecamatan Tanah Abang, Kota Jakarta Pusat, Daerah Khusus Ibukota Jakarta 10270","Jalan Asia Afrika, Gelora, RT.1/RW.3, Gelora, Kecamatan Tanah Abang, Kota Jakarta Pusat",PAPUA,10270,Indonesia,0215747777,,,-6.215.192,10.679.765,https://maps.google.com/?cid=0x0:0x4c708828c3a9def3,
hotel,Restoran,The Cafe,"Senayan, Jl. Asia Afrika, RT.1/RW.3, Gelora, Kecamatan Tanah Abang, Kota Jakarta Pusat, Daerah Khusus Ibukota Jakarta 10270","Jl. Asia Afrika, RT.1/RW.3, Gelora, Kecamatan Tanah Abang, Kota Jakarta Pusat",PAPUA,10270,Indonesia,0215747777,,,-62.149.549,1.067.970.461,https://maps.google.com/?cid=0x0:0x52923bef6359d0f7,
hotel,hotel,Papua 98916,"Kec. Pogoma, Kabupaten Puncak, Papua","Kabupaten Puncak, Papua",PAPUA,,Indonesia,,,,-36.485.048,1.377.341.718,https://maps.google.com/?cid=0x0:0x87f9708d464cf9c7,
hotel,hotel,Hotel Grand Papua Sentani,"Jalan Sosial No.388, Hinekombe, Kec. Sentani, Kabupaten Jayapura, Papua 99352","Hinekombe, Kec. Sentani, Kabupaten Jayapura",PAPUA,99352,Indonesia,08114827899,,,-2.557.344,1.404.958.181,https://maps.google.com/?cid=0x0:0x9afaf186d23bb377,
hotel,hotel,Hotel Sahid Papua,"Jl. Klp. 2 No.18, Entrop, Distrik Jayapura Selatan, Kota Jayapura, Papua 99221","Entrop, Distrik Jayapura Selatan, Kota Jayapura",PAPUA,99221,Indonesia,0811481167,,,-25.661.461,1.406.996.539,https://maps.google.com/?cid=0x0:0x9c8a2fd141b3aa33,
hotel,hotel,Hotel R6,"Jl.Cendrawasih SP2, Papua 99952","Kabupaten Mimika, Papua",PAPUA,,Indonesia,082245112457,,,-4.538.464,1.368.691.429,https://maps.google.com/?cid=0x0:0xb392d58fbaabfb69,
hotel,hotel,Hotel Karya Papua,"JGX6+2PM, Jl. R.E. Martadinata Kalinona, Nabarua, Distrik Nabire, Papua 98816","Jl. R.E. Martadinata Kalinona, Nabarua, Distrik Nabire",PAPUA,98816,Indonesia,082164655697,,,-33.524.082,1.355.118.114,https://maps.google.com/?cid=0x0:0x8196bf4b8aafbb3f,
hotel,hotel,Rimba Papua Hotel,"Jl. Kwamki Narama No. 1, Kwamki, Kec. Mimika Baru, Kabupaten Mimika, Papua 99971","Kwamki, Kec. Mimika Baru, Kabupaten Mimika",PAPUA,99971,Indonesia,0901494949,,,-45.151.124,136.884.599,https://maps.google.com/?cid=0x0:0xa65056700db32492,
hotel,hotel,Horison Inn Relat Jayapura,"Jl. Pantai Klp. No.21 - 23, Argapura, Distrik Jayapura Selatan, Kota Jayapura, Papua","Kota Jayapura, Papua",PAPUA,,Indonesia,09675160779,,,-25.537.101,1.407.148.929,https://maps.google.com/?cid=0x0:0xb98fc1bbb5c5c494,
hotel,hotel,Numbay Hotel,"Jl. Trikora No.23, Dok V, Trikora, Kec. Jayapura Utara, Kota Jayapura, Papua 99114","Dok V, Trikora, Kec. Jayapura Utara, Kota Jayapura",PAPUA,99114,Indonesia,09675166939,,,-2.527.363,1.407.185.297,https://maps.google.com/?cid=0x0:0x2a95e5b69088c98d,
hotel,Pengembang Realestat,Waringin Hospitality Hotel Group,"Jl. Kesehatan No.22, RT.10/RW.5, Petojo Sel., Kecamatan Gambir, Kota Jakarta Pusat, Daerah Khusus Ibukota Jakarta 10160","RT.10/RW.5, Petojo Sel., Kecamatan Gambir, Kota Jakarta Pusat",PAPUA,10160,Indonesia,0213863910,,,-61.735.731,1.068.154.206,https://maps.google.com/?cid=0x0:0x9c995e25ba580b82,
hotel,hotel,Hotel Luminor Pecenongan,"Jl. Pecenongan No.35, Kb. Klp., Kecamatan Gambir, Kota Jakarta Pusat, Daerah Khusus Ibukota Jakarta 10120","Kb. Klp., Kecamatan Gambir, Kota Jakarta Pusat",PAPUA,10120,Indonesia,0213447777,,,-61.645.715,1.068.260.866,https://maps.google.com/?cid=0x0:0x231ad86e140e0b89,
hotel,hotel,,,,PAPUA,,Indonesia,,,,,,https://maps.google.com/?cid=0x0:0x231ad86e140e0b89%7C/g/11cmt8wgzs%7Cen-ID,
hotel,Hotel bintang 3,REDTOP Hotel  Convention Center,"Jl. Pecenongan No.72, RT.2/RW.4, Kb. Klp., Kecamatan Gambir, Kota Jakarta Pusat, Daerah Khusus Ibukota Jakarta 10120","RT.2/RW.4, Kb. Klp., Kecamatan Gambir, Kota Jakarta Pusat",PAPUA,10120,Indonesia,0213500077,,,-6.163.475,1.068.272.431,https://maps.google.com/?cid=0x0:0x36d4dc7d94c5c231,
hotel,Hotel bintang 3,YELLO Hotel Harmoni Jakarta,"Jl. Hayam Wuruk No.6, RT.6/RW.2, Kb. Klp., Kecamatan Gambir, Kota Jakarta Pusat, Daerah Khusus Ibukota Jakarta 10120","RT.6/RW.2, Kb. Klp., Kecamatan Gambir, Kota Jakarta Pusat",PAPUA,10120,Indonesia,02122035000,,,-61.642.263,1.068.212.576,https://maps.google.com/?cid=0x0:0x3b6b108581e9c8d1,
hotel,hotel,Classic Hotel Jakarta,"Jl. Samanhudi No.43-45 1, RT.1/RW.7, Ps. Baru, Kecamatan Sawah Besar, Kota Jakarta Pusat, Daerah Khusus Ibukota Jakarta 10710","RT.1/RW.7, Ps. Baru, Kecamatan Sawah Besar, Kota Jakarta Pusat",PAPUA,10710,Indonesia,0213852000,,,-61.617.884,1.068.297.729,https://maps.google.com/?cid=0x0:0x1e457ca2872dc0b6,
hotel,hotel,Amaris Hotel Juanda Jakarta,"Jl. Ir. H. Juanda No.3, RT.14/RW.4, Kb. Klp., Kecamatan Gambir, Kota Jakarta Pusat, Daerah Khusus Ibukota Jakarta 10120","RT.14/RW.4, Kb. Klp., Kecamatan Gambir, Kota Jakarta Pusat",PAPUA,10120,Indonesia,0213458733,,,-61.675.556,1.068.298.323,https://maps.google.com/?cid=0x0:0xe89ac7af51074aa8,
hotel,hotel,MaxOneHotels @ Platinum Hayam Wuruk,"Jl. Hayam Wuruk No.5, RT.6/RW.2, Gambir, Kec. Menteng, Kota Jakarta Pusat, Daerah Khusus Ibukota Jakarta 10120","RT.6/RW.2, Gambir, Kec. Menteng, Kota Jakarta Pusat",PAPUA,10120,Indonesia,0213451119,,,-61.646.863,1.068.206.266,https://maps.google.com/?cid=0x0:0xd675706d6abc6d1c,
hotel,hotel,Sriwijaya Hotel,"Jl. Veteran No.1, Gambir, Kecamatan Gambir, Kota Jakarta Pusat, Daerah Khusus Ibukota Jakarta 10110","Gambir, Kecamatan Gambir, Kota Jakarta Pusat",PAPUA,10110,Indonesia,0213440409,,,-61.689.895,1.068.299.138,https://maps.google.com/?cid=0x0:0xd06ded5e63e5367d,
hotel,Museum Sejarah Lokal,Monumen Nasional,"Merdeka Square, Jalan Lapangan Monas, Gambir, Kecamatan Gambir, Kota Jakarta Pusat, Daerah Khusus Ibukota Jakarta 10110","Jalan Lapangan Monas, Gambir, Kecamatan Gambir, Kota Jakarta Pusat",PAPUA,10110,Indonesia,0213853040,,,-61.753.924,1.068.271.528,https://maps.google.com/?cid=0x0:0x3d2ad6e1e0e9bcc8,
hotel,Layanan Transportasi,Stasiun Sawah Besar,"Jalan Krekot Raya No.6, Ps. Baru, Kecamatan Sawah Besar, Kota Jakarta Pusat, Daerah Khusus Ibukota Jakarta 11160","Ps. Baru, Kecamatan Sawah Besar, Kota Jakarta Pusat",PAPUA,11160,Indonesia,,,,-616.068,10.682.764,https://maps.google.com/?cid=0x0:0xc968387aa1308255,
hotel,hotel,Kecamatan Gambir,"Kota Jakarta Pusat, Daerah Khusus Ibukota Jakarta","Kota Jakarta Pusat, Daerah Khusus Ibukota Jakarta",PAPUA,,Indonesia,,,,-61.673.595,1.068.209.277,https://maps.google.com/?cid=0x0:0x85ba75e3afd04a8,
hotel,hotel,,,,PAPUA,,Indonesia,,,,,,https://maps.google.com/?cid=0x0:0x9703a3bf392e02d5%7C/g/11clzk9zfc%7Cen-ID,
hotel,hotel,Manhattan Hotel Jakarta,"Jl. Prof. DR. Satrio No.Kav.19-24, RT.7/RW.4, Kuningan, Karet Kuningan, Kecamatan Setiabudi, Kota Jakarta Selatan, Daerah Khusus Ibukota Jakarta 12940","RT.7/RW.4, Kuningan, Karet Kuningan, Kecamatan Setiabudi, Kota Jakarta Selatan",PAPUA,12940,Indonesia,02130040888,,,-62.252.344,1.068.313.176,https://maps.google.com/?cid=0x0:0x54fd31f2806946cb,
hotel,hotel,Amaris Hotel Dr. Satrio Kuningan - Jakarta,"7, Jl. Prof. DR. Satrio No.23, RW.2, Kuningan Tim., Kecamatan Setiabudi, Kota Jakarta Selatan, Daerah Khusus Ibukota Jakarta 12950","Jl. Prof. DR. Satrio No.23, RW.2, Kuningan Tim., Kecamatan Setiabudi, Kota Jakarta Selatan",PAPUA,12950,Indonesia,02129023336,,,-62.256.071,1.068.296.596,https://maps.google.com/?cid=0x0:0x9703a3bf392e02d5,
hotel,hotel,,,,PAPUA,,Indonesia,,,,,,https://maps.google.com/?cid=0x0:0x54fd31f2806946cb%7C/g/1tj5hl1s%7Cen-ID,
hotel,Prasmanan,Central Park Restaurant,"Manhattan Hotel 3rd Floor, JL Prof. Dr. Satrio, No. 1, Casablanca Kuningan, RT.7/RW.4, Kuningan, Karet Kuningan, Jakarta Selatan, Kota Jakarta Selatan, Daerah Khusus Ibukota Jakarta 12950","JL Prof. Dr. Satrio, No. 1, Casablanca Kuningan, RT.7/RW.4, Kuningan, Karet Kuningan, Jakarta Selatan, Kota Jakarta Selatan",PAPUA,12950,Indonesia,02130040888,,,-62.254.615,1.068.312.765,https://maps.google.com/?cid=0x0:0x47e83ff4b2d01406,
hotel,hotel,Hotel D' Prima,"Jl. Mega Kuningan Timur II No.1, Kuningan, Kuningan Tim., Kecamatan Setiabudi, Kota Jakarta Selatan, Daerah Khusus Ibukota Jakarta 12950","Kuningan, Kuningan Tim., Kecamatan Setiabudi, Kota Jakarta Selatan",PAPUA,12950,Indonesia,02129201234,,,-62.285.905,1.068.282.792,https://maps.google.com/?cid=0x0:0xb5a37f1e4d342823,
hotel,hotel,,,,PAPUA,,Indonesia,,,,,,https://maps.google.com/?cid=0x0:0xb5a37f1e4d342823%7C/g/1ptydqp1p%7Cen-ID,
hotel,hotel,Hotel Rasuna Icon,"Jl. Karet Pedurenan No.3, RT.6/RW.7, Kuningan, Karet Kuningan, Kecamatan Setiabudi, Kota Jakarta Selatan, Daerah Khusus Ibukota Jakarta 12940","RT.6/RW.7, Kuningan, Karet Kuningan, Kecamatan Setiabudi, Kota Jakarta Selatan",PAPUA,12940,Indonesia,0215201642,,,-62.207.481,1.068.291.792,https://maps.google.com/?cid=0x0:0x96ed03281906a8bb,
hotel,hotel,,,,PAPUA,,Indonesia,,,,,,https://maps.google.com/?cid=0x0:0x96ed03281906a8bb%7C/g/1w3sx3cl%7Cen-ID,
hotel,hotel,Papua 98917,"Mewoluk, Kabupaten Puncak Jaya, Papua","Kabupaten Puncak Jaya, Papua",PAPUA,,Indonesia,,,,-36.519.188,1.377.933.577,https://maps.google.com/?cid=0x0:0x499f37f7bd3f4341,
hotel,hotel,Hotel Sahid Papua,"Jl. Klp. 2 No.18, Entrop, Distrik Jayapura Selatan, Kota Jayapura, Papua 99221","Entrop, Distrik Jayapura Selatan, Kota Jayapura",PAPUA,99221,Indonesia,0811481167,,,-25.661.461,1.406.996.539,https://maps.google.com/?cid=0x0:0x9c8a2fd141b3aa33,
hotel,hotel,,,,PAPUA,,Indonesia,,,,,,https://maps.google.com/?cid=0x0:0x9c8a2fd141b3aa33%7C/g/11b73kkp76%7Cen-ID,
hotel,hotel,RAFA HOTEL,"9MXC+PQ7, Vim, Kec. Abepura, Kota Jayapura, Papua","Kota Jayapura, Papua",PAPUA,,Indonesia,,,,-26.011.488,1.406.717.368,https://maps.google.com/?cid=0x0:0x18c6cc75351cda98,
hotel,hotel,,,,PAPUA,,Indonesia,,,,,,https://maps.google.com/?cid=0x0:0xbd14f75af0c6e48b%7C/g/120xv389%7Cen-ID,
hotel,Hotel bintang 4,"Swiss-Belhotel Jayapura, Papua","Pusat Bisnis Jayapura, Jl. Pacific Permai, Bayangkara, Kec. Jayapura Utara, Kota Jayapura, Papua 99112","Jl. Pacific Permai, Bayangkara, Kec. Jayapura Utara, Kota Jayapura",PAPUA,99112,Indonesia,0967551888,,,-2.539.046,140.711.573,https://maps.google.com/?cid=0x0:0xbd14f75af0c6e48b,
hotel,hotel,Hotel Suni Abepura,"Jl. Baru Ps. Lama Abepura, Wai Mhorock, Kec. Abepura, Kota Jayapura, Papua 99225","Wai Mhorock, Kec. Abepura, Kota Jayapura",PAPUA,99225,Indonesia,09675540888,,,-26.085.094,1.406.741.951,https://maps.google.com/?cid=0x0:0x53835df7d2648dc3,
hotel,hotel,HOTEL AINA,"CGM6+R9J, Jl. Raya Kemiri, Sentani Kota, Kec. Sentani, Kabupaten Jayapura, Papua","Kabupaten Jayapura, Papua",PAPUA,,Indonesia,085243960057,,,-25.654.218,1.405.108.844,https://maps.google.com/?cid=0x0:0xe10f3eb6fe778f83,
hotel,hotel,SIP Azana Hotel Jayapura,"Jl. Ahmad Yani No.50, Gurabesi, Kec. Jayapura Utara, Kota Jayapura, Papua 99221","Gurabesi, Kec. Jayapura Utara, Kota Jayapura",PAPUA,99221,Indonesia,082197886688,,,-25.436.754,1.407.014.241,https://maps.google.com/?cid=0x0:0xc311c59465e76f9e,
hotel,hotel,Horison Inn Relat Jayapura,"Jl. Pantai Klp. No.21 - 23, Argapura, Distrik Jayapura Selatan, Kota Jayapura, Papua","Kota Jayapura, Papua",PAPUA,,Indonesia,09675160779,,,-25.537.101,1.407.148.929,https://maps.google.com/?cid=0x0:0xb98fc1bbb5c5c494,
hotel,hotel,Permata Hotel,"Jl. Olahraga No.3, Gurabesi, Kec. Jayapura Utara, Kota Jayapura, Papua 99221","Gurabesi, Kec. Jayapura Utara, Kota Jayapura",PAPUA,99221,Indonesia,0967531333,,,-25.452.281,1.407.001.697,https://maps.google.com/?cid=0x0:0xd56ba4291eb9d456,
hotel,hotel,Edotel Yotefa View Jayapura,"JL. Soa Siu, No. 13, Dok V Bawah, Trikora, Jayaupura, Kota Jayapura, Papua","Kota Jayapura, Papua",PAPUA,,Indonesia,0967532044,,,-25.340.282,1.407.220.391,https://maps.google.com/?cid=0x0:0xa77bef3af66c00e6,
hotel,hotel,Numbay Hotel,"Jl. Trikora No.23, Dok V, Trikora, Kec. Jayapura Utara, Kota Jayapura, Papua 99114","Dok V, Trikora, Kec. Jayapura Utara, Kota Jayapura",PAPUA,99114,Indonesia,09675166939,,,-2.527.363,1.407.185.297,https://maps.google.com/?cid=0x0:0x2a95e5b69088c98d,
hotel,hotel,Hotel Mahavira I,"Karang Mulia, Distrik Nabire, Kabupaten Nabire, Papua 98811","Distrik Nabire, Kabupaten Nabire",PAPUA,98811,Indonesia,,,,-33.731.863,1.355.098.879,https://maps.google.com/?cid=0x0:0xeffead9206fb0816,
hotel,hotel,Galaxy Hotel Abepura,"Kp. Waena, Kec. Heram, Kota Jayapura, Papua 99351","Kec. Heram, Kota Jayapura",PAPUA,99351,Indonesia,081150500147,,,-25.944.039,1.406.254.198,https://maps.google.com/?cid=0x0:0xf9951793f247fc13,
hotel,hotel,Hotel Cenderawasih,"9MWC+2PV, kotaraja ( jln asrama haji.. gang jeruk, Vim, Kec. Abepura, Kota Jayapura, Papua 99225","kotaraja ( jln asrama haji.. gang jeruk, Vim, Kec. Abepura, Kota Jayapura",PAPUA,99225,Indonesia,081340933105,,,-26.048.775,1.406.717.939,https://maps.google.com/?cid=0x0:0xc3d595f47206b49c,
hotel,hotel,Hotel Mutiara,"CM3C+873, Jl. Perkutut, Vim, Kec. Abepura, Kota Jayapura, Papua 99225","Jl. Perkutut, Vim, Kec. Abepura, Kota Jayapura",PAPUA,99225,Indonesia,081348430963,,,-25.967.398,1.406.706.613,https://maps.google.com/?cid=0x0:0xb730b0fce1d80fe4,
hotel,hotel,Hotel Dafonsoro,"Jl. Percetakan Negara No.20-24, Gurabesi, Kec. Jayapura Utara, Kota Jayapura, Papua 99221","Gurabesi, Kec. Jayapura Utara, Kota Jayapura",PAPUA,99221,Indonesia,085788877739,,,-25.406.973,1.407.041.061,https://maps.google.com/?cid=0x0:0xda20a7d826a77577,
hotel,hotel,Hotel Viona,"Jalan, Argapura, Asei Kecil, Jayapura City, Papua 99351","Argapura, Asei Kecil, Jayapura City",PAPUA,99351,Indonesia,082198557373,,,-25.590.996,1.407.120.253,https://maps.google.com/?cid=0x0:0x991b43add0b147d8,
hotel,hotel,Penginapan Tigadara,"9JVV+QR6, Jl. Raya Abepura - Sentani, Hedam, Kec. Heram, Kota Jayapura, Papua 99351","Jl. Raya Abepura - Sentani, Hedam, Kec. Heram, Kota Jayapura",PAPUA,99351,Indonesia,02129707601,,,-26.054.842,1.406.444.514,https://maps.google.com/?cid=0x0:0xfad88aa10fa4bd31,
hotel,hotel,Srafa Inn,"Jl. Sriwijaya No.21, Brambaken, kamorfuar, Kabupaten Biak Numfor, Papua 98111","Brambaken, kamorfuar, Kabupaten Biak Numfor",PAPUA,98111,Indonesia,0981222662,,,-11.595.789,136.083.491,https://maps.google.com/?cid=0x0:0x64679ba26e556e55,
hotel,hotel,Hotel Rannu Jaya,"WW6V+7RM, Wamena Kota, Distrik Wamena, Kabupaten Jayawijaya, Papua 99511","Wamena Kota, Distrik Wamena, Kabupaten Jayawijaya",PAPUA,99511,Indonesia,082195455765,,,-40.892.985,1.389.445.592,https://maps.google.com/?cid=0x0:0xdd25cadd9590097a,
hotel,hotel,,,,PAPUA,,Indonesia,,,,,,https://maps.google.com/?cid=0x0:0x4a570626468e5935%7C/g/11qg28n36t%7Cen-ID,
hotel,hotel,Frontone Green Boutique Hotel,"Jl. Gerilyawan Jl. Bosnik BTN Kamkey No.111, Kamkey, Kec. Abepura, Kota Jayapura, Papua 99351","Kamkey, Kec. Abepura, Kota Jayapura",PAPUA,99351,Indonesia,0967585010,,,-26.140.146,1.406.711.964,https://maps.google.com/?cid=0x0:0x4a570626468e5935,
hotel,hotel,Mercure Jayapura,"Jl. Ahmad Yani No.12, Gurabesi, Kec. Jayapura Utara, Kota Jayapura, Papua 99111","Gurabesi, Kec. Jayapura Utara, Kota Jayapura",PAPUA,99111,Indonesia,09675161888,,,-25.425.064,1.407.031.376,https://maps.google.com/?cid=0x0:0x228d0b2bb9d7838c,
hotel,hotel,,,,PAPUA,,Indonesia,,,,,,https://maps.google.com/?cid=0x0:0x228d0b2bb9d7838c%7C/g/11fr6srn7h%7Cen-ID,
hotel,hotel,SIP Azana Hotel Jayapura,"Jl. Ahmad Yani No.50, Gurabesi, Kec. Jayapura Utara, Kota Jayapura, Papua 99221","Gurabesi, Kec. Jayapura Utara, Kota Jayapura",PAPUA,99221,Indonesia,082197886688,,,-25.436.754,1.407.014.241,https://maps.google.com/?cid=0x0:0xc311c59465e76f9e,
hotel,hotel,Hotel Jasmine Jayapura,"Jl. Percetakan Negara No.8, Gurabesi, Kec. Jayapura Utara, Kota Jayapura, Papua 99111","Gurabesi, Kec. Jayapura Utara, Kota Jayapura",PAPUA,99111,Indonesia,0967533222,,,-25.402.997,140.704.585,https://maps.google.com/?cid=0x0:0x264fddf9f68e3b33,
hotel,hotel,FOX Hotel Jayapura,"Jl. Dr. Soetomo No.16, Gurabesi, Kec. Jayapura Utara, Kota Jayapura, Papua 99111","Gurabesi, Kec. Jayapura Utara, Kota Jayapura",PAPUA,99111,Indonesia,09675164888,,,-25.446.156,1.407.012.529,https://maps.google.com/?cid=0x0:0xd6f39a8936229b37,
hotel,hotel,ASTON Jayapura Hotel  Convention Center,"Jl. Percetakan Negara No.50 - 58, Gurabesi, Kec. Jayapura Utara, Kota Jayapura, Papua 99111","Gurabesi, Kec. Jayapura Utara, Kota Jayapura",PAPUA,99111,Indonesia,0967537700,,,-25.412.731,1.407.031.631,https://maps.google.com/?cid=0x0:0x1a1d78b4fd358a65,
hotel,hotel,Front One Hotel Jayapura,"Kompleks Ruko Jayapura, Jl. Pacific Permai No.C 39, Bayangkara, Kec. Jayapura Utara, Kota Jayapura, Papua 99111","Jl. Pacific Permai No.C 39, Bayangkara, Kec. Jayapura Utara, Kota Jayapura",PAPUA,99111,Indonesia,08114802000,,,-25.381.168,1.407.118.967,https://maps.google.com/?cid=0x0:0x797c69e00bad39f2,
hotel,hotel,RedDoorz near Pelabuhan Jayapura,"Jl. Argapura, Asei Kecil, Argapura, Kota Jayapura, Papua","Kota Jayapura, Papua",PAPUA,,Indonesia,0895417300072,,,-25.590.985,1.407.120.248,https://maps.google.com/?cid=0x0:0xefe49bafd24daece,
hotel,hotel,Hotel New Season and Cafe,"Jl. Raya Abepura No.7, Entrop, Distrik Jayapura Selatan, Kota Jayapura, Papua 99223","Entrop, Distrik Jayapura Selatan, Kota Jayapura",PAPUA,99223,Indonesia,0967533715,,,-25.763.222,1.406.864.142,https://maps.google.com/?cid=0x0:0x4528213be5051091,
hotel,hotel,Hotel Sahid Papua,"Jl. Klp. 2 No.18, Entrop, Distrik Jayapura Selatan, Kota Jayapura, Papua 99221","Entrop, Distrik Jayapura Selatan, Kota Jayapura",PAPUA,99221,Indonesia,0811481167,,,-25.661.461,1.406.996.539,https://maps.google.com/?cid=0x0:0x9c8a2fd141b3aa33,
hotel,hotel,Pantai Base-G,"Tj. Ria, Kec. Jayapura Utara, Kota Jayapura, Papua","Kota Jayapura, Papua",PAPUA,,Indonesia,,,,-25.174.272,1.407.397.204,https://maps.google.com/?cid=0x0:0x9c239c300165aea7,
hotel,hotel,Swiss-Belhotel Merauke,"Jl. Raya Mandala No.53, Bambu Pemali, Kec. Merauke, Kabupaten Merauke, Papua 99616","Bambu Pemali, Kec. Merauke, Kabupaten Merauke",PAPUA,99616,Indonesia,0971326333,,,-85.040.683,1.403.988.254,https://maps.google.com/?cid=0x0:0x841b28b5dc2a0df4,
hotel,hotel,,,,PAPUA,,Indonesia,,,,,,https://maps.google.com/?cid=0x0:0x841b28b5dc2a0df4%7C/g/1hc4dxg0b%7Cen-ID,
hotel,hotel,CareInn Merauke,"Jalan Kampung Timur No. 234 Seringgu Jaya, Karang Indah, Kec. Merauke, Kabupaten Merauke, Papua 99614","Karang Indah, Kec. Merauke, Kabupaten Merauke",PAPUA,99614,Indonesia,08114819234,,,-84.925.218,1.403.895.443,https://maps.google.com/?cid=0x0:0x1680e44651cf459a,
hotel,hotel,Panda Hotel Merauke,"Jl. Noari, Karang Indah, Kec. Merauke, Kabupaten Merauke, Papua 99614","Karang Indah, Kec. Merauke, Kabupaten Merauke",PAPUA,99614,Indonesia,08114899881,,,-84.882.464,140.382.947,https://maps.google.com/?cid=0x0:0x86ece8f24ca9ca74,
hotel,hotel,Megaria Hotel,"Jl. Raya Mandala No.166, Mandala, Kec. Merauke, Kabupaten Merauke, Papua 99614","Mandala, Kec. Merauke, Kabupaten Merauke",PAPUA,99614,Indonesia,0971321932,,,-84.991.766,1.403.960.674,https://maps.google.com/?cid=0x0:0x72b744f6b30229f8,
hotel,Tujuan Wisata,Pantai Lampu Satu,"F9QH+H3G, Jl. Menara Lampu Satu, Samkai, Kec. Merauke, Kabupaten Merauke, Papua Selatan 99614","Jl. Menara Lampu Satu, Samkai, Kec. Merauke, Kabupaten Merauke",PAPUA,99614,Indonesia,,,,-85.110.648,1.403.777.131,https://maps.google.com/?cid=0x0:0x95e2d63b0f7f8492,
hotel,Hotel bintang 1,Employee Gate,"F9VX+R43, Gg. Gereja, Bambu Pemali, Kec. Merauke, Kabupaten Merauke, Papua 99615","Gg. Gereja, Bambu Pemali, Kec. Merauke, Kabupaten Merauke",PAPUA,99615,Indonesia,,,,-85.051.556,14.039.795,https://maps.google.com/?cid=0x0:0xb8daec40d63c3edc,
hotel,hotel,VNC Alam Sutera Hotel,"Jl. Pondok Jagung Timur Gg. Mawi, Paku Jaya, Kec. Serpong Utara, Kota Tangerang Selatan, Banten 15326","Paku Jaya, Kec. Serpong Utara, Kota Tangerang Selatan",PAPUA,15326,Indonesia,081112017677,,,-62.464.892,1.066.700.008,https://maps.google.com/?cid=0x0:0xae46c475f8f16736,
hotel,hotel,Derma Home Stay,"Alam Sutera, Ruko Demansion blok EF 21, Kunciran , Pinang, RT.004/RW.011, Kunciran, Kec. Pinang, Kota Tangerang, Banten 15143","Ruko Demansion blok EF 21, Kunciran , Pinang, RT.004/RW.011, Kunciran, Kec. Pinang, Kota Tangerang",PAPUA,15143,Indonesia,081807347597,,,-62.285.847,1.066.616.348,https://maps.google.com/?cid=0x0:0x5d32ce82bafb2c4a,
hotel,hotel,Benito Residence,"Dekat Omni Alam Sutera, JL. Wates, No. 3 Km. 8, Pondok Jagung, Serpong, Tangerang, Kota Tangerang Selatan, Banten","Kota Tangerang Selatan, Banten",PAPUA,,Indonesia,081806565190,,,-62.531.587,1.066.519.644,https://maps.google.com/?cid=0x0:0xe2bd71b1aa1d3059,
hotel,hotel,Escotel Amazana by Reccoma,"Jl. Jelupang Raya No.75, Jelupang, Kec. Serpong Utara, Kota Tangerang Selatan, Banten 15323","Jelupang, Kec. Serpong Utara, Kota Tangerang Selatan",PAPUA,15323,Indonesia,085704758588,,,-62.666.387,1.066.714.458,https://maps.google.com/?cid=0x0:0x1cbfa6f4c0276f5e,
hotel,hotel,Marilyn Hotel Serpong,"Jl. Raya Serpong Kilometer 7 No.1, Pakulonan, Kec. Serpong Utara, Kota Tangerang Selatan, Banten 15325","Pakulonan, Kec. Serpong Utara, Kota Tangerang Selatan",PAPUA,15325,Indonesia,02153123988,,,-62.481.918,1.066.493.835,https://maps.google.com/?cid=0x0:0x75af3b8af6d1036a,
hotel,hotel,Amaris Hotel Serpong Tangerang,"Jl. Raya Serpong Kilometer 7 No.91-92, Pd. Jagung, Kec. Serpong Utara, Kota Tangerang Selatan, Banten 15326","Pd. Jagung, Kec. Serpong Utara, Kota Tangerang Selatan",PAPUA,15326,Indonesia,02129672200,,,-62.646.024,1.066.547.966,https://maps.google.com/?cid=0x0:0xa357f347aef3a872,
hotel,hotel,SUPER OYO Townhouse OAK Hotel Fiducia Serpong,"12, Jl. Raya Serpong No.12, Jelupang Kota Tangerang Selatan, Banten, Tangerang Hotel near Taman Tirta Golf Sektor 5 200m, Tangerang, Banten 15310","Jl. Raya Serpong No.12, Jelupang Kota Tangerang Selatan, Banten, Tangerang Hotel near Taman Tirta Golf Sektor 5 200m, Tangerang",PAPUA,15310,Indonesia,02129707601,,,-62.671.602,1.066.548.253,https://maps.google.com/?cid=0x0:0x70113099c6acbd5a,
hotel,hotel,LIVING KOST,"Jl. Pondok Jagung Timur No.26, Pd. Jagung Tim., Kec. Serpong Utara, Kota Tangerang Selatan, Banten 15326","Pd. Jagung Tim., Kec. Serpong Utara, Kota Tangerang Selatan",PAPUA,15326,Indonesia,0895417300072,,,-62.450.445,1.066.700.806,https://maps.google.com/?cid=0x0:0x1dd63110eda0b842,
hotel,Museum Sejarah Lokal,Monumen Nasional,"Merdeka Square, Jalan Lapangan Monas, Gambir, Kecamatan Gambir, Kota Jakarta Pusat, Daerah Khusus Ibukota Jakarta 10110","Jalan Lapangan Monas, Gambir, Kecamatan Gambir, Kota Jakarta Pusat",PAPUA,10110,Indonesia,0213853040,,,-61.753.924,1.068.271.528,https://maps.google.com/?cid=0x0:0x3d2ad6e1e0e9bcc8,
hotel,Perhentian bus,Perumahan Flamboyan Loka,"Paku Jaya, Kec. Serpong Utara, Kota Tangerang Selatan, Banten","Kota Tangerang Selatan, Banten",PAPUA,,Indonesia,,,,-624.523,10.667.194,https://maps.google.com/?cid=0x0:0x16977865b71ea58d,
hotel,Pengembang Realestat,Waringin Hospitality Hotel Group,"Jl. Kesehatan No.22, RT.10/RW.5, Petojo Sel., Kecamatan Gambir, Kota Jakarta Pusat, Daerah Khusus Ibukota Jakarta 10160","RT.10/RW.5, Petojo Sel., Kecamatan Gambir, Kota Jakarta Pusat",PAPUA,10160,Indonesia,0213863910,,,-61.735.731,1.068.154.206,https://maps.google.com/?cid=0x0:0x9c995e25ba580b82,
hotel,hotel,Papua 98913,"Kabupaten Puncak Jaya, Papua","Kabupaten Puncak Jaya, Papua",PAPUA,,Indonesia,,,,-34.610.775,1.378.229.754,https://maps.google.com/?cid=0x0:0x12db5455263a30a5,
hotel,hotel,Hotel R6,"Jl.Cendrawasih SP2, Papua 99952","Kabupaten Mimika, Papua",PAPUA,,Indonesia,082245112457,,,-4.538.464,1.368.691.429,https://maps.google.com/?cid=0x0:0xb392d58fbaabfb69,
hotel,hotel,Rimba Papua Hotel,"Jl. Kwamki Narama No. 1, Kwamki, Kec. Mimika Baru, Kabupaten Mimika, Papua 99971","Kwamki, Kec. Mimika Baru, Kabupaten Mimika",PAPUA,99971,Indonesia,0901494949,,,-45.151.124,136.884.599,https://maps.google.com/?cid=0x0:0xa65056700db32492,
hotel,hotel,Numbay Hotel,"Jl. Trikora No.23, Dok V, Trikora, Kec. Jayapura Utara, Kota Jayapura, Papua 99114","Dok V, Trikora, Kec. Jayapura Utara, Kota Jayapura",PAPUA,99114,Indonesia,09675166939,,,-2.527.363,1.407.185.297,https://maps.google.com/?cid=0x0:0x2a95e5b69088c98d,
hotel,hotel,Penginapan Paparisa Amungsa,"Koperapoka, Kec. Mimika Baru, Kabupaten Mimika, Papua 99971","Kec. Mimika Baru, Kabupaten Mimika",PAPUA,99971,Indonesia,081343206383,,,-45.385.795,1.368.755.667,https://maps.google.com/?cid=0x0:0xfd07a1d4446c8f23,
hotel,hotel,Hotel Sawitto 1,"FV4V+3QV, Timika Jaya, Kec. Mimika Baru, Kabupaten Mimika, Papua 99971","Timika Jaya, Kec. Mimika Baru, Kabupaten Mimika",PAPUA,99971,Indonesia,,,,-45.447.575,1.368.944.296,https://maps.google.com/?cid=0x0:0xa49800860bcb43de,
hotel,hotel,Distrik Yamo,"Kabupaten Puncak Jaya, Papua","Kabupaten Puncak Jaya, Papua",PAPUA,,Indonesia,,,,-36.556.591,1.379.780.297,https://maps.google.com/?cid=0x0:0xb729b64c2b9ca514,
hotel,hotel,Wisma Joyo,"CC2G+PV3, Kaliurang, Hargobinangun, Kec. Pakem, Kabupaten Sleman, Daerah Istimewa Yogyakarta 55582","Kaliurang, Hargobinangun, Kec. Pakem, Kabupaten Sleman",PAPUA,55582,Indonesia,,,,-75.982.474,1.104.271.592,https://maps.google.com/?cid=0x0:0xc01fd41b85de0fda,
hotel,hotel,Gunung Merapi,"Dusun 2, Suroteleng, Kec. Selo, Kabupaten Boyolali, Jawa Tengah","Kabupaten Boyolali, Jawa Tengah",PAPUA,,Indonesia,,,,-75.407.175,1.104.457.241,https://maps.google.com/?cid=0x0:0xe92612624cad8800,
hotel,Bandara Domestik,Bandar Udara Internasional Yogyakarta,"Area Kebun, Palihan, Kec. Temon, Kabupaten Kulon Progo, Daerah Istimewa Yogyakarta 55654","Palihan, Kec. Temon, Kabupaten Kulon Progo",PAPUA,55654,Indonesia,02744606072,,,-7.903.869,1.100.573.216,https://maps.google.com/?cid=0x0:0x53f3289baac373ed,
hotel,hotel,Super OYO 710 Naomi Heritage,"Jl. Simpang Darmo Permai Utara II No.29, Lontar, Kec. Sambikerep, Surabaya, Jawa Timur 60188","Lontar, Kec. Sambikerep, Surabaya",PAPUA,60188,Indonesia,02129707601,,,-72.768.118,1.126.824.958,https://maps.google.com/?cid=0x0:0xd59e85725d37b4f6,
hotel,hotel,,,,PAPUA,,Indonesia,,,,,,https://maps.google.com/?cid=0x0:0xd59e85725d37b4f6%7C/g/11fmqcblkc%7Cen-ID,
hotel,Jasa Kereta Api,Tandes,"Jl. Raya Tandes Lor, Tandes Kidul, Kec. Tandes, Surabaya, Jawa Timur 60186","Tandes Kidul, Kec. Tandes, Surabaya",PAPUA,60186,Indonesia,,,,-72.589.993,112.687.039,https://maps.google.com/?cid=0x0:0x9ad9b5fd309d2c8a,
hotel,Wahana Taman Hiburan,Kebun Binatang Surabaya / Surabaya Zoo,"Jl. Setail No.1, Darmo, Kec. Wonokromo, Surabaya, Jawa Timur 60241","Darmo, Kec. Wonokromo, Surabaya",PAPUA,60241,Indonesia,0315678703,,,-7.296.163,1.127.366.473,https://maps.google.com/?cid=0x0:0x21b1122d5fe174cc,
hotel,hotel,Capital O 91750 Mashroom Linpro Basura,"45 Mall@Bassura, Gang Jeruk Timur Dalam VII, RW.2, Cipinang Besar Utara, Jatin, Jakarta, Daerah Khusus Ibukota Jakarta 13410","Gang Jeruk Timur Dalam VII, RW.2, Cipinang Besar Utara, Jatin, Jakarta",PAPUA,13410,Indonesia,02129707601,,,-62.240.345,1.068.787.947,https://maps.google.com/?cid=0x0:0x91792f48f112c9ae,
hotel,hotel,Torere,"Kabupaten Puncak Jaya, Papua","Kabupaten Puncak Jaya, Papua",PAPUA,,Indonesia,,,,-35.998.259,1.381.002.024,https://maps.google.com/?cid=0x0:0x65d2ab9e46a053d3,
hotel,hotel,Hotel Musi Entrop,"Entrop, Distrik Jayapura Selatan, Kota Jayapura, Papua 99221","Distrik Jayapura Selatan, Kota Jayapura",PAPUA,99221,Indonesia,0895417300072,,,-25.754.909,1.406.909.951,https://maps.google.com/?cid=0x0:0x20e691e9ad57b566,
hotel,hotel,Hotel R6,"Jl.Cendrawasih SP2, Papua 99952","Kabupaten Mimika, Papua",PAPUA,,Indonesia,082245112457,,,-4.538.464,1.368.691.429,https://maps.google.com/?cid=0x0:0xb392d58fbaabfb69,
hotel,hotel,Hotel Anggrek,"Jl. Ambon No.1, Wamena Kota, Distrik Wamena, Kabupaten Jayawijaya, Papua 99511","Wamena Kota, Distrik Wamena, Kabupaten Jayawijaya",PAPUA,99511,Indonesia,,,,-40.951.401,1.389.486.951,https://maps.google.com/?cid=0x0:0x8c14510cd7032458,
hotel,hotel,Hotel Rannu Jaya,"WW6V+7RM, Wamena Kota, Distrik Wamena, Kabupaten Jayawijaya, Papua 99511","Wamena Kota, Distrik Wamena, Kabupaten Jayawijaya",PAPUA,99511,Indonesia,082195455765,,,-40.892.985,1.389.445.592,https://maps.google.com/?cid=0x0:0xdd25cadd9590097a,
hotel,hotel,Hotel Karya Papua,"JGX6+2PM, Jl. R.E. Martadinata Kalinona, Nabarua, Distrik Nabire, Papua 98816","Jl. R.E. Martadinata Kalinona, Nabarua, Distrik Nabire",PAPUA,98816,Indonesia,082164655697,,,-33.524.082,1.355.118.114,https://maps.google.com/?cid=0x0:0x8196bf4b8aafbb3f,
hotel,hotel,Torere,"Bay of Plenty Region 3197, Selandia Baru","Torere, Selandia Baru",PAPUA,,Indonesia,,,,-379.498.316,1.774.895.869,https://maps.google.com/?cid=0x0:0x500ef6143a31000,
hotel,hotel,Royal Hotel Opotiki,"102 Church Street, Opotiki 3122, Selandia Baru","Opotiki, Selandia Baru",PAPUA,,Indonesia,6421527218,,,-380.060.724,177.284.757,https://maps.google.com/?cid=0x0:0x7584cae906917cd,
hotel,hotel,Opotiki Holiday Park,"39 Potts Avenue, Opotiki 3122, Selandia Baru","Opotiki, Selandia Baru",PAPUA,,Indonesia,6473156050,,,-38.002.304,17.728.351,https://maps.google.com/?cid=0x0:0x33603c919359c5d1,
hotel,hotel,Eastland Pacific Motor Lodge,"44 Saint John Street, Opotiki 3122, Selandia Baru","Opotiki, Selandia Baru",PAPUA,,Indonesia,6473155524,,,-380.117.983,177.287.341,https://maps.google.com/?cid=0x0:0x22bafc43e7f28480,
hotel,hotel,Magnolia Court Motel,"63 Bridge Street, Opotiki 3122, Selandia Baru","Opotiki, Selandia Baru",PAPUA,,Indonesia,6473158490,,,-380.121.415,177.282.543,https://maps.google.com/?cid=0x0:0x692e9d2cd7220fca,
hotel,hotel,Tirohanga Beach Holiday Park,"743 SHW 35, Opotiki 3197, Selandia Baru","Opotiki, Selandia Baru",PAPUA,,Indonesia,6473157942,,,-37.988.755,177.351.865,https://maps.google.com/?cid=0x0:0x3087c0eb5d294396,
hotel,hotel,Capeview Cottage,"167 Tablelands Road, Opotiki 3197, Selandia Baru","Opotiki, Selandia Baru",PAPUA,,Indonesia,6473157877,,,-380.038.021,1.773.233.616,https://maps.google.com/?cid=0x0:0x947be1b036a76e07,
hotel,hotel,Opape Motor Camp,"7 Opape Beach Road, Opotiki 3197, Selandia Baru","Opotiki, Selandia Baru",PAPUA,,Indonesia,64211232971,,,-379.802.895,177.420.058,https://maps.google.com/?cid=0x0:0x6bd34e5538cf1f25,
hotel,hotel,Island View Holiday Park,"6 Appleton Road, Opotiki 3198, Selandia Baru","Opotiki, Selandia Baru",PAPUA,,Indonesia,6473157519,,,-37.992.095,177.243.461,https://maps.google.com/?cid=0x0:0xeef7471e58238cca,
hotel,hotel,Ranui Motel,"36 Bridge Street, Opotiki 3122, Selandia Baru","Opotiki, Selandia Baru",PAPUA,,Indonesia,6473156669,,,-380.124.411,1.772.788.052,https://maps.google.com/?cid=0x0:0xd5141a9de98bcf1c,
hotel,hotel,Motu Trails Ltd,"138 Saint John Street, Opotiki 3122, Selandia Baru","Opotiki, Selandia Baru",PAPUA,,Indonesia,6473155864,,,-380.028.038,177.287.918,https://maps.google.com/?cid=0x0:0xab4d79048df4f84f,
hotel,hotel,Soleil,"2/3 Bairds Road, Opotiki 3198, Selandia Baru","Opotiki, Selandia Baru",PAPUA,,Indonesia,6473158885,,,-380.060.046,1.772.673.208,https://maps.google.com/?cid=0x0:0x4668a8de7d94e364,
hotel,hotel,Central Oasis Backpackers,"30 King Street, Opotiki 3122, Selandia Baru","Opotiki, Selandia Baru",PAPUA,,Indonesia,6473155165,,,-380.064.348,1.772.853.991,https://maps.google.com/?cid=0x0:0x6a5b5b3daba734e0,
hotel,hotel,Kowhai Rest,"106 Grant Road, Opotiki 3122, Selandia Baru","Opotiki, Selandia Baru",PAPUA,,Indonesia,6473155365,,,-380.277.565,1.772.662.953,https://maps.google.com/?cid=0x0:0x679b4ebfb264ecab,
hotel,hotel,Bushaven and Motu Trails Hire and Shuttle,"Opotiki 3197, Selandia Baru","Opotiki, Selandia Baru",PAPUA,,Indonesia,6479297564,,,-38.130.311,177.393.826,https://maps.google.com/?cid=0x0:0x945874ffc01dae1f,
hotel,hotel,Driftwood Rest - Opotiki accommodation,"23 Hukutaia Road, Opotiki 3122, Selandia Baru","Opotiki, Selandia Baru",PAPUA,,Indonesia,64279559939,,,-38.017.002,1.772.663.631,https://maps.google.com/?cid=0x0:0x2ba5280d96e6b6fa,
hotel,hotel,Papua 98912,"Mewoluk, Kabupaten Puncak Jaya, Papua","Kabupaten Puncak Jaya, Papua",PAPUA,,Indonesia,,,,-36.504.476,1.379.020.367,https://maps.google.com/?cid=0x0:0x8fdf1a31f83b56f2,
hotel,hotel,Hotel Sahid Papua,"Jl. Klp. 2 No.18, Entrop, Distrik Jayapura Selatan, Kota Jayapura, Papua 99221","Entrop, Distrik Jayapura Selatan, Kota Jayapura",PAPUA,99221,Indonesia,0811481167,,,-25.661.461,1.406.996.539,https://maps.google.com/?cid=0x0:0x9c8a2fd141b3aa33,
hotel,hotel,,,,PAPUA,,Indonesia,,,,,,https://maps.google.com/?cid=0x0:0x9c8a2fd141b3aa33%7C/g/11b73kkp76%7Cen-ID,
hotel,hotel,Hotel Mutiara,"CM3C+873, Jl. Perkutut, Vim, Kec. Abepura, Kota Jayapura, Papua 99225","Jl. Perkutut, Vim, Kec. Abepura, Kota Jayapura",PAPUA,99225,Indonesia,081348430963,,,-25.967.398,1.406.706.613,https://maps.google.com/?cid=0x0:0xb730b0fce1d80fe4,
hotel,hotel,Kec. Tingginambut,"Kabupaten Puncak Jaya, Papua","Kabupaten Puncak Jaya, Papua",PAPUA,,Indonesia,,,,-37.064.439,138.093.446,https://maps.google.com/?cid=0x0:0x41dfbdd60c9aaf97,
hotel,Hotel,Moder Muara,"64HW+843, Melekom, Kec. Tingginambut, Kabupaten Puncak Jaya, Papua 99563","Melekom, Kec. Tingginambut, Kabupaten Puncak Jaya",PAPUA,99563,Indonesia,,,,-37.717.391,1.381.452.991,https://maps.google.com/?cid=0x0:0x73999d9fe085cdec,
hotel,Rumah wisata,Hotel Moro Seneng,"73VV+F76, Kalome / Pagargom, Kec. Tingginambut, Kabupaten Puncak Jaya, Papua 99563","Kalome / Pagargom, Kec. Tingginambut, Kabupaten Puncak Jaya",PAPUA,99563,Indonesia,,,,-37.063.461,1.380.931.362,https://maps.google.com/?cid=0x0:0x1110bde92e0b739,
hotel,Hotel,Red Wam Hotel,"7XX7+9F6, Wuyukwi, Distrik Mulia, Kabupaten Puncak Jaya, Papua 98973","Wuyukwi, Distrik Mulia, Kabupaten Puncak Jaya",PAPUA,98973,Indonesia,,,,-37.007.924,1.379.638.568,https://maps.google.com/?cid=0x0:0x3941752a3906fe3b,
restaurant,restaurant,Papua 98972,Papua,Papua,PAPUA,,Indonesia,,,,-3.921.968,1.375.275.422,https://maps.google.com/?cid=0x0:0x765d582b762840f7,
restaurant,Restoran,Melati Messhall,"V35R+6PC, Arwandop, Kec. Tembagapura, Kabupaten Mimika, Papua 98972","Arwandop, Kec. Tembagapura, Kabupaten Mimika",PAPUA,98972,Indonesia,,,,-41.419.323,1.370.917.683,https://maps.google.com/?cid=0x0:0xcec4b3671f663e0f,
restaurant,Restoran,Noken Cafe by Primo,"V34Q+XXH, Tembagapura, Arwandop, Tembagapura, Kec. Tembagapura, Kabupaten Mimika, Papua 99967","Tembagapura, Arwandop, Tembagapura, Kec. Tembagapura, Kabupaten Mimika",PAPUA,99967,Indonesia,,,,-41.425.625,1.370.899.844,https://maps.google.com/?cid=0x0:0xaed48ea0d834fa7a,
restaurant,Restoran,Mawar Mess Hall Tembagapura,"V35V+9H5, Arwandop, Tembagapura, Kec. Tembagapura, Kabupaten Mimika, Papua 98972","Arwandop, Tembagapura, Kec. Tembagapura, Kabupaten Mimika",PAPUA,98972,Indonesia,082111651875,,,-41.416.131,1.370.939.934,https://maps.google.com/?cid=0x0:0xd853c8435a0e135e,
restaurant,Padang,RM SUMBER HARAPAN,"2JGV+G2W, Kimak, Ilaga, Kabupaten Puncak, Papua 98972","Kimak, Ilaga, Kabupaten Puncak",PAPUA,98972,Indonesia,081233446661,,,-39.736.329,1.376.425.868,https://maps.google.com/?cid=0x0:0xb3aaf5e8234f9b88,
restaurant,China,KOPS RESTO TPRA,"V34R+QXH, Jl. Tembagapura Raya, Tembagapura, Kec. Tembagapura, Kabupaten Mimika, Papua 99967","Jl. Tembagapura Raya, Tembagapura, Kec. Tembagapura, Kabupaten Mimika",PAPUA,99967,Indonesia,,,,-4.143.062,1.370.924.871,https://maps.google.com/?cid=0x0:0x6bb2b4db62e6d0f9,
restaurant,Restoran,New Kenanga Mess Hall,"Tembagapura, Mimika Regency, Papua 98972",Mimika Regency,PAPUA,98972,Indonesia,,,,-41.099.385,1.370.999.715,https://maps.google.com/?cid=0x0:0xc5816325edeb9bea,
restaurant,Bar,Lupa Lelah Club,"V35Q+3C5, Tembagapura, Arwandop, Tembagapura, Kec. Tembagapura, Kabupaten Mimika, Papua 98972","Tembagapura, Arwandop, Tembagapura, Kec. Tembagapura, Kabupaten Mimika",PAPUA,98972,Indonesia,0901464294,,,-41.423.686,1.370.886.127,https://maps.google.com/?cid=0x0:0x34b42bf7fb4e9af2,
restaurant,Gedung Apartemen,Coffee Shop Hidden Valley,"R3WX+49M, Arwandop, Kec. Tembagapura, Kabupaten Mimika, Papua 99967","Arwandop, Kec. Tembagapura, Kabupaten Mimika",PAPUA,99967,Indonesia,0901466406,,,-4.154.668,1.370.984.148,https://maps.google.com/?cid=0x0:0x19897cfa42d33d8a,
restaurant,Restoran,So Yummy Resto,"FV3Q+QR9, Kwamki, Kec. Mimika Baru, Kabupaten Mimika, Papua 99971","Kwamki, Kec. Mimika Baru, Kabupaten Mimika",PAPUA,99971,Indonesia,081240005760,,,-45.455.973,1.368.896.159,https://maps.google.com/?cid=0x0:0xad18f6a2fb6ee6f8,
restaurant,Dapur Umum,Warung Segman,"7XX7+2Q7, Wuyukwi, Distrik Mulia, Kabupaten Puncak Jaya, Papua 98973","Wuyukwi, Distrik Mulia, Kabupaten Puncak Jaya",PAPUA,98973,Indonesia,085244167861,,,-37.025.417,1.379.644.578,https://maps.google.com/?cid=0x0:0xb70d2a8b2b6767b,
restaurant,Kedai Kopi,Maxx Coffee Tembagapura,"Tembagapura, Kec. Tembagapura, Kabupaten Mimika, Papua 98972","Kec. Tembagapura, Kabupaten Mimika",PAPUA,98972,Indonesia,,,,-41.424.586,1.370.899.319,https://maps.google.com/?cid=0x0:0x9ef773c4f6fba9d3,
restaurant,restaurant,warung mie ayam cak budi,"W77P+FMJ, Tembagapura, Kec. Tembagapura, Kabupaten Mimika, Papua","Kabupaten Mimika, Papua",PAPUA,,Indonesia,,,,-408.628,1.372.866.321,https://maps.google.com/?cid=0x0:0xc1358f4b16d1285f,
restaurant,Gedung Apartemen,BQ Garden,"V34R+WWC, Tembagapura, Kec. Tembagapura, Kabupaten Mimika, Papua 98972","Tembagapura, Kec. Tembagapura, Kabupaten Mimika",PAPUA,98972,Indonesia,,,,-41.426.947,1.370.922.812,https://maps.google.com/?cid=0x0:0xb263d7123a3738cc,
restaurant,Pusat Perbelanjaan,Shopping Family Tembagapura,"V34Q+XXH, Tembagapura, Arwandop, Tembagapura, Kec. Tembagapura, Kabupaten Mimika, Papua 99967","Tembagapura, Arwandop, Tembagapura, Kec. Tembagapura, Kabupaten Mimika",PAPUA,99967,Indonesia,,,,-41.425.625,1.370.899.844,https://maps.google.com/?cid=0x0:0x23ff3f0a601439a2,
restaurant,restaurant,Warung Makan Rabi Puan,"2JHV+8M, Kimak, Ilaga, Kabupaten Puncak, Papua","Kabupaten Puncak, Papua",PAPUA,,Indonesia,,,,-39.716.314,137.644.182,https://maps.google.com/?cid=0x0:0xa3e36c1fa42c61cd,
restaurant,restaurant,Warung Sederhana,"2JGV+G2W, Kimak, Ilaga, Kabupaten Puncak, Papua 98972","Kimak, Ilaga, Kabupaten Puncak",PAPUA,98972,Indonesia,,,,-39.730.017,1.376.427.705,https://maps.google.com/?cid=0x0:0x96052f20dcdc4eb2,
restaurant,Pusat Perbelanjaan,Superblock Agawaa Ogom Plaza,"V4R2+634, Arwandop, Kec. Tembagapura, Kabupaten Mimika, Papua 98972","Arwandop, Kec. Tembagapura, Kabupaten Mimika",PAPUA,98972,Indonesia,,,,-41.094.796,1.371.002.072,https://maps.google.com/?cid=0x0:0x17e8f3255a557911,
restaurant,Komplek perumahan,Hidden Valley Playground,"R3WX+487, Arwandop, Kec. Tembagapura, Kabupaten Mimika, Papua 99967","Arwandop, Kec. Tembagapura, Kabupaten Mimika",PAPUA,99967,Indonesia,,,,-41.547.035,1.370.982.867,https://maps.google.com/?cid=0x0:0x188e55ffe36e1a60,
restaurant,Dapur Umum,Kitchen Home,"Jl. Batu Ampar V, RT/RW 07/05.31, Dibelakang No.5, Kec. Kramat jati, Kota Jakarta Timur, Daerah Khusus Ibukota Jakarta 13520","RT/RW 07/05.31, Dibelakang No.5, Kec. Kramat jati, Kota Jakarta Timur",PAPUA,13520,Indonesia,081807436603,,,-6.279.477,106.864.074,https://maps.google.com/?cid=0x0:0xef03eaac570da2bd,
restaurant,,home,"Jl. Kesatrian X No.5 14, RT.14/RW.3, Kb. Manggis, Kec. Matraman, Kota Jakarta Timur, Daerah Khusus Ibukota Jakarta 13150","RT.14/RW.3, Kb. Manggis, Kec. Matraman, Kota Jakarta Timur",PAPUA,13150,Indonesia,,,,-62.065.924,1.068.503.164,https://maps.google.com/?cid=0x0:0x26363c56cdcb0ae6,
restaurant,Dapur Umum,Restu home,"Jl.petogogan 1 RT003/RW012, RT.3/RW.no 39, Gandaria Utara, Kec. Kby. Baru, Kota Jakarta Selatan, Daerah Khusus Ibukota Jakarta 12140","RT.3/RW.no 39, Gandaria Utara, Kec. Kby. Baru, Kota Jakarta Selatan",PAPUA,12140,Indonesia,08994228538,,,-62.539.516,1.067.936.618,https://maps.google.com/?cid=0x0:0xc3da5dccbdaf70b9,
restaurant,Restoran,Home Resto Sukatani,"JV3J+7G4, Sukatani, Kec. Tapos, Kota Depok, Jawa Barat 16454","Sukatani, Kec. Tapos, Kota Depok",PAPUA,16454,Indonesia,,,,-63.968.653,106.881.323,https://maps.google.com/?cid=0x0:0x4b48dc449cb8ad14,
restaurant,Dapur Umum,Home Kitchen,"Gg. H. Leman No.9-96, RT.9/RW.9, Kby. Lama Sel., Kec. Kby. Lama, Kota Jakarta Selatan, Daerah Khusus Ibukota Jakarta 12240","RT.9/RW.9, Kby. Lama Sel., Kec. Kby. Lama, Kota Jakarta Selatan",PAPUA,12240,Indonesia,087833630614,,,-62.578.513,1.067.823.864,https://maps.google.com/?cid=0x0:0x71f0c842c3b73a0f,
restaurant,Sesuai untuk keluarga,Home,"Jl. H. Sidin II No.53, RT.3/RW.7, Duren Sawit, Kec. Duren Sawit, Kota Jakarta Timur, Daerah Khusus Ibukota Jakarta 13440","RT.3/RW.7, Duren Sawit, Kec. Duren Sawit, Kota Jakarta Timur",PAPUA,13440,Indonesia,,,,-62.437.447,1.069.185.264,https://maps.google.com/?cid=0x0:0xca98262bf603e9aa,
restaurant,Restoran,House 89 Restaurant  Cafe,"Jl. Tanjung Duren Barat IV No.1, RT.1/RW.5, Tj. Duren Utara, Kec. Grogol petamburan, Kota Jakarta Barat, Daerah Khusus Ibukota Jakarta 11470","RT.1/RW.5, Tj. Duren Utara, Kec. Grogol petamburan, Kota Jakarta Barat",PAPUA,11470,Indonesia,08111953989,,,-61.780.382,1.067.802.745,https://maps.google.com/?cid=0x0:0x7911f08ce36ac3e5,
restaurant,Dapur Umum,New Home Town Restaurant,"Jl. Labu No.10, Mangga Besar, Kec. Taman Sari, Kota Jakarta Barat, Daerah Khusus Ibukota Jakarta 11180","Mangga Besar, Kec. Taman Sari, Kota Jakarta Barat",PAPUA,11180,Indonesia,0216280716,,,-61.471.498,106.817.993,https://maps.google.com/?cid=0x0:0x855f0ad1bdccb79f,
restaurant,Sesuai untuk keluarga,Dans Home,"8, Jl. Bangka II No.20, RT.8/RW.1, Pela Mampang, Kec. Mampang Prpt., Kota Jakarta Selatan, Daerah Khusus Ibukota Jakarta 12720","Jl. Bangka II No.20, RT.8/RW.1, Pela Mampang, Kec. Mampang Prpt., Kota Jakarta Selatan",PAPUA,12720,Indonesia,,,,-62.432.553,1.068.180.096,https://maps.google.com/?cid=0x0:0x4073f8290fa0435c,
restaurant,Restoran,Home Resto,"Jl. Nn No.12, RT.001/RW.004, Gembor, Kec. Periuk, Kota Tangerang, Banten 15133","RT.001/RW.004, Gembor, Kec. Periuk, Kota Tangerang",PAPUA,15133,Indonesia,,,,-61.729.224,1.065.812.235,https://maps.google.com/?cid=0x0:0x5194e7563496fcc6,
restaurant,restaurant,Papua 98911,"Kabupaten Puncak Jaya, Papua","Kabupaten Puncak Jaya, Papua",PAPUA,,Indonesia,,,,-35.879.887,1.377.538.931,https://maps.google.com/?cid=0x0:0x87fbe061dff44735,
restaurant,Italia,il Mare,"Jl. Asia Afrika, RT.1/RW.3, Gelora, Kecamatan Tanah Abang, Senayan, Daerah Khusus Ibukota Jakarta 10270","RT.1/RW.3, Gelora, Kecamatan Tanah Abang, Senayan",PAPUA,10270,Indonesia,0215747777,,,-62.153.407,1.067.975.001,https://maps.google.com/?cid=0x0:0x4ebd48aeeb02f8e4,
restaurant,Mesin Sangrai Kopi,Alenia Papua Coffee  Kitchen,"Jl. Kemang Raya No.66 B 8, RT.8/RW.2, Bangka, Kec. Mampang Prpt., Kota Jakarta Selatan, Daerah Khusus Ibukota Jakarta 12730","RT.8/RW.2, Bangka, Kec. Mampang Prpt., Kota Jakarta Selatan",PAPUA,12730,Indonesia,02171790141,,,-62.638.119,1.068.158.777,https://maps.google.com/?cid=0x0:0xe49807fcfab68b48,
restaurant,Padang,RM Puja Selera,"7XPJ+MC5, Unnamed Road, Pruleme, Distrik Mulia, Kabupaten Puncak Jaya, Papua 98973","Unnamed Road, Pruleme, Distrik Mulia, Kabupaten Puncak Jaya",PAPUA,98973,Indonesia,,,,-37.133.572,1.379.811.015,https://maps.google.com/?cid=0x0:0x5c5a8ec894f8337c,
restaurant,Jepang,Edogin,"Jl. Asia Afrika, Senayan, Kecamatan Tanah Abang, Kota Jakarta Pusat, Daerah Khusus Ibukota Jakarta 10270","Senayan, Kecamatan Tanah Abang, Kota Jakarta Pusat",PAPUA,10270,Indonesia,0215753274,,,-62.151.383,1.067.970.056,https://maps.google.com/?cid=0x0:0x7a6f43dc1d1d2214,
restaurant,Restoran,So Yummy Resto,"FV3Q+QR9, Kwamki, Kec. Mimika Baru, Kabupaten Mimika, Papua 99971","Kwamki, Kec. Mimika Baru, Kabupaten Mimika",PAPUA,99971,Indonesia,081240005760,,,-45.455.973,1.368.896.159,https://maps.google.com/?cid=0x0:0xad18f6a2fb6ee6f8,
restaurant,Rumah Makan,RestoCafe Rumah Laut,"Jl. Koti, Numbai, Distrik Jayapura Selatan, Kota Jayapura, Papua 99222","Numbai, Distrik Jayapura Selatan, Kota Jayapura",PAPUA,99222,Indonesia,09675160842,,,-25.443.152,1.407.078.561,https://maps.google.com/?cid=0x0:0xa0b850e17d17f09d,
restaurant,Masakan Asia,RM Kuala Oriental,"Jl. Budi Utomo No.88A, Kwamki, Kec. Mimika Baru, Kabupaten Mimika, Papua 99971","Kwamki, Kec. Mimika Baru, Kabupaten Mimika",PAPUA,99971,Indonesia,081224989888,,,-45.432.787,1.368.840.215,https://maps.google.com/?cid=0x0:0xa200bb016a6f04d5,
restaurant,Padang,R.M MINANG JAYA,"Jl. Mulia gambut, kota lama, Distrik Mulia, Kabupaten Puncak Jaya, Papua 98915","kota lama, Distrik Mulia, Kabupaten Puncak Jaya",PAPUA,98915,Indonesia,081346313708,,,-37.000.817,1.379.667.389,https://maps.google.com/?cid=0x0:0x545829f3706e16c6,
restaurant,Padang,Warung Sari Minang,"7XW8+W4P, Unnamed Road, Wuyukwi, Distrik Mulia, Kabupaten Puncak Jaya, Papua 98973","Unnamed Road, Wuyukwi, Distrik Mulia, Kabupaten Puncak Jaya",PAPUA,98973,Indonesia,081340958395,,,-3.702.675,137.965.338,https://maps.google.com/?cid=0x0:0x76df75196d523d86,
restaurant,Restoran,The Cafe,"Senayan, Jl. Asia Afrika, RT.1/RW.3, Gelora, Kecamatan Tanah Abang, Kota Jakarta Pusat, Daerah Khusus Ibukota Jakarta 10270","Jl. Asia Afrika, RT.1/RW.3, Gelora, Kecamatan Tanah Abang, Kota Jakarta Pusat",PAPUA,10270,Indonesia,0215747777,,,-62.149.549,1.067.970.461,https://maps.google.com/?cid=0x0:0x52923bef6359d0f7,
restaurant,Restoran,Table8,"Hotel Mulia Jakarta, Jl. Asia Afrika, RT.1/RW.3, Gelora, Kecamatan Tanah Abang, Kota Jakarta Pusat, Daerah Khusus Ibukota Jakarta 10270","Jl. Asia Afrika, RT.1/RW.3, Gelora, Kecamatan Tanah Abang, Kota Jakarta Pusat",PAPUA,10270,Indonesia,0215753271,,,-62.151.359,1.067.971.881,https://maps.google.com/?cid=0x0:0x804f4e72512817bc,
restaurant,Restoran,Rm.mulia,"Jl. Guru Mughni No.7, RT.5/RW.1, Kuningan, Kuningan Tim., Kecamatan Setiabudi, Kota Jakarta Selatan, Daerah Khusus Ibukota Jakarta 12930","RT.5/RW.1, Kuningan, Kuningan Tim., Kecamatan Setiabudi, Kota Jakarta Selatan",PAPUA,12930,Indonesia,081574002361,,,-62.267.168,1.068.215.515,https://maps.google.com/?cid=0x0:0x97cdd74d0c3a0799,
restaurant,Indonesia,Orient8,"Jl. Asia Afrika, Senayan, Jakarta Pusat, RT.1/RW.3, Gelora, Kecamatan Tanah Abang, Kota Jakarta Pusat, Daerah Khusus Ibukota Jakarta 10270","Senayan, Jakarta Pusat, RT.1/RW.3, Gelora, Kecamatan Tanah Abang, Kota Jakarta Pusat",PAPUA,10270,Indonesia,0215747777,,,-6.215.256,10.679.765,https://maps.google.com/?cid=0x0:0x95898d2518e10cd3,
restaurant,Toko kopi,The Cascade Lounge,"Hotel Mulia Senayan, Jl. Asia Afrika, RT.1/RW.3, Gelora, Kecamatan Tanah Abang, Kota Jakarta Pusat, Daerah Khusus Ibukota Jakarta 10270","Jl. Asia Afrika, RT.1/RW.3, Gelora, Kecamatan Tanah Abang, Kota Jakarta Pusat",PAPUA,10270,Indonesia,0215747777,,,-62.148.566,1.067.969.044,https://maps.google.com/?cid=0x0:0xaa9c50a4a22cbb63,
restaurant,Padang,Mulia Rumah Makan,"Jl. Raya Mangga Besar Jl. Labu II No.1, RT.1/RW.6, Taman Sari, Kec. Taman Sari, Kota Jakarta Barat, Daerah Khusus Ibukota Jakarta 11180","RT.1/RW.6, Taman Sari, Kec. Taman Sari, Kota Jakarta Barat",PAPUA,11180,Indonesia,0216395825,,,-61.472.139,1.068.171.148,https://maps.google.com/?cid=0x0:0x7a2e50de0faae9ca,
restaurant,restaurant,Hotel Mulia,"Jalan Asia Afrika Senayan, RT.1/RW.3, Gelora, Kecamatan Tanah Abang, Kota Jakarta Pusat, Daerah Khusus Ibukota Jakarta 10270","RT.1/RW.3, Gelora, Kecamatan Tanah Abang, Kota Jakarta Pusat",PAPUA,10270,Indonesia,0215747777,,,-62.151.599,106.797.062,https://maps.google.com/?cid=0x0:0x40c7383d6eb0bab5,
restaurant,restaurant,,,,PAPUA,,Indonesia,,,,,,https://maps.google.com/?cid=0x0:0x40c7383d6eb0bab5%7C/m/0wfg26t%7Cen-ID,
restaurant,Museum Sejarah Lokal,Monumen Nasional,"Merdeka Square, Jalan Lapangan Monas, Gambir, Kecamatan Gambir, Kota Jakarta Pusat, Daerah Khusus Ibukota Jakarta 10110","Jalan Lapangan Monas, Gambir, Kecamatan Gambir, Kota Jakarta Pusat",PAPUA,10110,Indonesia,0213853040,,,-61.753.924,1.068.271.528,https://maps.google.com/?cid=0x0:0x3d2ad6e1e0e9bcc8,
restaurant,Kantor Perusahaan,Palmerah,"Gelora, Kecamatan Tanah Abang, Kota Jakarta Pusat, Daerah Khusus Ibukota Jakarta","Kota Jakarta Pusat, Daerah Khusus Ibukota Jakarta",PAPUA,,Indonesia,,,,-62.075.944,106.797.382,https://maps.google.com/?cid=0x0:0x116987b9272f716d,
restaurant,Pub,CJ's Bar,"Hotel Mulia, Jalan Asia Afrika, Gelora, RT.1/RW.3, Gelora, Kecamatan Tanah Abang, Kota Jakarta Pusat, Daerah Khusus Ibukota Jakarta 10270","Jalan Asia Afrika, Gelora, RT.1/RW.3, Gelora, Kecamatan Tanah Abang, Kota Jakarta Pusat",PAPUA,10270,Indonesia,0215747777,,,-6.215.192,10.679.765,https://maps.google.com/?cid=0x0:0x4c708828c3a9def3,
restaurant,restaurant,Kecamatan Tanah Abang,"Kota Jakarta Pusat, Daerah Khusus Ibukota Jakarta","Kota Jakarta Pusat, Daerah Khusus Ibukota Jakarta",PAPUA,,Indonesia,,,,-62.039.723,1.068.051.365,https://maps.google.com/?cid=0x0:0xb1f4d9d25da21eea,
restaurant,Kafe,Mulia Cafe,"Jl. Kb. Nanas No.10, RT.10/RW.2, Cipinang Besar Sel., Kecamatan Jatinegara, Kota Jakarta Timur, Daerah Khusus Ibukota Jakarta 13410","RT.10/RW.2, Cipinang Besar Sel., Kecamatan Jatinegara, Kota Jakarta Timur",PAPUA,13410,Indonesia,085773787730,,,-62.326.381,106.877.884,https://maps.google.com/?cid=0x0:0x96cd92ea2e2233cd,
restaurant,Makanan Sehat,bleu8,"Jl. Asia Afrika, RT.1/RW.3, Senayan, Kecamatan Tanah Abang, Kota Jakarta Pusat, Daerah Khusus Ibukota Jakarta 10270","RT.1/RW.3, Senayan, Kecamatan Tanah Abang, Kota Jakarta Pusat",PAPUA,10270,Indonesia,0215747777,,,-62.152.557,1.067.975.212,https://maps.google.com/?cid=0x0:0x7ec52764aabb0fe5,
restaurant,Makanan Kecil,Muliati,"Pasar Karang Anyer Blok A L00 ATD 215, Jalan Karang Anyer Raya, RT.9/RW.2, Karang Anyar, Kecamatan Sawah Besar, Kota Jakarta Pusat, Daerah Khusus Ibukota Jakarta 10740","Jalan Karang Anyer Raya, RT.9/RW.2, Karang Anyar, Kecamatan Sawah Besar, Kota Jakarta Pusat",PAPUA,10740,Indonesia,081381194973,,,-61.574.059,1.068.280.701,https://maps.google.com/?cid=0x0:0xa678ab01f1c99ae,
restaurant,restaurant,Distrik Ilu,"Kabupaten Puncak Jaya, Papua","Kabupaten Puncak Jaya, Papua",PAPUA,,Indonesia,,,,-37.004.785,1.381.998.673,https://maps.google.com/?cid=0x0:0x4715bd7ebcec925f,
restaurant,Nasi,Camelia Resto,"Jl. H.S. Nawi. 1, RT.7/RW.3, Ciater, Kec. Serpong, Kota Tangerang Selatan, Banten 15310","RT.7/RW.3, Ciater, Kec. Serpong, Kota Tangerang Selatan",PAPUA,15310,Indonesia,089521994411,,,-6.320.732,1.066.996.218,https://maps.google.com/?cid=0x0:0x12b9a0b21077a94b,
restaurant,Sunda,Gubug Berkah Resto BSD ( Wedding Resto ),"BSD City, Jl. Raya Viktor Bsd Jl. Ciater Bar. No.54, Ciater, Kec. Serpong, Kota Tangerang Selatan, Banten 15310","Jl. Raya Viktor Bsd Jl. Ciater Bar. No.54, Ciater, Kec. Serpong, Kota Tangerang Selatan",PAPUA,15310,Indonesia,0819848777,,,-63.318.411,1.066.861.921,https://maps.google.com/?cid=0x0:0xfcc71fcedaabc152,
restaurant,Restoran,ropangpang,"Jl. RE Martadinata No.3A, Cipayung, Kec. Ciputat, Kota Tangerang Selatan, Banten 15411","Cipayung, Kec. Ciputat, Kota Tangerang Selatan",PAPUA,15411,Indonesia,081517062206,,,-63.321.538,1.067.485.398,https://maps.google.com/?cid=0x0:0xb13bee0428adcafc,
restaurant,BBQ Korea,Shabuyaki (shabu  grill),"JL. Pamulang Permai Blok AX 24 No. 1-2,, Pamulang,, Tangerang, Pamulang Bar., Kec. Pamulang, Kota Tangerang Selatan, Banten 15417","Pamulang,, Tangerang, Pamulang Bar., Kec. Pamulang, Kota Tangerang Selatan",PAPUA,15417,Indonesia,082113135672,,,-63.435.974,1.067.346.297,https://maps.google.com/?cid=0x0:0x5078c0c0fd1c8425,
restaurant,BBQ Korea,iLLua Restaurant,"Jl. K.H. Wahid Hasyim No.87, RT.1/RW.4, Gondangdia, Kec. Menteng, Kota Jakarta Pusat, Daerah Khusus Ibukota Jakarta 10350","RT.1/RW.4, Gondangdia, Kec. Menteng, Kota Jakarta Pusat",PAPUA,10350,Indonesia,02121390263,,,-61.871.065,1.068.261.665,https://maps.google.com/?cid=0x0:0x8569df9633507340,
restaurant,BBQ Korea,ILLUA SOJU BAR ??? ?? ?,"Jl. K.H. Wahid Hasyim No.87, RT.1/RW.4, Gondangdia, Kec. Menteng, Kota Jakarta Pusat, Daerah Khusus Ibukota Jakarta 10350","RT.1/RW.4, Gondangdia, Kec. Menteng, Kota Jakarta Pusat",PAPUA,10350,Indonesia,081818888840,,,-61.874.494,1.068.261.191,https://maps.google.com/?cid=0x0:0x97fc8a61460a1284,
restaurant,Sukiyaki,I-ta Suki Restaurant,"Setiabudi One, Jl. H. R. Rasuna Said Lt. Ground, Kuningan, Karet Kuningan, Setiabudi, Jakarta, 12920","Jl. H. R. Rasuna Said Lt. Ground, Kuningan, Karet Kuningan, Setiabudi",PAPUA,12920,Indonesia,0215272024,,,-62.152.201,1.068.301.316,https://maps.google.com/?cid=0x0:0xffad76ce4cc15915,
restaurant,Thailand,Khubilai Khan Kebon Jeruk ???,"Jl. Panjang No.22 6, RT.6/RW.11, Kb. Jeruk, Kec. Kb. Jeruk, Kota Jakarta Barat, Daerah Khusus Ibukota Jakarta 11530","RT.6/RW.11, Kb. Jeruk, Kec. Kb. Jeruk, Kota Jakarta Barat",PAPUA,11530,Indonesia,0215323013,,,-61.940.894,1.067.690.887,https://maps.google.com/?cid=0x0:0x4cd25af9ef8eeffc,
restaurant,China,Twelve Chinese Dining Restaurant,"Jl. Dr. Kusuma Atmaja No.75, Menteng, Kec. Menteng, Jakarta, Daerah Khusus Ibukota Jakarta 10310","Menteng, Kec. Menteng, Jakarta",PAPUA,10310,Indonesia,02121237040,,,-61.980.742,1.068.244.094,https://maps.google.com/?cid=0x0:0x456948e886e869e1,
restaurant,China,Lotus Court,"Jalan Pd. Indah No.Plaza 2, RT.10/RW.10, Pd. Pinang, Kec. Kby. Lama, Kota Jakarta Selatan, Daerah Khusus Ibukota Jakarta 12310","RT.10/RW.10, Pd. Pinang, Kec. Kby. Lama, Kota Jakarta Selatan",PAPUA,12310,Indonesia,0217500602,,,-62.859.815,1.067.807.616,https://maps.google.com/?cid=0x0:0x173ee2ceb84d54c0,
restaurant,Yakiniku,ITASUKI ALAM SUTERA,"Jl. Alam Sutera Boulevard No.22, Pakualam, Kec. Serpong Utara, Kota Tangerang Selatan, Banten 15320","Pakualam, Kec. Serpong Utara, Kota Tangerang Selatan",PAPUA,15320,Indonesia,082310948364,,,-62.379.964,1.066.588.247,https://maps.google.com/?cid=0x0:0xeb717ac967d11d9,
restaurant,Nasi,Warung Ilus,"Jl. Cisitu Indah V No.88, Dago, Kecamatan Coblong, Kota Bandung, Jawa Barat 40135","Dago, Kecamatan Coblong, Kota Bandung",PAPUA,40135,Indonesia,082318567984,,,-68.748.828,1.076.134.735,https://maps.google.com/?cid=0x0:0x5ce52d02d17cad94,
restaurant,Steak,Potteria - Bintaro Jaya Xchange Mall,"Bintaro Jaya Xchange Mall Lt. GF Boulevard Bintaro Jaya, Bintaro, Jaya Sektor VII Aren, Tangerang, Pd. Jaya, Kec. Pd. Aren, Kota Tangerang Selatan, Banten 15227","Bintaro, Jaya Sektor VII Aren, Tangerang, Pd. Jaya, Kec. Pd. Aren, Kota Tangerang Selatan",PAPUA,15227,Indonesia,081260001581,,,-628.494,1.067.282.888,https://maps.google.com/?cid=0x0:0xa269dabd084a7649,
restaurant,Restoran,Restaurant Yougwa,"CJ63+H23, Jl. Raya Abepura - Sentani, Asei Kecil, Kec. Sentani Tim., Kabupaten Jayapura, Papua 99351","Jl. Raya Abepura - Sentani, Asei Kecil, Kec. Sentani Tim., Kabupaten Jayapura",PAPUA,99351,Indonesia,08114801448,,,-25.886.245,140.602.559,https://maps.google.com/?cid=0x0:0x65e60fc66014e79c,
restaurant,Restoran,Dapur Papua Resto (tag by EnCHy),"CH94+3PC, Jl. Raya Airport Sentani, Nendali, Kec. Sentani Tim., Kabupaten Jayapura, Papua 99359","Jl. Raya Airport Sentani, Nendali, Kec. Sentani Tim., Kabupaten Jayapura",PAPUA,99359,Indonesia,,,,-25.823.105,140.556.775,https://maps.google.com/?cid=0x0:0x31316751d4c3a979,
restaurant,Indonesia,Rumah Makan Terapung,"CJ53+4G6, RW.Lake, Asei Kecil, Sentani Timur, Jayapura Regency, Papua 99351","RW.Lake, Asei Kecil, Sentani Timur, Jayapura Regency",PAPUA,99351,Indonesia,081344792747,,,-25.922.232,1.406.037.785,https://maps.google.com/?cid=0x0:0x92aa0340bfd095e5,
restaurant,Kedai Kopi,Fafa Resto  Coffee,"Jl. Kav. DKI No.7, RT.7/RW.8, Meruya Sel., Kec. Kembangan, Kota Jakarta Barat, Daerah Khusus Ibukota Jakarta 11650","RT.7/RW.8, Meruya Sel., Kec. Kembangan, Kota Jakarta Barat",PAPUA,11650,Indonesia,081282624514,,,-62.097.732,1.067.310.053,https://maps.google.com/?cid=0x0:0x7b3a6da727eab08b,
restaurant,China,Da Fa Chinese Seafood Restaurant,"Jl. Pluit Karang Indah Timur No.94 6, RT.6/RW.12, Pluit, Kec. Penjaringan, Jkt Utara, Daerah Khusus Ibukota Jakarta 14450","RT.6/RW.12, Pluit, Kec. Penjaringan, Jkt Utara",PAPUA,14450,Indonesia,085183094745,,,-61.192.787,1.067.835.729,https://maps.google.com/?cid=0x0:0xce12306334279846,
restaurant,Kedai Kopi,Hava Cafe  Resto Bintaro,"Jl. Raya Parigi Lama, RT.01/RW.04, Parigi, Kec. Pd. Aren, Kota Tangerang Selatan, Banten 15227","RT.01/RW.04, Parigi, Kec. Pd. Aren, Kota Tangerang Selatan",PAPUA,15227,Indonesia,087778100101,,,-6.273.821,1.066.938.288,https://maps.google.com/?cid=0x0:0xa30df3932d6977f7,
restaurant,Restoran,Yang's Braised Chicken Rice Muara Karang,"Jl. Muara Karang Raya No.31 Blok Z4S, RT.11/RW.3, Pluit, Kec. Penjaringan, Jkt Utara, Daerah Khusus Ibukota Jakarta 14450","RT.11/RW.3, Pluit, Kec. Penjaringan, Jkt Utara",PAPUA,14450,Indonesia,081908883472,,,-61.165.452,1.067.800.384,https://maps.google.com/?cid=0x0:0xdd01a1aa37ad0d06,
restaurant,Indonesia,Resto Fawwazy,"5MGF+PH8, Cibodas, Kec. Lembang, Kabupaten Bandung Barat, Jawa Barat 40391","Cibodas, Kec. Lembang, Kabupaten Bandung Barat",PAPUA,40391,Indonesia,,,,-68.232.212,1.076.739.519,https://maps.google.com/?cid=0x0:0x6c68b101f27df1be,
restaurant,restaurant,Mewoluk,"Kabupaten Puncak Jaya, Papua","Kabupaten Puncak Jaya, Papua",PAPUA,,Indonesia,,,,-36.029.783,1.378.822.604,https://maps.google.com/?cid=0x0:0xfd57868b200d38ff,
restaurant,Kafe,Mulih ka Uwa,"Jl. Panatraco No.23, RT.005/RW.002, Cipayung Datar, Kec. Megamendung, Kabupaten Bogor, Jawa Barat 16770","RT.005/RW.002, Cipayung Datar, Kec. Megamendung, Kabupaten Bogor",PAPUA,16770,Indonesia,081234574220,,,-66.542.533,1.068.845.469,https://maps.google.com/?cid=0x0:0x5180bb48cce52b4f,
restaurant,Kafe,Kembali Ke Alam,"Tugu Utara, Kec. Cisarua, Kabupaten Bogor, Jawa Barat 16750","Kec. Cisarua, Kabupaten Bogor",PAPUA,16750,Indonesia,082140004705,,,-66.904.758,1.069.693.568,https://maps.google.com/?cid=0x0:0x5847dbf3b39a84a3,
restaurant,restaurant,Papua 98913,"Kabupaten Puncak Jaya, Papua","Kabupaten Puncak Jaya, Papua",PAPUA,,Indonesia,,,,-34.610.775,1.378.229.754,https://maps.google.com/?cid=0x0:0x12db5455263a30a5,
restaurant,Padang,Resto Yougwa Danau Sentani,"Jl. Batu Ceper No.73 15, RT.15/RW.1, Kb. Klp., Kecamatan Gambir, Kota Jakarta Pusat, Daerah Khusus Ibukota Jakarta 10120","RT.15/RW.1, Kb. Klp., Kecamatan Gambir, Kota Jakarta Pusat",PAPUA,10120,Indonesia,08119622272,,,-6.162.043,1.068.243.928,https://maps.google.com/?cid=0x0:0xd6689d47fce71c89,
restaurant,restaurant,RUMAH MAKAN SOLATA BANGKELEKILA',"HR3V+73Q, Dagai, Fawi, Kabupaten Puncak Jaya, Papua 98913","Dagai, Fawi, Kabupaten Puncak Jaya",PAPUA,98913,Indonesia,,,,-34.467.891,1.378.427.298,https://maps.google.com/?cid=0x0:0x66ed3bfa18651919,
restaurant,Restoran,So Yummy Resto,"FV3Q+QR9, Kwamki, Kec. Mimika Baru, Kabupaten Mimika, Papua 99971","Kwamki, Kec. Mimika Baru, Kabupaten Mimika",PAPUA,99971,Indonesia,081240005760,,,-45.455.973,1.368.896.159,https://maps.google.com/?cid=0x0:0xad18f6a2fb6ee6f8,
restaurant,Restoran,Pidari Lounge,"Jl. Jenderal Sudirman No.Kav. 54-55, RT.1/RW.3, Gelora, Kecamatan Tanah Abang, Kota Jakarta Pusat, Daerah Khusus Ibukota Jakarta 10270","RT.1/RW.3, Gelora, Kecamatan Tanah Abang, Kota Jakarta Pusat",PAPUA,10270,Indonesia,081294409007,,,-62.223.578,1.068.067.137,https://maps.google.com/?cid=0x0:0x9294ebce29983321,
restaurant,Mi,RM Barokah,"8X28+42H, Wuyukwi, Distrik Mulia, Kabupaten Puncak Jaya, Papua 98973","Wuyukwi, Distrik Mulia, Kabupaten Puncak Jaya",PAPUA,98973,Indonesia,,,,-36.996.957,1.379.651.121,https://maps.google.com/?cid=0x0:0xc0f5e27433afe182,
restaurant,Restoran,Restaurant Yougwa,"CJ63+H23, Jl. Raya Abepura - Sentani, Asei Kecil, Kec. Sentani Tim., Kabupaten Jayapura, Papua 99351","Jl. Raya Abepura - Sentani, Asei Kecil, Kec. Sentani Tim., Kabupaten Jayapura",PAPUA,99351,Indonesia,08114801448,,,-25.886.245,140.602.559,https://maps.google.com/?cid=0x0:0x65e60fc66014e79c,
restaurant,Masakan Jepang Autentik,New Yumeya Japanese Wagyu Yakiniku,"Jl. Melawai VIII No.2, RT.3/RW.1, Melawai, Kec. Kby. Baru, Kota Jakarta Selatan, Daerah Khusus Ibukota Jakarta 12160","RT.3/RW.1, Melawai, Kec. Kby. Baru, Kota Jakarta Selatan",PAPUA,12160,Indonesia,081321121153,,,-62.447.166,1.067.987.462,https://maps.google.com/?cid=0x0:0x10049a76f38d03d,
restaurant,Sushi,Yawara Private Dining,"Jl. Cibitung IV No.32, RT.2/RW.5, Petogogan, Kec. Kby. Baru, Kota Jakarta Selatan, Daerah Khusus Ibukota Jakarta 12170","RT.2/RW.5, Petogogan, Kec. Kby. Baru, Kota Jakarta Selatan",PAPUA,12170,Indonesia,02127081323,,,-62.423.352,1.068.123.409,https://maps.google.com/?cid=0x0:0xc3ae62771d65f6c4,
restaurant,Padang,R.M MINANG JAYA,"Jl. Mulia gambut, kota lama, Distrik Mulia, Kabupaten Puncak Jaya, Papua 98915","kota lama, Distrik Mulia, Kabupaten Puncak Jaya",PAPUA,98915,Indonesia,081346313708,,,-37.000.817,1.379.667.389,https://maps.google.com/?cid=0x0:0x545829f3706e16c6,
restaurant,Masakan Jepang Autentik,Yumeya Washoku,"Jl. Melawai 9 No.3A, RT.3/RW.1, Melawai, Kec. Kby. Baru, Kota Jakarta Selatan, Daerah Khusus Ibukota Jakarta 12160","RT.3/RW.1, Melawai, Kec. Kby. Baru, Kota Jakarta Selatan",PAPUA,12160,Indonesia,02127939481,,,-62.451.242,1.067.991.421,https://maps.google.com/?cid=0x0:0x78bbdb799e2404dd,
restaurant,China,TOP YAMMIE,"1, Jl. Labu No.3-6 1, RT./RW/RW.6, Mangga Besar, Kec. Taman Sari, Kota Jakarta Barat, Daerah Khusus Ibukota Jakarta 11180","Jl. Labu No.3-6 1, RT./RW/RW.6, Mangga Besar, Kec. Taman Sari, Kota Jakarta Barat",PAPUA,11180,Indonesia,0216595777,,,-61.472.152,106.817.722,https://maps.google.com/?cid=0x0:0xf416e36565e11b55,
restaurant,Restoran,Hattori Blok M Japanese Shabu  Yakiniku AYCE,"Jl. Sunan Kalijaga No.1, Melawai, Kec. Kby. Baru, Kota Jakarta Selatan, Daerah Khusus Ibukota Jakarta 12160","Melawai, Kec. Kby. Baru, Kota Jakarta Selatan",PAPUA,12160,Indonesia,082258896061,,,-62.420.255,1.067.990.148,https://maps.google.com/?cid=0x0:0xba383bbf725c925a,
restaurant,Prasmanan,Aoki Japanese Cuisine,"Jl. Mahakam No.6 1, RT.1/RW.7, Kramat Pela, Kec. Kby. Baru, Kota Jakarta Selatan, Daerah Khusus Ibukota Jakarta 12130","RT.1/RW.7, Kramat Pela, Kec. Kby. Baru, Kota Jakarta Selatan",PAPUA,12130,Indonesia,0217258382,,,-62.441.126,106.795.923,https://maps.google.com/?cid=0x0:0xa54902fdfa03116b,
restaurant,Jepang,HOKKAIDO IZAKAYA,"Pavilion Retail Arcade Lt. Dasar Unit D 01-12 Jl. K.H Mas Mansyur Kav.24, RT.12, RW.11, Karet Tengsin, Tanah Abang, RT.12/RW.11, Karet Tengsin, Kota Jakarta Pusat, Daerah Khusus Ibukota Jakarta 10220","RT.12, RW.11, Karet Tengsin, Tanah Abang, RT.12/RW.11, Karet Tengsin, Kota Jakarta Pusat",PAPUA,10220,Indonesia,02129023271,,,-6.208.414,106.818.007,https://maps.google.com/?cid=0x0:0x564511f6c1f45bb2,
restaurant,Jepang,Enmaru Japanese Restaurant,"The Plaza Office Tower 46th Floor, Jl. M.H. Thamrin No.Kav.28 - 30, RT.9/RW.5, Gondangdia, Kec. Menteng, Kota Jakarta Pusat, Daerah Khusus Ibukota Jakarta 10350","Jl. M.H. Thamrin No.Kav.28 - 30, RT.9/RW.5, Gondangdia, Kec. Menteng, Kota Jakarta Pusat",PAPUA,10350,Indonesia,02129922448,,,-61.923.515,1.068.220.267,https://maps.google.com/?cid=0x0:0xf95c55d99a26cc5e,
restaurant,restaurant,Yam O' Yam,"Jl. G1 No.11C, RT.2/RW.2, Slipi, Kec. Palmerah, Kota Jakarta Barat, Daerah Khusus Ibukota Jakarta 11410","RT.2/RW.2, Slipi, Kec. Palmerah, Kota Jakarta Barat",PAPUA,11410,Indonesia,,,,-61.928.521,1.068.003.482,https://maps.google.com/?cid=0x0:0x9c915023bdf401c,
restaurant,restaurant,No-Yam,"VR6R+3J6, Jl. Pademangan 3 raya, RT.3/RW.6, Pademangan Tim., Kec. Pademangan, Jkt Utara, Daerah Khusus Ibukota Jakarta 14410","Jl. Pademangan 3 raya, RT.3/RW.6, Pademangan Tim., Kec. Pademangan, Jkt Utara",PAPUA,14410,Indonesia,,,,-61.398.408,1.068.415.251,https://maps.google.com/?cid=0x0:0x47ff42954e3ce2a6,
restaurant,Restoran,Restaurant Yougwa,"CJ63+H23, Jl. Raya Abepura - Sentani, Asei Kecil, Kec. Sentani Tim., Kabupaten Jayapura, Papua 99351","Jl. Raya Abepura - Sentani, Asei Kecil, Kec. Sentani Tim., Kabupaten Jayapura",PAPUA,99351,Indonesia,08114801448,,,-25.886.245,140.602.559,https://maps.google.com/?cid=0x0:0x65e60fc66014e79c,
restaurant,Restoran,Dapur Papua Resto (tag by EnCHy),"CH94+3PC, Jl. Raya Airport Sentani, Nendali, Kec. Sentani Tim., Kabupaten Jayapura, Papua 99359","Jl. Raya Airport Sentani, Nendali, Kec. Sentani Tim., Kabupaten Jayapura",PAPUA,99359,Indonesia,,,,-25.823.105,140.556.775,https://maps.google.com/?cid=0x0:0x31316751d4c3a979,
restaurant,Indonesia,Rumah Makan Terapung,"CJ53+4G6, RW.Lake, Asei Kecil, Sentani Timur, Jayapura Regency, Papua 99351","RW.Lake, Asei Kecil, Sentani Timur, Jayapura Regency",PAPUA,99351,Indonesia,081344792747,,,-25.922.232,1.406.037.785,https://maps.google.com/?cid=0x0:0x92aa0340bfd095e5,
restaurant,Marae,Torere Marae,"2172 State Highway 35, Torere 3197, Selandia Baru","Torere, Selandia Baru",PAPUA,,Indonesia,"6,42042E+11",,,-379.506.486,1.774.892.001,https://maps.google.com/?cid=0x0:0x7398e270b7da0417,
restaurant,Lounge,Catappa Restaurant,"Jl. H Benyamin Sueb No.Kav B6, Superblok Mega, Kec. Kemayoran, JAKARTA, Daerah Khusus Ibukota Jakarta 10610","Superblok Mega, Kec. Kemayoran, JAKARTA",PAPUA,10610,Indonesia,087804141988,,,-61.291.301,1.068.460.894,https://maps.google.com/?cid=0x0:0x292f88cb2e65e254,
restaurant,restaurant,Papua 98912,"Mewoluk, Kabupaten Puncak Jaya, Papua","Kabupaten Puncak Jaya, Papua",PAPUA,,Indonesia,,,,-36.504.476,1.379.020.367,https://maps.google.com/?cid=0x0:0x8fdf1a31f83b56f2,
restaurant,Dapur Umum,Warung Segman,"7XX7+2Q7, Wuyukwi, Distrik Mulia, Kabupaten Puncak Jaya, Papua 98973","Wuyukwi, Distrik Mulia, Kabupaten Puncak Jaya",PAPUA,98973,Indonesia,085244167861,,,-37.025.417,1.379.644.578,https://maps.google.com/?cid=0x0:0xb70d2a8b2b6767b,
restaurant,Mi,RM Barokah,"8X28+42H, Wuyukwi, Distrik Mulia, Kabupaten Puncak Jaya, Papua 98973","Wuyukwi, Distrik Mulia, Kabupaten Puncak Jaya",PAPUA,98973,Indonesia,,,,-36.996.957,1.379.651.121,https://maps.google.com/?cid=0x0:0xc0f5e27433afe182,
restaurant,Padang,Warung Sari Minang,"7XW8+W4P, Unnamed Road, Wuyukwi, Distrik Mulia, Kabupaten Puncak Jaya, Papua 98973","Unnamed Road, Wuyukwi, Distrik Mulia, Kabupaten Puncak Jaya",PAPUA,98973,Indonesia,081340958395,,,-3.702.675,137.965.338,https://maps.google.com/?cid=0x0:0x76df75196d523d86,
restaurant,Padang,RM Puja Selera,"7XPJ+MC5, Unnamed Road, Pruleme, Distrik Mulia, Kabupaten Puncak Jaya, Papua 98973","Unnamed Road, Pruleme, Distrik Mulia, Kabupaten Puncak Jaya",PAPUA,98973,Indonesia,,,,-37.133.572,1.379.811.015,https://maps.google.com/?cid=0x0:0x5c5a8ec894f8337c,
restaurant,Padang,R.M MINANG JAYA,"Jl. Mulia gambut, kota lama, Distrik Mulia, Kabupaten Puncak Jaya, Papua 98915","kota lama, Distrik Mulia, Kabupaten Puncak Jaya",PAPUA,98915,Indonesia,081346313708,,,-37.000.817,1.379.667.389,https://maps.google.com/?cid=0x0:0x545829f3706e16c6,
restaurant,Restoran,Warung Sate Bude Linda,"7XQH+G3F, Pruleme, Distrik Mulia, Kabupaten Puncak Jaya, Papua 98973","Pruleme, Distrik Mulia, Kabupaten Puncak Jaya",PAPUA,98973,Indonesia,,,,-37.111.967,1.379.776.632,https://maps.google.com/?cid=0x0:0x9954cf172f984c56,
restaurant,Restoran,RM Mie Ayam,"7XX8+PF6, Wuyukwi, Distrik Mulia, Kabupaten Puncak Jaya, Papua 98973","Wuyukwi, Distrik Mulia, Kabupaten Puncak Jaya",PAPUA,98973,Indonesia,,,,-37.007.117,1.379.661.327,https://maps.google.com/?cid=0x0:0xd9ccbd54282ff27e,
restaurant,Rumah Makan,Warung Pecel Bude Suryani,"8X28+243, Jalan, kandep, Distrik Mulia, Kabupaten Puncak Jaya, Papua 98973","Jalan, kandep, Distrik Mulia, Kabupaten Puncak Jaya",PAPUA,98973,Indonesia,085259034394,,,-37.003.995,1.379.655.851,https://maps.google.com/?cid=0x0:0xfa5acbc4b86540c2,
restaurant,restaurant,Nasi Kuning pakDe,"8X27+2V8, Wuyukwi, Distrik Mulia, Kabupaten Puncak Jaya, Papua 98973","Wuyukwi, Distrik Mulia, Kabupaten Puncak Jaya",PAPUA,98973,Indonesia,,,,-36.999.746,1.379.647.068,https://maps.google.com/?cid=0x0:0xd68cb49eac495424,
restaurant,,Warung Maleo  Juragan Pinang El Kumis,"73VV+H89, Kalome / Pagargom, Kec. Tingginambut, Kabupaten Puncak Jaya, Papua 99563","Kalome / Pagargom, Kec. Tingginambut, Kabupaten Puncak Jaya",PAPUA,99563,Indonesia,,,,-37.060.904,1.380.933.589,https://maps.google.com/?cid=0x0:0xf4e1e974e9dd6b85,
restaurant,Kedai Kopi,Warung kopi TINAM 753/AVT,"73VV+H89, Kalome / Pagargom, Kec. Tingginambut, Kabupaten Puncak Jaya, Papua 99563","Kalome / Pagargom, Kec. Tingginambut, Kabupaten Puncak Jaya",PAPUA,99563,Indonesia,,,,-37.060.904,1.380.933.589,https://maps.google.com/?cid=0x0:0xa3085f7ede9cd42d,
cafe,cafe,Papua 98972,Papua,Papua,PAPUA,,Indonesia,,,,-3.921.968,1.375.275.422,https://maps.google.com/?cid=0x0:0x765d582b762840f7,
cafe,Gedung Apartemen,BQ Garden,"V34R+WWC, Tembagapura, Kec. Tembagapura, Kabupaten Mimika, Papua 98972","Tembagapura, Kec. Tembagapura, Kabupaten Mimika",PAPUA,98972,Indonesia,,,,-41.426.947,1.370.922.812,https://maps.google.com/?cid=0x0:0xb263d7123a3738cc,
cafe,cafe,TOWER B6,"6J3G+JW, Aifalim, Distrik Wangbe, Kabupaten Puncak, Papua","Kabupaten Puncak, Papua",PAPUA,,Indonesia,,,,-37.959.702,1.376.272.776,https://maps.google.com/?cid=0x0:0xd042a8459401fe1d,
cafe,Sesuai untuk keluarga,Home Garden Cafe,"Jl. Bangka II C No.34 1, RT.1/RW.3, Pela Mampang, Kec. Mampang Prpt., Jakarta, Daerah Khusus Ibukota Jakarta 12720","RT.1/RW.3, Pela Mampang, Kec. Mampang Prpt., Jakarta",PAPUA,12720,Indonesia,089646312702,,,-62.459.085,106.819.233,https://maps.google.com/?cid=0x0:0x7343e44c8546a914,
cafe,Kedai Kopi,Koffie Home,"Jl. Moch. Kahfi II No.3, Ciganjur, Kec. Jagakarsa, Jakarta, Daerah Khusus Ibukota Jakarta 12630","Ciganjur, Kec. Jagakarsa, Jakarta",PAPUA,12630,Indonesia,082122353576,,,-63.431.089,1.068.173.478,https://maps.google.com/?cid=0x0:0x2abd9e730ad01957,
cafe,Kedai Kopi,Sweet Home Cafe,"Jl. Villa Tomang Baru No.1 blok k4, Kuta Jaya, Kec. Ps. Kemis, Kabupaten Tangerang, Banten 15560","Kuta Jaya, Kec. Ps. Kemis, Kabupaten Tangerang",PAPUA,15560,Indonesia,081319503494,,,-61.578.622,1.065.839.504,https://maps.google.com/?cid=0x0:0x42e7851e82f2b2cb,
cafe,,home,"Jl. Kesatrian X No.5 14, RT.14/RW.3, Kb. Manggis, Kec. Matraman, Kota Jakarta Timur, Daerah Khusus Ibukota Jakarta 13150","RT.14/RW.3, Kb. Manggis, Kec. Matraman, Kota Jakarta Timur",PAPUA,13150,Indonesia,,,,-62.065.924,1.068.503.164,https://maps.google.com/?cid=0x0:0x26363c56cdcb0ae6,
cafe,Kedai Kopi,Homey Coffee ?,"Jl. Tekun, Jl. Komp. Tni AL Jl. Kodamar No.22, Klp. Gading Bar., Jkt Utara, Daerah Khusus Ibukota Jakarta 14240","Jl. Komp. Tni AL Jl. Kodamar No.22, Klp. Gading Bar., Jkt Utara",PAPUA,14240,Indonesia,08388833997,,,-6.165.353,106.882.206,https://maps.google.com/?cid=0x0:0x83f822e361b5bd91,
cafe,Kedai Kopi,HOMECAFE,"Jl. Puri Mansion No.20, RT.2/RW.1, Kembangan Sel., Kec. Kembangan, Kota Jakarta Barat, Daerah Khusus Ibukota Jakarta 11610","RT.2/RW.1, Kembangan Sel., Kec. Kembangan, Kota Jakarta Barat",PAPUA,11610,Indonesia,087889925860,,,-61.814.846,1.067.275.403,https://maps.google.com/?cid=0x0:0x8b704bc554f7d404,
cafe,Kedai Kopi,Kitchen House (Coffee and Store),"Jl. Mandor Demong. Gg. Waru RT.002, Kel No.187 05, RT.002/RW.005, Mustikasari, Mustika Jaya, Bekasi, West Java 17167","Kel No.187 05, RT.002/RW.005, Mustikasari, Mustika Jaya, Bekasi",PAPUA,17167,Indonesia,087787933702,,,-63.028.302,1.070.115.097,https://maps.google.com/?cid=0x0:0xb409dd40d46dbd4b,
cafe,Kafe,Homey coffeekitchen,"Jl. Keranggan 2, Kranggan, Kec. Setu, Kota Tangerang Selatan, Banten 15312","Kranggan, Kec. Setu, Kota Tangerang Selatan",PAPUA,15312,Indonesia,081929110766,,,-63.489.677,1.066.582.997,https://maps.google.com/?cid=0x0:0xcf13f63fd9898add,
cafe,Restoran,HoMee Cafe,"Jl. RS. Fatmawati Raya No.15a, RT.3/RW.4, Cilandak Bar., Kec. Cilandak, Kota Jakarta Selatan, Daerah Khusus Ibukota Jakarta 12410","RT.3/RW.4, Cilandak Bar., Kec. Cilandak, Kota Jakarta Selatan",PAPUA,12410,Indonesia,,,,-62.712.005,1.067.973.628,https://maps.google.com/?cid=0x0:0x2c45ba5b16a548a9,
cafe,Kedai Kopi,Home Cafe Tea  Coffee,"Jl. Perumahan Puri Gardena No.6 Blok E1, RT.4/RW.14, Pegadungan, Kalideres, West Jakarta City, Jakarta 11830","RT.4/RW.14, Pegadungan, Kalideres, West Jakarta City",PAPUA,11830,Indonesia,0818846235,,,-61.377.179,1.066.975.133,https://maps.google.com/?cid=0x0:0x9e3874adb90a4aea,
cafe,Kafe,Home Coffee,"Jl. H. Mairin Blok, Jl. H. Mairin No.60, RT.8/RW.3, Ulujami, Kec. Pesanggrahan, Kota Jakarta Selatan, Daerah Khusus Ibukota Jakarta 12250","Jl. H. Mairin No.60, RT.8/RW.3, Ulujami, Kec. Pesanggrahan, Kota Jakarta Selatan",PAPUA,12250,Indonesia,082112731657,,,-62.335.371,1.067.621.616,https://maps.google.com/?cid=0x0:0x480415c201c8681,
cafe,Kedai Kopi,Hime no coffee,"Jl. Peta Barat, Kalideres, Kec. Kalideres, Kota Jakarta Barat, Daerah Khusus Ibukota Jakarta 11840","Kalideres, Kec. Kalideres, Kota Jakarta Barat",PAPUA,11840,Indonesia,081317703715,,,-61.410.694,1.066.928.587,https://maps.google.com/?cid=0x0:0xe11d6a02f66c7c95,
cafe,Kedai Kopi,Home Cafe Bang Rizki,"Jl. Pegangsaan Dua No.102 6, RT.6/RW.3, Pegangsaan Dua, Kec. Klp. Gading, Jkt Utara, Daerah Khusus Ibukota Jakarta 14250","RT.6/RW.3, Pegangsaan Dua, Kec. Klp. Gading, Jkt Utara",PAPUA,14250,Indonesia,081310726287,,,-6.138.113,1.069.165.314,https://maps.google.com/?cid=0x0:0x94be7764ace26ccd,
cafe,Kedai Kopi,Holmes cafe,"QRHC+CJ2, Jl. Karet Pedurenan, RT.9/RW.4, Kuningan, Karet Kuningan, Kecamatan Setiabudi, Kota Jakarta Selatan, Daerah Khusus Ibukota Jakarta 12940","Jl. Karet Pedurenan, RT.9/RW.4, Kuningan, Karet Kuningan, Kecamatan Setiabudi, Kota Jakarta Selatan",PAPUA,12940,Indonesia,,,,-62.214.764,1.068.215.105,https://maps.google.com/?cid=0x0:0x5245daceb8d9d2dd,
cafe,Kafe,Home,"3Jl. Cipinang Baru Bunder 7.38RW, RT.1/RW.1, Cipinang, Kec. Pulo Gadung, Kota Jakarta Timur, Daerah Khusus Ibukota Jakarta 13240","RT.1/RW.1, Cipinang, Kec. Pulo Gadung, Kota Jakarta Timur",PAPUA,13240,Indonesia,,,,-6.205.839,106.889.271,https://maps.google.com/?cid=0x0:0xe7231baa19dd6f39,
cafe,Pembangunan Perumahan,Home Stay Redym,"MVV8+RPF, Jl. Madrasah, RT.4/RW.5, Rambutan, Kec. Ciracas, Kota Jakarta Timur, Daerah Khusus Ibukota Jakarta 13830","Jl. Madrasah, RT.4/RW.5, Rambutan, Kec. Ciracas, Kota Jakarta Timur",PAPUA,13830,Indonesia,081519643104,,,-63.054.411,1.068.667.815,https://maps.google.com/?cid=0x0:0x39ff5f2dd6a69619,
cafe,Kafe,Home Rehan,"Gg. Warga No.108, Serpong, Kec. Serpong, Kota Tangerang Selatan, Banten 15310","Serpong, Kec. Serpong, Kota Tangerang Selatan",PAPUA,15310,Indonesia,0895412115040,,,-63.188.941,1.066.652.094,https://maps.google.com/?cid=0x0:0x6bedac2363b7bfa9,
cafe,Dapur Umum,Kedai Home 3111,"Jln.swadaya 2 rt02rw07.Kel.jatikarya kec.jatisampurna 28, Kota Bks, Jawa Barat 17435",Kota Bks,PAPUA,17435,Indonesia,,,,-63.922.327,106.907.066,https://maps.google.com/?cid=0x0:0x20f6a808414717c0,
cafe,Kafe,House Cafe,"C, Jl. Murdai I No.25, RT.9/RW.13, Cemp. Putih Bar., Kec. Cemp. Putih, Kota Jakarta Pusat, Daerah Khusus Ibukota Jakarta 10520","Jl. Murdai I No.25, RT.9/RW.13, Cemp. Putih Bar., Kec. Cemp. Putih, Kota Jakarta Pusat",PAPUA,10520,Indonesia,085156247066,,,-61.840.623,1.068.655.155,https://maps.google.com/?cid=0x0:0x1081d85410c2c782,
cafe,Mesin Sangrai Kopi,Alenia Papua Coffee  Kitchen,"Jl. Kemang Raya No.66 B 8, RT.8/RW.2, Bangka, Kec. Mampang Prpt., Kota Jakarta Selatan, Daerah Khusus Ibukota Jakarta 12730","RT.8/RW.2, Bangka, Kec. Mampang Prpt., Kota Jakarta Selatan",PAPUA,12730,Indonesia,02171790141,,,-62.638.119,1.068.158.777,https://maps.google.com/?cid=0x0:0xe49807fcfab68b48,
cafe,Kedai Kopi,JPC Kemang Cafe,"Jl. Kemang Raya No.47C, Bangka, Kec. Mampang Prpt., Kota Jakarta Selatan, Daerah Khusus Ibukota Jakarta 12730","Bangka, Kec. Mampang Prpt., Kota Jakarta Selatan",PAPUA,12730,Indonesia,082112229256,,,-62.651.825,1.068.162.685,https://maps.google.com/?cid=0x0:0xc2e858ce7bda7b4d,
cafe,Kedai Kopi,Ngopi Ngapa - Kemang,"Jl. Kemang Timur No.27A, RT.10/RW.4, Bangka, Kec. Mampang Prpt., Kota Jakarta Selatan, Daerah Khusus Ibukota Jakarta 12730","RT.10/RW.4, Bangka, Kec. Mampang Prpt., Kota Jakarta Selatan",PAPUA,12730,Indonesia,085810697757,,,-62.613.738,1.068.232.623,https://maps.google.com/?cid=0x0:0x913b81e34c074145,
cafe,Kafe,Mulia Coffeenary,"Jalan Citra Raya Boulevard, Ruko Grand Boulevard Blok V1A no 233, Ciakar, Kec. Panongan, Kabupaten Tangerang, Banten 15710","Ruko Grand Boulevard Blok V1A no 233, Ciakar, Kec. Panongan, Kabupaten Tangerang",PAPUA,15710,Indonesia,082111657388,,,-62.672.328,1.065.253.745,https://maps.google.com/?cid=0x0:0x5339c9ab5f77abf4,
cafe,Kedai Kopi,TERU,"Jl. Barito I No.19, RT.4/RW.1, Kramat Pela, Kec. Kby. Baru, Kota Jakarta Selatan, Daerah Khusus Ibukota Jakarta 12130","RT.4/RW.1, Kramat Pela, Kec. Kby. Baru, Kota Jakarta Selatan",PAPUA,12130,Indonesia,081291004266,,,-62.437.594,1.067.933.397,https://maps.google.com/?cid=0x0:0xafcdf022dcc55410,
cafe,Kedai Kopi,27 Maret Noodle  Sate bar,"Jl. Buaran Timur, Jelupang, Kec. Serpong Utara, Kota Tangerang Selatan, Banten 15323","Jelupang, Kec. Serpong Utara, Kota Tangerang Selatan",PAPUA,15323,Indonesia,085198971185,,,-62.675.948,1.066.749.989,https://maps.google.com/?cid=0x0:0xee042c1a14b8fd1b,
cafe,Kafe,HAZEY COFFEE  RESTO,"Jl. Pemda Tigaraksa, Bojong, Kec. Cikupa, Kabupaten Tangerang, Banten 14710","Bojong, Kec. Cikupa, Kabupaten Tangerang",PAPUA,14710,Indonesia,082122134560,,,-62.313.885,1.064.981.403,https://maps.google.com/?cid=0x0:0x41a078b892744c2d,
cafe,Kedai Kopi,Lynea Coffee and Eatery,"BSD City, Ruko Barcelona Blok E9/10, Rawa Mekar Jaya, Serpong Sub-District, South Tangerang City, Banten 15310","Ruko Barcelona Blok E9/10, Rawa Mekar Jaya, Serpong Sub-District, South Tangerang City",PAPUA,15310,Indonesia,085939277828,,,-63.013.789,106.684.313,https://maps.google.com/?cid=0x0:0x8b77514de1459285,
cafe,Kedai Kopi,BAROKAH COFFEE,"Jl. Sultan Iskandar Muda No.5A 4, RT.3/RW.2, Kby. Lama Utara, Kec. Kby. Lama, Kota Jakarta Selatan, Daerah Khusus Ibukota Jakarta 12240","RT.3/RW.2, Kby. Lama Utara, Kec. Kby. Lama, Kota Jakarta Selatan",PAPUA,12240,Indonesia,081213222114,,,-624.031,106.783.057,https://maps.google.com/?cid=0x0:0xda3e987239e5a2a2,
cafe,Restoran,The Cafe,"Senayan, Jl. Asia Afrika, RT.1/RW.3, Gelora, Kecamatan Tanah Abang, Kota Jakarta Pusat, Daerah Khusus Ibukota Jakarta 10270","Jl. Asia Afrika, RT.1/RW.3, Gelora, Kecamatan Tanah Abang, Kota Jakarta Pusat",PAPUA,10270,Indonesia,0215747777,,,-62.149.549,1.067.970.461,https://maps.google.com/?cid=0x0:0x52923bef6359d0f7,
cafe,Kafe,Mulia Cafe,"Jl. Kb. Nanas No.10, RT.10/RW.2, Cipinang Besar Sel., Kecamatan Jatinegara, Kota Jakarta Timur, Daerah Khusus Ibukota Jakarta 13410","RT.10/RW.2, Cipinang Besar Sel., Kecamatan Jatinegara, Kota Jakarta Timur",PAPUA,13410,Indonesia,085773787730,,,-62.326.381,106.877.884,https://maps.google.com/?cid=0x0:0x96cd92ea2e2233cd,
cafe,cafe,Papua 98916,"Kec. Pogoma, Kabupaten Puncak, Papua","Kabupaten Puncak, Papua",PAPUA,,Indonesia,,,,-36.485.048,1.377.341.718,https://maps.google.com/?cid=0x0:0x87f9708d464cf9c7,
cafe,,Warung Maleo  Juragan Pinang El Kumis,"73VV+H89, Kalome / Pagargom, Kec. Tingginambut, Kabupaten Puncak Jaya, Papua 99563","Kalome / Pagargom, Kec. Tingginambut, Kabupaten Puncak Jaya",PAPUA,99563,Indonesia,,,,-37.060.904,1.380.933.589,https://maps.google.com/?cid=0x0:0xf4e1e974e9dd6b85,
cafe,Kedai Kopi,Lanny-Net,"75XW+JWM, Desa Wurak, Distrik Ilu, Kabupaten Puncak Jaya, Papua 99563","Desa Wurak, Distrik Ilu, Kabupaten Puncak Jaya",PAPUA,99563,Indonesia,081344454411,,,-37.009.041,138.197.304,https://maps.google.com/?cid=0x0:0x9cd3d493da15ee07,
cafe,Kafe,cafe bakau holtekam kota jayapura,"9PRF+58, Nafri, Kec. Abepura, Kota Jayapura, Papua","Kota Jayapura, Papua",PAPUA,,Indonesia,08124022007,,,-26.095.335,1.407.232.587,https://maps.google.com/?cid=0x0:0x440c4543fd3a011e,
cafe,Mesin Sangrai Kopi,Alenia Papua Coffee  Kitchen,"Jl. Kemang Raya No.66 B 8, RT.8/RW.2, Bangka, Kec. Mampang Prpt., Kota Jakarta Selatan, Daerah Khusus Ibukota Jakarta 12730","RT.8/RW.2, Bangka, Kec. Mampang Prpt., Kota Jakarta Selatan",PAPUA,12730,Indonesia,02171790141,,,-62.638.119,1.068.158.777,https://maps.google.com/?cid=0x0:0xe49807fcfab68b48,
cafe,Restoran,Pit's Corner ( Papua Specialty Coffee ),"Jalan kasuari no.2 Dok V Atas, Mandala, Jayapura Utara, Jayapura City, Papua 99114","Mandala, Jayapura Utara, Jayapura City",PAPUA,99114,Indonesia,09675160443,,,-25.310.642,14.071.875,https://maps.google.com/?cid=0x0:0xf39f3950a3bf5ed2,
cafe,Kafe,ILI Kopi,"Jl. Ili 2, RT.002/RW.010, Jatirangga, Kec. Jatisampurna, Kota Bks, Jawa Barat 17434","RT.002/RW.010, Jatirangga, Kec. Jatisampurna, Kota Bks",PAPUA,17434,Indonesia,085716619886,,,-63.580.544,1.069.384.451,https://maps.google.com/?cid=0x0:0x9b8e787531ce877b,
cafe,Kafe,Hayu Coffee  Space,"Gg. Swadaya No.3A, Bakti Jaya, Kec. Setu, Kota Tangerang Selatan, Banten 15315","Bakti Jaya, Kec. Setu, Kota Tangerang Selatan",PAPUA,15315,Indonesia,081347492765,,,-63.518.049,1.067.023.948,https://maps.google.com/?cid=0x0:0xf3d0e6958de8a887,
cafe,Kafe,I U Coffee  Tea,"1, Jl. Kapten Tendean No.2, RT.2/RW.5, Kuningan, Pela Mampang, Kec. Mampang Prpt., Kota Jakarta Selatan, Daerah Khusus Ibukota Jakarta 12720","Jl. Kapten Tendean No.2, RT.2/RW.5, Kuningan, Pela Mampang, Kec. Mampang Prpt., Kota Jakarta Selatan",PAPUA,12720,Indonesia,081280440639,,,-62.395.997,1.068.179.159,https://maps.google.com/?cid=0x0:0xe3f42987dbea5a35,
cafe,Kafe,Uli's Cafe,"JWQP+VHR, Jl. Ili, RT.002/RW.009, Jatirangga, Kec. Jatisampurna, Kota Bks, Jawa Barat 17434","Jl. Ili, RT.002/RW.009, Jatirangga, Kec. Jatisampurna, Kota Bks",PAPUA,17434,Indonesia,,,,-63.602.566,1.069.363.825,https://maps.google.com/?cid=0x0:0xc4ba24784f81ac77,
cafe,Taman Komunitas,Kopiluvium Pamulang,"Jl. Siliwangi No.459, Pd. Benda, Kec. Pamulang, Kota Tangerang Selatan, Banten 15416","Pd. Benda, Kec. Pamulang, Kota Tangerang Selatan",PAPUA,15416,Indonesia,085219976901,,,-63.445.567,106.718.482,https://maps.google.com/?cid=0x0:0x33f38fd24ed30885,
cafe,Kedai Kopi,Uyo caffe,"Jl. H. Mairin, RT.13/RW.3, Ulujami, Kec. Pesanggrahan, Kota Jakarta Selatan, Daerah Khusus Ibukota Jakarta 12250","RT.13/RW.3, Ulujami, Kec. Pesanggrahan, Kota Jakarta Selatan",PAPUA,12250,Indonesia,085946378454,,,-62.342.435,1.067.622.604,https://maps.google.com/?cid=0x0:0xf4804ab392dc492d,
cafe,Kedai Kopi,Kopiluvium Cipeucang,"Jl. Cipeucang V No.18, Rawabadak Utara, Kec. Koja, Jkt Utara, Daerah Khusus Ibukota Jakarta 14230","Rawabadak Utara, Kec. Koja, Jkt Utara",PAPUA,14230,Indonesia,081314888231,,,-61.145.131,1.069.003.085,https://maps.google.com/?cid=0x0:0x6df92065ffec1419,
cafe,Kedai Kopi,Ilengi Coffee  Ice Cream,"Jl. Delman Utama I No.9, RW.001/011, Kby. Lama Utara, Kec. Kby. Lama, Kota Jakarta Selatan, Daerah Khusus Ibukota Jakarta 12240","RW.001/011, Kby. Lama Utara, Kec. Kby. Lama, Kota Jakarta Selatan",PAPUA,12240,Indonesia,087780020298,,,-62.482.682,1.067.730.996,https://maps.google.com/?cid=0x0:0x122bc46473c337b1,
cafe,Kedai Kopi,Kopiluvium Warakas,"Jl. Warakas Raya No.18A 1, RT.6/RW.5, Warakas, Kec. Tj. Priok, Jkt Utara, Daerah Khusus Ibukota Jakarta 14370","RT.6/RW.5, Warakas, Kec. Tj. Priok, Jkt Utara",PAPUA,14370,Indonesia,085219976901,,,-61.194.872,1.068.812.443,https://maps.google.com/?cid=0x0:0x9dc3bff6a330b24e,
cafe,Kafe,ILC (Ibu Latifah Cafe),"Jl. Pancoran Barat IV A No.1, RT.10/RW.1, Pancoran, Kec. Pancoran, Kota Jakarta Selatan, Daerah Khusus Ibukota Jakarta 12780","RT.10/RW.1, Pancoran, Kec. Pancoran, Kota Jakarta Selatan",PAPUA,12780,Indonesia,089666765169,,,-62.520.694,1.068.398.114,https://maps.google.com/?cid=0x0:0x96529de6162557be,
cafe,cafe,Papua 98917,"Mewoluk, Kabupaten Puncak Jaya, Papua","Kabupaten Puncak Jaya, Papua",PAPUA,,Indonesia,,,,-36.519.188,1.377.933.577,https://maps.google.com/?cid=0x0:0x499f37f7bd3f4341,
cafe,Mesin Sangrai Kopi,Alenia Papua Coffee  Kitchen,"Jl. Kemang Raya No.66 B 8, RT.8/RW.2, Bangka, Kec. Mampang Prpt., Kota Jakarta Selatan, Daerah Khusus Ibukota Jakarta 12730","RT.8/RW.2, Bangka, Kec. Mampang Prpt., Kota Jakarta Selatan",PAPUA,12730,Indonesia,02171790141,,,-62.638.119,1.068.158.777,https://maps.google.com/?cid=0x0:0xe49807fcfab68b48,
cafe,cafe,Cafe Denis,"QC54+M74 cafe denis, Nonomi, Kec. Waropen Bawah, Kabupaten Waropen, Papua 98261","Nonomi, Kec. Waropen Bawah, Kabupaten Waropen",PAPUA,98261,Indonesia,081356208661,,,-22.408.669,1.364.057.026,https://maps.google.com/?cid=0x0:0x26e421aa2fec3dbe,
cafe,Kedai Kopi,Kedai Faww-Faww,"Jl. Palakali No.33, RT.3/RW.7, Kukusan, Kecamatan Beji, Kota Depok, Jawa Barat 16425","RT.3/RW.7, Kukusan, Kecamatan Beji, Kota Depok",PAPUA,16425,Indonesia,,,,-63.692.642,106.816.085,https://maps.google.com/?cid=0x0:0x444a150363869a32,
cafe,Kedai Kopi,Fafa Resto  Coffee,"Jl. Kav. DKI No.7, RT.7/RW.8, Meruya Sel., Kec. Kembangan, Kota Jakarta Barat, Daerah Khusus Ibukota Jakarta 11650","RT.7/RW.8, Meruya Sel., Kec. Kembangan, Kota Jakarta Barat",PAPUA,11650,Indonesia,081282624514,,,-62.097.732,1.067.310.053,https://maps.google.com/?cid=0x0:0x7b3a6da727eab08b,
cafe,cafe,FAW COFFEE,"Jl. Raya Puspitek No.99, Buaran, Kec. Setu, Kota Tangerang Selatan, Banten 15314","Buaran, Kec. Setu, Kota Tangerang Selatan",PAPUA,15314,Indonesia,085155331902,,,-63.471.295,1.066.883.992,https://maps.google.com/?cid=0x0:0xbe9781340809cf4f,
cafe,cafe,Mewoluk,"Kabupaten Puncak Jaya, Papua","Kabupaten Puncak Jaya, Papua",PAPUA,,Indonesia,,,,-36.029.783,1.378.822.604,https://maps.google.com/?cid=0x0:0xfd57868b200d38ff,
cafe,,Warung Maleo  Juragan Pinang El Kumis,"73VV+H89, Kalome / Pagargom, Kec. Tingginambut, Kabupaten Puncak Jaya, Papua 99563","Kalome / Pagargom, Kec. Tingginambut, Kabupaten Puncak Jaya",PAPUA,99563,Indonesia,,,,-37.060.904,1.380.933.589,https://maps.google.com/?cid=0x0:0xf4e1e974e9dd6b85,
cafe,Perkebunan Pohon,Rumah Kopi Dokome,"8X98+73, Wuyukwi, Distrik Mulia, Kabupaten Puncak Jaya, Papua","Kabupaten Puncak Jaya, Papua",PAPUA,,Indonesia,,,,-36.817.546,1.379.651.888,https://maps.google.com/?cid=0x0:0xfa716672ca2f70da,
cafe,Kedai Kopi,Kalome Kab Puncak Jaya Papua Tengah,"7XPQ+XP4, Pagaleme, Distrik Mulia, Kabupaten Puncak Jaya, Papua 98975","Pagaleme, Distrik Mulia, Kabupaten Puncak Jaya",PAPUA,98975,Indonesia,,,,-3.711.764,13.798.822,https://maps.google.com/?cid=0x0:0x567ba8629826eb17,
cafe,Tempat Fitness,Mewut Molanikime,"7XVF+8C5, Pruleme, Distrik Mulia, Kabupaten Puncak Jaya, Papua 98973","Pruleme, Distrik Mulia, Kabupaten Puncak Jaya",PAPUA,98973,Indonesia,082230016017,,,-37.067.417,1.379.736.092,https://maps.google.com/?cid=0x0:0xba894cf123568848,
cafe,Kedai Kopi,Sinilagi - Food and Coffee,"Ruko Puri Kencana. Jalan Puri Kencana Blok K7/3U, RT.11/RW.7, Kembangan Sel., Kec. Kembangan, Kota Jakarta Barat, Daerah Khusus Ibukota Jakarta 11610","RT.11/RW.7, Kembangan Sel., Kec. Kembangan, Kota Jakarta Barat",PAPUA,11610,Indonesia,,,,-61.907.131,1.067.477.643,https://maps.google.com/?cid=0x0:0x542750392acff889,
cafe,Kedai Kopi,Kuwa Kuwi Cafe,"Jl. Pahlawan No.27, Rempoa, Kec. Ciputat Tim., Kota Tangerang Selatan, Banten 15412","Rempoa, Kec. Ciputat Tim., Kota Tangerang Selatan",PAPUA,15412,Indonesia,082114048484,,,-62.866.673,1.067.601.417,https://maps.google.com/?cid=0x0:0x6636ae210118623f,
cafe,Kedai Kopi,Luwih Coffee,"Jl. Pangeran Diponegoro No.52, Menteng, Kec. Menteng, Kota Jakarta Pusat, Daerah Khusus Ibukota Jakarta 10310","Menteng, Kec. Menteng, Kota Jakarta Pusat",PAPUA,10310,Indonesia,081387143062,,,-62.017.356,1.068.409.404,https://maps.google.com/?cid=0x0:0x476c578482a877da,
cafe,Kedai Kopi,Sinilagi Panglima Polim - Food  Coffee,"Jl. Panglima Polim IX No.2, RT.2/RW.6, Melawai, Kec. Kby. Baru, Kota Jakarta Selatan, Daerah Khusus Ibukota Jakarta 12160","RT.2/RW.6, Melawai, Kec. Kby. Baru, Kota Jakarta Selatan",PAPUA,12160,Indonesia,081380370000,,,-62.499.027,1.067.982.218,https://maps.google.com/?cid=0x0:0x8f6167df471724df,
cafe,Kedai Kopi,Kohicha Japanese Cafe,"Ruko Gading Kirana Jalan Boulevard Artha Gading No.Blok A.6a No.21, RT.18/RW.8, Klp. Gading Bar., Kec. Klp. Gading, Jkt Utara, Daerah Khusus Ibukota Jakarta 14240","RT.18/RW.8, Klp. Gading Bar., Kec. Klp. Gading, Jkt Utara",PAPUA,14240,Indonesia,087878431807,,,-61.454.907,1.068.961.152,https://maps.google.com/?cid=0x0:0x2924c951c90023db,
cafe,Kedai Kopi,One Fifteenth Coffee,"Jl. Gandaria 1 No.63 2, RT.2/RW.3, Kramat Pela, Kec. Kby. Baru, Kota Jakarta Selatan, Daerah Khusus Ibukota Jakarta 12130","RT.2/RW.3, Kramat Pela, Kec. Kby. Baru, Kota Jakarta Selatan",PAPUA,12130,Indonesia,085210141556,,,-62.480.978,1.067.903.864,https://maps.google.com/?cid=0x0:0x171df57d9a7e1a9a,
cafe,Kedai Kopi,Nuno Cafe  Mie balap liar,"Jl. Raya Cirendeu No.68, pisangan, Cireundeu, Kec. Ciputat Tim., Kota Tangerang Selatan, Banten 15419","pisangan, Cireundeu, Kec. Ciputat Tim., Kota Tangerang Selatan",PAPUA,15419,Indonesia,087878945533,,,-63.222.895,1.067.679.361,https://maps.google.com/?cid=0x0:0x212b10061a0474db,
cafe,,Wokhead by Willgoz - Yummykitchen Kebun Jeruk,"Jl. Perjuangan No.99, RT.11/RW.10, Kb. Jeruk, Kec. Kb. Jeruk, Kota Jakarta Barat, Daerah Khusus Ibukota Jakarta 11530","RT.11/RW.10, Kb. Jeruk, Kec. Kb. Jeruk, Kota Jakarta Barat",PAPUA,11530,Indonesia,,,,-61.907.297,1.067.707.663,https://maps.google.com/?cid=0x0:0xaa50cced0136e04a,
cafe,Kedai Kopi,Strat Koppi,"Jl. Moh. Kahfi 1 No.7, RT.5/RW.1, Ciganjur, Kec. Jagakarsa, Kota Jakarta Selatan, Daerah Khusus Ibukota Jakarta 12630","RT.5/RW.1, Ciganjur, Kec. Jagakarsa, Kota Jakarta Selatan",PAPUA,12630,Indonesia,081325231253,,,-63.307.122,1.068.083.144,https://maps.google.com/?cid=0x0:0x5412423a4154f2ff,
cafe,Kedai Kopi,Kopi Bumi,"1, Jl. Langsat I No.3b, RT.1/RW.1, Kramat Pela, Kec. Kby. Baru, Kota Jakarta Selatan, Daerah Khusus Ibukota Jakarta 12160","Jl. Langsat I No.3b, RT.1/RW.1, Kramat Pela, Kec. Kby. Baru, Kota Jakarta Selatan",PAPUA,12160,Indonesia,087763524000,,,-62.439.724,1.067.921.045,https://maps.google.com/?cid=0x0:0x9273f01da15a113e,
cafe,Toko Perlengkapan Rumah,Gin Gin Bakery Shop,"ECO 8, Jl. Taman Aries No.8, Meruya Utara, Kec. Kembangan, Kota Jakarta Barat, Daerah Khusus Ibukota Jakarta 11620","Jl. Taman Aries No.8, Meruya Utara, Kec. Kembangan, Kota Jakarta Barat",PAPUA,11620,Indonesia,082249684874,,,-6.191.723,1.067.532.616,https://maps.google.com/?cid=0x0:0x957a9107712686f8,
cafe,Kafe,Naked Papa,"7, RW.8, North Kembangan, Kembangan, West Jakarta City, Jakarta","Kota Jakarta Barat, Daerah Khusus Ibukota Jakarta",PAPUA,,Indonesia,,,,-61.671.458,1.067.428.845,https://maps.google.com/?cid=0x0:0xa97c7aa54a342315,
cafe,Indonesia,BERLARIS KOPI DAN RESTO,"Jl. Kayu Manis 1 No.4C, RT.6/RW.2, Pd. Cabe Udik, Kec. Pamulang, Kota Tangerang Selatan, Banten 15418","RT.6/RW.2, Pd. Cabe Udik, Kec. Pamulang, Kota Tangerang Selatan",PAPUA,15418,Indonesia,085179518505,,,-63.507.768,1.067.666.979,https://maps.google.com/?cid=0x0:0x89f641786b4784ef,
cafe,Nasi,Warkop Sinar 7 Pamulang,"Ruko Pamulang Permai Blok SH22.7, Jl. Pamulang Raya No.5, Kota Tangerang Selatan, Banten 15419","Jl. Pamulang Raya No.5, Kota Tangerang Selatan",PAPUA,15419,Indonesia,08111085177,,,-63.430.332,1.067.289.237,https://maps.google.com/?cid=0x0:0x534d57ac795a603d,
cafe,Kedai Kopi,ASAGAO Coffee House Puri Indah,"Jl. Puri Kembangan No.28, RT.1/RW.8, Kembangan Sel., Kec. Kembangan, Kota Jakarta Barat, Daerah Khusus Ibukota Jakarta 11610","RT.1/RW.8, Kembangan Sel., Kec. Kembangan, Kota Jakarta Barat",PAPUA,11610,Indonesia,085211560002,,,-61.818.176,1.067.513.127,https://maps.google.com/?cid=0x0:0xa80155b34e69ff97,
cafe,cafe,Papua 98913,"Kabupaten Puncak Jaya, Papua","Kabupaten Puncak Jaya, Papua",PAPUA,,Indonesia,,,,-34.610.775,1.378.229.754,https://maps.google.com/?cid=0x0:0x12db5455263a30a5,
cafe,Kafe,CAFE MAMI SPESIAL,"FF56+73Q, Doyo Baru, Distrik Waibu, Kabupaten Jayapura, Papua 99352","Doyo Baru, Distrik Waibu, Kabupaten Jayapura",PAPUA,99352,Indonesia,085331567983,,,-25.417.855,1.404.602.307,https://maps.google.com/?cid=0x0:0xb7a6ab0d1f83671b,
cafe,cafe,FYAMAU CAFE,"4Q74+FMG, Jl. Raya Klp. Satu, Sawar, Kec. Sarmi, Kabupaten Sarmi, Papua 99373","Jl. Raya Klp. Satu, Sawar, Kec. Sarmi, Kabupaten Sarmi",PAPUA,99373,Indonesia,,,,-18.863.213,1.387.567.117,https://maps.google.com/?cid=0x0:0xf30ff3d9f1111c54,
cafe,cafe,Distrik Yamo,"Kabupaten Puncak Jaya, Papua","Kabupaten Puncak Jaya, Papua",PAPUA,,Indonesia,,,,-36.556.591,1.379.780.297,https://maps.google.com/?cid=0x0:0xb729b64c2b9ca514,
cafe,Rumah Makan,cafe UJM Waropen Papua,"QCR8+5C7, Kemon Jaya Sp V, Kec. Urei Faisei, Kabupaten Waropen, Papua 98261","Kemon Jaya Sp V, Kec. Urei Faisei, Kabupaten Waropen",PAPUA,98261,Indonesia,,,,-22.095.908,1.364.160.381,https://maps.google.com/?cid=0x0:0x8902420b92236840,
cafe,Kedai Kopi,Caffe Black Yellow,"F866+VV3, Obaa, Kec. Obaa, Kabupaten Mappi, Papua 99881","Obaa, Kec. Obaa, Kabupaten Mappi",PAPUA,99881,Indonesia,,,,-65.377.575,1.393.122.096,https://maps.google.com/?cid=0x0:0xc73a0356c1b4b311,
cafe,Kafe,Jay  Ray Cafe Net,"V8X9+632, Persatuan, Kec. Mandobo, Kabupaten Boven Digoel, Papua 99663","Persatuan, Kec. Mandobo, Kabupaten Boven Digoel",PAPUA,99663,Indonesia,,,,-61.019.794,140.317.631,https://maps.google.com/?cid=0x0:0x88f80a90654a8769,
cafe,Perkebunan Pohon,Rumah Kopi Dokome,"8X98+73, Wuyukwi, Distrik Mulia, Kabupaten Puncak Jaya, Papua","Kabupaten Puncak Jaya, Papua",PAPUA,,Indonesia,,,,-36.817.546,1.379.651.888,https://maps.google.com/?cid=0x0:0xfa716672ca2f70da,
cafe,Restoran,Yummy Cafe,"Jl. Petogogan I Gg. 4 No.27, RT.6/RW.11, Gandaria Utara, Kec. Kby. Baru, Kota Jakarta Selatan, Daerah Khusus Ibukota Jakarta 12140","RT.6/RW.11, Gandaria Utara, Kec. Kby. Baru, Kota Jakarta Selatan",PAPUA,12140,Indonesia,,,,-62.519.794,106.793.877,https://maps.google.com/?cid=0x0:0x235a3ad2edc43310,
cafe,Kafe,Cafe joe,"Jl. Vikamas Utara 6 No.26, RT.10/RW.5, Kapuk Muara, Kec. Penjaringan, Jkt Utara, Daerah Khusus Ibukota Jakarta 14460","RT.10/RW.5, Kapuk Muara, Kec. Penjaringan, Jkt Utara",PAPUA,14460,Indonesia,,,,-61.310.922,1.067.688.731,https://maps.google.com/?cid=0x0:0xb342e9c20b375f08,
cafe,China,TOP YAMMIE,"1, Jl. Labu No.3-6 1, RT./RW/RW.6, Mangga Besar, Kec. Taman Sari, Kota Jakarta Barat, Daerah Khusus Ibukota Jakarta 11180","Jl. Labu No.3-6 1, RT./RW/RW.6, Mangga Besar, Kec. Taman Sari, Kota Jakarta Barat",PAPUA,11180,Indonesia,0216595777,,,-61.472.152,106.817.722,https://maps.google.com/?cid=0x0:0xf416e36565e11b55,
cafe,cafe,Joe Cafe,"Jln. Restu D. K. I, Gelora, Kecamatan Tanah Abang, Kota Jakarta Pusat, Daerah Khusus Ibukota Jakarta 10640","Gelora, Kecamatan Tanah Abang, Kota Jakarta Pusat",PAPUA,10640,Indonesia,085945293302,,,-62.218.465,1.068.001.172,https://maps.google.com/?cid=0x0:0x8b53ceebbeea8509,
cafe,cafe,Yoi Jotarman Cafe,"WP Amaliah, Jln. Raya Masjid Amaliah, Ciawi, Kec. Ciawi, Kabupaten Bogor, Jawa Barat 16720","Jln. Raya Masjid Amaliah, Ciawi, Kec. Ciawi, Kabupaten Bogor",PAPUA,16720,Indonesia,082111848585,,,-66.556.518,1.068.492.184,https://maps.google.com/?cid=0x0:0xa54f53621aa97b8d,
cafe,cafe,Yam O' Yam,"Jl. G1 No.11C, RT.2/RW.2, Slipi, Kec. Palmerah, Kota Jakarta Barat, Daerah Khusus Ibukota Jakarta 11410","RT.2/RW.2, Slipi, Kec. Palmerah, Kota Jakarta Barat",PAPUA,11410,Indonesia,,,,-61.928.521,1.068.003.482,https://maps.google.com/?cid=0x0:0x9c915023bdf401c,
cafe,cafe,Papua 98914,"Fawi, Kabupaten Puncak Jaya, Papua","Kabupaten Puncak Jaya, Papua",PAPUA,,Indonesia,,,,-35.181.977,1.377.440.315,https://maps.google.com/?cid=0x0:0xa728d4ad1372091c,
cafe,cafe,Torere,"Bay of Plenty Region 3197, Selandia Baru","Torere, Selandia Baru",PAPUA,,Indonesia,,,,-379.498.316,1.774.895.869,https://maps.google.com/?cid=0x0:0x500ef6143a31000,
cafe,cafe,Papua,,Papua,PAPUA,,Indonesia,,,,-4.269.928,1.380.803.529,https://maps.google.com/?cid=0x0:0xeba94e9c5eefe673,
cafe,Kafe,Tana Papua Coffee and Roastery,"Jl. Raya Abepura, Vim, Kec. Abepura, Kota Jayapura, Papua 99220","Vim, Kec. Abepura, Kota Jayapura",PAPUA,99220,Indonesia,082175416609,,,-26.047.712,1.406.727.079,https://maps.google.com/?cid=0x0:0x747c727d4b94ebf6,
cafe,Kafe,Jay  Ray Cafe Net,"V8X9+632, Persatuan, Kec. Mandobo, Kabupaten Boven Digoel, Papua 99663","Persatuan, Kec. Mandobo, Kabupaten Boven Digoel",PAPUA,99663,Indonesia,,,,-61.019.794,140.317.631,https://maps.google.com/?cid=0x0:0x88f80a90654a8769,
cafe,Kedai Kopi,Rthree coffee  rest,"468P+5PJ, Jl. Padat Karya, Serui Kota, Kec. Yapen Sel., Kabupaten Kepulauan Yapen, Papua 98627","Jl. Padat Karya, Serui Kota, Kec. Yapen Sel., Kabupaten Kepulauan Yapen",PAPUA,98627,Indonesia,081241584548,,,-18.845.257,1.362.367.688,https://maps.google.com/?cid=0x0:0x972620a571113986,
cafe,Pujasera,Torang Kofie Manokwari,"Jl. Yos Sudarso No.8, Manokwari Bar., Kec. Manokwari Bar., Kabupaten Manokwari, Papua Bar. 98312","Manokwari Bar., Kec. Manokwari Bar., Kabupaten Manokwari",PAPUA,98312,Indonesia,08114869988,,,-0.8568949,1.340.673.228,https://maps.google.com/?cid=0x0:0xf637fe327424a42,
cafe,Kedai Kopi,The Topas Cafe  Resto,"CVMV+4QG, Jl. Mente Sempan, Nawaripi, Kec. Mimika Baru, Kabupaten Mimika, Papua 99971","Jl. Mente Sempan, Nawaripi, Kec. Mimika Baru, Kabupaten Mimika",PAPUA,99971,Indonesia,085273158976,,,-45.682.963,1.368.947.131,https://maps.google.com/?cid=0x0:0x95facf1998915083,
cafe,Kafe,Tator Cafe,"Darmawangsa Square GF Unit 42,43,45 Jalan Darmawangsa VI No.22-24 Pulo Kebayoran Baru RT.5, RT.5/RW.1, Pulo, Kec. Kby. Baru, Kota Jakarta Selatan, Daerah Khusus Ibukota Jakarta 12160","RT.5/RW.1, Pulo, Kec. Kby. Baru, Kota Jakarta Selatan",PAPUA,12160,Indonesia,02172788356,,,-62.532.636,1.068.016.659,https://maps.google.com/?cid=0x0:0x6e7ab361d47309fe,
cafe,Indonesia,KEDAI RIOLO,"Jl. Kramat Kwitang I No.39, Kwitang, Kec. Senen, Kota Jakarta Pusat, Daerah Khusus Ibukota Jakarta 10420","Kwitang, Kec. Senen, Kota Jakarta Pusat",PAPUA,10420,Indonesia,082111168178,,,-61.830.298,1.068.407.443,https://maps.google.com/?cid=0x0:0xb6d642931f13bc66,
cafe,Kafe,TORAJA COFFEE HOUSE,"Jl. Raya Casablanca No.1 B, RT.9/RW.10, Menteng Dalam, Kec. Tebet, Kota Jakarta Selatan, Daerah Khusus Ibukota Jakarta 12870","RT.9/RW.10, Menteng Dalam, Kec. Tebet, Kota Jakarta Selatan",PAPUA,12870,Indonesia,02128542136,,,-62.258.471,1.068.360.671,https://maps.google.com/?cid=0x0:0xd04840d72f20af89,
cafe,Kedai Kopi,Kohicha Japanese Cafe,"Ruko Gading Kirana Jalan Boulevard Artha Gading No.Blok A.6a No.21, RT.18/RW.8, Klp. Gading Bar., Kec. Klp. Gading, Jkt Utara, Daerah Khusus Ibukota Jakarta 14240","RT.18/RW.8, Klp. Gading Bar., Kec. Klp. Gading, Jkt Utara",PAPUA,14240,Indonesia,087878431807,,,-61.454.907,1.068.961.152,https://maps.google.com/?cid=0x0:0x2924c951c90023db,
cafe,cafe,Papua 98912,"Mewoluk, Kabupaten Puncak Jaya, Papua","Kabupaten Puncak Jaya, Papua",PAPUA,,Indonesia,,,,-36.504.476,1.379.020.367,https://maps.google.com/?cid=0x0:0x8fdf1a31f83b56f2,
cafe,,Warung Maleo  Juragan Pinang El Kumis,"73VV+H89, Kalome / Pagargom, Kec. Tingginambut, Kabupaten Puncak Jaya, Papua 99563","Kalome / Pagargom, Kec. Tingginambut, Kabupaten Puncak Jaya",PAPUA,99563,Indonesia,,,,-37.060.904,1.380.933.589,https://maps.google.com/?cid=0x0:0xf4e1e974e9dd6b85,
cafe,Dapur Umum,Warung Segman,"7XX7+2Q7, Wuyukwi, Distrik Mulia, Kabupaten Puncak Jaya, Papua 98973","Wuyukwi, Distrik Mulia, Kabupaten Puncak Jaya",PAPUA,98973,Indonesia,085244167861,,,-37.025.417,1.379.644.578,https://maps.google.com/?cid=0x0:0xb70d2a8b2b6767b,
cafe,Mi,RM Barokah,"8X28+42H, Wuyukwi, Distrik Mulia, Kabupaten Puncak Jaya, Papua 98973","Wuyukwi, Distrik Mulia, Kabupaten Puncak Jaya",PAPUA,98973,Indonesia,,,,-36.996.957,1.379.651.121,https://maps.google.com/?cid=0x0:0xc0f5e27433afe182,
cafe,Mesin Sangrai Kopi,Alenia Papua Coffee  Kitchen,"Jl. Kemang Raya No.66 B 8, RT.8/RW.2, Bangka, Kec. Mampang Prpt., Kota Jakarta Selatan, Daerah Khusus Ibukota Jakarta 12730","RT.8/RW.2, Bangka, Kec. Mampang Prpt., Kota Jakarta Selatan",PAPUA,12730,Indonesia,02171790141,,,-62.638.119,1.068.158.777,https://maps.google.com/?cid=0x0:0xe49807fcfab68b48,
cafe,Mi,Rumah Makan Pakde,"7XX8+243, Wuyukwi, Distrik Mulia, Kabupaten Puncak Jaya, Papua 98973","Wuyukwi, Distrik Mulia, Kabupaten Puncak Jaya",PAPUA,98973,Indonesia,,,,-37.024.754,1.379.653.046,https://maps.google.com/?cid=0x0:0x717d5035d0b44952,
cafe,Rumah Makan,Warung Pecel Bude Suryani,"8X28+243, Jalan, kandep, Distrik Mulia, Kabupaten Puncak Jaya, Papua 98973","Jalan, kandep, Distrik Mulia, Kabupaten Puncak Jaya",PAPUA,98973,Indonesia,085259034394,,,-37.003.995,1.379.655.851,https://maps.google.com/?cid=0x0:0xfa5acbc4b86540c2,
cafe,Restoran,Warung Sate Bude Linda,"7XQH+G3F, Pruleme, Distrik Mulia, Kabupaten Puncak Jaya, Papua 98973","Pruleme, Distrik Mulia, Kabupaten Puncak Jaya",PAPUA,98973,Indonesia,,,,-37.111.967,1.379.776.632,https://maps.google.com/?cid=0x0:0x9954cf172f984c56,
cafe,Padang,Warung Sari Minang,"7XW8+W4P, Unnamed Road, Wuyukwi, Distrik Mulia, Kabupaten Puncak Jaya, Papua 98973","Unnamed Road, Wuyukwi, Distrik Mulia, Kabupaten Puncak Jaya",PAPUA,98973,Indonesia,081340958395,,,-3.702.675,137.965.338,https://maps.google.com/?cid=0x0:0x76df75196d523d86,
cafe,Padang,R.M MINANG JAYA,"Jl. Mulia gambut, kota lama, Distrik Mulia, Kabupaten Puncak Jaya, Papua 98915","kota lama, Distrik Mulia, Kabupaten Puncak Jaya",PAPUA,98915,Indonesia,081346313708,,,-37.000.817,1.379.667.389,https://maps.google.com/?cid=0x0:0x545829f3706e16c6,
cafe,Restoran,RM Mie Ayam,"7XX8+PF6, Wuyukwi, Distrik Mulia, Kabupaten Puncak Jaya, Papua 98973","Wuyukwi, Distrik Mulia, Kabupaten Puncak Jaya",PAPUA,98973,Indonesia,,,,-37.007.117,1.379.661.327,https://maps.google.com/?cid=0x0:0xd9ccbd54282ff27e,
cafe,Kedai Kopi,Sinilagi - Food and Coffee,"Ruko Puri Kencana. Jalan Puri Kencana Blok K7/3U, RT.11/RW.7, Kembangan Sel., Kec. Kembangan, Kota Jakarta Barat, Daerah Khusus Ibukota Jakarta 11610","RT.11/RW.7, Kembangan Sel., Kec. Kembangan, Kota Jakarta Barat",PAPUA,11610,Indonesia,,,,-61.907.131,1.067.477.643,https://maps.google.com/?cid=0x0:0x542750392acff889,
cafe,Padang,RM Puja Selera,"7XPJ+MC5, Unnamed Road, Pruleme, Distrik Mulia, Kabupaten Puncak Jaya, Papua 98973","Unnamed Road, Pruleme, Distrik Mulia, Kabupaten Puncak Jaya",PAPUA,98973,Indonesia,,,,-37.133.572,1.379.811.015,https://maps.google.com/?cid=0x0:0x5c5a8ec894f8337c,
cafe,Kafe,cafe bakau holtekam kota jayapura,"9PRF+58, Nafri, Kec. Abepura, Kota Jayapura, Papua","Kota Jayapura, Papua",PAPUA,,Indonesia,08124022007,,,-26.095.335,1.407.232.587,https://maps.google.com/?cid=0x0:0x440c4543fd3a011e,
cafe,Toko,Mulia,"7XRH+4QM, Pagaleme, Distrik Mulia, Kabupaten Puncak Jaya, Papua","Kabupaten Puncak Jaya, Papua",PAPUA,,Indonesia,,,,-37.096.699,1.379.794.169,https://maps.google.com/?cid=0x0:0xdca38a4d907a7d8d,
cafe,Kedai Kopi,Warung kopi TINAM 753/AVT,"73VV+H89, Kalome / Pagargom, Kec. Tingginambut, Kabupaten Puncak Jaya, Papua 99563","Kalome / Pagargom, Kec. Tingginambut, Kabupaten Puncak Jaya",PAPUA,99563,Indonesia,,,,-37.060.904,1.380.933.589,https://maps.google.com/?cid=0x0:0xa3085f7ede9cd42d,
