Category,Real Category,Business Name,Address,City,State,Postal Code,Country,Phone,Email,Website,Latitude,Longitude,Map Link,Details Link
building materials,building materials,Papua 98972,Papua,Papua,PAPUA,,Indonesia,,,,-3.921.968,1.375.275.422,https://maps.google.com/?cid=0x0:0x765d582b762840f7,
building materials,Grosir peralatan kantor,Facilities Management Landscaping Shop,"V35P+2R8, Unnamed Road, Tembagapura, Mimika Regency, Papua 98972","Unnamed Road, Tembagapura, Mimika Regency",PAPUA,98972,Indonesia,0901463718,,,-41.424.528,137.087.078,https://maps.google.com/?cid=0x0:0x48557d4d082b7a34,
building materials,Pemasok batu pecah,Papua Crusher,"V4W3+G6F, Tembagapura, Kec. Tembagapura, Kabupaten Mimika, Papua 98972","Tembagapura, Kec. Tembagapura, Kabupaten Mimika",PAPUA,98972,Indonesia,,,,-41.036.832,1.371.030.359,https://maps.google.com/?cid=0x0:0x970aa409c38ce36d,
building materials,Toko Bahan Bangunan,TB. Grace,"Blok M Square Lantai Basement Blok C # 095, Jalan Melawai Raya, RT.3/RW.1, Melawai, Kebayoran Baru, RT.3/RW.1, Melawai, Kec. Kby. Baru, Kota Jakarta Selatan, Daerah Khusus Ibukota Jakarta 12160","Jalan Melawai Raya, RT.3/RW.1, Melawai, Kebayoran Baru, RT.3/RW.1, Melawai, Kec. Kby. Baru, Kota Jakarta Selatan",PAPUA,12160,Indonesia,081286015742,,,-6.244.713,106.800.695,https://maps.google.com/?cid=0x0:0xf0922029d5c83052,
building materials,Toko Bahan Bangunan,Tb jago,"Jl. Ophir I No.4 4, RT.4/RW.5, Gunung, Kec. Kby. Baru, Kota Jakarta Selatan, Daerah Khusus Ibukota Jakarta 12120","RT.4/RW.5, Gunung, Kec. Kby. Baru, Kota Jakarta Selatan",PAPUA,12120,Indonesia,,,,-62.353.591,1.067.886.752,https://maps.google.com/?cid=0x0:0x43efa8ae7e4dbbfe,
building materials,Toko,Mandiri Jaya. CV,"Jl. Taman Sari IV No.37 13, RT.13/RW.8, Maphar, Kec. Taman Sari, Kota Jakarta Barat, Daerah Khusus Ibukota Jakarta 11150","RT.13/RW.8, Maphar, Kec. Taman Sari, Kota Jakarta Barat",PAPUA,11150,Indonesia,0216291523,,,-61.590.764,1.068.255.239,https://maps.google.com/?cid=0x0:0x3e6bc5b1af950db6,
building materials,Pengembangan Bisnis Perdagangan,SPARE PART CATERPILLAR | HITACHI | KOBELCO | KOMATSU -PT. Blessindo Prima Sarana,"No Z9, Jl. Mangga Besar IV I, Taman Sari, Kec. Taman Sari, jakarta, Daerah Khusus Ibukota Jakarta 11150","Jl. Mangga Besar IV I, Taman Sari, Kec. Taman Sari, jakarta",PAPUA,11150,Indonesia,02162202518,,,-61.521.017,1.068.253.391,https://maps.google.com/?cid=0x0:0x9bb231e1e1cffa07,
building materials,building materials,Papua 98911,"Kabupaten Puncak Jaya, Papua","Kabupaten Puncak Jaya, Papua",PAPUA,,Indonesia,,,,-35.879.887,1.377.538.931,https://maps.google.com/?cid=0x0:0x87fbe061dff44735,
building materials,Toko Bahan Bangunan,Depo Bangunan Mbanyu Mili,"3VQM+2GP depan balai kampung sp 2, Prafi Mulia, Distrik Prafi, Kabupaten Manokwari, Papua Bar. 98356","Prafi Mulia, Distrik Prafi, Kabupaten Manokwari",PAPUA,98356,Indonesia,085254126242,,,-0.9124191,1.338.838.245,https://maps.google.com/?cid=0x0:0x72bb281db456c91a,
building materials,Toko Bahan Bangunan,Mulia Jaya Toko Bangunan,"WW9Q+9M5, Jl. Hom-Hom, Hetuma, Distrik Wamena, Kabupaten Jayawijaya, Papua 99511","Jl. Hom-Hom, Hetuma, Distrik Wamena, Kabupaten Jayawijaya",PAPUA,99511,Indonesia,082121654001,,,-40.816.058,1.389.392.432,https://maps.google.com/?cid=0x0:0xe35085cf901d3afb,
building materials,Toko bahan makanan,Mulia Mart,"7XJQ+XHM, Pagaleme, Distrik Mulia, Kabupaten Puncak Jaya, Papua 98975","Pagaleme, Distrik Mulia, Kabupaten Puncak Jaya",PAPUA,98975,Indonesia,,,,-371.754,1.379.889.263,https://maps.google.com/?cid=0x0:0x624add95624079ff,
building materials,Toko Bahan Bangunan,TB.SUMBER MULIA,"9, Jl. Kemandoran Pluis No.05, RT.9/RW.14, Grogol Utara, Kec. Kby. Lama, Kota Jakarta Selatan, Daerah Khusus Ibukota Jakarta 12210","Jl. Kemandoran Pluis No.05, RT.9/RW.14, Grogol Utara, Kec. Kby. Lama, Kota Jakarta Selatan",PAPUA,12210,Indonesia,0215323008,,,-62.124.382,1.067.933.113,https://maps.google.com/?cid=0x0:0xfbab8b666bc7b450,
building materials,Toserba,Toko Bangunan Mulia,"Jalan B raya No.mor 1, RT.13/RW.4, Karang Anyar, Kecamatan Sawah Besar, Kota Jakarta Pusat, Daerah Khusus Ibukota Jakarta 10740","RT.13/RW.4, Karang Anyar, Kecamatan Sawah Besar, Kota Jakarta Pusat",PAPUA,10740,Indonesia,081383340168,,,-61.555.695,1.068.311.126,https://maps.google.com/?cid=0x0:0x1c8ca5bf07717326,
building materials,Toko Bahan Bangunan,TB. MULIA,"Jl. Bisma 2 No.2 7, RT.7/RW.10, Papanggo, Kec. Tj. Priok, Jkt Utara, Daerah Khusus Ibukota Jakarta 14340","RT.7/RW.10, Papanggo, Kec. Tj. Priok, Jkt Utara",PAPUA,14340,Indonesia,081247407076,,,-61.314.012,1.068.676.404,https://maps.google.com/?cid=0x0:0xbc98c2951a7676f1,
building materials,Toko Bahan Bangunan,Tb mulia selatan,"Jl. Ciputat Raya No.17, Pd. Pinang, Kec. Kby. Lama, Kota Jakarta Selatan, Daerah Khusus Ibukota Jakarta 12310","Pd. Pinang, Kec. Kby. Lama, Kota Jakarta Selatan",PAPUA,12310,Indonesia,02175811451,,,-62.636.907,1.067.750.253,https://maps.google.com/?cid=0x0:0x7b7b258895994312,
building materials,Toko Bahan Bangunan,TB Mulia Baru,"Jl. Kp. Gusti, RT.13/RW.15, Pejagalan, Kec. Penjaringan, Jkt Utara, Daerah Khusus Ibukota Jakarta 14450","RT.13/RW.15, Pejagalan, Kec. Penjaringan, Jkt Utara",PAPUA,14450,Indonesia,0811900451,,,-61.416.829,1.067.777.153,https://maps.google.com/?cid=0x0:0x77c4da26285be3b0,
building materials,building materials,,,,PAPUA,,Indonesia,02159987771,,,-6.272.587,1.068.020.795,https://maps.google.com/?cid=0x0:0xba2f0435702434,
building materials,Toko Bahan Bangunan,Logam Mulia,"Jl. Ciputat Raya No.#18 3, RT.3/RW.1, Cipulir, Kec. Kby. Lama, Kota Jakarta Selatan, Daerah Khusus Ibukota Jakarta 12230","RT.3/RW.1, Cipulir, Kec. Kby. Lama, Kota Jakarta Selatan",PAPUA,12230,Indonesia,08988179499,,,-62.399.823,1.067.805.571,https://maps.google.com/?cid=0x0:0x6d9494d68237e9fe,
building materials,Toko Bahan Bangunan,TB. Mulya Jaya,"Jl. Pancoran Barat VII No.10 14, RT.14/RW.14, Pancoran, Kec. Pancoran, Kota Jakarta Selatan, Daerah Khusus Ibukota Jakarta 12780","RT.14/RW.14, Pancoran, Kec. Pancoran, Kota Jakarta Selatan",PAPUA,12780,Indonesia,02179196838,,,-62.515.736,1.068.366.935,https://maps.google.com/?cid=0x0:0x86573f1c67a1dd73,
building materials,Toko Bahan Bangunan,Toko Bangunan Gading Mulia - Kelapa Gading,"Jl. Bangun Cipta Sarana No.7, Kelapa Gading, Jakarta Utara 14250, RT.4/RW.5, Pegangsaan Dua, Kec. Klp. Gading, Kelapa Gading, Daerah Khusus Ibukota Jakarta 14250","Kelapa Gading, Jakarta Utara",PAPUA,14250,Indonesia,0214521081,,,-61.769.563,1.069.073.495,https://maps.google.com/?cid=0x0:0x56769f5e4f125f86,
building materials,Toko,Toko Bangunan Mulia Makmur,"Jl. RS. Fatmawati Raya No.58 4, RT.1/RW.1, Cipete Utara, Kec. Kby. Baru, Kota Jakarta Selatan, Daerah Khusus Ibukota Jakarta 12150","RT.1/RW.1, Cipete Utara, Kec. Kby. Baru, Kota Jakarta Selatan",PAPUA,12150,Indonesia,0217247479,,,-62.593.212,1.067.970.168,https://maps.google.com/?cid=0x0:0x8867054b636fad19,
building materials,Toko Bahan Bangunan,Toko Bangunan Sumber Mulia,"Jl. RS. Fatmawati Raya No.14A, Cilandak Bar., Kec. Cilandak, Jakarta, Daerah Khusus Ibukota Jakarta 12430","Cilandak Bar., Kec. Cilandak, Jakarta",PAPUA,12430,Indonesia,0217695665,,,-62.901.599,1.067.954.885,https://maps.google.com/?cid=0x0:0x43ed4cf94871b72b,
building materials,Toko Bahan Bangunan,TB Mulia Jaya,"Jl. Talib II No.9, RT.10/RW.5, Krukut, Kec. Taman Sari, Kota Jakarta Barat, Daerah Khusus Ibukota Jakarta 11140","RT.10/RW.5, Krukut, Kec. Taman Sari, Kota Jakarta Barat",PAPUA,11140,Indonesia,,,,-61.578.948,1.068.117.615,https://maps.google.com/?cid=0x0:0x8a873fcfcb3253dd,
building materials,Toko Bahan Bangunan,Toko Bangunan Jaya Mulia,"Jalan Ancol Selatan 2 No.29, RT.6/RW.7, Sunter Agung, Kec. Tj. Priok, Jkt Utara, Daerah Khusus Ibukota Jakarta 14350","RT.6/RW.7, Sunter Agung, Kec. Tj. Priok, Jkt Utara",PAPUA,14350,Indonesia,02164717420,,,-61.339.519,1.068.570.802,https://maps.google.com/?cid=0x0:0x6d8684804f279000,
building materials,Toko Bahan Bangunan,Logam Mulia. UD,"Jl. Ps. No.18, RT.3/RW.1, Kby. Lama Utara, Kec. Kby. Lama, Kota Jakarta Selatan, Daerah Khusus Ibukota Jakarta 12310","RT.3/RW.1, Kby. Lama Utara, Kec. Kby. Lama, Kota Jakarta Selatan",PAPUA,12310,Indonesia,0217244073,,,-62.366.914,1.067.811.591,https://maps.google.com/?cid=0x0:0x5b5ae8a63ff1fa7,
building materials,Toko Bahan Bangunan,Mulia,"Ps. Glodok Metro, Jl. Blustru No.6 1, RT.1/RW.6, Mangga Besar, Kec. Taman Sari, Kota Jakarta Barat, Daerah Khusus Ibukota Jakarta 11180","Jl. Blustru No.6 1, RT.1/RW.6, Mangga Besar, Kec. Taman Sari, Kota Jakarta Barat",PAPUA,11180,Indonesia,0216395259,,,-6.145.207,1.068.163.696,https://maps.google.com/?cid=0x0:0xdec8a26ff8635c88,
building materials,Toko Bahan Bangunan,Persada Permatamulia,"Jl. Letjen S Parman Kav 62-63 Slipi Palmerah Jakarta Barat DKI Jakarta 8 4, RT.8/RW.4, Slipi, Kec. Palmerah, Kota Jakarta Barat, Daerah Khusus Ibukota Jakarta 11410","RT.8/RW.4, Slipi, Kec. Palmerah, Kota Jakarta Barat",PAPUA,11410,Indonesia,0215306711,,,-6.197.131,106.798.214,https://maps.google.com/?cid=0x0:0x928b43084dfa4383,
building materials,Toko Bahan Bangunan,TB. Mulia,"VWC9+P46, Jl. Raya Tugu, RT.2/RW.14, Tugu Utara, Kec. Koja, Jkt Utara, Daerah Khusus Ibukota Jakarta 14260","Jl. Raya Tugu, RT.2/RW.14, Tugu Utara, Kec. Koja, Jkt Utara",PAPUA,14260,Indonesia,,,,-61.282.063,1.069.177.507,https://maps.google.com/?cid=0x0:0xc4ad32227d00950,
building materials,Pemasok Bahan Bangunan,Dunia Material Jakarta,"Pinangsia, Kec. Pademangan, Jakarta, Daerah Khusus Ibukota Jakarta 14410","Kec. Pademangan, Jakarta",PAPUA,14410,Indonesia,087717797733,,,-61.373.225,1.068.190.455,https://maps.google.com/?cid=0x0:0x5ac2904c6083def2,
building materials,Toko Bahan Bangunan,Mulia Alam,"Jl. Raya Ceger No.5 3b, RT.5/RW.1, Ceger, Cipayung, East Jakarta City, Jakarta 13820","RT.5/RW.1, Ceger, Cipayung, East Jakarta City",PAPUA,13820,Indonesia,085212296799,,,-63.069.079,1.068.886.452,https://maps.google.com/?cid=0x0:0xcd938ae751cba3e2,
building materials,Pemasok Bahan Bangunan,Multi Casatama Mulia. PT,"RRGM+M79, Ps. Baru, Kecamatan Sawah Besar, Kota Jakarta Pusat, Daerah Khusus Ibukota Jakarta 10710","Ps. Baru, Kecamatan Sawah Besar, Kota Jakarta Pusat",PAPUA,10710,Indonesia,0216604433,,,-61.733.329,1.068.332.204,https://maps.google.com/?cid=0x0:0x348ce54252884513,
building materials,Toko Bahan Bangunan,Depo Bangunan Mbanyu Mili,"3VQM+2GP depan balai kampung sp 2, Prafi Mulia, Distrik Prafi, Kabupaten Manokwari, Papua Bar. 98356","Prafi Mulia, Distrik Prafi, Kabupaten Manokwari",PAPUA,98356,Indonesia,085254126242,,,-0.9124191,1.338.838.245,https://maps.google.com/?cid=0x0:0x72bb281db456c91a,
building materials,Toserba,TOKO MAJU MAKMUR,"4R8F+95V, Udapi Hilir, Distrik Prafi, Kabupaten Manokwari, Papua Bar. 98356","Udapi Hilir, Distrik Prafi, Kabupaten Manokwari",PAPUA,98356,Indonesia,,,,-0.884108,1.338.229.369,https://maps.google.com/?cid=0x0:0x5dd0e3c69ab93bdc,
building materials,building materials,Papua,,Papua,PAPUA,,Indonesia,,,,-4.269.928,1.380.803.529,https://maps.google.com/?cid=0x0:0xeba94e9c5eefe673,
building materials,Toko Bahan Bangunan,TB Jaya Abadi PIK,"Jl. Pantai Indah Selatan No.38 Blok B, RT.3/RW.3, Kamal Muara, Kec. Penjaringan, Jkt Utara, Daerah Khusus Ibukota Jakarta 14470","RT.3/RW.3, Kamal Muara, Kec. Penjaringan, Jkt Utara",PAPUA,14470,Indonesia,02129219155,,,-61.240.958,1.067.444.119,https://maps.google.com/?cid=0x0:0x40af2abd84bbcba4,
building materials,Toko Bahan Bangunan,"Papua Bangunan, CV PAPUA ABADI","Jl. Basuki Rahmat No.780, Klawuyuk, Distrik Sorong Timur, Kota Sorong, Papua Bar. 98416","Klawuyuk, Distrik Sorong Timur, Kota Sorong",PAPUA,98416,Indonesia,081332017550,,,-0.8954087,1.313.186.922,https://maps.google.com/?cid=0x0:0x851804bc3aa7f033,
building materials,building materials,Papua 98917,"Mewoluk, Kabupaten Puncak Jaya, Papua","Kabupaten Puncak Jaya, Papua",PAPUA,,Indonesia,,,,-36.519.188,1.377.933.577,https://maps.google.com/?cid=0x0:0x499f37f7bd3f4341,
building materials,Toko,Toko Dua Sahabat/Jotun,"Jln. Trans Papua kilo 2, Kabupaten Boven Digoel","Kabupaten Boven Digoel, Papua",PAPUA,,Indonesia,,,,-60.959.217,1.403.245.587,https://maps.google.com/?cid=0x0:0xe788284fb59d6345,
building materials,building materials,Fawi,"Kabupaten Puncak Jaya, Papua","Kabupaten Puncak Jaya, Papua",PAPUA,,Indonesia,,,,-33.157.958,1.376.849.007,https://maps.google.com/?cid=0x0:0x8d959aadfd743ac9,
building materials,building materials,Toko Mitra Bangunan,"8F8G+WJ5, Karubaga, Kec. Karubaga, Kabupaten Tolikara, Papua 99567","Karubaga, Kec. Karubaga, Kabupaten Tolikara",PAPUA,99567,Indonesia,081317225643,,,-3.682.733,1.384.766.089,https://maps.google.com/?cid=0x0:0x94f019f9132886e9,
building materials,Pemasok Bahan Bangunan,Yonggao Building Materials Company,"Mong Kok, Hong Kong","Mong Kok, Hong Kong",PAPUA,,Indonesia,85223081962,,,22.320.794,114.168.031,https://maps.google.com/?cid=0x0:0x2cb5a51d049be793,
building materials,Pemasok Aluminium,FORTA Aluminium,"Jl. Raya Cikuda Wanaherang No.27, Wanaherang, Kec. Gn. Putri, Kabupaten Bogor, Jawa Barat 16965","Wanaherang, Kec. Gn. Putri, Kabupaten Bogor",PAPUA,16965,Indonesia,08111452313,,,-64.162.466,106.944.156,https://maps.google.com/?cid=0x0:0xe053978846106b1a,
building materials,Toko Bahan Bangunan,"Mega Jaya Barokah ( Jual Triplek, Mdf, Hmr, Blockmin, HPL, Lem Kuning, Hardware Interior )","Depan RSI Aminah, Ruko No.E-01, Watutulis Utara, Watutulis, Kec. Prambon, Kabupaten Sidoarjo, Jawa Timur 61264","Ruko No.E-01, Watutulis Utara, Watutulis, Kec. Prambon, Kabupaten Sidoarjo",PAPUA,61264,Indonesia,08566661000,,,-74.405.207,1.125.722.891,https://maps.google.com/?cid=0x0:0xac40a6d9f0abf32a,
building materials,Perusahaan Konstruksi,Shing Fat Building Materials Ltd,"8D Mong Kok Rd, Mong Kok, Hong Kong","Mong Kok, Hong Kong",PAPUA,,Indonesia,85227871822,,,2.232.091,114.168.191,https://maps.google.com/?cid=0x0:0x6cdf1f2b2cd6d586,
building materials,Pemasok Bahan Bangunan,??????????,"609 Reclamation St, Prince Edward, Hong Kong","Prince Edward, Hong Kong",PAPUA,,Indonesia,85223816678,,,223.229.018,1.141.667.509,https://maps.google.com/?cid=0x0:0x3e084fde90d6fae4,
building materials,Pemasok Bahan Bangunan,Yuilley Building Materials Co Ltd,"323? Lockhart Rd, Wan Chai, Hong Kong","Wan Chai, Hong Kong",PAPUA,,Indonesia,85226903388,,,222.790.473,1.141.783.762,https://maps.google.com/?cid=0x0:0x75a513eff55a514e,
building materials,Produsen,Pabrik Wood Pellet Bogor,"Mekarsari, Kec. Cileungsi, Kabupaten Bogor, Jawa Barat 16820","Kec. Cileungsi, Kabupaten Bogor",PAPUA,16820,Indonesia,087779183654,,,-63.976.891,1.070.058.238,https://maps.google.com/?cid=0x0:0xae6f01c67ed024fa,
building materials,Pemasok Bahan Bangunan,CV. SINAR PANCA UTAMA - Distributor Bahan Bangunan,"Babatan Jati Utara 1, RT.09/RW.03, Babatan, Jati, Kec. Sidoarjo, Kabupaten Sidoarjo, Jawa Timur 61226","RT.09/RW.03, Babatan, Jati, Kec. Sidoarjo, Kabupaten Sidoarjo",PAPUA,61226,Indonesia,081233516124,,,-74.414.228,1.126.949.627,https://maps.google.com/?cid=0x0:0x1a1f2b98e0b06cf9,
building materials,Pemasok Bahan Bangunan,????????,"Hong Kong, Mong Kok, Reclamation St, 623????","Mong Kok, Hong Kong",PAPUA,,Indonesia,85223910032,,,223.232.053,114.166.693,https://maps.google.com/?cid=0x0:0x180ae026b1447630,
building materials,Toko Bahan Bangunan,????????,"142? Tai Nan St, Prince Edward, Hong Kong","Prince Edward, Hong Kong",PAPUA,,Indonesia,85221511229,,,223.261.463,1.141.648.432,https://maps.google.com/?cid=0x0:0x7519f7cfd1ec9f6f,
building materials,Komplek perumahan,Perumahan Villa Mutiara Jaya,"Q33V+MP2, Jl. Sembada 7, Wanajaya, Kec. Cibitung, Kabupaten Bekasi, Jawa Barat 17520","Jl. Sembada 7, Wanajaya, Kec. Cibitung, Kabupaten Bekasi",PAPUA,17520,Indonesia,,,,-6.245.854,1.070.942.799,https://maps.google.com/?cid=0x0:0xbed3b55757250326,
building materials,building materials,Mewoluk,"Kabupaten Puncak Jaya, Papua","Kabupaten Puncak Jaya, Papua",PAPUA,,Indonesia,,,,-36.029.783,1.378.822.604,https://maps.google.com/?cid=0x0:0xfd57868b200d38ff,
building materials,building materials,Papua 98913,"Kabupaten Puncak Jaya, Papua","Kabupaten Puncak Jaya, Papua",PAPUA,,Indonesia,,,,-34.610.775,1.378.229.754,https://maps.google.com/?cid=0x0:0x12db5455263a30a5,
building materials,Toko Perlengkapan Rumah,"ARTHA JAYA Building Material ,Technic and Sparepart Supplier","8QM8+766, Jl. Lettu Idrus, Kaimana Kota, Kec. Kaimana, Kabupaten Kaimana, Papua Bar. 98654","Jl. Lettu Idrus, Kaimana Kota, Kec. Kaimana, Kabupaten Kaimana",PAPUA,98654,Indonesia,08113337737,,,-36.668.263,1.337.655.059,https://maps.google.com/?cid=0x0:0x771b5c8624f4315b,
building materials,Toko Bahan Bangunan,toko bangunan Yep'Mum,"4Q38+6C4, Jl. Garuda, Arso Kota, Kec. Arso, Kabupaten Keerom, Papua 99468","Jl. Garuda, Arso Kota, Kec. Arso, Kabupaten Keerom",PAPUA,99468,Indonesia,085244664394,,,-28.970.308,1.407.661.616,https://maps.google.com/?cid=0x0:0x9649c22840d7e67e,
building materials,Toko Bahan Bangunan,Depo Bangunan Mbanyu Mili,"3VQM+2GP depan balai kampung sp 2, Prafi Mulia, Distrik Prafi, Kabupaten Manokwari, Papua Bar. 98356","Prafi Mulia, Distrik Prafi, Kabupaten Manokwari",PAPUA,98356,Indonesia,085254126242,,,-0.9124191,1.338.838.245,https://maps.google.com/?cid=0x0:0x72bb281db456c91a,
building materials,Toko Bahan Bangunan,TB Makmur Jaya,"Jl. Garuda kam yuwanain, Kec. Arso, Kabupaten Keerom, Papua 99361","Kec. Arso, Kabupaten Keerom",PAPUA,99361,Indonesia,085211831980,,,-2.897.803,140.763.938,https://maps.google.com/?cid=0x0:0xc3d55026b5b47915,
building materials,Toko Bahan Bangunan,Toko Resky,"jalan poros, Kemon Jaya Sp V, Kec. Waropen Bawah, Kabupaten Waropen, Papua 98261","Kemon Jaya Sp V, Kec. Waropen Bawah, Kabupaten Waropen",PAPUA,98261,Indonesia,085394955553,,,-22.185.432,1.364.200.064,https://maps.google.com/?cid=0x0:0x356450f535852163,
building materials,building materials,Papua 98914,"Fawi, Kabupaten Puncak Jaya, Papua","Kabupaten Puncak Jaya, Papua",PAPUA,,Indonesia,,,,-35.181.977,1.377.440.315,https://maps.google.com/?cid=0x0:0xa728d4ad1372091c,
building materials,building materials,Torere,"Bay of Plenty Region 3197, Selandia Baru","Torere, Selandia Baru",PAPUA,,Indonesia,,,,-379.498.316,1.774.895.869,https://maps.google.com/?cid=0x0:0x500ef6143a31000,
building materials,Toko Bahan Bangunan,Tiptore Building Material,"Jl. Poros Kuda Mati, Klp. Lima, Kec. Merauke, Kabupaten Merauke, Papua 99616","Klp. Lima, Kec. Merauke, Kabupaten Merauke",PAPUA,99616,Indonesia,082293657714,,,-85.061.763,1.404.257.632,https://maps.google.com/?cid=0x0:0xbf132c61e5517b30,
building materials,Toko Bahan Bangunan,ITM Opotiki,"21 Church Street, Opotiki 3122, Selandia Baru","Opotiki, Selandia Baru",PAPUA,,Indonesia,6473155984,,,-380.140.302,1.772.842.784,https://maps.google.com/?cid=0x0:0xa7b4b9d80c58ae11,
building materials,Toko Bahan Bangunan,Mitre 10 Opotiki,"83 Saint John Street, Opotiki 3122, Selandia Baru","Opotiki, Selandia Baru",PAPUA,,Indonesia,6473156366,,,-380.080.531,1.772.868.258,https://maps.google.com/?cid=0x0:0x46ed98f310a25e95,
building materials,building materials,Papua 98912,"Mewoluk, Kabupaten Puncak Jaya, Papua","Kabupaten Puncak Jaya, Papua",PAPUA,,Indonesia,,,,-36.504.476,1.379.020.367,https://maps.google.com/?cid=0x0:0x8fdf1a31f83b56f2,
building materials,Toko,TOBA JAYA,"7XRF+RFM, Pruleme, Distrik Mulia, Kabupaten Puncak Jaya, Papua 98973","Pruleme, Distrik Mulia, Kabupaten Puncak Jaya",PAPUA,98973,Indonesia,,,,-37.079.207,137.973.681,https://maps.google.com/?cid=0x0:0x9cdd6c701aaec095,
building materials,Toko bahan makanan,Mulia Mart,"7XJQ+XHM, Pagaleme, Distrik Mulia, Kabupaten Puncak Jaya, Papua 98975","Pagaleme, Distrik Mulia, Kabupaten Puncak Jaya",PAPUA,98975,Indonesia,,,,-371.754,1.379.889.263,https://maps.google.com/?cid=0x0:0x624add95624079ff,
toko bangunan,Pemasok batu pecah,Papua Crusher,"V4W3+G6F, Tembagapura, Kec. Tembagapura, Kabupaten Mimika, Papua 98972","Tembagapura, Kec. Tembagapura, Kabupaten Mimika",PAPUA,98972,Indonesia,,,,-41.036.832,1.371.030.359,https://maps.google.com/?cid=0x0:0x970aa409c38ce36d,
toko bangunan,toko bangunan,Papua 98972,Papua,Papua,PAPUA,,Indonesia,,,,-3.921.968,1.375.275.422,https://maps.google.com/?cid=0x0:0x765d582b762840f7,
toko bangunan,Pemasok batu pecah,Super Shop,"W4MC+76J, Tembagapura, Kec. Tembagapura, Kabupaten Mimika, Papua 98972","Tembagapura, Kec. Tembagapura, Kabupaten Mimika",PAPUA,98972,Indonesia,,,,-40.667.949,1.371.205.102,https://maps.google.com/?cid=0x0:0x203c79bd294a597e,
toko bangunan,toko bangunan,Chute Yard,"V4W3+WGP, Tembagapura, Kec. Tembagapura, Kabupaten Mimika, Papua 98972","Tembagapura, Kec. Tembagapura, Kabupaten Mimika",PAPUA,98972,Indonesia,,,,-41.026.633,1.371.038.151,https://maps.google.com/?cid=0x0:0xd206b2817121fe94,
toko bangunan,Toko Bahan Bangunan,TB. Grace,"Blok M Square Lantai Basement Blok C # 095, Jalan Melawai Raya, RT.3/RW.1, Melawai, Kebayoran Baru, RT.3/RW.1, Melawai, Kec. Kby. Baru, Kota Jakarta Selatan, Daerah Khusus Ibukota Jakarta 12160","Jalan Melawai Raya, RT.3/RW.1, Melawai, Kebayoran Baru, RT.3/RW.1, Melawai, Kec. Kby. Baru, Kota Jakarta Selatan",PAPUA,12160,Indonesia,081286015742,,,-6.244.713,106.800.695,https://maps.google.com/?cid=0x0:0xf0922029d5c83052,
toko bangunan,Toko Bahan Bangunan,Guna Karya. TB,"1, Jl. Muria Tanjakan No.20, RT.2/RW.2, Menteng Atas, Kecamatan Setiabudi, Kota Jakarta Selatan, Daerah Khusus Ibukota Jakarta 12960","Jl. Muria Tanjakan No.20, RT.2/RW.2, Menteng Atas, Kecamatan Setiabudi, Kota Jakarta Selatan",PAPUA,12960,Indonesia,081513523232,,,-62.108.588,1.068.379.406,https://maps.google.com/?cid=0x0:0x4547815bf964f6cb,
toko bangunan,Toko Tegel,Bangunan Baru - Toko Keramik  Sanitary,"Jl. Panglima Polim No.48, Pulo, Kec. Kby. Lama, Kota Jakarta Selatan, Daerah Khusus Ibukota Jakarta 12310","Pulo, Kec. Kby. Lama, Kota Jakarta Selatan",PAPUA,12310,Indonesia,0217251233,,,-62.514.165,10.679.727,https://maps.google.com/?cid=0x0:0x43f93161f39d996f,
toko bangunan,Toko Bahan Bangunan,TB DD BANGUNAN 3,"Jl. Q No.40, Kuningan, Karet, Kecamatan Setiabudi, Kota Jakarta Selatan, Daerah Khusus Ibukota Jakarta 12920","Kuningan, Karet, Kecamatan Setiabudi, Kota Jakarta Selatan",PAPUA,12920,Indonesia,082177741795,,,-62.118.961,1.068.239.515,https://maps.google.com/?cid=0x0:0xb487333b31d2d2ca,
toko bangunan,Toko Bahan Bangunan,Toko Bangunan,"Jl. R No.15 9, RT.9/RW.6, Pademangan Bar., Kec. Pademangan, Jkt Utara, Daerah Khusus Ibukota Jakarta 14420","RT.9/RW.6, Pademangan Bar., Kec. Pademangan, Jkt Utara",PAPUA,14420,Indonesia,,,,-61.379.508,1.068.371.045,https://maps.google.com/?cid=0x0:0xb758390f0d603d4a,
toko bangunan,Pasar bahan bangunan,Toko Bangunan,"Jl. H. Kelik No.32-120 4, RT.4/RW.8, Klp. Dua, Kec. Kb. Jeruk, Kota Jakarta Barat, Daerah Khusus Ibukota Jakarta 11550","RT.4/RW.8, Klp. Dua, Kec. Kb. Jeruk, Kota Jakarta Barat",PAPUA,11550,Indonesia,081264671628,,,-62.086.789,1.067.661.675,https://maps.google.com/?cid=0x0:0x8877745fd53a8f99,
toko bangunan,Toko Bahan Bangunan,Toko Bahan Bangunan / Material Gembira,"Jl. Kepu Sel. No.1 14, RT.14/RW.2, Kemayoran, Kec. Kemayoran, Kota Jakarta Pusat, Daerah Khusus Ibukota Jakarta 10620","RT.14/RW.2, Kemayoran, Kec. Kemayoran, Kota Jakarta Pusat",PAPUA,10620,Indonesia,0214253703,,,-61.685.104,1.068.432.998,https://maps.google.com/?cid=0x0:0xf4cae865851aea12,
toko bangunan,Toko Bahan Bangunan,Toko Bangunan,"Jl. Martimbang Raya No.1, RT.1/RW.5, Gunung, Kec. Kby. Baru, Kota Jakarta Selatan, Daerah Khusus Ibukota Jakarta 12220","RT.1/RW.5, Gunung, Kec. Kby. Baru, Kota Jakarta Selatan",PAPUA,12220,Indonesia,085102121495,,,-62.321.591,1.067.909.595,https://maps.google.com/?cid=0x0:0x94aa8af43244773f,
toko bangunan,Toko Bahan Bangunan,TB. Wigo Bangunan,"Jl. Raya Munjul No.20, RT.9/RW.1, Munjul, Kec. Cipayung, Kota Jakarta Timur, Daerah Khusus Ibukota Jakarta 13850","RT.9/RW.1, Munjul, Kec. Cipayung, Kota Jakarta Timur",PAPUA,13850,Indonesia,081310091851,,,-6.350.443,1.068.966.109,https://maps.google.com/?cid=0x0:0x60b36b11211a81e2,
toko bangunan,Toko Bahan Bangunan,Toko Rodamas,"13, Jl. Ujung Unggaran No.1, RT.13/RW.5, Ps. Manggis, Kecamatan Setiabudi, Kota Jakarta Selatan, Daerah Khusus Ibukota Jakarta 12970","Jl. Ujung Unggaran No.1, RT.13/RW.5, Ps. Manggis, Kecamatan Setiabudi, Kota Jakarta Selatan",PAPUA,12970,Indonesia,081271594560,,,-62.085.261,1.068.379.257,https://maps.google.com/?cid=0x0:0x59aad0aaf7c22edf,
toko bangunan,Pemasok Bahan Bangunan,Depo Bangunan Tangerang Selatan,"Jl. Raya Serpong No.KM.2, Pakulonan, Kec. Serpong Utara, Kota Tangerang Selatan, Banten 15325","Pakulonan, Kec. Serpong Utara, Kota Tangerang Selatan",PAPUA,15325,Indonesia,02153120808,,,-62.407.101,1.066.492.227,https://maps.google.com/?cid=0x0:0x9a4b22c9292d3f53,
toko bangunan,Toko Bahan Bangunan,Tb jago,"Jl. Ophir I No.4 4, RT.4/RW.5, Gunung, Kec. Kby. Baru, Kota Jakarta Selatan, Daerah Khusus Ibukota Jakarta 12120","RT.4/RW.5, Gunung, Kec. Kby. Baru, Kota Jakarta Selatan",PAPUA,12120,Indonesia,,,,-62.353.591,1.067.886.752,https://maps.google.com/?cid=0x0:0x43efa8ae7e4dbbfe,
toko bangunan,toko bangunan,,,,PAPUA,,Indonesia,081222807697,,,-62.297.465,106.829.518,https://maps.google.com/?cid=0x0:0x81a984a574ecc674,
toko bangunan,Toko Bahan Bangunan,TB. KARYA BANGUNAN,"JWCV+V32, jl. KH Rafei no, RT.4/RW.4, Nagrak, Kec. Gn. Putri, Kabupaten Bogor, Jawa Barat 16967","jl. KH Rafei no, RT.4/RW.4, Nagrak, Kec. Gn. Putri, Kabupaten Bogor",PAPUA,16967,Indonesia,082111970407,,,-63.778.695,1.069.426.417,https://maps.google.com/?cid=0x0:0x517b337f1b02425b,
toko bangunan,Toko Bahan Bangunan,TB Karya Bersama,"Jl. Meruyung Raya, Rangkapan Jaya Baru, Kec. Pancoran Mas, Kota Depok, Jawa Barat 16515","Rangkapan Jaya Baru, Kec. Pancoran Mas, Kota Depok",PAPUA,16515,Indonesia,02177883786,,,-63.942.972,1.067.722.296,https://maps.google.com/?cid=0x0:0xbe7fdc362aa37ed3,
toko bangunan,Toko,Toko Bangunan,"FJHW+XWX, Gobang, Kec. Rumpin, Kabupaten Bogor, Jawa Barat 16350","Gobang, Kec. Rumpin, Kabupaten Bogor",PAPUA,16350,Indonesia,,,,-65.200.128,1.066.473.694,https://maps.google.com/?cid=0x0:0x553d25e686dcd80b,
toko bangunan,Toko Bahan Bangunan,Toko Bangunan Gemilang Jaya Tangerang,"Jl. Sutopo No.1/55, RT.003/RW.003, Sukarasa, Kec. Tangerang, Kota Tangerang, Banten 15111","RT.003/RW.003, Sukarasa, Kec. Tangerang, Kota Tangerang",PAPUA,15111,Indonesia,087778386237,,,-61.755.868,1.066.311.155,https://maps.google.com/?cid=0x0:0xd40daa2ae2162e63,
toko bangunan,Toko Bahan Bangunan,Aneka Sarana Bangunan,"Jl. Meruya Ilir Raya No.5, RT.5/RW.8, Srengseng, Kec. Kembangan, Kota Jakarta Barat, Daerah Khusus Ibukota Jakarta 11630","RT.5/RW.8, Srengseng, Kec. Kembangan, Kota Jakarta Barat",PAPUA,11630,Indonesia,0215846937,,,-61.973.627,1.067.489.981,https://maps.google.com/?cid=0x0:0x72a7b7b86ad90b84,
toko bangunan,Toko Cat,Toko Sinar Cemerlang,"Jl. Margonda No.189 2, RW.15, Kemiri Muka, Kecamatan Beji, Kota Depok, Jawa Barat 16423","RW.15, Kemiri Muka, Kecamatan Beji, Kota Depok",PAPUA,16423,Indonesia,087887773218,,,-63.854.508,1.068.284.992,https://maps.google.com/?cid=0x0:0x7cdf7b515cb9c1e0,
toko bangunan,Toko Bahan Bangunan,Toko Material EL Bangunan,"Jl. Prabu Kian Santang Kelurahan, RT.005/RW.004, Sangiang Jaya, Kec. Periuk, Kota Tangerang, Banten 15138","RT.005/RW.004, Sangiang Jaya, Kec. Periuk, Kota Tangerang",PAPUA,15138,Indonesia,085775156335,,,-61.719.718,1.065.998.893,https://maps.google.com/?cid=0x0:0x41c86bfde0cdac18,
toko bangunan,toko bangunan,Papua 98911,"Kabupaten Puncak Jaya, Papua","Kabupaten Puncak Jaya, Papua",PAPUA,,Indonesia,,,,-35.879.887,1.377.538.931,https://maps.google.com/?cid=0x0:0x87fbe061dff44735,
toko bangunan,Toko Bahan Bangunan,TOKO BANGUNAN RYSTER MULIA,"9MXG+G7R, Wai Mhorock, Kec. Abepura, Kota Jayapura, Papua 99225","Wai Mhorock, Kec. Abepura, Kota Jayapura",PAPUA,99225,Indonesia,085100115858,,,-26.011.446,1.406.756.371,https://maps.google.com/?cid=0x0:0x4886e2a9293c5411,
toko bangunan,Toko Bahan Bangunan,Supermarket Multi Bangunan,"Jl Baru No.98, Wai Mhorock, Abepura, Jayapura City, Papua 99225","Wai Mhorock, Abepura, Jayapura City",PAPUA,99225,Indonesia,0967588677,,,-26.077.336,1.406.742.812,https://maps.google.com/?cid=0x0:0x3b19f301c68f1d6f,
toko bangunan,Toko Bahan Bangunan,Tb mulia selatan,"Jl. Ciputat Raya No.17, Pd. Pinang, Kec. Kby. Lama, Kota Jakarta Selatan, Daerah Khusus Ibukota Jakarta 12310","Pd. Pinang, Kec. Kby. Lama, Kota Jakarta Selatan",PAPUA,12310,Indonesia,02175811451,,,-62.636.907,1.067.750.253,https://maps.google.com/?cid=0x0:0x7b7b258895994312,
toko bangunan,Toko Bahan Bangunan,TB. MULIA,"Jl. Bisma 2 No.2 7, RT.7/RW.10, Papanggo, Kec. Tj. Priok, Jkt Utara, Daerah Khusus Ibukota Jakarta 14340","RT.7/RW.10, Papanggo, Kec. Tj. Priok, Jkt Utara",PAPUA,14340,Indonesia,081247407076,,,-61.314.012,1.068.676.404,https://maps.google.com/?cid=0x0:0xbc98c2951a7676f1,
toko bangunan,Toko Bahan Bangunan,TB.SUMBER MULIA,"9, Jl. Kemandoran Pluis No.05, RT.9/RW.14, Grogol Utara, Kec. Kby. Lama, Kota Jakarta Selatan, Daerah Khusus Ibukota Jakarta 12210","Jl. Kemandoran Pluis No.05, RT.9/RW.14, Grogol Utara, Kec. Kby. Lama, Kota Jakarta Selatan",PAPUA,12210,Indonesia,0215323008,,,-62.124.382,1.067.933.113,https://maps.google.com/?cid=0x0:0xfbab8b666bc7b450,
toko bangunan,Toko Bahan Bangunan,TB Mulia Baru,"Jl. Kp. Gusti, RT.13/RW.15, Pejagalan, Kec. Penjaringan, Jkt Utara, Daerah Khusus Ibukota Jakarta 14450","RT.13/RW.15, Pejagalan, Kec. Penjaringan, Jkt Utara",PAPUA,14450,Indonesia,0811900451,,,-61.416.829,1.067.777.153,https://maps.google.com/?cid=0x0:0x77c4da26285be3b0,
toko bangunan,Toko Bahan Bangunan,Toko Material Dede/Arab (TB. Mulia Jaya),"JG35+P4R, Tapos, Kec. Tenjo, Kabupaten Bogor, Jawa Barat 16370","Tapos, Kec. Tenjo, Kabupaten Bogor",PAPUA,16370,Indonesia,085717915134,,,-63.956.315,106.507.757,https://maps.google.com/?cid=0x0:0x8597b9cf941a818e,
toko bangunan,Toko,Toko Bangunan Mulia Makmur,"Jl. RS. Fatmawati Raya No.58 4, RT.1/RW.1, Cipete Utara, Kec. Kby. Baru, Kota Jakarta Selatan, Daerah Khusus Ibukota Jakarta 12150","RT.1/RW.1, Cipete Utara, Kec. Kby. Baru, Kota Jakarta Selatan",PAPUA,12150,Indonesia,0217247479,,,-62.593.212,1.067.970.168,https://maps.google.com/?cid=0x0:0x8867054b636fad19,
toko bangunan,Toko Bahan Bangunan,Toko Mulia Agung,"Jl. Ir H. Juanda Jl. Ciputat Raya No.72, Cireundeu, Kec. Ciputat Tim., Kota Tangerang Selatan, Banten 15412","Cireundeu, Kec. Ciputat Tim., Kota Tangerang Selatan",PAPUA,15412,Indonesia,0217492686,,,-63.053.438,1.067.581.194,https://maps.google.com/?cid=0x0:0x70e4f4fc27b42f22,
toko bangunan,Toko Bahan Bangunan,TB. Mulia,"VWC9+P46, Jl. Raya Tugu, RT.2/RW.14, Tugu Utara, Kec. Koja, Jkt Utara, Daerah Khusus Ibukota Jakarta 14260","Jl. Raya Tugu, RT.2/RW.14, Tugu Utara, Kec. Koja, Jkt Utara",PAPUA,14260,Indonesia,,,,-61.282.063,1.069.177.507,https://maps.google.com/?cid=0x0:0xc4ad32227d00950,
toko bangunan,Toko Perlengkapan Rumah,Toko MULIA,"Jl. Mutiara Gading City, Setia Asih, Kec. Tarumajaya, Kabupaten Bekasi, Jawa Barat 17215","Setia Asih, Kec. Tarumajaya, Kabupaten Bekasi",PAPUA,17215,Indonesia,081388241069,,,-61.607.926,1.070.090.095,https://maps.google.com/?cid=0x0:0x58b46c833c756f60,
toko bangunan,Toko Bahan Bangunan,TB. Mulya Jaya,"Jl. Pancoran Barat VII No.10 14, RT.14/RW.14, Pancoran, Kec. Pancoran, Kota Jakarta Selatan, Daerah Khusus Ibukota Jakarta 12780","RT.14/RW.14, Pancoran, Kec. Pancoran, Kota Jakarta Selatan",PAPUA,12780,Indonesia,02179196838,,,-62.515.736,1.068.366.935,https://maps.google.com/?cid=0x0:0x86573f1c67a1dd73,
toko bangunan,Pasar bahan bangunan,TB Mulia Jaya (Mulia Warna Jaya),"Jl. Raya Jatikramat No.189, RT.004/RW.001, Jatimakmur, Kec. Jatiasih, Kota Bks, Jawa Barat 17421","RT.004/RW.001, Jatimakmur, Kec. Jatiasih, Kota Bks",PAPUA,17421,Indonesia,081808291916,,,-62.878.584,1.069.432.257,https://maps.google.com/?cid=0x0:0x9fdec55676050236,
toko bangunan,Toko Bahan Bangunan,TB. Adil Mulia,"Jl. Bintara Jaya No.55, RT.002/RW.009, Bintara Jaya, Kec. Bekasi Bar., Kota Bks, Jawa Barat 17136","RT.002/RW.009, Bintara Jaya, Kec. Bekasi Bar., Kota Bks",PAPUA,17136,Indonesia,0218650621,,,-62.403.963,1.069.460.623,https://maps.google.com/?cid=0x0:0x521500b54ea6395a,
toko bangunan,Toko Bahan Bangunan,Toko Bangunan Jaya Mulia,"Jalan Ancol Selatan 2 No.29, RT.6/RW.7, Sunter Agung, Kec. Tj. Priok, Jkt Utara, Daerah Khusus Ibukota Jakarta 14350","RT.6/RW.7, Sunter Agung, Kec. Tj. Priok, Jkt Utara",PAPUA,14350,Indonesia,02164717420,,,-61.339.519,1.068.570.802,https://maps.google.com/?cid=0x0:0x6d8684804f279000,
toko bangunan,Toko Bahan Bangunan,Tb. Mulia Jaya,"Jl. Meruya Utara No.45b, RT.2/RW.2, Meruya Utara, Kec. Kembangan, Kota Jakarta Barat, Daerah Khusus Ibukota Jakarta 11620","RT.2/RW.2, Meruya Utara, Kec. Kembangan, Kota Jakarta Barat",PAPUA,11620,Indonesia,,,,-6.198.488,1.067.398.889,https://maps.google.com/?cid=0x0:0xe6391d0c208c11bd,
toko bangunan,Toko Aksesori Pakaian,Toko Mulia,"Jl. Teluk Gong Raya No.Blok C no. 4-5, RT.5/RW.16, Pejagalan, Penjaringan, North Jakarta City, Jakarta 14450","RT.5/RW.16, Pejagalan, Penjaringan, North Jakarta City",PAPUA,14450,Indonesia,0216680410,,,-61.377.567,1.067.881.111,https://maps.google.com/?cid=0x0:0x5069f30fb2f5b303,
toko bangunan,Toko Bahan Bangunan,UD Mulia Jaya,"Jl. Joglo Raya No.42 10, RT.10/RW.3, Joglo, Kec. Kembangan, Kota Jakarta Barat, Daerah Khusus Ibukota Jakarta 11640","RT.10/RW.3, Joglo, Kec. Kembangan, Kota Jakarta Barat",PAPUA,11640,Indonesia,0215840836,,,-62.172.589,1.067.491.739,https://maps.google.com/?cid=0x0:0xd409e34975a4db36,
toko bangunan,Toko Bahan Bangunan,Toko Bangunan Sumber Mulia,"Jl. RS. Fatmawati Raya No.14A, Cilandak Bar., Kec. Cilandak, Jakarta, Daerah Khusus Ibukota Jakarta 12430","Cilandak Bar., Kec. Cilandak, Jakarta",PAPUA,12430,Indonesia,0217695665,,,-62.901.599,1.067.954.885,https://maps.google.com/?cid=0x0:0x43ed4cf94871b72b,
toko bangunan,Toko Bahan Bangunan,TB. Mulia Abadi,"Jl. Tanah Baru No.41, Tanah Baru, Kecamatan Beji, Kota Depok, Jawa Barat 16426","Tanah Baru, Kecamatan Beji, Kota Depok",PAPUA,16426,Indonesia,,,,-63.862.181,1.068.055.844,https://maps.google.com/?cid=0x0:0x90066f2e5013ee27,
toko bangunan,Toko Bahan Bangunan,Mulia Bangunan,"Jl. Kemakmuran Raya No.9D, Mekar Jaya, Kec. Sukmajaya, Kota Depok, Jawa Barat 16411","Mekar Jaya, Kec. Sukmajaya, Kota Depok",PAPUA,16411,Indonesia,02177832181,,,-64.003.804,1.068.361.935,https://maps.google.com/?cid=0x0:0x85182e07742dfaba,
toko bangunan,toko bangunan,Papua,,Papua,PAPUA,,Indonesia,,,,-4.269.928,1.380.803.529,https://maps.google.com/?cid=0x0:0xeba94e9c5eefe673,
toko bangunan,Toko Bahan Bangunan,Toko Simpati,"FCR2+JJX, Mandala, Kec. Merauke, Kabupaten Merauke, Papua 99615","Mandala, Kec. Merauke, Kabupaten Merauke",PAPUA,99615,Indonesia,082311111117,,,-85.083.866,1.404.016.142,https://maps.google.com/?cid=0x0:0xe1bd3c815a867d54,
toko bangunan,Toko Bahan Bangunan,DEPO GRAHA SIMPATI,"Kamundu, Jl. Poros Simpati Jl. Blorep No.88, Klp. Lima, Kec. Merauke, Kabupaten Merauke, Papua 99615","Jl. Poros Simpati Jl. Blorep No.88, Klp. Lima, Kec. Merauke, Kabupaten Merauke",PAPUA,99615,Indonesia,,,,-85.023.088,14.041.837,https://maps.google.com/?cid=0x0:0xd02bc8a1b88f33a3,
toko bangunan,Toko Bahan Bangunan,Toko Bangunan SUMBER JAYA,"Jl. Hasanuddin, Kamoro Jaya, Kec. Mimika Baru, Kabupaten Mimika, Papua 99971","Kamoro Jaya, Kec. Mimika Baru, Kabupaten Mimika",PAPUA,99971,Indonesia,08114988263,,,-45.643.753,1.368.653.513,https://maps.google.com/?cid=0x0:0xf69f14940b9de223,
toko bangunan,Toko Perlengkapan Rumah,Toko Bangunan URI,"Q93M+R2X, Uri, Kec. Waropen Bawah, Kabupaten Waropen, Papua 98261","Uri, Kec. Waropen Bawah, Kabupaten Waropen",PAPUA,98261,Indonesia,,,,-224.502,136.382.778,https://maps.google.com/?cid=0x0:0xedc722ce6d2e6662,
toko bangunan,toko bangunan,Toko Mitra Bangunan,"8F8G+WJ5, Karubaga, Kec. Karubaga, Kabupaten Tolikara, Papua 99567","Karubaga, Kec. Karubaga, Kabupaten Tolikara",PAPUA,99567,Indonesia,081317225643,,,-3.682.733,1.384.766.089,https://maps.google.com/?cid=0x0:0x94f019f9132886e9,
toko bangunan,Toko Bahan Bangunan,TOKO YUDHA BANGUNAN 1,"VWXP+H7P, Jl. Bayangkara, Hurekama, Distrik Wamena, Kabupaten Jayawijaya, Papua 99511","Jl. Bayangkara, Hurekama, Distrik Wamena, Kabupaten Jayawijaya",PAPUA,99511,Indonesia,081344454364,,,-41.010.288,1.389.356.942,https://maps.google.com/?cid=0x0:0xa571c584f4c25eaa,
toko bangunan,Toko,TOBA JAYA,"7XRF+RFM, Pruleme, Distrik Mulia, Kabupaten Puncak Jaya, Papua 98973","Pruleme, Distrik Mulia, Kabupaten Puncak Jaya",PAPUA,98973,Indonesia,,,,-37.079.207,137.973.681,https://maps.google.com/?cid=0x0:0x9cdd6c701aaec095,
toko bangunan,Toko Bahan Bangunan,"Papua Bangunan, CV PAPUA ABADI","Jl. Basuki Rahmat No.780, Klawuyuk, Distrik Sorong Timur, Kota Sorong, Papua Bar. 98416","Klawuyuk, Distrik Sorong Timur, Kota Sorong",PAPUA,98416,Indonesia,081332017550,,,-0.8954087,1.313.186.922,https://maps.google.com/?cid=0x0:0x851804bc3aa7f033,
toko bangunan,toko bangunan,depo,"Jl. Blorep, Klp. Lima, Kec. Merauke, Kabupaten Merauke, Papua 99615","Klp. Lima, Kec. Merauke, Kabupaten Merauke",PAPUA,99615,Indonesia,,,,-85.012.167,1.404.200.589,https://maps.google.com/?cid=0x0:0x1965a2da3171fb48,
toko bangunan,toko bangunan,TOKO DUTA BANGUNAN,"69JM+6FM, Unnamed Road, Elelim, Distrik Elelim, Kabupaten Yalimo, Papua 99558","Unnamed Road, Elelim, Distrik Elelim, Kabupaten Yalimo",PAPUA,99558,Indonesia,,,,-3.769.408,1.393.836.683,https://maps.google.com/?cid=0x0:0xf1f48f8e0fbf93cd,
toko bangunan,Toko,Toko Naila.,"RPWM+W42, Jl. Sejahtera, RT.1/RW.1, LAMBAU, JAWAI, Kota Jakarta Barat, Daerah Khusus Ibukota Jakarta 11730","Jl. Sejahtera, RT.1/RW.1, LAMBAU, JAWAI, Kota Jakarta Barat",PAPUA,11730,Indonesia,081255255073,,,-6.152.736,1.067.327.639,https://maps.google.com/?cid=0x0:0x6bd07b65af43eee0,
toko bangunan,Pemasok Bahan Bangunan,Yuli Bangunan,"Jl. Karet Belakang Barat No.8 10, RT.10/RW.2, Kuningan, Karet Semanggi, Kecamatan Setiabudi, Kota Jakarta Selatan, Daerah Khusus Ibukota Jakarta 12930","RT.10/RW.2, Kuningan, Karet Semanggi, Kecamatan Setiabudi, Kota Jakarta Selatan",PAPUA,12930,Indonesia,02144209289,,,-62.162.887,1.068.253.157,https://maps.google.com/?cid=0x0:0xa45259be2b0937d2,
toko bangunan,Toko Bahan Bangunan,Toko Bangunan Restu Jaya,"No Jl. Buncit Raya No.3 4, RT.4/RW.2, Duren Tiga, Kec. Pancoran, Kota Jakarta Selatan, Daerah Khusus Ibukota Jakarta 12760","RT.4/RW.2, Duren Tiga, Kec. Pancoran, Kota Jakarta Selatan",PAPUA,12760,Indonesia,0217992870,,,-62.597.956,1.068.289.476,https://maps.google.com/?cid=0x0:0xd0f8b24051be8465,
toko bangunan,Toko Bahan Bangunan,Toko Bahan Bangunan Dan Alat-Alat Listrik H.Sukrie,"Jl. Kebon Pala 9 No.6, RT.6/RW.16, Kb. Melati, Kecamatan Tanah Abang, Kota Jakarta Pusat, Daerah Khusus Ibukota Jakarta 10230","RT.6/RW.16, Kb. Melati, Kecamatan Tanah Abang, Kota Jakarta Pusat",PAPUA,10230,Indonesia,0852199901294,,,-61.961.735,1.068.111.201,https://maps.google.com/?cid=0x0:0x9b775873910e6249,
toko bangunan,Pemasok Bahan Bangunan,Toko Indo Bangunan,"Jl. Panglima Polim No.52 A 9, RT.9/RW.7, Pulo, Kec. Kby. Baru, Kota Jakarta Selatan, Daerah Khusus Ibukota Jakarta 12160","RT.9/RW.7, Pulo, Kec. Kby. Baru, Kota Jakarta Selatan",PAPUA,12160,Indonesia,081313365832,,,-6.251.485,10.679.727,https://maps.google.com/?cid=0x0:0x9fe04d1826dbb33b,
toko bangunan,Toko Bahan Bangunan,Toko Resky,"jalan poros, Kemon Jaya Sp V, Kec. Waropen Bawah, Kabupaten Waropen, Papua 98261","Kemon Jaya Sp V, Kec. Waropen Bawah, Kabupaten Waropen",PAPUA,98261,Indonesia,085394955553,,,-22.185.432,1.364.200.064,https://maps.google.com/?cid=0x0:0x356450f535852163,
toko bangunan,Dekorator interior,IsiBangunan PT Lumbung Kemakmuran Jual Lantai vinyl roll rumah sakit anti bakteri gerflor amstrong lg hausys,"Jl. Pahlawan Revolusi No.888, Pd. Bambu, Kec. Duren Sawit, Kota Jakarta Timur, Daerah Khusus Ibukota Jakarta 13430","Pd. Bambu, Kec. Duren Sawit, Kota Jakarta Timur",PAPUA,13430,Indonesia,0811185408,,,-62.249.771,106.899.025,https://maps.google.com/?cid=0x0:0xff38fafabcb7bcdd,
toko bangunan,Pemasok Bahan Bangunan,TB. ILUVA JAYA ABADI,"4, Jl. Kapuk Muara Raya Kel No.7, RT.4/RW.5, Kapuk Muara, Kec. Penjaringan, Jkt Utara, Daerah Khusus Ibukota Jakarta 14460","Jl. Kapuk Muara Raya Kel No.7, RT.4/RW.5, Kapuk Muara, Kec. Penjaringan, Jkt Utara",PAPUA,14460,Indonesia,0215582055,,,-61.338.404,1.067.755.167,https://maps.google.com/?cid=0x0:0x4abd99096487abf0,
toko bangunan,Pemasok Bahan Bangunan,Dunia Bangunan Daan Mogot,"Kawasan Pusat Niaga Terpadu, Jl. Daan Mogot No.Km.19,6 Blok E8, Poris Jaya, Kec. Batuceper, Kota Tangerang, Banten 15121","Jl. Daan Mogot No.Km.19,6 Blok E8, Poris Jaya, Kec. Batuceper, Kota Tangerang",PAPUA,15121,Indonesia,081295009424,,,-61.639.249,106.677.916,https://maps.google.com/?cid=0x0:0xe78518d3bc33ff3d,
toko bangunan,Toko Bahan Bangunan,TB. Ilham Baru,"Jl. Ametis I No.25 8, RT.8/RW.13, Grogol Utara, Kec. Kby. Lama, Kota Jakarta Selatan, Daerah Khusus Ibukota Jakarta 12210","RT.8/RW.13, Grogol Utara, Kec. Kby. Lama, Kota Jakarta Selatan",PAPUA,12210,Indonesia,0214410469,,,-6.217.356,1.067.862.871,https://maps.google.com/?cid=0x0:0xe0ed66dbe13ca44c,
toko bangunan,Pasar bahan bangunan,Toko Bangunan,"Jl. H. Kelik No.32-120 4, RT.4/RW.8, Klp. Dua, Kec. Kb. Jeruk, Kota Jakarta Barat, Daerah Khusus Ibukota Jakarta 11550","RT.4/RW.8, Klp. Dua, Kec. Kb. Jeruk, Kota Jakarta Barat",PAPUA,11550,Indonesia,081264671628,,,-62.086.789,1.067.661.675,https://maps.google.com/?cid=0x0:0x8877745fd53a8f99,
toko bangunan,Toko Bahan Bangunan,Toko Putri Tunggal,"JL Sultan Hasanudin, No. 14, RT 03 RW 03, Kalinyamat Wetan, Tegal Selatan, RT.6/RW.2, Melawai, Tegal, Kota Jakarta Selatan, Daerah Khusus Ibukota Jakarta 12160","No. 14, RT 03 RW 03, Kalinyamat Wetan, Tegal Selatan, RT.6/RW.2, Melawai, Tegal, Kota Jakarta Selatan",PAPUA,12160,Indonesia,02836145943,,,-62.427.839,1.068.030.639,https://maps.google.com/?cid=0x0:0xbccb4d2fea532d0d,
toko bangunan,Toko Bahan Bangunan,TB. Lio Jaya,"Jalan Kampung Lio, Parigi, Kec. Pd. Aren, Kota Tangerang Selatan, Banten 15227","Parigi, Kec. Pd. Aren, Kota Tangerang Selatan",PAPUA,15227,Indonesia,085175053939,,,-62.657.778,1.066.902.937,https://maps.google.com/?cid=0x0:0x1d503d624c5bbf82,
toko bangunan,Toko Bahan Bangunan,"Dunia Bangunan BSD, Pusat Bahan Bangunan","BSD City, Blok CBD II, Sunburst, Jl. Raya Serpong Kavling No.12, Lengkong Gudang, Kec. Serpong Utara, Kota Tangerang Selatan, Banten 15322","Blok CBD II, Sunburst, Jl. Raya Serpong Kavling No.12, Lengkong Gudang, Kec. Serpong Utara, Kota Tangerang Selatan",PAPUA,15322,Indonesia,081904009388,,,-62.966.599,1.066.643.916,https://maps.google.com/?cid=0x0:0x8aa35403c7d4a82e,
toko bangunan,Toko Bahan Bangunan,Toko Liydo,"Jl. Belakang Kongsi No.10, RT.1/RW.3, Ps. Baru, Kecamatan Sawah Besar, Kota Jakarta Pusat, Daerah Khusus Ibukota Jakarta 10710","RT.1/RW.3, Ps. Baru, Kecamatan Sawah Besar, Kota Jakarta Pusat",PAPUA,10710,Indonesia,0213441643,,,-61.621.079,1.068.334.924,https://maps.google.com/?cid=0x0:0xbaa8d6322f283171,
toko bangunan,Toko Bahan Bangunan,Toko Dunia Bangun,"JL. Kalibata Tmr 22 RT 001/08, Jakarta, 12740, RT.9/RW.8, Kalibata, Pancoran, South Jakarta City, Jakarta 12740","Jakarta,",PAPUA,12740,Indonesia,082164465822,,,-62.622.201,1.068.456.321,https://maps.google.com/?cid=0x0:0x6a077efd3a20f400,
toko bangunan,Toko Bahan Bangunan,Toko Matrial,"Jl. Ciputat Raya No.439-21, RT.1/RW.1, Kby. Lama Utara, Kec. Kby. Lama, Kota Jakarta Selatan, Daerah Khusus Ibukota Jakarta 12230","RT.1/RW.1, Kby. Lama Utara, Kec. Kby. Lama, Kota Jakarta Selatan",PAPUA,12230,Indonesia,,,,-62.404.208,1.067.806.498,https://maps.google.com/?cid=0x0:0x3c94001122ae5d4c,
toko bangunan,toko bangunan,Papua 98913,"Kabupaten Puncak Jaya, Papua","Kabupaten Puncak Jaya, Papua",PAPUA,,Indonesia,,,,-34.610.775,1.378.229.754,https://maps.google.com/?cid=0x0:0x12db5455263a30a5,
toko bangunan,Toko bahan makanan,Mulia Mart,"7XJQ+XHM, Pagaleme, Distrik Mulia, Kabupaten Puncak Jaya, Papua 98975","Pagaleme, Distrik Mulia, Kabupaten Puncak Jaya",PAPUA,98975,Indonesia,,,,-371.754,1.379.889.263,https://maps.google.com/?cid=0x0:0x624add95624079ff,
toko bangunan,Toko,TOBA JAYA,"7XRF+RFM, Pruleme, Distrik Mulia, Kabupaten Puncak Jaya, Papua 98973","Pruleme, Distrik Mulia, Kabupaten Puncak Jaya",PAPUA,98973,Indonesia,,,,-37.079.207,137.973.681,https://maps.google.com/?cid=0x0:0x9cdd6c701aaec095,
toko bangunan,toko bangunan,Papua,,Papua,PAPUA,,Indonesia,,,,-4.269.928,1.380.803.529,https://maps.google.com/?cid=0x0:0xeba94e9c5eefe673,
toko bangunan,Toko Bahan Bangunan,Tb. Joe Jaya,"Jl. Joe Klp. Tiga No.6-7 6, RT.6/RW.3, Lenteng Agung, Kec. Jagakarsa, Kota Jakarta Selatan, Daerah Khusus Ibukota Jakarta 12620","RT.6/RW.3, Lenteng Agung, Kec. Jagakarsa, Kota Jakarta Selatan",PAPUA,12620,Indonesia,02178884507,,,-6.328.605,1.068.291.409,https://maps.google.com/?cid=0x0:0x9f3a4a9a63c37269,
toko bangunan,Toko Bahan Bangunan,Toko bangunan Al Yamin,"Jl. Kerja Bakti, Makasar, Kec. Makasar, Kota Jakarta Timur, Daerah Khusus Ibukota Jakarta 13570","Makasar, Kec. Makasar, Kota Jakarta Timur",PAPUA,13570,Indonesia,0218003766,,,-6.270.955,106.877.411,https://maps.google.com/?cid=0x0:0x7838513006763c9b,
toko bangunan,Toserba,Toko Bangunan Mulia,"Jalan B raya No.mor 1, RT.13/RW.4, Karang Anyar, Kecamatan Sawah Besar, Kota Jakarta Pusat, Daerah Khusus Ibukota Jakarta 10740","RT.13/RW.4, Karang Anyar, Kecamatan Sawah Besar, Kota Jakarta Pusat",PAPUA,10740,Indonesia,081383340168,,,-61.555.695,1.068.311.126,https://maps.google.com/?cid=0x0:0x1c8ca5bf07717326,
toko bangunan,Toko Bahan Bangunan,Toko Bangunan Makmur Jaya,"Jl. Ratu Melati 3 No.15 blok E2, Duri Kepa, Kec. Kb. Jeruk, Kota Jakarta Barat, Daerah Khusus Ibukota Jakarta 11510","Duri Kepa, Kec. Kb. Jeruk, Kota Jakarta Barat",PAPUA,11510,Indonesia,081382285273,,,-61.680.964,1.067.698.729,https://maps.google.com/?cid=0x0:0x72dffc8b754107fa,
toko bangunan,Toko Bahan Bangunan,Toko Setia Makmur,"Jl. Tanah Koja 2 No.1, RT.9/RW.2, Jatinegara Kaum, Kec. Pulo Gadung, Kota Jakarta Timur, Daerah Khusus Ibukota Jakarta 13250","RT.9/RW.2, Jatinegara Kaum, Kec. Pulo Gadung, Kota Jakarta Timur",PAPUA,13250,Indonesia,081218957971,,,-62.088.498,1.068.985.238,https://maps.google.com/?cid=0x0:0x8ea6a1733a39f571,
toko bangunan,Toko Bahan Bangunan,Tb. Al-Yamin,"Jl. Setu Cipayung No.24, RT.3/RW.3, Setu, Kec. Cipayung, Kota Jakarta Timur, Daerah Khusus Ibukota Jakarta 13880","RT.3/RW.3, Setu, Kec. Cipayung, Kota Jakarta Timur",PAPUA,13880,Indonesia,,,,-63.161.027,1.069.113.243,https://maps.google.com/?cid=0x0:0x205b87ffcdd796df,
toko bangunan,Pemasok Bahan Bangunan,toko bangunan terdekat,"VQ6Q+WFM, Jl. Bandengan Utara, RT.6/RW.5, Pejagalan, Kec. Penjaringan, Jkt Utara, Daerah Khusus Ibukota Jakarta 14450","Jl. Bandengan Utara, RT.6/RW.5, Pejagalan, Kec. Penjaringan, Jkt Utara",PAPUA,14450,Indonesia,,,,-61.376.523,1.067.886.816,https://maps.google.com/?cid=0x0:0xb15eb393313ac6a9,
toko bangunan,Toko Bahan Bangunan,Toko Gunung Jaya,"Jl. Gorontalo Raya No.11 12, RT.12/RW.1, Sungai Bambu, Kec. Tj. Priok, Jkt Utara, Daerah Khusus Ibukota Jakarta 14330","RT.12/RW.1, Sungai Bambu, Kec. Tj. Priok, Jkt Utara",PAPUA,14330,Indonesia,,,,-61.146.529,1.068.813.314,https://maps.google.com/?cid=0x0:0x83a186d6f14dc0ed,
toko bangunan,Toko Bahan Bangunan,Tb jago,"Jl. Ophir I No.4 4, RT.4/RW.5, Gunung, Kec. Kby. Baru, Kota Jakarta Selatan, Daerah Khusus Ibukota Jakarta 12120","RT.4/RW.5, Gunung, Kec. Kby. Baru, Kota Jakarta Selatan",PAPUA,12120,Indonesia,,,,-62.353.591,1.067.886.752,https://maps.google.com/?cid=0x0:0x43efa8ae7e4dbbfe,
toko bangunan,Pemasok Bahan Bangunan,Toko Bangunan Maya Indah,"jl.R.S.Paru-paru No.3, RT.12, RW.001, Ancol Selatan, Pasar Belek, RT.12/RW.3, Sunter Agung, Tanjung Priok, North Jakarta City, Jakarta 14350","RT.12, RW.001, Ancol Selatan, Pasar Belek, RT.12/RW.3, Sunter Agung, Tanjung Priok, North Jakarta City",PAPUA,14350,Indonesia,0216400627,,,-61.307.488,1.068.519.384,https://maps.google.com/?cid=0x0:0x200679de3e01e06b,
toko bangunan,Toko Bahan Bangunan,Toko Bangunan Al Yamin 3,"Jl. Raya Setu No.4, Lubangbuaya, Kec. Setu, Kabupaten Bekasi, Jawa Barat 17320","Lubangbuaya, Kec. Setu, Kabupaten Bekasi",PAPUA,17320,Indonesia,087836311797,,,-6.319.799,1.070.588.116,https://maps.google.com/?cid=0x0:0x553e29aa758e207e,
toko bangunan,Toko Bahan Bangunan,Toko Bangunan VIVA,"8, Jl. Pancawarga III No.1, RT.8/RW.5, Cipinang Besar Sel., Kecamatan Jatinegara, Kota Jakarta Timur, Daerah Khusus Ibukota Jakarta 13410","Jl. Pancawarga III No.1, RT.8/RW.5, Cipinang Besar Sel., Kecamatan Jatinegara, Kota Jakarta Timur",PAPUA,13410,Indonesia,082110701820,,,-6.233.982,1.068.834.585,https://maps.google.com/?cid=0x0:0x1a3724c9799a6a81,
toko bangunan,Toko Bahan Bangunan,"TOKO BANGUNAN YUSUF""""","Jl. Raya Ciapus No.19, Tamansari, Kec. Tamansari, Kabupaten Bogor, Jawa Barat 16610","Tamansari, Kec. Tamansari, Kabupaten Bogor",PAPUA,16610,Indonesia,,,,-66.462.137,1.067.565.748,https://maps.google.com/?cid=0x0:0xbe0129d4028556b7,
toko bangunan,Toko Bahan Bangunan,Toko bangunan Abadi Jaya,"Jl. Perum taman adiyasa, Cikasungka, Kec. Solear, Kabupaten Tangerang, Banten 15730","Cikasungka, Kec. Solear, Kabupaten Tangerang",PAPUA,15730,Indonesia,081298048850,,,-63.253.324,1.064.287.877,https://maps.google.com/?cid=0x0:0x53eb953f5f7e5479,
toko bangunan,toko bangunan,,,,PAPUA,,Indonesia,081222807697,,,-62.297.465,106.829.518,https://maps.google.com/?cid=0x0:0x81a984a574ecc674,
toko bangunan,toko bangunan,Papua 98914,"Fawi, Kabupaten Puncak Jaya, Papua","Kabupaten Puncak Jaya, Papua",PAPUA,,Indonesia,,,,-35.181.977,1.377.440.315,https://maps.google.com/?cid=0x0:0xa728d4ad1372091c,
toko bangunan,Toko Bahan Bangunan,TOKO BANGUNAN RYSTER MULIA,"9MXG+G7R, Wai Mhorock, Kec. Abepura, Kota Jayapura, Papua 99225","Wai Mhorock, Kec. Abepura, Kota Jayapura",PAPUA,99225,Indonesia,085100115858,,,-26.011.446,1.406.756.371,https://maps.google.com/?cid=0x0:0x4886e2a9293c5411,
toko bangunan,Toko Bahan Bangunan,Toko Bangunan Mutiara timur,"CJ3R+33F, Unnamed Road, Kp. Waena, Kec. Heram, Kota Jayapura, Papua 99225","Unnamed Road, Kp. Waena, Kec. Heram, Kota Jayapura",PAPUA,99225,Indonesia,,,,-25.973.134,1.406.401.625,https://maps.google.com/?cid=0x0:0x392e56b1342d758c,
toko bangunan,Toko Bahan Bangunan,Toko Bangunan Tetus Papua,"CVFF+528, Jl. Budi Utomo, Nawaripi, Kec. Mimika Baru, Kabupaten Mimika, Papua","Kabupaten Mimika, Papua",PAPUA,,Indonesia,081344834492,,,-4.577.093,1.368.725.648,https://maps.google.com/?cid=0x0:0x70179859b1a22306,
toko bangunan,toko bangunan,Papua,,Papua,PAPUA,,Indonesia,,,,-4.269.928,1.380.803.529,https://maps.google.com/?cid=0x0:0xeba94e9c5eefe673,
toko bangunan,toko bangunan,Toko Mitra Bangunan,"8F8G+WJ5, Karubaga, Kec. Karubaga, Kabupaten Tolikara, Papua 99567","Karubaga, Kec. Karubaga, Kabupaten Tolikara",PAPUA,99567,Indonesia,081317225643,,,-3.682.733,1.384.766.089,https://maps.google.com/?cid=0x0:0x94f019f9132886e9,
toko bangunan,Toko Bahan Bangunan,Toko Sentra Bangunan,"Jl. Garuda No.7, Yuwanain, Arso II, Kabupaten Keerom, Papua 99468","Yuwanain, Arso II, Kabupaten Keerom",PAPUA,99468,Indonesia,081240505719,,,-29.027.275,1.407.524.692,https://maps.google.com/?cid=0x0:0x5a7a0ae632131e91,
toko bangunan,Toko Bahan Bangunan,Toko Multi Bangunan,"Q97H+9V2, Sarafambai, Kec. Waropen Bawah, Kabupaten Waropen, Papua 98261","Sarafambai, Kec. Waropen Bawah, Kabupaten Waropen",PAPUA,98261,Indonesia,,,,-22.366.153,1.363.796.343,https://maps.google.com/?cid=0x0:0x8fe10ca526096f47,
toko bangunan,Toko Bahan Bangunan,"Toko Bangunan  Trio NUGRAHA"" kertosari""","FCHF+H72, Unnamed Road, Sabron Sari, Distrik Sentani Barat, Kabupaten Jayapura, Papua 99358","Unnamed Road, Sabron Sari, Distrik Sentani Barat, Kabupaten Jayapura",PAPUA,99358,Indonesia,085254232431,,,-25.211.009,140.423.142,https://maps.google.com/?cid=0x0:0x62fb937eb764d3e,
toko bangunan,Toko Bahan Bangunan,Toko Bangunan VULGATA,"MG3C+55H, Nabarua, Distrik Nabire, Kabupaten Nabire, Papua 98816","Nabarua, Distrik Nabire, Kabupaten Nabire",PAPUA,98816,Indonesia,,,,-33.470.637,1.355.204.887,https://maps.google.com/?cid=0x0:0x4108742d230d213b,
toko bangunan,Toko Perlengkapan Rumah,Toko Jarwal Bangunan,"Kamoro Jaya, Kec. Mimika Baru, Kabupaten Mimika, Papua 99971","Kec. Mimika Baru, Kabupaten Mimika",PAPUA,99971,Indonesia,,,,-45.656.564,1.368.718.615,https://maps.google.com/?cid=0x0:0x6cdc385accf4a8b,
toko bangunan,Toko Bahan Bangunan,DEPO GRAHA SIMPATI,"Kamundu, Jl. Poros Simpati Jl. Blorep No.88, Klp. Lima, Kec. Merauke, Kabupaten Merauke, Papua 99615","Jl. Poros Simpati Jl. Blorep No.88, Klp. Lima, Kec. Merauke, Kabupaten Merauke",PAPUA,99615,Indonesia,,,,-85.023.088,14.041.837,https://maps.google.com/?cid=0x0:0xd02bc8a1b88f33a3,
toko bangunan,Toko Bahan Bangunan,"TOKO BAHAN BANGUNAN ?RINITY HOME?""Jalan Baru Pasar Lama, Wahno, Kec. Abepura, Kota Jayapura, Papua 99224""","Wahno, Kec. Abepura, Kota Jayapura",PAPUA,99224,Indonesia,081232337934,,,-25.958.248,1.406.809.957,https://maps.google.com/?cid=0x0:0x41c321d86b054228,,
toko bangunan,Toko Bahan Bangunan,Toko Bangunan Mamta Jaya,"Entrop, Distrik Jayapura Selatan, Kota Jayapura, Papua 99221","Distrik Jayapura Selatan, Kota Jayapura",PAPUA,99221,Indonesia,085198498008,,,-25.674.278,1.406.991.484,https://maps.google.com/?cid=0x0:0x2e3a73f71cf583d9,
toko bangunan,Toko Bahan Bangunan,Toko Resky,"jalan poros, Kemon Jaya Sp V, Kec. Waropen Bawah, Kabupaten Waropen, Papua 98261","Kemon Jaya Sp V, Kec. Waropen Bawah, Kabupaten Waropen",PAPUA,98261,Indonesia,085394955553,,,-22.185.432,1.364.200.064,https://maps.google.com/?cid=0x0:0x356450f535852163,
toko bangunan,Toko Bahan Bangunan,Toko Central Bangunan / AMK,"Jl. Perikanan No.08, Hamadi, Distrik Jayapura Selatan, Kota Jayapura, Papua 99222","Hamadi, Distrik Jayapura Selatan, Kota Jayapura",PAPUA,99222,Indonesia,082261057928,,,-25.584.767,1.407.173.289,https://maps.google.com/?cid=0x0:0xcfdf592c00fbd20d,
toko bangunan,Toko Bahan Bangunan,Surya Prima,"Jl. Kelapa Dua Raya Entrop No.18, Entrop, Jayapura Selatan, Jayapura City, Papua 99221","Entrop, Jayapura Selatan, Jayapura City",PAPUA,99221,Indonesia,082199367291,,,-25.685.557,1.407.022.939,https://maps.google.com/?cid=0x0:0x52a2d9ba8f08d112,
toko bangunan,Toko Bahan Bangunan,Tiptore Building Material,"Jl. Poros Kuda Mati, Klp. Lima, Kec. Merauke, Kabupaten Merauke, Papua 99616","Klp. Lima, Kec. Merauke, Kabupaten Merauke",PAPUA,99616,Indonesia,082293657714,,,-85.061.763,1.404.257.632,https://maps.google.com/?cid=0x0:0xbf132c61e5517b30,
toko bangunan,Toko Bahan Bangunan,Toko Simpati,"FCR2+JJX, Mandala, Kec. Merauke, Kabupaten Merauke, Papua 99615","Mandala, Kec. Merauke, Kabupaten Merauke",PAPUA,99615,Indonesia,082311111117,,,-85.083.866,1.404.016.142,https://maps.google.com/?cid=0x0:0xe1bd3c815a867d54,
toko bangunan,Toko Perlengkapan Rumah,Toko Bangunan URI,"Q93M+R2X, Uri, Kec. Waropen Bawah, Kabupaten Waropen, Papua 98261","Uri, Kec. Waropen Bawah, Kabupaten Waropen",PAPUA,98261,Indonesia,,,,-224.502,136.382.778,https://maps.google.com/?cid=0x0:0xedc722ce6d2e6662,
toko bangunan,toko bangunan,Toko bangunan Rama,"PHPV+RJM, Jl. Poros Samabusa, Samabusa, Distrik Tlk. Kimi, Kabupaten Nabire, Papua","Kabupaten Nabire, Papua",PAPUA,,Indonesia,,,,-3.262.924,1.355.940.416,https://maps.google.com/?cid=0x0:0x7b2810b3fdc90ff6,
toko bangunan,Toko Bahan Bangunan,TOKO JAYA TERUS 2,"Jl. Gongseng Raya No.7, RT.6/RW.9, Baru, Kec. Ps. Rebo, Kota Jakarta Timur, Daerah Khusus Ibukota Jakarta 13780","RT.6/RW.9, Baru, Kec. Ps. Rebo, Kota Jakarta Timur",PAPUA,13780,Indonesia,,,,-63.265.737,1.068.552.994,https://maps.google.com/?cid=0x0:0x7e3d94d9955a2189,
toko bangunan,Toko Bahan Bangunan,Tb. Sinar Timur,"Jl. Tanah Kusir 2 no.59f Rt. 010/009, RT.10/RW.9, Kby. Lama Sel., Kec. Kby. Lama, Kota Jakarta Selatan, Daerah Khusus Ibukota Jakarta 12240","RT.10/RW.9, Kby. Lama Sel., Kec. Kby. Lama, Kota Jakarta Selatan",PAPUA,12240,Indonesia,081295169990,,,-6.257.884,106.783.218,https://maps.google.com/?cid=0x0:0x199746c8ff917259,
toko bangunan,Toko Bahan Bangunan,TB Terus Jaya,"Jl. Mohamad Kafi No.2, RT.2/RW.6, Jagakarsa, Kec. Jagakarsa, Kota Jakarta Selatan, Daerah Khusus Ibukota Jakarta 13530","RT.2/RW.6, Jagakarsa, Kec. Jagakarsa, Kota Jakarta Selatan",PAPUA,13530,Indonesia,0217803083,,,-6.310.895,1.068.131.127,https://maps.google.com/?cid=0x0:0x7b0ad6a06e1df7e5,
toko bangunan,Toko Bahan Bangunan,Toko Bangunan Mekar Jaya,"Jl. Ciputat Raya No.16 1, RT.1/RW.2, Pd. Pinang, Kec. Kby. Lama, Kota Jakarta Selatan, Daerah Khusus Ibukota Jakarta 12310","RT.1/RW.2, Pd. Pinang, Kec. Kby. Lama, Kota Jakarta Selatan",PAPUA,12310,Indonesia,0217650780,,,-62.619.263,1.067.752.255,https://maps.google.com/?cid=0x0:0x5609b7bf4c3a5a0c,
toko bangunan,Toko Bahan Bangunan,TB.Terus Jaya,"11, Jl. Boulevard Raya No.29, RT.11/RW.12, Klp. Gading Bar., Kec. Klp. Gading, Jkt Utara, Daerah Khusus Ibukota Jakarta 14240","Jl. Boulevard Raya No.29, RT.11/RW.12, Klp. Gading Bar., Kec. Klp. Gading, Jkt Utara",PAPUA,14240,Indonesia,081288645158,,,-6.149.235,106.909.047,https://maps.google.com/?cid=0x0:0x871f9ab4d8974ef6,
toko bangunan,Toko Bahan Bangunan,TB TERUS JAYA,"Jl. Raya Klp. Dua Wetan No.61 1, RT.2/RW.8, Klp. Dua Wetan, Kec. Ciracas, Kota Jakarta Timur, Daerah Khusus Ibukota Jakarta 13730","RT.2/RW.8, Klp. Dua Wetan, Kec. Ciracas, Kota Jakarta Timur",PAPUA,13730,Indonesia,08111638639,,,-63.409.567,1.068.873.649,https://maps.google.com/?cid=0x0:0x65ee0e0246ad8e04,
toko bangunan,Toko Bahan Bangunan,Toko Putri Tunggal,"JL Sultan Hasanudin, No. 14, RT 03 RW 03, Kalinyamat Wetan, Tegal Selatan, RT.6/RW.2, Melawai, Tegal, Kota Jakarta Selatan, Daerah Khusus Ibukota Jakarta 12160","No. 14, RT 03 RW 03, Kalinyamat Wetan, Tegal Selatan, RT.6/RW.2, Melawai, Tegal, Kota Jakarta Selatan",PAPUA,12160,Indonesia,02836145943,,,-62.427.839,1.068.030.639,https://maps.google.com/?cid=0x0:0xbccb4d2fea532d0d,
toko bangunan,Toko Bahan Bangunan,Toko Bangunan (TB) Tiga Bersaudara,"RPHH+CC Pesan Antar Chat No Whatsapp T0K0 Kami O  5 7 ? 7 5 4 ?0  5 6 TOKO, Rw. Buaya, Kecamatan Cengkareng, Kota Jakarta Barat, Daerah Khusus Ibukota Jakarta 11740","Rw. Buaya, Kecamatan Cengkareng, Kota Jakarta Barat",PAPUA,11740,Indonesia,,,,-61.714.375,1.067.285.625,https://maps.google.com/?cid=0x0:0xeec3e989b0e2e4d2,
toko bangunan,toko bangunan,Papua 98912,"Mewoluk, Kabupaten Puncak Jaya, Papua","Kabupaten Puncak Jaya, Papua",PAPUA,,Indonesia,,,,-36.504.476,1.379.020.367,https://maps.google.com/?cid=0x0:0x8fdf1a31f83b56f2,
toko bangunan,toko bangunan,Kec. Tingginambut,"Kabupaten Puncak Jaya, Papua","Kabupaten Puncak Jaya, Papua",PAPUA,,Indonesia,,,,-37.064.439,138.093.446,https://maps.google.com/?cid=0x0:0x41dfbdd60c9aaf97,
toko bangunan,Toko,TOBA JAYA,"7XRF+RFM, Pruleme, Distrik Mulia, Kabupaten Puncak Jaya, Papua 98973","Pruleme, Distrik Mulia, Kabupaten Puncak Jaya",PAPUA,98973,Indonesia,,,,-37.079.207,137.973.681,https://maps.google.com/?cid=0x0:0x9cdd6c701aaec095,
hardware store,hardware store,Papua 98972,Papua,Papua,PAPUA,,Indonesia,,,,-3.921.968,1.375.275.422,https://maps.google.com/?cid=0x0:0x765d582b762840f7,
hardware store,Toko Bahan Bangunan,AZKO - Grand Paragon,"No. 126, GF, Jl. Gajah Mada 12, RT.12/RW.8, Keagungan, Kec. Taman Sari, Kota Jakarta Barat, Daerah Khusus Ibukota Jakarta 11130","GF, Jl. Gajah Mada 12, RT.12/RW.8, Keagungan, Kec. Taman Sari, Kota Jakarta Barat",PAPUA,11130,Indonesia,085161114376,,,-6.151.833,1.068.161.392,https://maps.google.com/?cid=0x0:0xfffca05e02b2a0a6,
hardware store,Toko,Mandiri Jaya. CV,"Jl. Taman Sari IV No.37 13, RT.13/RW.8, Maphar, Kec. Taman Sari, Kota Jakarta Barat, Daerah Khusus Ibukota Jakarta 11150","RT.13/RW.8, Maphar, Kec. Taman Sari, Kota Jakarta Barat",PAPUA,11150,Indonesia,0216291523,,,-61.590.764,1.068.255.239,https://maps.google.com/?cid=0x0:0x3e6bc5b1af950db6,
hardware store,Toko Bahan Bangunan,bahan Bangunan,"WW8Q+RWR, Jl. Hom-Hom, Kama, Distrik Wamena, Kabupaten Jayawijaya, Papua 98154","Jl. Hom-Hom, Kama, Distrik Wamena, Kabupaten Jayawijaya",PAPUA,98154,Indonesia,085777775333,,,-40.828.884,1.389.397.805,https://maps.google.com/?cid=0x0:0xccd44ec4a67b6020,
hardware store,Toko Bahan Bangunan,Mulia Jaya Toko Bangunan,"WW9Q+9M5, Jl. Hom-Hom, Hetuma, Distrik Wamena, Kabupaten Jayawijaya, Papua 99511","Jl. Hom-Hom, Hetuma, Distrik Wamena, Kabupaten Jayawijaya",PAPUA,99511,Indonesia,082121654001,,,-40.816.058,1.389.392.432,https://maps.google.com/?cid=0x0:0xe35085cf901d3afb,
hardware store,Toko Bahan Bangunan,Hardware Haus Depot,"G5WP+PRX, Port Moresby National Capital District, Papua Nugini","Port Moresby, Papua Nugini",PAPUA,,Indonesia,67579254555,,,-9.453.144,1.471.871.122,https://maps.google.com/?cid=0x0:0x90af1a4bb255158c,
hardware store,Toko Perlengkapan Rumah,Toko Hardware,"Mangga Dua Mall Blok A/29 4th Floor, JL. Mangga Dua Raya, Mangga Dua Selatan, Sawah Besar, Jakarta, 10730, RT.11/RW.5, South Mangga Dua, Sawah Besar, Central Jakarta City, Jakarta 10730","JL. Mangga Dua Raya, Mangga Dua Selatan, Sawah Besar, Jakarta,",PAPUA,10730,Indonesia,0216005107,,,-61.362.898,1.068.253.581,https://maps.google.com/?cid=0x0:0x74e79d6d61549694,
hardware store,Toko Aksesori Pakaian,Toko Mulia,"Jl. Teluk Gong Raya No.Blok C no. 4-5, RT.5/RW.16, Pejagalan, Penjaringan, North Jakarta City, Jakarta 14450","RT.5/RW.16, Pejagalan, Penjaringan, North Jakarta City",PAPUA,14450,Indonesia,0216680410,,,-61.377.567,1.067.881.111,https://maps.google.com/?cid=0x0:0x5069f30fb2f5b303,
hardware store,Pabrikan gasket,Mulia Jaya Houseware,"Jl. KH.Moh.Mansyur No.229, Jemb. Lima, Kec. Tambora, Kota Jakarta Barat, Daerah Khusus Ibukota Jakarta 11250","Jemb. Lima, Kec. Tambora, Kota Jakarta Barat",PAPUA,11250,Indonesia,081314535965,,,-61.430.466,1.068.065.797,https://maps.google.com/?cid=0x0:0xa438c244beb14e57,
hardware store,hardware store,Mulia Pacific Toko,"Jl. Blustru No.2 1, RT.1/RW.6, Mangga Besar, Kec. Taman Sari, Kota Jakarta Barat, Daerah Khusus Ibukota Jakarta 11180","RT.1/RW.6, Mangga Besar, Kec. Taman Sari, Kota Jakarta Barat",PAPUA,11180,Indonesia,0216288488,,,-6.144.222,1.068.167.158,https://maps.google.com/?cid=0x0:0x21c001a8a5f80849,
hardware store,Toko Bahan Bangunan,Toko Kali Jaya 1,"Jl. Tanah Sereal Raya No.1 13, RT.13/RW.12, Tanah Sereal, Kec. Tambora, Kota Jakarta Barat, Daerah Khusus Ibukota Jakarta 11210","RT.13/RW.12, Tanah Sereal, Kec. Tambora, Kota Jakarta Barat",PAPUA,11210,Indonesia,081338030871,,,-61.566.912,1.068.105.979,https://maps.google.com/?cid=0x0:0x9287b7b58e2fdfbb,
hardware store,hardware store,Papua 98916,"Kec. Pogoma, Kabupaten Puncak, Papua","Kabupaten Puncak, Papua",PAPUA,,Indonesia,,,,-36.485.048,1.377.341.718,https://maps.google.com/?cid=0x0:0x87f9708d464cf9c7,
hardware store,Toko Perlengkapan Rumah,AZKO - Living World Mall,"Alam Sutera Boulevard Kav. 21 Level 1st, Pakulonan, Serpong Utara, Tangerang, Banten 10350","Pakulonan, Serpong Utara, Tangerang",PAPUA,10350,Indonesia,081388189328,,,-62.443.876,106.653.631,https://maps.google.com/?cid=0x0:0xf5d44eec573f4cb8,
hardware store,Toko Perlengkapan Rumah,AZKO Graha Raya Silktown,"Jl. Boulevard Graha Raya No.1, Pd. Jagung Tim., Kec. Serpong Utara, Kota Tangerang Selatan, Banten 15326","Pd. Jagung Tim., Kec. Serpong Utara, Kota Tangerang Selatan",PAPUA,15326,Indonesia,08551500582,,,-62.408.921,1.066.667.704,https://maps.google.com/?cid=0x0:0x1ab9d348484ceca0,
hardware store,Pemasok Bahan Bangunan,TB. ILUVA JAYA ABADI,"4, Jl. Kapuk Muara Raya Kel No.7, RT.4/RW.5, Kapuk Muara, Kec. Penjaringan, Jkt Utara, Daerah Khusus Ibukota Jakarta 14460","Jl. Kapuk Muara Raya Kel No.7, RT.4/RW.5, Kapuk Muara, Kec. Penjaringan, Jkt Utara",PAPUA,14460,Indonesia,0215582055,,,-61.338.404,1.067.755.167,https://maps.google.com/?cid=0x0:0x4abd99096487abf0,
hardware store,Toko Bahan Bangunan,TB Jaya Abadi PIK,"Jl. Pantai Indah Selatan No.38 Blok B, RT.3/RW.3, Kamal Muara, Kec. Penjaringan, Jkt Utara, Daerah Khusus Ibukota Jakarta 14470","RT.3/RW.3, Kamal Muara, Kec. Penjaringan, Jkt Utara",PAPUA,14470,Indonesia,02129219155,,,-61.240.958,1.067.444.119,https://maps.google.com/?cid=0x0:0x40af2abd84bbcba4,
hardware store,hardware store,Papua 98917,"Mewoluk, Kabupaten Puncak Jaya, Papua","Kabupaten Puncak Jaya, Papua",PAPUA,,Indonesia,,,,-36.519.188,1.377.933.577,https://maps.google.com/?cid=0x0:0x499f37f7bd3f4341,
hardware store,Toko Bahan Bangunan,Goroka Didiman Hardware,"Edward Street Goroka EHP, 441, Papua Nugini","Goroka, Papua Nugini",PAPUA,,Indonesia,6755322883,,,-60.844.641,1.453.896.487,https://maps.google.com/?cid=0x0:0x5ea480c16c35db7b,
hardware store,Toko Bahan Bangunan,Hardware Haus - Goroka,"W97Q+VVW, Goroka Eastern Highlands Province, Papua Nugini","Goroka, Papua Nugini",PAPUA,,Indonesia,,,,-60.852.733,1.453.897.024,https://maps.google.com/?cid=0x0:0x3dd98a779945a511,
hardware store,hardware store,Mewoluk,"Kabupaten Puncak Jaya, Papua","Kabupaten Puncak Jaya, Papua",PAPUA,,Indonesia,,,,-36.029.783,1.378.822.604,https://maps.google.com/?cid=0x0:0xfd57868b200d38ff,
hardware store,hardware store,Papua 98913,"Kabupaten Puncak Jaya, Papua","Kabupaten Puncak Jaya, Papua",PAPUA,,Indonesia,,,,-34.610.775,1.378.229.754,https://maps.google.com/?cid=0x0:0x12db5455263a30a5,
hardware store,Toko Bahan Bangunan,Oi Lau Timber  Hardware Suppliers,"Port Moresby National Capital District, Papua Nugini","Port Moresby, Papua Nugini",PAPUA,,Indonesia,6753236018,,,-94.495.639,1.471.897.277,https://maps.google.com/?cid=0x0:0xb05737aacf90c631,
hardware store,Toko Bahan Bangunan,Sunshine Hardware,"Kawai Dr, Port Moresby National Capital District, Papua Nugini","Port Moresby, Papua Nugini",PAPUA,,Indonesia,6753233221,,,-94.479.798,1.471.871.482,https://maps.google.com/?cid=0x0:0x3d98e0d0ab5a64f6,
hardware store,Toko Komputer,Diwantama Computer,"Harco Mangga Dua Plaza, Jl. Mangga Dua Raya Lt. 3 Blok B No. 25, Mangga Dua Sel., Kecamatan Sawah Besar, Kota Jakarta Pusat, Daerah Khusus Ibukota Jakarta 10730","Jl. Mangga Dua Raya Lt. 3 Blok B No. 25, Mangga Dua Sel., Kecamatan Sawah Besar, Kota Jakarta Pusat",PAPUA,10730,Indonesia,02162202612,,,-61.389.036,1.068.281.527,https://maps.google.com/?cid=0x0:0x2991ec54aa7dfc8d,
hardware store,Toko Elektronik,Harco Mangga Dua,"Jl. Mangga Dua Raya, RW.11, Mangga Dua Sel., Kecamatan Sawah Besar, Kota Jakarta Pusat, Daerah Khusus Ibukota Jakarta 10730","RW.11, Mangga Dua Sel., Kecamatan Sawah Besar, Kota Jakarta Pusat",PAPUA,10730,Indonesia,0216129329,,,-61.390.038,1.068.284.066,https://maps.google.com/?cid=0x0:0x964c8d2f2bdf3b08,
hardware store,hardware store,Papua 98914,"Fawi, Kabupaten Puncak Jaya, Papua","Kabupaten Puncak Jaya, Papua",PAPUA,,Indonesia,,,,-35.181.977,1.377.440.315,https://maps.google.com/?cid=0x0:0xa728d4ad1372091c,
hardware store,hardware store,Torere,"Bay of Plenty Region 3197, Selandia Baru","Torere, Selandia Baru",PAPUA,,Indonesia,,,,-379.498.316,1.774.895.869,https://maps.google.com/?cid=0x0:0x500ef6143a31000,
hardware store,hardware store,Papua,,Papua,PAPUA,,Indonesia,,,,-4.269.928,1.380.803.529,https://maps.google.com/?cid=0x0:0xeba94e9c5eefe673,
hardware store,hardware store,Papua 98912,"Mewoluk, Kabupaten Puncak Jaya, Papua","Kabupaten Puncak Jaya, Papua",PAPUA,,Indonesia,,,,-36.504.476,1.379.020.367,https://maps.google.com/?cid=0x0:0x8fdf1a31f83b56f2,
hardware store,hardware store,Kec. Tingginambut,"Kabupaten Puncak Jaya, Papua","Kabupaten Puncak Jaya, Papua",PAPUA,,Indonesia,,,,-37.064.439,138.093.446,https://maps.google.com/?cid=0x0:0x41dfbdd60c9aaf97,
home improvement,home improvement,Papua 98972,Papua,Papua,PAPUA,,Indonesia,,,,-3.921.968,1.375.275.422,https://maps.google.com/?cid=0x0:0x765d582b762840f7,
home improvement,Pembangunan Perumahan,Dewata Home,"7XPJ+QGC, Pruleme, Distrik Mulia, Kabupaten Puncak Jaya, Papua 98973","Pruleme, Distrik Mulia, Kabupaten Puncak Jaya",PAPUA,98973,Indonesia,,,,-37.130.531,1.379.812.549,https://maps.google.com/?cid=0x0:0x8792f702c2757513,
home improvement,Pembangunan Perumahan,BW,"8W7Q+XJ, Kulirik, Distrik Mulia, Kabupaten Puncak Jaya, Papua","Kabupaten Puncak Jaya, Papua",PAPUA,,Indonesia,,,,-368.506,13.793.912,https://maps.google.com/?cid=0x0:0xb3f13162608d2231,
home improvement,home improvement,Papua 98911,"Kabupaten Puncak Jaya, Papua","Kabupaten Puncak Jaya, Papua",PAPUA,,Indonesia,,,,-35.879.887,1.377.538.931,https://maps.google.com/?cid=0x0:0x87fbe061dff44735,
home improvement,Toko Kayu,Pd. Makmur Abadi,"6, Jl. Pademangan II Gg. 26 No.145, RT.11/RW.3, Pademangan Tim., Kec. Pademangan, Jkt Utara, Daerah Khusus Ibukota Jakarta 14410","Jl. Pademangan II Gg. 26 No.145, RT.11/RW.3, Pademangan Tim., Kec. Pademangan, Jkt Utara",PAPUA,14410,Indonesia,,,,-61.350.793,1.068.429.628,https://maps.google.com/?cid=0x0:0xfc4c5362e1c37bf9,
home improvement,home improvement,Papua 98916,"Kec. Pogoma, Kabupaten Puncak, Papua","Kabupaten Puncak, Papua",PAPUA,,Indonesia,,,,-36.485.048,1.377.341.718,https://maps.google.com/?cid=0x0:0x87f9708d464cf9c7,
home improvement,home improvement,Papua,,Papua,PAPUA,,Indonesia,,,,-4.269.928,1.380.803.529,https://maps.google.com/?cid=0x0:0xeba94e9c5eefe673,
home improvement,Toko Perlengkapan Rumah,Viridi Indonesia,"Bank Panin Center, Jl. Jenderal Sudirman No.Kav 1 1, RT.1/RW.3, Gelora, Kecamatan Tanah Abang, Kota Jakarta Pusat, Daerah Khusus Ibukota Jakarta 10270","Jl. Jenderal Sudirman No.Kav 1 1, RT.1/RW.3, Gelora, Kecamatan Tanah Abang, Kota Jakarta Pusat",PAPUA,10270,Indonesia,02172799832,,,-62.279.595,1.067.995.791,https://maps.google.com/?cid=0x0:0xe5db1da93e5a10b9,
home improvement,home improvement,Papua 98917,"Mewoluk, Kabupaten Puncak Jaya, Papua","Kabupaten Puncak Jaya, Papua",PAPUA,,Indonesia,,,,-36.519.188,1.377.933.577,https://maps.google.com/?cid=0x0:0x499f37f7bd3f4341,
home improvement,home improvement,Fawi,"Kabupaten Puncak Jaya, Papua","Kabupaten Puncak Jaya, Papua",PAPUA,,Indonesia,,,,-33.157.958,1.376.849.007,https://maps.google.com/?cid=0x0:0x8d959aadfd743ac9,
home improvement,home improvement,Mewoluk,"Kabupaten Puncak Jaya, Papua","Kabupaten Puncak Jaya, Papua",PAPUA,,Indonesia,,,,-36.029.783,1.378.822.604,https://maps.google.com/?cid=0x0:0xfd57868b200d38ff,
home improvement,home improvement,Papua 98913,"Kabupaten Puncak Jaya, Papua","Kabupaten Puncak Jaya, Papua",PAPUA,,Indonesia,,,,-34.610.775,1.378.229.754,https://maps.google.com/?cid=0x0:0x12db5455263a30a5,
home improvement,home improvement,Distrik Yamo,"Kabupaten Puncak Jaya, Papua","Kabupaten Puncak Jaya, Papua",PAPUA,,Indonesia,,,,-36.556.591,1.379.780.297,https://maps.google.com/?cid=0x0:0xb729b64c2b9ca514,
home improvement,home improvement,Papua 98914,"Fawi, Kabupaten Puncak Jaya, Papua","Kabupaten Puncak Jaya, Papua",PAPUA,,Indonesia,,,,-35.181.977,1.377.440.315,https://maps.google.com/?cid=0x0:0xa728d4ad1372091c,
home improvement,home improvement,Torere,"Bay of Plenty Region 3197, Selandia Baru","Torere, Selandia Baru",PAPUA,,Indonesia,,,,-379.498.316,1.774.895.869,https://maps.google.com/?cid=0x0:0x500ef6143a31000,
home improvement,home improvement,Papua,,Papua,PAPUA,,Indonesia,,,,-4.269.928,1.380.803.529,https://maps.google.com/?cid=0x0:0xeba94e9c5eefe673,
home improvement,home improvement,Papua 98912,"Mewoluk, Kabupaten Puncak Jaya, Papua","Kabupaten Puncak Jaya, Papua",PAPUA,,Indonesia,,,,-36.504.476,1.379.020.367,https://maps.google.com/?cid=0x0:0x8fdf1a31f83b56f2,
home improvement,home improvement,Kec. Tingginambut,"Kabupaten Puncak Jaya, Papua","Kabupaten Puncak Jaya, Papua",PAPUA,,Indonesia,,,,-37.064.439,138.093.446,https://maps.google.com/?cid=0x0:0x41dfbdd60c9aaf97,
