Category,Real Category,Business Name,Address,City,State,Postal Code,Country,Phone,Email,Website,Latitude,Longitude,Map Link,Details Link
hardware store,Toko Bahan Bangunan,Kawi Graha Bangunan,"Jl. Sudirman No.18, Pendem, Kec. Jembrana, Kabupaten Jembrana, Bali 82211","Pendem, Kec. Jembrana, Kabupaten Jembrana",BALI,82211.0,Indonesia,81802072099.0,,,-8.3577299,114.6285171,https://maps.google.com/?cid=0x0:0x2fd68f13e2d4321b,
hardware store,Toko Bahan Bangunan,"Toko Gunung Mas Bangunan Jembrana, Negara","Jl. Pahlawan No.32, Pendem, Kec. Negara, Kabupaten Jembrana, Bali 82211","Pendem, Kec. Negara, Kabupaten Jembrana",BALI,82211.0,Indonesia,81246101924.0,,,-8.3584976,114.6255645,https://maps.google.com/?cid=0x0:0x136df2e41fbe9aba,
hardware store,hardware store,Bali 82211,"Pendem, Kec. Jembrana, Kabupaten Jembrana, Bali","Kabupaten Jembrana, Bali",BALI,,Indonesia,,,,-8.3591929,114.628832,https://maps.google.com/?cid=0x0:0x7f27513f7ae5cdf2,
hardware store,Toko Perlengkapan Rumah,MR.DIY,"Jl. Ngurah Rai, Pendem, Kec. Negara, Kabupaten Jembrana, Bali 82212","Pendem, Kec. Negara, Kabupaten Jembrana",BALI,82212.0,Indonesia,8133600569.0,,,-8.3605747,114.6303975,https://maps.google.com/?cid=0x0:0x90d4a9b84438418b,
hardware store,Toko Elektronik,Toko Gunung Mas Electronics,"Jl. Gatot Subroto No.25, Banjar Tengah, Kec. Negara, Kabupaten Jembrana, Bali 82218","Banjar Tengah, Kec. Negara, Kabupaten Jembrana",BALI,82218.0,Indonesia,,,,-8.3604067,114.6240005,https://maps.google.com/?cid=0x0:0xe615b03116e1144d,
hardware store,Tukang Bangunan,IB HOME JEMBRANA,"MH2M+CGC, Banyu Biru, Kec. Negara, Kabupaten Jembrana, Bali","Kabupaten Jembrana, Bali",BALI,,Indonesia,8113897788.0,,,-8.3489316,114.5837666,https://maps.google.com/?cid=0x0:0x6b6f67115442d11a,
hardware store,Toko Bahan Bangunan,PANDAWA Kaca  Aluminium,"Jl. Ngurah Rai No.60, Dauhwaru, Kec. Negara, Kabupaten Jembrana, Bali 82218","Dauhwaru, Kec. Negara, Kabupaten Jembrana",BALI,82218.0,Indonesia,36541963.0,,,-8.3609982,114.6302543,https://maps.google.com/?cid=0x0:0xef72e8f8bd99078b,
hardware store,Dealer Honda,Astra Motor Negara,"Jl. Jenderal Sudirman No.44, Pendem, Kec. Negara, Kabupaten Jembrana, Bali 82211, Bali, Kabupaten Jembrana, Bali 82218","Pendem, Kec. Negara, Kabupaten Jembrana, Bali",BALI,82211.0,Indonesia,82340182729.0,,,-8.3577619,114.6318855,https://maps.google.com/?cid=0x0:0xff066c67fdadff41,
hardware store,Toko Bahan Bangunan,Sinar Bangunan,"Jl. Hayam Wuruk No.47, Dangin Tukadaya, Kec. Negara, Kabupaten Jembrana, Bali 82218","Dangin Tukadaya, Kec. Negara, Kabupaten Jembrana",BALI,82218.0,Indonesia,3654545914.0,,,-8.3620314,114.648035,https://maps.google.com/?cid=0x0:0xdf3ea386ff30329e,
hardware store,hardware store,Jembrana,"Kec. Jembrana, Kabupaten Jembrana, Bali","Kabupaten Jembrana, Bali",BALI,,Indonesia,,,,-8.3605987,114.6256578,https://maps.google.com/?cid=0x0:0xd668745c2713a1d7,
hardware store,Toko Kayu,UD AZ ZAHRA,"Jl. Gn. Merapi, Loloan Tim., Kec. Negara, Kabupaten Jembrana, Bali 82216","Loloan Tim., Kec. Negara, Kabupaten Jembrana",BALI,82216.0,Indonesia,82375555569.0,,,-8.3684065,114.6299146,https://maps.google.com/?cid=0x0:0xbfcd644107869bd6,
hardware store,Toko Bahan Bangunan,Toko Mega,"JJQG+M8X, Jl. Ngurah Rai, Loloan Tim., Kec. Negara, Kabupaten Jembrana, Bali 82218","Jl. Ngurah Rai, Loloan Tim., Kec. Negara, Kabupaten Jembrana",BALI,82218.0,Indonesia,36541181.0,,,-8.3607674,114.6258583,https://maps.google.com/?cid=0x0:0x5e71775d5ff9b401,
hardware store,Toko Bahan Bangunan,Mitra Pandawa Bahan Bangunan,"MJ2C+M9H, Jl. Plawa GANG KASTURI III, Baler Bale Agung, Kec. Negara, Kabupaten Jembrana, Bali 82218","Jl. Plawa GANG KASTURI III, Baler Bale Agung, Kec. Negara, Kabupaten Jembrana",BALI,82218.0,Indonesia,82119975875.0,,,-8.3483171,114.62098,https://maps.google.com/?cid=0x0:0x6a8f15bd5628e7e6,
hardware store,Toko Bahan Bangunan,Artha Jaya,"Jl. Gajah Mada No.9x, Dangin Tukadaya, Kec. Jembrana, Kabupaten Jembrana, Bali 82218","Dangin Tukadaya, Kec. Jembrana, Kabupaten Jembrana",BALI,82218.0,Indonesia,,,,-8.3625612,114.6498947,https://maps.google.com/?cid=0x0:0x326debc7288c2d43,
hardware store,Toko Kaca,Pandawa Alumunium,"MJ2C+MC8, Jl. Plawa, Baler Bale Agung, Kec. Negara, Kabupaten Jembrana, Bali 82218","Jl. Plawa, Baler Bale Agung, Kec. Negara, Kabupaten Jembrana",BALI,82218.0,Indonesia,3654546201.0,,,-8.3483288,114.6210745,https://maps.google.com/?cid=0x0:0xb6b4e51d5c87301f,
hardware store,Toko Bahan Bangunan,BAHAN BANGUNAN UD. SARI PUTRA BIRAWA,"Jl. Dahlia, Lingkungan Kebon, Baler Bale Agung, Kec. Negara, Kabupaten Jembrana, Bali 82212","Lingkungan Kebon, Baler Bale Agung, Kec. Negara, Kabupaten Jembrana",BALI,82212.0,Indonesia,87761510141.0,,,-8.3451664,114.6238024,https://maps.google.com/?cid=0x0:0x63f758d894d62ab1,
hardware store,Toko,Ud.Trisna Jaya,"Jl. Panji Sakti, Dauhwaru, Kec. Negara, Kabupaten Jembrana, Bali 82218","Dauhwaru, Kec. Negara, Kabupaten Jembrana",BALI,82218.0,Indonesia,87761171817.0,,,-8.3530689,114.6417737,https://maps.google.com/?cid=0x0:0x8ff8395c7a19ad0c,
hardware store,Toko Bahan Bangunan,Toko Tri Sakti Bahan Bangunan Desa Baluk,"Jl. Yudistira No.1, Baluk, Kec. Negara, Kabupaten Jembrana, Bali 82213","Baluk, Kec. Negara, Kabupaten Jembrana",BALI,82213.0,Indonesia,85931371499.0,,,-8.3593423,114.6012129,https://maps.google.com/?cid=0x0:0x81413743b340346f,
hardware store,Toko Bahan Bangunan,Toko Sumber Untung,"JJQH+R64, Jl. Ngurah Rai, Pendem, Kec. Jembrana, Kabupaten Jembrana, Bali 82218","Jl. Ngurah Rai, Pendem, Kec. Jembrana, Kabupaten Jembrana",BALI,82218.0,Indonesia,81916371747.0,,,-8.3604966,114.6280772,https://maps.google.com/?cid=0x0:0x645d5fd6b8abbbb,
hardware store,Toko Bahan Bangunan,CV. MITRA INDOBAJA,"Jl. Udayana, Banyu Biru, Kec. Negara, Kabupaten Jembrana, Bali 82212","Banyu Biru, Kec. Negara, Kabupaten Jembrana",BALI,82212.0,Indonesia,82266604828.0,,,-8.3515665,114.6000365,https://maps.google.com/?cid=0x0:0x70ea7062b73e032c,
hardware store,Toko,Toko Bangunan Ayodya,"Jl. Nakula, Banjar Tengah, Kec. Negara, Kabupaten Jembrana, Bali 82218","Banjar Tengah, Kec. Negara, Kabupaten Jembrana",BALI,82218.0,Indonesia,87762950666.0,,,-8.3584539,114.6115027,https://maps.google.com/?cid=0x0:0x9495feffb3ee4f8e,
hardware store,Bengkel Mobil,GMB Garuda Mas Bali,"Jl. A. Yani No.1, Banjar Tengah, Kec. Negara, Kabupaten Jembrana, Bali 82218","Banjar Tengah, Kec. Negara, Kabupaten Jembrana",BALI,82218.0,Indonesia,81805552828.0,,,-8.3574462,114.6236301,https://maps.google.com/?cid=0x0:0xa7ccefbf33bec17c,
hardware store,Toko Bahan Bangunan,Toko Megah Sari,"Jl. Jenderal Sudirman No.24, Pendem, Kec. Negara, Kabupaten Jembrana, Bali 82218","Pendem, Kec. Negara, Kabupaten Jembrana",BALI,82218.0,Indonesia,87852764455.0,,,-8.3578441,114.6307255,https://maps.google.com/?cid=0x0:0xdf8eea5ac5361e71,
hardware store,Toko Bahan Bangunan,UD. Sari Agung ᬉᬤ᭄᭟ᬲᬭᬶᬅᬕᬸᬂ᭟,"JJW4+F52, Jl. Raya Denpasar - Gilimanuk, Kaliakah, Kec. Negara, Kabupaten Jembrana, Bali 82212","Jl. Raya Denpasar - Gilimanuk, Kaliakah, Kec. Negara, Kabupaten Jembrana",BALI,82212.0,Indonesia,87863166405.0,,,-8.3538586,114.6053852,https://maps.google.com/?cid=0x0:0x602a4991b974c916,
hardware store,hardware store,Jembrana,"Kec. Jembrana, Kabupaten Jembrana, Bali","Kabupaten Jembrana, Bali",BALI,,Indonesia,,,,-8.3605987,114.6256578,https://maps.google.com/?cid=0x0:0xd668745c2713a1d7,
hardware store,Toko Bahan Bangunan,Kawi Graha Bangunan,"Jl. Sudirman No.18, Pendem, Kec. Jembrana, Kabupaten Jembrana, Bali 82211","Pendem, Kec. Jembrana, Kabupaten Jembrana",BALI,82211.0,Indonesia,81802072099.0,,,-8.3577299,114.6285171,https://maps.google.com/?cid=0x0:0x2fd68f13e2d4321b,
hardware store,Toko Bahan Bangunan,"Toko Gunung Mas Bangunan Jembrana, Negara","Jl. Pahlawan No.32, Pendem, Kec. Negara, Kabupaten Jembrana, Bali 82211","Pendem, Kec. Negara, Kabupaten Jembrana",BALI,82211.0,Indonesia,81246101924.0,,,-8.3584976,114.6255645,https://maps.google.com/?cid=0x0:0x136df2e41fbe9aba,
hardware store,Toko Bahan Bangunan,Sinar Bangunan,"Jl. Hayam Wuruk No.47, Dangin Tukadaya, Kec. Negara, Kabupaten Jembrana, Bali 82218","Dangin Tukadaya, Kec. Negara, Kabupaten Jembrana",BALI,82218.0,Indonesia,3654545914.0,,,-8.3620314,114.648035,https://maps.google.com/?cid=0x0:0xdf3ea386ff30329e,
hardware store,Toko Bahan Bangunan,Toko Mega,"JJQG+M8X, Jl. Ngurah Rai, Loloan Tim., Kec. Negara, Kabupaten Jembrana, Bali 82218","Jl. Ngurah Rai, Loloan Tim., Kec. Negara, Kabupaten Jembrana",BALI,82218.0,Indonesia,36541181.0,,,-8.3607674,114.6258583,https://maps.google.com/?cid=0x0:0x5e71775d5ff9b401,
hardware store,Toko Kayu,UD AZ ZAHRA,"Jl. Gn. Merapi, Loloan Tim., Kec. Negara, Kabupaten Jembrana, Bali 82216","Loloan Tim., Kec. Negara, Kabupaten Jembrana",BALI,82216.0,Indonesia,82375555569.0,,,-8.3684065,114.6299146,https://maps.google.com/?cid=0x0:0xbfcd644107869bd6,
hardware store,Toko Perlengkapan Rumah,MR.DIY,"Jl. Ngurah Rai, Pendem, Kec. Negara, Kabupaten Jembrana, Bali 82212","Pendem, Kec. Negara, Kabupaten Jembrana",BALI,82212.0,Indonesia,8133600569.0,,,-8.3605747,114.6303975,https://maps.google.com/?cid=0x0:0x90d4a9b84438418b,
hardware store,Toko Bahan Bangunan,Artha Jaya,"Jl. Gajah Mada No.9x, Dangin Tukadaya, Kec. Jembrana, Kabupaten Jembrana, Bali 82218","Dangin Tukadaya, Kec. Jembrana, Kabupaten Jembrana",BALI,82218.0,Indonesia,,,,-8.3625612,114.6498947,https://maps.google.com/?cid=0x0:0x326debc7288c2d43,
hardware store,Toko Kaca,Pandawa Alumunium,"MJ2C+MC8, Jl. Plawa, Baler Bale Agung, Kec. Negara, Kabupaten Jembrana, Bali 82218","Jl. Plawa, Baler Bale Agung, Kec. Negara, Kabupaten Jembrana",BALI,82218.0,Indonesia,3654546201.0,,,-8.3483288,114.6210745,https://maps.google.com/?cid=0x0:0xb6b4e51d5c87301f,
hardware store,Toko Bahan Bangunan,CV. MITRA INDOBAJA,"Jl. Udayana, Banyu Biru, Kec. Negara, Kabupaten Jembrana, Bali 82212","Banyu Biru, Kec. Negara, Kabupaten Jembrana",BALI,82212.0,Indonesia,82266604828.0,,,-8.3515665,114.6000365,https://maps.google.com/?cid=0x0:0x70ea7062b73e032c,
hardware store,Toko Elektronik,Toko Gunung Mas Electronics,"Jl. Gatot Subroto No.25, Banjar Tengah, Kec. Negara, Kabupaten Jembrana, Bali 82218","Banjar Tengah, Kec. Negara, Kabupaten Jembrana",BALI,82218.0,Indonesia,,,,-8.3604067,114.6240005,https://maps.google.com/?cid=0x0:0xe615b03116e1144d,
hardware store,Toko Bahan Bangunan,Toko Tri Sakti Bahan Bangunan Desa Baluk,"Jl. Yudistira No.1, Baluk, Kec. Negara, Kabupaten Jembrana, Bali 82213","Baluk, Kec. Negara, Kabupaten Jembrana",BALI,82213.0,Indonesia,85931371499.0,,,-8.3593423,114.6012129,https://maps.google.com/?cid=0x0:0x81413743b340346f,
hardware store,Toko Bahan Bangunan,BAHAN BANGUNAN UD. SARI PUTRA BIRAWA,"Jl. Dahlia, Lingkungan Kebon, Baler Bale Agung, Kec. Negara, Kabupaten Jembrana, Bali 82212","Lingkungan Kebon, Baler Bale Agung, Kec. Negara, Kabupaten Jembrana",BALI,82212.0,Indonesia,87761510141.0,,,-8.3451664,114.6238024,https://maps.google.com/?cid=0x0:0x63f758d894d62ab1,
hardware store,Toko Bahan Bangunan,UD. Sari Agung ᬉᬤ᭄᭟ᬲᬭᬶᬅᬕᬸᬂ᭟,"JJW4+F52, Jl. Raya Denpasar - Gilimanuk, Kaliakah, Kec. Negara, Kabupaten Jembrana, Bali 82212","Jl. Raya Denpasar - Gilimanuk, Kaliakah, Kec. Negara, Kabupaten Jembrana",BALI,82212.0,Indonesia,87863166405.0,,,-8.3538586,114.6053852,https://maps.google.com/?cid=0x0:0x602a4991b974c916,
hardware store,Toko Suku Cadang Motor,kusuma makmur mtr,"Gilimanuk-Negara, Jl. Ngurah Rai No.129B, Kec. Jembrana, Kabupaten Jembrana, Bali 82217","Jl. Ngurah Rai No.129B, Kec. Jembrana, Kabupaten Jembrana",BALI,82217.0,Indonesia,81252599891.0,,,-8.3607504,114.6334068,https://maps.google.com/?cid=0x0:0x5bf7eb86eb9ee6cb,
hardware store,Toko Bahan Bangunan,Mitra Pandawa Bahan Bangunan,"MJ2C+M9H, Jl. Plawa GANG KASTURI III, Baler Bale Agung, Kec. Negara, Kabupaten Jembrana, Bali 82218","Jl. Plawa GANG KASTURI III, Baler Bale Agung, Kec. Negara, Kabupaten Jembrana",BALI,82218.0,Indonesia,82119975875.0,,,-8.3483171,114.62098,https://maps.google.com/?cid=0x0:0x6a8f15bd5628e7e6,
hardware store,Toko Bahan Bangunan,ADI PURNAMA(1),"JMG2+MC2, Sangkaragung, Kec. Jembrana, Kabupaten Jembrana, Bali 82218","Sangkaragung, Kec. Jembrana, Kabupaten Jembrana",BALI,82218.0,Indonesia,,,,-8.3733598,114.6510019,https://maps.google.com/?cid=0x0:0x78a97b079a0c876c,
hardware store,Toko,Toko Bangunan Ayodya,"Jl. Nakula, Banjar Tengah, Kec. Negara, Kabupaten Jembrana, Bali 82218","Banjar Tengah, Kec. Negara, Kabupaten Jembrana",BALI,82218.0,Indonesia,87762950666.0,,,-8.3584539,114.6115027,https://maps.google.com/?cid=0x0:0x9495feffb3ee4f8e,
hardware store,Bengkel Mobil,GMB Garuda Mas Bali,"Jl. A. Yani No.1, Banjar Tengah, Kec. Negara, Kabupaten Jembrana, Bali 82218","Banjar Tengah, Kec. Negara, Kabupaten Jembrana",BALI,82218.0,Indonesia,81805552828.0,,,-8.3574462,114.6236301,https://maps.google.com/?cid=0x0:0xa7ccefbf33bec17c,
hardware store,Toko Bahan Bangunan,Toko Sumber Untung,"JJQH+R64, Jl. Ngurah Rai, Pendem, Kec. Jembrana, Kabupaten Jembrana, Bali 82218","Jl. Ngurah Rai, Pendem, Kec. Jembrana, Kabupaten Jembrana",BALI,82218.0,Indonesia,81916371747.0,,,-8.3604966,114.6280772,https://maps.google.com/?cid=0x0:0x645d5fd6b8abbbb,
hardware store,Toko,Ud.Trisna Jaya,"Jl. Panji Sakti, Dauhwaru, Kec. Negara, Kabupaten Jembrana, Bali 82218","Dauhwaru, Kec. Negara, Kabupaten Jembrana",BALI,82218.0,Indonesia,87761171817.0,,,-8.3530689,114.6417737,https://maps.google.com/?cid=0x0:0x8ff8395c7a19ad0c,
hardware store,Toko Bahan Bangunan,CV. DOA IBU,"Jl. Teratai, Cupel, Kec. Negara, Kabupaten Jembrana, Bali 82218","Cupel, Kec. Negara, Kabupaten Jembrana",BALI,82218.0,Indonesia,81338799994.0,,,-8.3705924,114.5686325,https://maps.google.com/?cid=0x0:0xf56267072b1ef4c2,
hardware store,Toko Bahan Bangunan,UD Mulya Sari,"Unnamed Road, Ekasari, Kec. Melaya, Kabupaten Jembrana, Bali 82252","Ekasari, Kec. Melaya, Kabupaten Jembrana",BALI,82252.0,Indonesia,85738237622.0,,,-8.2708014,114.5302889,https://maps.google.com/?cid=0x0:0x3cf40657b48a4b18,
hardware store,Toko Bahan Bangunan,Ud. Jagra,"Jl. Raya Denpasar - Gilimanuk, Yeh Embang, Kec. Mendoyo, Kabupaten Jembrana, Bali 82261","Yeh Embang, Kec. Mendoyo, Kabupaten Jembrana",BALI,82261.0,Indonesia,81999095955.0,,,-8.3939808,114.7587336,https://maps.google.com/?cid=0x0:0xed9e82eb83a0e36a,
hardware store,Toko Bahan Bangunan,UD Kria Bhakti,"PGHJ+M52, Ekasari, Kec. Melaya, Kabupaten Jembrana, Bali 82252","Ekasari, Kec. Melaya, Kabupaten Jembrana",BALI,82252.0,Indonesia,87863040504.0,,,-8.2708625,114.5303818,https://maps.google.com/?cid=0x0:0x1913eb98fae667b8,
hardware store,Toko Bahan Bangunan,Toko Sentral Muda,"PGW6+778, Jalan Pangkung Tanah, Melaya, Kec. Melaya, Kabupaten Jembrana, Bali 82252","Jalan Pangkung Tanah, Melaya, Kec. Melaya, Kabupaten Jembrana",BALI,82252.0,Indonesia,81338404513.0,,,-8.2543404,114.5107102,https://maps.google.com/?cid=0x0:0x6c830716b97ced16,
hardware store,Toko Bahan Bangunan,Toko Bangunan UD. Ayodya 3,"Jl. Arjuna, Baluk, Kec. Negara, Kabupaten Jembrana, Bali 82218","Baluk, Kec. Negara, Kabupaten Jembrana",BALI,82218.0,Indonesia,82342445312.0,,,-8.359331,114.5819062,https://maps.google.com/?cid=0x0:0xcd7fc34dc66b3c9c,
hardware store,Toko Bahan Bangunan,Yuri Bangunan,"Jl. Desa Kaliakah Kauh, Kaliakah, Kec. Negara, Kabupaten Jembrana, Bali 82218","Kaliakah, Kec. Negara, Kabupaten Jembrana",BALI,82218.0,Indonesia,,,,-8.3292516,114.5574102,https://maps.google.com/?cid=0x0:0x58f157f4cc38e079,
hardware store,hardware store,Jembrana,"Kec. Jembrana, Kabupaten Jembrana, Bali","Kabupaten Jembrana, Bali",BALI,,Indonesia,,,,-8.3605987,114.6256578,https://maps.google.com/?cid=0x0:0xd668745c2713a1d7,
hardware store,Toko Perlengkapan Rumah,Toko Bangunan Kawi Jaya,"Jl. Pahlawan, Pendem, Kec. Negara, Kabupaten Jembrana, Bali 82218","Pendem, Kec. Negara, Kabupaten Jembrana",BALI,82218.0,Indonesia,36541288.0,,,-8.3580215,114.6256185,https://maps.google.com/?cid=0x0:0x9bbe88362e356a5e,
hardware store,Toko Bahan Bangunan,Sinar Bangunan,"Jl. Hayam Wuruk No.47, Dangin Tukadaya, Kec. Negara, Kabupaten Jembrana, Bali 82218","Dangin Tukadaya, Kec. Negara, Kabupaten Jembrana",BALI,82218.0,Indonesia,3654545914.0,,,-8.3620314,114.648035,https://maps.google.com/?cid=0x0:0xdf3ea386ff30329e,
hardware store,Toko Bahan Bangunan,Kawi Graha Bangunan,"Jl. Sudirman No.18, Pendem, Kec. Jembrana, Kabupaten Jembrana, Bali 82211","Pendem, Kec. Jembrana, Kabupaten Jembrana",BALI,82211.0,Indonesia,81802072099.0,,,-8.3577299,114.6285171,https://maps.google.com/?cid=0x0:0x2fd68f13e2d4321b,
hardware store,Toko Bahan Bangunan,Toko Mega,"JJQG+M8X, Jl. Ngurah Rai, Loloan Tim., Kec. Negara, Kabupaten Jembrana, Bali 82218","Jl. Ngurah Rai, Loloan Tim., Kec. Negara, Kabupaten Jembrana",BALI,82218.0,Indonesia,36541181.0,,,-8.3607674,114.6258583,https://maps.google.com/?cid=0x0:0x5e71775d5ff9b401,
hardware store,Toko Kayu,UD AZ ZAHRA,"Jl. Gn. Merapi, Loloan Tim., Kec. Negara, Kabupaten Jembrana, Bali 82216","Loloan Tim., Kec. Negara, Kabupaten Jembrana",BALI,82216.0,Indonesia,82375555569.0,,,-8.3684065,114.6299146,https://maps.google.com/?cid=0x0:0xbfcd644107869bd6,
hardware store,Toko Kaca,Pandawa Alumunium,"MJ2C+MC8, Jl. Plawa, Baler Bale Agung, Kec. Negara, Kabupaten Jembrana, Bali 82218","Jl. Plawa, Baler Bale Agung, Kec. Negara, Kabupaten Jembrana",BALI,82218.0,Indonesia,3654546201.0,,,-8.3483288,114.6210745,https://maps.google.com/?cid=0x0:0xb6b4e51d5c87301f,
hardware store,Toko Perlengkapan Rumah,MR.DIY,"Jl. Ngurah Rai, Pendem, Kec. Negara, Kabupaten Jembrana, Bali 82212","Pendem, Kec. Negara, Kabupaten Jembrana",BALI,82212.0,Indonesia,8133600569.0,,,-8.3605747,114.6303975,https://maps.google.com/?cid=0x0:0x90d4a9b84438418b,
hardware store,Toko Bahan Bangunan,Toko Sumber Untung,"JJQH+R64, Jl. Ngurah Rai, Pendem, Kec. Jembrana, Kabupaten Jembrana, Bali 82218","Jl. Ngurah Rai, Pendem, Kec. Jembrana, Kabupaten Jembrana",BALI,82218.0,Indonesia,81916371747.0,,,-8.3604966,114.6280772,https://maps.google.com/?cid=0x0:0x645d5fd6b8abbbb,
hardware store,Toko,Ud.Trisna Jaya,"Jl. Panji Sakti, Dauhwaru, Kec. Negara, Kabupaten Jembrana, Bali 82218","Dauhwaru, Kec. Negara, Kabupaten Jembrana",BALI,82218.0,Indonesia,87761171817.0,,,-8.3530689,114.6417737,https://maps.google.com/?cid=0x0:0x8ff8395c7a19ad0c,
hardware store,Toko Bahan Bangunan,Toko Tri Sakti Bahan Bangunan Desa Baluk,"Jl. Yudistira No.1, Baluk, Kec. Negara, Kabupaten Jembrana, Bali 82213","Baluk, Kec. Negara, Kabupaten Jembrana",BALI,82213.0,Indonesia,85931371499.0,,,-8.3593423,114.6012129,https://maps.google.com/?cid=0x0:0x81413743b340346f,
hardware store,Toko Bahan Bangunan,BAHAN BANGUNAN UD. SARI PUTRA BIRAWA,"Jl. Dahlia, Lingkungan Kebon, Baler Bale Agung, Kec. Negara, Kabupaten Jembrana, Bali 82212","Lingkungan Kebon, Baler Bale Agung, Kec. Negara, Kabupaten Jembrana",BALI,82212.0,Indonesia,87761510141.0,,,-8.3451664,114.6238024,https://maps.google.com/?cid=0x0:0x63f758d894d62ab1,
hardware store,Toko,Toko Bangunan Ayodya,"Jl. Nakula, Banjar Tengah, Kec. Negara, Kabupaten Jembrana, Bali 82218","Banjar Tengah, Kec. Negara, Kabupaten Jembrana",BALI,82218.0,Indonesia,87762950666.0,,,-8.3584539,114.6115027,https://maps.google.com/?cid=0x0:0x9495feffb3ee4f8e,
hardware store,Toko Elektronik,Toko Gunung Mas Electronics,"Jl. Gatot Subroto No.25, Banjar Tengah, Kec. Negara, Kabupaten Jembrana, Bali 82218","Banjar Tengah, Kec. Negara, Kabupaten Jembrana",BALI,82218.0,Indonesia,,,,-8.3604067,114.6240005,https://maps.google.com/?cid=0x0:0xe615b03116e1144d,
hardware store,Toko Bahan Bangunan,UD. Sari Agung ᬉᬤ᭄᭟ᬲᬭᬶᬅᬕᬸᬂ᭟,"JJW4+F52, Jl. Raya Denpasar - Gilimanuk, Kaliakah, Kec. Negara, Kabupaten Jembrana, Bali 82212","Jl. Raya Denpasar - Gilimanuk, Kaliakah, Kec. Negara, Kabupaten Jembrana",BALI,82212.0,Indonesia,87863166405.0,,,-8.3538586,114.6053852,https://maps.google.com/?cid=0x0:0x602a4991b974c916,
hardware store,Toko Bahan Bangunan,Artha Jaya,"Jl. Gajah Mada No.9x, Dangin Tukadaya, Kec. Jembrana, Kabupaten Jembrana, Bali 82218","Dangin Tukadaya, Kec. Jembrana, Kabupaten Jembrana",BALI,82218.0,Indonesia,,,,-8.3625612,114.6498947,https://maps.google.com/?cid=0x0:0x326debc7288c2d43,
hardware store,Toko Bahan Bangunan,Toko Megah Sari,"Jl. Jenderal Sudirman No.24, Pendem, Kec. Negara, Kabupaten Jembrana, Bali 82218","Pendem, Kec. Negara, Kabupaten Jembrana",BALI,82218.0,Indonesia,87852764455.0,,,-8.3578441,114.6307255,https://maps.google.com/?cid=0x0:0xdf8eea5ac5361e71,
hardware store,Toko Bahan Bangunan,Toko Bangunan Restu Ibu,"JJJ5+4HM, Jl. Danau Batur, Lelateng, Kec. Negara, Kabupaten Jembrana, Bali 82218","Jl. Danau Batur, Lelateng, Kec. Negara, Kabupaten Jembrana",BALI,82218.0,Indonesia,85338438739.0,,,-8.3696654,114.6089209,https://maps.google.com/?cid=0x0:0x7fc2029ef6259bd9,
hardware store,Toko Bahan Bangunan,Duta Niaga Bangunan,"Jl. Pulau Buton No.2A, Dauhwaru, Kec. Jembrana, Kabupaten Jembrana, Bali 82218","Dauhwaru, Kec. Jembrana, Kabupaten Jembrana",BALI,82218.0,Indonesia,361248698.0,,,-8.3636355,114.6333626,https://maps.google.com/?cid=0x0:0x3c03a704cf080b43,
hardware store,Toko Bahan Bangunan,Mitra Pandawa Bahan Bangunan,"MJ2C+M9H, Jl. Plawa GANG KASTURI III, Baler Bale Agung, Kec. Negara, Kabupaten Jembrana, Bali 82218","Jl. Plawa GANG KASTURI III, Baler Bale Agung, Kec. Negara, Kabupaten Jembrana",BALI,82218.0,Indonesia,82119975875.0,,,-8.3483171,114.62098,https://maps.google.com/?cid=0x0:0x6a8f15bd5628e7e6,
hardware store,Toko Bahan Bangunan,CV. MITRA INDOBAJA,"Jl. Udayana, Banyu Biru, Kec. Negara, Kabupaten Jembrana, Bali 82212","Banyu Biru, Kec. Negara, Kabupaten Jembrana",BALI,82212.0,Indonesia,82266604828.0,,,-8.3515665,114.6000365,https://maps.google.com/?cid=0x0:0x70ea7062b73e032c,
hardware store,Toko Kain Linen,Toko Gunung Subur ᬢᭀᬓᭀᬕᬸᬦᬸᬂᬲᬸᬩᬸᬃ᭟,"Jl. Gn. Agung No.15, Loloan Tim., Kec. Jembrana, Kabupaten Jembrana, Bali 82218","Loloan Tim., Kec. Jembrana, Kabupaten Jembrana",BALI,82218.0,Indonesia,36541402.0,,,-8.3618822,114.6259852,https://maps.google.com/?cid=0x0:0xc9a73d9c7b9d23d9,
hardware store,Toko,UD Bintang Terang,"PGV4+672, Melaya, Kec. Melaya, Kabupaten Jembrana, Bali 82252","Melaya, Kec. Melaya, Kabupaten Jembrana",BALI,82252.0,Indonesia,8161999912.0,,,-8.2569953,114.505635,https://maps.google.com/?cid=0x0:0x6c97c58b2b669231,
hardware store,Toko Bahan Bangunan,UD Mulya Sari,"Unnamed Road, Ekasari, Kec. Melaya, Kabupaten Jembrana, Bali 82252","Ekasari, Kec. Melaya, Kabupaten Jembrana",BALI,82252.0,Indonesia,85738237622.0,,,-8.2708014,114.5302889,https://maps.google.com/?cid=0x0:0x3cf40657b48a4b18,
hardware store,hardware store,Bali 82252,"Kec. Melaya, Kabupaten Jembrana, Bali","Kabupaten Jembrana, Bali",BALI,,Indonesia,,,,-8.2331562,114.5005038,https://maps.google.com/?cid=0x0:0x1c00c5eb6016c2f0,
hardware store,Toko Bahan Bangunan,UD pasir abadi II,"Jl. Raya Denpasar - Gilimanuk, sumbersari, Kec. Melaya, Kabupaten Jembrana, Bali 82252","sumbersari, Kec. Melaya, Kabupaten Jembrana",BALI,82252.0,Indonesia,85930963965.0,,,-8.2501778,114.4773922,https://maps.google.com/?cid=0x0:0xc97c6c95379fe323,
hardware store,Toko Bahan Bangunan,UD. Sari Sedana,"PGF2+436, Jl. Raya Denpasar - Gilimanuk, Gilimanuk, Kec. Melaya, Kabupaten Jembrana, Bali 82252","Jl. Raya Denpasar - Gilimanuk, Gilimanuk, Kec. Melaya, Kabupaten Jembrana",BALI,82252.0,Indonesia,81337468814.0,,,-8.277204,114.5001328,https://maps.google.com/?cid=0x0:0x1311b004d52748e4,
hardware store,Toko Bahan Bangunan,UD Kria Bhakti,"PGHJ+M52, Ekasari, Kec. Melaya, Kabupaten Jembrana, Bali 82252","Ekasari, Kec. Melaya, Kabupaten Jembrana",BALI,82252.0,Indonesia,87863040504.0,,,-8.2708625,114.5303818,https://maps.google.com/?cid=0x0:0x1913eb98fae667b8,
hardware store,Toko Bahan Bangunan,TB. Budi Muliya,"RCGM+4VQ, Gg. 4, Gilimanuk, Kec. Melaya, Kabupaten Jembrana, Bali 82252","Gg. 4, Gilimanuk, Kec. Melaya, Kabupaten Jembrana",BALI,82252.0,Indonesia,81339624107.0,,,-8.1746506,114.4347322,https://maps.google.com/?cid=0x0:0xccaaf8e781f4baa5,
hardware store,Toko Bahan Bangunan,TB. NARA JAYA,"PGM4+CXP, Jl. Nusasari, Melaya, Kec. Melaya, Kabupaten Jembrana, Bali 82252","Jl. Nusasari, Melaya, Kec. Melaya, Kabupaten Jembrana",BALI,82252.0,Indonesia,,,,-8.2664108,114.5074666,https://maps.google.com/?cid=0x0:0x5066d40a7575982e,
hardware store,Toko Bahan Bangunan,TB. Barat Jaya,"RCGP+625, Jl. Sadar, Gilimanuk, Kec. Melaya, Kabupaten Jembrana, Bali 82252","Jl. Sadar, Gilimanuk, Kec. Melaya, Kabupaten Jembrana",BALI,82252.0,Indonesia,82141501750.0,,,-8.1744923,114.4350987,https://maps.google.com/?cid=0x0:0xba4fb98897b22bb3,
hardware store,Toko Bahan Bangunan,UD Karya Mandiri,"MGXJ+6PV, Candikusuma, Kec. Melaya, Kabupaten Jembrana, Bali 82252","Candikusuma, Kec. Melaya, Kabupaten Jembrana",BALI,82252.0,Indonesia,87734953731.0,,,-8.3018938,114.5318038,https://maps.google.com/?cid=0x0:0x64db860931c64201,
hardware store,Toko Bahan Bangunan,Kawi Graha Bangunan,"Jl. Sudirman No.18, Pendem, Kec. Jembrana, Kabupaten Jembrana, Bali 82211","Pendem, Kec. Jembrana, Kabupaten Jembrana",BALI,82211.0,Indonesia,81802072099.0,,,-8.3577299,114.6285171,https://maps.google.com/?cid=0x0:0x2fd68f13e2d4321b,
hardware store,Minimarket,Seni ukir wira guna,"Banjar pendem, Manistutu, Kec. Melaya, Kabupaten Jembrana, Bali 82253","Manistutu, Kec. Melaya, Kabupaten Jembrana",BALI,82253.0,Indonesia,82341967471.0,,,-8.3034139,114.5783083,https://maps.google.com/?cid=0x0:0xbd1b3efd1ed0f194,
hardware store,Toko Bahan Bangunan,TB. ARTA JAYA,"MHJF+F7R, Katulampa, Manistutu, Kec. Melaya, Kabupaten Jembrana, Bali 82218","Katulampa, Manistutu, Kec. Melaya, Kabupaten Jembrana",BALI,82218.0,Indonesia,,,,-8.3187712,114.5731544,https://maps.google.com/?cid=0x0:0x79e15fbd88c52f25,
hardware store,Toko Perlengkapan Rumah,Toko Bangunan Kawi Jaya,"Jl. Pahlawan, Pendem, Kec. Negara, Kabupaten Jembrana, Bali 82218","Pendem, Kec. Negara, Kabupaten Jembrana",BALI,82218.0,Indonesia,36541288.0,,,-8.3580215,114.6256185,https://maps.google.com/?cid=0x0:0x9bbe88362e356a5e,
hardware store,Toko Peralatan Tukang Kayu,Sanggar Ukir Sari Yadnya,"MJQJ+2PX Lingkungan Dewasana, Tempek II, Pendem, Kec. Jembrana, Kabupaten Jembrana, Bali 82218","Tempek II, Pendem, Kec. Jembrana, Kabupaten Jembrana",BALI,82218.0,Indonesia,85954079220.0,,,-8.3123911,114.6318456,https://maps.google.com/?cid=0x0:0x529f0dfdf141f277,
hardware store,Toko Bahan Bangunan,Yuri Bangunan,"Jl. Desa Kaliakah Kauh, Kaliakah, Kec. Negara, Kabupaten Jembrana, Bali 82218","Kaliakah, Kec. Negara, Kabupaten Jembrana",BALI,82218.0,Indonesia,,,,-8.3292516,114.5574102,https://maps.google.com/?cid=0x0:0x58f157f4cc38e079,
hardware store,Toko bahan makanan,Toko bangunan bahagia,"PFVP+R6G, Jl. Raya Denpasar - Gilimanuk, Melaya, Kec. Melaya, Kabupaten Jembrana, Bali","Kabupaten Jembrana, Bali",BALI,,Indonesia,,,,-8.2554393,114.4855823,https://maps.google.com/?cid=0x0:0xf7e93d471c40d827,
hardware store,Toko,Toko Gunung Sari,"MJ87+WCX, Jalan, Berambang, Negara, Jembrana Regency, Bali 82218","Jalan, Berambang, Negara, Jembrana Regency",BALI,82218.0,Indonesia,87824250997.0,,,-8.3326255,114.6136069,https://maps.google.com/?cid=0x0:0x3d14bb67a3738ece,
hardware store,Toko Bahan Bangunan,Toko Tri Sakti Bahan Bangunan Desa Baluk,"Jl. Yudistira No.1, Baluk, Kec. Negara, Kabupaten Jembrana, Bali 82213","Baluk, Kec. Negara, Kabupaten Jembrana",BALI,82213.0,Indonesia,85931371499.0,,,-8.3593423,114.6012129,https://maps.google.com/?cid=0x0:0x81413743b340346f,
hardware store,Toko Bahan Bangunan,Toko Bangunan UD. Ayodya 3,"Jl. Arjuna, Baluk, Kec. Negara, Kabupaten Jembrana, Bali 82218","Baluk, Kec. Negara, Kabupaten Jembrana",BALI,82218.0,Indonesia,82342445312.0,,,-8.359331,114.5819062,https://maps.google.com/?cid=0x0:0xcd7fc34dc66b3c9c,
hardware store,Toko Bahan Bangunan,"Toko Gunung Mas Bangunan Jembrana, Negara","Jl. Pahlawan No.32, Pendem, Kec. Negara, Kabupaten Jembrana, Bali 82211","Pendem, Kec. Negara, Kabupaten Jembrana",BALI,82211.0,Indonesia,81246101924.0,,,-8.3584976,114.6255645,https://maps.google.com/?cid=0x0:0x136df2e41fbe9aba,
hardware store,Toko Bahan Bangunan,UD. Sari Agung ᬉᬤ᭄᭟ᬲᬭᬶᬅᬕᬸᬂ᭟,"JJW4+F52, Jl. Raya Denpasar - Gilimanuk, Kaliakah, Kec. Negara, Kabupaten Jembrana, Bali 82212","Jl. Raya Denpasar - Gilimanuk, Kaliakah, Kec. Negara, Kabupaten Jembrana",BALI,82212.0,Indonesia,87863166405.0,,,-8.3538586,114.6053852,https://maps.google.com/?cid=0x0:0x602a4991b974c916,
hardware store,Toko Bahan Bangunan,Ud. Artha Madju,"PG59+HJJ, Candikusuma, Kec. Melaya, Kabupaten Jembrana, Bali 82252","Candikusuma, Kec. Melaya, Kabupaten Jembrana",BALI,82252.0,Indonesia,83117551792.0,,,-8.29103,114.5190248,https://maps.google.com/?cid=0x0:0x86bbeb9f0d6237ab,
hardware store,hardware store,Kec. Melaya,"Kabupaten Jembrana, Bali","Kabupaten Jembrana, Bali",BALI,,Indonesia,,,,-8.1715712,114.4360083,https://maps.google.com/?cid=0x0:0x4030bfbca7d2d80,
hardware store,Toko Perlengkapan Rumah,MR.DIY,"Jl. Raya Denpasar - Gilimanuk, Banyu Biru, Kec. Negara, Kabupaten Jembrana, Bali 82218","Banyu Biru, Kec. Negara, Kabupaten Jembrana",BALI,82218.0,Indonesia,,,,-8.348434,114.578515,https://maps.google.com/?cid=0x0:0xc9ffdeb2ee8af5dd,
hardware store,hardware store,Bali 82261,"Kec. Mendoyo, Kabupaten Jembrana, Bali","Kabupaten Jembrana, Bali",BALI,,Indonesia,,,,-8.2984574,114.7380385,https://maps.google.com/?cid=0x0:0x1c00c5eb6016c300,
hardware store,Toko Bahan Bangunan,Ud. Jagra,"Jl. Raya Denpasar - Gilimanuk, Yeh Embang, Kec. Mendoyo, Kabupaten Jembrana, Bali 82261","Yeh Embang, Kec. Mendoyo, Kabupaten Jembrana",BALI,82261.0,Indonesia,81999095955.0,,,-8.3939808,114.7587336,https://maps.google.com/?cid=0x0:0xed9e82eb83a0e36a,
hardware store,Toko Bahan Bangunan,Kawi Graha Bangunan,"Jl. Sudirman No.18, Pendem, Kec. Jembrana, Kabupaten Jembrana, Bali 82211","Pendem, Kec. Jembrana, Kabupaten Jembrana",BALI,82211.0,Indonesia,81802072099.0,,,-8.3577299,114.6285171,https://maps.google.com/?cid=0x0:0x2fd68f13e2d4321b,
hardware store,Toko Bahan Bangunan,Sumber Indah,"Jl. Raya Denpasar - Gilimanuk, Yeh Embang Kauh, Kec. Mendoyo, Kabupaten Jembrana, Bali 82261","Yeh Embang Kauh, Kec. Mendoyo, Kabupaten Jembrana",BALI,82261.0,Indonesia,,,,-8.3911244,114.7519947,https://maps.google.com/?cid=0x0:0x93890fb0d74c2f30,
hardware store,Toko Bahan Bangunan,UTAMA KARYA,"JQ65+5VJ Br. Wali, Desa, Yeh Embang, Mendoyo, Jembrana Regency, Bali 82261","Desa, Yeh Embang, Mendoyo, Jembrana Regency",BALI,82261.0,Indonesia,81805575428.0,,,-8.3895445,114.7596528,https://maps.google.com/?cid=0x0:0x6769be6e9cf85910,
hardware store,Toko Bahan Bangunan,TB. Tunas Putra,"JP76+355, Penyaringan, Kec. Mendoyo, Kabupaten Jembrana, Bali 82261","Penyaringan, Kec. Mendoyo, Kabupaten Jembrana",BALI,82261.0,Indonesia,81338553310.0,,,-8.3873641,114.71047,https://maps.google.com/?cid=0x0:0x41ea6d029ad2d444,
hardware store,Toko Perlengkapan Rumah,Toko Bangunan Kawi Jaya,"Jl. Pahlawan, Pendem, Kec. Negara, Kabupaten Jembrana, Bali 82218","Pendem, Kec. Negara, Kabupaten Jembrana",BALI,82218.0,Indonesia,36541288.0,,,-8.3580215,114.6256185,https://maps.google.com/?cid=0x0:0x9bbe88362e356a5e,
hardware store,Toko Kayu,UD AZ ZAHRA,"Jl. Gn. Merapi, Loloan Tim., Kec. Negara, Kabupaten Jembrana, Bali 82216","Loloan Tim., Kec. Negara, Kabupaten Jembrana",BALI,82216.0,Indonesia,82375555569.0,,,-8.3684065,114.6299146,https://maps.google.com/?cid=0x0:0xbfcd644107869bd6,
hardware store,Toko Perlengkapan Rumah,MR.DIY,"Jl. Ngurah Rai, Pendem, Kec. Negara, Kabupaten Jembrana, Bali 82212","Pendem, Kec. Negara, Kabupaten Jembrana",BALI,82212.0,Indonesia,8133600569.0,,,-8.3605747,114.6303975,https://maps.google.com/?cid=0x0:0x90d4a9b84438418b,
hardware store,Toko Kaca,Pandawa Alumunium,"MJ2C+MC8, Jl. Plawa, Baler Bale Agung, Kec. Negara, Kabupaten Jembrana, Bali 82218","Jl. Plawa, Baler Bale Agung, Kec. Negara, Kabupaten Jembrana",BALI,82218.0,Indonesia,3654546201.0,,,-8.3483288,114.6210745,https://maps.google.com/?cid=0x0:0xb6b4e51d5c87301f,
hardware store,Toko,UD. Harapan Jaya,"HQXQ+FPP, Jl. Raya Denpasar - Gilimanuk, Yeh Sumbul, Negara, Kabupaten Jembrana, Bali 82261","Jl. Raya Denpasar - Gilimanuk, Yeh Sumbul, Negara, Kabupaten Jembrana",BALI,82261.0,Indonesia,81936506767.0,,,-8.4012766,114.7893172,https://maps.google.com/?cid=0x0:0xca824dd339cb24dd,
hardware store,Toko Bahan Bangunan,Sinar Bangunan,"Jl. Hayam Wuruk No.47, Dangin Tukadaya, Kec. Negara, Kabupaten Jembrana, Bali 82218","Dangin Tukadaya, Kec. Negara, Kabupaten Jembrana",BALI,82218.0,Indonesia,3654545914.0,,,-8.3620314,114.648035,https://maps.google.com/?cid=0x0:0xdf3ea386ff30329e,
hardware store,Toko Bahan Bangunan,CV. DOA IBU,"Jl. Teratai, Cupel, Kec. Negara, Kabupaten Jembrana, Bali 82218","Cupel, Kec. Negara, Kabupaten Jembrana",BALI,82218.0,Indonesia,81338799994.0,,,-8.3705924,114.5686325,https://maps.google.com/?cid=0x0:0xf56267072b1ef4c2,
hardware store,Toko Bahan Bangunan,UD. Sari Agung ᬉᬤ᭄᭟ᬲᬭᬶᬅᬕᬸᬂ᭟,"JJW4+F52, Jl. Raya Denpasar - Gilimanuk, Kaliakah, Kec. Negara, Kabupaten Jembrana, Bali 82212","Jl. Raya Denpasar - Gilimanuk, Kaliakah, Kec. Negara, Kabupaten Jembrana",BALI,82212.0,Indonesia,87863166405.0,,,-8.3538586,114.6053852,https://maps.google.com/?cid=0x0:0x602a4991b974c916,
hardware store,Toko Bahan Bangunan,TB. MUJUR,"JPG6+657, Jl. Yudistira, Banjar Anyar Tengah, Penyaringan, Kec. Mendoyo, Kabupaten Jembrana, Bali 82261","Jl. Yudistira, Banjar Anyar Tengah, Penyaringan, Kec. Mendoyo, Kabupaten Jembrana",BALI,82261.0,Indonesia,87865899721.0,,,-8.3744518,114.7104371,https://maps.google.com/?cid=0x0:0x56731fa300a6e44c,
hardware store,Toko Bahan Bangunan,TB. Putra Arta,"HRR2+3CM, Jl. Raya Denpasar - Gilimanuk, Yeh Sumbul, Kec. Mendoyo, Kabupaten Jembrana, Bali 82262","Jl. Raya Denpasar - Gilimanuk, Yeh Sumbul, Kec. Mendoyo, Kabupaten Jembrana",BALI,82262.0,Indonesia,87762146686.0,,,-8.4097917,114.8010331,https://maps.google.com/?cid=0x0:0x16e013d5d3ba9dd2,
hardware store,Produsen Rangka Baja Atap,Baja Ringan dan Plafon Jembrana Berjaya Truss,"kantor camat, Jl Denpasar Gilimanuk Desa Pergung Kecamatan (depan, Pergung, Kec. Mendoyo, Kabupaten Jembrana, Bali 82261","Jl Denpasar Gilimanuk Desa Pergung Kecamatan (depan, Pergung, Kec. Mendoyo, Kabupaten Jembrana",BALI,82261.0,Indonesia,81999050418.0,,,-8.3735806,114.682931,https://maps.google.com/?cid=0x0:0x969e3b474648f85d,
hardware store,Toko Bahan Bangunan,BAHAN BANGUNAN UD. SARI PUTRA BIRAWA,"Jl. Dahlia, Lingkungan Kebon, Baler Bale Agung, Kec. Negara, Kabupaten Jembrana, Bali 82212","Lingkungan Kebon, Baler Bale Agung, Kec. Negara, Kabupaten Jembrana",BALI,82212.0,Indonesia,87761510141.0,,,-8.3451664,114.6238024,https://maps.google.com/?cid=0x0:0x63f758d894d62ab1,
hardware store,Toko Bahan Bangunan,Toko Bangunan UD. Ayodya 3,"Jl. Arjuna, Baluk, Kec. Negara, Kabupaten Jembrana, Bali 82218","Baluk, Kec. Negara, Kabupaten Jembrana",BALI,82218.0,Indonesia,82342445312.0,,,-8.359331,114.5819062,https://maps.google.com/?cid=0x0:0xcd7fc34dc66b3c9c,
hardware store,Toko Bahan Bangunan,Toko Mega,"JJQG+M8X, Jl. Ngurah Rai, Loloan Tim., Kec. Negara, Kabupaten Jembrana, Bali 82218","Jl. Ngurah Rai, Loloan Tim., Kec. Negara, Kabupaten Jembrana",BALI,82218.0,Indonesia,36541181.0,,,-8.3607674,114.6258583,https://maps.google.com/?cid=0x0:0x5e71775d5ff9b401,
hardware store,Toko,Toko Bangunan Ayodya,"Jl. Nakula, Banjar Tengah, Kec. Negara, Kabupaten Jembrana, Bali 82218","Banjar Tengah, Kec. Negara, Kabupaten Jembrana",BALI,82218.0,Indonesia,87762950666.0,,,-8.3584539,114.6115027,https://maps.google.com/?cid=0x0:0x9495feffb3ee4f8e,
hardware store,Toko Bahan Bangunan,Toko Sumber Untung,"JJQH+R64, Jl. Ngurah Rai, Pendem, Kec. Jembrana, Kabupaten Jembrana, Bali 82218","Jl. Ngurah Rai, Pendem, Kec. Jembrana, Kabupaten Jembrana",BALI,82218.0,Indonesia,81916371747.0,,,-8.3604966,114.6280772,https://maps.google.com/?cid=0x0:0x645d5fd6b8abbbb,
hardware store,hardware store,Kec. Mendoyo,"Kabupaten Jembrana, Bali","Kabupaten Jembrana, Bali",BALI,,Indonesia,,,,-8.3775083,114.6851088,https://maps.google.com/?cid=0x0:0x4030bfbca7d2d90,
hardware store,Toko Bahan Bangunan,TOKO MUTIARA LAUT 1,"HJWR+PQ5, jalan perancak banjar munduk, Air Kuning, Kec. Jembrana, Kabupaten Jembrana, Bali","Kabupaten Jembrana, Bali",BALI,,Indonesia,85246254541.0,,,-8.4032388,114.6419972,https://maps.google.com/?cid=0x0:0x951ad772e98bbe58,
hardware store,Toko Bahan Bangunan,Toko Tri Sakti Bahan Bangunan Desa Baluk,"Jl. Yudistira No.1, Baluk, Kec. Negara, Kabupaten Jembrana, Bali 82213","Baluk, Kec. Negara, Kabupaten Jembrana",BALI,82213.0,Indonesia,85931371499.0,,,-8.3593423,114.6012129,https://maps.google.com/?cid=0x0:0x81413743b340346f,
hardware store,Toko Peralatan Tukang Kayu,Sanggar Ukir Sari Yadnya,"MJQJ+2PX Lingkungan Dewasana, Tempek II, Pendem, Kec. Jembrana, Kabupaten Jembrana, Bali 82218","Tempek II, Pendem, Kec. Jembrana, Kabupaten Jembrana",BALI,82218.0,Indonesia,85954079220.0,,,-8.3123911,114.6318456,https://maps.google.com/?cid=0x0:0x529f0dfdf141f277,
hardware store,Toko Bahan Bangunan,"Toko Gunung Mas Bangunan Jembrana, Negara","Jl. Pahlawan No.32, Pendem, Kec. Negara, Kabupaten Jembrana, Bali 82211","Pendem, Kec. Negara, Kabupaten Jembrana",BALI,82211.0,Indonesia,81246101924.0,,,-8.3584976,114.6255645,https://maps.google.com/?cid=0x0:0x136df2e41fbe9aba,
hardware store,Toko Bahan Bangunan,UD. Sari Agung ᬉᬤ᭄᭟ᬲᬭᬶᬅᬕᬸᬂ᭟,"JJW4+F52, Jl. Raya Denpasar - Gilimanuk, Kaliakah, Kec. Negara, Kabupaten Jembrana, Bali 82212","Jl. Raya Denpasar - Gilimanuk, Kaliakah, Kec. Negara, Kabupaten Jembrana",BALI,82212.0,Indonesia,87863166405.0,,,-8.3538586,114.6053852,https://maps.google.com/?cid=0x0:0x602a4991b974c916,
hardware store,hardware store,Bali 82212,"Kec. Negara, Kabupaten Jembrana, Bali","Kabupaten Jembrana, Bali",BALI,,Indonesia,,,,-8.2907104,114.6252282,https://maps.google.com/?cid=0x0:0x1c00c5eb6016c270,
hardware store,Toko Perlengkapan Rumah,Toko Bangunan Kawi Jaya,"Jl. Pahlawan, Pendem, Kec. Negara, Kabupaten Jembrana, Bali 82218","Pendem, Kec. Negara, Kabupaten Jembrana",BALI,82218.0,Indonesia,36541288.0,,,-8.3580215,114.6256185,https://maps.google.com/?cid=0x0:0x9bbe88362e356a5e,
hardware store,Toko Bahan Bangunan,Toko Tri Sakti Bahan Bangunan Desa Baluk,"Jl. Yudistira No.1, Baluk, Kec. Negara, Kabupaten Jembrana, Bali 82213","Baluk, Kec. Negara, Kabupaten Jembrana",BALI,82213.0,Indonesia,85931371499.0,,,-8.3593423,114.6012129,https://maps.google.com/?cid=0x0:0x81413743b340346f,
hardware store,Toko Bahan Bangunan,CV. MITRA INDOBAJA,"Jl. Udayana, Banyu Biru, Kec. Negara, Kabupaten Jembrana, Bali 82212","Banyu Biru, Kec. Negara, Kabupaten Jembrana",BALI,82212.0,Indonesia,82266604828.0,,,-8.3515665,114.6000365,https://maps.google.com/?cid=0x0:0x70ea7062b73e032c,
hardware store,Toko Kaca,Pandawa Alumunium,"MJ2C+MC8, Jl. Plawa, Baler Bale Agung, Kec. Negara, Kabupaten Jembrana, Bali 82218","Jl. Plawa, Baler Bale Agung, Kec. Negara, Kabupaten Jembrana",BALI,82218.0,Indonesia,3654546201.0,,,-8.3483288,114.6210745,https://maps.google.com/?cid=0x0:0xb6b4e51d5c87301f,
hardware store,Toko Bahan Bangunan,BAHAN BANGUNAN UD. SARI PUTRA BIRAWA,"Jl. Dahlia, Lingkungan Kebon, Baler Bale Agung, Kec. Negara, Kabupaten Jembrana, Bali 82212","Lingkungan Kebon, Baler Bale Agung, Kec. Negara, Kabupaten Jembrana",BALI,82212.0,Indonesia,87761510141.0,,,-8.3451664,114.6238024,https://maps.google.com/?cid=0x0:0x63f758d894d62ab1,
hardware store,Toko Bahan Bangunan,Toko Bangunan UD. Ayodya 3,"Jl. Arjuna, Baluk, Kec. Negara, Kabupaten Jembrana, Bali 82218","Baluk, Kec. Negara, Kabupaten Jembrana",BALI,82218.0,Indonesia,82342445312.0,,,-8.359331,114.5819062,https://maps.google.com/?cid=0x0:0xcd7fc34dc66b3c9c,
hardware store,Toko Perlengkapan Rumah,MR.DIY,"Jl. Ngurah Rai, Pendem, Kec. Negara, Kabupaten Jembrana, Bali 82212","Pendem, Kec. Negara, Kabupaten Jembrana",BALI,82212.0,Indonesia,8133600569.0,,,-8.3605747,114.6303975,https://maps.google.com/?cid=0x0:0x90d4a9b84438418b,
hardware store,Toko,Toko Gunung Sari,"MJ87+WCX, Jalan, Berambang, Negara, Jembrana Regency, Bali 82218","Jalan, Berambang, Negara, Jembrana Regency",BALI,82218.0,Indonesia,87824250997.0,,,-8.3326255,114.6136069,https://maps.google.com/?cid=0x0:0x3d14bb67a3738ece,
hardware store,Toko Bahan Bangunan,Sinar Bangunan,"Jl. Hayam Wuruk No.47, Dangin Tukadaya, Kec. Negara, Kabupaten Jembrana, Bali 82218","Dangin Tukadaya, Kec. Negara, Kabupaten Jembrana",BALI,82218.0,Indonesia,3654545914.0,,,-8.3620314,114.648035,https://maps.google.com/?cid=0x0:0xdf3ea386ff30329e,
hardware store,Toko Peralatan Tukang Kayu,Sanggar Ukir Sari Yadnya,"MJQJ+2PX Lingkungan Dewasana, Tempek II, Pendem, Kec. Jembrana, Kabupaten Jembrana, Bali 82218","Tempek II, Pendem, Kec. Jembrana, Kabupaten Jembrana",BALI,82218.0,Indonesia,85954079220.0,,,-8.3123911,114.6318456,https://maps.google.com/?cid=0x0:0x529f0dfdf141f277,
hardware store,Toko Bahan Bangunan,Toko Mega,"JJQG+M8X, Jl. Ngurah Rai, Loloan Tim., Kec. Negara, Kabupaten Jembrana, Bali 82218","Jl. Ngurah Rai, Loloan Tim., Kec. Negara, Kabupaten Jembrana",BALI,82218.0,Indonesia,36541181.0,,,-8.3607674,114.6258583,https://maps.google.com/?cid=0x0:0x5e71775d5ff9b401,
hardware store,Toko,Toko Bangunan Ayodya,"Jl. Nakula, Banjar Tengah, Kec. Negara, Kabupaten Jembrana, Bali 82218","Banjar Tengah, Kec. Negara, Kabupaten Jembrana",BALI,82218.0,Indonesia,87762950666.0,,,-8.3584539,114.6115027,https://maps.google.com/?cid=0x0:0x9495feffb3ee4f8e,
hardware store,Toko Elektronik,Toko Gunung Mas Electronics,"Jl. Gatot Subroto No.25, Banjar Tengah, Kec. Negara, Kabupaten Jembrana, Bali 82218","Banjar Tengah, Kec. Negara, Kabupaten Jembrana",BALI,82218.0,Indonesia,,,,-8.3604067,114.6240005,https://maps.google.com/?cid=0x0:0xe615b03116e1144d,
hardware store,Toko Bahan Bangunan,Tb. Cah Bagus,"MJM4+8JC, Jalan, Berangbang, Negara, Jembrana Regency, Bali 82218","Jalan, Berangbang, Negara, Jembrana Regency",BALI,82218.0,Indonesia,87861960675.0,,,-8.3166939,114.6065064,https://maps.google.com/?cid=0x0:0x4c952307582a68f3,
hardware store,Toko Perlengkapan Rumah,MR.DIY,"Jl. Raya Denpasar - Gilimanuk, Banyu Biru, Kec. Negara, Kabupaten Jembrana, Bali 82218","Banyu Biru, Kec. Negara, Kabupaten Jembrana",BALI,82218.0,Indonesia,,,,-8.348434,114.578515,https://maps.google.com/?cid=0x0:0xc9ffdeb2ee8af5dd,
hardware store,Toko Bahan Bangunan,Toko Bangunan Arta Wiguna,"MHGW+PC8, Unnamed Road, Kaliakah, Kec. Negara, Kabupaten Jembrana, Bali 82218","Unnamed Road, Kaliakah, Kec. Negara, Kabupaten Jembrana",BALI,82218.0,Indonesia,87861432008.0,,,-8.3232202,114.5960883,https://maps.google.com/?cid=0x0:0xe67b3b3048e1c3fb,
hardware store,hardware store,Hardware store,"Jl Kecubung 3 24 RT 002/09, Dki Jakarta, Dki Jakarta, Jawa Barat 10110","Dki Jakarta, Dki Jakarta",BALI,10110.0,Indonesia,,,,-6.2243727,106.905985,https://maps.google.com/?cid=0x0:0x94de5d8c41b1ebea,
hardware store,Toko Bahan Bangunan,Hardware Clothing,"Rukan Gading Indah, Blok V9-12, RT.18/RW.8, Klp. Gading Bar., Kec. Klp. Gading, Jkt Utara, Daerah Khusus Ibukota Jakarta 12930","Blok V9-12, RT.18/RW.8, Klp. Gading Bar., Kec. Klp. Gading, Jkt Utara",BALI,12930.0,Indonesia,2125539858.0,,,-6.149231,106.896942,https://maps.google.com/?cid=0x0:0x488fdb7f986cd389,
hardware store,hardware store,Bali 82213,"Kabupaten Jembrana, Bali","Kabupaten Jembrana, Bali",BALI,,Indonesia,,,,-8.2534286,114.6549185,https://maps.google.com/?cid=0x0:0x1c00c5eb6016c280,
hardware store,Toko Bahan Bangunan,"Toko Gunung Mas Bangunan Jembrana, Negara","Jl. Pahlawan No.32, Pendem, Kec. Negara, Kabupaten Jembrana, Bali 82211","Pendem, Kec. Negara, Kabupaten Jembrana",BALI,82211.0,Indonesia,81246101924.0,,,-8.3584976,114.6255645,https://maps.google.com/?cid=0x0:0x136df2e41fbe9aba,
hardware store,Toko Bahan Bangunan,Toko Tri Sakti Bahan Bangunan Desa Baluk,"Jl. Yudistira No.1, Baluk, Kec. Negara, Kabupaten Jembrana, Bali 82213","Baluk, Kec. Negara, Kabupaten Jembrana",BALI,82213.0,Indonesia,85931371499.0,,,-8.3593423,114.6012129,https://maps.google.com/?cid=0x0:0x81413743b340346f,
hardware store,Toko Perlengkapan Rumah,Toko Bangunan Kawi Jaya,"Jl. Pahlawan, Pendem, Kec. Negara, Kabupaten Jembrana, Bali 82218","Pendem, Kec. Negara, Kabupaten Jembrana",BALI,82218.0,Indonesia,36541288.0,,,-8.3580215,114.6256185,https://maps.google.com/?cid=0x0:0x9bbe88362e356a5e,
hardware store,Toko Bahan Bangunan,Sinar Bangunan,"Jl. Hayam Wuruk No.47, Dangin Tukadaya, Kec. Negara, Kabupaten Jembrana, Bali 82218","Dangin Tukadaya, Kec. Negara, Kabupaten Jembrana",BALI,82218.0,Indonesia,3654545914.0,,,-8.3620314,114.648035,https://maps.google.com/?cid=0x0:0xdf3ea386ff30329e,
hardware store,Toko,Toko Bangunan Ayodya,"Jl. Nakula, Banjar Tengah, Kec. Negara, Kabupaten Jembrana, Bali 82218","Banjar Tengah, Kec. Negara, Kabupaten Jembrana",BALI,82218.0,Indonesia,87762950666.0,,,-8.3584539,114.6115027,https://maps.google.com/?cid=0x0:0x9495feffb3ee4f8e,
hardware store,Toko Bahan Bangunan,UD. Sari Agung ᬉᬤ᭄᭟ᬲᬭᬶᬅᬕᬸᬂ᭟,"JJW4+F52, Jl. Raya Denpasar - Gilimanuk, Kaliakah, Kec. Negara, Kabupaten Jembrana, Bali 82212","Jl. Raya Denpasar - Gilimanuk, Kaliakah, Kec. Negara, Kabupaten Jembrana",BALI,82212.0,Indonesia,87863166405.0,,,-8.3538586,114.6053852,https://maps.google.com/?cid=0x0:0x602a4991b974c916,
hardware store,Toko Bahan Bangunan,Kawi Graha Bangunan,"Jl. Sudirman No.18, Pendem, Kec. Jembrana, Kabupaten Jembrana, Bali 82211","Pendem, Kec. Jembrana, Kabupaten Jembrana",BALI,82211.0,Indonesia,81802072099.0,,,-8.3577299,114.6285171,https://maps.google.com/?cid=0x0:0x2fd68f13e2d4321b,
hardware store,Toko Kaca,Pandawa Alumunium,"MJ2C+MC8, Jl. Plawa, Baler Bale Agung, Kec. Negara, Kabupaten Jembrana, Bali 82218","Jl. Plawa, Baler Bale Agung, Kec. Negara, Kabupaten Jembrana",BALI,82218.0,Indonesia,3654546201.0,,,-8.3483288,114.6210745,https://maps.google.com/?cid=0x0:0xb6b4e51d5c87301f,
hardware store,Toko Perlengkapan Rumah,MR.DIY,"Jl. Raya Denpasar - Gilimanuk, Banyu Biru, Kec. Negara, Kabupaten Jembrana, Bali 82218","Banyu Biru, Kec. Negara, Kabupaten Jembrana",BALI,82218.0,Indonesia,,,,-8.348434,114.578515,https://maps.google.com/?cid=0x0:0xc9ffdeb2ee8af5dd,
hardware store,Toko Bahan Bangunan,Tb. Putra Arya,"JHJM+52M, Jl. Nakula, Tegal Badeng Bar., Kec. Negara, Kabupaten Jembrana, Bali 82218","Jl. Nakula, Tegal Badeng Bar., Kec. Negara, Kabupaten Jembrana",BALI,82218.0,Indonesia,87863266558.0,,,-8.3695408,114.582553,https://maps.google.com/?cid=0x0:0x565911879502fdc0,
hardware store,Toko Bahan Bangunan,BAHAN BANGUNAN UD. SARI PUTRA BIRAWA,"Jl. Dahlia, Lingkungan Kebon, Baler Bale Agung, Kec. Negara, Kabupaten Jembrana, Bali 82212","Lingkungan Kebon, Baler Bale Agung, Kec. Negara, Kabupaten Jembrana",BALI,82212.0,Indonesia,87761510141.0,,,-8.3451664,114.6238024,https://maps.google.com/?cid=0x0:0x63f758d894d62ab1,
hardware store,Toko Bahan Bangunan,CV. MITRA INDOBAJA,"Jl. Udayana, Banyu Biru, Kec. Negara, Kabupaten Jembrana, Bali 82212","Banyu Biru, Kec. Negara, Kabupaten Jembrana",BALI,82212.0,Indonesia,82266604828.0,,,-8.3515665,114.6000365,https://maps.google.com/?cid=0x0:0x70ea7062b73e032c,
hardware store,Toko Kayu,UD AZ ZAHRA,"Jl. Gn. Merapi, Loloan Tim., Kec. Negara, Kabupaten Jembrana, Bali 82216","Loloan Tim., Kec. Negara, Kabupaten Jembrana",BALI,82216.0,Indonesia,82375555569.0,,,-8.3684065,114.6299146,https://maps.google.com/?cid=0x0:0xbfcd644107869bd6,
hardware store,Toko Bahan Bangunan,Toko Mega,"JJQG+M8X, Jl. Ngurah Rai, Loloan Tim., Kec. Negara, Kabupaten Jembrana, Bali 82218","Jl. Ngurah Rai, Loloan Tim., Kec. Negara, Kabupaten Jembrana",BALI,82218.0,Indonesia,36541181.0,,,-8.3607674,114.6258583,https://maps.google.com/?cid=0x0:0x5e71775d5ff9b401,
hardware store,Toko,Toko Gunung Sari,"MJ87+WCX, Jalan, Berambang, Negara, Jembrana Regency, Bali 82218","Jalan, Berambang, Negara, Jembrana Regency",BALI,82218.0,Indonesia,87824250997.0,,,-8.3326255,114.6136069,https://maps.google.com/?cid=0x0:0x3d14bb67a3738ece,
hardware store,Tukang Bangunan,IB HOME JEMBRANA,"MH2M+CGC, Banyu Biru, Kec. Negara, Kabupaten Jembrana, Bali","Kabupaten Jembrana, Bali",BALI,,Indonesia,8113897788.0,,,-8.3489316,114.5837666,https://maps.google.com/?cid=0x0:0x6b6f67115442d11a,
hardware store,Toko Elektronik,Toko Gunung Mas Electronics,"Jl. Gatot Subroto No.25, Banjar Tengah, Kec. Negara, Kabupaten Jembrana, Bali 82218","Banjar Tengah, Kec. Negara, Kabupaten Jembrana",BALI,82218.0,Indonesia,,,,-8.3604067,114.6240005,https://maps.google.com/?cid=0x0:0xe615b03116e1144d,
hardware store,Toko Bahan Bangunan,TB. Putri Bali,"MH3G+3CJ, Jl. Raya Denpasar - Gilimanuk, Kaliakah, Kec. Negara, Kabupaten Jembrana, Bali 82218","Jl. Raya Denpasar - Gilimanuk, Kaliakah, Kec. Negara, Kabupaten Jembrana",BALI,82218.0,Indonesia,81237907564.0,,,-8.3472787,114.5760215,https://maps.google.com/?cid=0x0:0xb81833499663b19b,
hardware store,Toko Perlengkapan Rumah,MR.DIY,"Jl. Ngurah Rai, Pendem, Kec. Negara, Kabupaten Jembrana, Bali 82212","Pendem, Kec. Negara, Kabupaten Jembrana",BALI,82212.0,Indonesia,8133600569.0,,,-8.3605747,114.6303975,https://maps.google.com/?cid=0x0:0x90d4a9b84438418b,
hardware store,hardware store,Hotel Jepun Bali,"Jl. Menori No.100 A, Baler Bale Agung, Kec. Negara, Kabupaten Jembrana, Bali 82112","Baler Bale Agung, Kec. Negara, Kabupaten Jembrana",BALI,82112.0,Indonesia,87871214030.0,,,-8.3499798,114.6167046,https://maps.google.com/?cid=0x0:0x54b2af3328b84d4f,
hardware store,hardware store,Bali 82214,"Kec. Negara, Kabupaten Jembrana, Bali","Kabupaten Jembrana, Bali",BALI,,Indonesia,,,,-8.3762569,114.5925663,https://maps.google.com/?cid=0x0:0x1c00c5eb6016c290,
hardware store,Toko Bahan Bangunan,"Toko Gunung Mas Bangunan Jembrana, Negara","Jl. Pahlawan No.32, Pendem, Kec. Negara, Kabupaten Jembrana, Bali 82211","Pendem, Kec. Negara, Kabupaten Jembrana",BALI,82211.0,Indonesia,81246101924.0,,,-8.3584976,114.6255645,https://maps.google.com/?cid=0x0:0x136df2e41fbe9aba,
hardware store,Toko Bahan Bangunan,Kawi Graha Bangunan,"Jl. Sudirman No.18, Pendem, Kec. Jembrana, Kabupaten Jembrana, Bali 82211","Pendem, Kec. Jembrana, Kabupaten Jembrana",BALI,82211.0,Indonesia,81802072099.0,,,-8.3577299,114.6285171,https://maps.google.com/?cid=0x0:0x2fd68f13e2d4321b,
hardware store,Toko Bahan Bangunan,UD. Sari Agung ᬉᬤ᭄᭟ᬲᬭᬶᬅᬕᬸᬂ᭟,"JJW4+F52, Jl. Raya Denpasar - Gilimanuk, Kaliakah, Kec. Negara, Kabupaten Jembrana, Bali 82212","Jl. Raya Denpasar - Gilimanuk, Kaliakah, Kec. Negara, Kabupaten Jembrana",BALI,82212.0,Indonesia,87863166405.0,,,-8.3538586,114.6053852,https://maps.google.com/?cid=0x0:0x602a4991b974c916,
hardware store,Toko Perlengkapan Rumah,Toko Bangunan Kawi Jaya,"Jl. Pahlawan, Pendem, Kec. Negara, Kabupaten Jembrana, Bali 82218","Pendem, Kec. Negara, Kabupaten Jembrana",BALI,82218.0,Indonesia,36541288.0,,,-8.3580215,114.6256185,https://maps.google.com/?cid=0x0:0x9bbe88362e356a5e,
hardware store,Toko,Toko Bangunan Ayodya,"Jl. Nakula, Banjar Tengah, Kec. Negara, Kabupaten Jembrana, Bali 82218","Banjar Tengah, Kec. Negara, Kabupaten Jembrana",BALI,82218.0,Indonesia,87762950666.0,,,-8.3584539,114.6115027,https://maps.google.com/?cid=0x0:0x9495feffb3ee4f8e,
hardware store,Toko Bahan Bangunan,Ud. Bangun Jaya,"JH3M+PPX, Jl. Raya Negara-Pengambengan, Pengambengan, Kec. Negara, Kabupaten Jembrana, Bali 82218","Jl. Raya Negara-Pengambengan, Pengambengan, Kec. Negara, Kabupaten Jembrana",BALI,82218.0,Indonesia,85338448617.0,,,-8.3956432,114.5843609,https://maps.google.com/?cid=0x0:0xb7beea076eeef6eb,
hardware store,Toko Bahan Bangunan,CV. MITRA INDOBAJA,"Jl. Udayana, Banyu Biru, Kec. Negara, Kabupaten Jembrana, Bali 82212","Banyu Biru, Kec. Negara, Kabupaten Jembrana",BALI,82212.0,Indonesia,82266604828.0,,,-8.3515665,114.6000365,https://maps.google.com/?cid=0x0:0x70ea7062b73e032c,
hardware store,Toko Perlengkapan Rumah,MR.DIY,"Jl. Ngurah Rai, Pendem, Kec. Negara, Kabupaten Jembrana, Bali 82212","Pendem, Kec. Negara, Kabupaten Jembrana",BALI,82212.0,Indonesia,8133600569.0,,,-8.3605747,114.6303975,https://maps.google.com/?cid=0x0:0x90d4a9b84438418b,
hardware store,Toko Bahan Bangunan,Toko Bangunan Restu Ibu,"JJJ5+4HM, Jl. Danau Batur, Lelateng, Kec. Negara, Kabupaten Jembrana, Bali 82218","Jl. Danau Batur, Lelateng, Kec. Negara, Kabupaten Jembrana",BALI,82218.0,Indonesia,85338438739.0,,,-8.3696654,114.6089209,https://maps.google.com/?cid=0x0:0x7fc2029ef6259bd9,
hardware store,Toko Elektronik,Toko Gunung Mas Electronics,"Jl. Gatot Subroto No.25, Banjar Tengah, Kec. Negara, Kabupaten Jembrana, Bali 82218","Banjar Tengah, Kec. Negara, Kabupaten Jembrana",BALI,82218.0,Indonesia,,,,-8.3604067,114.6240005,https://maps.google.com/?cid=0x0:0xe615b03116e1144d,
hardware store,Toko Bahan Bangunan,Tb.Arya Lanus,"JJ74+3P2, Lelateng, Kec. Negara, Kabupaten Jembrana, Bali 82218","Lelateng, Kec. Negara, Kabupaten Jembrana",BALI,82218.0,Indonesia,81374133760.0,,,-8.3873515,114.6067602,https://maps.google.com/?cid=0x0:0x6175b09316ea900c,
hardware store,Toko Bahan Bangunan,"Toko Tambah Barokah (Bata,Batako,Pasir)","Jl. Rambutan Br. Tangi, Tegal Badeng Tim., Kec. Negara, Kabupaten Jembrana, Bali 82251","Tegal Badeng Tim., Kec. Negara, Kabupaten Jembrana",BALI,82251.0,Indonesia,83117522549.0,,,-8.3779593,114.5982996,https://maps.google.com/?cid=0x0:0xf80d7a292eccd8ec,
hardware store,Tukang Bangunan,IB HOME JEMBRANA,"MH2M+CGC, Banyu Biru, Kec. Negara, Kabupaten Jembrana, Bali","Kabupaten Jembrana, Bali",BALI,,Indonesia,8113897788.0,,,-8.3489316,114.5837666,https://maps.google.com/?cid=0x0:0x6b6f67115442d11a,
hardware store,Toko Bahan Bangunan,TOKO BANGUNAN HALIM,"HJXX+4M4, Air Kuning, Kec. Jembrana, Kabupaten Jembrana, Bali","Kabupaten Jembrana, Bali",BALI,,Indonesia,81337615342.0,,,-8.4022466,114.6492173,https://maps.google.com/?cid=0x0:0xa99b0f83a250165a,
hardware store,Toko Alat Tulis,UD. Sinar Utama,"JHHX+2R5, Jl. Raya Negara-Pengambengan, Tegal Badeng Tim., Kec. Negara, Kabupaten Jembrana, Bali 82218","Jl. Raya Negara-Pengambengan, Tegal Badeng Tim., Kec. Negara, Kabupaten Jembrana",BALI,82218.0,Indonesia,87762589782.0,,,-8.3724784,114.5996155,https://maps.google.com/?cid=0x0:0x108a4f1628075e21,
hardware store,Toko Elektronik,Noval cell,"Jl. D.Kalimutu, Lelateng, Kec. Negara, Kabupaten Jembrana, Bali 82214","Lelateng, Kec. Negara, Kabupaten Jembrana",BALI,82214.0,Indonesia,85858763339.0,,,-8.3611945,114.622519,https://maps.google.com/?cid=0x0:0x45203c5f6503f957,
hardware store,Toko Perlengkapan Rumah,I KADEK DARMA PUTRA WIJAYA,"82213,, Gg. 2, Banjar Tengah, Kec. Negara, Kabupaten Jembrana, Bali 82218","Gg. 2, Banjar Tengah, Kec. Negara, Kabupaten Jembrana",BALI,82218.0,Indonesia,81915656035.0,,,-8.358226,114.6155334,https://maps.google.com/?cid=0x0:0xa3b86aa858d4ecc4,
hardware store,Toko Alat Tulis Kantor,CREATIVE STATIONARY,"Lelateng, Kec. Negara, Kabupaten Jembrana, Bali 82218","Kec. Negara, Kabupaten Jembrana",BALI,82218.0,Indonesia,81338845190.0,,,-8.3621701,114.613021,https://maps.google.com/?cid=0x0:0xf9562a4ee3b24fdf,
hardware store,hardware store,Hardware store,"Jl Kecubung 3 24 RT 002/09, Dki Jakarta, Dki Jakarta, Jawa Barat 10110","Dki Jakarta, Dki Jakarta",BALI,10110.0,Indonesia,,,,-6.2243727,106.905985,https://maps.google.com/?cid=0x0:0x94de5d8c41b1ebea,
hardware store,Toko Bahan Bangunan,Hardware Clothing,"Rukan Gading Indah, Blok V9-12, RT.18/RW.8, Klp. Gading Bar., Kec. Klp. Gading, Jkt Utara, Daerah Khusus Ibukota Jakarta 12930","Blok V9-12, RT.18/RW.8, Klp. Gading Bar., Kec. Klp. Gading, Jkt Utara",BALI,12930.0,Indonesia,2125539858.0,,,-6.149231,106.896942,https://maps.google.com/?cid=0x0:0x488fdb7f986cd389,
hardware store,Toko Bahan Bangunan,Kawi Graha Bangunan,"Jl. Sudirman No.18, Pendem, Kec. Jembrana, Kabupaten Jembrana, Bali 82211","Pendem, Kec. Jembrana, Kabupaten Jembrana",BALI,82211.0,Indonesia,81802072099.0,,,-8.3577299,114.6285171,https://maps.google.com/?cid=0x0:0x2fd68f13e2d4321b,
hardware store,Toko Perlengkapan Rumah,Toko Bangunan Kawi Jaya,"Jl. Pahlawan, Pendem, Kec. Negara, Kabupaten Jembrana, Bali 82218","Pendem, Kec. Negara, Kabupaten Jembrana",BALI,82218.0,Indonesia,36541288.0,,,-8.3580215,114.6256185,https://maps.google.com/?cid=0x0:0x9bbe88362e356a5e,
hardware store,Pujasera,Ka-Pe (Kawi Graha Cafe),"Jl. Sudirman No.18, Pendem, Kec. Negara, Kabupaten Jembrana, Bali 82211","Pendem, Kec. Negara, Kabupaten Jembrana",BALI,82211.0,Indonesia,81353025287.0,,,-8.3574707,114.6285038,https://maps.google.com/?cid=0x0:0x36500d860d75cd1b,
hardware store,Toko Bahan Bangunan,"Toko Gunung Mas Bangunan Jembrana, Negara","Jl. Pahlawan No.32, Pendem, Kec. Negara, Kabupaten Jembrana, Bali 82211","Pendem, Kec. Negara, Kabupaten Jembrana",BALI,82211.0,Indonesia,81246101924.0,,,-8.3584976,114.6255645,https://maps.google.com/?cid=0x0:0x136df2e41fbe9aba,
hardware store,Toko Bahan Bangunan,Toko Tri Sakti Bahan Bangunan Desa Baluk,"Jl. Yudistira No.1, Baluk, Kec. Negara, Kabupaten Jembrana, Bali 82213","Baluk, Kec. Negara, Kabupaten Jembrana",BALI,82213.0,Indonesia,85931371499.0,,,-8.3593423,114.6012129,https://maps.google.com/?cid=0x0:0x81413743b340346f,
hardware store,Toko Elektronik,Toko Gunung Mas Electronics,"Jl. Gatot Subroto No.25, Banjar Tengah, Kec. Negara, Kabupaten Jembrana, Bali 82218","Banjar Tengah, Kec. Negara, Kabupaten Jembrana",BALI,82218.0,Indonesia,,,,-8.3604067,114.6240005,https://maps.google.com/?cid=0x0:0xe615b03116e1144d,
hardware store,Toko Bahan Bangunan,Toko Bangunan Restu Ibu,"JJJ5+4HM, Jl. Danau Batur, Lelateng, Kec. Negara, Kabupaten Jembrana, Bali 82218","Jl. Danau Batur, Lelateng, Kec. Negara, Kabupaten Jembrana",BALI,82218.0,Indonesia,85338438739.0,,,-8.3696654,114.6089209,https://maps.google.com/?cid=0x0:0x7fc2029ef6259bd9,
hardware store,Toko Bahan Bangunan,Toko Anda,"Jl. D.Kalimutu, Loloan Bar., Kec. Negara, Kabupaten Jembrana, Bali 82218","Loloan Bar., Kec. Negara, Kabupaten Jembrana",BALI,82218.0,Indonesia,8990177047.0,,,-8.362257,114.6223119,https://maps.google.com/?cid=0x0:0xe27a45f547071487,
hardware store,Tukang Bangunan,IB HOME JEMBRANA,"MH2M+CGC, Banyu Biru, Kec. Negara, Kabupaten Jembrana, Bali","Kabupaten Jembrana, Bali",BALI,,Indonesia,8113897788.0,,,-8.3489316,114.5837666,https://maps.google.com/?cid=0x0:0x6b6f67115442d11a,
hardware store,Toko Alat Tulis,UD. Sinar Utama,"JHHX+2R5, Jl. Raya Negara-Pengambengan, Tegal Badeng Tim., Kec. Negara, Kabupaten Jembrana, Bali 82218","Jl. Raya Negara-Pengambengan, Tegal Badeng Tim., Kec. Negara, Kabupaten Jembrana",BALI,82218.0,Indonesia,87762589782.0,,,-8.3724784,114.5996155,https://maps.google.com/?cid=0x0:0x108a4f1628075e21,
hardware store,Toko Perlengkapan Rumah,MR.DIY,"Jl. Ngurah Rai, Pendem, Kec. Negara, Kabupaten Jembrana, Bali 82212","Pendem, Kec. Negara, Kabupaten Jembrana",BALI,82212.0,Indonesia,8133600569.0,,,-8.3605747,114.6303975,https://maps.google.com/?cid=0x0:0x90d4a9b84438418b,
hardware store,Toko Bahan Bangunan,"Toko Tambah Barokah (Bata,Batako,Pasir)","Jl. Rambutan Br. Tangi, Tegal Badeng Tim., Kec. Negara, Kabupaten Jembrana, Bali 82251","Tegal Badeng Tim., Kec. Negara, Kabupaten Jembrana",BALI,82251.0,Indonesia,83117522549.0,,,-8.3779593,114.5982996,https://maps.google.com/?cid=0x0:0xf80d7a292eccd8ec,
hardware store,hardware store,Jembrana Store,"Jl. Sungai Citarum No.7, Sangkaragung, Kec. Jembrana, Kabupaten Jembrana, Bali 82218","Sangkaragung, Kec. Jembrana, Kabupaten Jembrana",BALI,82218.0,Indonesia,88975185390.0,,,-8.3763422,114.6484602,https://maps.google.com/?cid=0x0:0x56a792531f515168,
hardware store,Toko Bahan Bangunan,Hardware Clothing,"Rukan Gading Indah, Blok V9-12, RT.18/RW.8, Klp. Gading Bar., Kec. Klp. Gading, Jkt Utara, Daerah Khusus Ibukota Jakarta 12930","Blok V9-12, RT.18/RW.8, Klp. Gading Bar., Kec. Klp. Gading, Jkt Utara",BALI,12930.0,Indonesia,2125539858.0,,,-6.149231,106.896942,https://maps.google.com/?cid=0x0:0x488fdb7f986cd389,
hardware store,Toko Pakaian Wanita,Hardware,"Mal Metropolitan, Jl. KH. Noer Ali No.2, RT.008/RW.002, Pekayon Jaya, Kec. Bekasi Sel., Kota Bks, Jawa Barat 17148","Jl. KH. Noer Ali No.2, RT.008/RW.002, Pekayon Jaya, Kec. Bekasi Sel., Kota Bks",BALI,17148.0,Indonesia,2188861991.0,,,-6.2480342,106.9915778,https://maps.google.com/?cid=0x0:0x4ae65d80217112f0,
hardware store,hardware store,Bali 82218,"Kec. Negara, Kabupaten Jembrana, Bali","Kabupaten Jembrana, Bali",BALI,,Indonesia,,,,-8.3357931,114.6311665,https://maps.google.com/?cid=0x0:0x1c00c5eb6016c2d0,
hardware store,Toko Perlengkapan Rumah,Toko Bangunan Kawi Jaya,"Jl. Pahlawan, Pendem, Kec. Negara, Kabupaten Jembrana, Bali 82218","Pendem, Kec. Negara, Kabupaten Jembrana",BALI,82218.0,Indonesia,36541288.0,,,-8.3580215,114.6256185,https://maps.google.com/?cid=0x0:0x9bbe88362e356a5e,
hardware store,Toko Bahan Bangunan,"Toko Gunung Mas Bangunan Jembrana, Negara","Jl. Pahlawan No.32, Pendem, Kec. Negara, Kabupaten Jembrana, Bali 82211","Pendem, Kec. Negara, Kabupaten Jembrana",BALI,82211.0,Indonesia,81246101924.0,,,-8.3584976,114.6255645,https://maps.google.com/?cid=0x0:0x136df2e41fbe9aba,
hardware store,Toko Bahan Bangunan,Toko Bangunan UD. Ayodya 3,"Jl. Arjuna, Baluk, Kec. Negara, Kabupaten Jembrana, Bali 82218","Baluk, Kec. Negara, Kabupaten Jembrana",BALI,82218.0,Indonesia,82342445312.0,,,-8.359331,114.5819062,https://maps.google.com/?cid=0x0:0xcd7fc34dc66b3c9c,
hardware store,Toko Bahan Bangunan,Kawi Graha Bangunan,"Jl. Sudirman No.18, Pendem, Kec. Jembrana, Kabupaten Jembrana, Bali 82211","Pendem, Kec. Jembrana, Kabupaten Jembrana",BALI,82211.0,Indonesia,81802072099.0,,,-8.3577299,114.6285171,https://maps.google.com/?cid=0x0:0x2fd68f13e2d4321b,
hardware store,Toko Bahan Bangunan,CV. DOA IBU,"Jl. Teratai, Cupel, Kec. Negara, Kabupaten Jembrana, Bali 82218","Cupel, Kec. Negara, Kabupaten Jembrana",BALI,82218.0,Indonesia,81338799994.0,,,-8.3705924,114.5686325,https://maps.google.com/?cid=0x0:0xf56267072b1ef4c2,
hardware store,Toko Bahan Bangunan,Usaha Bata Merah Ajik Negara ᬉᬲᬳᬩᬢᬫᬾᬭᬄᬅᬚᬶᬓ᭄᭟,"rening, Baluk, Kec. Negara, Kabupaten Jembrana, Bali 82218","Baluk, Kec. Negara, Kabupaten Jembrana",BALI,82218.0,Indonesia,87861539300.0,,,-8.3560566,114.5633172,https://maps.google.com/?cid=0x0:0x4f7b4b54c32b0601,
hardware store,Toko,Toko Gunung Sari,"MJ87+WCX, Jalan, Berambang, Negara, Jembrana Regency, Bali 82218","Jalan, Berambang, Negara, Jembrana Regency",BALI,82218.0,Indonesia,87824250997.0,,,-8.3326255,114.6136069,https://maps.google.com/?cid=0x0:0x3d14bb67a3738ece,
hardware store,Toko Kaca,Pandawa Alumunium,"MJ2C+MC8, Jl. Plawa, Baler Bale Agung, Kec. Negara, Kabupaten Jembrana, Bali 82218","Jl. Plawa, Baler Bale Agung, Kec. Negara, Kabupaten Jembrana",BALI,82218.0,Indonesia,3654546201.0,,,-8.3483288,114.6210745,https://maps.google.com/?cid=0x0:0xb6b4e51d5c87301f,
hardware store,Toko Bahan Bangunan,Toko Tri Sakti Bahan Bangunan Desa Baluk,"Jl. Yudistira No.1, Baluk, Kec. Negara, Kabupaten Jembrana, Bali 82213","Baluk, Kec. Negara, Kabupaten Jembrana",BALI,82213.0,Indonesia,85931371499.0,,,-8.3593423,114.6012129,https://maps.google.com/?cid=0x0:0x81413743b340346f,
hardware store,Toko Perlengkapan Rumah,MR.DIY,"Jl. Raya Denpasar - Gilimanuk, Banyu Biru, Kec. Negara, Kabupaten Jembrana, Bali 82218","Banyu Biru, Kec. Negara, Kabupaten Jembrana",BALI,82218.0,Indonesia,,,,-8.348434,114.578515,https://maps.google.com/?cid=0x0:0xc9ffdeb2ee8af5dd,
hardware store,Toko Bahan Bangunan,Yuri Bangunan,"Jl. Desa Kaliakah Kauh, Kaliakah, Kec. Negara, Kabupaten Jembrana, Bali 82218","Kaliakah, Kec. Negara, Kabupaten Jembrana",BALI,82218.0,Indonesia,,,,-8.3292516,114.5574102,https://maps.google.com/?cid=0x0:0x58f157f4cc38e079,
hardware store,Toko Bahan Bangunan,Toko Mega,"JJQG+M8X, Jl. Ngurah Rai, Loloan Tim., Kec. Negara, Kabupaten Jembrana, Bali 82218","Jl. Ngurah Rai, Loloan Tim., Kec. Negara, Kabupaten Jembrana",BALI,82218.0,Indonesia,36541181.0,,,-8.3607674,114.6258583,https://maps.google.com/?cid=0x0:0x5e71775d5ff9b401,
hardware store,Toko,Toko Bangunan Ayodya,"Jl. Nakula, Banjar Tengah, Kec. Negara, Kabupaten Jembrana, Bali 82218","Banjar Tengah, Kec. Negara, Kabupaten Jembrana",BALI,82218.0,Indonesia,87762950666.0,,,-8.3584539,114.6115027,https://maps.google.com/?cid=0x0:0x9495feffb3ee4f8e,
hardware store,Toko Bahan Bangunan,Tb. Putra Arya,"JHJM+52M, Jl. Nakula, Tegal Badeng Bar., Kec. Negara, Kabupaten Jembrana, Bali 82218","Jl. Nakula, Tegal Badeng Bar., Kec. Negara, Kabupaten Jembrana",BALI,82218.0,Indonesia,87863266558.0,,,-8.3695408,114.582553,https://maps.google.com/?cid=0x0:0x565911879502fdc0,
hardware store,Toko Kayu,UD AZ ZAHRA,"Jl. Gn. Merapi, Loloan Tim., Kec. Negara, Kabupaten Jembrana, Bali 82216","Loloan Tim., Kec. Negara, Kabupaten Jembrana",BALI,82216.0,Indonesia,82375555569.0,,,-8.3684065,114.6299146,https://maps.google.com/?cid=0x0:0xbfcd644107869bd6,
hardware store,Toko Bahan Bangunan,Ud. Bangun Jaya,"JH3M+PPX, Jl. Raya Negara-Pengambengan, Pengambengan, Kec. Negara, Kabupaten Jembrana, Bali 82218","Jl. Raya Negara-Pengambengan, Pengambengan, Kec. Negara, Kabupaten Jembrana",BALI,82218.0,Indonesia,85338448617.0,,,-8.3956432,114.5843609,https://maps.google.com/?cid=0x0:0xb7beea076eeef6eb,
hardware store,Toko Peralatan Tukang Kayu,Sanggar Ukir Sari Yadnya,"MJQJ+2PX Lingkungan Dewasana, Tempek II, Pendem, Kec. Jembrana, Kabupaten Jembrana, Bali 82218","Tempek II, Pendem, Kec. Jembrana, Kabupaten Jembrana",BALI,82218.0,Indonesia,85954079220.0,,,-8.3123911,114.6318456,https://maps.google.com/?cid=0x0:0x529f0dfdf141f277,
hardware store,Toko Bahan Bangunan,UD. Sari Agung ᬉᬤ᭄᭟ᬲᬭᬶᬅᬕᬸᬂ᭟,"JJW4+F52, Jl. Raya Denpasar - Gilimanuk, Kaliakah, Kec. Negara, Kabupaten Jembrana, Bali 82212","Jl. Raya Denpasar - Gilimanuk, Kaliakah, Kec. Negara, Kabupaten Jembrana",BALI,82212.0,Indonesia,87863166405.0,,,-8.3538586,114.6053852,https://maps.google.com/?cid=0x0:0x602a4991b974c916,
hardware store,Toko Bahan Bangunan,BAHAN BANGUNAN UD. SARI PUTRA BIRAWA,"Jl. Dahlia, Lingkungan Kebon, Baler Bale Agung, Kec. Negara, Kabupaten Jembrana, Bali 82212","Lingkungan Kebon, Baler Bale Agung, Kec. Negara, Kabupaten Jembrana",BALI,82212.0,Indonesia,87761510141.0,,,-8.3451664,114.6238024,https://maps.google.com/?cid=0x0:0x63f758d894d62ab1,
hardware store,Toko Perlengkapan Rumah,MR.DIY,"Jl. Ngurah Rai, Pendem, Kec. Negara, Kabupaten Jembrana, Bali 82212","Pendem, Kec. Negara, Kabupaten Jembrana",BALI,82212.0,Indonesia,8133600569.0,,,-8.3605747,114.6303975,https://maps.google.com/?cid=0x0:0x90d4a9b84438418b,
hardware store,Toko Bahan Bangunan,Hardware Clothing,"Rukan Gading Indah, Blok V9-12, RT.18/RW.8, Klp. Gading Bar., Kec. Klp. Gading, Jkt Utara, Daerah Khusus Ibukota Jakarta 12930","Blok V9-12, RT.18/RW.8, Klp. Gading Bar., Kec. Klp. Gading, Jkt Utara",BALI,12930.0,Indonesia,2125539858.0,,,-6.149231,106.896942,https://maps.google.com/?cid=0x0:0x488fdb7f986cd389,
hardware store,hardware store,Hardware store,"Jl Kecubung 3 24 RT 002/09, Dki Jakarta, Dki Jakarta, Jawa Barat 10110","Dki Jakarta, Dki Jakarta",BALI,10110.0,Indonesia,,,,-6.2243727,106.905985,https://maps.google.com/?cid=0x0:0x94de5d8c41b1ebea,
hardware store,hardware store,Bali 82262,"Kec. Pekutatan, Kabupaten Jembrana, Bali","Kabupaten Jembrana, Bali",BALI,,Indonesia,,,,-8.4101762,114.8804853,https://maps.google.com/?cid=0x0:0x1c00c5eb6016c310,
hardware store,Toko Bahan Bangunan,UD. Karunia Jaya,"Pekutatan, Kec. Pekutatan, Kabupaten Jembrana, Bali 82262","Kec. Pekutatan, Kabupaten Jembrana",BALI,82262.0,Indonesia,81338469363.0,,,-8.4209741,114.8223982,https://maps.google.com/?cid=0x0:0xcd119a3154d04a06,
hardware store,Toko Bahan Bangunan,Ud.sari agung 1 pekutatan,"HRM9+XGX, Jl. Raya Denpasar - Gilimanuk, Pulukan, Kec. Pekutatan, Kabupaten Jembrana, Bali 82262","Jl. Raya Denpasar - Gilimanuk, Pulukan, Kec. Pekutatan, Kabupaten Jembrana",BALI,82262.0,Indonesia,81936553355.0,,,-8.4150054,114.8188507,https://maps.google.com/?cid=0x0:0x77f534a79890b666,
hardware store,Toko Bahan Bangunan,TB. Putra Arta,"HRR2+3CM, Jl. Raya Denpasar - Gilimanuk, Yeh Sumbul, Kec. Mendoyo, Kabupaten Jembrana, Bali 82262","Jl. Raya Denpasar - Gilimanuk, Yeh Sumbul, Kec. Mendoyo, Kabupaten Jembrana",BALI,82262.0,Indonesia,87762146686.0,,,-8.4097917,114.8010331,https://maps.google.com/?cid=0x0:0x16e013d5d3ba9dd2,
hardware store,Toko,UD. Harapan Jaya,"HQXQ+FPP, Jl. Raya Denpasar - Gilimanuk, Yeh Sumbul, Negara, Kabupaten Jembrana, Bali 82261","Jl. Raya Denpasar - Gilimanuk, Yeh Sumbul, Negara, Kabupaten Jembrana",BALI,82261.0,Indonesia,81936506767.0,,,-8.4012766,114.7893172,https://maps.google.com/?cid=0x0:0xca824dd339cb24dd,
hardware store,Toko,WAEZANU SHOP,"JL. CECAK JENGOT, BANJAR LOLOAN, Medewi, Kec. Pekutatan, Kabupaten Jembrana, Bali 82262","BANJAR LOLOAN, Medewi, Kec. Pekutatan, Kabupaten Jembrana",BALI,82262.0,Indonesia,,,,-8.4058856,114.8147739,https://maps.google.com/?cid=0x0:0x5bd916e6086358ee,
hardware store,Toko Kayu,Jual Kayu  Kusen,"HRH6+WWM, Jl. Raya Denpasar - Gilimanuk, Pulukan, Kec. Pekutatan, Kabupaten Jembrana, Bali","Kabupaten Jembrana, Bali",BALI,,Indonesia,87863071707.0,,,-8.420153,114.8122842,https://maps.google.com/?cid=0x0:0x1a474f5d71c6049a,
hardware store,Toko Perlengkapan Rumah,Ermila Gorden,"HRHF+P2H, Jl. Raya Denpasar - Gilimanuk, Pekutatan, Kec. Pekutatan, Kabupaten Jembrana, Bali 82262","Jl. Raya Denpasar - Gilimanuk, Pekutatan, Kec. Pekutatan, Kabupaten Jembrana",BALI,82262.0,Indonesia,81353093627.0,,,-8.4206763,114.8225949,https://maps.google.com/?cid=0x0:0x1ebc222375d35bcc,
hardware store,Toko Alat Tulis Kantor,ATK Prisha,"Jl. Giri Nata, Gumbrih, Kec. Pekutatan, Kabupaten Jembrana, Bali 82262","Gumbrih, Kec. Pekutatan, Kabupaten Jembrana",BALI,82262.0,Indonesia,85738696477.0,,,-8.4316946,114.8786282,https://maps.google.com/?cid=0x0:0xfec88c7b3bc9efec,
hardware store,hardware store,Kec. Pekutatan,"Kabupaten Jembrana, Bali","Kabupaten Jembrana, Bali",BALI,,Indonesia,,,,-8.4204226,114.8218615,https://maps.google.com/?cid=0x0:0x4030bfbca7d2db0,
toko bangunan,toko bangunan,Bali 82211,"Pendem, Kec. Jembrana, Kabupaten Jembrana, Bali","Kabupaten Jembrana, Bali",BALI,,Indonesia,,,,-8.3591929,114.628832,https://maps.google.com/?cid=0x0:0x7f27513f7ae5cdf2,
toko bangunan,Toko Perlengkapan Rumah,Toko Bangunan Kawi Jaya,"Jl. Pahlawan, Pendem, Kec. Negara, Kabupaten Jembrana, Bali 82218","Pendem, Kec. Negara, Kabupaten Jembrana",BALI,82218.0,Indonesia,36541288.0,,,-8.3580215,114.6256185,https://maps.google.com/?cid=0x0:0x9bbe88362e356a5e,
toko bangunan,Toko Bahan Bangunan,"Toko Gunung Mas Bangunan Jembrana, Negara","Jl. Pahlawan No.32, Pendem, Kec. Negara, Kabupaten Jembrana, Bali 82211","Pendem, Kec. Negara, Kabupaten Jembrana",BALI,82211.0,Indonesia,81246101924.0,,,-8.3584976,114.6255645,https://maps.google.com/?cid=0x0:0x136df2e41fbe9aba,
toko bangunan,Toko Bahan Bangunan,Sinar Bangunan,"Jl. Hayam Wuruk No.47, Dangin Tukadaya, Kec. Negara, Kabupaten Jembrana, Bali 82218","Dangin Tukadaya, Kec. Negara, Kabupaten Jembrana",BALI,82218.0,Indonesia,3654545914.0,,,-8.3620314,114.648035,https://maps.google.com/?cid=0x0:0xdf3ea386ff30329e,
toko bangunan,Toko Bahan Bangunan,Toko Bangunan Cantika Arta ᬢᭀᬓᭀᬩᬗᬸᬦᬦ᭄ᬘᬦ᭄ᬢᬶᬓᬅᬃᬢ᭟,"JJR7+CHQ, Jl. Yudistira, Banjar Tengah, Kec. Negara, Kabupaten Jembrana, Bali 82218","Jl. Yudistira, Banjar Tengah, Kec. Negara, Kabupaten Jembrana",BALI,82218.0,Indonesia,87861514275.0,,,-8.35892,114.6139893,https://maps.google.com/?cid=0x0:0xc2b5db50a01118d9,
toko bangunan,Toko,Toko Bangunan Ayodya,"Jl. Nakula, Banjar Tengah, Kec. Negara, Kabupaten Jembrana, Bali 82218","Banjar Tengah, Kec. Negara, Kabupaten Jembrana",BALI,82218.0,Indonesia,87762950666.0,,,-8.3584539,114.6115027,https://maps.google.com/?cid=0x0:0x9495feffb3ee4f8e,
toko bangunan,Toko Bahan Bangunan,Toko Bangunan Rahman,"JJJF+MJ9, Jl. Katulampo, Loloan Bar., Kec. Negara, Kabupaten Jembrana, Bali 82218","Jl. Katulampo, Loloan Bar., Kec. Negara, Kabupaten Jembrana",BALI,82218.0,Indonesia,81216317473.0,,,-8.3683256,114.6240977,https://maps.google.com/?cid=0x0:0x72a00c0e81996fdc,
toko bangunan,Toko Bahan Bangunan,Toko Sumber Untung,"JJQH+R64, Jl. Ngurah Rai, Pendem, Kec. Jembrana, Kabupaten Jembrana, Bali 82218","Jl. Ngurah Rai, Pendem, Kec. Jembrana, Kabupaten Jembrana",BALI,82218.0,Indonesia,81916371747.0,,,-8.3604966,114.6280772,https://maps.google.com/?cid=0x0:0x645d5fd6b8abbbb,
toko bangunan,Toko Bahan Bangunan,Toko bahan bangunan Made Profil,"Jl. Jenderal Sudirman, Dauhwaru, Kec. Jembrana, Kabupaten Jembrana, Bali 82218","Dauhwaru, Kec. Jembrana, Kabupaten Jembrana",BALI,82218.0,Indonesia,81999217209.0,,,-8.3537064,114.6283217,https://maps.google.com/?cid=0x0:0xcf4db8ddc234fe8d,
toko bangunan,Toko Perlengkapan Rumah,Toko Bangunan UD. Jaya Utama,"MJ45+CR9, Jl. Matahari, Kaliakah, Kec. Negara, Kabupaten Jembrana, Bali 82212","Jl. Matahari, Kaliakah, Kec. Negara, Kabupaten Jembrana",BALI,82212.0,Indonesia,85769908768.0,,,-8.34395,114.6096171,https://maps.google.com/?cid=0x0:0x493afed83216ac79,
toko bangunan,Toko Bahan Bangunan,Toko Megah Sari,"Jl. Jenderal Sudirman No.24, Pendem, Kec. Negara, Kabupaten Jembrana, Bali 82218","Pendem, Kec. Negara, Kabupaten Jembrana",BALI,82218.0,Indonesia,87852764455.0,,,-8.3578441,114.6307255,https://maps.google.com/?cid=0x0:0xdf8eea5ac5361e71,
toko bangunan,Toko Bahan Bangunan,UD. Sari Agung,"JMJG+22C, dekat, Bali, Pohsanten, Kec. Mendoyo, Kabupaten Jembrana, Bali 82261","dekat, Bali, Pohsanten, Kec. Mendoyo, Kabupaten Jembrana",BALI,82261.0,Indonesia,81999011148.0,,,-8.3699254,114.6750107,https://maps.google.com/?cid=0x0:0x93af26c323554230,
toko bangunan,Toko Bahan Bangunan,Toko Sinar Maju Jaya,"Jl. Ngurah Rai No.195, Dauhwaru, Kec. Negara, Kabupaten Jembrana, Bali 82217","Dauhwaru, Kec. Negara, Kabupaten Jembrana",BALI,82217.0,Indonesia,36540141.0,,,-8.3614101,114.6408692,https://maps.google.com/?cid=0x0:0xc3a97d6702b8eea9,
toko bangunan,Toko Bahan Bangunan,Toko Anda,"Jl. D.Kalimutu, Loloan Bar., Kec. Negara, Kabupaten Jembrana, Bali 82218","Loloan Bar., Kec. Negara, Kabupaten Jembrana",BALI,82218.0,Indonesia,8990177047.0,,,-8.362257,114.6223119,https://maps.google.com/?cid=0x0:0xe27a45f547071487,
toko bangunan,Toko Bahan Bangunan,TOKO BANGUNAN HALIM,"HJXX+4M4, Air Kuning, Kec. Jembrana, Kabupaten Jembrana, Bali","Kabupaten Jembrana, Bali",BALI,,Indonesia,81337615342.0,,,-8.4022466,114.6492173,https://maps.google.com/?cid=0x0:0xa99b0f83a250165a,
toko bangunan,Toko Bahan Bangunan,Toko Sumber Jaya,"JJQC+JX8, Jl. D.Kalimutu, Loloan Bar., Kec. Negara, Kabupaten Jembrana, Bali 82218","Jl. D.Kalimutu, Loloan Bar., Kec. Negara, Kabupaten Jembrana",BALI,82218.0,Indonesia,87822446699.0,,,-8.3609594,114.622454,https://maps.google.com/?cid=0x0:0x230e12267a8f9eff,
toko bangunan,Toko Bahan Bangunan,UD. HARAPAN JAYA (Toko Besi),"Jl. Udayana No.61b, Kaliakah, Kec. Negara, Kabupaten Jembrana, Bali 82212","Kaliakah, Kec. Negara, Kabupaten Jembrana",BALI,82212.0,Indonesia,81239351289.0,,,-8.3542308,114.607479,https://maps.google.com/?cid=0x0:0x5c8dcd63ea264d3,
toko bangunan,Toko Bahan Bangunan,Toko Bangunan UD. Ayodya 3,"Jl. Arjuna, Baluk, Kec. Negara, Kabupaten Jembrana, Bali 82218","Baluk, Kec. Negara, Kabupaten Jembrana",BALI,82218.0,Indonesia,82342445312.0,,,-8.359331,114.5819062,https://maps.google.com/?cid=0x0:0xcd7fc34dc66b3c9c,
toko bangunan,Toko Bahan Bangunan,Toko Sentral Muda,"PGW6+778, Jalan Pangkung Tanah, Melaya, Kec. Melaya, Kabupaten Jembrana, Bali 82252","Jalan Pangkung Tanah, Melaya, Kec. Melaya, Kabupaten Jembrana",BALI,82252.0,Indonesia,81338404513.0,,,-8.2543404,114.5107102,https://maps.google.com/?cid=0x0:0x6c830716b97ced16,
toko bangunan,Toko Bahan Bangunan,Toko Rejeki,"JJQC+JXF, Jl. D.Kalimutu, Loloan Bar., Kec. Negara, Kabupaten Jembrana, Bali 82218","Jl. D.Kalimutu, Loloan Bar., Kec. Negara, Kabupaten Jembrana",BALI,82218.0,Indonesia,81338277368.0,,,-8.3609327,114.6224121,https://maps.google.com/?cid=0x0:0x8cc120678fe8e978,
toko bangunan,Toko Bahan Bangunan,Toko Bangunan Arta Wiguna,"MHGW+PC8, Unnamed Road, Kaliakah, Kec. Negara, Kabupaten Jembrana, Bali 82218","Unnamed Road, Kaliakah, Kec. Negara, Kabupaten Jembrana",BALI,82218.0,Indonesia,87861432008.0,,,-8.3232202,114.5960883,https://maps.google.com/?cid=0x0:0xe67b3b3048e1c3fb,
toko bangunan,Toko Bahan Bangunan,Mitra Pandawa Bahan Bangunan,"MJ2C+M9H, Jl. Plawa GANG KASTURI III, Baler Bale Agung, Kec. Negara, Kabupaten Jembrana, Bali 82218","Jl. Plawa GANG KASTURI III, Baler Bale Agung, Kec. Negara, Kabupaten Jembrana",BALI,82218.0,Indonesia,82119975875.0,,,-8.3483171,114.62098,https://maps.google.com/?cid=0x0:0x6a8f15bd5628e7e6,
toko bangunan,toko bangunan,Jembrana,"Kec. Jembrana, Kabupaten Jembrana, Bali","Kabupaten Jembrana, Bali",BALI,,Indonesia,,,,-8.3605987,114.6256578,https://maps.google.com/?cid=0x0:0xd668745c2713a1d7,
toko bangunan,Toko Perlengkapan Rumah,Toko Bangunan Kawi Jaya,"Jl. Pahlawan, Pendem, Kec. Negara, Kabupaten Jembrana, Bali 82218","Pendem, Kec. Negara, Kabupaten Jembrana",BALI,82218.0,Indonesia,36541288.0,,,-8.3580215,114.6256185,https://maps.google.com/?cid=0x0:0x9bbe88362e356a5e,
toko bangunan,Toko Bahan Bangunan,"Toko Gunung Mas Bangunan Jembrana, Negara","Jl. Pahlawan No.32, Pendem, Kec. Negara, Kabupaten Jembrana, Bali 82211","Pendem, Kec. Negara, Kabupaten Jembrana",BALI,82211.0,Indonesia,81246101924.0,,,-8.3584976,114.6255645,https://maps.google.com/?cid=0x0:0x136df2e41fbe9aba,
toko bangunan,Toko Bahan Bangunan,Sinar Bangunan,"Jl. Hayam Wuruk No.47, Dangin Tukadaya, Kec. Negara, Kabupaten Jembrana, Bali 82218","Dangin Tukadaya, Kec. Negara, Kabupaten Jembrana",BALI,82218.0,Indonesia,3654545914.0,,,-8.3620314,114.648035,https://maps.google.com/?cid=0x0:0xdf3ea386ff30329e,
toko bangunan,Toko Bahan Bangunan,Toko Krishna Jaya ᬢᭀᬓᭀᬓ᭄ᬭᬶᬲ᭄ᬳ᭄ᬦᬚᬬ᭟,"Jl. Gajah Mada No.77, Dangin Tukadaya, Kec. Jembrana, Kabupaten Jembrana, Bali 82218","Dangin Tukadaya, Kec. Jembrana, Kabupaten Jembrana",BALI,82218.0,Indonesia,81915602527.0,,,-8.3634895,114.651824,https://maps.google.com/?cid=0x0:0x4ddd9247029ba61c,
toko bangunan,Toko Bahan Bangunan,Toko Bangunan Cantika Arta ᬢᭀᬓᭀᬩᬗᬸᬦᬦ᭄ᬘᬦ᭄ᬢᬶᬓᬅᬃᬢ᭟,"JJR7+CHQ, Jl. Yudistira, Banjar Tengah, Kec. Negara, Kabupaten Jembrana, Bali 82218","Jl. Yudistira, Banjar Tengah, Kec. Negara, Kabupaten Jembrana",BALI,82218.0,Indonesia,87861514275.0,,,-8.35892,114.6139893,https://maps.google.com/?cid=0x0:0xc2b5db50a01118d9,
toko bangunan,Toko Bahan Bangunan,Toko Bangunan Ayodya 2,"Jl. Danau Beratan, Lelateng, Kec. Negara, Kabupaten Jembrana, Bali 82218","Lelateng, Kec. Negara, Kabupaten Jembrana",BALI,82218.0,Indonesia,81916196331.0,,,-8.3643096,114.6164607,https://maps.google.com/?cid=0x0:0x609dd95bc51e9b05,
toko bangunan,Toko Bahan Bangunan,Toko bahan bangunan Made Profil,"Jl. Jenderal Sudirman, Dauhwaru, Kec. Jembrana, Kabupaten Jembrana, Bali 82218","Dauhwaru, Kec. Jembrana, Kabupaten Jembrana",BALI,82218.0,Indonesia,81999217209.0,,,-8.3537064,114.6283217,https://maps.google.com/?cid=0x0:0xcf4db8ddc234fe8d,
toko bangunan,Toko,Toko Bangunan Ayodya,"Jl. Nakula, Banjar Tengah, Kec. Negara, Kabupaten Jembrana, Bali 82218","Banjar Tengah, Kec. Negara, Kabupaten Jembrana",BALI,82218.0,Indonesia,87762950666.0,,,-8.3584539,114.6115027,https://maps.google.com/?cid=0x0:0x9495feffb3ee4f8e,
toko bangunan,Toko Bahan Bangunan,Toko Mega,"JJQG+M8X, Jl. Ngurah Rai, Loloan Tim., Kec. Negara, Kabupaten Jembrana, Bali 82218","Jl. Ngurah Rai, Loloan Tim., Kec. Negara, Kabupaten Jembrana",BALI,82218.0,Indonesia,36541181.0,,,-8.3607674,114.6258583,https://maps.google.com/?cid=0x0:0x5e71775d5ff9b401,
toko bangunan,Toko Bahan Bangunan,Toko Bangunan Restu Ibu,"JJJ5+4HM, Jl. Danau Batur, Lelateng, Kec. Negara, Kabupaten Jembrana, Bali 82218","Jl. Danau Batur, Lelateng, Kec. Negara, Kabupaten Jembrana",BALI,82218.0,Indonesia,85338438739.0,,,-8.3696654,114.6089209,https://maps.google.com/?cid=0x0:0x7fc2029ef6259bd9,
toko bangunan,Toko Bahan Bangunan,Toko Sinar Maju Jaya,"Jl. Ngurah Rai No.195, Dauhwaru, Kec. Negara, Kabupaten Jembrana, Bali 82217","Dauhwaru, Kec. Negara, Kabupaten Jembrana",BALI,82217.0,Indonesia,36540141.0,,,-8.3614101,114.6408692,https://maps.google.com/?cid=0x0:0xc3a97d6702b8eea9,
toko bangunan,Toko Kaca,Pandawa Alumunium,"MJ2C+MC8, Jl. Plawa, Baler Bale Agung, Kec. Negara, Kabupaten Jembrana, Bali 82218","Jl. Plawa, Baler Bale Agung, Kec. Negara, Kabupaten Jembrana",BALI,82218.0,Indonesia,3654546201.0,,,-8.3483288,114.6210745,https://maps.google.com/?cid=0x0:0xb6b4e51d5c87301f,
toko bangunan,Toko Bahan Bangunan,UD. SRI SEDANA,"MJ29+RQC, Jl. Plawa, Baler Bale Agung, Kec. Negara, Kabupaten Jembrana, Bali 82218","Jl. Plawa, Baler Bale Agung, Kec. Negara, Kabupaten Jembrana",BALI,82218.0,Indonesia,81805387174.0,,,-8.3479387,114.6194061,https://maps.google.com/?cid=0x0:0xe8d222383f7147cc,
toko bangunan,Toko Bahan Bangunan,Artha Jaya,"Jl. Gajah Mada No.9x, Dangin Tukadaya, Kec. Jembrana, Kabupaten Jembrana, Bali 82218","Dangin Tukadaya, Kec. Jembrana, Kabupaten Jembrana",BALI,82218.0,Indonesia,,,,-8.3625612,114.6498947,https://maps.google.com/?cid=0x0:0x326debc7288c2d43,
toko bangunan,Toko Bahan Bangunan,Toko Bangunan Rahman,"JJJF+MJ9, Jl. Katulampo, Loloan Bar., Kec. Negara, Kabupaten Jembrana, Bali 82218","Jl. Katulampo, Loloan Bar., Kec. Negara, Kabupaten Jembrana",BALI,82218.0,Indonesia,81216317473.0,,,-8.3683256,114.6240977,https://maps.google.com/?cid=0x0:0x72a00c0e81996fdc,
toko bangunan,Toko Bahan Bangunan,Mitra Pandawa Bahan Bangunan,"MJ2C+M9H, Jl. Plawa GANG KASTURI III, Baler Bale Agung, Kec. Negara, Kabupaten Jembrana, Bali 82218","Jl. Plawa GANG KASTURI III, Baler Bale Agung, Kec. Negara, Kabupaten Jembrana",BALI,82218.0,Indonesia,82119975875.0,,,-8.3483171,114.62098,https://maps.google.com/?cid=0x0:0x6a8f15bd5628e7e6,
toko bangunan,Toko Bahan Bangunan,Toko Rejeki,"JJQC+JXF, Jl. D.Kalimutu, Loloan Bar., Kec. Negara, Kabupaten Jembrana, Bali 82218","Jl. D.Kalimutu, Loloan Bar., Kec. Negara, Kabupaten Jembrana",BALI,82218.0,Indonesia,81338277368.0,,,-8.3609327,114.6224121,https://maps.google.com/?cid=0x0:0x8cc120678fe8e978,
toko bangunan,Toko Bahan Bangunan,Adi purnama2,"JJ9M+XH4, Budeng, Kec. Jembrana, Kabupaten Jembrana, Bali 82218","Budeng, Kec. Jembrana, Kabupaten Jembrana",BALI,82218.0,Indonesia,87860820917.0,,,-8.3801129,114.6339449,https://maps.google.com/?cid=0x0:0x44c3280528e8de56,
toko bangunan,Toko Bahan Bangunan,Ud. Budi Jaya,"JJXV+CWH, Jl. Patih Jelantik, Batuagung, Kec. Jembrana, Kabupaten Jembrana, Bali 82218","Jl. Patih Jelantik, Batuagung, Kec. Jembrana, Kabupaten Jembrana",BALI,82218.0,Indonesia,81239164799.0,,,-8.3514411,114.6448692,https://maps.google.com/?cid=0x0:0xa4c5d3afc0bc1a57,
toko bangunan,Toko bahan makanan,Toko Bangunan Sari Buana,"GVWV+QC3, Pengeragoan, Kec. Pekutatan, Kabupaten Jembrana, Bali","Kabupaten Jembrana, Bali",BALI,,Indonesia,8179585858.0,,,-8.4531003,114.8935319,https://maps.google.com/?cid=0x0:0xef530488580adab7,
toko bangunan,Toko Perlengkapan Rumah,Toko Bangunan UD. Jaya Utama,"MJ45+CR9, Jl. Matahari, Kaliakah, Kec. Negara, Kabupaten Jembrana, Bali 82212","Jl. Matahari, Kaliakah, Kec. Negara, Kabupaten Jembrana",BALI,82212.0,Indonesia,85769908768.0,,,-8.34395,114.6096171,https://maps.google.com/?cid=0x0:0x493afed83216ac79,
toko bangunan,Toko Bahan Bangunan,TOKO BANGUNAN HALIM,"HJXX+4M4, Air Kuning, Kec. Jembrana, Kabupaten Jembrana, Bali","Kabupaten Jembrana, Bali",BALI,,Indonesia,81337615342.0,,,-8.4022466,114.6492173,https://maps.google.com/?cid=0x0:0xa99b0f83a250165a,
toko bangunan,Toko Bahan Bangunan,UD. Sari Agung ᬉᬤ᭄᭟ᬲᬭᬶᬅᬕᬸᬂ᭟,"JJW4+F52, Jl. Raya Denpasar - Gilimanuk, Kaliakah, Kec. Negara, Kabupaten Jembrana, Bali 82212","Jl. Raya Denpasar - Gilimanuk, Kaliakah, Kec. Negara, Kabupaten Jembrana",BALI,82212.0,Indonesia,87863166405.0,,,-8.3538586,114.6053852,https://maps.google.com/?cid=0x0:0x602a4991b974c916,
toko bangunan,Toko Bahan Bangunan,Toko Serba Ada,"MJ77+5VC, Jl. Desa Berangbang, Berangbang, Kec. Negara, Kabupaten Jembrana, Bali 82218","Jl. Desa Berangbang, Berangbang, Kec. Negara, Kabupaten Jembrana",BALI,82218.0,Indonesia,85769908768.0,,,-8.3370697,114.6146488,https://maps.google.com/?cid=0x0:0x772fd6c88dcb3ec8,
toko bangunan,toko bangunan,Jembrana,"Kec. Jembrana, Kabupaten Jembrana, Bali","Kabupaten Jembrana, Bali",BALI,,Indonesia,,,,-8.3605987,114.6256578,https://maps.google.com/?cid=0x0:0xd668745c2713a1d7,
toko bangunan,Toko Perlengkapan Rumah,Toko Bangunan Kawi Jaya,"Jl. Pahlawan, Pendem, Kec. Negara, Kabupaten Jembrana, Bali 82218","Pendem, Kec. Negara, Kabupaten Jembrana",BALI,82218.0,Indonesia,36541288.0,,,-8.3580215,114.6256185,https://maps.google.com/?cid=0x0:0x9bbe88362e356a5e,
toko bangunan,Toko Bahan Bangunan,"Toko Gunung Mas Bangunan Jembrana, Negara","Jl. Pahlawan No.32, Pendem, Kec. Negara, Kabupaten Jembrana, Bali 82211","Pendem, Kec. Negara, Kabupaten Jembrana",BALI,82211.0,Indonesia,81246101924.0,,,-8.3584976,114.6255645,https://maps.google.com/?cid=0x0:0x136df2e41fbe9aba,
toko bangunan,Toko Bahan Bangunan,Kawi Graha Bangunan,"Jl. Sudirman No.18, Pendem, Kec. Jembrana, Kabupaten Jembrana, Bali 82211","Pendem, Kec. Jembrana, Kabupaten Jembrana",BALI,82211.0,Indonesia,81802072099.0,,,-8.3577299,114.6285171,https://maps.google.com/?cid=0x0:0x2fd68f13e2d4321b,
toko bangunan,Toko Bahan Bangunan,Toko bahan bangunan Made Profil,"Jl. Jenderal Sudirman, Dauhwaru, Kec. Jembrana, Kabupaten Jembrana, Bali 82218","Dauhwaru, Kec. Jembrana, Kabupaten Jembrana",BALI,82218.0,Indonesia,81999217209.0,,,-8.3537064,114.6283217,https://maps.google.com/?cid=0x0:0xcf4db8ddc234fe8d,
toko bangunan,Toko Bahan Bangunan,Toko Krishna Jaya ᬢᭀᬓᭀᬓ᭄ᬭᬶᬲ᭄ᬳ᭄ᬦᬚᬬ᭟,"Jl. Gajah Mada No.77, Dangin Tukadaya, Kec. Jembrana, Kabupaten Jembrana, Bali 82218","Dangin Tukadaya, Kec. Jembrana, Kabupaten Jembrana",BALI,82218.0,Indonesia,81915602527.0,,,-8.3634895,114.651824,https://maps.google.com/?cid=0x0:0x4ddd9247029ba61c,
toko bangunan,Toko,Toko Bangunan Ayodya,"Jl. Nakula, Banjar Tengah, Kec. Negara, Kabupaten Jembrana, Bali 82218","Banjar Tengah, Kec. Negara, Kabupaten Jembrana",BALI,82218.0,Indonesia,87762950666.0,,,-8.3584539,114.6115027,https://maps.google.com/?cid=0x0:0x9495feffb3ee4f8e,
toko bangunan,Toko Bahan Bangunan,Toko Bangunan Rahman,"JJJF+MJ9, Jl. Katulampo, Loloan Bar., Kec. Negara, Kabupaten Jembrana, Bali 82218","Jl. Katulampo, Loloan Bar., Kec. Negara, Kabupaten Jembrana",BALI,82218.0,Indonesia,81216317473.0,,,-8.3683256,114.6240977,https://maps.google.com/?cid=0x0:0x72a00c0e81996fdc,
toko bangunan,Toko Bahan Bangunan,Toko Bangunan Cantika Arta ᬢᭀᬓᭀᬩᬗᬸᬦᬦ᭄ᬘᬦ᭄ᬢᬶᬓᬅᬃᬢ᭟,"JJR7+CHQ, Jl. Yudistira, Banjar Tengah, Kec. Negara, Kabupaten Jembrana, Bali 82218","Jl. Yudistira, Banjar Tengah, Kec. Negara, Kabupaten Jembrana",BALI,82218.0,Indonesia,87861514275.0,,,-8.35892,114.6139893,https://maps.google.com/?cid=0x0:0xc2b5db50a01118d9,
toko bangunan,Toko Bahan Bangunan,Toko Mega,"JJQG+M8X, Jl. Ngurah Rai, Loloan Tim., Kec. Negara, Kabupaten Jembrana, Bali 82218","Jl. Ngurah Rai, Loloan Tim., Kec. Negara, Kabupaten Jembrana",BALI,82218.0,Indonesia,36541181.0,,,-8.3607674,114.6258583,https://maps.google.com/?cid=0x0:0x5e71775d5ff9b401,
toko bangunan,Toko Bahan Bangunan,Toko Bangunan Restu Ibu,"JJJ5+4HM, Jl. Danau Batur, Lelateng, Kec. Negara, Kabupaten Jembrana, Bali 82218","Jl. Danau Batur, Lelateng, Kec. Negara, Kabupaten Jembrana",BALI,82218.0,Indonesia,85338438739.0,,,-8.3696654,114.6089209,https://maps.google.com/?cid=0x0:0x7fc2029ef6259bd9,
toko bangunan,Toko Bahan Bangunan,Toko Bangunan Ayodya 2,"Jl. Danau Beratan, Lelateng, Kec. Negara, Kabupaten Jembrana, Bali 82218","Lelateng, Kec. Negara, Kabupaten Jembrana",BALI,82218.0,Indonesia,81916196331.0,,,-8.3643096,114.6164607,https://maps.google.com/?cid=0x0:0x609dd95bc51e9b05,
toko bangunan,Toko Kaca,Pandawa Alumunium,"MJ2C+MC8, Jl. Plawa, Baler Bale Agung, Kec. Negara, Kabupaten Jembrana, Bali 82218","Jl. Plawa, Baler Bale Agung, Kec. Negara, Kabupaten Jembrana",BALI,82218.0,Indonesia,3654546201.0,,,-8.3483288,114.6210745,https://maps.google.com/?cid=0x0:0xb6b4e51d5c87301f,
toko bangunan,Toko Bahan Bangunan,Ud. Budi Jaya,"JJXV+CWH, Jl. Patih Jelantik, Batuagung, Kec. Jembrana, Kabupaten Jembrana, Bali 82218","Jl. Patih Jelantik, Batuagung, Kec. Jembrana, Kabupaten Jembrana",BALI,82218.0,Indonesia,81239164799.0,,,-8.3514411,114.6448692,https://maps.google.com/?cid=0x0:0xa4c5d3afc0bc1a57,
toko bangunan,Toko Bahan Bangunan,Toko Sumber Untung,"JJQH+R64, Jl. Ngurah Rai, Pendem, Kec. Jembrana, Kabupaten Jembrana, Bali 82218","Jl. Ngurah Rai, Pendem, Kec. Jembrana, Kabupaten Jembrana",BALI,82218.0,Indonesia,81916371747.0,,,-8.3604966,114.6280772,https://maps.google.com/?cid=0x0:0x645d5fd6b8abbbb,
toko bangunan,Toko Bahan Bangunan,UD. SRI SEDANA,"MJ29+RQC, Jl. Plawa, Baler Bale Agung, Kec. Negara, Kabupaten Jembrana, Bali 82218","Jl. Plawa, Baler Bale Agung, Kec. Negara, Kabupaten Jembrana",BALI,82218.0,Indonesia,81805387174.0,,,-8.3479387,114.6194061,https://maps.google.com/?cid=0x0:0xe8d222383f7147cc,
toko bangunan,Pemasok Bahan Bangunan,UD. Hady,"JJPP+5QM, Jl. Pulau Batam, Dauhwaru, Kec. Negara, Kabupaten Jembrana, Bali 82218","Jl. Pulau Batam, Dauhwaru, Kec. Negara, Kabupaten Jembrana",BALI,82218.0,Indonesia,36543194.0,,,-8.3645339,114.6369324,https://maps.google.com/?cid=0x0:0xf12da29f40315300,
toko bangunan,Toko Bahan Bangunan,Toko Rejeki,"JJQC+JXF, Jl. D.Kalimutu, Loloan Bar., Kec. Negara, Kabupaten Jembrana, Bali 82218","Jl. D.Kalimutu, Loloan Bar., Kec. Negara, Kabupaten Jembrana",BALI,82218.0,Indonesia,81338277368.0,,,-8.3609327,114.6224121,https://maps.google.com/?cid=0x0:0x8cc120678fe8e978,
toko bangunan,Toko Bahan Bangunan,Toko Megah Sari,"Jl. Jenderal Sudirman No.24, Pendem, Kec. Negara, Kabupaten Jembrana, Bali 82218","Pendem, Kec. Negara, Kabupaten Jembrana",BALI,82218.0,Indonesia,87852764455.0,,,-8.3578441,114.6307255,https://maps.google.com/?cid=0x0:0xdf8eea5ac5361e71,
toko bangunan,Toko Bahan Bangunan,Toko Sinar Maju Jaya,"Jl. Ngurah Rai No.195, Dauhwaru, Kec. Negara, Kabupaten Jembrana, Bali 82217","Dauhwaru, Kec. Negara, Kabupaten Jembrana",BALI,82217.0,Indonesia,36540141.0,,,-8.3614101,114.6408692,https://maps.google.com/?cid=0x0:0xc3a97d6702b8eea9,
toko bangunan,Toko Bahan Bangunan,Toko Serba Ada,"MJ77+5VC, Jl. Desa Berangbang, Berangbang, Kec. Negara, Kabupaten Jembrana, Bali 82218","Jl. Desa Berangbang, Berangbang, Kec. Negara, Kabupaten Jembrana",BALI,82218.0,Indonesia,85769908768.0,,,-8.3370697,114.6146488,https://maps.google.com/?cid=0x0:0x772fd6c88dcb3ec8,
toko bangunan,Toko Bahan Bangunan,Toko Bangunan Arta Wiguna,"MHGW+PC8, Unnamed Road, Kaliakah, Kec. Negara, Kabupaten Jembrana, Bali 82218","Unnamed Road, Kaliakah, Kec. Negara, Kabupaten Jembrana",BALI,82218.0,Indonesia,87861432008.0,,,-8.3232202,114.5960883,https://maps.google.com/?cid=0x0:0xe67b3b3048e1c3fb,
toko bangunan,toko bangunan,Bali 82252,"Kec. Melaya, Kabupaten Jembrana, Bali","Kabupaten Jembrana, Bali",BALI,,Indonesia,,,,-8.2331562,114.5005038,https://maps.google.com/?cid=0x0:0x1c00c5eb6016c2f0,
toko bangunan,Toko Bahan Bangunan,UD Kria Bhakti,"PGHJ+M52, Ekasari, Kec. Melaya, Kabupaten Jembrana, Bali 82252","Ekasari, Kec. Melaya, Kabupaten Jembrana",BALI,82252.0,Indonesia,87863040504.0,,,-8.2708625,114.5303818,https://maps.google.com/?cid=0x0:0x1913eb98fae667b8,
toko bangunan,Toko Bahan Bangunan,Toko Sentral Muda,"PGW6+778, Jalan Pangkung Tanah, Melaya, Kec. Melaya, Kabupaten Jembrana, Bali 82252","Jalan Pangkung Tanah, Melaya, Kec. Melaya, Kabupaten Jembrana",BALI,82252.0,Indonesia,81338404513.0,,,-8.2543404,114.5107102,https://maps.google.com/?cid=0x0:0x6c830716b97ced16,
toko bangunan,Toko Bahan Bangunan,TB. Budi Muliya,"RCGM+4VQ, Gg. 4, Gilimanuk, Kec. Melaya, Kabupaten Jembrana, Bali 82252","Gg. 4, Gilimanuk, Kec. Melaya, Kabupaten Jembrana",BALI,82252.0,Indonesia,81339624107.0,,,-8.1746506,114.4347322,https://maps.google.com/?cid=0x0:0xccaaf8e781f4baa5,
toko bangunan,Toko Bahan Bangunan,Toko Sari Pertiwi,"Unnamed Road, Tukadaya, Kec. Melaya, Kabupaten Jembrana, Bali 82252","Tukadaya, Kec. Melaya, Kabupaten Jembrana",BALI,82252.0,Indonesia,,,,-8.3177839,114.5549694,https://maps.google.com/?cid=0x0:0x48cad2d7c21c320,
toko bangunan,Toko Bahan Bangunan,UD. Karya Jaya,"Jl. Banjar Katulampa, Manistutu, Kec. Melaya, Kabupaten Jembrana, Bali 82252","Manistutu, Kec. Melaya, Kabupaten Jembrana",BALI,82252.0,Indonesia,85739270946.0,,,-8.3190907,114.5723979,https://maps.google.com/?cid=0x0:0x5a36701c5c26e4ed,
toko bangunan,Toko Bahan Bangunan,Artadi Bangunan,"PG6Q+V52, Banjar moding Kaja, Candikusuma, Kec. Melaya, Kabupaten Jembrana, Bali 82252","Banjar moding Kaja, Candikusuma, Kec. Melaya, Kabupaten Jembrana",BALI,82252.0,Indonesia,82281040470.0,,,-8.2878565,114.5379017,https://maps.google.com/?cid=0x0:0xafa654e4d579a3a8,
toko bangunan,Toko Bahan Bangunan,TB. Barat Jaya,"RCGP+625, Jl. Sadar, Gilimanuk, Kec. Melaya, Kabupaten Jembrana, Bali 82252","Jl. Sadar, Gilimanuk, Kec. Melaya, Kabupaten Jembrana",BALI,82252.0,Indonesia,82141501750.0,,,-8.1744923,114.4350987,https://maps.google.com/?cid=0x0:0xba4fb98897b22bb3,
toko bangunan,Toko Bahan Bangunan,UD. Sari Sedana,"PGF2+436, Jl. Raya Denpasar - Gilimanuk, Gilimanuk, Kec. Melaya, Kabupaten Jembrana, Bali 82252","Jl. Raya Denpasar - Gilimanuk, Gilimanuk, Kec. Melaya, Kabupaten Jembrana",BALI,82252.0,Indonesia,81337468814.0,,,-8.277204,114.5001328,https://maps.google.com/?cid=0x0:0x1311b004d52748e4,
toko bangunan,Toko Bahan Bangunan,UD Karya Mandiri,"MGXJ+6PV, Candikusuma, Kec. Melaya, Kabupaten Jembrana, Bali 82252","Candikusuma, Kec. Melaya, Kabupaten Jembrana",BALI,82252.0,Indonesia,87734953731.0,,,-8.3018938,114.5318038,https://maps.google.com/?cid=0x0:0x64db860931c64201,
toko bangunan,Toko Bahan Bangunan,UD Mulya Sari,"Unnamed Road, Ekasari, Kec. Melaya, Kabupaten Jembrana, Bali 82252","Ekasari, Kec. Melaya, Kabupaten Jembrana",BALI,82252.0,Indonesia,85738237622.0,,,-8.2708014,114.5302889,https://maps.google.com/?cid=0x0:0x3cf40657b48a4b18,
toko bangunan,Toko Bahan Bangunan,Ud. Pasir Abadi,"MGMH+742, Jl. Raya Denpasar - Gilimanuk, Tuwed, Kec. Melaya, Kabupaten Jembrana, Bali 82252","Jl. Raya Denpasar - Gilimanuk, Tuwed, Kec. Melaya, Kabupaten Jembrana",BALI,82252.0,Indonesia,85237202808.0,,,-8.316852,114.5277549,https://maps.google.com/?cid=0x0:0xa85120d93270dd68,
toko bangunan,Toko bahan makanan,Toko bangunan bahagia,"PFVP+R6G, Jl. Raya Denpasar - Gilimanuk, Melaya, Kec. Melaya, Kabupaten Jembrana, Bali","Kabupaten Jembrana, Bali",BALI,,Indonesia,,,,-8.2554393,114.4855823,https://maps.google.com/?cid=0x0:0xf7e93d471c40d827,
toko bangunan,Toko,UD Bintang Terang,"PGV4+672, Melaya, Kec. Melaya, Kabupaten Jembrana, Bali 82252","Melaya, Kec. Melaya, Kabupaten Jembrana",BALI,82252.0,Indonesia,8161999912.0,,,-8.2569953,114.505635,https://maps.google.com/?cid=0x0:0x6c97c58b2b669231,
toko bangunan,Toko Bahan Bangunan,Toko Wisuda Karya,"RCHP+P92, Gilimanuk, Kec. Melaya, Kabupaten Jembrana, Bali 82252","Gilimanuk, Kec. Melaya, Kabupaten Jembrana",BALI,82252.0,Indonesia,85239284050.0,,,-8.1707446,114.4358778,https://maps.google.com/?cid=0x0:0xf2ae1d78ef649ecd,
toko bangunan,Toko Bahan Bangunan,UD pasir abadi II,"Jl. Raya Denpasar - Gilimanuk, sumbersari, Kec. Melaya, Kabupaten Jembrana, Bali 82252","sumbersari, Kec. Melaya, Kabupaten Jembrana",BALI,82252.0,Indonesia,85930963965.0,,,-8.2501778,114.4773922,https://maps.google.com/?cid=0x0:0xc97c6c95379fe323,
toko bangunan,Toko bahan makanan,UD. Sinar Jaya,"RCCP+527, Gang Paus, Gilimanuk, Kec. Melaya, Kabupaten Jembrana, Bali","Kabupaten Jembrana, Bali",BALI,,Indonesia,8595083905.0,,,-8.1795863,114.4350368,https://maps.google.com/?cid=0x0:0x734e09343ee8743e,
toko bangunan,Toko Bahan Bangunan,"Toko Gunung Mas Bangunan Jembrana, Negara","Jl. Pahlawan No.32, Pendem, Kec. Negara, Kabupaten Jembrana, Bali 82211","Pendem, Kec. Negara, Kabupaten Jembrana",BALI,82211.0,Indonesia,81246101924.0,,,-8.3584976,114.6255645,https://maps.google.com/?cid=0x0:0x136df2e41fbe9aba,
toko bangunan,Toko Bahan Bangunan,Yuri Bangunan,"Jl. Desa Kaliakah Kauh, Kaliakah, Kec. Negara, Kabupaten Jembrana, Bali 82218","Kaliakah, Kec. Negara, Kabupaten Jembrana",BALI,82218.0,Indonesia,,,,-8.3292516,114.5574102,https://maps.google.com/?cid=0x0:0x58f157f4cc38e079,
toko bangunan,Toko Bahan Bangunan,TB. ARTA JAYA,"MHJF+F7R, Katulampa, Manistutu, Kec. Melaya, Kabupaten Jembrana, Bali 82218","Katulampa, Manistutu, Kec. Melaya, Kabupaten Jembrana",BALI,82218.0,Indonesia,,,,-8.3187712,114.5731544,https://maps.google.com/?cid=0x0:0x79e15fbd88c52f25,
toko bangunan,Toko Bahan Bangunan,UD Sura Jaya Bangunan,"MHX5+P7P, Unnamed Road, Tukadaya, Kec. Melaya, Kabupaten Jembrana, Bali 82252","Unnamed Road, Tukadaya, Kec. Melaya, Kabupaten Jembrana",BALI,82252.0,Indonesia,8124645313.0,,,-8.3006651,114.5582121,https://maps.google.com/?cid=0x0:0xfcc30059d505e97c,
toko bangunan,Toko Mebel,CV Karya Jati Mas,"Melaya, Kec. Melaya, Kabupaten Jembrana, Bali 82252","Kec. Melaya, Kabupaten Jembrana",BALI,82252.0,Indonesia,81338317098.0,,,-8.2703621,114.4916284,https://maps.google.com/?cid=0x0:0x455d43747d1ddf9a,
toko bangunan,Toko Bahan Bangunan,TOKO SIMPANG EMPAT,"RCHM+J7P, Gg. 4, Gilimanuk, Kec. Melaya, Kabupaten Jembrana, Bali 82252","Gg. 4, Gilimanuk, Kec. Melaya, Kabupaten Jembrana",BALI,82252.0,Indonesia,,,,-8.1709126,114.4332075,https://maps.google.com/?cid=0x0:0x44439917e05434d9,
toko bangunan,toko bangunan,Bali 82261,"Kec. Mendoyo, Kabupaten Jembrana, Bali","Kabupaten Jembrana, Bali",BALI,,Indonesia,,,,-8.2984574,114.7380385,https://maps.google.com/?cid=0x0:0x1c00c5eb6016c300,
toko bangunan,Toko Bahan Bangunan,UD. Sari Agung,"JMJG+22C, dekat, Bali, Pohsanten, Kec. Mendoyo, Kabupaten Jembrana, Bali 82261","dekat, Bali, Pohsanten, Kec. Mendoyo, Kabupaten Jembrana",BALI,82261.0,Indonesia,81999011148.0,,,-8.3699254,114.6750107,https://maps.google.com/?cid=0x0:0x93af26c323554230,
toko bangunan,Toko Bahan Bangunan,"Toko Gunung Mas Bangunan Jembrana, Negara","Jl. Pahlawan No.32, Pendem, Kec. Negara, Kabupaten Jembrana, Bali 82211","Pendem, Kec. Negara, Kabupaten Jembrana",BALI,82211.0,Indonesia,81246101924.0,,,-8.3584976,114.6255645,https://maps.google.com/?cid=0x0:0x136df2e41fbe9aba,
toko bangunan,Toko Bahan Bangunan,TB. Tunas Putra,"JP76+355, Penyaringan, Kec. Mendoyo, Kabupaten Jembrana, Bali 82261","Penyaringan, Kec. Mendoyo, Kabupaten Jembrana",BALI,82261.0,Indonesia,81338553310.0,,,-8.3873641,114.71047,https://maps.google.com/?cid=0x0:0x41ea6d029ad2d444,
toko bangunan,Toko Bahan Bangunan,Toko bahan bangunan Made Profil,"Jl. Jenderal Sudirman, Dauhwaru, Kec. Jembrana, Kabupaten Jembrana, Bali 82218","Dauhwaru, Kec. Jembrana, Kabupaten Jembrana",BALI,82218.0,Indonesia,81999217209.0,,,-8.3537064,114.6283217,https://maps.google.com/?cid=0x0:0xcf4db8ddc234fe8d,
toko bangunan,Toko Bahan Bangunan,UD.SURYA GEMILANG JEMBRANA,"JMHG+Q7M, Mendoyo Dangin Tukad, Kec. Mendoyo, Kabupaten Jembrana, Bali 82261","Mendoyo Dangin Tukad, Kec. Mendoyo, Kabupaten Jembrana",BALI,82261.0,Indonesia,,,,-8.3705473,114.6756695,https://maps.google.com/?cid=0x0:0x457a0906dab1b52d,
toko bangunan,Toko Bahan Bangunan,Sumber Indah,"Jl. Raya Denpasar - Gilimanuk, Yeh Embang Kauh, Kec. Mendoyo, Kabupaten Jembrana, Bali 82261","Yeh Embang Kauh, Kec. Mendoyo, Kabupaten Jembrana",BALI,82261.0,Indonesia,,,,-8.3911244,114.7519947,https://maps.google.com/?cid=0x0:0x93890fb0d74c2f30,
toko bangunan,Toko Perlengkapan Rumah,Toko Bangunan Kawi Jaya,"Jl. Pahlawan, Pendem, Kec. Negara, Kabupaten Jembrana, Bali 82218","Pendem, Kec. Negara, Kabupaten Jembrana",BALI,82218.0,Indonesia,36541288.0,,,-8.3580215,114.6256185,https://maps.google.com/?cid=0x0:0x9bbe88362e356a5e,
toko bangunan,Toko Bahan Bangunan,UD. JAGRA PUTRA,"Br. Bale Agung, Jl. Raya Denpasar - Gilimanuk, Yeh Embang Kauh, Mendoyo, Jembrana Regency, Bali 82261","Jl. Raya Denpasar - Gilimanuk, Yeh Embang Kauh, Mendoyo, Jembrana Regency",BALI,82261.0,Indonesia,85935010704.0,,,-8.3892516,114.740004,https://maps.google.com/?cid=0x0:0x6bd1c72aa0f20c28,
toko bangunan,Toko Bahan Bangunan,Kawi Graha Bangunan,"Jl. Sudirman No.18, Pendem, Kec. Jembrana, Kabupaten Jembrana, Bali 82211","Pendem, Kec. Jembrana, Kabupaten Jembrana",BALI,82211.0,Indonesia,81802072099.0,,,-8.3577299,114.6285171,https://maps.google.com/?cid=0x0:0x2fd68f13e2d4321b,
toko bangunan,Toko Bahan Bangunan,UD.PRIMATAMA,"JM9X+FGJ, Tegal Cangkring, Kec. Mendoyo, Kabupaten Jembrana, Bali 82261","Tegal Cangkring, Kec. Mendoyo, Kabupaten Jembrana",BALI,82261.0,Indonesia,87755822300.0,,,-8.3812842,114.6987645,https://maps.google.com/?cid=0x0:0xa56421b46d87ec7,
toko bangunan,Toko Bahan Bangunan,Sinar Bangunan,"Jl. Hayam Wuruk No.47, Dangin Tukadaya, Kec. Negara, Kabupaten Jembrana, Bali 82218","Dangin Tukadaya, Kec. Negara, Kabupaten Jembrana",BALI,82218.0,Indonesia,3654545914.0,,,-8.3620314,114.648035,https://maps.google.com/?cid=0x0:0xdf3ea386ff30329e,
toko bangunan,Toko,Toko Bangunan Ayodya,"Jl. Nakula, Banjar Tengah, Kec. Negara, Kabupaten Jembrana, Bali 82218","Banjar Tengah, Kec. Negara, Kabupaten Jembrana",BALI,82218.0,Indonesia,87762950666.0,,,-8.3584539,114.6115027,https://maps.google.com/?cid=0x0:0x9495feffb3ee4f8e,
toko bangunan,Toko Bahan Bangunan,Ud. Sumber Indah 2,"JP6R+CWJ, Jl. Raya Denpasar - Gilimanuk, Yeh Embang Kauh, Kec. Mendoyo, Kabupaten Jembrana, Bali 82261","Jl. Raya Denpasar - Gilimanuk, Yeh Embang Kauh, Kec. Mendoyo, Kabupaten Jembrana",BALI,82261.0,Indonesia,,,,-8.3889169,114.7422471,https://maps.google.com/?cid=0x0:0xe73ce93c1196a4fe,
toko bangunan,Toko Bahan Bangunan,Toko Catar,"JPM3+F3W, Jl. Kartini, Tegal Cangkring, Kec. Mendoyo, Kabupaten Jembrana, Bali 82261","Jl. Kartini, Tegal Cangkring, Kec. Mendoyo, Kabupaten Jembrana",BALI,82261.0,Indonesia,81238121244.0,,,-8.3662515,114.7026944,https://maps.google.com/?cid=0x0:0xe9e1938e3b0f8203,
toko bangunan,Toko Bahan Bangunan,TOKO BANGUNAN,"JMJ9+8XP, Mendoyo Dangin Tukad, Kec. Mendoyo, Kabupaten Jembrana, Bali","Kabupaten Jembrana, Bali",BALI,,Indonesia,,,,-8.3691555,114.669946,https://maps.google.com/?cid=0x0:0x6c23cf2fe969dc26,
toko bangunan,Toko Bahan Bangunan,Toko Krishna Jaya ᬢᭀᬓᭀᬓ᭄ᬭᬶᬲ᭄ᬳ᭄ᬦᬚᬬ᭟,"Jl. Gajah Mada No.77, Dangin Tukadaya, Kec. Jembrana, Kabupaten Jembrana, Bali 82218","Dangin Tukadaya, Kec. Jembrana, Kabupaten Jembrana",BALI,82218.0,Indonesia,81915602527.0,,,-8.3634895,114.651824,https://maps.google.com/?cid=0x0:0x4ddd9247029ba61c,
toko bangunan,Toko Bahan Bangunan,UTAMA KARYA,"JQ65+5VJ Br. Wali, Desa, Yeh Embang, Mendoyo, Jembrana Regency, Bali 82261","Desa, Yeh Embang, Mendoyo, Jembrana Regency",BALI,82261.0,Indonesia,81805575428.0,,,-8.3895445,114.7596528,https://maps.google.com/?cid=0x0:0x6769be6e9cf85910,
toko bangunan,Toko Bahan Bangunan,Ud. Budi Jaya,"JJXV+CWH, Jl. Patih Jelantik, Batuagung, Kec. Jembrana, Kabupaten Jembrana, Bali 82218","Jl. Patih Jelantik, Batuagung, Kec. Jembrana, Kabupaten Jembrana",BALI,82218.0,Indonesia,81239164799.0,,,-8.3514411,114.6448692,https://maps.google.com/?cid=0x0:0xa4c5d3afc0bc1a57,
toko bangunan,Toko,UD. Harapan Jaya,"HQXQ+FPP, Jl. Raya Denpasar - Gilimanuk, Yeh Sumbul, Negara, Kabupaten Jembrana, Bali 82261","Jl. Raya Denpasar - Gilimanuk, Yeh Sumbul, Negara, Kabupaten Jembrana",BALI,82261.0,Indonesia,81936506767.0,,,-8.4012766,114.7893172,https://maps.google.com/?cid=0x0:0xca824dd339cb24dd,
toko bangunan,Toko Bahan Bangunan,Toko Bangunan Rahman,"JJJF+MJ9, Jl. Katulampo, Loloan Bar., Kec. Negara, Kabupaten Jembrana, Bali 82218","Jl. Katulampo, Loloan Bar., Kec. Negara, Kabupaten Jembrana",BALI,82218.0,Indonesia,81216317473.0,,,-8.3683256,114.6240977,https://maps.google.com/?cid=0x0:0x72a00c0e81996fdc,
toko bangunan,Toko Bahan Bangunan,UD. SARI MERTA JAYA,"JPR3+G2R, Tegal Cangkring, Kec. Mendoyo, Kabupaten Jembrana, Bali 82261","Tegal Cangkring, Kec. Mendoyo, Kabupaten Jembrana",BALI,82261.0,Indonesia,8161999912.0,,,-8.358628,114.7025168,https://maps.google.com/?cid=0x0:0x3df17a0f28e24a40,
toko bangunan,toko bangunan,Bali 82212,"Kec. Negara, Kabupaten Jembrana, Bali","Kabupaten Jembrana, Bali",BALI,,Indonesia,,,,-8.2907104,114.6252282,https://maps.google.com/?cid=0x0:0x1c00c5eb6016c270,
toko bangunan,Toko Bahan Bangunan,"Toko Gunung Mas Bangunan Jembrana, Negara","Jl. Pahlawan No.32, Pendem, Kec. Negara, Kabupaten Jembrana, Bali 82211","Pendem, Kec. Negara, Kabupaten Jembrana",BALI,82211.0,Indonesia,81246101924.0,,,-8.3584976,114.6255645,https://maps.google.com/?cid=0x0:0x136df2e41fbe9aba,
toko bangunan,Toko Perlengkapan Rumah,Toko Bangunan Kawi Jaya,"Jl. Pahlawan, Pendem, Kec. Negara, Kabupaten Jembrana, Bali 82218","Pendem, Kec. Negara, Kabupaten Jembrana",BALI,82218.0,Indonesia,36541288.0,,,-8.3580215,114.6256185,https://maps.google.com/?cid=0x0:0x9bbe88362e356a5e,
toko bangunan,Toko Bahan Bangunan,UD. Sari Agung ᬉᬤ᭄᭟ᬲᬭᬶᬅᬕᬸᬂ᭟,"JJW4+F52, Jl. Raya Denpasar - Gilimanuk, Kaliakah, Kec. Negara, Kabupaten Jembrana, Bali 82212","Jl. Raya Denpasar - Gilimanuk, Kaliakah, Kec. Negara, Kabupaten Jembrana",BALI,82212.0,Indonesia,87863166405.0,,,-8.3538586,114.6053852,https://maps.google.com/?cid=0x0:0x602a4991b974c916,
toko bangunan,Toko,Toko Bangunan Ayodya,"Jl. Nakula, Banjar Tengah, Kec. Negara, Kabupaten Jembrana, Bali 82218","Banjar Tengah, Kec. Negara, Kabupaten Jembrana",BALI,82218.0,Indonesia,87762950666.0,,,-8.3584539,114.6115027,https://maps.google.com/?cid=0x0:0x9495feffb3ee4f8e,
toko bangunan,Toko Bahan Bangunan,Kawi Graha Bangunan,"Jl. Sudirman No.18, Pendem, Kec. Jembrana, Kabupaten Jembrana, Bali 82211","Pendem, Kec. Jembrana, Kabupaten Jembrana",BALI,82211.0,Indonesia,81802072099.0,,,-8.3577299,114.6285171,https://maps.google.com/?cid=0x0:0x2fd68f13e2d4321b,
toko bangunan,Toko Bahan Bangunan,Toko Bangunan Cantika Arta ᬢᭀᬓᭀᬩᬗᬸᬦᬦ᭄ᬘᬦ᭄ᬢᬶᬓᬅᬃᬢ᭟,"JJR7+CHQ, Jl. Yudistira, Banjar Tengah, Kec. Negara, Kabupaten Jembrana, Bali 82218","Jl. Yudistira, Banjar Tengah, Kec. Negara, Kabupaten Jembrana",BALI,82218.0,Indonesia,87861514275.0,,,-8.35892,114.6139893,https://maps.google.com/?cid=0x0:0xc2b5db50a01118d9,
toko bangunan,Toko Kaca,Pandawa Alumunium,"MJ2C+MC8, Jl. Plawa, Baler Bale Agung, Kec. Negara, Kabupaten Jembrana, Bali 82218","Jl. Plawa, Baler Bale Agung, Kec. Negara, Kabupaten Jembrana",BALI,82218.0,Indonesia,3654546201.0,,,-8.3483288,114.6210745,https://maps.google.com/?cid=0x0:0xb6b4e51d5c87301f,
toko bangunan,Toko,Toko Gunung Sari,"MJ87+WCX, Jalan, Berambang, Negara, Jembrana Regency, Bali 82218","Jalan, Berambang, Negara, Jembrana Regency",BALI,82218.0,Indonesia,87824250997.0,,,-8.3326255,114.6136069,https://maps.google.com/?cid=0x0:0x3d14bb67a3738ece,
toko bangunan,Toko Bahan Bangunan,Toko Bangunan Arta Wiguna,"MHGW+PC8, Unnamed Road, Kaliakah, Kec. Negara, Kabupaten Jembrana, Bali 82218","Unnamed Road, Kaliakah, Kec. Negara, Kabupaten Jembrana",BALI,82218.0,Indonesia,87861432008.0,,,-8.3232202,114.5960883,https://maps.google.com/?cid=0x0:0xe67b3b3048e1c3fb,
toko bangunan,Toko Bahan Bangunan,UD. HARAPAN JAYA (Toko Besi),"Jl. Udayana No.61b, Kaliakah, Kec. Negara, Kabupaten Jembrana, Bali 82212","Kaliakah, Kec. Negara, Kabupaten Jembrana",BALI,82212.0,Indonesia,81239351289.0,,,-8.3542308,114.607479,https://maps.google.com/?cid=0x0:0x5c8dcd63ea264d3,
toko bangunan,Toko Kayu,UD.Mekar Jaya,"Jl. Udayana No.61b, Kaliakah, Kec. Negara, Kabupaten Jembrana, Bali 82212","Kaliakah, Kec. Negara, Kabupaten Jembrana",BALI,82212.0,Indonesia,87862028210.0,,,-8.3542308,114.607479,https://maps.google.com/?cid=0x0:0x6cc0a9851ee3e77e,
toko bangunan,Toko Bahan Bangunan,Toko Serba Ada,"MJ77+5VC, Jl. Desa Berangbang, Berangbang, Kec. Negara, Kabupaten Jembrana, Bali 82218","Jl. Desa Berangbang, Berangbang, Kec. Negara, Kabupaten Jembrana",BALI,82218.0,Indonesia,85769908768.0,,,-8.3370697,114.6146488,https://maps.google.com/?cid=0x0:0x772fd6c88dcb3ec8,
toko bangunan,Toko Bahan Bangunan,UD. SRI SEDANA,"MJ29+RQC, Jl. Plawa, Baler Bale Agung, Kec. Negara, Kabupaten Jembrana, Bali 82218","Jl. Plawa, Baler Bale Agung, Kec. Negara, Kabupaten Jembrana",BALI,82218.0,Indonesia,81805387174.0,,,-8.3479387,114.6194061,https://maps.google.com/?cid=0x0:0xe8d222383f7147cc,
toko bangunan,Toko Bahan Bangunan,Toko Besi NR,"JJX7+HVR, Jl. Sandat, Baler Bale Agung, Kec. Negara, Kabupaten Jembrana, Bali 82218","Jl. Sandat, Baler Bale Agung, Kec. Negara, Kabupaten Jembrana",BALI,82218.0,Indonesia,,,,-8.3510248,114.6146298,https://maps.google.com/?cid=0x0:0xf1f7b30bcc0d65ba,
toko bangunan,Toko Bahan Bangunan,Sinar Bangunan,"Jl. Hayam Wuruk No.47, Dangin Tukadaya, Kec. Negara, Kabupaten Jembrana, Bali 82218","Dangin Tukadaya, Kec. Negara, Kabupaten Jembrana",BALI,82218.0,Indonesia,3654545914.0,,,-8.3620314,114.648035,https://maps.google.com/?cid=0x0:0xdf3ea386ff30329e,
toko bangunan,Toko Bahan Bangunan,Toko Tri Sakti Bahan Bangunan Desa Baluk,"Jl. Yudistira No.1, Baluk, Kec. Negara, Kabupaten Jembrana, Bali 82213","Baluk, Kec. Negara, Kabupaten Jembrana",BALI,82213.0,Indonesia,85931371499.0,,,-8.3593423,114.6012129,https://maps.google.com/?cid=0x0:0x81413743b340346f,
toko bangunan,Toko Bahan Bangunan,BAHAN BANGUNAN UD. SARI PUTRA BIRAWA,"Jl. Dahlia, Lingkungan Kebon, Baler Bale Agung, Kec. Negara, Kabupaten Jembrana, Bali 82212","Lingkungan Kebon, Baler Bale Agung, Kec. Negara, Kabupaten Jembrana",BALI,82212.0,Indonesia,87761510141.0,,,-8.3451664,114.6238024,https://maps.google.com/?cid=0x0:0x63f758d894d62ab1,
toko bangunan,Toko Bahan Bangunan,Toko Bangunan UD. Ayodya 3,"Jl. Arjuna, Baluk, Kec. Negara, Kabupaten Jembrana, Bali 82218","Baluk, Kec. Negara, Kabupaten Jembrana",BALI,82218.0,Indonesia,82342445312.0,,,-8.359331,114.5819062,https://maps.google.com/?cid=0x0:0xcd7fc34dc66b3c9c,
toko bangunan,Toko Perlengkapan Rumah,UD. Jaya Lestari,"Jl. Plawa, Baler Bale Agung, Kec. Negara, Kabupaten Jembrana, Bali 82218","Baler Bale Agung, Kec. Negara, Kabupaten Jembrana",BALI,82218.0,Indonesia,87716303078.0,,,-8.3486785,114.6231178,https://maps.google.com/?cid=0x0:0x98391ea49f78fff,
toko bangunan,Toko Bahan Bangunan,Toko Bangunan Rahman,"JJJF+MJ9, Jl. Katulampo, Loloan Bar., Kec. Negara, Kabupaten Jembrana, Bali 82218","Jl. Katulampo, Loloan Bar., Kec. Negara, Kabupaten Jembrana",BALI,82218.0,Indonesia,81216317473.0,,,-8.3683256,114.6240977,https://maps.google.com/?cid=0x0:0x72a00c0e81996fdc,
toko bangunan,Toko Bahan Bangunan,UD. Lalut Perdana,"MJ87+3MM, Jalan, Berangbang, Negara, Jembrana Regency, Bali 82212","Jalan, Berangbang, Negara, Jembrana Regency",BALI,82212.0,Indonesia,,,,-8.3347826,114.6141754,https://maps.google.com/?cid=0x0:0xcc1a7857b745b168,
toko bangunan,Toko Bahan Bangunan,Toko Sentral Muda,"PGW6+778, Jalan Pangkung Tanah, Melaya, Kec. Melaya, Kabupaten Jembrana, Bali 82252","Jalan Pangkung Tanah, Melaya, Kec. Melaya, Kabupaten Jembrana",BALI,82252.0,Indonesia,81338404513.0,,,-8.2543404,114.5107102,https://maps.google.com/?cid=0x0:0x6c830716b97ced16,
toko bangunan,Toko,Ud.Sari Pradnyan,"MJFF+2J5, Jl. Banjar Pangkung Manggis, Ling, Baler Bale Agung, Kec. Negara, Kabupaten Jembrana, Bali 82212","Jl. Banjar Pangkung Manggis, Ling, Baler Bale Agung, Kec. Negara, Kabupaten Jembrana",BALI,82212.0,Indonesia,87863051659.0,,,-8.3274798,114.6240977,https://maps.google.com/?cid=0x0:0x8c78e216fa7360f4,
toko bangunan,Toko Bahan Bangunan,CV. MITRA INDOBAJA,"Jl. Udayana, Banyu Biru, Kec. Negara, Kabupaten Jembrana, Bali 82212","Banyu Biru, Kec. Negara, Kabupaten Jembrana",BALI,82212.0,Indonesia,82266604828.0,,,-8.3515665,114.6000365,https://maps.google.com/?cid=0x0:0x70ea7062b73e032c,
toko bangunan,Toko Bahan Bangunan,TOKO BANGUNAN HALIM,"HJXX+4M4, Air Kuning, Kec. Jembrana, Kabupaten Jembrana, Bali","Kabupaten Jembrana, Bali",BALI,,Indonesia,81337615342.0,,,-8.4022466,114.6492173,https://maps.google.com/?cid=0x0:0xa99b0f83a250165a,
toko bangunan,Toko Bahan Bangunan,Toko Anda,"Jl. D.Kalimutu, Loloan Bar., Kec. Negara, Kabupaten Jembrana, Bali 82218","Loloan Bar., Kec. Negara, Kabupaten Jembrana",BALI,82218.0,Indonesia,8990177047.0,,,-8.362257,114.6223119,https://maps.google.com/?cid=0x0:0xe27a45f547071487,
toko bangunan,Toko bahan makanan,Toko Bangunan Sari Buana,"GVWV+QC3, Pengeragoan, Kec. Pekutatan, Kabupaten Jembrana, Bali","Kabupaten Jembrana, Bali",BALI,,Indonesia,8179585858.0,,,-8.4531003,114.8935319,https://maps.google.com/?cid=0x0:0xef530488580adab7,
toko bangunan,toko bangunan,Bali 82213,"Kabupaten Jembrana, Bali","Kabupaten Jembrana, Bali",BALI,,Indonesia,,,,-8.2534286,114.6549185,https://maps.google.com/?cid=0x0:0x1c00c5eb6016c280,
toko bangunan,Toko Bahan Bangunan,"Toko Gunung Mas Bangunan Jembrana, Negara","Jl. Pahlawan No.32, Pendem, Kec. Negara, Kabupaten Jembrana, Bali 82211","Pendem, Kec. Negara, Kabupaten Jembrana",BALI,82211.0,Indonesia,81246101924.0,,,-8.3584976,114.6255645,https://maps.google.com/?cid=0x0:0x136df2e41fbe9aba,
toko bangunan,Toko Perlengkapan Rumah,Toko Bangunan Kawi Jaya,"Jl. Pahlawan, Pendem, Kec. Negara, Kabupaten Jembrana, Bali 82218","Pendem, Kec. Negara, Kabupaten Jembrana",BALI,82218.0,Indonesia,36541288.0,,,-8.3580215,114.6256185,https://maps.google.com/?cid=0x0:0x9bbe88362e356a5e,
toko bangunan,Toko Bahan Bangunan,Toko Bangunan Cantika Arta ᬢᭀᬓᭀᬩᬗᬸᬦᬦ᭄ᬘᬦ᭄ᬢᬶᬓᬅᬃᬢ᭟,"JJR7+CHQ, Jl. Yudistira, Banjar Tengah, Kec. Negara, Kabupaten Jembrana, Bali 82218","Jl. Yudistira, Banjar Tengah, Kec. Negara, Kabupaten Jembrana",BALI,82218.0,Indonesia,87861514275.0,,,-8.35892,114.6139893,https://maps.google.com/?cid=0x0:0xc2b5db50a01118d9,
toko bangunan,Toko Bahan Bangunan,Toko Bangunan UD. Ayodya 3,"Jl. Arjuna, Baluk, Kec. Negara, Kabupaten Jembrana, Bali 82218","Baluk, Kec. Negara, Kabupaten Jembrana",BALI,82218.0,Indonesia,82342445312.0,,,-8.359331,114.5819062,https://maps.google.com/?cid=0x0:0xcd7fc34dc66b3c9c,
toko bangunan,Toko Bahan Bangunan,Toko Bangunan Ayodya 2,"Jl. Danau Beratan, Lelateng, Kec. Negara, Kabupaten Jembrana, Bali 82218","Lelateng, Kec. Negara, Kabupaten Jembrana",BALI,82218.0,Indonesia,81916196331.0,,,-8.3643096,114.6164607,https://maps.google.com/?cid=0x0:0x609dd95bc51e9b05,
toko bangunan,Toko Bahan Bangunan,Tb. Putra Arya,"JHJM+52M, Jl. Nakula, Tegal Badeng Bar., Kec. Negara, Kabupaten Jembrana, Bali 82218","Jl. Nakula, Tegal Badeng Bar., Kec. Negara, Kabupaten Jembrana",BALI,82218.0,Indonesia,87863266558.0,,,-8.3695408,114.582553,https://maps.google.com/?cid=0x0:0x565911879502fdc0,
toko bangunan,Toko Perlengkapan Rumah,Toko Bangunan UD. Jaya Utama,"MJ45+CR9, Jl. Matahari, Kaliakah, Kec. Negara, Kabupaten Jembrana, Bali 82212","Jl. Matahari, Kaliakah, Kec. Negara, Kabupaten Jembrana",BALI,82212.0,Indonesia,85769908768.0,,,-8.34395,114.6096171,https://maps.google.com/?cid=0x0:0x493afed83216ac79,
toko bangunan,Toko Bahan Bangunan,Toko Tri Sakti Bahan Bangunan Desa Baluk,"Jl. Yudistira No.1, Baluk, Kec. Negara, Kabupaten Jembrana, Bali 82213","Baluk, Kec. Negara, Kabupaten Jembrana",BALI,82213.0,Indonesia,85931371499.0,,,-8.3593423,114.6012129,https://maps.google.com/?cid=0x0:0x81413743b340346f,
toko bangunan,Toko Bahan Bangunan,Toko Bangunan Restu Ibu,"JJJ5+4HM, Jl. Danau Batur, Lelateng, Kec. Negara, Kabupaten Jembrana, Bali 82218","Jl. Danau Batur, Lelateng, Kec. Negara, Kabupaten Jembrana",BALI,82218.0,Indonesia,85338438739.0,,,-8.3696654,114.6089209,https://maps.google.com/?cid=0x0:0x7fc2029ef6259bd9,
toko bangunan,Toko Bahan Bangunan,Kawi Graha Bangunan,"Jl. Sudirman No.18, Pendem, Kec. Jembrana, Kabupaten Jembrana, Bali 82211","Pendem, Kec. Jembrana, Kabupaten Jembrana",BALI,82211.0,Indonesia,81802072099.0,,,-8.3577299,114.6285171,https://maps.google.com/?cid=0x0:0x2fd68f13e2d4321b,
toko bangunan,Toko Kaca,Pandawa Alumunium,"MJ2C+MC8, Jl. Plawa, Baler Bale Agung, Kec. Negara, Kabupaten Jembrana, Bali 82218","Jl. Plawa, Baler Bale Agung, Kec. Negara, Kabupaten Jembrana",BALI,82218.0,Indonesia,3654546201.0,,,-8.3483288,114.6210745,https://maps.google.com/?cid=0x0:0xb6b4e51d5c87301f,
toko bangunan,Toko Bahan Bangunan,Toko Besi NR,"JJX7+HVR, Jl. Sandat, Baler Bale Agung, Kec. Negara, Kabupaten Jembrana, Bali 82218","Jl. Sandat, Baler Bale Agung, Kec. Negara, Kabupaten Jembrana",BALI,82218.0,Indonesia,,,,-8.3510248,114.6146298,https://maps.google.com/?cid=0x0:0xf1f7b30bcc0d65ba,
toko bangunan,Toko Bahan Bangunan,UD. HARAPAN JAYA (Toko Besi),"Jl. Udayana No.61b, Kaliakah, Kec. Negara, Kabupaten Jembrana, Bali 82212","Kaliakah, Kec. Negara, Kabupaten Jembrana",BALI,82212.0,Indonesia,81239351289.0,,,-8.3542308,114.607479,https://maps.google.com/?cid=0x0:0x5c8dcd63ea264d3,
toko bangunan,Toko Bahan Bangunan,Toko Bangunan Rahman,"JJJF+MJ9, Jl. Katulampo, Loloan Bar., Kec. Negara, Kabupaten Jembrana, Bali 82218","Jl. Katulampo, Loloan Bar., Kec. Negara, Kabupaten Jembrana",BALI,82218.0,Indonesia,81216317473.0,,,-8.3683256,114.6240977,https://maps.google.com/?cid=0x0:0x72a00c0e81996fdc,
toko bangunan,Toko Bahan Bangunan,UD. SRI SEDANA,"MJ29+RQC, Jl. Plawa, Baler Bale Agung, Kec. Negara, Kabupaten Jembrana, Bali 82218","Jl. Plawa, Baler Bale Agung, Kec. Negara, Kabupaten Jembrana",BALI,82218.0,Indonesia,81805387174.0,,,-8.3479387,114.6194061,https://maps.google.com/?cid=0x0:0xe8d222383f7147cc,
toko bangunan,Toko Bahan Bangunan,TB. Putri Bali,"MH3G+3CJ, Jl. Raya Denpasar - Gilimanuk, Kaliakah, Kec. Negara, Kabupaten Jembrana, Bali 82218","Jl. Raya Denpasar - Gilimanuk, Kaliakah, Kec. Negara, Kabupaten Jembrana",BALI,82218.0,Indonesia,81237907564.0,,,-8.3472787,114.5760215,https://maps.google.com/?cid=0x0:0xb81833499663b19b,
toko bangunan,Toko Kayu,UD.Mekar Jaya,"Jl. Udayana No.61b, Kaliakah, Kec. Negara, Kabupaten Jembrana, Bali 82212","Kaliakah, Kec. Negara, Kabupaten Jembrana",BALI,82212.0,Indonesia,87862028210.0,,,-8.3542308,114.607479,https://maps.google.com/?cid=0x0:0x6cc0a9851ee3e77e,
toko bangunan,Toko Bahan Bangunan,UD. MAHA SAPUTRA,"JJJ2+248, Tegal Badeng Tim., Kec. Negara, Kabupaten Jembrana, Bali 82214","Tegal Badeng Tim., Kec. Negara, Kabupaten Jembrana",BALI,82214.0,Indonesia,,,,-8.3699718,114.6003145,https://maps.google.com/?cid=0x0:0x62c0b20c81653519,
toko bangunan,Toko Bahan Bangunan,UD. Sari Agung ᬉᬤ᭄᭟ᬲᬭᬶᬅᬕᬸᬂ᭟,"JJW4+F52, Jl. Raya Denpasar - Gilimanuk, Kaliakah, Kec. Negara, Kabupaten Jembrana, Bali 82212","Jl. Raya Denpasar - Gilimanuk, Kaliakah, Kec. Negara, Kabupaten Jembrana",BALI,82212.0,Indonesia,87863166405.0,,,-8.3538586,114.6053852,https://maps.google.com/?cid=0x0:0x602a4991b974c916,
toko bangunan,Toko Bahan Bangunan,Sinar Bangunan,"Jl. Hayam Wuruk No.47, Dangin Tukadaya, Kec. Negara, Kabupaten Jembrana, Bali 82218","Dangin Tukadaya, Kec. Negara, Kabupaten Jembrana",BALI,82218.0,Indonesia,3654545914.0,,,-8.3620314,114.648035,https://maps.google.com/?cid=0x0:0xdf3ea386ff30329e,
toko bangunan,Toko Perlengkapan Rumah,Toko Bangunan Kawi Jaya,"Jl. Pahlawan, Pendem, Kec. Negara, Kabupaten Jembrana, Bali 82218","Pendem, Kec. Negara, Kabupaten Jembrana",BALI,82218.0,Indonesia,36541288.0,,,-8.3580215,114.6256185,https://maps.google.com/?cid=0x0:0x9bbe88362e356a5e,
toko bangunan,toko bangunan,Bali 82214,"Kec. Negara, Kabupaten Jembrana, Bali","Kabupaten Jembrana, Bali",BALI,,Indonesia,,,,-8.3762569,114.5925663,https://maps.google.com/?cid=0x0:0x1c00c5eb6016c290,
toko bangunan,Toko Bahan Bangunan,"Toko Gunung Mas Bangunan Jembrana, Negara","Jl. Pahlawan No.32, Pendem, Kec. Negara, Kabupaten Jembrana, Bali 82211","Pendem, Kec. Negara, Kabupaten Jembrana",BALI,82211.0,Indonesia,81246101924.0,,,-8.3584976,114.6255645,https://maps.google.com/?cid=0x0:0x136df2e41fbe9aba,
toko bangunan,Toko Bahan Bangunan,Toko Bangunan Cantika Arta ᬢᭀᬓᭀᬩᬗᬸᬦᬦ᭄ᬘᬦ᭄ᬢᬶᬓᬅᬃᬢ᭟,"JJR7+CHQ, Jl. Yudistira, Banjar Tengah, Kec. Negara, Kabupaten Jembrana, Bali 82218","Jl. Yudistira, Banjar Tengah, Kec. Negara, Kabupaten Jembrana",BALI,82218.0,Indonesia,87861514275.0,,,-8.35892,114.6139893,https://maps.google.com/?cid=0x0:0xc2b5db50a01118d9,
toko bangunan,Toko Bahan Bangunan,Toko Bangunan Restu Ibu,"JJJ5+4HM, Jl. Danau Batur, Lelateng, Kec. Negara, Kabupaten Jembrana, Bali 82218","Jl. Danau Batur, Lelateng, Kec. Negara, Kabupaten Jembrana",BALI,82218.0,Indonesia,85338438739.0,,,-8.3696654,114.6089209,https://maps.google.com/?cid=0x0:0x7fc2029ef6259bd9,
toko bangunan,Toko Bahan Bangunan,UD. Sari Agung ᬉᬤ᭄᭟ᬲᬭᬶᬅᬕᬸᬂ᭟,"JJW4+F52, Jl. Raya Denpasar - Gilimanuk, Kaliakah, Kec. Negara, Kabupaten Jembrana, Bali 82212","Jl. Raya Denpasar - Gilimanuk, Kaliakah, Kec. Negara, Kabupaten Jembrana",BALI,82212.0,Indonesia,87863166405.0,,,-8.3538586,114.6053852,https://maps.google.com/?cid=0x0:0x602a4991b974c916,
toko bangunan,Toko Bahan Bangunan,Toko Bangunan Ayodya 2,"Jl. Danau Beratan, Lelateng, Kec. Negara, Kabupaten Jembrana, Bali 82218","Lelateng, Kec. Negara, Kabupaten Jembrana",BALI,82218.0,Indonesia,81916196331.0,,,-8.3643096,114.6164607,https://maps.google.com/?cid=0x0:0x609dd95bc51e9b05,
toko bangunan,Toko Bahan Bangunan,UD. MAHA SAPUTRA,"JJJ2+248, Tegal Badeng Tim., Kec. Negara, Kabupaten Jembrana, Bali 82214","Tegal Badeng Tim., Kec. Negara, Kabupaten Jembrana",BALI,82214.0,Indonesia,,,,-8.3699718,114.6003145,https://maps.google.com/?cid=0x0:0x62c0b20c81653519,
toko bangunan,Toko Bahan Bangunan,Sinar Bangunan,"Jl. Hayam Wuruk No.47, Dangin Tukadaya, Kec. Negara, Kabupaten Jembrana, Bali 82218","Dangin Tukadaya, Kec. Negara, Kabupaten Jembrana",BALI,82218.0,Indonesia,3654545914.0,,,-8.3620314,114.648035,https://maps.google.com/?cid=0x0:0xdf3ea386ff30329e,
toko bangunan,Toko Bahan Bangunan,Kawi Graha Bangunan,"Jl. Sudirman No.18, Pendem, Kec. Jembrana, Kabupaten Jembrana, Bali 82211","Pendem, Kec. Jembrana, Kabupaten Jembrana",BALI,82211.0,Indonesia,81802072099.0,,,-8.3577299,114.6285171,https://maps.google.com/?cid=0x0:0x2fd68f13e2d4321b,
toko bangunan,Toko Bahan Bangunan,Ud. Bangun Jaya,"JH3M+PPX, Jl. Raya Negara-Pengambengan, Pengambengan, Kec. Negara, Kabupaten Jembrana, Bali 82218","Jl. Raya Negara-Pengambengan, Pengambengan, Kec. Negara, Kabupaten Jembrana",BALI,82218.0,Indonesia,85338448617.0,,,-8.3956432,114.5843609,https://maps.google.com/?cid=0x0:0xb7beea076eeef6eb,
toko bangunan,Toko Bahan Bangunan,Toko Tri Sakti Bahan Bangunan Desa Baluk,"Jl. Yudistira No.1, Baluk, Kec. Negara, Kabupaten Jembrana, Bali 82213","Baluk, Kec. Negara, Kabupaten Jembrana",BALI,82213.0,Indonesia,85931371499.0,,,-8.3593423,114.6012129,https://maps.google.com/?cid=0x0:0x81413743b340346f,
toko bangunan,Toko Bahan Bangunan,Toko Bangunan UD. Ayodya 3,"Jl. Arjuna, Baluk, Kec. Negara, Kabupaten Jembrana, Bali 82218","Baluk, Kec. Negara, Kabupaten Jembrana",BALI,82218.0,Indonesia,82342445312.0,,,-8.359331,114.5819062,https://maps.google.com/?cid=0x0:0xcd7fc34dc66b3c9c,
toko bangunan,Minimarket,Tb. Aji Wira Bakti,"JHGX+4J2, Jl. Raya Negara-Pengambengan, Tegal Badeng Tim., Kec. Negara, Kabupaten Jembrana, Bali 82214","Jl. Raya Negara-Pengambengan, Tegal Badeng Tim., Kec. Negara, Kabupaten Jembrana",BALI,82214.0,Indonesia,,,,-8.3747325,114.5990038,https://maps.google.com/?cid=0x0:0x8d507e1a04453b19,
toko bangunan,Toko Bahan Bangunan,Ud. Adi Rahayu,"JHCX+XHX, Jl. Raya Negara-Pengambengan, Lelateng, Kec. Negara, Kabupaten Jembrana, Bali 82214","Jl. Raya Negara-Pengambengan, Lelateng, Kec. Negara, Kabupaten Jembrana",BALI,82214.0,Indonesia,8179731260.0,,,-8.37752,114.5989966,https://maps.google.com/?cid=0x0:0xb49a3f265ff09e3b,
toko bangunan,Toko Bahan Bangunan,Toko Bangunan Rahman,"JJJF+MJ9, Jl. Katulampo, Loloan Bar., Kec. Negara, Kabupaten Jembrana, Bali 82218","Jl. Katulampo, Loloan Bar., Kec. Negara, Kabupaten Jembrana",BALI,82218.0,Indonesia,81216317473.0,,,-8.3683256,114.6240977,https://maps.google.com/?cid=0x0:0x72a00c0e81996fdc,
toko bangunan,Toko Bahan Bangunan,Toko Mega,"JJQG+M8X, Jl. Ngurah Rai, Loloan Tim., Kec. Negara, Kabupaten Jembrana, Bali 82218","Jl. Ngurah Rai, Loloan Tim., Kec. Negara, Kabupaten Jembrana",BALI,82218.0,Indonesia,36541181.0,,,-8.3607674,114.6258583,https://maps.google.com/?cid=0x0:0x5e71775d5ff9b401,
toko bangunan,Toko Bahan Bangunan,MAYMUN ABADI STEEL,"Jl. Danau Tamblingan, Lelateng, Kec. Negara, Kabupaten Jembrana, Bali","Kabupaten Jembrana, Bali",BALI,,Indonesia,,,,-8.3666069,114.6131799,https://maps.google.com/?cid=0x0:0xfc29c1bf54d51a62,
toko bangunan,Toko Perlengkapan Rumah,Toko Bangunan UD. Jaya Utama,"MJ45+CR9, Jl. Matahari, Kaliakah, Kec. Negara, Kabupaten Jembrana, Bali 82212","Jl. Matahari, Kaliakah, Kec. Negara, Kabupaten Jembrana",BALI,82212.0,Indonesia,85769908768.0,,,-8.34395,114.6096171,https://maps.google.com/?cid=0x0:0x493afed83216ac79,
toko bangunan,Toko Bahan Bangunan,BAHAN BANGUNAN UD. SARI PUTRA BIRAWA,"Jl. Dahlia, Lingkungan Kebon, Baler Bale Agung, Kec. Negara, Kabupaten Jembrana, Bali 82212","Lingkungan Kebon, Baler Bale Agung, Kec. Negara, Kabupaten Jembrana",BALI,82212.0,Indonesia,87761510141.0,,,-8.3451664,114.6238024,https://maps.google.com/?cid=0x0:0x63f758d894d62ab1,
toko bangunan,Toko,Toko Gunung Sari,"MJ87+WCX, Jalan, Berambang, Negara, Jembrana Regency, Bali 82218","Jalan, Berambang, Negara, Jembrana Regency",BALI,82218.0,Indonesia,87824250997.0,,,-8.3326255,114.6136069,https://maps.google.com/?cid=0x0:0x3d14bb67a3738ece,
toko bangunan,Toko Bahan Bangunan,UD. HARAPAN JAYA (Toko Besi),"Jl. Udayana No.61b, Kaliakah, Kec. Negara, Kabupaten Jembrana, Bali 82212","Kaliakah, Kec. Negara, Kabupaten Jembrana",BALI,82212.0,Indonesia,81239351289.0,,,-8.3542308,114.607479,https://maps.google.com/?cid=0x0:0x5c8dcd63ea264d3,
toko bangunan,Toko Bahan Bangunan,Toko Besi NR,"JJX7+HVR, Jl. Sandat, Baler Bale Agung, Kec. Negara, Kabupaten Jembrana, Bali 82218","Jl. Sandat, Baler Bale Agung, Kec. Negara, Kabupaten Jembrana",BALI,82218.0,Indonesia,,,,-8.3510248,114.6146298,https://maps.google.com/?cid=0x0:0xf1f7b30bcc0d65ba,
toko bangunan,Toko Bahan Bangunan,Toko Bangunan Arta Wiguna,"MHGW+PC8, Unnamed Road, Kaliakah, Kec. Negara, Kabupaten Jembrana, Bali 82218","Unnamed Road, Kaliakah, Kec. Negara, Kabupaten Jembrana",BALI,82218.0,Indonesia,87861432008.0,,,-8.3232202,114.5960883,https://maps.google.com/?cid=0x0:0xe67b3b3048e1c3fb,
toko bangunan,Toko Bahan Bangunan,TB.MAJU BERSAMA,"Perumahan Bumi Gesya, Jayasampurna, Kec. Serang Baru, Kabupaten Bekasi, Jawa Barat 17330","Jayasampurna, Kec. Serang Baru, Kabupaten Bekasi",BALI,17330.0,Indonesia,82110111530.0,,,-6.3915567,107.075622,https://maps.google.com/?cid=0x0:0x1b2e182ac792212e,
toko bangunan,Toko Bahan Bangunan,Mitra Pandawa Bahan Bangunan,"MJ2C+M9H, Jl. Plawa GANG KASTURI III, Baler Bale Agung, Kec. Negara, Kabupaten Jembrana, Bali 82218","Jl. Plawa GANG KASTURI III, Baler Bale Agung, Kec. Negara, Kabupaten Jembrana",BALI,82218.0,Indonesia,82119975875.0,,,-8.3483171,114.62098,https://maps.google.com/?cid=0x0:0x6a8f15bd5628e7e6,
toko bangunan,Toko Bahan Bangunan,Toko Sentral Muda,"PGW6+778, Jalan Pangkung Tanah, Melaya, Kec. Melaya, Kabupaten Jembrana, Bali 82252","Jalan Pangkung Tanah, Melaya, Kec. Melaya, Kabupaten Jembrana",BALI,82252.0,Indonesia,81338404513.0,,,-8.2543404,114.5107102,https://maps.google.com/?cid=0x0:0x6c830716b97ced16,
toko bangunan,Toko Bahan Bangunan,Toko Serba Ada,"MJ77+5VC, Jl. Desa Berangbang, Berangbang, Kec. Negara, Kabupaten Jembrana, Bali 82218","Jl. Desa Berangbang, Berangbang, Kec. Negara, Kabupaten Jembrana",BALI,82218.0,Indonesia,85769908768.0,,,-8.3370697,114.6146488,https://maps.google.com/?cid=0x0:0x772fd6c88dcb3ec8,
toko bangunan,Toko Bahan Bangunan,"Toko Gunung Mas Bangunan Jembrana, Negara","Jl. Pahlawan No.32, Pendem, Kec. Negara, Kabupaten Jembrana, Bali 82211","Pendem, Kec. Negara, Kabupaten Jembrana",BALI,82211.0,Indonesia,81246101924.0,,,-8.3584976,114.6255645,https://maps.google.com/?cid=0x0:0x136df2e41fbe9aba,
toko bangunan,toko bangunan,Bali 82215,"Tegal Badeng Tim., Kec. Negara, Kabupaten Jembrana, Bali","Kabupaten Jembrana, Bali",BALI,,Indonesia,,,,-8.371582,114.6059283,https://maps.google.com/?cid=0x0:0x1c00c5eb6016c2a0,
toko bangunan,Toko Perlengkapan Rumah,Toko Bangunan Kawi Jaya,"Jl. Pahlawan, Pendem, Kec. Negara, Kabupaten Jembrana, Bali 82218","Pendem, Kec. Negara, Kabupaten Jembrana",BALI,82218.0,Indonesia,36541288.0,,,-8.3580215,114.6256185,https://maps.google.com/?cid=0x0:0x9bbe88362e356a5e,
toko bangunan,Toko,Toko Bangunan Ayodya,"Jl. Nakula, Banjar Tengah, Kec. Negara, Kabupaten Jembrana, Bali 82218","Banjar Tengah, Kec. Negara, Kabupaten Jembrana",BALI,82218.0,Indonesia,87762950666.0,,,-8.3584539,114.6115027,https://maps.google.com/?cid=0x0:0x9495feffb3ee4f8e,
toko bangunan,Toko Bahan Bangunan,Toko Bangunan Ayodya 2,"Jl. Danau Beratan, Lelateng, Kec. Negara, Kabupaten Jembrana, Bali 82218","Lelateng, Kec. Negara, Kabupaten Jembrana",BALI,82218.0,Indonesia,81916196331.0,,,-8.3643096,114.6164607,https://maps.google.com/?cid=0x0:0x609dd95bc51e9b05,
toko bangunan,Toko Bahan Bangunan,Kawi Graha Bangunan,"Jl. Sudirman No.18, Pendem, Kec. Jembrana, Kabupaten Jembrana, Bali 82211","Pendem, Kec. Jembrana, Kabupaten Jembrana",BALI,82211.0,Indonesia,81802072099.0,,,-8.3577299,114.6285171,https://maps.google.com/?cid=0x0:0x2fd68f13e2d4321b,
toko bangunan,Toko Bahan Bangunan,UD. MAHA SAPUTRA,"JJJ2+248, Tegal Badeng Tim., Kec. Negara, Kabupaten Jembrana, Bali 82214","Tegal Badeng Tim., Kec. Negara, Kabupaten Jembrana",BALI,82214.0,Indonesia,,,,-8.3699718,114.6003145,https://maps.google.com/?cid=0x0:0x62c0b20c81653519,
toko bangunan,Toko Bahan Bangunan,Toko Bangunan Rahman,"JJJF+MJ9, Jl. Katulampo, Loloan Bar., Kec. Negara, Kabupaten Jembrana, Bali 82218","Jl. Katulampo, Loloan Bar., Kec. Negara, Kabupaten Jembrana",BALI,82218.0,Indonesia,81216317473.0,,,-8.3683256,114.6240977,https://maps.google.com/?cid=0x0:0x72a00c0e81996fdc,
toko bangunan,Toko Bahan Bangunan,Toko Tri Sakti Bahan Bangunan Desa Baluk,"Jl. Yudistira No.1, Baluk, Kec. Negara, Kabupaten Jembrana, Bali 82213","Baluk, Kec. Negara, Kabupaten Jembrana",BALI,82213.0,Indonesia,85931371499.0,,,-8.3593423,114.6012129,https://maps.google.com/?cid=0x0:0x81413743b340346f,
toko bangunan,Toko Bahan Bangunan,MAYMUN ABADI STEEL,"Jl. Danau Tamblingan, Lelateng, Kec. Negara, Kabupaten Jembrana, Bali","Kabupaten Jembrana, Bali",BALI,,Indonesia,,,,-8.3666069,114.6131799,https://maps.google.com/?cid=0x0:0xfc29c1bf54d51a62,
toko bangunan,Toko Bahan Bangunan,Sinar Bangunan,"Jl. Hayam Wuruk No.47, Dangin Tukadaya, Kec. Negara, Kabupaten Jembrana, Bali 82218","Dangin Tukadaya, Kec. Negara, Kabupaten Jembrana",BALI,82218.0,Indonesia,3654545914.0,,,-8.3620314,114.648035,https://maps.google.com/?cid=0x0:0xdf3ea386ff30329e,
toko bangunan,Toko Bahan Bangunan,Toko Bangunan Arta Wiguna,"MHGW+PC8, Unnamed Road, Kaliakah, Kec. Negara, Kabupaten Jembrana, Bali 82218","Unnamed Road, Kaliakah, Kec. Negara, Kabupaten Jembrana",BALI,82218.0,Indonesia,87861432008.0,,,-8.3232202,114.5960883,https://maps.google.com/?cid=0x0:0xe67b3b3048e1c3fb,
toko bangunan,Toko Bahan Bangunan,Ud. Adi Rahayu,"JHCX+XHX, Jl. Raya Negara-Pengambengan, Lelateng, Kec. Negara, Kabupaten Jembrana, Bali 82214","Jl. Raya Negara-Pengambengan, Lelateng, Kec. Negara, Kabupaten Jembrana",BALI,82214.0,Indonesia,8179731260.0,,,-8.37752,114.5989966,https://maps.google.com/?cid=0x0:0xb49a3f265ff09e3b,
toko bangunan,Toko Bahan Bangunan,Toko Bangunan UD. Ayodya 3,"Jl. Arjuna, Baluk, Kec. Negara, Kabupaten Jembrana, Bali 82218","Baluk, Kec. Negara, Kabupaten Jembrana",BALI,82218.0,Indonesia,82342445312.0,,,-8.359331,114.5819062,https://maps.google.com/?cid=0x0:0xcd7fc34dc66b3c9c,
toko bangunan,Toko Perlengkapan Rumah,Toko Bangunan UD. Jaya Utama,"MJ45+CR9, Jl. Matahari, Kaliakah, Kec. Negara, Kabupaten Jembrana, Bali 82212","Jl. Matahari, Kaliakah, Kec. Negara, Kabupaten Jembrana",BALI,82212.0,Indonesia,85769908768.0,,,-8.34395,114.6096171,https://maps.google.com/?cid=0x0:0x493afed83216ac79,
toko bangunan,Toko Bahan Bangunan,Toko Anda,"Jl. D.Kalimutu, Loloan Bar., Kec. Negara, Kabupaten Jembrana, Bali 82218","Loloan Bar., Kec. Negara, Kabupaten Jembrana",BALI,82218.0,Indonesia,8990177047.0,,,-8.362257,114.6223119,https://maps.google.com/?cid=0x0:0xe27a45f547071487,
toko bangunan,Minimarket,Tb. Aji Wira Bakti,"JHGX+4J2, Jl. Raya Negara-Pengambengan, Tegal Badeng Tim., Kec. Negara, Kabupaten Jembrana, Bali 82214","Jl. Raya Negara-Pengambengan, Tegal Badeng Tim., Kec. Negara, Kabupaten Jembrana",BALI,82214.0,Indonesia,,,,-8.3747325,114.5990038,https://maps.google.com/?cid=0x0:0x8d507e1a04453b19,
toko bangunan,Toko Bahan Bangunan,Sumber Sengon. UD,"JJP9+C66, JL. Sungai Mahakam, Sangkar Agung, Lelateng, Kec. Negara, Kabupaten Jembrana, Bali 82218","JL. Sungai Mahakam, Sangkar Agung, Lelateng, Kec. Negara, Kabupaten Jembrana",BALI,82218.0,Indonesia,81338534290.0,,,-8.3639715,114.6180182,https://maps.google.com/?cid=0x0:0x9b5fff2aaaf19cf7,
toko bangunan,Toko Bahan Bangunan,Toko Faris,"JJH2+WR4, Jl, Tegal Badeng Tim., Kec. Negara, Kabupaten Jembrana, Bali 82218","Jl, Tegal Badeng Tim., Kec. Negara, Kabupaten Jembrana",BALI,82218.0,Indonesia,82340567564.0,,,-8.3702348,114.602085,https://maps.google.com/?cid=0x0:0xa5327cacfc6a1a2b,
toko bangunan,Toko Bahan Bangunan,Toko Bangunan Cantika Arta ᬢᭀᬓᭀᬩᬗᬸᬦᬦ᭄ᬘᬦ᭄ᬢᬶᬓᬅᬃᬢ᭟,"JJR7+CHQ, Jl. Yudistira, Banjar Tengah, Kec. Negara, Kabupaten Jembrana, Bali 82218","Jl. Yudistira, Banjar Tengah, Kec. Negara, Kabupaten Jembrana",BALI,82218.0,Indonesia,87861514275.0,,,-8.35892,114.6139893,https://maps.google.com/?cid=0x0:0xc2b5db50a01118d9,
toko bangunan,Toko Bahan Bangunan,Toko Sentral Muda,"PGW6+778, Jalan Pangkung Tanah, Melaya, Kec. Melaya, Kabupaten Jembrana, Bali 82252","Jalan Pangkung Tanah, Melaya, Kec. Melaya, Kabupaten Jembrana",BALI,82252.0,Indonesia,81338404513.0,,,-8.2543404,114.5107102,https://maps.google.com/?cid=0x0:0x6c830716b97ced16,
toko bangunan,Toko Bahan Bangunan,Toko Sinar Maju Jaya,"Jl. Ngurah Rai No.195, Dauhwaru, Kec. Negara, Kabupaten Jembrana, Bali 82217","Dauhwaru, Kec. Negara, Kabupaten Jembrana",BALI,82217.0,Indonesia,36540141.0,,,-8.3614101,114.6408692,https://maps.google.com/?cid=0x0:0xc3a97d6702b8eea9,
toko bangunan,Toko Bahan Bangunan,Mitra Pandawa Bahan Bangunan,"MJ2C+M9H, Jl. Plawa GANG KASTURI III, Baler Bale Agung, Kec. Negara, Kabupaten Jembrana, Bali 82218","Jl. Plawa GANG KASTURI III, Baler Bale Agung, Kec. Negara, Kabupaten Jembrana",BALI,82218.0,Indonesia,82119975875.0,,,-8.3483171,114.62098,https://maps.google.com/?cid=0x0:0x6a8f15bd5628e7e6,
toko bangunan,Toko Bahan Bangunan,Toko Sumber Jaya,"JJQC+JX8, Jl. D.Kalimutu, Loloan Bar., Kec. Negara, Kabupaten Jembrana, Bali 82218","Jl. D.Kalimutu, Loloan Bar., Kec. Negara, Kabupaten Jembrana",BALI,82218.0,Indonesia,87822446699.0,,,-8.3609594,114.622454,https://maps.google.com/?cid=0x0:0x230e12267a8f9eff,
toko bangunan,Toko Bahan Bangunan,Toko Serba Ada,"MJ77+5VC, Jl. Desa Berangbang, Berangbang, Kec. Negara, Kabupaten Jembrana, Bali 82218","Jl. Desa Berangbang, Berangbang, Kec. Negara, Kabupaten Jembrana",BALI,82218.0,Indonesia,85769908768.0,,,-8.3370697,114.6146488,https://maps.google.com/?cid=0x0:0x772fd6c88dcb3ec8,
toko bangunan,Toko Bahan Bangunan,Toko Besi NR,"JJX7+HVR, Jl. Sandat, Baler Bale Agung, Kec. Negara, Kabupaten Jembrana, Bali 82218","Jl. Sandat, Baler Bale Agung, Kec. Negara, Kabupaten Jembrana",BALI,82218.0,Indonesia,,,,-8.3510248,114.6146298,https://maps.google.com/?cid=0x0:0xf1f7b30bcc0d65ba,
toko bangunan,Toko Bahan Bangunan,Toko Rejeki,"JJQC+JXF, Jl. D.Kalimutu, Loloan Bar., Kec. Negara, Kabupaten Jembrana, Bali 82218","Jl. D.Kalimutu, Loloan Bar., Kec. Negara, Kabupaten Jembrana",BALI,82218.0,Indonesia,81338277368.0,,,-8.3609327,114.6224121,https://maps.google.com/?cid=0x0:0x8cc120678fe8e978,
toko bangunan,Toko Perlengkapan Rumah,Toko Bangunan Kawi Jaya,"Jl. Pahlawan, Pendem, Kec. Negara, Kabupaten Jembrana, Bali 82218","Pendem, Kec. Negara, Kabupaten Jembrana",BALI,82218.0,Indonesia,36541288.0,,,-8.3580215,114.6256185,https://maps.google.com/?cid=0x0:0x9bbe88362e356a5e,
toko bangunan,Toko Bahan Bangunan,"Toko Gunung Mas Bangunan Jembrana, Negara","Jl. Pahlawan No.32, Pendem, Kec. Negara, Kabupaten Jembrana, Bali 82211","Pendem, Kec. Negara, Kabupaten Jembrana",BALI,82211.0,Indonesia,81246101924.0,,,-8.3584976,114.6255645,https://maps.google.com/?cid=0x0:0x136df2e41fbe9aba,
toko bangunan,toko bangunan,Bali 82218,"Kec. Negara, Kabupaten Jembrana, Bali","Kabupaten Jembrana, Bali",BALI,,Indonesia,,,,-8.3357931,114.6311665,https://maps.google.com/?cid=0x0:0x1c00c5eb6016c2d0,
toko bangunan,Toko,Toko Bangunan Ayodya,"Jl. Nakula, Banjar Tengah, Kec. Negara, Kabupaten Jembrana, Bali 82218","Banjar Tengah, Kec. Negara, Kabupaten Jembrana",BALI,82218.0,Indonesia,87762950666.0,,,-8.3584539,114.6115027,https://maps.google.com/?cid=0x0:0x9495feffb3ee4f8e,
toko bangunan,Toko Bahan Bangunan,Toko Bangunan Cantika Arta ᬢᭀᬓᭀᬩᬗᬸᬦᬦ᭄ᬘᬦ᭄ᬢᬶᬓᬅᬃᬢ᭟,"JJR7+CHQ, Jl. Yudistira, Banjar Tengah, Kec. Negara, Kabupaten Jembrana, Bali 82218","Jl. Yudistira, Banjar Tengah, Kec. Negara, Kabupaten Jembrana",BALI,82218.0,Indonesia,87861514275.0,,,-8.35892,114.6139893,https://maps.google.com/?cid=0x0:0xc2b5db50a01118d9,
toko bangunan,Toko Bahan Bangunan,Kawi Graha Bangunan,"Jl. Sudirman No.18, Pendem, Kec. Jembrana, Kabupaten Jembrana, Bali 82211","Pendem, Kec. Jembrana, Kabupaten Jembrana",BALI,82211.0,Indonesia,81802072099.0,,,-8.3577299,114.6285171,https://maps.google.com/?cid=0x0:0x2fd68f13e2d4321b,
toko bangunan,Toko Bahan Bangunan,Toko Bangunan Restu Ibu,"JJJ5+4HM, Jl. Danau Batur, Lelateng, Kec. Negara, Kabupaten Jembrana, Bali 82218","Jl. Danau Batur, Lelateng, Kec. Negara, Kabupaten Jembrana",BALI,82218.0,Indonesia,85338438739.0,,,-8.3696654,114.6089209,https://maps.google.com/?cid=0x0:0x7fc2029ef6259bd9,
toko bangunan,Toko Bahan Bangunan,Toko Bangunan UD. Ayodya 3,"Jl. Arjuna, Baluk, Kec. Negara, Kabupaten Jembrana, Bali 82218","Baluk, Kec. Negara, Kabupaten Jembrana",BALI,82218.0,Indonesia,82342445312.0,,,-8.359331,114.5819062,https://maps.google.com/?cid=0x0:0xcd7fc34dc66b3c9c,
toko bangunan,Toko Bahan Bangunan,Toko Bangunan Arta Wiguna,"MHGW+PC8, Unnamed Road, Kaliakah, Kec. Negara, Kabupaten Jembrana, Bali 82218","Unnamed Road, Kaliakah, Kec. Negara, Kabupaten Jembrana",BALI,82218.0,Indonesia,87861432008.0,,,-8.3232202,114.5960883,https://maps.google.com/?cid=0x0:0xe67b3b3048e1c3fb,
toko bangunan,Toko Bahan Bangunan,Toko Bangunan Ayodya 2,"Jl. Danau Beratan, Lelateng, Kec. Negara, Kabupaten Jembrana, Bali 82218","Lelateng, Kec. Negara, Kabupaten Jembrana",BALI,82218.0,Indonesia,81916196331.0,,,-8.3643096,114.6164607,https://maps.google.com/?cid=0x0:0x609dd95bc51e9b05,
toko bangunan,Toko Bahan Bangunan,Yuri Bangunan,"Jl. Desa Kaliakah Kauh, Kaliakah, Kec. Negara, Kabupaten Jembrana, Bali 82218","Kaliakah, Kec. Negara, Kabupaten Jembrana",BALI,82218.0,Indonesia,,,,-8.3292516,114.5574102,https://maps.google.com/?cid=0x0:0x58f157f4cc38e079,
toko bangunan,Toko Bahan Bangunan,Toko Bangunan Rahman,"JJJF+MJ9, Jl. Katulampo, Loloan Bar., Kec. Negara, Kabupaten Jembrana, Bali 82218","Jl. Katulampo, Loloan Bar., Kec. Negara, Kabupaten Jembrana",BALI,82218.0,Indonesia,81216317473.0,,,-8.3683256,114.6240977,https://maps.google.com/?cid=0x0:0x72a00c0e81996fdc,
toko bangunan,Toko Bahan Bangunan,Ud. Bangun Jaya,"JH3M+PPX, Jl. Raya Negara-Pengambengan, Pengambengan, Kec. Negara, Kabupaten Jembrana, Bali 82218","Jl. Raya Negara-Pengambengan, Pengambengan, Kec. Negara, Kabupaten Jembrana",BALI,82218.0,Indonesia,85338448617.0,,,-8.3956432,114.5843609,https://maps.google.com/?cid=0x0:0xb7beea076eeef6eb,
toko bangunan,Toko Bahan Bangunan,Toko Krishna Jaya ᬢᭀᬓᭀᬓ᭄ᬭᬶᬲ᭄ᬳ᭄ᬦᬚᬬ᭟,"Jl. Gajah Mada No.77, Dangin Tukadaya, Kec. Jembrana, Kabupaten Jembrana, Bali 82218","Dangin Tukadaya, Kec. Jembrana, Kabupaten Jembrana",BALI,82218.0,Indonesia,81915602527.0,,,-8.3634895,114.651824,https://maps.google.com/?cid=0x0:0x4ddd9247029ba61c,
toko bangunan,Toko Kaca,Pandawa Alumunium,"MJ2C+MC8, Jl. Plawa, Baler Bale Agung, Kec. Negara, Kabupaten Jembrana, Bali 82218","Jl. Plawa, Baler Bale Agung, Kec. Negara, Kabupaten Jembrana",BALI,82218.0,Indonesia,3654546201.0,,,-8.3483288,114.6210745,https://maps.google.com/?cid=0x0:0xb6b4e51d5c87301f,
toko bangunan,Toko Bahan Bangunan,Toko Mega,"JJQG+M8X, Jl. Ngurah Rai, Loloan Tim., Kec. Negara, Kabupaten Jembrana, Bali 82218","Jl. Ngurah Rai, Loloan Tim., Kec. Negara, Kabupaten Jembrana",BALI,82218.0,Indonesia,36541181.0,,,-8.3607674,114.6258583,https://maps.google.com/?cid=0x0:0x5e71775d5ff9b401,
toko bangunan,Toko Bahan Bangunan,Tb. Putra Arya,"JHJM+52M, Jl. Nakula, Tegal Badeng Bar., Kec. Negara, Kabupaten Jembrana, Bali 82218","Jl. Nakula, Tegal Badeng Bar., Kec. Negara, Kabupaten Jembrana",BALI,82218.0,Indonesia,87863266558.0,,,-8.3695408,114.582553,https://maps.google.com/?cid=0x0:0x565911879502fdc0,
toko bangunan,Toko,Toko Gunung Sari,"MJ87+WCX, Jalan, Berambang, Negara, Jembrana Regency, Bali 82218","Jalan, Berambang, Negara, Jembrana Regency",BALI,82218.0,Indonesia,87824250997.0,,,-8.3326255,114.6136069,https://maps.google.com/?cid=0x0:0x3d14bb67a3738ece,
toko bangunan,Toko Bahan Bangunan,Toko bahan bangunan Made Profil,"Jl. Jenderal Sudirman, Dauhwaru, Kec. Jembrana, Kabupaten Jembrana, Bali 82218","Dauhwaru, Kec. Jembrana, Kabupaten Jembrana",BALI,82218.0,Indonesia,81999217209.0,,,-8.3537064,114.6283217,https://maps.google.com/?cid=0x0:0xcf4db8ddc234fe8d,
toko bangunan,Toko Bahan Bangunan,Toko Serba Ada,"MJ77+5VC, Jl. Desa Berangbang, Berangbang, Kec. Negara, Kabupaten Jembrana, Bali 82218","Jl. Desa Berangbang, Berangbang, Kec. Negara, Kabupaten Jembrana",BALI,82218.0,Indonesia,85769908768.0,,,-8.3370697,114.6146488,https://maps.google.com/?cid=0x0:0x772fd6c88dcb3ec8,
toko bangunan,Toko Perlengkapan Rumah,Toko Bangunan UD. Jaya Utama,"MJ45+CR9, Jl. Matahari, Kaliakah, Kec. Negara, Kabupaten Jembrana, Bali 82212","Jl. Matahari, Kaliakah, Kec. Negara, Kabupaten Jembrana",BALI,82212.0,Indonesia,85769908768.0,,,-8.34395,114.6096171,https://maps.google.com/?cid=0x0:0x493afed83216ac79,
toko bangunan,Toko Bahan Bangunan,UD. Santi Murti ( Negara - Jembrana),"JM59+6WW, Jl. Desa Delod Brawah, Delod Berawah, Kec. Mendoyo, Kabupaten Jembrana, Bali 82218","Jl. Desa Delod Brawah, Delod Berawah, Kec. Mendoyo, Kabupaten Jembrana",BALI,82218.0,Indonesia,81936557274.0,,,-8.3918886,114.6698163,https://maps.google.com/?cid=0x0:0x372986fd8346639a,
toko bangunan,toko bangunan,Bali 82262,"Kec. Pekutatan, Kabupaten Jembrana, Bali","Kabupaten Jembrana, Bali",BALI,,Indonesia,,,,-8.4101762,114.8804853,https://maps.google.com/?cid=0x0:0x1c00c5eb6016c310,
toko bangunan,Perusahaan Konstruksi,Dana Mulia Bangunan,"HV4H+PJ5, Gg. Perkutut, Gumbrih, Kec. Pekutatan, Kabupaten Jembrana, Bali 82262","Gg. Perkutut, Gumbrih, Kec. Pekutatan, Kabupaten Jembrana",BALI,82262.0,Indonesia,81239648157.0,,,-8.443229,114.879106,https://maps.google.com/?cid=0x0:0xe8efd21de5c51d61,
toko bangunan,Toko Perlengkapan Rumah,Ud. Adi Kuud,"JR2W+RCR, Jalan, Asahduren, Pekutatan, Jembrana Regency, Bali 82262","Jalan, Asahduren, Pekutatan, Jembrana Regency",BALI,82262.0,Indonesia,87861813599.0,,,-8.3978965,114.8460101,https://maps.google.com/?cid=0x0:0xdb45324f1daaa6cf,
toko bangunan,Toko Bahan Bangunan,Putra Sanggar J,"HRJ7+PQ9, Jl. Raya Denpasar - Gilimanuk, Pulukan, Kec. Pekutatan, Kabupaten Jembrana, Bali 82262","Jl. Raya Denpasar - Gilimanuk, Pulukan, Kec. Pekutatan, Kabupaten Jembrana",BALI,82262.0,Indonesia,82266585759.0,,,-8.4182246,114.8144928,https://maps.google.com/?cid=0x0:0x724b4470bc40e76d,
toko bangunan,Toko Bahan Bangunan,Ud Ujung Jaya,"HRJC+JHM, Jl. Raya Denpasar - Gilimanuk, Pekutatan, Kec. Pekutatan, Kabupaten Jembrana, Bali 82262","Jl. Raya Denpasar - Gilimanuk, Pekutatan, Kec. Pekutatan, Kabupaten Jembrana",BALI,82262.0,Indonesia,8161999912.0,,,-8.4184095,114.8214225,https://maps.google.com/?cid=0x0:0xd75e32b41ee0f25e,
toko bangunan,Toko Bahan Bangunan,UD. Sari Jaya,"Jl. Denpasar Gilimanuk Pulukan, Pekutatan, Kec. Pekutatan, Bali 82262","Pekutatan, Kec. Pekutatan",BALI,82262.0,Indonesia,,,,-8.4152273,114.8194393,https://maps.google.com/?cid=0x0:0x7ab841b5e50ce6f,
toko bangunan,Toko bahan makanan,Toko Bangunan Sari Buana,"GVWV+QC3, Pengeragoan, Kec. Pekutatan, Kabupaten Jembrana, Bali","Kabupaten Jembrana, Bali",BALI,,Indonesia,8179585858.0,,,-8.4531003,114.8935319,https://maps.google.com/?cid=0x0:0xef530488580adab7,
toko bangunan,Toko Bahan Bangunan,Toko Bangunan Pandu Bikul Bersaudara,"JW6G+CC5, Pengeragoan, Kec. Pekutatan, Kabupaten Jembrana, Bali 82262","Pengeragoan, Kec. Pekutatan, Kabupaten Jembrana",BALI,82262.0,Indonesia,81338575599.0,,,-8.388989,114.9261017,https://maps.google.com/?cid=0x0:0xbe736679c8d0599e,
toko bangunan,Toko Bahan Bangunan,UD. Karunia Jaya,"Pekutatan, Kec. Pekutatan, Kabupaten Jembrana, Bali 82262","Kec. Pekutatan, Kabupaten Jembrana",BALI,82262.0,Indonesia,81338469363.0,,,-8.4209741,114.8223982,https://maps.google.com/?cid=0x0:0xcd119a3154d04a06,
toko bangunan,Toko Bahan Bangunan,Ikbal Jaya,"HRM8+HV7, Jl. Raya Denpasar - Gilimanuk, Pulukan, Kec. Pekutatan, Kabupaten Jembrana, Bali 82111","Jl. Raya Denpasar - Gilimanuk, Pulukan, Kec. Pekutatan, Kabupaten Jembrana",BALI,82111.0,Indonesia,87761580598.0,,,-8.416092,114.8171693,https://maps.google.com/?cid=0x0:0x3db44b28dd670ed,
toko bangunan,Toko,UD. Harapan Jaya,"HQXQ+FPP, Jl. Raya Denpasar - Gilimanuk, Yeh Sumbul, Negara, Kabupaten Jembrana, Bali 82261","Jl. Raya Denpasar - Gilimanuk, Yeh Sumbul, Negara, Kabupaten Jembrana",BALI,82261.0,Indonesia,81936506767.0,,,-8.4012766,114.7893172,https://maps.google.com/?cid=0x0:0xca824dd339cb24dd,
toko bangunan,Toko Bahan Bangunan,TB. Putra Arta,"HRR2+3CM, Jl. Raya Denpasar - Gilimanuk, Yeh Sumbul, Kec. Mendoyo, Kabupaten Jembrana, Bali 82262","Jl. Raya Denpasar - Gilimanuk, Yeh Sumbul, Kec. Mendoyo, Kabupaten Jembrana",BALI,82262.0,Indonesia,87762146686.0,,,-8.4097917,114.8010331,https://maps.google.com/?cid=0x0:0x16e013d5d3ba9dd2,
toko bangunan,Toko Bahan Bangunan,UD. SARI UMADUKUH 3,"JVQ9+V89, Pulukan, Kec. Pekutatan, Kabupaten Jembrana, Bali","Kabupaten Jembrana, Bali",BALI,,Indonesia,,,,-8.3603483,114.8683493,https://maps.google.com/?cid=0x0:0x84e8faf0ab9f1f2e,
toko bangunan,Toko,UD. Merta Dana,"Delod Setra, Medewi, Pekutatan, Jembrana Regency, Bali 82262","Medewi, Pekutatan, Jembrana Regency",BALI,82262.0,Indonesia,85739514520.0,,,-8.4020323,114.8162188,https://maps.google.com/?cid=0x0:0xb0f9ed576aac70b6,
toko bangunan,Toko Bahan Bangunan,UD Buchik,"HRQ4+C7G, Jl. Raya Denpasar - Gilimanuk, Medewi, Kec. Pekutatan, Kabupaten Jembrana, Bali 82262","Jl. Raya Denpasar - Gilimanuk, Medewi, Kec. Pekutatan, Kabupaten Jembrana",BALI,82262.0,Indonesia,81888777555.0,,,-8.411431,114.805713,https://maps.google.com/?cid=0x0:0x2d47261d2063cdec,
toko bangunan,Toko Bahan Bangunan,WIRABHAKTIGROUP,"Jl. Raya Denpasar - Gilimanuk, Pangyangan, Kec. Pekutatan, Kabupaten Jembrana, Bali 82262","Pangyangan, Kec. Pekutatan, Kabupaten Jembrana",BALI,82262.0,Indonesia,81236139992.0,,,-8.4409578,114.8671686,https://maps.google.com/?cid=0x0:0x66162444945a324a,
toko bangunan,Toko Bahan Bangunan,UD Budi ayu,"HRM9+W2C, Jl. Ciung Wanara, Pulukan, Kec. Pekutatan, Kabupaten Jembrana, Bali 82262","Jl. Ciung Wanara, Pulukan, Kec. Pekutatan, Kabupaten Jembrana",BALI,82262.0,Indonesia,,,,-8.4151776,114.8175114,https://maps.google.com/?cid=0x0:0xc944ff62053fa101,
toko bangunan,Toko Bahan Bangunan,Artha Karya,"HRRF+WJ7, Jl. Ciung Wanara, Pulukan, Kec. Pekutatan, Kabupaten Jembrana, Bali 82262","Jl. Ciung Wanara, Pulukan, Kec. Pekutatan, Kabupaten Jembrana",BALI,82262.0,Indonesia,8563822735.0,,,-8.407707,114.8240402,https://maps.google.com/?cid=0x0:0x77936bb900c5b7e8,
toko bangunan,Toko Bahan Bangunan,Kawi Graha Bangunan,"Jl. Sudirman No.18, Pendem, Kec. Jembrana, Kabupaten Jembrana, Bali 82211","Pendem, Kec. Jembrana, Kabupaten Jembrana",BALI,82211.0,Indonesia,81802072099.0,,,-8.3577299,114.6285171,https://maps.google.com/?cid=0x0:0x2fd68f13e2d4321b,
toko bangunan,Jasa Konstruksi dan Bangunan,CV. SELARAS MAKMUR PERSADA,"HRJ7+CR3, Pulukan, Kec. Pekutatan, Kabupaten Jembrana, Bali","Kabupaten Jembrana, Bali",BALI,,Indonesia,85738678584.0,,,-8.418996,114.814532,https://maps.google.com/?cid=0x0:0x55421280e7a241f,
