Category,Real Category,Business Name,Address,City,State,Postal Code,Country,Phone,Email,Website,Latitude,Longitude,Map Link,Details Link
mall,mall,Bali 82211,"Pendem, Kec. Jembrana, Kabupaten Jembrana, Bali","Kabupaten Jembrana, Bali",BALI,,Indonesia,,,,-8.3591929,114.628832,https://maps.google.com/?cid=0x0:0x7f27513f7ae5cdf2,
mall,Pusat Perbelanjaan,Grand mall jembrana city,"JJRH+QR2, Pendem, Kec. Jembrana, Kabupaten Jembrana, Bali 82218","Pendem, Kec. Jembrana, Kabupaten Jembrana",BALI,82218.0,Indonesia,,,,-8.3581155,114.6295278,https://maps.google.com/?cid=0x0:0xb8b1879bf7b689bd,
mall,Pusat Perbelanjaan,TOKO MINISO JEMBRANA,"JJQM+MCC, Pendem, Kec. Negara, Kabupaten Jembrana, Bali 82218","Pendem, Kec. Negara, Kabupaten Jembrana",BALI,82218.0,Indonesia,81938217007.0,,,-8.3608153,114.6335056,https://maps.google.com/?cid=0x0:0xcc44ab380fbbb842,
mall,Kantor Pemerintah,Mal Pelayanan Publik (MPP) Kabupaten Jembrana,"Jl. Udayana No.16, Baler Bale Agung, Kec. Negara, Kabupaten Jembrana, Bali 82218","Baler Bale Agung, Kec. Negara, Kabupaten Jembrana",BALI,82218.0,Indonesia,3654740120.0,,,-8.3566266,114.6188723,https://maps.google.com/?cid=0x0:0x2a422fae858958c6,
mall,Toko Ponsel,EL CITY CELLULAR,"Jl. Ngurah Rai No.44, Loloan Tim., Kec. Jembrana, Kabupaten Jembrana, Bali 82218","Loloan Tim., Kec. Jembrana, Kabupaten Jembrana",BALI,82218.0,Indonesia,81231119130.0,,,-8.3607872,114.6285708,https://maps.google.com/?cid=0x0:0xbfe138abcdd4a9bc,
mall,Toko Pakaian,May May Cabang BB Agung,"Jl. Ratna No.3, Baler Bale Agung, Kec. Negara, Kabupaten Jembrana, Bali 82218","Baler Bale Agung, Kec. Negara, Kabupaten Jembrana",BALI,82218.0,Indonesia,87881238999.0,,,-8.3564953,114.6227448,https://maps.google.com/?cid=0x0:0xfe99adf98050e7f6,
mall,Toko Sepatu,Toko Sepatu Citra,"Jl. Ngurah Rai, Loloan Tim., Kec. Jembrana, Kabupaten Jembrana, Bali 82218","Loloan Tim., Kec. Jembrana, Kabupaten Jembrana",BALI,82218.0,Indonesia,,,,-8.3608376,114.6282879,https://maps.google.com/?cid=0x0:0xfc5aaf66214d26e7,
mall,Gedung Apartemen,GAJAH PARA Berawantangi TUWED.,"MGWP+929, Jl. Sari Bumi, dusun berawantangi, Tuwed, Kec. Melaya, Kabupaten Jembrana, Bali 82252","Jl. Sari Bumi, dusun berawantangi, Tuwed, Kec. Melaya, Kabupaten Jembrana",BALI,82252.0,Indonesia,87863214497.0,,,-8.3040806,114.535099,https://maps.google.com/?cid=0x0:0x3bc662a6cb3d6651,
mall,Kompleks Apartemen,Kantor Bupati Jembrana ᬓᬦ᭄ᬢᭀᬃᬪᬹᬧᬢᬶᬚᬶᬫ᭄ᬩᭂᬭᬡ᭟,"Jl. Suropati No.1, Dauhwaru, Kec. Negara, Kabupaten Jembrana, Bali 82218","Dauhwaru, Kec. Negara, Kabupaten Jembrana",BALI,82218.0,Indonesia,36541010.0,,,-8.356501,114.6359733,https://maps.google.com/?cid=0x0:0x5c534767f9a794db,
mall,Toko,Warung bu dewa,"JJRJ+G5P, Unnamed Road, Pendem, Kec. Jembrana, Kabupaten Jembrana, Bali 82218","Unnamed Road, Pendem, Kec. Jembrana, Kabupaten Jembrana",BALI,82218.0,Indonesia,82342221490.0,,,-8.3586603,114.6304625,https://maps.google.com/?cid=0x0:0x675dfac74a72c159,
mall,Toko Suvenir,Pusat oleh-oleh Jembrana,"JJRH+XRJ, Pendem, Kec. Negara, Kabupaten Jembrana, Bali 82218","Pendem, Kec. Negara, Kabupaten Jembrana",BALI,82218.0,Indonesia,,,,-8.3575426,114.6295055,https://maps.google.com/?cid=0x0:0xd43ed6534e96253e,
mall,Pasar,Pasar Umum jembrana,"JJQR+RPQ, Dauhwaru, Kec. Jembrana, Kabupaten Jembrana, Bali 82218","Dauhwaru, Kec. Jembrana, Kabupaten Jembrana",BALI,82218.0,Indonesia,,,,-8.3604182,114.6418621,https://maps.google.com/?cid=0x0:0xfd47c48e3c154554,
mall,mall,Jembrana,"Kec. Jembrana, Kabupaten Jembrana, Bali","Kabupaten Jembrana, Bali",BALI,,Indonesia,,,,-8.3605987,114.6256578,https://maps.google.com/?cid=0x0:0xd668745c2713a1d7,
mall,Pusat Perbelanjaan,Grand mall jembrana city,"JJRH+QR2, Pendem, Kec. Jembrana, Kabupaten Jembrana, Bali 82218","Pendem, Kec. Jembrana, Kabupaten Jembrana",BALI,82218.0,Indonesia,,,,-8.3581155,114.6295278,https://maps.google.com/?cid=0x0:0xb8b1879bf7b689bd,
mall,Pusat Perbelanjaan,TOKO MINISO JEMBRANA,"JJQM+MCC, Pendem, Kec. Negara, Kabupaten Jembrana, Bali 82218","Pendem, Kec. Negara, Kabupaten Jembrana",BALI,82218.0,Indonesia,81938217007.0,,,-8.3608153,114.6335056,https://maps.google.com/?cid=0x0:0xcc44ab380fbbb842,
mall,Kantor Pemerintah,Mal Pelayanan Publik (MPP) Kabupaten Jembrana,"Jl. Udayana No.16, Baler Bale Agung, Kec. Negara, Kabupaten Jembrana, Bali 82218","Baler Bale Agung, Kec. Negara, Kabupaten Jembrana",BALI,82218.0,Indonesia,3654740120.0,,,-8.3566266,114.6188723,https://maps.google.com/?cid=0x0:0x2a422fae858958c6,
mall,Pusat Perbelanjaan,May May,"Jl. Ngurah Rai No.20, Loloan Tim., Kec. Negara, Kabupaten Jembrana, Bali 82218","Loloan Tim., Kec. Negara, Kabupaten Jembrana",BALI,82218.0,Indonesia,,,,-8.3607568,114.6270294,https://maps.google.com/?cid=0x0:0xf2a0ca229b2cab71,
mall,Toko Kain Linen,Subur Fashion Center,"Jl. Ngurah Rai No.40, Loloan Tim., Kec. Jembrana, Kabupaten Jembrana, Bali 82218","Loloan Tim., Kec. Jembrana, Kabupaten Jembrana",BALI,82218.0,Indonesia,8113807789.0,,,-8.3608627,114.6281715,https://maps.google.com/?cid=0x0:0xbf964b9327da834e,
mall,Toko bahan makanan,PolloS Mart,"HMX4+R88, Yeh Kuning, Kec. Jembrana, Kabupaten Jembrana, Bali","Kabupaten Jembrana, Bali",BALI,,Indonesia,85738007495.0,,,-8.4004628,114.6558177,https://maps.google.com/?cid=0x0:0x8421827659cedc93,
mall,Gudang,Cv. Jaya negara Distributor,"lingkungan sri mand, Jl. Gn. Batur Gg. III, Dauhwaru, Kec. Jembrana, Kabupaten Jembrana, Bali 82218","Jl. Gn. Batur Gg. III, Dauhwaru, Kec. Jembrana, Kabupaten Jembrana",BALI,82218.0,Indonesia,,,,-8.3633929,114.6305291,https://maps.google.com/?cid=0x0:0x8ed92c67e7f1892f,
mall,Toko Ponsel,EL CITY CELLULAR,"Jl. Ngurah Rai No.44, Loloan Tim., Kec. Jembrana, Kabupaten Jembrana, Bali 82218","Loloan Tim., Kec. Jembrana, Kabupaten Jembrana",BALI,82218.0,Indonesia,81231119130.0,,,-8.3607872,114.6285708,https://maps.google.com/?cid=0x0:0xbfe138abcdd4a9bc,
mall,Toko Ponsel,Rk Phone,"JJMG+H58, Jl. Gn. Agung, Loloan Tim., Kec. Jembrana, Kabupaten Jembrana, Bali 82218","Jl. Gn. Agung, Loloan Tim., Kec. Jembrana, Kabupaten Jembrana",BALI,82218.0,Indonesia,83119336606.0,,,-8.3660935,114.6254592,https://maps.google.com/?cid=0x0:0xbbb22bd915ef0e99,
mall,Toko Sepatu,Biawak Footwear bali,"Jl. Ngurah Rai No.129, Pendem, Kec. Negara, Kabupaten Jembrana, Bali 82218","Pendem, Kec. Negara, Kabupaten Jembrana",BALI,82218.0,Indonesia,83117918303.0,,,-8.360889,114.6336534,https://maps.google.com/?cid=0x0:0x2f2fbf736bc8acb,
mall,Toko Pakaian,May May Cabang BB Agung,"Jl. Ratna No.3, Baler Bale Agung, Kec. Negara, Kabupaten Jembrana, Bali 82218","Baler Bale Agung, Kec. Negara, Kabupaten Jembrana",BALI,82218.0,Indonesia,87881238999.0,,,-8.3564953,114.6227448,https://maps.google.com/?cid=0x0:0xfe99adf98050e7f6,
mall,Toko Swalayan,Artasedana Negara,"Jl. Ngurah Rai No.95, Pendem, Kec. Negara, Kabupaten Jembrana, Bali 82218","Pendem, Kec. Negara, Kabupaten Jembrana",BALI,82218.0,Indonesia,87749995559.0,,,-8.3603732,114.6279088,https://maps.google.com/?cid=0x0:0x1d01de180f38e928,
mall,Pusat Perbelanjaan,Sunday Store,"Jl. P. Irian No.19, Menega, Kec. Negara, Kabupaten Jembrana, Bali 82218","Menega, Kec. Negara, Kabupaten Jembrana",BALI,82218.0,Indonesia,81617397416.0,,,-8.3652549,114.6415226,https://maps.google.com/?cid=0x0:0xc929a08212e6e0ea,
mall,Toko,Bale betet,"JJMC+MGF, Jl. Durian, Loloan Bar., Kec. Negara, Kabupaten Jembrana, Bali 82218","Jl. Durian, Loloan Bar., Kec. Negara, Kabupaten Jembrana",BALI,82218.0,Indonesia,81231119130.0,,,-8.3658182,114.6212916,https://maps.google.com/?cid=0x0:0xebcbacfcf1fbd87c,
mall,Toko Sepatu,Toko Sepatu Citra,"Jl. Ngurah Rai, Loloan Tim., Kec. Jembrana, Kabupaten Jembrana, Bali 82218","Loloan Tim., Kec. Jembrana, Kabupaten Jembrana",BALI,82218.0,Indonesia,,,,-8.3608376,114.6282879,https://maps.google.com/?cid=0x0:0xfc5aaf66214d26e7,
mall,Toko,Pasar Banjar,"Jl. Yudistira No.12-10, Banjar Tengah, Kec. Negara, Kabupaten Jembrana, Bali 82218","Banjar Tengah, Kec. Negara, Kabupaten Jembrana",BALI,82218.0,Indonesia,,,,-8.3570544,114.6146093,https://maps.google.com/?cid=0x0:0xfd2e4ba3a7542910,
mall,Toko Mebel,Meubel Niaga,"Jl. Ngurah Rai No.151, Dauhwaru, Kec. Negara, Kabupaten Jembrana, Bali 82261","Dauhwaru, Kec. Negara, Kabupaten Jembrana",BALI,82261.0,Indonesia,82341673327.0,,,-8.3609727,114.635458,https://maps.google.com/?cid=0x0:0xd47f428923f618b3,
mall,Toko,Qiu Cell,"JJHG+H3H, Jl. Pulau Jawa, Loloan Tim., Kec. Jembrana, Kabupaten Jembrana, Bali 82218","Jl. Pulau Jawa, Loloan Tim., Kec. Jembrana, Kabupaten Jembrana",BALI,82218.0,Indonesia,87861594311.0,,,-8.3710522,114.6252394,https://maps.google.com/?cid=0x0:0x98f6489d38ec71d8,
mall,Toko Perlengkapan Rumah,TOKO DUPA SARASWATI 108 II,"Jl. P. Irian, Dauhwaru, Kec. Jembrana, Kabupaten Jembrana, Bali 82218","Dauhwaru, Kec. Jembrana, Kabupaten Jembrana",BALI,82218.0,Indonesia,87701010021.0,,,-8.3653231,114.6409644,https://maps.google.com/?cid=0x0:0xdd17eae699c93db3,
mall,mall,GURU WIJA HOME,"MP97+5MF, Munduk anyar, Tegal Cangkring","Kabupaten Jembrana, Bali",BALI,,Indonesia,,,,-8.3320601,114.7141813,https://maps.google.com/?cid=0x0:0xdeeca79760905cd6,
mall,Pusat Perbelanjaan,Mall Kota Kasablanka,"Jl. Raya Casablanca No.Kav 88, Menteng Dalam, Kec. Tebet, Kota Jakarta Selatan, Daerah Khusus Ibukota Jakarta 12870","Menteng Dalam, Kec. Tebet, Kota Jakarta Selatan",BALI,12870.0,Indonesia,2129465000.0,,,-6.2240353,106.8425979,https://maps.google.com/?cid=0x0:0xaf54cb631563acce,
mall,Toko Buah Kering,Raja Juss  Buah Jembrana,"JJH3+W5X, Jl. Danau Batur, Tegal Badeng Tim., Kec. Negara, Kabupaten Jembrana, Bali 82215","Jl. Danau Batur, Tegal Badeng Tim., Kec. Negara, Kabupaten Jembrana",BALI,82215.0,Indonesia,85203949787.0,,,-8.3701367,114.6029749,https://maps.google.com/?cid=0x0:0xfcd5de4b28a74a49,
mall,Toko Suvenir,Pusat oleh-oleh Jembrana,"JJRH+XRJ, Pendem, Kec. Negara, Kabupaten Jembrana, Bali 82218","Pendem, Kec. Negara, Kabupaten Jembrana",BALI,82218.0,Indonesia,,,,-8.3575426,114.6295055,https://maps.google.com/?cid=0x0:0xd43ed6534e96253e,
mall,Toko,TOKO ARKA,"Baluk, Kec. Negara, Kabupaten Jembrana, Bali","Kabupaten Jembrana, Bali",BALI,,Indonesia,,,,-8.3530645,114.5737472,https://maps.google.com/?cid=0x0:0x9cb7d979a4cf5ba2,
mall,Pusat Perbelanjaan,Wr. Wa One,"JM3G+8RQ, Jl. Air Kuning, Delod Berawah, Kec. Mendoyo, Kabupaten Jembrana, Bali","Kabupaten Jembrana, Bali",BALI,,Indonesia,87861547576.0,,,-8.3966633,114.6770986,https://maps.google.com/?cid=0x0:0xe36615b22b0bd093,
mall,Pusat Perbelanjaan,Yoga cell 2,"MJ72+F83 Dusun pangkung lip lip, Kaliakah, Kec. Negara, Kabupaten Jembrana, Bali 82212","Kaliakah, Kec. Negara, Kabupaten Jembrana",BALI,82212.0,Indonesia,,,,-8.3363677,114.6008037,https://maps.google.com/?cid=0x0:0x5c8a2312c42528,
mall,Salon Kecantikan,WR.SALON SELLA,"PGJ4+68V, Nusasari, Kec. Melaya, Kabupaten Jembrana, Bali 82252","Nusasari, Kec. Melaya, Kabupaten Jembrana",BALI,82252.0,Indonesia,83147854084.0,,,-8.2693959,114.5058036,https://maps.google.com/?cid=0x0:0x1ad9526a8fb0ccea,
mall,mall,Jembrana,"Kec. Jembrana, Kabupaten Jembrana, Bali","Kabupaten Jembrana, Bali",BALI,,Indonesia,,,,-8.3605987,114.6256578,https://maps.google.com/?cid=0x0:0xd668745c2713a1d7,
mall,Pusat Perbelanjaan,Grand mall jembrana city,"JJRH+QR2, Pendem, Kec. Jembrana, Kabupaten Jembrana, Bali 82218","Pendem, Kec. Jembrana, Kabupaten Jembrana",BALI,82218.0,Indonesia,,,,-8.3581155,114.6295278,https://maps.google.com/?cid=0x0:0xb8b1879bf7b689bd,
mall,Pasar,Pasar Umum jembrana,"JJQR+RPQ, Dauhwaru, Kec. Jembrana, Kabupaten Jembrana, Bali 82218","Dauhwaru, Kec. Jembrana, Kabupaten Jembrana",BALI,82218.0,Indonesia,,,,-8.3604182,114.6418621,https://maps.google.com/?cid=0x0:0xfd47c48e3c154554,
mall,Kantor Pemerintah,Mal Pelayanan Publik (MPP) Kabupaten Jembrana,"Jl. Udayana No.16, Baler Bale Agung, Kec. Negara, Kabupaten Jembrana, Bali 82218","Baler Bale Agung, Kec. Negara, Kabupaten Jembrana",BALI,82218.0,Indonesia,3654740120.0,,,-8.3566266,114.6188723,https://maps.google.com/?cid=0x0:0x2a422fae858958c6,
mall,Toko Kain Linen,Subur Fashion Center,"Jl. Ngurah Rai No.40, Loloan Tim., Kec. Jembrana, Kabupaten Jembrana, Bali 82218","Loloan Tim., Kec. Jembrana, Kabupaten Jembrana",BALI,82218.0,Indonesia,8113807789.0,,,-8.3608627,114.6281715,https://maps.google.com/?cid=0x0:0xbf964b9327da834e,
mall,Pusat Perbelanjaan,May May,"Jl. Ngurah Rai No.20, Loloan Tim., Kec. Negara, Kabupaten Jembrana, Bali 82218","Loloan Tim., Kec. Negara, Kabupaten Jembrana",BALI,82218.0,Indonesia,,,,-8.3607568,114.6270294,https://maps.google.com/?cid=0x0:0xf2a0ca229b2cab71,
mall,Toko,Bale betet,"JJMC+MGF, Jl. Durian, Loloan Bar., Kec. Negara, Kabupaten Jembrana, Bali 82218","Jl. Durian, Loloan Bar., Kec. Negara, Kabupaten Jembrana",BALI,82218.0,Indonesia,81231119130.0,,,-8.3658182,114.6212916,https://maps.google.com/?cid=0x0:0xebcbacfcf1fbd87c,
mall,Toko Sepatu,Biawak Footwear bali,"Jl. Ngurah Rai No.129, Pendem, Kec. Negara, Kabupaten Jembrana, Bali 82218","Pendem, Kec. Negara, Kabupaten Jembrana",BALI,82218.0,Indonesia,83117918303.0,,,-8.360889,114.6336534,https://maps.google.com/?cid=0x0:0x2f2fbf736bc8acb,
mall,Gudang,Cv. Jaya negara Distributor,"lingkungan sri mand, Jl. Gn. Batur Gg. III, Dauhwaru, Kec. Jembrana, Kabupaten Jembrana, Bali 82218","Jl. Gn. Batur Gg. III, Dauhwaru, Kec. Jembrana, Kabupaten Jembrana",BALI,82218.0,Indonesia,,,,-8.3633929,114.6305291,https://maps.google.com/?cid=0x0:0x8ed92c67e7f1892f,
mall,Toko,Pasar Banjar,"Jl. Yudistira No.12-10, Banjar Tengah, Kec. Negara, Kabupaten Jembrana, Bali 82218","Banjar Tengah, Kec. Negara, Kabupaten Jembrana",BALI,82218.0,Indonesia,,,,-8.3570544,114.6146093,https://maps.google.com/?cid=0x0:0xfd2e4ba3a7542910,
mall,Toko Pakaian,May May Cabang BB Agung,"Jl. Ratna No.3, Baler Bale Agung, Kec. Negara, Kabupaten Jembrana, Bali 82218","Baler Bale Agung, Kec. Negara, Kabupaten Jembrana",BALI,82218.0,Indonesia,87881238999.0,,,-8.3564953,114.6227448,https://maps.google.com/?cid=0x0:0xfe99adf98050e7f6,
mall,Toko Ponsel,Rk Phone,"JJMG+H58, Jl. Gn. Agung, Loloan Tim., Kec. Jembrana, Kabupaten Jembrana, Bali 82218","Jl. Gn. Agung, Loloan Tim., Kec. Jembrana, Kabupaten Jembrana",BALI,82218.0,Indonesia,83119336606.0,,,-8.3660935,114.6254592,https://maps.google.com/?cid=0x0:0xbbb22bd915ef0e99,
mall,Toko Ponsel,EL CITY CELLULAR,"Jl. Ngurah Rai No.44, Loloan Tim., Kec. Jembrana, Kabupaten Jembrana, Bali 82218","Loloan Tim., Kec. Jembrana, Kabupaten Jembrana",BALI,82218.0,Indonesia,81231119130.0,,,-8.3607872,114.6285708,https://maps.google.com/?cid=0x0:0xbfe138abcdd4a9bc,
mall,Toko Pakaian,Kebaya Bali,"Jl. Danau Meninjau No.11a, Lelateng, Kec. Negara, Kabupaten Jembrana, Bali 82218","Lelateng, Kec. Negara, Kabupaten Jembrana",BALI,82218.0,Indonesia,82145309348.0,,,-8.3662139,114.6184906,https://maps.google.com/?cid=0x0:0xcdef85450a769309,
mall,Toko Swalayan,Artasedana Negara,"Jl. Ngurah Rai No.95, Pendem, Kec. Negara, Kabupaten Jembrana, Bali 82218","Pendem, Kec. Negara, Kabupaten Jembrana",BALI,82218.0,Indonesia,87749995559.0,,,-8.3603732,114.6279088,https://maps.google.com/?cid=0x0:0x1d01de180f38e928,
mall,Toko bahan makanan,PolloS Mart,"HMX4+R88, Yeh Kuning, Kec. Jembrana, Kabupaten Jembrana, Bali","Kabupaten Jembrana, Bali",BALI,,Indonesia,85738007495.0,,,-8.4004628,114.6558177,https://maps.google.com/?cid=0x0:0x8421827659cedc93,
mall,Toko,Toko Rahayu Swalayan,"Jl. Ngurah Rai No.39, Loloan Tim., Kec. Jembrana, Kabupaten Jembrana, Bali 82218","Loloan Tim., Kec. Jembrana, Kabupaten Jembrana",BALI,82218.0,Indonesia,811390090.0,,,-8.3607286,114.6265016,https://maps.google.com/?cid=0x0:0x7c15968b08088ff3,
mall,Pusat Perbelanjaan,Sunday Store,"Jl. P. Irian No.19, Menega, Kec. Negara, Kabupaten Jembrana, Bali 82218","Menega, Kec. Negara, Kabupaten Jembrana",BALI,82218.0,Indonesia,81617397416.0,,,-8.3652549,114.6415226,https://maps.google.com/?cid=0x0:0xc929a08212e6e0ea,
mall,Pusat Perbelanjaan,Bakul cangkingan home,"Jl. Bimasena No.7, Banjar Tengah, Kec. Negara, Kabupaten Jembrana, Bali 82218","Banjar Tengah, Kec. Negara, Kabupaten Jembrana",BALI,82218.0,Indonesia,85336035495.0,,,-8.3561138,114.6131332,https://maps.google.com/?cid=0x0:0xa6ea3e9e38f9852b,
mall,Pusat Perbelanjaan,Warung Kecil,"Jl. Nusa Indah Jl. Nusa Indah Gg. II, Baler Bale Agung, Kec. Negara, Kabupaten Jembrana, Bali 82218","Baler Bale Agung, Kec. Negara, Kabupaten Jembrana",BALI,82218.0,Indonesia,83114777950.0,,,-8.343557,114.6195798,https://maps.google.com/?cid=0x0:0xecab71a5493679,
mall,Toko Sepatu,Toko Sepatu Citra,"Jl. Ngurah Rai, Loloan Tim., Kec. Jembrana, Kabupaten Jembrana, Bali 82218","Loloan Tim., Kec. Jembrana, Kabupaten Jembrana",BALI,82218.0,Indonesia,,,,-8.3608376,114.6282879,https://maps.google.com/?cid=0x0:0xfc5aaf66214d26e7,
mall,Pasar,Pasar Inpres Negara,"Pendem, Kec. Jembrana, Kabupaten Jembrana, Bali 82218","Kec. Jembrana, Kabupaten Jembrana",BALI,82218.0,Indonesia,,,,-8.3594571,114.6264714,https://maps.google.com/?cid=0x0:0x1a13e138d93444ca,
mall,Toko Suvenir,Pusat oleh-oleh Jembrana,"JJRH+XRJ, Pendem, Kec. Negara, Kabupaten Jembrana, Bali 82218","Pendem, Kec. Negara, Kabupaten Jembrana",BALI,82218.0,Indonesia,,,,-8.3575426,114.6295055,https://maps.google.com/?cid=0x0:0xd43ed6534e96253e,
mall,Pusat Perbelanjaan,UD JAYA NEGARA,"Jl. Danau Beratan No.63, Lelateng, Kec. Negara, Kabupaten Jembrana, Bali 82218","Lelateng, Kec. Negara, Kabupaten Jembrana",BALI,82218.0,Indonesia,82144487878.0,,,-8.3636867,114.6141855,https://maps.google.com/?cid=0x0:0x779b569ccc4f321e,
mall,mall,Bali 82252,"Kec. Melaya, Kabupaten Jembrana, Bali","Kabupaten Jembrana, Bali",BALI,,Indonesia,,,,-8.2331562,114.5005038,https://maps.google.com/?cid=0x0:0x1c00c5eb6016c2f0,
mall,Pusat Perbelanjaan,Sapi bali MT,"jl.cempaka No.3, puseh, Tuwed, Kec. Melaya, Kabupaten Jembrana, Bali 82252","puseh, Tuwed, Kec. Melaya, Kabupaten Jembrana",BALI,82252.0,Indonesia,,,,-8.3217033,114.5360617,https://maps.google.com/?cid=0x0:0x1984b34b92d70fc8,
mall,Pusat Perbelanjaan,ERIK Ngawi,"QF2W+GRJ, Melaya, Kec. Melaya, Kabupaten Jembrana, Bali 82252","Melaya, Kec. Melaya, Kabupaten Jembrana",BALI,82252.0,Indonesia,,,,-8.248658,114.4970269,https://maps.google.com/?cid=0x0:0x8a44efbbe6449306,
mall,Toko,Gula Semut Bali,"PFQV+VGJ, Jl. Malaya Tengah, Melaya, Kec. Melaya, Kabupaten Jembrana, Bali 82252","Jl. Malaya Tengah, Melaya, Kec. Melaya, Kabupaten Jembrana",BALI,82252.0,Indonesia,85738982313.0,,,-8.2602975,114.4937606,https://maps.google.com/?cid=0x0:0xaf187a44bb9a26aa,
mall,Toko,Toko Mardood,"PGRM+FHR, Ekasari, Kec. Melaya, Kabupaten Jembrana, Bali 82252","Ekasari, Kec. Melaya, Kabupaten Jembrana",BALI,82252.0,Indonesia,85847832638.0,,,-8.2587711,114.533904,https://maps.google.com/?cid=0x0:0xe1bf5ca5d6e3f6b7,
mall,Toko,Toko Nasikah,"RCHJ+9XC, Gilimanuk, Kec. Melaya, Kabupaten Jembrana, Bali 82252","Gilimanuk, Kec. Melaya, Kabupaten Jembrana",BALI,82252.0,Indonesia,,,,-8.1715665,114.4324002,https://maps.google.com/?cid=0x0:0x56428613442f0686,
mall,Pusat Perbelanjaan,AGRO.GILIMANUK,"RCJM+9VJ, Gilimanuk, Kec. Melaya, Kabupaten Jembrana, Bali 82252","Gilimanuk, Kec. Melaya, Kabupaten Jembrana",BALI,82252.0,Indonesia,87714636998.0,,,-8.1690437,114.4346555,https://maps.google.com/?cid=0x0:0xfa60d152f1e41c2a,
mall,Toko,Toko MERTA ASIH,"Jl. Sarikuning,Dsn sarikuning TA, Tukadaya, Kec. Melaya, Kabupaten Jembrana, Bali 82252","Tukadaya, Kec. Melaya, Kabupaten Jembrana",BALI,82252.0,Indonesia,85792550966.0,,,-8.2792988,114.5694124,https://maps.google.com/?cid=0x0:0x790efd552ab24c25,
mall,Pusat Perbelanjaan,Wr. Holla Boba,"Jl. Nusasari, Melaya, Kec. Melaya, Kabupaten Jembrana, Bali 82252","Melaya, Kec. Melaya, Kabupaten Jembrana",BALI,82252.0,Indonesia,85739264092.0,,,-8.2705861,114.5049816,https://maps.google.com/?cid=0x0:0xa0eca6353be82d7e,
mall,Pusat Perbelanjaan,Sapisuper Aritari,"PGXG+6PW, Ekasari, Kec. Melaya, Kabupaten Jembrana, Bali 82252","Ekasari, Kec. Melaya, Kabupaten Jembrana",BALI,82252.0,Indonesia,87761528062.0,,,-8.2518833,114.5268196,https://maps.google.com/?cid=0x0:0x7a618f479250dcd4,
mall,Toko,warung buk saminah,"PFQV+VGF, Melaya, Kec. Melaya, Kabupaten Jembrana, Bali 82252","Melaya, Kec. Melaya, Kabupaten Jembrana",BALI,82252.0,Indonesia,,,,-8.2603203,114.4937994,https://maps.google.com/?cid=0x0:0xe7978396db2e9c2b,
mall,Indonesia,Lapak Bu Giman,"Jl. Nusa Indah No.4, Blimbingsari, Kec. Melaya, Kabupaten Jembrana, Bali 82252","Blimbingsari, Kec. Melaya, Kabupaten Jembrana",BALI,82252.0,Indonesia,85738440435.0,,,-8.2400176,114.5172228,https://maps.google.com/?cid=0x0:0xa71489bdb41fb735,
mall,Gedung Apartemen,GAJAH PARA Berawantangi TUWED.,"MGWP+929, Jl. Sari Bumi, dusun berawantangi, Tuwed, Kec. Melaya, Kabupaten Jembrana, Bali 82252","Jl. Sari Bumi, dusun berawantangi, Tuwed, Kec. Melaya, Kabupaten Jembrana",BALI,82252.0,Indonesia,87863214497.0,,,-8.3040806,114.535099,https://maps.google.com/?cid=0x0:0x3bc662a6cb3d6651,
mall,Peternakan Ayam,Kandang Sapi Bali GD,"MGRF+RH2, Dekat, Jl. Raya Denpasar - Gilimanuk, Candikusuma, Melaya, Jembrana Regency, Bali 82252","Dekat, Jl. Raya Denpasar - Gilimanuk, Candikusuma, Melaya, Jembrana Regency",BALI,82252.0,Indonesia,81236045049.0,,,-8.3079921,114.523887,https://maps.google.com/?cid=0x0:0xa063afcd60d850dc,
mall,Pusat Perbelanjaan,Fatan hostpot,"Asian Highway No.2, Candikusuma, Melaya, Jembrana Regency, Bali 82252","Candikusuma, Melaya, Jembrana Regency",BALI,82252.0,Indonesia,,,,-8.3029619,114.514676,https://maps.google.com/?cid=0x0:0xf3cdb9a1b9b337c4,
mall,Pusat Perbelanjaan,Oemah Manuk R_K,"RCJR+V5W, Gilimanuk, Kec. Melaya, Kabupaten Jembrana, Bali 82252","Gilimanuk, Kec. Melaya, Kabupaten Jembrana",BALI,82252.0,Indonesia,82145928758.0,,,-8.1677542,114.4404602,https://maps.google.com/?cid=0x0:0x1dc0ac62c4f8fac3,
mall,Pusat Perbelanjaan,okta little shop,"PGVP+JPJ, Unnamed Road, Ekasari, Kec. Melaya, Kabupaten Jembrana, Bali 82252","Unnamed Road, Ekasari, Kec. Melaya, Kabupaten Jembrana",BALI,82252.0,Indonesia,87861576607.0,,,-8.255903,114.5367665,https://maps.google.com/?cid=0x0:0xbb4f68a2617c014,
mall,Pusat Perbelanjaan,UD Sedana Ayu,"MGGR+263, Jl. Raya Denpasar - Gilimanuk, Tuwed, Kec. Melaya, Kabupaten Jembrana, Bali 82252","Jl. Raya Denpasar - Gilimanuk, Tuwed, Kec. Melaya, Kabupaten Jembrana",BALI,82252.0,Indonesia,81338342345.0,,,-8.3249851,114.5405521,https://maps.google.com/?cid=0x0:0xeb0dbbe7ece1415e,
mall,Toko,UD SARI WIJA,"PGVJ+9JW, Unnamed Road, Ekasari, Kec. Melaya, Kabupaten Jembrana, Bali 82252","Unnamed Road, Ekasari, Kec. Melaya, Kabupaten Jembrana",BALI,82252.0,Indonesia,,,,-8.2565142,114.5315644,https://maps.google.com/?cid=0x0:0xcab3a104a9037cc7,
mall,Salon Kecantikan,WR.SALON SELLA,"PGJ4+68V, Nusasari, Kec. Melaya, Kabupaten Jembrana, Bali 82252","Nusasari, Kec. Melaya, Kabupaten Jembrana",BALI,82252.0,Indonesia,83147854084.0,,,-8.2693959,114.5058036,https://maps.google.com/?cid=0x0:0x1ad9526a8fb0ccea,
mall,Pasar,Pasar Desa Manistutu,"MHHH+3G2, Manistutu, Kec. Melaya, Kabupaten Jembrana, Bali 82218","Manistutu, Kec. Melaya, Kabupaten Jembrana",BALI,82218.0,Indonesia,,,,-8.3223508,114.5787808,https://maps.google.com/?cid=0x0:0xdd530b6d30abbf64,
mall,Toko Ikan,Patik sari.budidaya lele,"PH44+PH3, Tukadaya, Kec. Melaya, Kabupaten Jembrana, Bali 82252","Tukadaya, Kec. Melaya, Kabupaten Jembrana",BALI,82252.0,Indonesia,82144036927.0,,,-8.2932363,114.5564124,https://maps.google.com/?cid=0x0:0xc86da2253d91f4a4,
mall,mall,Bali 82261,"Kec. Mendoyo, Kabupaten Jembrana, Bali","Kabupaten Jembrana, Bali",BALI,,Indonesia,,,,-8.2984574,114.7380385,https://maps.google.com/?cid=0x0:0x1c00c5eb6016c300,
mall,,Pasar Yehembang ᬧᭂᬓᭂᬦ᭄u200bᬬᬾᬳᭂᬫ᭄ᬩᬂ,"JQ53+5C9, Yeh Embang, Kec. Mendoyo, Kabupaten Jembrana, Bali 82261","Yeh Embang, Kec. Mendoyo, Kabupaten Jembrana",BALI,82261.0,Indonesia,,,,-8.3920781,114.7535989,https://maps.google.com/?cid=0x0:0x993266dad0b97102,
mall,Pusat Perbelanjaan,Grand mall jembrana city,"JJRH+QR2, Pendem, Kec. Jembrana, Kabupaten Jembrana, Bali 82218","Pendem, Kec. Jembrana, Kabupaten Jembrana",BALI,82218.0,Indonesia,,,,-8.3581155,114.6295278,https://maps.google.com/?cid=0x0:0xb8b1879bf7b689bd,
mall,mall,GURU WIJA HOME,"MP97+5MF, Munduk anyar, Tegal Cangkring","Kabupaten Jembrana, Bali",BALI,,Indonesia,,,,-8.3320601,114.7141813,https://maps.google.com/?cid=0x0:0xdeeca79760905cd6,
mall,Pusat Perbelanjaan,Rhisna nux,"Jl. Kartini, Penyaringan, Kec. Mendoyo, Kabupaten Jembrana, Bali 82261","Penyaringan, Kec. Mendoyo, Kabupaten Jembrana",BALI,82261.0,Indonesia,,,,-8.36484,114.7036894,https://maps.google.com/?cid=0x0:0xc4d6bd538a1b6a0d,
mall,Toko,Buk Luh Hendra,"JPR5+2V3, Penyaringan, Kec. Mendoyo, Kabupaten Jembrana, Bali 82261","Penyaringan, Kec. Mendoyo, Kabupaten Jembrana",BALI,82261.0,Indonesia,85847009949.0,,,-8.3599958,114.7096816,https://maps.google.com/?cid=0x0:0x31b908f90f228190,
mall,Pusat Perbelanjaan,TOKO GIRI MULIA,"JPJ3+Q2P, Jl. Ngurah Rai, Tegal Cangkring, Kec. Mendoyo, Kabupaten Jembrana, Bali 82261","Jl. Ngurah Rai, Tegal Cangkring, Kec. Mendoyo, Kabupaten Jembrana",BALI,82261.0,Indonesia,81999324432.0,,,-8.3680256,114.7025918,https://maps.google.com/?cid=0x0:0xa2c7bb8f13861d4e,
mall,Pusat Perbelanjaan,Wr. Wa One,"JM3G+8RQ, Jl. Air Kuning, Delod Berawah, Kec. Mendoyo, Kabupaten Jembrana, Bali","Kabupaten Jembrana, Bali",BALI,,Indonesia,87861547576.0,,,-8.3966633,114.6770986,https://maps.google.com/?cid=0x0:0xe36615b22b0bd093,
mall,Toko,Pedagang tapel ogoh ogoh,"JMQF+JQ7, Pohsanten, Kec. Negara, Kabupaten Jembrana, Bali 82261","Pohsanten, Kec. Negara, Kabupaten Jembrana",BALI,82261.0,Indonesia,,,,-8.360951,114.67442,https://maps.google.com/?cid=0x0:0x6959c5f42be8678c,
mall,Pusat Perbelanjaan,Warung BIYANG ENI,"JMXC+27H, Unnamed Road, Mendoyo Dauh Tukad, Kec. Mendoyo, Kabupaten Jembrana, Bali 82261","Unnamed Road, Mendoyo Dauh Tukad, Kec. Mendoyo, Kabupaten Jembrana",BALI,82261.0,Indonesia,,,,-8.3524373,114.670719,https://maps.google.com/?cid=0x0:0xfe741c72a3315a63,
mall,Pusat Perbelanjaan,Narottamart,"Banjar Rangdu, Pohsanten, Kec. Mendoyo, Kabupaten Jembrana, Bali 82261","Pohsanten, Kec. Mendoyo, Kabupaten Jembrana",BALI,82261.0,Indonesia,87860799290.0,,,-8.3601846,114.681093,https://maps.google.com/?cid=0x0:0x76b5bea14a52d33a,
mall,Toko Pakaian,May May Cabang BB Agung,"Jl. Ratna No.3, Baler Bale Agung, Kec. Negara, Kabupaten Jembrana, Bali 82218","Baler Bale Agung, Kec. Negara, Kabupaten Jembrana",BALI,82218.0,Indonesia,87881238999.0,,,-8.3564953,114.6227448,https://maps.google.com/?cid=0x0:0xfe99adf98050e7f6,
mall,Pusat Perbelanjaan,May May,"Jl. Ngurah Rai No.20, Loloan Tim., Kec. Negara, Kabupaten Jembrana, Bali 82218","Loloan Tim., Kec. Negara, Kabupaten Jembrana",BALI,82218.0,Indonesia,,,,-8.3607568,114.6270294,https://maps.google.com/?cid=0x0:0xf2a0ca229b2cab71,
mall,Pusat Perbelanjaan,Warung Ari Lestari,"MM38+G2H, Unnamed Road, Mendoyo Dauh Tukad, Kec. Mendoyo, Kabupaten Jembrana, Bali 82261","Unnamed Road, Mendoyo Dauh Tukad, Kec. Mendoyo, Kabupaten Jembrana",BALI,82261.0,Indonesia,,,,-8.346182,114.6651182,https://maps.google.com/?cid=0x0:0x5c27761f6f1d377c,
mall,Toko Perlengkapan Rumah,Mini Market,"JM96+69M, Mendoyo Dangin Tukad, Kec. Mendoyo, Kabupaten Jembrana, Bali 82218","Mendoyo Dangin Tukad, Kec. Mendoyo, Kabupaten Jembrana",BALI,82218.0,Indonesia,,,,-8.3819127,114.6609257,https://maps.google.com/?cid=0x0:0x3331810c53050f92,
mall,Kedai Kopi,Banana Jecko,"JMHH+R28, Gilimanuk-Denpasar, Pohsanten, Kec. Mendoyo, Kabupaten Jembrana, Bali 82261","Gilimanuk-Denpasar, Pohsanten, Kec. Mendoyo, Kabupaten Jembrana",BALI,82261.0,Indonesia,85738555986.0,,,-8.3704598,114.6775702,https://maps.google.com/?cid=0x0:0x51e97b4dc1526312,
mall,Pusat Perbelanjaan,Warung Men Becek,"JMCQ+95M, Tegal Cangkring, Kec. Mendoyo, Kabupaten Jembrana, Bali 82261","Tegal Cangkring, Kec. Mendoyo, Kabupaten Jembrana",BALI,82261.0,Indonesia,82237161136.0,,,-8.3790253,114.6879292,https://maps.google.com/?cid=0x0:0xa7c2b2b27914ab0b,
mall,Pusat Perbelanjaan,Warung Bahan Pokok Mr. Oking,"MM8X+QCC, banjar pasatan, Pohsanten, Kec. Mendoyo, Kabupaten Jembrana, Bali 82261","banjar pasatan, Pohsanten, Kec. Mendoyo, Kabupaten Jembrana",BALI,82261.0,Indonesia,,,,-8.3330638,114.6985153,https://maps.google.com/?cid=0x0:0xfda8f7f47ece2f7b,
mall,Pusat Perbelanjaan,bebek dek wani,"JP9G+P5H, Penyaringan, Kec. Mendoyo, Kabupaten Jembrana, Bali 82261","Penyaringan, Kec. Mendoyo, Kabupaten Jembrana",BALI,82261.0,Indonesia,83111851222.0,,,-8.3806845,114.7254828,https://maps.google.com/?cid=0x0:0xb182ff2bc49dd0ea,
mall,Toko Swalayan,Lanang Sembako,"JPF2+H32, Jl. Salak, Tegal Cangkring, Kec. Mendoyo, Kabupaten Jembrana, Bali 82261","Jl. Salak, Tegal Cangkring, Kec. Mendoyo, Kabupaten Jembrana",BALI,82261.0,Indonesia,87762245588.0,,,-8.376105,114.700138,https://maps.google.com/?cid=0x0:0x933f2499bab3fb6a,
mall,Pusat Perbelanjaan,Grand mall jembrana city,"JJRH+QR2, Pendem, Kec. Jembrana, Kabupaten Jembrana, Bali 82218","Pendem, Kec. Jembrana, Kabupaten Jembrana",BALI,82218.0,Indonesia,,,,-8.3581155,114.6295278,https://maps.google.com/?cid=0x0:0xb8b1879bf7b689bd,
mall,mall,Bali 82212,"Kec. Negara, Kabupaten Jembrana, Bali","Kabupaten Jembrana, Bali",BALI,,Indonesia,,,,-8.2907104,114.6252282,https://maps.google.com/?cid=0x0:0x1c00c5eb6016c270,
mall,Pusat Perbelanjaan,TOKO MINISO JEMBRANA,"JJQM+MCC, Pendem, Kec. Negara, Kabupaten Jembrana, Bali 82218","Pendem, Kec. Negara, Kabupaten Jembrana",BALI,82218.0,Indonesia,81938217007.0,,,-8.3608153,114.6335056,https://maps.google.com/?cid=0x0:0xcc44ab380fbbb842,
mall,Toko,Bagus jaya,"PJ79+2V7, Unnamed Road, Berangbang, Kec. Negara, Kabupaten Jembrana, Bali 82212","Unnamed Road, Berangbang, Kec. Negara, Kabupaten Jembrana",BALI,82212.0,Indonesia,87866197699.0,,,-8.2874728,114.6196807,https://maps.google.com/?cid=0x0:0xc26984448890ef32,
mall,Toko,Rahayu Dekorasi ᬭᬳᬬᬸᬤᭂᬓᭀᬭᬲᬶ᭟,"JHVW+P44, Jl. Kamboja, Baluk, Kec. Negara, Kabupaten Jembrana, Bali 82212","Jl. Kamboja, Baluk, Kec. Negara, Kabupaten Jembrana",BALI,82212.0,Indonesia,,,,-8.355732,114.5953408,https://maps.google.com/?cid=0x0:0xcc1ef6a6aee5b671,
mall,Toko,Long Cell,"MJ87+QGW, Berangbang, Kec. Negara, Kabupaten Jembrana, Bali 82212","Berangbang, Kec. Negara, Kabupaten Jembrana",BALI,82212.0,Indonesia,81558273997.0,,,-8.3330027,114.6138394,https://maps.google.com/?cid=0x0:0xcbc656757ba41d49,
mall,Toko Pakaian,May May Cabang BB Agung,"Jl. Ratna No.3, Baler Bale Agung, Kec. Negara, Kabupaten Jembrana, Bali 82218","Baler Bale Agung, Kec. Negara, Kabupaten Jembrana",BALI,82218.0,Indonesia,87881238999.0,,,-8.3564953,114.6227448,https://maps.google.com/?cid=0x0:0xfe99adf98050e7f6,
mall,Toko,Pasar Banjar,"Jl. Yudistira No.12-10, Banjar Tengah, Kec. Negara, Kabupaten Jembrana, Bali 82218","Banjar Tengah, Kec. Negara, Kabupaten Jembrana",BALI,82218.0,Indonesia,,,,-8.3570544,114.6146093,https://maps.google.com/?cid=0x0:0xfd2e4ba3a7542910,
mall,Pasar,Pasar Umum jembrana,"JJQR+RPQ, Dauhwaru, Kec. Jembrana, Kabupaten Jembrana, Bali 82218","Dauhwaru, Kec. Jembrana, Kabupaten Jembrana",BALI,82218.0,Indonesia,,,,-8.3604182,114.6418621,https://maps.google.com/?cid=0x0:0xfd47c48e3c154554,
mall,Pusat Perbelanjaan,Bakul cangkingan home,"Jl. Bimasena No.7, Banjar Tengah, Kec. Negara, Kabupaten Jembrana, Bali 82218","Banjar Tengah, Kec. Negara, Kabupaten Jembrana",BALI,82218.0,Indonesia,85336035495.0,,,-8.3561138,114.6131332,https://maps.google.com/?cid=0x0:0xa6ea3e9e38f9852b,
mall,Pusat Perbelanjaan,86 Yoga Cell,"Unnamed Road, Kaliakah, Kec. Negara, Kabupaten Jembrana, Bali 82212","Kaliakah, Kec. Negara, Kabupaten Jembrana",BALI,82212.0,Indonesia,,,,-8.3380359,114.6032384,https://maps.google.com/?cid=0x0:0x3626e08549bff229,
mall,Gudang,Cv. Jaya negara Distributor,"lingkungan sri mand, Jl. Gn. Batur Gg. III, Dauhwaru, Kec. Jembrana, Kabupaten Jembrana, Bali 82218","Jl. Gn. Batur Gg. III, Dauhwaru, Kec. Jembrana, Kabupaten Jembrana",BALI,82218.0,Indonesia,,,,-8.3633929,114.6305291,https://maps.google.com/?cid=0x0:0x8ed92c67e7f1892f,
mall,Pusat Perbelanjaan,May May,"Jl. Ngurah Rai No.20, Loloan Tim., Kec. Negara, Kabupaten Jembrana, Bali 82218","Loloan Tim., Kec. Negara, Kabupaten Jembrana",BALI,82218.0,Indonesia,,,,-8.3607568,114.6270294,https://maps.google.com/?cid=0x0:0xf2a0ca229b2cab71,
mall,Komplek perumahan,Rumah Valen,"MJ28+GFP, Jl. Menori, Baler Bale Agung, Kec. Negara, Kabupaten Jembrana, Bali 82218","Jl. Menori, Baler Bale Agung, Kec. Negara, Kabupaten Jembrana",BALI,82218.0,Indonesia,,,,-8.3486662,114.616214,https://maps.google.com/?cid=0x0:0x13d6c22ac2a5b56a,
mall,Pusat Perbelanjaan,UD JAYA NEGARA,"Jl. Danau Beratan No.63, Lelateng, Kec. Negara, Kabupaten Jembrana, Bali 82218","Lelateng, Kec. Negara, Kabupaten Jembrana",BALI,82218.0,Indonesia,82144487878.0,,,-8.3636867,114.6141855,https://maps.google.com/?cid=0x0:0x779b569ccc4f321e,
mall,Pusat Perbelanjaan,Rai dijaya,"PJ64+CXP, Jl. Desa Berangbang, Berangbang, Kec. Negara, Kabupaten Jembrana, Bali 82218","Jl. Desa Berangbang, Berangbang, Kec. Negara, Kabupaten Jembrana",BALI,82218.0,Indonesia,,,,-8.2889117,114.6074673,https://maps.google.com/?cid=0x0:0xfe6bb673324475db,
mall,Toko Kain Linen,Subur Fashion Center,"Jl. Ngurah Rai No.40, Loloan Tim., Kec. Jembrana, Kabupaten Jembrana, Bali 82218","Loloan Tim., Kec. Jembrana, Kabupaten Jembrana",BALI,82218.0,Indonesia,8113807789.0,,,-8.3608627,114.6281715,https://maps.google.com/?cid=0x0:0xbf964b9327da834e,
mall,Pusat Perbelanjaan,Dewiifashionshouse,"MH2Q+C36, Unnamed Road, Banyu Biru, Kec. Negara, Kabupaten Jembrana, Bali 82218","Unnamed Road, Banyu Biru, Kec. Negara, Kabupaten Jembrana",BALI,82218.0,Indonesia,85847493523.0,,,-8.3489573,114.5876492,https://maps.google.com/?cid=0x0:0x576b66f18fadd59a,
mall,Toko,Warung Putri,"Jl. Bima No.2, Baluk, Kec. Negara, Kabupaten Jembrana, Bali 82213","Baluk, Kec. Negara, Kabupaten Jembrana",BALI,82213.0,Indonesia,82147531689.0,,,-8.358884,114.5959573,https://maps.google.com/?cid=0x0:0x56f3f12649ffb54f,
mall,Kios,the matsya koi bali,"Jl. Raya Sempidi Badung No.54, Banjar Tengah, Kec. Negara, Kabupaten Jembrana, Bali 82218","Banjar Tengah, Kec. Negara, Kabupaten Jembrana",BALI,82218.0,Indonesia,87860922877.0,,,-8.3586304,114.6118329,https://maps.google.com/?cid=0x0:0xaf5ef8211f9fdce0,
mall,Pusat Perbelanjaan,Warung Kecil,"Jl. Nusa Indah Jl. Nusa Indah Gg. II, Baler Bale Agung, Kec. Negara, Kabupaten Jembrana, Bali 82218","Baler Bale Agung, Kec. Negara, Kabupaten Jembrana",BALI,82218.0,Indonesia,83114777950.0,,,-8.343557,114.6195798,https://maps.google.com/?cid=0x0:0xecab71a5493679,
mall,Pusat Perbelanjaan,Yoga cell 2,"MJ72+F83 Dusun pangkung lip lip, Kaliakah, Kec. Negara, Kabupaten Jembrana, Bali 82212","Kaliakah, Kec. Negara, Kabupaten Jembrana",BALI,82212.0,Indonesia,,,,-8.3363677,114.6008037,https://maps.google.com/?cid=0x0:0x5c8a2312c42528,
mall,Komplek perumahan,Dedek Ucenk Farm,"MJ24+GV4, Kaliakah, Kec. Negara, Kabupaten Jembrana, Bali 82212","Kaliakah, Kec. Negara, Kabupaten Jembrana",BALI,82212.0,Indonesia,,,,-8.34854,114.6073617,https://maps.google.com/?cid=0x0:0x692db36efda14c9c,
mall,Toko Bahan Bangunan,Kantor Toko Tri Sakti Yudistira Baluk,"JJV2+HVF, Baluk, Kec. Negara, Kabupaten Jembrana, Bali 82212","Baluk, Kec. Negara, Kabupaten Jembrana",BALI,82212.0,Indonesia,,,,-8.356821,114.602071,https://maps.google.com/?cid=0x0:0x3249bfe87638640f,
mall,mall,Bali 82213,"Kabupaten Jembrana, Bali","Kabupaten Jembrana, Bali",BALI,,Indonesia,,,,-8.2534286,114.6549185,https://maps.google.com/?cid=0x0:0x1c00c5eb6016c280,
mall,Pusat Perbelanjaan,TOKO MINISO JEMBRANA,"JJQM+MCC, Pendem, Kec. Negara, Kabupaten Jembrana, Bali 82218","Pendem, Kec. Negara, Kabupaten Jembrana",BALI,82218.0,Indonesia,81938217007.0,,,-8.3608153,114.6335056,https://maps.google.com/?cid=0x0:0xcc44ab380fbbb842,
mall,Pusat Perbelanjaan,Grand mall jembrana city,"JJRH+QR2, Pendem, Kec. Jembrana, Kabupaten Jembrana, Bali 82218","Pendem, Kec. Jembrana, Kabupaten Jembrana",BALI,82218.0,Indonesia,,,,-8.3581155,114.6295278,https://maps.google.com/?cid=0x0:0xb8b1879bf7b689bd,
mall,Kantor Pemerintah,Mal Pelayanan Publik (MPP) Kabupaten Jembrana,"Jl. Udayana No.16, Baler Bale Agung, Kec. Negara, Kabupaten Jembrana, Bali 82218","Baler Bale Agung, Kec. Negara, Kabupaten Jembrana",BALI,82218.0,Indonesia,3654740120.0,,,-8.3566266,114.6188723,https://maps.google.com/?cid=0x0:0x2a422fae858958c6,
mall,Pusat Perbelanjaan,UD JAYA NEGARA,"Jl. Danau Beratan No.63, Lelateng, Kec. Negara, Kabupaten Jembrana, Bali 82218","Lelateng, Kec. Negara, Kabupaten Jembrana",BALI,82218.0,Indonesia,82144487878.0,,,-8.3636867,114.6141855,https://maps.google.com/?cid=0x0:0x779b569ccc4f321e,
mall,Toko,TOKO ARKA,"Baluk, Kec. Negara, Kabupaten Jembrana, Bali","Kabupaten Jembrana, Bali",BALI,,Indonesia,,,,-8.3530645,114.5737472,https://maps.google.com/?cid=0x0:0x9cb7d979a4cf5ba2,
mall,Kompleks Apartemen,pasar btn,"JHHR+9Q9 Tim, Tegal Badeng Tim., Kec. Negara, Kabupaten Jembrana, Bali 82214","Tegal Badeng Tim., Kec. Negara, Kabupaten Jembrana",BALI,82214.0,Indonesia,,,,-8.3715778,114.5919795,https://maps.google.com/?cid=0x0:0xd4692cc207ca1087,
mall,Pasar,Pasar Umum jembrana,"JJQR+RPQ, Dauhwaru, Kec. Jembrana, Kabupaten Jembrana, Bali 82218","Dauhwaru, Kec. Jembrana, Kabupaten Jembrana",BALI,82218.0,Indonesia,,,,-8.3604182,114.6418621,https://maps.google.com/?cid=0x0:0xfd47c48e3c154554,
mall,Toko Pakaian,May May Cabang BB Agung,"Jl. Ratna No.3, Baler Bale Agung, Kec. Negara, Kabupaten Jembrana, Bali 82218","Baler Bale Agung, Kec. Negara, Kabupaten Jembrana",BALI,82218.0,Indonesia,87881238999.0,,,-8.3564953,114.6227448,https://maps.google.com/?cid=0x0:0xfe99adf98050e7f6,
mall,Toko,Warung Putri,"Jl. Bima No.2, Baluk, Kec. Negara, Kabupaten Jembrana, Bali 82213","Baluk, Kec. Negara, Kabupaten Jembrana",BALI,82213.0,Indonesia,82147531689.0,,,-8.358884,114.5959573,https://maps.google.com/?cid=0x0:0x56f3f12649ffb54f,
mall,Toko,Bagus jaya,"PJ79+2V7, Unnamed Road, Berangbang, Kec. Negara, Kabupaten Jembrana, Bali 82212","Unnamed Road, Berangbang, Kec. Negara, Kabupaten Jembrana",BALI,82212.0,Indonesia,87866197699.0,,,-8.2874728,114.6196807,https://maps.google.com/?cid=0x0:0xc26984448890ef32,
mall,Toko,Bale betet,"JJMC+MGF, Jl. Durian, Loloan Bar., Kec. Negara, Kabupaten Jembrana, Bali 82218","Jl. Durian, Loloan Bar., Kec. Negara, Kabupaten Jembrana",BALI,82218.0,Indonesia,81231119130.0,,,-8.3658182,114.6212916,https://maps.google.com/?cid=0x0:0xebcbacfcf1fbd87c,
mall,Pusat Perbelanjaan,Dewiifashionshouse,"MH2Q+C36, Unnamed Road, Banyu Biru, Kec. Negara, Kabupaten Jembrana, Bali 82218","Unnamed Road, Banyu Biru, Kec. Negara, Kabupaten Jembrana",BALI,82218.0,Indonesia,85847493523.0,,,-8.3489573,114.5876492,https://maps.google.com/?cid=0x0:0x576b66f18fadd59a,
mall,Toko,Rahayu Dekorasi ᬭᬳᬬᬸᬤᭂᬓᭀᬭᬲᬶ᭟,"JHVW+P44, Jl. Kamboja, Baluk, Kec. Negara, Kabupaten Jembrana, Bali 82212","Jl. Kamboja, Baluk, Kec. Negara, Kabupaten Jembrana",BALI,82212.0,Indonesia,,,,-8.355732,114.5953408,https://maps.google.com/?cid=0x0:0xcc1ef6a6aee5b671,
mall,Toko Kain Linen,Subur Fashion Center,"Jl. Ngurah Rai No.40, Loloan Tim., Kec. Jembrana, Kabupaten Jembrana, Bali 82218","Loloan Tim., Kec. Jembrana, Kabupaten Jembrana",BALI,82218.0,Indonesia,8113807789.0,,,-8.3608627,114.6281715,https://maps.google.com/?cid=0x0:0xbf964b9327da834e,
mall,Pusat Perbelanjaan,May May,"Jl. Ngurah Rai No.20, Loloan Tim., Kec. Negara, Kabupaten Jembrana, Bali 82218","Loloan Tim., Kec. Negara, Kabupaten Jembrana",BALI,82218.0,Indonesia,,,,-8.3607568,114.6270294,https://maps.google.com/?cid=0x0:0xf2a0ca229b2cab71,
mall,Pusat Perbelanjaan,Bakul cangkingan home,"Jl. Bimasena No.7, Banjar Tengah, Kec. Negara, Kabupaten Jembrana, Bali 82218","Banjar Tengah, Kec. Negara, Kabupaten Jembrana",BALI,82218.0,Indonesia,85336035495.0,,,-8.3561138,114.6131332,https://maps.google.com/?cid=0x0:0xa6ea3e9e38f9852b,
mall,Komplek perumahan,Rumah Valen,"MJ28+GFP, Jl. Menori, Baler Bale Agung, Kec. Negara, Kabupaten Jembrana, Bali 82218","Jl. Menori, Baler Bale Agung, Kec. Negara, Kabupaten Jembrana",BALI,82218.0,Indonesia,,,,-8.3486662,114.616214,https://maps.google.com/?cid=0x0:0x13d6c22ac2a5b56a,
mall,Gudang,Cv. Jaya negara Distributor,"lingkungan sri mand, Jl. Gn. Batur Gg. III, Dauhwaru, Kec. Jembrana, Kabupaten Jembrana, Bali 82218","Jl. Gn. Batur Gg. III, Dauhwaru, Kec. Jembrana, Kabupaten Jembrana",BALI,82218.0,Indonesia,,,,-8.3633929,114.6305291,https://maps.google.com/?cid=0x0:0x8ed92c67e7f1892f,
mall,Toko Pakaian,Kebaya Bali,"Jl. Danau Meninjau No.11a, Lelateng, Kec. Negara, Kabupaten Jembrana, Bali 82218","Lelateng, Kec. Negara, Kabupaten Jembrana",BALI,82218.0,Indonesia,82145309348.0,,,-8.3662139,114.6184906,https://maps.google.com/?cid=0x0:0xcdef85450a769309,
mall,Toko Buah Kering,Raja Juss  Buah Jembrana,"JJH3+W5X, Jl. Danau Batur, Tegal Badeng Tim., Kec. Negara, Kabupaten Jembrana, Bali 82215","Jl. Danau Batur, Tegal Badeng Tim., Kec. Negara, Kabupaten Jembrana",BALI,82215.0,Indonesia,85203949787.0,,,-8.3701367,114.6029749,https://maps.google.com/?cid=0x0:0xfcd5de4b28a74a49,
mall,Kios,the matsya koi bali,"Jl. Raya Sempidi Badung No.54, Banjar Tengah, Kec. Negara, Kabupaten Jembrana, Bali 82218","Banjar Tengah, Kec. Negara, Kabupaten Jembrana",BALI,82218.0,Indonesia,87860922877.0,,,-8.3586304,114.6118329,https://maps.google.com/?cid=0x0:0xaf5ef8211f9fdce0,
mall,Butik,Butik Nrcollection 2,"Jl. Danau Batur, Lelateng, Kec. Negara, Kabupaten Jembrana, Bali","Kabupaten Jembrana, Bali",BALI,,Indonesia,81237988600.0,,,-8.3704316,114.6125836,https://maps.google.com/?cid=0x0:0x8e5cff3bb7204e2c,
mall,Toko,Savana Store,"MH2M+CC4, Jl. Raya Denpasar - Gilimanuk, Banyu Biru, Kec. Negara, Kabupaten Jembrana, Bali 82218","Jl. Raya Denpasar - Gilimanuk, Banyu Biru, Kec. Negara, Kabupaten Jembrana",BALI,82218.0,Indonesia,88219255063.0,,,-8.3489885,114.583587,https://maps.google.com/?cid=0x0:0xd7f90f824992e8b1,
mall,mall,Bali 82214,"Kec. Negara, Kabupaten Jembrana, Bali","Kabupaten Jembrana, Bali",BALI,,Indonesia,,,,-8.3762569,114.5925663,https://maps.google.com/?cid=0x0:0x1c00c5eb6016c290,
mall,Pusat Perbelanjaan,Grand mall jembrana city,"JJRH+QR2, Pendem, Kec. Jembrana, Kabupaten Jembrana, Bali 82218","Pendem, Kec. Jembrana, Kabupaten Jembrana",BALI,82218.0,Indonesia,,,,-8.3581155,114.6295278,https://maps.google.com/?cid=0x0:0xb8b1879bf7b689bd,
mall,Kantor Pemerintah,Mal Pelayanan Publik (MPP) Kabupaten Jembrana,"Jl. Udayana No.16, Baler Bale Agung, Kec. Negara, Kabupaten Jembrana, Bali 82218","Baler Bale Agung, Kec. Negara, Kabupaten Jembrana",BALI,82218.0,Indonesia,3654740120.0,,,-8.3566266,114.6188723,https://maps.google.com/?cid=0x0:0x2a422fae858958c6,
mall,Pusat Perbelanjaan,TOKO MINISO JEMBRANA,"JJQM+MCC, Pendem, Kec. Negara, Kabupaten Jembrana, Bali 82218","Pendem, Kec. Negara, Kabupaten Jembrana",BALI,82218.0,Indonesia,81938217007.0,,,-8.3608153,114.6335056,https://maps.google.com/?cid=0x0:0xcc44ab380fbbb842,
mall,Pusat Perbelanjaan,UD JAYA NEGARA,"Jl. Danau Beratan No.63, Lelateng, Kec. Negara, Kabupaten Jembrana, Bali 82218","Lelateng, Kec. Negara, Kabupaten Jembrana",BALI,82218.0,Indonesia,82144487878.0,,,-8.3636867,114.6141855,https://maps.google.com/?cid=0x0:0x779b569ccc4f321e,
mall,Toko,Rahayu Dekorasi ᬭᬳᬬᬸᬤᭂᬓᭀᬭᬲᬶ᭟,"JHVW+P44, Jl. Kamboja, Baluk, Kec. Negara, Kabupaten Jembrana, Bali 82212","Jl. Kamboja, Baluk, Kec. Negara, Kabupaten Jembrana",BALI,82212.0,Indonesia,,,,-8.355732,114.5953408,https://maps.google.com/?cid=0x0:0xcc1ef6a6aee5b671,
mall,Toko,Warung Putri,"Jl. Bima No.2, Baluk, Kec. Negara, Kabupaten Jembrana, Bali 82213","Baluk, Kec. Negara, Kabupaten Jembrana",BALI,82213.0,Indonesia,82147531689.0,,,-8.358884,114.5959573,https://maps.google.com/?cid=0x0:0x56f3f12649ffb54f,
mall,Pusat Perbelanjaan,May May,"Jl. Ngurah Rai No.20, Loloan Tim., Kec. Negara, Kabupaten Jembrana, Bali 82218","Loloan Tim., Kec. Negara, Kabupaten Jembrana",BALI,82218.0,Indonesia,,,,-8.3607568,114.6270294,https://maps.google.com/?cid=0x0:0xf2a0ca229b2cab71,
mall,Toko Pakaian,Kebaya Bali,"Jl. Danau Meninjau No.11a, Lelateng, Kec. Negara, Kabupaten Jembrana, Bali 82218","Lelateng, Kec. Negara, Kabupaten Jembrana",BALI,82218.0,Indonesia,82145309348.0,,,-8.3662139,114.6184906,https://maps.google.com/?cid=0x0:0xcdef85450a769309,
mall,Toko Buah Kering,Raja Juss  Buah Jembrana,"JJH3+W5X, Jl. Danau Batur, Tegal Badeng Tim., Kec. Negara, Kabupaten Jembrana, Bali 82215","Jl. Danau Batur, Tegal Badeng Tim., Kec. Negara, Kabupaten Jembrana",BALI,82215.0,Indonesia,85203949787.0,,,-8.3701367,114.6029749,https://maps.google.com/?cid=0x0:0xfcd5de4b28a74a49,
mall,Butik,Butik Nrcollection 2,"Jl. Danau Batur, Lelateng, Kec. Negara, Kabupaten Jembrana, Bali","Kabupaten Jembrana, Bali",BALI,,Indonesia,81237988600.0,,,-8.3704316,114.6125836,https://maps.google.com/?cid=0x0:0x8e5cff3bb7204e2c,
mall,Restoran,Warung Artho Moro,"JHHW+7CM, Tegal Badeng Tim., Kec. Negara, Kabupaten Jembrana, Bali 82214","Tegal Badeng Tim., Kec. Negara, Kabupaten Jembrana",BALI,82214.0,Indonesia,81293035486.0,,,-8.3717872,114.5960607,https://maps.google.com/?cid=0x0:0x801dbfde3422934b,
mall,Toko Pakaian,May May Cabang BB Agung,"Jl. Ratna No.3, Baler Bale Agung, Kec. Negara, Kabupaten Jembrana, Bali 82218","Baler Bale Agung, Kec. Negara, Kabupaten Jembrana",BALI,82218.0,Indonesia,87881238999.0,,,-8.3564953,114.6227448,https://maps.google.com/?cid=0x0:0xfe99adf98050e7f6,
mall,Kios,the matsya koi bali,"Jl. Raya Sempidi Badung No.54, Banjar Tengah, Kec. Negara, Kabupaten Jembrana, Bali 82218","Banjar Tengah, Kec. Negara, Kabupaten Jembrana",BALI,82218.0,Indonesia,87860922877.0,,,-8.3586304,114.6118329,https://maps.google.com/?cid=0x0:0xaf5ef8211f9fdce0,
mall,Pusat Perbelanjaan,Dewiifashionshouse,"MH2Q+C36, Unnamed Road, Banyu Biru, Kec. Negara, Kabupaten Jembrana, Bali 82218","Unnamed Road, Banyu Biru, Kec. Negara, Kabupaten Jembrana",BALI,82218.0,Indonesia,85847493523.0,,,-8.3489573,114.5876492,https://maps.google.com/?cid=0x0:0x576b66f18fadd59a,
mall,Toko Pakaian,Umi Oktavia,"JH6J+4M3, Jl. Raya Negara-Pengambengan, Pengambengan, Kec. Negara, Kabupaten Jembrana, Bali 82218","Jl. Raya Negara-Pengambengan, Pengambengan, Kec. Negara, Kabupaten Jembrana",BALI,82218.0,Indonesia,,,,-8.3897327,114.5816634,https://maps.google.com/?cid=0x0:0x4f900ec9ed9b5264,
mall,Toko Perlengkapan Rumah,Warung Dekwi,"Jl. Bima No.11, Br No.2, Baluk, Kec. Negara, Kabupaten Jembrana, Bali 82251","Br No.2, Baluk, Kec. Negara, Kabupaten Jembrana",BALI,82251.0,Indonesia,,,,-8.3590739,114.5950183,https://maps.google.com/?cid=0x0:0xad88a786112feca6,
mall,Komplek perumahan,Rumah Valen,"MJ28+GFP, Jl. Menori, Baler Bale Agung, Kec. Negara, Kabupaten Jembrana, Bali 82218","Jl. Menori, Baler Bale Agung, Kec. Negara, Kabupaten Jembrana",BALI,82218.0,Indonesia,,,,-8.3486662,114.616214,https://maps.google.com/?cid=0x0:0x13d6c22ac2a5b56a,
mall,Toko,Toko Lancar jaya,"JH3P+G69, Pengambengan, Kec. Negara, Kabupaten Jembrana, Bali","Kabupaten Jembrana, Bali",BALI,,Indonesia,,,,-8.396218,114.5856116,https://maps.google.com/?cid=0x0:0x8d829008c1c55aa6,
mall,Toko grosir,TOKO RIF'AH,"JH5R+Q4J, Pengambengan, Kec. Negara, Kabupaten Jembrana, Bali 82218","Pengambengan, Kec. Negara, Kabupaten Jembrana",BALI,82218.0,Indonesia,,,,-8.390547,114.5902804,https://maps.google.com/?cid=0x0:0x707c1175686005f0,
mall,Pusat Perbelanjaan,Toko mahkota karpet,"JJP8+87Q, Lelateng, Kec. Negara, Kabupaten Jembrana, Bali 82218","Lelateng, Kec. Negara, Kabupaten Jembrana",BALI,82218.0,Indonesia,,,,-8.3641672,114.6157477,https://maps.google.com/?cid=0x0:0xbb735b0a0bdbf7a9,
mall,mall,Bali 82215,"Tegal Badeng Tim., Kec. Negara, Kabupaten Jembrana, Bali","Kabupaten Jembrana, Bali",BALI,,Indonesia,,,,-8.371582,114.6059283,https://maps.google.com/?cid=0x0:0x1c00c5eb6016c2a0,
mall,Pusat Perbelanjaan,Grand mall jembrana city,"JJRH+QR2, Pendem, Kec. Jembrana, Kabupaten Jembrana, Bali 82218","Pendem, Kec. Jembrana, Kabupaten Jembrana",BALI,82218.0,Indonesia,,,,-8.3581155,114.6295278,https://maps.google.com/?cid=0x0:0xb8b1879bf7b689bd,
mall,Kantor Pemerintah,Mal Pelayanan Publik (MPP) Kabupaten Jembrana,"Jl. Udayana No.16, Baler Bale Agung, Kec. Negara, Kabupaten Jembrana, Bali 82218","Baler Bale Agung, Kec. Negara, Kabupaten Jembrana",BALI,82218.0,Indonesia,3654740120.0,,,-8.3566266,114.6188723,https://maps.google.com/?cid=0x0:0x2a422fae858958c6,
mall,Pusat Perbelanjaan,UD JAYA NEGARA,"Jl. Danau Beratan No.63, Lelateng, Kec. Negara, Kabupaten Jembrana, Bali 82218","Lelateng, Kec. Negara, Kabupaten Jembrana",BALI,82218.0,Indonesia,82144487878.0,,,-8.3636867,114.6141855,https://maps.google.com/?cid=0x0:0x779b569ccc4f321e,
mall,Pusat Perbelanjaan,May May,"Jl. Ngurah Rai No.20, Loloan Tim., Kec. Negara, Kabupaten Jembrana, Bali 82218","Loloan Tim., Kec. Negara, Kabupaten Jembrana",BALI,82218.0,Indonesia,,,,-8.3607568,114.6270294,https://maps.google.com/?cid=0x0:0xf2a0ca229b2cab71,
mall,Toko Pakaian,Kebaya Bali,"Jl. Danau Meninjau No.11a, Lelateng, Kec. Negara, Kabupaten Jembrana, Bali 82218","Lelateng, Kec. Negara, Kabupaten Jembrana",BALI,82218.0,Indonesia,82145309348.0,,,-8.3662139,114.6184906,https://maps.google.com/?cid=0x0:0xcdef85450a769309,
mall,Butik,Butik Nrcollection 2,"Jl. Danau Batur, Lelateng, Kec. Negara, Kabupaten Jembrana, Bali","Kabupaten Jembrana, Bali",BALI,,Indonesia,81237988600.0,,,-8.3704316,114.6125836,https://maps.google.com/?cid=0x0:0x8e5cff3bb7204e2c,
mall,Grosir,Clandys Tegal Badeng,"JJH4+X2P, Tegal Badeng Tim., Kec. Negara, Kabupaten Jembrana, Bali 82215","Tegal Badeng Tim., Kec. Negara, Kabupaten Jembrana",BALI,82215.0,Indonesia,85931084908.0,,,-8.3700091,114.6049975,https://maps.google.com/?cid=0x0:0x420ae286c0326121,
mall,Toko,Warung Putri,"Jl. Bima No.2, Baluk, Kec. Negara, Kabupaten Jembrana, Bali 82213","Baluk, Kec. Negara, Kabupaten Jembrana",BALI,82213.0,Indonesia,82147531689.0,,,-8.358884,114.5959573,https://maps.google.com/?cid=0x0:0x56f3f12649ffb54f,
mall,Toko Pakaian,May May Cabang BB Agung,"Jl. Ratna No.3, Baler Bale Agung, Kec. Negara, Kabupaten Jembrana, Bali 82218","Baler Bale Agung, Kec. Negara, Kabupaten Jembrana",BALI,82218.0,Indonesia,87881238999.0,,,-8.3564953,114.6227448,https://maps.google.com/?cid=0x0:0xfe99adf98050e7f6,
mall,Pusat Perbelanjaan,Toko mahkota karpet,"JJP8+87Q, Lelateng, Kec. Negara, Kabupaten Jembrana, Bali 82218","Lelateng, Kec. Negara, Kabupaten Jembrana",BALI,82218.0,Indonesia,,,,-8.3641672,114.6157477,https://maps.google.com/?cid=0x0:0xbb735b0a0bdbf7a9,
mall,Restoran,Warung Artho Moro,"JHHW+7CM, Tegal Badeng Tim., Kec. Negara, Kabupaten Jembrana, Bali 82214","Tegal Badeng Tim., Kec. Negara, Kabupaten Jembrana",BALI,82214.0,Indonesia,81293035486.0,,,-8.3717872,114.5960607,https://maps.google.com/?cid=0x0:0x801dbfde3422934b,
mall,Toko Swalayan,Toko jaya terus,"JJP8+FM7, Gg. I, Lelateng, Kec. Negara, Kabupaten Jembrana, Bali 82218","Gg. I, Lelateng, Kec. Negara, Kabupaten Jembrana",BALI,82218.0,Indonesia,,,,-8.3638316,114.6166679,https://maps.google.com/?cid=0x0:0x4b8a7a57e18c9e10,
mall,Kolam Memancing,RM FISHING KIT,"Unnamed Road, Tegal Badeng Tim., Kec. Negara, Kabupaten Jembrana, Bali 82215","Tegal Badeng Tim., Kec. Negara, Kabupaten Jembrana",BALI,82215.0,Indonesia,81237735689.0,,,-8.3767344,114.6078415,https://maps.google.com/?cid=0x0:0x46ab4d66fa583cb6,
mall,Toko makanan beku,Ahkom Sosis (Frozenfood),"Jl. Mangga No.24, Loloan Bar., Kec. Negara, Kabupaten Jembrana, Bali 82218","Loloan Bar., Kec. Negara, Kabupaten Jembrana",BALI,82218.0,Indonesia,85737044293.0,,,-8.3695314,114.6186005,https://maps.google.com/?cid=0x0:0x7f76fa77347b8360,
mall,Pusat Perbelanjaan,Kuningan Citymall,"Jl. Prof. DR. Satrio No.Kav. 18, Kuningan, Karet Kuningan, Kecamatan Setiabudi, Kota Jakarta Selatan, Daerah Khusus Ibukota Jakarta 12940","Kuningan, Karet Kuningan, Kecamatan Setiabudi, Kota Jakarta Selatan",BALI,12940.0,Indonesia,2157905555.0,,,-6.2250136,106.829553,https://maps.google.com/?cid=0x0:0x420d8f1dfd4d9452,
mall,Pusat Perbelanjaan,Londre Bellagio Mall,"Bellagio Mall Kav. E 4.3, Jl. Mega Kuningan Barat, RT.5/RW.2, Kuningan, Kuningan Tim., Kecamatan Setiabudi, Kota Jakarta Selatan, Daerah Khusus Ibukota Jakarta 12950","Jl. Mega Kuningan Barat, RT.5/RW.2, Kuningan, Kuningan Tim., Kecamatan Setiabudi, Kota Jakarta Selatan",BALI,12950.0,Indonesia,85774813873.0,,,-6.2271356,106.8243159,https://maps.google.com/?cid=0x0:0x6bd9982732b0b4af,
mall,Gedung Apartemen,The Bellagio Boutique Mall,"Jl. Mega Kuningan Barat No.3 BLok E4, RT.5/RW.2, Kuningan, Kuningan Tim., Kecamatan Setiabudi, Kota Jakarta Selatan, Daerah Khusus Ibukota Jakarta 15810","RT.5/RW.2, Kuningan, Kuningan Tim., Kecamatan Setiabudi, Kota Jakarta Selatan",BALI,15810.0,Indonesia,2130019900.0,,,-6.2274906,106.8245887,https://maps.google.com/?cid=0x0:0x2de3d495cc84d79d,
mall,Pusat Perbelanjaan,Mall Kota Kasablanka,"Jl. Raya Casablanca No.Kav 88, Menteng Dalam, Kec. Tebet, Kota Jakarta Selatan, Daerah Khusus Ibukota Jakarta 12870","Menteng Dalam, Kec. Tebet, Kota Jakarta Selatan",BALI,12870.0,Indonesia,2129465000.0,,,-6.2240353,106.8425979,https://maps.google.com/?cid=0x0:0xaf54cb631563acce,
mall,Pusat Perbelanjaan,Grand mall jembrana city,"JJRH+QR2, Pendem, Kec. Jembrana, Kabupaten Jembrana, Bali 82218","Pendem, Kec. Jembrana, Kabupaten Jembrana",BALI,82218.0,Indonesia,,,,-8.3581155,114.6295278,https://maps.google.com/?cid=0x0:0xb8b1879bf7b689bd,
mall,mall,Bali 82218,"Kec. Negara, Kabupaten Jembrana, Bali","Kabupaten Jembrana, Bali",BALI,,Indonesia,,,,-8.3357931,114.6311665,https://maps.google.com/?cid=0x0:0x1c00c5eb6016c2d0,
mall,Pusat Perbelanjaan,TOKO MINISO JEMBRANA,"JJQM+MCC, Pendem, Kec. Negara, Kabupaten Jembrana, Bali 82218","Pendem, Kec. Negara, Kabupaten Jembrana",BALI,82218.0,Indonesia,81938217007.0,,,-8.3608153,114.6335056,https://maps.google.com/?cid=0x0:0xcc44ab380fbbb842,
mall,Kantor Pemerintah,Mal Pelayanan Publik (MPP) Kabupaten Jembrana,"Jl. Udayana No.16, Baler Bale Agung, Kec. Negara, Kabupaten Jembrana, Bali 82218","Baler Bale Agung, Kec. Negara, Kabupaten Jembrana",BALI,82218.0,Indonesia,3654740120.0,,,-8.3566266,114.6188723,https://maps.google.com/?cid=0x0:0x2a422fae858958c6,
mall,Pusat Perbelanjaan,May May,"Jl. Ngurah Rai No.20, Loloan Tim., Kec. Negara, Kabupaten Jembrana, Bali 82218","Loloan Tim., Kec. Negara, Kabupaten Jembrana",BALI,82218.0,Indonesia,,,,-8.3607568,114.6270294,https://maps.google.com/?cid=0x0:0xf2a0ca229b2cab71,
mall,Gudang,Cv. Jaya negara Distributor,"lingkungan sri mand, Jl. Gn. Batur Gg. III, Dauhwaru, Kec. Jembrana, Kabupaten Jembrana, Bali 82218","Jl. Gn. Batur Gg. III, Dauhwaru, Kec. Jembrana, Kabupaten Jembrana",BALI,82218.0,Indonesia,,,,-8.3633929,114.6305291,https://maps.google.com/?cid=0x0:0x8ed92c67e7f1892f,
mall,Toko Pakaian,May May Cabang BB Agung,"Jl. Ratna No.3, Baler Bale Agung, Kec. Negara, Kabupaten Jembrana, Bali 82218","Baler Bale Agung, Kec. Negara, Kabupaten Jembrana",BALI,82218.0,Indonesia,87881238999.0,,,-8.3564953,114.6227448,https://maps.google.com/?cid=0x0:0xfe99adf98050e7f6,
mall,Toko,Bale betet,"JJMC+MGF, Jl. Durian, Loloan Bar., Kec. Negara, Kabupaten Jembrana, Bali 82218","Jl. Durian, Loloan Bar., Kec. Negara, Kabupaten Jembrana",BALI,82218.0,Indonesia,81231119130.0,,,-8.3658182,114.6212916,https://maps.google.com/?cid=0x0:0xebcbacfcf1fbd87c,
mall,Toko,Pasar Banjar,"Jl. Yudistira No.12-10, Banjar Tengah, Kec. Negara, Kabupaten Jembrana, Bali 82218","Banjar Tengah, Kec. Negara, Kabupaten Jembrana",BALI,82218.0,Indonesia,,,,-8.3570544,114.6146093,https://maps.google.com/?cid=0x0:0xfd2e4ba3a7542910,
mall,Toko Sepatu,Biawak Footwear bali,"Jl. Ngurah Rai No.129, Pendem, Kec. Negara, Kabupaten Jembrana, Bali 82218","Pendem, Kec. Negara, Kabupaten Jembrana",BALI,82218.0,Indonesia,83117918303.0,,,-8.360889,114.6336534,https://maps.google.com/?cid=0x0:0x2f2fbf736bc8acb,
mall,Pusat Perbelanjaan,UD JAYA NEGARA,"Jl. Danau Beratan No.63, Lelateng, Kec. Negara, Kabupaten Jembrana, Bali 82218","Lelateng, Kec. Negara, Kabupaten Jembrana",BALI,82218.0,Indonesia,82144487878.0,,,-8.3636867,114.6141855,https://maps.google.com/?cid=0x0:0x779b569ccc4f321e,
mall,Pusat Perbelanjaan,Rai dijaya,"PJ64+CXP, Jl. Desa Berangbang, Berangbang, Kec. Negara, Kabupaten Jembrana, Bali 82218","Jl. Desa Berangbang, Berangbang, Kec. Negara, Kabupaten Jembrana",BALI,82218.0,Indonesia,,,,-8.2889117,114.6074673,https://maps.google.com/?cid=0x0:0xfe6bb673324475db,
mall,Pusat Perbelanjaan,Dewiifashionshouse,"MH2Q+C36, Unnamed Road, Banyu Biru, Kec. Negara, Kabupaten Jembrana, Bali 82218","Unnamed Road, Banyu Biru, Kec. Negara, Kabupaten Jembrana",BALI,82218.0,Indonesia,85847493523.0,,,-8.3489573,114.5876492,https://maps.google.com/?cid=0x0:0x576b66f18fadd59a,
mall,Kompleks Apartemen,pasar btn,"JHHR+9Q9 Tim, Tegal Badeng Tim., Kec. Negara, Kabupaten Jembrana, Bali 82214","Tegal Badeng Tim., Kec. Negara, Kabupaten Jembrana",BALI,82214.0,Indonesia,,,,-8.3715778,114.5919795,https://maps.google.com/?cid=0x0:0xd4692cc207ca1087,
mall,Pusat Perbelanjaan,Bakul cangkingan home,"Jl. Bimasena No.7, Banjar Tengah, Kec. Negara, Kabupaten Jembrana, Bali 82218","Banjar Tengah, Kec. Negara, Kabupaten Jembrana",BALI,82218.0,Indonesia,85336035495.0,,,-8.3561138,114.6131332,https://maps.google.com/?cid=0x0:0xa6ea3e9e38f9852b,
mall,Toko Swalayan,Artasedana Negara,"Jl. Ngurah Rai No.95, Pendem, Kec. Negara, Kabupaten Jembrana, Bali 82218","Pendem, Kec. Negara, Kabupaten Jembrana",BALI,82218.0,Indonesia,87749995559.0,,,-8.3603732,114.6279088,https://maps.google.com/?cid=0x0:0x1d01de180f38e928,
mall,Toko Pakaian,Kebaya Bali,"Jl. Danau Meninjau No.11a, Lelateng, Kec. Negara, Kabupaten Jembrana, Bali 82218","Lelateng, Kec. Negara, Kabupaten Jembrana",BALI,82218.0,Indonesia,82145309348.0,,,-8.3662139,114.6184906,https://maps.google.com/?cid=0x0:0xcdef85450a769309,
mall,Toko Ponsel,Rk Phone,"JJMG+H58, Jl. Gn. Agung, Loloan Tim., Kec. Jembrana, Kabupaten Jembrana, Bali 82218","Jl. Gn. Agung, Loloan Tim., Kec. Jembrana, Kabupaten Jembrana",BALI,82218.0,Indonesia,83119336606.0,,,-8.3660935,114.6254592,https://maps.google.com/?cid=0x0:0xbbb22bd915ef0e99,
mall,Toko bahan makanan,PolloS Mart,"HMX4+R88, Yeh Kuning, Kec. Jembrana, Kabupaten Jembrana, Bali","Kabupaten Jembrana, Bali",BALI,,Indonesia,85738007495.0,,,-8.4004628,114.6558177,https://maps.google.com/?cid=0x0:0x8421827659cedc93,
mall,Toko Ponsel,EL CITY CELLULAR,"Jl. Ngurah Rai No.44, Loloan Tim., Kec. Jembrana, Kabupaten Jembrana, Bali 82218","Loloan Tim., Kec. Jembrana, Kabupaten Jembrana",BALI,82218.0,Indonesia,81231119130.0,,,-8.3607872,114.6285708,https://maps.google.com/?cid=0x0:0xbfe138abcdd4a9bc,
mall,Toko,Toko Rahayu Swalayan,"Jl. Ngurah Rai No.39, Loloan Tim., Kec. Jembrana, Kabupaten Jembrana, Bali 82218","Loloan Tim., Kec. Jembrana, Kabupaten Jembrana",BALI,82218.0,Indonesia,811390090.0,,,-8.3607286,114.6265016,https://maps.google.com/?cid=0x0:0x7c15968b08088ff3,
mall,Toko,Toko Sarianah,"JH6J+W66, jalan, Pengambengan, Kec. Negara, Kabupaten Jembrana, Bali 82218","jalan, Pengambengan, Kec. Negara, Kabupaten Jembrana",BALI,82218.0,Indonesia,,,,-8.3877052,114.5805102,https://maps.google.com/?cid=0x0:0xe21eaf42872eed65,
mall,Kios,the matsya koi bali,"Jl. Raya Sempidi Badung No.54, Banjar Tengah, Kec. Negara, Kabupaten Jembrana, Bali 82218","Banjar Tengah, Kec. Negara, Kabupaten Jembrana",BALI,82218.0,Indonesia,87860922877.0,,,-8.3586304,114.6118329,https://maps.google.com/?cid=0x0:0xaf5ef8211f9fdce0,
mall,Toko Kain Linen,Subur Fashion Center,"Jl. Ngurah Rai No.40, Loloan Tim., Kec. Jembrana, Kabupaten Jembrana, Bali 82218","Loloan Tim., Kec. Jembrana, Kabupaten Jembrana",BALI,82218.0,Indonesia,8113807789.0,,,-8.3608627,114.6281715,https://maps.google.com/?cid=0x0:0xbf964b9327da834e,
mall,Toko Pakaian,Umi Oktavia,"JH6J+4M3, Jl. Raya Negara-Pengambengan, Pengambengan, Kec. Negara, Kabupaten Jembrana, Bali 82218","Jl. Raya Negara-Pengambengan, Pengambengan, Kec. Negara, Kabupaten Jembrana",BALI,82218.0,Indonesia,,,,-8.3897327,114.5816634,https://maps.google.com/?cid=0x0:0x4f900ec9ed9b5264,
mall,Pusat Perbelanjaan,Sunday Store,"Jl. P. Irian No.19, Menega, Kec. Negara, Kabupaten Jembrana, Bali 82218","Menega, Kec. Negara, Kabupaten Jembrana",BALI,82218.0,Indonesia,81617397416.0,,,-8.3652549,114.6415226,https://maps.google.com/?cid=0x0:0xc929a08212e6e0ea,
mall,mall,Bali 82262,"Kec. Pekutatan, Kabupaten Jembrana, Bali","Kabupaten Jembrana, Bali",BALI,,Indonesia,,,,-8.4101762,114.8804853,https://maps.google.com/?cid=0x0:0x1c00c5eb6016c310,
mall,Toko Pakaian,Luxurious pekutatan,"sebelah barat negara medika 2, Jl. Pekutatan, Gilimanuk, Kec. Pekutatan, Kabupaten Jembrana, Bali 82262","Jl. Pekutatan, Gilimanuk, Kec. Pekutatan, Kabupaten Jembrana",BALI,82262.0,Indonesia,85331482400.0,,,-8.4186889,114.8211328,https://maps.google.com/?cid=0x0:0x8410b83de276c67,
mall,Toko,Toko Bali Puspita,"HRFM+883, Pekutatan, Kec. Pekutatan, Kabupaten Jembrana, Bali 82262","Pekutatan, Kec. Pekutatan, Kabupaten Jembrana",BALI,82262.0,Indonesia,,,,-8.4267303,114.8332929,https://maps.google.com/?cid=0x0:0xf5f61ab560dc6914,
mall,Pasar tradisional,Pasar Umum Pekutatan,"HRHF+6C3, Pekutatan, Kec. Pekutatan, Kabupaten Jembrana, Bali 82262","Pekutatan, Kec. Pekutatan, Kabupaten Jembrana",BALI,82262.0,Indonesia,,,,-8.4219752,114.8235528,https://maps.google.com/?cid=0x0:0x9ca5b4e851845ebc,
mall,Pusat Perbelanjaan,Ketut Mertayasa,"Jl. Pekutatan, Asahduren, Kec. Pekutatan, Kabupaten Jembrana, Bali 82262","Asahduren, Kec. Pekutatan, Kabupaten Jembrana",BALI,82262.0,Indonesia,,,,-8.3918234,114.8589684,https://maps.google.com/?cid=0x0:0x868313914c5a3f9d,
mall,Pusat Perbelanjaan,Agus gemitir,"Medewi, Kec. Pekutatan, Kabupaten Jembrana, Bali 82262","Kec. Pekutatan, Kabupaten Jembrana",BALI,82262.0,Indonesia,85738860900.0,,,-8.4001458,114.8169131,https://maps.google.com/?cid=0x0:0xc02905500cf27f87,
mall,Toko,SRC WIRYA,"Jl. Pekutatan, Asahduren, Kec. Pekutatan, Kabupaten Jembrana, Bali 82262","Asahduren, Kec. Pekutatan, Kabupaten Jembrana",BALI,82262.0,Indonesia,87861585335.0,,,-8.3893067,114.8645895,https://maps.google.com/?cid=0x0:0x9b3844f42d7f4a04,
mall,Pusat Perbelanjaan,Toko Sari Yoga,"GVWV+9WF, Jl. Raya Denpasar - Gilimanuk, Pengeragoan, Kec. Pekutatan, Kabupaten Jembrana, Bali","Kabupaten Jembrana, Bali",BALI,,Indonesia,817556946.0,,,-8.4539768,114.8945187,https://maps.google.com/?cid=0x0:0x5ceddbbeac9177ee,
mall,Toko bahan makanan,Rafi jaya,"Medewi, Kec. Pekutatan, Kabupaten Jembrana, Bali 82262","Kec. Pekutatan, Kabupaten Jembrana",BALI,82262.0,Indonesia,87856353618.0,,,-8.4149595,114.8087864,https://maps.google.com/?cid=0x0:0xbbdbfa4502b23148,
mall,Pusat Perbelanjaan,Ud.Anugrah ( Egar  Graha Broiler),"GWX4+972, Pengeragoan, Kec. Pekutatan, Kabupaten Jembrana, Bali 82262","Pengeragoan, Kec. Pekutatan, Kabupaten Jembrana",BALI,82262.0,Indonesia,81936127257.0,,,-8.4516175,114.9056359,https://maps.google.com/?cid=0x0:0x80e6c9ce55ff3873,
mall,Toko,Warung D'MeNa,"Medewi, Kec. Pekutatan, Kabupaten Jembrana, Bali 82262","Kec. Pekutatan, Kabupaten Jembrana",BALI,82262.0,Indonesia,81515159791.0,,,-8.3905239,114.8248453,https://maps.google.com/?cid=0x0:0x68c03fcda74a0534,
mall,Pusat Perbelanjaan,SEKA TANI JAYA SARI,"Jl. Sari, Gumbrih, Kec. Pekutatan, Kabupaten Jembrana, Bali 82262","Gumbrih, Kec. Pekutatan, Kabupaten Jembrana",BALI,82262.0,Indonesia,81805325227.0,,,-8.4368443,114.897017,https://maps.google.com/?cid=0x0:0x759c67ee192d1632,
mall,Pusat Perbelanjaan,ainie shop,"JVQ9+RC5, Pulukan, Kec. Pekutatan, Kabupaten Jembrana, Bali 82262","Pulukan, Kec. Pekutatan, Kabupaten Jembrana",BALI,82262.0,Indonesia,81338225525.0,,,-8.3604757,114.8686169,https://maps.google.com/?cid=0x0:0xbdd005e9792ea528,
mall,Pusat Perbelanjaan,Pisang Sutami dan Sutama,"HWM9+XC5, Pengeragoan, Kec. Pekutatan, Kabupaten Jembrana, Bali 82262","Pengeragoan, Kec. Pekutatan, Kabupaten Jembrana",BALI,82262.0,Indonesia,81547311609.0,,,-8.4151226,114.9185992,https://maps.google.com/?cid=0x0:0x9d5b5df3dbacacf4,
mall,Pusat Perbelanjaan,Warung Bu Eddy Eny Elsa,"Gg. Meninja, Pengeragoan, Kec. Pekutatan, Kabupaten Jembrana, Bali 82262","Pengeragoan, Kec. Pekutatan, Kabupaten Jembrana",BALI,82262.0,Indonesia,85738142841.0,,,-8.4196317,114.9167598,https://maps.google.com/?cid=0x0:0xc11968d1c1c421f,
mall,Toko Pakaian,KRISNA KIDS WEAR,"GWR3+CJX, Jl. Raya Denpasar - Gilimanuk, Pengeragoan, Kec. Pekutatan, Kabupaten Jembrana, Bali","Kabupaten Jembrana, Bali",BALI,,Indonesia,87860344849.0,,,-8.458898,114.904106,https://maps.google.com/?cid=0x0:0x134028912cc1261,
mall,Pusat Bisnis,Dapur mek bagus,"GWR5+F8F, pengeragoan, dangin tukad, Kec. Pekutatan, Kabupaten Jembrana, Bali","Kabupaten Jembrana, Bali",BALI,,Indonesia,87851232529.0,,,-8.4588092,114.9083105,https://maps.google.com/?cid=0x0:0x2df0e5e68751b8dd,
mall,Toko Ponsel,SAI GOVINDA CELL,"JV58+273, Jl. Cengkeh, Asahduren, Kec. Pekutatan, Kabupaten Jembrana, Bali 82262","Jl. Cengkeh, Asahduren, Kec. Pekutatan, Kabupaten Jembrana",BALI,82262.0,Indonesia,8155749127.0,,,-8.3924767,114.8656799,https://maps.google.com/?cid=0x0:0xa8337be431de081b,
mall,Toko Alat Pancing,SURYA PANCING,"HRM8+CQ7, Jl. Raya Denpasar - Gilimanuk, Pulukan, Kec. Pekutatan, Kabupaten Jembrana, Bali 82262","Jl. Raya Denpasar - Gilimanuk, Pulukan, Kec. Pekutatan, Kabupaten Jembrana",BALI,82262.0,Indonesia,81529458124.0,,,-8.4164622,114.816917,https://maps.google.com/?cid=0x0:0xf932b745c48f7090,
mall,Toko,Ud bayu jaya,"Jl. Raya Dadap putih pupuan, Pengeragoan, Kec. Pekutatan, Kabupaten Jembrana, Bali 81154","Pengeragoan, Kec. Pekutatan, Kabupaten Jembrana",BALI,81154.0,Indonesia,85646913184.0,,,-8.4167234,114.9181973,https://maps.google.com/?cid=0x0:0x7f8603316eeb0a47,
mall,Komplek perumahan,Pondok Madu Pengeragoan,"Jl. Raya Denpasar - Gilimanuk Gg. Dauh Tukad No.Br, Pengeragoan, Kec. Pekutatan, Kabupaten Jembrana, Bali","Kabupaten Jembrana, Bali",BALI,,Indonesia,818347391.0,,,-8.4555034,114.896637,https://maps.google.com/?cid=0x0:0x28c68a74ac2e8725,
supermarket,Toko,Toko Rahayu Swalayan,"Jl. Ngurah Rai No.39, Loloan Tim., Kec. Jembrana, Kabupaten Jembrana, Bali 82218","Loloan Tim., Kec. Jembrana, Kabupaten Jembrana",BALI,82218.0,Indonesia,811390090.0,,,-8.3607286,114.6265016,https://maps.google.com/?cid=0x0:0x7c15968b08088ff3,
supermarket,Toko,Sudiarta Mart,"JJVC+552, Jl. Udayana, Banjar Tengah, Kec. Negara, Kabupaten Jembrana, Bali 82218","Jl. Udayana, Banjar Tengah, Kec. Negara, Kabupaten Jembrana",BALI,82218.0,Indonesia,8113988758.0,,,-8.3571136,114.6203846,https://maps.google.com/?cid=0x0:0x68fa3fcf4053a630,
supermarket,supermarket,Bali 82211,"Pendem, Kec. Jembrana, Kabupaten Jembrana, Bali","Kabupaten Jembrana, Bali",BALI,,Indonesia,,,,-8.3591929,114.628832,https://maps.google.com/?cid=0x0:0x7f27513f7ae5cdf2,
supermarket,Toko bahan makanan,Bisma Rahayu Grosir,"Jl. Ngurah Rai No.8, Pendem, Kec. Jembrana, Kabupaten Jembrana, Bali 82218","Pendem, Kec. Jembrana, Kabupaten Jembrana",BALI,82218.0,Indonesia,82235763870.0,,,-8.360653,114.6305533,https://maps.google.com/?cid=0x0:0x66d8589c546544e0,
supermarket,Toko Swalayan,Toko Vika,"Satria, Bali, Jl. WR Supratman No.2 No. 11, Pendem, Kec. Negara, Kabupaten Jembrana, Bali 82211","Bali, Jl. WR Supratman No.2 No. 11, Pendem, Kec. Negara, Kabupaten Jembrana",BALI,82211.0,Indonesia,85965928981.0,,,-8.3594689,114.6283156,https://maps.google.com/?cid=0x0:0x3c97e56b1de5cb60,
supermarket,Toko,ZUMA Jembrana,"Jl. Ngurah Rai No.117, Pendem, Kec. Jembrana, Kabupaten Jembrana, Bali 82218","Pendem, Kec. Jembrana, Kabupaten Jembrana",BALI,82218.0,Indonesia,,,,-8.3606698,114.6307367,https://maps.google.com/?cid=0x0:0x56cea7488eb50340,
supermarket,Toko bahan makanan,Agen46 Toko Kita,"Jl. Sudirman No.11a, Pendem, Kec. Negara, Kabupaten Jembrana, Bali 82218","Pendem, Kec. Negara, Kabupaten Jembrana",BALI,82218.0,Indonesia,,,,-8.3572309,114.6270063,https://maps.google.com/?cid=0x0:0x219362ecac3dfd1b,
supermarket,Toko Elektronik,Toko Multi Cahya,"Jl. WR Supratman No.11, Pendem, Kec. Negara, Kabupaten Jembrana, Bali 82211","Pendem, Kec. Negara, Kabupaten Jembrana",BALI,82211.0,Indonesia,81338602662.0,,,-8.3594269,114.6292275,https://maps.google.com/?cid=0x0:0x55fa6652155464cf,
supermarket,Toko Kelontong Asia,Ratih Cell,"Jl. WR Supratman No.5, Pendem, Kec. Negara, Kabupaten Jembrana, Bali 82211","Pendem, Kec. Negara, Kabupaten Jembrana",BALI,82211.0,Indonesia,87862581700.0,,,-8.3593291,114.6297398,https://maps.google.com/?cid=0x0:0x9be760b6ffe1067e,
supermarket,Toko Swalayan,Toko Haylia,"JJR7+7G9 Hotel Bali Kuwi, Jl. Danau Sentani, Lelateng, Kec. Negara, Kabupaten Jembrana, Bali 82218","Jl. Danau Sentani, Lelateng, Kec. Negara, Kabupaten Jembrana",BALI,82218.0,Indonesia,81237736766.0,,,-8.3593495,114.6138608,https://maps.google.com/?cid=0x0:0xc2a34b48bf508fe9,
supermarket,Toko Elektronik,Toko Tabanan Elektronik,"Jalan Ngurah Rai 12 Negara, Kec. Jembrana, Kabupaten Jembrana, Bali 82211","Kec. Jembrana, Kabupaten Jembrana",BALI,82211.0,Indonesia,817293888.0,,,-8.360869,114.6287711,https://maps.google.com/?cid=0x0:0x955cd4a391262621,
supermarket,Toko Swalayan,Wijaas,"Jl. Rajawali Gg. 9 No.2, Pendem, Kec. Negara, Kabupaten Jembrana, Bali 82218","Pendem, Kec. Negara, Kabupaten Jembrana",BALI,82218.0,Indonesia,,,,-8.3503733,114.6265014,https://maps.google.com/?cid=0x0:0xed9dbbe3ccf0a115,
supermarket,Toko Perlengkapan Rumah,MR.DIY,"Jl. Ngurah Rai, Pendem, Kec. Negara, Kabupaten Jembrana, Bali 82212","Pendem, Kec. Negara, Kabupaten Jembrana",BALI,82212.0,Indonesia,8133600569.0,,,-8.3605747,114.6303975,https://maps.google.com/?cid=0x0:0x90d4a9b84438418b,
supermarket,Pusat Perbelanjaan,May May,"Jl. Ngurah Rai No.20, Loloan Tim., Kec. Negara, Kabupaten Jembrana, Bali 82218","Loloan Tim., Kec. Negara, Kabupaten Jembrana",BALI,82218.0,Indonesia,,,,-8.3607568,114.6270294,https://maps.google.com/?cid=0x0:0xf2a0ca229b2cab71,
supermarket,Toko Swalayan,Toko Sedana Dewi,"Simpang, Bali, Jl. Raya Negara-Gilimanuk No.3, Banyu Biru, Kec. Negara, Kabupaten Jembrana, Bali 82212","Bali, Jl. Raya Negara-Gilimanuk No.3, Banyu Biru, Kec. Negara, Kabupaten Jembrana",BALI,82212.0,Indonesia,87863215993.0,,,-8.3475128,114.5752344,https://maps.google.com/?cid=0x0:0x773040aca5d17c87,
supermarket,Minimarket,Indomaret Loloan Timur,"JJQH+JRR, Jl. Ngurah Rai, Loloan Tim., Kec. Jembrana, Kabupaten Jembrana, Bali 82218","Jl. Ngurah Rai, Loloan Tim., Kec. Jembrana, Kabupaten Jembrana",BALI,82218.0,Indonesia,,,,-8.3608874,114.6295016,https://maps.google.com/?cid=0x0:0x837acbf8bb69a39b,
supermarket,Kedai Kopi,Ayu Es Kepal Milo,"Jl. WR Supratman No.5, Pendem, Kec. Negara, Kabupaten Jembrana, Bali 82211","Pendem, Kec. Negara, Kabupaten Jembrana",BALI,82211.0,Indonesia,87863180253.0,,,-8.3593605,114.6298656,https://maps.google.com/?cid=0x0:0x335e4d2680be229a,
supermarket,Toko,Toko Sami Baru,"JJQH+G9P, Jl. Ngurah Rai, Pendem, Kec. Jembrana, Kabupaten Jembrana, Bali 82218","Jl. Ngurah Rai, Pendem, Kec. Jembrana, Kabupaten Jembrana",BALI,82218.0,Indonesia,81805397257.0,,,-8.3611659,114.6284405,https://maps.google.com/?cid=0x0:0x9982488f80a957b,
supermarket,Toko Sepatu,Toko Sepatu Citra,"Jl. Ngurah Rai, Loloan Tim., Kec. Jembrana, Kabupaten Jembrana, Bali 82218","Loloan Tim., Kec. Jembrana, Kabupaten Jembrana",BALI,82218.0,Indonesia,,,,-8.3608376,114.6282879,https://maps.google.com/?cid=0x0:0xfc5aaf66214d26e7,
supermarket,Toko Pakaian,Galeri MAMANIA,"Jl. WR Supratman No.16, Pendem, Kec. Negara, Kabupaten Jembrana, Bali 82211","Pendem, Kec. Negara, Kabupaten Jembrana",BALI,82211.0,Indonesia,82266251561.0,,,-8.3594662,114.6282348,https://maps.google.com/?cid=0x0:0x2109aa2aa8be5f04,
supermarket,Toko Alat Listrik,Toko Lautan Mas,"Jl. Ngurah Rai, Loloan Tim., Kec. Jembrana, Kabupaten Jembrana, Bali 82218","Loloan Tim., Kec. Jembrana, Kabupaten Jembrana",BALI,82218.0,Indonesia,82360974040.0,,,-8.3608104,114.6283031,https://maps.google.com/?cid=0x0:0xd808e737ea581dd6,
supermarket,Toko Peralatan Olahraga,Toko Bharata Sport  Fashion,"Jl. Ngurah Rai No.36, Loloan Tim., Kec. Jembrana, Kabupaten Jembrana, Bali 82218","Loloan Tim., Kec. Jembrana, Kabupaten Jembrana",BALI,82218.0,Indonesia,81936556284.0,,,-8.3607961,114.6279508,https://maps.google.com/?cid=0x0:0x18279cf16969fd45,
supermarket,Toko Sepeda,Toko Sepeda Merdeka,"Jl. Ngurah Rai No.70, Pendem, Kec. Jembrana, Kabupaten Jembrana, Bali 82218","Pendem, Kec. Jembrana, Kabupaten Jembrana",BALI,82218.0,Indonesia,36541412.0,,,-8.3605928,114.6286229,https://maps.google.com/?cid=0x0:0x63f9fc49e0b4732b,
supermarket,Kedai Kopi,Ireng Kopi,"Jl. Ngurah Rai No.64, Dauhwaru, Kec. Negara, Kabupaten Jembrana, Bali 82218","Dauhwaru, Kec. Negara, Kabupaten Jembrana",BALI,82218.0,Indonesia,,,,-8.3609504,114.6305467,https://maps.google.com/?cid=0x0:0x19d3b2eb46d28226,
supermarket,Toko Perlengkapan Rumah,Toko Berkat 82,"Jl. Ngurah Rai No.82, Pendem, Kec. Jembrana, Kabupaten Jembrana, Bali 82218","Pendem, Kec. Jembrana, Kabupaten Jembrana",BALI,82218.0,Indonesia,36541966.0,,,-8.3606117,114.6294441,https://maps.google.com/?cid=0x0:0xecaec09e145f55b0,
supermarket,supermarket,Jembrana,"Kec. Jembrana, Kabupaten Jembrana, Bali","Kabupaten Jembrana, Bali",BALI,,Indonesia,,,,-8.3605987,114.6256578,https://maps.google.com/?cid=0x0:0xd668745c2713a1d7,
supermarket,Toko,Sudiarta Mart,"JJVC+552, Jl. Udayana, Banjar Tengah, Kec. Negara, Kabupaten Jembrana, Bali 82218","Jl. Udayana, Banjar Tengah, Kec. Negara, Kabupaten Jembrana",BALI,82218.0,Indonesia,8113988758.0,,,-8.3571136,114.6203846,https://maps.google.com/?cid=0x0:0x68fa3fcf4053a630,
supermarket,Toko Swalayan,sri sedana mart,"MJ39+JPR, Jl. Kenyeri, Baler Bale Agung, Kec. Negara, Kabupaten Jembrana, Bali 82218","Jl. Kenyeri, Baler Bale Agung, Kec. Negara, Kabupaten Jembrana",BALI,82218.0,Indonesia,3654501166.0,,,-8.3458757,114.6192653,https://maps.google.com/?cid=0x0:0x2fa7400b553278c1,
supermarket,Pusat Perbelanjaan,Clandys Grosir Negara,"Jl. Ngurah Rai No.138, Dauhwaru, Kec. Jembrana, Kabupaten Jembrana, Bali 82218","Dauhwaru, Kec. Jembrana, Kabupaten Jembrana",BALI,82218.0,Indonesia,87761299164.0,,,-8.3614866,114.6399114,https://maps.google.com/?cid=0x0:0x8e70cf0289264e1c,
supermarket,Toko Swalayan,Artasedana Negara,"Jl. Ngurah Rai No.95, Pendem, Kec. Negara, Kabupaten Jembrana, Bali 82218","Pendem, Kec. Negara, Kabupaten Jembrana",BALI,82218.0,Indonesia,87749995559.0,,,-8.3603732,114.6279088,https://maps.google.com/?cid=0x0:0x1d01de180f38e928,
supermarket,Minimarket,Satria Mart Negara Indomaret,"Jl. Jenderal Sudirman, Pendem, Kec. Jembrana, Kabupaten Jembrana, Bali 82218","Pendem, Kec. Jembrana, Kabupaten Jembrana",BALI,82218.0,Indonesia,,,,-8.3575623,114.6273388,https://maps.google.com/?cid=0x0:0x7e6fe61acb873dd6,
supermarket,Pasar,Pasar Senggol Negara,"JJQG+H6W, Dauhwaru, Kec. Negara, Kabupaten Jembrana, Bali 82218","Dauhwaru, Kec. Negara, Kabupaten Jembrana",BALI,82218.0,Indonesia,,,,-8.3610227,114.6255641,https://maps.google.com/?cid=0x0:0xecb417586ec31679,
supermarket,Minimarket,Toko Merta Ayu,"Jl. WR Supratman Satria No.8A, Pendem, Kec. Negara, Kabupaten Jembrana, Bali 82211","Pendem, Kec. Negara, Kabupaten Jembrana",BALI,82211.0,Indonesia,8174786805.0,,,-8.3592422,114.6296382,https://maps.google.com/?cid=0x0:0xe2b7da930947cdd8,
supermarket,Toko Bahan Bangunan,"Toko Gunung Mas Bangunan Jembrana, Negara","Jl. Pahlawan No.32, Pendem, Kec. Negara, Kabupaten Jembrana, Bali 82211","Pendem, Kec. Negara, Kabupaten Jembrana",BALI,82211.0,Indonesia,81246101924.0,,,-8.3584976,114.6255645,https://maps.google.com/?cid=0x0:0x136df2e41fbe9aba,
supermarket,Toko Kain Linen,Subur Fashion Center,"Jl. Ngurah Rai No.40, Loloan Tim., Kec. Jembrana, Kabupaten Jembrana, Bali 82218","Loloan Tim., Kec. Jembrana, Kabupaten Jembrana",BALI,82218.0,Indonesia,8113807789.0,,,-8.3608627,114.6281715,https://maps.google.com/?cid=0x0:0xbf964b9327da834e,
supermarket,Restoran,Rosari,"Jl. Gatot Subroto No.3, Banjar Tengah, Kec. Negara, Kabupaten Jembrana, Bali 82218","Banjar Tengah, Kec. Negara, Kabupaten Jembrana",BALI,82218.0,Indonesia,36541464.0,,,-8.3602658,114.6225417,https://maps.google.com/?cid=0x0:0xe8cafafa8865380d,
supermarket,Toko Mebel,Sari Wangi 2,"Bali, Negara, Jl. Sudirman No.17, Pendem, Kec. Jembrana, Kabupaten Jembrana, Bali 82218","Negara, Jl. Sudirman No.17, Pendem, Kec. Jembrana, Kabupaten Jembrana",BALI,82218.0,Indonesia,81338226000.0,,,-8.3571907,114.628269,https://maps.google.com/?cid=0x0:0x625b6e9f856758f2,
supermarket,Pusat Perbelanjaan,Toko Terus Jaya,"JJQG+77W, Jl. Gn. Agung, Loloan Tim., Kec. Negara, Kabupaten Jembrana, Bali 82218","Jl. Gn. Agung, Loloan Tim., Kec. Negara, Kabupaten Jembrana",BALI,82218.0,Indonesia,,,,-8.3617709,114.6257145,https://maps.google.com/?cid=0x0:0x5fbc40f61b5025fb,
supermarket,Pasar,Pasar Ijo Gading ᬧᬲᬃᬇᬚᭀᬕᬤᬶᬂ᭟,"JJQG+M27, Loloan Tim., Kec. Jembrana, Kabupaten Jembrana, Bali 82218","Loloan Tim., Kec. Jembrana, Kabupaten Jembrana",BALI,82218.0,Indonesia,,,,-8.3608326,114.6250361,https://maps.google.com/?cid=0x0:0x7dfef7abd718d336,
supermarket,Toko Elektronik,Toko Gunung Mas Electronics,"Jl. Gatot Subroto No.25, Banjar Tengah, Kec. Negara, Kabupaten Jembrana, Bali 82218","Banjar Tengah, Kec. Negara, Kabupaten Jembrana",BALI,82218.0,Indonesia,,,,-8.3604067,114.6240005,https://maps.google.com/?cid=0x0:0xe615b03116e1144d,
supermarket,Toko Perlengkapan Rumah,Toko Bangunan Kawi Jaya,"Jl. Pahlawan, Pendem, Kec. Negara, Kabupaten Jembrana, Bali 82218","Pendem, Kec. Negara, Kabupaten Jembrana",BALI,82218.0,Indonesia,36541288.0,,,-8.3580215,114.6256185,https://maps.google.com/?cid=0x0:0x9bbe88362e356a5e,
supermarket,Minimarket,INDOMARET NEGARA,"Jl. Gatot Subroto No.22, Loloan Bar., Kec. Negara, Kabupaten Jembrana, Bali 82218","Loloan Bar., Kec. Negara, Kabupaten Jembrana",BALI,82218.0,Indonesia,,,,-8.3607475,114.6239991,https://maps.google.com/?cid=0x0:0x1d699f0362643642,
supermarket,Toko bahan makanan,Agen46 Toko Kita,"Jl. Sudirman No.11a, Pendem, Kec. Negara, Kabupaten Jembrana, Bali 82218","Pendem, Kec. Negara, Kabupaten Jembrana",BALI,82218.0,Indonesia,,,,-8.3572309,114.6270063,https://maps.google.com/?cid=0x0:0x219362ecac3dfd1b,
supermarket,Toko Swalayan,Toko Delapan,"Jl. Danau Tondano Gg. II No.8, Lelateng, Kec. Negara, Kabupaten Jembrana, Bali 82218","Lelateng, Kec. Negara, Kabupaten Jembrana",BALI,82218.0,Indonesia,8970551048.0,,,-8.3608174,114.619391,https://maps.google.com/?cid=0x0:0x69e4b4546a4fd355,
supermarket,Toko Swalayan,Bunda Cell,"Gg. III No.6, Lelateng, Kec. Negara, Kabupaten Jembrana, Bali 82218","Lelateng, Kec. Negara, Kabupaten Jembrana",BALI,82218.0,Indonesia,83114888715.0,,,-8.3630663,114.6165709,https://maps.google.com/?cid=0x0:0x53e96877eb9d525c,
supermarket,Toko Swalayan,Toko Gek Cantik,"JJR9+MW8, Banjar Tengah, Kec. Negara, Kabupaten Jembrana, Bali 82218","Banjar Tengah, Kec. Negara, Kabupaten Jembrana",BALI,82218.0,Indonesia,81936588415.0,,,-8.358349,114.6198408,https://maps.google.com/?cid=0x0:0x8554e94f7f609c7,
supermarket,Toko Ponsel,Vin Store Bali 2,"Jl. Kedondong No.50, Loloan Bar., Kec. Negara, Kabupaten Jembrana, Bali 82218","Loloan Bar., Kec. Negara, Kabupaten Jembrana",BALI,82218.0,Indonesia,82211100032.0,,,-8.3669611,114.6209209,https://maps.google.com/?cid=0x0:0x73701df33d9dd249,
supermarket,Minimarket,Alfamart Manggalelateng,"Jl. Mangga, Lelateng, Kec. Negara, Kabupaten Jembrana, Bali 82214","Lelateng, Kec. Negara, Kabupaten Jembrana",BALI,82214.0,Indonesia,1500959.0,,,-8.3650169,114.6195408,https://maps.google.com/?cid=0x0:0xea2680b8eae0d53e,
supermarket,Toko bahan makanan,Masean,"Jl. Nusa Ceningan, Batuagung, Kec. Negara, Kabupaten Jembrana, Bali 82218","Batuagung, Kec. Negara, Kabupaten Jembrana",BALI,82218.0,Indonesia,,,,-8.319711,114.6655003,https://maps.google.com/?cid=0x0:0xe2aa55f2d5fb419a,
supermarket,Toko Kelontong Asia,Warung Tamigonz,"JJPG+FMW, Jl. Gn. Semeru, Loloan Tim., Kec. Jembrana, Kabupaten Jembrana, Bali 82218","Jl. Gn. Semeru, Loloan Tim., Kec. Jembrana, Kabupaten Jembrana",BALI,82218.0,Indonesia,83114711397.0,,,-8.3637517,114.6266944,https://maps.google.com/?cid=0x0:0x9aceac84448b532b,
supermarket,Toko,Kelvin,"JJPG+RM9, Jl. Gn. Semeru, Loloan Tim., Kec. Negara, Kabupaten Jembrana, Bali 82216","Jl. Gn. Semeru, Loloan Tim., Kec. Negara, Kabupaten Jembrana",BALI,82216.0,Indonesia,81939390620.0,,,-8.3629564,114.6267462,https://maps.google.com/?cid=0x0:0x9266c9b205730e95,
supermarket,Dapur Umum,KRIPIK BAWANG DIMAR camilan KHAS NEGARA,"Ketugtug gang 4 belakang swalayan rahayu, Loloan Tim., Kec. Jembrana, Kabupaten Jembrana, Bali 82216","Loloan Tim., Kec. Jembrana, Kabupaten Jembrana",BALI,82216.0,Indonesia,87861772999.0,,,-8.3621867,114.6273773,https://maps.google.com/?cid=0x0:0xfd32807aa3389f41,
supermarket,Toko Kelontong Asia,Wr. PURNAMA,"JJM9+9PR, Jl. Mangga, Loloan Bar., Kec. Negara, Kabupaten Jembrana, Bali 82218","Jl. Mangga, Loloan Bar., Kec. Negara, Kabupaten Jembrana",BALI,82218.0,Indonesia,85321656555.0,,,-8.3665105,114.6192802,https://maps.google.com/?cid=0x0:0x3678560fc74cbf8d,
supermarket,Toko Fotokopi,Wahana Prima,"Jl. Danau Buyan No.13, Lelateng, Kec. Negara, Kabupaten Jembrana, Bali 82218","Lelateng, Kec. Negara, Kabupaten Jembrana",BALI,82218.0,Indonesia,,,,-8.3610154,114.620532,https://maps.google.com/?cid=0x0:0xc6a5e8a5683edc78,
supermarket,supermarket,Jembrana,"Kec. Jembrana, Kabupaten Jembrana, Bali","Kabupaten Jembrana, Bali",BALI,,Indonesia,,,,-8.3605987,114.6256578,https://maps.google.com/?cid=0x0:0xd668745c2713a1d7,
supermarket,Toko,Toko Rahayu Swalayan,"Jl. Ngurah Rai No.39, Loloan Tim., Kec. Jembrana, Kabupaten Jembrana, Bali 82218","Loloan Tim., Kec. Jembrana, Kabupaten Jembrana",BALI,82218.0,Indonesia,811390090.0,,,-8.3607286,114.6265016,https://maps.google.com/?cid=0x0:0x7c15968b08088ff3,
supermarket,Toko,Sudiarta Mart,"JJVC+552, Jl. Udayana, Banjar Tengah, Kec. Negara, Kabupaten Jembrana, Bali 82218","Jl. Udayana, Banjar Tengah, Kec. Negara, Kabupaten Jembrana",BALI,82218.0,Indonesia,8113988758.0,,,-8.3571136,114.6203846,https://maps.google.com/?cid=0x0:0x68fa3fcf4053a630,
supermarket,Pusat Perbelanjaan,Clandys Grosir Negara,"Jl. Ngurah Rai No.138, Dauhwaru, Kec. Jembrana, Kabupaten Jembrana, Bali 82218","Dauhwaru, Kec. Jembrana, Kabupaten Jembrana",BALI,82218.0,Indonesia,87761299164.0,,,-8.3614866,114.6399114,https://maps.google.com/?cid=0x0:0x8e70cf0289264e1c,
supermarket,Minimarket,Satria Mart Negara Indomaret,"Jl. Jenderal Sudirman, Pendem, Kec. Jembrana, Kabupaten Jembrana, Bali 82218","Pendem, Kec. Jembrana, Kabupaten Jembrana",BALI,82218.0,Indonesia,,,,-8.3575623,114.6273388,https://maps.google.com/?cid=0x0:0x7e6fe61acb873dd6,
supermarket,Pasar,Pasar Senggol Negara,"JJQG+H6W, Dauhwaru, Kec. Negara, Kabupaten Jembrana, Bali 82218","Dauhwaru, Kec. Negara, Kabupaten Jembrana",BALI,82218.0,Indonesia,,,,-8.3610227,114.6255641,https://maps.google.com/?cid=0x0:0xecb417586ec31679,
supermarket,Toko Swalayan,Toko Gek Cantik,"JJR9+MW8, Banjar Tengah, Kec. Negara, Kabupaten Jembrana, Bali 82218","Banjar Tengah, Kec. Negara, Kabupaten Jembrana",BALI,82218.0,Indonesia,81936588415.0,,,-8.358349,114.6198408,https://maps.google.com/?cid=0x0:0x8554e94f7f609c7,
supermarket,Toko Swalayan,Artasedana Negara,"Jl. Ngurah Rai No.95, Pendem, Kec. Negara, Kabupaten Jembrana, Bali 82218","Pendem, Kec. Negara, Kabupaten Jembrana",BALI,82218.0,Indonesia,87749995559.0,,,-8.3603732,114.6279088,https://maps.google.com/?cid=0x0:0x1d01de180f38e928,
supermarket,Toko Kain Linen,Subur Fashion Center,"Jl. Ngurah Rai No.40, Loloan Tim., Kec. Jembrana, Kabupaten Jembrana, Bali 82218","Loloan Tim., Kec. Jembrana, Kabupaten Jembrana",BALI,82218.0,Indonesia,8113807789.0,,,-8.3608627,114.6281715,https://maps.google.com/?cid=0x0:0xbf964b9327da834e,
supermarket,Toko Perlengkapan Rumah,Toko Bangunan Kawi Jaya,"Jl. Pahlawan, Pendem, Kec. Negara, Kabupaten Jembrana, Bali 82218","Pendem, Kec. Negara, Kabupaten Jembrana",BALI,82218.0,Indonesia,36541288.0,,,-8.3580215,114.6256185,https://maps.google.com/?cid=0x0:0x9bbe88362e356a5e,
supermarket,Toko Swalayan,Toko Delapan,"Jl. Danau Tondano Gg. II No.8, Lelateng, Kec. Negara, Kabupaten Jembrana, Bali 82218","Lelateng, Kec. Negara, Kabupaten Jembrana",BALI,82218.0,Indonesia,8970551048.0,,,-8.3608174,114.619391,https://maps.google.com/?cid=0x0:0x69e4b4546a4fd355,
supermarket,Toko Mebel,Sari Wangi 2,"Bali, Negara, Jl. Sudirman No.17, Pendem, Kec. Jembrana, Kabupaten Jembrana, Bali 82218","Negara, Jl. Sudirman No.17, Pendem, Kec. Jembrana, Kabupaten Jembrana",BALI,82218.0,Indonesia,81338226000.0,,,-8.3571907,114.628269,https://maps.google.com/?cid=0x0:0x625b6e9f856758f2,
supermarket,Minimarket,Toko Surya Makmur Udayana,"Jl. Udayana No.86, Baler Bale Agung, Kec. Negara, Kabupaten Jembrana, Bali 82218","Baler Bale Agung, Kec. Negara, Kabupaten Jembrana",BALI,82218.0,Indonesia,3654501919.0,,,-8.3546143,114.6126369,https://maps.google.com/?cid=0x0:0xecd9b8f6fdb0796c,
supermarket,Minimarket,Indomaret Fresh Negara 2,"Jl. Ngurah Rai No.159, Dauhwaru, Kec. Jembrana, Kabupaten Jembrana, Bali 82218","Dauhwaru, Kec. Jembrana, Kabupaten Jembrana",BALI,82218.0,Indonesia,36540418.0,,,-8.3610851,114.6369867,https://maps.google.com/?cid=0x0:0x38a77eafc78a2493,
supermarket,Toko bahan makanan,Agen46 Toko Kita,"Jl. Sudirman No.11a, Pendem, Kec. Negara, Kabupaten Jembrana, Bali 82218","Pendem, Kec. Negara, Kabupaten Jembrana",BALI,82218.0,Indonesia,,,,-8.3572309,114.6270063,https://maps.google.com/?cid=0x0:0x219362ecac3dfd1b,
supermarket,Restoran,Rosari,"Jl. Gatot Subroto No.3, Banjar Tengah, Kec. Negara, Kabupaten Jembrana, Bali 82218","Banjar Tengah, Kec. Negara, Kabupaten Jembrana",BALI,82218.0,Indonesia,36541464.0,,,-8.3602658,114.6225417,https://maps.google.com/?cid=0x0:0xe8cafafa8865380d,
supermarket,Toko Swalayan,Toko Wijaya,"Jl. Arjuna No.10, Baler Bale Agung, Kec. Negara, Kabupaten Jembrana, Bali 82218","Baler Bale Agung, Kec. Negara, Kabupaten Jembrana",BALI,82218.0,Indonesia,81999484728.0,,,-8.3579368,114.6183217,https://maps.google.com/?cid=0x0:0xee9ae95ce60cdf6,
supermarket,Pasar,Pasar Ijo Gading ᬧᬲᬃᬇᬚᭀᬕᬤᬶᬂ᭟,"JJQG+M27, Loloan Tim., Kec. Jembrana, Kabupaten Jembrana, Bali 82218","Loloan Tim., Kec. Jembrana, Kabupaten Jembrana",BALI,82218.0,Indonesia,,,,-8.3608326,114.6250361,https://maps.google.com/?cid=0x0:0x7dfef7abd718d336,
supermarket,Toko Peralatan Olahraga,Toko Bharata Sport  Fashion,"Jl. Ngurah Rai No.36, Loloan Tim., Kec. Jembrana, Kabupaten Jembrana, Bali 82218","Loloan Tim., Kec. Jembrana, Kabupaten Jembrana",BALI,82218.0,Indonesia,81936556284.0,,,-8.3607961,114.6279508,https://maps.google.com/?cid=0x0:0x18279cf16969fd45,
supermarket,Toko Swalayan,Anugrah Beten Buluan,"Jl. Danau Ranau No.15, Lelateng, Kec. Negara, Kabupaten Jembrana, Bali 82218","Lelateng, Kec. Negara, Kabupaten Jembrana",BALI,82218.0,Indonesia,82147562992.0,,,-8.3606453,114.6162992,https://maps.google.com/?cid=0x0:0x96c2771bd2534f00,
supermarket,Minimarket,Central Mini Market,"MJ2C+J4R, Jl. Plawa, Baler Bale Agung, Kec. Negara, Kabupaten Jembrana, Bali 82218","Jl. Plawa, Baler Bale Agung, Kec. Negara, Kabupaten Jembrana",BALI,82218.0,Indonesia,87861203008.0,,,-8.3483756,114.6202786,https://maps.google.com/?cid=0x0:0xf133b038847e8d48,
supermarket,Toko Fotokopi,Wahana Prima,"Jl. Danau Buyan No.13, Lelateng, Kec. Negara, Kabupaten Jembrana, Bali 82218","Lelateng, Kec. Negara, Kabupaten Jembrana",BALI,82218.0,Indonesia,,,,-8.3610154,114.620532,https://maps.google.com/?cid=0x0:0xc6a5e8a5683edc78,
supermarket,Toko Swalayan,Toko Nazaret,"Jl. Nusa Indah No.79 B, Baler Bale Agung, Kec. Negara, Kabupaten Jembrana, Bali 82218","Baler Bale Agung, Kec. Negara, Kabupaten Jembrana",BALI,82218.0,Indonesia,81936449589.0,,,-8.3425393,114.6201162,https://maps.google.com/?cid=0x0:0xb66177500e5b89a8,
supermarket,supermarket,Arak Jembrana Store,"Jl. Sungai Citarum No.7, Sangkaragung, Kec. Jembrana, Kabupaten Jembrana, Bali 82218","Sangkaragung, Kec. Jembrana, Kabupaten Jembrana",BALI,82218.0,Indonesia,88975185390.0,,,-8.3763296,114.6479049,https://maps.google.com/?cid=0x0:0x864c2440ed421392,
supermarket,Toko Pakaian Anak,WB TOKO KITA,"Jl. Sudirman No.9, Pendem, Kec. Jembrana, Kabupaten Jembrana, Bali 82218","Pendem, Kec. Jembrana, Kabupaten Jembrana",BALI,82218.0,Indonesia,36543528.0,,,-8.3571154,114.6268968,https://maps.google.com/?cid=0x0:0x4d59e3f477854ff8,
supermarket,Toko bahan makanan,Bali Mart,"Jl. Raya Denpasar - Gilimanuk No.Km 12, Tuwed, Kec. Melaya, Kabupaten Jembrana, Bali 82252","Tuwed, Kec. Melaya, Kabupaten Jembrana",BALI,82252.0,Indonesia,81936063167.0,,,-8.3155691,114.5272072,https://maps.google.com/?cid=0x0:0x3d94b22e4632eed1,
supermarket,Toko bahan makanan,BAHAGIA MART,"PG83+WGJ, Jl. Raya Denpasar - Gilimanuk, Nusasari, Kec. Melaya, Kabupaten Jembrana, Bali 82252","Jl. Raya Denpasar - Gilimanuk, Nusasari, Kec. Melaya, Kabupaten Jembrana",BALI,82252.0,Indonesia,,,,-8.2826648,114.5037504,https://maps.google.com/?cid=0x0:0xd0f62e9c4648d7b4,
supermarket,supermarket,Bali 82252,"Kec. Melaya, Kabupaten Jembrana, Bali","Kabupaten Jembrana, Bali",BALI,,Indonesia,,,,-8.2331562,114.5005038,https://maps.google.com/?cid=0x0:0x1c00c5eb6016c2f0,
supermarket,Toko bahan makanan,Toko Fariha,"PFMM+8X4, Unnamed Road, Melaya, Kec. Melaya, Kabupaten Jembrana, Bali 82252","Unnamed Road, Melaya, Kec. Melaya, Kabupaten Jembrana",BALI,82252.0,Indonesia,82237610443.0,,,-8.266736,114.484956,https://maps.google.com/?cid=0x0:0xd73d69e394bdc2f4,
supermarket,Toko,Minimarket Bagus,"PFGW+8X7, Melaya, Kec. Melaya, Kabupaten Jembrana, Bali 82252","Melaya, Kec. Melaya, Kabupaten Jembrana",BALI,82252.0,Indonesia,,,,-8.2742131,114.4974145,https://maps.google.com/?cid=0x0:0xf9017e6389ce6561,
supermarket,Minimarket,Toko BM - Barokah Mega -,"PFHW+3FW, Jl. Sukoto, Melaya, Kec. Melaya, Kabupaten Jembrana, Bali 82252","Jl. Sukoto, Melaya, Kec. Melaya, Kabupaten Jembrana",BALI,82252.0,Indonesia,85935222211.0,,,-8.2722611,114.4962104,https://maps.google.com/?cid=0x0:0x469da0a6320a6e3f,
supermarket,Toko Swalayan,UD. SINAR USAHA,"Melaya, Kec. Melaya, Kabupaten Jembrana, Bali 82252","Kec. Melaya, Kabupaten Jembrana",BALI,82252.0,Indonesia,81803676561.0,,,-8.2668967,114.4984511,https://maps.google.com/?cid=0x0:0xd770d25722d60584,
supermarket,Toko bahan makanan,Toko LUCKY,"Jl. Palasari, Ekasari, Kec. Melaya, Kabupaten Jembrana, Bali 82252","Ekasari, Kec. Melaya, Kabupaten Jembrana",BALI,82252.0,Indonesia,81703172696.0,,,-8.2578105,114.5345225,https://maps.google.com/?cid=0x0:0xe3714b169ea86fdc,
supermarket,Minimarket,Alfamart Gilimanuk,"Jl. Raya Denpasar - Gilimanuk, Gilimanuk, Kec. Melaya, Kab. Jembrana, Bali 82252","Gilimanuk, Kec. Melaya, Kab. Jembrana",BALI,82252.0,Indonesia,,,,-8.1758718,114.43698,https://maps.google.com/?cid=0x0:0x49384d1411fa1038,
supermarket,Toko bahan makanan,Toko Susilawati,"Jl. A.A Ngurah Kediri No.5, Ekasari, Melaya, Jembrana Regency, Bali 82252","Ekasari, Melaya, Jembrana Regency",BALI,82252.0,Indonesia,,,,-8.2622574,114.5322215,https://maps.google.com/?cid=0x0:0x495beff20f73b1e8,
supermarket,Toko Pakaian,Toko As,"PGPJ+FG2, Ekasari, Kec. Melaya, Kabupaten Jembrana, Bali 82252","Ekasari, Kec. Melaya, Kabupaten Jembrana",BALI,82252.0,Indonesia,81916569906.0,,,-8.2638587,114.5312728,https://maps.google.com/?cid=0x0:0xc1a4940944603404,
supermarket,Toko,Toko Aisha  IinCell,"PG5C+866, Unnamed Road, Candikusuma, Kec. Melaya, Kabupaten Jembrana, Bali 82252","Unnamed Road, Candikusuma, Kec. Melaya, Kabupaten Jembrana",BALI,82252.0,Indonesia,8170675095.0,,,-8.2917138,114.5205171,https://maps.google.com/?cid=0x0:0x9d254f186369ad2a,
supermarket,Toko,Toko Bu Wiwik,"Melaya, Kec. Melaya, Kabupaten Jembrana, Bali 82252","Kec. Melaya, Kabupaten Jembrana",BALI,82252.0,Indonesia,81805660662.0,,,-8.2726352,114.4970877,https://maps.google.com/?cid=0x0:0xe01cdf95adf8fec9,
supermarket,Toko bahan makanan,Toko Sudi,"PGHH+FW4, Unnamed Road, Ekasari, Kec. Melaya, Kabupaten Jembrana, Bali 82252","Unnamed Road, Ekasari, Kec. Melaya, Kabupaten Jembrana",BALI,82252.0,Indonesia,83874632074.0,,,-8.2713531,114.5298245,https://maps.google.com/?cid=0x0:0x4df72d516789413a,
supermarket,Toko bahan makanan,Toko Sri,"PGQM+36M, Jl. Dusun Palasari, Ekasari, Kec. Melaya, Kabupaten Jembrana, Bali 82252","Jl. Dusun Palasari, Ekasari, Kec. Melaya, Kabupaten Jembrana",BALI,82252.0,Indonesia,81916615595.0,,,-8.2622759,114.5330512,https://maps.google.com/?cid=0x0:0xc39d92b475c0b50e,
supermarket,Toko bahan makanan,Dexgoris,"MGWJ+9J7, Candikusuma, Kec. Melaya, Kabupaten Jembrana, Bali 82252","Candikusuma, Kec. Melaya, Kabupaten Jembrana",BALI,82252.0,Indonesia,87761702703.0,,,-8.3040914,114.5315457,https://maps.google.com/?cid=0x0:0x3ffbfc2fb2cd62ef,
supermarket,Toko bahan makanan,Toko Ayu Arta,"MGPQ+5HG, Unnamed Road, Tuwed, Kec. Melaya, Kabupaten Jembrana, Bali 82252","Unnamed Road, Tuwed, Kec. Melaya, Kabupaten Jembrana",BALI,82252.0,Indonesia,87863018954.0,,,-8.3145669,114.5389521,https://maps.google.com/?cid=0x0:0x9fbf083da91303d6,
supermarket,Toko Swalayan,Wr Komang Agus,"Unnamed Road, 82218, Kaliakah, Kec. Negara, Kabupaten Jembrana, Bali 82218","82218, Kaliakah, Kec. Negara, Kabupaten Jembrana",BALI,82218.0,Indonesia,87760118569.0,,,-8.3214979,114.5952581,https://maps.google.com/?cid=0x0:0x573f82d841a00205,
supermarket,Toko Kelontong Asia,Warung Bakti,"PFRJ+HFJ, Jl. Denpasar-Gilimanuk, Melaya, Jembrana, Bali, Melaya, Kec. Melaya, Negara, Bali 82252","Jl. Denpasar-Gilimanuk, Melaya, Jembrana, Bali, Melaya, Kec. Melaya, Negara",BALI,82252.0,Indonesia,81936083764.0,,,-8.2585289,114.4811283,https://maps.google.com/?cid=0x0:0xfe59c40fd5644889,
supermarket,Toko bahan makanan,Rumah P.jumaden,"PFRX+XMW, Jl. Melaya Tengah Kaja, Melaya, Kec. Melaya, Kabupaten Jembrana, Bali 82252","Jl. Melaya Tengah Kaja, Melaya, Kec. Melaya, Kabupaten Jembrana",BALI,82252.0,Indonesia,82334638670.0,,,-8.2575034,114.499213,https://maps.google.com/?cid=0x0:0x6225572c89b8f98b,
supermarket,Pasar,Pasar Melaya,"PFGW+FRR, Pasar, Melaya, Kec. Negara, Kabupaten Jembrana, Bali 82252","Pasar, Melaya, Kec. Negara, Kabupaten Jembrana",BALI,82252.0,Indonesia,,,,-8.2737571,114.4970061,https://maps.google.com/?cid=0x0:0xe4bd6cd6395e41f8,
supermarket,Minimarket,Toko Basmalah Sidogiri Gilimanuk,"Jl. Raya Denpasar - Gilimanuk, Gilimanuk, Kec. Melaya, Kabupaten Jembrana, Bali 82252","Gilimanuk, Kec. Melaya, Kabupaten Jembrana",BALI,82252.0,Indonesia,,,,-8.1791981,114.4379346,https://maps.google.com/?cid=0x0:0x7d712f65116dc7cb,
supermarket,Toko bahan makanan,D'SELOOO,"PFHX+J7C, Jl. Sukoto Gg Jepun, Melaya, Kec. Melaya, Kabupaten Jembrana, Bali 82252","Jl. Sukoto Gg Jepun, Melaya, Kec. Melaya, Kabupaten Jembrana",BALI,82252.0,Indonesia,87856343151.0,,,-8.2709587,114.4981434,https://maps.google.com/?cid=0x0:0xc28921d25cff28a7,
supermarket,Minimarket,Toko Basmalah Sidogiri Melaya,"PFFX+HVM, Jl. Raya Denpasar - Gilimanuk, Melaya, Kec. Melaya, Kabupaten Jembrana, Bali 82252","Jl. Raya Denpasar - Gilimanuk, Melaya, Kec. Melaya, Kabupaten Jembrana",BALI,82252.0,Indonesia,,,,-8.2760467,114.4996569,https://maps.google.com/?cid=0x0:0x753439f264953ef4,
supermarket,Minimarket,bintang minimarket,"PGC2+V5R, Jl. Raya Denpasar - Gilimanuk, Melaya, Kec. Melaya, Kabupaten Jembrana, Bali 82252","Jl. Raya Denpasar - Gilimanuk, Melaya, Kec. Melaya, Kabupaten Jembrana",BALI,82252.0,Indonesia,,,,-8.2777683,114.5003933,https://maps.google.com/?cid=0x0:0x9c253bac8a0cb66f,
supermarket,Toko bahan makanan,Minimarket Bu Ria,"PGWQ+9G9, Ekasari, Kec. Melaya, Kabupaten Jembrana, Bali 82252","Ekasari, Kec. Melaya, Kabupaten Jembrana",BALI,82252.0,Indonesia,81936449592.0,,,-8.2540943,114.5388591,https://maps.google.com/?cid=0x0:0x9997ed4b274aead5,
supermarket,Minimarket,Toko Prima Jaya,"PFPX+CWJ, Melaya, Kec. Melaya, Kabupaten Jembrana, Bali 82252","Melaya, Kec. Melaya, Kabupaten Jembrana",BALI,82252.0,Indonesia,,,,-8.2639099,114.4997623,https://maps.google.com/?cid=0x0:0x6bde11391d568949,
supermarket,Toko Bahan Bangunan,Toko Sentral Muda,"PGW6+778, Jalan Pangkung Tanah, Melaya, Kec. Melaya, Kabupaten Jembrana, Bali 82252","Jalan Pangkung Tanah, Melaya, Kec. Melaya, Kabupaten Jembrana",BALI,82252.0,Indonesia,81338404513.0,,,-8.2543404,114.5107102,https://maps.google.com/?cid=0x0:0x6c830716b97ced16,
supermarket,Toko,Brilink toko baim,"PFMX+VHW, Unnamed Road, Melaya, Kec. Melaya, Kabupaten Jembrana, Bali 82252","Unnamed Road, Melaya, Kec. Melaya, Kabupaten Jembrana",BALI,82252.0,Indonesia,83114137393.0,,,-8.2652533,114.4989395,https://maps.google.com/?cid=0x0:0x1efc1ba77eaa6f05,
supermarket,supermarket,Bali 82261,"Kec. Mendoyo, Kabupaten Jembrana, Bali","Kabupaten Jembrana, Bali",BALI,,Indonesia,,,,-8.2984574,114.7380385,https://maps.google.com/?cid=0x0:0x1c00c5eb6016c300,
supermarket,Toko bahan makanan,Toko ANOM JAYA,"JP5X+JQJ, Jl. Raya Denpasar - Gilimanuk, Yeh Embang Kauh, Kec. Mendoyo, Kabupaten Jembrana, Bali 82261","Jl. Raya Denpasar - Gilimanuk, Yeh Embang Kauh, Kec. Mendoyo, Kabupaten Jembrana",BALI,82261.0,Indonesia,,,,-8.3909039,114.7494059,https://maps.google.com/?cid=0x0:0xaef3eda802566d9d,
supermarket,Toko Swalayan,sri sedana mart,"MJ39+JPR, Jl. Kenyeri, Baler Bale Agung, Kec. Negara, Kabupaten Jembrana, Bali 82218","Jl. Kenyeri, Baler Bale Agung, Kec. Negara, Kabupaten Jembrana",BALI,82218.0,Indonesia,3654501166.0,,,-8.3458757,114.6192653,https://maps.google.com/?cid=0x0:0x2fa7400b553278c1,
supermarket,Toko bahan makanan,Toko SUEGAR,"JPF5+49P, Penyaringan, Kec. Mendoyo, Kabupaten Jembrana, Bali 82261","Penyaringan, Kec. Mendoyo, Kabupaten Jembrana",BALI,82261.0,Indonesia,,,,-8.3771688,114.7084656,https://maps.google.com/?cid=0x0:0x60d9ed612ff6b254,
supermarket,Minimarket,Toko sayu nduk,"JMF7+9JF, Jl. Drupadi, Mendoyo Dangin Tukad, Kec. Mendoyo, Kabupaten Jembrana, Bali 82261","Jl. Drupadi, Mendoyo Dangin Tukad, Kec. Mendoyo, Kabupaten Jembrana",BALI,82261.0,Indonesia,87860625371.0,,,-8.376566,114.6640528,https://maps.google.com/?cid=0x0:0x37c4771952fc45aa,
supermarket,Toko bahan makanan,Edina Mart,"MQ3C+VQF, Yeh Embang, Kec. Mendoyo, Kabupaten Jembrana, Bali 82261","Yeh Embang, Kec. Mendoyo, Kabupaten Jembrana",BALI,82261.0,Indonesia,,,,-8.3453072,114.7719145,https://maps.google.com/?cid=0x0:0x7505df1effe72184,
supermarket,Toko Swalayan,Hees Mart Bali,"banjar dauh marga No.97, Delod Berawah, Kec. Jembrana, Kabupaten Jembrana, Bali","Kabupaten Jembrana, Bali",BALI,,Indonesia,,,,-8.3919246,114.6686141,https://maps.google.com/?cid=0x0:0xd1919b527c5049c3,
supermarket,Toko Swalayan,Toko Sri Artha,"JMJF+5HC, Jl. Raya Dps Gilimanuk, Pohsanten, Kec. Mendoyo, Kabupaten Jembrana, Bali 82261","Jl. Raya Dps Gilimanuk, Pohsanten, Kec. Mendoyo, Kabupaten Jembrana",BALI,82261.0,Indonesia,82147079612.0,,,-8.369555,114.6738813,https://maps.google.com/?cid=0x0:0xf985b716ece2ae08,
supermarket,Toko,Toko Sri Puspa,"JQ82+C9J, Yeh Embang Kauh, Kec. Mendoyo, Kabupaten Jembrana, Bali 82261","Yeh Embang Kauh, Kec. Mendoyo, Kabupaten Jembrana",BALI,82261.0,Indonesia,8786215149.0,,,-8.3839048,114.7508781,https://maps.google.com/?cid=0x0:0x2e640cbc6df4f9af,
supermarket,Minimarket,Alfamart,"Jl. Raya Denpasar - Gilimanuk, Baler Bale Agung, Kec. Mendoyo, Kab. Jembrana, Bali 82261","Baler Bale Agung, Kec. Mendoyo, Kab. Jembrana",BALI,82261.0,Indonesia,211500959.0,,,-8.37745,114.68545,https://maps.google.com/?cid=0x0:0xaaeef0804868c110,
supermarket,Toko Swalayan,Citra Anugrah,"JM9X+J9F, Jl. Raya Denpasar - Gilimanuk, Tegal Cangkring, Kec. Mendoyo, Kabupaten Jembrana, Bali 82261","Jl. Raya Denpasar - Gilimanuk, Tegal Cangkring, Kec. Mendoyo, Kabupaten Jembrana",BALI,82261.0,Indonesia,,,,-8.3809386,114.6984119,https://maps.google.com/?cid=0x0:0x7e008ea3a1890af0,
supermarket,Pusat Perbelanjaan,Clandys Grosir Negara,"Jl. Ngurah Rai No.138, Dauhwaru, Kec. Jembrana, Kabupaten Jembrana, Bali 82218","Dauhwaru, Kec. Jembrana, Kabupaten Jembrana",BALI,82218.0,Indonesia,87761299164.0,,,-8.3614866,114.6399114,https://maps.google.com/?cid=0x0:0x8e70cf0289264e1c,
supermarket,Minimarket,Alfamart,"HQRX+8XP, Medewi, Kec. Mendoyo, Kabupaten Jembrana, Bali","Kabupaten Jembrana, Bali",BALI,,Indonesia,,,,-8.4091523,114.7999646,https://maps.google.com/?cid=0x0:0xa2f5d8f443b2e6f5,
supermarket,Toko Makanan,Toko Juli Jaya,"JMP9+H29, Mendoyo Dauh Tukad, Kec. Mendoyo, Kabupaten Jembrana, Bali 82261","Mendoyo Dauh Tukad, Kec. Mendoyo, Kabupaten Jembrana",BALI,82261.0,Indonesia,8123959669.0,,,-8.3635981,114.6676176,https://maps.google.com/?cid=0x0:0x273572a855a1e24c,
supermarket,Toko Kelontong Asia,Warung Sembako Bu Komang,"Unnamed Road, Delod Berawah, Kec. Mendoyo, Kabupaten Jembrana, Bali 82261","Delod Berawah, Kec. Mendoyo, Kabupaten Jembrana",BALI,82261.0,Indonesia,85937409740.0,,,-8.3919282,114.6734673,https://maps.google.com/?cid=0x0:0xf8300032e6fb1066,
supermarket,Toko Swalayan,COLLE STORE,"JPM3+W72, Tegal Cangkring, Kec. Mendoyo, Kabupaten Jembrana, Bali 82261","Tegal Cangkring, Kec. Mendoyo, Kabupaten Jembrana",BALI,82261.0,Indonesia,,,,-8.3652291,114.7031467,https://maps.google.com/?cid=0x0:0x59209aca2a0e55b5,
supermarket,Minimarket,Warung BANJAR,"JMWJ+QFC, Jl. Pangkung Jangu, Pohsanten, Kec. Mendoyo, Kabupaten Jembrana, Bali 82261","Jl. Pangkung Jangu, Pohsanten, Kec. Mendoyo, Kabupaten Jembrana",BALI,82261.0,Indonesia,85847818618.0,,,-8.3530731,114.6811261,https://maps.google.com/?cid=0x0:0x85e6234ec0667a8e,
supermarket,Minimarket,Toko sudiarta,"JQ52+H84, Jl. Raya Denpasar - Gilimanuk, Yeh Embang Kauh, Kec. Mendoyo, Kabupaten Jembrana, Bali 82261","Jl. Raya Denpasar - Gilimanuk, Yeh Embang Kauh, Kec. Mendoyo, Kabupaten Jembrana",BALI,82261.0,Indonesia,85237092046.0,,,-8.3911215,114.7508204,https://maps.google.com/?cid=0x0:0xa2ae4b67382352e3,
supermarket,Toko,toko sri rejeki,"MMJQ+628, Pohsanten, Kec. Mendoyo, Kabupaten Jembrana, Bali 82261","Pohsanten, Kec. Mendoyo, Kabupaten Jembrana",BALI,82261.0,Indonesia,,,,-8.3194508,114.687575,https://maps.google.com/?cid=0x0:0x30c4242c28d9b487,
supermarket,Toko Kelontong Asia,Sukla Asih,"JMHG+FXQ, Pohsanten, Kec. Mendoyo, Kabupaten Jembrana, Bali 82261","Pohsanten, Kec. Mendoyo, Kabupaten Jembrana",BALI,82261.0,Indonesia,82237243744.0,,,-8.3712848,114.6774772,https://maps.google.com/?cid=0x0:0xd76a1c9a0e219dd0,
supermarket,Agen Pemasaran,Toko Produk Nasa,"JMJQ+VJW, Pergung, Kec. Mendoyo, Kabupaten Jembrana, Bali 82261","Pergung, Kec. Mendoyo, Kabupaten Jembrana",BALI,82261.0,Indonesia,81338767707.0,,,-8.367773,114.6890715,https://maps.google.com/?cid=0x0:0x8287768d9e85adfb,
supermarket,Toko Alat Tulis,Pandawa Printing Yehembang,"JP6X+RR9, Unnamed Road, Yeh Embang Kauh, Kec. Mendoyo, Kabupaten Jembrana, Bali 82261","Unnamed Road, Yeh Embang Kauh, Kec. Mendoyo, Kabupaten Jembrana",BALI,82261.0,Indonesia,,,,-8.3879628,114.749623,https://maps.google.com/?cid=0x0:0xc768a96f556766d,
supermarket,supermarket,Bali 82212,"Kec. Negara, Kabupaten Jembrana, Bali","Kabupaten Jembrana, Bali",BALI,,Indonesia,,,,-8.2907104,114.6252282,https://maps.google.com/?cid=0x0:0x1c00c5eb6016c270,
supermarket,Toko Swalayan,sri sedana mart,"MJ39+JPR, Jl. Kenyeri, Baler Bale Agung, Kec. Negara, Kabupaten Jembrana, Bali 82218","Jl. Kenyeri, Baler Bale Agung, Kec. Negara, Kabupaten Jembrana",BALI,82218.0,Indonesia,3654501166.0,,,-8.3458757,114.6192653,https://maps.google.com/?cid=0x0:0x2fa7400b553278c1,
supermarket,Toko,Sudiarta Mart,"JJVC+552, Jl. Udayana, Banjar Tengah, Kec. Negara, Kabupaten Jembrana, Bali 82218","Jl. Udayana, Banjar Tengah, Kec. Negara, Kabupaten Jembrana",BALI,82218.0,Indonesia,8113988758.0,,,-8.3571136,114.6203846,https://maps.google.com/?cid=0x0:0x68fa3fcf4053a630,
supermarket,Pusat Perbelanjaan,Clandys Grosir Negara,"Jl. Ngurah Rai No.138, Dauhwaru, Kec. Jembrana, Kabupaten Jembrana, Bali 82218","Dauhwaru, Kec. Jembrana, Kabupaten Jembrana",BALI,82218.0,Indonesia,87761299164.0,,,-8.3614866,114.6399114,https://maps.google.com/?cid=0x0:0x8e70cf0289264e1c,
supermarket,Toko,Toko Rahayu Swalayan,"Jl. Ngurah Rai No.39, Loloan Tim., Kec. Jembrana, Kabupaten Jembrana, Bali 82218","Loloan Tim., Kec. Jembrana, Kabupaten Jembrana",BALI,82218.0,Indonesia,811390090.0,,,-8.3607286,114.6265016,https://maps.google.com/?cid=0x0:0x7c15968b08088ff3,
supermarket,Toko bahan makanan,UD. Panji,"Jl. Desa Kaliakah, Kaliakah, Kec. Negara, Kabupaten Jembrana, Bali 82212","Kaliakah, Kec. Negara, Kabupaten Jembrana",BALI,82212.0,Indonesia,87861541019.0,,,-8.3432551,114.60594,https://maps.google.com/?cid=0x0:0x8a53e88d31303cdb,
supermarket,Toko Swalayan,Wr Komang Agus,"Unnamed Road, 82218, Kaliakah, Kec. Negara, Kabupaten Jembrana, Bali 82218","82218, Kaliakah, Kec. Negara, Kabupaten Jembrana",BALI,82218.0,Indonesia,87760118569.0,,,-8.3214979,114.5952581,https://maps.google.com/?cid=0x0:0x573f82d841a00205,
supermarket,Toko Elektronik,iFix Store Bali,"Pertokoan Kutawaringin, Jl. Ratna No.28, Baler Bale Agung, Kec. Negara, Kabupaten Jembrana, Bali 82212","Jl. Ratna No.28, Baler Bale Agung, Kec. Negara, Kabupaten Jembrana",BALI,82212.0,Indonesia,82144979919.0,,,-8.3545806,114.6231864,https://maps.google.com/?cid=0x0:0xa49d4af39ea8589e,
supermarket,Toko Swalayan,Toko Nazaret,"Jl. Nusa Indah No.79 B, Baler Bale Agung, Kec. Negara, Kabupaten Jembrana, Bali 82218","Baler Bale Agung, Kec. Negara, Kabupaten Jembrana",BALI,82218.0,Indonesia,81936449589.0,,,-8.3425393,114.6201162,https://maps.google.com/?cid=0x0:0xb66177500e5b89a8,
supermarket,Toko Swalayan,Toko Sedana Dewi,"Simpang, Bali, Jl. Raya Negara-Gilimanuk No.3, Banyu Biru, Kec. Negara, Kabupaten Jembrana, Bali 82212","Bali, Jl. Raya Negara-Gilimanuk No.3, Banyu Biru, Kec. Negara, Kabupaten Jembrana",BALI,82212.0,Indonesia,87863215993.0,,,-8.3475128,114.5752344,https://maps.google.com/?cid=0x0:0x773040aca5d17c87,
supermarket,Toko Swalayan,Toko devi cantik,"MJ49+2R8, Jl. Nusa Indah, Baler Bale Agung, Kec. Negara, Kabupaten Jembrana, Bali 82218","Jl. Nusa Indah, Baler Bale Agung, Kec. Negara, Kabupaten Jembrana",BALI,82218.0,Indonesia,81236727915.0,,,-8.3449603,114.6195799,https://maps.google.com/?cid=0x0:0xd73c668b149ea420,
supermarket,Toko umum,Warung sembako Jati Jaya,"PJ3F+3G, Berangbang, Kec. Negara, Kabupaten Jembrana, Bali 82212","Berangbang, Kec. Negara, Kabupaten Jembrana",BALI,82212.0,Indonesia,81337806954.0,,,-8.2966453,114.6239469,https://maps.google.com/?cid=0x0:0xb8ecee1cb781458f,
supermarket,Toko Kelontong Asia,Wr.Suitri,"Jl. Banjar Kebon Sari, Baler Bale Agung, Kec. Negara, Kabupaten Jembrana, Bali 82212","Baler Bale Agung, Kec. Negara, Kabupaten Jembrana",BALI,82212.0,Indonesia,82145414570.0,,,-8.3387329,114.6188266,https://maps.google.com/?cid=0x0:0xf3c11f72d915c9f,
supermarket,Toko,Toko Dennita Cell,"JJX9+VF6, Jl. Teratai, Baler Bale Agung, Kec. Negara, Kabupaten Jembrana, Bali 82218","Jl. Teratai, Baler Bale Agung, Kec. Negara, Kabupaten Jembrana",BALI,82218.0,Indonesia,87860490747.0,,,-8.3503493,114.6186405,https://maps.google.com/?cid=0x0:0xd5be90b519937e2b,
supermarket,Toko Pertanian,Toko Tani,"MJ58+3WG, Jl. Leli, Baler Bale Agung, Kec. Negara, Kabupaten Jembrana, Bali 82218","Jl. Leli, Baler Bale Agung, Kec. Negara, Kabupaten Jembrana",BALI,82218.0,Indonesia,81236780577.0,,,-8.3423086,114.6173241,https://maps.google.com/?cid=0x0:0xccb8a6a16622074c,
supermarket,Toko Swalayan,Toko Haylia,"JJR7+7G9 Hotel Bali Kuwi, Jl. Danau Sentani, Lelateng, Kec. Negara, Kabupaten Jembrana, Bali 82218","Jl. Danau Sentani, Lelateng, Kec. Negara, Kabupaten Jembrana",BALI,82218.0,Indonesia,81237736766.0,,,-8.3593495,114.6138608,https://maps.google.com/?cid=0x0:0xc2a34b48bf508fe9,
supermarket,Toko Kelontong Asia,Wr.Astuti,"Jl. Leli No.3, Baler Bale Agung, Kec. Negara, Kabupaten Jembrana, Bali 82212","Baler Bale Agung, Kec. Negara, Kabupaten Jembrana",BALI,82212.0,Indonesia,87861898636.0,,,-8.3422231,114.6170225,https://maps.google.com/?cid=0x0:0xd0b4db6f5d933e4,
supermarket,Toko bahan makanan,Agen46 Toko Kita,"Jl. Sudirman No.11a, Pendem, Kec. Negara, Kabupaten Jembrana, Bali 82218","Pendem, Kec. Negara, Kabupaten Jembrana",BALI,82218.0,Indonesia,,,,-8.3572309,114.6270063,https://maps.google.com/?cid=0x0:0x219362ecac3dfd1b,
supermarket,Toko Bahan Bangunan,Toko Serba Ada,"MJ77+5VC, Jl. Desa Berangbang, Berangbang, Kec. Negara, Kabupaten Jembrana, Bali 82218","Jl. Desa Berangbang, Berangbang, Kec. Negara, Kabupaten Jembrana",BALI,82218.0,Indonesia,85769908768.0,,,-8.3370697,114.6146488,https://maps.google.com/?cid=0x0:0x772fd6c88dcb3ec8,
supermarket,Toko Roti,Istana Kue Negara,"Perumahan Baler Bale Agung Jalan Nusa Indah Gang XXI No.4 Kel, Baler Bale Agung, Kec. Negara, Kabupaten Jembrana, Bali 82218","Baler Bale Agung, Kec. Negara, Kabupaten Jembrana",BALI,82218.0,Indonesia,8124656133.0,,,-8.3447742,114.6195131,https://maps.google.com/?cid=0x0:0xe15d8131760fbc33,
supermarket,Toko Kelontong Asia,Wr.U'E,"MJQ5+8F5, Jl. Indra Kusuma, Berangbang, Kec. Negara, Kabupaten Jembrana, Bali 82218","Jl. Indra Kusuma, Berangbang, Kec. Negara, Kabupaten Jembrana",BALI,82218.0,Indonesia,82236616771.0,,,-8.3117302,114.608731,https://maps.google.com/?cid=0x0:0xc77f48ec0e79d67e,
supermarket,Toko,Air Isi Ulang Tirta Ayu Jati,"Jl. Jempiring No.29, Baler Bale Agung, Kec. Negara, Kabupaten Jembrana, Bali 82212","Baler Bale Agung, Kec. Negara, Kabupaten Jembrana",BALI,82212.0,Indonesia,,,,-8.350987,114.6235208,https://maps.google.com/?cid=0x0:0xac3be86aa74f7b70,
supermarket,Toko Swalayan,Artasedana Negara,"Jl. Ngurah Rai No.95, Pendem, Kec. Negara, Kabupaten Jembrana, Bali 82218","Pendem, Kec. Negara, Kabupaten Jembrana",BALI,82218.0,Indonesia,87749995559.0,,,-8.3603732,114.6279088,https://maps.google.com/?cid=0x0:0x1d01de180f38e928,
supermarket,supermarket,Bali 82213,"Kabupaten Jembrana, Bali","Kabupaten Jembrana, Bali",BALI,,Indonesia,,,,-8.2534286,114.6549185,https://maps.google.com/?cid=0x0:0x1c00c5eb6016c280,
supermarket,Toko,Sudiarta Mart,"JJVC+552, Jl. Udayana, Banjar Tengah, Kec. Negara, Kabupaten Jembrana, Bali 82218","Jl. Udayana, Banjar Tengah, Kec. Negara, Kabupaten Jembrana",BALI,82218.0,Indonesia,8113988758.0,,,-8.3571136,114.6203846,https://maps.google.com/?cid=0x0:0x68fa3fcf4053a630,
supermarket,Toko Kelontong Asia,Toko Stars,"JJW5+C82, Kaliakah, Kec. Negara, Kabupaten Jembrana, Bali 82212","Kaliakah, Kec. Negara, Kabupaten Jembrana",BALI,82212.0,Indonesia,,,,-8.353998,114.6082646,https://maps.google.com/?cid=0x0:0x3f3c491031d4e5d,
supermarket,Toko Swalayan,sri sedana mart,"MJ39+JPR, Jl. Kenyeri, Baler Bale Agung, Kec. Negara, Kabupaten Jembrana, Bali 82218","Jl. Kenyeri, Baler Bale Agung, Kec. Negara, Kabupaten Jembrana",BALI,82218.0,Indonesia,3654501166.0,,,-8.3458757,114.6192653,https://maps.google.com/?cid=0x0:0x2fa7400b553278c1,
supermarket,Pusat Perbelanjaan,Clandys Grosir Negara,"Jl. Ngurah Rai No.138, Dauhwaru, Kec. Jembrana, Kabupaten Jembrana, Bali 82218","Dauhwaru, Kec. Jembrana, Kabupaten Jembrana",BALI,82218.0,Indonesia,87761299164.0,,,-8.3614866,114.6399114,https://maps.google.com/?cid=0x0:0x8e70cf0289264e1c,
supermarket,Minimarket,Toko Surya Makmur Udayana,"Jl. Udayana No.86, Baler Bale Agung, Kec. Negara, Kabupaten Jembrana, Bali 82218","Baler Bale Agung, Kec. Negara, Kabupaten Jembrana",BALI,82218.0,Indonesia,3654501919.0,,,-8.3546143,114.6126369,https://maps.google.com/?cid=0x0:0xecd9b8f6fdb0796c,
supermarket,Toko Swalayan,TOKO CAHYA,"Jl. Nakula No.26, Banjar Tengah, Kec. Negara, Kabupaten Jembrana, Bali 82213","Banjar Tengah, Kec. Negara, Kabupaten Jembrana",BALI,82213.0,Indonesia,87816180087.0,,,-8.3577788,114.6094312,https://maps.google.com/?cid=0x0:0xf40ceb15a3c6ea3,
supermarket,Toko Swalayan,Artasedana Negara,"Jl. Ngurah Rai No.95, Pendem, Kec. Negara, Kabupaten Jembrana, Bali 82218","Pendem, Kec. Negara, Kabupaten Jembrana",BALI,82218.0,Indonesia,87749995559.0,,,-8.3603732,114.6279088,https://maps.google.com/?cid=0x0:0x1d01de180f38e928,
supermarket,Toko Swalayan,Toko Wijaya,"Jl. Arjuna No.10, Baler Bale Agung, Kec. Negara, Kabupaten Jembrana, Bali 82218","Baler Bale Agung, Kec. Negara, Kabupaten Jembrana",BALI,82218.0,Indonesia,81999484728.0,,,-8.3579368,114.6183217,https://maps.google.com/?cid=0x0:0xee9ae95ce60cdf6,
supermarket,Toko Swalayan,Toko Sedana Dewi,"Simpang, Bali, Jl. Raya Negara-Gilimanuk No.3, Banyu Biru, Kec. Negara, Kabupaten Jembrana, Bali 82212","Bali, Jl. Raya Negara-Gilimanuk No.3, Banyu Biru, Kec. Negara, Kabupaten Jembrana",BALI,82212.0,Indonesia,87863215993.0,,,-8.3475128,114.5752344,https://maps.google.com/?cid=0x0:0x773040aca5d17c87,
supermarket,Minimarket,Alfamart Manggalelateng,"Jl. Mangga, Lelateng, Kec. Negara, Kabupaten Jembrana, Bali 82214","Lelateng, Kec. Negara, Kabupaten Jembrana",BALI,82214.0,Indonesia,1500959.0,,,-8.3650169,114.6195408,https://maps.google.com/?cid=0x0:0xea2680b8eae0d53e,
supermarket,Toko Alat Tulis,Toko Bagus Photocopy,"Bali, Jati, Jl. Nakula No.3, Baluk, Kec. Negara, Kabupaten Jembrana, Bali 82213","Jati, Jl. Nakula No.3, Baluk, Kec. Negara, Kabupaten Jembrana",BALI,82213.0,Indonesia,8123883015.0,,,-8.3575336,114.5764601,https://maps.google.com/?cid=0x0:0x7d80adfc0250a6e2,
supermarket,Toko Swalayan,Toko Nazaret,"Jl. Nusa Indah No.79 B, Baler Bale Agung, Kec. Negara, Kabupaten Jembrana, Bali 82218","Baler Bale Agung, Kec. Negara, Kabupaten Jembrana",BALI,82218.0,Indonesia,81936449589.0,,,-8.3425393,114.6201162,https://maps.google.com/?cid=0x0:0xb66177500e5b89a8,
supermarket,Toko Kelontong Asia,Toko Ibu Rini,"Gg. Buntu No.4, Banjar Tengah, Kec. Negara, Kabupaten Jembrana, Bali 82213","Banjar Tengah, Kec. Negara, Kabupaten Jembrana",BALI,82213.0,Indonesia,89664576562.0,,,-8.3615729,114.6169799,https://maps.google.com/?cid=0x0:0x3c97b176f46b1490,
supermarket,Toko,Toko Dea Cell,"JHRM+3FC, Jl. Arjuna, Baluk, Kec. Negara, Kabupaten Jembrana, Bali 82218","Jl. Arjuna, Baluk, Kec. Negara, Kabupaten Jembrana",BALI,82218.0,Indonesia,87863156979.0,,,-8.3598035,114.5836309,https://maps.google.com/?cid=0x0:0x362adefc17cef939,
supermarket,Toko Swalayan,Anugrah Beten Buluan,"Jl. Danau Ranau No.15, Lelateng, Kec. Negara, Kabupaten Jembrana, Bali 82218","Lelateng, Kec. Negara, Kabupaten Jembrana",BALI,82218.0,Indonesia,82147562992.0,,,-8.3606453,114.6162992,https://maps.google.com/?cid=0x0:0x96c2771bd2534f00,
supermarket,Minimarket,Toko Cetasa Mart,"Jl. Sriwijaya No.Desa, Sangkaragung, Kec. Negara, Kabupaten Jembrana, Bali 82218","Sangkaragung, Kec. Negara, Kabupaten Jembrana",BALI,82218.0,Indonesia,85337370210.0,,,-8.3703726,114.6493225,https://maps.google.com/?cid=0x0:0x30466fe782c66654,
supermarket,Toko Pakaian,Out school store negara,"Jl. Raya Denpasar - Gilimanuk No.84, Baler Bale Agung, Kec. Negara, Kabupaten Jembrana, Bali 82213","Baler Bale Agung, Kec. Negara, Kabupaten Jembrana",BALI,82213.0,Indonesia,85792795732.0,,,-8.3541661,114.6102065,https://maps.google.com/?cid=0x0:0x626cf301566ea2fd,
supermarket,Toko,Toko Dennita Cell,"JJX9+VF6, Jl. Teratai, Baler Bale Agung, Kec. Negara, Kabupaten Jembrana, Bali 82218","Jl. Teratai, Baler Bale Agung, Kec. Negara, Kabupaten Jembrana",BALI,82218.0,Indonesia,87860490747.0,,,-8.3503493,114.6186405,https://maps.google.com/?cid=0x0:0xd5be90b519937e2b,
supermarket,Minimarket,Alfamart Udayana Negara Q641,"Jl. Udayana No.99, Banjar Tengah, Kec. Negara, Kabupaten Jembrana, Bali 82213","Banjar Tengah, Kec. Negara, Kabupaten Jembrana",BALI,82213.0,Indonesia,,,,-8.3545517,114.6100472,https://maps.google.com/?cid=0x0:0xe7de4633c9787b12,
supermarket,Toko Swalayan,Toko Dhera,"JJR5+6R3, Jl. Jabon, Lelateng, Kec. Negara, Kabupaten Jembrana, Bali 82218","Jl. Jabon, Lelateng, Kec. Negara, Kabupaten Jembrana",BALI,82218.0,Indonesia,81337794927.0,,,-8.3594777,114.6095438,https://maps.google.com/?cid=0x0:0xb23ccbf7b1044c4,
supermarket,Toko Swalayan,Toko Anugrah,"Jl. Kunti, Banjar Tengah, Kec. Negara, Kabupaten Jembrana, Bali 82218","Banjar Tengah, Kec. Negara, Kabupaten Jembrana",BALI,82218.0,Indonesia,87863063850.0,,,-8.3574805,114.6094597,https://maps.google.com/?cid=0x0:0x6d5c5a0fb71d91bd,
supermarket,Toko Swalayan,Toko Gek Cantik,"JJR9+MW8, Banjar Tengah, Kec. Negara, Kabupaten Jembrana, Bali 82218","Banjar Tengah, Kec. Negara, Kabupaten Jembrana",BALI,82218.0,Indonesia,81936588415.0,,,-8.358349,114.6198408,https://maps.google.com/?cid=0x0:0x8554e94f7f609c7,
supermarket,Pusat Perbelanjaan,Selatan pasar banjar tengah,"JJV7+2RX, Gg. 1, Banjar Tengah, Kec. Negara, Kabupaten Jembrana, Bali 82218","Gg. 1, Banjar Tengah, Kec. Negara, Kabupaten Jembrana",BALI,82218.0,Indonesia,,,,-8.3573865,114.6146164,https://maps.google.com/?cid=0x0:0x3ebdeec3a30e7996,
supermarket,supermarket,Bali 82214,"Kec. Negara, Kabupaten Jembrana, Bali","Kabupaten Jembrana, Bali",BALI,,Indonesia,,,,-8.3762569,114.5925663,https://maps.google.com/?cid=0x0:0x1c00c5eb6016c290,
supermarket,Toko,Sudiarta Mart,"JJVC+552, Jl. Udayana, Banjar Tengah, Kec. Negara, Kabupaten Jembrana, Bali 82218","Jl. Udayana, Banjar Tengah, Kec. Negara, Kabupaten Jembrana",BALI,82218.0,Indonesia,8113988758.0,,,-8.3571136,114.6203846,https://maps.google.com/?cid=0x0:0x68fa3fcf4053a630,
supermarket,Toko,Toko Rahayu Swalayan,"Jl. Ngurah Rai No.39, Loloan Tim., Kec. Jembrana, Kabupaten Jembrana, Bali 82218","Loloan Tim., Kec. Jembrana, Kabupaten Jembrana",BALI,82218.0,Indonesia,811390090.0,,,-8.3607286,114.6265016,https://maps.google.com/?cid=0x0:0x7c15968b08088ff3,
supermarket,Toko,Toko Munduk,"JH5Q+G6R, Jl. Raya Negara-Pengambengan, Pengambengan, Kec. Negara, Kabupaten Jembrana, Bali 82218","Jl. Raya Negara-Pengambengan, Pengambengan, Kec. Negara, Kabupaten Jembrana",BALI,82218.0,Indonesia,81237175188.0,,,-8.39115,114.5880233,https://maps.google.com/?cid=0x0:0xd81bafa5f0b03806,
supermarket,Toko Swalayan,Toko Dhera,"JJR5+6R3, Jl. Jabon, Lelateng, Kec. Negara, Kabupaten Jembrana, Bali 82218","Jl. Jabon, Lelateng, Kec. Negara, Kabupaten Jembrana",BALI,82218.0,Indonesia,81337794927.0,,,-8.3594777,114.6095438,https://maps.google.com/?cid=0x0:0xb23ccbf7b1044c4,
supermarket,Toko Swalayan,Artasedana Negara,"Jl. Ngurah Rai No.95, Pendem, Kec. Negara, Kabupaten Jembrana, Bali 82218","Pendem, Kec. Negara, Kabupaten Jembrana",BALI,82218.0,Indonesia,87749995559.0,,,-8.3603732,114.6279088,https://maps.google.com/?cid=0x0:0x1d01de180f38e928,
supermarket,Minimarket,Toko Surya Makmur Udayana,"Jl. Udayana No.86, Baler Bale Agung, Kec. Negara, Kabupaten Jembrana, Bali 82218","Baler Bale Agung, Kec. Negara, Kabupaten Jembrana",BALI,82218.0,Indonesia,3654501919.0,,,-8.3546143,114.6126369,https://maps.google.com/?cid=0x0:0xecd9b8f6fdb0796c,
supermarket,Toko Swalayan,Toko Anugrah,"Jl. Kunti, Banjar Tengah, Kec. Negara, Kabupaten Jembrana, Bali 82218","Banjar Tengah, Kec. Negara, Kabupaten Jembrana",BALI,82218.0,Indonesia,87863063850.0,,,-8.3574805,114.6094597,https://maps.google.com/?cid=0x0:0x6d5c5a0fb71d91bd,
supermarket,Toko Swalayan,TOKO CAHYA,"Jl. Nakula No.26, Banjar Tengah, Kec. Negara, Kabupaten Jembrana, Bali 82213","Banjar Tengah, Kec. Negara, Kabupaten Jembrana",BALI,82213.0,Indonesia,87816180087.0,,,-8.3577788,114.6094312,https://maps.google.com/?cid=0x0:0xf40ceb15a3c6ea3,
supermarket,Minimarket,Toko yani,"Awen mertasari, Pengambengan, Kec. Negara, Kabupaten Jembrana, Bali 82214","Pengambengan, Kec. Negara, Kabupaten Jembrana",BALI,82214.0,Indonesia,83891650779.0,,,-8.3859661,114.6061242,https://maps.google.com/?cid=0x0:0xb138f70c47d017fe,
supermarket,Toko,Toko Ibu Suraya,"JHHP+RFP, Jl. Nakula, Tegal Badeng Tim., Kec. Negara, Kabupaten Jembrana, Bali 82218","Jl. Nakula, Tegal Badeng Tim., Kec. Negara, Kabupaten Jembrana",BALI,82218.0,Indonesia,81239857005.0,,,-8.3704209,114.5862137,https://maps.google.com/?cid=0x0:0xdb11e9797774996a,
supermarket,Toko bahan makanan,Warung Jokowi,"JH9X+735, Jl. Raya Negara-Pengambengan, Tegal Badeng Tim., Kec. Negara, Kabupaten Jembrana, Bali 82214","Jl. Raya Negara-Pengambengan, Tegal Badeng Tim., Kec. Negara, Kabupaten Jembrana",BALI,82214.0,Indonesia,87860116488.0,,,-8.3818646,114.5977298,https://maps.google.com/?cid=0x0:0x74abb296f3a26f5c,
supermarket,Toko Swalayan,Toko Wijaya,"Jl. Arjuna No.10, Baler Bale Agung, Kec. Negara, Kabupaten Jembrana, Bali 82218","Baler Bale Agung, Kec. Negara, Kabupaten Jembrana",BALI,82218.0,Indonesia,81999484728.0,,,-8.3579368,114.6183217,https://maps.google.com/?cid=0x0:0xee9ae95ce60cdf6,
supermarket,Toko Swalayan,Anugrah Beten Buluan,"Jl. Danau Ranau No.15, Lelateng, Kec. Negara, Kabupaten Jembrana, Bali 82218","Lelateng, Kec. Negara, Kabupaten Jembrana",BALI,82218.0,Indonesia,82147562992.0,,,-8.3606453,114.6162992,https://maps.google.com/?cid=0x0:0x96c2771bd2534f00,
supermarket,Toko Swalayan,Toko Haylia,"JJR7+7G9 Hotel Bali Kuwi, Jl. Danau Sentani, Lelateng, Kec. Negara, Kabupaten Jembrana, Bali 82218","Jl. Danau Sentani, Lelateng, Kec. Negara, Kabupaten Jembrana",BALI,82218.0,Indonesia,81237736766.0,,,-8.3593495,114.6138608,https://maps.google.com/?cid=0x0:0xc2a34b48bf508fe9,
supermarket,Toko Perlengkapan Rumah,Toko Icang,"JHFX+9H9, Jl. Raya Negara-Pengambengan, Tegal Badeng Tim., Kec. Negara, Kabupaten Jembrana, Bali 82214","Jl. Raya Negara-Pengambengan, Tegal Badeng Tim., Kec. Negara, Kabupaten Jembrana",BALI,82214.0,Indonesia,81338614953.0,,,-8.3765964,114.598994,https://maps.google.com/?cid=0x0:0x31bbb11253e49724,
supermarket,Toko Kelontong Asia,Wr.Bu Husniah,"JHHP+RFP, Jl. Nakula, Tegal Badeng Tim., Kec. Negara, Kabupaten Jembrana, Bali 82214","Jl. Nakula, Tegal Badeng Tim., Kec. Negara, Kabupaten Jembrana",BALI,82214.0,Indonesia,87780163238.0,,,-8.3704209,114.5862137,https://maps.google.com/?cid=0x0:0xbc6512287635cb00,
supermarket,Toko bahan makanan,Surya Madinah Makmur,"JJH2+32J, Jl. Raya Negara-Pengambengan, Tegal Badeng Tim., Kec. Negara, Kabupaten Jembrana, Bali 82251","Jl. Raya Negara-Pengambengan, Tegal Badeng Tim., Kec. Negara, Kabupaten Jembrana",BALI,82251.0,Indonesia,,,,-8.3722879,114.6000249,https://maps.google.com/?cid=0x0:0xeb943d032d8240e2,
supermarket,Toko Kelontong Asia,Tirta Banama,"Jl. Cempaka Kel. Tegal Badeng Timur Negara Bali, Lelateng, Kec. Negara, Negara, Bali 82214","Lelateng, Kec. Negara, Negara",BALI,82214.0,Indonesia,85252818097.0,,,-8.3777118,114.6016599,https://maps.google.com/?cid=0x0:0xf8c6d10b2e9d7d11,
supermarket,Toko Swalayan,Bunda Cell,"Gg. III No.6, Lelateng, Kec. Negara, Kabupaten Jembrana, Bali 82218","Lelateng, Kec. Negara, Kabupaten Jembrana",BALI,82218.0,Indonesia,83114888715.0,,,-8.3630663,114.6165709,https://maps.google.com/?cid=0x0:0x53e96877eb9d525c,
supermarket,Toko Swalayan,Sul'alim,"JH3P+9FX, Pengambengan, Kec. Negara, Kabupaten Jembrana, Bali","Kabupaten Jembrana, Bali",BALI,,Indonesia,,,,-8.3965065,114.586219,https://maps.google.com/?cid=0x0:0x5307efa75063f625,
supermarket,Toko Swalayan,Toko D'tol ᬢᭀᬓᭀᬤ᭄ᬢᭀᬮ᭄᭟,"Baluk, Kec. Negara, Kabupaten Jembrana, Bali","Kabupaten Jembrana, Bali",BALI,,Indonesia,81936356259.0,,,-8.3523125,114.5479375,https://maps.google.com/?cid=0x0:0x7d6d34d305d678b1,
supermarket,Toko Swalayan,Tk Oka Jaya,"JJP8+9Q2, Lelateng, Kec. Negara, Kabupaten Jembrana, Bali 82218","Lelateng, Kec. Negara, Kabupaten Jembrana",BALI,82218.0,Indonesia,8175233746.0,,,-8.3641141,114.6169047,https://maps.google.com/?cid=0x0:0x632217787f0c2f94,
supermarket,Toko Kelontong Asia,Warung Rafa,"JJQ8+4CF, Jl. Danau Ranau, Lelateng, Kec. Negara, Kabupaten Jembrana, Bali 82214","Jl. Danau Ranau, Lelateng, Kec. Negara, Kabupaten Jembrana",BALI,82214.0,Indonesia,81999269099.0,,,-8.3621998,114.6160379,https://maps.google.com/?cid=0x0:0xdb63c0ae39b9684d,
supermarket,Toko Swalayan,Toko Sedana Dewi,"Simpang, Bali, Jl. Raya Negara-Gilimanuk No.3, Banyu Biru, Kec. Negara, Kabupaten Jembrana, Bali 82212","Bali, Jl. Raya Negara-Gilimanuk No.3, Banyu Biru, Kec. Negara, Kabupaten Jembrana",BALI,82212.0,Indonesia,87863215993.0,,,-8.3475128,114.5752344,https://maps.google.com/?cid=0x0:0x773040aca5d17c87,
supermarket,Toko bahan makanan,Agen46 Toko Kita,"Jl. Sudirman No.11a, Pendem, Kec. Negara, Kabupaten Jembrana, Bali 82218","Pendem, Kec. Negara, Kabupaten Jembrana",BALI,82218.0,Indonesia,,,,-8.3572309,114.6270063,https://maps.google.com/?cid=0x0:0x219362ecac3dfd1b,
supermarket,Toko,WARUNG BUK ANIK,"JJF2+5HF, Lelateng, Kec. Negara, Kabupaten Jembrana, Bali 82214","Lelateng, Kec. Negara, Kabupaten Jembrana",BALI,82214.0,Indonesia,,,,-8.3770527,114.6014142,https://maps.google.com/?cid=0x0:0x1619a2e833da23a0,
supermarket,Toko bahan makanan,Sudiarta Mart,"Jl. Gajah Mada No.desa, Dangin Tukadaya, Kec. Negara, Kabupaten Jembrana, Bali 82218","Dangin Tukadaya, Kec. Negara, Kabupaten Jembrana",BALI,82218.0,Indonesia,811398878.0,,,-8.3617661,114.6464493,https://maps.google.com/?cid=0x0:0x7ce4b7d221a3047c,
supermarket,Supermarket Diskon,SEHAT FAMILY,"jl.tpi minakarya No.116, Pengambengan, Kec. Negara, Kabupaten Jembrana, Bali","Kabupaten Jembrana, Bali",BALI,,Indonesia,85792335363.0,,,-8.3861917,114.5774651,https://maps.google.com/?cid=0x0:0x42e2647373d37561,
supermarket,supermarket,Bali 82215,"Tegal Badeng Tim., Kec. Negara, Kabupaten Jembrana, Bali","Kabupaten Jembrana, Bali",BALI,,Indonesia,,,,-8.371582,114.6059283,https://maps.google.com/?cid=0x0:0x1c00c5eb6016c2a0,
supermarket,Toko,Sudiarta Mart,"JJVC+552, Jl. Udayana, Banjar Tengah, Kec. Negara, Kabupaten Jembrana, Bali 82218","Jl. Udayana, Banjar Tengah, Kec. Negara, Kabupaten Jembrana",BALI,82218.0,Indonesia,8113988758.0,,,-8.3571136,114.6203846,https://maps.google.com/?cid=0x0:0x68fa3fcf4053a630,
supermarket,Toko,Toko Rahayu Swalayan,"Jl. Ngurah Rai No.39, Loloan Tim., Kec. Jembrana, Kabupaten Jembrana, Bali 82218","Loloan Tim., Kec. Jembrana, Kabupaten Jembrana",BALI,82218.0,Indonesia,811390090.0,,,-8.3607286,114.6265016,https://maps.google.com/?cid=0x0:0x7c15968b08088ff3,
supermarket,Toko Daging Premium,Frozen Foods,"Jl. Danau Beratan No.67, Lelateng, Kec. Negara, Kabupaten Jembrana, Bali 82218","Lelateng, Kec. Negara, Kabupaten Jembrana",BALI,82218.0,Indonesia,,,,-8.3637487,114.6141379,https://maps.google.com/?cid=0x0:0xc2b3813aa59a86b8,
supermarket,Toko Swalayan,Toko D'tol ᬢᭀᬓᭀᬤ᭄ᬢᭀᬮ᭄᭟,"Baluk, Kec. Negara, Kabupaten Jembrana, Bali","Kabupaten Jembrana, Bali",BALI,,Indonesia,81936356259.0,,,-8.3523125,114.5479375,https://maps.google.com/?cid=0x0:0x7d6d34d305d678b1,
supermarket,Toko Swalayan,Bunda Cell,"Gg. III No.6, Lelateng, Kec. Negara, Kabupaten Jembrana, Bali 82218","Lelateng, Kec. Negara, Kabupaten Jembrana",BALI,82218.0,Indonesia,83114888715.0,,,-8.3630663,114.6165709,https://maps.google.com/?cid=0x0:0x53e96877eb9d525c,
supermarket,Toko Swalayan,Toko Haylia,"JJR7+7G9 Hotel Bali Kuwi, Jl. Danau Sentani, Lelateng, Kec. Negara, Kabupaten Jembrana, Bali 82218","Jl. Danau Sentani, Lelateng, Kec. Negara, Kabupaten Jembrana",BALI,82218.0,Indonesia,81237736766.0,,,-8.3593495,114.6138608,https://maps.google.com/?cid=0x0:0xc2a34b48bf508fe9,
supermarket,Toko Kelontong Asia,Wr. Putu Angriani,"Jl. Danau Poso No.28, Lelateng, Kec. Negara, Kabupaten Jembrana, Bali 82218","Lelateng, Kec. Negara, Kabupaten Jembrana",BALI,82218.0,Indonesia,87861136805.0,,,-8.3676526,114.6169479,https://maps.google.com/?cid=0x0:0xd71c1f0a0c20bff4,
supermarket,Toko Perlengkapan Rumah,Toko Giri Putri Plastik Grosir,"Jl. Danau Beratan, Lelateng, Kec. Negara, Kabupaten Jembrana, Bali 82218","Lelateng, Kec. Negara, Kabupaten Jembrana",BALI,82218.0,Indonesia,81337199276.0,,,-8.3643017,114.6159387,https://maps.google.com/?cid=0x0:0xe988c59e4e5213f1,
supermarket,,Almahira Milk Shop  Pampers ᬳᬮ᭄ᬫᬳᬶᬭᬫᬶᬮ᭄ᬓ᭄ᬲ᭄ᬳᭀᬧ᭄ᬧᬫ᭄ᬧᭂᬃᬲ᭄᭟,"Jl.Mangga No 42, Lingkungan Terusan Jl. Danau Batur No.16, Loloan Bar., Kec. Negara, Kabupaten Jembrana, Bali 82215","Lingkungan Terusan Jl. Danau Batur No.16, Loloan Bar., Kec. Negara, Kabupaten Jembrana",BALI,82215.0,Indonesia,85338130099.0,,,-8.3704104,114.6183664,https://maps.google.com/?cid=0x0:0xe4371f4542e9df0c,
supermarket,Toko Swalayan,Tk Oka Jaya,"JJP8+9Q2, Lelateng, Kec. Negara, Kabupaten Jembrana, Bali 82218","Lelateng, Kec. Negara, Kabupaten Jembrana",BALI,82218.0,Indonesia,8175233746.0,,,-8.3641141,114.6169047,https://maps.google.com/?cid=0x0:0x632217787f0c2f94,
supermarket,Toko,Kios Ayu,"JHHX+3VF, Tegal Badeng Tim., Kec. Negara, Kabupaten Jembrana, Bali 82215","Tegal Badeng Tim., Kec. Negara, Kabupaten Jembrana",BALI,82215.0,Indonesia,81999883391.0,,,-8.3723087,114.5996865,https://maps.google.com/?cid=0x0:0x5e105e1845807d87,
supermarket,Minimarket,Toko Musadik,"Jl. Danau Batur, Loloan Bar., Kec. Negara, Kabupaten Jembrana, Bali 82215","Loloan Bar., Kec. Negara, Kabupaten Jembrana",BALI,82215.0,Indonesia,89518611805.0,,,-8.3697568,114.6185562,https://maps.google.com/?cid=0x0:0xd2fc353037dfd776,
supermarket,Toko Buah Kering,Anahossy,"JJJ5+3X4, Jl. Danau Batur, Lelateng, Kec. Negara, Kabupaten Jembrana, Bali 82215","Jl. Danau Batur, Lelateng, Kec. Negara, Kabupaten Jembrana",BALI,82215.0,Indonesia,81259115448.0,,,-8.3698726,114.6099537,https://maps.google.com/?cid=0x0:0x641ab1ac446167da,
supermarket,Toko bahan makanan,Agen46 Toko Kita,"Jl. Sudirman No.11a, Pendem, Kec. Negara, Kabupaten Jembrana, Bali 82218","Pendem, Kec. Negara, Kabupaten Jembrana",BALI,82218.0,Indonesia,,,,-8.3572309,114.6270063,https://maps.google.com/?cid=0x0:0x219362ecac3dfd1b,
supermarket,Toko,Toko Surya Jaya,"Jl. Raya Negara-Pengambengan, Tegal Badeng Tim., Kec. Negara, Kabupaten Jembrana, Bali 82215","Tegal Badeng Tim., Kec. Negara, Kabupaten Jembrana",BALI,82215.0,Indonesia,87776760088.0,,,-8.3712936,114.6005706,https://maps.google.com/?cid=0x0:0x80db947f42ad2b64,
supermarket,Toko,Toko Mulyono,"JHHX+4WP, Jl. Raya Negara-Pengambengan, Tegal Badeng Tim., Kec. Negara, Kabupaten Jembrana, Bali 82215","Jl. Raya Negara-Pengambengan, Tegal Badeng Tim., Kec. Negara, Kabupaten Jembrana",BALI,82215.0,Indonesia,,,,-8.3721707,114.5998337,https://maps.google.com/?cid=0x0:0xbb54a63565863580,
supermarket,Toko Kelontong Asia,Wr.Ibu Sutarini,"JJJ9+R5P, Jl. Danau Poso, Lelateng, Kec. Negara, Kabupaten Jembrana, Bali 82218","Jl. Danau Poso, Lelateng, Kec. Negara, Kabupaten Jembrana",BALI,82218.0,Indonesia,81236187166.0,,,-8.3679065,114.6179572,https://maps.google.com/?cid=0x0:0x90ad3d031c93bf9a,
supermarket,Toko Perlengkapan Rumah,Toko Icang,"JHFX+9H9, Jl. Raya Negara-Pengambengan, Tegal Badeng Tim., Kec. Negara, Kabupaten Jembrana, Bali 82214","Jl. Raya Negara-Pengambengan, Tegal Badeng Tim., Kec. Negara, Kabupaten Jembrana",BALI,82214.0,Indonesia,81338614953.0,,,-8.3765964,114.598994,https://maps.google.com/?cid=0x0:0x31bbb11253e49724,
supermarket,Toko Roti,PRIMA99 H. HARTOKO,"JJJ4+4Q4, Tegal Badeng Tim., Kec. Negara, Kabupaten Jembrana, Bali 82215","Tegal Badeng Tim., Kec. Negara, Kabupaten Jembrana",BALI,82215.0,Indonesia,,,,-8.369904,114.606433,https://maps.google.com/?cid=0x0:0xe5e52a9621806bc5,
supermarket,Toko Makanan,TOKO YULI,"Jl. Danau Batur No.7, Loloan Bar, Kec. Negara, Kabupaten Jembrana, Bali 82218","Loloan Bar, Kec. Negara, Kabupaten Jembrana",BALI,82218.0,Indonesia,,,,-8.3699233,114.6033413,https://maps.google.com/?cid=0x0:0x951e66545e5b75b8,
supermarket,Toko bahan makanan,Surya Madinah Makmur,"JJH2+32J, Jl. Raya Negara-Pengambengan, Tegal Badeng Tim., Kec. Negara, Kabupaten Jembrana, Bali 82251","Jl. Raya Negara-Pengambengan, Tegal Badeng Tim., Kec. Negara, Kabupaten Jembrana",BALI,82251.0,Indonesia,,,,-8.3722879,114.6000249,https://maps.google.com/?cid=0x0:0xeb943d032d8240e2,
supermarket,Minimarket,Indomaret madina,"JJH2+53F, Jl. Raya Negara-Pengambengan, Tegal Badeng Tim., Kec. Negara, Kabupaten Jembrana, Bali 82215","Jl. Raya Negara-Pengambengan, Tegal Badeng Tim., Kec. Negara, Kabupaten Jembrana",BALI,82215.0,Indonesia,,,,-8.3720897,114.6001627,https://maps.google.com/?cid=0x0:0xce639f149d115c66,
supermarket,Toko bahan makanan,CYA Mart ᬘ᭄ᬬ᭄ᬅᬫᬃᬢ᭄᭟,"JHQC+JR6, Jl. Raya Pantai Cupel, Baluk, Kec. Negara, Kabupaten Jembrana, Bali 82218","Jl. Raya Pantai Cupel, Baluk, Kec. Negara, Kabupaten Jembrana",BALI,82218.0,Indonesia,,,,-8.3610088,114.5720103,https://maps.google.com/?cid=0x0:0x4d4b2d37aca76ebc,
supermarket,Toko,warung Rava,"MH23+RR5, Banyu Biru, Kec. Negara, Kabupaten Jembrana, Bali","Kabupaten Jembrana, Bali",BALI,,Indonesia,,,,-8.347996,114.5546201,https://maps.google.com/?cid=0x0:0x3a366571856dcfbc,
supermarket,Minimarket,Toko Gaul Pak Loh,"JJH2+225, Tim.,, Tegal Badeng Tim., Kec. Negara, Kabupaten Jembrana, Bali 82215","Tim.,, Tegal Badeng Tim., Kec. Negara, Kabupaten Jembrana",BALI,82215.0,Indonesia,85237331313.0,,,-8.3724752,114.6001194,https://maps.google.com/?cid=0x0:0x96a298b7bcf2b3b,
supermarket,Toko,Toko Dennita Cell,"JJX9+VF6, Jl. Teratai, Baler Bale Agung, Kec. Negara, Kabupaten Jembrana, Bali 82218","Jl. Teratai, Baler Bale Agung, Kec. Negara, Kabupaten Jembrana",BALI,82218.0,Indonesia,87860490747.0,,,-8.3503493,114.6186405,https://maps.google.com/?cid=0x0:0xd5be90b519937e2b,
supermarket,Toko Pakaian,Amel Project,"JJH2+WHC, Jl. Danau Batur, Tegal Badeng Tim., Kec. Negara, Kabupaten Jembrana, Bali 82215","Jl. Danau Batur, Tegal Badeng Tim., Kec. Negara, Kabupaten Jembrana",BALI,82215.0,Indonesia,,,,-8.3701794,114.6014054,https://maps.google.com/?cid=0x0:0xfb502f09f391dd73,
supermarket,Toko Perlengkapan Rumah,Toko Triple S,"JJJ3+28M, Jl. Danau Batur, Tegal Badeng Tim., Kec. Negara, Kabupaten Jembrana, Bali 82215","Jl. Danau Batur, Tegal Badeng Tim., Kec. Negara, Kabupaten Jembrana",BALI,82215.0,Indonesia,,,,-8.3697988,114.6032152,https://maps.google.com/?cid=0x0:0x2a6933742b1ca16a,
supermarket,supermarket,Bali 82218,"Kec. Negara, Kabupaten Jembrana, Bali","Kabupaten Jembrana, Bali",BALI,,Indonesia,,,,-8.3357931,114.6311665,https://maps.google.com/?cid=0x0:0x1c00c5eb6016c2d0,
supermarket,Toko,Toko Rahayu Swalayan,"Jl. Ngurah Rai No.39, Loloan Tim., Kec. Jembrana, Kabupaten Jembrana, Bali 82218","Loloan Tim., Kec. Jembrana, Kabupaten Jembrana",BALI,82218.0,Indonesia,811390090.0,,,-8.3607286,114.6265016,https://maps.google.com/?cid=0x0:0x7c15968b08088ff3,
supermarket,Toko Swalayan,sri sedana mart,"MJ39+JPR, Jl. Kenyeri, Baler Bale Agung, Kec. Negara, Kabupaten Jembrana, Bali 82218","Jl. Kenyeri, Baler Bale Agung, Kec. Negara, Kabupaten Jembrana",BALI,82218.0,Indonesia,3654501166.0,,,-8.3458757,114.6192653,https://maps.google.com/?cid=0x0:0x2fa7400b553278c1,
supermarket,Pusat Perbelanjaan,Clandys Grosir Negara,"Jl. Ngurah Rai No.138, Dauhwaru, Kec. Jembrana, Kabupaten Jembrana, Bali 82218","Dauhwaru, Kec. Jembrana, Kabupaten Jembrana",BALI,82218.0,Indonesia,87761299164.0,,,-8.3614866,114.6399114,https://maps.google.com/?cid=0x0:0x8e70cf0289264e1c,
supermarket,Pasar,Pasar Senggol Negara,"JJQG+H6W, Dauhwaru, Kec. Negara, Kabupaten Jembrana, Bali 82218","Dauhwaru, Kec. Negara, Kabupaten Jembrana",BALI,82218.0,Indonesia,,,,-8.3610227,114.6255641,https://maps.google.com/?cid=0x0:0xecb417586ec31679,
supermarket,Minimarket,Satria Mart Negara Indomaret,"Jl. Jenderal Sudirman, Pendem, Kec. Jembrana, Kabupaten Jembrana, Bali 82218","Pendem, Kec. Jembrana, Kabupaten Jembrana",BALI,82218.0,Indonesia,,,,-8.3575623,114.6273388,https://maps.google.com/?cid=0x0:0x7e6fe61acb873dd6,
supermarket,Toko Swalayan,Artasedana Negara,"Jl. Ngurah Rai No.95, Pendem, Kec. Negara, Kabupaten Jembrana, Bali 82218","Pendem, Kec. Negara, Kabupaten Jembrana",BALI,82218.0,Indonesia,87749995559.0,,,-8.3603732,114.6279088,https://maps.google.com/?cid=0x0:0x1d01de180f38e928,
supermarket,Minimarket,Central Mini Market,"MJ2C+J4R, Jl. Plawa, Baler Bale Agung, Kec. Negara, Kabupaten Jembrana, Bali 82218","Jl. Plawa, Baler Bale Agung, Kec. Negara, Kabupaten Jembrana",BALI,82218.0,Indonesia,87861203008.0,,,-8.3483756,114.6202786,https://maps.google.com/?cid=0x0:0xf133b038847e8d48,
supermarket,Toko Swalayan,Wr Komang Agus,"Unnamed Road, 82218, Kaliakah, Kec. Negara, Kabupaten Jembrana, Bali 82218","82218, Kaliakah, Kec. Negara, Kabupaten Jembrana",BALI,82218.0,Indonesia,87760118569.0,,,-8.3214979,114.5952581,https://maps.google.com/?cid=0x0:0x573f82d841a00205,
supermarket,Toko Perlengkapan Rumah,Toko Bangunan Kawi Jaya,"Jl. Pahlawan, Pendem, Kec. Negara, Kabupaten Jembrana, Bali 82218","Pendem, Kec. Negara, Kabupaten Jembrana",BALI,82218.0,Indonesia,36541288.0,,,-8.3580215,114.6256185,https://maps.google.com/?cid=0x0:0x9bbe88362e356a5e,
supermarket,Toko Swalayan,Toko D'tol ᬢᭀᬓᭀᬤ᭄ᬢᭀᬮ᭄᭟,"Baluk, Kec. Negara, Kabupaten Jembrana, Bali","Kabupaten Jembrana, Bali",BALI,,Indonesia,81936356259.0,,,-8.3523125,114.5479375,https://maps.google.com/?cid=0x0:0x7d6d34d305d678b1,
supermarket,Toko Kain Linen,Subur Fashion Center,"Jl. Ngurah Rai No.40, Loloan Tim., Kec. Jembrana, Kabupaten Jembrana, Bali 82218","Loloan Tim., Kec. Jembrana, Kabupaten Jembrana",BALI,82218.0,Indonesia,8113807789.0,,,-8.3608627,114.6281715,https://maps.google.com/?cid=0x0:0xbf964b9327da834e,
supermarket,Toko Swalayan,Toko Nazaret,"Jl. Nusa Indah No.79 B, Baler Bale Agung, Kec. Negara, Kabupaten Jembrana, Bali 82218","Baler Bale Agung, Kec. Negara, Kabupaten Jembrana",BALI,82218.0,Indonesia,81936449589.0,,,-8.3425393,114.6201162,https://maps.google.com/?cid=0x0:0xb66177500e5b89a8,
supermarket,Toko Swalayan,Toko Dhera,"JJR5+6R3, Jl. Jabon, Lelateng, Kec. Negara, Kabupaten Jembrana, Bali 82218","Jl. Jabon, Lelateng, Kec. Negara, Kabupaten Jembrana",BALI,82218.0,Indonesia,81337794927.0,,,-8.3594777,114.6095438,https://maps.google.com/?cid=0x0:0xb23ccbf7b1044c4,
supermarket,Restoran,Rosari,"Jl. Gatot Subroto No.3, Banjar Tengah, Kec. Negara, Kabupaten Jembrana, Bali 82218","Banjar Tengah, Kec. Negara, Kabupaten Jembrana",BALI,82218.0,Indonesia,36541464.0,,,-8.3602658,114.6225417,https://maps.google.com/?cid=0x0:0xe8cafafa8865380d,
supermarket,Toko Swalayan,Toko Wijaya,"Jl. Arjuna No.10, Baler Bale Agung, Kec. Negara, Kabupaten Jembrana, Bali 82218","Baler Bale Agung, Kec. Negara, Kabupaten Jembrana",BALI,82218.0,Indonesia,81999484728.0,,,-8.3579368,114.6183217,https://maps.google.com/?cid=0x0:0xee9ae95ce60cdf6,
supermarket,Toko Swalayan,Toko Delapan,"Jl. Danau Tondano Gg. II No.8, Lelateng, Kec. Negara, Kabupaten Jembrana, Bali 82218","Lelateng, Kec. Negara, Kabupaten Jembrana",BALI,82218.0,Indonesia,8970551048.0,,,-8.3608174,114.619391,https://maps.google.com/?cid=0x0:0x69e4b4546a4fd355,
supermarket,Toko bahan makanan,Agen46 Toko Kita,"Jl. Sudirman No.11a, Pendem, Kec. Negara, Kabupaten Jembrana, Bali 82218","Pendem, Kec. Negara, Kabupaten Jembrana",BALI,82218.0,Indonesia,,,,-8.3572309,114.6270063,https://maps.google.com/?cid=0x0:0x219362ecac3dfd1b,
supermarket,Minimarket,Toko Merta Ayu,"Jl. WR Supratman Satria No.8A, Pendem, Kec. Negara, Kabupaten Jembrana, Bali 82211","Pendem, Kec. Negara, Kabupaten Jembrana",BALI,82211.0,Indonesia,8174786805.0,,,-8.3592422,114.6296382,https://maps.google.com/?cid=0x0:0xe2b7da930947cdd8,
supermarket,Toko Swalayan,Toko Gek Cantik,"JJR9+MW8, Banjar Tengah, Kec. Negara, Kabupaten Jembrana, Bali 82218","Banjar Tengah, Kec. Negara, Kabupaten Jembrana",BALI,82218.0,Indonesia,81936588415.0,,,-8.358349,114.6198408,https://maps.google.com/?cid=0x0:0x8554e94f7f609c7,
supermarket,Minimarket,Indomaret Fresh Negara 2,"Jl. Ngurah Rai No.159, Dauhwaru, Kec. Jembrana, Kabupaten Jembrana, Bali 82218","Dauhwaru, Kec. Jembrana, Kabupaten Jembrana",BALI,82218.0,Indonesia,36540418.0,,,-8.3610851,114.6369867,https://maps.google.com/?cid=0x0:0x38a77eafc78a2493,
supermarket,Minimarket,Toko Surya Makmur Udayana,"Jl. Udayana No.86, Baler Bale Agung, Kec. Negara, Kabupaten Jembrana, Bali 82218","Baler Bale Agung, Kec. Negara, Kabupaten Jembrana",BALI,82218.0,Indonesia,3654501919.0,,,-8.3546143,114.6126369,https://maps.google.com/?cid=0x0:0xecd9b8f6fdb0796c,
supermarket,Toko Aksesori Pakaian,Toko AS,"Banjar Tengah, Kec. Negara, Kabupaten Jembrana, Bali 82218","Kec. Negara, Kabupaten Jembrana",BALI,82218.0,Indonesia,,,,-8.3576467,114.6144263,https://maps.google.com/?cid=0x0:0x1ef79f510b3d05c0,
supermarket,Minimarket,Toko Cetasa Mart,"Jl. Sriwijaya No.Desa, Sangkaragung, Kec. Negara, Kabupaten Jembrana, Bali 82218","Sangkaragung, Kec. Negara, Kabupaten Jembrana",BALI,82218.0,Indonesia,85337370210.0,,,-8.3703726,114.6493225,https://maps.google.com/?cid=0x0:0x30466fe782c66654,
supermarket,Toko Kelontong Asia,Toko Stars,"JJW5+C82, Kaliakah, Kec. Negara, Kabupaten Jembrana, Bali 82212","Kaliakah, Kec. Negara, Kabupaten Jembrana",BALI,82212.0,Indonesia,,,,-8.353998,114.6082646,https://maps.google.com/?cid=0x0:0x3f3c491031d4e5d,
supermarket,Supermarket Diskon,Ragil Berkah Jaya,"MH84+8PG, Jl. Desa Kaliakah Kauh, Kaliakah, Kec. Negara, Kabupaten Jembrana, Bali 82218","Jl. Desa Kaliakah Kauh, Kaliakah, Kec. Negara, Kabupaten Jembrana",BALI,82218.0,Indonesia,8133260039.0,,,-8.3341922,114.5568141,https://maps.google.com/?cid=0x0:0x14577c1d127e0c61,
supermarket,Minimarket,Borbor Mart,"Perancak, Kec. Negara, Kabupaten Jembrana, Bali 80228","Kec. Negara, Kabupaten Jembrana",BALI,80228.0,Indonesia,36547777.0,,,-8.4019504,114.6145946,https://maps.google.com/?cid=0x0:0xce2f17b55e19ae02,
supermarket,Toko,Toko Putra Mandiri 2,"Jl. Peh, Kaliakah, Kec. Negara, Kabupaten Jembrana, Bali 82218","Kaliakah, Kec. Negara, Kabupaten Jembrana",BALI,82218.0,Indonesia,83114012679.0,,,-8.3240614,114.5780542,https://maps.google.com/?cid=0x0:0x28988fb15653bc1c,
supermarket,supermarket,Bali 82262,"Kec. Pekutatan, Kabupaten Jembrana, Bali","Kabupaten Jembrana, Bali",BALI,,Indonesia,,,,-8.4101762,114.8804853,https://maps.google.com/?cid=0x0:0x1c00c5eb6016c310,
supermarket,Toko umum,Toko Banten Tu Bagus,"Pekutatan, Kec. Pekutatan, Kabupaten Jembrana, Bali 82262","Kec. Pekutatan, Kabupaten Jembrana",BALI,82262.0,Indonesia,82144717375.0,,,-8.4257122,114.8289155,https://maps.google.com/?cid=0x0:0xd10848a9ecab4d4,
supermarket,Toko umum,Indomaret pekutatan,"HRHF+5MW, Jl. Raya Denpasar - Gilimanuk, Pekutatan, Kec. Pekutatan, Kabupaten Jembrana, Bali 82262","Jl. Raya Denpasar - Gilimanuk, Pekutatan, Kec. Pekutatan, Kabupaten Jembrana",BALI,82262.0,Indonesia,,,,-8.4220033,114.8241987,https://maps.google.com/?cid=0x0:0x6804ca87c21e6fdd,
supermarket,Minimarket,Wira Bhakti Mart Pekutatan,"Asian Highway No.2, Pekutatan, Jembrana Regency, Bali 82262","Pekutatan, Jembrana Regency",BALI,82262.0,Indonesia,,,,-8.4199635,114.821607,https://maps.google.com/?cid=0x0:0xb261d96c532993f3,
supermarket,Toko Kelontong Asia,Toko widhi karya,"HR8X+V82, Jl. Saraswati, Pekutatan, Kec. Pekutatan, Kabupaten Jembrana, Bali","Kabupaten Jembrana, Bali",BALI,,Indonesia,87860057664.0,,,-8.4328514,114.8482661,https://maps.google.com/?cid=0x0:0x7f6ad33049186628,
supermarket,Toko,Listu Mart,"Unnamed Road, Bunut bolong, Manggissari, Kec. Pekutatan, Kabupaten Jembrana, Bali 82262","Bunut bolong, Manggissari, Kec. Pekutatan, Kabupaten Jembrana",BALI,82262.0,Indonesia,81916634111.0,,,-8.3873696,114.8694697,https://maps.google.com/?cid=0x0:0xc5e13dda64dcf230,
supermarket,Toko,BUMDes Mart Asahduren,"JV56+JG7, Asahduren, Kec. Pekutatan, Kabupaten Jembrana, Bali 82262","Asahduren, Kec. Pekutatan, Kabupaten Jembrana",BALI,82262.0,Indonesia,,,,-8.3909546,114.8612887,https://maps.google.com/?cid=0x0:0xbd86709935f5ef03,
supermarket,Toko bahan makanan,Warung ANGGA - CAHYA,"HV5V+GC7, Jl. Sari, Gumbrih, Kec. Pekutatan, Kabupaten Jembrana, Bali 82262","Jl. Sari, Gumbrih, Kec. Pekutatan, Kabupaten Jembrana",BALI,82262.0,Indonesia,,,,-8.441206,114.8935457,https://maps.google.com/?cid=0x0:0x4e24ecd6fdfa8480,
supermarket,Toko Swalayan,BAGUS AYU Minimarket,"HV7F+64G, Jl. Wanaprasta, Gumbrih, Kec. Pekutatan, Kabupaten Jembrana, Bali 82262","Jl. Wanaprasta, Gumbrih, Kec. Pekutatan, Kabupaten Jembrana",BALI,82262.0,Indonesia,87861852954.0,,,-8.4369482,114.8728199,https://maps.google.com/?cid=0x0:0xb96cb5e8805ee2e8,
supermarket,Toko Buah dan Sayuran,Fresh Market Medewi,"Jl. Raya Denpasar - Gilimanuk, Pekutatan, Kec. Negara, Kabupaten Jembrana, Bali 82262","Pekutatan, Kec. Negara, Kabupaten Jembrana",BALI,82262.0,Indonesia,81237358786.0,,,-8.4198097,114.8215743,https://maps.google.com/?cid=0x0:0x469252412254c94e,
supermarket,Minimarket,Alfamart,"HQRX+8XP, Medewi, Kec. Mendoyo, Kabupaten Jembrana, Bali","Kabupaten Jembrana, Bali",BALI,,Indonesia,,,,-8.4091523,114.7999646,https://maps.google.com/?cid=0x0:0xa2f5d8f443b2e6f5,
supermarket,Toko bahan makanan,Warung nova,"JVFR+PGW, Manggissari, Kec. Pekutatan, Kabupaten Jembrana, Bali 82262","Manggissari, Kec. Pekutatan, Kabupaten Jembrana",BALI,82262.0,Indonesia,,,,-8.3756403,114.8913238,https://maps.google.com/?cid=0x0:0x642831b855b1a059,
supermarket,Toko bahan makanan,medewi depan toko ratih,"HRW8+9CR, jl. desa medewi, dusun, delod setra, Pekutatan, Jembrana Regency, Bali 82262","jl. desa medewi, dusun, delod setra, Pekutatan, Jembrana Regency",BALI,82262.0,Indonesia,87860514428.0,,,-8.4040129,114.8160053,https://maps.google.com/?cid=0x0:0x8b0c8191c2dd67db,
supermarket,Toko,Sari Buana,"Jl. Raya Denpasar - Gilimanuk, Pengeragoan, Kec. Pekutatan, Kabupaten Jembrana, Bali 82622","Pengeragoan, Kec. Pekutatan, Kabupaten Jembrana",BALI,82622.0,Indonesia,81936555887.0,,,-8.4587611,114.9032536,https://maps.google.com/?cid=0x0:0x9a54d9a43b308043,
supermarket,Minimarket,Toko Yudha Badingkayu,"Gg. Melati No.1, Banjar Badingkayu, Pengeragoan, Kec. Pekutatan, Kabupaten Jembrana, Bali 82262","Banjar Badingkayu, Pengeragoan, Kec. Pekutatan, Kabupaten Jembrana",BALI,82262.0,Indonesia,,,,-8.4203,114.9169389,https://maps.google.com/?cid=0x0:0x85b6433e0b4307f2,
supermarket,Toko umum,Kios sembakoLASMANA,"HRHF+H2J, Jl. Raya Denpasar - Gilimanuk, Pekutatan, Kec. Pekutatan, Kabupaten Jembrana, Bali 82262","Jl. Raya Denpasar - Gilimanuk, Pekutatan, Kec. Pekutatan, Kabupaten Jembrana",BALI,82262.0,Indonesia,,,,-8.4210429,114.8225019,https://maps.google.com/?cid=0x0:0x6e2bffc502dddac4,
supermarket,Toko bahan makanan,Warung Meklih,"GWX4+WCV, Pengeragoan, Kec. Pekutatan, Kabupaten Jembrana, Bali 82262","Pengeragoan, Kec. Pekutatan, Kabupaten Jembrana",BALI,82262.0,Indonesia,,,,-8.450146,114.9060402,https://maps.google.com/?cid=0x0:0xb11e0c5b1d7369f2,
supermarket,Grosir Sayur dan Buah,Buk Ayu,"JVFR+PGR rumah no, Jl. Munduk Kerang, Manggissari, Kec. Pekutatan, Kabupaten Jembrana, Bali 82262","Jl. Munduk Kerang, Manggissari, Kec. Pekutatan, Kabupaten Jembrana",BALI,82262.0,Indonesia,,,,-8.3756433,114.8912689,https://maps.google.com/?cid=0x0:0x8cc98e2a292ae546,
supermarket,Pusat Perbelanjaan,UD. Edi Puspita,"Medewi, Kec. Pekutatan, Kabupaten Jembrana, Bali 82262","Kec. Pekutatan, Kabupaten Jembrana",BALI,82262.0,Indonesia,82147444799.0,,,-8.4082688,114.8138159,https://maps.google.com/?cid=0x0:0x11362c9a83f89679,
supermarket,Toko,Oke Mart,"GVXQ+MRM, Gumbrih, Kec. Pekutatan, Kabupaten Jembrana, Bali","Kabupaten Jembrana, Bali",BALI,,Indonesia,,,,-8.4507824,114.8895549,https://maps.google.com/?cid=0x0:0x3c81594a20d5c085,
supermarket,Toko,Toko Mertha Buana,"Asah, Jl. Pekutatan - Pupuan, duren, Kec. Pekutatan, Kabupaten Jembrana, Bali 82262","Jl. Pekutatan - Pupuan, duren, Kec. Pekutatan, Kabupaten Jembrana",BALI,82262.0,Indonesia,81933115005.0,,,-8.3949097,114.8567883,https://maps.google.com/?cid=0x0:0x1f64f54bd68abcad,
