Category,Real Category,Business Name,Address,City,State,Postal Code,Country,Phone,Email,Website,Latitude,Longitude,Map Link,Details Link
perumahan,perumahan,Bali 82211,"Pendem, Kec. Jembrana, Kabupaten Jembrana, Bali","Kabupaten Jembrana, Bali",BALI,,Indonesia,,,,-8.3591929,114.628832,https://maps.google.com/?cid=0x0:0x7f27513f7ae5cdf2,
perumahan,Komplek perumahan,Perumahan negara villa,"MJ4J+WMX, Pendem, Kec. Negara, Kabupaten Jembrana, Bali 82218","Pendem, Kec. Negara, Kabupaten Jembrana",BALI,82218.0,Indonesia,,,,-8.3426421,114.6317326,https://maps.google.com/?cid=0x0:0xf29047bafbd24037,
perumahan,Perumahan,Perumahan Mulya Jaya LC Mertasari,"JJHH+QCQ, Loloan Tim., Kec. Jembrana, Kabupaten Jembrana, Bali","Kabupaten Jembrana, Bali",BALI,,Indonesia,,,,-8.3712699,114.6294535,https://maps.google.com/?cid=0x0:0x9d8d435123cb29e,
perumahan,Pembangunan Perumahan,Rumah Subsidi Jembrana,"Jl. Udayana No.98, Banjar Tengah, Kec. Negara, Kabupaten Jembrana, Bali 82213","Banjar Tengah, Kec. Negara, Kabupaten Jembrana",BALI,82213.0,Indonesia,,,,-8.3543563,114.6116692,https://maps.google.com/?cid=0x0:0x10b25ea55ec0c839,
perumahan,Komplek perumahan,Perumahan kluster abdi pertiwi,"JJRW+48Q, Dauhwaru, Kec. Jembrana, Kabupaten Jembrana, Bali 82218","Dauhwaru, Kec. Jembrana, Kabupaten Jembrana",BALI,82218.0,Indonesia,83115515100.0,,,-8.359669,114.6458608,https://maps.google.com/?cid=0x0:0xa9cfe41d3facdec0,
perumahan,Pembangunan Perumahan,graha made profil,"Jl. Nusa Indah, Baler Bale Agung, Kec. Negara, Kabupaten Jembrana, Bali 82218","Baler Bale Agung, Kec. Negara, Kabupaten Jembrana",BALI,82218.0,Indonesia,82144842741.0,,,-8.3383189,114.6194129,https://maps.google.com/?cid=0x0:0x3ff8719d008fd8e,
perumahan,Perumahan,Perumahan graha surya mulya,"MJ39+4HQ, Baler Bale Agung, Kec. Negara, Kabupaten Jembrana, Bali 82218","Baler Bale Agung, Kec. Negara, Kabupaten Jembrana",BALI,82218.0,Indonesia,85238821747.0,,,-8.3471682,114.6189786,https://maps.google.com/?cid=0x0:0xba11bd54b9fde8a9,
perumahan,Pembangunan Perumahan,Perdana Residence,"Unnamed Road, Tegal Badeng Bar., Kec. Negara, Kabupaten Jembrana, Bali 82218","Tegal Badeng Bar., Kec. Negara, Kabupaten Jembrana",BALI,82218.0,Indonesia,85238700808.0,,,-8.3797846,114.5814153,https://maps.google.com/?cid=0x0:0xf8748ac4a6595074,
perumahan,Perumahan,Grand Baluk Tropical Villa's,"JJQ2+5RH, Baluk 1, Baluk, Kec. Negara, Kabupaten Jembrana, Bali 82213","Baluk 1, Baluk, Kec. Negara, Kabupaten Jembrana",BALI,82213.0,Indonesia,,,,-8.3623207,114.6021022,https://maps.google.com/?cid=0x0:0x3d6bf319986533bb,
perumahan,Toko Perlengkapan Rumah,MR.DIY,"Jl. Ngurah Rai, Pendem, Kec. Negara, Kabupaten Jembrana, Bali 82212","Pendem, Kec. Negara, Kabupaten Jembrana",BALI,82212.0,Indonesia,8133600569.0,,,-8.3605747,114.6303975,https://maps.google.com/?cid=0x0:0x90d4a9b84438418b,
perumahan,Komplek perumahan,Perumahan Gd Residence,"JJP4+R5P, Baluk 1, Baluk, Kec. Negara, Kabupaten Jembrana, Bali 82214","Baluk 1, Baluk, Kec. Negara, Kabupaten Jembrana",BALI,82214.0,Indonesia,85935323639.0,,,-8.3629048,114.6054407,https://maps.google.com/?cid=0x0:0xceb857138854d582,
perumahan,Pembangunan Perumahan,Perumahan Baluk 1,"Baluk, Kec. Negara, Kabupaten Jembrana, Bali 82214","Kec. Negara, Kabupaten Jembrana",BALI,82214.0,Indonesia,,,,-8.3633934,114.6026149,https://maps.google.com/?cid=0x0:0xd723a5ac9c2b831c,
perumahan,Pembangunan Perumahan,Perumahan Griya Jati Asri.,"JHVH+PHG, Baluk, Kec. Negara, Kabupaten Jembrana, Bali","Kabupaten Jembrana, Bali",BALI,,Indonesia,,,,-8.3556954,114.5789487,https://maps.google.com/?cid=0x0:0x8034b63a104d0b77,
perumahan,Vila,Villa mp,"Jl. Rajawali, Pendem, Kec. Jembrana, Kabupaten Jembrana, Bali 82211","Pendem, Kec. Jembrana, Kabupaten Jembrana",BALI,82211.0,Indonesia,82144842741.0,,,-8.3068788,114.6383908,https://maps.google.com/?cid=0x0:0x87623adcf725246d,
perumahan,Pembangunan Perumahan,Cluster Abdi Pertiwi BB Agung,"MJ3C+RPP, Baler Bale Agung, Kec. Negara, Kabupaten Jembrana, Bali 82218","Baler Bale Agung, Kec. Negara, Kabupaten Jembrana",BALI,82218.0,Indonesia,,,,-8.3454089,114.6218277,https://maps.google.com/?cid=0x0:0x9f826ab06e867104,
perumahan,perumahan,Jembrana,"Kec. Jembrana, Kabupaten Jembrana, Bali","Kabupaten Jembrana, Bali",BALI,,Indonesia,,,,-8.3605987,114.6256578,https://maps.google.com/?cid=0x0:0xd668745c2713a1d7,
perumahan,Perumahan,Perumahan Mulya Jaya LC Mertasari,"JJHH+QCQ, Loloan Tim., Kec. Jembrana, Kabupaten Jembrana, Bali","Kabupaten Jembrana, Bali",BALI,,Indonesia,,,,-8.3712699,114.6294535,https://maps.google.com/?cid=0x0:0x9d8d435123cb29e,
perumahan,Pembangunan Perumahan,Perumahan zahira 2,"Jl. Soka No.45, Baler Bale Agung, Kec. Negara, Kabupaten Jembrana, Bali 82218","Baler Bale Agung, Kec. Negara, Kabupaten Jembrana",BALI,82218.0,Indonesia,,,,-8.3514052,114.6195905,https://maps.google.com/?cid=0x0:0x1637d59905352a97,
perumahan,perumahan,Perumahan Puri Menega Asri-Modern Living,"JJJR+69F, Jl. P. Irian, Ling.menega, Dauhwaru, Kec. Jembrana, Kabupaten Jembrana, Bali 82218","Jl. P. Irian, Ling.menega, Dauhwaru, Kec. Jembrana, Kabupaten Jembrana",BALI,82218.0,Indonesia,88987324620.0,,,-8.3694291,114.6409208,https://maps.google.com/?cid=0x0:0xb6b5d73359d78d01,
perumahan,Komplek perumahan,Perumahan negara villa,"MJ4J+WMX, Pendem, Kec. Negara, Kabupaten Jembrana, Bali 82218","Pendem, Kec. Negara, Kabupaten Jembrana",BALI,82218.0,Indonesia,,,,-8.3426421,114.6317326,https://maps.google.com/?cid=0x0:0xf29047bafbd24037,
perumahan,Komplek perumahan,jembrana,"JJQG+PH7, Loloan Tim., Kec. Jembrana, Kabupaten Jembrana, Bali","Kabupaten Jembrana, Bali",BALI,,Indonesia,,,,-8.3607194,114.6264106,https://maps.google.com/?cid=0x0:0xc434c9ce610f676f,
perumahan,Komplek perumahan,PERUMAHAN GRAHA LC 2,"JJMM+PFP, Jl. P.Jawa, Dauhwaru, Kec. Jembrana, Kabupaten Jembrana, Bali 82218","Jl. P.Jawa, Dauhwaru, Kec. Jembrana, Kabupaten Jembrana",BALI,82218.0,Indonesia,,,,-8.3656643,114.6336919,https://maps.google.com/?cid=0x0:0x928a25effd32f53d,
perumahan,Komplek perumahan,PERUMAHAN MULYA JAYA NEGARA VILLA PENDEM,"MJ4J+GPF, Pendem, Kec. Jembrana, Kabupaten Jembrana, Bali","Kabupaten Jembrana, Bali",BALI,,Indonesia,,,,-8.3441013,114.6316487,https://maps.google.com/?cid=0x0:0x53744181aaa86983,
perumahan,Komplek perumahan,Rumah Julio,"Gg. II A No.3, Dauhwaru, Kec. Jembrana, Kabupaten Jembrana, Bali 82217","Dauhwaru, Kec. Jembrana, Kabupaten Jembrana",BALI,82217.0,Indonesia,,,,-8.3649177,114.6355886,https://maps.google.com/?cid=0x0:0xfc01eb2159397d18,
perumahan,Komplek perumahan,Perumahan Keluarga Su,"Jl. Danau Poso No.22, Lelateng, Kec. Negara, Kabupaten Jembrana, Bali 82218","Lelateng, Kec. Negara, Kabupaten Jembrana",BALI,82218.0,Indonesia,,,,-8.3677338,114.6169895,https://maps.google.com/?cid=0x0:0x6660bf09baa181f4,
perumahan,Perumahan,PERUMAHAN DUKUH ASRI,"JJJX+F4X, Dangin Tukadaya, Kec. Jembrana, Kabupaten Jembrana, Bali 82218","Dangin Tukadaya, Kec. Jembrana, Kabupaten Jembrana",BALI,82218.0,Indonesia,,,,-8.3687535,114.647858,https://maps.google.com/?cid=0x0:0x94f3771a10d93918,
perumahan,Komplek perumahan,RUMAH IPUNK,"jl.pulau jawa II, Gg. VI lingkungan, Loloan Tim., Kabupaten Jembrana, Bali 82116","Gg. VI lingkungan, Loloan Tim., Kabupaten Jembrana",BALI,82116.0,Indonesia,82340348082.0,,,-8.3689834,114.6277015,https://maps.google.com/?cid=0x0:0xe8e6198f7f58c5ed,
perumahan,Perumahan,Rumah Sawe Negara,"JJVR+WP3, Jl. Panji Sakti, Dauhwaru, Kec. Jembrana, Kabupaten Jembrana, Bali 82218","Jl. Panji Sakti, Dauhwaru, Kec. Jembrana, Kabupaten Jembrana",BALI,82218.0,Indonesia,,,,-8.3552346,114.6417846,https://maps.google.com/?cid=0x0:0x563f6e67f21bc4bb,
perumahan,Komplek perumahan,Rumah rossy,"JJMH+MH4, Loloan Tim., Kec. Jembrana, Kabupaten Jembrana, Bali 82218","Loloan Tim., Kec. Jembrana, Kabupaten Jembrana",BALI,82218.0,Indonesia,,,,-8.3658524,114.6289464,https://maps.google.com/?cid=0x0:0xe5af89b2a1ddb1d8,
perumahan,Komplek perumahan,Menega Residence Jembrana,"Gg. VI A, Dauhwaru, Kec. Jembrana, Kabupaten Jembrana, Bali 82218","Dauhwaru, Kec. Jembrana, Kabupaten Jembrana",BALI,82218.0,Indonesia,,,,-8.3655074,114.6403435,https://maps.google.com/?cid=0x0:0xf2df85d8437a6cb9,
perumahan,Komplek perumahan,Aulia Rest Relax,"Jalam, Jl. P.Jawa IV No.3, Dauhwaru, Kec. Jembrana, Kabupaten Jembrana, Bali 82218","Jl. P.Jawa IV No.3, Dauhwaru, Kec. Jembrana, Kabupaten Jembrana",BALI,82218.0,Indonesia,81353089670.0,,,-8.3650769,114.6331817,https://maps.google.com/?cid=0x0:0x991fc2704342be6b,
perumahan,Pembangunan Perumahan,Perumahan Made Profile,"MJ6G+QGG, Pendem, Kec. Jembrana, Kabupaten Jembrana, Bali 82218","Pendem, Kec. Jembrana, Kabupaten Jembrana",BALI,82218.0,Indonesia,,,,-8.3380655,114.6263374,https://maps.google.com/?cid=0x0:0x1684f29bcadf9b9,
perumahan,Pembangunan Perumahan,Rumah,"Jl. Yos Sudarso No.18, Banjar Tengah, Kec. Negara, Kabupaten Jembrana, Bali 82218","Banjar Tengah, Kec. Negara, Kabupaten Jembrana",BALI,82218.0,Indonesia,,,,-8.3592059,114.6226118,https://maps.google.com/?cid=0x0:0xc46093c9af01067e,
perumahan,Komplek perumahan,Tangkas Kori Lobar,"JJM9+JRM, Jl. Mangga, Loloan Bar., Kec. Negara, Kabupaten Jembrana, Bali 82218","Jl. Mangga, Loloan Bar., Kec. Negara, Kabupaten Jembrana",BALI,82218.0,Indonesia,,,,-8.3659014,114.6195327,https://maps.google.com/?cid=0x0:0xb21b8e86b3421d5e,
perumahan,Pembangunan Perumahan,PERUMAHAN AMADINA,"JJF2+2MP, Lelateng, Kec. Negara, Kabupaten Jembrana, Bali 82214","Lelateng, Kec. Negara, Kabupaten Jembrana",BALI,82214.0,Indonesia,81916812260.0,,,-8.3774073,114.6017076,https://maps.google.com/?cid=0x0:0xe478f47eadebc98a,
perumahan,Komplek perumahan,Perumahan Munduk Villa 2,"JMR3+CWV, Jl. Kutai, Dangin Tukadaya, Kec. Jembrana, Kabupaten Jembrana, Bali 82218","Jl. Kutai, Dangin Tukadaya, Kec. Jembrana, Kabupaten Jembrana",BALI,82218.0,Indonesia,,,,-8.3588807,114.6547912,https://maps.google.com/?cid=0x0:0x37cbbd29b25f9c31,
perumahan,Pembangunan Perumahan,Perumahan Munduk Villa 3,"JMV2+6QX Villa 3, Perumahan Babakan Banjar Anyar Desa, Munduk, Jembrana, Jembrana Regency, Bali","Kabupaten Jembrana, Bali",BALI,,Indonesia,,,,-8.3573045,114.6522954,https://maps.google.com/?cid=0x0:0xc3b27a92104f4005,
perumahan,Pembangunan Perumahan,Andika,"MM97+6MM, Dangin Tukadaya, Kec. Jembrana, Kabupaten Jembrana, Bali 82218","Dangin Tukadaya, Kec. Jembrana, Kabupaten Jembrana",BALI,82218.0,Indonesia,,,,-8.3319105,114.66417,https://maps.google.com/?cid=0x0:0xd21e719d1578a6ee,
perumahan,Komplek perumahan,My Home,"MMM8+395, Jl. Nusa Ceningan, Batuagung, Kec. Jembrana, Kabupaten Jembrana, Bali 82218","Jl. Nusa Ceningan, Batuagung, Kec. Jembrana, Kabupaten Jembrana",BALI,82218.0,Indonesia,,,,-8.317367,114.665989,https://maps.google.com/?cid=0x0:0xd5ad0cab0d43b6ec,
perumahan,Pembangunan Perumahan,Rumah saya,"MM97+8MM munduk kemoningDangin, sari Jl. Kemoning, Dangin Tukadaya, Jembrana, Jembrana Regency, Bali 82218","sari Jl. Kemoning, Dangin Tukadaya, Jembrana, Jembrana Regency",BALI,82218.0,Indonesia,,,,-8.3316351,114.664178,https://maps.google.com/?cid=0x0:0xdb288c4e9fa5f9ce,
perumahan,Pembangunan Perumahan,Rumah Subsidi Jembrana,"Jl. Udayana No.98, Banjar Tengah, Kec. Negara, Kabupaten Jembrana, Bali 82213","Banjar Tengah, Kec. Negara, Kabupaten Jembrana",BALI,82213.0,Indonesia,,,,-8.3543563,114.6116692,https://maps.google.com/?cid=0x0:0x10b25ea55ec0c839,
perumahan,Komplek perumahan,Perumahan Gd Residence,"JJP4+R5P, Baluk 1, Baluk, Kec. Negara, Kabupaten Jembrana, Bali 82214","Baluk 1, Baluk, Kec. Negara, Kabupaten Jembrana",BALI,82214.0,Indonesia,85935323639.0,,,-8.3629048,114.6054407,https://maps.google.com/?cid=0x0:0xceb857138854d582,
perumahan,perumahan,Jembrana,"Kec. Jembrana, Kabupaten Jembrana, Bali","Kabupaten Jembrana, Bali",BALI,,Indonesia,,,,-8.3605987,114.6256578,https://maps.google.com/?cid=0x0:0xd668745c2713a1d7,
perumahan,Pembangunan Perumahan,Perumahan zahira 2,"Jl. Soka No.45, Baler Bale Agung, Kec. Negara, Kabupaten Jembrana, Bali 82218","Baler Bale Agung, Kec. Negara, Kabupaten Jembrana",BALI,82218.0,Indonesia,,,,-8.3514052,114.6195905,https://maps.google.com/?cid=0x0:0x1637d59905352a97,
perumahan,Perumahan,PERUMAHAN DUKUH ASRI,"JJJX+F4X, Dangin Tukadaya, Kec. Jembrana, Kabupaten Jembrana, Bali 82218","Dangin Tukadaya, Kec. Jembrana, Kabupaten Jembrana",BALI,82218.0,Indonesia,,,,-8.3687535,114.647858,https://maps.google.com/?cid=0x0:0x94f3771a10d93918,
perumahan,Komplek perumahan,Perumahan negara villa,"MJ4J+WMX, Pendem, Kec. Negara, Kabupaten Jembrana, Bali 82218","Pendem, Kec. Negara, Kabupaten Jembrana",BALI,82218.0,Indonesia,,,,-8.3426421,114.6317326,https://maps.google.com/?cid=0x0:0xf29047bafbd24037,
perumahan,perumahan,Perumahan Puri Menega Asri-Modern Living,"JJJR+69F, Jl. P. Irian, Ling.menega, Dauhwaru, Kec. Jembrana, Kabupaten Jembrana, Bali 82218","Jl. P. Irian, Ling.menega, Dauhwaru, Kec. Jembrana, Kabupaten Jembrana",BALI,82218.0,Indonesia,88987324620.0,,,-8.3694291,114.6409208,https://maps.google.com/?cid=0x0:0xb6b5d73359d78d01,
perumahan,Komplek perumahan,Rumah ( Gusade / Titiek ),"JJVW+FR2, Jl. Nusa Ceningan, Dangin Tukadaya, Kec. Jembrana, Kabupaten Jembrana, Bali 82218","Jl. Nusa Ceningan, Dangin Tukadaya, Kec. Jembrana, Kabupaten Jembrana",BALI,82218.0,Indonesia,,,,-8.3560669,114.6474257,https://maps.google.com/?cid=0x0:0x573505d4dd780adb,
perumahan,Komplek perumahan,Rumah,"Jl.Gunung Semeru Gang 2 No.8 Ketugtug, Loloan Tim., Kec. Negara, Kabupaten Jembrana, Bali 82218","Loloan Tim., Kec. Negara, Kabupaten Jembrana",BALI,82218.0,Indonesia,,,,-8.3615065,114.6272822,https://maps.google.com/?cid=0x0:0xe7ab901e0f40ab85,
perumahan,Komplek perumahan,Perumahan Munduk Villa 2,"JMR3+CWV, Jl. Kutai, Dangin Tukadaya, Kec. Jembrana, Kabupaten Jembrana, Bali 82218","Jl. Kutai, Dangin Tukadaya, Kec. Jembrana, Kabupaten Jembrana",BALI,82218.0,Indonesia,,,,-8.3588807,114.6547912,https://maps.google.com/?cid=0x0:0x37cbbd29b25f9c31,
perumahan,Komplek perumahan,Rumah rossy,"JJMH+MH4, Loloan Tim., Kec. Jembrana, Kabupaten Jembrana, Bali 82218","Loloan Tim., Kec. Jembrana, Kabupaten Jembrana",BALI,82218.0,Indonesia,,,,-8.3658524,114.6289464,https://maps.google.com/?cid=0x0:0xe5af89b2a1ddb1d8,
perumahan,Komplek perumahan,Aulia Rest Relax,"Jalam, Jl. P.Jawa IV No.3, Dauhwaru, Kec. Jembrana, Kabupaten Jembrana, Bali 82218","Jl. P.Jawa IV No.3, Dauhwaru, Kec. Jembrana, Kabupaten Jembrana",BALI,82218.0,Indonesia,81353089670.0,,,-8.3650769,114.6331817,https://maps.google.com/?cid=0x0:0x991fc2704342be6b,
perumahan,Komplek perumahan,Rumah beny,"Jl. Merak No.44, Pendem, Kec. Jembrana, Kabupaten Jembrana, Bali 82218","Pendem, Kec. Jembrana, Kabupaten Jembrana",BALI,82218.0,Indonesia,,,,-8.3526907,114.6330723,https://maps.google.com/?cid=0x0:0xf516d37ca84b0295,
perumahan,Komplek perumahan,Biya mahardika house,"jalan nuri no 1satria, Pendem, Kec. Jembrana, Kabupaten Jembrana, Bali 82218","Pendem, Kec. Jembrana, Kabupaten Jembrana",BALI,82218.0,Indonesia,,,,-8.3528681,114.6279778,https://maps.google.com/?cid=0x0:0x4cb21c0ccb48ea7a,
perumahan,Pembangunan Perumahan,Perumahan PUTIH,"JJMR+HC6, Gg. VIII No.5A, Dauhwaru, Kec. Jembrana, Kabupaten Jembrana, Bali 82218","Gg. VIII No.5A, Dauhwaru, Kec. Jembrana, Kabupaten Jembrana",BALI,82218.0,Indonesia,,,,-8.3667951,114.6409577,https://maps.google.com/?cid=0x0:0x6a2944d84c850085,
perumahan,Perumahan,Rumah Sawe Negara,"JJVR+WP3, Jl. Panji Sakti, Dauhwaru, Kec. Jembrana, Kabupaten Jembrana, Bali 82218","Jl. Panji Sakti, Dauhwaru, Kec. Jembrana, Kabupaten Jembrana",BALI,82218.0,Indonesia,,,,-8.3552346,114.6417846,https://maps.google.com/?cid=0x0:0x563f6e67f21bc4bb,
perumahan,Komplek perumahan,jembrana,"JJQG+PH7, Loloan Tim., Kec. Jembrana, Kabupaten Jembrana, Bali","Kabupaten Jembrana, Bali",BALI,,Indonesia,,,,-8.3607194,114.6264106,https://maps.google.com/?cid=0x0:0xc434c9ce610f676f,
perumahan,Pembangunan Perumahan,Perumahan Zahira 1,"Perumahan Zahira 1 No.25, Baler Bale Agung, Kec. Negara, Kabupaten Jembrana, Bali 82218","Baler Bale Agung, Kec. Negara, Kabupaten Jembrana",BALI,82218.0,Indonesia,,,,-8.354368,114.6149561,https://maps.google.com/?cid=0x0:0x731648fdeb69ad7a,
perumahan,perumahan,Perumahan Graha Baluk 1,,,BALI,,Indonesia,85858872293.0,,,-8.3596957,114.6380758,https://maps.google.com/?cid=0x0:0xf92f74aab545260f,
perumahan,Komplek perumahan,Rumah Esa Aiswarya,"JJPV+VHC, Dauhwaru, Kec. Negara, Kabupaten Jembrana, Bali 82218","Dauhwaru, Kec. Negara, Kabupaten Jembrana",BALI,82218.0,Indonesia,,,,-8.3627753,114.6437784,https://maps.google.com/?cid=0x0:0xae202616ec59cd8e,
perumahan,Komplek perumahan,Rumah Valentino,"JJWJ+44W, Pendem, Kec. Jembrana, Kabupaten Jembrana, Bali 82218","Pendem, Kec. Jembrana, Kabupaten Jembrana",BALI,82218.0,Indonesia,,,,-8.3546279,114.6303308,https://maps.google.com/?cid=0x0:0x5396bc493a4e67a,
perumahan,Pembangunan Perumahan,Perumahan Made Profile,"MJ6G+QGG, Pendem, Kec. Jembrana, Kabupaten Jembrana, Bali 82218","Pendem, Kec. Jembrana, Kabupaten Jembrana",BALI,82218.0,Indonesia,,,,-8.3380655,114.6263374,https://maps.google.com/?cid=0x0:0x1684f29bcadf9b9,
perumahan,Komplek perumahan,Perumahan Griya Tegal Asri,"Jl. Sahadewa, Tegal Badeng Barat, Kec. Negara, Kabupaten Jembrana, Bali 82218","Tegal Badeng Barat, Kec. Negara, Kabupaten Jembrana",BALI,82218.0,Indonesia,81337947199.0,,,-8.3628669,114.5639375,https://maps.google.com/?cid=0x0:0x663d22c864f2fd4c,
perumahan,Komplek perumahan,Rumah Dadong Lori,"JMH2+2WG, Jl. Sungai Berantas, Sangkaragung, Kec. Jembrana, Kabupaten Jembrana, Bali 82218","Jl. Sungai Berantas, Sangkaragung, Kec. Jembrana, Kabupaten Jembrana",BALI,82218.0,Indonesia,,,,-8.372515,114.6524417,https://maps.google.com/?cid=0x0:0xe8166483f7e1d97a,
perumahan,Kontraktor,Perumahan Graha Citra Mandiri (GCM) No 9C,"Jalan Singha Duala No.Km 1, Dangin Tukadaya, Kec. Jembrana, Kabupaten Jembrana, Bali 82218","Dangin Tukadaya, Kec. Jembrana, Kabupaten Jembrana",BALI,82218.0,Indonesia,,,,-8.3560053,114.661795,https://maps.google.com/?cid=0x0:0xdf0d72a20a22d5c0,
perumahan,Komplek perumahan,Perumahan kluster abdi pertiwi,"JJRW+48Q, Dauhwaru, Kec. Jembrana, Kabupaten Jembrana, Bali 82218","Dauhwaru, Kec. Jembrana, Kabupaten Jembrana",BALI,82218.0,Indonesia,83115515100.0,,,-8.359669,114.6458608,https://maps.google.com/?cid=0x0:0xa9cfe41d3facdec0,
perumahan,Komplek perumahan,Menega Residence Jembrana,"Gg. VI A, Dauhwaru, Kec. Jembrana, Kabupaten Jembrana, Bali 82218","Dauhwaru, Kec. Jembrana, Kabupaten Jembrana",BALI,82218.0,Indonesia,,,,-8.3655074,114.6403435,https://maps.google.com/?cid=0x0:0xf2df85d8437a6cb9,
perumahan,Komplek perumahan,Rumah Agnes,"JJMR+HC6, Gg. VIII, Dauhwaru, Kec. Jembrana, Kabupaten Jembrana, Bali 82218","Gg. VIII, Dauhwaru, Kec. Jembrana, Kabupaten Jembrana",BALI,82218.0,Indonesia,,,,-8.3660571,114.6410271,https://maps.google.com/?cid=0x0:0x286da4ed8ef509d3,
perumahan,Asosiasi pemilik rumah,Perumahan wana asri,"MJ59+8RV, Baler Bale Agung, Kec. Negara, Kabupaten Jembrana, Bali 82218","Baler Bale Agung, Kec. Negara, Kabupaten Jembrana",BALI,82218.0,Indonesia,,,,-8.3416402,114.6195336,https://maps.google.com/?cid=0x0:0x1a6355328461a75,
perumahan,Pembangunan Perumahan,Perumahan,"PGG3+X8X, Jl. Nusasari, Nusasari, Kec. Melaya, Kabupaten Jembrana, Bali 82252","Jl. Nusasari, Nusasari, Kec. Melaya, Kabupaten Jembrana",BALI,82252.0,Indonesia,,,,-8.272256,114.5031445,https://maps.google.com/?cid=0x0:0x9cb37207e00bb2b3,
perumahan,Komplek perumahan,Rumah tu purya,"PGXJ+3VF, Jalan, Ekasari, Kec. Melaya, Kabupaten Jembrana, Bali 82252","Jalan, Ekasari, Kec. Melaya, Kabupaten Jembrana",BALI,82252.0,Indonesia,,,,-8.252804,114.531838,https://maps.google.com/?cid=0x0:0xae22ce1aa822dd59,
perumahan,perumahan,Bali 82252,"Kec. Melaya, Kabupaten Jembrana, Bali","Kabupaten Jembrana, Bali",BALI,,Indonesia,,,,-8.2331562,114.5005038,https://maps.google.com/?cid=0x0:0x1c00c5eb6016c2f0,
perumahan,Gedung Apartemen,Rumah Susi Bali,"PFHQ+JQ6, Melaya, Kec. Melaya, Kabupaten Jembrana, Bali 82252","Melaya, Kec. Melaya, Kabupaten Jembrana",BALI,82252.0,Indonesia,,,,-8.2709561,114.4894034,https://maps.google.com/?cid=0x0:0x282bb52211cd37b3,
perumahan,Komplek perumahan,Nusasari,"PGP5+G7W, Jl. Nusasari, Melaya, Kec. Melaya, Kabupaten Jembrana, Bali 82252","Jl. Nusasari, Melaya, Kec. Melaya, Kabupaten Jembrana",BALI,82252.0,Indonesia,,,,-8.2637326,114.5080639,https://maps.google.com/?cid=0x0:0xe22b97ca84e70deb,
perumahan,Komplek perumahan,Rumah Renita Dan Rendya,"QG39+4R6, Blimbingsari, Kec. Melaya, Kabupaten Jembrana, Bali","Kabupaten Jembrana, Bali",BALI,,Indonesia,,,,-8.2474499,114.5193408,https://maps.google.com/?cid=0x0:0xc397dd6ef9df6ae8,
perumahan,Perumahan,OGik Home,"PFWJ+7MQ, Jl. Raya Denpasar - Gilimanuk, Melaya, Kec. Melaya, Kabupaten Jembrana, Bali 82252","Jl. Raya Denpasar - Gilimanuk, Melaya, Kec. Melaya, Kabupaten Jembrana",BALI,82252.0,Indonesia,82372999970.0,,,-8.2543154,114.4821699,https://maps.google.com/?cid=0x0:0x80ac8d2850ade2cc,
perumahan,Gedung Apartemen,Rumah Indah Lestari,"PFWM+FJ8, Jl. Raya Denpasar - Gilimanuk, Banjar Sumbersari, Melaya, Kec. Melaya, Kabupaten Jembrana, Bali 82252","Jl. Raya Denpasar - Gilimanuk, Banjar Sumbersari, Melaya, Kec. Melaya, Kabupaten Jembrana",BALI,82252.0,Indonesia,,,,-8.2538473,114.4840749,https://maps.google.com/?cid=0x0:0x1fed747021e015d0,
perumahan,Perhimpunan Pengembang Perumahan,Rumah Komang Busana,"QF3Q+XM6, Melaya, Kec. Melaya, Kabupaten Jembrana, Bali 82252","Melaya, Kec. Melaya, Kabupaten Jembrana",BALI,82252.0,Indonesia,,,,-8.2451908,114.489948,https://maps.google.com/?cid=0x0:0x99e81a4d2ed0f0ed,
perumahan,Komplek perumahan,Bu silvia,"PGW2+2H8, Jl. Melaya Tengah Kaja, Melaya, Kec. Melaya, Kabupaten Jembrana, Bali 82252","Jl. Melaya Tengah Kaja, Melaya, Kec. Melaya, Kabupaten Jembrana",BALI,82252.0,Indonesia,,,,-8.2549532,114.5014528,https://maps.google.com/?cid=0x0:0x240c992723cfa140,
perumahan,Komplek perumahan,Dek ijil Home,"PFHW+6XV, Melaya, Kec. Melaya, Kabupaten Jembrana, Bali 82252","Melaya, Kec. Melaya, Kabupaten Jembrana",BALI,82252.0,Indonesia,,,,-8.2729737,114.4981687,https://maps.google.com/?cid=0x0:0x6fb808e74f14e096,
perumahan,Pembangunan Perumahan,Sayu tu di utami,"PFGW+G2G, Melaya, Kec. Melaya, Kabupaten Jembrana, Bali 82252","Melaya, Kec. Melaya, Kabupaten Jembrana",BALI,82252.0,Indonesia,,,,-8.2735639,114.4949932,https://maps.google.com/?cid=0x0:0xd2d5653bf44dddb5,
perumahan,Komplek perumahan,Rumah Pak Dek Dwija,"PFGW+G2G, Melaya, Kec. Melaya, Kabupaten Jembrana, Bali 82252","Melaya, Kec. Melaya, Kabupaten Jembrana",BALI,82252.0,Indonesia,,,,-8.273554,114.494862,https://maps.google.com/?cid=0x0:0x592694b6225dd49d,
perumahan,Komplek perumahan,Pondok 10,"QG39+879, Blimbingsari, Kec. Melaya, Kabupaten Jembrana, Bali 82252","Blimbingsari, Kec. Melaya, Kabupaten Jembrana",BALI,82252.0,Indonesia,,,,-8.2467105,114.5182305,https://maps.google.com/?cid=0x0:0xb8e2c76959bb91b9,
perumahan,Komplek perumahan,LASIMBO 5 SUJANTI,"Jln. Simon Buis No.5, Ekasari, Melaya, Jembrana Regency, Bali 82252","Ekasari, Melaya, Jembrana Regency",BALI,82252.0,Indonesia,,,,-8.256528,114.5398215,https://maps.google.com/?cid=0x0:0x6e2eef4263bc2e83,
perumahan,Komplek perumahan,Rumah Tuari (Ayik),"Jl. Desa Ekasari, Ekasari, Kec. Melaya, Kabupaten Jembrana, Bali 82252","Ekasari, Kec. Melaya, Kabupaten Jembrana",BALI,82252.0,Indonesia,,,,-8.2575047,114.5305982,https://maps.google.com/?cid=0x0:0xca77b46b17339d5b,
perumahan,Pembangunan Perumahan,OkaHome,"PGVH+RXC, Ekasari, Kec. Melaya, Kabupaten Jembrana, Bali 82252","Ekasari, Kec. Melaya, Kabupaten Jembrana",BALI,82252.0,Indonesia,,,,-8.2554259,114.5299015,https://maps.google.com/?cid=0x0:0x3a4d6b0b2ad3a220,
perumahan,Komplek perumahan,Rumah VINA^_^,"PG83+7J8, Jl. Nusasari, Melaya, Kec. Melaya, Kabupaten Jembrana, Bali 82252","Jl. Nusasari, Melaya, Kec. Melaya, Kabupaten Jembrana",BALI,82252.0,Indonesia,,,,-8.2843429,114.5040873,https://maps.google.com/?cid=0x0:0x5ef43376e52d843a,
perumahan,Komplek perumahan,Puri Melaya (Puri Anyar Mengwi),"PGQJ+39G, Ekasari, Kec. Melaya, Kabupaten Jembrana, Bali 82252","Ekasari, Kec. Melaya, Kabupaten Jembrana",BALI,82252.0,Indonesia,,,,-8.2623187,114.530961,https://maps.google.com/?cid=0x0:0x5f962d7cf174544f,
perumahan,Pembangunan Perumahan,Adi fishing bali,"PFRH+M3J, Br. Sumbersari, Melaya, Kec. Melaya, Kabupaten Jembrana, Bali 82252","Br. Sumbersari, Melaya, Kec. Melaya, Kabupaten Jembrana",BALI,82252.0,Indonesia,81999055713.0,,,-8.2582801,114.4776266,https://maps.google.com/?cid=0x0:0x16b586d115efd0a6,
perumahan,Perhimpunan Pengembang Perumahan,Rumah Wayan Sidia,"PGRG+MPQ, Gg. Nusa Indah, Ekasari, Kec. Melaya, Kabupaten Jembrana, Bali 82252","Gg. Nusa Indah, Ekasari, Kec. Melaya, Kabupaten Jembrana",BALI,82252.0,Indonesia,,,,-8.2582763,114.5268678,https://maps.google.com/?cid=0x0:0x3d7f6111304ee9b2,
perumahan,Gedung Apartemen,"Moding Kaja, candikuma, Melaya, Jembrana, Bali","PG6P+2GC, Candikusuma, Kec. Melaya, Kabupaten Jembrana, Bali 82252","Candikusuma, Kec. Melaya, Kabupaten Jembrana",BALI,82252.0,Indonesia,,,,-8.2899369,114.5362721,https://maps.google.com/?cid=0x0:0xcc81fc3f04acac6c,
perumahan,Pembangunan Perumahan,Ukir bias melela,"PFMX+464, Jl. Sukoto, Melaya, Kec. Melaya, Kabupaten Jembrana, Bali 82252","Jl. Sukoto, Melaya, Kec. Melaya, Kabupaten Jembrana",BALI,82252.0,Indonesia,,,,-8.2672352,114.4980724,https://maps.google.com/?cid=0x0:0xece6f9f88c19d189,
perumahan,Perhimpunan Pengembang Perumahan,Samordork 2,"RC8Q+WF, Gilimanuk, Kec. Melaya, Kabupaten Jembrana, Bali 82252","Gilimanuk, Kec. Melaya, Kabupaten Jembrana",BALI,82252.0,Indonesia,,,,-8.1827333,114.4387433,https://maps.google.com/?cid=0x0:0xfad39d5f8a2b88f6,
perumahan,Tukang Jahit,Terpal Kain Melaya Bali,"Jl. Keramat Desa Melaya No.24, Melaya, Kec. Melaya, Kabupaten Jembrana, Bali 82252","Melaya, Kec. Melaya, Kabupaten Jembrana",BALI,82252.0,Indonesia,81338687114.0,,,-8.2758704,114.4864601,https://maps.google.com/?cid=0x0:0x33f26a16dbb99a8,
perumahan,Komplek perumahan,Jeron Sayu Tudi,"PFGW+G2G, Melaya, Kec. Melaya, Kabupaten Jembrana, Bali 82252","Melaya, Kec. Melaya, Kabupaten Jembrana",BALI,82252.0,Indonesia,,,,-8.273575,114.494922,https://maps.google.com/?cid=0x0:0x49208a6f38b2a174,
perumahan,Kantor Perusahaan,Kaling J A,"RCJP+V35, Gilimanuk, Kec. Melaya, Kabupaten Jembrana, Bali 82252","Gilimanuk, Kec. Melaya, Kabupaten Jembrana",BALI,82252.0,Indonesia,,,,-8.1679004,114.4352257,https://maps.google.com/?cid=0x0:0xa23a815d6b0a1348,
perumahan,Perumahan,Kadek sutama,"QG5J+9J, Ekasari, Kec. Melaya, Kabupaten Jembrana, Bali 82252","Ekasari, Kec. Melaya, Kabupaten Jembrana",BALI,82252.0,Indonesia,,,,-8.2405388,114.531724,https://maps.google.com/?cid=0x0:0x6d2da4f2b48078ca,
perumahan,Pembangunan Perumahan,Antok BucHenG,"PF9X+JH8, Melaya, Kec. Melaya, Kabupaten Jembrana, Bali 82252","Melaya, Kec. Melaya, Kabupaten Jembrana",BALI,82252.0,Indonesia,,,,-8.2809597,114.4989467,https://maps.google.com/?cid=0x0:0x5481cad9ddaac9b5,
perumahan,perumahan,Bali 82261,"Kec. Mendoyo, Kabupaten Jembrana, Bali","Kabupaten Jembrana, Bali",BALI,,Indonesia,,,,-8.2984574,114.7380385,https://maps.google.com/?cid=0x0:0x1c00c5eb6016c300,
perumahan,Komplek perumahan,rumah made,"MP6M+3GC, Penyaringan, Kec. Mendoyo, Kabupaten Jembrana, Bali 82261","Penyaringan, Kec. Mendoyo, Kabupaten Jembrana",BALI,82261.0,Indonesia,85738656121.0,,,-8.340521,114.7341688,https://maps.google.com/?cid=0x0:0x3c83f38dc97defd8,
perumahan,Komplek perumahan,Pecatu House,"MPM3+VG7, Jl. Ratna, Pergung, Kec. Mendoyo, Kabupaten Jembrana, Bali 82261","Jl. Ratna, Pergung, Kec. Mendoyo, Kabupaten Jembrana",BALI,82261.0,Indonesia,,,,-8.31592,114.704105,https://maps.google.com/?cid=0x0:0x3766122bc56f27fb,
perumahan,Pembangunan Perumahan,Ed Sub Puri agung,"MP5W+QCC, Jl. Nakula, Yeh Embang Kauh, Kec. Mendoyo, Kabupaten Jembrana, Bali 82261","Jl. Nakula, Yeh Embang Kauh, Kec. Mendoyo, Kabupaten Jembrana",BALI,82261.0,Indonesia,,,,-8.3405538,114.7459923,https://maps.google.com/?cid=0x0:0x700a4398a74f042d,
perumahan,Komplek perumahan,Pondok Rumah Semeton,"JPM3+WH6, Jl. Kartini, Penyaringan, Kec. Mendoyo, Kabupaten Jembrana, Bali 82261","Jl. Kartini, Penyaringan, Kec. Mendoyo, Kabupaten Jembrana",BALI,82261.0,Indonesia,,,,-8.3652215,114.7038903,https://maps.google.com/?cid=0x0:0x50a12571b2c18b28,
perumahan,Komplek perumahan,I Gede Suartama,"MMJV+254, Jalan Pangkung Jangu, Pohsanten, Kec. Mendoyo, Kabupaten Jembrana, Bali 82261","Jalan Pangkung Jangu, Pohsanten, Kec. Mendoyo, Kabupaten Jembrana",BALI,82261.0,Indonesia,,,,-8.319995,114.6929523,https://maps.google.com/?cid=0x0:0xbc7d9aae19d11f68,
perumahan,Pembangunan Perumahan,My home KAK NYEM,"MPP5+F3R, Jl. Ratna, Pergung, Kec. Mendoyo, Kabupaten Jembrana, Bali 82261","Jl. Ratna, Pergung, Kec. Mendoyo, Kabupaten Jembrana",BALI,82261.0,Indonesia,,,,-8.3139443,114.7089845,https://maps.google.com/?cid=0x0:0x8ce6349b3e626efd,
perumahan,Komplek perumahan,Seketariat Yayasan Kesatria Keris Bali Unit mendoyo,"Seketariat yayasan kesatria keris bali unit, Yeh Embang, Kec. Mendoyo, Kabupaten Jembrana, Bali 82261","Yeh Embang, Kec. Mendoyo, Kabupaten Jembrana",BALI,82261.0,Indonesia,,,,-8.3925822,114.7525741,https://maps.google.com/?cid=0x0:0xd05c5c1da263b6ad,
perumahan,Komplek perumahan,umah dek alit,"JMXW+H8, Pergung, Kec. Mendoyo, Kabupaten Jembrana, Bali 82261","Pergung, Kec. Mendoyo, Kabupaten Jembrana",BALI,82261.0,Indonesia,,,,-8.3510185,114.6958189,https://maps.google.com/?cid=0x0:0x22481311c8916cca,
perumahan,Komplek perumahan,Rumah Gusprabu,"MPGG+XP2, Penyaringan, Kec. Mendoyo, Kabupaten Jembrana, Bali","Kabupaten Jembrana, Bali",BALI,,Indonesia,,,,-8.3226158,114.7267733,https://maps.google.com/?cid=0x0:0x97fa5b2f0e3df8b,
perumahan,Komplek perumahan,Kompleks perumahan,"JMMW+72V, Jl. Laksmana, Tegal Cangkring, Kec. Mendoyo, Kabupaten Jembrana, Bali 82261","Jl. Laksmana, Tegal Cangkring, Kec. Mendoyo, Kabupaten Jembrana",BALI,82261.0,Indonesia,,,,-8.366752,114.695049,https://maps.google.com/?cid=0x0:0x8d673eca60166583,
perumahan,Komplek perumahan,Rumah Ni Luh Widiastini (I ketut permada Negara),"JMMQ+9P8, Jl. Sudirman, Pergung, Kec. Mendoyo, Kabupaten Jembrana, Bali 82261","Jl. Sudirman, Pergung, Kec. Mendoyo, Kabupaten Jembrana",BALI,82261.0,Indonesia,,,,-8.3665772,114.6893306,https://maps.google.com/?cid=0x0:0x1a3a702624e6a903,
perumahan,Komplek perumahan,Pesona alam mendoyo,"JMPJ+JXF, Unnamed Rd, Pohsanten, Kec. Mendoyo, Kabupaten Jembrana, Bali 82261","Unnamed Rd, Pohsanten, Kec. Mendoyo, Kabupaten Jembrana",BALI,82261.0,Indonesia,87861694545.0,,,-8.3646271,114.6828481,https://maps.google.com/?cid=0x0:0xbbed413c0830cf38,
perumahan,Komplek perumahan,Rumah kecil,"JMFX+JQJ, Jl. Salak, Tegal Cangkring, Kec. Mendoyo, Kabupaten Jembrana, Bali 82261","Jl. Salak, Tegal Cangkring, Kec. Mendoyo, Kabupaten Jembrana",BALI,82261.0,Indonesia,,,,-8.3759186,114.6993769,https://maps.google.com/?cid=0x0:0x7c019e72cc969133,
perumahan,Komplek perumahan,Rumah candra,"JPM4+3X4, Penyaringan, Kec. Mendoyo, Kabupaten Jembrana, Bali 82261","Penyaringan, Kec. Mendoyo, Kabupaten Jembrana",BALI,82261.0,Indonesia,,,,-8.3673588,114.7074509,https://maps.google.com/?cid=0x0:0x898cf85eaf9f2b1c,
perumahan,Komplek perumahan,Rumah agus sarjana (made sudiarta),"Balai Banjar Petapan Kelod, Pergung, Kec. Mendoyo, Kabupaten Jembrana, Bali 82261","Pergung, Kec. Mendoyo, Kabupaten Jembrana",BALI,82261.0,Indonesia,,,,-8.3629237,114.6879751,https://maps.google.com/?cid=0x0:0x742db8b4543ffa7d,
perumahan,Komplek perumahan,RUMAH @Mang farel,"MP2G+V7Q, Penyaringan, Kec. Mendoyo, Kabupaten Jembrana, Bali 82261","Penyaringan, Kec. Mendoyo, Kabupaten Jembrana",BALI,82261.0,Indonesia,,,,-8.3481301,114.7266382,https://maps.google.com/?cid=0x0:0x8c8b1b78f39d6576,
perumahan,Komplek perumahan,Darmawan,"MP4C+8CH, Penyaringan, Kec. Mendoyo, Kabupaten Jembrana, Bali 82261","Penyaringan, Kec. Mendoyo, Kabupaten Jembrana",BALI,82261.0,Indonesia,,,,-8.3435297,114.7209482,https://maps.google.com/?cid=0x0:0x8d2d3c48d4863dce,
perumahan,Komplek perumahan,Kampung Mendoyo,"JMQ9+F9M, Mendoyo Dauh Tukad, Kec. Mendoyo, Kabupaten Jembrana, Bali 82261","Mendoyo Dauh Tukad, Kec. Mendoyo, Kabupaten Jembrana",BALI,82261.0,Indonesia,,,,-8.3612435,114.6683931,https://maps.google.com/?cid=0x0:0xd1c376f43c39df0f,
perumahan,Perumahan,Pondok Dek adi,"JPX9+HVW, Penyaringan, Kec. Mendoyo, Kabupaten Jembrana, Bali 82261","Penyaringan, Kec. Mendoyo, Kabupaten Jembrana",BALI,82261.0,Indonesia,85960610650.0,,,-8.3500724,114.7197167,https://maps.google.com/?cid=0x0:0x6a578af78f4de707,
perumahan,Pembangunan Perumahan,Rumah Apri Praditya,"JMPC+H63, Mendoyo Dauh Tukad, Kec. Mendoyo, Kabupaten Jembrana, Bali 82261","Mendoyo Dauh Tukad, Kec. Mendoyo, Kabupaten Jembrana",BALI,82261.0,Indonesia,,,,-8.3636072,114.6705322,https://maps.google.com/?cid=0x0:0x97c893a80027f7d3,
perumahan,Komplek perumahan,Kentang house,"JPHH+P3C, Penyaringan, Kec. Mendoyo, Kabupaten Jembrana, Bali 82261","Penyaringan, Kec. Mendoyo, Kabupaten Jembrana",BALI,82261.0,Indonesia,,,,-8.3704034,114.7274033,https://maps.google.com/?cid=0x0:0x220880aca16c7477,
perumahan,Komplek perumahan,Rumah ajik happy,"MQ82+4FX, Yeh Embang Kauh, Kec. Mendoyo, Kabupaten Jembrana, Bali 82261","Yeh Embang Kauh, Kec. Mendoyo, Kabupaten Jembrana",BALI,82261.0,Indonesia,,,,-8.3347462,114.7517463,https://maps.google.com/?cid=0x0:0x9cd9c5b1cbb8c7fd,
perumahan,Komplek perumahan,Rumah Dekong,"JMJX+W3H Banjar Petapan Persidi, Jl. Kartini No.99, Tegal Cangkring, Kec. Mendoyo, Kabupaten Jembrana, Bali 82261","Jl. Kartini No.99, Tegal Cangkring, Kec. Mendoyo, Kabupaten Jembrana",BALI,82261.0,Indonesia,81337555666.0,,,-8.3700132,114.694015,https://maps.google.com/?cid=0x0:0xe2079e7f5305c570,
perumahan,perumahan,Bali 82212,"Kec. Negara, Kabupaten Jembrana, Bali","Kabupaten Jembrana, Bali",BALI,,Indonesia,,,,-8.2907104,114.6252282,https://maps.google.com/?cid=0x0:0x1c00c5eb6016c270,
perumahan,Komplek perumahan,Perumahan negara villa,"MJ4J+WMX, Pendem, Kec. Negara, Kabupaten Jembrana, Bali 82218","Pendem, Kec. Negara, Kabupaten Jembrana",BALI,82218.0,Indonesia,,,,-8.3426421,114.6317326,https://maps.google.com/?cid=0x0:0xf29047bafbd24037,
perumahan,Pembangunan Perumahan,Rumah DiptaWiga,"MJ34+HGJ, Jl. Desa Kaliakah, Kaliakah, Kec. Negara, Kabupaten Jembrana, Bali 82212","Jl. Desa Kaliakah, Kaliakah, Kec. Negara, Kabupaten Jembrana",BALI,82212.0,Indonesia,,,,-8.3460449,114.6062637,https://maps.google.com/?cid=0x0:0xdb03e88f2af66501,
perumahan,Komplek perumahan,Condro,"MJ7C+C2P, Tempek vI, Banjar Kebon, Baler Bale Agung, Kec. Negara, Kabupaten Jembrana, Bali 82218","Tempek vI, Banjar Kebon, Baler Bale Agung, Kec. Negara, Kabupaten Jembrana",BALI,82218.0,Indonesia,,,,-8.3364113,114.6200653,https://maps.google.com/?cid=0x0:0xc28d8ba1f814f863,
perumahan,perumahan,Perumahan Graha Baluk 1,,,BALI,,Indonesia,85858872293.0,,,-8.3596957,114.6380758,https://maps.google.com/?cid=0x0:0xf92f74aab545260f,
perumahan,Perumahan,Negara bali,"PJ6H+R74, Baler Bale Agung, Kec. Negara, Kabupaten Jembrana, Bali","Kabupaten Jembrana, Bali",BALI,,Indonesia,,,,-8.2879909,114.6281974,https://maps.google.com/?cid=0x0:0xb7d04a95cf19c07,
perumahan,Komplek perumahan,PERUMAHAN MULYA JAYA NEGARA VILLA PENDEM,"MJ4J+GPF, Pendem, Kec. Jembrana, Kabupaten Jembrana, Bali","Kabupaten Jembrana, Bali",BALI,,Indonesia,,,,-8.3441013,114.6316487,https://maps.google.com/?cid=0x0:0x53744181aaa86983,
perumahan,Komplek perumahan,RUMAH PAK KETUT WARMA,"Berangbang, Kec. Negara, Kabupaten Jembrana, Bali 82218","Kec. Negara, Kabupaten Jembrana",BALI,82218.0,Indonesia,,,,-8.3067795,114.6058664,https://maps.google.com/?cid=0x0:0x3150d8144479c5c0,
perumahan,Komplek perumahan,Rumdin Sekar,"MJ69+33C, Baler Bale Agung, Kec. Negara, Kabupaten Jembrana, Bali 82212","Baler Bale Agung, Kec. Negara, Kabupaten Jembrana",BALI,82212.0,Indonesia,,,,-8.3398111,114.6176545,https://maps.google.com/?cid=0x0:0x70f0451aa87913cf,
perumahan,Pembangunan Perumahan,graha made profil,"Jl. Nusa Indah, Baler Bale Agung, Kec. Negara, Kabupaten Jembrana, Bali 82218","Baler Bale Agung, Kec. Negara, Kabupaten Jembrana",BALI,82218.0,Indonesia,82144842741.0,,,-8.3383189,114.6194129,https://maps.google.com/?cid=0x0:0x3ff8719d008fd8e,
perumahan,Perumahan,dimas wirawan,"PJ53+PJ, Berangbang, Kec. Negara, Kabupaten Jembrana, Bali 82218","Berangbang, Kec. Negara, Kabupaten Jembrana",BALI,82218.0,Indonesia,881038618001.0,,,-8.2904139,114.6036116,https://maps.google.com/?cid=0x0:0x6de0ac72095e7504,
perumahan,Komplek perumahan,RUMAH YURA,"MJHC+4W3, Baler Bale Agung, Kec. Negara, Kabupaten Jembrana, Bali","Kabupaten Jembrana, Bali",BALI,,Indonesia,,,,-8.32142,114.622353,https://maps.google.com/?cid=0x0:0xf7d86c7b7ad9f2b0,
perumahan,Pembangunan Perumahan,Posko MamunG,"MJJF+257, Pendem, Kec. Jembrana, Kabupaten Jembrana, Bali 82218","Pendem, Kec. Jembrana, Kabupaten Jembrana",BALI,82218.0,Indonesia,,,,-8.3199728,114.6229364,https://maps.google.com/?cid=0x0:0x57c7f5ac9a4e8d88,
perumahan,Komplek perumahan,R.Leong jr,"MJHF+M48, Pendem, Kec. Negara, Kabupaten Jembrana, Bali 82218","Pendem, Kec. Negara, Kabupaten Jembrana",BALI,82218.0,Indonesia,,,,-8.3209306,114.623203,https://maps.google.com/?cid=0x0:0x7c154de2dd70f13f,
perumahan,Kafe,Krisna,"MJ97+W4R, Berangbang, Kec. Negara, Kabupaten Jembrana, Bali 82212","Berangbang, Kec. Negara, Kabupaten Jembrana",BALI,82212.0,Indonesia,,,,-8.3302074,114.6128122,https://maps.google.com/?cid=0x0:0x2dd21355898216b1,
perumahan,Komplek perumahan,Umah Arsya,"MJ85+M63, Kaliakah, Kec. Negara, Kabupaten Jembrana, Bali 82212","Kaliakah, Kec. Negara, Kabupaten Jembrana",BALI,82212.0,Indonesia,,,,-8.3333355,114.6081785,https://maps.google.com/?cid=0x0:0x226571b75c17a416,
perumahan,Pembangunan Perumahan,DE KUBU 86,"MJV4+889, Berangbang, Kec. Negara, Kabupaten Jembrana, Bali 82218","Berangbang, Kec. Negara, Kabupaten Jembrana",BALI,82218.0,Indonesia,,,,-8.3066725,114.6060544,https://maps.google.com/?cid=0x0:0xbb3a7f205f081d25,
perumahan,Komplek perumahan,Pak dewa darma yasa,"MJ99+MM8, Baler Bale Agung, Kec. Negara, Kabupaten Jembrana, Bali 82218","Baler Bale Agung, Kec. Negara, Kabupaten Jembrana",BALI,82218.0,Indonesia,,,,-8.3308294,114.6191892,https://maps.google.com/?cid=0x0:0x14dbb3e544ce6cdb,
perumahan,Komplek perumahan,Deey House,"PJ53+PJ, Berangbang, Kec. Negara, Kabupaten Jembrana, Bali 82218","Berangbang, Kec. Negara, Kabupaten Jembrana",BALI,82218.0,Indonesia,881037161408.0,,,-8.291401,114.6045,https://maps.google.com/?cid=0x0:0x213c3c395f819f95,
perumahan,Komplek perumahan,Rumah Tungurah cucun pekak Planduk,"MJHQ+4MP, Jl. Sawe Rangsasa, Dauhwaru, Kec. Jembrana, Kabupaten Jembrana, Bali 82218","Jl. Sawe Rangsasa, Dauhwaru, Kec. Jembrana, Kabupaten Jembrana",BALI,82218.0,Indonesia,,,,-8.3228762,114.6390412,https://maps.google.com/?cid=0x0:0xf7596c2a81308f21,
perumahan,Pembangunan Perumahan,GD Residence By Bali Banteng Supplier,"Jl. Kamboja No.11, Baluk, Kec. Negara, Kabupaten Jembrana, Bali 82213","Baluk, Kec. Negara, Kabupaten Jembrana",BALI,82213.0,Indonesia,85935323639.0,,,-8.3604854,114.596246,https://maps.google.com/?cid=0x0:0xedecfb693ab49e17,
perumahan,Komplek perumahan,Perumahan Gd Residence,"JJP4+R5P, Baluk 1, Baluk, Kec. Negara, Kabupaten Jembrana, Bali 82214","Baluk 1, Baluk, Kec. Negara, Kabupaten Jembrana",BALI,82214.0,Indonesia,85935323639.0,,,-8.3629048,114.6054407,https://maps.google.com/?cid=0x0:0xceb857138854d582,
perumahan,Komplek perumahan,Tanah Jalan Menori BB Agung Negara,"Jl. Menori, Baler Bale Agung, Kec. Negara, Kabupaten Jembrana, Bali 82218","Baler Bale Agung, Kec. Negara, Kabupaten Jembrana",BALI,82218.0,Indonesia,8151675227.0,,,-8.3485028,114.6162573,https://maps.google.com/?cid=0x0:0xf6637bab4a1945a7,
perumahan,Komplek perumahan,Komplek Perumahan BMKG,"MJ68+4XH, Baler Bale Agung, Kec. Negara, Kabupaten Jembrana, Bali 82218","Baler Bale Agung, Kec. Negara, Kabupaten Jembrana",BALI,82218.0,Indonesia,,,,-8.3396908,114.6174773,https://maps.google.com/?cid=0x0:0xb025ac9fb3647079,
perumahan,Komplek perumahan,PERUM MP GRAHA,"MJ6C+P56, Baler Bale Agung, Kec. Negara, Kabupaten Jembrana, Bali 82218","Baler Bale Agung, Kec. Negara, Kabupaten Jembrana",BALI,82218.0,Indonesia,,,,-8.3382005,114.6203774,https://maps.google.com/?cid=0x0:0x1aee84ecde33c159,
perumahan,Vila,Villa House,"Jl. Menori No.2, Baler Bale Agung, Kec. Negara, Kabupaten Jembrana, Bali 82218","Baler Bale Agung, Kec. Negara, Kabupaten Jembrana",BALI,82218.0,Indonesia,,,,-8.3500884,114.6165531,https://maps.google.com/?cid=0x0:0xd9cf13bde0f40155,
perumahan,Perumahan,Rumah Sawe Negara,"JJVR+WP3, Jl. Panji Sakti, Dauhwaru, Kec. Jembrana, Kabupaten Jembrana, Bali 82218","Jl. Panji Sakti, Dauhwaru, Kec. Jembrana, Kabupaten Jembrana",BALI,82218.0,Indonesia,,,,-8.3552346,114.6417846,https://maps.google.com/?cid=0x0:0x563f6e67f21bc4bb,
perumahan,Pembangunan Perumahan,Rumah Negara,"JJW6+5WC, Jl. Kresna, Banjar Tengah, Kec. Negara, Kabupaten Jembrana, Bali 82218","Jl. Kresna, Banjar Tengah, Kec. Negara, Kabupaten Jembrana",BALI,82218.0,Indonesia,,,,-8.3545629,114.6122586,https://maps.google.com/?cid=0x0:0x3849f8a0385c3040,
perumahan,Komplek perumahan,Komang Tavisha,"MJ77+MP9, Jl. Desa Berangbang, Berangbang, Kec. Negara, Kabupaten Jembrana, Bali 82218","Jl. Desa Berangbang, Berangbang, Kec. Negara, Kabupaten Jembrana",BALI,82218.0,Indonesia,,,,-8.335845,114.6143504,https://maps.google.com/?cid=0x0:0x57b05894063254e9,
perumahan,perumahan,Bali 82213,"Kabupaten Jembrana, Bali","Kabupaten Jembrana, Bali",BALI,,Indonesia,,,,-8.2534286,114.6549185,https://maps.google.com/?cid=0x0:0x1c00c5eb6016c280,
perumahan,Perumahan,Perumahan Kunti Asri,"Banjar Tengah, Kec. Negara, Kabupaten Jembrana, Bali 82213","Kec. Negara, Kabupaten Jembrana",BALI,82213.0,Indonesia,,,,-8.3562716,114.6084543,https://maps.google.com/?cid=0x0:0x8c9ff9d45e446c8f,
perumahan,Perumahan,Perumahan Permata Baluk Permai,"JHRW+4R7, Baluk, Kec. Negara, Kabupaten Jembrana, Bali 82213","Baluk, Kec. Negara, Kabupaten Jembrana",BALI,82213.0,Indonesia,,,,-8.3597155,114.5970422,https://maps.google.com/?cid=0x0:0xcccdad053baa922a,
perumahan,Perumahan,Negara bali,"PJ6H+R74, Baler Bale Agung, Kec. Negara, Kabupaten Jembrana, Bali","Kabupaten Jembrana, Bali",BALI,,Indonesia,,,,-8.2879909,114.6281974,https://maps.google.com/?cid=0x0:0xb7d04a95cf19c07,
perumahan,Komplek perumahan,PERUMAHAN MULYA JAYA NEGARA VILLA PENDEM,"MJ4J+GPF, Pendem, Kec. Jembrana, Kabupaten Jembrana, Bali","Kabupaten Jembrana, Bali",BALI,,Indonesia,,,,-8.3441013,114.6316487,https://maps.google.com/?cid=0x0:0x53744181aaa86983,
perumahan,Perumahan,Perumahan Puri Utama NO 10,"JJV5+WJ2, Jl. Kunti, Banjar Tengah, Kec. Negara, Kabupaten Jembrana, Bali 82213","Jl. Kunti, Banjar Tengah, Kec. Negara, Kabupaten Jembrana",BALI,82213.0,Indonesia,87762611985.0,,,-8.35524,114.6090067,https://maps.google.com/?cid=0x0:0xc93ca3f87147b232,
perumahan,Pembangunan Perumahan,PERUMAHAN AMADINA,"JJF2+2MP, Lelateng, Kec. Negara, Kabupaten Jembrana, Bali 82214","Lelateng, Kec. Negara, Kabupaten Jembrana",BALI,82214.0,Indonesia,81916812260.0,,,-8.3774073,114.6017076,https://maps.google.com/?cid=0x0:0xe478f47eadebc98a,
perumahan,perumahan,Perumahan Graha Baluk 1,,,BALI,,Indonesia,85858872293.0,,,-8.3596957,114.6380758,https://maps.google.com/?cid=0x0:0xf92f74aab545260f,
perumahan,Pembangunan Perumahan,Rumah ketut darnaya,"Jl. Bima No.30, Baluk, Kec. Negara, Kabupaten Jembrana, Bali 82213","Baluk, Kec. Negara, Kabupaten Jembrana",BALI,82213.0,Indonesia,,,,-8.3595433,114.5916124,https://maps.google.com/?cid=0x0:0xc3f118280203669e,
perumahan,Pembangunan Perumahan,Rumah Subsidi Jembrana,"Jl. Udayana No.98, Banjar Tengah, Kec. Negara, Kabupaten Jembrana, Bali 82213","Banjar Tengah, Kec. Negara, Kabupaten Jembrana",BALI,82213.0,Indonesia,,,,-8.3543563,114.6116692,https://maps.google.com/?cid=0x0:0x10b25ea55ec0c839,
perumahan,Komplek perumahan,Rumah Ajik Pradnya,"PJ38+472, Berangbang, Kec. Negara, Kabupaten Jembrana, Bali 82218","Berangbang, Kec. Negara, Kabupaten Jembrana",BALI,82218.0,Indonesia,,,,-8.2972748,114.6156064,https://maps.google.com/?cid=0x0:0xffa63c80220fd762,
perumahan,Pembangunan Perumahan,DE KUBU 86,"MJV4+889, Berangbang, Kec. Negara, Kabupaten Jembrana, Bali 82218","Berangbang, Kec. Negara, Kabupaten Jembrana",BALI,82218.0,Indonesia,,,,-8.3066725,114.6060544,https://maps.google.com/?cid=0x0:0xbb3a7f205f081d25,
perumahan,Perumahan,gurutu house,"PJ76+H24, Jl. Desa Berangbang, Berangbang, Kec. Negara, Kabupaten Jembrana, Bali","Kabupaten Jembrana, Bali",BALI,,Indonesia,,,,-8.2861092,114.6100885,https://maps.google.com/?cid=0x0:0xa0bdf2fb5062b554,
perumahan,Komplek perumahan,Rumah pak gede arnaya,"PJ39+PR, Berangbang, Kec. Negara, Kabupaten Jembrana, Bali","Kabupaten Jembrana, Bali",BALI,,Indonesia,,,,-8.295726,114.619588,https://maps.google.com/?cid=0x0:0x3d62def975f72f1,
perumahan,Komplek perumahan,Agussantika203,"MMW6+C9, Batuagung, Kec. Jembrana, Kabupaten Jembrana, Bali","Kabupaten Jembrana, Bali",BALI,,Indonesia,,,,-8.3039162,114.6608868,https://maps.google.com/?cid=0x0:0x65640b918d72fab3,
perumahan,Komplek perumahan,RUMAH YURA,"MJHC+4W3, Baler Bale Agung, Kec. Negara, Kabupaten Jembrana, Bali","Kabupaten Jembrana, Bali",BALI,,Indonesia,,,,-8.32142,114.622353,https://maps.google.com/?cid=0x0:0xf7d86c7b7ad9f2b0,
perumahan,Komplek perumahan,Deey House,"PJ53+PJ, Berangbang, Kec. Negara, Kabupaten Jembrana, Bali 82218","Berangbang, Kec. Negara, Kabupaten Jembrana",BALI,82218.0,Indonesia,881037161408.0,,,-8.291401,114.6045,https://maps.google.com/?cid=0x0:0x213c3c395f819f95,
perumahan,Pembangunan Perumahan,PutriJalu,"PJ45+MJ7, Berangbang, Kec. Negara, Kabupaten Jembrana, Bali 82218","Berangbang, Kec. Negara, Kabupaten Jembrana",BALI,82218.0,Indonesia,87750066061.0,,,-8.2933364,114.6090314,https://maps.google.com/?cid=0x0:0xb770f848840e9030,
perumahan,Komplek perumahan,Yura no uchi,"MJCF+H5W, Lingkungan pangkung manggis, Baler Bale Agung, Kec. Negara, Kabupaten Jembrana, Bali 82218","Lingkungan pangkung manggis, Baler Bale Agung, Kec. Negara, Kabupaten Jembrana",BALI,82218.0,Indonesia,,,,-8.3285218,114.6229491,https://maps.google.com/?cid=0x0:0x6e6d2b49376ec014,
perumahan,Perhimpunan Pengembang Perumahan,Rumah NantaMelda,"MJX8+GCG, Berangbang, Kec. Negara, Kabupaten Jembrana, Bali","Kabupaten Jembrana, Bali",BALI,,Indonesia,,,,-8.3011865,114.6160744,https://maps.google.com/?cid=0x0:0xeb197d1452a67aec,
perumahan,Pembangunan Perumahan,Bali karya matrial,"Jl. Nakula No.4 3B, Banjar Tengah, Kec. Negara, Kabupaten Jembrana, Bali 82213","Banjar Tengah, Kec. Negara, Kabupaten Jembrana",BALI,82213.0,Indonesia,,,,-8.3572795,114.6068111,https://maps.google.com/?cid=0x0:0x4d10ee29a0e59d5a,
perumahan,Pembangunan Perumahan,graha made profil,"Jl. Nusa Indah, Baler Bale Agung, Kec. Negara, Kabupaten Jembrana, Bali 82218","Baler Bale Agung, Kec. Negara, Kabupaten Jembrana",BALI,82218.0,Indonesia,82144842741.0,,,-8.3383189,114.6194129,https://maps.google.com/?cid=0x0:0x3ff8719d008fd8e,
perumahan,Komplek perumahan,RUMAH GURU KADE SUCITRA / KADE DWIPAYANA,"MJR3+F64, Berangbang, Kec. Negara, Kabupaten Jembrana, Bali 82218","Berangbang, Kec. Negara, Kabupaten Jembrana",BALI,82218.0,Indonesia,,,,-8.3088667,114.6030755,https://maps.google.com/?cid=0x0:0x4f6ddd535b5f44fe,
perumahan,Asosiasi pemilik rumah,Perumahan wana asri,"MJ59+8RV, Baler Bale Agung, Kec. Negara, Kabupaten Jembrana, Bali 82218","Baler Bale Agung, Kec. Negara, Kabupaten Jembrana",BALI,82218.0,Indonesia,,,,-8.3416402,114.6195336,https://maps.google.com/?cid=0x0:0x1a6355328461a75,
perumahan,Pembangunan Perumahan,Rumah Negara,"JJW6+5WC, Jl. Kresna, Banjar Tengah, Kec. Negara, Kabupaten Jembrana, Bali 82218","Jl. Kresna, Banjar Tengah, Kec. Negara, Kabupaten Jembrana",BALI,82218.0,Indonesia,,,,-8.3545629,114.6122586,https://maps.google.com/?cid=0x0:0x3849f8a0385c3040,
perumahan,Komplek perumahan,Rumah orange negara,"JJP7+6J7, Danau Poso, Lelateng, Kec. Negara, Kabupaten Jembrana, Bali 82218","Danau Poso, Lelateng, Kec. Negara, Kabupaten Jembrana",BALI,82218.0,Indonesia,,,,-8.3644614,114.614062,https://maps.google.com/?cid=0x0:0xf6edf29ed69df5b9,
perumahan,Komplek perumahan,Tanah Jalan Menori BB Agung Negara,"Jl. Menori, Baler Bale Agung, Kec. Negara, Kabupaten Jembrana, Bali 82218","Baler Bale Agung, Kec. Negara, Kabupaten Jembrana",BALI,82218.0,Indonesia,8151675227.0,,,-8.3485028,114.6162573,https://maps.google.com/?cid=0x0:0xf6637bab4a1945a7,
perumahan,Komplek perumahan,BTN Munduk Villa,"JJVX+JP6, Batuagung, Kec. Negara, Kabupaten Jembrana, Bali 82218","Batuagung, Kec. Negara, Kabupaten Jembrana",BALI,82218.0,Indonesia,81939295710.0,,,-8.3559747,114.6492623,https://maps.google.com/?cid=0x0:0xb8e097527d9841d4,
perumahan,Perumahan,Rumah Sawe Negara,"JJVR+WP3, Jl. Panji Sakti, Dauhwaru, Kec. Jembrana, Kabupaten Jembrana, Bali 82218","Jl. Panji Sakti, Dauhwaru, Kec. Jembrana, Kabupaten Jembrana",BALI,82218.0,Indonesia,,,,-8.3552346,114.6417846,https://maps.google.com/?cid=0x0:0x563f6e67f21bc4bb,
perumahan,perumahan,Bali 82214,"Kec. Negara, Kabupaten Jembrana, Bali","Kabupaten Jembrana, Bali",BALI,,Indonesia,,,,-8.3762569,114.5925663,https://maps.google.com/?cid=0x0:0x1c00c5eb6016c290,
perumahan,Pembangunan Perumahan,Perumahan Nadhi Kencana,"JHCX+5WX, Lelateng, Kec. Negara, Kabupaten Jembrana, Bali 82214","Lelateng, Kec. Negara, Kabupaten Jembrana",BALI,82214.0,Indonesia,8113888638.0,,,-8.3795081,114.5998448,https://maps.google.com/?cid=0x0:0x465c28afc8414749,
perumahan,Pusat Bisnis,PERUMAHAN HUMA LESTARI TEGAL BADENG BARAT,"Jl. Kayu Mas, Tegal Badeng Bar., Kec. Negara, Kabupaten Jembrana, Bali 82218","Tegal Badeng Bar., Kec. Negara, Kabupaten Jembrana",BALI,82218.0,Indonesia,81999398556.0,,,-8.3652795,114.5897283,https://maps.google.com/?cid=0x0:0x53189f1250142a2e,
perumahan,Komplek perumahan,Perumahan Sri Wedari Awen Negara Jembrana,"JJC2+JHM, Lelateng, Kec. Negara, Kabupaten Jembrana, Bali 82214","Lelateng, Kec. Negara, Kabupaten Jembrana",BALI,82214.0,Indonesia,81999914379.0,,,-8.3784057,114.6014142,https://maps.google.com/?cid=0x0:0x3b4cb313911425d5,
perumahan,Komplek perumahan,Perumahan Gd Residence,"JJP4+R5P, Baluk 1, Baluk, Kec. Negara, Kabupaten Jembrana, Bali 82214","Baluk 1, Baluk, Kec. Negara, Kabupaten Jembrana",BALI,82214.0,Indonesia,85935323639.0,,,-8.3629048,114.6054407,https://maps.google.com/?cid=0x0:0xceb857138854d582,
perumahan,Perumahan,TRESNA'S HOME,"Baluk, Kec. Negara, Kabupaten Jembrana, Bali 82214","Kec. Negara, Kabupaten Jembrana",BALI,82214.0,Indonesia,,,,-8.3631854,114.5944987,https://maps.google.com/?cid=0x0:0xf00318a5780da85e,
perumahan,Pembangunan Perumahan,PERUMAHAN AMADINA,"JJF2+2MP, Lelateng, Kec. Negara, Kabupaten Jembrana, Bali 82214","Lelateng, Kec. Negara, Kabupaten Jembrana",BALI,82214.0,Indonesia,81916812260.0,,,-8.3774073,114.6017076,https://maps.google.com/?cid=0x0:0xe478f47eadebc98a,
perumahan,Kantor Perusahaan,Perum Ayung Lestari II,"Tegal Badeng Bar., Kec. Negara, Kabupaten Jembrana, Bali 82218","Kec. Negara, Kabupaten Jembrana",BALI,82218.0,Indonesia,,,,-8.3690036,114.5870376,https://maps.google.com/?cid=0x0:0xc94ae5b82eb0a9a7,
perumahan,Perumahan,Perumahan Calysta Residance,"JJG2+RP8, Tegal Badeng Tim., Kec. Negara, Kabupaten Jembrana, Bali 82215","Tegal Badeng Tim., Kec. Negara, Kabupaten Jembrana",BALI,82215.0,Indonesia,,,,-8.3723837,114.6024281,https://maps.google.com/?cid=0x0:0x7c831ed57b4f3efa,
perumahan,Pembangunan Perumahan,GD Residence By Bali Banteng Supplier,"Jl. Kamboja No.11, Baluk, Kec. Negara, Kabupaten Jembrana, Bali 82213","Baluk, Kec. Negara, Kabupaten Jembrana",BALI,82213.0,Indonesia,85935323639.0,,,-8.3604854,114.596246,https://maps.google.com/?cid=0x0:0xedecfb693ab49e17,
perumahan,Komplek perumahan,Perumahan negara villa,"MJ4J+WMX, Pendem, Kec. Negara, Kabupaten Jembrana, Bali 82218","Pendem, Kec. Negara, Kabupaten Jembrana",BALI,82218.0,Indonesia,,,,-8.3426421,114.6317326,https://maps.google.com/?cid=0x0:0xf29047bafbd24037,
perumahan,Komplek perumahan,paksuenyahome The Geloun's,"JHHR+HH9, Tegal Badeng Bar., Kec. Negara, Kabupaten Jembrana, Bali 82214","Tegal Badeng Bar., Kec. Negara, Kabupaten Jembrana",BALI,82214.0,Indonesia,,,,-8.3710913,114.5914834,https://maps.google.com/?cid=0x0:0xaa413c92ccd5006b,
perumahan,Pembangunan Perumahan,Rumah mbh edok,"JHGR+XV4, Tegal Badeng Tim., Kec. Negara, Kabupaten Jembrana, Bali 82214","Tegal Badeng Tim., Kec. Negara, Kabupaten Jembrana",BALI,82214.0,Indonesia,,,,-8.3726056,114.5921971,https://maps.google.com/?cid=0x0:0x980bf9b41671bd44,
perumahan,Komplek perumahan,perumahan,"JJM5+R34, Jl. Danau Tamblingan, Lelateng, Kec. Negara, Kabupaten Jembrana, Bali","Kabupaten Jembrana, Bali",BALI,,Indonesia,,,,-8.3654889,114.6077178,https://maps.google.com/?cid=0x0:0x6e9a04dc53f49498,
perumahan,perumahan,Rumah btn bayangkara,"MH2W+FJW, Banyu Biru, Kec. Negara, Kabupaten Jembrana, Bali","Kabupaten Jembrana, Bali",BALI,,Indonesia,,,,-8.3487561,114.5965695,https://maps.google.com/?cid=0x0:0x7bc464449ddc7578,
perumahan,Pembangunan Perumahan,KEANU PUNYA,"JHMV+9X, Tegal Badeng Tim., Kec. Negara, Kabupaten Jembrana, Bali 82214","Tegal Badeng Tim., Kec. Negara, Kabupaten Jembrana",BALI,82214.0,Indonesia,,,,-8.366502,114.594904,https://maps.google.com/?cid=0x0:0x4853c02b0e32e423,
perumahan,Komplek perumahan,Efi dan Angga,"JHGR+HJM, Tegal Badeng Tim., Kec. Negara, Kabupaten Jembrana, Bali 82214","Tegal Badeng Tim., Kec. Negara, Kabupaten Jembrana",BALI,82214.0,Indonesia,,,,-8.3733122,114.5919798,https://maps.google.com/?cid=0x0:0x49157d062fec9e5b,
perumahan,Komplek perumahan,Perumahan Keluarga Su,"Jl. Danau Poso No.22, Lelateng, Kec. Negara, Kabupaten Jembrana, Bali 82218","Lelateng, Kec. Negara, Kabupaten Jembrana",BALI,82218.0,Indonesia,,,,-8.3677338,114.6169895,https://maps.google.com/?cid=0x0:0x6660bf09baa181f4,
perumahan,Pembangunan Perumahan,home udaa,"JHPX+49, Baluk, Kec. Negara, Kabupaten Jembrana, Bali 82214","Baluk, Kec. Negara, Kabupaten Jembrana",BALI,82214.0,Indonesia,,,,-8.3647367,114.598435,https://maps.google.com/?cid=0x0:0xb646f7c4ee60ac36,
perumahan,Komplek perumahan,Widya N,"JJ92+24V, Jl. Raya Negara-Pengambengan, Lelateng, Kec. Negara, Kabupaten Jembrana, Bali 82214","Jl. Raya Negara-Pengambengan, Lelateng, Kec. Negara, Kabupaten Jembrana",BALI,82214.0,Indonesia,,,,-8.3827373,114.6001257,https://maps.google.com/?cid=0x0:0xc1eed7819f21716,
perumahan,Perumahan,"Perum. BTN Badeng Indah, Tegal Badeng Timur","JHGR+XV4, Jl. Nakula, Tegal Badeng Tim., Kec. Negara, Kabupaten Jembrana, Bali 82214","Jl. Nakula, Tegal Badeng Tim., Kec. Negara, Kabupaten Jembrana",BALI,82214.0,Indonesia,,,,-8.3726271,114.5934435,https://maps.google.com/?cid=0x0:0x21a3c68190318c26,
perumahan,Pembangunan Perumahan,Kampung baru,"JHHX+MCC, Tegal Badeng Tim., Kec. Negara, Kabupaten Jembrana, Bali 82214","Tegal Badeng Tim., Kec. Negara, Kabupaten Jembrana",BALI,82214.0,Indonesia,,,,-8.3708072,114.598505,https://maps.google.com/?cid=0x0:0x2664da80fecac3c,
perumahan,Pembangunan Perumahan,Residentque,"JHHR+2H4, Tegal Badeng Tim., Kec. Negara, Kabupaten Jembrana, Bali 82214","Tegal Badeng Tim., Kec. Negara, Kabupaten Jembrana",BALI,82214.0,Indonesia,,,,-8.3724982,114.5914662,https://maps.google.com/?cid=0x0:0x73c3d47479ce3903,
perumahan,Pembangunan Perumahan,Perumahan Baluk 1,"Baluk, Kec. Negara, Kabupaten Jembrana, Bali 82214","Kec. Negara, Kabupaten Jembrana",BALI,82214.0,Indonesia,,,,-8.3633934,114.6026149,https://maps.google.com/?cid=0x0:0xd723a5ac9c2b831c,
perumahan,Komplek perumahan,Perumahan Tri Kosala Asri,"JJF2+2WF, Lelateng, Kec. Negara, Kabupaten Jembrana, Bali 82214","Lelateng, Kec. Negara, Kabupaten Jembrana",BALI,82214.0,Indonesia,,,,-8.3774434,114.6022996,https://maps.google.com/?cid=0x0:0x45b7b746d4e333fc,
perumahan,Pembangunan Perumahan,Rumah Ngurah Irna,"JHHR+5V4, Tegal Badeng Tim., Kec. Negara, Kabupaten Jembrana, Bali 82214","Tegal Badeng Tim., Kec. Negara, Kabupaten Jembrana",BALI,82214.0,Indonesia,,,,-8.3721088,114.5922061,https://maps.google.com/?cid=0x0:0xb3c382195f2b2af9,
perumahan,Pembangunan Perumahan,Perum Giri Permata Residence Baluk,"JJP2+PVG, Jl. Danau Tamblingan, Tegal Badeng Tim., Kec. Negara, Kabupaten Jembrana, Bali 82214","Jl. Danau Tamblingan, Tegal Badeng Tim., Kec. Negara, Kabupaten Jembrana",BALI,82214.0,Indonesia,,,,-8.3631812,114.6022012,https://maps.google.com/?cid=0x0:0xf1c0cf8035161699,
perumahan,Pembangunan Perumahan,Perumahan Nadhi Kencana,"JHCX+5WX, Lelateng, Kec. Negara, Kabupaten Jembrana, Bali 82214","Lelateng, Kec. Negara, Kabupaten Jembrana",BALI,82214.0,Indonesia,8113888638.0,,,-8.3795081,114.5998448,https://maps.google.com/?cid=0x0:0x465c28afc8414749,
perumahan,perumahan,Bali 82215,"Tegal Badeng Tim., Kec. Negara, Kabupaten Jembrana, Bali","Kabupaten Jembrana, Bali",BALI,,Indonesia,,,,-8.371582,114.6059283,https://maps.google.com/?cid=0x0:0x1c00c5eb6016c2a0,
perumahan,Komplek perumahan,Perumahan Keluarga Su,"Jl. Danau Poso No.22, Lelateng, Kec. Negara, Kabupaten Jembrana, Bali 82218","Lelateng, Kec. Negara, Kabupaten Jembrana",BALI,82218.0,Indonesia,,,,-8.3677338,114.6169895,https://maps.google.com/?cid=0x0:0x6660bf09baa181f4,
perumahan,Komplek perumahan,Perumahan Sri Wedari Awen Negara Jembrana,"JJC2+JHM, Lelateng, Kec. Negara, Kabupaten Jembrana, Bali 82214","Lelateng, Kec. Negara, Kabupaten Jembrana",BALI,82214.0,Indonesia,81999914379.0,,,-8.3784057,114.6014142,https://maps.google.com/?cid=0x0:0x3b4cb313911425d5,
perumahan,Komplek perumahan,Perumahan negara villa,"MJ4J+WMX, Pendem, Kec. Negara, Kabupaten Jembrana, Bali 82218","Pendem, Kec. Negara, Kabupaten Jembrana",BALI,82218.0,Indonesia,,,,-8.3426421,114.6317326,https://maps.google.com/?cid=0x0:0xf29047bafbd24037,
perumahan,Komplek perumahan,Perumahan Gd Residence,"JJP4+R5P, Baluk 1, Baluk, Kec. Negara, Kabupaten Jembrana, Bali 82214","Baluk 1, Baluk, Kec. Negara, Kabupaten Jembrana",BALI,82214.0,Indonesia,85935323639.0,,,-8.3629048,114.6054407,https://maps.google.com/?cid=0x0:0xceb857138854d582,
perumahan,Kantor Perusahaan,BTN GRIYA GIRI BHUWANA GB I NO.6,"JJH2+2VC, Tegal Badeng Tim., Kec. Negara, Kabupaten Jembrana, Bali 82215","Tegal Badeng Tim., Kec. Negara, Kabupaten Jembrana",BALI,82215.0,Indonesia,,,,-8.3724444,114.6021535,https://maps.google.com/?cid=0x0:0x352713c54e2725df,
perumahan,Komplek perumahan,perumahan,"JJM5+R34, Jl. Danau Tamblingan, Lelateng, Kec. Negara, Kabupaten Jembrana, Bali","Kabupaten Jembrana, Bali",BALI,,Indonesia,,,,-8.3654889,114.6077178,https://maps.google.com/?cid=0x0:0x6e9a04dc53f49498,
perumahan,Pembangunan Perumahan,GD Residence By Bali Banteng Supplier,"Jl. Kamboja No.11, Baluk, Kec. Negara, Kabupaten Jembrana, Bali 82213","Baluk, Kec. Negara, Kabupaten Jembrana",BALI,82213.0,Indonesia,85935323639.0,,,-8.3604854,114.596246,https://maps.google.com/?cid=0x0:0xedecfb693ab49e17,
perumahan,Pembangunan Perumahan,PERUMAHAN AMADINA,"JJF2+2MP, Lelateng, Kec. Negara, Kabupaten Jembrana, Bali 82214","Lelateng, Kec. Negara, Kabupaten Jembrana",BALI,82214.0,Indonesia,81916812260.0,,,-8.3774073,114.6017076,https://maps.google.com/?cid=0x0:0xe478f47eadebc98a,
perumahan,Pembangunan Perumahan,Perumahan Baluk 1,"Baluk, Kec. Negara, Kabupaten Jembrana, Bali 82214","Kec. Negara, Kabupaten Jembrana",BALI,82214.0,Indonesia,,,,-8.3633934,114.6026149,https://maps.google.com/?cid=0x0:0xd723a5ac9c2b831c,
perumahan,Komplek perumahan,Rumah Kusuma,"JJP6+PV9, Lelateng, Kec. Negara, Kabupaten Jembrana, Bali 82218","Lelateng, Kec. Negara, Kabupaten Jembrana",BALI,82218.0,Indonesia,,,,-8.3635092,114.6121682,https://maps.google.com/?cid=0x0:0xc327d5a86e23e5a2,
perumahan,Komplek perumahan,Rumah orange negara,"JJP7+6J7, Danau Poso, Lelateng, Kec. Negara, Kabupaten Jembrana, Bali 82218","Danau Poso, Lelateng, Kec. Negara, Kabupaten Jembrana",BALI,82218.0,Indonesia,,,,-8.3644614,114.614062,https://maps.google.com/?cid=0x0:0xf6edf29ed69df5b9,
perumahan,Komplek perumahan,Koskosan,"JJH2+JRG, Tegal Badeng Tim., Kec. Negara, Kabupaten Jembrana, Bali 82215","Tegal Badeng Tim., Kec. Negara, Kabupaten Jembrana",BALI,82215.0,Indonesia,,,,-8.3713594,114.6015884,https://maps.google.com/?cid=0x0:0xb800e5c389ee7160,
perumahan,Perumahan,Perumahan Mulya Jaya LC Mertasari,"JJHH+QCQ, Loloan Tim., Kec. Jembrana, Kabupaten Jembrana, Bali","Kabupaten Jembrana, Bali",BALI,,Indonesia,,,,-8.3712699,114.6294535,https://maps.google.com/?cid=0x0:0x9d8d435123cb29e,
perumahan,Komplek perumahan,Andara Kos,"JJP7+8C9, Jl. Danau Beratan Gg. V, Lelateng, Kec. Negara, Kabupaten Jembrana, Bali","Kabupaten Jembrana, Bali",BALI,,Indonesia,,,,-8.3642015,114.6136089,https://maps.google.com/?cid=0x0:0xb27167ee9cfdf990,
perumahan,Komplek perumahan,GRAHA BALUK 1,"JJQ2+M66, Baluk, Kec. Negara, Kabupaten Jembrana, Bali 82213","Baluk, Kec. Negara, Kabupaten Jembrana",BALI,82213.0,Indonesia,,,,-8.360828,114.6005159,https://maps.google.com/?cid=0x0:0xdc16292631dab4e5,
perumahan,Komplek perumahan,Dal's House,"JJP8+H48, Jl. Danau Ranau, Lelateng, Kec. Negara, Kabupaten Jembrana, Bali 82218","Jl. Danau Ranau, Lelateng, Kec. Negara, Kabupaten Jembrana",BALI,82218.0,Indonesia,,,,-8.3635892,114.6153235,https://maps.google.com/?cid=0x0:0x7c189bf6c0bc0f83,
perumahan,Komplek perumahan,Widya,"JJP6+WR3, Jl. Danau Beratan, Lelateng, Kec. Negara, Kabupaten Jembrana, Bali 82218","Jl. Danau Beratan, Lelateng, Kec. Negara, Kabupaten Jembrana",BALI,82218.0,Indonesia,,,,-8.3626399,114.6120643,https://maps.google.com/?cid=0x0:0xaa25f376fb989893,
perumahan,Komplek perumahan,Rumah adiwidiantara,"JHQX+784, Baluk, Kec. Negara, Kabupaten Jembrana, Bali","Kabupaten Jembrana, Bali",BALI,,Indonesia,,,,-8.3618659,114.5983145,https://maps.google.com/?cid=0x0:0x5201761623fedf44,
perumahan,Pembangunan Perumahan,Perumahan Griya Jati Asri.,"JHVH+PHG, Baluk, Kec. Negara, Kabupaten Jembrana, Bali","Kabupaten Jembrana, Bali",BALI,,Indonesia,,,,-8.3556954,114.5789487,https://maps.google.com/?cid=0x0:0x8034b63a104d0b77,
perumahan,Perumahan,Perumahan Dinas BMKG Negara,"JJH6+R7W, Jl. Danau Batur, Lelateng, Kec. Negara, Kabupaten Jembrana, Bali","Kabupaten Jembrana, Bali",BALI,,Indonesia,,,,-8.3703945,114.6107111,https://maps.google.com/?cid=0x0:0x4ee0f9eba7fb582c,
perumahan,Komplek perumahan,Gudang,"Jl. Danau Toba No.7, Lelateng, Kec. Negara, Kabupaten Jembrana, Bali 82218","Lelateng, Kec. Negara, Kabupaten Jembrana",BALI,82218.0,Indonesia,,,,-8.3697699,114.6159922,https://maps.google.com/?cid=0x0:0x50788a049086ef94,
perumahan,Pembangunan Perumahan,M.Supardi,"Gg. III No.18, Lelateng, Kec. Negara, Kabupaten Jembrana, Bali 82218","Lelateng, Kec. Negara, Kabupaten Jembrana",BALI,82218.0,Indonesia,,,,-8.3628979,114.6160896,https://maps.google.com/?cid=0x0:0xe67e5d9fb3723435,
perumahan,perumahan,Bali 82218,"Kec. Negara, Kabupaten Jembrana, Bali","Kabupaten Jembrana, Bali",BALI,,Indonesia,,,,-8.3357931,114.6311665,https://maps.google.com/?cid=0x0:0x1c00c5eb6016c2d0,
perumahan,Pembangunan Perumahan,Perumahan zahira 2,"Jl. Soka No.45, Baler Bale Agung, Kec. Negara, Kabupaten Jembrana, Bali 82218","Baler Bale Agung, Kec. Negara, Kabupaten Jembrana",BALI,82218.0,Indonesia,,,,-8.3514052,114.6195905,https://maps.google.com/?cid=0x0:0x1637d59905352a97,
perumahan,Komplek perumahan,Perumahan negara villa,"MJ4J+WMX, Pendem, Kec. Negara, Kabupaten Jembrana, Bali 82218","Pendem, Kec. Negara, Kabupaten Jembrana",BALI,82218.0,Indonesia,,,,-8.3426421,114.6317326,https://maps.google.com/?cid=0x0:0xf29047bafbd24037,
perumahan,Pusat Bisnis,Perumahan Huma Lestari Baluk,"JHVM+FM4, Baluk, Kec. Negara, Kabupaten Jembrana, Bali 82218","Baluk, Kec. Negara, Kabupaten Jembrana",BALI,82218.0,Indonesia,,,,-8.356353,114.5841984,https://maps.google.com/?cid=0x0:0xddf7df70545a7f8,
perumahan,Pembangunan Perumahan,Perumahan Zahira 1,"Perumahan Zahira 1 No.25, Baler Bale Agung, Kec. Negara, Kabupaten Jembrana, Bali 82218","Baler Bale Agung, Kec. Negara, Kabupaten Jembrana",BALI,82218.0,Indonesia,,,,-8.354368,114.6149561,https://maps.google.com/?cid=0x0:0x731648fdeb69ad7a,
perumahan,Perumahan,Rumah Sawe Negara,"JJVR+WP3, Jl. Panji Sakti, Dauhwaru, Kec. Jembrana, Kabupaten Jembrana, Bali 82218","Jl. Panji Sakti, Dauhwaru, Kec. Jembrana, Kabupaten Jembrana",BALI,82218.0,Indonesia,,,,-8.3552346,114.6417846,https://maps.google.com/?cid=0x0:0x563f6e67f21bc4bb,
perumahan,Asosiasi pemilik rumah,Perumahan wana asri,"MJ59+8RV, Baler Bale Agung, Kec. Negara, Kabupaten Jembrana, Bali 82218","Baler Bale Agung, Kec. Negara, Kabupaten Jembrana",BALI,82218.0,Indonesia,,,,-8.3416402,114.6195336,https://maps.google.com/?cid=0x0:0x1a6355328461a75,
perumahan,Komplek perumahan,PERUM MP GRAHA,"MJ6C+P56, Baler Bale Agung, Kec. Negara, Kabupaten Jembrana, Bali 82218","Baler Bale Agung, Kec. Negara, Kabupaten Jembrana",BALI,82218.0,Indonesia,,,,-8.3382005,114.6203774,https://maps.google.com/?cid=0x0:0x1aee84ecde33c159,
perumahan,Komplek perumahan,PERUMAHAN MULYA JAYA NEGARA VILLA PENDEM,"MJ4J+GPF, Pendem, Kec. Jembrana, Kabupaten Jembrana, Bali","Kabupaten Jembrana, Bali",BALI,,Indonesia,,,,-8.3441013,114.6316487,https://maps.google.com/?cid=0x0:0x53744181aaa86983,
perumahan,Komplek perumahan,Perumahan Gd Residence,"JJP4+R5P, Baluk 1, Baluk, Kec. Negara, Kabupaten Jembrana, Bali 82214","Baluk 1, Baluk, Kec. Negara, Kabupaten Jembrana",BALI,82214.0,Indonesia,85935323639.0,,,-8.3629048,114.6054407,https://maps.google.com/?cid=0x0:0xceb857138854d582,
perumahan,Komplek perumahan,Rumah,"Jl.Gunung Semeru Gang 2 No.8 Ketugtug, Loloan Tim., Kec. Negara, Kabupaten Jembrana, Bali 82218","Loloan Tim., Kec. Negara, Kabupaten Jembrana",BALI,82218.0,Indonesia,,,,-8.3615065,114.6272822,https://maps.google.com/?cid=0x0:0xe7ab901e0f40ab85,
perumahan,Pembangunan Perumahan,PERUMAHAN AMADINA,"JJF2+2MP, Lelateng, Kec. Negara, Kabupaten Jembrana, Bali 82214","Lelateng, Kec. Negara, Kabupaten Jembrana",BALI,82214.0,Indonesia,81916812260.0,,,-8.3774073,114.6017076,https://maps.google.com/?cid=0x0:0xe478f47eadebc98a,
perumahan,perumahan,Perumahan Graha Baluk 1,,,BALI,,Indonesia,85858872293.0,,,-8.3596957,114.6380758,https://maps.google.com/?cid=0x0:0xf92f74aab545260f,
perumahan,Komplek perumahan,Perumahan Keluarga Su,"Jl. Danau Poso No.22, Lelateng, Kec. Negara, Kabupaten Jembrana, Bali 82218","Lelateng, Kec. Negara, Kabupaten Jembrana",BALI,82218.0,Indonesia,,,,-8.3677338,114.6169895,https://maps.google.com/?cid=0x0:0x6660bf09baa181f4,
perumahan,Komplek perumahan,Rumah Esa Aiswarya,"JJPV+VHC, Dauhwaru, Kec. Negara, Kabupaten Jembrana, Bali 82218","Dauhwaru, Kec. Negara, Kabupaten Jembrana",BALI,82218.0,Indonesia,,,,-8.3627753,114.6437784,https://maps.google.com/?cid=0x0:0xae202616ec59cd8e,
perumahan,Komplek perumahan,Rumah beny,"Jl. Merak No.44, Pendem, Kec. Jembrana, Kabupaten Jembrana, Bali 82218","Pendem, Kec. Jembrana, Kabupaten Jembrana",BALI,82218.0,Indonesia,,,,-8.3526907,114.6330723,https://maps.google.com/?cid=0x0:0xf516d37ca84b0295,
perumahan,Komplek perumahan,Condro,"MJ7C+C2P, Tempek vI, Banjar Kebon, Baler Bale Agung, Kec. Negara, Kabupaten Jembrana, Bali 82218","Tempek vI, Banjar Kebon, Baler Bale Agung, Kec. Negara, Kabupaten Jembrana",BALI,82218.0,Indonesia,,,,-8.3364113,114.6200653,https://maps.google.com/?cid=0x0:0xc28d8ba1f814f863,
perumahan,Komplek perumahan,Menori 2,"Jl. Menori No.2, Baler Bale Agung, Kec. Negara, Kabupaten Jembrana, Bali 82218","Baler Bale Agung, Kec. Negara, Kabupaten Jembrana",BALI,82218.0,Indonesia,,,,-8.3495098,114.6154891,https://maps.google.com/?cid=0x0:0x378984ff50f32373,
perumahan,Pembangunan Perumahan,Rumah Ekok aj,"MJ29+382, Baler Bale Agung, Kec. Negara, Kabupaten Jembrana, Bali 82218","Baler Bale Agung, Kec. Negara, Kabupaten Jembrana",BALI,82218.0,Indonesia,,,,-8.3497264,114.6182169,https://maps.google.com/?cid=0x0:0xd8b54f9bfe7d6359,
perumahan,Komplek perumahan,Komplek Perumahan BMKG,"MJ68+4XH, Baler Bale Agung, Kec. Negara, Kabupaten Jembrana, Bali 82218","Baler Bale Agung, Kec. Negara, Kabupaten Jembrana",BALI,82218.0,Indonesia,,,,-8.3396908,114.6174773,https://maps.google.com/?cid=0x0:0xb025ac9fb3647079,
perumahan,Komplek perumahan,Perumahan Graha Ayung I,"Jl. Nakula No.15, Tegal Badeng Tim., Kec. Negara, Kabupaten Jembrana, Bali 82218","Tegal Badeng Tim., Kec. Negara, Kabupaten Jembrana",BALI,82218.0,Indonesia,814110601.0,,,-8.3710333,114.5853726,https://maps.google.com/?cid=0x0:0x6b64342a354a67,
perumahan,Komplek perumahan,Creator video,"Jl. Anggrek No.78, Baler Bale Agung, Kec. Negara, Kabupaten Jembrana, Bali 82218","Baler Bale Agung, Kec. Negara, Kabupaten Jembrana",BALI,82218.0,Indonesia,,,,-8.3448581,114.6205634,https://maps.google.com/?cid=0x0:0x9dba6196726ca2cd,
perumahan,Pembangunan Perumahan,GD Residence baluk jati,"JHRG+FQW, Jl. Nakula, Baluk, Kec. Negara, Kabupaten Jembrana, Bali 82218","Jl. Nakula, Baluk, Kec. Negara, Kabupaten Jembrana",BALI,82218.0,Indonesia,,,,-8.3587734,114.5769663,https://maps.google.com/?cid=0x0:0xcc481e89acc58b72,
perumahan,Pembangunan Perumahan,Perumahan GD RESIDENCE 3,"Jl. Arjuna No.9, Baluk, Kec. Negara, Kabupaten Jembrana, Bali 82218","Baluk, Kec. Negara, Kabupaten Jembrana",BALI,82218.0,Indonesia,,,,-8.3602654,114.586829,https://maps.google.com/?cid=0x0:0x6e467af717c8eed0,
perumahan,Komplek perumahan,Tanah Jalan Menori BB Agung Negara,"Jl. Menori, Baler Bale Agung, Kec. Negara, Kabupaten Jembrana, Bali 82218","Baler Bale Agung, Kec. Negara, Kabupaten Jembrana",BALI,82218.0,Indonesia,8151675227.0,,,-8.3485028,114.6162573,https://maps.google.com/?cid=0x0:0xf6637bab4a1945a7,
perumahan,Komplek perumahan,Rumah Ajik Pradnya,"PJ38+472, Berangbang, Kec. Negara, Kabupaten Jembrana, Bali 82218","Berangbang, Kec. Negara, Kabupaten Jembrana",BALI,82218.0,Indonesia,,,,-8.2972748,114.6156064,https://maps.google.com/?cid=0x0:0xffa63c80220fd762,
perumahan,Pembangunan Perumahan,Rumah Negara,"JJW6+5WC, Jl. Kresna, Banjar Tengah, Kec. Negara, Kabupaten Jembrana, Bali 82218","Jl. Kresna, Banjar Tengah, Kec. Negara, Kabupaten Jembrana",BALI,82218.0,Indonesia,,,,-8.3545629,114.6122586,https://maps.google.com/?cid=0x0:0x3849f8a0385c3040,
perumahan,Pembangunan Perumahan,Tanah Negara,"MJ58+3WP, Jl. Leli, Baler Bale Agung, Kec. Negara, Kabupaten Jembrana, Bali 82218","Jl. Leli, Baler Bale Agung, Kec. Negara, Kabupaten Jembrana",BALI,82218.0,Indonesia,,,,-8.3422839,114.6173344,https://maps.google.com/?cid=0x0:0xcd5da2b4dd2423d2,
perumahan,Komplek perumahan,home tya negara,"JJQX+GCG, Dangin Tukadaya, Kec. Jembrana, Kabupaten Jembrana, Bali 82218","Dangin Tukadaya, Kec. Jembrana, Kabupaten Jembrana",BALI,82218.0,Indonesia,,,,-8.3612314,114.6486018,https://maps.google.com/?cid=0x0:0xcb3c7a349b9ae57c,
perumahan,Komplek perumahan,AdhiFitria/terimakosputri,"Jl. Galuh No.1, Pekutatan, Kec. Pekutatan, Kabupaten Jembrana, Bali 82262","Pekutatan, Kec. Pekutatan, Kabupaten Jembrana",BALI,82262.0,Indonesia,,,,-8.4313359,114.8308116,https://maps.google.com/?cid=0x0:0x7f83ed5bb3ef8e69,
perumahan,perumahan,Bali 82262,"Kec. Pekutatan, Kabupaten Jembrana, Bali","Kabupaten Jembrana, Bali",BALI,,Indonesia,,,,-8.4101762,114.8804853,https://maps.google.com/?cid=0x0:0x1c00c5eb6016c310,
perumahan,Pembangunan Perumahan,Home Prikusuma,"JR4H+P9, Pulukan, Kec. Pekutatan, Kabupaten Jembrana, Bali 82262","Pulukan, Kec. Pekutatan, Kabupaten Jembrana",BALI,82262.0,Indonesia,,,,-8.3931427,114.8284542,https://maps.google.com/?cid=0x0:0xfc18909ab0b282c3,
perumahan,Perhimpunan Pengembang Perumahan,Rumah paktut kembar,"HV87+FX4, Pangyangan, Kec. Pekutatan, Kabupaten Jembrana, Bali 82262","Pangyangan, Kec. Pekutatan, Kabupaten Jembrana",BALI,82262.0,Indonesia,,,,-8.4338662,114.8649554,https://maps.google.com/?cid=0x0:0x963ff4e493d4d6a2,
perumahan,Pembangunan Perumahan,pipik,"Jl. Asahduren No 88, X No.Br, Asahduren, Pekutatan, Jembrana Regency, Bali 82262","X No.Br, Asahduren, Pekutatan, Jembrana Regency",BALI,82262.0,Indonesia,,,,-8.4062744,114.8626789,https://maps.google.com/?cid=0x0:0x78d6563d69b0a197,
perumahan,Komplek perumahan,Pondok Endra,"Asahduren, Kec. Pekutatan, Kabupaten Jembrana, Bali 82262","Kec. Pekutatan, Kabupaten Jembrana",BALI,82262.0,Indonesia,,,,-8.4019389,114.853656,https://maps.google.com/?cid=0x0:0x814caff019bb15d1,
perumahan,Komplek perumahan,Rumah jero mangku Puseh.,"HV2Q+933, Jl. Setra, Gumbrih, Kec. Pekutatan, Kabupaten Jembrana, Bali","Kabupaten Jembrana, Bali",BALI,,Indonesia,,,,-8.4491014,114.8876741,https://maps.google.com/?cid=0x0:0xee5735e346857030,
perumahan,Pembangunan Perumahan,Pondok dek awo,"HV9H+GJ4, Gumbrih, Kec. Pekutatan, Kabupaten Jembrana, Bali 82262","Gumbrih, Kec. Pekutatan, Kabupaten Jembrana",BALI,82262.0,Indonesia,,,,-8.4312326,114.8790664,https://maps.google.com/?cid=0x0:0x9ebefa17a997e8c,
perumahan,Komplek perumahan,Ardiana,"HVV3+4XF, Asahduren, Kec. Pekutatan, Kabupaten Jembrana, Bali 82262","Asahduren, Kec. Pekutatan, Kabupaten Jembrana",BALI,82262.0,Indonesia,,,,-8.4076884,114.8548787,https://maps.google.com/?cid=0x0:0xa94e78cba2716ca8,
perumahan,Komplek perumahan,Rumah Bli Putu,"HRPC+3C7 Lapangan Satria Mandala, Jl. Raya Denpasar - Gilimanuk, Banjar Pasar, Pekutatan, Kec. Pekutatan, Kabupaten Jembrana, Bali 82262","Jl. Raya Denpasar - Gilimanuk, Banjar Pasar, Pekutatan, Kec. Pekutatan, Kabupaten Jembrana",BALI,82262.0,Indonesia,,,,-8.4148337,114.8210455,https://maps.google.com/?cid=0x0:0x431f78b921526748,
perumahan,perumahan,Rendiprad,"HRRX+Q63, Asahduren, Kec. Pekutatan, Kabupaten Jembrana, Bali 82262","Asahduren, Kec. Pekutatan, Kabupaten Jembrana",BALI,82262.0,Indonesia,,,,-8.4081005,114.848049,https://maps.google.com/?cid=0x0:0xfb00b95175b27ef3,
perumahan,Pembangunan Perumahan,"Banjar Munduk, Temukus Asahduren","HRWX+6HR, Unnamed Road, Asahduren, Kec. Pekutatan, Kabupaten Jembrana, Bali 82262","Unnamed Road, Asahduren, Kec. Pekutatan, Kabupaten Jembrana",BALI,82262.0,Indonesia,,,,-8.4043808,114.8488765,https://maps.google.com/?cid=0x0:0xb03c94ac5a08cb52,
perumahan,Komplek perumahan,Rumah Endra Saputra,"HVQ8+65, Asahduren, Kec. Pekutatan, Kabupaten Jembrana, Bali","Kabupaten Jembrana, Bali",BALI,,Indonesia,,,,-8.4119845,114.8654966,https://maps.google.com/?cid=0x0:0x933ef35714e8b2de,
perumahan,Komplek perumahan,Rumah birangga,"HVR4+V26, Asahduren, Kec. Pekutatan, Kabupaten Jembrana, Bali 82262","Asahduren, Kec. Pekutatan, Kabupaten Jembrana",BALI,82262.0,Indonesia,,,,-8.4078322,114.855001,https://maps.google.com/?cid=0x0:0x79547e816ee880c9,
perumahan,Pembangunan Perumahan,Jun Suardana,"Unnamed Road, Asahduren, Pekutatan, Jembrana Regency, Bali 82262","Asahduren, Pekutatan, Jembrana Regency",BALI,82262.0,Indonesia,85646900317.0,,,-8.4057772,114.8504602,https://maps.google.com/?cid=0x0:0x3fba999643f6bf66,
perumahan,Komplek perumahan,Rumah bayu,"JV33+GC8, Asahduren, Kec. Pekutatan, Kabupaten Jembrana, Bali 82262","Asahduren, Kec. Pekutatan, Kabupaten Jembrana",BALI,82262.0,Indonesia,,,,-8.3965293,114.8537447,https://maps.google.com/?cid=0x0:0x6e089afaf592b50c,
perumahan,Komplek perumahan,Zuken House's,"JV36+G2Q, Jl. Panili, Asahduren, Kec. Pekutatan, Kabupaten Jembrana, Bali 82262","Jl. Panili, Asahduren, Kec. Pekutatan, Kabupaten Jembrana",BALI,82262.0,Indonesia,87701443894.0,,,-8.3961739,114.8601175,https://maps.google.com/?cid=0x0:0xef7a2c4a06097db9,
perumahan,Komplek perumahan,Asahduren,"JV67+473, Jalan, Asahduren, Pekutatan, Jembrana Regency, Bali 82262","Jalan, Asahduren, Pekutatan, Jembrana Regency",BALI,82262.0,Indonesia,,,,-8.3897387,114.863178,https://maps.google.com/?cid=0x0:0x26b0d814886f2a78,
perumahan,Perumahan,Swik house,"JV22+F3J, Asahduren, Kec. Pekutatan, Kabupaten Jembrana, Bali 82262","Asahduren, Kec. Pekutatan, Kabupaten Jembrana",BALI,82262.0,Indonesia,,,,-8.3987953,114.8501539,https://maps.google.com/?cid=0x0:0xba17ddf63867e3a5,
perumahan,Komplek perumahan,Pande Dk Ata,"JR2X+JHC, Jalan, Asahduren, Pekutatan, Jembrana Regency, Bali 82262","Jalan, Asahduren, Pekutatan, Jembrana Regency",BALI,82262.0,Indonesia,,,,-8.3984372,114.8488947,https://maps.google.com/?cid=0x0:0xc1978c6791b0fdcd,
perumahan,Pembangunan Perumahan,Dony Adi Surya,"HRGC+F38, Jl. Pelabuhan, Pekutatan, Kec. Pekutatan, Kabupaten Jembrana, Bali 82262","Jl. Pelabuhan, Pekutatan, Kec. Pekutatan, Kabupaten Jembrana",BALI,82262.0,Indonesia,,,,-8.4238385,114.8201894,https://maps.google.com/?cid=0x0:0xe120f7cfba882d56,
