Category;Real Category;Business Name;Address;City;State;Postal Code;Country;Phone;Email;Website;Latitude;Longitude;Map Link;Details Link
"hotel";"hotel";"Sumatera Selatan 31658";"Karang Dapo, Kabupaten Musi Rawas, Sumatera Selatan";"Kabupaten Musi Rawas, Sumatera Selatan";"SUMATERA SELATAN";"";"Indonesia";"";"";"";"-2.7453255";"103.035694";"https://maps.google.com/?cid=0x0:0xe72620e1eb13dcdf";""
"hotel";"hotel";"Hotel Lintas Sumatra";"Jl. Yos Sudarso No.21, Dempo, Kec. Lubuk Linggau Tim. II, Kota Lubuklinggau, Sumatera Selatan 31613";"Dempo, Kec. Lubuk Linggau Tim. II, Kota Lubuklinggau";"SUMATERA SELATAN";"31613";"Indonesia";" 0733321370";"";"";"-3.295268";"102.8675158";"https://maps.google.com/?cid=0x0:0xbb0c91d6ac6ab390";""
"hotel";"hotel";"OYO 93462 Wisma Silampari";"Jl. Lintas Utama Sumatera, Pedang, Kec. Muara Beliti, Kabupaten Musi Rawas, Sumatera Selatan 31661";"Pedang, Kec. Muara Beliti, Kabupaten Musi Rawas";"SUMATERA SELATAN";"31661";"Indonesia";" 07333280410";"";"";"-3.2745979";"102.9720201";"https://maps.google.com/?cid=0x0:0xecc61b5522505abf";""
"hotel";"hotel";"hotel silampari";"Jl. Hibah Kencana, Taba Pingin, Kec. Lubuk Linggau Sel. II, Kota Lubuklinggau, Sumatera Selatan 31625";"Taba Pingin, Kec. Lubuk Linggau Sel. II, Kota Lubuklinggau";"SUMATERA SELATAN";"31625";"Indonesia";" 02129707601";"";"";"-3.2704435";"102.9075415";"https://maps.google.com/?cid=0x0:0x12ebbd43b6cacee8";""
"hotel";"hotel";"N/A";"";"";"SUMATERA SELATAN";"";"Indonesia";"";"";"";"";"";"https://maps.google.com/?cid=0x0:0x12ebbd43b6cacee8%7C/g/11grqfzqj8%7Cen-ID";""
"hotel";"hotel";"Losmen Simpang";"Jl. Mayor Ruslan II No.19, Ps. Baru, Kec. Lahat, Kabupaten Lahat, Sumatera Selatan 31411";"Ps. Baru, Kec. Lahat, Kabupaten Lahat";"SUMATERA SELATAN";"31411";"Indonesia";" 081367753914";"";"";"-3.7901868";"103.5380637";"https://maps.google.com/?cid=0x0:0xcce5c18f2c3c75c0";""
"hotel";"hotel";"Sempurna Hotel";"Jl. Yos Sudarso No.298, Watervang, Kec. Lubuk Linggau Tim. I, Kota Lubuklinggau, Sumatera Selatan 31625";"Watervang, Kec. Lubuk Linggau Tim. I, Kota Lubuklinggau";"SUMATERA SELATAN";"31625";"Indonesia";" 0895417300072";"";"";"-3.2762397";"102.89987";"https://maps.google.com/?cid=0x0:0x47a46bbfbcf37868";""
"hotel";"hotel";"N/A";"";"";"SUMATERA SELATAN";"";"Indonesia";"";"";"";"";"";"https://maps.google.com/?cid=0x0:0x47a46bbfbcf37868%7C/g/12hl4q2xs%7Cen-ID";""
"hotel";"hotel";"HOTEL DEWI BANGKO";"Jl. Lintas Utama Sumatera No.km.3, RT.24/RW.06, Pematang Kandis, Kec. Bangko, Kabupaten Merangin, Jambi 37314";"RT.24/RW.06, Pematang Kandis, Kec. Bangko, Kabupaten Merangin";"SUMATERA SELATAN";"37314";"Indonesia";" 085273362060";"";"";"-2.0551321";"102.275828";"https://maps.google.com/?cid=0x0:0xfe3cfb39f7d12ed7";""
"hotel";"hotel";"HOTEL SIMPANG BARU LAHAT";"Jl. serelo lahat No.82 J, Ps. Baru, Kec. Lahat, Kabupaten Lahat, Sumatera Selatan 31419";"Ps. Baru, Kec. Lahat, Kabupaten Lahat";"SUMATERA SELATAN";"31419";"Indonesia";" 0731322607";"";"";"-3.7915589";"103.5378639";"https://maps.google.com/?cid=0x0:0x17e5d194ce795b58";""
"hotel";"hotel";"RedDoorz near Jalan Majapahit Lubuk Linggau";"PWF3+M4C, Majapahit, Kec. Lubuk Linggau Tim. I, Kota Lubuklinggau, Sumatera Selatan 31625";"Majapahit, Kec. Lubuk Linggau Tim. I, Kota Lubuklinggau";"SUMATERA SELATAN";"31625";"Indonesia";" 0895417300072";"";"";"-3.2758125";"102.9028125";"https://maps.google.com/?cid=0x0:0xac13cfdac1b20320";""
"hotel";"hotel";"Sumatera Selatan 31654";"Kabupaten Musi Rawas, Sumatera Selatan";"Kabupaten Musi Rawas, Sumatera Selatan";"SUMATERA SELATAN";"";"Indonesia";"";"";"";"-2.8261883";"102.7594847";"https://maps.google.com/?cid=0x0:0xc4e1d96ef2cee976";""
"hotel";"Hotel";"Hotel Nagoya";"6P67+VCR, Embacang Lama, Kec. Karang Jaya, Kab. Musi Rawas Utara, Sumatera Selatan";"Kab. Musi Rawas Utara, Sumatera Selatan";"SUMATERA SELATAN";"";"Indonesia";"";"";"";"-2.787759";"102.7135121";"https://maps.google.com/?cid=0x0:0xe64486a6c3680b6d";""
"hotel";"Penginapan religi";"Penginapan Syari'ah Rupit";"Jl. Sma negeri, Muara Rupit, Kec. Rupit, Kab. Musi Rawas Utara, Sumatera Selatan 31654";"Muara Rupit, Kec. Rupit, Kab. Musi Rawas Utara";"SUMATERA SELATAN";"31654";"Indonesia";" 082177956996";"";"";"-2.7260843";"102.9115599";"https://maps.google.com/?cid=0x0:0x9ec03caa67716f1a";""
"hotel";"Hotel";"HOTEL GACORSS";"8V8J+HQV, Karang Waru, Kec. Rupit, Kabupaten Musi Rawas, Sumatera Selatan";"Kabupaten Musi Rawas, Sumatera Selatan";"SUMATERA SELATAN";"";"Indonesia";"";"";"";"-2.6835001";"102.8819259";"https://maps.google.com/?cid=0x0:0x5f72f382d13137a5";""
"hotel";"Hotel";"Iskandar hotel";"7XW8+MJG, Rantau Kadam, Karang Dapo, Kabupaten Musi Rawas, Sumatera Selatan 31658";"Rantau Kadam, Karang Dapo, Kabupaten Musi Rawas";"SUMATERA SELATAN";"31658";"Indonesia";"";"";"";"-2.7033079";"102.9665654";"https://maps.google.com/?cid=0x0:0x1410db0ca52d2e57";""
"hotel";"Rumah wisata";"zona merah";"8VVV+X58, Sungai Jernih, Kec. Rupit, Kab. Musi Rawas Utara, Sumatera Selatan 31654";"Sungai Jernih, Kec. Rupit, Kab. Musi Rawas Utara";"SUMATERA SELATAN";"31654";"Indonesia";"";"";"";"-2.6551722";"102.892989";"https://maps.google.com/?cid=0x0:0xd56dfb76fd7305d2";""
"hotel";"Hostel";"Wisma gacor selalu";"8WC5+22X, Lubuk Rumbai Baru, Kec. Rupit, Kab. Musi Rawas Utara, Sumatera Selatan 31654";"Lubuk Rumbai Baru, Kec. Rupit, Kab. Musi Rawas Utara";"SUMATERA SELATAN";"31654";"Indonesia";" 082311907573";"";"";"-2.6798842";"102.9076068";"https://maps.google.com/?cid=0x0:0xf6582b7b2bc5c4ee";""
"hotel";"Hotel";"PAnggara RK";"8VH4+3RM, Unnamed Road, Karang Anyar, Kec. Rupit, Kab. Musi Rawas Utara, Sumatera Selatan 31654";"Unnamed Road, Karang Anyar, Kec. Rupit, Kab. Musi Rawas Utara";"SUMATERA SELATAN";"31654";"Indonesia";"";"";"";"-2.672295";"102.8570403";"https://maps.google.com/?cid=0x0:0x4374f60cdcadf801";""
"hotel";"Penginapan religi";"KOSAN KHANSA  HOME STAY";"Batu Gajah Baru, Kec. Rupit, Kab. Musi Rawas Utara, Sumatera Selatan 31654";"Kec. Rupit, Kab. Musi Rawas Utara";"SUMATERA SELATAN";"31654";"Indonesia";" 081271866967";"";"";"-2.7989508";"102.8401835";"https://maps.google.com/?cid=0x0:0x4c6f5c0bd941589e";""
"hotel";"Hotel";"Hatob Dakwa, S.T";"7XV2+4QX, Jl. Raya Rupit-Karang Dapo, Kertasari, Karang Dapo, Kab. Musi Rawas Utara, Sumatera Selatan 31658";"Jl. Raya Rupit-Karang Dapo, Kertasari, Karang Dapo, Kab. Musi Rawas Utara";"SUMATERA SELATAN";"31658";"Indonesia";"";"";"";"-2.7071393";"102.9519858";"https://maps.google.com/?cid=0x0:0xcc38981cbf35bb71";""
"hotel";"Hotel";"HOTEL BINTANG TUJUH";"8V4X+CP6, Lawang Agung, Kec. Rupit, Kab. Musi Rawas Utara, Sumatera Selatan 31654";"Lawang Agung, Kec. Rupit, Kab. Musi Rawas Utara";"SUMATERA SELATAN";"31654";"Indonesia";"";"";"";"-2.6939718";"102.8992504";"https://maps.google.com/?cid=0x0:0xf873cee7aa4523af";""
"hotel";"Hostel";"Rumah nenek acid";"8X2M+4XH, Karang Dapo II, Karang Dapo, Kab. Musi Rawas Utara, Sumatera Selatan 31658";"Karang Dapo II, Karang Dapo, Kab. Musi Rawas Utara";"SUMATERA SELATAN";"31658";"Indonesia";" 085266966266";"";"";"-2.6997182";"102.985015";"https://maps.google.com/?cid=0x0:0x5b2fdccbbdae0a64";""
"hotel";"Hotel";"Hotel Ade iman putra";"7XV2+87Q, Kertasari, Karang Dapo, Kabupaten Musi Rawas, Sumatera Selatan 31658";"Kertasari, Karang Dapo, Kabupaten Musi Rawas";"SUMATERA SELATAN";"31658";"Indonesia";"";"";"";"-2.7069493";"102.9508276";"https://maps.google.com/?cid=0x0:0x1c7bbf2b6b16e92f";""
"hotel";"Hotel";"Indrayati Nawawi";"8X3J+W7Q, Karang Dapo I, Karang Dapo, Kabupaten Musi Rawas, Sumatera Selatan";"Kabupaten Musi Rawas, Sumatera Selatan";"SUMATERA SELATAN";"";"Indonesia";"";"";"";"-2.6952052";"102.9807634";"https://maps.google.com/?cid=0x0:0x77aa52ff7ccaa5ed";""
"hotel";"Hotel";"Hotel m.alfa rizi";"7XX9+M96, Rantau Kadam, Karang Dapo, Kabupaten Musi Rawas, Sumatera Selatan";"Kabupaten Musi Rawas, Sumatera Selatan";"SUMATERA SELATAN";"";"Indonesia";"";"";"";"-2.7007954";"102.9684174";"https://maps.google.com/?cid=0x0:0x586c376659ee4ca2";""
"hotel";"Hotel";"HOTEL WAK ASIM";"8VGJ+839, Karang Waru, Kec. Rupit, Kab. Musi Rawas Utara, Sumatera Selatan 31654";"Karang Waru, Kec. Rupit, Kab. Musi Rawas Utara";"SUMATERA SELATAN";"31654";"Indonesia";"";"";"";"-2.674221";"102.8802479";"https://maps.google.com/?cid=0x0:0xd301122baa08ba03";""
"hotel";"Penginapan religi";"Dusun v";"6V9J+H3H, Maur Baru, Kec. Rupit, Kab. Musi Rawas Utara, Sumatera Selatan 31654";"Maur Baru, Kec. Rupit, Kab. Musi Rawas Utara";"SUMATERA SELATAN";"31654";"Indonesia";"";"";"";"-2.7810577";"102.8802479";"https://maps.google.com/?cid=0x0:0xa9f85a2b08960bd0";""
"hotel";"hotel";"Hotel 929 Lubuk Linggau";"Jalan Soekarno-Hatta No.29 KM.5, Belalau I, Kec. Lubuk Linggau Utara I, Kota Lubuklinggau, Sumatera Selatan 31611";"Belalau I, Kec. Lubuk Linggau Utara I, Kota Lubuklinggau";"SUMATERA SELATAN";"31611";"Indonesia";" 0733325982";"";"";"-3.2526191";"102.8510512";"https://maps.google.com/?cid=0x0:0xed89c4b659fc5ac0";""
"hotel";"hotel";"N/A";"";"";"SUMATERA SELATAN";"";"Indonesia";"";"";"";"";"";"https://maps.google.com/?cid=0x0:0xed89c4b659fc5ac0%7C/g/11b90jlbzr%7Cen-ID";""
"hotel";"hotel";"Abadi Hotel Sarolangun by Tritama Hospitality";"Ps. Sarolangun, Kec. Sarolangun, Kabupaten Sarolangun, Jambi 37481";"Kec. Sarolangun, Kabupaten Sarolangun";"SUMATERA SELATAN";"37481";"Indonesia";" 074591700";"";"";"-2.301488";"102.7243838";"https://maps.google.com/?cid=0x0:0x501c4e8da1650eb7";""
"hotel";"hotel";"N/A";"";"";"SUMATERA SELATAN";"";"Indonesia";"";"";"";"";"";"https://maps.google.com/?cid=0x0:0x501c4e8da1650eb7%7C/g/11bwgkd45h%7Cen-ID";""
"hotel";"hotel";"RedDoorz @ Lebong";"Jl.Raya, , Sukau Rajo, Kecamatan Amen, Kec. Lebong Utara, Bengkulu, 39264";", Sukau Rajo, Kecamatan Amen, Kec. Lebong Utara";"SUMATERA SELATAN";"39264";"Indonesia";" 0895417300072";"";"";"-3.1149206";"102.2095701";"https://maps.google.com/?cid=0x0:0x10598e8231344ec4";""
"hotel";"hotel";"Naffa The Cost";"Jl. Perkantoran No.RT. 17, Sarolangun Kembang, Kec. Sarolangun, Kabupaten Sarolangun, Jambi";"Kabupaten Sarolangun, Jambi";"SUMATERA SELATAN";"";"Indonesia";" 0895417300072";"";"";"-2.3127898";"102.74385";"https://maps.google.com/?cid=0x0:0x96b5102b01dacf0f";""
"hotel";"hotel";"RedDoorz Syariah @ Naufal Residence Sarolangun";"PP4M+QR4 RT 03 Pulau pinang, Sarolangun Kembang, Kec. Sarolangun, Kabupaten Sarolangun, Jambi 37481";"Sarolangun Kembang, Kec. Sarolangun, Kabupaten Sarolangun";"SUMATERA SELATAN";"37481";"Indonesia";" 0895417300072";"";"";"-2.2930902";"102.7344946";"https://maps.google.com/?cid=0x0:0x6569ce4bd474c16a";""
"hotel";"hotel";"Golden Hotel Sarolangun";"MPPJ+3GX, Gn. Kembang, Kec. Sarolangun, Kabupaten Sarolangun, Jambi 37481";"Gn. Kembang, Kec. Sarolangun, Kabupaten Sarolangun";"SUMATERA SELATAN";"37481";"Indonesia";" 081279954367";"";"";"-2.3147612";"102.7313723";"https://maps.google.com/?cid=0x0:0x99e177e478fce8bf";""
"hotel";"hotel";"N/A";"";"";"SUMATERA SELATAN";"";"Indonesia";"";"";"";"";"";"https://maps.google.com/?cid=0x0:0x99e177e478fce8bf%7C/g/11b7yx7bcr%7Cen-ID";""
"hotel";"hotel";"Hotel KING";"Jl. Lintas Utama Sumatera No.Km.2, Aur, Kec. Sarolangun, Kabupaten Sarolangun, Jambi 37481";"Aur, Kec. Sarolangun, Kabupaten Sarolangun";"SUMATERA SELATAN";"37481";"Indonesia";" 081271219192";"";"";"-2.3033068";"102.7124926";"https://maps.google.com/?cid=0x0:0xef0d1d4d0963aac9";""
"hotel";"hotel";"Hotel Atika";"Jalan lintas sumatera Km 1, Sripelayang, Sarolangun Kembang, Kec. Sarolangun, Kabupaten Sarolangun, Jambi 37481";"Sripelayang, Sarolangun Kembang, Kec. Sarolangun, Kabupaten Sarolangun";"SUMATERA SELATAN";"37481";"Indonesia";" 082183471618";"";"";"-2.3060292";"102.7285118";"https://maps.google.com/?cid=0x0:0xdd5fff6c03b77241";""
"hotel";"hotel";"Hotel Ratu";"JL. Pasar, Jl. Lintas Barat Sumatera, Ps. Sarolangun, Kec. Sarolangun, Kabupaten Sarolangun, Jambi 37481";"Jl. Lintas Barat Sumatera, Ps. Sarolangun, Kec. Sarolangun, Kabupaten Sarolangun";"SUMATERA SELATAN";"37481";"Indonesia";" 074591147";"";"";"-2.301082";"102.7182228";"https://maps.google.com/?cid=0x0:0x9586603b5c4eb104";""
"hotel";"hotel";"Kec. Karang Jaya";"Kab. Musi Rawas Utara, Sumatera Selatan";"Kab. Musi Rawas Utara, Sumatera Selatan";"SUMATERA SELATAN";"";"Indonesia";"";"";"";"-2.8708799";"102.7900419";"https://maps.google.com/?cid=0x0:0xaf463a35b81e796d";""
"hotel";"hotel";"Sempurna Hotel";"Jl. Yos Sudarso No.298, Watervang, Kec. Lubuk Linggau Tim. I, Kota Lubuklinggau, Sumatera Selatan 31625";"Watervang, Kec. Lubuk Linggau Tim. I, Kota Lubuklinggau";"SUMATERA SELATAN";"31625";"Indonesia";" 0895417300072";"";"";"-3.2762397";"102.89987";"https://maps.google.com/?cid=0x0:0x47a46bbfbcf37868";""
"hotel";"hotel";"N/A";"";"";"SUMATERA SELATAN";"";"Indonesia";"";"";"";"";"";"https://maps.google.com/?cid=0x0:0x47a46bbfbcf37868%7C/g/12hl4q2xs%7Cen-ID";""
"hotel";"hotel";"N/A";"";"";"SUMATERA SELATAN";"";"Indonesia";"";"";"";"";"";"https://maps.google.com/?cid=0x0:0x4fb4e95f23ada624%7C/g/11b88g6lm5%7Cen-ID";""
"hotel";"hotel";"Hotel Hakmaz Taba Lubuklinggau";"Jl. Yos Sudarso No.28, Majapahit, Kec. Lubuk Linggau Tim. I, Kota Lubuklinggau, Sumatera Selatan 31617";"Majapahit, Kec. Lubuk Linggau Tim. I, Kota Lubuklinggau";"SUMATERA SELATAN";"31617";"Indonesia";" 082128006576";"";"";"-3.2695926";"102.9100815";"https://maps.google.com/?cid=0x0:0xcd462dfb79459c73";""
"hotel";"hotel";"Grand Zuri Lubuklinggau by ZHM";"Jl. Yos Sudarso No.1, Batu Urip Taba, Kec. Lubuk Linggau Tim. I, Kota Lubuklinggau, Sumatera Selatan 31624";"Batu Urip Taba, Kec. Lubuk Linggau Tim. I, Kota Lubuklinggau";"SUMATERA SELATAN";"31624";"Indonesia";" 07337070222";"";"";"-3.2819357";"102.8889477";"https://maps.google.com/?cid=0x0:0xb9d17d256db8fc0d";""
"hotel";"hotel";"Famvida Hotel Linggau";"Jalan HM Soeharto.Km.12, RW No.168, Lubuk Kupang, Kec. Lubuk Linggau Sel. I, Kota Lubuklinggau, Sumatera Selatan 31626";"RW No.168, Lubuk Kupang, Kec. Lubuk Linggau Sel. I, Kota Lubuklinggau";"SUMATERA SELATAN";"31626";"Indonesia";" 07333281888";"";"";"-3.2715821";"102.9519074";"https://maps.google.com/?cid=0x0:0xfb61a8d6a7b59c88";""
"hotel";"hotel";"N/A";"";"";"SUMATERA SELATAN";"";"Indonesia";"";"";"";"";"";"https://maps.google.com/?cid=0x0:0xfb61a8d6a7b59c88%7C/g/11f4wtbwlb%7Cen-ID";""
"hotel";"hotel";"AMAZING RIVERSIDE HOTEL";"Jl. Yos Sudarso No.13, Taba Jemekeh, Kec. Lubuk Linggau Tim. I, Kota Lubuklinggau, Sumatera Selatan 31624";"Taba Jemekeh, Kec. Lubuk Linggau Tim. I, Kota Lubuklinggau";"SUMATERA SELATAN";"31624";"Indonesia";" 07333283304";"";"";"-3.2871946";"102.880497";"https://maps.google.com/?cid=0x0:0xf49ca5b126d164b5";""
"hotel";"hotel";"N/A";"";"";"SUMATERA SELATAN";"";"Indonesia";"";"";"";"";"";"https://maps.google.com/?cid=0x0:0xf49ca5b126d164b5%7C/g/11fb0wc907%7Cen-ID";""
"hotel";"hotel";"WE Hotel Lubuk Linggau";"Jl. Yos Sudarso No.70, RW.72, Taba Jemekeh, Kec. Lubuk Linggau Tim. I, Kota Lubuklinggau, Sumatera Selatan 31625";"RW.72, Taba Jemekeh, Kec. Lubuk Linggau Tim. I, Kota Lubuklinggau";"SUMATERA SELATAN";"31625";"Indonesia";" 07333286777";"";"";"-3.2874168";"102.8787931";"https://maps.google.com/?cid=0x0:0x8ae599c134802184";""
"hotel";"hotel";"N/A";"";"";"SUMATERA SELATAN";"";"Indonesia";"";"";"";"";"";"https://maps.google.com/?cid=0x0:0x8ae599c134802184%7C/g/11h3c_j44d%7Cen-ID";""
"hotel";"hotel";"HOTEL LUCKY 21";"Nikan Jaya, Kec. Lubuk Linggau Tim. I, Kota Lubuklinggau, Sumatera Selatan 31625";"Kec. Lubuk Linggau Tim. I, Kota Lubuklinggau";"SUMATERA SELATAN";"31625";"Indonesia";" 0895417300072";"";"";"-3.284115";"102.9117493";"https://maps.google.com/?cid=0x0:0xc3e0dde396102ecb";""
"hotel";"hotel";"OYO 2362 Wisma Ria";"Jl. Angsana, Marga Rahayu, Kec. Lubuk Linggau Sel. II, Kota Lubuklinggau, Sumatera Selatan 31625";"Marga Rahayu, Kec. Lubuk Linggau Sel. II, Kota Lubuklinggau";"SUMATERA SELATAN";"31625";"Indonesia";" 02129707601";"";"";"-3.2712385";"102.9275899";"https://maps.google.com/?cid=0x0:0x6afb8967e6a2742a";""
"hotel";"hotel";"N/A";"";"";"SUMATERA SELATAN";"";"Indonesia";"";"";"";"";"";"https://maps.google.com/?cid=0x0:0x6afb8967e6a2742a%7C/g/11frr1s7yc%7Cen-ID";""
"hotel";"hotel";"Hotel 929 Lubuk Linggau";"Jalan Soekarno-Hatta No.29 KM.5, Belalau I, Kec. Lubuk Linggau Utara I, Kota Lubuklinggau, Sumatera Selatan 31611";"Belalau I, Kec. Lubuk Linggau Utara I, Kota Lubuklinggau";"SUMATERA SELATAN";"31611";"Indonesia";" 0733325982";"";"";"-3.2526191";"102.8510512";"https://maps.google.com/?cid=0x0:0xed89c4b659fc5ac0";""
"hotel";"hotel";"N/A";"";"";"SUMATERA SELATAN";"";"Indonesia";"";"";"";"";"";"https://maps.google.com/?cid=0x0:0xed89c4b659fc5ac0%7C/g/11b90jlbzr%7Cen-ID";""
"hotel";"hotel";"HOTEL AURA";"Jl. Yos Sudarso, Taba Jemekeh, Kec. Lubuk Linggau Tim. I, Kota Lubuklinggau, Sumatera Selatan 31624";"Taba Jemekeh, Kec. Lubuk Linggau Tim. I, Kota Lubuklinggau";"SUMATERA SELATAN";"31624";"Indonesia";" 089632684191";"";"";"-3.2845142";"102.8850475";"https://maps.google.com/?cid=0x0:0x805e6d8a3a4fb08";""
"hotel";"hotel";"Hotel Dewinda";"Jl. Yos Sudarso Komplek Ruko Caroline Winasta Blok Blok C1, Watervang, Kec. Lubuk Linggau Tim. I, Kota Lubuklinggau, Sumatera Selatan 31628";"Watervang, Kec. Lubuk Linggau Tim. I, Kota Lubuklinggau";"SUMATERA SELATAN";"31628";"Indonesia";" 07333285353";"";"";"-3.2755129";"102.9013407";"https://maps.google.com/?cid=0x0:0x9d0e5843430afa04";""
"hotel";"hotel";"N/A";"";"";"SUMATERA SELATAN";"";"Indonesia";"";"";"";"";"";"https://maps.google.com/?cid=0x0:0x9d0e5843430afa04%7C/g/11f8y22mzg%7Cen-ID";""
"hotel";"hotel";"OYO 93462 Wisma Silampari";"Jl. Lintas Utama Sumatera, Pedang, Kec. Muara Beliti, Kabupaten Musi Rawas, Sumatera Selatan 31661";"Pedang, Kec. Muara Beliti, Kabupaten Musi Rawas";"SUMATERA SELATAN";"31661";"Indonesia";" 07333280410";"";"";"-3.2745979";"102.9720201";"https://maps.google.com/?cid=0x0:0xecc61b5522505abf";""
"hotel";"hotel";"NKR Guest House Syariah";"Jl. Mayjen S Parman No. 18 Rt 15 Rw 05 Beringin Jaya Pagar Alam Kota Pagar Alam, Prov. Sumatera Selatan, Sumatera Selatan 31510";"Prov. Sumatera Selatan";"SUMATERA SELATAN";"31510";"Indonesia";" 0811992527";"";"";"-4.0147088";"103.237767";"https://maps.google.com/?cid=0x0:0xbae5f7b613e99722";""
"hotel";"hotel";"green palm kostel";"Jl. Ngurah Rai, Majapahit, Kec. Lubuk Linggau Tim. I, Kota Lubuklinggau, Sumatera Selatan 31625";"Majapahit, Kec. Lubuk Linggau Tim. I, Kota Lubuklinggau";"SUMATERA SELATAN";"31625";"Indonesia";" 02129707601";"";"";"-3.2766794";"102.9065936";"https://maps.google.com/?cid=0x0:0xa26f6dc0fae97e92";""
"hotel";"hotel";"OYO 1266 Green Palm Residence";"Jl. Majapahit No.160, Majapahit, Kec. Lubuk Linggau Tim. I, Kota Lubuklinggau, Sumatera Selatan 31626";"Majapahit, Kec. Lubuk Linggau Tim. I, Kota Lubuklinggau";"SUMATERA SELATAN";"31626";"Indonesia";" 08041040040";"";"";"-3.2760965";"102.906333";"https://maps.google.com/?cid=0x0:0x7131ff3f5b256a27";""
"hotel";"hotel";"Wisma Silampari Mitra RedDoorz";"PXGC+5QQ, Jalan Lintas Sumatera, Kec. Muara Beliti, Kec. Lubuk Linggau Sel. II, Kabupaten Musi Rawas, Sumatera Selatan 31661";"Jalan Lintas Sumatera, Kec. Muara Beliti, Kec. Lubuk Linggau Sel. II, Kabupaten Musi Rawas";"SUMATERA SELATAN";"31661";"Indonesia";" 0895417300072";"";"";"-3.274553";"102.9719336";"https://maps.google.com/?cid=0x0:0x27a9d800a487ebe4";""
"hotel";"hotel";"RedDoorz Syariah near Watervang Lubuk Linggau 2";"Jl. Watervang No.46, Watervang, Kec. Lubuk Linggau Tim. I, Kota Lubuklinggau, Sumatera Selatan 31628";"Watervang, Kec. Lubuk Linggau Tim. I, Kota Lubuklinggau";"SUMATERA SELATAN";"31628";"Indonesia";" 0895417300072";"";"";"-3.2753088";"102.898205";"https://maps.google.com/?cid=0x0:0x5abdf25c70655777";""
"hotel";"hotel";"N/A";"";"";"SUMATERA SELATAN";"";"Indonesia";"";"";"";"";"";"https://maps.google.com/?cid=0x0:0x5abdf25c70655777%7C/g/11h89907v_%7Cen-ID";""
"hotel";"hotel";"OYO 93462 Wisma Silampari";"Jalan HM Soeharto, Lubuklinggau Selatan I Lubuklinggau Sumatra, 31626";"Kota Lubuklinggau, Sumatera Selatan";"SUMATERA SELATAN";"";"Indonesia";" 0817788016";"";"";"-3.272497";"102.9571025";"https://maps.google.com/?cid=0x0:0xf1da85def269f1db";""
"hotel";"hotel";"Sumatera Selatan 31667";"Kec. Nibung, Kab. Musi Rawas Utara, Sumatera Selatan";"Kab. Musi Rawas Utara, Sumatera Selatan";"SUMATERA SELATAN";"";"Indonesia";"";"";"";"-2.4365476";"102.9435536";"https://maps.google.com/?cid=0x0:0x51eee84d7db6be8b";""
"hotel";"hotel";"Abadi Hotel Sarolangun by Tritama Hospitality";"Ps. Sarolangun, Kec. Sarolangun, Kabupaten Sarolangun, Jambi 37481";"Kec. Sarolangun, Kabupaten Sarolangun";"SUMATERA SELATAN";"37481";"Indonesia";" 074591700";"";"";"-2.301488";"102.7243838";"https://maps.google.com/?cid=0x0:0x501c4e8da1650eb7";""
"hotel";"hotel";"N/A";"";"";"SUMATERA SELATAN";"";"Indonesia";"";"";"";"";"";"https://maps.google.com/?cid=0x0:0x501c4e8da1650eb7%7C/g/11bwgkd45h%7Cen-ID";""
"hotel";"hotel";"RedDoorz Syariah @ Naufal Residence Sarolangun";"PP4M+QR4 RT 03 Pulau pinang, Sarolangun Kembang, Kec. Sarolangun, Kabupaten Sarolangun, Jambi 37481";"Sarolangun Kembang, Kec. Sarolangun, Kabupaten Sarolangun";"SUMATERA SELATAN";"37481";"Indonesia";" 0895417300072";"";"";"-2.2930902";"102.7344946";"https://maps.google.com/?cid=0x0:0x6569ce4bd474c16a";""
"hotel";"hotel";"Golden Hotel Sarolangun";"MPPJ+3GX, Gn. Kembang, Kec. Sarolangun, Kabupaten Sarolangun, Jambi 37481";"Gn. Kembang, Kec. Sarolangun, Kabupaten Sarolangun";"SUMATERA SELATAN";"37481";"Indonesia";" 081279954367";"";"";"-2.3147612";"102.7313723";"https://maps.google.com/?cid=0x0:0x99e177e478fce8bf";""
"hotel";"hotel";"N/A";"";"";"SUMATERA SELATAN";"";"Indonesia";"";"";"";"";"";"https://maps.google.com/?cid=0x0:0x99e177e478fce8bf%7C/g/11b7yx7bcr%7Cen-ID";""
"hotel";"hotel";"Hotel KING";"Jl. Lintas Utama Sumatera No.Km.2, Aur, Kec. Sarolangun, Kabupaten Sarolangun, Jambi 37481";"Aur, Kec. Sarolangun, Kabupaten Sarolangun";"SUMATERA SELATAN";"37481";"Indonesia";" 081271219192";"";"";"-2.3033068";"102.7124926";"https://maps.google.com/?cid=0x0:0xef0d1d4d0963aac9";""
"hotel";"hotel";"Green Hotel";"Jl Palembang Jambi Km 121 Sri Gunung, Musi, Kec. Sungai Lilin, Kab. Banyuasin, Sumatera Selatan 30755";"Musi, Kec. Sungai Lilin, Kab. Banyuasin";"SUMATERA SELATAN";"30755";"Indonesia";"";"";"";"-2.530988";"104.1082825";"https://maps.google.com/?cid=0x0:0x1aa1043c81927d2a";""
"hotel";"hotel";"Hotel Atika";"Jalan lintas sumatera Km 1, Sripelayang, Sarolangun Kembang, Kec. Sarolangun, Kabupaten Sarolangun, Jambi 37481";"Sripelayang, Sarolangun Kembang, Kec. Sarolangun, Kabupaten Sarolangun";"SUMATERA SELATAN";"37481";"Indonesia";" 082183471618";"";"";"-2.3060292";"102.7285118";"https://maps.google.com/?cid=0x0:0xdd5fff6c03b77241";""
"hotel";"hotel";"Hotel Ratu";"JL. Pasar, Jl. Lintas Barat Sumatera, Ps. Sarolangun, Kec. Sarolangun, Kabupaten Sarolangun, Jambi 37481";"Jl. Lintas Barat Sumatera, Ps. Sarolangun, Kec. Sarolangun, Kabupaten Sarolangun";"SUMATERA SELATAN";"37481";"Indonesia";" 074591147";"";"";"-2.301082";"102.7182228";"https://maps.google.com/?cid=0x0:0x9586603b5c4eb104";""
"hotel";"hotel";"Hotel Rediseno";"C436+J94, Sungai Lilin, Kec. Sungai Lilin, Kabupaten Musi Banyuasin, Sumatera Selatan 30755";"Sungai Lilin, Kec. Sungai Lilin, Kabupaten Musi Banyuasin";"SUMATERA SELATAN";"30755";"Indonesia";"";"";"";"-2.5959762";"104.1109474";"https://maps.google.com/?cid=0x0:0x1a8239fc80bef343";""
"hotel";"hotel";"Hotel Sayang Sarolangun";"Ps. Sarolangun, Kec. Sarolangun, Kabupaten Sarolangun, Jambi 37481";"Kec. Sarolangun, Kabupaten Sarolangun";"SUMATERA SELATAN";"37481";"Indonesia";" 074591422";"";"";"-2.3008252";"102.720767";"https://maps.google.com/?cid=0x0:0xf0d318c7bb2d8391";""
"hotel";"hotel";"Naufal Kost";"Jl. Sarolangun - Muara Tembesi, Sarolangun Kembang, Kec. Sarolangun, Kabupaten Sarolangun, Jambi 37491";"Sarolangun Kembang, Kec. Sarolangun, Kabupaten Sarolangun";"SUMATERA SELATAN";"37491";"Indonesia";" 02129707601";"";"";"-2.2933329";"102.7346111";"https://maps.google.com/?cid=0x0:0x33133a3481507a07";""
"hotel";"hotel";"Hotel Ratu Agung";"Jl. Jenderal Ahmad Yani No.5, 7 Ulu, Seberang Ulu I, 7 Ulu, Kecamatan Seberang Ulu I, Kota Palembang, Sumatera Selatan 30111";"7 Ulu, Seberang Ulu I, 7 Ulu, Kecamatan Seberang Ulu I, Kota Palembang";"SUMATERA SELATAN";"30111";"Indonesia";" 0711510644";"";"";"-3.0010992";"104.7672163";"https://maps.google.com/?cid=0x0:0xc80107de11b59839";""
"hotel";"hotel";"Hotel Anugera";"Jl. Raya Belitang BK No.9, Serbaguna, Kec. Belitang, Kabupaten Ogan Komering Ulu Timur, Sumatera Selatan 32382";"Serbaguna, Kec. Belitang, Kabupaten Ogan Komering Ulu Timur";"SUMATERA SELATAN";"32382";"Indonesia";" 082373831373";"";"";"-4.1421069";"104.6337782";"https://maps.google.com/?cid=0x0:0x2ea833528030c4a5";""
"hotel";"hotel";"Hotel Rendate 1";"Jl. DR. Sutomo No.703, Sukajadi, Kec. Baturaja Timur, Kabupaten Ogan Komering Ulu, Sumatera Selatan 32112";"Sukajadi, Kec. Baturaja Timur, Kabupaten Ogan Komering Ulu";"SUMATERA SELATAN";"32112";"Indonesia";" 082183064300";"";"";"-4.1094417";"104.1705575";"https://maps.google.com/?cid=0x0:0x7ba5bdde62bb1507";""
"hotel";"hotel";"N/A";"";"";"SUMATERA SELATAN";"";"Indonesia";"";"";"";"";"";"https://maps.google.com/?cid=0x0:0x29f5b3ee5596105e%7C/g/1tf62ljg%7Cen-ID";""
"hotel";"hotel";"Hotel Wisata";"107, Jl. Letkol Iskandar No.105, 15 Ilir, Kec. Ilir Tim. I, Kota Palembang, Sumatera Selatan 30111";"Jl. Letkol Iskandar No.105, 15 Ilir, Kec. Ilir Tim. I, Kota Palembang";"SUMATERA SELATAN";"30111";"Indonesia";" 0711352681";"";"";"-2.982105";"104.7602005";"https://maps.google.com/?cid=0x0:0x29f5b3ee5596105e";""
"hotel";"hotel";"Hotel Grand Ranggonang";"Jl. Merdeka LK II No.245, Balai Agung, Kec. Sekayu, Kabupaten Musi Banyuasin, Sumatera Selatan 30711";"Balai Agung, Kec. Sekayu, Kabupaten Musi Banyuasin";"SUMATERA SELATAN";"30711";"Indonesia";" 081274745180";"";"";"-2.8737744";"103.8317871";"https://maps.google.com/?cid=0x0:0x5b56dfc89387bb04";""
"hotel";"hotel";"PENGINAPAN FINA";"3PG5+MQH, Jl. Sultan Hasanudin III, Karya Baru, Kec. Alang-Alang Lebar, Kota Palembang, Sumatera Selatan 30961";"Jl. Sultan Hasanudin III, Karya Baru, Kec. Alang-Alang Lebar, Kota Palembang";"SUMATERA SELATAN";"30961";"Indonesia";" 07115613498";"";"";"-2.9233092";"104.7094913";"https://maps.google.com/?cid=0x0:0xbd69488284c70a1c";""
"hotel";"hotel";"Hotel Pelangi";"Jl. Lkr. Randik No.20, Serasan Jaya, Kec. Sekayu, Kabupaten Musi Banyuasin, Sumatera Selatan 30711";"Serasan Jaya, Kec. Sekayu, Kabupaten Musi Banyuasin";"SUMATERA SELATAN";"30711";"Indonesia";" 081367770833";"";"";"-2.8770613";"103.8572317";"https://maps.google.com/?cid=0x0:0xf7fd82a2b6950312";""
"hotel";"hotel";"SulthanHomeatay2";"XQCM+45G, 15 Ulu, Kecamatan Seberang Ulu I, Kota Palembang, Sumatera Selatan 30267";"15 Ulu, Kecamatan Seberang Ulu I, Kota Palembang";"SUMATERA SELATAN";"30267";"Indonesia";"";"";"";"-3.0296276";"104.7830362";"https://maps.google.com/?cid=0x0:0xced4a6891ee2bb38";""
"hotel";"hotel";"Watuduya Resort by The Lavana";"Jl. Raya Sijuk, Dusun Ulu, Sijuk, Kabupaten Belitung, Kepulauan Bangka Belitung 33414";"Dusun Ulu, Sijuk, Kabupaten Belitung";"SUMATERA SELATAN";"33414";"Indonesia";" 0895417300072";"";"";"-2.5571572";"107.7388469";"https://maps.google.com/?cid=0x0:0xaba61fda01db68e6";""
"hotel";"hotel";"Sumatera Selatan 31655";"Kec. Rawas Ilir, Kabupaten Musi Rawas, Sumatera Selatan";"Kabupaten Musi Rawas, Sumatera Selatan";"SUMATERA SELATAN";"";"Indonesia";"";"";"";"-2.6657075";"103.2201828";"https://maps.google.com/?cid=0x0:0x9daabcd0688b6fb7";""
"hotel";"hotel";"Burza Hotel Lubuklinggau";"Jl. Yos Sudarso No.143, Watervang, Kec. Lubuk Linggau Tim. I, Kota Lubuklinggau, Sumatera Selatan 31628";"Watervang, Kec. Lubuk Linggau Tim. I, Kota Lubuklinggau";"SUMATERA SELATAN";"31628";"Indonesia";" 07333280088";"";"";"-3.2776032";"102.8970972";"https://maps.google.com/?cid=0x0:0x4fb4e95f23ada624";""
"hotel";"hotel";"N/A";"";"";"SUMATERA SELATAN";"";"Indonesia";"";"";"";"";"";"https://maps.google.com/?cid=0x0:0x4fb4e95f23ada624%7C/g/11b88g6lm5%7Cen-ID";""
"hotel";"hotel";"WE Hotel Lubuk Linggau";"Jl. Yos Sudarso No.70, RW.72, Taba Jemekeh, Kec. Lubuk Linggau Tim. I, Kota Lubuklinggau, Sumatera Selatan 31625";"RW.72, Taba Jemekeh, Kec. Lubuk Linggau Tim. I, Kota Lubuklinggau";"SUMATERA SELATAN";"31625";"Indonesia";" 07333286777";"";"";"-3.2874168";"102.8787931";"https://maps.google.com/?cid=0x0:0x8ae599c134802184";""
"hotel";"hotel";"N/A";"";"";"SUMATERA SELATAN";"";"Indonesia";"";"";"";"";"";"https://maps.google.com/?cid=0x0:0x8ae599c134802184%7C/g/11h3c_j44d%7Cen-ID";""
"hotel";"hotel";"Famvida Hotel Linggau";"Jalan HM Soeharto.Km.12, RW No.168, Lubuk Kupang, Kec. Lubuk Linggau Sel. I, Kota Lubuklinggau, Sumatera Selatan 31626";"RW No.168, Lubuk Kupang, Kec. Lubuk Linggau Sel. I, Kota Lubuklinggau";"SUMATERA SELATAN";"31626";"Indonesia";" 07333281888";"";"";"-3.2715821";"102.9519074";"https://maps.google.com/?cid=0x0:0xfb61a8d6a7b59c88";""
"hotel";"hotel";"N/A";"";"";"SUMATERA SELATAN";"";"Indonesia";"";"";"";"";"";"https://maps.google.com/?cid=0x0:0xfb61a8d6a7b59c88%7C/g/11f4wtbwlb%7Cen-ID";""
"hotel";"hotel";"Sempurna Hotel";"Jl. Yos Sudarso No.298, Watervang, Kec. Lubuk Linggau Tim. I, Kota Lubuklinggau, Sumatera Selatan 31625";"Watervang, Kec. Lubuk Linggau Tim. I, Kota Lubuklinggau";"SUMATERA SELATAN";"31625";"Indonesia";" 0895417300072";"";"";"-3.2762397";"102.89987";"https://maps.google.com/?cid=0x0:0x47a46bbfbcf37868";""
"hotel";"hotel";"N/A";"";"";"SUMATERA SELATAN";"";"Indonesia";"";"";"";"";"";"https://maps.google.com/?cid=0x0:0x47a46bbfbcf37868%7C/g/12hl4q2xs%7Cen-ID";""
"hotel";"hotel";"Hotel Hakmaz Taba Lubuklinggau";"Jl. Yos Sudarso No.28, Majapahit, Kec. Lubuk Linggau Tim. I, Kota Lubuklinggau, Sumatera Selatan 31617";"Majapahit, Kec. Lubuk Linggau Tim. I, Kota Lubuklinggau";"SUMATERA SELATAN";"31617";"Indonesia";" 082128006576";"";"";"-3.2695926";"102.9100815";"https://maps.google.com/?cid=0x0:0xcd462dfb79459c73";""
"hotel";"hotel";"AMAZING RIVERSIDE HOTEL";"Jl. Yos Sudarso No.13, Taba Jemekeh, Kec. Lubuk Linggau Tim. I, Kota Lubuklinggau, Sumatera Selatan 31624";"Taba Jemekeh, Kec. Lubuk Linggau Tim. I, Kota Lubuklinggau";"SUMATERA SELATAN";"31624";"Indonesia";" 07333283304";"";"";"-3.2871946";"102.880497";"https://maps.google.com/?cid=0x0:0xf49ca5b126d164b5";""
"hotel";"hotel";"N/A";"";"";"SUMATERA SELATAN";"";"Indonesia";"";"";"";"";"";"https://maps.google.com/?cid=0x0:0xf49ca5b126d164b5%7C/g/11fb0wc907%7Cen-ID";""
"hotel";"hotel";"SMart Hotel Lubuklinggau";"Jl. Yos Sudarso, Jawa Kanan Ss, Kec. Lubuk Linggau Tim. II, Kota Lubuklinggau, Sumatera Selatan 31621";"Jawa Kanan Ss, Kec. Lubuk Linggau Tim. II, Kota Lubuklinggau";"SUMATERA SELATAN";"31621";"Indonesia";" 0733320000";"";"";"-3.2952549";"102.8667876";"https://maps.google.com/?cid=0x0:0xb10a21c176d5ba15";""
"hotel";"hotel";"N/A";"";"";"SUMATERA SELATAN";"";"Indonesia";"";"";"";"";"";"https://maps.google.com/?cid=0x0:0xb10a21c176d5ba15%7C/g/1hd_7gqnk%7Cen-ID";""
"hotel";"hotel";"COZY STYLE HOTEL";"Jl. Yos Sudarso No.309, Dempo, Kec. Lubuk Linggau Tim. II, Kota Lubuklinggau, Sumatera Selatan 31613";"Dempo, Kec. Lubuk Linggau Tim. II, Kota Lubuklinggau";"SUMATERA SELATAN";"31613";"Indonesia";" 07333285555";"";"";"-3.2956599";"102.867082";"https://maps.google.com/?cid=0x0:0x78e03f7c22570a7a";""
"hotel";"hotel";"Hotel Dewinda";"Jl. Yos Sudarso Komplek Ruko Caroline Winasta Blok Blok C1, Watervang, Kec. Lubuk Linggau Tim. I, Kota Lubuklinggau, Sumatera Selatan 31628";"Watervang, Kec. Lubuk Linggau Tim. I, Kota Lubuklinggau";"SUMATERA SELATAN";"31628";"Indonesia";" 07333285353";"";"";"-3.2755129";"102.9013407";"https://maps.google.com/?cid=0x0:0x9d0e5843430afa04";""
"hotel";"hotel";"N/A";"";"";"SUMATERA SELATAN";"";"Indonesia";"";"";"";"";"";"https://maps.google.com/?cid=0x0:0x9d0e5843430afa04%7C/g/11f8y22mzg%7Cen-ID";""
"hotel";"hotel";"Hotel Lintas Sumatra";"Jl. Yos Sudarso No.21, Dempo, Kec. Lubuk Linggau Tim. II, Kota Lubuklinggau, Sumatera Selatan 31613";"Dempo, Kec. Lubuk Linggau Tim. II, Kota Lubuklinggau";"SUMATERA SELATAN";"31613";"Indonesia";" 0733321370";"";"";"-3.295268";"102.8675158";"https://maps.google.com/?cid=0x0:0xbb0c91d6ac6ab390";""
"hotel";"hotel";"HOTEL AURA";"Jl. Yos Sudarso, Taba Jemekeh, Kec. Lubuk Linggau Tim. I, Kota Lubuklinggau, Sumatera Selatan 31624";"Taba Jemekeh, Kec. Lubuk Linggau Tim. I, Kota Lubuklinggau";"SUMATERA SELATAN";"31624";"Indonesia";" 089632684191";"";"";"-3.2845142";"102.8850475";"https://maps.google.com/?cid=0x0:0x805e6d8a3a4fb08";""
"hotel";"hotel";"HOTEL LUCKY 21";"Nikan Jaya, Kec. Lubuk Linggau Tim. I, Kota Lubuklinggau, Sumatera Selatan 31625";"Kec. Lubuk Linggau Tim. I, Kota Lubuklinggau";"SUMATERA SELATAN";"31625";"Indonesia";" 0895417300072";"";"";"-3.284115";"102.9117493";"https://maps.google.com/?cid=0x0:0xc3e0dde396102ecb";""
"hotel";"hotel";"Hotel Ridan Aria";"Jl. Garuda No.24, Ps. Permiri, Kec. Lubuk Linggau Bar. II, Kota, Sumatera Selatan 31613";"Ps. Permiri, Kec. Lubuk Linggau Bar. II, Kota";"SUMATERA SELATAN";"31613";"Indonesia";" 087865332069";"";"";"-3.2967345";"102.8633296";"https://maps.google.com/?cid=0x0:0x4c3ca283f08b7032";""
"hotel";"hotel";"OYO 93462 Wisma Silampari";"Jl. Lintas Utama Sumatera, Pedang, Kec. Muara Beliti, Kabupaten Musi Rawas, Sumatera Selatan 31661";"Pedang, Kec. Muara Beliti, Kabupaten Musi Rawas";"SUMATERA SELATAN";"31661";"Indonesia";" 07333280410";"";"";"-3.2745979";"102.9720201";"https://maps.google.com/?cid=0x0:0xecc61b5522505abf";""
"hotel";"hotel";"OYO 2362 Wisma Ria";"Jl. Angsana, Marga Rahayu, Kec. Lubuk Linggau Sel. II, Kota Lubuklinggau, Sumatera Selatan 31625";"Marga Rahayu, Kec. Lubuk Linggau Sel. II, Kota Lubuklinggau";"SUMATERA SELATAN";"31625";"Indonesia";" 02129707601";"";"";"-3.2712385";"102.9275899";"https://maps.google.com/?cid=0x0:0x6afb8967e6a2742a";""
"hotel";"hotel";"N/A";"";"";"SUMATERA SELATAN";"";"Indonesia";"";"";"";"";"";"https://maps.google.com/?cid=0x0:0x6afb8967e6a2742a%7C/g/11frr1s7yc%7Cen-ID";""
"hotel";"hotel";"N/A";"";"";"SUMATERA SELATAN";"";"Indonesia";"";"";"";"";"";"https://maps.google.com/?cid=0x0:0xed89c4b659fc5ac0%7C/g/11b90jlbzr%7Cen-ID";""
"hotel";"hotel";"Hotel 929 Lubuk Linggau";"Jalan Soekarno-Hatta No.29 KM.5, Belalau I, Kec. Lubuk Linggau Utara I, Kota Lubuklinggau, Sumatera Selatan 31611";"Belalau I, Kec. Lubuk Linggau Utara I, Kota Lubuklinggau";"SUMATERA SELATAN";"31611";"Indonesia";" 0733325982";"";"";"-3.2526191";"102.8510512";"https://maps.google.com/?cid=0x0:0xed89c4b659fc5ac0";""
"hotel";"hotel";"OYO 1266 Green Palm Residence";"Jl. Majapahit No.160, Majapahit, Kec. Lubuk Linggau Tim. I, Kota Lubuklinggau, Sumatera Selatan 31626";"Majapahit, Kec. Lubuk Linggau Tim. I, Kota Lubuklinggau";"SUMATERA SELATAN";"31626";"Indonesia";" 08041040040";"";"";"-3.2760965";"102.906333";"https://maps.google.com/?cid=0x0:0x7131ff3f5b256a27";""
"hotel";"hotel";"N/A";"";"";"SUMATERA SELATAN";"";"Indonesia";"";"";"";"";"";"https://maps.google.com/?cid=0x0:0x5abdf25c70655777%7C/g/11h89907v_%7Cen-ID";""
"hotel";"hotel";"RedDoorz Syariah near Watervang Lubuk Linggau 2";"Jl. Watervang No.46, Watervang, Kec. Lubuk Linggau Tim. I, Kota Lubuklinggau, Sumatera Selatan 31628";"Watervang, Kec. Lubuk Linggau Tim. I, Kota Lubuklinggau";"SUMATERA SELATAN";"31628";"Indonesia";" 0895417300072";"";"";"-3.2753088";"102.898205";"https://maps.google.com/?cid=0x0:0x5abdf25c70655777";""
"hotel";"hotel";"Sumatera Selatan 31656";"Kabupaten Musi Rawas, Sumatera Selatan";"Kabupaten Musi Rawas, Sumatera Selatan";"SUMATERA SELATAN";"";"Indonesia";"";"";"";"-2.6716149";"102.6675575";"https://maps.google.com/?cid=0x0:0x829aeb46883c7ea6";""
"hotel";"Rumah wisata";"Mess AWS Aru WEST";"8JFF+FM, Lubuk Mas, Kec. Rawas Ulu, Kabupaten Musi Rawas, Sumatera Selatan";"Kabupaten Musi Rawas, Sumatera Selatan";"SUMATERA SELATAN";"";"Indonesia";"";"";"";"-2.6763543";"102.6242281";"https://maps.google.com/?cid=0x0:0xf96b8ad5ef068d82";""
"hotel";"Hotel";"Hotel makcalme";"8MXW+39W, Pulau Lebar, Kec. Rawas Ulu, Kab. Musi Rawas Utara, Sumatera Selatan 31656";"Pulau Lebar, Kec. Rawas Ulu, Kab. Musi Rawas Utara";"SUMATERA SELATAN";"31656";"Indonesia";"";"";"";"-2.6523316";"102.6970457";"https://maps.google.com/?cid=0x0:0xd459fa8774c9f986";""
"hotel";"Tujuan Wisata";"Pondok EEN Hebid Div III ARU West";"8JJW+XPQ, Pangkalan, Kec. Rawas Ulu, Kab. Musi Rawas Utara, Sumatera Selatan";"Kab. Musi Rawas Utara, Sumatera Selatan";"SUMATERA SELATAN";"";"Indonesia";"";"";"";"-2.6675283";"102.64687";"https://maps.google.com/?cid=0x0:0x98f3b460f023baef";""
"hotel";"Hotel";"Hotel Nagoya";"6P67+VCR, Embacang Lama, Kec. Karang Jaya, Kab. Musi Rawas Utara, Sumatera Selatan";"Kab. Musi Rawas Utara, Sumatera Selatan";"SUMATERA SELATAN";"";"Indonesia";"";"";"";"-2.787759";"102.7135121";"https://maps.google.com/?cid=0x0:0xe64486a6c3680b6d";""
"hotel";"Pondok";"Rumah Faisol H.Yunus";"8PQG+F2C, Sungai Baung, Kec. Rawas Ulu, Kab. Musi Rawas Utara, Sumatera Selatan 31656";"Sungai Baung, Kec. Rawas Ulu, Kab. Musi Rawas Utara";"SUMATERA SELATAN";"31656";"Indonesia";"";"";"";"-2.6613074";"102.7250036";"https://maps.google.com/?cid=0x0:0x8d1ef411e6d7d56d";""
"hotel";"hotel";"OYO 93462 Wisma Silampari";"Jl. Lintas Utama Sumatera, Pedang, Kec. Muara Beliti, Kabupaten Musi Rawas, Sumatera Selatan 31661";"Pedang, Kec. Muara Beliti, Kabupaten Musi Rawas";"SUMATERA SELATAN";"31661";"Indonesia";" 07333280410";"";"";"-3.2745979";"102.9720201";"https://maps.google.com/?cid=0x0:0xecc61b5522505abf";""
"hotel";"hotel";"Wisma Silampari Mitra RedDoorz";"PXGC+5QQ, Jalan Lintas Sumatera, Kec. Muara Beliti, Kec. Lubuk Linggau Sel. II, Kabupaten Musi Rawas, Sumatera Selatan 31661";"Jalan Lintas Sumatera, Kec. Muara Beliti, Kec. Lubuk Linggau Sel. II, Kabupaten Musi Rawas";"SUMATERA SELATAN";"31661";"Indonesia";" 0895417300072";"";"";"-3.274553";"102.9719336";"https://maps.google.com/?cid=0x0:0x27a9d800a487ebe4";""
"hotel";"hotel";"Naffa The Cost";"Jl. Perkantoran No.RT. 17, Sarolangun Kembang, Kec. Sarolangun, Kabupaten Sarolangun, Jambi";"Kabupaten Sarolangun, Jambi";"SUMATERA SELATAN";"";"Indonesia";" 0895417300072";"";"";"-2.3127898";"102.74385";"https://maps.google.com/?cid=0x0:0x96b5102b01dacf0f";""
"hotel";"hotel";"RedDoorz Syariah @ Naufal Residence Sarolangun";"PP4M+QR4 RT 03 Pulau pinang, Sarolangun Kembang, Kec. Sarolangun, Kabupaten Sarolangun, Jambi 37481";"Sarolangun Kembang, Kec. Sarolangun, Kabupaten Sarolangun";"SUMATERA SELATAN";"37481";"Indonesia";" 0895417300072";"";"";"-2.2930902";"102.7344946";"https://maps.google.com/?cid=0x0:0x6569ce4bd474c16a";""
"hotel";"hotel";"Naufal Kost";"Jl. Sarolangun - Muara Tembesi, Sarolangun Kembang, Kec. Sarolangun, Kabupaten Sarolangun, Jambi 37491";"Sarolangun Kembang, Kec. Sarolangun, Kabupaten Sarolangun";"SUMATERA SELATAN";"37491";"Indonesia";" 02129707601";"";"";"-2.2933329";"102.7346111";"https://maps.google.com/?cid=0x0:0x33133a3481507a07";""
"hotel";"hotel";"Kec. Rupit";"Kab. Musi Rawas Utara, Sumatera Selatan";"Kab. Musi Rawas Utara, Sumatera Selatan";"SUMATERA SELATAN";"";"Indonesia";"";"";"";"-2.7205772";"102.9116717";"https://maps.google.com/?cid=0x0:0xa822b6d74806cc91";""
"hotel";"Penginapan religi";"Penginapan Syari'ah Rupit";"Jl. Sma negeri, Muara Rupit, Kec. Rupit, Kab. Musi Rawas Utara, Sumatera Selatan 31654";"Muara Rupit, Kec. Rupit, Kab. Musi Rawas Utara";"SUMATERA SELATAN";"31654";"Indonesia";" 082177956996";"";"";"-2.7260843";"102.9115599";"https://maps.google.com/?cid=0x0:0x9ec03caa67716f1a";""
"hotel";"Penginapan religi";"KOSAN KHANSA  HOME STAY";"Batu Gajah Baru, Kec. Rupit, Kab. Musi Rawas Utara, Sumatera Selatan 31654";"Kec. Rupit, Kab. Musi Rawas Utara";"SUMATERA SELATAN";"31654";"Indonesia";" 081271866967";"";"";"-2.7989508";"102.8401835";"https://maps.google.com/?cid=0x0:0x4c6f5c0bd941589e";""
"hotel";"Hotel";"HOTEL BINTANG TUJUH";"8V4X+CP6, Lawang Agung, Kec. Rupit, Kab. Musi Rawas Utara, Sumatera Selatan 31654";"Lawang Agung, Kec. Rupit, Kab. Musi Rawas Utara";"SUMATERA SELATAN";"31654";"Indonesia";"";"";"";"-2.6939718";"102.8992504";"https://maps.google.com/?cid=0x0:0xf873cee7aa4523af";""
"hotel";"Hostel";"Wisma gacor selalu";"8WC5+22X, Lubuk Rumbai Baru, Kec. Rupit, Kab. Musi Rawas Utara, Sumatera Selatan 31654";"Lubuk Rumbai Baru, Kec. Rupit, Kab. Musi Rawas Utara";"SUMATERA SELATAN";"31654";"Indonesia";" 082311907573";"";"";"-2.6798842";"102.9076068";"https://maps.google.com/?cid=0x0:0xf6582b7b2bc5c4ee";""
"hotel";"Komplek perumahan";"Bedeng FALAH";"7WG5+W43, Jl. Pendidikan, Muara Rupit, Kec. Rupit, Kab. Musi Rawas Utara, Sumatera Selatan 31654";"Jl. Pendidikan, Muara Rupit, Kec. Rupit, Kab. Musi Rawas Utara";"SUMATERA SELATAN";"31654";"Indonesia";" 081278157138";"";"";"-2.7227252";"102.9077984";"https://maps.google.com/?cid=0x0:0xf3a803b0b1a7dd83";""
"hotel";"Hotel";"HOTEL WAK ASIM";"8VGJ+839, Karang Waru, Kec. Rupit, Kab. Musi Rawas Utara, Sumatera Selatan 31654";"Karang Waru, Kec. Rupit, Kab. Musi Rawas Utara";"SUMATERA SELATAN";"31654";"Indonesia";"";"";"";"-2.674221";"102.8802479";"https://maps.google.com/?cid=0x0:0xd301122baa08ba03";""
"hotel";"Hotel";"PAnggara RK";"8VH4+3RM, Unnamed Road, Karang Anyar, Kec. Rupit, Kab. Musi Rawas Utara, Sumatera Selatan 31654";"Unnamed Road, Karang Anyar, Kec. Rupit, Kab. Musi Rawas Utara";"SUMATERA SELATAN";"31654";"Indonesia";"";"";"";"-2.672295";"102.8570403";"https://maps.google.com/?cid=0x0:0x4374f60cdcadf801";""
"hotel";"Rumah wisata";"zona merah";"8VVV+X58, Sungai Jernih, Kec. Rupit, Kab. Musi Rawas Utara, Sumatera Selatan 31654";"Sungai Jernih, Kec. Rupit, Kab. Musi Rawas Utara";"SUMATERA SELATAN";"31654";"Indonesia";"";"";"";"-2.6551722";"102.892989";"https://maps.google.com/?cid=0x0:0xd56dfb76fd7305d2";""
"hotel";"Hotel";"Hotel Nagoya";"6P67+VCR, Embacang Lama, Kec. Karang Jaya, Kab. Musi Rawas Utara, Sumatera Selatan";"Kab. Musi Rawas Utara, Sumatera Selatan";"SUMATERA SELATAN";"";"Indonesia";"";"";"";"-2.787759";"102.7135121";"https://maps.google.com/?cid=0x0:0xe64486a6c3680b6d";""
"hotel";"hotel";"T-Rooms";"Lorong Teratai II No.189, Kebun Bunga, Kec. Sukarami, Kota Palembang, Sumatera Selatan 30961";"Kebun Bunga, Kec. Sukarami, Kota Palembang";"SUMATERA SELATAN";"30961";"Indonesia";" 081278000078";"";"";"-2.906863";"104.722118";"https://maps.google.com/?cid=0x0:0xb8301d2d83088bb4";""
"hotel";"hotel";"South Sumatra Hotel";"Jl. Jenderal Sudirman No.17-B, Gn. Ibul, Kec. Prabumulih Tim., Kota Prabumulih, Sumatera Selatan 31121";"Gn. Ibul, Kec. Prabumulih Tim., Kota Prabumulih";"SUMATERA SELATAN";"31121";"Indonesia";" 0713321623";"";"";"-3.4099976";"104.2612505";"https://maps.google.com/?cid=0x0:0x3f707a503d798fc5";""
"hotel";"hotel";"Hotel Zulian Transit";"C34P+9WG, Ps. Tebing Tinggi, Kec. Tebing Tinggi, Kabupaten Empat Lawang, Sumatera Selatan 31453";"Ps. Tebing Tinggi, Kec. Tebing Tinggi, Kabupaten Empat Lawang";"SUMATERA SELATAN";"31453";"Indonesia";" 070221857";"";"";"-3.5940719";"103.0873142";"https://maps.google.com/?cid=0x0:0x92bb5778f2087a7a";""
"hotel";"hotel";"Rupit";"08569, Provinsi Barcelona, Spanyol";"Rupit, Spanyol";"SUMATERA SELATAN";"";"Indonesia";"";"";"";"42.0245042";"2.4655228";"https://maps.google.com/?cid=0x0:0xa5dbe78a7e794f82";""
"hotel";"hotel";"Casa Can Rufo de Rupit";"Sant Joan de Fabregues, 42 BIS, 08569 Rupit, Barcelona, Spanyol";"Rupit";"SUMATERA SELATAN";"08569";"Indonesia";" +34625086296";"";"";"42.0228302";"2.4627847";"https://maps.google.com/?cid=0x0:0xd1bf1dc8e992bd90";""
"hotel";"hotel";"Santa Llúcia Rupit";"Camí de Santa Llúcia, 32, 08569 Rupit, Barcelona, Spanyol";"Rupit";"SUMATERA SELATAN";"08569";"Indonesia";" +34621289583";"";"";"42.0207509";"2.4722369";"https://maps.google.com/?cid=0x0:0x925ecd706f4c1189";""
"hotel";"hotel";"N/A";"";"";"SUMATERA SELATAN";"";"Indonesia";"";"";"";"";"";"https://maps.google.com/?cid=0x0:0xc5df08a149ee3aff%7C/g/11g7z7ql3x%7Cen-ID";""
"hotel";"hotel";"Hostal Estrella";"Plaça del Bisbe Font, 1, 08569 Rupit, Barcelona, Spanyol";"Rupit";"SUMATERA SELATAN";"08569";"Indonesia";" +34938522005";"";"";"42.024095";"2.4649058";"https://maps.google.com/?cid=0x0:0xc5df08a149ee3aff";""
"hotel";"hotel";"L'Avenc Benestar Rural Apart-hotel";"Mas L'Avenc, s/n Camí rural, 08511 Tavertet, Barcelona, Spanyol";"Tavertet";"SUMATERA SELATAN";"08511";"Indonesia";" +34938816159";"";"";"42.0054195";"2.4415916";"https://maps.google.com/?cid=0x0:0xbdb5df2631bf452";""
"hotel";"hotel";"N/A";"";"";"SUMATERA SELATAN";"";"Indonesia";"";"";"";"";"";"https://maps.google.com/?cid=0x0:0xbdb5df2631bf452%7C/g/1vzsj044%7Cen-ID";""
"hotel";"hotel";"Hotel Restaurant Santuari de la Salut de Sant Feliu de Pallerols";"C-153, Km 40, 17174 Sant Feliu de Pallerols, Girona, Spanyol";"Sant Feliu de Pallerols";"SUMATERA SELATAN";"17174";"Indonesia";" +34972444006";"";"";"42.0631256";"2.4961717";"https://maps.google.com/?cid=0x0:0xfeea94d3ee3d1001";""
"hotel";"hotel";"Hostal Cabrerès";"Carrer Major, 26, 08569 Cantonigròs, Barcelona, Spanyol";"Cantonigròs";"SUMATERA SELATAN";"08569";"Indonesia";" +34938565022";"";"";"42.0396117";"2.4033609";"https://maps.google.com/?cid=0x0:0x4c31db09708808b6";""
"hotel";"hotel";"La casa de la masia";"El Solà Les Vinyes, Barri el Far, 51, 17166 Susqueda, Girona, Spanyol";"Susqueda";"SUMATERA SELATAN";"17166";"Indonesia";" +34654544362";"";"";"42.0378946";"2.5163505";"https://maps.google.com/?cid=0x0:0x873141a28290e7ea";""
"hotel";"hotel";"N/A";"";"";"SUMATERA SELATAN";"";"Indonesia";"";"";"";"";"";"https://maps.google.com/?cid=0x0:0x54ccf942bdd38c73%7C/g/1td8g5fq%7Cen-ID";""
"hotel";"hotel";"Fonda Marsal";"Carrer del Manyà, 3, 08569 Rupit, Barcelona, Spanyol";"Rupit";"SUMATERA SELATAN";"08569";"Indonesia";" +34938522086";"";"";"42.0242955";"2.4648396";"https://maps.google.com/?cid=0x0:0x54ccf942bdd38c73";""
"hotel";"hotel";"Restaurant Coll de Condreu";"Carretera Comarcal Vic a Olot, km 38, 5, 17176 Sant Esteve d'en Bas, Girona, Spanyol";"Sant Esteve d'en Bas";"SUMATERA SELATAN";"17176";"Indonesia";" +34972444319";"";"";"42.0466575";"2.510688";"https://maps.google.com/?cid=0x0:0x8ed7441ee01bc5c5";""
"hotel";"hotel";"N/A";"";"";"SUMATERA SELATAN";"";"Indonesia";"";"";"";"";"";"https://maps.google.com/?cid=0x0:0xb9ec309fcaf7a627%7C/g/11xfjmn2p%7Cen-ID";""
"hotel";"hotel";"BB La Rectoria de Sant Miquel de Pineda";"Veinat de Sant Miquel de Pineda, 15, 17174 Sant Feliu de Pallerols, Girona, Spanyol";"Sant Feliu de Pallerols";"SUMATERA SELATAN";"17174";"Indonesia";" +34691353111";"";"";"42.1019482";"2.4940893";"https://maps.google.com/?cid=0x0:0xb9ec309fcaf7a627";""
"hotel";"hotel";"Hostal Santuari del Coll";"Carrer Mare de Déu del Coll, 3, 17166 Susqueda, Girona, Spanyol";"Susqueda";"SUMATERA SELATAN";"17166";"Indonesia";" +34675063398";"";"";"41.9576981";"2.5238873";"https://maps.google.com/?cid=0x0:0x237ac7548296a2e4";""
"hotel";"hotel";"Sumatera Selatan 31669";"Kab. Musi Rawas Utara, Sumatera Selatan";"Kab. Musi Rawas Utara, Sumatera Selatan";"SUMATERA SELATAN";"";"Indonesia";"";"";"";"-2.7917254";"102.3463875";"https://maps.google.com/?cid=0x0:0x98db126b92af20bb";""
"hotel";"hotel";"RedDoorz @ Lebong";"Jl.Raya, , Sukau Rajo, Kecamatan Amen, Kec. Lebong Utara, Bengkulu, 39264";", Sukau Rajo, Kecamatan Amen, Kec. Lebong Utara";"SUMATERA SELATAN";"39264";"Indonesia";" 0895417300072";"";"";"-3.1149206";"102.2095701";"https://maps.google.com/?cid=0x0:0x10598e8231344ec4";""
"hotel";"hotel";"Hotel Asri Lebong";"Kp. Jawa, Kec. Lebong Utara, Kabupaten Lebong, Bengkulu 80111";"Kec. Lebong Utara, Kabupaten Lebong";"SUMATERA SELATAN";"80111";"Indonesia";" 081271087326";"";"";"-3.1136403";"102.197873";"https://maps.google.com/?cid=0x0:0x3023889d617e52c3";""
"hotel";"hotel";"LEGA Hotel";"Jalan Kemayoran No.61, Ps. Muara Aman, Kec. Lebong Utara, Kabupaten Lebong, Bengkulu 25173";"Ps. Muara Aman, Kec. Lebong Utara, Kabupaten Lebong";"SUMATERA SELATAN";"25173";"Indonesia";" 083165594789";"";"";"-3.1195548";"102.1979431";"https://maps.google.com/?cid=0x0:0xf540ff6d59873be1";""
"hotel";"hotel";"Hotel Musrel Alphard Curup";"Jl. Ahmad Yani Kelurahan No.38, Talang Ulu, Kec. Curup Tim., Kabupaten Rejang Lebong, Bengkulu 39125";"Talang Ulu, Kec. Curup Tim., Kabupaten Rejang Lebong";"SUMATERA SELATAN";"39125";"Indonesia";" 089633008088";"";"";"-3.4559109";"102.5613763";"https://maps.google.com/?cid=0x0:0xa43c63a0f88db5bd";""
"restaurant";"restaurant";"Sumatera Selatan 31658";"Karang Dapo, Kabupaten Musi Rawas, Sumatera Selatan";"Kabupaten Musi Rawas, Sumatera Selatan";"SUMATERA SELATAN";"";"Indonesia";"";"";"";"-2.7453255";"103.035694";"https://maps.google.com/?cid=0x0:0xe72620e1eb13dcdf";""
"restaurant";"Brunch";"Andra";"8X2J+2P4, Karang Dapo I, Karang Dapo, Kabupaten Musi Rawas, Sumatera Selatan 31658";"Karang Dapo I, Karang Dapo, Kabupaten Musi Rawas";"SUMATERA SELATAN";"31658";"Indonesia";" 085839185841";"";"";"-2.699525";"102.981825";"https://maps.google.com/?cid=0x0:0x9303a0f1a49a980d";""
"restaurant";"Makanan Kecil";"WARUNG *R 5 1*";"Jl. HM. Syoeb Tamat Simpang Biaro, Karang Dapo II, Karang Dapo, Kab. Musi Rawas Utara, Sumatera Selatan 31658";"Karang Dapo II, Karang Dapo, Kab. Musi Rawas Utara";"SUMATERA SELATAN";"31658";"Indonesia";" 085624098098";"";"";"-2.7050537";"103.0126588";"https://maps.google.com/?cid=0x0:0x3b487d4b0f6f5b3f";""
"restaurant";"Restoran";"Warung Dapoerku";"8X2J+2R2, Jl. Raya Rupit-Karang Dapo, Karang Dapo I, Karang Dapo, Kab. Musi Rawas Utara, Sumatera Selatan 31658";"Jl. Raya Rupit-Karang Dapo, Karang Dapo I, Karang Dapo, Kab. Musi Rawas Utara";"SUMATERA SELATAN";"31658";"Indonesia";"";"";"";"-2.6999885";"102.9820255";"https://maps.google.com/?cid=0x0:0x756d45db5ddc3805";""
"restaurant";"Brunch";"Warung MITRA";"53V9+VH3, Jalan Poros, Setia Marga, Karang Dapo, Kab. Musi Rawas Utara, Sumatera Selatan 31658";"Jalan Poros, Setia Marga, Karang Dapo, Kab. Musi Rawas Utara";"SUMATERA SELATAN";"31658";"Indonesia";"";"";"";"-2.8053541";"103.0689334";"https://maps.google.com/?cid=0x0:0x29c503efc8169604";""
"restaurant";"Brunch";"RM.BUDIMAN (DESMITA)";"72V7+PJ, Karang Dapo II, Karang Dapo, Kabupaten Musi Rawas, Sumatera Selatan";"Kabupaten Musi Rawas, Sumatera Selatan";"SUMATERA SELATAN";"";"Indonesia";" 085695435173";"";"";"-2.7057199";"103.0145489";"https://maps.google.com/?cid=0x0:0xaa742af11a9548a0";""
"restaurant";"Rumah Kayu";"Simpang Sohan";"54V2+PFC Simpang SS, Setia Marga, Karang Dapo, Kabupaten Musi Rawas, Sumatera Selatan 31657";"Setia Marga, Karang Dapo, Kabupaten Musi Rawas";"SUMATERA SELATAN";"31657";"Indonesia";" 082127896064";"";"";"-2.8059859";"103.1009918";"https://maps.google.com/?cid=0x0:0xd4538fb85d0cf6ce";""
"restaurant";"Restoran";"pecintakulinermuratara";"Biaro Baru, Karang Dapo, Kab. Musi Rawas Utara, Sumatera Selatan 31658";"Karang Dapo, Kab. Musi Rawas Utara";"SUMATERA SELATAN";"31658";"Indonesia";"";"";"";"-2.7354888";"103.0472164";"https://maps.google.com/?cid=0x0:0x3bc9eeab025ac4e4";""
"restaurant";"Restoran";"Warung Mak Nyus";"Dusun IV Blok D Setia marga Kec. Karang Dapo, Rupit, Kab. Musi Rawas Utara, Sumatera Selatan 31658";"Rupit, Kab. Musi Rawas Utara";"SUMATERA SELATAN";"31658";"Indonesia";" 085368621061";"";"";"-2.8069662";"103.072534";"https://maps.google.com/?cid=0x0:0x2770f7484eab3f71";""
"restaurant";"Sarapan";"Warung R51";"Jl. HM.Syueb Tamat, Simpang, Biaro Lama, Karang Dapo, Kab. Musi Rawas Utara, Sumatera Selatan 31658";"Simpang, Biaro Lama, Karang Dapo, Kab. Musi Rawas Utara";"SUMATERA SELATAN";"31658";"Indonesia";" 085624098098";"";"";"-2.6390018";"103.0011331";"https://maps.google.com/?cid=0x0:0xd8575b831f3fcd81";""
"restaurant";"Kedai Kopi";"adzra Cafe";"83R7+MQG, Mandi Angin, Kec. Rawas Ilir, Kab. Musi Rawas Utara, Sumatera Selatan 31658";"Mandi Angin, Kec. Rawas Ilir, Kab. Musi Rawas Utara";"SUMATERA SELATAN";"31658";"Indonesia";" 081377646499";"";"";"-2.658301";"103.064454";"https://maps.google.com/?cid=0x0:0xa753410e6fcc1552";""
"restaurant";"Restoran";"warung makan pak min";"53VF+79G, Setia Marga, Karang Dapo, Kab. Musi Rawas Utara, Sumatera Selatan";"Kab. Musi Rawas Utara, Sumatera Selatan";"SUMATERA SELATAN";"";"Indonesia";"";"";"";"-2.806814";"103.0734471";"https://maps.google.com/?cid=0x0:0xc49456b2458927c5";""
"restaurant";"Makanan Kecil";"Dapur Agus";"Dusun 2, Biaro Lama, Karang Dapo, Kab. Musi Rawas Utara, Sumatera Selatan 36158";"Biaro Lama, Karang Dapo, Kab. Musi Rawas Utara";"SUMATERA SELATAN";"36158";"Indonesia";" 081312619814";"";"";"-2.6775883";"103.0168728";"https://maps.google.com/?cid=0x0:0xf4341431e8acfb39";""
"restaurant";"Rumah Makan";"Rumah Makan Gerry HF";"53VW+HW7 Trans Subur TSM, Setia Marga, Karang Dapo, Kabupaten Musi Rawas, Sumatera Selatan 31657";"Setia Marga, Karang Dapo, Kabupaten Musi Rawas";"SUMATERA SELATAN";"31657";"Indonesia";"";"";"";"-2.8060962";"103.0972818";"https://maps.google.com/?cid=0x0:0xa2fcd2c74030e8bc";""
"restaurant";"Rumah Makan";"Juragan Faiz";"8X3M+X54, Karang Dapo I, Karang Dapo, Kab. Musi Rawas Utara, Sumatera Selatan";"Kab. Musi Rawas Utara, Sumatera Selatan";"SUMATERA SELATAN";"";"Indonesia";"";"";"";"-2.6951111";"102.9829578";"https://maps.google.com/?cid=0x0:0x1ab1d74fbd34fb1f";""
"restaurant";"Restoran";"Rumah Makan Muratara";"7WM6+62C, Lawang Agung, Kec. Rupit, Kabupaten Musi Rawas, Sumatera Selatan 31654";"Lawang Agung, Kec. Rupit, Kabupaten Musi Rawas";"SUMATERA SELATAN";"31654";"Indonesia";" 082175320008";"";"";"-2.7169281";"102.9100227";"https://maps.google.com/?cid=0x0:0xf76a46bd380dfd86";""
"restaurant";"Kafe";"Cappio CafenResto";"Jl. Lintas Utama Sumatera, Lawang Agung, Kec. Rupit, Kab. Musi Rawas Utara, Sumatera Selatan 31654";"Lawang Agung, Kec. Rupit, Kab. Musi Rawas Utara";"SUMATERA SELATAN";"31654";"Indonesia";" 082235061575";"";"";"-2.7137147";"102.911253";"https://maps.google.com/?cid=0x0:0xc99d7de9c4d53ac3";""
"restaurant";"Restoran";"Pondok pinang";"82CC+Q3, Biaro Lama, Karang Dapo, Kab. Musi Rawas Utara, Sumatera Selatan";"Kab. Musi Rawas Utara, Sumatera Selatan";"SUMATERA SELATAN";"";"Indonesia";"";"";"";"-2.6787688";"103.0199866";"https://maps.google.com/?cid=0x0:0xe61cf309e468f7fd";""
"restaurant";"Rumah Makan";"Rumah makan simpang pam";"54V6+H5P, Marga Baru, Kec. Muara Lakitan, Kabupaten Musi Rawas, Sumatera Selatan 31657";"Marga Baru, Kec. Muara Lakitan, Kabupaten Musi Rawas";"SUMATERA SELATAN";"31657";"Indonesia";"";"";"";"-2.8060407";"103.1104509";"https://maps.google.com/?cid=0x0:0x9e0f2fb1adfc07e3";""
"restaurant";"Dapur Umum";"RM Putri Bungsu";"94F8+GW6, Beringin Makmur I, Kec. Rawas Ilir, Kab. Musi Rawas Utara, Sumatera Selatan 31655";"Beringin Makmur I, Kec. Rawas Ilir, Kab. Musi Rawas Utara";"SUMATERA SELATAN";"31655";"Indonesia";" 082372250079";"";"";"-2.6262024";"103.1172629";"https://maps.google.com/?cid=0x0:0x7f66caec2cf72518";""
"restaurant";"Restoran";"GAC Family";"7XXJ+J83, Karang Dapo I, Karang Dapo, Kab. Musi Rawas Utara, Sumatera Selatan 31658";"Karang Dapo I, Karang Dapo, Kab. Musi Rawas Utara";"SUMATERA SELATAN";"31658";"Indonesia";" 085368272735";"";"";"-2.7009863";"102.9808075";"https://maps.google.com/?cid=0x0:0x668ae1d967a3b873";""
"restaurant";"Kedai Kopi";"Ruko Sacchi";"Unnamed Road, Karang Dapo II, Karang Dapo, Kab. Musi Rawas Utara, Sumatera Selatan 31658";"Karang Dapo II, Karang Dapo, Kab. Musi Rawas Utara";"SUMATERA SELATAN";"31658";"Indonesia";" 082387299897";"";"";"-2.7050065";"102.9902662";"https://maps.google.com/?cid=0x0:0x70722ad7890093aa";""
"restaurant";"Hotel";"Fadlan homestay";"7XX8+FV7, Jl. Raya Rupit-Karang Dapo, Rantau Kadam, Karang Dapo, Kab. Musi Rawas Utara, Sumatera Selatan 31658";"Jl. Raya Rupit-Karang Dapo, Rantau Kadam, Karang Dapo, Kab. Musi Rawas Utara";"SUMATERA SELATAN";"31658";"Indonesia";"";"";"";"-2.7013477";"102.9671784";"https://maps.google.com/?cid=0x0:0xc384090ae2ae72f2";""
"restaurant";"Kafe";"KOPI RAKAGANE";"Dusun I Desa, Rantau Kadam, Karang Dapo, Kab. Musi Rawas Utara, Sumatera Selatan 31658";"Rantau Kadam, Karang Dapo, Kab. Musi Rawas Utara";"SUMATERA SELATAN";"31658";"Indonesia";" 081272254100";"";"";"-2.7030596";"102.9668406";"https://maps.google.com/?cid=0x0:0x653ee6706c104c4a";""
"restaurant";"Kedai Kopi";"TAN SATRISNA";"Rantau Kadam, Karang Dapo, Kabupaten Musi Rawas, Sumatera Selatan 31658";"Karang Dapo, Kabupaten Musi Rawas";"SUMATERA SELATAN";"31658";"Indonesia";"";"";"";"-2.7028522";"102.9675402";"https://maps.google.com/?cid=0x0:0xa49d425dfd7e3bed";""
"restaurant";"Kafe";"Glegek99";"8298+5PJ, Dusun II, Desa, Biaro Baru, Karang Dapo, Kab. Musi Rawas Utara, Sumatera Selatan 31658";"Dusun II, Desa, Biaro Baru, Karang Dapo, Kab. Musi Rawas Utara";"SUMATERA SELATAN";"31658";"Indonesia";"";"";"";"-2.6820419";"103.0167541";"https://maps.google.com/?cid=0x0:0xe332a8ab80a73d68";""
"restaurant";"Kafe";"Jamilkarto";"Rantau Kadam, Karang Dapo, Kabupaten Musi Rawas, Sumatera Selatan 31658";"Karang Dapo, Kabupaten Musi Rawas";"SUMATERA SELATAN";"31658";"Indonesia";" 085378146070";"";"";"-2.7016287";"102.9685835";"https://maps.google.com/?cid=0x0:0xe6be6ce43eef7510";""
"restaurant";"restaurant";"Sumatera Selatan 31654";"Kabupaten Musi Rawas, Sumatera Selatan";"Kabupaten Musi Rawas, Sumatera Selatan";"SUMATERA SELATAN";"";"Indonesia";"";"";"";"-2.8261883";"102.7594847";"https://maps.google.com/?cid=0x0:0xc4e1d96ef2cee976";""
"restaurant";"Restoran";"RM.wong kito";"Jl. Lintas Utama Sumatera No.KM. 53, Karang Jaya, Kec. Karang Jaya, Kab. Musi Rawas Utara, Sumatera Selatan 31654";"Karang Jaya, Kec. Karang Jaya, Kab. Musi Rawas Utara";"SUMATERA SELATAN";"31654";"Indonesia";" 081368797741";"";"";"-2.8761595";"102.7839717";"https://maps.google.com/?cid=0x0:0xaa8403b77bfebfec";""
"restaurant";"Restoran";"RM.SMS 01";"Embacang Baru, Kec. Karang Jaya, Kabupaten Musi Rawas, Sumatera Selatan 31654";"Kec. Karang Jaya, Kabupaten Musi Rawas";"SUMATERA SELATAN";"31654";"Indonesia";" 081310727230";"";"";"-2.8425231";"102.8190985";"https://maps.google.com/?cid=0x0:0xefdff8842be408a";""
"restaurant";"Restoran";"Rumah Makan Panggung Jaya";"8VCF+W77, Karang Anyar, Kec. Rupit, Kabupaten Musi Rawas, Sumatera Selatan 31654";"Karang Anyar, Kec. Rupit, Kabupaten Musi Rawas";"SUMATERA SELATAN";"31654";"Indonesia";"";"";"";"-2.6777197";"102.8731599";"https://maps.google.com/?cid=0x0:0x2a0900fc24185bbf";""
"restaurant";"Padang";"SAUNG MINANG " PEMUDA JAYA "";"7V6W+HW7, Jl. Sarolangun - Lubuk Linggau, Muara Rupit, Kec. Rupit, Kab. Musi Rawas Utara, Sumatera Selatan 31654";"Jl. Sarolangun - Lubuk Linggau, Muara Rupit, Kec. Rupit, Kab. Musi Rawas Utara";"SUMATERA SELATAN";"31654";"Indonesia";"";"";"";"-2.7385918";"102.8972918";"https://maps.google.com/?cid=0x0:0x78bae0c380ab8b84";""
"restaurant";"Tujuan Wisata";"Rumah makan danau Rayo";"8VH7+M9M, Karang Anyar, Kec. Rupit, Kabupaten Musi Rawas, Sumatera Selatan 31654";"Karang Anyar, Kec. Rupit, Kabupaten Musi Rawas";"SUMATERA SELATAN";"31654";"Indonesia";"";"";"";"-2.6707813";"102.8634185";"https://maps.google.com/?cid=0x0:0x9619728f975a8831";""
"restaurant";"Brunch";"Gerai Makanan";"4RX6+MP9, Embacang Baru, Kec. Karang Jaya, Kabupaten Musi Rawas, Sumatera Selatan 31654";"Embacang Baru, Kec. Karang Jaya, Kabupaten Musi Rawas";"SUMATERA SELATAN";"31654";"Indonesia";"";"";"";"-2.8508493";"102.811856";"https://maps.google.com/?cid=0x0:0xaf23718af76c7573";""
"restaurant";"Padang";"RUMAH MAKAN BANG UDIN";"4QMV+GXJ, Karang Jaya, Kec. Karang Jaya, Kabupaten Musi Rawas, Sumatera Selatan 31654";"Karang Jaya, Kec. Karang Jaya, Kabupaten Musi Rawas";"SUMATERA SELATAN";"31654";"Indonesia";"";"";"";"-2.8669413";"102.794655";"https://maps.google.com/?cid=0x0:0xb419fd32fc2533ee";""
"restaurant";"Rumah Makan";"Rumah Makan Rawas Jaya";"9QPJ+8QV, Jl. Sarolangun - Lubuk Linggau, Ps. Surulangun, Kec. Rawas Ulu, Kab. Musi Rawas Utara, Sumatera Selatan 31654";"Jl. Sarolangun - Lubuk Linggau, Ps. Surulangun, Kec. Rawas Ulu, Kab. Musi Rawas Utara";"SUMATERA SELATAN";"31654";"Indonesia";" 081366087151";"";"";"-2.6141376";"102.7819182";"https://maps.google.com/?cid=0x0:0xc95c716458f1f422";""
"restaurant";"Padang";"RM. TELAGO INDAH";"8W23+FV5, Lawang Agung, Kec. Rupit, Kabupaten Musi Rawas, Sumatera Selatan 31654";"Lawang Agung, Kec. Rupit, Kabupaten Musi Rawas";"SUMATERA SELATAN";"31654";"Indonesia";" 085228522214";"";"";"-2.6988543";"102.9047403";"https://maps.google.com/?cid=0x0:0x411e29c8ef7c36cb";""
"restaurant";"Kafe";"Cappio CafenResto";"Jl. Lintas Utama Sumatera, Lawang Agung, Kec. Rupit, Kab. Musi Rawas Utara, Sumatera Selatan 31654";"Lawang Agung, Kec. Rupit, Kab. Musi Rawas Utara";"SUMATERA SELATAN";"31654";"Indonesia";" 082235061575";"";"";"-2.7137147";"102.911253";"https://maps.google.com/?cid=0x0:0xc99d7de9c4d53ac3";""
"restaurant";"Rumah Makan";"Warung Yuk Desi macang";"4RX5+PFX, dusun 5, Embacang Baru, Kec. Karang Jaya, Kab. Musi Rawas Utara, Sumatera Selatan";"Kab. Musi Rawas Utara, Sumatera Selatan";"SUMATERA SELATAN";"";"Indonesia";" 082378914826";"";"";"-2.8506293";"102.808729";"https://maps.google.com/?cid=0x0:0x3b31e462db8f97a";""
"restaurant";"Dapur Umum";"BEBEK_BAKAR_ARSY";"7WM6+FV3, Lawang Agung, Kec. Rupit, Kab. Musi Rawas Utara, Sumatera Selatan 31654";"Lawang Agung, Kec. Rupit, Kab. Musi Rawas Utara";"SUMATERA SELATAN";"31654";"Indonesia";" 082182191825";"";"";"-2.7165094";"102.9123674";"https://maps.google.com/?cid=0x0:0xc52fc874aa3a14f1";""
"restaurant";"Restoran";"RM MINANG INDAH";"Jl. Sarolangun - Lubuk Linggau, Lawang Agung, Kec. Rupit, Kab. Musi Rawas Utara, Sumatera Selatan 31654";"Lawang Agung, Kec. Rupit, Kab. Musi Rawas Utara";"SUMATERA SELATAN";"31654";"Indonesia";" 082338246106";"";"";"-2.7047471";"102.9074721";"https://maps.google.com/?cid=0x0:0x8a2101414484497d";""
"restaurant";"Brunch";"Rumah Makan Bundo";"2QCM+989, Rantau Jaya, Kec. Karang Jaya, Kabupaten Musi Rawas, Sumatera Selatan 30771";"Rantau Jaya, Kec. Karang Jaya, Kabupaten Musi Rawas";"SUMATERA SELATAN";"30771";"Indonesia";"";"";"";"-2.9790818";"102.783369";"https://maps.google.com/?cid=0x0:0x5ea58fadd1a29e26";""
"restaurant";"Padang";"Restoran SEDERHANA Muara Rupit";"7V6X+H92, Jl. Sarolangun - Lubuk Linggau, Muara Rupit, Kec. Rupit, Kab. Musi Rawas Utara, Sumatera Selatan 31654";"Jl. Sarolangun - Lubuk Linggau, Muara Rupit, Kec. Rupit, Kab. Musi Rawas Utara";"SUMATERA SELATAN";"31654";"Indonesia";" 081278781118";"";"";"-2.738619";"102.8984001";"https://maps.google.com/?cid=0x0:0xec61bf861e0f197c";""
"restaurant";"Padang";"RM Masakan Padang Sambalado";"7WC5+7FM, Muara Rupit, Kec. Rupit, Kabupaten Musi Rawas, Sumatera Selatan 31654";"Muara Rupit, Kec. Rupit, Kabupaten Musi Rawas";"SUMATERA SELATAN";"31654";"Indonesia";"";"";"";"-2.7292821";"102.9086816";"https://maps.google.com/?cid=0x0:0x8f7aca251f91e8d0";""
"restaurant";"Kedai Kopi";"WARUNG SATE AYAM "BLORA"";"Karang Jaya, Kec. Karang Jaya, Kabupaten Musi Rawas, Sumatera Selatan 31654";"Kec. Karang Jaya, Kabupaten Musi Rawas";"SUMATERA SELATAN";"31654";"Indonesia";" 081996399018";"";"";"-2.8682583";"102.7863574";"https://maps.google.com/?cid=0x0:0x25a7b990ce9c72a";""
"restaurant";"Sarapan";"Kedai Abang Brewok";"Muara Rupit, Kec. Rupit, Kabupaten Musi Rawas, Sumatera Selatan 31654";"Kec. Rupit, Kabupaten Musi Rawas";"SUMATERA SELATAN";"31654";"Indonesia";"";"";"";"-2.7326601";"102.905636";"https://maps.google.com/?cid=0x0:0x38434eb4a5c78412";""
"restaurant";"Rumah Makan";"RM. JAGUAR 06";"8R8W+77Q, Karang Anyar, Kec. Rupit, Kab. Musi Rawas Utara, Sumatera Selatan";"Kab. Musi Rawas Utara, Sumatera Selatan";"SUMATERA SELATAN";"";"Indonesia";"";"";"";"-2.6842918";"102.8457316";"https://maps.google.com/?cid=0x0:0x22650d7a0c035a15";""
"restaurant";"Kafe";"D KOPI 99 JAYA";"Unnamed Road, Muara Tiku, Kec. Karang Jaya, Kab. Musi Rawas Utara, Sumatera Selatan 31654";"Muara Tiku, Kec. Karang Jaya, Kab. Musi Rawas Utara";"SUMATERA SELATAN";"31654";"Indonesia";" 085368886876";"";"";"-2.86257";"102.7853149";"https://maps.google.com/?cid=0x0:0x7276d5d992cc783c";""
"restaurant";"Brunch";"RM.SINGGAH KUDAI";"4M5W+WG2, Sukamenang, Kec. Karang Jaya, Kab. Musi Rawas Utara, Sumatera Selatan 31654";"Sukamenang, Kec. Karang Jaya, Kab. Musi Rawas Utara";"SUMATERA SELATAN";"31654";"Indonesia";"";"";"";"-2.890245";"102.696277";"https://maps.google.com/?cid=0x0:0xda11bf60a0d21602";""
"restaurant";"Kedai Kopi";"BOBA MALIBU";"4Q44+F92, Terusan, Kec. Karang Jaya, Kab. Musi Rawas Utara, Sumatera Selatan 31654";"Terusan, Kec. Karang Jaya, Kab. Musi Rawas Utara";"SUMATERA SELATAN";"31654";"Indonesia";"";"";"";"-2.8938719";"102.7558889";"https://maps.google.com/?cid=0x0:0xe9136a6cdf9bfe73";""
"restaurant";"Brunch";"Warung "UNI LIA"";"4QPM+GXR, Karang Jaya, Kec. Karang Jaya, Kab. Musi Rawas Utara, Sumatera Selatan 31654";"Karang Jaya, Kec. Karang Jaya, Kab. Musi Rawas Utara";"SUMATERA SELATAN";"31654";"Indonesia";"";"";"";"-2.8636498";"102.7849013";"https://maps.google.com/?cid=0x0:0x8356839ec605e51f";""
"restaurant";"Restoran";"warung Makan Sumber Rejeki marsangkut maury";"Lawang Agung, Kec. Rupit, Kab. Musi Rawas Utara, Sumatera Selatan 31654";"Kec. Rupit, Kab. Musi Rawas Utara";"SUMATERA SELATAN";"31654";"Indonesia";" 081273265342";"";"";"-2.707459";"102.9083051";"https://maps.google.com/?cid=0x0:0xcda4e990743af9f";""
"restaurant";"Sunda";"Restoran Surgana Rasa";"Jl. Raya Rawa Buntu No.18, Buntu, Kec. Serpong, Kota Tangerang Selatan, Banten 15318";"Buntu, Kec. Serpong, Kota Tangerang Selatan";"SUMATERA SELATAN";"15318";"Indonesia";" 081388885673";"";"";"-6.322108";"106.6825809";"https://maps.google.com/?cid=0x0:0xaeb263898d927de4";""
"restaurant";"Bakso";"Dapoer Bakso Fhelicya";"Unnamed Road, Terusan, Kec. Karang Jaya, Kab. Musi Rawas Utara, Sumatera Selatan 31654";"Terusan, Kec. Karang Jaya, Kab. Musi Rawas Utara";"SUMATERA SELATAN";"31654";"Indonesia";" 082282239212";"";"";"-2.8901931";"102.7581636";"https://maps.google.com/?cid=0x0:0x9057cd079002679e";""
"restaurant";"Restoran";"RM. Waroeng Desa";"Jl. HS.Ronggo Waluyo, Puseurjaya, Telukjambe Timur, Karawang, Jawa Barat 41361";"Puseurjaya, Telukjambe Timur, Karawang";"SUMATERA SELATAN";"41361";"Indonesia";" 082124705616";"";"";"-6.3234429";"107.299363";"https://maps.google.com/?cid=0x0:0x16d632cabecff936";""
"restaurant";"Sate";"Warung sate";"4Q44+VMV, Unnamed Road, Terusan, Kec. Karang Jaya, Kab. Musi Rawas Utara, Sumatera Selatan 31654";"Unnamed Road, Terusan, Kec. Karang Jaya, Kab. Musi Rawas Utara";"SUMATERA SELATAN";"31654";"Indonesia";" 082169099477";"";"";"-2.8927679";"102.7566592";"https://maps.google.com/?cid=0x0:0x859d1a05c0ba500";""
"restaurant";"Restoran";"RM.SMS 01";"Embacang Baru, Kec. Karang Jaya, Kabupaten Musi Rawas, Sumatera Selatan 31654";"Kec. Karang Jaya, Kabupaten Musi Rawas";"SUMATERA SELATAN";"31654";"Indonesia";" 081310727230";"";"";"-2.8425231";"102.8190985";"https://maps.google.com/?cid=0x0:0xefdff8842be408a";""
"restaurant";"Restoran";"RM.wong kito";"Jl. Lintas Utama Sumatera No.KM. 53, Karang Jaya, Kec. Karang Jaya, Kab. Musi Rawas Utara, Sumatera Selatan 31654";"Karang Jaya, Kec. Karang Jaya, Kab. Musi Rawas Utara";"SUMATERA SELATAN";"31654";"Indonesia";" 081368797741";"";"";"-2.8761595";"102.7839717";"https://maps.google.com/?cid=0x0:0xaa8403b77bfebfec";""
"restaurant";"Restoran";"Rumah Makan Panggung Jaya";"8VCF+W77, Karang Anyar, Kec. Rupit, Kabupaten Musi Rawas, Sumatera Selatan 31654";"Karang Anyar, Kec. Rupit, Kabupaten Musi Rawas";"SUMATERA SELATAN";"31654";"Indonesia";"";"";"";"-2.6777197";"102.8731599";"https://maps.google.com/?cid=0x0:0x2a0900fc24185bbf";""
"restaurant";"Brunch";"Gerai Makanan";"4RX6+MP9, Embacang Baru, Kec. Karang Jaya, Kabupaten Musi Rawas, Sumatera Selatan 31654";"Embacang Baru, Kec. Karang Jaya, Kabupaten Musi Rawas";"SUMATERA SELATAN";"31654";"Indonesia";"";"";"";"-2.8508493";"102.811856";"https://maps.google.com/?cid=0x0:0xaf23718af76c7573";""
"restaurant";"Rumah Makan";"KEDAI ARHISA";"5R26+67Q, Embacang Baru, Kec. Karang Jaya, Kabupaten Musi Rawas, Sumatera Selatan";"Kabupaten Musi Rawas, Sumatera Selatan";"SUMATERA SELATAN";"";"Indonesia";"";"";"";"-2.8494199";"102.8107249";"https://maps.google.com/?cid=0x0:0x13d21d8d8b4081da";""
"restaurant";"Restoran";"Rumah Makan Muratara";"7WM6+62C, Lawang Agung, Kec. Rupit, Kabupaten Musi Rawas, Sumatera Selatan 31654";"Lawang Agung, Kec. Rupit, Kabupaten Musi Rawas";"SUMATERA SELATAN";"31654";"Indonesia";" 082175320008";"";"";"-2.7169281";"102.9100227";"https://maps.google.com/?cid=0x0:0xf76a46bd380dfd86";""
"restaurant";"Rumah Makan";"Rumah Makan Rawas Jaya";"9QPJ+8QV, Jl. Sarolangun - Lubuk Linggau, Ps. Surulangun, Kec. Rawas Ulu, Kab. Musi Rawas Utara, Sumatera Selatan 31654";"Jl. Sarolangun - Lubuk Linggau, Ps. Surulangun, Kec. Rawas Ulu, Kab. Musi Rawas Utara";"SUMATERA SELATAN";"31654";"Indonesia";" 081366087151";"";"";"-2.6141376";"102.7819182";"https://maps.google.com/?cid=0x0:0xc95c716458f1f422";""
"restaurant";"Brunch";"Rumah Makan Bundo";"2QCM+989, Rantau Jaya, Kec. Karang Jaya, Kabupaten Musi Rawas, Sumatera Selatan 30771";"Rantau Jaya, Kec. Karang Jaya, Kabupaten Musi Rawas";"SUMATERA SELATAN";"30771";"Indonesia";"";"";"";"-2.9790818";"102.783369";"https://maps.google.com/?cid=0x0:0x5ea58fadd1a29e26";""
"restaurant";"Rumah Makan";"Warung Yuk Desi macang";"4RX5+PFX, dusun 5, Embacang Baru, Kec. Karang Jaya, Kab. Musi Rawas Utara, Sumatera Selatan";"Kab. Musi Rawas Utara, Sumatera Selatan";"SUMATERA SELATAN";"";"Indonesia";" 082378914826";"";"";"-2.8506293";"102.808729";"https://maps.google.com/?cid=0x0:0x3b31e462db8f97a";""
"restaurant";"Padang";"Rumah Makan Vera";"M937+XJF, Unnamed Road, Bangun Jaya, Kec. Bulang Tengah Suku Ulu, Kabupaten Musi Rawas, Sumatera Selatan 31652";"Unnamed Road, Bangun Jaya, Kec. Bulang Tengah Suku Ulu, Kabupaten Musi Rawas";"SUMATERA SELATAN";"31652";"Indonesia";" 082181225300";"";"";"-3.3450583";"103.3640531";"https://maps.google.com/?cid=0x0:0x6fad9631306f4225";""
"restaurant";"Dapur Umum";"Warung makan acha";"Jl. Kartini, Wonokerto, Kec. Tugumulyo, Kabupaten Musi Rawas, Sumatera Selatan 31662";"Wonokerto, Kec. Tugumulyo, Kabupaten Musi Rawas";"SUMATERA SELATAN";"31662";"Indonesia";" 081274626229";"";"";"-3.1715009";"102.9261956";"https://maps.google.com/?cid=0x0:0xb1502c1618587534";""
"restaurant";"Rumah Makan";"Warung Lena";"2Q5Q+9XC, Jl. Lintas Utama Sumatera, Bukit Langkap, Kec. Karang Jaya, Kabupaten Musi Rawas, Sumatera Selatan 30771";"Jl. Lintas Utama Sumatera, Bukit Langkap, Kec. Karang Jaya, Kabupaten Musi Rawas";"SUMATERA SELATAN";"30771";"Indonesia";"";"";"";"-2.9915568";"102.7898857";"https://maps.google.com/?cid=0x0:0x46f43918ad517c55";""
"restaurant";"Padang";"SAUNG MINANG " PEMUDA JAYA "";"7V6W+HW7, Jl. Sarolangun - Lubuk Linggau, Muara Rupit, Kec. Rupit, Kab. Musi Rawas Utara, Sumatera Selatan 31654";"Jl. Sarolangun - Lubuk Linggau, Muara Rupit, Kec. Rupit, Kab. Musi Rawas Utara";"SUMATERA SELATAN";"31654";"Indonesia";"";"";"";"-2.7385918";"102.8972918";"https://maps.google.com/?cid=0x0:0x78bae0c380ab8b84";""
"restaurant";"Dapur Umum";"Teras 27";"XQ8F+HF, Sukaraya, Suku Tengah Lakitan Ulu, Kabupaten Musi Rawas, Sumatera Selatan";"Kabupaten Musi Rawas, Sumatera Selatan";"SUMATERA SELATAN";"";"Indonesia";"";"";"";"-3.0335618";"102.7736407";"https://maps.google.com/?cid=0x0:0x9a730fd2d6db6fce";""
"restaurant";"Padang";"RUMAH MAKAN BANG UDIN";"4QMV+GXJ, Karang Jaya, Kec. Karang Jaya, Kabupaten Musi Rawas, Sumatera Selatan 31654";"Karang Jaya, Kec. Karang Jaya, Kabupaten Musi Rawas";"SUMATERA SELATAN";"31654";"Indonesia";"";"";"";"-2.8669413";"102.794655";"https://maps.google.com/?cid=0x0:0xb419fd32fc2533ee";""
"restaurant";"Kedai Kopi";"WARUNG SATE AYAM "BLORA"";"Karang Jaya, Kec. Karang Jaya, Kabupaten Musi Rawas, Sumatera Selatan 31654";"Kec. Karang Jaya, Kabupaten Musi Rawas";"SUMATERA SELATAN";"31654";"Indonesia";" 081996399018";"";"";"-2.8682583";"102.7863574";"https://maps.google.com/?cid=0x0:0x25a7b990ce9c72a";""
"restaurant";"Komplek perumahan";"Rumah makan muaro tiku";"5H23+R46, Muara Tiku, Kec. Karang Jaya, Kab. Musi Rawas Utara, Sumatera Selatan";"Kab. Musi Rawas Utara, Sumatera Selatan";"SUMATERA SELATAN";"";"Indonesia";" 085263367135";"";"";"-2.8479704";"102.5527505";"https://maps.google.com/?cid=0x0:0x59b39105bda99d00";""
"restaurant";"Indonesia";"Grape garden resto mewah (mepet sawah)";"RW8W+RXG, Jl. Jend. Sudirman, Mataram, Kec. Tugumulyo, Kabupaten Musi Rawas, Sumatera Selatan 31613";"Jl. Jend. Sudirman, Mataram, Kec. Tugumulyo, Kabupaten Musi Rawas";"SUMATERA SELATAN";"31613";"Indonesia";" 082184592489";"";"";"-3.1828253";"102.9473279";"https://maps.google.com/?cid=0x0:0xeab5103b40cfb095";""
"restaurant";"Restoran";"RM Anak Umak";"WRMG+5Q4, Jl. Lintas Utama Sumatera, Terawas, Suku Tengah Lakitan Ulu, Kabupaten Musi Rawas, Sumatera Selatan 30771";"Jl. Lintas Utama Sumatera, Terawas, Suku Tengah Lakitan Ulu, Kabupaten Musi Rawas";"SUMATERA SELATAN";"30771";"Indonesia";" 085377990044";"";"";"-3.0671083";"102.8269433";"https://maps.google.com/?cid=0x0:0x3aaafe2916161ab4";""
"restaurant";"Tujuan Wisata";"Rumah makan danau Rayo";"8VH7+M9M, Karang Anyar, Kec. Rupit, Kabupaten Musi Rawas, Sumatera Selatan 31654";"Karang Anyar, Kec. Rupit, Kabupaten Musi Rawas";"SUMATERA SELATAN";"31654";"Indonesia";"";"";"";"-2.6707813";"102.8634185";"https://maps.google.com/?cid=0x0:0x9619728f975a8831";""
"restaurant";"Sarapan";"Aneka Gorengan Tiga Putra";"Jl. Sarolangun - Lubuk Linggau No.20, Beringin Jaya, Kec. Rupit, Kab. Musi Rawas Utara, Sumatera Selatan 31654";"Beringin Jaya, Kec. Rupit, Kab. Musi Rawas Utara";"SUMATERA SELATAN";"31654";"Indonesia";"";"";"";"-2.7548889";"102.8816789";"https://maps.google.com/?cid=0x0:0x9cab96f86db4c258";""
"restaurant";"Restoran";"Kedai azzahra";"XPMC+P4X, Gg. Sedia, Karang Jaya, Kec. Gandus, Kota Palembang, Sumatera Selatan 30149";"Gg. Sedia, Karang Jaya, Kec. Gandus, Kota Palembang";"SUMATERA SELATAN";"30149";"Indonesia";" 082280089371";"";"";"-3.0156101";"104.7203453";"https://maps.google.com/?cid=0x0:0xdf701b87c8100173";""
"restaurant";"Indonesia";"Nusantara Resto";"Jalan Karang Jaya, Karang Jaya, Kec. Gandus, Kota Palembang, Sumatera Selatan 30149";"Karang Jaya, Kec. Gandus, Kota Palembang";"SUMATERA SELATAN";"30149";"Indonesia";" 081273249990";"";"";"-3.0136025";"104.7220597";"https://maps.google.com/?cid=0x0:0xc0040a8a5cc0bed0";""
"restaurant";"restaurant";"Kec. Karang Jaya";"Kab. Musi Rawas Utara, Sumatera Selatan";"Kab. Musi Rawas Utara, Sumatera Selatan";"SUMATERA SELATAN";"";"Indonesia";"";"";"";"-2.8708799";"102.7900419";"https://maps.google.com/?cid=0x0:0xaf463a35b81e796d";""
"restaurant";"China";"LAO YOU 老友";"Jl. Pluit Karang Utara No.141-142, RT.20/RW.2, Pluit, Kec. Penjaringan, Jkt Utara, Daerah Khusus Ibukota Jakarta 14450";"RT.20/RW.2, Pluit, Kec. Penjaringan, Jkt Utara";"SUMATERA SELATAN";"14450";"Indonesia";" 082121168899";"";"";"-6.1114055";"106.7772077";"https://maps.google.com/?cid=0x0:0x49a1a7a5ea48bd16";""
"restaurant";"Sunda";"Ayam Bakar Moujang Khas Sunda";"XPVC+463, Jl. Raya Bukit Sejahtera, Karang Jaya, Kec. Gandus, Kota Palembang, Sumatera Selatan 30121";"Jl. Raya Bukit Sejahtera, Karang Jaya, Kec. Gandus, Kota Palembang";"SUMATERA SELATAN";"30121";"Indonesia";" 081271595925";"";"";"-3.0072292";"104.7205363";"https://maps.google.com/?cid=0x0:0x5409e3d16e3c52d7";""
"restaurant";"Padang";"RM AMPERA BARU";"Pasar Waringgin, JL. Waringgin Laut No.399 Blok C80, RT.10/RW.2, Karang Jaya, Palembang, Kota Palembang, Sumatera Selatan 30149";"JL. Waringgin Laut No.399 Blok C80, RT.10/RW.2, Karang Jaya, Palembang, Kota Palembang";"SUMATERA SELATAN";"30149";"Indonesia";" 083177920727";"";"";"-3.016124";"104.720475";"https://maps.google.com/?cid=0x0:0x750ceac6c5ca4163";""
"restaurant";"Padang";"RUMAH MAKAN AGAM RAYA";"Jl. Raya Bukit Sejahtera No.Ruko No.08, Karang Jaya, Kec. Gandus, Kota Palembang, Sumatera Selatan 30149";"Karang Jaya, Kec. Gandus, Kota Palembang";"SUMATERA SELATAN";"30149";"Indonesia";" 081261623499";"";"";"-3.0071378";"104.7198435";"https://maps.google.com/?cid=0x0:0x3655bf664b1a36ef";""
"restaurant";"Rumah Makan";"Warung Bu Ani";"XPQG+M2X, Karang Jaya, Kec. Gandus, Kota Palembang, Sumatera Selatan";"Kota Palembang, Sumatera Selatan";"SUMATERA SELATAN";"";"Indonesia";" 082175316952";"";"";"-3.0107587";"104.7250995";"https://maps.google.com/?cid=0x0:0xb16b84c12572d78f";""
"restaurant";"restaurant";"Sumatera Selatan 31667";"Kec. Nibung, Kab. Musi Rawas Utara, Sumatera Selatan";"Kab. Musi Rawas Utara, Sumatera Selatan";"SUMATERA SELATAN";"";"Indonesia";"";"";"";"-2.4365476";"102.9435536";"https://maps.google.com/?cid=0x0:0x51eee84d7db6be8b";""
"restaurant";"Brunch";"Kemplang panggang bu ernawati";"Sp7 blok a, Sumber Makmur, Kec. Nibung, Sumatera Selatan";"Kab. Musi Rawas Utara, Sumatera Selatan";"SUMATERA SELATAN";"";"Indonesia";" 082378341290";"";"";"-2.5098081";"102.9251126";"https://maps.google.com/?cid=0x0:0x6b7db3f0e1277daf";""
"restaurant";"Tegal";"Warung Sate YATNO";"Sp1 1B, Bumi Makmur, Kec. Nibung, Kab. Musi Rawas Utara, Sumatera Selatan 31667";"Bumi Makmur, Kec. Nibung, Kab. Musi Rawas Utara";"SUMATERA SELATAN";"31667";"Indonesia";" 081379370290";"";"";"-2.4733413";"103.0282109";"https://maps.google.com/?cid=0x0:0xdafdb69537750b52";""
"restaurant";"Bakso";"Makanan";"GXJ3+6JR, Sri Jaya Makmur, Kec. Nibung, Kab. Musi Rawas Utara, Sumatera Selatan 31667";"Sri Jaya Makmur, Kec. Nibung, Kab. Musi Rawas Utara";"SUMATERA SELATAN";"31667";"Indonesia";"";"";"";"-2.4693918";"102.9540183";"https://maps.google.com/?cid=0x0:0x3aaac5b04d48bed6";""
"restaurant";"Rumah Makan";"Warung MBAK SANAH";"G2CG+8H3, Bumi Makmur, Kec. Nibung, Kabupaten Musi Rawas, Sumatera Selatan 31667";"Bumi Makmur, Kec. Nibung, Kabupaten Musi Rawas";"SUMATERA SELATAN";"31667";"Indonesia";"";"";"";"-2.4792395";"103.0264352";"https://maps.google.com/?cid=0x0:0x440c19c26c889e5f";""
"restaurant";"Rumah Makan";"LESEHAN MBK SEPTI";"G2GH+6G3, Bumi Makmur, Kec. Nibung, Kab. Musi Rawas Utara, Sumatera Selatan 31667";"Bumi Makmur, Kec. Nibung, Kab. Musi Rawas Utara";"SUMATERA SELATAN";"31667";"Indonesia";" 082289910295";"";"";"-2.474597";"103.027377";"https://maps.google.com/?cid=0x0:0xe965fb902c8462fb";""
"restaurant";"Brunch";"Warung makan echy";"FVWP+G6P, Unnamed Road, Jadi Mulya I, Kec. Nibung, Kab. Musi Rawas Utara, Sumatera Selatan 31667";"Unnamed Road, Jadi Mulya I, Kec. Nibung, Kab. Musi Rawas Utara";"SUMATERA SELATAN";"31667";"Indonesia";"";"";"";"-2.5036618";"102.8855673";"https://maps.google.com/?cid=0x0:0x3735169c19ff9cb8";""
"restaurant";"Restoran";"Mie ayam bakso citra andalas";"sp 9, blok D4, Karya Makmur, Kec. Nibung, Kab. Musi Rawas Utara, Sumatera Selatan 31667";"blok D4, Karya Makmur, Kec. Nibung, Kab. Musi Rawas Utara";"SUMATERA SELATAN";"31667";"Indonesia";"";"";"";"-2.4918167";"102.9600862";"https://maps.google.com/?cid=0x0:0x1f11c838615a7f08";""
"restaurant";"Dapur Umum";"'KEDAI VHIA,,";"Jln, Poros blok b1, Sri Jaya Makmur, Kec. Nibung, Kab. Musi Rawas Utara, Sumatera Selatan 31667";"Poros blok b1, Sri Jaya Makmur, Kec. Nibung, Kab. Musi Rawas Utara";"SUMATERA SELATAN";"31667";"Indonesia";"";"";"";"-2.4508522";"102.9608246";"https://maps.google.com/?cid=0x0:0x2f058b27c36a580c";""
"restaurant";"Bakso";"AFC (Basecamp 2)";"Sumber Makmur, Kec. Nibung, Kabupaten Musi Rawas, Sumatera Selatan 31667";"Kec. Nibung, Kabupaten Musi Rawas";"SUMATERA SELATAN";"31667";"Indonesia";" 082180369237";"";"";"-2.5055625";"102.9326541";"https://maps.google.com/?cid=0x0:0x16592a85803a410e";""
"restaurant";"Restoran";"D'best Fried chicken";"Sri Jaya Makmur, Kec. Nibung, Kab. Musi Rawas Utara, Sumatera Selatan 31667";"Kec. Nibung, Kab. Musi Rawas Utara";"SUMATERA SELATAN";"31667";"Indonesia";" 081310611899";"";"";"-2.4508522";"102.9608246";"https://maps.google.com/?cid=0x0:0x1a49242b22d76f55";""
"restaurant";"Pusat jajanan kaki lima";"Suyono dono";"GXR3+HRP, Sri Jaya Makmur, Kec. Nibung, Kab. Musi Rawas Utara, Sumatera Selatan 31667";"Sri Jaya Makmur, Kec. Nibung, Kab. Musi Rawas Utara";"SUMATERA SELATAN";"31667";"Indonesia";"";"";"";"-2.4585499";"102.9545934";"https://maps.google.com/?cid=0x0:0x5f4a4fdb88908787";""
"restaurant";"Kedai Kopi";"Kedai Ardie Arrafi'i";"FWCC+7X, Krani Jaya, Kec. Nibung, Kabupaten Musi Rawas, Sumatera Selatan";"Kabupaten Musi Rawas, Sumatera Selatan";"SUMATERA SELATAN";"";"Indonesia";" 082311469251";"";"";"-2.5293625";"102.9223848";"https://maps.google.com/?cid=0x0:0x7a272f3c4b901524";""
"restaurant";"Tegal";"Warung Nasi "Mbak Ida"";"Blok C1, Bumi Makmur, Kec. Nibung, Kab. Musi Rawas Utara, Sumatera Selatan 31667";"Bumi Makmur, Kec. Nibung, Kab. Musi Rawas Utara";"SUMATERA SELATAN";"31667";"Indonesia";" 082387058439";"";"";"-2.4686116";"103.014456";"https://maps.google.com/?cid=0x0:0xd6969cc2939f136d";""
"restaurant";"Tegal";"Rumah makan Shs masakan padang";"FVQX+R2C Shs, Jadi Mulya I, Kec. Nibung, Kab. Musi Rawas Utara, Sumatera Selatan 31667";"Jadi Mulya I, Kec. Nibung, Kab. Musi Rawas Utara";"SUMATERA SELATAN";"31667";"Indonesia";"";"";"";"-2.5104359";"102.8975124";"https://maps.google.com/?cid=0x0:0xfe58186df663a071";""
"restaurant";"Bakso";"Bakso dan Pecel Lele ASMARA 94";"GX32+2RM, Jadi Mulya I, Kec. Nibung, Kab. Musi Rawas Utara, Sumatera Selatan 31667";"Jadi Mulya I, Kec. Nibung, Kab. Musi Rawas Utara";"SUMATERA SELATAN";"31667";"Indonesia";"";"";"";"-2.4974166";"102.9520467";"https://maps.google.com/?cid=0x0:0x98d6f0bcacd37954";""
"restaurant";"Nasi";"Warung Nasi Ayam Bakar Windi";"GWQX+3M9, Sri Jaya Makmur, Kec. Nibung, Kabupaten Musi Rawas, Sumatera Selatan 31667";"Sri Jaya Makmur, Kec. Nibung, Kabupaten Musi Rawas";"SUMATERA SELATAN";"31667";"Indonesia";" 082377155310";"";"";"-2.4623318";"102.9492237";"https://maps.google.com/?cid=0x0:0xbdfb5af4ce0a9356";""
"restaurant";"Rumah Makan";"Warung Seblak neng rahma";"G2GH+W99, Bumi Makmur, Kec. Nibung, Kabupaten Musi Rawas, Sumatera Selatan 31667";"Bumi Makmur, Kec. Nibung, Kabupaten Musi Rawas";"SUMATERA SELATAN";"31667";"Indonesia";" 082120156505";"";"";"-2.4727206";"103.0284732";"https://maps.google.com/?cid=0x0:0x7a390aeb5071be7f";""
"restaurant";"Restoran";"MIE AYAM BAKSO TEO";"GX3F+H67, Karya Makmur, Kec. Nibung, Kab. Musi Rawas Utara, Sumatera Selatan 31667";"Karya Makmur, Kec. Nibung, Kab. Musi Rawas Utara";"SUMATERA SELATAN";"31667";"Indonesia";" 082284754037";"";"";"-2.4949192";"102.9726129";"https://maps.google.com/?cid=0x0:0xd3003100eafeddec";""
"restaurant";"Padang";"RM,SAHABAT, DESA TEBING TINGGI, KEC, NIBUNG,";"G24G+65, Tebing Tinggi, Kec. Nibung, Kab. Musi Rawas Utara, Sumatera Selatan";"Kab. Musi Rawas Utara, Sumatera Selatan";"SUMATERA SELATAN";"";"Indonesia";"";"";"";"-2.4943867";"103.0254157";"https://maps.google.com/?cid=0x0:0x43ab055e72fdd14d";""
"restaurant";"Dapur Umum";"Seblak Astini Blok c2";"Sri Jaya Makmur, Kec. Nibung, Kab. Musi Rawas Utara, Sumatera Selatan 31667";"Kec. Nibung, Kab. Musi Rawas Utara";"SUMATERA SELATAN";"31667";"Indonesia";"";"";"";"-2.4585663";"102.9545727";"https://maps.google.com/?cid=0x0:0x8298c14402273c58";""
"restaurant";"restaurant";"Sumatera Selatan 31655";"Kec. Rawas Ilir, Kabupaten Musi Rawas, Sumatera Selatan";"Kabupaten Musi Rawas, Sumatera Selatan";"SUMATERA SELATAN";"";"Indonesia";"";"";"";"-2.6657075";"103.2201828";"https://maps.google.com/?cid=0x0:0x9daabcd0688b6fb7";""
"restaurant";"Dapur Umum";"RM Putri Bungsu";"94F8+GW6, Beringin Makmur I, Kec. Rawas Ilir, Kab. Musi Rawas Utara, Sumatera Selatan 31655";"Beringin Makmur I, Kec. Rawas Ilir, Kab. Musi Rawas Utara";"SUMATERA SELATAN";"31655";"Indonesia";" 082372250079";"";"";"-2.6262024";"103.1172629";"https://maps.google.com/?cid=0x0:0x7f66caec2cf72518";""
"restaurant";"Nasi Goreng";"Warung Makan Adem Ayem";"94JV+MV6, Beringin Makmur II, Kec. Rawas Ilir, Kabupaten Musi Rawas, Sumatera Selatan 31655";"Beringin Makmur II, Kec. Rawas Ilir, Kabupaten Musi Rawas";"SUMATERA SELATAN";"31655";"Indonesia";" 082110775435";"";"";"-2.618337";"103.144634";"https://maps.google.com/?cid=0x0:0x68ec053709ccd6b6";""
"restaurant";"Dapur Umum";"RR CAFE  RESTO";"Beringin Makmur II No 09, Beringin Makmur II, Kec. Rawas Ilir, Kab. Musi Rawas Utara, Sumatera Selatan 31655";"Beringin Makmur II, Kec. Rawas Ilir, Kab. Musi Rawas Utara";"SUMATERA SELATAN";"31655";"Indonesia";" 082371270792";"";"";"-2.6201091";"103.1215171";"https://maps.google.com/?cid=0x0:0xb19fe3f2c81be86";""
"restaurant";"Kedai Kopi";"Kedai Aneka Gorengan";"94R7+V72, Beringin Makmur II, Kec. Rawas Ilir, Kab. Musi Rawas Utara, Sumatera Selatan 31655";"Beringin Makmur II, Kec. Rawas Ilir, Kab. Musi Rawas Utara";"SUMATERA SELATAN";"31655";"Indonesia";"";"";"";"-2.6078675";"103.1131529";"https://maps.google.com/?cid=0x0:0xa07f47601e766b4b";""
"restaurant";"Dapur Umum";"Warung usaha keluarga";"C583+V62, Beringin Makmur II, Kec. Rawas Ilir, Kabupaten Musi Rawas, Sumatera Selatan 31655";"Beringin Makmur II, Kec. Rawas Ilir, Kabupaten Musi Rawas";"SUMATERA SELATAN";"31655";"Indonesia";"";"";"";"-2.5828595";"103.1530102";"https://maps.google.com/?cid=0x0:0x588ea0c2c6c83889";""
"restaurant";"Restoran";"Warung Makan Podo Moro";"94RQ+HFF, Beringin Makmur II, Kec. Rawas Ilir, Kabupaten Musi Rawas, Sumatera Selatan 31655";"Beringin Makmur II, Kec. Rawas Ilir, Kabupaten Musi Rawas";"SUMATERA SELATAN";"31655";"Indonesia";"";"";"";"-2.6085669";"103.1386678";"https://maps.google.com/?cid=0x0:0xad44e59d5ad3d21b";""
"restaurant";"Toko Makanan";"Teras umak (cik cut)";"2, Dusun 2, Beringin Makmur I, Kec. Rawas Ilir, Kab. Musi Rawas Utara, Sumatera Selatan";"Kab. Musi Rawas Utara, Sumatera Selatan";"SUMATERA SELATAN";"";"Indonesia";"";"";"";"-2.7246352";"103.1509672";"https://maps.google.com/?cid=0x0:0x628d6fc4f0500806";""
"restaurant";"Brunch";"RM. Barokah";"94V7+247, Beringin Makmur II, Kec. Rawas Ilir, Kab. Musi Rawas Utara, Sumatera Selatan 31655";"Beringin Makmur II, Kec. Rawas Ilir, Kab. Musi Rawas Utara";"SUMATERA SELATAN";"31655";"Indonesia";"";"";"";"-2.60747";"103.1128033";"https://maps.google.com/?cid=0x0:0xcbd50106f2528932";""
"restaurant";"Dapur Umum";"WARUNG BAKSO JUARDI";"Dusun 1 desa beringin makmur No.1, Bingin Tlk., Kec. Rawas Ilir, Kab. Musi Rawas Utara, Sumatera Selatan 31655";"Bingin Tlk., Kec. Rawas Ilir, Kab. Musi Rawas Utara";"SUMATERA SELATAN";"31655";"Indonesia";" 082282912530";"";"";"-2.6163028";"103.1130609";"https://maps.google.com/?cid=0x0:0xbc4cb0d33c085ef2";""
"restaurant";"Makanan Siap Saji";"Warung arinyeira Simpang 4 PT gorby";"F5M2+WXJ, Beringin Makmur II, Kec. Rawas Ilir, Kabupaten Musi Rawas, Sumatera Selatan";"Kabupaten Musi Rawas, Sumatera Selatan";"SUMATERA SELATAN";"";"Indonesia";"";"";"";"-2.5151656";"103.1523769";"https://maps.google.com/?cid=0x0:0xfcb9f79686bc1b94";""
"restaurant";"Dapur Umum";"Warung Makan Wong Kito";"Marga Baru, Kec. Muara Lakitan, Kabupaten Musi Rawas, Sumatera Selatan";"Kabupaten Musi Rawas, Sumatera Selatan";"SUMATERA SELATAN";"";"Indonesia";" 081367673064";"";"";"-2.8065785";"103.1269599";"https://maps.google.com/?cid=0x0:0x64094b26634df6b8";""
"restaurant";"Produsen";"Kantin PT Triaryani";"G42G+FWJ, Beringin Makmur II, Kec. Rawas Ilir, Kabupaten Musi Rawas, Sumatera Selatan 31655";"Beringin Makmur II, Kec. Rawas Ilir, Kabupaten Musi Rawas";"SUMATERA SELATAN";"31655";"Indonesia";"";"";"";"-2.4987775";"103.127259";"https://maps.google.com/?cid=0x0:0x60f9ec13d571bed8";""
"restaurant";"Kantor Perusahaan";"WORKSHOP ROADTANK BABINSA (POOL BELANI) PT. SBP";"Tj. Raja, Kec. Rawas Ilir, Kab. Musi Rawas Utara, Sumatera Selatan";"Kab. Musi Rawas Utara, Sumatera Selatan";"SUMATERA SELATAN";"";"Indonesia";"";"";"";"-2.5683041";"103.1938713";"https://maps.google.com/?cid=0x0:0x5f668f5a1a78d2c8";""
"restaurant";"Restoran";"RM Simpang Muara Rawas";"7CHC+JH9, Ngulak II, Kec. Sanga Desa, Kabupaten Musi Banyuasin, Sumatera Selatan 30759";"Ngulak II, Kec. Sanga Desa, Kabupaten Musi Banyuasin";"SUMATERA SELATAN";"30759";"Indonesia";"";"";"";"-2.7209625";"103.4214844";"https://maps.google.com/?cid=0x0:0xc70f2f82c88281c7";""
"restaurant";"Rumah Makan";"Pondok Salero Ikan Bakar";"6557+226, Sidomulyo, Kec. Muara Lakitan, Kabupaten Musi Rawas, Sumatera Selatan 31666";"Sidomulyo, Kec. Muara Lakitan, Kabupaten Musi Rawas";"SUMATERA SELATAN";"31666";"Indonesia";" 085380084518";"";"";"-2.7924675";"103.1625005";"https://maps.google.com/?cid=0x0:0xc2d5bbc01c173a3e";""
"restaurant";"Nasi";"Mawar Merah jalan Gorbi";"F72C+QVJ, Unnamed Road, Air Bening, Kec. Rawas Ilir, Kab. Musi Rawas Utara, Sumatera Selatan 31600";"Unnamed Road, Air Bening, Kec. Rawas Ilir, Kab. Musi Rawas Utara";"SUMATERA SELATAN";"31600";"Indonesia";"";"";"";"-2.5480396";"103.2721463";"https://maps.google.com/?cid=0x0:0xc864cebdc3693cf";""
"restaurant";"Restoran";"Warung Bakso Indah Pauh Rawas";"98VP+C7R, Pauh, Kec. Rawas Ilir, Kabupaten Musi Rawas, Sumatera Selatan 31600";"Pauh, Kec. Rawas Ilir, Kabupaten Musi Rawas";"SUMATERA SELATAN";"31600";"Indonesia";" 085368047158";"";"";"-2.6063859";"103.3356272";"https://maps.google.com/?cid=0x0:0x67d687f06c5c4bd2";""
"restaurant";"Kedai Kopi";"Daeng Saputra";"Pauh I, Kec. Rawas Ilir, Kab. Musi Rawas Utara, Sumatera Selatan";"Kab. Musi Rawas Utara, Sumatera Selatan";"SUMATERA SELATAN";"";"Indonesia";" 085217047138";"";"";"-2.6539237";"103.2755806";"https://maps.google.com/?cid=0x0:0xd115cf5697ff6207";""
"restaurant";"Makanan Siap Saji";"Irahputry";"87RJ+RG2, Pauh I, Kec. Rawas Ilir, Kab. Musi Rawas Utara, Sumatera Selatan";"Kab. Musi Rawas Utara, Sumatera Selatan";"SUMATERA SELATAN";"";"Indonesia";"";"";"";"-2.6579805";"103.2812662";"https://maps.google.com/?cid=0x0:0x89b659304a886eb9";""
"restaurant";"Padang";"Rumah Makan  Wisma RIA Simpang Gegas Musi Rawas Sumsel";"P3J3+VR8, Jl. Trans Sumatera Lahat - Lubuk Linggau, Simpang Gegas Temuan, Kec. Tiang Pumpung Kepungut, Kabupaten Musi Rawas, Sumatera Selatan 31661";"Jl. Trans Sumatera Lahat - Lubuk Linggau, Simpang Gegas Temuan, Kec. Tiang Pumpung Kepungut, Kabupaten Musi Rawas";"SUMATERA SELATAN";"31661";"Indonesia";"";"";"";"-3.267838";"103.0545719";"https://maps.google.com/?cid=0x0:0xeb2e37190ec67ffa";""
"restaurant";"Restoran";"RM. PAGARUYUNG";"94W8+QJ, Beringin Makmur II, Kec. Rawas Ilir, Kabupaten Musi Rawas, Sumatera Selatan";"Kabupaten Musi Rawas, Sumatera Selatan";"SUMATERA SELATAN";"";"Indonesia";"";"";"";"-2.6030374";"103.1165358";"https://maps.google.com/?cid=0x0:0xd487420720eea7d6";""
"restaurant";"restaurant";"Sumatera Selatan 31656";"Kabupaten Musi Rawas, Sumatera Selatan";"Kabupaten Musi Rawas, Sumatera Selatan";"SUMATERA SELATAN";"";"Indonesia";"";"";"";"-2.6716149";"102.6675575";"https://maps.google.com/?cid=0x0:0x829aeb46883c7ea6";""
"restaurant";"Restoran";"ADE GARDEN";"Unnamed Road, Ps. Surulangun, Kec. Rawas Ulu, Kab. Musi Rawas Utara, Sumatera Selatan 31656";"Ps. Surulangun, Kec. Rawas Ulu, Kab. Musi Rawas Utara";"SUMATERA SELATAN";"31656";"Indonesia";" 082177683777";"";"";"-2.6220644";"102.7574913";"https://maps.google.com/?cid=0x0:0x84ce39e6214014d";""
"restaurant";"Restoran";"Rumah makan siang malam";"CQ23+VH9, Sungai Jauh, Kec. Rawas Ulu, Kab. Musi Rawas Utara, Sumatera Selatan 31656";"Sungai Jauh, Kec. Rawas Ulu, Kab. Musi Rawas Utara";"SUMATERA SELATAN";"31656";"Indonesia";"";"";"";"-2.5978274";"102.75397";"https://maps.google.com/?cid=0x0:0x8a88bd26bf333398";""
"restaurant";"Indonesia";"Grape garden resto mewah (mepet sawah)";"RW8W+RXG, Jl. Jend. Sudirman, Mataram, Kec. Tugumulyo, Kabupaten Musi Rawas, Sumatera Selatan 31613";"Jl. Jend. Sudirman, Mataram, Kec. Tugumulyo, Kabupaten Musi Rawas";"SUMATERA SELATAN";"31613";"Indonesia";" 082184592489";"";"";"-3.1828253";"102.9473279";"https://maps.google.com/?cid=0x0:0xeab5103b40cfb095";""
"restaurant";"Bakso";"Bakso barokah";"Sungai Jauh, Kec. Rawas Ulu, Kab. Musi Rawas Utara, Sumatera Selatan 31656";"Kec. Rawas Ulu, Kab. Musi Rawas Utara";"SUMATERA SELATAN";"31656";"Indonesia";" 085267728468";"";"";"-2.6021962";"102.7592042";"https://maps.google.com/?cid=0x0:0x6688cba6d88eb90b";""
"restaurant";"Dapur Umum";"Kedai nasi 3 saudara";"Ps. Surulangun, Kec. Rawas Ulu, Kab. Musi Rawas Utara, Sumatera Selatan 31656";"Kec. Rawas Ulu, Kab. Musi Rawas Utara";"SUMATERA SELATAN";"31656";"Indonesia";" 082377686662";"";"";"-2.6220625";"102.7609375";"https://maps.google.com/?cid=0x0:0xed9cc3a0b6105c5d";""
"restaurant";"Restoran";"Rumah makan annisa";"9QV6+88R, Ps. Surulangun, Kec. Rawas Ulu, Kabupaten Musi Rawas, Sumatera Selatan 31656";"Ps. Surulangun, Kec. Rawas Ulu, Kabupaten Musi Rawas";"SUMATERA SELATAN";"31656";"Indonesia";"";"";"";"-2.6066451";"102.7607756";"https://maps.google.com/?cid=0x0:0xb51d901ca1cc75a8";""
"restaurant";"Brunch";"RUMAH MAKAN PONDOK PALEM";"Jl. Jend. Sudirman No.A, Widodo, Kec. Tugumulyo, Kabupaten Musi Rawas, Sumatera Selatan 31662";"Widodo, Kec. Tugumulyo, Kabupaten Musi Rawas";"SUMATERA SELATAN";"31662";"Indonesia";" 082377967333";"";"";"-3.2091127";"102.9455742";"https://maps.google.com/?cid=0x0:0xae605655380b7642";""
"restaurant";"Kedai Kopi";"Warung Bu Ita, Bakso, Mie Tumis Dan Nasi Goreng";"9QF7+QPF, Unnamed Road, Ps., Ps. Surulangun, Kec. Rawas Ulu, Kab. Musi Rawas Utara, Sumatera Selatan 31656";"Unnamed Road, Ps., Ps. Surulangun, Kec. Rawas Ulu, Kab. Musi Rawas Utara";"SUMATERA SELATAN";"31656";"Indonesia";" 082179493317";"";"";"-2.6255528";"102.7642858";"https://maps.google.com/?cid=0x0:0xfd528c01378b4c36";""
"restaurant";"Brunch";"KEDAI KOPI SENANG HATI";"Ps. Surulangun, Kec. Rawas Ulu, Kab. Musi Rawas Utara, Sumatera Selatan 31656";"Kec. Rawas Ulu, Kab. Musi Rawas Utara";"SUMATERA SELATAN";"31656";"Indonesia";" 0895339280002";"";"";"-2.6237372";"102.760743";"https://maps.google.com/?cid=0x0:0x7330a3a389a9e9a1";""
"restaurant";"Restoran";"Pempek Panggang Rati";"9QF4+XJG, Ps. Surulangun, Kec. Rawas Ulu, Kabupaten Musi Rawas, Sumatera Selatan 31656";"Ps. Surulangun, Kec. Rawas Ulu, Kabupaten Musi Rawas";"SUMATERA SELATAN";"31656";"Indonesia";" 082282542753";"";"";"-2.6250728";"102.7565847";"https://maps.google.com/?cid=0x0:0x6ef6f8dd3c5fc375";""
"restaurant";"Dapur Umum";"Warung Bicik Sia";"9QG4+3R5, Unnamed Road, Ps. Surulangun, Kec. Rawas Ulu, Kab. Musi Rawas Utara, Sumatera Selatan 31656";"Unnamed Road, Ps. Surulangun, Kec. Rawas Ulu, Kab. Musi Rawas Utara";"SUMATERA SELATAN";"31656";"Indonesia";"";"";"";"-2.6248712";"102.7570962";"https://maps.google.com/?cid=0x0:0xfbcff8403c41461a";""
"restaurant";"Bakso";"Warung bakso om black";"9QG7+8FQ, Ps. Surulangun, Kec. Rawas Ulu, Kab. Musi Rawas Utara, Sumatera Selatan 31656";"Ps. Surulangun, Kec. Rawas Ulu, Kab. Musi Rawas Utara";"SUMATERA SELATAN";"31656";"Indonesia";" 085266477972";"";"";"-2.6234587";"102.7635296";"https://maps.google.com/?cid=0x0:0x3a30187fd1c4fb4f";""
"restaurant";"Indonesia";"Pondok MW Berseri";"RWMJ+Q83, Unnamed Road, Wonokerto, Kec. Tugumulyo, Kabupaten Musi Rawas, Sumatera Selatan 31662";"Unnamed Road, Wonokerto, Kec. Tugumulyo, Kabupaten Musi Rawas";"SUMATERA SELATAN";"31662";"Indonesia";"";"";"";"-3.1656187";"102.9307979";"https://maps.google.com/?cid=0x0:0x6ed1dd6e9b0df747";""
"restaurant";"Restoran";"Rumah Makan Salero Kampuang Masakan Padang";"Ps. Surulangun, Kec. Rawas Ulu, Kab. Musi Rawas Utara, Sumatera Selatan";"Kab. Musi Rawas Utara, Sumatera Selatan";"SUMATERA SELATAN";"";"Indonesia";" 081274602819";"";"";"-2.6133803";"102.7759887";"https://maps.google.com/?cid=0x0:0x4efa06e878ad1c18";""
"restaurant";"Bengkel Bongkar Pasang Mesin";"BENGKEL PEROT 88 MURATARA";"9QJ6+GC5, Ps. Surulangun, Muratara, Kab. Musi Rawas Utara, Sumatera Selatan 31656";"Ps. Surulangun, Muratara, Kab. Musi Rawas Utara";"SUMATERA SELATAN";"31656";"Indonesia";" 085216126768";"";"";"-2.6187356";"102.7610992";"https://maps.google.com/?cid=0x0:0x5d0e71f182e2c30a";""
"restaurant";"Restoran";"wisata minuman segar";"9QG6+C98, Ps. Surulangun, Kec. Rawas Ulu, Kab. Musi Rawas Utara, Sumatera Selatan 31656";"Ps. Surulangun, Kec. Rawas Ulu, Kab. Musi Rawas Utara";"SUMATERA SELATAN";"31656";"Indonesia";" 085783678933";"";"";"-2.6244806";"102.7603881";"https://maps.google.com/?cid=0x0:0x6cbd4e6f29debc1e";""
"restaurant";"Rumah Makan";"RM. JAGUAR 06";"8R8W+77Q, Karang Anyar, Kec. Rupit, Kab. Musi Rawas Utara, Sumatera Selatan";"Kab. Musi Rawas Utara, Sumatera Selatan";"SUMATERA SELATAN";"";"Indonesia";"";"";"";"-2.6842918";"102.8457316";"https://maps.google.com/?cid=0x0:0x22650d7a0c035a15";""
"restaurant";"Brunch";"Degla Mbak Yenni";"CQ24+GWV, Sungai Jauh, Kec. Rawas Ulu, Kab. Musi Rawas Utara, Sumatera Selatan";"Kab. Musi Rawas Utara, Sumatera Selatan";"SUMATERA SELATAN";"";"Indonesia";" 082178581272";"";"";"-2.5986385";"102.7572985";"https://maps.google.com/?cid=0x0:0x5586a696e484710e";""
"restaurant";"Bakso";"Mie Ayam CIK KHOLIDI";"Lesung Batu Muda, Kec. Rawas Ulu, Kabupaten Musi Rawas, Sumatera Selatan 31654";"Kec. Rawas Ulu, Kabupaten Musi Rawas";"SUMATERA SELATAN";"31654";"Indonesia";" 081271384162";"";"";"-2.6187376";"102.791173";"https://maps.google.com/?cid=0x0:0x82ef9c296a24c579";""
"restaurant";"Padang";"Rumah Makan Vera";"M937+XJF, Unnamed Road, Bangun Jaya, Kec. Bulang Tengah Suku Ulu, Kabupaten Musi Rawas, Sumatera Selatan 31652";"Unnamed Road, Bangun Jaya, Kec. Bulang Tengah Suku Ulu, Kabupaten Musi Rawas";"SUMATERA SELATAN";"31652";"Indonesia";" 082181225300";"";"";"-3.3450583";"103.3640531";"https://maps.google.com/?cid=0x0:0x6fad9631306f4225";""
"restaurant";"Restoran";"Rumah Makan singglang baru";"9QQ8+MQW, Ps. Surulangun, Kec. Rawas Ulu, Kabupaten Musi Rawas, Sumatera Selatan 31656";"Ps. Surulangun, Kec. Rawas Ulu, Kabupaten Musi Rawas";"SUMATERA SELATAN";"31656";"Indonesia";"";"";"";"-2.6107684";"102.7669473";"https://maps.google.com/?cid=0x0:0xf5836f222843198c";""
"restaurant";"Padang";"ruko";"9QPH+P43, Jl. Sarolangun - Lubuk Linggau, Ps. Surulangun, Kec. Rawas Ulu, Kab. Musi Rawas Utara, Sumatera Selatan 31654";"Jl. Sarolangun - Lubuk Linggau, Ps. Surulangun, Kec. Rawas Ulu, Kab. Musi Rawas Utara";"SUMATERA SELATAN";"31654";"Indonesia";"";"";"";"-2.6132359";"102.7778047";"https://maps.google.com/?cid=0x0:0xc66c346702a83929";""
"restaurant";"Bakso";"mie ayam  bakso berkah abadi solo wonogiri";"Jl. Lintas Utama Sumatera No.selatan, Ps. Surulangun, Kec. Rawas Ulu, Kab. Musi Rawas Utara, Sumatera Selatan 31656";"Ps. Surulangun, Kec. Rawas Ulu, Kab. Musi Rawas Utara";"SUMATERA SELATAN";"31656";"Indonesia";" 0895391102376";"";"";"-2.6072513";"102.7604118";"https://maps.google.com/?cid=0x0:0xedb08611a714b5d8";""
"restaurant";"Bakso";"Mie Ayam Bakso Umi Abid";"CP4X+3GX, Sungai Jauh, Kec. Rawas Ulu, Kabupaten Musi Rawas, Sumatera Selatan 31656";"Sungai Jauh, Kec. Rawas Ulu, Kabupaten Musi Rawas";"SUMATERA SELATAN";"31656";"Indonesia";" 085264650960";"";"";"-2.5947707";"102.7488596";"https://maps.google.com/?cid=0x0:0x65d14691761b343a";""
"restaurant";"restaurant";"Kec. Rupit";"Kab. Musi Rawas Utara, Sumatera Selatan";"Kab. Musi Rawas Utara, Sumatera Selatan";"SUMATERA SELATAN";"";"Indonesia";"";"";"";"-2.7205772";"102.9116717";"https://maps.google.com/?cid=0x0:0xa822b6d74806cc91";""
"restaurant";"Restoran";"Rumah Makan Muratara";"7WM6+62C, Lawang Agung, Kec. Rupit, Kabupaten Musi Rawas, Sumatera Selatan 31654";"Lawang Agung, Kec. Rupit, Kabupaten Musi Rawas";"SUMATERA SELATAN";"31654";"Indonesia";" 082175320008";"";"";"-2.7169281";"102.9100227";"https://maps.google.com/?cid=0x0:0xf76a46bd380dfd86";""
"restaurant";"Padang";"Restoran SEDERHANA Muara Rupit";"7V6X+H92, Jl. Sarolangun - Lubuk Linggau, Muara Rupit, Kec. Rupit, Kab. Musi Rawas Utara, Sumatera Selatan 31654";"Jl. Sarolangun - Lubuk Linggau, Muara Rupit, Kec. Rupit, Kab. Musi Rawas Utara";"SUMATERA SELATAN";"31654";"Indonesia";" 081278781118";"";"";"-2.738619";"102.8984001";"https://maps.google.com/?cid=0x0:0xec61bf861e0f197c";""
"restaurant";"Padang";"SAUNG MINANG " PEMUDA JAYA "";"7V6W+HW7, Jl. Sarolangun - Lubuk Linggau, Muara Rupit, Kec. Rupit, Kab. Musi Rawas Utara, Sumatera Selatan 31654";"Jl. Sarolangun - Lubuk Linggau, Muara Rupit, Kec. Rupit, Kab. Musi Rawas Utara";"SUMATERA SELATAN";"31654";"Indonesia";"";"";"";"-2.7385918";"102.8972918";"https://maps.google.com/?cid=0x0:0x78bae0c380ab8b84";""
"restaurant";"Rumah Makan";"Rumah Makan Anda";"7WV5+P64, Jl. Lintas Utama Sumatera, Lawang Agung, Kec. Rupit, Kab. Musi Rawas Utara, Sumatera Selatan 31654";"Jl. Lintas Utama Sumatera, Lawang Agung, Kec. Rupit, Kab. Musi Rawas Utara";"SUMATERA SELATAN";"31654";"Indonesia";" 082269299232";"";"";"-2.7057492";"102.9080724";"https://maps.google.com/?cid=0x0:0xdcf188e034fa1310";""
"restaurant";"Tujuan Wisata";"Rumah makan danau Rayo";"8VH7+M9M, Karang Anyar, Kec. Rupit, Kabupaten Musi Rawas, Sumatera Selatan 31654";"Karang Anyar, Kec. Rupit, Kabupaten Musi Rawas";"SUMATERA SELATAN";"31654";"Indonesia";"";"";"";"-2.6707813";"102.8634185";"https://maps.google.com/?cid=0x0:0x9619728f975a8831";""
"restaurant";"Kafe";"Cappio CafenResto";"Jl. Lintas Utama Sumatera, Lawang Agung, Kec. Rupit, Kab. Musi Rawas Utara, Sumatera Selatan 31654";"Lawang Agung, Kec. Rupit, Kab. Musi Rawas Utara";"SUMATERA SELATAN";"31654";"Indonesia";" 082235061575";"";"";"-2.7137147";"102.911253";"https://maps.google.com/?cid=0x0:0xc99d7de9c4d53ac3";""
"restaurant";"Padang";"RM Masakan Padang Sambalado";"7WC5+7FM, Muara Rupit, Kec. Rupit, Kabupaten Musi Rawas, Sumatera Selatan 31654";"Muara Rupit, Kec. Rupit, Kabupaten Musi Rawas";"SUMATERA SELATAN";"31654";"Indonesia";"";"";"";"-2.7292821";"102.9086816";"https://maps.google.com/?cid=0x0:0x8f7aca251f91e8d0";""
"restaurant";"Restoran";"RM Pindang Rupit Jasa Ibu";"7W95+H52, Muara Rupit, Kec. Rupit, Kabupaten Musi Rawas, Sumatera Selatan 31654";"Muara Rupit, Kec. Rupit, Kabupaten Musi Rawas";"SUMATERA SELATAN";"31654";"Indonesia";"";"";"";"-2.7311233";"102.9078764";"https://maps.google.com/?cid=0x0:0x49bf483006240fe3";""
"restaurant";"Padang";"RM. TELAGO INDAH";"8W23+FV5, Lawang Agung, Kec. Rupit, Kabupaten Musi Rawas, Sumatera Selatan 31654";"Lawang Agung, Kec. Rupit, Kabupaten Musi Rawas";"SUMATERA SELATAN";"31654";"Indonesia";" 085228522214";"";"";"-2.6988543";"102.9047403";"https://maps.google.com/?cid=0x0:0x411e29c8ef7c36cb";""
"restaurant";"Restoran";"RM MINANG INDAH";"Jl. Sarolangun - Lubuk Linggau, Lawang Agung, Kec. Rupit, Kab. Musi Rawas Utara, Sumatera Selatan 31654";"Lawang Agung, Kec. Rupit, Kab. Musi Rawas Utara";"SUMATERA SELATAN";"31654";"Indonesia";" 082338246106";"";"";"-2.7047471";"102.9074721";"https://maps.google.com/?cid=0x0:0x8a2101414484497d";""
"restaurant";"Restoran";"Rumah Makan Panggung Jaya";"8VCF+W77, Karang Anyar, Kec. Rupit, Kabupaten Musi Rawas, Sumatera Selatan 31654";"Karang Anyar, Kec. Rupit, Kabupaten Musi Rawas";"SUMATERA SELATAN";"31654";"Indonesia";"";"";"";"-2.6777197";"102.8731599";"https://maps.google.com/?cid=0x0:0x2a0900fc24185bbf";""
"restaurant";"Sarapan";"Kedai Abang Brewok";"Muara Rupit, Kec. Rupit, Kabupaten Musi Rawas, Sumatera Selatan 31654";"Kec. Rupit, Kabupaten Musi Rawas";"SUMATERA SELATAN";"31654";"Indonesia";"";"";"";"-2.7326601";"102.905636";"https://maps.google.com/?cid=0x0:0x38434eb4a5c78412";""
"restaurant";"Restoran";"Black Caffe";"7W84+W77, Muara Rupit, Kec. Rupit, Kabupaten Musi Rawas, Sumatera Selatan 31654";"Muara Rupit, Kec. Rupit, Kabupaten Musi Rawas";"SUMATERA SELATAN";"31654";"Indonesia";"";"";"";"-2.7327138";"102.9056657";"https://maps.google.com/?cid=0x0:0xd112779ef88b55e5";""
"restaurant";"Bakso";"bakso semar";"7WP6+6FV, Lawang Agung, Kec. Rupit, Kabupaten Musi Rawas, Sumatera Selatan 31654";"Lawang Agung, Kec. Rupit, Kabupaten Musi Rawas";"SUMATERA SELATAN";"31654";"Indonesia";"";"";"";"-2.7143947";"102.911168";"https://maps.google.com/?cid=0x0:0x965e14a8e4bf33ad";""
"restaurant";"Dapur Umum";"BEBEK_BAKAR_ARSY";"7WM6+FV3, Lawang Agung, Kec. Rupit, Kab. Musi Rawas Utara, Sumatera Selatan 31654";"Lawang Agung, Kec. Rupit, Kab. Musi Rawas Utara";"SUMATERA SELATAN";"31654";"Indonesia";" 082182191825";"";"";"-2.7165094";"102.9123674";"https://maps.google.com/?cid=0x0:0xc52fc874aa3a14f1";""
"restaurant";"Restoran";"MARTABAK RAJU";"simpang 4, Kbm, Muara Rupit, Kec. Rupit, Kabupaten Musi Rawas, Sumatera Selatan 31654";"Kbm, Muara Rupit, Kec. Rupit, Kabupaten Musi Rawas";"SUMATERA SELATAN";"31654";"Indonesia";" 081274111825";"";"";"-2.7210591";"102.9114134";"https://maps.google.com/?cid=0x0:0x206de8842f2df49d";""
"restaurant";"Restoran";"Rusep Nek Ompong";"Jl. Lintas Sumatera KM 78 Kel, Muara Rupit, Muratara, Kab. Musi Rawas Utara, Sumatera Selatan 31654";"Muara Rupit, Muratara, Kab. Musi Rawas Utara";"SUMATERA SELATAN";"31654";"Indonesia";" 082374079997";"";"";"-2.7267546";"102.9098079";"https://maps.google.com/?cid=0x0:0xd2b0984dc6b89966";""
"restaurant";"Padang";"Mona sari";"7WM6+P33, Unnamed Road, Lawang Agung, Kec. Rupit, Kab. Musi Rawas Utara, Sumatera Selatan 31654";"Unnamed Road, Lawang Agung, Kec. Rupit, Kab. Musi Rawas Utara";"SUMATERA SELATAN";"31654";"Indonesia";" 085783347303";"";"";"-2.7157266";"102.9101852";"https://maps.google.com/?cid=0x0:0xb3f66ee54cbbac2a";""
"restaurant";"Kafe";"Office fremilt";"7WV8+M2F, Unnamed Road, Lawang Agung, Kec. Rupit, Kab. Musi Rawas Utara, Sumatera Selatan 31654";"Unnamed Road, Lawang Agung, Kec. Rupit, Kab. Musi Rawas Utara";"SUMATERA SELATAN";"31654";"Indonesia";" 082373390013";"";"";"-2.7058244";"102.9150439";"https://maps.google.com/?cid=0x0:0x61f821bfcdf9b5db";""
"restaurant";"Toko";"pasar rupit";"Muara Rupit, Kec. Rupit, Kabupaten Musi Rawas, Sumatera Selatan";"Kabupaten Musi Rawas, Sumatera Selatan";"SUMATERA SELATAN";"";"Indonesia";" 081379699810";"";"";"-2.7205717";"102.9116714";"https://maps.google.com/?cid=0x0:0xa1cdbd34d915cde7";""
"restaurant";"restaurant";"Rupit";"08569, Provinsi Barcelona, Spanyol";"Rupit, Spanyol";"SUMATERA SELATAN";"";"Indonesia";"";"";"";"42.0245042";"2.4655228";"https://maps.google.com/?cid=0x0:0xa5dbe78a7e794f82";""
"restaurant";"Restoran";"Restaurant Albert";"Sant Joan de Fabregues, 4, 08569 Rupit, Barcelona, Spanyol";"Rupit";"SUMATERA SELATAN";"08569";"Indonesia";" +34938522021";"";"";"42.02523";"2.4647";"https://maps.google.com/?cid=0x0:0xf66c3e6b9560db54";""
"restaurant";"Masakan Catalunya";"Restaurant Ca l'Estragués";"Carrer de l'Església, 4, 6, 08569 Rupit, Barcelona, Spanyol";"Rupit";"SUMATERA SELATAN";"08569";"Indonesia";" +34938522006";"";"";"42.0239611";"2.4648479";"https://maps.google.com/?cid=0x0:0xb80a92d646b7c910";""
"restaurant";"restaurant";"N/A";"";"";"SUMATERA SELATAN";"";"Indonesia";"";"";"";"";"";"https://maps.google.com/?cid=0x0:0x54ccf942bdd38c73%7C/g/1td8g5fq%7Cen-ID";""
"restaurant";"restaurant";"Fonda Marsal";"Carrer del Manyà, 3, 08569 Rupit, Barcelona, Spanyol";"Rupit";"SUMATERA SELATAN";"08569";"Indonesia";" +34938522086";"";"";"42.0242955";"2.4648396";"https://maps.google.com/?cid=0x0:0x54ccf942bdd38c73";""
"restaurant";"Perhentian bus";"Pl. Nova de l'Era";"08569 Rupit, Provinsi Barcelona, Spanyol";"Rupit";"SUMATERA SELATAN";"08569";"Indonesia";"";"";"";"42.025949";"2.4651247";"https://maps.google.com/?cid=0x0:0x64efd85735acef22";""
"restaurant";"Area Mendaki";"Salt de Sallent - Rupit";"Camí del Salt de Sallent, s/n, 08569 Rupit, Barcelona, Spanyol";"Rupit";"SUMATERA SELATAN";"08569";"Indonesia";" +34938522003";"";"";"42.0159693";"2.4734798";"https://maps.google.com/?cid=0x0:0xd17241f69614d5af";""
"restaurant";"Restoran";"EL GENET";"Camí de Rupit a, Sant Joan de Fabregues, 10, 08569 Rupit, Barcelona, Spanyol";"Rupit";"SUMATERA SELATAN";"08569";"Indonesia";" +34938522158";"";"";"42.02472";"2.4641621";"https://maps.google.com/?cid=0x0:0xc9f977de9d3a1a42";""
"restaurant";"restaurant";"Sumatera Selatan 31669";"Kab. Musi Rawas Utara, Sumatera Selatan";"Kab. Musi Rawas Utara, Sumatera Selatan";"SUMATERA SELATAN";"";"Indonesia";"";"";"";"-2.7917254";"102.3463875";"https://maps.google.com/?cid=0x0:0x98db126b92af20bb";""
"restaurant";"Komplek perumahan";"Rumah makan muaro tiku";"5H23+R46, Muara Tiku, Kec. Karang Jaya, Kab. Musi Rawas Utara, Sumatera Selatan";"Kab. Musi Rawas Utara, Sumatera Selatan";"SUMATERA SELATAN";"";"Indonesia";" 085263367135";"";"";"-2.8479704";"102.5527505";"https://maps.google.com/?cid=0x0:0x59b39105bda99d00";""
"restaurant";"restaurant";"Warung Kuliner SHAKILA";"Jl. Poros, RT.12/RW.Lingkungan 3, Muara Kulam, Ulu Rawas, Kab. Musi Rawas Utara, Sumatera Selatan 31669";"RT.12/RW.Lingkungan 3, Muara Kulam, Ulu Rawas, Kab. Musi Rawas Utara";"SUMATERA SELATAN";"31669";"Indonesia";"";"";"";"-2.850481";"102.3234816";"https://maps.google.com/?cid=0x0:0x1489fad49bf79b1f";""
"cafe";"cafe";"Sumatera Selatan 31658";"Karang Dapo, Kabupaten Musi Rawas, Sumatera Selatan";"Kabupaten Musi Rawas, Sumatera Selatan";"SUMATERA SELATAN";"";"Indonesia";"";"";"";"-2.7453255";"103.035694";"https://maps.google.com/?cid=0x0:0xe72620e1eb13dcdf";""
"cafe";"Brunch";"Andra";"8X2J+2P4, Karang Dapo I, Karang Dapo, Kabupaten Musi Rawas, Sumatera Selatan 31658";"Karang Dapo I, Karang Dapo, Kabupaten Musi Rawas";"SUMATERA SELATAN";"31658";"Indonesia";" 085839185841";"";"";"-2.699525";"102.981825";"https://maps.google.com/?cid=0x0:0x9303a0f1a49a980d";""
"cafe";"Restoran";"GAC Family";"7XXJ+J83, Karang Dapo I, Karang Dapo, Kab. Musi Rawas Utara, Sumatera Selatan 31658";"Karang Dapo I, Karang Dapo, Kab. Musi Rawas Utara";"SUMATERA SELATAN";"31658";"Indonesia";" 085368272735";"";"";"-2.7009863";"102.9808075";"https://maps.google.com/?cid=0x0:0x668ae1d967a3b873";""
"cafe";"Hotel";"Fadlan homestay";"7XX8+FV7, Jl. Raya Rupit-Karang Dapo, Rantau Kadam, Karang Dapo, Kab. Musi Rawas Utara, Sumatera Selatan 31658";"Jl. Raya Rupit-Karang Dapo, Rantau Kadam, Karang Dapo, Kab. Musi Rawas Utara";"SUMATERA SELATAN";"31658";"Indonesia";"";"";"";"-2.7013477";"102.9671784";"https://maps.google.com/?cid=0x0:0xc384090ae2ae72f2";""
"cafe";"Kedai Kopi";"TAN SATRISNA";"Rantau Kadam, Karang Dapo, Kabupaten Musi Rawas, Sumatera Selatan 31658";"Karang Dapo, Kabupaten Musi Rawas";"SUMATERA SELATAN";"31658";"Indonesia";"";"";"";"-2.7028522";"102.9675402";"https://maps.google.com/?cid=0x0:0xa49d425dfd7e3bed";""
"cafe";"Kafe";"Glegek99";"8298+5PJ, Dusun II, Desa, Biaro Baru, Karang Dapo, Kab. Musi Rawas Utara, Sumatera Selatan 31658";"Dusun II, Desa, Biaro Baru, Karang Dapo, Kab. Musi Rawas Utara";"SUMATERA SELATAN";"31658";"Indonesia";"";"";"";"-2.6820419";"103.0167541";"https://maps.google.com/?cid=0x0:0xe332a8ab80a73d68";""
"cafe";"Kafe";"Lee4No Black Coffee";"8238+R7W, Biaro Baru, Karang Dapo, Kabupaten Musi Rawas, Sumatera Selatan 31658";"Biaro Baru, Karang Dapo, Kabupaten Musi Rawas";"SUMATERA SELATAN";"31658";"Indonesia";" 081211642111";"";"";"-2.6953905";"103.0157108";"https://maps.google.com/?cid=0x0:0xb677a77330461004";""
"cafe";"Kafe";"KOPI RAKAGANE";"Dusun I Desa, Rantau Kadam, Karang Dapo, Kab. Musi Rawas Utara, Sumatera Selatan 31658";"Rantau Kadam, Karang Dapo, Kab. Musi Rawas Utara";"SUMATERA SELATAN";"31658";"Indonesia";" 081272254100";"";"";"-2.7030596";"102.9668406";"https://maps.google.com/?cid=0x0:0x653ee6706c104c4a";""
"cafe";"Kedai Kopi";"adzra Cafe";"83R7+MQG, Mandi Angin, Kec. Rawas Ilir, Kab. Musi Rawas Utara, Sumatera Selatan 31658";"Mandi Angin, Kec. Rawas Ilir, Kab. Musi Rawas Utara";"SUMATERA SELATAN";"31658";"Indonesia";" 081377646499";"";"";"-2.658301";"103.064454";"https://maps.google.com/?cid=0x0:0xa753410e6fcc1552";""
"cafe";"Kafe";"Jamilkarto";"Rantau Kadam, Karang Dapo, Kabupaten Musi Rawas, Sumatera Selatan 31658";"Karang Dapo, Kabupaten Musi Rawas";"SUMATERA SELATAN";"31658";"Indonesia";" 085378146070";"";"";"-2.7016287";"102.9685835";"https://maps.google.com/?cid=0x0:0xe6be6ce43eef7510";""
"cafe";"Kedai Kopi";"Khairul Musyadda";"8X3J+MW6, Karang Dapo I, Karang Dapo, Kabupaten Musi Rawas, Sumatera Selatan 31658";"Karang Dapo I, Karang Dapo, Kabupaten Musi Rawas";"SUMATERA SELATAN";"31658";"Indonesia";"";"";"";"-2.6958278";"102.9822645";"https://maps.google.com/?cid=0x0:0x9faefaa31c7322b8";""
"cafe";"Makanan Kecil";"WARUNG *R 5 1*";"Jl. HM. Syoeb Tamat Simpang Biaro, Karang Dapo II, Karang Dapo, Kab. Musi Rawas Utara, Sumatera Selatan 31658";"Karang Dapo II, Karang Dapo, Kab. Musi Rawas Utara";"SUMATERA SELATAN";"31658";"Indonesia";" 085624098098";"";"";"-2.7050537";"103.0126588";"https://maps.google.com/?cid=0x0:0x3b487d4b0f6f5b3f";""
"cafe";"Brunch";"RM.BUDIMAN (DESMITA)";"72V7+PJ, Karang Dapo II, Karang Dapo, Kabupaten Musi Rawas, Sumatera Selatan";"Kabupaten Musi Rawas, Sumatera Selatan";"SUMATERA SELATAN";"";"Indonesia";" 085695435173";"";"";"-2.7057199";"103.0145489";"https://maps.google.com/?cid=0x0:0xaa742af11a9548a0";""
"cafe";"Kafe";"SnD homestay";"Dusun 10, Rantau Kadam, Karang Dapo, Kab. Musi Rawas Utara, Sumatera Selatan 31658";"Rantau Kadam, Karang Dapo, Kab. Musi Rawas Utara";"SUMATERA SELATAN";"31658";"Indonesia";" 085315048496";"";"";"-2.6996875";"102.9713125";"https://maps.google.com/?cid=0x0:0xfe9e0ac101d5d056";""
"cafe";"Dokter";"Prof Dr. Debi Mukromin Hakim";"8X2C+F99, Jl. Raya Rupit-Karang Dapo, Rantau Kadam, Karang Dapo, Kab. Musi Rawas Utara, Sumatera Selatan 31658";"Jl. Raya Rupit-Karang Dapo, Rantau Kadam, Karang Dapo, Kab. Musi Rawas Utara";"SUMATERA SELATAN";"31658";"Indonesia";"";"";"";"-2.6988321";"102.9709963";"https://maps.google.com/?cid=0x0:0xd168d1025811a50b";""
"cafe";"Rumah Kayu";"Simpang Sohan";"54V2+PFC Simpang SS, Setia Marga, Karang Dapo, Kabupaten Musi Rawas, Sumatera Selatan 31657";"Setia Marga, Karang Dapo, Kabupaten Musi Rawas";"SUMATERA SELATAN";"31657";"Indonesia";" 082127896064";"";"";"-2.8059859";"103.1009918";"https://maps.google.com/?cid=0x0:0xd4538fb85d0cf6ce";""
"cafe";"Restoran";"Warung Dapoerku";"8X2J+2R2, Jl. Raya Rupit-Karang Dapo, Karang Dapo I, Karang Dapo, Kab. Musi Rawas Utara, Sumatera Selatan 31658";"Jl. Raya Rupit-Karang Dapo, Karang Dapo I, Karang Dapo, Kab. Musi Rawas Utara";"SUMATERA SELATAN";"31658";"Indonesia";"";"";"";"-2.6999885";"102.9820255";"https://maps.google.com/?cid=0x0:0x756d45db5ddc3805";""
"cafe";"Komplek perumahan";"MEDI@.NET";"54RJ+Q6P, Unnamed Road, Marga Baru, Kec. Muara Lakitan, Kabupaten Musi Rawas, Sumatera Selatan 31657";"Unnamed Road, Marga Baru, Kec. Muara Lakitan, Kabupaten Musi Rawas";"SUMATERA SELATAN";"31657";"Indonesia";" 085366900543";"";"";"-2.8080361";"103.1305824";"https://maps.google.com/?cid=0x0:0x37f28172d9cf5bf0";""
"cafe";"Restoran";"Warung Makan Mama Ina";"Karang Dapo I, Karang Dapo, Kabupaten Musi Rawas, Sumatera Selatan 31658";"Karang Dapo, Kabupaten Musi Rawas";"SUMATERA SELATAN";"31658";"Indonesia";" 081399641508";"";"";"-2.7002083";"102.982344";"https://maps.google.com/?cid=0x0:0x96f7c5b5f5d87fe8";""
"cafe";"Brunch";"Warung MITRA";"53V9+VH3, Jalan Poros, Setia Marga, Karang Dapo, Kab. Musi Rawas Utara, Sumatera Selatan 31658";"Jalan Poros, Setia Marga, Karang Dapo, Kab. Musi Rawas Utara";"SUMATERA SELATAN";"31658";"Indonesia";"";"";"";"-2.8053541";"103.0689334";"https://maps.google.com/?cid=0x0:0x29c503efc8169604";""
"cafe";"Sarapan";"Warung R51";"Jl. HM.Syueb Tamat, Simpang, Biaro Lama, Karang Dapo, Kab. Musi Rawas Utara, Sumatera Selatan 31658";"Simpang, Biaro Lama, Karang Dapo, Kab. Musi Rawas Utara";"SUMATERA SELATAN";"31658";"Indonesia";" 085624098098";"";"";"-2.6390018";"103.0011331";"https://maps.google.com/?cid=0x0:0xd8575b831f3fcd81";""
"cafe";"Restoran";"pecintakulinermuratara";"Biaro Baru, Karang Dapo, Kab. Musi Rawas Utara, Sumatera Selatan 31658";"Karang Dapo, Kab. Musi Rawas Utara";"SUMATERA SELATAN";"31658";"Indonesia";"";"";"";"-2.7354888";"103.0472164";"https://maps.google.com/?cid=0x0:0x3bc9eeab025ac4e4";""
"cafe";"Restoran";"WARUNG ALDA";"83R8+9CP, Mandi Angin, Kec. Rawas Ilir, Kab. Musi Rawas Utara, Sumatera Selatan 31658";"Mandi Angin, Kec. Rawas Ilir, Kab. Musi Rawas Utara";"SUMATERA SELATAN";"31658";"Indonesia";" 082281365793";"";"";"-2.6590493";"103.0660811";"https://maps.google.com/?cid=0x0:0x3e9ffd72ea58a3f5";""
"cafe";"Restoran";"Warung Mak Nyus";"Dusun IV Blok D Setia marga Kec. Karang Dapo, Rupit, Kab. Musi Rawas Utara, Sumatera Selatan 31658";"Rupit, Kab. Musi Rawas Utara";"SUMATERA SELATAN";"31658";"Indonesia";" 085368621061";"";"";"-2.8069662";"103.072534";"https://maps.google.com/?cid=0x0:0x2770f7484eab3f71";""
"cafe";"cafe";"Sumatera Selatan 31654";"Kabupaten Musi Rawas, Sumatera Selatan";"Kabupaten Musi Rawas, Sumatera Selatan";"SUMATERA SELATAN";"";"Indonesia";"";"";"";"-2.8261883";"102.7594847";"https://maps.google.com/?cid=0x0:0xc4e1d96ef2cee976";""
"cafe";"Kafe";"D KOPI 99 JAYA";"Unnamed Road, Muara Tiku, Kec. Karang Jaya, Kab. Musi Rawas Utara, Sumatera Selatan 31654";"Muara Tiku, Kec. Karang Jaya, Kab. Musi Rawas Utara";"SUMATERA SELATAN";"31654";"Indonesia";" 085368886876";"";"";"-2.86257";"102.7853149";"https://maps.google.com/?cid=0x0:0x7276d5d992cc783c";""
"cafe";"Restoran";"RM.wong kito";"Jl. Lintas Utama Sumatera No.KM. 53, Karang Jaya, Kec. Karang Jaya, Kab. Musi Rawas Utara, Sumatera Selatan 31654";"Karang Jaya, Kec. Karang Jaya, Kab. Musi Rawas Utara";"SUMATERA SELATAN";"31654";"Indonesia";" 081368797741";"";"";"-2.8761595";"102.7839717";"https://maps.google.com/?cid=0x0:0xaa8403b77bfebfec";""
"cafe";"Restoran";"Black Caffe";"7W84+W77, Muara Rupit, Kec. Rupit, Kabupaten Musi Rawas, Sumatera Selatan 31654";"Muara Rupit, Kec. Rupit, Kabupaten Musi Rawas";"SUMATERA SELATAN";"31654";"Indonesia";"";"";"";"-2.7327138";"102.9056657";"https://maps.google.com/?cid=0x0:0xd112779ef88b55e5";""
"cafe";"Kedai Kopi";"KEDAI KITO";"Desa Noman Baru, Kp. Tujuh, Kec. Rupit, Kab. Musi Rawas Utara, Sumatera Selatan 31654";"Kp. Tujuh, Kec. Rupit, Kab. Musi Rawas Utara";"SUMATERA SELATAN";"31654";"Indonesia";" 085208710787";"";"";"-2.8128803";"102.830717";"https://maps.google.com/?cid=0x0:0xba3420ea8c0905e8";""
"cafe";"Kedai Kopi";"BOBA MALIBU";"4Q44+F92, Terusan, Kec. Karang Jaya, Kab. Musi Rawas Utara, Sumatera Selatan 31654";"Terusan, Kec. Karang Jaya, Kab. Musi Rawas Utara";"SUMATERA SELATAN";"31654";"Indonesia";"";"";"";"-2.8938719";"102.7558889";"https://maps.google.com/?cid=0x0:0xe9136a6cdf9bfe73";""
"cafe";"Restoran";"Rumah Makan Panggung Jaya";"8VCF+W77, Karang Anyar, Kec. Rupit, Kabupaten Musi Rawas, Sumatera Selatan 31654";"Karang Anyar, Kec. Rupit, Kabupaten Musi Rawas";"SUMATERA SELATAN";"31654";"Indonesia";"";"";"";"-2.6777197";"102.8731599";"https://maps.google.com/?cid=0x0:0x2a0900fc24185bbf";""
"cafe";"Restoran";"GAC Family";"7XXJ+J83, Karang Dapo I, Karang Dapo, Kab. Musi Rawas Utara, Sumatera Selatan 31658";"Karang Dapo I, Karang Dapo, Kab. Musi Rawas Utara";"SUMATERA SELATAN";"31658";"Indonesia";" 085368272735";"";"";"-2.7009863";"102.9808075";"https://maps.google.com/?cid=0x0:0x668ae1d967a3b873";""
"cafe";"Kafe";"Warung makan asiong seafood";"Utara, Karang Anyar, Kabupaten Musi Rawas, Sumatera Selatan 31654";"Karang Anyar, Kabupaten Musi Rawas";"SUMATERA SELATAN";"31654";"Indonesia";" 081294901665";"";"";"-2.6728789";"102.8590525";"https://maps.google.com/?cid=0x0:0x6dc51fe34627e1ca";""
"cafe";"Kafe";"Cappio CafenResto";"Jl. Lintas Utama Sumatera, Lawang Agung, Kec. Rupit, Kab. Musi Rawas Utara, Sumatera Selatan 31654";"Lawang Agung, Kec. Rupit, Kab. Musi Rawas Utara";"SUMATERA SELATAN";"31654";"Indonesia";" 082235061575";"";"";"-2.7137147";"102.911253";"https://maps.google.com/?cid=0x0:0xc99d7de9c4d53ac3";""
"cafe";"Kedai Kopi";"BesamoCoffee";"7WQ6+2CM, Jl. Sarolangun - Lubuk Linggau, Lawang Agung, Kec. Rupit, Kab. Musi Rawas Utara, Sumatera Selatan 31654";"Jl. Sarolangun - Lubuk Linggau, Lawang Agung, Kec. Rupit, Kab. Musi Rawas Utara";"SUMATERA SELATAN";"31654";"Indonesia";" 08578680601";"";"";"-2.7124172";"102.911032";"https://maps.google.com/?cid=0x0:0x2a596e291469e4e4";""
"cafe";"Sate";"Warung sate";"4Q44+VMV, Unnamed Road, Terusan, Kec. Karang Jaya, Kab. Musi Rawas Utara, Sumatera Selatan 31654";"Unnamed Road, Terusan, Kec. Karang Jaya, Kab. Musi Rawas Utara";"SUMATERA SELATAN";"31654";"Indonesia";" 082169099477";"";"";"-2.8927679";"102.7566592";"https://maps.google.com/?cid=0x0:0x859d1a05c0ba500";""
"cafe";"Kafe";"Cafe Baselo Sungai Nio";"8RRQ+3CW, Jl. Lintas Utama Sumatera, Remban, Kec. Rawas Ulu, Kab. Musi Rawas Utara, Sumatera Selatan 31654";"Jl. Lintas Utama Sumatera, Remban, Kec. Rawas Ulu, Kab. Musi Rawas Utara";"SUMATERA SELATAN";"31654";"Indonesia";" 085267351533";"";"";"-2.6597545";"102.8385675";"https://maps.google.com/?cid=0x0:0xfe5de9f5aacae5a8";""
"cafe";"Kedai Kopi";"Tabarani Siswanto";"5R46+8J7, Embacang Baru, Kec. Karang Jaya, Kab. Musi Rawas Utara, Sumatera Selatan 31654";"Embacang Baru, Kec. Karang Jaya, Kab. Musi Rawas Utara";"SUMATERA SELATAN";"31654";"Indonesia";"";"";"";"-2.844218";"102.8115328";"https://maps.google.com/?cid=0x0:0xb62195ae8391522b";""
"cafe";"Kafe";"CELEDUM Snack  Shake";"Jl. Lintas Utama Sumatera No.Km No.82, Lawang Agung, Kec. Rupit, Kab. Musi Rawas Utara, Sumatera Selatan 31654";"Lawang Agung, Kec. Rupit, Kab. Musi Rawas Utara";"SUMATERA SELATAN";"31654";"Indonesia";" 081275058485";"";"";"-2.7111992";"102.9104728";"https://maps.google.com/?cid=0x0:0xfb7f4d84b1daba6e";""
"cafe";"cafe";"WARUNG BIK O";"4Q44+VMV, Terusan, Kec. Karang Jaya, Kab. Musi Rawas Utara, Sumatera Selatan 31654";"Terusan, Kec. Karang Jaya, Kab. Musi Rawas Utara";"SUMATERA SELATAN";"31654";"Indonesia";"";"";"";"-2.8915818";"102.7566957";"https://maps.google.com/?cid=0x0:0xced4939b11f3b124";""
"cafe";"Kedai Kopi";"TAN SATRISNA";"Rantau Kadam, Karang Dapo, Kabupaten Musi Rawas, Sumatera Selatan 31658";"Karang Dapo, Kabupaten Musi Rawas";"SUMATERA SELATAN";"31658";"Indonesia";"";"";"";"-2.7028522";"102.9675402";"https://maps.google.com/?cid=0x0:0xa49d425dfd7e3bed";""
"cafe";"Padang";"RUMAH MAKAN BANG UDIN";"4QMV+GXJ, Karang Jaya, Kec. Karang Jaya, Kabupaten Musi Rawas, Sumatera Selatan 31654";"Karang Jaya, Kec. Karang Jaya, Kabupaten Musi Rawas";"SUMATERA SELATAN";"31654";"Indonesia";"";"";"";"-2.8669413";"102.794655";"https://maps.google.com/?cid=0x0:0xb419fd32fc2533ee";""
"cafe";"Restoran";"FREMILT CAFEE";"7WQ6+F9F, Jl. Sarolangun - Lubuk Linggau, Lawang Agung, Kec. Rupit, Kab. Musi Rawas Utara, Sumatera Selatan 31654";"Jl. Sarolangun - Lubuk Linggau, Lawang Agung, Kec. Rupit, Kab. Musi Rawas Utara";"SUMATERA SELATAN";"31654";"Indonesia";"";"";"";"-2.7113018";"102.9109226";"https://maps.google.com/?cid=0x0:0xd6671680471b45b0";""
"cafe";"Brunch";"Gerai Makanan";"4RX6+MP9, Embacang Baru, Kec. Karang Jaya, Kabupaten Musi Rawas, Sumatera Selatan 31654";"Embacang Baru, Kec. Karang Jaya, Kabupaten Musi Rawas";"SUMATERA SELATAN";"31654";"Indonesia";"";"";"";"-2.8508493";"102.811856";"https://maps.google.com/?cid=0x0:0xaf23718af76c7573";""
"cafe";"Kedai Kopi";"Warkop Millenial's";"5R34+9H4, Embacang Lama, Kec. Karang Jaya, Kabupaten Musi Rawas, Sumatera Selatan 31654";"Embacang Lama, Kec. Karang Jaya, Kabupaten Musi Rawas";"SUMATERA SELATAN";"31654";"Indonesia";" 081210057359";"";"";"-2.8466098";"102.8064678";"https://maps.google.com/?cid=0x0:0x7375359b91ec356b";""
"cafe";"Restoran";"Cuil Cafe  Eatery";"Jl. Raden Saleh No.6A, Karang Tengah, Kec. Karang Tengah, Kota Tangerang, Banten 15157";"Karang Tengah, Kec. Karang Tengah, Kota Tangerang";"SUMATERA SELATAN";"15157";"Indonesia";" 081992229998";"";"";"-6.2200366";"106.7062211";"https://maps.google.com/?cid=0x0:0x382ebdc961b06b46";""
"cafe";"Kafe";"Kaneel Cafe";"Jl. Tanjung Duren Raya No.12, RT.14/RW.7, Tanjung Duren Raya, Kec. Grogol petamburan, Kota Jakarta Barat, Daerah Khusus Ibukota Jakarta 11470";"RT.14/RW.7, Tanjung Duren Raya, Kec. Grogol petamburan, Kota Jakarta Barat";"SUMATERA SELATAN";"11470";"Indonesia";"";"";"";"-6.1832656";"106.7833233";"https://maps.google.com/?cid=0x0:0xf21e8f0720b1dc54";""
"cafe";"Kedai Kopi";"TERU";"Jl. Barito I No.19, RT.4/RW.1, Kramat Pela, Kec. Kby. Baru, Kota Jakarta Selatan, Daerah Khusus Ibukota Jakarta 12130";"RT.4/RW.1, Kramat Pela, Kec. Kby. Baru, Kota Jakarta Selatan";"SUMATERA SELATAN";"12130";"Indonesia";" 081291004266";"";"";"-6.2437594";"106.7933397";"https://maps.google.com/?cid=0x0:0xafcdf022dcc55410";""
"cafe";"Kedai Kopi";"Imelia cafe";"2Q8P+R6H, Jl. Lintas Utama Sumatera, Rantau Jaya, Kec. Karang Jaya, Kabupaten Musi Rawas, Sumatera Selatan 30771";"Jl. Lintas Utama Sumatera, Rantau Jaya, Kec. Karang Jaya, Kabupaten Musi Rawas";"SUMATERA SELATAN";"30771";"Indonesia";"";"";"";"-2.9829402";"102.7856161";"https://maps.google.com/?cid=0x0:0xbcb808354b9b9de8";""
"cafe";"Restoran";"GAC Family";"7XXJ+J83, Karang Dapo I, Karang Dapo, Kab. Musi Rawas Utara, Sumatera Selatan 31658";"Karang Dapo I, Karang Dapo, Kab. Musi Rawas Utara";"SUMATERA SELATAN";"31658";"Indonesia";" 085368272735";"";"";"-2.7009863";"102.9808075";"https://maps.google.com/?cid=0x0:0x668ae1d967a3b873";""
"cafe";"Kedai Kopi";"680 coffee home";"Mardiharjo, Kec. Purwodadi, Kabupaten Musi Rawas, Sumatera Selatan 31626";"Kec. Purwodadi, Kabupaten Musi Rawas";"SUMATERA SELATAN";"31626";"Indonesia";" 082182349938";"";"";"-3.1309161";"102.9637045";"https://maps.google.com/?cid=0x0:0x465fc994efa411d0";""
"cafe";"Kafe";"D KOPI 99 JAYA";"Unnamed Road, Muara Tiku, Kec. Karang Jaya, Kab. Musi Rawas Utara, Sumatera Selatan 31654";"Muara Tiku, Kec. Karang Jaya, Kab. Musi Rawas Utara";"SUMATERA SELATAN";"31654";"Indonesia";" 085368886876";"";"";"-2.86257";"102.7853149";"https://maps.google.com/?cid=0x0:0x7276d5d992cc783c";""
"cafe";"Rumah Makan";"KEDAI ARHISA";"5R26+67Q, Embacang Baru, Kec. Karang Jaya, Kabupaten Musi Rawas, Sumatera Selatan";"Kabupaten Musi Rawas, Sumatera Selatan";"SUMATERA SELATAN";"";"Indonesia";"";"";"";"-2.8494199";"102.8107249";"https://maps.google.com/?cid=0x0:0x13d21d8d8b4081da";""
"cafe";"Kafe";"CELEDUM Snack  Shake";"Jl. Lintas Utama Sumatera No.Km No.82, Lawang Agung, Kec. Rupit, Kab. Musi Rawas Utara, Sumatera Selatan 31654";"Lawang Agung, Kec. Rupit, Kab. Musi Rawas Utara";"SUMATERA SELATAN";"31654";"Indonesia";" 081275058485";"";"";"-2.7111992";"102.9104728";"https://maps.google.com/?cid=0x0:0xfb7f4d84b1daba6e";""
"cafe";"Restoran";"RM.SMS 01";"Embacang Baru, Kec. Karang Jaya, Kabupaten Musi Rawas, Sumatera Selatan 31654";"Kec. Karang Jaya, Kabupaten Musi Rawas";"SUMATERA SELATAN";"31654";"Indonesia";" 081310727230";"";"";"-2.8425231";"102.8190985";"https://maps.google.com/?cid=0x0:0xefdff8842be408a";""
"cafe";"Restoran";"Black Caffe";"7W84+W77, Muara Rupit, Kec. Rupit, Kabupaten Musi Rawas, Sumatera Selatan 31654";"Muara Rupit, Kec. Rupit, Kabupaten Musi Rawas";"SUMATERA SELATAN";"31654";"Indonesia";"";"";"";"-2.7327138";"102.9056657";"https://maps.google.com/?cid=0x0:0xd112779ef88b55e5";""
"cafe";"Kafe";"Angkringan Albar";"WR8G+54W, Terawas, Suku Tengah Lakitan Ulu, Kabupaten Musi Rawas, Sumatera Selatan";"Kabupaten Musi Rawas, Sumatera Selatan";"SUMATERA SELATAN";"";"Indonesia";"";"";"";"-3.0845088";"102.8253287";"https://maps.google.com/?cid=0x0:0x3e633fe89b06e8f4";""
"cafe";"Kedai Kopi";"BOBA MALIBU";"4Q44+F92, Terusan, Kec. Karang Jaya, Kab. Musi Rawas Utara, Sumatera Selatan 31654";"Terusan, Kec. Karang Jaya, Kab. Musi Rawas Utara";"SUMATERA SELATAN";"31654";"Indonesia";"";"";"";"-2.8938719";"102.7558889";"https://maps.google.com/?cid=0x0:0xe9136a6cdf9bfe73";""
"cafe";"Kedai Kopi";"KEDAI A3";"VWWP+RW6, Jl. Fatmawati, Sumber Harta, Kec. Sumber Harta, Kabupaten Musi Rawas, Sumatera Selatan 31662";"Jl. Fatmawati, Sumber Harta, Kec. Sumber Harta, Kabupaten Musi Rawas";"SUMATERA SELATAN";"31662";"Indonesia";" 085380956359";"";"";"-3.1029543";"102.9372788";"https://maps.google.com/?cid=0x0:0x8216a1448c7c769a";""
"cafe";"Toko outlet";"Nadia cell";"XPR6+C33, Bukit Ulu, Kec. Karang Jaya, Kab. Musi Rawas Utara, Sumatera Selatan";"Kab. Musi Rawas Utara, Sumatera Selatan";"SUMATERA SELATAN";"";"Indonesia";"";"";"";"-3.0089919";"102.7101788";"https://maps.google.com/?cid=0x0:0xfac9a768604a212a";""
"cafe";"Kedai Kopi";"BesamoCoffee";"7WQ6+2CM, Jl. Sarolangun - Lubuk Linggau, Lawang Agung, Kec. Rupit, Kab. Musi Rawas Utara, Sumatera Selatan 31654";"Jl. Sarolangun - Lubuk Linggau, Lawang Agung, Kec. Rupit, Kab. Musi Rawas Utara";"SUMATERA SELATAN";"31654";"Indonesia";" 08578680601";"";"";"-2.7124172";"102.911032";"https://maps.google.com/?cid=0x0:0x2a596e291469e4e4";""
"cafe";"Rumah Makan";"Warung Lena";"2Q5Q+9XC, Jl. Lintas Utama Sumatera, Bukit Langkap, Kec. Karang Jaya, Kabupaten Musi Rawas, Sumatera Selatan 30771";"Jl. Lintas Utama Sumatera, Bukit Langkap, Kec. Karang Jaya, Kabupaten Musi Rawas";"SUMATERA SELATAN";"30771";"Indonesia";"";"";"";"-2.9915568";"102.7898857";"https://maps.google.com/?cid=0x0:0x46f43918ad517c55";""
"cafe";"Restoran";"RM.wong kito";"Jl. Lintas Utama Sumatera No.KM. 53, Karang Jaya, Kec. Karang Jaya, Kab. Musi Rawas Utara, Sumatera Selatan 31654";"Karang Jaya, Kec. Karang Jaya, Kab. Musi Rawas Utara";"SUMATERA SELATAN";"31654";"Indonesia";" 081368797741";"";"";"-2.8761595";"102.7839717";"https://maps.google.com/?cid=0x0:0xaa8403b77bfebfec";""
"cafe";"Restoran";"FREMILT CAFEE";"7WQ6+F9F, Jl. Sarolangun - Lubuk Linggau, Lawang Agung, Kec. Rupit, Kab. Musi Rawas Utara, Sumatera Selatan 31654";"Jl. Sarolangun - Lubuk Linggau, Lawang Agung, Kec. Rupit, Kab. Musi Rawas Utara";"SUMATERA SELATAN";"31654";"Indonesia";"";"";"";"-2.7113018";"102.9109226";"https://maps.google.com/?cid=0x0:0xd6671680471b45b0";""
"cafe";"Rumah Makan";"Warung Yuk Desi macang";"4RX5+PFX, dusun 5, Embacang Baru, Kec. Karang Jaya, Kab. Musi Rawas Utara, Sumatera Selatan";"Kab. Musi Rawas Utara, Sumatera Selatan";"SUMATERA SELATAN";"";"Indonesia";" 082378914826";"";"";"-2.8506293";"102.808729";"https://maps.google.com/?cid=0x0:0x3b31e462db8f97a";""
"cafe";"cafe";"Mas fren";"XX53+GX, Sukarami Jaya, Kec. Sumber Harta, Kabupaten Musi Rawas, Sumatera Selatan 31668";"Sukarami Jaya, Kec. Sumber Harta, Kabupaten Musi Rawas";"SUMATERA SELATAN";"31668";"Indonesia";"";"";"";"-3.0209616";"102.9577908";"https://maps.google.com/?cid=0x0:0xe1ff17713ea2cca9";""
"cafe";"Sate";"Warung sate";"4Q44+VMV, Unnamed Road, Terusan, Kec. Karang Jaya, Kab. Musi Rawas Utara, Sumatera Selatan 31654";"Unnamed Road, Terusan, Kec. Karang Jaya, Kab. Musi Rawas Utara";"SUMATERA SELATAN";"31654";"Indonesia";" 082169099477";"";"";"-2.8927679";"102.7566592";"https://maps.google.com/?cid=0x0:0x859d1a05c0ba500";""
"cafe";"Brunch";"Gerai Makanan";"4RX6+MP9, Embacang Baru, Kec. Karang Jaya, Kabupaten Musi Rawas, Sumatera Selatan 31654";"Embacang Baru, Kec. Karang Jaya, Kabupaten Musi Rawas";"SUMATERA SELATAN";"31654";"Indonesia";"";"";"";"-2.8508493";"102.811856";"https://maps.google.com/?cid=0x0:0xaf23718af76c7573";""
"cafe";"Kedai Kopi";"Warkop Millenial's";"5R34+9H4, Embacang Lama, Kec. Karang Jaya, Kabupaten Musi Rawas, Sumatera Selatan 31654";"Embacang Lama, Kec. Karang Jaya, Kabupaten Musi Rawas";"SUMATERA SELATAN";"31654";"Indonesia";" 081210057359";"";"";"-2.8466098";"102.8064678";"https://maps.google.com/?cid=0x0:0x7375359b91ec356b";""
"cafe";"Kafe";"Jamilkarto";"Rantau Kadam, Karang Dapo, Kabupaten Musi Rawas, Sumatera Selatan 31658";"Karang Dapo, Kabupaten Musi Rawas";"SUMATERA SELATAN";"31658";"Indonesia";" 085378146070";"";"";"-2.7016287";"102.9685835";"https://maps.google.com/?cid=0x0:0xe6be6ce43eef7510";""
"cafe";"Kedai Kopi";"Karang jaya";"6CW3+M74, Jl. Ciamis - Banjar, Banjarwaru, Sukajaya, Kec. Cimerak, Kab. Pangandaran, Jawa Barat 46395";"Jl. Ciamis - Banjar, Banjarwaru, Sukajaya, Kec. Cimerak, Kab. Pangandaran";"SUMATERA SELATAN";"46395";"Indonesia";"";"";"";"-7.7533586";"108.4031967";"https://maps.google.com/?cid=0x0:0x4aba5a946436f492";""
"cafe";"Kedai Kopi";"WKJ COFFEE";"6CQP+HFF, Perum, Cimerak, Kec. Cimerak, Kab. Pangandaran, Jawa Barat";"Kab. Pangandaran, Jawa Barat";"SUMATERA SELATAN";"";"Indonesia";" 082214313954";"";"";"-7.7610549";"108.4361704";"https://maps.google.com/?cid=0x0:0xe375fd8489ee1ea0";""
"cafe";"cafe";"Sumatera Selatan 31667";"Kec. Nibung, Kab. Musi Rawas Utara, Sumatera Selatan";"Kab. Musi Rawas Utara, Sumatera Selatan";"SUMATERA SELATAN";"";"Indonesia";"";"";"";"-2.4365476";"102.9435536";"https://maps.google.com/?cid=0x0:0x51eee84d7db6be8b";""
"cafe";"Kafe";"Cipta jeep";"GXJ3+6JR, Sri Jaya Makmur, Kec. Nibung, Kab. Musi Rawas Utara, Sumatera Selatan 31667";"Sri Jaya Makmur, Kec. Nibung, Kab. Musi Rawas Utara";"SUMATERA SELATAN";"31667";"Indonesia";" 085269405501";"";"";"-2.4697873";"102.9534807";"https://maps.google.com/?cid=0x0:0xab8aae1afbd3d139";""
"cafe";"Kedai Kopi";"Kedai Kopi Wifi";"GX34+7WH, Karya Makmur, Kec. Nibung, Kabupaten Musi Rawas, Sumatera Selatan 31667";"Karya Makmur, Kec. Nibung, Kabupaten Musi Rawas";"SUMATERA SELATAN";"31667";"Indonesia";" 081379099140";"";"";"-2.4968103";"102.9573608";"https://maps.google.com/?cid=0x0:0xd53ee262d60d749a";""
"cafe";"Restoran";"Warung bakso";"Krani Jaya, Kec. Nibung, Kab. Musi Rawas Utara, Sumatera Selatan";"Kab. Musi Rawas Utara, Sumatera Selatan";"SUMATERA SELATAN";"";"Indonesia";" 082295789487";"";"";"-2.511747";"102.8993135";"https://maps.google.com/?cid=0x0:0x455ebff259d7b083";""
"cafe";"Komplek perumahan";"Agro nibung";"CWPH+822, Jadi Mulya I, Kec. Nibung, Kab. Musi Rawas Utara, Sumatera Selatan 31655";"Jadi Mulya I, Kec. Nibung, Kab. Musi Rawas Utara";"SUMATERA SELATAN";"31655";"Indonesia";"";"";"";"-2.5642369";"102.9275095";"https://maps.google.com/?cid=0x0:0x7d8f02d4dc2bf38";""
"cafe";"Dapur Umum";"Seblak Astini Blok c2";"Sri Jaya Makmur, Kec. Nibung, Kab. Musi Rawas Utara, Sumatera Selatan 31667";"Kec. Nibung, Kab. Musi Rawas Utara";"SUMATERA SELATAN";"31667";"Indonesia";"";"";"";"-2.4585663";"102.9545727";"https://maps.google.com/?cid=0x0:0x8298c14402273c58";""
"cafe";"Brunch";"Kemplang panggang bu ernawati";"Sp7 blok a, Sumber Makmur, Kec. Nibung, Sumatera Selatan";"Kab. Musi Rawas Utara, Sumatera Selatan";"SUMATERA SELATAN";"";"Indonesia";" 082378341290";"";"";"-2.5098081";"102.9251126";"https://maps.google.com/?cid=0x0:0x6b7db3f0e1277daf";""
"cafe";"Tegal";"Warung Sate YATNO";"Sp1 1B, Bumi Makmur, Kec. Nibung, Kab. Musi Rawas Utara, Sumatera Selatan 31667";"Bumi Makmur, Kec. Nibung, Kab. Musi Rawas Utara";"SUMATERA SELATAN";"31667";"Indonesia";" 081379370290";"";"";"-2.4733413";"103.0282109";"https://maps.google.com/?cid=0x0:0xdafdb69537750b52";""
"cafe";"Tegal";"Warcele";"Bumi Makmur, Kec. Nibung, Kab. Musi Rawas Utara, Sumatera Selatan 31667";"Kec. Nibung, Kab. Musi Rawas Utara";"SUMATERA SELATAN";"31667";"Indonesia";" 082339510609";"";"";"-2.4703226";"103.0271901";"https://maps.google.com/?cid=0x0:0x3cb60a5d561c57c2";""
"cafe";"Bakso";"AFC (Basecamp 2)";"Sumber Makmur, Kec. Nibung, Kabupaten Musi Rawas, Sumatera Selatan 31667";"Kec. Nibung, Kabupaten Musi Rawas";"SUMATERA SELATAN";"31667";"Indonesia";" 082180369237";"";"";"-2.5055625";"102.9326541";"https://maps.google.com/?cid=0x0:0x16592a85803a410e";""
"cafe";"Rumah Makan";"Warung Seblak neng rahma";"G2GH+W99, Bumi Makmur, Kec. Nibung, Kabupaten Musi Rawas, Sumatera Selatan 31667";"Bumi Makmur, Kec. Nibung, Kabupaten Musi Rawas";"SUMATERA SELATAN";"31667";"Indonesia";" 082120156505";"";"";"-2.4727206";"103.0284732";"https://maps.google.com/?cid=0x0:0x7a390aeb5071be7f";""
"cafe";"Brunch";"Warung makan echy";"FVWP+G6P, Unnamed Road, Jadi Mulya I, Kec. Nibung, Kab. Musi Rawas Utara, Sumatera Selatan 31667";"Unnamed Road, Jadi Mulya I, Kec. Nibung, Kab. Musi Rawas Utara";"SUMATERA SELATAN";"31667";"Indonesia";"";"";"";"-2.5036618";"102.8855673";"https://maps.google.com/?cid=0x0:0x3735169c19ff9cb8";""
"cafe";"Kedai Kopi";"Warkop Mas nur";"GWVV+C96, Sri Jaya Makmur, Kec. Nibung, Kabupaten Musi Rawas, Sumatera Selatan 31667";"Sri Jaya Makmur, Kec. Nibung, Kabupaten Musi Rawas";"SUMATERA SELATAN";"31667";"Indonesia";"";"";"";"-2.45646";"102.9433825";"https://maps.google.com/?cid=0x0:0x70c87b621cef40fa";""
"cafe";"Rumah Makan";"Warung MBAK SANAH";"G2CG+8H3, Bumi Makmur, Kec. Nibung, Kabupaten Musi Rawas, Sumatera Selatan 31667";"Bumi Makmur, Kec. Nibung, Kabupaten Musi Rawas";"SUMATERA SELATAN";"31667";"Indonesia";"";"";"";"-2.4792395";"103.0264352";"https://maps.google.com/?cid=0x0:0x440c19c26c889e5f";""
"cafe";"Bakso";"Makanan";"GXJ3+6JR, Sri Jaya Makmur, Kec. Nibung, Kab. Musi Rawas Utara, Sumatera Selatan 31667";"Sri Jaya Makmur, Kec. Nibung, Kab. Musi Rawas Utara";"SUMATERA SELATAN";"31667";"Indonesia";"";"";"";"-2.4693918";"102.9540183";"https://maps.google.com/?cid=0x0:0x3aaac5b04d48bed6";""
"cafe";"Pusat jajanan kaki lima";"Suyono dono";"GXR3+HRP, Sri Jaya Makmur, Kec. Nibung, Kab. Musi Rawas Utara, Sumatera Selatan 31667";"Sri Jaya Makmur, Kec. Nibung, Kab. Musi Rawas Utara";"SUMATERA SELATAN";"31667";"Indonesia";"";"";"";"-2.4585499";"102.9545934";"https://maps.google.com/?cid=0x0:0x5f4a4fdb88908787";""
"cafe";"Kedai Kopi";"Kedai Ardie Arrafi'i/ Novita S. Arrafi'i";"FWC4+WQ, Krani Jaya, Kec. Nibung, Kab. Musi Rawas Utara, Sumatera Selatan 31667";"Krani Jaya, Kec. Nibung, Kab. Musi Rawas Utara";"SUMATERA SELATAN";"31667";"Indonesia";"";"";"";"-2.5271";"102.9073";"https://maps.google.com/?cid=0x0:0x533c66491e78f3e";""
"cafe";"Dapur Umum";"'KEDAI VHIA,,";"Jln, Poros blok b1, Sri Jaya Makmur, Kec. Nibung, Kab. Musi Rawas Utara, Sumatera Selatan 31667";"Poros blok b1, Sri Jaya Makmur, Kec. Nibung, Kab. Musi Rawas Utara";"SUMATERA SELATAN";"31667";"Indonesia";"";"";"";"-2.4508522";"102.9608246";"https://maps.google.com/?cid=0x0:0x2f058b27c36a580c";""
"cafe";"Rumah Makan";"LESEHAN MBK SEPTI";"G2GH+6G3, Bumi Makmur, Kec. Nibung, Kab. Musi Rawas Utara, Sumatera Selatan 31667";"Bumi Makmur, Kec. Nibung, Kab. Musi Rawas Utara";"SUMATERA SELATAN";"31667";"Indonesia";" 082289910295";"";"";"-2.474597";"103.027377";"https://maps.google.com/?cid=0x0:0xe965fb902c8462fb";""
"cafe";"Kafe";"Okegasscafe";"komplek Nibung mas, Jl.makam pahlawan blok a no 1, Jadi Mulya, Nibung, North Musi Rawas Regency, South Sumatra";"Kab. Musi Rawas Utara, Sumatera Selatan";"SUMATERA SELATAN";"";"Indonesia";"";"";"";"-2.4969628";"102.9566068";"https://maps.google.com/?cid=0x0:0x1e427a2f1a6df80";""
"cafe";"Dapur Umum";"Mpek Mpek Naya99";"FWVJ+8X3, Unnamed Road, Sumber Makmur, Kec. Nibung, Kab. Musi Rawas Utara, Sumatera Selatan 31667";"Unnamed Road, Sumber Makmur, Kec. Nibung, Kab. Musi Rawas Utara";"SUMATERA SELATAN";"31667";"Indonesia";" 082386977717";"";"";"-2.5067368";"102.9324084";"https://maps.google.com/?cid=0x0:0xb94e0dd9a996601";""
"cafe";"cafe";"Nibung Café";"Sago Salido, Kec. Iv Jurai, Kabupaten Pesisir Selatan, Sumatera Barat";"Kabupaten Pesisir Selatan, Sumatera Barat";"SUMATERA SELATAN";"";"Indonesia";"";"";"";"-1.3061545";"100.5404483";"https://maps.google.com/?cid=0x0:0x17a8caa19f166d04";""
"cafe";"Kedai Kopi";"Angkringan Boba tea Alya dan persosisan";"FWWM+79Q, Sumber Makmur, Kec. Nibung, Kab. Musi Rawas Utara, Sumatera Selatan 31667";"Sumber Makmur, Kec. Nibung, Kab. Musi Rawas Utara";"SUMATERA SELATAN";"31667";"Indonesia";"";"";"";"-2.5042906";"102.9334764";"https://maps.google.com/?cid=0x0:0xef86619c37dbba9";""
"cafe";"cafe";"Sumatera Selatan 31655";"Kec. Rawas Ilir, Kabupaten Musi Rawas, Sumatera Selatan";"Kabupaten Musi Rawas, Sumatera Selatan";"SUMATERA SELATAN";"";"Indonesia";"";"";"";"-2.6657075";"103.2201828";"https://maps.google.com/?cid=0x0:0x9daabcd0688b6fb7";""
"cafe";"Kafe";"Agus gorengan";"94G9+8MF, Jalan Raya, Beringin Makmur I, Rawas Ilir, North Musi Rawas Regency, South Sumatra 31655";"Jalan Raya, Beringin Makmur I, Rawas Ilir, North Musi Rawas Regency";"SUMATERA SELATAN";"31655";"Indonesia";"";"";"";"-2.62418";"103.11917";"https://maps.google.com/?cid=0x0:0xfbf951f135ac68ef";""
"cafe";"Kedai Kopi";"Kedai kampung ambon";"94M5+2XJ, Bingin Tlk., Kec. Rawas Ilir, Kabupaten Musi Rawas, Sumatera Selatan";"Kabupaten Musi Rawas, Sumatera Selatan";"SUMATERA SELATAN";"";"Indonesia";"";"";"";"-2.6174182";"103.1098765";"https://maps.google.com/?cid=0x0:0x74fcfa25d1ff5ed1";""
"cafe";"Es Krim";"ISUT BUBBLE TEA";"Jl. Desa, Dusun 1, Beringin Makmur II, Kec. Rawas Ilir, Kab. Musi Rawas Utara, Sumatera Selatan 31655";"Dusun 1, Beringin Makmur II, Kec. Rawas Ilir, Kab. Musi Rawas Utara";"SUMATERA SELATAN";"31655";"Indonesia";" 085709026420";"";"";"-2.6126519";"103.1080843";"https://maps.google.com/?cid=0x0:0xda372ef68d8792e";""
"cafe";"Kafe";"Wak Mat";"9646+X7G, Belani, Kec. Rawas Ilir, Kab. Musi Rawas Utara, Sumatera Selatan";"Kab. Musi Rawas Utara, Sumatera Selatan";"SUMATERA SELATAN";"";"Indonesia";"";"";"";"-2.6425574";"103.2106974";"https://maps.google.com/?cid=0x0:0x470247a57c506e62";""
"cafe";"Kafe";"KEDAI SIMTIG";"Tj. Raja, Kec. Rawas Ilir, Kab. Musi Rawas Utara, Sumatera Selatan 31566";"Kec. Rawas Ilir, Kab. Musi Rawas Utara";"SUMATERA SELATAN";"31566";"Indonesia";" 085669546194";"";"";"-2.6156973";"103.1714017";"https://maps.google.com/?cid=0x0:0x5c047eea5df55589";""
"cafe";"Kedai Kopi";"Kedai kopi abang";"94G9+7HG, Jalan Raya, Beringin Makmur I, Rawas Ilir, North Musi Rawas Regency, South Sumatra 31655";"Jalan Raya, Beringin Makmur I, Rawas Ilir, North Musi Rawas Regency";"SUMATERA SELATAN";"31655";"Indonesia";"";"";"";"-2.6243108";"103.1189468";"https://maps.google.com/?cid=0x0:0x94d5ebafb29805e6";""
"cafe";"Kedai Kopi";"Daeng Saputra";"Pauh I, Kec. Rawas Ilir, Kab. Musi Rawas Utara, Sumatera Selatan";"Kab. Musi Rawas Utara, Sumatera Selatan";"SUMATERA SELATAN";"";"Indonesia";" 085217047138";"";"";"-2.6539237";"103.2755806";"https://maps.google.com/?cid=0x0:0xd115cf5697ff6207";""
"cafe";"Makanan Kecil";"Bakso Mas GR";"94JC+MC9, Beringin Makmur II, Kec. Rawas Ilir, Kabupaten Musi Rawas, Sumatera Selatan 31655";"Beringin Makmur II, Kec. Rawas Ilir, Kabupaten Musi Rawas";"SUMATERA SELATAN";"31655";"Indonesia";"";"";"";"-2.618336";"103.1211079";"https://maps.google.com/?cid=0x0:0xc21248db37c71476";""
"cafe";"Pembangunan Perumahan";"@isyah Sri";"94P7+583, Beringin Makmur II, Kec. Rawas Ilir, Kabupaten Musi Rawas, Sumatera Selatan 31655";"Beringin Makmur II, Kec. Rawas Ilir, Kabupaten Musi Rawas";"SUMATERA SELATAN";"31655";"Indonesia";" 081541114444";"";"";"-2.6146167";"103.1133118";"https://maps.google.com/?cid=0x0:0x1cae6699ccd74a73";""
"cafe";"Dapur Umum";"RM Putri Bungsu";"94F8+GW6, Beringin Makmur I, Kec. Rawas Ilir, Kab. Musi Rawas Utara, Sumatera Selatan 31655";"Beringin Makmur I, Kec. Rawas Ilir, Kab. Musi Rawas Utara";"SUMATERA SELATAN";"31655";"Indonesia";" 082372250079";"";"";"-2.6262024";"103.1172629";"https://maps.google.com/?cid=0x0:0x7f66caec2cf72518";""
"cafe";"Kafe";"Warung Kopi";"94W9+R49, Beringin Makmur II, Kec. Rawas Ilir, Kabupaten Musi Rawas, Sumatera Selatan 31655";"Beringin Makmur II, Kec. Rawas Ilir, Kabupaten Musi Rawas";"SUMATERA SELATAN";"31655";"Indonesia";"";"";"";"-2.6029551";"103.1178676";"https://maps.google.com/?cid=0x0:0xb1eeae2be7a7d74c";""
"cafe";"Kedai Kopi";"Kedai Aneka Gorengan";"94R7+V72, Beringin Makmur II, Kec. Rawas Ilir, Kab. Musi Rawas Utara, Sumatera Selatan 31655";"Beringin Makmur II, Kec. Rawas Ilir, Kab. Musi Rawas Utara";"SUMATERA SELATAN";"31655";"Indonesia";"";"";"";"-2.6078675";"103.1131529";"https://maps.google.com/?cid=0x0:0xa07f47601e766b4b";""
"cafe";"Kedai Kopi";"Tunas mekar";"87RM+8VM, Pauh, Kec. Rawas Ilir, Kab. Musi Rawas Utara, Sumatera Selatan 31655";"Pauh, Kec. Rawas Ilir, Kab. Musi Rawas Utara";"SUMATERA SELATAN";"31655";"Indonesia";"";"";"";"-2.6591665";"103.2846808";"https://maps.google.com/?cid=0x0:0x71acca0536679b3a";""
"cafe";"Makanan Kecil";"Warung Bejo";"94MV+9F6, Unnamed Road, Beringin Makmur II, Kec. Rawas Ilir, Kab. Musi Rawas Utara, Sumatera Selatan 31655";"Unnamed Road, Beringin Makmur II, Kec. Rawas Ilir, Kab. Musi Rawas Utara";"SUMATERA SELATAN";"31655";"Indonesia";" 085200384941";"";"";"-2.6165817";"103.1436467";"https://maps.google.com/?cid=0x0:0xd437d368be113ea7";""
"cafe";"Kedai Kopi";"adzra Cafe";"83R7+MQG, Mandi Angin, Kec. Rawas Ilir, Kab. Musi Rawas Utara, Sumatera Selatan 31658";"Mandi Angin, Kec. Rawas Ilir, Kab. Musi Rawas Utara";"SUMATERA SELATAN";"31658";"Indonesia";" 081377646499";"";"";"-2.658301";"103.064454";"https://maps.google.com/?cid=0x0:0xa753410e6fcc1552";""
"cafe";"Kedai Kopi";"Kedai friend's broo";"94M6+VFJ, Unnamed Road, Bingin Tlk., Kec. Rawas Ilir, Kab. Musi Rawas Utara, Sumatera Selatan 31655";"Unnamed Road, Bingin Tlk., Kec. Rawas Ilir, Kab. Musi Rawas Utara";"SUMATERA SELATAN";"31655";"Indonesia";" 085609249687";"";"";"-2.6152999";"103.1111466";"https://maps.google.com/?cid=0x0:0x67f0328d0fb1e4fd";""
"cafe";"Toko Makanan";"Teras umak (cik cut)";"2, Dusun 2, Beringin Makmur I, Kec. Rawas Ilir, Kab. Musi Rawas Utara, Sumatera Selatan";"Kab. Musi Rawas Utara, Sumatera Selatan";"SUMATERA SELATAN";"";"Indonesia";"";"";"";"-2.7246352";"103.1509672";"https://maps.google.com/?cid=0x0:0x628d6fc4f0500806";""
"cafe";"Kedai Kopi";"Rumah Regen Ishak";"87VJ+373, Pauh I, Kec. Rawas Ilir, Kab. Musi Rawas Utara, Sumatera Selatan 31655";"Pauh I, Kec. Rawas Ilir, Kab. Musi Rawas Utara";"SUMATERA SELATAN";"31655";"Indonesia";"";"";"";"-2.6571947";"103.2808232";"https://maps.google.com/?cid=0x0:0x2e890430e1791351";""
"cafe";"Dapur Umum";"Warung usaha keluarga";"C583+V62, Beringin Makmur II, Kec. Rawas Ilir, Kabupaten Musi Rawas, Sumatera Selatan 31655";"Beringin Makmur II, Kec. Rawas Ilir, Kabupaten Musi Rawas";"SUMATERA SELATAN";"31655";"Indonesia";"";"";"";"-2.5828595";"103.1530102";"https://maps.google.com/?cid=0x0:0x588ea0c2c6c83889";""
"cafe";"Kafe";"Es Oyen Nia";"94JC+H8W, Unnamed Road, Beringin Makmur II, Kec. Rawas Ilir, Kab. Musi Rawas Utara, Sumatera Selatan 31655";"Unnamed Road, Beringin Makmur II, Kec. Rawas Ilir, Kab. Musi Rawas Utara";"SUMATERA SELATAN";"31655";"Indonesia";"";"";"";"-2.6185239";"103.120841";"https://maps.google.com/?cid=0x0:0x76d432588fdc5e3d";""
"cafe";"cafe";"Sumatera Selatan 31656";"Kabupaten Musi Rawas, Sumatera Selatan";"Kabupaten Musi Rawas, Sumatera Selatan";"SUMATERA SELATAN";"";"Indonesia";"";"";"";"-2.6716149";"102.6675575";"https://maps.google.com/?cid=0x0:0x829aeb46883c7ea6";""
"cafe";"Brunch";"Dapur Boenda @!3";"9QQ9+H38, Jl. Lintas Utama Sumatera, RT.13, Ps. Surulangun, Kec. Rawas Ulu, Kab. Musi Rawas Utara, Sumatera Selatan 31656";"Jl. Lintas Utama Sumatera, RT.13, Ps. Surulangun, Kec. Rawas Ulu, Kab. Musi Rawas Utara";"SUMATERA SELATAN";"31656";"Indonesia";" 085274155501";"";"";"-2.6110898";"102.7676946";"https://maps.google.com/?cid=0x0:0x312b5540764c17a6";""
"cafe";"Restoran";"ADE GARDEN";"Unnamed Road, Ps. Surulangun, Kec. Rawas Ulu, Kab. Musi Rawas Utara, Sumatera Selatan 31656";"Ps. Surulangun, Kec. Rawas Ulu, Kab. Musi Rawas Utara";"SUMATERA SELATAN";"31656";"Indonesia";" 082177683777";"";"";"-2.6220644";"102.7574913";"https://maps.google.com/?cid=0x0:0x84ce39e6214014d";""
"cafe";"Kafe";"Cafe Baselo Sungai Nio";"8RRQ+3CW, Jl. Lintas Utama Sumatera, Remban, Kec. Rawas Ulu, Kab. Musi Rawas Utara, Sumatera Selatan 31654";"Jl. Lintas Utama Sumatera, Remban, Kec. Rawas Ulu, Kab. Musi Rawas Utara";"SUMATERA SELATAN";"31654";"Indonesia";" 085267351533";"";"";"-2.6597545";"102.8385675";"https://maps.google.com/?cid=0x0:0xfe5de9f5aacae5a8";""
"cafe";"Restoran";"Rumah makan siang malam";"CQ23+VH9, Sungai Jauh, Kec. Rawas Ulu, Kab. Musi Rawas Utara, Sumatera Selatan 31656";"Sungai Jauh, Kec. Rawas Ulu, Kab. Musi Rawas Utara";"SUMATERA SELATAN";"31656";"Indonesia";"";"";"";"-2.5978274";"102.75397";"https://maps.google.com/?cid=0x0:0x8a88bd26bf333398";""
"cafe";"Perhimpunan Pengembang Perumahan";"TERAS RUMAH";"Sungai Baung, Kec. Rawas Ulu, Kabupaten Musi Rawas, Sumatera Selatan 31656";"Kec. Rawas Ulu, Kabupaten Musi Rawas";"SUMATERA SELATAN";"31656";"Indonesia";" 082279802004";"";"";"-2.6380533";"102.7396698";"https://maps.google.com/?cid=0x0:0x4b6ac418b8429e1e";""
"cafe";"Bakso";"Bakso barokah";"Sungai Jauh, Kec. Rawas Ulu, Kab. Musi Rawas Utara, Sumatera Selatan 31656";"Kec. Rawas Ulu, Kab. Musi Rawas Utara";"SUMATERA SELATAN";"31656";"Indonesia";" 085267728468";"";"";"-2.6021962";"102.7592042";"https://maps.google.com/?cid=0x0:0x6688cba6d88eb90b";""
"cafe";"Restoran";"Rumah makan annisa";"9QV6+88R, Ps. Surulangun, Kec. Rawas Ulu, Kabupaten Musi Rawas, Sumatera Selatan 31656";"Ps. Surulangun, Kec. Rawas Ulu, Kabupaten Musi Rawas";"SUMATERA SELATAN";"31656";"Indonesia";"";"";"";"-2.6066451";"102.7607756";"https://maps.google.com/?cid=0x0:0xb51d901ca1cc75a8";""
"cafe";"Dapur Umum";"Warung Bicik Sia";"9QG4+3R5, Unnamed Road, Ps. Surulangun, Kec. Rawas Ulu, Kab. Musi Rawas Utara, Sumatera Selatan 31656";"Unnamed Road, Ps. Surulangun, Kec. Rawas Ulu, Kab. Musi Rawas Utara";"SUMATERA SELATAN";"31656";"Indonesia";"";"";"";"-2.6248712";"102.7570962";"https://maps.google.com/?cid=0x0:0xfbcff8403c41461a";""
"cafe";"Restoran";"wisata minuman segar";"9QG6+C98, Ps. Surulangun, Kec. Rawas Ulu, Kab. Musi Rawas Utara, Sumatera Selatan 31656";"Ps. Surulangun, Kec. Rawas Ulu, Kab. Musi Rawas Utara";"SUMATERA SELATAN";"31656";"Indonesia";" 085783678933";"";"";"-2.6244806";"102.7603881";"https://maps.google.com/?cid=0x0:0x6cbd4e6f29debc1e";""
"cafe";"Dapur Umum";"Kedai nasi 3 saudara";"Ps. Surulangun, Kec. Rawas Ulu, Kab. Musi Rawas Utara, Sumatera Selatan 31656";"Kec. Rawas Ulu, Kab. Musi Rawas Utara";"SUMATERA SELATAN";"31656";"Indonesia";" 082377686662";"";"";"-2.6220625";"102.7609375";"https://maps.google.com/?cid=0x0:0xed9cc3a0b6105c5d";""
"cafe";"Kafe";"Warung makan asiong seafood";"Utara, Karang Anyar, Kabupaten Musi Rawas, Sumatera Selatan 31654";"Karang Anyar, Kabupaten Musi Rawas";"SUMATERA SELATAN";"31654";"Indonesia";" 081294901665";"";"";"-2.6728789";"102.8590525";"https://maps.google.com/?cid=0x0:0x6dc51fe34627e1ca";""
"cafe";"Restoran";"Pempek Panggang Rati";"9QF4+XJG, Ps. Surulangun, Kec. Rawas Ulu, Kabupaten Musi Rawas, Sumatera Selatan 31656";"Ps. Surulangun, Kec. Rawas Ulu, Kabupaten Musi Rawas";"SUMATERA SELATAN";"31656";"Indonesia";" 082282542753";"";"";"-2.6250728";"102.7565847";"https://maps.google.com/?cid=0x0:0x6ef6f8dd3c5fc375";""
"cafe";"Rumah Makan";"Rumah Makan Rawas Jaya";"9QPJ+8QV, Jl. Sarolangun - Lubuk Linggau, Ps. Surulangun, Kec. Rawas Ulu, Kab. Musi Rawas Utara, Sumatera Selatan 31654";"Jl. Sarolangun - Lubuk Linggau, Ps. Surulangun, Kec. Rawas Ulu, Kab. Musi Rawas Utara";"SUMATERA SELATAN";"31654";"Indonesia";" 081366087151";"";"";"-2.6141376";"102.7819182";"https://maps.google.com/?cid=0x0:0xc95c716458f1f422";""
"cafe";"Kedai Kopi";"warung bakso cek mar";"8RQP+F5J, Remban, Kec. Rawas Ulu, Kabupaten Musi Rawas, Sumatera Selatan 31654";"Remban, Kec. Rawas Ulu, Kabupaten Musi Rawas";"SUMATERA SELATAN";"31654";"Indonesia";" 081273638320";"";"";"-2.6612978";"102.8354035";"https://maps.google.com/?cid=0x0:0x8f7ee4e203689c91";""
"cafe";"Kedai Kopi";"Warung Makan Uti";"Sungai Jauh, Kec. Rawas Ulu, Kab. Musi Rawas Utara, Sumatera Selatan";"Kab. Musi Rawas Utara, Sumatera Selatan";"SUMATERA SELATAN";"";"Indonesia";" 082377539969";"";"";"-2.583742";"102.7392422";"https://maps.google.com/?cid=0x0:0x3c8cff353337597e";""
"cafe";"Bakso";"Warung bakso om black";"9QG7+8FQ, Ps. Surulangun, Kec. Rawas Ulu, Kab. Musi Rawas Utara, Sumatera Selatan 31656";"Ps. Surulangun, Kec. Rawas Ulu, Kab. Musi Rawas Utara";"SUMATERA SELATAN";"31656";"Indonesia";" 085266477972";"";"";"-2.6234587";"102.7635296";"https://maps.google.com/?cid=0x0:0x3a30187fd1c4fb4f";""
"cafe";"Nasi Goreng";"Warung Nasi Ita";"9QG6+3H2, Ps. Surulangun, Kec. Rawas Ulu, Kab. Musi Rawas Utara, Sumatera Selatan 31656";"Ps. Surulangun, Kec. Rawas Ulu, Kab. Musi Rawas Utara";"SUMATERA SELATAN";"31656";"Indonesia";"";"";"";"-2.6248134";"102.7613919";"https://maps.google.com/?cid=0x0:0xca7a276e5151948d";""
"cafe";"Kedai Kopi";"KEDAI KITO";"Desa Noman Baru, Kp. Tujuh, Kec. Rupit, Kab. Musi Rawas Utara, Sumatera Selatan 31654";"Kp. Tujuh, Kec. Rupit, Kab. Musi Rawas Utara";"SUMATERA SELATAN";"31654";"Indonesia";" 085208710787";"";"";"-2.8128803";"102.830717";"https://maps.google.com/?cid=0x0:0xba3420ea8c0905e8";""
"cafe";"Kedai Kopi";"Waroenk Bichek";"9QFW+38R, Lesung Batu Muda, Kec. Rawas Ulu, Kab. Musi Rawas Utara, Sumatera Selatan 31654";"Lesung Batu Muda, Kec. Rawas Ulu, Kab. Musi Rawas Utara";"SUMATERA SELATAN";"31654";"Indonesia";"";"";"";"-2.6263774";"102.7951552";"https://maps.google.com/?cid=0x0:0xe34c4510a3053e1b";""
"cafe";"Kedai Kopi";"Teh taluah Uda ateng";"9QM8+435, Ps. Surulangun, Kec. Rawas Ulu, Kab. Musi Rawas Utara, Sumatera Selatan";"Kab. Musi Rawas Utara, Sumatera Selatan";"SUMATERA SELATAN";"";"Indonesia";"";"";"";"-2.6172454";"102.7652326";"https://maps.google.com/?cid=0x0:0x96b7e35353af955d";""
"cafe";"Kafe";"D KOPI 99";"4RX6+43R, desa, Embacang Baru, ulu, Kabupaten Musi Rawas, Sumatera Selatan 31654";"desa, Embacang Baru, ulu, Kabupaten Musi Rawas";"SUMATERA SELATAN";"31654";"Indonesia";" 085368886876";"";"";"-2.8521267";"102.8101287";"https://maps.google.com/?cid=0x0:0xd386d50d1869d5e0";""
"cafe";"Bengkel Bongkar Pasang Mesin";"BENGKEL PEROT 88 MURATARA";"9QJ6+GC5, Ps. Surulangun, Muratara, Kab. Musi Rawas Utara, Sumatera Selatan 31656";"Ps. Surulangun, Muratara, Kab. Musi Rawas Utara";"SUMATERA SELATAN";"31656";"Indonesia";" 085216126768";"";"";"-2.6187356";"102.7610992";"https://maps.google.com/?cid=0x0:0x5d0e71f182e2c30a";""
"cafe";"Brunch";"Rm negeri wisata pagaruyung";"CP8R+G8R, Sungai Jauh, Kec. Rawas Ulu, Kabupaten Musi Rawas, Sumatera Selatan";"Kabupaten Musi Rawas, Sumatera Selatan";"SUMATERA SELATAN";"";"Indonesia";"";"";"";"-2.5845288";"102.7400908";"https://maps.google.com/?cid=0x0:0x885391f14bacd02e";""
"cafe";"cafe";"Kec. Rupit";"Kab. Musi Rawas Utara, Sumatera Selatan";"Kab. Musi Rawas Utara, Sumatera Selatan";"SUMATERA SELATAN";"";"Indonesia";"";"";"";"-2.7205772";"102.9116717";"https://maps.google.com/?cid=0x0:0xa822b6d74806cc91";""
"cafe";"Restoran";"Black Caffe";"7W84+W77, Muara Rupit, Kec. Rupit, Kabupaten Musi Rawas, Sumatera Selatan 31654";"Muara Rupit, Kec. Rupit, Kabupaten Musi Rawas";"SUMATERA SELATAN";"31654";"Indonesia";"";"";"";"-2.7327138";"102.9056657";"https://maps.google.com/?cid=0x0:0xd112779ef88b55e5";""
"cafe";"Kedai Kopi";"KEDAI KITO";"Desa Noman Baru, Kp. Tujuh, Kec. Rupit, Kab. Musi Rawas Utara, Sumatera Selatan 31654";"Kp. Tujuh, Kec. Rupit, Kab. Musi Rawas Utara";"SUMATERA SELATAN";"31654";"Indonesia";" 085208710787";"";"";"-2.8128803";"102.830717";"https://maps.google.com/?cid=0x0:0xba3420ea8c0905e8";""
"cafe";"Restoran";"Rumah Makan Muratara";"7WM6+62C, Lawang Agung, Kec. Rupit, Kabupaten Musi Rawas, Sumatera Selatan 31654";"Lawang Agung, Kec. Rupit, Kabupaten Musi Rawas";"SUMATERA SELATAN";"31654";"Indonesia";" 082175320008";"";"";"-2.7169281";"102.9100227";"https://maps.google.com/?cid=0x0:0xf76a46bd380dfd86";""
"cafe";"Padang";"Restoran SEDERHANA Muara Rupit";"7V6X+H92, Jl. Sarolangun - Lubuk Linggau, Muara Rupit, Kec. Rupit, Kab. Musi Rawas Utara, Sumatera Selatan 31654";"Jl. Sarolangun - Lubuk Linggau, Muara Rupit, Kec. Rupit, Kab. Musi Rawas Utara";"SUMATERA SELATAN";"31654";"Indonesia";" 081278781118";"";"";"-2.738619";"102.8984001";"https://maps.google.com/?cid=0x0:0xec61bf861e0f197c";""
"cafe";"Sarapan";"Kedai Abang Brewok";"Muara Rupit, Kec. Rupit, Kabupaten Musi Rawas, Sumatera Selatan 31654";"Kec. Rupit, Kabupaten Musi Rawas";"SUMATERA SELATAN";"31654";"Indonesia";"";"";"";"-2.7326601";"102.905636";"https://maps.google.com/?cid=0x0:0x38434eb4a5c78412";""
"cafe";"Kedai Kopi";"BesamoCoffee";"7WQ6+2CM, Jl. Sarolangun - Lubuk Linggau, Lawang Agung, Kec. Rupit, Kab. Musi Rawas Utara, Sumatera Selatan 31654";"Jl. Sarolangun - Lubuk Linggau, Lawang Agung, Kec. Rupit, Kab. Musi Rawas Utara";"SUMATERA SELATAN";"31654";"Indonesia";" 08578680601";"";"";"-2.7124172";"102.911032";"https://maps.google.com/?cid=0x0:0x2a596e291469e4e4";""
"cafe";"Restoran";"FREMILT CAFEE";"7WQ6+F9F, Jl. Sarolangun - Lubuk Linggau, Lawang Agung, Kec. Rupit, Kab. Musi Rawas Utara, Sumatera Selatan 31654";"Jl. Sarolangun - Lubuk Linggau, Lawang Agung, Kec. Rupit, Kab. Musi Rawas Utara";"SUMATERA SELATAN";"31654";"Indonesia";"";"";"";"-2.7113018";"102.9109226";"https://maps.google.com/?cid=0x0:0xd6671680471b45b0";""
"cafe";"Restoran";"RM Pindang Rupit Syifa";"7WM6+456, Unnamed Road, Lawang Agung, Kec. Rupit, Kab. Musi Rawas Utara, Sumatera Selatan 31654";"Unnamed Road, Lawang Agung, Kec. Rupit, Kab. Musi Rawas Utara";"SUMATERA SELATAN";"31654";"Indonesia";"";"";"";"-2.7172185";"102.9103863";"https://maps.google.com/?cid=0x0:0xd62cd0cd2c7d63ac";""
"cafe";"Padang";"SAUNG MINANG " PEMUDA JAYA "";"7V6W+HW7, Jl. Sarolangun - Lubuk Linggau, Muara Rupit, Kec. Rupit, Kab. Musi Rawas Utara, Sumatera Selatan 31654";"Jl. Sarolangun - Lubuk Linggau, Muara Rupit, Kec. Rupit, Kab. Musi Rawas Utara";"SUMATERA SELATAN";"31654";"Indonesia";"";"";"";"-2.7385918";"102.8972918";"https://maps.google.com/?cid=0x0:0x78bae0c380ab8b84";""
"cafe";"Rumah Makan";"Rumah Makan Anda";"7WV5+P64, Jl. Lintas Utama Sumatera, Lawang Agung, Kec. Rupit, Kab. Musi Rawas Utara, Sumatera Selatan 31654";"Jl. Lintas Utama Sumatera, Lawang Agung, Kec. Rupit, Kab. Musi Rawas Utara";"SUMATERA SELATAN";"31654";"Indonesia";" 082269299232";"";"";"-2.7057492";"102.9080724";"https://maps.google.com/?cid=0x0:0xdcf188e034fa1310";""
"cafe";"Kafe";"Warung makan asiong seafood";"Utara, Karang Anyar, Kabupaten Musi Rawas, Sumatera Selatan 31654";"Karang Anyar, Kabupaten Musi Rawas";"SUMATERA SELATAN";"31654";"Indonesia";" 081294901665";"";"";"-2.6728789";"102.8590525";"https://maps.google.com/?cid=0x0:0x6dc51fe34627e1ca";""
"cafe";"Restoran";"Nangkring×SenjaTobecco";"Jl. Lintas Utama Sumatera, Muara Rupit, Kec. Rupit, Kab. Musi Rawas Utara, Sumatera Selatan";"Kab. Musi Rawas Utara, Sumatera Selatan";"SUMATERA SELATAN";"";"Indonesia";" 08127309826";"";"";"-2.7268892";"102.909991";"https://maps.google.com/?cid=0x0:0x6300531568827d21";""
"cafe";"Sarapan";"Warung Minum";"7WQ6+72P, Lawang Agung, Kec. Rupit, Kabupaten Musi Rawas, Sumatera Selatan 31654";"Lawang Agung, Kec. Rupit, Kabupaten Musi Rawas";"SUMATERA SELATAN";"31654";"Indonesia";"";"";"";"-2.711787";"102.91009";"https://maps.google.com/?cid=0x0:0x2de42308bfe4890f";""
"cafe";"Bakso";"Bakso Urat 69";"7WC5+39J, Muara Rupit, Kec. Rupit, Kabupaten Musi Rawas, Sumatera Selatan 31654";"Muara Rupit, Kec. Rupit, Kabupaten Musi Rawas";"SUMATERA SELATAN";"31654";"Indonesia";"";"";"";"-2.729785";"102.908398";"https://maps.google.com/?cid=0x0:0x981fa5797dfc5e7e";""
"cafe";"Kafe";"Office fremilt";"7WV8+M2F, Unnamed Road, Lawang Agung, Kec. Rupit, Kab. Musi Rawas Utara, Sumatera Selatan 31654";"Unnamed Road, Lawang Agung, Kec. Rupit, Kab. Musi Rawas Utara";"SUMATERA SELATAN";"31654";"Indonesia";" 082373390013";"";"";"-2.7058244";"102.9150439";"https://maps.google.com/?cid=0x0:0x61f821bfcdf9b5db";""
"cafe";"Kafe";"CELEDUM Snack  Shake";"Jl. Lintas Utama Sumatera No.Km No.82, Lawang Agung, Kec. Rupit, Kab. Musi Rawas Utara, Sumatera Selatan 31654";"Lawang Agung, Kec. Rupit, Kab. Musi Rawas Utara";"SUMATERA SELATAN";"31654";"Indonesia";" 081275058485";"";"";"-2.7111992";"102.9104728";"https://maps.google.com/?cid=0x0:0xfb7f4d84b1daba6e";""
"cafe";"Kedai Kopi";"TokoQio";"Bingin Rupit, Kec. Rupit, Lubuklinggau, Sumatera Selatan 31654";"Kec. Rupit, Lubuklinggau";"SUMATERA SELATAN";"31654";"Indonesia";" 082183898968";"";"";"-2.7535046";"102.8732868";"https://maps.google.com/?cid=0x0:0xdd65e1fd7aef8510";""
"cafe";"Padang";"RM. TELAGO INDAH";"8W23+FV5, Lawang Agung, Kec. Rupit, Kabupaten Musi Rawas, Sumatera Selatan 31654";"Lawang Agung, Kec. Rupit, Kabupaten Musi Rawas";"SUMATERA SELATAN";"31654";"Indonesia";" 085228522214";"";"";"-2.6988543";"102.9047403";"https://maps.google.com/?cid=0x0:0x411e29c8ef7c36cb";""
"cafe";"Dapur Umum";"BEBEK_BAKAR_ARSY";"7WM6+FV3, Lawang Agung, Kec. Rupit, Kab. Musi Rawas Utara, Sumatera Selatan 31654";"Lawang Agung, Kec. Rupit, Kab. Musi Rawas Utara";"SUMATERA SELATAN";"31654";"Indonesia";" 082182191825";"";"";"-2.7165094";"102.9123674";"https://maps.google.com/?cid=0x0:0xc52fc874aa3a14f1";""
"cafe";"Restoran";"Rumah Makan Panggung Jaya";"8VCF+W77, Karang Anyar, Kec. Rupit, Kabupaten Musi Rawas, Sumatera Selatan 31654";"Karang Anyar, Kec. Rupit, Kabupaten Musi Rawas";"SUMATERA SELATAN";"31654";"Indonesia";"";"";"";"-2.6777197";"102.8731599";"https://maps.google.com/?cid=0x0:0x2a0900fc24185bbf";""
"cafe";"Restoran";"RM Pindang Rupit Jasa Ibu";"7W95+H52, Muara Rupit, Kec. Rupit, Kabupaten Musi Rawas, Sumatera Selatan 31654";"Muara Rupit, Kec. Rupit, Kabupaten Musi Rawas";"SUMATERA SELATAN";"31654";"Indonesia";"";"";"";"-2.7311233";"102.9078764";"https://maps.google.com/?cid=0x0:0x49bf483006240fe3";""
"cafe";"cafe";"Rupit";"08569, Provinsi Barcelona, Spanyol";"Rupit, Spanyol";"SUMATERA SELATAN";"";"Indonesia";"";"";"";"42.0245042";"2.4655228";"https://maps.google.com/?cid=0x0:0xa5dbe78a7e794f82";""
"cafe";"Masakan Catalunya";"Bar Cafeteria El Tarota";"Plaça Major, 1, 08569 Rupit, Barcelona, Spanyol";"Rupit";"SUMATERA SELATAN";"08569";"Indonesia";" +34605816023";"";"";"42.023653";"2.4648958";"https://maps.google.com/?cid=0x0:0x3c0f79117c2298cd";""
"cafe";"Restoran";"Restaurant Albert";"Sant Joan de Fabregues, 4, 08569 Rupit, Barcelona, Spanyol";"Rupit";"SUMATERA SELATAN";"08569";"Indonesia";" +34938522021";"";"";"42.02523";"2.4647";"https://maps.google.com/?cid=0x0:0xf66c3e6b9560db54";""
"cafe";"Restoran";"EL GENET";"Camí de Rupit a, Sant Joan de Fabregues, 10, 08569 Rupit, Barcelona, Spanyol";"Rupit";"SUMATERA SELATAN";"08569";"Indonesia";" +34938522158";"";"";"42.02472";"2.4641621";"https://maps.google.com/?cid=0x0:0xc9f977de9d3a1a42";""
"cafe";"Masakan Catalunya";"Restaurant Ca l'Estragués";"Carrer de l'Església, 4, 6, 08569 Rupit, Barcelona, Spanyol";"Rupit";"SUMATERA SELATAN";"08569";"Indonesia";" +34938522006";"";"";"42.0239611";"2.4648479";"https://maps.google.com/?cid=0x0:0xb80a92d646b7c910";""
"cafe";"cafe";"Fonda Marsal";"Carrer del Manyà, 3, 08569 Rupit, Barcelona, Spanyol";"Rupit";"SUMATERA SELATAN";"08569";"Indonesia";" +34938522086";"";"";"42.0242955";"2.4648396";"https://maps.google.com/?cid=0x0:0x54ccf942bdd38c73";""
"cafe";"Toko Roti";"Forn de Pa L'Era";"Plaça Era Nova, 1, 08569 Rupit, Barcelona, Spanyol";"Rupit";"SUMATERA SELATAN";"08569";"Indonesia";" +34938522046";"";"";"42.02614";"2.465";"https://maps.google.com/?cid=0x0:0xd3920905125e1caa";""
"cafe";"cafe";"Sumatera Selatan 31669";"Kab. Musi Rawas Utara, Sumatera Selatan";"Kab. Musi Rawas Utara, Sumatera Selatan";"SUMATERA SELATAN";"";"Indonesia";"";"";"";"-2.7917254";"102.3463875";"https://maps.google.com/?cid=0x0:0x98db126b92af20bb";""
"cafe";"Kedai Kopi";"Imelia cafe";"2Q8P+R6H, Jl. Lintas Utama Sumatera, Rantau Jaya, Kec. Karang Jaya, Kabupaten Musi Rawas, Sumatera Selatan 30771";"Jl. Lintas Utama Sumatera, Rantau Jaya, Kec. Karang Jaya, Kabupaten Musi Rawas";"SUMATERA SELATAN";"30771";"Indonesia";"";"";"";"-2.9829402";"102.7856161";"https://maps.google.com/?cid=0x0:0xbcb808354b9b9de8";""
"cafe";"Kafe";"D KOPI 99 JAYA";"Unnamed Road, Muara Tiku, Kec. Karang Jaya, Kab. Musi Rawas Utara, Sumatera Selatan 31654";"Muara Tiku, Kec. Karang Jaya, Kab. Musi Rawas Utara";"SUMATERA SELATAN";"31654";"Indonesia";" 085368886876";"";"";"-2.86257";"102.7853149";"https://maps.google.com/?cid=0x0:0x7276d5d992cc783c";""
"cafe";"Toko outlet";"Nadia cell";"XPR6+C33, Bukit Ulu, Kec. Karang Jaya, Kab. Musi Rawas Utara, Sumatera Selatan";"Kab. Musi Rawas Utara, Sumatera Selatan";"SUMATERA SELATAN";"";"Indonesia";"";"";"";"-3.0089919";"102.7101788";"https://maps.google.com/?cid=0x0:0xfac9a768604a212a";""
"cafe";"Rumah Makan";"Sambilan Coffee 99 (Kafe Merasi Tugumulyo-Lubuklinggau)";"Jln. Jendral Sudirman No 99 dusun 2 Trikoyo Kec. Tugumulyo, Trikoyo, Kec. Tugumulyo, Kabupaten Musi Rawas, Sumatera Selatan 31662";"Trikoyo, Kec. Tugumulyo, Kabupaten Musi Rawas";"SUMATERA SELATAN";"31662";"Indonesia";" 083157218756";"";"";"-3.188055";"102.9470687";"https://maps.google.com/?cid=0x0:0xc24a39ebf82aaaf2";""
"cafe";"Komplek perumahan";"Rumah makan muaro tiku";"5H23+R46, Muara Tiku, Kec. Karang Jaya, Kab. Musi Rawas Utara, Sumatera Selatan";"Kab. Musi Rawas Utara, Sumatera Selatan";"SUMATERA SELATAN";"";"Indonesia";" 085263367135";"";"";"-2.8479704";"102.5527505";"https://maps.google.com/?cid=0x0:0x59b39105bda99d00";""
"cafe";"Sarapan";"Kedai Mie Ayam Ragel";"XPPC+XVH, Sukaraya Baru, Suku Tengah Lakitan Ulu, Kabupaten Musi Rawas, Sumatera Selatan";"Kabupaten Musi Rawas, Sumatera Selatan";"SUMATERA SELATAN";"";"Indonesia";"";"";"";"-3.0125509";"102.7222203";"https://maps.google.com/?cid=0x0:0xa7615144ddb56abb";""
"cafe";"Kafe";"gedung seni-budaya dan olahraga RT O3";"C5H9+2Q, Sungai Keradak, Kec. Batang Asai, Kabupaten Sarolangun, Jambi";"Kabupaten Sarolangun, Jambi";"SUMATERA SELATAN";"";"Indonesia";" 085282878486";"";"";"-2.572181";"102.168506";"https://maps.google.com/?cid=0x0:0x621cd11c87f3e26d";""
"cafe";"Kedai Kopi";"BOBA MALIBU";"4Q44+F92, Terusan, Kec. Karang Jaya, Kab. Musi Rawas Utara, Sumatera Selatan 31654";"Terusan, Kec. Karang Jaya, Kab. Musi Rawas Utara";"SUMATERA SELATAN";"31654";"Indonesia";"";"";"";"-2.8938719";"102.7558889";"https://maps.google.com/?cid=0x0:0xe9136a6cdf9bfe73";""
"cafe";"cafe";"WARUNG BIK O";"4Q44+VMV, Terusan, Kec. Karang Jaya, Kab. Musi Rawas Utara, Sumatera Selatan 31654";"Terusan, Kec. Karang Jaya, Kab. Musi Rawas Utara";"SUMATERA SELATAN";"31654";"Indonesia";"";"";"";"-2.8915818";"102.7566957";"https://maps.google.com/?cid=0x0:0xced4939b11f3b124";""
"cafe";"Gedung Apartemen";"Selebar Cafe and Resto";"V6P9+CM3, Selebar Jaya, Kec. Amen, Kabupaten Lebong, Bengkulu 39264";"Selebar Jaya, Kec. Amen, Kabupaten Lebong";"SUMATERA SELATAN";"39264";"Indonesia";"";"";"";"-3.1142552";"102.219299";"https://maps.google.com/?cid=0x0:0x370cdbdef557396d";""
"cafe";"Kedai Kopi";"Kedai El_Fachri Coffee House";"V5JX+F3H, Jl. Pertemuan, Ps. Muara Aman, Kec. Lebong Utara, Kabupaten Lebong, Bengkulu 39264";"Jl. Pertemuan, Ps. Muara Aman, Kec. Lebong Utara, Kabupaten Lebong";"SUMATERA SELATAN";"39264";"Indonesia";" 085243249646";"";"";"-3.1188132";"102.1977405";"https://maps.google.com/?cid=0x0:0xcbe318841587b364";""
"cafe";"Kafe";"RYU Boba";"V5PW+WXG, Kp. Jawa, Kec. Lebong Utara, Kabupaten Lebong, Bengkulu 39264";"Kp. Jawa, Kec. Lebong Utara, Kabupaten Lebong";"SUMATERA SELATAN";"39264";"Indonesia";" 081271959495";"";"";"-3.1126814";"102.1974598";"https://maps.google.com/?cid=0x0:0x592a97ddceb8a383";""
"cafe";"Kedai Kopi";"Lubuk Bedorong";"CF3X+PXH, Lubuk Bedorong, Kec. Limun, Kabupaten Sarolangun, Jambi 37382";"Lubuk Bedorong, Kec. Limun, Kabupaten Sarolangun";"SUMATERA SELATAN";"37382";"Indonesia";"";"";"";"-2.5956826";"102.4999929";"https://maps.google.com/?cid=0x0:0x9957c1100463c8e7";""
"cafe";"Kedai Kopi";"Kedaifood97";"Ps. Muara Aman, Kec. Lebong Utara, Kabupaten Lebong, Bengkulu 39264";"Kec. Lebong Utara, Kabupaten Lebong";"SUMATERA SELATAN";"39264";"Indonesia";" 081273970097";"";"";"-3.1170746";"102.1987163";"https://maps.google.com/?cid=0x0:0xb6f2b608518562ef";""
"cafe";"Kedai Teh";"Warmindo Lebong";"Jl. Merdeka, Ps. Muara Aman, Kec. Lebong Utara, Kabupaten Lebong, Bengkulu 39264";"Ps. Muara Aman, Kec. Lebong Utara, Kabupaten Lebong";"SUMATERA SELATAN";"39264";"Indonesia";" 085268691511";"";"";"-3.1185656";"102.1991774";"https://maps.google.com/?cid=0x0:0x2cd27fc76a8c0683";""
"cafe";"Kedai Kopi";"Bang kumis jual beli batu ilalang dan saung lulu";"3MV9+W27, RT.08/RW.02, Rantau Telang, Kec. Karang Jaya, Kab. Musi Rawas Utara, Sumatera Selatan";"Kab. Musi Rawas Utara, Sumatera Selatan";"SUMATERA SELATAN";"";"Indonesia";"";"";"";"-2.9052045";"102.6675575";"https://maps.google.com/?cid=0x0:0xd1ffa6430f09d027";""
"cafe";"Indonesia";"Wisata Kuliner Kampung Kulon";"RWPW+C54, Mataram, Kec. Tugumulyo, Kabupaten Musi Rawas, Sumatera Selatan 31626";"Mataram, Kec. Tugumulyo, Kabupaten Musi Rawas";"SUMATERA SELATAN";"31626";"Indonesia";" 085267607128";"";"";"-3.1639926";"102.9454421";"https://maps.google.com/?cid=0x0:0xb64b7f8f84e0c295";""
"cafe";"Grosir Kopi";"Marketing Tebo Lai Coffee Lebong";"R7MH+WWP, Pelabuhan Talang Liak, Kec. Bingin Kuning, Kabupaten Lebong, Bengkulu 39263";"Pelabuhan Talang Liak, Kec. Bingin Kuning, Kabupaten Lebong";"SUMATERA SELATAN";"39263";"Indonesia";" 083170903534";"";"";"-3.1648317";"102.2796967";"https://maps.google.com/?cid=0x0:0xa58426028c72301b";""
"cafe";"Kedai Kopi";"Rumah mak niah";"Dusun 1 mulya sari No.rt01 RW 01, Bukit Langkap, Kec. Karang Jaya, Kab. Musi Rawas Utara, Sumatera Selatan 30771";"Bukit Langkap, Kec. Karang Jaya, Kab. Musi Rawas Utara";"SUMATERA SELATAN";"30771";"Indonesia";"";"";"";"-2.9872055";"102.7537372";"https://maps.google.com/?cid=0x0:0x2e1b7397c58bccba";""
"cafe";"Restoran";"RM.wong kito";"Jl. Lintas Utama Sumatera No.KM. 53, Karang Jaya, Kec. Karang Jaya, Kab. Musi Rawas Utara, Sumatera Selatan 31654";"Karang Jaya, Kec. Karang Jaya, Kab. Musi Rawas Utara";"SUMATERA SELATAN";"31654";"Indonesia";" 081368797741";"";"";"-2.8761595";"102.7839717";"https://maps.google.com/?cid=0x0:0xaa8403b77bfebfec";""
"cafe";"Hidangan Laut";"F Trikoyo Tugumulyo";"Jl. Jend. Sudirman No.16 Blok F No, Trikoyo, Kec. Tugumulyo, Kabupaten Musi Rawas, Sumatera Selatan 31626";"Trikoyo, Kec. Tugumulyo, Kabupaten Musi Rawas";"SUMATERA SELATAN";"31626";"Indonesia";" 081272322704";"";"";"-3.1874812";"102.9474221";"https://maps.google.com/?cid=0x0:0xb347ed8711da8d05";""
"cafe";"Restoran";"RESTO AROMA MERASI";"Jl. Jend. Sudirman, Widodo, Kec. Tugumulyo, Kabupaten Musi Rawas, Sumatera Selatan 31662";"Widodo, Kec. Tugumulyo, Kabupaten Musi Rawas";"SUMATERA SELATAN";"31662";"Indonesia";" 082279313369";"";"";"-3.211505";"102.9445394";"https://maps.google.com/?cid=0x0:0x8d4e868aa4f87727";""
"cafe";"Kafe";"Kopi Ulu";"Jl. Ki Ratu Penghulu No.45, Karangsari, Kec. Baturaja Timur, Kabupaten Ogan Komering Ulu, Sumatera Selatan 32113";"Karangsari, Kec. Baturaja Timur, Kabupaten Ogan Komering Ulu";"SUMATERA SELATAN";"32113";"Indonesia";" 081366202488";"";"";"-4.1412742";"104.1759631";"https://maps.google.com/?cid=0x0:0x553b664b27215d62";""
"cafe";"cafe";"Cafe 65";"Amen, Kec. Amen, Kabupaten Lebong, Bengkulu";"Kabupaten Lebong, Bengkulu";"SUMATERA SELATAN";"";"Indonesia";"";"";"";"-3.1204085";"102.2043641";"https://maps.google.com/?cid=0x0:0xf2ee79d5daca0562";""
"cafe";"Restoran";"Saung Aqilah";"V6M4+CV7, Unnamed Road, Sukau Rajo, Kec. Amen, Kabupaten Lebong, Bengkulu 39264";"Unnamed Road, Sukau Rajo, Kec. Amen, Kabupaten Lebong";"SUMATERA SELATAN";"39264";"Indonesia";" 082373455100";"";"";"-3.1164528";"102.2071852";"https://maps.google.com/?cid=0x0:0xa2096d4319eef319";""
"cafe";"cafe";"Nasi goreng anak rantau";"2722+225, Jalan Bukit Barisan, Tengkerang Timur, Ulu Rawas, Kota Pekanbaru, Riau";"Kota Pekanbaru, Riau";"SUMATERA SELATAN";"";"Indonesia";"";"";"";"-3";"102.25";"https://maps.google.com/?cid=0x0:0x4b800001e117aa41";""
"cafe";"Kedai Kopi";"warung mama ayu";"V5QV+2V9, Gg. Aliyah, Kp. Jawa, Kec. Lebong Utara, Kabupaten Lebong, Bengkulu 39264";"Gg. Aliyah, Kp. Jawa, Kec. Lebong Utara, Kabupaten Lebong";"SUMATERA SELATAN";"39264";"Indonesia";" 082186888242";"";"";"-3.1124506";"102.1947234";"https://maps.google.com/?cid=0x0:0x338361777f9a8024";""
