Category;Real Category;Business Name;Address;City;State;Postal Code;Country;Phone;Email;Website;Latitude;Longitude;Map Link;Details Link
"building materials";"building materials";"Sumatera Selatan 31658";"Karang Dapo, Kabupaten Musi Rawas, Sumatera Selatan";"Kabupaten Musi Rawas, Sumatera Selatan";"SUMATERA SELATAN";"";"Indonesia";"";"";"";"-2.7453255";"103.035694";"https://maps.google.com/?cid=0x0:0xe72620e1eb13dcdf";""
"building materials";"Toko Bahan Bangunan";"LAMBANGSARI GRUP";"54VC+8CX, Marga Baru, Kec. Muara Lakitan, Kabupaten Musi Rawas, Sumatera Selatan 31657";"Marga Baru, Kec. Muara Lakitan, Kabupaten Musi Rawas";"SUMATERA SELATAN";"31657";"Indonesia";"";"";"";"-2.8066284";"103.1211114";"https://maps.google.com/?cid=0x0:0x7d2b7cc998bde861";""
"building materials";"Toko Bahan Bangunan";"TB. Berkah Jaya";"72X8+956, Jalan, Biaro Baru, Bingin Teluk, Kab. Musi Rawas Utara, Sumatera Selatan 31658";"Jalan, Biaro Baru, Bingin Teluk, Kab. Musi Rawas Utara";"SUMATERA SELATAN";"31658";"Indonesia";" 081271848191";"";"";"-2.701598";"103.015396";"https://maps.google.com/?cid=0x0:0x5a863eeb25bcfdb8";""
"building materials";"Toko Perlengkapan Rumah";"Depo Material Bangunan AA Lubuk Kemang";"9R2F+542, Lubuk Kemang, Kec. Rawas Ulu, Kab. Musi Rawas Utara, Sumatera Selatan 31654";"Lubuk Kemang, Kec. Rawas Ulu, Kab. Musi Rawas Utara";"SUMATERA SELATAN";"31654";"Indonesia";" 081221998585";"";"";"-2.6496124";"102.8227621";"https://maps.google.com/?cid=0x0:0x1c404e7cec72b7d3";""
"building materials";"Kantor Perusahaan";"Batu Bata Percetakan";"4XVW+VPW, Karang Dapo I, Karang Dapo, Kab. Musi Rawas Utara, Sumatera Selatan 31657";"Karang Dapo I, Karang Dapo, Kab. Musi Rawas Utara";"SUMATERA SELATAN";"31657";"Indonesia";" 082177393266";"";"";"-2.855263";"102.996826";"https://maps.google.com/?cid=0x0:0x4c72715fe759e79";""
"building materials";"Toko Bahan Bangunan";"Toko Istana Bangunan";"94V7+9G7, Unnamed Road, Beringin Makmur II, Kec. Rawas Ilir, Kab. Musi Rawas Utara, Sumatera Selatan 31655";"Unnamed Road, Beringin Makmur II, Kec. Rawas Ilir, Kab. Musi Rawas Utara";"SUMATERA SELATAN";"31655";"Indonesia";"";"";"";"-2.6065788";"103.1137877";"https://maps.google.com/?cid=0x0:0xe87952670048eed5";""
"building materials";"Toko Bahan Bangunan";"TOKO BANGUNAN TIWA";"Jalan Nangka Belanda, Dusun V, Lawang Agung, Kec. Rupit, Kab. Musi Rawas Utara, Sumatera Selatan 31654";"Dusun V, Lawang Agung, Kec. Rupit, Kab. Musi Rawas Utara";"SUMATERA SELATAN";"31654";"Indonesia";" 081274406225";"";"";"-2.7140813";"102.9116705";"https://maps.google.com/?cid=0x0:0xf297bdc22ec84b7d";""
"building materials";"Toko Bahan Bangunan";"Toko Bangunan Soember Redjeki";"Lawang Agung, Kec. Rupit, Kab. Musi Rawas Utara, Sumatera Selatan";"Kab. Musi Rawas Utara, Sumatera Selatan";"SUMATERA SELATAN";"";"Indonesia";"";"";"";"-2.7122776";"102.9109964";"https://maps.google.com/?cid=0x0:0x9247b6346ab8484";""
"building materials";"Toko Bahan Bangunan";"Toko bangunan Amira jaya";"83MC+69H, Mandi Angin, Kec. Rawas Ilir, Kab. Musi Rawas Utara, Sumatera Selatan 31658";"Mandi Angin, Kec. Rawas Ilir, Kab. Musi Rawas Utara";"SUMATERA SELATAN";"31658";"Indonesia";" 082180069268";"";"";"-2.6667497";"103.0704008";"https://maps.google.com/?cid=0x0:0x15cc47edcc180824";""
"building materials";"Toko Bahan Bangunan";"Toko Bangunan Darman LD";"Lawang Agung, Kec. Rupit, Kab. Musi Rawas Utara, Sumatera Selatan 31654";"Kec. Rupit, Kab. Musi Rawas Utara";"SUMATERA SELATAN";"31654";"Indonesia";"";"";"";"-2.7155175";"102.910601";"https://maps.google.com/?cid=0x0:0x21a83d122e8115ad";""
"building materials";"Toko Bahan Bangunan";"TOKO KONTRUKSI";"7WG4+PWG, Muara Rupit, Kec. Rupit, Kab. Musi Rawas Utara, Sumatera Selatan 31654";"Muara Rupit, Kec. Rupit, Kab. Musi Rawas Utara";"SUMATERA SELATAN";"31654";"Indonesia";" 081298797827";"";"";"-2.7231911";"102.907313";"https://maps.google.com/?cid=0x0:0x250dfbcefde1508e";""
"building materials";"Toko Bahan Bangunan";"Tb sampurna";"94P6+VV7, Beringin Makmur II, Kec. Rawas Ilir, Kabupaten Musi Rawas, Sumatera Selatan 31655";"Beringin Makmur II, Kec. Rawas Ilir, Kabupaten Musi Rawas";"SUMATERA SELATAN";"31655";"Indonesia";"";"";"";"-2.6128251";"103.1121568";"https://maps.google.com/?cid=0x0:0x5817759f27e1d4aa";""
"building materials";"Toko Batu";"BATU ALAM HIAS, BONGKAHAN EMAS, BIJI BESI, GALENA, BATU BARA KOMPUTER ATK CV. JMC GROUPS";"samping BNI, Jl. Lintas Utama Sumatera No.KM 01, Lawang Agung, Kec. Rupit, Kabupaten Musi Rawas, Sumatera Selatan 31654";"Jl. Lintas Utama Sumatera No.KM 01, Lawang Agung, Kec. Rupit, Kabupaten Musi Rawas";"SUMATERA SELATAN";"31654";"Indonesia";" 08117188899";"";"";"-2.7110636";"102.9108914";"https://maps.google.com/?cid=0x0:0x279bfbe950df9fb9";""
"building materials";"Toko Bahan Bangunan";"Toko Bangunan Saudi";"3XQQ+3PW, Unnamed Road, Jajaran Baru II, Kec. Megang Sakti, Kabupaten Musi Rawas, Sumatera Selatan 31657";"Unnamed Road, Jajaran Baru II, Kec. Megang Sakti, Kabupaten Musi Rawas";"SUMATERA SELATAN";"31657";"Indonesia";"";"";"";"-2.9122683";"102.9893403";"https://maps.google.com/?cid=0x0:0x45afd3572fc1e885";""
"building materials";"building materials";"Toko Sam Material";"Dusun II, 31672, Karang Dapo I, Karang Dapo, Kabupaten Musi Rawas, Sumatera Selatan 31657";"31672, Karang Dapo I, Karang Dapo, Kabupaten Musi Rawas";"SUMATERA SELATAN";"31657";"Indonesia";" 082182345771";"";"";"-2.855263";"102.996826";"https://maps.google.com/?cid=0x0:0x72dbf43a8ab80e4";""
"building materials";"building materials";"Toko salam";"62VP+QMR, Karang Dapo II, Karang Dapo, Kabupaten Musi Rawas, Sumatera Selatan 31658";"Karang Dapo II, Karang Dapo, Kabupaten Musi Rawas";"SUMATERA SELATAN";"31658";"Indonesia";"";"";"";"-2.7555068";"103.0366325";"https://maps.google.com/?cid=0x0:0xc1968df3f117a028";""
"building materials";"building materials";"Karang Dapo";"Kab. Musi Rawas Utara, Sumatera Selatan";"Kab. Musi Rawas Utara, Sumatera Selatan";"SUMATERA SELATAN";"";"Indonesia";"";"";"";"-2.7453255";"103.035694";"https://maps.google.com/?cid=0x0:0x4dbc37f5ff4fa4a5";""
"building materials";"Toko Perlengkapan Rumah";"ADIGUNA TILE by permata group";"7W94+577, Muara Rupit, Kec. Rupit, Kabupaten Musi Rawas, Sumatera Selatan 31654";"Muara Rupit, Kec. Rupit, Kabupaten Musi Rawas";"SUMATERA SELATAN";"31654";"Indonesia";" 081367125790";"";"";"-2.7320805";"102.905676";"https://maps.google.com/?cid=0x0:0x14d6bb6c87ba26de";""
"building materials";"Toko Bahan Bangunan";"TB. CAHAYA SUKSES BAJA";"Jl. Lintas Utama Sumatera, Embacang Baru, Kec. Karang Jaya, Kab. Musi Rawas Utara, Sumatera Selatan 31654";"Embacang Baru, Kec. Karang Jaya, Kab. Musi Rawas Utara";"SUMATERA SELATAN";"31654";"Indonesia";" 082181323699";"";"";"-2.8469847";"102.8154202";"https://maps.google.com/?cid=0x0:0xac59cfb10448f0e2";""
"building materials";"Toko";"Toko asyer";"5R9M+WM9, Tj. Beringin, Kec. Rupit, Kab. Musi Rawas Utara, Sumatera Selatan 31654";"Tj. Beringin, Kec. Rupit, Kab. Musi Rawas Utara";"SUMATERA SELATAN";"31654";"Indonesia";"";"";"";"-2.83022";"102.8342284";"https://maps.google.com/?cid=0x0:0x1e79f7ce7fab34e7";""
"building materials";"Toko Bahan Bangunan";"Toko Bangunan Bpk Belalang";"22R5+8X, Jajaran Baru II, Kec. Megang Sakti, Kabupaten Musi Rawas, Sumatera Selatan";"Kabupaten Musi Rawas, Sumatera Selatan";"SUMATERA SELATAN";"";"Indonesia";"";"";"";"-2.9592293";"103.0098865";"https://maps.google.com/?cid=0x0:0x70d254ea7f7024a7";""
"building materials";"building materials";"Sumatera Selatan 31654";"Kabupaten Musi Rawas, Sumatera Selatan";"Kabupaten Musi Rawas, Sumatera Selatan";"SUMATERA SELATAN";"";"Indonesia";"";"";"";"-2.8261883";"102.7594847";"https://maps.google.com/?cid=0x0:0xc4e1d96ef2cee976";""
"building materials";"Toko Bahan Bangunan";"Toko Taufik bangunan";"Jl. Lintas Utama Sumatera No.Utara, Karang Jaya, Kec. Karang Jaya, Kabupaten Musi Rawas, Sumatera Selatan 31654";"Karang Jaya, Kec. Karang Jaya, Kabupaten Musi Rawas";"SUMATERA SELATAN";"31654";"Indonesia";" 082280089850";"";"";"-2.8726338";"102.7879808";"https://maps.google.com/?cid=0x0:0x8a188eb746296a00";""
"building materials";"Toko Bahan Bangunan";"TOKO BANGUNAN KITO";"Terusan, Kec. Karang Jaya, Kab. Musi Rawas Utara, Sumatera Selatan";"Kab. Musi Rawas Utara, Sumatera Selatan";"SUMATERA SELATAN";"";"Indonesia";" 082175641331";"";"";"-2.8938248";"102.7559921";"https://maps.google.com/?cid=0x0:0x2ffcc30b146d310e";""
"building materials";"Toko Perlengkapan Rumah";"Depo Material Bangunan AA Lubuk Kemang";"9R2F+542, Lubuk Kemang, Kec. Rawas Ulu, Kab. Musi Rawas Utara, Sumatera Selatan 31654";"Lubuk Kemang, Kec. Rawas Ulu, Kab. Musi Rawas Utara";"SUMATERA SELATAN";"31654";"Indonesia";" 081221998585";"";"";"-2.6496124";"102.8227621";"https://maps.google.com/?cid=0x0:0x1c404e7cec72b7d3";""
"building materials";"Lembaga Agama";"Batu akik";"Karang Jaya, Kec. Karang Jaya, Kab. Musi Rawas Utara, Sumatera Selatan 31654";"Kec. Karang Jaya, Kab. Musi Rawas Utara";"SUMATERA SELATAN";"31654";"Indonesia";" 08576905365";"";"";"-2.8672684";"102.783535";"https://maps.google.com/?cid=0x0:0x81ffde36e2be7fe3";""
"building materials";"Toko Bahan Bangunan";"TB. CAHAYA SUKSES BAJA";"Jl. Lintas Utama Sumatera, Embacang Baru, Kec. Karang Jaya, Kab. Musi Rawas Utara, Sumatera Selatan 31654";"Embacang Baru, Kec. Karang Jaya, Kab. Musi Rawas Utara";"SUMATERA SELATAN";"31654";"Indonesia";" 082181323699";"";"";"-2.8469847";"102.8154202";"https://maps.google.com/?cid=0x0:0xac59cfb10448f0e2";""
"building materials";"Toko Bahan Bangunan";"TOKO BANGUNAN TIWA";"Jalan Nangka Belanda, Dusun V, Lawang Agung, Kec. Rupit, Kab. Musi Rawas Utara, Sumatera Selatan 31654";"Dusun V, Lawang Agung, Kec. Rupit, Kab. Musi Rawas Utara";"SUMATERA SELATAN";"31654";"Indonesia";" 081274406225";"";"";"-2.7140813";"102.9116705";"https://maps.google.com/?cid=0x0:0xf297bdc22ec84b7d";""
"building materials";"Toko Bahan Bangunan";"TOKO KONTRUKSI";"7WG4+PWG, Muara Rupit, Kec. Rupit, Kab. Musi Rawas Utara, Sumatera Selatan 31654";"Muara Rupit, Kec. Rupit, Kab. Musi Rawas Utara";"SUMATERA SELATAN";"31654";"Indonesia";" 081298797827";"";"";"-2.7231911";"102.907313";"https://maps.google.com/?cid=0x0:0x250dfbcefde1508e";""
"building materials";"Toko Bahan Bangunan";"PT. Musi Rawas Jayatama";"Jl. Lintas Tengah Sumatera No.Km. 46, Bukit Ulu, Kec. Karang Jaya, Kab. Musi Rawas Utara, Sumatera Selatan 30771";"Bukit Ulu, Kec. Karang Jaya, Kab. Musi Rawas Utara";"SUMATERA SELATAN";"30771";"Indonesia";" 0714323209";"";"";"-3.006127";"102.7190355";"https://maps.google.com/?cid=0x0:0x22adb0720cbe3203";""
"building materials";"Toko Bahan Bangunan";"Toko Bangunan Darman LD";"Lawang Agung, Kec. Rupit, Kab. Musi Rawas Utara, Sumatera Selatan 31654";"Kec. Rupit, Kab. Musi Rawas Utara";"SUMATERA SELATAN";"31654";"Indonesia";"";"";"";"-2.7155175";"102.910601";"https://maps.google.com/?cid=0x0:0x21a83d122e8115ad";""
"building materials";"Toko Bahan Bangunan";"Toko Bangunan Soember Redjeki";"Lawang Agung, Kec. Rupit, Kab. Musi Rawas Utara, Sumatera Selatan";"Kab. Musi Rawas Utara, Sumatera Selatan";"SUMATERA SELATAN";"";"Indonesia";"";"";"";"-2.7122776";"102.9109964";"https://maps.google.com/?cid=0x0:0x9247b6346ab8484";""
"building materials";"Toko grosir";"Toko bangunan sinar jaya";"Simpang Nibung, Kec. Singkut, Kab. Musi Rawas Utara, Sumatera Selatan 31667";"Kec. Singkut, Kab. Musi Rawas Utara";"SUMATERA SELATAN";"31667";"Indonesia";" 085279233339";"";"";"-2.5635793";"102.7289933";"https://maps.google.com/?cid=0x0:0xfe6b68ed8726a0";""
"building materials";"Toko Batu";"BATU ALAM HIAS, BONGKAHAN EMAS, BIJI BESI, GALENA, BATU BARA KOMPUTER ATK CV. JMC GROUPS";"samping BNI, Jl. Lintas Utama Sumatera No.KM 01, Lawang Agung, Kec. Rupit, Kabupaten Musi Rawas, Sumatera Selatan 31654";"Jl. Lintas Utama Sumatera No.KM 01, Lawang Agung, Kec. Rupit, Kabupaten Musi Rawas";"SUMATERA SELATAN";"31654";"Indonesia";" 08117188899";"";"";"-2.7110636";"102.9108914";"https://maps.google.com/?cid=0x0:0x279bfbe950df9fb9";""
"building materials";"Toko Bahan Bangunan";"Toko bangunan adi jaya";"2QPG+F2J, Jl. Lintas Utama Sumatera, Rantau Jaya, Kec. Karang Jaya, Kab. Musi Rawas Utara, Sumatera Selatan 30771";"Jl. Lintas Utama Sumatera, Rantau Jaya, Kec. Karang Jaya, Kab. Musi Rawas Utara";"SUMATERA SELATAN";"30771";"Indonesia";"";"";"";"-2.9637944";"102.7750266";"https://maps.google.com/?cid=0x0:0x7d2cd8cee0a4df2c";""
"building materials";"Toko Bahan Bangunan";"TB. Berkah Jaya";"72X8+956, Jalan, Biaro Baru, Bingin Teluk, Kab. Musi Rawas Utara, Sumatera Selatan 31658";"Jalan, Biaro Baru, Bingin Teluk, Kab. Musi Rawas Utara";"SUMATERA SELATAN";"31658";"Indonesia";" 081271848191";"";"";"-2.701598";"103.015396";"https://maps.google.com/?cid=0x0:0x5a863eeb25bcfdb8";""
"building materials";"Toko";"Toko asyer";"5R9M+WM9, Tj. Beringin, Kec. Rupit, Kab. Musi Rawas Utara, Sumatera Selatan 31654";"Tj. Beringin, Kec. Rupit, Kab. Musi Rawas Utara";"SUMATERA SELATAN";"31654";"Indonesia";"";"";"";"-2.83022";"102.8342284";"https://maps.google.com/?cid=0x0:0x1e79f7ce7fab34e7";""
"building materials";"Toko Bahan Bangunan";"Alumunium TIDAK AMANAH";"9RC4+3XM, Lesung Batu Muda, Kec. Rawas Ulu, Kab. Musi Rawas Utara, Sumatera Selatan 31654";"Lesung Batu Muda, Kec. Rawas Ulu, Kab. Musi Rawas Utara";"SUMATERA SELATAN";"31654";"Indonesia";"";"";"";"-2.6297757";"102.8074069";"https://maps.google.com/?cid=0x0:0x6677102cae3aa026";""
"building materials";"Toko Bahan Bangunan";"Tb. Permata Jaya";"FPX7+334, Bukit Tigo, Kec. Singkut, Kabupaten Sarolangun, Jambi 37482";"Bukit Tigo, Kec. Singkut, Kabupaten Sarolangun";"SUMATERA SELATAN";"37482";"Indonesia";"";"";"";"-2.5023512";"102.7127084";"https://maps.google.com/?cid=0x0:0x98edae4f009f81b7";""
"building materials";"Toko Perlengkapan Rumah";"ADIGUNA TILE by permata group";"7W94+577, Muara Rupit, Kec. Rupit, Kabupaten Musi Rawas, Sumatera Selatan 31654";"Muara Rupit, Kec. Rupit, Kabupaten Musi Rawas";"SUMATERA SELATAN";"31654";"Indonesia";" 081367125790";"";"";"-2.7320805";"102.905676";"https://maps.google.com/?cid=0x0:0x14d6bb6c87ba26de";""
"building materials";"Toko";"toko bahan bangunan karya jaya";"Sukajaya, kecamatan sumberharta, Kabupaten Musi Rawas, Sumatera Selatan 31653";"kecamatan sumberharta, Kabupaten Musi Rawas";"SUMATERA SELATAN";"31653";"Indonesia";" 083140941658";"";"";"-3.0520733";"102.9599267";"https://maps.google.com/?cid=0x0:0x7f88f95d607b7ee8";""
"building materials";"Toko Bahan Bangunan";"TB KARANG JAYA ( Toko Material Bahan Bangunan )";"Jl. Masjid Hidayatullah No.1, RT.001/RW.001, Jaka Setia, Kec. Bekasi Sel., Kota Bks, Jawa Barat 17148";"RT.001/RW.001, Jaka Setia, Kec. Bekasi Sel., Kota Bks";"SUMATERA SELATAN";"17148";"Indonesia";" 0218216466";"";"";"-6.2739625";"106.9779906";"https://maps.google.com/?cid=0x0:0x4398b1712c11c279";""
"building materials";"Toko Bahan Bangunan";"TB KARANG JAYA";"Jl. Pendidikan No.6, Mangunjaya, Kec. Tambun Sel., Kabupaten Bekasi, Jawa Barat 17510";"Mangunjaya, Kec. Tambun Sel., Kabupaten Bekasi";"SUMATERA SELATAN";"17510";"Indonesia";" 02188332310";"";"";"-6.2439569";"107.0569062";"https://maps.google.com/?cid=0x0:0x2cbd21495af8aae1";""
"building materials";"Toko Bahan Bangunan";"Toko Taufik bangunan";"Jl. Lintas Utama Sumatera No.Utara, Karang Jaya, Kec. Karang Jaya, Kabupaten Musi Rawas, Sumatera Selatan 31654";"Karang Jaya, Kec. Karang Jaya, Kabupaten Musi Rawas";"SUMATERA SELATAN";"31654";"Indonesia";" 082280089850";"";"";"-2.8726338";"102.7879808";"https://maps.google.com/?cid=0x0:0x8a188eb746296a00";""
"building materials";"Toko Bahan Bangunan";"TOKO BANGUNAN KITO";"Terusan, Kec. Karang Jaya, Kab. Musi Rawas Utara, Sumatera Selatan";"Kab. Musi Rawas Utara, Sumatera Selatan";"SUMATERA SELATAN";"";"Indonesia";" 082175641331";"";"";"-2.8938248";"102.7559921";"https://maps.google.com/?cid=0x0:0x2ffcc30b146d310e";""
"building materials";"Toko Bahan Bangunan";"LAMBANGSARI GRUP";"54VC+8CX, Marga Baru, Kec. Muara Lakitan, Kabupaten Musi Rawas, Sumatera Selatan 31657";"Marga Baru, Kec. Muara Lakitan, Kabupaten Musi Rawas";"SUMATERA SELATAN";"31657";"Indonesia";"";"";"";"-2.8066284";"103.1211114";"https://maps.google.com/?cid=0x0:0x7d2b7cc998bde861";""
"building materials";"Toko Bahan Bangunan";"PT. Musi Rawas Jayatama";"Jl. Lintas Tengah Sumatera No.Km. 46, Bukit Ulu, Kec. Karang Jaya, Kab. Musi Rawas Utara, Sumatera Selatan 30771";"Bukit Ulu, Kec. Karang Jaya, Kab. Musi Rawas Utara";"SUMATERA SELATAN";"30771";"Indonesia";" 0714323209";"";"";"-3.006127";"102.7190355";"https://maps.google.com/?cid=0x0:0x22adb0720cbe3203";""
"building materials";"Toko Bahan Bangunan";"Toko Karang Jaya (Agus Depot)";"65FG+CX3, Jl. Raya Prabumulih - Baturaja, Karang Agung, Kec. Lubai, Kabupaten Muara Enim, Sumatera Selatan 31173";"Jl. Raya Prabumulih - Baturaja, Karang Agung, Kec. Lubai, Kabupaten Muara Enim";"SUMATERA SELATAN";"31173";"Indonesia";"";"";"";"-3.7764857";"104.1774303";"https://maps.google.com/?cid=0x0:0x73d5da58516fe7c7";""
"building materials";"Toko Bahan Bangunan";"DIMAS BANGUNAN";"Tj. Agung, Kec. Karang Jaya, Kab. Musi Rawas Utara, Sumatera Selatan 31654";"Kec. Karang Jaya, Kab. Musi Rawas Utara";"SUMATERA SELATAN";"31654";"Indonesia";" 085213814175";"";"";"-2.9104387";"102.6520181";"https://maps.google.com/?cid=0x0:0x976430cfa8263f5e";""
"building materials";"Toko";"TOKO BANGUNAN "SUMBER ANUGERAH"";"RWVJ+MH4, Jl. Bukit Botak, Suko Rejo, Kec. Tugumulyo, Kabupaten Musi Rawas, Sumatera Selatan 31662";"Jl. Bukit Botak, Suko Rejo, Kec. Tugumulyo, Kabupaten Musi Rawas";"SUMATERA SELATAN";"31662";"Indonesia";" 082280599222";"";"";"-3.1558586";"102.9314567";"https://maps.google.com/?cid=0x0:0xe3638fd9fd7a5b80";""
"building materials";"Lembaga Agama";"Batu akik";"Karang Jaya, Kec. Karang Jaya, Kab. Musi Rawas Utara, Sumatera Selatan 31654";"Kec. Karang Jaya, Kab. Musi Rawas Utara";"SUMATERA SELATAN";"31654";"Indonesia";" 08576905365";"";"";"-2.8672684";"102.783535";"https://maps.google.com/?cid=0x0:0x81ffde36e2be7fe3";""
"building materials";"Toko Bahan Bangunan";"IDEAL GRUP";"Jl. Poros sp3 marga baru blok A2 KAB, Marga Baru, Kec. Muara Lakitan, Kabupaten Musi Rawas, Sumatera Selatan 31666";"Marga Baru, Kec. Muara Lakitan, Kabupaten Musi Rawas";"SUMATERA SELATAN";"31666";"Indonesia";"";"";"";"-2.8062524";"103.1235832";"https://maps.google.com/?cid=0x0:0x96101a4c6493338a";""
"building materials";"Toko";"toko bahan bangunan karya jaya";"Sukajaya, kecamatan sumberharta, Kabupaten Musi Rawas, Sumatera Selatan 31653";"kecamatan sumberharta, Kabupaten Musi Rawas";"SUMATERA SELATAN";"31653";"Indonesia";" 083140941658";"";"";"-3.0520733";"102.9599267";"https://maps.google.com/?cid=0x0:0x7f88f95d607b7ee8";""
"building materials";"Toko Bahan Bangunan";"TB. CAHAYA SUKSES BAJA";"Jl. Lintas Utama Sumatera, Embacang Baru, Kec. Karang Jaya, Kab. Musi Rawas Utara, Sumatera Selatan 31654";"Embacang Baru, Kec. Karang Jaya, Kab. Musi Rawas Utara";"SUMATERA SELATAN";"31654";"Indonesia";" 082181323699";"";"";"-2.8469847";"102.8154202";"https://maps.google.com/?cid=0x0:0xac59cfb10448f0e2";""
"building materials";"Toko Bahan Bangunan";"TB.HIDAKA";"Siti Harjo, Kec. Tugumulyo, Kabupaten Musi Rawas, Sumatera Selatan 31662";"Kec. Tugumulyo, Kabupaten Musi Rawas";"SUMATERA SELATAN";"31662";"Indonesia";" 085321752016";"";"";"-3.1457799";"102.9518601";"https://maps.google.com/?cid=0x0:0x7f96945f934052c3";""
"building materials";"Toko Perlengkapan Rumah";"Depo Material Bangunan AA Lubuk Kemang";"9R2F+542, Lubuk Kemang, Kec. Rawas Ulu, Kab. Musi Rawas Utara, Sumatera Selatan 31654";"Lubuk Kemang, Kec. Rawas Ulu, Kab. Musi Rawas Utara";"SUMATERA SELATAN";"31654";"Indonesia";" 081221998585";"";"";"-2.6496124";"102.8227621";"https://maps.google.com/?cid=0x0:0x1c404e7cec72b7d3";""
"building materials";"Toko Perlengkapan Rumah";"JUAL BATA BESAR KOSGORO (DARTO)";"masuk dari sp.kosgoro lebih kurang 225 meter, Kosgoro, Suku Tengah Lakitan Ulu, Kabupaten Musi Rawas, Sumatera Selatan 78234";"Kosgoro, Suku Tengah Lakitan Ulu, Kabupaten Musi Rawas";"SUMATERA SELATAN";"78234";"Indonesia";" 085369114477";"";"";"-3.0146476";"102.8116122";"https://maps.google.com/?cid=0x0:0x12d9419e856007f";""
"building materials";"Toko Bahan Bangunan";"TOKO BANGUNAN TIWA";"Jalan Nangka Belanda, Dusun V, Lawang Agung, Kec. Rupit, Kab. Musi Rawas Utara, Sumatera Selatan 31654";"Dusun V, Lawang Agung, Kec. Rupit, Kab. Musi Rawas Utara";"SUMATERA SELATAN";"31654";"Indonesia";" 081274406225";"";"";"-2.7140813";"102.9116705";"https://maps.google.com/?cid=0x0:0xf297bdc22ec84b7d";""
"building materials";"Toko Bahan Bangunan";"Toko bangunan adi jaya";"2QPG+F2J, Jl. Lintas Utama Sumatera, Rantau Jaya, Kec. Karang Jaya, Kab. Musi Rawas Utara, Sumatera Selatan 30771";"Jl. Lintas Utama Sumatera, Rantau Jaya, Kec. Karang Jaya, Kab. Musi Rawas Utara";"SUMATERA SELATAN";"30771";"Indonesia";"";"";"";"-2.9637944";"102.7750266";"https://maps.google.com/?cid=0x0:0x7d2cd8cee0a4df2c";""
"building materials";"Toko grosir";"Toko bangunan sinar jaya";"Simpang Nibung, Kec. Singkut, Kab. Musi Rawas Utara, Sumatera Selatan 31667";"Kec. Singkut, Kab. Musi Rawas Utara";"SUMATERA SELATAN";"31667";"Indonesia";" 085279233339";"";"";"-2.5635793";"102.7289933";"https://maps.google.com/?cid=0x0:0xfe6b68ed8726a0";""
"building materials";"Toko";"Toko Bangunan Prayoga Jaya";"Jln lintas pali, Bangun Jaya, Kec. Bulang Tengah Suku Ulu, Kabupaten Musi Rawas, Sumatera Selatan 31652";"Bangun Jaya, Kec. Bulang Tengah Suku Ulu, Kabupaten Musi Rawas";"SUMATERA SELATAN";"31652";"Indonesia";" 082371746473";"";"";"-3.3509023";"103.3718704";"https://maps.google.com/?cid=0x0:0x9d6d753a3dd6995f";""
"building materials";"Toko Bahan Bangunan";"TB.Berkah Mandiri";"Kertosari, Kec. Purwodadi, Kabupaten Musi Rawas, Sumatera Selatan";"Kabupaten Musi Rawas, Sumatera Selatan";"SUMATERA SELATAN";"";"Indonesia";" 085266017242";"";"";"-3.1205688";"102.9541777";"https://maps.google.com/?cid=0x0:0x37a6398104eeeda6";""
"building materials";"Toko Bahan Bangunan";"TOKO KONTRUKSI";"7WG4+PWG, Muara Rupit, Kec. Rupit, Kab. Musi Rawas Utara, Sumatera Selatan 31654";"Muara Rupit, Kec. Rupit, Kab. Musi Rawas Utara";"SUMATERA SELATAN";"31654";"Indonesia";" 081298797827";"";"";"-2.7231911";"102.907313";"https://maps.google.com/?cid=0x0:0x250dfbcefde1508e";""
"building materials";"Toko Perlengkapan Rumah";"TB ARIES Sukamana";"XVJ5+9RV, Sukamana, Suku Tengah Lakitan Ulu, Kabupaten Musi Rawas, Sumatera Selatan 30771";"Sukamana, Suku Tengah Lakitan Ulu, Kabupaten Musi Rawas";"SUMATERA SELATAN";"30771";"Indonesia";"";"";"";"-3.0190101";"102.8595567";"https://maps.google.com/?cid=0x0:0x5011bdd23a67ef81";""
"building materials";"Toko Batu";"BATU ALAM HIAS, BONGKAHAN EMAS, BIJI BESI, GALENA, BATU BARA KOMPUTER ATK CV. JMC GROUPS";"samping BNI, Jl. Lintas Utama Sumatera No.KM 01, Lawang Agung, Kec. Rupit, Kabupaten Musi Rawas, Sumatera Selatan 31654";"Jl. Lintas Utama Sumatera No.KM 01, Lawang Agung, Kec. Rupit, Kabupaten Musi Rawas";"SUMATERA SELATAN";"31654";"Indonesia";" 08117188899";"";"";"-2.7110636";"102.9108914";"https://maps.google.com/?cid=0x0:0x279bfbe950df9fb9";""
"building materials";"Toko Bahan Bangunan";"TB KARANG JAYA ( Toko Material Bahan Bangunan )";"Jl. Masjid Hidayatullah No.1, RT.001/RW.001, Jaka Setia, Kec. Bekasi Sel., Kota Bks, Jawa Barat 17148";"RT.001/RW.001, Jaka Setia, Kec. Bekasi Sel., Kota Bks";"SUMATERA SELATAN";"17148";"Indonesia";" 0218216466";"";"";"-6.2739625";"106.9779906";"https://maps.google.com/?cid=0x0:0x4398b1712c11c279";""
"building materials";"Toko Bahan Bangunan";"TB KARANG JAYA";"Jl. Pendidikan No.6, Mangunjaya, Kec. Tambun Sel., Kabupaten Bekasi, Jawa Barat 17510";"Mangunjaya, Kec. Tambun Sel., Kabupaten Bekasi";"SUMATERA SELATAN";"17510";"Indonesia";" 02188332310";"";"";"-6.2439569";"107.0569062";"https://maps.google.com/?cid=0x0:0x2cbd21495af8aae1";""
"building materials";"Toko Bahan Bangunan";"TB. Makmur Jaya";"Jl. Raden Saleh No.6, RT.004/RW.005, Karang Tengah, Kec. Karang Tengah, Kota Tangerang, Banten 15157";"RT.004/RW.005, Karang Tengah, Kec. Karang Tengah, Kota Tangerang";"SUMATERA SELATAN";"15157";"Indonesia";" 082150266988";"";"";"-6.2140675";"106.7110251";"https://maps.google.com/?cid=0x0:0xe36a670f1627b046";""
"building materials";"Toko Bahan Bangunan";"TB. Karang Jaya";"Jl. Raya Suban Bandar - Lampung, Karang Maritim, Kec. Panjang, Kota Bandar Lampung, Lampung 35243";"Karang Maritim, Kec. Panjang, Kota Bandar Lampung";"SUMATERA SELATAN";"35243";"Indonesia";"";"";"";"-5.4868191";"105.3261602";"https://maps.google.com/?cid=0x0:0xca41d16ec078ef75";""
"building materials";"Toko Bahan Bangunan";"TB Logam Jaya";"HVPX+JJ9, Karangpucung, Kec. Karangpucung, Kabupaten Cilacap, Jawa Tengah 53255";"Karangpucung, Kec. Karangpucung, Kabupaten Cilacap";"SUMATERA SELATAN";"53255";"Indonesia";"";"";"";"-7.4134603";"108.8990982";"https://maps.google.com/?cid=0x0:0xc76f4bae993bbdaa";""
"building materials";"Toko Bahan Bangunan";"TB. Bangun Jaya";"Jl. Muara Karang Raya No.20 13, RT.13/RW.17, Pluit, Kec. Penjaringan, Jkt Utara, Daerah Khusus Ibukota Jakarta 14450";"RT.13/RW.17, Pluit, Kec. Penjaringan, Jkt Utara";"SUMATERA SELATAN";"14450";"Indonesia";"";"";"";"-6.1171346";"106.7823776";"https://maps.google.com/?cid=0x0:0xd93113fa13db8030";""
"building materials";"Toko Bahan Bangunan";"ANUGRAH JAYA";"JGQ9+P6H, Jl. Karang Tengah, Balokang, Kec. Banjar, Kota Banjar, Jawa Barat 46313";"Jl. Karang Tengah, Balokang, Kec. Banjar, Kota Banjar";"SUMATERA SELATAN";"46313";"Indonesia";" 081322646453";"";"";"-7.3606759";"108.5180968";"https://maps.google.com/?cid=0x0:0x299bdf12fc6496fb";""
"building materials";"building materials";"Sumatera Selatan 31667";"Kec. Nibung, Kab. Musi Rawas Utara, Sumatera Selatan";"Kab. Musi Rawas Utara, Sumatera Selatan";"SUMATERA SELATAN";"";"Indonesia";"";"";"";"-2.4365476";"102.9435536";"https://maps.google.com/?cid=0x0:0x51eee84d7db6be8b";""
"building materials";"Pusat Perbelanjaan";"TB Sahabat Kurnia (SUKIMIN)";"Unnamed Road, Bumi Makmur, Kec. Nibung, Kab. Musi Rawas Utara, Sumatera Selatan 31667";"Bumi Makmur, Kec. Nibung, Kab. Musi Rawas Utara";"SUMATERA SELATAN";"31667";"Indonesia";"";"";"";"-2.4746899";"103.0283887";"https://maps.google.com/?cid=0x0:0xf4591f0f69c11c55";""
"building materials";"Toko Swalayan";"Toko Bangunan";"Hj. pain Pom mini jalan poros kec.nibung sp9 rt20 kab, Karya Makmur, Kec. Nibung, Kab. Musi Rawas Utara, Sumatera Selatan 31667";"Karya Makmur, Kec. Nibung, Kab. Musi Rawas Utara";"SUMATERA SELATAN";"31667";"Indonesia";" 085245808623";"";"";"-2.4995935";"102.9736566";"https://maps.google.com/?cid=0x0:0x5ad595f13cf3ede7";""
"building materials";"building materials";"Kec. Nibung";"Kab. Musi Rawas Utara, Sumatera Selatan";"Kab. Musi Rawas Utara, Sumatera Selatan";"SUMATERA SELATAN";"";"Indonesia";"";"";"";"-2.4969628";"102.9566068";"https://maps.google.com/?cid=0x0:0xb6f86a9b46849e89";""
"building materials";"building materials";"Sumatera Selatan 31655";"Kec. Rawas Ilir, Kabupaten Musi Rawas, Sumatera Selatan";"Kabupaten Musi Rawas, Sumatera Selatan";"SUMATERA SELATAN";"";"Indonesia";"";"";"";"-2.6657075";"103.2201828";"https://maps.google.com/?cid=0x0:0x9daabcd0688b6fb7";""
"building materials";"Toko Bahan Bangunan";"Toko Istana Bangunan";"94V7+9G7, Unnamed Road, Beringin Makmur II, Kec. Rawas Ilir, Kab. Musi Rawas Utara, Sumatera Selatan 31655";"Unnamed Road, Beringin Makmur II, Kec. Rawas Ilir, Kab. Musi Rawas Utara";"SUMATERA SELATAN";"31655";"Indonesia";"";"";"";"-2.6065788";"103.1137877";"https://maps.google.com/?cid=0x0:0xe87952670048eed5";""
"building materials";"Toko Bahan Bangunan";"LAMBANGSARI GRUP";"54VC+8CX, Marga Baru, Kec. Muara Lakitan, Kabupaten Musi Rawas, Sumatera Selatan 31657";"Marga Baru, Kec. Muara Lakitan, Kabupaten Musi Rawas";"SUMATERA SELATAN";"31657";"Indonesia";"";"";"";"-2.8066284";"103.1211114";"https://maps.google.com/?cid=0x0:0x7d2b7cc998bde861";""
"building materials";"Toko Bahan Bangunan";"Toko Bangunan ANDI Makmur";"F77Q+CVQ, Desa Ketapat Bening, Air Bening, Kec. Rawas Ilir, Kab. Musi Rawas Utara, Sumatera Selatan 41655";"Desa Ketapat Bening, Air Bening, Kec. Rawas Ilir, Kab. Musi Rawas Utara";"SUMATERA SELATAN";"41655";"Indonesia";" 081271972157";"";"";"-2.5364079";"103.2897437";"https://maps.google.com/?cid=0x0:0xa97894afa1b03eef";""
"building materials";"Toko Bahan Bangunan";"IDEAL GRUP";"Jl. Poros sp3 marga baru blok A2 KAB, Marga Baru, Kec. Muara Lakitan, Kabupaten Musi Rawas, Sumatera Selatan 31666";"Marga Baru, Kec. Muara Lakitan, Kabupaten Musi Rawas";"SUMATERA SELATAN";"31666";"Indonesia";"";"";"";"-2.8062524";"103.1235832";"https://maps.google.com/?cid=0x0:0x96101a4c6493338a";""
"building materials";"Pusat Perbelanjaan";"TB Sahabat Kurnia (SUKIMIN)";"Unnamed Road, Bumi Makmur, Kec. Nibung, Kab. Musi Rawas Utara, Sumatera Selatan 31667";"Bumi Makmur, Kec. Nibung, Kab. Musi Rawas Utara";"SUMATERA SELATAN";"31667";"Indonesia";"";"";"";"-2.4746899";"103.0283887";"https://maps.google.com/?cid=0x0:0xf4591f0f69c11c55";""
"building materials";"Toko Bahan Bangunan";"Tb sampurna";"94P6+VV7, Beringin Makmur II, Kec. Rawas Ilir, Kabupaten Musi Rawas, Sumatera Selatan 31655";"Beringin Makmur II, Kec. Rawas Ilir, Kabupaten Musi Rawas";"SUMATERA SELATAN";"31655";"Indonesia";"";"";"";"-2.6128251";"103.1121568";"https://maps.google.com/?cid=0x0:0x5817759f27e1d4aa";""
"building materials";"Minimarket";"Toko bangunan pak kadus";"56J2+8FP, Pelita Jaya, Kec. Muara Lakitan, Kabupaten Musi Rawas, Sumatera Selatan";"Kabupaten Musi Rawas, Sumatera Selatan";"SUMATERA SELATAN";"";"Indonesia";"";"";"";"-2.8191664";"103.2012129";"https://maps.google.com/?cid=0x0:0xc87e4d1a242fd2ea";""
"building materials";"Jasa Konstruksi dan Bangunan";"Sulton Batako 01";"Sukowarno, Kec. Suka Karya, Kabupaten Musi Rawas, Sumatera Selatan 31664";"Kec. Suka Karya, Kabupaten Musi Rawas";"SUMATERA SELATAN";"31664";"Indonesia";" 081390460512";"";"";"-3.2481912";"103.1547243";"https://maps.google.com/?cid=0x0:0xac03b275b0ec4066";""
"building materials";"Toko Bahan Bangunan";"Musi Rawas Lestari Makmur";"R4W3+CX8, JL. Lintas Sumatera, Tuah Negeri, Musi Rawas, Petunang, Kec. Tuah Negeri, Kabupaten Musi Rawas, Sumatera Selatan 31663";"JL. Lintas Sumatera, Tuah Negeri, Musi Rawas, Petunang, Kec. Tuah Negeri, Kabupaten Musi Rawas";"SUMATERA SELATAN";"31663";"Indonesia";" 081366393029";"";"";"-3.153971";"103.10496";"https://maps.google.com/?cid=0x0:0xc5b88aff6e0a6405";""
"building materials";"Toko Bahan Bangunan";"TB.BYR Sahabat Bangunan";"Pelita Jaya, Kec. Muara Lakitan, Kabupaten Musi Rawas, Sumatera Selatan";"Kabupaten Musi Rawas, Sumatera Selatan";"SUMATERA SELATAN";"";"Indonesia";" 085281964025";"";"";"-2.8130014";"103.1879611";"https://maps.google.com/?cid=0x0:0xc9943b255c5fa82a";""
"building materials";"Toko Bahan Bangunan";"TB. Berkah Jaya";"72X8+956, Jalan, Biaro Baru, Bingin Teluk, Kab. Musi Rawas Utara, Sumatera Selatan 31658";"Jalan, Biaro Baru, Bingin Teluk, Kab. Musi Rawas Utara";"SUMATERA SELATAN";"31658";"Indonesia";" 081271848191";"";"";"-2.701598";"103.015396";"https://maps.google.com/?cid=0x0:0x5a863eeb25bcfdb8";""
"building materials";"Toko Perlengkapan Rumah";"Depo Material Bangunan AA Lubuk Kemang";"9R2F+542, Lubuk Kemang, Kec. Rawas Ulu, Kab. Musi Rawas Utara, Sumatera Selatan 31654";"Lubuk Kemang, Kec. Rawas Ulu, Kab. Musi Rawas Utara";"SUMATERA SELATAN";"31654";"Indonesia";" 081221998585";"";"";"-2.6496124";"102.8227621";"https://maps.google.com/?cid=0x0:0x1c404e7cec72b7d3";""
"building materials";"Toko Bahan Bangunan";"TB YUDA";"Jl. Syahri Wahab No.13, Megang Sakti I, Kec. Megang Sakti, Kabupaten Musi Rawas, Sumatera Selatan 31661";"Megang Sakti I, Kec. Megang Sakti, Kabupaten Musi Rawas";"SUMATERA SELATAN";"31661";"Indonesia";"";"";"";"-3.0244799";"103.0206026";"https://maps.google.com/?cid=0x0:0xa102865b16295970";""
"building materials";"Minimarket";"Toko Dea Ila win";"55MR+M7M, Pelita Jaya, Kec. Muara Lakitan, Kabupaten Musi Rawas, Sumatera Selatan 31666";"Pelita Jaya, Kec. Muara Lakitan, Kabupaten Musi Rawas";"SUMATERA SELATAN";"31666";"Indonesia";"";"";"";"-2.8150916";"103.1902155";"https://maps.google.com/?cid=0x0:0x1d5bee13417ac2d8";""
"building materials";"Toko Bahan Bangunan";"TB.HIDAKA";"Siti Harjo, Kec. Tugumulyo, Kabupaten Musi Rawas, Sumatera Selatan 31662";"Kec. Tugumulyo, Kabupaten Musi Rawas";"SUMATERA SELATAN";"31662";"Indonesia";" 085321752016";"";"";"-3.1457799";"102.9518601";"https://maps.google.com/?cid=0x0:0x7f96945f934052c3";""
"building materials";"Pemasok Semen Ready-mix";"TOKO MEGA MAKMUR  YONO WALET";"Q5GG+JGW, Ciptodadi, Kec. Suka Karya, Kabupaten Musi Rawas, Sumatera Selatan 31665";"Ciptodadi, Kec. Suka Karya, Kabupaten Musi Rawas";"SUMATERA SELATAN";"31665";"Indonesia";" 081367744023";"";"";"-3.2233333";"103.176336";"https://maps.google.com/?cid=0x0:0xd2f12ac3cf348e12";""
"building materials";"Toko Bahan Bangunan";"Tb.sumber Arto Moro";"Unnamed Road, 31626, Trikoyo, Kec. Tugumulyo, Kabupaten Musi Rawas, Sumatera Selatan 31626";"31626, Trikoyo, Kec. Tugumulyo, Kabupaten Musi Rawas";"SUMATERA SELATAN";"31626";"Indonesia";" 081328879628";"";"";"-3.1909448";"102.9464986";"https://maps.google.com/?cid=0x0:0xf9e62388fcccb005";""
"building materials";"Toko Bahan Bangunan";"Toko bangunan Amira jaya";"83MC+69H, Mandi Angin, Kec. Rawas Ilir, Kab. Musi Rawas Utara, Sumatera Selatan 31658";"Mandi Angin, Kec. Rawas Ilir, Kab. Musi Rawas Utara";"SUMATERA SELATAN";"31658";"Indonesia";" 082180069268";"";"";"-2.6667497";"103.0704008";"https://maps.google.com/?cid=0x0:0x15cc47edcc180824";""
"building materials";"Toko Bahan Bangunan";"Toko Bangunan Joren";"J3X5+97, Muara Kati Baru I, Kec. Tiang Pumpung Kepungut, Kabupaten Musi Rawas, Sumatera Selatan";"Kabupaten Musi Rawas, Sumatera Selatan";"SUMATERA SELATAN";"";"Indonesia";" 081288615060";"";"";"-3.3517853";"103.0581596";"https://maps.google.com/?cid=0x0:0xc93b143a76a08ec6";""
"building materials";"Toko";"TOKO BANGUNAN "SUMBER ANUGERAH"";"RWVJ+MH4, Jl. Bukit Botak, Suko Rejo, Kec. Tugumulyo, Kabupaten Musi Rawas, Sumatera Selatan 31662";"Jl. Bukit Botak, Suko Rejo, Kec. Tugumulyo, Kabupaten Musi Rawas";"SUMATERA SELATAN";"31662";"Indonesia";" 082280599222";"";"";"-3.1558586";"102.9314567";"https://maps.google.com/?cid=0x0:0xe3638fd9fd7a5b80";""
"building materials";"Toko Perlengkapan Rumah";"JUAL BATA BESAR KOSGORO (DARTO)";"masuk dari sp.kosgoro lebih kurang 225 meter, Kosgoro, Suku Tengah Lakitan Ulu, Kabupaten Musi Rawas, Sumatera Selatan 78234";"Kosgoro, Suku Tengah Lakitan Ulu, Kabupaten Musi Rawas";"SUMATERA SELATAN";"78234";"Indonesia";" 085369114477";"";"";"-3.0146476";"102.8116122";"https://maps.google.com/?cid=0x0:0x12d9419e856007f";""
"building materials";"Toko Bahan Bangunan";"Toko 988";"RXC9+9W9, Jl. H. Zainal Abidin Ning, Sidoharjo, Kec. Tugumulyo, Kabupaten Musi Rawas, Sumatera Selatan 31661";"Jl. H. Zainal Abidin Ning, Sidoharjo, Kec. Tugumulyo, Kabupaten Musi Rawas";"SUMATERA SELATAN";"31661";"Indonesia";" 085266259995";"";"";"-3.1790989";"102.96987";"https://maps.google.com/?cid=0x0:0x2f33701898e1306b";""
"building materials";"Toko Bahan Bangunan";"TB. SENTRAL GYPSUM";"QWHR+3JH, Jl. Jend. Sudirman, D .Triwikaton, Kec. Tugumulyo, Kabupaten Musi Rawas, Sumatera Selatan 31661";"Jl. Jend. Sudirman, D .Triwikaton, Kec. Tugumulyo, Kabupaten Musi Rawas";"SUMATERA SELATAN";"31661";"Indonesia";" 085789811432";"";"";"-3.2223067";"102.9416093";"https://maps.google.com/?cid=0x0:0xcd5e8dd7c336b284";""
"building materials";"Toko Bahan Bangunan";"Toko bahan bangunan 998";"RW2W+V9F, Jl. Jend. Sudirman, Triwikaton, Kec. Tugumulyo, Kabupaten Musi Rawas, Sumatera Selatan 31662";"Jl. Jend. Sudirman, Triwikaton, Kec. Tugumulyo, Kabupaten Musi Rawas";"SUMATERA SELATAN";"31662";"Indonesia";"";"";"";"-3.1978223";"102.945928";"https://maps.google.com/?cid=0x0:0x136c63a7ba319f82";""
"building materials";"building materials";"Sumatera Selatan 31656";"Kabupaten Musi Rawas, Sumatera Selatan";"Kabupaten Musi Rawas, Sumatera Selatan";"SUMATERA SELATAN";"";"Indonesia";"";"";"";"-2.6716149";"102.6675575";"https://maps.google.com/?cid=0x0:0x829aeb46883c7ea6";""
"building materials";"Toko Perlengkapan Rumah";"Depo Material Bangunan AA Lubuk Kemang";"9R2F+542, Lubuk Kemang, Kec. Rawas Ulu, Kab. Musi Rawas Utara, Sumatera Selatan 31654";"Lubuk Kemang, Kec. Rawas Ulu, Kab. Musi Rawas Utara";"SUMATERA SELATAN";"31654";"Indonesia";" 081221998585";"";"";"-2.6496124";"102.8227621";"https://maps.google.com/?cid=0x0:0x1c404e7cec72b7d3";""
"building materials";"Toko Bahan Bangunan";"Musi Rawas Lestari Makmur";"R4W3+CX8, JL. Lintas Sumatera, Tuah Negeri, Musi Rawas, Petunang, Kec. Tuah Negeri, Kabupaten Musi Rawas, Sumatera Selatan 31663";"JL. Lintas Sumatera, Tuah Negeri, Musi Rawas, Petunang, Kec. Tuah Negeri, Kabupaten Musi Rawas";"SUMATERA SELATAN";"31663";"Indonesia";" 081366393029";"";"";"-3.153971";"103.10496";"https://maps.google.com/?cid=0x0:0xc5b88aff6e0a6405";""
"building materials";"Toko Bahan Bangunan";"LAMBANGSARI GRUP";"54VC+8CX, Marga Baru, Kec. Muara Lakitan, Kabupaten Musi Rawas, Sumatera Selatan 31657";"Marga Baru, Kec. Muara Lakitan, Kabupaten Musi Rawas";"SUMATERA SELATAN";"31657";"Indonesia";"";"";"";"-2.8066284";"103.1211114";"https://maps.google.com/?cid=0x0:0x7d2b7cc998bde861";""
"building materials";"Toko Bahan Bangunan";"Alumunium TIDAK AMANAH";"9RC4+3XM, Lesung Batu Muda, Kec. Rawas Ulu, Kab. Musi Rawas Utara, Sumatera Selatan 31654";"Lesung Batu Muda, Kec. Rawas Ulu, Kab. Musi Rawas Utara";"SUMATERA SELATAN";"31654";"Indonesia";"";"";"";"-2.6297757";"102.8074069";"https://maps.google.com/?cid=0x0:0x6677102cae3aa026";""
"building materials";"Toko Perlengkapan Rumah";"JUAL BATA BESAR KOSGORO (DARTO)";"masuk dari sp.kosgoro lebih kurang 225 meter, Kosgoro, Suku Tengah Lakitan Ulu, Kabupaten Musi Rawas, Sumatera Selatan 78234";"Kosgoro, Suku Tengah Lakitan Ulu, Kabupaten Musi Rawas";"SUMATERA SELATAN";"78234";"Indonesia";" 085369114477";"";"";"-3.0146476";"102.8116122";"https://maps.google.com/?cid=0x0:0x12d9419e856007f";""
"building materials";"Toko Bahan Bangunan";"TB YUDA";"Jl. Syahri Wahab No.13, Megang Sakti I, Kec. Megang Sakti, Kabupaten Musi Rawas, Sumatera Selatan 31661";"Megang Sakti I, Kec. Megang Sakti, Kabupaten Musi Rawas";"SUMATERA SELATAN";"31661";"Indonesia";"";"";"";"-3.0244799";"103.0206026";"https://maps.google.com/?cid=0x0:0xa102865b16295970";""
"building materials";"Toko Bahan Bangunan";"TOKO BANGUNAN TIWA";"Jalan Nangka Belanda, Dusun V, Lawang Agung, Kec. Rupit, Kab. Musi Rawas Utara, Sumatera Selatan 31654";"Dusun V, Lawang Agung, Kec. Rupit, Kab. Musi Rawas Utara";"SUMATERA SELATAN";"31654";"Indonesia";" 081274406225";"";"";"-2.7140813";"102.9116705";"https://maps.google.com/?cid=0x0:0xf297bdc22ec84b7d";""
"building materials";"Toko Bahan Bangunan";"Toko Bangunan ANDI Makmur";"F77Q+CVQ, Desa Ketapat Bening, Air Bening, Kec. Rawas Ilir, Kab. Musi Rawas Utara, Sumatera Selatan 41655";"Desa Ketapat Bening, Air Bening, Kec. Rawas Ilir, Kab. Musi Rawas Utara";"SUMATERA SELATAN";"41655";"Indonesia";" 081271972157";"";"";"-2.5364079";"103.2897437";"https://maps.google.com/?cid=0x0:0xa97894afa1b03eef";""
"building materials";"Toko Bahan Bangunan";"TB.HIDAKA";"Siti Harjo, Kec. Tugumulyo, Kabupaten Musi Rawas, Sumatera Selatan 31662";"Kec. Tugumulyo, Kabupaten Musi Rawas";"SUMATERA SELATAN";"31662";"Indonesia";" 085321752016";"";"";"-3.1457799";"102.9518601";"https://maps.google.com/?cid=0x0:0x7f96945f934052c3";""
"building materials";"Toko";"TOKO BANGUNAN "SUMBER ANUGERAH"";"RWVJ+MH4, Jl. Bukit Botak, Suko Rejo, Kec. Tugumulyo, Kabupaten Musi Rawas, Sumatera Selatan 31662";"Jl. Bukit Botak, Suko Rejo, Kec. Tugumulyo, Kabupaten Musi Rawas";"SUMATERA SELATAN";"31662";"Indonesia";" 082280599222";"";"";"-3.1558586";"102.9314567";"https://maps.google.com/?cid=0x0:0xe3638fd9fd7a5b80";""
"building materials";"Toko Bahan Bangunan";"IDEAL GRUP";"Jl. Poros sp3 marga baru blok A2 KAB, Marga Baru, Kec. Muara Lakitan, Kabupaten Musi Rawas, Sumatera Selatan 31666";"Marga Baru, Kec. Muara Lakitan, Kabupaten Musi Rawas";"SUMATERA SELATAN";"31666";"Indonesia";"";"";"";"-2.8062524";"103.1235832";"https://maps.google.com/?cid=0x0:0x96101a4c6493338a";""
"building materials";"Toko Bahan Bangunan";"Toko bangunan Lestari";"X4HW+WHQ, Lubuk Tua, Kec. Muara Kelingi, Kabupaten Musi Rawas, Sumatera Selatan 31663";"Lubuk Tua, Kec. Muara Kelingi, Kabupaten Musi Rawas";"SUMATERA SELATAN";"31663";"Indonesia";"";"";"";"-3.0201615";"103.1464723";"https://maps.google.com/?cid=0x0:0x285e33688521aec2";""
"building materials";"Toko Bahan Bangunan";"Tb.sumber Arto Moro";"Unnamed Road, 31626, Trikoyo, Kec. Tugumulyo, Kabupaten Musi Rawas, Sumatera Selatan 31626";"31626, Trikoyo, Kec. Tugumulyo, Kabupaten Musi Rawas";"SUMATERA SELATAN";"31626";"Indonesia";" 081328879628";"";"";"-3.1909448";"102.9464986";"https://maps.google.com/?cid=0x0:0xf9e62388fcccb005";""
"building materials";"Toko Bahan Bangunan";"Toko 988";"RXC9+9W9, Jl. H. Zainal Abidin Ning, Sidoharjo, Kec. Tugumulyo, Kabupaten Musi Rawas, Sumatera Selatan 31661";"Jl. H. Zainal Abidin Ning, Sidoharjo, Kec. Tugumulyo, Kabupaten Musi Rawas";"SUMATERA SELATAN";"31661";"Indonesia";" 085266259995";"";"";"-3.1790989";"102.96987";"https://maps.google.com/?cid=0x0:0x2f33701898e1306b";""
"building materials";"Toko Perlengkapan Rumah";"Batu Bata H Juki";"W2V8+JW8, Jl. Kyai Mojo, Megang Sakti II, Kec. Megang Sakti, Kabupaten Musi Rawas, Sumatera Selatan 31661";"Jl. Kyai Mojo, Megang Sakti II, Kec. Megang Sakti, Kabupaten Musi Rawas";"SUMATERA SELATAN";"31661";"Indonesia";"";"";"";"-3.0559668";"103.0173387";"https://maps.google.com/?cid=0x0:0xa52ee4ba8491fd3c";""
"building materials";"Toko Bahan Bangunan";"Toko Taufik bangunan";"Jl. Lintas Utama Sumatera No.Utara, Karang Jaya, Kec. Karang Jaya, Kabupaten Musi Rawas, Sumatera Selatan 31654";"Karang Jaya, Kec. Karang Jaya, Kabupaten Musi Rawas";"SUMATERA SELATAN";"31654";"Indonesia";" 082280089850";"";"";"-2.8726338";"102.7879808";"https://maps.google.com/?cid=0x0:0x8a188eb746296a00";""
"building materials";"Toko Bahan Bangunan";"Toko Bangunan Soember Redjeki";"Lawang Agung, Kec. Rupit, Kab. Musi Rawas Utara, Sumatera Selatan";"Kab. Musi Rawas Utara, Sumatera Selatan";"SUMATERA SELATAN";"";"Indonesia";"";"";"";"-2.7122776";"102.9109964";"https://maps.google.com/?cid=0x0:0x9247b6346ab8484";""
"building materials";"Toko Bahan Bangunan";"Toko Bangunan Ateng Jaya";"RWVM+J5W, Suko Rejo, Suku Tengah Lakitan Ulu, Kabupaten Musi Rawas, Sumatera Selatan 31662";"Suko Rejo, Suku Tengah Lakitan Ulu, Kabupaten Musi Rawas";"SUMATERA SELATAN";"31662";"Indonesia";"";"";"";"-3.1558988";"102.9329376";"https://maps.google.com/?cid=0x0:0xfe75f72ada326fea";""
"building materials";"Toko Bahan Bangunan";"TB. SENTRAL GYPSUM";"QWHR+3JH, Jl. Jend. Sudirman, D .Triwikaton, Kec. Tugumulyo, Kabupaten Musi Rawas, Sumatera Selatan 31661";"Jl. Jend. Sudirman, D .Triwikaton, Kec. Tugumulyo, Kabupaten Musi Rawas";"SUMATERA SELATAN";"31661";"Indonesia";" 085789811432";"";"";"-3.2223067";"102.9416093";"https://maps.google.com/?cid=0x0:0xcd5e8dd7c336b284";""
"building materials";"Toko Bahan Bangunan";"Toko Istana Bangunan";"94V7+9G7, Unnamed Road, Beringin Makmur II, Kec. Rawas Ilir, Kab. Musi Rawas Utara, Sumatera Selatan 31655";"Unnamed Road, Beringin Makmur II, Kec. Rawas Ilir, Kab. Musi Rawas Utara";"SUMATERA SELATAN";"31655";"Indonesia";"";"";"";"-2.6065788";"103.1137877";"https://maps.google.com/?cid=0x0:0xe87952670048eed5";""
"building materials";"Toko Bahan Bangunan";"Toko bahan bangunan 998";"RW2W+V9F, Jl. Jend. Sudirman, Triwikaton, Kec. Tugumulyo, Kabupaten Musi Rawas, Sumatera Selatan 31662";"Jl. Jend. Sudirman, Triwikaton, Kec. Tugumulyo, Kabupaten Musi Rawas";"SUMATERA SELATAN";"31662";"Indonesia";"";"";"";"-3.1978223";"102.945928";"https://maps.google.com/?cid=0x0:0x136c63a7ba319f82";""
"building materials";"building materials";"TB icel";"Jl. Jenderal Sudirman No.271, Ps. Surulangun, Kec. Rawas Ulu, Kab. Musi Rawas Utara, Sumatera Selatan 31656";"Ps. Surulangun, Kec. Rawas Ulu, Kab. Musi Rawas Utara";"SUMATERA SELATAN";"31656";"Indonesia";"";"";"";"-2.6246255";"102.7618582";"https://maps.google.com/?cid=0x0:0x47807abb56b52c33";""
"building materials";"building materials";"Kec. Rupit";"Kab. Musi Rawas Utara, Sumatera Selatan";"Kab. Musi Rawas Utara, Sumatera Selatan";"SUMATERA SELATAN";"";"Indonesia";"";"";"";"-2.7205772";"102.9116717";"https://maps.google.com/?cid=0x0:0xa822b6d74806cc91";""
"building materials";"Toko Bahan Bangunan";"TOKO BANGUNAN TIWA";"Jalan Nangka Belanda, Dusun V, Lawang Agung, Kec. Rupit, Kab. Musi Rawas Utara, Sumatera Selatan 31654";"Dusun V, Lawang Agung, Kec. Rupit, Kab. Musi Rawas Utara";"SUMATERA SELATAN";"31654";"Indonesia";" 081274406225";"";"";"-2.7140813";"102.9116705";"https://maps.google.com/?cid=0x0:0xf297bdc22ec84b7d";""
"building materials";"Toko Bahan Bangunan";"TOKO KONTRUKSI";"7WG4+PWG, Muara Rupit, Kec. Rupit, Kab. Musi Rawas Utara, Sumatera Selatan 31654";"Muara Rupit, Kec. Rupit, Kab. Musi Rawas Utara";"SUMATERA SELATAN";"31654";"Indonesia";" 081298797827";"";"";"-2.7231911";"102.907313";"https://maps.google.com/?cid=0x0:0x250dfbcefde1508e";""
"building materials";"Toko Perlengkapan Rumah";"ADIGUNA TILE by permata group";"7W94+577, Muara Rupit, Kec. Rupit, Kabupaten Musi Rawas, Sumatera Selatan 31654";"Muara Rupit, Kec. Rupit, Kabupaten Musi Rawas";"SUMATERA SELATAN";"31654";"Indonesia";" 081367125790";"";"";"-2.7320805";"102.905676";"https://maps.google.com/?cid=0x0:0x14d6bb6c87ba26de";""
"building materials";"Toko";"Muara Rupit";"7WJ3+RX8, Muara Rupit, Kec. Rupit, Kabupaten Musi Rawas, Sumatera Selatan";"Kabupaten Musi Rawas, Sumatera Selatan";"SUMATERA SELATAN";"";"Indonesia";"";"";"";"-2.7179645";"102.9049515";"https://maps.google.com/?cid=0x0:0xda5b35ae8618ab6e";""
"building materials";"Toko Batu";"BATU ALAM HIAS, BONGKAHAN EMAS, BIJI BESI, GALENA, BATU BARA KOMPUTER ATK CV. JMC GROUPS";"samping BNI, Jl. Lintas Utama Sumatera No.KM 01, Lawang Agung, Kec. Rupit, Kabupaten Musi Rawas, Sumatera Selatan 31654";"Jl. Lintas Utama Sumatera No.KM 01, Lawang Agung, Kec. Rupit, Kabupaten Musi Rawas";"SUMATERA SELATAN";"31654";"Indonesia";" 08117188899";"";"";"-2.7110636";"102.9108914";"https://maps.google.com/?cid=0x0:0x279bfbe950df9fb9";""
"building materials";"Toko Bahan Bangunan";"Toko Bangunan Soember Redjeki";"Lawang Agung, Kec. Rupit, Kab. Musi Rawas Utara, Sumatera Selatan";"Kab. Musi Rawas Utara, Sumatera Selatan";"SUMATERA SELATAN";"";"Indonesia";"";"";"";"-2.7122776";"102.9109964";"https://maps.google.com/?cid=0x0:0x9247b6346ab8484";""
"building materials";"Toko";"Toko asyer";"5R9M+WM9, Tj. Beringin, Kec. Rupit, Kab. Musi Rawas Utara, Sumatera Selatan 31654";"Tj. Beringin, Kec. Rupit, Kab. Musi Rawas Utara";"SUMATERA SELATAN";"31654";"Indonesia";"";"";"";"-2.83022";"102.8342284";"https://maps.google.com/?cid=0x0:0x1e79f7ce7fab34e7";""
"building materials";"building materials";"Sumatera Selatan 31669";"Kab. Musi Rawas Utara, Sumatera Selatan";"Kab. Musi Rawas Utara, Sumatera Selatan";"SUMATERA SELATAN";"";"Indonesia";"";"";"";"-2.7917254";"102.3463875";"https://maps.google.com/?cid=0x0:0x98db126b92af20bb";""
"building materials";"Toko Perlengkapan Rumah";"Depo Material Bangunan AA Lubuk Kemang";"9R2F+542, Lubuk Kemang, Kec. Rawas Ulu, Kab. Musi Rawas Utara, Sumatera Selatan 31654";"Lubuk Kemang, Kec. Rawas Ulu, Kab. Musi Rawas Utara";"SUMATERA SELATAN";"31654";"Indonesia";" 081221998585";"";"";"-2.6496124";"102.8227621";"https://maps.google.com/?cid=0x0:0x1c404e7cec72b7d3";""
"building materials";"Toko Bahan Bangunan";"Toko Taufik bangunan";"Jl. Lintas Utama Sumatera No.Utara, Karang Jaya, Kec. Karang Jaya, Kabupaten Musi Rawas, Sumatera Selatan 31654";"Karang Jaya, Kec. Karang Jaya, Kabupaten Musi Rawas";"SUMATERA SELATAN";"31654";"Indonesia";" 082280089850";"";"";"-2.8726338";"102.7879808";"https://maps.google.com/?cid=0x0:0x8a188eb746296a00";""
"building materials";"Toko Bahan Bangunan";"TOKO BANGUNAN KITO";"Terusan, Kec. Karang Jaya, Kab. Musi Rawas Utara, Sumatera Selatan";"Kab. Musi Rawas Utara, Sumatera Selatan";"SUMATERA SELATAN";"";"Indonesia";" 082175641331";"";"";"-2.8938248";"102.7559921";"https://maps.google.com/?cid=0x0:0x2ffcc30b146d310e";""
"building materials";"Toko Bahan Bangunan";"DIMAS BANGUNAN";"Tj. Agung, Kec. Karang Jaya, Kab. Musi Rawas Utara, Sumatera Selatan 31654";"Kec. Karang Jaya, Kab. Musi Rawas Utara";"SUMATERA SELATAN";"31654";"Indonesia";" 085213814175";"";"";"-2.9104387";"102.6520181";"https://maps.google.com/?cid=0x0:0x976430cfa8263f5e";""
"building materials";"Lembaga Agama";"Batu akik";"Karang Jaya, Kec. Karang Jaya, Kab. Musi Rawas Utara, Sumatera Selatan 31654";"Kec. Karang Jaya, Kab. Musi Rawas Utara";"SUMATERA SELATAN";"31654";"Indonesia";" 08576905365";"";"";"-2.8672684";"102.783535";"https://maps.google.com/?cid=0x0:0x81ffde36e2be7fe3";""
"building materials";"Toko grosir";"Toko bangunan sinar jaya";"Simpang Nibung, Kec. Singkut, Kab. Musi Rawas Utara, Sumatera Selatan 31667";"Kec. Singkut, Kab. Musi Rawas Utara";"SUMATERA SELATAN";"31667";"Indonesia";" 085279233339";"";"";"-2.5635793";"102.7289933";"https://maps.google.com/?cid=0x0:0xfe6b68ed8726a0";""
"building materials";"Toko Bahan Bangunan";"Toko bangunan adi jaya";"2QPG+F2J, Jl. Lintas Utama Sumatera, Rantau Jaya, Kec. Karang Jaya, Kab. Musi Rawas Utara, Sumatera Selatan 30771";"Jl. Lintas Utama Sumatera, Rantau Jaya, Kec. Karang Jaya, Kab. Musi Rawas Utara";"SUMATERA SELATAN";"30771";"Indonesia";"";"";"";"-2.9637944";"102.7750266";"https://maps.google.com/?cid=0x0:0x7d2cd8cee0a4df2c";""
"building materials";"building materials";"Wira Usaha Gilang Batako";"Kp. Jawa, Kec. Lebong Utara, Kabupaten Lebong, Bengkulu";"Kabupaten Lebong, Bengkulu";"SUMATERA SELATAN";"";"Indonesia";"";"";"";"-3.1085041";"102.1966486";"https://maps.google.com/?cid=0x0:0x96f3efdbc6beaa4d";""
"building materials";"building materials";"TB icel";"Jl. Jenderal Sudirman No.271, Ps. Surulangun, Kec. Rawas Ulu, Kab. Musi Rawas Utara, Sumatera Selatan 31656";"Ps. Surulangun, Kec. Rawas Ulu, Kab. Musi Rawas Utara";"SUMATERA SELATAN";"31656";"Indonesia";"";"";"";"-2.6246255";"102.7618582";"https://maps.google.com/?cid=0x0:0x47807abb56b52c33";""
"building materials";"Toko Bahan Bangunan";"Toko Bangunan Ateng Jaya";"RWVM+J5W, Suko Rejo, Suku Tengah Lakitan Ulu, Kabupaten Musi Rawas, Sumatera Selatan 31662";"Suko Rejo, Suku Tengah Lakitan Ulu, Kabupaten Musi Rawas";"SUMATERA SELATAN";"31662";"Indonesia";"";"";"";"-3.1558988";"102.9329376";"https://maps.google.com/?cid=0x0:0xfe75f72ada326fea";""
"building materials";"Toko Bahan Bangunan";"Toko bangunan taher";"V6M4+8Q3, Sungai Gerong, Kec. Amen, Kabupaten Lebong, Bengkulu 39264";"Sungai Gerong, Kec. Amen, Kabupaten Lebong";"SUMATERA SELATAN";"39264";"Indonesia";"";"";"";"-3.1167497";"102.2069133";"https://maps.google.com/?cid=0x0:0xdf5c3f971d7bf0e7";""
"building materials";"Toko Bahan Bangunan";"Toko bangunan A2R";"V773+RCC, Magelang Baru, Kec. Lebong Sakti, Kabupaten Lebong, Bengkulu 39264";"Magelang Baru, Kec. Lebong Sakti, Kabupaten Lebong";"SUMATERA SELATAN";"39264";"Indonesia";"";"";"";"-3.1354418";"102.2535231";"https://maps.google.com/?cid=0x0:0xa85d0765ea9ef062";""
"building materials";"Toko Bahan Bangunan";"ROSE BATAKO";"V5QR+H97, Desa Pondok Cina, Lebong Tambang, Kec. Lebong Utara, Kabupaten Lebong, Bengkulu 39264";"Desa Pondok Cina, Lebong Tambang, Kec. Lebong Utara, Kabupaten Lebong";"SUMATERA SELATAN";"39264";"Indonesia";" 085182902840";"";"";"-3.1110922";"102.1909283";"https://maps.google.com/?cid=0x0:0x6eda6ecb0a3ad082";""
"building materials";"Toko Bahan Bangunan";"vat basuax";"V678+2X3, Nangau Tayau, Kec. Amen, Kabupaten Lebong, Bengkulu 39264";"Nangau Tayau, Kec. Amen, Kabupaten Lebong";"SUMATERA SELATAN";"39264";"Indonesia";" 085769901332";"";"";"-3.1374836";"102.2174069";"https://maps.google.com/?cid=0x0:0x63c0e0955474e8f4";""
"building materials";"Toko Bahan Bangunan";"Tb. Putra CMS";"Embong Panjang, Kec. Lebong Tengah, Kabupaten Lebong, Bengkulu 39262";"Kec. Lebong Tengah, Kabupaten Lebong";"SUMATERA SELATAN";"39262";"Indonesia";" 082269996520";"";"";"-3.147797";"102.2295045";"https://maps.google.com/?cid=0x0:0x12710b16f49b0c1a";""
"building materials";"Toko Bahan Bangunan";"BINTANG BAJA KONSTRUKSI";"V6F5+RC9, Sukau Mergo, Kec. Amen, Kabupaten Lebong, Bengkulu 39264";"Sukau Mergo, Kec. Amen, Kabupaten Lebong";"SUMATERA SELATAN";"39264";"Indonesia";"";"";"";"-3.1254747";"102.2086024";"https://maps.google.com/?cid=0x0:0x2eb8e166e195efe2";""
"building materials";"Toko Bahan Bangunan";"TOKO BANGUNAN SUMBER REZEKY";"Lebong Tambang, Kec. Lebong Utara, Kabupaten Lebong, Bengkulu 39264";"Kec. Lebong Utara, Kabupaten Lebong";"SUMATERA SELATAN";"39264";"Indonesia";"";"";"";"-3.1127192";"102.1876314";"https://maps.google.com/?cid=0x0:0x8b9fc5e905871c59";""
"building materials";"Toko Elektronik";"Ulfa cell";"CQ32+9JC, Sungai Jauh, Kec. Rawas Ulu, Kabupaten Musi Rawas, Sumatera Selatan 31656";"Sungai Jauh, Kec. Rawas Ulu, Kabupaten Musi Rawas";"SUMATERA SELATAN";"31656";"Indonesia";" 082210067447";"";"";"-2.5965554";"102.7515085";"https://maps.google.com/?cid=0x0:0xa1e4fe847c45bac";""
"building materials";"Toko Bahan Bangunan";"Batako pak eko";"Pangkalan, Kec. Uram Jaya, Kabupaten Lebong, Bengkulu 39264";"Kec. Uram Jaya, Kabupaten Lebong";"SUMATERA SELATAN";"39264";"Indonesia";" 082372058497";"";"";"-3.1031749";"102.2181387";"https://maps.google.com/?cid=0x0:0x45fe328db4410972";""
"building materials";"Toko Bahan Bangunan";"Toko Bangunan Sahabat";"Jalan semalo Ogan, Selebar Jaya, Kec. Amen, Kabupaten Lebong, Bengkulu 39272";"Selebar Jaya, Kec. Amen, Kabupaten Lebong";"SUMATERA SELATAN";"39272";"Indonesia";" 081367648585";"";"";"-3.1108652";"102.2162353";"https://maps.google.com/?cid=0x0:0xfee9b927edfdff3a";""
"toko bangunan";"toko bangunan";"Sumatera Selatan 31658";"Karang Dapo, Kabupaten Musi Rawas, Sumatera Selatan";"Kabupaten Musi Rawas, Sumatera Selatan";"SUMATERA SELATAN";"";"Indonesia";"";"";"";"-2.7453255";"103.035694";"https://maps.google.com/?cid=0x0:0xe72620e1eb13dcdf";""
"toko bangunan";"Toko Bahan Bangunan";"TB. Berkah Jaya";"72X8+956, Jalan, Biaro Baru, Bingin Teluk, Kab. Musi Rawas Utara, Sumatera Selatan 31658";"Jalan, Biaro Baru, Bingin Teluk, Kab. Musi Rawas Utara";"SUMATERA SELATAN";"31658";"Indonesia";" 081271848191";"";"";"-2.701598";"103.015396";"https://maps.google.com/?cid=0x0:0x5a863eeb25bcfdb8";""
"toko bangunan";"Toko Bahan Bangunan";"Toko Istana Bangunan";"94V7+9G7, Unnamed Road, Beringin Makmur II, Kec. Rawas Ilir, Kab. Musi Rawas Utara, Sumatera Selatan 31655";"Unnamed Road, Beringin Makmur II, Kec. Rawas Ilir, Kab. Musi Rawas Utara";"SUMATERA SELATAN";"31655";"Indonesia";"";"";"";"-2.6065788";"103.1137877";"https://maps.google.com/?cid=0x0:0xe87952670048eed5";""
"toko bangunan";"Toko Bahan Bangunan";"LAMBANGSARI GRUP";"54VC+8CX, Marga Baru, Kec. Muara Lakitan, Kabupaten Musi Rawas, Sumatera Selatan 31657";"Marga Baru, Kec. Muara Lakitan, Kabupaten Musi Rawas";"SUMATERA SELATAN";"31657";"Indonesia";"";"";"";"-2.8066284";"103.1211114";"https://maps.google.com/?cid=0x0:0x7d2b7cc998bde861";""
"toko bangunan";"Toko Bahan Bangunan";"IDEAL GRUP";"Jl. Poros sp3 marga baru blok A2 KAB, Marga Baru, Kec. Muara Lakitan, Kabupaten Musi Rawas, Sumatera Selatan 31666";"Marga Baru, Kec. Muara Lakitan, Kabupaten Musi Rawas";"SUMATERA SELATAN";"31666";"Indonesia";"";"";"";"-2.8062524";"103.1235832";"https://maps.google.com/?cid=0x0:0x96101a4c6493338a";""
"toko bangunan";"Toko Bahan Bangunan";"Toko Bangunan ANDI Makmur";"F77Q+CVQ, Desa Ketapat Bening, Air Bening, Kec. Rawas Ilir, Kab. Musi Rawas Utara, Sumatera Selatan 41655";"Desa Ketapat Bening, Air Bening, Kec. Rawas Ilir, Kab. Musi Rawas Utara";"SUMATERA SELATAN";"41655";"Indonesia";" 081271972157";"";"";"-2.5364079";"103.2897437";"https://maps.google.com/?cid=0x0:0xa97894afa1b03eef";""
"toko bangunan";"Toko Bahan Bangunan";"Toko bangunan Amira jaya";"83MC+69H, Mandi Angin, Kec. Rawas Ilir, Kab. Musi Rawas Utara, Sumatera Selatan 31658";"Mandi Angin, Kec. Rawas Ilir, Kab. Musi Rawas Utara";"SUMATERA SELATAN";"31658";"Indonesia";" 082180069268";"";"";"-2.6667497";"103.0704008";"https://maps.google.com/?cid=0x0:0x15cc47edcc180824";""
"toko bangunan";"Toko Perlengkapan Rumah";"Depo Material Bangunan AA Lubuk Kemang";"9R2F+542, Lubuk Kemang, Kec. Rawas Ulu, Kab. Musi Rawas Utara, Sumatera Selatan 31654";"Lubuk Kemang, Kec. Rawas Ulu, Kab. Musi Rawas Utara";"SUMATERA SELATAN";"31654";"Indonesia";" 081221998585";"";"";"-2.6496124";"102.8227621";"https://maps.google.com/?cid=0x0:0x1c404e7cec72b7d3";""
"toko bangunan";"Toko Bahan Bangunan";"Toko Taufik bangunan";"Jl. Lintas Utama Sumatera No.Utara, Karang Jaya, Kec. Karang Jaya, Kabupaten Musi Rawas, Sumatera Selatan 31654";"Karang Jaya, Kec. Karang Jaya, Kabupaten Musi Rawas";"SUMATERA SELATAN";"31654";"Indonesia";" 082280089850";"";"";"-2.8726338";"102.7879808";"https://maps.google.com/?cid=0x0:0x8a188eb746296a00";""
"toko bangunan";"Toko Bahan Bangunan";"TB.MURA BANGUNAN";"Jl.Raya Tugumulyo No.517, Tanah Periuk I, Kec. Muara Beliti, Kabupaten Musi Rawas, Sumatera Selatan 31661";"Tanah Periuk I, Kec. Muara Beliti, Kabupaten Musi Rawas";"SUMATERA SELATAN";"31661";"Indonesia";" 085215231699";"";"";"-3.262838";"102.9368035";"https://maps.google.com/?cid=0x0:0xdcc766ad82d2a0cc";""
"toko bangunan";"Toko Bahan Bangunan";"Toko 988";"RXC9+9W9, Jl. H. Zainal Abidin Ning, Sidoharjo, Kec. Tugumulyo, Kabupaten Musi Rawas, Sumatera Selatan 31661";"Jl. H. Zainal Abidin Ning, Sidoharjo, Kec. Tugumulyo, Kabupaten Musi Rawas";"SUMATERA SELATAN";"31661";"Indonesia";" 085266259995";"";"";"-3.1790989";"102.96987";"https://maps.google.com/?cid=0x0:0x2f33701898e1306b";""
"toko bangunan";"Toko Bahan Bangunan";"TOKO BANGUNAN KITO";"Terusan, Kec. Karang Jaya, Kab. Musi Rawas Utara, Sumatera Selatan";"Kab. Musi Rawas Utara, Sumatera Selatan";"SUMATERA SELATAN";"";"Indonesia";" 082175641331";"";"";"-2.8938248";"102.7559921";"https://maps.google.com/?cid=0x0:0x2ffcc30b146d310e";""
"toko bangunan";"Toko Bahan Bangunan";"Toko Bangunan Soember Redjeki";"Lawang Agung, Kec. Rupit, Kab. Musi Rawas Utara, Sumatera Selatan";"Kab. Musi Rawas Utara, Sumatera Selatan";"SUMATERA SELATAN";"";"Indonesia";"";"";"";"-2.7122776";"102.9109964";"https://maps.google.com/?cid=0x0:0x9247b6346ab8484";""
"toko bangunan";"Toko Swalayan";"TOKO BANGUNAN";"WX98+6RP, Sumber Sari, Kec. Sumber Harta, Kabupaten Musi Rawas, Sumatera Selatan 31662";"Sumber Sari, Kec. Sumber Harta, Kabupaten Musi Rawas";"SUMATERA SELATAN";"31662";"Indonesia";"";"";"";"-3.0818474";"102.9683397";"https://maps.google.com/?cid=0x0:0xe6cae0dbc581ac19";""
"toko bangunan";"Minimarket";"Toko bangunan pak kadus";"56J2+8FP, Pelita Jaya, Kec. Muara Lakitan, Kabupaten Musi Rawas, Sumatera Selatan";"Kabupaten Musi Rawas, Sumatera Selatan";"SUMATERA SELATAN";"";"Indonesia";"";"";"";"-2.8191664";"103.2012129";"https://maps.google.com/?cid=0x0:0xc87e4d1a242fd2ea";""
"toko bangunan";"Toko grosir";"Toko bangunan sinar jaya";"Simpang Nibung, Kec. Singkut, Kab. Musi Rawas Utara, Sumatera Selatan 31667";"Kec. Singkut, Kab. Musi Rawas Utara";"SUMATERA SELATAN";"31667";"Indonesia";" 085279233339";"";"";"-2.5635793";"102.7289933";"https://maps.google.com/?cid=0x0:0xfe6b68ed8726a0";""
"toko bangunan";"Toko Bahan Bangunan";"TB YUDA";"Jl. Syahri Wahab No.13, Megang Sakti I, Kec. Megang Sakti, Kabupaten Musi Rawas, Sumatera Selatan 31661";"Megang Sakti I, Kec. Megang Sakti, Kabupaten Musi Rawas";"SUMATERA SELATAN";"31661";"Indonesia";"";"";"";"-3.0244799";"103.0206026";"https://maps.google.com/?cid=0x0:0xa102865b16295970";""
"toko bangunan";"Kantor Perusahaan";"Batu Bata Percetakan";"4XVW+VPW, Karang Dapo I, Karang Dapo, Kab. Musi Rawas Utara, Sumatera Selatan 31657";"Karang Dapo I, Karang Dapo, Kab. Musi Rawas Utara";"SUMATERA SELATAN";"31657";"Indonesia";" 082177393266";"";"";"-2.855263";"102.996826";"https://maps.google.com/?cid=0x0:0x4c72715fe759e79";""
"toko bangunan";"Toko Bahan Bangunan";"Toko Bangunan Saudi";"3XQQ+3PW, Unnamed Road, Jajaran Baru II, Kec. Megang Sakti, Kabupaten Musi Rawas, Sumatera Selatan 31657";"Unnamed Road, Jajaran Baru II, Kec. Megang Sakti, Kabupaten Musi Rawas";"SUMATERA SELATAN";"31657";"Indonesia";"";"";"";"-2.9122683";"102.9893403";"https://maps.google.com/?cid=0x0:0x45afd3572fc1e885";""
"toko bangunan";"Toko Bahan Bangunan";"Toko Bangunan Ateng Jaya";"RWVM+J5W, Suko Rejo, Suku Tengah Lakitan Ulu, Kabupaten Musi Rawas, Sumatera Selatan 31662";"Suko Rejo, Suku Tengah Lakitan Ulu, Kabupaten Musi Rawas";"SUMATERA SELATAN";"31662";"Indonesia";"";"";"";"-3.1558988";"102.9329376";"https://maps.google.com/?cid=0x0:0xfe75f72ada326fea";""
"toko bangunan";"Pasar";"Pasar Kalangan Desa Biaro Baru";"72X8+Q69, Pasar Biaro Baru, Dusun 6 No. 435, Biaro Baru, Karang Dapo, Kab. Musi Rawas Utara, Sumatera Selatan 31658";"Pasar Biaro Baru, Dusun 6 No. 435, Biaro Baru, Karang Dapo, Kab. Musi Rawas Utara";"SUMATERA SELATAN";"31658";"Indonesia";"";"";"";"-2.7010607";"103.0151782";"https://maps.google.com/?cid=0x0:0xf7697e782c82ab6d";""
"toko bangunan";"Toko Bahan Bangunan";"Toko Bintara Bangunan";"Unnamed Road, Megang Sakti I, Kec. Megang Sakti, Kabupaten Musi Rawas, Sumatera Selatan 31661";"Megang Sakti I, Kec. Megang Sakti, Kabupaten Musi Rawas";"SUMATERA SELATAN";"31661";"Indonesia";" 082175418687";"";"";"-3.040453";"103.020987";"https://maps.google.com/?cid=0x0:0x768898a668dc9d23";""
"toko bangunan";"Toko Bahan Bangunan";"Toko Bangunan Makmur (TB. MAKMUR)";"Kelurahan Talangubi, Kec. Megang Sakti, Kabupaten Musi Rawas, Sumatera Selatan 31663";"Kec. Megang Sakti, Kabupaten Musi Rawas";"SUMATERA SELATAN";"31663";"Indonesia";" 081278888596";"";"";"-3.0392961";"103.0322734";"https://maps.google.com/?cid=0x0:0x58e462927237cd32";""
"toko bangunan";"Toko Bahan Bangunan";"TOKO KONTRUKSI";"7WG4+PWG, Muara Rupit, Kec. Rupit, Kab. Musi Rawas Utara, Sumatera Selatan 31654";"Muara Rupit, Kec. Rupit, Kab. Musi Rawas Utara";"SUMATERA SELATAN";"31654";"Indonesia";" 081298797827";"";"";"-2.7231911";"102.907313";"https://maps.google.com/?cid=0x0:0x250dfbcefde1508e";""
"toko bangunan";"Toko bahan makanan";"Toko Bangunan Zahra";"GQ4W+JGQ, Unnamed Road, Tlk. Gelam,, Penyandingan, Kec. Tlk. Gelam, Kabupaten Ogan Komering Ilir, Sumatera Selatan 30673";"Unnamed Road, Tlk. Gelam,, Penyandingan, Kec. Tlk. Gelam, Kabupaten Ogan Komering Ilir";"SUMATERA SELATAN";"30673";"Indonesia";" 081317555366";"";"";"-3.4934134";"104.7963453";"https://maps.google.com/?cid=0x0:0x98ec6b42c493df8b";""
"toko bangunan";"Toko Perlengkapan Rumah";"ADIGUNA TILE by permata group";"7W94+577, Muara Rupit, Kec. Rupit, Kabupaten Musi Rawas, Sumatera Selatan 31654";"Muara Rupit, Kec. Rupit, Kabupaten Musi Rawas";"SUMATERA SELATAN";"31654";"Indonesia";" 081367125790";"";"";"-2.7320805";"102.905676";"https://maps.google.com/?cid=0x0:0x14d6bb6c87ba26de";""
"toko bangunan";"Toko Bahan Bangunan";"Toko Bangunan Darman LD";"Lawang Agung, Kec. Rupit, Kab. Musi Rawas Utara, Sumatera Selatan 31654";"Kec. Rupit, Kab. Musi Rawas Utara";"SUMATERA SELATAN";"31654";"Indonesia";"";"";"";"-2.7155175";"102.910601";"https://maps.google.com/?cid=0x0:0x21a83d122e8115ad";""
"toko bangunan";"Toko Bahan Bangunan";"Tb sampurna";"94P6+VV7, Beringin Makmur II, Kec. Rawas Ilir, Kabupaten Musi Rawas, Sumatera Selatan 31655";"Beringin Makmur II, Kec. Rawas Ilir, Kabupaten Musi Rawas";"SUMATERA SELATAN";"31655";"Indonesia";"";"";"";"-2.6128251";"103.1121568";"https://maps.google.com/?cid=0x0:0x5817759f27e1d4aa";""
"toko bangunan";"toko bangunan";"Toko Sam Material";"Dusun II, 31672, Karang Dapo I, Karang Dapo, Kabupaten Musi Rawas, Sumatera Selatan 31657";"31672, Karang Dapo I, Karang Dapo, Kabupaten Musi Rawas";"SUMATERA SELATAN";"31657";"Indonesia";" 082182345771";"";"";"-2.855263";"102.996826";"https://maps.google.com/?cid=0x0:0x72dbf43a8ab80e4";""
"toko bangunan";"toko bangunan";"Sumatera Selatan 31654";"Kabupaten Musi Rawas, Sumatera Selatan";"Kabupaten Musi Rawas, Sumatera Selatan";"SUMATERA SELATAN";"";"Indonesia";"";"";"";"-2.8261883";"102.7594847";"https://maps.google.com/?cid=0x0:0xc4e1d96ef2cee976";""
"toko bangunan";"Toko Bahan Bangunan";"TOKO BANGUNAN KITO";"Terusan, Kec. Karang Jaya, Kab. Musi Rawas Utara, Sumatera Selatan";"Kab. Musi Rawas Utara, Sumatera Selatan";"SUMATERA SELATAN";"";"Indonesia";" 082175641331";"";"";"-2.8938248";"102.7559921";"https://maps.google.com/?cid=0x0:0x2ffcc30b146d310e";""
"toko bangunan";"Toko Bahan Bangunan";"Toko Taufik bangunan";"Jl. Lintas Utama Sumatera No.Utara, Karang Jaya, Kec. Karang Jaya, Kabupaten Musi Rawas, Sumatera Selatan 31654";"Karang Jaya, Kec. Karang Jaya, Kabupaten Musi Rawas";"SUMATERA SELATAN";"31654";"Indonesia";" 082280089850";"";"";"-2.8726338";"102.7879808";"https://maps.google.com/?cid=0x0:0x8a188eb746296a00";""
"toko bangunan";"Toko Bahan Bangunan";"TOKO BANGUNAN TIWA";"Jalan Nangka Belanda, Dusun V, Lawang Agung, Kec. Rupit, Kab. Musi Rawas Utara, Sumatera Selatan 31654";"Dusun V, Lawang Agung, Kec. Rupit, Kab. Musi Rawas Utara";"SUMATERA SELATAN";"31654";"Indonesia";" 081274406225";"";"";"-2.7140813";"102.9116705";"https://maps.google.com/?cid=0x0:0xf297bdc22ec84b7d";""
"toko bangunan";"Toko grosir";"Toko bangunan sinar jaya";"Simpang Nibung, Kec. Singkut, Kab. Musi Rawas Utara, Sumatera Selatan 31667";"Kec. Singkut, Kab. Musi Rawas Utara";"SUMATERA SELATAN";"31667";"Indonesia";" 085279233339";"";"";"-2.5635793";"102.7289933";"https://maps.google.com/?cid=0x0:0xfe6b68ed8726a0";""
"toko bangunan";"Toko Bahan Bangunan";"DIMAS BANGUNAN";"Tj. Agung, Kec. Karang Jaya, Kab. Musi Rawas Utara, Sumatera Selatan 31654";"Kec. Karang Jaya, Kab. Musi Rawas Utara";"SUMATERA SELATAN";"31654";"Indonesia";" 085213814175";"";"";"-2.9104387";"102.6520181";"https://maps.google.com/?cid=0x0:0x976430cfa8263f5e";""
"toko bangunan";"Lembaga Agama";"Batu akik";"Karang Jaya, Kec. Karang Jaya, Kab. Musi Rawas Utara, Sumatera Selatan 31654";"Kec. Karang Jaya, Kab. Musi Rawas Utara";"SUMATERA SELATAN";"31654";"Indonesia";" 08576905365";"";"";"-2.8672684";"102.783535";"https://maps.google.com/?cid=0x0:0x81ffde36e2be7fe3";""
"toko bangunan";"Toko Bahan Bangunan";"Depo Bangunan Hari Hari";"Jl. Lintas Utama Sumatera, RT.19/RW.5, Bukit Tigo, Kec. Singkut, Jambi, 37482";"RT.19/RW.5, Bukit Tigo, Kec. Singkut";"SUMATERA SELATAN";"37482";"Indonesia";" 081381111741";"";"";"-2.5090313";"102.7129795";"https://maps.google.com/?cid=0x0:0x7306b0a09c9e7b0f";""
"toko bangunan";"Toko Bahan Bangunan";"Toko Bangunan Soember Redjeki";"Lawang Agung, Kec. Rupit, Kab. Musi Rawas Utara, Sumatera Selatan";"Kab. Musi Rawas Utara, Sumatera Selatan";"SUMATERA SELATAN";"";"Indonesia";"";"";"";"-2.7122776";"102.9109964";"https://maps.google.com/?cid=0x0:0x9247b6346ab8484";""
"toko bangunan";"Toko Bahan Bangunan";"Toko bangunan Zhafran";"3Q8C+M9Q, Terusan, Kec. Karang Jaya, Kabupaten Musi Rawas, Sumatera Selatan";"Kabupaten Musi Rawas, Sumatera Selatan";"SUMATERA SELATAN";"";"Indonesia";"";"";"";"-2.933293";"102.7709807";"https://maps.google.com/?cid=0x0:0xe15969af5c0611bb";""
"toko bangunan";"Toko Bahan Bangunan";"TB. CAHAYA SUKSES BAJA";"Jl. Lintas Utama Sumatera, Embacang Baru, Kec. Karang Jaya, Kab. Musi Rawas Utara, Sumatera Selatan 31654";"Embacang Baru, Kec. Karang Jaya, Kab. Musi Rawas Utara";"SUMATERA SELATAN";"31654";"Indonesia";" 082181323699";"";"";"-2.8469847";"102.8154202";"https://maps.google.com/?cid=0x0:0xac59cfb10448f0e2";""
"toko bangunan";"Toko Bahan Bangunan";"Toko Bintara Bangunan";"Unnamed Road, Megang Sakti I, Kec. Megang Sakti, Kabupaten Musi Rawas, Sumatera Selatan 31661";"Megang Sakti I, Kec. Megang Sakti, Kabupaten Musi Rawas";"SUMATERA SELATAN";"31661";"Indonesia";" 082175418687";"";"";"-3.040453";"103.020987";"https://maps.google.com/?cid=0x0:0x768898a668dc9d23";""
"toko bangunan";"Toko Bahan Bangunan";"TOKO KONTRUKSI";"7WG4+PWG, Muara Rupit, Kec. Rupit, Kab. Musi Rawas Utara, Sumatera Selatan 31654";"Muara Rupit, Kec. Rupit, Kab. Musi Rawas Utara";"SUMATERA SELATAN";"31654";"Indonesia";" 081298797827";"";"";"-2.7231911";"102.907313";"https://maps.google.com/?cid=0x0:0x250dfbcefde1508e";""
"toko bangunan";"Toko Bahan Bangunan";"Toko Bangunan Darman LD";"Lawang Agung, Kec. Rupit, Kab. Musi Rawas Utara, Sumatera Selatan 31654";"Kec. Rupit, Kab. Musi Rawas Utara";"SUMATERA SELATAN";"31654";"Indonesia";"";"";"";"-2.7155175";"102.910601";"https://maps.google.com/?cid=0x0:0x21a83d122e8115ad";""
"toko bangunan";"Toko Bahan Bangunan";"Toko bangunan adi jaya";"2QPG+F2J, Jl. Lintas Utama Sumatera, Rantau Jaya, Kec. Karang Jaya, Kab. Musi Rawas Utara, Sumatera Selatan 30771";"Jl. Lintas Utama Sumatera, Rantau Jaya, Kec. Karang Jaya, Kab. Musi Rawas Utara";"SUMATERA SELATAN";"30771";"Indonesia";"";"";"";"-2.9637944";"102.7750266";"https://maps.google.com/?cid=0x0:0x7d2cd8cee0a4df2c";""
"toko bangunan";"Toko Bahan Bangunan";"Tb. Sumber Baru Bangunan";"Bukit Tigo, Kec. Singkut, Kabupaten Sarolangun, Jambi";"Kabupaten Sarolangun, Jambi";"SUMATERA SELATAN";"";"Indonesia";" 082140456132";"";"";"-2.4973033";"102.7122825";"https://maps.google.com/?cid=0x0:0x999e41711480e939";""
"toko bangunan";"Toko";"Toko asyer";"5R9M+WM9, Tj. Beringin, Kec. Rupit, Kab. Musi Rawas Utara, Sumatera Selatan 31654";"Tj. Beringin, Kec. Rupit, Kab. Musi Rawas Utara";"SUMATERA SELATAN";"31654";"Indonesia";"";"";"";"-2.83022";"102.8342284";"https://maps.google.com/?cid=0x0:0x1e79f7ce7fab34e7";""
"toko bangunan";"Toko Swalayan";"TOKO BANGUNAN";"WX98+6RP, Sumber Sari, Kec. Sumber Harta, Kabupaten Musi Rawas, Sumatera Selatan 31662";"Sumber Sari, Kec. Sumber Harta, Kabupaten Musi Rawas";"SUMATERA SELATAN";"31662";"Indonesia";"";"";"";"-3.0818474";"102.9683397";"https://maps.google.com/?cid=0x0:0xe6cae0dbc581ac19";""
"toko bangunan";"Toko Bahan Bangunan";"TB Sahabat Lama";"Bukit Tigo, Kec. Singkut, Kabupaten Sarolangun, Jambi 37482";"Kec. Singkut, Kabupaten Sarolangun";"SUMATERA SELATAN";"37482";"Indonesia";"";"";"";"-2.50403";"102.7117664";"https://maps.google.com/?cid=0x0:0x93a35214822ff3d2";""
"toko bangunan";"Toko Bahan Bangunan";"Toko Indah Jaya Keramik(Singkut)";"FPV7+X62, Bukit Tigo, Kec. Singkut, Kabupaten Sarolangun, Jambi 37482";"Bukit Tigo, Kec. Singkut, Kabupaten Sarolangun";"SUMATERA SELATAN";"37482";"Indonesia";" 082181356299";"";"";"-2.5051168";"102.7130227";"https://maps.google.com/?cid=0x0:0x3294cfe3ad41fda0";""
"toko bangunan";"Toko Bahan Bangunan";"TB.MURA BANGUNAN";"Jl.Raya Tugumulyo No.517, Tanah Periuk I, Kec. Muara Beliti, Kabupaten Musi Rawas, Sumatera Selatan 31661";"Tanah Periuk I, Kec. Muara Beliti, Kabupaten Musi Rawas";"SUMATERA SELATAN";"31661";"Indonesia";" 085215231699";"";"";"-3.262838";"102.9368035";"https://maps.google.com/?cid=0x0:0xdcc766ad82d2a0cc";""
"toko bangunan";"Toko Bahan Bangunan";"Tb. Permata Jaya";"FPX7+334, Bukit Tigo, Kec. Singkut, Kabupaten Sarolangun, Jambi 37482";"Bukit Tigo, Kec. Singkut, Kabupaten Sarolangun";"SUMATERA SELATAN";"37482";"Indonesia";"";"";"";"-2.5023512";"102.7127084";"https://maps.google.com/?cid=0x0:0x98edae4f009f81b7";""
"toko bangunan";"Toko Bahan Bangunan";"TB. Berkah Jaya";"72X8+956, Jalan, Biaro Baru, Bingin Teluk, Kab. Musi Rawas Utara, Sumatera Selatan 31658";"Jalan, Biaro Baru, Bingin Teluk, Kab. Musi Rawas Utara";"SUMATERA SELATAN";"31658";"Indonesia";" 081271848191";"";"";"-2.701598";"103.015396";"https://maps.google.com/?cid=0x0:0x5a863eeb25bcfdb8";""
"toko bangunan";"Toko";"toko bahan bangunan karya jaya";"Sukajaya, kecamatan sumberharta, Kabupaten Musi Rawas, Sumatera Selatan 31653";"kecamatan sumberharta, Kabupaten Musi Rawas";"SUMATERA SELATAN";"31653";"Indonesia";" 083140941658";"";"";"-3.0520733";"102.9599267";"https://maps.google.com/?cid=0x0:0x7f88f95d607b7ee8";""
"toko bangunan";"Toko Bahan Bangunan";"Toko Bangunan Ateng Jaya";"RWVM+J5W, Suko Rejo, Suku Tengah Lakitan Ulu, Kabupaten Musi Rawas, Sumatera Selatan 31662";"Suko Rejo, Suku Tengah Lakitan Ulu, Kabupaten Musi Rawas";"SUMATERA SELATAN";"31662";"Indonesia";"";"";"";"-3.1558988";"102.9329376";"https://maps.google.com/?cid=0x0:0xfe75f72ada326fea";""
"toko bangunan";"Toko";"Toko Sahabat Jaya Family";"Jl. Lintas Utama Sumatera, Bukit Tigo, Kec. Singkut, Kabupaten Sarolangun, Jambi 47482";"Bukit Tigo, Kec. Singkut, Kabupaten Sarolangun";"SUMATERA SELATAN";"47482";"Indonesia";" 085366442525";"";"";"-2.4990507";"102.7127194";"https://maps.google.com/?cid=0x0:0x6fea1e0aa04311fb";""
"toko bangunan";"Toko Bahan Bangunan";"Depo Sahabat Keramik";"FPM7+6JP, Bukit Tigo, Kec. Singkut, Kabupaten Sarolangun, Jambi 37482";"Bukit Tigo, Kec. Singkut, Kabupaten Sarolangun";"SUMATERA SELATAN";"37482";"Indonesia";"";"";"";"-2.5169002";"102.7140649";"https://maps.google.com/?cid=0x0:0xee588bb318aa0fdf";""
"toko bangunan";"Toko";"toko bahan bangunan karya jaya";"Sukajaya, kecamatan sumberharta, Kabupaten Musi Rawas, Sumatera Selatan 31653";"kecamatan sumberharta, Kabupaten Musi Rawas";"SUMATERA SELATAN";"31653";"Indonesia";" 083140941658";"";"";"-3.0520733";"102.9599267";"https://maps.google.com/?cid=0x0:0x7f88f95d607b7ee8";""
"toko bangunan";"Toko Bahan Bangunan";"Toko Taufik bangunan";"Jl. Lintas Utama Sumatera No.Utara, Karang Jaya, Kec. Karang Jaya, Kabupaten Musi Rawas, Sumatera Selatan 31654";"Karang Jaya, Kec. Karang Jaya, Kabupaten Musi Rawas";"SUMATERA SELATAN";"31654";"Indonesia";" 082280089850";"";"";"-2.8726338";"102.7879808";"https://maps.google.com/?cid=0x0:0x8a188eb746296a00";""
"toko bangunan";"Toko Bahan Bangunan";"TB.MURA BANGUNAN";"Jl.Raya Tugumulyo No.517, Tanah Periuk I, Kec. Muara Beliti, Kabupaten Musi Rawas, Sumatera Selatan 31661";"Tanah Periuk I, Kec. Muara Beliti, Kabupaten Musi Rawas";"SUMATERA SELATAN";"31661";"Indonesia";" 085215231699";"";"";"-3.262838";"102.9368035";"https://maps.google.com/?cid=0x0:0xdcc766ad82d2a0cc";""
"toko bangunan";"Toko Bahan Bangunan";"Toko Bangunan Ateng Jaya";"RWVM+J5W, Suko Rejo, Suku Tengah Lakitan Ulu, Kabupaten Musi Rawas, Sumatera Selatan 31662";"Suko Rejo, Suku Tengah Lakitan Ulu, Kabupaten Musi Rawas";"SUMATERA SELATAN";"31662";"Indonesia";"";"";"";"-3.1558988";"102.9329376";"https://maps.google.com/?cid=0x0:0xfe75f72ada326fea";""
"toko bangunan";"Toko grosir";"Toko bangunan sinar jaya";"Simpang Nibung, Kec. Singkut, Kab. Musi Rawas Utara, Sumatera Selatan 31667";"Kec. Singkut, Kab. Musi Rawas Utara";"SUMATERA SELATAN";"31667";"Indonesia";" 085279233339";"";"";"-2.5635793";"102.7289933";"https://maps.google.com/?cid=0x0:0xfe6b68ed8726a0";""
"toko bangunan";"Toko Swalayan";"TOKO BANGUNAN";"WX98+6RP, Sumber Sari, Kec. Sumber Harta, Kabupaten Musi Rawas, Sumatera Selatan 31662";"Sumber Sari, Kec. Sumber Harta, Kabupaten Musi Rawas";"SUMATERA SELATAN";"31662";"Indonesia";"";"";"";"-3.0818474";"102.9683397";"https://maps.google.com/?cid=0x0:0xe6cae0dbc581ac19";""
"toko bangunan";"Toko Bahan Bangunan";"Toko bahan bangunan 998";"RW2W+V9F, Jl. Jend. Sudirman, Triwikaton, Kec. Tugumulyo, Kabupaten Musi Rawas, Sumatera Selatan 31662";"Jl. Jend. Sudirman, Triwikaton, Kec. Tugumulyo, Kabupaten Musi Rawas";"SUMATERA SELATAN";"31662";"Indonesia";"";"";"";"-3.1978223";"102.945928";"https://maps.google.com/?cid=0x0:0x136c63a7ba319f82";""
"toko bangunan";"Toko";"TOKO BANGUNAN "SUMBER ANUGERAH"";"RWVJ+MH4, Jl. Bukit Botak, Suko Rejo, Kec. Tugumulyo, Kabupaten Musi Rawas, Sumatera Selatan 31662";"Jl. Bukit Botak, Suko Rejo, Kec. Tugumulyo, Kabupaten Musi Rawas";"SUMATERA SELATAN";"31662";"Indonesia";" 082280599222";"";"";"-3.1558586";"102.9314567";"https://maps.google.com/?cid=0x0:0xe3638fd9fd7a5b80";""
"toko bangunan";"Toko Bahan Bangunan";"TB.HIDAKA";"Siti Harjo, Kec. Tugumulyo, Kabupaten Musi Rawas, Sumatera Selatan 31662";"Kec. Tugumulyo, Kabupaten Musi Rawas";"SUMATERA SELATAN";"31662";"Indonesia";" 085321752016";"";"";"-3.1457799";"102.9518601";"https://maps.google.com/?cid=0x0:0x7f96945f934052c3";""
"toko bangunan";"Toko Bahan Bangunan";"Toko bangunan adi jaya";"2QPG+F2J, Jl. Lintas Utama Sumatera, Rantau Jaya, Kec. Karang Jaya, Kab. Musi Rawas Utara, Sumatera Selatan 30771";"Jl. Lintas Utama Sumatera, Rantau Jaya, Kec. Karang Jaya, Kab. Musi Rawas Utara";"SUMATERA SELATAN";"30771";"Indonesia";"";"";"";"-2.9637944";"102.7750266";"https://maps.google.com/?cid=0x0:0x7d2cd8cee0a4df2c";""
"toko bangunan";"Toko Bahan Bangunan";"Toko bangunan Zhafran";"3Q8C+M9Q, Terusan, Kec. Karang Jaya, Kabupaten Musi Rawas, Sumatera Selatan";"Kabupaten Musi Rawas, Sumatera Selatan";"SUMATERA SELATAN";"";"Indonesia";"";"";"";"-2.933293";"102.7709807";"https://maps.google.com/?cid=0x0:0xe15969af5c0611bb";""
"toko bangunan";"Toko Bahan Bangunan";"Toko Bangunan Gemilang";"V47J+3GM, Lubuk Rumbai, Kec. Tuah Negeri, Kabupaten Musi Rawas, Sumatera Selatan 31663";"Lubuk Rumbai, Kec. Tuah Negeri, Kabupaten Musi Rawas";"SUMATERA SELATAN";"31663";"Indonesia";"";"";"";"-3.137278";"103.1312843";"https://maps.google.com/?cid=0x0:0x6374301cfad65404";""
"toko bangunan";"Toko Bahan Bangunan";"Toko bangunan Amira jaya";"83MC+69H, Mandi Angin, Kec. Rawas Ilir, Kab. Musi Rawas Utara, Sumatera Selatan 31658";"Mandi Angin, Kec. Rawas Ilir, Kab. Musi Rawas Utara";"SUMATERA SELATAN";"31658";"Indonesia";" 082180069268";"";"";"-2.6667497";"103.0704008";"https://maps.google.com/?cid=0x0:0x15cc47edcc180824";""
"toko bangunan";"Toko Bahan Bangunan";"TB. Berkah Jaya";"72X8+956, Jalan, Biaro Baru, Bingin Teluk, Kab. Musi Rawas Utara, Sumatera Selatan 31658";"Jalan, Biaro Baru, Bingin Teluk, Kab. Musi Rawas Utara";"SUMATERA SELATAN";"31658";"Indonesia";" 081271848191";"";"";"-2.701598";"103.015396";"https://maps.google.com/?cid=0x0:0x5a863eeb25bcfdb8";""
"toko bangunan";"Toko Bahan Bangunan";"Toko Bangunan Sidomulyo";"VXPC+989, Unnamed Road, Purwodadi, Kec. Purwodadi, Kabupaten Musi Rawas, Sumatera Selatan 31661";"Unnamed Road, Purwodadi, Kec. Purwodadi, Kabupaten Musi Rawas";"SUMATERA SELATAN";"31661";"Indonesia";" 085273200634";"";"";"-3.1140754";"102.9708711";"https://maps.google.com/?cid=0x0:0x684dda203b72fd5f";""
"toko bangunan";"Toko Bahan Bangunan";"TOKO BANGUNAN TIWA";"Jalan Nangka Belanda, Dusun V, Lawang Agung, Kec. Rupit, Kab. Musi Rawas Utara, Sumatera Selatan 31654";"Dusun V, Lawang Agung, Kec. Rupit, Kab. Musi Rawas Utara";"SUMATERA SELATAN";"31654";"Indonesia";" 081274406225";"";"";"-2.7140813";"102.9116705";"https://maps.google.com/?cid=0x0:0xf297bdc22ec84b7d";""
"toko bangunan";"Toko Bahan Bangunan";"TB. CAHAYA SUKSES BAJA";"Jl. Lintas Utama Sumatera, Embacang Baru, Kec. Karang Jaya, Kab. Musi Rawas Utara, Sumatera Selatan 31654";"Embacang Baru, Kec. Karang Jaya, Kab. Musi Rawas Utara";"SUMATERA SELATAN";"31654";"Indonesia";" 082181323699";"";"";"-2.8469847";"102.8154202";"https://maps.google.com/?cid=0x0:0xac59cfb10448f0e2";""
"toko bangunan";"Toko";"toko besi SJA";"VWRV+C92, Jl. Fatmawati, Sumber Harta, Kec. Sumber Harta, Kabupaten Musi Rawas, Sumatera Selatan 31662";"Jl. Fatmawati, Sumber Harta, Kec. Sumber Harta, Kabupaten Musi Rawas";"SUMATERA SELATAN";"31662";"Indonesia";"";"";"";"-3.1075509";"102.9422428";"https://maps.google.com/?cid=0x0:0xa34fc00875be20df";""
"toko bangunan";"Toko Perlengkapan Rumah";"Toko Bangunan FITRA";"M97C+P3R, Unnamed Road, Bangun Jaya, Kec. Bulang Tengah Suku Ulu, Kabupaten Musi Rawas, Sumatera Selatan 31652";"Unnamed Road, Bangun Jaya, Kec. Bulang Tengah Suku Ulu, Kabupaten Musi Rawas";"SUMATERA SELATAN";"31652";"Indonesia";"";"";"";"-3.3356284";"103.370127";"https://maps.google.com/?cid=0x0:0x25267f69df0b7a34";""
"toko bangunan";"Toko Bahan Bangunan";"TB KARANG JAYA ( Toko Material Bahan Bangunan )";"Jl. Masjid Hidayatullah No.1, RT.001/RW.001, Jaka Setia, Kec. Bekasi Sel., Kota Bks, Jawa Barat 17148";"RT.001/RW.001, Jaka Setia, Kec. Bekasi Sel., Kota Bks";"SUMATERA SELATAN";"17148";"Indonesia";" 0218216466";"";"";"-6.2739625";"106.9779906";"https://maps.google.com/?cid=0x0:0x4398b1712c11c279";""
"toko bangunan";"Toko Bahan Bangunan";"Toko Bangunan Andy Jaya (pekayon)";"Jl. Raya Pekayon No.17, RT.002/RW.021, Pekayon Jaya, Kec. Bekasi Sel., Kota Bks, Jawa Barat 17148";"RT.002/RW.021, Pekayon Jaya, Kec. Bekasi Sel., Kota Bks";"SUMATERA SELATAN";"17148";"Indonesia";" 0218200350";"";"";"-6.2637915";"106.9865299";"https://maps.google.com/?cid=0x0:0x1af96da7d81b5829";""
"toko bangunan";"toko bangunan";"Jawa Barat 46198";"Kabupaten Tasikmalaya, Jawa Barat";"Kabupaten Tasikmalaya, Jawa Barat";"SUMATERA SELATAN";"";"Indonesia";"";"";"";"-7.424011";"108.3682641";"https://maps.google.com/?cid=0x0:0x1c00c5eb568ee7e0";""
"toko bangunan";"toko bangunan";"N/A";"";"";"SUMATERA SELATAN";"";"Indonesia";" 085315030030";"";"";"-7.4276703";"108.1734586";"https://maps.google.com/?cid=0x0:0xed392d3baf984f43";""
"toko bangunan";"Toko Bahan Bangunan";"TB.Mukti Jaya";"Jl. Citamiang, Karanglayung, Kec. Karangjaya, Kabupaten Tasikmalaya, Jawa Barat 46198";"Karanglayung, Kec. Karangjaya, Kabupaten Tasikmalaya";"SUMATERA SELATAN";"46198";"Indonesia";" 081395036809";"";"";"-7.4212977";"108.3736196";"https://maps.google.com/?cid=0x0:0x277ec88e011325ca";""
"toko bangunan";"Toko Bahan Bangunan";"Tb. Putera Mandiri";"GC4F+RH4, Citalahab, Kec. Karangjaya, Kabupaten Tasikmalaya, Jawa Barat 46198";"Citalahab, Kec. Karangjaya, Kabupaten Tasikmalaya";"SUMATERA SELATAN";"46198";"Indonesia";" 085311656770";"";"";"-7.4929979";"108.4239551";"https://maps.google.com/?cid=0x0:0xa899cd6daef782dd";""
"toko bangunan";"Toko Bahan Bangunan";"Mulia Jaya Bangunan";"Jl. RTA. Prawira Adiningrat, Manonjaya, Kec. Manonjaya, Kabupaten Tasikmalaya, Jawa Barat";"Kabupaten Tasikmalaya, Jawa Barat";"SUMATERA SELATAN";"";"Indonesia";" 02657531817";"";"";"-7.3518602";"108.3130239";"https://maps.google.com/?cid=0x0:0xf47a95cb12d21961";""
"toko bangunan";"Toko Bahan Bangunan";"TB Makmur Jaya";"G44F+38G, Kp. Karanglenang, RT.001/RW.005, Cigunung, Kec. Parungponteng, Kabupaten Tasikmalaya, Jawa Barat 46185";"Kp. Karanglenang, RT.001/RW.005, Cigunung, Kec. Parungponteng, Kabupaten Tasikmalaya";"SUMATERA SELATAN";"46185";"Indonesia";" 085156279245";"";"";"-7.4948106";"108.1233372";"https://maps.google.com/?cid=0x0:0x3fdcdd22f0dfa767";""
"toko bangunan";"Toko Bahan Bangunan";"Toko Bangunan Sandy Jaya";"Dekat, Karangmulya, Kec. Jamanis, Kabupaten Tasikmalaya, Jawa Barat 46175";"Karangmulya, Kec. Jamanis, Kabupaten Tasikmalaya";"SUMATERA SELATAN";"46175";"Indonesia";" 082218071315";"";"";"-7.1816404";"108.1641116";"https://maps.google.com/?cid=0x0:0x585cb8d5806fee81";""
"toko bangunan";"Toko Bahan Bangunan";"TB ATIGA JAYA";"Cineam, Kec. Cineam, Kabupaten Tasikmalaya, Jawa Barat 46198";"Kec. Cineam, Kabupaten Tasikmalaya";"SUMATERA SELATAN";"46198";"Indonesia";"";"";"";"-7.4006845";"108.349594";"https://maps.google.com/?cid=0x0:0xd905824ca0db8866";""
"toko bangunan";"toko bangunan";"Sumatera Selatan 31667";"Kec. Nibung, Kab. Musi Rawas Utara, Sumatera Selatan";"Kab. Musi Rawas Utara, Sumatera Selatan";"SUMATERA SELATAN";"";"Indonesia";"";"";"";"-2.4365476";"102.9435536";"https://maps.google.com/?cid=0x0:0x51eee84d7db6be8b";""
"toko bangunan";"Toko Swalayan";"Toko Bangunan";"Hj. pain Pom mini jalan poros kec.nibung sp9 rt20 kab, Karya Makmur, Kec. Nibung, Kab. Musi Rawas Utara, Sumatera Selatan 31667";"Karya Makmur, Kec. Nibung, Kab. Musi Rawas Utara";"SUMATERA SELATAN";"31667";"Indonesia";" 085245808623";"";"";"-2.4995935";"102.9736566";"https://maps.google.com/?cid=0x0:0x5ad595f13cf3ede7";""
"toko bangunan";"Pusat Perbelanjaan";"TB Sahabat Kurnia (SUKIMIN)";"Unnamed Road, Bumi Makmur, Kec. Nibung, Kab. Musi Rawas Utara, Sumatera Selatan 31667";"Bumi Makmur, Kec. Nibung, Kab. Musi Rawas Utara";"SUMATERA SELATAN";"31667";"Indonesia";"";"";"";"-2.4746899";"103.0283887";"https://maps.google.com/?cid=0x0:0xf4591f0f69c11c55";""
"toko bangunan";"toko bangunan";"Sumatera Selatan 31655";"Kec. Rawas Ilir, Kabupaten Musi Rawas, Sumatera Selatan";"Kabupaten Musi Rawas, Sumatera Selatan";"SUMATERA SELATAN";"";"Indonesia";"";"";"";"-2.6657075";"103.2201828";"https://maps.google.com/?cid=0x0:0x9daabcd0688b6fb7";""
"toko bangunan";"Toko Bahan Bangunan";"Toko Istana Bangunan";"94V7+9G7, Unnamed Road, Beringin Makmur II, Kec. Rawas Ilir, Kab. Musi Rawas Utara, Sumatera Selatan 31655";"Unnamed Road, Beringin Makmur II, Kec. Rawas Ilir, Kab. Musi Rawas Utara";"SUMATERA SELATAN";"31655";"Indonesia";"";"";"";"-2.6065788";"103.1137877";"https://maps.google.com/?cid=0x0:0xe87952670048eed5";""
"toko bangunan";"Toko Bahan Bangunan";"Toko bangunan Jurman";"87VH+P9W, Pauh I, Kec. Rawas Ilir, Kab. Musi Rawas Utara, Sumatera Selatan 31655";"Pauh I, Kec. Rawas Ilir, Kab. Musi Rawas Utara";"SUMATERA SELATAN";"31655";"Indonesia";" 081279990023";"";"";"-2.6557544";"103.2785352";"https://maps.google.com/?cid=0x0:0xe59242b356a437f9";""
"toko bangunan";"Minimarket";"Toko bangunan pak kadus";"56J2+8FP, Pelita Jaya, Kec. Muara Lakitan, Kabupaten Musi Rawas, Sumatera Selatan";"Kabupaten Musi Rawas, Sumatera Selatan";"SUMATERA SELATAN";"";"Indonesia";"";"";"";"-2.8191664";"103.2012129";"https://maps.google.com/?cid=0x0:0xc87e4d1a242fd2ea";""
"toko bangunan";"Pusat Perbelanjaan";"TB Sahabat Kurnia (SUKIMIN)";"Unnamed Road, Bumi Makmur, Kec. Nibung, Kab. Musi Rawas Utara, Sumatera Selatan 31667";"Bumi Makmur, Kec. Nibung, Kab. Musi Rawas Utara";"SUMATERA SELATAN";"31667";"Indonesia";"";"";"";"-2.4746899";"103.0283887";"https://maps.google.com/?cid=0x0:0xf4591f0f69c11c55";""
"toko bangunan";"Toko Bahan Bangunan";"LAMBANGSARI GRUP";"54VC+8CX, Marga Baru, Kec. Muara Lakitan, Kabupaten Musi Rawas, Sumatera Selatan 31657";"Marga Baru, Kec. Muara Lakitan, Kabupaten Musi Rawas";"SUMATERA SELATAN";"31657";"Indonesia";"";"";"";"-2.8066284";"103.1211114";"https://maps.google.com/?cid=0x0:0x7d2b7cc998bde861";""
"toko bangunan";"Toko Bahan Bangunan";"Tb sampurna";"94P6+VV7, Beringin Makmur II, Kec. Rawas Ilir, Kabupaten Musi Rawas, Sumatera Selatan 31655";"Beringin Makmur II, Kec. Rawas Ilir, Kabupaten Musi Rawas";"SUMATERA SELATAN";"31655";"Indonesia";"";"";"";"-2.6128251";"103.1121568";"https://maps.google.com/?cid=0x0:0x5817759f27e1d4aa";""
"toko bangunan";"Toko Bahan Bangunan";"TB.BYR Sahabat Bangunan";"Pelita Jaya, Kec. Muara Lakitan, Kabupaten Musi Rawas, Sumatera Selatan";"Kabupaten Musi Rawas, Sumatera Selatan";"SUMATERA SELATAN";"";"Indonesia";" 085281964025";"";"";"-2.8130014";"103.1879611";"https://maps.google.com/?cid=0x0:0xc9943b255c5fa82a";""
"toko bangunan";"Toko Bahan Bangunan";"IDEAL GRUP";"Jl. Poros sp3 marga baru blok A2 KAB, Marga Baru, Kec. Muara Lakitan, Kabupaten Musi Rawas, Sumatera Selatan 31666";"Marga Baru, Kec. Muara Lakitan, Kabupaten Musi Rawas";"SUMATERA SELATAN";"31666";"Indonesia";"";"";"";"-2.8062524";"103.1235832";"https://maps.google.com/?cid=0x0:0x96101a4c6493338a";""
"toko bangunan";"Toko Swalayan";"TOKO BANGUNAN";"WX98+6RP, Sumber Sari, Kec. Sumber Harta, Kabupaten Musi Rawas, Sumatera Selatan 31662";"Sumber Sari, Kec. Sumber Harta, Kabupaten Musi Rawas";"SUMATERA SELATAN";"31662";"Indonesia";"";"";"";"-3.0818474";"102.9683397";"https://maps.google.com/?cid=0x0:0xe6cae0dbc581ac19";""
"toko bangunan";"Toko Bahan Bangunan";"Toko bangunan Amira jaya";"83MC+69H, Mandi Angin, Kec. Rawas Ilir, Kab. Musi Rawas Utara, Sumatera Selatan 31658";"Mandi Angin, Kec. Rawas Ilir, Kab. Musi Rawas Utara";"SUMATERA SELATAN";"31658";"Indonesia";" 082180069268";"";"";"-2.6667497";"103.0704008";"https://maps.google.com/?cid=0x0:0x15cc47edcc180824";""
"toko bangunan";"Toko";"TOKO BANGUNAN "SUMBER ANUGERAH"";"RWVJ+MH4, Jl. Bukit Botak, Suko Rejo, Kec. Tugumulyo, Kabupaten Musi Rawas, Sumatera Selatan 31662";"Jl. Bukit Botak, Suko Rejo, Kec. Tugumulyo, Kabupaten Musi Rawas";"SUMATERA SELATAN";"31662";"Indonesia";" 082280599222";"";"";"-3.1558586";"102.9314567";"https://maps.google.com/?cid=0x0:0xe3638fd9fd7a5b80";""
"toko bangunan";"Toko Bahan Bangunan";"Toko Bintara Bangunan";"Unnamed Road, Megang Sakti I, Kec. Megang Sakti, Kabupaten Musi Rawas, Sumatera Selatan 31661";"Megang Sakti I, Kec. Megang Sakti, Kabupaten Musi Rawas";"SUMATERA SELATAN";"31661";"Indonesia";" 082175418687";"";"";"-3.040453";"103.020987";"https://maps.google.com/?cid=0x0:0x768898a668dc9d23";""
"toko bangunan";"Toko Bahan Bangunan";"TOKO BANGUNAN TIWA";"Jalan Nangka Belanda, Dusun V, Lawang Agung, Kec. Rupit, Kab. Musi Rawas Utara, Sumatera Selatan 31654";"Dusun V, Lawang Agung, Kec. Rupit, Kab. Musi Rawas Utara";"SUMATERA SELATAN";"31654";"Indonesia";" 081274406225";"";"";"-2.7140813";"102.9116705";"https://maps.google.com/?cid=0x0:0xf297bdc22ec84b7d";""
"toko bangunan";"Toko Bahan Bangunan";"Toko Bangunan Joren";"J3X5+97, Muara Kati Baru I, Kec. Tiang Pumpung Kepungut, Kabupaten Musi Rawas, Sumatera Selatan";"Kabupaten Musi Rawas, Sumatera Selatan";"SUMATERA SELATAN";"";"Indonesia";" 081288615060";"";"";"-3.3517853";"103.0581596";"https://maps.google.com/?cid=0x0:0xc93b143a76a08ec6";""
"toko bangunan";"Toko Bahan Bangunan";"TB YUDA";"Jl. Syahri Wahab No.13, Megang Sakti I, Kec. Megang Sakti, Kabupaten Musi Rawas, Sumatera Selatan 31661";"Megang Sakti I, Kec. Megang Sakti, Kabupaten Musi Rawas";"SUMATERA SELATAN";"31661";"Indonesia";"";"";"";"-3.0244799";"103.0206026";"https://maps.google.com/?cid=0x0:0xa102865b16295970";""
"toko bangunan";"Toko Bahan Bangunan";"TB. Berkah Jaya";"72X8+956, Jalan, Biaro Baru, Bingin Teluk, Kab. Musi Rawas Utara, Sumatera Selatan 31658";"Jalan, Biaro Baru, Bingin Teluk, Kab. Musi Rawas Utara";"SUMATERA SELATAN";"31658";"Indonesia";" 081271848191";"";"";"-2.701598";"103.015396";"https://maps.google.com/?cid=0x0:0x5a863eeb25bcfdb8";""
"toko bangunan";"Toko Bahan Bangunan";"Toko etha bangunan";"J5GQ+G78, Kertosono, Kec. Jaya Loka, Kabupaten Musi Rawas, Sumatera Selatan 31665";"Kertosono, Kec. Jaya Loka, Kabupaten Musi Rawas";"SUMATERA SELATAN";"31665";"Indonesia";"";"";"";"-3.3736756";"103.1882836";"https://maps.google.com/?cid=0x0:0xa3be99c2273a1294";""
"toko bangunan";"Toko Bahan Bangunan";"Toko Bangunan Makmur (TB. MAKMUR)";"Kelurahan Talangubi, Kec. Megang Sakti, Kabupaten Musi Rawas, Sumatera Selatan 31663";"Kec. Megang Sakti, Kabupaten Musi Rawas";"SUMATERA SELATAN";"31663";"Indonesia";" 081278888596";"";"";"-3.0392961";"103.0322734";"https://maps.google.com/?cid=0x0:0x58e462927237cd32";""
"toko bangunan";"Toko Bahan Bangunan";"Toko bangunan Lestari";"X4HW+WHQ, Lubuk Tua, Kec. Muara Kelingi, Kabupaten Musi Rawas, Sumatera Selatan 31663";"Lubuk Tua, Kec. Muara Kelingi, Kabupaten Musi Rawas";"SUMATERA SELATAN";"31663";"Indonesia";"";"";"";"-3.0201615";"103.1464723";"https://maps.google.com/?cid=0x0:0x285e33688521aec2";""
"toko bangunan";"Toko Bahan Bangunan";"Tb.sumber Arto Moro";"Unnamed Road, 31626, Trikoyo, Kec. Tugumulyo, Kabupaten Musi Rawas, Sumatera Selatan 31626";"31626, Trikoyo, Kec. Tugumulyo, Kabupaten Musi Rawas";"SUMATERA SELATAN";"31626";"Indonesia";" 081328879628";"";"";"-3.1909448";"102.9464986";"https://maps.google.com/?cid=0x0:0xf9e62388fcccb005";""
"toko bangunan";"Minimarket";"Toko Dea Ila win";"55MR+M7M, Pelita Jaya, Kec. Muara Lakitan, Kabupaten Musi Rawas, Sumatera Selatan 31666";"Pelita Jaya, Kec. Muara Lakitan, Kabupaten Musi Rawas";"SUMATERA SELATAN";"31666";"Indonesia";"";"";"";"-2.8150916";"103.1902155";"https://maps.google.com/?cid=0x0:0x1d5bee13417ac2d8";""
"toko bangunan";"Toko Bahan Bangunan";"TB.MURA BANGUNAN";"Jl.Raya Tugumulyo No.517, Tanah Periuk I, Kec. Muara Beliti, Kabupaten Musi Rawas, Sumatera Selatan 31661";"Tanah Periuk I, Kec. Muara Beliti, Kabupaten Musi Rawas";"SUMATERA SELATAN";"31661";"Indonesia";" 085215231699";"";"";"-3.262838";"102.9368035";"https://maps.google.com/?cid=0x0:0xdcc766ad82d2a0cc";""
"toko bangunan";"toko bangunan";"Sumatera Selatan 31656";"Kabupaten Musi Rawas, Sumatera Selatan";"Kabupaten Musi Rawas, Sumatera Selatan";"SUMATERA SELATAN";"";"Indonesia";"";"";"";"-2.6716149";"102.6675575";"https://maps.google.com/?cid=0x0:0x829aeb46883c7ea6";""
"toko bangunan";"Toko Perlengkapan Rumah";"Depo Material Bangunan AA Lubuk Kemang";"9R2F+542, Lubuk Kemang, Kec. Rawas Ulu, Kab. Musi Rawas Utara, Sumatera Selatan 31654";"Lubuk Kemang, Kec. Rawas Ulu, Kab. Musi Rawas Utara";"SUMATERA SELATAN";"31654";"Indonesia";" 081221998585";"";"";"-2.6496124";"102.8227621";"https://maps.google.com/?cid=0x0:0x1c404e7cec72b7d3";""
"toko bangunan";"Toko grosir";"Toko bangunan sinar jaya";"Simpang Nibung, Kec. Singkut, Kab. Musi Rawas Utara, Sumatera Selatan 31667";"Kec. Singkut, Kab. Musi Rawas Utara";"SUMATERA SELATAN";"31667";"Indonesia";" 085279233339";"";"";"-2.5635793";"102.7289933";"https://maps.google.com/?cid=0x0:0xfe6b68ed8726a0";""
"toko bangunan";"Toko Bahan Bangunan";"Toko Bangunan Ateng Jaya";"RWVM+J5W, Suko Rejo, Suku Tengah Lakitan Ulu, Kabupaten Musi Rawas, Sumatera Selatan 31662";"Suko Rejo, Suku Tengah Lakitan Ulu, Kabupaten Musi Rawas";"SUMATERA SELATAN";"31662";"Indonesia";"";"";"";"-3.1558988";"102.9329376";"https://maps.google.com/?cid=0x0:0xfe75f72ada326fea";""
"toko bangunan";"Toko Bahan Bangunan";"Toko Bangunan ANDI Makmur";"F77Q+CVQ, Desa Ketapat Bening, Air Bening, Kec. Rawas Ilir, Kab. Musi Rawas Utara, Sumatera Selatan 41655";"Desa Ketapat Bening, Air Bening, Kec. Rawas Ilir, Kab. Musi Rawas Utara";"SUMATERA SELATAN";"41655";"Indonesia";" 081271972157";"";"";"-2.5364079";"103.2897437";"https://maps.google.com/?cid=0x0:0xa97894afa1b03eef";""
"toko bangunan";"Toko Bahan Bangunan";"Toko Bangunan Gemilang";"V47J+3GM, Lubuk Rumbai, Kec. Tuah Negeri, Kabupaten Musi Rawas, Sumatera Selatan 31663";"Lubuk Rumbai, Kec. Tuah Negeri, Kabupaten Musi Rawas";"SUMATERA SELATAN";"31663";"Indonesia";"";"";"";"-3.137278";"103.1312843";"https://maps.google.com/?cid=0x0:0x6374301cfad65404";""
"toko bangunan";"Toko";"TOKO BANGUNAN "SUMBER ANUGERAH"";"RWVJ+MH4, Jl. Bukit Botak, Suko Rejo, Kec. Tugumulyo, Kabupaten Musi Rawas, Sumatera Selatan 31662";"Jl. Bukit Botak, Suko Rejo, Kec. Tugumulyo, Kabupaten Musi Rawas";"SUMATERA SELATAN";"31662";"Indonesia";" 082280599222";"";"";"-3.1558586";"102.9314567";"https://maps.google.com/?cid=0x0:0xe3638fd9fd7a5b80";""
"toko bangunan";"Toko Perlengkapan Rumah";"JUAL BATA BESAR KOSGORO (DARTO)";"masuk dari sp.kosgoro lebih kurang 225 meter, Kosgoro, Suku Tengah Lakitan Ulu, Kabupaten Musi Rawas, Sumatera Selatan 78234";"Kosgoro, Suku Tengah Lakitan Ulu, Kabupaten Musi Rawas";"SUMATERA SELATAN";"78234";"Indonesia";" 085369114477";"";"";"-3.0146476";"102.8116122";"https://maps.google.com/?cid=0x0:0x12d9419e856007f";""
"toko bangunan";"Toko Bahan Bangunan";"Toko Taufik bangunan";"Jl. Lintas Utama Sumatera No.Utara, Karang Jaya, Kec. Karang Jaya, Kabupaten Musi Rawas, Sumatera Selatan 31654";"Karang Jaya, Kec. Karang Jaya, Kabupaten Musi Rawas";"SUMATERA SELATAN";"31654";"Indonesia";" 082280089850";"";"";"-2.8726338";"102.7879808";"https://maps.google.com/?cid=0x0:0x8a188eb746296a00";""
"toko bangunan";"Toko Bahan Bangunan";"Toko bangunan Lestari";"X4HW+WHQ, Lubuk Tua, Kec. Muara Kelingi, Kabupaten Musi Rawas, Sumatera Selatan 31663";"Lubuk Tua, Kec. Muara Kelingi, Kabupaten Musi Rawas";"SUMATERA SELATAN";"31663";"Indonesia";"";"";"";"-3.0201615";"103.1464723";"https://maps.google.com/?cid=0x0:0x285e33688521aec2";""
"toko bangunan";"Toko Bahan Bangunan";"Toko Istana Bangunan";"94V7+9G7, Unnamed Road, Beringin Makmur II, Kec. Rawas Ilir, Kab. Musi Rawas Utara, Sumatera Selatan 31655";"Unnamed Road, Beringin Makmur II, Kec. Rawas Ilir, Kab. Musi Rawas Utara";"SUMATERA SELATAN";"31655";"Indonesia";"";"";"";"-2.6065788";"103.1137877";"https://maps.google.com/?cid=0x0:0xe87952670048eed5";""
"toko bangunan";"Toko Bahan Bangunan";"TB YUDA";"Jl. Syahri Wahab No.13, Megang Sakti I, Kec. Megang Sakti, Kabupaten Musi Rawas, Sumatera Selatan 31661";"Megang Sakti I, Kec. Megang Sakti, Kabupaten Musi Rawas";"SUMATERA SELATAN";"31661";"Indonesia";"";"";"";"-3.0244799";"103.0206026";"https://maps.google.com/?cid=0x0:0xa102865b16295970";""
"toko bangunan";"Toko Bahan Bangunan";"Toko Bintara Bangunan";"Unnamed Road, Megang Sakti I, Kec. Megang Sakti, Kabupaten Musi Rawas, Sumatera Selatan 31661";"Megang Sakti I, Kec. Megang Sakti, Kabupaten Musi Rawas";"SUMATERA SELATAN";"31661";"Indonesia";" 082175418687";"";"";"-3.040453";"103.020987";"https://maps.google.com/?cid=0x0:0x768898a668dc9d23";""
"toko bangunan";"Toko Bahan Bangunan";"Musi Rawas Lestari Makmur";"R4W3+CX8, JL. Lintas Sumatera, Tuah Negeri, Musi Rawas, Petunang, Kec. Tuah Negeri, Kabupaten Musi Rawas, Sumatera Selatan 31663";"JL. Lintas Sumatera, Tuah Negeri, Musi Rawas, Petunang, Kec. Tuah Negeri, Kabupaten Musi Rawas";"SUMATERA SELATAN";"31663";"Indonesia";" 081366393029";"";"";"-3.153971";"103.10496";"https://maps.google.com/?cid=0x0:0xc5b88aff6e0a6405";""
"toko bangunan";"Toko Bahan Bangunan";"TB.HIDAKA";"Siti Harjo, Kec. Tugumulyo, Kabupaten Musi Rawas, Sumatera Selatan 31662";"Kec. Tugumulyo, Kabupaten Musi Rawas";"SUMATERA SELATAN";"31662";"Indonesia";" 085321752016";"";"";"-3.1457799";"102.9518601";"https://maps.google.com/?cid=0x0:0x7f96945f934052c3";""
"toko bangunan";"Toko Bahan Bangunan";"LAMBANGSARI GRUP";"54VC+8CX, Marga Baru, Kec. Muara Lakitan, Kabupaten Musi Rawas, Sumatera Selatan 31657";"Marga Baru, Kec. Muara Lakitan, Kabupaten Musi Rawas";"SUMATERA SELATAN";"31657";"Indonesia";"";"";"";"-2.8066284";"103.1211114";"https://maps.google.com/?cid=0x0:0x7d2b7cc998bde861";""
"toko bangunan";"Toko Bahan Bangunan";"Alumunium TIDAK AMANAH";"9RC4+3XM, Lesung Batu Muda, Kec. Rawas Ulu, Kab. Musi Rawas Utara, Sumatera Selatan 31654";"Lesung Batu Muda, Kec. Rawas Ulu, Kab. Musi Rawas Utara";"SUMATERA SELATAN";"31654";"Indonesia";"";"";"";"-2.6297757";"102.8074069";"https://maps.google.com/?cid=0x0:0x6677102cae3aa026";""
"toko bangunan";"Toko Bahan Bangunan";"Toko Bangunan Soember Redjeki";"Lawang Agung, Kec. Rupit, Kab. Musi Rawas Utara, Sumatera Selatan";"Kab. Musi Rawas Utara, Sumatera Selatan";"SUMATERA SELATAN";"";"Indonesia";"";"";"";"-2.7122776";"102.9109964";"https://maps.google.com/?cid=0x0:0x9247b6346ab8484";""
"toko bangunan";"Minimarket";"Toko bangunan pak kadus";"56J2+8FP, Pelita Jaya, Kec. Muara Lakitan, Kabupaten Musi Rawas, Sumatera Selatan";"Kabupaten Musi Rawas, Sumatera Selatan";"SUMATERA SELATAN";"";"Indonesia";"";"";"";"-2.8191664";"103.2012129";"https://maps.google.com/?cid=0x0:0xc87e4d1a242fd2ea";""
"toko bangunan";"Toko Bahan Bangunan";"TOKO BANGUNAN KITO";"Terusan, Kec. Karang Jaya, Kab. Musi Rawas Utara, Sumatera Selatan";"Kab. Musi Rawas Utara, Sumatera Selatan";"SUMATERA SELATAN";"";"Indonesia";" 082175641331";"";"";"-2.8938248";"102.7559921";"https://maps.google.com/?cid=0x0:0x2ffcc30b146d310e";""
"toko bangunan";"Toko Bahan Bangunan";"TB.MURA BANGUNAN";"Jl.Raya Tugumulyo No.517, Tanah Periuk I, Kec. Muara Beliti, Kabupaten Musi Rawas, Sumatera Selatan 31661";"Tanah Periuk I, Kec. Muara Beliti, Kabupaten Musi Rawas";"SUMATERA SELATAN";"31661";"Indonesia";" 085215231699";"";"";"-3.262838";"102.9368035";"https://maps.google.com/?cid=0x0:0xdcc766ad82d2a0cc";""
"toko bangunan";"Toko";"Toko Bangunan Prayoga Jaya";"Jln lintas pali, Bangun Jaya, Kec. Bulang Tengah Suku Ulu, Kabupaten Musi Rawas, Sumatera Selatan 31652";"Bangun Jaya, Kec. Bulang Tengah Suku Ulu, Kabupaten Musi Rawas";"SUMATERA SELATAN";"31652";"Indonesia";" 082371746473";"";"";"-3.3509023";"103.3718704";"https://maps.google.com/?cid=0x0:0x9d6d753a3dd6995f";""
"toko bangunan";"Toko Swalayan";"TOKO BANGUNAN";"WX98+6RP, Sumber Sari, Kec. Sumber Harta, Kabupaten Musi Rawas, Sumatera Selatan 31662";"Sumber Sari, Kec. Sumber Harta, Kabupaten Musi Rawas";"SUMATERA SELATAN";"31662";"Indonesia";"";"";"";"-3.0818474";"102.9683397";"https://maps.google.com/?cid=0x0:0xe6cae0dbc581ac19";""
"toko bangunan";"Toko Bahan Bangunan";"Toko 988";"RXC9+9W9, Jl. H. Zainal Abidin Ning, Sidoharjo, Kec. Tugumulyo, Kabupaten Musi Rawas, Sumatera Selatan 31661";"Jl. H. Zainal Abidin Ning, Sidoharjo, Kec. Tugumulyo, Kabupaten Musi Rawas";"SUMATERA SELATAN";"31661";"Indonesia";" 085266259995";"";"";"-3.1790989";"102.96987";"https://maps.google.com/?cid=0x0:0x2f33701898e1306b";""
"toko bangunan";"Toko Bahan Bangunan";"Tb.sumber Arto Moro";"Unnamed Road, 31626, Trikoyo, Kec. Tugumulyo, Kabupaten Musi Rawas, Sumatera Selatan 31626";"31626, Trikoyo, Kec. Tugumulyo, Kabupaten Musi Rawas";"SUMATERA SELATAN";"31626";"Indonesia";" 081328879628";"";"";"-3.1909448";"102.9464986";"https://maps.google.com/?cid=0x0:0xf9e62388fcccb005";""
"toko bangunan";"toko bangunan";"TB icel";"Jl. Jenderal Sudirman No.271, Ps. Surulangun, Kec. Rawas Ulu, Kab. Musi Rawas Utara, Sumatera Selatan 31656";"Ps. Surulangun, Kec. Rawas Ulu, Kab. Musi Rawas Utara";"SUMATERA SELATAN";"31656";"Indonesia";"";"";"";"-2.6246255";"102.7618582";"https://maps.google.com/?cid=0x0:0x47807abb56b52c33";""
"toko bangunan";"toko bangunan";"Kec. Rupit";"Kab. Musi Rawas Utara, Sumatera Selatan";"Kab. Musi Rawas Utara, Sumatera Selatan";"SUMATERA SELATAN";"";"Indonesia";"";"";"";"-2.7205772";"102.9116717";"https://maps.google.com/?cid=0x0:0xa822b6d74806cc91";""
"toko bangunan";"Toko Bahan Bangunan";"TOKO BANGUNAN TIWA";"Jalan Nangka Belanda, Dusun V, Lawang Agung, Kec. Rupit, Kab. Musi Rawas Utara, Sumatera Selatan 31654";"Dusun V, Lawang Agung, Kec. Rupit, Kab. Musi Rawas Utara";"SUMATERA SELATAN";"31654";"Indonesia";" 081274406225";"";"";"-2.7140813";"102.9116705";"https://maps.google.com/?cid=0x0:0xf297bdc22ec84b7d";""
"toko bangunan";"Toko Bahan Bangunan";"TOKO KONTRUKSI";"7WG4+PWG, Muara Rupit, Kec. Rupit, Kab. Musi Rawas Utara, Sumatera Selatan 31654";"Muara Rupit, Kec. Rupit, Kab. Musi Rawas Utara";"SUMATERA SELATAN";"31654";"Indonesia";" 081298797827";"";"";"-2.7231911";"102.907313";"https://maps.google.com/?cid=0x0:0x250dfbcefde1508e";""
"toko bangunan";"Toko";"Toko asyer";"5R9M+WM9, Tj. Beringin, Kec. Rupit, Kab. Musi Rawas Utara, Sumatera Selatan 31654";"Tj. Beringin, Kec. Rupit, Kab. Musi Rawas Utara";"SUMATERA SELATAN";"31654";"Indonesia";"";"";"";"-2.83022";"102.8342284";"https://maps.google.com/?cid=0x0:0x1e79f7ce7fab34e7";""
"toko bangunan";"Toko Bahan Bangunan";"Toko Bangunan Soember Redjeki";"Lawang Agung, Kec. Rupit, Kab. Musi Rawas Utara, Sumatera Selatan";"Kab. Musi Rawas Utara, Sumatera Selatan";"SUMATERA SELATAN";"";"Indonesia";"";"";"";"-2.7122776";"102.9109964";"https://maps.google.com/?cid=0x0:0x9247b6346ab8484";""
"toko bangunan";"Toko Perlengkapan Rumah";"ADIGUNA TILE by permata group";"7W94+577, Muara Rupit, Kec. Rupit, Kabupaten Musi Rawas, Sumatera Selatan 31654";"Muara Rupit, Kec. Rupit, Kabupaten Musi Rawas";"SUMATERA SELATAN";"31654";"Indonesia";" 081367125790";"";"";"-2.7320805";"102.905676";"https://maps.google.com/?cid=0x0:0x14d6bb6c87ba26de";""
"toko bangunan";"Toko Bahan Bangunan";"Toko Taufik bangunan";"Jl. Lintas Utama Sumatera No.Utara, Karang Jaya, Kec. Karang Jaya, Kabupaten Musi Rawas, Sumatera Selatan 31654";"Karang Jaya, Kec. Karang Jaya, Kabupaten Musi Rawas";"SUMATERA SELATAN";"31654";"Indonesia";" 082280089850";"";"";"-2.8726338";"102.7879808";"https://maps.google.com/?cid=0x0:0x8a188eb746296a00";""
"toko bangunan";"Toko Perlengkapan Rumah";"Depo Material Bangunan AA Lubuk Kemang";"9R2F+542, Lubuk Kemang, Kec. Rawas Ulu, Kab. Musi Rawas Utara, Sumatera Selatan 31654";"Lubuk Kemang, Kec. Rawas Ulu, Kab. Musi Rawas Utara";"SUMATERA SELATAN";"31654";"Indonesia";" 081221998585";"";"";"-2.6496124";"102.8227621";"https://maps.google.com/?cid=0x0:0x1c404e7cec72b7d3";""
"toko bangunan";"Toko Bahan Bangunan";"TB. CAHAYA SUKSES BAJA";"Jl. Lintas Utama Sumatera, Embacang Baru, Kec. Karang Jaya, Kab. Musi Rawas Utara, Sumatera Selatan 31654";"Embacang Baru, Kec. Karang Jaya, Kab. Musi Rawas Utara";"SUMATERA SELATAN";"31654";"Indonesia";" 082181323699";"";"";"-2.8469847";"102.8154202";"https://maps.google.com/?cid=0x0:0xac59cfb10448f0e2";""
"toko bangunan";"Toko Bahan Bangunan";"Jual CINCIN SUMUR DAN GORONG GORONG JALAN CEK YAN";"7V3P+RGC, Beringin Jaya, Kec. Rupit, Kab. Musi Rawas Utara, Sumatera Selatan 31654";"Beringin Jaya, Kec. Rupit, Kab. Musi Rawas Utara";"SUMATERA SELATAN";"31654";"Indonesia";"";"";"";"-2.7454296";"102.886279";"https://maps.google.com/?cid=0x0:0x597e1b7c4210d68b";""
"toko bangunan";"toko bangunan";"Sumatera Selatan 31669";"Kab. Musi Rawas Utara, Sumatera Selatan";"Kab. Musi Rawas Utara, Sumatera Selatan";"SUMATERA SELATAN";"";"Indonesia";"";"";"";"-2.7917254";"102.3463875";"https://maps.google.com/?cid=0x0:0x98db126b92af20bb";""
"toko bangunan";"Toko Bahan Bangunan";"Toko Taufik bangunan";"Jl. Lintas Utama Sumatera No.Utara, Karang Jaya, Kec. Karang Jaya, Kabupaten Musi Rawas, Sumatera Selatan 31654";"Karang Jaya, Kec. Karang Jaya, Kabupaten Musi Rawas";"SUMATERA SELATAN";"31654";"Indonesia";" 082280089850";"";"";"-2.8726338";"102.7879808";"https://maps.google.com/?cid=0x0:0x8a188eb746296a00";""
"toko bangunan";"Toko Bahan Bangunan";"Toko Bangunan Ateng Jaya";"RWVM+J5W, Suko Rejo, Suku Tengah Lakitan Ulu, Kabupaten Musi Rawas, Sumatera Selatan 31662";"Suko Rejo, Suku Tengah Lakitan Ulu, Kabupaten Musi Rawas";"SUMATERA SELATAN";"31662";"Indonesia";"";"";"";"-3.1558988";"102.9329376";"https://maps.google.com/?cid=0x0:0xfe75f72ada326fea";""
"toko bangunan";"Toko Bahan Bangunan";"Toko bangunan Lestari";"X4HW+WHQ, Lubuk Tua, Kec. Muara Kelingi, Kabupaten Musi Rawas, Sumatera Selatan 31663";"Lubuk Tua, Kec. Muara Kelingi, Kabupaten Musi Rawas";"SUMATERA SELATAN";"31663";"Indonesia";"";"";"";"-3.0201615";"103.1464723";"https://maps.google.com/?cid=0x0:0x285e33688521aec2";""
"toko bangunan";"Toko grosir";"Toko bangunan sinar jaya";"Simpang Nibung, Kec. Singkut, Kab. Musi Rawas Utara, Sumatera Selatan 31667";"Kec. Singkut, Kab. Musi Rawas Utara";"SUMATERA SELATAN";"31667";"Indonesia";" 085279233339";"";"";"-2.5635793";"102.7289933";"https://maps.google.com/?cid=0x0:0xfe6b68ed8726a0";""
"toko bangunan";"Toko Bahan Bangunan";"Toko Bangunan Gemilang";"V47J+3GM, Lubuk Rumbai, Kec. Tuah Negeri, Kabupaten Musi Rawas, Sumatera Selatan 31663";"Lubuk Rumbai, Kec. Tuah Negeri, Kabupaten Musi Rawas";"SUMATERA SELATAN";"31663";"Indonesia";"";"";"";"-3.137278";"103.1312843";"https://maps.google.com/?cid=0x0:0x6374301cfad65404";""
"toko bangunan";"Toko Bahan Bangunan";"Toko Istana Bangunan";"94V7+9G7, Unnamed Road, Beringin Makmur II, Kec. Rawas Ilir, Kab. Musi Rawas Utara, Sumatera Selatan 31655";"Unnamed Road, Beringin Makmur II, Kec. Rawas Ilir, Kab. Musi Rawas Utara";"SUMATERA SELATAN";"31655";"Indonesia";"";"";"";"-2.6065788";"103.1137877";"https://maps.google.com/?cid=0x0:0xe87952670048eed5";""
"toko bangunan";"Toko Bahan Bangunan";"TOKO BANGUNAN KITO";"Terusan, Kec. Karang Jaya, Kab. Musi Rawas Utara, Sumatera Selatan";"Kab. Musi Rawas Utara, Sumatera Selatan";"SUMATERA SELATAN";"";"Indonesia";" 082175641331";"";"";"-2.8938248";"102.7559921";"https://maps.google.com/?cid=0x0:0x2ffcc30b146d310e";""
"toko bangunan";"Toko Bahan Bangunan";"TOKO BANGUNAN TIWA";"Jalan Nangka Belanda, Dusun V, Lawang Agung, Kec. Rupit, Kab. Musi Rawas Utara, Sumatera Selatan 31654";"Dusun V, Lawang Agung, Kec. Rupit, Kab. Musi Rawas Utara";"SUMATERA SELATAN";"31654";"Indonesia";" 081274406225";"";"";"-2.7140813";"102.9116705";"https://maps.google.com/?cid=0x0:0xf297bdc22ec84b7d";""
"toko bangunan";"Toko Bahan Bangunan";"Toko Bintara Bangunan";"Unnamed Road, Megang Sakti I, Kec. Megang Sakti, Kabupaten Musi Rawas, Sumatera Selatan 31661";"Megang Sakti I, Kec. Megang Sakti, Kabupaten Musi Rawas";"SUMATERA SELATAN";"31661";"Indonesia";" 082175418687";"";"";"-3.040453";"103.020987";"https://maps.google.com/?cid=0x0:0x768898a668dc9d23";""
"toko bangunan";"Toko Bahan Bangunan";"Toko bangunan taher";"V6M4+8Q3, Sungai Gerong, Kec. Amen, Kabupaten Lebong, Bengkulu 39264";"Sungai Gerong, Kec. Amen, Kabupaten Lebong";"SUMATERA SELATAN";"39264";"Indonesia";"";"";"";"-3.1167497";"102.2069133";"https://maps.google.com/?cid=0x0:0xdf5c3f971d7bf0e7";""
"toko bangunan";"Toko Bahan Bangunan";"Toko Bangunan Sidomulyo";"VXPC+989, Unnamed Road, Purwodadi, Kec. Purwodadi, Kabupaten Musi Rawas, Sumatera Selatan 31661";"Unnamed Road, Purwodadi, Kec. Purwodadi, Kabupaten Musi Rawas";"SUMATERA SELATAN";"31661";"Indonesia";" 085273200634";"";"";"-3.1140754";"102.9708711";"https://maps.google.com/?cid=0x0:0x684dda203b72fd5f";""
"toko bangunan";"Toko Bahan Bangunan";"Toko bangunan A2R";"V773+RCC, Magelang Baru, Kec. Lebong Sakti, Kabupaten Lebong, Bengkulu 39264";"Magelang Baru, Kec. Lebong Sakti, Kabupaten Lebong";"SUMATERA SELATAN";"39264";"Indonesia";"";"";"";"-3.1354418";"102.2535231";"https://maps.google.com/?cid=0x0:0xa85d0765ea9ef062";""
"toko bangunan";"Toko Bahan Bangunan";"Toko Bangunan Tito";"Q8HH+FJ3, Tes, Kec. Lebong Sel., Kabupaten Lebong, Bengkulu 39262";"Tes, Kec. Lebong Sel., Kabupaten Lebong";"SUMATERA SELATAN";"39262";"Indonesia";"";"";"";"-3.2213749";"102.3290463";"https://maps.google.com/?cid=0x0:0x7dd5a01195a8854d";""
"toko bangunan";"Toko Bahan Bangunan";"DIMAS BANGUNAN";"Tj. Agung, Kec. Karang Jaya, Kab. Musi Rawas Utara, Sumatera Selatan 31654";"Kec. Karang Jaya, Kab. Musi Rawas Utara";"SUMATERA SELATAN";"31654";"Indonesia";" 085213814175";"";"";"-2.9104387";"102.6520181";"https://maps.google.com/?cid=0x0:0x976430cfa8263f5e";""
"toko bangunan";"Toko Bahan Bangunan";"Depo Bangunan Hari Hari";"Jl. Lintas Utama Sumatera, RT.19/RW.5, Bukit Tigo, Kec. Singkut, Jambi, 37482";"RT.19/RW.5, Bukit Tigo, Kec. Singkut";"SUMATERA SELATAN";"37482";"Indonesia";" 081381111741";"";"";"-2.5090313";"102.7129795";"https://maps.google.com/?cid=0x0:0x7306b0a09c9e7b0f";""
"toko bangunan";"Toko bahan makanan";"Toko Bangunan Zahra";"GQ4W+JGQ, Unnamed Road, Tlk. Gelam,, Penyandingan, Kec. Tlk. Gelam, Kabupaten Ogan Komering Ilir, Sumatera Selatan 30673";"Unnamed Road, Tlk. Gelam,, Penyandingan, Kec. Tlk. Gelam, Kabupaten Ogan Komering Ilir";"SUMATERA SELATAN";"30673";"Indonesia";" 081317555366";"";"";"-3.4934134";"104.7963453";"https://maps.google.com/?cid=0x0:0x98ec6b42c493df8b";""
"toko bangunan";"Toko Bahan Bangunan";"Toko bangunan adi jaya";"2QPG+F2J, Jl. Lintas Utama Sumatera, Rantau Jaya, Kec. Karang Jaya, Kab. Musi Rawas Utara, Sumatera Selatan 30771";"Jl. Lintas Utama Sumatera, Rantau Jaya, Kec. Karang Jaya, Kab. Musi Rawas Utara";"SUMATERA SELATAN";"30771";"Indonesia";"";"";"";"-2.9637944";"102.7750266";"https://maps.google.com/?cid=0x0:0x7d2cd8cee0a4df2c";""
"toko bangunan";"Toko Bahan Bangunan";"PT. Musi Rawas Jayatama";"Jl. Lintas Tengah Sumatera No.Km. 46, Bukit Ulu, Kec. Karang Jaya, Kab. Musi Rawas Utara, Sumatera Selatan 30771";"Bukit Ulu, Kec. Karang Jaya, Kab. Musi Rawas Utara";"SUMATERA SELATAN";"30771";"Indonesia";" 0714323209";"";"";"-3.006127";"102.7190355";"https://maps.google.com/?cid=0x0:0x22adb0720cbe3203";""
"toko bangunan";"Toko Bahan Bangunan";"Toko Bangunan Makmur (TB. MAKMUR)";"Kelurahan Talangubi, Kec. Megang Sakti, Kabupaten Musi Rawas, Sumatera Selatan 31663";"Kec. Megang Sakti, Kabupaten Musi Rawas";"SUMATERA SELATAN";"31663";"Indonesia";" 081278888596";"";"";"-3.0392961";"103.0322734";"https://maps.google.com/?cid=0x0:0x58e462927237cd32";""
"toko bangunan";"Toko Bahan Bangunan";"Toko etha bangunan";"J5GQ+G78, Kertosono, Kec. Jaya Loka, Kabupaten Musi Rawas, Sumatera Selatan 31665";"Kertosono, Kec. Jaya Loka, Kabupaten Musi Rawas";"SUMATERA SELATAN";"31665";"Indonesia";"";"";"";"-3.3736756";"103.1882836";"https://maps.google.com/?cid=0x0:0xa3be99c2273a1294";""
"toko bangunan";"Toko Bahan Bangunan";"Toko bahan bangunan 998";"RW2W+V9F, Jl. Jend. Sudirman, Triwikaton, Kec. Tugumulyo, Kabupaten Musi Rawas, Sumatera Selatan 31662";"Jl. Jend. Sudirman, Triwikaton, Kec. Tugumulyo, Kabupaten Musi Rawas";"SUMATERA SELATAN";"31662";"Indonesia";"";"";"";"-3.1978223";"102.945928";"https://maps.google.com/?cid=0x0:0x136c63a7ba319f82";""
"toko bangunan";"Toko Bahan Bangunan";"Toko Bangunan Anugrah Rantau";"Taba Tengah, Kec. Selangit, Kabupaten Musi Rawas, Sumatera Selatan";"Kabupaten Musi Rawas, Sumatera Selatan";"SUMATERA SELATAN";"";"Indonesia";"";"";"";"-3.1767404";"102.797721";"https://maps.google.com/?cid=0x0:0x1a5f3e4a9714a5ad";""
"toko bangunan";"Toko Bahan Bangunan";"Toko Bangunan Sahabat";"Jalan semalo Ogan, Selebar Jaya, Kec. Amen, Kabupaten Lebong, Bengkulu 39272";"Selebar Jaya, Kec. Amen, Kabupaten Lebong";"SUMATERA SELATAN";"39272";"Indonesia";" 081367648585";"";"";"-3.1108652";"102.2162353";"https://maps.google.com/?cid=0x0:0xfee9b927edfdff3a";""
"toko bangunan";"Toko Bahan Bangunan";"vat basuax";"V678+2X3, Nangau Tayau, Kec. Amen, Kabupaten Lebong, Bengkulu 39264";"Nangau Tayau, Kec. Amen, Kabupaten Lebong";"SUMATERA SELATAN";"39264";"Indonesia";" 085769901332";"";"";"-3.1374836";"102.2174069";"https://maps.google.com/?cid=0x0:0x63c0e0955474e8f4";""
"toko bangunan";"Toko Bahan Bangunan";"Toko bangunan ADE";"V72C+RM7, Ujung Tj. III, Kec. Lebong Sakti, Kabupaten Lebong, Bengkulu 39263";"Ujung Tj. III, Kec. Lebong Sakti, Kabupaten Lebong";"SUMATERA SELATAN";"39263";"Indonesia";"";"";"";"-3.1479708";"102.2716853";"https://maps.google.com/?cid=0x0:0xa5133965cf8c3ff3";""
"hardware store";"hardware store";"Sumatera Selatan 31658";"Karang Dapo, Kabupaten Musi Rawas, Sumatera Selatan";"Kabupaten Musi Rawas, Sumatera Selatan";"SUMATERA SELATAN";"";"Indonesia";"";"";"";"-2.7453255";"103.035694";"https://maps.google.com/?cid=0x0:0xe72620e1eb13dcdf";""
"hardware store";"Toko Bahan Bangunan";"Toko Istana Bangunan";"94V7+9G7, Unnamed Road, Beringin Makmur II, Kec. Rawas Ilir, Kab. Musi Rawas Utara, Sumatera Selatan 31655";"Unnamed Road, Beringin Makmur II, Kec. Rawas Ilir, Kab. Musi Rawas Utara";"SUMATERA SELATAN";"31655";"Indonesia";"";"";"";"-2.6065788";"103.1137877";"https://maps.google.com/?cid=0x0:0xe87952670048eed5";""
"hardware store";"Toko Bahan Bangunan";"TB. Berkah Jaya";"72X8+956, Jalan, Biaro Baru, Bingin Teluk, Kab. Musi Rawas Utara, Sumatera Selatan 31658";"Jalan, Biaro Baru, Bingin Teluk, Kab. Musi Rawas Utara";"SUMATERA SELATAN";"31658";"Indonesia";" 081271848191";"";"";"-2.701598";"103.015396";"https://maps.google.com/?cid=0x0:0x5a863eeb25bcfdb8";""
"hardware store";"Toko Alat Tulis";"Toko Foto Copy AR";"Dsn I, Beringin Makmur I, Kec.Rawas Ilir, Kabupaten Musi Rawas UtaraSumatera Selatan, 31655";"Beringin Makmur I, Kec.Rawas Ilir";"SUMATERA SELATAN";"31655";"Indonesia";" 085838071312";"";"";"-2.7246352";"103.1509672";"https://maps.google.com/?cid=0x0:0xb92d6cb787b4028f";""
"hardware store";"Toko Bahan Bangunan";"Toko Bangunan Saudi";"3XQQ+3PW, Unnamed Road, Jajaran Baru II, Kec. Megang Sakti, Kabupaten Musi Rawas, Sumatera Selatan 31657";"Unnamed Road, Jajaran Baru II, Kec. Megang Sakti, Kabupaten Musi Rawas";"SUMATERA SELATAN";"31657";"Indonesia";"";"";"";"-2.9122683";"102.9893403";"https://maps.google.com/?cid=0x0:0x45afd3572fc1e885";""
"hardware store";"Toko Bahan Bangunan";"TOKO KONTRUKSI";"7WG4+PWG, Muara Rupit, Kec. Rupit, Kab. Musi Rawas Utara, Sumatera Selatan 31654";"Muara Rupit, Kec. Rupit, Kab. Musi Rawas Utara";"SUMATERA SELATAN";"31654";"Indonesia";" 081298797827";"";"";"-2.7231911";"102.907313";"https://maps.google.com/?cid=0x0:0x250dfbcefde1508e";""
"hardware store";"Toko Fotokopi";"Ar photocopy";"ar photo copy, Bingin Tlk., Kec. Rawas Ilir, Kab. Musi Rawas Utara, Sumatera Selatan 31655";"Bingin Tlk., Kec. Rawas Ilir, Kab. Musi Rawas Utara";"SUMATERA SELATAN";"31655";"Indonesia";" 085788088887";"";"";"-2.6167382";"103.1134292";"https://maps.google.com/?cid=0x0:0x7cbb945352280831";""
"hardware store";"Toko Alat Tulis";"Fotocopy sary";"Sidomulyo, Kec. Muara Lakitan, Kabupaten Musi Rawas, Sumatera Selatan 31666";"Kec. Muara Lakitan, Kabupaten Musi Rawas";"SUMATERA SELATAN";"31666";"Indonesia";"";"";"";"-2.8066759";"103.1476143";"https://maps.google.com/?cid=0x0:0x440d1833b1157388";""
"hardware store";"Toko Bahan Bangunan";"Tb sampurna";"94P6+VV7, Beringin Makmur II, Kec. Rawas Ilir, Kabupaten Musi Rawas, Sumatera Selatan 31655";"Beringin Makmur II, Kec. Rawas Ilir, Kabupaten Musi Rawas";"SUMATERA SELATAN";"31655";"Indonesia";"";"";"";"-2.6128251";"103.1121568";"https://maps.google.com/?cid=0x0:0x5817759f27e1d4aa";""
"hardware store";"hardware store";"Toko Sam Material";"Dusun II, 31672, Karang Dapo I, Karang Dapo, Kabupaten Musi Rawas, Sumatera Selatan 31657";"31672, Karang Dapo I, Karang Dapo, Kabupaten Musi Rawas";"SUMATERA SELATAN";"31657";"Indonesia";" 082182345771";"";"";"-2.855263";"102.996826";"https://maps.google.com/?cid=0x0:0x72dbf43a8ab80e4";""
"hardware store";"Toko Perlengkapan Rumah";"Depo Material Bangunan AA Lubuk Kemang";"9R2F+542, Lubuk Kemang, Kec. Rawas Ulu, Kab. Musi Rawas Utara, Sumatera Selatan 31654";"Lubuk Kemang, Kec. Rawas Ulu, Kab. Musi Rawas Utara";"SUMATERA SELATAN";"31654";"Indonesia";" 081221998585";"";"";"-2.6496124";"102.8227621";"https://maps.google.com/?cid=0x0:0x1c404e7cec72b7d3";""
"hardware store";"Toko Bahan Bangunan";"TB. CAHAYA SUKSES BAJA";"Jl. Lintas Utama Sumatera, Embacang Baru, Kec. Karang Jaya, Kab. Musi Rawas Utara, Sumatera Selatan 31654";"Embacang Baru, Kec. Karang Jaya, Kab. Musi Rawas Utara";"SUMATERA SELATAN";"31654";"Indonesia";" 082181323699";"";"";"-2.8469847";"102.8154202";"https://maps.google.com/?cid=0x0:0xac59cfb10448f0e2";""
"hardware store";"hardware store";"Sumatera Selatan 31654";"Kabupaten Musi Rawas, Sumatera Selatan";"Kabupaten Musi Rawas, Sumatera Selatan";"SUMATERA SELATAN";"";"Indonesia";"";"";"";"-2.8261883";"102.7594847";"https://maps.google.com/?cid=0x0:0xc4e1d96ef2cee976";""
"hardware store";"Toko Bahan Bangunan";"TB. CAHAYA SUKSES BAJA";"Jl. Lintas Utama Sumatera, Embacang Baru, Kec. Karang Jaya, Kab. Musi Rawas Utara, Sumatera Selatan 31654";"Embacang Baru, Kec. Karang Jaya, Kab. Musi Rawas Utara";"SUMATERA SELATAN";"31654";"Indonesia";" 082181323699";"";"";"-2.8469847";"102.8154202";"https://maps.google.com/?cid=0x0:0xac59cfb10448f0e2";""
"hardware store";"Toko Bahan Bangunan";"Toko Taufik bangunan";"Jl. Lintas Utama Sumatera No.Utara, Karang Jaya, Kec. Karang Jaya, Kabupaten Musi Rawas, Sumatera Selatan 31654";"Karang Jaya, Kec. Karang Jaya, Kabupaten Musi Rawas";"SUMATERA SELATAN";"31654";"Indonesia";" 082280089850";"";"";"-2.8726338";"102.7879808";"https://maps.google.com/?cid=0x0:0x8a188eb746296a00";""
"hardware store";"Toko Perlengkapan Rumah";"Depo Material Bangunan AA Lubuk Kemang";"9R2F+542, Lubuk Kemang, Kec. Rawas Ulu, Kab. Musi Rawas Utara, Sumatera Selatan 31654";"Lubuk Kemang, Kec. Rawas Ulu, Kab. Musi Rawas Utara";"SUMATERA SELATAN";"31654";"Indonesia";" 081221998585";"";"";"-2.6496124";"102.8227621";"https://maps.google.com/?cid=0x0:0x1c404e7cec72b7d3";""
"hardware store";"Toko Bahan Bangunan";"Depo Bangunan Hari Hari";"Jl. Lintas Utama Sumatera, RT.19/RW.5, Bukit Tigo, Kec. Singkut, Jambi, 37482";"RT.19/RW.5, Bukit Tigo, Kec. Singkut";"SUMATERA SELATAN";"37482";"Indonesia";" 081381111741";"";"";"-2.5090313";"102.7129795";"https://maps.google.com/?cid=0x0:0x7306b0a09c9e7b0f";""
"hardware store";"Toko Bahan Bangunan";"TOKO BANGUNAN TIWA";"Jalan Nangka Belanda, Dusun V, Lawang Agung, Kec. Rupit, Kab. Musi Rawas Utara, Sumatera Selatan 31654";"Dusun V, Lawang Agung, Kec. Rupit, Kab. Musi Rawas Utara";"SUMATERA SELATAN";"31654";"Indonesia";" 081274406225";"";"";"-2.7140813";"102.9116705";"https://maps.google.com/?cid=0x0:0xf297bdc22ec84b7d";""
"hardware store";"Toko Perlengkapan Rumah";"JUAL BATA BESAR KOSGORO (DARTO)";"masuk dari sp.kosgoro lebih kurang 225 meter, Kosgoro, Suku Tengah Lakitan Ulu, Kabupaten Musi Rawas, Sumatera Selatan 78234";"Kosgoro, Suku Tengah Lakitan Ulu, Kabupaten Musi Rawas";"SUMATERA SELATAN";"78234";"Indonesia";" 085369114477";"";"";"-3.0146476";"102.8116122";"https://maps.google.com/?cid=0x0:0x12d9419e856007f";""
"hardware store";"Toko";"Toko Sahabat Jaya Family";"Jl. Lintas Utama Sumatera, Bukit Tigo, Kec. Singkut, Kabupaten Sarolangun, Jambi 47482";"Bukit Tigo, Kec. Singkut, Kabupaten Sarolangun";"SUMATERA SELATAN";"47482";"Indonesia";" 085366442525";"";"";"-2.4990507";"102.7127194";"https://maps.google.com/?cid=0x0:0x6fea1e0aa04311fb";""
"hardware store";"hardware store";"u_r2Z5nuBdOZ4-EP9uvAqAI"-,null,null,1,null,"https://www.google.com/maps/preview/place/TB.+Berkah+Mandiri/@-3.1007065,102.988237,3984a,13.1y/datau003d!4m2!3m1!1s0xa9f0b76508ad0ce1:0x27731b116988f06f";"";"";"SUMATERA SELATAN";"";"Indonesia";" 085266017242";"";"";"-3.1007065";"102.988237";"https://maps.google.com/?cid=0x0:0x27731b116988f06f";""
"hardware store";"Toko Bahan Bangunan";"TOKO KONTRUKSI";"7WG4+PWG, Muara Rupit, Kec. Rupit, Kab. Musi Rawas Utara, Sumatera Selatan 31654";"Muara Rupit, Kec. Rupit, Kab. Musi Rawas Utara";"SUMATERA SELATAN";"31654";"Indonesia";" 081298797827";"";"";"-2.7231911";"102.907313";"https://maps.google.com/?cid=0x0:0x250dfbcefde1508e";""
"hardware store";"Toko Bahan Bangunan";"Toko Taufik bangunan";"Jl. Lintas Utama Sumatera No.Utara, Karang Jaya, Kec. Karang Jaya, Kabupaten Musi Rawas, Sumatera Selatan 31654";"Karang Jaya, Kec. Karang Jaya, Kabupaten Musi Rawas";"SUMATERA SELATAN";"31654";"Indonesia";" 082280089850";"";"";"-2.8726338";"102.7879808";"https://maps.google.com/?cid=0x0:0x8a188eb746296a00";""
"hardware store";"Toko Bahan Bangunan";"TOKO BANGUNAN KITO";"Terusan, Kec. Karang Jaya, Kab. Musi Rawas Utara, Sumatera Selatan";"Kab. Musi Rawas Utara, Sumatera Selatan";"SUMATERA SELATAN";"";"Indonesia";" 082175641331";"";"";"-2.8938248";"102.7559921";"https://maps.google.com/?cid=0x0:0x2ffcc30b146d310e";""
"hardware store";"Toko Bahan Bangunan";"TB. CAHAYA SUKSES BAJA";"Jl. Lintas Utama Sumatera, Embacang Baru, Kec. Karang Jaya, Kab. Musi Rawas Utara, Sumatera Selatan 31654";"Embacang Baru, Kec. Karang Jaya, Kab. Musi Rawas Utara";"SUMATERA SELATAN";"31654";"Indonesia";" 082181323699";"";"";"-2.8469847";"102.8154202";"https://maps.google.com/?cid=0x0:0xac59cfb10448f0e2";""
"hardware store";"Pusat Perbelanjaan";"Toko Andi Jaya lake";"Jl. Lintas Utama Sumatera No.km 50, Rantau Jaya, Kec. Karang Jaya, Kab. Musi Rawas Utara, Sumatera Selatan 30771";"Rantau Jaya, Kec. Karang Jaya, Kab. Musi Rawas Utara";"SUMATERA SELATAN";"30771";"Indonesia";" 085382533391";"";"";"-2.9737962";"102.7801629";"https://maps.google.com/?cid=0x0:0x9297306e7bdce987";""
"hardware store";"Toko";"toko bahan bangunan karya jaya";"Sukajaya, kecamatan sumberharta, Kabupaten Musi Rawas, Sumatera Selatan 31653";"kecamatan sumberharta, Kabupaten Musi Rawas";"SUMATERA SELATAN";"31653";"Indonesia";" 083140941658";"";"";"-3.0520733";"102.9599267";"https://maps.google.com/?cid=0x0:0x7f88f95d607b7ee8";""
"hardware store";"Toko Bahan Bangunan";"TB.HIDAKA";"Siti Harjo, Kec. Tugumulyo, Kabupaten Musi Rawas, Sumatera Selatan 31662";"Kec. Tugumulyo, Kabupaten Musi Rawas";"SUMATERA SELATAN";"31662";"Indonesia";" 085321752016";"";"";"-3.1457799";"102.9518601";"https://maps.google.com/?cid=0x0:0x7f96945f934052c3";""
"hardware store";"hardware store";"3_r2Z_DPHpbKseMPydKc2Aw"-,null,null,1,null,"https://www.google.com/maps/preview/place/TB.+Berkah+Mandiri/@-3.1007065,102.988237,3984a,13.1y/datau003d!4m2!3m1!1s0xa9f0b76508ad0ce1:0x27731b116988f06f";"";"";"SUMATERA SELATAN";"";"Indonesia";" 085266017242";"";"";"-3.1007065";"102.988237";"https://maps.google.com/?cid=0x0:0x27731b116988f06f";""
"hardware store";"hardware store";"Kec. Karang Jaya";"Kab. Musi Rawas Utara, Sumatera Selatan";"Kab. Musi Rawas Utara, Sumatera Selatan";"SUMATERA SELATAN";"";"Indonesia";"";"";"";"-2.8708799";"102.7900419";"https://maps.google.com/?cid=0x0:0xaf463a35b81e796d";""
"hardware store";"Toko";"Toko Sahabat Jaya Family";"Jl. Lintas Utama Sumatera, Bukit Tigo, Kec. Singkut, Kabupaten Sarolangun, Jambi 47482";"Bukit Tigo, Kec. Singkut, Kabupaten Sarolangun";"SUMATERA SELATAN";"47482";"Indonesia";" 085366442525";"";"";"-2.4990507";"102.7127194";"https://maps.google.com/?cid=0x0:0x6fea1e0aa04311fb";""
"hardware store";"Toko Perlengkapan Rumah";"TB ARIES Sukamana";"XVJ5+9RV, Sukamana, Suku Tengah Lakitan Ulu, Kabupaten Musi Rawas, Sumatera Selatan 30771";"Sukamana, Suku Tengah Lakitan Ulu, Kabupaten Musi Rawas";"SUMATERA SELATAN";"30771";"Indonesia";"";"";"";"-3.0190101";"102.8595567";"https://maps.google.com/?cid=0x0:0x5011bdd23a67ef81";""
"hardware store";"Toko Perlengkapan Rumah";"AZKO - KARANG MULYA";"Jl. Raden Saleh No.19, Karang Mulya, Kec. Karang Tengah, Kota Tangerang, Banten 15157";"Karang Mulya, Kec. Karang Tengah, Kota Tangerang";"SUMATERA SELATAN";"15157";"Indonesia";" 08559998441";"";"";"-6.1997741";"106.7211634";"https://maps.google.com/?cid=0x0:0x56a670018d8740c4";""
"hardware store";"Toko Perlengkapan Rumah";"Azko - Ciledug";"Jl. HOS Cokroaminoto No.168, RT.001/RW.006, Kreo Selatan, Kec. Larangan, Kota Tangerang, Banten 15156";"RT.001/RW.006, Kreo Selatan, Kec. Larangan, Kota Tangerang";"SUMATERA SELATAN";"15156";"Indonesia";" 085716636801";"";"";"-6.2358872";"106.7419553";"https://maps.google.com/?cid=0x0:0x61eab056d6c73278";""
"hardware store";"hardware store";"Sumatera Selatan 31667";"Kec. Nibung, Kab. Musi Rawas Utara, Sumatera Selatan";"Kab. Musi Rawas Utara, Sumatera Selatan";"SUMATERA SELATAN";"";"Indonesia";"";"";"";"-2.4365476";"102.9435536";"https://maps.google.com/?cid=0x0:0x51eee84d7db6be8b";""
"hardware store";"Toko Swalayan";"Toko Bangunan";"Hj. pain Pom mini jalan poros kec.nibung sp9 rt20 kab, Karya Makmur, Kec. Nibung, Kab. Musi Rawas Utara, Sumatera Selatan 31667";"Karya Makmur, Kec. Nibung, Kab. Musi Rawas Utara";"SUMATERA SELATAN";"31667";"Indonesia";" 085245808623";"";"";"-2.4995935";"102.9736566";"https://maps.google.com/?cid=0x0:0x5ad595f13cf3ede7";""
"hardware store";"Toko Bahan Bangunan";"Toko Istana Bangunan";"94V7+9G7, Unnamed Road, Beringin Makmur II, Kec. Rawas Ilir, Kab. Musi Rawas Utara, Sumatera Selatan 31655";"Unnamed Road, Beringin Makmur II, Kec. Rawas Ilir, Kab. Musi Rawas Utara";"SUMATERA SELATAN";"31655";"Indonesia";"";"";"";"-2.6065788";"103.1137877";"https://maps.google.com/?cid=0x0:0xe87952670048eed5";""
"hardware store";"hardware store";"Sumatera Selatan 31655";"Kec. Rawas Ilir, Kabupaten Musi Rawas, Sumatera Selatan";"Kabupaten Musi Rawas, Sumatera Selatan";"SUMATERA SELATAN";"";"Indonesia";"";"";"";"-2.6657075";"103.2201828";"https://maps.google.com/?cid=0x0:0x9daabcd0688b6fb7";""
"hardware store";"Toko Bahan Bangunan";"Toko Istana Bangunan";"94V7+9G7, Unnamed Road, Beringin Makmur II, Kec. Rawas Ilir, Kab. Musi Rawas Utara, Sumatera Selatan 31655";"Unnamed Road, Beringin Makmur II, Kec. Rawas Ilir, Kab. Musi Rawas Utara";"SUMATERA SELATAN";"31655";"Indonesia";"";"";"";"-2.6065788";"103.1137877";"https://maps.google.com/?cid=0x0:0xe87952670048eed5";""
"hardware store";"Toko Bahan Bangunan";"TB.MURA BANGUNAN";"Jl.Raya Tugumulyo No.517, Tanah Periuk I, Kec. Muara Beliti, Kabupaten Musi Rawas, Sumatera Selatan 31661";"Tanah Periuk I, Kec. Muara Beliti, Kabupaten Musi Rawas";"SUMATERA SELATAN";"31661";"Indonesia";" 085215231699";"";"";"-3.262838";"102.9368035";"https://maps.google.com/?cid=0x0:0xdcc766ad82d2a0cc";""
"hardware store";"Toko Perlengkapan Rumah";"JUAL BATA BESAR KOSGORO (DARTO)";"masuk dari sp.kosgoro lebih kurang 225 meter, Kosgoro, Suku Tengah Lakitan Ulu, Kabupaten Musi Rawas, Sumatera Selatan 78234";"Kosgoro, Suku Tengah Lakitan Ulu, Kabupaten Musi Rawas";"SUMATERA SELATAN";"78234";"Indonesia";" 085369114477";"";"";"-3.0146476";"102.8116122";"https://maps.google.com/?cid=0x0:0x12d9419e856007f";""
"hardware store";"Toko Bahan Bangunan";"TB.HIDAKA";"Siti Harjo, Kec. Tugumulyo, Kabupaten Musi Rawas, Sumatera Selatan 31662";"Kec. Tugumulyo, Kabupaten Musi Rawas";"SUMATERA SELATAN";"31662";"Indonesia";" 085321752016";"";"";"-3.1457799";"102.9518601";"https://maps.google.com/?cid=0x0:0x7f96945f934052c3";""
"hardware store";"Toko Bahan Bangunan";"Toko bahan bangunan 998";"RW2W+V9F, Jl. Jend. Sudirman, Triwikaton, Kec. Tugumulyo, Kabupaten Musi Rawas, Sumatera Selatan 31662";"Jl. Jend. Sudirman, Triwikaton, Kec. Tugumulyo, Kabupaten Musi Rawas";"SUMATERA SELATAN";"31662";"Indonesia";"";"";"";"-3.1978223";"102.945928";"https://maps.google.com/?cid=0x0:0x136c63a7ba319f82";""
"hardware store";"Toko";"Toko Bangunan Prayoga Jaya";"Jln lintas pali, Bangun Jaya, Kec. Bulang Tengah Suku Ulu, Kabupaten Musi Rawas, Sumatera Selatan 31652";"Bangun Jaya, Kec. Bulang Tengah Suku Ulu, Kabupaten Musi Rawas";"SUMATERA SELATAN";"31652";"Indonesia";" 082371746473";"";"";"-3.3509023";"103.3718704";"https://maps.google.com/?cid=0x0:0x9d6d753a3dd6995f";""
"hardware store";"Toko Bahan Bangunan";"TB YUDA";"Jl. Syahri Wahab No.13, Megang Sakti I, Kec. Megang Sakti, Kabupaten Musi Rawas, Sumatera Selatan 31661";"Megang Sakti I, Kec. Megang Sakti, Kabupaten Musi Rawas";"SUMATERA SELATAN";"31661";"Indonesia";"";"";"";"-3.0244799";"103.0206026";"https://maps.google.com/?cid=0x0:0xa102865b16295970";""
"hardware store";"Toko Alat Tulis";"Toko Foto Copy AR";"Dsn I, Beringin Makmur I, Kec.Rawas Ilir, Kabupaten Musi Rawas UtaraSumatera Selatan, 31655";"Beringin Makmur I, Kec.Rawas Ilir";"SUMATERA SELATAN";"31655";"Indonesia";" 085838071312";"";"";"-2.7246352";"103.1509672";"https://maps.google.com/?cid=0x0:0xb92d6cb787b4028f";""
"hardware store";"Toko Bahan Bangunan";"TB. Berkah Jaya";"72X8+956, Jalan, Biaro Baru, Bingin Teluk, Kab. Musi Rawas Utara, Sumatera Selatan 31658";"Jalan, Biaro Baru, Bingin Teluk, Kab. Musi Rawas Utara";"SUMATERA SELATAN";"31658";"Indonesia";" 081271848191";"";"";"-2.701598";"103.015396";"https://maps.google.com/?cid=0x0:0x5a863eeb25bcfdb8";""
"hardware store";"Toko Bahan Bangunan";"PODOMORO MANDIRI MOTOR";"Jl Lintas Provinsi No.RT 10, Muara Lakitan, Kec. Muara Lakitan, Kabupaten Musi Rawas, Sumatera Selatan 31666";"Muara Lakitan, Kec. Muara Lakitan, Kabupaten Musi Rawas";"SUMATERA SELATAN";"31666";"Indonesia";" 082226832223";"";"";"-2.8638253";"103.3138339";"https://maps.google.com/?cid=0x0:0x1d58ff2845f7fe19";""
"hardware store";"Toko Perlengkapan Rumah";"Depo Material Bangunan AA Lubuk Kemang";"9R2F+542, Lubuk Kemang, Kec. Rawas Ulu, Kab. Musi Rawas Utara, Sumatera Selatan 31654";"Lubuk Kemang, Kec. Rawas Ulu, Kab. Musi Rawas Utara";"SUMATERA SELATAN";"31654";"Indonesia";" 081221998585";"";"";"-2.6496124";"102.8227621";"https://maps.google.com/?cid=0x0:0x1c404e7cec72b7d3";""
"hardware store";"Toko Fotokopi";"Ar photocopy";"ar photo copy, Bingin Tlk., Kec. Rawas Ilir, Kab. Musi Rawas Utara, Sumatera Selatan 31655";"Bingin Tlk., Kec. Rawas Ilir, Kab. Musi Rawas Utara";"SUMATERA SELATAN";"31655";"Indonesia";" 085788088887";"";"";"-2.6167382";"103.1134292";"https://maps.google.com/?cid=0x0:0x7cbb945352280831";""
"hardware store";"Toko Bahan Bangunan";"TB.BYR Sahabat Bangunan";"Pelita Jaya, Kec. Muara Lakitan, Kabupaten Musi Rawas, Sumatera Selatan";"Kabupaten Musi Rawas, Sumatera Selatan";"SUMATERA SELATAN";"";"Indonesia";" 085281964025";"";"";"-2.8130014";"103.1879611";"https://maps.google.com/?cid=0x0:0xc9943b255c5fa82a";""
"hardware store";"Toko Elektronik";"Toko BUMICell";"G2GJ+F3V, Bumi Makmur, Kec. Nibung, Kab. Musi Rawas Utara, Sumatera Selatan 31667";"Bumi Makmur, Kec. Nibung, Kab. Musi Rawas Utara";"SUMATERA SELATAN";"31667";"Indonesia";" 081368855888";"";"";"-2.4737658";"103.03017";"https://maps.google.com/?cid=0x0:0x5921d789433f8510";""
"hardware store";"Toko Bahan Bangunan";"TB. ROJIKAN JAYA";"Dusun 3, Tugu Sempurna, Kec. Muara Kelingi, Kabupaten Musi Rawas, Sumatera Selatan 31663";"Tugu Sempurna, Kec. Muara Kelingi, Kabupaten Musi Rawas";"SUMATERA SELATAN";"31663";"Indonesia";" 085284791639";"";"";"-2.9860988";"103.2077655";"https://maps.google.com/?cid=0x0:0x322677ad9977ea51";""
"hardware store";"Toko Alat Berkebun";"TOKO BANGUNAN PUTRI DEWA BUMI";"Jl. Kartini No.224, B. Srikaton, Kec. Tugumulyo, Kabupaten Musi Rawas, Sumatera Selatan 31626";"B. Srikaton, Kec. Tugumulyo, Kabupaten Musi Rawas";"SUMATERA SELATAN";"31626";"Indonesia";" 08137360801";"";"";"-3.2002489";"102.944579";"https://maps.google.com/?cid=0x0:0x962ee6ae4e1b4faa";""
"hardware store";"Toko Alat Tulis Kantor";"Toko Soesan Fotocopy";"Bingin Tlk., Kec. Rawas Ilir, Kabupaten Musi Rawas, Sumatera Selatan 31655";"Kec. Rawas Ilir, Kabupaten Musi Rawas";"SUMATERA SELATAN";"31655";"Indonesia";" 081278830866";"";"";"-2.6179336";"103.1103133";"https://maps.google.com/?cid=0x0:0x3879fed5784208fc";""
"hardware store";"Toko Bahan Bangunan";"TOKO BANGUNAN TIWA";"Jalan Nangka Belanda, Dusun V, Lawang Agung, Kec. Rupit, Kab. Musi Rawas Utara, Sumatera Selatan 31654";"Dusun V, Lawang Agung, Kec. Rupit, Kab. Musi Rawas Utara";"SUMATERA SELATAN";"31654";"Indonesia";" 081274406225";"";"";"-2.7140813";"102.9116705";"https://maps.google.com/?cid=0x0:0xf297bdc22ec84b7d";""
"hardware store";"Toko Alat Tulis";"Fotocopy sary";"Sidomulyo, Kec. Muara Lakitan, Kabupaten Musi Rawas, Sumatera Selatan 31666";"Kec. Muara Lakitan, Kabupaten Musi Rawas";"SUMATERA SELATAN";"31666";"Indonesia";"";"";"";"-2.8066759";"103.1476143";"https://maps.google.com/?cid=0x0:0x440d1833b1157388";""
"hardware store";"Toko Bahan Bangunan";"Tb sampurna";"94P6+VV7, Beringin Makmur II, Kec. Rawas Ilir, Kabupaten Musi Rawas, Sumatera Selatan 31655";"Beringin Makmur II, Kec. Rawas Ilir, Kabupaten Musi Rawas";"SUMATERA SELATAN";"31655";"Indonesia";"";"";"";"-2.6128251";"103.1121568";"https://maps.google.com/?cid=0x0:0x5817759f27e1d4aa";""
"hardware store";"hardware store";"Sumatera Selatan 31656";"Kabupaten Musi Rawas, Sumatera Selatan";"Kabupaten Musi Rawas, Sumatera Selatan";"SUMATERA SELATAN";"";"Indonesia";"";"";"";"-2.6716149";"102.6675575";"https://maps.google.com/?cid=0x0:0x829aeb46883c7ea6";""
"hardware store";"Toko Perlengkapan Rumah";"JUAL BATA BESAR KOSGORO (DARTO)";"masuk dari sp.kosgoro lebih kurang 225 meter, Kosgoro, Suku Tengah Lakitan Ulu, Kabupaten Musi Rawas, Sumatera Selatan 78234";"Kosgoro, Suku Tengah Lakitan Ulu, Kabupaten Musi Rawas";"SUMATERA SELATAN";"78234";"Indonesia";" 085369114477";"";"";"-3.0146476";"102.8116122";"https://maps.google.com/?cid=0x0:0x12d9419e856007f";""
"hardware store";"Toko Perlengkapan Rumah";"Depo Material Bangunan AA Lubuk Kemang";"9R2F+542, Lubuk Kemang, Kec. Rawas Ulu, Kab. Musi Rawas Utara, Sumatera Selatan 31654";"Lubuk Kemang, Kec. Rawas Ulu, Kab. Musi Rawas Utara";"SUMATERA SELATAN";"31654";"Indonesia";" 081221998585";"";"";"-2.6496124";"102.8227621";"https://maps.google.com/?cid=0x0:0x1c404e7cec72b7d3";""
"hardware store";"Toko Bahan Bangunan";"Toko Istana Bangunan";"94V7+9G7, Unnamed Road, Beringin Makmur II, Kec. Rawas Ilir, Kab. Musi Rawas Utara, Sumatera Selatan 31655";"Unnamed Road, Beringin Makmur II, Kec. Rawas Ilir, Kab. Musi Rawas Utara";"SUMATERA SELATAN";"31655";"Indonesia";"";"";"";"-2.6065788";"103.1137877";"https://maps.google.com/?cid=0x0:0xe87952670048eed5";""
"hardware store";"Toko Bahan Bangunan";"TB.HIDAKA";"Siti Harjo, Kec. Tugumulyo, Kabupaten Musi Rawas, Sumatera Selatan 31662";"Kec. Tugumulyo, Kabupaten Musi Rawas";"SUMATERA SELATAN";"31662";"Indonesia";" 085321752016";"";"";"-3.1457799";"102.9518601";"https://maps.google.com/?cid=0x0:0x7f96945f934052c3";""
"hardware store";"Toko Bahan Bangunan";"TB YUDA";"Jl. Syahri Wahab No.13, Megang Sakti I, Kec. Megang Sakti, Kabupaten Musi Rawas, Sumatera Selatan 31661";"Megang Sakti I, Kec. Megang Sakti, Kabupaten Musi Rawas";"SUMATERA SELATAN";"31661";"Indonesia";"";"";"";"-3.0244799";"103.0206026";"https://maps.google.com/?cid=0x0:0xa102865b16295970";""
"hardware store";"Toko Bahan Bangunan";"TB. ROJIKAN JAYA";"Dusun 3, Tugu Sempurna, Kec. Muara Kelingi, Kabupaten Musi Rawas, Sumatera Selatan 31663";"Tugu Sempurna, Kec. Muara Kelingi, Kabupaten Musi Rawas";"SUMATERA SELATAN";"31663";"Indonesia";" 085284791639";"";"";"-2.9860988";"103.2077655";"https://maps.google.com/?cid=0x0:0x322677ad9977ea51";""
"hardware store";"Toko Bahan Bangunan";"PODOMORO MANDIRI MOTOR";"Jl Lintas Provinsi No.RT 10, Muara Lakitan, Kec. Muara Lakitan, Kabupaten Musi Rawas, Sumatera Selatan 31666";"Muara Lakitan, Kec. Muara Lakitan, Kabupaten Musi Rawas";"SUMATERA SELATAN";"31666";"Indonesia";" 082226832223";"";"";"-2.8638253";"103.3138339";"https://maps.google.com/?cid=0x0:0x1d58ff2845f7fe19";""
"hardware store";"Toko Bahan Bangunan";"TOKO BANGUNAN TIWA";"Jalan Nangka Belanda, Dusun V, Lawang Agung, Kec. Rupit, Kab. Musi Rawas Utara, Sumatera Selatan 31654";"Dusun V, Lawang Agung, Kec. Rupit, Kab. Musi Rawas Utara";"SUMATERA SELATAN";"31654";"Indonesia";" 081274406225";"";"";"-2.7140813";"102.9116705";"https://maps.google.com/?cid=0x0:0xf297bdc22ec84b7d";""
"hardware store";"Toko Bahan Bangunan";"Depo Bangunan Hari Hari";"Jl. Lintas Utama Sumatera, RT.19/RW.5, Bukit Tigo, Kec. Singkut, Jambi, 37482";"RT.19/RW.5, Bukit Tigo, Kec. Singkut";"SUMATERA SELATAN";"37482";"Indonesia";" 081381111741";"";"";"-2.5090313";"102.7129795";"https://maps.google.com/?cid=0x0:0x7306b0a09c9e7b0f";""
"hardware store";"Toko Bahan Bangunan";"TB. CAHAYA SUKSES BAJA";"Jl. Lintas Utama Sumatera, Embacang Baru, Kec. Karang Jaya, Kab. Musi Rawas Utara, Sumatera Selatan 31654";"Embacang Baru, Kec. Karang Jaya, Kab. Musi Rawas Utara";"SUMATERA SELATAN";"31654";"Indonesia";" 082181323699";"";"";"-2.8469847";"102.8154202";"https://maps.google.com/?cid=0x0:0xac59cfb10448f0e2";""
"hardware store";"Toko";"TOKO TARI 800";"W644+2QX, Jl. Sekayu - Lubuk Linggau, Mandi Aur, Kec. Muara Kelingi, Kabupaten Musi Rawas, Sumatera Selatan 31663";"Jl. Sekayu - Lubuk Linggau, Mandi Aur, Kec. Muara Kelingi, Kabupaten Musi Rawas";"SUMATERA SELATAN";"31663";"Indonesia";" 081210316820";"";"";"-3.0946036";"103.2073642";"https://maps.google.com/?cid=0x0:0x2e2e2f2ad89fde30";""
"hardware store";"Toko Alat Tulis Kantor";"Toko Aulia";"Jl. Masjid Taqwa, Sungai Jauh, Kec. Rawas Ulu, Kab. Musi Rawas Utara, Sumatera Selatan 31656";"Sungai Jauh, Kec. Rawas Ulu, Kab. Musi Rawas Utara";"SUMATERA SELATAN";"31656";"Indonesia";" 081278941000";"";"";"-2.5989343";"102.758068";"https://maps.google.com/?cid=0x0:0xcb49002233842444";""
"hardware store";"Toko Bahan Bangunan";"TB. Berkah Jaya";"72X8+956, Jalan, Biaro Baru, Bingin Teluk, Kab. Musi Rawas Utara, Sumatera Selatan 31658";"Jalan, Biaro Baru, Bingin Teluk, Kab. Musi Rawas Utara";"SUMATERA SELATAN";"31658";"Indonesia";" 081271848191";"";"";"-2.701598";"103.015396";"https://maps.google.com/?cid=0x0:0x5a863eeb25bcfdb8";""
"hardware store";"hardware store";"Uvv2Z7K3FsyRseMPzJnysQE"-,null,null,1,null,"https://www.google.com/maps/preview/place/TB.+Berkah+Mandiri/@-3.1007065,102.988237,3984a,13.1y/datau003d!4m2!3m1!1s0xa9f0b76508ad0ce1:0x27731b116988f06f";"";"";"SUMATERA SELATAN";"";"Indonesia";" 085266017242";"";"";"-3.1007065";"102.988237";"https://maps.google.com/?cid=0x0:0x27731b116988f06f";""
"hardware store";"Toko Alat Tulis Kantor";"Toko Almira";"Ps. Surulangun, Kec. Rawas Ulu, Kab. Musi Rawas Utara, Sumatera Selatan";"Kab. Musi Rawas Utara, Sumatera Selatan";"SUMATERA SELATAN";"";"Indonesia";" 085384333344";"";"";"-2.6238154";"102.7610231";"https://maps.google.com/?cid=0x0:0x2d4ca145d81603b";""
"hardware store";"Toko Elektronik";"TOKO SINAR SUNDA";"RW3W+29M, Jl. Jend. Sudirman, Triwikaton, Kec. Tugumulyo, Kabupaten Musi Rawas, Sumatera Selatan 31662";"Jl. Jend. Sudirman, Triwikaton, Kec. Tugumulyo, Kabupaten Musi Rawas";"SUMATERA SELATAN";"31662";"Indonesia";" 085382904203";"";"";"-3.1974208";"102.9459257";"https://maps.google.com/?cid=0x0:0xfbb5cc00935e0a1c";""
"hardware store";"Toko bahan makanan";"DS SHOP";"Mardiharjo, Kec. Purwodadi, Kabupaten Musi Rawas, Sumatera Selatan 31668";"Kec. Purwodadi, Kabupaten Musi Rawas";"SUMATERA SELATAN";"31668";"Indonesia";" 081377732138";"";"";"-3.1317437";"102.9642548";"https://maps.google.com/?cid=0x0:0xef0d95e8e4344750";""
"hardware store";"Toko Bahan Bangunan";"TB.MURA BANGUNAN";"Jl.Raya Tugumulyo No.517, Tanah Periuk I, Kec. Muara Beliti, Kabupaten Musi Rawas, Sumatera Selatan 31661";"Tanah Periuk I, Kec. Muara Beliti, Kabupaten Musi Rawas";"SUMATERA SELATAN";"31661";"Indonesia";" 085215231699";"";"";"-3.262838";"102.9368035";"https://maps.google.com/?cid=0x0:0xdcc766ad82d2a0cc";""
"hardware store";"Toko Bahan Bangunan";"Tb.sumber Arto Moro";"Unnamed Road, 31626, Trikoyo, Kec. Tugumulyo, Kabupaten Musi Rawas, Sumatera Selatan 31626";"31626, Trikoyo, Kec. Tugumulyo, Kabupaten Musi Rawas";"SUMATERA SELATAN";"31626";"Indonesia";" 081328879628";"";"";"-3.1909448";"102.9464986";"https://maps.google.com/?cid=0x0:0xf9e62388fcccb005";""
"hardware store";"Toko Bahan Bangunan";"Toko bahan bangunan 998";"RW2W+V9F, Jl. Jend. Sudirman, Triwikaton, Kec. Tugumulyo, Kabupaten Musi Rawas, Sumatera Selatan 31662";"Jl. Jend. Sudirman, Triwikaton, Kec. Tugumulyo, Kabupaten Musi Rawas";"SUMATERA SELATAN";"31662";"Indonesia";"";"";"";"-3.1978223";"102.945928";"https://maps.google.com/?cid=0x0:0x136c63a7ba319f82";""
"hardware store";"Toko Bahan Bangunan";"Indosteel Nora Lubuk Linggau";"Jl Yos Sudarso (lintas utama sumatera), Kec. Libuk linggau selatan II, Kota, RT.deretan/RW.teriminal, Simpang Periuk, Kota Lubuklinggau, Sumatera Selatan 31627";"Kec. Libuk linggau selatan II, Kota, RT.deretan/RW.teriminal, Simpang Periuk, Kota Lubuklinggau";"SUMATERA SELATAN";"31627";"Indonesia";" 082239953142";"";"";"-3.2678555";"102.9400342";"https://maps.google.com/?cid=0x0:0x5a16cfc97c5a0127";""
"hardware store";"Toko Bahan Bangunan";"DEPO SURYA MAS";"Jl. Sultan Mahmud Badaruddin II No.88, Marga Mulya, Kec. Lubuk Linggau Sel. II, Kota Lubuklinggau, Sumatera Selatan 31626";"Marga Mulya, Kec. Lubuk Linggau Sel. II, Kota Lubuklinggau";"SUMATERA SELATAN";"31626";"Indonesia";" 07333280197";"";"";"-3.273227";"102.9290238";"https://maps.google.com/?cid=0x0:0xdd7cb1dbd7a292c0";""
"hardware store";"Toko Alat Berkebun";"TOKO BANGUNAN PUTRI DEWA BUMI";"Jl. Kartini No.224, B. Srikaton, Kec. Tugumulyo, Kabupaten Musi Rawas, Sumatera Selatan 31626";"B. Srikaton, Kec. Tugumulyo, Kabupaten Musi Rawas";"SUMATERA SELATAN";"31626";"Indonesia";" 08137360801";"";"";"-3.2002489";"102.944579";"https://maps.google.com/?cid=0x0:0x962ee6ae4e1b4faa";""
"hardware store";"hardware store";"Kec. Rupit";"Kab. Musi Rawas Utara, Sumatera Selatan";"Kab. Musi Rawas Utara, Sumatera Selatan";"SUMATERA SELATAN";"";"Indonesia";"";"";"";"-2.7205772";"102.9116717";"https://maps.google.com/?cid=0x0:0xa822b6d74806cc91";""
"hardware store";"Toko Bahan Bangunan";"TOKO BANGUNAN TIWA";"Jalan Nangka Belanda, Dusun V, Lawang Agung, Kec. Rupit, Kab. Musi Rawas Utara, Sumatera Selatan 31654";"Dusun V, Lawang Agung, Kec. Rupit, Kab. Musi Rawas Utara";"SUMATERA SELATAN";"31654";"Indonesia";" 081274406225";"";"";"-2.7140813";"102.9116705";"https://maps.google.com/?cid=0x0:0xf297bdc22ec84b7d";""
"hardware store";"Toko Bahan Bangunan";"TOKO KONTRUKSI";"7WG4+PWG, Muara Rupit, Kec. Rupit, Kab. Musi Rawas Utara, Sumatera Selatan 31654";"Muara Rupit, Kec. Rupit, Kab. Musi Rawas Utara";"SUMATERA SELATAN";"31654";"Indonesia";" 081298797827";"";"";"-2.7231911";"102.907313";"https://maps.google.com/?cid=0x0:0x250dfbcefde1508e";""
"hardware store";"Perusahaan Media";"RAFAZIL ATK";"Jln. Veteran, Lawang Agung, Kec. Rupit, Kab. Musi Rawas Utara, Sumatera Selatan 31654";"Lawang Agung, Kec. Rupit, Kab. Musi Rawas Utara";"SUMATERA SELATAN";"31654";"Indonesia";"";"";"";"-2.7110687";"102.9098243";"https://maps.google.com/?cid=0x0:0xa09fd02ed4f5580d";""
"hardware store";"Pasar";"Pasar Baru Desa Lawang Agung";"7WP5+6XM, Lawang Agung, Kec. Rupit, Kabupaten Musi Rawas, Sumatera Selatan 31654";"Lawang Agung, Kec. Rupit, Kabupaten Musi Rawas";"SUMATERA SELATAN";"31654";"Indonesia";"";"";"";"-2.7144244";"102.909936";"https://maps.google.com/?cid=0x0:0xd6c4a82abc104981";""
"hardware store";"hardware store";"Rupit";"08569, Provinsi Barcelona, Spanyol";"Rupit, Spanyol";"SUMATERA SELATAN";"";"Indonesia";"";"";"";"42.0245042";"2.4655228";"https://maps.google.com/?cid=0x0:0xa5dbe78a7e794f82";""
"hardware store";"hardware store";"Casa Can Rufo de Rupit";"Sant Joan de Fabregues, 42 BIS, 08569 Rupit, Barcelona, Spanyol";"Rupit";"SUMATERA SELATAN";"08569";"Indonesia";" +34625086296";"";"";"42.0228302";"2.4627847";"https://maps.google.com/?cid=0x0:0xd1bf1dc8e992bd90";""
"hardware store";"Toko Elektronik";"Toko BINTANG TERANG ABADI ALAT LISTRIK  ELEKTRONIK";"RW7X+G2P, Jl. Pahlawan Amir Dusun, Trikoyo, Kec. Tugumulyo, Kabupaten Musi Rawas, Sumatera Selatan 31626";"Jl. Pahlawan Amir Dusun, Trikoyo, Kec. Tugumulyo, Kabupaten Musi Rawas";"SUMATERA SELATAN";"31626";"Indonesia";" 085789218589";"";"";"-3.186163";"102.9475711";"https://maps.google.com/?cid=0x0:0x74e6d877bc1414eb";""
"hardware store";"Toko Elektronik";"Bali Cahaya Elektrik";"Jl. Jend. Sudirman, Widodo, Kec. Tugumulyo, Kabupaten Musi Rawas, Sumatera Selatan 31662";"Widodo, Kec. Tugumulyo, Kabupaten Musi Rawas";"SUMATERA SELATAN";"31662";"Indonesia";" 085101846503";"";"";"-3.2131786";"102.9440923";"https://maps.google.com/?cid=0x0:0xa3d35d98d79723ea";""
"hardware store";"Toko Bahan Bangunan";"Toko bangunan A2R";"V773+RCC, Magelang Baru, Kec. Lebong Sakti, Kabupaten Lebong, Bengkulu 39264";"Magelang Baru, Kec. Lebong Sakti, Kabupaten Lebong";"SUMATERA SELATAN";"39264";"Indonesia";"";"";"";"-3.1354418";"102.2535231";"https://maps.google.com/?cid=0x0:0xa85d0765ea9ef062";""
"home improvement";"home improvement";"Sumatera Selatan 31658";"Karang Dapo, Kabupaten Musi Rawas, Sumatera Selatan";"Kabupaten Musi Rawas, Sumatera Selatan";"SUMATERA SELATAN";"";"Indonesia";"";"";"";"-2.7453255";"103.035694";"https://maps.google.com/?cid=0x0:0xe72620e1eb13dcdf";""
"home improvement";"Toko";"Citra kaca alumunium";"Jln. Soeb Tamat, Karang Dapo II, Karang Dapo, Kab. Musi Rawas Utara, Sumatera Selatan 31653";"Karang Dapo II, Karang Dapo, Kab. Musi Rawas Utara";"SUMATERA SELATAN";"31653";"Indonesia";"";"";"";"-2.7041693";"102.9966453";"https://maps.google.com/?cid=0x0:0x182a7160e35d81c4";""
"home improvement";"Komplek perumahan";"Sis home";"732M+87Q, Bina Karya, Karang Dapo, Kab. Musi Rawas Utara, Sumatera Selatan 31658";"Bina Karya, Karang Dapo, Kab. Musi Rawas Utara";"SUMATERA SELATAN";"31658";"Indonesia";"";"";"";"-2.7499097";"103.0832718";"https://maps.google.com/?cid=0x0:0x6891daa675475cdb";""
"home improvement";"Rumah singgah";"Rumah pakdhe gorong gorong";"Bina Karya, Karang Dapo, Kab. Musi Rawas Utara, Sumatera Selatan 31658";"Karang Dapo, Kab. Musi Rawas Utara";"SUMATERA SELATAN";"31658";"Indonesia";"";"";"";"-2.7528223";"103.0868974";"https://maps.google.com/?cid=0x0:0x2ed9e8569717d85a";""
"home improvement";"Toko Mebel";"creator bangilhams";"Desa setia marga kecamatan karang Dapo Sumatera Selatan RT 000r, RT.000r/RW.000, Setia Marga, Karang Dapo, Lubuklinggau, Sumatera Selatan 31658";"RT.000r/RW.000, Setia Marga, Karang Dapo, Lubuklinggau";"SUMATERA SELATAN";"31658";"Indonesia";" 081279384274";"";"";"-2.8047474";"103.0841315";"https://maps.google.com/?cid=0x0:0xa70d2802079a075b";""
"home improvement";"Toko Mebel Restoran Bar";"Mebel Lek Gandung";"53RJ+5GR, Unnamed Road, Setia Marga, Karang Dapo, Kab. Musi Rawas Utara, Sumatera Selatan 31657";"Unnamed Road, Setia Marga, Karang Dapo, Kab. Musi Rawas Utara";"SUMATERA SELATAN";"31657";"Indonesia";" 082269663140";"";"";"-2.8095036";"103.0812702";"https://maps.google.com/?cid=0x0:0x9e9a592e9401ef12";""
"home improvement";"Toko Bahan Bangunan";"IDEAL GRUP";"Jl. Poros sp3 marga baru blok A2 KAB, Marga Baru, Kec. Muara Lakitan, Kabupaten Musi Rawas, Sumatera Selatan 31666";"Marga Baru, Kec. Muara Lakitan, Kabupaten Musi Rawas";"SUMATERA SELATAN";"31666";"Indonesia";"";"";"";"-2.8062524";"103.1235832";"https://maps.google.com/?cid=0x0:0x96101a4c6493338a";""
"home improvement";"Perhimpunan Pengembang Perumahan";"Mebel sjm";"Marga Baru, Kec. Muara Lakitan, Kabupaten Musi Rawas, Sumatera Selatan 31657";"Kec. Muara Lakitan, Kabupaten Musi Rawas";"SUMATERA SELATAN";"31657";"Indonesia";" 081290610238";"";"";"-2.8059387";"103.1237158";"https://maps.google.com/?cid=0x0:0x324bd09a9257d08d";""
"home improvement";"Toko Mebel";"WAK KERANJANG (RUSNADI ARITA)";"723P+V78, Biaro Baru, Karang Dapo, Kab. Musi Rawas Utara, Sumatera Selatan";"Kab. Musi Rawas Utara, Sumatera Selatan";"SUMATERA SELATAN";"";"Indonesia";"";"";"";"-2.7453255";"103.035694";"https://maps.google.com/?cid=0x0:0x2f9185b0ff4992c8";""
"home improvement";"Kantor Perusahaan";"Estate Biaro Baru PT PPA";"727W+RV4, Biaro Baru, Karang Dapo, Kab. Musi Rawas Utara, Sumatera Selatan 31658";"Biaro Baru, Karang Dapo, Kab. Musi Rawas Utara";"SUMATERA SELATAN";"31658";"Indonesia";"";"";"";"-2.7354888";"103.0472164";"https://maps.google.com/?cid=0x0:0x46c46ab9bc905c8e";""
"home improvement";"home improvement";"Laundry Sepatu Muratara";"";"";"SUMATERA SELATAN";"";"Indonesia";" 081387440717";"";"";"-2.7386045";"102.8088679";"https://maps.google.com/?cid=0x0:0x93e1611d27e0e8de";""
"home improvement";"Aksesori Mebel";"Home Ryan";"WRVH+XQR, Jl. Sarolangun - Lubuk Linggau, Terawas, Suku Tengah Lakitan Ulu, Kabupaten Musi Rawas, Sumatera Selatan 30771";"Jl. Sarolangun - Lubuk Linggau, Terawas, Suku Tengah Lakitan Ulu, Kabupaten Musi Rawas";"SUMATERA SELATAN";"30771";"Indonesia";" 082132926899";"";"";"-3.055";"102.8293792";"https://maps.google.com/?cid=0x0:0x998a9aec26a3d077";""
"home improvement";"Tukang Kebun";"Bonot Indah";"439G+3QV, Muara Megang, Kec. Megang Sakti, Kabupaten Musi Rawas, Sumatera Selatan 31657";"Muara Megang, Kec. Megang Sakti, Kabupaten Musi Rawas";"SUMATERA SELATAN";"31657";"Indonesia";"";"";"";"-2.8822679";"103.0769129";"https://maps.google.com/?cid=0x0:0x3b35742a6d36e780";""
"home improvement";"Toko Mebel";"Mebel supardi";"Tebing Tinggi, Kec. Nibung, Kab. Musi Rawas Utara, Sumatera Selatan 31674";"Kec. Nibung, Kab. Musi Rawas Utara";"SUMATERA SELATAN";"31674";"Indonesia";" 085709558908";"";"";"-2.5159821";"103.0351965";"https://maps.google.com/?cid=0x0:0xfebfa6ea4e2ba4ba";""
"home improvement";"Perkebunan Pohon";"Kebun yahya";"7XHJ+QR, Karang Dapo I, Karang Dapo, Kabupaten Musi Rawas, Sumatera Selatan";"Kabupaten Musi Rawas, Sumatera Selatan";"SUMATERA SELATAN";"";"Indonesia";" 081366862709";"";"";"-2.7206236";"102.9820217";"https://maps.google.com/?cid=0x0:0x35cddb352d423935";""
"home improvement";"home improvement";"Sumatera Selatan 31654";"Kabupaten Musi Rawas, Sumatera Selatan";"Kabupaten Musi Rawas, Sumatera Selatan";"SUMATERA SELATAN";"";"Indonesia";"";"";"";"-2.8261883";"102.7594847";"https://maps.google.com/?cid=0x0:0xc4e1d96ef2cee976";""
"home improvement";"Toko bahan makanan";"Inara Online";"7W84+M63, Jalan Perum Dinas, RT.13, Muara Rupit, Kec. Rupit, Kabupaten Musi Rawas, Sumatera Selatan 31654";"Jalan Perum Dinas, RT.13, Muara Rupit, Kec. Rupit, Kabupaten Musi Rawas";"SUMATERA SELATAN";"31654";"Indonesia";" 085273404430";"";"";"-2.7333563";"102.9055517";"https://maps.google.com/?cid=0x0:0x2fa1e158a9bc7886";""
"home improvement";"Toko Bahan Bangunan";"Toko Taufik bangunan";"Jl. Lintas Utama Sumatera No.Utara, Karang Jaya, Kec. Karang Jaya, Kabupaten Musi Rawas, Sumatera Selatan 31654";"Karang Jaya, Kec. Karang Jaya, Kabupaten Musi Rawas";"SUMATERA SELATAN";"31654";"Indonesia";" 082280089850";"";"";"-2.8726338";"102.7879808";"https://maps.google.com/?cid=0x0:0x8a188eb746296a00";""
"home improvement";"Aksesori Mebel";"Home Ryan";"WRVH+XQR, Jl. Sarolangun - Lubuk Linggau, Terawas, Suku Tengah Lakitan Ulu, Kabupaten Musi Rawas, Sumatera Selatan 30771";"Jl. Sarolangun - Lubuk Linggau, Terawas, Suku Tengah Lakitan Ulu, Kabupaten Musi Rawas";"SUMATERA SELATAN";"30771";"Indonesia";" 082132926899";"";"";"-3.055";"102.8293792";"https://maps.google.com/?cid=0x0:0x998a9aec26a3d077";""
"home improvement";"Toko Mebel";"Indra karya kencana";"4RV4+JF8, Embacang Baru, Kec. Karang Jaya, Kab. Musi Rawas Utara, Sumatera Selatan";"Kab. Musi Rawas Utara, Sumatera Selatan";"SUMATERA SELATAN";"";"Indonesia";"";"";"";"-2.8559626";"102.8061912";"https://maps.google.com/?cid=0x0:0x80a6da11d585829c";""
"home improvement";"Toko";"Citra kaca alumunium";"Jln. Soeb Tamat, Karang Dapo II, Karang Dapo, Kab. Musi Rawas Utara, Sumatera Selatan 31653";"Karang Dapo II, Karang Dapo, Kab. Musi Rawas Utara";"SUMATERA SELATAN";"31653";"Indonesia";"";"";"";"-2.7041693";"102.9966453";"https://maps.google.com/?cid=0x0:0x182a7160e35d81c4";""
"home improvement";"Toko Mebel";"Mebel nabilah";"Jl. Sarolangun - Lubuk Linggau, Muara Rupit, Kec. Rupit, Kab. Musi Rawas Utara, Sumatera Selatan 31654";"Muara Rupit, Kec. Rupit, Kab. Musi Rawas Utara";"SUMATERA SELATAN";"31654";"Indonesia";"";"";"";"-2.7334486";"102.9039172";"https://maps.google.com/?cid=0x0:0x1b4f831c174b3b54";""
"home improvement";"Perhimpunan Pengembang Perumahan";"L.sidoharjo";"Dusun VI, Sidoharjo, Kec. Tugumulyo, Kabupaten Musi Rawas, Sumatera Selatan 31662";"Sidoharjo, Kec. Tugumulyo, Kabupaten Musi Rawas";"SUMATERA SELATAN";"31662";"Indonesia";"";"";"";"-3.1734293";"102.9706363";"https://maps.google.com/?cid=0x0:0xcdc3708b41b36e35";""
"home improvement";"Toko Perlengkapan Rumah";"Toko Kandi";"7WP6+J93, Lawang Agung, Kec. Rupit, Kab. Musi Rawas Utara, Sumatera Selatan 31654";"Lawang Agung, Kec. Rupit, Kab. Musi Rawas Utara";"SUMATERA SELATAN";"31654";"Indonesia";"";"";"";"-2.7134861";"102.9109114";"https://maps.google.com/?cid=0x0:0xa9f1f4c033875ef4";""
"home improvement";"Komplek perumahan";"Sis home";"732M+87Q, Bina Karya, Karang Dapo, Kab. Musi Rawas Utara, Sumatera Selatan 31658";"Bina Karya, Karang Dapo, Kab. Musi Rawas Utara";"SUMATERA SELATAN";"31658";"Indonesia";"";"";"";"-2.7499097";"103.0832718";"https://maps.google.com/?cid=0x0:0x6891daa675475cdb";""
"home improvement";"Perhimpunan Pengembang Perumahan";"Srimulyo";"VW37+VRQ, Jl. Desa Srimulyo, Sukaraya, Suku Tengah Lakitan Ulu, Kabupaten Musi Rawas, Sumatera Selatan 31662";"Jl. Desa Srimulyo, Sukaraya, Suku Tengah Lakitan Ulu, Kabupaten Musi Rawas";"SUMATERA SELATAN";"31662";"Indonesia";" 085711772550";"";"";"-3.1452803";"102.9146039";"https://maps.google.com/?cid=0x0:0x564757a2d759f886";""
"home improvement";"Toko Mebel";"RZ MEUBEL JAYA";"9QQ6+VCC, Surulangun, Kec. Rawas Ulu, Kabupaten Musi Rawas, Sumatera Selatan";"Kabupaten Musi Rawas, Sumatera Selatan";"SUMATERA SELATAN";"";"Indonesia";" 082374489220";"";"";"-2.6103185";"102.7610155";"https://maps.google.com/?cid=0x0:0xc12a1fec2036e18d";""
"home improvement";"Toko Mebel";"RJF. rokal jaya furnicture.";"WX36+WQG, Sukamaju, Kec. Sumber Harta, Kabupaten Musi Rawas, Sumatera Selatan 31662";"Sukamaju, Kec. Sumber Harta, Kabupaten Musi Rawas";"SUMATERA SELATAN";"31662";"Indonesia";"";"";"";"-3.0951883";"102.9619561";"https://maps.google.com/?cid=0x0:0x5436557603fea8d6";""
"home improvement";"Toko Bahan Bangunan";"PT. Musi Rawas Jayatama";"Jl. Lintas Tengah Sumatera No.Km. 46, Bukit Ulu, Kec. Karang Jaya, Kab. Musi Rawas Utara, Sumatera Selatan 30771";"Bukit Ulu, Kec. Karang Jaya, Kab. Musi Rawas Utara";"SUMATERA SELATAN";"30771";"Indonesia";" 0714323209";"";"";"-3.006127";"102.7190355";"https://maps.google.com/?cid=0x0:0x22adb0720cbe3203";""
"home improvement";"Toko Mebel";"Maasni furnitur";"6VXR+7PR, Beringin Jaya, Kec. Rupit, Kab. Musi Rawas Utara, Sumatera Selatan 31654";"Beringin Jaya, Kec. Rupit, Kab. Musi Rawas Utara";"SUMATERA SELATAN";"31654";"Indonesia";"";"";"";"-2.7517695";"102.8917556";"https://maps.google.com/?cid=0x0:0xa7838a491b63d3df";""
"home improvement";"home improvement";"8vv2Z4arKLKN4-EPj7KCsA4"-,null,null,1,null,"https://www.google.com/maps/preview/place/Kis+Plafon+%26+baja+Ringan/@-3.175197,103.6692912,3984a,13.1y/datau003d!4m2!3m1!1s0x6e1f7ac6063acf0d:0xb70c4ba451f1cb7d";"";"";"SUMATERA SELATAN";"";"Indonesia";" 082377732480";"";"";"-3.175197";"103.6692912";"https://maps.google.com/?cid=0x0:0xb70c4ba451f1cb7d";""
"home improvement";"Toko Mebel";"CV.DepotKayuGean";"7WV8+M2F, Lawang Agung, Kec. Rupit, Kab. Musi Rawas Utara, Sumatera Selatan 31654";"Lawang Agung, Kec. Rupit, Kab. Musi Rawas Utara";"SUMATERA SELATAN";"31654";"Indonesia";"";"";"";"-2.7066211";"102.9146094";"https://maps.google.com/?cid=0x0:0x1210173509944927";""
"home improvement";"Toko Lemari";"Rumah Indah";"2QVC+7FH, Dusun 5, Rantau Jaya, Kec. Karang Jaya, Kab. Musi Rawas Utara, Sumatera Selatan";"Kab. Musi Rawas Utara, Sumatera Selatan";"SUMATERA SELATAN";"";"Indonesia";"";"";"";"-2.9568156";"102.771245";"https://maps.google.com/?cid=0x0:0x293b2df7a9f9859c";""
"home improvement";"Toko Bahan Bangunan";"TOKO BANGUNAN KITO";"Terusan, Kec. Karang Jaya, Kab. Musi Rawas Utara, Sumatera Selatan";"Kab. Musi Rawas Utara, Sumatera Selatan";"SUMATERA SELATAN";"";"Indonesia";" 082175641331";"";"";"-2.8938248";"102.7559921";"https://maps.google.com/?cid=0x0:0x2ffcc30b146d310e";""
"home improvement";"Jasa Konstruksi dan Bangunan";"PT. REMBAN SUNGAI BERAES";"Muara Rupit, Kec. Rupit, Kabupaten Musi Rawas, Sumatera Selatan 31654";"Kec. Rupit, Kabupaten Musi Rawas";"SUMATERA SELATAN";"31654";"Indonesia";" 08128882785";"";"";"-2.7205772";"102.9116717";"https://maps.google.com/?cid=0x0:0xb3f3615e56dd380f";""
"home improvement";"Kantor Perusahaan";"PT CIPTA MURATARA";"Muara Rupit, Kec. Rupit, Kabupaten Musi Rawas, Sumatera Selatan";"Kabupaten Musi Rawas, Sumatera Selatan";"SUMATERA SELATAN";"";"Indonesia";"";"";"";"-2.7333125";"102.9056875";"https://maps.google.com/?cid=0x0:0x5cf86feff0c1cd4f";""
"home improvement";"Agen Properti";"ArRazzaq Design Dekorasi dan kaligrafi";"WWPW+64Q, Jamburejo, Kec. Sumber Harta, Kabupaten Musi Rawas, Sumatera Selatan";"Kabupaten Musi Rawas, Sumatera Selatan";"SUMATERA SELATAN";"";"Indonesia";" 085777747441";"";"";"-3.0644209";"102.945368";"https://maps.google.com/?cid=0x0:0x3262b317aa12a365";""
"home improvement";"Toko";"Muara Rupit";"7WJ3+RX8, Muara Rupit, Kec. Rupit, Kabupaten Musi Rawas, Sumatera Selatan";"Kabupaten Musi Rawas, Sumatera Selatan";"SUMATERA SELATAN";"";"Indonesia";"";"";"";"-2.7179645";"102.9049515";"https://maps.google.com/?cid=0x0:0xda5b35ae8618ab6e";""
"home improvement";"Kantor Perusahaan";"Basecamp RJM";"6VVJ+6C PT. DENDY MARKER, Jl. Simpang, Bingin Rupit, INDAHLESTARI, North Musi Rawas Regency, South Sumatra 31654";"Jl. Simpang, Bingin Rupit, INDAHLESTARI, North Musi Rawas Regency";"SUMATERA SELATAN";"31654";"Indonesia";"";"";"";"-2.7568672";"102.8810713";"https://maps.google.com/?cid=0x0:0xf29cb0cdf34908a8";""
"home improvement";"Pemasok mebel sesuai pesanan";"OMAH ALUMINIUM";"Jl. Notodiharjo H, Wukirsari, Kec. Tugumulyo, Kabupaten Musi Rawas, Sumatera Selatan 31662";"Wukirsari, Kec. Tugumulyo, Kabupaten Musi Rawas";"SUMATERA SELATAN";"31662";"Indonesia";" 081274324499";"";"";"-3.1594406";"102.937184";"https://maps.google.com/?cid=0x0:0xda1ad98b01250030";""
"home improvement";"Pembangunan Perumahan";"Rumah Kowo";"WX98+H9F, Sumber Sari, Kec. Sumber Harta, Kabupaten Musi Rawas, Sumatera Selatan";"Kabupaten Musi Rawas, Sumatera Selatan";"SUMATERA SELATAN";"";"Indonesia";"";"";"";"-3.0810512";"102.9659229";"https://maps.google.com/?cid=0x0:0xef8259066791ce90";""
"home improvement";"Toko Perlengkapan Rumah";"Toko Brilian Jaya Prima Suplier Keramik Granite  Sanitary";"Jl. Percetakan Negara No.565, Rawasari, Kec. Cemp. Putih, Kota Jakarta Pusat, Daerah Khusus Ibukota Jakarta 10560";"Rawasari, Kec. Cemp. Putih, Kota Jakarta Pusat";"SUMATERA SELATAN";"10560";"Indonesia";" 087761725627";"";"";"-6.187224";"106.86817";"https://maps.google.com/?cid=0x0:0xf45df22adf2d3351";""
"home improvement";"Komplek perumahan";"WHW HOME";"4QJP+XG4 Belakang SD negeri 2, Karang Jaya, Kec. Karang Jaya, Kab. Musi Rawas Utara, Sumatera Selatan";"Kab. Musi Rawas Utara, Sumatera Selatan";"SUMATERA SELATAN";"";"Indonesia";"";"";"";"-2.867618";"102.7863311";"https://maps.google.com/?cid=0x0:0x7908f8084cc60ae4";""
"home improvement";"Perusahaan Media";"Indonetwork: Direktori Bisnis dan B2B Marketplace";"Gedung Buncit 36, Jalan Warung Jati Barat No. 36, Ragunan, Jakarta Selatan, Jakarta, Daerah Khusus Ibukota Jakarta 12550";"Jalan Warung Jati Barat No. 36, Ragunan, Jakarta Selatan, Jakarta";"SUMATERA SELATAN";"12550";"Indonesia";" 08041787878";"";"";"-6.2834608";"106.826814";"https://maps.google.com/?cid=0x0:0x5e637d3e8ed64050";""
"home improvement";"Aksesori Mebel";"Home Ryan";"WRVH+XQR, Jl. Sarolangun - Lubuk Linggau, Terawas, Suku Tengah Lakitan Ulu, Kabupaten Musi Rawas, Sumatera Selatan 30771";"Jl. Sarolangun - Lubuk Linggau, Terawas, Suku Tengah Lakitan Ulu, Kabupaten Musi Rawas";"SUMATERA SELATAN";"30771";"Indonesia";" 082132926899";"";"";"-3.055";"102.8293792";"https://maps.google.com/?cid=0x0:0x998a9aec26a3d077";""
"home improvement";"Toko Bahan Bangunan";"Toko Taufik bangunan";"Jl. Lintas Utama Sumatera No.Utara, Karang Jaya, Kec. Karang Jaya, Kabupaten Musi Rawas, Sumatera Selatan 31654";"Karang Jaya, Kec. Karang Jaya, Kabupaten Musi Rawas";"SUMATERA SELATAN";"31654";"Indonesia";" 082280089850";"";"";"-2.8726338";"102.7879808";"https://maps.google.com/?cid=0x0:0x8a188eb746296a00";""
"home improvement";"Toko Mebel";"Indra karya kencana";"4RV4+JF8, Embacang Baru, Kec. Karang Jaya, Kab. Musi Rawas Utara, Sumatera Selatan";"Kab. Musi Rawas Utara, Sumatera Selatan";"SUMATERA SELATAN";"";"Indonesia";"";"";"";"-2.8559626";"102.8061912";"https://maps.google.com/?cid=0x0:0x80a6da11d585829c";""
"home improvement";"Perusahaan Konstruksi";"Dhiharr interior";"Jl. Amir Hamsyah, Trikoyo, Kec. Tugumulyo, Kabupaten Musi Rawas, Sumatera Selatan 31662";"Trikoyo, Kec. Tugumulyo, Kabupaten Musi Rawas";"SUMATERA SELATAN";"31662";"Indonesia";" 082377183491";"";"";"-3.1846158";"102.9498986";"https://maps.google.com/?cid=0x0:0x1eeaa136445514ae";""
"home improvement";"Perajin furnitur";"Vita Jaya Merasi Interior";"Unnamed Road, Siti Harjo, Kec. Tugumulyo, Kabupaten Musi Rawas, Sumatera Selatan 31662";"Siti Harjo, Kec. Tugumulyo, Kabupaten Musi Rawas";"SUMATERA SELATAN";"31662";"Indonesia";" 085377593911";"";"";"-3.1491059";"102.9453602";"https://maps.google.com/?cid=0x0:0xe7f6816a76aa15c6";""
"home improvement";"Toko Bahan Bangunan";"TOKO BANGUNAN KITO";"Terusan, Kec. Karang Jaya, Kab. Musi Rawas Utara, Sumatera Selatan";"Kab. Musi Rawas Utara, Sumatera Selatan";"SUMATERA SELATAN";"";"Indonesia";" 082175641331";"";"";"-2.8938248";"102.7559921";"https://maps.google.com/?cid=0x0:0x2ffcc30b146d310e";""
"home improvement";"Toko Bahan Bangunan";"TB. KEMBAR JAYA";"Jl. Raya Karangsuwung, Tuk Karangsuwung, Kec. Karangsembung, Kabupaten Cirebon, Jawa Barat 45186";"Tuk Karangsuwung, Kec. Karangsembung, Kabupaten Cirebon";"SUMATERA SELATAN";"45186";"Indonesia";" 085320055612";"";"";"-6.8471312";"108.6406636";"https://maps.google.com/?cid=0x0:0x61e26877fd060c25";""
"home improvement";"home improvement";"Tullen Manggalla Cemerlang";"";"";"SUMATERA SELATAN";"";"Indonesia";" 08128137444";"";"";"-6.949059";"110.683938";"https://maps.google.com/?cid=0x0:0xb49f4d8828ba013b";""
"home improvement";"home improvement";"G_z2Z7GCPPWc4-EPiomcuQ8"-,null,null,1,null,"https://www.google.com/maps/preview/place/Pacor+Jaya/@-7.3724825,108.5362043,3957a,13.1y/datau003d!4m2!3m1!1s0x2a65db0bc136dd63:0x43ae6c2d527455b";"";"";"SUMATERA SELATAN";"";"Indonesia";" 085321578775";"";"";"-7.3724825";"108.5362043";"https://maps.google.com/?cid=0x0:0x43ae6c2d527455b";""
"home improvement";"Komplek perumahan";"WHW HOME";"4QJP+XG4 Belakang SD negeri 2, Karang Jaya, Kec. Karang Jaya, Kab. Musi Rawas Utara, Sumatera Selatan";"Kab. Musi Rawas Utara, Sumatera Selatan";"SUMATERA SELATAN";"";"Indonesia";"";"";"";"-2.867618";"102.7863311";"https://maps.google.com/?cid=0x0:0x7908f8084cc60ae4";""
"home improvement";"Kantor Perusahaan";"Eka jaya";"Kec:, DS: karang mekar, RT:08/RW07, Jl Cipicung carik, Kec. Karangnunggal, Kabupaten Tasikmalaya, Jawa Barat 46115";"DS: karang mekar, RT:08/RW07, Jl Cipicung carik, Kec. Karangnunggal, Kabupaten Tasikmalaya";"SUMATERA SELATAN";"46115";"Indonesia";" 081210490576";"";"";"-7.629572";"108.1508175";"https://maps.google.com/?cid=0x0:0x8dc110e10e274c13";""
"home improvement";"home improvement";"Sumatera Selatan 31667";"Kec. Nibung, Kab. Musi Rawas Utara, Sumatera Selatan";"Kab. Musi Rawas Utara, Sumatera Selatan";"SUMATERA SELATAN";"";"Indonesia";"";"";"";"-2.4365476";"102.9435536";"https://maps.google.com/?cid=0x0:0x51eee84d7db6be8b";""
"home improvement";"Toko Mebel";"Mebel supardi";"Tebing Tinggi, Kec. Nibung, Kab. Musi Rawas Utara, Sumatera Selatan 31674";"Kec. Nibung, Kab. Musi Rawas Utara";"SUMATERA SELATAN";"31674";"Indonesia";" 085709558908";"";"";"-2.5159821";"103.0351965";"https://maps.google.com/?cid=0x0:0xfebfa6ea4e2ba4ba";""
"home improvement";"Kantor Perusahaan";"RAM BERKAH";"GWJ2+898, Mulya Jaya, Kec. Nibung, Kabupaten Musi Rawas, Sumatera Selatan 31667";"Mulya Jaya, Kec. Nibung, Kabupaten Musi Rawas";"SUMATERA SELATAN";"31667";"Indonesia";"";"";"";"-2.4692226";"102.9009623";"https://maps.google.com/?cid=0x0:0x6df35ec0b2734164";""
"home improvement";"";"CV. Bintang Pauh Bersatu";"F73M+CH, Air Bening, Kec. Rawas Ilir, Kabupaten Musi Rawas, Sumatera Selatan";"Kabupaten Musi Rawas, Sumatera Selatan";"SUMATERA SELATAN";"";"Indonesia";"";"";"";"-2.546628";"103.2840599";"https://maps.google.com/?cid=0x0:0x24bf90c4b3215a86";""
"home improvement";"Perusahaan Konstruksi";"View Point UN";"C566+F49, Beringin Makmur II, Kec. Rawas Ilir, Kab. Musi Rawas Utara, Sumatera Selatan";"Kab. Musi Rawas Utara, Sumatera Selatan";"SUMATERA SELATAN";"";"Indonesia";"";"";"";"-2.5888327";"103.1603551";"https://maps.google.com/?cid=0x0:0xcc119f308ae6ca2c";""
"home improvement";"Pemotongan Kayu";"Kayu Wak gun";"G2HJ+JPF, Bumi Makmur, Kec. Nibung, Kab. Musi Rawas Utara, Sumatera Selatan";"Kab. Musi Rawas Utara, Sumatera Selatan";"SUMATERA SELATAN";"";"Indonesia";"";"";"";"-2.4709497";"103.0318029";"https://maps.google.com/?cid=0x0:0xfff7687d1191c84e";""
"home improvement";"Toko Mebel";"Raisan sensowers Indonesia";"dusun bunga sari Sp.7 blok c, Sumber Makmur, Kec. Nibung, Kab. Musi Rawas Utara, Sumatera Selatan 31667";"Sumber Makmur, Kec. Nibung, Kab. Musi Rawas Utara";"SUMATERA SELATAN";"31667";"Indonesia";" 085216292709";"";"";"-2.5109861";"102.9277598";"https://maps.google.com/?cid=0x0:0x2c49e6fbfd28c62";""
"home improvement";"Kantor Perusahaan";"PT. Bahana Selaras Alam Site GPU";"F5V3+2JH, Beringin Makmur II, Kec. Rawas Ilir, Kabupaten Musi Rawas, Sumatera Selatan";"Kabupaten Musi Rawas, Sumatera Selatan";"SUMATERA SELATAN";"";"Indonesia";"";"";"";"-2.5074321";"103.1541122";"https://maps.google.com/?cid=0x0:0xb77e9ea593b68bac";""
"home improvement";"Inspektur Tempat Tinggal";"PT. SOLUSI JALAN BATUBARA";"Jalan Poros Transmigrasi 1, Jadi Mulya, Kec. Nibung, Kab. Musi Rawas Utara, Sumatera Selatan 31656";"Jadi Mulya, Kec. Nibung, Kab. Musi Rawas Utara";"SUMATERA SELATAN";"31656";"Indonesia";" 081367640010";"";"";"-2.5347604";"102.9901858";"https://maps.google.com/?cid=0x0:0xe5e416fa4a64c88";""
"home improvement";"Toko Mebel";"Mebel";"HW7V+9CM, Sri Jaya MakmurKec, Kec. Nibung, Kab. Musi Rawas Utara, Sumatera Selatan 31667";"Sri Jaya MakmurKec, Kec. Nibung, Kab. Musi Rawas Utara";"SUMATERA SELATAN";"31667";"Indonesia";"";"";"";"-2.4365476";"102.9435536";"https://maps.google.com/?cid=0x0:0x20df75b46df6e2e7";""
"home improvement";"Tukang Las";"ULATenda dan Bengkel Las ULA";"SP. 9, Blok. D2, RT.11, Karya Makmur, Kec. Nibung, Kab. Musi Rawas Utara, Sumatera Selatan 31667";"Blok. D2, RT.11, Karya Makmur, Kec. Nibung, Kab. Musi Rawas Utara";"SUMATERA SELATAN";"31667";"Indonesia";"";"";"";"-2.4947691";"102.9629247";"https://maps.google.com/?cid=0x0:0xce2b55992700250b";""
"home improvement";"Perusahaan Konstruksi Jalan";"CV. NIZAM BOR BERJAYA";"G2MV+83X, Sumber Sari, Kec. Nibung, Kab. Musi Rawas Utara, Sumatera Selatan";"Kab. Musi Rawas Utara, Sumatera Selatan";"SUMATERA SELATAN";"";"Indonesia";"";"";"";"-2.4663894";"103.0429152";"https://maps.google.com/?cid=0x0:0xb2174d07f366913";""
"home improvement";"Kantor Perusahaan";"PMKS bss";"F27H+CXH, Unnamed Road, Tebing Tinggi, Kec. Nibung, Kab. Musi Rawas Utara, Sumatera Selatan 31667";"Unnamed Road, Tebing Tinggi, Kec. Nibung, Kab. Musi Rawas Utara";"SUMATERA SELATAN";"31667";"Indonesia";"";"";"";"-2.5364493";"103.0299937";"https://maps.google.com/?cid=0x0:0xad503a148bbc6270";""
"home improvement";"home improvement";"Sumatera Selatan 31655";"Kec. Rawas Ilir, Kabupaten Musi Rawas, Sumatera Selatan";"Kabupaten Musi Rawas, Sumatera Selatan";"SUMATERA SELATAN";"";"Indonesia";"";"";"";"-2.6657075";"103.2201828";"https://maps.google.com/?cid=0x0:0x9daabcd0688b6fb7";""
"home improvement";"";"CV. Bintang Pauh Bersatu";"F73M+CH, Air Bening, Kec. Rawas Ilir, Kabupaten Musi Rawas, Sumatera Selatan";"Kabupaten Musi Rawas, Sumatera Selatan";"SUMATERA SELATAN";"";"Indonesia";"";"";"";"-2.546628";"103.2840599";"https://maps.google.com/?cid=0x0:0x24bf90c4b3215a86";""
"home improvement";"Toko Bahan Bangunan";"TB.MURA BANGUNAN";"Jl.Raya Tugumulyo No.517, Tanah Periuk I, Kec. Muara Beliti, Kabupaten Musi Rawas, Sumatera Selatan 31661";"Tanah Periuk I, Kec. Muara Beliti, Kabupaten Musi Rawas";"SUMATERA SELATAN";"31661";"Indonesia";" 085215231699";"";"";"-3.262838";"102.9368035";"https://maps.google.com/?cid=0x0:0xdcc766ad82d2a0cc";""
"home improvement";"Perhimpunan Pengembang Perumahan";"Srimulyo";"VW37+VRQ, Jl. Desa Srimulyo, Sukaraya, Suku Tengah Lakitan Ulu, Kabupaten Musi Rawas, Sumatera Selatan 31662";"Jl. Desa Srimulyo, Sukaraya, Suku Tengah Lakitan Ulu, Kabupaten Musi Rawas";"SUMATERA SELATAN";"31662";"Indonesia";" 085711772550";"";"";"-3.1452803";"102.9146039";"https://maps.google.com/?cid=0x0:0x564757a2d759f886";""
"home improvement";"Aksesori Mebel";"Home Ryan";"WRVH+XQR, Jl. Sarolangun - Lubuk Linggau, Terawas, Suku Tengah Lakitan Ulu, Kabupaten Musi Rawas, Sumatera Selatan 30771";"Jl. Sarolangun - Lubuk Linggau, Terawas, Suku Tengah Lakitan Ulu, Kabupaten Musi Rawas";"SUMATERA SELATAN";"30771";"Indonesia";" 082132926899";"";"";"-3.055";"102.8293792";"https://maps.google.com/?cid=0x0:0x998a9aec26a3d077";""
"home improvement";"Perusahaan Konstruksi";"Dhiharr interior";"Jl. Amir Hamsyah, Trikoyo, Kec. Tugumulyo, Kabupaten Musi Rawas, Sumatera Selatan 31662";"Trikoyo, Kec. Tugumulyo, Kabupaten Musi Rawas";"SUMATERA SELATAN";"31662";"Indonesia";" 082377183491";"";"";"-3.1846158";"102.9498986";"https://maps.google.com/?cid=0x0:0x1eeaa136445514ae";""
"home improvement";"Kantor Perusahaan";"PT";"C5XW+8V, Tj. Raja, Kec. Rawas Ilir, Kab. Musi Rawas Utara, Sumatera Selatan";"Kab. Musi Rawas Utara, Sumatera Selatan";"SUMATERA SELATAN";"";"Indonesia";"";"";"";"-2.5517212";"103.1972284";"https://maps.google.com/?cid=0x0:0x8cc08ef697e00279";""
"home improvement";"Pemasok mebel sesuai pesanan";"OMAH ALUMINIUM";"Jl. Notodiharjo H, Wukirsari, Kec. Tugumulyo, Kabupaten Musi Rawas, Sumatera Selatan 31662";"Wukirsari, Kec. Tugumulyo, Kabupaten Musi Rawas";"SUMATERA SELATAN";"31662";"Indonesia";" 081274324499";"";"";"-3.1594406";"102.937184";"https://maps.google.com/?cid=0x0:0xda1ad98b01250030";""
"home improvement";"Perusahaan Konstruksi";"Site PLNBBI PLANT";"C545+QJP, Beringin Makmur II, Kec. Rawas Ilir, Kabupaten Musi Rawas, Sumatera Selatan";"Kabupaten Musi Rawas, Sumatera Selatan";"SUMATERA SELATAN";"";"Indonesia";" 081272777129";"";"";"-2.5930381";"103.1590827";"https://maps.google.com/?cid=0x0:0x5dee12c59c0b2a89";""
"home improvement";"Toko Perlengkapan Rumah";"Rifanadil aluminium";"353J+GG3, Unnamed Road, Karya Sakti, Kec. Muara Kelingi, Kabupaten Musi Rawas, Sumatera Selatan 31663";"Unnamed Road, Karya Sakti, Kec. Muara Kelingi, Kabupaten Musi Rawas";"SUMATERA SELATAN";"31663";"Indonesia";" 081368873354";"";"";"-2.9462447";"103.181285";"https://maps.google.com/?cid=0x0:0xbb5bfd3aadd195f2";""
"home improvement";"Toko Mebel";"PK.Jasa Rimba";"W689+HW3, Jl. Sekayu - Lubuk Linggau, Muara Kelingi, Kec. Muara Kelingi, Kabupaten Musi Rawas, Sumatera Selatan 31663";"Jl. Sekayu - Lubuk Linggau, Muara Kelingi, Kec. Muara Kelingi, Kabupaten Musi Rawas";"SUMATERA SELATAN";"31663";"Indonesia";" 085380081585";"";"";"-3.0836246";"103.2197885";"https://maps.google.com/?cid=0x0:0x881b8531634b50b2";""
"home improvement";"Kantor Perusahaan";"Edy_almunium";"Dusun II, Widodo, Kec. Tugumulyo, Kabupaten Musi Rawas, Sumatera Selatan";"Kabupaten Musi Rawas, Sumatera Selatan";"SUMATERA SELATAN";"";"Indonesia";" 085273635758";"";"";"-3.2127458";"102.9427388";"https://maps.google.com/?cid=0x0:0x10ac75bf064635dc";""
"home improvement";"Toko Lemari";"Lemari almunium";"Dekat, Rantau Bingin, kec. Tiangpumpungut, Kabupaten Musi Rawas, Sumatera Selatan 31661";"Rantau Bingin, kec. Tiangpumpungut, Kabupaten Musi Rawas";"SUMATERA SELATAN";"31661";"Indonesia";" 083167361333";"";"";"-3.3034069";"103.0604318";"https://maps.google.com/?cid=0x0:0x4cbacea1a6752a8a";""
"home improvement";"Toko";"Citra kaca alumunium";"Jln. Soeb Tamat, Karang Dapo II, Karang Dapo, Kab. Musi Rawas Utara, Sumatera Selatan 31653";"Karang Dapo II, Karang Dapo, Kab. Musi Rawas Utara";"SUMATERA SELATAN";"31653";"Indonesia";"";"";"";"-2.7041693";"102.9966453";"https://maps.google.com/?cid=0x0:0x182a7160e35d81c4";""
"home improvement";"Perusahaan Konstruksi";"KARYA MANDIRI MEUBEL DAN TRALI BESI";"R594+JF7, Jl. Gn. Jati, Darma Sakti, Kec. Tuah Negeri, Kabupaten Musi Rawas, Sumatera Selatan 31663";"Jl. Gn. Jati, Darma Sakti, Kec. Tuah Negeri, Kabupaten Musi Rawas";"SUMATERA SELATAN";"31663";"Indonesia";" 081295960609";"";"";"-3.1809652";"103.1561777";"https://maps.google.com/?cid=0x0:0x8646d1a41bba5cf4";""
"home improvement";"Toko Perlengkapan Rumah";"Ferry almunium";"VWPX+6PJ, Jl. Fatmawati, Sumber Harta, Kec. Sumber Harta, Kabupaten Musi Rawas, Sumatera Selatan 31662";"Jl. Fatmawati, Sumber Harta, Kec. Sumber Harta, Kabupaten Musi Rawas";"SUMATERA SELATAN";"31662";"Indonesia";"";"";"";"-3.1144384";"102.9492988";"https://maps.google.com/?cid=0x0:0x64ba6e2b8317697c";""
"home improvement";"Toko bahan makanan";"Inara Online";"7W84+M63, Jalan Perum Dinas, RT.13, Muara Rupit, Kec. Rupit, Kabupaten Musi Rawas, Sumatera Selatan 31654";"Jalan Perum Dinas, RT.13, Muara Rupit, Kec. Rupit, Kabupaten Musi Rawas";"SUMATERA SELATAN";"31654";"Indonesia";" 085273404430";"";"";"-2.7333563";"102.9055517";"https://maps.google.com/?cid=0x0:0x2fa1e158a9bc7886";""
"home improvement";"Toko Mebel";"RJF. rokal jaya furnicture.";"WX36+WQG, Sukamaju, Kec. Sumber Harta, Kabupaten Musi Rawas, Sumatera Selatan 31662";"Sukamaju, Kec. Sumber Harta, Kabupaten Musi Rawas";"SUMATERA SELATAN";"31662";"Indonesia";"";"";"";"-3.0951883";"102.9619561";"https://maps.google.com/?cid=0x0:0x5436557603fea8d6";""
"home improvement";"Toko Mebel";"Dwi almunium";"VVFH+3Q, Babat, Suku Tengah Lakitan Ulu, Kabupaten Musi Rawas, Sumatera Selatan";"Kabupaten Musi Rawas, Sumatera Selatan";"SUMATERA SELATAN";"";"Indonesia";"";"";"";"-3.1278703";"102.8799462";"https://maps.google.com/?cid=0x0:0x2d17f39bffb59f22";""
"home improvement";"Toko Mebel";"JS.WAHYU ROTTAN GROUP";"Jl. Lintas Utama Sumatera, Lubuk Ngin, Kec. Selangit, Kabupaten Musi Rawas, Sumatera Selatan 31625";"Lubuk Ngin, Kec. Selangit, Kabupaten Musi Rawas";"SUMATERA SELATAN";"31625";"Indonesia";"";"";"";"-3.1309423";"102.8158321";"https://maps.google.com/?cid=0x0:0x9935d76fc085d7dd";""
"home improvement";"home improvement";"Laundry Sepatu Muratara";"";"";"SUMATERA SELATAN";"";"Indonesia";" 081387440717";"";"";"-2.7386045";"102.8088679";"https://maps.google.com/?cid=0x0:0x93e1611d27e0e8de";""
"home improvement";"Perhimpunan Pengembang Perumahan";"Mebel sjm";"Marga Baru, Kec. Muara Lakitan, Kabupaten Musi Rawas, Sumatera Selatan 31657";"Kec. Muara Lakitan, Kabupaten Musi Rawas";"SUMATERA SELATAN";"31657";"Indonesia";" 081290610238";"";"";"-2.8059387";"103.1237158";"https://maps.google.com/?cid=0x0:0x324bd09a9257d08d";""
"home improvement";"Rumah singgah";"Rumah pakdhe gorong gorong";"Bina Karya, Karang Dapo, Kab. Musi Rawas Utara, Sumatera Selatan 31658";"Karang Dapo, Kab. Musi Rawas Utara";"SUMATERA SELATAN";"31658";"Indonesia";"";"";"";"-2.7528223";"103.0868974";"https://maps.google.com/?cid=0x0:0x2ed9e8569717d85a";""
"home improvement";"Layanan komunikasi satelit";"ANDALUS PARABOLA";"Sumber Makmur, Kec. Nibung, Kabupaten Musi Rawas, Sumatera Selatan 31667";"Kec. Nibung, Kabupaten Musi Rawas";"SUMATERA SELATAN";"31667";"Indonesia";" 082281222411";"";"";"-2.5097587";"102.929834";"https://maps.google.com/?cid=0x0:0xe9e395e1c6a0f16e";""
"home improvement";"Gudang";"Yan alumunium";"Megang Sakti I, Kec. Megang Sakti, Kabupaten Musi Rawas, Sumatera Selatan 31661";"Kec. Megang Sakti, Kabupaten Musi Rawas";"SUMATERA SELATAN";"31661";"Indonesia";" 082264860985";"";"";"-3.0269053";"103.0211056";"https://maps.google.com/?cid=0x0:0xba579ac9716eb0ad";""
"home improvement";"Toko Mebel Rotan";"AL - FATIH ROTAN";"Marga Rahayu, Kec. Lubuk Linggau Sel. II, Kota Lubuklinggau, Sumatera Selatan 31625";"Kec. Lubuk Linggau Sel. II, Kota Lubuklinggau";"SUMATERA SELATAN";"31625";"Indonesia";" 082228377958";"";"";"-3.2675744";"102.9274902";"https://maps.google.com/?cid=0x0:0x73a76f30de1775b9";""
"home improvement";"home improvement";"cPz2Z_7tFsKgseMPle_luQE"-,null,null,1,null,"https://www.google.com/maps/preview/place/Apa+aja+boleh/@-3.3181909,102.999997,3983a,13.1y/datau003d!4m2!3m1!1s0xa221847c1b3b00d5:0x223b27d37b0e4902";"";"";"SUMATERA SELATAN";"";"Indonesia";" 08381860372";"";"";"-3.3181909";"102.999997";"https://maps.google.com/?cid=0x0:0x223b27d37b0e4902";""
"home improvement";"Perajin furnitur";"HFK Furniture";"Jl. Mangga Besar, Ps. Satelit, Kec. Lubuk Linggau Utara II, Kota Lubuklinggau, Sumatera Selatan 31617";"Ps. Satelit, Kec. Lubuk Linggau Utara II, Kota Lubuklinggau";"SUMATERA SELATAN";"31617";"Indonesia";" 081996193322";"";"";"-3.2849835";"102.8641591";"https://maps.google.com/?cid=0x0:0x2ccb1d3a70db0d76";""
"home improvement";"home improvement";"Sumatera Selatan 31656";"Kabupaten Musi Rawas, Sumatera Selatan";"Kabupaten Musi Rawas, Sumatera Selatan";"SUMATERA SELATAN";"";"Indonesia";"";"";"";"-2.6716149";"102.6675575";"https://maps.google.com/?cid=0x0:0x829aeb46883c7ea6";""
"home improvement";"Perhimpunan Pengembang Perumahan";"Srimulyo";"VW37+VRQ, Jl. Desa Srimulyo, Sukaraya, Suku Tengah Lakitan Ulu, Kabupaten Musi Rawas, Sumatera Selatan 31662";"Jl. Desa Srimulyo, Sukaraya, Suku Tengah Lakitan Ulu, Kabupaten Musi Rawas";"SUMATERA SELATAN";"31662";"Indonesia";" 085711772550";"";"";"-3.1452803";"102.9146039";"https://maps.google.com/?cid=0x0:0x564757a2d759f886";""
"home improvement";"Aksesori Mebel";"Home Ryan";"WRVH+XQR, Jl. Sarolangun - Lubuk Linggau, Terawas, Suku Tengah Lakitan Ulu, Kabupaten Musi Rawas, Sumatera Selatan 30771";"Jl. Sarolangun - Lubuk Linggau, Terawas, Suku Tengah Lakitan Ulu, Kabupaten Musi Rawas";"SUMATERA SELATAN";"30771";"Indonesia";" 082132926899";"";"";"-3.055";"102.8293792";"https://maps.google.com/?cid=0x0:0x998a9aec26a3d077";""
"home improvement";"Toko bahan makanan";"Inara Online";"7W84+M63, Jalan Perum Dinas, RT.13, Muara Rupit, Kec. Rupit, Kabupaten Musi Rawas, Sumatera Selatan 31654";"Jalan Perum Dinas, RT.13, Muara Rupit, Kec. Rupit, Kabupaten Musi Rawas";"SUMATERA SELATAN";"31654";"Indonesia";" 085273404430";"";"";"-2.7333563";"102.9055517";"https://maps.google.com/?cid=0x0:0x2fa1e158a9bc7886";""
"home improvement";"Perusahaan Konstruksi";"Dhiharr interior";"Jl. Amir Hamsyah, Trikoyo, Kec. Tugumulyo, Kabupaten Musi Rawas, Sumatera Selatan 31662";"Trikoyo, Kec. Tugumulyo, Kabupaten Musi Rawas";"SUMATERA SELATAN";"31662";"Indonesia";" 082377183491";"";"";"-3.1846158";"102.9498986";"https://maps.google.com/?cid=0x0:0x1eeaa136445514ae";""
"home improvement";"Pemasok mebel sesuai pesanan";"OMAH ALUMINIUM";"Jl. Notodiharjo H, Wukirsari, Kec. Tugumulyo, Kabupaten Musi Rawas, Sumatera Selatan 31662";"Wukirsari, Kec. Tugumulyo, Kabupaten Musi Rawas";"SUMATERA SELATAN";"31662";"Indonesia";" 081274324499";"";"";"-3.1594406";"102.937184";"https://maps.google.com/?cid=0x0:0xda1ad98b01250030";""
"home improvement";"Toko Mebel";"RZ MEUBEL JAYA";"9QQ6+VCC, Surulangun, Kec. Rawas Ulu, Kabupaten Musi Rawas, Sumatera Selatan";"Kabupaten Musi Rawas, Sumatera Selatan";"SUMATERA SELATAN";"";"Indonesia";" 082374489220";"";"";"-2.6103185";"102.7610155";"https://maps.google.com/?cid=0x0:0xc12a1fec2036e18d";""
"home improvement";"Toko Mebel";"Dwi almunium";"VVFH+3Q, Babat, Suku Tengah Lakitan Ulu, Kabupaten Musi Rawas, Sumatera Selatan";"Kabupaten Musi Rawas, Sumatera Selatan";"SUMATERA SELATAN";"";"Indonesia";"";"";"";"-3.1278703";"102.8799462";"https://maps.google.com/?cid=0x0:0x2d17f39bffb59f22";""
"home improvement";"Toko Perlengkapan Rumah";"Rifanadil aluminium";"353J+GG3, Unnamed Road, Karya Sakti, Kec. Muara Kelingi, Kabupaten Musi Rawas, Sumatera Selatan 31663";"Unnamed Road, Karya Sakti, Kec. Muara Kelingi, Kabupaten Musi Rawas";"SUMATERA SELATAN";"31663";"Indonesia";" 081368873354";"";"";"-2.9462447";"103.181285";"https://maps.google.com/?cid=0x0:0xbb5bfd3aadd195f2";""
"home improvement";"Toko Elektronik";"HEN Service Elektronik";"9QG4+V4P, Ps. Surulangun, Kec. Rawas Ulu, Kabupaten Musi Rawas, Sumatera Selatan 31656";"Ps. Surulangun, Kec. Rawas Ulu, Kabupaten Musi Rawas";"SUMATERA SELATAN";"31656";"Indonesia";" 081372570177";"";"";"-2.6227886";"102.7553279";"https://maps.google.com/?cid=0x0:0xf51d3f1f33ae7533";""
"home improvement";"Toko Mebel";"Jaya Abadi Mebel";"CQ22+XWG, Jl. Lintas Utama Sumatera, Sungai Jauh, Kec. Rawas Ulu, Kabupaten Musi Rawas, Sumatera Selatan 31656";"Jl. Lintas Utama Sumatera, Sungai Jauh, Kec. Rawas Ulu, Kabupaten Musi Rawas";"SUMATERA SELATAN";"31656";"Indonesia";" 082375210292";"";"";"-2.5974989";"102.7523286";"https://maps.google.com/?cid=0x0:0x705aa73f16d4d25b";""
"home improvement";"Toko Perlengkapan Rumah";"Ferry almunium";"VWPX+6PJ, Jl. Fatmawati, Sumber Harta, Kec. Sumber Harta, Kabupaten Musi Rawas, Sumatera Selatan 31662";"Jl. Fatmawati, Sumber Harta, Kec. Sumber Harta, Kabupaten Musi Rawas";"SUMATERA SELATAN";"31662";"Indonesia";"";"";"";"-3.1144384";"102.9492988";"https://maps.google.com/?cid=0x0:0x64ba6e2b8317697c";""
"home improvement";"Kantor Perusahaan";"Edy_almunium";"Dusun II, Widodo, Kec. Tugumulyo, Kabupaten Musi Rawas, Sumatera Selatan";"Kabupaten Musi Rawas, Sumatera Selatan";"SUMATERA SELATAN";"";"Indonesia";" 085273635758";"";"";"-3.2127458";"102.9427388";"https://maps.google.com/?cid=0x0:0x10ac75bf064635dc";""
"home improvement";"Toko Mebel";"RJF. rokal jaya furnicture.";"WX36+WQG, Sukamaju, Kec. Sumber Harta, Kabupaten Musi Rawas, Sumatera Selatan 31662";"Sukamaju, Kec. Sumber Harta, Kabupaten Musi Rawas";"SUMATERA SELATAN";"31662";"Indonesia";"";"";"";"-3.0951883";"102.9619561";"https://maps.google.com/?cid=0x0:0x5436557603fea8d6";""
"home improvement";"Toko Mebel";"JS.WAHYU ROTTAN GROUP";"Jl. Lintas Utama Sumatera, Lubuk Ngin, Kec. Selangit, Kabupaten Musi Rawas, Sumatera Selatan 31625";"Lubuk Ngin, Kec. Selangit, Kabupaten Musi Rawas";"SUMATERA SELATAN";"31625";"Indonesia";"";"";"";"-3.1309423";"102.8158321";"https://maps.google.com/?cid=0x0:0x9935d76fc085d7dd";""
"home improvement";"Toko Mebel";"Rumah Via";"2XVW+M7P, Jajaran Baru I, Kec. Megang Sakti, Kabupaten Musi Rawas, Sumatera Selatan";"Kabupaten Musi Rawas, Sumatera Selatan";"SUMATERA SELATAN";"";"Indonesia";"";"";"";"-2.9557762";"102.9957161";"https://maps.google.com/?cid=0x0:0xb5dd2673f21eb4d4";""
"home improvement";"Toko Mebel";"GK_Alumunium";"VV9J+CVV, Babat, Suku Tengah Lakitan Ulu, Kabupaten Musi Rawas, Sumatera Selatan";"Kabupaten Musi Rawas, Sumatera Selatan";"SUMATERA SELATAN";"";"Indonesia";" 085368847668";"";"";"-3.1313985";"102.8821754";"https://maps.google.com/?cid=0x0:0xf8cd11a43576334a";""
"home improvement";"Toko";"Citra kaca alumunium";"Jln. Soeb Tamat, Karang Dapo II, Karang Dapo, Kab. Musi Rawas Utara, Sumatera Selatan 31653";"Karang Dapo II, Karang Dapo, Kab. Musi Rawas Utara";"SUMATERA SELATAN";"31653";"Indonesia";"";"";"";"-2.7041693";"102.9966453";"https://maps.google.com/?cid=0x0:0x182a7160e35d81c4";""
"home improvement";"Toko Mebel";"Mebel bogenginterior";"Kampung 4, Lubuk Kemang, Kec. Rawas Ulu, Kab. Musi Rawas Utara, Sumatera Selatan 31656";"Lubuk Kemang, Kec. Rawas Ulu, Kab. Musi Rawas Utara";"SUMATERA SELATAN";"31656";"Indonesia";" 082293662234";"";"";"-2.653094";"102.8252644";"https://maps.google.com/?cid=0x0:0x68ed9a6f7511279e";""
"home improvement";"Toko Mebel";"Gisya almunium";"X3VH+64J, Pagar Ayu, Kec. Megang Sakti, Kabupaten Musi Rawas, Sumatera Selatan";"Kabupaten Musi Rawas, Sumatera Selatan";"SUMATERA SELATAN";"";"Indonesia";" 085282310120";"";"";"-3.0069244";"103.0777699";"https://maps.google.com/?cid=0x0:0x48e72d2abeb9b0db";""
"home improvement";"Toko Mebel Amish";"Heru meubel jepara";"Jl. Lintas Utama Sumatera No.rt 04, Sungai Jauh, Kec. Rawas Ulu, Kota Lubuklinggau, Sumatera Selatan 42223";"Sungai Jauh, Kec. Rawas Ulu, Kota Lubuklinggau";"SUMATERA SELATAN";"42223";"Indonesia";" 085783347204";"";"";"-2.5941366";"102.7481071";"https://maps.google.com/?cid=0x0:0xe41589354d0f724c";""
"home improvement";"Sekolah Menengah Umum";"SMK NEGERI RAWAS ULU";"Jl. Lintas Utama Sumatera, Sungai Jauh, Kec. Rawas Ulu, Kab. Musi Rawas Utara, Sumatera Selatan 60253";"Sungai Jauh, Kec. Rawas Ulu, Kab. Musi Rawas Utara";"SUMATERA SELATAN";"60253";"Indonesia";" 081366145604";"";"";"-2.5837834";"102.7410678";"https://maps.google.com/?cid=0x0:0xf05587ed42874abd";""
"home improvement";"Pengrajin Lemari";"Mebel AL FARIDZ";"XR9R+QG5, Sukamana, Suku Tengah Lakitan Ulu, Kabupaten Musi Rawas, Sumatera Selatan 30771";"Sukamana, Suku Tengah Lakitan Ulu, Kabupaten Musi Rawas";"SUMATERA SELATAN";"30771";"Indonesia";"";"";"";"-3.0306029";"102.8413694";"https://maps.google.com/?cid=0x0:0x9a208b6be7ffeda5";""
"home improvement";"Toko Mebel";"Mebel nabilah";"Jl. Sarolangun - Lubuk Linggau, Muara Rupit, Kec. Rupit, Kab. Musi Rawas Utara, Sumatera Selatan 31654";"Muara Rupit, Kec. Rupit, Kab. Musi Rawas Utara";"SUMATERA SELATAN";"31654";"Indonesia";"";"";"";"-2.7334486";"102.9039172";"https://maps.google.com/?cid=0x0:0x1b4f831c174b3b54";""
"home improvement";"Layanan komunikasi satelit";"ANDALUS PARABOLA";"Sumber Makmur, Kec. Nibung, Kabupaten Musi Rawas, Sumatera Selatan 31667";"Kec. Nibung, Kabupaten Musi Rawas";"SUMATERA SELATAN";"31667";"Indonesia";" 082281222411";"";"";"-2.5097587";"102.929834";"https://maps.google.com/?cid=0x0:0xe9e395e1c6a0f16e";""
"home improvement";"home improvement";"Kec. Rupit";"Kab. Musi Rawas Utara, Sumatera Selatan";"Kab. Musi Rawas Utara, Sumatera Selatan";"SUMATERA SELATAN";"";"Indonesia";"";"";"";"-2.7205772";"102.9116717";"https://maps.google.com/?cid=0x0:0xa822b6d74806cc91";""
"home improvement";"Toko bahan makanan";"Inara Online";"7W84+M63, Jalan Perum Dinas, RT.13, Muara Rupit, Kec. Rupit, Kabupaten Musi Rawas, Sumatera Selatan 31654";"Jalan Perum Dinas, RT.13, Muara Rupit, Kec. Rupit, Kabupaten Musi Rawas";"SUMATERA SELATAN";"31654";"Indonesia";" 085273404430";"";"";"-2.7333563";"102.9055517";"https://maps.google.com/?cid=0x0:0x2fa1e158a9bc7886";""
"home improvement";"Toko Mebel";"Mebel nabilah";"Jl. Sarolangun - Lubuk Linggau, Muara Rupit, Kec. Rupit, Kab. Musi Rawas Utara, Sumatera Selatan 31654";"Muara Rupit, Kec. Rupit, Kab. Musi Rawas Utara";"SUMATERA SELATAN";"31654";"Indonesia";"";"";"";"-2.7334486";"102.9039172";"https://maps.google.com/?cid=0x0:0x1b4f831c174b3b54";""
"home improvement";"Toko Mebel";"CV.DepotKayuGean";"7WV8+M2F, Lawang Agung, Kec. Rupit, Kab. Musi Rawas Utara, Sumatera Selatan 31654";"Lawang Agung, Kec. Rupit, Kab. Musi Rawas Utara";"SUMATERA SELATAN";"31654";"Indonesia";"";"";"";"-2.7066211";"102.9146094";"https://maps.google.com/?cid=0x0:0x1210173509944927";""
"home improvement";"Toko Mebel";"Maasni furnitur";"6VXR+7PR, Beringin Jaya, Kec. Rupit, Kab. Musi Rawas Utara, Sumatera Selatan 31654";"Beringin Jaya, Kec. Rupit, Kab. Musi Rawas Utara";"SUMATERA SELATAN";"31654";"Indonesia";"";"";"";"-2.7517695";"102.8917556";"https://maps.google.com/?cid=0x0:0xa7838a491b63d3df";""
"home improvement";"Toko";"Muara Rupit";"7WJ3+RX8, Muara Rupit, Kec. Rupit, Kabupaten Musi Rawas, Sumatera Selatan";"Kabupaten Musi Rawas, Sumatera Selatan";"SUMATERA SELATAN";"";"Indonesia";"";"";"";"-2.7179645";"102.9049515";"https://maps.google.com/?cid=0x0:0xda5b35ae8618ab6e";""
"home improvement";"Jasa Konstruksi dan Bangunan";"PT. REMBAN SUNGAI BERAES";"Muara Rupit, Kec. Rupit, Kabupaten Musi Rawas, Sumatera Selatan 31654";"Kec. Rupit, Kabupaten Musi Rawas";"SUMATERA SELATAN";"31654";"Indonesia";" 08128882785";"";"";"-2.7205772";"102.9116717";"https://maps.google.com/?cid=0x0:0xb3f3615e56dd380f";""
"home improvement";"Toko Bahan Bangunan";"TOKO KONTRUKSI";"7WG4+PWG, Muara Rupit, Kec. Rupit, Kab. Musi Rawas Utara, Sumatera Selatan 31654";"Muara Rupit, Kec. Rupit, Kab. Musi Rawas Utara";"SUMATERA SELATAN";"31654";"Indonesia";" 081298797827";"";"";"-2.7231911";"102.907313";"https://maps.google.com/?cid=0x0:0x250dfbcefde1508e";""
"home improvement";"Kantor Perusahaan";"PT CIPTA MURATARA";"Muara Rupit, Kec. Rupit, Kabupaten Musi Rawas, Sumatera Selatan";"Kabupaten Musi Rawas, Sumatera Selatan";"SUMATERA SELATAN";"";"Indonesia";"";"";"";"-2.7333125";"102.9056875";"https://maps.google.com/?cid=0x0:0x5cf86feff0c1cd4f";""
"home improvement";"Toko";"JL Decoration, Blower/Kipas Angin,Papan Ucapan/Floris";"Dusun IX, Lawang Agung, Kec. Rupit, Kab. Musi Rawas Utara, Sumatera Selatan 31654";"Lawang Agung, Kec. Rupit, Kab. Musi Rawas Utara";"SUMATERA SELATAN";"31654";"Indonesia";" 081367154488";"";"";"-2.709897";"102.913296";"https://maps.google.com/?cid=0x0:0xe54c730ba82b6cd2";""
"home improvement";"Toko";"Elvin elektronik";"Jl. Sarolangun - Lubuk Linggau, Bingin Rupit, Kec. Rupit, Kab. Musi Rawas Utara, Sumatera Selatan 31654";"Bingin Rupit, Kec. Rupit, Kab. Musi Rawas Utara";"SUMATERA SELATAN";"31654";"Indonesia";" 081281141466";"";"";"-2.7642681";"102.872";"https://maps.google.com/?cid=0x0:0x6e2b5969eba86ffc";""
"home improvement";"home improvement";"Rupit";"08569, Provinsi Barcelona, Spanyol";"Rupit, Spanyol";"SUMATERA SELATAN";"";"Indonesia";"";"";"";"42.0245042";"2.4655228";"https://maps.google.com/?cid=0x0:0xa5dbe78a7e794f82";""
"home improvement";"home improvement";"Casa Can Rufo de Rupit";"Sant Joan de Fabregues, 42 BIS, 08569 Rupit, Barcelona, Spanyol";"Rupit";"SUMATERA SELATAN";"08569";"Indonesia";" +34625086296";"";"";"42.0228302";"2.4627847";"https://maps.google.com/?cid=0x0:0xd1bf1dc8e992bd90";""
"home improvement";"home improvement";"Sumatera Selatan 31669";"Kab. Musi Rawas Utara, Sumatera Selatan";"Kab. Musi Rawas Utara, Sumatera Selatan";"SUMATERA SELATAN";"";"Indonesia";"";"";"";"-2.7917254";"102.3463875";"https://maps.google.com/?cid=0x0:0x98db126b92af20bb";""
"home improvement";"Aksesori Mebel";"Home Ryan";"WRVH+XQR, Jl. Sarolangun - Lubuk Linggau, Terawas, Suku Tengah Lakitan Ulu, Kabupaten Musi Rawas, Sumatera Selatan 30771";"Jl. Sarolangun - Lubuk Linggau, Terawas, Suku Tengah Lakitan Ulu, Kabupaten Musi Rawas";"SUMATERA SELATAN";"30771";"Indonesia";" 082132926899";"";"";"-3.055";"102.8293792";"https://maps.google.com/?cid=0x0:0x998a9aec26a3d077";""
"home improvement";"Toko Lemari";"Rumah Indah";"2QVC+7FH, Dusun 5, Rantau Jaya, Kec. Karang Jaya, Kab. Musi Rawas Utara, Sumatera Selatan";"Kab. Musi Rawas Utara, Sumatera Selatan";"SUMATERA SELATAN";"";"Indonesia";"";"";"";"-2.9568156";"102.771245";"https://maps.google.com/?cid=0x0:0x293b2df7a9f9859c";""
"home improvement";"Pembangunan Perumahan";"Rumah Kowo";"WX98+H9F, Sumber Sari, Kec. Sumber Harta, Kabupaten Musi Rawas, Sumatera Selatan";"Kabupaten Musi Rawas, Sumatera Selatan";"SUMATERA SELATAN";"";"Indonesia";"";"";"";"-3.0810512";"102.9659229";"https://maps.google.com/?cid=0x0:0xef8259066791ce90";""
"home improvement";"home improvement";"Ulu Rawas";"Kab. Musi Rawas Utara, Sumatera Selatan";"Kab. Musi Rawas Utara, Sumatera Selatan";"SUMATERA SELATAN";"";"Indonesia";"";"";"";"-2.7227876";"102.4553872";"https://maps.google.com/?cid=0x0:0x3e24bc6f1ca91201";""
"home improvement";"Toko Mebel";"RZ MEUBEL JAYA";"9QQ6+VCC, Surulangun, Kec. Rawas Ulu, Kabupaten Musi Rawas, Sumatera Selatan";"Kabupaten Musi Rawas, Sumatera Selatan";"SUMATERA SELATAN";"";"Indonesia";" 082374489220";"";"";"-2.6103185";"102.7610155";"https://maps.google.com/?cid=0x0:0xc12a1fec2036e18d";""
"home improvement";"Perusahaan Konstruksi";"Dhiharr interior";"Jl. Amir Hamsyah, Trikoyo, Kec. Tugumulyo, Kabupaten Musi Rawas, Sumatera Selatan 31662";"Trikoyo, Kec. Tugumulyo, Kabupaten Musi Rawas";"SUMATERA SELATAN";"31662";"Indonesia";" 082377183491";"";"";"-3.1846158";"102.9498986";"https://maps.google.com/?cid=0x0:0x1eeaa136445514ae";""
"home improvement";"Toko Mebel";"Jaya Abadi Mebel";"CQ22+XWG, Jl. Lintas Utama Sumatera, Sungai Jauh, Kec. Rawas Ulu, Kabupaten Musi Rawas, Sumatera Selatan 31656";"Jl. Lintas Utama Sumatera, Sungai Jauh, Kec. Rawas Ulu, Kabupaten Musi Rawas";"SUMATERA SELATAN";"31656";"Indonesia";" 082375210292";"";"";"-2.5974989";"102.7523286";"https://maps.google.com/?cid=0x0:0x705aa73f16d4d25b";""
"home improvement";"Kontraktor Umum";"Meubel Tamus";"Bukit Kalimau Ulu, Kec. Batang Asai, Kabupaten Sarolangun, Jambi 37485";"Kec. Batang Asai, Kabupaten Sarolangun";"SUMATERA SELATAN";"37485";"Indonesia";" 085397487782";"";"";"-2.4852921";"102.2754591";"https://maps.google.com/?cid=0x0:0xb1961ebd86050c0d";""
"home improvement";"Kantor Perusahaan";"Fattan Tarup";"Jl. Kartini C No.Desa, Nawangsasi, Kec. Tugumulyo, Kabupaten Musi Rawas, Sumatera Selatan 31662";"Nawangsasi, Kec. Tugumulyo, Kabupaten Musi Rawas";"SUMATERA SELATAN";"31662";"Indonesia";" 082280089923";"";"";"-3.1882046";"102.9305407";"https://maps.google.com/?cid=0x0:0x483ef5217122b31d";""
