Category;Real Category;Business Name;Address;City;State;Postal Code;Country;Phone;Email;Website;Latitude;Longitude;Map Link;Details Link
"mall";"mall";"Sumatera Selatan 31658";"Karang Dapo, Kabupaten Musi Rawas, Sumatera Selatan";"Kabupaten Musi Rawas, Sumatera Selatan";"SUMATERA SELATAN";"";"Indonesia";"";"";"";"-2.7453255";"103.035694";"https://maps.google.com/?cid=0x0:0xe72620e1eb13dcdf";""
"mall";"Pusat Perbelanjaan";"Pasar Karang Dapo";"7XXM+XJ4, Unnamed Road, Karang Dapo II, Karang Dapo, Kab. Musi Rawas Utara, Sumatera Selatan 31658";"Unnamed Road, Karang Dapo II, Karang Dapo, Kab. Musi Rawas Utara";"SUMATERA SELATAN";"31658";"Indonesia";"";"";"";"-2.7001039";"102.9840781";"https://maps.google.com/?cid=0x0:0x42e7bd10fb55aa21";""
"mall";"Toko";"NirwanaCell";"Setia Marga, Karang Dapo, Kabupaten Musi Rawas, Sumatera Selatan 31658";"Karang Dapo, Kabupaten Musi Rawas";"SUMATERA SELATAN";"31658";"Indonesia";" 081368686858";"";"";"-2.806694";"103.0700971";"https://maps.google.com/?cid=0x0:0xd724be0fcb391a18";""
"mall";"Toko umum";"Mandiangin Rawas, Muratara, Sumsel";"83R7+PQW, Mandi Angin, Kec. Rawas Ilir, Kabupaten Musi Rawas, Sumatera Selatan 31658";"Mandi Angin, Kec. Rawas Ilir, Kabupaten Musi Rawas";"SUMATERA SELATAN";"31658";"Indonesia";" 081249044001";"";"";"-2.6581347";"103.0644442";"https://maps.google.com/?cid=0x0:0x9d008024e21a6d1e";""
"mall";"Komplek perumahan";"Pasar Dusun Transsubur";"63WQ+C2H, Bina Karya, Karang Dapo, Kabupaten Musi Rawas, Sumatera Selatan 31658";"Bina Karya, Karang Dapo, Kabupaten Musi Rawas";"SUMATERA SELATAN";"31658";"Indonesia";"";"";"";"-2.7539264";"103.0875995";"https://maps.google.com/?cid=0x0:0x9de4a131718d24ef";""
"mall";"Toko";"TOKO ICAN";"53VC+83C, Setia Marga, Karang Dapo, Kabupaten Musi Rawas, Sumatera Selatan 31658";"Setia Marga, Karang Dapo, Kabupaten Musi Rawas";"SUMATERA SELATAN";"31658";"Indonesia";" 082373470292";"";"";"-2.806683";"103.0701347";"https://maps.google.com/?cid=0x0:0x29ead5dfb11b7771";""
"mall";"Lapangan Sepak Bola";"Lapangan Sepak Bola Panorama Rantau Kadam";"31658, Rantau Kadam, Karang Dapo, Kab. Musi Rawas Utara, Sumatera Selatan 31658";"Rantau Kadam, Karang Dapo, Kab. Musi Rawas Utara";"SUMATERA SELATAN";"31658";"Indonesia";"";"";"";"-2.7033055";"102.9687087";"https://maps.google.com/?cid=0x0:0x9cd44940256882f6";""
"mall";"Toko bahan makanan";"Counter Essacell";"Marga Baru, Kec. Muara Lakitan, Kabupaten Musi Rawas, Sumatera Selatan 31657";"Kec. Muara Lakitan, Kabupaten Musi Rawas";"SUMATERA SELATAN";"31657";"Indonesia";" 081272827159";"";"";"-2.8061876";"103.1214011";"https://maps.google.com/?cid=0x0:0x807cd8a8bac5fc4d";""
"mall";"Toko";"Minimarket Langgeng Budoyo";"Marga Baru, Kec. Muara Lakitan, Kabupaten Musi Rawas, Sumatera Selatan 31657";"Kec. Muara Lakitan, Kabupaten Musi Rawas";"SUMATERA SELATAN";"31657";"Indonesia";" 081367587768";"";"";"-2.8066883";"103.1235471";"https://maps.google.com/?cid=0x0:0x87205a4973de9ede";""
"mall";"Komplek perumahan";"Famili Kita Group";"94P8+QP4, Unnamed Road, Beringin Makmur II, Kec. Rawas Ilir, Kab. Musi Rawas Utara, Sumatera Selatan 31655";"Unnamed Road, Beringin Makmur II, Kec. Rawas Ilir, Kab. Musi Rawas Utara";"SUMATERA SELATAN";"31655";"Indonesia";"";"";"";"-2.6131028";"103.1168436";"https://maps.google.com/?cid=0x0:0x8a92a2d2a63c345e";""
"mall";"Pusat Perbelanjaan";"Pasar Marga Baru SP3 Tran subur";"54WH+2FM, Marga Baru, Kec. Muara Lakitan, Kabupaten Musi Rawas, Sumatera Selatan 31657";"Marga Baru, Kec. Muara Lakitan, Kabupaten Musi Rawas";"SUMATERA SELATAN";"31657";"Indonesia";" 085211220558";"";"";"-2.804911";"103.1286746";"https://maps.google.com/?cid=0x0:0x48356d5fcf443303";""
"mall";"Toko";"Toko zakaria";"Biaro Baru, Karang Dapo, Kab. Musi Rawas Utara, Sumatera Selatan 31658";"Karang Dapo, Kab. Musi Rawas Utara";"SUMATERA SELATAN";"31658";"Indonesia";" 082380353229";"";"";"-2.7350503";"103.0471605";"https://maps.google.com/?cid=0x0:0x4c447749b7471c55";""
"mall";"Toko";"TOKO GROSIR FADLY";"Marga Baru, Kec. Muara Lakitan, Kabupaten Musi Rawas, Sumatera Selatan 31657";"Kec. Muara Lakitan, Kabupaten Musi Rawas";"SUMATERA SELATAN";"31657";"Indonesia";" 082281088859";"";"";"-2.8066542";"103.1185948";"https://maps.google.com/?cid=0x0:0xe2b18a0afdc991e8";""
"mall";"Toko umum";"Rada saputrs";"54QH+MCV, Unnamed Road, Marga Baru, Kec. Muara Lakitan, Kabupaten Musi Rawas, Sumatera Selatan 31657";"Unnamed Road, Marga Baru, Kec. Muara Lakitan, Kabupaten Musi Rawas";"SUMATERA SELATAN";"31657";"Indonesia";" 081545970788";"";"";"-2.8107621";"103.1285625";"https://maps.google.com/?cid=0x0:0x117567aa39613aff";""
"mall";"Toko";"Toko Sembako DOA IBU ( Deri Putra)";"83Q9+F35, Jl. Raya Rawas Ilir, Mandi Angin, Kec. Rawas Ilir, Kab. Musi Rawas Utara, Sumatera Selatan 31658";"Jl. Raya Rawas Ilir, Mandi Angin, Kec. Rawas Ilir, Kab. Musi Rawas Utara";"SUMATERA SELATAN";"31658";"Indonesia";" 081369980399";"";"";"-2.6613679";"103.0677263";"https://maps.google.com/?cid=0x0:0x16a82d7adeb31f4";""
"mall";"Toko";"Beringin Teluk Muara Tara";"94M6+4JX, Bingin Tlk., bupaten, Kabupaten Musi Rawas, Sumatera Selatan 31655";"Bingin Tlk., bupaten, Kabupaten Musi Rawas";"SUMATERA SELATAN";"31655";"Indonesia";"";"";"";"-2.6171328";"103.1116139";"https://maps.google.com/?cid=0x0:0xfb435e7f9b591fcc";""
"mall";"Pusat Perbelanjaan";"Pusat Perbelanjaan Asifa Sur Amin";"7WJ7+QQ5, Lawang Agung, Kec. Rupit, Kab. Musi Rawas Utara, Sumatera Selatan 31654";"Lawang Agung, Kec. Rupit, Kab. Musi Rawas Utara";"SUMATERA SELATAN";"31654";"Indonesia";" 082217556562";"";"";"-2.7181152";"102.9144704";"https://maps.google.com/?cid=0x0:0xd4f47d231a83a2e9";""
"mall";"Toko";"Rizky Mandiri";"94M8+PGV, Beringin Makmur II, Kec. Rawas Ilir, Kabupaten Musi Rawas, Sumatera Selatan 31655";"Beringin Makmur II, Kec. Rawas Ilir, Kabupaten Musi Rawas";"SUMATERA SELATAN";"31655";"Indonesia";"";"";"";"-2.6156286";"103.1162952";"https://maps.google.com/?cid=0x0:0x62f98d1e58ea7240";""
"mall";"Pusat Perbelanjaan";"RAM KADES AZHARI BMI";"9497+9Q, Beringin Makmur I, Kec. Rawas Ilir, Kab. Musi Rawas Utara, Sumatera Selatan";"Kab. Musi Rawas Utara, Sumatera Selatan";"SUMATERA SELATAN";"";"Indonesia";"";"";"";"-2.6315344";"103.1144122";"https://maps.google.com/?cid=0x0:0x9012fe28b6e7b84a";""
"mall";"Pusat Perbelanjaan";"Toko mar";"94P5+J93, Beringin Makmur II, Kec. Rawas Ilir, Kab. Musi Rawas Utara, Sumatera Selatan";"Kab. Musi Rawas Utara, Sumatera Selatan";"SUMATERA SELATAN";"";"Indonesia";"";"";"";"-2.6132562";"103.1090569";"https://maps.google.com/?cid=0x0:0x29840110532c7b18";""
"mall";"";"Warung MAMAKEK";"74C5+7X7, Mandi Angin, Kec. Rawas Ilir, Kabupaten Musi Rawas, Sumatera Selatan 31658";"Mandi Angin, Kec. Rawas Ilir, Kabupaten Musi Rawas";"SUMATERA SELATAN";"31658";"Indonesia";" 085378680019";"";"";"-2.7293409";"103.1099342";"https://maps.google.com/?cid=0x0:0x21233838e159926e";""
"mall";"Pusat Perbelanjaan";"Toko Macang Jaya";"7WM6+J7V, Lawang Agung, Kec. Rupit, Kabupaten Musi Rawas, Sumatera Selatan 31654";"Lawang Agung, Kec. Rupit, Kabupaten Musi Rawas";"SUMATERA SELATAN";"31654";"Indonesia";" 082282887723";"";"";"-2.715878";"102.9106827";"https://maps.google.com/?cid=0x0:0x75be62169ede356b";""
"mall";"Pusat Perbelanjaan";"Beli kelapa sawit #ANUGRAH_JAYA";"7WHG+9CH, Muara Rupit, Kec. Rupit, Kab. Musi Rawas Utara, Sumatera Selatan 31654";"Muara Rupit, Kec. Rupit, Kab. Musi Rawas Utara";"SUMATERA SELATAN";"31654";"Indonesia";" 081279728021";"";"";"-2.7215623";"102.9261184";"https://maps.google.com/?cid=0x0:0x9155a54af9a568a0";""
"mall";"mall";"Kanaya Cell";"Tsm, Jln poros Binakarya, Blok E, Setia Marga, Transubur, Sumatera Selatan 31658";"Jln poros Binakarya, Blok E, Setia Marga, Transubur";"SUMATERA SELATAN";"31658";"Indonesia";" 082177792141";"";"";"-2.7736049";"103.0971818";"https://maps.google.com/?cid=0x0:0xc69fbd2f5db960a";""
"mall";"Pusat Perbelanjaan";"Yesti Celluler";"55R5+GMR, dusun 4, Sidomulyo, Kec. Muara Lakitan, Kabupaten Musi Rawas, Sumatera Selatan 31666";"dusun 4, Sidomulyo, Kec. Muara Lakitan, Kabupaten Musi Rawas";"SUMATERA SELATAN";"31666";"Indonesia";" 085758611443";"";"";"-2.8086423";"103.1591561";"https://maps.google.com/?cid=0x0:0x77681fa7a011c582";""
"mall";"Pusat Perbelanjaan";"TOKO MACANG JAYA";"jalan jembatan, Embacang Baru, Kec. Karang Jaya, Kabupaten Musi Rawas, Sumatera Selatan 31654";"Embacang Baru, Kec. Karang Jaya, Kabupaten Musi Rawas";"SUMATERA SELATAN";"31654";"Indonesia";" 081271991835";"";"";"-2.8477552";"102.8079474";"https://maps.google.com/?cid=0x0:0x19519256180ff37d";""
"mall";"Pusat Perbelanjaan";"Toko Macang Jaya";"7WM6+J7V, Lawang Agung, Kec. Rupit, Kabupaten Musi Rawas, Sumatera Selatan 31654";"Lawang Agung, Kec. Rupit, Kabupaten Musi Rawas";"SUMATERA SELATAN";"31654";"Indonesia";" 082282887723";"";"";"-2.715878";"102.9106827";"https://maps.google.com/?cid=0x0:0x75be62169ede356b";""
"mall";"mall";"Sumatera Selatan 31654";"Kabupaten Musi Rawas, Sumatera Selatan";"Kabupaten Musi Rawas, Sumatera Selatan";"SUMATERA SELATAN";"";"Indonesia";"";"";"";"-2.8261883";"102.7594847";"https://maps.google.com/?cid=0x0:0xc4e1d96ef2cee976";""
"mall";"Toko";"Toko saudara";"Sukaraja, Kec. Karang Jaya, Kab. Musi Rawas Utara, Sumatera Selatan 30771";"Kec. Karang Jaya, Kab. Musi Rawas Utara";"SUMATERA SELATAN";"30771";"Indonesia";"";"";"";"-2.9532864";"102.6876925";"https://maps.google.com/?cid=0x0:0xa27d781834bcb3f5";""
"mall";"Pusat Perbelanjaan";"Simpang Ke Tk Macang Jaya";"4RV4+64X, Embacang Baru, Kec. Karang Jaya, Kab. Musi Rawas Utara, Sumatera Selatan 31654";"Embacang Baru, Kec. Karang Jaya, Kab. Musi Rawas Utara";"SUMATERA SELATAN";"31654";"Indonesia";" 081379989583";"";"";"-2.8568785";"102.8053617";"https://maps.google.com/?cid=0x0:0xd3af5e785bba07a";""
"mall";"Pusat Perbelanjaan";"Pusat Perbelanjaan Asifa Sur Amin";"7WJ7+QQ5, Lawang Agung, Kec. Rupit, Kab. Musi Rawas Utara, Sumatera Selatan 31654";"Lawang Agung, Kec. Rupit, Kab. Musi Rawas Utara";"SUMATERA SELATAN";"31654";"Indonesia";" 082217556562";"";"";"-2.7181152";"102.9144704";"https://maps.google.com/?cid=0x0:0xd4f47d231a83a2e9";""
"mall";"Pusat Perbelanjaan";"Toko Sahabat Kita";"5R25+RCR, Embacang Baru, Kec. Karang Jaya, Kabupaten Musi Rawas, Sumatera Selatan 31654";"Embacang Baru, Kec. Karang Jaya, Kabupaten Musi Rawas";"SUMATERA SELATAN";"31654";"Indonesia";" 085264647741";"";"";"-2.8478903";"102.8085146";"https://maps.google.com/?cid=0x0:0x5368d9dd97727d8a";""
"mall";"Pusat Perbelanjaan";"khairan's Cell";"4QJR+C3V, Karang Jaya, Kec. Karang Jaya, Kabupaten Musi Rawas, Sumatera Selatan 31654";"Karang Jaya, Kec. Karang Jaya, Kabupaten Musi Rawas";"SUMATERA SELATAN";"31654";"Indonesia";" 085267393978";"";"";"-2.8688892";"102.790162";"https://maps.google.com/?cid=0x0:0x3d61b81dee4303a0";""
"mall";"Toko";"Toko Redi cikana";"Unnamed Road, 31654, Embacang Baru, Kec. Karang Jaya, Kab. Musi Rawas Utara, Sumatera Selatan 31654";"31654, Embacang Baru, Kec. Karang Jaya, Kab. Musi Rawas Utara";"SUMATERA SELATAN";"31654";"Indonesia";" 081315285067";"";"";"-2.845957";"102.810259";"https://maps.google.com/?cid=0x0:0x9eaac0a82b56eea7";""
"mall";"Minimarket";"Toko Heriin";"4QJR+4FJ, Karang Jaya, Kec. Karang Jaya, Kabupaten Musi Rawas, Sumatera Selatan 31654";"Karang Jaya, Kec. Karang Jaya, Kabupaten Musi Rawas";"SUMATERA SELATAN";"31654";"Indonesia";"";"";"";"-2.8696724";"102.7911289";"https://maps.google.com/?cid=0x0:0x75bd934bc57b2230";""
"mall";"Pusat Perbelanjaan";"Beli kelapa sawit #ANUGRAH_JAYA";"7WHG+9CH, Muara Rupit, Kec. Rupit, Kab. Musi Rawas Utara, Sumatera Selatan 31654";"Muara Rupit, Kec. Rupit, Kab. Musi Rawas Utara";"SUMATERA SELATAN";"31654";"Indonesia";" 081279728021";"";"";"-2.7215623";"102.9261184";"https://maps.google.com/?cid=0x0:0x9155a54af9a568a0";""
"mall";"Toko sembako pemerintah";"Toko Decho armeta rakel oktriozensa";"3MM3+V45, Tj. Agung, Kec. Karang Jaya, Kabupaten Musi Rawas, Sumatera Selatan 31654";"Tj. Agung, Kec. Karang Jaya, Kabupaten Musi Rawas";"SUMATERA SELATAN";"31654";"Indonesia";" 082278556696";"";"";"-2.9153716";"102.652861";"https://maps.google.com/?cid=0x0:0x51bfc83ff903385e";""
"mall";"Toko";"Warung Iqbal arifan";"Tj. Agung, Kec. Karang Jaya, Kabupaten Musi Rawas, Sumatera Selatan 31654";"Kec. Karang Jaya, Kabupaten Musi Rawas";"SUMATERA SELATAN";"31654";"Indonesia";" 082175941795";"";"";"-2.915472";"102.652995";"https://maps.google.com/?cid=0x0:0x42bdb1369bf0a3f7";""
"mall";"Pusat Perbelanjaan";"Toko Andalas";"7WM6+H59, Lawang Agung, Kec. Rupit, Kab. Musi Rawas Utara, Sumatera Selatan 31654";"Lawang Agung, Kec. Rupit, Kab. Musi Rawas Utara";"SUMATERA SELATAN";"31654";"Indonesia";" 085783521520";"";"";"-2.7160804";"102.9104929";"https://maps.google.com/?cid=0x0:0x85b60789512ffff2";""
"mall";"Toko sembako pemerintah";"DONNY ADI WIJAYA";"3R88+VQX, Karang Jaya,Kec. Karang Jaya, Karang Jaya, muaratara utara, Kab. Musi Rawas Utara, Sumatera Selatan 31654";"Karang Jaya,Kec. Karang Jaya, Karang Jaya, muaratara utara, Kab. Musi Rawas Utara";"SUMATERA SELATAN";"31654";"Indonesia";" 081993027696";"";"";"-2.9327592";"102.8169757";"https://maps.google.com/?cid=0x0:0x9d078eaad2dea651";""
"mall";"Komplek perumahan";"Pasar Surulangun Rawas";"9QG6+2PJ, Ps. Surulangun, Kec. Rawas Ulu, Kab. Musi Rawas Utara, Sumatera Selatan 31656";"Ps. Surulangun, Kec. Rawas Ulu, Kab. Musi Rawas Utara";"SUMATERA SELATAN";"31656";"Indonesia";"";"";"";"-2.6249063";"102.7617701";"https://maps.google.com/?cid=0x0:0x31c562da90f29925";""
"mall";"Pasar";"Toko Pecabela.ps Lawang Agung Kab.muratara";"7WM6+R9G, Lawang Agung, Kec. Rupit, Kabupaten Musi Rawas, Sumatera Selatan 31654";"Lawang Agung, Kec. Rupit, Kabupaten Musi Rawas";"SUMATERA SELATAN";"31654";"Indonesia";" 081380406532";"";"";"-2.7154266";"102.9109452";"https://maps.google.com/?cid=0x0:0x98d63b3894ef205d";""
"mall";"Minimarket";"Indomaret Jensu(L1-C1)";"9QG6+J8V, Unnamed Road, Ps. Surulangun, Kec. Rawas Ulu, Kab. Musi Rawas Utara, Sumatera Selatan 31656";"Unnamed Road, Ps. Surulangun, Kec. Rawas Ulu, Kab. Musi Rawas Utara";"SUMATERA SELATAN";"31656";"Indonesia";"";"";"";"-2.6233753";"102.7607838";"https://maps.google.com/?cid=0x0:0x5e3a470c275045df";""
"mall";"Pusat Perbelanjaan";"Jembatan PDP";"8RJM+VWV, Remban, Kec. Rawas Ulu, Kabupaten Musi Rawas, Sumatera Selatan 31654";"Remban, Kec. Rawas Ulu, Kabupaten Musi Rawas";"SUMATERA SELATAN";"31654";"Indonesia";" 083176035730";"";"";"-2.6677574";"102.8347862";"https://maps.google.com/?cid=0x0:0x146fdaf05ccc2bbc";""
"mall";"Toko Kosmetik";"Anggie Kosmetik";"6VQG+RGM, Jl. Lintas Utama Sumatera, Bingin Rupit, Kec. Rupit, Kab. Musi Rawas Utara, Sumatera Selatan 31654";"Jl. Lintas Utama Sumatera, Bingin Rupit, Kec. Rupit, Kab. Musi Rawas Utara";"SUMATERA SELATAN";"31654";"Indonesia";"";"";"";"-2.7604048";"102.8762981";"https://maps.google.com/?cid=0x0:0x4b0fe2b892ff7d62";""
"mall";"Toko sembako pemerintah";"TOKO IIN BATU (IZZAH INNARA)";"4QHQ+RWJ, Karang Jaya, Kec. Karang Jaya, Kabupaten Musi Rawas, Sumatera Selatan 31654";"Karang Jaya, Kec. Karang Jaya, Kabupaten Musi Rawas";"SUMATERA SELATAN";"31654";"Indonesia";" 082280506082";"";"";"-2.8703236";"102.7895496";"https://maps.google.com/?cid=0x0:0xf92a74d1df819fe";""
"mall";"Toko Ponsel";"Adril Cell";"4QHQ+6CV, Karang Jaya, Kec. Karang Jaya, Kabupaten Musi Rawas, Sumatera Selatan 31654";"Karang Jaya, Kec. Karang Jaya, Kabupaten Musi Rawas";"SUMATERA SELATAN";"31654";"Indonesia";"";"";"";"-2.8718948";"102.7885563";"https://maps.google.com/?cid=0x0:0x333170674ab14bdd";""
"mall";"mall";"Annexsa pratama macang jaya";"4V47+P59, Embacang Baru, Kec. Karang Jaya, Kabupaten Musi Rawas, Sumatera Selatan 31654";"Embacang Baru, Kec. Karang Jaya, Kabupaten Musi Rawas";"SUMATERA SELATAN";"31654";"Indonesia";"";"";"";"-2.8932151";"102.8629885";"https://maps.google.com/?cid=0x0:0x5cb0337644d02ec3";""
"mall";"Pusat Perbelanjaan";"TOKO MACANG JAYA";"jalan jembatan, Embacang Baru, Kec. Karang Jaya, Kabupaten Musi Rawas, Sumatera Selatan 31654";"Embacang Baru, Kec. Karang Jaya, Kabupaten Musi Rawas";"SUMATERA SELATAN";"31654";"Indonesia";" 081271991835";"";"";"-2.8477552";"102.8079474";"https://maps.google.com/?cid=0x0:0x19519256180ff37d";""
"mall";"Toko";"NirwanaCell";"Setia Marga, Karang Dapo, Kabupaten Musi Rawas, Sumatera Selatan 31658";"Karang Dapo, Kabupaten Musi Rawas";"SUMATERA SELATAN";"31658";"Indonesia";" 081368686858";"";"";"-2.806694";"103.0700971";"https://maps.google.com/?cid=0x0:0xd724be0fcb391a18";""
"mall";"Pusat Perbelanjaan";"khairan's Cell";"4QJR+C3V, Karang Jaya, Kec. Karang Jaya, Kabupaten Musi Rawas, Sumatera Selatan 31654";"Karang Jaya, Kec. Karang Jaya, Kabupaten Musi Rawas";"SUMATERA SELATAN";"31654";"Indonesia";" 085267393978";"";"";"-2.8688892";"102.790162";"https://maps.google.com/?cid=0x0:0x3d61b81dee4303a0";""
"mall";"Minimarket";"Toko Heriin";"4QJR+4FJ, Karang Jaya, Kec. Karang Jaya, Kabupaten Musi Rawas, Sumatera Selatan 31654";"Karang Jaya, Kec. Karang Jaya, Kabupaten Musi Rawas";"SUMATERA SELATAN";"31654";"Indonesia";"";"";"";"-2.8696724";"102.7911289";"https://maps.google.com/?cid=0x0:0x75bd934bc57b2230";""
"mall";"Pusat Perbelanjaan";"Simpang Ke Tk Macang Jaya";"4RV4+64X, Embacang Baru, Kec. Karang Jaya, Kab. Musi Rawas Utara, Sumatera Selatan 31654";"Embacang Baru, Kec. Karang Jaya, Kab. Musi Rawas Utara";"SUMATERA SELATAN";"31654";"Indonesia";" 081379989583";"";"";"-2.8568785";"102.8053617";"https://maps.google.com/?cid=0x0:0xd3af5e785bba07a";""
"mall";"Toko";"Warung Iqbal arifan";"Tj. Agung, Kec. Karang Jaya, Kabupaten Musi Rawas, Sumatera Selatan 31654";"Kec. Karang Jaya, Kabupaten Musi Rawas";"SUMATERA SELATAN";"31654";"Indonesia";" 082175941795";"";"";"-2.915472";"102.652995";"https://maps.google.com/?cid=0x0:0x42bdb1369bf0a3f7";""
"mall";"Toko bahan makanan";"Counter Essacell";"Marga Baru, Kec. Muara Lakitan, Kabupaten Musi Rawas, Sumatera Selatan 31657";"Kec. Muara Lakitan, Kabupaten Musi Rawas";"SUMATERA SELATAN";"31657";"Indonesia";" 081272827159";"";"";"-2.8061876";"103.1214011";"https://maps.google.com/?cid=0x0:0x807cd8a8bac5fc4d";""
"mall";"Pusat Perbelanjaan";"Pusat Perbelanjaan Asifa Sur Amin";"7WJ7+QQ5, Lawang Agung, Kec. Rupit, Kab. Musi Rawas Utara, Sumatera Selatan 31654";"Lawang Agung, Kec. Rupit, Kab. Musi Rawas Utara";"SUMATERA SELATAN";"31654";"Indonesia";" 082217556562";"";"";"-2.7181152";"102.9144704";"https://maps.google.com/?cid=0x0:0xd4f47d231a83a2e9";""
"mall";"Pusat Perbelanjaan";"Sumber lele";"RXV3+887, Mataram, Kec. Tugumulyo, Kabupaten Musi Rawas, Sumatera Selatan 31626";"Mataram, Kec. Tugumulyo, Kabupaten Musi Rawas";"SUMATERA SELATAN";"31626";"Indonesia";"";"";"";"-3.156711";"102.9532872";"https://maps.google.com/?cid=0x0:0x4432ad384205c43d";""
"mall";"Pusat Perbelanjaan";"Warung Tegar";"X2VG+F74, Megang Sakti V, Kec. Megang Sakti, Kabupaten Musi Rawas, Sumatera Selatan 31663";"Megang Sakti V, Kec. Megang Sakti, Kabupaten Musi Rawas";"SUMATERA SELATAN";"31663";"Indonesia";" 082179180148";"";"";"-3.0063721";"103.0256877";"https://maps.google.com/?cid=0x0:0x712f9760226b4b0c";""
"mall";"Toko";"Toko Redi cikana";"Unnamed Road, 31654, Embacang Baru, Kec. Karang Jaya, Kab. Musi Rawas Utara, Sumatera Selatan 31654";"31654, Embacang Baru, Kec. Karang Jaya, Kab. Musi Rawas Utara";"SUMATERA SELATAN";"31654";"Indonesia";" 081315285067";"";"";"-2.845957";"102.810259";"https://maps.google.com/?cid=0x0:0x9eaac0a82b56eea7";""
"mall";"Pusat Perbelanjaan";"SerlyanaOlshp";"Sumber Harta, Kec. Sumber Harta, Kabupaten Musi Rawas, Sumatera Selatan 31662";"Kec. Sumber Harta, Kabupaten Musi Rawas";"SUMATERA SELATAN";"31662";"Indonesia";" 082184585371";"";"";"-3.1170821";"102.9495365";"https://maps.google.com/?cid=0x0:0x4f4bcf2b9b05eeaa";""
"mall";"Toko";"Toko saudara";"Sukaraja, Kec. Karang Jaya, Kab. Musi Rawas Utara, Sumatera Selatan 30771";"Kec. Karang Jaya, Kab. Musi Rawas Utara";"SUMATERA SELATAN";"30771";"Indonesia";"";"";"";"-2.9532864";"102.6876925";"https://maps.google.com/?cid=0x0:0xa27d781834bcb3f5";""
"mall";"Toko Ponsel";"TERAWAS MEUBEL TERAWAS CELLULAR";"Terawas, Suku Tengah Lakitan Ulu, Kabupaten Musi Rawas, Sumatera Selatan 30771";"Suku Tengah Lakitan Ulu, Kabupaten Musi Rawas";"SUMATERA SELATAN";"30771";"Indonesia";" 082269005600";"";"";"-3.0746327";"102.8259811";"https://maps.google.com/?cid=0x0:0x58a9687ef3db3bbc";""
"mall";"Pusat Perbelanjaan";"Jembatan PDP";"8RJM+VWV, Remban, Kec. Rawas Ulu, Kabupaten Musi Rawas, Sumatera Selatan 31654";"Remban, Kec. Rawas Ulu, Kabupaten Musi Rawas";"SUMATERA SELATAN";"31654";"Indonesia";" 083176035730";"";"";"-2.6677574";"102.8347862";"https://maps.google.com/?cid=0x0:0x146fdaf05ccc2bbc";""
"mall";"Toko Elektronik";"Fira cell";"RWPG+G3H, Wonokerto, Kec. Tugumulyo, Kabupaten Musi Rawas, Sumatera Selatan 31662";"Wonokerto, Kec. Tugumulyo, Kabupaten Musi Rawas";"SUMATERA SELATAN";"31662";"Indonesia";" 085268220232";"";"";"-3.1636834";"102.9252273";"https://maps.google.com/?cid=0x0:0xd8b3a4c6959d6f84";""
"mall";"Toko";"TOKO GROSIR FADLY";"Marga Baru, Kec. Muara Lakitan, Kabupaten Musi Rawas, Sumatera Selatan 31657";"Kec. Muara Lakitan, Kabupaten Musi Rawas";"SUMATERA SELATAN";"31657";"Indonesia";" 082281088859";"";"";"-2.8066542";"103.1185948";"https://maps.google.com/?cid=0x0:0xe2b18a0afdc991e8";""
"mall";"Toko bahan makanan";"warung pribadi";"Dusun 5 Desa, Sukarami Jaya, Kec. Sumber Harta, Kabupaten Musi Rawas, Sumatera Selatan 31668";"Sukarami Jaya, Kec. Sumber Harta, Kabupaten Musi Rawas";"SUMATERA SELATAN";"31668";"Indonesia";"";"";"";"-3.0180954";"102.9543824";"https://maps.google.com/?cid=0x0:0x14e183cc865cd256";""
"mall";"Pusat Perbelanjaan";"Toko Sahabat Kita";"5R25+RCR, Embacang Baru, Kec. Karang Jaya, Kabupaten Musi Rawas, Sumatera Selatan 31654";"Embacang Baru, Kec. Karang Jaya, Kabupaten Musi Rawas";"SUMATERA SELATAN";"31654";"Indonesia";" 085264647741";"";"";"-2.8478903";"102.8085146";"https://maps.google.com/?cid=0x0:0x5368d9dd97727d8a";""
"mall";"Toko Ponsel";"Adril Cell";"4QHQ+6CV, Karang Jaya, Kec. Karang Jaya, Kabupaten Musi Rawas, Sumatera Selatan 31654";"Karang Jaya, Kec. Karang Jaya, Kabupaten Musi Rawas";"SUMATERA SELATAN";"31654";"Indonesia";"";"";"";"-2.8718948";"102.7885563";"https://maps.google.com/?cid=0x0:0x333170674ab14bdd";""
"mall";"Toko sembako pemerintah";"TOKO IIN BATU (IZZAH INNARA)";"4QHQ+RWJ, Karang Jaya, Kec. Karang Jaya, Kabupaten Musi Rawas, Sumatera Selatan 31654";"Karang Jaya, Kec. Karang Jaya, Kabupaten Musi Rawas";"SUMATERA SELATAN";"31654";"Indonesia";" 082280506082";"";"";"-2.8703236";"102.7895496";"https://maps.google.com/?cid=0x0:0xf92a74d1df819fe";""
"mall";"Toko bahan makanan";"Bumi Berkah Jaya (BBJ)";"Kp. Karang Sari, RT.05/RW.03, Cihanjuang, Kec. Parongpong, Kabupaten Bandung Barat, Jawa Barat 40559";"RT.05/RW.03, Cihanjuang, Kec. Parongpong, Kabupaten Bandung Barat";"SUMATERA SELATAN";"40559";"Indonesia";" 082120050500";"";"";"-6.8501773";"107.5730407";"https://maps.google.com/?cid=0x0:0x3d9b63520fd592f3";""
"mall";"Otoritas Perumahan";"Citi mall karang pendeta";"Lorong paya, Karang Pendeta, Kec. Tiga Dihaji, Kabupaten Ogan Komering Ulu Selatan, Sumatera Selatan 32277";"Karang Pendeta, Kec. Tiga Dihaji, Kabupaten Ogan Komering Ulu Selatan";"SUMATERA SELATAN";"32277";"Indonesia";" 082372011259";"";"";"-4.5854937";"103.9138602";"https://maps.google.com/?cid=0x0:0x3d8f0f0ae1555155";""
"mall";"Toko Fotokopi";"Cahaya Copy Centre";"4JXV+5MR, Karangsembung, Kec. Karangsembung, Kabupaten Cirebon, Jawa Barat 45186";"Karangsembung, Kec. Karangsembung, Kabupaten Cirebon";"SUMATERA SELATAN";"45186";"Indonesia";"";"";"";"-6.8520095";"108.6441344";"https://maps.google.com/?cid=0x0:0x11d1e611e27d233d";""
"mall";"Minimarket";"Karang jaya";"4QJQ+VP6, Karang Jaya, Kec. Karang Jaya, Kab. Musi Rawas Utara, Sumatera Selatan";"Kab. Musi Rawas Utara, Sumatera Selatan";"SUMATERA SELATAN";"";"Indonesia";"";"";"";"-2.8678315";"102.7892516";"https://maps.google.com/?cid=0x0:0x43a6e179e13b52cf";""
"mall";"mall";"Sumatera Selatan 31667";"Kec. Nibung, Kab. Musi Rawas Utara, Sumatera Selatan";"Kab. Musi Rawas Utara, Sumatera Selatan";"SUMATERA SELATAN";"";"Indonesia";"";"";"";"-2.4365476";"102.9435536";"https://maps.google.com/?cid=0x0:0x51eee84d7db6be8b";""
"mall";"Pusat Perbelanjaan";"Pasar Desa Bumi Makmur, Nibung, Musi Rawas Utara SUMSEL";"G2HH+28H, Bumi Makmur, Kec. Nibung, Kabupaten Musi Rawas, Sumatera Selatan 31667";"Bumi Makmur, Kec. Nibung, Kabupaten Musi Rawas";"SUMATERA SELATAN";"31667";"Indonesia";"";"";"";"-2.4724464";"103.0283732";"https://maps.google.com/?cid=0x0:0xb47721861a91d90e";""
"mall";"Pusat Perbelanjaan";"Desa Bumi Makmur, Kecamatan Nibung, Kabupaten Musi Rawas Utara";"G2HH+95H, Bumi Makmur, Kec. Nibung, Kabupaten Musi Rawas, Sumatera Selatan 31667";"Bumi Makmur, Kec. Nibung, Kabupaten Musi Rawas";"SUMATERA SELATAN";"31667";"Indonesia";"";"";"";"-2.4715695";"103.0279759";"https://maps.google.com/?cid=0x0:0x20e3fbf9be32dc20";""
"mall";"Tempat Cukur Rambut";"Barber Home El Zidan";"GXJ2+FV4, Sri Jaya Makmur, Kec. Nibung, Kab. Musi Rawas Utara, Sumatera Selatan 31667";"Sri Jaya Makmur, Kec. Nibung, Kab. Musi Rawas Utara";"SUMATERA SELATAN";"31667";"Indonesia";" 085268803444";"";"";"-2.4688658";"102.9522113";"https://maps.google.com/?cid=0x0:0x8b42307fb1e7f19d";""
"mall";"Toko umum";"Warung syamsudin";"GW99+544, Mulya Jaya, Kec. Nibung, Kabupaten Musi Rawas, Sumatera Selatan 31667";"Mulya Jaya, Kec. Nibung, Kabupaten Musi Rawas";"SUMATERA SELATAN";"31667";"Indonesia";"";"";"";"-2.4821116";"102.9178153";"https://maps.google.com/?cid=0x0:0xad15bd1b3d380ee6";""
"mall";"Toko Swalayan";"Toko Bangunan";"Hj. pain Pom mini jalan poros kec.nibung sp9 rt20 kab, Karya Makmur, Kec. Nibung, Kab. Musi Rawas Utara, Sumatera Selatan 31667";"Karya Makmur, Kec. Nibung, Kab. Musi Rawas Utara";"SUMATERA SELATAN";"31667";"Indonesia";" 085245808623";"";"";"-2.4995935";"102.9736566";"https://maps.google.com/?cid=0x0:0x5ad595f13cf3ede7";""
"mall";"Pemasok Air Minum Dalam Kemasan";"Isi Ulang Air Minum Air Rebus Mas Ari";"FWVP+RGP, Sumber Makmur, Kec. Nibung, Kabupaten Musi Rawas, Sumatera Selatan 31667";"Sumber Makmur, Kec. Nibung, Kabupaten Musi Rawas";"SUMATERA SELATAN";"31667";"Indonesia";" 081272077853";"";"";"-2.5054051";"102.9363276";"https://maps.google.com/?cid=0x0:0xe1af54883eeda6ea";""
"mall";"Toko";"Warung TATIK";"G2GG+77C, Bumi Makmur, Kec. Nibung, Kab. Musi Rawas Utara, Sumatera Selatan 31667";"Bumi Makmur, Kec. Nibung, Kab. Musi Rawas Utara";"SUMATERA SELATAN";"31667";"Indonesia";"";"";"";"-2.4743214";"103.0256515";"https://maps.google.com/?cid=0x0:0x689af6b4aa68ff19";""
"mall";"mall";"Sumatera Selatan 31655";"Kec. Rawas Ilir, Kabupaten Musi Rawas, Sumatera Selatan";"Kabupaten Musi Rawas, Sumatera Selatan";"SUMATERA SELATAN";"";"Indonesia";"";"";"";"-2.6657075";"103.2201828";"https://maps.google.com/?cid=0x0:0x9daabcd0688b6fb7";""
"mall";"Komplek perumahan";"Famili Kita Group";"94P8+QP4, Unnamed Road, Beringin Makmur II, Kec. Rawas Ilir, Kab. Musi Rawas Utara, Sumatera Selatan 31655";"Unnamed Road, Beringin Makmur II, Kec. Rawas Ilir, Kab. Musi Rawas Utara";"SUMATERA SELATAN";"31655";"Indonesia";"";"";"";"-2.6131028";"103.1168436";"https://maps.google.com/?cid=0x0:0x8a92a2d2a63c345e";""
"mall";"Toko";"Rizky Mandiri";"94M8+PGV, Beringin Makmur II, Kec. Rawas Ilir, Kabupaten Musi Rawas, Sumatera Selatan 31655";"Beringin Makmur II, Kec. Rawas Ilir, Kabupaten Musi Rawas";"SUMATERA SELATAN";"31655";"Indonesia";"";"";"";"-2.6156286";"103.1162952";"https://maps.google.com/?cid=0x0:0x62f98d1e58ea7240";""
"mall";"Pusat Perbelanjaan";"Toko mar";"94P5+J93, Beringin Makmur II, Kec. Rawas Ilir, Kab. Musi Rawas Utara, Sumatera Selatan";"Kab. Musi Rawas Utara, Sumatera Selatan";"SUMATERA SELATAN";"";"Indonesia";"";"";"";"-2.6132562";"103.1090569";"https://maps.google.com/?cid=0x0:0x29840110532c7b18";""
"mall";"Toko bahan makanan";"Toko Manisan Afin";"94W8+87J, Beringin Makmur II, Kec. Rawas Ilir, Kab. Musi Rawas Utara, Sumatera Selatan 31655";"Beringin Makmur II, Kec. Rawas Ilir, Kab. Musi Rawas Utara";"SUMATERA SELATAN";"31655";"Indonesia";"";"";"";"-2.6041567";"103.115634";"https://maps.google.com/?cid=0x0:0x85b521f24b348cf6";""
"mall";"Toko bahan makanan";"Counter Essacell";"Marga Baru, Kec. Muara Lakitan, Kabupaten Musi Rawas, Sumatera Selatan 31657";"Kec. Muara Lakitan, Kabupaten Musi Rawas";"SUMATERA SELATAN";"31657";"Indonesia";" 081272827159";"";"";"-2.8061876";"103.1214011";"https://maps.google.com/?cid=0x0:0x807cd8a8bac5fc4d";""
"mall";"Pusat Perbelanjaan";"Pasar Desa Bumi Makmur, Nibung, Musi Rawas Utara SUMSEL";"G2HH+28H, Bumi Makmur, Kec. Nibung, Kabupaten Musi Rawas, Sumatera Selatan 31667";"Bumi Makmur, Kec. Nibung, Kabupaten Musi Rawas";"SUMATERA SELATAN";"31667";"Indonesia";"";"";"";"-2.4724464";"103.0283732";"https://maps.google.com/?cid=0x0:0xb47721861a91d90e";""
"mall";"Toko";"Beringin Teluk Muara Tara";"94M6+4JX, Bingin Tlk., bupaten, Kabupaten Musi Rawas, Sumatera Selatan 31655";"Bingin Tlk., bupaten, Kabupaten Musi Rawas";"SUMATERA SELATAN";"31655";"Indonesia";"";"";"";"-2.6171328";"103.1116139";"https://maps.google.com/?cid=0x0:0xfb435e7f9b591fcc";""
"mall";"Pusat Perbelanjaan";"Pasar Marga Baru SP3 Tran subur";"54WH+2FM, Marga Baru, Kec. Muara Lakitan, Kabupaten Musi Rawas, Sumatera Selatan 31657";"Marga Baru, Kec. Muara Lakitan, Kabupaten Musi Rawas";"SUMATERA SELATAN";"31657";"Indonesia";" 085211220558";"";"";"-2.804911";"103.1286746";"https://maps.google.com/?cid=0x0:0x48356d5fcf443303";""
"mall";"Pusat Perbelanjaan";"Yesti Celluler";"55R5+GMR, dusun 4, Sidomulyo, Kec. Muara Lakitan, Kabupaten Musi Rawas, Sumatera Selatan 31666";"dusun 4, Sidomulyo, Kec. Muara Lakitan, Kabupaten Musi Rawas";"SUMATERA SELATAN";"31666";"Indonesia";" 085758611443";"";"";"-2.8086423";"103.1591561";"https://maps.google.com/?cid=0x0:0x77681fa7a011c582";""
"mall";"Toko Swalayan";"Verrell cell";"94M6+WRG, Bingin Tlk., Kec. Rawas Ilir, Kab. Musi Rawas Utara, Sumatera Selatan 31655";"Bingin Tlk., Kec. Rawas Ilir, Kab. Musi Rawas Utara";"SUMATERA SELATAN";"31655";"Indonesia";"";"";"";"-2.6152262";"103.112941";"https://maps.google.com/?cid=0x0:0x1f4556ea6f228859";""
"mall";"Toko";"Minimarket Langgeng Budoyo";"Marga Baru, Kec. Muara Lakitan, Kabupaten Musi Rawas, Sumatera Selatan 31657";"Kec. Muara Lakitan, Kabupaten Musi Rawas";"SUMATERA SELATAN";"31657";"Indonesia";" 081367587768";"";"";"-2.8066883";"103.1235471";"https://maps.google.com/?cid=0x0:0x87205a4973de9ede";""
"mall";"Toko umum";"Rada saputrs";"54QH+MCV, Unnamed Road, Marga Baru, Kec. Muara Lakitan, Kabupaten Musi Rawas, Sumatera Selatan 31657";"Unnamed Road, Marga Baru, Kec. Muara Lakitan, Kabupaten Musi Rawas";"SUMATERA SELATAN";"31657";"Indonesia";" 081545970788";"";"";"-2.8107621";"103.1285625";"https://maps.google.com/?cid=0x0:0x117567aa39613aff";""
"mall";"";"Warung MAMAKEK";"74C5+7X7, Mandi Angin, Kec. Rawas Ilir, Kabupaten Musi Rawas, Sumatera Selatan 31658";"Mandi Angin, Kec. Rawas Ilir, Kabupaten Musi Rawas";"SUMATERA SELATAN";"31658";"Indonesia";" 085378680019";"";"";"-2.7293409";"103.1099342";"https://maps.google.com/?cid=0x0:0x21233838e159926e";""
"mall";"Toko";"NUEL CELL  NUEL COLLECTION";"Beringin Makmur II, Kec. Rawas Ilir, Kab. Musi Rawas Utara, Sumatera Selatan";"Kab. Musi Rawas Utara, Sumatera Selatan";"SUMATERA SELATAN";"";"Indonesia";" 082373636937";"";"";"-2.6072991";"103.1133642";"https://maps.google.com/?cid=0x0:0x7b03f6d29c7efe9d";""
"mall";"Toko";"Toko dafa";"94W8+87J, Beringin Makmur II, Kec. Rawas Ilir, Kab. Musi Rawas Utara, Sumatera Selatan 31655";"Beringin Makmur II, Kec. Rawas Ilir, Kab. Musi Rawas Utara";"SUMATERA SELATAN";"31655";"Indonesia";"";"";"";"-2.6036759";"103.1158737";"https://maps.google.com/?cid=0x0:0x8b343b3cbab5f686";""
"mall";"Pusat Perbelanjaan";"RAM KADES AZHARI BMI";"9497+9Q, Beringin Makmur I, Kec. Rawas Ilir, Kab. Musi Rawas Utara, Sumatera Selatan";"Kab. Musi Rawas Utara, Sumatera Selatan";"SUMATERA SELATAN";"";"Indonesia";"";"";"";"-2.6315344";"103.1144122";"https://maps.google.com/?cid=0x0:0x9012fe28b6e7b84a";""
"mall";"Komplek perumahan";"Pasar Dusun Transsubur";"63WQ+C2H, Bina Karya, Karang Dapo, Kabupaten Musi Rawas, Sumatera Selatan 31658";"Bina Karya, Karang Dapo, Kabupaten Musi Rawas";"SUMATERA SELATAN";"31658";"Indonesia";"";"";"";"-2.7539264";"103.0875995";"https://maps.google.com/?cid=0x0:0x9de4a131718d24ef";""
"mall";"Toko";"TOKO GROSIR FADLY";"Marga Baru, Kec. Muara Lakitan, Kabupaten Musi Rawas, Sumatera Selatan 31657";"Kec. Muara Lakitan, Kabupaten Musi Rawas";"SUMATERA SELATAN";"31657";"Indonesia";" 082281088859";"";"";"-2.8066542";"103.1185948";"https://maps.google.com/?cid=0x0:0xe2b18a0afdc991e8";""
"mall";"Pusat Perbelanjaan";"Desa Bumi Makmur, Kecamatan Nibung, Kabupaten Musi Rawas Utara";"G2HH+95H, Bumi Makmur, Kec. Nibung, Kabupaten Musi Rawas, Sumatera Selatan 31667";"Bumi Makmur, Kec. Nibung, Kabupaten Musi Rawas";"SUMATERA SELATAN";"31667";"Indonesia";"";"";"";"-2.4715695";"103.0279759";"https://maps.google.com/?cid=0x0:0x20e3fbf9be32dc20";""
"mall";"Pusat Perbelanjaan";"Toko Sembako Asyah";"Mandi Angin, Kec. Rawas Ilir, Kabupaten Musi Rawas, Sumatera Selatan 31658";"Kec. Rawas Ilir, Kabupaten Musi Rawas";"SUMATERA SELATAN";"31658";"Indonesia";" 082269558304";"";"";"-2.7300918";"103.1089837";"https://maps.google.com/?cid=0x0:0xfb4b741b4eebf261";""
"mall";"mall";"Sumatera Selatan 31656";"Kabupaten Musi Rawas, Sumatera Selatan";"Kabupaten Musi Rawas, Sumatera Selatan";"SUMATERA SELATAN";"";"Indonesia";"";"";"";"-2.6716149";"102.6675575";"https://maps.google.com/?cid=0x0:0x829aeb46883c7ea6";""
"mall";"Komplek perumahan";"Pasar Surulangun Rawas";"9QG6+2PJ, Ps. Surulangun, Kec. Rawas Ulu, Kab. Musi Rawas Utara, Sumatera Selatan 31656";"Ps. Surulangun, Kec. Rawas Ulu, Kab. Musi Rawas Utara";"SUMATERA SELATAN";"31656";"Indonesia";"";"";"";"-2.6249063";"102.7617701";"https://maps.google.com/?cid=0x0:0x31c562da90f29925";""
"mall";"Pusat Perbelanjaan";"Ira Toko";"Jl. Jenderal Sudirman No.271, Ps. Surulangun, Kec. Rawas Ulu, Kab. Musi Rawas Utara, Sumatera Selatan 31656";"Ps. Surulangun, Kec. Rawas Ulu, Kab. Musi Rawas Utara";"SUMATERA SELATAN";"31656";"Indonesia";"";"";"";"-2.6246461";"102.7617973";"https://maps.google.com/?cid=0x0:0xb437f46b55aa5be1";""
"mall";"Pusat Perbelanjaan";"Jembatan PDP";"8RJM+VWV, Remban, Kec. Rawas Ulu, Kabupaten Musi Rawas, Sumatera Selatan 31654";"Remban, Kec. Rawas Ulu, Kabupaten Musi Rawas";"SUMATERA SELATAN";"31654";"Indonesia";" 083176035730";"";"";"-2.6677574";"102.8347862";"https://maps.google.com/?cid=0x0:0x146fdaf05ccc2bbc";""
"mall";"Layanan Distribusi";"HDcell komunika";"8RRJ+7V4, Jl. Rajo Empedu, Remban, Kec. Rawas Ulu, Kabupaten Musi Rawas, Sumatera Selatan 31654";"Jl. Rajo Empedu, Remban, Kec. Rawas Ulu, Kabupaten Musi Rawas";"SUMATERA SELATAN";"31654";"Indonesia";" 085216755554";"";"";"-2.6593663";"102.832188";"https://maps.google.com/?cid=0x0:0xb5fda789a2dba95f";""
"mall";"Pusat Perbelanjaan";"Toko Bayumi";"9QF6+VJ2, Ps. Surulangun, Kec. Rawas Ulu, Kab. Musi Rawas Utara, Sumatera Selatan 31656";"Ps. Surulangun, Kec. Rawas Ulu, Kab. Musi Rawas Utara";"SUMATERA SELATAN";"31656";"Indonesia";"";"";"";"-2.6254666";"102.7615951";"https://maps.google.com/?cid=0x0:0x7c5991475014ab69";""
"mall";"Pusat Perbelanjaan";"Toko Idil";"9QF6+VJ2, Ps. Surulangun, Kec. Rawas Ulu, Kab. Musi Rawas Utara, Sumatera Selatan 31656";"Ps. Surulangun, Kec. Rawas Ulu, Kab. Musi Rawas Utara";"SUMATERA SELATAN";"31656";"Indonesia";"";"";"";"-2.6254207";"102.7615066";"https://maps.google.com/?cid=0x0:0x46ea197aec94fffa";""
"mall";"Pusat Perbelanjaan";"Toko Karim";"9QF6+QPQ, RT.5, Ps. Surulangun, Kec. Rawas Ulu, Kab. Musi Rawas Utara, Sumatera Selatan 31656";"RT.5, Ps. Surulangun, Kec. Rawas Ulu, Kab. Musi Rawas Utara";"SUMATERA SELATAN";"31656";"Indonesia";"";"";"";"-2.6255464";"102.7618665";"https://maps.google.com/?cid=0x0:0xae3b69a0cef456ac";""
"mall";"Pusat Perbelanjaan";"Toko Lina";"9QF6+VJ2, Ps. Surulangun, Kec. Rawas Ulu, Kab. Musi Rawas Utara, Sumatera Selatan 31656";"Ps. Surulangun, Kec. Rawas Ulu, Kab. Musi Rawas Utara";"SUMATERA SELATAN";"31656";"Indonesia";"";"";"";"-2.6254391";"102.7615991";"https://maps.google.com/?cid=0x0:0x6b312d83ae81fc45";""
"mall";"Pusat Perbelanjaan";"Toko Lintang";"9QF6+VJ2, Ps. Surulangun, Kec. Rawas Ulu, Kab. Musi Rawas Utara, Sumatera Selatan 31656";"Ps. Surulangun, Kec. Rawas Ulu, Kab. Musi Rawas Utara";"SUMATERA SELATAN";"31656";"Indonesia";"";"";"";"-2.6251635";"102.7615733";"https://maps.google.com/?cid=0x0:0x5b2f65aebaea0e";""
"mall";"Pusat Perbelanjaan";"Rudi Toko";"Jl. Jenderal Sudirman No.271, Ps. Surulangun, Kec. Rawas Ulu, Kab. Musi Rawas Utara, Sumatera Selatan 31656";"Ps. Surulangun, Kec. Rawas Ulu, Kab. Musi Rawas Utara";"SUMATERA SELATAN";"31656";"Indonesia";"";"";"";"-2.6246952";"102.7618594";"https://maps.google.com/?cid=0x0:0x4628ee4bdc07ff43";""
"mall";"Pusat Perbelanjaan";"Toko Eti";"9QF6+VJ2, Ps. Surulangun, Kec. Rawas Ulu, Kab. Musi Rawas Utara, Sumatera Selatan 31656";"Ps. Surulangun, Kec. Rawas Ulu, Kab. Musi Rawas Utara";"SUMATERA SELATAN";"31656";"Indonesia";"";"";"";"-2.6253582";"102.7615348";"https://maps.google.com/?cid=0x0:0x3fa8fb3073dc91d0";""
"mall";"Pusat Perbelanjaan";"Toko Harun";"9QG6+2H4, Ps. Surulangun, Kec. Rawas Ulu, Kab. Musi Rawas Utara, Sumatera Selatan 31656";"Ps. Surulangun, Kec. Rawas Ulu, Kab. Musi Rawas Utara";"SUMATERA SELATAN";"31656";"Indonesia";"";"";"";"-2.6250955";"102.7614449";"https://maps.google.com/?cid=0x0:0x344ee2df884cfec1";""
"mall";"Pusat Perbelanjaan";"Toko Nazarudin";"9QG6+2H4, Ps. Surulangun, Kec. Rawas Ulu, Kab. Musi Rawas Utara, Sumatera Selatan 31656";"Ps. Surulangun, Kec. Rawas Ulu, Kab. Musi Rawas Utara";"SUMATERA SELATAN";"31656";"Indonesia";"";"";"";"-2.6251546";"102.7615535";"https://maps.google.com/?cid=0x0:0x5f56d608d9b872d7";""
"mall";"Pusat Perbelanjaan";"Toko Jeni";"9QF6+VJ2, Ps. Surulangun, Kec. Rawas Ulu, Kab. Musi Rawas Utara, Sumatera Selatan 31656";"Ps. Surulangun, Kec. Rawas Ulu, Kab. Musi Rawas Utara";"SUMATERA SELATAN";"31656";"Indonesia";"";"";"";"-2.6254112";"102.7614161";"https://maps.google.com/?cid=0x0:0xc6b0a8505b6557f0";""
"mall";"Toko umum";"Mandiangin Rawas, Muratara, Sumsel";"83R7+PQW, Mandi Angin, Kec. Rawas Ilir, Kabupaten Musi Rawas, Sumatera Selatan 31658";"Mandi Angin, Kec. Rawas Ilir, Kabupaten Musi Rawas";"SUMATERA SELATAN";"31658";"Indonesia";" 081249044001";"";"";"-2.6581347";"103.0644442";"https://maps.google.com/?cid=0x0:0x9d008024e21a6d1e";""
"mall";"Minimarket";"warung Sayuti";"9QCW+JMW, Lesung Batu Muda, Kec. Rawas Ulu, Kab. Musi Rawas Utara, Sumatera Selatan 31654";"Lesung Batu Muda, Kec. Rawas Ulu, Kab. Musi Rawas Utara";"SUMATERA SELATAN";"31654";"Indonesia";"";"";"";"-2.6282329";"102.7971996";"https://maps.google.com/?cid=0x0:0x30893fb2d6714b50";""
"mall";"";"Bibi cell";"8RRJ+FJP, Jl. Rajo Empedu, Remban, Kec. Rawas Ulu, Kab. Musi Rawas Utara, Sumatera Selatan 31654";"Jl. Rajo Empedu, Remban, Kec. Rawas Ulu, Kab. Musi Rawas Utara";"SUMATERA SELATAN";"31654";"Indonesia";"";"";"";"-2.6587872";"102.8315637";"https://maps.google.com/?cid=0x0:0x8947707540374d6b";""
"mall";"Pusat Perbelanjaan";"Pusat Perbelanjaan Asifa Sur Amin";"7WJ7+QQ5, Lawang Agung, Kec. Rupit, Kab. Musi Rawas Utara, Sumatera Selatan 31654";"Lawang Agung, Kec. Rupit, Kab. Musi Rawas Utara";"SUMATERA SELATAN";"31654";"Indonesia";" 082217556562";"";"";"-2.7181152";"102.9144704";"https://maps.google.com/?cid=0x0:0xd4f47d231a83a2e9";""
"mall";"Pusat Perbelanjaan";"Toko Andalas";"7WM6+H59, Lawang Agung, Kec. Rupit, Kab. Musi Rawas Utara, Sumatera Selatan 31654";"Lawang Agung, Kec. Rupit, Kab. Musi Rawas Utara";"SUMATERA SELATAN";"31654";"Indonesia";" 085783521520";"";"";"-2.7160804";"102.9104929";"https://maps.google.com/?cid=0x0:0x85b60789512ffff2";""
"mall";"Toko Kosmetik";"Mallica Glow Official Store Pasar Surulangun Rawas";"Mallica glow, Ps. Surulangun, Kec. Rawas Ulu, Kab. Musi Rawas Utara, Sumatera Selatan";"Kab. Musi Rawas Utara, Sumatera Selatan";"SUMATERA SELATAN";"";"Indonesia";" 085273782408";"";"";"-2.6249948";"102.7623037";"https://maps.google.com/?cid=0x0:0x1124580fe1c5426a";""
"mall";"mall";"Kec. Rupit";"Kab. Musi Rawas Utara, Sumatera Selatan";"Kab. Musi Rawas Utara, Sumatera Selatan";"SUMATERA SELATAN";"";"Indonesia";"";"";"";"-2.7205772";"102.9116717";"https://maps.google.com/?cid=0x0:0xa822b6d74806cc91";""
"mall";"Pusat Perbelanjaan";"Pusat Perbelanjaan Asifa Sur Amin";"7WJ7+QQ5, Lawang Agung, Kec. Rupit, Kab. Musi Rawas Utara, Sumatera Selatan 31654";"Lawang Agung, Kec. Rupit, Kab. Musi Rawas Utara";"SUMATERA SELATAN";"31654";"Indonesia";" 082217556562";"";"";"-2.7181152";"102.9144704";"https://maps.google.com/?cid=0x0:0xd4f47d231a83a2e9";""
"mall";"Pusat Perbelanjaan";"Beli kelapa sawit #ANUGRAH_JAYA";"7WHG+9CH, Muara Rupit, Kec. Rupit, Kab. Musi Rawas Utara, Sumatera Selatan 31654";"Muara Rupit, Kec. Rupit, Kab. Musi Rawas Utara";"SUMATERA SELATAN";"31654";"Indonesia";" 081279728021";"";"";"-2.7215623";"102.9261184";"https://maps.google.com/?cid=0x0:0x9155a54af9a568a0";""
"mall";"Pusat Perbelanjaan";"Toko Macang Jaya";"7WM6+J7V, Lawang Agung, Kec. Rupit, Kabupaten Musi Rawas, Sumatera Selatan 31654";"Lawang Agung, Kec. Rupit, Kabupaten Musi Rawas";"SUMATERA SELATAN";"31654";"Indonesia";" 082282887723";"";"";"-2.715878";"102.9106827";"https://maps.google.com/?cid=0x0:0x75be62169ede356b";""
"mall";"Toko Kosmetik";"Anggie Kosmetik";"6VQG+RGM, Jl. Lintas Utama Sumatera, Bingin Rupit, Kec. Rupit, Kab. Musi Rawas Utara, Sumatera Selatan 31654";"Jl. Lintas Utama Sumatera, Bingin Rupit, Kec. Rupit, Kab. Musi Rawas Utara";"SUMATERA SELATAN";"31654";"Indonesia";"";"";"";"-2.7604048";"102.8762981";"https://maps.google.com/?cid=0x0:0x4b0fe2b892ff7d62";""
"mall";"Pasar";"Toko Pecabela.ps Lawang Agung Kab.muratara";"7WM6+R9G, Lawang Agung, Kec. Rupit, Kabupaten Musi Rawas, Sumatera Selatan 31654";"Lawang Agung, Kec. Rupit, Kabupaten Musi Rawas";"SUMATERA SELATAN";"31654";"Indonesia";" 081380406532";"";"";"-2.7154266";"102.9109452";"https://maps.google.com/?cid=0x0:0x98d63b3894ef205d";""
"mall";"Pusat Perbelanjaan";"Wulan";"7WV6+RQJ, Lawang Agung, Kec. Rupit, Kabupaten Musi Rawas, Sumatera Selatan 31654";"Lawang Agung, Kec. Rupit, Kabupaten Musi Rawas";"SUMATERA SELATAN";"31654";"Indonesia";" 082376003008";"";"";"-2.7054188";"102.9118966";"https://maps.google.com/?cid=0x0:0xface6036561f0892";""
"mall";"Pusat Perbelanjaan";"Toko Kulop Santi";"7WH8+P2M, Muara Rupit, Kec. Rupit, Kabupaten Musi Rawas, Sumatera Selatan 31654";"Muara Rupit, Kec. Rupit, Kabupaten Musi Rawas";"SUMATERA SELATAN";"31654";"Indonesia";"";"";"";"-2.7206567";"102.9150332";"https://maps.google.com/?cid=0x0:0x31fca3fdbbb8c220";""
"mall";"Pusat Perbelanjaan";"Online Shoepe";"Desa lawang agung, kp.7, Muratara, Kec. Rupit, Kab. Musi Rawas Utara, Sumatera Selatan 31654";"kp.7, Muratara, Kec. Rupit, Kab. Musi Rawas Utara";"SUMATERA SELATAN";"31654";"Indonesia";" 085214059412";"";"";"-2.7094088";"102.9106563";"https://maps.google.com/?cid=0x0:0x1ed06b7345cd5e3e";""
"mall";"Pusat Perbelanjaan";"Toko ADS";"6R3P+G6V, Batu Gajah Baru, Kec. Rupit, Kab. Musi Rawas Utara, Sumatera Selatan 31654";"Batu Gajah Baru, Kec. Rupit, Kab. Musi Rawas Utara";"SUMATERA SELATAN";"31654";"Indonesia";"";"";"";"-2.7961284";"102.835555";"https://maps.google.com/?cid=0x0:0x8cc86b42b85ad484";""
"mall";"Pusat Perbelanjaan";"Toko Jangkrik Racing";"7WM6+R69, Lawang Agung, Kec. Rupit, Kabupaten Musi Rawas, Sumatera Selatan 31654";"Lawang Agung, Kec. Rupit, Kabupaten Musi Rawas";"SUMATERA SELATAN";"31654";"Indonesia";"";"";"";"-2.7154695";"102.9105945";"https://maps.google.com/?cid=0x0:0x41f4c427388b965e";""
"mall";"Toko";"TOKO CITRA";"6VXR+7PR, Beringin Jaya, Kec. Rupit, Kab. Musi Rawas Utara, Sumatera Selatan 31654";"Beringin Jaya, Kec. Rupit, Kab. Musi Rawas Utara";"SUMATERA SELATAN";"31654";"Indonesia";"";"";"";"-2.7517695";"102.8917556";"https://maps.google.com/?cid=0x0:0x1754f52b3bcb0cc0";""
"mall";"Pusat Perbelanjaan";"TOKO MACANG JAYA";"jalan jembatan, Embacang Baru, Kec. Karang Jaya, Kabupaten Musi Rawas, Sumatera Selatan 31654";"Embacang Baru, Kec. Karang Jaya, Kabupaten Musi Rawas";"SUMATERA SELATAN";"31654";"Indonesia";" 081271991835";"";"";"-2.8477552";"102.8079474";"https://maps.google.com/?cid=0x0:0x19519256180ff37d";""
"mall";"Pusat Perbelanjaan";"Toko aceh jaya";"7WH6+VF6, Jl. Sarolangun - Lubuk Linggau, Muara Rupit, Kec. Rupit, Kab. Musi Rawas Utara, Sumatera Selatan 31654";"Jl. Sarolangun - Lubuk Linggau, Muara Rupit, Kec. Rupit, Kab. Musi Rawas Utara";"SUMATERA SELATAN";"31654";"Indonesia";" 085273713340";"";"";"-2.7203373";"102.9111528";"https://maps.google.com/?cid=0x0:0xc564228b0fb0d7a";""
"mall";"Bengkel Sepeda Motor";"Bengkel motor yanto";"7WQ5+9X8, Jl. Sarolangun - Lubuk Linggau, Lawang Agung, Kec. Rupit, Kab. Musi Rawas Utara, Sumatera Selatan 31654";"Jl. Sarolangun - Lubuk Linggau, Lawang Agung, Kec. Rupit, Kab. Musi Rawas Utara";"SUMATERA SELATAN";"31654";"Indonesia";" 082282859229";"";"";"-2.711589";"102.9099474";"https://maps.google.com/?cid=0x0:0x23aebcd3f75cca38";""
"mall";"Pusat Perbelanjaan";"Jembatan PDP";"8RJM+VWV, Remban, Kec. Rawas Ulu, Kabupaten Musi Rawas, Sumatera Selatan 31654";"Remban, Kec. Rawas Ulu, Kabupaten Musi Rawas";"SUMATERA SELATAN";"31654";"Indonesia";" 083176035730";"";"";"-2.6677574";"102.8347862";"https://maps.google.com/?cid=0x0:0x146fdaf05ccc2bbc";""
"mall";"Minimarket";"Toko Ujuk Nang";"Jl. Lintas Utama Sumatera, Kp 7, Lawang Agung, Kec. Rupit, Kab. Musi Rawas Utara, Sumatera Selatan 31653";"Kp 7, Lawang Agung, Kec. Rupit, Kab. Musi Rawas Utara";"SUMATERA SELATAN";"31653";"Indonesia";" 082393461078";"";"";"-2.7071593";"102.9092548";"https://maps.google.com/?cid=0x0:0xe7dddd6afcc15dd6";""
"mall";"Toko";"pasar rupit";"Muara Rupit, Kec. Rupit, Kabupaten Musi Rawas, Sumatera Selatan";"Kabupaten Musi Rawas, Sumatera Selatan";"SUMATERA SELATAN";"";"Indonesia";" 081379699810";"";"";"-2.7205717";"102.9116714";"https://maps.google.com/?cid=0x0:0xa1cdbd34d915cde7";""
"mall";"mall";"Rupit";"08569, Provinsi Barcelona, Spanyol";"Rupit, Spanyol";"SUMATERA SELATAN";"";"Indonesia";"";"";"";"42.0245042";"2.4655228";"https://maps.google.com/?cid=0x0:0xa5dbe78a7e794f82";""
"mall";"mall";"Casa Can Rufo de Rupit";"Sant Joan de Fabregues, 42 BIS, 08569 Rupit, Barcelona, Spanyol";"Rupit";"SUMATERA SELATAN";"08569";"Indonesia";" +34625086296";"";"";"42.0228302";"2.4627847";"https://maps.google.com/?cid=0x0:0xd1bf1dc8e992bd90";""
"mall";"mall";"Sumatera Selatan 31669";"Kab. Musi Rawas Utara, Sumatera Selatan";"Kab. Musi Rawas Utara, Sumatera Selatan";"SUMATERA SELATAN";"";"Indonesia";"";"";"";"-2.7917254";"102.3463875";"https://maps.google.com/?cid=0x0:0x98db126b92af20bb";""
"mall";"Toko sembako pemerintah";"Toko Decho armeta rakel oktriozensa";"3MM3+V45, Tj. Agung, Kec. Karang Jaya, Kabupaten Musi Rawas, Sumatera Selatan 31654";"Tj. Agung, Kec. Karang Jaya, Kabupaten Musi Rawas";"SUMATERA SELATAN";"31654";"Indonesia";" 082278556696";"";"";"-2.9153716";"102.652861";"https://maps.google.com/?cid=0x0:0x51bfc83ff903385e";""
"mall";"Toko";"Toko saudara";"Sukaraja, Kec. Karang Jaya, Kab. Musi Rawas Utara, Sumatera Selatan 30771";"Kec. Karang Jaya, Kab. Musi Rawas Utara";"SUMATERA SELATAN";"30771";"Indonesia";"";"";"";"-2.9532864";"102.6876925";"https://maps.google.com/?cid=0x0:0xa27d781834bcb3f5";""
"mall";"Toko";"Warung Iqbal arifan";"Tj. Agung, Kec. Karang Jaya, Kabupaten Musi Rawas, Sumatera Selatan 31654";"Kec. Karang Jaya, Kabupaten Musi Rawas";"SUMATERA SELATAN";"31654";"Indonesia";" 082175941795";"";"";"-2.915472";"102.652995";"https://maps.google.com/?cid=0x0:0x42bdb1369bf0a3f7";""
"mall";"Pusat Perbelanjaan";"Simpang Ke Tk Macang Jaya";"4RV4+64X, Embacang Baru, Kec. Karang Jaya, Kab. Musi Rawas Utara, Sumatera Selatan 31654";"Embacang Baru, Kec. Karang Jaya, Kab. Musi Rawas Utara";"SUMATERA SELATAN";"31654";"Indonesia";" 081379989583";"";"";"-2.8568785";"102.8053617";"https://maps.google.com/?cid=0x0:0xd3af5e785bba07a";""
"mall";"mall";"Ulu Rawas";"Kab. Musi Rawas Utara, Sumatera Selatan";"Kab. Musi Rawas Utara, Sumatera Selatan";"SUMATERA SELATAN";"";"Indonesia";"";"";"";"-2.7227876";"102.4553872";"https://maps.google.com/?cid=0x0:0x3e24bc6f1ca91201";""
"mall";"Pusat Perbelanjaan";"khairan's Cell";"4QJR+C3V, Karang Jaya, Kec. Karang Jaya, Kabupaten Musi Rawas, Sumatera Selatan 31654";"Karang Jaya, Kec. Karang Jaya, Kabupaten Musi Rawas";"SUMATERA SELATAN";"31654";"Indonesia";" 085267393978";"";"";"-2.8688892";"102.790162";"https://maps.google.com/?cid=0x0:0x3d61b81dee4303a0";""
"mall";"Minimarket";"Toko Heriin";"4QJR+4FJ, Karang Jaya, Kec. Karang Jaya, Kabupaten Musi Rawas, Sumatera Selatan 31654";"Karang Jaya, Kec. Karang Jaya, Kabupaten Musi Rawas";"SUMATERA SELATAN";"31654";"Indonesia";"";"";"";"-2.8696724";"102.7911289";"https://maps.google.com/?cid=0x0:0x75bd934bc57b2230";""
"mall";"Perhimpunan Pengembang Perumahan";"Pasar Rakyat Pelabuhan Talang Leak";"R7PH+6J6, Pelabuhan Talang Liak, Kec. Bingin Kuning, Kabupaten Lebong, Bengkulu 39263";"Pelabuhan Talang Liak, Kec. Bingin Kuning, Kabupaten Lebong";"SUMATERA SELATAN";"39263";"Indonesia";"";"";"";"-3.1644551";"102.2790218";"https://maps.google.com/?cid=0x0:0x64b8c27315c55dce";""
"mall";"Toko sembako pemerintah";"TOKO IIN BATU (IZZAH INNARA)";"4QHQ+RWJ, Karang Jaya, Kec. Karang Jaya, Kabupaten Musi Rawas, Sumatera Selatan 31654";"Karang Jaya, Kec. Karang Jaya, Kabupaten Musi Rawas";"SUMATERA SELATAN";"31654";"Indonesia";" 082280506082";"";"";"-2.8703236";"102.7895496";"https://maps.google.com/?cid=0x0:0xf92a74d1df819fe";""
"mall";"";"Serba 35.000";"V6G4+RC7, Amen, Kec. Amen, Kabupaten Lebong, Bengkulu 39264";"Amen, Kec. Amen, Kabupaten Lebong";"SUMATERA SELATAN";"39264";"Indonesia";"";"";"";"-3.1229899";"102.2060877";"https://maps.google.com/?cid=0x0:0x426afbcd885b9d6a";""
"mall";"Toko";"Zirahzurah";"R5G2+R53, Pelabai, Kec. Tubei, Kabupaten Lebong, Bengkulu 39264";"Pelabai, Kec. Tubei, Kabupaten Lebong";"SUMATERA SELATAN";"39264";"Indonesia";"";"";"";"-3.17298";"102.1503777";"https://maps.google.com/?cid=0x0:0xf6f0c5684d70137d";""
"mall";"Toko Ponsel";"Adril Cell";"4QHQ+6CV, Karang Jaya, Kec. Karang Jaya, Kabupaten Musi Rawas, Sumatera Selatan 31654";"Karang Jaya, Kec. Karang Jaya, Kabupaten Musi Rawas";"SUMATERA SELATAN";"31654";"Indonesia";"";"";"";"-2.8718948";"102.7885563";"https://maps.google.com/?cid=0x0:0x333170674ab14bdd";""
"mall";"Pusat Perbelanjaan";"Khiran";"V5JX+M39, Ps. Muara Aman, Kec. Lebong Utara, Kabupaten Lebong, Bengkulu 39264";"Ps. Muara Aman, Kec. Lebong Utara, Kabupaten Lebong";"SUMATERA SELATAN";"39264";"Indonesia";" 082186482228";"";"";"-3.118333";"102.1977276";"https://maps.google.com/?cid=0x0:0x7c9d4fcce12c4844";""
"mall";"Toko bahan makanan";"Tokoh Grecia";"V6W8+XH7, Unnamed Road, Selebar Jaya, Kec. Amen, Kabupaten Lebong, Bengkulu 39264";"Unnamed Road, Selebar Jaya, Kec. Amen, Kabupaten Lebong";"SUMATERA SELATAN";"39264";"Indonesia";" 083173898495";"";"";"-3.102583";"102.216425";"https://maps.google.com/?cid=0x0:0x613bf8635b30f29";""
"mall";"Toko Ban";"Andi Wheels";"V5VW+MPR, Jl. Ahmad Yani, Kp. Jawa, Kec. Curup Tengah, Kabupaten Rejang Lebong, Bengkulu 39119";"Jl. Ahmad Yani, Kp. Jawa, Kec. Curup Tengah, Kabupaten Rejang Lebong";"SUMATERA SELATAN";"39119";"Indonesia";" 085268441774";"";"";"-3.1057708";"102.196757";"https://maps.google.com/?cid=0x0:0x9e32d2ae2222197e";""
"mall";"Toko Ponsel";"Cik Yuli Dan Chindy Olshop  Behel";"V6H2+G4Q, Kp. Muara Aman, Kec. Lebong Utara, Kabupaten Lebong, Bengkulu 39264";"Kp. Muara Aman, Kec. Lebong Utara, Kabupaten Lebong";"SUMATERA SELATAN";"39264";"Indonesia";" 081176448185";"";"";"-3.1211738";"102.2003673";"https://maps.google.com/?cid=0x0:0xf8d84c9627d4ed07";""
"mall";"Toko bahan makanan";"Toko Ujang Ari";"V6Q8+Q9Q, Selebar Jaya, Kec. Amen, Kabupaten Lebong, Bengkulu 39264";"Selebar Jaya, Kec. Amen, Kabupaten Lebong";"SUMATERA SELATAN";"39264";"Indonesia";"";"";"";"-3.1105493";"102.2159725";"https://maps.google.com/?cid=0x0:0x403fe648b8afe8d9";""
"mall";"Restoran";"KFC CICKEN GAOZHAN";"jalan. Ps. Muara Aman,, Ps. Muara Aman, Kec. Lebong Utara, Kabupaten Lebong, Bengkulu 39264";"Ps. Muara Aman, Kec. Lebong Utara, Kabupaten Lebong";"SUMATERA SELATAN";"39264";"Indonesia";" 083173208476";"";"";"-3.1195701";"102.199717";"https://maps.google.com/?cid=0x0:0x1d84229b6dd96b6";""
"mall";"Pusat Perbelanjaan";"Augio  Khayra Monok Putiak";"R6WQ+MG7, Tj. Bungai I, Kec. Lebong Tengah, Kabupaten Lebong, Bengkulu 39262";"Tj. Bungai I, Kec. Lebong Tengah, Kabupaten Lebong";"SUMATERA SELATAN";"39262";"Indonesia";" 082371923988";"";"";"-3.1537698";"102.2395598";"https://maps.google.com/?cid=0x0:0xc7705605df444c2";""
"mall";"Sekolah Dasar";"SMA Negeri Muara Kulam";"7CQQ+VFG, Muara Kulam, Ulu Rawas, Kabupaten Musi Rawas, Sumatera Selatan 31669";"Muara Kulam, Ulu Rawas, Kabupaten Musi Rawas";"SUMATERA SELATAN";"31669";"Indonesia";"";"";"";"-2.7103164";"102.4386902";"https://maps.google.com/?cid=0x0:0x875d5a662a554df3";""
"mall";"Toko Sepatu";"Toko Pablo Sandal Sepatu";"V5JX+HPV, Ps. Muara Aman, Kec. Lebong Utara, Kabupaten Lebong, Bengkulu 39264";"Ps. Muara Aman, Kec. Lebong Utara, Kabupaten Lebong";"SUMATERA SELATAN";"39264";"Indonesia";" 081273602009";"";"";"-3.1185106";"102.1993074";"https://maps.google.com/?cid=0x0:0x60b8a30b58173cbe";""
"mall";"Pembangunan Perumahan";"BA OLSHOP belakqng bedengan mansuar taylor";"V6G2+X28, Kp. Muara Aman, Kec. Lebong Utara, Kabupaten Lebong, Bengkulu 39264";"Kp. Muara Aman, Kec. Lebong Utara, Kabupaten Lebong";"SUMATERA SELATAN";"39264";"Indonesia";"";"";"";"-3.1225959";"102.2000852";"https://maps.google.com/?cid=0x0:0xfaed889706ff317f";""
"supermarket";"supermarket";"Sumatera Selatan 31658";"Karang Dapo, Kabupaten Musi Rawas, Sumatera Selatan";"Kabupaten Musi Rawas, Sumatera Selatan";"SUMATERA SELATAN";"";"Indonesia";"";"";"";"-2.7453255";"103.035694";"https://maps.google.com/?cid=0x0:0xe72620e1eb13dcdf";""
"supermarket";"Toko Swalayan";"Warung Pak Andri";"Rantau Kadam, Karang Dapo, Kab. Musi Rawas Utara, Sumatera Selatan";"Kab. Musi Rawas Utara, Sumatera Selatan";"SUMATERA SELATAN";"";"Indonesia";" 085839849262";"";"";"-2.70067";"102.9700314";"https://maps.google.com/?cid=0x0:0x72a61c49ce9c9d7f";""
"supermarket";"Toko Swalayan";"Warung Alay";"82MQ+8P3, Aringin, Karang Dapo, Kab. Musi Rawas Utara, Sumatera Selatan 31658";"Aringin, Karang Dapo, Kab. Musi Rawas Utara";"SUMATERA SELATAN";"31658";"Indonesia";"";"";"";"-2.6665296";"103.0386603";"https://maps.google.com/?cid=0x0:0xa831b06d7267ea77";""
"supermarket";"Toko Fotokopi";"FOTO COPY MURATARA";"7WG6+H65, Muara Rupit, Kec. Rupit, Kabupaten Musi Rawas, Sumatera Selatan 31654";"Muara Rupit, Kec. Rupit, Kabupaten Musi Rawas";"SUMATERA SELATAN";"31654";"Indonesia";" 085266023390";"";"";"-2.723624";"102.910618";"https://maps.google.com/?cid=0x0:0x112dffc2ffc58413";""
"supermarket";"Pusat Perbelanjaan";"Verre cell";"94J8+PW2, Bingin Tlk., Kec. Rawas Ilir, Kabupaten Musi Rawas, Sumatera Selatan 31655";"Bingin Tlk., Kec. Rawas Ilir, Kabupaten Musi Rawas";"SUMATERA SELATAN";"31655";"Indonesia";"";"";"";"-2.6182434";"103.1172779";"https://maps.google.com/?cid=0x0:0x48317a136eea348d";""
"supermarket";"Pusat Perbelanjaan";"Toko sabar hasana";"94J9+353, Bingin Tlk., Kec. Rawas Ilir, Kabupaten Musi Rawas, Sumatera Selatan 31655";"Bingin Tlk., Kec. Rawas Ilir, Kabupaten Musi Rawas";"SUMATERA SELATAN";"31655";"Indonesia";"";"";"";"-2.6199283";"103.1181123";"https://maps.google.com/?cid=0x0:0x381abcc7e1625165";""
"supermarket";"Pusat Perbelanjaan";"TANI INDONESIA";"Marga Baru, Kec. Muara Lakitan, Kabupaten Musi Rawas, Sumatera Selatan 31666";"Kec. Muara Lakitan, Kabupaten Musi Rawas";"SUMATERA SELATAN";"31666";"Indonesia";" 081271314747";"";"";"-2.8124308";"103.1163739";"https://maps.google.com/?cid=0x0:0x7aeff59827b86f7d";""
"supermarket";"Pemasok Pupuk";"SRC CELLO KARANG DAPO";"Unnamed Road, Karang Dapo II, Karang Dapo, Kab. Musi Rawas Utara, Sumatera Selatan 31658";"Karang Dapo II, Karang Dapo, Kab. Musi Rawas Utara";"SUMATERA SELATAN";"31658";"Indonesia";"";"";"";"-2.7050645";"102.9903654";"https://maps.google.com/?cid=0x0:0xa3afd002e0c69432";""
"supermarket";"Toko Makanan";"FEB SHOP";"Dusun I, Bina Karya, Karang Dapo, Kab. Musi Rawas Utara, Sumatera Selatan 31658";"Bina Karya, Karang Dapo, Kab. Musi Rawas Utara";"SUMATERA SELATAN";"31658";"Indonesia";"";"";"";"-2.7513659";"103.0871093";"https://maps.google.com/?cid=0x0:0xe522435e513f9c84";""
"supermarket";"Toko umum";"Toko Cik Oni";"8X4J+5WF, Karang Dapo I, Karang Dapo, Kabupaten Musi Rawas, Sumatera Selatan 31658";"Karang Dapo I, Karang Dapo, Kabupaten Musi Rawas";"SUMATERA SELATAN";"31658";"Indonesia";"";"";"";"-2.6945609";"102.9823091";"https://maps.google.com/?cid=0x0:0xf71b19a765a91a8a";""
"supermarket";"Toko";"Toserba Rusmin Setia Marga";"Setia Marga, Karang Dapo, Kab. Musi Rawas Utara, Sumatera Selatan 31658";"Karang Dapo, Kab. Musi Rawas Utara";"SUMATERA SELATAN";"31658";"Indonesia";"";"";"";"-2.8067831";"103.0724655";"https://maps.google.com/?cid=0x0:0xac44ba52d53332dc";""
"supermarket";"Kedai Kopi";"Ruko Sacchi";"Unnamed Road, Karang Dapo II, Karang Dapo, Kab. Musi Rawas Utara, Sumatera Selatan 31658";"Karang Dapo II, Karang Dapo, Kab. Musi Rawas Utara";"SUMATERA SELATAN";"31658";"Indonesia";" 082387299897";"";"";"-2.7050065";"102.9902662";"https://maps.google.com/?cid=0x0:0x70722ad7890093aa";""
"supermarket";"Kantor Perusahaan";"RAMP USAHA BERSAMA";"Karang Dapo II, Karang Dapo, Kab. Musi Rawas Utara, Sumatera Selatan 31564";"Karang Dapo, Kab. Musi Rawas Utara";"SUMATERA SELATAN";"31564";"Indonesia";"";"";"";"-2.7070574";"103.0170492";"https://maps.google.com/?cid=0x0:0xb6347c09f39bd65e";""
"supermarket";"Toko";"Toko Bima";"Setia Marga, Karang Dapo, Kabupaten Musi Rawas, Sumatera Selatan 31657";"Karang Dapo, Kabupaten Musi Rawas";"SUMATERA SELATAN";"31657";"Indonesia";" 082371127402";"";"";"-2.8068327";"103.0791106";"https://maps.google.com/?cid=0x0:0xd82439f7c6f209fb";""
"supermarket";"Toko umum";"YUFIRA MARKET";"7XX9+C22 Jln kerabat beton, dusun V, Rantau Kadam, Karang Dapo, Kabupaten Musi Rawas, Sumatera Selatan 31658";"dusun V, Rantau Kadam, Karang Dapo, Kabupaten Musi Rawas";"SUMATERA SELATAN";"31658";"Indonesia";" 082278318056";"";"";"-2.701475";"102.9675154";"https://maps.google.com/?cid=0x0:0x73b8eabe9e7b2f2a";""
"supermarket";"Toko bahan makanan";"Tokoh rama jaya";"JL.poros sp5 dusun V blok E Binakarya, Mandi Angin, Karang Dapo, Kab. Musi Rawas Utara, Sumatera Selatan 31658";"Mandi Angin, Karang Dapo, Kab. Musi Rawas Utara";"SUMATERA SELATAN";"31658";"Indonesia";"";"";"";"-2.7588666";"103.0906139";"https://maps.google.com/?cid=0x0:0x6a548d69cbdc36d9";""
"supermarket";"Makanan Kecil";"WARUNG *R 5 1*";"Jl. HM. Syoeb Tamat Simpang Biaro, Karang Dapo II, Karang Dapo, Kab. Musi Rawas Utara, Sumatera Selatan 31658";"Karang Dapo II, Karang Dapo, Kab. Musi Rawas Utara";"SUMATERA SELATAN";"31658";"Indonesia";" 085624098098";"";"";"-2.7050537";"103.0126588";"https://maps.google.com/?cid=0x0:0x3b487d4b0f6f5b3f";""
"supermarket";"Toko Perlengkapan Rumah";"Kios pupuk El karang dapo";"Jl.h.m.syueb tamat No.RT 13, Karang Dapo II, Karang Dapo, Kab. Musi Rawas Utara, Sumatera Selatan 31658";"Karang Dapo II, Karang Dapo, Kab. Musi Rawas Utara";"SUMATERA SELATAN";"31658";"Indonesia";" 082180334109";"";"";"-2.7051621";"102.9951859";"https://maps.google.com/?cid=0x0:0x522385114e6ed9b3";""
"supermarket";"Toko Ponsel";"Onecell Dan Multipayment Sp5";"Bina Karya, blok f, Setia Marga, Karang Dapo, Kabupaten Musi Rawas, Sumatera Selatan 31658";"blok f, Setia Marga, Karang Dapo, Kabupaten Musi Rawas";"SUMATERA SELATAN";"31658";"Indonesia";"";"";"";"-2.771799";"103.0961809";"https://maps.google.com/?cid=0x0:0x75d0ed438d380ec0";""
"supermarket";"Brunch";"Andra";"8X2J+2P4, Karang Dapo I, Karang Dapo, Kabupaten Musi Rawas, Sumatera Selatan 31658";"Karang Dapo I, Karang Dapo, Kabupaten Musi Rawas";"SUMATERA SELATAN";"31658";"Indonesia";" 085839185841";"";"";"-2.699525";"102.981825";"https://maps.google.com/?cid=0x0:0x9303a0f1a49a980d";""
"supermarket";"Restoran";"Warung Dapoerku";"8X2J+2R2, Jl. Raya Rupit-Karang Dapo, Karang Dapo I, Karang Dapo, Kab. Musi Rawas Utara, Sumatera Selatan 31658";"Jl. Raya Rupit-Karang Dapo, Karang Dapo I, Karang Dapo, Kab. Musi Rawas Utara";"SUMATERA SELATAN";"31658";"Indonesia";"";"";"";"-2.6999885";"102.9820255";"https://maps.google.com/?cid=0x0:0x756d45db5ddc3805";""
"supermarket";"Kafe";"Glegek99";"8298+5PJ, Dusun II, Desa, Biaro Baru, Karang Dapo, Kab. Musi Rawas Utara, Sumatera Selatan 31658";"Dusun II, Desa, Biaro Baru, Karang Dapo, Kab. Musi Rawas Utara";"SUMATERA SELATAN";"31658";"Indonesia";"";"";"";"-2.6820419";"103.0167541";"https://maps.google.com/?cid=0x0:0xe332a8ab80a73d68";""
"supermarket";"Kedai Kopi";"Khairul Musyadda";"8X3J+MW6, Karang Dapo I, Karang Dapo, Kabupaten Musi Rawas, Sumatera Selatan 31658";"Karang Dapo I, Karang Dapo, Kabupaten Musi Rawas";"SUMATERA SELATAN";"31658";"Indonesia";"";"";"";"-2.6958278";"102.9822645";"https://maps.google.com/?cid=0x0:0x9faefaa31c7322b8";""
"supermarket";"Toko umum";"Toko sayuran deLvia/diLan";"Aringin, Karang Dapo, Kabupaten Musi Rawas, Sumatera Selatan";"Kabupaten Musi Rawas, Sumatera Selatan";"SUMATERA SELATAN";"";"Indonesia";" 082282707445";"";"";"-2.6701165";"103.0410809";"https://maps.google.com/?cid=0x0:0x186a360f5fe6c591";""
"supermarket";"supermarket";"Sumatera Selatan 31654";"Kabupaten Musi Rawas, Sumatera Selatan";"Kabupaten Musi Rawas, Sumatera Selatan";"SUMATERA SELATAN";"";"Indonesia";"";"";"";"-2.8261883";"102.7594847";"https://maps.google.com/?cid=0x0:0xc4e1d96ef2cee976";""
"supermarket";"Minimarket";"Indomaret Karang Jaya";"Karang Jaya, Kec. Karang Jaya, Kabupaten Musi Rawas, Sumatera Selatan 31654";"Kec. Karang Jaya, Kabupaten Musi Rawas";"SUMATERA SELATAN";"31654";"Indonesia";"";"";"";"-2.8713948";"102.7898508";"https://maps.google.com/?cid=0x0:0x3c59d792c397cc36";""
"supermarket";"Toko Fotokopi";"FOTO COPY MURATARA";"7WG6+H65, Muara Rupit, Kec. Rupit, Kabupaten Musi Rawas, Sumatera Selatan 31654";"Muara Rupit, Kec. Rupit, Kabupaten Musi Rawas";"SUMATERA SELATAN";"31654";"Indonesia";" 085266023390";"";"";"-2.723624";"102.910618";"https://maps.google.com/?cid=0x0:0x112dffc2ffc58413";""
"supermarket";"Toko";"Toko Ita";"CQ25+P3Q, Sungai Jauh, Kec. Rawas Ulu, Kabupaten Musi Rawas, Sumatera Selatan 31656";"Sungai Jauh, Kec. Rawas Ulu, Kabupaten Musi Rawas";"SUMATERA SELATAN";"31656";"Indonesia";" 083164602951";"";"";"-2.5981685";"102.757746";"https://maps.google.com/?cid=0x0:0x41da519e7d2c062b";""
"supermarket";"Toko Swalayan";"Warung Pak Andri";"Rantau Kadam, Karang Dapo, Kab. Musi Rawas Utara, Sumatera Selatan";"Kab. Musi Rawas Utara, Sumatera Selatan";"SUMATERA SELATAN";"";"Indonesia";" 085839849262";"";"";"-2.70067";"102.9700314";"https://maps.google.com/?cid=0x0:0x72a61c49ce9c9d7f";""
"supermarket";"Kantor Perusahaan";"Swalayan ABC";"FPW7+P32, Jl. Sarolangun - Lubuk Linggau, Bukit Tigo, Kec. Singkut, Kabupaten Sarolangun, Jambi 37482";"Jl. Sarolangun - Lubuk Linggau, Bukit Tigo, Kec. Singkut, Kabupaten Sarolangun";"SUMATERA SELATAN";"37482";"Indonesia";"";"";"";"-2.5032465";"102.7126505";"https://maps.google.com/?cid=0x0:0x4a4e6a7acb6bd16e";""
"supermarket";"Pusat Perbelanjaan";"Toko Sandy And Rendy";"9QR6+MFC, Ps. Surulangun, Kec. Rawas Ulu, Kabupaten Musi Rawas, Sumatera Selatan 31656";"Ps. Surulangun, Kec. Rawas Ulu, Kabupaten Musi Rawas";"SUMATERA SELATAN";"31656";"Indonesia";"";"";"";"-2.6083197";"102.7611342";"https://maps.google.com/?cid=0x0:0xc7389be1635d34c8";""
"supermarket";"Kios";"Toko Suci/Agen Brilink Rantau Jaya";"2QQF+6GF, Jl. Lintas Utama Sumatera, Rantau Jaya, Kec. Karang Jaya, Kabupaten Musi Rawas, Sumatera Selatan 30771";"Jl. Lintas Utama Sumatera, Rantau Jaya, Kec. Karang Jaya, Kabupaten Musi Rawas";"SUMATERA SELATAN";"30771";"Indonesia";"";"";"";"-2.9619388";"102.7738038";"https://maps.google.com/?cid=0x0:0x2378f3dcb493ebaa";""
"supermarket";"Toko umum";"Toko bu YANTI";"2VPJ+XR9, Rejosari, Kec. Megang Sakti, Kabupaten Musi Rawas, Sumatera Selatan 30771";"Rejosari, Kec. Megang Sakti, Kabupaten Musi Rawas";"SUMATERA SELATAN";"30771";"Indonesia";" 085383057995";"";"";"-2.9625766";"102.882102";"https://maps.google.com/?cid=0x0:0xf20aefdef94785f";""
"supermarket";"Toko Swalayan";"Cahaya Makmur";"Sungai gedang, Kec. Singkut, Kabupaten Sarolangun, Jambi 37483";"Kec. Singkut, Kabupaten Sarolangun";"SUMATERA SELATAN";"37483";"Indonesia";"";"";"";"-2.5086981";"102.7129174";"https://maps.google.com/?cid=0x0:0x8d204fe0feb6c87e";""
"supermarket";"Toko Swalayan";"RJ STORE";"FPX7+239, Bukit Tigo, Kec. Singkut, Kabupaten Sarolangun, Jambi 37482";"Bukit Tigo, Kec. Singkut, Kabupaten Sarolangun";"SUMATERA SELATAN";"37482";"Indonesia";"";"";"";"-2.5024569";"102.7127277";"https://maps.google.com/?cid=0x0:0x243875e1a5c6e901";""
"supermarket";"Toko";"𝕋𝕠𝕜𝕠 𝕀𝕕𝕚𝕝 𝔻𝕚𝕥𝕒";"Bingin Rupit, Kec. Rupit, Kab. Musi Rawas Utara, Sumatera Selatan";"Kab. Musi Rawas Utara, Sumatera Selatan";"SUMATERA SELATAN";"";"Indonesia";"";"";"";"-2.7561876";"102.879079";"https://maps.google.com/?cid=0x0:0xab2d9e2a616cb569";""
"supermarket";"Toko";"Toko D' Adzra";"RWVM+M6W, Sukarejo, Dusun III, Terawas, Suku Tengah Lakitan Ulu, Kabupaten Musi Rawas, Sumatera Selatan 30771";"Sukarejo, Dusun III, Terawas, Suku Tengah Lakitan Ulu, Kabupaten Musi Rawas";"SUMATERA SELATAN";"30771";"Indonesia";" 085658090119";"";"";"-3.1557709";"102.9330884";"https://maps.google.com/?cid=0x0:0x1a17a2a4ede0863e";""
"supermarket";"Toko bahan makanan";"GEMBIRA PHOTO STUDIO";"7WG6+CF8, Muara Rupit, Kec. Rupit, Kabupaten Musi Rawas, Sumatera Selatan 31654";"Muara Rupit, Kec. Rupit, Kabupaten Musi Rawas";"SUMATERA SELATAN";"31654";"Indonesia";" 085242508057";"";"";"-2.7239561";"102.9111983";"https://maps.google.com/?cid=0x0:0xcc2616d39c25d1c3";""
"supermarket";"Toko Swalayan";"Indomaret Bukit Tigo";"Jl. Lintas Utama Sumatera No.172, Bukit Tigo, Kec. Singkut, Kabupaten Sarolangun, Jambi 37482";"Bukit Tigo, Kec. Singkut, Kabupaten Sarolangun";"SUMATERA SELATAN";"37482";"Indonesia";"";"";"";"-2.4987947";"102.7121047";"https://maps.google.com/?cid=0x0:0xc666acd2fbedb74e";""
"supermarket";"Toko Swalayan";"Alfamart";"Jl. Lintas Utama Sumatera Ds, RT.05/RW.02, Bukit Tigo, Kec. Singkut, Kab. Sarolangun, Jambi 37482";"RT.05/RW.02, Bukit Tigo, Kec. Singkut, Kab. Sarolangun";"SUMATERA SELATAN";"37482";"Indonesia";" 1500959";"";"";"-2.4982685";"102.7121415";"https://maps.google.com/?cid=0x0:0x6230fc057211323";""
"supermarket";"Toko";"Gita Store";"Karya Makmur, Kec. Nibung, Kabupaten Musi Rawas, Sumatera Selatan 31667";"Kec. Nibung, Kabupaten Musi Rawas";"SUMATERA SELATAN";"31667";"Indonesia";" 081347736354";"";"";"-2.4980509";"102.9732664";"https://maps.google.com/?cid=0x0:0x9e1aa5a45f76075a";""
"supermarket";"Toko umum";"pujiantosiliwangi";"FPH9+FF8, Unnamed Road, Sungai Gedang, Kec. Singkut, Kabupaten Sarolangun, Jambi 37482";"Unnamed Road, Sungai Gedang, Kec. Singkut, Kabupaten Sarolangun";"SUMATERA SELATAN";"37482";"Indonesia";" 082260182630";"";"";"-2.521341";"102.718703";"https://maps.google.com/?cid=0x0:0x4dca91f6c62cc4d4";""
"supermarket";"Toko Swalayan";"Alfamart";"Jl. Lintas Utama Sumatera Ds, RT.11/RW.03, Bukit Tigo, Kec. Singkut, Kab. Sarolangun, Jambi 37482";"RT.11/RW.03, Bukit Tigo, Kec. Singkut, Kab. Sarolangun";"SUMATERA SELATAN";"37482";"Indonesia";" 1500959";"";"";"-2.5070476";"102.7131445";"https://maps.google.com/?cid=0x0:0x58bff357df011efd";""
"supermarket";"Kantor Pemerintah";"Kelurahan karang jaya";"4QPM+2RR, Karang Jaya, Kec. Karang Jaya, Kabupaten Musi Rawas, Sumatera Selatan 31654";"Karang Jaya, Kec. Karang Jaya, Kabupaten Musi Rawas";"SUMATERA SELATAN";"31654";"Indonesia";" 085769839682";"";"";"-2.8648766";"102.7845132";"https://maps.google.com/?cid=0x0:0x8f6182a20b2fe600";""
"supermarket";"Toko Kosmetik";"RK kosmetik TRIANDITA";"GP6F+QV4, Payo Lebar, Kec. Singkut, Kabupaten Sarolangun, Jambi 37482";"Payo Lebar, Kec. Singkut, Kabupaten Sarolangun";"SUMATERA SELATAN";"37482";"Indonesia";" 082280565544";"";"";"-2.4881148";"102.7247171";"https://maps.google.com/?cid=0x0:0x636762b995093f44";""
"supermarket";"Pusat Perbelanjaan";"TOKO MACANG JAYA";"jalan jembatan, Embacang Baru, Kec. Karang Jaya, Kabupaten Musi Rawas, Sumatera Selatan 31654";"Embacang Baru, Kec. Karang Jaya, Kabupaten Musi Rawas";"SUMATERA SELATAN";"31654";"Indonesia";" 081271991835";"";"";"-2.8477552";"102.8079474";"https://maps.google.com/?cid=0x0:0x19519256180ff37d";""
"supermarket";"Toko Daging";"Athaya frozenfood";"4Q44+24F, Terusan, Kec. Karang Jaya, Kab. Musi Rawas Utara, Sumatera Selatan 31654";"Terusan, Kec. Karang Jaya, Kab. Musi Rawas Utara";"SUMATERA SELATAN";"31654";"Indonesia";" 082176268100";"";"";"-2.8956465";"102.7553623";"https://maps.google.com/?cid=0x0:0x925814683e9dd0de";""
"supermarket";"Toko umum";"rumah bikar";"5R27+XXQ, Embacang Baru, Kec. Karang Jaya, Kabupaten Musi Rawas, Sumatera Selatan 31654";"Embacang Baru, Kec. Karang Jaya, Kabupaten Musi Rawas";"SUMATERA SELATAN";"31654";"Indonesia";" 085377523907";"";"";"-2.8473698";"102.8141863";"https://maps.google.com/?cid=0x0:0xbd8ebbf40da95947";""
"supermarket";"Toko umum";"New MUARA JAYA";"Muara, Karangbawang, Kec. Ajibarang, Kabupaten Banyumas, Jawa Tengah 53163";"Karangbawang, Kec. Ajibarang, Kabupaten Banyumas";"SUMATERA SELATAN";"53163";"Indonesia";" 081318080088";"";"";"-7.4274262";"109.0722528";"https://maps.google.com/?cid=0x0:0xdbee2fc36998c34d";""
"supermarket";"Toko bahan makanan";"Tokoh rama jaya";"JL.poros sp5 dusun V blok E Binakarya, Mandi Angin, Karang Dapo, Kab. Musi Rawas Utara, Sumatera Selatan 31658";"Mandi Angin, Karang Dapo, Kab. Musi Rawas Utara";"SUMATERA SELATAN";"31658";"Indonesia";"";"";"";"-2.7588666";"103.0906139";"https://maps.google.com/?cid=0x0:0x6a548d69cbdc36d9";""
"supermarket";"Toko";"TOKOH NURAISA";"4M5W+WG2, Sukamenang, Kec. Karang Jaya, Kab. Musi Rawas Utara, Sumatera Selatan 31654";"Sukamenang, Kec. Karang Jaya, Kab. Musi Rawas Utara";"SUMATERA SELATAN";"31654";"Indonesia";"";"";"";"-2.890245";"102.696277";"https://maps.google.com/?cid=0x0:0x8d48aba2c68c9b80";""
"supermarket";"Minimarket";"WARUNG BIXSIL";"4Q44+46X, Dsn V, Terusan, Kec. Karang Jaya, Kab. Musi Rawas Utara, Sumatera Selatan 31654";"Dsn V, Terusan, Kec. Karang Jaya, Kab. Musi Rawas Utara";"SUMATERA SELATAN";"31654";"Indonesia";"";"";"";"-2.8944826";"102.7556248";"https://maps.google.com/?cid=0x0:0x42e73da8ce40bf8a";""
"supermarket";"supermarket";"Toko 2R";"6P67+VCR, Embacang Lama, Kec. Karang Jaya, Kabupaten Musi Rawas, Sumatera Selatan 31654";"Embacang Lama, Kec. Karang Jaya, Kabupaten Musi Rawas";"SUMATERA SELATAN";"31654";"Indonesia";"";"";"";"-2.787759";"102.7135121";"https://maps.google.com/?cid=0x0:0x855ead24d7c72714";""
"supermarket";"Minimarket";"Karang jaya";"4QJQ+VP6, Karang Jaya, Kec. Karang Jaya, Kab. Musi Rawas Utara, Sumatera Selatan";"Kab. Musi Rawas Utara, Sumatera Selatan";"SUMATERA SELATAN";"";"Indonesia";"";"";"";"-2.8678315";"102.7892516";"https://maps.google.com/?cid=0x0:0x43a6e179e13b52cf";""
"supermarket";"Minimarket";"Indomaret Karang Jaya";"Karang Jaya, Kec. Karang Jaya, Kabupaten Musi Rawas, Sumatera Selatan 31654";"Kec. Karang Jaya, Kabupaten Musi Rawas";"SUMATERA SELATAN";"31654";"Indonesia";"";"";"";"-2.8713948";"102.7898508";"https://maps.google.com/?cid=0x0:0x3c59d792c397cc36";""
"supermarket";"Toko";"Toko D' Adzra";"RWVM+M6W, Sukarejo, Dusun III, Terawas, Suku Tengah Lakitan Ulu, Kabupaten Musi Rawas, Sumatera Selatan 30771";"Sukarejo, Dusun III, Terawas, Suku Tengah Lakitan Ulu, Kabupaten Musi Rawas";"SUMATERA SELATAN";"30771";"Indonesia";" 085658090119";"";"";"-3.1557709";"102.9330884";"https://maps.google.com/?cid=0x0:0x1a17a2a4ede0863e";""
"supermarket";"Toko";"Toko Ita";"CQ25+P3Q, Sungai Jauh, Kec. Rawas Ulu, Kabupaten Musi Rawas, Sumatera Selatan 31656";"Sungai Jauh, Kec. Rawas Ulu, Kabupaten Musi Rawas";"SUMATERA SELATAN";"31656";"Indonesia";" 083164602951";"";"";"-2.5981685";"102.757746";"https://maps.google.com/?cid=0x0:0x41da519e7d2c062b";""
"supermarket";"Toko umum";"Toko bu YANTI";"2VPJ+XR9, Rejosari, Kec. Megang Sakti, Kabupaten Musi Rawas, Sumatera Selatan 30771";"Rejosari, Kec. Megang Sakti, Kabupaten Musi Rawas";"SUMATERA SELATAN";"30771";"Indonesia";" 085383057995";"";"";"-2.9625766";"102.882102";"https://maps.google.com/?cid=0x0:0xf20aefdef94785f";""
"supermarket";"Kantor Perusahaan";"Swalayan ABC";"FPW7+P32, Jl. Sarolangun - Lubuk Linggau, Bukit Tigo, Kec. Singkut, Kabupaten Sarolangun, Jambi 37482";"Jl. Sarolangun - Lubuk Linggau, Bukit Tigo, Kec. Singkut, Kabupaten Sarolangun";"SUMATERA SELATAN";"37482";"Indonesia";"";"";"";"-2.5032465";"102.7126505";"https://maps.google.com/?cid=0x0:0x4a4e6a7acb6bd16e";""
"supermarket";"Kios";"Toko Suci/Agen Brilink Rantau Jaya";"2QQF+6GF, Jl. Lintas Utama Sumatera, Rantau Jaya, Kec. Karang Jaya, Kabupaten Musi Rawas, Sumatera Selatan 30771";"Jl. Lintas Utama Sumatera, Rantau Jaya, Kec. Karang Jaya, Kabupaten Musi Rawas";"SUMATERA SELATAN";"30771";"Indonesia";"";"";"";"-2.9619388";"102.7738038";"https://maps.google.com/?cid=0x0:0x2378f3dcb493ebaa";""
"supermarket";"Toko Swalayan";"Warung Pak Andri";"Rantau Kadam, Karang Dapo, Kab. Musi Rawas Utara, Sumatera Selatan";"Kab. Musi Rawas Utara, Sumatera Selatan";"SUMATERA SELATAN";"";"Indonesia";" 085839849262";"";"";"-2.70067";"102.9700314";"https://maps.google.com/?cid=0x0:0x72a61c49ce9c9d7f";""
"supermarket";"Toko Alat Pancing";"BUAH PANCING";"RWJG+88C, Wonokerto, Kec. Tugumulyo, Mirasi, Sumatera Selatan 31662";"Wonokerto, Kec. Tugumulyo, Mirasi";"SUMATERA SELATAN";"31662";"Indonesia";" 081278010994";"";"";"-3.1691987";"102.9257694";"https://maps.google.com/?cid=0x0:0x4a41c193a36cffc2";""
"supermarket";"Toko bahan makanan";"Tokoh rama jaya";"JL.poros sp5 dusun V blok E Binakarya, Mandi Angin, Karang Dapo, Kab. Musi Rawas Utara, Sumatera Selatan 31658";"Mandi Angin, Karang Dapo, Kab. Musi Rawas Utara";"SUMATERA SELATAN";"31658";"Indonesia";"";"";"";"-2.7588666";"103.0906139";"https://maps.google.com/?cid=0x0:0x6a548d69cbdc36d9";""
"supermarket";"Pertanian";"Jamur TIRAM DINDA Kosgoro";"Unnamed Road, Kosgoro, Suku Tengah Lakitan Ulu, Kabupaten Musi Rawas, Sumatera Selatan 30771";"Kosgoro, Suku Tengah Lakitan Ulu, Kabupaten Musi Rawas";"SUMATERA SELATAN";"30771";"Indonesia";" 081273560460";"";"";"-3.0083942";"102.821488";"https://maps.google.com/?cid=0x0:0xf75387d5b0dd017f";""
"supermarket";"Pusat Perbelanjaan";"Toko Sandy And Rendy";"9QR6+MFC, Ps. Surulangun, Kec. Rawas Ulu, Kabupaten Musi Rawas, Sumatera Selatan 31656";"Ps. Surulangun, Kec. Rawas Ulu, Kabupaten Musi Rawas";"SUMATERA SELATAN";"31656";"Indonesia";"";"";"";"-2.6083197";"102.7611342";"https://maps.google.com/?cid=0x0:0xc7389be1635d34c8";""
"supermarket";"Toko";"Warung Sembako Dan Pulsa Keenan";"VRG6+J6P, Unnamed Road, Lubuk Ngin, Kec. Selangit, Kabupaten Musi Rawas, Sumatera Selatan 30771";"Unnamed Road, Lubuk Ngin, Kec. Selangit, Kabupaten Musi Rawas";"SUMATERA SELATAN";"30771";"Indonesia";" 085377284188";"";"";"-3.1234224";"102.8105725";"https://maps.google.com/?cid=0x0:0x7c83a07daac562ac";""
"supermarket";"Minimarket";"Toko Yati";"4QJQ+9VQ, Karang Jaya, Kec. Karang Jaya, Kab. Musi Rawas Utara, Sumatera Selatan 31654";"Karang Jaya, Kec. Karang Jaya, Kab. Musi Rawas Utara";"SUMATERA SELATAN";"31654";"Indonesia";"";"";"";"-2.8689799";"102.789763";"https://maps.google.com/?cid=0x0:0x7680be623323e3d8";""
"supermarket";"Toko";"Toko Mia";"Q588+2FP, Bangun Rejo, Kec. Suka Karya, Kabupaten Musi Rawas, Sumatera Selatan 31665";"Bangun Rejo, Kec. Suka Karya, Kabupaten Musi Rawas";"SUMATERA SELATAN";"31665";"Indonesia";"";"";"";"-3.2349088";"103.1662021";"https://maps.google.com/?cid=0x0:0x8184289ba36aa2c6";""
"supermarket";"Toko Fotokopi";"FOTO COPY MURATARA";"7WG6+H65, Muara Rupit, Kec. Rupit, Kabupaten Musi Rawas, Sumatera Selatan 31654";"Muara Rupit, Kec. Rupit, Kabupaten Musi Rawas";"SUMATERA SELATAN";"31654";"Indonesia";" 085266023390";"";"";"-2.723624";"102.910618";"https://maps.google.com/?cid=0x0:0x112dffc2ffc58413";""
"supermarket";"Toko Swalayan";"Cahaya Makmur";"Sungai gedang, Kec. Singkut, Kabupaten Sarolangun, Jambi 37483";"Kec. Singkut, Kabupaten Sarolangun";"SUMATERA SELATAN";"37483";"Indonesia";"";"";"";"-2.5086981";"102.7129174";"https://maps.google.com/?cid=0x0:0x8d204fe0feb6c87e";""
"supermarket";"Toko";"Toko Bunda Nurin";"24XH+JG6, Karya Mukti, Kec. Muara Kelingi, Kabupaten Musi Rawas, Sumatera Selatan 31663";"Karya Mukti, Kec. Muara Kelingi, Kabupaten Musi Rawas";"SUMATERA SELATAN";"31663";"Indonesia";"";"";"";"-2.9509634";"103.1287543";"https://maps.google.com/?cid=0x0:0xeb29626d9609c849";""
"supermarket";"Pusat Perbelanjaan";"TANI INDONESIA";"Marga Baru, Kec. Muara Lakitan, Kabupaten Musi Rawas, Sumatera Selatan 31666";"Kec. Muara Lakitan, Kabupaten Musi Rawas";"SUMATERA SELATAN";"31666";"Indonesia";" 081271314747";"";"";"-2.8124308";"103.1163739";"https://maps.google.com/?cid=0x0:0x7aeff59827b86f7d";""
"supermarket";"Minimarket";"Toko Pino";"4QMP+6W, Karang Jaya, Kec. Karang Jaya, Kabupaten Musi Rawas, Sumatera Selatan";"Kabupaten Musi Rawas, Sumatera Selatan";"SUMATERA SELATAN";"";"Indonesia";"";"";"";"-2.8670032";"102.7872771";"https://maps.google.com/?cid=0x0:0x9d15b32e58542233";""
"supermarket";"Toko bahan makanan";"Anggi ar";"WX47+G49, Unnamed Road, Sukamaju, Kec. Sumber Harta, Kabupaten Musi Rawas, Sumatera Selatan 31662";"Unnamed Road, Sukamaju, Kec. Sumber Harta, Kabupaten Musi Rawas";"SUMATERA SELATAN";"31662";"Indonesia";"";"";"";"-3.0937243";"102.9628697";"https://maps.google.com/?cid=0x0:0x3f7078edd7b058bd";""
"supermarket";"Toko Swalayan";"WARUNG KURNIATI";"Jln. DUKU 1, Siti Harjo, Kec. Tugumulyo, Kabupaten Musi Rawas, Sumatera Selatan 31662";"Siti Harjo, Kec. Tugumulyo, Kabupaten Musi Rawas";"SUMATERA SELATAN";"31662";"Indonesia";" 0895604980217";"";"";"-3.1470714";"102.9466132";"https://maps.google.com/?cid=0x0:0xdab70726aaa8cefe";""
"supermarket";"ATM";"Warung Brilink Dafa Dan Bengkel Las";"XRGV+MRF, Sukamana, Suku Tengah Lakitan Ulu, Kabupaten Musi Rawas, Sumatera Selatan 30771";"Sukamana, Suku Tengah Lakitan Ulu, Kabupaten Musi Rawas";"SUMATERA SELATAN";"30771";"Indonesia";" 082376069111";"";"";"-3.0233191";"102.8445348";"https://maps.google.com/?cid=0x0:0x68cd04d1e84ba2f1";""
"supermarket";"supermarket";"Toko 2R";"6P67+VCR, Embacang Lama, Kec. Karang Jaya, Kabupaten Musi Rawas, Sumatera Selatan 31654";"Embacang Lama, Kec. Karang Jaya, Kabupaten Musi Rawas";"SUMATERA SELATAN";"31654";"Indonesia";"";"";"";"-2.787759";"102.7135121";"https://maps.google.com/?cid=0x0:0x855ead24d7c72714";""
"supermarket";"Toko Swalayan";"Usaha Jaya";"G6WX+FWW, Jl. Wiryo Suparno, RT.01/RW.04, Bantarmangu, Teluk, Kec. Purwokerto Sel., Kabupaten Banyumas, Jawa Tengah 53145";"Jl. Wiryo Suparno, RT.01/RW.04, Bantarmangu, Teluk, Kec. Purwokerto Sel., Kabupaten Banyumas";"SUMATERA SELATAN";"53145";"Indonesia";" 02817638260";"";"";"-7.453757";"109.249816";"https://maps.google.com/?cid=0x0:0x46d7befb0c06abef";""
"supermarket";"Toko Swalayan";"WARUNG MEGA JAYA";"Jl. Karang Layung Dalam No.23, Cipedes, Kec. Sukajadi, Kota Bandung, Jawa Barat 40162";"Cipedes, Kec. Sukajadi, Kota Bandung";"SUMATERA SELATAN";"40162";"Indonesia";"";"";"";"-6.8822751";"107.5920375";"https://maps.google.com/?cid=0x0:0x9f093fa143ecdc16";""
"supermarket";"";"Toko Makmur Jaya";"87QQ+VQP, Jalan lang lang baya,Kemojing, RT.10/RW.03, Karang Tanjung";"Kabupaten Cilacap, Jawa Tengah";"SUMATERA SELATAN";"";"Indonesia";" 082111256151";"";"";"-7.6602963";"109.2894507";"https://maps.google.com/?cid=0x0:0x944487a853986627";""
"supermarket";"Toserba";"Toko Sumber Jaya";"J68X+HRG, Jl. Raya Karanggintung, Karang Gintung, Karanggintung, Kec. Sumbang, Kabupaten Banyumas, Jawa Tengah 53183";"Jl. Raya Karanggintung, Karang Gintung, Karanggintung, Kec. Sumbang, Kabupaten Banyumas";"SUMATERA SELATAN";"53183";"Indonesia";"";"";"";"-7.3835692";"109.2495804";"https://maps.google.com/?cid=0x0:0x240b30c050e93523";""
"supermarket";"Toko bahan makanan";"3M Barokah Jaya KarangPucung";"Jl. Raya Karangpucung, Karangpucung, Kec. Karangpucung, Kabupaten Cilacap, Jawa Tengah 53255";"Karangpucung, Kec. Karangpucung, Kabupaten Cilacap";"SUMATERA SELATAN";"53255";"Indonesia";" 085280033380";"";"";"-7.4113532";"108.8996304";"https://maps.google.com/?cid=0x0:0xb09d68b4438ca2d2";""
"supermarket";"supermarket";"Sumatera Selatan 31667";"Kec. Nibung, Kab. Musi Rawas Utara, Sumatera Selatan";"Kab. Musi Rawas Utara, Sumatera Selatan";"SUMATERA SELATAN";"";"Indonesia";"";"";"";"-2.4365476";"102.9435536";"https://maps.google.com/?cid=0x0:0x51eee84d7db6be8b";""
"supermarket";"Toko";"Gita Store";"Karya Makmur, Kec. Nibung, Kabupaten Musi Rawas, Sumatera Selatan 31667";"Kec. Nibung, Kabupaten Musi Rawas";"SUMATERA SELATAN";"31667";"Indonesia";" 081347736354";"";"";"-2.4980509";"102.9732664";"https://maps.google.com/?cid=0x0:0x9e1aa5a45f76075a";""
"supermarket";"Pusat Perbelanjaan";"Nibung";"G2F7+X9, Bumi Makmur, Kec. Nibung, Kab. Musi Rawas Utara, Sumatera Selatan";"Kab. Musi Rawas Utara, Sumatera Selatan";"SUMATERA SELATAN";"";"Indonesia";"";"";"";"-2.4749928";"103.0133747";"https://maps.google.com/?cid=0x0:0x1293d7bbf266a718";""
"supermarket";"Minimarket";"Indomaret Nibung Raya";"HMQ7+2X3, Jl. Nibung Raya, Petisah Tengah, Kec. Medan Petisah, Kota Medan, Sumatera Utara 20111";"Jl. Nibung Raya, Petisah Tengah, Kec. Medan Petisah, Kota Medan";"SUMATERA SELATAN";"20111";"Indonesia";"";"";"";"3.5875187";"98.6649127";"https://maps.google.com/?cid=0x0:0xf6038eec52358557";""
"supermarket";"supermarket";"Sumatera Selatan 31655";"Kec. Rawas Ilir, Kabupaten Musi Rawas, Sumatera Selatan";"Kabupaten Musi Rawas, Sumatera Selatan";"SUMATERA SELATAN";"";"Indonesia";"";"";"";"-2.6657075";"103.2201828";"https://maps.google.com/?cid=0x0:0x9daabcd0688b6fb7";""
"supermarket";"Pusat Perbelanjaan";"Toko sabar hasana";"94J9+353, Bingin Tlk., Kec. Rawas Ilir, Kabupaten Musi Rawas, Sumatera Selatan 31655";"Bingin Tlk., Kec. Rawas Ilir, Kabupaten Musi Rawas";"SUMATERA SELATAN";"31655";"Indonesia";"";"";"";"-2.6199283";"103.1181123";"https://maps.google.com/?cid=0x0:0x381abcc7e1625165";""
"supermarket";"Toko bahan makanan";"Warung bukawi";"Jalan Dusun 3 No.1, Pauh I, Kec. Rawas Ilir, Kab. Musi Rawas Utara, Sumatera Selatan 31655";"Pauh I, Kec. Rawas Ilir, Kab. Musi Rawas Utara";"SUMATERA SELATAN";"31655";"Indonesia";" 0812717129928";"";"";"-2.6589076";"103.2869081";"https://maps.google.com/?cid=0x0:0x54e049ae8b729609";""
"supermarket";"Toko";"Gita Store";"Karya Makmur, Kec. Nibung, Kabupaten Musi Rawas, Sumatera Selatan 31667";"Kec. Nibung, Kabupaten Musi Rawas";"SUMATERA SELATAN";"31667";"Indonesia";" 081347736354";"";"";"-2.4980509";"102.9732664";"https://maps.google.com/?cid=0x0:0x9e1aa5a45f76075a";""
"supermarket";"Toko bahan makanan";"TOKO SRC MIRA";"Jl. Sekayu - Lubuk Linggau, Lubuk Muda, Kec. Muara Kelingi, Kabupaten Musi Rawas, Sumatera Selatan 31663";"Lubuk Muda, Kec. Muara Kelingi, Kabupaten Musi Rawas";"SUMATERA SELATAN";"31663";"Indonesia";"";"";"";"-3.0906586";"103.2146643";"https://maps.google.com/?cid=0x0:0xf4d4e0460b2fd3c8";""
"supermarket";"Toko";"Toko Ita";"CQ25+P3Q, Sungai Jauh, Kec. Rawas Ulu, Kabupaten Musi Rawas, Sumatera Selatan 31656";"Sungai Jauh, Kec. Rawas Ulu, Kabupaten Musi Rawas";"SUMATERA SELATAN";"31656";"Indonesia";" 083164602951";"";"";"-2.5981685";"102.757746";"https://maps.google.com/?cid=0x0:0x41da519e7d2c062b";""
"supermarket";"Toko umum";"Toko bu YANTI";"2VPJ+XR9, Rejosari, Kec. Megang Sakti, Kabupaten Musi Rawas, Sumatera Selatan 30771";"Rejosari, Kec. Megang Sakti, Kabupaten Musi Rawas";"SUMATERA SELATAN";"30771";"Indonesia";" 085383057995";"";"";"-2.9625766";"102.882102";"https://maps.google.com/?cid=0x0:0xf20aefdef94785f";""
"supermarket";"Toko";"Toko Mbak Ita";"Jl. Syahrial Oesman, Ds. 4,Desa, Leban Jaya, Kec. Tuah Negeri, Kabupaten Musi Rawas, Sumatera Selatan 31661";"Ds. 4,Desa, Leban Jaya, Kec. Tuah Negeri, Kabupaten Musi Rawas";"SUMATERA SELATAN";"31661";"Indonesia";"";"";"";"-3.1414532";"103.0196732";"https://maps.google.com/?cid=0x0:0x7a57b9f7f4aa9205";""
"supermarket";"Toko Swalayan";"Warung Qurnia";"Q3R7+HRR, Remayu, Kec. Tuah Negeri, Kabupaten Musi Rawas, Sumatera Selatan 31661";"Remayu, Kec. Tuah Negeri, Kabupaten Musi Rawas";"SUMATERA SELATAN";"31661";"Indonesia";" 081958829931";"";"";"-3.208508";"103.0645021";"https://maps.google.com/?cid=0x0:0xb147753304f01fcc";""
"supermarket";"Toko Swalayan";"Warung Reno";"M356+F67, Muara Kati Baru I, Kec. Tiang Pumpung Kepungut, Kabupaten Musi Rawas, Sumatera Selatan 31661";"Muara Kati Baru I, Kec. Tiang Pumpung Kepungut, Kabupaten Musi Rawas";"SUMATERA SELATAN";"31661";"Indonesia";"";"";"";"-3.3413374";"103.0605365";"https://maps.google.com/?cid=0x0:0x39e88a62b1279edc";""
"supermarket";"Pusat Perbelanjaan";"TANI INDONESIA";"Marga Baru, Kec. Muara Lakitan, Kabupaten Musi Rawas, Sumatera Selatan 31666";"Kec. Muara Lakitan, Kabupaten Musi Rawas";"SUMATERA SELATAN";"31666";"Indonesia";" 081271314747";"";"";"-2.8124308";"103.1163739";"https://maps.google.com/?cid=0x0:0x7aeff59827b86f7d";""
"supermarket";"Toko";"Toko D' Adzra";"RWVM+M6W, Sukarejo, Dusun III, Terawas, Suku Tengah Lakitan Ulu, Kabupaten Musi Rawas, Sumatera Selatan 30771";"Sukarejo, Dusun III, Terawas, Suku Tengah Lakitan Ulu, Kabupaten Musi Rawas";"SUMATERA SELATAN";"30771";"Indonesia";" 085658090119";"";"";"-3.1557709";"102.9330884";"https://maps.google.com/?cid=0x0:0x1a17a2a4ede0863e";""
"supermarket";"Toko bahan makanan";"Warung Mb Nur Sahlan 45";"kp desa No.5, Air Beliti, Tuah Negeri, Musi Rawas Regency, South Sumatra 31663";"Air Beliti, Tuah Negeri, Musi Rawas Regency";"SUMATERA SELATAN";"31663";"Indonesia";" 083173998882";"";"";"-3.1623487";"103.1853788";"https://maps.google.com/?cid=0x0:0x8f11b633caea133c";""
"supermarket";"Toko";"Toko Bunda Nurin";"24XH+JG6, Karya Mukti, Kec. Muara Kelingi, Kabupaten Musi Rawas, Sumatera Selatan 31663";"Karya Mukti, Kec. Muara Kelingi, Kabupaten Musi Rawas";"SUMATERA SELATAN";"31663";"Indonesia";"";"";"";"-2.9509634";"103.1287543";"https://maps.google.com/?cid=0x0:0xeb29626d9609c849";""
"supermarket";"Toko bahan makanan";"Toko Zidane Foto Copy";"GX2F+P3P, Karya Makmur, Kec. Nibung, Kabupaten Musi Rawas, Sumatera Selatan 31667";"Karya Makmur, Kec. Nibung, Kabupaten Musi Rawas";"SUMATERA SELATAN";"31667";"Indonesia";" 082269877700";"";"";"-2.4981644";"102.9727089";"https://maps.google.com/?cid=0x0:0xf4ab35b0cb9ea8cf";""
"supermarket";"Toko";"Toko Mia";"Q588+2FP, Bangun Rejo, Kec. Suka Karya, Kabupaten Musi Rawas, Sumatera Selatan 31665";"Bangun Rejo, Kec. Suka Karya, Kabupaten Musi Rawas";"SUMATERA SELATAN";"31665";"Indonesia";"";"";"";"-3.2349088";"103.1662021";"https://maps.google.com/?cid=0x0:0x8184289ba36aa2c6";""
"supermarket";"Pusat Perbelanjaan";"Nibung";"G2F7+X9, Bumi Makmur, Kec. Nibung, Kab. Musi Rawas Utara, Sumatera Selatan";"Kab. Musi Rawas Utara, Sumatera Selatan";"SUMATERA SELATAN";"";"Indonesia";"";"";"";"-2.4749928";"103.0133747";"https://maps.google.com/?cid=0x0:0x1293d7bbf266a718";""
"supermarket";"Toko Perlengkapan Rumah";"MANDIRI AGEN TK BETRiN";"X43J+F96, Mulyo Sari, Kec. Megang Sakti, Kabupaten Musi Rawas, Sumatera Selatan 31663";"Mulyo Sari, Kec. Megang Sakti, Kabupaten Musi Rawas";"SUMATERA SELATAN";"31663";"Indonesia";"";"";"";"-3.0463327";"103.1308773";"https://maps.google.com/?cid=0x0:0x55fb1dda3c5ef871";""
"supermarket";"Pusat Perbelanjaan";"Toko Sandy And Rendy";"9QR6+MFC, Ps. Surulangun, Kec. Rawas Ulu, Kabupaten Musi Rawas, Sumatera Selatan 31656";"Ps. Surulangun, Kec. Rawas Ulu, Kabupaten Musi Rawas";"SUMATERA SELATAN";"31656";"Indonesia";"";"";"";"-2.6083197";"102.7611342";"https://maps.google.com/?cid=0x0:0xc7389be1635d34c8";""
"supermarket";"Toko";"warung raffa";"QXV5+36M, Unnamed Road, Surodadi, Kec. Tugumulyo, Kabupaten Musi Rawas, Sumatera Selatan 31661";"Unnamed Road, Surodadi, Kec. Tugumulyo, Kabupaten Musi Rawas";"SUMATERA SELATAN";"31661";"Indonesia";"";"";"";"-3.2072763";"102.9580361";"https://maps.google.com/?cid=0x0:0x72c4617375411113";""
"supermarket";"Toko Swalayan";"Warung Perdana";"J345+63H, Kebur, Kec. Tiang Pumpung Kepungut, Kabupaten Musi Rawas, Sumatera Selatan";"Kabupaten Musi Rawas, Sumatera Selatan";"SUMATERA SELATAN";"";"Indonesia";"";"";"";"-3.3944312";"103.05772";"https://maps.google.com/?cid=0x0:0x9ea754ddc3b59da";""
"supermarket";"Toko Swalayan";"Warung Pak Andri";"Rantau Kadam, Karang Dapo, Kab. Musi Rawas Utara, Sumatera Selatan";"Kab. Musi Rawas Utara, Sumatera Selatan";"SUMATERA SELATAN";"";"Indonesia";" 085839849262";"";"";"-2.70067";"102.9700314";"https://maps.google.com/?cid=0x0:0x72a61c49ce9c9d7f";""
"supermarket";"supermarket";"Warung 3 Saudara";"87RQ+837, Pauh, Kec. Rawas Ilir, Kabupaten Musi Rawas, Sumatera Selatan 31655";"Pauh, Kec. Rawas Ilir, Kabupaten Musi Rawas";"SUMATERA SELATAN";"31655";"Indonesia";"";"";"";"-2.6592038";"103.2876572";"https://maps.google.com/?cid=0x0:0xa5fc9d494061f623";""
"supermarket";"supermarket";"Sumatera Selatan 31656";"Kabupaten Musi Rawas, Sumatera Selatan";"Kabupaten Musi Rawas, Sumatera Selatan";"SUMATERA SELATAN";"";"Indonesia";"";"";"";"-2.6716149";"102.6675575";"https://maps.google.com/?cid=0x0:0x829aeb46883c7ea6";""
"supermarket";"Toko";"Toko Ita";"CQ25+P3Q, Sungai Jauh, Kec. Rawas Ulu, Kabupaten Musi Rawas, Sumatera Selatan 31656";"Sungai Jauh, Kec. Rawas Ulu, Kabupaten Musi Rawas";"SUMATERA SELATAN";"31656";"Indonesia";" 083164602951";"";"";"-2.5981685";"102.757746";"https://maps.google.com/?cid=0x0:0x41da519e7d2c062b";""
"supermarket";"Pusat Perbelanjaan";"Toko Sandy And Rendy";"9QR6+MFC, Ps. Surulangun, Kec. Rawas Ulu, Kabupaten Musi Rawas, Sumatera Selatan 31656";"Ps. Surulangun, Kec. Rawas Ulu, Kabupaten Musi Rawas";"SUMATERA SELATAN";"31656";"Indonesia";"";"";"";"-2.6083197";"102.7611342";"https://maps.google.com/?cid=0x0:0xc7389be1635d34c8";""
"supermarket";"supermarket";"Kec. Rupit";"Kab. Musi Rawas Utara, Sumatera Selatan";"Kab. Musi Rawas Utara, Sumatera Selatan";"SUMATERA SELATAN";"";"Indonesia";"";"";"";"-2.7205772";"102.9116717";"https://maps.google.com/?cid=0x0:0xa822b6d74806cc91";""
"supermarket";"supermarket";"Toko indra";"7WM6+RF5, Lawang Agung, Kec. Rupit, Kabupaten Musi Rawas, Sumatera Selatan 31654";"Lawang Agung, Kec. Rupit, Kabupaten Musi Rawas";"SUMATERA SELATAN";"31654";"Indonesia";" 081367343285";"";"";"-2.7154858";"102.9112423";"https://maps.google.com/?cid=0x0:0x6b2b482e0bf9a174";""
"supermarket";"Toko Fotokopi";"FOTO COPY MURATARA";"7WG6+H65, Muara Rupit, Kec. Rupit, Kabupaten Musi Rawas, Sumatera Selatan 31654";"Muara Rupit, Kec. Rupit, Kabupaten Musi Rawas";"SUMATERA SELATAN";"31654";"Indonesia";" 085266023390";"";"";"-2.723624";"102.910618";"https://maps.google.com/?cid=0x0:0x112dffc2ffc58413";""
"supermarket";"Toko bahan makanan";"GEMBIRA PHOTO STUDIO";"7WG6+CF8, Muara Rupit, Kec. Rupit, Kabupaten Musi Rawas, Sumatera Selatan 31654";"Muara Rupit, Kec. Rupit, Kabupaten Musi Rawas";"SUMATERA SELATAN";"31654";"Indonesia";" 085242508057";"";"";"-2.7239561";"102.9111983";"https://maps.google.com/?cid=0x0:0xcc2616d39c25d1c3";""
"supermarket";"Minimarket";"Indomaret";"7WH6+PHM, Muara Rupit, Kec. Rupit, Kabupaten Musi Rawas, Sumatera Selatan 31654";"Muara Rupit, Kec. Rupit, Kabupaten Musi Rawas";"SUMATERA SELATAN";"31654";"Indonesia";"";"";"";"-2.7206521";"102.9114357";"https://maps.google.com/?cid=0x0:0x5673b7bec951860";""
"supermarket";"supermarket";"Rupit";"08569, Provinsi Barcelona, Spanyol";"Rupit, Spanyol";"SUMATERA SELATAN";"";"Indonesia";"";"";"";"42.0245042";"2.4655228";"https://maps.google.com/?cid=0x0:0xa5dbe78a7e794f82";""
"supermarket";"Toko umum";"El rebost de Can Lo";"Carrer del Fossar, 2, 08569 Rupit, Barcelona, Spanyol";"Rupit";"SUMATERA SELATAN";"08569";"Indonesia";" +34621181662";"";"";"42.0240077";"2.4651148";"https://maps.google.com/?cid=0x0:0x25ea2a66dde1b0b7";""
"supermarket";"Toko bahan makanan";"Can Silet";"Camí, Sant Joan de Fabregues, 4 baixos, 08569 Rupit, Spanyol";"Rupit";"SUMATERA SELATAN";"08569";"Indonesia";" +34938522021";"";"";"42.025309";"2.4647203";"https://maps.google.com/?cid=0x0:0xb88f200279988cc1";""
"supermarket";"Toko bahan makanan";"Estanterías Silva, S.L.U.";"Plaça Major, 2, 08569 Rupit, Barcelona, Spanyol";"Rupit";"SUMATERA SELATAN";"08569";"Indonesia";" +34620457400";"";"";"42.0236834";"2.4647223";"https://maps.google.com/?cid=0x0:0xe8835e59081399fd";""
"supermarket";"supermarket";"Sumatera Selatan 31669";"Kab. Musi Rawas Utara, Sumatera Selatan";"Kab. Musi Rawas Utara, Sumatera Selatan";"SUMATERA SELATAN";"";"Indonesia";"";"";"";"-2.7917254";"102.3463875";"https://maps.google.com/?cid=0x0:0x98db126b92af20bb";""
"supermarket";"Toko";"Toko Ita";"CQ25+P3Q, Sungai Jauh, Kec. Rawas Ulu, Kabupaten Musi Rawas, Sumatera Selatan 31656";"Sungai Jauh, Kec. Rawas Ulu, Kabupaten Musi Rawas";"SUMATERA SELATAN";"31656";"Indonesia";" 083164602951";"";"";"-2.5981685";"102.757746";"https://maps.google.com/?cid=0x0:0x41da519e7d2c062b";""
"supermarket";"Komplek perumahan";"Pasar Surulangun Rawas";"9QG6+2PJ, Ps. Surulangun, Kec. Rawas Ulu, Kab. Musi Rawas Utara, Sumatera Selatan 31656";"Ps. Surulangun, Kec. Rawas Ulu, Kab. Musi Rawas Utara";"SUMATERA SELATAN";"31656";"Indonesia";"";"";"";"-2.6249063";"102.7617701";"https://maps.google.com/?cid=0x0:0x31c562da90f29925";""
"supermarket";"Toko Swalayan";"Toko Cikal";"V678+2XJ, Nangai Tayau I, Kec. Amen, Kabupaten Lebong, Bengkulu 39264";"Nangai Tayau I, Kec. Amen, Kabupaten Lebong";"SUMATERA SELATAN";"39264";"Indonesia";" 085379241479";"";"";"-3.1374058";"102.21739";"https://maps.google.com/?cid=0x0:0x44d7a3e63bdacae";""
"supermarket";"Kios";"Toko Suci/Agen Brilink Rantau Jaya";"2QQF+6GF, Jl. Lintas Utama Sumatera, Rantau Jaya, Kec. Karang Jaya, Kabupaten Musi Rawas, Sumatera Selatan 30771";"Jl. Lintas Utama Sumatera, Rantau Jaya, Kec. Karang Jaya, Kabupaten Musi Rawas";"SUMATERA SELATAN";"30771";"Indonesia";"";"";"";"-2.9619388";"102.7738038";"https://maps.google.com/?cid=0x0:0x2378f3dcb493ebaa";""
"supermarket";"Toko";"Toko Fathir";"V6X8+XGR, Tangua, Kec. Uram Jaya, Kabupaten Lebong, Bengkulu";"Kabupaten Lebong, Bengkulu";"SUMATERA SELATAN";"";"Indonesia";"";"";"";"-3.1000105";"102.2162621";"https://maps.google.com/?cid=0x0:0x354d50b5a1baead7";""
"supermarket";"Toko bahan makanan";"Toko Anas";"R5G3+65H Simpang 3 Trans, Pelabai, Kec. Tubei, Kabupaten Lebong, Bengkulu 39264";"Pelabai, Kec. Tubei, Kabupaten Lebong";"SUMATERA SELATAN";"39264";"Indonesia";"";"";"";"-3.174426";"102.1529781";"https://maps.google.com/?cid=0x0:0xe1aa2776ebc2db3f";""
"supermarket";"Toko bahan makanan";"Toko Berkah Simpang Sei Gerong";"V6H3+WF4, Jl. Pangeran Zainal Abidin, Amen, Kec. Amen, Kabupaten Lebong, Bengkulu 39264";"Jl. Pangeran Zainal Abidin, Amen, Kec. Amen, Kabupaten Lebong";"SUMATERA SELATAN";"39264";"Indonesia";"";"";"";"-3.1202441";"102.2036956";"https://maps.google.com/?cid=0x0:0x4f16edfe82cc3fb0";""
"supermarket";"Toko Swalayan";"Warung ipat";"X56M+6HW, Tambang Saweak, Kec. Pinang Belapis, Kabupaten Lebong, Bengkulu 39264";"Tambang Saweak, Kec. Pinang Belapis, Kabupaten Lebong";"SUMATERA SELATAN";"39264";"Indonesia";"";"";"";"-3.0393778";"102.1839472";"https://maps.google.com/?cid=0x0:0x8fc36cc147335b97";""
"supermarket";"Minimarket";"alfamart zainal abidin";"Jl. Pangeran Zainal Abidin, RT.03/RW.07, Amen, Kec. Amen, Kab. Lebong, Bengkulu 39264";"RT.03/RW.07, Amen, Kec. Amen, Kab. Lebong";"SUMATERA SELATAN";"39264";"Indonesia";" 1500959";"";"";"-3.1248051";"102.2078065";"https://maps.google.com/?cid=0x0:0x21713d96ec81b60c";""
"supermarket";"Pusat Perbelanjaan";"TOKO RACEKI PLASTIK";"V5GX+FHR, Kp. Muara Aman, Kec. Lebong Utara, Kabupaten Lebong, Bengkulu 39264";"Kp. Muara Aman, Kec. Lebong Utara, Kabupaten Lebong";"SUMATERA SELATAN";"39264";"Indonesia";" 085267919621";"";"";"-3.1237687";"102.1988987";"https://maps.google.com/?cid=0x0:0xb6142f6da15c4bbb";""
"supermarket";"Toko Swalayan";"MINI SHOP";"Toko Bangunan, Sebelum Yayasan Hidayatullah No.Samping, Air Kopras, Kec. Pinang Belapis, Kabupaten Lebong, Bengkulu 39264";"Sebelum Yayasan Hidayatullah No.Samping, Air Kopras, Kec. Pinang Belapis, Kabupaten Lebong";"SUMATERA SELATAN";"39264";"Indonesia";" 0823726102008";"";"";"-3.0750501";"102.1987047";"https://maps.google.com/?cid=0x0:0xdd8c2d41bbedbe08";""
"supermarket";"Toko bahan makanan";"Toko aisyah";"RWX3+882, Sukaraya, Suku Tengah Lakitan Ulu, Kabupaten Musi Rawas, Sumatera Selatan 31662";"Sukaraya, Suku Tengah Lakitan Ulu, Kabupaten Musi Rawas";"SUMATERA SELATAN";"31662";"Indonesia";"";"";"";"-3.1517473";"102.9032643";"https://maps.google.com/?cid=0x0:0x5ed966084b449216";""
"supermarket";"Minimarket";"Fresh ulu";"XQX8+69G, Jl. Jenderal Ahmad Yani, 7 Ulu, Kecamatan Seberang Ulu I, Kota Palembang, Sumatera Selatan 30111";"Jl. Jenderal Ahmad Yani, 7 Ulu, Kecamatan Seberang Ulu I, Kota Palembang";"SUMATERA SELATAN";"30111";"Indonesia";"";"";"";"-3.0019336";"104.7659569";"https://maps.google.com/?cid=0x0:0x9ab0858cc6c9bdb3";""
"supermarket";"Toko bahan makanan";"Toko Mardiana";"V6Q8+GHW, Selebar Jaya, Kec. Amen, Kabupaten Lebong, Bengkulu 39264";"Selebar Jaya, Kec. Amen, Kabupaten Lebong";"SUMATERA SELATAN";"39264";"Indonesia";" 081382616967";"";"";"-3.1111421";"102.216468";"https://maps.google.com/?cid=0x0:0x9f7382af6cceee3d";""
"supermarket";"Minimarket";"Alfamart Tanjung Agung";"Jl. Tanjung Agung, RT.01/RW.01, Tj. Agung, Kec. Tubei, Kab. Lebong, Bengkulu 39265";"RT.01/RW.01, Tj. Agung, Kec. Tubei, Kab. Lebong";"SUMATERA SELATAN";"39265";"Indonesia";" 1500959";"";"";"-3.1528101";"102.1809076";"https://maps.google.com/?cid=0x0:0x4cb036c72e25443d";""
"supermarket";"Toko umum";"ANGGI NET";"R7HQ+3FG, Unnamed Road, Pungguk Pedaro, Kec. Lebong Sel., Kabupaten Lebong, Bengkulu 39262";"Unnamed Road, Pungguk Pedaro, Kec. Lebong Sel., Kabupaten Lebong";"SUMATERA SELATAN";"39262";"Indonesia";" 082280282519";"";"";"-3.1723034";"102.2887107";"https://maps.google.com/?cid=0x0:0x1edc87d831055711";""
"supermarket";"Minimarket";"Alfamart Gajah Mada";"Jl. Gajah Mada, RT.01/RW.01, Kp. Jawa, Kab, Kabupaten Lebong, Bengkulu 39264";"RT.01/RW.01, Kp. Jawa, Kab, Kabupaten Lebong";"SUMATERA SELATAN";"39264";"Indonesia";" 1500959";"";"";"-3.113753";"102.1977314";"https://maps.google.com/?cid=0x0:0x58938a510a9ede54";""
"supermarket";"Kantor Perusahaan";"Apotek Ryu";"9QG6+VC7, Ps. Surulangun, Kec. Rawas Ulu, Kabupaten Musi Rawas, Sumatera Selatan 31656";"Ps. Surulangun, Kec. Rawas Ulu, Kabupaten Musi Rawas";"SUMATERA SELATAN";"31656";"Indonesia";" 085783280020";"";"";"-2.6228376";"102.7610403";"https://maps.google.com/?cid=0x0:0x8696adf056cbb22f";""
"supermarket";"Toko Swalayan";"Aneka plastik";"V775+3PJ, Lokasari, Lebong Utara, Muning Agung, Kec. Lebong Sakti, Kabupaten Lebong, Bengkulu 39264";"Lokasari, Lebong Utara, Muning Agung, Kec. Lebong Sakti, Kabupaten Lebong";"SUMATERA SELATAN";"39264";"Indonesia";" 081283013502";"";"";"-3.1372973";"102.2592683";"https://maps.google.com/?cid=0x0:0xa708b12f5837ba2c";""
"supermarket";"Toko";"Toko D' Adzra";"RWVM+M6W, Sukarejo, Dusun III, Terawas, Suku Tengah Lakitan Ulu, Kabupaten Musi Rawas, Sumatera Selatan 30771";"Sukarejo, Dusun III, Terawas, Suku Tengah Lakitan Ulu, Kabupaten Musi Rawas";"SUMATERA SELATAN";"30771";"Indonesia";" 085658090119";"";"";"-3.1557709";"102.9330884";"https://maps.google.com/?cid=0x0:0x1a17a2a4ede0863e";""
"supermarket";"Toko Swalayan";"Toko Begin";"R7PH+CP8, Pungguk Pedaro, Kec. Lebong Sel., Kabupaten Lebong, Bengkulu 39262";"Pungguk Pedaro, Kec. Lebong Sel., Kabupaten Lebong";"SUMATERA SELATAN";"39262";"Indonesia";"";"";"";"-3.163957";"102.2793205";"https://maps.google.com/?cid=0x0:0x37263b39d8f8f92e";""
"supermarket";"Toko Swalayan";"Fharen Cell";"V767+RC2, Jl. Muning Agung, Ujung Tj. I, Kec. Lebong Sakti, Kabupaten Lebong, Bengkulu 39263";"Jl. Muning Agung, Ujung Tj. I, Kec. Lebong Sakti, Kabupaten Lebong";"SUMATERA SELATAN";"39263";"Indonesia";"";"";"";"-3.1379798";"102.2635095";"https://maps.google.com/?cid=0x0:0xa1e960ed82ed96ce";""
"supermarket";"Toko bahan makanan";"Toko Andes_Jgt";"R7PH+JGM, Unnamed Road, Pungguk Pedaro, Kec. Lebong Sel., Kabupaten Lebong, Bengkulu 39262";"Unnamed Road, Pungguk Pedaro, Kec. Lebong Sel., Kabupaten Lebong";"SUMATERA SELATAN";"39262";"Indonesia";"";"";"";"-3.1634097";"102.27879";"https://maps.google.com/?cid=0x0:0xb212bb67ac87ba66";""
"supermarket";"Minimarket";"WARUNG ILHAM";"V774+RQ4, Magelang Baru, Kec. Lebong Sakti, Kabupaten Lebong, Bengkulu 39264";"Magelang Baru, Kec. Lebong Sakti, Kabupaten Lebong";"SUMATERA SELATAN";"39264";"Indonesia";"";"";"";"-3.1354861";"102.2569687";"https://maps.google.com/?cid=0x0:0x588873b3e9f4966";""
"supermarket";"Minimarket";"Alfamart Lintas Lebong";"Jl. Lintas Lebong, Muning Agung, Kec. Lebong Sakti, Kab. Lebong, Bengkulu 39267";"Muning Agung, Kec. Lebong Sakti, Kab. Lebong";"SUMATERA SELATAN";"39267";"Indonesia";" 1500959";"";"";"-3.1352429";"102.2602112";"https://maps.google.com/?cid=0x0:0xaf0ed166d19597bb";""
