Category;Real Category;Business Name;Address;City;State;Postal Code;Country;Phone;Email;Website;Latitude;Longitude;Map Link;Details Link
"komplek housing";"komplek housing";"Sumatera Selatan 31658";"Karang Dapo, Kabupaten Musi Rawas, Sumatera Selatan";"Kabupaten Musi Rawas, Sumatera Selatan";"SUMATERA SELATAN";"";"Indonesia";"";"";"";"-2.7453255";"103.035694";"https://maps.google.com/?cid=0x0:0xe72620e1eb13dcdf";""
"komplek housing";"Pembangunan Perumahan";"Karang dapo muratara";"53VC+9QX, Setia Marga, Karang Dapo, Kabupaten Musi Rawas, Sumatera Selatan 31658";"Setia Marga, Karang Dapo, Kabupaten Musi Rawas";"SUMATERA SELATAN";"31658";"Indonesia";"";"";"";"-2.8065179";"103.0719974";"https://maps.google.com/?cid=0x0:0x96d1f09efc7a1008";""
"komplek housing";"Komplek perumahan";"House";"dusun 1 No.blok a, Bina Karya, Karang Dapo, Kab. Musi Rawas Utara, Sumatera Selatan 31658";"Bina Karya, Karang Dapo, Kab. Musi Rawas Utara";"SUMATERA SELATAN";"31658";"Indonesia";"";"";"";"-2.7513253";"103.0862309";"https://maps.google.com/?cid=0x0:0x26ff078a247989c3";""
"komplek housing";"Komplek perumahan";"Rumah Kus Erni";"732M+87Q, Bina Karya, Karang Dapo, Kab. Musi Rawas Utara, Sumatera Selatan 31658";"Bina Karya, Karang Dapo, Kab. Musi Rawas Utara";"SUMATERA SELATAN";"31658";"Indonesia";"";"";"";"-2.7511154";"103.0832127";"https://maps.google.com/?cid=0x0:0x89ed5cf73ab907f4";""
"komplek housing";"Perhimpunan Pengembang Perumahan";"Rumah saya";"82MQ+8P3, Aringin, Karang Dapo, Kabupaten Musi Rawas, Sumatera Selatan 31658";"Aringin, Karang Dapo, Kabupaten Musi Rawas";"SUMATERA SELATAN";"31658";"Indonesia";"";"";"";"-2.6666636";"103.0393381";"https://maps.google.com/?cid=0x0:0xb5d5020463229394";""
"komplek housing";"Perumahan";"Rumah Irwansyah";"53VF+777, Setia Marga, Karang Dapo, Kab. Musi Rawas Utara, Sumatera Selatan";"Kab. Musi Rawas Utara, Sumatera Selatan";"SUMATERA SELATAN";"";"Indonesia";"";"";"";"-2.806847";"103.0731772";"https://maps.google.com/?cid=0x0:0x234f38819b1cb3b";""
"komplek housing";"Kantor Pemerintah";"Desa Biaro Baru";"Biaro Baru, Karang Dapo, Kabupaten Musi Rawas, Sumatera Selatan 31658";"Karang Dapo, Kabupaten Musi Rawas";"SUMATERA SELATAN";"31658";"Indonesia";"";"";"";"-2.6820338";"103.0191599";"https://maps.google.com/?cid=0x0:0x6e1abb1f07aed0c8";""
"komplek housing";"Komplek perumahan";"Rumah Harma Sidin";"82F7+WXF, Biaro Lama, Karang Dapo, Kabupaten Musi Rawas, Sumatera Selatan";"Kabupaten Musi Rawas, Sumatera Selatan";"SUMATERA SELATAN";"";"Indonesia";"";"";"";"-2.6757652";"103.0152704";"https://maps.google.com/?cid=0x0:0xd443b15fffd756e0";""
"komplek housing";"Perhimpunan Pengembang Perumahan";"Rumah Ahuwa";"8X3J+9P8, Karang Dapo I, Karang Dapo, Kab. Musi Rawas Utara, Sumatera Selatan 31658";"Karang Dapo I, Karang Dapo, Kab. Musi Rawas Utara";"SUMATERA SELATAN";"31658";"Indonesia";"";"";"";"-2.6965875";"102.9818281";"https://maps.google.com/?cid=0x0:0xe6627fb6a13acf3c";""
"komplek housing";"Komplek perumahan";"Sis home";"732M+87Q, Bina Karya, Karang Dapo, Kab. Musi Rawas Utara, Sumatera Selatan 31658";"Bina Karya, Karang Dapo, Kab. Musi Rawas Utara";"SUMATERA SELATAN";"31658";"Indonesia";"";"";"";"-2.7499097";"103.0832718";"https://maps.google.com/?cid=0x0:0x6891daa675475cdb";""
"komplek housing";"Pembangunan Perumahan";"H.GUN Family House";"7WRW+R2V, Jl. Raya Rupit-Karang Dapo, Kertasari, Karang Dapo, Kab. Musi Rawas Utara, Sumatera Selatan 31658";"Jl. Raya Rupit-Karang Dapo, Kertasari, Karang Dapo, Kab. Musi Rawas Utara";"SUMATERA SELATAN";"31658";"Indonesia";"";"";"";"-2.707522";"102.9443032";"https://maps.google.com/?cid=0x0:0xd648d67d171fbfb0";""
"komplek housing";"Perhimpunan Pengembang Perumahan";"Rumah Parel";"8X3J+9P8, Karang Dapo I, Karang Dapo, Kab. Musi Rawas Utara, Sumatera Selatan 31658";"Karang Dapo I, Karang Dapo, Kab. Musi Rawas Utara";"SUMATERA SELATAN";"31658";"Indonesia";"";"";"";"-2.69707";"102.981726";"https://maps.google.com/?cid=0x0:0x9a17c7e87fb4cc14";""
"komplek housing";"Perumahan";"Rumah Randa";"82F8+C73, Biaro Lama, Karang Dapo, Kab. Musi Rawas Utara, Sumatera Selatan 31658";"Biaro Lama, Karang Dapo, Kab. Musi Rawas Utara";"SUMATERA SELATAN";"31658";"Indonesia";"";"";"";"-2.6759135";"103.0158481";"https://maps.google.com/?cid=0x0:0x95a7e5b961f52253";""
"komplek housing";"Komplek perumahan";"Candra iza";"723P+V78, Jln H.syueb tamat, Biaro Baru, Karang Dapo, Kab. Musi Rawas Utara, Sumatera Selatan 31658";"Jln H.syueb tamat, Biaro Baru, Karang Dapo, Kab. Musi Rawas Utara";"SUMATERA SELATAN";"31658";"Indonesia";"";"";"";"-2.7453255";"103.035694";"https://maps.google.com/?cid=0x0:0xd41fd5f6345946d3";""
"komplek housing";"Komplek perumahan";"Nenek dan datuk fathin and fathan";"8287+RP, Biaro Baru, Karang Dapo, Kabupaten Musi Rawas, Sumatera Selatan 31658";"Biaro Baru, Karang Dapo, Kabupaten Musi Rawas";"SUMATERA SELATAN";"31658";"Indonesia";"";"";"";"-2.6829717";"103.0143091";"https://maps.google.com/?cid=0x0:0xe18470d9d3e032bd";""
"komplek housing";"Pembangunan Perumahan";"Rumah perjuangan";"8249+Q47, Biaro Baru, Karang Dapo, Kab. Musi Rawas Utara, Sumatera Selatan 31658";"Biaro Baru, Karang Dapo, Kab. Musi Rawas Utara";"SUMATERA SELATAN";"31658";"Indonesia";"";"";"";"-2.6930782";"103.0177916";"https://maps.google.com/?cid=0x0:0x523be9b31cfe41eb";""
"komplek housing";"Komplek perumahan";"Rumah Ahmah Siswadi";"63XP+JX4, Mandi Angin, Kec. Rawas Ilir, Kab. Musi Rawas Utara, Sumatera Selatan 31658";"Mandi Angin, Kec. Rawas Ilir, Kab. Musi Rawas Utara";"SUMATERA SELATAN";"31658";"Indonesia";"";"";"";"-2.751743";"103.087461";"https://maps.google.com/?cid=0x0:0x17023c7c197c3e86";""
"komplek housing";"Pembangunan Perumahan";"Ateng ita";"53X7+CXF, Setia Marga, Karang Dapo, Kab. Musi Rawas Utara, Sumatera Selatan 31658";"Setia Marga, Karang Dapo, Kab. Musi Rawas Utara";"SUMATERA SELATAN";"31658";"Indonesia";"";"";"";"-2.8014341";"103.0649137";"https://maps.google.com/?cid=0x0:0x4a69d0569b0fb134";""
"komplek housing";"Komplek perumahan";"Rumah ivan/ipin";"63WJ+5HJ, Bina Karya, Karang Dapo, Kab. Musi Rawas Utara, Sumatera Selatan 31658";"Bina Karya, Karang Dapo, Kab. Musi Rawas Utara";"SUMATERA SELATAN";"31658";"Indonesia";"";"";"";"-2.7544713";"103.0808195";"https://maps.google.com/?cid=0x0:0xa4c7f7b0ab3b0c3b";""
"komplek housing";"Perhimpunan Pengembang Perumahan";"Febri wahyuni";"63JV+FVF, Bina Karya, Karang Dapo, Kabupaten Musi Rawas, Sumatera Selatan 31658";"Bina Karya, Karang Dapo, Kabupaten Musi Rawas";"SUMATERA SELATAN";"31658";"Indonesia";"";"";"";"-2.7688093";"103.0946827";"https://maps.google.com/?cid=0x0:0x5ecc881e0b733350";""
"komplek housing";"Pembangunan Perumahan";"Zainul Mutadin";"63XH+4HV, Bina Karya, Karang Dapo, Kab. Musi Rawas Utara, Sumatera Selatan 31658";"Bina Karya, Karang Dapo, Kab. Musi Rawas Utara";"SUMATERA SELATAN";"31658";"Indonesia";"";"";"";"-2.7521282";"103.0789087";"https://maps.google.com/?cid=0x0:0xdcc8187805c4eb1a";""
"komplek housing";"komplek housing";"R51";"";"";"SUMATERA SELATAN";"";"Indonesia";" 081398757677";"";"";"-2.7224755";"102.9883285";"https://maps.google.com/?cid=0x0:0x18a00b2d3e73a8fc";""
"komplek housing";"komplek housing";"Karang Dapo";"Kab. Musi Rawas Utara, Sumatera Selatan";"Kab. Musi Rawas Utara, Sumatera Selatan";"SUMATERA SELATAN";"";"Indonesia";"";"";"";"-2.7453255";"103.035694";"https://maps.google.com/?cid=0x0:0x4dbc37f5ff4fa4a5";""
"komplek housing";"Pembangunan Perumahan";"Zaufan alim";"7XX9+8V3, Jl. David satria, Rantau Kadam, Karang Dapo, Kab. Musi Rawas Utara, Sumatera Selatan 31658";"Jl. David satria, Rantau Kadam, Karang Dapo, Kab. Musi Rawas Utara";"SUMATERA SELATAN";"31658";"Indonesia";"";"";"";"-2.7017071";"102.9697077";"https://maps.google.com/?cid=0x0:0x49a3f5ffc5201945";""
"komplek housing";"Rumah Kayu";"Dusun Trans Subur";"63XH+4HV, Bina Karya, Karang Dapo, Kabupaten Musi Rawas, Sumatera Selatan 31658";"Bina Karya, Karang Dapo, Kabupaten Musi Rawas";"SUMATERA SELATAN";"31658";"Indonesia";"";"";"";"-2.7521282";"103.0789087";"https://maps.google.com/?cid=0x0:0x3c20f151065af100";""
"komplek housing";"Komplek perumahan";"komplek perumahan sastra Am.Kep";"74C5+6WV, Mandi Angin, Kec. Rawas Ilir, Kabupaten Musi Rawas, Sumatera Selatan 31658";"Mandi Angin, Kec. Rawas Ilir, Kabupaten Musi Rawas";"SUMATERA SELATAN";"31658";"Indonesia";" 081339315187";"";"";"-2.7293818";"103.1097891";"https://maps.google.com/?cid=0x0:0x44c8e72cdf43470";""
"komplek housing";"Kompleks Apartemen";"Heaven House";"82F8+3RQ, Biaro Lama, Karang Dapo, Kabupaten Musi Rawas, Sumatera Selatan 31658";"Biaro Lama, Karang Dapo, Kabupaten Musi Rawas";"SUMATERA SELATAN";"31658";"Indonesia";"";"";"";"-2.6773189";"103.0171344";"https://maps.google.com/?cid=0x0:0xa188f34c8240a655";""
"komplek housing";"Komplek perumahan";"Rumah Kikan";"63XJ+WVP, Bina Karya, Karang Dapo, Kab. Musi Rawas Utara, Sumatera Selatan 31658";"Bina Karya, Karang Dapo, Kab. Musi Rawas Utara";"SUMATERA SELATAN";"31658";"Indonesia";"";"";"";"-2.7501562";"103.0821912";"https://maps.google.com/?cid=0x0:0x638968b93f8599e1";""
"komplek housing";"Taman";"mudrikha resort";"31658, Rantau Kadam, Karang Dapo, Kab. Musi Rawas Utara, Sumatera Selatan 31658";"Rantau Kadam, Karang Dapo, Kab. Musi Rawas Utara";"SUMATERA SELATAN";"31658";"Indonesia";"";"";"";"-2.7032031";"102.9684058";"https://maps.google.com/?cid=0x0:0x4b91898a0265f45f";""
"komplek housing";"komplek housing";"Sumatera Selatan 31654";"Kabupaten Musi Rawas, Sumatera Selatan";"Kabupaten Musi Rawas, Sumatera Selatan";"SUMATERA SELATAN";"";"Indonesia";"";"";"";"-2.8261883";"102.7594847";"https://maps.google.com/?cid=0x0:0xc4e1d96ef2cee976";""
"komplek housing";"Komplek perumahan";"rumah fasha";"4Q45+6F, Terusan, Kec. Karang Jaya, Kab. Musi Rawas Utara, Sumatera Selatan";"Kab. Musi Rawas Utara, Sumatera Selatan";"SUMATERA SELATAN";"";"Indonesia";"";"";"";"-2.8936743";"102.7578994";"https://maps.google.com/?cid=0x0:0xc079897f9fd1dac5";""
"komplek housing";"Komplek perumahan";"WHW HOME";"4QJP+XG4 Belakang SD negeri 2, Karang Jaya, Kec. Karang Jaya, Kab. Musi Rawas Utara, Sumatera Selatan";"Kab. Musi Rawas Utara, Sumatera Selatan";"SUMATERA SELATAN";"";"Indonesia";"";"";"";"-2.867618";"102.7863311";"https://maps.google.com/?cid=0x0:0x7908f8084cc60ae4";""
"komplek housing";"Perumahan";"Rumah Bpk Yasin  Bu Ila";"4QJR+H39, Jl. Lintas Utama Sumatera, Karang Jaya, Kec. Karang Jaya, Kab. Musi Rawas Utara, Sumatera Selatan 31654";"Jl. Lintas Utama Sumatera, Karang Jaya, Kec. Karang Jaya, Kab. Musi Rawas Utara";"SUMATERA SELATAN";"31654";"Indonesia";"";"";"";"-2.8687499";"102.7904795";"https://maps.google.com/?cid=0x0:0xd17864ecdb3a5a91";""
"komplek housing";"Komplek perumahan";"Rumah deni";"4M5W+WG2, Sukamenang, Kec. Karang Jaya, Kab. Musi Rawas Utara, Sumatera Selatan 31654";"Sukamenang, Kec. Karang Jaya, Kab. Musi Rawas Utara";"SUMATERA SELATAN";"31654";"Indonesia";"";"";"";"-2.890245";"102.696277";"https://maps.google.com/?cid=0x0:0x9bdc06416d48ed57";""
"komplek housing";"Komplek perumahan";"Ummu Hana";"3MPQ+V42, Rantau Telang, Kec. Karang Jaya, Kabupaten Musi Rawas, Sumatera Selatan 31654";"Rantau Telang, Kec. Karang Jaya, Kabupaten Musi Rawas";"SUMATERA SELATAN";"31654";"Indonesia";"";"";"";"-2.9129383";"102.6878464";"https://maps.google.com/?cid=0x0:0xa563881bea0fb7fc";""
"komplek housing";"Komplek perumahan";"Rupit";"6P67+VCR, Embacang Lama, Kec. Karang Jaya, Kab. Musi Rawas Utara, Sumatera Selatan";"Kab. Musi Rawas Utara, Sumatera Selatan";"SUMATERA SELATAN";"";"Indonesia";"";"";"";"-2.787759";"102.7135121";"https://maps.google.com/?cid=0x0:0xd065c54fb6aee3d1";""
"komplek housing";"Perhimpunan Pengembang Perumahan";"Jaria";"4QJR+4FJ, Karang Jaya, Kec. Karang Jaya, Kab. Musi Rawas Utara, Sumatera Selatan 31654";"Karang Jaya, Kec. Karang Jaya, Kab. Musi Rawas Utara";"SUMATERA SELATAN";"31654";"Indonesia";"";"";"";"-2.8697954";"102.7921535";"https://maps.google.com/?cid=0x0:0x3984ba78939268be";""
"komplek housing";"Perhimpunan Pengembang Perumahan";"rumah wizeliaa";"4M5W+WG2, Sukamenang, Kec. Karang Jaya, Kab. Musi Rawas Utara, Sumatera Selatan 31654";"Sukamenang, Kec. Karang Jaya, Kab. Musi Rawas Utara";"SUMATERA SELATAN";"31654";"Indonesia";"";"";"";"-2.890245";"102.696277";"https://maps.google.com/?cid=0x0:0xfa263439c37e866a";""
"komplek housing";"komplek housing";"Tempat tinggal";"4Q7F+XQ, Karang Jaya, Kec. Karang Jaya, Kab. Musi Rawas Utara, Sumatera Selatan";"Kab. Musi Rawas Utara, Sumatera Selatan";"SUMATERA SELATAN";"";"Indonesia";"";"";"";"-2.8850083";"102.7744433";"https://maps.google.com/?cid=0x0:0x753fb4b2d11ec01b";""
"komplek housing";"Komplek perumahan";"RUMAH ARSAD";"5R24+G9M, Jl. Dusun Embacang, Embacang Baru, Kec. Karang Jaya, Kab. Musi Rawas Utara, Sumatera Selatan 31654";"Jl. Dusun Embacang, Embacang Baru, Kec. Karang Jaya, Kab. Musi Rawas Utara";"SUMATERA SELATAN";"31654";"Indonesia";"";"";"";"-2.8486763";"102.8059302";"https://maps.google.com/?cid=0x0:0x6ebffdb6d39fa6dd";""
"komplek housing";"Pembangunan Perumahan";"Karanganyar";"8RQV+356, Jl. Lintas Utama Sumatera, Karang Anyar, Kec. Rupit, Kab. Musi Rawas Utara, Sumatera Selatan 31654";"Jl. Lintas Utama Sumatera, Karang Anyar, Kec. Rupit, Kab. Musi Rawas Utara";"SUMATERA SELATAN";"31654";"Indonesia";"";"";"";"-2.6623497";"102.842881";"https://maps.google.com/?cid=0x0:0x6fbf93a24fba3034";""
"komplek housing";"Pembangunan Perumahan";"Terusan simpang 4";"Jl. Sarolangun - Lubuk Linggau, Terusan, Kec. Karang Jaya, Kab. Musi Rawas Utara, Sumatera Selatan 30771";"Terusan, Kec. Karang Jaya, Kab. Musi Rawas Utara";"SUMATERA SELATAN";"30771";"Indonesia";" 085367126362";"";"";"-2.9452929";"102.7693901";"https://maps.google.com/?cid=0x0:0x6293dc1e15474a7";""
"komplek housing";"Komplek perumahan";"Palembang";"7WV6+RQJ, Lawang Agung, Kec. Rupit, Kab. Musi Rawas Utara, Sumatera Selatan 31654";"Lawang Agung, Kec. Rupit, Kab. Musi Rawas Utara";"SUMATERA SELATAN";"31654";"Indonesia";"";"";"";"-2.7054188";"102.9118966";"https://maps.google.com/?cid=0x0:0x7751a9d86c64c66f";""
"komplek housing";"Komplek perumahan";"Lea Cantikk";"3PP5+8V5, Sukamenang, Kec. Karang Jaya, Kab. Musi Rawas Utara, Sumatera Selatan 31654";"Sukamenang, Kec. Karang Jaya, Kab. Musi Rawas Utara";"SUMATERA SELATAN";"31654";"Indonesia";"";"";"";"-2.9142043";"102.7097349";"https://maps.google.com/?cid=0x0:0xf119f2ca23d2cb1f";""
"komplek housing";"Kompleks Kondominium";"Rumah,Rego Saputra";"4M5W+WG2, Sukamenang, Kec. Karang Jaya, Kab. Musi Rawas Utara, Sumatera Selatan 31654";"Sukamenang, Kec. Karang Jaya, Kab. Musi Rawas Utara";"SUMATERA SELATAN";"31654";"Indonesia";"";"";"";"-2.890245";"102.696277";"https://maps.google.com/?cid=0x0:0x1b7c4dad1180fe2a";""
"komplek housing";"Pembangunan Perumahan";"Rumah vasep";"4QHQ+F7, Karang Jaya, Kec. Karang Jaya, Kab. Musi Rawas Utara, Sumatera Selatan";"Kab. Musi Rawas Utara, Sumatera Selatan";"SUMATERA SELATAN";"";"Indonesia";"";"";"";"-2.8713148";"102.7882003";"https://maps.google.com/?cid=0x0:0x8a14012a2b04db21";""
"komplek housing";"Komplek perumahan";"Rumah Atha";"3PR6+92, Sukamenang, Kec. Karang Jaya, Kab. Musi Rawas Utara, Sumatera Selatan";"Kab. Musi Rawas Utara, Sumatera Selatan";"SUMATERA SELATAN";"";"Indonesia";"";"";"";"-2.9094474";"102.7101356";"https://maps.google.com/?cid=0x0:0x99db07bcb5fc5c47";""
"komplek housing";"Pembangunan Perumahan";"RUMAH ARIPIN";"8VH6+PM, Karang Anyar, Kec. Rupit, Kab. Musi Rawas Utara, Sumatera Selatan 31654";"Karang Anyar, Kec. Rupit, Kab. Musi Rawas Utara";"SUMATERA SELATAN";"31654";"Indonesia";"";"";"";"-2.6710574";"102.8608411";"https://maps.google.com/?cid=0x0:0x7a64d42d10e933b9";""
"komplek housing";"Pembangunan Perumahan";"Reti Riwana";"Muara Batang Empu, Kec. Karang Jaya, Kab. Musi Rawas Utara, Sumatera Selatan 31654";"Kec. Karang Jaya, Kab. Musi Rawas Utara";"SUMATERA SELATAN";"31654";"Indonesia";"";"";"";"-2.935466";"102.696829";"https://maps.google.com/?cid=0x0:0xd7e324820f31d560";""
"komplek housing";"komplek housing";"Siliwangi fram";"XRHW+238, Sukamana, Suku Tengah Lakitan Ulu, Kabupaten Musi Rawas, Sumatera Selatan 30771";"Sukamana, Suku Tengah Lakitan Ulu, Kabupaten Musi Rawas";"SUMATERA SELATAN";"30771";"Indonesia";"";"";"";"-3.0224595";"102.8452025";"https://maps.google.com/?cid=0x0:0x2b1a43095994b6d4";""
"komplek housing";"komplek housing";"Cika";"VVXQ+3J5, Sumber Karya, Suku Tengah Lakitan Ulu, Kabupaten Musi Rawas, Sumatera Selatan 31662";"Sumber Karya, Suku Tengah Lakitan Ulu, Kabupaten Musi Rawas";"SUMATERA SELATAN";"31662";"Indonesia";"";"";"";"-3.1023667";"102.8890969";"https://maps.google.com/?cid=0x0:0xe02bfcc4446fb046";""
"komplek housing";"Komplek perumahan";"Lorong ceria";"2VWR+797, Lorong ceria. Lapangan, Rejosari, Kec. Megang Sakti, Kabupaten Musi Rawas, Sumatera Selatan 30771";"Lorong ceria. Lapangan, Rejosari, Kec. Megang Sakti, Kabupaten Musi Rawas";"SUMATERA SELATAN";"30771";"Indonesia";"";"";"";"-2.9540447";"102.8900938";"https://maps.google.com/?cid=0x0:0x54b7350ae084774c";""
"komplek housing";"Rumah Kayu";"Rumah CR";"2Q68+H2P, Bukit Langkap, Kec. Karang Jaya, Kab. Musi Rawas Utara, Sumatera Selatan 30771";"Bukit Langkap, Kec. Karang Jaya, Kab. Musi Rawas Utara";"SUMATERA SELATAN";"30771";"Indonesia";"";"";"";"-2.98906";"102.76414";"https://maps.google.com/?cid=0x0:0x9969bb51e2d7e86a";""
"komplek housing";"Komplek perumahan";"Rumah Yogi kelpin";"3PQ5+CWF, Sukamenang, Kec. Karang Jaya, Kabupaten Musi Rawas, Sumatera Selatan";"Kabupaten Musi Rawas, Sumatera Selatan";"SUMATERA SELATAN";"";"Indonesia";"";"";"";"-2.9103398";"102.7100844";"https://maps.google.com/?cid=0x0:0x8d2d757fa9964a73";""
"komplek housing";"Komplek perumahan";"Rumah robet";"6P67+VCR, Desa ketapat bening, Embacang Lama, Kec. Karang Jaya, Kab. Musi Rawas Utara, Sumatera Selatan";"Kab. Musi Rawas Utara, Sumatera Selatan";"SUMATERA SELATAN";"";"Indonesia";"";"";"";"-2.787759";"102.7135121";"https://maps.google.com/?cid=0x0:0x53d30d50fc587475";""
"komplek housing";"Komplek perumahan";"Bedeng Kak Iwan";"8W83+77, Karang Waru, Kec. Rupit, Kabupaten Musi Rawas, Sumatera Selatan";"Kabupaten Musi Rawas, Sumatera Selatan";"SUMATERA SELATAN";"";"Indonesia";"";"";"";"-2.6842876";"102.9031715";"https://maps.google.com/?cid=0x0:0x6d1b9d51c7e20c72";""
"komplek housing";"komplek housing";"Kec. Karang Jaya";"Kab. Musi Rawas Utara, Sumatera Selatan";"Kab. Musi Rawas Utara, Sumatera Selatan";"SUMATERA SELATAN";"";"Indonesia";"";"";"";"-2.8708799";"102.7900419";"https://maps.google.com/?cid=0x0:0xaf463a35b81e796d";""
"komplek housing";"komplek housing";"Kec. Karang Jaya";"Kab. Musi Rawas Utara, Sumatera Selatan";"Kab. Musi Rawas Utara, Sumatera Selatan";"SUMATERA SELATAN";"";"Indonesia";"";"";"";"-2.8708799";"102.7900419";"https://maps.google.com/?cid=0x0:0xaf463a35b81e796d";""
"komplek housing";"komplek housing";"Kec. Karangjaya";"Kabupaten Tasikmalaya, Jawa Barat";"Kabupaten Tasikmalaya, Jawa Barat";"SUMATERA SELATAN";"";"Indonesia";"";"";"";"-7.430806";"108.3890099";"https://maps.google.com/?cid=0x0:0x254527a0d782b054";""
"komplek housing";"Komplek perumahan";"Blok Cidawiah";"H9JJ+MP2, Pananjung, RT.05/RW.02, Karanglayung, Kec. Karangjaya";"Kabupaten Tasikmalaya, Jawa Barat";"SUMATERA SELATAN";"";"Indonesia";"";"";"";"-7.4183541";"108.381776";"https://maps.google.com/?cid=0x0:0xc35b635b5438ca96";""
"komplek housing";"Masjid";"Mesjid rancagembor";"HC62+PF, Karangjaya, Kec. Karangjaya, Kabupaten Tasikmalaya, Jawa Barat 46198";"Karangjaya, Kec. Karangjaya, Kabupaten Tasikmalaya";"SUMATERA SELATAN";"46198";"Indonesia";"";"";"";"-7.4381445";"108.4011695";"https://maps.google.com/?cid=0x0:0x92bb18126ebc551f";""
"komplek housing";"Perhimpunan Pengembang Perumahan";"Dhikailham";"H9HX+VG, Karangjaya, Kec. Karangjaya, Kabupaten Tasikmalaya, Jawa Barat";"Kabupaten Tasikmalaya, Jawa Barat";"SUMATERA SELATAN";"";"Indonesia";"";"";"";"-7.4203185";"108.3987686";"https://maps.google.com/?cid=0x0:0xe3405931506cdeb8";""
"komplek housing";"Komplek perumahan";"Hilsa hestika";"GCR5+JWF, Sirnajaya, Kec. Karangjaya, Kabupaten Tasikmalaya, Jawa Barat 46198";"Sirnajaya, Kec. Karangjaya, Kabupaten Tasikmalaya";"SUMATERA SELATAN";"46198";"Indonesia";"";"";"";"-7.458436";"108.4098014";"https://maps.google.com/?cid=0x0:0xd1dcb7e8f5f436f0";""
"komplek housing";"Komplek perumahan";"Ruhiyat Home";"HC25+R34, Sirnajaya, Kec. Karangjaya, Kabupaten Tasikmalaya, Jawa Barat 46198";"Sirnajaya, Kec. Karangjaya, Kabupaten Tasikmalaya";"SUMATERA SELATAN";"46198";"Indonesia";"";"";"";"-7.448494";"108.408619";"https://maps.google.com/?cid=0x0:0x8931c42f5b5668b0";""
"komplek housing";"Komplek perumahan";"Rmh_Unu/Selly";"Jl. Cilimus, Karanglayung, Kec. Karangjaya, Kabupaten Tasikmalaya, Jawa Barat 46198";"Karanglayung, Kec. Karangjaya, Kabupaten Tasikmalaya";"SUMATERA SELATAN";"46198";"Indonesia";"";"";"";"-7.4337434";"108.3662418";"https://maps.google.com/?cid=0x0:0x9da67fe817c9a94c";""
"komplek housing";"Komplek perumahan";"Home indra herdiawan";"HC28+524, Dusun sukajaya, RT.10 rw004, Sirnajaya, Kec. Karangjaya, Kabupaten Tasikmalaya, Jawa Barat 46198";"Dusun sukajaya, RT.10 rw004, Sirnajaya, Kec. Karangjaya, Kabupaten Tasikmalaya";"SUMATERA SELATAN";"46198";"Indonesia";"";"";"";"-7.4496016";"108.4150857";"https://maps.google.com/?cid=0x0:0x8e639025db3e74ec";""
"komplek housing";"Pembangunan Perumahan";"hanifa house";"H9HG+378, Jl. Citamiang, Karanglayung, Kec. Karangjaya, Kabupaten Tasikmalaya, Jawa Barat 46198";"Jl. Citamiang, Karanglayung, Kec. Karangjaya, Kabupaten Tasikmalaya";"SUMATERA SELATAN";"46198";"Indonesia";"";"";"";"-7.422344";"108.375693";"https://maps.google.com/?cid=0x0:0x9ab459153a67a9e0";""
"komplek housing";"Perhimpunan Pengembang Perumahan";"Sawah Lega";"GC99+FF8, Citalahab, Kec. Karangjaya, Kabupaten Tasikmalaya, Jawa Barat";"Kabupaten Tasikmalaya, Jawa Barat";"SUMATERA SELATAN";"";"Indonesia";"";"";"";"-7.4813316";"108.4187029";"https://maps.google.com/?cid=0x0:0xecb459b33cc9b548";""
"komplek housing";"Komplek perumahan";"Home sri";"HC34+H86, Desa, Dusun Gunungjantra, Sirnajaya, Kec. Karangjaya, Kabupaten Tasikmalaya, Jawa Barat 46198";"Desa, Dusun Gunungjantra, Sirnajaya, Kec. Karangjaya, Kabupaten Tasikmalaya";"SUMATERA SELATAN";"46198";"Indonesia";"";"";"";"-7.4461259";"108.4057837";"https://maps.google.com/?cid=0x0:0x37e32fb49e615e50";""
"komplek housing";"Komplek perumahan";"WIBAWA HOME";"H9CX+R5M, Dusun Pacargantung, RT.02/RW.01, Karangjaya, Kec. Karangjaya, Kabupaten Tasikmalaya, Jawa Barat";"Kabupaten Tasikmalaya, Jawa Barat";"SUMATERA SELATAN";"";"Indonesia";"";"";"";"-7.4279175";"108.3979331";"https://maps.google.com/?cid=0x0:0xf50883d11f4c4ca";""
"komplek housing";"Komplek perumahan";"Adnan hakim home";"H99Q+MJC, RT.3/RW.11, Karangjaya, Kec. Karangjaya, Kabupaten Tasikmalaya, Jawa Barat";"Kabupaten Tasikmalaya, Jawa Barat";"SUMATERA SELATAN";"";"Indonesia";"";"";"";"-7.430806";"108.3890099";"https://maps.google.com/?cid=0x0:0xc5f80755c9457109";""
"komplek housing";"Komplek perumahan";"Manangga";"HC94+CJ6, Karangjaya, Kec. Karangjaya, Kabupaten Tasikmalaya, Jawa Barat 46198";"Karangjaya, Kec. Karangjaya, Kabupaten Tasikmalaya";"SUMATERA SELATAN";"46198";"Indonesia";"";"";"";"-7.4314696";"108.4065066";"https://maps.google.com/?cid=0x0:0xaa4308c443fcd0b1";""
"komplek housing";"Komplek perumahan";"Gina SH";"HCF3+J5H, Karangjaya, Kec. Karangjaya, Kabupaten Tasikmalaya, Jawa Barat";"Kabupaten Tasikmalaya, Jawa Barat";"SUMATERA SELATAN";"";"Indonesia";"";"";"";"-7.4259491";"108.4029988";"https://maps.google.com/?cid=0x0:0x88da3bc5cce65973";""
"komplek housing";"Komplek perumahan";"Rumah";"H99R+7M4, Karangjaya, Kec. Karangjaya, Kabupaten Tasikmalaya, Jawa Barat";"Kabupaten Tasikmalaya, Jawa Barat";"SUMATERA SELATAN";"";"Indonesia";"";"";"";"-7.4318642";"108.3916978";"https://maps.google.com/?cid=0x0:0x4023133bc7b1ed8f";""
"komplek housing";"Perumahan";"Rumah bp Ayi";"H87W+75X, Pasirmukti, Kec. Cineam, Kabupaten Tasikmalaya, Jawa Barat 46198";"Pasirmukti, Kec. Cineam, Kabupaten Tasikmalaya";"SUMATERA SELATAN";"46198";"Indonesia";"";"";"";"-7.4367551";"108.3454738";"https://maps.google.com/?cid=0x0:0x4d2bea6a162e84a2";""
"komplek housing";"Komplek perumahan";"Tandang Home";"Gunung jantra No.rt 4, rw2, Sirnajaya, Kec. Karangjaya, Kabupaten Tasikmalaya, Jawa Barat 46198";"rw2, Sirnajaya, Kec. Karangjaya, Kabupaten Tasikmalaya";"SUMATERA SELATAN";"46198";"Indonesia";"";"";"";"-7.458436";"108.4098014";"https://maps.google.com/?cid=0x0:0x2bd7b5cc6ea8d12e";""
"komplek housing";"Komplek perumahan";"Yuli's house";"GCM7+HJ, Sirnajaya, Kec. Karangjaya, Kabupaten Tasikmalaya, Jawa Barat 46198";"Sirnajaya, Kec. Karangjaya, Kabupaten Tasikmalaya";"SUMATERA SELATAN";"46198";"Indonesia";"";"";"";"-7.4656364";"108.4131834";"https://maps.google.com/?cid=0x0:0xac8ea9a2535cf9a6";""
"komplek housing";"komplek housing";"Rumah pak suhendar";"HCQV+RXC, Dsn.wanasuka, RT.09/RW.03, Cidolog, Kec. Cidolog, Kabupaten Ciamis, Jawa Barat";"Kabupaten Ciamis, Jawa Barat";"SUMATERA SELATAN";"";"Indonesia";"";"";"";"-7.4104291";"108.4448839";"https://maps.google.com/?cid=0x0:0xdf26dbde62607e64";""
"komplek housing";"komplek housing";"Sumatera Selatan 31667";"Kec. Nibung, Kab. Musi Rawas Utara, Sumatera Selatan";"Kab. Musi Rawas Utara, Sumatera Selatan";"SUMATERA SELATAN";"";"Indonesia";"";"";"";"-2.4365476";"102.9435536";"https://maps.google.com/?cid=0x0:0x51eee84d7db6be8b";""
"komplek housing";"Komplek perumahan";"Ratinah dan Erwin house";"GXQ2+7F, Sri Jaya Makmur, Kec. Nibung, Kab. Musi Rawas Utara, Sumatera Selatan";"Kab. Musi Rawas Utara, Sumatera Selatan";"SUMATERA SELATAN";"";"Indonesia";"";"";"";"-2.4618433";"102.9511884";"https://maps.google.com/?cid=0x0:0xbdb2d416bbc2f60b";""
"komplek housing";"Komplek perumahan";"SIMPANG EMPAT SP 7";"FWWM+G6F, Sumber Makmur, Kec. Nibung, Kabupaten Musi Rawas, Sumatera Selatan 31667";"Sumber Makmur, Kec. Nibung, Kabupaten Musi Rawas";"SUMATERA SELATAN";"31667";"Indonesia";"";"";"";"-2.5038546";"102.9338929";"https://maps.google.com/?cid=0x0:0x5c15004db12492bd";""
"komplek housing";"Perhimpunan Pengembang Perumahan";"Perumahan Jadi mulya";"FX7P+9R4, Jadi Mulya, Kec. Nibung, Kabupaten Musi Rawas, Sumatera Selatan 31667";"Jadi Mulya, Kec. Nibung, Kabupaten Musi Rawas";"SUMATERA SELATAN";"31667";"Indonesia";"";"";"";"-2.537141";"102.986497";"https://maps.google.com/?cid=0x0:0xbf2960086254c84f";""
"komplek housing";"Perhimpunan Pengembang Perumahan";"D ni";"FW45+PJJ, Krani Jaya, Kec. Nibung, Kab. Musi Rawas Utara, Sumatera Selatan";"Kab. Musi Rawas Utara, Sumatera Selatan";"SUMATERA SELATAN";"";"Indonesia";"";"";"";"-2.5431521";"102.9090191";"https://maps.google.com/?cid=0x0:0xdcbc76fa3c95e85b";""
"komplek housing";"Komplek perumahan";"rumah komang sendipa";"GX52+2H5, Jalan karya bakti, Karya Makmur, Kec. Nibung, Kab. Musi Rawas Utara, Sumatera Selatan 31667";"Jalan karya bakti, Karya Makmur, Kec. Nibung, Kab. Musi Rawas Utara";"SUMATERA SELATAN";"31667";"Indonesia";"";"";"";"-2.4924894";"102.95147";"https://maps.google.com/?cid=0x0:0x6f8095f32795a929";""
"komplek housing";"Komplek perumahan";"Mang tabrani";"G2HJ+93W, Bumi Makmur, Kec. Nibung, Kabupaten Musi Rawas, Sumatera Selatan 31667";"Bumi Makmur, Kec. Nibung, Kabupaten Musi Rawas";"SUMATERA SELATAN";"31667";"Indonesia";"";"";"";"-2.4716615";"103.0302284";"https://maps.google.com/?cid=0x0:0x675e7a9aefe3b8ff";""
"komplek housing";"Komplek perumahan";"rumah luh tiniasih";"GX42+GM, Karya Makmur, Kec. Nibung, Kabupaten Musi Rawas, Sumatera Selatan";"Kabupaten Musi Rawas, Sumatera Selatan";"SUMATERA SELATAN";"";"Indonesia";"";"";"";"-2.4937308";"102.9517166";"https://maps.google.com/?cid=0x0:0x6ae51a9b211195cb";""
"komplek housing";"Perhimpunan Pengembang Perumahan";"Rumah Pak Sulam";"G2MM+V57, Bumi Makmur, Kec. Nibung, Kabupaten Musi Rawas, Sumatera Selatan 31667";"Bumi Makmur, Kec. Nibung, Kabupaten Musi Rawas";"SUMATERA SELATAN";"31667";"Indonesia";"";"";"";"-2.465271";"103.0325287";"https://maps.google.com/?cid=0x0:0x84db2bb0188de52a";""
"komplek housing";"Komplek perumahan";"Arta dan Meisyah";"GWF3+94F, Mulya Jaya, Kec. Nibung, Kab. Musi Rawas Utara, Sumatera Selatan 31667";"Mulya Jaya, Kec. Nibung, Kab. Musi Rawas Utara";"SUMATERA SELATAN";"31667";"Indonesia";"";"";"";"-2.4765722";"102.9027976";"https://maps.google.com/?cid=0x0:0x6268cc38ac3ffdeb";""
"komplek housing";"Komplek perumahan";"Rumah Gede Arnawa";"GX84+5J6, Karya Makmur, Kec. Nibung, Kabupaten Musi Rawas, Sumatera Selatan 31667";"Karya Makmur, Kec. Nibung, Kabupaten Musi Rawas";"SUMATERA SELATAN";"31667";"Indonesia";"";"";"";"-2.4845808";"102.9565303";"https://maps.google.com/?cid=0x0:0x6b6b08d9a4ed4faa";""
"komplek housing";"Komplek perumahan";"Rumah RATNA DEWA";"G2HJ+93W, Bumi Makmur, Kec. Nibung, Kabupaten Musi Rawas, Sumatera Selatan 31667";"Bumi Makmur, Kec. Nibung, Kabupaten Musi Rawas";"SUMATERA SELATAN";"31667";"Indonesia";"";"";"";"-2.4706057";"103.0304956";"https://maps.google.com/?cid=0x0:0x5983aecafa70e829";""
"komplek housing";"Komplek perumahan";"Yunus";"G2J6+JQ8, Bumi Makmur, Kec. Nibung, Kab. Musi Rawas Utara, Sumatera Selatan 31667";"Bumi Makmur, Kec. Nibung, Kab. Musi Rawas Utara";"SUMATERA SELATAN";"31667";"Indonesia";"";"";"";"-2.4684601";"103.0119627";"https://maps.google.com/?cid=0x0:0xac62107d565cb9f";""
"komplek housing";"Pembangunan Perumahan";"Eddy's house  mini electric shop";"GXJ2+FV4, Sri Jaya Makmur, Kec. Nibung, Kab. Musi Rawas Utara, Sumatera Selatan 31667";"Sri Jaya Makmur, Kec. Nibung, Kab. Musi Rawas Utara";"SUMATERA SELATAN";"31667";"Indonesia";"";"";"";"-2.47011";"102.951435";"https://maps.google.com/?cid=0x0:0x84568753719d5222";""
"komplek housing";"Perhimpunan Pengembang Perumahan";"Rumah wahit";"GWHV+XVW, Sri Jaya Makmur, Kec. Nibung, Kab. Musi Rawas Utara, Sumatera Selatan 31667";"Sri Jaya Makmur, Kec. Nibung, Kab. Musi Rawas Utara";"SUMATERA SELATAN";"31667";"Indonesia";"";"";"";"-2.4700024";"102.9446884";"https://maps.google.com/?cid=0x0:0x749dbdb93ec7371e";""
"komplek housing";"Rumah Kaca";"Rumah Hijau Khanza";"FWRJ+CH7, Jalan Bunga Rampai, Sumber Makmur, Kec. Nibung, Kab. Musi Rawas Utara, Sumatera Selatan";"Kab. Musi Rawas Utara, Sumatera Selatan";"SUMATERA SELATAN";"";"Indonesia";"";"";"";"-2.5089555";"102.9314346";"https://maps.google.com/?cid=0x0:0xf449bf901f81bda8";""
"komplek housing";"Kompleks Apartemen";"Home stay";"FX5H+26H, Trans Baru, Jadi Mulya, Kec. Nibung, Kab. Musi Rawas Utara, Sumatera Selatan";"Kab. Musi Rawas Utara, Sumatera Selatan";"SUMATERA SELATAN";"";"Indonesia";"";"";"";"-2.5424485";"102.9780981";"https://maps.google.com/?cid=0x0:0x4d126bbdc72a4828";""
"komplek housing";"Komplek perumahan";"Simpang Tiga E1 Kampung Bali";"GW5V+2QJ, Sumber Makmur, Kec. Nibung, Kab. Musi Rawas Utara, Sumatera Selatan 31667";"Sumber Makmur, Kec. Nibung, Kab. Musi Rawas Utara";"SUMATERA SELATAN";"31667";"Indonesia";"";"";"";"-2.4929573";"102.9452929";"https://maps.google.com/?cid=0x0:0x648b2e7cd1d4e7d3";""
"komplek housing";"Komplek perumahan";"Rumah Reka";"FWF6+VG, Krani Jaya, Kec. Nibung, Kabupaten Musi Rawas, Sumatera Selatan";"Kabupaten Musi Rawas, Sumatera Selatan";"SUMATERA SELATAN";"";"Indonesia";"";"";"";"-2.5254523";"102.910969";"https://maps.google.com/?cid=0x0:0x7650e8a3ad69f8cd";""
"komplek housing";"Pembangunan Perumahan";"Rumah riando";"GX82+4G, Karya Makmur, Kec. Nibung, Kabupaten Musi Rawas, Sumatera Selatan";"Kabupaten Musi Rawas, Sumatera Selatan";"SUMATERA SELATAN";"";"Indonesia";"";"";"";"-2.4855871";"102.9512679";"https://maps.google.com/?cid=0x0:0x520e628438ff1bb4";""
"komplek housing";"komplek housing";"Kec. Nibung";"Kab. Musi Rawas Utara, Sumatera Selatan";"Kab. Musi Rawas Utara, Sumatera Selatan";"SUMATERA SELATAN";"";"Indonesia";"";"";"";"-2.4969628";"102.9566068";"https://maps.google.com/?cid=0x0:0xb6f86a9b46849e89";""
"komplek housing";"Komplek perumahan";"RUMAH DINA HENDRA";"Sri Jaya Makmur, Kec. Nibung, Kabupaten Musi Rawas, Sumatera Selatan 31667";"Kec. Nibung, Kabupaten Musi Rawas";"SUMATERA SELATAN";"31667";"Indonesia";" 082399622721";"";"";"-2.4687874";"102.9457824";"https://maps.google.com/?cid=0x0:0x63ace7c78a7bbc1d";""
"komplek housing";"Pembangunan Perumahan";"RUMAH PAK MUHTARIDO";"GXJ2+FV4, Sri Jaya Makmur, Kec. Nibung, Kab. Musi Rawas Utara, Sumatera Selatan 31667";"Sri Jaya Makmur, Kec. Nibung, Kab. Musi Rawas Utara";"SUMATERA SELATAN";"31667";"Indonesia";"";"";"";"-2.4690544";"102.9523421";"https://maps.google.com/?cid=0x0:0x2af3d6742207c6f1";""
"komplek housing";"Komplek perumahan";"Rumah HUSIN AMRULLAH";"blok c 2, Bumi Makmur, Kec. Nibung, Kab. Musi Rawas Utara, Sumatera Selatan 31667";"Bumi Makmur, Kec. Nibung, Kab. Musi Rawas Utara";"SUMATERA SELATAN";"31667";"Indonesia";"";"";"";"-2.4703326";"103.0131359";"https://maps.google.com/?cid=0x0:0xa28e21d88c93ffb4";""
"komplek housing";"Komplek perumahan";"Rumah Puji";"G2HJ+P3C, Bumi Makmur, Kec. Nibung, Kab. Musi Rawas Utara, Sumatera Selatan 31667";"Bumi Makmur, Kec. Nibung, Kab. Musi Rawas Utara";"SUMATERA SELATAN";"31667";"Indonesia";"";"";"";"-2.4706886";"103.0301308";"https://maps.google.com/?cid=0x0:0x4eaccd9021bd5238";""
"komplek housing";"Komplek perumahan";"Rumah Andika Nover";"Sp 1, blok c-0, Bumi Makmur, Kec. Nibung, Kab. Musi Rawas Utara, Sumatera Selatan 31667";"blok c-0, Bumi Makmur, Kec. Nibung, Kab. Musi Rawas Utara";"SUMATERA SELATAN";"31667";"Indonesia";"";"";"";"-2.4673441";"103.0155604";"https://maps.google.com/?cid=0x0:0xff42f270fc006f85";""
"komplek housing";"Komplek perumahan";"Rumah baim";"G2GC+8M4, Bumi Makmur, Kec. Nibung, Kab. Musi Rawas Utara, Sumatera Selatan 31667";"Bumi Makmur, Kec. Nibung, Kab. Musi Rawas Utara";"SUMATERA SELATAN";"31667";"Indonesia";"";"";"";"-2.4746641";"103.021534";"https://maps.google.com/?cid=0x0:0x1101b4abc43b1471";""
"komplek housing";"Komplek perumahan";"Wahyu";"GXR2+WR9, Sri Jaya Makmur, Kec. Nibung, Kab. Musi Rawas Utara, Sumatera Selatan 31667";"Sri Jaya Makmur, Kec. Nibung, Kab. Musi Rawas Utara";"SUMATERA SELATAN";"31667";"Indonesia";"";"";"";"-2.4573037";"102.9523692";"https://maps.google.com/?cid=0x0:0x4bae79ac5c2c8b7b";""
"komplek housing";"Komplek perumahan";"Rumah cik mit";"F2FR+HR3, Tebing Tinggi, Kec. Nibung, Kab. Musi Rawas Utara, Sumatera Selatan 31667";"Tebing Tinggi, Kec. Nibung, Kab. Musi Rawas Utara";"SUMATERA SELATAN";"31667";"Indonesia";"";"";"";"-2.5257557";"103.0413897";"https://maps.google.com/?cid=0x0:0x295229a2818ed0c0";""
"komplek housing";"komplek housing";"Sumatera Selatan 31655";"Kec. Rawas Ilir, Kabupaten Musi Rawas, Sumatera Selatan";"Kabupaten Musi Rawas, Sumatera Selatan";"SUMATERA SELATAN";"";"Indonesia";"";"";"";"-2.6657075";"103.2201828";"https://maps.google.com/?cid=0x0:0x9daabcd0688b6fb7";""
"komplek housing";"Komplek perumahan";"komplek perumahan sastra Am.Kep";"74C5+6WV, Mandi Angin, Kec. Rawas Ilir, Kabupaten Musi Rawas, Sumatera Selatan 31658";"Mandi Angin, Kec. Rawas Ilir, Kabupaten Musi Rawas";"SUMATERA SELATAN";"31658";"Indonesia";" 081339315187";"";"";"-2.7293818";"103.1097891";"https://maps.google.com/?cid=0x0:0x44c8e72cdf43470";""
"komplek housing";"Komplek perumahan";"SaveeHome";"Jln Lintas Bank sumsel Bingin Teluk. Ds 1, Beringin Makmur II, Kec. Rawas Ilir, Kab. Musi Rawas Utara, Sumatera Selatan 31655";"Beringin Makmur II, Kec. Rawas Ilir, Kab. Musi Rawas Utara";"SUMATERA SELATAN";"31655";"Indonesia";"";"";"";"-2.6144911";"103.1094157";"https://maps.google.com/?cid=0x0:0x9aa76b5be3aa802f";""
"komplek housing";"Komplek perumahan";"Rumah Ahmah Siswadi";"63XP+JX4, Mandi Angin, Kec. Rawas Ilir, Kab. Musi Rawas Utara, Sumatera Selatan 31658";"Mandi Angin, Kec. Rawas Ilir, Kab. Musi Rawas Utara";"SUMATERA SELATAN";"31658";"Indonesia";"";"";"";"-2.751743";"103.087461";"https://maps.google.com/?cid=0x0:0x17023c7c197c3e86";""
"komplek housing";"Komplek perumahan";"alextato";"C46J+MMM, Unnamed Road, Beringin Makmur II, Kec. Rawas Ilir, Kab. Musi Rawas Utara, Sumatera Selatan 31655";"Unnamed Road, Beringin Makmur II, Kec. Rawas Ilir, Kab. Musi Rawas Utara";"SUMATERA SELATAN";"31655";"Indonesia";"";"";"";"-2.5882751";"103.1316846";"https://maps.google.com/?cid=0x0:0x7d443898f5f1a874";""
"komplek housing";"Komplek perumahan";"Mr.PesulapKata";"Jalan Dusun 2 No.1, Pauh I, Kec. Rawas Ilir, Kab. Musi Rawas Utara, Sumatera Selatan 31655";"Pauh I, Kec. Rawas Ilir, Kab. Musi Rawas Utara";"SUMATERA SELATAN";"31655";"Indonesia";"";"";"";"-2.6594388";"103.2864303";"https://maps.google.com/?cid=0x0:0xdb57144d093342e9";""
"komplek housing";"Pembangunan Perumahan";"beringin makmur 1";"94J8+RHC, Bingin Tlk., Kec. Rawas Ilir, Kab. Musi Rawas Utara, Sumatera Selatan 31655";"Bingin Tlk., Kec. Rawas Ilir, Kab. Musi Rawas Utara";"SUMATERA SELATAN";"31655";"Indonesia";"";"";"";"-2.6179448";"103.116386";"https://maps.google.com/?cid=0x0:0x713931f2392dd93a";""
"komplek housing";"Pembangunan Perumahan";"Rumah emil";"94M5+Q7J, Beringin Makmur II, Kec. Rawas Ilir, Kab. Musi Rawas Utara, Sumatera Selatan 31655";"Beringin Makmur II, Kec. Rawas Ilir, Kab. Musi Rawas Utara";"SUMATERA SELATAN";"31655";"Indonesia";"";"";"";"-2.615515";"103.108237";"https://maps.google.com/?cid=0x0:0x78da6463e0a87807";""
"komplek housing";"Perumahan";"RR family";"94P5+J93, Beringin Makmur II, Kec. Rawas Ilir, Kab. Musi Rawas Utara, Sumatera Selatan";"Kab. Musi Rawas Utara, Sumatera Selatan";"SUMATERA SELATAN";"";"Indonesia";"";"";"";"-2.6134722";"103.1084138";"https://maps.google.com/?cid=0x0:0x9eff2d60edf2dfe4";""
"komplek housing";"Komplek perumahan";"Rumah Iwan anita";"87VH+P9W, Pauh I, Kec. Rawas Ilir, Kab. Musi Rawas Utara, Sumatera Selatan 31655";"Pauh I, Kec. Rawas Ilir, Kab. Musi Rawas Utara";"SUMATERA SELATAN";"31655";"Indonesia";"";"";"";"-2.6552199";"103.2777125";"https://maps.google.com/?cid=0x0:0xb8b9dd91cc58c43e";""
"komplek housing";"Komplek perumahan";"RUMAH SUBUR";"94C8+M9X, Beringin Makmur I, Kec. Rawas Ilir, Kab. Musi Rawas Utara, Sumatera Selatan";"Kab. Musi Rawas Utara, Sumatera Selatan";"SUMATERA SELATAN";"";"Indonesia";"";"";"";"-2.6280338";"103.1160882";"https://maps.google.com/?cid=0x0:0x53cd7b5057e3bc71";""
"komplek housing";"Komplek perumahan";"Tempat tinggal";"63XP+JX4, Mandi Angin, Kec. Rawas Ilir, Kab. Musi Rawas Utara, Sumatera Selatan 31658";"Mandi Angin, Kec. Rawas Ilir, Kab. Musi Rawas Utara";"SUMATERA SELATAN";"31658";"Indonesia";"";"";"";"-2.7522315";"103.0873439";"https://maps.google.com/?cid=0x0:0xe1705d1a62d5ba2c";""
"komplek housing";"Komplek perumahan";"Rumah masa kecil";"94P7+P3C, Beringin Makmur II, Kec. Rawas Ilir, Kab. Musi Rawas Utara, Sumatera Selatan 31655";"Beringin Makmur II, Kec. Rawas Ilir, Kab. Musi Rawas Utara";"SUMATERA SELATAN";"31655";"Indonesia";"";"";"";"-2.613864";"103.112156";"https://maps.google.com/?cid=0x0:0xb5ba600bbb72f05d";""
"komplek housing";"Komplek perumahan";"Syarkowi";"94Q4+HV, Beringin Makmur II, Kec. Rawas Ilir, Kab. Musi Rawas Utara, Sumatera Selatan 31655";"Beringin Makmur II, Kec. Rawas Ilir, Kab. Musi Rawas Utara";"SUMATERA SELATAN";"31655";"Indonesia";"";"";"";"-2.6111609";"103.1071588";"https://maps.google.com/?cid=0x0:0xca486a1e88b9a4ae";""
"komplek housing";"Komplek perumahan";"Rumah Fedra";"87QQ+8WC, Pauh, Kec. Rawas Ilir, Kabupaten Musi Rawas, Sumatera Selatan 31655";"Pauh, Kec. Rawas Ilir, Kabupaten Musi Rawas";"SUMATERA SELATAN";"31655";"Indonesia";"";"";"";"-2.6628933";"103.289623";"https://maps.google.com/?cid=0x0:0x732a4dd9064b8039";""
"komplek housing";"Pembangunan Perumahan";"Weni Putri Wdr";"94P6+Q94, Beringin Makmur II, Kec. Rawas Ilir, Kab. Musi Rawas Utara, Sumatera Selatan 31655";"Beringin Makmur II, Kec. Rawas Ilir, Kab. Musi Rawas Utara";"SUMATERA SELATAN";"31655";"Indonesia";"";"";"";"-2.6131134";"103.1109409";"https://maps.google.com/?cid=0x0:0x5fabba1c0de2a633";""
"komplek housing";"Komplek perumahan";"Rumah supina";"94Q8+F6C, Bingin Tlk., Kec. Rawas Ilir, Kab. Musi Rawas Utara, Sumatera Selatan";"Kab. Musi Rawas Utara, Sumatera Selatan";"SUMATERA SELATAN";"";"Indonesia";"";"";"";"-2.6113534";"103.1154501";"https://maps.google.com/?cid=0x0:0x521a9c4568ce4734";""
"komplek housing";"Komplek perumahan";"OT Sadat 02 Plus";"94P5+H7J, Dusun 1, Beringin Makmur II, Kec. Rawas Ilir, Kabupaten Musi Rawas, Sumatera Selatan 31655";"Dusun 1, Beringin Makmur II, Kec. Rawas Ilir, Kabupaten Musi Rawas";"SUMATERA SELATAN";"31655";"Indonesia";"";"";"";"-2.613537";"103.1081483";"https://maps.google.com/?cid=0x0:0x41a3a40681c04600";""
"komplek housing";"Komplek perumahan";"Yan_lvo";"94R6+M4X, Beringin Makmur II, Kec. Rawas Ilir, Kab. Musi Rawas Utara, Sumatera Selatan 31655";"Beringin Makmur II, Kec. Rawas Ilir, Kab. Musi Rawas Utara";"SUMATERA SELATAN";"31655";"Indonesia";"";"";"";"-2.6082524";"103.1103472";"https://maps.google.com/?cid=0x0:0xc7a26aa2dd3b66c2";""
"komplek housing";"Komplek perumahan";"Rumah Atun Jono/darmi";"94P6+C64, Beringin Makmur II, Kec. Rawas Ilir, Kab. Musi Rawas Utara, Sumatera Selatan 31655";"Beringin Makmur II, Kec. Rawas Ilir, Kab. Musi Rawas Utara";"SUMATERA SELATAN";"31655";"Indonesia";"";"";"";"-2.6139796";"103.1105666";"https://maps.google.com/?cid=0x0:0x49e65209fa6c837b";""
"komplek housing";"Perhimpunan Pengembang Perumahan";"DESA BELANI";"9672+GMH, Belani, Kec. Rawas Ilir, Kab. Musi Rawas Utara, Sumatera Selatan";"Kab. Musi Rawas Utara, Sumatera Selatan";"SUMATERA SELATAN";"";"Indonesia";"";"";"";"-2.6361764";"103.2017476";"https://maps.google.com/?cid=0x0:0x64cf25b25b39f9ef";""
"komplek housing";"komplek housing";"Kec. Rawas Ilir";"Kab. Musi Rawas Utara, Sumatera Selatan";"Kab. Musi Rawas Utara, Sumatera Selatan";"SUMATERA SELATAN";"";"Indonesia";"";"";"";"-2.588279";"103.2201828";"https://maps.google.com/?cid=0x0:0x4039d80b220e7f0";""
"komplek housing";"Perumahan";"Rumah mok pen";"94H8+8WC, Bingin Tlk., Kec. Rawas Ilir, Kab. Musi Rawas Utara, Sumatera Selatan 31655";"Bingin Tlk., Kec. Rawas Ilir, Kab. Musi Rawas Utara";"SUMATERA SELATAN";"31655";"Indonesia";"";"";"";"-2.6216826";"103.117251";"https://maps.google.com/?cid=0x0:0xc1557cd6ca4150de";""
"komplek housing";"Komplek perumahan";"Rano k";"94V7+9G7, Beringin Makmur II, Kec. Rawas Ilir, Kab. Musi Rawas Utara, Sumatera Selatan 31655";"Beringin Makmur II, Kec. Rawas Ilir, Kab. Musi Rawas Utara";"SUMATERA SELATAN";"31655";"Indonesia";"";"";"";"-2.606345";"103.1130867";"https://maps.google.com/?cid=0x0:0x67dff615a2dae802";""
"komplek housing";"Rumah wisata";"Moel Home";"CWP9+GJ, Jadi Mulya I, Kec. Nibung, Kabupaten Musi Rawas, Sumatera Selatan 31655";"Jadi Mulya I, Kec. Nibung, Kabupaten Musi Rawas";"SUMATERA SELATAN";"31655";"Indonesia";"";"";"";"-2.5636682";"102.9190349";"https://maps.google.com/?cid=0x0:0x2564c8a0f81dca93";""
"komplek housing";"Komplek perumahan";"SIMPANG EMPAT";"Foto Copy Susan, JL. Depati Dulamid Simpang 4 ( Empat No.175, RT.02/RW.00, Bingin Tlk., Kec. Rawas Ilir, Kab. Musi Rawas Utara, Sumatera Selatan 31655";"JL. Depati Dulamid Simpang 4 ( Empat No.175, RT.02/RW.00, Bingin Tlk., Kec. Rawas Ilir, Kab. Musi Rawas Utara";"SUMATERA SELATAN";"31655";"Indonesia";"";"";"";"-2.6176828";"103.1103569";"https://maps.google.com/?cid=0x0:0xea3d579fe876c57b";""
"komplek housing";"Komplek perumahan";"DAVID";"94JC+MC9, Beringin Makmur II, Kec. Rawas Ilir, Kabupaten Musi Rawas, Sumatera Selatan 31655";"Beringin Makmur II, Kec. Rawas Ilir, Kabupaten Musi Rawas";"SUMATERA SELATAN";"31655";"Indonesia";"";"";"";"-2.6191787";"103.1209879";"https://maps.google.com/?cid=0x0:0x474c4bfb53c92473";""
"komplek housing";"Komplek perumahan";"Nanda SR";"87RM+JC, Pauh I, Kec. Rawas Ilir, Kab. Musi Rawas Utara, Sumatera Selatan 31655";"Pauh I, Kec. Rawas Ilir, Kab. Musi Rawas Utara";"SUMATERA SELATAN";"31655";"Indonesia";"";"";"";"-2.6590738";"103.283894";"https://maps.google.com/?cid=0x0:0x1c421a441ba365ec";""
"komplek housing";"komplek housing";"Sumatera Selatan 31656";"Kabupaten Musi Rawas, Sumatera Selatan";"Kabupaten Musi Rawas, Sumatera Selatan";"SUMATERA SELATAN";"";"Indonesia";"";"";"";"-2.6716149";"102.6675575";"https://maps.google.com/?cid=0x0:0x829aeb46883c7ea6";""
"komplek housing";"Perumahan";"Rumah ibit wak lop";"9P8V+5XP, Sungai Baung, Kec. Rawas Ulu, Kab. Musi Rawas Utara, Sumatera Selatan 31656";"Sungai Baung, Kec. Rawas Ulu, Kab. Musi Rawas Utara";"SUMATERA SELATAN";"31656";"Indonesia";"";"";"";"-2.6345376";"102.7449569";"https://maps.google.com/?cid=0x0:0x29b66b0a78569ac9";""
"komplek housing";"Komplek perumahan";"Ratu Afnan dirga";"8MVW+VG4, Kerta Dewa, Kec. Rawas Ulu, Kab. Musi Rawas Utara, Sumatera Selatan 31656";"Kerta Dewa, Kec. Rawas Ulu, Kab. Musi Rawas Utara";"SUMATERA SELATAN";"31656";"Indonesia";"";"";"";"-2.6548791";"102.6958168";"https://maps.google.com/?cid=0x0:0x207c8fa466370ecd";""
"komplek housing";"Komplek perumahan";"Azzam  Shopyy";"8JJR+WQ9, Pangkalan, Kec. Rawas Ulu, Kab. Musi Rawas Utara, Sumatera Selatan 31656";"Pangkalan, Kec. Rawas Ulu, Kab. Musi Rawas Utara";"SUMATERA SELATAN";"31656";"Indonesia";"";"";"";"-2.667952";"102.6420724";"https://maps.google.com/?cid=0x0:0x92af4602747569d9";""
"komplek housing";"Komplek perumahan";"Yusmadeby";"8JJR+8W5, Pangkalan, Kec. Rawas Ulu, Kab. Musi Rawas Utara, Sumatera Selatan 31656";"Pangkalan, Kec. Rawas Ulu, Kab. Musi Rawas Utara";"SUMATERA SELATAN";"31656";"Indonesia";"";"";"";"-2.6675481";"102.6439447";"https://maps.google.com/?cid=0x0:0x53b09d17e9b14e3f";""
"komplek housing";"Komplek perumahan";"Teladas";"8M9H+GJ7, Teladas, Kec. Rawas Ulu, Kabupaten Musi Rawas, Sumatera Selatan";"Kabupaten Musi Rawas, Sumatera Selatan";"SUMATERA SELATAN";"";"Indonesia";"";"";"";"-2.6812034";"102.6790445";"https://maps.google.com/?cid=0x0:0xdac1f9f916b0e6e0";""
"komplek housing";"Komplek perumahan";"Desti Dedi";"8JJR+FG4, Pangkalan, Kec. Rawas Ulu, Kab. Musi Rawas Utara, Sumatera Selatan 31656";"Pangkalan, Kec. Rawas Ulu, Kab. Musi Rawas Utara";"SUMATERA SELATAN";"31656";"Indonesia";"";"";"";"-2.6688685";"102.6413166";"https://maps.google.com/?cid=0x0:0x9f525e1294e02b54";""
"komplek housing";"Bakso";"Bakso bakar ujuk AL";"9P6H+FV, Sungai Baung, Kec. Rawas Ulu, Kabupaten Musi Rawas, Sumatera Selatan 31656";"Sungai Baung, Kec. Rawas Ulu, Kabupaten Musi Rawas";"SUMATERA SELATAN";"31656";"Indonesia";"";"";"";"-2.6388755";"102.7297255";"https://maps.google.com/?cid=0x0:0xd8eb54f97031e2f0";""
"komplek housing";"Perhimpunan Pengembang Perumahan";"Rumah Andre";"9Q97+R28, Surulangun, Kec. Rawas Ulu, Kab. Musi Rawas Utara, Sumatera Selatan";"Kab. Musi Rawas Utara, Sumatera Selatan";"SUMATERA SELATAN";"";"Indonesia";"";"";"";"-2.630463";"102.7625701";"https://maps.google.com/?cid=0x0:0x13cdd76e1f311d4b";""
"komplek housing";"Perumahan";"Tiawan House";"9QH5+66F, Ps. Surulangun, Kec. Rawas Ulu, Kabupaten Musi Rawas, Sumatera Selatan 31656";"Ps. Surulangun, Kec. Rawas Ulu, Kabupaten Musi Rawas";"SUMATERA SELATAN";"31656";"Indonesia";"";"";"";"-2.6219301";"102.7580361";"https://maps.google.com/?cid=0x0:0x338c98dfb91c0a7d";""
"komplek housing";"Komplek perumahan";"Desa Kartadewa";"8P75+M4R, Kerta Dewa, Kec. Rawas Ulu, Kab. Musi Rawas Utara, Sumatera Selatan 31656";"Kerta Dewa, Kec. Rawas Ulu, Kab. Musi Rawas Utara";"SUMATERA SELATAN";"31656";"Indonesia";"";"";"";"-2.6857558";"102.7077668";"https://maps.google.com/?cid=0x0:0xafa9345f2394c75a";""
"komplek housing";"Komplek perumahan";"Lesung batu tua";"9Q9X+33, Lesung Batu, Kec. Rawas Ulu, Kabupaten Musi Rawas, Sumatera Selatan";"Kabupaten Musi Rawas, Sumatera Selatan";"SUMATERA SELATAN";"";"Indonesia";"";"";"";"-2.632309";"102.797721";"https://maps.google.com/?cid=0x0:0x600621fe3ecb3e00";""
"komplek housing";"Pembangunan Perumahan";"Rifatul hdyn";"CQ25+P3Q, Sungai Jauh, Kec. Rawas Ulu, Kab. Musi Rawas Utara, Sumatera Selatan 31656";"Sungai Jauh, Kec. Rawas Ulu, Kab. Musi Rawas Utara";"SUMATERA SELATAN";"31656";"Indonesia";"";"";"";"-2.598212";"102.757818";"https://maps.google.com/?cid=0x0:0xf579422853222bbc";""
"komplek housing";"Pembangunan Perumahan";"Indah melati";"9P8W+FR2, Sungai Baung, Kec. Rawas Ulu, Kab. Musi Rawas Utara, Sumatera Selatan 31656";"Sungai Baung, Kec. Rawas Ulu, Kab. Musi Rawas Utara";"SUMATERA SELATAN";"31656";"Indonesia";"";"";"";"-2.6339599";"102.7468373";"https://maps.google.com/?cid=0x0:0x9ed918027179adf2";""
"komplek housing";"Pembangunan Perumahan";"Ibnu solihin";"8JJR+8W5, Pangkalan, Kec. Rawas Ulu, Kab. Musi Rawas Utara, Sumatera Selatan 31656";"Pangkalan, Kec. Rawas Ulu, Kab. Musi Rawas Utara";"SUMATERA SELATAN";"31656";"Indonesia";"";"";"";"-2.669039";"102.641948";"https://maps.google.com/?cid=0x0:0x719a9bc015b6d90b";""
"komplek housing";"Komplek perumahan";"Rumah Hari Karmi";"9QH3+3VW, Dusun III, Desa Sukomoro, Kec. Rawas Ulu, Kab. Musi Rawas Utara, Sumatera Selatan";"Kab. Musi Rawas Utara, Sumatera Selatan";"SUMATERA SELATAN";"";"Indonesia";"";"";"";"-2.6222662";"102.7546972";"https://maps.google.com/?cid=0x0:0x4b6ebbc9cf6e50f0";""
"komplek housing";"Pembangunan Perumahan";"Aboy";"8PQG+F2C, Sungai Baung, Kec. Rawas Ulu, Kab. Musi Rawas Utara, Sumatera Selatan 31656";"Sungai Baung, Kec. Rawas Ulu, Kab. Musi Rawas Utara";"SUMATERA SELATAN";"31656";"Indonesia";"";"";"";"-2.6613074";"102.7250036";"https://maps.google.com/?cid=0x0:0x1aebef71d0601b6b";""
"komplek housing";"Pembangunan Perumahan";"Fadhul Ayfah";"9P8W+J88, Sungai Baung, Kec. Rawas Ulu, Kab. Musi Rawas Utara, Sumatera Selatan 31656";"Sungai Baung, Kec. Rawas Ulu, Kab. Musi Rawas Utara";"SUMATERA SELATAN";"31656";"Indonesia";"";"";"";"-2.6335106";"102.7457384";"https://maps.google.com/?cid=0x0:0xeaf61a45bd3c919";""
"komplek housing";"Komplek perumahan";"Rambutan binjai";"8MXX+63G, Pulau Lebar, Kec. Rawas Ulu, Kab. Musi Rawas Utara, Sumatera Selatan 31656";"Pulau Lebar, Kec. Rawas Ulu, Kab. Musi Rawas Utara";"SUMATERA SELATAN";"31656";"Indonesia";"";"";"";"-2.6519497";"102.697699";"https://maps.google.com/?cid=0x0:0x843cc010e55ee595";""
"komplek housing";"Komplek perumahan";"Rumah Hambali Dina";"9QGV+69, Lesung Batu Muda, Kec. Rawas Ulu, Kab. Musi Rawas Utara, Sumatera Selatan";"Kab. Musi Rawas Utara, Sumatera Selatan";"SUMATERA SELATAN";"";"Indonesia";"";"";"";"-2.6244153";"102.7934198";"https://maps.google.com/?cid=0x0:0xe43ea880194b696b";""
"komplek housing";"Perhimpunan Pengembang Perumahan";"Rumah bu septi";"9QG6+2PJ, Ps. Surulangun, Kec. Rawas Ulu, Kab. Musi Rawas Utara, Sumatera Selatan 31656";"Ps. Surulangun, Kec. Rawas Ulu, Kab. Musi Rawas Utara";"SUMATERA SELATAN";"31656";"Indonesia";"";"";"";"-2.6251497";"102.7616521";"https://maps.google.com/?cid=0x0:0xd442d73366e991fd";""
"komplek housing";"komplek housing";"Kec. Rawas Ulu";"Kab. Musi Rawas Utara, Sumatera Selatan";"Kab. Musi Rawas Utara, Sumatera Selatan";"SUMATERA SELATAN";"";"Indonesia";"";"";"";"-2.6237454";"102.7610435";"https://maps.google.com/?cid=0x0:0x68577fbe36bad5a5";""
"komplek housing";"Pembangunan Perumahan";"Cici yuliana";"8JJV+H8Q, Pangkalan, Kec. Rawas Ulu, Kab. Musi Rawas Utara, Sumatera Selatan 31656";"Pangkalan, Kec. Rawas Ulu, Kab. Musi Rawas Utara";"SUMATERA SELATAN";"31656";"Indonesia";"";"";"";"-2.6685578";"102.6431234";"https://maps.google.com/?cid=0x0:0x78bc01188d1180a9";""
"komplek housing";"Pembangunan Perumahan";"Toko FebReni";"9P6Q+H4C, Sungai Baung, Kec. Rawas Ulu, Kab. Musi Rawas Utara, Sumatera Selatan 31656";"Sungai Baung, Kec. Rawas Ulu, Kab. Musi Rawas Utara";"SUMATERA SELATAN";"31656";"Indonesia";"";"";"";"-2.6385689";"102.7377618";"https://maps.google.com/?cid=0x0:0x1aa55025e66e496";""
"komplek housing";"Komplek perumahan";"Mang ijal";"8PQG+F2C, Sungai Baung, Kec. Rawas Ulu, Kab. Musi Rawas Utara, Sumatera Selatan 31656";"Sungai Baung, Kec. Rawas Ulu, Kab. Musi Rawas Utara";"SUMATERA SELATAN";"31656";"Indonesia";"";"";"";"-2.6613074";"102.7250036";"https://maps.google.com/?cid=0x0:0xe041e29d9433d5ba";""
"komplek housing";"Komplek perumahan";"Hermansyah Putra";"8PQG+F2C, Sungai Baung, Kec. Rawas Ulu, Kab. Musi Rawas Utara, Sumatera Selatan 31656";"Sungai Baung, Kec. Rawas Ulu, Kab. Musi Rawas Utara";"SUMATERA SELATAN";"31656";"Indonesia";"";"";"";"-2.6613074";"102.7250036";"https://maps.google.com/?cid=0x0:0x86887503345d48a1";""
"komplek housing";"komplek housing";"Kec. Rupit";"Kab. Musi Rawas Utara, Sumatera Selatan";"Kab. Musi Rawas Utara, Sumatera Selatan";"SUMATERA SELATAN";"";"Indonesia";"";"";"";"-2.7205772";"102.9116717";"https://maps.google.com/?cid=0x0:0xa822b6d74806cc91";""
"komplek housing";"Komplek perumahan";"Palembang";"7WV6+RQJ, Lawang Agung, Kec. Rupit, Kab. Musi Rawas Utara, Sumatera Selatan 31654";"Lawang Agung, Kec. Rupit, Kab. Musi Rawas Utara";"SUMATERA SELATAN";"31654";"Indonesia";"";"";"";"-2.7054188";"102.9118966";"https://maps.google.com/?cid=0x0:0x7751a9d86c64c66f";""
"komplek housing";"Komplek perumahan";"Rumah";"5RRQ+24, Noman Baru, Kec. Rupit, Kabupaten Musi Rawas, Sumatera Selatan 31654";"Noman Baru, Kec. Rupit, Kabupaten Musi Rawas";"SUMATERA SELATAN";"31654";"Indonesia";"";"";"";"-2.8099925";"102.8378332";"https://maps.google.com/?cid=0x0:0xfff4355f841fb154";""
"komplek housing";"Komplek perumahan";"ZAINAL ABIDIN";"7WHG+98X, Muara Rupit, Kec. Rupit, Kab. Musi Rawas Utara, Sumatera Selatan 31654";"Muara Rupit, Kec. Rupit, Kab. Musi Rawas Utara";"SUMATERA SELATAN";"31654";"Indonesia";"";"";"";"-2.7215213";"102.9258475";"https://maps.google.com/?cid=0x0:0x5896b44bb3a7b329";""
"komplek housing";"Komplek perumahan";"Rupit";"6P67+VCR, Embacang Lama, Kec. Karang Jaya, Kab. Musi Rawas Utara, Sumatera Selatan";"Kab. Musi Rawas Utara, Sumatera Selatan";"SUMATERA SELATAN";"";"Indonesia";"";"";"";"-2.787759";"102.7135121";"https://maps.google.com/?cid=0x0:0xd065c54fb6aee3d1";""
"komplek housing";"Perhimpunan Pengembang Perumahan";"rumah zakaria";"6VVH+CXF, Bingin Rupit, Kec. Rupit, Kab. Musi Rawas Utara, Sumatera Selatan 31654";"Bingin Rupit, Kec. Rupit, Kab. Musi Rawas Utara";"SUMATERA SELATAN";"31654";"Indonesia";"";"";"";"-2.7564395";"102.8799119";"https://maps.google.com/?cid=0x0:0xcbecdd13aae975ef";""
"komplek housing";"Pembangunan Perumahan";"RUMAH ARIPIN";"8VH6+PM, Karang Anyar, Kec. Rupit, Kab. Musi Rawas Utara, Sumatera Selatan 31654";"Karang Anyar, Kec. Rupit, Kab. Musi Rawas Utara";"SUMATERA SELATAN";"31654";"Indonesia";"";"";"";"-2.6710574";"102.8608411";"https://maps.google.com/?cid=0x0:0x7a64d42d10e933b9";""
"komplek housing";"Jasa Konstruksi dan Bangunan";".";"Muara Rupit, Kec. Rupit, Kab. Musi Rawas Utara, Sumatera Selatan 31654";"Kec. Rupit, Kab. Musi Rawas Utara";"SUMATERA SELATAN";"31654";"Indonesia";"";"";"";"-2.7210308";"102.9101321";"https://maps.google.com/?cid=0x0:0x8bbc0773ed350aa9";""
"komplek housing";"Komplek perumahan";"Rumah Tartila A. Sani";"7WR5+4MJ, Lawang Agung, Kec. Rupit, Kab. Musi Rawas Utara, Sumatera Selatan 31654";"Lawang Agung, Kec. Rupit, Kab. Musi Rawas Utara";"SUMATERA SELATAN";"31654";"Indonesia";"";"";"";"-2.7096591";"102.9092559";"https://maps.google.com/?cid=0x0:0x1ccd61fc52a376f2";""
"komplek housing";"Komplek perumahan";"Rumah AN sinyur";"6R2H+3FW, Noman Baru, Kec. Rupit, Kab. Musi Rawas Utara, Sumatera Selatan 31654";"Noman Baru, Kec. Rupit, Kab. Musi Rawas Utara";"SUMATERA SELATAN";"31654";"Indonesia";"";"";"";"-2.7997585";"102.8286961";"https://maps.google.com/?cid=0x0:0x5354acd1a5b11d56";""
"komplek housing";"Komplek perumahan";"Perumahan faul";"7WC6+24F, Muara Rupit, Kec. Rupit, Kab. Musi Rawas Utara, Sumatera Selatan 31654";"Muara Rupit, Kec. Rupit, Kab. Musi Rawas Utara";"SUMATERA SELATAN";"31654";"Indonesia";" 082371762703";"";"";"-2.729946";"102.9103117";"https://maps.google.com/?cid=0x0:0x81c964e8f8b21b61";""
"komplek housing";"Komplek perumahan";"perumahan aa";"7WQ6+J93, Lawang Agung, Kec. Rupit, Kab. Musi Rawas Utara, Sumatera Selatan 31654";"Lawang Agung, Kec. Rupit, Kab. Musi Rawas Utara";"SUMATERA SELATAN";"31654";"Indonesia";"";"";"";"-2.7109865";"102.910917";"https://maps.google.com/?cid=0x0:0xc36e88210b040d8a";""
"komplek housing";"Pembangunan Perumahan";"Karanganyar";"8RQV+356, Jl. Lintas Utama Sumatera, Karang Anyar, Kec. Rupit, Kab. Musi Rawas Utara, Sumatera Selatan 31654";"Jl. Lintas Utama Sumatera, Karang Anyar, Kec. Rupit, Kab. Musi Rawas Utara";"SUMATERA SELATAN";"31654";"Indonesia";"";"";"";"-2.6623497";"102.842881";"https://maps.google.com/?cid=0x0:0x6fbf93a24fba3034";""
"komplek housing";"Komplek perumahan";"Base camp Acan Brothes";"Jl. Lintas Utama Sumatera, Bingin Rupit, Kec. Rupit, Kab. Musi Rawas Utara, Sumatera Selatan 31654";"Bingin Rupit, Kec. Rupit, Kab. Musi Rawas Utara";"SUMATERA SELATAN";"31654";"Indonesia";"";"";"";"-2.7593315";"102.8767308";"https://maps.google.com/?cid=0x0:0xc60d1e871385c816";""
"komplek housing";"Perhimpunan Pengembang Perumahan";"Mukhtaridi House";"7WH5+HX5, Muara Rupit, Kec. Rupit, Kab. Musi Rawas Utara, Sumatera Selatan 31654";"Muara Rupit, Kec. Rupit, Kab. Musi Rawas Utara";"SUMATERA SELATAN";"31654";"Indonesia";"";"";"";"-2.7211077";"102.9099637";"https://maps.google.com/?cid=0x0:0xaf2493f97259409b";""
"komplek housing";"Komplek perumahan";"Rumah Hendra nova";"7WH8+W4F, Muara Rupit, Kec. Rupit, Kabupaten Musi Rawas, Sumatera Selatan 31654";"Muara Rupit, Kec. Rupit, Kabupaten Musi Rawas";"SUMATERA SELATAN";"31654";"Indonesia";" 085664701566";"";"";"-2.7201866";"102.9153084";"https://maps.google.com/?cid=0x0:0x3c7a56ba57d5ad02";""
"komplek housing";"Komplek perumahan";"Lena Syukur";"Jln depati kecik No.rt 13, Muara Rupit, Kec. Rupit, Kab. Musi Rawas Utara, Sumatera Selatan 31654";"Muara Rupit, Kec. Rupit, Kab. Musi Rawas Utara";"SUMATERA SELATAN";"31654";"Indonesia";" 081379876247";"";"";"-2.7265929";"102.9120142";"https://maps.google.com/?cid=0x0:0xa28b28512693852b";""
"komplek housing";"Komplek perumahan";"H. Bakri Bin Abu Hasan";"7WJ5+6F8, Muara Rupit, Kec. Rupit, Kab. Musi Rawas Utara, Sumatera Selatan";"Kab. Musi Rawas Utara, Sumatera Selatan";"SUMATERA SELATAN";"";"Indonesia";"";"";"";"-2.7194699";"102.9086905";"https://maps.google.com/?cid=0x0:0x5ad965d4f7dd3281";""
"komplek housing";"Komplek perumahan";"Rumah sigit";"8VVV+48G, Sungai Jernih, Kec. Rupit, Kab. Musi Rawas Utara, Sumatera Selatan 31654";"Sungai Jernih, Kec. Rupit, Kab. Musi Rawas Utara";"SUMATERA SELATAN";"31654";"Indonesia";"";"";"";"-2.6571922";"102.8933187";"https://maps.google.com/?cid=0x0:0x1e829ff6256143ca";""
"komplek housing";"Perhimpunan Pengembang Perumahan";"Rumah hafizar";"8VVX+44, Sungai Jernih, Kec. Rupit, Kabupaten Musi Rawas, Sumatera Selatan 31654";"Sungai Jernih, Kec. Rupit, Kabupaten Musi Rawas";"SUMATERA SELATAN";"31654";"Indonesia";"";"";"";"-2.657209";"102.8978584";"https://maps.google.com/?cid=0x0:0xce6de728783b17bd";""
"komplek housing";"komplek housing";"Rupit";"08569, Provinsi Barcelona, Spanyol";"Rupit, Spanyol";"SUMATERA SELATAN";"";"Indonesia";"";"";"";"42.0245042";"2.4655228";"https://maps.google.com/?cid=0x0:0xa5dbe78a7e794f82";""
"komplek housing";"komplek housing";"Casa Can Rufo de Rupit";"Sant Joan de Fabregues, 42 BIS, 08569 Rupit, Barcelona, Spanyol";"Rupit";"SUMATERA SELATAN";"08569";"Indonesia";" +34625086296";"";"";"42.0228302";"2.4627847";"https://maps.google.com/?cid=0x0:0xd1bf1dc8e992bd90";""
"komplek housing";"komplek housing";"Sumatera Selatan 31669";"Kab. Musi Rawas Utara, Sumatera Selatan";"Kab. Musi Rawas Utara, Sumatera Selatan";"SUMATERA SELATAN";"";"Indonesia";"";"";"";"-2.7917254";"102.3463875";"https://maps.google.com/?cid=0x0:0x98db126b92af20bb";""
"komplek housing";"Komplek perumahan";"Desa Kuto Tanjung-Ulu Rawas";"8829+858, Embacang Lama, Kec. Karang Jaya, Kab. Musi Rawas Utara, Sumatera Selatan 31654";"Embacang Lama, Kec. Karang Jaya, Kab. Musi Rawas Utara";"SUMATERA SELATAN";"31654";"Indonesia";" 05367871772";"";"";"-2.6992057";"102.3179413";"https://maps.google.com/?cid=0x0:0x92a3384e841ca14b";""
"komplek housing";"Komplek perumahan";"DESA KUTO TANJUNG";"883R+HGV, Kuto Tj., Ulu Rawas, Kabupaten Musi Rawas, Sumatera Selatan 31669";"Kuto Tj., Ulu Rawas, Kabupaten Musi Rawas";"SUMATERA SELATAN";"31669";"Indonesia";"";"";"";"-2.6960073";"102.3413055";"https://maps.google.com/?cid=0x0:0x44bdf859d92d393c";""
"komplek housing";"Pembangunan Perumahan";"Pekanbaru";"Bukit Barisan, Pulau Kidak, Ulu Rawas, Kab. Musi Rawas Utara, Sumatera Selatan 31669";"Pulau Kidak, Ulu Rawas, Kab. Musi Rawas Utara";"SUMATERA SELATAN";"31669";"Indonesia";"";"";"";"-3";"102.25";"https://maps.google.com/?cid=0x0:0xe2c23378cb66e2c9";""
"komplek housing";"Tujuan Wisata";"Wonderful Napallicin";"79W5+QQG, Napal Licin, Ulu Rawas, Kab. Musi Rawas Utara, Sumatera Selatan";"Kab. Musi Rawas Utara, Sumatera Selatan";"SUMATERA SELATAN";"";"Indonesia";"";"";"";"-2.7030698";"102.3594414";"https://maps.google.com/?cid=0x0:0xac017275bf8e40b0";""
"komplek housing";"komplek housing";"Riko famili";"V5JQ+GJ2, kaler, Lebong Tambang, Kec. Lebong Utara, Kabupaten Lebong, Bengkulu 39264";"kaler, Lebong Tambang, Kec. Lebong Utara, Kabupaten Lebong";"SUMATERA SELATAN";"39264";"Indonesia";"";"";"";"-3.1187371";"102.1890042";"https://maps.google.com/?cid=0x0:0xc86bbc790b1519ed";""
"komplek housing";"komplek housing";"Pulau kidak";"7HF2+2V6, Pulau Kidak, Ulu Rawas, Kab. Musi Rawas Utara, Sumatera Selatan 31656";"Pulau Kidak, Ulu Rawas, Kab. Musi Rawas Utara";"SUMATERA SELATAN";"31656";"Indonesia";"";"";"";"-2.7274625";"102.5521406";"https://maps.google.com/?cid=0x0:0x76263165dfa2f54c";""
"komplek housing";"Komplek perumahan";"Ulu Kedorang";"8GH2+WFJ, Dusun Renah Alai, Berkun, Kec. Limun, Kabupaten Sarolangun, Jambi";"Kabupaten Sarolangun, Jambi";"SUMATERA SELATAN";"";"Indonesia";"";"";"";"-2.6701662";"102.5011511";"https://maps.google.com/?cid=0x0:0x73bcbb0e112eaff7";""
"komplek housing";"Komplek perumahan";"Rumah deni kusnadi";"3PR7+V2, Sukamenang, Kec. Karang Jaya, Kab. Musi Rawas Utara, Sumatera Selatan 31654";"Sukamenang, Kec. Karang Jaya, Kab. Musi Rawas Utara";"SUMATERA SELATAN";"31654";"Indonesia";"";"";"";"-2.9078126";"102.712667";"https://maps.google.com/?cid=0x0:0x5a8bb15d746f50e3";""
"komplek housing";"Perhimpunan Pengembang Perumahan";"rumah wizeliaa";"4M5W+WG2, Sukamenang, Kec. Karang Jaya, Kab. Musi Rawas Utara, Sumatera Selatan 31654";"Sukamenang, Kec. Karang Jaya, Kab. Musi Rawas Utara";"SUMATERA SELATAN";"31654";"Indonesia";"";"";"";"-2.890245";"102.696277";"https://maps.google.com/?cid=0x0:0xfa263439c37e866a";""
"komplek housing";"Komplek perumahan";"Pumar";"5H23+R46, Muara Tiku, Kec. Karang Jaya, Kab. Musi Rawas Utara, Sumatera Selatan";"Kab. Musi Rawas Utara, Sumatera Selatan";"SUMATERA SELATAN";"";"Indonesia";"";"";"";"-2.8479704";"102.5527505";"https://maps.google.com/?cid=0x0:0x9e650c564c84ca44";""
"komplek housing";"Komplek perumahan";"Rumah Atha";"3PR6+92, Sukamenang, Kec. Karang Jaya, Kab. Musi Rawas Utara, Sumatera Selatan";"Kab. Musi Rawas Utara, Sumatera Selatan";"SUMATERA SELATAN";"";"Indonesia";"";"";"";"-2.9094474";"102.7101356";"https://maps.google.com/?cid=0x0:0x99db07bcb5fc5c47";""
"komplek housing";"Komplek perumahan";"PERUMAHAN GRIYA PERDANA";"Tabeak Blau II, Kec. Tubei, Kabupaten Lebong, Bengkulu 39264";"Kec. Tubei, Kabupaten Lebong";"SUMATERA SELATAN";"39264";"Indonesia";" 082183089898";"";"";"-3.1528007";"102.1709143";"https://maps.google.com/?cid=0x0:0x84760f49f28d66d6";""
"komplek housing";"Komplek perumahan";"Desa muara tiku";"5H23+R46, Muara Tiku, Kec. Karang Jaya, Kab. Musi Rawas Utara, Sumatera Selatan";"Kab. Musi Rawas Utara, Sumatera Selatan";"SUMATERA SELATAN";"";"Indonesia";"";"";"";"-2.8479704";"102.5527505";"https://maps.google.com/?cid=0x0:0x81651d899d446a6b";""
"komplek housing";"komplek housing";"Rumah Bahar Lubis";"V62M+82M, Suka Damai, Kec. Lebong Tengah, Kabupaten Lebong, Bengkulu 39262";"Suka Damai, Kec. Lebong Tengah, Kabupaten Lebong";"SUMATERA SELATAN";"39262";"Indonesia";"";"";"";"-3.1492811";"102.2323721";"https://maps.google.com/?cid=0x0:0x9e6bbfce6d33b4d7";""
"komplek housing";"Komplek perumahan";"Rumah Rani Asmili";"7HXP+9V, Jangkat, Ulu Rawas, Kab. Musi Rawas Utara, Sumatera Selatan";"Kab. Musi Rawas Utara, Sumatera Selatan";"SUMATERA SELATAN";"";"Indonesia";"";"";"";"-2.7027674";"102.5819042";"https://maps.google.com/?cid=0x0:0xa1707fb646c3ef0e";""
"komplek housing";"Komplek perumahan";"rumah teteh nitha";"V5JW+GR2, Gandung, Kec. Lebong Utara, Kabupaten Lebong, Bengkulu 39264";"Gandung, Kec. Lebong Utara, Kabupaten Lebong";"SUMATERA SELATAN";"39264";"Indonesia";"";"";"";"-3.1187359";"102.1970283";"https://maps.google.com/?cid=0x0:0xf8a44b1913d6531a";""
"komplek housing";"Komplek perumahan";"Rumah deni";"4M5W+WG2, Sukamenang, Kec. Karang Jaya, Kab. Musi Rawas Utara, Sumatera Selatan 31654";"Sukamenang, Kec. Karang Jaya, Kab. Musi Rawas Utara";"SUMATERA SELATAN";"31654";"Indonesia";"";"";"";"-2.890245";"102.696277";"https://maps.google.com/?cid=0x0:0x9bdc06416d48ed57";""
"komplek housing";"Pembangunan Perumahan";"Hamzarul";"3PQ6+58, Sukamenang, Kec. Karang Jaya, Kab. Musi Rawas Utara, Sumatera Selatan";"Kab. Musi Rawas Utara, Sumatera Selatan";"SUMATERA SELATAN";"";"Indonesia";"";"";"";"-2.9126162";"102.7105987";"https://maps.google.com/?cid=0x0:0x99d656e05a312d1d";""
"komplek housing";"Komplek perumahan";"Ummu Hana";"3MPQ+V42, Rantau Telang, Kec. Karang Jaya, Kabupaten Musi Rawas, Sumatera Selatan 31654";"Rantau Telang, Kec. Karang Jaya, Kabupaten Musi Rawas";"SUMATERA SELATAN";"31654";"Indonesia";"";"";"";"-2.9129383";"102.6878464";"https://maps.google.com/?cid=0x0:0xa563881bea0fb7fc";""
"komplek housing";"komplek housing";"Ulu Rawas";"Kab. Musi Rawas Utara, Sumatera Selatan";"Kab. Musi Rawas Utara, Sumatera Selatan";"SUMATERA SELATAN";"";"Indonesia";"";"";"";"-2.7227876";"102.4553872";"https://maps.google.com/?cid=0x0:0x3e24bc6f1ca91201";""
"perumahan";"perumahan";"Sumatera Selatan 31658";"Karang Dapo, Kabupaten Musi Rawas, Sumatera Selatan";"Kabupaten Musi Rawas, Sumatera Selatan";"SUMATERA SELATAN";"";"Indonesia";"";"";"";"-2.7453255";"103.035694";"https://maps.google.com/?cid=0x0:0xe72620e1eb13dcdf";""
"perumahan";"Pembangunan Perumahan";"Karang dapo muratara";"53VC+9QX, Setia Marga, Karang Dapo, Kabupaten Musi Rawas, Sumatera Selatan 31658";"Setia Marga, Karang Dapo, Kabupaten Musi Rawas";"SUMATERA SELATAN";"31658";"Indonesia";"";"";"";"-2.8065179";"103.0719974";"https://maps.google.com/?cid=0x0:0x96d1f09efc7a1008";""
"perumahan";"Komplek perumahan";"Desa bina karya kecamatan karang Dapo kabupaten Muratara";"63WP+JJ7, Bina Karya, Karang Dapo, Kab. Musi Rawas Utara, Sumatera Selatan 31658";"Bina Karya, Karang Dapo, Kab. Musi Rawas Utara";"SUMATERA SELATAN";"31658";"Indonesia";"";"";"";"-2.7534659";"103.0865491";"https://maps.google.com/?cid=0x0:0x9b7f525a4779a8b1";""
"perumahan";"Komplek perumahan";"Fitri";"732M+J7G, Bina Karya, Karang Dapo, Kab. Musi Rawas Utara, Sumatera Selatan 31658";"Bina Karya, Karang Dapo, Kab. Musi Rawas Utara";"SUMATERA SELATAN";"31658";"Indonesia";"";"";"";"-2.7484298";"103.0831905";"https://maps.google.com/?cid=0x0:0xd3fbb9ec1960d4ea";""
"perumahan";"Perhimpunan Pengembang Perumahan";"Rumah saya";"82MQ+8P3, Aringin, Karang Dapo, Kabupaten Musi Rawas, Sumatera Selatan 31658";"Aringin, Karang Dapo, Kabupaten Musi Rawas";"SUMATERA SELATAN";"31658";"Indonesia";"";"";"";"-2.6666636";"103.0393381";"https://maps.google.com/?cid=0x0:0xb5d5020463229394";""
"perumahan";"Komplek perumahan";"M. Yamin. J. Alim";"7XVR+XRG, Karang Dapo II, Karang Dapo, Kabupaten Musi Rawas, Sumatera Selatan 31658";"Karang Dapo II, Karang Dapo, Kabupaten Musi Rawas";"SUMATERA SELATAN";"31658";"Indonesia";"";"";"";"-2.7050501";"102.9920777";"https://maps.google.com/?cid=0x0:0x4331bbdd101f9beb";""
"perumahan";"Perumahan";"Rumah Irwansyah";"53VF+777, Setia Marga, Karang Dapo, Kab. Musi Rawas Utara, Sumatera Selatan";"Kab. Musi Rawas Utara, Sumatera Selatan";"SUMATERA SELATAN";"";"Indonesia";"";"";"";"-2.806847";"103.0731772";"https://maps.google.com/?cid=0x0:0x234f38819b1cb3b";""
"perumahan";"Komplek perumahan";"Rumah Harma Sidin";"82F7+WXF, Biaro Lama, Karang Dapo, Kabupaten Musi Rawas, Sumatera Selatan";"Kabupaten Musi Rawas, Sumatera Selatan";"SUMATERA SELATAN";"";"Indonesia";"";"";"";"-2.6757652";"103.0152704";"https://maps.google.com/?cid=0x0:0xd443b15fffd756e0";""
"perumahan";"Komplek perumahan";"House";"dusun 1 No.blok a, Bina Karya, Karang Dapo, Kab. Musi Rawas Utara, Sumatera Selatan 31658";"Bina Karya, Karang Dapo, Kab. Musi Rawas Utara";"SUMATERA SELATAN";"31658";"Indonesia";"";"";"";"-2.7513253";"103.0862309";"https://maps.google.com/?cid=0x0:0x26ff078a247989c3";""
"perumahan";"Perhimpunan Pengembang Perumahan";"Rumah Ahuwa";"8X3J+9P8, Karang Dapo I, Karang Dapo, Kab. Musi Rawas Utara, Sumatera Selatan 31658";"Karang Dapo I, Karang Dapo, Kab. Musi Rawas Utara";"SUMATERA SELATAN";"31658";"Indonesia";"";"";"";"-2.6965875";"102.9818281";"https://maps.google.com/?cid=0x0:0xe6627fb6a13acf3c";""
"perumahan";"Agen Sewa Mobil";"Ical sewa mobil angkutan barang";"Jl. Kampung Melati No.Kel, Karang Dapo I, Karang Dapo, Kab. Musi Rawas Utara, Sumatera Selatan 31658";"Karang Dapo I, Karang Dapo, Kab. Musi Rawas Utara";"SUMATERA SELATAN";"31658";"Indonesia";" 081315873994";"";"";"-2.6940992";"102.9833276";"https://maps.google.com/?cid=0x0:0xf98e07d6794f89b7";""
"perumahan";"Pembangunan Perumahan";"H. M Asir, S.Pd.I.";"7WVV+CVH, Jl. Raya Rupit-Karang Dapo, Kertasari, Karang Dapo, Kab. Musi Rawas Utara, Sumatera Selatan 31658";"Jl. Raya Rupit-Karang Dapo, Kertasari, Karang Dapo, Kab. Musi Rawas Utara";"SUMATERA SELATAN";"31658";"Indonesia";"";"";"";"-2.7076893";"102.944667";"https://maps.google.com/?cid=0x0:0xce60e07caa821b63";""
"perumahan";"Komplek perumahan";"Rumah Arif bino";"8299+8V8, Biaro Baru, Karang Dapo, Kab. Musi Rawas Utara, Sumatera Selatan 31658";"Biaro Baru, Karang Dapo, Kab. Musi Rawas Utara";"SUMATERA SELATAN";"31658";"Indonesia";"";"";"";"-2.6817118";"103.0197007";"https://maps.google.com/?cid=0x0:0x5a8b64162877d64f";""
"perumahan";"Kantor Pemerintah";"Desa Biaro Baru";"Biaro Baru, Karang Dapo, Kabupaten Musi Rawas, Sumatera Selatan 31658";"Karang Dapo, Kabupaten Musi Rawas";"SUMATERA SELATAN";"31658";"Indonesia";"";"";"";"-2.6820338";"103.0191599";"https://maps.google.com/?cid=0x0:0x6e1abb1f07aed0c8";""
"perumahan";"Perumahan";"Rumah Randa";"82F8+C73, Biaro Lama, Karang Dapo, Kab. Musi Rawas Utara, Sumatera Selatan 31658";"Biaro Lama, Karang Dapo, Kab. Musi Rawas Utara";"SUMATERA SELATAN";"31658";"Indonesia";"";"";"";"-2.6759135";"103.0158481";"https://maps.google.com/?cid=0x0:0x95a7e5b961f52253";""
"perumahan";"Pembangunan Perumahan";"Rumah perjuangan";"8249+Q47, Biaro Baru, Karang Dapo, Kab. Musi Rawas Utara, Sumatera Selatan 31658";"Biaro Baru, Karang Dapo, Kab. Musi Rawas Utara";"SUMATERA SELATAN";"31658";"Indonesia";"";"";"";"-2.6930782";"103.0177916";"https://maps.google.com/?cid=0x0:0x523be9b31cfe41eb";""
"perumahan";"Perhimpunan Pengembang Perumahan";"Rumah Parel";"8X3J+9P8, Karang Dapo I, Karang Dapo, Kab. Musi Rawas Utara, Sumatera Selatan 31658";"Karang Dapo I, Karang Dapo, Kab. Musi Rawas Utara";"SUMATERA SELATAN";"31658";"Indonesia";"";"";"";"-2.69707";"102.981726";"https://maps.google.com/?cid=0x0:0x9a17c7e87fb4cc14";""
"perumahan";"Komplek perumahan";"Rumah Kus Erni";"732M+87Q, Bina Karya, Karang Dapo, Kab. Musi Rawas Utara, Sumatera Selatan 31658";"Bina Karya, Karang Dapo, Kab. Musi Rawas Utara";"SUMATERA SELATAN";"31658";"Indonesia";"";"";"";"-2.7511154";"103.0832127";"https://maps.google.com/?cid=0x0:0x89ed5cf73ab907f4";""
"perumahan";"Komplek perumahan";"Rumah ivan/ipin";"63WJ+5HJ, Bina Karya, Karang Dapo, Kab. Musi Rawas Utara, Sumatera Selatan 31658";"Bina Karya, Karang Dapo, Kab. Musi Rawas Utara";"SUMATERA SELATAN";"31658";"Indonesia";"";"";"";"-2.7544713";"103.0808195";"https://maps.google.com/?cid=0x0:0xa4c7f7b0ab3b0c3b";""
"perumahan";"Komplek perumahan";"Candra iza";"723P+V78, Jln H.syueb tamat, Biaro Baru, Karang Dapo, Kab. Musi Rawas Utara, Sumatera Selatan 31658";"Jln H.syueb tamat, Biaro Baru, Karang Dapo, Kab. Musi Rawas Utara";"SUMATERA SELATAN";"31658";"Indonesia";"";"";"";"-2.7453255";"103.035694";"https://maps.google.com/?cid=0x0:0xd41fd5f6345946d3";""
"perumahan";"Perumahan";"RMJ RENDI";"Setia Marga, Karang Dapo, Kab. Musi Rawas Utara, Sumatera Selatan 31658";"Karang Dapo, Kab. Musi Rawas Utara";"SUMATERA SELATAN";"31658";"Indonesia";"";"";"";"-2.8068005";"103.0716146";"https://maps.google.com/?cid=0x0:0x1fd89ad98debde7c";""
"perumahan";"Komplek perumahan";"Rumah maghfiro";"8277+FPF, Biaro Baru, Karang Dapo, Kab. Musi Rawas Utara, Sumatera Selatan 31658";"Biaro Baru, Karang Dapo, Kab. Musi Rawas Utara";"SUMATERA SELATAN";"31658";"Indonesia";"";"";"";"-2.6863011";"103.0142914";"https://maps.google.com/?cid=0x0:0x3bac03e3411dcdb3";""
"perumahan";"Pemasok Pupuk";"TANI MULYA KARANG DAPO";"7XWQ+3WG, Karang Dapo II, Karang Dapo, Kabupaten Musi Rawas, Sumatera Selatan 31658";"Karang Dapo II, Karang Dapo, Kabupaten Musi Rawas";"SUMATERA SELATAN";"31658";"Indonesia";" 081369982155";"";"";"-2.7048139";"102.9898236";"https://maps.google.com/?cid=0x0:0x568e0cd47d667ca4";""
"perumahan";"Perhimpunan Pengembang Perumahan";"Prof Dr. Tarmizi";"8X2C+7J5, Rantau Kadam, Karang Dapo, Kab. Musi Rawas Utara, Sumatera Selatan";"Kab. Musi Rawas Utara, Sumatera Selatan";"SUMATERA SELATAN";"";"Indonesia";" 08117551973";"";"";"-2.6989612";"102.9716142";"https://maps.google.com/?cid=0x0:0xf6f132f9bc2f3e25";""
"perumahan";"Pembangunan Perumahan";"Kertasari";"Kertasari, Karang Dapo, Kabupaten Musi Rawas, Sumatera Selatan";"Kabupaten Musi Rawas, Sumatera Selatan";"SUMATERA SELATAN";"";"Indonesia";"";"";"";"-2.7123502";"102.9492998";"https://maps.google.com/?cid=0x0:0xea170af811db05b4";""
"perumahan";"";"RUMAH HARDJOYO";"73Q7+2J9, Aringin, Karang Dapo, Kabupaten Musi Rawas, Sumatera Selatan 31658";"Aringin, Karang Dapo, Kabupaten Musi Rawas";"SUMATERA SELATAN";"31658";"Indonesia";" 082136687539";"";"";"-2.712474";"103.06411";"https://maps.google.com/?cid=0x0:0xbe59c76dddaef00";""
"perumahan";"Komplek perumahan";"Warung Febri Ran";"53RF+C43, Setia Marga, Karang Dapo, Kab. Musi Rawas Utara, Sumatera Selatan 31658";"Setia Marga, Karang Dapo, Kab. Musi Rawas Utara";"SUMATERA SELATAN";"31658";"Indonesia";" 085788641030";"";"";"-2.8089875";"103.0727969";"https://maps.google.com/?cid=0x0:0x3dae7fab7e3c7224";""
"perumahan";"Komplek perumahan";"Rumah Mas Singgih";"732M+87Q, Bina Karya, Karang Dapo, Kab. Musi Rawas Utara, Sumatera Selatan 31658";"Bina Karya, Karang Dapo, Kab. Musi Rawas Utara";"SUMATERA SELATAN";"31658";"Indonesia";"";"";"";"-2.7491625";"103.0832344";"https://maps.google.com/?cid=0x0:0x99a7a891ae05e30";""
"perumahan";"Komplek perumahan";"perumahan permata indah muratara";"7WMM+8PQ, Jl. Raya Rupit-Karang Dapo, Pantai, Kec. Rupit, Kab. Musi Rawas Utara, Sumatera Selatan 31654";"Jl. Raya Rupit-Karang Dapo, Pantai, Kec. Rupit, Kab. Musi Rawas Utara";"SUMATERA SELATAN";"31654";"Indonesia";" 085266008910";"";"";"-2.7166602";"102.9343692";"https://maps.google.com/?cid=0x0:0x8c63e78ea676763a";""
"perumahan";"perumahan";"Sumatera Selatan 31654";"Kabupaten Musi Rawas, Sumatera Selatan";"Kabupaten Musi Rawas, Sumatera Selatan";"SUMATERA SELATAN";"";"Indonesia";"";"";"";"-2.8261883";"102.7594847";"https://maps.google.com/?cid=0x0:0xc4e1d96ef2cee976";""
"perumahan";"Perhimpunan Pengembang Perumahan";"RpStore";"Jl. Tanah Abang, Kampung 4, Sukamenang, Kec. Karang Jaya, Kab. Musi Rawas Utara";"Kab. Musi Rawas Utara, Sumatera Selatan";"SUMATERA SELATAN";"";"Indonesia";"";"";"";"-2.9136283";"102.711135";"https://maps.google.com/?cid=0x0:0xee3ad3043b082ea5";""
"perumahan";"Otoritas Perumahan";"GRIYA MURATARA BERHIDAYAH";"6VVH+PW, Beringin Jaya, Kec. Rupit, Kabupaten Musi Rawas, Sumatera Selatan 31654";"Beringin Jaya, Kec. Rupit, Kabupaten Musi Rawas";"SUMATERA SELATAN";"31654";"Indonesia";"";"";"";"-2.755635";"102.879753";"https://maps.google.com/?cid=0x0:0xd9f901330a6f7275";""
"perumahan";"Kamar Mandi Umum";"Embacang baru Ilir";"5R38+RPV, Jl. Lintas Utama Sumatera, Embacang Baru, Kec. Karang Jaya, Kab. Musi Rawas Utara, Sumatera Selatan 31654";"Jl. Lintas Utama Sumatera, Embacang Baru, Kec. Karang Jaya, Kab. Musi Rawas Utara";"SUMATERA SELATAN";"31654";"Indonesia";" 082190786865";"";"";"-2.8453787";"102.8167836";"https://maps.google.com/?cid=0x0:0x28b4472117defa43";""
"perumahan";"Komplek perumahan";"Rumah Sesti";"3MQ2+3R, Tj. Agung, Kec. Karang Jaya, Kabupaten Musi Rawas, Sumatera Selatan 31654";"Tj. Agung, Kec. Karang Jaya, Kabupaten Musi Rawas";"SUMATERA SELATAN";"31654";"Indonesia";"";"";"";"-2.9123633";"102.6520217";"https://maps.google.com/?cid=0x0:0xe193aca2230e016f";""
"perumahan";"Pembangunan Perumahan";"Tepian ali";"3MP2+23R, Tj. Agung, Kec. Karang Jaya, Kabupaten Musi Rawas, Sumatera Selatan 31654";"Tj. Agung, Kec. Karang Jaya, Kabupaten Musi Rawas";"SUMATERA SELATAN";"31654";"Indonesia";"";"";"";"-2.9148944";"102.6501369";"https://maps.google.com/?cid=0x0:0xad698ab0484cad79";""
"perumahan";"Perumahan";"Rumah Bpk Yasin  Bu Ila";"4QJR+H39, Jl. Lintas Utama Sumatera, Karang Jaya, Kec. Karang Jaya, Kab. Musi Rawas Utara, Sumatera Selatan 31654";"Jl. Lintas Utama Sumatera, Karang Jaya, Kec. Karang Jaya, Kab. Musi Rawas Utara";"SUMATERA SELATAN";"31654";"Indonesia";"";"";"";"-2.8687499";"102.7904795";"https://maps.google.com/?cid=0x0:0xd17864ecdb3a5a91";""
"perumahan";"Komplek perumahan";"Rumah deni kusnadi";"3PR7+V2, Sukamenang, Kec. Karang Jaya, Kab. Musi Rawas Utara, Sumatera Selatan 31654";"Sukamenang, Kec. Karang Jaya, Kab. Musi Rawas Utara";"SUMATERA SELATAN";"31654";"Indonesia";"";"";"";"-2.9078126";"102.712667";"https://maps.google.com/?cid=0x0:0x5a8bb15d746f50e3";""
"perumahan";"Komplek perumahan";"rumah fasha";"4Q45+6F, Terusan, Kec. Karang Jaya, Kab. Musi Rawas Utara, Sumatera Selatan";"Kab. Musi Rawas Utara, Sumatera Selatan";"SUMATERA SELATAN";"";"Indonesia";"";"";"";"-2.8936743";"102.7578994";"https://maps.google.com/?cid=0x0:0xc079897f9fd1dac5";""
"perumahan";"Komplek perumahan";"Rupit";"6P67+VCR, Embacang Lama, Kec. Karang Jaya, Kab. Musi Rawas Utara, Sumatera Selatan";"Kab. Musi Rawas Utara, Sumatera Selatan";"SUMATERA SELATAN";"";"Indonesia";"";"";"";"-2.787759";"102.7135121";"https://maps.google.com/?cid=0x0:0xd065c54fb6aee3d1";""
"perumahan";"Komplek perumahan";"WHW HOME";"4QJP+XG4 Belakang SD negeri 2, Karang Jaya, Kec. Karang Jaya, Kab. Musi Rawas Utara, Sumatera Selatan";"Kab. Musi Rawas Utara, Sumatera Selatan";"SUMATERA SELATAN";"";"Indonesia";"";"";"";"-2.867618";"102.7863311";"https://maps.google.com/?cid=0x0:0x7908f8084cc60ae4";""
"perumahan";"Pembangunan Perumahan";"Terusan simpang 4";"Jl. Sarolangun - Lubuk Linggau, Terusan, Kec. Karang Jaya, Kab. Musi Rawas Utara, Sumatera Selatan 30771";"Terusan, Kec. Karang Jaya, Kab. Musi Rawas Utara";"SUMATERA SELATAN";"30771";"Indonesia";" 085367126362";"";"";"-2.9452929";"102.7693901";"https://maps.google.com/?cid=0x0:0x6293dc1e15474a7";""
"perumahan";"Perhimpunan Pengembang Perumahan";"Jaria";"4QJR+4FJ, Karang Jaya, Kec. Karang Jaya, Kab. Musi Rawas Utara, Sumatera Selatan 31654";"Karang Jaya, Kec. Karang Jaya, Kab. Musi Rawas Utara";"SUMATERA SELATAN";"31654";"Indonesia";"";"";"";"-2.8697954";"102.7921535";"https://maps.google.com/?cid=0x0:0x3984ba78939268be";""
"perumahan";"Komplek perumahan";"Marzuki";"4M5W+WG2, Sukamenang, Kec. Karang Jaya, Kabupaten Musi Rawas, Sumatera Selatan 31654";"Sukamenang, Kec. Karang Jaya, Kabupaten Musi Rawas";"SUMATERA SELATAN";"31654";"Indonesia";"";"";"";"-2.890245";"102.696277";"https://maps.google.com/?cid=0x0:0x6090c2c81719ae40";""
"perumahan";"Kantor Perusahaan";"Rumah Bos Dan ( I am Dan)";"3PP6+F3J, Sukamenang, Kec. Karang Jaya, Kab. Musi Rawas Utara, Sumatera Selatan 31654";"Sukamenang, Kec. Karang Jaya, Kab. Musi Rawas Utara";"SUMATERA SELATAN";"31654";"Indonesia";"";"";"";"-2.9137807";"102.7101322";"https://maps.google.com/?cid=0x0:0x93587f4bede5666d";""
"perumahan";"Komplek perumahan";"RUMAH ARSAD";"5R24+G9M, Jl. Dusun Embacang, Embacang Baru, Kec. Karang Jaya, Kab. Musi Rawas Utara, Sumatera Selatan 31654";"Jl. Dusun Embacang, Embacang Baru, Kec. Karang Jaya, Kab. Musi Rawas Utara";"SUMATERA SELATAN";"31654";"Indonesia";"";"";"";"-2.8486763";"102.8059302";"https://maps.google.com/?cid=0x0:0x6ebffdb6d39fa6dd";""
"perumahan";"Komplek perumahan";"Base camp Acan Brothes";"Jl. Lintas Utama Sumatera, Bingin Rupit, Kec. Rupit, Kab. Musi Rawas Utara, Sumatera Selatan 31654";"Bingin Rupit, Kec. Rupit, Kab. Musi Rawas Utara";"SUMATERA SELATAN";"31654";"Indonesia";"";"";"";"-2.7593315";"102.8767308";"https://maps.google.com/?cid=0x0:0xc60d1e871385c816";""
"perumahan";"Komplek perumahan";"Rumah deni";"4M5W+WG2, Sukamenang, Kec. Karang Jaya, Kab. Musi Rawas Utara, Sumatera Selatan 31654";"Sukamenang, Kec. Karang Jaya, Kab. Musi Rawas Utara";"SUMATERA SELATAN";"31654";"Indonesia";"";"";"";"-2.890245";"102.696277";"https://maps.google.com/?cid=0x0:0x9bdc06416d48ed57";""
"perumahan";"Kompleks Kondominium";"Rumah,Rego Saputra";"4M5W+WG2, Sukamenang, Kec. Karang Jaya, Kab. Musi Rawas Utara, Sumatera Selatan 31654";"Sukamenang, Kec. Karang Jaya, Kab. Musi Rawas Utara";"SUMATERA SELATAN";"31654";"Indonesia";"";"";"";"-2.890245";"102.696277";"https://maps.google.com/?cid=0x0:0x1b7c4dad1180fe2a";""
"perumahan";"Komplek perumahan";"Lea Cantikk";"3PP5+8V5, Sukamenang, Kec. Karang Jaya, Kab. Musi Rawas Utara, Sumatera Selatan 31654";"Sukamenang, Kec. Karang Jaya, Kab. Musi Rawas Utara";"SUMATERA SELATAN";"31654";"Indonesia";"";"";"";"-2.9142043";"102.7097349";"https://maps.google.com/?cid=0x0:0xf119f2ca23d2cb1f";""
"perumahan";"Perhimpunan Pengembang Perumahan";"Beringin jaya";"Jl. Lintas Utama Sumatera No.20, Beringin Jaya, Kec. Rupit, Kab. Musi Rawas Utara, Sumatera Selatan 31654";"Beringin Jaya, Kec. Rupit, Kab. Musi Rawas Utara";"SUMATERA SELATAN";"31654";"Indonesia";"";"";"";"-2.741868";"102.8879617";"https://maps.google.com/?cid=0x0:0x7e086e466ab2e463";""
"perumahan";"Pembangunan Perumahan";"Desa Noman Lama";"5RXG+XV, Noman, Utara, Kabupaten Musi Rawas, Sumatera Selatan 31654";"Noman, Utara, Kabupaten Musi Rawas";"SUMATERA SELATAN";"31654";"Indonesia";"";"";"";"-2.8000732";"102.8272539";"https://maps.google.com/?cid=0x0:0xcab691bf6b4252a5";""
"perumahan";"Pembangunan Perumahan";"Karanganyar";"8RQV+356, Jl. Lintas Utama Sumatera, Karang Anyar, Kec. Rupit, Kab. Musi Rawas Utara, Sumatera Selatan 31654";"Jl. Lintas Utama Sumatera, Karang Anyar, Kec. Rupit, Kab. Musi Rawas Utara";"SUMATERA SELATAN";"31654";"Indonesia";"";"";"";"-2.6623497";"102.842881";"https://maps.google.com/?cid=0x0:0x6fbf93a24fba3034";""
"perumahan";"Perhimpunan Pengembang Perumahan";"Rumah Keluarga RipinZuryati";"Kp No.06, Lawang Agung, Kec. Rupit, Kab. Musi Rawas Utara, Sumatera Selatan 31654";"Lawang Agung, Kec. Rupit, Kab. Musi Rawas Utara";"SUMATERA SELATAN";"31654";"Indonesia";"";"";"";"-2.7101834";"102.9093654";"https://maps.google.com/?cid=0x0:0xe5eb30b3187039ac";""
"perumahan";"Komplek perumahan";"Rumah robet";"6P67+VCR, Desa ketapat bening, Embacang Lama, Kec. Karang Jaya, Kab. Musi Rawas Utara, Sumatera Selatan";"Kab. Musi Rawas Utara, Sumatera Selatan";"SUMATERA SELATAN";"";"Indonesia";"";"";"";"-2.787759";"102.7135121";"https://maps.google.com/?cid=0x0:0x53d30d50fc587475";""
"perumahan";"Komplek perumahan";"Ummu Hana";"3MPQ+V42, Rantau Telang, Kec. Karang Jaya, Kabupaten Musi Rawas, Sumatera Selatan 31654";"Rantau Telang, Kec. Karang Jaya, Kabupaten Musi Rawas";"SUMATERA SELATAN";"31654";"Indonesia";"";"";"";"-2.9129383";"102.6878464";"https://maps.google.com/?cid=0x0:0xa563881bea0fb7fc";""
"perumahan";"Pembangunan Perumahan";"Rumah vasep";"4QHQ+F7, Karang Jaya, Kec. Karang Jaya, Kab. Musi Rawas Utara, Sumatera Selatan";"Kab. Musi Rawas Utara, Sumatera Selatan";"SUMATERA SELATAN";"";"Indonesia";"";"";"";"-2.8713148";"102.7882003";"https://maps.google.com/?cid=0x0:0x8a14012a2b04db21";""
"perumahan";"perumahan";"Tempat tinggal";"4Q7F+XQ, Karang Jaya, Kec. Karang Jaya, Kab. Musi Rawas Utara, Sumatera Selatan";"Kab. Musi Rawas Utara, Sumatera Selatan";"SUMATERA SELATAN";"";"Indonesia";"";"";"";"-2.8850083";"102.7744433";"https://maps.google.com/?cid=0x0:0x753fb4b2d11ec01b";""
"perumahan";"Komplek perumahan";"Ilham cell";"3Q59+8MP, Terusan, Kec. Karang Jaya, Kab. Musi Rawas Utara, Sumatera Selatan 31654";"Terusan, Kec. Karang Jaya, Kab. Musi Rawas Utara";"SUMATERA SELATAN";"31654";"Indonesia";" 082358861035";"";"";"-2.9429713";"102.7692243";"https://maps.google.com/?cid=0x0:0xd6d05937cc6061a6";""
"perumahan";"Perhimpunan Pengembang Perumahan";"RpStore";"Jl. Tanah Abang, Kampung 4, Sukamenang, Kec. Karang Jaya, Kab. Musi Rawas Utara";"Kab. Musi Rawas Utara, Sumatera Selatan";"SUMATERA SELATAN";"";"Indonesia";"";"";"";"-2.9136283";"102.711135";"https://maps.google.com/?cid=0x0:0xee3ad3043b082ea5";""
"perumahan";"Kamar Mandi Umum";"Embacang baru Ilir";"5R38+RPV, Jl. Lintas Utama Sumatera, Embacang Baru, Kec. Karang Jaya, Kab. Musi Rawas Utara, Sumatera Selatan 31654";"Jl. Lintas Utama Sumatera, Embacang Baru, Kec. Karang Jaya, Kab. Musi Rawas Utara";"SUMATERA SELATAN";"31654";"Indonesia";" 082190786865";"";"";"-2.8453787";"102.8167836";"https://maps.google.com/?cid=0x0:0x28b4472117defa43";""
"perumahan";"Perhimpunan Pengembang Perumahan";"Jaria";"4QJR+4FJ, Karang Jaya, Kec. Karang Jaya, Kab. Musi Rawas Utara, Sumatera Selatan 31654";"Karang Jaya, Kec. Karang Jaya, Kab. Musi Rawas Utara";"SUMATERA SELATAN";"31654";"Indonesia";"";"";"";"-2.8697954";"102.7921535";"https://maps.google.com/?cid=0x0:0x3984ba78939268be";""
"perumahan";"Perhimpunan Pengembang Perumahan";"Rantau jaya";"2RX8+H9, Karang Jaya, Kec. Karang Jaya, Kabupaten Musi Rawas, Sumatera Selatan";"Kabupaten Musi Rawas, Sumatera Selatan";"SUMATERA SELATAN";"";"Indonesia";"";"";"";"-2.9510243";"102.815944";"https://maps.google.com/?cid=0x0:0x755a927564e30cb9";""
"perumahan";"Perumahan";"Rumah Bpk Yasin  Bu Ila";"4QJR+H39, Jl. Lintas Utama Sumatera, Karang Jaya, Kec. Karang Jaya, Kab. Musi Rawas Utara, Sumatera Selatan 31654";"Jl. Lintas Utama Sumatera, Karang Jaya, Kec. Karang Jaya, Kab. Musi Rawas Utara";"SUMATERA SELATAN";"31654";"Indonesia";"";"";"";"-2.8687499";"102.7904795";"https://maps.google.com/?cid=0x0:0xd17864ecdb3a5a91";""
"perumahan";"Kantor Pemerintah";"Kelurahan karang jaya";"4QPM+2RR, Karang Jaya, Kec. Karang Jaya, Kabupaten Musi Rawas, Sumatera Selatan 31654";"Karang Jaya, Kec. Karang Jaya, Kabupaten Musi Rawas";"SUMATERA SELATAN";"31654";"Indonesia";" 085769839682";"";"";"-2.8648766";"102.7845132";"https://maps.google.com/?cid=0x0:0x8f6182a20b2fe600";""
"perumahan";"Komplek perumahan";"rumah fasha";"4Q45+6F, Terusan, Kec. Karang Jaya, Kab. Musi Rawas Utara, Sumatera Selatan";"Kab. Musi Rawas Utara, Sumatera Selatan";"SUMATERA SELATAN";"";"Indonesia";"";"";"";"-2.8936743";"102.7578994";"https://maps.google.com/?cid=0x0:0xc079897f9fd1dac5";""
"perumahan";"Komplek perumahan";"Farhan rismawan";"4QJP+QG2, Karang Jaya, Kec. Karang Jaya, Kab. Musi Rawas Utara, Sumatera Selatan";"Kab. Musi Rawas Utara, Sumatera Selatan";"SUMATERA SELATAN";"";"Indonesia";"";"";"";"-2.8681073";"102.78626";"https://maps.google.com/?cid=0x0:0xebf526a5d20df95";""
"perumahan";"Rumah Kayu";"Rumah CR";"2Q68+H2P, Bukit Langkap, Kec. Karang Jaya, Kab. Musi Rawas Utara, Sumatera Selatan 30771";"Bukit Langkap, Kec. Karang Jaya, Kab. Musi Rawas Utara";"SUMATERA SELATAN";"30771";"Indonesia";"";"";"";"-2.98906";"102.76414";"https://maps.google.com/?cid=0x0:0x9969bb51e2d7e86a";""
"perumahan";"Komplek perumahan";"Rumah Atha";"3PR6+92, Sukamenang, Kec. Karang Jaya, Kab. Musi Rawas Utara, Sumatera Selatan";"Kab. Musi Rawas Utara, Sumatera Selatan";"SUMATERA SELATAN";"";"Indonesia";"";"";"";"-2.9094474";"102.7101356";"https://maps.google.com/?cid=0x0:0x99db07bcb5fc5c47";""
"perumahan";"Pembangunan Perumahan";"Tepian ali";"3MP2+23R, Tj. Agung, Kec. Karang Jaya, Kabupaten Musi Rawas, Sumatera Selatan 31654";"Tj. Agung, Kec. Karang Jaya, Kabupaten Musi Rawas";"SUMATERA SELATAN";"31654";"Indonesia";"";"";"";"-2.9148944";"102.6501369";"https://maps.google.com/?cid=0x0:0xad698ab0484cad79";""
"perumahan";"Pembangunan Perumahan";"AGUS JAWA";"2Q57+M4M, Desa, Bukit Langkap, Kec. Karang Jaya, Kab. Musi Rawas Utara, Sumatera Selatan 30771";"Desa, Bukit Langkap, Kec. Karang Jaya, Kab. Musi Rawas Utara";"SUMATERA SELATAN";"30771";"Indonesia";"";"";"";"-2.9917997";"102.7620916";"https://maps.google.com/?cid=0x0:0x1f9032364f222f4b";""
"perumahan";"perumahan";"Tempat tinggal";"4Q7F+XQ, Karang Jaya, Kec. Karang Jaya, Kab. Musi Rawas Utara, Sumatera Selatan";"Kab. Musi Rawas Utara, Sumatera Selatan";"SUMATERA SELATAN";"";"Indonesia";"";"";"";"-2.8850083";"102.7744433";"https://maps.google.com/?cid=0x0:0x753fb4b2d11ec01b";""
"perumahan";"Pembangunan Perumahan";"Hamzarul";"3PQ6+58, Sukamenang, Kec. Karang Jaya, Kab. Musi Rawas Utara, Sumatera Selatan";"Kab. Musi Rawas Utara, Sumatera Selatan";"SUMATERA SELATAN";"";"Indonesia";"";"";"";"-2.9126162";"102.7105987";"https://maps.google.com/?cid=0x0:0x99d656e05a312d1d";""
"perumahan";"Komplek perumahan";"Abelacel home";"2Q8P+C3F, Jl. Lintas Utama Sumatera, Rantau Jaya, Kec. Karang Jaya, Kabupaten Musi Rawas, Sumatera Selatan 30771";"Jl. Lintas Utama Sumatera, Rantau Jaya, Kec. Karang Jaya, Kabupaten Musi Rawas";"SUMATERA SELATAN";"30771";"Indonesia";"";"";"";"-2.9833569";"102.785171";"https://maps.google.com/?cid=0x0:0xc67c2e0214d5b3f4";""
"perumahan";"Pembangunan Perumahan";"Toko Winda cell";"2MRP+JX, Sukaraja, Kec. Karang Jaya, Kab. Musi Rawas Utara, Sumatera Selatan";"Kab. Musi Rawas Utara, Sumatera Selatan";"SUMATERA SELATAN";"";"Indonesia";"";"";"";"-2.9584917";"102.6874645";"https://maps.google.com/?cid=0x0:0xd6d1ce45a462fb70";""
"perumahan";"Komplek perumahan";"WHW HOME";"4QJP+XG4 Belakang SD negeri 2, Karang Jaya, Kec. Karang Jaya, Kab. Musi Rawas Utara, Sumatera Selatan";"Kab. Musi Rawas Utara, Sumatera Selatan";"SUMATERA SELATAN";"";"Indonesia";"";"";"";"-2.867618";"102.7863311";"https://maps.google.com/?cid=0x0:0x7908f8084cc60ae4";""
"perumahan";"Perhimpunan Pengembang Perumahan";"Musi Rawas";"6P67+VCR, Embacang Lama, Kec. Karang Jaya, Kab. Musi Rawas Utara, Sumatera Selatan";"Kab. Musi Rawas Utara, Sumatera Selatan";"SUMATERA SELATAN";"";"Indonesia";"";"";"";"-2.787759";"102.7135121";"https://maps.google.com/?cid=0x0:0x3a2cc8bf6982af08";""
"perumahan";"Komplek perumahan";"Ummu Hana";"3MPQ+V42, Rantau Telang, Kec. Karang Jaya, Kabupaten Musi Rawas, Sumatera Selatan 31654";"Rantau Telang, Kec. Karang Jaya, Kabupaten Musi Rawas";"SUMATERA SELATAN";"31654";"Indonesia";"";"";"";"-2.9129383";"102.6878464";"https://maps.google.com/?cid=0x0:0xa563881bea0fb7fc";""
"perumahan";"Komplek perumahan";"Karang jaya";"HJ2X+87, Karang Jaya, Kec. Selupu Rejang, Kabupaten Rejang Lebong, Bengkulu";"Kabupaten Rejang Lebong, Bengkulu";"SUMATERA SELATAN";"";"Indonesia";"";"";"";"-3.4491634";"102.6482317";"https://maps.google.com/?cid=0x0:0x670fe7313f6f0f49";""
"perumahan";"Perhimpunan Pengembang Perumahan";"MAS DANIS";"2Q63+2PH, Bukit Langkap, Kec. Karang Jaya, Kab. Musi Rawas Utara, Sumatera Selatan 30771";"Bukit Langkap, Kec. Karang Jaya, Kab. Musi Rawas Utara";"SUMATERA SELATAN";"30771";"Indonesia";"";"";"";"-2.9899498";"102.7543692";"https://maps.google.com/?cid=0x0:0xb6ad552b3186e49c";""
"perumahan";"perumahan";"Sumatera Selatan 31667";"Kec. Nibung, Kab. Musi Rawas Utara, Sumatera Selatan";"Kab. Musi Rawas Utara, Sumatera Selatan";"SUMATERA SELATAN";"";"Indonesia";"";"";"";"-2.4365476";"102.9435536";"https://maps.google.com/?cid=0x0:0x51eee84d7db6be8b";""
"perumahan";"Komplek perumahan";"SIMPANG EMPAT SP 7";"FWWM+G6F, Sumber Makmur, Kec. Nibung, Kabupaten Musi Rawas, Sumatera Selatan 31667";"Sumber Makmur, Kec. Nibung, Kabupaten Musi Rawas";"SUMATERA SELATAN";"31667";"Indonesia";"";"";"";"-2.5038546";"102.9338929";"https://maps.google.com/?cid=0x0:0x5c15004db12492bd";""
"perumahan";"Komplek perumahan";"Rumah Pak Sutini";"G2GG+3QV, Bumi Makmur, Kec. Nibung, Kab. Musi Rawas Utara, Sumatera Selatan 31667";"Bumi Makmur, Kec. Nibung, Kab. Musi Rawas Utara";"SUMATERA SELATAN";"31667";"Indonesia";"";"";"";"-2.4747528";"103.0269236";"https://maps.google.com/?cid=0x0:0x5b6db351b182f37b";""
"perumahan";"Perhimpunan Pengembang Perumahan";"Perumahan Jadi mulya";"FX7P+9R4, Jadi Mulya, Kec. Nibung, Kabupaten Musi Rawas, Sumatera Selatan 31667";"Jadi Mulya, Kec. Nibung, Kabupaten Musi Rawas";"SUMATERA SELATAN";"31667";"Indonesia";"";"";"";"-2.537141";"102.986497";"https://maps.google.com/?cid=0x0:0xbf2960086254c84f";""
"perumahan";"Komplek perumahan";"Rizkijuli";"FWF5+HRV, Krani Jaya, Kec. Nibung, Kab. Musi Rawas Utara, Sumatera Selatan";"Kab. Musi Rawas Utara, Sumatera Selatan";"SUMATERA SELATAN";"";"Indonesia";"";"";"";"-2.5252821";"102.9101482";"https://maps.google.com/?cid=0x0:0x8db2bc28971f40d5";""
"perumahan";"Perhimpunan Pengembang Perumahan";"D ni";"FW45+PJJ, Krani Jaya, Kec. Nibung, Kab. Musi Rawas Utara, Sumatera Selatan";"Kab. Musi Rawas Utara, Sumatera Selatan";"SUMATERA SELATAN";"";"Indonesia";"";"";"";"-2.5431521";"102.9090191";"https://maps.google.com/?cid=0x0:0xdcbc76fa3c95e85b";""
"perumahan";"Balai masyarakat";"Blok C";"G2M8+367, Bumi Makmur, Kec. Nibung, Kabupaten Musi Rawas, Sumatera Selatan 31667";"Bumi Makmur, Kec. Nibung, Kabupaten Musi Rawas";"SUMATERA SELATAN";"31667";"Indonesia";" 082284754216";"";"";"-2.4673441";"103.0155604";"https://maps.google.com/?cid=0x0:0x7bccbbb00a6d8a86";""
"perumahan";"Komplek perumahan";"rumah luh tiniasih";"GX42+GM, Karya Makmur, Kec. Nibung, Kabupaten Musi Rawas, Sumatera Selatan";"Kabupaten Musi Rawas, Sumatera Selatan";"SUMATERA SELATAN";"";"Indonesia";"";"";"";"-2.4937308";"102.9517166";"https://maps.google.com/?cid=0x0:0x6ae51a9b211195cb";""
"perumahan";"Rumah Sakit";"Puskesmas Nibung petugas nya ramah, pelayanan nya cekatan";"Unnamed Road, Sumber Makmur, Kec. Nibung, Kab. Musi Rawas Utara, Sumatera Selatan 31667";"Sumber Makmur, Kec. Nibung, Kab. Musi Rawas Utara";"SUMATERA SELATAN";"31667";"Indonesia";"";"";"";"-2.5082846";"102.9320153";"https://maps.google.com/?cid=0x0:0x7ca743e3c3665ebe";""
"perumahan";"Komplek perumahan";"Ratinah dan Erwin house";"GXQ2+7F, Sri Jaya Makmur, Kec. Nibung, Kab. Musi Rawas Utara, Sumatera Selatan";"Kab. Musi Rawas Utara, Sumatera Selatan";"SUMATERA SELATAN";"";"Indonesia";"";"";"";"-2.4618433";"102.9511884";"https://maps.google.com/?cid=0x0:0xbdb2d416bbc2f60b";""
"perumahan";"Komplek perumahan";"Simpang Tiga E1 Kampung Bali";"GW5V+2QJ, Sumber Makmur, Kec. Nibung, Kab. Musi Rawas Utara, Sumatera Selatan 31667";"Sumber Makmur, Kec. Nibung, Kab. Musi Rawas Utara";"SUMATERA SELATAN";"31667";"Indonesia";"";"";"";"-2.4929573";"102.9452929";"https://maps.google.com/?cid=0x0:0x648b2e7cd1d4e7d3";""
"perumahan";"Komplek perumahan";"Arta dan Meisyah";"GWF3+94F, Mulya Jaya, Kec. Nibung, Kab. Musi Rawas Utara, Sumatera Selatan 31667";"Mulya Jaya, Kec. Nibung, Kab. Musi Rawas Utara";"SUMATERA SELATAN";"31667";"Indonesia";"";"";"";"-2.4765722";"102.9027976";"https://maps.google.com/?cid=0x0:0x6268cc38ac3ffdeb";""
"perumahan";"Perumahan";"M.Ngadi turokhman";"GXH2+RF7, Sri Jaya Makmur, Kec. Nibung, Kabupaten Musi Rawas, Sumatera Selatan";"Kabupaten Musi Rawas, Sumatera Selatan";"SUMATERA SELATAN";"";"Indonesia";"";"";"";"-2.4704512";"102.9511844";"https://maps.google.com/?cid=0x0:0x726cdbb67ea5f3e6";""
"perumahan";"Komplek perumahan";"Rumah Reka";"FWF6+VG, Krani Jaya, Kec. Nibung, Kabupaten Musi Rawas, Sumatera Selatan";"Kabupaten Musi Rawas, Sumatera Selatan";"SUMATERA SELATAN";"";"Indonesia";"";"";"";"-2.5254523";"102.910969";"https://maps.google.com/?cid=0x0:0x7650e8a3ad69f8cd";""
"perumahan";"Komplek perumahan";"Yunus";"G2J6+JQ8, Bumi Makmur, Kec. Nibung, Kab. Musi Rawas Utara, Sumatera Selatan 31667";"Bumi Makmur, Kec. Nibung, Kab. Musi Rawas Utara";"SUMATERA SELATAN";"31667";"Indonesia";"";"";"";"-2.4684601";"103.0119627";"https://maps.google.com/?cid=0x0:0xac62107d565cb9f";""
"perumahan";"Komplek perumahan";"SIMPANG TIGA SP 7";"GW5R+37, Sumber Makmur, Kec. Nibung, Kabupaten Musi Rawas, Sumatera Selatan";"Kabupaten Musi Rawas, Sumatera Selatan";"SUMATERA SELATAN";"";"Indonesia";"";"";"";"-2.4923484";"102.9407311";"https://maps.google.com/?cid=0x0:0x9f28d58883f79b6d";""
"perumahan";"Komplek perumahan";"DIMAS SAPUTRA";"GX49+MWQ, Karya Makmur, Kec. Nibung, Kab. Musi Rawas Utara, Sumatera Selatan 31667";"Karya Makmur, Kec. Nibung, Kab. Musi Rawas Utara";"SUMATERA SELATAN";"31667";"Indonesia";"";"";"";"-2.4932996";"102.9698703";"https://maps.google.com/?cid=0x0:0xd21466ca0ff2080c";""
"perumahan";"Komplek perumahan";"Parjo";"Karya Makmur, Kec. Nibung, Kab. Musi Rawas Utara, Sumatera Selatan 31667";"Kec. Nibung, Kab. Musi Rawas Utara";"SUMATERA SELATAN";"31667";"Indonesia";"";"";"";"-2.4979663";"102.962419";"https://maps.google.com/?cid=0x0:0x48625af0227f12ed";""
"perumahan";"Komplek perumahan";"rumah komang sendipa";"GX52+2H5, Jalan karya bakti, Karya Makmur, Kec. Nibung, Kab. Musi Rawas Utara, Sumatera Selatan 31667";"Jalan karya bakti, Karya Makmur, Kec. Nibung, Kab. Musi Rawas Utara";"SUMATERA SELATAN";"31667";"Indonesia";"";"";"";"-2.4924894";"102.95147";"https://maps.google.com/?cid=0x0:0x6f8095f32795a929";""
"perumahan";"Perhimpunan Pengembang Perumahan";"Rumah Pak Sulam";"G2MM+V57, Bumi Makmur, Kec. Nibung, Kabupaten Musi Rawas, Sumatera Selatan 31667";"Bumi Makmur, Kec. Nibung, Kabupaten Musi Rawas";"SUMATERA SELATAN";"31667";"Indonesia";"";"";"";"-2.465271";"103.0325287";"https://maps.google.com/?cid=0x0:0x84db2bb0188de52a";""
"perumahan";"Komplek perumahan";"Rumah Andika Nover";"Sp 1, blok c-0, Bumi Makmur, Kec. Nibung, Kab. Musi Rawas Utara, Sumatera Selatan 31667";"blok c-0, Bumi Makmur, Kec. Nibung, Kab. Musi Rawas Utara";"SUMATERA SELATAN";"31667";"Indonesia";"";"";"";"-2.4673441";"103.0155604";"https://maps.google.com/?cid=0x0:0xff42f270fc006f85";""
"perumahan";"Komplek perumahan";"Rumah RATNA DEWA";"G2HJ+93W, Bumi Makmur, Kec. Nibung, Kabupaten Musi Rawas, Sumatera Selatan 31667";"Bumi Makmur, Kec. Nibung, Kabupaten Musi Rawas";"SUMATERA SELATAN";"31667";"Indonesia";"";"";"";"-2.4706057";"103.0304956";"https://maps.google.com/?cid=0x0:0x5983aecafa70e829";""
"perumahan";"Komplek perumahan";"Rumah cik mit";"F2FR+HR3, Tebing Tinggi, Kec. Nibung, Kab. Musi Rawas Utara, Sumatera Selatan 31667";"Tebing Tinggi, Kec. Nibung, Kab. Musi Rawas Utara";"SUMATERA SELATAN";"31667";"Indonesia";"";"";"";"-2.5257557";"103.0413897";"https://maps.google.com/?cid=0x0:0x295229a2818ed0c0";""
"perumahan";"Komplek perumahan";"Rumah widana";"GX32+FF5, Karya Makmur, Kec. Nibung, Kab. Musi Rawas Utara, Sumatera Selatan 31667";"Karya Makmur, Kec. Nibung, Kab. Musi Rawas Utara";"SUMATERA SELATAN";"31667";"Indonesia";"";"";"";"-2.4951469";"102.9517719";"https://maps.google.com/?cid=0x0:0x9900802feff2af0a";""
"perumahan";"Komplek perumahan";"Rumah Amir Mukhsin";"GWRV+CXJ, Sri Jaya Makmur, Kec. Nibung, Kab. Musi Rawas Utara, Sumatera Selatan 31667";"Sri Jaya Makmur, Kec. Nibung, Kab. Musi Rawas Utara";"SUMATERA SELATAN";"31667";"Indonesia";"";"";"";"-2.4588708";"102.9448899";"https://maps.google.com/?cid=0x0:0xe029c7dcdff43791";""
"perumahan";"Komplek perumahan";"Wahyu";"GXR2+WR9, Sri Jaya Makmur, Kec. Nibung, Kab. Musi Rawas Utara, Sumatera Selatan 31667";"Sri Jaya Makmur, Kec. Nibung, Kab. Musi Rawas Utara";"SUMATERA SELATAN";"31667";"Indonesia";"";"";"";"-2.4573037";"102.9523692";"https://maps.google.com/?cid=0x0:0x4bae79ac5c2c8b7b";""
"perumahan";"Komplek perumahan";"Rumah Puji";"G2HJ+P3C, Bumi Makmur, Kec. Nibung, Kab. Musi Rawas Utara, Sumatera Selatan 31667";"Bumi Makmur, Kec. Nibung, Kab. Musi Rawas Utara";"SUMATERA SELATAN";"31667";"Indonesia";"";"";"";"-2.4706886";"103.0301308";"https://maps.google.com/?cid=0x0:0x4eaccd9021bd5238";""
"perumahan";"Komplek perumahan";"RumahLianti";"Blok A3, Sri Jaya Makmur, Kec. Nibung, Kab. Musi Rawas Utara, Sumatera Selatan 31667";"Sri Jaya Makmur, Kec. Nibung, Kab. Musi Rawas Utara";"SUMATERA SELATAN";"31667";"Indonesia";"";"";"";"-2.4508625";"102.9608281";"https://maps.google.com/?cid=0x0:0xd71b850be3400190";""
"perumahan";"Komplek perumahan";"Rumah suparman syah";"G2P7+MC3, Bumi Makmur, Kec. Nibung, Kab. Musi Rawas Utara, Sumatera Selatan 31667";"Bumi Makmur, Kec. Nibung, Kab. Musi Rawas Utara";"SUMATERA SELATAN";"31667";"Indonesia";"";"";"";"-2.463352";"103.0135474";"https://maps.google.com/?cid=0x0:0xfdc7fa04e7d09301";""
"perumahan";"perumahan";"Sumatera Selatan 31655";"Kec. Rawas Ilir, Kabupaten Musi Rawas, Sumatera Selatan";"Kabupaten Musi Rawas, Sumatera Selatan";"SUMATERA SELATAN";"";"Indonesia";"";"";"";"-2.6657075";"103.2201828";"https://maps.google.com/?cid=0x0:0x9daabcd0688b6fb7";""
"perumahan";"Komplek perumahan";"Mr.PesulapKata";"Jalan Dusun 2 No.1, Pauh I, Kec. Rawas Ilir, Kab. Musi Rawas Utara, Sumatera Selatan 31655";"Pauh I, Kec. Rawas Ilir, Kab. Musi Rawas Utara";"SUMATERA SELATAN";"31655";"Indonesia";"";"";"";"-2.6594388";"103.2864303";"https://maps.google.com/?cid=0x0:0xdb57144d093342e9";""
"perumahan";"Komplek perumahan";"komplek perumahan sastra Am.Kep";"74C5+6WV, Mandi Angin, Kec. Rawas Ilir, Kabupaten Musi Rawas, Sumatera Selatan 31658";"Mandi Angin, Kec. Rawas Ilir, Kabupaten Musi Rawas";"SUMATERA SELATAN";"31658";"Indonesia";" 081339315187";"";"";"-2.7293818";"103.1097891";"https://maps.google.com/?cid=0x0:0x44c8e72cdf43470";""
"perumahan";"Komplek perumahan";"SaveeHome";"Jln Lintas Bank sumsel Bingin Teluk. Ds 1, Beringin Makmur II, Kec. Rawas Ilir, Kab. Musi Rawas Utara, Sumatera Selatan 31655";"Beringin Makmur II, Kec. Rawas Ilir, Kab. Musi Rawas Utara";"SUMATERA SELATAN";"31655";"Indonesia";"";"";"";"-2.6144911";"103.1094157";"https://maps.google.com/?cid=0x0:0x9aa76b5be3aa802f";""
"perumahan";"Komplek perumahan";"alextato";"C46J+MMM, Unnamed Road, Beringin Makmur II, Kec. Rawas Ilir, Kab. Musi Rawas Utara, Sumatera Selatan 31655";"Unnamed Road, Beringin Makmur II, Kec. Rawas Ilir, Kab. Musi Rawas Utara";"SUMATERA SELATAN";"31655";"Indonesia";"";"";"";"-2.5882751";"103.1316846";"https://maps.google.com/?cid=0x0:0x7d443898f5f1a874";""
"perumahan";"Pembangunan Perumahan";"Rinto Harahap";"87XC+V6V, Jl. Poros, Dusun I, Pauh I, Kec. Rawas Ilir, Kab. Musi Rawas Utara, Sumatera Selatan 31655";"Jl. Poros, Dusun I, Pauh I, Kec. Rawas Ilir, Kab. Musi Rawas Utara";"SUMATERA SELATAN";"31655";"Indonesia";"";"";"";"-2.6502706";"103.2705586";"https://maps.google.com/?cid=0x0:0xec3a7222be03b205";""
"perumahan";"Komplek perumahan";"Rumah Iwan anita";"87VH+P9W, Pauh I, Kec. Rawas Ilir, Kab. Musi Rawas Utara, Sumatera Selatan 31655";"Pauh I, Kec. Rawas Ilir, Kab. Musi Rawas Utara";"SUMATERA SELATAN";"31655";"Indonesia";"";"";"";"-2.6552199";"103.2777125";"https://maps.google.com/?cid=0x0:0xb8b9dd91cc58c43e";""
"perumahan";"Pembangunan Perumahan";"Cv.sukses bangun karya";"F493+CW5, Beringin Makmur II, Kec. Rawas Ilir, Kab. Musi Rawas Utara, Sumatera Selatan 31655";"Beringin Makmur II, Kec. Rawas Ilir, Kab. Musi Rawas Utara";"SUMATERA SELATAN";"31655";"Indonesia";"";"";"";"-2.5314843";"103.1048449";"https://maps.google.com/?cid=0x0:0x371b0a355fe688f5";""
"perumahan";"Komplek perumahan";"RUMAH SUBUR";"94C8+M9X, Beringin Makmur I, Kec. Rawas Ilir, Kab. Musi Rawas Utara, Sumatera Selatan";"Kab. Musi Rawas Utara, Sumatera Selatan";"SUMATERA SELATAN";"";"Indonesia";"";"";"";"-2.6280338";"103.1160882";"https://maps.google.com/?cid=0x0:0x53cd7b5057e3bc71";""
"perumahan";"Pembangunan Perumahan";"beringin makmur 1";"94J8+RHC, Bingin Tlk., Kec. Rawas Ilir, Kab. Musi Rawas Utara, Sumatera Selatan 31655";"Bingin Tlk., Kec. Rawas Ilir, Kab. Musi Rawas Utara";"SUMATERA SELATAN";"31655";"Indonesia";"";"";"";"-2.6179448";"103.116386";"https://maps.google.com/?cid=0x0:0x713931f2392dd93a";""
"perumahan";"Pembangunan Perumahan";"Rumah emil";"94M5+Q7J, Beringin Makmur II, Kec. Rawas Ilir, Kab. Musi Rawas Utara, Sumatera Selatan 31655";"Beringin Makmur II, Kec. Rawas Ilir, Kab. Musi Rawas Utara";"SUMATERA SELATAN";"31655";"Indonesia";"";"";"";"-2.615515";"103.108237";"https://maps.google.com/?cid=0x0:0x78da6463e0a87807";""
"perumahan";"Perumahan";"Rumah mang irol";"94C8+M9X, Beringin Makmur I, Kec. Rawas Ilir, Kab. Musi Rawas Utara, Sumatera Selatan";"Kab. Musi Rawas Utara, Sumatera Selatan";"SUMATERA SELATAN";"";"Indonesia";"";"";"";"-2.6288845";"103.1163893";"https://maps.google.com/?cid=0x0:0xcfd2152bf79c295c";""
"perumahan";"Komplek perumahan";"Rumah masa kecil";"94P7+P3C, Beringin Makmur II, Kec. Rawas Ilir, Kab. Musi Rawas Utara, Sumatera Selatan 31655";"Beringin Makmur II, Kec. Rawas Ilir, Kab. Musi Rawas Utara";"SUMATERA SELATAN";"31655";"Indonesia";"";"";"";"-2.613864";"103.112156";"https://maps.google.com/?cid=0x0:0xb5ba600bbb72f05d";""
"perumahan";"Komplek perumahan";"Rumah athaya";"63VQ+XFW, Mandi Angin, Kec. Rawas Ilir, Kab. Musi Rawas Utara, Sumatera Selatan";"Kab. Musi Rawas Utara, Sumatera Selatan";"SUMATERA SELATAN";"";"Indonesia";"";"";"";"-2.7552491";"103.0890074";"https://maps.google.com/?cid=0x0:0xe4c6b86f0a50a36";""
"perumahan";"Komplek perumahan";"Rompok talang barang";"9XFM+Q7F, Beringin Sakti, Kec. Rawas Ilir, Kabupaten Musi Rawas, Sumatera Selatan 31655";"Beringin Sakti, Kec. Rawas Ilir, Kabupaten Musi Rawas";"SUMATERA SELATAN";"31655";"Indonesia";"";"";"";"-2.6255614";"102.9831684";"https://maps.google.com/?cid=0x0:0xdc9dd2e0869dbb99";""
"perumahan";"Komplek perumahan";"Tempat tinggal";"63XP+JX4, Mandi Angin, Kec. Rawas Ilir, Kab. Musi Rawas Utara, Sumatera Selatan 31658";"Mandi Angin, Kec. Rawas Ilir, Kab. Musi Rawas Utara";"SUMATERA SELATAN";"31658";"Indonesia";"";"";"";"-2.7522315";"103.0873439";"https://maps.google.com/?cid=0x0:0xe1705d1a62d5ba2c";""
"perumahan";"Perumahan";"RR family";"94P5+J93, Beringin Makmur II, Kec. Rawas Ilir, Kab. Musi Rawas Utara, Sumatera Selatan";"Kab. Musi Rawas Utara, Sumatera Selatan";"SUMATERA SELATAN";"";"Indonesia";"";"";"";"-2.6134722";"103.1084138";"https://maps.google.com/?cid=0x0:0x9eff2d60edf2dfe4";""
"perumahan";"Komplek perumahan";"Rumah Fedra";"87QQ+8WC, Pauh, Kec. Rawas Ilir, Kabupaten Musi Rawas, Sumatera Selatan 31655";"Pauh, Kec. Rawas Ilir, Kabupaten Musi Rawas";"SUMATERA SELATAN";"31655";"Indonesia";"";"";"";"-2.6628933";"103.289623";"https://maps.google.com/?cid=0x0:0x732a4dd9064b8039";""
"perumahan";"Perumahan";"RUMAH ROY MARTIN";"94C8+M9X, Beringin Makmur I, Kec. Rawas Ilir, Kab. Musi Rawas Utara, Sumatera Selatan";"Kab. Musi Rawas Utara, Sumatera Selatan";"SUMATERA SELATAN";"";"Indonesia";"";"";"";"-2.6293343";"103.1164286";"https://maps.google.com/?cid=0x0:0x4fcc345bdf7411dc";""
"perumahan";"Komplek perumahan";"Rumah supina";"94Q8+F6C, Bingin Tlk., Kec. Rawas Ilir, Kab. Musi Rawas Utara, Sumatera Selatan";"Kab. Musi Rawas Utara, Sumatera Selatan";"SUMATERA SELATAN";"";"Indonesia";"";"";"";"-2.6113534";"103.1154501";"https://maps.google.com/?cid=0x0:0x521a9c4568ce4734";""
"perumahan";"Komplek perumahan";"desa talang berigin teluk kec. rawas ilir";"9X66+Q6, Beringin Sakti, Kec. Rawas Ilir, Kabupaten Musi Rawas, Sumatera Selatan";"Kabupaten Musi Rawas, Sumatera Selatan";"SUMATERA SELATAN";"";"Indonesia";"";"";"";"-2.6381705";"102.9606218";"https://maps.google.com/?cid=0x0:0x990eda955a2fe28a";""
"perumahan";"Pembangunan Perumahan";"Eldalila";"63QR+9R, Binakarya, Kec. Rawas Ilir, Kabupaten Musi Rawas, Sumatera Selatan";"Kabupaten Musi Rawas, Sumatera Selatan";"SUMATERA SELATAN";"";"Indonesia";"";"";"";"-2.7615625";"103.0920625";"https://maps.google.com/?cid=0x0:0x17e3bda6e9d8bb9d";""
"perumahan";"Pertanian";"Beringi makmur 2";"F493+CW5, Beringin Makmur II, Kec. Rawas Ilir, Kabupaten Musi Rawas, Sumatera Selatan 31655";"Beringin Makmur II, Kec. Rawas Ilir, Kabupaten Musi Rawas";"SUMATERA SELATAN";"31655";"Indonesia";"";"";"";"-2.5314843";"103.1048449";"https://maps.google.com/?cid=0x0:0x9f5ff4e8c3f96e30";""
"perumahan";"Pembangunan Perumahan";"Manusia";"94JX+VM, Beringin Makmur II, Kec. Rawas Ilir, Kabupaten Musi Rawas, Sumatera Selatan";"Kabupaten Musi Rawas, Sumatera Selatan";"SUMATERA SELATAN";"";"Indonesia";"";"";"";"-2.6177931";"103.149143";"https://maps.google.com/?cid=0x0:0x9b64a1bb58160952";""
"perumahan";"Komplek perumahan";"Rumah Atun Jono/darmi";"94P6+C64, Beringin Makmur II, Kec. Rawas Ilir, Kab. Musi Rawas Utara, Sumatera Selatan 31655";"Beringin Makmur II, Kec. Rawas Ilir, Kab. Musi Rawas Utara";"SUMATERA SELATAN";"31655";"Indonesia";"";"";"";"-2.6139796";"103.1105666";"https://maps.google.com/?cid=0x0:0x49e65209fa6c837b";""
"perumahan";"perumahan";"Sumatera Selatan 31656";"Kabupaten Musi Rawas, Sumatera Selatan";"Kabupaten Musi Rawas, Sumatera Selatan";"SUMATERA SELATAN";"";"Indonesia";"";"";"";"-2.6716149";"102.6675575";"https://maps.google.com/?cid=0x0:0x829aeb46883c7ea6";""
"perumahan";"Kebun Buah";"Perumahan PT Agro Rawas Ulu";"9PXR+3QW, Jl. Lintas Utama Sumatera, Sungai Jauh, Kec. Rawas Ulu, Kabupaten Musi Rawas, Sumatera Selatan 31656";"Jl. Lintas Utama Sumatera, Sungai Jauh, Kec. Rawas Ulu, Kabupaten Musi Rawas";"SUMATERA SELATAN";"31656";"Indonesia";"";"";"";"-2.6022605";"102.7419664";"https://maps.google.com/?cid=0x0:0xed62b9c6a958d293";""
"perumahan";"Pembangunan Perumahan";"bayu";"8JJW+W3P, Pangkalan, Kec. Rawas Ulu, Kabupaten Musi Rawas, Sumatera Selatan 31656";"Pangkalan, Kec. Rawas Ulu, Kabupaten Musi Rawas";"SUMATERA SELATAN";"31656";"Indonesia";"";"";"";"-2.6672262";"102.6449589";"https://maps.google.com/?cid=0x0:0x7571470a6b7dbf42";""
"perumahan";"Komplek perumahan";"Rumah H. Dasril";"9QQ6+3GF, Ps. Surulangun, Kec. Rawas Ulu, Kab. Musi Rawas Utara, Sumatera Selatan 31656";"Ps. Surulangun, Kec. Rawas Ulu, Kab. Musi Rawas Utara";"SUMATERA SELATAN";"31656";"Indonesia";"";"";"";"-2.6123067";"102.761287";"https://maps.google.com/?cid=0x0:0xe2f967cacca30395";""
"perumahan";"Komplek perumahan";"Ratu Afnan dirga";"8MVW+VG4, Kerta Dewa, Kec. Rawas Ulu, Kab. Musi Rawas Utara, Sumatera Selatan 31656";"Kerta Dewa, Kec. Rawas Ulu, Kab. Musi Rawas Utara";"SUMATERA SELATAN";"31656";"Indonesia";"";"";"";"-2.6548791";"102.6958168";"https://maps.google.com/?cid=0x0:0x207c8fa466370ecd";""
"perumahan";"Perhimpunan Pengembang Perumahan";"Rumah Adinda";"9QG6+MW9, Jl. Kopral Ismail No.12, RT.02, Ps. Surulangun, Kec. Rawas Ulu, Kab. Musi Rawas Utara, Sumatera Selatan 31656";"Jl. Kopral Ismail No.12, RT.02, Ps. Surulangun, Kec. Rawas Ulu, Kab. Musi Rawas Utara";"SUMATERA SELATAN";"31656";"Indonesia";"";"";"";"-2.6232139";"102.7622593";"https://maps.google.com/?cid=0x0:0x5d2d46becb871c17";""
"perumahan";"Pembangunan Perumahan";"Desa pangakalan";"8JJQ+3Q2, Pangkalan, Kec. Rawas Ulu, Kab. Musi Rawas Utara, Sumatera Selatan 31656";"Pangkalan, Kec. Rawas Ulu, Kab. Musi Rawas Utara";"SUMATERA SELATAN";"31656";"Indonesia";"";"";"";"-2.6701768";"102.6399445";"https://maps.google.com/?cid=0x0:0x23fa75eeb2fa24bb";""
"perumahan";"Komplek perumahan";"Missy AR";"8MQG+26, Teladas, Kec. Rawas Ulu, Kabupaten Musi Rawas, Sumatera Selatan 31656";"Teladas, Kec. Rawas Ulu, Kabupaten Musi Rawas";"SUMATERA SELATAN";"31656";"Indonesia";"";"";"";"-2.6624932";"102.6756092";"https://maps.google.com/?cid=0x0:0x176a21073d8783ba";""
"perumahan";"Komplek perumahan";"Yusmadeby";"8JJR+8W5, Pangkalan, Kec. Rawas Ulu, Kab. Musi Rawas Utara, Sumatera Selatan 31656";"Pangkalan, Kec. Rawas Ulu, Kab. Musi Rawas Utara";"SUMATERA SELATAN";"31656";"Indonesia";"";"";"";"-2.6675481";"102.6439447";"https://maps.google.com/?cid=0x0:0x53b09d17e9b14e3f";""
"perumahan";"Pembangunan Perumahan";"Dhevan";"8JJR+8W5, Pangkalan, Kec. Rawas Ulu, Kab. Musi Rawas Utara, Sumatera Selatan 31656";"Pangkalan, Kec. Rawas Ulu, Kab. Musi Rawas Utara";"SUMATERA SELATAN";"31656";"Indonesia";"";"";"";"-2.6685617";"102.6422783";"https://maps.google.com/?cid=0x0:0xf5a8b33833239366";""
"perumahan";"Komplek perumahan";"Azzam  Shopyy";"8JJR+WQ9, Pangkalan, Kec. Rawas Ulu, Kab. Musi Rawas Utara, Sumatera Selatan 31656";"Pangkalan, Kec. Rawas Ulu, Kab. Musi Rawas Utara";"SUMATERA SELATAN";"31656";"Indonesia";"";"";"";"-2.667952";"102.6420724";"https://maps.google.com/?cid=0x0:0x92af4602747569d9";""
"perumahan";"Komplek perumahan";"Desti Dedi";"8JJR+FG4, Pangkalan, Kec. Rawas Ulu, Kab. Musi Rawas Utara, Sumatera Selatan 31656";"Pangkalan, Kec. Rawas Ulu, Kab. Musi Rawas Utara";"SUMATERA SELATAN";"31656";"Indonesia";"";"";"";"-2.6688685";"102.6413166";"https://maps.google.com/?cid=0x0:0x9f525e1294e02b54";""
"perumahan";"Komplek perumahan";"Teladas";"8M9H+GJ7, Teladas, Kec. Rawas Ulu, Kabupaten Musi Rawas, Sumatera Selatan";"Kabupaten Musi Rawas, Sumatera Selatan";"SUMATERA SELATAN";"";"Indonesia";"";"";"";"-2.6812034";"102.6790445";"https://maps.google.com/?cid=0x0:0xdac1f9f916b0e6e0";""
"perumahan";"Komplek perumahan";"MULYA TARA RESIDENCE";"9QPF+64, Ps. Surulangun, Kec. Rawas Ulu, Kabupaten Musi Rawas, Sumatera Selatan";"Kabupaten Musi Rawas, Sumatera Selatan";"SUMATERA SELATAN";"";"Indonesia";"";"";"";"-2.6144964";"102.7728661";"https://maps.google.com/?cid=0x0:0x9ae38df9b93d6720";""
"perumahan";"Pembangunan Perumahan";"Surulangun rawas";"Kampung 3, Ps. Surulangun";"Kab. Musi Rawas Utara, Sumatera Selatan";"SUMATERA SELATAN";"";"Indonesia";"";"";"";"-2.6224295";"102.7549771";"https://maps.google.com/?cid=0x0:0xbb1eee7df7725c91";""
"perumahan";"Perhimpunan Pengembang Perumahan";"Rumah Andre";"9Q97+R28, Surulangun, Kec. Rawas Ulu, Kab. Musi Rawas Utara, Sumatera Selatan";"Kab. Musi Rawas Utara, Sumatera Selatan";"SUMATERA SELATAN";"";"Indonesia";"";"";"";"-2.630463";"102.7625701";"https://maps.google.com/?cid=0x0:0x13cdd76e1f311d4b";""
"perumahan";"Komplek perumahan";"Lesung batu tua";"9Q9X+33, Lesung Batu, Kec. Rawas Ulu, Kabupaten Musi Rawas, Sumatera Selatan";"Kabupaten Musi Rawas, Sumatera Selatan";"SUMATERA SELATAN";"";"Indonesia";"";"";"";"-2.632309";"102.797721";"https://maps.google.com/?cid=0x0:0x600621fe3ecb3e00";""
"perumahan";"Pembangunan Perumahan";"irawan";"8JJV+XG5, Pangkalan, Kec. Rawas Ulu, Kab. Musi Rawas Utara, Sumatera Selatan 31656";"Pangkalan, Kec. Rawas Ulu, Kab. Musi Rawas Utara";"SUMATERA SELATAN";"31656";"Indonesia";"";"";"";"-2.667176";"102.6438854";"https://maps.google.com/?cid=0x0:0x75334d0074b7900c";""
"perumahan";"Perhimpunan Pengembang Perumahan";"Yotube : Khal Dores";"7HC2+XJG, Pulau Kidak, Ulu Rawas, Kabupaten Musi Rawas, Sumatera Selatan";"Kabupaten Musi Rawas, Sumatera Selatan";"SUMATERA SELATAN";"";"Indonesia";"";"";"";"-2.727561";"102.5515731";"https://maps.google.com/?cid=0x0:0x189ffe32f2d4f6ef";""
"perumahan";"Komplek perumahan";"Rumah Hari Karmi";"9QH3+3VW, Dusun III, Desa Sukomoro, Kec. Rawas Ulu, Kab. Musi Rawas Utara, Sumatera Selatan";"Kab. Musi Rawas Utara, Sumatera Selatan";"SUMATERA SELATAN";"";"Indonesia";"";"";"";"-2.6222662";"102.7546972";"https://maps.google.com/?cid=0x0:0x4b6ebbc9cf6e50f0";""
"perumahan";"Komplek perumahan";"Rumah";"9QG6+9V9, Ps. Surulangun, Kec. Rawas Ulu, Kab. Musi Rawas Utara, Sumatera Selatan 31656";"Ps. Surulangun, Kec. Rawas Ulu, Kab. Musi Rawas Utara";"SUMATERA SELATAN";"31656";"Indonesia";"";"";"";"-2.6240683";"102.7622321";"https://maps.google.com/?cid=0x0:0xf5f7f63239cee547";""
"perumahan";"Perhimpunan Pengembang Perumahan";"Len";"9QG7+8FQ, Ps. Surulangun, Kec. Rawas Ulu, Kabupaten Musi Rawas, Sumatera Selatan 31656";"Ps. Surulangun, Kec. Rawas Ulu, Kabupaten Musi Rawas";"SUMATERA SELATAN";"31656";"Indonesia";"";"";"";"-2.6241641";"102.7637355";"https://maps.google.com/?cid=0x0:0x785e259084cd33bd";""
"perumahan";"Perhimpunan Pengembang Perumahan";"Rumah bu septi";"9QG6+2PJ, Ps. Surulangun, Kec. Rawas Ulu, Kab. Musi Rawas Utara, Sumatera Selatan 31656";"Ps. Surulangun, Kec. Rawas Ulu, Kab. Musi Rawas Utara";"SUMATERA SELATAN";"31656";"Indonesia";"";"";"";"-2.6251497";"102.7616521";"https://maps.google.com/?cid=0x0:0xd442d73366e991fd";""
"perumahan";"Bakso";"Bakso bakar ujuk AL";"9P6H+FV, Sungai Baung, Kec. Rawas Ulu, Kabupaten Musi Rawas, Sumatera Selatan 31656";"Sungai Baung, Kec. Rawas Ulu, Kabupaten Musi Rawas";"SUMATERA SELATAN";"31656";"Indonesia";"";"";"";"-2.6388755";"102.7297255";"https://maps.google.com/?cid=0x0:0xd8eb54f97031e2f0";""
"perumahan";"perumahan";"Kec. Rupit";"Kab. Musi Rawas Utara, Sumatera Selatan";"Kab. Musi Rawas Utara, Sumatera Selatan";"SUMATERA SELATAN";"";"Indonesia";"";"";"";"-2.7205772";"102.9116717";"https://maps.google.com/?cid=0x0:0xa822b6d74806cc91";""
"perumahan";"Komplek perumahan";"Perumahan griya lawang agung Rupit Muratara";"7WX3+X9J, Lawang Agung, Kec. Rupit, Kabupaten Musi Rawas, Sumatera Selatan 31654";"Lawang Agung, Kec. Rupit, Kabupaten Musi Rawas";"SUMATERA SELATAN";"31654";"Indonesia";"";"";"";"-2.7000295";"102.9033874";"https://maps.google.com/?cid=0x0:0xa91d33dc83a617df";""
"perumahan";"Perhimpunan Pengembang Perumahan";"Rumah Keluarga RipinZuryati";"Kp No.06, Lawang Agung, Kec. Rupit, Kab. Musi Rawas Utara, Sumatera Selatan 31654";"Lawang Agung, Kec. Rupit, Kab. Musi Rawas Utara";"SUMATERA SELATAN";"31654";"Indonesia";"";"";"";"-2.7101834";"102.9093654";"https://maps.google.com/?cid=0x0:0xe5eb30b3187039ac";""
"perumahan";"Komplek perumahan";"Palembang";"7WV6+RQJ, Lawang Agung, Kec. Rupit, Kab. Musi Rawas Utara, Sumatera Selatan 31654";"Lawang Agung, Kec. Rupit, Kab. Musi Rawas Utara";"SUMATERA SELATAN";"31654";"Indonesia";"";"";"";"-2.7054188";"102.9118966";"https://maps.google.com/?cid=0x0:0x7751a9d86c64c66f";""
"perumahan";"Otoritas Perumahan";"GRIYA MURATARA BERHIDAYAH";"6VVH+PW, Beringin Jaya, Kec. Rupit, Kabupaten Musi Rawas, Sumatera Selatan 31654";"Beringin Jaya, Kec. Rupit, Kabupaten Musi Rawas";"SUMATERA SELATAN";"31654";"Indonesia";"";"";"";"-2.755635";"102.879753";"https://maps.google.com/?cid=0x0:0xd9f901330a6f7275";""
"perumahan";"Pembangunan Perumahan";"PosBocilDarat";"7WF6+MF, Muara Rupit, Kec. Rupit, Kabupaten Musi Rawas, Sumatera Selatan 31654";"Muara Rupit, Kec. Rupit, Kabupaten Musi Rawas";"SUMATERA SELATAN";"31654";"Indonesia";"";"";"";"-2.7258648";"102.9112957";"https://maps.google.com/?cid=0x0:0x312f3a46f3a1ac62";""
"perumahan";"Jasa Konstruksi dan Bangunan";".";"Muara Rupit, Kec. Rupit, Kab. Musi Rawas Utara, Sumatera Selatan 31654";"Kec. Rupit, Kab. Musi Rawas Utara";"SUMATERA SELATAN";"31654";"Indonesia";"";"";"";"-2.7210308";"102.9101321";"https://maps.google.com/?cid=0x0:0x8bbc0773ed350aa9";""
"perumahan";"Komplek perumahan";"perumahan permata indah muratara";"7WMM+8PQ, Jl. Raya Rupit-Karang Dapo, Pantai, Kec. Rupit, Kab. Musi Rawas Utara, Sumatera Selatan 31654";"Jl. Raya Rupit-Karang Dapo, Pantai, Kec. Rupit, Kab. Musi Rawas Utara";"SUMATERA SELATAN";"31654";"Indonesia";" 085266008910";"";"";"-2.7166602";"102.9343692";"https://maps.google.com/?cid=0x0:0x8c63e78ea676763a";""
"perumahan";"Perhimpunan Pengembang Perumahan";"rumah zakaria";"6VVH+CXF, Bingin Rupit, Kec. Rupit, Kab. Musi Rawas Utara, Sumatera Selatan 31654";"Bingin Rupit, Kec. Rupit, Kab. Musi Rawas Utara";"SUMATERA SELATAN";"31654";"Indonesia";"";"";"";"-2.7564395";"102.8799119";"https://maps.google.com/?cid=0x0:0xcbecdd13aae975ef";""
"perumahan";"Pembangunan Perumahan";"RUMAH ARIPIN";"8VH6+PM, Karang Anyar, Kec. Rupit, Kab. Musi Rawas Utara, Sumatera Selatan 31654";"Karang Anyar, Kec. Rupit, Kab. Musi Rawas Utara";"SUMATERA SELATAN";"31654";"Indonesia";"";"";"";"-2.6710574";"102.8608411";"https://maps.google.com/?cid=0x0:0x7a64d42d10e933b9";""
"perumahan";"Komplek perumahan";"Rumah Tartila A. Sani";"7WR5+4MJ, Lawang Agung, Kec. Rupit, Kab. Musi Rawas Utara, Sumatera Selatan 31654";"Lawang Agung, Kec. Rupit, Kab. Musi Rawas Utara";"SUMATERA SELATAN";"31654";"Indonesia";"";"";"";"-2.7096591";"102.9092559";"https://maps.google.com/?cid=0x0:0x1ccd61fc52a376f2";""
"perumahan";"Perhimpunan Pengembang Perumahan";"Twobradher";"7W85+6Q9, Muara Rupit, Kec. Rupit, Kabupaten Musi Rawas, Sumatera Selatan 31654";"Muara Rupit, Kec. Rupit, Kabupaten Musi Rawas";"SUMATERA SELATAN";"31654";"Indonesia";" 082299117200";"";"";"-2.7344588";"102.9094693";"https://maps.google.com/?cid=0x0:0x425d9ee607c57bb0";""
"perumahan";"Komplek perumahan";"Rumah Zuryati wahidin";"7W92+7W2, Muara Rupit, Kec. Rupit, Kabupaten Musi Rawas, Sumatera Selatan";"Kabupaten Musi Rawas, Sumatera Selatan";"SUMATERA SELATAN";"";"Indonesia";"";"";"";"-2.7318674";"102.9022511";"https://maps.google.com/?cid=0x0:0xbab089ed6d11232f";""
"perumahan";"Komplek perumahan";"ZAINAL ABIDIN";"7WHG+98X, Muara Rupit, Kec. Rupit, Kab. Musi Rawas Utara, Sumatera Selatan 31654";"Muara Rupit, Kec. Rupit, Kab. Musi Rawas Utara";"SUMATERA SELATAN";"31654";"Indonesia";"";"";"";"-2.7215213";"102.9258475";"https://maps.google.com/?cid=0x0:0x5896b44bb3a7b329";""
"perumahan";"Pembangunan Perumahan";"Karanganyar";"8RQV+356, Jl. Lintas Utama Sumatera, Karang Anyar, Kec. Rupit, Kab. Musi Rawas Utara, Sumatera Selatan 31654";"Jl. Lintas Utama Sumatera, Karang Anyar, Kec. Rupit, Kab. Musi Rawas Utara";"SUMATERA SELATAN";"31654";"Indonesia";"";"";"";"-2.6623497";"102.842881";"https://maps.google.com/?cid=0x0:0x6fbf93a24fba3034";""
"perumahan";"Rumah Sakit";"RSUD RUPIT KABUPATEN MUSI RAWAS UTARA";"Jl. Kesehatan No No.01, Lawang Agung, Kec. Rupit, Kab. Musi Rawas Utara, Sumatera Selatan 31654";"Lawang Agung, Kec. Rupit, Kab. Musi Rawas Utara";"SUMATERA SELATAN";"31654";"Indonesia";"";"";"";"-2.6980448";"102.90025";"https://maps.google.com/?cid=0x0:0x56c021270e9ae888";""
"perumahan";"Komplek perumahan";"perumahan aa";"7WQ6+J93, Lawang Agung, Kec. Rupit, Kab. Musi Rawas Utara, Sumatera Selatan 31654";"Lawang Agung, Kec. Rupit, Kab. Musi Rawas Utara";"SUMATERA SELATAN";"31654";"Indonesia";"";"";"";"-2.7109865";"102.910917";"https://maps.google.com/?cid=0x0:0xc36e88210b040d8a";""
"perumahan";"Komplek perumahan";"Rumah sigit";"8VVV+48G, Sungai Jernih, Kec. Rupit, Kab. Musi Rawas Utara, Sumatera Selatan 31654";"Sungai Jernih, Kec. Rupit, Kab. Musi Rawas Utara";"SUMATERA SELATAN";"31654";"Indonesia";"";"";"";"-2.6571922";"102.8933187";"https://maps.google.com/?cid=0x0:0x1e829ff6256143ca";""
"perumahan";"Komplek perumahan";"Rumah Pik Yen";"7WF6+MF, Muara Rupit, Kec. Rupit, Kab. Musi Rawas Utara, Sumatera Selatan 31654";"Muara Rupit, Kec. Rupit, Kab. Musi Rawas Utara";"SUMATERA SELATAN";"31654";"Indonesia";"";"";"";"-2.7260978";"102.9118491";"https://maps.google.com/?cid=0x0:0x42b745d204ca7578";""
"perumahan";"Komplek perumahan";"Perumahan faul";"7WC6+24F, Muara Rupit, Kec. Rupit, Kab. Musi Rawas Utara, Sumatera Selatan 31654";"Muara Rupit, Kec. Rupit, Kab. Musi Rawas Utara";"SUMATERA SELATAN";"31654";"Indonesia";" 082371762703";"";"";"-2.729946";"102.9103117";"https://maps.google.com/?cid=0x0:0x81c964e8f8b21b61";""
"perumahan";"Komplek perumahan";"Rumah";"5RRQ+24, Noman Baru, Kec. Rupit, Kabupaten Musi Rawas, Sumatera Selatan 31654";"Noman Baru, Kec. Rupit, Kabupaten Musi Rawas";"SUMATERA SELATAN";"31654";"Indonesia";"";"";"";"-2.8099925";"102.8378332";"https://maps.google.com/?cid=0x0:0xfff4355f841fb154";""
"perumahan";"Komplek perumahan";"Rumah AN sinyur";"6R2H+3FW, Noman Baru, Kec. Rupit, Kab. Musi Rawas Utara, Sumatera Selatan 31654";"Noman Baru, Kec. Rupit, Kab. Musi Rawas Utara";"SUMATERA SELATAN";"31654";"Indonesia";"";"";"";"-2.7997585";"102.8286961";"https://maps.google.com/?cid=0x0:0x5354acd1a5b11d56";""
"perumahan";"perumahan";"Sumatera Selatan 31669";"Kab. Musi Rawas Utara, Sumatera Selatan";"Kab. Musi Rawas Utara, Sumatera Selatan";"SUMATERA SELATAN";"";"Indonesia";"";"";"";"-2.7917254";"102.3463875";"https://maps.google.com/?cid=0x0:0x98db126b92af20bb";""
"perumahan";"Komplek perumahan";"Desa Kuto Tanjung-Ulu Rawas";"8829+858, Embacang Lama, Kec. Karang Jaya, Kab. Musi Rawas Utara, Sumatera Selatan 31654";"Embacang Lama, Kec. Karang Jaya, Kab. Musi Rawas Utara";"SUMATERA SELATAN";"31654";"Indonesia";" 05367871772";"";"";"-2.6992057";"102.3179413";"https://maps.google.com/?cid=0x0:0x92a3384e841ca14b";""
"perumahan";"Sekolah Menengah Pertama";"muara kulam";"48XF+R95, Muara Kulam, Ulu Rawas, Kab. Musi Rawas Utara, Sumatera Selatan 31669";"Muara Kulam, Ulu Rawas, Kab. Musi Rawas Utara";"SUMATERA SELATAN";"31669";"Indonesia";"";"";"";"-2.850481";"102.3234816";"https://maps.google.com/?cid=0x0:0xfb6485cdbadf98f2";""
"perumahan";"Pembangunan Perumahan";"Pekanbaru";"Bukit Barisan, Pulau Kidak, Ulu Rawas, Kab. Musi Rawas Utara, Sumatera Selatan 31669";"Pulau Kidak, Ulu Rawas, Kab. Musi Rawas Utara";"SUMATERA SELATAN";"31669";"Indonesia";"";"";"";"-3";"102.25";"https://maps.google.com/?cid=0x0:0xe2c23378cb66e2c9";""
"perumahan";"Toko umum";"Rumah Herbal Al-Liwa Kuto Tanjung";"882V+V6G, Kuto Tj., Ulu Rawas, Kabupaten Musi Rawas, Sumatera Selatan 31669";"Kuto Tj., Ulu Rawas, Kabupaten Musi Rawas";"SUMATERA SELATAN";"31669";"Indonesia";"";"";"";"-2.6978061";"102.3430699";"https://maps.google.com/?cid=0x0:0x89d9c5be378b815f";""
"perumahan";"Komplek perumahan";"Perum bukit barisan 3";"Perum bukit barisan3, jl.seribu blok b4, Pulau Kidak, Ulu Rawas, Kab. Musi Rawas Utara, Sumatera Selatan 31669";"jl.seribu blok b4, Pulau Kidak, Ulu Rawas, Kab. Musi Rawas Utara";"SUMATERA SELATAN";"31669";"Indonesia";"";"";"";"-3";"102.25";"https://maps.google.com/?cid=0x0:0xb684b413d9a8ed05";""
"perumahan";"Perhimpunan Pengembang Perumahan";"Yotube : Khal Dores";"7HC2+XJG, Pulau Kidak, Ulu Rawas, Kabupaten Musi Rawas, Sumatera Selatan";"Kabupaten Musi Rawas, Sumatera Selatan";"SUMATERA SELATAN";"";"Indonesia";"";"";"";"-2.727561";"102.5515731";"https://maps.google.com/?cid=0x0:0x189ffe32f2d4f6ef";""
"perumahan";"Gedung Apartemen";"Rumah mufid dan qoqo";"7F9H+M73, Muara Kuis, Ulu Rawas, Kabupaten Musi Rawas, Sumatera Selatan 31669";"Muara Kuis, Ulu Rawas, Kabupaten Musi Rawas";"SUMATERA SELATAN";"31669";"Indonesia";"";"";"";"-2.7308725";"102.4781584";"https://maps.google.com/?cid=0x0:0xfd8f77dcd11c4317";""
"perumahan";"Komplek perumahan";"Kost, Bedeng Pak Manto";"Muara Kulam, Ulu Rawas, Kab. Musi Rawas Utara, Sumatera Selatan 31669";"Ulu Rawas, Kab. Musi Rawas Utara";"SUMATERA SELATAN";"31669";"Indonesia";" 081210002570";"";"";"-2.7234413";"102.4565891";"https://maps.google.com/?cid=0x0:0x7fb79403a62176e0";""
"perumahan";"Pembangunan Perumahan";"Rumah saya";"7FF5+8R, Muara Kulam, Ulu Rawas, Kab. Musi Rawas Utara, Sumatera Selatan";"Kab. Musi Rawas Utara, Sumatera Selatan";"SUMATERA SELATAN";"";"Indonesia";"";"";"";"-2.726656";"102.459523";"https://maps.google.com/?cid=0x0:0x9dad11fe3e2bfa53";""
"perumahan";"Pembangunan Perumahan";"pulau kidak";"2862+X6P, Pulau Kidak, Ulu Rawas, Kab. Musi Rawas Utara, Sumatera Selatan";"Kab. Musi Rawas Utara, Sumatera Selatan";"SUMATERA SELATAN";"";"Indonesia";"";"";"";"-2.9875488";"102.3005784";"https://maps.google.com/?cid=0x0:0x8347f3be26739c96";""
"perumahan";"Pembangunan Perumahan";"Desa Pulau kidak";"7H52+55C, Pulau Kidak, Ulu Rawas, Kab. Musi Rawas Utara, Sumatera Selatan";"Kab. Musi Rawas Utara, Sumatera Selatan";"SUMATERA SELATAN";"";"Indonesia";"";"";"";"-2.742062";"102.5504";"https://maps.google.com/?cid=0x0:0x642dbb32816a612c";""
"perumahan";"Komplek perumahan";"Sp.9 cecar";"M929+FFQ, Sp.9 cecar, Bangun Jaya, Kec. Bulang Tengah Suku Ulu, Kabupaten Musi Rawas";"Kabupaten Musi Rawas, Sumatera Selatan";"SUMATERA SELATAN";"";"Indonesia";"";"";"";"-3.346892";"103.3657394";"https://maps.google.com/?cid=0x0:0xecc057f867973045";""
"perumahan";"perumahan";"Pulau kidak";"7HF2+2V6, Pulau Kidak, Ulu Rawas, Kab. Musi Rawas Utara, Sumatera Selatan 31656";"Pulau Kidak, Ulu Rawas, Kab. Musi Rawas Utara";"SUMATERA SELATAN";"31656";"Indonesia";"";"";"";"-2.7274625";"102.5521406";"https://maps.google.com/?cid=0x0:0x76263165dfa2f54c";""
"perumahan";"Pembangunan Perumahan";"Dedek Kurniawan";"8F5V+7P9, Mersip, Kec. Limun, Kabupaten Sarolangun, Jambi 37382";"Mersip, Kec. Limun, Kabupaten Sarolangun";"SUMATERA SELATAN";"37382";"Indonesia";"";"";"";"-2.6917098";"102.494202";"https://maps.google.com/?cid=0x0:0x5347e4ccb25ddc51";""
"perumahan";"Toko";"Rumah wahidin";"882R+WR, Kuto Tj., Ulu Rawas, Kabupaten Musi Rawas, Sumatera Selatan";"Kabupaten Musi Rawas, Sumatera Selatan";"SUMATERA SELATAN";"";"Indonesia";"";"";"";"-2.6976299";"102.3420953";"https://maps.google.com/?cid=0x0:0xc5871ceb1e59c48d";""
"perumahan";"Tujuan Wisata";"Wonderful Napallicin";"79W5+QQG, Napal Licin, Ulu Rawas, Kab. Musi Rawas Utara, Sumatera Selatan";"Kab. Musi Rawas Utara, Sumatera Selatan";"SUMATERA SELATAN";"";"Indonesia";"";"";"";"-2.7030698";"102.3594414";"https://maps.google.com/?cid=0x0:0xac017275bf8e40b0";""
"perumahan";"Komplek perumahan";"Ulu Kedorang";"8GH2+WFJ, Dusun Renah Alai, Berkun, Kec. Limun, Kabupaten Sarolangun, Jambi";"Kabupaten Sarolangun, Jambi";"SUMATERA SELATAN";"";"Indonesia";"";"";"";"-2.6701662";"102.5011511";"https://maps.google.com/?cid=0x0:0x73bcbb0e112eaff7";""
"perumahan";"Pembangunan Perumahan";"Mersip ulu";"8F5V+7P9, Dusun Mersip ulu, Mersip, Kec. Limun, Kabupaten Sarolangun, Jambi 37382";"Dusun Mersip ulu, Mersip, Kec. Limun, Kabupaten Sarolangun";"SUMATERA SELATAN";"37382";"Indonesia";" 082281364804";"";"";"-2.6918473";"102.4943665";"https://maps.google.com/?cid=0x0:0xf1adbc0959dc2b92";""
"perumahan";"perumahan";"Riko famili";"V5JQ+GJ2, kaler, Lebong Tambang, Kec. Lebong Utara, Kabupaten Lebong, Bengkulu 39264";"kaler, Lebong Tambang, Kec. Lebong Utara, Kabupaten Lebong";"SUMATERA SELATAN";"39264";"Indonesia";"";"";"";"-3.1187371";"102.1890042";"https://maps.google.com/?cid=0x0:0xc86bbc790b1519ed";""
"perumahan";"Komplek perumahan";"Pumar";"5H23+R46, Muara Tiku, Kec. Karang Jaya, Kab. Musi Rawas Utara, Sumatera Selatan";"Kab. Musi Rawas Utara, Sumatera Selatan";"SUMATERA SELATAN";"";"Indonesia";"";"";"";"-2.8479704";"102.5527505";"https://maps.google.com/?cid=0x0:0x9e650c564c84ca44";""
"perumahan";"Komplek perumahan";"Rumah Rani Asmili";"7HXP+9V, Jangkat, Ulu Rawas, Kab. Musi Rawas Utara, Sumatera Selatan";"Kab. Musi Rawas Utara, Sumatera Selatan";"SUMATERA SELATAN";"";"Indonesia";"";"";"";"-2.7027674";"102.5819042";"https://maps.google.com/?cid=0x0:0xa1707fb646c3ef0e";""
"perumahan";"Komplek perumahan";"Desa muara tiku";"5H23+R46, Muara Tiku, Kec. Karang Jaya, Kab. Musi Rawas Utara, Sumatera Selatan";"Kab. Musi Rawas Utara, Sumatera Selatan";"SUMATERA SELATAN";"";"Indonesia";"";"";"";"-2.8479704";"102.5527505";"https://maps.google.com/?cid=0x0:0x81651d899d446a6b";""
"perumahan";"Perhimpunan Pengembang Perumahan";"rumah wizeliaa";"4M5W+WG2, Sukamenang, Kec. Karang Jaya, Kab. Musi Rawas Utara, Sumatera Selatan 31654";"Sukamenang, Kec. Karang Jaya, Kab. Musi Rawas Utara";"SUMATERA SELATAN";"31654";"Indonesia";"";"";"";"-2.890245";"102.696277";"https://maps.google.com/?cid=0x0:0xfa263439c37e866a";""
"perumahan";"Pembangunan Perumahan";"irawan";"8JJV+XG5, Pangkalan, Kec. Rawas Ulu, Kab. Musi Rawas Utara, Sumatera Selatan 31656";"Pangkalan, Kec. Rawas Ulu, Kab. Musi Rawas Utara";"SUMATERA SELATAN";"31656";"Indonesia";"";"";"";"-2.667176";"102.6438854";"https://maps.google.com/?cid=0x0:0x75334d0074b7900c";""
"perumahan";"Komplek perumahan";"Azzam  Shopyy";"8JJR+WQ9, Pangkalan, Kec. Rawas Ulu, Kab. Musi Rawas Utara, Sumatera Selatan 31656";"Pangkalan, Kec. Rawas Ulu, Kab. Musi Rawas Utara";"SUMATERA SELATAN";"31656";"Indonesia";"";"";"";"-2.667952";"102.6420724";"https://maps.google.com/?cid=0x0:0x92af4602747569d9";""
"perumahan";"Komplek perumahan";"Teladas";"8M9H+GJ7, Teladas, Kec. Rawas Ulu, Kabupaten Musi Rawas, Sumatera Selatan";"Kabupaten Musi Rawas, Sumatera Selatan";"SUMATERA SELATAN";"";"Indonesia";"";"";"";"-2.6812034";"102.6790445";"https://maps.google.com/?cid=0x0:0xdac1f9f916b0e6e0";""
"perumahan";"Komplek perumahan";"Ratu Afnan dirga";"8MVW+VG4, Kerta Dewa, Kec. Rawas Ulu, Kab. Musi Rawas Utara, Sumatera Selatan 31656";"Kerta Dewa, Kec. Rawas Ulu, Kab. Musi Rawas Utara";"SUMATERA SELATAN";"31656";"Indonesia";"";"";"";"-2.6548791";"102.6958168";"https://maps.google.com/?cid=0x0:0x207c8fa466370ecd";""
