Category,Real Category,Business Name,Address,City,State,Postal Code,Country,Phone,Email,Website,Latitude,Longitude,Map Link,Details Link
hardware store,hardware store,Nusa Tenggara Tim.,,Nusa Tenggara Tim.,NUSA TENGGARA TIMUR,,Indonesia,,,,-8.6573819,121.0793705,https://maps.google.com/?cid=0x0:0x1030bfbcaf71ae0,
hardware store,Toko Bahan Bangunan,Sinar Bangunan Building Center,"Jl. Bund. PU No.12, Tuak Daun Merah, Kec. Oebobo, Kota Kupang, Nusa Tenggara Tim. 85228","Tuak Daun Merah, Kec. Oebobo, Kota Kupang",NUSA TENGGARA TIMUR,85228.0,Indonesia,81236648694.0,,,-10.1675355,123.6289538,https://maps.google.com/?cid=0x0:0x8b34913a09e207d2,
hardware store,Servis Komputer,Arksia komputer dan cellular,"depan bukit cinta, Jl. Lanudal, Penfui Tim., Kec. Kupang Tengah, Kabupaten Kupang, Nusa Tenggara Tim. 85111","Jl. Lanudal, Penfui Tim., Kec. Kupang Tengah, Kabupaten Kupang",NUSA TENGGARA TIMUR,85111.0,Indonesia,81333143131.0,,,-10.1586817,123.6644828,https://maps.google.com/?cid=0x0:0x299b325d33b37bb9,
hardware store,hardware store,Kec. Semau,"Kabupaten Kupang, Nusa Tenggara Tim.","Kabupaten Kupang, Nusa Tenggara Tim.",NUSA TENGGARA TIMUR,,Indonesia,,,,-10.1913662,123.4129193,https://maps.google.com/?cid=0x0:0x81285b2e1209f61c,
hardware store,Toko Bahan Bangunan,ARLA BANGUNAN,"Jl. H.R. Koroh, RT.019/RW.007, Sikumana, Kec. Maulafa, Kota Kupang, Nusa Tenggara Tim. 85117","RT.019/RW.007, Sikumana, Kec. Maulafa, Kota Kupang",NUSA TENGGARA TIMUR,85117.0,Indonesia,82122228701.0,,,-10.2074394,123.6128472,https://maps.google.com/?cid=0x0:0xafcc1ea09f9596cc,
hardware store,Toko Mebel,Azko Lippo Plaza Kupang,"Jl. Veteran RT. 06/05 Fatululi Kec. Oebobo Kota Kupang, Kelapa Lima, Kupang City, East Nusa Tenggara 85111","Kelapa Lima, Kupang City",NUSA TENGGARA TIMUR,85111.0,Indonesia,82146533404.0,,,-10.1591615,123.6109539,https://maps.google.com/?cid=0x0:0xfab5b1bd986ae6f,
hardware store,Toko Swalayan,Toko Alta Indah MART,"Nunbaun Sabu, Kec. Alak, Kota Kupang, Nusa Tenggara Tim.","Kota Kupang, Nusa Tenggara Tim.",NUSA TENGGARA TIMUR,,Indonesia,85253629775.0,,,-10.172624,123.563527,https://maps.google.com/?cid=0x0:0x70f2b59e15310c9c,
hardware store,Toko Bahan Bangunan,UD. SAMA JAYA,"RHHP+VX2, Jl. Jenderal Sudirman No.27, Kuanino, Kec. Kota Raja, Kota Kupang, Nusa Tenggara Tim.","Kota Kupang, Nusa Tenggara Tim.",NUSA TENGGARA TIMUR,,Indonesia,81238825057.0,,,-10.1703192,123.5873411,https://maps.google.com/?cid=0x0:0xb81f7d1e47e6001b,
hardware store,Toko Bahan Bangunan,Sinar Bangunan Building Mart,"Jl. Yos Sudarso No.177, Namosain, Kec. Alak, Kota Kupang, Nusa Tenggara Tim.","Kota Kupang, Nusa Tenggara Tim.",NUSA TENGGARA TIMUR,,Indonesia,81238941314.0,,,-10.1916248,123.5407476,https://maps.google.com/?cid=0x0:0x411fca6242be55fc,
hardware store,Toko Perlengkapan Rumah,Mr D.I.Y.,"Lippo Plaza Kupang, Lt. UG, Fatululi, Kec. Oebobo, Kota Kupang, Nusa Tenggara Tim.","Kota Kupang, Nusa Tenggara Tim.",NUSA TENGGARA TIMUR,,Indonesia,2130022789.0,,,-10.1588684,123.6112291,https://maps.google.com/?cid=0x0:0x6221df3dfee54b51,
hardware store,Toko Bahan Bangunan,CV KENCANA MULIA ABADI,"Jl. Terusan Timor Raya No.9, Oeba, Kec. Kota Lama, Kota Kupang, Nusa Tenggara Tim.","Kota Kupang, Nusa Tenggara Tim.",NUSA TENGGARA TIMUR,,Indonesia,,,,-10.1562204,123.594482,https://maps.google.com/?cid=0x0:0x74678b2af89178aa,
hardware store,Toko Perlengkapan Rumah,Ester Bangunan,"Jl. Alfons Nisnoni No.48, Manulai II, Kec. Alak, Kota Kupang, Nusa Tenggara Tim.","Kota Kupang, Nusa Tenggara Tim.",NUSA TENGGARA TIMUR,,Indonesia,85858285395.0,,,-10.211763,123.5756845,https://maps.google.com/?cid=0x0:0xfa8d13fddf7fe10d,
hardware store,Toko Bahan Bangunan,UD. Mitra Bangunan Alak,"QGXJ+VV8, Alak, Kec. Alak, Kota Kupang, Nusa Tenggara Tim.","Kota Kupang, Nusa Tenggara Tim.",NUSA TENGGARA TIMUR,,Indonesia,82146656359.0,,,-10.200344,123.5322128,https://maps.google.com/?cid=0x0:0x82916be3be78cceb,
hardware store,Toko Perlengkapan Rumah,MR.DIY,"Jl. Amabi No.54, Oepura, Kec. Maulafa, Kota Kupang, Nusa Tenggara Tim. 85142","Oepura, Kec. Maulafa, Kota Kupang",NUSA TENGGARA TIMUR,85142.0,Indonesia,,,,-10.186794,123.6115653,https://maps.google.com/?cid=0x0:0x8085f0372555a075,
hardware store,Toko Bahan Bangunan,UD. Sumber Logam,"Jl. Jenderal Sudirman No.49, Kuanino, Kec. Kota Raja, Kota Kupang, Nusa Tenggara Tim.","Kota Kupang, Nusa Tenggara Tim.",NUSA TENGGARA TIMUR,,Indonesia,81337811116.0,,,-10.1714636,123.5905003,https://maps.google.com/?cid=0x0:0x2834c9c645cae3f1,
hardware store,Toko Bahan Bangunan,Toko Pondok Gede,"Jl. Alfons Nisnoni No.3, Bakunase, Kec. Kota Raja, Kota Kupang, Nusa Tenggara Tim.","Kota Kupang, Nusa Tenggara Tim.",NUSA TENGGARA TIMUR,,Indonesia,,,,-10.1833864,123.586717,https://maps.google.com/?cid=0x0:0xd3bc3b4da13cee75,
hardware store,Toko Bahan Bangunan,Karya Subur Bangunan (Jotun Kupang),"Jl. Jenderal Sudirman No.101, Kuanino, Kec. Kota Raja, Kota Kupang, Nusa Tenggara Tim.","Kota Kupang, Nusa Tenggara Tim.",NUSA TENGGARA TIMUR,,Indonesia,380828478.0,,,-10.1733444,123.5922714,https://maps.google.com/?cid=0x0:0xc168aae1c4865393,
hardware store,Toko Bahan Bangunan,Mitra Bangunan,"Jl. Moch Hatta No.52, Fontein, Kec. Kota Raja, Kota Kupang, Nusa Tenggara Tim. 85112","Fontein, Kec. Kota Raja, Kota Kupang",NUSA TENGGARA TIMUR,85112.0,Indonesia,82236636819.0,,,-10.169089,123.585355,https://maps.google.com/?cid=0x0:0xb133bd5d1eaec0af,
hardware store,Toko Mebel,MR.DIY,"Jl. Yos Sudarso, Namosain, Kec. Alak, Kota Kupang, Nusa Tenggara Tim. 85232","Namosain, Kec. Alak, Kota Kupang",NUSA TENGGARA TIMUR,85232.0,Indonesia,,,,-10.176361,123.5539553,https://maps.google.com/?cid=0x0:0x7e3a1a6ac13061ad,
hardware store,Toko Bahan Bangunan,Toko Bravo Bangunan,"Jl. Terusan Timor Raya, Pasir Panjang, Kec. Kota Lama, Kota Kupang, Nusa Tenggara Tim. 85000","Pasir Panjang, Kec. Kota Lama, Kota Kupang",NUSA TENGGARA TIMUR,85000.0,Indonesia,81246295800.0,,,-10.1509378,123.6033391,https://maps.google.com/?cid=0x0:0xdf4da131f9948aff,
hardware store,Toko Bahan Bangunan,Tambahkan nimor telepon,"QJR7+FHJ, Jalur XL, Sikumana, Kec. Maulafa, Kota Kupang, Nusa Tenggara Tim.","Kota Kupang, Nusa Tenggara Tim.",NUSA TENGGARA TIMUR,,Indonesia,,,,-10.2087906,123.6138907,https://maps.google.com/?cid=0x0:0xf69cd383eff96abd,
hardware store,Toko Bahan Bangunan,Utama Bangunan,"Jl. Jenderal Sudirman No.104, Nunleu, Kec. Kota Raja, Kota Kupang, Nusa Tenggara Tim.","Kota Kupang, Nusa Tenggara Tim.",NUSA TENGGARA TIMUR,,Indonesia,,,,-10.1737992,123.592435,https://maps.google.com/?cid=0x0:0x5d963cfe75d2b6f3,
hardware store,Toko Bahan Bangunan,Daya Sakti Utama,"RG5W+MPR, Alak, Kec. Alak, Kota Kupang, Nusa Tenggara Tim.","Kota Kupang, Nusa Tenggara Tim.",NUSA TENGGARA TIMUR,,Indonesia,81326166622.0,,,-10.1907583,123.5467781,https://maps.google.com/?cid=0x0:0xf2781400f183a06c,
hardware store,Toko,UD. SUMBER JAYA LOGAM,"Jl. W.J. Lalamentik No.17, Fatululi, Kec. Oebobo, Kota Kupang, Nusa Tenggara Tim.","Kota Kupang, Nusa Tenggara Tim.",NUSA TENGGARA TIMUR,,Indonesia,3808438056.0,,,-10.166974,123.6037586,https://maps.google.com/?cid=0x0:0x477cb38885b509d4,
hardware store,Kantor Perusahaan,YOUNG PART DIESEL,"Gedung harco, Jl. Jemb. Merah No.066-067 lt. Dasar blok AKS, Mangga Dua Sel., Kecamatan Sawah Besar, Kota Jakarta Pusat, Daerah Khusus Ibukota Jakarta 10730","Jl. Jemb. Merah No.066-067 lt. Dasar blok AKS, Mangga Dua Sel., Kecamatan Sawah Besar, Kota Jakarta Pusat",NUSA TENGGARA TIMUR,10730.0,Indonesia,81377993159.0,,,-6.147748,106.83324,https://maps.google.com/?cid=0x0:0x8948085a203bc569,
hardware store,hardware store,Toko Pishon,"Jl. W.J. Lalamentik No.47A, Fatululi, Kec. Oebobo, Kota Kupang, Nusa Tenggara Tim. 85111","Fatululi, Kec. Oebobo, Kota Kupang",NUSA TENGGARA TIMUR,85111.0,Indonesia,3808430702.0,,,-10.166959,123.6036991,https://maps.google.com/?cid=0x0:0xe949673466433cbe,
hardware store,hardware store,Kec. Kupang Bar.,"Kabupaten Kupang, Nusa Tenggara Tim.","Kabupaten Kupang, Nusa Tenggara Tim.",NUSA TENGGARA TIMUR,,Indonesia,,,,-10.258321,123.5547732,https://maps.google.com/?cid=0x0:0xae10763b94256d10,
hardware store,Toko Perlengkapan Rumah,Ester Bangunan,"Jl. Alfons Nisnoni No.48, Manulai II, Kec. Alak, Kota Kupang, Nusa Tenggara Tim.","Kota Kupang, Nusa Tenggara Tim.",NUSA TENGGARA TIMUR,,Indonesia,85858285395.0,,,-10.211763,123.5756845,https://maps.google.com/?cid=0x0:0xfa8d13fddf7fe10d,
hardware store,Toko Bahan Bangunan,UD. Mitra Bangunan Alak,"QGXJ+VV8, Alak, Kec. Alak, Kota Kupang, Nusa Tenggara Tim.","Kota Kupang, Nusa Tenggara Tim.",NUSA TENGGARA TIMUR,,Indonesia,82146656359.0,,,-10.200344,123.5322128,https://maps.google.com/?cid=0x0:0x82916be3be78cceb,
hardware store,Toko Bahan Bangunan,Sinar Bangunan Building Center,"Jl. Bund. PU No.12, Tuak Daun Merah, Kec. Oebobo, Kota Kupang, Nusa Tenggara Tim. 85228","Tuak Daun Merah, Kec. Oebobo, Kota Kupang",NUSA TENGGARA TIMUR,85228.0,Indonesia,81236648694.0,,,-10.1675355,123.6289538,https://maps.google.com/?cid=0x0:0x8b34913a09e207d2,
hardware store,Toko Bahan Bangunan,Yolis batako,"samping cabang sd kristen harmoni, Jalur XL, Fatukoa, Kec. Maulafa, Kota Kupang, Nusa Tenggara Tim. 85144","Jalur XL, Fatukoa, Kec. Maulafa, Kota Kupang",NUSA TENGGARA TIMUR,85144.0,Indonesia,,,,-10.2211522,123.5919026,https://maps.google.com/?cid=0x0:0xd76657345bf46185,
hardware store,Toko Bahan Bangunan,Daya Sakti Utama,"RG5W+MPR, Alak, Kec. Alak, Kota Kupang, Nusa Tenggara Tim.","Kota Kupang, Nusa Tenggara Tim.",NUSA TENGGARA TIMUR,,Indonesia,81326166622.0,,,-10.1907583,123.5467781,https://maps.google.com/?cid=0x0:0xf2781400f183a06c,
hardware store,hardware store,UD. REJOIS BANGUNAN,"Batakte, Kec. Kupang Bar., Kabupaten Kupang, Nusa Tenggara Tim.","Kabupaten Kupang, Nusa Tenggara Tim.",NUSA TENGGARA TIMUR,,Indonesia,82238869564.0,,,-10.2530955,123.5532073,https://maps.google.com/?cid=0x0:0x84bc50362a85d01b,
hardware store,Toko Bahan Bangunan,Toko Karunia Indah,"Oesao, Kec. Kupang Tim., Kabupaten Kupang, Nusa Tenggara Tim.","Kabupaten Kupang, Nusa Tenggara Tim.",NUSA TENGGARA TIMUR,,Indonesia,81339115500.0,,,-10.1164267,123.810462,https://maps.google.com/?cid=0x0:0xe2b8564416118add,
hardware store,Toko Bahan Bangunan,Toko Sumber Bangunan,"Jl. Oesao - Bokong No.Km. 28, Oesao, Kec. Kupang Tim., Kabupaten Kupang, Nusa Tenggara Tim.","Kabupaten Kupang, Nusa Tenggara Tim.",NUSA TENGGARA TIMUR,,Indonesia,81236427744.0,,,-10.1167107,123.8112814,https://maps.google.com/?cid=0x0:0x29d575d1a4a441ac,
hardware store,Toko,Berlian's Buah,"Jl. Terusan Timor Raya No.28, Oesao, Kec. Kupang Tim., Kabupaten Kupang, Nusa Tenggara Tim. 85362","Oesao, Kec. Kupang Tim., Kabupaten Kupang",NUSA TENGGARA TIMUR,85362.0,Indonesia,85792596350.0,,,-10.1158433,123.808555,https://maps.google.com/?cid=0x0:0x681e3f242179b50b,
hardware store,hardware store,Nusa Tenggara Tim.,,Nusa Tenggara Tim.,NUSA TENGGARA TIMUR,,Indonesia,,,,-8.6573819,121.0793705,https://maps.google.com/?cid=0x0:0x1030bfbcaf71ae0,
hardware store,Toko Bahan Bangunan,Sinar Bangunan Building Center,"Jl. Bund. PU No.12, Tuak Daun Merah, Kec. Oebobo, Kota Kupang, Nusa Tenggara Tim. 85228","Tuak Daun Merah, Kec. Oebobo, Kota Kupang",NUSA TENGGARA TIMUR,85228.0,Indonesia,81236648694.0,,,-10.1675355,123.6289538,https://maps.google.com/?cid=0x0:0x8b34913a09e207d2,
hardware store,Toko Bahan Bangunan,LSL Hardware Sdn Bhd,"Jalan Bubul, Batu 3, 91308 Semporna, Sabah, Malaysia",Semporna,NUSA TENGGARA TIMUR,91308.0,Indonesia,6089781562.0,,,4.4559822,118.5748691,https://maps.google.com/?cid=0x0:0x3a3fabd2c3b6903f,
hardware store,hardware store,Kec. Sulamu,"Kabupaten Kupang, Nusa Tenggara Tim.","Kabupaten Kupang, Nusa Tenggara Tim.",NUSA TENGGARA TIMUR,,Indonesia,,,,-10.0096046,123.7331235,https://maps.google.com/?cid=0x0:0xde7bea235d825e39,
hardware store,Toko Fotokopi,AA Foto Copy - ATK,"XJ44+6XQ, Sulamu, Kec. Sulamu, Kabupaten Kupang, Nusa Tenggara Tim.","Kabupaten Kupang, Nusa Tenggara Tim.",NUSA TENGGARA TIMUR,,Indonesia,82146022786.0,,,-10.0444109,123.6074895,https://maps.google.com/?cid=0x0:0xafd24722229977bb,
hardware store,Toko Bahan Bangunan,Toko Karunia Indah,"Oesao, Kec. Kupang Tim., Kabupaten Kupang, Nusa Tenggara Tim.","Kabupaten Kupang, Nusa Tenggara Tim.",NUSA TENGGARA TIMUR,,Indonesia,81339115500.0,,,-10.1164267,123.810462,https://maps.google.com/?cid=0x0:0xe2b8564416118add,
hardware store,Sekolah Dasar,SD INPRES SULAMU,"2P6H+7QM, Pariti, Kec. Sulamu, Kabupaten Kupang, Nusa Tenggara Tim.","Kabupaten Kupang, Nusa Tenggara Tim.",NUSA TENGGARA TIMUR,,Indonesia,,,,-9.9892789,123.7294198,https://maps.google.com/?cid=0x0:0x5447c8eb4c59c19a,
hardware store,Sekolah menengah,SD Inpres Sulamu,"XJQ5+C3P, Sulamu, Kec. Sulamu, Kabupaten Kupang, Nusa Tenggara Tim.","Kabupaten Kupang, Nusa Tenggara Tim.",NUSA TENGGARA TIMUR,,Indonesia,,,,-10.0114046,123.6077098,https://maps.google.com/?cid=0x0:0x94a2471e7a5216d7,
hardware store,Pembangunan Perumahan,Kampung Baru,"VQR3+8RW, Oebelo, Kec. Kupang Tengah, Kabupaten Kupang, Nusa Tenggara Tim.","Kabupaten Kupang, Nusa Tenggara Tim.",NUSA TENGGARA TIMUR,,Indonesia,,,,-10.1091292,123.754566,https://maps.google.com/?cid=0x0:0x671fdde5439adf36,
hardware store,Sekolah,SD GMIT Sulamu,"XJ65+Q8X, Sulamu, Kec. Sulamu, Kabupaten Kupang, Nusa Tenggara Tim.","Kabupaten Kupang, Nusa Tenggara Tim.",NUSA TENGGARA TIMUR,,Indonesia,,,,-10.0380098,123.60836,https://maps.google.com/?cid=0x0:0xb5df1d786e899460,
hardware store,Toko Bahan Bangunan,OKEY Bangunan,"WR2Q+35X, Jl. Oesao - Bokong, Naibonat, Kec. Kupang Tim., Kabupaten Kupang, Nusa Tenggara Tim.","Kabupaten Kupang, Nusa Tenggara Tim.",NUSA TENGGARA TIMUR,,Indonesia,,,,-10.0997587,123.8379763,https://maps.google.com/?cid=0x0:0x36219aa94fbdb9c5,
hardware store,Sekolah Dasar,SD Tulakaboak,"2HMQ+8F2, Pantulan, Kec. Sulamu, Kabupaten Kupang, Nusa Tenggara Tim.","Kabupaten Kupang, Nusa Tenggara Tim.",NUSA TENGGARA TIMUR,,Indonesia,,,,-9.9667336,123.5886418,https://maps.google.com/?cid=0x0:0xc86a0e645909da5,
hardware store,Toko Fotokopi,AA Fotocopy,"Jl. Kancil No.8, Air Nona, Kec. Kota Raja, Kota Kupang, Nusa Tenggara Tim. 85119","Air Nona, Kec. Kota Raja, Kota Kupang",NUSA TENGGARA TIMUR,85119.0,Indonesia,85253131233.0,,,-10.1823324,123.5860562,https://maps.google.com/?cid=0x0:0x3dcfa430b238e3ed,
hardware store,hardware store,Kec. Kupang Tengah,"Kabupaten Kupang, Nusa Tenggara Tim.","Kabupaten Kupang, Nusa Tenggara Tim.",NUSA TENGGARA TIMUR,,Indonesia,,,,-10.1301438,123.7049668,https://maps.google.com/?cid=0x0:0x8849ad74ae79c951,
hardware store,Toko Bahan Bangunan,TB. Holy Bangunan,"Tarus, Jl. Terusan Timor Raya No.KM 13, Mata Air, Kabupaten Kupang, Nusa Tenggara Tim. 85361","Jl. Terusan Timor Raya No.KM 13, Mata Air, Kabupaten Kupang",NUSA TENGGARA TIMUR,85361.0,Indonesia,895343100228.0,,,-10.133897,123.6898475,https://maps.google.com/?cid=0x0:0x1c1e5e70a1a936e2,
hardware store,Toko Bahan Bangunan,Pojok Oetalu,"RMHX+476, Unnamed Road, Penfui Tim., Kec. Kupang Tengah, Kabupaten Kupang, Nusa Tenggara Tim.","Kabupaten Kupang, Nusa Tenggara Tim.",NUSA TENGGARA TIMUR,,Indonesia,,,,-10.1722072,123.6981442,https://maps.google.com/?cid=0x0:0x7466191732251263,
hardware store,Toko Bahan Bangunan,MR.DIY,"Jl. Terusan Timor Raya No.44, Oesapa, Kec. Klp. Lima, Kota Kupang, Nusa Tenggara Tim. 85228","Oesapa, Kec. Klp. Lima, Kota Kupang",NUSA TENGGARA TIMUR,85228.0,Indonesia,2130022789.0,,,-10.1426486,123.6598007,https://maps.google.com/?cid=0x0:0x4faf19da2c512ac0,
hardware store,Toko Perlengkapan Rumah,Berbelanja hemat hanya di MR.DIY,"Hyperstore Kupang, Jl. Bund. PU No.48-50 Lt. 1, Tuak Daun Merah, Kec. Oebobo, Kota Kupang, Nusa Tenggara Tim. 85111","Jl. Bund. PU No.48-50 Lt. 1, Tuak Daun Merah, Kec. Oebobo, Kota Kupang",NUSA TENGGARA TIMUR,85111.0,Indonesia,2130022789.0,,,-10.1626253,123.6310348,https://maps.google.com/?cid=0x0:0xbce3e9ae76e721bd,
hardware store,Toko Bahan Bangunan,Buana Mas Bangunan,"Jl. Terusan Timor Raya, Lasiana, Kec. Klp. Lima, Kota Kupang, Nusa Tenggara Tim. 85228","Lasiana, Kec. Klp. Lima, Kota Kupang",NUSA TENGGARA TIMUR,85228.0,Indonesia,82180004975.0,,,-10.1359941,123.6738203,https://maps.google.com/?cid=0x0:0x3cda8274b3c8d271,
hardware store,Pemasok Pipa,UD Letros Bangunan,"KANTOR POS  GIRO, JL. TIMOR RAYA KM. 11 SAMPING KANAN, Lasiana, Kec. Klp. Lima, Kota Kupang, Nusa Tenggara Tim. 85228","JL. TIMOR RAYA KM. 11 SAMPING KANAN, Lasiana, Kec. Klp. Lima, Kota Kupang",NUSA TENGGARA TIMUR,85228.0,Indonesia,82144334398.0,,,-10.1367435,123.6689846,https://maps.google.com/?cid=0x0:0x429fec8032f7bf35,
hardware store,Toko Bahan Bangunan,BSS Bangunan Kupang,"Jl. Piet A. Tallo, Liliba, Kec. Oebobo, Kota Kupang, Nusa Tenggara Tim.","Kota Kupang, Nusa Tenggara Tim.",NUSA TENGGARA TIMUR,,Indonesia,,,,-10.1574578,123.638677,https://maps.google.com/?cid=0x0:0x61cf2d9b0ef46005,
hardware store,Toko Bahan Bangunan,PT. Makmur Abadi Bangunan,"Jl. Terusan Timor Raya No.Km 9, Oesapa, Kec. Klp. Lima, Kota Kupang, Nusa Tenggara Tim. 85228","Oesapa, Kec. Klp. Lima, Kota Kupang",NUSA TENGGARA TIMUR,85228.0,Indonesia,81367756504.0,,,-10.1446954,123.6559765,https://maps.google.com/?cid=0x0:0x7abc85a224f4ba37,
hardware store,Kantor Perusahaan,Mebel jepara bansone,"Jl. Terusan Timor Raya No.km.8, oesapa, Kec. Kupang Tengah, Kabupaten Kupang, Nusa Tenggara Tim. 80255","oesapa, Kec. Kupang Tengah, Kabupaten Kupang",NUSA TENGGARA TIMUR,80255.0,Indonesia,85339136337.0,,,-10.1130861,123.7361578,https://maps.google.com/?cid=0x0:0x12acb5a909b123cf,
hardware store,Toko Bahan Bangunan,Toko Graha Bangunan,"Gedung Graha Ariadi, Oesapa Bar., Kec. Klp. Lima, Kota Kupang, Nusa Tenggara Tim. 85228","Oesapa Bar., Kec. Klp. Lima, Kota Kupang",NUSA TENGGARA TIMUR,85228.0,Indonesia,81312893723.0,,,-10.1468703,123.631267,https://maps.google.com/?cid=0x0:0x4167d73ee95fc845,
hardware store,Toko Bahan Bangunan,Timor's Swallow Nest (RR),"Jl. Terusan Timor Raya, Lasiana, Kec. Klp. Lima, Kota Kupang, Nusa Tenggara Tim.","Kota Kupang, Nusa Tenggara Tim.",NUSA TENGGARA TIMUR,,Indonesia,85239192999.0,,,-10.1366844,123.6690794,https://maps.google.com/?cid=0x0:0x6d8dc37f3fe84b6,
hardware store,Pembangunan Perumahan,Kampung Baru,"VQR3+8RW, Oebelo, Kec. Kupang Tengah, Kabupaten Kupang, Nusa Tenggara Tim.","Kabupaten Kupang, Nusa Tenggara Tim.",NUSA TENGGARA TIMUR,,Indonesia,,,,-10.1091292,123.754566,https://maps.google.com/?cid=0x0:0x671fdde5439adf36,
hardware store,Pemasok Pipa,Toko Bangunan Kim 5,"VM68+QFC, Jl. Terusan Timor Raya, Lasiana, Kec. Klp. Lima, Kota Kupang, Nusa Tenggara Tim.","Kota Kupang, Nusa Tenggara Tim.",NUSA TENGGARA TIMUR,,Indonesia,,,,-10.1380642,123.6661317,https://maps.google.com/?cid=0x0:0x57d9219b49c66921,
hardware store,Toko Bahan Bangunan,Toko Duta Timor,"VM32+4WV, Jl. Terusan Timor Raya, Oesapa, Kec. Klp. Lima, Kota Kupang, Nusa Tenggara Tim.","Kota Kupang, Nusa Tenggara Tim.",NUSA TENGGARA TIMUR,,Indonesia,380881867.0,,,-10.1471444,123.6522958,https://maps.google.com/?cid=0x0:0x1032b52afbada3ff,
hardware store,Pemasok Pipa,CERIA BANGUNAN,"VM7G+C8X, Lasiana, Kec. Klp. Lima, Kota Kupang, Nusa Tenggara Tim.","Kota Kupang, Nusa Tenggara Tim.",NUSA TENGGARA TIMUR,,Indonesia,82144952239.0,,,-10.1363903,123.6758528,https://maps.google.com/?cid=0x0:0xfe4ad65fc4695b0c,
hardware store,Servis Komputer,Computername,"Sebelum, Jl. TPU Liliba, Naimata, Kec. Oebobo, Kota Kupang, Nusa Tenggara Tim. 85142","Jl. TPU Liliba, Naimata, Kec. Oebobo, Kota Kupang",NUSA TENGGARA TIMUR,85142.0,Indonesia,87711299303.0,,,-10.1689193,123.6437766,https://maps.google.com/?cid=0x0:0xe29792b8c681f911,
hardware store,Toko,Toko Bangunan Dua Putra,"RJ3F+JX7, Maulafa, Kec. Maulafa, Kota Kupang, Nusa Tenggara Tim.","Kota Kupang, Nusa Tenggara Tim.",NUSA TENGGARA TIMUR,,Indonesia,,,,-10.1959668,123.6249153,https://maps.google.com/?cid=0x0:0x79a0dddd14411f17,
hardware store,Toko Bahan Bangunan,Putra bangunan oetalu,"RMHX+65F, Penfui Tim., Kec. Kupang Tengah, Kabupaten Kupang, Nusa Tenggara Tim.","Kabupaten Kupang, Nusa Tenggara Tim.",NUSA TENGGARA TIMUR,,Indonesia,,,,-10.1712033,123.6977781,https://maps.google.com/?cid=0x0:0xe7d7ea4d8b2bb65b,
hardware store,Toko Bahan Bangunan,TB Bangkit Nusantara,"RM5C+FVV, Baumata, Kec. Taebenu, Kabupaten Kupang, Nusa Tenggara Tim.","Kabupaten Kupang, Nusa Tenggara Tim.",NUSA TENGGARA TIMUR,,Indonesia,81225437157.0,,,-10.1915466,123.6714706,https://maps.google.com/?cid=0x0:0xe16d12adadc4da46,
hardware store,Toko Bahan Bangunan,Sinar Bangunan Building Center,"Jl. Bund. PU No.12, Tuak Daun Merah, Kec. Oebobo, Kota Kupang, Nusa Tenggara Tim. 85228","Tuak Daun Merah, Kec. Oebobo, Kota Kupang",NUSA TENGGARA TIMUR,85228.0,Indonesia,81236648694.0,,,-10.1675355,123.6289538,https://maps.google.com/?cid=0x0:0x8b34913a09e207d2,
hardware store,Toko Bahan Bangunan,Toko Karunia Indah,"Oesao, Kec. Kupang Tim., Kabupaten Kupang, Nusa Tenggara Tim.","Kabupaten Kupang, Nusa Tenggara Tim.",NUSA TENGGARA TIMUR,,Indonesia,81339115500.0,,,-10.1164267,123.810462,https://maps.google.com/?cid=0x0:0xe2b8564416118add,
hardware store,Toko Bahan Bangunan,Toko Sumber Bangunan,"Jl. Oesao - Bokong No.Km. 28, Oesao, Kec. Kupang Tim., Kabupaten Kupang, Nusa Tenggara Tim.","Kabupaten Kupang, Nusa Tenggara Tim.",NUSA TENGGARA TIMUR,,Indonesia,81236427744.0,,,-10.1167107,123.8112814,https://maps.google.com/?cid=0x0:0x29d575d1a4a441ac,
hardware store,Toko,Berlian's Buah,"Jl. Terusan Timor Raya No.28, Oesao, Kec. Kupang Tim., Kabupaten Kupang, Nusa Tenggara Tim. 85362","Oesao, Kec. Kupang Tim., Kabupaten Kupang",NUSA TENGGARA TIMUR,85362.0,Indonesia,85792596350.0,,,-10.1158433,123.808555,https://maps.google.com/?cid=0x0:0x681e3f242179b50b,
hardware store,hardware store,Kec. Fatuleu,"Kabupaten Kupang, Nusa Tenggara Tim.","Kabupaten Kupang, Nusa Tenggara Tim.",NUSA TENGGARA TIMUR,,Indonesia,,,,-10.042412,123.9233971,https://maps.google.com/?cid=0x0:0x75aafd859cde3cf5,
hardware store,Toko Bahan Bangunan,Batako press JENERVI,"Sillu, Kec. Fatuleu, Kabupaten Kupang, Nusa Tenggara Tim. 85363","Kec. Fatuleu, Kabupaten Kupang",NUSA TENGGARA TIMUR,85363.0,Indonesia,87777345358.0,,,-10.0472683,123.9817018,https://maps.google.com/?cid=0x0:0x2c163f28c1619827,
hardware store,Toko Alat Tulis,Carissa fotocopy,"Sillu, Kec. Fatuleu, Kabupaten Kupang, Nusa Tenggara Tim. 85363","Kec. Fatuleu, Kabupaten Kupang",NUSA TENGGARA TIMUR,85363.0,Indonesia,85337512394.0,,,-10.0385309,124.0530042,https://maps.google.com/?cid=0x0:0xc906788188635b9e,
hardware store,hardware store,Toko Garden Motor Takari,"22HX+FR8, Takari, Kec. Takari, Kabupaten Kupang, Nusa Tenggara Tim.","Kabupaten Kupang, Nusa Tenggara Tim.",NUSA TENGGARA TIMUR,,Indonesia,,,,-9.9713497,124.0495727,https://maps.google.com/?cid=0x0:0xeeeb90d39dd4bef8,
hardware store,hardware store,Kec. Takari,"Kabupaten Kupang, Nusa Tenggara Tim.","Kabupaten Kupang, Nusa Tenggara Tim.",NUSA TENGGARA TIMUR,,Indonesia,,,,-9.7928801,123.9401161,https://maps.google.com/?cid=0x0:0x979988727df5682,
hardware store,Toko Bahan Bangunan,Batako press JENERVI,"Sillu, Kec. Fatuleu, Kabupaten Kupang, Nusa Tenggara Tim. 85363","Kec. Fatuleu, Kabupaten Kupang",NUSA TENGGARA TIMUR,85363.0,Indonesia,87777345358.0,,,-10.0472683,123.9817018,https://maps.google.com/?cid=0x0:0x2c163f28c1619827,
hardware store,Toko Bahan Bangunan,Kiong Joung Hardware Sdn. Bhd,"First Floor, 64-67, Pusat Pedada, Taman Seduan 8, 96000 Sibu, Sarawak, Malaysia",Sibu,NUSA TENGGARA TIMUR,96000.0,Indonesia,6084311699.0,,,2.3126999,111.8460788,https://maps.google.com/?cid=0x0:0x772f7978377d193a,
hardware store,Toko Bahan Bangunan,TK Hardware,"Lorong Tunku Abdul Rahman 6, Pekan Sibu, 96000 Sibu, Sarawak, Malaysia",Sibu,NUSA TENGGARA TIMUR,96000.0,Indonesia,60198593637.0,,,2.3055797,111.8638679,https://maps.google.com/?cid=0x0:0xa9783f0e0223bf67,
hardware store,hardware store,Kec. Amfoang Sel.,"Kabupaten Kupang, Nusa Tenggara Tim.","Kabupaten Kupang, Nusa Tenggara Tim.",NUSA TENGGARA TIMUR,,Indonesia,,,,-9.7045438,123.9577285,https://maps.google.com/?cid=0x0:0xd7859a64400c8b5c,
hardware store,hardware store,Kec. Amfoang Utara,"Kabupaten Kupang, Nusa Tenggara Tim.","Kabupaten Kupang, Nusa Tenggara Tim.",NUSA TENGGARA TIMUR,,Indonesia,,,,-9.4932861,123.8346956,https://maps.google.com/?cid=0x0:0xdaf20ecf9b5428b,
hardware store,hardware store,Kec. Nekamese,"Kabupaten Kupang, Nusa Tenggara Tim.","Kabupaten Kupang, Nusa Tenggara Tim.",NUSA TENGGARA TIMUR,,Indonesia,,,,-10.2347889,123.6370371,https://maps.google.com/?cid=0x0:0x565669aa9e267387,
hardware store,Toko Komputer,Kharisma Stationery Kupang,"Oebobo, Kec. Oebobo, Kota Kupang, Nusa Tenggara Tim. 85111","Kec. Oebobo, Kota Kupang",NUSA TENGGARA TIMUR,85111.0,Indonesia,8113834560.0,,,-10.1696813,123.6063519,https://maps.google.com/?cid=0x0:0x4c6bbb6f898cdafe,
hardware store,Toko bahan makanan,Toko Nn,"RHH7+7RF, Nunbaun Sabu, Kec. Alak, Kota Kupang, Nusa Tenggara Tim.","Kota Kupang, Nusa Tenggara Tim.",NUSA TENGGARA TIMUR,,Indonesia,,,,-10.1718022,123.5645522,https://maps.google.com/?cid=0x0:0x3816312ffa44036b,
hardware store,Toko Bahan Bangunan,Tambahkan nimor telepon,"QJR7+FHJ, Jalur XL, Sikumana, Kec. Maulafa, Kota Kupang, Nusa Tenggara Tim.","Kota Kupang, Nusa Tenggara Tim.",NUSA TENGGARA TIMUR,,Indonesia,,,,-10.2087906,123.6138907,https://maps.google.com/?cid=0x0:0xf69cd383eff96abd,
hardware store,Toko Bahan Bangunan,Toko BERKAT BANGUNAN,"QHJX+XF3, Jalur XL, Fatukoa, Kec. Maulafa, Kota Kupang, Nusa Tenggara Tim.","Kota Kupang, Nusa Tenggara Tim.",NUSA TENGGARA TIMUR,,Indonesia,,,,-10.2176046,123.5986845,https://maps.google.com/?cid=0x0:0xd3c300c1b348927a,
hardware store,Toko Mebel,MRD Mebeler,"QJCM+G87, Jl. H.R. Koroh, Oelomin, Kec. Nekamese, Kabupaten Kupang, Nusa Tenggara Tim.","Kabupaten Kupang, Nusa Tenggara Tim.",NUSA TENGGARA TIMUR,,Indonesia,,,,-10.2287233,123.6333045,https://maps.google.com/?cid=0x0:0x1f25d80ba681e80f,
hardware store,Toko Bahan Bangunan,Venician Bangunan,"QJMG+74C, Jl. H.R. Koroh, Bello, Kec. Maulafa, Kota Kupang, Nusa Tenggara Tim.","Kota Kupang, Nusa Tenggara Tim.",NUSA TENGGARA TIMUR,,Indonesia,81386729122.0,,,-10.2168098,123.6252607,https://maps.google.com/?cid=0x0:0x2783664e590c1547,
hardware store,Toko Perlengkapan Rumah,Ester Bangunan,"Jl. Alfons Nisnoni No.48, Manulai II, Kec. Alak, Kota Kupang, Nusa Tenggara Tim.","Kota Kupang, Nusa Tenggara Tim.",NUSA TENGGARA TIMUR,,Indonesia,85858285395.0,,,-10.211763,123.5756845,https://maps.google.com/?cid=0x0:0xfa8d13fddf7fe10d,
hardware store,Toko Bahan Bangunan,Toko Istana Bangunan,"Jl. Fetor Funay, Maulafa, Kec. Maulafa, Kota Kupang, Nusa Tenggara Tim. 85142","Maulafa, Kec. Maulafa, Kota Kupang",NUSA TENGGARA TIMUR,85142.0,Indonesia,82144819519.0,,,-10.1865612,123.6125505,https://maps.google.com/?cid=0x0:0x21756a783c212384,
hardware store,Toko Bahan Bangunan,Sinar Bangunan Building Mart,"Jl. Yos Sudarso No.177, Namosain, Kec. Alak, Kota Kupang, Nusa Tenggara Tim.","Kota Kupang, Nusa Tenggara Tim.",NUSA TENGGARA TIMUR,,Indonesia,81238941314.0,,,-10.1916248,123.5407476,https://maps.google.com/?cid=0x0:0x411fca6242be55fc,
hardware store,Toko,Toko Bangunan Dua Putra,"RJ3F+JX7, Maulafa, Kec. Maulafa, Kota Kupang, Nusa Tenggara Tim.","Kota Kupang, Nusa Tenggara Tim.",NUSA TENGGARA TIMUR,,Indonesia,,,,-10.1959668,123.6249153,https://maps.google.com/?cid=0x0:0x79a0dddd14411f17,
hardware store,Toko Bahan Bangunan,UD. Mitra Bangunan Alak,"QGXJ+VV8, Alak, Kec. Alak, Kota Kupang, Nusa Tenggara Tim.","Kota Kupang, Nusa Tenggara Tim.",NUSA TENGGARA TIMUR,,Indonesia,82146656359.0,,,-10.200344,123.5322128,https://maps.google.com/?cid=0x0:0x82916be3be78cceb,
hardware store,Toko Bahan Bangunan,Toko Pondok Gede,"Jl. Alfons Nisnoni No.3, Bakunase, Kec. Kota Raja, Kota Kupang, Nusa Tenggara Tim.","Kota Kupang, Nusa Tenggara Tim.",NUSA TENGGARA TIMUR,,Indonesia,,,,-10.1833864,123.586717,https://maps.google.com/?cid=0x0:0xd3bc3b4da13cee75,
hardware store,Toko Bahan Bangunan,Mitra Bangunan,"RJFC+7G2, Oebufu, Kec. Oebobo, Kota Kupang, Nusa Tenggara Tim.","Kota Kupang, Nusa Tenggara Tim.",NUSA TENGGARA TIMUR,,Indonesia,,,,-10.1768587,123.6212559,https://maps.google.com/?cid=0x0:0x2ab5092f83e85fa4,
hardware store,Toko Bahan Bangunan,TOKO FEARDI JAYA,"Jl. Haukoto Jalur XL, Fatukoa, Kec. Maulafa, Kota Kupang, Nusa Tenggara Tim.","Kota Kupang, Nusa Tenggara Tim.",NUSA TENGGARA TIMUR,,Indonesia,82146532475.0,,,-10.2177584,123.6013952,https://maps.google.com/?cid=0x0:0xf3b694e4f3e4d87a,
hardware store,Toko Alat Dapur,Toko Naga Mas,"Jl. Fetor Funay No.Kav.9, Kolhua, Kec. Maulafa, Kota Kupang, Nusa Tenggara Tim. 85142","Kolhua, Kec. Maulafa, Kota Kupang",NUSA TENGGARA TIMUR,85142.0,Indonesia,87784072534.0,,,-10.1979962,123.626436,https://maps.google.com/?cid=0x0:0x297d772d88197598,
hardware store,Toko Perlengkapan Rumah,MR.DIY,"Jl. Amabi No.54, Oepura, Kec. Maulafa, Kota Kupang, Nusa Tenggara Tim. 85142","Oepura, Kec. Maulafa, Kota Kupang",NUSA TENGGARA TIMUR,85142.0,Indonesia,,,,-10.186794,123.6115653,https://maps.google.com/?cid=0x0:0x8085f0372555a075,
hardware store,Toko Bahan Bangunan,Bukit Bangunan,"QJR7+9JW, Sikumana, Kec. Maulafa, Kota Kupang, Nusa Tenggara Tim.","Kota Kupang, Nusa Tenggara Tim.",NUSA TENGGARA TIMUR,,Indonesia,85237621174.0,,,-10.2090111,123.6140833,https://maps.google.com/?cid=0x0:0xcc40ac3643c9137e,
hardware store,Toko Bahan Bangunan,Satu Harapan (Om Do),"Jl. Oe Ekam No.12, Sikumana, Kec. Maulafa, Kota Kupang, Nusa Tenggara Tim. 85142","Sikumana, Kec. Maulafa, Kota Kupang",NUSA TENGGARA TIMUR,85142.0,Indonesia,,,,-10.2046731,123.6063937,https://maps.google.com/?cid=0x0:0x1c5d9387ea939a7f,
hardware store,Toko Perlengkapan Rumah,Kharisma Home  Kitchen Kupang,"Jl. W.J. Lalamentik No.76, Oebobo, Kec. Oebobo, Kota Kupang, Nusa Tenggara Tim. 85111","Oebobo, Kec. Oebobo, Kota Kupang",NUSA TENGGARA TIMUR,85111.0,Indonesia,8113834560.0,,,-10.1693949,123.6061406,https://maps.google.com/?cid=0x0:0x44c5c0b25edc6c92,
hardware store,Toko Bahan Bangunan,UD. PUTRA NIAS BATAKO,"RH67+288, Jl. Banobe RT 8 RW 3 Perumahan Korem 2, Kel, Jl. Penkase Jl. Oeleta Raya, Alak, Kec. Alak, Kota Kupang, Nusa Tenggara Tim.","Kota Kupang, Nusa Tenggara Tim.",NUSA TENGGARA TIMUR,,Indonesia,81339174200.0,,,-10.1895315,123.5626347,https://maps.google.com/?cid=0x0:0xb4a90734af4e4588,
hardware store,Toko Bahan Bangunan,Sinar Bangunan Building Center,"Jl. Bund. PU No.12, Tuak Daun Merah, Kec. Oebobo, Kota Kupang, Nusa Tenggara Tim. 85228","Tuak Daun Merah, Kec. Oebobo, Kota Kupang",NUSA TENGGARA TIMUR,85228.0,Indonesia,81236648694.0,,,-10.1675355,123.6289538,https://maps.google.com/?cid=0x0:0x8b34913a09e207d2,
hardware store,Toko Bahan Bangunan,SURYA BANGUNAN BUILDING MATERIAL,"Tuak Daun Merah, Kec. Oebobo, Kota Kupang, Nusa Tenggara Tim. 85228","Kec. Oebobo, Kota Kupang",NUSA TENGGARA TIMUR,85228.0,Indonesia,85101757906.0,,,-10.1673497,123.6293264,https://maps.google.com/?cid=0x0:0xadd57bf60a816b00,
hardware store,hardware store,Kec. Amarasi Bar.,"Kabupaten Kupang, Nusa Tenggara Tim.","Kabupaten Kupang, Nusa Tenggara Tim.",NUSA TENGGARA TIMUR,,Indonesia,,,,-10.2967953,123.7215253,https://maps.google.com/?cid=0x0:0xf00f5af6747f20a8,
hardware store,Toko,Toko Bangunan Dua Putra,"RJ3F+JX7, Maulafa, Kec. Maulafa, Kota Kupang, Nusa Tenggara Tim.","Kota Kupang, Nusa Tenggara Tim.",NUSA TENGGARA TIMUR,,Indonesia,,,,-10.1959668,123.6249153,https://maps.google.com/?cid=0x0:0x79a0dddd14411f17,
hardware store,hardware store,Kec. Amarasi Sel.,"Kabupaten Kupang, Nusa Tenggara Tim.","Kabupaten Kupang, Nusa Tenggara Tim.",NUSA TENGGARA TIMUR,,Indonesia,,,,-10.2893836,123.8500476,https://maps.google.com/?cid=0x0:0x36c1919b18a6d11b,
hardware store,Toko Bahan Bangunan,"AKLAN Hardware, Electrical  Auto Supply","6398+5JG, Polomolok, South Cotabato, Filipina","Polomolok, South Cotabato, Filipina",NUSA TENGGARA TIMUR,,Indonesia,,,,6.2179949,125.0665626,https://maps.google.com/?cid=0x0:0x7a0dd5e6b0f72d62,
hardware store,Toko Bahan Bangunan,Palkan Hardware,"Purok 2, Polomolok, 9504 South Cotabato, Filipina","Polomolok, South Cotabato, Filipina",NUSA TENGGARA TIMUR,,Indonesia,639104767412.0,,,6.2906028,125.0344601,https://maps.google.com/?cid=0x0:0xa552121f5be7b65c,
hardware store,hardware store,Kec. Amarasi Tim.,"Kabupaten Kupang, Nusa Tenggara Tim.","Kabupaten Kupang, Nusa Tenggara Tim.",NUSA TENGGARA TIMUR,,Indonesia,,,,-10.1884143,124.0399714,https://maps.google.com/?cid=0x0:0xcfce44e562bbc585,
hardware store,hardware store,"Tanjung Batu Putih, Rium, Amarasi Timur","Desa Rium, Kec. Amarasi Tim., Kabupaten Kupang, Nusa Tenggara Tim.","Kabupaten Kupang, Nusa Tenggara Tim.",NUSA TENGGARA TIMUR,,Indonesia,,,,-10.2174046,124.0824853,https://maps.google.com/?cid=0x0:0x2de2bb253c5cdb12,
hardware store,hardware store,Kec. Amabi Oefeto Tim.,"Kabupaten Kupang, Nusa Tenggara Tim.","Kabupaten Kupang, Nusa Tenggara Tim.",NUSA TENGGARA TIMUR,,Indonesia,,,,-10.0873901,124.1180524,https://maps.google.com/?cid=0x0:0x2bf877a32d0b46c2,
hardware store,Toko Bahan Bangunan,Batako press JENERVI,"Sillu, Kec. Fatuleu, Kabupaten Kupang, Nusa Tenggara Tim. 85363","Kec. Fatuleu, Kabupaten Kupang",NUSA TENGGARA TIMUR,85363.0,Indonesia,87777345358.0,,,-10.0472683,123.9817018,https://maps.google.com/?cid=0x0:0x2c163f28c1619827,
hardware store,hardware store,UD BINTANG TIMUR,"Jalan Timor Raya No.Km. 68, Takari, Kec. Takari, Kabupaten Kupang, Nusa Tenggara Tim. 85369","Takari, Kec. Takari, Kabupaten Kupang",NUSA TENGGARA TIMUR,85369.0,Indonesia,,,,-9.9719278,124.0527691,https://maps.google.com/?cid=0x0:0x6aacdf29482a03c1,
hardware store,hardware store,Kec. Amfoang Bar. Daya,"Kabupaten Kupang, Nusa Tenggara Tim.","Kabupaten Kupang, Nusa Tenggara Tim.",NUSA TENGGARA TIMUR,,Indonesia,,,,-9.6609814,123.6813389,https://maps.google.com/?cid=0x0:0x1fdc15a48159a2bc,
hardware store,Toko Bahan Bangunan,Sinar Bangunan Building Center,"Jl. Bund. PU No.12, Tuak Daun Merah, Kec. Oebobo, Kota Kupang, Nusa Tenggara Tim. 85228","Tuak Daun Merah, Kec. Oebobo, Kota Kupang",NUSA TENGGARA TIMUR,85228.0,Indonesia,81236648694.0,,,-10.1675355,123.6289538,https://maps.google.com/?cid=0x0:0x8b34913a09e207d2,
hardware store,hardware store,Gudang shop,"RSS Baumata blok Q no 15, Baumata Bar., Kec. Taebenu, Kabupaten Kupang, Nusa Tenggara Tim. 85361","Baumata Bar., Kec. Taebenu, Kabupaten Kupang",NUSA TENGGARA TIMUR,85361.0,Indonesia,81289697803.0,,,-10.1885888,123.6650412,https://maps.google.com/?cid=0x0:0xf5c8fe34f5200896,
hardware store,hardware store,Kec. Amfoang Bar. Laut,"Kabupaten Kupang, Nusa Tenggara Tim.","Kabupaten Kupang, Nusa Tenggara Tim.",NUSA TENGGARA TIMUR,,Indonesia,,,,-9.5657493,123.7567726,https://maps.google.com/?cid=0x0:0xda8148623839fa68,
hardware store,Toko Bahan Bangunan,Sinar Bangunan Building Center,"Jl. Bund. PU No.12, Tuak Daun Merah, Kec. Oebobo, Kota Kupang, Nusa Tenggara Tim. 85228","Tuak Daun Merah, Kec. Oebobo, Kota Kupang",NUSA TENGGARA TIMUR,85228.0,Indonesia,81236648694.0,,,-10.1675355,123.6289538,https://maps.google.com/?cid=0x0:0x8b34913a09e207d2,
hardware store,hardware store,Gudang shop,"RSS Baumata blok Q no 15, Baumata Bar., Kec. Taebenu, Kabupaten Kupang, Nusa Tenggara Tim. 85361","Baumata Bar., Kec. Taebenu, Kabupaten Kupang",NUSA TENGGARA TIMUR,85361.0,Indonesia,81289697803.0,,,-10.1885888,123.6650412,https://maps.google.com/?cid=0x0:0xf5c8fe34f5200896,
hardware store,Toko Perlengkapan Rumah,Meru Hardware  Machinery,"8, Lorong Mahang 1, Taman Mutiara, Batu 5 1/2, Meru, 41050 Klang, Selangor, Malaysia",Klang,NUSA TENGGARA TIMUR,41050.0,Indonesia,60333920886.0,,,3.1288814,101.4406293,https://maps.google.com/?cid=0x0:0x5093e269f42935b2,
hardware store,hardware store,Kec. Semau Sel.,"Kabupaten Kupang, Nusa Tenggara Tim.","Kabupaten Kupang, Nusa Tenggara Tim.",NUSA TENGGARA TIMUR,,Indonesia,,,,-10.2714559,123.349342,https://maps.google.com/?cid=0x0:0x8a6e41268e3d5752,
hardware store,hardware store,Kec. Taebenu,"Kabupaten Kupang, Nusa Tenggara Tim.","Kabupaten Kupang, Nusa Tenggara Tim.",NUSA TENGGARA TIMUR,,Indonesia,,,,-10.185971,123.6696267,https://maps.google.com/?cid=0x0:0x6bc98ae88a05468a,
hardware store,Toko Bahan Bangunan,Pojok Oetalu,"RMHX+476, Unnamed Road, Penfui Tim., Kec. Kupang Tengah, Kabupaten Kupang, Nusa Tenggara Tim.","Kabupaten Kupang, Nusa Tenggara Tim.",NUSA TENGGARA TIMUR,,Indonesia,,,,-10.1722072,123.6981442,https://maps.google.com/?cid=0x0:0x7466191732251263,
hardware store,Toko Bahan Bangunan,TB Bangkit Nusantara,"RM5C+FVV, Baumata, Kec. Taebenu, Kabupaten Kupang, Nusa Tenggara Tim.","Kabupaten Kupang, Nusa Tenggara Tim.",NUSA TENGGARA TIMUR,,Indonesia,81225437157.0,,,-10.1915466,123.6714706,https://maps.google.com/?cid=0x0:0xe16d12adadc4da46,
hardware store,Toko Perlengkapan Rumah,Berbelanja hemat hanya di MR.DIY,"Hyperstore Kupang, Jl. Bund. PU No.48-50 Lt. 1, Tuak Daun Merah, Kec. Oebobo, Kota Kupang, Nusa Tenggara Tim. 85111","Jl. Bund. PU No.48-50 Lt. 1, Tuak Daun Merah, Kec. Oebobo, Kota Kupang",NUSA TENGGARA TIMUR,85111.0,Indonesia,2130022789.0,,,-10.1626253,123.6310348,https://maps.google.com/?cid=0x0:0xbce3e9ae76e721bd,
hardware store,Servis Komputer,Computername,"Sebelum, Jl. TPU Liliba, Naimata, Kec. Oebobo, Kota Kupang, Nusa Tenggara Tim. 85142","Jl. TPU Liliba, Naimata, Kec. Oebobo, Kota Kupang",NUSA TENGGARA TIMUR,85142.0,Indonesia,87711299303.0,,,-10.1689193,123.6437766,https://maps.google.com/?cid=0x0:0xe29792b8c681f911,
hardware store,Toko Bahan Bangunan,Sinar Bangunan Building Center,"Jl. Bund. PU No.12, Tuak Daun Merah, Kec. Oebobo, Kota Kupang, Nusa Tenggara Tim. 85228","Tuak Daun Merah, Kec. Oebobo, Kota Kupang",NUSA TENGGARA TIMUR,85228.0,Indonesia,81236648694.0,,,-10.1675355,123.6289538,https://maps.google.com/?cid=0x0:0x8b34913a09e207d2,
hardware store,Toko Bahan Bangunan,BSS Bangunan Kupang,"Jl. Piet A. Tallo, Liliba, Kec. Oebobo, Kota Kupang, Nusa Tenggara Tim.","Kota Kupang, Nusa Tenggara Tim.",NUSA TENGGARA TIMUR,,Indonesia,,,,-10.1574578,123.638677,https://maps.google.com/?cid=0x0:0x61cf2d9b0ef46005,
hardware store,Toko Bahan Bangunan,Toko Duta Timor,"VM32+4WV, Jl. Terusan Timor Raya, Oesapa, Kec. Klp. Lima, Kota Kupang, Nusa Tenggara Tim.","Kota Kupang, Nusa Tenggara Tim.",NUSA TENGGARA TIMUR,,Indonesia,380881867.0,,,-10.1471444,123.6522958,https://maps.google.com/?cid=0x0:0x1032b52afbada3ff,
hardware store,Toko Bahan Bangunan,SURYA BANGUNAN BUILDING MATERIAL,"Tuak Daun Merah, Kec. Oebobo, Kota Kupang, Nusa Tenggara Tim. 85228","Kec. Oebobo, Kota Kupang",NUSA TENGGARA TIMUR,85228.0,Indonesia,85101757906.0,,,-10.1673497,123.6293264,https://maps.google.com/?cid=0x0:0xadd57bf60a816b00,
hardware store,Toko,Toko Bangunan Dua Putra,"RJ3F+JX7, Maulafa, Kec. Maulafa, Kota Kupang, Nusa Tenggara Tim.","Kota Kupang, Nusa Tenggara Tim.",NUSA TENGGARA TIMUR,,Indonesia,,,,-10.1959668,123.6249153,https://maps.google.com/?cid=0x0:0x79a0dddd14411f17,
hardware store,hardware store,James Home,"RMPQ+8Q6, Penfui Tim., Kec. Kupang Tengah, Kabupaten Kupang, Nusa Tenggara Tim.","Kabupaten Kupang, Nusa Tenggara Tim.",NUSA TENGGARA TIMUR,,Indonesia,,,,-10.1641642,123.6894962,https://maps.google.com/?cid=0x0:0xed7ddff2531898f,
hardware store,Toko Bahan Bangunan,Tb.Karya Bangunan,"Oebufu, Kec. Oebobo, Kota Kupang, Nusa Tenggara Tim.","Kota Kupang, Nusa Tenggara Tim.",NUSA TENGGARA TIMUR,,Indonesia,,,,-10.1739967,123.6283502,https://maps.google.com/?cid=0x0:0xf6cd9ebe067317c6,
hardware store,Toko Bahan Bangunan,Putra bangunan oetalu,"RMHX+65F, Penfui Tim., Kec. Kupang Tengah, Kabupaten Kupang, Nusa Tenggara Tim.","Kabupaten Kupang, Nusa Tenggara Tim.",NUSA TENGGARA TIMUR,,Indonesia,,,,-10.1712033,123.6977781,https://maps.google.com/?cid=0x0:0xe7d7ea4d8b2bb65b,
hardware store,Pemasok Pipa,Toko Buana Bangunan,"Lasiana, Kec. Klp. Lima, Kota Kupang, Nusa Tenggara Tim.","Kota Kupang, Nusa Tenggara Tim.",NUSA TENGGARA TIMUR,,Indonesia,82244376888.0,,,-10.1373266,123.6764484,https://maps.google.com/?cid=0x0:0x9fc6cad7dda4e71a,
hardware store,Toko Alat Tulis,Osher FotoCopier,"Jl. Taebenu, RT.012/RW.004, Naimata, Kec. Maulafa, Kota Kupang, Nusa Tenggara Tim. 85417","RT.012/RW.004, Naimata, Kec. Maulafa, Kota Kupang",NUSA TENGGARA TIMUR,85417.0,Indonesia,82244567829.0,,,-10.1776933,123.644799,https://maps.google.com/?cid=0x0:0x7c3173a0d3188fb1,
hardware store,Toko Bahan Bangunan,Toko Graha Bangunan,"Gedung Graha Ariadi, Oesapa Bar., Kec. Klp. Lima, Kota Kupang, Nusa Tenggara Tim. 85228","Oesapa Bar., Kec. Klp. Lima, Kota Kupang",NUSA TENGGARA TIMUR,85228.0,Indonesia,81312893723.0,,,-10.1468703,123.631267,https://maps.google.com/?cid=0x0:0x4167d73ee95fc845,
hardware store,Toko Bahan Bangunan,Mitra Bangunan,"RJFC+7G2, Oebufu, Kec. Oebobo, Kota Kupang, Nusa Tenggara Tim.","Kota Kupang, Nusa Tenggara Tim.",NUSA TENGGARA TIMUR,,Indonesia,,,,-10.1768587,123.6212559,https://maps.google.com/?cid=0x0:0x2ab5092f83e85fa4,
hardware store,Toko Bahan Bangunan,Venician Bangunan,"QJMG+74C, Jl. H.R. Koroh, Bello, Kec. Maulafa, Kota Kupang, Nusa Tenggara Tim.","Kota Kupang, Nusa Tenggara Tim.",NUSA TENGGARA TIMUR,,Indonesia,81386729122.0,,,-10.2168098,123.6252607,https://maps.google.com/?cid=0x0:0x2783664e590c1547,
hardware store,Toko Bahan Bangunan,Toko Bangunan Jaya,"Jl. Terusan Timor Raya No.9u KM. 6, Oesapa Bar., Kec. Klp. Lima, Kota Kupang, Nusa Tenggara Tim.","Kota Kupang, Nusa Tenggara Tim.",NUSA TENGGARA TIMUR,,Indonesia,81338567839.0,,,-10.14441,123.6254719,https://maps.google.com/?cid=0x0:0x4a94c89160bbe62c,
hardware store,Toko Bahan Bangunan,MR.DIY,"Jl. Terusan Timor Raya No.44, Oesapa, Kec. Klp. Lima, Kota Kupang, Nusa Tenggara Tim. 85228","Oesapa, Kec. Klp. Lima, Kota Kupang",NUSA TENGGARA TIMUR,85228.0,Indonesia,2130022789.0,,,-10.1426486,123.6598007,https://maps.google.com/?cid=0x0:0x4faf19da2c512ac0,
hardware store,Toko Bahan Bangunan,MIKS,"RJHR+FR8, Liliba, Kec. Oebobo, Kota Kupang, Nusa Tenggara Tim.","Kota Kupang, Nusa Tenggara Tim.",NUSA TENGGARA TIMUR,,Indonesia,,,,-10.1713334,123.642078,https://maps.google.com/?cid=0x0:0xb08c9dd95cd04e98,
hardware store,Toko Bahan Bangunan,PT. Makmur Abadi Bangunan,"Jl. Terusan Timor Raya No.Km 9, Oesapa, Kec. Klp. Lima, Kota Kupang, Nusa Tenggara Tim. 85228","Oesapa, Kec. Klp. Lima, Kota Kupang",NUSA TENGGARA TIMUR,85228.0,Indonesia,81367756504.0,,,-10.1446954,123.6559765,https://maps.google.com/?cid=0x0:0x7abc85a224f4ba37,
hardware store,Toko Bahan Bangunan,Toko Karunia Indah,"Oesao, Kec. Kupang Tim., Kabupaten Kupang, Nusa Tenggara Tim.","Kabupaten Kupang, Nusa Tenggara Tim.",NUSA TENGGARA TIMUR,,Indonesia,81339115500.0,,,-10.1164267,123.810462,https://maps.google.com/?cid=0x0:0xe2b8564416118add,
hardware store,Toko Bahan Bangunan,Toko Sumber Bangunan,"Jl. Oesao - Bokong No.Km. 28, Oesao, Kec. Kupang Tim., Kabupaten Kupang, Nusa Tenggara Tim.","Kabupaten Kupang, Nusa Tenggara Tim.",NUSA TENGGARA TIMUR,,Indonesia,81236427744.0,,,-10.1167107,123.8112814,https://maps.google.com/?cid=0x0:0x29d575d1a4a441ac,
hardware store,Toko,Berlian's Buah,"Jl. Terusan Timor Raya No.28, Oesao, Kec. Kupang Tim., Kabupaten Kupang, Nusa Tenggara Tim. 85362","Oesao, Kec. Kupang Tim., Kabupaten Kupang",NUSA TENGGARA TIMUR,85362.0,Indonesia,85792596350.0,,,-10.1158433,123.808555,https://maps.google.com/?cid=0x0:0x681e3f242179b50b,
hardware store,Toko Bahan Bangunan,OKEY Bangunan,"WR2Q+35X, Jl. Oesao - Bokong, Naibonat, Kec. Kupang Tim., Kabupaten Kupang, Nusa Tenggara Tim.","Kabupaten Kupang, Nusa Tenggara Tim.",NUSA TENGGARA TIMUR,,Indonesia,,,,-10.0997587,123.8379763,https://maps.google.com/?cid=0x0:0x36219aa94fbdb9c5,
hardware store,Sekolah Menengah Umum,SMAN 1 AMABI OEFETO,"naek, Jln. Dusun 5 Hu, Fatuknutu, Amabi Oefeto, Kupang Regency, East Nusa Tenggara","Kabupaten Kupang, Nusa Tenggara Tim.",NUSA TENGGARA TIMUR,,Indonesia,,,,-10.153293,123.9130351,https://maps.google.com/?cid=0x0:0x86eded4fa8eeace9,
hardware store,hardware store,Kec. Amabi Oefeto,"Kabupaten Kupang, Nusa Tenggara Tim.","Kabupaten Kupang, Nusa Tenggara Tim.",NUSA TENGGARA TIMUR,,Indonesia,,,,-10.1605797,123.9166446,https://maps.google.com/?cid=0x0:0x3f81553105541146,
hardware store,Toko Bahan Bangunan,OKEY Bangunan,"WR2Q+35X, Jl. Oesao - Bokong, Naibonat, Kec. Kupang Tim., Kabupaten Kupang, Nusa Tenggara Tim.","Kabupaten Kupang, Nusa Tenggara Tim.",NUSA TENGGARA TIMUR,,Indonesia,,,,-10.0997587,123.8379763,https://maps.google.com/?cid=0x0:0x36219aa94fbdb9c5,
hardware store,Toko Bahan Bangunan,Toko Karunia Indah,"Oesao, Kec. Kupang Tim., Kabupaten Kupang, Nusa Tenggara Tim.","Kabupaten Kupang, Nusa Tenggara Tim.",NUSA TENGGARA TIMUR,,Indonesia,81339115500.0,,,-10.1164267,123.810462,https://maps.google.com/?cid=0x0:0xe2b8564416118add,
hardware store,Sekolah pendidikan umum,SMAN 1 Amabi Oefeto Timur,"W39J+79P, Nunmafo, Kec. Amabi Oefeto Tim., Kabupaten Kupang, Nusa Tenggara Tim.","Kabupaten Kupang, Nusa Tenggara Tim.",NUSA TENGGARA TIMUR,,Indonesia,85239303442.0,,,-10.0817778,124.0809521,https://maps.google.com/?cid=0x0:0x11a459a18a834e5,
hardware store,Toko Bahan Bangunan,Sinar Bangunan Building Center,"Jl. Bund. PU No.12, Tuak Daun Merah, Kec. Oebobo, Kota Kupang, Nusa Tenggara Tim. 85228","Tuak Daun Merah, Kec. Oebobo, Kota Kupang",NUSA TENGGARA TIMUR,85228.0,Indonesia,81236648694.0,,,-10.1675355,123.6289538,https://maps.google.com/?cid=0x0:0x8b34913a09e207d2,
hardware store,Toko Bahan Bangunan,SURYA BANGUNAN BUILDING MATERIAL,"Tuak Daun Merah, Kec. Oebobo, Kota Kupang, Nusa Tenggara Tim. 85228","Kec. Oebobo, Kota Kupang",NUSA TENGGARA TIMUR,85228.0,Indonesia,85101757906.0,,,-10.1673497,123.6293264,https://maps.google.com/?cid=0x0:0xadd57bf60a816b00,
hardware store,Organisasi Pemuda,Amfoang Timur,"VM4C+37F, Lasiana, Kec. Klp. Lima, Kota Kupang, Nusa Tenggara Tim.","Kota Kupang, Nusa Tenggara Tim.",NUSA TENGGARA TIMUR,,Indonesia,81237467396.0,,,-10.1448009,123.6706639,https://maps.google.com/?cid=0x0:0x972ade66cb60d0fe,
hardware store,hardware store,Kec. Amfoang Tim.,"Kabupaten Kupang, Nusa Tenggara Tim.","Kabupaten Kupang, Nusa Tenggara Tim.",NUSA TENGGARA TIMUR,,Indonesia,,,,-9.3499011,124.0360758,https://maps.google.com/?cid=0x0:0xf7a457ca40e15f12,
hardware store,hardware store,Kec. Fatuleu Bar.,"Kabupaten Kupang, Nusa Tenggara Tim.","Kabupaten Kupang, Nusa Tenggara Tim.",NUSA TENGGARA TIMUR,,Indonesia,,,,-9.8140108,123.6837348,https://maps.google.com/?cid=0x0:0xc974570658fc450d,
hardware store,Tujuan Wisata,GUNUNG FATULEU,"2VW6+WXM, Oelbiteno, Kec. Fatuleu Tengah, Kabupaten Kupang, Nusa Tenggara Tim.","Kabupaten Kupang, Nusa Tenggara Tim.",NUSA TENGGARA TIMUR,,Indonesia,,,,-9.952671,123.8624288,https://maps.google.com/?cid=0x0:0xcb008e5ee4d907ca,
hardware store,Area Mendaki,TAMAN WISATA GUNUNG FATULEU,"2VX6+XGV, Nunsaen, Kec. Fatuleu Tengah, Kabupaten Kupang, Nusa Tenggara Tim.","Kabupaten Kupang, Nusa Tenggara Tim.",NUSA TENGGARA TIMUR,,Indonesia,,,,-9.9500206,123.8612986,https://maps.google.com/?cid=0x0:0x462821fe7414c2eb,
hardware store,Toko Mebel,Azko Lippo Plaza Kupang,"Jl. Veteran RT. 06/05 Fatululi Kec. Oebobo Kota Kupang, Kelapa Lima, Kupang City, East Nusa Tenggara 85111","Kelapa Lima, Kupang City",NUSA TENGGARA TIMUR,85111.0,Indonesia,82146533404.0,,,-10.1591615,123.6109539,https://maps.google.com/?cid=0x0:0xfab5b1bd986ae6f,
hardware store,Toko Perlengkapan Rumah,CV. Ace Plus,"JL Timur Raya No.14, Oeba, Kec. Klp. Lima, Kota Kupang, Nusa Tenggara Tim. 85226","Oeba, Kec. Klp. Lima, Kota Kupang",NUSA TENGGARA TIMUR,85226.0,Indonesia,380824078.0,,,-10.1833922,123.5832341,https://maps.google.com/?cid=0x0:0x33733aba4bd357d1,
hardware store,hardware store,Kec. Fatuleu Tengah,"Kabupaten Kupang, Nusa Tenggara Tim.","Kabupaten Kupang, Nusa Tenggara Tim.",NUSA TENGGARA TIMUR,,Indonesia,,,,-9.9748808,123.8732565,https://maps.google.com/?cid=0x0:0x6e9c74fe0bcfb5a1,
hardware store,hardware store,Amfoang Tengah,"Kabupaten Kupang, Nusa Tenggara Tim.","Kabupaten Kupang, Nusa Tenggara Tim.",NUSA TENGGARA TIMUR,,Indonesia,,,,-9.6750722,124.0082733,https://maps.google.com/?cid=0x0:0x25fa52fbe69e22ce,
toko bangunan,toko bangunan,Nusa Tenggara Tim.,,Nusa Tenggara Tim.,NUSA TENGGARA TIMUR,,Indonesia,,,,-8.6573819,121.0793705,https://maps.google.com/?cid=0x0:0x1030bfbcaf71ae0,
toko bangunan,Toko Bahan Bangunan,Toko Bravo Bangunan,"Jl. Terusan Timor Raya, Pasir Panjang, Kec. Kota Lama, Kota Kupang, Nusa Tenggara Tim. 85000","Pasir Panjang, Kec. Kota Lama, Kota Kupang",NUSA TENGGARA TIMUR,85000.0,Indonesia,81246295800.0,,,-10.1509378,123.6033391,https://maps.google.com/?cid=0x0:0xdf4da131f9948aff,
toko bangunan,Toko Bahan Bangunan,Toko Metro Bangunan,"Jl. Pulau Indah, Oesapa Bar., Kec. Klp. Lima, Kota Kupang, Nusa Tenggara Tim. 85228","Oesapa Bar., Kec. Klp. Lima, Kota Kupang",NUSA TENGGARA TIMUR,85228.0,Indonesia,82164218639.0,,,-10.1488046,123.6344972,https://maps.google.com/?cid=0x0:0x4afb0da23e208afb,
toko bangunan,Toko Bahan Bangunan,Sinar Bangunan Building Center,"Jl. Bund. PU No.12, Tuak Daun Merah, Kec. Oebobo, Kota Kupang, Nusa Tenggara Tim. 85228","Tuak Daun Merah, Kec. Oebobo, Kota Kupang",NUSA TENGGARA TIMUR,85228.0,Indonesia,81236648694.0,,,-10.1675355,123.6289538,https://maps.google.com/?cid=0x0:0x8b34913a09e207d2,
toko bangunan,Toko Bahan Bangunan,Toko Graha Bangunan,"Gedung Graha Ariadi, Oesapa Bar., Kec. Klp. Lima, Kota Kupang, Nusa Tenggara Tim. 85228","Oesapa Bar., Kec. Klp. Lima, Kota Kupang",NUSA TENGGARA TIMUR,85228.0,Indonesia,81312893723.0,,,-10.1468703,123.631267,https://maps.google.com/?cid=0x0:0x4167d73ee95fc845,
toko bangunan,Toko Bahan Bangunan,PT. Makmur Abadi Bangunan,"Jl. Terusan Timor Raya No.Km 9, Oesapa, Kec. Klp. Lima, Kota Kupang, Nusa Tenggara Tim. 85228","Oesapa, Kec. Klp. Lima, Kota Kupang",NUSA TENGGARA TIMUR,85228.0,Indonesia,81367756504.0,,,-10.1446954,123.6559765,https://maps.google.com/?cid=0x0:0x7abc85a224f4ba37,
toko bangunan,Pemasok Pipa,Toko Buana Bangunan,"Lasiana, Kec. Klp. Lima, Kota Kupang, Nusa Tenggara Tim.","Kota Kupang, Nusa Tenggara Tim.",NUSA TENGGARA TIMUR,,Indonesia,82244376888.0,,,-10.1373266,123.6764484,https://maps.google.com/?cid=0x0:0x9fc6cad7dda4e71a,
toko bangunan,Pemasok Bahan Bangunan,Indo Bangunan,"Jl. Taebenu, Liliba, Kec. Oebobo, Kota Kupang, Nusa Tenggara Tim. 85142","Liliba, Kec. Oebobo, Kota Kupang",NUSA TENGGARA TIMUR,85142.0,Indonesia,85198498181.0,,,-10.177757,123.6444948,https://maps.google.com/?cid=0x0:0xe79b41c05f57dec9,
toko bangunan,Toko Bahan Bangunan,Toko bangunan,"VM4C+R79, Lasiana, Kec. Klp. Lima, Kota Kupang, Nusa Tenggara Tim.","Kota Kupang, Nusa Tenggara Tim.",NUSA TENGGARA TIMUR,,Indonesia,,,,-10.142954,123.6707233,https://maps.google.com/?cid=0x0:0xb111458939496520,
toko bangunan,Pemasok Pipa,Toko Bangunan Kim 5,"VM68+QFC, Jl. Terusan Timor Raya, Lasiana, Kec. Klp. Lima, Kota Kupang, Nusa Tenggara Tim.","Kota Kupang, Nusa Tenggara Tim.",NUSA TENGGARA TIMUR,,Indonesia,,,,-10.1380642,123.6661317,https://maps.google.com/?cid=0x0:0x57d9219b49c66921,
toko bangunan,Toko Perlengkapan Rumah,Toko Karya Bangunan,"RJQV+H9Q, Jl. Bumi I, Oesapa Sel., Kec. Klp. Lima, Kota Kupang, Nusa Tenggara Tim.","Kota Kupang, Nusa Tenggara Tim.",NUSA TENGGARA TIMUR,,Indonesia,,,,-10.1610333,123.6434727,https://maps.google.com/?cid=0x0:0x480107de15c2a6cf,
toko bangunan,Pemasok Pipa,Toko Bangunan,"Manulai II, Kec. Alak, Kota Kupang, Nusa Tenggara Tim.","Kota Kupang, Nusa Tenggara Tim.",NUSA TENGGARA TIMUR,,Indonesia,85123255522.0,,,-10.213815,123.5749527,https://maps.google.com/?cid=0x0:0x5559349e9e4fc36f,
toko bangunan,Toko Bahan Bangunan,Toko Bangunan Pak Tris,"9737+VFX, Kamalaputi, Kec. Kota Waingapu, Kabupaten Sumba Timur, Nusa Tenggara Tim.","Kabupaten Sumba Timur, Nusa Tenggara Tim.",NUSA TENGGARA TIMUR,,Indonesia,81353759489.0,,,-9.6452547,120.2637361,https://maps.google.com/?cid=0x0:0xf2f45ed234d9c248,
toko bangunan,Toko Bahan Bangunan,Toko Sinar Bangunan Kuanino,"RHGR+GWM, Kuanino, Kec. Kota Raja, Kota Kupang, Nusa Tenggara Tim.","Kota Kupang, Nusa Tenggara Tim.",NUSA TENGGARA TIMUR,,Indonesia,81246985898.0,,,-10.1736649,123.5923091,https://maps.google.com/?cid=0x0:0xae6ae1c64fc9b3df,
toko bangunan,Pusat Perbelanjaan,Indo Bangunan,"RMR7+GXF, Jl. Prof. Dr. Herman Johanes, Penfui, Kec. Kupang Tengah, Kabupaten Kupang, Nusa Tenggara Tim.","Kabupaten Kupang, Nusa Tenggara Tim.",NUSA TENGGARA TIMUR,,Indonesia,82146161359.0,,,-10.1586919,123.664932,https://maps.google.com/?cid=0x0:0x5bd2db62b6d4f924,
toko bangunan,Toko Bahan Bangunan,Toko Kristal Bangunan,"Jl. Timor Raya No.62, Bakunase, Kec. Kota Raja, Kota Kupang, Nusa Tenggara Tim.","Kota Kupang, Nusa Tenggara Tim.",NUSA TENGGARA TIMUR,,Indonesia,380831199.0,,,-10.1833442,123.5832076,https://maps.google.com/?cid=0x0:0xfe35332405b39adc,
toko bangunan,Toko Bahan Bangunan,Makmur Sejahtera,"86WW+958, Hambala, Kec. Kota Waingapu, Kabupaten Sumba Timur, Nusa Tenggara Tim.","Kabupaten Sumba Timur, Nusa Tenggara Tim.",NUSA TENGGARA TIMUR,,Indonesia,,,,-9.6540827,120.2454421,https://maps.google.com/?cid=0x0:0x2054e4721b862196,
toko bangunan,Toko Bahan Bangunan,Makmur Raya Toko,"86VW+GV6, Hambala, Kec. Kota Waingapu, Kabupaten Sumba Timur, Nusa Tenggara Tim.","Kabupaten Sumba Timur, Nusa Tenggara Tim.",NUSA TENGGARA TIMUR,,Indonesia,38761688.0,,,-9.6562084,120.247145,https://maps.google.com/?cid=0x0:0xc324108618b9bd38,
toko bangunan,Pasar bahan bangunan,Toko Sentral Bangunan,"Jl. A. Yani No.31, Oeba, Kec. Kota Lama, Kota Kupang, Nusa Tenggara Tim.","Kota Kupang, Nusa Tenggara Tim.",NUSA TENGGARA TIMUR,,Indonesia,,,,-10.1589841,123.5906754,https://maps.google.com/?cid=0x0:0x86beb21036599681,
toko bangunan,Toko Bahan Bangunan,Kristal Bangunan Toko,"RMW8+GPH, Lasiana, Kec. Klp. Lima, Kota Kupang, Nusa Tenggara Tim.","Kota Kupang, Nusa Tenggara Tim.",NUSA TENGGARA TIMUR,,Indonesia,380831119.0,,,-10.1536844,123.6668448,https://maps.google.com/?cid=0x0:0xbb6f0b9276476640,
toko bangunan,toko bangunan,Kec. Semau,"Kabupaten Kupang, Nusa Tenggara Tim.","Kabupaten Kupang, Nusa Tenggara Tim.",NUSA TENGGARA TIMUR,,Indonesia,,,,-10.1913662,123.4129193,https://maps.google.com/?cid=0x0:0x81285b2e1209f61c,
toko bangunan,Toko,Toko Cendrawasih Bangunan,"RG4M+J8J, Alak, Kec. Alak, Kota Kupang, Nusa Tenggara Tim.","Kota Kupang, Nusa Tenggara Tim.",NUSA TENGGARA TIMUR,,Indonesia,85713493899.0,,,-10.1934043,123.5332588,https://maps.google.com/?cid=0x0:0xc244638dd01147b,
toko bangunan,Toko Bahan Bangunan,Sinar Bangunan Building Mart,"Jl. Yos Sudarso No.177, Namosain, Kec. Alak, Kota Kupang, Nusa Tenggara Tim.","Kota Kupang, Nusa Tenggara Tim.",NUSA TENGGARA TIMUR,,Indonesia,81238941314.0,,,-10.1916248,123.5407476,https://maps.google.com/?cid=0x0:0x411fca6242be55fc,
toko bangunan,Toko Bahan Bangunan,UD. Mitra Bangunan Alak,"QGXJ+VV8, Alak, Kec. Alak, Kota Kupang, Nusa Tenggara Tim.","Kota Kupang, Nusa Tenggara Tim.",NUSA TENGGARA TIMUR,,Indonesia,82146656359.0,,,-10.200344,123.5322128,https://maps.google.com/?cid=0x0:0x82916be3be78cceb,
toko bangunan,Toko Bahan Bangunan,UD. SAMA JAYA,"RHHP+VX2, Jl. Jenderal Sudirman No.27, Kuanino, Kec. Kota Raja, Kota Kupang, Nusa Tenggara Tim.","Kota Kupang, Nusa Tenggara Tim.",NUSA TENGGARA TIMUR,,Indonesia,81238825057.0,,,-10.1703192,123.5873411,https://maps.google.com/?cid=0x0:0xb81f7d1e47e6001b,
toko bangunan,Toko Bahan Bangunan,GIAS Kupang (GNET) | Distributor Bahan Bangunan,"Gudang Nomor 4, komplek pergudangan pitoby, Jl. Yos Sudarso, Alak, Kec. Alak, Kota Kupang, Nusa Tenggara Tim.","Kota Kupang, Nusa Tenggara Tim.",NUSA TENGGARA TIMUR,,Indonesia,3808471221.0,,,-10.1909714,123.5423159,https://maps.google.com/?cid=0x0:0x96d60a0b60fd54ba,
toko bangunan,Toko Bahan Bangunan,ARLA BANGUNAN,"Jl. H.R. Koroh, RT.019/RW.007, Sikumana, Kec. Maulafa, Kota Kupang, Nusa Tenggara Tim. 85117","RT.019/RW.007, Sikumana, Kec. Maulafa, Kota Kupang",NUSA TENGGARA TIMUR,85117.0,Indonesia,82122228701.0,,,-10.2074394,123.6128472,https://maps.google.com/?cid=0x0:0xafcc1ea09f9596cc,
toko bangunan,Toko Perlengkapan Rumah,TOKO BANGUNAN MANULAI II,"RH22+6JQ, Jl. Alamanda, RT.21/RW.08, Alak, Kec. Alak, Kota Kupang, Nusa Tenggara Tim.","Kota Kupang, Nusa Tenggara Tim.",NUSA TENGGARA TIMUR,,Indonesia,3808563791.0,,,-10.1994106,123.5516246,https://maps.google.com/?cid=0x0:0x857905ea92fc096d,
toko bangunan,Toko Bahan Bangunan,Toko Eza Jaya Bangunan,"Jl. Jambu No.16, Bakunase, Kec. Kota Raja, Kota Kupang, Nusa Tenggara Tim.","Kota Kupang, Nusa Tenggara Tim.",NUSA TENGGARA TIMUR,,Indonesia,,,,-10.1844483,123.5866112,https://maps.google.com/?cid=0x0:0x245d551fd1c76d50,
toko bangunan,toko bangunan,Kec. Kupang Bar.,"Kabupaten Kupang, Nusa Tenggara Tim.","Kabupaten Kupang, Nusa Tenggara Tim.",NUSA TENGGARA TIMUR,,Indonesia,,,,-10.258321,123.5547732,https://maps.google.com/?cid=0x0:0xae10763b94256d10,
toko bangunan,Pemasok Pipa,Toko Bangunan,"Manulai II, Kec. Alak, Kota Kupang, Nusa Tenggara Tim.","Kota Kupang, Nusa Tenggara Tim.",NUSA TENGGARA TIMUR,,Indonesia,85123255522.0,,,-10.213815,123.5749527,https://maps.google.com/?cid=0x0:0x5559349e9e4fc36f,
toko bangunan,Toko Bahan Bangunan,UD. Mitra Bangunan Alak,"QGXJ+VV8, Alak, Kec. Alak, Kota Kupang, Nusa Tenggara Tim.","Kota Kupang, Nusa Tenggara Tim.",NUSA TENGGARA TIMUR,,Indonesia,82146656359.0,,,-10.200344,123.5322128,https://maps.google.com/?cid=0x0:0x82916be3be78cceb,
toko bangunan,Toko Bahan Bangunan,Toko Graha Bangunan,"Gedung Graha Ariadi, Oesapa Bar., Kec. Klp. Lima, Kota Kupang, Nusa Tenggara Tim. 85228","Oesapa Bar., Kec. Klp. Lima, Kota Kupang",NUSA TENGGARA TIMUR,85228.0,Indonesia,81312893723.0,,,-10.1468703,123.631267,https://maps.google.com/?cid=0x0:0x4167d73ee95fc845,
toko bangunan,Toko Bahan Bangunan,SURYA BANGUNAN BUILDING MATERIAL,"Tuak Daun Merah, Kec. Oebobo, Kota Kupang, Nusa Tenggara Tim. 85228","Kec. Oebobo, Kota Kupang",NUSA TENGGARA TIMUR,85228.0,Indonesia,85101757906.0,,,-10.1673497,123.6293264,https://maps.google.com/?cid=0x0:0xadd57bf60a816b00,
toko bangunan,Toko Bahan Bangunan,Toko Metro Bangunan,"Jl. Pulau Indah, Oesapa Bar., Kec. Klp. Lima, Kota Kupang, Nusa Tenggara Tim. 85228","Oesapa Bar., Kec. Klp. Lima, Kota Kupang",NUSA TENGGARA TIMUR,85228.0,Indonesia,82164218639.0,,,-10.1488046,123.6344972,https://maps.google.com/?cid=0x0:0x4afb0da23e208afb,
toko bangunan,Toko Bahan Bangunan,Sinar Bangunan Building Mart,"Jl. Yos Sudarso No.177, Namosain, Kec. Alak, Kota Kupang, Nusa Tenggara Tim.","Kota Kupang, Nusa Tenggara Tim.",NUSA TENGGARA TIMUR,,Indonesia,81238941314.0,,,-10.1916248,123.5407476,https://maps.google.com/?cid=0x0:0x411fca6242be55fc,
toko bangunan,Toko Bahan Bangunan,Toko Bangunan Jaya,"Jl. Terusan Timor Raya No.9u KM. 6, Oesapa Bar., Kec. Klp. Lima, Kota Kupang, Nusa Tenggara Tim.","Kota Kupang, Nusa Tenggara Tim.",NUSA TENGGARA TIMUR,,Indonesia,81338567839.0,,,-10.14441,123.6254719,https://maps.google.com/?cid=0x0:0x4a94c89160bbe62c,
toko bangunan,Toko,Toko Cendrawasih Bangunan,"RG4M+J8J, Alak, Kec. Alak, Kota Kupang, Nusa Tenggara Tim.","Kota Kupang, Nusa Tenggara Tim.",NUSA TENGGARA TIMUR,,Indonesia,85713493899.0,,,-10.1934043,123.5332588,https://maps.google.com/?cid=0x0:0xc244638dd01147b,
toko bangunan,Toko Bahan Bangunan,ASB Tk. Bangunan,"QHGP+2Q9, Jl. Sikib, Naioni, Kec. Alak, Kota Kupang, Nusa Tenggara Tim.","Kota Kupang, Nusa Tenggara Tim.",NUSA TENGGARA TIMUR,,Indonesia,81226896000.0,,,-10.2249563,123.5869753,https://maps.google.com/?cid=0x0:0x6a51deef5c13233b,
toko bangunan,Toko Bahan Bangunan,Toko Bravo Bangunan,"Jl. Terusan Timor Raya, Pasir Panjang, Kec. Kota Lama, Kota Kupang, Nusa Tenggara Tim. 85000","Pasir Panjang, Kec. Kota Lama, Kota Kupang",NUSA TENGGARA TIMUR,85000.0,Indonesia,81246295800.0,,,-10.1509378,123.6033391,https://maps.google.com/?cid=0x0:0xdf4da131f9948aff,
toko bangunan,Toko Perlengkapan Rumah,Toko bagunan,"QG56+P6W, Kuanheum, Kec. Kupang Bar., Kabupaten Kupang, Nusa Tenggara Tim.","Kabupaten Kupang, Nusa Tenggara Tim.",NUSA TENGGARA TIMUR,,Indonesia,,,,-10.2404286,123.5113076,https://maps.google.com/?cid=0x0:0x66f715d5cf2722cc,
toko bangunan,Toko Alat-Alat,X-PRO Teknik Bangunan,"RH83+FJF, Alak, Kec. Alak, Kota Kupang, Nusa Tenggara Tim.","Kota Kupang, Nusa Tenggara Tim.",NUSA TENGGARA TIMUR,,Indonesia,81342216968.0,,,-10.1838053,123.5540471,https://maps.google.com/?cid=0x0:0x60fcf147f2c2423e,
toko bangunan,Toko Perlengkapan Rumah,Ester Bangunan,"Jl. Alfons Nisnoni No.48, Manulai II, Kec. Alak, Kota Kupang, Nusa Tenggara Tim.","Kota Kupang, Nusa Tenggara Tim.",NUSA TENGGARA TIMUR,,Indonesia,85858285395.0,,,-10.211763,123.5756845,https://maps.google.com/?cid=0x0:0xfa8d13fddf7fe10d,
toko bangunan,Toko Bahan Bangunan,Sinar Bangunan Building Center,"Jl. Bund. PU No.12, Tuak Daun Merah, Kec. Oebobo, Kota Kupang, Nusa Tenggara Tim. 85228","Tuak Daun Merah, Kec. Oebobo, Kota Kupang",NUSA TENGGARA TIMUR,85228.0,Indonesia,81236648694.0,,,-10.1675355,123.6289538,https://maps.google.com/?cid=0x0:0x8b34913a09e207d2,
toko bangunan,Toko Bahan Bangunan,Toko Bangunan Kanaan,"Jl. Terusan Timor Raya No.KM 8, Oesapa, Kec. Klp. Lima, Kota Kupang, Nusa Tenggara Tim. 85226","Oesapa, Kec. Klp. Lima, Kota Kupang",NUSA TENGGARA TIMUR,85226.0,Indonesia,81236129325.0,,,-10.1492781,123.6411571,https://maps.google.com/?cid=0x0:0x9ccb845e1bb38ce5,
toko bangunan,Toko Bahan Bangunan,BSS Bangunan Kupang,"Jl. Piet A. Tallo, Liliba, Kec. Oebobo, Kota Kupang, Nusa Tenggara Tim.","Kota Kupang, Nusa Tenggara Tim.",NUSA TENGGARA TIMUR,,Indonesia,,,,-10.1574578,123.638677,https://maps.google.com/?cid=0x0:0x61cf2d9b0ef46005,
toko bangunan,Toko Perlengkapan Rumah,TOKO BANGUNAN MANULAI II,"RH22+6JQ, Jl. Alamanda, RT.21/RW.08, Alak, Kec. Alak, Kota Kupang, Nusa Tenggara Tim.","Kota Kupang, Nusa Tenggara Tim.",NUSA TENGGARA TIMUR,,Indonesia,3808563791.0,,,-10.1994106,123.5516246,https://maps.google.com/?cid=0x0:0x857905ea92fc096d,
toko bangunan,Toko Bahan Bangunan,Cendrawasih bangunan,"QG3P+HCQ, Bolok, Kec. Kupang Bar., Kabupaten Kupang, Nusa Tenggara Tim.","Kabupaten Kupang, Nusa Tenggara Tim.",NUSA TENGGARA TIMUR,,Indonesia,,,,-10.2460357,123.5361245,https://maps.google.com/?cid=0x0:0x8ed2b2d6cf78c091,
toko bangunan,Toko Bahan Bangunan,PT. Makmur Abadi Bangunan,"Jl. Terusan Timor Raya No.Km 9, Oesapa, Kec. Klp. Lima, Kota Kupang, Nusa Tenggara Tim. 85228","Oesapa, Kec. Klp. Lima, Kota Kupang",NUSA TENGGARA TIMUR,85228.0,Indonesia,81367756504.0,,,-10.1446954,123.6559765,https://maps.google.com/?cid=0x0:0x7abc85a224f4ba37,
toko bangunan,Toko Bahan Bangunan,Mitra Bangunan,"RJFC+7G2, Oebufu, Kec. Oebobo, Kota Kupang, Nusa Tenggara Tim.","Kota Kupang, Nusa Tenggara Tim.",NUSA TENGGARA TIMUR,,Indonesia,,,,-10.1768587,123.6212559,https://maps.google.com/?cid=0x0:0x2ab5092f83e85fa4,
toko bangunan,Toko Bahan Bangunan,GIAS Kupang (GNET) | Distributor Bahan Bangunan,"Gudang Nomor 4, komplek pergudangan pitoby, Jl. Yos Sudarso, Alak, Kec. Alak, Kota Kupang, Nusa Tenggara Tim.","Kota Kupang, Nusa Tenggara Tim.",NUSA TENGGARA TIMUR,,Indonesia,3808471221.0,,,-10.1909714,123.5423159,https://maps.google.com/?cid=0x0:0x96d60a0b60fd54ba,
toko bangunan,Toko Bahan Bangunan,Toko Rejois bangunan,"PHR3+8QM, Tablolong, Kec. Kupang Bar., Kabupaten Kupang, Nusa Tenggara Tim.","Kabupaten Kupang, Nusa Tenggara Tim.",NUSA TENGGARA TIMUR,,Indonesia,,,,-10.2591416,123.5544415,https://maps.google.com/?cid=0x0:0xc5bea3b2c4c2f056,
toko bangunan,Toko Perlengkapan Rumah,Toko Gala Bangunan,"Bolok, Kec. Kupang Bar., Kabupaten Kupang, Nusa Tenggara Tim.","Kabupaten Kupang, Nusa Tenggara Tim.",NUSA TENGGARA TIMUR,,Indonesia,,,,-10.2234341,123.5196867,https://maps.google.com/?cid=0x0:0xd7a2aae17f986aee,
toko bangunan,toko bangunan,Nusa Tenggara Tim. 85362,"Oesao, Kec. Kupang Tim., Kabupaten Kupang, Nusa Tenggara Tim.","Kabupaten Kupang, Nusa Tenggara Tim.",NUSA TENGGARA TIMUR,,Indonesia,,,,-10.1164178,123.8121644,https://maps.google.com/?cid=0x0:0x8006f293bbb44c34,
toko bangunan,Toko Bahan Bangunan,Toko Graha Bangunan,"Gedung Graha Ariadi, Oesapa Bar., Kec. Klp. Lima, Kota Kupang, Nusa Tenggara Tim. 85228","Oesapa Bar., Kec. Klp. Lima, Kota Kupang",NUSA TENGGARA TIMUR,85228.0,Indonesia,81312893723.0,,,-10.1468703,123.631267,https://maps.google.com/?cid=0x0:0x4167d73ee95fc845,
toko bangunan,Toko Bahan Bangunan,SURYA BANGUNAN BUILDING MATERIAL,"Tuak Daun Merah, Kec. Oebobo, Kota Kupang, Nusa Tenggara Tim. 85228","Kec. Oebobo, Kota Kupang",NUSA TENGGARA TIMUR,85228.0,Indonesia,85101757906.0,,,-10.1673497,123.6293264,https://maps.google.com/?cid=0x0:0xadd57bf60a816b00,
toko bangunan,Toko Bahan Bangunan,Toko Bangunan Jaya,"Jl. Terusan Timor Raya No.9u KM. 6, Oesapa Bar., Kec. Klp. Lima, Kota Kupang, Nusa Tenggara Tim.","Kota Kupang, Nusa Tenggara Tim.",NUSA TENGGARA TIMUR,,Indonesia,81338567839.0,,,-10.14441,123.6254719,https://maps.google.com/?cid=0x0:0x4a94c89160bbe62c,
toko bangunan,Toko Bahan Bangunan,Toko Bangunan Kanaan,"Jl. Terusan Timor Raya No.KM 8, Oesapa, Kec. Klp. Lima, Kota Kupang, Nusa Tenggara Tim. 85226","Oesapa, Kec. Klp. Lima, Kota Kupang",NUSA TENGGARA TIMUR,85226.0,Indonesia,81236129325.0,,,-10.1492781,123.6411571,https://maps.google.com/?cid=0x0:0x9ccb845e1bb38ce5,
toko bangunan,Toko Bahan Bangunan,BSS Bangunan Kupang,"Jl. Piet A. Tallo, Liliba, Kec. Oebobo, Kota Kupang, Nusa Tenggara Tim.","Kota Kupang, Nusa Tenggara Tim.",NUSA TENGGARA TIMUR,,Indonesia,,,,-10.1574578,123.638677,https://maps.google.com/?cid=0x0:0x61cf2d9b0ef46005,
toko bangunan,Toko Bahan Bangunan,Toko Metro Bangunan,"Jl. Pulau Indah, Oesapa Bar., Kec. Klp. Lima, Kota Kupang, Nusa Tenggara Tim. 85228","Oesapa Bar., Kec. Klp. Lima, Kota Kupang",NUSA TENGGARA TIMUR,85228.0,Indonesia,82164218639.0,,,-10.1488046,123.6344972,https://maps.google.com/?cid=0x0:0x4afb0da23e208afb,
toko bangunan,Toko Bahan Bangunan,Toko Duta Timor,"VM32+4WV, Jl. Terusan Timor Raya, Oesapa, Kec. Klp. Lima, Kota Kupang, Nusa Tenggara Tim.","Kota Kupang, Nusa Tenggara Tim.",NUSA TENGGARA TIMUR,,Indonesia,380881867.0,,,-10.1471444,123.6522958,https://maps.google.com/?cid=0x0:0x1032b52afbada3ff,
toko bangunan,Pemasok Pipa,Toko Buana Bangunan,"Lasiana, Kec. Klp. Lima, Kota Kupang, Nusa Tenggara Tim.","Kota Kupang, Nusa Tenggara Tim.",NUSA TENGGARA TIMUR,,Indonesia,82244376888.0,,,-10.1373266,123.6764484,https://maps.google.com/?cid=0x0:0x9fc6cad7dda4e71a,
toko bangunan,toko bangunan,Toko Bangunan Teluk,"RJHR+FR7, Gg. Ukitau, Liliba, Kec. Oebobo, Kota Kupang, Nusa Tenggara Tim.","Kota Kupang, Nusa Tenggara Tim.",NUSA TENGGARA TIMUR,,Indonesia,85713493899.0,,,-10.1713257,123.6420599,https://maps.google.com/?cid=0x0:0xa174ad1432c6c0e1,
toko bangunan,Toko Bahan Bangunan,Toko Gloria Bangunan,"Jl. Terusan Timor Raya No.Km. 8, Oesapa, Kec. Klp. Lima, Kota Kupang, Nusa Tenggara Tim.","Kota Kupang, Nusa Tenggara Tim.",NUSA TENGGARA TIMUR,,Indonesia,83876691970.0,,,-10.1487267,123.6475719,https://maps.google.com/?cid=0x0:0x3b07f200fecd7840,
toko bangunan,Toko Bahan Bangunan,Sinar Bangunan Building Center,"Jl. Bund. PU No.12, Tuak Daun Merah, Kec. Oebobo, Kota Kupang, Nusa Tenggara Tim. 85228","Tuak Daun Merah, Kec. Oebobo, Kota Kupang",NUSA TENGGARA TIMUR,85228.0,Indonesia,81236648694.0,,,-10.1675355,123.6289538,https://maps.google.com/?cid=0x0:0x8b34913a09e207d2,
toko bangunan,Toko Perlengkapan Rumah,Toko Karya Bangunan,"RJQV+H9Q, Jl. Bumi I, Oesapa Sel., Kec. Klp. Lima, Kota Kupang, Nusa Tenggara Tim.","Kota Kupang, Nusa Tenggara Tim.",NUSA TENGGARA TIMUR,,Indonesia,,,,-10.1610333,123.6434727,https://maps.google.com/?cid=0x0:0x480107de15c2a6cf,
toko bangunan,Toko Bahan Bangunan,Mitra Bangunan,"Jl. Moch Hatta No.52, Fontein, Kec. Kota Raja, Kota Kupang, Nusa Tenggara Tim. 85112","Fontein, Kec. Kota Raja, Kota Kupang",NUSA TENGGARA TIMUR,85112.0,Indonesia,82236636819.0,,,-10.169089,123.585355,https://maps.google.com/?cid=0x0:0xb133bd5d1eaec0af,
toko bangunan,Toko Bahan Bangunan,Toko Bravo Bangunan,"Jl. Terusan Timor Raya, Pasir Panjang, Kec. Kota Lama, Kota Kupang, Nusa Tenggara Tim. 85000","Pasir Panjang, Kec. Kota Lama, Kota Kupang",NUSA TENGGARA TIMUR,85000.0,Indonesia,81246295800.0,,,-10.1509378,123.6033391,https://maps.google.com/?cid=0x0:0xdf4da131f9948aff,
toko bangunan,Pemasok Pipa,Toko Bangunan,"Manulai II, Kec. Alak, Kota Kupang, Nusa Tenggara Tim.","Kota Kupang, Nusa Tenggara Tim.",NUSA TENGGARA TIMUR,,Indonesia,85123255522.0,,,-10.213815,123.5749527,https://maps.google.com/?cid=0x0:0x5559349e9e4fc36f,
toko bangunan,Pemasok Bahan Bangunan,Indo Bangunan,"Jl. Taebenu, Liliba, Kec. Oebobo, Kota Kupang, Nusa Tenggara Tim. 85142","Liliba, Kec. Oebobo, Kota Kupang",NUSA TENGGARA TIMUR,85142.0,Indonesia,85198498181.0,,,-10.177757,123.6444948,https://maps.google.com/?cid=0x0:0xe79b41c05f57dec9,
toko bangunan,Toko Bahan Bangunan,Sinar Bangunan Building Mart,"Jl. Yos Sudarso No.177, Namosain, Kec. Alak, Kota Kupang, Nusa Tenggara Tim.","Kota Kupang, Nusa Tenggara Tim.",NUSA TENGGARA TIMUR,,Indonesia,81238941314.0,,,-10.1916248,123.5407476,https://maps.google.com/?cid=0x0:0x411fca6242be55fc,
toko bangunan,Toko Bahan Bangunan,Toko bangunan,"VM4C+R79, Lasiana, Kec. Klp. Lima, Kota Kupang, Nusa Tenggara Tim.","Kota Kupang, Nusa Tenggara Tim.",NUSA TENGGARA TIMUR,,Indonesia,,,,-10.142954,123.6707233,https://maps.google.com/?cid=0x0:0xb111458939496520,
toko bangunan,Toko Bahan Bangunan,Toko Bintang Bangunan,"Jl. Terusan Timor Raya No.KM9, Oesapa, Kec. Klp. Lima, Kota Kupang, Nusa Tenggara Tim. 85228","Oesapa, Kec. Klp. Lima, Kota Kupang",NUSA TENGGARA TIMUR,85228.0,Indonesia,81339755019.0,,,-10.1470557,123.6523983,https://maps.google.com/?cid=0x0:0x783a8e4ca1444de,
toko bangunan,Toko Bahan Bangunan,Toko Sumber Bangunan,"Jl. Oesao - Bokong No.Km. 28, Oesao, Kec. Kupang Tim., Kabupaten Kupang, Nusa Tenggara Tim.","Kabupaten Kupang, Nusa Tenggara Tim.",NUSA TENGGARA TIMUR,,Indonesia,81236427744.0,,,-10.1167107,123.8112814,https://maps.google.com/?cid=0x0:0x29d575d1a4a441ac,
toko bangunan,Toko Bahan Bangunan,Toko Karunia Indah,"Oesao, Kec. Kupang Tim., Kabupaten Kupang, Nusa Tenggara Tim.","Kabupaten Kupang, Nusa Tenggara Tim.",NUSA TENGGARA TIMUR,,Indonesia,81339115500.0,,,-10.1164267,123.810462,https://maps.google.com/?cid=0x0:0xe2b8564416118add,
toko bangunan,toko bangunan,Nusa Tenggara Tim.,,Nusa Tenggara Tim.,NUSA TENGGARA TIMUR,,Indonesia,,,,-8.6573819,121.0793705,https://maps.google.com/?cid=0x0:0x1030bfbcaf71ae0,
toko bangunan,Toko Bahan Bangunan,SURYA BANGUNAN BUILDING MATERIAL,"Tuak Daun Merah, Kec. Oebobo, Kota Kupang, Nusa Tenggara Tim. 85228","Kec. Oebobo, Kota Kupang",NUSA TENGGARA TIMUR,85228.0,Indonesia,85101757906.0,,,-10.1673497,123.6293264,https://maps.google.com/?cid=0x0:0xadd57bf60a816b00,
toko bangunan,Toko Bahan Bangunan,Sinar Bangunan Building Mart,"Jl. Yos Sudarso No.177, Namosain, Kec. Alak, Kota Kupang, Nusa Tenggara Tim.","Kota Kupang, Nusa Tenggara Tim.",NUSA TENGGARA TIMUR,,Indonesia,81238941314.0,,,-10.1916248,123.5407476,https://maps.google.com/?cid=0x0:0x411fca6242be55fc,
toko bangunan,Pemasok Pipa,Toko Buana Bangunan,"Lasiana, Kec. Klp. Lima, Kota Kupang, Nusa Tenggara Tim.","Kota Kupang, Nusa Tenggara Tim.",NUSA TENGGARA TIMUR,,Indonesia,82244376888.0,,,-10.1373266,123.6764484,https://maps.google.com/?cid=0x0:0x9fc6cad7dda4e71a,
toko bangunan,Toko Bahan Bangunan,Utama Bangunan,"Jl. Jenderal Sudirman No.104, Nunleu, Kec. Kota Raja, Kota Kupang, Nusa Tenggara Tim.","Kota Kupang, Nusa Tenggara Tim.",NUSA TENGGARA TIMUR,,Indonesia,,,,-10.1737992,123.592435,https://maps.google.com/?cid=0x0:0x5d963cfe75d2b6f3,
toko bangunan,Toko Bahan Bangunan,Toko Graha Bangunan,"Gedung Graha Ariadi, Oesapa Bar., Kec. Klp. Lima, Kota Kupang, Nusa Tenggara Tim. 85228","Oesapa Bar., Kec. Klp. Lima, Kota Kupang",NUSA TENGGARA TIMUR,85228.0,Indonesia,81312893723.0,,,-10.1468703,123.631267,https://maps.google.com/?cid=0x0:0x4167d73ee95fc845,
toko bangunan,Toko Bahan Bangunan,Toko Bangunan Jaya,"Jl. Terusan Timor Raya No.9u KM. 6, Oesapa Bar., Kec. Klp. Lima, Kota Kupang, Nusa Tenggara Tim.","Kota Kupang, Nusa Tenggara Tim.",NUSA TENGGARA TIMUR,,Indonesia,81338567839.0,,,-10.14441,123.6254719,https://maps.google.com/?cid=0x0:0x4a94c89160bbe62c,
toko bangunan,Toko Bahan Bangunan,Toko Bravo Bangunan,"Jl. Terusan Timor Raya, Pasir Panjang, Kec. Kota Lama, Kota Kupang, Nusa Tenggara Tim. 85000","Pasir Panjang, Kec. Kota Lama, Kota Kupang",NUSA TENGGARA TIMUR,85000.0,Indonesia,81246295800.0,,,-10.1509378,123.6033391,https://maps.google.com/?cid=0x0:0xdf4da131f9948aff,
toko bangunan,Toko Bahan Bangunan,toko pelangi bangunan,"FVQP+VXF, Goron Talo, Kec. Komodo, Kabupaten Manggarai Barat, Nusa Tenggara Tim.","Kabupaten Manggarai Barat, Nusa Tenggara Tim.",NUSA TENGGARA TIMUR,,Indonesia,82145627171.0,,,-8.5103078,119.8874183,https://maps.google.com/?cid=0x0:0x6f62dc0810d90ac8,
toko bangunan,Toko Perlengkapan Rumah,Toko Karya Bangunan,"RJQV+H9Q, Jl. Bumi I, Oesapa Sel., Kec. Klp. Lima, Kota Kupang, Nusa Tenggara Tim.","Kota Kupang, Nusa Tenggara Tim.",NUSA TENGGARA TIMUR,,Indonesia,,,,-10.1610333,123.6434727,https://maps.google.com/?cid=0x0:0x480107de15c2a6cf,
toko bangunan,Pemasok Pipa,Toko Bangunan Kim 5,"VM68+QFC, Jl. Terusan Timor Raya, Lasiana, Kec. Klp. Lima, Kota Kupang, Nusa Tenggara Tim.","Kota Kupang, Nusa Tenggara Tim.",NUSA TENGGARA TIMUR,,Indonesia,,,,-10.1380642,123.6661317,https://maps.google.com/?cid=0x0:0x57d9219b49c66921,
toko bangunan,Toko Bahan Bangunan,Toko bangunan,"VM4C+R79, Lasiana, Kec. Klp. Lima, Kota Kupang, Nusa Tenggara Tim.","Kota Kupang, Nusa Tenggara Tim.",NUSA TENGGARA TIMUR,,Indonesia,,,,-10.142954,123.6707233,https://maps.google.com/?cid=0x0:0xb111458939496520,
toko bangunan,Pemasok Pipa,Toko Bangunan,"Manulai II, Kec. Alak, Kota Kupang, Nusa Tenggara Tim.","Kota Kupang, Nusa Tenggara Tim.",NUSA TENGGARA TIMUR,,Indonesia,85123255522.0,,,-10.213815,123.5749527,https://maps.google.com/?cid=0x0:0x5559349e9e4fc36f,
toko bangunan,Toko Bahan Bangunan,PT. Makmur Abadi Bangunan,"Jl. Terusan Timor Raya No.Km 9, Oesapa, Kec. Klp. Lima, Kota Kupang, Nusa Tenggara Tim. 85228","Oesapa, Kec. Klp. Lima, Kota Kupang",NUSA TENGGARA TIMUR,85228.0,Indonesia,81367756504.0,,,-10.1446954,123.6559765,https://maps.google.com/?cid=0x0:0x7abc85a224f4ba37,
toko bangunan,Toko Bahan Bangunan,Toko Sinar Bangunan Kuanino,"RHGR+GWM, Kuanino, Kec. Kota Raja, Kota Kupang, Nusa Tenggara Tim.","Kota Kupang, Nusa Tenggara Tim.",NUSA TENGGARA TIMUR,,Indonesia,81246985898.0,,,-10.1736649,123.5923091,https://maps.google.com/?cid=0x0:0xae6ae1c64fc9b3df,
toko bangunan,Toko Bahan Bangunan,Toko Material Isto,"MVVF+C9H, Kabupaten BeluRaimanuk, Nusa Tenggara Tim., Mandeu, Kec. Rai Manuk, Kabupaten Belu, Nusa Tenggara Tim.","Kabupaten Belu, Nusa Tenggara Tim.",NUSA TENGGARA TIMUR,,Indonesia,,,,-9.3064484,124.8734845,https://maps.google.com/?cid=0x0:0x1e94426a8dd10baf,
toko bangunan,Toko Bahan Bangunan,CV KENCANA MULIA ABADI,"Jl. Terusan Timor Raya No.9, Oeba, Kec. Kota Lama, Kota Kupang, Nusa Tenggara Tim.","Kota Kupang, Nusa Tenggara Tim.",NUSA TENGGARA TIMUR,,Indonesia,,,,-10.1562204,123.594482,https://maps.google.com/?cid=0x0:0x74678b2af89178aa,
toko bangunan,Toko Bahan Bangunan,Toko Roda Bangunan,"VVVX+333, Atambua, Kec. Kota Atambua, Kabupaten Belu, Nusa Tenggara Tim.","Kabupaten Belu, Nusa Tenggara Tim.",NUSA TENGGARA TIMUR,,Indonesia,,,,-9.1073625,124.8976836,https://maps.google.com/?cid=0x0:0xfdf308e29f21112,
toko bangunan,Toko Bahan Bangunan,SENTRAL BANGUNAN,"Jl. Pulau Indah No.89, RT.003/RW.001, Oesapa, Kec. Klp. Lima, Kota Kupang, Nusa Tenggara Tim. 85228","RT.003/RW.001, Oesapa, Kec. Klp. Lima, Kota Kupang",NUSA TENGGARA TIMUR,85228.0,Indonesia,8113838889.0,,,-10.1527249,123.634151,https://maps.google.com/?cid=0x0:0x3f0a5724253a3e8b,
toko bangunan,toko bangunan,Kec. Sulamu,"Kabupaten Kupang, Nusa Tenggara Tim.","Kabupaten Kupang, Nusa Tenggara Tim.",NUSA TENGGARA TIMUR,,Indonesia,,,,-10.0096046,123.7331235,https://maps.google.com/?cid=0x0:0xde7bea235d825e39,
toko bangunan,Toko Bahan Bangunan,Toko Kristal Bangunan,"Jl. Timor Raya No.62, Bakunase, Kec. Kota Raja, Kota Kupang, Nusa Tenggara Tim.","Kota Kupang, Nusa Tenggara Tim.",NUSA TENGGARA TIMUR,,Indonesia,380831199.0,,,-10.1833442,123.5832076,https://maps.google.com/?cid=0x0:0xfe35332405b39adc,
toko bangunan,Toko Bahan Bangunan,Toko Karunia Indah,"Oesao, Kec. Kupang Tim., Kabupaten Kupang, Nusa Tenggara Tim.","Kabupaten Kupang, Nusa Tenggara Tim.",NUSA TENGGARA TIMUR,,Indonesia,81339115500.0,,,-10.1164267,123.810462,https://maps.google.com/?cid=0x0:0xe2b8564416118add,
toko bangunan,Toko Bahan Bangunan,Toko Sumber Bangunan,"Jl. Oesao - Bokong No.Km. 28, Oesao, Kec. Kupang Tim., Kabupaten Kupang, Nusa Tenggara Tim.","Kabupaten Kupang, Nusa Tenggara Tim.",NUSA TENGGARA TIMUR,,Indonesia,81236427744.0,,,-10.1167107,123.8112814,https://maps.google.com/?cid=0x0:0x29d575d1a4a441ac,
toko bangunan,Toko Bahan Bangunan,UD. Rahmat Jaya,"VRH6+5P8, Oesao, Kec. Kupang Tim., Kabupaten Kupang, Nusa Tenggara Tim.","Kabupaten Kupang, Nusa Tenggara Tim.",NUSA TENGGARA TIMUR,,Indonesia,,,,-10.1218506,123.8123111,https://maps.google.com/?cid=0x0:0xe7c479486ad8139b,
toko bangunan,Pusat Perbelanjaan,Toko Yutedere,"VQVQ+Q5F, Jl. Terusan Timor Raya, Babau, Kec. Kupang Tim., Kabupaten Kupang, Nusa Tenggara Tim.","Kabupaten Kupang, Nusa Tenggara Tim.",NUSA TENGGARA TIMUR,,Indonesia,,,,-10.1055701,123.7879253,https://maps.google.com/?cid=0x0:0x6f97dfa1c57b6dea,
toko bangunan,toko bangunan,Usaha Kayu Jati,"Lemadak, Desa Pariti, RT/RW : 15/08 Oelamasi, Pariti, Kec. Sulamu, Kabupaten Kupang, Nusa Tenggara Tim. 85368","Desa Pariti, RT/RW : 15/08 Oelamasi, Pariti, Kec. Sulamu, Kabupaten Kupang",NUSA TENGGARA TIMUR,85368.0,Indonesia,81238381315.0,,,-10.0104562,123.7334532,https://maps.google.com/?cid=0x0:0xa681f24cb272b645,
toko bangunan,Pembangunan Perumahan,Kampung Baru,"VQR3+8RW, Oebelo, Kec. Kupang Tengah, Kabupaten Kupang, Nusa Tenggara Tim.","Kabupaten Kupang, Nusa Tenggara Tim.",NUSA TENGGARA TIMUR,,Indonesia,,,,-10.1091292,123.754566,https://maps.google.com/?cid=0x0:0x671fdde5439adf36,
toko bangunan,Toko Bahan Bangunan,OKEY Bangunan,"WR2Q+35X, Jl. Oesao - Bokong, Naibonat, Kec. Kupang Tim., Kabupaten Kupang, Nusa Tenggara Tim.","Kabupaten Kupang, Nusa Tenggara Tim.",NUSA TENGGARA TIMUR,,Indonesia,,,,-10.0997587,123.8379763,https://maps.google.com/?cid=0x0:0x36219aa94fbdb9c5,
toko bangunan,Toko,Oesao gunung Golkar,"WR27+27G gunung Golkar, Oesao, Kec. Kupang Tim., Kabupaten Kupang, Nusa Tenggara Tim.","Kabupaten Kupang, Nusa Tenggara Tim.",NUSA TENGGARA TIMUR,,Indonesia,,,,-10.0999445,123.8132141,https://maps.google.com/?cid=0x0:0x9e868015a786a04a,
toko bangunan,toko bangunan,Kec. Kupang Tengah,"Kabupaten Kupang, Nusa Tenggara Tim.","Kabupaten Kupang, Nusa Tenggara Tim.",NUSA TENGGARA TIMUR,,Indonesia,,,,-10.1301438,123.7049668,https://maps.google.com/?cid=0x0:0x8849ad74ae79c951,
toko bangunan,Toko Bahan Bangunan,TB. Holy Bangunan,"Tarus, Jl. Terusan Timor Raya No.KM 13, Mata Air, Kabupaten Kupang, Nusa Tenggara Tim. 85361","Jl. Terusan Timor Raya No.KM 13, Mata Air, Kabupaten Kupang",NUSA TENGGARA TIMUR,85361.0,Indonesia,895343100228.0,,,-10.133897,123.6898475,https://maps.google.com/?cid=0x0:0x1c1e5e70a1a936e2,
toko bangunan,Pemasok Pipa,Toko Buana Bangunan,"Lasiana, Kec. Klp. Lima, Kota Kupang, Nusa Tenggara Tim.","Kota Kupang, Nusa Tenggara Tim.",NUSA TENGGARA TIMUR,,Indonesia,82244376888.0,,,-10.1373266,123.6764484,https://maps.google.com/?cid=0x0:0x9fc6cad7dda4e71a,
toko bangunan,Toko Bahan Bangunan,PT. Makmur Abadi Bangunan,"Jl. Terusan Timor Raya No.Km 9, Oesapa, Kec. Klp. Lima, Kota Kupang, Nusa Tenggara Tim. 85228","Oesapa, Kec. Klp. Lima, Kota Kupang",NUSA TENGGARA TIMUR,85228.0,Indonesia,81367756504.0,,,-10.1446954,123.6559765,https://maps.google.com/?cid=0x0:0x7abc85a224f4ba37,
toko bangunan,Toko Bahan Bangunan,PENIN MART BANGUNAN,"Penfui, Kec. Kupang Tengah, Kota Kupang, Nusa Tenggara Tim.","Kota Kupang, Nusa Tenggara Tim.",NUSA TENGGARA TIMUR,,Indonesia,81138100367.0,,,-10.1572091,123.6833702,https://maps.google.com/?cid=0x0:0x1e40600efd6e9e3a,
toko bangunan,Pusat Perbelanjaan,Indo Bangunan,"RMR7+GXF, Jl. Prof. Dr. Herman Johanes, Penfui, Kec. Kupang Tengah, Kabupaten Kupang, Nusa Tenggara Tim.","Kabupaten Kupang, Nusa Tenggara Tim.",NUSA TENGGARA TIMUR,,Indonesia,82146161359.0,,,-10.1586919,123.664932,https://maps.google.com/?cid=0x0:0x5bd2db62b6d4f924,
toko bangunan,Toko Bahan Bangunan,Dn Jaya Bangunan,"VP93+QH6, Unnamed Road, Noelbaki, Kec. Kupang Tengah, Kabupaten Kupang, Nusa Tenggara Tim.","Kabupaten Kupang, Nusa Tenggara Tim.",NUSA TENGGARA TIMUR,,Indonesia,,,,-10.130597,123.7038984,https://maps.google.com/?cid=0x0:0x78bae788c44eba93,
toko bangunan,Toko Bahan Bangunan,BSS Bangunan Kupang,"Jl. Piet A. Tallo, Liliba, Kec. Oebobo, Kota Kupang, Nusa Tenggara Tim.","Kota Kupang, Nusa Tenggara Tim.",NUSA TENGGARA TIMUR,,Indonesia,,,,-10.1574578,123.638677,https://maps.google.com/?cid=0x0:0x61cf2d9b0ef46005,
toko bangunan,Toko Bahan Bangunan,Toko bangunan,"VM4C+R79, Lasiana, Kec. Klp. Lima, Kota Kupang, Nusa Tenggara Tim.","Kota Kupang, Nusa Tenggara Tim.",NUSA TENGGARA TIMUR,,Indonesia,,,,-10.142954,123.6707233,https://maps.google.com/?cid=0x0:0xb111458939496520,
toko bangunan,Pemasok Pipa,Toko Bangunan Kim 5,"VM68+QFC, Jl. Terusan Timor Raya, Lasiana, Kec. Klp. Lima, Kota Kupang, Nusa Tenggara Tim.","Kota Kupang, Nusa Tenggara Tim.",NUSA TENGGARA TIMUR,,Indonesia,,,,-10.1380642,123.6661317,https://maps.google.com/?cid=0x0:0x57d9219b49c66921,
toko bangunan,toko bangunan,Toko Bangunan Teluk,"RJHR+FR7, Gg. Ukitau, Liliba, Kec. Oebobo, Kota Kupang, Nusa Tenggara Tim.","Kota Kupang, Nusa Tenggara Tim.",NUSA TENGGARA TIMUR,,Indonesia,85713493899.0,,,-10.1713257,123.6420599,https://maps.google.com/?cid=0x0:0xa174ad1432c6c0e1,
toko bangunan,Toko Bahan Bangunan,Toko Bangunan Kanaan,"Jl. Terusan Timor Raya No.KM 8, Oesapa, Kec. Klp. Lima, Kota Kupang, Nusa Tenggara Tim. 85226","Oesapa, Kec. Klp. Lima, Kota Kupang",NUSA TENGGARA TIMUR,85226.0,Indonesia,81236129325.0,,,-10.1492781,123.6411571,https://maps.google.com/?cid=0x0:0x9ccb845e1bb38ce5,
toko bangunan,Pemasok Pipa,CERIA BANGUNAN,"VM7G+C8X, Lasiana, Kec. Klp. Lima, Kota Kupang, Nusa Tenggara Tim.","Kota Kupang, Nusa Tenggara Tim.",NUSA TENGGARA TIMUR,,Indonesia,82144952239.0,,,-10.1363903,123.6758528,https://maps.google.com/?cid=0x0:0xfe4ad65fc4695b0c,
toko bangunan,Toko Bahan Bangunan,Toko Graha Bangunan,"Gedung Graha Ariadi, Oesapa Bar., Kec. Klp. Lima, Kota Kupang, Nusa Tenggara Tim. 85228","Oesapa Bar., Kec. Klp. Lima, Kota Kupang",NUSA TENGGARA TIMUR,85228.0,Indonesia,81312893723.0,,,-10.1468703,123.631267,https://maps.google.com/?cid=0x0:0x4167d73ee95fc845,
toko bangunan,Toko Bahan Bangunan,SURYA BANGUNAN BUILDING MATERIAL,"Tuak Daun Merah, Kec. Oebobo, Kota Kupang, Nusa Tenggara Tim. 85228","Kec. Oebobo, Kota Kupang",NUSA TENGGARA TIMUR,85228.0,Indonesia,85101757906.0,,,-10.1673497,123.6293264,https://maps.google.com/?cid=0x0:0xadd57bf60a816b00,
toko bangunan,Toko Bahan Bangunan,Buana Mas Bangunan,"Jl. Terusan Timor Raya, Lasiana, Kec. Klp. Lima, Kota Kupang, Nusa Tenggara Tim. 85228","Lasiana, Kec. Klp. Lima, Kota Kupang",NUSA TENGGARA TIMUR,85228.0,Indonesia,82180004975.0,,,-10.1359941,123.6738203,https://maps.google.com/?cid=0x0:0x3cda8274b3c8d271,
toko bangunan,Toko Bahan Bangunan,KENJI BANGUNAN,"RMR4+4VF, Jl. Adi Sucipto Penfui, Penfui, Kec. Maulafa, Kota Kupang, Nusa Tenggara Tim.","Kota Kupang, Nusa Tenggara Tim.",NUSA TENGGARA TIMUR,,Indonesia,85238844444.0,,,-10.1596964,123.6571696,https://maps.google.com/?cid=0x0:0x1071dc966980229,
toko bangunan,Toko Bahan Bangunan,Toko Bangunan Jaya,"Jl. Terusan Timor Raya No.9u KM. 6, Oesapa Bar., Kec. Klp. Lima, Kota Kupang, Nusa Tenggara Tim.","Kota Kupang, Nusa Tenggara Tim.",NUSA TENGGARA TIMUR,,Indonesia,81338567839.0,,,-10.14441,123.6254719,https://maps.google.com/?cid=0x0:0x4a94c89160bbe62c,
toko bangunan,Toko Perlengkapan Rumah,Toko Karya Bangunan,"RJQV+H9Q, Jl. Bumi I, Oesapa Sel., Kec. Klp. Lima, Kota Kupang, Nusa Tenggara Tim.","Kota Kupang, Nusa Tenggara Tim.",NUSA TENGGARA TIMUR,,Indonesia,,,,-10.1610333,123.6434727,https://maps.google.com/?cid=0x0:0x480107de15c2a6cf,
toko bangunan,Toko Bahan Bangunan,Sinar Bangunan Building Center,"Jl. Bund. PU No.12, Tuak Daun Merah, Kec. Oebobo, Kota Kupang, Nusa Tenggara Tim. 85228","Tuak Daun Merah, Kec. Oebobo, Kota Kupang",NUSA TENGGARA TIMUR,85228.0,Indonesia,81236648694.0,,,-10.1675355,123.6289538,https://maps.google.com/?cid=0x0:0x8b34913a09e207d2,
toko bangunan,Toko Bahan Bangunan,UD. Pasifik Bangunan,"Jl. Terusan Timor Raya No.Km. 10 No. 37, Lasiana, Kec. Klp. Lima, Kota Kupang, Nusa Tenggara Tim. 85228","Lasiana, Kec. Klp. Lima, Kota Kupang",NUSA TENGGARA TIMUR,85228.0,Indonesia,81339431608.0,,,-10.140208,123.6631267,https://maps.google.com/?cid=0x0:0x98717a4daf162942,
toko bangunan,Toko Bahan Bangunan,Pojok Oetalu,"RMHX+476, Unnamed Road, Penfui Tim., Kec. Kupang Tengah, Kabupaten Kupang, Nusa Tenggara Tim.","Kabupaten Kupang, Nusa Tenggara Tim.",NUSA TENGGARA TIMUR,,Indonesia,,,,-10.1722072,123.6981442,https://maps.google.com/?cid=0x0:0x7466191732251263,
toko bangunan,Toko bahan makanan,Toko Mangga Dua,"JL. Timur Raya, KM No.12, Tarus, Kec. Kupang Tengah, Kabupaten Kupang, Nusa Tenggara Tim.","Kabupaten Kupang, Nusa Tenggara Tim.",NUSA TENGGARA TIMUR,,Indonesia,85253548263.0,,,-10.136217,123.683022,https://maps.google.com/?cid=0x0:0x9ba7e5f18d7c141c,
toko bangunan,Toko Fotokopi,Toko istana bangunan dan art fotocopy,"RMR8+C2F, Jl. Prof. Dr. Herman Johanes, Penfui Tim., Kec. Kupang Tengah, Kabupaten Kupang, Nusa Tenggara Tim.","Kabupaten Kupang, Nusa Tenggara Tim.",NUSA TENGGARA TIMUR,,Indonesia,,,,-10.1589373,123.6650327,https://maps.google.com/?cid=0x0:0x9cca083aaa97d8ad,
toko bangunan,Toko Bahan Bangunan,Putra bangunan oetalu,"RMHX+65F, Penfui Tim., Kec. Kupang Tengah, Kabupaten Kupang, Nusa Tenggara Tim.","Kabupaten Kupang, Nusa Tenggara Tim.",NUSA TENGGARA TIMUR,,Indonesia,,,,-10.1712033,123.6977781,https://maps.google.com/?cid=0x0:0xe7d7ea4d8b2bb65b,
toko bangunan,Pemasok Pipa,UD Letros Bangunan,"KANTOR POS  GIRO, JL. TIMOR RAYA KM. 11 SAMPING KANAN, Lasiana, Kec. Klp. Lima, Kota Kupang, Nusa Tenggara Tim. 85228","JL. TIMOR RAYA KM. 11 SAMPING KANAN, Lasiana, Kec. Klp. Lima, Kota Kupang",NUSA TENGGARA TIMUR,85228.0,Indonesia,82144334398.0,,,-10.1367435,123.6689846,https://maps.google.com/?cid=0x0:0x429fec8032f7bf35,
toko bangunan,Toko Bahan Bangunan,Blessing Bangunan II,"Jl. Prof. Dr. Herman Johanes, Penfui, Kec. Maulafa, Kota Kupang, Nusa Tenggara Tim.","Kota Kupang, Nusa Tenggara Tim.",NUSA TENGGARA TIMUR,,Indonesia,82247343030.0,,,-10.158392,123.6702787,https://maps.google.com/?cid=0x0:0xfc3a2ae336a24c89,
toko bangunan,toko bangunan,Kec. Amarasi,"Kabupaten Kupang, Nusa Tenggara Tim.","Kabupaten Kupang, Nusa Tenggara Tim.",NUSA TENGGARA TIMUR,,Indonesia,,,,-10.2130166,123.8270237,https://maps.google.com/?cid=0x0:0xe316b771a9988447,
toko bangunan,Toko Bahan Bangunan,PT. Makmur Abadi Bangunan,"Jl. Terusan Timor Raya No.Km 9, Oesapa, Kec. Klp. Lima, Kota Kupang, Nusa Tenggara Tim. 85228","Oesapa, Kec. Klp. Lima, Kota Kupang",NUSA TENGGARA TIMUR,85228.0,Indonesia,81367756504.0,,,-10.1446954,123.6559765,https://maps.google.com/?cid=0x0:0x7abc85a224f4ba37,
toko bangunan,Toko Bahan Bangunan,Toko Graha Bangunan,"Gedung Graha Ariadi, Oesapa Bar., Kec. Klp. Lima, Kota Kupang, Nusa Tenggara Tim. 85228","Oesapa Bar., Kec. Klp. Lima, Kota Kupang",NUSA TENGGARA TIMUR,85228.0,Indonesia,81312893723.0,,,-10.1468703,123.631267,https://maps.google.com/?cid=0x0:0x4167d73ee95fc845,
toko bangunan,Pemasok Pipa,Toko Buana Bangunan,"Lasiana, Kec. Klp. Lima, Kota Kupang, Nusa Tenggara Tim.","Kota Kupang, Nusa Tenggara Tim.",NUSA TENGGARA TIMUR,,Indonesia,82244376888.0,,,-10.1373266,123.6764484,https://maps.google.com/?cid=0x0:0x9fc6cad7dda4e71a,
toko bangunan,Toko Bahan Bangunan,Toko Bangunan Jaya,"Jl. Terusan Timor Raya No.9u KM. 6, Oesapa Bar., Kec. Klp. Lima, Kota Kupang, Nusa Tenggara Tim.","Kota Kupang, Nusa Tenggara Tim.",NUSA TENGGARA TIMUR,,Indonesia,81338567839.0,,,-10.14441,123.6254719,https://maps.google.com/?cid=0x0:0x4a94c89160bbe62c,
toko bangunan,Toko Bahan Bangunan,Toko Bravo Bangunan,"Jl. Terusan Timor Raya, Pasir Panjang, Kec. Kota Lama, Kota Kupang, Nusa Tenggara Tim. 85000","Pasir Panjang, Kec. Kota Lama, Kota Kupang",NUSA TENGGARA TIMUR,85000.0,Indonesia,81246295800.0,,,-10.1509378,123.6033391,https://maps.google.com/?cid=0x0:0xdf4da131f9948aff,
toko bangunan,Toko Perlengkapan Rumah,Toko Karya Bangunan,"RJQV+H9Q, Jl. Bumi I, Oesapa Sel., Kec. Klp. Lima, Kota Kupang, Nusa Tenggara Tim.","Kota Kupang, Nusa Tenggara Tim.",NUSA TENGGARA TIMUR,,Indonesia,,,,-10.1610333,123.6434727,https://maps.google.com/?cid=0x0:0x480107de15c2a6cf,
toko bangunan,Toko Perlengkapan Rumah,Saudara Bangunan,"9C43+5CV, Wee Karou, Kec. Loli, Kabupaten Sumba Barat, Nusa Tenggara Tim.","Kabupaten Sumba Barat, Nusa Tenggara Tim.",NUSA TENGGARA TIMUR,,Indonesia,,,,-9.6445021,119.403561,https://maps.google.com/?cid=0x0:0xbd0bec82e2e0b21f,
toko bangunan,Toko Bahan Bangunan,Toko bangunan,"VM4C+R79, Lasiana, Kec. Klp. Lima, Kota Kupang, Nusa Tenggara Tim.","Kota Kupang, Nusa Tenggara Tim.",NUSA TENGGARA TIMUR,,Indonesia,,,,-10.142954,123.6707233,https://maps.google.com/?cid=0x0:0xb111458939496520,
toko bangunan,Pemasok Pipa,Toko Bangunan Kim 5,"VM68+QFC, Jl. Terusan Timor Raya, Lasiana, Kec. Klp. Lima, Kota Kupang, Nusa Tenggara Tim.","Kota Kupang, Nusa Tenggara Tim.",NUSA TENGGARA TIMUR,,Indonesia,,,,-10.1380642,123.6661317,https://maps.google.com/?cid=0x0:0x57d9219b49c66921,
toko bangunan,Toko Bahan Bangunan,UD. Rahmat Jaya,"VRH6+5P8, Oesao, Kec. Kupang Tim., Kabupaten Kupang, Nusa Tenggara Tim.","Kabupaten Kupang, Nusa Tenggara Tim.",NUSA TENGGARA TIMUR,,Indonesia,,,,-10.1218506,123.8123111,https://maps.google.com/?cid=0x0:0xe7c479486ad8139b,
toko bangunan,Kontraktor Batu >>u0026 Tegel,Noh Musa Mnao,"QVRP+PMW, Tesbatan, Kec. Amarasi, Kabupaten Kupang, Nusa Tenggara Tim.","Kabupaten Kupang, Nusa Tenggara Tim.",NUSA TENGGARA TIMUR,,Indonesia,,,,-10.2078112,123.8867558,https://maps.google.com/?cid=0x0:0x21a16eb24ee8bed2,
toko bangunan,Toko Bahan Bangunan,Toko Sumber Bangunan,"Jl. Oesao - Bokong No.Km. 28, Oesao, Kec. Kupang Tim., Kabupaten Kupang, Nusa Tenggara Tim.","Kabupaten Kupang, Nusa Tenggara Tim.",NUSA TENGGARA TIMUR,,Indonesia,81236427744.0,,,-10.1167107,123.8112814,https://maps.google.com/?cid=0x0:0x29d575d1a4a441ac,
toko bangunan,Toko Bahan Bangunan,Toko Karunia Indah,"Oesao, Kec. Kupang Tim., Kabupaten Kupang, Nusa Tenggara Tim.","Kabupaten Kupang, Nusa Tenggara Tim.",NUSA TENGGARA TIMUR,,Indonesia,81339115500.0,,,-10.1164267,123.810462,https://maps.google.com/?cid=0x0:0xe2b8564416118add,
toko bangunan,Toko Bahan Bangunan,Samara Bangunan,"Jl. Frans Seda No.21, Fatululi, Kec. Oebobo, Kota Kupang, Nusa Tenggara Tim. 85111","Fatululi, Kec. Oebobo, Kota Kupang",NUSA TENGGARA TIMUR,85111.0,Indonesia,85377066323.0,,,-10.1598997,123.6096981,https://maps.google.com/?cid=0x0:0x2cd980f33e38e0ae,
toko bangunan,toko bangunan,Kec. Fatuleu,"Kabupaten Kupang, Nusa Tenggara Tim.","Kabupaten Kupang, Nusa Tenggara Tim.",NUSA TENGGARA TIMUR,,Indonesia,,,,-10.042412,123.9233971,https://maps.google.com/?cid=0x0:0x75aafd859cde3cf5,
toko bangunan,Toko Bahan Bangunan,Vimijo Bangunan,"XW8X+XH7, Jl. Oesao - Bokong, Camplong II, Kec. Fatuleu, Kabupaten Kupang, Nusa Tenggara Tim.","Kabupaten Kupang, Nusa Tenggara Tim.",NUSA TENGGARA TIMUR,,Indonesia,,,,-10.0325942,123.9489106,https://maps.google.com/?cid=0x0:0xe4627d37c494bea6,
toko bangunan,toko bangunan,Toko Bangunan Teluk,"RJHR+FR7, Gg. Ukitau, Liliba, Kec. Oebobo, Kota Kupang, Nusa Tenggara Tim.","Kota Kupang, Nusa Tenggara Tim.",NUSA TENGGARA TIMUR,,Indonesia,85713493899.0,,,-10.1713257,123.6420599,https://maps.google.com/?cid=0x0:0xa174ad1432c6c0e1,
toko bangunan,Toko Perlengkapan Rumah,TOKO BANGUNAN MANULAI II,"RH22+6JQ, Jl. Alamanda, RT.21/RW.08, Alak, Kec. Alak, Kota Kupang, Nusa Tenggara Tim.","Kota Kupang, Nusa Tenggara Tim.",NUSA TENGGARA TIMUR,,Indonesia,3808563791.0,,,-10.1994106,123.5516246,https://maps.google.com/?cid=0x0:0x857905ea92fc096d,
toko bangunan,Toko Bahan Bangunan,Toko Metro Bangunan,"Jl. Pulau Indah, Oesapa Bar., Kec. Klp. Lima, Kota Kupang, Nusa Tenggara Tim. 85228","Oesapa Bar., Kec. Klp. Lima, Kota Kupang",NUSA TENGGARA TIMUR,85228.0,Indonesia,82164218639.0,,,-10.1488046,123.6344972,https://maps.google.com/?cid=0x0:0x4afb0da23e208afb,
toko bangunan,Toko Bahan Bangunan,Toko Bangunan Jaya,"Jl. Terusan Timor Raya No.9u KM. 6, Oesapa Bar., Kec. Klp. Lima, Kota Kupang, Nusa Tenggara Tim.","Kota Kupang, Nusa Tenggara Tim.",NUSA TENGGARA TIMUR,,Indonesia,81338567839.0,,,-10.14441,123.6254719,https://maps.google.com/?cid=0x0:0x4a94c89160bbe62c,
toko bangunan,Toko Bahan Bangunan,Batako press JENERVI,"Sillu, Kec. Fatuleu, Kabupaten Kupang, Nusa Tenggara Tim. 85363","Kec. Fatuleu, Kabupaten Kupang",NUSA TENGGARA TIMUR,85363.0,Indonesia,87777345358.0,,,-10.0472683,123.9817018,https://maps.google.com/?cid=0x0:0x2c163f28c1619827,
toko bangunan,Toko Bahan Bangunan,Utama Bangunan,"Jl. Jenderal Sudirman No.104, Nunleu, Kec. Kota Raja, Kota Kupang, Nusa Tenggara Tim.","Kota Kupang, Nusa Tenggara Tim.",NUSA TENGGARA TIMUR,,Indonesia,,,,-10.1737992,123.592435,https://maps.google.com/?cid=0x0:0x5d963cfe75d2b6f3,
toko bangunan,Toko Bahan Bangunan,Toko Graha Bangunan,"Gedung Graha Ariadi, Oesapa Bar., Kec. Klp. Lima, Kota Kupang, Nusa Tenggara Tim. 85228","Oesapa Bar., Kec. Klp. Lima, Kota Kupang",NUSA TENGGARA TIMUR,85228.0,Indonesia,81312893723.0,,,-10.1468703,123.631267,https://maps.google.com/?cid=0x0:0x4167d73ee95fc845,
toko bangunan,Toko Bahan Bangunan,UD. Rahmat Jaya,"VRH6+5P8, Oesao, Kec. Kupang Tim., Kabupaten Kupang, Nusa Tenggara Tim.","Kabupaten Kupang, Nusa Tenggara Tim.",NUSA TENGGARA TIMUR,,Indonesia,,,,-10.1218506,123.8123111,https://maps.google.com/?cid=0x0:0xe7c479486ad8139b,
toko bangunan,Toko Bahan Bangunan,Toko Bravo Bangunan,"Jl. Terusan Timor Raya, Pasir Panjang, Kec. Kota Lama, Kota Kupang, Nusa Tenggara Tim. 85000","Pasir Panjang, Kec. Kota Lama, Kota Kupang",NUSA TENGGARA TIMUR,85000.0,Indonesia,81246295800.0,,,-10.1509378,123.6033391,https://maps.google.com/?cid=0x0:0xdf4da131f9948aff,
toko bangunan,Toko Bahan Bangunan,PT. Makmur Abadi Bangunan,"Jl. Terusan Timor Raya No.Km 9, Oesapa, Kec. Klp. Lima, Kota Kupang, Nusa Tenggara Tim. 85228","Oesapa, Kec. Klp. Lima, Kota Kupang",NUSA TENGGARA TIMUR,85228.0,Indonesia,81367756504.0,,,-10.1446954,123.6559765,https://maps.google.com/?cid=0x0:0x7abc85a224f4ba37,
toko bangunan,Toko Bahan Bangunan,SURYA BANGUNAN BUILDING MATERIAL,"Tuak Daun Merah, Kec. Oebobo, Kota Kupang, Nusa Tenggara Tim. 85228","Kec. Oebobo, Kota Kupang",NUSA TENGGARA TIMUR,85228.0,Indonesia,85101757906.0,,,-10.1673497,123.6293264,https://maps.google.com/?cid=0x0:0xadd57bf60a816b00,
toko bangunan,Pemasok Pipa,Toko Bangunan,"Manulai II, Kec. Alak, Kota Kupang, Nusa Tenggara Tim.","Kota Kupang, Nusa Tenggara Tim.",NUSA TENGGARA TIMUR,,Indonesia,85123255522.0,,,-10.213815,123.5749527,https://maps.google.com/?cid=0x0:0x5559349e9e4fc36f,
toko bangunan,Toko Bahan Bangunan,Toko Frawijaya,"Jl. Imam Bonjol No.7, Kefamenanu Tengah, Kec. Kota Kefamenanu, Kabupaten Timor Tengah Utara, Nusa Tenggara Tim. 85612","Kefamenanu Tengah, Kec. Kota Kefamenanu, Kabupaten Timor Tengah Utara",NUSA TENGGARA TIMUR,85612.0,Indonesia,38831215.0,,,-9.4468019,124.4781981,https://maps.google.com/?cid=0x0:0x3378b5a006441ab0,
toko bangunan,Toko Bahan Bangunan,Sinar Bangunan Building Center,"Jl. Bund. PU No.12, Tuak Daun Merah, Kec. Oebobo, Kota Kupang, Nusa Tenggara Tim. 85228","Tuak Daun Merah, Kec. Oebobo, Kota Kupang",NUSA TENGGARA TIMUR,85228.0,Indonesia,81236648694.0,,,-10.1675355,123.6289538,https://maps.google.com/?cid=0x0:0x8b34913a09e207d2,
toko bangunan,Toko Bahan Bangunan,Toko Sumber Bangunan,"Jl. Oesao - Bokong No.Km. 28, Oesao, Kec. Kupang Tim., Kabupaten Kupang, Nusa Tenggara Tim.","Kabupaten Kupang, Nusa Tenggara Tim.",NUSA TENGGARA TIMUR,,Indonesia,81236427744.0,,,-10.1167107,123.8112814,https://maps.google.com/?cid=0x0:0x29d575d1a4a441ac,
toko bangunan,Toko Bahan Bangunan,Toko Duta Bangunan,"GFMJ+896, Benpasi, Kec. Kota Kefamenanu, Kabupaten Timor Tengah Utara, Nusa Tenggara Tim.","Kabupaten Timor Tengah Utara, Nusa Tenggara Tim.",NUSA TENGGARA TIMUR,,Indonesia,8113827627.0,,,-9.4667226,124.4808961,https://maps.google.com/?cid=0x0:0x7bd4b59644a2a0bd,
toko bangunan,Kontraktor Batu >>u0026 Tegel,Noh Musa Mnao,"QVRP+PMW, Tesbatan, Kec. Amarasi, Kabupaten Kupang, Nusa Tenggara Tim.","Kabupaten Kupang, Nusa Tenggara Tim.",NUSA TENGGARA TIMUR,,Indonesia,,,,-10.2078112,123.8867558,https://maps.google.com/?cid=0x0:0x21a16eb24ee8bed2,
toko bangunan,Pemasok Pipa,Toko Bangunan Kim 5,"VM68+QFC, Jl. Terusan Timor Raya, Lasiana, Kec. Klp. Lima, Kota Kupang, Nusa Tenggara Tim.","Kota Kupang, Nusa Tenggara Tim.",NUSA TENGGARA TIMUR,,Indonesia,,,,-10.1380642,123.6661317,https://maps.google.com/?cid=0x0:0x57d9219b49c66921,
toko bangunan,Toko,Toko Bangunan Dua Putra,"RJ3F+JX7, Maulafa, Kec. Maulafa, Kota Kupang, Nusa Tenggara Tim.","Kota Kupang, Nusa Tenggara Tim.",NUSA TENGGARA TIMUR,,Indonesia,,,,-10.1959668,123.6249153,https://maps.google.com/?cid=0x0:0x79a0dddd14411f17,
toko bangunan,Toko Bahan Bangunan,Sinar Bangunan Building Mart,"Jl. Yos Sudarso No.177, Namosain, Kec. Alak, Kota Kupang, Nusa Tenggara Tim.","Kota Kupang, Nusa Tenggara Tim.",NUSA TENGGARA TIMUR,,Indonesia,81238941314.0,,,-10.1916248,123.5407476,https://maps.google.com/?cid=0x0:0x411fca6242be55fc,
toko bangunan,Toko Bahan Bangunan,OKEY Bangunan,"WR2Q+35X, Jl. Oesao - Bokong, Naibonat, Kec. Kupang Tim., Kabupaten Kupang, Nusa Tenggara Tim.","Kabupaten Kupang, Nusa Tenggara Tim.",NUSA TENGGARA TIMUR,,Indonesia,,,,-10.0997587,123.8379763,https://maps.google.com/?cid=0x0:0x36219aa94fbdb9c5,
toko bangunan,Pemasok Bahan Bangunan,TEMPAT JUAL BATAKO,"WV8F+HQG, Naibonat, Kec. Kupang Tim., Kabupaten Kupang, Nusa Tenggara Tim.","Kabupaten Kupang, Nusa Tenggara Tim.",NUSA TENGGARA TIMUR,,Indonesia,82144961554.0,,,-10.0835603,123.8744477,https://maps.google.com/?cid=0x0:0x8568e560a44a8745,
toko bangunan,Pemasok Pipa,Toko Buana Bangunan,"Lasiana, Kec. Klp. Lima, Kota Kupang, Nusa Tenggara Tim.","Kota Kupang, Nusa Tenggara Tim.",NUSA TENGGARA TIMUR,,Indonesia,82244376888.0,,,-10.1373266,123.6764484,https://maps.google.com/?cid=0x0:0x9fc6cad7dda4e71a,
toko bangunan,Toko Bahan Bangunan,Putra bangunan oetalu,"RMHX+65F, Penfui Tim., Kec. Kupang Tengah, Kabupaten Kupang, Nusa Tenggara Tim.","Kabupaten Kupang, Nusa Tenggara Tim.",NUSA TENGGARA TIMUR,,Indonesia,,,,-10.1712033,123.6977781,https://maps.google.com/?cid=0x0:0xe7d7ea4d8b2bb65b,
toko bangunan,Toko Bahan Bangunan,KENJI BANGUNAN,"RMR4+4VF, Jl. Adi Sucipto Penfui, Penfui, Kec. Maulafa, Kota Kupang, Nusa Tenggara Tim.","Kota Kupang, Nusa Tenggara Tim.",NUSA TENGGARA TIMUR,,Indonesia,85238844444.0,,,-10.1596964,123.6571696,https://maps.google.com/?cid=0x0:0x1071dc966980229,
toko bangunan,toko bangunan,Nusa Tenggara Tim.,,Nusa Tenggara Tim.,NUSA TENGGARA TIMUR,,Indonesia,,,,-8.6573819,121.0793705,https://maps.google.com/?cid=0x0:0x1030bfbcaf71ae0,
toko bangunan,Toko Bahan Bangunan,Sinar Bangunan Building Mart,"Jl. Yos Sudarso No.177, Namosain, Kec. Alak, Kota Kupang, Nusa Tenggara Tim.","Kota Kupang, Nusa Tenggara Tim.",NUSA TENGGARA TIMUR,,Indonesia,81238941314.0,,,-10.1916248,123.5407476,https://maps.google.com/?cid=0x0:0x411fca6242be55fc,
toko bangunan,Toko Bahan Bangunan,Toko Duta Timor,"VM32+4WV, Jl. Terusan Timor Raya, Oesapa, Kec. Klp. Lima, Kota Kupang, Nusa Tenggara Tim.","Kota Kupang, Nusa Tenggara Tim.",NUSA TENGGARA TIMUR,,Indonesia,380881867.0,,,-10.1471444,123.6522958,https://maps.google.com/?cid=0x0:0x1032b52afbada3ff,
toko bangunan,Toko Bahan Bangunan,Toko Graha Bangunan,"Gedung Graha Ariadi, Oesapa Bar., Kec. Klp. Lima, Kota Kupang, Nusa Tenggara Tim. 85228","Oesapa Bar., Kec. Klp. Lima, Kota Kupang",NUSA TENGGARA TIMUR,85228.0,Indonesia,81312893723.0,,,-10.1468703,123.631267,https://maps.google.com/?cid=0x0:0x4167d73ee95fc845,
toko bangunan,Pemasok Pipa,Toko Bangunan,"Manulai II, Kec. Alak, Kota Kupang, Nusa Tenggara Tim.","Kota Kupang, Nusa Tenggara Tim.",NUSA TENGGARA TIMUR,,Indonesia,85123255522.0,,,-10.213815,123.5749527,https://maps.google.com/?cid=0x0:0x5559349e9e4fc36f,
toko bangunan,Toko Bahan Bangunan,Toko Sari Bangunan,"Jl. Jend. Soeharto No.124, Oepura, Kec. Maulafa, Kota Kupang, Nusa Tenggara Tim. 85142","Oepura, Kec. Maulafa, Kota Kupang",NUSA TENGGARA TIMUR,85142.0,Indonesia,380823119.0,,,-10.1871204,123.606142,https://maps.google.com/?cid=0x0:0xff57296e3a89bbd7,
toko bangunan,Toko Perlengkapan Rumah,Toko Karya Bangunan,"RJQV+H9Q, Jl. Bumi I, Oesapa Sel., Kec. Klp. Lima, Kota Kupang, Nusa Tenggara Tim.","Kota Kupang, Nusa Tenggara Tim.",NUSA TENGGARA TIMUR,,Indonesia,,,,-10.1610333,123.6434727,https://maps.google.com/?cid=0x0:0x480107de15c2a6cf,
toko bangunan,Pemasok Pipa,Toko Bangunan Kim 5,"VM68+QFC, Jl. Terusan Timor Raya, Lasiana, Kec. Klp. Lima, Kota Kupang, Nusa Tenggara Tim.","Kota Kupang, Nusa Tenggara Tim.",NUSA TENGGARA TIMUR,,Indonesia,,,,-10.1380642,123.6661317,https://maps.google.com/?cid=0x0:0x57d9219b49c66921,
toko bangunan,Pemasok Pipa,Toko Buana Bangunan,"Lasiana, Kec. Klp. Lima, Kota Kupang, Nusa Tenggara Tim.","Kota Kupang, Nusa Tenggara Tim.",NUSA TENGGARA TIMUR,,Indonesia,82244376888.0,,,-10.1373266,123.6764484,https://maps.google.com/?cid=0x0:0x9fc6cad7dda4e71a,
toko bangunan,Pemasok Bahan Bangunan,Indo Bangunan,"Jl. Taebenu, Liliba, Kec. Oebobo, Kota Kupang, Nusa Tenggara Tim. 85142","Liliba, Kec. Oebobo, Kota Kupang",NUSA TENGGARA TIMUR,85142.0,Indonesia,85198498181.0,,,-10.177757,123.6444948,https://maps.google.com/?cid=0x0:0xe79b41c05f57dec9,
toko bangunan,Toko Bahan Bangunan,Toko bangunan,"VM4C+R79, Lasiana, Kec. Klp. Lima, Kota Kupang, Nusa Tenggara Tim.","Kota Kupang, Nusa Tenggara Tim.",NUSA TENGGARA TIMUR,,Indonesia,,,,-10.142954,123.6707233,https://maps.google.com/?cid=0x0:0xb111458939496520,
toko bangunan,Toko Bahan Bangunan,Utama Bangunan,"Jl. Jenderal Sudirman No.104, Nunleu, Kec. Kota Raja, Kota Kupang, Nusa Tenggara Tim.","Kota Kupang, Nusa Tenggara Tim.",NUSA TENGGARA TIMUR,,Indonesia,,,,-10.1737992,123.592435,https://maps.google.com/?cid=0x0:0x5d963cfe75d2b6f3,
toko bangunan,Toko Bahan Bangunan,Toko Istana Bangunan,"Jl. Fetor Funay, Maulafa, Kec. Maulafa, Kota Kupang, Nusa Tenggara Tim. 85142","Maulafa, Kec. Maulafa, Kota Kupang",NUSA TENGGARA TIMUR,85142.0,Indonesia,82144819519.0,,,-10.1865612,123.6125505,https://maps.google.com/?cid=0x0:0x21756a783c212384,
toko bangunan,Toko Bahan Bangunan,CV KENCANA MULIA ABADI,"Jl. Terusan Timor Raya No.9, Oeba, Kec. Kota Lama, Kota Kupang, Nusa Tenggara Tim.","Kota Kupang, Nusa Tenggara Tim.",NUSA TENGGARA TIMUR,,Indonesia,,,,-10.1562204,123.594482,https://maps.google.com/?cid=0x0:0x74678b2af89178aa,
toko bangunan,Toko Bahan Bangunan,Toko Bravo Bangunan,"Jl. Terusan Timor Raya, Pasir Panjang, Kec. Kota Lama, Kota Kupang, Nusa Tenggara Tim. 85000","Pasir Panjang, Kec. Kota Lama, Kota Kupang",NUSA TENGGARA TIMUR,85000.0,Indonesia,81246295800.0,,,-10.1509378,123.6033391,https://maps.google.com/?cid=0x0:0xdf4da131f9948aff,
toko bangunan,Minimarket,toko hebron,"725V+CW9, Unnamed Rd, Mokdale, Kec. Lobalain, Kabupaten Rote Ndao, Nusa Tenggara Tim.","Kabupaten Rote Ndao, Nusa Tenggara Tim.",NUSA TENGGARA TIMUR,,Indonesia,,,,-10.7414723,123.0448675,https://maps.google.com/?cid=0x0:0x699558aa9d2e663a,
toko bangunan,Toko Bahan Bangunan,CV. Tujuh Jaya,"723W+C6P, Unnamed Rd, Mokdale, Kec. Lobalain, Kabupaten Rote Ndao, Nusa Tenggara Tim.","Kabupaten Rote Ndao, Nusa Tenggara Tim.",NUSA TENGGARA TIMUR,,Indonesia,,,,-10.7464098,123.04558,https://maps.google.com/?cid=0x0:0x575a85c650ddf9e4,
toko bangunan,Toko Bahan Bangunan,UD.SUMBER MANDIRI,"23G4+J8Q, RT.11/RW.05, Takari, Kec. Takari, Kabupaten Kupang, Nusa Tenggara Tim.","Kabupaten Kupang, Nusa Tenggara Tim.",NUSA TENGGARA TIMUR,,Indonesia,,,,-9.9725342,124.0566076,https://maps.google.com/?cid=0x0:0xd59b530c31a6add3,
toko bangunan,Toko Bahan Bangunan,Toko Kristal Bangunan,"Jl. Timor Raya No.62, Bakunase, Kec. Kota Raja, Kota Kupang, Nusa Tenggara Tim.","Kota Kupang, Nusa Tenggara Tim.",NUSA TENGGARA TIMUR,,Indonesia,380831199.0,,,-10.1833442,123.5832076,https://maps.google.com/?cid=0x0:0xfe35332405b39adc,
toko bangunan,toko bangunan,Kec. Takari,"Kabupaten Kupang, Nusa Tenggara Tim.","Kabupaten Kupang, Nusa Tenggara Tim.",NUSA TENGGARA TIMUR,,Indonesia,,,,-9.7928801,123.9401161,https://maps.google.com/?cid=0x0:0x979988727df5682,
toko bangunan,Pusat Perbelanjaan,Indo Bangunan,"RMR7+GXF, Jl. Prof. Dr. Herman Johanes, Penfui, Kec. Kupang Tengah, Kabupaten Kupang, Nusa Tenggara Tim.","Kabupaten Kupang, Nusa Tenggara Tim.",NUSA TENGGARA TIMUR,,Indonesia,82146161359.0,,,-10.1586919,123.664932,https://maps.google.com/?cid=0x0:0x5bd2db62b6d4f924,
toko bangunan,toko bangunan,UD BINTANG TIMUR,"Jalan Timor Raya No.Km. 68, Takari, Kec. Takari, Kabupaten Kupang, Nusa Tenggara Tim. 85369","Takari, Kec. Takari, Kabupaten Kupang",NUSA TENGGARA TIMUR,85369.0,Indonesia,,,,-9.9719278,124.0527691,https://maps.google.com/?cid=0x0:0x6aacdf29482a03c1,
toko bangunan,Toko Bahan Bangunan,TB. Aria Duta,"depan jakarta international school, Jl. Terogong Raya No.N0. 27, RT.1/RW.6, Cilandak Bar., Kec. Cilandak, Kota Jakarta Selatan, Daerah Khusus Ibukota Jakarta 12430","Jl. Terogong Raya No.N0. 27, RT.1/RW.6, Cilandak Bar., Kec. Cilandak, Kota Jakarta Selatan",NUSA TENGGARA TIMUR,12430.0,Indonesia,88210039388.0,,,-6.2846891,106.7882269,https://maps.google.com/?cid=0x0:0xe0c80320ca2299d4,
toko bangunan,Toko Bahan Bangunan,Tb. Sinar Timur,"Jl. Tanah Kusir 2 no.59f Rt. 010/009, RT.10/RW.9, Kby. Lama Sel., Kec. Kby. Lama, Kota Jakarta Selatan, Daerah Khusus Ibukota Jakarta 12240","RT.10/RW.9, Kby. Lama Sel., Kec. Kby. Lama, Kota Jakarta Selatan",NUSA TENGGARA TIMUR,12240.0,Indonesia,81295169990.0,,,-6.257884,106.783218,https://maps.google.com/?cid=0x0:0x199746c8ff917259,
toko bangunan,Toko Bahan Bangunan,Toko Bangunan Aria Mandiri,"Jl. Kihajar Dewantara No.48, Ciputat, Kec. Ciputat, Kota Tangerang Selatan, Banten 15411","Ciputat, Kec. Ciputat, Kota Tangerang Selatan",NUSA TENGGARA TIMUR,15411.0,Indonesia,81282754165.0,,,-6.3023941,106.7418677,https://maps.google.com/?cid=0x0:0x3eec667aa65a921a,
toko bangunan,Toko Bahan Bangunan,Toko Bangunan Kita Jaya,"JQFQ+MXQ, JL Grogol Raya, Limo, Grogol, Kec. Limo, Kota Depok, Jawa Barat 16514","JL Grogol Raya, Limo, Grogol, Kec. Limo, Kota Depok",NUSA TENGGARA TIMUR,16514.0,Indonesia,,,,-6.375775,106.7899716,https://maps.google.com/?cid=0x0:0xa8b38aa2ca5e36,
toko bangunan,Toko Bahan Bangunan,Andri Tk Bangunan,"JPFJ+59C, Pd. Petir, Kec. Bojongsari, Kota Depok, Jawa Barat 16517","Pd. Petir, Kec. Bojongsari, Kota Depok",NUSA TENGGARA TIMUR,16517.0,Indonesia,81282113872.0,,,-6.3770618,106.7308792,https://maps.google.com/?cid=0x0:0xf6d2b24195f08bf0,
toko bangunan,Toko Bahan Bangunan,TB. Kiara Bangunan,"GPFJ+632, Jl. Kemang Kiara, Kemang, Kec. Kemang, Kabupaten Bogor, Jawa Barat 16310","Jl. Kemang Kiara, Kemang, Kec. Kemang, Kabupaten Bogor",NUSA TENGGARA TIMUR,16310.0,Indonesia,8567178088.0,,,-6.5087419,106.7536907,https://maps.google.com/?cid=0x0:0x8d829dd46a92320d,
toko bangunan,Toko Bahan Bangunan,Toko Bangunan Harapan Kita,"Jl. Ir.Sukarno Jl. Kongsi Baru, Paramount, Kec. Serpong, Kabupaten Tangerang, Banten 15822","Paramount, Kec. Serpong, Kabupaten Tangerang",NUSA TENGGARA TIMUR,15822.0,Indonesia,87808225441.0,,,-6.2625006,106.6304972,https://maps.google.com/?cid=0x0:0x441cb92d32cd9a88,
toko bangunan,toko bangunan,Kec. Amfoang Sel.,"Kabupaten Kupang, Nusa Tenggara Tim.","Kabupaten Kupang, Nusa Tenggara Tim.",NUSA TENGGARA TIMUR,,Indonesia,,,,-9.7045438,123.9577285,https://maps.google.com/?cid=0x0:0xd7859a64400c8b5c,
toko bangunan,Toko Bahan Bangunan,PT. Makmur Abadi Bangunan,"Jl. Terusan Timor Raya No.Km 9, Oesapa, Kec. Klp. Lima, Kota Kupang, Nusa Tenggara Tim. 85228","Oesapa, Kec. Klp. Lima, Kota Kupang",NUSA TENGGARA TIMUR,85228.0,Indonesia,81367756504.0,,,-10.1446954,123.6559765,https://maps.google.com/?cid=0x0:0x7abc85a224f4ba37,
toko bangunan,Toko Bahan Bangunan,Sinar Bangunan Building Mart,"Jl. Yos Sudarso No.177, Namosain, Kec. Alak, Kota Kupang, Nusa Tenggara Tim.","Kota Kupang, Nusa Tenggara Tim.",NUSA TENGGARA TIMUR,,Indonesia,81238941314.0,,,-10.1916248,123.5407476,https://maps.google.com/?cid=0x0:0x411fca6242be55fc,
toko bangunan,Pemasok Pipa,Toko Buana Bangunan,"Lasiana, Kec. Klp. Lima, Kota Kupang, Nusa Tenggara Tim.","Kota Kupang, Nusa Tenggara Tim.",NUSA TENGGARA TIMUR,,Indonesia,82244376888.0,,,-10.1373266,123.6764484,https://maps.google.com/?cid=0x0:0x9fc6cad7dda4e71a,
toko bangunan,Toko Bahan Bangunan,Toko Bangunan Jaya,"Jl. Terusan Timor Raya No.9u KM. 6, Oesapa Bar., Kec. Klp. Lima, Kota Kupang, Nusa Tenggara Tim.","Kota Kupang, Nusa Tenggara Tim.",NUSA TENGGARA TIMUR,,Indonesia,81338567839.0,,,-10.14441,123.6254719,https://maps.google.com/?cid=0x0:0x4a94c89160bbe62c,
toko bangunan,Toko Bahan Bangunan,Toko Bravo Bangunan,"Jl. Terusan Timor Raya, Pasir Panjang, Kec. Kota Lama, Kota Kupang, Nusa Tenggara Tim. 85000","Pasir Panjang, Kec. Kota Lama, Kota Kupang",NUSA TENGGARA TIMUR,85000.0,Indonesia,81246295800.0,,,-10.1509378,123.6033391,https://maps.google.com/?cid=0x0:0xdf4da131f9948aff,
toko bangunan,Toko Perlengkapan Rumah,Toko Karya Bangunan,"RJQV+H9Q, Jl. Bumi I, Oesapa Sel., Kec. Klp. Lima, Kota Kupang, Nusa Tenggara Tim.","Kota Kupang, Nusa Tenggara Tim.",NUSA TENGGARA TIMUR,,Indonesia,,,,-10.1610333,123.6434727,https://maps.google.com/?cid=0x0:0x480107de15c2a6cf,
toko bangunan,Pemasok Pipa,Toko Bangunan,"Manulai II, Kec. Alak, Kota Kupang, Nusa Tenggara Tim.","Kota Kupang, Nusa Tenggara Tim.",NUSA TENGGARA TIMUR,,Indonesia,85123255522.0,,,-10.213815,123.5749527,https://maps.google.com/?cid=0x0:0x5559349e9e4fc36f,
toko bangunan,Toko Bahan Bangunan,Toko Pondok Bangunan,"VM8V+J7R, Jl. Terusan Timor Raya, Mata Air, Kec. Kupang Tengah, Kabupaten Kupang, Nusa Tenggara Tim.","Kabupaten Kupang, Nusa Tenggara Tim.",NUSA TENGGARA TIMUR,,Indonesia,3808800047.0,,,-10.1333816,123.6931479,https://maps.google.com/?cid=0x0:0xa8beb6e972e3857f,
toko bangunan,Toko Bahan Bangunan,CV. Tujuh Jaya,"723W+C6P, Unnamed Rd, Mokdale, Kec. Lobalain, Kabupaten Rote Ndao, Nusa Tenggara Tim.","Kabupaten Rote Ndao, Nusa Tenggara Tim.",NUSA TENGGARA TIMUR,,Indonesia,,,,-10.7464098,123.04558,https://maps.google.com/?cid=0x0:0x575a85c650ddf9e4,
toko bangunan,Toko Bahan Bangunan,Toko bangunan,"VM4C+R79, Lasiana, Kec. Klp. Lima, Kota Kupang, Nusa Tenggara Tim.","Kota Kupang, Nusa Tenggara Tim.",NUSA TENGGARA TIMUR,,Indonesia,,,,-10.142954,123.6707233,https://maps.google.com/?cid=0x0:0xb111458939496520,
toko bangunan,Toko Bahan Bangunan,Sinar Bangunan Building Center,"Jl. Bund. PU No.12, Tuak Daun Merah, Kec. Oebobo, Kota Kupang, Nusa Tenggara Tim. 85228","Tuak Daun Merah, Kec. Oebobo, Kota Kupang",NUSA TENGGARA TIMUR,85228.0,Indonesia,81236648694.0,,,-10.1675355,123.6289538,https://maps.google.com/?cid=0x0:0x8b34913a09e207d2,
toko bangunan,Toko Bahan Bangunan,Toko Bangunan Proton,"RJCC+W7C, Jl. Amabi, Oebufu, Kec. Oebobo, Kota Kupang, Nusa Tenggara Tim. 85142","Jl. Amabi, Oebufu, Kec. Oebobo, Kota Kupang",NUSA TENGGARA TIMUR,85142.0,Indonesia,,,,-10.1776769,123.6206542,https://maps.google.com/?cid=0x0:0x831da8a5c59cb4f4,
toko bangunan,Toko Bahan Bangunan,PT. Makmur Abadi Bangunan,"Jl. Terusan Timor Raya No.Km 9, Oesapa, Kec. Klp. Lima, Kota Kupang, Nusa Tenggara Tim. 85228","Oesapa, Kec. Klp. Lima, Kota Kupang",NUSA TENGGARA TIMUR,85228.0,Indonesia,81367756504.0,,,-10.1446954,123.6559765,https://maps.google.com/?cid=0x0:0x7abc85a224f4ba37,
toko bangunan,Toko Bahan Bangunan,Toko Gloria Bangunan,"Jl. Terusan Timor Raya No.Km. 8, Oesapa, Kec. Klp. Lima, Kota Kupang, Nusa Tenggara Tim.","Kota Kupang, Nusa Tenggara Tim.",NUSA TENGGARA TIMUR,,Indonesia,83876691970.0,,,-10.1487267,123.6475719,https://maps.google.com/?cid=0x0:0x3b07f200fecd7840,
toko bangunan,toko bangunan,Kec. Amfoang Utara,"Kabupaten Kupang, Nusa Tenggara Tim.","Kabupaten Kupang, Nusa Tenggara Tim.",NUSA TENGGARA TIMUR,,Indonesia,,,,-9.4932861,123.8346956,https://maps.google.com/?cid=0x0:0xdaf20ecf9b5428b,
toko bangunan,toko bangunan,Kec. Nekamese,"Kabupaten Kupang, Nusa Tenggara Tim.","Kabupaten Kupang, Nusa Tenggara Tim.",NUSA TENGGARA TIMUR,,Indonesia,,,,-10.2347889,123.6370371,https://maps.google.com/?cid=0x0:0x565669aa9e267387,
toko bangunan,Pemasok Pipa,Toko Bangunan,"Manulai II, Kec. Alak, Kota Kupang, Nusa Tenggara Tim.","Kota Kupang, Nusa Tenggara Tim.",NUSA TENGGARA TIMUR,,Indonesia,85123255522.0,,,-10.213815,123.5749527,https://maps.google.com/?cid=0x0:0x5559349e9e4fc36f,
toko bangunan,Toko Bahan Bangunan,Toko Graha Bangunan,"Gedung Graha Ariadi, Oesapa Bar., Kec. Klp. Lima, Kota Kupang, Nusa Tenggara Tim. 85228","Oesapa Bar., Kec. Klp. Lima, Kota Kupang",NUSA TENGGARA TIMUR,85228.0,Indonesia,81312893723.0,,,-10.1468703,123.631267,https://maps.google.com/?cid=0x0:0x4167d73ee95fc845,
toko bangunan,Toko Perlengkapan Rumah,Toko Karya Bangunan,"RJQV+H9Q, Jl. Bumi I, Oesapa Sel., Kec. Klp. Lima, Kota Kupang, Nusa Tenggara Tim.","Kota Kupang, Nusa Tenggara Tim.",NUSA TENGGARA TIMUR,,Indonesia,,,,-10.1610333,123.6434727,https://maps.google.com/?cid=0x0:0x480107de15c2a6cf,
toko bangunan,Toko Bahan Bangunan,Toko bangunan,"VM4C+R79, Lasiana, Kec. Klp. Lima, Kota Kupang, Nusa Tenggara Tim.","Kota Kupang, Nusa Tenggara Tim.",NUSA TENGGARA TIMUR,,Indonesia,,,,-10.142954,123.6707233,https://maps.google.com/?cid=0x0:0xb111458939496520,
toko bangunan,Pemasok Pipa,Toko Buana Bangunan,"Lasiana, Kec. Klp. Lima, Kota Kupang, Nusa Tenggara Tim.","Kota Kupang, Nusa Tenggara Tim.",NUSA TENGGARA TIMUR,,Indonesia,82244376888.0,,,-10.1373266,123.6764484,https://maps.google.com/?cid=0x0:0x9fc6cad7dda4e71a,
toko bangunan,Toko Perlengkapan Rumah,TOKO BANGUNAN MANULAI II,"RH22+6JQ, Jl. Alamanda, RT.21/RW.08, Alak, Kec. Alak, Kota Kupang, Nusa Tenggara Tim.","Kota Kupang, Nusa Tenggara Tim.",NUSA TENGGARA TIMUR,,Indonesia,3808563791.0,,,-10.1994106,123.5516246,https://maps.google.com/?cid=0x0:0x857905ea92fc096d,
toko bangunan,Toko Bahan Bangunan,GIAS Kupang (GNET) | Distributor Bahan Bangunan,"Gudang Nomor 4, komplek pergudangan pitoby, Jl. Yos Sudarso, Alak, Kec. Alak, Kota Kupang, Nusa Tenggara Tim.","Kota Kupang, Nusa Tenggara Tim.",NUSA TENGGARA TIMUR,,Indonesia,3808471221.0,,,-10.1909714,123.5423159,https://maps.google.com/?cid=0x0:0x96d60a0b60fd54ba,
toko bangunan,Toko Bahan Bangunan,Toko Henny Jaya Bangunan,"Jln. Trans Seba, RT.03/RW.02, Menia, Kec. Sabu Bar., Kabupaten Sabu Raijua, Nusa Tenggara Tim.","Kabupaten Sabu Raijua, Nusa Tenggara Tim.",NUSA TENGGARA TIMUR,,Indonesia,,,,-10.4920399,121.8385402,https://maps.google.com/?cid=0x0:0xa06a0aad28836da0,
toko bangunan,Toko Bahan Bangunan,Toko Bravo Bangunan,"Jl. Terusan Timor Raya, Pasir Panjang, Kec. Kota Lama, Kota Kupang, Nusa Tenggara Tim. 85000","Pasir Panjang, Kec. Kota Lama, Kota Kupang",NUSA TENGGARA TIMUR,85000.0,Indonesia,81246295800.0,,,-10.1509378,123.6033391,https://maps.google.com/?cid=0x0:0xdf4da131f9948aff,
toko bangunan,Toko Cat,Tk. Sanjaya Prima Perkasa (JOTUN KUPANG),"Jl. Amabi, Oepura, Kec. Maulafa, Kota Kupang, Nusa Tenggara Tim. 85142","Oepura, Kec. Maulafa, Kota Kupang",NUSA TENGGARA TIMUR,85142.0,Indonesia,81246133535.0,,,-10.1882033,123.6082174,https://maps.google.com/?cid=0x0:0xbe409892c87ad95e,
toko bangunan,Toko,Ud. Nekmese Huetalan,"87XM+2C8, Tobu, Kec. Tobu, Kabupaten Timor Tengah Selatan, Nusa Tenggara Tim.","Kabupaten Timor Tengah Selatan, Nusa Tenggara Tim.",NUSA TENGGARA TIMUR,,Indonesia,81239748825.0,,,-9.6524648,124.2835694,https://maps.google.com/?cid=0x0:0xb71e90677f8f7aa9,
toko bangunan,Toko Bahan Bangunan,Kristal Bangunan Toko,"RMW8+GPH, Lasiana, Kec. Klp. Lima, Kota Kupang, Nusa Tenggara Tim.","Kota Kupang, Nusa Tenggara Tim.",NUSA TENGGARA TIMUR,,Indonesia,380831119.0,,,-10.1536844,123.6668448,https://maps.google.com/?cid=0x0:0xbb6f0b9276476640,
toko bangunan,Pasar bahan bangunan,Toko Sentral Bangunan,"Jl. A. Yani No.31, Oeba, Kec. Kota Lama, Kota Kupang, Nusa Tenggara Tim.","Kota Kupang, Nusa Tenggara Tim.",NUSA TENGGARA TIMUR,,Indonesia,,,,-10.1589841,123.5906754,https://maps.google.com/?cid=0x0:0x86beb21036599681,
toko bangunan,toko bangunan,Toko Bala Oly,"QJ8P+6RC, Jl. H.R. Koroh, Oelomin, Kec. Nekamese, Kabupaten Kupang, Nusa Tenggara Tim.","Kabupaten Kupang, Nusa Tenggara Tim.",NUSA TENGGARA TIMUR,,Indonesia,81339406870.0,,,-10.234449,123.637027,https://maps.google.com/?cid=0x0:0x76867ef73e81a79e,
toko bangunan,Toko Bahan Bangunan,ARLA BANGUNAN,"Jl. H.R. Koroh, RT.019/RW.007, Sikumana, Kec. Maulafa, Kota Kupang, Nusa Tenggara Tim. 85117","RT.019/RW.007, Sikumana, Kec. Maulafa, Kota Kupang",NUSA TENGGARA TIMUR,85117.0,Indonesia,82122228701.0,,,-10.2074394,123.6128472,https://maps.google.com/?cid=0x0:0xafcc1ea09f9596cc,
toko bangunan,Toko Alat-Alat,ARLAND BANGUNAN,"Jl. H.R. Koroh, Bello, Kec. Maulafa, Kota Kupang, Nusa Tenggara Tim.","Kota Kupang, Nusa Tenggara Tim.",NUSA TENGGARA TIMUR,,Indonesia,82237592836.0,,,-10.2148583,123.6269775,https://maps.google.com/?cid=0x0:0x2029a54a4c6682e4,
toko bangunan,Toko Bahan Bangunan,Venician Bangunan,"QJMG+74C, Jl. H.R. Koroh, Bello, Kec. Maulafa, Kota Kupang, Nusa Tenggara Tim.","Kota Kupang, Nusa Tenggara Tim.",NUSA TENGGARA TIMUR,,Indonesia,81386729122.0,,,-10.2168098,123.6252607,https://maps.google.com/?cid=0x0:0x2783664e590c1547,
toko bangunan,Toko Bahan Bangunan,Tambahkan nimor telepon,"QJR7+FHJ, Jalur XL, Sikumana, Kec. Maulafa, Kota Kupang, Nusa Tenggara Tim.","Kota Kupang, Nusa Tenggara Tim.",NUSA TENGGARA TIMUR,,Indonesia,,,,-10.2087906,123.6138907,https://maps.google.com/?cid=0x0:0xf69cd383eff96abd,
toko bangunan,Toko Bahan Bangunan,Toko BERKAT BANGUNAN,"QHJX+XF3, Jalur XL, Fatukoa, Kec. Maulafa, Kota Kupang, Nusa Tenggara Tim.","Kota Kupang, Nusa Tenggara Tim.",NUSA TENGGARA TIMUR,,Indonesia,,,,-10.2176046,123.5986845,https://maps.google.com/?cid=0x0:0xd3c300c1b348927a,
toko bangunan,Toko Bahan Bangunan,Perdana Bangunan,"Jl. H.R. Koroh No.29, Oepura, Kec. Maulafa, Kota Kupang, Nusa Tenggara Tim. 85142","Oepura, Kec. Maulafa, Kota Kupang",NUSA TENGGARA TIMUR,85142.0,Indonesia,81238863864.0,,,-10.1923587,123.6076599,https://maps.google.com/?cid=0x0:0x76b6f6a948f94f66,
toko bangunan,Toko Bahan Bangunan,Toko Sari Bangunan,"Jl. Jend. Soeharto No.124, Oepura, Kec. Maulafa, Kota Kupang, Nusa Tenggara Tim. 85142","Oepura, Kec. Maulafa, Kota Kupang",NUSA TENGGARA TIMUR,85142.0,Indonesia,380823119.0,,,-10.1871204,123.606142,https://maps.google.com/?cid=0x0:0xff57296e3a89bbd7,
toko bangunan,Toko Bahan Bangunan,Toko Eza Jaya Bangunan,"Jl. Jambu No.16, Bakunase, Kec. Kota Raja, Kota Kupang, Nusa Tenggara Tim.","Kota Kupang, Nusa Tenggara Tim.",NUSA TENGGARA TIMUR,,Indonesia,,,,-10.1844483,123.5866112,https://maps.google.com/?cid=0x0:0x245d551fd1c76d50,
toko bangunan,Toko,Toko Bangunan Dua Putra,"RJ3F+JX7, Maulafa, Kec. Maulafa, Kota Kupang, Nusa Tenggara Tim.","Kota Kupang, Nusa Tenggara Tim.",NUSA TENGGARA TIMUR,,Indonesia,,,,-10.1959668,123.6249153,https://maps.google.com/?cid=0x0:0x79a0dddd14411f17,
toko bangunan,Toserba,Toko mulia jaya,"QJW5+4Q4, Jl. H.R. Koroh, Sikumana, Kec. Maulafa, Kota Kupang, Nusa Tenggara Tim. 85142","Jl. H.R. Koroh, Sikumana, Kec. Maulafa, Kota Kupang",NUSA TENGGARA TIMUR,85142.0,Indonesia,,,,-10.2047356,123.6094539,https://maps.google.com/?cid=0x0:0x3b61a9d32d8005d5,
toko bangunan,Toko Bahan Bangunan,Toko Istana Bangunan,"Jl. Fetor Funay, Maulafa, Kec. Maulafa, Kota Kupang, Nusa Tenggara Tim. 85142","Maulafa, Kec. Maulafa, Kota Kupang",NUSA TENGGARA TIMUR,85142.0,Indonesia,82144819519.0,,,-10.1865612,123.6125505,https://maps.google.com/?cid=0x0:0x21756a783c212384,
toko bangunan,Toko Bahan Bangunan,Bukit Bangunan,"QJR7+9JW, Sikumana, Kec. Maulafa, Kota Kupang, Nusa Tenggara Tim.","Kota Kupang, Nusa Tenggara Tim.",NUSA TENGGARA TIMUR,,Indonesia,85237621174.0,,,-10.2090111,123.6140833,https://maps.google.com/?cid=0x0:0xcc40ac3643c9137e,
toko bangunan,Toko Bahan Bangunan,Asmara Bangunan,"RJ3G+95X, Maulafa, Kec. Maulafa, Kota Kupang, Nusa Tenggara Tim.","Kota Kupang, Nusa Tenggara Tim.",NUSA TENGGARA TIMUR,,Indonesia,81238354177.0,,,-10.1965073,123.6254986,https://maps.google.com/?cid=0x0:0x7c47f0fb97a0b041,
toko bangunan,Toko Bahan Bangunan,Toko Sahabat Bangunan,"Jl. H.R. Koroh No.156-154, Sikumana, Kec. Maulafa, Kota Kupang, Nusa Tenggara Tim. 85142","Sikumana, Kec. Maulafa, Kota Kupang",NUSA TENGGARA TIMUR,85142.0,Indonesia,,,,-10.2024792,123.6061082,https://maps.google.com/?cid=0x0:0xe335357b76593a10,
toko bangunan,toko bangunan,Kec. Amarasi Bar.,"Kabupaten Kupang, Nusa Tenggara Tim.","Kabupaten Kupang, Nusa Tenggara Tim.",NUSA TENGGARA TIMUR,,Indonesia,,,,-10.2967953,123.7215253,https://maps.google.com/?cid=0x0:0xf00f5af6747f20a8,
toko bangunan,Toko Bahan Bangunan,Toko Bangunan Kanaan,"Jl. Terusan Timor Raya No.KM 8, Oesapa, Kec. Klp. Lima, Kota Kupang, Nusa Tenggara Tim. 85226","Oesapa, Kec. Klp. Lima, Kota Kupang",NUSA TENGGARA TIMUR,85226.0,Indonesia,81236129325.0,,,-10.1492781,123.6411571,https://maps.google.com/?cid=0x0:0x9ccb845e1bb38ce5,
toko bangunan,Toko Bahan Bangunan,PT. Makmur Abadi Bangunan,"Jl. Terusan Timor Raya No.Km 9, Oesapa, Kec. Klp. Lima, Kota Kupang, Nusa Tenggara Tim. 85228","Oesapa, Kec. Klp. Lima, Kota Kupang",NUSA TENGGARA TIMUR,85228.0,Indonesia,81367756504.0,,,-10.1446954,123.6559765,https://maps.google.com/?cid=0x0:0x7abc85a224f4ba37,
toko bangunan,Toko Bahan Bangunan,Samara Bangunan,"Jl. Frans Seda No.21, Fatululi, Kec. Oebobo, Kota Kupang, Nusa Tenggara Tim. 85111","Fatululi, Kec. Oebobo, Kota Kupang",NUSA TENGGARA TIMUR,85111.0,Indonesia,85377066323.0,,,-10.1598997,123.6096981,https://maps.google.com/?cid=0x0:0x2cd980f33e38e0ae,
toko bangunan,Toko Bahan Bangunan,Asmara Bangunan,"RJ3G+95X, Maulafa, Kec. Maulafa, Kota Kupang, Nusa Tenggara Tim.","Kota Kupang, Nusa Tenggara Tim.",NUSA TENGGARA TIMUR,,Indonesia,81238354177.0,,,-10.1965073,123.6254986,https://maps.google.com/?cid=0x0:0x7c47f0fb97a0b041,
toko bangunan,Toko Perhiasan,pilar mas abadi kupang,"RJFF+GPM, Jl. W.J. Lalamentik Jl. Perintis Kemerdekaan II No.9, Oebufu, Kec. Oebobo, Kota Kupang, Nusa Tenggara Tim. 85111","Jl. W.J. Lalamentik Jl. Perintis Kemerdekaan II No.9, Oebufu, Kec. Oebobo, Kota Kupang",NUSA TENGGARA TIMUR,85111.0,Indonesia,8113828687.0,,,-10.1760867,123.6241092,https://maps.google.com/?cid=0x0:0xa69b46c420671af4,
toko bangunan,Toko Bahan Bangunan,Toko Metro Bangunan,"Jl. Pulau Indah, Oesapa Bar., Kec. Klp. Lima, Kota Kupang, Nusa Tenggara Tim. 85228","Oesapa Bar., Kec. Klp. Lima, Kota Kupang",NUSA TENGGARA TIMUR,85228.0,Indonesia,82164218639.0,,,-10.1488046,123.6344972,https://maps.google.com/?cid=0x0:0x4afb0da23e208afb,
toko bangunan,Toko Bahan Bangunan,SURYA BANGUNAN BUILDING MATERIAL,"Tuak Daun Merah, Kec. Oebobo, Kota Kupang, Nusa Tenggara Tim. 85228","Kec. Oebobo, Kota Kupang",NUSA TENGGARA TIMUR,85228.0,Indonesia,85101757906.0,,,-10.1673497,123.6293264,https://maps.google.com/?cid=0x0:0xadd57bf60a816b00,
toko bangunan,Toko Bahan Bangunan,Toko Bangunan Jaya,"Jl. Terusan Timor Raya No.9u KM. 6, Oesapa Bar., Kec. Klp. Lima, Kota Kupang, Nusa Tenggara Tim.","Kota Kupang, Nusa Tenggara Tim.",NUSA TENGGARA TIMUR,,Indonesia,81338567839.0,,,-10.14441,123.6254719,https://maps.google.com/?cid=0x0:0x4a94c89160bbe62c,
toko bangunan,Pemasok Pipa,Toko Bangunan,"Manulai II, Kec. Alak, Kota Kupang, Nusa Tenggara Tim.","Kota Kupang, Nusa Tenggara Tim.",NUSA TENGGARA TIMUR,,Indonesia,85123255522.0,,,-10.213815,123.5749527,https://maps.google.com/?cid=0x0:0x5559349e9e4fc36f,
toko bangunan,Toko Bahan Bangunan,Toko Bravo Bangunan,"Jl. Terusan Timor Raya, Pasir Panjang, Kec. Kota Lama, Kota Kupang, Nusa Tenggara Tim. 85000","Pasir Panjang, Kec. Kota Lama, Kota Kupang",NUSA TENGGARA TIMUR,85000.0,Indonesia,81246295800.0,,,-10.1509378,123.6033391,https://maps.google.com/?cid=0x0:0xdf4da131f9948aff,
toko bangunan,Pemasok Pipa,Toko Buana Bangunan,"Lasiana, Kec. Klp. Lima, Kota Kupang, Nusa Tenggara Tim.","Kota Kupang, Nusa Tenggara Tim.",NUSA TENGGARA TIMUR,,Indonesia,82244376888.0,,,-10.1373266,123.6764484,https://maps.google.com/?cid=0x0:0x9fc6cad7dda4e71a,
toko bangunan,Toko Bahan Bangunan,UD. SAMA JAYA,"RHHP+VX2, Jl. Jenderal Sudirman No.27, Kuanino, Kec. Kota Raja, Kota Kupang, Nusa Tenggara Tim.","Kota Kupang, Nusa Tenggara Tim.",NUSA TENGGARA TIMUR,,Indonesia,81238825057.0,,,-10.1703192,123.5873411,https://maps.google.com/?cid=0x0:0xb81f7d1e47e6001b,
toko bangunan,toko bangunan,Toko Bangunan Teluk,"RJHR+FR7, Gg. Ukitau, Liliba, Kec. Oebobo, Kota Kupang, Nusa Tenggara Tim.","Kota Kupang, Nusa Tenggara Tim.",NUSA TENGGARA TIMUR,,Indonesia,85713493899.0,,,-10.1713257,123.6420599,https://maps.google.com/?cid=0x0:0xa174ad1432c6c0e1,
toko bangunan,Toko Bahan Bangunan,Sinar Bangunan Building Center,"Jl. Bund. PU No.12, Tuak Daun Merah, Kec. Oebobo, Kota Kupang, Nusa Tenggara Tim. 85228","Tuak Daun Merah, Kec. Oebobo, Kota Kupang",NUSA TENGGARA TIMUR,85228.0,Indonesia,81236648694.0,,,-10.1675355,123.6289538,https://maps.google.com/?cid=0x0:0x8b34913a09e207d2,
toko bangunan,Toko Perlengkapan Rumah,Toko Karya Bangunan,"RJQV+H9Q, Jl. Bumi I, Oesapa Sel., Kec. Klp. Lima, Kota Kupang, Nusa Tenggara Tim.","Kota Kupang, Nusa Tenggara Tim.",NUSA TENGGARA TIMUR,,Indonesia,,,,-10.1610333,123.6434727,https://maps.google.com/?cid=0x0:0x480107de15c2a6cf,
toko bangunan,Toko Alat-Alat,ARLAND BANGUNAN,"Jl. H.R. Koroh, Bello, Kec. Maulafa, Kota Kupang, Nusa Tenggara Tim.","Kota Kupang, Nusa Tenggara Tim.",NUSA TENGGARA TIMUR,,Indonesia,82237592836.0,,,-10.2148583,123.6269775,https://maps.google.com/?cid=0x0:0x2029a54a4c6682e4,
toko bangunan,Toko Bahan Bangunan,Mitra Bangunan,"RJFC+7G2, Oebufu, Kec. Oebobo, Kota Kupang, Nusa Tenggara Tim.","Kota Kupang, Nusa Tenggara Tim.",NUSA TENGGARA TIMUR,,Indonesia,,,,-10.1768587,123.6212559,https://maps.google.com/?cid=0x0:0x2ab5092f83e85fa4,
toko bangunan,Toko Bahan Bangunan,Setia Bangunan,"Jl. Fetor Funay No.20, Oepura, Kec. Maulafa, Kota Kupang, Nusa Tenggara Tim. 85142","Oepura, Kec. Maulafa, Kota Kupang",NUSA TENGGARA TIMUR,85142.0,Indonesia,380829131.0,,,-10.1934312,123.6224539,https://maps.google.com/?cid=0x0:0x11b3821dbe6d55ce,
toko bangunan,Toko Bahan Bangunan,Toko bangunan,"VM4C+R79, Lasiana, Kec. Klp. Lima, Kota Kupang, Nusa Tenggara Tim.","Kota Kupang, Nusa Tenggara Tim.",NUSA TENGGARA TIMUR,,Indonesia,,,,-10.142954,123.6707233,https://maps.google.com/?cid=0x0:0xb111458939496520,
toko bangunan,Toko Bahan Bangunan,Mitra Bangunan,"Jl. Moch Hatta No.52, Fontein, Kec. Kota Raja, Kota Kupang, Nusa Tenggara Tim. 85112","Fontein, Kec. Kota Raja, Kota Kupang",NUSA TENGGARA TIMUR,85112.0,Indonesia,82236636819.0,,,-10.169089,123.585355,https://maps.google.com/?cid=0x0:0xb133bd5d1eaec0af,
toko bangunan,Toko Bahan Bangunan,Toko Gloria Bangunan,"Jl. Terusan Timor Raya No.Km. 8, Oesapa, Kec. Klp. Lima, Kota Kupang, Nusa Tenggara Tim.","Kota Kupang, Nusa Tenggara Tim.",NUSA TENGGARA TIMUR,,Indonesia,83876691970.0,,,-10.1487267,123.6475719,https://maps.google.com/?cid=0x0:0x3b07f200fecd7840,
toko bangunan,Toko Bahan Bangunan,Sinar Bangunan Building Mart,"Jl. Yos Sudarso No.177, Namosain, Kec. Alak, Kota Kupang, Nusa Tenggara Tim.","Kota Kupang, Nusa Tenggara Tim.",NUSA TENGGARA TIMUR,,Indonesia,81238941314.0,,,-10.1916248,123.5407476,https://maps.google.com/?cid=0x0:0x411fca6242be55fc,
toko bangunan,Toko Bahan Bangunan,Toko Yoditama,"RJCW+P6C, Naimata, Kec. Maulafa, Kota Kupang, Nusa Tenggara Tim.","Kota Kupang, Nusa Tenggara Tim.",NUSA TENGGARA TIMUR,,Indonesia,811381621.0,,,-10.1781959,123.6455051,https://maps.google.com/?cid=0x0:0xabe0b0838938a8bc,
toko bangunan,Toko Bahan Bangunan,Venician Bangunan,"QJMG+74C, Jl. H.R. Koroh, Bello, Kec. Maulafa, Kota Kupang, Nusa Tenggara Tim.","Kota Kupang, Nusa Tenggara Tim.",NUSA TENGGARA TIMUR,,Indonesia,81386729122.0,,,-10.2168098,123.6252607,https://maps.google.com/?cid=0x0:0x2783664e590c1547,
toko bangunan,Kontraktor Batu >>u0026 Tegel,Noh Musa Mnao,"QVRP+PMW, Tesbatan, Kec. Amarasi, Kabupaten Kupang, Nusa Tenggara Tim.","Kabupaten Kupang, Nusa Tenggara Tim.",NUSA TENGGARA TIMUR,,Indonesia,,,,-10.2078112,123.8867558,https://maps.google.com/?cid=0x0:0x21a16eb24ee8bed2,
toko bangunan,Jasa Konstruksi dan Bangunan,Batako Om Noh Missa,"PV72+XM7, Sonraen, Kec. Amarasi Sel., Kabupaten Kupang, Nusa Tenggara Tim.","Kabupaten Kupang, Nusa Tenggara Tim.",NUSA TENGGARA TIMUR,,Indonesia,,,,-10.2850832,123.8516732,https://maps.google.com/?cid=0x0:0xf21a2441dbdafac5,
toko bangunan,toko bangunan,Kec. Amarasi Tim.,"Kabupaten Kupang, Nusa Tenggara Tim.","Kabupaten Kupang, Nusa Tenggara Tim.",NUSA TENGGARA TIMUR,,Indonesia,,,,-10.1884143,124.0399714,https://maps.google.com/?cid=0x0:0xcfce44e562bbc585,
toko bangunan,Kontraktor Batu >>u0026 Tegel,Noh Musa Mnao,"QVRP+PMW, Tesbatan, Kec. Amarasi, Kabupaten Kupang, Nusa Tenggara Tim.","Kabupaten Kupang, Nusa Tenggara Tim.",NUSA TENGGARA TIMUR,,Indonesia,,,,-10.2078112,123.8867558,https://maps.google.com/?cid=0x0:0x21a16eb24ee8bed2,
toko bangunan,toko bangunan,TOKO GEJORA,"W486+H93, Oemofa, Kec. Amabi Oefeto Tim., Kabupaten Kupang, Nusa Tenggara Tim.","Kabupaten Kupang, Nusa Tenggara Tim.",NUSA TENGGARA TIMUR,,Indonesia,,,,-10.083615,124.1109336,https://maps.google.com/?cid=0x0:0xd03b2b37baaff217,
toko bangunan,Pemasok Pipa,Toko Buana Bangunan,"Lasiana, Kec. Klp. Lima, Kota Kupang, Nusa Tenggara Tim.","Kota Kupang, Nusa Tenggara Tim.",NUSA TENGGARA TIMUR,,Indonesia,82244376888.0,,,-10.1373266,123.6764484,https://maps.google.com/?cid=0x0:0x9fc6cad7dda4e71a,
toko bangunan,Toko Bahan Bangunan,Toko Graha Bangunan,"Gedung Graha Ariadi, Oesapa Bar., Kec. Klp. Lima, Kota Kupang, Nusa Tenggara Tim. 85228","Oesapa Bar., Kec. Klp. Lima, Kota Kupang",NUSA TENGGARA TIMUR,85228.0,Indonesia,81312893723.0,,,-10.1468703,123.631267,https://maps.google.com/?cid=0x0:0x4167d73ee95fc845,
toko bangunan,Toko Bahan Bangunan,Toko Bravo Bangunan,"Jl. Terusan Timor Raya, Pasir Panjang, Kec. Kota Lama, Kota Kupang, Nusa Tenggara Tim. 85000","Pasir Panjang, Kec. Kota Lama, Kota Kupang",NUSA TENGGARA TIMUR,85000.0,Indonesia,81246295800.0,,,-10.1509378,123.6033391,https://maps.google.com/?cid=0x0:0xdf4da131f9948aff,
toko bangunan,Toko Bahan Bangunan,Toko Bangunan Jaya,"Jl. Terusan Timor Raya No.9u KM. 6, Oesapa Bar., Kec. Klp. Lima, Kota Kupang, Nusa Tenggara Tim.","Kota Kupang, Nusa Tenggara Tim.",NUSA TENGGARA TIMUR,,Indonesia,81338567839.0,,,-10.14441,123.6254719,https://maps.google.com/?cid=0x0:0x4a94c89160bbe62c,
toko bangunan,Toko Bahan Bangunan,SURYA BANGUNAN BUILDING MATERIAL,"Tuak Daun Merah, Kec. Oebobo, Kota Kupang, Nusa Tenggara Tim. 85228","Kec. Oebobo, Kota Kupang",NUSA TENGGARA TIMUR,85228.0,Indonesia,85101757906.0,,,-10.1673497,123.6293264,https://maps.google.com/?cid=0x0:0xadd57bf60a816b00,
toko bangunan,Toko Bahan Bangunan,Toko bangunan,"VM4C+R79, Lasiana, Kec. Klp. Lima, Kota Kupang, Nusa Tenggara Tim.","Kota Kupang, Nusa Tenggara Tim.",NUSA TENGGARA TIMUR,,Indonesia,,,,-10.142954,123.6707233,https://maps.google.com/?cid=0x0:0xb111458939496520,
toko bangunan,Pemasok Pipa,Toko Bangunan,"Manulai II, Kec. Alak, Kota Kupang, Nusa Tenggara Tim.","Kota Kupang, Nusa Tenggara Tim.",NUSA TENGGARA TIMUR,,Indonesia,85123255522.0,,,-10.213815,123.5749527,https://maps.google.com/?cid=0x0:0x5559349e9e4fc36f,
toko bangunan,toko bangunan,Kec. Amabi Oefeto Tim.,"Kabupaten Kupang, Nusa Tenggara Tim.","Kabupaten Kupang, Nusa Tenggara Tim.",NUSA TENGGARA TIMUR,,Indonesia,,,,-10.0873901,124.1180524,https://maps.google.com/?cid=0x0:0x2bf877a32d0b46c2,
toko bangunan,Toko Bahan Bangunan,PT. Makmur Abadi Bangunan,"Jl. Terusan Timor Raya No.Km 9, Oesapa, Kec. Klp. Lima, Kota Kupang, Nusa Tenggara Tim. 85228","Oesapa, Kec. Klp. Lima, Kota Kupang",NUSA TENGGARA TIMUR,85228.0,Indonesia,81367756504.0,,,-10.1446954,123.6559765,https://maps.google.com/?cid=0x0:0x7abc85a224f4ba37,
toko bangunan,toko bangunan,Toko Bangunan Teluk,"RJHR+FR7, Gg. Ukitau, Liliba, Kec. Oebobo, Kota Kupang, Nusa Tenggara Tim.","Kota Kupang, Nusa Tenggara Tim.",NUSA TENGGARA TIMUR,,Indonesia,85713493899.0,,,-10.1713257,123.6420599,https://maps.google.com/?cid=0x0:0xa174ad1432c6c0e1,
toko bangunan,Toko Bahan Bangunan,Toko Bangunan Kanaan,"Jl. Terusan Timor Raya No.KM 8, Oesapa, Kec. Klp. Lima, Kota Kupang, Nusa Tenggara Tim. 85226","Oesapa, Kec. Klp. Lima, Kota Kupang",NUSA TENGGARA TIMUR,85226.0,Indonesia,81236129325.0,,,-10.1492781,123.6411571,https://maps.google.com/?cid=0x0:0x9ccb845e1bb38ce5,
toko bangunan,Toko Bahan Bangunan,Toko Metro Bangunan,"Jl. Pulau Indah, Oesapa Bar., Kec. Klp. Lima, Kota Kupang, Nusa Tenggara Tim. 85228","Oesapa Bar., Kec. Klp. Lima, Kota Kupang",NUSA TENGGARA TIMUR,85228.0,Indonesia,82164218639.0,,,-10.1488046,123.6344972,https://maps.google.com/?cid=0x0:0x4afb0da23e208afb,
toko bangunan,Pemasok Pipa,Toko Bangunan,"Manulai II, Kec. Alak, Kota Kupang, Nusa Tenggara Tim.","Kota Kupang, Nusa Tenggara Tim.",NUSA TENGGARA TIMUR,,Indonesia,85123255522.0,,,-10.213815,123.5749527,https://maps.google.com/?cid=0x0:0x5559349e9e4fc36f,
toko bangunan,Toko Bahan Bangunan,Mitra Bangunan,"RJFC+7G2, Oebufu, Kec. Oebobo, Kota Kupang, Nusa Tenggara Tim.","Kota Kupang, Nusa Tenggara Tim.",NUSA TENGGARA TIMUR,,Indonesia,,,,-10.1768587,123.6212559,https://maps.google.com/?cid=0x0:0x2ab5092f83e85fa4,
toko bangunan,Toko Bahan Bangunan,Mitra Bangunan,"Jl. Moch Hatta No.52, Fontein, Kec. Kota Raja, Kota Kupang, Nusa Tenggara Tim. 85112","Fontein, Kec. Kota Raja, Kota Kupang",NUSA TENGGARA TIMUR,85112.0,Indonesia,82236636819.0,,,-10.169089,123.585355,https://maps.google.com/?cid=0x0:0xb133bd5d1eaec0af,
toko bangunan,Toko Bahan Bangunan,Toko Graha Bangunan,"Gedung Graha Ariadi, Oesapa Bar., Kec. Klp. Lima, Kota Kupang, Nusa Tenggara Tim. 85228","Oesapa Bar., Kec. Klp. Lima, Kota Kupang",NUSA TENGGARA TIMUR,85228.0,Indonesia,81312893723.0,,,-10.1468703,123.631267,https://maps.google.com/?cid=0x0:0x4167d73ee95fc845,
toko bangunan,Toko Bahan Bangunan,CV KENCANA MULIA ABADI,"Jl. Terusan Timor Raya No.9, Oeba, Kec. Kota Lama, Kota Kupang, Nusa Tenggara Tim.","Kota Kupang, Nusa Tenggara Tim.",NUSA TENGGARA TIMUR,,Indonesia,,,,-10.1562204,123.594482,https://maps.google.com/?cid=0x0:0x74678b2af89178aa,
toko bangunan,Toko Bahan Bangunan,Toko Bravo Bangunan,"Jl. Terusan Timor Raya, Pasir Panjang, Kec. Kota Lama, Kota Kupang, Nusa Tenggara Tim. 85000","Pasir Panjang, Kec. Kota Lama, Kota Kupang",NUSA TENGGARA TIMUR,85000.0,Indonesia,81246295800.0,,,-10.1509378,123.6033391,https://maps.google.com/?cid=0x0:0xdf4da131f9948aff,
toko bangunan,Toko Perlengkapan Rumah,Toko Karya Bangunan,"RJQV+H9Q, Jl. Bumi I, Oesapa Sel., Kec. Klp. Lima, Kota Kupang, Nusa Tenggara Tim.","Kota Kupang, Nusa Tenggara Tim.",NUSA TENGGARA TIMUR,,Indonesia,,,,-10.1610333,123.6434727,https://maps.google.com/?cid=0x0:0x480107de15c2a6cf,
toko bangunan,Toko Bahan Bangunan,Toko Bintang Bangunan,"Jl. Terusan Timor Raya No.KM9, Oesapa, Kec. Klp. Lima, Kota Kupang, Nusa Tenggara Tim. 85228","Oesapa, Kec. Klp. Lima, Kota Kupang",NUSA TENGGARA TIMUR,85228.0,Indonesia,81339755019.0,,,-10.1470557,123.6523983,https://maps.google.com/?cid=0x0:0x783a8e4ca1444de,
toko bangunan,Toko Bahan Bangunan,UD. SAMA JAYA,"RHHP+VX2, Jl. Jenderal Sudirman No.27, Kuanino, Kec. Kota Raja, Kota Kupang, Nusa Tenggara Tim.","Kota Kupang, Nusa Tenggara Tim.",NUSA TENGGARA TIMUR,,Indonesia,81238825057.0,,,-10.1703192,123.5873411,https://maps.google.com/?cid=0x0:0xb81f7d1e47e6001b,
toko bangunan,Toko Bahan Bangunan,Utama Bangunan,"Jl. Jenderal Sudirman No.104, Nunleu, Kec. Kota Raja, Kota Kupang, Nusa Tenggara Tim.","Kota Kupang, Nusa Tenggara Tim.",NUSA TENGGARA TIMUR,,Indonesia,,,,-10.1737992,123.592435,https://maps.google.com/?cid=0x0:0x5d963cfe75d2b6f3,
toko bangunan,Toko Bahan Bangunan,SURYA BANGUNAN BUILDING MATERIAL,"Tuak Daun Merah, Kec. Oebobo, Kota Kupang, Nusa Tenggara Tim. 85228","Kec. Oebobo, Kota Kupang",NUSA TENGGARA TIMUR,85228.0,Indonesia,85101757906.0,,,-10.1673497,123.6293264,https://maps.google.com/?cid=0x0:0xadd57bf60a816b00,
toko bangunan,Toko Bahan Bangunan,Sinar Bangunan Building Center,"Jl. Bund. PU No.12, Tuak Daun Merah, Kec. Oebobo, Kota Kupang, Nusa Tenggara Tim. 85228","Tuak Daun Merah, Kec. Oebobo, Kota Kupang",NUSA TENGGARA TIMUR,85228.0,Indonesia,81236648694.0,,,-10.1675355,123.6289538,https://maps.google.com/?cid=0x0:0x8b34913a09e207d2,
toko bangunan,Pemasok Pipa,Toko Buana Bangunan,"Lasiana, Kec. Klp. Lima, Kota Kupang, Nusa Tenggara Tim.","Kota Kupang, Nusa Tenggara Tim.",NUSA TENGGARA TIMUR,,Indonesia,82244376888.0,,,-10.1373266,123.6764484,https://maps.google.com/?cid=0x0:0x9fc6cad7dda4e71a,
toko bangunan,Toko Bahan Bangunan,Toko Gloria Bangunan,"Jl. Terusan Timor Raya No.Km. 8, Oesapa, Kec. Klp. Lima, Kota Kupang, Nusa Tenggara Tim.","Kota Kupang, Nusa Tenggara Tim.",NUSA TENGGARA TIMUR,,Indonesia,83876691970.0,,,-10.1487267,123.6475719,https://maps.google.com/?cid=0x0:0x3b07f200fecd7840,
toko bangunan,Pemasok Bahan Bangunan,Toko Hero Bangunan,"Toko Hero Bangunan, Tini, Manuaman, Kec. Kota Atambua, Kabupaten Belu, Nusa Tenggara Tim. 85712","Tini, Manuaman, Kec. Kota Atambua, Kabupaten Belu",NUSA TENGGARA TIMUR,85712.0,Indonesia,82221202985.0,,,-9.1117919,124.8871833,https://maps.google.com/?cid=0x0:0xb79f7fc42724fd10,
toko bangunan,Pemasok Bahan Bangunan,Indo Bangunan,"Jl. Taebenu, Liliba, Kec. Oebobo, Kota Kupang, Nusa Tenggara Tim. 85142","Liliba, Kec. Oebobo, Kota Kupang",NUSA TENGGARA TIMUR,85142.0,Indonesia,85198498181.0,,,-10.177757,123.6444948,https://maps.google.com/?cid=0x0:0xe79b41c05f57dec9,
toko bangunan,toko bangunan,TOKO GEJORA,"W486+H93, Oemofa, Kec. Amabi Oefeto Tim., Kabupaten Kupang, Nusa Tenggara Tim.","Kabupaten Kupang, Nusa Tenggara Tim.",NUSA TENGGARA TIMUR,,Indonesia,,,,-10.083615,124.1109336,https://maps.google.com/?cid=0x0:0xd03b2b37baaff217,
toko bangunan,toko bangunan,Kec. Amfoang Bar. Daya,"Kabupaten Kupang, Nusa Tenggara Tim.","Kabupaten Kupang, Nusa Tenggara Tim.",NUSA TENGGARA TIMUR,,Indonesia,,,,-9.6609814,123.6813389,https://maps.google.com/?cid=0x0:0x1fdc15a48159a2bc,
toko bangunan,Toko Bahan Bangunan,PT. Makmur Abadi Bangunan,"Jl. Terusan Timor Raya No.Km 9, Oesapa, Kec. Klp. Lima, Kota Kupang, Nusa Tenggara Tim. 85228","Oesapa, Kec. Klp. Lima, Kota Kupang",NUSA TENGGARA TIMUR,85228.0,Indonesia,81367756504.0,,,-10.1446954,123.6559765,https://maps.google.com/?cid=0x0:0x7abc85a224f4ba37,
toko bangunan,Toko Bahan Bangunan,Toko Metro Bangunan,"Jl. Pulau Indah, Oesapa Bar., Kec. Klp. Lima, Kota Kupang, Nusa Tenggara Tim. 85228","Oesapa Bar., Kec. Klp. Lima, Kota Kupang",NUSA TENGGARA TIMUR,85228.0,Indonesia,82164218639.0,,,-10.1488046,123.6344972,https://maps.google.com/?cid=0x0:0x4afb0da23e208afb,
toko bangunan,Toko Bahan Bangunan,Toko Graha Bangunan,"Gedung Graha Ariadi, Oesapa Bar., Kec. Klp. Lima, Kota Kupang, Nusa Tenggara Tim. 85228","Oesapa Bar., Kec. Klp. Lima, Kota Kupang",NUSA TENGGARA TIMUR,85228.0,Indonesia,81312893723.0,,,-10.1468703,123.631267,https://maps.google.com/?cid=0x0:0x4167d73ee95fc845,
toko bangunan,Toko Perlengkapan Rumah,Saudara Bangunan,"9C43+5CV, Wee Karou, Kec. Loli, Kabupaten Sumba Barat, Nusa Tenggara Tim.","Kabupaten Sumba Barat, Nusa Tenggara Tim.",NUSA TENGGARA TIMUR,,Indonesia,,,,-9.6445021,119.403561,https://maps.google.com/?cid=0x0:0xbd0bec82e2e0b21f,
toko bangunan,Toko Bahan Bangunan,Toko Bravo Bangunan,"Jl. Terusan Timor Raya, Pasir Panjang, Kec. Kota Lama, Kota Kupang, Nusa Tenggara Tim. 85000","Pasir Panjang, Kec. Kota Lama, Kota Kupang",NUSA TENGGARA TIMUR,85000.0,Indonesia,81246295800.0,,,-10.1509378,123.6033391,https://maps.google.com/?cid=0x0:0xdf4da131f9948aff,
toko bangunan,Toko Bahan Bangunan,Toko Bangunan Jaya,"Jl. Terusan Timor Raya No.9u KM. 6, Oesapa Bar., Kec. Klp. Lima, Kota Kupang, Nusa Tenggara Tim.","Kota Kupang, Nusa Tenggara Tim.",NUSA TENGGARA TIMUR,,Indonesia,81338567839.0,,,-10.14441,123.6254719,https://maps.google.com/?cid=0x0:0x4a94c89160bbe62c,
toko bangunan,Toko Bahan Bangunan,SURYA BANGUNAN BUILDING MATERIAL,"Tuak Daun Merah, Kec. Oebobo, Kota Kupang, Nusa Tenggara Tim. 85228","Kec. Oebobo, Kota Kupang",NUSA TENGGARA TIMUR,85228.0,Indonesia,85101757906.0,,,-10.1673497,123.6293264,https://maps.google.com/?cid=0x0:0xadd57bf60a816b00,
toko bangunan,Toko Bahan Bangunan,Toko Bangunan Kanaan,"Jl. Terusan Timor Raya No.KM 8, Oesapa, Kec. Klp. Lima, Kota Kupang, Nusa Tenggara Tim. 85226","Oesapa, Kec. Klp. Lima, Kota Kupang",NUSA TENGGARA TIMUR,85226.0,Indonesia,81236129325.0,,,-10.1492781,123.6411571,https://maps.google.com/?cid=0x0:0x9ccb845e1bb38ce5,
toko bangunan,Toko Bahan Bangunan,Sinar Bangunan Building Center,"Jl. Bund. PU No.12, Tuak Daun Merah, Kec. Oebobo, Kota Kupang, Nusa Tenggara Tim. 85228","Tuak Daun Merah, Kec. Oebobo, Kota Kupang",NUSA TENGGARA TIMUR,85228.0,Indonesia,81236648694.0,,,-10.1675355,123.6289538,https://maps.google.com/?cid=0x0:0x8b34913a09e207d2,
toko bangunan,Pemasok Pipa,Toko Bangunan,"Manulai II, Kec. Alak, Kota Kupang, Nusa Tenggara Tim.","Kota Kupang, Nusa Tenggara Tim.",NUSA TENGGARA TIMUR,,Indonesia,85123255522.0,,,-10.213815,123.5749527,https://maps.google.com/?cid=0x0:0x5559349e9e4fc36f,
toko bangunan,Toko Perlengkapan Rumah,Toko Karya Bangunan,"RJQV+H9Q, Jl. Bumi I, Oesapa Sel., Kec. Klp. Lima, Kota Kupang, Nusa Tenggara Tim.","Kota Kupang, Nusa Tenggara Tim.",NUSA TENGGARA TIMUR,,Indonesia,,,,-10.1610333,123.6434727,https://maps.google.com/?cid=0x0:0x480107de15c2a6cf,
toko bangunan,Toko Bahan Bangunan,Toko Duta Bangunan,"CH3M+GQ8, Wai Rasa, Kec. Umbu Ratu Nggay Bar., Kabupaten Sumba Tengah, Nusa Tenggara Tim.","Kabupaten Sumba Tengah, Nusa Tenggara Tim.",NUSA TENGGARA TIMUR,,Indonesia,,,,-9.5962137,119.5844623,https://maps.google.com/?cid=0x0:0x7e609489f14c4fbb,
toko bangunan,Toko Bahan Bangunan,CV KENCANA MULIA ABADI,"Jl. Terusan Timor Raya No.9, Oeba, Kec. Kota Lama, Kota Kupang, Nusa Tenggara Tim.","Kota Kupang, Nusa Tenggara Tim.",NUSA TENGGARA TIMUR,,Indonesia,,,,-10.1562204,123.594482,https://maps.google.com/?cid=0x0:0x74678b2af89178aa,
toko bangunan,Pemasok Bahan Bangunan,Indo Bangunan,"Jl. Taebenu, Liliba, Kec. Oebobo, Kota Kupang, Nusa Tenggara Tim. 85142","Liliba, Kec. Oebobo, Kota Kupang",NUSA TENGGARA TIMUR,85142.0,Indonesia,85198498181.0,,,-10.177757,123.6444948,https://maps.google.com/?cid=0x0:0xe79b41c05f57dec9,
toko bangunan,Toko Bahan Bangunan,Toko bangunan,"VM4C+R79, Lasiana, Kec. Klp. Lima, Kota Kupang, Nusa Tenggara Tim.","Kota Kupang, Nusa Tenggara Tim.",NUSA TENGGARA TIMUR,,Indonesia,,,,-10.142954,123.6707233,https://maps.google.com/?cid=0x0:0xb111458939496520,
toko bangunan,Toko Bahan Bangunan,UD. SAMA JAYA,"RHHP+VX2, Jl. Jenderal Sudirman No.27, Kuanino, Kec. Kota Raja, Kota Kupang, Nusa Tenggara Tim.","Kota Kupang, Nusa Tenggara Tim.",NUSA TENGGARA TIMUR,,Indonesia,81238825057.0,,,-10.1703192,123.5873411,https://maps.google.com/?cid=0x0:0xb81f7d1e47e6001b,
toko bangunan,Toko Bahan Bangunan,Toko Gloria Bangunan,"Jl. Terusan Timor Raya No.Km. 8, Oesapa, Kec. Klp. Lima, Kota Kupang, Nusa Tenggara Tim.","Kota Kupang, Nusa Tenggara Tim.",NUSA TENGGARA TIMUR,,Indonesia,83876691970.0,,,-10.1487267,123.6475719,https://maps.google.com/?cid=0x0:0x3b07f200fecd7840,
toko bangunan,toko bangunan,Kec. Amfoang Bar. Laut,"Kabupaten Kupang, Nusa Tenggara Tim.","Kabupaten Kupang, Nusa Tenggara Tim.",NUSA TENGGARA TIMUR,,Indonesia,,,,-9.5657493,123.7567726,https://maps.google.com/?cid=0x0:0xda8148623839fa68,
toko bangunan,Toko Bahan Bangunan,Toko Metro Bangunan,"Jl. Pulau Indah, Oesapa Bar., Kec. Klp. Lima, Kota Kupang, Nusa Tenggara Tim. 85228","Oesapa Bar., Kec. Klp. Lima, Kota Kupang",NUSA TENGGARA TIMUR,85228.0,Indonesia,82164218639.0,,,-10.1488046,123.6344972,https://maps.google.com/?cid=0x0:0x4afb0da23e208afb,
toko bangunan,Toko Bahan Bangunan,PT. Makmur Abadi Bangunan,"Jl. Terusan Timor Raya No.Km 9, Oesapa, Kec. Klp. Lima, Kota Kupang, Nusa Tenggara Tim. 85228","Oesapa, Kec. Klp. Lima, Kota Kupang",NUSA TENGGARA TIMUR,85228.0,Indonesia,81367756504.0,,,-10.1446954,123.6559765,https://maps.google.com/?cid=0x0:0x7abc85a224f4ba37,
toko bangunan,Toko Bahan Bangunan,Toko Bravo Bangunan,"Jl. Terusan Timor Raya, Pasir Panjang, Kec. Kota Lama, Kota Kupang, Nusa Tenggara Tim. 85000","Pasir Panjang, Kec. Kota Lama, Kota Kupang",NUSA TENGGARA TIMUR,85000.0,Indonesia,81246295800.0,,,-10.1509378,123.6033391,https://maps.google.com/?cid=0x0:0xdf4da131f9948aff,
toko bangunan,Pemasok Pipa,Toko Buana Bangunan,"Lasiana, Kec. Klp. Lima, Kota Kupang, Nusa Tenggara Tim.","Kota Kupang, Nusa Tenggara Tim.",NUSA TENGGARA TIMUR,,Indonesia,82244376888.0,,,-10.1373266,123.6764484,https://maps.google.com/?cid=0x0:0x9fc6cad7dda4e71a,
toko bangunan,Toko Perlengkapan Rumah,Saudara Bangunan,"9C43+5CV, Wee Karou, Kec. Loli, Kabupaten Sumba Barat, Nusa Tenggara Tim.","Kabupaten Sumba Barat, Nusa Tenggara Tim.",NUSA TENGGARA TIMUR,,Indonesia,,,,-9.6445021,119.403561,https://maps.google.com/?cid=0x0:0xbd0bec82e2e0b21f,
toko bangunan,Toko Bahan Bangunan,Toko Graha Bangunan,"Gedung Graha Ariadi, Oesapa Bar., Kec. Klp. Lima, Kota Kupang, Nusa Tenggara Tim. 85228","Oesapa Bar., Kec. Klp. Lima, Kota Kupang",NUSA TENGGARA TIMUR,85228.0,Indonesia,81312893723.0,,,-10.1468703,123.631267,https://maps.google.com/?cid=0x0:0x4167d73ee95fc845,
toko bangunan,Toko Bahan Bangunan,Sinar Bangunan Building Center,"Jl. Bund. PU No.12, Tuak Daun Merah, Kec. Oebobo, Kota Kupang, Nusa Tenggara Tim. 85228","Tuak Daun Merah, Kec. Oebobo, Kota Kupang",NUSA TENGGARA TIMUR,85228.0,Indonesia,81236648694.0,,,-10.1675355,123.6289538,https://maps.google.com/?cid=0x0:0x8b34913a09e207d2,
toko bangunan,Toko Bahan Bangunan,SURYA BANGUNAN BUILDING MATERIAL,"Tuak Daun Merah, Kec. Oebobo, Kota Kupang, Nusa Tenggara Tim. 85228","Kec. Oebobo, Kota Kupang",NUSA TENGGARA TIMUR,85228.0,Indonesia,85101757906.0,,,-10.1673497,123.6293264,https://maps.google.com/?cid=0x0:0xadd57bf60a816b00,
toko bangunan,Toko Bahan Bangunan,Toko Bangunan Jaya,"Jl. Terusan Timor Raya No.9u KM. 6, Oesapa Bar., Kec. Klp. Lima, Kota Kupang, Nusa Tenggara Tim.","Kota Kupang, Nusa Tenggara Tim.",NUSA TENGGARA TIMUR,,Indonesia,81338567839.0,,,-10.14441,123.6254719,https://maps.google.com/?cid=0x0:0x4a94c89160bbe62c,
toko bangunan,Toko Bahan Bangunan,Toko Bangunan Kanaan,"Jl. Terusan Timor Raya No.KM 8, Oesapa, Kec. Klp. Lima, Kota Kupang, Nusa Tenggara Tim. 85226","Oesapa, Kec. Klp. Lima, Kota Kupang",NUSA TENGGARA TIMUR,85226.0,Indonesia,81236129325.0,,,-10.1492781,123.6411571,https://maps.google.com/?cid=0x0:0x9ccb845e1bb38ce5,
toko bangunan,Toko Bahan Bangunan,SERTU NAIKONOG,"Bioba Barutaen, Amfoang Barat Daya, Kabupaten Kupang, Nusa Tenggara Tim.","Kabupaten Kupang, Nusa Tenggara Tim.",NUSA TENGGARA TIMUR,,Indonesia,,,,-9.6247297,123.9763476,https://maps.google.com/?cid=0x0:0xebd48f5e3e448845,
toko bangunan,Toko Bahan Bangunan,UD. Mitra Bangunan Alak,"QGXJ+VV8, Alak, Kec. Alak, Kota Kupang, Nusa Tenggara Tim.","Kota Kupang, Nusa Tenggara Tim.",NUSA TENGGARA TIMUR,,Indonesia,82146656359.0,,,-10.200344,123.5322128,https://maps.google.com/?cid=0x0:0x82916be3be78cceb,
toko bangunan,Toko Bahan Bangunan,Toko Bravo Bangunan,"Jl. Terusan Timor Raya, Pasir Panjang, Kec. Kota Lama, Kota Kupang, Nusa Tenggara Tim. 85000","Pasir Panjang, Kec. Kota Lama, Kota Kupang",NUSA TENGGARA TIMUR,85000.0,Indonesia,81246295800.0,,,-10.1509378,123.6033391,https://maps.google.com/?cid=0x0:0xdf4da131f9948aff,
toko bangunan,Pemasok plafon,"UD Sovion, Plafon PVC Kupang Plafonesia","Jl. Baitanu , Kelurahan, Jl. Penkase, Alak, Kec. Alak, Kota Kupang, Nusa Tenggara Tim.","Kota Kupang, Nusa Tenggara Tim.",NUSA TENGGARA TIMUR,,Indonesia,81220441575.0,,,-10.1911778,123.5505154,https://maps.google.com/?cid=0x0:0x4a49dc70cc89b4d4,
toko bangunan,toko bangunan,Kec. Semau Sel.,"Kabupaten Kupang, Nusa Tenggara Tim.","Kabupaten Kupang, Nusa Tenggara Tim.",NUSA TENGGARA TIMUR,,Indonesia,,,,-10.2714559,123.349342,https://maps.google.com/?cid=0x0:0x8a6e41268e3d5752,
toko bangunan,Toko Perlengkapan Rumah,TOKO BANGUNAN MANULAI II,"RH22+6JQ, Jl. Alamanda, RT.21/RW.08, Alak, Kec. Alak, Kota Kupang, Nusa Tenggara Tim.","Kota Kupang, Nusa Tenggara Tim.",NUSA TENGGARA TIMUR,,Indonesia,3808563791.0,,,-10.1994106,123.5516246,https://maps.google.com/?cid=0x0:0x857905ea92fc096d,
toko bangunan,toko bangunan,Kec. Taebenu,"Kabupaten Kupang, Nusa Tenggara Tim.","Kabupaten Kupang, Nusa Tenggara Tim.",NUSA TENGGARA TIMUR,,Indonesia,,,,-10.185971,123.6696267,https://maps.google.com/?cid=0x0:0x6bc98ae88a05468a,
toko bangunan,Toko Bahan Bangunan,Sumber jaya bangunan,"RMF3+689, Jl. Taebenu, Penfui, Kec. Maulafa, Kota Kupang, Nusa Tenggara Tim.","Kota Kupang, Nusa Tenggara Tim.",NUSA TENGGARA TIMUR,,Indonesia,811340808.0,,,-10.1769545,123.6533532,https://maps.google.com/?cid=0x0:0x6b4c359d723a38bd,
toko bangunan,Pemasok Bahan Bangunan,Indo Bangunan,"Jl. Taebenu, Liliba, Kec. Oebobo, Kota Kupang, Nusa Tenggara Tim. 85142","Liliba, Kec. Oebobo, Kota Kupang",NUSA TENGGARA TIMUR,85142.0,Indonesia,85198498181.0,,,-10.177757,123.6444948,https://maps.google.com/?cid=0x0:0xe79b41c05f57dec9,
toko bangunan,toko bangunan,Toko Bangunan Teluk,"RJHR+FR7, Gg. Ukitau, Liliba, Kec. Oebobo, Kota Kupang, Nusa Tenggara Tim.","Kota Kupang, Nusa Tenggara Tim.",NUSA TENGGARA TIMUR,,Indonesia,85713493899.0,,,-10.1713257,123.6420599,https://maps.google.com/?cid=0x0:0xa174ad1432c6c0e1,
toko bangunan,Toko Perlengkapan Rumah,PJ Bangunan,"RJCW+P5Q, Jl. Taebenu, Naimata, Kec. Maulafa, Kota Kupang, Nusa Tenggara Tim.","Kota Kupang, Nusa Tenggara Tim.",NUSA TENGGARA TIMUR,,Indonesia,,,,-10.1781601,123.645474,https://maps.google.com/?cid=0x0:0x789e9822e19406b1,
toko bangunan,Kantor Perusahaan,Naugam Batako,"Naugam Batako, RT.008/RW.004, Baumata, Kec. Taebenu, Kabupaten Kupang, Nusa Tenggara Tim.","Kabupaten Kupang, Nusa Tenggara Tim.",NUSA TENGGARA TIMUR,,Indonesia,81246991911.0,,,-10.192369,123.6748878,https://maps.google.com/?cid=0x0:0xc77a57b8b293ae07,
toko bangunan,Toko Bahan Bangunan,Sinar Bangunan Building Center,"Jl. Bund. PU No.12, Tuak Daun Merah, Kec. Oebobo, Kota Kupang, Nusa Tenggara Tim. 85228","Tuak Daun Merah, Kec. Oebobo, Kota Kupang",NUSA TENGGARA TIMUR,85228.0,Indonesia,81236648694.0,,,-10.1675355,123.6289538,https://maps.google.com/?cid=0x0:0x8b34913a09e207d2,
toko bangunan,Kios,Kios Liontin Sam,"RM9C+4X2, Jl. Raya Baumata Penfui, Baumata Bar., Kec. Taebenu, Kabupaten Kupang, Nusa Tenggara Tim.","Kabupaten Kupang, Nusa Tenggara Tim.",NUSA TENGGARA TIMUR,,Indonesia,,,,-10.1822396,123.6723889,https://maps.google.com/?cid=0x0:0x1b3f328d47847626,
toko bangunan,Toko Bahan Bangunan,SURYA BANGUNAN BUILDING MATERIAL,"Tuak Daun Merah, Kec. Oebobo, Kota Kupang, Nusa Tenggara Tim. 85228","Kec. Oebobo, Kota Kupang",NUSA TENGGARA TIMUR,85228.0,Indonesia,85101757906.0,,,-10.1673497,123.6293264,https://maps.google.com/?cid=0x0:0xadd57bf60a816b00,
toko bangunan,Toko Bahan Bangunan,Pondok Gede Naimata,"RJCW+P5V, Jl. Taebenu, Naimata, Kec. Maulafa, Kota Kupang, Nusa Tenggara Tim.","Kota Kupang, Nusa Tenggara Tim.",NUSA TENGGARA TIMUR,,Indonesia,811381621.0,,,-10.1781495,123.6454356,https://maps.google.com/?cid=0x0:0xa967f088b0af9dca,
toko bangunan,Toko Bahan Bangunan,Toko Yoditama,"RJCW+P6C, Naimata, Kec. Maulafa, Kota Kupang, Nusa Tenggara Tim.","Kota Kupang, Nusa Tenggara Tim.",NUSA TENGGARA TIMUR,,Indonesia,811381621.0,,,-10.1781959,123.6455051,https://maps.google.com/?cid=0x0:0xabe0b0838938a8bc,
toko bangunan,Toko Bahan Bangunan,Toko Bangunan Jaya,"Jl. Terusan Timor Raya No.9u KM. 6, Oesapa Bar., Kec. Klp. Lima, Kota Kupang, Nusa Tenggara Tim.","Kota Kupang, Nusa Tenggara Tim.",NUSA TENGGARA TIMUR,,Indonesia,81338567839.0,,,-10.14441,123.6254719,https://maps.google.com/?cid=0x0:0x4a94c89160bbe62c,
toko bangunan,Toko Bahan Bangunan,Dinar Jaya Jepara,"RJCV+VR2, Jl. Taebenu, Naimata, Kec. Maulafa, Kota Kupang, Nusa Tenggara Tim. 85147","Jl. Taebenu, Naimata, Kec. Maulafa, Kota Kupang",NUSA TENGGARA TIMUR,85147.0,Indonesia,82243889991.0,,,-10.1778611,123.6445083,https://maps.google.com/?cid=0x0:0x2341ddc080e01bcf,
toko bangunan,Toko Bahan Bangunan,Pojok Oetalu,"RMHX+476, Unnamed Road, Penfui Tim., Kec. Kupang Tengah, Kabupaten Kupang, Nusa Tenggara Tim.","Kabupaten Kupang, Nusa Tenggara Tim.",NUSA TENGGARA TIMUR,,Indonesia,,,,-10.1722072,123.6981442,https://maps.google.com/?cid=0x0:0x7466191732251263,
toko bangunan,Toko Bahan Bangunan,Toko Bangunan Kanaan,"Jl. Terusan Timor Raya No.KM 8, Oesapa, Kec. Klp. Lima, Kota Kupang, Nusa Tenggara Tim. 85226","Oesapa, Kec. Klp. Lima, Kota Kupang",NUSA TENGGARA TIMUR,85226.0,Indonesia,81236129325.0,,,-10.1492781,123.6411571,https://maps.google.com/?cid=0x0:0x9ccb845e1bb38ce5,
toko bangunan,Toko Bahan Bangunan,BSS Bangunan Kupang,"Jl. Piet A. Tallo, Liliba, Kec. Oebobo, Kota Kupang, Nusa Tenggara Tim.","Kota Kupang, Nusa Tenggara Tim.",NUSA TENGGARA TIMUR,,Indonesia,,,,-10.1574578,123.638677,https://maps.google.com/?cid=0x0:0x61cf2d9b0ef46005,
toko bangunan,Toko Bahan Bangunan,Putra bangunan oetalu,"RMHX+65F, Penfui Tim., Kec. Kupang Tengah, Kabupaten Kupang, Nusa Tenggara Tim.","Kabupaten Kupang, Nusa Tenggara Tim.",NUSA TENGGARA TIMUR,,Indonesia,,,,-10.1712033,123.6977781,https://maps.google.com/?cid=0x0:0xe7d7ea4d8b2bb65b,
toko bangunan,Toko Bahan Bangunan,PENIN MART BANGUNAN,"Penfui, Kec. Kupang Tengah, Kota Kupang, Nusa Tenggara Tim.","Kota Kupang, Nusa Tenggara Tim.",NUSA TENGGARA TIMUR,,Indonesia,81138100367.0,,,-10.1572091,123.6833702,https://maps.google.com/?cid=0x0:0x1e40600efd6e9e3a,
toko bangunan,Toko Bahan Bangunan,TB. Holy Bangunan,"Tarus, Jl. Terusan Timor Raya No.KM 13, Mata Air, Kabupaten Kupang, Nusa Tenggara Tim. 85361","Jl. Terusan Timor Raya No.KM 13, Mata Air, Kabupaten Kupang",NUSA TENGGARA TIMUR,85361.0,Indonesia,895343100228.0,,,-10.133897,123.6898475,https://maps.google.com/?cid=0x0:0x1c1e5e70a1a936e2,
toko bangunan,Toko Bahan Bangunan,Tb.Karya Bangunan,"Oebufu, Kec. Oebobo, Kota Kupang, Nusa Tenggara Tim.","Kota Kupang, Nusa Tenggara Tim.",NUSA TENGGARA TIMUR,,Indonesia,,,,-10.1739967,123.6283502,https://maps.google.com/?cid=0x0:0xf6cd9ebe067317c6,
toko bangunan,Toko Bahan Bangunan,KENJI BANGUNAN,"RMR4+4VF, Jl. Adi Sucipto Penfui, Penfui, Kec. Maulafa, Kota Kupang, Nusa Tenggara Tim.","Kota Kupang, Nusa Tenggara Tim.",NUSA TENGGARA TIMUR,,Indonesia,85238844444.0,,,-10.1596964,123.6571696,https://maps.google.com/?cid=0x0:0x1071dc966980229,
toko bangunan,toko bangunan,Nusa Tenggara Tim. 85362,"Oesao, Kec. Kupang Tim., Kabupaten Kupang, Nusa Tenggara Tim.","Kabupaten Kupang, Nusa Tenggara Tim.",NUSA TENGGARA TIMUR,,Indonesia,,,,-10.1164178,123.8121644,https://maps.google.com/?cid=0x0:0x8006f293bbb44c34,
toko bangunan,Toko Bahan Bangunan,Toko Sumber Bangunan,"Jl. Oesao - Bokong No.Km. 28, Oesao, Kec. Kupang Tim., Kabupaten Kupang, Nusa Tenggara Tim.","Kabupaten Kupang, Nusa Tenggara Tim.",NUSA TENGGARA TIMUR,,Indonesia,81236427744.0,,,-10.1167107,123.8112814,https://maps.google.com/?cid=0x0:0x29d575d1a4a441ac,
toko bangunan,Toko Bahan Bangunan,PT. Makmur Abadi Bangunan,"Jl. Terusan Timor Raya No.Km 9, Oesapa, Kec. Klp. Lima, Kota Kupang, Nusa Tenggara Tim. 85228","Oesapa, Kec. Klp. Lima, Kota Kupang",NUSA TENGGARA TIMUR,85228.0,Indonesia,81367756504.0,,,-10.1446954,123.6559765,https://maps.google.com/?cid=0x0:0x7abc85a224f4ba37,
toko bangunan,toko bangunan,Toko Bangunan Teluk,"RJHR+FR7, Gg. Ukitau, Liliba, Kec. Oebobo, Kota Kupang, Nusa Tenggara Tim.","Kota Kupang, Nusa Tenggara Tim.",NUSA TENGGARA TIMUR,,Indonesia,85713493899.0,,,-10.1713257,123.6420599,https://maps.google.com/?cid=0x0:0xa174ad1432c6c0e1,
toko bangunan,toko bangunan,Kec. Amabi Oefeto,"Kabupaten Kupang, Nusa Tenggara Tim.","Kabupaten Kupang, Nusa Tenggara Tim.",NUSA TENGGARA TIMUR,,Indonesia,,,,-10.1605797,123.9166446,https://maps.google.com/?cid=0x0:0x3f81553105541146,
toko bangunan,Pemasok Pipa,Toko Buana Bangunan,"Lasiana, Kec. Klp. Lima, Kota Kupang, Nusa Tenggara Tim.","Kota Kupang, Nusa Tenggara Tim.",NUSA TENGGARA TIMUR,,Indonesia,82244376888.0,,,-10.1373266,123.6764484,https://maps.google.com/?cid=0x0:0x9fc6cad7dda4e71a,
toko bangunan,Toko Bahan Bangunan,Toko Bangunan Kanaan,"Jl. Terusan Timor Raya No.KM 8, Oesapa, Kec. Klp. Lima, Kota Kupang, Nusa Tenggara Tim. 85226","Oesapa, Kec. Klp. Lima, Kota Kupang",NUSA TENGGARA TIMUR,85226.0,Indonesia,81236129325.0,,,-10.1492781,123.6411571,https://maps.google.com/?cid=0x0:0x9ccb845e1bb38ce5,
toko bangunan,Toko Bahan Bangunan,Toko Metro Bangunan,"Jl. Pulau Indah, Oesapa Bar., Kec. Klp. Lima, Kota Kupang, Nusa Tenggara Tim. 85228","Oesapa Bar., Kec. Klp. Lima, Kota Kupang",NUSA TENGGARA TIMUR,85228.0,Indonesia,82164218639.0,,,-10.1488046,123.6344972,https://maps.google.com/?cid=0x0:0x4afb0da23e208afb,
toko bangunan,Toko Bahan Bangunan,CV KENCANA MULIA ABADI,"Jl. Terusan Timor Raya No.9, Oeba, Kec. Kota Lama, Kota Kupang, Nusa Tenggara Tim.","Kota Kupang, Nusa Tenggara Tim.",NUSA TENGGARA TIMUR,,Indonesia,,,,-10.1562204,123.594482,https://maps.google.com/?cid=0x0:0x74678b2af89178aa,
toko bangunan,Pemasok Pipa,Toko Bangunan,"Manulai II, Kec. Alak, Kota Kupang, Nusa Tenggara Tim.","Kota Kupang, Nusa Tenggara Tim.",NUSA TENGGARA TIMUR,,Indonesia,85123255522.0,,,-10.213815,123.5749527,https://maps.google.com/?cid=0x0:0x5559349e9e4fc36f,
toko bangunan,Toko Bahan Bangunan,Toko Bangunan Jaya,"Jl. Terusan Timor Raya No.9u KM. 6, Oesapa Bar., Kec. Klp. Lima, Kota Kupang, Nusa Tenggara Tim.","Kota Kupang, Nusa Tenggara Tim.",NUSA TENGGARA TIMUR,,Indonesia,81338567839.0,,,-10.14441,123.6254719,https://maps.google.com/?cid=0x0:0x4a94c89160bbe62c,
toko bangunan,Toko Bahan Bangunan,Toko Bravo Bangunan,"Jl. Terusan Timor Raya, Pasir Panjang, Kec. Kota Lama, Kota Kupang, Nusa Tenggara Tim. 85000","Pasir Panjang, Kec. Kota Lama, Kota Kupang",NUSA TENGGARA TIMUR,85000.0,Indonesia,81246295800.0,,,-10.1509378,123.6033391,https://maps.google.com/?cid=0x0:0xdf4da131f9948aff,
toko bangunan,Toko Bahan Bangunan,Toko Bintang Bangunan,"Jl. Terusan Timor Raya No.KM9, Oesapa, Kec. Klp. Lima, Kota Kupang, Nusa Tenggara Tim. 85228","Oesapa, Kec. Klp. Lima, Kota Kupang",NUSA TENGGARA TIMUR,85228.0,Indonesia,81339755019.0,,,-10.1470557,123.6523983,https://maps.google.com/?cid=0x0:0x783a8e4ca1444de,
toko bangunan,Sekolah Menengah Umum,SMAN 1 AMABI OEFETO,"naek, Jln. Dusun 5 Hu, Fatuknutu, Amabi Oefeto, Kupang Regency, East Nusa Tenggara","Kabupaten Kupang, Nusa Tenggara Tim.",NUSA TENGGARA TIMUR,,Indonesia,,,,-10.153293,123.9130351,https://maps.google.com/?cid=0x0:0x86eded4fa8eeace9,
toko bangunan,toko bangunan,Kec. Amabi Oefeto,"Kabupaten Kupang, Nusa Tenggara Tim.","Kabupaten Kupang, Nusa Tenggara Tim.",NUSA TENGGARA TIMUR,,Indonesia,,,,-10.1605797,123.9166446,https://maps.google.com/?cid=0x0:0x3f81553105541146,
toko bangunan,Toko Bahan Bangunan,PT. Makmur Abadi Bangunan,"Jl. Terusan Timor Raya No.Km 9, Oesapa, Kec. Klp. Lima, Kota Kupang, Nusa Tenggara Tim. 85228","Oesapa, Kec. Klp. Lima, Kota Kupang",NUSA TENGGARA TIMUR,85228.0,Indonesia,81367756504.0,,,-10.1446954,123.6559765,https://maps.google.com/?cid=0x0:0x7abc85a224f4ba37,
toko bangunan,Pemasok Pipa,Toko Buana Bangunan,"Lasiana, Kec. Klp. Lima, Kota Kupang, Nusa Tenggara Tim.","Kota Kupang, Nusa Tenggara Tim.",NUSA TENGGARA TIMUR,,Indonesia,82244376888.0,,,-10.1373266,123.6764484,https://maps.google.com/?cid=0x0:0x9fc6cad7dda4e71a,
toko bangunan,Toko Bahan Bangunan,Toko Bangunan Kanaan,"Jl. Terusan Timor Raya No.KM 8, Oesapa, Kec. Klp. Lima, Kota Kupang, Nusa Tenggara Tim. 85226","Oesapa, Kec. Klp. Lima, Kota Kupang",NUSA TENGGARA TIMUR,85226.0,Indonesia,81236129325.0,,,-10.1492781,123.6411571,https://maps.google.com/?cid=0x0:0x9ccb845e1bb38ce5,
toko bangunan,Toko Bahan Bangunan,Toko Metro Bangunan,"Jl. Pulau Indah, Oesapa Bar., Kec. Klp. Lima, Kota Kupang, Nusa Tenggara Tim. 85228","Oesapa Bar., Kec. Klp. Lima, Kota Kupang",NUSA TENGGARA TIMUR,85228.0,Indonesia,82164218639.0,,,-10.1488046,123.6344972,https://maps.google.com/?cid=0x0:0x4afb0da23e208afb,
toko bangunan,Pemasok Pipa,Toko Bangunan,"Manulai II, Kec. Alak, Kota Kupang, Nusa Tenggara Tim.","Kota Kupang, Nusa Tenggara Tim.",NUSA TENGGARA TIMUR,,Indonesia,85123255522.0,,,-10.213815,123.5749527,https://maps.google.com/?cid=0x0:0x5559349e9e4fc36f,
toko bangunan,Toko Bahan Bangunan,Toko Graha Bangunan,"Gedung Graha Ariadi, Oesapa Bar., Kec. Klp. Lima, Kota Kupang, Nusa Tenggara Tim. 85228","Oesapa Bar., Kec. Klp. Lima, Kota Kupang",NUSA TENGGARA TIMUR,85228.0,Indonesia,81312893723.0,,,-10.1468703,123.631267,https://maps.google.com/?cid=0x0:0x4167d73ee95fc845,
toko bangunan,Toko Bahan Bangunan,Mitra Bangunan,"RJFC+7G2, Oebufu, Kec. Oebobo, Kota Kupang, Nusa Tenggara Tim.","Kota Kupang, Nusa Tenggara Tim.",NUSA TENGGARA TIMUR,,Indonesia,,,,-10.1768587,123.6212559,https://maps.google.com/?cid=0x0:0x2ab5092f83e85fa4,
toko bangunan,Toko Bahan Bangunan,Mitra Bangunan,"Jl. Moch Hatta No.52, Fontein, Kec. Kota Raja, Kota Kupang, Nusa Tenggara Tim. 85112","Fontein, Kec. Kota Raja, Kota Kupang",NUSA TENGGARA TIMUR,85112.0,Indonesia,82236636819.0,,,-10.169089,123.585355,https://maps.google.com/?cid=0x0:0xb133bd5d1eaec0af,
toko bangunan,Toko Bahan Bangunan,Toko Bravo Bangunan,"Jl. Terusan Timor Raya, Pasir Panjang, Kec. Kota Lama, Kota Kupang, Nusa Tenggara Tim. 85000","Pasir Panjang, Kec. Kota Lama, Kota Kupang",NUSA TENGGARA TIMUR,85000.0,Indonesia,81246295800.0,,,-10.1509378,123.6033391,https://maps.google.com/?cid=0x0:0xdf4da131f9948aff,
toko bangunan,Toko Bahan Bangunan,CV KENCANA MULIA ABADI,"Jl. Terusan Timor Raya No.9, Oeba, Kec. Kota Lama, Kota Kupang, Nusa Tenggara Tim.","Kota Kupang, Nusa Tenggara Tim.",NUSA TENGGARA TIMUR,,Indonesia,,,,-10.1562204,123.594482,https://maps.google.com/?cid=0x0:0x74678b2af89178aa,
toko bangunan,Toko Bahan Bangunan,Toko Bintang Bangunan,"Jl. Terusan Timor Raya No.KM9, Oesapa, Kec. Klp. Lima, Kota Kupang, Nusa Tenggara Tim. 85228","Oesapa, Kec. Klp. Lima, Kota Kupang",NUSA TENGGARA TIMUR,85228.0,Indonesia,81339755019.0,,,-10.1470557,123.6523983,https://maps.google.com/?cid=0x0:0x783a8e4ca1444de,
toko bangunan,Toko Bahan Bangunan,UD. SAMA JAYA,"RHHP+VX2, Jl. Jenderal Sudirman No.27, Kuanino, Kec. Kota Raja, Kota Kupang, Nusa Tenggara Tim.","Kota Kupang, Nusa Tenggara Tim.",NUSA TENGGARA TIMUR,,Indonesia,81238825057.0,,,-10.1703192,123.5873411,https://maps.google.com/?cid=0x0:0xb81f7d1e47e6001b,
toko bangunan,Toko Bahan Bangunan,Utama Bangunan,"Jl. Jenderal Sudirman No.104, Nunleu, Kec. Kota Raja, Kota Kupang, Nusa Tenggara Tim.","Kota Kupang, Nusa Tenggara Tim.",NUSA TENGGARA TIMUR,,Indonesia,,,,-10.1737992,123.592435,https://maps.google.com/?cid=0x0:0x5d963cfe75d2b6f3,
toko bangunan,Toko Perlengkapan Rumah,Toko Karya Bangunan,"RJQV+H9Q, Jl. Bumi I, Oesapa Sel., Kec. Klp. Lima, Kota Kupang, Nusa Tenggara Tim.","Kota Kupang, Nusa Tenggara Tim.",NUSA TENGGARA TIMUR,,Indonesia,,,,-10.1610333,123.6434727,https://maps.google.com/?cid=0x0:0x480107de15c2a6cf,
toko bangunan,Toko Bahan Bangunan,SURYA BANGUNAN BUILDING MATERIAL,"Tuak Daun Merah, Kec. Oebobo, Kota Kupang, Nusa Tenggara Tim. 85228","Kec. Oebobo, Kota Kupang",NUSA TENGGARA TIMUR,85228.0,Indonesia,85101757906.0,,,-10.1673497,123.6293264,https://maps.google.com/?cid=0x0:0xadd57bf60a816b00,
toko bangunan,Toko Bahan Bangunan,Sinar Bangunan Building Center,"Jl. Bund. PU No.12, Tuak Daun Merah, Kec. Oebobo, Kota Kupang, Nusa Tenggara Tim. 85228","Tuak Daun Merah, Kec. Oebobo, Kota Kupang",NUSA TENGGARA TIMUR,85228.0,Indonesia,81236648694.0,,,-10.1675355,123.6289538,https://maps.google.com/?cid=0x0:0x8b34913a09e207d2,
toko bangunan,Toko Bahan Bangunan,OKEY Bangunan,"WR2Q+35X, Jl. Oesao - Bokong, Naibonat, Kec. Kupang Tim., Kabupaten Kupang, Nusa Tenggara Tim.","Kabupaten Kupang, Nusa Tenggara Tim.",NUSA TENGGARA TIMUR,,Indonesia,,,,-10.0997587,123.8379763,https://maps.google.com/?cid=0x0:0x36219aa94fbdb9c5,
toko bangunan,Kontraktor Batu >>u0026 Tegel,Noh Musa Mnao,"QVRP+PMW, Tesbatan, Kec. Amarasi, Kabupaten Kupang, Nusa Tenggara Tim.","Kabupaten Kupang, Nusa Tenggara Tim.",NUSA TENGGARA TIMUR,,Indonesia,,,,-10.2078112,123.8867558,https://maps.google.com/?cid=0x0:0x21a16eb24ee8bed2,
toko bangunan,Toko Bahan Bangunan,UD. Rahmat Jaya,"VRH6+5P8, Oesao, Kec. Kupang Tim., Kabupaten Kupang, Nusa Tenggara Tim.","Kabupaten Kupang, Nusa Tenggara Tim.",NUSA TENGGARA TIMUR,,Indonesia,,,,-10.1218506,123.8123111,https://maps.google.com/?cid=0x0:0xe7c479486ad8139b,
toko bangunan,Toko Bahan Bangunan,Toko Sumber Bangunan,"Jl. Oesao - Bokong No.Km. 28, Oesao, Kec. Kupang Tim., Kabupaten Kupang, Nusa Tenggara Tim.","Kabupaten Kupang, Nusa Tenggara Tim.",NUSA TENGGARA TIMUR,,Indonesia,81236427744.0,,,-10.1167107,123.8112814,https://maps.google.com/?cid=0x0:0x29d575d1a4a441ac,
toko bangunan,Toko Bahan Bangunan,Toko Karunia Indah,"Oesao, Kec. Kupang Tim., Kabupaten Kupang, Nusa Tenggara Tim.","Kabupaten Kupang, Nusa Tenggara Tim.",NUSA TENGGARA TIMUR,,Indonesia,81339115500.0,,,-10.1164267,123.810462,https://maps.google.com/?cid=0x0:0xe2b8564416118add,
toko bangunan,toko bangunan,TOKO ALEZHA BANGUNAN,"Oesao II, Kec. Kupang Tim., Kabupaten Kupang, Nusa Tenggara Tim.","Kabupaten Kupang, Nusa Tenggara Tim.",NUSA TENGGARA TIMUR,,Indonesia,,,,-10.1301777,123.8170837,https://maps.google.com/?cid=0x0:0xc015e655004fc40,
toko bangunan,Pemasok Bahan Bangunan,Toko Hero Bangunan,"Toko Hero Bangunan, Tini, Manuaman, Kec. Kota Atambua, Kabupaten Belu, Nusa Tenggara Tim. 85712","Tini, Manuaman, Kec. Kota Atambua, Kabupaten Belu",NUSA TENGGARA TIMUR,85712.0,Indonesia,82221202985.0,,,-9.1117919,124.8871833,https://maps.google.com/?cid=0x0:0xb79f7fc42724fd10,
toko bangunan,Sekolah Menengah Umum,SMAN 1 AMABI OEFETO,"naek, Jln. Dusun 5 Hu, Fatuknutu, Amabi Oefeto, Kupang Regency, East Nusa Tenggara","Kabupaten Kupang, Nusa Tenggara Tim.",NUSA TENGGARA TIMUR,,Indonesia,,,,-10.153293,123.9130351,https://maps.google.com/?cid=0x0:0x86eded4fa8eeace9,
toko bangunan,Toko Bahan Bangunan,UD PMJ BETON,"WR2Q+8VQ, Naibonat, Kec. Kupang Tim., Kabupaten Kupang, Nusa Tenggara Tim.","Kabupaten Kupang, Nusa Tenggara Tim.",NUSA TENGGARA TIMUR,,Indonesia,,,,-10.099156,123.8397222,https://maps.google.com/?cid=0x0:0xc8394f1ff4c231da,
toko bangunan,Pemasok Bahan Bangunan,TEMPAT JUAL BATAKO,"WV8F+HQG, Naibonat, Kec. Kupang Tim., Kabupaten Kupang, Nusa Tenggara Tim.","Kabupaten Kupang, Nusa Tenggara Tim.",NUSA TENGGARA TIMUR,,Indonesia,82144961554.0,,,-10.0835603,123.8744477,https://maps.google.com/?cid=0x0:0x8568e560a44a8745,
toko bangunan,Toko Bahan Bangunan,PT. Makmur Abadi Bangunan,"Jl. Terusan Timor Raya No.Km 9, Oesapa, Kec. Klp. Lima, Kota Kupang, Nusa Tenggara Tim. 85228","Oesapa, Kec. Klp. Lima, Kota Kupang",NUSA TENGGARA TIMUR,85228.0,Indonesia,81367756504.0,,,-10.1446954,123.6559765,https://maps.google.com/?cid=0x0:0x7abc85a224f4ba37,
toko bangunan,Toko Bahan Bangunan,Toko Gloria Bangunan,"Jl. Terusan Timor Raya No.Km. 8, Oesapa, Kec. Klp. Lima, Kota Kupang, Nusa Tenggara Tim.","Kota Kupang, Nusa Tenggara Tim.",NUSA TENGGARA TIMUR,,Indonesia,83876691970.0,,,-10.1487267,123.6475719,https://maps.google.com/?cid=0x0:0x3b07f200fecd7840,
toko bangunan,toko bangunan,Kec. Fatuleu Bar.,"Kabupaten Kupang, Nusa Tenggara Tim.","Kabupaten Kupang, Nusa Tenggara Tim.",NUSA TENGGARA TIMUR,,Indonesia,,,,-9.8140108,123.6837348,https://maps.google.com/?cid=0x0:0xc974570658fc450d,
toko bangunan,toko bangunan,Toko Bangunan Teluk,"RJHR+FR7, Gg. Ukitau, Liliba, Kec. Oebobo, Kota Kupang, Nusa Tenggara Tim.","Kota Kupang, Nusa Tenggara Tim.",NUSA TENGGARA TIMUR,,Indonesia,85713493899.0,,,-10.1713257,123.6420599,https://maps.google.com/?cid=0x0:0xa174ad1432c6c0e1,
toko bangunan,Toko Perlengkapan Rumah,TOKO BANGUNAN MANULAI II,"RH22+6JQ, Jl. Alamanda, RT.21/RW.08, Alak, Kec. Alak, Kota Kupang, Nusa Tenggara Tim.","Kota Kupang, Nusa Tenggara Tim.",NUSA TENGGARA TIMUR,,Indonesia,3808563791.0,,,-10.1994106,123.5516246,https://maps.google.com/?cid=0x0:0x857905ea92fc096d,
toko bangunan,Toko Bahan Bangunan,Toko Graha Bangunan,"Gedung Graha Ariadi, Oesapa Bar., Kec. Klp. Lima, Kota Kupang, Nusa Tenggara Tim. 85228","Oesapa Bar., Kec. Klp. Lima, Kota Kupang",NUSA TENGGARA TIMUR,85228.0,Indonesia,81312893723.0,,,-10.1468703,123.631267,https://maps.google.com/?cid=0x0:0x4167d73ee95fc845,
toko bangunan,Toko Bahan Bangunan,Toko Bravo Bangunan,"Jl. Terusan Timor Raya, Pasir Panjang, Kec. Kota Lama, Kota Kupang, Nusa Tenggara Tim. 85000","Pasir Panjang, Kec. Kota Lama, Kota Kupang",NUSA TENGGARA TIMUR,85000.0,Indonesia,81246295800.0,,,-10.1509378,123.6033391,https://maps.google.com/?cid=0x0:0xdf4da131f9948aff,
toko bangunan,Toko Bahan Bangunan,Toko Metro Bangunan,"Jl. Pulau Indah, Oesapa Bar., Kec. Klp. Lima, Kota Kupang, Nusa Tenggara Tim. 85228","Oesapa Bar., Kec. Klp. Lima, Kota Kupang",NUSA TENGGARA TIMUR,85228.0,Indonesia,82164218639.0,,,-10.1488046,123.6344972,https://maps.google.com/?cid=0x0:0x4afb0da23e208afb,
toko bangunan,Toko Bahan Bangunan,Toko Bangunan Jaya,"Jl. Terusan Timor Raya No.9u KM. 6, Oesapa Bar., Kec. Klp. Lima, Kota Kupang, Nusa Tenggara Tim.","Kota Kupang, Nusa Tenggara Tim.",NUSA TENGGARA TIMUR,,Indonesia,81338567839.0,,,-10.14441,123.6254719,https://maps.google.com/?cid=0x0:0x4a94c89160bbe62c,
toko bangunan,Toko Bahan Bangunan,UD. SAMA JAYA,"RHHP+VX2, Jl. Jenderal Sudirman No.27, Kuanino, Kec. Kota Raja, Kota Kupang, Nusa Tenggara Tim.","Kota Kupang, Nusa Tenggara Tim.",NUSA TENGGARA TIMUR,,Indonesia,81238825057.0,,,-10.1703192,123.5873411,https://maps.google.com/?cid=0x0:0xb81f7d1e47e6001b,
toko bangunan,Toko Bahan Bangunan,SURYA BANGUNAN BUILDING MATERIAL,"Tuak Daun Merah, Kec. Oebobo, Kota Kupang, Nusa Tenggara Tim. 85228","Kec. Oebobo, Kota Kupang",NUSA TENGGARA TIMUR,85228.0,Indonesia,85101757906.0,,,-10.1673497,123.6293264,https://maps.google.com/?cid=0x0:0xadd57bf60a816b00,
toko bangunan,Toko Bahan Bangunan,Toko Bangunan Kanaan,"Jl. Terusan Timor Raya No.KM 8, Oesapa, Kec. Klp. Lima, Kota Kupang, Nusa Tenggara Tim. 85226","Oesapa, Kec. Klp. Lima, Kota Kupang",NUSA TENGGARA TIMUR,85226.0,Indonesia,81236129325.0,,,-10.1492781,123.6411571,https://maps.google.com/?cid=0x0:0x9ccb845e1bb38ce5,
toko bangunan,Pemasok Pipa,Toko Buana Bangunan,"Lasiana, Kec. Klp. Lima, Kota Kupang, Nusa Tenggara Tim.","Kota Kupang, Nusa Tenggara Tim.",NUSA TENGGARA TIMUR,,Indonesia,82244376888.0,,,-10.1373266,123.6764484,https://maps.google.com/?cid=0x0:0x9fc6cad7dda4e71a,
toko bangunan,Pemasok Pipa,Toko Bangunan,"Manulai II, Kec. Alak, Kota Kupang, Nusa Tenggara Tim.","Kota Kupang, Nusa Tenggara Tim.",NUSA TENGGARA TIMUR,,Indonesia,85123255522.0,,,-10.213815,123.5749527,https://maps.google.com/?cid=0x0:0x5559349e9e4fc36f,
toko bangunan,Toko Bahan Bangunan,Sinar Bangunan Building Center,"Jl. Bund. PU No.12, Tuak Daun Merah, Kec. Oebobo, Kota Kupang, Nusa Tenggara Tim. 85228","Tuak Daun Merah, Kec. Oebobo, Kota Kupang",NUSA TENGGARA TIMUR,85228.0,Indonesia,81236648694.0,,,-10.1675355,123.6289538,https://maps.google.com/?cid=0x0:0x8b34913a09e207d2,
toko bangunan,Pemasok Pipa,Toko Bangunan Kim 5,"VM68+QFC, Jl. Terusan Timor Raya, Lasiana, Kec. Klp. Lima, Kota Kupang, Nusa Tenggara Tim.","Kota Kupang, Nusa Tenggara Tim.",NUSA TENGGARA TIMUR,,Indonesia,,,,-10.1380642,123.6661317,https://maps.google.com/?cid=0x0:0x57d9219b49c66921,
toko bangunan,Toko Bahan Bangunan,Toko BERKAT BANGUNAN,"QHJX+XF3, Jalur XL, Fatukoa, Kec. Maulafa, Kota Kupang, Nusa Tenggara Tim.","Kota Kupang, Nusa Tenggara Tim.",NUSA TENGGARA TIMUR,,Indonesia,,,,-10.2176046,123.5986845,https://maps.google.com/?cid=0x0:0xd3c300c1b348927a,
toko bangunan,Toko Bahan Bangunan,PT. Makmur Abadi Bangunan,"Jl. Terusan Timor Raya No.Km 9, Oesapa, Kec. Klp. Lima, Kota Kupang, Nusa Tenggara Tim. 85228","Oesapa, Kec. Klp. Lima, Kota Kupang",NUSA TENGGARA TIMUR,85228.0,Indonesia,81367756504.0,,,-10.1446954,123.6559765,https://maps.google.com/?cid=0x0:0x7abc85a224f4ba37,
toko bangunan,Toko Bahan Bangunan,Toko Duta Bangunan,"GFMJ+896, Benpasi, Kec. Kota Kefamenanu, Kabupaten Timor Tengah Utara, Nusa Tenggara Tim.","Kabupaten Timor Tengah Utara, Nusa Tenggara Tim.",NUSA TENGGARA TIMUR,,Indonesia,8113827627.0,,,-9.4667226,124.4808961,https://maps.google.com/?cid=0x0:0x7bd4b59644a2a0bd,
toko bangunan,Toko Bahan Bangunan,Toko bangunan,"VM4C+R79, Lasiana, Kec. Klp. Lima, Kota Kupang, Nusa Tenggara Tim.","Kota Kupang, Nusa Tenggara Tim.",NUSA TENGGARA TIMUR,,Indonesia,,,,-10.142954,123.6707233,https://maps.google.com/?cid=0x0:0xb111458939496520,
toko bangunan,Toko Perlengkapan Rumah,Toko Karya Bangunan,"RJQV+H9Q, Jl. Bumi I, Oesapa Sel., Kec. Klp. Lima, Kota Kupang, Nusa Tenggara Tim.","Kota Kupang, Nusa Tenggara Tim.",NUSA TENGGARA TIMUR,,Indonesia,,,,-10.1610333,123.6434727,https://maps.google.com/?cid=0x0:0x480107de15c2a6cf,
toko bangunan,Pusat Perbelanjaan,Pasar Oelbubuk,"5MJP+722, Tuakau, Kec. Fatuleu Bar., Kabupaten Kupang, Nusa Tenggara Tim.","Kabupaten Kupang, Nusa Tenggara Tim.",NUSA TENGGARA TIMUR,,Indonesia,,,,-9.8193533,123.6850215,https://maps.google.com/?cid=0x0:0xc83af1298159a62b,
toko bangunan,toko bangunan,Toko bangunan Kristal,"XW3C+M54, Jl. Oesao - Bokong, Camplong I, Kec. Fatuleu, Kabupaten Kupang, Nusa Tenggara Tim.","Kabupaten Kupang, Nusa Tenggara Tim.",NUSA TENGGARA TIMUR,,Indonesia,,,,-10.0459706,123.9201479,https://maps.google.com/?cid=0x0:0xae8bf3f12d1d7ab8,
toko bangunan,Toko Bahan Bangunan,Galeri Bangunan,"Jl. Sam Ratulangi 5 No.7, Oesapa Bar., Kec. Klp. Lima, Kota Kupang, Nusa Tenggara Tim. 85228","Oesapa Bar., Kec. Klp. Lima, Kota Kupang",NUSA TENGGARA TIMUR,85228.0,Indonesia,85930984841.0,,,-10.1526626,123.6337452,https://maps.google.com/?cid=0x0:0xf72a37063d4922e3,
toko bangunan,toko bangunan,Toko bangunan Kristal,"XW3C+M54, Jl. Oesao - Bokong, Camplong I, Kec. Fatuleu, Kabupaten Kupang, Nusa Tenggara Tim.","Kabupaten Kupang, Nusa Tenggara Tim.",NUSA TENGGARA TIMUR,,Indonesia,,,,-10.0459706,123.9201479,https://maps.google.com/?cid=0x0:0xae8bf3f12d1d7ab8,
toko bangunan,toko bangunan,Kec. Fatuleu Tengah,"Kabupaten Kupang, Nusa Tenggara Tim.","Kabupaten Kupang, Nusa Tenggara Tim.",NUSA TENGGARA TIMUR,,Indonesia,,,,-9.9748808,123.8732565,https://maps.google.com/?cid=0x0:0x6e9c74fe0bcfb5a1,
toko bangunan,Toko Bahan Bangunan,Toko Bravo Bangunan,"Jl. Terusan Timor Raya, Pasir Panjang, Kec. Kota Lama, Kota Kupang, Nusa Tenggara Tim. 85000","Pasir Panjang, Kec. Kota Lama, Kota Kupang",NUSA TENGGARA TIMUR,85000.0,Indonesia,81246295800.0,,,-10.1509378,123.6033391,https://maps.google.com/?cid=0x0:0xdf4da131f9948aff,
toko bangunan,Toko Perlengkapan Rumah,TOKO BANGUNAN MANULAI II,"RH22+6JQ, Jl. Alamanda, RT.21/RW.08, Alak, Kec. Alak, Kota Kupang, Nusa Tenggara Tim.","Kota Kupang, Nusa Tenggara Tim.",NUSA TENGGARA TIMUR,,Indonesia,3808563791.0,,,-10.1994106,123.5516246,https://maps.google.com/?cid=0x0:0x857905ea92fc096d,
toko bangunan,Toko Bahan Bangunan,Toko Duta Bangunan,"GFMJ+896, Benpasi, Kec. Kota Kefamenanu, Kabupaten Timor Tengah Utara, Nusa Tenggara Tim.","Kabupaten Timor Tengah Utara, Nusa Tenggara Tim.",NUSA TENGGARA TIMUR,,Indonesia,8113827627.0,,,-9.4667226,124.4808961,https://maps.google.com/?cid=0x0:0x7bd4b59644a2a0bd,
toko bangunan,Pemasok Pipa,Toko Buana Bangunan,"Lasiana, Kec. Klp. Lima, Kota Kupang, Nusa Tenggara Tim.","Kota Kupang, Nusa Tenggara Tim.",NUSA TENGGARA TIMUR,,Indonesia,82244376888.0,,,-10.1373266,123.6764484,https://maps.google.com/?cid=0x0:0x9fc6cad7dda4e71a,
toko bangunan,Toko Bahan Bangunan,Toko Graha Bangunan,"Gedung Graha Ariadi, Oesapa Bar., Kec. Klp. Lima, Kota Kupang, Nusa Tenggara Tim. 85228","Oesapa Bar., Kec. Klp. Lima, Kota Kupang",NUSA TENGGARA TIMUR,85228.0,Indonesia,81312893723.0,,,-10.1468703,123.631267,https://maps.google.com/?cid=0x0:0x4167d73ee95fc845,
toko bangunan,Pemasok Pipa,Toko Bangunan,"Manulai II, Kec. Alak, Kota Kupang, Nusa Tenggara Tim.","Kota Kupang, Nusa Tenggara Tim.",NUSA TENGGARA TIMUR,,Indonesia,85123255522.0,,,-10.213815,123.5749527,https://maps.google.com/?cid=0x0:0x5559349e9e4fc36f,
toko bangunan,Toko Bahan Bangunan,Toko Frawijaya,"Jl. Imam Bonjol No.7, Kefamenanu Tengah, Kec. Kota Kefamenanu, Kabupaten Timor Tengah Utara, Nusa Tenggara Tim. 85612","Kefamenanu Tengah, Kec. Kota Kefamenanu, Kabupaten Timor Tengah Utara",NUSA TENGGARA TIMUR,85612.0,Indonesia,38831215.0,,,-9.4468019,124.4781981,https://maps.google.com/?cid=0x0:0x3378b5a006441ab0,
toko bangunan,Toko Bahan Bangunan,Toko bangunan,"VM4C+R79, Lasiana, Kec. Klp. Lima, Kota Kupang, Nusa Tenggara Tim.","Kota Kupang, Nusa Tenggara Tim.",NUSA TENGGARA TIMUR,,Indonesia,,,,-10.142954,123.6707233,https://maps.google.com/?cid=0x0:0xb111458939496520,
toko bangunan,Pemasok Pipa,Toko Bangunan Kim 5,"VM68+QFC, Jl. Terusan Timor Raya, Lasiana, Kec. Klp. Lima, Kota Kupang, Nusa Tenggara Tim.","Kota Kupang, Nusa Tenggara Tim.",NUSA TENGGARA TIMUR,,Indonesia,,,,-10.1380642,123.6661317,https://maps.google.com/?cid=0x0:0x57d9219b49c66921,
toko bangunan,toko bangunan,Toko Bangunan Teluk,"RJHR+FR7, Gg. Ukitau, Liliba, Kec. Oebobo, Kota Kupang, Nusa Tenggara Tim.","Kota Kupang, Nusa Tenggara Tim.",NUSA TENGGARA TIMUR,,Indonesia,85713493899.0,,,-10.1713257,123.6420599,https://maps.google.com/?cid=0x0:0xa174ad1432c6c0e1,
toko bangunan,Toko Bahan Bangunan,Toko BERKAT BANGUNAN,"QHJX+XF3, Jalur XL, Fatukoa, Kec. Maulafa, Kota Kupang, Nusa Tenggara Tim.","Kota Kupang, Nusa Tenggara Tim.",NUSA TENGGARA TIMUR,,Indonesia,,,,-10.2176046,123.5986845,https://maps.google.com/?cid=0x0:0xd3c300c1b348927a,
toko bangunan,toko bangunan,Amfoang Tengah,"Kabupaten Kupang, Nusa Tenggara Tim.","Kabupaten Kupang, Nusa Tenggara Tim.",NUSA TENGGARA TIMUR,,Indonesia,,,,-9.6750722,124.0082733,https://maps.google.com/?cid=0x0:0x25fa52fbe69e22ce,
toko bangunan,Toko Bahan Bangunan,PT. Makmur Abadi Bangunan,"Jl. Terusan Timor Raya No.Km 9, Oesapa, Kec. Klp. Lima, Kota Kupang, Nusa Tenggara Tim. 85228","Oesapa, Kec. Klp. Lima, Kota Kupang",NUSA TENGGARA TIMUR,85228.0,Indonesia,81367756504.0,,,-10.1446954,123.6559765,https://maps.google.com/?cid=0x0:0x7abc85a224f4ba37,
toko bangunan,Toko Bahan Bangunan,Toko Metro Bangunan,"Jl. Pulau Indah, Oesapa Bar., Kec. Klp. Lima, Kota Kupang, Nusa Tenggara Tim. 85228","Oesapa Bar., Kec. Klp. Lima, Kota Kupang",NUSA TENGGARA TIMUR,85228.0,Indonesia,82164218639.0,,,-10.1488046,123.6344972,https://maps.google.com/?cid=0x0:0x4afb0da23e208afb,
toko bangunan,Toko Bahan Bangunan,Toko Pondok Bangunan,"VM8V+J7R, Jl. Terusan Timor Raya, Mata Air, Kec. Kupang Tengah, Kabupaten Kupang, Nusa Tenggara Tim.","Kabupaten Kupang, Nusa Tenggara Tim.",NUSA TENGGARA TIMUR,,Indonesia,3808800047.0,,,-10.1333816,123.6931479,https://maps.google.com/?cid=0x0:0xa8beb6e972e3857f,
toko bangunan,Toko Bahan Bangunan,Mitra Bangunan,"Jl. Moch Hatta No.52, Fontein, Kec. Kota Raja, Kota Kupang, Nusa Tenggara Tim. 85112","Fontein, Kec. Kota Raja, Kota Kupang",NUSA TENGGARA TIMUR,85112.0,Indonesia,82236636819.0,,,-10.169089,123.585355,https://maps.google.com/?cid=0x0:0xb133bd5d1eaec0af,
toko bangunan,Toko Bahan Bangunan,Toko Bangunan Jaya,"Jl. Terusan Timor Raya No.9u KM. 6, Oesapa Bar., Kec. Klp. Lima, Kota Kupang, Nusa Tenggara Tim.","Kota Kupang, Nusa Tenggara Tim.",NUSA TENGGARA TIMUR,,Indonesia,81338567839.0,,,-10.14441,123.6254719,https://maps.google.com/?cid=0x0:0x4a94c89160bbe62c,
toko bangunan,Pemasok Pipa,Toko Buana Bangunan,"Lasiana, Kec. Klp. Lima, Kota Kupang, Nusa Tenggara Tim.","Kota Kupang, Nusa Tenggara Tim.",NUSA TENGGARA TIMUR,,Indonesia,82244376888.0,,,-10.1373266,123.6764484,https://maps.google.com/?cid=0x0:0x9fc6cad7dda4e71a,
toko bangunan,Toko Bahan Bangunan,Toko Bravo Bangunan,"Jl. Terusan Timor Raya, Pasir Panjang, Kec. Kota Lama, Kota Kupang, Nusa Tenggara Tim. 85000","Pasir Panjang, Kec. Kota Lama, Kota Kupang",NUSA TENGGARA TIMUR,85000.0,Indonesia,81246295800.0,,,-10.1509378,123.6033391,https://maps.google.com/?cid=0x0:0xdf4da131f9948aff,
toko bangunan,Pemasok Pipa,Toko Bangunan,"Manulai II, Kec. Alak, Kota Kupang, Nusa Tenggara Tim.","Kota Kupang, Nusa Tenggara Tim.",NUSA TENGGARA TIMUR,,Indonesia,85123255522.0,,,-10.213815,123.5749527,https://maps.google.com/?cid=0x0:0x5559349e9e4fc36f,
toko bangunan,Toko Bahan Bangunan,Mitra Bangunan Toko,"HF4H+RM8, Kefamenanu Tengah, Kec. Kota Kefamenanu, Kabupaten Timor Tengah Utara, Nusa Tenggara Tim.","Kabupaten Timor Tengah Utara, Nusa Tenggara Tim.",NUSA TENGGARA TIMUR,,Indonesia,38831958.0,,,-9.442966,124.479218,https://maps.google.com/?cid=0x0:0x87c7790178b54766,
toko bangunan,Pemasok Bahan Bangunan,Indo Bangunan,"Jl. Taebenu, Liliba, Kec. Oebobo, Kota Kupang, Nusa Tenggara Tim. 85142","Liliba, Kec. Oebobo, Kota Kupang",NUSA TENGGARA TIMUR,85142.0,Indonesia,85198498181.0,,,-10.177757,123.6444948,https://maps.google.com/?cid=0x0:0xe79b41c05f57dec9,
toko bangunan,Toko Bahan Bangunan,Perdana Bangunan,"Jl. H.R. Koroh No.29, Oepura, Kec. Maulafa, Kota Kupang, Nusa Tenggara Tim. 85142","Oepura, Kec. Maulafa, Kota Kupang",NUSA TENGGARA TIMUR,85142.0,Indonesia,81238863864.0,,,-10.1923587,123.6076599,https://maps.google.com/?cid=0x0:0x76b6f6a948f94f66,
toko bangunan,Toko Perlengkapan Rumah,Toko Karya Bangunan,"RJQV+H9Q, Jl. Bumi I, Oesapa Sel., Kec. Klp. Lima, Kota Kupang, Nusa Tenggara Tim.","Kota Kupang, Nusa Tenggara Tim.",NUSA TENGGARA TIMUR,,Indonesia,,,,-10.1610333,123.6434727,https://maps.google.com/?cid=0x0:0x480107de15c2a6cf,
toko bangunan,Toko Bahan Bangunan,Toko bangunan,"VM4C+R79, Lasiana, Kec. Klp. Lima, Kota Kupang, Nusa Tenggara Tim.","Kota Kupang, Nusa Tenggara Tim.",NUSA TENGGARA TIMUR,,Indonesia,,,,-10.142954,123.6707233,https://maps.google.com/?cid=0x0:0xb111458939496520,
toko bangunan,Toko Bahan Bangunan,Toko Duta Timor,"VM32+4WV, Jl. Terusan Timor Raya, Oesapa, Kec. Klp. Lima, Kota Kupang, Nusa Tenggara Tim.","Kota Kupang, Nusa Tenggara Tim.",NUSA TENGGARA TIMUR,,Indonesia,380881867.0,,,-10.1471444,123.6522958,https://maps.google.com/?cid=0x0:0x1032b52afbada3ff,
toko bangunan,Pemasok Pipa,Toko Bangunan Kim 5,"VM68+QFC, Jl. Terusan Timor Raya, Lasiana, Kec. Klp. Lima, Kota Kupang, Nusa Tenggara Tim.","Kota Kupang, Nusa Tenggara Tim.",NUSA TENGGARA TIMUR,,Indonesia,,,,-10.1380642,123.6661317,https://maps.google.com/?cid=0x0:0x57d9219b49c66921,
toko bangunan,Toko Bahan Bangunan,CV. Tujuh Jaya,"723W+C6P, Unnamed Rd, Mokdale, Kec. Lobalain, Kabupaten Rote Ndao, Nusa Tenggara Tim.","Kabupaten Rote Ndao, Nusa Tenggara Tim.",NUSA TENGGARA TIMUR,,Indonesia,,,,-10.7464098,123.04558,https://maps.google.com/?cid=0x0:0x575a85c650ddf9e4,
toko bangunan,Toko Bahan Bangunan,KENJI BANGUNAN,"RMR4+4VF, Jl. Adi Sucipto Penfui, Penfui, Kec. Maulafa, Kota Kupang, Nusa Tenggara Tim.","Kota Kupang, Nusa Tenggara Tim.",NUSA TENGGARA TIMUR,,Indonesia,85238844444.0,,,-10.1596964,123.6571696,https://maps.google.com/?cid=0x0:0x1071dc966980229,
toko bangunan,Toko Bahan Bangunan,Toko Istana Bangunan,"Jl. Fetor Funay, Maulafa, Kec. Maulafa, Kota Kupang, Nusa Tenggara Tim. 85142","Maulafa, Kec. Maulafa, Kota Kupang",NUSA TENGGARA TIMUR,85142.0,Indonesia,82144819519.0,,,-10.1865612,123.6125505,https://maps.google.com/?cid=0x0:0x21756a783c212384,
toko bangunan,Toko Perlengkapan Rumah,Toko Bangunan Champion,"QGMX+63R, Mutiara, Kec. Tlk. Mutiara, Kabupaten Alor, Nusa Tenggara Tim.","Kabupaten Alor, Nusa Tenggara Tim.",NUSA TENGGARA TIMUR,,Indonesia,81338757523.0,,,-8.2168892,124.5476484,https://maps.google.com/?cid=0x0:0x43281458e96c59c8,
toko bangunan,Toko Bahan Bangunan,TOKO BANGUNAN,"962F+FR3, Lkr. Luar Maumere, Kota Baru, Kec. Alok Tim., Kabupaten Sikka, Nusa Tenggara Tim.","Kabupaten Sikka, Nusa Tenggara Tim.",NUSA TENGGARA TIMUR,,Indonesia,81228455504.0,,,-8.648865,122.2245369,https://maps.google.com/?cid=0x0:0xfcda8409dfe7e722,
toko bangunan,Minimarket,toko hebron,"725V+CW9, Unnamed Rd, Mokdale, Kec. Lobalain, Kabupaten Rote Ndao, Nusa Tenggara Tim.","Kabupaten Rote Ndao, Nusa Tenggara Tim.",NUSA TENGGARA TIMUR,,Indonesia,,,,-10.7414723,123.0448675,https://maps.google.com/?cid=0x0:0x699558aa9d2e663a,
toko bangunan,Toko Bahan Bangunan,UD. Mitra Bangunan Alak,"QGXJ+VV8, Alak, Kec. Alak, Kota Kupang, Nusa Tenggara Tim.","Kota Kupang, Nusa Tenggara Tim.",NUSA TENGGARA TIMUR,,Indonesia,82146656359.0,,,-10.200344,123.5322128,https://maps.google.com/?cid=0x0:0x82916be3be78cceb,
toko bangunan,Toko Alat-Alat,ARLAND BANGUNAN,"Jl. H.R. Koroh, Bello, Kec. Maulafa, Kota Kupang, Nusa Tenggara Tim.","Kota Kupang, Nusa Tenggara Tim.",NUSA TENGGARA TIMUR,,Indonesia,82237592836.0,,,-10.2148583,123.6269775,https://maps.google.com/?cid=0x0:0x2029a54a4c6682e4,
toko bangunan,Toko Bahan Bangunan,Toko Bangunan Proton,"RJCC+W7C, Jl. Amabi, Oebufu, Kec. Oebobo, Kota Kupang, Nusa Tenggara Tim. 85142","Jl. Amabi, Oebufu, Kec. Oebobo, Kota Kupang",NUSA TENGGARA TIMUR,85142.0,Indonesia,,,,-10.1776769,123.6206542,https://maps.google.com/?cid=0x0:0x831da8a5c59cb4f4,
toko bangunan,Toko Bahan Bangunan,CV KENCANA MULIA ABADI,"Jl. Terusan Timor Raya No.9, Oeba, Kec. Kota Lama, Kota Kupang, Nusa Tenggara Tim.","Kota Kupang, Nusa Tenggara Tim.",NUSA TENGGARA TIMUR,,Indonesia,,,,-10.1562204,123.594482,https://maps.google.com/?cid=0x0:0x74678b2af89178aa,
toko bangunan,Toko Bahan Bangunan,SURYA BANGUNAN BUILDING MATERIAL,"Tuak Daun Merah, Kec. Oebobo, Kota Kupang, Nusa Tenggara Tim. 85228","Kec. Oebobo, Kota Kupang",NUSA TENGGARA TIMUR,85228.0,Indonesia,85101757906.0,,,-10.1673497,123.6293264,https://maps.google.com/?cid=0x0:0xadd57bf60a816b00,
toko bangunan,Toko Bahan Bangunan,Sinar Bangunan Toko,"HF4H+RM8, Kefamenanu Tengah, Kec. Kota Kefamenanu, Kabupaten Timor Tengah Utara, Nusa Tenggara Tim.","Kabupaten Timor Tengah Utara, Nusa Tenggara Tim.",NUSA TENGGARA TIMUR,,Indonesia,38831062.0,,,-9.442966,124.479218,https://maps.google.com/?cid=0x0:0x1cb714dfdd8c833e,
toko bangunan,Toko Bahan Bangunan,Utama Bangunan,"Jl. Jenderal Sudirman No.104, Nunleu, Kec. Kota Raja, Kota Kupang, Nusa Tenggara Tim.","Kota Kupang, Nusa Tenggara Tim.",NUSA TENGGARA TIMUR,,Indonesia,,,,-10.1737992,123.592435,https://maps.google.com/?cid=0x0:0x5d963cfe75d2b6f3,
