Category,Real Category,Business Name,Address,City,State,Postal Code,Country,Phone,Email,Website,Latitude,Longitude,Map Link,Details Link
perumahan,Komplek perumahan,Akrisna Laitabun,"Jl. Bokobati-Uiamlasi No.10, Uiboa, Kec. Semau Sel., Kabupaten Kupang, Nusa Tenggara Tim. 85353","Uiboa, Kec. Semau Sel., Kabupaten Kupang",NUSA TENGGARA TIMUR,85353.0,Indonesia,,,,-10.2389948,123.3313638,https://maps.google.com/?cid=0x0:0xb25aff5719ba5d5a,
perumahan,Komplek perumahan,Arefen Laitabum,"P8XV+M6J, Uiboa, Kec. Semau Sel., Kabupaten Kupang, Nusa Tenggara Tim.","Kabupaten Kupang, Nusa Tenggara Tim.",NUSA TENGGARA TIMUR,,Indonesia,,,,-10.2507967,123.3430033,https://maps.google.com/?cid=0x0:0x516c93209be442f3,
perumahan,perumahan,Kec. Semau,"Kabupaten Kupang, Nusa Tenggara Tim.","Kabupaten Kupang, Nusa Tenggara Tim.",NUSA TENGGARA TIMUR,,Indonesia,,,,-10.1913662,123.4129193,https://maps.google.com/?cid=0x0:0x81285b2e1209f61c,
perumahan,Komplek perumahan,Rumah BETRIS,"RC5X+R9J, Huilelot, Kec. Semau, Kabupaten Kupang, Nusa Tenggara Tim.","Kabupaten Kupang, Nusa Tenggara Tim.",NUSA TENGGARA TIMUR,,Indonesia,,,,-10.1898198,123.4482924,https://maps.google.com/?cid=0x0:0x7c6c65e29c4c8862,
perumahan,perumahan,Semau.desa huilelot,"QCXV+48V, Huilelot, Kec. Semau, Kabupaten Kupang, Nusa Tenggara Tim.","Kabupaten Kupang, Nusa Tenggara Tim.",NUSA TENGGARA TIMUR,,Indonesia,,,,-10.202558,123.442915,https://maps.google.com/?cid=0x0:0x1de6920bf5371375,
perumahan,Komplek perumahan,Onanbalu,"Q9H4+9FM, Bokonusan, Kec. Semau, Kabupaten Kupang, Nusa Tenggara Tim.","Kabupaten Kupang, Nusa Tenggara Tim.",NUSA TENGGARA TIMUR,,Indonesia,,,,-10.2215293,123.3561668,https://maps.google.com/?cid=0x0:0xc97e4ce47562edff,
perumahan,Komplek perumahan,Ardy Naisono,"V93V+GJ3, Batuinan, Kec. Semau, Kabupaten Kupang, Nusa Tenggara Tim.","Kabupaten Kupang, Nusa Tenggara Tim.",NUSA TENGGARA TIMUR,,Indonesia,,,,-10.1432399,123.3948983,https://maps.google.com/?cid=0x0:0x64a9bb99401e5ddf,
perumahan,Komplek perumahan,Rumah Yoret tale,"P9X2+H9, Uiboa, Kec. Semau Sel., Kabupaten Kupang, Nusa Tenggara Tim.","Kabupaten Kupang, Nusa Tenggara Tim.",NUSA TENGGARA TIMUR,,Indonesia,,,,-10.2521705,123.3511686,https://maps.google.com/?cid=0x0:0x61ce6a8754d1c8c7,
perumahan,perumahan,".Huilelot, Kec. Semau, Kabupaten Kupang, Nusa Tenggara Tim.","QCWV+R9J, Huilelot, Kec. Semau, Kabupaten Kupang, Nusa Tenggara Tim.","Kabupaten Kupang, Nusa Tenggara Tim.",NUSA TENGGARA TIMUR,,Indonesia,,,,-10.2029106,123.4433832,https://maps.google.com/?cid=0x0:0xb8cf7f061f2d3185,
perumahan,Komplek perumahan,Mardes Manu Olla,"RC89+XHG, Uitao, Kec. Semau, Kabupaten Kupang, Nusa Tenggara Tim.","Kabupaten Kupang, Nusa Tenggara Tim.",NUSA TENGGARA TIMUR,,Indonesia,,,,-10.1825654,123.4189515,https://maps.google.com/?cid=0x0:0xee743b6636c78bdd,
perumahan,Komplek perumahan,Rumah nosan,"RC5V+MJ3, Huilelot, Kec. Semau, Kabupaten Kupang, Nusa Tenggara Tim.","Kabupaten Kupang, Nusa Tenggara Tim.",NUSA TENGGARA TIMUR,,Indonesia,,,,-10.191784,123.443937,https://maps.google.com/?cid=0x0:0x9a32168dcb4c5174,
perumahan,Pembangunan Perumahan,Rumah Deki Snait,"Uiboa, Kec. Semau Sel., Kabupaten Kupang, Nusa Tenggara Tim.","Kabupaten Kupang, Nusa Tenggara Tim.",NUSA TENGGARA TIMUR,,Indonesia,,,,-10.2600249,123.3498932,https://maps.google.com/?cid=0x0:0x24b044c409f9edaa,
perumahan,Komplek perumahan,Mumu Bolan,"V95W+V5, Batuinan, Kec. Semau, Kabupaten Kupang, Nusa Tenggara Tim.","Kabupaten Kupang, Nusa Tenggara Tim.",NUSA TENGGARA TIMUR,,Indonesia,,,,-10.1403069,123.3954676,https://maps.google.com/?cid=0x0:0xbbaee1be0173c7c7,
perumahan,Gereja,Rumah Jabatan Gereja Eklesia Piaklain,"Q9QM+7GW, Bokonusan, Kec. Semau, Kabupaten Kupang, Nusa Tenggara Tim.","Kabupaten Kupang, Nusa Tenggara Tim.",NUSA TENGGARA TIMUR,,Indonesia,,,,-10.2117737,123.3838239,https://maps.google.com/?cid=0x0:0xdff7d86fbb1716a2,
perumahan,Komplek perumahan,Wenny home,"R9JR+4R, Otan, Kec. Semau, Kabupaten Kupang, Nusa Tenggara Tim.","Kabupaten Kupang, Nusa Tenggara Tim.",NUSA TENGGARA TIMUR,,Indonesia,,,,-10.1696688,123.3921212,https://maps.google.com/?cid=0x0:0xc3c618d72c6e26af,
perumahan,Komplek perumahan,BAKO FAMS,"Q9QR+43Q, Bokonusan, Kec. Semau, Kabupaten Kupang, Nusa Tenggara Tim.","Kabupaten Kupang, Nusa Tenggara Tim.",NUSA TENGGARA TIMUR,,Indonesia,,,,-10.212154,123.3902495,https://maps.google.com/?cid=0x0:0xb2a89d852ef0dead,
perumahan,Rumah Kayu,Rumah mardi Lilo,"P9WV+795, Uitiuh Ana, Kec. Semau Sel., Kabupaten Kupang, Nusa Tenggara Tim.","Kabupaten Kupang, Nusa Tenggara Tim.",NUSA TENGGARA TIMUR,,Indonesia,,,,-10.2543671,123.3934885,https://maps.google.com/?cid=0x0:0x56a7d960d59dcc99,
perumahan,Komplek perumahan,TUTUN,"RFFQ+JGF, Hansisi, Kec. Semau, Kabupaten Kupang, Nusa Tenggara Tim.","Kabupaten Kupang, Nusa Tenggara Tim.",NUSA TENGGARA TIMUR,,Indonesia,,,,-10.1759487,123.4887939,https://maps.google.com/?cid=0x0:0x5d3085e9d52082f1,
perumahan,Komplek perumahan,Pepo Home,"RFV8+C3Q, Uiasa, Kec. Semau, Kabupaten Kupang, Nusa Tenggara Tim.","Kabupaten Kupang, Nusa Tenggara Tim.",NUSA TENGGARA TIMUR,,Indonesia,,,,-10.1564193,123.4652301,https://maps.google.com/?cid=0x0:0xc256c8bfb1a86f55,
perumahan,Komplek perumahan,SUNA-ATI HOME,"VFF5+R8, Uiasa, Kec. Semau, Kabupaten Kupang, Nusa Tenggara Tim.","Kabupaten Kupang, Nusa Tenggara Tim.",NUSA TENGGARA TIMUR,,Indonesia,,,,-10.1254375,123.4583125,https://maps.google.com/?cid=0x0:0x60192f807d6985c1,
perumahan,Perhimpunan Pengembang Perumahan,Koten,"RFCG+7C, Hansisi, Kec. Semau, Kabupaten Kupang, Nusa Tenggara Tim.","Kabupaten Kupang, Nusa Tenggara Tim.",NUSA TENGGARA TIMUR,,Indonesia,,,,-10.1795785,123.4751199,https://maps.google.com/?cid=0x0:0xf5e2f5a84f6a8435,
perumahan,Komplek perumahan,Alberth Tode,"RF9M+VW, Hansisi, Kec. Semau, Kabupaten Kupang, Nusa Tenggara Tim.","Kabupaten Kupang, Nusa Tenggara Tim.",NUSA TENGGARA TIMUR,,Indonesia,,,,-10.180347,123.4847527,https://maps.google.com/?cid=0x0:0xf93f8aedc169f8fa,
perumahan,Pembangunan Perumahan,Gusty Pong,"P9X2+H9, Uiboa, Kec. Semau Sel., Kabupaten Kupang, Nusa Tenggara Tim.","Kabupaten Kupang, Nusa Tenggara Tim.",NUSA TENGGARA TIMUR,,Indonesia,,,,-10.2510369,123.3508743,https://maps.google.com/?cid=0x0:0x1983737d09e548fc,
perumahan,Komplek perumahan,Izma,"RCPG+Q23, Letbaun, Kec. Semau, Kabupaten Kupang, Nusa Tenggara Tim.","Kabupaten Kupang, Nusa Tenggara Tim.",NUSA TENGGARA TIMUR,,Indonesia,,,,-10.1631065,123.4250544,https://maps.google.com/?cid=0x0:0xc385ef21f3ff97c1,
perumahan,Komplek perumahan,Oetefu Kecil,"RC57+F55, Uitao, Kec. Semau, Kabupaten Kupang, Nusa Tenggara Tim.","Kabupaten Kupang, Nusa Tenggara Tim.",NUSA TENGGARA TIMUR,,Indonesia,,,,-10.1913538,123.4129872,https://maps.google.com/?cid=0x0:0x3e9153f1388fd97f,
perumahan,Pembangunan Perumahan,Adrial,"VC9G+6G, Letbaun, Kec. Semau, Kabupaten Kupang, Nusa Tenggara Tim.","Kabupaten Kupang, Nusa Tenggara Tim.",NUSA TENGGARA TIMUR,,Indonesia,,,,-10.1319892,123.4263033,https://maps.google.com/?cid=0x0:0xab36975485022cac,
perumahan,Komplek perumahan,Djami Family,"RFP9+C3P, Hansisi, Kec. Semau, Kabupaten Kupang, Nusa Tenggara Tim.","Kabupaten Kupang, Nusa Tenggara Tim.",NUSA TENGGARA TIMUR,,Indonesia,,,,-10.1639848,123.4677499,https://maps.google.com/?cid=0x0:0xcc18ffd0450470d3,
perumahan,Komplek perumahan,Simeon Neno,"R9CQ+39, Otan, Kec. Semau, Kabupaten Kupang, Nusa Tenggara Tim.","Kabupaten Kupang, Nusa Tenggara Tim.",NUSA TENGGARA TIMUR,,Indonesia,,,,-10.1797629,123.3884087,https://maps.google.com/?cid=0x0:0x2ea7538db96e073e,
perumahan,perumahan,Kec. Kupang Bar.,"Kabupaten Kupang, Nusa Tenggara Tim.","Kabupaten Kupang, Nusa Tenggara Tim.",NUSA TENGGARA TIMUR,,Indonesia,,,,-10.258321,123.5547732,https://maps.google.com/?cid=0x0:0xae10763b94256d10,
perumahan,perumahan,Nicodemus Laidat,"PHP9+V9V, Oenesu, Kec. Kupang Bar., Kabupaten Kupang, Nusa Tenggara Tim.","Kabupaten Kupang, Nusa Tenggara Tim.",NUSA TENGGARA TIMUR,,Indonesia,,,,-10.2627686,123.5684345,https://maps.google.com/?cid=0x0:0x844ffcab8d0eb931,
perumahan,Pembangunan Perumahan,Perumahan PT Asri Sejahtera Bersama Tanaloko,"PHX9+4GQ, Jl. Mata Air Tanaloko, Oenesu, Kec. Kupang Bar., Kabupaten Kupang, Nusa Tenggara Tim.","Kabupaten Kupang, Nusa Tenggara Tim.",NUSA TENGGARA TIMUR,,Indonesia,,,,-10.2521503,123.568849,https://maps.google.com/?cid=0x0:0xd7a591fe249c4fe1,
perumahan,perumahan,PERUMAHAN GRAHA KUPANG INDAH,"QGJP+MQH, Nitneo, Kec. Kupang Bar., Kabupaten Kupang, Nusa Tenggara Tim.","Kabupaten Kupang, Nusa Tenggara Tim.",NUSA TENGGARA TIMUR,,Indonesia,,,,-10.2183149,123.5369842,https://maps.google.com/?cid=0x0:0x9f429d3e1f1dcb89,
perumahan,Komplek perumahan,Gg. Mela Jr.,"Jl. Baktate Jalan raya No.20, Tablolong, Kec. Kupang Bar., Kabupaten Kupang, Nusa Tenggara Tim. 81008","Tablolong, Kec. Kupang Bar., Kabupaten Kupang",NUSA TENGGARA TIMUR,81008.0,Indonesia,,,,-10.26605,123.5520497,https://maps.google.com/?cid=0x0:0x7bf9920cc3fde08e,
perumahan,Perumahan,Perumahan Flosindo Cendana Timor,"QGHM+7HG, Unnamed Road, Nitneo, Kec. Kupang Bar., Kabupaten Kupang, Nusa Tenggara Tim.","Kabupaten Kupang, Nusa Tenggara Tim.",NUSA TENGGARA TIMUR,,Indonesia,,,,-10.221809,123.533968,https://maps.google.com/?cid=0x0:0x72faa9d4c23987c4,
perumahan,Pembangunan Perumahan,Perumahan Sejahgad Town House,"QJWF+7XJ, Jl. Neten Lila, Bello, Kec. Maulafa, Kota Kupang, Nusa Tenggara Tim.","Kota Kupang, Nusa Tenggara Tim.",NUSA TENGGARA TIMUR,,Indonesia,,,,-10.2042819,123.6248991,https://maps.google.com/?cid=0x0:0x34556041b9992770,
perumahan,Perumahan,Rumah Melan N,"QHGC+VC2, Manulai I, Kec. Kupang Bar., Kabupaten Kupang, Nusa Tenggara Tim.","Kabupaten Kupang, Nusa Tenggara Tim.",NUSA TENGGARA TIMUR,,Indonesia,,,,-10.2228632,123.5710095,https://maps.google.com/?cid=0x0:0xd03ef38b1cc87ccd,
perumahan,Komplek perumahan,Dean wike,"QGCP+695, Nitneo, Kec. Kupang Bar., Kabupaten Kupang, Nusa Tenggara Tim.","Kabupaten Kupang, Nusa Tenggara Tim.",NUSA TENGGARA TIMUR,,Indonesia,,,,-10.2294961,123.5359701,https://maps.google.com/?cid=0x0:0xd0ad077416586d76,
perumahan,Komplek perumahan,Rumah Oktavianus Towa lein,"QH86+R4, Manulai I, Kec. Kupang Bar., Kabupaten Kupang, Nusa Tenggara Tim.","Kabupaten Kupang, Nusa Tenggara Tim.",NUSA TENGGARA TIMUR,,Indonesia,,,,-10.232913,123.5603028,https://maps.google.com/?cid=0x0:0x530b2201368c4391,
perumahan,perumahan,Kupang barat desa sumlili,"MGVV+C65 Indry home, Sumlili, Kec. Kupang Bar., Kabupaten Kupang, Nusa Tenggara Tim.","Kabupaten Kupang, Nusa Tenggara Tim.",NUSA TENGGARA TIMUR,,Indonesia,,,,-10.3065,123.5430977,https://maps.google.com/?cid=0x0:0x651e5ab7fbfe0d0e,
perumahan,Pembangunan Perumahan,Manulai residence kupang,"QHGF+3WF, Manulai I, Kec. Kupang Bar., Kabupaten Kupang, Nusa Tenggara Tim.","Kabupaten Kupang, Nusa Tenggara Tim.",NUSA TENGGARA TIMUR,,Indonesia,,,,-10.2248034,123.5748004,https://maps.google.com/?cid=0x0:0x82ed9b00500d6053,
perumahan,perumahan,Rumah Alky Yewang,"QGCV+G64, Nitneo, Kec. Kupang Bar., Kabupaten Kupang, Nusa Tenggara Tim.","Kabupaten Kupang, Nusa Tenggara Tim.",NUSA TENGGARA TIMUR,,Indonesia,,,,-10.2287471,123.5430636,https://maps.google.com/?cid=0x0:0x1fe300da2bd908ef,
perumahan,perumahan,Noris Nomleni,"PG9X+JR4, Batakte, Kec. Kupang Bar., Kabupaten Kupang, Nusa Tenggara Tim.","Kabupaten Kupang, Nusa Tenggara Tim.",NUSA TENGGARA TIMUR,,Indonesia,,,,-10.280824,123.5487152,https://maps.google.com/?cid=0x0:0x78e57f97fd285b84,
perumahan,Komplek perumahan,Beni Laikopan,"QG6H+P47, Bolok, Kec. Kupang Bar., Kabupaten Kupang, Nusa Tenggara Tim.","Kabupaten Kupang, Nusa Tenggara Tim.",NUSA TENGGARA TIMUR,,Indonesia,,,,-10.2382072,123.527782,https://maps.google.com/?cid=0x0:0xad502685dda1b39c,
perumahan,perumahan,Rumah anita,"QGFM+G3X, Nitneo, Kec. Kupang Bar., Kabupaten Kupang, Nusa Tenggara Tim.","Kabupaten Kupang, Nusa Tenggara Tim.",NUSA TENGGARA TIMUR,,Indonesia,,,,-10.2261346,123.532732,https://maps.google.com/?cid=0x0:0xe9384267cbacb8e1,
perumahan,Komplek perumahan,Perumahan.Pt.Asri Maju Bersama,"PHX9+6H, Oenesu, Kec. Kupang Bar., Kabupaten Kupang, Nusa Tenggara Tim.","Kabupaten Kupang, Nusa Tenggara Tim.",NUSA TENGGARA TIMUR,,Indonesia,,,,-10.2520011,123.5689076,https://maps.google.com/?cid=0x0:0x2611b988107f8dbb,
perumahan,perumahan,Boneana,"PGJR+H6C, Jln. Domjaya, Oemat Nunu, Kec. Kupang Bar., Kabupaten Kupang, Nusa Tenggara Tim.","Kabupaten Kupang, Nusa Tenggara Tim.",NUSA TENGGARA TIMUR,,Indonesia,,,,-10.2685786,123.5404139,https://maps.google.com/?cid=0x0:0x3a6b1855f586977a,
perumahan,Kompleks Kondominium,Joker,"QGFX+6J5, Nitneo, Kec. Kupang Bar., Kabupaten Kupang, Nusa Tenggara Tim.","Kabupaten Kupang, Nusa Tenggara Tim.",NUSA TENGGARA TIMUR,,Indonesia,,,,-10.2269855,123.5491227,https://maps.google.com/?cid=0x0:0x3bfde549aafc8696,
perumahan,Komplek perumahan,Perumahan Seroja,"QHJ6+2VW, Jl. Teratai, Manulai II, Kec. Alak, Kota Kupang, Nusa Tenggara Tim.","Kota Kupang, Nusa Tenggara Tim.",NUSA TENGGARA TIMUR,,Indonesia,,,,-10.2198833,123.5622106,https://maps.google.com/?cid=0x0:0x5a31fd1eb14dac3e,
perumahan,Pembangunan Perumahan,Perumahan Batakte,"PHW5+C4W, Batakte, Kec. Kupang Bar., Kabupaten Kupang, Nusa Tenggara Tim.","Kabupaten Kupang, Nusa Tenggara Tim.",NUSA TENGGARA TIMUR,,Indonesia,81316424742.0,,,-10.2538957,123.5578167,https://maps.google.com/?cid=0x0:0x8f9bea93a4f09431,
perumahan,Kantor Perusahaan,Perumahan Nusa Persada II,"QGGR+XF9, Nitneo, Kec. Kupang Bar., Kabupaten Kupang, Nusa Tenggara Tim.","Kabupaten Kupang, Nusa Tenggara Tim.",NUSA TENGGARA TIMUR,,Indonesia,85239258158.0,,,-10.2225919,123.5412464,https://maps.google.com/?cid=0x0:0xd939cd20f1a1f05,
perumahan,Pembangunan Perumahan,Rumah Jofar,"PH52+77, Sumlili, Kec. Kupang Bar., Kabupaten Kupang, Nusa Tenggara Tim.","Kabupaten Kupang, Nusa Tenggara Tim.",NUSA TENGGARA TIMUR,,Indonesia,88809327185.0,,,-10.2918304,123.5507488,https://maps.google.com/?cid=0x0:0x364bff6c4e20fd67,
perumahan,Kompleks Apartemen,KPK ( Kavling Prima Kupang),"QG6Q+GP, Bolok, Kec. Kupang Bar., Kabupaten Kupang, Nusa Tenggara Tim.","Kabupaten Kupang, Nusa Tenggara Tim.",NUSA TENGGARA TIMUR,,Indonesia,,,,-10.2387265,123.5393031,https://maps.google.com/?cid=0x0:0xac5b7bddd31b52fb,
perumahan,Perhimpunan Pengembang Perumahan,Jl.Air Sola No 1,"QHFC+CWP, Jalur XL, Manulai I, Kec. Kupang Bar., Kabupaten Kupang, Nusa Tenggara Tim.","Kabupaten Kupang, Nusa Tenggara Tim.",NUSA TENGGARA TIMUR,,Indonesia,,,,-10.2264041,123.5723254,https://maps.google.com/?cid=0x0:0xcf616cb23e996891,
perumahan,Komplek perumahan,Lakungjara,"QGCV+WVP, Manulai II, Kec. Kupang Bar., Kota Kupang, Nusa Tenggara Tim.","Kota Kupang, Nusa Tenggara Tim.",NUSA TENGGARA TIMUR,,Indonesia,,,,-10.227654,123.5446937,https://maps.google.com/?cid=0x0:0x18533cf8f91e464d,
perumahan,Perhimpunan Pengembang Perumahan,Laibusan,"PHHC+WWG, Oenesu, Kec. Kupang Bar., Kabupaten Kupang, Nusa Tenggara Tim.","Kabupaten Kupang, Nusa Tenggara Tim.",NUSA TENGGARA TIMUR,,Indonesia,,,,-10.2701818,123.5723399,https://maps.google.com/?cid=0x0:0x6caa8a17e5b78a74,
perumahan,Komplek perumahan,Dino,"QG9C+PPX, Bolok, Kec. Kupang Bar., Kabupaten Kupang, Nusa Tenggara Tim.","Kabupaten Kupang, Nusa Tenggara Tim.",NUSA TENGGARA TIMUR,,Indonesia,,,,-10.2308182,123.5223777,https://maps.google.com/?cid=0x0:0x6ccccdeab582b161,
perumahan,Komplek perumahan,Tomi's House,"QGFR+VC, Nitneo, Kec. Kupang Bar., Kabupaten Kupang, Nusa Tenggara Tim.","Kabupaten Kupang, Nusa Tenggara Tim.",NUSA TENGGARA TIMUR,,Indonesia,,,,-10.2252839,123.5410925,https://maps.google.com/?cid=0x0:0x6862fd1559df5a23,
perumahan,perumahan,Nusa Tenggara Tim. 85362,"Oesao, Kec. Kupang Tim., Kabupaten Kupang, Nusa Tenggara Tim.","Kabupaten Kupang, Nusa Tenggara Tim.",NUSA TENGGARA TIMUR,,Indonesia,,,,-10.1164178,123.8121644,https://maps.google.com/?cid=0x0:0x8006f293bbb44c34,
perumahan,Komplek perumahan,Rumah Kel Sama Rasa,"Jl. Terusan Timor Raya No.km 28, Oesao, Kec. Kupang Tim., Kabupaten Kupang, Nusa Tenggara Tim.","Kabupaten Kupang, Nusa Tenggara Tim.",NUSA TENGGARA TIMUR,,Indonesia,,,,-10.115453,123.8108838,https://maps.google.com/?cid=0x0:0xbe8ef3623d687890,
perumahan,Pembangunan Perumahan,Perumahan Sejahgad Town House,"QJWF+7XJ, Jl. Neten Lila, Bello, Kec. Maulafa, Kota Kupang, Nusa Tenggara Tim.","Kota Kupang, Nusa Tenggara Tim.",NUSA TENGGARA TIMUR,,Indonesia,,,,-10.2042819,123.6248991,https://maps.google.com/?cid=0x0:0x34556041b9992770,
perumahan,Komplek perumahan,rumah Arnola Manoe,"Jl. Terusan Timor Raya No.KM 28, Oesao, Kec. Kupang Tim., Kabupaten Kupang, Nusa Tenggara Tim.","Kabupaten Kupang, Nusa Tenggara Tim.",NUSA TENGGARA TIMUR,,Indonesia,,,,-10.116776,123.811625,https://maps.google.com/?cid=0x0:0xe24a021196fb6489,
perumahan,Komplek perumahan,Kiki Bengkiuk,"VRM6+Q69, Oesao, Kec. Kupang Tim., Kabupaten Kupang, Nusa Tenggara Tim.","Kabupaten Kupang, Nusa Tenggara Tim.",NUSA TENGGARA TIMUR,,Indonesia,,,,-10.1155844,123.8105948,https://maps.google.com/?cid=0x0:0xd87dcf26b61446ad,
perumahan,Komplek perumahan,My home,"Jl. Oesapa - Oesao No.29, Oesao, Kec. Kupang Tim., Kabupaten Kupang, Nusa Tenggara Tim.","Kabupaten Kupang, Nusa Tenggara Tim.",NUSA TENGGARA TIMUR,,Indonesia,,,,-10.1156933,123.8111232,https://maps.google.com/?cid=0x0:0x668c7e456f75ff46,
perumahan,Pembangunan Perumahan,Perumahan Pondok Indah Matani,"Penfui Tim, Kec. Kupang Tengah, Kabupaten Kupang, Nusa Tenggara Tim. 85000","Kec. Kupang Tengah, Kabupaten Kupang",NUSA TENGGARA TIMUR,85000.0,Indonesia,82145034333.0,,,-10.1591497,123.6881077,https://maps.google.com/?cid=0x0:0xb9cedc3f8f7c758d,
perumahan,Komplek perumahan,Rumah Alberthina Loak Fanggidae ( Lofang Oesao),"VRM6+H64, Jl. Terusan Timor Raya, Oesao, Kec. Kupang Tim., Kabupaten Kupang, Nusa Tenggara Tim.","Kabupaten Kupang, Nusa Tenggara Tim.",NUSA TENGGARA TIMUR,,Indonesia,,,,-10.1161227,123.8105914,https://maps.google.com/?cid=0x0:0x1f34e03c18b3f6ed,
perumahan,Pembangunan Perumahan,Oeseo,"VRM6+85F, Oesao, Kec. Kupang Tim., Kabupaten Kupang, Nusa Tenggara Tim.","Kabupaten Kupang, Nusa Tenggara Tim.",NUSA TENGGARA TIMUR,,Indonesia,,,,-10.1166754,123.8104314,https://maps.google.com/?cid=0x0:0x58d02c926821b929,
perumahan,Pembangunan Perumahan,Faldi amalo,"VRM6+85F, Oesao, Kec. Kupang Tim., Kabupaten Kupang, Nusa Tenggara Tim.","Kabupaten Kupang, Nusa Tenggara Tim.",NUSA TENGGARA TIMUR,,Indonesia,,,,-10.1166754,123.8104314,https://maps.google.com/?cid=0x0:0x7868d9f1a3f56c48,
perumahan,Pembangunan Perumahan,Perumahan Gemstone Regency II,"RH23+VP2, Alak, Kec. Alak, Kota Kupang, Nusa Tenggara Tim.","Kota Kupang, Nusa Tenggara Tim.",NUSA TENGGARA TIMUR,,Indonesia,,,,-10.1978693,123.5542601,https://maps.google.com/?cid=0x0:0xeaf04e405e9bfaba,
perumahan,Komplek perumahan,Perumahan Pitoby,"RH63+P49 Perumahan Pitoby, Blk. DC Jl. Penkase No.28B, Alak, Kec. Alak, Kota Kupang, Nusa Tenggara Tim.","Kota Kupang, Nusa Tenggara Tim.",NUSA TENGGARA TIMUR,,Indonesia,,,,-10.1893671,123.5519823,https://maps.google.com/?cid=0x0:0xd27a5582ee8d6fb8,
perumahan,Perumahan,Perumahan Palma Hill Alak,"RG6X+V3C, Alak, Kec. Alak, Kota Kupang, Nusa Tenggara Tim.","Kota Kupang, Nusa Tenggara Tim.",NUSA TENGGARA TIMUR,,Indonesia,,,,-10.1878174,123.5476122,https://maps.google.com/?cid=0x0:0xc45243a0e13dcd3d,
perumahan,Komplek perumahan,Perumahan pitoby,"Perumahan pitoby, Bolck, Blk. AC No.191, Alak, Kec. Alak, Kota Kupang, Nusa Tenggara Tim.","Kota Kupang, Nusa Tenggara Tim.",NUSA TENGGARA TIMUR,,Indonesia,,,,-10.1842884,123.5519618,https://maps.google.com/?cid=0x0:0x36f2caaebd83b6e2,
perumahan,Komplek perumahan,Perumahan Pitoby Gemstone Regency,"QHX5+2F7, Unnamed Road, Alak, Kec. Alak, Kota Kupang, Nusa Tenggara Tim.","Kota Kupang, Nusa Tenggara Tim.",NUSA TENGGARA TIMUR,,Indonesia,,,,-10.2024697,123.5586655,https://maps.google.com/?cid=0x0:0xedfb35f055dc4824,
perumahan,Komplek perumahan,Perumahan,"BTN Kolhua Blok G No 88, RT., 036/RW.,02, Kupang City, East Nusa Tenggara","Kota Kupang, Nusa Tenggara Tim.",NUSA TENGGARA TIMUR,,Indonesia,,,,-10.2044465,123.6298256,https://maps.google.com/?cid=0x0:0xf06c6cb1ef7b4796,
perumahan,perumahan,Kec. Kupang Tim.,"Kabupaten Kupang, Nusa Tenggara Tim.","Kabupaten Kupang, Nusa Tenggara Tim.",NUSA TENGGARA TIMUR,,Indonesia,,,,-10.1166754,123.8104314,https://maps.google.com/?cid=0x0:0x92c9c674c9e1ea9d,
perumahan,Toko Bahan Bangunan,Toko Karunia Indah,"Oesao, Kec. Kupang Tim., Kabupaten Kupang, Nusa Tenggara Tim.","Kabupaten Kupang, Nusa Tenggara Tim.",NUSA TENGGARA TIMUR,,Indonesia,81339115500.0,,,-10.1164267,123.810462,https://maps.google.com/?cid=0x0:0xe2b8564416118add,
perumahan,Jasa Pengiriman,JT Express OELAMASI,"VRM6+8G3, Oesao, Kec. Kupang Tim., Kabupaten Kupang, Nusa Tenggara Tim.","Kabupaten Kupang, Nusa Tenggara Tim.",NUSA TENGGARA TIMUR,,Indonesia,,,,-10.11673,123.811299,https://maps.google.com/?cid=0x0:0x50846015535b7848,
perumahan,Komplek perumahan,Mandato Islamic Residence,"QHQC+222, Manulai II, Kec. Alak, Kota Kupang, Nusa Tenggara Tim.","Kota Kupang, Nusa Tenggara Tim.",NUSA TENGGARA TIMUR,,Indonesia,,,,-10.2124813,123.5700036,https://maps.google.com/?cid=0x0:0x780ee406a8f1ea97,
perumahan,Toko Bahan Bangunan,Toko Sumber Bangunan,"Jl. Oesao - Bokong No.Km. 28, Oesao, Kec. Kupang Tim., Kabupaten Kupang, Nusa Tenggara Tim.","Kabupaten Kupang, Nusa Tenggara Tim.",NUSA TENGGARA TIMUR,,Indonesia,81236427744.0,,,-10.1167107,123.8112814,https://maps.google.com/?cid=0x0:0x29d575d1a4a441ac,
perumahan,Gedung Apartemen,Netha lay,"RT.003/RW.001, Oeteta, Kec. Sulamu, Kabupaten Kupang, Nusa Tenggara Tim. 85368","Oeteta, Kec. Sulamu, Kabupaten Kupang",NUSA TENGGARA TIMUR,85368.0,Indonesia,,,,-10.0135637,123.7639918,https://maps.google.com/?cid=0x0:0x72302d26770d2ba3,
perumahan,Komplek perumahan,BTN Kolhua,"QJVH+XM3, Blk. Y2, Kolhua, Kec. Maulafa, Kota Kupang, Nusa Tenggara Tim. 85142","Blk. Y2, Kolhua, Kec. Maulafa, Kota Kupang",NUSA TENGGARA TIMUR,85142.0,Indonesia,,,,-10.2044465,123.6298256,https://maps.google.com/?cid=0x0:0x3ce7ebf84151c1d3,
perumahan,perumahan,Nusa Tenggara Tim.,,Nusa Tenggara Tim.,NUSA TENGGARA TIMUR,,Indonesia,,,,-8.6573819,121.0793705,https://maps.google.com/?cid=0x0:0x1030bfbcaf71ae0,
perumahan,Komplek perumahan,GRIYA SHAFWAH PENKASE ASRI,"Alak, Kec. Alak, Kota Kupang, Nusa Tenggara Tim.","Kota Kupang, Nusa Tenggara Tim.",NUSA TENGGARA TIMUR,,Indonesia,82236193672.0,,,-10.195601,123.5588663,https://maps.google.com/?cid=0x0:0x74f8301e0efe0910,
perumahan,Pembangunan Perumahan,PURI MANDATO NAIONI,"QH8V+FMM, Naioni, Kec. Alak, Kota Kupang, Nusa Tenggara Tim.","Kota Kupang, Nusa Tenggara Tim.",NUSA TENGGARA TIMUR,,Indonesia,82145201503.0,,,-10.2337989,123.594173,https://maps.google.com/?cid=0x0:0x2b2c67faa71904ac,
perumahan,Pembangunan Perumahan,Perumahan Gemstone Regency II,"RH23+VP2, Alak, Kec. Alak, Kota Kupang, Nusa Tenggara Tim.","Kota Kupang, Nusa Tenggara Tim.",NUSA TENGGARA TIMUR,,Indonesia,,,,-10.1978693,123.5542601,https://maps.google.com/?cid=0x0:0xeaf04e405e9bfaba,
perumahan,Perumahan,Ô∏è Perumahan Gemstone Blok GJ No. 110,"RH24+28C, Alak, Kec. Alak, Kota Kupang, Nusa Tenggara Tim.","Kota Kupang, Nusa Tenggara Tim.",NUSA TENGGARA TIMUR,,Indonesia,,,,-10.20012,123.555906,https://maps.google.com/?cid=0x0:0xb6fc1a85670e6c7d,
perumahan,perumahan,Kec. Sulamu,"Kabupaten Kupang, Nusa Tenggara Tim.","Kabupaten Kupang, Nusa Tenggara Tim.",NUSA TENGGARA TIMUR,,Indonesia,,,,-10.0096046,123.7331235,https://maps.google.com/?cid=0x0:0xde7bea235d825e39,
perumahan,Rumah Kayu,Rumah Biru,"XQR2+P99, Pariti, Kec. Sulamu, Kabupaten Kupang, Nusa Tenggara Tim.","Kabupaten Kupang, Nusa Tenggara Tim.",NUSA TENGGARA TIMUR,,Indonesia,,,,-10.009821,123.7524224,https://maps.google.com/?cid=0x0:0xa4fd974fa365cb7d,
perumahan,,Radja home,"XPRH+7CP, RT.16+Rw/RW.08, Pariti, Kec. Sulamu, Kabupaten Kupang, Nusa Tenggara Tim.","Kabupaten Kupang, Nusa Tenggara Tim.",NUSA TENGGARA TIMUR,,Indonesia,,,,-10.0098283,123.729513,https://maps.google.com/?cid=0x0:0x78f9f9399bf04276,
perumahan,perumahan,pariti,"XQR2+H79, Pariti, Kec. Sulamu, Kabupaten Kupang, Nusa Tenggara Tim.","Kabupaten Kupang, Nusa Tenggara Tim.",NUSA TENGGARA TIMUR,,Indonesia,,,,-10.0085821,123.7507205,https://maps.google.com/?cid=0x0:0xa95edbf1ccd63c7a,
perumahan,perumahan,ekason lau home,"XPQV+CCC, Pariti, Kec. Sulamu, Kabupaten Kupang, Nusa Tenggara Tim.","Kabupaten Kupang, Nusa Tenggara Tim.",NUSA TENGGARA TIMUR,,Indonesia,,,,-10.0114425,123.7435168,https://maps.google.com/?cid=0x0:0xa62482239fa619af,
perumahan,Pembangunan Perumahan,Rumah.Jho samene,"XQM5+Q5, Oeteta, Kec. Sulamu, Kabupaten Kupang, Nusa Tenggara Tim.","Kabupaten Kupang, Nusa Tenggara Tim.",NUSA TENGGARA TIMUR,,Indonesia,,,,-10.015383,123.7578297,https://maps.google.com/?cid=0x0:0x66a8d9ed88570677,
perumahan,Komplek perumahan,Rumah Rhysno Markus,"XPHV+QC5, Pariti, Kec. Sulamu, Kabupaten Kupang, Nusa Tenggara Tim.","Kabupaten Kupang, Nusa Tenggara Tim.",NUSA TENGGARA TIMUR,,Indonesia,,,,-10.0217077,123.743611,https://maps.google.com/?cid=0x0:0x208e29163dae9570,
perumahan,Komplek perumahan,Nuken tallo,"XPRC+9W, Pariti, Kec. Sulamu, Kabupaten Kupang, Nusa Tenggara Tim.","Kabupaten Kupang, Nusa Tenggara Tim.",NUSA TENGGARA TIMUR,,Indonesia,,,,-10.0090454,123.722333,https://maps.google.com/?cid=0x0:0xa2e93cea2086806e,
perumahan,Komplek perumahan,Arry Peul,"XQVJ+RXH, Oeteta, Kec. Sulamu, Kabupaten Kupang, Nusa Tenggara Tim.","Kabupaten Kupang, Nusa Tenggara Tim.",NUSA TENGGARA TIMUR,,Indonesia,81338870816.0,,,-10.004956,123.7819632,https://maps.google.com/?cid=0x0:0x845f53e4a9be3a0c,
perumahan,Komplek perumahan,Maksen Yohanis,"XQV4+8RH, Oeteta, Kec. Sulamu, Kabupaten Kupang, Nusa Tenggara Tim.","Kabupaten Kupang, Nusa Tenggara Tim.",NUSA TENGGARA TIMUR,,Indonesia,,,,-10.0066999,123.7571045,https://maps.google.com/?cid=0x0:0x97b8c3a6f0f6e48d,
perumahan,perumahan,Semry Peul,"XQVJ+RXH, Oeteta, Kec. Sulamu, Kabupaten Kupang, Nusa Tenggara Tim.","Kabupaten Kupang, Nusa Tenggara Tim.",NUSA TENGGARA TIMUR,,Indonesia,81338870816.0,,,-10.0049011,123.7820564,https://maps.google.com/?cid=0x0:0x72fe41033f20bbcc,
perumahan,Komplek perumahan,Rumah Irsan dan Yoan lopung,"XPRM+55F, Pariti, Kec. Sulamu, Kabupaten Kupang, Nusa Tenggara Tim.","Kabupaten Kupang, Nusa Tenggara Tim.",NUSA TENGGARA TIMUR,,Indonesia,,,,-10.0095706,123.7329372,https://maps.google.com/?cid=0x0:0xd73ca13dfc68360e,
perumahan,Komplek perumahan,Irgi Boraa,"XQP4+976, Oeteta, Kec. Sulamu, Kabupaten Kupang, Nusa Tenggara Tim.","Kabupaten Kupang, Nusa Tenggara Tim.",NUSA TENGGARA TIMUR,,Indonesia,,,,-10.0140945,123.7556533,https://maps.google.com/?cid=0x0:0x6aeee60624cf7f49,
perumahan,Komplek perumahan,Arykelin,"2QF7+M58, Oeteta, Kec. Sulamu, Kabupaten Kupang, Nusa Tenggara Tim.","Kabupaten Kupang, Nusa Tenggara Tim.",NUSA TENGGARA TIMUR,,Indonesia,,,,-9.9758377,123.7629465,https://maps.google.com/?cid=0x0:0x457563c4ee418886,
perumahan,Pembangunan Perumahan,Magel Taebenu,"XQX4+376, Oeteta, Kec. Sulamu, Kabupaten Kupang, Nusa Tenggara Tim.","Kabupaten Kupang, Nusa Tenggara Tim.",NUSA TENGGARA TIMUR,,Indonesia,,,,-10.0024693,123.755752,https://maps.google.com/?cid=0x0:0x35a6e8579d0e2125,
perumahan,Pembangunan Perumahan,Sualmu,"XPRM+55F, Pariti, Kec. Sulamu, Kabupaten Kupang, Nusa Tenggara Tim.","Kabupaten Kupang, Nusa Tenggara Tim.",NUSA TENGGARA TIMUR,,Indonesia,,,,-10.0095706,123.7329372,https://maps.google.com/?cid=0x0:0x48ef2a436eb4b87e,
perumahan,Komplek perumahan,Rumah AyuLauRL,"XQM5+Q6J, Oeteta, Kec. Sulamu, Kabupaten Kupang, Nusa Tenggara Tim.","Kabupaten Kupang, Nusa Tenggara Tim.",NUSA TENGGARA TIMUR,,Indonesia,,,,-10.0155293,123.7580134,https://maps.google.com/?cid=0x0:0x5a0004a82ed33b34,
perumahan,perumahan,Karel Mangngi,"XPMR+C9, Pariti, Kec. Sulamu, Kabupaten Kupang, Nusa Tenggara Tim.","Kabupaten Kupang, Nusa Tenggara Tim.",NUSA TENGGARA TIMUR,,Indonesia,,,,-10.0163953,123.7409241,https://maps.google.com/?cid=0x0:0x4f56deb702baf309,
perumahan,perumahan,Rumah Nikson Lean,"XPRC+Q75, Pariti, Kec. Sulamu, Kabupaten Kupang, Nusa Tenggara Tim.","Kabupaten Kupang, Nusa Tenggara Tim.",NUSA TENGGARA TIMUR,,Indonesia,,,,-10.0076144,123.7203502,https://maps.google.com/?cid=0x0:0x79f5ffde0b70cef9,
perumahan,Perhimpunan Pengembang Perumahan,Rumah yubal therik,"XJ54+JQ5, Sulamu, Kec. Sulamu, Kabupaten Kupang, Nusa Tenggara Tim.","Kabupaten Kupang, Nusa Tenggara Tim.",NUSA TENGGARA TIMUR,,Indonesia,,,,-10.0401456,123.6072314,https://maps.google.com/?cid=0x0:0x1c108d9fc10062e4,
perumahan,Komplek perumahan,Rumah Elvis Lopung,"XJ54+3C, Sulamu, Kec. Sulamu, Kabupaten Kupang, Nusa Tenggara Tim.","Kabupaten Kupang, Nusa Tenggara Tim.",NUSA TENGGARA TIMUR,,Indonesia,85210414905.0,,,-10.0423573,123.6060858,https://maps.google.com/?cid=0x0:0x99f39f88291cd8bb,
perumahan,Komplek perumahan,MBessie,"XQR6+CF, Oeteta, Kec. Sulamu, Kabupaten Kupang, Nusa Tenggara Tim.","Kabupaten Kupang, Nusa Tenggara Tim.",NUSA TENGGARA TIMUR,,Indonesia,,,,-10.0089411,123.7611326,https://maps.google.com/?cid=0x0:0x515ab10de1ebfa9e,
perumahan,perumahan,Kec. Kupang Tengah,"Kabupaten Kupang, Nusa Tenggara Tim.","Kabupaten Kupang, Nusa Tenggara Tim.",NUSA TENGGARA TIMUR,,Indonesia,,,,-10.1301438,123.7049668,https://maps.google.com/?cid=0x0:0x8849ad74ae79c951,
perumahan,Komplek perumahan,Perumahan,"VP84+4X9, Noelbaki, Kec. Kupang Tengah, Kabupaten Kupang, Nusa Tenggara Tim.","Kabupaten Kupang, Nusa Tenggara Tim.",NUSA TENGGARA TIMUR,,Indonesia,,,,-10.1347125,123.7074844,https://maps.google.com/?cid=0x0:0x458c41f36dae92ce,
perumahan,Komplek perumahan,Perumahan Puri Rahayu Asri,"Unnamed Road, Noelbaki, Kec. Kupang Tengah, Kabupaten Kupang, Nusa Tenggara Tim.","Kabupaten Kupang, Nusa Tenggara Tim.",NUSA TENGGARA TIMUR,,Indonesia,81337198777.0,,,-10.1148036,123.7090337,https://maps.google.com/?cid=0x0:0xd0bc66aec64e3f9f,
perumahan,Perumahan,"Rumah Nensi,Matani Rt 018 RW 006, kec. Kupang Tengah","RMVH+WPR, Jl. Claret Jl. Matani Raya, Penfui Tim., Kec. Kupang Tengah, Kabupaten Kupang, Nusa Tenggara Tim. 85361","Jl. Claret Jl. Matani Raya, Penfui Tim., Kec. Kupang Tengah, Kabupaten Kupang",NUSA TENGGARA TIMUR,85361.0,Indonesia,82145157593.0,,,-10.1551276,123.6792618,https://maps.google.com/?cid=0x0:0x5c29c9389a2c3cb,
perumahan,Pembangunan Perumahan,Rumah vicky,"Jl. Terusan Timor Raya, Noelbaki, Kec. Kupang Tengah, Kabupaten Kupang, Nusa Tenggara Tim.","Kabupaten Kupang, Nusa Tenggara Tim.",NUSA TENGGARA TIMUR,,Indonesia,,,,-10.1326321,123.6970671,https://maps.google.com/?cid=0x0:0x4d5ec4af0dde9faf,
perumahan,Komplek perumahan,Rumah Gea,"VPF6+HFJ, Noelbaki, Kec. Kupang Tengah, Kabupaten Kupang, Nusa Tenggara Tim.","Kabupaten Kupang, Nusa Tenggara Tim.",NUSA TENGGARA TIMUR,,Indonesia,,,,-10.1260354,123.7111391,https://maps.google.com/?cid=0x0:0xf74729150d4bb497,
perumahan,Perumahan,Bolu Kotten,"VP93+M6Q, Jl. Terusan Timor Raya, Noelbaki, Kec. Kupang Tengah, Kabupaten Kupang, Nusa Tenggara Tim.","Kabupaten Kupang, Nusa Tenggara Tim.",NUSA TENGGARA TIMUR,,Indonesia,,,,-10.1307794,123.703096,https://maps.google.com/?cid=0x0:0xc44701c471ebc59b,
perumahan,Komplek perumahan,AgusRain,"VP93+6X7, Noelbaki, Kec. Kupang Tengah, Kabupaten Kupang, Nusa Tenggara Tim.","Kabupaten Kupang, Nusa Tenggara Tim.",NUSA TENGGARA TIMUR,,Indonesia,81999231867.0,,,-10.1319548,123.7049064,https://maps.google.com/?cid=0x0:0x7e376b4eff223c43,
perumahan,Perhimpunan Pengembang Perumahan,Rumah Jayvier Elgil Lami,"VM5W+W8M, Mata Air, Kec. Kupang Tengah, Kabupaten Kupang, Nusa Tenggara Tim.","Kabupaten Kupang, Nusa Tenggara Tim.",NUSA TENGGARA TIMUR,,Indonesia,,,,-10.1401551,123.6958113,https://maps.google.com/?cid=0x0:0x515c43974df8cc15,
perumahan,Komplek perumahan,Home Sweet Home,"VPC5+JVV, Noelbaki, Kec. Kupang Tengah, Kabupaten Kupang, Nusa Tenggara Tim.","Kabupaten Kupang, Nusa Tenggara Tim.",NUSA TENGGARA TIMUR,,Indonesia,,,,-10.1283051,123.7084677,https://maps.google.com/?cid=0x0:0xc22614c7a0c0fcb9,
perumahan,Komplek perumahan,Rumah,"VM6X+G6W, Mata Air, Kec. Kupang Tengah, Kabupaten Kupang, Nusa Tenggara Tim.","Kabupaten Kupang, Nusa Tenggara Tim.",NUSA TENGGARA TIMUR,,Indonesia,,,,-10.138605,123.698105,https://maps.google.com/?cid=0x0:0xce55b465dc6f010f,
perumahan,Komplek perumahan,Perumahan Taman Bougenville,"VPMH+F2G, Tanah Merah, Kec. Kupang Tengah, Kabupaten Kupang, Nusa Tenggara Tim.","Kabupaten Kupang, Nusa Tenggara Tim.",NUSA TENGGARA TIMUR,,Indonesia,,,,-10.1163153,123.727586,https://maps.google.com/?cid=0x0:0xa63e747dabd7a214,
perumahan,Pembangunan Perumahan,Perumahan Osiloa D 20,"VM2M+WQ9, Tarus, Kec. Kupang Tengah, Kabupaten Kupang, Nusa Tenggara Tim.","Kabupaten Kupang, Nusa Tenggara Tim.",NUSA TENGGARA TIMUR,,Indonesia,,,,-10.1477096,123.6844904,https://maps.google.com/?cid=0x0:0x2134dcbc7c2b8df0,
perumahan,Komplek perumahan,Perumahan Puri Rahayu Noelbaki Blok F1,"VP97+M36, Noelbaki, Kec. Kupang Tengah, Kabupaten Kupang, Nusa Tenggara Tim.","Kabupaten Kupang, Nusa Tenggara Tim.",NUSA TENGGARA TIMUR,,Indonesia,,,,-10.1308343,123.7126518,https://maps.google.com/?cid=0x0:0xe5b9eec8cd73bc01,
perumahan,Komplek perumahan,Rumah Pembibitan Paskalis Pase,"VP97+M36, Noelbaki, Kec. Kupang Tengah, Kabupaten Kupang, Nusa Tenggara Tim.","Kabupaten Kupang, Nusa Tenggara Tim.",NUSA TENGGARA TIMUR,,Indonesia,,,,-10.1308343,123.7126518,https://maps.google.com/?cid=0x0:0x35b27ac8b51ffc56,
perumahan,Komplek perumahan,Rumah binar,"VP7C+583, Noelbaki, Kec. Kupang Tengah, Kabupaten Kupang, Nusa Tenggara Tim.","Kabupaten Kupang, Nusa Tenggara Tim.",NUSA TENGGARA TIMUR,,Indonesia,,,,-10.1366494,123.72031,https://maps.google.com/?cid=0x0:0xe524fd3b7be6af89,
perumahan,perumahan,Keti solukh,"VP97+M36, Noelbaki, Kec. Kupang Tengah, Kabupaten Kupang, Nusa Tenggara Tim.","Kabupaten Kupang, Nusa Tenggara Tim.",NUSA TENGGARA TIMUR,,Indonesia,,,,-10.1308343,123.7126518,https://maps.google.com/?cid=0x0:0x884973b80bb2f600,
perumahan,Pembangunan Perumahan,Perumahan USILOA D 14,"Tarus, Kec. Kupang Tengah, Kabupaten Kupang, Nusa Tenggara Tim. 85361","Kec. Kupang Tengah, Kabupaten Kupang",NUSA TENGGARA TIMUR,85361.0,Indonesia,,,,-10.1476903,123.6842829,https://maps.google.com/?cid=0x0:0x27921e41f6461ae3,
perumahan,Komplek perumahan,Perumahan Bougenville Mandiri,"VPJH+528, Tanah Merah, Kec. Kupang Tengah, Kabupaten Kupang, Nusa Tenggara Tim.","Kabupaten Kupang, Nusa Tenggara Tim.",NUSA TENGGARA TIMUR,,Indonesia,,,,-10.1195861,123.7275897,https://maps.google.com/?cid=0x0:0x8067b1ce29a5a165,
perumahan,perumahan,Bpk Nitanel Seko,"VP97+M36, Noelbaki, Kec. Kupang Tengah, Kabupaten Kupang, Nusa Tenggara Tim.","Kabupaten Kupang, Nusa Tenggara Tim.",NUSA TENGGARA TIMUR,,Indonesia,,,,-10.1308343,123.7126518,https://maps.google.com/?cid=0x0:0x9c6ceeafa0b41a5b,
perumahan,Pembangunan Perumahan,Perumahan Pondok Indah Matani,"Penfui Tim, Kec. Kupang Tengah, Kabupaten Kupang, Nusa Tenggara Tim. 85000","Kec. Kupang Tengah, Kabupaten Kupang",NUSA TENGGARA TIMUR,85000.0,Indonesia,82145034333.0,,,-10.1591497,123.6881077,https://maps.google.com/?cid=0x0:0xb9cedc3f8f7c758d,
perumahan,perumahan,Rumah Aldo Nenotek,"VP76+8HH, Noelbaki, Kec. Kupang Tengah, Kabupaten Kupang, Nusa Tenggara Tim.","Kabupaten Kupang, Nusa Tenggara Tim.",NUSA TENGGARA TIMUR,,Indonesia,,,,-10.1365847,123.7114151,https://maps.google.com/?cid=0x0:0x2e20ee444eda6ed0,
perumahan,Komplek perumahan,Rumah Angell L.,"VM4X+Q29, Tarus, Kec. Kupang Tengah, Kabupaten Kupang, Nusa Tenggara Tim.","Kabupaten Kupang, Nusa Tenggara Tim.",NUSA TENGGARA TIMUR,,Indonesia,,,,-10.1428353,123.6977556,https://maps.google.com/?cid=0x0:0x6bf1ec7612703a30,
perumahan,Komplek perumahan,Rumah Tara imut,"VP65+36G, Noelbaki, Kec. Kupang Tengah, Kabupaten Kupang, Nusa Tenggara Tim.","Kabupaten Kupang, Nusa Tenggara Tim.",NUSA TENGGARA TIMUR,,Indonesia,,,,-10.1398247,123.7080811,https://maps.google.com/?cid=0x0:0xe57bd60073711374,
perumahan,Pondok pedesaan,Marsalina Kotten,"VP93+M6Q, Jl. Terusan Timor Raya, Noelbaki, Kec. Kupang Tengah, Kabupaten Kupang, Nusa Tenggara Tim.","Kabupaten Kupang, Nusa Tenggara Tim.",NUSA TENGGARA TIMUR,,Indonesia,,,,-10.130703,123.7024981,https://maps.google.com/?cid=0x0:0x7e499402d01b448c,
perumahan,Komplek perumahan,Lobar,"VPH5+8V5, Lokasi Baru, Belakang Terminal Noelbaki, Noelbaki, Kec. Kupang Tengah, Kabupaten Kupang, Nusa Tenggara Tim.","Kabupaten Kupang, Nusa Tenggara Tim.",NUSA TENGGARA TIMUR,,Indonesia,,,,-10.12174,123.7097276,https://maps.google.com/?cid=0x0:0x165baa308e7b0152,
perumahan,perumahan,Kec. Amarasi,"Kabupaten Kupang, Nusa Tenggara Tim.","Kabupaten Kupang, Nusa Tenggara Tim.",NUSA TENGGARA TIMUR,,Indonesia,,,,-10.2130166,123.8270237,https://maps.google.com/?cid=0x0:0xe316b771a9988447,
perumahan,Komplek perumahan,Beatrix Bijae,"QVMM+GPV, Tesbatan, Kec. Amarasi, Kabupaten Kupang, Nusa Tenggara Tim.","Kabupaten Kupang, Nusa Tenggara Tim.",NUSA TENGGARA TIMUR,,Indonesia,81239523785.0,,,-10.2161402,123.8842885,https://maps.google.com/?cid=0x0:0xd1e96a2b0d2f72c9,
perumahan,Komplek perumahan,mere,"Tunbaun, Kec. Amarasi Bar., Kabupaten Kupang, Nusa Tenggara Tim.","Kabupaten Kupang, Nusa Tenggara Tim.",NUSA TENGGARA TIMUR,,Indonesia,,,,-10.2364134,123.7838773,https://maps.google.com/?cid=0x0:0xfa7f3dc696d80709,
perumahan,Komplek perumahan,Rumah Alm. Melkias Ora,"QV3F+RJ9, Nekmese, Kec. Amarasi Sel., Kabupaten Kupang, Nusa Tenggara Tim.","Kabupaten Kupang, Nusa Tenggara Tim.",NUSA TENGGARA TIMUR,,Indonesia,,,,-10.2454691,123.8740991,https://maps.google.com/?cid=0x0:0x578249cb72dbd77e,
perumahan,Perhimpunan Pengembang Perumahan,Oematan,"QRRH+774, Oekabiti, Kec. Amarasi, Kabupaten Kupang, Nusa Tenggara Tim.","Kabupaten Kupang, Nusa Tenggara Tim.",NUSA TENGGARA TIMUR,,Indonesia,,,,-10.209352,123.8282042,https://maps.google.com/?cid=0x0:0x3faacabd0729e427,
perumahan,Komplek perumahan,Rumah Ama Dany,"QR3G+GQ7, Kotabes, Kec. Amarasi, Kabupaten Kupang, Nusa Tenggara Tim.","Kabupaten Kupang, Nusa Tenggara Tim.",NUSA TENGGARA TIMUR,,Indonesia,,,,-10.2462123,123.8269281,https://maps.google.com/?cid=0x0:0xb1d0466638371235,
perumahan,Perhimpunan Pengembang Perumahan,BESHA DULLAH,"QVVM+7FJ, Tesbatan, Kec. Amarasi, Kabupaten Kupang, Nusa Tenggara Tim.","Kabupaten Kupang, Nusa Tenggara Tim.",NUSA TENGGARA TIMUR,,Indonesia,,,,-10.2067783,123.8836328,https://maps.google.com/?cid=0x0:0x2688cd4d757e874c,
perumahan,Komplek perumahan,Perumahan Sdk oekabiti,"RR2H+8XW, Nonbes, Kec. Amarasi, Kabupaten Kupang, Nusa Tenggara Tim.","Kabupaten Kupang, Nusa Tenggara Tim.",NUSA TENGGARA TIMUR,,Indonesia,,,,-10.199137,123.8299639,https://maps.google.com/?cid=0x0:0x674e5e7778dd3c8c,
perumahan,Pembangunan Perumahan,Haubesi,"QVVH+7G9, Tesbatan, Kec. Amarasi, Kabupaten Kupang, Nusa Tenggara Tim.","Kabupaten Kupang, Nusa Tenggara Tim.",NUSA TENGGARA TIMUR,,Indonesia,,,,-10.2074835,123.8782932,https://maps.google.com/?cid=0x0:0x66f0baa0db868a1a,
perumahan,Komplek perumahan,Rumah Hanna Dillak,"QR2J+74C, Ekam, Kotabes, Kec. Amarasi, Kabupaten Kupang","Kabupaten Kupang, Nusa Tenggara Tim.",NUSA TENGGARA TIMUR,,Indonesia,,,,-10.2493055,123.8302766,https://maps.google.com/?cid=0x0:0xdb4a37ec39176888,
perumahan,Komplek perumahan,Rumah keluarga huan,"QR9F+VV6, Kotabes, Kec. Amarasi, Kabupaten Kupang, Nusa Tenggara Tim.","Kabupaten Kupang, Nusa Tenggara Tim.",NUSA TENGGARA TIMUR,,Indonesia,,,,-10.2328087,123.8236444,https://maps.google.com/?cid=0x0:0x6ca275105e465f2c,
perumahan,Komplek perumahan,Magdalena Ton,"QRRH+68G, Nonbes, Kec. Amarasi, Kabupaten Kupang, Nusa Tenggara Tim.","Kabupaten Kupang, Nusa Tenggara Tim.",NUSA TENGGARA TIMUR,,Indonesia,,,,-10.2094446,123.8283272,https://maps.google.com/?cid=0x0:0x24af7d86075c5ea7,
perumahan,Komplek perumahan,Darling House,"QVV8+MFM, Ponain, Kec. Amarasi, Kabupaten Kupang, Nusa Tenggara Tim.","Kabupaten Kupang, Nusa Tenggara Tim.",NUSA TENGGARA TIMUR,,Indonesia,,,,-10.2059288,123.8669215,https://maps.google.com/?cid=0x0:0x9ce625a84ff3ae7e,
perumahan,Komplek perumahan,Rumah Kimon Takain,"QVRG+VGX, Tesbatan, Kec. Amarasi, Kabupaten Kupang, Nusa Tenggara Tim.","Kabupaten Kupang, Nusa Tenggara Tim.",NUSA TENGGARA TIMUR,,Indonesia,,,,-10.2074479,123.8751415,https://maps.google.com/?cid=0x0:0x29679c80c081f751,
perumahan,Pembangunan Perumahan,Aranci Tneh,"QRPJ+XX5, Nonbes, Kec. Amarasi, Kabupaten Kupang, Nusa Tenggara Tim.","Kabupaten Kupang, Nusa Tenggara Tim.",NUSA TENGGARA TIMUR,,Indonesia,,,,-10.2130689,123.8329453,https://maps.google.com/?cid=0x0:0x8df0c883ba575dc1,
perumahan,Komplek perumahan,Nonbes,"RR2H+8XW, Nonbes, Kec. Amarasi, Kabupaten Kupang, Nusa Tenggara Tim.","Kabupaten Kupang, Nusa Tenggara Tim.",NUSA TENGGARA TIMUR,,Indonesia,,,,-10.199137,123.8299639,https://maps.google.com/?cid=0x0:0xf87eb3d6fb153ad4,
perumahan,Pembangunan Perumahan,Jemy Ataupah,"QRPM+MH5, Nonbes, Kec. Amarasi, Kabupaten Kupang, Nusa Tenggara Tim.","Kabupaten Kupang, Nusa Tenggara Tim.",NUSA TENGGARA TIMUR,,Indonesia,,,,-10.2133979,123.8344604,https://maps.google.com/?cid=0x0:0x4d42a14584c5e4f8,
perumahan,Pembangunan Perumahan,Yahya A.E.Tofas,"QRC6+G7, Oesena, Kec. Amarasi, Kabupaten Kupang, Nusa Tenggara Tim.","Kabupaten Kupang, Nusa Tenggara Tim.",NUSA TENGGARA TIMUR,,Indonesia,85924950639.0,,,-10.2286824,123.8107175,https://maps.google.com/?cid=0x0:0x47cb12f05b693c82,
perumahan,Komplek perumahan,Rumah Oekabiti,"QRMG+9XQ, Nonbes, Kec. Amarasi, Kabupaten Kupang, Nusa Tenggara Tim.","Kabupaten Kupang, Nusa Tenggara Tim.",NUSA TENGGARA TIMUR,,Indonesia,,,,-10.2165245,123.8274114,https://maps.google.com/?cid=0x0:0x1975993a2baa17,
perumahan,Komplek perumahan,Rican Bani,"QV4C+R25, Nekmese, Kec. Amarasi Sel., Kabupaten Kupang, Nusa Tenggara Tim.","Kabupaten Kupang, Nusa Tenggara Tim.",NUSA TENGGARA TIMUR,,Indonesia,,,,-10.2437003,123.8700758,https://maps.google.com/?cid=0x0:0x840bf641a99c712a,
perumahan,Komplek perumahan,Kepala Dusun III,"QVVP+H9, Tesbatan, Kec. Amarasi, Kabupaten Kupang, Nusa Tenggara Tim.","Kabupaten Kupang, Nusa Tenggara Tim.",NUSA TENGGARA TIMUR,,Indonesia,,,,-10.207052,123.8848108,https://maps.google.com/?cid=0x0:0x673c31011cb1ad3e,
perumahan,Pembangunan Perumahan,Ayub Ataupah,"QVPP+GJW, Tesbatan, Kec. Amarasi, Kabupaten Kupang, Nusa Tenggara Tim.","Kabupaten Kupang, Nusa Tenggara Tim.",NUSA TENGGARA TIMUR,,Indonesia,81243524687.0,,,-10.2136331,123.8865773,https://maps.google.com/?cid=0x0:0x3253936398d4827c,
perumahan,Perhimpunan Pengembang Perumahan,Keluarga baok,"Keluarga baok, Nekmese, Kec. Amarasi Sel., Kabupaten Kupang, Nusa Tenggara Tim.","Kabupaten Kupang, Nusa Tenggara Tim.",NUSA TENGGARA TIMUR,,Indonesia,,,,-10.2425907,123.8809055,https://maps.google.com/?cid=0x0:0x1cd1a9c5ecbbc56,
perumahan,Titik Pemandangan,Desa nekmese,"QV4J+RM7, Nekmese, Kec. Amarasi Sel., Kabupaten Kupang, Nusa Tenggara Tim.","Kabupaten Kupang, Nusa Tenggara Tim.",NUSA TENGGARA TIMUR,,Indonesia,,,,-10.2429576,123.8816814,https://maps.google.com/?cid=0x0:0x32dc629deca4266c,
perumahan,Komplek perumahan,Nanda afi,"QVRQ+GRP, Unnamed Road, Tesbatan, Kec. Amarasi, Kabupaten Kupang, Nusa Tenggara Tim.","Kabupaten Kupang, Nusa Tenggara Tim.",NUSA TENGGARA TIMUR,,Indonesia,,,,-10.20865,123.8895875,https://maps.google.com/?cid=0x0:0xac9943bfebc952e0,
perumahan,Komplek perumahan,Rumah MR,"RVF6+WG2, Kuanheum, Kec. Amabi Oefeto, Kabupaten Kupang, Nusa Tenggara Tim.","Kabupaten Kupang, Nusa Tenggara Tim.",NUSA TENGGARA TIMUR,,Indonesia,,,,-10.1752406,123.861251,https://maps.google.com/?cid=0x0:0x43687d45767b4b23,
perumahan,Komplek perumahan,Oktovianus Bani,"QV3G+X44, Nekmese, Kec. Amarasi Sel., Kabupaten Kupang, Nusa Tenggara Tim.","Kabupaten Kupang, Nusa Tenggara Tim.",NUSA TENGGARA TIMUR,,Indonesia,,,,-10.245492,123.875313,https://maps.google.com/?cid=0x0:0x5ea00ef9c8530b41,
perumahan,perumahan,Kec. Fatuleu,"Kabupaten Kupang, Nusa Tenggara Tim.","Kabupaten Kupang, Nusa Tenggara Tim.",NUSA TENGGARA TIMUR,,Indonesia,,,,-10.042412,123.9233971,https://maps.google.com/?cid=0x0:0x75aafd859cde3cf5,
perumahan,perumahan,Dion family,"WV8F+8CW, Naibonat, Kec. Kupang Tim., Kabupaten Kupang, Nusa Tenggara Tim.","Kabupaten Kupang, Nusa Tenggara Tim.",NUSA TENGGARA TIMUR,,Indonesia,,,,-10.0841327,123.8735811,https://maps.google.com/?cid=0x0:0xc7f0055edad58a50,
perumahan,Pembangunan Perumahan,JK,"XWCW+28, Camplong II, Kec. Fatuleu, Kabupaten Kupang, Nusa Tenggara Tim.","Kabupaten Kupang, Nusa Tenggara Tim.",NUSA TENGGARA TIMUR,,Indonesia,,,,-10.0299535,123.9456606,https://maps.google.com/?cid=0x0:0xa18d5e9ae80dffc3,
perumahan,Komplek perumahan,Kuimasi,"WVMM+R5P, Kuimasi, Kec. Fatuleu, Kabupaten Kupang, Nusa Tenggara Tim.","Kabupaten Kupang, Nusa Tenggara Tim.",NUSA TENGGARA TIMUR,,Indonesia,,,,-10.0654219,123.882946,https://maps.google.com/?cid=0x0:0xa234d16e100be402,
perumahan,perumahan,NOMENSEN BENGKIUK,"XW3J+JP9, Oebola Dalam, Kec. Fatuleu, Kabupaten Kupang, Nusa Tenggara Tim.","Kabupaten Kupang, Nusa Tenggara Tim.",NUSA TENGGARA TIMUR,,Indonesia,,,,-10.045844,123.931295,https://maps.google.com/?cid=0x0:0x6aca0700f8a8fe33,
perumahan,Perumahan,Oelkuku,"XV3J+VG8, Kuimasi, Kec. Fatuleu, Kabupaten Kupang, Nusa Tenggara Tim.","Kabupaten Kupang, Nusa Tenggara Tim.",NUSA TENGGARA TIMUR,,Indonesia,,,,-10.0453489,123.8813367,https://maps.google.com/?cid=0x0:0xd9caa657e140ddfd,
perumahan,Pembangunan Perumahan,Elsa Abanat,"XW6M+6QC, Oebola Dalam, Kec. Fatuleu, Kabupaten Kupang, Nusa Tenggara Tim.","Kabupaten Kupang, Nusa Tenggara Tim.",NUSA TENGGARA TIMUR,,Indonesia,,,,-10.0394279,123.9343908,https://maps.google.com/?cid=0x0:0xae108d48db417856,
perumahan,Perhimpunan Pengembang Perumahan,Rumah Bp Mikael Mau,"XW22+G3X, Camplong I, Kec. Fatuleu, Kabupaten Kupang, Nusa Tenggara Tim.","Kabupaten Kupang, Nusa Tenggara Tim.",NUSA TENGGARA TIMUR,,Indonesia,82145887708.0,,,-10.0487985,123.899909,https://maps.google.com/?cid=0x0:0xa949fb5e7d33c046,
perumahan,Perhimpunan Pengembang Perumahan,Perumahan MBR,"XVFX+J8F, Camplong II, Kec. Fatuleu, Kabupaten Kupang, Nusa Tenggara Tim.","Kabupaten Kupang, Nusa Tenggara Tim.",NUSA TENGGARA TIMUR,,Indonesia,81353487297.0,,,-10.0259308,123.8983095,https://maps.google.com/?cid=0x0:0xd68bfe1c36498eb6,
perumahan,Komplek perumahan,Rumah Martha Adu Rohi,"Camplong I, Kec. Fatuleu, Kabupaten Kupang, Nusa Tenggara Tim.","Kabupaten Kupang, Nusa Tenggara Tim.",NUSA TENGGARA TIMUR,,Indonesia,,,,-10.0436434,123.9238068,https://maps.google.com/?cid=0x0:0x469723053ce3d940,
perumahan,Perumahan,Perumahan Oelmasi ( Belakang),"WVJP+JJC, Kuimasi, Kec. Fatuleu, Kabupaten Kupang, Nusa Tenggara Tim.","Kabupaten Kupang, Nusa Tenggara Tim.",NUSA TENGGARA TIMUR,,Indonesia,82280845964.0,,,-10.0684491,123.8865003,https://maps.google.com/?cid=0x0:0xc12fd9349e374b23,
perumahan,Komplek perumahan,Pertigaan SAM,"WVMM+686, Kuimasi, Kec. Fatuleu, Kabupaten Kupang, Nusa Tenggara Tim.","Kabupaten Kupang, Nusa Tenggara Tim.",NUSA TENGGARA TIMUR,,Indonesia,,,,-10.0669649,123.8832562,https://maps.google.com/?cid=0x0:0xe989901cbedae568,
perumahan,perumahan,Rumah Bp Yefri dan Ibu Ormi Bani,"2V6H+8VQ, Jl. Poros Tengah, Tolnaku, Kec. Fatuleu, Kabupaten Kupang, Nusa Tenggara Tim.","Kabupaten Kupang, Nusa Tenggara Tim.",NUSA TENGGARA TIMUR,,Indonesia,,,,-9.9891532,123.8797462,https://maps.google.com/?cid=0x0:0x9441bb2bcff4c1d8,
perumahan,Komplek perumahan,Rumah gopal lenggu,"XV3J+VG8, Kuimasi, Kec. Fatuleu, Kabupaten Kupang, Nusa Tenggara Tim.","Kabupaten Kupang, Nusa Tenggara Tim.",NUSA TENGGARA TIMUR,,Indonesia,,,,-10.0453489,123.8813367,https://maps.google.com/?cid=0x0:0x662647662435665f,
perumahan,Komplek perumahan,Rumah Ricat Teflopo,"WVVF+MM, Kuimasi, Kec. Fatuleu, Kabupaten Kupang, Nusa Tenggara Tim.","Kabupaten Kupang, Nusa Tenggara Tim.",NUSA TENGGARA TIMUR,,Indonesia,,,,-10.0558299,123.8742238,https://maps.google.com/?cid=0x0:0x57681d18b6779d2c,
perumahan,Komplek perumahan,Rumah Jeje,"XV4M+V9, Kuimasi, Kec. Fatuleu, Kabupaten Kupang, Nusa Tenggara Tim.","Kabupaten Kupang, Nusa Tenggara Tim.",NUSA TENGGARA TIMUR,,Indonesia,82145711249.0,,,-10.042841,123.8833678,https://maps.google.com/?cid=0x0:0xff32b5ea964dcf49,
perumahan,perumahan,Adam manoh,"WVVH+MQ5, Kuimasi, Kec. Fatuleu, Kabupaten Kupang, Nusa Tenggara Tim.","Kabupaten Kupang, Nusa Tenggara Tim.",NUSA TENGGARA TIMUR,,Indonesia,,,,-10.0558633,123.8794893,https://maps.google.com/?cid=0x0:0x87c07023e75bde06,
perumahan,Perumahan,Rumah andri tulle,"XW49+QRR, Camplong I, Kec. Fatuleu, Kabupaten Kupang, Nusa Tenggara Tim.","Kabupaten Kupang, Nusa Tenggara Tim.",NUSA TENGGARA TIMUR,,Indonesia,,,,-10.043054,123.918824,https://maps.google.com/?cid=0x0:0x26bb6bd68ef46e0a,
perumahan,Perumahan,Proyek UPT (OELMASI),"WVMM+GF6, Kuimasi, Kec. Fatuleu, Kabupaten Kupang, Nusa Tenggara Tim.","Kabupaten Kupang, Nusa Tenggara Tim.",NUSA TENGGARA TIMUR,,Indonesia,,,,-10.0662139,123.8836468,https://maps.google.com/?cid=0x0:0xd55d10cac6a21dbb,
perumahan,Pembangunan Perumahan,Rumah tasuab,"XV2J+7V, Kuimasi, Kec. Fatuleu, Kabupaten Kupang, Nusa Tenggara Tim.","Kabupaten Kupang, Nusa Tenggara Tim.",NUSA TENGGARA TIMUR,,Indonesia,,,,-10.0492371,123.8821497,https://maps.google.com/?cid=0x0:0xeb19d679b950b4d6,
perumahan,Komplek perumahan,Oelmasi,"WVRF+98F, Kuimasi, Kec. Fatuleu, Kabupaten Kupang, Nusa Tenggara Tim.","Kabupaten Kupang, Nusa Tenggara Tim.",NUSA TENGGARA TIMUR,,Indonesia,,,,-10.0590625,123.8732969,https://maps.google.com/?cid=0x0:0xaec426f224ce69ca,
perumahan,Komplek perumahan,Samuel Gellu Tana,"2V5P+Q8P, Tolnaku, Kec. Fatuleu, Kabupaten Kupang, Nusa Tenggara Tim. 85361","Tolnaku, Kec. Fatuleu, Kabupaten Kupang",NUSA TENGGARA TIMUR,85361.0,Indonesia,,,,-9.9905486,123.8858274,https://maps.google.com/?cid=0x0:0x98b66b82cd029f6f,
perumahan,Komplek perumahan,Rumah cici,"2V5J+7F, Tolnaku, Kec. Fatuleu, Kabupaten Kupang, Nusa Tenggara Tim.","Kabupaten Kupang, Nusa Tenggara Tim.",NUSA TENGGARA TIMUR,,Indonesia,,,,-9.9918502,123.8811697,https://maps.google.com/?cid=0x0:0x169bbc26733643ad,
perumahan,Kompleks Kondominium,Naunu,"WW75+M34, Naunu, Kec. Fatuleu, Kabupaten Kupang, Nusa Tenggara Tim.","Kabupaten Kupang, Nusa Tenggara Tim.",NUSA TENGGARA TIMUR,,Indonesia,,,,-10.086098,123.9067796,https://maps.google.com/?cid=0x0:0xa4fa00750dad1e12,
perumahan,Perumahan rakyat,R.mateos banafanu,"2WFM+RH, Ekateta, Kec. Fatuleu, Kabupaten Kupang, Nusa Tenggara Tim.","Kabupaten Kupang, Nusa Tenggara Tim.",NUSA TENGGARA TIMUR,,Indonesia,,,,-9.9754036,123.9338929,https://maps.google.com/?cid=0x0:0xfc917fffe5f21522,
perumahan,Komplek perumahan,NIMROD SELAN,"XXJH+XR, Camplong II, Kec. Fatuleu, Kabupaten Kupang, Nusa Tenggara Tim.","Kabupaten Kupang, Nusa Tenggara Tim.",NUSA TENGGARA TIMUR,,Indonesia,,,,-10.0175945,123.979529,https://maps.google.com/?cid=0x0:0x3c5e9786f8027d0d,
perumahan,Komplek perumahan,Kompleks Mess Guru SMPS dan SMA PAHLAWAN BINTANG TIMUR,"XW78+6J, Camplong I, Kec. Fatuleu, Kabupaten Kupang, Nusa Tenggara Tim.","Kabupaten Kupang, Nusa Tenggara Tim.",NUSA TENGGARA TIMUR,,Indonesia,,,,-10.0369663,123.9165685,https://maps.google.com/?cid=0x0:0x96819072e836ead4,
perumahan,Pembangunan Perumahan,Yan Bana,"XVCR+72, Camplong II, Kec. Fatuleu, Kabupaten Kupang, Nusa Tenggara Tim.","Kabupaten Kupang, Nusa Tenggara Tim.",NUSA TENGGARA TIMUR,,Indonesia,,,,-10.0299167,123.8902567,https://maps.google.com/?cid=0x0:0x55b69e2b3f979445,
perumahan,Klub Olahraga,Lapangan gelora bung nina,"XW48+JX6, Camplong I, Kec. Fatuleu, Kabupaten Kupang, Nusa Tenggara Tim.","Kabupaten Kupang, Nusa Tenggara Tim.",NUSA TENGGARA TIMUR,,Indonesia,,,,-10.0434559,123.9174007,https://maps.google.com/?cid=0x0:0xbc5cbb7df92d043b,
perumahan,perumahan,Nusa Tenggara Tim.,,Nusa Tenggara Tim.,NUSA TENGGARA TIMUR,,Indonesia,,,,-8.6573819,121.0793705,https://maps.google.com/?cid=0x0:0x1030bfbcaf71ae0,
perumahan,Pembangunan Perumahan,Perumahan Osiloa D 20,"VM2M+WQ9, Tarus, Kec. Kupang Tengah, Kabupaten Kupang, Nusa Tenggara Tim.","Kabupaten Kupang, Nusa Tenggara Tim.",NUSA TENGGARA TIMUR,,Indonesia,,,,-10.1477096,123.6844904,https://maps.google.com/?cid=0x0:0x2134dcbc7c2b8df0,
perumahan,Pembangunan Perumahan,Cindy Yunita,"VM44+X38, Oesapa, Kec. Klp. Lima, Kota Kupang, Nusa Tenggara Tim.","Kota Kupang, Nusa Tenggara Tim.",NUSA TENGGARA TIMUR,,Indonesia,,,,-10.1425809,123.6551936,https://maps.google.com/?cid=0x0:0xf50cd9762d7a78c8,
perumahan,perumahan,Kec. Takari,"Kabupaten Kupang, Nusa Tenggara Tim.","Kabupaten Kupang, Nusa Tenggara Tim.",NUSA TENGGARA TIMUR,,Indonesia,,,,-9.7928801,123.9401161,https://maps.google.com/?cid=0x0:0x979988727df5682,
perumahan,Perhimpunan Pengembang Perumahan,Griya Takari Sejahtera,"22HX+F3X, Takari, Kec. Takari, Kabupaten Kupang, Nusa Tenggara Tim.","Kabupaten Kupang, Nusa Tenggara Tim.",NUSA TENGGARA TIMUR,,Indonesia,85338487846.0,,,-9.970393,124.0477892,https://maps.google.com/?cid=0x0:0x2a0ad11ad7b1e198,
perumahan,Komplek perumahan,"Fatumtasa Desa Oelnaine kec. Takari, kab kupang","5XW3+4M Karel Nubatonis, Oelnaineno, Kec. Takari, Kabupaten Kupang, Nusa Tenggara Tim.","Kabupaten Kupang, Nusa Tenggara Tim.",NUSA TENGGARA TIMUR,,Indonesia,,,,-9.804661,123.954214,https://maps.google.com/?cid=0x0:0x4142b98aa9024391,
perumahan,Komplek perumahan,Rumah Maksi Nenobahan,"4WRQ+Q6, Tanini, Kec. Takari, Kabupaten Kupang, Nusa Tenggara Tim.","Kabupaten Kupang, Nusa Tenggara Tim.",NUSA TENGGARA TIMUR,,Indonesia,,,,-9.858911,123.939108,https://maps.google.com/?cid=0x0:0x207335b8ad5e2c8a,
perumahan,Komplek perumahan,Tilun Gank,"5X7G+MQ9, Desa, Oelnaineno, Kec. Takari, Kabupaten Kupang, Nusa Tenggara Tim.","Kabupaten Kupang, Nusa Tenggara Tim.",NUSA TENGGARA TIMUR,,Indonesia,,,,-9.8351959,123.976826,https://maps.google.com/?cid=0x0:0xd37bfe98e658ff58,
perumahan,Perhimpunan Pengembang Perumahan,Gracio Bengkel,"22HX+F3X, Takari, Kec. Takari, Kabupaten Kupang, Nusa Tenggara Tim.","Kabupaten Kupang, Nusa Tenggara Tim.",NUSA TENGGARA TIMUR,,Indonesia,,,,-9.970878,124.046916,https://maps.google.com/?cid=0x0:0xeadda1de4eff0263,
perumahan,Komplek perumahan,Asim( tufe),"5XFH+JG3 Asim, Oelnaineno, Kec. Takari, Kabupaten Kupang, Nusa Tenggara Tim.","Kabupaten Kupang, Nusa Tenggara Tim.",NUSA TENGGARA TIMUR,,Indonesia,,,,-9.826,123.9787869,https://maps.google.com/?cid=0x0:0x2cd0d1882c0e0cb5,
perumahan,Komplek perumahan,Suilima Family home,"22GX+PFJ, Takari, Kec. Takari, Kabupaten Kupang, Nusa Tenggara Tim.","Kabupaten Kupang, Nusa Tenggara Tim.",NUSA TENGGARA TIMUR,,Indonesia,,,,-9.9736479,124.0485654,https://maps.google.com/?cid=0x0:0xcac65ea396ce6bd,
perumahan,Komplek perumahan,Kampung Tengah,"5X7H+PV, Oelnaineno, Kec. Takari, Kabupaten Kupang, Nusa Tenggara Tim.","Kabupaten Kupang, Nusa Tenggara Tim.",NUSA TENGGARA TIMUR,,Indonesia,,,,-9.8356487,123.9796979,https://maps.google.com/?cid=0x0:0x23d44ad7fbb75cc,
perumahan,Komplek perumahan,Rmh.Rinny Tafetin,"5XV5+7GP, Oelnaineno, Kec. Takari, Kabupaten Kupang, Nusa Tenggara Tim.","Kabupaten Kupang, Nusa Tenggara Tim.",NUSA TENGGARA TIMUR,,Indonesia,,,,-9.8066882,123.9580655,https://maps.google.com/?cid=0x0:0xdeff597606c1ed63,
perumahan,Pembangunan Perumahan,Takari,"23CC+3RF, Takari, Kec. Takari, Kabupaten Kupang, Nusa Tenggara Tim.","Kabupaten Kupang, Nusa Tenggara Tim.",NUSA TENGGARA TIMUR,,Indonesia,,,,-9.979802,124.0720535,https://maps.google.com/?cid=0x0:0x405121f69d3a3bc9,
perumahan,Pembangunan Perumahan,Kuafeu,"32F2+MCG, Fatukona, Kec. Takari, Kabupaten Kupang, Nusa Tenggara Tim.","Kabupaten Kupang, Nusa Tenggara Tim.",NUSA TENGGARA TIMUR,,Indonesia,,,,-9.9258068,124.0010725,https://maps.google.com/?cid=0x0:0x2e7d542671131f4c,
perumahan,Komplek perumahan,Bapa Musa,"22MP+2CX, Unnamed Road, Oesusu, Kec. Takari, Kabupaten Kupang, Nusa Tenggara Tim.","Kabupaten Kupang, Nusa Tenggara Tim.",NUSA TENGGARA TIMUR,,Indonesia,,,,-9.9673864,124.0361203,https://maps.google.com/?cid=0x0:0xf6a2657123b5bf63,
perumahan,Pembangunan Perumahan,Kampung Baru,"62C4+QF, Kauniki, Kec. Takari, Kabupaten Kupang, Nusa Tenggara Tim.","Kabupaten Kupang, Nusa Tenggara Tim.",NUSA TENGGARA TIMUR,,Indonesia,,,,-9.7780621,124.0061872,https://maps.google.com/?cid=0x0:0x6475f8f2be9b7060,
perumahan,Perhimpunan Pengembang Perumahan,"Kawasan hutan industri, Takari","239C+HVJ, Takari, Kec. Takari, Kabupaten Kupang, Nusa Tenggara Tim.","Kabupaten Kupang, Nusa Tenggara Tim.",NUSA TENGGARA TIMUR,,Indonesia,,,,-9.9810353,124.0721323,https://maps.google.com/?cid=0x0:0x86567e3963a6502c,
perumahan,Perhimpunan Pengembang Perumahan,Rumah Arto,"X2W8+M8, Oesusu, Kec. Takari, Kabupaten Kupang, Nusa Tenggara Tim.","Kabupaten Kupang, Nusa Tenggara Tim.",NUSA TENGGARA TIMUR,,Indonesia,,,,-10.0031629,124.0156061,https://maps.google.com/?cid=0x0:0xe79a1d7ec8b12424,
perumahan,Pondok,Rumah Yusman tanau,"5XV5+7GP, Oelnaineno, Kec. Takari, Kabupaten Kupang, Nusa Tenggara Tim.","Kabupaten Kupang, Nusa Tenggara Tim.",NUSA TENGGARA TIMUR,,Indonesia,,,,-9.8068058,123.9588324,https://maps.google.com/?cid=0x0:0xa8d810f3ee0c2469,
perumahan,Komplek perumahan,Rumah AB,"23JC+3P, Takari, Kec. Takari, Kabupaten Kupang, Nusa Tenggara Tim.","Kabupaten Kupang, Nusa Tenggara Tim.",NUSA TENGGARA TIMUR,,Indonesia,,,,-9.969866,124.0718604,https://maps.google.com/?cid=0x0:0xf878517a4ece0786,
perumahan,Komplek perumahan,Rumah Andre,"22HW+CFP, Jl. Oesao - Bokong, Takari, Kec. Takari, Kabupaten Kupang, Nusa Tenggara Tim.","Kabupaten Kupang, Nusa Tenggara Tim.",NUSA TENGGARA TIMUR,,Indonesia,,,,-9.9729512,124.0467237,https://maps.google.com/?cid=0x0:0xef5817f153863d4c,
perumahan,Komplek perumahan,Kampung Baru,"6W4R+R29, Tanini, Kec. Takari, Kabupaten Kupang, Nusa Tenggara Tim.","Kabupaten Kupang, Nusa Tenggara Tim.",NUSA TENGGARA TIMUR,,Indonesia,,,,-9.7929603,123.9401202,https://maps.google.com/?cid=0x0:0x2818caed6d8ed854,
perumahan,Komplek perumahan,Esau Laga Nguru,"23G7+QP3, Takari, Kec. Takari, Kabupaten Kupang, Nusa Tenggara Tim.","Kabupaten Kupang, Nusa Tenggara Tim.",NUSA TENGGARA TIMUR,,Indonesia,,,,-9.9731011,124.0643065,https://maps.google.com/?cid=0x0:0xec9b49e8d2fad2f,
perumahan,perumahan,Kec. Amfoang Sel.,"Kabupaten Kupang, Nusa Tenggara Tim.","Kabupaten Kupang, Nusa Tenggara Tim.",NUSA TENGGARA TIMUR,,Indonesia,,,,-9.7045438,123.9577285,https://maps.google.com/?cid=0x0:0xd7859a64400c8b5c,
perumahan,perumahan,Lelogama,"Kec. Amfoang Sel., Kabupaten Kupang, Nusa Tenggara Tim.","Kabupaten Kupang, Nusa Tenggara Tim.",NUSA TENGGARA TIMUR,,Indonesia,,,,-9.6997023,123.9582783,https://maps.google.com/?cid=0x0:0x3299729ce7ac4856,
perumahan,perumahan,"Oelfatu, kabupaten Kupang, Nusa tenggara Timur, Indonesia","CWMQ+F3, Oelfatu, Kec. Amfoang Bar. Laut, Kabupaten Kupang, Nusa Tenggara Tim.","Kabupaten Kupang, Nusa Tenggara Tim.",NUSA TENGGARA TIMUR,,Indonesia,,,,-9.56626,123.937707,https://maps.google.com/?cid=0x0:0xc03718da9f321ec5,
perumahan,Komplek perumahan,Dusun 3,"7XW5+53Q, Lelogama, Kec. Amfoang Sel., Kabupaten Kupang, Nusa Tenggara Tim.","Kabupaten Kupang, Nusa Tenggara Tim.",NUSA TENGGARA TIMUR,,Indonesia,,,,-9.7045438,123.9577285,https://maps.google.com/?cid=0x0:0x49586a6eff55fcaf,
perumahan,Komplek perumahan,Kampung baru,"7XQ4+4HW, Lelogama, Kec. Amfoang Sel., Kabupaten Kupang, Nusa Tenggara Tim.","Kabupaten Kupang, Nusa Tenggara Tim.",NUSA TENGGARA TIMUR,,Indonesia,,,,-9.712143,123.9564583,https://maps.google.com/?cid=0x0:0x9765a1863a99ab74,
perumahan,Perhimpunan Pengembang Perumahan,Kampung PO'AN,"9WJP+W4, Leloboko, Kec. Amfoang Sel., Kabupaten Kupang, Nusa Tenggara Tim.","Kabupaten Kupang, Nusa Tenggara Tim.",NUSA TENGGARA TIMUR,,Indonesia,,,,-9.617691,123.935295,https://maps.google.com/?cid=0x0:0xc90d5e29a5996bde,
perumahan,Komplek perumahan,Fatupisa,"8W7V+X5, Leloboko, Kec. Amfoang Sel., Kabupaten Kupang, Nusa Tenggara Tim.","Kabupaten Kupang, Nusa Tenggara Tim.",NUSA TENGGARA TIMUR,,Indonesia,,,,-9.685029,123.94297,https://maps.google.com/?cid=0x0:0xfc0a45d88c9ac609,
perumahan,Pembangunan Perumahan,Mam Lia MANUBONAN,"9X7C+92, Bitobe, Amfoang Tengah, Kabupaten Kupang, Nusa Tenggara Tim.","Kabupaten Kupang, Nusa Tenggara Tim.",NUSA TENGGARA TIMUR,,Indonesia,,,,-9.636577,123.9700853,https://maps.google.com/?cid=0x0:0xbd913b37478b0005,
perumahan,Komplek perumahan,Lelogama,"7XP4+23, Lelogama, Kec. Amfoang Sel., Kabupaten Kupang, Nusa Tenggara Tim.","Kabupaten Kupang, Nusa Tenggara Tim.",NUSA TENGGARA TIMUR,,Indonesia,,,,-9.7151633,123.9554617,https://maps.google.com/?cid=0x0:0xd7a503458952985d,
perumahan,Komplek perumahan,Rumah JM,"7XV4+75M, Lelogama, Kec. Amfoang Sel., Kabupaten Kupang, Nusa Tenggara Tim.","Kabupaten Kupang, Nusa Tenggara Tim.",NUSA TENGGARA TIMUR,,Indonesia,,,,-9.707754,123.955784,https://maps.google.com/?cid=0x0:0xd320baaa6dbe6768,
perumahan,perumahan,Ria Etoq Ehaq,"7XMW+344, Ohaem I, Kec. Amfoang Sel., Kabupaten Kupang, Nusa Tenggara Tim.","Kabupaten Kupang, Nusa Tenggara Tim.",NUSA TENGGARA TIMUR,,Indonesia,,,,-9.716357,123.996748,https://maps.google.com/?cid=0x0:0x5d25ed27b7586812,
perumahan,Komplek perumahan,YK,"7XQ2+596, Lelogama, Kec. Amfoang Sel., Kabupaten Kupang, Nusa Tenggara Tim.","Kabupaten Kupang, Nusa Tenggara Tim.",NUSA TENGGARA TIMUR,,Indonesia,,,,-9.7120981,123.9508846,https://maps.google.com/?cid=0x0:0x5dd32ead1d3d3eac,
perumahan,Komplek perumahan,POS LELOGAMA,"7XW9+QH4, Jl, Lelogama, Amfoang Selatan, Kupang Regency, East Nusa Tenggara 85364","Jl, Lelogama, Amfoang Selatan, Kupang Regency",NUSA TENGGARA TIMUR,85364.0,Indonesia,,,,-9.7031087,123.9689631,https://maps.google.com/?cid=0x0:0x99cb7024cb709948,
perumahan,Inspektur Tempat Tinggal,Rumah Timo,"7XW5+F38, Lelogama, Kec. Amfoang Sel., Kabupaten Kupang, Nusa Tenggara Tim.","Kabupaten Kupang, Nusa Tenggara Tim.",NUSA TENGGARA TIMUR,,Indonesia,,,,-9.7033879,123.9582777,https://maps.google.com/?cid=0x0:0x31915e34d308d8e,
perumahan,Komplek perumahan,SK,"7XJX+Q3, Ohaem I, Kec. Amfoang Sel., Kabupaten Kupang, Nusa Tenggara Tim.","Kabupaten Kupang, Nusa Tenggara Tim.",NUSA TENGGARA TIMUR,,Indonesia,,,,-9.7180769,123.9977476,https://maps.google.com/?cid=0x0:0xba3fd20c5ccaf0fe,
perumahan,Perhimpunan Pengembang Perumahan,Rumah Tua NAIBABUG,"Bioba Barutaen, Amfoang Tengah, Kabupaten Kupang, Nusa Tenggara Tim.","Kabupaten Kupang, Nusa Tenggara Tim.",NUSA TENGGARA TIMUR,,Indonesia,,,,-9.644072,123.9552433,https://maps.google.com/?cid=0x0:0x7a4f33133aec3dfd,
perumahan,Komplek perumahan,Rumah Resty,"7XMW+344, Ohaem I, Kec. Amfoang Sel., Kabupaten Kupang, Nusa Tenggara Tim.","Kabupaten Kupang, Nusa Tenggara Tim.",NUSA TENGGARA TIMUR,,Indonesia,,,,-9.7177031,123.9954268,https://maps.google.com/?cid=0x0:0xd137cdbbd9cf0b63,
perumahan,Komplek perumahan,Rumah Arnolus Skau,"7XW5+HM3, Lelogama, Kec. Amfoang Sel., Kabupaten Kupang, Nusa Tenggara Tim.","Kabupaten Kupang, Nusa Tenggara Tim.",NUSA TENGGARA TIMUR,,Indonesia,,,,-9.703473,123.9596428,https://maps.google.com/?cid=0x0:0x1fc743c7df6929b1,
perumahan,Komplek perumahan,Potok,"8X25+48C, Lelogama, Kec. Amfoang Sel., Kabupaten Kupang, Nusa Tenggara Tim.","Kabupaten Kupang, Nusa Tenggara Tim.",NUSA TENGGARA TIMUR,,Indonesia,,,,-9.6996883,123.9582687,https://maps.google.com/?cid=0x0:0x268a6800baa95513,
perumahan,Komplek perumahan,Rumah Ericko,"8X25+48C, Lelogama, Kec. Amfoang Sel., Kabupaten Kupang, Nusa Tenggara Tim.","Kabupaten Kupang, Nusa Tenggara Tim.",NUSA TENGGARA TIMUR,,Indonesia,,,,-9.6996883,123.9582686,https://maps.google.com/?cid=0x0:0x46e4ed2ae08dcbe4,
perumahan,Komplek perumahan,Rumah A. B. LENDE,"7XW5+F38, Lelogama, Kec. Amfoang Sel., Kabupaten Kupang, Nusa Tenggara Tim.","Kabupaten Kupang, Nusa Tenggara Tim.",NUSA TENGGARA TIMUR,,Indonesia,,,,-9.7031138,123.9584214,https://maps.google.com/?cid=0x0:0x7f515cdef8ed83ee,
perumahan,Pembangunan Perumahan,Edu Sobeukum,"Bioba Barutaen, Amfoang Barat Daya, Kabupaten Kupang, Nusa Tenggara Tim.","Kabupaten Kupang, Nusa Tenggara Tim.",NUSA TENGGARA TIMUR,,Indonesia,,,,-9.6190695,123.9749304,https://maps.google.com/?cid=0x0:0x9472cf68929e1589,
perumahan,Komplek perumahan,Ari gentha,"7XW6+69W, Jl.bepupu, Lelogama, Kec. Amfoang Sel., Kabupaten Kupang, Nusa Tenggara Tim.","Kabupaten Kupang, Nusa Tenggara Tim.",NUSA TENGGARA TIMUR,,Indonesia,,,,-9.704388,123.9609628,https://maps.google.com/?cid=0x0:0xdabece3fda31f05a,
perumahan,perumahan,Kec. Amfoang Utara,"Kabupaten Kupang, Nusa Tenggara Tim.","Kabupaten Kupang, Nusa Tenggara Tim.",NUSA TENGGARA TIMUR,,Indonesia,,,,-9.4932861,123.8346956,https://maps.google.com/?cid=0x0:0xdaf20ecf9b5428b,
perumahan,perumahan,"Oelfatu, kabupaten Kupang, Nusa tenggara Timur, Indonesia","CWMQ+F3, Oelfatu, Kec. Amfoang Bar. Laut, Kabupaten Kupang, Nusa Tenggara Tim.","Kabupaten Kupang, Nusa Tenggara Tim.",NUSA TENGGARA TIMUR,,Indonesia,,,,-9.56626,123.937707,https://maps.google.com/?cid=0x0:0xc03718da9f321ec5,
perumahan,Komplek perumahan,Rumah moke Amfoang,"CVRW+JQF, Fatunaus, Kec. Amfoang Utara, Kabupaten Kupang, Nusa Tenggara Tim.","Kabupaten Kupang, Nusa Tenggara Tim.",NUSA TENGGARA TIMUR,,Indonesia,,,,-9.5584279,123.8969328,https://maps.google.com/?cid=0x0:0xe647fcefe2461347,
perumahan,Komplek perumahan,RUMAH AWAOQ MASUS,"GR4M+X5M, Naikliu, Kec. Amfoang Utara, Kabupaten Kupang, Nusa Tenggara Tim.","Kabupaten Kupang, Nusa Tenggara Tim.",NUSA TENGGARA TIMUR,,Indonesia,81340349651.0,,,-9.4925303,123.8329146,https://maps.google.com/?cid=0x0:0x2ae77260f33be9eb,
perumahan,Pembangunan Perumahan,RuJab Camat Amfoang Utara,"GR3H+43W, Naikliu, Kec. Amfoang Utara, Kabupaten Kupang, Nusa Tenggara Tim.","Kabupaten Kupang, Nusa Tenggara Tim.",NUSA TENGGARA TIMUR,,Indonesia,,,,-9.4971442,123.827709,https://maps.google.com/?cid=0x0:0xcdc6f7e768bb5c,
perumahan,Komplek perumahan,Perumahan Poto,"CQ52+67, Saukibe, Kec. Amfoang Bar. Laut, Kabupaten Kupang, Nusa Tenggara Tim.","Kabupaten Kupang, Nusa Tenggara Tim.",NUSA TENGGARA TIMUR,,Indonesia,,,,-9.5920909,123.750977,https://maps.google.com/?cid=0x0:0x773a3e93123b8538,
perumahan,Komplek perumahan,Rumah Mikhael Banu,"CQJ5+R6W, Oelfatu, Kec. Amfoang Bar. Laut, Kabupaten Kupang, Nusa Tenggara Tim.","Kabupaten Kupang, Nusa Tenggara Tim.",NUSA TENGGARA TIMUR,,Indonesia,,,,-9.5678967,123.7580773,https://maps.google.com/?cid=0x0:0xa0af1c27b15da06a,
perumahan,Komplek perumahan,Rumah tua (Nompetus),"GR6V+97, Fatunaus, Kec. Amfoang Utara, Kabupaten Kupang, Nusa Tenggara Tim.","Kabupaten Kupang, Nusa Tenggara Tim.",NUSA TENGGARA TIMUR,,Indonesia,,,,-9.4894667,123.8430143,https://maps.google.com/?cid=0x0:0x448771a363ed9bdb,
perumahan,Komplek perumahan,Rumah Zet Mbura,"GR7R+79M, Naikliu, Kec. Amfoang Utara, Kabupaten Kupang, Nusa Tenggara Tim.","Kabupaten Kupang, Nusa Tenggara Tim.",NUSA TENGGARA TIMUR,,Indonesia,,,,-9.4866717,123.8402433,https://maps.google.com/?cid=0x0:0xa1dac8e087d5a3fe,
perumahan,Inspektur Tempat Tinggal,Gianeva giri,"CQXF+2M, Afoan, Kec. Amfoang Utara, Kabupaten Kupang, Nusa Tenggara Tim.","Kabupaten Kupang, Nusa Tenggara Tim.",NUSA TENGGARA TIMUR,,Indonesia,,,,-9.5524382,123.7741212,https://maps.google.com/?cid=0x0:0x7280f53e7610750f,
perumahan,Perhimpunan Pengembang Perumahan,Ongky Apus,"GVC7+V3, Kolabe, Kec. Amfoang Utara, Kabupaten Kupang, Nusa Tenggara Tim. 85365","Kolabe, Kec. Amfoang Utara, Kabupaten Kupang",NUSA TENGGARA TIMUR,85365.0,Indonesia,,,,-9.4772249,123.8625849,https://maps.google.com/?cid=0x0:0xafcdf174e7d62af,
perumahan,perumahan,,,,NUSA TENGGARA TIMUR,,Indonesia,,,,,,https://maps.google.com/?cid=0x0:0x4aa87898ba2e0154,
perumahan,Komplek perumahan,Mona tikan,"CVRW+JQF, Fatunaus, Kec. Amfoang Utara, Kabupaten Kupang, Nusa Tenggara Tim.","Kabupaten Kupang, Nusa Tenggara Tim.",NUSA TENGGARA TIMUR,,Indonesia,,,,-9.5584279,123.8969328,https://maps.google.com/?cid=0x0:0x44039c109d9403f0,
perumahan,Komplek perumahan,Rumah.Anika Naniman.Desa Kolabe,"GVC6+7F7, Kolabe, Kec. Amfoang Utara, Kabupaten Kupang, Nusa Tenggara Tim.","Kabupaten Kupang, Nusa Tenggara Tim.",NUSA TENGGARA TIMUR,,Indonesia,,,,-9.4804008,123.8605811,https://maps.google.com/?cid=0x0:0xca2cdeb5f64d4a4e,
perumahan,Komplek perumahan,Rumah. Mesakh Dubu,"GV94+8W, Kolabe, Kec. Amfoang Utara, Kabupaten Kupang, Nusa Tenggara Tim.","Kabupaten Kupang, Nusa Tenggara Tim.",NUSA TENGGARA TIMUR,,Indonesia,81238970558.0,,,-9.4816595,123.8573167,https://maps.google.com/?cid=0x0:0x3143886135d9ec84,
perumahan,Pembangunan Perumahan,Rumah Yosep,"CQG6+33G, Oelfatu, Kec. Amfoang Bar. Laut, Kabupaten Kupang, Nusa Tenggara Tim.","Kabupaten Kupang, Nusa Tenggara Tim.",NUSA TENGGARA TIMUR,,Indonesia,,,,-9.5748196,123.7602098,https://maps.google.com/?cid=0x0:0x686a9ca4fa52c980,
perumahan,Komplek perumahan,Welkis HOME STAY,"GV43+QQ, Fatunaus, Kec. Amfoang Utara, Kabupaten Kupang, Nusa Tenggara Tim.","Kabupaten Kupang, Nusa Tenggara Tim.",NUSA TENGGARA TIMUR,,Indonesia,,,,-9.49303,123.8544746,https://maps.google.com/?cid=0x0:0xa4f2c1a58b213ee1,
perumahan,Komplek perumahan,Rumah aldo nuban,"GR6W+GR, Fatunaus, Kec. Amfoang Utara, Kabupaten Kupang, Nusa Tenggara Tim.","Kabupaten Kupang, Nusa Tenggara Tim.",NUSA TENGGARA TIMUR,,Indonesia,,,,-9.4886935,123.8470034,https://maps.google.com/?cid=0x0:0xebd55b52fae2ca5a,
perumahan,Komplek perumahan,Rumah Junewer Fomeni,"CQ3Q+86G, Timau, Kec. Amfoang Bar. Laut, Kabupaten Kupang, Nusa Tenggara Tim.","Kabupaten Kupang, Nusa Tenggara Tim.",NUSA TENGGARA TIMUR,,Indonesia,,,,-9.5966762,123.7880837,https://maps.google.com/?cid=0x0:0x915ec5626d082457,
perumahan,Perhimpunan Pengembang Perumahan,Wirausaha Muda,"Saukibe, Kec. Amfoang Bar. Laut, Kabupaten Kupang, Nusa Tenggara Tim. 85635","Kec. Amfoang Bar. Laut, Kabupaten Kupang",NUSA TENGGARA TIMUR,85635.0,Indonesia,,,,-9.591997,123.7514742,https://maps.google.com/?cid=0x0:0xd0569af048a7ea2f,
perumahan,Komplek perumahan,Berdikari,"GR4M+MVP, Naikliu, Kec. Amfoang Utara, Kabupaten Kupang, Nusa Tenggara Tim.","Kabupaten Kupang, Nusa Tenggara Tim.",NUSA TENGGARA TIMUR,,Indonesia,,,,-9.4932861,123.8346956,https://maps.google.com/?cid=0x0:0x7c5bae8e99a259cb,
perumahan,perumahan,Rumah Dhio kiuk,"CQV9+8V, Soliu, Kec. Amfoang Bar. Laut, Kabupaten Kupang, Nusa Tenggara Tim.","Kabupaten Kupang, Nusa Tenggara Tim.",NUSA TENGGARA TIMUR,,Indonesia,,,,-9.5578465,123.7691131,https://maps.google.com/?cid=0x0:0xd0e1fb99167ddb2c,
perumahan,perumahan,Kec. Nekamese,"Kabupaten Kupang, Nusa Tenggara Tim.","Kabupaten Kupang, Nusa Tenggara Tim.",NUSA TENGGARA TIMUR,,Indonesia,,,,-10.2347889,123.6370371,https://maps.google.com/?cid=0x0:0x565669aa9e267387,
perumahan,Pembangunan Perumahan,Alex,"QJ8G+3XJ, Desa, Oelomin, Kec. Nekamese, Kabupaten Kupang, Nusa Tenggara Tim.","Kabupaten Kupang, Nusa Tenggara Tim.",NUSA TENGGARA TIMUR,,Indonesia,,,,-10.2351212,123.6279478,https://maps.google.com/?cid=0x0:0x920885ee248c5439,
perumahan,Pembangunan Perumahan,Rumahnya Syaira,"QJCJ+GC3, Oelomin, Kec. Nekamese, Kabupaten Kupang, Nusa Tenggara Tim.","Kabupaten Kupang, Nusa Tenggara Tim.",NUSA TENGGARA TIMUR,,Indonesia,,,,-10.2287235,123.6310321,https://maps.google.com/?cid=0x0:0x47e8a62f9c689a9b,
perumahan,Pembangunan Perumahan,Nenosaban home,"QJ6J+J5V, Jl. H.R. Koroh, Oelomin, Kec. Nekamese, Kabupaten Kupang, Nusa Tenggara Tim.","Kabupaten Kupang, Nusa Tenggara Tim.",NUSA TENGGARA TIMUR,,Indonesia,,,,-10.2383835,123.6304203,https://maps.google.com/?cid=0x0:0x507d9edabc88bd59,
perumahan,Komplek perumahan,Rumah Eulogius Mikael,"QJ9H+Q3R, Oelomin, Kec. Nekamese, Kabupaten Kupang, Nusa Tenggara Tim.","Kabupaten Kupang, Nusa Tenggara Tim.",NUSA TENGGARA TIMUR,,Indonesia,,,,-10.2305083,123.6276263,https://maps.google.com/?cid=0x0:0x526240967c2515a5,
perumahan,Pembangunan Perumahan,Rumah Iphy Treputra,"QJCR+673, Oelomin, Kec. Nekamese, Kabupaten Kupang, Nusa Tenggara Tim.","Kabupaten Kupang, Nusa Tenggara Tim.",NUSA TENGGARA TIMUR,,Indonesia,,,,-10.2294944,123.6406762,https://maps.google.com/?cid=0x0:0xbf9fc71e2dc8489c,
perumahan,Pembangunan Perumahan,Mashudul basri home,"QJCH+J57, Oelomin, Kec. Nekamese, Kabupaten Kupang, Nusa Tenggara Tim.","Kabupaten Kupang, Nusa Tenggara Tim.",NUSA TENGGARA TIMUR,,Indonesia,,,,-10.2284688,123.6279265,https://maps.google.com/?cid=0x0:0xaa6c49bf86051d46,
perumahan,Komplek perumahan,Negas,"QJ8M+2WR, Oelomin, Kec. Nekamese, Kabupaten Kupang, Nusa Tenggara Tim.","Kabupaten Kupang, Nusa Tenggara Tim.",NUSA TENGGARA TIMUR,,Indonesia,,,,-10.235358,123.634957,https://maps.google.com/?cid=0x0:0xe6e86b40e2d810db,
perumahan,Penginapan,Perumahan Tebing Tinggi Oelomin,"QJ9J+X62, Oelomin, Kec. Nekamese, Kabupaten Kupang, Nusa Tenggara Tim.","Kabupaten Kupang, Nusa Tenggara Tim.",NUSA TENGGARA TIMUR,,Indonesia,,,,-10.2301053,123.6305065,https://maps.google.com/?cid=0x0:0x6c439203f0dadf6e,
perumahan,Pembangunan Perumahan,Rumoh Geutanyoe,"QJ9R+FXF, Jl. H.R. Koroh, Tunfeu, Kec. Nekamese, Kota Kupang, Nusa Tenggara Tim.","Kota Kupang, Nusa Tenggara Tim.",NUSA TENGGARA TIMUR,,Indonesia,,,,-10.2313101,123.6424157,https://maps.google.com/?cid=0x0:0xd036dd822e8a2bd6,
perumahan,perumahan,EZAR SONGA,"QJHP+389, Oelomin, Kec. Nekamese, Kabupaten Kupang, Nusa Tenggara Tim.","Kabupaten Kupang, Nusa Tenggara Tim.",NUSA TENGGARA TIMUR,,Indonesia,,,,-10.2223375,123.6358594,https://maps.google.com/?cid=0x0:0x4dcffda73d68abb2,
perumahan,perumahan,Rumah Nekamese Robinson Alexander Mira Mangngi,"QM36+78M, Tunfeu, Kec. Nekamese, Kabupaten Kupang, Nusa Tenggara Tim.","Kabupaten Kupang, Nusa Tenggara Tim.",NUSA TENGGARA TIMUR,,Indonesia,,,,-10.2467914,123.6608102,https://maps.google.com/?cid=0x0:0xa14c2fcd71b50a14,
perumahan,Perhimpunan Pengembang Perumahan,Rumah cress,"QJGP+X83, Jl. H.R. Koroh, Bello, Kec. Nekamese, Kota Kupang, Nusa Tenggara Tim.","Kota Kupang, Nusa Tenggara Tim.",NUSA TENGGARA TIMUR,,Indonesia,,,,-10.2226249,123.6357895,https://maps.google.com/?cid=0x0:0x803d22b7c9e3596,
perumahan,Komplek perumahan,Rumah Lea Tokael,"QJ7J+GJC, Oelomin, Kec. Nekamese, Kabupaten Kupang, Nusa Tenggara Tim.","Kabupaten Kupang, Nusa Tenggara Tim.",NUSA TENGGARA TIMUR,,Indonesia,,,,-10.2364991,123.6316428,https://maps.google.com/?cid=0x0:0x60c457f698eabcf,
perumahan,Komplek perumahan,Rumah Bpa Yes,"QJ8P+GVM, RT.04/RW.02 desa, Oelomin, Kec. Nekamese, Kabupaten Kupang, Nusa Tenggara Tim.","Kabupaten Kupang, Nusa Tenggara Tim.",NUSA TENGGARA TIMUR,,Indonesia,,,,-10.2336716,123.6371591,https://maps.google.com/?cid=0x0:0x1294678ad999723f,
perumahan,Komplek perumahan,Nn,"Bello, Jl. H.R. Koroh, Oelomin, Kec. Nekamese, Kabupaten Kupang, Nusa Tenggara Tim.","Kabupaten Kupang, Nusa Tenggara Tim.",NUSA TENGGARA TIMUR,,Indonesia,,,,-10.2342699,123.6387998,https://maps.google.com/?cid=0x0:0x7fa6b6024189fff2,
perumahan,Komplek perumahan,Rumah Amsal Leli,"QJ7R+W2V, Oelomin, Kec. Nekamese, Kabupaten Kupang, Nusa Tenggara Tim.","Kabupaten Kupang, Nusa Tenggara Tim.",NUSA TENGGARA TIMUR,,Indonesia,,,,-10.2351375,123.6400334,https://maps.google.com/?cid=0x0:0x17e7d7e986bfd4da,
perumahan,Komplek perumahan,Jhon Bistolen,"QJ9M+WXF, Oelomin, Kec. Nekamese, Kabupaten Kupang, Nusa Tenggara Tim.","Kabupaten Kupang, Nusa Tenggara Tim.",NUSA TENGGARA TIMUR,,Indonesia,,,,-10.2301875,123.6349219,https://maps.google.com/?cid=0x0:0x180d7499c9a5d219,
perumahan,Komplek perumahan,Anthonius Nubatonis,"QJ9M+WXF, Oelomin, Kec. Nekamese, Kabupaten Kupang, Nusa Tenggara Tim.","Kabupaten Kupang, Nusa Tenggara Tim.",NUSA TENGGARA TIMUR,,Indonesia,,,,-10.2293776,123.6344665,https://maps.google.com/?cid=0x0:0xd43e0da31ec99029,
perumahan,Komplek perumahan,Ricardo House,"QJCJ+343, Oelomin, Kec. Nekamese, Kabupaten Kupang, Nusa Tenggara Tim.","Kabupaten Kupang, Nusa Tenggara Tim.",NUSA TENGGARA TIMUR,,Indonesia,,,,-10.2298554,123.6303093,https://maps.google.com/?cid=0x0:0xd97698fb9828ddf6,
perumahan,Pembangunan Perumahan,Rumah Retna Nitty,"QM45+F88, Tunfeu, Kec. Nekamese, Kabupaten Kupang, Nusa Tenggara Tim.","Kabupaten Kupang, Nusa Tenggara Tim.",NUSA TENGGARA TIMUR,,Indonesia,,,,-10.2438398,123.6583265,https://maps.google.com/?cid=0x0:0xd5415cdbba41f5cb,
perumahan,Komplek perumahan,Yesaya taebenu,"QJ4X+738, Jalan, Tunfeu, Nekamese, Kupang Regency, East Nusa Tenggara","Kabupaten Kupang, Nusa Tenggara Tim.",NUSA TENGGARA TIMUR,,Indonesia,,,,-10.2443292,123.6476949,https://maps.google.com/?cid=0x0:0x744b3eeeb3091456,
perumahan,Komplek perumahan,Rumah Aries Agape Nitty,"QM45+CWF, Tunfeu, Kec. Nekamese, Kabupaten Kupang, Nusa Tenggara Tim.","Kabupaten Kupang, Nusa Tenggara Tim.",NUSA TENGGARA TIMUR,,Indonesia,,,,-10.243732,123.6585588,https://maps.google.com/?cid=0x0:0xcc1d5102e34a235e,
perumahan,Perhimpunan Pengembang Perumahan,Perumahan Bello Sejahtera,"Jl. H.R. Koroh, Bello, Kec. Maulafa, Kota Kupang, Nusa Tenggara Tim.","Kota Kupang, Nusa Tenggara Tim.",NUSA TENGGARA TIMUR,,Indonesia,82145034333.0,,,-10.2244027,123.629491,https://maps.google.com/?cid=0x0:0x6d93a3dc68144fab,
perumahan,Komplek perumahan,bgd-M,"QJCR+767, Oelomin, Kec. Nekamese, Kabupaten Kupang, Nusa Tenggara Tim.","Kabupaten Kupang, Nusa Tenggara Tim.",NUSA TENGGARA TIMUR,,Indonesia,,,,-10.2278846,123.6405945,https://maps.google.com/?cid=0x0:0x29eec9e025d70502,
perumahan,perumahan,Kec. Amarasi Bar.,"Kabupaten Kupang, Nusa Tenggara Tim.","Kabupaten Kupang, Nusa Tenggara Tim.",NUSA TENGGARA TIMUR,,Indonesia,,,,-10.2967953,123.7215253,https://maps.google.com/?cid=0x0:0xf00f5af6747f20a8,
perumahan,Komplek perumahan,AKAMSI RUANRETE,"QQ29+J9P, Tunbaun, Kec. Amarasi Bar., Kabupaten Kupang, Nusa Tenggara Tim.","Kabupaten Kupang, Nusa Tenggara Tim.",NUSA TENGGARA TIMUR,,Indonesia,82236818024.0,,,-10.2484021,123.7684375,https://maps.google.com/?cid=0x0:0xb262217aaf27944,
perumahan,perumahan,Rumah Calista,"PP34+698, Niukbaun, Kec. Amarasi Bar., Kabupaten Kupang, Nusa Tenggara Tim.","Kabupaten Kupang, Nusa Tenggara Tim.",NUSA TENGGARA TIMUR,,Indonesia,,,,-10.2969577,123.70594,https://maps.google.com/?cid=0x0:0x18258911321c6fba,
perumahan,Komplek perumahan,Kobe,"MQG7+V5P, Erbaun, Kec. Amarasi Bar., Kabupaten Kupang, Nusa Tenggara Tim.","Kabupaten Kupang, Nusa Tenggara Tim.",NUSA TENGGARA TIMUR,,Indonesia,,,,-10.3227876,123.7629465,https://maps.google.com/?cid=0x0:0xfc2f560739acbaba,
perumahan,perumahan,Rumah BPK Yonatan tano,"MPX9+8C7, Teunbaun, Kec. Amarasi Bar., Kabupaten Kupang, Nusa Tenggara Tim.","Kabupaten Kupang, Nusa Tenggara Tim.",NUSA TENGGARA TIMUR,,Indonesia,,,,-10.3017249,123.7185495,https://maps.google.com/?cid=0x0:0xc55a0a8bdf5d6576,
perumahan,perumahan,Lista Home,"PP34+698, Niukbaun, Kec. Amarasi Bar., Kabupaten Kupang, Nusa Tenggara Tim.","Kabupaten Kupang, Nusa Tenggara Tim.",NUSA TENGGARA TIMUR,,Indonesia,,,,-10.2969501,123.7059518,https://maps.google.com/?cid=0x0:0xbbbe27b0ad3555af,
perumahan,Komplek perumahan,Rivelsortuy,"MPR2+RV7, Nekbaun, Kec. Amarasi Bar., Kabupaten Kupang, Nusa Tenggara Tim.","Kabupaten Kupang, Nusa Tenggara Tim.",NUSA TENGGARA TIMUR,,Indonesia,,,,-10.3079569,123.7021866,https://maps.google.com/?cid=0x0:0x529bd18d720b540f,
perumahan,Komplek perumahan,Andi passu,"PP33+JPX, Niukbaun, Kec. Amarasi Bar., Kabupaten Kupang, Nusa Tenggara Tim.","Kabupaten Kupang, Nusa Tenggara Tim.",NUSA TENGGARA TIMUR,,Indonesia,,,,-10.2965041,123.7037242,https://maps.google.com/?cid=0x0:0x5ad9fe9773b10fd2,
perumahan,Komplek perumahan,Rumah Fadly,"PP5G+GR9, Teunbaun, Kec. Amarasi Bar., Kabupaten Kupang, Nusa Tenggara Tim.","Kabupaten Kupang, Nusa Tenggara Tim.",NUSA TENGGARA TIMUR,,Indonesia,82147287757.0,,,-10.2912044,123.7271106,https://maps.google.com/?cid=0x0:0xb0db8b60d70177d1,
perumahan,Komplek perumahan,Oematan,"MPW2+QF8, Nekbaun, Kec. Amarasi Bar., Kabupaten Kupang, Nusa Tenggara Tim.","Kabupaten Kupang, Nusa Tenggara Tim.",NUSA TENGGARA TIMUR,,Indonesia,,,,-10.3030809,123.7011957,https://maps.google.com/?cid=0x0:0xbf6c66948d3e7f71,
perumahan,Komplek perumahan,Rumah mekri,"MPH6+RJR, Merbaun, Kec. Amarasi Bar., Kabupaten Kupang, Nusa Tenggara Tim.","Kabupaten Kupang, Nusa Tenggara Tim.",NUSA TENGGARA TIMUR,,Indonesia,,,,-10.3201917,123.7114821,https://maps.google.com/?cid=0x0:0xe41c2667bd0ea29d,
perumahan,Perumahan rakyat,Sparta,"PPGF+7GW, Soba, Kec. Amarasi Bar., Kabupaten Kupang, Nusa Tenggara Tim.","Kabupaten Kupang, Nusa Tenggara Tim.",NUSA TENGGARA TIMUR,,Indonesia,87815415660.0,,,-10.2742613,123.7238308,https://maps.google.com/?cid=0x0:0x48ad5cbe58855c17,
perumahan,perumahan,Oriana Maricke Ansye Home,"MPV3+53V, Nekbaun, Kec. Amarasi Bar., Kabupaten Kupang, Nusa Tenggara Tim.","Kabupaten Kupang, Nusa Tenggara Tim.",NUSA TENGGARA TIMUR,,Indonesia,,,,-10.3070036,123.702677,https://maps.google.com/?cid=0x0:0x913f4f569aad14d2,
perumahan,Komplek perumahan,Tray home,"PM5W+VP4, Niukbaun, Kec. Amarasi Bar., Kabupaten Kupang, Nusa Tenggara Tim.","Kabupaten Kupang, Nusa Tenggara Tim.",NUSA TENGGARA TIMUR,,Indonesia,,,,-10.2903538,123.6968363,https://maps.google.com/?cid=0x0:0xa424047c61f7b5a0,
perumahan,Komplek perumahan,Rumah BR,"PQRF+VR8, Tunbaun, Kec. Amarasi Bar., Kabupaten Kupang, Nusa Tenggara Tim.","Kabupaten Kupang, Nusa Tenggara Tim.",NUSA TENGGARA TIMUR,,Indonesia,,,,-10.257573,123.774038,https://maps.google.com/?cid=0x0:0x14fe3b399e8486cc,
perumahan,Komplek perumahan,Martha Bois,"Ruanfenu, Merbaun, Kec. Amarasi Bar., Kabupaten Kupang, Nusa Tenggara Tim.","Kabupaten Kupang, Nusa Tenggara Tim.",NUSA TENGGARA TIMUR,,Indonesia,,,,-10.3473849,123.7182415,https://maps.google.com/?cid=0x0:0x25221df45f19fec9,
perumahan,Komplek perumahan,Fatukrana,"MMFR+94V, RT.10/RW.05, Nekbaun, Kec. Amarasi Bar., Kabupaten Kupang, Nusa Tenggara Tim.","Kabupaten Kupang, Nusa Tenggara Tim.",NUSA TENGGARA TIMUR,,Indonesia,,,,-10.3265084,123.69029,https://maps.google.com/?cid=0x0:0x9d0dcb9fde8628a9,
perumahan,perumahan,Rumah kami,"PP9C+FG, Soba, Kec. Amarasi Bar., Kabupaten Kupang, Nusa Tenggara Tim.","Kabupaten Kupang, Nusa Tenggara Tim.",NUSA TENGGARA TIMUR,,Indonesia,,,,-10.2813125,123.7213125,https://maps.google.com/?cid=0x0:0x9ddbba91075facc5,
perumahan,perumahan,Parikaes home,"PP2F+46P, Teunbaun, Kec. Amarasi Bar., Kabupaten Kupang, Nusa Tenggara Tim.","Kabupaten Kupang, Nusa Tenggara Tim.",NUSA TENGGARA TIMUR,,Indonesia,,,,-10.2996567,123.7230743,https://maps.google.com/?cid=0x0:0x173eb54d6f79a59e,
perumahan,Perhimpunan Pengembang Perumahan,AyhuAstryHome,"MPV3+FCW, Nekbaun, Kec. Amarasi Bar., Kabupaten Kupang, Nusa Tenggara Tim.","Kabupaten Kupang, Nusa Tenggara Tim.",NUSA TENGGARA TIMUR,,Indonesia,,,,-10.3062525,123.7035644,https://maps.google.com/?cid=0x0:0xc145146837b13ecf,
perumahan,Pembangunan Perumahan,Rumah Olgafina Mamun,"PQRF+FJJ, Jl. H. R. Koroh, Teunbaun, Kec. Amarasi Bar., Kabupaten Kupang, Nusa Tenggara Tim.","Kabupaten Kupang, Nusa Tenggara Tim.",NUSA TENGGARA TIMUR,,Indonesia,,,,-10.2587983,123.7740108,https://maps.google.com/?cid=0x0:0x1f509614c0eab7f6,
perumahan,Produsen,PT. BAUN JAYA SEJAHTERA (Meidel Amtiran),"PP3C+RQW, Teunbaun, Kec. Amarasi Bar., Kabupaten Kupang, Nusa Tenggara Tim.","Kabupaten Kupang, Nusa Tenggara Tim.",NUSA TENGGARA TIMUR,,Indonesia,,,,-10.2953951,123.7219592,https://maps.google.com/?cid=0x0:0x592f71c399a70829,
perumahan,Kantor Pemerintah,Kelurahan teun baun Amarasi barat,"MPWF+9J3, Teunbaun, Kec. Amarasi Bar., Kabupaten Kupang, Nusa Tenggara Tim.","Kabupaten Kupang, Nusa Tenggara Tim.",NUSA TENGGARA TIMUR,,Indonesia,,,,-10.3040828,123.7240651,https://maps.google.com/?cid=0x0:0x76bfe72c958b6df0,
perumahan,perumahan,Kec. Amarasi Sel.,"Kabupaten Kupang, Nusa Tenggara Tim.","Kabupaten Kupang, Nusa Tenggara Tim.",NUSA TENGGARA TIMUR,,Indonesia,,,,-10.2893836,123.8500476,https://maps.google.com/?cid=0x0:0x36c1919b18a6d11b,
perumahan,Komplek perumahan,Rumah Keba,"PV64+2QF, RT.016/RW.005, Buraen, Kec. Amarasi Sel., Kabupaten Kupang, Nusa Tenggara Tim.","Kabupaten Kupang, Nusa Tenggara Tim.",NUSA TENGGARA TIMUR,,Indonesia,,,,-10.2899402,123.8569155,https://maps.google.com/?cid=0x0:0x3be92d744ec704c2,
perumahan,Perhimpunan Pengembang Perumahan,Mada,"PV33+FQW, Buraen, Kec. Amarasi Sel., Kabupaten Kupang, Nusa Tenggara Tim.","Kabupaten Kupang, Nusa Tenggara Tim.",NUSA TENGGARA TIMUR,,Indonesia,,,,-10.2966031,123.8552707,https://maps.google.com/?cid=0x0:0xece44e97338e3351,
perumahan,Komplek perumahan,Rumah Elistra,"PV34+XQ5, Buraen, Kec. Amarasi Sel., Kabupaten Kupang, Nusa Tenggara Tim.","Kabupaten Kupang, Nusa Tenggara Tim.",NUSA TENGGARA TIMUR,,Indonesia,82140718049.0,,,-10.2951182,123.8569976,https://maps.google.com/?cid=0x0:0x87900631666e71f3,
perumahan,Pembangunan Perumahan,Sonraen,"PR8Q+74R, Sonraen, Kec. Amarasi Sel., Kabupaten Kupang, Nusa Tenggara Tim.","Kabupaten Kupang, Nusa Tenggara Tim.",NUSA TENGGARA TIMUR,,Indonesia,,,,-10.284786,123.8388053,https://maps.google.com/?cid=0x0:0x30511f161daffbd8,
perumahan,Komplek perumahan,Rumah Alm. Melkias Ora,"QV3F+RJ9, Nekmese, Kec. Amarasi Sel., Kabupaten Kupang, Nusa Tenggara Tim.","Kabupaten Kupang, Nusa Tenggara Tim.",NUSA TENGGARA TIMUR,,Indonesia,,,,-10.2454691,123.8740991,https://maps.google.com/?cid=0x0:0x578249cb72dbd77e,
perumahan,Komplek perumahan,Mario,"MRWV+GM, Retraen, Kec. Amarasi Sel., Kabupaten Kupang, Nusa Tenggara Tim.","Kabupaten Kupang, Nusa Tenggara Tim.",NUSA TENGGARA TIMUR,,Indonesia,,,,-10.303641,123.844222,https://maps.google.com/?cid=0x0:0x14e5e1b2e1a6b89a,
perumahan,Komplek perumahan,Rumah Bpak Elisa Namah,"MRMM+WMR, Retraen, Kec. Amarasi Sel., Kabupaten Kupang, Nusa Tenggara Tim.","Kabupaten Kupang, Nusa Tenggara Tim.",NUSA TENGGARA TIMUR,,Indonesia,,,,-10.3147328,123.8346564,https://maps.google.com/?cid=0x0:0x21f672abe02802c0,
perumahan,Perhimpunan Pengembang Perumahan,Keluarga baok,"Keluarga baok, Nekmese, Kec. Amarasi Sel., Kabupaten Kupang, Nusa Tenggara Tim.","Kabupaten Kupang, Nusa Tenggara Tim.",NUSA TENGGARA TIMUR,,Indonesia,,,,-10.2425907,123.8809055,https://maps.google.com/?cid=0x0:0x1cd1a9c5ecbbc56,
perumahan,Titik Pemandangan,Desa nekmese,"QV4J+RM7, Nekmese, Kec. Amarasi Sel., Kabupaten Kupang, Nusa Tenggara Tim.","Kabupaten Kupang, Nusa Tenggara Tim.",NUSA TENGGARA TIMUR,,Indonesia,,,,-10.2429576,123.8816814,https://maps.google.com/?cid=0x0:0x32dc629deca4266c,
perumahan,Komplek perumahan,Mr.Taunu,"MRJ7+GFJ, Sahraen, Kec. Amarasi Sel., Kabupaten Kupang, Nusa Tenggara Tim.","Kabupaten Kupang, Nusa Tenggara Tim.",NUSA TENGGARA TIMUR,,Indonesia,,,,-10.3186673,123.8136279,https://maps.google.com/?cid=0x0:0x2b08a6ea83c16bec,
perumahan,Komplek perumahan,Rumah brayen,"PV54+PWP, Buraen, Kec. Amarasi Sel., Kabupaten Kupang, Nusa Tenggara Tim.","Kabupaten Kupang, Nusa Tenggara Tim.",NUSA TENGGARA TIMUR,,Indonesia,,,,-10.2905438,123.8586227,https://maps.google.com/?cid=0x0:0xd937379c30c70427,
perumahan,Komplek perumahan,Rumah ROBERTUS FENI,"PV33+FQW, Buraen, Kec. Amarasi Sel., Kabupaten Kupang, Nusa Tenggara Tim.","Kabupaten Kupang, Nusa Tenggara Tim.",NUSA TENGGARA TIMUR,,Indonesia,,,,-10.2962625,123.8544531,https://maps.google.com/?cid=0x0:0x9d62a8f4982ab431,
perumahan,Komplek perumahan,Rumah Hanna Dillak,"QR2J+74C, Ekam, Kotabes, Kec. Amarasi, Kabupaten Kupang","Kabupaten Kupang, Nusa Tenggara Tim.",NUSA TENGGARA TIMUR,,Indonesia,,,,-10.2493055,123.8302766,https://maps.google.com/?cid=0x0:0xdb4a37ec39176888,
perumahan,Komplek perumahan,Gabriel Seran,"PV82+325, Sonraen, Kec. Amarasi Sel., Kabupaten Kupang, Nusa Tenggara Tim.","Kabupaten Kupang, Nusa Tenggara Tim.",NUSA TENGGARA TIMUR,,Indonesia,,,,-10.284918,123.849916,https://maps.google.com/?cid=0x0:0xb193f2f25b637811,
perumahan,Komplek perumahan,Rumah imas banu,"QV2W+9Q3, Nekmese, Kec. Amarasi Sel., Kabupaten Kupang, Nusa Tenggara Tim.","Kabupaten Kupang, Nusa Tenggara Tim.",NUSA TENGGARA TIMUR,,Indonesia,,,,-10.249116,123.8969328,https://maps.google.com/?cid=0x0:0xe3b88fc8631b7ad7,
perumahan,Pembangunan Perumahan,Sulce Bianomr,"PR7Q+JXH, Sonraen, Kec. Amarasi Sel., Kabupaten Kupang, Nusa Tenggara Tim.","Kabupaten Kupang, Nusa Tenggara Tim.",NUSA TENGGARA TIMUR,,Indonesia,,,,-10.2866467,123.8407317,https://maps.google.com/?cid=0x0:0xab52a1f6c00f8bd,
perumahan,Komplek perumahan,Rumah Ama Dany,"QR3G+GQ7, Kotabes, Kec. Amarasi, Kabupaten Kupang, Nusa Tenggara Tim.","Kabupaten Kupang, Nusa Tenggara Tim.",NUSA TENGGARA TIMUR,,Indonesia,,,,-10.2462123,123.8269281,https://maps.google.com/?cid=0x0:0xb1d0466638371235,
perumahan,Komplek perumahan,Oktovianus Bani,"QV3G+X44, Nekmese, Kec. Amarasi Sel., Kabupaten Kupang, Nusa Tenggara Tim.","Kabupaten Kupang, Nusa Tenggara Tim.",NUSA TENGGARA TIMUR,,Indonesia,,,,-10.245492,123.875313,https://maps.google.com/?cid=0x0:0x5ea00ef9c8530b41,
perumahan,Komplek perumahan,Rumah adhel nitti,"PR7W+GHH, Sonraen, Kec. Amarasi Sel., Kabupaten Kupang, Nusa Tenggara Tim.","Kabupaten Kupang, Nusa Tenggara Tim.",NUSA TENGGARA TIMUR,,Indonesia,,,,-10.286567,123.846681,https://maps.google.com/?cid=0x0:0x9ed1e9326651ccfe,
perumahan,perumahan,Rumah Amalia Thoma,"PV63+9XQ, Buraen, Kec. Amarasi Sel., Kabupaten Kupang, Nusa Tenggara Tim.","Kabupaten Kupang, Nusa Tenggara Tim.",NUSA TENGGARA TIMUR,,Indonesia,,,,-10.2890458,123.8549708,https://maps.google.com/?cid=0x0:0x82a1352a3bdcef5d,
perumahan,perumahan,Kec. Amarasi Tim.,"Kabupaten Kupang, Nusa Tenggara Tim.","Kabupaten Kupang, Nusa Tenggara Tim.",NUSA TENGGARA TIMUR,,Indonesia,,,,-10.1884143,124.0399714,https://maps.google.com/?cid=0x0:0xcfce44e562bbc585,
perumahan,Komplek perumahan,"Kampung Bimous, Kecamatan Amarasi Timur","R2C6+X5M, Oebesi, Kec. Amarasi Tim., Kabupaten Kupang, Nusa Tenggara Tim.","Kabupaten Kupang, Nusa Tenggara Tim.",NUSA TENGGARA TIMUR,,Indonesia,,,,-10.1775363,124.0104336,https://maps.google.com/?cid=0x0:0xae43eb4f661a2001,
perumahan,Komplek perumahan,Saka boymau,"RX5X+X2, Oebesi, Kec. Amarasi Tim., Kabupaten Kupang, Nusa Tenggara Tim.","Kabupaten Kupang, Nusa Tenggara Tim.",NUSA TENGGARA TIMUR,,Indonesia,,,,-10.190035,123.9975209,https://maps.google.com/?cid=0x0:0xe810fd62bb77ca87,
perumahan,Komplek perumahan,Meisya Mnanu,"R26R+QGG, Unnamed Road, Rabeka, Kec. Amarasi Tim., Kabupaten Kupang, Nusa Tenggara Tim.","Kabupaten Kupang, Nusa Tenggara Tim.",NUSA TENGGARA TIMUR,,Indonesia,,,,-10.1880588,124.0413426,https://maps.google.com/?cid=0x0:0x3aea2d36077fbdc6,
perumahan,Komplek perumahan,Rumah Yopi,"QW6W+JVR, Apren, Kec. Amarasi, Kabupaten Kupang, Nusa Tenggara Tim.","Kabupaten Kupang, Nusa Tenggara Tim.",NUSA TENGGARA TIMUR,,Indonesia,,,,-10.2383907,123.9471276,https://maps.google.com/?cid=0x0:0x9268bf8c34abf51e,
perumahan,Komplek perumahan,Kuannunuh,"RX7V+7F4, Oebesi, Kec. Amarasi Tim., Kabupaten Kupang, Nusa Tenggara Tim.","Kabupaten Kupang, Nusa Tenggara Tim.",NUSA TENGGARA TIMUR,,Indonesia,,,,-10.1868625,123.9937031,https://maps.google.com/?cid=0x0:0x1963411b33a6ec55,
perumahan,Perhimpunan Pengembang Perumahan,ARIS BAGAU,"QXWW+33Q, Oebesi, Kec. Amarasi Tim., Kabupaten Kupang, Nusa Tenggara Tim.","Kabupaten Kupang, Nusa Tenggara Tim.",NUSA TENGGARA TIMUR,,Indonesia,,,,-10.2047762,123.9952488,https://maps.google.com/?cid=0x0:0x28a94827582311ab,
perumahan,Pembangunan Perumahan,Nefomatani,"R2CW+JX7, nefomatani, Kec. Amarasi Tim., Kabupaten Kupang, Nusa Tenggara Tim.","Kabupaten Kupang, Nusa Tenggara Tim.",NUSA TENGGARA TIMUR,,Indonesia,,,,-10.1784625,124.0474219,https://maps.google.com/?cid=0x0:0x87de2fb4ea77fd49,
perumahan,Komplek perumahan,Apren muikmasik,"QW6W+JVR, Apren, Kec. Amarasi, Kabupaten Kupang, Nusa Tenggara Tim.","Kabupaten Kupang, Nusa Tenggara Tim.",NUSA TENGGARA TIMUR,,Indonesia,,,,-10.2383907,123.9471276,https://maps.google.com/?cid=0x0:0xfbb2b169456dc91c,
perumahan,Pembangunan Perumahan,Evi Home,"R235+294, Oebesi, Kec. Amarasi Tim., Kabupaten Kupang, Nusa Tenggara Tim.","Kabupaten Kupang, Nusa Tenggara Tim.",NUSA TENGGARA TIMUR,,Indonesia,,,,-10.1974824,124.0084395,https://maps.google.com/?cid=0x0:0xf5c2e0771e181cd0,
perumahan,Pembangunan Perumahan,Evi Lidia,"R26Q+JXQ, RT.1/RW.1, Desa oebsi, Kec. Amarasi Tim., Kabupaten Kupang, Nusa Tenggara Tim.","Kabupaten Kupang, Nusa Tenggara Tim.",NUSA TENGGARA TIMUR,,Indonesia,,,,-10.1884143,124.0399714,https://maps.google.com/?cid=0x0:0xb1edffc28249de58,
perumahan,perumahan,Alin Ora,"R3H9+RXP, Rabeka, Kec. Amarasi Tim., Kabupaten Kupang, Nusa Tenggara Tim.","Kabupaten Kupang, Nusa Tenggara Tim.",NUSA TENGGARA TIMUR,,Indonesia,,,,-10.1711055,124.0703309,https://maps.google.com/?cid=0x0:0xe8760e6b16a23927,
perumahan,Komplek perumahan,Rumah Kel. Atabikil,"QWQF+5W4, Oenoni, Kec. Amarasi, Kabupaten Kupang, Nusa Tenggara Tim.","Kabupaten Kupang, Nusa Tenggara Tim.",NUSA TENGGARA TIMUR,,Indonesia,,,,-10.2121175,123.9248222,https://maps.google.com/?cid=0x0:0x9808f6c11e055a70,
perumahan,Komplek perumahan,Yamres saebesi,"QW6W+JVR, Apren, Kec. Amarasi, Kabupaten Kupang, Nusa Tenggara Tim.","Kabupaten Kupang, Nusa Tenggara Tim.",NUSA TENGGARA TIMUR,,Indonesia,,,,-10.2383907,123.9471276,https://maps.google.com/?cid=0x0:0xfd0665eb590db06b,
perumahan,Komplek perumahan,Am Mari Home,"QWGH+R23, Apren, Kec. Amarasi, Kabupaten Kupang, Nusa Tenggara Tim.","Kabupaten Kupang, Nusa Tenggara Tim.",NUSA TENGGARA TIMUR,,Indonesia,,,,-10.2229854,123.9275419,https://maps.google.com/?cid=0x0:0xb1231b8902dd5903,
perumahan,Pembangunan Perumahan,Afor,"R3JH+9C, Enoraen, Kec. Amarasi Tim., Kabupaten Kupang, Nusa Tenggara Tim.","Kabupaten Kupang, Nusa Tenggara Tim.",NUSA TENGGARA TIMUR,,Indonesia,,,,-10.1690509,124.0785568,https://maps.google.com/?cid=0x0:0x3c71ecd853042f86,
perumahan,Komplek perumahan,"Rorok Family, Home Stay","Q26C+WV, Pakubaun, Kec. Amarasi Tim., Kabupaten Kupang, Nusa Tenggara Tim.","Kabupaten Kupang, Nusa Tenggara Tim.",NUSA TENGGARA TIMUR,,Indonesia,,,,-10.2377578,124.022228,https://maps.google.com/?cid=0x0:0x9171c92c33965603,
perumahan,Komplek perumahan,Buka,"QWQF+5W4, Oenoni, Kec. Amarasi, Kabupaten Kupang, Nusa Tenggara Tim.","Kabupaten Kupang, Nusa Tenggara Tim.",NUSA TENGGARA TIMUR,,Indonesia,,,,-10.2121175,123.9248222,https://maps.google.com/?cid=0x0:0x387aced5432bbb7d,
perumahan,Komplek perumahan,Lukas manihing,"RW3R+PCF, Oenoni II, Kec. Amarasi, Kabupaten Kupang, Nusa Tenggara Tim.","Kabupaten Kupang, Nusa Tenggara Tim.",NUSA TENGGARA TIMUR,,Indonesia,82147240262.0,,,-10.1973745,123.9415308,https://maps.google.com/?cid=0x0:0xb440d8ebc492dd38,
perumahan,Toko,ARVAN SANJAYA,"QXQW+V4C, Oebesi, Kec. Amarasi Tim., Kabupaten Kupang, Nusa Tenggara Tim.","Kabupaten Kupang, Nusa Tenggara Tim.",NUSA TENGGARA TIMUR,,Indonesia,,,,-10.2102784,123.9952531,https://maps.google.com/?cid=0x0:0xf1e96b5dae7a2849,
perumahan,Komplek perumahan,Rumah bapa Nehemia,"V22X+433, Pathau, Kec. Amabi Oefeto Tim., Kabupaten Kupang, Nusa Tenggara Tim.","Kabupaten Kupang, Nusa Tenggara Tim.",NUSA TENGGARA TIMUR,,Indonesia,,,,-10.1497495,124.0476843,https://maps.google.com/?cid=0x0:0x7a202bf84d94d099,
perumahan,perumahan,JUSTINUS KAWANGKO,"QWRP+8VJ, Oenoni, Kec. Amarasi, Kabupaten Kupang, Nusa Tenggara Tim.","Kabupaten Kupang, Nusa Tenggara Tim.",NUSA TENGGARA TIMUR,,Indonesia,,,,-10.2091528,123.9371262,https://maps.google.com/?cid=0x0:0x80594cf8f6ef3b9a,
perumahan,perumahan,Kec. Amabi Oefeto Tim.,"Kabupaten Kupang, Nusa Tenggara Tim.","Kabupaten Kupang, Nusa Tenggara Tim.",NUSA TENGGARA TIMUR,,Indonesia,,,,-10.0873901,124.1180524,https://maps.google.com/?cid=0x0:0x2bf877a32d0b46c2,
perumahan,Komplek perumahan,Perumahan Pitoby,"RH63+P49 Perumahan Pitoby, Blk. DC Jl. Penkase No.28B, Alak, Kec. Alak, Kota Kupang, Nusa Tenggara Tim.","Kota Kupang, Nusa Tenggara Tim.",NUSA TENGGARA TIMUR,,Indonesia,,,,-10.1893671,123.5519823,https://maps.google.com/?cid=0x0:0xd27a5582ee8d6fb8,
perumahan,Komplek perumahan,Perumahan pitoby,"Perumahan pitoby, Bolck, Blk. AC No.191, Alak, Kec. Alak, Kota Kupang, Nusa Tenggara Tim.","Kota Kupang, Nusa Tenggara Tim.",NUSA TENGGARA TIMUR,,Indonesia,,,,-10.1842884,123.5519618,https://maps.google.com/?cid=0x0:0x36f2caaebd83b6e2,
perumahan,Komplek perumahan,Rumah bapa Nehemia,"V22X+433, Pathau, Kec. Amabi Oefeto Tim., Kabupaten Kupang, Nusa Tenggara Tim.","Kabupaten Kupang, Nusa Tenggara Tim.",NUSA TENGGARA TIMUR,,Indonesia,,,,-10.1497495,124.0476843,https://maps.google.com/?cid=0x0:0x7a202bf84d94d099,
perumahan,Komplek perumahan,Oemofa,"W498+F2V, Oemofa, Kec. Amabi Oefeto Tim., Kabupaten Kupang, Nusa Tenggara Tim.","Kabupaten Kupang, Nusa Tenggara Tim.",NUSA TENGGARA TIMUR,,Indonesia,,,,-10.082108,124.114591,https://maps.google.com/?cid=0x0:0xc1b526e1fc56abcb,
perumahan,Pembangunan Perumahan,Mateus pesa,"W4G8+53P, Oemofa, Kec. Amabi Oefeto Tim., Kabupaten Kupang, Nusa Tenggara Tim.","Kabupaten Kupang, Nusa Tenggara Tim.",NUSA TENGGARA TIMUR,,Indonesia,,,,-10.0745284,124.1152067,https://maps.google.com/?cid=0x0:0x9f05882395506059,
perumahan,Komplek perumahan,Oekero,"R3V2+5X6, Oekero, dusun 3, Pathau, Kec. Amabi Oefeto Tim., Kabupaten Kupang, Nusa Tenggara Tim.","Kabupaten Kupang, Nusa Tenggara Tim.",NUSA TENGGARA TIMUR,,Indonesia,,,,-10.1570909,124.0523802,https://maps.google.com/?cid=0x0:0xebfa41d94804fb83,
perumahan,Komplek perumahan,Limdes Tainmeta,"R3V2+5X6, OEKERO, Pathau, Kec. Amabi Oefeto Tim., Kabupaten Kupang, Nusa Tenggara Tim.","Kabupaten Kupang, Nusa Tenggara Tim.",NUSA TENGGARA TIMUR,,Indonesia,,,,-10.1570909,124.0523802,https://maps.google.com/?cid=0x0:0xbf42e62aba255750,
perumahan,Pembangunan Perumahan,Orni Teuf,"W3FR+24, Nunmafo, Kec. Amabi Oefeto Tim., Kabupaten Kupang, Nusa Tenggara Tim.","Kabupaten Kupang, Nusa Tenggara Tim.",NUSA TENGGARA TIMUR,,Indonesia,,,,-10.0774666,124.0903065,https://maps.google.com/?cid=0x0:0xf3c719a749260dde,
perumahan,Tempat Ibadah,"Nisum Niunbaun,Amabi Oefeto kab. Kupang","VX4H+7Q, Niunbaun, Kec. Amabi Oefeto, Kabupaten Kupang, Nusa Tenggara Tim.","Kabupaten Kupang, Nusa Tenggara Tim.",NUSA TENGGARA TIMUR,,Indonesia,,,,-10.144292,123.979465,https://maps.google.com/?cid=0x0:0x913d0922d98c39f,
perumahan,Komplek perumahan,BENYA lasimai,"V4H6+MV4, Oemofa, Kec. Amabi Oefeto Tim., Kabupaten Kupang, Nusa Tenggara Tim.","Kabupaten Kupang, Nusa Tenggara Tim.",NUSA TENGGARA TIMUR,,Indonesia,,,,-10.1208656,124.1121975,https://maps.google.com/?cid=0x0:0x8ea21e478ca32f53,
perumahan,Perhimpunan Pengembang Perumahan,Arman,"V4H7+H9Q, Muke, Kec. Amabi Oefeto Tim., Kabupaten Kupang, Nusa Tenggara Tim.","Kabupaten Kupang, Nusa Tenggara Tim.",NUSA TENGGARA TIMUR,,Indonesia,,,,-10.1210388,124.1134913,https://maps.google.com/?cid=0x0:0x9daa0e2d1521aff2,
perumahan,Komplek perumahan,Istefanus Boimau A1,"W498+F2V, Oemofa, Kec. Amabi Oefeto Tim., Kabupaten Kupang, Nusa Tenggara Tim.","Kabupaten Kupang, Nusa Tenggara Tim.",NUSA TENGGARA TIMUR,,Indonesia,,,,-10.0812803,124.116261,https://maps.google.com/?cid=0x0:0xad462c4d1e5bf768,
perumahan,Perhimpunan Pengembang Perumahan,Rumah simson Tobe,"W4FP+86, Enolanan, Kec. Amabi Oefeto Tim., Kabupaten Kupang, Nusa Tenggara Tim.","Kabupaten Kupang, Nusa Tenggara Tim.",NUSA TENGGARA TIMUR,,Indonesia,,,,-10.0766747,124.1355934,https://maps.google.com/?cid=0x0:0xac2d82c4ef94bb1e,
perumahan,Komplek perumahan,Musa Taneo,"W486+554, Oemofa, Kec. Amabi Oefeto Tim., Kabupaten Kupang, Nusa Tenggara Tim.","Kabupaten Kupang, Nusa Tenggara Tim.",NUSA TENGGARA TIMUR,,Indonesia,,,,-10.0846001,124.110444,https://maps.google.com/?cid=0x0:0x2ec3359f8b4e56aa,
perumahan,Pembangunan Perumahan,Kabupaten kupang,"W48G+R5R, Oemofa, Kec. Amabi Oefeto Tim., Kabupaten Kupang, Nusa Tenggara Tim.","Kabupaten Kupang, Nusa Tenggara Tim.",NUSA TENGGARA TIMUR,,Indonesia,,,,-10.0828864,124.1253751,https://maps.google.com/?cid=0x0:0x3de49056a36006bc,
perumahan,Komplek perumahan,Jhon loemnanu,"R2VR+PH, Pathau, Kec. Amabi Oefeto Tim., Kabupaten Kupang, Nusa Tenggara Tim.","Kabupaten Kupang, Nusa Tenggara Tim.",NUSA TENGGARA TIMUR,,Indonesia,,,,-10.1556897,124.0414086,https://maps.google.com/?cid=0x0:0xf0b6bb1b5be3828a,
perumahan,Komplek perumahan,Rumah selvi,"V2H5+Q9P, Oeniko, Kec. Amabi Oefeto Tim., Kabupaten Kupang, Nusa Tenggara Tim.","Kabupaten Kupang, Nusa Tenggara Tim.",NUSA TENGGARA TIMUR,,Indonesia,,,,-10.1205499,124.0084395,https://maps.google.com/?cid=0x0:0x311be217296d71f4,
perumahan,Komplek perumahan,Popy Manggoa,"W35C+8C7, Oenunutono, Kec. Amabi Oefeto Tim., Kabupaten Kupang, Nusa Tenggara Tim.","Kabupaten Kupang, Nusa Tenggara Tim.",NUSA TENGGARA TIMUR,,Indonesia,,,,-10.0917734,124.0709937,https://maps.google.com/?cid=0x0:0x7a352abb1aed37a6,
perumahan,Komplek perumahan,Angga mutis,"W3CJ+J85, Nunmafo, Kec. Amabi Oefeto Tim., Kabupaten Kupang, Nusa Tenggara Tim.","Kabupaten Kupang, Nusa Tenggara Tim.",NUSA TENGGARA TIMUR,,Indonesia,,,,-10.0784848,124.080846,https://maps.google.com/?cid=0x0:0x3383d4c2ac2291d7,
perumahan,Komplek perumahan,Oehaen,"W48G+R5R, Oemofa, Kec. Amabi Oefeto Tim., Kabupaten Kupang, Nusa Tenggara Tim.","Kabupaten Kupang, Nusa Tenggara Tim.",NUSA TENGGARA TIMUR,,Indonesia,,,,-10.0828864,124.1253751,https://maps.google.com/?cid=0x0:0x4133ec59b5aedf09,
perumahan,Komplek perumahan,Jhon Badus,"R2VR+PH, Pathau, Kec. Amabi Oefeto Tim., Kabupaten Kupang, Nusa Tenggara Tim.","Kabupaten Kupang, Nusa Tenggara Tim.",NUSA TENGGARA TIMUR,,Indonesia,,,,-10.1556897,124.0414086,https://maps.google.com/?cid=0x0:0x8f51e32233ac46a0,
perumahan,Komplek perumahan,Oemofa GG As r,"W48G+R4X, Oemofa, Kec. Amabi Oefeto Tim., Kabupaten Kupang, Nusa Tenggara Tim.","Kabupaten Kupang, Nusa Tenggara Tim.",NUSA TENGGARA TIMUR,,Indonesia,,,,-10.0828908,124.1253748,https://maps.google.com/?cid=0x0:0xf2984723bd82ca01,
perumahan,Komplek perumahan,"Kampung Bimous, Kecamatan Amarasi Timur","R2C6+X5M, Oebesi, Kec. Amarasi Tim., Kabupaten Kupang, Nusa Tenggara Tim.","Kabupaten Kupang, Nusa Tenggara Tim.",NUSA TENGGARA TIMUR,,Indonesia,,,,-10.1775363,124.0104336,https://maps.google.com/?cid=0x0:0xae43eb4f661a2001,
perumahan,perumahan,Kec. Amfoang Bar. Daya,"Kabupaten Kupang, Nusa Tenggara Tim.","Kabupaten Kupang, Nusa Tenggara Tim.",NUSA TENGGARA TIMUR,,Indonesia,,,,-9.6609814,123.6813389,https://maps.google.com/?cid=0x0:0x1fdc15a48159a2bc,
perumahan,perumahan,Rumah,"7QJJ+97, Nefoneut, Kec. Amfoang Bar. Daya, Kabupaten Kupang, Nusa Tenggara Tim.","Kabupaten Kupang, Nusa Tenggara Tim.",NUSA TENGGARA TIMUR,,Indonesia,,,,-9.7190528,123.7806357,https://maps.google.com/?cid=0x0:0xc7e089d63e6dd47f,
perumahan,Komplek perumahan,Nano Sobeukum,"9M6P+39, Bioba Barutaen, Kec. Amfoang Bar. Daya, Kabupaten Kupang, Nusa Tenggara Tim.","Kabupaten Kupang, Nusa Tenggara Tim.",NUSA TENGGARA TIMUR,,Indonesia,81315930336.0,,,-9.639713,123.685543,https://maps.google.com/?cid=0x0:0x1a4d9c430a5a9e2,
perumahan,Pembangunan Perumahan,Manubelon,"8MMM+46G, Manubelon, Kec. Amfoang Bar. Daya, Kabupaten Kupang, Nusa Tenggara Tim.","Kabupaten Kupang, Nusa Tenggara Tim.",NUSA TENGGARA TIMUR,,Indonesia,,,,-9.6671943,123.6830884,https://maps.google.com/?cid=0x0:0x9f41638e0caa5bd4,
perumahan,Komplek perumahan,Pertigaan Fatuael,"8M8V+GCM, Manubelon, Kec. Amfoang Bar. Daya, Kabupaten Kupang, Nusa Tenggara Tim.","Kabupaten Kupang, Nusa Tenggara Tim.",NUSA TENGGARA TIMUR,,Indonesia,82146762943.0,,,-9.6836513,123.6935543,https://maps.google.com/?cid=0x0:0x7145d2ea1f81dfdf,
perumahan,Komplek perumahan,Rumah Bertho,"8P49+R7Q, Manubelon, Kec. Amfoang Bar. Daya, Kabupaten Kupang, Nusa Tenggara Tim.","Kabupaten Kupang, Nusa Tenggara Tim.",NUSA TENGGARA TIMUR,,Indonesia,,,,-9.6929213,123.7182415,https://maps.google.com/?cid=0x0:0xbdb69cf7c08f758d,
perumahan,Komplek perumahan,BJKF,"8M3Q+2P, Manubelon, Kec. Amfoang Bar. Daya, Kabupaten Kupang, Nusa Tenggara Tim.","Kabupaten Kupang, Nusa Tenggara Tim.",NUSA TENGGARA TIMUR,,Indonesia,,,,-9.6974254,123.6893121,https://maps.google.com/?cid=0x0:0xd568b26ba278efc3,
perumahan,Komplek perumahan,Oelfaub,"7RW7+H9, Letkole, Kec. Amfoang Bar. Daya, Kabupaten Kupang, Nusa Tenggara Tim.","Kabupaten Kupang, Nusa Tenggara Tim.",NUSA TENGGARA TIMUR,,Indonesia,,,,-9.7036197,123.813388,https://maps.google.com/?cid=0x0:0xae030c6a9a3f6a42,
perumahan,Komplek perumahan,Rumah Pribadi,"9M6P+39, Bioba Barutaen, Kec. Amfoang Bar. Daya, Kabupaten Kupang, Nusa Tenggara Tim.","Kabupaten Kupang, Nusa Tenggara Tim.",NUSA TENGGARA TIMUR,,Indonesia,,,,-9.6398125,123.6859375,https://maps.google.com/?cid=0x0:0x35253be50de59cf5,
perumahan,Pembangunan Perumahan,Pertigaan Usakneon,"8MQJ+FHP, Manubelon, Kec. Amfoang Bar. Daya, Kabupaten Kupang, Nusa Tenggara Tim.","Kabupaten Kupang, Nusa Tenggara Tim.",NUSA TENGGARA TIMUR,,Indonesia,,,,-9.6612771,123.6814501,https://maps.google.com/?cid=0x0:0x396dcf59d0e9fbd1,
perumahan,Komplek perumahan,USAKNE'ON,"8P49+R7Q, Manubelon, Kec. Amfoang Bar. Daya, Kabupaten Kupang, Nusa Tenggara Tim.","Kabupaten Kupang, Nusa Tenggara Tim.",NUSA TENGGARA TIMUR,,Indonesia,,,,-9.6929213,123.7182415,https://maps.google.com/?cid=0x0:0x85631c78d0141bf5,
perumahan,Komplek perumahan,Klaob,"9M2Q+64, Manubelon, Kec. Amfoang Bar. Daya, Kabupaten Kupang, Nusa Tenggara Tim.","Kabupaten Kupang, Nusa Tenggara Tim.",NUSA TENGGARA TIMUR,,Indonesia,,,,-9.6494402,123.6878596,https://maps.google.com/?cid=0x0:0xca19de9eb45b3fa6,
perumahan,Komplek perumahan,Rumah Junewer Fomeni,"CQ3Q+86G, Timau, Kec. Amfoang Bar. Laut, Kabupaten Kupang, Nusa Tenggara Tim.","Kabupaten Kupang, Nusa Tenggara Tim.",NUSA TENGGARA TIMUR,,Indonesia,,,,-9.5966762,123.7880837,https://maps.google.com/?cid=0x0:0x915ec5626d082457,
perumahan,Kantor Pemerintahan Daerah,Desa Nefoneut,"7Q4P+R47, RT.004/RW.002, Nefoneut, Kec. Amfoang Bar. Daya, Kabupaten Kupang, Nusa Tenggara Tim.","Kabupaten Kupang, Nusa Tenggara Tim.",NUSA TENGGARA TIMUR,,Indonesia,,,,-9.7429558,123.785291,https://maps.google.com/?cid=0x0:0xf063d253da02c3a3,
perumahan,perumahan,Tomy Benu,"7RW4+P6, Letkole, Kec. Amfoang Bar. Daya, Kabupaten Kupang, Nusa Tenggara Tim.","Kabupaten Kupang, Nusa Tenggara Tim.",NUSA TENGGARA TIMUR,,Indonesia,,,,-9.703172,123.80552,https://maps.google.com/?cid=0x0:0x1e3079bd56bbe6e8,
perumahan,Komplek perumahan,TOMY,"8R87+V6, Letkole, Kec. Amfoang Bar. Daya, Kabupaten Kupang, Nusa Tenggara Tim.","Kabupaten Kupang, Nusa Tenggara Tim.",NUSA TENGGARA TIMUR,,Indonesia,,,,-9.6828353,123.8130705,https://maps.google.com/?cid=0x0:0x557e52aecc3118f9,
perumahan,Komplek perumahan,ESAU OEMATAN,"9MGQ+4VP, Bioba Barutaen, Kec. Amfoang Bar. Daya, Kabupaten Kupang, Nusa Tenggara Tim.","Kabupaten Kupang, Nusa Tenggara Tim.",NUSA TENGGARA TIMUR,,Indonesia,,,,-9.6246709,123.6897083,https://maps.google.com/?cid=0x0:0xee153b7973c543b8,
perumahan,perumahan,Melkisedek Oemolos,"9M6P+4G6, Bioba Barutaen, Kec. Amfoang Bar. Daya, Kabupaten Kupang, Nusa Tenggara Tim.","Kabupaten Kupang, Nusa Tenggara Tim.",NUSA TENGGARA TIMUR,,Indonesia,,,,-9.6397171,123.6862707,https://maps.google.com/?cid=0x0:0xd721b8a88938b567,
perumahan,Komplek perumahan,Yosafat kones,"8MHM+GG, Manubelon, Kec. Amfoang Bar. Daya, Kabupaten Kupang, Nusa Tenggara Tim.","Kabupaten Kupang, Nusa Tenggara Tim.",NUSA TENGGARA TIMUR,,Indonesia,,,,-9.6712365,123.6837903,https://maps.google.com/?cid=0x0:0x9bca088fd11bac92,
perumahan,perumahan,Yetri Noel,"8MVJ+H29, Manubelon, Kec. Amfoang Bar. Daya, Kabupaten Kupang, Nusa Tenggara Tim.","Kabupaten Kupang, Nusa Tenggara Tim.",NUSA TENGGARA TIMUR,,Indonesia,,,,-9.6560938,123.6801234,https://maps.google.com/?cid=0x0:0xcd4432befd6ee3cc,
perumahan,Komplek perumahan,Opa Sobe,"9M6P+39, Bioba Barutaen, Kec. Amfoang Bar. Daya, Kabupaten Kupang, Nusa Tenggara Tim.","Kabupaten Kupang, Nusa Tenggara Tim.",NUSA TENGGARA TIMUR,,Indonesia,,,,-9.6398374,123.6858801,https://maps.google.com/?cid=0x0:0x5e4832adee5eae26,
perumahan,Komplek perumahan,Rumah BP IBA BELLA,"9PPR+F65, Soliu, Kec. Amfoang Bar. Laut, Kabupaten Kupang, Nusa Tenggara Tim.","Kabupaten Kupang, Nusa Tenggara Tim.",NUSA TENGGARA TIMUR,,Indonesia,,,,-9.6138556,123.7405967,https://maps.google.com/?cid=0x0:0xddd24abba2b1b23e,
perumahan,perumahan,"Oelfatu, kabupaten Kupang, Nusa tenggara Timur, Indonesia","CWMQ+F3, Oelfatu, Kec. Amfoang Bar. Laut, Kabupaten Kupang, Nusa Tenggara Tim.","Kabupaten Kupang, Nusa Tenggara Tim.",NUSA TENGGARA TIMUR,,Indonesia,,,,-9.56626,123.937707,https://maps.google.com/?cid=0x0:0xc03718da9f321ec5,
perumahan,perumahan,Kec. Amfoang Bar. Laut,"Kabupaten Kupang, Nusa Tenggara Tim.","Kabupaten Kupang, Nusa Tenggara Tim.",NUSA TENGGARA TIMUR,,Indonesia,,,,-9.5657493,123.7567726,https://maps.google.com/?cid=0x0:0xda8148623839fa68,
perumahan,Komplek perumahan,Perumahan Poto,"CQ52+67, Saukibe, Kec. Amfoang Bar. Laut, Kabupaten Kupang, Nusa Tenggara Tim.","Kabupaten Kupang, Nusa Tenggara Tim.",NUSA TENGGARA TIMUR,,Indonesia,,,,-9.5920909,123.750977,https://maps.google.com/?cid=0x0:0x773a3e93123b8538,
perumahan,Komplek perumahan,Rumah Mikhael Banu,"CQJ5+R6W, Oelfatu, Kec. Amfoang Bar. Laut, Kabupaten Kupang, Nusa Tenggara Tim.","Kabupaten Kupang, Nusa Tenggara Tim.",NUSA TENGGARA TIMUR,,Indonesia,,,,-9.5678967,123.7580773,https://maps.google.com/?cid=0x0:0xa0af1c27b15da06a,
perumahan,perumahan,"RMH,maeci manoh","CR72+29, Honuk, Kec. Amfoang Bar. Laut, Kabupaten Kupang, Nusa Tenggara Tim.","Kabupaten Kupang, Nusa Tenggara Tim.",NUSA TENGGARA TIMUR,,Indonesia,,,,-9.5874455,123.8009093,https://maps.google.com/?cid=0x0:0x4e6c5efd41b1ba06,
perumahan,Komplek perumahan,Rumah Dea Manuleus,"9QX6+6PM, Saukibe, Kec. Amfoang Bar. Laut, Kabupaten Kupang, Nusa Tenggara Tim.","Kabupaten Kupang, Nusa Tenggara Tim.",NUSA TENGGARA TIMUR,,Indonesia,,,,-9.6019083,123.7617913,https://maps.google.com/?cid=0x0:0xd0bb3632bf690ecb,
perumahan,Perhimpunan Pengembang Perumahan,Wirausaha Muda,"Saukibe, Kec. Amfoang Bar. Laut, Kabupaten Kupang, Nusa Tenggara Tim. 85635","Kec. Amfoang Bar. Laut, Kabupaten Kupang",NUSA TENGGARA TIMUR,85635.0,Indonesia,,,,-9.591997,123.7514742,https://maps.google.com/?cid=0x0:0xd0569af048a7ea2f,
perumahan,Komplek perumahan,Rumah BP IBA BELLA,"9PPR+F65, Soliu, Kec. Amfoang Bar. Laut, Kabupaten Kupang, Nusa Tenggara Tim.","Kabupaten Kupang, Nusa Tenggara Tim.",NUSA TENGGARA TIMUR,,Indonesia,,,,-9.6138556,123.7405967,https://maps.google.com/?cid=0x0:0xddd24abba2b1b23e,
perumahan,perumahan,Om Ca,"9RWC+J92, Faumes, Kec. Amfoang Bar. Laut, Kabupaten Kupang, Nusa Tenggara Tim.","Kabupaten Kupang, Nusa Tenggara Tim.",NUSA TENGGARA TIMUR,,Indonesia,,,,-9.604172,123.821947,https://maps.google.com/?cid=0x0:0x89af9eba5cd51073,
perumahan,Komplek perumahan,soliu,"CQV9+8VH, Soliu, Kec. Amfoang Bar. Laut, Kabupaten Kupang, Nusa Tenggara Tim.","Kabupaten Kupang, Nusa Tenggara Tim.",NUSA TENGGARA TIMUR,,Indonesia,,,,-9.5566774,123.7697467,https://maps.google.com/?cid=0x0:0xbe4b3a4d4cb54eb7,
perumahan,Komplek perumahan,Refin house,"CQ39+H6M, Saukibe, Kec. Amfoang Bar. Laut, Kabupaten Kupang, Nusa Tenggara Tim.","Kabupaten Kupang, Nusa Tenggara Tim.",NUSA TENGGARA TIMUR,,Indonesia,,,,-9.596497,123.7671393,https://maps.google.com/?cid=0x0:0x479c1ffd1d7f53e0,
perumahan,Komplek perumahan,Rumah Ardy,"CR33+QF, Timau, Kec. Amfoang Bar. Laut, Kabupaten Kupang, Nusa Tenggara Tim.","Kabupaten Kupang, Nusa Tenggara Tim.",NUSA TENGGARA TIMUR,,Indonesia,,,,-9.5955694,123.8036462,https://maps.google.com/?cid=0x0:0x652846947892956b,
perumahan,Komplek perumahan,"Rumah Azel Nofu, Oelabu","CQ5R+FF, Timau, Kec. Amfoang Bar. Laut, Kabupaten Kupang, Nusa Tenggara Tim.","Kabupaten Kupang, Nusa Tenggara Tim.",NUSA TENGGARA TIMUR,,Indonesia,,,,-9.5913813,123.7912578,https://maps.google.com/?cid=0x0:0x1db12a4ced1921c4,
perumahan,Komplek perumahan,Mausak,"CP25+9R, Soliu, Kec. Amfoang Bar. Laut, Kabupaten Kupang, Nusa Tenggara Tim.","Kabupaten Kupang, Nusa Tenggara Tim.",NUSA TENGGARA TIMUR,,Indonesia,,,,-9.599067,123.709591,https://maps.google.com/?cid=0x0:0xa043ad9df31c0caf,
perumahan,Komplek perumahan,Yos Raga,"CQV9+8V, Soliu, Kec. Amfoang Bar. Laut, Kabupaten Kupang, Nusa Tenggara Tim.","Kabupaten Kupang, Nusa Tenggara Tim.",NUSA TENGGARA TIMUR,,Indonesia,,,,-9.5566809,123.769744,https://maps.google.com/?cid=0x0:0xd6e9a1b8a60e9d8f,
perumahan,Komplek perumahan,Rumah moke Amfoang,"CVRW+JQF, Fatunaus, Kec. Amfoang Utara, Kabupaten Kupang, Nusa Tenggara Tim.","Kabupaten Kupang, Nusa Tenggara Tim.",NUSA TENGGARA TIMUR,,Indonesia,,,,-9.5584279,123.8969328,https://maps.google.com/?cid=0x0:0xe647fcefe2461347,
perumahan,Pembangunan Perumahan,Rumah Yosep,"CQG6+33G, Oelfatu, Kec. Amfoang Bar. Laut, Kabupaten Kupang, Nusa Tenggara Tim.","Kabupaten Kupang, Nusa Tenggara Tim.",NUSA TENGGARA TIMUR,,Indonesia,,,,-9.5748196,123.7602098,https://maps.google.com/?cid=0x0:0x686a9ca4fa52c980,
perumahan,Komplek perumahan,Rumah Otnial Tamelab,"CQM4+C6G, Oelfatu, Kec. Amfoang Bar. Laut, Kabupaten Kupang, Nusa Tenggara Tim.","Kabupaten Kupang, Nusa Tenggara Tim.",NUSA TENGGARA TIMUR,,Indonesia,,,,-9.5664475,123.7555636,https://maps.google.com/?cid=0x0:0xe1187ca80e8c3fbc,
perumahan,Perhimpunan Pengembang Perumahan,Nafan Taemnanu,"CQ3R+67, Timau, Kec. Amfoang Bar. Laut, Kabupaten Kupang, Nusa Tenggara Tim.","Kabupaten Kupang, Nusa Tenggara Tim.",NUSA TENGGARA TIMUR,,Indonesia,,,,-9.5969995,123.7906918,https://maps.google.com/?cid=0x0:0x180ee1dda0172a38,
perumahan,perumahan,Rumah,"7QJJ+97, Nefoneut, Kec. Amfoang Bar. Daya, Kabupaten Kupang, Nusa Tenggara Tim.","Kabupaten Kupang, Nusa Tenggara Tim.",NUSA TENGGARA TIMUR,,Indonesia,,,,-9.7190528,123.7806357,https://maps.google.com/?cid=0x0:0xc7e089d63e6dd47f,
perumahan,perumahan,Rumah Marlin Fomeni,"CQ3P+WR, Timau, Kec. Amfoang Bar. Laut, Kabupaten Kupang, Nusa Tenggara Tim.","Kabupaten Kupang, Nusa Tenggara Tim.",NUSA TENGGARA TIMUR,,Indonesia,,,,-9.5954814,123.7871157,https://maps.google.com/?cid=0x0:0xa7e1568b90e7c2ce,
perumahan,Perhimpunan Pengembang Perumahan,Kampung PO'AN,"9WJP+W4, Leloboko, Kec. Amfoang Sel., Kabupaten Kupang, Nusa Tenggara Tim.","Kabupaten Kupang, Nusa Tenggara Tim.",NUSA TENGGARA TIMUR,,Indonesia,,,,-9.617691,123.935295,https://maps.google.com/?cid=0x0:0xc90d5e29a5996bde,
perumahan,Komplek perumahan,Rumah Dea Mey,"CQ52+73M, Saukibe, Kec. Amfoang Bar. Laut, Kabupaten Kupang, Nusa Tenggara Tim.","Kabupaten Kupang, Nusa Tenggara Tim.",NUSA TENGGARA TIMUR,,Indonesia,,,,-9.5917762,123.7501751,https://maps.google.com/?cid=0x0:0x49c1ff217b40d0d7,
perumahan,perumahan,Rumah Yermel Tamelab,"CQ3P+WR, Timau, Kec. Amfoang Bar. Laut, Kabupaten Kupang, Nusa Tenggara Tim.","Kabupaten Kupang, Nusa Tenggara Tim.",NUSA TENGGARA TIMUR,,Indonesia,,,,-9.5954953,123.7861646,https://maps.google.com/?cid=0x0:0x90d18729394affc0,
perumahan,perumahan,Kec. Semau Sel.,"Kabupaten Kupang, Nusa Tenggara Tim.","Kabupaten Kupang, Nusa Tenggara Tim.",NUSA TENGGARA TIMUR,,Indonesia,,,,-10.2714559,123.349342,https://maps.google.com/?cid=0x0:0x8a6e41268e3d5752,
perumahan,Pembangunan Perumahan,Rumah Deki Snait,"Uiboa, Kec. Semau Sel., Kabupaten Kupang, Nusa Tenggara Tim.","Kabupaten Kupang, Nusa Tenggara Tim.",NUSA TENGGARA TIMUR,,Indonesia,,,,-10.2600249,123.3498932,https://maps.google.com/?cid=0x0:0x24b044c409f9edaa,
perumahan,Komplek perumahan,Rumah Eikh,"M9XH+FVV, Akle, Kec. Semau Sel., Kabupaten Kupang, Nusa Tenggara Tim.","Kabupaten Kupang, Nusa Tenggara Tim.",NUSA TENGGARA TIMUR,,Indonesia,,,,-10.3016518,123.3795732,https://maps.google.com/?cid=0x0:0xb11ef07252ce875f,
perumahan,Balai masyarakat,Semua selatan,"M9XJ+67C, Akle, Kec. Semau Sel., Kabupaten Kupang, Nusa Tenggara Tim.","Kabupaten Kupang, Nusa Tenggara Tim.",NUSA TENGGARA TIMUR,,Indonesia,,,,-10.3019375,123.3806406,https://maps.google.com/?cid=0x0:0x632dda9f17584e26,
perumahan,Komplek perumahan,Astin.R,"M9WC+75, Akle, Kec. Semau Sel., Kabupaten Kupang, Nusa Tenggara Tim.","Kabupaten Kupang, Nusa Tenggara Tim.",NUSA TENGGARA TIMUR,,Indonesia,81353948163.0,,,-10.3042669,123.3701074,https://maps.google.com/?cid=0x0:0x7747b4a0f6772acb,
perumahan,Rumah Kayu,Rumah mardi Lilo,"P9WV+795, Uitiuh Ana, Kec. Semau Sel., Kabupaten Kupang, Nusa Tenggara Tim.","Kabupaten Kupang, Nusa Tenggara Tim.",NUSA TENGGARA TIMUR,,Indonesia,,,,-10.2543671,123.3934885,https://maps.google.com/?cid=0x0:0x56a7d960d59dcc99,
perumahan,Komplek perumahan,Rumah El Ttma,"P95W+G3, Uitiuh Ana, Kec. Semau Sel., Kabupaten Kupang, Nusa Tenggara Tim.","Kabupaten Kupang, Nusa Tenggara Tim.",NUSA TENGGARA TIMUR,,Indonesia,82145180799.0,,,-10.2911264,123.3952071,https://maps.google.com/?cid=0x0:0xe66390f68f9dfda1,
perumahan,Komplek perumahan,JT HOME,"P95V+PH9, Uitiuh Ana, Kec. Semau Sel., Kabupaten Kupang, Nusa Tenggara Tim.","Kabupaten Kupang, Nusa Tenggara Tim.",NUSA TENGGARA TIMUR,,Indonesia,81239436681.0,,,-10.2907009,123.3940904,https://maps.google.com/?cid=0x0:0x65b1cf52da8879ac,
perumahan,Komplek perumahan,Jeven home,"P96V+P35, Uitiuh Ana, Kec. Semau Sel., Kabupaten Kupang, Nusa Tenggara Tim.","Kabupaten Kupang, Nusa Tenggara Tim.",NUSA TENGGARA TIMUR,,Indonesia,,,,-10.2882375,123.3927344,https://maps.google.com/?cid=0x0:0x960d5018e3d3396d,
perumahan,Komplek perumahan,Ak jr home,"P94C+PX, Akle, Kec. Semau Sel., Kabupaten Kupang, Nusa Tenggara Tim.","Kabupaten Kupang, Nusa Tenggara Tim.",NUSA TENGGARA TIMUR,,Indonesia,,,,-10.2932132,123.3724001,https://maps.google.com/?cid=0x0:0xc5dca30b2ee18f6b,
perumahan,Pembangunan Perumahan,Gusty Pong,"P9X2+H9, Uiboa, Kec. Semau Sel., Kabupaten Kupang, Nusa Tenggara Tim.","Kabupaten Kupang, Nusa Tenggara Tim.",NUSA TENGGARA TIMUR,,Indonesia,,,,-10.2510369,123.3508743,https://maps.google.com/?cid=0x0:0x1983737d09e548fc,
perumahan,Komplek perumahan,Rumah inaa,"P8JX+57M, Uiboa, Kec. Semau Sel., Kabupaten Kupang, Nusa Tenggara Tim.","Kabupaten Kupang, Nusa Tenggara Tim.",NUSA TENGGARA TIMUR,,Indonesia,,,,-10.269542,123.3481671,https://maps.google.com/?cid=0x0:0x908b430320dfb550,
perumahan,Komplek perumahan,JULD.HOUSE,"P8FF+H55, Uitiuhtuan, Kec. Semau Sel., Kabupaten Kupang, Nusa Tenggara Tim.","Kabupaten Kupang, Nusa Tenggara Tim.",NUSA TENGGARA TIMUR,,Indonesia,,,,-10.275727,123.324113,https://maps.google.com/?cid=0x0:0x515b635b564d8120,
perumahan,Komplek perumahan,Rumah Ayu,"P8HX+6R4, Uiboa, Kec. Semau Sel., Kabupaten Kupang, Nusa Tenggara Tim.","Kabupaten Kupang, Nusa Tenggara Tim.",NUSA TENGGARA TIMUR,,Indonesia,,,,-10.2712337,123.3494724,https://maps.google.com/?cid=0x0:0xeb813319dd0bfad2,
perumahan,Komplek perumahan,Rumah Syntia Allosau,"P8JX+H7, Uiboa, Kec. Semau Sel., Kabupaten Kupang, Nusa Tenggara Tim.","Kabupaten Kupang, Nusa Tenggara Tim.",NUSA TENGGARA TIMUR,,Indonesia,,,,-10.2679252,123.3471332,https://maps.google.com/?cid=0x0:0x2e21425eae869b98,
perumahan,Komplek perumahan,Yoxan,"M9QH+GV, Akle, Kec. Semau Sel., Kabupaten Kupang, Nusa Tenggara Tim.","Kabupaten Kupang, Nusa Tenggara Tim.",NUSA TENGGARA TIMUR,,Indonesia,,,,-10.3112304,123.3794226,https://maps.google.com/?cid=0x0:0x336bdaf62fb75711,
perumahan,Pembangunan Perumahan,Semi pono,"P98P+6F, Uitiuh Ana, Kec. Semau Sel., Kabupaten Kupang, Nusa Tenggara Tim.","Kabupaten Kupang, Nusa Tenggara Tim.",NUSA TENGGARA TIMUR,,Indonesia,,,,-10.2834166,123.3865721,https://maps.google.com/?cid=0x0:0xaac5ffc5a467ea7a,
perumahan,Komplek perumahan,Kuantuak,"M9RR+RR, Akle, Kec. Semau Sel., Kabupaten Kupang, Nusa Tenggara Tim.","Kabupaten Kupang, Nusa Tenggara Tim.",NUSA TENGGARA TIMUR,,Indonesia,,,,-10.307946,123.3920163,https://maps.google.com/?cid=0x0:0x4266353fd57bfa37,
perumahan,Perumahan rakyat,Rumah Tn. Mu'min dan Ny. Verra,"M9WJ+3P, Akle, Kec. Semau Sel., Kabupaten Kupang, Nusa Tenggara Tim.","Kabupaten Kupang, Nusa Tenggara Tim.",NUSA TENGGARA TIMUR,,Indonesia,,,,-10.3047699,123.381841,https://maps.google.com/?cid=0x0:0xef45f2223ecaa4e9,
perumahan,Perumahan,Adhitya Susang,"M8P9+F2, Naikean, Kec. Semau Sel., Kabupaten Kupang, Nusa Tenggara Tim.","Kabupaten Kupang, Nusa Tenggara Tim.",NUSA TENGGARA TIMUR,,Indonesia,,,,-10.3136987,123.3175635,https://maps.google.com/?cid=0x0:0x2ca3b936ab357e50,
perumahan,Kantor Pemerintah,Desa Akle-Amadoke,"M9X9+F78, Akle, Kec. Semau Sel., Kabupaten Kupang, Nusa Tenggara Tim.","Kabupaten Kupang, Nusa Tenggara Tim.",NUSA TENGGARA TIMUR,,Indonesia,,,,-10.3013375,123.3682031,https://maps.google.com/?cid=0x0:0x95e2c4e7119d66ff,
perumahan,Pembangunan Perumahan,Rumah Bpk Nabas Lango,"QC53+JGH, Onansila, Kec. Semau Sel., Kabupaten Kupang, Nusa Tenggara Tim.","Kabupaten Kupang, Nusa Tenggara Tim.",NUSA TENGGARA TIMUR,,Indonesia,,,,-10.2414369,123.402839,https://maps.google.com/?cid=0x0:0x63b611d087649b28,
perumahan,Komplek perumahan,Deki Abson Snait,"P8JX+H7, Uiboa, Kec. Semau Sel., Kabupaten Kupang, Nusa Tenggara Tim.","Kabupaten Kupang, Nusa Tenggara Tim.",NUSA TENGGARA TIMUR,,Indonesia,895343091003.0,,,-10.2678324,123.3471985,https://maps.google.com/?cid=0x0:0xd8d5c2296bb73a5d,
perumahan,perumahan,Kec. Taebenu,"Kabupaten Kupang, Nusa Tenggara Tim.","Kabupaten Kupang, Nusa Tenggara Tim.",NUSA TENGGARA TIMUR,,Indonesia,,,,-10.185971,123.6696267,https://maps.google.com/?cid=0x0:0x6bc98ae88a05468a,
perumahan,Komplek perumahan,Perumahan Baumata,"Rss, no 31, blok S, Baumata","Kabupaten Kupang, Nusa Tenggara Tim.",NUSA TENGGARA TIMUR,,Indonesia,,,,-10.1908193,123.668547,https://maps.google.com/?cid=0x0:0x816e2dddd1e45189,
perumahan,Komplek perumahan,Perumahan Anza Baumata,"RM6F+V6X, Jl. Sukun B, Baumata Bar., Kec. Taebenu, Kabupaten Kupang, Nusa Tenggara Tim.","Kabupaten Kupang, Nusa Tenggara Tim.",NUSA TENGGARA TIMUR,,Indonesia,,,,-10.1877741,123.6731202,https://maps.google.com/?cid=0x0:0x415cb2ee9129eebc,
perumahan,Komplek perumahan,Rumah tefa,"RM8C+2VG, Jl. Jati, pel tua, Baumata Bar., Kec. Taebenu, Kabupaten Kupang, Nusa Tenggara Tim.","Kabupaten Kupang, Nusa Tenggara Tim.",NUSA TENGGARA TIMUR,,Indonesia,,,,-10.1849387,123.6722122,https://maps.google.com/?cid=0x0:0xcad794465a19a1d3,
perumahan,Komplek perumahan,INI RUMAHKU,"Baumata Bar., Kec. Taebenu, Kabupaten Kupang, Nusa Tenggara Tim.","Kabupaten Kupang, Nusa Tenggara Tim.",NUSA TENGGARA TIMUR,,Indonesia,81338887607.0,,,-10.1844941,123.6710103,https://maps.google.com/?cid=0x0:0x61a9d9f552651f86,
perumahan,Komplek perumahan,Lily Home,"RSS, No 23, Blok F2, Baumata","Kabupaten Kupang, Nusa Tenggara Tim.",NUSA TENGGARA TIMUR,,Indonesia,,,,-10.1914298,123.6687559,https://maps.google.com/?cid=0x0:0x7f2b74ad9576c61f,
perumahan,,Rumah ku,"Rss, blok .U no .14, Baumata, Kec. Taebenu, Kabupaten Kupang, Nusa Tenggara Tim.","Kabupaten Kupang, Nusa Tenggara Tim.",NUSA TENGGARA TIMUR,,Indonesia,,,,-10.1897558,123.6641827,https://maps.google.com/?cid=0x0:0x5eda3f999df706e0,
perumahan,Pembangunan Perumahan,Rumah Raya,"RM69+FHM, Baumata Bar., Kec. Taebenu, Kabupaten Kupang, Nusa Tenggara Tim.","Kabupaten Kupang, Nusa Tenggara Tim.",NUSA TENGGARA TIMUR,,Indonesia,,,,-10.1887777,123.6689109,https://maps.google.com/?cid=0x0:0x80f943ff7643551f,
perumahan,Komplek perumahan,Floren,"RM6F+F3Q, Baumata Bar., Kec. Taebenu, Kabupaten Kupang, Nusa Tenggara Tim.","Kabupaten Kupang, Nusa Tenggara Tim.",NUSA TENGGARA TIMUR,,Indonesia,,,,-10.1889335,123.6723102,https://maps.google.com/?cid=0x0:0x482e6a63ebaaddf7,
perumahan,Komplek perumahan,Rumah Ny. Selviana,"RSS Baumata Blok G2 No.21, Baumata Bar., Kec. Taebenu, Kabupaten Kupang, Nusa Tenggara Tim.","Kabupaten Kupang, Nusa Tenggara Tim.",NUSA TENGGARA TIMUR,,Indonesia,,,,-10.1916968,123.6685963,https://maps.google.com/?cid=0x0:0x782c120b7855ccd,
perumahan,Komplek perumahan,Jeje,"Rss, blok f.no 2, Baumata, Kec. Taebenu, Kabupaten Kupang, Nusa Tenggara Tim.","Kabupaten Kupang, Nusa Tenggara Tim.",NUSA TENGGARA TIMUR,,Indonesia,75622318.0,,,-10.1897502,123.6678905,https://maps.google.com/?cid=0x0:0xacdc8fe12a25c9a2,
perumahan,Komplek perumahan,Kos Bali,"RM7C+2C2, Baumata Bar., Kec. Taebenu, Kabupaten Kupang, Nusa Tenggara Tim.","Kabupaten Kupang, Nusa Tenggara Tim.",NUSA TENGGARA TIMUR,,Indonesia,,,,-10.1874946,123.6710158,https://maps.google.com/?cid=0x0:0xa4ca12379b057872,
perumahan,perumahan,Rumah Atta Soares,"RM7F+WX3, Baumata Bar., Kec. Taebenu, Kabupaten Kupang, Nusa Tenggara Tim.","Kabupaten Kupang, Nusa Tenggara Tim.",NUSA TENGGARA TIMUR,,Indonesia,,,,-10.1852494,123.6749099,https://maps.google.com/?cid=0x0:0xfc729447098e2396,
perumahan,Perhimpunan Pengembang Perumahan,Rumah Tarotji Humau,"RM5C+PWQ, Fenun, Baumata, Kec. Taebenu, Kabupaten Kupang, Nusa Tenggara Tim.","Kabupaten Kupang, Nusa Tenggara Tim.",NUSA TENGGARA TIMUR,,Indonesia,,,,-10.190932,123.672646,https://maps.google.com/?cid=0x0:0xaf5216aa8a3c1b6b,
perumahan,Komplek perumahan,RMH THINO,"RM7F+QWJ, Baumata Bar., Kec. Taebenu, Kabupaten Kupang, Nusa Tenggara Tim.","Kabupaten Kupang, Nusa Tenggara Tim.",NUSA TENGGARA TIMUR,,Indonesia,,,,-10.1855557,123.6747825,https://maps.google.com/?cid=0x0:0x36ded240d3e6eaf9,
perumahan,Perumahan,Family Rahardja,"RM69+RJ7, Baumata Bar., Kec. Taebenu, Kabupaten Kupang, Nusa Tenggara Tim.","Kabupaten Kupang, Nusa Tenggara Tim.",NUSA TENGGARA TIMUR,,Indonesia,,,,-10.1880071,123.6690405,https://maps.google.com/?cid=0x0:0x7b6d8fd1ebc1acf2,
perumahan,Komplek perumahan,Rumah Kenzo Radju,"RM8F+28F, Baumata Bar., Kec. Taebenu, Kabupaten Kupang, Nusa Tenggara Tim.","Kabupaten Kupang, Nusa Tenggara Tim.",NUSA TENGGARA TIMUR,,Indonesia,,,,-10.1849208,123.6734595,https://maps.google.com/?cid=0x0:0xa80d7c8cd19986f2,
perumahan,Komplek perumahan,Rumah Yohanes Wawo,"RM7F+GQF, Baumata Bar., Kec. Taebenu, Kabupaten Kupang, Nusa Tenggara Tim.","Kabupaten Kupang, Nusa Tenggara Tim.",NUSA TENGGARA TIMUR,,Indonesia,,,,-10.186114,123.674442,https://maps.google.com/?cid=0x0:0xd5c624d407c8579d,
perumahan,Komplek perumahan,YANDI,"RM68+H69, Unnamed Road, Baumata Bar., Kec. Taebenu, Kabupaten Kupang, Nusa Tenggara Tim.","Kabupaten Kupang, Nusa Tenggara Tim.",NUSA TENGGARA TIMUR,,Indonesia,81337402898.0,,,-10.1885896,123.6656152,https://maps.google.com/?cid=0x0:0xf38ade505409ed12,
perumahan,perumahan,Rumah bp kupang,"RM68+GJ6, Baumata, Kec. Taebenu, Kabupaten Kupang, Nusa Tenggara Tim.","Kabupaten Kupang, Nusa Tenggara Tim.",NUSA TENGGARA TIMUR,,Indonesia,,,,-10.1887072,123.6665289,https://maps.google.com/?cid=0x0:0xa5ebd742c63f0695,
perumahan,Komplek perumahan,Rumah hijau,"RM7G+XFG, Baumata Bar., Kec. Taebenu, Kabupaten Kupang, Nusa Tenggara Tim.","Kabupaten Kupang, Nusa Tenggara Tim.",NUSA TENGGARA TIMUR,,Indonesia,,,,-10.1840727,123.6757689,https://maps.google.com/?cid=0x0:0x5d63fb32a4f51d2f,
perumahan,Komplek perumahan,Rumah Jose Da Costa,"RM8G+9FX, Baumata Bar., Kec. Taebenu, Kabupaten Kupang, Nusa Tenggara Tim.","Kabupaten Kupang, Nusa Tenggara Tim.",NUSA TENGGARA TIMUR,,Indonesia,,,,-10.1842053,123.6763683,https://maps.google.com/?cid=0x0:0xaadb0ca72e9bc94f,
perumahan,Komplek perumahan,Rumah Fritz Dj.,"BLOK G2 NO.35, Baumata, Kec. Taebenu, Kabupaten Kupang, Nusa Tenggara Tim.","Kabupaten Kupang, Nusa Tenggara Tim.",NUSA TENGGARA TIMUR,,Indonesia,,,,-10.191088,123.6673259,https://maps.google.com/?cid=0x0:0x6c3633f63b374508,
perumahan,Komplek perumahan,Rumah Bpk. Faentinus Woge,"Rss, No. 24, Blok F, Baumata, Taebenu, Kupang Regency, East Nusa Tenggara","Kabupaten Kupang, Nusa Tenggara Tim.",NUSA TENGGARA TIMUR,,Indonesia,,,,-10.1897817,123.6675407,https://maps.google.com/?cid=0x0:0xa6916fb0c286c52b,
perumahan,Komplek perumahan,ITIN HOME,"RM7F+GR6, Jl. Sadar Bhakti Nasipanaf, Baumata Bar., Kec. Taebenu, Kabupaten Kupang, Nusa Tenggara Tim.","Kabupaten Kupang, Nusa Tenggara Tim.",NUSA TENGGARA TIMUR,,Indonesia,,,,-10.1860259,123.6746809,https://maps.google.com/?cid=0x0:0x86001a4b3b2aeb1d,
perumahan,perumahan,Nusa Tenggara Tim. 85362,"Oesao, Kec. Kupang Tim., Kabupaten Kupang, Nusa Tenggara Tim.","Kabupaten Kupang, Nusa Tenggara Tim.",NUSA TENGGARA TIMUR,,Indonesia,,,,-10.1164178,123.8121644,https://maps.google.com/?cid=0x0:0x8006f293bbb44c34,
perumahan,Komplek perumahan,rumah Arnola Manoe,"Jl. Terusan Timor Raya No.KM 28, Oesao, Kec. Kupang Tim., Kabupaten Kupang, Nusa Tenggara Tim.","Kabupaten Kupang, Nusa Tenggara Tim.",NUSA TENGGARA TIMUR,,Indonesia,,,,-10.116776,123.811625,https://maps.google.com/?cid=0x0:0xe24a021196fb6489,
perumahan,Komplek perumahan,Rumah Alberthina Loak Fanggidae ( Lofang Oesao),"VRM6+H64, Jl. Terusan Timor Raya, Oesao, Kec. Kupang Tim., Kabupaten Kupang, Nusa Tenggara Tim.","Kabupaten Kupang, Nusa Tenggara Tim.",NUSA TENGGARA TIMUR,,Indonesia,,,,-10.1161227,123.8105914,https://maps.google.com/?cid=0x0:0x1f34e03c18b3f6ed,
perumahan,Komplek perumahan,Kiki Bengkiuk,"VRM6+Q69, Oesao, Kec. Kupang Tim., Kabupaten Kupang, Nusa Tenggara Tim.","Kabupaten Kupang, Nusa Tenggara Tim.",NUSA TENGGARA TIMUR,,Indonesia,,,,-10.1155844,123.8105948,https://maps.google.com/?cid=0x0:0xd87dcf26b61446ad,
perumahan,Pembangunan Perumahan,Faldi amalo,"VRM6+85F, Oesao, Kec. Kupang Tim., Kabupaten Kupang, Nusa Tenggara Tim.","Kabupaten Kupang, Nusa Tenggara Tim.",NUSA TENGGARA TIMUR,,Indonesia,,,,-10.1166754,123.8104314,https://maps.google.com/?cid=0x0:0x7868d9f1a3f56c48,
perumahan,Pembangunan Perumahan,Oeseo,"VRM6+85F, Oesao, Kec. Kupang Tim., Kabupaten Kupang, Nusa Tenggara Tim.","Kabupaten Kupang, Nusa Tenggara Tim.",NUSA TENGGARA TIMUR,,Indonesia,,,,-10.1166754,123.8104314,https://maps.google.com/?cid=0x0:0x58d02c926821b929,
perumahan,Komplek perumahan,My home,"Jl. Oesapa - Oesao No.29, Oesao, Kec. Kupang Tim., Kabupaten Kupang, Nusa Tenggara Tim.","Kabupaten Kupang, Nusa Tenggara Tim.",NUSA TENGGARA TIMUR,,Indonesia,,,,-10.1156933,123.8111232,https://maps.google.com/?cid=0x0:0x668c7e456f75ff46,
perumahan,perumahan,Kec. Amabi Oefeto,"Kabupaten Kupang, Nusa Tenggara Tim.","Kabupaten Kupang, Nusa Tenggara Tim.",NUSA TENGGARA TIMUR,,Indonesia,,,,-10.1605797,123.9166446,https://maps.google.com/?cid=0x0:0x3f81553105541146,
perumahan,Komplek perumahan,ManuelaHome,"VRP6+688 Indonesia, RT.10/RW.004, Oesao, Kec. Kupang Tim., Kabupaten Kupang, Nusa Tenggara Tim.","Kabupaten Kupang, Nusa Tenggara Tim.",NUSA TENGGARA TIMUR,,Indonesia,,,,-10.1145236,123.8110223,https://maps.google.com/?cid=0x0:0xbeb3b3417309bc4e,
perumahan,Komplek perumahan,Perumahan Pitoby,"RH63+P49 Perumahan Pitoby, Blk. DC Jl. Penkase No.28B, Alak, Kec. Alak, Kota Kupang, Nusa Tenggara Tim.","Kota Kupang, Nusa Tenggara Tim.",NUSA TENGGARA TIMUR,,Indonesia,,,,-10.1893671,123.5519823,https://maps.google.com/?cid=0x0:0xd27a5582ee8d6fb8,
perumahan,Komplek perumahan,Perumahan Pitoby Gemstone Regency,"QHX5+2F7, Unnamed Road, Alak, Kec. Alak, Kota Kupang, Nusa Tenggara Tim.","Kota Kupang, Nusa Tenggara Tim.",NUSA TENGGARA TIMUR,,Indonesia,,,,-10.2024697,123.5586655,https://maps.google.com/?cid=0x0:0xedfb35f055dc4824,
perumahan,Tujuan Wisata,Bendungan Raknamo,"Jl jurusan Bendungan, Raknamo, Kec. Amabi Oefeto, Kabupaten Kupang, Nusa Tenggara Tim.","Kabupaten Kupang, Nusa Tenggara Tim.",NUSA TENGGARA TIMUR,,Indonesia,,,,-10.1192817,123.9318357,https://maps.google.com/?cid=0x0:0x20e2ef9965844d93,
perumahan,Kantor Perusahaan,Bello Regency,"QJMP+F4V, Unnamed Road, Bello, Kec. Maulafa, Kota Kupang, Nusa Tenggara Tim.","Kota Kupang, Nusa Tenggara Tim.",NUSA TENGGARA TIMUR,,Indonesia,,,,-10.2162534,123.6353111,https://maps.google.com/?cid=0x0:0x20e8861557456273,
perumahan,Pembangunan Perumahan,Perumahan Gemstone Regency II,"RH23+VP2, Alak, Kec. Alak, Kota Kupang, Nusa Tenggara Tim.","Kota Kupang, Nusa Tenggara Tim.",NUSA TENGGARA TIMUR,,Indonesia,,,,-10.1978693,123.5542601,https://maps.google.com/?cid=0x0:0xeaf04e405e9bfaba,
perumahan,Komplek perumahan,RUMAH DIJUAL - RANI KORE ROHI,"Perumahan Pitoby Osmok Permai, Blk. VII No.7 Blok B, Alak, Kec. Alak, Kota Kupang, Nusa Tenggara Tim.","Kota Kupang, Nusa Tenggara Tim.",NUSA TENGGARA TIMUR,,Indonesia,85339089927.0,,,-10.1878677,123.552099,https://maps.google.com/?cid=0x0:0x911858cc5b4bce88,
perumahan,Pusat Pendidikan,RUMAH INDONESIA MENDENGAR  BICARA,"WV99+PRF, Naibonat, Kec. Kupang Tim., Kabupaten Kupang, Nusa Tenggara Tim.","Kabupaten Kupang, Nusa Tenggara Tim.",NUSA TENGGARA TIMUR,,Indonesia,,,,-10.080695,123.8695383,https://maps.google.com/?cid=0x0:0xd9e84fac822cda4d,
perumahan,Pembangunan Perumahan,Am to'i,"RV7R+93J, Fatuknutu, Kec. Amabi Oefeto, Kabupaten Kupang, Nusa Tenggara Tim.","Kabupaten Kupang, Nusa Tenggara Tim.",NUSA TENGGARA TIMUR,,Indonesia,,,,-10.185284,123.89016,https://maps.google.com/?cid=0x0:0x99cad9b83d9bed44,
perumahan,Komplek perumahan,fais,"VVPX+C5P, Raknamo, Kec. Amabi Oefeto, Kabupaten Kupang, Nusa Tenggara Tim.","Kabupaten Kupang, Nusa Tenggara Tim.",NUSA TENGGARA TIMUR,,Indonesia,,,,-10.1139224,123.8979561,https://maps.google.com/?cid=0x0:0xff7fe7826f3ccbd2,
perumahan,perumahan,Tanah Keluarga,"VW44+MG3, Raknamo, Kec. Amabi Oefeto, Kabupaten Kupang, Nusa Tenggara Tim.","Kabupaten Kupang, Nusa Tenggara Tim.",NUSA TENGGARA TIMUR,,Indonesia,,,,-10.1433614,123.9063081,https://maps.google.com/?cid=0x0:0x83d23cd997d28eac,
perumahan,Komplek perumahan,Rumah MR,"RVF6+WG2, Kuanheum, Kec. Amabi Oefeto, Kabupaten Kupang, Nusa Tenggara Tim.","Kabupaten Kupang, Nusa Tenggara Tim.",NUSA TENGGARA TIMUR,,Indonesia,,,,-10.1752406,123.861251,https://maps.google.com/?cid=0x0:0x43687d45767b4b23,
perumahan,Pembangunan Perumahan,Manusak perumahan 40,"VVQW+XJM, Manusak, Kec. Amabi Oefeto, Kabupaten Kupang, Nusa Tenggara Tim.","Kabupaten Kupang, Nusa Tenggara Tim.",NUSA TENGGARA TIMUR,,Indonesia,,,,-10.1100468,123.8965525,https://maps.google.com/?cid=0x0:0x7f2a9f9536460dd2,
perumahan,Tempat Ibadah,"Nisum Niunbaun,Amabi Oefeto kab. Kupang","VX4H+7Q, Niunbaun, Kec. Amabi Oefeto, Kabupaten Kupang, Nusa Tenggara Tim.","Kabupaten Kupang, Nusa Tenggara Tim.",NUSA TENGGARA TIMUR,,Indonesia,,,,-10.144292,123.979465,https://maps.google.com/?cid=0x0:0x913d0922d98c39f,
perumahan,Komplek perumahan,Jalur Netral,"VWF3+W2Q, Raknamo, Kec. Amabi Oefeto, Kabupaten Kupang, Nusa Tenggara Tim.","Kabupaten Kupang, Nusa Tenggara Tim.",NUSA TENGGARA TIMUR,,Indonesia,,,,-10.1251581,123.9025989,https://maps.google.com/?cid=0x0:0x2a1ba4b90b53f5,
perumahan,Pembangunan Perumahan,OEHENDAK,"VWH2+2QH, Raknamo, Kec. Amabi Oefeto, Kabupaten Kupang, Nusa Tenggara Tim.","Kabupaten Kupang, Nusa Tenggara Tim.",NUSA TENGGARA TIMUR,,Indonesia,,,,-10.1224427,123.901978,https://maps.google.com/?cid=0x0:0x6631fcac4da3c84a,
perumahan,Komplek perumahan,RM_Home,"RW89+3M2, Fatuknutu, Kec. Amabi Oefeto, Kabupaten Kupang, Nusa Tenggara Tim.","Kabupaten Kupang, Nusa Tenggara Tim.",NUSA TENGGARA TIMUR,,Indonesia,,,,-10.1848653,123.9191508,https://maps.google.com/?cid=0x0:0xd19a5849d2c93246,
perumahan,Pembangunan Perumahan,Kepala desa Raknamo,"VVMW+X9Q, Raknamo, Kec. Amabi Oefeto, Kabupaten Kupang, Nusa Tenggara Tim.","Kabupaten Kupang, Nusa Tenggara Tim.",NUSA TENGGARA TIMUR,,Indonesia,,,,-10.1150431,123.8959821,https://maps.google.com/?cid=0x0:0x13479752b274e3c9,
perumahan,Komplek perumahan,INARA,"VWH2+R6H, Jl. Bend. Raknamo, Raknamo, Kec. Amabi Oefeto, Kabupaten Kupang, Nusa Tenggara Tim.","Kabupaten Kupang, Nusa Tenggara Tim.",NUSA TENGGARA TIMUR,,Indonesia,,,,-10.1204396,123.9006003,https://maps.google.com/?cid=0x0:0x33b4e21f84bf78a1,
perumahan,Gereja,Gereja betesda sufa,"RW87+8WF, Fatuknutu, Kec. Amabi Oefeto, Kabupaten Kupang, Nusa Tenggara Tim.","Kabupaten Kupang, Nusa Tenggara Tim.",NUSA TENGGARA TIMUR,,Indonesia,,,,-10.184386,123.913798,https://maps.google.com/?cid=0x0:0xf58680f188949979,
perumahan,Pembangunan Perumahan,Sefnat humau,"VV32+XP8, Fatuteta, Kec. Amabi Oefeto, Kabupaten Kupang, Nusa Tenggara Tim.","Kabupaten Kupang, Nusa Tenggara Tim.",NUSA TENGGARA TIMUR,,Indonesia,,,,-10.1450974,123.851818,https://maps.google.com/?cid=0x0:0x693380b96e13f354,
perumahan,Rumah wisata,KARISIN,"VV6Q+5H8, Oefeto, Kec. Amabi Oefeto, Kabupaten Kupang, Nusa Tenggara Tim.","Kabupaten Kupang, Nusa Tenggara Tim.",NUSA TENGGARA TIMUR,,Indonesia,81353693243.0,,,-10.1395798,123.8889378,https://maps.google.com/?cid=0x0:0x9a8028ba664e9f52,
perumahan,Komplek perumahan,LUISA,"VVQW+RVC, Unnamed Road, Raknamo, Kec. Amabi Oefeto, Kabupaten Kupang, Nusa Tenggara Tim.","Kabupaten Kupang, Nusa Tenggara Tim.",NUSA TENGGARA TIMUR,,Indonesia,81380094512.0,,,-10.1104367,123.8971386,https://maps.google.com/?cid=0x0:0x8659582e1599e6f9,
perumahan,Komplek perumahan,Oerete,"VW96+97, Raknamo, Kec. Amabi Oefeto, Kabupaten Kupang, Nusa Tenggara Tim.","Kabupaten Kupang, Nusa Tenggara Tim.",NUSA TENGGARA TIMUR,,Indonesia,,,,-10.131564,123.910643,https://maps.google.com/?cid=0x0:0x2b8f3fff70ce8616,
perumahan,Pembangunan Perumahan,Kuanheum,"RVJ8+8CJ, Kuanheum, Kec. Amabi Oefeto, Kabupaten Kupang, Nusa Tenggara Tim.","Kabupaten Kupang, Nusa Tenggara Tim.",NUSA TENGGARA TIMUR,,Indonesia,,,,-10.1691559,123.8660274,https://maps.google.com/?cid=0x0:0x5c8b9cd836636ca0,
perumahan,Komplek perumahan,Rumah Kefi Tipnoni,"Fatuknutu, Kec. Amabi Oefeto, Kabupaten Kupang, Nusa Tenggara Tim.","Kabupaten Kupang, Nusa Tenggara Tim.",NUSA TENGGARA TIMUR,,Indonesia,,,,-10.1568421,123.9169491,https://maps.google.com/?cid=0x0:0xf4e761b315a9ed19,
perumahan,Komplek perumahan,Boy Bonat Pung Rumah,"VR7R+HV5, Fatuteta, Kec. Amabi Oefeto, Kabupaten Kupang, Nusa Tenggara Tim.","Kabupaten Kupang, Nusa Tenggara Tim.",NUSA TENGGARA TIMUR,,Indonesia,,,,-10.1361198,123.842238,https://maps.google.com/?cid=0x0:0xd006d47056a3069e,
perumahan,Komplek perumahan,Abraham Manggoa,"RWV8+Q9C, Fatuknutu, Kec. Amabi Oefeto, Kabupaten Kupang, Nusa Tenggara Tim.","Kabupaten Kupang, Nusa Tenggara Tim.",NUSA TENGGARA TIMUR,,Indonesia,,,,-10.1555262,123.9159231,https://maps.google.com/?cid=0x0:0x4b60510c841218c8,
perumahan,perumahan,Kec. Amfoang Tim.,"Kabupaten Kupang, Nusa Tenggara Tim.","Kabupaten Kupang, Nusa Tenggara Tim.",NUSA TENGGARA TIMUR,,Indonesia,,,,-9.3499011,124.0360758,https://maps.google.com/?cid=0x0:0xf7a457ca40e15f12,
perumahan,Perhimpunan Pengembang Perumahan,…ñƒ±…õ…†∆° ≈ãƒ±≈ã…õ Ñ,"J2WM+4G7, Netemnanu Utara, Kec. Amfoang Tim., Kabupaten Kupang, Nusa Tenggara Tim.","Kabupaten Kupang, Nusa Tenggara Tim.",NUSA TENGGARA TIMUR,,Indonesia,,,,-9.3547034,124.0337881,https://maps.google.com/?cid=0x0:0xc08f21e31c70efbd,
perumahan,Kantor Pelayanan STNK >>u0026 SIM,Aspol Polsek Amfoang timur,"MX2V+G38, Netemnanu Sel., Kec. Amfoang Tim., Kabupaten Kupang, Nusa Tenggara Tim.","Kabupaten Kupang, Nusa Tenggara Tim.",NUSA TENGGARA TIMUR,,Indonesia,,,,-9.349595,123.9935272,https://maps.google.com/?cid=0x0:0x32ca60277dcea80,
perumahan,Komplek perumahan,Rumah Blasius Libus,"J2WG+HFW, Netemnanu Sel., Kec. Amfoang Tim., Kabupaten Kupang, Nusa Tenggara Tim.","Kabupaten Kupang, Nusa Tenggara Tim.",NUSA TENGGARA TIMUR,,Indonesia,,,,-9.3535181,124.0261924,https://maps.google.com/?cid=0x0:0xebc08cc442a2b6b8,
perumahan,Komplek perumahan,vera,"J2QW+VC, Netemnanu Utara, Kec. Amfoang Tim., Kabupaten Kupang, Nusa Tenggara Tim.","Kabupaten Kupang, Nusa Tenggara Tim.",NUSA TENGGARA TIMUR,,Indonesia,,,,-9.3602909,124.0460344,https://maps.google.com/?cid=0x0:0x5f4ced9a69244181,
perumahan,Pembangunan Perumahan,Melati Maroe,"HWPR+9GH, Nunuanah, Kec. Amfoang Tim., Kabupaten Kupang, Nusa Tenggara Tim.","Kabupaten Kupang, Nusa Tenggara Tim.",NUSA TENGGARA TIMUR,,Indonesia,,,,-9.412905,123.941829,https://maps.google.com/?cid=0x0:0x48995d176293f6f8,
perumahan,Sekolah Menengah Atas,Mess Guru SMA Negeri 1 Amfoang Timur,"MX4V+6RC, Jalan Vetor Kameo, Oepoli, Kec. Amfoang Tim., Kabupaten Kupang, Nusa Tenggara Tim.","Kabupaten Kupang, Nusa Tenggara Tim.",NUSA TENGGARA TIMUR,,Indonesia,,,,-9.3444472,123.9945147,https://maps.google.com/?cid=0x0:0xdd66b7892bbd99c2,
perumahan,Komplek perumahan,UPT Netemnanu,"H3GR+C46, Netemnanu, Kec. Amfoang Tim., Kabupaten Kupang, Nusa Tenggara Tim.","Kabupaten Kupang, Nusa Tenggara Tim.",NUSA TENGGARA TIMUR,,Indonesia,,,,-9.4239618,124.0902639,https://maps.google.com/?cid=0x0:0x570bc0d6485ee263,
perumahan,Pembangunan Perumahan,Rumah RD Gaudensius Taninas,"J2RV+44, Netemnanu Utara, Kec. Amfoang Tim., Kabupaten Kupang, Nusa Tenggara Tim.","Kabupaten Kupang, Nusa Tenggara Tim.",NUSA TENGGARA TIMUR,,Indonesia,,,,-9.3596954,124.0428496,https://maps.google.com/?cid=0x0:0xb944fd329d114073,
perumahan,Pembangunan Perumahan,Rumah YB Oepoli,"J2X9+2GX, Netemnanu Sel., Kec. Amfoang Tim., Kabupaten Kupang, Nusa Tenggara Tim.","Kabupaten Kupang, Nusa Tenggara Tim.",NUSA TENGGARA TIMUR,,Indonesia,,,,-9.3537063,124.0188509,https://maps.google.com/?cid=0x0:0xace33da0d20349ba,
perumahan,perumahan,Tuapala,"HWQR+9QM, Nunuanah, Kec. Amfoang Tim., Kabupaten Kupang, Nusa Tenggara Tim.","Kabupaten Kupang, Nusa Tenggara Tim.",NUSA TENGGARA TIMUR,,Indonesia,,,,-9.4116843,123.942708,https://maps.google.com/?cid=0x0:0xfdd6825996d9fdb2,
perumahan,Komplek perumahan,Yermias A. Seffi,"J2VP+J7, Netemnanu Utara, Kec. Amfoang Tim., Kabupaten Kupang, Nusa Tenggara Tim.","Kabupaten Kupang, Nusa Tenggara Tim.",NUSA TENGGARA TIMUR,,Indonesia,,,,-9.355943,124.035671,https://maps.google.com/?cid=0x0:0x138d20f3a2ec475d,
perumahan,Komplek perumahan,Rumah p.Tom Kameo Oepolo,"J2WH+8X2, Netemnanu Sel., Kec. Amfoang Tim., Kabupaten Kupang, Nusa Tenggara Tim.","Kabupaten Kupang, Nusa Tenggara Tim.",NUSA TENGGARA TIMUR,,Indonesia,,,,-9.3536996,124.0289354,https://maps.google.com/?cid=0x0:0x3f1f4f29b6188e6e,
perumahan,Komplek perumahan,Rumah moke Amfoang,"CVRW+JQF, Fatunaus, Kec. Amfoang Utara, Kabupaten Kupang, Nusa Tenggara Tim.","Kabupaten Kupang, Nusa Tenggara Tim.",NUSA TENGGARA TIMUR,,Indonesia,,,,-9.5584279,123.8969328,https://maps.google.com/?cid=0x0:0xe647fcefe2461347,
perumahan,Perhimpunan Pengembang Perumahan,Rumah RATU PADJI,"J2WH+9M7, Oepoli, Netemnanu Utara, Kec. Amfoang Tim., Kabupaten Kupang, Nusa Tenggara Tim.","Kabupaten Kupang, Nusa Tenggara Tim.",NUSA TENGGARA TIMUR,,Indonesia,,,,-9.3540778,124.0291707,https://maps.google.com/?cid=0x0:0xc9246fb4e6b1b8c9,
perumahan,Komplek perumahan,Darius Naimnus,"J2WH+8X2, Netemnanu Utara, Kec. Amfoang Tim., Kabupaten Kupang, Nusa Tenggara Tim.","Kabupaten Kupang, Nusa Tenggara Tim.",NUSA TENGGARA TIMUR,,Indonesia,,,,-9.3542375,124.0298906,https://maps.google.com/?cid=0x0:0x2881f9675240340f,
perumahan,Komplek perumahan,RUMAH AWAOQ MASUS,"GR4M+X5M, Naikliu, Kec. Amfoang Utara, Kabupaten Kupang, Nusa Tenggara Tim.","Kabupaten Kupang, Nusa Tenggara Tim.",NUSA TENGGARA TIMUR,,Indonesia,81340349651.0,,,-9.4925303,123.8329146,https://maps.google.com/?cid=0x0:0x2ae77260f33be9eb,
perumahan,Komplek perumahan,Dhidy Panyola,"HW33+FCF, Lilmus, Kec. Amfoang Utara, Kabupaten Kupang, Nusa Tenggara Tim.","Kabupaten Kupang, Nusa Tenggara Tim.",NUSA TENGGARA TIMUR,,Indonesia,85205646303.0,,,-9.4463036,123.9035363,https://maps.google.com/?cid=0x0:0x386623ca9aa45d1f,
perumahan,Komplek perumahan,Rumah Zet Mbura,"GR7R+79M, Naikliu, Kec. Amfoang Utara, Kabupaten Kupang, Nusa Tenggara Tim.","Kabupaten Kupang, Nusa Tenggara Tim.",NUSA TENGGARA TIMUR,,Indonesia,,,,-9.4866717,123.8402433,https://maps.google.com/?cid=0x0:0xa1dac8e087d5a3fe,
perumahan,Komplek perumahan,Tanjung Gemuk,"GR42+V4M, Afoan, Kec. Amfoang Utara, Kabupaten Kupang, Nusa Tenggara Tim.","Kabupaten Kupang, Nusa Tenggara Tim.",NUSA TENGGARA TIMUR,,Indonesia,,,,-9.4927974,123.8002941,https://maps.google.com/?cid=0x0:0x2a0826509f563f59,
perumahan,Komplek perumahan,Nhyztell Liufeto,"J2VP+J7, Netemnanu Utara, Kec. Amfoang Tim., Kabupaten Kupang, Nusa Tenggara Tim.","Kabupaten Kupang, Nusa Tenggara Tim.",NUSA TENGGARA TIMUR,,Indonesia,,,,-9.3549323,124.0358521,https://maps.google.com/?cid=0x0:0xf666682a0b05f335,
perumahan,Komplek perumahan,James,"J2WJ+853, Oepoli, Netemnanu Utara, Kec. Amfoang Tim., Kabupaten Kupang, Nusa Tenggara Tim.","Kabupaten Kupang, Nusa Tenggara Tim.",NUSA TENGGARA TIMUR,,Indonesia,,,,-9.3544384,124.0315625,https://maps.google.com/?cid=0x0:0xc123eb1da346a396,
perumahan,Komplek perumahan,Blas L,"J2WG+HFP, Netemnanu Sel., Kec. Amfoang Tim., Kabupaten Kupang, Nusa Tenggara Tim.","Kabupaten Kupang, Nusa Tenggara Tim.",NUSA TENGGARA TIMUR,,Indonesia,,,,-9.3535499,124.0261964,https://maps.google.com/?cid=0x0:0x1ab4180ff810bd77,
perumahan,Perhimpunan Pengembang Perumahan,Rumah bapa philipus Malo,"J2WG+GJF, Netemnanu Sel., Kec. Amfoang Tim., Kabupaten Kupang, Nusa Tenggara Tim.","Kabupaten Kupang, Nusa Tenggara Tim.",NUSA TENGGARA TIMUR,,Indonesia,,,,-9.3536792,124.0265431,https://maps.google.com/?cid=0x0:0x8f28206b4a4d5806,
perumahan,perumahan,Kec. Fatuleu Bar.,"Kabupaten Kupang, Nusa Tenggara Tim.","Kabupaten Kupang, Nusa Tenggara Tim.",NUSA TENGGARA TIMUR,,Indonesia,,,,-9.8140108,123.6837348,https://maps.google.com/?cid=0x0:0xc974570658fc450d,
perumahan,Komplek perumahan,PERUMAHAN FATUKOA PERMAI,"Fatukoa, Kec. Maulafa, Kota Kupang, Nusa Tenggara Tim.","Kota Kupang, Nusa Tenggara Tim.",NUSA TENGGARA TIMUR,,Indonesia,,,,-10.2154849,123.5961696,https://maps.google.com/?cid=0x0:0x1e9a1d1acbe60477,
perumahan,Komplek perumahan,Manumuti,"VM3Q+M2J, Tarus, Kec. Kupang Tengah, Kabupaten Kupang, Nusa Tenggara Tim.","Kabupaten Kupang, Nusa Tenggara Tim.",NUSA TENGGARA TIMUR,,Indonesia,,,,-10.1457916,123.6875055,https://maps.google.com/?cid=0x0:0x87339bb6ed473990,
perumahan,Tujuan Wisata,GUNUNG FATULEU,"2VW6+WXM, Oelbiteno, Kec. Fatuleu Tengah, Kabupaten Kupang, Nusa Tenggara Tim.","Kabupaten Kupang, Nusa Tenggara Tim.",NUSA TENGGARA TIMUR,,Indonesia,,,,-9.952671,123.8624288,https://maps.google.com/?cid=0x0:0xcb008e5ee4d907ca,
perumahan,Pembangunan Perumahan,Rumah Alfaden Nenobahan,"5M7Q+XW6, Tuakau, Kec. Fatuleu Bar., Kabupaten Kupang, Nusa Tenggara Tim.","Kabupaten Kupang, Nusa Tenggara Tim.",NUSA TENGGARA TIMUR,,Indonesia,,,,-9.8350836,123.6897723,https://maps.google.com/?cid=0x0:0xcccf99eff903c085,
perumahan,Komplek perumahan,Dethan House,"3H6V+MQ2, Poto, Kec. Fatuleu Bar., Kabupaten Kupang, Nusa Tenggara Tim.","Kabupaten Kupang, Nusa Tenggara Tim.",NUSA TENGGARA TIMUR,,Indonesia,,,,-9.9381069,123.5938029,https://maps.google.com/?cid=0x0:0xf6ea6e8282c95e97,
perumahan,Pembangunan Perumahan,Rumah stainless,"5MX9+7V8, Tuakau, Kec. Fatuleu Bar., Kabupaten Kupang, Nusa Tenggara Tim.","Kabupaten Kupang, Nusa Tenggara Tim.",NUSA TENGGARA TIMUR,,Indonesia,,,,-9.8018386,123.6697027,https://maps.google.com/?cid=0x0:0x2d155650c2c6d7fc,
perumahan,Perhimpunan Pengembang Perumahan,Rumah Dinas Guru,"5MRP+9G7, Tuakau, Kec. Fatuleu Bar., Kabupaten Kupang, Nusa Tenggara Tim.","Kabupaten Kupang, Nusa Tenggara Tim.",NUSA TENGGARA TIMUR,,Indonesia,,,,-9.8088198,123.6855264,https://maps.google.com/?cid=0x0:0xe6d1d65b1701046d,
perumahan,Komplek perumahan,Real house,"3HFV+2CH, Poto, Kec. Fatuleu Bar., Kabupaten Kupang, Nusa Tenggara Tim.","Kabupaten Kupang, Nusa Tenggara Tim.",NUSA TENGGARA TIMUR,,Indonesia,,,,-9.9274289,123.5935966,https://maps.google.com/?cid=0x0:0xa0af71410c1448ad,
perumahan,Kantor distrik,Nuataus,"5PP2+H2X, Nuataus, Kec. Fatuleu Bar., Kabupaten Kupang, Nusa Tenggara Tim.","Kabupaten Kupang, Nusa Tenggara Tim.",NUSA TENGGARA TIMUR,,Indonesia,,,,-9.8135022,123.7001102,https://maps.google.com/?cid=0x0:0x4f64b3cb550466a5,
perumahan,Komplek perumahan,Dusun 3 Nauen,"3HCV+VRC, Poto, Kec. Fatuleu Bar., Kabupaten Kupang, Nusa Tenggara Tim.","Kabupaten Kupang, Nusa Tenggara Tim.",NUSA TENGGARA TIMUR,,Indonesia,,,,-9.926883,123.594047,https://maps.google.com/?cid=0x0:0xb3c25ce3f38a7793,
perumahan,Komplek perumahan,UPT Nuataus,"5MW9+XMW, Tuakau, Kec. Fatuleu Bar., Kabupaten Kupang, Nusa Tenggara Tim.","Kabupaten Kupang, Nusa Tenggara Tim.",NUSA TENGGARA TIMUR,,Indonesia,,,,-9.8025411,123.6692527,https://maps.google.com/?cid=0x0:0x860c55c69ada2784,
perumahan,Pembangunan Perumahan,Rumah Bapa Stefanus Nenobahan,"5M8R+24, Tuakau, Kec. Fatuleu Bar., Kabupaten Kupang, Nusa Tenggara Tim.","Kabupaten Kupang, Nusa Tenggara Tim.",NUSA TENGGARA TIMUR,,Indonesia,,,,-9.8346217,123.6901552,https://maps.google.com/?cid=0x0:0x370540594289978f,
perumahan,Perhimpunan Pengembang Perumahan,Poto,"4MH6+JXW, Poto, Kec. Fatuleu Bar., Kabupaten Kupang, Nusa Tenggara Tim.","Kabupaten Kupang, Nusa Tenggara Tim.",NUSA TENGGARA TIMUR,,Indonesia,,,,-9.8708829,123.6624567,https://maps.google.com/?cid=0x0:0x98b5758a39ebdfbb,
perumahan,perumahan,Batu plat desa nuataus,"5QW7+R54, Nuataus, Kec. Fatuleu Bar., Kabupaten Kupang, Nusa Tenggara Tim.","Kabupaten Kupang, Nusa Tenggara Tim.",NUSA TENGGARA TIMUR,,Indonesia,,,,-9.8029767,123.7629465,https://maps.google.com/?cid=0x0:0x37c33b4866fae3e,
perumahan,Komplek perumahan,Translok Nuataus,"5MPM+9FX, Bisolo, Kec. Fatuleu Bar., Kabupaten Kupang, Nusa Tenggara Tim.","Kabupaten Kupang, Nusa Tenggara Tim.",NUSA TENGGARA TIMUR,,Indonesia,,,,-9.8140108,123.6837348,https://maps.google.com/?cid=0x0:0x1bd945c12f421bad,
perumahan,Komplek perumahan,noven matan,"3MRF+9CC, Poto, Kec. Fatuleu Bar., Kabupaten Kupang, Nusa Tenggara Tim.","Kabupaten Kupang, Nusa Tenggara Tim.",NUSA TENGGARA TIMUR,,Indonesia,,,,-9.9090722,123.6735151,https://maps.google.com/?cid=0x0:0x165e4e62083e658e,
perumahan,Area Mendaki,Siumate,"4QJF+CJX, Naitae, Kec. Fatuleu Bar., Kabupaten Kupang, Nusa Tenggara Tim.","Kabupaten Kupang, Nusa Tenggara Tim.",NUSA TENGGARA TIMUR,,Indonesia,,,,-9.8688897,123.7741195,https://maps.google.com/?cid=0x0:0x1b279c722166ec51,
perumahan,Pembangunan Perumahan,DENY PELLO,"5M9P+2C, Tuakau, Kec. Fatuleu Bar., Kabupaten Kupang, Nusa Tenggara Tim.","Kabupaten Kupang, Nusa Tenggara Tim.",NUSA TENGGARA TIMUR,,Indonesia,,,,-9.8323962,123.6860119,https://maps.google.com/?cid=0x0:0xe4ae083f655777d4,
perumahan,Pembangunan Perumahan,Daud House,"3HCV+VRC, Poto, Kec. Fatuleu Bar., Kabupaten Kupang, Nusa Tenggara Tim.","Kabupaten Kupang, Nusa Tenggara Tim.",NUSA TENGGARA TIMUR,,Indonesia,,,,-9.9262991,123.5942139,https://maps.google.com/?cid=0x0:0x52e80b551fee6dec,
perumahan,Komplek perumahan,UPT POTO,"3HCV+WVV, Poto, Kec. Fatuleu Bar., Kabupaten Kupang, Nusa Tenggara Tim.","Kabupaten Kupang, Nusa Tenggara Tim.",NUSA TENGGARA TIMUR,,Indonesia,,,,-9.9276389,123.5946807,https://maps.google.com/?cid=0x0:0x383f03894975b546,
perumahan,Komplek perumahan,Rumah.Sami Hay Tulle,"3HFW+55G, Poto, Kec. Fatuleu Bar., Kabupaten Kupang, Nusa Tenggara Tim.","Kabupaten Kupang, Nusa Tenggara Tim.",NUSA TENGGARA TIMUR,,Indonesia,,,,-9.9270571,123.5954488,https://maps.google.com/?cid=0x0:0x1c90411223164ec4,
perumahan,Pembangunan Perumahan,To'o Kenzo Home,"3H8W+RF8, Poto, Kec. Fatuleu Bar., Kabupaten Kupang, Nusa Tenggara Tim.","Kabupaten Kupang, Nusa Tenggara Tim.",NUSA TENGGARA TIMUR,,Indonesia,,,,-9.9339369,123.5960757,https://maps.google.com/?cid=0x0:0x4fc4924914489abb,
perumahan,perumahan,Rumah Dian nova Tanaem,"5MPM+79C, Tuakau, Kec. Fatuleu Bar., Kabupaten Kupang, Nusa Tenggara Tim.","Kabupaten Kupang, Nusa Tenggara Tim.",NUSA TENGGARA TIMUR,,Indonesia,,,,-9.8141588,123.6844055,https://maps.google.com/?cid=0x0:0xe1cb2c16838c4225,
perumahan,perumahan,RUMAH NYADU BOYMAU TRANSBISOLO,"5MX9+7VF, Tuakau, Kec. Fatuleu Bar., Kabupaten Kupang, Nusa Tenggara Tim.","Kabupaten Kupang, Nusa Tenggara Tim.",NUSA TENGGARA TIMUR,,Indonesia,,,,-9.8018142,123.669682,https://maps.google.com/?cid=0x0:0x3bcaa8fa3e1e0878,
perumahan,perumahan,Kec. Fatuleu Tengah,"Kabupaten Kupang, Nusa Tenggara Tim.","Kabupaten Kupang, Nusa Tenggara Tim.",NUSA TENGGARA TIMUR,,Indonesia,,,,-9.9748808,123.8732565,https://maps.google.com/?cid=0x0:0x6e9c74fe0bcfb5a1,
perumahan,Tujuan Wisata,GUNUNG FATULEU,"2VW6+WXM, Oelbiteno, Kec. Fatuleu Tengah, Kabupaten Kupang, Nusa Tenggara Tim.","Kabupaten Kupang, Nusa Tenggara Tim.",NUSA TENGGARA TIMUR,,Indonesia,,,,-9.952671,123.8624288,https://maps.google.com/?cid=0x0:0xcb008e5ee4d907ca,
perumahan,Komplek perumahan,PERUMAHAN FATUKOA PERMAI,"Fatukoa, Kec. Maulafa, Kota Kupang, Nusa Tenggara Tim.","Kota Kupang, Nusa Tenggara Tim.",NUSA TENGGARA TIMUR,,Indonesia,,,,-10.2154849,123.5961696,https://maps.google.com/?cid=0x0:0x1e9a1d1acbe60477,
perumahan,Komplek perumahan,Fatututa,"3VC2+5CG, Oelbiteno, Kec. Fatuleu Tengah, Kabupaten Kupang, Nusa Tenggara Tim.","Kabupaten Kupang, Nusa Tenggara Tim.",NUSA TENGGARA TIMUR,,Indonesia,,,,-9.9295506,123.8510653,https://maps.google.com/?cid=0x0:0x38233c48593aba2e,
perumahan,Komplek perumahan,RumahKu Ternyaman,"3RFM+5F, Oelbiteno, Kec. Fatuleu Tengah, Kabupaten Kupang, Nusa Tenggara Tim.","Kabupaten Kupang, Nusa Tenggara Tim.",NUSA TENGGARA TIMUR,,Indonesia,,,,-9.9271231,123.8337231,https://maps.google.com/?cid=0x0:0x38d7720944add10b,
perumahan,Komplek perumahan,Fenu,"2VPF+QR9, Nunsaen, Kec. Fatuleu Tengah, Kabupaten Kupang, Nusa Tenggara Tim.","Kabupaten Kupang, Nusa Tenggara Tim.",NUSA TENGGARA TIMUR,,Indonesia,,,,-9.9630821,123.8746152,https://maps.google.com/?cid=0x0:0xca92117874db9c41,
perumahan,Komplek perumahan,Dorenci fanda,"2VF9+GV7, Nunsaen, Kec. Fatuleu Tengah, Kabupaten Kupang, Nusa Tenggara Tim.","Kabupaten Kupang, Nusa Tenggara Tim.",NUSA TENGGARA TIMUR,,Indonesia,,,,-9.9773686,123.8697459,https://maps.google.com/?cid=0x0:0xe54b207dbd20f64,
perumahan,Komplek perumahan,Rumah Batu,"3VC2+655, Oelbiteno, Kec. Fatuleu Tengah, Kabupaten Kupang, Nusa Tenggara Tim.","Kabupaten Kupang, Nusa Tenggara Tim.",NUSA TENGGARA TIMUR,,Indonesia,,,,-9.9294875,123.8504844,https://maps.google.com/?cid=0x0:0x69c5606fd4e52cfe,
perumahan,Komplek perumahan,Samuel Gellu Tana,"2V5P+Q8P, Tolnaku, Kec. Fatuleu, Kabupaten Kupang, Nusa Tenggara Tim. 85361","Tolnaku, Kec. Fatuleu, Kabupaten Kupang",NUSA TENGGARA TIMUR,85361.0,Indonesia,,,,-9.9905486,123.8858274,https://maps.google.com/?cid=0x0:0x98b66b82cd029f6f,
perumahan,Komplek perumahan,Junedi House,"4V4X+2H, Nonbaun, Kec. Fatuleu Tengah, Kabupaten Kupang, Nusa Tenggara Tim.","Kabupaten Kupang, Nusa Tenggara Tim.",NUSA TENGGARA TIMUR,,Indonesia,,,,-9.8950223,123.8988908,https://maps.google.com/?cid=0x0:0xab2ef279953fc909,
perumahan,Perhimpunan Pengembang Perumahan,Pokdakan Tunfeu,"2VRV+QM6, Nunsaen, Kec. Fatuleu Tengah, Kabupaten Kupang, Nusa Tenggara Tim.","Kabupaten Kupang, Nusa Tenggara Tim.",NUSA TENGGARA TIMUR,,Indonesia,,,,-9.9580998,123.8941449,https://maps.google.com/?cid=0x0:0x4bc1739404360044,
perumahan,Komplek perumahan,Kampung Bileu,"2VRC+PPW, Nunsaen, Kec. Fatuleu Tengah, Kabupaten Kupang, Nusa Tenggara Tim.","Kabupaten Kupang, Nusa Tenggara Tim.",NUSA TENGGARA TIMUR,,Indonesia,,,,-9.9581262,123.8717745,https://maps.google.com/?cid=0x0:0xbc0caea9f56ecaa1,
perumahan,Komplek perumahan,Rumah cici,"2V5J+7F, Tolnaku, Kec. Fatuleu, Kabupaten Kupang, Nusa Tenggara Tim.","Kabupaten Kupang, Nusa Tenggara Tim.",NUSA TENGGARA TIMUR,,Indonesia,,,,-9.9918502,123.8811697,https://maps.google.com/?cid=0x0:0x169bbc26733643ad,
perumahan,Perhimpunan Pengembang Perumahan,Fance beba,"2VMR+69P, Nunsaen, Kec. Fatuleu Tengah, Kabupaten Kupang, Nusa Tenggara Tim.","Kabupaten Kupang, Nusa Tenggara Tim.",NUSA TENGGARA TIMUR,,Indonesia,,,,-9.9669028,123.8909646,https://maps.google.com/?cid=0x0:0x2606c3d79b2deaae,
perumahan,Kantor Perusahaan,Desa Passi,"4V4W+57, Passi, Kec. Fatuleu Tengah, Kabupaten Kupang, Nusa Tenggara Tim.","Kabupaten Kupang, Nusa Tenggara Tim.",NUSA TENGGARA TIMUR,,Indonesia,,,,-9.8945891,123.8957369,https://maps.google.com/?cid=0x0:0x4e1f5009225eb1e7,
perumahan,Perhimpunan Pengembang Perumahan,Nikodemus boifala,"2VGF+3GW, Nunsaen, Kec. Fatuleu Tengah, Kabupaten Kupang, Nusa Tenggara Tim.","Kabupaten Kupang, Nusa Tenggara Tim.",NUSA TENGGARA TIMUR,,Indonesia,81246086905.0,,,-9.9747706,123.8738399,https://maps.google.com/?cid=0x0:0x4ca87592089e3ffc,
perumahan,Komplek perumahan,RUMAH FRIDS PAUL,"3RFC+VWQ, Oelbiteno, Kec. Fatuleu Tengah, Kabupaten Kupang, Nusa Tenggara Tim.","Kabupaten Kupang, Nusa Tenggara Tim.",NUSA TENGGARA TIMUR,,Indonesia,,,,-9.925278,123.8223587,https://maps.google.com/?cid=0x0:0xf980a2c64335b88c,
perumahan,Komplek perumahan,ROJJER SELAY,"2VGC+VQ, Nunsaen, Kec. Fatuleu Tengah, Kabupaten Kupang, Nusa Tenggara Tim.","Kabupaten Kupang, Nusa Tenggara Tim.",NUSA TENGGARA TIMUR,,Indonesia,,,,-9.9733085,123.8723778,https://maps.google.com/?cid=0x0:0x8096d2a171972489,
perumahan,Komplek perumahan,Laeskot,"2VGF+374, Nunsaen, Kec. Fatuleu Tengah, Kabupaten Kupang, Nusa Tenggara Tim.","Kabupaten Kupang, Nusa Tenggara Tim.",NUSA TENGGARA TIMUR,,Indonesia,,,,-9.9748614,123.8731956,https://maps.google.com/?cid=0x0:0x88ef9b9d56b203f2,
perumahan,Pembangunan Perumahan,Oelbiteno,"3R95+33C, Oelbiteno, Kec. Fatuleu Tengah, Kabupaten Kupang, Nusa Tenggara Tim.","Kabupaten Kupang, Nusa Tenggara Tim.",NUSA TENGGARA TIMUR,,Indonesia,,,,-9.9323078,123.8076302,https://maps.google.com/?cid=0x0:0x56e826219a9cfd6,
perumahan,Perumahan rakyat,R.mateos banafanu,"2WFM+RH, Ekateta, Kec. Fatuleu, Kabupaten Kupang, Nusa Tenggara Tim.","Kabupaten Kupang, Nusa Tenggara Tim.",NUSA TENGGARA TIMUR,,Indonesia,,,,-9.9754036,123.9338929,https://maps.google.com/?cid=0x0:0xfc917fffe5f21522,
perumahan,Pembangunan Perumahan,Rumah Yorim Naben,"3V93+JJ5, Oelbiteno, Kec. Fatuleu Tengah, Kabupaten Kupang, Nusa Tenggara Tim.","Kabupaten Kupang, Nusa Tenggara Tim.",NUSA TENGGARA TIMUR,,Indonesia,,,,-9.9309967,123.854098,https://maps.google.com/?cid=0x0:0x9c7bc0209e31a831,
perumahan,Komplek perumahan,Thomas smala,"2VPH+332, Nunsaen, Kec. Fatuleu Tengah, Kabupaten Kupang, Nusa Tenggara Tim.","Kabupaten Kupang, Nusa Tenggara Tim.",NUSA TENGGARA TIMUR,,Indonesia,,,,-9.9648705,123.8776436,https://maps.google.com/?cid=0x0:0xe4c36f82cc086084,
perumahan,Perumahan,Ambram pati,"3V36+H2J, Unnamed Road, Nunsaen, Kec. Fatuleu Tengah, Kabupaten Kupang, Nusa Tenggara Tim.","Kabupaten Kupang, Nusa Tenggara Tim.",NUSA TENGGARA TIMUR,,Indonesia,,,,-9.9460252,123.8600058,https://maps.google.com/?cid=0x0:0x713de737a804daf3,
perumahan,perumahan,Amfoang Tengah,"Kabupaten Kupang, Nusa Tenggara Tim.","Kabupaten Kupang, Nusa Tenggara Tim.",NUSA TENGGARA TIMUR,,Indonesia,,,,-9.6750722,124.0082733,https://maps.google.com/?cid=0x0:0x25fa52fbe69e22ce,
perumahan,Pembangunan Perumahan,Mam Lia MANUBONAN,"9X7C+92, Bitobe, Amfoang Tengah, Kabupaten Kupang, Nusa Tenggara Tim.","Kabupaten Kupang, Nusa Tenggara Tim.",NUSA TENGGARA TIMUR,,Indonesia,,,,-9.636577,123.9700853,https://maps.google.com/?cid=0x0:0xbd913b37478b0005,
perumahan,Perhimpunan Pengembang Perumahan,Kampung PO'AN,"9WJP+W4, Leloboko, Kec. Amfoang Sel., Kabupaten Kupang, Nusa Tenggara Tim.","Kabupaten Kupang, Nusa Tenggara Tim.",NUSA TENGGARA TIMUR,,Indonesia,,,,-9.617691,123.935295,https://maps.google.com/?cid=0x0:0xc90d5e29a5996bde,
perumahan,Komplek perumahan,Boen(Bilulel),"82WP+49C, Binafun, Amfoang Tengah, Kabupaten Kupang, Nusa Tenggara Tim.","Kabupaten Kupang, Nusa Tenggara Tim.",NUSA TENGGARA TIMUR,,Indonesia,,,,-9.6546924,124.0358799,https://maps.google.com/?cid=0x0:0x3b42ff3a945637ad,
perumahan,Komplek perumahan,Dusun 3,"7XW5+53Q, Lelogama, Kec. Amfoang Sel., Kabupaten Kupang, Nusa Tenggara Tim.","Kabupaten Kupang, Nusa Tenggara Tim.",NUSA TENGGARA TIMUR,,Indonesia,,,,-9.7045438,123.9577285,https://maps.google.com/?cid=0x0:0x49586a6eff55fcaf,
perumahan,Perhimpunan Pengembang Perumahan,MAKLON LAIDAT,"9XJG+WFP, Bitobe, Amfoang Tengah, Kabupaten Kupang, Nusa Tenggara Tim.","Kabupaten Kupang, Nusa Tenggara Tim.",NUSA TENGGARA TIMUR,,Indonesia,,,,-9.6176607,123.9762098,https://maps.google.com/?cid=0x0:0x582f510a97ca4cf,
perumahan,Perhimpunan Pengembang Perumahan,Marthen Nifus,"82PP+CQX, RT.04/RW.02, Binafun, Amfoang Tengah, Kabupaten Kupang, Nusa Tenggara Tim.","Kabupaten Kupang, Nusa Tenggara Tim.",NUSA TENGGARA TIMUR,,Indonesia,,,,-9.6638419,124.0372213,https://maps.google.com/?cid=0x0:0x4219d09f0f77da88,
perumahan,perumahan,TERA TAEMNANU,"Bioba Barutaen, Amfoang Barat Daya, Kabupaten Kupang, Nusa Tenggara Tim.","Kabupaten Kupang, Nusa Tenggara Tim.",NUSA TENGGARA TIMUR,,Indonesia,,,,-9.6402371,123.97446,https://maps.google.com/?cid=0x0:0xc0afa7093bcac991,
perumahan,Komplek perumahan,N. B,"82WM+2RH, Gang,Chr. Baitanu. - Boen, Binafun, Nusa Tenggara Tim.","Kabupaten Kupang, Nusa Tenggara Tim.",NUSA TENGGARA TIMUR,,Indonesia,,,,-9.6549375,124.0346094,https://maps.google.com/?cid=0x0:0x232a79f5857117e4,
perumahan,Komplek perumahan,Lelogama Amfoang Selatan,"8X25+48C, Lelogama, Kec. Amfoang Sel., Kabupaten Kupang, Nusa Tenggara Tim.","Kabupaten Kupang, Nusa Tenggara Tim.",NUSA TENGGARA TIMUR,,Indonesia,,,,-9.6996883,123.9582686,https://maps.google.com/?cid=0x0:0xd74fe91404b8a7fa,
perumahan,Pembangunan Perumahan,YUNUS MANULEUS,"Bioba Barutaen, Amfoang Tengah, Kabupaten Kupang, Nusa Tenggara Tim.","Kabupaten Kupang, Nusa Tenggara Tim.",NUSA TENGGARA TIMUR,,Indonesia,,,,-9.6348924,123.9733347,https://maps.google.com/?cid=0x0:0x2abb277cca16153d,
perumahan,perumahan,Kiuana desa bonmuty,"926H+V34, Bonmuti, Amfoang Tengah, Kabupaten Kupang, Nusa Tenggara Tim.","Kabupaten Kupang, Nusa Tenggara Tim.",NUSA TENGGARA TIMUR,,Indonesia,,,,-9.637855,124.0276967,https://maps.google.com/?cid=0x0:0xcccd6acd800b43af,
perumahan,perumahan,Aser Tanaos,"82HM+3GX, Binafun, Amfoang Tengah, Kabupaten Kupang, Nusa Tenggara Tim.","Kabupaten Kupang, Nusa Tenggara Tim.",NUSA TENGGARA TIMUR,,Indonesia,,,,-9.672273,124.0338696,https://maps.google.com/?cid=0x0:0x3907cba2e0fe282e,
perumahan,Perhimpunan Pengembang Perumahan,Daniel Sobe,"Bioba Barutaen, Amfoang Tengah, Kabupaten Kupang, Nusa Tenggara Tim.","Kabupaten Kupang, Nusa Tenggara Tim.",NUSA TENGGARA TIMUR,,Indonesia,,,,-9.6161417,123.9740992,https://maps.google.com/?cid=0x0:0xa6dc17acff955307,
perumahan,perumahan,Ria Etoq Ehaq,"7XMW+344, Ohaem I, Kec. Amfoang Sel., Kabupaten Kupang, Nusa Tenggara Tim.","Kabupaten Kupang, Nusa Tenggara Tim.",NUSA TENGGARA TIMUR,,Indonesia,,,,-9.716357,123.996748,https://maps.google.com/?cid=0x0:0x5d25ed27b7586812,
perumahan,perumahan,MARTHEN BAITANU,"9XMF+F2R, Nano, Sobe, Amfoang Tengah, Kabupaten Kupang, Nusa Tenggara Tim.","Kabupaten Kupang, Nusa Tenggara Tim.",NUSA TENGGARA TIMUR,,Indonesia,,,,-9.6162516,123.9725075,https://maps.google.com/?cid=0x0:0xb284d1b65a627789,
perumahan,perumahan,LES NU'AF,"9XMF+6J8, Bitobe, Amfoang Tengah, Kabupaten Kupang, Nusa Tenggara Tim.","Kabupaten Kupang, Nusa Tenggara Tim.",NUSA TENGGARA TIMUR,,Indonesia,,,,-9.6169734,123.9740721,https://maps.google.com/?cid=0x0:0x1d2584cd5994e095,
perumahan,Komplek perumahan,Rumah moke Amfoang,"CVRW+JQF, Fatunaus, Kec. Amfoang Utara, Kabupaten Kupang, Nusa Tenggara Tim.","Kabupaten Kupang, Nusa Tenggara Tim.",NUSA TENGGARA TIMUR,,Indonesia,,,,-9.5584279,123.8969328,https://maps.google.com/?cid=0x0:0xe647fcefe2461347,
perumahan,Kantor Pemerintah,Bonmuti,"926H+PHJ, Bonmuti, Amfoang Tengah, Kabupaten Kupang, Nusa Tenggara Tim.","Kabupaten Kupang, Nusa Tenggara Tim.",NUSA TENGGARA TIMUR,,Indonesia,,,,-9.6381623,124.0288834,https://maps.google.com/?cid=0x0:0xc1defe7b62c83649,
perumahan,perumahan,MATAN BALAN,"9XP9+4Q Nano Sobe, Bitobe, Amfoang Tengah, Kabupaten Kupang, Nusa Tenggara Tim.","Kabupaten Kupang, Nusa Tenggara Tim.",NUSA TENGGARA TIMUR,,Indonesia,,,,-9.615249,123.969992,https://maps.google.com/?cid=0x0:0x9ef4564cdf305987,
perumahan,Perhimpunan Pengembang Perumahan,Alex Sobeukum BIOBA,"Bioba Barutaen, Amfoang Barat Daya, Kabupaten Kupang, Nusa Tenggara Tim.","Kabupaten Kupang, Nusa Tenggara Tim.",NUSA TENGGARA TIMUR,,Indonesia,,,,-9.6182289,123.9744104,https://maps.google.com/?cid=0x0:0x905d2bd80bd9bc1f,
perumahan,Perhimpunan Pengembang Perumahan,Adithya Manus,"924P+753, Binafun, Amfoang Tengah, Kabupaten Kupang, Nusa Tenggara Tim.","Kabupaten Kupang, Nusa Tenggara Tim.",NUSA TENGGARA TIMUR,,Indonesia,,,,-9.6443694,124.0354191,https://maps.google.com/?cid=0x0:0x6b1d93ea7ef47622,
perumahan,perumahan,Oma Ju,"9X44+RG, Fatumonas, Amfoang Tengah, Kabupaten Kupang, Nusa Tenggara Tim.","Kabupaten Kupang, Nusa Tenggara Tim.",NUSA TENGGARA TIMUR,,Indonesia,,,,-9.6429325,123.9562802,https://maps.google.com/?cid=0x0:0x65da650196f299b8,
perumahan,Perhimpunan Pengembang Perumahan,SADIK OEMATAN,"9XJG+W7J, Bitobe, Amfoang Tengah, Kabupaten Kupang, Nusa Tenggara Tim.","Kabupaten Kupang, Nusa Tenggara Tim.",NUSA TENGGARA TIMUR,,Indonesia,,,,-9.6176636,123.9756398,https://maps.google.com/?cid=0x0:0x538673cb98ec1c67,
