Category,Real Category,Business Name,Address,City,State,Postal Code,Country,Phone,Email,Website,Latitude,Longitude,Map Link,Details Link
hardware store,hardware store,Abang,"Kec. Abang, Kabupaten Karangasem, Bali","Kabupaten Karangasem, Bali",BALI,,Indonesia,,,,-8.3938452,115.6006725,https://maps.google.com/?cid=0x0:0x5030bfbca831740,
hardware store,Toko Bahan Bangunan,TB Duta Bangunan,"Jl. Raya Abang Abang Abang, Abang, Kec. Abang, Kabupaten Karangasem, Bali 80811","Abang, Kec. Abang, Kabupaten Karangasem",BALI,80811.0,Indonesia,81339331677.0,,,-8.387554,115.602081,https://maps.google.com/?cid=0x0:0xf02058554c0e4947,
hardware store,Toko Bahan Bangunan,UD LINGGIH SARI BANGUNAN,"BANJAR BIAS, Ababi, Kec. Abang, Kabupaten Karangasem, Bali 80852","Ababi, Kec. Abang, Kabupaten Karangasem",BALI,80852.0,Indonesia,85829009097.0,,,-8.4007689,115.5949192,https://maps.google.com/?cid=0x0:0xadd3b2090a382b76,
hardware store,Toko,UD. Gunung Sari,"JH4X+C52 Ketut, Jl. Ida Kt Djelantik Jl. Ida Ketut Jelantik, Abang, Karangasem Regency, Bali 80852","Jl. Ida Kt Djelantik Jl. Ida Ketut Jelantik, Abang, Karangasem Regency",BALI,80852.0,Indonesia,81339131863.0,,,-8.3939931,115.597886,https://maps.google.com/?cid=0x0:0xd62c09196e921d6a,
hardware store,Toko Bahan Bangunan,UD. Sri Rejeki Bangunan,"HHXR+CHG, Jl. Raya Ababi, Ababi, Kec. Abang, Kabupaten Karangasem, Bali 80852","Jl. Raya Ababi, Ababi, Kec. Abang, Kabupaten Karangasem",BALI,80852.0,Indonesia,81239226370.0,,,-8.401448,115.5914431,https://maps.google.com/?cid=0x0:0xd32bff2c98fc5c11,
hardware store,Toko Bahan Bangunan,Atlantic Hardware Store,"Jl. Sunset Road No.65 A, Legian, Kec. Kuta, Kabupaten Badung, Bali 80361","Legian, Kec. Kuta, Kabupaten Badung",BALI,80361.0,Indonesia,81239673975.0,,,-8.7050249,115.1820732,https://maps.google.com/?cid=0x0:0x181fc03fafedc4a2,
hardware store,Toko Bahan Bangunan,Nakula Jaya Abadi,"Jl. Nakula No.69 X, Legian, Kec. Kuta, Kabupaten Badung, Bali 80361","Legian, Kec. Kuta, Kabupaten Badung",BALI,80361.0,Indonesia,85166898822.0,,,-8.6980234,115.1736725,https://maps.google.com/?cid=0x0:0xb52e3b792a894a82,
hardware store,Minimarket,Toko Swalayan Bebandem,"HH56+847, Bebandem, Kec. Bebandem, Kabupaten Karangasem, Bali 80861","Bebandem, Kec. Bebandem, Kabupaten Karangasem",BALI,80861.0,Indonesia,,,,-8.4417106,115.5602974,https://maps.google.com/?cid=0x0:0xfcadb5d3dafc1dc3,
hardware store,Toko bahan makanan,Toko Mini,"HH56+M9X, Jl. Kuncaragiri, Bebandem, Kec. Bebandem, Kabupaten Karangasem, Bali 80861","Jl. Kuncaragiri, Bebandem, Kec. Bebandem, Kabupaten Karangasem",BALI,80861.0,Indonesia,36326318.0,,,-8.4407525,115.5609844,https://maps.google.com/?cid=0x0:0x39c9ef1c581d1921,
hardware store,hardware store,Bebandem,"Bebandem, Kec. Bebandem, Kabupaten Karangasem, Bali","Kabupaten Karangasem, Bali",BALI,,Indonesia,,,,-8.43892,115.563301,https://maps.google.com/?cid=0x0:0xd6717240f09e5914,
hardware store,Toko Bahan Bangunan,Toko Bangunan,"Jl. Gajahmada, Karangasem, Kec. Karangasem, Kabupaten Karangasem, Bali 80811","Karangasem, Kec. Karangasem, Kabupaten Karangasem",BALI,80811.0,Indonesia,87721621039.0,,,-8.4480492,115.6160635,https://maps.google.com/?cid=0x0:0xb7c0309849c72142,
hardware store,Toko Bahan Bangunan,Batako press,"JH22+4HP, Budakeling, Kec. Bebandem, Kabupaten Karangasem, Bali 80861","Budakeling, Kec. Bebandem, Kabupaten Karangasem",BALI,80861.0,Indonesia,,,,-8.3994802,115.551461,https://maps.google.com/?cid=0x0:0xbf91e78fbdf1f963,
hardware store,Toko umum,MR.DIY,"Jl. KH Samanhudi, Subagan, Kec. Karangasem, Kabupaten Karangasem, Bali 80811","Subagan, Kec. Karangasem, Kabupaten Karangasem",BALI,80811.0,Indonesia,,,,-8.4552578,115.5998365,https://maps.google.com/?cid=0x0:0xc8995ccab37d9fc1,
hardware store,Pusat Perbelanjaan,Cahaya Wirama. UD,"HF7C+RJX, Desa Muntig, Selat Karang Asem, Pering Sari, Kec. Selat, Kabupaten Karangasem, Bali 80862","Desa Muntig, Selat Karang Asem, Pering Sari, Kec. Selat, Kabupaten Karangasem",BALI,80862.0,Indonesia,36623050.0,,,-8.4353995,115.4715989,https://maps.google.com/?cid=0x0:0xdd717ffa231f8b7a,
hardware store,hardware store,Karangasem,"Kec. Karangasem, Kabupaten Karangasem, Bali","Kabupaten Karangasem, Bali",BALI,,Indonesia,,,,-8.4359528,115.609553,https://maps.google.com/?cid=0x0:0x2f56ee0fd49a2b29,
hardware store,Toko Bahan Bangunan,Ud. Bangunan Karangasem,"Jl. Achmad Yani No.100, Subagan, Kec. Karangasem, Kabupaten Karangasem, Bali 80811","Subagan, Kec. Karangasem, Kabupaten Karangasem",BALI,80811.0,Indonesia,36321475.0,,,-8.456688,115.6024291,https://maps.google.com/?cid=0x0:0x1449fae0db3ba084,
hardware store,Toko Perhiasan,Toko Tirta Mas,"Jl. Pantai Jasri, Subagan, Kec. Karangasem, Kabupaten Karangasem, Bali 80811","Subagan, Kec. Karangasem, Kabupaten Karangasem",BALI,80811.0,Indonesia,81339523911.0,,,-8.4697174,115.6190913,https://maps.google.com/?cid=0x0:0xd2e80580009ba809,
hardware store,Toko Bahan Bangunan,Toko Bangunan,"Jl. Gajahmada, Karangasem, Kec. Karangasem, Kabupaten Karangasem, Bali 80811","Karangasem, Kec. Karangasem, Kabupaten Karangasem",BALI,80811.0,Indonesia,87721621039.0,,,-8.4480492,115.6160635,https://maps.google.com/?cid=0x0:0xb7c0309849c72142,
hardware store,Minimarket,Mitra N'zo,"Jl. Untung Surapati, Subagan, Kec. Karangasem, Kabupaten Karangasem, Bali 80811","Subagan, Kec. Karangasem, Kabupaten Karangasem",BALI,80811.0,Indonesia,36321881.0,,,-8.447345,115.605015,https://maps.google.com/?cid=0x0:0x577f68e5a557cee0,
hardware store,Toko Bahan Bangunan,Anugrah Bangunan,"HJFJ+H32, Jl. Raya Bukit Lempuyang, Bukit, Kec. Karangasem, Kabupaten Karangasem, Bali 80811","Jl. Raya Bukit Lempuyang, Bukit, Kec. Karangasem, Kabupaten Karangasem",BALI,80811.0,Indonesia,,,,-8.4261086,115.6301372,https://maps.google.com/?cid=0x0:0x1063f1e2dc7d6501,
hardware store,Toko Bahan Bangunan,UD. TOYA,"Jl. Sudirman, Subagan, Kec. Karangasem, Kabupaten Karangasem, Bali 80813","Subagan, Kec. Karangasem, Kabupaten Karangasem",BALI,80813.0,Indonesia,81338030309.0,,,-8.4523502,115.603115,https://maps.google.com/?cid=0x0:0xad9f9e249d54d791,
hardware store,Toko Bahan Bangunan,UD LANTAI INDAH,"Subagan, Kec. Karangasem, Kabupaten Karangasem, Bali 80811","Kec. Karangasem, Kabupaten Karangasem",BALI,80811.0,Indonesia,36322191.0,,,-8.4680393,115.6129709,https://maps.google.com/?cid=0x0:0x38b818b1a8357ae4,
hardware store,Toko umum,MR.DIY,"Jl. KH Samanhudi, Subagan, Kec. Karangasem, Kabupaten Karangasem, Bali 80811","Subagan, Kec. Karangasem, Kabupaten Karangasem",BALI,80811.0,Indonesia,,,,-8.4552578,115.5998365,https://maps.google.com/?cid=0x0:0xc8995ccab37d9fc1,
hardware store,Toko,Ud.Shangrila,"Jl. Diponegoro No.11, Karangasem, Kec. Karangasem, Kabupaten Karangasem, Bali 80811","Karangasem, Kec. Karangasem, Kabupaten Karangasem",BALI,80811.0,Indonesia,36321126.0,,,-8.4473918,115.6146875,https://maps.google.com/?cid=0x0:0xe77bd7ca43c369f3,
hardware store,Toko Bahan Bangunan,UD Dewata Bangunan,"Jl. Achmad Yani No.39, Subagan, Kec. Karangasem, Kabupaten Karangasem, Bali 80811","Subagan, Kec. Karangasem, Kabupaten Karangasem",BALI,80811.0,Indonesia,89685844000.0,,,-8.4580128,115.6036171,https://maps.google.com/?cid=0x0:0x3dd15541335fbe14,
hardware store,Toko,Warung WS,"HM64+592, Seraya, Kec. Karangasem, Kabupaten Karangasem, Bali 80811","Seraya, Kec. Karangasem, Kabupaten Karangasem",BALI,80811.0,Indonesia,85237950471.0,,,-8.4396029,115.6558957,https://maps.google.com/?cid=0x0:0xb3ea2e1454f98f4c,
hardware store,Toko Bahan Bangunan,TB Mandiri,"Jl. Achmad Yani, Subagan, Kec. Karangasem, Kabupaten Karangasem, Bali 80813","Subagan, Kec. Karangasem, Kabupaten Karangasem",BALI,80813.0,Indonesia,8123634080.0,,,-8.4650025,115.61024,https://maps.google.com/?cid=0x0:0x353deaf790429545,
hardware store,Toko,TOKO MURAH REJEKI2,"Jl. Untung Surapati No.96, Subagan, Kec. Karangasem, Kabupaten Karangasem, Bali 80811","Subagan, Kec. Karangasem, Kabupaten Karangasem",BALI,80811.0,Indonesia,36323379.0,,,-8.44488,115.6020044,https://maps.google.com/?cid=0x0:0x44e57dee2deeb1f1,
hardware store,Toko Bahan Bangunan,UD. BARU,"Jl. Gajahmada No.62, Karangasem, Kec. Karangasem, Kabupaten Karangasem, Bali 80811","Karangasem, Kec. Karangasem, Kabupaten Karangasem",BALI,80811.0,Indonesia,36321016.0,,,-8.4482936,115.6161246,https://maps.google.com/?cid=0x0:0x47dc45687ad53861,
hardware store,Toko Elektronik,Langgeng Elektronik,"Jl. Gajahmada No.7, Karangasem, Kec. Karangasem, Kabupaten Karangasem, Bali 80811","Karangasem, Kec. Karangasem, Kabupaten Karangasem",BALI,80811.0,Indonesia,8124611382.0,,,-8.4458833,115.6162429,https://maps.google.com/?cid=0x0:0x91620f66261ca8a7,
hardware store,Toko Komputer,Vilya Computer - Karangasem,"Jl. Untung Surapati No.68X, Padang Kerta, Kec. Karangasem, Kabupaten Karangasem, Bali 80811","Padang Kerta, Kec. Karangasem, Kabupaten Karangasem",BALI,80811.0,Indonesia,8113866855.0,,,-8.4457977,115.6029039,https://maps.google.com/?cid=0x0:0x634a476a6147e420,
hardware store,Toko,Klaris ATK dan Aksesoris Amlapura,"Jl. Diponegoro, Karangasem, Kec. Karangasem, Kabupaten Karangasem, Bali 80811","Karangasem, Kec. Karangasem, Kabupaten Karangasem",BALI,80811.0,Indonesia,85183285521.0,,,-8.4471892,115.6155624,https://maps.google.com/?cid=0x0:0x334ce7ee84e51d79,
hardware store,Toko Alat Tulis,TOKO RAHAYU,"Jl. Gajahmada, Karangasem, Kec. Karangasem, Kabupaten Karangasem, Bali 80812","Karangasem, Kec. Karangasem, Kabupaten Karangasem",BALI,80812.0,Indonesia,36321289.0,,,-8.4484996,115.6160301,https://maps.google.com/?cid=0x0:0x8145659b108b305,
hardware store,Toko Alat Tulis,Rumah Ateka,"Jl. Untung Surapati No.75, Subagan, Kec. Karangasem, Kabupaten Karangasem, Bali 80811","Subagan, Kec. Karangasem, Kabupaten Karangasem",BALI,80811.0,Indonesia,85738596918.0,,,-8.4433916,115.6005225,https://maps.google.com/?cid=0x0:0xe45cdb783d2a817d,
hardware store,Toko Komputer,Shiro Komputer,"Jl. Raya Bugbug, Perasi, Kec. Karangasem, Kabupaten Karangasem, Bali 80811","Perasi, Kec. Karangasem, Kabupaten Karangasem",BALI,80811.0,Indonesia,85105446668.0,,,-8.4862999,115.5996995,https://maps.google.com/?cid=0x0:0x3b26f910e36f97a8,
hardware store,hardware store,Bali 80811,"Kec. Karangasem, Kabupaten Karangasem, Bali","Kabupaten Karangasem, Bali",BALI,,Indonesia,,,,-8.4497997,115.6273131,https://maps.google.com/?cid=0x0:0x1c00c5eb6016c030,
hardware store,Toko Bahan Bangunan,UD. Suar,"HH55+PXJ, Jl. Kuncaragiri, Bebandem, Kec. Bebandem, Kabupaten Karangasem, Bali 80861","Jl. Kuncaragiri, Bebandem, Kec. Bebandem, Kabupaten Karangasem",BALI,80861.0,Indonesia,81246746266.0,,,-8.4406535,115.559901,https://maps.google.com/?cid=0x0:0x7c18f7e0a798e8d4,
hardware store,Toko Bahan Bangunan,UD. Gabin,"FHX4+GQP, Jl. Raya Sengkidu, Sengkidu, Kec. Manggis, Kabupaten Karangasem, Bali 80817","Jl. Raya Sengkidu, Sengkidu, Kec. Manggis, Kabupaten Karangasem",BALI,80817.0,Indonesia,36342009.0,,,-8.5011672,115.5569579,https://maps.google.com/?cid=0x0:0xb643ee51f437c4c8,
hardware store,Toko Bahan Bangunan,UD Prasasti,"HH69+M6P, Jl. Nenas, Kayu Putih, Kec. Bebandem, Kabupaten Karangasem, Bali 80861","Jl. Nenas, Kayu Putih, Kec. Bebandem, Kabupaten Karangasem",BALI,80861.0,Indonesia,85792721017.0,,,-8.4382976,115.5680735,https://maps.google.com/?cid=0x0:0x914110635167b27b,
hardware store,Toko Bahan Bangunan,Bangunan Jaya,"GH6W+G69, Sengkidu, Kec. Manggis, Kabupaten Karangasem, Bali 80811","Sengkidu, Kec. Manggis, Kabupaten Karangasem",BALI,80811.0,Indonesia,85166900641.0,,,-8.4887048,115.5956002,https://maps.google.com/?cid=0x0:0xf0e0e3f6c898b631,
hardware store,Toko Bahan Bangunan,UD LINGGIH SARI BANGUNAN,"BANJAR BIAS, Ababi, Kec. Abang, Kabupaten Karangasem, Bali 80852","Ababi, Kec. Abang, Kabupaten Karangasem",BALI,80852.0,Indonesia,85829009097.0,,,-8.4007689,115.5949192,https://maps.google.com/?cid=0x0:0xadd3b2090a382b76,
hardware store,Toko Alat Tulis,DTM STATIONERY,"Jl. Veteran, Padang Kerta, Kec. Karangasem, Kabupaten Karangasem, Bali 80811","Padang Kerta, Kec. Karangasem, Kabupaten Karangasem",BALI,80811.0,Indonesia,,,,-8.441406,115.5917087,https://maps.google.com/?cid=0x0:0x864e730ce5534d19,
hardware store,Toko Bahan Bangunan,UD. Paras Bumi,"HHXV+GM6, Jalan Raya, Ababi, Abang, Karangasem Regency, Bali 80852","Jalan Raya, Ababi, Abang, Karangasem Regency",BALI,80852.0,Indonesia,8123975877.0,,,-8.4012123,115.5941507,https://maps.google.com/?cid=0x0:0x3854c6c8666fd7ed,
hardware store,hardware store,Bali 80813,"Kec. Karangasem, Kabupaten Karangasem, Bali","Kabupaten Karangasem, Bali",BALI,,Indonesia,,,,-8.4738779,115.6065929,https://maps.google.com/?cid=0x0:0xbeec0d2e7f009819,
hardware store,Toko Bahan Bangunan,Ud. Bangunan Karangasem,"Jl. Achmad Yani No.100, Subagan, Kec. Karangasem, Kabupaten Karangasem, Bali 80811","Subagan, Kec. Karangasem, Kabupaten Karangasem",BALI,80811.0,Indonesia,36321475.0,,,-8.456688,115.6024291,https://maps.google.com/?cid=0x0:0x1449fae0db3ba084,
hardware store,Toko Perhiasan,Toko Tirta Mas,"Jl. Pantai Jasri, Subagan, Kec. Karangasem, Kabupaten Karangasem, Bali 80811","Subagan, Kec. Karangasem, Kabupaten Karangasem",BALI,80811.0,Indonesia,81339523911.0,,,-8.4697174,115.6190913,https://maps.google.com/?cid=0x0:0xd2e80580009ba809,
hardware store,Toko Bahan Bangunan,Bangunan Baru,"Jl. Kesatrian No.17, Karangasem, Kec. Karangasem, Kabupaten Karangasem, Bali 80811","Karangasem, Kec. Karangasem, Kabupaten Karangasem",BALI,80811.0,Indonesia,36321350.0,,,-8.4480686,115.6150109,https://maps.google.com/?cid=0x0:0x60893b015e2fbd8,
hardware store,Toko Bahan Bangunan,Bangunan Jaya,"GH6W+G69, Sengkidu, Kec. Manggis, Kabupaten Karangasem, Bali 80811","Sengkidu, Kec. Manggis, Kabupaten Karangasem",BALI,80811.0,Indonesia,85166900641.0,,,-8.4887048,115.5956002,https://maps.google.com/?cid=0x0:0xf0e0e3f6c898b631,
hardware store,Toko Bahan Bangunan,Toko Bangunan,"Jl. Gajahmada, Karangasem, Kec. Karangasem, Kabupaten Karangasem, Bali 80811","Karangasem, Kec. Karangasem, Kabupaten Karangasem",BALI,80811.0,Indonesia,87721621039.0,,,-8.4480492,115.6160635,https://maps.google.com/?cid=0x0:0xb7c0309849c72142,
hardware store,Minimarket,Mitra N'zo,"Jl. Untung Surapati, Subagan, Kec. Karangasem, Kabupaten Karangasem, Bali 80811","Subagan, Kec. Karangasem, Kabupaten Karangasem",BALI,80811.0,Indonesia,36321881.0,,,-8.447345,115.605015,https://maps.google.com/?cid=0x0:0x577f68e5a557cee0,
hardware store,Toko umum,MR.DIY,"Jl. KH Samanhudi, Subagan, Kec. Karangasem, Kabupaten Karangasem, Bali 80811","Subagan, Kec. Karangasem, Kabupaten Karangasem",BALI,80811.0,Indonesia,,,,-8.4552578,115.5998365,https://maps.google.com/?cid=0x0:0xc8995ccab37d9fc1,
hardware store,Toko Bahan Bangunan,UD LANTAI INDAH,"Subagan, Kec. Karangasem, Kabupaten Karangasem, Bali 80811","Kec. Karangasem, Kabupaten Karangasem",BALI,80811.0,Indonesia,36322191.0,,,-8.4680393,115.6129709,https://maps.google.com/?cid=0x0:0x38b818b1a8357ae4,
hardware store,Toko Bahan Bangunan,TB Mandiri,"Jl. Achmad Yani, Subagan, Kec. Karangasem, Kabupaten Karangasem, Bali 80813","Subagan, Kec. Karangasem, Kabupaten Karangasem",BALI,80813.0,Indonesia,8123634080.0,,,-8.4650025,115.61024,https://maps.google.com/?cid=0x0:0x353deaf790429545,
hardware store,Toko Bahan Bangunan,UD Dewata Bangunan,"Jl. Achmad Yani No.39, Subagan, Kec. Karangasem, Kabupaten Karangasem, Bali 80811","Subagan, Kec. Karangasem, Kabupaten Karangasem",BALI,80811.0,Indonesia,89685844000.0,,,-8.4580128,115.6036171,https://maps.google.com/?cid=0x0:0x3dd15541335fbe14,
hardware store,Toko,Ud.Shangrila,"Jl. Diponegoro No.11, Karangasem, Kec. Karangasem, Kabupaten Karangasem, Bali 80811","Karangasem, Kec. Karangasem, Kabupaten Karangasem",BALI,80811.0,Indonesia,36321126.0,,,-8.4473918,115.6146875,https://maps.google.com/?cid=0x0:0xe77bd7ca43c369f3,
hardware store,Toko,TOKO MURAH REJEKI2,"Jl. Untung Surapati No.96, Subagan, Kec. Karangasem, Kabupaten Karangasem, Bali 80811","Subagan, Kec. Karangasem, Kabupaten Karangasem",BALI,80811.0,Indonesia,36323379.0,,,-8.44488,115.6020044,https://maps.google.com/?cid=0x0:0x44e57dee2deeb1f1,
hardware store,Toko Elektronik,Langgeng Elektronik,"Jl. Gajahmada No.7, Karangasem, Kec. Karangasem, Kabupaten Karangasem, Bali 80811","Karangasem, Kec. Karangasem, Kabupaten Karangasem",BALI,80811.0,Indonesia,8124611382.0,,,-8.4458833,115.6162429,https://maps.google.com/?cid=0x0:0x91620f66261ca8a7,
hardware store,Toko Komputer,Vilya Computer - Karangasem,"Jl. Untung Surapati No.68X, Padang Kerta, Kec. Karangasem, Kabupaten Karangasem, Bali 80811","Padang Kerta, Kec. Karangasem, Kabupaten Karangasem",BALI,80811.0,Indonesia,8113866855.0,,,-8.4457977,115.6029039,https://maps.google.com/?cid=0x0:0x634a476a6147e420,
hardware store,Toko Alat Tulis,TOKO RAHAYU,"Jl. Gajahmada, Karangasem, Kec. Karangasem, Kabupaten Karangasem, Bali 80812","Karangasem, Kec. Karangasem, Kabupaten Karangasem",BALI,80812.0,Indonesia,36321289.0,,,-8.4484996,115.6160301,https://maps.google.com/?cid=0x0:0x8145659b108b305,
hardware store,Toko Bahan Bangunan,UD. BARU,"Jl. Gajahmada No.62, Karangasem, Kec. Karangasem, Kabupaten Karangasem, Bali 80811","Karangasem, Kec. Karangasem, Kabupaten Karangasem",BALI,80811.0,Indonesia,36321016.0,,,-8.4482936,115.6161246,https://maps.google.com/?cid=0x0:0x47dc45687ad53861,
hardware store,Toko Alat Tulis,Rumah Ateka,"Jl. Untung Surapati No.75, Subagan, Kec. Karangasem, Kabupaten Karangasem, Bali 80811","Subagan, Kec. Karangasem, Kabupaten Karangasem",BALI,80811.0,Indonesia,85738596918.0,,,-8.4433916,115.6005225,https://maps.google.com/?cid=0x0:0xe45cdb783d2a817d,
hardware store,Toko Bahan Bangunan,Atlantic Hardware Store,"Jl. Sunset Road No.65 A, Legian, Kec. Kuta, Kabupaten Badung, Bali 80361","Legian, Kec. Kuta, Kabupaten Badung",BALI,80361.0,Indonesia,81239673975.0,,,-8.7050249,115.1820732,https://maps.google.com/?cid=0x0:0x181fc03fafedc4a2,
hardware store,Toko Alat Tulis,UD. Sasika,"HJ24+32J, Jl. Gn. Agung, Subagan, Kec. Karangasem, Kabupaten Karangasem, Bali 80811","Jl. Gn. Agung, Subagan, Kec. Karangasem, Kabupaten Karangasem",BALI,80811.0,Indonesia,81339765052.0,,,-8.4497886,115.6050117,https://maps.google.com/?cid=0x0:0x4222d1244a952da6,
hardware store,Toko Alat Tulis Kantor,KAYANA ATK Sudirman,"GJW2+6C9, Jl. Sudirman, Karangasem, Kec. Karangasem, Kabupaten Karangasem, Bali 80811","Jl. Sudirman, Karangasem, Kec. Karangasem, Kabupaten Karangasem",BALI,80811.0,Indonesia,,,,-8.4544712,115.6011141,https://maps.google.com/?cid=0x0:0x66d49115fa64498d,
hardware store,Toko Elektronik,Raditya Karangasem,"Jl. Achmad Yani No.37, Subagan, Kec. Karangasem, Kabupaten Karangasem, Bali 80813","Subagan, Kec. Karangasem, Kabupaten Karangasem",BALI,80813.0,Indonesia,82339064174.0,,,-8.4578503,115.6031878,https://maps.google.com/?cid=0x0:0xa12ee5cf7a6bd0ed,
hardware store,Toko Alat Tulis,Oka ATK Grosir  Ecer,"Jl. Achmad Yani, Subagan, Kec. Karangasem, Kabupaten Karangasem, Bali 80811","Subagan, Kec. Karangasem, Kabupaten Karangasem",BALI,80811.0,Indonesia,82341764403.0,,,-8.4704377,115.6151723,https://maps.google.com/?cid=0x0:0x78c2420ec4c67dca,
hardware store,Toko Alat Tulis Kantor,Daris Stationery,"GJW2+HJ8, Jl. Bukit Catu Subagan, Subagan, Kec. Karangasem, Kabupaten Karangasem, Bali 80811","Jl. Bukit Catu Subagan, Subagan, Kec. Karangasem, Kabupaten Karangasem",BALI,80811.0,Indonesia,8980770160.0,,,-8.4535935,115.6015823,https://maps.google.com/?cid=0x0:0xb8788f7b086c9d38,
hardware store,Toko Bahan Bangunan,Atlantic Hardware Store,"Jl. Sunset Road No.65 A, Legian, Kec. Kuta, Kabupaten Badung, Bali 80361","Legian, Kec. Kuta, Kabupaten Badung",BALI,80361.0,Indonesia,81239673975.0,,,-8.7050249,115.1820732,https://maps.google.com/?cid=0x0:0x181fc03fafedc4a2,
hardware store,Toko Bahan Bangunan,Nakula Jaya Abadi,"Jl. Nakula No.69 X, Legian, Kec. Kuta, Kabupaten Badung, Bali 80361","Legian, Kec. Kuta, Kabupaten Badung",BALI,80361.0,Indonesia,85166898822.0,,,-8.6980234,115.1736725,https://maps.google.com/?cid=0x0:0xb52e3b792a894a82,
hardware store,hardware store,Kubu,"Kubu, Kec. Kubu, Kabupaten Karangasem, Bali","Kabupaten Karangasem, Bali",BALI,,Indonesia,,,,-8.25944,115.566002,https://maps.google.com/?cid=0x0:0x7361d170964b4850,
hardware store,Toko Bahan Bangunan,Toko Dharma kerti,"Banjar dinas kertabuana, Tukadlegawa, Tianyar Bar., Kabupaten Karangasem, Bali 80853","Tukadlegawa, Tianyar Bar., Kabupaten Karangasem",BALI,80853.0,Indonesia,87711878594.0,,,-8.1815353,115.4732793,https://maps.google.com/?cid=0x0:0x5e29f05e36722b39,
hardware store,Toko Bahan Bangunan,Toko Fajar Ketilang,"RFF7+7F, Tianyar Bar., Kec. Kubu, Kabupaten Karangasem, Bali 80853","Tianyar Bar., Kec. Kubu, Kabupaten Karangasem",BALI,80853.0,Indonesia,87760332399.0,,,-8.1768341,115.4636374,https://maps.google.com/?cid=0x0:0xa2667d03302e9fa,
hardware store,Toko Bahan Bangunan,TB. Kanong Jaya,"Jl. Tejakula - Tianyar, Tianyar Bar., Kec. Kubu, Kabupaten Karangasem, Bali 80853","Tianyar Bar., Kec. Kubu, Kabupaten Karangasem",BALI,80853.0,Indonesia,,,,-8.1731279,115.4589015,https://maps.google.com/?cid=0x0:0x42249827355b1106,
hardware store,Komplek perumahan,UB.REZHA RAMADHAN,"3J4C+8X9, Jl. Jend. Sudirman, Sungai Kubu, Kubu, Kabupaten Rokan Hilir, Riau 28991","Jl. Jend. Sudirman, Sungai Kubu, Kubu, Kabupaten Rokan Hilir",BALI,28991.0,Indonesia,,,,2.0557788,100.6224875,https://maps.google.com/?cid=0x0:0xac902e9079cd4256,
hardware store,Komplek perumahan,RUMAH REZA,"3HQR+CQ9, Sei Segajah Makmur, Kubu, Kabupaten Rokan Hilir, Riau 28991","Sei Segajah Makmur, Kubu, Kabupaten Rokan Hilir",BALI,28991.0,Indonesia,,,,2.0885377,100.591985,https://maps.google.com/?cid=0x0:0x1a93c5478662e770,
hardware store,hardware store,Kubu,"Kubu, Kec. Kubu, Kabupaten Karangasem, Bali","Kabupaten Karangasem, Bali",BALI,,Indonesia,,,,-8.25944,115.566002,https://maps.google.com/?cid=0x0:0x7361d170964b4850,
hardware store,hardware store,Pebble  Fins (Bali Kubu),"Samping Pura Dalem Kubu Jl. Pura Dalem, Kubu, Kec. Kubu, Kabupaten Karangasem, Bali 80853","Kubu, Kec. Kubu, Kabupaten Karangasem",BALI,80853.0,Indonesia,85738918262.0,,,-8.252066,115.5767308,https://maps.google.com/?cid=0x0:0xa2c687ef0a5ce1bc,
hardware store,Toko Bahan Bangunan,Atlantic Hardware Store,"Jl. Sunset Road No.65 A, Legian, Kec. Kuta, Kabupaten Badung, Bali 80361","Legian, Kec. Kuta, Kabupaten Badung",BALI,80361.0,Indonesia,81239673975.0,,,-8.7050249,115.1820732,https://maps.google.com/?cid=0x0:0x181fc03fafedc4a2,
hardware store,hardware store,Kubu,"Kubu, Kec. Kubu, Kabupaten Kubu Raya, Kalimantan Barat","Kabupaten Kubu Raya, Kalimantan Barat",BALI,,Indonesia,,,,-0.483762,109.378899,https://maps.google.com/?cid=0x0:0x3198742738a7ec1b,
hardware store,Toko Elektronik,Toko Kuala Teknik,"VC27+663, Jl. Komp. Pu Pengairan, Limbung, Kec. Sungai Raya, Kabupaten Kubu Raya, Kalimantan Barat 78391","Jl. Komp. Pu Pengairan, Limbung, Kec. Sungai Raya, Kabupaten Kubu Raya",BALI,78391.0,Indonesia,8125791879.0,,,-0.1494827,109.4130326,https://maps.google.com/?cid=0x0:0x93f59595d9379fc3,
hardware store,hardware store,Tjahaja Hardwares,"W978+8RM Pergudangan Ayani Prima, Jl. Arteri Supadio Jl. Extra Joss, Sungai Raya, Kec. Sungai Raya, Kabupaten Kubu Raya, Kalimantan Barat 73891","Jl. Arteri Supadio Jl. Extra Joss, Sungai Raya, Kec. Sungai Raya, Kabupaten Kubu Raya",BALI,73891.0,Indonesia,,,,-0.0866723,109.3670493,https://maps.google.com/?cid=0x0:0xd9940d4af9e2ea37,
hardware store,Toko Bahan Bangunan,Atlantic Hardware Store,"Jl. Sunset Road No.65 A, Legian, Kec. Kuta, Kabupaten Badung, Bali 80361","Legian, Kec. Kuta, Kabupaten Badung",BALI,80361.0,Indonesia,81239673975.0,,,-8.7050249,115.1820732,https://maps.google.com/?cid=0x0:0x181fc03fafedc4a2,
hardware store,hardware store,Kubu,"Kubu, Kec. Kubu, Kabupaten Karangasem, Bali","Kabupaten Karangasem, Bali",BALI,,Indonesia,,,,-8.25944,115.566002,https://maps.google.com/?cid=0x0:0x7361d170964b4850,
hardware store,Toko Bahan Bangunan,Ud. Bangunan Karangasem,"Jl. Achmad Yani No.100, Subagan, Kec. Karangasem, Kabupaten Karangasem, Bali 80811","Subagan, Kec. Karangasem, Kabupaten Karangasem",BALI,80811.0,Indonesia,36321475.0,,,-8.456688,115.6024291,https://maps.google.com/?cid=0x0:0x1449fae0db3ba084,
hardware store,hardware store,Bali 80853,"Kabupaten Karangasem, Bali","Kabupaten Karangasem, Bali",BALI,,Indonesia,,,,-8.2879419,115.4970466,https://maps.google.com/?cid=0x0:0x1c00c5eb6016c070,
hardware store,hardware store,Utama Villa Tulamben,"Jl. Pura Puseh Duda, Tulamben, Kec. Kubu, Kabupaten Karangasem, Bali 80853","Tulamben, Kec. Kubu, Kabupaten Karangasem",BALI,80853.0,Indonesia,81339278381.0,,,-8.2812081,115.5925049,https://maps.google.com/?cid=0x0:0xc45f20f0608fe7e1,
hardware store,Toko Bahan Bangunan,Atlantic Hardware Store,"Jl. Sunset Road No.65 A, Legian, Kec. Kuta, Kabupaten Badung, Bali 80361","Legian, Kec. Kuta, Kabupaten Badung",BALI,80361.0,Indonesia,81239673975.0,,,-8.7050249,115.1820732,https://maps.google.com/?cid=0x0:0x181fc03fafedc4a2,
hardware store,Toko Bahan Bangunan,Nakula Jaya Abadi,"Jl. Nakula No.69 X, Legian, Kec. Kuta, Kabupaten Badung, Bali 80361","Legian, Kec. Kuta, Kabupaten Badung",BALI,80361.0,Indonesia,85166898822.0,,,-8.6980234,115.1736725,https://maps.google.com/?cid=0x0:0xb52e3b792a894a82,
hardware store,hardware store,Manggis,"Manggis, Kec. Manggis, Kabupaten Karangasem, Bali","Kabupaten Karangasem, Bali",BALI,,Indonesia,,,,-8.492179,115.5252,https://maps.google.com/?cid=0x0:0xe8cfc3ff76ecc7c4,
hardware store,Toko Bahan Bangunan,Atlantic Hardware Store,"Jl. Sunset Road No.65 A, Legian, Kec. Kuta, Kabupaten Badung, Bali 80361","Legian, Kec. Kuta, Kabupaten Badung",BALI,80361.0,Indonesia,81239673975.0,,,-8.7050249,115.1820732,https://maps.google.com/?cid=0x0:0x181fc03fafedc4a2,
hardware store,Toko Bahan Bangunan,TOKO FAJAR,"GG25+635, Jalan Raya Ulakan-Karangasem, Ulakan, Manggis, Kec. Manggis, Kabupaten Karangasem, Bali 80871","Jalan Raya Ulakan-Karangasem, Ulakan, Manggis, Kec. Manggis, Kabupaten Karangasem",BALI,80871.0,Indonesia,81338594907.0,,,-8.499499,115.5077498,https://maps.google.com/?cid=0x0:0xe81a777dd31468f2,
hardware store,Toko Bahan Bangunan,Windu Hardatama Solusindo,"Jl. Pariaman No.34 10, RT.10/RW.2, Ps. Manggis, Kecamatan Setiabudi, Kota Jakarta Selatan, Daerah Khusus Ibukota Jakarta 12970","RT.10/RW.2, Ps. Manggis, Kecamatan Setiabudi, Kota Jakarta Selatan",BALI,12970.0,Indonesia,218293631.0,,,-6.2089274,106.8419758,https://maps.google.com/?cid=0x0:0xb08d1e88509c7e5d,
hardware store,Toko Bahan Bangunan,Anugerah Solusindo Service,"Jl. Pedurenan Masjid III No.58 A 11, RT.11/RW.4, Kuningan, Karet Kuningan, Kecamatan Setiabudi, Kota Jakarta Selatan, Daerah Khusus Ibukota Jakarta 12940","RT.11/RW.4, Kuningan, Karet Kuningan, Kecamatan Setiabudi, Kota Jakarta Selatan",BALI,12940.0,Indonesia,2157934168.0,,,-6.2231984,106.8257868,https://maps.google.com/?cid=0x0:0xa241dec068083438,
hardware store,hardware store,Bali 80863,"Kec. Rendang, Kabupaten Karangasem, Bali","Kabupaten Karangasem, Bali",BALI,,Indonesia,,,,-8.3623262,115.4378152,https://maps.google.com/?cid=0x0:0x1c00c5eb6016c0a0,
hardware store,Toko Perlengkapan Rumah,UD. Made Hardware,"Jl. Raya Besakih No.116 Banjar Sekar, Nongan, Kec. Rendang, Kabupaten Karangasem, Bali 80863","Nongan, Kec. Rendang, Kabupaten Karangasem",BALI,80863.0,Indonesia,87703081992.0,,,-8.4524476,115.4099723,https://maps.google.com/?cid=0x0:0x81ca230a385e1c9d,
hardware store,Toko Bahan Bangunan,TB SINAR HARAPAN,"Jl. Raya Besakih No.88, Pesaban, Kec. Rendang, Kabupaten Karangasem, Bali 80863","Pesaban, Kec. Rendang, Kabupaten Karangasem",BALI,80863.0,Indonesia,,,,-8.4566866,115.4083451,https://maps.google.com/?cid=0x0:0x6d07e2f7ab0b9c2e,
hardware store,Toko Bahan Bangunan,TB Sinar Jaya,"HCQC+XGR, Jl. Raya Besakih, Menanga, Kec. Rendang, Kabupaten Karangasem, Bali 80863","Jl. Raya Besakih, Menanga, Kec. Rendang, Kabupaten Karangasem",BALI,80863.0,Indonesia,8123609767.0,,,-8.4100182,115.4212673,https://maps.google.com/?cid=0x0:0xea6ce10261f21994,
hardware store,Toko Bahan Bangunan,UD. Suar,"HH55+PXJ, Jl. Kuncaragiri, Bebandem, Kec. Bebandem, Kabupaten Karangasem, Bali 80861","Jl. Kuncaragiri, Bebandem, Kec. Bebandem, Kabupaten Karangasem",BALI,80861.0,Indonesia,81246746266.0,,,-8.4406535,115.559901,https://maps.google.com/?cid=0x0:0x7c18f7e0a798e8d4,
hardware store,Toko Bahan Bangunan,Toko bangunan ardika,"HCRQ+JH4, Menanga, Kec. Rendang, Kabupaten Karangasem, Bali 80863","Menanga, Kec. Rendang, Kabupaten Karangasem",BALI,80863.0,Indonesia,,,,-8.4084803,115.4389543,https://maps.google.com/?cid=0x0:0xae15757b1ecce1f5,
hardware store,Toko Bahan Bangunan,Toko Hyang Pupuh,"Bangbang, Kec. Tembuku, Kabupaten Bangli, Bali 80671","Kec. Tembuku, Kabupaten Bangli",BALI,80671.0,Indonesia,81338443595.0,,,-8.4325075,115.4100422,https://maps.google.com/?cid=0x0:0xcd21422be2c9b0f3,
hardware store,Toko Bahan Bangunan,KARUNIA MAKMUR KUBAKAL,"JCF3+RW2, Unnamed Road, Pempatan, Kec. Rendang, Kabupaten Karangasem, Bali 80671","Unnamed Road, Pempatan, Kec. Rendang, Kabupaten Karangasem",BALI,80671.0,Indonesia,81339522130.0,,,-8.3754807,115.4047524,https://maps.google.com/?cid=0x0:0x4390acdce7e49d1c,
hardware store,Toko Bahan Bangunan,Agung Hardware,"Jalan cok gede rai peliatan ubud gianyar 80751, Peliatan, Kecamatan Ubud, Kabupaten Gianyar, Bali 80751","Peliatan, Kecamatan Ubud, Kabupaten Gianyar",BALI,80751.0,Indonesia,85253888998.0,,,-8.520831,115.2682952,https://maps.google.com/?cid=0x0:0x3bde289d17870df9,
hardware store,Toko Bahan Bangunan,TB Padma sari Muncan toko material bangunan,"Unnamed Road, Muncan, Selat, Karangasem Regency, Bali 80862","Muncan, Selat, Karangasem Regency",BALI,80862.0,Indonesia,87860404096.0,,,-8.4369508,115.444766,https://maps.google.com/?cid=0x0:0xb76c358a3d93a90a,
hardware store,Toko Elektronik,Surya Cellular,"HC47+V98, Unnamed Road, Nongan, Kec. Rendang, Kabupaten Karangasem, Bali 80863","Unnamed Road, Nongan, Kec. Rendang, Kabupaten Karangasem",BALI,80863.0,Indonesia,8123864970.0,,,-8.4428348,115.413442,https://maps.google.com/?cid=0x0:0x90b9f11e3f80eb83,
hardware store,Pusat Bisnis,Man Jablar,"Jl. Surya Indah No.17, Rendang, Kec. Rendang, Kabupaten Karangasem, Bali 80863","Rendang, Kec. Rendang, Kabupaten Karangasem",BALI,80863.0,Indonesia,,,,-8.4248907,115.4292632,https://maps.google.com/?cid=0x0:0x4c5a342316a99c4c,
hardware store,Toko Bahan Bangunan,RAJIN BANGUNAN,"Jl. Kesumayudha, Sulahan, Kec. Susut, Kabupaten Bangli, Bali 80661","Sulahan, Kec. Susut, Kabupaten Bangli",BALI,80661.0,Indonesia,81353322312.0,,,-8.4014975,115.3484071,https://maps.google.com/?cid=0x0:0x504756573f7771d4,
hardware store,Toko Bahan Bangunan,Ud sari luhur menanga,"Jl. Gn. Agung No.35, Menanga, Kec. Rendang, Kabupaten Karangasem, Bali 80811","Menanga, Kec. Rendang, Kabupaten Karangasem",BALI,80811.0,Indonesia,85339630202.0,,,-8.4026464,115.4206681,https://maps.google.com/?cid=0x0:0x9dce860ca3698a5d,
hardware store,Toko Bahan Bangunan,UD Sari Karya,"Jl. Raya Besakih No.184, Akah, Kec. Klungkung, Kabupaten Klungkung, Bali 80716","Akah, Kec. Klungkung, Kabupaten Klungkung",BALI,80716.0,Indonesia,36624704.0,,,-8.514183,115.4016617,https://maps.google.com/?cid=0x0:0xa3e0b01c86e03f34,
hardware store,Toko Bahan Bangunan,TB. GANESHA JAYA,"Tangkup, Kec. Sidemen, Kabupaten Karangasem, Bali 80716","Kec. Sidemen, Kabupaten Karangasem",BALI,80716.0,Indonesia,8123941064.0,,,-8.4950148,115.4137259,https://maps.google.com/?cid=0x0:0xd468c40143fdb8f5,
hardware store,Toko Bahan Bangunan,Bali Natural,"C8HX+F66, Jl. Raya Pantai Lebih, Lebih, Kec. Gianyar, Kabupaten Gianyar, Bali 80511","Jl. Raya Pantai Lebih, Lebih, Kec. Gianyar, Kabupaten Gianyar",BALI,80511.0,Indonesia,83119398813.0,,,-8.571331,115.3480247,https://maps.google.com/?cid=0x0:0x4e0f6d90449321b,
hardware store,Toko Bahan Bangunan,UD. Sabar,"Jl. Brigjen Ngurah Rai No.10, Kawan, Kec. Bangli, Kabupaten Bangli, Bali 80614","Kawan, Kec. Bangli, Kabupaten Bangli",BALI,80614.0,Indonesia,85166898954.0,,,-8.4554356,115.3529933,https://maps.google.com/?cid=0x0:0x4f1f460537c9946,
hardware store,Toko,Sindu Bangunan,"Sindu Wati, Kec. Sidemen, Kabupaten Karangasem, Bali 80864","Kec. Sidemen, Kabupaten Karangasem",BALI,80864.0,Indonesia,,,,-8.4557061,115.4517263,https://maps.google.com/?cid=0x0:0x5579ccd2fc0fd162,
hardware store,Toko Bahan Bangunan,Menjual Material,"JF49+4GG, Sebudi, Kec. Selat, Kabupaten Karangasem, Bali 80862","Sebudi, Kec. Selat, Kabupaten Karangasem",BALI,80862.0,Indonesia,85333052069.0,,,-8.3946977,115.4688372,https://maps.google.com/?cid=0x0:0xf721feb102adcdc4,
hardware store,Toko Kayu,Putra Dukuh Kayu lokal,"Dusun pantunan, banjar bangkiangsidem, Bangbang, Kec. Tembuku, Kabupaten Bangli, Bali 80614","banjar bangkiangsidem, Bangbang, Kec. Tembuku, Kabupaten Bangli",BALI,80614.0,Indonesia,82192947877.0,,,-8.4151522,115.4117292,https://maps.google.com/?cid=0x0:0x6c02699d60d90ccb,
hardware store,Toko Bahan Bangunan,UD KEVIN JUNIOR,"Jalan kapten anom mudita, lc umabukal, Kabupaten Bangli, Bali 80614","lc umabukal, Kabupaten Bangli",BALI,80614.0,Indonesia,82346021848.0,,,-8.4457875,115.3592429,https://maps.google.com/?cid=0x0:0x210abc9778e7b366,
hardware store,Toko,UD MADE KARYA 1,"Jl. Pura Dalem UIakan, Desa Ulakan, Manggis, Kec. Manggis, Kabupaten Karangasem, Bali 80871","Desa Ulakan, Manggis, Kec. Manggis, Kabupaten Karangasem",BALI,80871.0,Indonesia,82236600044.0,,,-8.4934015,115.5050648,https://maps.google.com/?cid=0x0:0xad299e742e160633,
hardware store,Toko Bahan Bangunan,Atlantic Hardware Store,"Jl. Sunset Road No.65 A, Legian, Kec. Kuta, Kabupaten Badung, Bali 80361","Legian, Kec. Kuta, Kabupaten Badung",BALI,80361.0,Indonesia,81239673975.0,,,-8.7050249,115.1820732,https://maps.google.com/?cid=0x0:0x181fc03fafedc4a2,
hardware store,hardware store,Selat,"Pering Sari, Kec. Selat, Kabupaten Karangasem, Bali","Kabupaten Karangasem, Bali",BALI,,Indonesia,,,,-8.437853,115.465897,https://maps.google.com/?cid=0x0:0x22f53a4a73abc935,
hardware store,Pusat Perbelanjaan,Toko Batu Ayu,"HF97+C5J, Jl. Raya Muncan, Pering Sari, Kec. Selat, Kabupaten Karangasem, Bali 80862","Jl. Raya Muncan, Pering Sari, Kec. Selat, Kabupaten Karangasem",BALI,80862.0,Indonesia,,,,-8.4314122,115.4628997,https://maps.google.com/?cid=0x0:0x9f589871f88bfeda,
hardware store,Toko Bahan Bangunan,Toko Bahan Bangunan Makita 2,"Selat Hilir, Kec. Selat, Kabupaten Kapuas, Kalimantan Tengah 73516","Kec. Selat, Kabupaten Kapuas",BALI,73516.0,Indonesia,81348644115.0,,,-3.0190088,114.3884391,https://maps.google.com/?cid=0x0:0x2c4905b2412181e2,
hardware store,Toko Perlengkapan Rumah,Toko Bangunan Kawan Kita,"X9XR+HHV, Selat Tengah, Kec. Selat, Kabupaten Kapuas, Kalimantan Tengah 73516","Selat Tengah, Kec. Selat, Kabupaten Kapuas",BALI,73516.0,Indonesia,51323074.0,,,-3.0010092,114.3914251,https://maps.google.com/?cid=0x0:0x13809857992ce88c,
hardware store,Toko Bahan Bangunan,Atlantic Hardware Store,"Jl. Sunset Road No.65 A, Legian, Kec. Kuta, Kabupaten Badung, Bali 80361","Legian, Kec. Kuta, Kabupaten Badung",BALI,80361.0,Indonesia,81239673975.0,,,-8.7050249,115.1820732,https://maps.google.com/?cid=0x0:0x181fc03fafedc4a2,
hardware store,Toko Bahan Bangunan,Nakula Jaya Abadi,"Jl. Nakula No.69 X, Legian, Kec. Kuta, Kabupaten Badung, Bali 80361","Legian, Kec. Kuta, Kabupaten Badung",BALI,80361.0,Indonesia,85166898822.0,,,-8.6980234,115.1736725,https://maps.google.com/?cid=0x0:0xb52e3b792a894a82,
hardware store,Toko Bahan Bangunan,Toko Bahan Bangunan Makita 2,"Selat Hilir, Kec. Selat, Kabupaten Kapuas, Kalimantan Tengah 73516","Kec. Selat, Kabupaten Kapuas",BALI,73516.0,Indonesia,81348644115.0,,,-3.0190088,114.3884391,https://maps.google.com/?cid=0x0:0x2c4905b2412181e2,
hardware store,hardware store,Kec. Selat,"Kabupaten Karangasem, Bali","Kabupaten Karangasem, Bali",BALI,,Indonesia,,,,-8.4361355,115.474576,https://maps.google.com/?cid=0x0:0x4030bfbca7d2de0,
hardware store,Toko Bahan Bangunan,Toko Makita 1,"X9HV+94H, Jl. Jend. Sudirman, Selat Hilir, Kec. Selat, Kabupaten Kapuas, Kalimantan Tengah 73516","Jl. Jend. Sudirman, Selat Hilir, Kec. Selat, Kabupaten Kapuas",BALI,73516.0,Indonesia,51323543.0,,,-3.0215635,114.3928742,https://maps.google.com/?cid=0x0:0x68c56cf8cc722bd6,
hardware store,hardware store,Selat Bali,,,BALI,,Indonesia,,,,-8.1,114.425,https://maps.google.com/?cid=0x0:0x2a027a7715df34d0,
hardware store,Toko Bahan Bangunan,Atlantic Hardware Store,"Jl. Sunset Road No.65 A, Legian, Kec. Kuta, Kabupaten Badung, Bali 80361","Legian, Kec. Kuta, Kabupaten Badung",BALI,80361.0,Indonesia,81239673975.0,,,-8.7050249,115.1820732,https://maps.google.com/?cid=0x0:0x181fc03fafedc4a2,
hardware store,Toko Bahan Bangunan,Nakula Jaya Abadi,"Jl. Nakula No.69 X, Legian, Kec. Kuta, Kabupaten Badung, Bali 80361","Legian, Kec. Kuta, Kabupaten Badung",BALI,80361.0,Indonesia,85166898822.0,,,-8.6980234,115.1736725,https://maps.google.com/?cid=0x0:0xb52e3b792a894a82,
hardware store,Toko Bahan Bangunan,Toko Bahan Bangunan Makita 2,"Selat Hilir, Kec. Selat, Kabupaten Kapuas, Kalimantan Tengah 73516","Kec. Selat, Kabupaten Kapuas",BALI,73516.0,Indonesia,81348644115.0,,,-3.0190088,114.3884391,https://maps.google.com/?cid=0x0:0x2c4905b2412181e2,
hardware store,Toko Bahan Bangunan,Nakula Jaya Abadi,"Jl. Nakula No.69 X, Legian, Kec. Kuta, Kabupaten Badung, Bali 80361","Legian, Kec. Kuta, Kabupaten Badung",BALI,80361.0,Indonesia,85166898822.0,,,-8.6980234,115.1736725,https://maps.google.com/?cid=0x0:0xb52e3b792a894a82,
hardware store,Toko Bahan Bangunan,Atlantic Hardware Store,"Jl. Sunset Road No.65 A, Legian, Kec. Kuta, Kabupaten Badung, Bali 80361","Legian, Kec. Kuta, Kabupaten Badung",BALI,80361.0,Indonesia,81239673975.0,,,-8.7050249,115.1820732,https://maps.google.com/?cid=0x0:0x181fc03fafedc4a2,
hardware store,Toko Bahan Bangunan,Toko Bahan Bangunan Makita 2,"Selat Hilir, Kec. Selat, Kabupaten Kapuas, Kalimantan Tengah 73516","Kec. Selat, Kabupaten Kapuas",BALI,73516.0,Indonesia,81348644115.0,,,-3.0190088,114.3884391,https://maps.google.com/?cid=0x0:0x2c4905b2412181e2,
hardware store,Toko Bahan Bangunan,U.D TIGA BERSAUDARA,"Jl. Trans - Kalimantan No.Km. 1,4, Anjir Mambulau Bar., Kec. Kapuas Tim., Kabupaten Kapuas, Kalimantan Tengah 73581","Anjir Mambulau Bar., Kec. Kapuas Tim., Kabupaten Kapuas",BALI,73581.0,Indonesia,85248291673.0,,,-3.0376368,114.4030928,https://maps.google.com/?cid=0x0:0x33a2b3b7cf9ab308,
hardware store,Toko Perlengkapan Rumah,Toko Busyro,"2929+R9Q, Pulau Telo, Kec. Selat, Kabupaten Kapuas, Kalimantan Tengah 73516","Pulau Telo, Kec. Selat, Kabupaten Kapuas",BALI,73516.0,Indonesia,81251185357.0,,,-2.9979162,114.3684763,https://maps.google.com/?cid=0x0:0x873c99494b3082c0,
hardware store,Toko Perlengkapan Rumah,Toko Bahan Bangunan Bintang Timur,"X9VM+CR2, Selat Tengah, Kec. Selat, Kabupaten Kapuas, Kalimantan Tengah 73516","Selat Tengah, Kec. Selat, Kabupaten Kapuas",BALI,73516.0,Indonesia,82174890900.0,,,-3.0064345,114.3845831,https://maps.google.com/?cid=0x0:0xd8b17af5517d1ab5,
hardware store,Pusat Perbelanjaan,MR. DIY Citimall Kuala Kapuas,"Citimall Kuala Kapuas Lt. 1, Selat Dalam, Kec. Selat, Kabupaten Kapuas, Kalimantan Tengah 73516","Selat Dalam, Kec. Selat, Kabupaten Kapuas",BALI,73516.0,Indonesia,2130022789.0,,,-2.9867182,114.3990401,https://maps.google.com/?cid=0x0:0xe8f5f432602655f7,
hardware store,Toko Alat-Alat,Toko Edy Bangunan,"Jl. Mawar No.201, Selat Hilir, Kec. Selat, Kabupaten Kapuas, Kalimantan Tengah 73516","Selat Hilir, Kec. Selat, Kabupaten Kapuas",BALI,73516.0,Indonesia,,,,-3.020474,114.3937612,https://maps.google.com/?cid=0x0:0x7b4b198feb95a32e,
hardware store,Toko Bahan Bangunan,Tb habibi,"X9MV+CHX, Selat Tengah, Kec. Selat, Kabupaten Kapuas, Kalimantan Tengah 73516","Selat Tengah, Kec. Selat, Kabupaten Kapuas",BALI,73516.0,Indonesia,,,,-3.0163915,114.3939831,https://maps.google.com/?cid=0x0:0xc5853c9573285053,
hardware store,Toko Perlengkapan Rumah,TOKO RIDHA,"X9WH+98P samping Futsal88, Jl. Patih Rumbih, Selat Tengah, Kec. Selat, Kabupaten Kapuas, Kalimantan Tengah 73514","Jl. Patih Rumbih, Selat Tengah, Kec. Selat, Kabupaten Kapuas",BALI,73514.0,Indonesia,82145021701.0,,,-3.0040322,114.3783455,https://maps.google.com/?cid=0x0:0xb87373c3568fadfc,
hardware store,Toko Bahan Bangunan,Toko Fadilah Jaya,"28HF+Q5P, Batuah, Kec. Basarang, Kabupaten Kapuas, Kalimantan Tengah 73516","Batuah, Kec. Basarang, Kabupaten Kapuas",BALI,73516.0,Indonesia,82353150027.0,,,-2.9705344,114.3229616,https://maps.google.com/?cid=0x0:0xf213ff050e391bed,
hardware store,Toko Perlengkapan Rumah,Toko Bangunan Fajar Mas,"Jl. Jendral Sudirman No. 35 / 56 Depan Toko Mas Purnama, Kalimantan Tengah 73513","Kabupaten Kapuas, Kalimantan Tengah",BALI,,Indonesia,8125180910.0,,,-3.022415,114.3923714,https://maps.google.com/?cid=0x0:0x5bf3af2da21dc1f6,
hardware store,Toko Bahan Bangunan,TB. H. Sahrani,"Jl. Cilik Riwut No.44, RT.11a/RW.003, hulu, Kec. Selat, Kabupaten Kapuas, Kalimantan Tengah 73515","RT.11a/RW.003, hulu, Kec. Selat, Kabupaten Kapuas",BALI,73515.0,Indonesia,,,,-3.0062796,114.3990239,https://maps.google.com/?cid=0x0:0xb4f38aae075898bd,
hardware store,Pusat Perbelanjaan,Toko Batu Ayu,"HF97+C5J, Jl. Raya Muncan, Pering Sari, Kec. Selat, Kabupaten Karangasem, Bali 80862","Jl. Raya Muncan, Pering Sari, Kec. Selat, Kabupaten Karangasem",BALI,80862.0,Indonesia,,,,-8.4314122,115.4628997,https://maps.google.com/?cid=0x0:0x9f589871f88bfeda,
hardware store,Toko Bahan Bangunan,Batu Ayu Mart  Grosir,"Pering Sari, Kec. Selat, Kabupaten Karangasem, Bali 80862","Kec. Selat, Kabupaten Karangasem",BALI,80862.0,Indonesia,81337429477.0,,,-8.4325747,115.4646236,https://maps.google.com/?cid=0x0:0xfa8e5b4281b78938,
hardware store,hardware store,Bali 80862,"Kec. Selat, Kabupaten Karangasem, Bali","Kabupaten Karangasem, Bali",BALI,,Indonesia,,,,-8.4194238,115.4852012,https://maps.google.com/?cid=0x0:0x1c00c5eb6016c090,
hardware store,Toko Bahan Bangunan,UD. Sari Sinar Jaya,"Jl. Baledan, Duda, Kec. Selat, Kabupaten Karangasem, Bali 80862","Duda, Kec. Selat, Kabupaten Karangasem",BALI,80862.0,Indonesia,82340139898.0,,,-8.4432161,115.4889461,https://maps.google.com/?cid=0x0:0x51e63286659a2c0c,
hardware store,Toko Bahan Bangunan,TB Padma sari Muncan toko material bangunan,"Unnamed Road, Muncan, Selat, Karangasem Regency, Bali 80862","Muncan, Selat, Karangasem Regency",BALI,80862.0,Indonesia,87860404096.0,,,-8.4369508,115.444766,https://maps.google.com/?cid=0x0:0xb76c358a3d93a90a,
hardware store,Toko Bahan Bangunan,Ud.Diah Bangunan,"HF2X+X8C, Jl. Baledan, Duda, Kec. Selat, Kabupaten Karangasem, Bali","Kabupaten Karangasem, Bali",BALI,,Indonesia,85239685002.0,,,-8.4475744,115.4982676,https://maps.google.com/?cid=0x0:0x1ff5f3b38eca7e72,
hardware store,Toko Bahan Bangunan,Menjual Material,"JF49+4GG, Sebudi, Kec. Selat, Kabupaten Karangasem, Bali 80862","Sebudi, Kec. Selat, Kabupaten Karangasem",BALI,80862.0,Indonesia,85333052069.0,,,-8.3946977,115.4688372,https://maps.google.com/?cid=0x0:0xf721feb102adcdc4,
hardware store,Toko Bahan Bangunan,Atlantic Hardware Store,"Jl. Sunset Road No.65 A, Legian, Kec. Kuta, Kabupaten Badung, Bali 80361","Legian, Kec. Kuta, Kabupaten Badung",BALI,80361.0,Indonesia,81239673975.0,,,-8.7050249,115.1820732,https://maps.google.com/?cid=0x0:0x181fc03fafedc4a2,
hardware store,Toko Bahan Bangunan,pasek brother,"Jl. Raya Muncan No.11, Muncan, Kec. Selat, Kabupaten Karangasem, Bali 80863","Muncan, Kec. Selat, Kabupaten Karangasem",BALI,80863.0,Indonesia,,,,-8.4271161,115.4408671,https://maps.google.com/?cid=0x0:0x605b241f59d56bb5,
hardware store,Toko Alat Tulis Kantor,Quera ATK,"HF6H+PX2, Selat, Kec. Selat, Kabupaten Karangasem, Bali 80862","Selat, Kec. Selat, Kabupaten Karangasem",BALI,80862.0,Indonesia,,,,-8.4382497,115.479901,https://maps.google.com/?cid=0x0:0x783f639c489b70b0,
hardware store,Toko Bahan Bangunan,UD. Putra kembar,"HF97+646, Jalan, Pering Sari, Kec. Selat, Kabupaten Karangasem, Bali 80862","Jalan, Pering Sari, Kec. Selat, Kabupaten Karangasem",BALI,80862.0,Indonesia,85958513865.0,,,-8.431972,115.4627545,https://maps.google.com/?cid=0x0:0x2051e246c12ad865,
hardware store,hardware store,Bali 80864,"Kec. Sidemen, Kabupaten Karangasem, Bali","Kabupaten Karangasem, Bali",BALI,,Indonesia,,,,-8.4831122,115.4378152,https://maps.google.com/?cid=0x0:0x1c00c5eb6016c0b0,
hardware store,Toko Perlengkapan Rumah,UD. Made Hardware,"Jl. Raya Besakih No.116 Banjar Sekar, Nongan, Kec. Rendang, Kabupaten Karangasem, Bali 80863","Nongan, Kec. Rendang, Kabupaten Karangasem",BALI,80863.0,Indonesia,87703081992.0,,,-8.4524476,115.4099723,https://maps.google.com/?cid=0x0:0x81ca230a385e1c9d,
hardware store,Toko,Sindu Bangunan,"Sindu Wati, Kec. Sidemen, Kabupaten Karangasem, Bali 80864","Kec. Sidemen, Kabupaten Karangasem",BALI,80864.0,Indonesia,,,,-8.4557061,115.4517263,https://maps.google.com/?cid=0x0:0x5579ccd2fc0fd162,
hardware store,Toko Bahan Bangunan,TB Adi Artha,"GCHX+MH5, Jl Semarapura Lantang Katik, Sidemen, Kec. Sidemen, Kabupaten Karangasem, Bali 80864","Jl Semarapura Lantang Katik, Sidemen, Kec. Sidemen, Kabupaten Karangasem",BALI,80864.0,Indonesia,82147847841.0,,,-8.4708513,115.4489968,https://maps.google.com/?cid=0x0:0xf1f599afff9fc3f6,
hardware store,Toko,toko taman sari,"Jl. Semarapura-Karangasem No.16, Talibeng, Kec. Sidemen, Kabupaten Karangasem, Bali 80864","Talibeng, Kec. Sidemen, Kabupaten Karangasem",BALI,80864.0,Indonesia,81999154403.0,,,-8.4975074,115.4382084,https://maps.google.com/?cid=0x0:0x8459f7b3a7fa23fd,
hardware store,Toko Bahan Bangunan,TB. GANESHA JAYA,"Tangkup, Kec. Sidemen, Kabupaten Karangasem, Bali 80716","Kec. Sidemen, Kabupaten Karangasem",BALI,80716.0,Indonesia,8123941064.0,,,-8.4950148,115.4137259,https://maps.google.com/?cid=0x0:0xd468c40143fdb8f5,
hardware store,Toko Bahan Bangunan,UD Sumber Utama,"GFW4+V49, Jl. Semarapura-Karangasem, Sindu Wati, Kec. Sidemen, Kabupaten Karangasem, Bali 80864","Jl. Semarapura-Karangasem, Sindu Wati, Kec. Sidemen, Kabupaten Karangasem",BALI,80864.0,Indonesia,82340223032.0,,,-8.4528496,115.4553578,https://maps.google.com/?cid=0x0:0x4d44d3614dded788,
hardware store,Toko Bahan Bangunan,TB Dana Putra,"GC38+2GQ, Anyar, Tangkup, Kec. Sidemen, Kabupaten Karangasem, Bali 80864","Anyar, Tangkup, Kec. Sidemen, Kabupaten Karangasem",BALI,80864.0,Indonesia,82339361852.0,,,-8.4974105,115.4163583,https://maps.google.com/?cid=0x0:0x2531c4721c9e7376,
hardware store,Toko Bahan Bangunan,UD Sari Karya,"Jl. Raya Besakih No.184, Akah, Kec. Klungkung, Kabupaten Klungkung, Bali 80716","Akah, Kec. Klungkung, Kabupaten Klungkung",BALI,80716.0,Indonesia,36624704.0,,,-8.514183,115.4016617,https://maps.google.com/?cid=0x0:0xa3e0b01c86e03f34,
hardware store,Toko Bahan Bangunan,TB Padma sari Muncan toko material bangunan,"Unnamed Road, Muncan, Selat, Karangasem Regency, Bali 80862","Muncan, Selat, Karangasem Regency",BALI,80862.0,Indonesia,87860404096.0,,,-8.4369508,115.444766,https://maps.google.com/?cid=0x0:0xb76c358a3d93a90a,
hardware store,Toko Elektronik,Multijaya teknik,"Banjar bukian, Jl. Raya Besakih, Nongan, Kec. Rendang, Kabupaten Karangasem, Bali 80863","Jl. Raya Besakih, Nongan, Kec. Rendang, Kabupaten Karangasem",BALI,80863.0,Indonesia,81339565881.0,,,-8.4500253,115.4108469,https://maps.google.com/?cid=0x0:0xa98b923fc156b35d,
hardware store,Toko Bahan Bangunan,UD Karya Bangunan,"Jl. Ngurah Rai No.88 A, Semarapura Tengah, Kec. Klungkung, Kabupaten Klungkung, Bali 80711","Semarapura Tengah, Kec. Klungkung, Kabupaten Klungkung",BALI,80711.0,Indonesia,81338141935.0,,,-8.5294348,115.3984585,https://maps.google.com/?cid=0x0:0x8915cfcafeed36b9,
hardware store,Toko Bahan Bangunan,Atlantic Hardware Store,"Jl. Sunset Road No.65 A, Legian, Kec. Kuta, Kabupaten Badung, Bali 80361","Legian, Kec. Kuta, Kabupaten Badung",BALI,80361.0,Indonesia,81239673975.0,,,-8.7050249,115.1820732,https://maps.google.com/?cid=0x0:0x181fc03fafedc4a2,
hardware store,Toko Bahan Bangunan,TB SINAR HARAPAN,"Jl. Raya Besakih No.88, Pesaban, Kec. Rendang, Kabupaten Karangasem, Bali 80863","Pesaban, Kec. Rendang, Kabupaten Karangasem",BALI,80863.0,Indonesia,,,,-8.4566866,115.4083451,https://maps.google.com/?cid=0x0:0x6d07e2f7ab0b9c2e,
hardware store,Toko Bahan Bangunan,Ud Dana Putra,"GC58+5R4, Tangkup, Anyar, Kabupaten Karangasem, Bali 80864","Tangkup, Anyar, Kabupaten Karangasem",BALI,80864.0,Indonesia,82339361852.0,,,-8.492108,115.4170814,https://maps.google.com/?cid=0x0:0x99dedc9ff5d96d71,
hardware store,Toko Bahan Bangunan,Toko Hyang Pupuh,"Bangbang, Kec. Tembuku, Kabupaten Bangli, Bali 80671","Kec. Tembuku, Kabupaten Bangli",BALI,80671.0,Indonesia,81338443595.0,,,-8.4325075,115.4100422,https://maps.google.com/?cid=0x0:0xcd21422be2c9b0f3,
toko bangunan,toko bangunan,Abang,"Kec. Abang, Kabupaten Karangasem, Bali","Kabupaten Karangasem, Bali",BALI,,Indonesia,,,,-8.3938452,115.6006725,https://maps.google.com/?cid=0x0:0x5030bfbca831740,
toko bangunan,Toko Bahan Bangunan,TB Duta Bangunan,"Jl. Raya Abang Abang Abang, Abang, Kec. Abang, Kabupaten Karangasem, Bali 80811","Abang, Kec. Abang, Kabupaten Karangasem",BALI,80811.0,Indonesia,81339331677.0,,,-8.387554,115.602081,https://maps.google.com/?cid=0x0:0xf02058554c0e4947,
toko bangunan,Toko Bahan Bangunan,DL Bangunan,"JJ75+HRQ, Jl. Magetelu, Tista, Kec. Abang, Kabupaten Karangasem, Bali 80852","Jl. Magetelu, Tista, Kec. Abang, Kabupaten Karangasem",BALI,80852.0,Indonesia,,,,-8.386047,115.6095964,https://maps.google.com/?cid=0x0:0x6fd7aaccdfc463fb,
toko bangunan,Toko Bahan Bangunan,UD LINGGIH SARI BANGUNAN,"BANJAR BIAS, Ababi, Kec. Abang, Kabupaten Karangasem, Bali 80852","Ababi, Kec. Abang, Kabupaten Karangasem",BALI,80852.0,Indonesia,85829009097.0,,,-8.4007689,115.5949192,https://maps.google.com/?cid=0x0:0xadd3b2090a382b76,
toko bangunan,Toko Bahan Bangunan,UD. Paras Bumi,"HHXV+GM6, Jalan Raya, Ababi, Abang, Karangasem Regency, Bali 80852","Jalan Raya, Ababi, Abang, Karangasem Regency",BALI,80852.0,Indonesia,8123975877.0,,,-8.4012123,115.5941507,https://maps.google.com/?cid=0x0:0x3854c6c8666fd7ed,
toko bangunan,Toko Bahan Bangunan,Toko Bangunan,"Jl. Gajahmada, Karangasem, Kec. Karangasem, Kabupaten Karangasem, Bali 80811","Karangasem, Kec. Karangasem, Kabupaten Karangasem",BALI,80811.0,Indonesia,87721621039.0,,,-8.4480492,115.6160635,https://maps.google.com/?cid=0x0:0xb7c0309849c72142,
toko bangunan,Toko Bahan Bangunan,Ud. Manik Mas,"HJX4+M82, Jl. Lettu Alit, Dugdungan, Kec. Abang, Kabupaten Karangasem, Bali 80852","Jl. Lettu Alit, Dugdungan, Kec. Abang, Kabupaten Karangasem",BALI,80852.0,Indonesia,85738884939.0,,,-8.4008526,115.6057613,https://maps.google.com/?cid=0x0:0xa4e16d19a2fcf773,
toko bangunan,Toko Bahan Bangunan,UD LESTARI BANGUNAN,"MJ87+HGH, Laba Sari, Kec. Abang, Kabupaten Karangasem, Bali 80852","Laba Sari, Kec. Abang, Kabupaten Karangasem",BALI,80852.0,Indonesia,8174707661.0,,,-8.3335524,115.6138483,https://maps.google.com/?cid=0x0:0x943f63f22cbf0819,
toko bangunan,Toko Bahan Bangunan,UD. Kembar Jaya,"HJX6+5FG, Jl. Lettu Dugdugan, Abang, Kec. Abang, Kabupaten Karangasem, Bali 80852","Jl. Lettu Dugdugan, Abang, Kec. Abang, Kabupaten Karangasem",BALI,80852.0,Indonesia,,,,-8.4020643,115.6112088,https://maps.google.com/?cid=0x0:0x384e6a3e164d5244,
toko bangunan,,UD. Sumber Asih,"Jl. Ida Ketut Jelantik, Tista, Kec. Abang, Kabupaten Karangasem, Bali 80852","Tista, Kec. Abang, Kabupaten Karangasem",BALI,80852.0,Indonesia,81916130832.0,,,-8.374625,115.6080251,https://maps.google.com/?cid=0x0:0x498b6918be8767e2,
toko bangunan,Toko Bahan Bangunan,UD Oby Kurnia alam,"HHWQ+2M3, Jl. Raya Ababi, Ababi, Kec. Abang, Kabupaten Karangasem, Bali 80852","Jl. Raya Ababi, Ababi, Kec. Abang, Kabupaten Karangasem",BALI,80852.0,Indonesia,,,,-8.4049833,115.5891821,https://maps.google.com/?cid=0x0:0x66409cd6cb4c53dc,
toko bangunan,Toko Bahan Bangunan,Toko Bangunan Sinar Bintang,"JHFR+QQ6, Jl. Kesimpar Kota, Kesimpar, Kec. Abang, Kabupaten Karangasem, Bali 80852","Jl. Kesimpar Kota, Kesimpar, Kec. Abang, Kabupaten Karangasem",BALI,80852.0,Indonesia,81238346065.0,,,-8.3755826,115.5919044,https://maps.google.com/?cid=0x0:0x663cab80a0e2b4e4,
toko bangunan,Toko Bahan Bangunan,Ud. Bangunan Karangasem,"Jl. Achmad Yani No.100, Subagan, Kec. Karangasem, Kabupaten Karangasem, Bali 80811","Subagan, Kec. Karangasem, Kabupaten Karangasem",BALI,80811.0,Indonesia,36321475.0,,,-8.456688,115.6024291,https://maps.google.com/?cid=0x0:0x1449fae0db3ba084,
toko bangunan,Toko Bahan Bangunan,Bangunan Baru,"Jl. Kesatrian No.17, Karangasem, Kec. Karangasem, Kabupaten Karangasem, Bali 80811","Karangasem, Kec. Karangasem, Kabupaten Karangasem",BALI,80811.0,Indonesia,36321350.0,,,-8.4480686,115.6150109,https://maps.google.com/?cid=0x0:0x60893b015e2fbd8,
toko bangunan,Toko Kayu,UD Pesawangan,"JH9M+PH, Nawakerti, Kec. Abang, Kabupaten Karangasem, Bali 80852","Nawakerti, Kec. Abang, Kabupaten Karangasem",BALI,80852.0,Indonesia,,,,-8.3806052,115.5846835,https://maps.google.com/?cid=0x0:0xc05569c44d697af2,
toko bangunan,Toko,UD. Gunung Sari,"JH4X+C52 Ketut, Jl. Ida Kt Djelantik Jl. Ida Ketut Jelantik, Abang, Karangasem Regency, Bali 80852","Jl. Ida Kt Djelantik Jl. Ida Ketut Jelantik, Abang, Karangasem Regency",BALI,80852.0,Indonesia,81339131863.0,,,-8.3939931,115.597886,https://maps.google.com/?cid=0x0:0xd62c09196e921d6a,
toko bangunan,Toko Bahan Bangunan,WR. GD MUDIARTA SANGGAH DAN BANGUNAN BALI,"JJG7+QGW, Tista, Kec. Abang, Kabupaten Karangasem, Bali 80852","Tista, Kec. Abang, Kabupaten Karangasem",BALI,80852.0,Indonesia,81246514107.0,,,-8.373005,115.6138386,https://maps.google.com/?cid=0x0:0x3f73a7857b3f2870,
toko bangunan,Toko Bahan Bangunan,Oby karya alam,"HHQP+5XH Tirta Gangga, Jl raya abadi No.99, Ababi, Kec. Abang, Kabupaten Karangasem, Bali 80852","Jl raya abadi No.99, Ababi, Kec. Abang, Kabupaten Karangasem",BALI,80852.0,Indonesia,,,,-8.4119669,115.5875156,https://maps.google.com/?cid=0x0:0x1eefec792ddddcf7,
toko bangunan,Toko Bahan Bangunan,UD. LESTARI BANGUNAN II,"MJQ8+66Q, Jl. Kubu, Datah, Kec. Abang, Kabupaten Karangasem, Bali 80852","Jl. Kubu, Datah, Kec. Abang, Kabupaten Karangasem",BALI,80852.0,Indonesia,8161999912.0,,,-8.3119112,115.6156005,https://maps.google.com/?cid=0x0:0xf2ddc64663efd3e,
toko bangunan,Toko Bahan Bangunan,UD. Sederhana Indah,"Jl. I Ketut Natih, Purwakerti, Kec. Abang, Kabupaten Karangasem, Bali 80852","Purwakerti, Kec. Abang, Kabupaten Karangasem",BALI,80852.0,Indonesia,36323466.0,,,-8.3337504,115.6392157,https://maps.google.com/?cid=0x0:0xd1112776c8da18db,
toko bangunan,Toko Bahan Bangunan,"Toko bangunan Dua putra,bancei","Jl. Babakan Madang No.15, Babakan Madang, Kec. Babakan Madang, Kabupaten Bogor, Jawa Barat 16810","Babakan Madang, Kec. Babakan Madang, Kabupaten Bogor",BALI,16810.0,Indonesia,82114261067.0,,,-6.566984,106.8640769,https://maps.google.com/?cid=0x0:0xe012b53786d14e9c,
toko bangunan,Toko Bahan Bangunan,TB. Bali,"Jl. Payakumbuh No.4, RT.4/RW.6, Menteng Atas, Kecamatan Setiabudi, Kota Jakarta Selatan, Daerah Khusus Ibukota Jakarta 12960","RT.4/RW.6, Menteng Atas, Kecamatan Setiabudi, Kota Jakarta Selatan",BALI,12960.0,Indonesia,87780770977.0,,,-6.2142539,106.8428209,https://maps.google.com/?cid=0x0:0xc356ba01d7002585,
toko bangunan,Toko Bahan Bangunan,Toko Bahan Bangunan Dan Alat-Alat Listrik H.Sukrie,"Jl. Kebon Pala 9 No.6, RT.6/RW.16, Kb. Melati, Kecamatan Tanah Abang, Kota Jakarta Pusat, Daerah Khusus Ibukota Jakarta 10230","RT.6/RW.16, Kb. Melati, Kecamatan Tanah Abang, Kota Jakarta Pusat",BALI,10230.0,Indonesia,852199901294.0,,,-6.1961735,106.8111201,https://maps.google.com/?cid=0x0:0x9b775873910e6249,
toko bangunan,Toko Bahan Bangunan,Toko Anda,"Jl. Bendungan Hilir No.70, Bend. Hilir, Kecamatan Tanah Abang, Kota Jakarta Pusat, Daerah Khusus Ibukota Jakarta 10210","Bend. Hilir, Kecamatan Tanah Abang, Kota Jakarta Pusat",BALI,10210.0,Indonesia,8176868291.0,,,-6.2126821,106.8126366,https://maps.google.com/?cid=0x0:0xef688c9b2a747035,
toko bangunan,Toko Bahan Bangunan,Toko Bangunan Batu Raden,"RR47+WVF, Jl. K.H. Mas Mansyur, RT.1/RW.8, Kb. Kacang, Kecamatan Tanah Abang, Kota Jakarta Pusat, Daerah Khusus Ibukota Jakarta 10230","Jl. K.H. Mas Mansyur, RT.1/RW.8, Kb. Kacang, Kecamatan Tanah Abang, Kota Jakarta Pusat",BALI,10230.0,Indonesia,83822287779.0,,,-6.1926875,106.8146875,https://maps.google.com/?cid=0x0:0xd9057f8cb80c7715,
toko bangunan,Toko Bahan Bangunan,Toko Simpang Empat,"Jl. K.H. Mas Mansyur No.44C 2, RT.1/RW.6, Kb. Melati, Kecamatan Tanah Abang, Kota Jakarta Pusat, Daerah Khusus Ibukota Jakarta 10230","RT.1/RW.6, Kb. Melati, Kecamatan Tanah Abang, Kota Jakarta Pusat",BALI,10230.0,Indonesia,216336220.0,,,-6.1994183,106.8151212,https://maps.google.com/?cid=0x0:0xb906fb8c1148bf49,
toko bangunan,Toko Bahan Bangunan,TB.Berkah,"Jl. K.H. Mas Mansyur No.4 14, RT.14/RW.7, Kb. Kacang, Kecamatan Tanah Abang, Kota Jakarta Pusat, Daerah Khusus Ibukota Jakarta 10250","RT.14/RW.7, Kb. Kacang, Kecamatan Tanah Abang, Kota Jakarta Pusat",BALI,10250.0,Indonesia,8128835014.0,,,-6.188768,106.8150522,https://maps.google.com/?cid=0x0:0xcd9245cfd95d8164,
toko bangunan,Toko Bahan Bangunan,Tb. Sinar,"Jl. K.S. Tubun No.95 1, RT.1/RW.4, Petamburan, Kecamatan Tanah Abang, Kota Jakarta Pusat, Daerah Khusus Ibukota Jakarta 11410","RT.1/RW.4, Petamburan, Kecamatan Tanah Abang, Kota Jakarta Pusat",BALI,11410.0,Indonesia,215482179.0,,,-6.1959607,106.8051109,https://maps.google.com/?cid=0x0:0x7e638a663b050339,
toko bangunan,Toko Bahan Bangunan,"TB Fajar, Stasiun Sudirman","Jl. Kudus No.19, RT.10/RW.6, Dukuh Atas, Menteng, Kec. Menteng, Kota Jakarta Pusat, Daerah Khusus Ibukota Jakarta 10310","RT.10/RW.6, Dukuh Atas, Menteng, Kec. Menteng, Kota Jakarta Pusat",BALI,10310.0,Indonesia,83160635267.0,,,-6.2025403,106.8250384,https://maps.google.com/?cid=0x0:0x68e31cda9edc763a,
toko bangunan,toko bangunan,Bebandem,"Bebandem, Kec. Bebandem, Kabupaten Karangasem, Bali","Kabupaten Karangasem, Bali",BALI,,Indonesia,,,,-8.43892,115.563301,https://maps.google.com/?cid=0x0:0xd6717240f09e5914,
toko bangunan,Toko Bahan Bangunan,Mare Bangunan,"HGCX+8W8, Br. Tihingan Tengah, Bebandem, Kec. Bebandem, Kabupaten Karangasem, Bali 80851","Br. Tihingan Tengah, Bebandem, Kec. Bebandem, Kabupaten Karangasem",BALI,80851.0,Indonesia,82247552277.0,,,-8.4292086,115.5498259,https://maps.google.com/?cid=0x0:0x5c06db01614537b6,
toko bangunan,Toko Bahan Bangunan,Ud Abadi Bangunan,"GHXV+V5R, Jl. Nenas, Bungaya Kangin, Kec. Bebandem, Kabupaten Karangasem, Bali 80811","Jl. Nenas, Bungaya Kangin, Kec. Bebandem, Kabupaten Karangasem",BALI,80811.0,Indonesia,81353327194.0,,,-8.4502537,115.5928908,https://maps.google.com/?cid=0x0:0xa2a0e745dc8cd559,
toko bangunan,Toko Bahan Bangunan,UD PARMANA BANGUNAN,"HH56+692, Jl. Tunjung Bang, Bebandem, Kec. Bebandem, Kabupaten Karangasem, Bali 80811","Jl. Tunjung Bang, Bebandem, Kec. Bebandem, Kabupaten Karangasem",BALI,80811.0,Indonesia,85237388688.0,,,-8.4419972,115.5609,https://maps.google.com/?cid=0x0:0xf1f513af4270f2eb,
toko bangunan,Toko Bahan Bangunan,Ud. Sari Bangunan,"HH2R+GFG, Jl. Nenas, Bungaya Kangin, Kec. Bebandem, Kabupaten Karangasem, Bali 80811","Jl. Nenas, Bungaya Kangin, Kec. Bebandem, Kabupaten Karangasem",BALI,80811.0,Indonesia,8123930959.0,,,-8.4486828,115.5912106,https://maps.google.com/?cid=0x0:0xe19cdb063c87bb8b,
toko bangunan,Toko Bahan Bangunan,Bangunan Baru,"Jl. Kesatrian No.17, Karangasem, Kec. Karangasem, Kabupaten Karangasem, Bali 80811","Karangasem, Kec. Karangasem, Kabupaten Karangasem",BALI,80811.0,Indonesia,36321350.0,,,-8.4480686,115.6150109,https://maps.google.com/?cid=0x0:0x60893b015e2fbd8,
toko bangunan,Toko Bahan Bangunan,Toko Bangunan,"Jl. Gajahmada, Karangasem, Kec. Karangasem, Kabupaten Karangasem, Bali 80811","Karangasem, Kec. Karangasem, Kabupaten Karangasem",BALI,80811.0,Indonesia,87721621039.0,,,-8.4480492,115.6160635,https://maps.google.com/?cid=0x0:0xb7c0309849c72142,
toko bangunan,Pemasok produk gipsum,TB. Karya Abadi,"HG4C+HFM, Jl. Baledan, Sibetan, Kec. Bebandem, Kabupaten Karangasem, Bali 80861","Jl. Baledan, Sibetan, Kec. Bebandem, Kabupaten Karangasem",BALI,80861.0,Indonesia,81338670444.0,,,-8.4435265,115.521185,https://maps.google.com/?cid=0x0:0xe2eb33b4f0159f96,
toko bangunan,Toko Bahan Bangunan,Toko Bangunan WES,"GH4Q+XRH, Jl. Tambak Udang Broodstock Center, Sengkidu, Kec. Manggis, Kabupaten Karangasem, Bali 80811","Jl. Tambak Udang Broodstock Center, Sengkidu, Kec. Manggis, Kabupaten Karangasem",BALI,80811.0,Indonesia,82122228701.0,,,-8.4925616,115.5896022,https://maps.google.com/?cid=0x0:0x5311fd2b527a8f5,
toko bangunan,Minimarket,Toko Swalayan Bebandem,"HH56+847, Bebandem, Kec. Bebandem, Kabupaten Karangasem, Bali 80861","Bebandem, Kec. Bebandem, Kabupaten Karangasem",BALI,80861.0,Indonesia,,,,-8.4417106,115.5602974,https://maps.google.com/?cid=0x0:0xfcadb5d3dafc1dc3,
toko bangunan,Toko Bahan Bangunan,Ud.Diah Bangunan,"HF2X+X8C, Jl. Baledan, Duda, Kec. Selat, Kabupaten Karangasem, Bali","Kabupaten Karangasem, Bali",BALI,,Indonesia,85239685002.0,,,-8.4475744,115.4982676,https://maps.google.com/?cid=0x0:0x1ff5f3b38eca7e72,
toko bangunan,Toko Bahan Bangunan,TB Padma sari Muncan toko material bangunan,"Unnamed Road, Muncan, Selat, Karangasem Regency, Bali 80862","Muncan, Selat, Karangasem Regency",BALI,80862.0,Indonesia,87860404096.0,,,-8.4369508,115.444766,https://maps.google.com/?cid=0x0:0xb76c358a3d93a90a,
toko bangunan,Toko Bahan Bangunan,TOKO 2D BANGUNAN,"HHFH+3J7, Jl. Budakeling, Buana Giri, Kec. Bebandem, Kabupaten Karangasem, Bali","Kabupaten Karangasem, Bali",BALI,,Indonesia,,,,-8.4273271,115.5790535,https://maps.google.com/?cid=0x0:0xb2f41b9db7017679,
toko bangunan,Toko Bahan Bangunan,TB Mandiri,"Jl. Achmad Yani, Subagan, Kec. Karangasem, Kabupaten Karangasem, Bali 80813","Subagan, Kec. Karangasem, Kabupaten Karangasem",BALI,80813.0,Indonesia,8123634080.0,,,-8.4650025,115.61024,https://maps.google.com/?cid=0x0:0x353deaf790429545,
toko bangunan,Toko Bahan Bangunan,Batako press,"JH22+4HP, Budakeling, Kec. Bebandem, Kabupaten Karangasem, Bali 80861","Budakeling, Kec. Bebandem, Kabupaten Karangasem",BALI,80861.0,Indonesia,,,,-8.3994802,115.551461,https://maps.google.com/?cid=0x0:0xbf91e78fbdf1f963,
toko bangunan,Toko Bahan Bangunan,Toko Adi Bangunan,"HF87+QXH, Jl. Baledan, Pering Sari, Kec. Selat, Kabupaten Karangasem, Bali 80862","Jl. Baledan, Pering Sari, Kec. Selat, Kabupaten Karangasem",BALI,80862.0,Indonesia,,,,-8.4330604,115.4649906,https://maps.google.com/?cid=0x0:0x669cd23e1304e998,
toko bangunan,Industri Pasir,Depo pasir,"DS Br Mumbul, Jungutan, Kec. Bebandem, Kabupaten Karangasem, Bali 80861","Jungutan, Kec. Bebandem, Kabupaten Karangasem",BALI,80861.0,Indonesia,85792480274.0,,,-8.4161499,115.5325797,https://maps.google.com/?cid=0x0:0xacac748e8922a295,
toko bangunan,Toko Bahan Bangunan,UD. Suar,"HH55+PXJ, Jl. Kuncaragiri, Bebandem, Kec. Bebandem, Kabupaten Karangasem, Bali 80861","Jl. Kuncaragiri, Bebandem, Kec. Bebandem, Kabupaten Karangasem",BALI,80861.0,Indonesia,81246746266.0,,,-8.4406535,115.559901,https://maps.google.com/?cid=0x0:0x7c18f7e0a798e8d4,
toko bangunan,Toko Bahan Bangunan,UD Prasasti,"HH69+M6P, Jl. Nenas, Kayu Putih, Kec. Bebandem, Kabupaten Karangasem, Bali 80861","Jl. Nenas, Kayu Putih, Kec. Bebandem, Kabupaten Karangasem",BALI,80861.0,Indonesia,85792721017.0,,,-8.4382976,115.5680735,https://maps.google.com/?cid=0x0:0x914110635167b27b,
toko bangunan,Toko Bahan Bangunan,UD Mahendra,"GHXV+W5G, Jl. Nenas, Bungaya Kangin, Kec. Bebandem, Kabupaten Karangasem, Bali 80813","Jl. Nenas, Bungaya Kangin, Kec. Bebandem, Kabupaten Karangasem",BALI,80813.0,Indonesia,36322491.0,,,-8.4501799,115.5929505,https://maps.google.com/?cid=0x0:0x38b9752bbb5d19,
toko bangunan,Toko Bahan Bangunan,Batako Rudanta,"HH73+QX5, Bebandem, Kec. Bebandem, Kabupaten Karangasem, Bali 80861","Bebandem, Kec. Bebandem, Kabupaten Karangasem",BALI,80861.0,Indonesia,,,,-8.4351944,115.5546944,https://maps.google.com/?cid=0x0:0x75f221742f0185e,
toko bangunan,Toko Bahan Bangunan,UD Dewata Bangunan,"Jl. Achmad Yani No.39, Subagan, Kec. Karangasem, Kabupaten Karangasem, Bali 80811","Subagan, Kec. Karangasem, Kabupaten Karangasem",BALI,80811.0,Indonesia,89685844000.0,,,-8.4580128,115.6036171,https://maps.google.com/?cid=0x0:0x3dd15541335fbe14,
toko bangunan,Minimarket,Mini Market CAHAYA WIRAMA III,"HH54+WHX, Jl. Kuncaragiri, Bebandem, Kec. Bebandem, Kabupaten Karangasem, Bali 80861","Jl. Kuncaragiri, Bebandem, Kec. Bebandem, Kabupaten Karangasem",BALI,80861.0,Indonesia,81354282488.0,,,-8.440147,115.5564871,https://maps.google.com/?cid=0x0:0x6c0155dba4727785,
toko bangunan,toko bangunan,Karangasem,"Kec. Karangasem, Kabupaten Karangasem, Bali","Kabupaten Karangasem, Bali",BALI,,Indonesia,,,,-8.4359528,115.609553,https://maps.google.com/?cid=0x0:0x2f56ee0fd49a2b29,
toko bangunan,Toko Bahan Bangunan,Toko Bangunan,"Jl. Gajahmada, Karangasem, Kec. Karangasem, Kabupaten Karangasem, Bali 80811","Karangasem, Kec. Karangasem, Kabupaten Karangasem",BALI,80811.0,Indonesia,87721621039.0,,,-8.4480492,115.6160635,https://maps.google.com/?cid=0x0:0xb7c0309849c72142,
toko bangunan,Toko Bahan Bangunan,Bangunan Baru,"Jl. Kesatrian No.17, Karangasem, Kec. Karangasem, Kabupaten Karangasem, Bali 80811","Karangasem, Kec. Karangasem, Kabupaten Karangasem",BALI,80811.0,Indonesia,36321350.0,,,-8.4480686,115.6150109,https://maps.google.com/?cid=0x0:0x60893b015e2fbd8,
toko bangunan,Toko Bahan Bangunan,Sumber Bangunan,"GJQ4+6WW, JL. Ahmad Yani, Subagan, Karangasem, Subagan, Amlapura, Kabupaten Karangasem, Bali 80811","JL. Ahmad Yani, Subagan, Karangasem, Subagan, Amlapura, Kabupaten Karangasem",BALI,80811.0,Indonesia,85769908768.0,,,-8.4618803,115.6073157,https://maps.google.com/?cid=0x0:0xdc974028a4c991bd,
toko bangunan,Toko Perhiasan,Toko Tirta Mas,"Jl. Pantai Jasri, Subagan, Kec. Karangasem, Kabupaten Karangasem, Bali 80811","Subagan, Kec. Karangasem, Kabupaten Karangasem",BALI,80811.0,Indonesia,81339523911.0,,,-8.4697174,115.6190913,https://maps.google.com/?cid=0x0:0xd2e80580009ba809,
toko bangunan,Toko Bahan Bangunan,UD LANTAI INDAH,"Subagan, Kec. Karangasem, Kabupaten Karangasem, Bali 80811","Kec. Karangasem, Kabupaten Karangasem",BALI,80811.0,Indonesia,36322191.0,,,-8.4680393,115.6129709,https://maps.google.com/?cid=0x0:0x38b818b1a8357ae4,
toko bangunan,Toko Bahan Bangunan,UD. TOYA,"Jl. Sudirman, Subagan, Kec. Karangasem, Kabupaten Karangasem, Bali 80813","Subagan, Kec. Karangasem, Kabupaten Karangasem",BALI,80813.0,Indonesia,81338030309.0,,,-8.4523502,115.603115,https://maps.google.com/?cid=0x0:0xad9f9e249d54d791,
toko bangunan,Toko,Ud.Shangrila,"Jl. Diponegoro No.11, Karangasem, Kec. Karangasem, Kabupaten Karangasem, Bali 80811","Karangasem, Kec. Karangasem, Kabupaten Karangasem",BALI,80811.0,Indonesia,36321126.0,,,-8.4473918,115.6146875,https://maps.google.com/?cid=0x0:0xe77bd7ca43c369f3,
toko bangunan,Toko Bahan Bangunan,Ud Tunggal,"Jl. Gajahmada No.38, Karangasem, Kec. Karangasem, Kabupaten Karangasem, Bali 80811","Karangasem, Kec. Karangasem, Kabupaten Karangasem",BALI,80811.0,Indonesia,8123805772.0,,,-8.4465826,115.6160275,https://maps.google.com/?cid=0x0:0x277f2810b98e3f73,
toko bangunan,Toko Bahan Bangunan,Anugrah Bangunan,"HJFJ+H32, Jl. Raya Bukit Lempuyang, Bukit, Kec. Karangasem, Kabupaten Karangasem, Bali 80811","Jl. Raya Bukit Lempuyang, Bukit, Kec. Karangasem, Kabupaten Karangasem",BALI,80811.0,Indonesia,,,,-8.4261086,115.6301372,https://maps.google.com/?cid=0x0:0x1063f1e2dc7d6501,
toko bangunan,Toko Bahan Bangunan,Bangunan Jaya,"GH6W+G69, Sengkidu, Kec. Manggis, Kabupaten Karangasem, Bali 80811","Sengkidu, Kec. Manggis, Kabupaten Karangasem",BALI,80811.0,Indonesia,85166900641.0,,,-8.4887048,115.5956002,https://maps.google.com/?cid=0x0:0xf0e0e3f6c898b631,
toko bangunan,Toko Bahan Bangunan,UD. Adi Gronjo,"GJVF+8WX, Jl. Bhayangkara, Tumbu, Kec. Karangasem, Kabupaten Karangasem, Bali 80811","Jl. Bhayangkara, Tumbu, Kec. Karangasem, Kabupaten Karangasem",BALI,80811.0,Indonesia,81338726538.0,,,-8.4566253,115.6248604,https://maps.google.com/?cid=0x0:0xdc84c57bd215c538,
toko bangunan,Toko Bahan Bangunan,UD Dewata Bangunan,"Jl. Achmad Yani No.39, Subagan, Kec. Karangasem, Kabupaten Karangasem, Bali 80811","Subagan, Kec. Karangasem, Kabupaten Karangasem",BALI,80811.0,Indonesia,89685844000.0,,,-8.4580128,115.6036171,https://maps.google.com/?cid=0x0:0x3dd15541335fbe14,
toko bangunan,Toko Bahan Bangunan,Toko Bangunan WES,"GH4Q+XRH, Jl. Tambak Udang Broodstock Center, Sengkidu, Kec. Manggis, Kabupaten Karangasem, Bali 80811","Jl. Tambak Udang Broodstock Center, Sengkidu, Kec. Manggis, Kabupaten Karangasem",BALI,80811.0,Indonesia,82122228701.0,,,-8.4925616,115.5896022,https://maps.google.com/?cid=0x0:0x5311fd2b527a8f5,
toko bangunan,Toko Bahan Bangunan,UD. TUNGGAL GALIRAN,"Jl. Achmad Yani, Subagan, Kec. Karangasem, Kabupaten Karangasem, Bali 80811","Subagan, Kec. Karangasem, Kabupaten Karangasem",BALI,80811.0,Indonesia,811386248.0,,,-8.4614197,115.6067849,https://maps.google.com/?cid=0x0:0x2ea9ac2374571713,
toko bangunan,Toko Bahan Bangunan,Ud Made,"GJM6+Q85, Jl. Achmad Yani, Subagan, Kec. Karangasem, Kabupaten Karangasem, Bali 80811","Jl. Achmad Yani, Subagan, Kec. Karangasem, Kabupaten Karangasem",BALI,80811.0,Indonesia,82340060061.0,,,-8.4656188,115.6108541,https://maps.google.com/?cid=0x0:0xca849b784a5e30e9,
toko bangunan,Toko Bahan Bangunan,UD. TUNGGAL,"Jl. Untung Surapati No.9, Padang Kerta, Kec. Karangasem, Kabupaten Karangasem, Bali 80811","Padang Kerta, Kec. Karangasem, Kabupaten Karangasem",BALI,80811.0,Indonesia,811386747.0,,,-8.4394732,115.5962411,https://maps.google.com/?cid=0x0:0x85d9ef951b17cdb8,
toko bangunan,Toko Bahan Bangunan,Ud Abadi Bangunan,"GHXV+V5R, Jl. Nenas, Bungaya Kangin, Kec. Bebandem, Kabupaten Karangasem, Bali 80811","Jl. Nenas, Bungaya Kangin, Kec. Bebandem, Kabupaten Karangasem",BALI,80811.0,Indonesia,81353327194.0,,,-8.4502537,115.5928908,https://maps.google.com/?cid=0x0:0xa2a0e745dc8cd559,
toko bangunan,Toko Bahan Bangunan,TB Mandiri,"Jl. Achmad Yani, Subagan, Kec. Karangasem, Kabupaten Karangasem, Bali 80813","Subagan, Kec. Karangasem, Kabupaten Karangasem",BALI,80813.0,Indonesia,8123634080.0,,,-8.4650025,115.61024,https://maps.google.com/?cid=0x0:0x353deaf790429545,
toko bangunan,Toko Bahan Bangunan,Pt.Bangun Kembali Perkasa,"GJW7+945, Jl. Pesagi, Subagan, Kec. Karangasem, Kabupaten Karangasem, Bali 80811","Jl. Pesagi, Subagan, Kec. Karangasem, Kabupaten Karangasem",BALI,80811.0,Indonesia,81353260865.0,,,-8.4541007,115.6128447,https://maps.google.com/?cid=0x0:0x55db8f19897d631e,
toko bangunan,Toko Bahan Bangunan,Toko Berkah Jaya,"Jl. Bhayangkara No.38-A, Karangasem, Kec. Karangasem, Kabupaten Karangasem, Bali 80811","Karangasem, Kec. Karangasem, Kabupaten Karangasem",BALI,80811.0,Indonesia,751484268.0,,,-8.4527777,115.6197955,https://maps.google.com/?cid=0x0:0xc5fd2ddd55f07931,
toko bangunan,toko bangunan,Bali 80811,"Kec. Karangasem, Kabupaten Karangasem, Bali","Kabupaten Karangasem, Bali",BALI,,Indonesia,,,,-8.4497997,115.6273131,https://maps.google.com/?cid=0x0:0x1c00c5eb6016c030,
toko bangunan,Toko Bahan Bangunan,UD Prasasti,"HH69+M6P, Jl. Nenas, Kayu Putih, Kec. Bebandem, Kabupaten Karangasem, Bali 80861","Jl. Nenas, Kayu Putih, Kec. Bebandem, Kabupaten Karangasem",BALI,80861.0,Indonesia,85792721017.0,,,-8.4382976,115.5680735,https://maps.google.com/?cid=0x0:0x914110635167b27b,
toko bangunan,Toko Bahan Bangunan,Toko Bangunan Mitra Sarana,"FHQG+MW2, Jl. Karang Anyar, Sengkidu, Kec. Karangasem, Kabupaten Karangasem, Bali","Kabupaten Karangasem, Bali",BALI,,Indonesia,81946331349.0,,,-8.5108671,115.5772642,https://maps.google.com/?cid=0x0:0xbd3174aadeac866f,
toko bangunan,Toko Bahan Bangunan,Kasna Karya,"Jl. Tunjung Bang, Bungaya, Bebandem, Bungaya, Kec. Karangasem, Kabupaten Karangasem, Bali 80861","Bungaya, Bebandem, Bungaya, Kec. Karangasem, Kabupaten Karangasem",BALI,80861.0,Indonesia,,,,-8.4529314,115.5704751,https://maps.google.com/?cid=0x0:0x29944af59c08e043,
toko bangunan,Toko Bahan Bangunan,UD. Gabin,"FHX4+GQP, Jl. Raya Sengkidu, Sengkidu, Kec. Manggis, Kabupaten Karangasem, Bali 80817","Jl. Raya Sengkidu, Sengkidu, Kec. Manggis, Kabupaten Karangasem",BALI,80817.0,Indonesia,36342009.0,,,-8.5011672,115.5569579,https://maps.google.com/?cid=0x0:0xb643ee51f437c4c8,
toko bangunan,Toko Bahan Bangunan,Ud. Sari Bangunan,"HH2R+GFG, Jl. Nenas, Bungaya Kangin, Kec. Bebandem, Kabupaten Karangasem, Bali 80811","Jl. Nenas, Bungaya Kangin, Kec. Bebandem, Kabupaten Karangasem",BALI,80811.0,Indonesia,8123930959.0,,,-8.4486828,115.5912106,https://maps.google.com/?cid=0x0:0xe19cdb063c87bb8b,
toko bangunan,toko bangunan,Bali 80813,"Kec. Karangasem, Kabupaten Karangasem, Bali","Kabupaten Karangasem, Bali",BALI,,Indonesia,,,,-8.4738779,115.6065929,https://maps.google.com/?cid=0x0:0xbeec0d2e7f009819,
toko bangunan,Toko Bahan Bangunan,Ud. Bangunan Karangasem,"Jl. Achmad Yani No.100, Subagan, Kec. Karangasem, Kabupaten Karangasem, Bali 80811","Subagan, Kec. Karangasem, Kabupaten Karangasem",BALI,80811.0,Indonesia,36321475.0,,,-8.456688,115.6024291,https://maps.google.com/?cid=0x0:0x1449fae0db3ba084,
toko bangunan,Toko Bahan Bangunan,Toko Bangunan,"Jl. Gajahmada, Karangasem, Kec. Karangasem, Kabupaten Karangasem, Bali 80811","Karangasem, Kec. Karangasem, Kabupaten Karangasem",BALI,80811.0,Indonesia,87721621039.0,,,-8.4480492,115.6160635,https://maps.google.com/?cid=0x0:0xb7c0309849c72142,
toko bangunan,Toko Bahan Bangunan,Bangunan Jaya,"GH6W+G69, Sengkidu, Kec. Manggis, Kabupaten Karangasem, Bali 80811","Sengkidu, Kec. Manggis, Kabupaten Karangasem",BALI,80811.0,Indonesia,85166900641.0,,,-8.4887048,115.5956002,https://maps.google.com/?cid=0x0:0xf0e0e3f6c898b631,
toko bangunan,Toko Bahan Bangunan,UD. TOYA,"Jl. Sudirman, Subagan, Kec. Karangasem, Kabupaten Karangasem, Bali 80813","Subagan, Kec. Karangasem, Kabupaten Karangasem",BALI,80813.0,Indonesia,81338030309.0,,,-8.4523502,115.603115,https://maps.google.com/?cid=0x0:0xad9f9e249d54d791,
toko bangunan,Toko Bahan Bangunan,Sumber Bangunan,"GJQ4+6WW, JL. Ahmad Yani, Subagan, Karangasem, Subagan, Amlapura, Kabupaten Karangasem, Bali 80811","JL. Ahmad Yani, Subagan, Karangasem, Subagan, Amlapura, Kabupaten Karangasem",BALI,80811.0,Indonesia,85769908768.0,,,-8.4618803,115.6073157,https://maps.google.com/?cid=0x0:0xdc974028a4c991bd,
toko bangunan,Toko Bahan Bangunan,UD LANTAI INDAH,"Subagan, Kec. Karangasem, Kabupaten Karangasem, Bali 80811","Kec. Karangasem, Kabupaten Karangasem",BALI,80811.0,Indonesia,36322191.0,,,-8.4680393,115.6129709,https://maps.google.com/?cid=0x0:0x38b818b1a8357ae4,
toko bangunan,Toko Bahan Bangunan,TB Mandiri,"Jl. Achmad Yani, Subagan, Kec. Karangasem, Kabupaten Karangasem, Bali 80813","Subagan, Kec. Karangasem, Kabupaten Karangasem",BALI,80813.0,Indonesia,8123634080.0,,,-8.4650025,115.61024,https://maps.google.com/?cid=0x0:0x353deaf790429545,
toko bangunan,Toko Bahan Bangunan,Ud. Sari Bangunan,"HH2R+GFG, Jl. Nenas, Bungaya Kangin, Kec. Bebandem, Kabupaten Karangasem, Bali 80811","Jl. Nenas, Bungaya Kangin, Kec. Bebandem, Kabupaten Karangasem",BALI,80811.0,Indonesia,8123930959.0,,,-8.4486828,115.5912106,https://maps.google.com/?cid=0x0:0xe19cdb063c87bb8b,
toko bangunan,Toko Perhiasan,Toko Tirta Mas,"Jl. Pantai Jasri, Subagan, Kec. Karangasem, Kabupaten Karangasem, Bali 80811","Subagan, Kec. Karangasem, Kabupaten Karangasem",BALI,80811.0,Indonesia,81339523911.0,,,-8.4697174,115.6190913,https://maps.google.com/?cid=0x0:0xd2e80580009ba809,
toko bangunan,Toko Bahan Bangunan,UD Dewata Bangunan,"Jl. Achmad Yani No.39, Subagan, Kec. Karangasem, Kabupaten Karangasem, Bali 80811","Subagan, Kec. Karangasem, Kabupaten Karangasem",BALI,80811.0,Indonesia,89685844000.0,,,-8.4580128,115.6036171,https://maps.google.com/?cid=0x0:0x3dd15541335fbe14,
toko bangunan,Toko Bahan Bangunan,Ud Made,"GJM6+Q85, Jl. Achmad Yani, Subagan, Kec. Karangasem, Kabupaten Karangasem, Bali 80811","Jl. Achmad Yani, Subagan, Kec. Karangasem, Kabupaten Karangasem",BALI,80811.0,Indonesia,82340060061.0,,,-8.4656188,115.6108541,https://maps.google.com/?cid=0x0:0xca849b784a5e30e9,
toko bangunan,Toko Bahan Bangunan,Toko Bangunan WES,"GH4Q+XRH, Jl. Tambak Udang Broodstock Center, Sengkidu, Kec. Manggis, Kabupaten Karangasem, Bali 80811","Jl. Tambak Udang Broodstock Center, Sengkidu, Kec. Manggis, Kabupaten Karangasem",BALI,80811.0,Indonesia,82122228701.0,,,-8.4925616,115.5896022,https://maps.google.com/?cid=0x0:0x5311fd2b527a8f5,
toko bangunan,Toko Bahan Bangunan,UD. TUNGGAL GALIRAN,"Jl. Achmad Yani, Subagan, Kec. Karangasem, Kabupaten Karangasem, Bali 80811","Subagan, Kec. Karangasem, Kabupaten Karangasem",BALI,80811.0,Indonesia,811386248.0,,,-8.4614197,115.6067849,https://maps.google.com/?cid=0x0:0x2ea9ac2374571713,
toko bangunan,Toko Bahan Bangunan,Ud Abadi Bangunan,"GHXV+V5R, Jl. Nenas, Bungaya Kangin, Kec. Bebandem, Kabupaten Karangasem, Bali 80811","Jl. Nenas, Bungaya Kangin, Kec. Bebandem, Kabupaten Karangasem",BALI,80811.0,Indonesia,81353327194.0,,,-8.4502537,115.5928908,https://maps.google.com/?cid=0x0:0xa2a0e745dc8cd559,
toko bangunan,Toko Bahan Bangunan,Ud Lestari,"GJ96+W3J, Jl. Raya Perasi, Subagan, Kec. Karangasem, Kabupaten Karangasem, Bali 80813","Jl. Raya Perasi, Subagan, Kec. Karangasem, Kabupaten Karangasem",BALI,80813.0,Indonesia,85238450574.0,,,-8.4801517,115.610142,https://maps.google.com/?cid=0x0:0xedb94ded11f2a26f,
toko bangunan,Toko,Ud.Shangrila,"Jl. Diponegoro No.11, Karangasem, Kec. Karangasem, Kabupaten Karangasem, Bali 80811","Karangasem, Kec. Karangasem, Kabupaten Karangasem",BALI,80811.0,Indonesia,36321126.0,,,-8.4473918,115.6146875,https://maps.google.com/?cid=0x0:0xe77bd7ca43c369f3,
toko bangunan,Toko Bahan Bangunan,UD Surya Sarana,"GJQ4+CPQ, Jl. Achmad Yani, Subagan, Kec. Karangasem, Kabupaten Karangasem, Bali 80813","Jl. Achmad Yani, Subagan, Kec. Karangasem, Kabupaten Karangasem",BALI,80813.0,Indonesia,85237473503.0,,,-8.4614183,115.6068492,https://maps.google.com/?cid=0x0:0xf982db2d21dcee92,
toko bangunan,Toko Bahan Bangunan,Toko Besi WK Logam,"Jl. Nenas, Subagan, Kec. Karangasem, Kabupaten Karangasem, Bali 80813","Subagan, Kec. Karangasem, Kabupaten Karangasem",BALI,80813.0,Indonesia,87854440888.0,,,-8.4520206,115.5952883,https://maps.google.com/?cid=0x0:0x90d5828f6a588106,
toko bangunan,Toko Bahan Bangunan,Toko Bangunan Mitra Sarana,"FHQG+MW2, Jl. Karang Anyar, Sengkidu, Kec. Karangasem, Kabupaten Karangasem, Bali","Kabupaten Karangasem, Bali",BALI,,Indonesia,81946331349.0,,,-8.5108671,115.5772642,https://maps.google.com/?cid=0x0:0xbd3174aadeac866f,
toko bangunan,Toko Bahan Bangunan,Ud Nirwana Jaya,"GJJ7+P72, Jl. Achmad Yani, Subagan, Kec. Karangasem, Kabupaten Karangasem, Bali 80811","Jl. Achmad Yani, Subagan, Kec. Karangasem, Kabupaten Karangasem",BALI,80811.0,Indonesia,85237084491.0,,,-8.468235,115.6131408,https://maps.google.com/?cid=0x0:0xb0c533267a056b54,
toko bangunan,Toko Bahan Bangunan,Ud Tunggal,"Jl. Gajahmada No.38, Karangasem, Kec. Karangasem, Kabupaten Karangasem, Bali 80811","Karangasem, Kec. Karangasem, Kabupaten Karangasem",BALI,80811.0,Indonesia,8123805772.0,,,-8.4465826,115.6160275,https://maps.google.com/?cid=0x0:0x277f2810b98e3f73,
toko bangunan,Toko Bahan Bangunan,"Solusi Rumah CPM Mandiri, Karang Asem","GJM6+6V9, Ahmad Yani, Karang asem,, Subagan, Bali, 80811","Ahmad Yani, Karang asem,, Subagan",BALI,80811.0,Indonesia,36323166.0,,,-8.4669735,115.6122192,https://maps.google.com/?cid=0x0:0x5b7903a7e0f98856,
toko bangunan,Toko Bahan Bangunan,Kubu Dewata,"Jalan Kembang Matahari, Gg. XX Br. Ketapian Kaja No.10, Sumerta, Kec. Denpasar Tim., Kota Denpasar, Bali 80235","Gg. XX Br. Ketapian Kaja No.10, Sumerta, Kec. Denpasar Tim., Kota Denpasar",BALI,80235.0,Indonesia,85168918484.0,,,-8.6504531,115.2382194,https://maps.google.com/?cid=0x0:0x689099eb92c57520,
toko bangunan,toko bangunan,Kubu,"Kubu, Kec. Kubu, Kabupaten Karangasem, Bali","Kabupaten Karangasem, Bali",BALI,,Indonesia,,,,-8.25944,115.566002,https://maps.google.com/?cid=0x0:0x7361d170964b4850,
toko bangunan,Toko Bahan Bangunan,TOKO 2 DARA ABADI BANGUNAN,"Jl. Kubu Anyar No.22, Kuta, Kec. Kuta, Kabupaten Badung, Bali 80361","Kuta, Kec. Kuta, Kabupaten Badung",BALI,80361.0,Indonesia,361757422.0,,,-8.7291484,115.1727313,https://maps.google.com/?cid=0x0:0xa3ed648699af7e0a,
toko bangunan,Toko Perlengkapan Rumah,CAHAYA BALI Toko bangunan,"Jl. Banjar Kuwum Gg. Cendrawasih, Kerobokan Kelod, Kec. Kuta Utara, Kabupaten Badung, Bali 80361","Kerobokan Kelod, Kec. Kuta Utara, Kabupaten Badung",BALI,80361.0,Indonesia,,,,-8.6629294,115.157545,https://maps.google.com/?cid=0x0:0xf59825e9bec17918,
toko bangunan,Toko Bahan Bangunan,Murah Makmur Bangunan,"Jl. Bypass Ngurah Rai No.888, Kelan, Kec. Kuta, Kabupaten Badung, Bali 80361","Kelan, Kec. Kuta, Kabupaten Badung",BALI,80361.0,Indonesia,,,,-8.7572246,115.1796061,https://maps.google.com/?cid=0x0:0xe8391b7b971789a4,
toko bangunan,Pemasok Bahan Bangunan,Duta Anugerah Bangunan,"Jl. Nakula No.11, Pemecutan Klod, Kec. Denpasar Bar., Kota Denpasar, Bali 80119","Pemecutan Klod, Kec. Denpasar Bar., Kota Denpasar",BALI,80119.0,Indonesia,82145099676.0,,,-8.7001555,115.1836053,https://maps.google.com/?cid=0x0:0x293e07a01c1ef865,
toko bangunan,Toko Bahan Bangunan,Toko Bangunan Jimbaran Baru,"Jl. Bypass Ngurah Rai No.25x, Jimbaran, Kec. Kuta Sel., Kabupaten Badung, Bali 80361","Jimbaran, Kec. Kuta Sel., Kabupaten Badung",BALI,80361.0,Indonesia,895366567535.0,,,-8.7842513,115.1913182,https://maps.google.com/?cid=0x0:0xe8893974142c658e,
toko bangunan,Toko Bahan Bangunan,Toko Bangunan,"Jl. Gajahmada, Karangasem, Kec. Karangasem, Kabupaten Karangasem, Bali 80811","Karangasem, Kec. Karangasem, Kabupaten Karangasem",BALI,80811.0,Indonesia,87721621039.0,,,-8.4480492,115.6160635,https://maps.google.com/?cid=0x0:0xb7c0309849c72142,
toko bangunan,Toko Bahan Bangunan,UD. Mega Jaya (Toko Bangunan),"Jl. Raya Kuta No.78x, Kuta, Kec. Kuta, Kabupaten Badung, Bali 80361","Kuta, Kec. Kuta, Kabupaten Badung",BALI,80361.0,Indonesia,361753760.0,,,-8.7315333,115.177566,https://maps.google.com/?cid=0x0:0xb243112c5645c439,
toko bangunan,Toko Bahan Bangunan,toko bangunan ud. ron-ron,"8588+7PJ, Jl. Raya Taman, Seminyak, Kec. Kuta, Kabupaten Badung, Bali 80361","Jl. Raya Taman, Seminyak, Kec. Kuta, Kabupaten Badung",BALI,80361.0,Indonesia,81916232220.0,,,-8.6843075,115.1668041,https://maps.google.com/?cid=0x0:0x32edbb68b8e470e5,
toko bangunan,Toko Bahan Bangunan,Toko Bangunan Mitra Jaya,"Jl. By Pass Ngurah Rai No. 88x, Nusa Dua, Kuta Selatan, Benoa, South Kuta, Badung Regency, Bali 82363","Nusa Dua, Kuta Selatan, Benoa, South Kuta, Badung Regency",BALI,82363.0,Indonesia,,,,-8.7886429,115.2089751,https://maps.google.com/?cid=0x0:0xd44b775bdf1ebe53,
toko bangunan,Toko Bahan Bangunan,Toko Bangunan NEZHA,"56V2+7H8, Benoa, Kec. Kuta Sel., Kabupaten Badung, Bali 80361","Benoa, Kec. Kuta Sel., Kabupaten Badung",BALI,80361.0,Indonesia,85769908768.0,,,-8.8068304,115.2014612,https://maps.google.com/?cid=0x0:0x35b9b965ed47b84,
toko bangunan,Toko Bahan Bangunan,Bintang Makmur Bangunan,"Jalan Dharmawangsa, Jl. Raya Kampial Jl. Nusa Dua No.88X, Benoa, Kabupaten Badung, Bali 80361","Jl. Raya Kampial Jl. Nusa Dua No.88X, Benoa, Kabupaten Badung",BALI,80361.0,Indonesia,85106031199.0,,,-8.8048704,115.2056468,https://maps.google.com/?cid=0x0:0x65cc223f073b3bb6,
toko bangunan,Toko Bahan Bangunan,Kubu seseh,"FC9Q+W94, Jl. Raya Babung, Gunaksa, Kec. Dawan, Kabupaten Klungkung, Bali 80761","Jl. Raya Babung, Gunaksa, Kec. Dawan, Kabupaten Klungkung",BALI,80761.0,Indonesia,,,,-8.5302497,115.4384488,https://maps.google.com/?cid=0x0:0x248e89b7dd6e0e62,
toko bangunan,Toko Bahan Bangunan,Ud. Bangunan Karangasem,"Jl. Achmad Yani No.100, Subagan, Kec. Karangasem, Kabupaten Karangasem, Bali 80811","Subagan, Kec. Karangasem, Kabupaten Karangasem",BALI,80811.0,Indonesia,36321475.0,,,-8.456688,115.6024291,https://maps.google.com/?cid=0x0:0x1449fae0db3ba084,
toko bangunan,Toko Bahan Bangunan,KARYA BANGUN,"QF3W+CC9, Ban, Kec. Kubu, Kabupaten Karangasem, Bali 80853","Ban, Kec. Kubu, Kabupaten Karangasem",BALI,80853.0,Indonesia,,,,-8.2464735,115.496111,https://maps.google.com/?cid=0x0:0x2462d52d2d827e5e,
toko bangunan,Toko,Toko Dharma Putra,"QH82+M6Q, Sukadana, Kec. Kubu, Kabupaten Karangasem, Bali 80853","Sukadana, Kec. Kubu, Kabupaten Karangasem",BALI,80853.0,Indonesia,87762668444.0,,,-8.2332787,115.5506168,https://maps.google.com/?cid=0x0:0xc4f2dfddf3a880f1,
toko bangunan,Toko Bahan Bangunan,Zaky Bangunan,"4H97+MCW, Tlk. Piyai, Kubu, Kabupaten Rokan Hilir, Riau 28991","Tlk. Piyai, Kubu, Kabupaten Rokan Hilir",BALI,28991.0,Indonesia,,,,2.1192317,100.5635781,https://maps.google.com/?cid=0x0:0x146eb167c15304e0,
toko bangunan,Toko Bahan Bangunan,"Toko bangunan Dua putra,bancei","Jl. Babakan Madang No.15, Babakan Madang, Kec. Babakan Madang, Kabupaten Bogor, Jawa Barat 16810","Babakan Madang, Kec. Babakan Madang, Kabupaten Bogor",BALI,16810.0,Indonesia,82114261067.0,,,-6.566984,106.8640769,https://maps.google.com/?cid=0x0:0xe012b53786d14e9c,
toko bangunan,Toko Bahan Bangunan,Toko Bangunan Jaya Abadi Kubu,"G92F+FQ7, jl. M Yusuf Arsyad, Kubu, Kec. Kubu, Kabupaten Kubu Raya, Kalimantan Barat 78384","jl. M Yusuf Arsyad, Kubu, Kec. Kubu, Kabupaten Kubu Raya",BALI,78384.0,Indonesia,85654985289.0,,,-0.4988289,109.3744316,https://maps.google.com/?cid=0x0:0xe0f3ed4823c1b26e,
toko bangunan,Toko Bahan Bangunan,Cipta Jaya Toko Bangunan,"W94P+F66, Jl. Parit Nomor Dua, Sungai Raya, Kec. Sungai Raya, Kabupaten Kubu Raya, Kalimantan Barat 78123","Jl. Parit Nomor Dua, Sungai Raya, Kec. Sungai Raya, Kabupaten Kubu Raya",BALI,78123.0,Indonesia,811111703.0,,,-0.0938469,109.385505,https://maps.google.com/?cid=0x0:0xbfd3ba234197296b,
toko bangunan,Toko Bahan Bangunan,Toko Bangunan Jaya Raya,"Jl. Adi Sucipto No.7, RW.2, Sungai Raya, Kec. Sungai Raya, Kabupaten Kubu Raya, Kalimantan Barat 78117","RW.2, Sungai Raya, Kec. Sungai Raya, Kabupaten Kubu Raya",BALI,78117.0,Indonesia,561721682.0,,,-0.0763273,109.3811079,https://maps.google.com/?cid=0x0:0x733516ab8cca0469,
toko bangunan,Toko Perlengkapan Rumah,TB. MAJU JAYA,"Jl. Tj. Raya II, Madu Sari, Kec. Sungai Raya, Kabupaten Kubu Raya, Kalimantan Barat 78231","Madu Sari, Kec. Sungai Raya, Kabupaten Kubu Raya",BALI,78231.0,Indonesia,87654312345.0,,,-0.1015447,109.4183487,https://maps.google.com/?cid=0x0:0x24f5c8886fbe04b4,
toko bangunan,Toko Bahan Bangunan,Ud. Tasya Bangunan,"3J2F+572, Simpang Pelita, Rantau Panjang Kiri, Kubu, Rokan Hilir Regency, Riau 28991","Simpang Pelita, Rantau Panjang Kiri, Kubu, Rokan Hilir Regency",BALI,28991.0,Indonesia,,,,2.0503805,100.6231402,https://maps.google.com/?cid=0x0:0x7b3db70ea54d66b5,
toko bangunan,Toko Bahan Bangunan,Toko Bangunan Sinar Baru,"Jl. Nurul Huda No.8, RW.9, Sungai Raya, Kec. Sungai Raya, Kabupaten Kubu Raya, Kalimantan Barat 78121","RW.9, Sungai Raya, Kec. Sungai Raya, Kabupaten Kubu Raya",BALI,78121.0,Indonesia,561725335.0,,,-0.082113,109.3773593,https://maps.google.com/?cid=0x0:0x960fc3cabc28a60b,
toko bangunan,Toko Bahan Bangunan,TB. Mekar Indah Jaya,"Jl. Raya Desa Kapur, Kapur, Kec. Sungai Raya, Kabupaten Kubu Raya, Kalimantan Barat","Kabupaten Kubu Raya, Kalimantan Barat",BALI,,Indonesia,81258806882.0,,,-0.0932,109.412433,https://maps.google.com/?cid=0x0:0x2f29fac7c2833b1e,
toko bangunan,Toko Bahan Bangunan,Toko Bangunan Sempurna Material,"Sungai Rengas, Kec. Sungai Kakap, Kabupaten Kubu Raya, Kalimantan Barat 78381","Kec. Sungai Kakap, Kabupaten Kubu Raya",BALI,78381.0,Indonesia,89513185512.0,,,-0.0062752,109.2779491,https://maps.google.com/?cid=0x0:0x9fa42da422979309,
toko bangunan,Komplek perumahan,UB.REZHA RAMADHAN,"3J4C+8X9, Jl. Jend. Sudirman, Sungai Kubu, Kubu, Kabupaten Rokan Hilir, Riau 28991","Jl. Jend. Sudirman, Sungai Kubu, Kubu, Kabupaten Rokan Hilir",BALI,28991.0,Indonesia,,,,2.0557788,100.6224875,https://maps.google.com/?cid=0x0:0xac902e9079cd4256,
toko bangunan,Toko Bahan Bangunan,TK. Cahaya Bangunan,"Jl. Adi Sucipto No.1, Sungai Raya, Kec. Sungai Raya, Kabupaten Kubu Raya, Kalimantan Barat 78117","Sungai Raya, Kec. Sungai Raya, Kabupaten Kubu Raya",BALI,78117.0,Indonesia,561722918.0,,,-0.060494,109.36665,https://maps.google.com/?cid=0x0:0xbb77f7ea4440cd5d,
toko bangunan,Toko Bahan Bangunan,Kubu Dewata,"Jalan Kembang Matahari, Gg. XX Br. Ketapian Kaja No.10, Sumerta, Kec. Denpasar Tim., Kota Denpasar, Bali 80235","Gg. XX Br. Ketapian Kaja No.10, Sumerta, Kec. Denpasar Tim., Kota Denpasar",BALI,80235.0,Indonesia,85168918484.0,,,-8.6504531,115.2382194,https://maps.google.com/?cid=0x0:0x689099eb92c57520,
toko bangunan,toko bangunan,Kubu,"Kubu, Kec. Kubu, Kabupaten Karangasem, Bali","Kabupaten Karangasem, Bali",BALI,,Indonesia,,,,-8.25944,115.566002,https://maps.google.com/?cid=0x0:0x7361d170964b4850,
toko bangunan,Toko Bahan Bangunan,TOKO 2 DARA ABADI BANGUNAN,"Jl. Kubu Anyar No.22, Kuta, Kec. Kuta, Kabupaten Badung, Bali 80361","Kuta, Kec. Kuta, Kabupaten Badung",BALI,80361.0,Indonesia,361757422.0,,,-8.7291484,115.1727313,https://maps.google.com/?cid=0x0:0xa3ed648699af7e0a,
toko bangunan,Toko Bahan Bangunan,Toko Bangunan Bali,"Jl. 28 Oktober No.04, Siantan Hulu, Kec. Pontianak Utara, Kota Pontianak, Kalimantan Barat 78243","Siantan Hulu, Kec. Pontianak Utara, Kota Pontianak",BALI,78243.0,Indonesia,561884983.0,,,-0.0079033,109.3636663,https://maps.google.com/?cid=0x0:0x611d0355ef42d1cb,
toko bangunan,Toko Perlengkapan Rumah,CAHAYA BALI Toko bangunan,"Jl. Banjar Kuwum Gg. Cendrawasih, Kerobokan Kelod, Kec. Kuta Utara, Kabupaten Badung, Bali 80361","Kerobokan Kelod, Kec. Kuta Utara, Kabupaten Badung",BALI,80361.0,Indonesia,,,,-8.6629294,115.157545,https://maps.google.com/?cid=0x0:0xf59825e9bec17918,
toko bangunan,Toko Bahan Bangunan,Bintang Makmur Bangunan,"Jalan Dharmawangsa, Jl. Raya Kampial Jl. Nusa Dua No.88X, Benoa, Kabupaten Badung, Bali 80361","Jl. Raya Kampial Jl. Nusa Dua No.88X, Benoa, Kabupaten Badung",BALI,80361.0,Indonesia,85106031199.0,,,-8.8048704,115.2056468,https://maps.google.com/?cid=0x0:0x65cc223f073b3bb6,
toko bangunan,Toko Bahan Bangunan,Toko Bangunan Mitra Jaya,"Jl. By Pass Ngurah Rai No. 88x, Nusa Dua, Kuta Selatan, Benoa, South Kuta, Badung Regency, Bali 82363","Nusa Dua, Kuta Selatan, Benoa, South Kuta, Badung Regency",BALI,82363.0,Indonesia,,,,-8.7886429,115.2089751,https://maps.google.com/?cid=0x0:0xd44b775bdf1ebe53,
toko bangunan,Toko Bahan Bangunan,Sanur Mas (Toko bangunan),"Jl. Bypass Ngurah Rai No.164, Sanur Kaja, Denpasar Selatan, Kota Denpasar, Bali 80227","Sanur Kaja, Denpasar Selatan, Kota Denpasar",BALI,80227.0,Indonesia,361288613.0,,,-8.6759033,115.2590879,https://maps.google.com/?cid=0x0:0x7d25a6d123f78e56,
toko bangunan,Toko Bahan Bangunan,Bintang Bangunan,"Jl. Wae Mata RT/RW 003/002, Labuan Bajo, Komodo, West Manggarai Regency, East Nusa Tenggara","Kabupaten Manggarai Barat, Nusa Tenggara Tim.",BALI,,Indonesia,81238189013.0,,,-8.500458,119.8913878,https://maps.google.com/?cid=0x0:0x31574b9f37f65560,
toko bangunan,Toko Bahan Bangunan,Toko Bangunan Dewi,"Jl. Waturenggong No.98, Panjer, Denpasar Selatan, Kota Denpasar, Bali 80234","Panjer, Denpasar Selatan, Kota Denpasar",BALI,80234.0,Indonesia,81237113939.0,,,-8.6781375,115.2205472,https://maps.google.com/?cid=0x0:0xb80935951c3e38b3,
toko bangunan,Toko Bahan Bangunan,Kubu seseh,"FC9Q+W94, Jl. Raya Babung, Gunaksa, Kec. Dawan, Kabupaten Klungkung, Bali 80761","Jl. Raya Babung, Gunaksa, Kec. Dawan, Kabupaten Klungkung",BALI,80761.0,Indonesia,,,,-8.5302497,115.4384488,https://maps.google.com/?cid=0x0:0x248e89b7dd6e0e62,
toko bangunan,Toko Bahan Bangunan,KARYA BANGUN,"QF3W+CC9, Ban, Kec. Kubu, Kabupaten Karangasem, Bali 80853","Ban, Kec. Kubu, Kabupaten Karangasem",BALI,80853.0,Indonesia,,,,-8.2464735,115.496111,https://maps.google.com/?cid=0x0:0x2462d52d2d827e5e,
toko bangunan,Toko,Toko Dharma Putra,"QH82+M6Q, Sukadana, Kec. Kubu, Kabupaten Karangasem, Bali 80853","Sukadana, Kec. Kubu, Kabupaten Karangasem",BALI,80853.0,Indonesia,87762668444.0,,,-8.2332787,115.5506168,https://maps.google.com/?cid=0x0:0xc4f2dfddf3a880f1,
toko bangunan,Toko bahan makanan,UD. ADI SEDANA,"PHPJ+PWV, br. dinas beluhu kangin, kab, Tulamben, Kec. Kubu, Kabupaten Karangasem, Bali 80853","br. dinas beluhu kangin, kab, Tulamben, Kec. Kubu, Kabupaten Karangasem",BALI,80853.0,Indonesia,36323321.0,,,-8.2631378,115.5823059,https://maps.google.com/?cid=0x0:0x49d8398d1b0a172d,
toko bangunan,Toko Bahan Bangunan,Toko Fajar Ketilang,"RFF7+7F, Tianyar Bar., Kec. Kubu, Kabupaten Karangasem, Bali 80853","Tianyar Bar., Kec. Kubu, Kabupaten Karangasem",BALI,80853.0,Indonesia,87760332399.0,,,-8.1768341,115.4636374,https://maps.google.com/?cid=0x0:0xa2667d03302e9fa,
toko bangunan,Toko Bahan Bangunan,UD Tegal Merta,"PFCQ+RPG Ds. Perasan Tegallantang, Jl. Ban, Pempatan, Kec. Kubu, Kabupaten Karangasem, Bali 80853","Jl. Ban, Pempatan, Kec. Kubu, Kabupaten Karangasem",BALI,80853.0,Indonesia,85215289027.0,,,-8.2779415,115.4893311,https://maps.google.com/?cid=0x0:0xc35a619870073e1,
toko bangunan,Toko Bahan Bangunan,Ud.Guna Karya,"QGV4+PHH, Jalan, Tianyar, Kubu, Karangasem Regency, Bali 80853","Jalan, Tianyar, Kubu, Karangasem Regency",BALI,80853.0,Indonesia,,,,-8.2056987,115.5064735,https://maps.google.com/?cid=0x0:0x5623e86262c0430b,
toko bangunan,Toko,Jd Surya Mulya,"QGCW+6FV, Jalan, Sukadana, Kubu, Karangasem Regency, Bali 80853","Jalan, Sukadana, Kubu, Karangasem Regency",BALI,80853.0,Indonesia,,,,-8.229381,115.5461563,https://maps.google.com/?cid=0x0:0x54e7d78dd2096216,
toko bangunan,Toko Perlengkapan Rumah,UD Meriani Dekorasi,"RF5F+X36, Tianyar Bar., Kec. Kubu, Kabupaten Karangasem, Bali","Kabupaten Karangasem, Bali",BALI,,Indonesia,81237318786.0,,,-8.1900967,115.4726439,https://maps.google.com/?cid=0x0:0x2579bf803eabcee5,
toko bangunan,Toko Bahan Bangunan,Toko Dharma kerti,"Banjar dinas kertabuana, Tukadlegawa, Tianyar Bar., Kabupaten Karangasem, Bali 80853","Tukadlegawa, Tianyar Bar., Kabupaten Karangasem",BALI,80853.0,Indonesia,87711878594.0,,,-8.1815353,115.4732793,https://maps.google.com/?cid=0x0:0x5e29f05e36722b39,
toko bangunan,Toko Bahan Bangunan,UD. LESTARI BANGUNAN II,"MJQ8+66Q, Jl. Kubu, Datah, Kec. Abang, Kabupaten Karangasem, Bali 80852","Jl. Kubu, Datah, Kec. Abang, Kabupaten Karangasem",BALI,80852.0,Indonesia,8161999912.0,,,-8.3119112,115.6156005,https://maps.google.com/?cid=0x0:0xf2ddc64663efd3e,
toko bangunan,Minimarket,UD Sekar Sari,"Jln Krg.asem-Singaraja KM 40 Amlapura, Tianyar, Kec. Kubu, Kabupaten Karangasem, Bali 80853","Tianyar, Kec. Kubu, Kabupaten Karangasem",BALI,80853.0,Indonesia,87762250900.0,,,-8.1978867,115.4965652,https://maps.google.com/?cid=0x0:0x4fe607711256dcd1,
toko bangunan,Toko Bahan Bangunan,TB. Kanong Jaya,"Jl. Tejakula - Tianyar, Tianyar Bar., Kec. Kubu, Kabupaten Karangasem, Bali 80853","Tianyar Bar., Kec. Kubu, Kabupaten Karangasem",BALI,80853.0,Indonesia,,,,-8.1731279,115.4589015,https://maps.google.com/?cid=0x0:0x42249827355b1106,
toko bangunan,Toko Bahan Bangunan,UD. Prawijaya,"QGJH+WX2, Jalan, Sukadana, Kubu, Karangasem Regency, Bali 80853","Jalan, Sukadana, Kubu, Karangasem Regency",BALI,80853.0,Indonesia,81339553076.0,,,-8.2177283,115.5298767,https://maps.google.com/?cid=0x0:0xb243551c0d16adbb,
toko bangunan,Toko Perlengkapan Rumah,TOKO SARITA,"RF5Q+76Q, Jl. Tejakula-Tianyar, Tejakula Tengah, Kubu, Tianyar Tengah, Kec. Kubu, Kabupaten Karangasem, Bali 80853","Jl. Tejakula-Tianyar, Tejakula Tengah, Kubu, Tianyar Tengah, Kec. Kubu, Kabupaten Karangasem",BALI,80853.0,Indonesia,85339821365.0,,,-8.1917952,115.4881139,https://maps.google.com/?cid=0x0:0xbb8b0c019cb85fa3,
toko bangunan,Toko Bahan Bangunan,Ud Putra Harapan,"Jl. Amlapura Singaraja, Culik, Kec. Abang, Kabupaten Karangasem, Bali 80853","Culik, Kec. Abang, Kabupaten Karangasem",BALI,80853.0,Indonesia,81805367903.0,,,-8.3411967,115.6137353,https://maps.google.com/?cid=0x0:0x18d4a00bc1e8d7e3,
toko bangunan,Toko Bahan Bangunan,Pertigaan pasir permata,"PGX7+J9, Sukadana, Kec. Kubu, Kabupaten Karangasem, Bali","Kabupaten Karangasem, Bali",BALI,,Indonesia,,,,-8.2508796,115.513496,https://maps.google.com/?cid=0x0:0xd492075971895a6c,
toko bangunan,Toko Bahan Bangunan,Jaya Mas,"Jl. Kubu, Datah, Kec. Abang, Kabupaten Karangasem, Bali 80852","Datah, Kec. Abang, Kabupaten Karangasem",BALI,80852.0,Indonesia,87866186620.0,,,-8.3174476,115.616242,https://maps.google.com/?cid=0x0:0x972f325d478fa38d,
toko bangunan,toko bangunan,Kubu,"Kubu, Kec. Kubu, Kabupaten Kubu Raya, Kalimantan Barat","Kabupaten Kubu Raya, Kalimantan Barat",BALI,,Indonesia,,,,-0.483762,109.378899,https://maps.google.com/?cid=0x0:0x3198742738a7ec1b,
toko bangunan,Toko Bahan Bangunan,KARYA BANGUN,"QF3W+CC9, Ban, Kec. Kubu, Kabupaten Karangasem, Bali 80853","Ban, Kec. Kubu, Kabupaten Karangasem",BALI,80853.0,Indonesia,,,,-8.2464735,115.496111,https://maps.google.com/?cid=0x0:0x2462d52d2d827e5e,
toko bangunan,toko bangunan,Kubu,"Kubu, Kec. Kubu, Kabupaten Karangasem, Bali","Kabupaten Karangasem, Bali",BALI,,Indonesia,,,,-8.25944,115.566002,https://maps.google.com/?cid=0x0:0x7361d170964b4850,
toko bangunan,Toko,Toko Dharma Putra,"QH82+M6Q, Sukadana, Kec. Kubu, Kabupaten Karangasem, Bali 80853","Sukadana, Kec. Kubu, Kabupaten Karangasem",BALI,80853.0,Indonesia,87762668444.0,,,-8.2332787,115.5506168,https://maps.google.com/?cid=0x0:0xc4f2dfddf3a880f1,
toko bangunan,Toko Bahan Bangunan,Ud. Bangunan Karangasem,"Jl. Achmad Yani No.100, Subagan, Kec. Karangasem, Kabupaten Karangasem, Bali 80811","Subagan, Kec. Karangasem, Kabupaten Karangasem",BALI,80811.0,Indonesia,36321475.0,,,-8.456688,115.6024291,https://maps.google.com/?cid=0x0:0x1449fae0db3ba084,
toko bangunan,Toko Bahan Bangunan,Toko Dharma kerti,"Banjar dinas kertabuana, Tukadlegawa, Tianyar Bar., Kabupaten Karangasem, Bali 80853","Tukadlegawa, Tianyar Bar., Kabupaten Karangasem",BALI,80853.0,Indonesia,87711878594.0,,,-8.1815353,115.4732793,https://maps.google.com/?cid=0x0:0x5e29f05e36722b39,
toko bangunan,Toko Bahan Bangunan,Toko Fajar Ketilang,"RFF7+7F, Tianyar Bar., Kec. Kubu, Kabupaten Karangasem, Bali 80853","Tianyar Bar., Kec. Kubu, Kabupaten Karangasem",BALI,80853.0,Indonesia,87760332399.0,,,-8.1768341,115.4636374,https://maps.google.com/?cid=0x0:0xa2667d03302e9fa,
toko bangunan,Toko Bahan Bangunan,TB. Kanong Jaya,"Jl. Tejakula - Tianyar, Tianyar Bar., Kec. Kubu, Kabupaten Karangasem, Bali 80853","Tianyar Bar., Kec. Kubu, Kabupaten Karangasem",BALI,80853.0,Indonesia,,,,-8.1731279,115.4589015,https://maps.google.com/?cid=0x0:0x42249827355b1106,
toko bangunan,Toko Bahan Bangunan,Bangunan Baru,"Jl. Kesatrian No.17, Karangasem, Kec. Karangasem, Kabupaten Karangasem, Bali 80811","Karangasem, Kec. Karangasem, Kabupaten Karangasem",BALI,80811.0,Indonesia,36321350.0,,,-8.4480686,115.6150109,https://maps.google.com/?cid=0x0:0x60893b015e2fbd8,
toko bangunan,Toko Bahan Bangunan,UD. LESTARI BANGUNAN II,"MJQ8+66Q, Jl. Kubu, Datah, Kec. Abang, Kabupaten Karangasem, Bali 80852","Jl. Kubu, Datah, Kec. Abang, Kabupaten Karangasem",BALI,80852.0,Indonesia,8161999912.0,,,-8.3119112,115.6156005,https://maps.google.com/?cid=0x0:0xf2ddc64663efd3e,
toko bangunan,Toko Bahan Bangunan,Jaya Mas,"Jl. Kubu, Datah, Kec. Abang, Kabupaten Karangasem, Bali 80852","Datah, Kec. Abang, Kabupaten Karangasem",BALI,80852.0,Indonesia,87866186620.0,,,-8.3174476,115.616242,https://maps.google.com/?cid=0x0:0x972f325d478fa38d,
toko bangunan,toko bangunan,Kubu,"Kubu, Kec. Kubu, Kabupaten Karangasem, Bali","Kabupaten Karangasem, Bali",BALI,,Indonesia,,,,-8.25944,115.566002,https://maps.google.com/?cid=0x0:0x7361d170964b4850,
toko bangunan,Toko Bahan Bangunan,TOKO 2 DARA ABADI BANGUNAN,"Jl. Kubu Anyar No.22, Kuta, Kec. Kuta, Kabupaten Badung, Bali 80361","Kuta, Kec. Kuta, Kabupaten Badung",BALI,80361.0,Indonesia,361757422.0,,,-8.7291484,115.1727313,https://maps.google.com/?cid=0x0:0xa3ed648699af7e0a,
toko bangunan,Toko Bahan Bangunan,Toko Bangunan,"Jl. Gajahmada, Karangasem, Kec. Karangasem, Kabupaten Karangasem, Bali 80811","Karangasem, Kec. Karangasem, Kabupaten Karangasem",BALI,80811.0,Indonesia,87721621039.0,,,-8.4480492,115.6160635,https://maps.google.com/?cid=0x0:0xb7c0309849c72142,
toko bangunan,Toko Bahan Bangunan,Adhi Putra Bangunan (JOTUN),"Ungasan, Kec. Kuta Sel., Kabupaten Badung, Bali 80361","Kec. Kuta Sel., Kabupaten Badung",BALI,80361.0,Indonesia,81333704111.0,,,-8.8152016,115.1562145,https://maps.google.com/?cid=0x0:0x2fecc01ac8eff5b8,
toko bangunan,Toko Bahan Bangunan,Kubu seseh,"FC9Q+W94, Jl. Raya Babung, Gunaksa, Kec. Dawan, Kabupaten Klungkung, Bali 80761","Jl. Raya Babung, Gunaksa, Kec. Dawan, Kabupaten Klungkung",BALI,80761.0,Indonesia,,,,-8.5302497,115.4384488,https://maps.google.com/?cid=0x0:0x248e89b7dd6e0e62,
toko bangunan,Toko Bahan Bangunan,Murah Makmur Bangunan,"Jl. Bypass Ngurah Rai No.888, Kelan, Kec. Kuta, Kabupaten Badung, Bali 80361","Kelan, Kec. Kuta, Kabupaten Badung",BALI,80361.0,Indonesia,,,,-8.7572246,115.1796061,https://maps.google.com/?cid=0x0:0xe8391b7b971789a4,
toko bangunan,Toko Bahan Bangunan,Kawi Graha Bangunan,"Jl. Sudirman No.18, Pendem, Kec. Jembrana, Kabupaten Jembrana, Bali 82211","Pendem, Kec. Jembrana, Kabupaten Jembrana",BALI,82211.0,Indonesia,81802072099.0,,,-8.3577299,114.6285171,https://maps.google.com/?cid=0x0:0x2fd68f13e2d4321b,
toko bangunan,Toko Perlengkapan Rumah,CAHAYA BALI Toko bangunan,"Jl. Banjar Kuwum Gg. Cendrawasih, Kerobokan Kelod, Kec. Kuta Utara, Kabupaten Badung, Bali 80361","Kerobokan Kelod, Kec. Kuta Utara, Kabupaten Badung",BALI,80361.0,Indonesia,,,,-8.6629294,115.157545,https://maps.google.com/?cid=0x0:0xf59825e9bec17918,
toko bangunan,Toko Bahan Bangunan,Toko bangunan taksu bali,"Jl. Glogor Carik No.119, Pemogan, Denpasar Selatan, Kota Denpasar, Bali 80119","Pemogan, Denpasar Selatan, Kota Denpasar",BALI,80119.0,Indonesia,816992047.0,,,-8.7026109,115.1905151,https://maps.google.com/?cid=0x0:0x5607ab5e61512e04,
toko bangunan,Toko Bahan Bangunan,Toko Bangunan Mitra Jaya,"Jl. By Pass Ngurah Rai No. 88x, Nusa Dua, Kuta Selatan, Benoa, South Kuta, Badung Regency, Bali 82363","Nusa Dua, Kuta Selatan, Benoa, South Kuta, Badung Regency",BALI,82363.0,Indonesia,,,,-8.7886429,115.2089751,https://maps.google.com/?cid=0x0:0xd44b775bdf1ebe53,
toko bangunan,Toko Perlengkapan Rumah,Toko Bangunan Kawi Jaya,"Jl. Pahlawan, Pendem, Kec. Negara, Kabupaten Jembrana, Bali 82218","Pendem, Kec. Negara, Kabupaten Jembrana",BALI,82218.0,Indonesia,36541288.0,,,-8.3580215,114.6256185,https://maps.google.com/?cid=0x0:0x9bbe88362e356a5e,
toko bangunan,Toko Bahan Bangunan,Ud. Bangunan Karangasem,"Jl. Achmad Yani No.100, Subagan, Kec. Karangasem, Kabupaten Karangasem, Bali 80811","Subagan, Kec. Karangasem, Kabupaten Karangasem",BALI,80811.0,Indonesia,36321475.0,,,-8.456688,115.6024291,https://maps.google.com/?cid=0x0:0x1449fae0db3ba084,
toko bangunan,Toko Bahan Bangunan,Kubu Dewata,"Jalan Kembang Matahari, Gg. XX Br. Ketapian Kaja No.10, Sumerta, Kec. Denpasar Tim., Kota Denpasar, Bali 80235","Gg. XX Br. Ketapian Kaja No.10, Sumerta, Kec. Denpasar Tim., Kota Denpasar",BALI,80235.0,Indonesia,85168918484.0,,,-8.6504531,115.2382194,https://maps.google.com/?cid=0x0:0x689099eb92c57520,
toko bangunan,Toko Bahan Bangunan,KARYA BANGUN,"QF3W+CC9, Ban, Kec. Kubu, Kabupaten Karangasem, Bali 80853","Ban, Kec. Kubu, Kabupaten Karangasem",BALI,80853.0,Indonesia,,,,-8.2464735,115.496111,https://maps.google.com/?cid=0x0:0x2462d52d2d827e5e,
toko bangunan,Toko Bahan Bangunan,Toko bangunan,"R5WX+XGR, Unnamed Road, Pakisan, Kec. Kubutambahan, Kabupaten Buleleng, Bali 81171","Unnamed Road, Pakisan, Kec. Kubutambahan, Kabupaten Buleleng",BALI,81171.0,Indonesia,,,,-8.15252,115.198768,https://maps.google.com/?cid=0x0:0xa010836048bfe7f,
toko bangunan,Toko Bahan Bangunan,"Toko bangunan Dua putra,bancei","Jl. Babakan Madang No.15, Babakan Madang, Kec. Babakan Madang, Kabupaten Bogor, Jawa Barat 16810","Babakan Madang, Kec. Babakan Madang, Kabupaten Bogor",BALI,16810.0,Indonesia,82114261067.0,,,-6.566984,106.8640769,https://maps.google.com/?cid=0x0:0xe012b53786d14e9c,
toko bangunan,Toko Bahan Bangunan,TB Karya Bangunan Pasir Kuda,"Jl. Aria Surialaga No.166, RT.05/RW.03, Pasirkuda, Kec. Bogor Bar., Kota Bogor, Jawa Barat 16119","RT.05/RW.03, Pasirkuda, Kec. Bogor Bar., Kota Bogor",BALI,16119.0,Indonesia,85256292462.0,,,-6.6012243,106.7823169,https://maps.google.com/?cid=0x0:0x9f2a00782ba5b0f,
toko bangunan,Toko Bahan Bangunan,Toko Bangunan Gunung Agung,"JL Puncak Raya, KM 75, Cipayung, Cipayung Datar, Megamendung, Bogor Regency, West Java 16770","KM 75, Cipayung, Cipayung Datar, Megamendung, Bogor Regency",BALI,16770.0,Indonesia,2518252543.0,,,-6.6505127,106.8965397,https://maps.google.com/?cid=0x0:0xa93a2965a6df0efe,
toko bangunan,Toko Bahan Bangunan,Toko Bangunan Samudra,"Jl Kranggan Raya, RT.01/02/RW.No.2, Puspasari, Kec. Citeureup, Kabupaten Bogor, Jawa Barat 16810","RT.01/02/RW.No.2, Puspasari, Kec. Citeureup, Kabupaten Bogor",BALI,16810.0,Indonesia,87887371288.0,,,-6.480654,106.871007,https://maps.google.com/?cid=0x0:0x7791e4d2c85deedf,
toko bangunan,Toko Bahan Bangunan,Toko bangunan putra manakib H.kurdi,"FW5M+W95, Unnamed Road, Pabuaran, Kec. Sukamakmur, Kabupaten Bogor, Jawa Barat 16830","Unnamed Road, Pabuaran, Kec. Sukamakmur, Kabupaten Bogor",BALI,16830.0,Indonesia,,,,-6.5402432,106.933471,https://maps.google.com/?cid=0x0:0xe583656ead8da387,
toko bangunan,Toko Bahan Bangunan,TOKO BANGUNAN JAYA,"Karyasari, Kec. Leuwiliang, Kabupaten Bogor, Jawa Barat 16640","Kec. Leuwiliang, Kabupaten Bogor",BALI,16640.0,Indonesia,,,,-6.6366511,106.6371574,https://maps.google.com/?cid=0x0:0xfe20c09a907d8ebc,
toko bangunan,toko bangunan,Manggis,"Manggis, Kec. Manggis, Kabupaten Karangasem, Bali","Kabupaten Karangasem, Bali",BALI,,Indonesia,,,,-8.492179,115.5252,https://maps.google.com/?cid=0x0:0xe8cfc3ff76ecc7c4,
toko bangunan,Toko Kayu,UD. KORI AGUNG,"GG2M+XHC, Jl. Raya Manggis, Manggis, Kec. Manggis, Kabupaten Karangasem, Bali 80871","Jl. Raya Manggis, Manggis, Kec. Manggis, Kabupaten Karangasem",BALI,80871.0,Indonesia,8123667867.0,,,-8.4975623,115.533899,https://maps.google.com/?cid=0x0:0x108bc99fc8d44769,
toko bangunan,Toko Bahan Bangunan,UD GUNUNG SARI,"Jl. Raya Manggis, Manggis, Kec. Manggis, Kabupaten Karangasem, Bali 80871","Manggis, Kec. Manggis, Kabupaten Karangasem",BALI,80871.0,Indonesia,85338236989.0,,,-8.4947001,115.5262859,https://maps.google.com/?cid=0x0:0xfa5a1867674d7e55,
toko bangunan,Toko Bahan Bangunan,UD.DARMA UTAMA,"GG88+496, Jl. Raya Yehpoh, Manggis, Kec. Manggis, Kabupaten Karangasem, Bali 80871","Jl. Raya Yehpoh, Manggis, Kec. Manggis, Kabupaten Karangasem",BALI,80871.0,Indonesia,82236530839.0,,,-8.4847089,115.5158893,https://maps.google.com/?cid=0x0:0xa62aa8fe6a40bd69,
toko bangunan,Toko Bahan Bangunan,UD Karya Murni,"FFHW+63G, Jl. Raya Padang Bai, Antiga, Kec. Manggis, Kabupaten Karangasem, Bali 80871","Jl. Raya Padang Bai, Antiga, Kec. Manggis, Kabupaten Karangasem",BALI,80871.0,Indonesia,87762727374.0,,,-8.5219275,115.4951876,https://maps.google.com/?cid=0x0:0x78e98ede6e631e35,
toko bangunan,Toko Bahan Bangunan,Toko Bangunan WES,"GH4Q+XRH, Jl. Tambak Udang Broodstock Center, Sengkidu, Kec. Manggis, Kabupaten Karangasem, Bali 80811","Jl. Tambak Udang Broodstock Center, Sengkidu, Kec. Manggis, Kabupaten Karangasem",BALI,80811.0,Indonesia,82122228701.0,,,-8.4925616,115.5896022,https://maps.google.com/?cid=0x0:0x5311fd2b527a8f5,
toko bangunan,Toko Bahan Bangunan,UD Kelapa Sari,"GG38+PH9, Jl. Raya Manggis, Manggis, Kec. Manggis, Kabupaten Karangasem, Bali 80871","Jl. Raya Manggis, Manggis, Kec. Manggis, Kabupaten Karangasem",BALI,80871.0,Indonesia,36341680.0,,,-8.4957244,115.5164752,https://maps.google.com/?cid=0x0:0xe3c16848cb2108ac,
toko bangunan,Toko Bahan Bangunan,UD sudartawan,"GG2R+37V, Jl. Raya Buitan, Manggis, Kec. Manggis, Kabupaten Karangasem, Bali 80811","Jl. Raya Buitan, Manggis, Kec. Manggis, Kabupaten Karangasem",BALI,80811.0,Indonesia,36341803.0,,,-8.4997652,115.5406605,https://maps.google.com/?cid=0x0:0x9c9298887be40441,
toko bangunan,Toko Bahan Bangunan,Bangunan Jaya,"GH6W+G69, Sengkidu, Kec. Manggis, Kabupaten Karangasem, Bali 80811","Sengkidu, Kec. Manggis, Kabupaten Karangasem",BALI,80811.0,Indonesia,85166900641.0,,,-8.4887048,115.5956002,https://maps.google.com/?cid=0x0:0xf0e0e3f6c898b631,
toko bangunan,Toko Bahan Bangunan,UD ALIT KARYA,"GG49+753, Jl. Raya Manggis, Manggis, Kec. Manggis, Kabupaten Karangasem, Bali 80871","Jl. Raya Manggis, Manggis, Kec. Manggis, Kabupaten Karangasem",BALI,80871.0,Indonesia,36341899.0,,,-8.494368,115.5179133,https://maps.google.com/?cid=0x0:0x93e87e06b6761c2f,
toko bangunan,Toko Bahan Bangunan,TOKO FAJAR,"GG25+635, Jalan Raya Ulakan-Karangasem, Ulakan, Manggis, Kec. Manggis, Kabupaten Karangasem, Bali 80871","Jalan Raya Ulakan-Karangasem, Ulakan, Manggis, Kec. Manggis, Kabupaten Karangasem",BALI,80871.0,Indonesia,81338594907.0,,,-8.499499,115.5077498,https://maps.google.com/?cid=0x0:0xe81a777dd31468f2,
toko bangunan,Toko Bahan Bangunan,UD. Gabin,"FHX4+GQP, Jl. Raya Sengkidu, Sengkidu, Kec. Manggis, Kabupaten Karangasem, Bali 80817","Jl. Raya Sengkidu, Sengkidu, Kec. Manggis, Kabupaten Karangasem",BALI,80817.0,Indonesia,36342009.0,,,-8.5011672,115.5569579,https://maps.google.com/?cid=0x0:0xb643ee51f437c4c8,
toko bangunan,Toko Bahan Bangunan,Ud. Bangunan Karangasem,"Jl. Achmad Yani No.100, Subagan, Kec. Karangasem, Kabupaten Karangasem, Bali 80811","Subagan, Kec. Karangasem, Kabupaten Karangasem",BALI,80811.0,Indonesia,36321475.0,,,-8.456688,115.6024291,https://maps.google.com/?cid=0x0:0x1449fae0db3ba084,
toko bangunan,Toko Bahan Bangunan,Toko Bangunan,"Jl. Gajahmada, Karangasem, Kec. Karangasem, Kabupaten Karangasem, Bali 80811","Karangasem, Kec. Karangasem, Kabupaten Karangasem",BALI,80811.0,Indonesia,87721621039.0,,,-8.4480492,115.6160635,https://maps.google.com/?cid=0x0:0xb7c0309849c72142,
toko bangunan,Toko Bahan Bangunan,UD Aryatika,"Jl. Ulakan No.95, Manggis, Kec. Manggis, Kabupaten Karangasem, Bali 80871","Manggis, Kec. Manggis, Kabupaten Karangasem",BALI,80871.0,Indonesia,36341681.0,,,-8.5054869,115.504391,https://maps.google.com/?cid=0x0:0x9499cddc04b18da0,
toko bangunan,Toko Bahan Bangunan,RDM,"GH22+5W3, Jl. Raya Sengkidu, Sengkidu, Kec. Manggis, Kabupaten Karangasem, Bali 80871","Jl. Raya Sengkidu, Sengkidu, Kec. Manggis, Kabupaten Karangasem",BALI,80871.0,Indonesia,36341358.0,,,-8.4996116,115.5522918,https://maps.google.com/?cid=0x0:0xd89091a483e5a189,
toko bangunan,Toko Bahan Bangunan,Ud. Darma,"FHV6+H7X, Jl. Raya Candidasa, Nyuh Tebel, Kec. Manggis, Kabupaten Karangasem, Bali 80817","Jl. Raya Candidasa, Nyuh Tebel, Kec. Manggis, Kabupaten Karangasem",BALI,80817.0,Indonesia,87863196004.0,,,-8.5060046,115.5607223,https://maps.google.com/?cid=0x0:0x277c2542017ea45f,
toko bangunan,Toko Bahan Bangunan,Bangunan Baru,"Jl. Kesatrian No.17, Karangasem, Kec. Karangasem, Kabupaten Karangasem, Bali 80811","Karangasem, Kec. Karangasem, Kabupaten Karangasem",BALI,80811.0,Indonesia,36321350.0,,,-8.4480686,115.6150109,https://maps.google.com/?cid=0x0:0x60893b015e2fbd8,
toko bangunan,Toko Bahan Bangunan,Asia Tile,"GG2M+XHG, Jl. Raya Manggis, Manggis, Kec. Manggis, Kabupaten Karangasem, Bali 80871","Jl. Raya Manggis, Manggis, Kec. Manggis, Kabupaten Karangasem",BALI,80871.0,Indonesia,,,,-8.497551,115.5339398,https://maps.google.com/?cid=0x0:0x8f2d13acb8fd0ccf,
toko bangunan,Toko Bahan Bangunan,WINDHU SARA,"GG38+656, Jl pelabuhan pariwisata Jl. Tanah Ampo, Manggis, Kec. Manggis, Kabupaten Karangasem, Bali 80871","Jl pelabuhan pariwisata Jl. Tanah Ampo, Manggis, Kec. Manggis, Kabupaten Karangasem",BALI,80871.0,Indonesia,,,,-8.4969669,115.5154061,https://maps.google.com/?cid=0x0:0x1bc8ef07e8d0f9ed,
toko bangunan,Toko Bahan Bangunan,UD. Tukad Buhu,"GH5Q+4M5, Sengkidu, Kec. Manggis, Kabupaten Karangasem, Bali 80811","Sengkidu, Kec. Manggis, Kabupaten Karangasem",BALI,80811.0,Indonesia,36322505.0,,,-8.4922443,115.5892271,https://maps.google.com/?cid=0x0:0x50b6f96625fafeb9,
toko bangunan,Toko,Toko Bangunan Sri Murti 4,"Jl. Raya Padang Bai, Antiga Kelod, Pengalon, Kabupaten Karangasem, Bali 80811","Antiga Kelod, Pengalon, Kabupaten Karangasem",BALI,80811.0,Indonesia,82342199235.0,,,-8.5396468,115.4912375,https://maps.google.com/?cid=0x0:0x6cbf420c89b19e86,
toko bangunan,Toko Bahan Bangunan,Wangun Jaya Bangunan,"Jl. Raya Wangun No.235, RT.01/RW.03, Sindangsari, Kec. Bogor Sel., Kota Bogor, Jawa Barat 16146","RT.01/RW.03, Sindangsari, Kec. Bogor Sel., Kota Bogor",BALI,16146.0,Indonesia,82110801611.0,,,-6.6481968,106.8430504,https://maps.google.com/?cid=0x0:0x64a6aae258027cb7,
toko bangunan,Toko Bahan Bangunan,TB.manggis jaya,"NO WA O779O3O54I, Jl. Cimahpar No.74, RT.06/RW.05, Tanah Baru, Kec. Bogor Utara, Kota Bogor, Jawa Barat 16154","Jl. Cimahpar No.74, RT.06/RW.05, Tanah Baru, Kec. Bogor Utara, Kota Bogor",BALI,16154.0,Indonesia,,,,-6.5887994,106.8211209,https://maps.google.com/?cid=0x0:0x10eb143a65e47584,
toko bangunan,Toko Bahan Bangunan,GALERY BANGUNAN,"Jl. Lkr. Dramaga kp manggis No.rt03/04, Dramaga, Kec. Dramaga, Kabupaten Bogor, Jawa Barat 16680","Dramaga, Kec. Dramaga, Kabupaten Bogor",BALI,16680.0,Indonesia,85892288187.0,,,-6.5778111,106.7392446,https://maps.google.com/?cid=0x0:0x162657602aa956a6,
toko bangunan,Pemasok Bahan Bangunan,TB Mandiri,"Jl. Pd. Rumput Kelurahan No.139, RT.04/RW.13, Kb. Pedes, Kec. Tanah Sereal, Kota Bogor, Jawa Barat 16162","RT.04/RW.13, Kb. Pedes, Kec. Tanah Sereal, Kota Bogor",BALI,16162.0,Indonesia,81219540039.0,,,-6.5743496,106.7932845,https://maps.google.com/?cid=0x0:0x746d1cbd5023de3a,
toko bangunan,Toko Bahan Bangunan,TOKO MATERIAL H. KACE,"9RM9+7VW, Jl. Nenas Raya, RT.03/RW.07, Baranangsiang, Kec. Bogor Tim., Kota Bogor, Jawa Barat 16143","Jl. Nenas Raya, RT.03/RW.07, Baranangsiang, Kec. Bogor Tim., Kota Bogor",BALI,16143.0,Indonesia,82133302420.0,,,-6.6167667,106.8197099,https://maps.google.com/?cid=0x0:0x21d87d77e7392093,
toko bangunan,Toko Bahan Bangunan,TB Tenjoayu,"Jl. Manggis No.12, Tenjoayu, Kec. Cicurug, Kabupaten Sukabumi, Jawa Barat 43359","Tenjoayu, Kec. Cicurug, Kabupaten Sukabumi",BALI,43359.0,Indonesia,,,,-6.7735407,106.7924375,https://maps.google.com/?cid=0x0:0xa8675142666c1375,
toko bangunan,Toko Bahan Bangunan,TB. Bintang Bangunan,"JL HR Edi Sukma, Km. 22, Ciburuy, Cigombong, Cinagara, Kec. Caringin, Kabupaten Bogor, Jawa Barat 16730","Km. 22, Ciburuy, Cigombong, Cinagara, Kec. Caringin, Kabupaten Bogor",BALI,16730.0,Indonesia,817104068.0,,,-6.7326722,106.8209917,https://maps.google.com/?cid=0x0:0xdb2c03ac72ccad17,
toko bangunan,toko bangunan,Bali 80863,"Kec. Rendang, Kabupaten Karangasem, Bali","Kabupaten Karangasem, Bali",BALI,,Indonesia,,,,-8.3623262,115.4378152,https://maps.google.com/?cid=0x0:0x1c00c5eb6016c0a0,
toko bangunan,Pemasok Bahan Bangunan,Material Bangunan,"HC99+FMP, Jl. Taman, Nongan, Kec. Rendang, Kabupaten Karangasem, Bali 80863","Jl. Taman, Nongan, Kec. Rendang, Kabupaten Karangasem",BALI,80863.0,Indonesia,,,,-8.4312854,115.4191889,https://maps.google.com/?cid=0x0:0xb4f357cdb1c02312,
toko bangunan,Pemasok Bahan Bangunan,Jasa Bangunan,"JCRH+976, Pempatan, Kec. Rendang, Kabupaten Karangasem, Bali 80863","Pempatan, Kec. Rendang, Kabupaten Karangasem",BALI,80863.0,Indonesia,81237848784.0,,,-8.3590964,115.4281438,https://maps.google.com/?cid=0x0:0x13ba929db93f451c,
toko bangunan,Toko Bahan Bangunan,Toko bangunan ardika,"HCRQ+JH4, Menanga, Kec. Rendang, Kabupaten Karangasem, Bali 80863","Menanga, Kec. Rendang, Kabupaten Karangasem",BALI,80863.0,Indonesia,,,,-8.4084803,115.4389543,https://maps.google.com/?cid=0x0:0xae15757b1ecce1f5,
toko bangunan,Toko Bahan Bangunan,TB SINAR HARAPAN,"Jl. Raya Besakih No.88, Pesaban, Kec. Rendang, Kabupaten Karangasem, Bali 80863","Pesaban, Kec. Rendang, Kabupaten Karangasem",BALI,80863.0,Indonesia,,,,-8.4566866,115.4083451,https://maps.google.com/?cid=0x0:0x6d07e2f7ab0b9c2e,
toko bangunan,Toko Bahan Bangunan,UD. Guna Karya Mandiri,"HCQC+2GX, Jl. Raya Besakih, Menanga, Kec. Rendang, Kabupaten Karangasem, Bali 80863","Jl. Raya Besakih, Menanga, Kec. Rendang, Kabupaten Karangasem",BALI,80863.0,Indonesia,81915616353.0,,,-8.412382,115.421365,https://maps.google.com/?cid=0x0:0xf33872520787a348,
toko bangunan,Toko Bahan Bangunan,KARUNIA MAKMUR KUBAKAL,"JCF3+RW2, Unnamed Road, Pempatan, Kec. Rendang, Kabupaten Karangasem, Bali 80671","Unnamed Road, Pempatan, Kec. Rendang, Kabupaten Karangasem",BALI,80671.0,Indonesia,81339522130.0,,,-8.3754807,115.4047524,https://maps.google.com/?cid=0x0:0x4390acdce7e49d1c,
toko bangunan,Toko Bahan Bangunan,TB Padma sari Muncan toko material bangunan,"Unnamed Road, Muncan, Selat, Karangasem Regency, Bali 80862","Muncan, Selat, Karangasem Regency",BALI,80862.0,Indonesia,87860404096.0,,,-8.4369508,115.444766,https://maps.google.com/?cid=0x0:0xb76c358a3d93a90a,
toko bangunan,Toko Bahan Bangunan,UD. Sari Artha,"HCRC+2HR, Menanga, Kec. Rendang, Kabupaten Karangasem, Bali 80863","Menanga, Kec. Rendang, Kabupaten Karangasem",BALI,80863.0,Indonesia,,,,-8.4098895,115.4213994,https://maps.google.com/?cid=0x0:0xed00902e5df0ac7d,
toko bangunan,toko bangunan,Timbunan Pasir Tu Amel Rendang,"Jl. Dewa Anom, Rendang, Kec. Rendang, Kabupaten Karangasem, Bali 80863","Rendang, Kec. Rendang, Kabupaten Karangasem",BALI,80863.0,Indonesia,,,,-8.4284761,115.427407,https://maps.google.com/?cid=0x0:0x94ab924dd2796118,
toko bangunan,Gudang,Sadpala SP . Gudang Rendang,"Jl. Dewa Anom No.81, Rendang, Kec. Rendang, Kabupaten Karangasem, Bali 80863","Rendang, Kec. Rendang, Kabupaten Karangasem",BALI,80863.0,Indonesia,81338318444.0,,,-8.4284194,115.4303304,https://maps.google.com/?cid=0x0:0xcac8fcb10f7f691a,
toko bangunan,Toko Bahan Bangunan,"UD.Sari Arta alat bangunan dan Kayu,alat desel dan sengsor","HCM6+WQ3, Bangbang, Kec. Tembuku, Kabupaten Bangli, Bali 80671","Bangbang, Kec. Tembuku, Kabupaten Bangli",BALI,80671.0,Indonesia,,,,-8.414665,115.4109543,https://maps.google.com/?cid=0x0:0x36735f923bc2e106,
toko bangunan,Toko,UD Bali Pangestu,"GCG2+G6W, Jl. Raya Besakih, Akah, Kec. Klungkung, Kabupaten Klungkung, Bali 80864","Jl. Raya Besakih, Akah, Kec. Klungkung, Kabupaten Klungkung",BALI,80864.0,Indonesia,85392025891.0,,,-8.4736426,115.4005903,https://maps.google.com/?cid=0x0:0x5a0624781f872666,
toko bangunan,Toko Bahan Bangunan,UD Karya Cipta II,"HCHC+G24, Jl. Gn. Agung, Besakih, Kec. Rendang, Kabupaten Karangasem, Bali 80863","Jl. Gn. Agung, Besakih, Kec. Rendang, Kabupaten Karangasem",BALI,80863.0,Indonesia,81338429004.0,,,-8.4212368,115.4200695,https://maps.google.com/?cid=0x0:0xd391279b5e32830e,
toko bangunan,Gudang,Gudang Jaya Makmur,"Pempatan, Kec. Rendang, Kabupaten Karangasem, Bali 80863","Kec. Rendang, Kabupaten Karangasem",BALI,80863.0,Indonesia,82341829857.0,,,-8.3423971,115.4413364,https://maps.google.com/?cid=0x0:0x81f67215682c7b3f,
toko bangunan,Toko Bahan Bangunan,BATAKO UD BASUKI SEDANA,"Pempatan, Kec. Rendang, Kabupaten Karangasem, Bali","Kabupaten Karangasem, Bali",BALI,,Indonesia,85333074439.0,,,-8.3719659,115.4226567,https://maps.google.com/?cid=0x0:0xd674134fae6ff9c,
toko bangunan,Toko Bahan Bangunan,RAJIN BANGUNAN,"Jl. Kesumayudha, Sulahan, Kec. Susut, Kabupaten Bangli, Bali 80661","Sulahan, Kec. Susut, Kabupaten Bangli",BALI,80661.0,Indonesia,81353322312.0,,,-8.4014975,115.3484071,https://maps.google.com/?cid=0x0:0x504756573f7771d4,
toko bangunan,Toko Bahan Bangunan,Toko Bangunan Bang Bang,"HC22+FXG, Jl. Raya Timuhun, Tembuku, Kec. Bangli, Kabupaten Bangli, Bali 80614","Jl. Raya Timuhun, Tembuku, Kec. Bangli, Kabupaten Bangli",BALI,80614.0,Indonesia,8123850459.0,,,-8.4488204,115.4024656,https://maps.google.com/?cid=0x0:0x9576e0540e379b89,
toko bangunan,Toko,Ud. Simpang Jaya,"Jalan Raya Nyanggelan, Undisan, Kec. Tembuku, Kabupaten Bangli, Bali 80671","Undisan, Kec. Tembuku, Kabupaten Bangli",BALI,80671.0,Indonesia,8123850459.0,,,-8.4488311,115.4025538,https://maps.google.com/?cid=0x0:0x1d2c1e9d6f11db24,
toko bangunan,Toko,Sindu Bangunan,"Sindu Wati, Kec. Sidemen, Kabupaten Karangasem, Bali 80864","Kec. Sidemen, Kabupaten Karangasem",BALI,80864.0,Indonesia,,,,-8.4557061,115.4517263,https://maps.google.com/?cid=0x0:0x5579ccd2fc0fd162,
toko bangunan,Toko Bahan Bangunan,UD TUKAD BUNGBUNG BANGUNAN,"Jl. Dewa Anom, Rendang, Kec. Rendang, Kabupaten Karangasem, Bali 80863","Rendang, Kec. Rendang, Kabupaten Karangasem",BALI,80863.0,Indonesia,81337277579.0,,,-8.4286592,115.4227822,https://maps.google.com/?cid=0x0:0xb02f73482e2a143,
toko bangunan,Toko Bahan Bangunan,TB. Agung Bangunan,"Jl. Kalisari II No.77 11, RT.4/RW.11, Kalisari, Pasar Rebo, East Jakarta City, Jakarta 13790","RT.4/RW.11, Kalisari, Pasar Rebo, East Jakarta City",BALI,13790.0,Indonesia,87808789579.0,,,-6.3358145,106.853364,https://maps.google.com/?cid=0x0:0x4fc55d1ccf9f2155,
toko bangunan,Toko Bahan Bangunan,Putra Jehem Bangunan,"H93H+4RP, Jehem, Kec. Tembuku, Kabupaten Bangli, Bali 80671","Jehem, Kec. Tembuku, Kabupaten Bangli",BALI,80671.0,Indonesia,8123652236.0,,,-8.4471629,115.3795696,https://maps.google.com/?cid=0x0:0xcb38eef921b4c6ba,
toko bangunan,Toko Bahan Bangunan,Bangunan Baru,"Jl. Kesatrian No.17, Karangasem, Kec. Karangasem, Kabupaten Karangasem, Bali 80811","Karangasem, Kec. Karangasem, Kabupaten Karangasem",BALI,80811.0,Indonesia,36321350.0,,,-8.4480686,115.6150109,https://maps.google.com/?cid=0x0:0x60893b015e2fbd8,
toko bangunan,Toko Bahan Bangunan,Agung Bangunan,"Jl. Gongseng Raya No.29, RT.5/RW.7, Cijantung, Kec. Ps. Rebo, Kota Jakarta Timur, Daerah Khusus Ibukota Jakarta 13770","RT.5/RW.7, Cijantung, Kec. Ps. Rebo, Kota Jakarta Timur",BALI,13770.0,Indonesia,8128185288.0,,,-6.3263323,106.8579037,https://maps.google.com/?cid=0x0:0x5e2d5aef6e12d50c,
toko bangunan,Toko,Toko Bangunan Sri Murti 4,"Jl. Raya Padang Bai, Antiga Kelod, Pengalon, Kabupaten Karangasem, Bali 80811","Antiga Kelod, Pengalon, Kabupaten Karangasem",BALI,80811.0,Indonesia,82342199235.0,,,-8.5396468,115.4912375,https://maps.google.com/?cid=0x0:0x6cbf420c89b19e86,
toko bangunan,Toko Bahan Bangunan,Toko Bangunan,"Jl. Gajahmada, Karangasem, Kec. Karangasem, Kabupaten Karangasem, Bali 80811","Karangasem, Kec. Karangasem, Kabupaten Karangasem",BALI,80811.0,Indonesia,87721621039.0,,,-8.4480492,115.6160635,https://maps.google.com/?cid=0x0:0xb7c0309849c72142,
toko bangunan,Toko Bahan Bangunan,Bangunan Jaya,"GH6W+G69, Sengkidu, Kec. Manggis, Kabupaten Karangasem, Bali 80811","Sengkidu, Kec. Manggis, Kabupaten Karangasem",BALI,80811.0,Indonesia,85166900641.0,,,-8.4887048,115.5956002,https://maps.google.com/?cid=0x0:0xf0e0e3f6c898b631,
toko bangunan,Toko Bahan Bangunan,Ud. Bangunan Karangasem,"Jl. Achmad Yani No.100, Subagan, Kec. Karangasem, Kabupaten Karangasem, Bali 80811","Subagan, Kec. Karangasem, Kabupaten Karangasem",BALI,80811.0,Indonesia,36321475.0,,,-8.456688,115.6024291,https://maps.google.com/?cid=0x0:0x1449fae0db3ba084,
toko bangunan,toko bangunan,Selat,"Pering Sari, Kec. Selat, Kabupaten Karangasem, Bali","Kabupaten Karangasem, Bali",BALI,,Indonesia,,,,-8.437853,115.465897,https://maps.google.com/?cid=0x0:0x22f53a4a73abc935,
toko bangunan,Toko Bahan Bangunan,Toko Adi Bangunan,"HF87+QXH, Jl. Baledan, Pering Sari, Kec. Selat, Kabupaten Karangasem, Bali 80862","Jl. Baledan, Pering Sari, Kec. Selat, Kabupaten Karangasem",BALI,80862.0,Indonesia,,,,-8.4330604,115.4649906,https://maps.google.com/?cid=0x0:0x669cd23e1304e998,
toko bangunan,Toko Bahan Bangunan,Toko bangunan bali made 2,"Jalan Raya Jl. Bukit Jati No.80x, Samplangan, Kec. Gianyar, Kabupaten Gianyar, Bali 80511","Samplangan, Kec. Gianyar, Kabupaten Gianyar",BALI,80511.0,Indonesia,89685848180.0,,,-8.5369604,115.3332963,https://maps.google.com/?cid=0x0:0xa1db30a250c7a380,
toko bangunan,Toko Bahan Bangunan,Mekar Indah,"HF78+4F8, Pering Sari, Kec. Selat, Kabupaten Karangasem, Bali 80862","Pering Sari, Kec. Selat, Kabupaten Karangasem",BALI,80862.0,Indonesia,36622860.0,,,-8.437225,115.466216,https://maps.google.com/?cid=0x0:0x7c2ef6ca377f81e4,
toko bangunan,Toko Bahan Bangunan,Puspa Reni. UD,"HF68+WCX, JL. Gunung Agung, Banjar Selat Kelod, Selat, Pering Sari, Karangasem, Kabupaten Karangasem, Bali 80862","JL. Gunung Agung, Banjar Selat Kelod, Selat, Pering Sari, Karangasem, Kabupaten Karangasem",BALI,80862.0,Indonesia,82144533595.0,,,-8.437634,115.4661243,https://maps.google.com/?cid=0x0:0x6ab361bd12c357ac,
toko bangunan,Toko Swalayan,TB Fitri,"Selat Hulu, Kec. Selat, Kabupaten Kapuas, Kalimantan Tengah 73581","Kec. Selat, Kabupaten Kapuas",BALI,73581.0,Indonesia,123456.0,,,-2.9674313,114.4140448,https://maps.google.com/?cid=0x0:0xd934d3f5a867d34,
toko bangunan,Toko Bahan Bangunan,Toko Bahan Bangunan Makita 2,"Selat Hilir, Kec. Selat, Kabupaten Kapuas, Kalimantan Tengah 73516","Kec. Selat, Kabupaten Kapuas",BALI,73516.0,Indonesia,81348644115.0,,,-3.0190088,114.3884391,https://maps.google.com/?cid=0x0:0x2c4905b2412181e2,
toko bangunan,Toko Bahan Bangunan,TOKO BANGUNAN UD.BARU2 ADITYA,"X9XR+8WF, Selat Tengah, Kec. Selat, Kabupaten Kapuas, Kalimantan Tengah 73516","Selat Tengah, Kec. Selat, Kabupaten Kapuas",BALI,73516.0,Indonesia,82371117775.0,,,-3.0016958,114.3923081,https://maps.google.com/?cid=0x0:0xe5f29dbdd90cdd54,
toko bangunan,Toko Perlengkapan Rumah,Toko Bangunan Kawan Kita,"X9XR+HHV, Selat Tengah, Kec. Selat, Kabupaten Kapuas, Kalimantan Tengah 73516","Selat Tengah, Kec. Selat, Kabupaten Kapuas",BALI,73516.0,Indonesia,51323074.0,,,-3.0010092,114.3914251,https://maps.google.com/?cid=0x0:0x13809857992ce88c,
toko bangunan,Toko Bahan Bangunan,Toko bangunan Ud Harapan Anak,"Jl. Trans Kalimantan No.28 (Sungai Baras, Selat Hulu, Kec. Selat, Kabupaten Kapuas, Kalimantan Tengah 73581","Selat Hulu, Kec. Selat, Kabupaten Kapuas",BALI,73581.0,Indonesia,82221191276.0,,,-2.9842218,114.4109267,https://maps.google.com/?cid=0x0:0x61eb96590702aec0,
toko bangunan,Toko Bahan Bangunan,Toko Bangunan Citra Dewi,"Jl. Keruing No.23, Selat Tengah, Kec. Selat, Kabupaten Kapuas, Kalimantan Tengah 73516","Selat Tengah, Kec. Selat, Kabupaten Kapuas",BALI,73516.0,Indonesia,,,,-3.0060076,114.3857865,https://maps.google.com/?cid=0x0:0x3759f20759733bd5,
toko bangunan,Toko Perlengkapan Rumah,Toko Bangunan Fajar Mas,"Jl. Jendral Sudirman No. 35 / 56 Depan Toko Mas Purnama, Kalimantan Tengah 73513","Kabupaten Kapuas, Kalimantan Tengah",BALI,,Indonesia,8125180910.0,,,-3.022415,114.3923714,https://maps.google.com/?cid=0x0:0x5bf3af2da21dc1f6,
toko bangunan,Toko Bahan Bangunan,Toko Anugrah Bangunan,"X9PW+MPJ, Jl. Mahakam Gg. VIII A, Selat Tengah, Kec. Selat, Kabupaten Kapuas, Kalimantan Tengah 73516","Jl. Mahakam Gg. VIII A, Selat Tengah, Kec. Selat, Kabupaten Kapuas",BALI,73516.0,Indonesia,85962871748.0,,,-3.0132772,114.3967722,https://maps.google.com/?cid=0x0:0xfa145d04040f65e0,
toko bangunan,Toko Perlengkapan Rumah,Toko Bahan Bangunan Bintang Timur,"X9VM+CR2, Selat Tengah, Kec. Selat, Kabupaten Kapuas, Kalimantan Tengah 73516","Selat Tengah, Kec. Selat, Kabupaten Kapuas",BALI,73516.0,Indonesia,82174890900.0,,,-3.0064345,114.3845831,https://maps.google.com/?cid=0x0:0xd8b17af5517d1ab5,
toko bangunan,Toko Bahan Bangunan,TOKO BANGUNAN NABILAH,"Jl. Trans - Kalimantan No.44, Selat Dalam, Kec. Selat, Kabupaten Kapuas, Kalimantan Tengah 73581","Selat Dalam, Kec. Selat, Kabupaten Kapuas",BALI,73581.0,Indonesia,,,,-2.9826197,114.409428,https://maps.google.com/?cid=0x0:0x2fe6646b5d9ec349,
toko bangunan,Toko Bahan Bangunan,Toko Bahan Bangunan Rajaki Dumah,"Jl. Trans Kalimantan Jl. Jepang No.Desa, Pulau Telo, Kec. Selat, Kabupaten Kapuas, Kalimantan Tengah 73516","Pulau Telo, Kec. Selat, Kabupaten Kapuas",BALI,73516.0,Indonesia,81331050352.0,,,-2.980216,114.3861345,https://maps.google.com/?cid=0x0:0x774fb2a5e5b5383e,
toko bangunan,Toko Perlengkapan Rumah,Toko Busyro,"2929+R9Q, Pulau Telo, Kec. Selat, Kabupaten Kapuas, Kalimantan Tengah 73516","Pulau Telo, Kec. Selat, Kabupaten Kapuas",BALI,73516.0,Indonesia,81251185357.0,,,-2.9979162,114.3684763,https://maps.google.com/?cid=0x0:0x873c99494b3082c0,
toko bangunan,Toko,Toko Bangunan Sinar Abadi,"X9PW+GM2, Jl. Mahakam, Selat Tengah, Kec. Selat, Kabupaten Kapuas, Kalimantan Tengah 73516","Jl. Mahakam, Selat Tengah, Kec. Selat, Kabupaten Kapuas",BALI,73516.0,Indonesia,,,,-3.0137485,114.3966303,https://maps.google.com/?cid=0x0:0x9d42f3817e046e4c,
toko bangunan,Toko Bahan Bangunan,Toko Bahan Bangunan Inas,"X9MP+HV7, Selat Hilir, Kec. Selat, Kabupaten Kapuas, Kalimantan Tengah 73516","Selat Hilir, Kec. Selat, Kabupaten Kapuas",BALI,73516.0,Indonesia,,,,-3.016094,114.387159,https://maps.google.com/?cid=0x0:0x5aef6a2d3f2edc75,
toko bangunan,Toko Alat-Alat,Toko Edy Bangunan,"Jl. Mawar No.201, Selat Hilir, Kec. Selat, Kabupaten Kapuas, Kalimantan Tengah 73516","Selat Hilir, Kec. Selat, Kabupaten Kapuas",BALI,73516.0,Indonesia,,,,-3.020474,114.3937612,https://maps.google.com/?cid=0x0:0x7b4b198feb95a32e,
toko bangunan,Toko Bahan Bangunan,TOKO 3 PUTRA BANGUNAN,"X9VX+G77, Selat Tengah, Kec. Selat, Kabupaten Kapuas, Kalimantan Tengah 73516","Selat Tengah, Kec. Selat, Kabupaten Kapuas",BALI,73516.0,Indonesia,,,,-3.0062115,114.3981621,https://maps.google.com/?cid=0x0:0xd27dc95485605cb0,
toko bangunan,Toko Bahan Bangunan,Tb habibi,"X9MV+CHX, Selat Tengah, Kec. Selat, Kabupaten Kapuas, Kalimantan Tengah 73516","Selat Tengah, Kec. Selat, Kabupaten Kapuas",BALI,73516.0,Indonesia,,,,-3.0163915,114.3939831,https://maps.google.com/?cid=0x0:0xc5853c9573285053,
toko bangunan,Produsen,TOKO BANGUNAN RR AL-ZAITUN,"ujung tikungan, Jl. Cilik Riwut Jl. Jepang, Pulau Telo, Kec. Selat, Kabupaten Kapuas, Kalimantan Tengah 73516","Jl. Cilik Riwut Jl. Jepang, Pulau Telo, Kec. Selat, Kabupaten Kapuas",BALI,73516.0,Indonesia,81349185314.0,,,-2.9929711,114.3796996,https://maps.google.com/?cid=0x0:0x9f951860a939086e,
toko bangunan,Toko Bahan Bangunan,Toko Bangunan Rahmadi,"X9HV+C65, Jl. Mawar, Selat Hilir, Kec. Selat, Kabupaten Kapuas, Kalimantan Tengah 73516","Jl. Mawar, Selat Hilir, Kec. Selat, Kabupaten Kapuas",BALI,73516.0,Indonesia,8971752682.0,,,-3.0215901,114.3931934,https://maps.google.com/?cid=0x0:0x894a32388aade71a,
toko bangunan,Toko Bahan Bangunan,Toko Bangunan dan Alat Listrik SA'ADAH,"Jl. Ps. Papan No.25, RT.003, Antasan Senor Ilir, Kec. Martapura Tim., Kabupaten Banjar, Kalimantan Selatan 70614","RT.003, Antasan Senor Ilir, Kec. Martapura Tim., Kabupaten Banjar",BALI,70614.0,Indonesia,85347118330.0,,,-3.400151,114.849364,https://maps.google.com/?cid=0x0:0xbe9c525b350c1041,
toko bangunan,toko bangunan,Selat,"Pering Sari, Kec. Selat, Kabupaten Karangasem, Bali","Kabupaten Karangasem, Bali",BALI,,Indonesia,,,,-8.437853,115.465897,https://maps.google.com/?cid=0x0:0x22f53a4a73abc935,
toko bangunan,Toko Bahan Bangunan,Mekar Indah,"HF78+4F8, Pering Sari, Kec. Selat, Kabupaten Karangasem, Bali 80862","Pering Sari, Kec. Selat, Kabupaten Karangasem",BALI,80862.0,Indonesia,36622860.0,,,-8.437225,115.466216,https://maps.google.com/?cid=0x0:0x7c2ef6ca377f81e4,
toko bangunan,Toko Bahan Bangunan,Toko Bahan Bangunan Rajaki Dumah,"Jl. Trans Kalimantan Jl. Jepang No.Desa, Pulau Telo, Kec. Selat, Kabupaten Kapuas, Kalimantan Tengah 73516","Pulau Telo, Kec. Selat, Kabupaten Kapuas",BALI,73516.0,Indonesia,81331050352.0,,,-2.980216,114.3861345,https://maps.google.com/?cid=0x0:0x774fb2a5e5b5383e,
toko bangunan,Toko Bahan Bangunan,TOKO BANGUNAN UD.BARU2 ADITYA,"X9XR+8WF, Selat Tengah, Kec. Selat, Kabupaten Kapuas, Kalimantan Tengah 73516","Selat Tengah, Kec. Selat, Kabupaten Kapuas",BALI,73516.0,Indonesia,82371117775.0,,,-3.0016958,114.3923081,https://maps.google.com/?cid=0x0:0xe5f29dbdd90cdd54,
toko bangunan,Toko Perlengkapan Rumah,Toko Bahan Bangunan Bintang Timur,"X9VM+CR2, Selat Tengah, Kec. Selat, Kabupaten Kapuas, Kalimantan Tengah 73516","Selat Tengah, Kec. Selat, Kabupaten Kapuas",BALI,73516.0,Indonesia,82174890900.0,,,-3.0064345,114.3845831,https://maps.google.com/?cid=0x0:0xd8b17af5517d1ab5,
toko bangunan,Toko Bahan Bangunan,Puspa Reni. UD,"HF68+WCX, JL. Gunung Agung, Banjar Selat Kelod, Selat, Pering Sari, Karangasem, Kabupaten Karangasem, Bali 80862","JL. Gunung Agung, Banjar Selat Kelod, Selat, Pering Sari, Karangasem, Kabupaten Karangasem",BALI,80862.0,Indonesia,82144533595.0,,,-8.437634,115.4661243,https://maps.google.com/?cid=0x0:0x6ab361bd12c357ac,
toko bangunan,Toko Perlengkapan Rumah,Toko Bangunan Fajar Mas,"Jl. Jendral Sudirman No. 35 / 56 Depan Toko Mas Purnama, Kalimantan Tengah 73513","Kabupaten Kapuas, Kalimantan Tengah",BALI,,Indonesia,8125180910.0,,,-3.022415,114.3923714,https://maps.google.com/?cid=0x0:0x5bf3af2da21dc1f6,
toko bangunan,Toko Swalayan,TB Fitri,"Selat Hulu, Kec. Selat, Kabupaten Kapuas, Kalimantan Tengah 73581","Kec. Selat, Kabupaten Kapuas",BALI,73581.0,Indonesia,123456.0,,,-2.9674313,114.4140448,https://maps.google.com/?cid=0x0:0xd934d3f5a867d34,
toko bangunan,Toko Bahan Bangunan,Toko Bahan Bangunan Makita 2,"Selat Hilir, Kec. Selat, Kabupaten Kapuas, Kalimantan Tengah 73516","Kec. Selat, Kabupaten Kapuas",BALI,73516.0,Indonesia,81348644115.0,,,-3.0190088,114.3884391,https://maps.google.com/?cid=0x0:0x2c4905b2412181e2,
toko bangunan,Toko Bahan Bangunan,Toko bangunan Ud Harapan Anak,"Jl. Trans Kalimantan No.28 (Sungai Baras, Selat Hulu, Kec. Selat, Kabupaten Kapuas, Kalimantan Tengah 73581","Selat Hulu, Kec. Selat, Kabupaten Kapuas",BALI,73581.0,Indonesia,82221191276.0,,,-2.9842218,114.4109267,https://maps.google.com/?cid=0x0:0x61eb96590702aec0,
toko bangunan,Toko Perlengkapan Rumah,Toko Bangunan Kawan Kita,"X9XR+HHV, Selat Tengah, Kec. Selat, Kabupaten Kapuas, Kalimantan Tengah 73516","Selat Tengah, Kec. Selat, Kabupaten Kapuas",BALI,73516.0,Indonesia,51323074.0,,,-3.0010092,114.3914251,https://maps.google.com/?cid=0x0:0x13809857992ce88c,
toko bangunan,Toko Bahan Bangunan,Toko Anugrah Bangunan,"X9PW+MPJ, Jl. Mahakam Gg. VIII A, Selat Tengah, Kec. Selat, Kabupaten Kapuas, Kalimantan Tengah 73516","Jl. Mahakam Gg. VIII A, Selat Tengah, Kec. Selat, Kabupaten Kapuas",BALI,73516.0,Indonesia,85962871748.0,,,-3.0132772,114.3967722,https://maps.google.com/?cid=0x0:0xfa145d04040f65e0,
toko bangunan,Toko Alat-Alat,Toko Edy Bangunan,"Jl. Mawar No.201, Selat Hilir, Kec. Selat, Kabupaten Kapuas, Kalimantan Tengah 73516","Selat Hilir, Kec. Selat, Kabupaten Kapuas",BALI,73516.0,Indonesia,,,,-3.020474,114.3937612,https://maps.google.com/?cid=0x0:0x7b4b198feb95a32e,
toko bangunan,Toko Bahan Bangunan,TOKO BANGUNAN NABILAH,"Jl. Trans - Kalimantan No.44, Selat Dalam, Kec. Selat, Kabupaten Kapuas, Kalimantan Tengah 73581","Selat Dalam, Kec. Selat, Kabupaten Kapuas",BALI,73581.0,Indonesia,,,,-2.9826197,114.409428,https://maps.google.com/?cid=0x0:0x2fe6646b5d9ec349,
toko bangunan,Toko Bahan Bangunan,Toko Bahan Bangunan Inas,"X9MP+HV7, Selat Hilir, Kec. Selat, Kabupaten Kapuas, Kalimantan Tengah 73516","Selat Hilir, Kec. Selat, Kabupaten Kapuas",BALI,73516.0,Indonesia,,,,-3.016094,114.387159,https://maps.google.com/?cid=0x0:0x5aef6a2d3f2edc75,
toko bangunan,Toko Bahan Bangunan,TOKO 3 PUTRA BANGUNAN,"X9VX+G77, Selat Tengah, Kec. Selat, Kabupaten Kapuas, Kalimantan Tengah 73516","Selat Tengah, Kec. Selat, Kabupaten Kapuas",BALI,73516.0,Indonesia,,,,-3.0062115,114.3981621,https://maps.google.com/?cid=0x0:0xd27dc95485605cb0,
toko bangunan,Toko Bahan Bangunan,Tb habibi,"X9MV+CHX, Selat Tengah, Kec. Selat, Kabupaten Kapuas, Kalimantan Tengah 73516","Selat Tengah, Kec. Selat, Kabupaten Kapuas",BALI,73516.0,Indonesia,,,,-3.0163915,114.3939831,https://maps.google.com/?cid=0x0:0xc5853c9573285053,
toko bangunan,Toko Bahan Bangunan,Toko Bangunan Rahmadi,"X9HV+C65, Jl. Mawar, Selat Hilir, Kec. Selat, Kabupaten Kapuas, Kalimantan Tengah 73516","Jl. Mawar, Selat Hilir, Kec. Selat, Kabupaten Kapuas",BALI,73516.0,Indonesia,8971752682.0,,,-3.0215901,114.3931934,https://maps.google.com/?cid=0x0:0x894a32388aade71a,
toko bangunan,Toko Bahan Bangunan,Toko Bangunan Karya Bersama,"Anjir Mambulau Bar., Kec. Kapuas Tim., Kabupaten Kapuas, Kalimantan Tengah 73581","Kec. Kapuas Tim., Kabupaten Kapuas",BALI,73581.0,Indonesia,82148331399.0,,,-3.0357377,114.4017128,https://maps.google.com/?cid=0x0:0x483ffdaffdffbc6a,
toko bangunan,Pemasok Aluminium,TOKO BANGUNAN SUMBER JAYA,"X9JQ+RXR, Jl. Melati, Selat Tengah, Kec. Selat, Kabupaten Kapuas, Kalimantan Tengah 73516","Jl. Melati, Selat Tengah, Kec. Selat, Kabupaten Kapuas",BALI,73516.0,Indonesia,,,,-3.0178841,114.3898876,https://maps.google.com/?cid=0x0:0x21acfd0fbf28d53b,
toko bangunan,Toko,Toko Sederhana Bangunan,"X9RX+QVQ, Jl. Mahakam, Selat Tengah, Kec. Selat, Kabupaten Kapuas, Kalimantan Tengah 73516","Jl. Mahakam, Selat Tengah, Kec. Selat, Kabupaten Kapuas",BALI,73516.0,Indonesia,,,,-3.0080402,114.3997351,https://maps.google.com/?cid=0x0:0xf6b36964c3586025,
toko bangunan,Toko Perlengkapan Rumah,Toko Ali bahan bangunan,"Jl. Pemuda No.19 RT 02, Selat Tengah, Kec. Selat, Kabupaten Kapuas, Kalimantan Tengah 73516","Selat Tengah, Kec. Selat, Kabupaten Kapuas",BALI,73516.0,Indonesia,81649114795.0,,,-3.0017025,114.3922436,https://maps.google.com/?cid=0x0:0x5c9cf582ab3699f6,
toko bangunan,toko bangunan,Selat,"Pering Sari, Kec. Selat, Kabupaten Karangasem, Bali","Kabupaten Karangasem, Bali",BALI,,Indonesia,,,,-8.437853,115.465897,https://maps.google.com/?cid=0x0:0x22f53a4a73abc935,
toko bangunan,Toko Bahan Bangunan,Mekar Indah,"HF78+4F8, Pering Sari, Kec. Selat, Kabupaten Karangasem, Bali 80862","Pering Sari, Kec. Selat, Kabupaten Karangasem",BALI,80862.0,Indonesia,36622860.0,,,-8.437225,115.466216,https://maps.google.com/?cid=0x0:0x7c2ef6ca377f81e4,
toko bangunan,Toko Bahan Bangunan,Toko Bahan Bangunan Rajaki Dumah,"Jl. Trans Kalimantan Jl. Jepang No.Desa, Pulau Telo, Kec. Selat, Kabupaten Kapuas, Kalimantan Tengah 73516","Pulau Telo, Kec. Selat, Kabupaten Kapuas",BALI,73516.0,Indonesia,81331050352.0,,,-2.980216,114.3861345,https://maps.google.com/?cid=0x0:0x774fb2a5e5b5383e,
toko bangunan,Toko Bahan Bangunan,Toko Bangunan Citra Dewi,"Jl. Keruing No.23, Selat Tengah, Kec. Selat, Kabupaten Kapuas, Kalimantan Tengah 73516","Selat Tengah, Kec. Selat, Kabupaten Kapuas",BALI,73516.0,Indonesia,,,,-3.0060076,114.3857865,https://maps.google.com/?cid=0x0:0x3759f20759733bd5,
toko bangunan,Toko Perlengkapan Rumah,Toko Bahan Bangunan Bintang Timur,"X9VM+CR2, Selat Tengah, Kec. Selat, Kabupaten Kapuas, Kalimantan Tengah 73516","Selat Tengah, Kec. Selat, Kabupaten Kapuas",BALI,73516.0,Indonesia,82174890900.0,,,-3.0064345,114.3845831,https://maps.google.com/?cid=0x0:0xd8b17af5517d1ab5,
toko bangunan,Toko Bahan Bangunan,TOKO BANGUNAN UD.BARU2 ADITYA,"X9XR+8WF, Selat Tengah, Kec. Selat, Kabupaten Kapuas, Kalimantan Tengah 73516","Selat Tengah, Kec. Selat, Kabupaten Kapuas",BALI,73516.0,Indonesia,82371117775.0,,,-3.0016958,114.3923081,https://maps.google.com/?cid=0x0:0xe5f29dbdd90cdd54,
toko bangunan,Toko Alat-Alat,Toko Edy Bangunan,"Jl. Mawar No.201, Selat Hilir, Kec. Selat, Kabupaten Kapuas, Kalimantan Tengah 73516","Selat Hilir, Kec. Selat, Kabupaten Kapuas",BALI,73516.0,Indonesia,,,,-3.020474,114.3937612,https://maps.google.com/?cid=0x0:0x7b4b198feb95a32e,
toko bangunan,Toko Bahan Bangunan,Puspa Reni. UD,"HF68+WCX, JL. Gunung Agung, Banjar Selat Kelod, Selat, Pering Sari, Karangasem, Kabupaten Karangasem, Bali 80862","JL. Gunung Agung, Banjar Selat Kelod, Selat, Pering Sari, Karangasem, Kabupaten Karangasem",BALI,80862.0,Indonesia,82144533595.0,,,-8.437634,115.4661243,https://maps.google.com/?cid=0x0:0x6ab361bd12c357ac,
toko bangunan,Toko Perlengkapan Rumah,Toko Bangunan Fajar Mas,"Jl. Jendral Sudirman No. 35 / 56 Depan Toko Mas Purnama, Kalimantan Tengah 73513","Kabupaten Kapuas, Kalimantan Tengah",BALI,,Indonesia,8125180910.0,,,-3.022415,114.3923714,https://maps.google.com/?cid=0x0:0x5bf3af2da21dc1f6,
toko bangunan,Toko Swalayan,TB Fitri,"Selat Hulu, Kec. Selat, Kabupaten Kapuas, Kalimantan Tengah 73581","Kec. Selat, Kabupaten Kapuas",BALI,73581.0,Indonesia,123456.0,,,-2.9674313,114.4140448,https://maps.google.com/?cid=0x0:0xd934d3f5a867d34,
toko bangunan,Toko Perlengkapan Rumah,Toko Bangunan Kawan Kita,"X9XR+HHV, Selat Tengah, Kec. Selat, Kabupaten Kapuas, Kalimantan Tengah 73516","Selat Tengah, Kec. Selat, Kabupaten Kapuas",BALI,73516.0,Indonesia,51323074.0,,,-3.0010092,114.3914251,https://maps.google.com/?cid=0x0:0x13809857992ce88c,
toko bangunan,Toko Bahan Bangunan,Toko bangunan Ud Harapan Anak,"Jl. Trans Kalimantan No.28 (Sungai Baras, Selat Hulu, Kec. Selat, Kabupaten Kapuas, Kalimantan Tengah 73581","Selat Hulu, Kec. Selat, Kabupaten Kapuas",BALI,73581.0,Indonesia,82221191276.0,,,-2.9842218,114.4109267,https://maps.google.com/?cid=0x0:0x61eb96590702aec0,
toko bangunan,Toko Bahan Bangunan,Toko Anugrah Bangunan,"X9PW+MPJ, Jl. Mahakam Gg. VIII A, Selat Tengah, Kec. Selat, Kabupaten Kapuas, Kalimantan Tengah 73516","Jl. Mahakam Gg. VIII A, Selat Tengah, Kec. Selat, Kabupaten Kapuas",BALI,73516.0,Indonesia,85962871748.0,,,-3.0132772,114.3967722,https://maps.google.com/?cid=0x0:0xfa145d04040f65e0,
toko bangunan,Toko Bahan Bangunan,TOKO BANGUNAN NABILAH,"Jl. Trans - Kalimantan No.44, Selat Dalam, Kec. Selat, Kabupaten Kapuas, Kalimantan Tengah 73581","Selat Dalam, Kec. Selat, Kabupaten Kapuas",BALI,73581.0,Indonesia,,,,-2.9826197,114.409428,https://maps.google.com/?cid=0x0:0x2fe6646b5d9ec349,
toko bangunan,Toko Perlengkapan Rumah,Toko Busyro,"2929+R9Q, Pulau Telo, Kec. Selat, Kabupaten Kapuas, Kalimantan Tengah 73516","Pulau Telo, Kec. Selat, Kabupaten Kapuas",BALI,73516.0,Indonesia,81251185357.0,,,-2.9979162,114.3684763,https://maps.google.com/?cid=0x0:0x873c99494b3082c0,
toko bangunan,Toko Bahan Bangunan,Toko Bahan Bangunan Inas,"X9MP+HV7, Selat Hilir, Kec. Selat, Kabupaten Kapuas, Kalimantan Tengah 73516","Selat Hilir, Kec. Selat, Kabupaten Kapuas",BALI,73516.0,Indonesia,,,,-3.016094,114.387159,https://maps.google.com/?cid=0x0:0x5aef6a2d3f2edc75,
toko bangunan,Toko Bahan Bangunan,Tb habibi,"X9MV+CHX, Selat Tengah, Kec. Selat, Kabupaten Kapuas, Kalimantan Tengah 73516","Selat Tengah, Kec. Selat, Kabupaten Kapuas",BALI,73516.0,Indonesia,,,,-3.0163915,114.3939831,https://maps.google.com/?cid=0x0:0xc5853c9573285053,
toko bangunan,Toko Perlengkapan Rumah,TOKO RIDHA,"X9WH+98P samping Futsal88, Jl. Patih Rumbih, Selat Tengah, Kec. Selat, Kabupaten Kapuas, Kalimantan Tengah 73514","Jl. Patih Rumbih, Selat Tengah, Kec. Selat, Kabupaten Kapuas",BALI,73514.0,Indonesia,82145021701.0,,,-3.0040322,114.3783455,https://maps.google.com/?cid=0x0:0xb87373c3568fadfc,
toko bangunan,Toko Bahan Bangunan,Toko Bangunan 99,"WCPG+WMC, Jl. Trans - Kalimantan, Anjir Mambulau Tengah, Kec. Kapuas Tim., Kabupaten Kapuas, Kalimantan Tengah 73583","Jl. Trans - Kalimantan, Anjir Mambulau Tengah, Kec. Kapuas Tim., Kabupaten Kapuas",BALI,73583.0,Indonesia,81348620437.0,,,-3.062689,114.4266299,https://maps.google.com/?cid=0x0:0xb9725bd79091d37a,
toko bangunan,Toko Bahan Bangunan,Toko Bangunan Karya Bersama,"Anjir Mambulau Bar., Kec. Kapuas Tim., Kabupaten Kapuas, Kalimantan Tengah 73581","Kec. Kapuas Tim., Kabupaten Kapuas",BALI,73581.0,Indonesia,82148331399.0,,,-3.0357377,114.4017128,https://maps.google.com/?cid=0x0:0x483ffdaffdffbc6a,
toko bangunan,Toko Bahan Bangunan,TOKO 3 PUTRA BANGUNAN,"X9VX+G77, Selat Tengah, Kec. Selat, Kabupaten Kapuas, Kalimantan Tengah 73516","Selat Tengah, Kec. Selat, Kabupaten Kapuas",BALI,73516.0,Indonesia,,,,-3.0062115,114.3981621,https://maps.google.com/?cid=0x0:0xd27dc95485605cb0,
toko bangunan,Toko Bahan Bangunan,Toko Bangunan Rahmadi,"X9HV+C65, Jl. Mawar, Selat Hilir, Kec. Selat, Kabupaten Kapuas, Kalimantan Tengah 73516","Jl. Mawar, Selat Hilir, Kec. Selat, Kabupaten Kapuas",BALI,73516.0,Indonesia,8971752682.0,,,-3.0215901,114.3931934,https://maps.google.com/?cid=0x0:0x894a32388aade71a,
toko bangunan,toko bangunan,Selat,"Pering Sari, Kec. Selat, Kabupaten Karangasem, Bali","Kabupaten Karangasem, Bali",BALI,,Indonesia,,,,-8.437853,115.465897,https://maps.google.com/?cid=0x0:0x22f53a4a73abc935,
toko bangunan,Toko Bahan Bangunan,Mekar Indah,"HF78+4F8, Pering Sari, Kec. Selat, Kabupaten Karangasem, Bali 80862","Pering Sari, Kec. Selat, Kabupaten Karangasem",BALI,80862.0,Indonesia,36622860.0,,,-8.437225,115.466216,https://maps.google.com/?cid=0x0:0x7c2ef6ca377f81e4,
toko bangunan,Toko Bahan Bangunan,Puspa Reni. UD,"HF68+WCX, JL. Gunung Agung, Banjar Selat Kelod, Selat, Pering Sari, Karangasem, Kabupaten Karangasem, Bali 80862","JL. Gunung Agung, Banjar Selat Kelod, Selat, Pering Sari, Karangasem, Kabupaten Karangasem",BALI,80862.0,Indonesia,82144533595.0,,,-8.437634,115.4661243,https://maps.google.com/?cid=0x0:0x6ab361bd12c357ac,
toko bangunan,Toko,Toko Karya Baru,"JG66+9GV, JL Samudin, Pembuang I, Seruyan Hilir, Kualapembuang, 74211","JL Samudin, Pembuang I, Seruyan Hilir",BALI,74211.0,Indonesia,53821188.0,,,-3.389021,112.511301,https://maps.google.com/?cid=0x0:0xa8a86584308b6ce7,
toko bangunan,Toko Swalayan,TB Fitri,"Selat Hulu, Kec. Selat, Kabupaten Kapuas, Kalimantan Tengah 73581","Kec. Selat, Kabupaten Kapuas",BALI,73581.0,Indonesia,123456.0,,,-2.9674313,114.4140448,https://maps.google.com/?cid=0x0:0xd934d3f5a867d34,
toko bangunan,Toko Bahan Bangunan,Toko bangunan Ud Harapan Anak,"Jl. Trans Kalimantan No.28 (Sungai Baras, Selat Hulu, Kec. Selat, Kabupaten Kapuas, Kalimantan Tengah 73581","Selat Hulu, Kec. Selat, Kabupaten Kapuas",BALI,73581.0,Indonesia,82221191276.0,,,-2.9842218,114.4109267,https://maps.google.com/?cid=0x0:0x61eb96590702aec0,
toko bangunan,Toko Perlengkapan Rumah,Toko Bangunan Fajar Mas,"Jl. Jendral Sudirman No. 35 / 56 Depan Toko Mas Purnama, Kalimantan Tengah 73513","Kabupaten Kapuas, Kalimantan Tengah",BALI,,Indonesia,8125180910.0,,,-3.022415,114.3923714,https://maps.google.com/?cid=0x0:0x5bf3af2da21dc1f6,
toko bangunan,Toko Bahan Bangunan,Toko Bahan Bangunan Makita 2,"Selat Hilir, Kec. Selat, Kabupaten Kapuas, Kalimantan Tengah 73516","Kec. Selat, Kabupaten Kapuas",BALI,73516.0,Indonesia,81348644115.0,,,-3.0190088,114.3884391,https://maps.google.com/?cid=0x0:0x2c4905b2412181e2,
toko bangunan,Toko Perlengkapan Rumah,Toko Bangunan Kawan Kita,"X9XR+HHV, Selat Tengah, Kec. Selat, Kabupaten Kapuas, Kalimantan Tengah 73516","Selat Tengah, Kec. Selat, Kabupaten Kapuas",BALI,73516.0,Indonesia,51323074.0,,,-3.0010092,114.3914251,https://maps.google.com/?cid=0x0:0x13809857992ce88c,
toko bangunan,Toko Bahan Bangunan,Toko Bangunan Citra Dewi,"Jl. Keruing No.23, Selat Tengah, Kec. Selat, Kabupaten Kapuas, Kalimantan Tengah 73516","Selat Tengah, Kec. Selat, Kabupaten Kapuas",BALI,73516.0,Indonesia,,,,-3.0060076,114.3857865,https://maps.google.com/?cid=0x0:0x3759f20759733bd5,
toko bangunan,Toko Bahan Bangunan,TOKO BANGUNAN UD.BARU2 ADITYA,"X9XR+8WF, Selat Tengah, Kec. Selat, Kabupaten Kapuas, Kalimantan Tengah 73516","Selat Tengah, Kec. Selat, Kabupaten Kapuas",BALI,73516.0,Indonesia,82371117775.0,,,-3.0016958,114.3923081,https://maps.google.com/?cid=0x0:0xe5f29dbdd90cdd54,
toko bangunan,Toko Bahan Bangunan,Toko Anugrah Bangunan,"X9PW+MPJ, Jl. Mahakam Gg. VIII A, Selat Tengah, Kec. Selat, Kabupaten Kapuas, Kalimantan Tengah 73516","Jl. Mahakam Gg. VIII A, Selat Tengah, Kec. Selat, Kabupaten Kapuas",BALI,73516.0,Indonesia,85962871748.0,,,-3.0132772,114.3967722,https://maps.google.com/?cid=0x0:0xfa145d04040f65e0,
toko bangunan,Toko Bahan Bangunan,TOKO BANGUNAN NABILAH,"Jl. Trans - Kalimantan No.44, Selat Dalam, Kec. Selat, Kabupaten Kapuas, Kalimantan Tengah 73581","Selat Dalam, Kec. Selat, Kabupaten Kapuas",BALI,73581.0,Indonesia,,,,-2.9826197,114.409428,https://maps.google.com/?cid=0x0:0x2fe6646b5d9ec349,
toko bangunan,Toko Perlengkapan Rumah,Toko Bahan Bangunan Bintang Timur,"X9VM+CR2, Selat Tengah, Kec. Selat, Kabupaten Kapuas, Kalimantan Tengah 73516","Selat Tengah, Kec. Selat, Kabupaten Kapuas",BALI,73516.0,Indonesia,82174890900.0,,,-3.0064345,114.3845831,https://maps.google.com/?cid=0x0:0xd8b17af5517d1ab5,
toko bangunan,Toko Alat-Alat,Toko Edy Bangunan,"Jl. Mawar No.201, Selat Hilir, Kec. Selat, Kabupaten Kapuas, Kalimantan Tengah 73516","Selat Hilir, Kec. Selat, Kabupaten Kapuas",BALI,73516.0,Indonesia,,,,-3.020474,114.3937612,https://maps.google.com/?cid=0x0:0x7b4b198feb95a32e,
toko bangunan,Toko Bahan Bangunan,Toko Bahan Bangunan Inas,"X9MP+HV7, Selat Hilir, Kec. Selat, Kabupaten Kapuas, Kalimantan Tengah 73516","Selat Hilir, Kec. Selat, Kabupaten Kapuas",BALI,73516.0,Indonesia,,,,-3.016094,114.387159,https://maps.google.com/?cid=0x0:0x5aef6a2d3f2edc75,
toko bangunan,Toko Bahan Bangunan,Toko Bahan Bangunan Rajaki Dumah,"Jl. Trans Kalimantan Jl. Jepang No.Desa, Pulau Telo, Kec. Selat, Kabupaten Kapuas, Kalimantan Tengah 73516","Pulau Telo, Kec. Selat, Kabupaten Kapuas",BALI,73516.0,Indonesia,81331050352.0,,,-2.980216,114.3861345,https://maps.google.com/?cid=0x0:0x774fb2a5e5b5383e,
toko bangunan,Toko,Toko Bangunan Sinar Abadi,"X9PW+GM2, Jl. Mahakam, Selat Tengah, Kec. Selat, Kabupaten Kapuas, Kalimantan Tengah 73516","Jl. Mahakam, Selat Tengah, Kec. Selat, Kabupaten Kapuas",BALI,73516.0,Indonesia,,,,-3.0137485,114.3966303,https://maps.google.com/?cid=0x0:0x9d42f3817e046e4c,
toko bangunan,Toko Perlengkapan Rumah,Toko Busyro,"2929+R9Q, Pulau Telo, Kec. Selat, Kabupaten Kapuas, Kalimantan Tengah 73516","Pulau Telo, Kec. Selat, Kabupaten Kapuas",BALI,73516.0,Indonesia,81251185357.0,,,-2.9979162,114.3684763,https://maps.google.com/?cid=0x0:0x873c99494b3082c0,
toko bangunan,Toko Bahan Bangunan,Tb habibi,"X9MV+CHX, Selat Tengah, Kec. Selat, Kabupaten Kapuas, Kalimantan Tengah 73516","Selat Tengah, Kec. Selat, Kabupaten Kapuas",BALI,73516.0,Indonesia,,,,-3.0163915,114.3939831,https://maps.google.com/?cid=0x0:0xc5853c9573285053,
toko bangunan,Toko Bahan Bangunan,TOKO 3 PUTRA BANGUNAN,"X9VX+G77, Selat Tengah, Kec. Selat, Kabupaten Kapuas, Kalimantan Tengah 73516","Selat Tengah, Kec. Selat, Kabupaten Kapuas",BALI,73516.0,Indonesia,,,,-3.0062115,114.3981621,https://maps.google.com/?cid=0x0:0xd27dc95485605cb0,
toko bangunan,Toko Bahan Bangunan,Toko Bangunan Rahmadi,"X9HV+C65, Jl. Mawar, Selat Hilir, Kec. Selat, Kabupaten Kapuas, Kalimantan Tengah 73516","Jl. Mawar, Selat Hilir, Kec. Selat, Kabupaten Kapuas",BALI,73516.0,Indonesia,8971752682.0,,,-3.0215901,114.3931934,https://maps.google.com/?cid=0x0:0x894a32388aade71a,
toko bangunan,Toko Bahan Bangunan,Toko Bangunan 99,"WCPG+WMC, Jl. Trans - Kalimantan, Anjir Mambulau Tengah, Kec. Kapuas Tim., Kabupaten Kapuas, Kalimantan Tengah 73583","Jl. Trans - Kalimantan, Anjir Mambulau Tengah, Kec. Kapuas Tim., Kabupaten Kapuas",BALI,73583.0,Indonesia,81348620437.0,,,-3.062689,114.4266299,https://maps.google.com/?cid=0x0:0xb9725bd79091d37a,
toko bangunan,Toko Bahan Bangunan,Toko Bangunan Karya Bersama,"Anjir Mambulau Bar., Kec. Kapuas Tim., Kabupaten Kapuas, Kalimantan Tengah 73581","Kec. Kapuas Tim., Kabupaten Kapuas",BALI,73581.0,Indonesia,82148331399.0,,,-3.0357377,114.4017128,https://maps.google.com/?cid=0x0:0x483ffdaffdffbc6a,
toko bangunan,toko bangunan,Selat,"Pering Sari, Kec. Selat, Kabupaten Karangasem, Bali","Kabupaten Karangasem, Bali",BALI,,Indonesia,,,,-8.437853,115.465897,https://maps.google.com/?cid=0x0:0x22f53a4a73abc935,
toko bangunan,Toko Bahan Bangunan,Toko Adi Bangunan,"HF87+QXH, Jl. Baledan, Pering Sari, Kec. Selat, Kabupaten Karangasem, Bali 80862","Jl. Baledan, Pering Sari, Kec. Selat, Kabupaten Karangasem",BALI,80862.0,Indonesia,,,,-8.4330604,115.4649906,https://maps.google.com/?cid=0x0:0x669cd23e1304e998,
toko bangunan,Toko Bahan Bangunan,Mekar Indah,"HF78+4F8, Pering Sari, Kec. Selat, Kabupaten Karangasem, Bali 80862","Pering Sari, Kec. Selat, Kabupaten Karangasem",BALI,80862.0,Indonesia,36622860.0,,,-8.437225,115.466216,https://maps.google.com/?cid=0x0:0x7c2ef6ca377f81e4,
toko bangunan,Toko Bahan Bangunan,Toko Bangunan Citra Dewi,"Jl. Keruing No.23, Selat Tengah, Kec. Selat, Kabupaten Kapuas, Kalimantan Tengah 73516","Selat Tengah, Kec. Selat, Kabupaten Kapuas",BALI,73516.0,Indonesia,,,,-3.0060076,114.3857865,https://maps.google.com/?cid=0x0:0x3759f20759733bd5,
toko bangunan,Toko Bahan Bangunan,Toko Bahan Bangunan Rajaki Dumah,"Jl. Trans Kalimantan Jl. Jepang No.Desa, Pulau Telo, Kec. Selat, Kabupaten Kapuas, Kalimantan Tengah 73516","Pulau Telo, Kec. Selat, Kabupaten Kapuas",BALI,73516.0,Indonesia,81331050352.0,,,-2.980216,114.3861345,https://maps.google.com/?cid=0x0:0x774fb2a5e5b5383e,
toko bangunan,Toko Bahan Bangunan,Toko Bahan Bangunan Makita 2,"Selat Hilir, Kec. Selat, Kabupaten Kapuas, Kalimantan Tengah 73516","Kec. Selat, Kabupaten Kapuas",BALI,73516.0,Indonesia,81348644115.0,,,-3.0190088,114.3884391,https://maps.google.com/?cid=0x0:0x2c4905b2412181e2,
toko bangunan,Toko Bahan Bangunan,TOKO BANGUNAN UD.BARU2 ADITYA,"X9XR+8WF, Selat Tengah, Kec. Selat, Kabupaten Kapuas, Kalimantan Tengah 73516","Selat Tengah, Kec. Selat, Kabupaten Kapuas",BALI,73516.0,Indonesia,82371117775.0,,,-3.0016958,114.3923081,https://maps.google.com/?cid=0x0:0xe5f29dbdd90cdd54,
toko bangunan,Toko Perlengkapan Rumah,Toko Bahan Bangunan Bintang Timur,"X9VM+CR2, Selat Tengah, Kec. Selat, Kabupaten Kapuas, Kalimantan Tengah 73516","Selat Tengah, Kec. Selat, Kabupaten Kapuas",BALI,73516.0,Indonesia,82174890900.0,,,-3.0064345,114.3845831,https://maps.google.com/?cid=0x0:0xd8b17af5517d1ab5,
toko bangunan,Toko Bahan Bangunan,Puspa Reni. UD,"HF68+WCX, JL. Gunung Agung, Banjar Selat Kelod, Selat, Pering Sari, Karangasem, Kabupaten Karangasem, Bali 80862","JL. Gunung Agung, Banjar Selat Kelod, Selat, Pering Sari, Karangasem, Kabupaten Karangasem",BALI,80862.0,Indonesia,82144533595.0,,,-8.437634,115.4661243,https://maps.google.com/?cid=0x0:0x6ab361bd12c357ac,
toko bangunan,Pusat Perbelanjaan,Toko Batu Ayu,"HF97+C5J, Jl. Raya Muncan, Pering Sari, Kec. Selat, Kabupaten Karangasem, Bali 80862","Jl. Raya Muncan, Pering Sari, Kec. Selat, Kabupaten Karangasem",BALI,80862.0,Indonesia,,,,-8.4314122,115.4628997,https://maps.google.com/?cid=0x0:0x9f589871f88bfeda,
toko bangunan,Toko Perlengkapan Rumah,Toko Bangunan Kawan Kita,"X9XR+HHV, Selat Tengah, Kec. Selat, Kabupaten Kapuas, Kalimantan Tengah 73516","Selat Tengah, Kec. Selat, Kabupaten Kapuas",BALI,73516.0,Indonesia,51323074.0,,,-3.0010092,114.3914251,https://maps.google.com/?cid=0x0:0x13809857992ce88c,
toko bangunan,Toko Swalayan,TB Fitri,"Selat Hulu, Kec. Selat, Kabupaten Kapuas, Kalimantan Tengah 73581","Kec. Selat, Kabupaten Kapuas",BALI,73581.0,Indonesia,123456.0,,,-2.9674313,114.4140448,https://maps.google.com/?cid=0x0:0xd934d3f5a867d34,
toko bangunan,Toko Perlengkapan Rumah,Toko Bangunan Fajar Mas,"Jl. Jendral Sudirman No. 35 / 56 Depan Toko Mas Purnama, Kalimantan Tengah 73513","Kabupaten Kapuas, Kalimantan Tengah",BALI,,Indonesia,8125180910.0,,,-3.022415,114.3923714,https://maps.google.com/?cid=0x0:0x5bf3af2da21dc1f6,
toko bangunan,Toko Bahan Bangunan,Toko bangunan Ud Harapan Anak,"Jl. Trans Kalimantan No.28 (Sungai Baras, Selat Hulu, Kec. Selat, Kabupaten Kapuas, Kalimantan Tengah 73581","Selat Hulu, Kec. Selat, Kabupaten Kapuas",BALI,73581.0,Indonesia,82221191276.0,,,-2.9842218,114.4109267,https://maps.google.com/?cid=0x0:0x61eb96590702aec0,
toko bangunan,Toko Bahan Bangunan,Toko Anugrah Bangunan,"X9PW+MPJ, Jl. Mahakam Gg. VIII A, Selat Tengah, Kec. Selat, Kabupaten Kapuas, Kalimantan Tengah 73516","Jl. Mahakam Gg. VIII A, Selat Tengah, Kec. Selat, Kabupaten Kapuas",BALI,73516.0,Indonesia,85962871748.0,,,-3.0132772,114.3967722,https://maps.google.com/?cid=0x0:0xfa145d04040f65e0,
toko bangunan,Toko Alat-Alat,Toko Edy Bangunan,"Jl. Mawar No.201, Selat Hilir, Kec. Selat, Kabupaten Kapuas, Kalimantan Tengah 73516","Selat Hilir, Kec. Selat, Kabupaten Kapuas",BALI,73516.0,Indonesia,,,,-3.020474,114.3937612,https://maps.google.com/?cid=0x0:0x7b4b198feb95a32e,
toko bangunan,Toko,Toko Bangunan Sinar Abadi,"X9PW+GM2, Jl. Mahakam, Selat Tengah, Kec. Selat, Kabupaten Kapuas, Kalimantan Tengah 73516","Jl. Mahakam, Selat Tengah, Kec. Selat, Kabupaten Kapuas",BALI,73516.0,Indonesia,,,,-3.0137485,114.3966303,https://maps.google.com/?cid=0x0:0x9d42f3817e046e4c,
toko bangunan,Toko Perlengkapan Rumah,UD. SARDI J,"Selat Tengah, Kec. Selat, Kabupaten Kapuas, Kalimantan Tengah 73581","Kec. Selat, Kabupaten Kapuas",BALI,73581.0,Indonesia,85248824596.0,,,-3.0077774,114.4024802,https://maps.google.com/?cid=0x0:0xb3745107cee4195c,
toko bangunan,Toko Bahan Bangunan,Toko Bahan Bangunan Inas,"X9MP+HV7, Selat Hilir, Kec. Selat, Kabupaten Kapuas, Kalimantan Tengah 73516","Selat Hilir, Kec. Selat, Kabupaten Kapuas",BALI,73516.0,Indonesia,,,,-3.016094,114.387159,https://maps.google.com/?cid=0x0:0x5aef6a2d3f2edc75,
toko bangunan,Toko Bahan Bangunan,TOKO BANGUNAN NABILAH,"Jl. Trans - Kalimantan No.44, Selat Dalam, Kec. Selat, Kabupaten Kapuas, Kalimantan Tengah 73581","Selat Dalam, Kec. Selat, Kabupaten Kapuas",BALI,73581.0,Indonesia,,,,-2.9826197,114.409428,https://maps.google.com/?cid=0x0:0x2fe6646b5d9ec349,
toko bangunan,Toko Bahan Bangunan,TOKO RUDY,"Jl. Mawar No.203, Selat Hilir, Kec. Selat, Kabupaten Kapuas, Kalimantan Tengah 73516","Selat Hilir, Kec. Selat, Kabupaten Kapuas",BALI,73516.0,Indonesia,82149099678.0,,,-3.020576,114.3936905,https://maps.google.com/?cid=0x0:0x7114e9c66f0bdce0,
toko bangunan,Toko Bahan Bangunan,Tb habibi,"X9MV+CHX, Selat Tengah, Kec. Selat, Kabupaten Kapuas, Kalimantan Tengah 73516","Selat Tengah, Kec. Selat, Kabupaten Kapuas",BALI,73516.0,Indonesia,,,,-3.0163915,114.3939831,https://maps.google.com/?cid=0x0:0xc5853c9573285053,
toko bangunan,Toko Kayu,UD. Karya Indah,"2929+HPH, Jl. Trans - Kalimantan, Pulau Telo, Kec. Selat, Kabupaten Kapuas, Kalimantan Tengah 73516","Jl. Trans - Kalimantan, Pulau Telo, Kec. Selat, Kabupaten Kapuas",BALI,73516.0,Indonesia,85252857632.0,,,-2.9985643,114.3693651,https://maps.google.com/?cid=0x0:0x367b9750604d1a6a,
toko bangunan,Toko Perlengkapan Rumah,Toko Busyro,"2929+R9Q, Pulau Telo, Kec. Selat, Kabupaten Kapuas, Kalimantan Tengah 73516","Pulau Telo, Kec. Selat, Kabupaten Kapuas",BALI,73516.0,Indonesia,81251185357.0,,,-2.9979162,114.3684763,https://maps.google.com/?cid=0x0:0x873c99494b3082c0,
toko bangunan,Toko Bahan Bangunan,TOKO 3 PUTRA BANGUNAN,"X9VX+G77, Selat Tengah, Kec. Selat, Kabupaten Kapuas, Kalimantan Tengah 73516","Selat Tengah, Kec. Selat, Kabupaten Kapuas",BALI,73516.0,Indonesia,,,,-3.0062115,114.3981621,https://maps.google.com/?cid=0x0:0xd27dc95485605cb0,
toko bangunan,toko bangunan,Bali 80862,"Kec. Selat, Kabupaten Karangasem, Bali","Kabupaten Karangasem, Bali",BALI,,Indonesia,,,,-8.4194238,115.4852012,https://maps.google.com/?cid=0x0:0x1c00c5eb6016c090,
toko bangunan,Toko Bahan Bangunan,TB Padma sari Muncan toko material bangunan,"Unnamed Road, Muncan, Selat, Karangasem Regency, Bali 80862","Muncan, Selat, Karangasem Regency",BALI,80862.0,Indonesia,87860404096.0,,,-8.4369508,115.444766,https://maps.google.com/?cid=0x0:0xb76c358a3d93a90a,
toko bangunan,Toko Bahan Bangunan,Toko Adi Bangunan,"HF87+QXH, Jl. Baledan, Pering Sari, Kec. Selat, Kabupaten Karangasem, Bali 80862","Jl. Baledan, Pering Sari, Kec. Selat, Kabupaten Karangasem",BALI,80862.0,Indonesia,,,,-8.4330604,115.4649906,https://maps.google.com/?cid=0x0:0x669cd23e1304e998,
toko bangunan,Toko Bahan Bangunan,Ud.Diah Bangunan,"HF2X+X8C, Jl. Baledan, Duda, Kec. Selat, Kabupaten Karangasem, Bali","Kabupaten Karangasem, Bali",BALI,,Indonesia,85239685002.0,,,-8.4475744,115.4982676,https://maps.google.com/?cid=0x0:0x1ff5f3b38eca7e72,
toko bangunan,Toko Perlengkapan Rumah,Toko Cahaya Grinda Tehnik,"HF5R+3Q6, Jl. Raya Pegubugan, Duda, Kec. Selat, Kabupaten Karangasem, Bali 80862","Jl. Raya Pegubugan, Duda, Kec. Selat, Kabupaten Karangasem",BALI,80862.0,Indonesia,81916144239.0,,,-8.4423326,115.4918877,https://maps.google.com/?cid=0x0:0x4abdc71350aa9260,
toko bangunan,Toko Bahan Bangunan,Mekar Indah,"HF78+4F8, Pering Sari, Kec. Selat, Kabupaten Karangasem, Bali 80862","Pering Sari, Kec. Selat, Kabupaten Karangasem",BALI,80862.0,Indonesia,36622860.0,,,-8.437225,115.466216,https://maps.google.com/?cid=0x0:0x7c2ef6ca377f81e4,
toko bangunan,Minimarket,Cahaya Wirama Bangunan,"HF79+RV6, Jl. Baledan, Pering Sari, Kec. Selat, Kabupaten Karangasem, Bali 80862","Jl. Baledan, Pering Sari, Kec. Selat, Kabupaten Karangasem",BALI,80862.0,Indonesia,,,,-8.4354707,115.4696265,https://maps.google.com/?cid=0x0:0x6d9473299958d7eb,
toko bangunan,Toko Bahan Bangunan,UD DERDO'A,"HCFX+CQM, Jl. Raya Muncan, Muncan, Kec. Selat, Kabupaten Karangasem, Bali 80862","Jl. Raya Muncan, Muncan, Kec. Selat, Kabupaten Karangasem",BALI,80862.0,Indonesia,85337615496.0,,,-8.4264146,115.4494091,https://maps.google.com/?cid=0x0:0x14873d42e711f915,
toko bangunan,Distributor Baja,UD Sinar Babakan,"Jl. Baledan, Selat, Kec. Selat, Kabupaten Karangasem, Bali 80862","Selat, Kec. Selat, Kabupaten Karangasem",BALI,80862.0,Indonesia,81338595727.0,,,-8.4369757,115.4776919,https://maps.google.com/?cid=0x0:0xbe67d66dcc9f474c,
toko bangunan,Toko Bahan Bangunan,ud dede bangunan,"HG22+JQH, Tim., Duda Tim., Kec. Selat, Kabupaten Karangasem, Bali 80862","Tim., Duda Tim., Kec. Selat, Kabupaten Karangasem",BALI,80862.0,Indonesia,8123889137.0,,,-8.4484473,115.5019957,https://maps.google.com/?cid=0x0:0xa32f8633e2752f09,
toko bangunan,Toko Bahan Bangunan,Widya Rahayu,"Jl. Baledan, Duda Tim., Kec. Selat, Kabupaten Karangasem, Bali 80862","Duda Tim., Kec. Selat, Kabupaten Karangasem",BALI,80862.0,Indonesia,85792878479.0,,,-8.4489458,115.5037905,https://maps.google.com/?cid=0x0:0xbc297018f31b152f,
toko bangunan,Toko,UD. Eka Jaya,"HC5V+M72, Jl. Pura Dalem, Muncan, Kec. Selat, Kabupaten Karangasem, Bali 80862","Jl. Pura Dalem, Muncan, Kec. Selat, Kabupaten Karangasem",BALI,80862.0,Indonesia,,,,-8.4408586,115.443135,https://maps.google.com/?cid=0x0:0x519cf0c79df8b381,
toko bangunan,Pemasok Bahan Bangunan,Mekar Nadi Material,"JF49+8C8, Sebudi, Kec. Selat, Kabupaten Karangasem, Bali 80862","Sebudi, Kec. Selat, Kabupaten Karangasem",BALI,80862.0,Indonesia,81238558817.0,,,-8.3942191,115.4685694,https://maps.google.com/?cid=0x0:0xf0765ed9f48e54c4,
toko bangunan,Toko Bahan Bangunan,UD. SORGA TUNGGAL,"Jl. Raya Sinduwati, Duda, Kec. Selat, Kabupaten Karangasem, Bali 80862","Duda, Kec. Selat, Kabupaten Karangasem",BALI,80862.0,Indonesia,,,,-8.444021,115.482973,https://maps.google.com/?cid=0x0:0xcc5c07aceb206f91,
toko bangunan,Toko Bahan Bangunan,Ud Kembar Bangunan,"HF5P+98C, Jl. Baledan, Duda, Kec. Selat, Kabupaten Karangasem, Bali 80862","Jl. Baledan, Duda, Kec. Selat, Kabupaten Karangasem",BALI,80862.0,Indonesia,,,,-8.4415611,115.4857757,https://maps.google.com/?cid=0x0:0x5d2d969272fe9885,
toko bangunan,Toko Bahan Bangunan,UD.Widya Sentana Stone,"HFRM+P94, Sebudi, Kec. Selat, Kabupaten Karangasem, Bali 80862","Sebudi, Kec. Selat, Kabupaten Karangasem",BALI,80862.0,Indonesia,85737749071.0,,,-8.4082279,115.4834617,https://maps.google.com/?cid=0x0:0xc8a34f10518e574e,
toko bangunan,Toko Bahan Bangunan,Kakul putra matrial,"JF49+R3, Sebudi, Kec. Selat, Kabupaten Karangasem, Bali 80862","Sebudi, Kec. Selat, Kabupaten Karangasem",BALI,80862.0,Indonesia,,,,-8.3929852,115.467652,https://maps.google.com/?cid=0x0:0x3b99c0ce54651149,
toko bangunan,Toko Bahan Bangunan,Menjual Material,"JF49+4GG, Sebudi, Kec. Selat, Kabupaten Karangasem, Bali 80862","Sebudi, Kec. Selat, Kabupaten Karangasem",BALI,80862.0,Indonesia,85333052069.0,,,-8.3946977,115.4688372,https://maps.google.com/?cid=0x0:0xf721feb102adcdc4,
toko bangunan,Toko Bahan Bangunan,Merta Sari UD,"HCFW+XQH, Muncan, Kec. Selat, Kabupaten Karangasem, Bali 80862","Muncan, Kec. Selat, Kabupaten Karangasem",BALI,80862.0,Indonesia,81805434185.0,,,-8.4253776,115.4471858,https://maps.google.com/?cid=0x0:0x1886edc6fb2cb9c1,
toko bangunan,Toko Bahan Bangunan,UD.Batako Mesari,"HFVM+9QW, Jl. Gn. Agung, Sebudi, Kec. Selat, Kabupaten Karangasem, Bali 80862","Jl. Gn. Agung, Sebudi, Kec. Selat, Kabupaten Karangasem",BALI,80862.0,Indonesia,85338636850.0,,,-8.4065522,115.4845567,https://maps.google.com/?cid=0x0:0x70558d0e905e44d2,
toko bangunan,Toko Bahan Bangunan,UD. Sari Sinar Jaya,"Jl. Baledan, Duda, Kec. Selat, Kabupaten Karangasem, Bali 80862","Duda, Kec. Selat, Kabupaten Karangasem",BALI,80862.0,Indonesia,82340139898.0,,,-8.4432161,115.4889461,https://maps.google.com/?cid=0x0:0x51e63286659a2c0c,
toko bangunan,Toko Bahan Bangunan,Toko Bangunan WES,"GH4Q+XRH, Jl. Tambak Udang Broodstock Center, Sengkidu, Kec. Manggis, Kabupaten Karangasem, Bali 80811","Jl. Tambak Udang Broodstock Center, Sengkidu, Kec. Manggis, Kabupaten Karangasem",BALI,80811.0,Indonesia,82122228701.0,,,-8.4925616,115.5896022,https://maps.google.com/?cid=0x0:0x5311fd2b527a8f5,
toko bangunan,Toko Bahan Bangunan,Ud.putra family,"JF59+H35, Unnamed Road, Sebudi, Kec. Selat, Kabupaten Karangasem, Bali 80862","Unnamed Road, Sebudi, Kec. Selat, Kabupaten Karangasem",BALI,80862.0,Indonesia,85238803963.0,,,-8.3911139,115.4677206,https://maps.google.com/?cid=0x0:0xa393bc296fd6be11,
toko bangunan,Toko Bahan Bangunan,Bangunan Jaya,"GH6W+G69, Sengkidu, Kec. Manggis, Kabupaten Karangasem, Bali 80811","Sengkidu, Kec. Manggis, Kabupaten Karangasem",BALI,80811.0,Indonesia,85166900641.0,,,-8.4887048,115.5956002,https://maps.google.com/?cid=0x0:0xf0e0e3f6c898b631,
toko bangunan,Toko,Sindu Bangunan,"Sindu Wati, Kec. Sidemen, Kabupaten Karangasem, Bali 80864","Kec. Sidemen, Kabupaten Karangasem",BALI,80864.0,Indonesia,,,,-8.4557061,115.4517263,https://maps.google.com/?cid=0x0:0x5579ccd2fc0fd162,
toko bangunan,toko bangunan,Bali 80864,"Kec. Sidemen, Kabupaten Karangasem, Bali","Kabupaten Karangasem, Bali",BALI,,Indonesia,,,,-8.4831122,115.4378152,https://maps.google.com/?cid=0x0:0x1c00c5eb6016c0b0,
toko bangunan,Toko Bahan Bangunan,Toko Sinar Abadi,"Jl raya, Sidemen, Kec. Sidemen, Kabupaten Karangasem, Bali 80864","Sidemen, Kec. Sidemen, Kabupaten Karangasem",BALI,80864.0,Indonesia,81238234444.0,,,-8.4646986,115.4479197,https://maps.google.com/?cid=0x0:0xfe745cf44f034b80,
toko bangunan,Toko Bahan Bangunan,Ud Sari Uma Dukuh,"GC7R+2JM, Jl, Telaga Tawang, Kec. Sidemen, Kabupaten Karangasem, Bali 80864","Jl, Telaga Tawang, Kec. Sidemen, Kabupaten Karangasem",BALI,80864.0,Indonesia,81270756744.0,,,-8.4874032,115.4415384,https://maps.google.com/?cid=0x0:0x791a03bf8bd9b4aa,
toko bangunan,Toko Bahan Bangunan,Toko Aneka Guna,"GCQX+2G3, Jl. Semarapura-Karangasem, Sidemen, Kec. Sidemen, Kabupaten Karangasem, Bali 80864","Jl. Semarapura-Karangasem, Sidemen, Kec. Sidemen, Kabupaten Karangasem",BALI,80864.0,Indonesia,85237574480.0,,,-8.4624823,115.4488106,https://maps.google.com/?cid=0x0:0xc4b770859ad8e222,
toko bangunan,Toko Bahan Bangunan,UD Sinar Babakan,"FCXJ+VWX, Jl Raya Semarapura , Sidemen , Karangasem, Talibeng, Kec. Sidemen, Kabupaten Karangasem, Bali 80864","Jl Raya Semarapura , Sidemen , Karangasem, Talibeng, Kec. Sidemen, Kabupaten Karangasem",BALI,80864.0,Indonesia,85337140306.0,,,-8.5002598,115.4323597,https://maps.google.com/?cid=0x0:0x74a9f0bd1bfadab,
toko bangunan,Toko Bahan Bangunan,TB Adi Artha,"GCHX+MH5, Jl Semarapura Lantang Katik, Sidemen, Kec. Sidemen, Kabupaten Karangasem, Bali 80864","Jl Semarapura Lantang Katik, Sidemen, Kec. Sidemen, Kabupaten Karangasem",BALI,80864.0,Indonesia,82147847841.0,,,-8.4708513,115.4489968,https://maps.google.com/?cid=0x0:0xf1f599afff9fc3f6,
toko bangunan,Toko Bahan Bangunan,TB. GANESHA JAYA,"Tangkup, Kec. Sidemen, Kabupaten Karangasem, Bali 80716","Kec. Sidemen, Kabupaten Karangasem",BALI,80716.0,Indonesia,8123941064.0,,,-8.4950148,115.4137259,https://maps.google.com/?cid=0x0:0xd468c40143fdb8f5,
toko bangunan,Toko Bahan Bangunan,Ud merta jaya bangunan,"GC8W+M32, Telaga Tawang, Kec. Sidemen, Kabupaten Karangasem, Bali 80864","Telaga Tawang, Kec. Sidemen, Kabupaten Karangasem",BALI,80864.0,Indonesia,81236165577.0,,,-8.4834491,115.4452452,https://maps.google.com/?cid=0x0:0x30582d3012872015,
toko bangunan,Toko Bahan Bangunan,Warung Pak Bakti,"GC28+CMF, Tangkup, Kec. Sidemen, Kabupaten Karangasem, Bali 80864","Tangkup, Kec. Sidemen, Kabupaten Karangasem",BALI,80864.0,Indonesia,81338515253.0,,,-8.4989336,115.4166622,https://maps.google.com/?cid=0x0:0x54700df912e41ce3,
toko bangunan,Toko,Warung Cu Tabu  Toko Bangunan Pak Rarud,"FCQ8+22V, Kertha Buana, Kec. Sidemen, Kabupaten Karangasem, Bali 80864","Kertha Buana, Kec. Sidemen, Kabupaten Karangasem",BALI,80864.0,Indonesia,,,,-8.512278,115.415059,https://maps.google.com/?cid=0x0:0x2b7f4f4ff0d26681,
toko bangunan,Produsen,Sadus Tiles,"Banjar Tabola, Jl. Raya Tebola, Kec. Sidemen, Kabupaten Karangasem, Bali 80864","Jl. Raya Tebola, Kec. Sidemen, Kabupaten Karangasem",BALI,80864.0,Indonesia,82340774073.0,,,-8.4673996,115.4459646,https://maps.google.com/?cid=0x0:0xfeceeba115e95831,
toko bangunan,Toko Bahan Bangunan,TB Padma sari Muncan toko material bangunan,"Unnamed Road, Muncan, Selat, Karangasem Regency, Bali 80862","Muncan, Selat, Karangasem Regency",BALI,80862.0,Indonesia,87860404096.0,,,-8.4369508,115.444766,https://maps.google.com/?cid=0x0:0xb76c358a3d93a90a,
toko bangunan,Toko Bahan Bangunan,TB Dana Putra,"GC38+2GQ, Anyar, Tangkup, Kec. Sidemen, Kabupaten Karangasem, Bali 80864","Anyar, Tangkup, Kec. Sidemen, Kabupaten Karangasem",BALI,80864.0,Indonesia,82339361852.0,,,-8.4974105,115.4163583,https://maps.google.com/?cid=0x0:0x2531c4721c9e7376,
toko bangunan,Toko Bahan Bangunan,UD.LIBAG,"GC4G+XC6, Wismakerta, Kec. Sidemen, Kabupaten Karangasem, Bali 80864","Wismakerta, Kec. Sidemen, Kabupaten Karangasem",BALI,80864.0,Indonesia,,,,-8.4925943,115.4260061,https://maps.google.com/?cid=0x0:0xb6b0a9ff60023836,
toko bangunan,Toko Bahan Bangunan,BAHAN BANGUNAN SUKADANA,"FCPF+989, Jl. Semarapura-Karangasem, Lokasari, Kec. Sidemen, Kabupaten Karangasem, Bali 80761","Jl. Semarapura-Karangasem, Lokasari, Kec. Sidemen, Kabupaten Karangasem",BALI,80761.0,Indonesia,8161999912.0,,,-8.5140885,115.4233698,https://maps.google.com/?cid=0x0:0x787a787dc0afd1b1,
toko bangunan,Toko Bahan Bangunan,UD Sumber Utama,"GFW4+V49, Jl. Semarapura-Karangasem, Sindu Wati, Kec. Sidemen, Kabupaten Karangasem, Bali 80864","Jl. Semarapura-Karangasem, Sindu Wati, Kec. Sidemen, Kabupaten Karangasem",BALI,80864.0,Indonesia,82340223032.0,,,-8.4528496,115.4553578,https://maps.google.com/?cid=0x0:0x4d44d3614dded788,
toko bangunan,,Pasar Sidemen,"Jl. Sidemen, Sidemen, Kec. Sidemen, Kabupaten Karangasem, Bali 80864","Sidemen, Kec. Sidemen, Kabupaten Karangasem",BALI,80864.0,Indonesia,,,,-8.464504,115.4478014,https://maps.google.com/?cid=0x0:0xb6bd1f3d954cb1c6,
toko bangunan,Toko Bahan Bangunan,UD Karya Bangunan,"Jl. Ngurah Rai No.88 A, Semarapura Tengah, Kec. Klungkung, Kabupaten Klungkung, Bali 80711","Semarapura Tengah, Kec. Klungkung, Kabupaten Klungkung",BALI,80711.0,Indonesia,81338141935.0,,,-8.5294348,115.3984585,https://maps.google.com/?cid=0x0:0x8915cfcafeed36b9,
toko bangunan,Toko Swalayan,"Toko Teja, Sidemen Karangasem","Jl, Talibeng, Kec. Sidemen, Kabupaten Karangasem, Bali 80864","Talibeng, Kec. Sidemen, Kabupaten Karangasem",BALI,80864.0,Indonesia,81805354880.0,,,-8.5003934,115.4352556,https://maps.google.com/?cid=0x0:0x29148b38e1ff8818,
toko bangunan,Toko Bahan Bangunan,UD.Lunjung Sari,"GCRP+2XQ, Sangkan Gn., Kec. Sidemen, Kabupaten Karangasem, Bali 80864","Sangkan Gn., Kec. Sidemen, Kabupaten Karangasem",BALI,80864.0,Indonesia,83114214479.0,,,-8.4599063,115.4374993,https://maps.google.com/?cid=0x0:0xaaab9741a6307bed,
toko bangunan,Toko,UD Bali Pangestu,"GCG2+G6W, Jl. Raya Besakih, Akah, Kec. Klungkung, Kabupaten Klungkung, Bali 80864","Jl. Raya Besakih, Akah, Kec. Klungkung, Kabupaten Klungkung",BALI,80864.0,Indonesia,85392025891.0,,,-8.4736426,115.4005903,https://maps.google.com/?cid=0x0:0x5a0624781f872666,
