Category,Real Category,Business Name,Address,City,State,Postal Code,Country,Phone,Email,Website,Latitude,Longitude,Map Link,Details Link
mall,Pusat Perbelanjaan,MANIK MERTA 2 (Windu Santi),"Jl. Ida Ketut Jelantik, Tista, Kec. Abang, Kabupaten Karangasem, Bali 80852","Tista, Kec. Abang, Kabupaten Karangasem",BALI,80852.0,Indonesia,85738875921.0,,,-8.3801581,115.6084345,https://maps.google.com/?cid=0x0:0x8bb0a8cf43e5e05c,
mall,mall,Abang,"Kec. Abang, Kabupaten Karangasem, Bali","Kabupaten Karangasem, Bali",BALI,,Indonesia,,,,-8.3938452,115.6006725,https://maps.google.com/?cid=0x0:0x5030bfbca831740,
mall,Pusat Perbelanjaan,Danta bataran bali,"JJ84+35R, JJ84+556Jl. Ida Ketut, JelantikTista, Kec. Abang, Kabupaten Karangasem, Bali 80852","JJ84+556Jl. Ida Ketut, JelantikTista, Kec. Abang, Kabupaten Karangasem",BALI,80852.0,Indonesia,81236565696.0,,,-8.3847696,115.6054033,https://maps.google.com/?cid=0x0:0x3cd05a9d476aa81d,
mall,Toko Swalayan,Andika Lontar,"Abang, Kec. Abang, Kabupaten Karangasem, Bali 80852","Kec. Abang, Kabupaten Karangasem",BALI,80852.0,Indonesia,,,,-8.3856788,115.5999939,https://maps.google.com/?cid=0x0:0x356b42b44e708a3b,
mall,Pasar pakaian,Cipta Setara,"JHFR+QV3, Kesimpar, Kec. Abang, Kabupaten Karangasem, Bali 80852","Kesimpar, Kec. Abang, Kabupaten Karangasem",BALI,80852.0,Indonesia,81246259344.0,,,-8.3756007,115.5921836,https://maps.google.com/?cid=0x0:0x855de2890b5d37df,
mall,Layanan Binatu,Dewi gita,"Jln.(seme bikul, Unnamed Road, Ababi, Kec. Abang, Kabupaten Karangasem, Bali 80852","Unnamed Road, Ababi, Kec. Abang, Kabupaten Karangasem",BALI,80852.0,Indonesia,82146599647.0,,,-8.407434,115.5858711,https://maps.google.com/?cid=0x0:0x3ec28f07ff4cf213,
mall,Pengekspor kerajinan tangan,Pegrajin batok kelapa,"JH9W+WQ7, Jalan, Kota, Kesimpar, Abang, Karangasem Regency, Bali 80852","Jalan, Kota, Kesimpar, Abang, Karangasem Regency",BALI,80852.0,Indonesia,,,,-8.3802035,115.5969281,https://maps.google.com/?cid=0x0:0xfebfb72235118a8,
mall,Pembangunan Perumahan,Warung Buahlinggah,"HJRC+GMQ, Jl. Basangalas, Tri Buana, Kec. Abang, Kabupaten Karangasem, Bali 80852","Jl. Basangalas, Tri Buana, Kec. Abang, Kabupaten Karangasem",BALI,80852.0,Indonesia,81237036858.0,,,-8.408658,115.62175,https://maps.google.com/?cid=0x0:0xed472b38844c6df4,
mall,Komplek perumahan,Madesegare,"MM2J+496, Jl. Raya Lipah, Bunutan, Kec. Abang, Kabupaten Karangasem, Bali 80852","Jl. Raya Lipah, Bunutan, Kec. Abang, Kabupaten Karangasem",BALI,80852.0,Indonesia,82237812318.0,,,-8.3497087,115.6808853,https://maps.google.com/?cid=0x0:0x3070fa1f29069dd,
mall,Minimarket,Warung Wahyu,"HHRX+HM3, Jl. Raya Ababi, Ababi, Kec. Abang, Kabupaten Karangasem, Bali 80852","Jl. Raya Ababi, Ababi, Kec. Abang, Kabupaten Karangasem",BALI,80852.0,Indonesia,85237001082.0,,,-8.4086126,115.5991839,https://maps.google.com/?cid=0x0:0x4a534945adca58f1,
mall,Toko Pakaian,Ashni_Collection online store,"JJC4+PMH, Jl. Batumadeg, Tista, Kec. Abang, Kabupaten Karangasem, Bali 80852","Jl. Batumadeg, Tista, Kec. Abang, Kabupaten Karangasem",BALI,80852.0,Indonesia,85738317691.0,,,-8.3781911,115.6067306,https://maps.google.com/?cid=0x0:0xa69ccee56644aaf,
mall,Pusat Perbelanjaan,UD. DWI PUTRA,"JJ95+G92, Jl. Ida Ketut Jelantik, Tista, Kec. Abang, Kabupaten Karangasem, Bali 80852","Jl. Ida Ketut Jelantik, Tista, Kec. Abang, Kabupaten Karangasem",BALI,80852.0,Indonesia,81353564879.0,,,-8.3812442,115.608399,https://maps.google.com/?cid=0x0:0x75b3afbad905759a,
mall,Pusat Perbelanjaan,Kec Abang Dsa Ngis Tribuana,"HJ37+F4J, Karangasem, Kec. Karangasem, Kabupaten Karangasem, Bali 80811","Karangasem, Kec. Karangasem, Kabupaten Karangasem",BALI,80811.0,Indonesia,83119645820.0,,,-8.4462833,115.6127654,https://maps.google.com/?cid=0x0:0xdfaea10778b24e4a,
mall,Toko,NoproblemShop,"MJ7X+PG6, Jl. Raya Amed, Bunutan, Kec. Abang, Kabupaten Karangasem, Bali 80852","Jl. Raya Amed, Bunutan, Kec. Abang, Kabupaten Karangasem",BALI,80852.0,Indonesia,817567229.0,,,-8.3357134,115.6487585,https://maps.google.com/?cid=0x0:0x5bfece1374df2d55,
mall,Restoran,Sama Rasa Store,"MM49+CPJ, Jl. Raya Amed, Bunutan, Kec. Abang, Kabupaten Karangasem, Bali 80852","Jl. Raya Amed, Bunutan, Kec. Abang, Kabupaten Karangasem",BALI,80852.0,Indonesia,81239175176.0,,,-8.3457214,115.6725681,https://maps.google.com/?cid=0x0:0x5ca9579971d1675d,
mall,Toko Swalayan,UD mangga 2,"JMX9+7R4, Bunutan, Kec. Abang, Kabupaten Karangasem, Bali 80852","Bunutan, Kec. Abang, Kabupaten Karangasem",BALI,80852.0,Indonesia,81236545652.0,,,-8.35187,115.6695667,https://maps.google.com/?cid=0x0:0x65e382cd269021e8,
mall,mall,Secondbernama,"Jl. Tanah Rendah Sebrang 1 No.39 3, RT.3/RW.6, Kp. Bali, Kecamatan Tanah Abang, Kota Jakarta Pusat, Daerah Khusus Ibukota Jakarta 10250","RT.3/RW.6, Kp. Bali, Kecamatan Tanah Abang, Kota Jakarta Pusat",BALI,10250.0,Indonesia,,,,-6.1862187,106.8132875,https://maps.google.com/?cid=0x0:0x222d3e377fb0418d,
mall,Pusat Perbelanjaan,A-L-B-E-R-T Toko,"Pusat Grosir Blok A Tanah Abang Lantai 3A Los G No. 009, JL Fachrudin, No. 1, Tanah Abang, Kp. Bali, Jakarta Pusat, Kota Jakarta Pusat, Daerah Khusus Ibukota Jakarta 10250","JL Fachrudin, No. 1, Tanah Abang, Kp. Bali, Jakarta Pusat, Kota Jakarta Pusat",BALI,10250.0,Indonesia,2123570001.0,,,-6.1863338,106.8152431,https://maps.google.com/?cid=0x0:0xe84f3b87a9bb8fff,
mall,mall,Bebandem,"Bebandem, Kec. Bebandem, Kabupaten Karangasem, Bali","Kabupaten Karangasem, Bali",BALI,,Indonesia,,,,-8.43892,115.563301,https://maps.google.com/?cid=0x0:0xd6717240f09e5914,
mall,Pasar,"Pasar Bebandem, Karangasem","HH56+99G, Bebandem, Kec. Bebandem, Kabupaten Karangasem, Bali 80861","Bebandem, Kec. Bebandem, Kabupaten Karangasem",BALI,80861.0,Indonesia,,,,-8.4415741,115.560942,https://maps.google.com/?cid=0x0:0xfa1331784f6d96e6,
mall,Pusat Perbelanjaan,Tb.Kud Bebandem,"HH55+Q74, Bebandem, Kec. Bebandem, Kabupaten Karangasem, Bali 80861","Bebandem, Kec. Bebandem, Kabupaten Karangasem",BALI,80861.0,Indonesia,,,,-8.4406193,115.5582054,https://maps.google.com/?cid=0x0:0xb0c3ea9a0c9dab65,
mall,Pusat Perbelanjaan,Full step,"HG4R+C8P, Sibetan, Kec. Bebandem, Kabupaten Karangasem, Bali 80861","Sibetan, Kec. Bebandem, Kabupaten Karangasem",BALI,80861.0,Indonesia,81239987972.0,,,-8.4439101,115.540825,https://maps.google.com/?cid=0x0:0x6f0ee1f4bbc7c3c9,
mall,Pusat Perbelanjaan,MB Green,"Jl. Utung Surapati, Bebandem, Kec. Bebandem, Kabupaten Karangasem, Bali 80861","Bebandem, Kec. Bebandem, Kabupaten Karangasem",BALI,80861.0,Indonesia,82340810018.0,,,-8.43224,115.568735,https://maps.google.com/?cid=0x0:0x793a8ab40fb293ab,
mall,Pusat Perbelanjaan,Kios Budayana,"Jl. Raya Bebandem, Bebandem, Kec. Bebandem, Kabupaten Karangasem, Bali 80861","Bebandem, Kec. Bebandem, Kabupaten Karangasem",BALI,80861.0,Indonesia,85333051844.0,,,-8.4414587,115.5611436,https://maps.google.com/?cid=0x0:0xa7c49527eaca20e7,
mall,Pusat Perbelanjaan,Yuni Shop Karangasem,"HH28+H5P, Jl. Tunjung Bang, Bebandem, Kec. Bebandem, Kabupaten Karangasem, Bali 80861","Jl. Tunjung Bang, Bebandem, Kec. Bebandem, Kabupaten Karangasem",BALI,80861.0,Indonesia,,,,-8.4485385,115.5654397,https://maps.google.com/?cid=0x0:0x5244b35744bdaeca,
mall,Minimarket,Mini Market CAHAYA WIRAMA III,"HH54+WHX, Jl. Kuncaragiri, Bebandem, Kec. Bebandem, Kabupaten Karangasem, Bali 80861","Jl. Kuncaragiri, Bebandem, Kec. Bebandem, Kabupaten Karangasem",BALI,80861.0,Indonesia,81354282488.0,,,-8.440147,115.5564871,https://maps.google.com/?cid=0x0:0x6c0155dba4727785,
mall,Pusat Perbelanjaan,Warung DETI,"HG7H+2WW, Unnamed Road, Sibetan, Kec. Bebandem, Kabupaten Karangasem, Bali 80861","Unnamed Road, Sibetan, Kec. Bebandem, Kabupaten Karangasem",BALI,80861.0,Indonesia,,,,-8.4373791,115.5298153,https://maps.google.com/?cid=0x0:0xb3016b41e41d58fe,
mall,Pusat Perbelanjaan,ar_shop23,"HG9Q+MJW, Jungutan, Kec. Bebandem, Kabupaten Karangasem, Bali 80861","Jungutan, Kec. Bebandem, Kabupaten Karangasem",BALI,80861.0,Indonesia,85847145341.0,,,-8.4307524,115.5390789,https://maps.google.com/?cid=0x0:0xeef47178f79a37ee,
mall,Pusat Perbelanjaan,Shopping centre,"Br dinas mumbul, Jungutan, Kec. Bebandem, Kabupaten Karangasem, Bali 80811","Jungutan, Kec. Bebandem, Kabupaten Karangasem",BALI,80811.0,Indonesia,82339592298.0,,,-8.4328914,115.5427268,https://maps.google.com/?cid=0x0:0x6f533a259efbfa5d,
mall,Minimarket,Toko Swalayan Bebandem,"HH56+847, Bebandem, Kec. Bebandem, Kabupaten Karangasem, Bali 80861","Bebandem, Kec. Bebandem, Kabupaten Karangasem",BALI,80861.0,Indonesia,,,,-8.4417106,115.5602974,https://maps.google.com/?cid=0x0:0xfcadb5d3dafc1dc3,
mall,Pusat Perbelanjaan,Susan shop,"HGCQ+JR, Jungutan, Kec. Bebandem, Kabupaten Karangasem, Bali 80861","Jungutan, Kec. Bebandem, Kabupaten Karangasem",BALI,80861.0,Indonesia,85646915967.0,,,-8.42832,115.5385187,https://maps.google.com/?cid=0x0:0x77ea6d7722f6ed36,
mall,Toko,KIOS SANI ANUGRAH,"HG59+7VX, Sibetan, Kec. Bebandem, Kabupaten Karangasem, Bali 80861","Sibetan, Kec. Bebandem, Kabupaten Karangasem",BALI,80861.0,Indonesia,,,,-8.4417595,115.5197298,https://maps.google.com/?cid=0x0:0x9d2fdb12bc5ad277,
mall,Pusat Perbelanjaan,Warung Mang Remi,"Jl. Bhuana Giri, Budakeling, Kec. Bebandem, Kabupaten Karangasem, Bali 80861","Budakeling, Kec. Bebandem, Kabupaten Karangasem",BALI,80861.0,Indonesia,82145587781.0,,,-8.416298,115.5619062,https://maps.google.com/?cid=0x0:0x6523990b4feb783d,
mall,mall,Karangasem,"Kec. Karangasem, Kabupaten Karangasem, Bali","Kabupaten Karangasem, Bali",BALI,,Indonesia,,,,-8.4359528,115.609553,https://maps.google.com/?cid=0x0:0x2f56ee0fd49a2b29,
mall,Toko Rokok Elektrik,VaporEast Bali,"GJX4+WFJ, Jl. Panglima Besar Sudirman, Subagan, Kec. Karangasem, Kabupaten Karangasem, Bali 80811","Jl. Panglima Besar Sudirman, Subagan, Kec. Karangasem, Kabupaten Karangasem",BALI,80811.0,Indonesia,,,,-8.4501507,115.606127,https://maps.google.com/?cid=0x0:0x9b41c78ce058c73,
mall,Kantor Pemerintahan Wilayah,Mall Pelayanan Publik Kabupaten Karangasem,"HJ28+FGC, Jl. Gajahmada, Karangasem, Kec. Karangasem, Kabupaten Karangasem, Bali 80811","Jl. Gajahmada, Karangasem, Kec. Karangasem, Kabupaten Karangasem",BALI,80811.0,Indonesia,36321085.0,,,-8.4488092,115.6162774,https://maps.google.com/?cid=0x0:0xeb4ff167563ca4ee,
mall,Pembangunan Perumahan,Artasedana Amlapura,"Jl. Diponegoro No.14x, Karangasem, Kec. Karangasem, Kabupaten Karangasem, Bali 80811","Karangasem, Kec. Karangasem, Kabupaten Karangasem",BALI,80811.0,Indonesia,87743224484.0,,,-8.4467079,115.6137486,https://maps.google.com/?cid=0x0:0x6237d8edacc47291,
mall,Pusat Perbelanjaan,Adi capueng,"GJV8+7C4, Karangasem, Kec. Karangasem, Kabupaten Karangasem, Bali 80811","Karangasem, Kec. Karangasem, Kabupaten Karangasem",BALI,80811.0,Indonesia,83812743038.0,,,-8.4568742,115.6160899,https://maps.google.com/?cid=0x0:0x5343a63e2e621d55,
mall,Pasar tradisional,Pasar Desa Tegallinggah,"HJ8C+XJX, Jl. Sersan Mayor Gejer, Tegallinggah, Kec. Karangasem, Kabupaten Karangasem, Bali 80811","Jl. Sersan Mayor Gejer, Tegallinggah, Kec. Karangasem, Kabupaten Karangasem",BALI,80811.0,Indonesia,,,,-8.4325206,115.6216049,https://maps.google.com/?cid=0x0:0xf1c60017c821b3e5,
mall,Pusat Perbelanjaan,Miniso Karangasem,"GJW2+8QQ, Jl. Sudirman, Subagan, Kec. Karangasem, Kabupaten Karangasem, Bali 80811","Jl. Sudirman, Subagan, Kec. Karangasem, Kabupaten Karangasem",BALI,80811.0,Indonesia,85697379524.0,,,-8.4542077,115.6018964,https://maps.google.com/?cid=0x0:0x7cb1ec966121dedb,
mall,Pusat Perbelanjaan,Golden Store,"Jl. Lettu Alit No.77x, Tampuagan, Kec. Karangasem, Kabupaten Karangasem, Bali 80811","Tampuagan, Kec. Karangasem, Kabupaten Karangasem",BALI,80811.0,Indonesia,81246583832.0,,,-8.4456573,115.6138766,https://maps.google.com/?cid=0x0:0xa0d02974ed1d86ca,
mall,Pusat Perbelanjaan,Shinshop08,"BTN Taman Asri D43, Subagan, Kec. Karangasem, Kabupaten Karangasem, Bali 80811","Subagan, Kec. Karangasem, Kabupaten Karangasem",BALI,80811.0,Indonesia,82247590420.0,,,-8.454224,115.6037018,https://maps.google.com/?cid=0x0:0xad01b32e83dd7be5,
mall,Sekolah Dasar,SD Negri 1 Tumbu,"HJ3F+Q78, Tumbu, Kec. Karangasem, Kabupaten Karangasem, Bali 80811","Tumbu, Kec. Karangasem, Kabupaten Karangasem",BALI,80811.0,Indonesia,,,,-8.4455799,115.6232122,https://maps.google.com/?cid=0x0:0x60fb403372a5e242,
mall,Toko,Kubu Renten,"Banjar Merajan, Seraya Bar., 80811, Seraya Bar., Kec. Karangasem, Kabupaten Karangasem, Bali 80811","Seraya Bar.,",BALI,80811.0,Indonesia,85221251494.0,,,-8.4518051,115.6368642,https://maps.google.com/?cid=0x0:0xa5e9499df8e27385,
mall,Pusat Perbelanjaan,niwayan NETI,"GJPJ+JQV, Jl. Taman Ujung, Seraya Bar., Kec. Karangasem, Kabupaten Karangasem, Bali 80811","Jl. Taman Ujung, Seraya Bar., Kec. Karangasem, Kabupaten Karangasem",BALI,80811.0,Indonesia,81288005445.0,,,-8.4633988,115.6319209,https://maps.google.com/?cid=0x0:0x77f99d2b3ea2264d,
mall,Bangunan pusaka,Puri Agung Karangasem,"Jl. Sultan Agung, Karangasem, Kec. Karangasem, Kabupaten Karangasem, Bali 80811","Karangasem, Kec. Karangasem, Kabupaten Karangasem",BALI,80811.0,Indonesia,36321364.0,,,-8.4433268,115.6159111,https://maps.google.com/?cid=0x0:0x4922d87b59173a2f,
mall,Pusat Perbelanjaan,Kymco Tantri SS,"GJP5+6X3, Jl. Achmad Yani, Subagan, Kec. Karangasem, Kabupaten Karangasem, Bali 80811","Jl. Achmad Yani, Subagan, Kec. Karangasem, Kabupaten Karangasem",BALI,80811.0,Indonesia,81338114537.0,,,-8.4644887,115.6099132,https://maps.google.com/?cid=0x0:0x9d63ec057c8bd7ab,
mall,Toko,Aisyah CELL,"GJV8+FPG, Jl. Pesagi, Karangasem, Kec. Karangasem, Kabupaten Karangasem, Bali 80811","Jl. Pesagi, Karangasem, Kec. Karangasem, Kabupaten Karangasem",BALI,80811.0,Indonesia,,,,-8.4563125,115.6168304,https://maps.google.com/?cid=0x0:0x3e418f490d5e6ac2,
mall,Pusat Perbelanjaan,They 'Ang,"GJWM+2J3, Bar., Seraya Bar., Kec. Karangasem, Kabupaten Karangasem, Bali 80811","Bar., Seraya Bar., Kec. Karangasem, Kabupaten Karangasem",BALI,80811.0,Indonesia,85738736288.0,,,-8.4549948,115.6340566,https://maps.google.com/?cid=0x0:0x74fd19ae0cc21cb5,
mall,Pusat Perbelanjaan,Karangasem Gems,"Jl. Nenas No.28, Bungaya Kangin, Kec. Bebandem, Kabupaten Karangasem, Bali 80813","Bungaya Kangin, Kec. Bebandem, Kabupaten Karangasem",BALI,80813.0,Indonesia,81238883936.0,,,-8.4517195,115.5950385,https://maps.google.com/?cid=0x0:0x279dce8c482f2c74,
mall,Butik,Sunrise Outlet Karangasem Subagan,"Jl. Achmad Yani, Subagan, Kec. Karangasem, Kabupaten Karangasem, Bali 80811","Subagan, Kec. Karangasem, Kabupaten Karangasem",BALI,80811.0,Indonesia,82142004254.0,,,-8.4620716,115.6071401,https://maps.google.com/?cid=0x0:0xf5c895822a551c64,
mall,Pusat Perbelanjaan,warung buk sri,"HJ8C+RFQ, Tegallinggah, Kec. Karangasem, Kabupaten Karangasem, Bali 80811","Tegallinggah, Kec. Karangasem, Kabupaten Karangasem",BALI,80811.0,Indonesia,85237755417.0,,,-8.4329136,115.6212432,https://maps.google.com/?cid=0x0:0xf87fa58b3a9f7908,
mall,Toko,KIOS RESTU,"HJ27+7PH, Karangasem, Kec. Karangasem, Kabupaten Karangasem, Bali 80811","Karangasem, Kec. Karangasem, Kabupaten Karangasem",BALI,80811.0,Indonesia,81337321442.0,,,-8.4493218,115.6143547,https://maps.google.com/?cid=0x0:0x7c50675755ccd2e7,
mall,Toko Perlengkapan Rumah,HARSADI FURNITURE  ELEKTRONIK,"HM94+JWX, Seraya, Kec. Karangasem, Kabupaten Karangasem, Bali 80811","Seraya, Kec. Karangasem, Kabupaten Karangasem",BALI,80811.0,Indonesia,85205794561.0,,,-8.430894,115.6573596,https://maps.google.com/?cid=0x0:0x46b4aa6486c4847c,
mall,Pusat Perbelanjaan,Ikan Laut Ujung Pesisi Pak Ramli,"GJMH+VCJ, Tumbu, Kec. Karangasem, Kabupaten Karangasem, Bali 80811","Tumbu, Kec. Karangasem, Kabupaten Karangasem",BALI,80811.0,Indonesia,87762627555.0,,,-8.4652835,115.6285291,https://maps.google.com/?cid=0x0:0x690d7f55dff4efd2,
mall,Pusat Perbelanjaan,Warung,"GJ72+W6G, Pertima, Kec. Karangasem, Kabupaten Karangasem, Bali 80813","Pertima, Kec. Karangasem, Kabupaten Karangasem",BALI,80813.0,Indonesia,85737552749.0,,,-8.4851921,115.6005672,https://maps.google.com/?cid=0x0:0x1d03667baa7d7428,
mall,Pusat Perbelanjaan,Sri Kembang Mart Bugbug,"Jl. Raya Bugbug, Sengkidu, Kec. Manggis, Kabupaten Karangasem, Bali 80811","Sengkidu, Kec. Manggis, Kabupaten Karangasem",BALI,80811.0,Indonesia,82147648981.0,,,-8.4894399,115.5955497,https://maps.google.com/?cid=0x0:0x8d67098b69ef5e2d,
mall,mall,Bali 80811,"Kec. Karangasem, Kabupaten Karangasem, Bali","Kabupaten Karangasem, Bali",BALI,,Indonesia,,,,-8.4497997,115.6273131,https://maps.google.com/?cid=0x0:0x1c00c5eb6016c030,
mall,Pasar,"Pasar Bebandem, Karangasem","HH56+99G, Bebandem, Kec. Bebandem, Kabupaten Karangasem, Bali 80861","Bebandem, Kec. Bebandem, Kabupaten Karangasem",BALI,80861.0,Indonesia,,,,-8.4415741,115.560942,https://maps.google.com/?cid=0x0:0xfa1331784f6d96e6,
mall,Pusat Perbelanjaan,Shopping centre,"Br dinas mumbul, Jungutan, Kec. Bebandem, Kabupaten Karangasem, Bali 80811","Jungutan, Kec. Bebandem, Kabupaten Karangasem",BALI,80811.0,Indonesia,82339592298.0,,,-8.4328914,115.5427268,https://maps.google.com/?cid=0x0:0x6f533a259efbfa5d,
mall,Toko,Family Shop,"Jalan raya Candidasa, Jl. Raya Bugbug Jl. Samuh, Sengkidu, Kec. Manggis, Kabupaten Karangasem, Bali","Kabupaten Karangasem, Bali",BALI,,Indonesia,81916110707.0,,,-8.51074,115.573853,https://maps.google.com/?cid=0x0:0x9ea810912fc8d441,
mall,Pusat Perbelanjaan,Kriya Sandhi,"Jl. Saren Kauh, Budakeling, Kec. Bebandem, Kabupaten Karangasem, Bali 80861","Budakeling, Kec. Bebandem, Kabupaten Karangasem",BALI,80861.0,Indonesia,82144387969.0,,,-8.4339893,115.5748464,https://maps.google.com/?cid=0x0:0xefc92b28aaeb8926,
mall,Kantor Pemerintah,"Kantor Pelayanan Perizinan Terpadu, Kabupaten Karangasem.","GJV4+4H5, Subagan, Kec. Karangasem, Kabupaten Karangasem, Bali 80811","Subagan, Kec. Karangasem, Kabupaten Karangasem",BALI,80811.0,Indonesia,36323564.0,,,-8.457248,115.606499,https://maps.google.com/?cid=0x0:0x5338eace44675b46,
mall,Kantor Pemerintahan Wilayah,Mall Pelayanan Publik Kabupaten Karangasem,"HJ28+FGC, Jl. Gajahmada, Karangasem, Kec. Karangasem, Kabupaten Karangasem, Bali 80811","Jl. Gajahmada, Karangasem, Kec. Karangasem, Kabupaten Karangasem",BALI,80811.0,Indonesia,36321085.0,,,-8.4488092,115.6162774,https://maps.google.com/?cid=0x0:0xeb4ff167563ca4ee,
mall,mall,Bali 80813,"Kec. Karangasem, Kabupaten Karangasem, Bali","Kabupaten Karangasem, Bali",BALI,,Indonesia,,,,-8.4738779,115.6065929,https://maps.google.com/?cid=0x0:0xbeec0d2e7f009819,
mall,Pusat Perbelanjaan,Sri Kembang Mart Bugbug,"Jl. Raya Bugbug, Sengkidu, Kec. Manggis, Kabupaten Karangasem, Bali 80811","Sengkidu, Kec. Manggis, Kabupaten Karangasem",BALI,80811.0,Indonesia,82147648981.0,,,-8.4894399,115.5955497,https://maps.google.com/?cid=0x0:0x8d67098b69ef5e2d,
mall,Pusat Perbelanjaan,Karangasem Gems,"Jl. Nenas No.28, Bungaya Kangin, Kec. Bebandem, Kabupaten Karangasem, Bali 80813","Bungaya Kangin, Kec. Bebandem, Kabupaten Karangasem",BALI,80813.0,Indonesia,81238883936.0,,,-8.4517195,115.5950385,https://maps.google.com/?cid=0x0:0x279dce8c482f2c74,
mall,Pusat Perbelanjaan,Miniso Karangasem,"GJW2+8QQ, Jl. Sudirman, Subagan, Kec. Karangasem, Kabupaten Karangasem, Bali 80811","Jl. Sudirman, Subagan, Kec. Karangasem, Kabupaten Karangasem",BALI,80811.0,Indonesia,85697379524.0,,,-8.4542077,115.6018964,https://maps.google.com/?cid=0x0:0x7cb1ec966121dedb,
mall,Pusat Perbelanjaan,Warung,"GJ72+W6G, Pertima, Kec. Karangasem, Kabupaten Karangasem, Bali 80813","Pertima, Kec. Karangasem, Kabupaten Karangasem",BALI,80813.0,Indonesia,85737552749.0,,,-8.4851921,115.6005672,https://maps.google.com/?cid=0x0:0x1d03667baa7d7428,
mall,Toko Rokok Elektrik,VaporEast Bali,"GJX4+WFJ, Jl. Panglima Besar Sudirman, Subagan, Kec. Karangasem, Kabupaten Karangasem, Bali 80811","Jl. Panglima Besar Sudirman, Subagan, Kec. Karangasem, Kabupaten Karangasem",BALI,80811.0,Indonesia,,,,-8.4501507,115.606127,https://maps.google.com/?cid=0x0:0x9b41c78ce058c73,
mall,Pusat Perbelanjaan,Adi capueng,"GJV8+7C4, Karangasem, Kec. Karangasem, Kabupaten Karangasem, Bali 80811","Karangasem, Kec. Karangasem, Kabupaten Karangasem",BALI,80811.0,Indonesia,83812743038.0,,,-8.4568742,115.6160899,https://maps.google.com/?cid=0x0:0x5343a63e2e621d55,
mall,Butik,Sunrise Outlet Karangasem Subagan,"Jl. Achmad Yani, Subagan, Kec. Karangasem, Kabupaten Karangasem, Bali 80811","Subagan, Kec. Karangasem, Kabupaten Karangasem",BALI,80811.0,Indonesia,82142004254.0,,,-8.4620716,115.6071401,https://maps.google.com/?cid=0x0:0xf5c895822a551c64,
mall,Salon Kecantikan,MS Glow Distributor Karangasem,"GHRW+RW3, Subagan, Kec. Karangasem, Kabupaten Karangasem, Bali 80813","Subagan, Kec. Karangasem, Kabupaten Karangasem",BALI,80813.0,Indonesia,85205111502.0,,,-8.4579788,115.5972832,https://maps.google.com/?cid=0x0:0x6f6924f3b703c09e,
mall,Pusat Perbelanjaan,Shinshop08,"BTN Taman Asri D43, Subagan, Kec. Karangasem, Kabupaten Karangasem, Bali 80811","Subagan, Kec. Karangasem, Kabupaten Karangasem",BALI,80811.0,Indonesia,82247590420.0,,,-8.454224,115.6037018,https://maps.google.com/?cid=0x0:0xad01b32e83dd7be5,
mall,Pusat Perbelanjaan,Kymco Tantri SS,"GJP5+6X3, Jl. Achmad Yani, Subagan, Kec. Karangasem, Kabupaten Karangasem, Bali 80811","Jl. Achmad Yani, Subagan, Kec. Karangasem, Kabupaten Karangasem",BALI,80811.0,Indonesia,81338114537.0,,,-8.4644887,115.6099132,https://maps.google.com/?cid=0x0:0x9d63ec057c8bd7ab,
mall,Pusat Perbelanjaan,Toko Maysha,"GHWW+CRQ, Jl. Patimura, Subagan, Kec. Karangasem, Kabupaten Karangasem, Bali 80813","Jl. Patimura, Subagan, Kec. Karangasem, Kabupaten Karangasem",BALI,80813.0,Indonesia,,,,-8.4539061,115.5971167,https://maps.google.com/?cid=0x0:0x2cb875cbd533d64a,
mall,Pusat Perbelanjaan,Wr.Poglo,"GHQW+VQQ, Jl. Salak, Subagan, Kec. Karangasem, Kabupaten Karangasem, Bali 80813","Jl. Salak, Subagan, Kec. Karangasem, Kabupaten Karangasem",BALI,80813.0,Indonesia,,,,-8.4602948,115.5969799,https://maps.google.com/?cid=0x0:0x1741414bc001aae5,
mall,Pusat Perbelanjaan,Golden Store,"Jl. Lettu Alit No.77x, Tampuagan, Kec. Karangasem, Kabupaten Karangasem, Bali 80811","Tampuagan, Kec. Karangasem, Kabupaten Karangasem",BALI,80811.0,Indonesia,81246583832.0,,,-8.4456573,115.6138766,https://maps.google.com/?cid=0x0:0xa0d02974ed1d86ca,
mall,Pusat Perbelanjaan,TOKO SAYUR BALAP,"GHVX+G6H, Jl. KH Samanhudi, Subagan, Kec. Karangasem, Kabupaten Karangasem, Bali","Kabupaten Karangasem, Bali",BALI,,Indonesia,,,,-8.4562,115.5980949,https://maps.google.com/?cid=0x0:0x20e0b7dff8c2f9f7,
mall,Pembangunan Perumahan,Artasedana Amlapura,"Jl. Diponegoro No.14x, Karangasem, Kec. Karangasem, Kabupaten Karangasem, Bali 80811","Karangasem, Kec. Karangasem, Kabupaten Karangasem",BALI,80811.0,Indonesia,87743224484.0,,,-8.4467079,115.6137486,https://maps.google.com/?cid=0x0:0x6237d8edacc47291,
mall,Pembangunan Perumahan,Lionk sangkar,"Jl. Raya Perasi, Subagan, Kec. Karangasem, Kabupaten Karangasem, Bali 80813","Subagan, Kec. Karangasem, Kabupaten Karangasem",BALI,80813.0,Indonesia,81246414331.0,,,-8.4775665,115.6150447,https://maps.google.com/?cid=0x0:0x5fa380df29b9924e,
mall,Bengkel Sepeda Motor,SRIKANDI MOTOR,"Jl. KH Samanhudi No.20, Subagan, Kec. Karangasem, Kabupaten Karangasem, Bali 80811","Subagan, Kec. Karangasem, Kabupaten Karangasem",BALI,80811.0,Indonesia,,,,-8.4552807,115.5994174,https://maps.google.com/?cid=0x0:0xd7ad7524988646c7,
mall,Toko Buah dan Sayuran,Sekar buah (1),"GHVP+W7F, Bungaya Kangin, Kec. Bebandem, Kabupaten Karangasem, Bali 80861","Bungaya Kangin, Kec. Bebandem, Kabupaten Karangasem",BALI,80861.0,Indonesia,81936292120.0,,,-8.4551941,115.5856642,https://maps.google.com/?cid=0x0:0x13a4cf56513de087,
mall,mall,Kubu,"Kubu, Kec. Kubu, Kabupaten Karangasem, Bali","Kabupaten Karangasem, Bali",BALI,,Indonesia,,,,-8.25944,115.566002,https://maps.google.com/?cid=0x0:0x7361d170964b4850,
mall,Toko,Kubu Renten,"Banjar Merajan, Seraya Bar., 80811, Seraya Bar., Kec. Karangasem, Kabupaten Karangasem, Bali 80811","Seraya Bar.,",BALI,80811.0,Indonesia,85221251494.0,,,-8.4518051,115.6368642,https://maps.google.com/?cid=0x0:0xa5e9499df8e27385,
mall,Pusat Perbelanjaan,Dd Colection,"QGGG+5QC, Sukadana, Kec. Kubu, Kabupaten Karangasem, Bali 80853","Sukadana, Kec. Kubu, Kabupaten Karangasem",BALI,80853.0,Indonesia,85739336759.0,,,-8.2245689,115.5268903,https://maps.google.com/?cid=0x0:0x409ac2eb8be60bf5,
mall,Pusat Perbelanjaan,KUBU HANDYCRAFT BALI,"RF2P+GMG, Tianyar Tengah, Kec. Kubu, Kabupaten Karangasem, Bali 80853","Tianyar Tengah, Kec. Kubu, Kabupaten Karangasem",BALI,80853.0,Indonesia,81936444113.0,,,-8.1986977,115.486718,https://maps.google.com/?cid=0x0:0x4a978e981b5742de,
mall,Pusat Perbelanjaan,Wpdcollection,"QGMC+3QQ, Sukadana, Kec. Kubu, Kabupaten Karangasem, Bali 80853","Sukadana, Kec. Kubu, Kabupaten Karangasem",BALI,80853.0,Indonesia,85739895806.0,,,-8.2172965,115.5219973,https://maps.google.com/?cid=0x0:0x76993dbb64a8f9d4,
mall,Pura,Pura Sahbandar Kauh,"QGHP+X5V, Sukadana, Kec. Kubu, Kabupaten Karangasem, Bali 80853","Sukadana, Kec. Kubu, Kabupaten Karangasem",BALI,80853.0,Indonesia,,,,-8.2200191,115.5354228,https://maps.google.com/?cid=0x0:0x198de863d412b4b4,
mall,Tempat Cukur Rambut,d'war babershop,"PHPJ+PWC, Jl. Kubu, Tulamben, Kec. Kubu, Kabupaten Karangasem, Bali 80853","Jl. Kubu, Tulamben, Kec. Kubu, Kabupaten Karangasem",BALI,80853.0,Indonesia,85238243653.0,,,-8.2631842,115.5822549,https://maps.google.com/?cid=0x0:0x54add82b7392b53,
mall,Toko,Warung Bagus,"Jl. Kubu, Sukadana, Kec. Kubu, Kabupaten Karangasem, Bali 80853","Sukadana, Kec. Kubu, Kabupaten Karangasem",BALI,80853.0,Indonesia,81236294056.0,,,-8.2278327,115.5445337,https://maps.google.com/?cid=0x0:0xe343b5a7cf7ceee5,
mall,Toko bahan makanan,Warung Meme Kubu,"Sungai Sigajah, Kubu, Kabupaten Rokan Hilir, Riau 28991","Kubu, Kabupaten Rokan Hilir",BALI,28991.0,Indonesia,82384803617.0,,,2.0716354,100.6016008,https://maps.google.com/?cid=0x0:0xa544adb44ac79721,
mall,Pusat Perbelanjaan,Pasar Tradisional Kubu/Kuba,"3J2F+963, Jalan Jenderal Sudirman,, Rantau Panjang Kiri, Kubu, Kabupaten Rokan Hilir, Riau 28991","Jalan Jenderal Sudirman,, Rantau Panjang Kiri, Kubu, Kabupaten Rokan Hilir",BALI,28991.0,Indonesia,,,,2.0508885,100.6230578,https://maps.google.com/?cid=0x0:0x128dc9b64873ff9d,
mall,Layanan Transfer Uang,Mirzacom,"3J4C+6QC, Sungai Kubu, Kubu, Kabupaten Rokan Hilir, Riau 28991","Sungai Kubu, Kubu, Kabupaten Rokan Hilir",BALI,28991.0,Indonesia,81276721362.0,,,2.0555641,100.6218892,https://maps.google.com/?cid=0x0:0xaab714ec9dc96a3,
mall,Pusat Perbelanjaan,Simpang Pelita,"2JPH+QRR, Simpang Pelita, Sungai Majo, Kubu, Rokan Hilir Regency, Riau 28991","Simpang Pelita, Sungai Majo, Kubu, Rokan Hilir Regency",BALI,28991.0,Indonesia,,,,2.0369998,100.6295112,https://maps.google.com/?cid=0x0:0x76b8f74e054a68a5,
mall,Pusat Perbelanjaan,Pasar PU,"3MQ2+HRJ, Jl.PU Desa Tanjung Lumba Lumba, Tlk. Merbau, Kubu, Kabupaten Rokan Hilir, Riau 28991","Jl.PU Desa Tanjung Lumba Lumba, Tlk. Merbau, Kubu, Kabupaten Rokan Hilir",BALI,28991.0,Indonesia,,,,2.0889728,100.6520112,https://maps.google.com/?cid=0x0:0xbc45e2a80892b321,
mall,Toko Ponsel,Cafe Ponsel,"2JPH+QRR, Simpang Pelita, Sungai Majo, Kec. Kubu Babussalam, Kabupaten Rokan Hilir, Riau 28991","Simpang Pelita, Sungai Majo, Kec. Kubu Babussalam, Kabupaten Rokan Hilir",BALI,28991.0,Indonesia,85272293272.0,,,2.0369998,100.6295112,https://maps.google.com/?cid=0x0:0x4133e3555bafa0ff,
mall,mall,Toko kubu jaya,"2JPJ+335, Sungai Majo, Kubu, Kabupaten Rokan Hilir, Riau 28991","Sungai Majo, Kubu, Kabupaten Rokan Hilir",BALI,28991.0,Indonesia,,,,2.0351468,100.6302399,https://maps.google.com/?cid=0x0:0xd1f5eb0a8c9c5d7,
mall,Pusat Perbelanjaan,KEDAI SAMSIDAR,"Jl. Jend. Sudirman, Tlk. Merbau, Kubu, Kabupaten Rokan Hilir, Riau 28991","Tlk. Merbau, Kubu, Kabupaten Rokan Hilir",BALI,28991.0,Indonesia,81261546365.0,,,2.0699675,100.6330725,https://maps.google.com/?cid=0x0:0x913b8b6a3b090ac4,
mall,Toko Fotokopi,Foto Copy  Pembayaran Online,"Simpang Pelita, Rantau Panjang Kiri, Kubu, Kabupaten Rokan Hilir, Riau 28991","Rantau Panjang Kiri, Kubu, Kabupaten Rokan Hilir",BALI,28991.0,Indonesia,,,,2.0444885,100.6279837,https://maps.google.com/?cid=0x0:0x5fbc87879a35a2b1,
mall,Pusat Perbelanjaan,Kedai Anik,"2J3F+363, Tlk. Nilap, Kec. Kubu Babussalam, Kabupaten Rokan Hilir, Riau 28991","Tlk. Nilap, Kec. Kubu Babussalam, Kabupaten Rokan Hilir",BALI,28991.0,Indonesia,,,,2.0026346,100.6230467,https://maps.google.com/?cid=0x0:0xb85540fe49b69207,
mall,Pusat Perbelanjaan,Pasar Tradisional,"2JPH+QRR, Simpang Pelita, Sungai Majo, Kubu, Rokan Hilir Regency, Riau 28991","Simpang Pelita, Sungai Majo, Kubu, Rokan Hilir Regency",BALI,28991.0,Indonesia,,,,2.0369998,100.6295112,https://maps.google.com/?cid=0x0:0x6eb4b8a6da68b9ab,
mall,Pusat Perbelanjaan,Kedai Arfa  Azzura,"4G9J+W4, Tlk. Piyai, Kubu, Kabupaten Rokan Hilir, Riau 28991","Tlk. Piyai, Kubu, Kabupaten Rokan Hilir",BALI,28991.0,Indonesia,,,,2.119848,100.530317,https://maps.google.com/?cid=0x0:0x975cfca5aa424bc9,
mall,Toko Pakaian,Zona Olshop,"2J5P+PR5, Tlk. Nilap, Kec. Kubu Babussalam, Kabupaten Rokan Hilir, Riau 28991","Tlk. Nilap, Kec. Kubu Babussalam, Kabupaten Rokan Hilir",BALI,28991.0,Indonesia,,,,2.0093176,100.6371344,https://maps.google.com/?cid=0x0:0x7173ae691ca5bb5a,
mall,Pusat Perbelanjaan,Kedai mara,"3J8H+4JC, Rantau Panjang Kanan, Kubu, Kabupaten Rokan Hilir, Riau 28991","Rantau Panjang Kanan, Kubu, Kabupaten Rokan Hilir",BALI,28991.0,Indonesia,,,,2.0653119,100.6290066,https://maps.google.com/?cid=0x0:0x37fc188634a65417,
mall,Pusat Perbelanjaan,Toko depa,"Unnamed Road, Tlk. Piyai, Kubu, Kabupaten Rokan Hilir, Riau 28991","Tlk. Piyai, Kubu, Kabupaten Rokan Hilir",BALI,28991.0,Indonesia,85339358047.0,,,2.0925669,100.636798,https://maps.google.com/?cid=0x0:0x30818d0834a3c5d1,
mall,Pusat Perbelanjaan,Pekan senin pelita,"2JXF+WHX, Simpang Pelita, Rantau Panjang Kiri, Kubu, Rokan Hilir Regency, Riau 28991","Simpang Pelita, Rantau Panjang Kiri, Kubu, Rokan Hilir Regency",BALI,28991.0,Indonesia,,,,2.0498666,100.6239788,https://maps.google.com/?cid=0x0:0xa7ab9edc713424c3,
mall,Toko,Warung Bg Tompul,"XFWJ+MM3, Tlk., Tlk. Nilap, Kubu, Kabupaten Rokan Hilir, Riau 28991","Tlk., Tlk. Nilap, Kubu, Kabupaten Rokan Hilir",BALI,28991.0,Indonesia,81290381502.0,,,1.9966254,100.4816703,https://maps.google.com/?cid=0x0:0xd0f175bca90a398c,
mall,Toko bahan makanan,Toko nia,"2JMJ+77W, Simpang Pelita, Sungai Majo, Kubu, Kabupaten Rokan Hilir, Riau 28991","Simpang Pelita, Sungai Majo, Kubu, Kabupaten Rokan Hilir",BALI,28991.0,Indonesia,85363776822.0,,,2.0332368,100.6307105,https://maps.google.com/?cid=0x0:0x6ac9f7ad415aef40,
mall,Toko,Fatimah Celuler,"Jln LINTAS PU, Tlk. Piyai, Kubu, Kabupaten Rokan Hilir, Riau 28991","Tlk. Piyai, Kubu, Kabupaten Rokan Hilir",BALI,28991.0,Indonesia,,,,2.0975893,100.6224002,https://maps.google.com/?cid=0x0:0xea0c7ac93d557faf,
mall,Toko Ponsel,RA CELLULER - AGEN PULSA DAN KUOTA,"2JGJ+P6Q, Tlk. Nilap, Kubu, Kabupaten Rokan Hilir, Riau 28991","Tlk. Nilap, Kubu, Kabupaten Rokan Hilir",BALI,28991.0,Indonesia,83191097461.0,,,2.026847,100.6306186,https://maps.google.com/?cid=0x0:0xe95ffbbdd53ace0d,
mall,Toko umum,RUMAH SARDA,"GJXV+7W, Seraya Bar., Kec. Karangasem, Kabupaten Karangasem, Bali","Kabupaten Karangasem, Bali",BALI,,Indonesia,,,,-8.4518447,115.6447654,https://maps.google.com/?cid=0x0:0xd7074ad1830c3222,
mall,Toko,Kubu Renten,"Banjar Merajan, Seraya Bar., 80811, Seraya Bar., Kec. Karangasem, Kabupaten Karangasem, Bali 80811","Seraya Bar.,",BALI,80811.0,Indonesia,85221251494.0,,,-8.4518051,115.6368642,https://maps.google.com/?cid=0x0:0xa5e9499df8e27385,
mall,Pusat Perbelanjaan,Wpdcollection,"QGMC+3QQ, Sukadana, Kec. Kubu, Kabupaten Karangasem, Bali 80853","Sukadana, Kec. Kubu, Kabupaten Karangasem",BALI,80853.0,Indonesia,85739895806.0,,,-8.2172965,115.5219973,https://maps.google.com/?cid=0x0:0x76993dbb64a8f9d4,
mall,mall,Kubu,"Kubu, Kec. Kubu, Kabupaten Karangasem, Bali","Kabupaten Karangasem, Bali",BALI,,Indonesia,,,,-8.25944,115.566002,https://maps.google.com/?cid=0x0:0x7361d170964b4850,
mall,Pusat Perbelanjaan,M.Pulsa Wiarta,"PH63+2X2, Dukuh, Kec. Kubu, Kabupaten Karangasem, Bali 80853","Dukuh, Kec. Kubu, Kabupaten Karangasem",BALI,80853.0,Indonesia,81338141766.0,,,-8.2899968,115.5548972,https://maps.google.com/?cid=0x0:0x943152bf6c0940b7,
mall,Toko,Warung Bagus,"Jl. Kubu, Sukadana, Kec. Kubu, Kabupaten Karangasem, Bali 80853","Sukadana, Kec. Kubu, Kabupaten Karangasem",BALI,80853.0,Indonesia,81236294056.0,,,-8.2278327,115.5445337,https://maps.google.com/?cid=0x0:0xe343b5a7cf7ceee5,
mall,Pura,Pura Sahbandar Kauh,"QGHP+X5V, Sukadana, Kec. Kubu, Kabupaten Karangasem, Bali 80853","Sukadana, Kec. Kubu, Kabupaten Karangasem",BALI,80853.0,Indonesia,,,,-8.2200191,115.5354228,https://maps.google.com/?cid=0x0:0x198de863d412b4b4,
mall,Pusat Perbelanjaan,JAYA BABERSHOP,"QGQ2+M96, Unnamed Road, Tianyar, Kec. Kubu, Kabupaten Karangasem, Bali 80853","Unnamed Road, Tianyar, Kec. Kubu, Kabupaten Karangasem",BALI,80853.0,Indonesia,85339447407.0,,,-8.21085,115.5009,https://maps.google.com/?cid=0x0:0xa8cb87f60662733,
mall,Pusat Perbelanjaan,Dd Colection,"QGGG+5QC, Sukadana, Kec. Kubu, Kabupaten Karangasem, Bali 80853","Sukadana, Kec. Kubu, Kabupaten Karangasem",BALI,80853.0,Indonesia,85739336759.0,,,-8.2245689,115.5268903,https://maps.google.com/?cid=0x0:0x409ac2eb8be60bf5,
mall,Tempat Cukur Rambut,d'war babershop,"PHPJ+PWC, Jl. Kubu, Tulamben, Kec. Kubu, Kabupaten Karangasem, Bali 80853","Jl. Kubu, Tulamben, Kec. Kubu, Kabupaten Karangasem",BALI,80853.0,Indonesia,85238243653.0,,,-8.2631842,115.5822549,https://maps.google.com/?cid=0x0:0x54add82b7392b53,
mall,Grosir,Toko Bintang,"PHQJ+76P, Tulamben, Kec. Kubu, Kabupaten Karangasem, Bali 80853","Tulamben, Kec. Kubu, Kabupaten Karangasem",BALI,80853.0,Indonesia,81775058089.0,,,-8.2617963,115.5805911,https://maps.google.com/?cid=0x0:0x30169277ea8913ea,
mall,Toko Ikan,Ikan segar,"QGX3+M22, Tianyar, Kec. Kubu, Kabupaten Karangasem, Bali 80853","Tianyar, Kec. Kubu, Kabupaten Karangasem",BALI,80853.0,Indonesia,81337357411.0,,,-8.200863,115.5025245,https://maps.google.com/?cid=0x0:0x2167ac5ac1cd724e,
mall,Toko,Pa Gitar Corp.,"PHQJ+7F9, Tulamben, Kec. Kubu, Kabupaten Karangasem, Bali 80853","Tulamben, Kec. Kubu, Kabupaten Karangasem",BALI,80853.0,Indonesia,,,,-8.2618361,115.5812339,https://maps.google.com/?cid=0x0:0xcfa393028c5f5e2a,
mall,Toko,Wayan Mini Mart,"PJ63+GQW, Jalan, Tulamben, Kubu, Karangasem Regency, Bali 80852","Jalan, Tulamben, Kubu, Karangasem Regency",BALI,80852.0,Indonesia,87762921904.0,,,-8.2886424,115.6044563,https://maps.google.com/?cid=0x0:0x37eb458cbc1ef2fe,
mall,Toko,UD arya pradita,"PHMM+6VM, Jalan, Tulamben, Kubu, Karangasem Regency, Bali 80853","Jalan, Tulamben, Kubu, Karangasem Regency",BALI,80853.0,Indonesia,8174771635.0,,,-8.2669176,115.5846631,https://maps.google.com/?cid=0x0:0xf829d8484484e582,
mall,Pusat Perbelanjaan,IDF TULAMBEN,"PHFR+V4V, Tulamben, Kec. Kubu, Kabupaten Karangasem, Bali","Kabupaten Karangasem, Bali",BALI,,Indonesia,,,,-8.2752682,115.590282,https://maps.google.com/?cid=0x0:0x6f0fbcb144354c4f,
mall,Perhimpunan Pengembang Perumahan,Rumah nyoman cikre kubring,"QG9R+FGV, Tigaron kangin, Sukadana, Kec. Kubu, Kabupaten Karangasem, Bali 80853","Tigaron kangin, Sukadana, Kec. Kubu, Kabupaten Karangasem",BALI,80853.0,Indonesia,,,,-8.2312601,115.5413057,https://maps.google.com/?cid=0x0:0x965e628c2a776c01,
mall,Toko Perlengkapan Rumah,Bangunan Dan Dekorasi Pernikahan,"RF5C+6JW, Muntigunung, Tianyar Bar., Kec. Kubu, Kabupaten Karangasem, Bali 80853","Muntigunung, Tianyar Bar., Kec. Kubu, Kabupaten Karangasem",BALI,80853.0,Indonesia,82145212772.0,,,-8.1918875,115.4715657,https://maps.google.com/?cid=0x0:0xf6c172acb4c1b5a,
mall,Toko Suvenir,CEMPAKA SHOP,"Jl. Bukit Catu, Tianyar Bar., Kec. Kubu, Kabupaten Karangasem, Bali 80853","Tianyar Bar., Kec. Kubu, Kabupaten Karangasem",BALI,80853.0,Indonesia,85737123931.0,,,-8.1972332,115.4667855,https://maps.google.com/?cid=0x0:0xf8539ddbff6c626d,
mall,Pusat Perbelanjaan,Sinx Te Monx Shop,"RF2X+3GP, Jl. Tejakula - Tianyar, Tianyar, Kec. Kubu, Kabupaten Karangasem, Bali 80853","Jl. Tejakula - Tianyar, Tianyar, Kec. Kubu, Kabupaten Karangasem",BALI,80853.0,Indonesia,87861393372.0,,,-8.1997886,115.4988262,https://maps.google.com/?cid=0x0:0xe401ef66555ae6fb,
mall,Pusat Perbelanjaan,Home Twin Collection,"MHHR+QWC, Banjar Dinas Muntig, Tulamben, Kec. Kubu, Kabupaten Karangasem, Bali 80852","Banjar Dinas Muntig, Tulamben, Kec. Kubu, Kabupaten Karangasem",BALI,80852.0,Indonesia,85792269589.0,,,-8.3205534,115.5922698,https://maps.google.com/?cid=0x0:0x6a43970321b6287a,
mall,mall,Kubu,"Kubu, Kec. Kubu, Kabupaten Kubu Raya, Kalimantan Barat","Kabupaten Kubu Raya, Kalimantan Barat",BALI,,Indonesia,,,,-0.483762,109.378899,https://maps.google.com/?cid=0x0:0x3198742738a7ec1b,
mall,Pusat Hiburan Anak-Anak,Transmart,"Jl. Jenderal Jl. Ahmad Yani II No.2, Raya River, Kubu Raya Regency, West Kalimantan 78391","Raya River, Kubu Raya Regency",BALI,78391.0,Indonesia,82251770588.0,,,-0.0774266,109.3675239,https://maps.google.com/?cid=0x0:0x8199e266e317dde4,
mall,Mal outlet,Ayani Megamall,"Jl. Jenderal Ahmad Yani No.4, Parit Tokaya, Kec. Pontianak Sel., Kota Pontianak, Kalimantan Barat 78113","Parit Tokaya, Kec. Pontianak Sel., Kota Pontianak",BALI,78113.0,Indonesia,561763888.0,,,-0.051244,109.345662,https://maps.google.com/?cid=0x0:0x5217d4caea80b3d0,
mall,mall,BerkahJayaPart,"Unnamed Road Gg. Mandiri 4 No.46, Sungai Raya, Kec. Sungai Raya, Kabupaten Kubu Raya, Kalimantan Barat 78233","Sungai Raya, Kec. Sungai Raya, Kabupaten Kubu Raya",BALI,78233.0,Indonesia,81348722900.0,,,-0.1052834,109.399993,https://maps.google.com/?cid=0x0:0x2c11ddcb0f0da246,
mall,Pusat Perbelanjaan,Alfa Tpi Kubu Raya,"X7V9+MQ3, Jl. Pramuka, Sungai Rengas, Kec. Sungai Kakap, Kabupaten Kubu Raya, Kalimantan Barat 78381","Jl. Pramuka, Sungai Rengas, Kec. Sungai Kakap, Kabupaten Kubu Raya",BALI,78381.0,Indonesia,,,,-0.0058507,109.2694184,https://maps.google.com/?cid=0x0:0xddedc4320ba7e08a,
mall,Pusat Perbelanjaan,KUBU HANDYCRAFT BALI,"RF2P+GMG, Tianyar Tengah, Kec. Kubu, Kabupaten Karangasem, Bali 80853","Tianyar Tengah, Kec. Kubu, Kabupaten Karangasem",BALI,80853.0,Indonesia,81936444113.0,,,-8.1986977,115.486718,https://maps.google.com/?cid=0x0:0x4a978e981b5742de,
mall,mall,Kubu,"Kubu, Kec. Kubu, Kabupaten Karangasem, Bali","Kabupaten Karangasem, Bali",BALI,,Indonesia,,,,-8.25944,115.566002,https://maps.google.com/?cid=0x0:0x7361d170964b4850,
mall,Toko,Kubu Renten,"Banjar Merajan, Seraya Bar., 80811, Seraya Bar., Kec. Karangasem, Kabupaten Karangasem, Bali 80811","Seraya Bar.,",BALI,80811.0,Indonesia,85221251494.0,,,-8.4518051,115.6368642,https://maps.google.com/?cid=0x0:0xa5e9499df8e27385,
mall,Pura,Pura Sahbandar Kauh,"QGHP+X5V, Sukadana, Kec. Kubu, Kabupaten Karangasem, Bali 80853","Sukadana, Kec. Kubu, Kabupaten Karangasem",BALI,80853.0,Indonesia,,,,-8.2200191,115.5354228,https://maps.google.com/?cid=0x0:0x198de863d412b4b4,
mall,Grosir,Toko Bintang,"PHQJ+76P, Tulamben, Kec. Kubu, Kabupaten Karangasem, Bali 80853","Tulamben, Kec. Kubu, Kabupaten Karangasem",BALI,80853.0,Indonesia,81775058089.0,,,-8.2617963,115.5805911,https://maps.google.com/?cid=0x0:0x30169277ea8913ea,
mall,Pusat Perbelanjaan,Dd Colection,"QGGG+5QC, Sukadana, Kec. Kubu, Kabupaten Karangasem, Bali 80853","Sukadana, Kec. Kubu, Kabupaten Karangasem",BALI,80853.0,Indonesia,85739336759.0,,,-8.2245689,115.5268903,https://maps.google.com/?cid=0x0:0x409ac2eb8be60bf5,
mall,Tempat Cukur Rambut,d'war babershop,"PHPJ+PWC, Jl. Kubu, Tulamben, Kec. Kubu, Kabupaten Karangasem, Bali 80853","Jl. Kubu, Tulamben, Kec. Kubu, Kabupaten Karangasem",BALI,80853.0,Indonesia,85238243653.0,,,-8.2631842,115.5822549,https://maps.google.com/?cid=0x0:0x54add82b7392b53,
mall,Pusat Perbelanjaan,Home Twin Collection,"MHHR+QWC, Banjar Dinas Muntig, Tulamben, Kec. Kubu, Kabupaten Karangasem, Bali 80852","Banjar Dinas Muntig, Tulamben, Kec. Kubu, Kabupaten Karangasem",BALI,80852.0,Indonesia,85792269589.0,,,-8.3205534,115.5922698,https://maps.google.com/?cid=0x0:0x6a43970321b6287a,
mall,Toko umum,RUMAH SARDA,"GJXV+7W, Seraya Bar., Kec. Karangasem, Kabupaten Karangasem, Bali","Kabupaten Karangasem, Bali",BALI,,Indonesia,,,,-8.4518447,115.6447654,https://maps.google.com/?cid=0x0:0xd7074ad1830c3222,
mall,mall,Pebble  Fins (Bali Kubu),"Samping Pura Dalem Kubu Jl. Pura Dalem, Kubu, Kec. Kubu, Kabupaten Karangasem, Bali 80853","Kubu, Kec. Kubu, Kabupaten Karangasem",BALI,80853.0,Indonesia,85738918262.0,,,-8.252066,115.5767308,https://maps.google.com/?cid=0x0:0xa2c687ef0a5ce1bc,
mall,mall,Kubu,"Kubu, Kec. Kubu, Kabupaten Karangasem, Bali","Kabupaten Karangasem, Bali",BALI,,Indonesia,,,,-8.25944,115.566002,https://maps.google.com/?cid=0x0:0x7361d170964b4850,
mall,Toko,Kubu Renten,"Banjar Merajan, Seraya Bar., 80811, Seraya Bar., Kec. Karangasem, Kabupaten Karangasem, Bali 80811","Seraya Bar.,",BALI,80811.0,Indonesia,85221251494.0,,,-8.4518051,115.6368642,https://maps.google.com/?cid=0x0:0xa5e9499df8e27385,
mall,mall,Papua 99562,"Kabupaten Tolikara, Papua","Kabupaten Tolikara, Papua",BALI,,Indonesia,,,,-3.576543,138.5187229,https://maps.google.com/?cid=0x0:0xba78f888ca44ae7d,
mall,mall,Manggis,"Manggis, Kec. Manggis, Kabupaten Karangasem, Bali","Kabupaten Karangasem, Bali",BALI,,Indonesia,,,,-8.492179,115.5252,https://maps.google.com/?cid=0x0:0xe8cfc3ff76ecc7c4,
mall,Toko Ponsel,Toko Widia,"FF9W+89Q, Jl. Raya Padang Bai, Antiga, Kec. Manggis, Kabupaten Karangasem, Bali 80871","Jl. Raya Padang Bai, Antiga, Kec. Manggis, Kabupaten Karangasem",BALI,80871.0,Indonesia,,,,-8.5316605,115.4959835,https://maps.google.com/?cid=0x0:0x90743e24111bcf99,
mall,mall,Jl Raya Apit Yeh No 100 www DA Apit Yeh Manggis Karangasem Bali,"Jl. Raya Manggis, Apit Yeh, Kec. Manggis, Kabupaten Karangasem, Bali 80871","Apit Yeh, Kec. Manggis, Kabupaten Karangasem",BALI,80871.0,Indonesia,,,,-8.4860693,115.5318988,https://maps.google.com/?cid=0x0:0x4804e44576df7339,
mall,Pusat Perbelanjaan,1221 Shop,"GF3P+64V, Jl. Gegelang, Antiga, Kec. Manggis, Kabupaten Karangasem, Bali 80871","Jl. Gegelang, Antiga, Kec. Manggis, Kabupaten Karangasem",BALI,80871.0,Indonesia,8114481221.0,,,-8.4968754,115.4852983,https://maps.google.com/?cid=0x0:0x2ef59889983696c1,
mall,mall,Bali 80863,"Kec. Rendang, Kabupaten Karangasem, Bali","Kabupaten Karangasem, Bali",BALI,,Indonesia,,,,-8.3623262,115.4378152,https://maps.google.com/?cid=0x0:0x1c00c5eb6016c0a0,
mall,Toko,RENDANG CELLULAR,"Jl. Gn. Agung Besakih, Rendang, Kec. Rendang, Kabupaten Karangasem, Bali 80863","Rendang, Kec. Rendang, Kabupaten Karangasem",BALI,80863.0,Indonesia,82146121659.0,,,-8.4261744,115.4190461,https://maps.google.com/?cid=0x0:0xf18d7893c214cc72,
mall,Komplek perumahan,Rendang Rock Village,"HCCH+GPV, Jl. Ksatria, Rendang, Kec. Rendang, Kabupaten Karangasem, Bali 80863","Jl. Ksatria, Rendang, Kec. Rendang, Kabupaten Karangasem",BALI,80863.0,Indonesia,,,,-8.428635,115.4292922,https://maps.google.com/?cid=0x0:0xfd4fe7d6aadffe67,
mall,Pusat Perbelanjaan,"Yuasa Outlet, Rendang, UD. Surya Madhu","HC78+C99, Jl. Raya Besakih, Nongan, Kec. Rendang, Kabupaten Karangasem, Bali 80863","Jl. Raya Besakih, Nongan, Kec. Rendang, Kabupaten Karangasem",BALI,80863.0,Indonesia,,,,-8.4364682,115.4159799,https://maps.google.com/?cid=0x0:0x33edf1b208519b95,
mall,Toko,Warung Pempatan,"JCHC+M2V, Jl. Ps. Hewan Besakih, Pempatan, Kec. Rendang, Kabupaten Karangasem, Bali 80863","Jl. Ps. Hewan Besakih, Pempatan, Kec. Rendang, Kabupaten Karangasem",BALI,80863.0,Indonesia,,,,-8.3707707,115.4200492,https://maps.google.com/?cid=0x0:0xd21e3950b0aff320,
mall,mall,Kec. Rendang,"Kabupaten Karangasem, Bali","Kabupaten Karangasem, Bali",BALI,,Indonesia,,,,-8.4107787,115.4213543,https://maps.google.com/?cid=0x0:0x4030bfbca7d2dd0,
mall,Minimarket,Cahaya Wirama II Menanga,"HCPC+5F6, Menanga, Kec. Rendang, Kabupaten Karangasem, Bali 80863","Menanga, Kec. Rendang, Kabupaten Karangasem",BALI,80863.0,Indonesia,,,,-8.4145815,115.4211545,https://maps.google.com/?cid=0x0:0xadc8786a136719da,
mall,Pusat Perbelanjaan,NONGAN FOOD CENTER,"HC26+HFC, Nongan, Kec. Rendang, Kabupaten Karangasem, Bali 80863","Nongan, Kec. Rendang, Kabupaten Karangasem",BALI,80863.0,Indonesia,,,,-8.4485671,115.4111282,https://maps.google.com/?cid=0x0:0x7b38ab966a233f8f,
mall,Pujasera,PASAR SENGGOL DESA PAKRAMAN NONGAN,"HC26+GCX, WANTILAN DESA PAKRAMAN NONGAN, Nongan, Kec. Rendang, Kabupaten Karangasem, Bali 80863","WANTILAN DESA PAKRAMAN NONGAN, Nongan, Kec. Rendang, Kabupaten Karangasem",BALI,80863.0,Indonesia,,,,-8.4486294,115.4111077,https://maps.google.com/?cid=0x0:0x1746720c7998589,
mall,mall,Rendang,"Kec. Rendang, Kabupaten Karangasem, Bali","Kabupaten Karangasem, Bali",BALI,,Indonesia,,,,-8.4308548,115.4289294,https://maps.google.com/?cid=0x0:0x5030bfbca831610,
mall,Toko,Toko Bagus,"HCGC+829, Jl. Gn. Agung Besakih, Rendang, Kec. Rendang, Kabupaten Karangasem, Bali 80863","Jl. Gn. Agung Besakih, Rendang, Kec. Rendang, Kabupaten Karangasem",BALI,80863.0,Indonesia,,,,-8.4242012,115.4200985,https://maps.google.com/?cid=0x0:0x4100f1907397b210,
mall,Pusat Perbelanjaan,Parkir Pura Batu Madeg,"JFH2+4RH, Pempatan, Kec. Rendang, Kabupaten Karangasem, Bali 80863","Pempatan, Kec. Rendang, Kabupaten Karangasem",BALI,80863.0,Indonesia,,,,-8.3721988,115.4521157,https://maps.google.com/?cid=0x0:0x25b696f768e251b7,
mall,Pusat Perbelanjaan,Cik Bonsai,"HCP9+423, Rendang, Kec. Rendang, Kabupaten Karangasem, Bali 80863","Rendang, Kec. Rendang, Kabupaten Karangasem",BALI,80863.0,Indonesia,85238613994.0,,,-8.4147319,115.4175558,https://maps.google.com/?cid=0x0:0xcaa6492769abdb2b,
mall,Toko,Yan Tejha,"JCXM+W59, Pempatan, Kec. Rendang, Kabupaten Karangasem, Bali 80863","Pempatan, Kec. Rendang, Kabupaten Karangasem",BALI,80863.0,Indonesia,,,,-8.3502246,115.4329789,https://maps.google.com/?cid=0x0:0x3c1560ad5c1f52d3,
mall,Toko Perlengkapan Rumah,Toko laksmi menang,"JCCV+GWF, Jl. Raya Menanga, Besakih, Kec. Rendang, Kabupaten Karangasem, Bali 80863","Jl. Raya Menanga, Besakih, Kec. Rendang, Kabupaten Karangasem",BALI,80863.0,Indonesia,8123634277.0,,,-8.3786878,115.4447816,https://maps.google.com/?cid=0x0:0x8cf1a035699a9ece,
mall,Pusat Perbelanjaan,Warung Lolik,"MC33+XQV, Unnamed Road, Pempatan, Rendang, Karangasem Regency, Bali 80863","Unnamed Road, Pempatan, Rendang, Karangasem Regency",BALI,80863.0,Indonesia,81236741757.0,,,-8.3450091,115.4044227,https://maps.google.com/?cid=0x0:0xccdd3b6f643dc61d,
mall,Mal outlet,Mekar shop,"MC44+FX7, Unnamed Road, Pempatan, Kec. Rendang, Kabupaten Karangasem, Bali 80863","Unnamed Road, Pempatan, Kec. Rendang, Kabupaten Karangasem",BALI,80863.0,Indonesia,,,,-8.3438294,115.4074196,https://maps.google.com/?cid=0x0:0xc11a2feee8f544e7,
mall,Pusat Perbelanjaan,Rasthy,"JCG3+FQ7, Kubakal, Pempatan, Kec. Rendang, Kabupaten Karangasem, Bali 80671","Kubakal, Pempatan, Kec. Rendang, Kabupaten Karangasem",BALI,80671.0,Indonesia,,,,-8.3738298,115.4044129,https://maps.google.com/?cid=0x0:0x7bb56f41a57a0217,
mall,Taman,Pasar Hasil Pertanian Dan Hortikultura Kecamatan Rendang,"JC2C+56M, Jl. Gn. Agung Besakih, Menanga, Kec. Rendang, Kabupaten Karangasem, Bali 80863","Jl. Gn. Agung Besakih, Menanga, Kec. Rendang, Kabupaten Karangasem",BALI,80863.0,Indonesia,,,,-8.3995471,115.4205557,https://maps.google.com/?cid=0x0:0xeb17dff920f25342,
mall,Pusat Perbelanjaan,LAPANGAN NONGAN MANGGAAN,"HC88+3RJ, Jl. Raya Besakih, Nongan, Kec. Rendang, Kabupaten Karangasem, Bali 80863","Jl. Raya Besakih, Nongan, Kec. Rendang, Kabupaten Karangasem",BALI,80863.0,Indonesia,85738987383.0,,,-8.434779,115.4170056,https://maps.google.com/?cid=0x0:0xa3d81e9c9c3475da,
mall,Minimarket,SRC RENATA,"JC79+X37, Jl. Gn. Agung Besakih, Pempatan, Kec. Rendang, Kabupaten Karangasem, Bali 80863","Jl. Gn. Agung Besakih, Pempatan, Kec. Rendang, Kabupaten Karangasem",BALI,80863.0,Indonesia,,,,-8.3850803,115.4176679,https://maps.google.com/?cid=0x0:0x60c5779ed5b0811f,
mall,Pasar,Pasar Rendang,"HCCH+JJH, Rendang, Kec. Rendang, Kabupaten Karangasem, Bali 80863","Rendang, Kec. Rendang, Kabupaten Karangasem",BALI,80863.0,Indonesia,,,,-8.4284412,115.4291175,https://maps.google.com/?cid=0x0:0x1f283f3aa201ac6f,
mall,Pusat Perbelanjaan,Mal Bali Galeria,"Jl. Bypass Ngurah Rai, Kuta, Kec. Kuta, Kabupaten Badung, Bali 80361","Kuta, Kec. Kuta, Kabupaten Badung",BALI,80361.0,Indonesia,361755277.0,,,-8.7232236,115.1843392,https://maps.google.com/?cid=0x0:0x165e0786352e0779,
mall,Pusat Perbelanjaan,Discovery Mall Bali,"Jl. Kartika Plaza, Kuta, Kec. Kuta, Kabupaten Badung, Bali 80361","Kuta, Kec. Kuta, Kabupaten Badung",BALI,80361.0,Indonesia,361755522.0,,,-8.7289661,115.1685057,https://maps.google.com/?cid=0x0:0x8fc4fb036e5763c9,
mall,mall,Selat Bali,,,BALI,,Indonesia,,,,-8.1,114.425,https://maps.google.com/?cid=0x0:0x2a027a7715df34d0,
mall,Bioskop,Citimall Kuala Kapuas,"297X+8HH, Jl. Trans - Kalimantan, Selat Dalam, Kec. Selat, Kabupaten Kapuas, Kalimantan Tengah 73516","Jl. Trans - Kalimantan, Selat Dalam, Kec. Selat, Kabupaten Kapuas",BALI,73516.0,Indonesia,5132021111.0,,,-2.9866776,114.3989993,https://maps.google.com/?cid=0x0:0x8ea10a9bcf7b7f6f,
mall,Pasar,Pasar Selat,"Selat, Kec. Pemayung, Jambi, 36657",Kec. Pemayung,BALI,36657.0,Indonesia,,,,-1.5482934,103.4443719,https://maps.google.com/?cid=0x0:0xbde1fbadbc57381e,
mall,Toko bahan makanan,Indomaret,"292H+QP3, Jl. Meranti, Selat Tengah, Kec. Selat, Kabupaten Kapuas, Kalimantan Tengah 73516","Jl. Meranti, Selat Tengah, Kec. Selat, Kabupaten Kapuas",BALI,73516.0,Indonesia,,,,-2.9981042,114.3792943,https://maps.google.com/?cid=0x0:0x6607024e67bf965b,
mall,Pusat Perbelanjaan,NaraShop,"X9RX+4CX, Selat Tengah, Kec. Selat, Kabupaten Kapuas, Kalimantan Tengah 73516","Selat Tengah, Kec. Selat, Kabupaten Kapuas",BALI,73516.0,Indonesia,82352603996.0,,,-3.0096304,114.3986173,https://maps.google.com/?cid=0x0:0x70a9359bed4d4b48,
mall,Toko Pakaian Wanita,Tiara,"Jl. Anggrek, Selat Hilir, Kec. Selat, Kabupaten Kapuas, Kalimantan Tengah 73516","Selat Hilir, Kec. Selat, Kabupaten Kapuas",BALI,73516.0,Indonesia,85751075148.0,,,-3.0202958,114.392389,https://maps.google.com/?cid=0x0:0x6c1a30978dc83e1d,
mall,Toko Herbal,"STOKIS DAN DISTRIBUTOR NASA KARANGASEM,BALI","Banjar Dinas, Kabupaten, Bungaya, Kec. Bebandem, Kabupaten Karangasem, Bali 80861","Kabupaten, Bungaya, Kec. Bebandem, Kabupaten Karangasem",BALI,80861.0,Indonesia,895628770606.0,,,-8.4613821,115.5816904,https://maps.google.com/?cid=0x0:0xeb72955e0b0b8cb,
mall,Agen Pemasaran,",distributor Resmi Nasa,umasari Kangin","HF68+VH5, Pering Sari, Kec. Selat, Kabupaten Karangasem, Bali 80862","Pering Sari, Kec. Selat, Kabupaten Karangasem",BALI,80862.0,Indonesia,85792597886.0,,,-8.4378607,115.4664826,https://maps.google.com/?cid=0x0:0xc5565698e473a041,
mall,Kontraktor,MJ STORE Olshop Terlengkap,"Selat Hulu, Kec. Selat, Kabupaten Kapuas, Kalimantan Tengah 73581","Kec. Selat, Kabupaten Kapuas",BALI,73581.0,Indonesia,82296007523.0,,,-3.0056841,114.4009838,https://maps.google.com/?cid=0x0:0x5f5a4ffe2eda83f3,
mall,mall,Selat Bali,,,BALI,,Indonesia,,,,-8.1,114.425,https://maps.google.com/?cid=0x0:0x2a027a7715df34d0,
mall,Pusat Perbelanjaan,Mulia Jaya Kapuas,"X9HV+C3J, Selat Hilir, Kec. Selat, Kabupaten Kapuas, Kalimantan Tengah 73516","Selat Hilir, Kec. Selat, Kabupaten Kapuas",BALI,73516.0,Indonesia,,,,-3.0214117,114.3926544,https://maps.google.com/?cid=0x0:0x91e594581ab3c934,
mall,Pusat Perbelanjaan,Rohimstore98_Kapuas,"Selat Hilir, Kec. Selat, Kabupaten Kapuas, Kalimantan Tengah 73516","Kec. Selat, Kabupaten Kapuas",BALI,73516.0,Indonesia,8978641028.0,,,-3.0218357,114.3916764,https://maps.google.com/?cid=0x0:0x5e21e3268e481a1,
mall,Toko Pakaian Wanita,Tiara,"Jl. Anggrek, Selat Hilir, Kec. Selat, Kabupaten Kapuas, Kalimantan Tengah 73516","Selat Hilir, Kec. Selat, Kabupaten Kapuas",BALI,73516.0,Indonesia,85751075148.0,,,-3.0202958,114.392389,https://maps.google.com/?cid=0x0:0x6c1a30978dc83e1d,
mall,Pusat Perbelanjaan,MieMie Cell,"Jl. Jend. Ahmad Yani No.58, Selat Hilir, Kec. Selat, Kabupaten Kapuas, Kalimantan Tengah 73516","Selat Hilir, Kec. Selat, Kabupaten Kapuas",BALI,73516.0,Indonesia,81649394959.0,,,-3.016198,114.3838201,https://maps.google.com/?cid=0x0:0x40c5b675c4af54e9,
mall,mall,MamaRyanOlshop,"Jl. Cilik Riwut No.69, Selat Hulu, Kec. Selat, Kabupaten Kapuas, Kalimantan Tengah 73516","Selat Hulu, Kec. Selat, Kabupaten Kapuas",BALI,73516.0,Indonesia,,,,-3.0046782,114.4013948,https://maps.google.com/?cid=0x0:0x58fe3cd25c2e5d93,
mall,mall,Selat,"Pering Sari, Kec. Selat, Kabupaten Karangasem, Bali","Kabupaten Karangasem, Bali",BALI,,Indonesia,,,,-8.437853,115.465897,https://maps.google.com/?cid=0x0:0x22f53a4a73abc935,
mall,Toko,TOKO BALI,"375V+V59, Jl. Ahmad Yani, Panarung, Kec. Basarang, Kabupaten Kapuas, Kalimantan Tengah 73516","Jl. Ahmad Yani, Panarung, Kec. Basarang, Kabupaten Kapuas",BALI,73516.0,Indonesia,82150778281.0,,,-2.9403408,114.2929991,https://maps.google.com/?cid=0x0:0x2d7b79d46454c912,
mall,Bioskop,Citimall Kuala Kapuas,"297X+8HH, Jl. Trans - Kalimantan, Selat Dalam, Kec. Selat, Kabupaten Kapuas, Kalimantan Tengah 73516","Jl. Trans - Kalimantan, Selat Dalam, Kec. Selat, Kabupaten Kapuas",BALI,73516.0,Indonesia,5132021111.0,,,-2.9866776,114.3989993,https://maps.google.com/?cid=0x0:0x8ea10a9bcf7b7f6f,
mall,Pusat Perbelanjaan,Hyfresh Supermarket Kuala Kapuas,"Jl. Pemuda No.KM 1, RW.5, Selat Dalam, Kec. Selat, Kabupaten Kapuas, Kalimantan Tengah 73516","RW.5, Selat Dalam, Kec. Selat, Kabupaten Kapuas",BALI,73516.0,Indonesia,85752706042.0,,,-2.9870307,114.3990786,https://maps.google.com/?cid=0x0:0x9e318e41c80f896c,
mall,mall,Selat Bali,,,BALI,,Indonesia,,,,-8.1,114.425,https://maps.google.com/?cid=0x0:0x2a027a7715df34d0,
mall,Pusat Perbelanjaan,NaraShop,"X9RX+4CX, Selat Tengah, Kec. Selat, Kabupaten Kapuas, Kalimantan Tengah 73516","Selat Tengah, Kec. Selat, Kabupaten Kapuas",BALI,73516.0,Indonesia,82352603996.0,,,-3.0096304,114.3986173,https://maps.google.com/?cid=0x0:0x70a9359bed4d4b48,
mall,Kontraktor,MJ STORE Olshop Terlengkap,"Selat Hulu, Kec. Selat, Kabupaten Kapuas, Kalimantan Tengah 73581","Kec. Selat, Kabupaten Kapuas",BALI,73581.0,Indonesia,82296007523.0,,,-3.0056841,114.4009838,https://maps.google.com/?cid=0x0:0x5f5a4ffe2eda83f3,
mall,Pusat Perbelanjaan,XXI Citimall Kuala Kapuas,"297X+6QV, Selat Dalam, Kec. Selat, Kabupaten Kapuas, Kalimantan Tengah 73516","Selat Dalam, Kec. Selat, Kabupaten Kapuas",BALI,73516.0,Indonesia,2130480621.0,,,-2.9867814,114.3992621,https://maps.google.com/?cid=0x0:0xc389a50d34a4d6cc,
mall,Pusat Perbelanjaan,Rohimstore98_Kapuas,"Selat Hilir, Kec. Selat, Kabupaten Kapuas, Kalimantan Tengah 73516","Kec. Selat, Kabupaten Kapuas",BALI,73516.0,Indonesia,8978641028.0,,,-3.0218357,114.3916764,https://maps.google.com/?cid=0x0:0x5e21e3268e481a1,
mall,Toko Pakaian Wanita,Tiara,"Jl. Anggrek, Selat Hilir, Kec. Selat, Kabupaten Kapuas, Kalimantan Tengah 73516","Selat Hilir, Kec. Selat, Kabupaten Kapuas",BALI,73516.0,Indonesia,85751075148.0,,,-3.0202958,114.392389,https://maps.google.com/?cid=0x0:0x6c1a30978dc83e1d,
mall,Pusat Perbelanjaan,MR. DIY Citimall Kuala Kapuas,"Citimall Kuala Kapuas Lt. 1, Selat Dalam, Kec. Selat, Kabupaten Kapuas, Kalimantan Tengah 73516","Selat Dalam, Kec. Selat, Kabupaten Kapuas",BALI,73516.0,Indonesia,2130022789.0,,,-2.9867182,114.3990401,https://maps.google.com/?cid=0x0:0xe8f5f432602655f7,
mall,Pusat Perbelanjaan,PINKY STORE KAPUAS,"Jl. Melati, Selat Hilir, Kec. Selat, Kabupaten Kapuas, Kalimantan Tengah 73516","Selat Hilir, Kec. Selat, Kabupaten Kapuas",BALI,73516.0,Indonesia,,,,-3.0193893,114.3924637,https://maps.google.com/?cid=0x0:0x3755b10a5759aa61,
mall,Toko Pakaian,COMETT STORE,"Jl. Seroja No.69, Selat Tengah, Kec. Selat, Kabupaten Kapuas, Kalimantan Tengah 73516","Selat Tengah, Kec. Selat, Kabupaten Kapuas",BALI,73516.0,Indonesia,8115550551.0,,,-3.0160353,114.3930676,https://maps.google.com/?cid=0x0:0xd6d1f8b38930f9ef,
mall,Pusat Perbelanjaan,MieMie Cell,"Jl. Jend. Ahmad Yani No.58, Selat Hilir, Kec. Selat, Kabupaten Kapuas, Kalimantan Tengah 73516","Selat Hilir, Kec. Selat, Kabupaten Kapuas",BALI,73516.0,Indonesia,81649394959.0,,,-3.016198,114.3838201,https://maps.google.com/?cid=0x0:0x40c5b675c4af54e9,
mall,Toko Herbal,"STOKIS DAN DISTRIBUTOR NASA KARANGASEM,BALI","Banjar Dinas, Kabupaten, Bungaya, Kec. Bebandem, Kabupaten Karangasem, Bali 80861","Kabupaten, Bungaya, Kec. Bebandem, Kabupaten Karangasem",BALI,80861.0,Indonesia,895628770606.0,,,-8.4613821,115.5816904,https://maps.google.com/?cid=0x0:0xeb72955e0b0b8cb,
mall,Agen Pemasaran,",distributor Resmi Nasa,umasari Kangin","HF68+VH5, Pering Sari, Kec. Selat, Kabupaten Karangasem, Bali 80862","Pering Sari, Kec. Selat, Kabupaten Karangasem",BALI,80862.0,Indonesia,85792597886.0,,,-8.4378607,115.4664826,https://maps.google.com/?cid=0x0:0xc5565698e473a041,
mall,mall,Selat Bali,,,BALI,,Indonesia,,,,-8.1,114.425,https://maps.google.com/?cid=0x0:0x2a027a7715df34d0,
mall,Pusat Perbelanjaan,NaraShop,"X9RX+4CX, Selat Tengah, Kec. Selat, Kabupaten Kapuas, Kalimantan Tengah 73516","Selat Tengah, Kec. Selat, Kabupaten Kapuas",BALI,73516.0,Indonesia,82352603996.0,,,-3.0096304,114.3986173,https://maps.google.com/?cid=0x0:0x70a9359bed4d4b48,
mall,Pusat Perbelanjaan,Rohimstore98_Kapuas,"Selat Hilir, Kec. Selat, Kabupaten Kapuas, Kalimantan Tengah 73516","Kec. Selat, Kabupaten Kapuas",BALI,73516.0,Indonesia,8978641028.0,,,-3.0218357,114.3916764,https://maps.google.com/?cid=0x0:0x5e21e3268e481a1,
mall,Kontraktor,MJ STORE Olshop Terlengkap,"Selat Hulu, Kec. Selat, Kabupaten Kapuas, Kalimantan Tengah 73581","Kec. Selat, Kabupaten Kapuas",BALI,73581.0,Indonesia,82296007523.0,,,-3.0056841,114.4009838,https://maps.google.com/?cid=0x0:0x5f5a4ffe2eda83f3,
mall,Toko Pakaian Wanita,Tiara,"Jl. Anggrek, Selat Hilir, Kec. Selat, Kabupaten Kapuas, Kalimantan Tengah 73516","Selat Hilir, Kec. Selat, Kabupaten Kapuas",BALI,73516.0,Indonesia,85751075148.0,,,-3.0202958,114.392389,https://maps.google.com/?cid=0x0:0x6c1a30978dc83e1d,
mall,Toko bahan makanan,Indomaret,"292H+QP3, Jl. Meranti, Selat Tengah, Kec. Selat, Kabupaten Kapuas, Kalimantan Tengah 73516","Jl. Meranti, Selat Tengah, Kec. Selat, Kabupaten Kapuas",BALI,73516.0,Indonesia,,,,-2.9981042,114.3792943,https://maps.google.com/?cid=0x0:0x6607024e67bf965b,
mall,Pusat Perbelanjaan,TOKO AKBAR,"X9MV+9HC, Jl. Seroja, Selat Hilir, Kec. Selat, Kabupaten Kapuas, Kalimantan Tengah 73516","Jl. Seroja, Selat Hilir, Kec. Selat, Kabupaten Kapuas",BALI,73516.0,Indonesia,85332630763.0,,,-3.0165532,114.3938855,https://maps.google.com/?cid=0x0:0xf0f169849a2f416f,
mall,Pusat Perbelanjaan,MieMie Cell,"Jl. Jend. Ahmad Yani No.58, Selat Hilir, Kec. Selat, Kabupaten Kapuas, Kalimantan Tengah 73516","Selat Hilir, Kec. Selat, Kabupaten Kapuas",BALI,73516.0,Indonesia,81649394959.0,,,-3.016198,114.3838201,https://maps.google.com/?cid=0x0:0x40c5b675c4af54e9,
mall,mall,Selat,"Pering Sari, Kec. Selat, Kabupaten Karangasem, Bali","Kabupaten Karangasem, Bali",BALI,,Indonesia,,,,-8.437853,115.465897,https://maps.google.com/?cid=0x0:0x22f53a4a73abc935,
mall,Pusat Perbelanjaan,ICON BALI,"Jl. Danau Tamblingan No.27, Sanur, Denpasar Selatan, Kota Denpasar, Bali 80228","Sanur, Denpasar Selatan, Kota Denpasar",BALI,80228.0,Indonesia,81338352021.0,,,-8.6866497,115.2627903,https://maps.google.com/?cid=0x0:0x129054577eae3c17,
mall,Pusat Perbelanjaan,Mal Bali Galeria,"Jl. Bypass Ngurah Rai, Kuta, Kec. Kuta, Kabupaten Badung, Bali 80361","Kuta, Kec. Kuta, Kabupaten Badung",BALI,80361.0,Indonesia,361755277.0,,,-8.7232236,115.1843392,https://maps.google.com/?cid=0x0:0x165e0786352e0779,
mall,mall,Kalimantan Tengah 73516,Kalimantan Tengah,Kalimantan Tengah,BALI,,Indonesia,,,,-2.9883279,114.3103718,https://maps.google.com/?cid=0x0:0x7f8e8af654c2b83e,
mall,mall,Bali,,Bali,BALI,,Indonesia,,,,-8.4095178,115.188916,https://maps.google.com/?cid=0x0:0x24910fb14b24e690,
mall,Bioskop,Citimall Kuala Kapuas,"297X+8HH, Jl. Trans - Kalimantan, Selat Dalam, Kec. Selat, Kabupaten Kapuas, Kalimantan Tengah 73516","Jl. Trans - Kalimantan, Selat Dalam, Kec. Selat, Kabupaten Kapuas",BALI,73516.0,Indonesia,5132021111.0,,,-2.9866776,114.3989993,https://maps.google.com/?cid=0x0:0x8ea10a9bcf7b7f6f,
mall,Pasar,Pasar Danau Mare,"X9HV+75P, Jl. Jend. Sudirman, Selat Hilir, Kec. Selat, Kuala Kapuas, Kalimantan Tengah 73516","Jl. Jend. Sudirman, Selat Hilir, Kec. Selat, Kuala Kapuas",BALI,73516.0,Indonesia,,,,-3.0217842,114.3929531,https://maps.google.com/?cid=0x0:0x9030f7d8a4de0566,
mall,Pusat Perbelanjaan,Hyfresh Supermarket Kuala Kapuas,"Jl. Pemuda No.KM 1, RW.5, Selat Dalam, Kec. Selat, Kabupaten Kapuas, Kalimantan Tengah 73516","RW.5, Selat Dalam, Kec. Selat, Kabupaten Kapuas",BALI,73516.0,Indonesia,85752706042.0,,,-2.9870307,114.3990786,https://maps.google.com/?cid=0x0:0x9e318e41c80f896c,
mall,Pusat Perbelanjaan,Happy Time Kuala Kapuas,"297X+6H2, Selat Dalam, Kec. Selat, Kabupaten Kapuas, Kalimantan Tengah 73516","Selat Dalam, Kec. Selat, Kabupaten Kapuas",BALI,73516.0,Indonesia,,,,-2.9869895,114.3988886,https://maps.google.com/?cid=0x0:0xce856dcdcfbfd4dc,
mall,Toko Kosmetik,Mala cosmetic 2 dan mala ponsel,"Jl. Seroja No.10, Selat Hilir, Kec. Selat, Kabupaten Kapuas, Kalimantan Tengah 73516","Selat Hilir, Kec. Selat, Kabupaten Kapuas",BALI,73516.0,Indonesia,,,,-3.0150941,114.3918167,https://maps.google.com/?cid=0x0:0x2805e804d3cb887c,
mall,Pusat Perbelanjaan,NaraShop,"X9RX+4CX, Selat Tengah, Kec. Selat, Kabupaten Kapuas, Kalimantan Tengah 73516","Selat Tengah, Kec. Selat, Kabupaten Kapuas",BALI,73516.0,Indonesia,82352603996.0,,,-3.0096304,114.3986173,https://maps.google.com/?cid=0x0:0x70a9359bed4d4b48,
mall,Pusat Perbelanjaan,Mulia Jaya Kapuas,"X9HV+C3J, Selat Hilir, Kec. Selat, Kabupaten Kapuas, Kalimantan Tengah 73516","Selat Hilir, Kec. Selat, Kabupaten Kapuas",BALI,73516.0,Indonesia,,,,-3.0214117,114.3926544,https://maps.google.com/?cid=0x0:0x91e594581ab3c934,
mall,Pusat Perbelanjaan,Warung Silve,"X9QW+V3M, Jl. Barito, Selat Tengah, Kec. Selat, Kabupaten Kapuas, Kalimantan Tengah 73516","Jl. Barito, Selat Tengah, Kec. Selat, Kabupaten Kapuas",BALI,73516.0,Indonesia,85346672173.0,,,-3.0102844,114.3951639,https://maps.google.com/?cid=0x0:0x41e41365111d6d66,
mall,Agen Tiket,Tiket Net-Cell Patrum,"no Jl. Patih Rumbih No.15, 73516, Selat Tengah, Kec. Selat, Kabupaten Kapuas, Kalimantan Tengah 73516","73516, Selat Tengah, Kec. Selat, Kabupaten Kapuas",BALI,73516.0,Indonesia,81528282727.0,,,-3.0028334,114.3755804,https://maps.google.com/?cid=0x0:0x8c8ea1c441333bc9,
mall,Bengkel Sepeda Motor,ECO RACING KAPUAS,"X9WW+V7H, Jl. BPP, Selat Tengah, Kec. Selat, Kabupaten Kapuas, Kalimantan Tengah 73516","Jl. BPP, Selat Tengah, Kec. Selat, Kabupaten Kapuas",BALI,73516.0,Indonesia,,,,-3.0028242,114.3957387,https://maps.google.com/?cid=0x0:0x8bb74fd3e83c0f19,
mall,Pusat Perbelanjaan,Toko Presto,"X9RW+V74, Selat Tengah, Kec. Selat, Kabupaten Kapuas, Kalimantan Tengah 73516","Selat Tengah, Kec. Selat, Kabupaten Kapuas",BALI,73516.0,Indonesia,,,,-3.0078531,114.3957166,https://maps.google.com/?cid=0x0:0x8e9030d2310cedf4,
mall,Toko Pakaian Wanita,Tiara,"Jl. Anggrek, Selat Hilir, Kec. Selat, Kabupaten Kapuas, Kalimantan Tengah 73516","Selat Hilir, Kec. Selat, Kabupaten Kapuas",BALI,73516.0,Indonesia,85751075148.0,,,-3.0202958,114.392389,https://maps.google.com/?cid=0x0:0x6c1a30978dc83e1d,
mall,Otoritas Pelabuhan,Pelabuhan Pasar Kapuas,"X9GR+GH3, Jl. Jend. Sudirman, Selat Hilir, Kec. Selat, Kabupaten Kapuas, Kalimantan Tengah 73516","Jl. Jend. Sudirman, Selat Hilir, Kec. Selat, Kabupaten Kapuas",BALI,73516.0,Indonesia,81250964439.0,,,-3.0237482,114.3914321,https://maps.google.com/?cid=0x0:0x4416625b85bc6126,
mall,Pusat Perbelanjaan,Rohimstore98_Kapuas,"Selat Hilir, Kec. Selat, Kabupaten Kapuas, Kalimantan Tengah 73516","Kec. Selat, Kabupaten Kapuas",BALI,73516.0,Indonesia,8978641028.0,,,-3.0218357,114.3916764,https://maps.google.com/?cid=0x0:0x5e21e3268e481a1,
mall,Toko Aksesori Ponsel,SAFARI PONSEL,"X9PV+J86, Jl. Barito Gg. Lumba-Lumba, Selat Tengah, Kec. Selat, Kabupaten Kapuas, Kalimantan Tengah 73516","Jl. Barito Gg. Lumba-Lumba, Selat Tengah, Kec. Selat, Kabupaten Kapuas",BALI,73516.0,Indonesia,822291414.0,,,-3.0134528,114.3932571,https://maps.google.com/?cid=0x0:0xb9b67043e452973b,
mall,Pasar,Pasar Muara Pilau,"Kalimantan, X9WH+8QF Jl. Pilau Selat Tengah, Tengah, Kec. Selat, Kabupaten Kapuas, Kalimantan Tengah 73516","X9WH+8QF Jl. Pilau Selat Tengah, Tengah, Kec. Selat, Kabupaten Kapuas",BALI,73516.0,Indonesia,,,,-3.004078,114.3796137,https://maps.google.com/?cid=0x0:0x6776740ccc57d006,
mall,Toko,DIAN SHOP SERBA 35000,"Jl. Trans - Kalimantan No.20, Selat Tengah, Kec. Selat, Kabupaten Kapuas, Kalimantan Tengah 73516","Selat Tengah, Kec. Selat, Kabupaten Kapuas",BALI,73516.0,Indonesia,,,,-3.0043167,114.3786123,https://maps.google.com/?cid=0x0:0x71846e75fd100d18,
mall,Toko Ponsel,Muliana Ponsel,"X9HV+GC4, Selat Hilir, Kec. Selat, Kabupaten Kapuas, Kalimantan Tengah 73516","Selat Hilir, Kec. Selat, Kabupaten Kapuas",BALI,73516.0,Indonesia,81351100292.0,,,-3.0212266,114.3935901,https://maps.google.com/?cid=0x0:0x47bf9282fc0d37d2,
mall,Pusat Perbelanjaan,Dewi Indriani Drw Skincere Kuala Kapuas,"Jl. Mahakam Jl. Nusa Indah Gg. IV No.46, Selat Tengah, Kec. Selat, Kabupaten Kapuas, Kalimantan Tengah 73516","Selat Tengah, Kec. Selat, Kabupaten Kapuas",BALI,73516.0,Indonesia,82250005909.0,,,-3.0142884,114.394432,https://maps.google.com/?cid=0x0:0xd89404bd67e7d6b,
mall,Pasar,Pasar Inpres Kapuas,"X9HR+JWG, Selat Hilir, Kec. Selat, Kabupaten Kapuas, Kalimantan Tengah 73516","Selat Hilir, Kec. Selat, Kabupaten Kapuas",BALI,73516.0,Indonesia,,,,-3.0209417,114.3923315,https://maps.google.com/?cid=0x0:0x963036af2a1a031b,
mall,Agen Pemasaran,",distributor Resmi Nasa,umasari Kangin","HF68+VH5, Pering Sari, Kec. Selat, Kabupaten Karangasem, Bali 80862","Pering Sari, Kec. Selat, Kabupaten Karangasem",BALI,80862.0,Indonesia,85792597886.0,,,-8.4378607,115.4664826,https://maps.google.com/?cid=0x0:0xc5565698e473a041,
mall,Toko Herbal,"STOKIS DAN DISTRIBUTOR NASA KARANGASEM,BALI","Banjar Dinas, Kabupaten, Bungaya, Kec. Bebandem, Kabupaten Karangasem, Bali 80861","Kabupaten, Bungaya, Kec. Bebandem, Kabupaten Karangasem",BALI,80861.0,Indonesia,895628770606.0,,,-8.4613821,115.5816904,https://maps.google.com/?cid=0x0:0xeb72955e0b0b8cb,
mall,mall,Selat,"Pering Sari, Kec. Selat, Kabupaten Karangasem, Bali","Kabupaten Karangasem, Bali",BALI,,Indonesia,,,,-8.437853,115.465897,https://maps.google.com/?cid=0x0:0x22f53a4a73abc935,
mall,Toko Pakaian,Ayu Cell  Ayu Laundry Selat,"HF8G+P56, Selat, Kec. Selat, Kabupaten Karangasem, Bali 80862","Selat, Kec. Selat, Kabupaten Karangasem",BALI,80862.0,Indonesia,85237794444.0,,,-8.4332004,115.4753784,https://maps.google.com/?cid=0x0:0x50d85a24a33d9ee0,
mall,Pusat Perbelanjaan,warben bojeS,"HF2Q+RWM, Jl. Jangu, Duda, Kec. Selat, Kabupaten Karangasem, Bali 80862","Jl. Jangu, Duda, Kec. Selat, Kabupaten Karangasem",BALI,80862.0,Indonesia,83119912911.0,,,-8.4479093,115.4897923,https://maps.google.com/?cid=0x0:0x7858f2f73564cfb1,
mall,Penginapan,Pasar Rakyat Pesangkan,"HF2W+XJH, Jl. Baledan, Duda Tim., Kec. Selat, Kabupaten Karangasem, Bali 80862","Jl. Baledan, Duda Tim., Kec. Selat, Kabupaten Karangasem",BALI,80862.0,Indonesia,,,,-8.4475726,115.4966037,https://maps.google.com/?cid=0x0:0x4bb55da364dd2cce,
mall,Pusat Perbelanjaan,Yenhome,"HF6H+78X, Jl. Baledan, Selat, Kec. Selat, Kabupaten Karangasem, Bali 80862","Jl. Baledan, Selat, Kec. Selat, Kabupaten Karangasem",BALI,80862.0,Indonesia,,,,-8.4392633,115.47835,https://maps.google.com/?cid=0x0:0xf2bc18d612b0e5db,
mall,Pusat Perbelanjaan,Flyshoppee Homestore,"HFJ5+8CQ, Padangaji Kawan, Kec. Selat, Kabupaten Karangasem, Bali 80862","Padangaji Kawan, Kec. Selat, Kabupaten Karangasem",BALI,80862.0,Indonesia,85847459940.0,,,-8.4191688,115.4586214,https://maps.google.com/?cid=0x0:0xc85a3488769b6ae4,
mall,Toko Ponsel,Mars Cell- Pulsa Elektrik All Operator,"HFCG+MPM, Jl. Gn. Agung, Amerta Bhuana, Kec. Selat, Kabupaten Karangasem, Bali 80862","Jl. Gn. Agung, Amerta Bhuana, Kec. Selat, Kabupaten Karangasem",BALI,80862.0,Indonesia,81338726789.0,,,-8.4282974,115.4768109,https://maps.google.com/?cid=0x0:0xf679940ee3580cb,
mall,Toko Obat-Obatan Herbal,Astungkara Herbal,"Jalan Baledan No 45 Selat, Pering Sari, Kec. Selat, Kabupaten Karangasem, Bali 80862","Pering Sari, Kec. Selat, Kabupaten Karangasem",BALI,80862.0,Indonesia,81339691292.0,,,-8.4390408,115.4823491,https://maps.google.com/?cid=0x0:0x25a998ff6ea56495,
mall,Toko,POM MIGO KAORI GANESHA MART,"HCFW+WM4, Jl. Raya Muncan, Muncan, Kec. Selat, Kabupaten Karangasem, Bali 80862","Jl. Raya Muncan, Muncan, Kec. Selat, Kabupaten Karangasem",BALI,80862.0,Indonesia,,,,-8.4252392,115.4467047,https://maps.google.com/?cid=0x0:0x648f578ed4a93e3b,
mall,Pusat Perbelanjaan,Rumah Agung Mas Kusuma,"GGXJ+RMF, Jl. Baledan, Sibetan, Kec. Selat, Kabupaten Karangasem, Bali 80861","Jl. Baledan, Sibetan, Kec. Selat, Kabupaten Karangasem",BALI,80861.0,Indonesia,85738852546.0,,,-8.4504402,115.5316753,https://maps.google.com/?cid=0x0:0x66f357499ba81949,
mall,Pusat Perbelanjaan,Toko Garam Anti (Toraja),"HC7X+8PG, Muncan, Kec. Selat, Kabupaten Karangasem, Bali 80862","Muncan, Kec. Selat, Kabupaten Karangasem",BALI,80862.0,Indonesia,82341055476.0,,,-8.4366956,115.4493389,https://maps.google.com/?cid=0x0:0xf7fdf34c03c57a47,
mall,Pusat Perbelanjaan,Warung Wahyu GK,"HF9V+P4V, Unnamed Road, North Duda, Selat, Karangasem Regency, Bali 80862","Unnamed Road, North Duda, Selat, Karangasem Regency",BALI,80862.0,Indonesia,81338628555.0,,,-8.4306412,115.4928088,https://maps.google.com/?cid=0x0:0x8acc1e9da4c7c85c,
mall,Toko Swalayan,Warung Bu Kadek Apriani,"Jl. Pura Dalem No.17x, Muncan, Kec. Selat, Kabupaten Karangasem, Bali 80862","Muncan, Kec. Selat, Kabupaten Karangasem",BALI,80862.0,Indonesia,81353794336.0,,,-8.4305507,115.447198,https://maps.google.com/?cid=0x0:0xb5bbaadefc113f55,
mall,Toko,"Toko 99, Sari Sedana, Nyoman Kertawati","HF7F+GQF, Pasar, Selat, Kec. Selat, Kabupaten Karangasem, Bali 80862","Pasar, Selat, Kec. Selat, Kabupaten Karangasem",BALI,80862.0,Indonesia,8123880486.0,,,-8.4361962,115.4744247,https://maps.google.com/?cid=0x0:0xc63f4fc14be4c7b0,
mall,Toko Bahan Bangunan,Batu Ayu Mart  Grosir,"Pering Sari, Kec. Selat, Kabupaten Karangasem, Bali 80862","Kec. Selat, Kabupaten Karangasem",BALI,80862.0,Indonesia,81337429477.0,,,-8.4325747,115.4646236,https://maps.google.com/?cid=0x0:0xfa8e5b4281b78938,
mall,Toko Ponsel,Dana Cell,"HF5P+97Q, Jl. Baledan, Duda, Kec. Selat, Kabupaten Karangasem, Bali 80862","Jl. Baledan, Duda, Kec. Selat, Kabupaten Karangasem",BALI,80862.0,Indonesia,81329757425.0,,,-8.4415483,115.4857223,https://maps.google.com/?cid=0x0:0xe5ab6a00f7a743d8,
mall,Pusat Perbelanjaan,Warung bu resni,"GGV8+55R, Jl. Baledan, Duda Tim., Kec. Selat, Kabupaten Karangasem, Bali 80862","Jl. Baledan, Duda Tim., Kec. Selat, Kabupaten Karangasem",BALI,80862.0,Indonesia,82341035492.0,,,-8.4570198,115.5154041,https://maps.google.com/?cid=0x0:0x7b414d1d06f5c305,
mall,Pasar,KIOS MESARI,"HF2W+WMQ, Jl. Buana Giri, Duda Tim., Kec. Selat, Kabupaten Karangasem, Bali 80862","Jl. Buana Giri, Duda Tim., Kec. Selat, Kabupaten Karangasem",BALI,80862.0,Indonesia,82147416140.0,,,-8.4476588,115.4967213,https://maps.google.com/?cid=0x0:0x1c2320a12a2e4449,
mall,Pusat Perbelanjaan,Home Demun,"HC7X+8PG, Muncan, Kec. Selat, Kabupaten Karangasem, Bali 80862","Muncan, Kec. Selat, Kabupaten Karangasem",BALI,80862.0,Indonesia,,,,-8.436186,115.449281,https://maps.google.com/?cid=0x0:0xba4a897ee3767c59,
mall,mall,Bali 80864,"Kec. Sidemen, Kabupaten Karangasem, Bali","Kabupaten Karangasem, Bali",BALI,,Indonesia,,,,-8.4831122,115.4378152,https://maps.google.com/?cid=0x0:0x1c00c5eb6016c0b0,
mall,Tujuan Wisata,Bali Countryside Sidemen,"FCRG+XF3, Jalan Raya Satria Sidemen Banjar Kebon Desa Sukahet, Lokasari, Kec. Sidemen, Kabupaten Karangasem, Bali 80864","Jalan Raya Satria Sidemen Banjar Kebon Desa Sukahet, Lokasari, Kec. Sidemen, Kabupaten Karangasem",BALI,80864.0,Indonesia,85768888020.0,,,-8.505544,115.425761,https://maps.google.com/?cid=0x0:0x6c3a2008aef6f898,
mall,,Pasar Sidemen,"Jl. Sidemen, Sidemen, Kec. Sidemen, Kabupaten Karangasem, Bali 80864","Sidemen, Kec. Sidemen, Kabupaten Karangasem",BALI,80864.0,Indonesia,,,,-8.464504,115.4478014,https://maps.google.com/?cid=0x0:0xb6bd1f3d954cb1c6,
mall,Toko Suvenir,"BeYuYu Sidemen,artshop  Tourist Information","Jl. Raya Tebola, Telaga Tawang, Kec. Sidemen, Kabupaten Karangasem, Bali 80864","Telaga Tawang, Kec. Sidemen, Kabupaten Karangasem",BALI,80864.0,Indonesia,81529355850.0,,,-8.4693757,115.4441244,https://maps.google.com/?cid=0x0:0x910c7ef730e34ef2,
mall,Toko umum,Warung Kayun Sidemen Karangasem,"GC3V+CM9, Talibeng, Kec. Sidemen, Kabupaten Karangasem, Bali 80864","Talibeng, Kec. Sidemen, Kabupaten Karangasem",BALI,80864.0,Indonesia,83119884707.0,,,-8.4964748,115.4442456,https://maps.google.com/?cid=0x0:0x1d7ba25d030aae0a,
mall,Toko,Grosir AM,"Jl. Semarapura-Karangasem, Telaga Tawang, Kec. Sidemen, Kabupaten Karangasem, Bali 80864","Telaga Tawang, Kec. Sidemen, Kabupaten Karangasem",BALI,80864.0,Indonesia,87744098438.0,,,-8.4836805,115.4451511,https://maps.google.com/?cid=0x0:0x60c36d5dfa5b4d90,
mall,Toko Perhiasan,Sidemen silver class,"Dekat Jembatan Kuning Banjar Dinas Dukuh, Sangkan Gn., Kec. Sidemen, Kabupaten Karangasem, Bali 80864","Sangkan Gn., Kec. Sidemen, Kabupaten Karangasem",BALI,80864.0,Indonesia,82146360055.0,,,-8.4597625,115.4455119,https://maps.google.com/?cid=0x0:0xa1726aeff90db573,
mall,Toko,Agoez Cell,"Sidemen, Kec. Sidemen, Kabupaten Karangasem, Bali 80864","Kec. Sidemen, Kabupaten Karangasem",BALI,80864.0,Indonesia,,,,-8.4623603,115.4488219,https://maps.google.com/?cid=0x0:0x2cba470e0bfb9f17,
mall,Tujuan Wisata,Sidemen Bali Swing,"Telaga Tawang, Kec. Sidemen, Kabupaten Karangasem, Bali 80864","Kec. Sidemen, Kabupaten Karangasem",BALI,80864.0,Indonesia,82247800500.0,,,-8.4857385,115.4423424,https://maps.google.com/?cid=0x0:0xbea8959362607af0,
mall,Toko,Wayan Adi,"GC2V+X2X, Unnamed Road, Talibeng, Kec. Sidemen, Kabupaten Karangasem, Bali 80864","Unnamed Road, Talibeng, Kec. Sidemen, Kabupaten Karangasem",BALI,80864.0,Indonesia,87856812786.0,,,-8.4975153,115.4426109,https://maps.google.com/?cid=0x0:0x8cda8b71af7781ef,
mall,mall,Kec. Sidemen,"Kabupaten Karangasem, Bali","Kabupaten Karangasem, Bali",BALI,,Indonesia,,,,-8.4648305,115.4478043,https://maps.google.com/?cid=0x0:0x4030bfbca7d2dc0,
mall,Tujuan Wisata,Gembleng Waterfall,"Unnamed Road, Tri Eka Buana, Kec. Sidemen, Kabupaten Karangasem, Bali 80864","Tri Eka Buana, Kec. Sidemen, Kabupaten Karangasem",BALI,80864.0,Indonesia,87866252512.0,,,-8.4926826,115.460857,https://maps.google.com/?cid=0x0:0xe13bbcf799ce7421,
mall,Toko,Mona Songket Sidemen,"GCMX+W7Q, Jl. Semarapura-Karangasem, Sidemen, Kec. Sidemen, Kabupaten Karangasem, Bali 80864","Jl. Semarapura-Karangasem, Sidemen, Kec. Sidemen, Kabupaten Karangasem",BALI,80864.0,Indonesia,81907016633.0,,,-8.4651639,115.4482447,https://maps.google.com/?cid=0x0:0x79e1c2fbc0063f45,
mall,mall,Griya Valud Sidemen,"Jl. Sidemen - Sangkan Gn., Telaga Tawang, Kec. Sidemen, Kabupaten Karangasem, Bali 80864","Telaga Tawang, Kec. Sidemen, Kabupaten Karangasem",BALI,80864.0,Indonesia,81236088446.0,,,-8.4683524,115.4403901,https://maps.google.com/?cid=0x0:0x8dd2adb7fe095c7e,
mall,mall,Alamdhari Resort Sidemen,"Alamdhari Resort  SPa, Br. Dinas, Jl. Raya Tebola, Kec. Sidemen, Kabupaten Karangasem, Bali 80864","Br. Dinas, Jl. Raya Tebola, Kec. Sidemen, Kabupaten Karangasem",BALI,80864.0,Indonesia,81615746774.0,,,-8.4727986,115.4414299,https://maps.google.com/?cid=0x0:0xa589fb1b39e29bbe,
mall,mall,Kubu Tani,"GCGR+J8X, Banjar Jl. Raya Tebola, Telaga Tawang, Kec. Sidemen, Kabupaten Karangasem, Bali 80362","Banjar Jl. Raya Tebola, Telaga Tawang, Kec. Sidemen, Kabupaten Karangasem",BALI,80362.0,Indonesia,81338588744.0,,,-8.4733864,115.4408564,https://maps.google.com/?cid=0x0:0xc1c3636127b23f85,
mall,mall,Villa Karma Loka,"GCJV+QM7, Banjar Laplapan Jl. Raya Tebola, Telaga Tawang, Kec. Sidemen, Kabupaten Karangasem, Bali 80362","Banjar Laplapan Jl. Raya Tebola, Telaga Tawang, Kec. Sidemen, Kabupaten Karangasem",BALI,80362.0,Indonesia,85205110916.0,,,-8.4680925,115.4441731,https://maps.google.com/?cid=0x0:0xa1d89831ff817b2b,
mall,mall,Nana Villas Sidemen,"Jl. Sidemen - Sangkan Gn., Telaga Tawang, Kec. Sidemen, Kabupaten Karangasem, Bali 80864","Telaga Tawang, Kec. Sidemen, Kabupaten Karangasem",BALI,80864.0,Indonesia,8991595337.0,,,-8.4680201,115.4425467,https://maps.google.com/?cid=0x0:0xe100ca4c16c44ed4,
mall,mall,AMRITA VILLA SIDEMEN,"GCGR+JQ7, Jl. Raya Tebola, Telaga Tawang, Kec. Sidemen, Kabupaten Karangasem, Bali 80864","Jl. Raya Tebola, Telaga Tawang, Kec. Sidemen, Kabupaten Karangasem",BALI,80864.0,Indonesia,,,,-8.4734746,115.4419256,https://maps.google.com/?cid=0x0:0x1619fa4da11f5e4a,
mall,mall,Villa Shantiasa,"Sidemen, Kec. Sidemen, Kabupaten Karangasem, Bali 80864","Kec. Sidemen, Kabupaten Karangasem",BALI,80864.0,Indonesia,85858963528.0,,,-8.4669711,115.4456201,https://maps.google.com/?cid=0x0:0x1f72fad2b661e1de,
mall,Pura,Pura Agung Besakih,"Besakih, Kec. Rendang, Kabupaten Karangasem, Bali 80863","Kec. Rendang, Kabupaten Karangasem",BALI,80863.0,Indonesia,,,,-8.3739976,115.4525567,https://maps.google.com/?cid=0x0:0xbfc39798cd1bb4a,
mall,Toko Bebas Bea,Bandara Internasional I Gusti Ngurah Rai (DPS),"Bandara International I Gusti Ngurah Rai, Kabupaten Badung, Bali 80362",Kabupaten Badung,BALI,80362.0,Indonesia,85166911003.0,,,-8.7469933,115.1681655,https://maps.google.com/?cid=0x0:0xdf71da6ddd7bcc1f,
mall,Toko Tato,Tatto Temporary Karangasem,"GCPX+F72, Gg. Plamboyan, Sidemen, Kec. Sidemen, Kabupaten Karangasem, Bali 80864","Gg. Plamboyan, Sidemen, Kec. Sidemen, Kabupaten Karangasem",BALI,80864.0,Indonesia,85738565018.0,,,-8.4638608,115.4481276,https://maps.google.com/?cid=0x0:0xa2146fef02245c02,
mall,Toko,Warung Manik Pujung Sari,"GCVQ+3J3, Br.dukuh, Sangkan Gn., Kec. Sidemen, Kabupaten Karangasem, Bali 80864","Br.dukuh, Sangkan Gn., Kec. Sidemen, Kabupaten Karangasem",BALI,80864.0,Indonesia,,,,-8.4573522,115.4390378,https://maps.google.com/?cid=0x0:0xd8c74837b6288799,
mall,Tujuan Wisata,Jembatan Kuning Tukad Yeh Unda,"GCRW+453, Sidemen, Tukad Yeh Unda, Sangkan Gn., Kec. Sidemen, Kabupaten Karangasem, Bali 80864","Sidemen, Tukad Yeh Unda, Sangkan Gn., Kec. Sidemen, Kabupaten Karangasem",BALI,80864.0,Indonesia,85956689522.0,,,-8.4598924,115.4457336,https://maps.google.com/?cid=0x0:0xde69e66b68b06889,
mall,Kantor Perusahaan,Pabrik Tempe Sofyan,"GCVX+6MX, Sindu Wati, Kec. Sidemen, Kabupaten Karangasem, Bali 80864","Sindu Wati, Kec. Sidemen, Kabupaten Karangasem",BALI,80864.0,Indonesia,85737112119.0,,,-8.4568765,115.4492189,https://maps.google.com/?cid=0x0:0xb6a758c3fab681c9,
mall,Pusat Perbelanjaan,Warung ilalang,"FCRF+3C8, Lokasari, Kec. Sidemen, Kabupaten Karangasem, Bali 80864","Lokasari, Kec. Sidemen, Kabupaten Karangasem",BALI,80864.0,Indonesia,82147051602.0,,,-8.5098344,115.4235906,https://maps.google.com/?cid=0x0:0xb578818e0f3286ba,
mall,Desainer Perhiasan,Agung Silver Sidemen,"Jalan Raya Dukuh, Sangkan Gn., Kec. Sidemen, Kabupaten Karangasem, Bali 80864","Sangkan Gn., Kec. Sidemen, Kabupaten Karangasem",BALI,80864.0,Indonesia,81337035113.0,,,-8.4596482,115.4374179,https://maps.google.com/?cid=0x0:0x76b0cbc7a44c2f52,
mall,mall,Natural View House  Restaurant - Sidemen,"GC6M+MMH, Wismakerta, Kec. Sidemen, Kabupaten Karangasem, Bali 80864","Wismakerta, Kec. Sidemen, Kabupaten Karangasem",BALI,80864.0,Indonesia,81246747107.0,,,-8.4883033,115.4342346,https://maps.google.com/?cid=0x0:0xda98f99363887cec,
supermarket,supermarket,Abang,"Kec. Abang, Kabupaten Karangasem, Bali","Kabupaten Karangasem, Bali",BALI,,Indonesia,,,,-8.3938452,115.6006725,https://maps.google.com/?cid=0x0:0x5030bfbca831740,
supermarket,Toko Swalayan,ANDIKA MART,"JH2W+663, Jalan Raya, Ababi, Abang, Karangasem Regency, Bali 80852","Jalan Raya, Ababi, Abang, Karangasem Regency",BALI,80852.0,Indonesia,,,,-8.3994799,115.5955406,https://maps.google.com/?cid=0x0:0xeab70e1f7bc9f9da,
supermarket,Toko Swalayan,Parwata Cell,"JJ73+W73, Abang, Kec. Abang, Kabupaten Karangasem, Bali 80852","Abang, Kec. Abang, Kabupaten Karangasem",BALI,80852.0,Indonesia,,,,-8.3852439,115.603164,https://maps.google.com/?cid=0x0:0x7ff419abcc9c20f1,
supermarket,Toko Swalayan,Jati Cell,"JH3W+VP4, Abang, Kec. Abang, Kabupaten Karangasem, Bali 80852","Abang, Kec. Abang, Kabupaten Karangasem",BALI,80852.0,Indonesia,85935006060.0,,,-8.3953624,115.596822,https://maps.google.com/?cid=0x0:0x406fe9492dd1ed4b,
supermarket,Toko Swalayan,Warung merta sari waliang,"Jl. Waliang, Abang, Kec. Abang, Kabupaten Karangasem, Bali 80852","Abang, Kec. Abang, Kabupaten Karangasem",BALI,80852.0,Indonesia,87762921472.0,,,-8.3965876,115.6070114,https://maps.google.com/?cid=0x0:0x4775746a2b6912f6,
supermarket,Minimarket,PT INDOMARCO ADI PRIMA,"HHXQ+5R9, Jl. Raya Ababi, Ababi, Kec. Abang, Kabupaten Karangasem, Bali 80852","Jl. Raya Ababi, Ababi, Kec. Abang, Kabupaten Karangasem",BALI,80852.0,Indonesia,85343571609.0,,,-8.4020819,115.589596,https://maps.google.com/?cid=0x0:0x7c073ec25c80dada,
supermarket,Toko bahan makanan,Toko Indra,"HHWW+5HG, Ababi, Kec. Abang, Kabupaten Karangasem, Bali 80852","Ababi, Kec. Abang, Kabupaten Karangasem",BALI,80852.0,Indonesia,,,,-8.4045516,115.5964642,https://maps.google.com/?cid=0x0:0xe361866ff0def246,
supermarket,Toko bahan makanan,Yogi Grosir,"Bunutan, Kec. Abang, Kabupaten Karangasem, Bali 80852","Kec. Abang, Kabupaten Karangasem",BALI,80852.0,Indonesia,85237865772.0,,,-8.3585367,115.6391526,https://maps.google.com/?cid=0x0:0x1e75407c3a7faa82,
supermarket,Toko Swalayan,Toko Bu Yuni,"JJ53+3M9, Abang, Kec. Abang, Kabupaten Karangasem, Bali 80852","Abang, Kec. Abang, Kabupaten Karangasem",BALI,80852.0,Indonesia,,,,-8.3923268,115.6042197,https://maps.google.com/?cid=0x0:0x2cb8a1a469b1d973,
supermarket,Minimarket,UD ELOK TISTA,"Raya, Tista, Mangsul,Abang, Kabupaten Karangasem, Bali 80852","Tista, Mangsul,Abang, Kabupaten Karangasem",BALI,80852.0,Indonesia,8124644759.0,,,-8.3795162,115.6105796,https://maps.google.com/?cid=0x0:0x7a64ffcf6340e9e3,
supermarket,Minimarket,Indomaret Spbu Ababi,"HHXQ+4QV, Jl. Raya Ababi, Ababi, Kec. Abang, Kabupaten Karangasem, Bali 80852","Jl. Raya Ababi, Ababi, Kec. Abang, Kabupaten Karangasem",BALI,80852.0,Indonesia,,,,-8.4021321,115.5894304,https://maps.google.com/?cid=0x0:0x185e4bccfc304a58,
supermarket,Toko Alat Tulis Kantor,KAYANA ATK ABANG,"JH4W+4W3, Jl. Ida Kt Djelantik, Abang, Kec. Abang, Kabupaten Karangasem, Bali 80852","Jl. Ida Kt Djelantik, Abang, Kec. Abang, Kabupaten Karangasem",BALI,80852.0,Indonesia,82339391009.0,,,-8.394729,115.597304,https://maps.google.com/?cid=0x0:0x54b41c43866308f3,
supermarket,Toko,GANIRAS CM SHOP,"Jl. Raya Ababi, Ababi, Kec. Abang, Kabupaten Karangasem, Bali 80852","Ababi, Kec. Abang, Kabupaten Karangasem",BALI,80852.0,Indonesia,8155704008.0,,,-8.4034299,115.587518,https://maps.google.com/?cid=0x0:0xb66bcae167f434c7,
supermarket,Toko umum,Warung RismaHendra,"JH7X+MRX, Abang, Kec. Abang, Kabupaten Karangasem, Bali 80852","Abang, Kec. Abang, Kabupaten Karangasem",BALI,80852.0,Indonesia,,,,-8.38669,115.6003133,https://maps.google.com/?cid=0x0:0xf08ca3f8a3da2b38,
supermarket,Toko Swalayan,UD Tara,"JJF5+P48, Jl. Ida Ketut Jelantik, Tista, Kec. Abang, Kabupaten Karangasem, Bali 80852","Jl. Ida Ketut Jelantik, Tista, Kec. Abang, Kabupaten Karangasem",BALI,80852.0,Indonesia,,,,-8.3757009,115.6078158,https://maps.google.com/?cid=0x0:0x4c58f457d46853db,
supermarket,Toko bahan makanan,Indomaret Raya Amed,"MJ7W+MJR, Jl. I Ketut Natih, Purwakerti, Kec. Abang, Kabupaten Karangasem, Bali 80852","Jl. I Ketut Natih, Purwakerti, Kec. Abang, Kabupaten Karangasem",BALI,80852.0,Indonesia,,,,-8.3357524,115.6465129,https://maps.google.com/?cid=0x0:0x13eaeb48d1207158,
supermarket,Toko bahan makanan,Warung Bu Ani,"Jl. Ida Kt Djelantik, Abang, Kec. Abang, Kabupaten Karangasem, Bali 80852","Abang, Kec. Abang, Kabupaten Karangasem",BALI,80852.0,Indonesia,82341450188.0,,,-8.3935568,115.5980017,https://maps.google.com/?cid=0x0:0x4f4934cc1b2b23a8,
supermarket,Toko,WARUNG OMINK,"JJ7C+G77, Jl. Jumetra, Tri Buana, Kec. Abang, Kabupaten Karangasem, Bali 80852","Jl. Jumetra, Tri Buana, Kec. Abang, Kabupaten Karangasem",BALI,80852.0,Indonesia,85737333261.0,,,-8.3862138,115.6206862,https://maps.google.com/?cid=0x0:0x676939ff318314c4,
supermarket,,Toko Subur Rejeki,"JH4W+5W8, Dulun, sampih, Abang, Karangasem Regency, Bali 80852","Dulun, sampih, Abang, Karangasem Regency",BALI,80852.0,Indonesia,85237913795.0,,,-8.3945995,115.5973385,https://maps.google.com/?cid=0x0:0xa8bf5274da19f5,
supermarket,Minimarket,SBS Karangasem By Wayan Kari,"HHWQ+P68, Jl. Raya Ababi, Karangasem, Kec. Karangasem, Kabupaten Karangasem, Bali 80852","Jl. Raya Ababi, Karangasem, Kec. Karangasem, Kabupaten Karangasem",BALI,80852.0,Indonesia,81339337975.0,,,-8.4032126,115.5880665,https://maps.google.com/?cid=0x0:0xcb36cb20c58dc9c3,
supermarket,Toko bahan makanan,UD. Mangga. I,"MM3F+95P, Jl. Raya Amed, Bunutan, Kec. Abang, Kabupaten Karangasem, Bali 80852","Jl. Raya Amed, Bunutan, Kec. Abang, Kabupaten Karangasem",BALI,80852.0,Indonesia,81338954932.0,,,-8.3465346,115.672943,https://maps.google.com/?cid=0x0:0xc0876d92bb7bafe9,
supermarket,Toko bahan makanan,Warung empage,"JJFQ+9FP, Bunutan, Kec. Abang, Kabupaten Karangasem, Bali 80852","Bunutan, Kec. Abang, Kabupaten Karangasem",BALI,80852.0,Indonesia,87860930430.0,,,-8.3765399,115.6387173,https://maps.google.com/?cid=0x0:0xf574ede413818e63,
supermarket,Toko bahan makanan,BHUANA MART,"Bunutan, Kec. Abang, Kabupaten Karangasem, Bali 80852","Kec. Abang, Kabupaten Karangasem",BALI,80852.0,Indonesia,,,,-8.3472685,115.6787779,https://maps.google.com/?cid=0x0:0xce38b0b064113292,
supermarket,Minimarket,Solaluna Mart,"Jl. I Ketut Natih, Purwakerti, Kec. Abang, Kabupaten Karangasem, Bali 80852","Purwakerti, Kec. Abang, Kabupaten Karangasem",BALI,80852.0,Indonesia,87762459180.0,,,-8.3356717,115.6508372,https://maps.google.com/?cid=0x0:0x65bffc0f72a9e807,
supermarket,Toko,AW Shop,"Purwakerti, Kec. Abang, Kabupaten Karangasem, Bali 80852","Kec. Abang, Kabupaten Karangasem",BALI,80852.0,Indonesia,81936176908.0,,,-8.3358575,115.6492842,https://maps.google.com/?cid=0x0:0x455c55dda2bbafa4,
supermarket,Minimarket,Noni Shop,"Purwakerti, Kec. Abang, Kabupaten Karangasem, Bali 80852","Kec. Abang, Kabupaten Karangasem",BALI,80852.0,Indonesia,81337899044.0,,,-8.3372933,115.6585278,https://maps.google.com/?cid=0x0:0xac3f58ff8ffa0e52,
supermarket,,Adi Shop,"MM3C+MVF, Bunutan, Kec. Abang, Kabupaten Karangasem, Bali 80852","Bunutan, Kec. Abang, Kabupaten Karangasem",BALI,80852.0,Indonesia,,,,-8.3458191,115.672164,https://maps.google.com/?cid=0x0:0x2c6217ebb3f6cee6,
supermarket,Toko Swalayan,Siki Utama,"Jl. Kubu, Laba Sari, Kec. Abang, Kabupaten Karangasem, Bali 80852","Laba Sari, Kec. Abang, Kabupaten Karangasem",BALI,80852.0,Indonesia,85792266059.0,,,-8.3313708,115.6146517,https://maps.google.com/?cid=0x0:0xf1c1ec04b368df78,
supermarket,Toko bahan makanan,Cahaya Mart,"MJ59+QM7, Jl. I Ketut Natih, Culik, Kec. Abang, Kabupaten Karangasem, Bali 80852","Jl. I Ketut Natih, Culik, Kec. Abang, Kabupaten Karangasem",BALI,80852.0,Indonesia,85737676577.0,,,-8.3408256,115.6192511,https://maps.google.com/?cid=0x0:0x13c654c4c1f90deb,
supermarket,Toko bahan makanan,Toko Mini,"HH56+M9X, Jl. Kuncaragiri, Bebandem, Kec. Bebandem, Kabupaten Karangasem, Bali 80861","Jl. Kuncaragiri, Bebandem, Kec. Bebandem, Kabupaten Karangasem",BALI,80861.0,Indonesia,36326318.0,,,-8.4407525,115.5609844,https://maps.google.com/?cid=0x0:0x39c9ef1c581d1921,
supermarket,Minimarket,Toko Swalayan Bebandem,"HH56+847, Bebandem, Kec. Bebandem, Kabupaten Karangasem, Bali 80861","Bebandem, Kec. Bebandem, Kabupaten Karangasem",BALI,80861.0,Indonesia,,,,-8.4417106,115.5602974,https://maps.google.com/?cid=0x0:0xfcadb5d3dafc1dc3,
supermarket,supermarket,Karangasem,"Kec. Karangasem, Kabupaten Karangasem, Bali","Kabupaten Karangasem, Bali",BALI,,Indonesia,,,,-8.4359528,115.609553,https://maps.google.com/?cid=0x0:0x2f56ee0fd49a2b29,
supermarket,Toko Swalayan,Clandys Mart Karangasem,"Jl. Suropati No.206, Subagan, Kec. Karangasem, Kabupaten Karangasem, Bali 80811","Subagan, Kec. Karangasem, Kabupaten Karangasem",BALI,80811.0,Indonesia,87858882422.0,,,-8.4523381,115.6034627,https://maps.google.com/?cid=0x0:0xc0720e52a010ddc8,
supermarket,Pembangunan Perumahan,Artasedana Amlapura,"Jl. Diponegoro No.14x, Karangasem, Kec. Karangasem, Kabupaten Karangasem, Bali 80811","Karangasem, Kec. Karangasem, Kabupaten Karangasem",BALI,80811.0,Indonesia,87743224484.0,,,-8.4467079,115.6137486,https://maps.google.com/?cid=0x0:0x6237d8edacc47291,
supermarket,Minimarket,Indomaret Subagan,"GJW2+JVP, Subagan, Kec. Karangasem, Kabupaten Karangasem, Bali 80811","Subagan, Kec. Karangasem, Kabupaten Karangasem",BALI,80811.0,Indonesia,81936047004.0,,,-8.4534098,115.6021931,https://maps.google.com/?cid=0x0:0xcac2640addf6d2e2,
supermarket,Minimarket,Alfamart,"Jl. Gajahmada, Karangasem, Kec. Karangasem, Kabupaten Karangasem, Bali 80811","Karangasem, Kec. Karangasem, Kabupaten Karangasem",BALI,80811.0,Indonesia,1500959.0,,,-8.4461425,115.6160077,https://maps.google.com/?cid=0x0:0x669012896a1c5b23,
supermarket,Minimarket,Prandis Mart,"Jl. Pesagi, UJUNG, Kec. Karangasem, Kabupaten Karangasem, Bali 80811","UJUNG, Kec. Karangasem, Kabupaten Karangasem",BALI,80811.0,Indonesia,81338785414.0,,,-8.4606376,115.6230877,https://maps.google.com/?cid=0x0:0xdb99c8ff5b3276ea,
supermarket,Pasar,Pasar Karangsokong,"GHWX+Q88, Subagan, Kec. Karangasem, Kabupaten Karangasem, Bali 80811","Subagan, Kec. Karangasem, Kabupaten Karangasem",BALI,80811.0,Indonesia,,,,-8.4530798,115.5983363,https://maps.google.com/?cid=0x0:0x43b94a21ed721a43,
supermarket,Toko bahan makanan,UD.Mikro 2,"GJR3+4WW, Jl. Achmad Yani, Subagan, Kec. Karangasem, Kabupaten Karangasem, Bali 80811","Jl. Achmad Yani, Subagan, Kec. Karangasem, Kabupaten Karangasem",BALI,80811.0,Indonesia,81338980930.0,,,-8.4596492,115.6048215,https://maps.google.com/?cid=0x0:0x8bf202ff221834a1,
supermarket,supermarket,BULAN MART,"Jl. Ngurah Rai, Karangasem, Kec. Karangasem, Kabupaten Karangasem, Bali 80811","Karangasem, Kec. Karangasem, Kabupaten Karangasem",BALI,80811.0,Indonesia,82322533596.0,,,-8.4338798,115.6116499,https://maps.google.com/?cid=0x0:0xb1944ec83fa6c8dc,
supermarket,Butik,Sunrise Outlet Karangasem Subagan,"Jl. Achmad Yani, Subagan, Kec. Karangasem, Kabupaten Karangasem, Bali 80811","Subagan, Kec. Karangasem, Kabupaten Karangasem",BALI,80811.0,Indonesia,82142004254.0,,,-8.4620716,115.6071401,https://maps.google.com/?cid=0x0:0xf5c895822a551c64,
supermarket,Toko bahan makanan,Ni ketut asmiati,"HJ4F+3PQ, Jl. Selamat, Tumbu, Kec. Karangasem, Kabupaten Karangasem, Bali 80811","Jl. Selamat, Tumbu, Kec. Karangasem, Kabupaten Karangasem",BALI,80811.0,Indonesia,,,,-8.4447791,115.6243457,https://maps.google.com/?cid=0x0:0xf3def9b9cc6a8acf,
supermarket,Toko Pakaian,ALWAYS STORE,"Jl. Kesatrian, Karangasem, Kec. Karangasem, Kabupaten Karangasem, Bali 80811","Karangasem, Kec. Karangasem, Kabupaten Karangasem",BALI,80811.0,Indonesia,81138200029.0,,,-8.4493394,115.6150606,https://maps.google.com/?cid=0x0:0x103d0ac77e1f18aa,
supermarket,Toko bahan makanan,Toko Ketemu Lagi Subagan,"GJR3+JHX, Jl. Achmad Yani, Subagan, Kec. Karangasem, Kabupaten Karangasem, Bali 80811","Jl. Achmad Yani, Subagan, Kec. Karangasem, Kabupaten Karangasem",BALI,80811.0,Indonesia,85737443886.0,,,-8.4583982,115.6039958,https://maps.google.com/?cid=0x0:0x16c901158459dabe,
supermarket,Toko bahan makanan,Sunshine Mini Market,"Lingkungan Pebukit, Jl. Pesagi, Subagan, Kec. Karangasem, Bali 80813","Jl. Pesagi, Subagan, Kec. Karangasem",BALI,80813.0,Indonesia,85161947966.0,,,-8.451791,115.6099042,https://maps.google.com/?cid=0x0:0xb68570a5b5172734,
supermarket,Minimarket,Alfamart,"Jl. Untung Surapati No.Kel, Subagan, Kec. Karangasem, Kabupaten Karangasem, Bali 80813","Subagan, Kec. Karangasem, Kabupaten Karangasem",BALI,80813.0,Indonesia,1500959.0,,,-8.4482422,115.6055348,https://maps.google.com/?cid=0x0:0x1fafedd8b7a7ad4a,
supermarket,Toko,Griya Pendem Karangasem,"Jl. Sultan Agung No.63, Karangasem, Kec. Karangasem, Kabupaten Karangasem, Bali 80811","Karangasem, Kec. Karangasem, Kabupaten Karangasem",BALI,80811.0,Indonesia,85737911002.0,,,-8.4402782,115.6155541,https://maps.google.com/?cid=0x0:0x9cd7bce75bb97d32,
supermarket,Brunch,warung Ribu,"GJG9+Q2Q, Gg. Penatih, Subagan, Kec. Karangasem, Kabupaten Karangasem, Bali 80811","Gg. Penatih, Subagan, Kec. Karangasem, Kabupaten Karangasem",BALI,80811.0,Indonesia,82340150684.0,,,-8.4730407,115.6175948,https://maps.google.com/?cid=0x0:0x74a05c165c33f2e7,
supermarket,Toko Elektronik,Supermarket Jam,"HJ37+2P6, Jl. Diponegoro, Karangasem, Kec. Karangasem, Kabupaten Karangasem, Bali 80811","Jl. Diponegoro, Karangasem, Kec. Karangasem, Kabupaten Karangasem",BALI,80811.0,Indonesia,,,,-8.4474678,115.6142575,https://maps.google.com/?cid=0x0:0xbe45829768d2f492,
supermarket,Toko bahan makanan,Wr. Tuayuk Rai,"HJ57+GGM, Subagan, Kec. Karangasem, Kabupaten Karangasem, Bali 80811","Subagan, Kec. Karangasem, Kabupaten Karangasem",BALI,80811.0,Indonesia,82144833185.0,,,-8.4411616,115.6137865,https://maps.google.com/?cid=0x0:0x4fd1a143ae169e01,
supermarket,Toko,di toko swastika sidemen,"HJ37+F4J, Karangasem, Kec. Karangasem, Kabupaten Karangasem, Bali 80811","Karangasem, Kec. Karangasem, Kabupaten Karangasem",BALI,80811.0,Indonesia,81338367655.0,,,-8.4462833,115.6127654,https://maps.google.com/?cid=0x0:0xa994db1df14f8c76,
supermarket,supermarket,Bali 80811,"Kec. Karangasem, Kabupaten Karangasem, Bali","Kabupaten Karangasem, Bali",BALI,,Indonesia,,,,-8.4497997,115.6273131,https://maps.google.com/?cid=0x0:0x1c00c5eb6016c030,
supermarket,Minimarket,Alfamart,"Jl. Untung Surapati Kel No.9, Padang Kerta, Kec. Karangasem, Kab. Karangasem, Bali 80811","Padang Kerta, Kec. Karangasem, Kab. Karangasem",BALI,80811.0,Indonesia,1500959.0,,,-8.4395066,115.5962576,https://maps.google.com/?cid=0x0:0x7958d5d5cbfb4473,
supermarket,Toko bahan makanan,Bali Swari Mart,"Jl. Pesagi, Subagan, Kec. Karangasem, Kabupaten Karangasem, Bali 80811","Subagan, Kec. Karangasem, Kabupaten Karangasem",BALI,80811.0,Indonesia,82341058804.0,,,-8.4536706,115.6121506,https://maps.google.com/?cid=0x0:0x148331c22c05f043,
supermarket,Toko Swalayan,Mawar Sari Kecicang,"HH3M+V67, Jl. Nenas, Bungaya Kangin, Kec. Bebandem, Kabupaten Karangasem, Bali 80811","Jl. Nenas, Bungaya Kangin, Kec. Bebandem, Kabupaten Karangasem",BALI,80811.0,Indonesia,,,,-8.4453367,115.5830353,https://maps.google.com/?cid=0x0:0x6dd4832238381df,
supermarket,supermarket,Bali 80813,"Kec. Karangasem, Kabupaten Karangasem, Bali","Kabupaten Karangasem, Bali",BALI,,Indonesia,,,,-8.4738779,115.6065929,https://maps.google.com/?cid=0x0:0xbeec0d2e7f009819,
supermarket,Toko bahan makanan,Mawar Sari Bali Fresh Mart Subagan,"Jl. Achmad Yani No.5, Subagan, Kec. Karangasem, Kabupaten Karangasem, Bali 80813","Subagan, Kec. Karangasem, Kabupaten Karangasem",BALI,80813.0,Indonesia,,,,-8.4551092,115.6011145,https://maps.google.com/?cid=0x0:0xdb0c8004e104d742,
supermarket,Toko Swalayan,Clandys Mart Karangasem,"Jl. Suropati No.206, Subagan, Kec. Karangasem, Kabupaten Karangasem, Bali 80811","Subagan, Kec. Karangasem, Kabupaten Karangasem",BALI,80811.0,Indonesia,87858882422.0,,,-8.4523381,115.6034627,https://maps.google.com/?cid=0x0:0xc0720e52a010ddc8,
supermarket,Pembangunan Perumahan,Artasedana Amlapura,"Jl. Diponegoro No.14x, Karangasem, Kec. Karangasem, Kabupaten Karangasem, Bali 80811","Karangasem, Kec. Karangasem, Kabupaten Karangasem",BALI,80811.0,Indonesia,87743224484.0,,,-8.4467079,115.6137486,https://maps.google.com/?cid=0x0:0x6237d8edacc47291,
supermarket,Minimarket,Indomaret Subagan,"GJW2+JVP, Subagan, Kec. Karangasem, Kabupaten Karangasem, Bali 80811","Subagan, Kec. Karangasem, Kabupaten Karangasem",BALI,80811.0,Indonesia,81936047004.0,,,-8.4534098,115.6021931,https://maps.google.com/?cid=0x0:0xcac2640addf6d2e2,
supermarket,Toko bahan makanan,PT BEST Cabang Karangasem,"GJ95+42Q, Jl. Raya Perasi, Pertima, Kec. Karangasem, Kabupaten Karangasem, Bali 80813","Jl. Raya Perasi, Pertima, Kec. Karangasem, Kabupaten Karangasem",BALI,80813.0,Indonesia,81337380452.0,,,-8.4821711,115.6076165,https://maps.google.com/?cid=0x0:0xf06839763bbdc1ae,
supermarket,Toko,DJ MART,"HH2R+H49, Jl. Nenas, Bungaya Kangin, Kec. Bebandem, Kabupaten Karangasem, Bali 80813","Jl. Nenas, Bungaya Kangin, Kec. Bebandem, Kabupaten Karangasem",BALI,80813.0,Indonesia,36322833.0,,,-8.4485866,115.5903463,https://maps.google.com/?cid=0x0:0xbca0373a4c9f1d5b,
supermarket,Toko bahan makanan,UD.Mikro 2,"GJR3+4WW, Jl. Achmad Yani, Subagan, Kec. Karangasem, Kabupaten Karangasem, Bali 80811","Jl. Achmad Yani, Subagan, Kec. Karangasem, Kabupaten Karangasem",BALI,80811.0,Indonesia,81338980930.0,,,-8.4596492,115.6048215,https://maps.google.com/?cid=0x0:0x8bf202ff221834a1,
supermarket,Toko bahan makanan,Sunshine Mini Market,"Lingkungan Pebukit, Jl. Pesagi, Subagan, Kec. Karangasem, Bali 80813","Jl. Pesagi, Subagan, Kec. Karangasem",BALI,80813.0,Indonesia,85161947966.0,,,-8.451791,115.6099042,https://maps.google.com/?cid=0x0:0xb68570a5b5172734,
supermarket,Toko bahan makanan,Toko Ketemu Lagi Subagan,"GJR3+JHX, Jl. Achmad Yani, Subagan, Kec. Karangasem, Kabupaten Karangasem, Bali 80811","Jl. Achmad Yani, Subagan, Kec. Karangasem, Kabupaten Karangasem",BALI,80811.0,Indonesia,85737443886.0,,,-8.4583982,115.6039958,https://maps.google.com/?cid=0x0:0x16c901158459dabe,
supermarket,Minimarket,Alfamart,"Jl. Untung Surapati No.Kel, Subagan, Kec. Karangasem, Kabupaten Karangasem, Bali 80813","Subagan, Kec. Karangasem, Kabupaten Karangasem",BALI,80813.0,Indonesia,1500959.0,,,-8.4482422,115.6055348,https://maps.google.com/?cid=0x0:0x1fafedd8b7a7ad4a,
supermarket,Toko Pakaian,Bandung Collection Bali Cabang Karangasem,"Jl. Untung Surapati No.88a, Subagan, Kec. Karangasem, Kabupaten Karangasem, Bali 80813","Subagan, Kec. Karangasem, Kabupaten Karangasem",BALI,80813.0,Indonesia,81246662899.0,,,-8.4440953,115.6012365,https://maps.google.com/?cid=0x0:0x9294b7fa34d07eae,
supermarket,Toko bahan makanan,RevTot Supply,"Jalan Segara Madu No.4, Pertima, Kec. Karangasem, Kabupaten Karangasem, Bali 80813","Pertima, Kec. Karangasem, Kabupaten Karangasem",BALI,80813.0,Indonesia,,,,-8.486263,115.601871,https://maps.google.com/?cid=0x0:0x6037c366592893ce,
supermarket,Toko umum,Toko Berkah Sari,"GHCX+62J, Jl. Raya Bungaya, Pertima, Kec. Karangasem, Kabupaten Karangasem, Bali 80813","Jl. Raya Bungaya, Pertima, Kec. Karangasem, Kabupaten Karangasem",BALI,80813.0,Indonesia,,,,-8.4794081,115.597527,https://maps.google.com/?cid=0x0:0x2712023d85099e3a,
supermarket,Toko Swalayan,Alfamart,"Jl. Nenas, Kel. Bandem, Kec. Bebandem, Kabupaten Karangasem, Bali 80861","Kel. Bandem, Kec. Bebandem, Kabupaten Karangasem",BALI,80861.0,Indonesia,1500959.0,,,-8.4508542,115.5939135,https://maps.google.com/?cid=0x0:0xb05114ed53296001,
supermarket,Toko bahan makanan,Garry's Frozen Food,"Jl. Achmad Yani, Subagan, Kec. Karangasem, Kabupaten Karangasem, Bali 80813","Subagan, Kec. Karangasem, Kabupaten Karangasem",BALI,80813.0,Indonesia,81236205070.0,,,-8.4563676,115.6019148,https://maps.google.com/?cid=0x0:0xefa5d49c9b66c26d,
supermarket,Toko bahan makanan,Supermarket Gemilang,"Jln. Baledan, Desa Duda, Selat, Kec. Karangasem, Kabupaten Karangasem, Bali 80862","Desa Duda, Selat, Kec. Karangasem, Kabupaten Karangasem",BALI,80862.0,Indonesia,,,,-8.4445506,115.4905495,https://maps.google.com/?cid=0x0:0x65c970482a33aa3e,
supermarket,Toko bahan makanan,Suriati mart,"GJ63+X5Q, Pertima, Kec. Karangasem, Kabupaten Karangasem, Bali 80813","Pertima, Kec. Karangasem, Kabupaten Karangasem",BALI,80813.0,Indonesia,,,,-8.4875473,115.6029713,https://maps.google.com/?cid=0x0:0x8edd7e1190400154,
supermarket,Brunch,warung Ribu,"GJG9+Q2Q, Gg. Penatih, Subagan, Kec. Karangasem, Kabupaten Karangasem, Bali 80811","Gg. Penatih, Subagan, Kec. Karangasem, Kabupaten Karangasem",BALI,80811.0,Indonesia,82340150684.0,,,-8.4730407,115.6175948,https://maps.google.com/?cid=0x0:0x74a05c165c33f2e7,
supermarket,Minimarket,SABE MART,"GJF8+235, Jl. Raya Perasi, Subagan, Kec. Karangasem, Kabupaten Karangasem, Bali 80813","Jl. Raya Perasi, Subagan, Kec. Karangasem, Kabupaten Karangasem",BALI,80813.0,Indonesia,,,,-8.4774908,115.6152394,https://maps.google.com/?cid=0x0:0x108f15548f0001d6,
supermarket,Gudang,Toko Muncul Lagi Plastik,"Jl. Nenas No.3, Subagan, Kec. Karangasem, Kabupaten Karangasem, Bali 80811","Subagan, Kec. Karangasem, Kabupaten Karangasem",BALI,80811.0,Indonesia,89671871155.0,,,-8.4563546,115.5974853,https://maps.google.com/?cid=0x0:0xbaad2fa7f0a2ba0e,
supermarket,Minimarket,UD AYU AMLAPURA TOKO BAHAN KUE  CETAKAN KUE,"Jl. Nenas No.63, Subagan, Kec. Karangasem, Kabupaten Karangasem, Bali 80813","Subagan, Kec. Karangasem, Kabupaten Karangasem",BALI,80813.0,Indonesia,87857134891.0,,,-8.4550461,115.5969983,https://maps.google.com/?cid=0x0:0x439532b13897aef6,
supermarket,Toko,Oka Artadana,"Jalan Pantai Jasri, Subagan, Kec. Karangasem, Kabupaten Karangasem, Bali 80813","Subagan, Kec. Karangasem, Kabupaten Karangasem",BALI,80813.0,Indonesia,81338579033.0,,,-8.4742088,115.6179635,https://maps.google.com/?cid=0x0:0x780887546a9c9d,
supermarket,Minimarket,Indomaret Subagan,"Jl. Pb. Sudirman No.7, Subagan, Karangasem, Karangasem Regency, Bali 80813","Subagan, Karangasem, Karangasem Regency",BALI,80813.0,Indonesia,816500580.0,,,-8.4703182,115.614746,https://maps.google.com/?cid=0x0:0x8a08c4ae379ac141,
supermarket,supermarket,Kubu,"Kubu, Kec. Kubu, Kabupaten Karangasem, Bali","Kabupaten Karangasem, Bali",BALI,,Indonesia,,,,-8.25944,115.566002,https://maps.google.com/?cid=0x0:0x7361d170964b4850,
supermarket,Toko Swalayan,Sila kubu bali,"FFQJ+6X3, Gegelang, Kec. Manggis, Kabupaten Karangasem, Bali 80871","Gegelang, Kec. Manggis, Kabupaten Karangasem",BALI,80871.0,Indonesia,,,,-8.5119925,115.482424,https://maps.google.com/?cid=0x0:0x18db2d42c1c051ef,
supermarket,Toko Swalayan,UD. Mariati,"PHVF+W6G, Jl. Kubu, Kubu, Kec. Kubu, Kabupaten Karangasem, Bali 80853","Jl. Kubu, Kubu, Kec. Kubu, Kabupaten Karangasem",BALI,80853.0,Indonesia,,,,-8.255182,115.5730896,https://maps.google.com/?cid=0x0:0xd4a825326c5a6be6,
supermarket,Toko Swalayan,Grand Lucky Supermarket,"Jl. Sunset Road No.29, Kuta, Kec. Kuta, Kabupaten Badung, Bali 80361","Kuta, Kec. Kuta, Kabupaten Badung",BALI,80361.0,Indonesia,361762308.0,,,-8.7071714,115.1837175,https://maps.google.com/?cid=0x0:0xf625ece1b610a74c,
supermarket,Toko Bunga,Anty Business Shop,"PHQ8+VC8, Kubu, Kec. Kubu, Kabupaten Karangasem, Bali 80853","Kubu, Kec. Kubu, Kabupaten Karangasem",BALI,80853.0,Indonesia,,,,-8.2603258,115.5660715,https://maps.google.com/?cid=0x0:0x95c36e200e160b85,
supermarket,Toko,Toko Surya Dewata,"PHWC+J6J, Jalan, Kubu, Karangasem Regency, Bali 80853","Jalan, Kubu, Karangasem Regency",BALI,80853.0,Indonesia,81936343492.0,,,-8.2534006,115.5705169,https://maps.google.com/?cid=0x0:0x1f791881cb04f00,
supermarket,Toko Swalayan,Indomaret Tulamben,"PHFR+W3H, Jalan, Tulamben, Kubu, Karangasem Regency, Bali 80852","Jalan, Tulamben, Kubu, Karangasem Regency",BALI,80852.0,Indonesia,,,,-8.2751961,115.5902454,https://maps.google.com/?cid=0x0:0xdfc7bde652c254c5,
supermarket,Toko,MULYA MART,"PHPM+F42, Tulamben, Kec. Kubu, Kabupaten Karangasem, Bali 80853","Tulamben, Kec. Kubu, Kabupaten Karangasem",BALI,80853.0,Indonesia,85238039036.0,,,-8.263852,115.582752,https://maps.google.com/?cid=0x0:0xd3654d8e3724a38e,
supermarket,Toko,Kresna Collection kubu,"PHWC+M55, Jalan, Kubu, Karangasem Regency, Bali 80853","Jalan, Kubu, Karangasem Regency",BALI,80853.0,Indonesia,81806450035.0,,,-8.2533695,115.5704712,https://maps.google.com/?cid=0x0:0xcda19c9b36c49c19,
supermarket,Toko bahan makanan,UD WAHYUDI,"PHMM+HXR, Jl. Kubu, Tulamben, Kec. Kubu, Kabupaten Karangasem, Bali 80853","Jl. Kubu, Tulamben, Kec. Kubu, Kabupaten Karangasem",BALI,80853.0,Indonesia,87861719166.0,,,-8.2660037,115.5848912,https://maps.google.com/?cid=0x0:0x8e8602feac1493ed,
supermarket,,Toko Sembako,"PHR9+V6P Br dinas Karanganyar, Kubu, Kec. Kubu, Kabupaten Karangasem, Bali","Kabupaten Karangasem, Bali",BALI,,Indonesia,81236333187.0,,,-8.2577796,115.5680425,https://maps.google.com/?cid=0x0:0xc00cae0825d5f620,
supermarket,Toko Buah dan Sayuran,TULAMBEN fresh mart,"PHFR+5XC, Jl. Kubu, Tulamben, Kec. Kubu, Kabupaten Karangasem, Bali 80852","Jl. Kubu, Tulamben, Kec. Kubu, Kabupaten Karangasem",BALI,80852.0,Indonesia,,,,-8.277074,115.5923871,https://maps.google.com/?cid=0x0:0xbe706da7efd5c511,
supermarket,Toko bahan makanan,Warung Ayu Shop (1),"PHXF+Q4H, jalan relax, Kubu, Kec. Kubu, Kabupaten Karangasem, Bali 80853","jalan relax, Kubu, Kec. Kubu, Kabupaten Karangasem",BALI,80853.0,Indonesia,85238091388.0,,,-8.2505694,115.5728587,https://maps.google.com/?cid=0x0:0x4b8b54e2d5b07935,
supermarket,Minimarket,Indomart Raya Kubu,"PHVF+GM9, Jalan, Tulamben, Kubu, Karangasem Regency, Bali 80853","Jalan, Tulamben, Kubu, Karangasem Regency",BALI,80853.0,Indonesia,,,,-8.2562138,115.574242,https://maps.google.com/?cid=0x0:0xe77ac610569abdae,
supermarket,Toko,Toko Surya Buah,"Tianyar, Kec. Kubu, Kabupaten Karangasem, Bali 80853","Kec. Kubu, Kabupaten Karangasem",BALI,80853.0,Indonesia,,,,-8.2064394,115.5020665,https://maps.google.com/?cid=0x0:0xd654b69097d8adbe,
supermarket,Toko bahan makanan,egiapriani,"PHVF+W93, Jl. Kubu, Kubu, Kec. Kubu, Kabupaten Karangasem, Bali 80853","Jl. Kubu, Kubu, Kec. Kubu, Kabupaten Karangasem",BALI,80853.0,Indonesia,,,,-8.2552281,115.5734327,https://maps.google.com/?cid=0x0:0xcf57c70464f2ffc3,
supermarket,Toko,Warung OKA ARDANI,"QGV4+JPP, Tianyar, Kec. Kubu, Kabupaten Karangasem, Bali 80853","Tianyar, Kec. Kubu, Kabupaten Karangasem",BALI,80853.0,Indonesia,85829006177.0,,,-8.2059065,115.5068279,https://maps.google.com/?cid=0x0:0x132cba5c78ae49db,
supermarket,Toko umum,UD.GIANYAR,"QFQW+6G, Tianyar, Kec. Kubu, Kabupaten Karangasem, Bali","Kabupaten Karangasem, Bali",BALI,,Indonesia,,,,-8.2119536,115.4963299,https://maps.google.com/?cid=0x0:0x22a29fe97fe5ce73,
supermarket,Toko bahan makanan,Warung Buk Ukir,"RF7J+RF5, Bar, Tianyar Bar., Kec. Kubu, Kabupaten Karangasem, Bali 80853","Bar, Tianyar Bar., Kec. Kubu, Kabupaten Karangasem",BALI,80853.0,Indonesia,,,,-8.18549,115.481246,https://maps.google.com/?cid=0x0:0x31d3c86964a8927d,
supermarket,supermarket,Toko adya utama,"PHV7+J3W, Jl. Amlapura Singaraja, sukadana, Kec. Kubu, Kabupaten Karangasem, Bali 80853","Jl. Amlapura Singaraja, sukadana, Kec. Kubu, Kabupaten Karangasem",BALI,80853.0,Indonesia,85829008296.0,,,-8.2558758,115.562705,https://maps.google.com/?cid=0x0:0xa20e4c02e4367135,
supermarket,Toko bahan makanan,Warung Minggu,"QGH7+776, Tianyar, Kec. Kubu, Kabupaten Karangasem, Bali 80853","Tianyar, Kec. Kubu, Kabupaten Karangasem",BALI,80853.0,Indonesia,,,,-8.2218436,115.513146,https://maps.google.com/?cid=0x0:0x4c38af0f7524d078,
supermarket,Toko bahan makanan,sari Rezeki,"QGG5+X53, Jl. Segara Agung, Tianyar, Kec. Kubu, Kabupaten Karangasem, Bali 80853","Jl. Segara Agung, Tianyar, Kec. Kubu, Kabupaten Karangasem",BALI,80853.0,Indonesia,,,,-8.222613,115.507917,https://maps.google.com/?cid=0x0:0x9b3c128a4e057af3,
supermarket,Toko bahan makanan,Toko Gunung Sari,"QFJX+CRW, Jl. Buluh Winangun, Tianyar, Kec. Kubu, Kabupaten Karangasem, Bali 80853","Jl. Buluh Winangun, Tianyar, Kec. Kubu, Kabupaten Karangasem",BALI,80853.0,Indonesia,81558780650.0,,,-8.2188999,115.499571,https://maps.google.com/?cid=0x0:0x6fa88aab5319f2fc,
supermarket,Toko Pakaian,Minimarket Kubu,"3J2C+PJ6, Unnamed Road, Rantau Panjang Kiri, Kubu, Kabupaten Rokan Hilir, Riau 28991","Unnamed Road, Rantau Panjang Kiri, Kubu, Kabupaten Rokan Hilir",BALI,28991.0,Indonesia,,,,2.0517966,100.6215028,https://maps.google.com/?cid=0x0:0x1bf97ed7d3c034a2,
supermarket,Toko bahan makanan,KEDAI EMPAT PUTRI,"3J5G+859, Jl. Jend. Sudirman, Sungai Kubu, Kubu, Kabupaten Rokan Hilir, Riau 28991","Jl. Jend. Sudirman, Sungai Kubu, Kubu, Kabupaten Rokan Hilir",BALI,28991.0,Indonesia,82128994284.0,,,2.0582997,100.6254788,https://maps.google.com/?cid=0x0:0x30b53ff9fead6d48,
supermarket,Toko bahan makanan,Toko Pak Misran,"3JWG+9VV, Tlk. Piyai, Kubu, Kabupaten Rokan Hilir, Riau 28991","Tlk. Piyai, Kubu, Kabupaten Rokan Hilir",BALI,28991.0,Indonesia,,,,2.0959903,100.6271747,https://maps.google.com/?cid=0x0:0x1951547580fc5d81,
supermarket,Toko bahan makanan,Toko Arrah Mart,"Jl. Jend. Sudirman Simpang Pelita, Rantau Panjang Kiri, Kubu, Kabupaten Rokan Hilir, Riau 28991","Rantau Panjang Kiri, Kubu, Kabupaten Rokan Hilir",BALI,28991.0,Indonesia,,,,2.0415418,100.6291407,https://maps.google.com/?cid=0x0:0x9a3dc0192536998e,
supermarket,Minimarket,FAUZAN MART,"2JGJ+M4X, Tlk. Nilap, Kec. Kubu Babussalam, Kabupaten Rokan Hilir, Riau 28991","Tlk. Nilap, Kec. Kubu Babussalam, Kabupaten Rokan Hilir",BALI,28991.0,Indonesia,,,,2.02674,100.6303617,https://maps.google.com/?cid=0x0:0x544cfd516f3dc01f,
supermarket,Toko bahan makanan,Warung buk merta,"PGMW+6X6, Baturinggit, Kec. Kubu, Kabupaten Karangasem, Bali 80853","Baturinggit, Kec. Kubu, Kabupaten Karangasem",BALI,80853.0,Indonesia,,,,-8.2669514,115.5473838,https://maps.google.com/?cid=0x0:0x9c39de40a42af1f,
supermarket,Kompleks Apartemen,YanDeTangkas iZaura,"PHR9+G34, Kubu, Kec. Kubu, Kabupaten Karangasem, Bali 80853","Kubu, Kec. Kubu, Kabupaten Karangasem",BALI,80853.0,Indonesia,,,,-8.2587467,115.5677182,https://maps.google.com/?cid=0x0:0xe0aa6e706394eb4c,
supermarket,supermarket,Kubu,"Kubu, Kec. Kubu, Kabupaten Karangasem, Bali","Kabupaten Karangasem, Bali",BALI,,Indonesia,,,,-8.25944,115.566002,https://maps.google.com/?cid=0x0:0x7361d170964b4850,
supermarket,Toko Swalayan,Sila kubu bali,"FFQJ+6X3, Gegelang, Kec. Manggis, Kabupaten Karangasem, Bali 80871","Gegelang, Kec. Manggis, Kabupaten Karangasem",BALI,80871.0,Indonesia,,,,-8.5119925,115.482424,https://maps.google.com/?cid=0x0:0x18db2d42c1c051ef,
supermarket,Toko Bunga,Anty Business Shop,"PHQ8+VC8, Kubu, Kec. Kubu, Kabupaten Karangasem, Bali 80853","Kubu, Kec. Kubu, Kabupaten Karangasem",BALI,80853.0,Indonesia,,,,-8.2603258,115.5660715,https://maps.google.com/?cid=0x0:0x95c36e200e160b85,
supermarket,Toko Swalayan,UD. Mariati,"PHVF+W6G, Jl. Kubu, Kubu, Kec. Kubu, Kabupaten Karangasem, Bali 80853","Jl. Kubu, Kubu, Kec. Kubu, Kabupaten Karangasem",BALI,80853.0,Indonesia,,,,-8.255182,115.5730896,https://maps.google.com/?cid=0x0:0xd4a825326c5a6be6,
supermarket,Toko Swalayan,"INDOMARET KUBU, Karangasem","QGW3+G5G, Jalan, Tianyar, Kubu, Karangasem Regency, Bali 80853","Jalan, Tianyar, Kubu, Karangasem Regency",BALI,80853.0,Indonesia,,,,-8.203676,115.5029384,https://maps.google.com/?cid=0x0:0x923bf30c3138e653,
supermarket,Toko Swalayan,Toko sembako Asnur,"Tr IX, Sungai Terus, Kec. Kubu, Kabupaten Kubu Raya, Kalimantan Barat 78384","Sungai Terus, Kec. Kubu, Kabupaten Kubu Raya",BALI,78384.0,Indonesia,85332174407.0,,,-0.4977401,109.416882,https://maps.google.com/?cid=0x0:0x705547718f552549,
supermarket,Toserba,Toko Simpang Berkah,"GC68+FP8, Sungai Terus, Kec. Kubu, Kabupaten Kubu Raya, Kalimantan Barat 78384","Sungai Terus, Kec. Kubu, Kabupaten Kubu Raya",BALI,78384.0,Indonesia,,,,-0.4888314,109.4168128,https://maps.google.com/?cid=0x0:0x19f47cd427ad45bb,
supermarket,supermarket,Kubu,"Kubu, Kec. Kubu, Kabupaten Karangasem, Bali","Kabupaten Karangasem, Bali",BALI,,Indonesia,,,,-8.25944,115.566002,https://maps.google.com/?cid=0x0:0x7361d170964b4850,
supermarket,Toko Swalayan,Indomaret Tulamben,"PHFR+W3H, Jalan, Tulamben, Kubu, Karangasem Regency, Bali 80852","Jalan, Tulamben, Kubu, Karangasem Regency",BALI,80852.0,Indonesia,,,,-8.2751961,115.5902454,https://maps.google.com/?cid=0x0:0xdfc7bde652c254c5,
supermarket,Toko Swalayan,UD. Mariati,"PHVF+W6G, Jl. Kubu, Kubu, Kec. Kubu, Kabupaten Karangasem, Bali 80853","Jl. Kubu, Kubu, Kec. Kubu, Kabupaten Karangasem",BALI,80853.0,Indonesia,,,,-8.255182,115.5730896,https://maps.google.com/?cid=0x0:0xd4a825326c5a6be6,
supermarket,Toko Swalayan,"INDOMARET KUBU, Karangasem","QGW3+G5G, Jalan, Tianyar, Kubu, Karangasem Regency, Bali 80853","Jalan, Tianyar, Kubu, Karangasem Regency",BALI,80853.0,Indonesia,,,,-8.203676,115.5029384,https://maps.google.com/?cid=0x0:0x923bf30c3138e653,
supermarket,Toko Swalayan,Sila kubu bali,"FFQJ+6X3, Gegelang, Kec. Manggis, Kabupaten Karangasem, Bali 80871","Gegelang, Kec. Manggis, Kabupaten Karangasem",BALI,80871.0,Indonesia,,,,-8.5119925,115.482424,https://maps.google.com/?cid=0x0:0x18db2d42c1c051ef,
supermarket,Toko bahan makanan,Warung Minggu,"QGH7+776, Tianyar, Kec. Kubu, Kabupaten Karangasem, Bali 80853","Tianyar, Kec. Kubu, Kabupaten Karangasem",BALI,80853.0,Indonesia,,,,-8.2218436,115.513146,https://maps.google.com/?cid=0x0:0x4c38af0f7524d078,
supermarket,Kompleks Apartemen,YanDeTangkas iZaura,"PHR9+G34, Kubu, Kec. Kubu, Kabupaten Karangasem, Bali 80853","Kubu, Kec. Kubu, Kabupaten Karangasem",BALI,80853.0,Indonesia,,,,-8.2587467,115.5677182,https://maps.google.com/?cid=0x0:0xe0aa6e706394eb4c,
supermarket,Toko Bunga,Anty Business Shop,"PHQ8+VC8, Kubu, Kec. Kubu, Kabupaten Karangasem, Bali 80853","Kubu, Kec. Kubu, Kabupaten Karangasem",BALI,80853.0,Indonesia,,,,-8.2603258,115.5660715,https://maps.google.com/?cid=0x0:0x95c36e200e160b85,
supermarket,Toko Swalayan,Grand Lucky Supermarket,"Jl. Sunset Road No.29, Kuta, Kec. Kuta, Kabupaten Badung, Bali 80361","Kuta, Kec. Kuta, Kabupaten Badung",BALI,80361.0,Indonesia,361762308.0,,,-8.7071714,115.1837175,https://maps.google.com/?cid=0x0:0xf625ece1b610a74c,
supermarket,Toko Pakaian,BALILIVIN,"PHWC+4V7, Jl. Kubu, Sukadana, Kec. Kubu, Kabupaten Karangasem, Bali 80853","Jl. Kubu, Sukadana, Kec. Kubu, Kabupaten Karangasem",BALI,80853.0,Indonesia,81944240082.0,,,-8.2547169,115.5721826,https://maps.google.com/?cid=0x0:0x4036d5414e879e3,
supermarket,Toko bahan makanan,Kios Dewi,"RFH4+3HQ, Tianyar Bar., Kec. Kubu, Kabupaten Karangasem, Bali 80853","Tianyar Bar., Kec. Kubu, Kabupaten Karangasem",BALI,80853.0,Indonesia,,,,-8.1722906,115.4564947,https://maps.google.com/?cid=0x0:0x9596f301d3750bf2,
supermarket,supermarket,GIRI MART,"PHWC+G7R, Kubu, Kec. Kubu, Kabupaten Karangasem, Bali 80853","Kubu, Kec. Kubu, Kabupaten Karangasem",BALI,80853.0,Indonesia,,,,-8.2536413,115.5706256,https://maps.google.com/?cid=0x0:0x83b8288f039f57d4,
supermarket,Toko Buah dan Sayuran,TULAMBEN fresh mart,"PHFR+5XC, Jl. Kubu, Tulamben, Kec. Kubu, Kabupaten Karangasem, Bali 80852","Jl. Kubu, Tulamben, Kec. Kubu, Kabupaten Karangasem",BALI,80852.0,Indonesia,,,,-8.277074,115.5923871,https://maps.google.com/?cid=0x0:0xbe706da7efd5c511,
supermarket,Toko bahan makanan,Mawar Sari Bali Fresh Mart Subagan,"Jl. Achmad Yani No.5, Subagan, Kec. Karangasem, Kabupaten Karangasem, Bali 80813","Subagan, Kec. Karangasem, Kabupaten Karangasem",BALI,80813.0,Indonesia,,,,-8.4551092,115.6011145,https://maps.google.com/?cid=0x0:0xdb0c8004e104d742,
supermarket,Kios,Mini Market Cantik,"RF9F+69X, Unnamed Road, Tianyar Bar., Kec. Kubu, Kabupaten Karangasem, Bali 80853","Unnamed Road, Tianyar Bar., Kec. Kubu, Kabupaten Karangasem",BALI,80853.0,Indonesia,,,,-8.1818797,115.4734844,https://maps.google.com/?cid=0x0:0x476dc0e2f02a3a27,
supermarket,Toko Swalayan,Sila kubu bali,"FFQJ+6X3, Gegelang, Kec. Manggis, Kabupaten Karangasem, Bali 80871","Gegelang, Kec. Manggis, Kabupaten Karangasem",BALI,80871.0,Indonesia,,,,-8.5119925,115.482424,https://maps.google.com/?cid=0x0:0x18db2d42c1c051ef,
supermarket,supermarket,Kubu,"Kubu, Kec. Kubu, Kabupaten Karangasem, Bali","Kabupaten Karangasem, Bali",BALI,,Indonesia,,,,-8.25944,115.566002,https://maps.google.com/?cid=0x0:0x7361d170964b4850,
supermarket,Kompleks Apartemen,YanDeTangkas iZaura,"PHR9+G34, Kubu, Kec. Kubu, Kabupaten Karangasem, Bali 80853","Kubu, Kec. Kubu, Kabupaten Karangasem",BALI,80853.0,Indonesia,,,,-8.2587467,115.5677182,https://maps.google.com/?cid=0x0:0xe0aa6e706394eb4c,
supermarket,Supermarket Industri,Bintang Supermarket Seminyak,"Jl. Raya Seminyak No.17, Seminyak, Kec. Kuta Utara, Kabupaten Badung, Bali 80361","Seminyak, Kec. Kuta Utara, Kabupaten Badung",BALI,80361.0,Indonesia,361730552.0,,,-8.6941736,115.1678886,https://maps.google.com/?cid=0x0:0x3582fbdbb0c18258,
supermarket,Toko Bunga,Anty Business Shop,"PHQ8+VC8, Kubu, Kec. Kubu, Kabupaten Karangasem, Bali 80853","Kubu, Kec. Kubu, Kabupaten Karangasem",BALI,80853.0,Indonesia,,,,-8.2603258,115.5660715,https://maps.google.com/?cid=0x0:0x95c36e200e160b85,
supermarket,Toko bahan makanan,Coco Supermarket Seminyak,"Jl. Laksamana No. 65-67 Kuta Selatan, Kerobokan Kelod, Kec. Kuta Utara, Kabupaten Badung, Bali 80361","Kerobokan Kelod, Kec. Kuta Utara, Kabupaten Badung",BALI,80361.0,Indonesia,8563717787.0,,,-8.6835849,115.1629226,https://maps.google.com/?cid=0x0:0xc9e8bcfdf0420185,
supermarket,Toko Swalayan,Bintang Supermarket Ubud,"Jl. Raya Sanggingan No.45, Sayan, Kecamatan Ubud, Kabupaten Gianyar, Bali 80515","Sayan, Kecamatan Ubud, Kabupaten Gianyar",BALI,80515.0,Indonesia,361972972.0,,,-8.4997384,115.2523733,https://maps.google.com/?cid=0x0:0xedf5038642b75298,
supermarket,Toko Swalayan,Bintang Supermarket - Hayam Wuruk Denpasar,"Jl. Hayam Wuruk No.177, Sumerta Kelod, Kec. Denpasar Tim., Kota Denpasar, Bali 80239","Sumerta Kelod, Kec. Denpasar Tim., Kota Denpasar",BALI,80239.0,Indonesia,361252680.0,,,-8.6608309,115.2398343,https://maps.google.com/?cid=0x0:0x3f67942d46cc7299,
supermarket,Toko Swalayan,LOTTE MART Wholesale Bali,"Jl. Bypass Ngurah Rai No.222X, Sesetan, Denpasar Selatan, Kabupaten Badung, Bali 80223","Sesetan, Denpasar Selatan, Kabupaten Badung",BALI,80223.0,Indonesia,361723222.0,,,-8.7147651,115.2215463,https://maps.google.com/?cid=0x0:0x42d1906031e873cb,
supermarket,Toko Swalayan,Foodmart Primo Kuta,"Lippo Mall Kuta LG Floor, Jl. Kartika Plaza, Lingkungan Segara, Kuta, Badung Regency, Bali 80361","Jl. Kartika Plaza, Lingkungan Segara, Kuta, Badung Regency",BALI,80361.0,Indonesia,3618469470.0,,,-8.735421,115.1665878,https://maps.google.com/?cid=0x0:0xb2b930f0897dc399,
supermarket,Toko bahan makanan,Bali Jaya Mart,"Jl. Raya Kuta No.132, Kuta, Kec. Kuta, Kabupaten Badung, Bali 80361","Kuta, Kec. Kuta, Kabupaten Badung",BALI,80361.0,Indonesia,361751949.0,,,-8.7229568,115.176559,https://maps.google.com/?cid=0x0:0x44b4f2c68071fb3b,
supermarket,Toko Swalayan,Pepito Market Canggu,"Jl. Raya Canggu No.101X, Kerobokan, Kec. Kuta Utara, Kabupaten Badung, Bali 80361","Kerobokan, Kec. Kuta Utara, Kabupaten Badung",BALI,80361.0,Indonesia,8174871289.0,,,-8.643591,115.1577432,https://maps.google.com/?cid=0x0:0x4290c0781faf6289,
supermarket,Toko Swalayan,Pepito Market Nusa Dua,"Jl. Bypass Ngurah Rai, Benoa, Kec. Kuta Sel., Kabupaten Badung, Bali 80363","Benoa, Kec. Kuta Sel., Kabupaten Badung",BALI,80363.0,Indonesia,8174871301.0,,,-8.7893209,115.2110953,https://maps.google.com/?cid=0x0:0xb7f1b26e1df21ecc,
supermarket,Toko Swalayan,Pepito Market Seminyak,"Jl. Raya Kerobokan, Kerobokan Kelod, Kec. Kuta Utara, Kabupaten Badung, Bali 80361","Kerobokan Kelod, Kec. Kuta Utara, Kabupaten Badung",BALI,80361.0,Indonesia,87700032888.0,,,-8.6732453,115.1651277,https://maps.google.com/?cid=0x0:0x4cd6c77b12aeb8bb,
supermarket,supermarket,Foodmart Supermarket Beachwalk,"Jl. Pantai Kuta, Kuta, Kec. Kuta, Kabupaten Badung, Bali 80361","Kuta, Kec. Kuta, Kabupaten Badung",BALI,80361.0,Indonesia,81237922593.0,,,-8.7164477,115.1691307,https://maps.google.com/?cid=0x0:0x44f505f1235b2398,
supermarket,Toko Swalayan,Pepito Market Petitenget,"Jl. Petitenget No.18, Kerobokan Kelod, Kuta Utara, Kerobokan Kelod, Kec. Kuta Utara, Kabupaten Badung, Bali 80361","Kerobokan Kelod, Kuta Utara, Kerobokan Kelod, Kec. Kuta Utara, Kabupaten Badung",BALI,80361.0,Indonesia,87700021888.0,,,-8.6735672,115.1578147,https://maps.google.com/?cid=0x0:0x63763bb525319cbf,
supermarket,Toko Swalayan,Pepito Market Dewi Sri,"Jl. Dewi Sri No.9B, Legian, Kec. Kuta, Kabupaten Badung, Bali 80361","Legian, Kec. Kuta, Kabupaten Badung",BALI,80361.0,Indonesia,87841197770.0,,,-8.7087472,115.1788801,https://maps.google.com/?cid=0x0:0x15ffaaeb77089851,
supermarket,Toko Swalayan,Papaya Fresh Gallery - Kuta,"Jalan Merta Nadi No.Banjar, Abian Base, Kec. Kuta, Kabupaten Badung, Bali 80361","Abian Base, Kec. Kuta, Kabupaten Badung",BALI,80361.0,Indonesia,361759222.0,,,-8.7098685,115.1829325,https://maps.google.com/?cid=0x0:0xb20273175e52a48,
supermarket,Toko bahan makanan,Frestive Kerobokan - Supermarket,"Jl. Raya Kerobokan, Banjar, Taman, Kabupaten Badung, Bali 80361","Banjar, Taman, Kabupaten Badung",BALI,80361.0,Indonesia,87861718854.0,,,-8.6733495,115.1650827,https://maps.google.com/?cid=0x0:0x6f83634b6a7faaba,
supermarket,Toko Makanan Sehat,Alive Wholefoods Store Canggu,"Jl. Canggu Padang Linjong No.14a, Canggu, Kec. Kuta Utara, Kabupaten Badung, Bali 80351","Canggu, Kec. Kuta Utara, Kabupaten Badung",BALI,80351.0,Indonesia,82146165452.0,,,-8.641887,115.139118,https://maps.google.com/?cid=0x0:0xc86a09ca901b192f,
supermarket,Toko Kelontong Korea,Mu Gung Hwa Korean Supermarket Bali,"Jl. Sunset Road No.6, Seminyak, Kec. Kuta, Kabupaten Badung, Bali 80361","Seminyak, Kec. Kuta, Kabupaten Badung",BALI,80361.0,Indonesia,81337030939.0,,,-8.7144536,115.186461,https://maps.google.com/?cid=0x0:0xfcc6a5701f84d812,
supermarket,Pusat Perbelanjaan,Saren Kubu Kios IBE,"6GV7+337, Jl. Saren Kauh, Batumadeg, Kec. Nusa Penida, Kabupaten Klungkung, Bali 80771","Jl. Saren Kauh, Batumadeg, Kec. Nusa Penida, Kabupaten Klungkung",BALI,80771.0,Indonesia,85338880222.0,,,-8.7573466,115.512687,https://maps.google.com/?cid=0x0:0xa1f124f6147b923f,
supermarket,Toko Swalayan,Toko Balikita Kuta,"Jl. Patih Jelantik, Komp. Istana Kuta Galeria, Kuta, Kec. Kuta, Kabupaten Badung, Bali 80361","Komp. Istana Kuta Galeria, Kuta, Kec. Kuta, Kabupaten Badung",BALI,80361.0,Indonesia,,,,-8.7112851,115.180133,https://maps.google.com/?cid=0x0:0xeb3dc976f870494,
supermarket,Produsen Makanan Beku,Umar Frozen Food Jembatan Lima,"Gang Musholla Al-Jihad No.22, RT.14/RW.6, Jemb. Lima, Kec. Tambora, Kota Jakarta Barat, Daerah Khusus Ibukota Jakarta 11250","RT.14/RW.6, Jemb. Lima, Kec. Tambora, Kota Jakarta Barat",BALI,11250.0,Indonesia,82210332600.0,,,-6.1458901,106.8040754,https://maps.google.com/?cid=0x0:0x74275489e06c0c28,
supermarket,Toko makanan beku,Mugie frozen,"Jl. Sawah Lio No.I, RT.11/RW.1, Jemb. Lima, Kec. Tambora, Kota Jakarta Barat, Daerah Khusus Ibukota Jakarta 11250","RT.11/RW.1, Jemb. Lima, Kec. Tambora, Kota Jakarta Barat",BALI,11250.0,Indonesia,85814561987.0,,,-6.1466015,106.8060013,https://maps.google.com/?cid=0x0:0x6b272c8d9ccd891a,
supermarket,Pusat Perbelanjaan,Pasar Mitra,"Jl. KH.Moh.Mansyur No.1, RT.1/RW.11, Tanah Sereal, Kec. Tambora, Kota Jakarta Barat, Daerah Khusus Ibukota Jakarta 11250","RT.1/RW.11, Tanah Sereal, Kec. Tambora, Kota Jakarta Barat",BALI,11250.0,Indonesia,,,,-6.1450087,106.8068487,https://maps.google.com/?cid=0x0:0x93f33dfc242a487a,
supermarket,Toko,AD MART,"GG4G+68V, Jl. Raya Manggis, Manggis, Kec. Manggis, Kabupaten Karangasem, Bali 80871","Jl. Raya Manggis, Manggis, Kec. Manggis, Kabupaten Karangasem",BALI,80871.0,Indonesia,81338769473.0,,,-8.4926779,115.5240172,https://maps.google.com/?cid=0x0:0x6fc8edbb87a797d7,
supermarket,supermarket,Manggis,"Manggis, Kec. Manggis, Kabupaten Karangasem, Bali","Kabupaten Karangasem, Bali",BALI,,Indonesia,,,,-8.492179,115.5252,https://maps.google.com/?cid=0x0:0xe8cfc3ff76ecc7c4,
supermarket,Minimarket,Di MART,"FHW2+PH4, Jl. Mendira, Sengkidu, Kec. Manggis, Kabupaten Karangasem, Bali 80871","Jl. Mendira, Sengkidu, Kec. Manggis, Kabupaten Karangasem",BALI,80871.0,Indonesia,81993998660.0,,,-8.5032489,115.5514402,https://maps.google.com/?cid=0x0:0x899791e7aded045c,
supermarket,Minimarket,Toko Ary Jaya,"GG27+M7W, Manggis, Kec. Manggis, Kabupaten Karangasem, Bali 80871","Manggis, Kec. Manggis, Kabupaten Karangasem",BALI,80871.0,Indonesia,81237963334.0,,,-8.4982561,115.5131889,https://maps.google.com/?cid=0x0:0xa255ad25c2c89ad6,
supermarket,Minimarket,Alfamart,"Jl. Raya Candidasa, Sengkidu, Kec. Manggis, Kabupaten Karangasem, Bali 80871","Sengkidu, Kec. Manggis, Kabupaten Karangasem",BALI,80871.0,Indonesia,1500959.0,,,-8.5083019,115.566081,https://maps.google.com/?cid=0x0:0xacf628ff3935ce12,
supermarket,Toko Swalayan,Toko Bersama,"FHX4+8XC, Sengkidu, Kec. Manggis, Kabupaten Karangasem, Bali","Kabupaten Karangasem, Bali",BALI,,Indonesia,,,,-8.5016857,115.5573848,https://maps.google.com/?cid=0x0:0x36ef20a754aaf4cf,
supermarket,Toko Swalayan,Sila kubu bali,"FFQJ+6X3, Gegelang, Kec. Manggis, Kabupaten Karangasem, Bali 80871","Gegelang, Kec. Manggis, Kabupaten Karangasem",BALI,80871.0,Indonesia,,,,-8.5119925,115.482424,https://maps.google.com/?cid=0x0:0x18db2d42c1c051ef,
supermarket,Toko,As warung,"GG4F+PX6, Jl. Raya Manggis, Manggis, Kec. Manggis, Kabupaten Karangasem, Bali 80871","Jl. Raya Manggis, Manggis, Kec. Manggis, Kabupaten Karangasem",BALI,80871.0,Indonesia,,,,-8.4932643,115.5248914,https://maps.google.com/?cid=0x0:0xd037695e61e9a160,
supermarket,Toko,Kios Maharani,"GG4F+WQ5, Jl. Raya Manggis, Manggis, Kec. Manggis, Kabupaten Karangasem, Bali 80871","Jl. Raya Manggis, Manggis, Kec. Manggis, Kabupaten Karangasem",BALI,80871.0,Indonesia,87761823873.0,,,-8.4927411,115.5244711,https://maps.google.com/?cid=0x0:0x9d8562c3142a5d4d,
supermarket,Toko,Warung Indrakila,"GG4G+68V, Jl. Raya Manggis, Manggis, Kec. Manggis, Kabupaten Karangasem, Bali 80871","Jl. Raya Manggis, Manggis, Kec. Manggis, Kabupaten Karangasem",BALI,80871.0,Indonesia,81318792477.0,,,-8.4943907,115.5257987,https://maps.google.com/?cid=0x0:0xac5d1e3a3652f732,
supermarket,Toko Perlengkapan Rumah,Warung Gisu,"FG95+R2M, Jl. Silayukti, Padangbai, Kec. Manggis, Kabupaten Karangasem, Bali 08072","Jl. Silayukti, Padangbai, Kec. Manggis, Kabupaten Karangasem",BALI,8072.0,Indonesia,,,,-8.5304004,115.5075436,https://maps.google.com/?cid=0x0:0x3072b68f3379f96f,
supermarket,Toko,TOKO NI NYOMAN SUSWENI,"GG4F+WP7, Jl. Raya Manggis, Manggis, Kec. Manggis, Kabupaten Karangasem, Bali 80871","Jl. Raya Manggis, Manggis, Kec. Manggis, Kabupaten Karangasem",BALI,80871.0,Indonesia,85337956464.0,,,-8.492707,115.5242953,https://maps.google.com/?cid=0x0:0xe0e75d5f9f3131a8,
supermarket,Toko,Toko Bu Sumardika,"GG5F+3P9, Jl. Raya Manggis, Manggis, Kec. Karangasem, Kabupaten Karangasem, Bali 80871","Jl. Raya Manggis, Manggis, Kec. Karangasem, Kabupaten Karangasem",BALI,80871.0,Indonesia,82236110995.0,,,-8.4923486,115.5243712,https://maps.google.com/?cid=0x0:0xb526216381153cbe,
supermarket,Toko Ponsel,Enteg Cell,"GG4F+VGR, Manggis, Kec. Manggis, Kabupaten Karangasem, Bali 80871","Manggis, Kec. Manggis, Kabupaten Karangasem",BALI,80871.0,Indonesia,,,,-8.4927529,115.5237625,https://maps.google.com/?cid=0x0:0xac7462a597955d23,
supermarket,Toko Aksesori Pakaian,UTAMA SILVER,"Jl. Raya Manggis, Manggis, Kec. Manggis, Kabupaten Karangasem, Bali","Kabupaten Karangasem, Bali",BALI,,Indonesia,85237855325.0,,,-8.4927982,115.5240116,https://maps.google.com/?cid=0x0:0x67bc7d6e5d1b00a5,
supermarket,Komplek perumahan,Mendira House,"Jl. Mendira, Sengkidu, Kec. Manggis, Kabupaten Karangasem, Bali","Kabupaten Karangasem, Bali",BALI,,Indonesia,3634381019.0,,,-8.502741,115.552518,https://maps.google.com/?cid=0x0:0x624e4521f7f4a693,
supermarket,supermarket,,,,BALI,,Indonesia,,,,,,https://maps.google.com/?cid=0x0:0xb2a608415b848e70%7C/g/1t_gbkxt%7Cid-ID,
supermarket,supermarket,Alila Manggis,"Desa Buitan, Manggis, Karangasem Regency, Bali 80871","Manggis, Karangasem Regency",BALI,80871.0,Indonesia,36341011.0,,,-8.49961,115.5381197,https://maps.google.com/?cid=0x0:0xb2a608415b848e70,
supermarket,supermarket,Nirwana Beach  Resort Candidasa,"Jalan Sengkidu, Jl. Raya Candidasa, Sengkidu, Kec. Manggis, Kabupaten Karangasem, Bali 80871","Jl. Raya Candidasa, Sengkidu, Kec. Manggis, Kabupaten Karangasem",BALI,80871.0,Indonesia,85829334600.0,,,-8.5049639,115.5565993,https://maps.google.com/?cid=0x0:0xc5a727787a4f33b8,
supermarket,supermarket,Villa Gita Segara,"FHV5+GGF, Jl. Raya Candidasa, Nyuh Tebel, Kec. Manggis, Kabupaten Karangasem, Bali 80361","Jl. Raya Candidasa, Nyuh Tebel, Kec. Manggis, Kabupaten Karangasem",BALI,80361.0,Indonesia,82266576119.0,,,-8.50619,115.558796,https://maps.google.com/?cid=0x0:0x55ffccbfa62de9af,
supermarket,supermarket,Ramayana Candidasa Beach Resort,"Jl. Raya Sengkidu, Sengkidu, Kec. Manggis, Kabupaten Karangasem, Bali 80871","Sengkidu, Kec. Manggis, Kabupaten Karangasem",BALI,80871.0,Indonesia,36341974.0,,,-8.5049584,115.5577108,https://maps.google.com/?cid=0x0:0x3342dfe2744bae02,
supermarket,supermarket,Neano Escape,"Jalan Bukit Meluang Desa Adat Apit Yeh, Manggis, Kec. Manggis, Kabupaten Karangasem, Bali 80871","Manggis, Kec. Manggis, Kabupaten Karangasem",BALI,80871.0,Indonesia,81818882223.0,,,-8.4909734,115.5343435,https://maps.google.com/?cid=0x0:0x466678b0602a682d,
supermarket,supermarket,Kimana Villa,"Jl. Raya Sengkidu, Sengkidu, Kec. Manggis, Kabupaten Karangasem, Bali","Kabupaten Karangasem, Bali",BALI,,Indonesia,361970980.0,,,-8.5009855,115.541052,https://maps.google.com/?cid=0x0:0x195a2e2f769729c2,
supermarket,supermarket,Villa Candi,"Jl. Pura Segara, Sengkidu, Kec. Manggis, Kabupaten Karangasem, Bali","Kabupaten Karangasem, Bali",BALI,,Indonesia,818865742.0,,,-8.5045832,115.5541697,https://maps.google.com/?cid=0x0:0x3de2542055f3ebfc,
supermarket,supermarket,Pondok Carik,"Selumbung, Kec. Manggis, Kabupaten Karangasem, Bali","Kabupaten Karangasem, Bali",BALI,,Indonesia,81239128210.0,,,-8.4809194,115.527146,https://maps.google.com/?cid=0x0:0x93983e81d48abc74,
supermarket,Terminal kapal pesiar,Padang Bai Fast Boat Harbour,"Padangbai, Kec. Manggis, Kabupaten Karangasem, Bali","Kabupaten Karangasem, Bali",BALI,,Indonesia,,,,-8.5309919,115.5090845,https://maps.google.com/?cid=0x0:0x52bbbdd0b3b9383f,
supermarket,Pemandian Umum,Tirta Gangga,"HHQQ+836, Jalan Raya Abang Desa Adat Jl. Raya Tirta Gangga, Ababi, Kec. Abang, Kabupaten Karangasem, Bali 80852","Jalan Raya Abang Desa Adat Jl. Raya Tirta Gangga, Ababi, Kec. Abang, Kabupaten Karangasem",BALI,80852.0,Indonesia,36321697.0,,,-8.4123473,115.5872919,https://maps.google.com/?cid=0x0:0x65af03b0d108a7d1,
supermarket,supermarket,Candi Dasa,"Nyuh Tebel, Kec. Manggis, Kabupaten Karangasem, Bali","Kabupaten Karangasem, Bali",BALI,,Indonesia,,,,-8.4995354,115.5555238,https://maps.google.com/?cid=0x0:0x1eb0ffc994219401,
supermarket,Toko Ponsel,G-Cell,"GG4G+J2V, Jl. Raya Manggis, Manggis, Kec. Manggis, Kabupaten Karangasem, Bali 80817","Jl. Raya Manggis, Manggis, Kec. Manggis, Kabupaten Karangasem",BALI,80817.0,Indonesia,85238299000.0,,,-8.4933794,115.5250328,https://maps.google.com/?cid=0x0:0xe100391710a24e29,
supermarket,supermarket,Bali 80863,"Kec. Rendang, Kabupaten Karangasem, Bali","Kabupaten Karangasem, Bali",BALI,,Indonesia,,,,-8.3623262,115.4378152,https://maps.google.com/?cid=0x0:0x1c00c5eb6016c0a0,
supermarket,Minimarket,Alfamart Raya Besakih Rendang,"Jl. Raya Besakih Lingk, Griya, Rendang, Kec. Rendang, Kabupaten Karangasem, Bali 80863","Griya, Rendang, Kec. Rendang, Kabupaten Karangasem",BALI,80863.0,Indonesia,211500959.0,,,-8.4220388,115.4198102,https://maps.google.com/?cid=0x0:0x7732e6a472706a6f,
supermarket,Pasar,Pasar Rendang,"HCCH+JJH, Rendang, Kec. Rendang, Kabupaten Karangasem, Bali 80863","Rendang, Kec. Rendang, Kabupaten Karangasem",BALI,80863.0,Indonesia,,,,-8.4284412,115.4291175,https://maps.google.com/?cid=0x0:0x1f283f3aa201ac6f,
supermarket,Toko Kelontong Asia,SRC SURYA,"Jl. Raya Besakih, Nongan, Kec. Rendang, Kabupaten Karangasem, Bali 80863","Nongan, Kec. Rendang, Kabupaten Karangasem",BALI,80863.0,Indonesia,,,,-8.4340036,115.4166338,https://maps.google.com/?cid=0x0:0x303595ce3ef62f9d,
supermarket,Minimarket,RENDANG BEER STORE,"Rendang, Kec. Rendang, Kabupaten Karangasem, Bali 80863","Kec. Rendang, Kabupaten Karangasem",BALI,80863.0,Indonesia,87858745285.0,,,-8.4276315,115.418341,https://maps.google.com/?cid=0x0:0x6bc89c6b8af76c4a,
supermarket,Toko bahan makanan,Ayu House,"HCCH+H63, Jl. Dewa Anom, Rendang, Kec. Rendang, Kabupaten Karangasem, Bali 80863","Jl. Dewa Anom, Rendang, Kec. Rendang, Kabupaten Karangasem",BALI,80863.0,Indonesia,,,,-8.4286109,115.4280594,https://maps.google.com/?cid=0x0:0x20b547522edd125e,
supermarket,Toko bahan makanan,WARUNG TEKA SRC,"Jl. Dewa Anom No.103, Rendang, Kec. Rendang, Kabupaten Karangasem, Bali 80863","Rendang, Kec. Rendang, Kabupaten Karangasem",BALI,80863.0,Indonesia,87861355717.0,,,-8.4281666,115.4338987,https://maps.google.com/?cid=0x0:0x15e3170b604e3461,
supermarket,Toko Buah dan Sayuran,BALI BUAH SEGAR,"HCPQ+X73, Jl. Tubuh, Menanga, Kec. Rendang, Kabupaten Karangasem, Bali 80863","Jl. Tubuh, Menanga, Kec. Rendang, Kabupaten Karangasem",BALI,80863.0,Indonesia,82247985323.0,,,-8.4126199,115.4381779,https://maps.google.com/?cid=0x0:0x190136a14d5198b9,
supermarket,Gudang,Depo Pakan - Gudang Biru Rendang,"Jl. Gn. Agung Besakih, Rendang, Kec. Rendang, Kabupaten Karangasem, Bali 80863","Rendang, Kec. Rendang, Kabupaten Karangasem",BALI,80863.0,Indonesia,,,,-8.4170811,115.4205852,https://maps.google.com/?cid=0x0:0xe68ee0274b36b752,
supermarket,Toko Swalayan,Warung Sakbyang Merta,"HC78+WFV, depan kuburan manggaan, Nongan, Kec. Rendang, Kabupaten Karangasem, Bali 80863","depan kuburan manggaan, Nongan, Kec. Rendang, Kabupaten Karangasem",BALI,80863.0,Indonesia,,,,-8.4351267,115.4161641,https://maps.google.com/?cid=0x0:0x5d4bf21963105863,
supermarket,Toko Swalayan,WR. Sida Arta,"Jl. Ksatria No.18, Rendang, Kec. Rendang, Kabupaten Karangasem, Bali 80863","Rendang, Kec. Rendang, Kabupaten Karangasem",BALI,80863.0,Indonesia,81238330260.0,,,-8.4312918,115.4291007,https://maps.google.com/?cid=0x0:0x6e4debcea8d174ce,
supermarket,Minimarket,Warung Me Nujati,"Jl. Langsat, Rendang, Kec. Rendang, Kabupaten Karangasem, Bali 80863","Rendang, Kec. Rendang, Kabupaten Karangasem",BALI,80863.0,Indonesia,83116048140.0,,,-8.4295336,115.4376777,https://maps.google.com/?cid=0x0:0xb4d4ae38fc2b2754,
supermarket,Toko umum,SRI MANDIRI MINIMARKET,"HCJP+CJH, Unnamed Road, Menanga, Kec. Rendang, Kabupaten Karangasem, Bali 80863","Unnamed Road, Menanga, Kec. Rendang, Kabupaten Karangasem",BALI,80863.0,Indonesia,82147335377.0,,,-8.4189324,115.4365984,https://maps.google.com/?cid=0x0:0x3bd5e6c94ddb9f96,
supermarket,Toko Swalayan,BAKTI RAHAYU,"JC6Q+372, Jl. Kedugung Besakih, Menanga, Kec. Rendang, Kabupaten Karangasem, Bali 80863","Jl. Kedugung Besakih, Menanga, Kec. Rendang, Kabupaten Karangasem",BALI,80863.0,Indonesia,,,,-8.3898674,115.4381306,https://maps.google.com/?cid=0x0:0x64f362474b97983,
supermarket,Toko,Toko Kaia,"Jl. Dewa Anom No.52, Rendang, Kec. Rendang, Kabupaten Karangasem, Bali 80863","Rendang, Kec. Rendang, Kabupaten Karangasem",BALI,80863.0,Indonesia,,,,-8.4286339,115.4282252,https://maps.google.com/?cid=0x0:0x7a82e389ab22fa80,
supermarket,Gudang,Sadpala SP . Gudang Rendang,"Jl. Dewa Anom No.81, Rendang, Kec. Rendang, Kabupaten Karangasem, Bali 80863","Rendang, Kec. Rendang, Kabupaten Karangasem",BALI,80863.0,Indonesia,81338318444.0,,,-8.4284194,115.4303304,https://maps.google.com/?cid=0x0:0xcac8fcb10f7f691a,
supermarket,Toko bahan makanan,Warung Arya Waringin (WAW),"jl. Teges Waringin, Pempatan, Kec. Rendang, Kabupaten Karangasem, Bali 80863","Pempatan, Kec. Rendang, Kabupaten Karangasem",BALI,80863.0,Indonesia,,,,-8.3523024,115.4141486,https://maps.google.com/?cid=0x0:0xc17d725010f21594,
supermarket,Toko bahan makanan,warung cantik veronika,"HCFC+562, Rendang, Kec. Rendang, Kabupaten Karangasem, Bali 80863","Rendang, Kec. Rendang, Kabupaten Karangasem",BALI,80863.0,Indonesia,,,,-8.4271175,115.4205085,https://maps.google.com/?cid=0x0:0x183c792303758749,
supermarket,Toko Swalayan,Warung Buk Murti,"JCX8+83W, Pempatan, Kec. Rendang, Kabupaten Karangasem, Bali 80863","Pempatan, Kec. Rendang, Kabupaten Karangasem",BALI,80863.0,Indonesia,85792819532.0,,,-8.3516455,115.4152077,https://maps.google.com/?cid=0x0:0xe476319b697d0ff8,
supermarket,Toko Swalayan,Wr. Winangun,"JC8R+GV2, Jl. Kedugung Besakih, Besakih, Kec. Rendang, Kabupaten Karangasem, Bali 80863","Jl. Kedugung Besakih, Besakih, Kec. Rendang, Kabupaten Karangasem",BALI,80863.0,Indonesia,,,,-8.3834123,115.4425452,https://maps.google.com/?cid=0x0:0x7108c15f82feda40,
supermarket,Toko bahan makanan,Wr me Ar 01,"MC56+7HF, Jl. Batur Tengah, Pempatan, Kec. Rendang, Kabupaten Karangasem, Bali 80863","Jl. Batur Tengah, Pempatan, Kec. Rendang, Kabupaten Karangasem",BALI,80863.0,Indonesia,,,,-8.3418118,115.4114139,https://maps.google.com/?cid=0x0:0xae33c1c4d883ed3c,
supermarket,Toko Suvenir,Toko Amertha Jati,"Br. Dinas Keladian, Pempatan, Kec. Rendang, Kabupaten Karangasem, Bali 80863","Pempatan, Kec. Rendang, Kabupaten Karangasem",BALI,80863.0,Indonesia,85333569808.0,,,-8.3651011,115.4255623,https://maps.google.com/?cid=0x0:0x393a038949032bf3,
supermarket,Toko Swalayan,Warung suarta,"JCQ8+CXP, Jl. Besakih, Pempatan, Kec. Rendang, Kabupaten Karangasem, Bali 80863","Jl. Besakih, Pempatan, Kec. Rendang, Kabupaten Karangasem",BALI,80863.0,Indonesia,82237407428.0,,,-8.3614059,115.4174479,https://maps.google.com/?cid=0x0:0x9435d26e0dd1059e,
supermarket,Minimarket,Toko.Mega Pratama,"JCVG+J98, Pempatan, Kec. Rendang, Kabupaten Karangasem, Bali 80863","Pempatan, Kec. Rendang, Kabupaten Karangasem",BALI,80863.0,Indonesia,,,,-8.3559726,115.4259589,https://maps.google.com/?cid=0x0:0x11c81202dc753e34,
supermarket,Toko umum,Warung Bu Ketut,"MC9P+JQP, Unnamed Road, Pempatan, Kec. Rendang, Kabupaten Karangasem, Bali 80863","Unnamed Road, Pempatan, Kec. Rendang, Kabupaten Karangasem",BALI,80863.0,Indonesia,,,,-8.3309195,115.4369385,https://maps.google.com/?cid=0x0:0x155c558e9a7f8ce2,
supermarket,Toko bahan makanan,"WARUNG,MANG KLEMPING","JF72+F97, Besakih, Kec. Rendang, Kabupaten Karangasem, Bali 80863","Besakih, Kec. Rendang, Kabupaten Karangasem",BALI,80863.0,Indonesia,,,,-8.3863387,115.4509194,https://maps.google.com/?cid=0x0:0x2e9b27e1728c99d3,
supermarket,Toko,WARUNG SEDERHANA,"MC2H+XGM, Pempatan, Kec. Rendang, Kabupaten Karangasem, Bali 80863","Pempatan, Kec. Rendang, Kabupaten Karangasem",BALI,80863.0,Indonesia,,,,-8.3473886,115.4286312,https://maps.google.com/?cid=0x0:0xd0ee9eb76dbec30,
supermarket,Toko bahan makanan,Warung arma,"Jl. Raya Besakih No.117, Nongan, Kec. Rendang, Kabupaten Karangasem, Bali 80863","Nongan, Kec. Rendang, Kabupaten Karangasem",BALI,80863.0,Indonesia,,,,-8.4516504,115.4097682,https://maps.google.com/?cid=0x0:0x78d54e5027a671bf,
supermarket,Minimarket,Toko Rahayu Menanga,"Jl. Gn. Agung Besakih, Rendang, Kec. Rendang, Kabupaten Karangasem, Bali 80863","Rendang, Kec. Rendang, Kabupaten Karangasem",BALI,80863.0,Indonesia,81937068622.0,,,-8.4169506,115.4208513,https://maps.google.com/?cid=0x0:0x5c735f2045c0af56,
supermarket,supermarket,Selat,"Pering Sari, Kec. Selat, Kabupaten Karangasem, Bali","Kabupaten Karangasem, Bali",BALI,,Indonesia,,,,-8.437853,115.465897,https://maps.google.com/?cid=0x0:0x22f53a4a73abc935,
supermarket,Toko Swalayan,Kemari Super store,"Jl. Hang Tuah No.35 no 35, Sanur Kaja, Denpasar Selatan, Denpasar City, Bali 80227","Sanur Kaja, Denpasar Selatan, Denpasar City",BALI,80227.0,Indonesia,361282238.0,,,-8.674005,115.2609251,https://maps.google.com/?cid=0x0:0x34210ca18c7b05a0,
supermarket,Supermarket Industri,Bintang Supermarket Seminyak,"Jl. Raya Seminyak No.17, Seminyak, Kec. Kuta Utara, Kabupaten Badung, Bali 80361","Seminyak, Kec. Kuta Utara, Kabupaten Badung",BALI,80361.0,Indonesia,361730552.0,,,-8.6941736,115.1678886,https://maps.google.com/?cid=0x0:0x3582fbdbb0c18258,
supermarket,Toko bahan makanan,Coco Supermarket Seminyak,"Jl. Laksamana No. 65-67 Kuta Selatan, Kerobokan Kelod, Kec. Kuta Utara, Kabupaten Badung, Bali 80361","Kerobokan Kelod, Kec. Kuta Utara, Kabupaten Badung",BALI,80361.0,Indonesia,8563717787.0,,,-8.6835849,115.1629226,https://maps.google.com/?cid=0x0:0xc9e8bcfdf0420185,
supermarket,Toko bahan makanan,Frestive Kerobokan - Supermarket,"Jl. Raya Kerobokan, Banjar, Taman, Kabupaten Badung, Bali 80361","Banjar, Taman, Kabupaten Badung",BALI,80361.0,Indonesia,87861718854.0,,,-8.6733495,115.1650827,https://maps.google.com/?cid=0x0:0x6f83634b6a7faaba,
supermarket,Toko Bahan Bangunan,Mekar Indah,"HF78+4F8, Pering Sari, Kec. Selat, Kabupaten Karangasem, Bali 80862","Pering Sari, Kec. Selat, Kabupaten Karangasem",BALI,80862.0,Indonesia,36622860.0,,,-8.437225,115.466216,https://maps.google.com/?cid=0x0:0x7c2ef6ca377f81e4,
supermarket,Toko Swalayan,Gourmet Market Bali by Pepito,"Sidewalk Jimbaran, Jl. Raya Uluwatu No.138, Jimbaran, Kec. Kuta Sel., Kabupaten Badung, Bali 80361","Jl. Raya Uluwatu No.138, Jimbaran, Kec. Kuta Sel., Kabupaten Badung",BALI,80361.0,Indonesia,8174871288.0,,,-8.796546,115.1611734,https://maps.google.com/?cid=0x0:0xdc415049546c11d3,
supermarket,Toko Swalayan,Papaya Fresh Gallery - Kuta,"Jalan Merta Nadi No.Banjar, Abian Base, Kec. Kuta, Kabupaten Badung, Bali 80361","Abian Base, Kec. Kuta, Kabupaten Badung",BALI,80361.0,Indonesia,361759222.0,,,-8.7098685,115.1829325,https://maps.google.com/?cid=0x0:0xb20273175e52a48,
supermarket,Toko Swalayan,Pepito Market Petitenget,"Jl. Petitenget No.18, Kerobokan Kelod, Kuta Utara, Kerobokan Kelod, Kec. Kuta Utara, Kabupaten Badung, Bali 80361","Kerobokan Kelod, Kuta Utara, Kerobokan Kelod, Kec. Kuta Utara, Kabupaten Badung",BALI,80361.0,Indonesia,87700021888.0,,,-8.6735672,115.1578147,https://maps.google.com/?cid=0x0:0x63763bb525319cbf,
supermarket,Toko Makanan Sehat,Alive Wholefoods Store Canggu,"Jl. Canggu Padang Linjong No.14a, Canggu, Kec. Kuta Utara, Kabupaten Badung, Bali 80351","Canggu, Kec. Kuta Utara, Kabupaten Badung",BALI,80351.0,Indonesia,82146165452.0,,,-8.641887,115.139118,https://maps.google.com/?cid=0x0:0xc86a09ca901b192f,
supermarket,Toko Alat Listrik,Purnama Listrik,"HF67+JQ9, br lusuh kangin, Pering Sari, Kec. Selat, Kabupaten Karangasem, Bali 80862","br lusuh kangin, Pering Sari, Kec. Selat, Kabupaten Karangasem",BALI,80862.0,Indonesia,85847216979.0,,,-8.4384675,115.4644708,https://maps.google.com/?cid=0x0:0xc068a7e935423ed7,
supermarket,Toko Pakaian,puji shoop,"abian tiing, Kec. Selat, Kabupaten Karangasem, Bali 80862","Kec. Selat, Kabupaten Karangasem",BALI,80862.0,Indonesia,82144931857.0,,,-8.437853,115.465897,https://maps.google.com/?cid=0x0:0x43989ad4f28d5099,
supermarket,Gudang,Gede game farm,"HF68+Q77, Br.Umasari Kangin, Pering Sari, Kec. Selat, Kabupaten Karangasem, Bali 80862","Br.Umasari Kangin, Pering Sari, Kec. Selat, Kabupaten Karangasem",BALI,80862.0,Indonesia,85738888427.0,,,-8.438088,115.4656633,https://maps.google.com/?cid=0x0:0x5b1863ab87bbe6de,
supermarket,Toko,Mr. G Mini Market,"Jl. Raya Keliki, Keliki, Kec. Tegallalang, Kabupaten Gianyar, Bali 80561","Keliki, Kec. Tegallalang, Kabupaten Gianyar",BALI,80561.0,Indonesia,361981405.0,,,-8.4474851,115.2630197,https://maps.google.com/?cid=0x0:0xb00505f357496d8a,
supermarket,Pujasera,Taman Sari Market,"Jl. Gn. Tangkuban Perahu No.1, Kerobokan Kelod, Kec. Kuta Utara, Kabupaten Badung, Bali 80361","Kerobokan Kelod, Kec. Kuta Utara, Kabupaten Badung",BALI,80361.0,Indonesia,,,,-8.6721826,115.1651845,https://maps.google.com/?cid=0x0:0xf3a99a5d4388a966,
supermarket,Toko Bahan Bangunan,Puspa Reni. UD,"HF68+WCX, JL. Gunung Agung, Banjar Selat Kelod, Selat, Pering Sari, Karangasem, Kabupaten Karangasem, Bali 80862","JL. Gunung Agung, Banjar Selat Kelod, Selat, Pering Sari, Karangasem, Kabupaten Karangasem",BALI,80862.0,Indonesia,82144533595.0,,,-8.437634,115.4661243,https://maps.google.com/?cid=0x0:0x6ab361bd12c357ac,
supermarket,Pusat Perbelanjaan,Samasta Lifestyle Village,"Jl. Wanagiri No.1, Jimbaran, Kec. Kuta Sel., Kabupaten Badung, Bali 80364","Jimbaran, Kec. Kuta Sel., Kabupaten Badung",BALI,80364.0,Indonesia,3614468600.0,,,-8.7854194,115.1646306,https://maps.google.com/?cid=0x0:0xdf163c083d2953e7,
supermarket,Kerajinan,Adi Antiques,"HF78+88M, Dusun Muncan, Selat Karang Asem, Pering Sari, Bangli, Kabupaten Karangasem, Bali 80862","Dusun Muncan, Selat Karang Asem, Pering Sari, Bangli, Kabupaten Karangasem",BALI,80862.0,Indonesia,823612928.0,,,-8.436673,115.465786,https://maps.google.com/?cid=0x0:0x1b84108f00eff387,
supermarket,Pusat Perbelanjaan,Seminyak Square,"Jl. Kayu Aya No.1, Seminyak, Kec. Kuta, Kabupaten Badung, Bali 80361","Seminyak, Kec. Kuta, Kabupaten Badung",BALI,80361.0,Indonesia,81337212337.0,,,-8.6838546,115.1571397,https://maps.google.com/?cid=0x0:0xd960b2362f7999e9,
supermarket,Toko Gadai,Pegadaian UPC Selat,"Jl. Pasar Pesangkan, Pering Sari, Karangasem, Kabupaten Karangasem, Bali 80862","Pering Sari, Karangasem, Kabupaten Karangasem",BALI,80862.0,Indonesia,36321020.0,,,-8.437853,115.465897,https://maps.google.com/?cid=0x0:0xfb1dbfa7b4e7fe1e,
supermarket,Minimarket,Alfamart,"Jl. Patih Rumbih Kel No.13-14, RT.040/RW.004, Selat Tengah, Kec. Selat, Kabupaten Kapuas, Kalimantan Tengah 73514","RT.040/RW.004, Selat Tengah, Kec. Selat, Kabupaten Kapuas",BALI,73514.0,Indonesia,1500959.0,,,-3.0067536,114.3843422,https://maps.google.com/?cid=0x0:0x4778d32d37417c91,
supermarket,supermarket,Selat Bali,,,BALI,,Indonesia,,,,-8.1,114.425,https://maps.google.com/?cid=0x0:0x2a027a7715df34d0,
supermarket,Minimarket,Alfamart,"Jl. Patih Rumbih Kel, RT.004/RW.004, Selat Tengah, Kec. Selat, Kabupaten Kapuas, Kalimantan Tengah 73514","RT.004/RW.004, Selat Tengah, Kec. Selat, Kabupaten Kapuas",BALI,73514.0,Indonesia,1500959.0,,,-2.998047,114.3686888,https://maps.google.com/?cid=0x0:0xb637ef3cf4e8b622,
supermarket,Minimarket,Alfamart,"Jl. Cilik Riwut Kel No.Rt 19, Selat Dalam, Kec. Selat, Kabupaten Kapuas, Kalimantan Tengah 73516","Selat Dalam, Kec. Selat, Kabupaten Kapuas",BALI,73516.0,Indonesia,1500959.0,,,-3.0021867,114.3930721,https://maps.google.com/?cid=0x0:0x9c4773ec7277b7a8,
supermarket,Minimarket,Adi mart,"Jl. Seroja, Selat Hilir, Kec. Selat, Kabupaten Kapuas, Kalimantan Tengah 73516","Selat Hilir, Kec. Selat, Kabupaten Kapuas",BALI,73516.0,Indonesia,81257975142.0,,,-3.0167366,114.394553,https://maps.google.com/?cid=0x0:0x49072dc4963b6df0,
supermarket,Toko bahan makanan,Toko GERSON,"X9MJ+4C2, Selat Hilir, Kec. Selat, Kabupaten Kapuas, Kalimantan Tengah 73516","Selat Hilir, Kec. Selat, Kabupaten Kapuas",BALI,73516.0,Indonesia,,,,-3.0172472,114.3810275,https://maps.google.com/?cid=0x0:0xbfda92d9785fec8a,
supermarket,Toko bahan makanan,Toko Fitri,"Jl. Patih Rumbih Jl. Pilau Gg. VII No.19, Selat Tengah, Kec. Selat, Kabupaten Kapuas, Kalimantan Tengah 73516","Selat Tengah, Kec. Selat, Kabupaten Kapuas",BALI,73516.0,Indonesia,,,,-3.0040691,114.3778849,https://maps.google.com/?cid=0x0:0x6524ad6010bcdd1c,
supermarket,Minimarket,Alfamart,"Jl. Pemuda No.Rt.2, Kel.Selat Dalam, Kec. Selat, Kabupaten Kapuas, Kalimantan Tengah 73516","Kel.Selat Dalam, Kec. Selat, Kabupaten Kapuas",BALI,73516.0,Indonesia,,,,-3.0005355,114.3924626,https://maps.google.com/?cid=0x0:0xbc0559e1f06ce117,
supermarket,Minimarket,Alfamart,"Selat Hilir, Kec. Selat, Kabupaten Kapuas, Kalimantan Tengah 73516","Kec. Selat, Kabupaten Kapuas",BALI,73516.0,Indonesia,,,,-3.0183616,114.3877799,https://maps.google.com/?cid=0x0:0xe3c9cab6ec4fd720,
supermarket,supermarket,Selat,"Pering Sari, Kec. Selat, Kabupaten Karangasem, Bali","Kabupaten Karangasem, Bali",BALI,,Indonesia,,,,-8.437853,115.465897,https://maps.google.com/?cid=0x0:0x22f53a4a73abc935,
supermarket,Toko Swalayan,Grand Lucky Supermarket,"Jl. Sunset Road No.29, Kuta, Kec. Kuta, Kabupaten Badung, Bali 80361","Kuta, Kec. Kuta, Kabupaten Badung",BALI,80361.0,Indonesia,361762308.0,,,-8.7071714,115.1837175,https://maps.google.com/?cid=0x0:0xf625ece1b610a74c,
supermarket,Toko Bahan Bangunan,Mekar Indah,"HF78+4F8, Pering Sari, Kec. Selat, Kabupaten Karangasem, Bali 80862","Pering Sari, Kec. Selat, Kabupaten Karangasem",BALI,80862.0,Indonesia,36622860.0,,,-8.437225,115.466216,https://maps.google.com/?cid=0x0:0x7c2ef6ca377f81e4,
supermarket,Toko bahan makanan,Frestive Kerobokan - Supermarket,"Jl. Raya Kerobokan, Banjar, Taman, Kabupaten Badung, Bali 80361","Banjar, Taman, Kabupaten Badung",BALI,80361.0,Indonesia,87861718854.0,,,-8.6733495,115.1650827,https://maps.google.com/?cid=0x0:0x6f83634b6a7faaba,
supermarket,Toko Swalayan,Papaya Fresh Gallery - Kuta,"Jalan Merta Nadi No.Banjar, Abian Base, Kec. Kuta, Kabupaten Badung, Bali 80361","Abian Base, Kec. Kuta, Kabupaten Badung",BALI,80361.0,Indonesia,361759222.0,,,-8.7098685,115.1829325,https://maps.google.com/?cid=0x0:0xb20273175e52a48,
supermarket,Toko Alat Listrik,Purnama Listrik,"HF67+JQ9, br lusuh kangin, Pering Sari, Kec. Selat, Kabupaten Karangasem, Bali 80862","br lusuh kangin, Pering Sari, Kec. Selat, Kabupaten Karangasem",BALI,80862.0,Indonesia,85847216979.0,,,-8.4384675,115.4644708,https://maps.google.com/?cid=0x0:0xc068a7e935423ed7,
supermarket,Toko Swalayan,Pepito Market Petitenget,"Jl. Petitenget No.18, Kerobokan Kelod, Kuta Utara, Kerobokan Kelod, Kec. Kuta Utara, Kabupaten Badung, Bali 80361","Kerobokan Kelod, Kuta Utara, Kerobokan Kelod, Kec. Kuta Utara, Kabupaten Badung",BALI,80361.0,Indonesia,87700021888.0,,,-8.6735672,115.1578147,https://maps.google.com/?cid=0x0:0x63763bb525319cbf,
supermarket,Toko Pakaian,puji shoop,"abian tiing, Kec. Selat, Kabupaten Karangasem, Bali 80862","Kec. Selat, Kabupaten Karangasem",BALI,80862.0,Indonesia,82144931857.0,,,-8.437853,115.465897,https://maps.google.com/?cid=0x0:0x43989ad4f28d5099,
supermarket,Gudang,Gede game farm,"HF68+Q77, Br.Umasari Kangin, Pering Sari, Kec. Selat, Kabupaten Karangasem, Bali 80862","Br.Umasari Kangin, Pering Sari, Kec. Selat, Kabupaten Karangasem",BALI,80862.0,Indonesia,85738888427.0,,,-8.438088,115.4656633,https://maps.google.com/?cid=0x0:0x5b1863ab87bbe6de,
supermarket,Toko Bahan Bangunan,Puspa Reni. UD,"HF68+WCX, JL. Gunung Agung, Banjar Selat Kelod, Selat, Pering Sari, Karangasem, Kabupaten Karangasem, Bali 80862","JL. Gunung Agung, Banjar Selat Kelod, Selat, Pering Sari, Karangasem, Kabupaten Karangasem",BALI,80862.0,Indonesia,82144533595.0,,,-8.437634,115.4661243,https://maps.google.com/?cid=0x0:0x6ab361bd12c357ac,
supermarket,Kerajinan,Adi Antiques,"HF78+88M, Dusun Muncan, Selat Karang Asem, Pering Sari, Bangli, Kabupaten Karangasem, Bali 80862","Dusun Muncan, Selat Karang Asem, Pering Sari, Bangli, Kabupaten Karangasem",BALI,80862.0,Indonesia,823612928.0,,,-8.436673,115.465786,https://maps.google.com/?cid=0x0:0x1b84108f00eff387,
supermarket,Toko Gadai,Pegadaian UPC Selat,"Jl. Pasar Pesangkan, Pering Sari, Karangasem, Kabupaten Karangasem, Bali 80862","Pering Sari, Karangasem, Kabupaten Karangasem",BALI,80862.0,Indonesia,36321020.0,,,-8.437853,115.465897,https://maps.google.com/?cid=0x0:0xfb1dbfa7b4e7fe1e,
supermarket,Toko,Toko Mini Market  frozen food Lina,"X9MR+59C, Selat Hilir, Kec. Selat, Kabupaten Kapuas, Kalimantan Tengah 73516","Selat Hilir, Kec. Selat, Kabupaten Kapuas",BALI,73516.0,Indonesia,89691377102.0,,,-3.0170611,114.3909047,https://maps.google.com/?cid=0x0:0x8b2cbe6449ef714b,
supermarket,supermarket,UD MULIA MANDIRI,"Pering Sari, Kec. Selat, Kabupaten Karangasem, Bali 80862","Kec. Selat, Kabupaten Karangasem",BALI,80862.0,Indonesia,,,,-8.438058,115.4654979,https://maps.google.com/?cid=0x0:0x688684ceaff05893,
supermarket,supermarket,Selat Bali,,,BALI,,Indonesia,,,,-8.1,114.425,https://maps.google.com/?cid=0x0:0x2a027a7715df34d0,
supermarket,Toko bahan makanan,Toko GERSON,"X9MJ+4C2, Selat Hilir, Kec. Selat, Kabupaten Kapuas, Kalimantan Tengah 73516","Selat Hilir, Kec. Selat, Kabupaten Kapuas",BALI,73516.0,Indonesia,,,,-3.0172472,114.3810275,https://maps.google.com/?cid=0x0:0xbfda92d9785fec8a,
supermarket,Minimarket,Adi mart,"Jl. Seroja, Selat Hilir, Kec. Selat, Kabupaten Kapuas, Kalimantan Tengah 73516","Selat Hilir, Kec. Selat, Kabupaten Kapuas",BALI,73516.0,Indonesia,81257975142.0,,,-3.0167366,114.394553,https://maps.google.com/?cid=0x0:0x49072dc4963b6df0,
supermarket,Minimarket,Alfamart,"Jl. Pemuda No.Rt.2, Kel.Selat Dalam, Kec. Selat, Kabupaten Kapuas, Kalimantan Tengah 73516","Kel.Selat Dalam, Kec. Selat, Kabupaten Kapuas",BALI,73516.0,Indonesia,,,,-3.0005355,114.3924626,https://maps.google.com/?cid=0x0:0xbc0559e1f06ce117,
supermarket,Toko bahan makanan,Toko Fitri,"Jl. Patih Rumbih Jl. Pilau Gg. VII No.19, Selat Tengah, Kec. Selat, Kabupaten Kapuas, Kalimantan Tengah 73516","Selat Tengah, Kec. Selat, Kabupaten Kapuas",BALI,73516.0,Indonesia,,,,-3.0040691,114.3778849,https://maps.google.com/?cid=0x0:0x6524ad6010bcdd1c,
supermarket,Minimarket,Alfamart,"Jl. Cilik Riwut Kel No.Rt 19, Selat Dalam, Kec. Selat, Kabupaten Kapuas, Kalimantan Tengah 73516","Selat Dalam, Kec. Selat, Kabupaten Kapuas",BALI,73516.0,Indonesia,1500959.0,,,-3.0021867,114.3930721,https://maps.google.com/?cid=0x0:0x9c4773ec7277b7a8,
supermarket,Toko Peralatan dan Bahan Kue,Aisya Mart,"Jl. Teratai No..03, Selat Hilir, Kec. Selat, Kabupaten Kapuas, Kalimantan Tengah 73516","Selat Hilir, Kec. Selat, Kabupaten Kapuas",BALI,73516.0,Indonesia,85828511599.0,,,-3.017963,114.3901269,https://maps.google.com/?cid=0x0:0xc1eba43c150d76d8,
supermarket,supermarket,Selat,"Pering Sari, Kec. Selat, Kabupaten Karangasem, Bali","Kabupaten Karangasem, Bali",BALI,,Indonesia,,,,-8.437853,115.465897,https://maps.google.com/?cid=0x0:0x22f53a4a73abc935,
supermarket,Restoran,Toko Perdanamart,"Selat Hilir, Kec. Selat, Kabupaten Kapuas, Kalimantan Tengah 73516","Kec. Selat, Kabupaten Kapuas",BALI,73516.0,Indonesia,82157318943.0,,,-3.0185041,114.388203,https://maps.google.com/?cid=0x0:0x1e0fb53e8f9bd1ee,
supermarket,Toko Pakaian,puji shoop,"abian tiing, Kec. Selat, Kabupaten Karangasem, Bali 80862","Kec. Selat, Kabupaten Karangasem",BALI,80862.0,Indonesia,82144931857.0,,,-8.437853,115.465897,https://maps.google.com/?cid=0x0:0x43989ad4f28d5099,
supermarket,supermarket,UD MULIA MANDIRI,"Pering Sari, Kec. Selat, Kabupaten Karangasem, Bali 80862","Kec. Selat, Kabupaten Karangasem",BALI,80862.0,Indonesia,,,,-8.438058,115.4654979,https://maps.google.com/?cid=0x0:0x688684ceaff05893,
supermarket,Toko Bahan Bangunan,Mekar Indah,"HF78+4F8, Pering Sari, Kec. Selat, Kabupaten Karangasem, Bali 80862","Pering Sari, Kec. Selat, Kabupaten Karangasem",BALI,80862.0,Indonesia,36622860.0,,,-8.437225,115.466216,https://maps.google.com/?cid=0x0:0x7c2ef6ca377f81e4,
supermarket,Toko,Toko Mini Market  frozen food Lina,"X9MR+59C, Selat Hilir, Kec. Selat, Kabupaten Kapuas, Kalimantan Tengah 73516","Selat Hilir, Kec. Selat, Kabupaten Kapuas",BALI,73516.0,Indonesia,89691377102.0,,,-3.0170611,114.3909047,https://maps.google.com/?cid=0x0:0x8b2cbe6449ef714b,
supermarket,supermarket,Selat Bali,,,BALI,,Indonesia,,,,-8.1,114.425,https://maps.google.com/?cid=0x0:0x2a027a7715df34d0,
supermarket,Pusat Perbelanjaan,Hyfresh Supermarket Kuala Kapuas,"Jl. Pemuda No.KM 1, RW.5, Selat Dalam, Kec. Selat, Kabupaten Kapuas, Kalimantan Tengah 73516","RW.5, Selat Dalam, Kec. Selat, Kabupaten Kapuas",BALI,73516.0,Indonesia,85752706042.0,,,-2.9870307,114.3990786,https://maps.google.com/?cid=0x0:0x9e318e41c80f896c,
supermarket,Minimarket,Adi mart,"Jl. Seroja, Selat Hilir, Kec. Selat, Kabupaten Kapuas, Kalimantan Tengah 73516","Selat Hilir, Kec. Selat, Kabupaten Kapuas",BALI,73516.0,Indonesia,81257975142.0,,,-3.0167366,114.394553,https://maps.google.com/?cid=0x0:0x49072dc4963b6df0,
supermarket,Toko bahan makanan,Toko GERSON,"X9MJ+4C2, Selat Hilir, Kec. Selat, Kabupaten Kapuas, Kalimantan Tengah 73516","Selat Hilir, Kec. Selat, Kabupaten Kapuas",BALI,73516.0,Indonesia,,,,-3.0172472,114.3810275,https://maps.google.com/?cid=0x0:0xbfda92d9785fec8a,
supermarket,Minimarket,Alfamart,"Jl. Cilik Riwut Kel No.Rt 19, Selat Dalam, Kec. Selat, Kabupaten Kapuas, Kalimantan Tengah 73516","Selat Dalam, Kec. Selat, Kabupaten Kapuas",BALI,73516.0,Indonesia,1500959.0,,,-3.0021867,114.3930721,https://maps.google.com/?cid=0x0:0x9c4773ec7277b7a8,
supermarket,Minimarket,Alfamart,"Selat Hilir, Kec. Selat, Kabupaten Kapuas, Kalimantan Tengah 73516","Kec. Selat, Kabupaten Kapuas",BALI,73516.0,Indonesia,,,,-3.0183616,114.3877799,https://maps.google.com/?cid=0x0:0xe3c9cab6ec4fd720,
supermarket,Minimarket,Alfamart,"Jl. Pemuda No.Rt.2, Kel.Selat Dalam, Kec. Selat, Kabupaten Kapuas, Kalimantan Tengah 73516","Kel.Selat Dalam, Kec. Selat, Kabupaten Kapuas",BALI,73516.0,Indonesia,,,,-3.0005355,114.3924626,https://maps.google.com/?cid=0x0:0xbc0559e1f06ce117,
supermarket,Toko bahan makanan,Toko Fitri,"Jl. Patih Rumbih Jl. Pilau Gg. VII No.19, Selat Tengah, Kec. Selat, Kabupaten Kapuas, Kalimantan Tengah 73516","Selat Tengah, Kec. Selat, Kabupaten Kapuas",BALI,73516.0,Indonesia,,,,-3.0040691,114.3778849,https://maps.google.com/?cid=0x0:0x6524ad6010bcdd1c,
supermarket,Toko Peralatan dan Bahan Kue,Aisya Mart,"Jl. Teratai No..03, Selat Hilir, Kec. Selat, Kabupaten Kapuas, Kalimantan Tengah 73516","Selat Hilir, Kec. Selat, Kabupaten Kapuas",BALI,73516.0,Indonesia,85828511599.0,,,-3.017963,114.3901269,https://maps.google.com/?cid=0x0:0xc1eba43c150d76d8,
supermarket,Toko bahan makanan,Kios nuril,"XCV3+5FM, Jl. Baban, Selat Tengah, Kec. Selat, Kabupaten Kapuas, Kalimantan Tengah 73581","Jl. Baban, Selat Tengah, Kec. Selat, Kabupaten Kapuas",BALI,73581.0,Indonesia,,,,-3.0070424,114.4035907,https://maps.google.com/?cid=0x0:0xb46635141e2ca427,
supermarket,supermarket,Selat,"Pering Sari, Kec. Selat, Kabupaten Karangasem, Bali","Kabupaten Karangasem, Bali",BALI,,Indonesia,,,,-8.437853,115.465897,https://maps.google.com/?cid=0x0:0x22f53a4a73abc935,
supermarket,Toko Swalayan,Nirmala Balangan,"642J+PCW, Jl. Pantai Balangan No.315, Jimbaran, Kec. Kuta Sel., Kabupaten Badung, Bali 80361","Jl. Pantai Balangan No.315, Jimbaran, Kec. Kuta Sel., Kabupaten Badung",BALI,80361.0,Indonesia,,,,-8.7982374,115.1313349,https://maps.google.com/?cid=0x0:0x35257b640d9d987,
supermarket,Toko Swalayan,Nirmala Supermarket Ungasan,"Jl. Raya Uluwatu, Ungasan, Kec. Kuta Sel., Kabupaten Badung, Bali 80361","Ungasan, Kec. Kuta Sel., Kabupaten Badung",BALI,80361.0,Indonesia,361705454.0,,,-8.815793,115.1556778,https://maps.google.com/?cid=0x0:0x931af7fb84b3bbb3,
supermarket,Toko Bahan Bangunan,Mekar Indah,"HF78+4F8, Pering Sari, Kec. Selat, Kabupaten Karangasem, Bali 80862","Pering Sari, Kec. Selat, Kabupaten Karangasem",BALI,80862.0,Indonesia,36622860.0,,,-8.437225,115.466216,https://maps.google.com/?cid=0x0:0x7c2ef6ca377f81e4,
supermarket,Supermarket Industri,Bintang Supermarket Seminyak,"Jl. Raya Seminyak No.17, Seminyak, Kec. Kuta Utara, Kabupaten Badung, Bali 80361","Seminyak, Kec. Kuta Utara, Kabupaten Badung",BALI,80361.0,Indonesia,361730552.0,,,-8.6941736,115.1678886,https://maps.google.com/?cid=0x0:0x3582fbdbb0c18258,
supermarket,Toko Swalayan,Nirmala Supermarket Pecatu,"54CP+9P2, Jl. Raya Uluwatu Pecatu, Pecatu, Kec. Kuta Sel., Kabupaten Badung, Bali 80361","Jl. Raya Uluwatu Pecatu, Pecatu, Kec. Kuta Sel., Kabupaten Badung",BALI,80361.0,Indonesia,3617472303.0,,,-8.8290956,115.1368258,https://maps.google.com/?cid=0x0:0x19e6cf96bd6eb440,
supermarket,Toko Swalayan,Bintang Supermarket Ubud,"Jl. Raya Sanggingan No.45, Sayan, Kecamatan Ubud, Kabupaten Gianyar, Bali 80515","Sayan, Kecamatan Ubud, Kabupaten Gianyar",BALI,80515.0,Indonesia,361972972.0,,,-8.4997384,115.2523733,https://maps.google.com/?cid=0x0:0xedf5038642b75298,
supermarket,Toko Swalayan,Frestive Seminyak - Supermarket,"Jl. Kunti I No.117X, Seminyak, Kec. Kuta, Kabupaten Badung, Bali 80361","Seminyak, Kec. Kuta, Kabupaten Badung",BALI,80361.0,Indonesia,85940748190.0,,,-8.688543,115.1704673,https://maps.google.com/?cid=0x0:0x78c10fd0ef02bffd,
supermarket,Toko Swalayan,Papaya Fresh Gallery - Kuta,"Jalan Merta Nadi No.Banjar, Abian Base, Kec. Kuta, Kabupaten Badung, Bali 80361","Abian Base, Kec. Kuta, Kabupaten Badung",BALI,80361.0,Indonesia,361759222.0,,,-8.7098685,115.1829325,https://maps.google.com/?cid=0x0:0xb20273175e52a48,
supermarket,Toko bahan makanan,Frestive Kerobokan - Supermarket,"Jl. Raya Kerobokan, Banjar, Taman, Kabupaten Badung, Bali 80361","Banjar, Taman, Kabupaten Badung",BALI,80361.0,Indonesia,87861718854.0,,,-8.6733495,115.1650827,https://maps.google.com/?cid=0x0:0x6f83634b6a7faaba,
supermarket,Toko Alat Listrik,Purnama Listrik,"HF67+JQ9, br lusuh kangin, Pering Sari, Kec. Selat, Kabupaten Karangasem, Bali 80862","br lusuh kangin, Pering Sari, Kec. Selat, Kabupaten Karangasem",BALI,80862.0,Indonesia,85847216979.0,,,-8.4384675,115.4644708,https://maps.google.com/?cid=0x0:0xc068a7e935423ed7,
supermarket,Toko Swalayan,Pepito Market Petitenget,"Jl. Petitenget No.18, Kerobokan Kelod, Kuta Utara, Kerobokan Kelod, Kec. Kuta Utara, Kabupaten Badung, Bali 80361","Kerobokan Kelod, Kuta Utara, Kerobokan Kelod, Kec. Kuta Utara, Kabupaten Badung",BALI,80361.0,Indonesia,87700021888.0,,,-8.6735672,115.1578147,https://maps.google.com/?cid=0x0:0x63763bb525319cbf,
supermarket,Toko Pakaian,puji shoop,"abian tiing, Kec. Selat, Kabupaten Karangasem, Bali 80862","Kec. Selat, Kabupaten Karangasem",BALI,80862.0,Indonesia,82144931857.0,,,-8.437853,115.465897,https://maps.google.com/?cid=0x0:0x43989ad4f28d5099,
supermarket,Toko Swalayan,FRESTIVE SUPERMARKET TEBONGKANG,"F68V+XMC, Jl. Raya Tebongkang No.88 B, Singakerta, Kecamatan Ubud, Kabupaten Gianyar, Bali 80571","Jl. Raya Tebongkang No.88 B, Singakerta, Kecamatan Ubud, Kabupaten Gianyar",BALI,80571.0,Indonesia,81882811248.0,,,-8.5325587,115.2441841,https://maps.google.com/?cid=0x0:0xdf374c7e6b22796d,
supermarket,Toko Bahan Bangunan,Puspa Reni. UD,"HF68+WCX, JL. Gunung Agung, Banjar Selat Kelod, Selat, Pering Sari, Karangasem, Kabupaten Karangasem, Bali 80862","JL. Gunung Agung, Banjar Selat Kelod, Selat, Pering Sari, Karangasem, Kabupaten Karangasem",BALI,80862.0,Indonesia,82144533595.0,,,-8.437634,115.4661243,https://maps.google.com/?cid=0x0:0x6ab361bd12c357ac,
supermarket,Gudang,Gede game farm,"HF68+Q77, Br.Umasari Kangin, Pering Sari, Kec. Selat, Kabupaten Karangasem, Bali 80862","Br.Umasari Kangin, Pering Sari, Kec. Selat, Kabupaten Karangasem",BALI,80862.0,Indonesia,85738888427.0,,,-8.438088,115.4656633,https://maps.google.com/?cid=0x0:0x5b1863ab87bbe6de,
supermarket,Kerajinan,Adi Antiques,"HF78+88M, Dusun Muncan, Selat Karang Asem, Pering Sari, Bangli, Kabupaten Karangasem, Bali 80862","Dusun Muncan, Selat Karang Asem, Pering Sari, Bangli, Kabupaten Karangasem",BALI,80862.0,Indonesia,823612928.0,,,-8.436673,115.465786,https://maps.google.com/?cid=0x0:0x1b84108f00eff387,
supermarket,Toko Swalayan,Greensmart,"Jl. Raya Tandes Lor No.7, Tanjungsari, Kec. Sukomanunggal, Surabaya, Jawa Timur 60187","Tanjungsari, Kec. Sukomanunggal, Surabaya",BALI,60187.0,Indonesia,,,,-7.2599072,112.6897854,https://maps.google.com/?cid=0x0:0x39ffaf65f3adb63f,
supermarket,Toko Gadai,Pegadaian UPC Selat,"Jl. Pasar Pesangkan, Pering Sari, Karangasem, Kabupaten Karangasem, Bali 80862","Pering Sari, Karangasem, Kabupaten Karangasem",BALI,80862.0,Indonesia,36321020.0,,,-8.437853,115.465897,https://maps.google.com/?cid=0x0:0xfb1dbfa7b4e7fe1e,
supermarket,Minimarket,Greensmart,"Safira Garden, Krajan, Sepande, Kec. Candi, Kabupaten Sidoarjo, Jawa Timur 61271","Krajan, Sepande, Kec. Candi, Kabupaten Sidoarjo",BALI,61271.0,Indonesia,,,,-7.4624506,112.691454,https://maps.google.com/?cid=0x0:0xa2670aec1bca5d96,
supermarket,supermarket,Selat Bali,,,BALI,,Indonesia,,,,-8.1,114.425,https://maps.google.com/?cid=0x0:0x2a027a7715df34d0,
supermarket,Toko,Toko Mini Market  frozen food Lina,"X9MR+59C, Selat Hilir, Kec. Selat, Kabupaten Kapuas, Kalimantan Tengah 73516","Selat Hilir, Kec. Selat, Kabupaten Kapuas",BALI,73516.0,Indonesia,89691377102.0,,,-3.0170611,114.3909047,https://maps.google.com/?cid=0x0:0x8b2cbe6449ef714b,
supermarket,Restoran,Toko Perdanamart,"Selat Hilir, Kec. Selat, Kabupaten Kapuas, Kalimantan Tengah 73516","Kec. Selat, Kabupaten Kapuas",BALI,73516.0,Indonesia,82157318943.0,,,-3.0185041,114.388203,https://maps.google.com/?cid=0x0:0x1e0fb53e8f9bd1ee,
supermarket,Toko Swalayan,Terkam Store,"Jl. Mahakam Gg. 7 No.A, Selat Tengah, Kec. Selat, Kabupaten Kapuas, Kalimantan Tengah 73515","Selat Tengah, Kec. Selat, Kabupaten Kapuas",BALI,73515.0,Indonesia,82363878707.0,,,-3.0136531,114.395808,https://maps.google.com/?cid=0x0:0x7e027545644f5d99,
supermarket,Minimarket,Alfamart,"Jl. Cilik Riwut Kel No.Rt 19, Selat Dalam, Kec. Selat, Kabupaten Kapuas, Kalimantan Tengah 73516","Selat Dalam, Kec. Selat, Kabupaten Kapuas",BALI,73516.0,Indonesia,1500959.0,,,-3.0021867,114.3930721,https://maps.google.com/?cid=0x0:0x9c4773ec7277b7a8,
supermarket,Toko bahan makanan,Toko GERSON,"X9MJ+4C2, Selat Hilir, Kec. Selat, Kabupaten Kapuas, Kalimantan Tengah 73516","Selat Hilir, Kec. Selat, Kabupaten Kapuas",BALI,73516.0,Indonesia,,,,-3.0172472,114.3810275,https://maps.google.com/?cid=0x0:0xbfda92d9785fec8a,
supermarket,Minimarket,Adi mart,"Jl. Seroja, Selat Hilir, Kec. Selat, Kabupaten Kapuas, Kalimantan Tengah 73516","Selat Hilir, Kec. Selat, Kabupaten Kapuas",BALI,73516.0,Indonesia,81257975142.0,,,-3.0167366,114.394553,https://maps.google.com/?cid=0x0:0x49072dc4963b6df0,
supermarket,Toko bahan makanan,Toko Fitri,"Jl. Patih Rumbih Jl. Pilau Gg. VII No.19, Selat Tengah, Kec. Selat, Kabupaten Kapuas, Kalimantan Tengah 73516","Selat Tengah, Kec. Selat, Kabupaten Kapuas",BALI,73516.0,Indonesia,,,,-3.0040691,114.3778849,https://maps.google.com/?cid=0x0:0x6524ad6010bcdd1c,
supermarket,Minimarket,Alfamart,"Jl. Pemuda No.Rt.2, Kel.Selat Dalam, Kec. Selat, Kabupaten Kapuas, Kalimantan Tengah 73516","Kel.Selat Dalam, Kec. Selat, Kabupaten Kapuas",BALI,73516.0,Indonesia,,,,-3.0005355,114.3924626,https://maps.google.com/?cid=0x0:0xbc0559e1f06ce117,
supermarket,supermarket,Selat,"Pering Sari, Kec. Selat, Kabupaten Karangasem, Bali","Kabupaten Karangasem, Bali",BALI,,Indonesia,,,,-8.437853,115.465897,https://maps.google.com/?cid=0x0:0x22f53a4a73abc935,
supermarket,Toko Swalayan,Grand Lucky Supermarket,"Jl. Sunset Road No.29, Kuta, Kec. Kuta, Kabupaten Badung, Bali 80361","Kuta, Kec. Kuta, Kabupaten Badung",BALI,80361.0,Indonesia,361762308.0,,,-8.7071714,115.1837175,https://maps.google.com/?cid=0x0:0xf625ece1b610a74c,
supermarket,Toko Bahan Bangunan,Mekar Indah,"HF78+4F8, Pering Sari, Kec. Selat, Kabupaten Karangasem, Bali 80862","Pering Sari, Kec. Selat, Kabupaten Karangasem",BALI,80862.0,Indonesia,36622860.0,,,-8.437225,115.466216,https://maps.google.com/?cid=0x0:0x7c2ef6ca377f81e4,
supermarket,Toko Swalayan,Gourmet Market Bali by Pepito,"Sidewalk Jimbaran, Jl. Raya Uluwatu No.138, Jimbaran, Kec. Kuta Sel., Kabupaten Badung, Bali 80361","Jl. Raya Uluwatu No.138, Jimbaran, Kec. Kuta Sel., Kabupaten Badung",BALI,80361.0,Indonesia,8174871288.0,,,-8.796546,115.1611734,https://maps.google.com/?cid=0x0:0xdc415049546c11d3,
supermarket,Toko bahan makanan,Frestive Kerobokan - Supermarket,"Jl. Raya Kerobokan, Banjar, Taman, Kabupaten Badung, Bali 80361","Banjar, Taman, Kabupaten Badung",BALI,80361.0,Indonesia,87861718854.0,,,-8.6733495,115.1650827,https://maps.google.com/?cid=0x0:0x6f83634b6a7faaba,
supermarket,Toko Swalayan,Papaya Fresh Gallery - Kuta,"Jalan Merta Nadi No.Banjar, Abian Base, Kec. Kuta, Kabupaten Badung, Bali 80361","Abian Base, Kec. Kuta, Kabupaten Badung",BALI,80361.0,Indonesia,361759222.0,,,-8.7098685,115.1829325,https://maps.google.com/?cid=0x0:0xb20273175e52a48,
supermarket,Toko Alat Listrik,Purnama Listrik,"HF67+JQ9, br lusuh kangin, Pering Sari, Kec. Selat, Kabupaten Karangasem, Bali 80862","br lusuh kangin, Pering Sari, Kec. Selat, Kabupaten Karangasem",BALI,80862.0,Indonesia,85847216979.0,,,-8.4384675,115.4644708,https://maps.google.com/?cid=0x0:0xc068a7e935423ed7,
supermarket,Toko Swalayan,Pepito Market Petitenget,"Jl. Petitenget No.18, Kerobokan Kelod, Kuta Utara, Kerobokan Kelod, Kec. Kuta Utara, Kabupaten Badung, Bali 80361","Kerobokan Kelod, Kuta Utara, Kerobokan Kelod, Kec. Kuta Utara, Kabupaten Badung",BALI,80361.0,Indonesia,87700021888.0,,,-8.6735672,115.1578147,https://maps.google.com/?cid=0x0:0x63763bb525319cbf,
supermarket,Toko Pakaian,puji shoop,"abian tiing, Kec. Selat, Kabupaten Karangasem, Bali 80862","Kec. Selat, Kabupaten Karangasem",BALI,80862.0,Indonesia,82144931857.0,,,-8.437853,115.465897,https://maps.google.com/?cid=0x0:0x43989ad4f28d5099,
supermarket,Gudang,Gede game farm,"HF68+Q77, Br.Umasari Kangin, Pering Sari, Kec. Selat, Kabupaten Karangasem, Bali 80862","Br.Umasari Kangin, Pering Sari, Kec. Selat, Kabupaten Karangasem",BALI,80862.0,Indonesia,85738888427.0,,,-8.438088,115.4656633,https://maps.google.com/?cid=0x0:0x5b1863ab87bbe6de,
supermarket,Toko Makanan Sehat,Alive Wholefoods Store Canggu,"Jl. Canggu Padang Linjong No.14a, Canggu, Kec. Kuta Utara, Kabupaten Badung, Bali 80351","Canggu, Kec. Kuta Utara, Kabupaten Badung",BALI,80351.0,Indonesia,82146165452.0,,,-8.641887,115.139118,https://maps.google.com/?cid=0x0:0xc86a09ca901b192f,
supermarket,Toko Bahan Bangunan,Puspa Reni. UD,"HF68+WCX, JL. Gunung Agung, Banjar Selat Kelod, Selat, Pering Sari, Karangasem, Kabupaten Karangasem, Bali 80862","JL. Gunung Agung, Banjar Selat Kelod, Selat, Pering Sari, Karangasem, Kabupaten Karangasem",BALI,80862.0,Indonesia,82144533595.0,,,-8.437634,115.4661243,https://maps.google.com/?cid=0x0:0x6ab361bd12c357ac,
supermarket,Toko Gadai,Pegadaian UPC Selat,"Jl. Pasar Pesangkan, Pering Sari, Karangasem, Kabupaten Karangasem, Bali 80862","Pering Sari, Karangasem, Kabupaten Karangasem",BALI,80862.0,Indonesia,36321020.0,,,-8.437853,115.465897,https://maps.google.com/?cid=0x0:0xfb1dbfa7b4e7fe1e,
supermarket,Kerajinan,Adi Antiques,"HF78+88M, Dusun Muncan, Selat Karang Asem, Pering Sari, Bangli, Kabupaten Karangasem, Bali 80862","Dusun Muncan, Selat Karang Asem, Pering Sari, Bangli, Kabupaten Karangasem",BALI,80862.0,Indonesia,823612928.0,,,-8.436673,115.465786,https://maps.google.com/?cid=0x0:0x1b84108f00eff387,
supermarket,supermarket,UD MULIA MANDIRI,"Pering Sari, Kec. Selat, Kabupaten Karangasem, Bali 80862","Kec. Selat, Kabupaten Karangasem",BALI,80862.0,Indonesia,,,,-8.438058,115.4654979,https://maps.google.com/?cid=0x0:0x688684ceaff05893,
supermarket,Toko Swalayan,Swalayan,"HF4R+58W, Jl. Baledan, Duda, Kec. Selat, Kabupaten Karangasem, Bali 80862","Jl. Baledan, Duda, Kec. Selat, Kabupaten Karangasem",BALI,80862.0,Indonesia,,,,-8.44452,115.4908271,https://maps.google.com/?cid=0x0:0xa70d812cbb7b6f94,
supermarket,Toko bahan makanan,Supermarket Gemilang,"Jln. Baledan, Desa Duda, Selat, Kec. Karangasem, Kabupaten Karangasem, Bali 80862","Desa Duda, Selat, Kec. Karangasem, Kabupaten Karangasem",BALI,80862.0,Indonesia,,,,-8.4445506,115.4905495,https://maps.google.com/?cid=0x0:0x65c970482a33aa3e,
supermarket,supermarket,Kalimantan Tengah 73516,Kalimantan Tengah,Kalimantan Tengah,BALI,,Indonesia,,,,-2.9883279,114.3103718,https://maps.google.com/?cid=0x0:0x7f8e8af654c2b83e,
supermarket,Toko,Toko Mini Market  frozen food Lina,"X9MR+59C, Selat Hilir, Kec. Selat, Kabupaten Kapuas, Kalimantan Tengah 73516","Selat Hilir, Kec. Selat, Kabupaten Kapuas",BALI,73516.0,Indonesia,89691377102.0,,,-3.0170611,114.3909047,https://maps.google.com/?cid=0x0:0x8b2cbe6449ef714b,
supermarket,Restoran,Toko Perdanamart,"Selat Hilir, Kec. Selat, Kabupaten Kapuas, Kalimantan Tengah 73516","Kec. Selat, Kabupaten Kapuas",BALI,73516.0,Indonesia,82157318943.0,,,-3.0185041,114.388203,https://maps.google.com/?cid=0x0:0x1e0fb53e8f9bd1ee,
supermarket,Minimarket,Alfamart,"Jl. Patih Rumbih Kel No.13-14, RT.040/RW.004, Selat Tengah, Kec. Selat, Kabupaten Kapuas, Kalimantan Tengah 73514","RT.040/RW.004, Selat Tengah, Kec. Selat, Kabupaten Kapuas",BALI,73514.0,Indonesia,1500959.0,,,-3.0067536,114.3843422,https://maps.google.com/?cid=0x0:0x4778d32d37417c91,
supermarket,Toko bahan makanan,Toko GERSON,"X9MJ+4C2, Selat Hilir, Kec. Selat, Kabupaten Kapuas, Kalimantan Tengah 73516","Selat Hilir, Kec. Selat, Kabupaten Kapuas",BALI,73516.0,Indonesia,,,,-3.0172472,114.3810275,https://maps.google.com/?cid=0x0:0xbfda92d9785fec8a,
supermarket,Pusat Perbelanjaan,Hyfresh Supermarket Kuala Kapuas,"Jl. Pemuda No.KM 1, RW.5, Selat Dalam, Kec. Selat, Kabupaten Kapuas, Kalimantan Tengah 73516","RW.5, Selat Dalam, Kec. Selat, Kabupaten Kapuas",BALI,73516.0,Indonesia,85752706042.0,,,-2.9870307,114.3990786,https://maps.google.com/?cid=0x0:0x9e318e41c80f896c,
supermarket,Toko Peralatan dan Bahan Kue,Aisya Mart,"Jl. Teratai No..03, Selat Hilir, Kec. Selat, Kabupaten Kapuas, Kalimantan Tengah 73516","Selat Hilir, Kec. Selat, Kabupaten Kapuas",BALI,73516.0,Indonesia,85828511599.0,,,-3.017963,114.3901269,https://maps.google.com/?cid=0x0:0xc1eba43c150d76d8,
supermarket,Minimarket,Indomaret Tjilik Riwut,"X9XV+292, Selat Tengah, Kec. Selat, Kabupaten Kapuas, Kalimantan Tengah 73516","Selat Tengah, Kec. Selat, Kabupaten Kapuas",BALI,73516.0,Indonesia,,,,-3.0024997,114.3934061,https://maps.google.com/?cid=0x0:0x34fe25f9f604b21f,
supermarket,Minimarket,Adi mart,"Jl. Seroja, Selat Hilir, Kec. Selat, Kabupaten Kapuas, Kalimantan Tengah 73516","Selat Hilir, Kec. Selat, Kabupaten Kapuas",BALI,73516.0,Indonesia,81257975142.0,,,-3.0167366,114.394553,https://maps.google.com/?cid=0x0:0x49072dc4963b6df0,
supermarket,Toko bahan makanan,Indomaret Barito Kuala Kapuas,"X9PV+F3G, Selat Tengah, Kec. Selat, Kabupaten Kapuas, Kalimantan Tengah 73516","Selat Tengah, Kec. Selat, Kabupaten Kapuas",BALI,73516.0,Indonesia,,,,-3.0138161,114.3927134,https://maps.google.com/?cid=0x0:0x9e7e762f2c6cef4d,
supermarket,Minimarket,Alfamart,"Jl. Cilik Riwut Kel No.Rt 19, Selat Dalam, Kec. Selat, Kabupaten Kapuas, Kalimantan Tengah 73516","Selat Dalam, Kec. Selat, Kabupaten Kapuas",BALI,73516.0,Indonesia,1500959.0,,,-3.0021867,114.3930721,https://maps.google.com/?cid=0x0:0x9c4773ec7277b7a8,
supermarket,Toko Swalayan,Toko Putri Maelani,"Jl. Kapuas, Selat Hulu, Kec. Selat, Kabupaten Kapuas, Kalimantan Tengah 73581","Selat Hulu, Kec. Selat, Kabupaten Kapuas",BALI,73581.0,Indonesia,81351936725.0,,,-3.0127317,114.3987843,https://maps.google.com/?cid=0x0:0x1e5b20427413a020,
supermarket,supermarket,Bali 80862,"Kec. Selat, Kabupaten Karangasem, Bali","Kabupaten Karangasem, Bali",BALI,,Indonesia,,,,-8.4194238,115.4852012,https://maps.google.com/?cid=0x0:0x1c00c5eb6016c090,
supermarket,Toko bahan makanan,Supermarket Gemilang,"Jln. Baledan, Desa Duda, Selat, Kec. Karangasem, Kabupaten Karangasem, Bali 80862","Desa Duda, Selat, Kec. Karangasem, Kabupaten Karangasem",BALI,80862.0,Indonesia,,,,-8.4445506,115.4905495,https://maps.google.com/?cid=0x0:0x65c970482a33aa3e,
supermarket,,Krishna Mart,"HF3W+3RX, Duda Tim., Kec. Selat, Kabupaten Karangasem, Bali 80862","Duda Tim., Kec. Selat, Kabupaten Karangasem",BALI,80862.0,Indonesia,81936071965.0,,,-8.447256,115.497101,https://maps.google.com/?cid=0x0:0x98e2129260df7824,
supermarket,Toko Swalayan,Swalayan,"HF4R+58W, Jl. Baledan, Duda, Kec. Selat, Kabupaten Karangasem, Bali 80862","Jl. Baledan, Duda, Kec. Selat, Kabupaten Karangasem",BALI,80862.0,Indonesia,,,,-8.44452,115.4908271,https://maps.google.com/?cid=0x0:0xa70d812cbb7b6f94,
supermarket,Toko bahan makanan,Ar,"HG95+W6W, Jl. Baledan, Duda Utara, Kec. Selat, Kabupaten Karangasem, Bali 80862","Jl. Baledan, Duda Utara, Kec. Selat, Kabupaten Karangasem",BALI,80862.0,Indonesia,87761704895.0,,,-8.4301335,115.5080914,https://maps.google.com/?cid=0x0:0xccf37bae452365cd,
supermarket,Toko bahan makanan,Warung Merta,"HFHH+W47, Duda Utara, Kec. Selat, Kabupaten Karangasem, Bali 80862","Duda Utara, Kec. Selat, Kabupaten Karangasem",BALI,80862.0,Indonesia,,,,-8.4202079,115.4778043,https://maps.google.com/?cid=0x0:0xc4d7ecccd9fc1d72,
supermarket,Kafe,Fluffy.C by Biji valley,"Muncan, Kec. Selat, Kabupaten Karangasem, Bali 80862","Kec. Selat, Kabupaten Karangasem",BALI,80862.0,Indonesia,88987198775.0,,,-8.4292054,115.4458346,https://maps.google.com/?cid=0x0:0xd35ba5313f07334b,
supermarket,Toko,Warung Joni,"Banjar Dinas Padangaji Tengah, Pering Sari, Kec. Selat, Kabupaten Karangasem, Bali 80862","Pering Sari, Kec. Selat, Kabupaten Karangasem",BALI,80862.0,Indonesia,,,,-8.4300394,115.4602503,https://maps.google.com/?cid=0x0:0xe7ff1be49a5a83e2,
supermarket,supermarket,Selat,"Pering Sari, Kec. Selat, Kabupaten Karangasem, Bali","Kabupaten Karangasem, Bali",BALI,,Indonesia,,,,-8.437853,115.465897,https://maps.google.com/?cid=0x0:0x22f53a4a73abc935,
supermarket,Toko Bahan Bangunan,Merta Sari UD,"HCFW+XQH, Muncan, Kec. Selat, Kabupaten Karangasem, Bali 80862","Muncan, Kec. Selat, Kabupaten Karangasem",BALI,80862.0,Indonesia,81805434185.0,,,-8.4253776,115.4471858,https://maps.google.com/?cid=0x0:0x1886edc6fb2cb9c1,
supermarket,Toko Swalayan,Ud. Sulatra,"HG23+VX2, Jl. Baledan, Duda Tim., Kec. Selat, Kabupaten Karangasem, Bali 80862","Jl. Baledan, Duda Tim., Kec. Selat, Kabupaten Karangasem",BALI,80862.0,Indonesia,82340838462.0,,,-8.4478717,115.5048853,https://maps.google.com/?cid=0x0:0xd533155575b9d473,
supermarket,Toko bahan makanan,Warung Buk Komang,"HF72+WCW, Unnamed Road, Muncan, Kec. Selat, Kabupaten Karangasem, Bali 80862","Unnamed Road, Muncan, Kec. Selat, Kabupaten Karangasem",BALI,80862.0,Indonesia,,,,-8.4351286,115.4510698,https://maps.google.com/?cid=0x0:0x4aaaf5fb569eda43,
supermarket,Toko bahan makanan,Warung Bu Kadek,"HF7F+XWG, Jl. Gn. Agung, Selat, Kec. Selat, Kabupaten Karangasem, Bali 80862","Jl. Gn. Agung, Selat, Kec. Selat, Kabupaten Karangasem",BALI,80862.0,Indonesia,,,,-8.4350519,115.4748189,https://maps.google.com/?cid=0x0:0xa7d72c14fe3312d6,
supermarket,Toko Bahan Bangunan,Mekar Indah,"HF78+4F8, Pering Sari, Kec. Selat, Kabupaten Karangasem, Bali 80862","Pering Sari, Kec. Selat, Kabupaten Karangasem",BALI,80862.0,Indonesia,36622860.0,,,-8.437225,115.466216,https://maps.google.com/?cid=0x0:0x7c2ef6ca377f81e4,
supermarket,Toko Pakaian,puji shoop,"abian tiing, Kec. Selat, Kabupaten Karangasem, Bali 80862","Kec. Selat, Kabupaten Karangasem",BALI,80862.0,Indonesia,82144931857.0,,,-8.437853,115.465897,https://maps.google.com/?cid=0x0:0x43989ad4f28d5099,
supermarket,Gudang,Gede game farm,"HF68+Q77, Br.Umasari Kangin, Pering Sari, Kec. Selat, Kabupaten Karangasem, Bali 80862","Br.Umasari Kangin, Pering Sari, Kec. Selat, Kabupaten Karangasem",BALI,80862.0,Indonesia,85738888427.0,,,-8.438088,115.4656633,https://maps.google.com/?cid=0x0:0x5b1863ab87bbe6de,
supermarket,Toko Alat Listrik,Purnama Listrik,"HF67+JQ9, br lusuh kangin, Pering Sari, Kec. Selat, Kabupaten Karangasem, Bali 80862","br lusuh kangin, Pering Sari, Kec. Selat, Kabupaten Karangasem",BALI,80862.0,Indonesia,85847216979.0,,,-8.4384675,115.4644708,https://maps.google.com/?cid=0x0:0xc068a7e935423ed7,
supermarket,Kerajinan,Adi Antiques,"HF78+88M, Dusun Muncan, Selat Karang Asem, Pering Sari, Bangli, Kabupaten Karangasem, Bali 80862","Dusun Muncan, Selat Karang Asem, Pering Sari, Bangli, Kabupaten Karangasem",BALI,80862.0,Indonesia,823612928.0,,,-8.436673,115.465786,https://maps.google.com/?cid=0x0:0x1b84108f00eff387,
supermarket,Toko Bahan Bangunan,Puspa Reni. UD,"HF68+WCX, JL. Gunung Agung, Banjar Selat Kelod, Selat, Pering Sari, Karangasem, Kabupaten Karangasem, Bali 80862","JL. Gunung Agung, Banjar Selat Kelod, Selat, Pering Sari, Karangasem, Kabupaten Karangasem",BALI,80862.0,Indonesia,82144533595.0,,,-8.437634,115.4661243,https://maps.google.com/?cid=0x0:0x6ab361bd12c357ac,
supermarket,supermarket,UD MULIA MANDIRI,"Pering Sari, Kec. Selat, Kabupaten Karangasem, Bali 80862","Kec. Selat, Kabupaten Karangasem",BALI,80862.0,Indonesia,,,,-8.438058,115.4654979,https://maps.google.com/?cid=0x0:0x688684ceaff05893,
supermarket,Minimarket,Yut@ Mart,"HF7F+7Q7, Jl. Sambi, Selat, Kec. Selat, Kabupaten Karangasem, Bali 80862","Jl. Sambi, Selat, Kec. Selat, Kabupaten Karangasem",BALI,80862.0,Indonesia,,,,-8.4368459,115.4744151,https://maps.google.com/?cid=0x0:0x3057ffc08856a7e1,
supermarket,Toko bahan makanan,BudgetByte,"HF2W+MHP, Jl. Buana Giri, Duda Tim., Kec. Selat, Kabupaten Karangasem, Bali 80862","Jl. Buana Giri, Duda Tim., Kec. Selat, Kabupaten Karangasem",BALI,80862.0,Indonesia,85738623440.0,,,-8.4483455,115.4964249,https://maps.google.com/?cid=0x0:0xfae0804eca5208a8,
supermarket,supermarket,Toko Rama,"HF89+479, Jl. Baledan, Pering Sari, Kec. Selat, Kabupaten Karangasem, Bali 80862","Jl. Baledan, Pering Sari, Kec. Selat, Kabupaten Karangasem",BALI,80862.0,Indonesia,,,,-8.4346416,115.4682084,https://maps.google.com/?cid=0x0:0xc7a978583cef6ca3,
supermarket,Toko Swalayan,Warung Dek Nadi,"GFQR+4VC, Duda Tim., Kec. Selat, Kabupaten Karangasem, Bali 80862","Duda Tim., Kec. Selat, Kabupaten Karangasem",BALI,80862.0,Indonesia,82342544700.0,,,-8.4621995,115.4921423,https://maps.google.com/?cid=0x0:0xbe5f815e755e2ec9,
supermarket,Toko,Ud. Krisna selat,"HF7F+RX6, Selat, Kec. Selat, Kabupaten Karangasem, Bali 80862","Selat, Kec. Selat, Kabupaten Karangasem",BALI,80862.0,Indonesia,81351568788.0,,,-8.4354638,115.474886,https://maps.google.com/?cid=0x0:0x4254d48021a17ace,
supermarket,Toko Swalayan,WARUNG J'RONE,"HFG9+FJ8, Amerta Bhuana, Kec. Selat, Kabupaten Karangasem, Bali 80862","Amerta Bhuana, Kec. Selat, Kabupaten Karangasem",BALI,80862.0,Indonesia,,,,-8.4238489,115.4690678,https://maps.google.com/?cid=0x0:0xaf0680018017f026,
supermarket,Toko bahan makanan,Bintang Bali Mart,"Br. Dinas Siladumi, Pringsari, Kec. Selat, Kabupaten Karangasem, Bali 80862","Pringsari, Kec. Selat, Kabupaten Karangasem",BALI,80862.0,Indonesia,85775755899.0,,,-8.4254244,115.4684852,https://maps.google.com/?cid=0x0:0x7faeacb8130664f3,
supermarket,Toko,Toko Kelontong,"HFRM+8HF, Sebudi, Kec. Selat, Kabupaten Karangasem, Bali 80862","Sebudi, Kec. Selat, Kabupaten Karangasem",BALI,80862.0,Indonesia,,,,-8.4091937,115.4839109,https://maps.google.com/?cid=0x0:0x7339c402d881d5df,
supermarket,Toko bahan makanan,Toko Rini,"HF9C+JQ8, Jl. Babakan, Pering Sari, Kec. Selat, Kabupaten Karangasem, Bali 80862","Jl. Babakan, Pering Sari, Kec. Selat, Kabupaten Karangasem",BALI,80862.0,Indonesia,81548757800.0,,,-8.4309709,115.4719675,https://maps.google.com/?cid=0x0:0x18e00c197be33b7d,
supermarket,,Pasar Sidemen,"Jl. Sidemen, Sidemen, Kec. Sidemen, Kabupaten Karangasem, Bali 80864","Sidemen, Kec. Sidemen, Kabupaten Karangasem",BALI,80864.0,Indonesia,,,,-8.464504,115.4478014,https://maps.google.com/?cid=0x0:0xb6bd1f3d954cb1c6,
supermarket,Pasar,QiQi Mart,"Jl. Semarapura-Karangasem, Sindu Wati, Kec. Sidemen, Kabupaten Karangasem, Bali 80864","Sindu Wati, Kec. Sidemen, Kabupaten Karangasem",BALI,80864.0,Indonesia,,,,-8.4544653,115.452331,https://maps.google.com/?cid=0x0:0x604e3d716e12c02d,
supermarket,supermarket,Bali 80864,"Kec. Sidemen, Kabupaten Karangasem, Bali","Kabupaten Karangasem, Bali",BALI,,Indonesia,,,,-8.4831122,115.4378152,https://maps.google.com/?cid=0x0:0x1c00c5eb6016c0b0,
supermarket,Toko Swalayan,toko MEsari,"GCPH+4WX, Banjar, Sangkan Gn., Kec. Sidemen, Kabupaten Karangasem, Bali 80864","Banjar, Sangkan Gn., Kec. Sidemen, Kabupaten Karangasem",BALI,80864.0,Indonesia,81244121928.0,,,-8.4646482,115.4298647,https://maps.google.com/?cid=0x0:0x3e4a11cb2e58d01a,
supermarket,Minimarket,Nadia Mart (WineSpirit),"GCJV+XC7, Sidemen, Kec. Sidemen, Kabupaten Karangasem, Bali 80864","Sidemen, Kec. Sidemen, Kabupaten Karangasem",BALI,80864.0,Indonesia,8970263774.0,,,-8.4680788,115.44274,https://maps.google.com/?cid=0x0:0xf1f170aa3619e5ec,
supermarket,Toko bahan makanan,warung elina,"FCRF+XR8, Lokasari, Kec. Sidemen, Kabupaten Karangasem, Bali 80864","Lokasari, Kec. Sidemen, Kabupaten Karangasem",BALI,80864.0,Indonesia,81338338628.0,,,-8.5075797,115.4245895,https://maps.google.com/?cid=0x0:0xa9857fefdf5d6b3a,
supermarket,Toko Swalayan,Toko Sumber Utama,"GCPX+257, Sidemen, Kec. Sidemen, Kabupaten Karangasem, Bali 80864","Sidemen, Kec. Sidemen, Kabupaten Karangasem",BALI,80864.0,Indonesia,,,,-8.4649618,115.4479095,https://maps.google.com/?cid=0x0:0x2b9a2d88d2d143e4,
supermarket,Toko bahan makanan,Penjual Segala Banten Bali (Ni Nyoman Renteb),"Jl. Wekudara No.3, Wismakerta, Kec. Sidemen, Kabupaten Karangasem, Bali 80864","Wismakerta, Kec. Sidemen, Kabupaten Karangasem",BALI,80864.0,Indonesia,81805490252.0,,,-8.4930251,115.4231426,https://maps.google.com/?cid=0x0:0x3ea6f6505d4065b9,
supermarket,Pusat Perbelanjaan,Toko Eka Jaya,"GCMX+Q4G, Sidemen, Kec. Sidemen, Kabupaten Karangasem, Bali 80864","Sidemen, Kec. Sidemen, Kabupaten Karangasem",BALI,80864.0,Indonesia,87762708080.0,,,-8.4655737,115.4478412,https://maps.google.com/?cid=0x0:0xb22e4148a90d2696,
supermarket,Toko bahan makanan,Tahu Izzy Mart Sidemen,"GCJP+C3Q, Unnamed Road, Sangkan Gn., Kec. Sidemen, Kabupaten Karangasem, Bali 80864","Unnamed Road, Sangkan Gn., Kec. Sidemen, Kabupaten Karangasem",BALI,80864.0,Indonesia,8121111221.0,,,-8.4689042,115.4352301,https://maps.google.com/?cid=0x0:0xbb7296df8d9d350f,
supermarket,Toko Swalayan,Bumi Mart,"Jl. Semarapura-Karangasem No.desa, Lokasari, Kec. Sidemen, Kabupaten Karangasem, Bali 80761","Lokasari, Kec. Sidemen, Kabupaten Karangasem",BALI,80761.0,Indonesia,,,,-8.5153452,115.4228757,https://maps.google.com/?cid=0x0:0xf9c97049c6811724,
supermarket,Toko Komputer,Warung Arie,"Telaga Tawang, Kec. Sidemen, Kabupaten Karangasem, Bali 80864","Kec. Sidemen, Kabupaten Karangasem",BALI,80864.0,Indonesia,85102491668.0,,,-8.4856099,115.442798,https://maps.google.com/?cid=0x0:0x66ff989170675020,
supermarket,Kedai Kopi,09.00AM Coffee and Resto,"Jl. Raya Tebola, Telaga Tawang, Kec. Sidemen, Kabupaten Karangasem, Bali 80864","Telaga Tawang, Kec. Sidemen, Kabupaten Karangasem",BALI,80864.0,Indonesia,,,,-8.47353,115.4416997,https://maps.google.com/?cid=0x0:0x117f1a5e3d5171b9,
supermarket,Toko bahan makanan,Warung Tu Agus,"GC67+879, Jl. Tabu, Tangkup, Kec. Sidemen, Kabupaten Karangasem, Bali 80652","Jl. Tabu, Tangkup, Kec. Sidemen, Kabupaten Karangasem",BALI,80652.0,Indonesia,83114294806.0,,,-8.489207,115.4132235,https://maps.google.com/?cid=0x0:0xd742367a15afc57a,
supermarket,Toko Swalayan,Trisna Mart,"Jl. Talibeng, Talibeng, Kec. Sidemen, Kabupaten Karangasem, Bali 80864","Talibeng, Kec. Sidemen, Kabupaten Karangasem",BALI,80864.0,Indonesia,81339527871.0,,,-8.4993155,115.4343018,https://maps.google.com/?cid=0x0:0x910010802e4efb66,
supermarket,Minimarket,Warung Ibu Mangku,"Tangkup, Kec. Sidemen, Kabupaten Karangasem, Bali 80864","Kec. Sidemen, Kabupaten Karangasem",BALI,80864.0,Indonesia,81805393996.0,,,-8.496508,115.4164451,https://maps.google.com/?cid=0x0:0x11125125c4598ab7,
supermarket,Restoran,Lihat Sawah Warung,"Telaga Tawang, Kec. Sidemen, Kabupaten Karangasem, Bali 80864","Kec. Sidemen, Kabupaten Karangasem",BALI,80864.0,Indonesia,87702690633.0,,,-8.4741187,115.4405831,https://maps.google.com/?cid=0x0:0x36e0dd8f9e87ae9d,
supermarket,supermarket,Puri jumpungan villas,"GCJV+XC7, Sidemen, Kec. Sidemen, Kabupaten Karangasem, Bali 80864","Sidemen, Kec. Sidemen, Kabupaten Karangasem",BALI,80864.0,Indonesia,87865830752.0,,,-8.4679992,115.4428041,https://maps.google.com/?cid=0x0:0xa8f025c0861713aa,
supermarket,supermarket,House Market,"Sidemen, Kec. Sidemen, Kabupaten Karangasem, Bali 80864","Kec. Sidemen, Kabupaten Karangasem",BALI,80864.0,Indonesia,81236215475.0,,,-8.463978,115.4469444,https://maps.google.com/?cid=0x0:0x35c96221d3d1025d,
supermarket,supermarket,Nana Villas Sidemen,"Jl. Sidemen - Sangkan Gn., Telaga Tawang, Kec. Sidemen, Kabupaten Karangasem, Bali 80864","Telaga Tawang, Kec. Sidemen, Kabupaten Karangasem",BALI,80864.0,Indonesia,8991595337.0,,,-8.4680201,115.4425467,https://maps.google.com/?cid=0x0:0xe100ca4c16c44ed4,
supermarket,supermarket,Villa Uma ayu sidemen,"Villa Uma ayu, Sidemen, Kec. Sidemen, Kabupaten Karangasem, Bali 80864","Sidemen, Kec. Sidemen, Kabupaten Karangasem",BALI,80864.0,Indonesia,8123608319.0,,,-8.4668057,115.4407619,https://maps.google.com/?cid=0x0:0x71e38477b9d6cc0e,
supermarket,supermarket,Rumah Sidemen,"Budamanis, Jl. Sidemen No.Br, Kec. Sidemen, Kabupaten Karangasem, Bali 80864","Jl. Sidemen No.Br, Kec. Sidemen, Kabupaten Karangasem",BALI,80864.0,Indonesia,85737250169.0,,,-8.4662561,115.44573,https://maps.google.com/?cid=0x0:0xda9350297b36ec25,
supermarket,supermarket,Made Putu homestay,"GCMW+PCC, Sidemen, Kec. Sidemen, Kabupaten Karangasem, Bali 80864","Sidemen, Kec. Sidemen, Kabupaten Karangasem",BALI,80864.0,Indonesia,81943289210.0,,,-8.4657291,115.4460643,https://maps.google.com/?cid=0x0:0xcc4c9a3aed077ec5,
supermarket,supermarket,Kaeles House,"GCMW+6J6, Jl. Raya Sangkan Gunung-Sidemen, Sidemen, Kec. Sidemen, Kabupaten Karangasem, Bali 80864","Jl. Raya Sangkan Gunung-Sidemen, Sidemen, Kec. Sidemen, Kabupaten Karangasem",BALI,80864.0,Indonesia,81337002490.0,,,-8.466954,115.4464931,https://maps.google.com/?cid=0x0:0x546365d2209060a7,
supermarket,supermarket,Villa Shantiasa,"Sidemen, Kec. Sidemen, Kabupaten Karangasem, Bali 80864","Kec. Sidemen, Kabupaten Karangasem",BALI,80864.0,Indonesia,85858963528.0,,,-8.4669711,115.4456201,https://maps.google.com/?cid=0x0:0x1f72fad2b661e1de,
supermarket,supermarket,Villa Karma Loka,"GCJV+QM7, Banjar Laplapan Jl. Raya Tebola, Telaga Tawang, Kec. Sidemen, Kabupaten Karangasem, Bali 80362","Banjar Laplapan Jl. Raya Tebola, Telaga Tawang, Kec. Sidemen, Kabupaten Karangasem",BALI,80362.0,Indonesia,85205110916.0,,,-8.4680925,115.4441731,https://maps.google.com/?cid=0x0:0xa1d89831ff817b2b,
supermarket,Pura,Pura Agung Besakih,"Besakih, Kec. Rendang, Kabupaten Karangasem, Bali 80863","Kec. Rendang, Kabupaten Karangasem",BALI,80863.0,Indonesia,,,,-8.3739976,115.4525567,https://maps.google.com/?cid=0x0:0xbfc39798cd1bb4a,
supermarket,supermarket,Manuk Dewata Villa,"Br. Dinas, Jl. Raya Tebola, Sidemen, Kec. Sidemen, Kabupaten Karangasem, Bali 80864","Jl. Raya Tebola, Sidemen, Kec. Sidemen, Kabupaten Karangasem",BALI,80864.0,Indonesia,85238389845.0,,,-8.468051,115.442683,https://maps.google.com/?cid=0x0:0xab1f243f6d521ced,
supermarket,Toko Bebas Bea,Bandara Internasional I Gusti Ngurah Rai (DPS),"Bandara International I Gusti Ngurah Rai, Kabupaten Badung, Bali 80362",Kabupaten Badung,BALI,80362.0,Indonesia,85166911003.0,,,-8.7469933,115.1681655,https://maps.google.com/?cid=0x0:0xdf71da6ddd7bcc1f,
