Category,Real Category,Business Name,Address,City,State,Postal Code,Country,Phone,Email,Website,Latitude,Longitude,Map Link,Details Link
perumahan,Pembangunan Perumahan,Perumahan,"JJ7C+H6F, Tri Buana, Kec. Abang, Kabupaten Karangasem, Bali 80852","Tri Buana, Kec. Abang, Kabupaten Karangasem",BALI,80852.0,Indonesia,,,,-8.3860575,115.6205326,https://maps.google.com/?cid=0x0:0xe744362b9369eadc,
perumahan,perumahan,Abang,"Kec. Abang, Kabupaten Karangasem, Bali","Kabupaten Karangasem, Bali",BALI,,Indonesia,,,,-8.3938452,115.6006725,https://maps.google.com/?cid=0x0:0x5030bfbca831740,
perumahan,Komplek perumahan,Gent-Gent (dede),"JJF7+3RR, Tista, Kec. Abang, Kabupaten Karangasem, Bali 80852","Tista, Kec. Abang, Kabupaten Karangasem",BALI,80852.0,Indonesia,,,,-8.3772627,115.6145265,https://maps.google.com/?cid=0x0:0x95b32cec0a614b4b,
perumahan,Komplek perumahan,Rumah Ari,"JH4V+P7R, Jl. Kelakah, Pidpid, Kec. Abang, Kabupaten Karangasem, Bali 80852","Jl. Kelakah, Pidpid, Kec. Abang, Kabupaten Karangasem",BALI,80852.0,Indonesia,,,,-8.3931375,115.5931375,https://maps.google.com/?cid=0x0:0x2428375c138b333c,
perumahan,Komplek perumahan,Rumah astira,"JJ62+47W, Jl. Ida Kt Djelantik, Abang, Kec. Abang, Kabupaten Karangasem, Bali 80852","Jl. Ida Kt Djelantik, Abang, Kec. Abang, Kabupaten Karangasem",BALI,80852.0,Indonesia,82147454197.0,,,-8.3897504,115.6005407,https://maps.google.com/?cid=0x0:0x279e218dae221381,
perumahan,Komplek perumahan,Rumah pak karya/mamik,"JJ67+PPP, Tista, Kec. Abang, Kabupaten Karangasem, Bali 80852","Tista, Kec. Abang, Kabupaten Karangasem",BALI,80852.0,Indonesia,87874567573.0,,,-8.3881698,115.614325,https://maps.google.com/?cid=0x0:0x85168bd616566c09,
perumahan,Tempat Penampungan,Kampung waliang,"JJ24+3F, Abang, Kec. Abang, Kabupaten Karangasem, Bali 80852","Abang, Kec. Abang, Kabupaten Karangasem",BALI,80852.0,Indonesia,,,,-8.399863,115.6061392,https://maps.google.com/?cid=0x0:0x3879dbc5c748dd52,
perumahan,Komplek perumahan,Selehseh Home,"HJR3+95G, Ababi, Kec. Abang, Kabupaten Karangasem, Bali 80852","Ababi, Kec. Abang, Kabupaten Karangasem",BALI,80852.0,Indonesia,,,,-8.4097081,115.6033839,https://maps.google.com/?cid=0x0:0x275ee6ae474d19c0,
perumahan,Komplek perumahan,Rumah Komang Andri,"JHFV+3XP, Kesimpar, Kec. Abang, Kabupaten Karangasem, Bali 80852","Kesimpar, Kec. Abang, Kabupaten Karangasem",BALI,80852.0,Indonesia,,,,-8.3776279,115.5935536,https://maps.google.com/?cid=0x0:0xb2ba8c6fb65f13e5,
perumahan,Pembangunan Perumahan,Iyan House,"JH2M+FQF, Ababi, Kec. Abang, Kabupaten Karangasem, Bali 80852","Ababi, Kec. Abang, Kabupaten Karangasem",BALI,80852.0,Indonesia,,,,-8.3988076,115.5844308,https://maps.google.com/?cid=0x0:0x23fdb9a32bb52fc4,
perumahan,Komplek perumahan,Rumah Tami,"JH4V+Q73, Abang, Kec. Abang, Kabupaten Karangasem, Bali 80852","Abang, Kec. Abang, Kabupaten Karangasem",BALI,80852.0,Indonesia,,,,-8.3931013,115.5931678,https://maps.google.com/?cid=0x0:0x51bbf2b7873d0aa1,
perumahan,Komplek perumahan,Rumah Bape Bontot,"JHGW+CCR, Kesimpar, Kec. Abang, Kabupaten Karangasem, Bali 80852","Kesimpar, Kec. Abang, Kabupaten Karangasem",BALI,80852.0,Indonesia,,,,-8.3738827,115.5960296,https://maps.google.com/?cid=0x0:0x36fa1f5b81754e78,
perumahan,Pembangunan Perumahan,Perumahan Taman Banjar,"Jl. Basangalas No.6, Tri Buana, Kec. Abang, Kabupaten Karangasem, Bali 80852","Tri Buana, Kec. Abang, Kabupaten Karangasem",BALI,80852.0,Indonesia,,,,-8.3975593,115.6163005,https://maps.google.com/?cid=0x0:0xd284900bc7cc8d0,
perumahan,Komplek perumahan,gendut homestay,"HHRX+HM3, Jl. Raya Ababi, Ababi, Kec. Abang, Kabupaten Karangasem, Bali 80852","Jl. Raya Ababi, Ababi, Kec. Abang, Kabupaten Karangasem",BALI,80852.0,Indonesia,85737323557.0,,,-8.4084133,115.5989344,https://maps.google.com/?cid=0x0:0xcffb88d5bc36a3cd,
perumahan,Komplek perumahan,Rumah pak Renes,"HHWX+FJR, Ababi, Kec. Abang, Kabupaten Karangasem, Bali 80852","Ababi, Kec. Abang, Kabupaten Karangasem",BALI,80852.0,Indonesia,,,,-8.4037702,115.5990095,https://maps.google.com/?cid=0x0:0x2579965dc62f0d15,
perumahan,Pembangunan Perumahan,WAK ERUNG HOME,"JJ43+FR6, Abang, Kec. Abang, Kabupaten Karangasem, Bali","Kabupaten Karangasem, Bali",BALI,,Indonesia,,,,-8.3938266,115.6045069,https://maps.google.com/?cid=0x0:0xdbf2174edfb5e0b6,
perumahan,Pura,Abang Kaler,"JH7X+VF7, Abang, Kec. Abang, Kabupaten Karangasem, Bali 80852","Abang, Kec. Abang, Kabupaten Karangasem",BALI,80852.0,Indonesia,,,,-8.3854022,115.5985351,https://maps.google.com/?cid=0x0:0xa42ff531b041fa51,
perumahan,Komplek perumahan,Rumah,"JJC2+F9X, Tista, Kec. Abang, Kabupaten Karangasem, Bali 80852","Tista, Kec. Abang, Kabupaten Karangasem",BALI,80852.0,Indonesia,,,,-8.3787676,115.6009853,https://maps.google.com/?cid=0x0:0xbfecb2d060a59e89,
perumahan,Komplek perumahan,Perumahan Panti,"HJX9+MX3, Jl. Basangalas, Tri Buana, Kec. Abang, Kabupaten Karangasem, Bali 80852","Jl. Basangalas, Tri Buana, Kec. Abang, Kabupaten Karangasem",BALI,80852.0,Indonesia,,,,-8.400867,115.6199168,https://maps.google.com/?cid=0x0:0xafc20d045c552cd8,
perumahan,Komplek perumahan,Rumah Bonti,"JH4V+QCV, Abang, Kec. Abang, Kabupaten Karangasem, Bali 80852","Abang, Kec. Abang, Kabupaten Karangasem",BALI,80852.0,Indonesia,,,,-8.393018,115.5935533,https://maps.google.com/?cid=0x0:0x1a347c0890a2ff50,
perumahan,Komplek perumahan,Rumah Sumara,"JHFR+RC5 Kode pos: 80852, Seberang toko bangunan sinar bintang. Rumah gerbang coklat, Jl. Kesimpar Kota, Kesimpar, Abang, Karangasem Regency, Bali 80852","Seberang toko bangunan sinar bintang. Rumah gerbang coklat, Jl. Kesimpar Kota, Kesimpar, Abang, Karangasem Regency",BALI,80852.0,Indonesia,,,,-8.3754907,115.5911014,https://maps.google.com/?cid=0x0:0x2345fa8ac153b830,
perumahan,Komplek perumahan,Gede Suda Takora,"JJ63+Q5R, Abang, Kec. Abang, Kabupaten Karangasem, Bali 80852","Abang, Kec. Abang, Kabupaten Karangasem",BALI,80852.0,Indonesia,,,,-8.3884686,115.6030402,https://maps.google.com/?cid=0x0:0xbfd8c8259fa9e1de,
perumahan,Komplek perumahan,Diksa,"MJCF+26H, Laba Sari, Kec. Abang, Kabupaten Karangasem, Bali 80852","Laba Sari, Kec. Abang, Kabupaten Karangasem",BALI,80852.0,Indonesia,,,,-8.3299443,115.6231075,https://maps.google.com/?cid=0x0:0x7c35dcd241700716,
perumahan,Komplek perumahan,Rumah Bombat,"MJ5P+X7P Br.Dinas Babakan, Jl. I Ketut Natih, Purwakerti, Kec. Abang, Kabupaten Karangasem, Bali 80852","Jl. I Ketut Natih, Purwakerti, Kec. Abang, Kabupaten Karangasem",BALI,80852.0,Indonesia,83119085972.0,,,-8.3400267,115.6356938,https://maps.google.com/?cid=0x0:0xd96633f8d8bfb7e3,
perumahan,Komplek perumahan,Rumah SILA,"MM57+GW4, Bunutan, Kec. Abang, Kabupaten Karangasem, Bali 80852","Bunutan, Kec. Abang, Kabupaten Karangasem",BALI,80852.0,Indonesia,,,,-8.3412413,115.6648146,https://maps.google.com/?cid=0x0:0x97eabe5bbf5ee8ea,
perumahan,Komplek perumahan,Abian sekehe,"MJ68+JF7, Culik, Kec. Abang, Kabupaten Karangasem, Bali 80852","Culik, Kec. Abang, Kabupaten Karangasem",BALI,80852.0,Indonesia,,,,-8.3384562,115.6161501,https://maps.google.com/?cid=0x0:0x2e202012c7dc8cc4,
perumahan,Perhimpunan Pengembang Perumahan,Rumah ambira,"MJ7R+6P8, Purwakerti, Kec. Abang, Kabupaten Karangasem, Bali 80852","Purwakerti, Kec. Abang, Kabupaten Karangasem",BALI,80852.0,Indonesia,,,,-8.3369691,115.6418357,https://maps.google.com/?cid=0x0:0x6b2785dba94ea378,
perumahan,perumahan,Rumah: Doi arnaya,"MJ89+WFR, Laba Sari, Kec. Abang, Kabupaten Karangasem, Bali 80852","Laba Sari, Kec. Abang, Kabupaten Karangasem",BALI,80852.0,Indonesia,,,,-8.3326475,115.6186288,https://maps.google.com/?cid=0x0:0x7bf2309b90cb09d2,
perumahan,Komplek perumahan,Rumah pan D*wong,"MM62+233, Unnamed Road, Purwakerti, Kec. Abang, Kabupaten Karangasem, Bali 80852","Unnamed Road, Purwakerti, Kec. Abang, Kabupaten Karangasem",BALI,80852.0,Indonesia,,,,-8.3399889,115.6501777,https://maps.google.com/?cid=0x0:0x73246f595a6c486b,
perumahan,perumahan,Bebandem,"Bebandem, Kec. Bebandem, Kabupaten Karangasem, Bali","Kabupaten Karangasem, Bali",BALI,,Indonesia,,,,-8.43892,115.563301,https://maps.google.com/?cid=0x0:0xd6717240f09e5914,
perumahan,Tempat acara,di KUBU,"HH67+HQF, Jl. Nenas, Bebandem, Kec. Bebandem, Kabupaten Karangasem, Bali 80861","Jl. Nenas, Bebandem, Kec. Bebandem, Kabupaten Karangasem",BALI,80861.0,Indonesia,,,,-8.4385677,115.5644249,https://maps.google.com/?cid=0x0:0x2a43726b2a30ee67,
perumahan,Komplek perumahan,Tanah Perumahan Bebandem,"HH4H+J75, Jl. Nenas, Kecicang, Kec. Bebandem, Kabupaten Karangasem, Bali 80811","Jl. Nenas, Kecicang, Kec. Bebandem, Kabupaten Karangasem",BALI,80811.0,Indonesia,,,,-8.4435943,115.5783334,https://maps.google.com/?cid=0x0:0x77eb371f93c87d39,
perumahan,perumahan,Rumah Pak Puja,"HH67+C8M, Bebandem, Kec. Bebandem, Kabupaten Karangasem, Bali","Kabupaten Karangasem, Bali",BALI,,Indonesia,,,,-8.43892,115.563301,https://maps.google.com/?cid=0x0:0x2e02de3d7ae6e7e1,
perumahan,perumahan,Rumah Karangasem,"Jl. Lettu Sinta No.1, Karangasem, Kec. Karangasem, Kabupaten Karangasem, Bali 80811","Karangasem, Kec. Karangasem, Kabupaten Karangasem",BALI,80811.0,Indonesia,,,,-8.442285,115.614582,https://maps.google.com/?cid=0x0:0xa2a6a33426c60c0d,
perumahan,perumahan,Karangasem,"Kec. Karangasem, Kabupaten Karangasem, Bali","Kabupaten Karangasem, Bali",BALI,,Indonesia,,,,-8.4359528,115.609553,https://maps.google.com/?cid=0x0:0x2f56ee0fd49a2b29,
perumahan,Pembangunan Perumahan,BTN Taman Asri,"Jl. Suropati No.108, Subagan, Kec. Karangasem, Kabupaten Karangasem, Bali 80811","Subagan, Kec. Karangasem, Kabupaten Karangasem",BALI,80811.0,Indonesia,,,,-8.4554014,115.6043685,https://maps.google.com/?cid=0x0:0x2c937fc20fcf974c,
perumahan,Komplek perumahan,Perumahan Dukuh Permai Padangkerta Karangasem,"Jl. Veteran No.270, Padang Kerta, Kec. Karangasem, Kabupaten Karangasem, Bali 80811","Padang Kerta, Kec. Karangasem, Kabupaten Karangasem",BALI,80811.0,Indonesia,,,,-8.4428376,115.5927362,https://maps.google.com/?cid=0x0:0xdcbd84840cccd504,
perumahan,Komplek perumahan,Perumahan,"Jl. Anggrek V No.50, perumnas, Padang Kerta, Kec. Karangasem, Kabupaten Karangasem, Bali 80811","perumnas, Padang Kerta, Kec. Karangasem, Kabupaten Karangasem",BALI,80811.0,Indonesia,85338389390.0,,,-8.4400458,115.5995448,https://maps.google.com/?cid=0x0:0x4e35dcd3cbdc5e5e,
perumahan,Pembangunan Perumahan,Ate Home Private,"HJ8C+9MC, Banjar, Tegallinggah, Kec. Karangasem, Kabupaten Karangasem, Bali 80811","Banjar, Tegallinggah, Kec. Karangasem, Kabupaten Karangasem",BALI,80811.0,Indonesia,,,,-8.434055,115.6216279,https://maps.google.com/?cid=0x0:0x76d798afe517e8ed,
perumahan,Komplek perumahan,Rumah Ali Sahrin,"HJHJ+W2R, Bukit, Kec. Karangasem, Kabupaten Karangasem, Bali 80811","Bukit, Kec. Karangasem, Kabupaten Karangasem",BALI,80811.0,Indonesia,,,,-8.4193908,115.6298429,https://maps.google.com/?cid=0x0:0x11b98bb13eebfe4c,
perumahan,Perhimpunan Pengembang Perumahan,Rumah Dede,"HJC5+V5P, Karangasem, Kec. Karangasem, Kabupaten Karangasem, Bali 80811","Karangasem, Kec. Karangasem, Kabupaten Karangasem",BALI,80811.0,Indonesia,,,,-8.4277855,115.6079428,https://maps.google.com/?cid=0x0:0x7b8b96be1ac1a450,
perumahan,Pembangunan Perumahan,RUMAH URIP,"HJ33+VJ2, Subagan, Kec. Karangasem, Kabupaten Karangasem, Bali 80811","Subagan, Kec. Karangasem, Kabupaten Karangasem",BALI,80811.0,Indonesia,,,,-8.4449389,115.604086,https://maps.google.com/?cid=0x0:0x6ab80316ef1eac2f,
perumahan,Perumahan,Kampung grembeng atas,"HJ56+549, Peyadnyan Geriya Punia Tirta Pidada, jalan rajawali, Jl. Ngurah Rai, Karangasem, Kec. Karangasem, Kabupaten Karangasem, Bali 80811","Peyadnyan Geriya Punia Tirta Pidada, jalan rajawali, Jl. Ngurah Rai, Karangasem, Kec. Karangasem, Kabupaten Karangasem",BALI,80811.0,Indonesia,,,,-8.4420782,115.6103623,https://maps.google.com/?cid=0x0:0x4c2ca754a6f2a7b6,
perumahan,Komplek perumahan,Gria Nova,"Jl. Gelumpang No.25, Karangasem, Kec. Karangasem, Kabupaten Karangasem, Bali 80811","Karangasem, Kec. Karangasem, Kabupaten Karangasem",BALI,80811.0,Indonesia,,,,-8.4318041,115.6095731,https://maps.google.com/?cid=0x0:0x251b2c5a846b8a27,
perumahan,Rumah Sakit Umum,RSUD Karangasem,"Jl. Ngurah Rai No.58, Karangasem, Kec. Karangasem, Kabupaten Karangasem, Bali 80811","Karangasem, Kec. Karangasem, Kabupaten Karangasem",BALI,80811.0,Indonesia,36321470.0,,,-8.4361324,115.6127029,https://maps.google.com/?cid=0x0:0xcfe49725150f28ed,
perumahan,Perhimpunan Pengembang Perumahan,Rumah Karang Dangin,"HJF6+XCQ, Jl. Raya Ababi, Ababi, Kec. Abang, Kabupaten Karangasem, Bali 80811","Jl. Raya Ababi, Ababi, Kec. Abang, Kabupaten Karangasem",BALI,80811.0,Indonesia,881037436298.0,,,-8.4250458,115.6111096,https://maps.google.com/?cid=0x0:0x4f07fb1c0b05f5c1,
perumahan,Pembangunan Perumahan,Griya PANDE Tusan,"Gang Sidhakarya, Jl. Sultan Agung, Karangasem, Kec. Karangasem, Kabupaten Karangasem, Bali 80811","Jl. Sultan Agung, Karangasem, Kec. Karangasem, Kabupaten Karangasem",BALI,80811.0,Indonesia,,,,-8.440977,115.6162372,https://maps.google.com/?cid=0x0:0xc060e0c6b5efc167,
perumahan,Kantor Perusahaan,Perum,"Jl. Pesagi No.36, Karangasem, Kec. Karangasem, Kabupaten Karangasem, Bali 80811","Karangasem, Kec. Karangasem, Kabupaten Karangasem",BALI,80811.0,Indonesia,81239398952.0,,,-8.4538027,115.6147519,https://maps.google.com/?cid=0x0:0xdbd7b4c2f0fee5ec,
perumahan,Hostel,Ujung,"GJPH+P22, Tumbu, Kec. Karangasem, Kabupaten Karangasem, Bali 80811","Tumbu, Kec. Karangasem, Kabupaten Karangasem",BALI,80811.0,Indonesia,,,,-8.4630856,115.6279329,https://maps.google.com/?cid=0x0:0x8966a0d7746a23cd,
perumahan,Komplek perumahan,Perumnas padang kerta,"Jl. Anggrek V No.1, Padang Kerta, Kec. Karangasem, Kabupaten Karangasem, Bali 80811","Padang Kerta, Kec. Karangasem, Kabupaten Karangasem",BALI,80811.0,Indonesia,85792203557.0,,,-8.4400458,115.5995448,https://maps.google.com/?cid=0x0:0xe117597281e3f5ea,
perumahan,Komplek perumahan,KANTA HOUSE RESIDENCE,"HJ75+R2V, Jl. Serma Natih, Karangasem, Kec. Karangasem, Kabupaten Karangasem, Bali 80811","Jl. Serma Natih, Karangasem, Kec. Karangasem, Kabupaten Karangasem",BALI,80811.0,Indonesia,87857174176.0,,,-8.4353867,115.6075563,https://maps.google.com/?cid=0x0:0x1a57d51fdd68c9,
perumahan,Komplek perumahan,Rumah Pak hasan karim,"HJ46+JW3, Jl. Patih Jelantik, Karangasem, Kec. Karangasem, Kabupaten Karangasem, Bali 80811","Jl. Patih Jelantik, Karangasem, Kec. Karangasem, Kabupaten Karangasem",BALI,80811.0,Indonesia,,,,-8.4434751,115.6122995,https://maps.google.com/?cid=0x0:0x7e940883b00de815,
perumahan,Komplek perumahan,Rumah Kadek Sugiartha dan Seganing Sugihartami,"HH8W+657, Padang Kerta, Kec. Karangasem, Kabupaten Karangasem, Bali 80811","Padang Kerta, Kec. Karangasem, Kabupaten Karangasem",BALI,80811.0,Indonesia,,,,-8.434501,115.5954664,https://maps.google.com/?cid=0x0:0xa1ecfe4d17507891,
perumahan,Perhimpunan Pengembang Perumahan,BTN WAHYU SUBAGAN PERMAI,"GJQ2+RH9, Subagan, Kec. Karangasem, Kabupaten Karangasem, Bali 80811","Subagan, Kec. Karangasem, Kabupaten Karangasem",BALI,80811.0,Indonesia,,,,-8.4604709,115.6014719,https://maps.google.com/?cid=0x0:0xfeb45b947625e6e2,
perumahan,Komplek perumahan,Rumah Dua,"Jl. Achmad Yani Gg. Mawar No.A-6, Subagan, Kec. Karangasem, Kabupaten Karangasem, Bali 80811","Subagan, Kec. Karangasem, Kabupaten Karangasem",BALI,80811.0,Indonesia,87860036188.0,,,-8.4587469,115.6032605,https://maps.google.com/?cid=0x0:0x9dafcff7a0ae3a80,
perumahan,Komplek perumahan,Rmh gilang,"HJ46+95G, Jl. Serma Anom, Karangasem, Kec. Karangasem, Kabupaten Karangasem, Bali 80811","Jl. Serma Anom, Karangasem, Kec. Karangasem, Kabupaten Karangasem",BALI,80811.0,Indonesia,,,,-8.4440501,115.6104626,https://maps.google.com/?cid=0x0:0x4331c156d833cfa3,
perumahan,Perumahan,PERUMNAS Besang Asri Residence Karangasem,"HHPH+W6, Ababi, Kec. Abang, Kabupaten Karangasem, Bali 80852","Ababi, Kec. Abang, Kabupaten Karangasem",BALI,80852.0,Indonesia,81936474662.0,,,-8.4126959,115.5780126,https://maps.google.com/?cid=0x0:0xafc2c028ef67d69,
perumahan,Pembangunan Perumahan,Pakubuan Kapilavastu,"Gg. Sedap Malam No.21, Subagan, Kec. Karangasem, Kabupaten Karangasem, Bali 80811","Subagan, Kec. Karangasem, Kabupaten Karangasem",BALI,80811.0,Indonesia,,,,-8.4430101,115.6023281,https://maps.google.com/?cid=0x0:0x1b533c480f7c518f,
perumahan,perumahan,Bali 80811,"Kec. Karangasem, Kabupaten Karangasem, Bali","Kabupaten Karangasem, Bali",BALI,,Indonesia,,,,-8.4497997,115.6273131,https://maps.google.com/?cid=0x0:0x1c00c5eb6016c030,
perumahan,Komplek perumahan,Perumahan J. Eleven View,"HH4P+CH5, Jl. Veteran, Padang Kerta, Kec. Karangasem, Kabupaten Karangasem, Bali 80811","Jl. Veteran, Padang Kerta, Kec. Karangasem, Kabupaten Karangasem",BALI,80811.0,Indonesia,,,,-8.4440534,115.5867968,https://maps.google.com/?cid=0x0:0xab874bb4dc24babb,
perumahan,Perhimpunan Pengembang Perumahan,Rumah Dewar,"HMH3+XPP, Seraya, Kec. Karangasem, Kabupaten Karangasem, Bali 80811","Seraya, Kec. Karangasem, Kabupaten Karangasem",BALI,80811.0,Indonesia,,,,-8.4200375,115.6543281,https://maps.google.com/?cid=0x0:0x99959925048509ea,
perumahan,Komplek perumahan,Rumah i komang ada,"GJP8+2V, Subagan, Kec. Karangasem, Kabupaten Karangasem, Bali 80811","Subagan, Kec. Karangasem, Kabupaten Karangasem",BALI,80811.0,Indonesia,,,,-8.4649838,115.6172355,https://maps.google.com/?cid=0x0:0x29ca20115ae03d25,
perumahan,perumahan,Bali 80813,"Kec. Karangasem, Kabupaten Karangasem, Bali","Kabupaten Karangasem, Bali",BALI,,Indonesia,,,,-8.4738779,115.6065929,https://maps.google.com/?cid=0x0:0xbeec0d2e7f009819,
perumahan,Pembangunan Perumahan,BTN Taman Asri,"Jl. Suropati No.108, Subagan, Kec. Karangasem, Kabupaten Karangasem, Bali 80811","Subagan, Kec. Karangasem, Kabupaten Karangasem",BALI,80811.0,Indonesia,,,,-8.4554014,115.6043685,https://maps.google.com/?cid=0x0:0x2c937fc20fcf974c,
perumahan,Komplek perumahan,Perumahan Dukuh Permai Padangkerta Karangasem,"Jl. Veteran No.270, Padang Kerta, Kec. Karangasem, Kabupaten Karangasem, Bali 80811","Padang Kerta, Kec. Karangasem, Kabupaten Karangasem",BALI,80811.0,Indonesia,,,,-8.4428376,115.5927362,https://maps.google.com/?cid=0x0:0xdcbd84840cccd504,
perumahan,Perhimpunan Pengembang Perumahan,BTN WAHYU SUBAGAN PERMAI,"GJQ2+RH9, Subagan, Kec. Karangasem, Kabupaten Karangasem, Bali 80811","Subagan, Kec. Karangasem, Kabupaten Karangasem",BALI,80811.0,Indonesia,,,,-8.4604709,115.6014719,https://maps.google.com/?cid=0x0:0xfeb45b947625e6e2,
perumahan,Komplek perumahan,D'GEDONG RESIDENCE,"Jl. Achmad Yani, Jasri Kaler, Kec. Karangasem, Kabupaten Karangasem, Bali 80813","Jasri Kaler, Kec. Karangasem, Kabupaten Karangasem",BALI,80813.0,Indonesia,81236752995.0,,,-8.4705408,115.6118799,https://maps.google.com/?cid=0x0:0x5a8960bcfcb90e6a,
perumahan,Komplek perumahan,Perumahan Green Park Residence,"GJJ6+5FM, Subagan, Kec. Karangasem, Kabupaten Karangasem, Bali","Kabupaten Karangasem, Bali",BALI,,Indonesia,8123894908.0,,,-8.469534,115.6111724,https://maps.google.com/?cid=0x0:0xe8b674b8e1f16fe3,
perumahan,Komplek perumahan,Rumah vivik,"GHPW+8HP, Jl. Salak, Subagan, Kec. Karangasem, Kabupaten Karangasem, Bali 80813","Jl. Salak, Subagan, Kec. Karangasem, Kabupaten Karangasem",BALI,80813.0,Indonesia,,,,-8.463312,115.596928,https://maps.google.com/?cid=0x0:0x6d060a8b32b98de,
perumahan,Komplek perumahan,Wiyono's family,"Jl. Nenas, No. 41 Subagan, Karang Asem No.80813, Bungaya Kangin, Kec. Bebandem, Kabupaten Karangasem, Bali 80813","No. 41 Subagan, Karang Asem No.80813, Bungaya Kangin, Kec. Bebandem, Kabupaten Karangasem",BALI,80813.0,Indonesia,,,,-8.4519697,115.5945995,https://maps.google.com/?cid=0x0:0xcbfb7f5ae1c24445,
perumahan,Komplek perumahan,I Gusti Ngurah Widya,"GJ82+8P5, Pertima, Kec. Karangasem, Kabupaten Karangasem, Bali 80813","Pertima, Kec. Karangasem, Kabupaten Karangasem",BALI,80813.0,Indonesia,,,,-8.4842384,115.6018611,https://maps.google.com/?cid=0x0:0x8333adb1d5fc61b5,
perumahan,Komplek perumahan,Nyoded,"GJ72+CXR, Pertima, Kec. Karangasem, Kabupaten Karangasem, Bali 80813","Pertima, Kec. Karangasem, Kabupaten Karangasem",BALI,80813.0,Indonesia,,,,-8.4863908,115.6024044,https://maps.google.com/?cid=0x0:0xe9c112265b9b156f,
perumahan,Komplek perumahan,Tiwah House,"GHVV+CH4, Subagan, Kec. Karangasem, Kabupaten Karangasem, Bali 80813","Subagan, Kec. Karangasem, Kabupaten Karangasem",BALI,80813.0,Indonesia,,,,-8.4564832,115.5939434,https://maps.google.com/?cid=0x0:0x94b00fca86725b32,
perumahan,Komplek perumahan,Rumah i komang ada,"GJP8+2V, Subagan, Kec. Karangasem, Kabupaten Karangasem, Bali 80811","Subagan, Kec. Karangasem, Kabupaten Karangasem",BALI,80811.0,Indonesia,,,,-8.4649838,115.6172355,https://maps.google.com/?cid=0x0:0x29ca20115ae03d25,
perumahan,Vila,Indra Kusuma House,"GHFW+628, Desa Timbrah, Pertima, Kec. Karangasem, Kabupaten Karangasem, Bali 80813","Desa Timbrah, Pertima, Kec. Karangasem, Kabupaten Karangasem",BALI,80813.0,Indonesia,82145957576.0,,,-8.4769526,115.595076,https://maps.google.com/?cid=0x0:0x422e6c678555edca,
perumahan,Komplek perumahan,Pondok suragi,"GJ83+558, Pertima, Kec. Karangasem, Kabupaten Karangasem, Bali 80813","Pertima, Kec. Karangasem, Kabupaten Karangasem",BALI,80813.0,Indonesia,,,,-8.4846771,115.6030337,https://maps.google.com/?cid=0x0:0xf0eed0709a25dab6,
perumahan,Komplek perumahan,Br. Perasi Kelod,"GJ73+J78, Pertima, Kec. Karangasem, Kabupaten Karangasem, Bali 80813","Pertima, Kec. Karangasem, Kabupaten Karangasem",BALI,80813.0,Indonesia,,,,-8.4859695,115.6031976,https://maps.google.com/?cid=0x0:0x3d4f82eb2de1ca61,
perumahan,Komplek perumahan,Perumahan Gria Undagi,"GHVW+XQQ, Jl. Nenas, Subagan, Kec. Karangasem, Kabupaten Karangasem, Bali 80813","Jl. Nenas, Subagan, Kec. Karangasem, Kabupaten Karangasem",BALI,80813.0,Indonesia,,,,-8.4550429,115.5969945,https://maps.google.com/?cid=0x0:0xf43581aa207cb6a7,
perumahan,Komplek perumahan,Bryaniqbale House,"GJM4+2VH, Unnamed Road, Subagan, Kec. Karangasem, Kabupaten Karangasem, Bali 80813","Unnamed Road, Subagan, Kec. Karangasem, Kabupaten Karangasem",BALI,80813.0,Indonesia,,,,-8.4674454,115.6072198,https://maps.google.com/?cid=0x0:0xdbf2521fd14c208f,
perumahan,Komplek perumahan,Perumahan mang bantal,"GJR9+9M3, Jl. Pesagi, Karangasem, Kec. Karangasem, Kabupaten Karangasem, Bali 80811","Jl. Pesagi, Karangasem, Kec. Karangasem, Kabupaten Karangasem",BALI,80811.0,Indonesia,81237722217.0,,,-8.4591207,115.6191722,https://maps.google.com/?cid=0x0:0xf17ccfd052a78008,
perumahan,Komplek perumahan,RUMAH DANGIN UMAH (DANGIN UMAH HOUSE),"Jl. Kertha Sari Dangin Umah Perasi Kangin, Pertima, Karangasem, Karangasem Regency, Bali 80813","Pertima, Karangasem, Karangasem Regency",BALI,80813.0,Indonesia,81338928266.0,,,-8.4829314,115.6056983,https://maps.google.com/?cid=0x0:0x1a88da477c7bba6f,
perumahan,perumahan,Rumah Karangasem,"Jl. Lettu Sinta No.1, Karangasem, Kec. Karangasem, Kabupaten Karangasem, Bali 80811","Karangasem, Kec. Karangasem, Kabupaten Karangasem",BALI,80811.0,Indonesia,,,,-8.442285,115.614582,https://maps.google.com/?cid=0x0:0xa2a6a33426c60c0d,
perumahan,Komplek perumahan,Grya sementara,"GHVV+3RX, Subagan, Kec. Karangasem, Kabupaten Karangasem, Bali 80813","Subagan, Kec. Karangasem, Kabupaten Karangasem",BALI,80813.0,Indonesia,,,,-8.4570986,115.5947476,https://maps.google.com/?cid=0x0:0xe67c523642e995bd,
perumahan,Komplek perumahan,Rumah Dua,"Jl. Achmad Yani Gg. Mawar No.A-6, Subagan, Kec. Karangasem, Kabupaten Karangasem, Bali 80811","Subagan, Kec. Karangasem, Kabupaten Karangasem",BALI,80811.0,Indonesia,87860036188.0,,,-8.4587469,115.6032605,https://maps.google.com/?cid=0x0:0x9dafcff7a0ae3a80,
perumahan,Komplek perumahan,Ga,"GHWR+QMC, Bungaya Kangin, Kec. Bebandem, Kabupaten Karangasem, Bali 80813","Bungaya Kangin, Kec. Bebandem, Kabupaten Karangasem",BALI,80813.0,Indonesia,,,,-8.4530531,115.5916435,https://maps.google.com/?cid=0x0:0xe1550c21397af5c,
perumahan,Komplek perumahan,Perumahan J. Eleven View,"HH4P+CH5, Jl. Veteran, Padang Kerta, Kec. Karangasem, Kabupaten Karangasem, Bali 80811","Jl. Veteran, Padang Kerta, Kec. Karangasem, Kabupaten Karangasem",BALI,80811.0,Indonesia,,,,-8.4440534,115.5867968,https://maps.google.com/?cid=0x0:0xab874bb4dc24babb,
perumahan,Perumahan,PERUM. TAMAN ASRI A 19 Subagan,"GJW3+65Q, Subagan, Kec. Karangasem, Kabupaten Karangasem, Bali 80811","Subagan, Kec. Karangasem, Kabupaten Karangasem",BALI,80811.0,Indonesia,,,,-8.4546449,115.6033356,https://maps.google.com/?cid=0x0:0xb42acf37334f8a64,
perumahan,Komplek perumahan,Rumah Kaneka,"BTN Wahyu Subagan Permai, Blok M Nomor 18","Kabupaten Karangasem, Bali",BALI,,Indonesia,,,,-8.4611815,115.6010883,https://maps.google.com/?cid=0x0:0x18201bda4d928217,
perumahan,perumahan,Kubu,"Kubu, Kec. Kubu, Kabupaten Karangasem, Bali","Kabupaten Karangasem, Bali",BALI,,Indonesia,,,,-8.25944,115.566002,https://maps.google.com/?cid=0x0:0x7361d170964b4850,
perumahan,Pembangunan Perumahan,Rumah Bayu,"PHR8+6CC, Kubu, Kec. Kubu, Kabupaten Karangasem, Bali","Kabupaten Karangasem, Bali",BALI,,Indonesia,,,,-8.25944,115.566002,https://maps.google.com/?cid=0x0:0x6852024983fd3022,
perumahan,Inspektur Tempat Tinggal,Rumah Tempat Tinggal,"PHR8+GQW Banjar dinas karanganyar, Kubu, Kec. Kubu, Kabupaten Karangasem, Bali 80853","Kubu, Kec. Kubu, Kabupaten Karangasem",BALI,80853.0,Indonesia,,,,-8.2586315,115.5669578,https://maps.google.com/?cid=0x0:0x241869fad4fec8da,
perumahan,Komplek perumahan,Ni luh susini,"PHQ8+VC8, Kubu, Kec. Kubu, Kabupaten Karangasem, Bali 80853","Kubu, Kec. Kubu, Kabupaten Karangasem",BALI,80853.0,Indonesia,,,,-8.2603838,115.5660903,https://maps.google.com/?cid=0x0:0x6eaec884d50ba527,
perumahan,Komplek perumahan,Rumah YanDeTangkas,"PHR9+G38 Banjar Dinas Karanganyar, Kubu, Kec. Kubu, Kabupaten Karangasem, Bali","Kabupaten Karangasem, Bali",BALI,,Indonesia,,,,-8.2587089,115.5677061,https://maps.google.com/?cid=0x0:0xdc96e4494c05a39e,
perumahan,Komplek perumahan,Rumah agus,"PHR9+M59, Kubu, Kec. Kubu, Kabupaten Karangasem, Bali 80853","Kubu, Kec. Kubu, Kabupaten Karangasem",BALI,80853.0,Indonesia,,,,-8.2583375,115.5679844,https://maps.google.com/?cid=0x0:0x120d9807de9fa701,
perumahan,Pembangunan Perumahan,welcome to may house i ketut wangsuh,"PHR8+6CC, Kubu, Kec. Kubu, Kabupaten Karangasem, Bali","Kabupaten Karangasem, Bali",BALI,,Indonesia,,,,-8.25944,115.566002,https://maps.google.com/?cid=0x0:0x57e43b60a7d93981,
perumahan,perumahan,Rumah Harum,"PHM4+MW7, Kubu, Kec. Kubu, Kabupaten Karangasem, Bali","Kabupaten Karangasem, Bali",BALI,,Indonesia,,,,-8.2661192,115.557206,https://maps.google.com/?cid=0x0:0xcbb64af657102740,
perumahan,perumahan,Perumahan ketut,"RF2X+V2Q, Tianyar, Kec. Kubu, Kabupaten Karangasem, Bali 80853","Tianyar, Kec. Kubu, Kabupaten Karangasem",BALI,80853.0,Indonesia,,,,-8.1977919,115.4976024,https://maps.google.com/?cid=0x0:0x1630c4e7525f2ac9,
perumahan,Inspektur Tempat Tinggal,Rumah Dekyoga,"PHR9+M59, Kubu, Kec. Kubu, Kabupaten Karangasem, Bali 80853","Kubu, Kec. Kubu, Kabupaten Karangasem",BALI,80853.0,Indonesia,,,,-8.2588791,115.5687536,https://maps.google.com/?cid=0x0:0x8e1c0dd35a8d9eea,
perumahan,Komplek perumahan,Home pak tunas,"PHR5+XV9, Kubu, Kec. Kubu, Kabupaten Karangasem, Bali","Kabupaten Karangasem, Bali",BALI,,Indonesia,,,,-8.2575883,115.5597246,https://maps.google.com/?cid=0x0:0xfdf741ce5f658d81,
perumahan,Komplek perumahan,L3 Residence (Kubu),"PHVG+7J5, Kubu, Kec. Kubu, Kabupaten Karangasem, Bali","Kabupaten Karangasem, Bali",BALI,,Indonesia,,,,-8.2568625,115.5766094,https://maps.google.com/?cid=0x0:0xcf2c1378446f7265,
perumahan,Komplek perumahan,Rumah keluarga Arta,"Jl. Amlapura Singaraja Gg. Griya No.2, Tianyar, Kec. Kubu, Kabupaten Karangasem, Bali 80853","Tianyar, Kec. Kubu, Kabupaten Karangasem",BALI,80853.0,Indonesia,,,,-8.2562337,115.5622462,https://maps.google.com/?cid=0x0:0xef889213979c1b38,
perumahan,Perumahan rakyat,KUBU PLUMERIA,"QGX2+9H4, Tianyar, Kec. Kubu, Kabupaten Karangasem, Bali","Kabupaten Karangasem, Bali",BALI,,Indonesia,,,,-8.2016214,115.5014607,https://maps.google.com/?cid=0x0:0x9d75f3342f9ed76b,
perumahan,Komplek perumahan,Pondok krisna,"PHWC+R8G, Kubu, Kec. Kubu, Kabupaten Karangasem, Bali 80853","Kubu, Kec. Kubu, Kabupaten Karangasem",BALI,80853.0,Indonesia,85339255006.0,,,-8.2529311,115.5708206,https://maps.google.com/?cid=0x0:0x9dd67831cc3048c3,
perumahan,Komplek perumahan,Br. Dinas Caniga Dukuh,"PHG5+53V, Dukuh, Kec. Kubu, Kabupaten Karangasem, Bali 80853","Dukuh, Kec. Kubu, Kabupaten Karangasem",BALI,80853.0,Indonesia,,,,-8.2745095,115.5576573,https://maps.google.com/?cid=0x0:0x7b346d92919f7806,
perumahan,Komplek perumahan,Rumah Barat,"QH27+W6M, Baturinggit, Kec. Kubu, Kabupaten Karangasem, Bali 80853","Baturinggit, Kec. Kubu, Kabupaten Karangasem",BALI,80853.0,Indonesia,,,,-8.2476629,115.563056,https://maps.google.com/?cid=0x0:0x1386f802a37b92e9,
perumahan,Komplek perumahan,Rumah BudiArsana,"PHRC+J2Q, Kubu, Kec. Kubu, Kabupaten Karangasem, Bali","Kabupaten Karangasem, Bali",BALI,,Indonesia,,,,-8.2584013,115.5701125,https://maps.google.com/?cid=0x0:0xcd5a6a77208b7275,
perumahan,Komplek perumahan,RUMAH LASO,"Jl. Singaraja-Amlapura, Tianyar, Kec. Kubu, Kabupaten Karangasem, Bali 80853","Tianyar, Kec. Kubu, Kabupaten Karangasem",BALI,80853.0,Indonesia,,,,-8.2040846,115.5010848,https://maps.google.com/?cid=0x0:0x9b1dad5ef1185b36,
perumahan,Pembangunan Perumahan,Tunas Sari Residence,"RF2W+GXV, Tianyar, Kec. Kubu, Kabupaten Karangasem, Bali 80853","Tianyar, Kec. Kubu, Kabupaten Karangasem",BALI,80853.0,Indonesia,82147111475.0,,,-8.1961196,115.4991982,https://maps.google.com/?cid=0x0:0x75c1ec08faa50d6a,
perumahan,Komplek perumahan,Rumah,"PH92+3G3, Dukuh, Kec. Kubu, Kabupaten Karangasem, Bali","Kabupaten Karangasem, Bali",BALI,,Indonesia,,,,-8.2714887,115.5617421,https://maps.google.com/?cid=0x0:0x6a7eed9b83d249dc,
perumahan,Komplek perumahan,Era Dinata Home,"PHQH+5H9, Jl. Amlapura Singaraja, Kubu, Kec. Kubu, Kabupaten Karangasem, Bali 80853","Jl. Amlapura Singaraja, Kubu, Kec. Kubu, Kabupaten Karangasem",BALI,80853.0,Indonesia,,,,-8.2620925,115.5789845,https://maps.google.com/?cid=0x0:0xafc05c00a7bad11b,
perumahan,perumahan,Home karisna,"PHMM+MPW, Tulamben, Kec. Kubu, Kabupaten Karangasem, Bali 80853","Tulamben, Kec. Kubu, Kabupaten Karangasem",BALI,80853.0,Indonesia,,,,-8.26575,115.5840833,https://maps.google.com/?cid=0x0:0xc5d383c9a23ff851,
perumahan,perumahan,Indira House,"PHP2+57W, Kubu, Kec. Kubu, Kabupaten Karangasem, Bali","Kabupaten Karangasem, Bali",BALI,,Indonesia,,,,-8.264509,115.5506968,https://maps.google.com/?cid=0x0:0xab40935514a95068,
perumahan,Pembangunan Perumahan,Karel bali palace,"PHGG+73V, Tulamben, Kec. Kubu, Kabupaten Karangasem, Bali 80853","Tulamben, Kec. Kubu, Kabupaten Karangasem",BALI,80853.0,Indonesia,,,,-8.2746748,115.5755713,https://maps.google.com/?cid=0x0:0xf1c4e371331cf0bf,
perumahan,perumahan,Riau 28991,"Kabupaten Rokan Hilir, Riau","Kabupaten Rokan Hilir, Riau",BALI,,Indonesia,,,,2.0317502,100.5296115,https://maps.google.com/?cid=0x0:0x3bd02b371e98560b,
perumahan,Pembangunan Perumahan,Kubu babussalam,"3J2J+9HV, Rantau Panjang Kiri, Kec. Kubu Babussalam, Kabupaten Rokan Hilir, Riau 28991","Rantau Panjang Kiri, Kec. Kubu Babussalam, Kabupaten Rokan Hilir",BALI,28991.0,Indonesia,,,,2.0503583,100.63188,https://maps.google.com/?cid=0x0:0x29e6fedcebd57a3d,
perumahan,Pembangunan Perumahan,Parit kabir,"2M85+HJG, Sungai Majo, Kec. Kubu Babussalam, Kabupaten Rokan Hilir, Riau 28991","Sungai Majo, Kec. Kubu Babussalam, Kabupaten Rokan Hilir",BALI,28991.0,Indonesia,,,,2.0164412,100.659077,https://maps.google.com/?cid=0x0:0x34161186210c591c,
perumahan,Pembangunan Perumahan,Kubu simpang pasir,"3HJW+F4R, Jl. Simpang Pasir, Sei Segajah Makmur, Kubu, Kabupaten Rokan Hilir, Riau 28991","Jl. Simpang Pasir, Sei Segajah Makmur, Kubu, Kabupaten Rokan Hilir",BALI,28991.0,Indonesia,,,,2.0812327,100.5952725,https://maps.google.com/?cid=0x0:0x1dee84066dd84bd0,
perumahan,perumahan,Kubu,"Kubu, Kec. Kubu, Kabupaten Karangasem, Bali","Kabupaten Karangasem, Bali",BALI,,Indonesia,,,,-8.25944,115.566002,https://maps.google.com/?cid=0x0:0x7361d170964b4850,
perumahan,Komplek perumahan,Rumah agus,"PHR9+M59, Kubu, Kec. Kubu, Kabupaten Karangasem, Bali 80853","Kubu, Kec. Kubu, Kabupaten Karangasem",BALI,80853.0,Indonesia,,,,-8.2583375,115.5679844,https://maps.google.com/?cid=0x0:0x120d9807de9fa701,
perumahan,Inspektur Tempat Tinggal,Rumah Tempat Tinggal,"PHR8+GQW Banjar dinas karanganyar, Kubu, Kec. Kubu, Kabupaten Karangasem, Bali 80853","Kubu, Kec. Kubu, Kabupaten Karangasem",BALI,80853.0,Indonesia,,,,-8.2586315,115.5669578,https://maps.google.com/?cid=0x0:0x241869fad4fec8da,
perumahan,Komplek perumahan,Rumah YanDeTangkas,"PHR9+G38 Banjar Dinas Karanganyar, Kubu, Kec. Kubu, Kabupaten Karangasem, Bali","Kabupaten Karangasem, Bali",BALI,,Indonesia,,,,-8.2587089,115.5677061,https://maps.google.com/?cid=0x0:0xdc96e4494c05a39e,
perumahan,Pembangunan Perumahan,welcome to may house i ketut wangsuh,"PHR8+6CC, Kubu, Kec. Kubu, Kabupaten Karangasem, Bali","Kabupaten Karangasem, Bali",BALI,,Indonesia,,,,-8.25944,115.566002,https://maps.google.com/?cid=0x0:0x57e43b60a7d93981,
perumahan,Komplek perumahan,Ni luh susini,"PHQ8+VC8, Kubu, Kec. Kubu, Kabupaten Karangasem, Bali 80853","Kubu, Kec. Kubu, Kabupaten Karangasem",BALI,80853.0,Indonesia,,,,-8.2603838,115.5660903,https://maps.google.com/?cid=0x0:0x6eaec884d50ba527,
perumahan,Komplek perumahan,Taman Sari Residence,"RF95+4F5, Jl. Taman Sari, Tianyar Bar., Kec. Kubu, Kabupaten Karangasem, Bali 80853","Jl. Taman Sari, Tianyar Bar., Kec. Kubu, Kabupaten Karangasem",BALI,80853.0,Indonesia,82147111475.0,,,-8.1810556,115.4590955,https://maps.google.com/?cid=0x0:0xf0facfd510db9001,
perumahan,Pembangunan Perumahan,Tunas Sari Residence,"RF2W+GXV, Tianyar, Kec. Kubu, Kabupaten Karangasem, Bali 80853","Tianyar, Kec. Kubu, Kabupaten Karangasem",BALI,80853.0,Indonesia,82147111475.0,,,-8.1961196,115.4991982,https://maps.google.com/?cid=0x0:0x75c1ec08faa50d6a,
perumahan,Komplek perumahan,Delut jirr kutun'Bumi,"PHR8+6CC, Kubu, Kec. Kubu, Kabupaten Karangasem, Bali","Kabupaten Karangasem, Bali",BALI,,Indonesia,,,,-8.25944,115.566002,https://maps.google.com/?cid=0x0:0x7c9f69cff2dff4df,
perumahan,,Yuda yudi bali,"PHR8+6CC, Kubu, Kec. Kubu, Kabupaten Karangasem, Bali","Kabupaten Karangasem, Bali",BALI,,Indonesia,,,,-8.25944,115.566002,https://maps.google.com/?cid=0x0:0xa49ad620e5875c20,
perumahan,Komplek perumahan,Kubu PKA,"Jl. Ulun Suwi Blk. V No.4, Batubulan, Kec. Sukawati, Kabupaten Gianyar, Bali 80582","Batubulan, Kec. Sukawati, Kabupaten Gianyar",BALI,80582.0,Indonesia,,,,-8.612874,115.2608416,https://maps.google.com/?cid=0x0:0x33639a10149aeda0,
perumahan,perumahan,Rumah Harum,"PHM4+MW7, Kubu, Kec. Kubu, Kabupaten Karangasem, Bali","Kabupaten Karangasem, Bali",BALI,,Indonesia,,,,-8.2661192,115.557206,https://maps.google.com/?cid=0x0:0xcbb64af657102740,
perumahan,Inspektur Tempat Tinggal,Rumah Dekyoga,"PHR9+M59, Kubu, Kec. Kubu, Kabupaten Karangasem, Bali 80853","Kubu, Kec. Kubu, Kabupaten Karangasem",BALI,80853.0,Indonesia,,,,-8.2588791,115.5687536,https://maps.google.com/?cid=0x0:0x8e1c0dd35a8d9eea,
perumahan,perumahan,Perumahan ketut,"RF2X+V2Q, Tianyar, Kec. Kubu, Kabupaten Karangasem, Bali 80853","Tianyar, Kec. Kubu, Kabupaten Karangasem",BALI,80853.0,Indonesia,,,,-8.1977919,115.4976024,https://maps.google.com/?cid=0x0:0x1630c4e7525f2ac9,
perumahan,Komplek perumahan,Pondok krisna,"PHWC+R8G, Kubu, Kec. Kubu, Kabupaten Karangasem, Bali 80853","Kubu, Kec. Kubu, Kabupaten Karangasem",BALI,80853.0,Indonesia,85339255006.0,,,-8.2529311,115.5708206,https://maps.google.com/?cid=0x0:0x9dd67831cc3048c3,
perumahan,Komplek perumahan,Rumah keluarga Arta,"Jl. Amlapura Singaraja Gg. Griya No.2, Tianyar, Kec. Kubu, Kabupaten Karangasem, Bali 80853","Tianyar, Kec. Kubu, Kabupaten Karangasem",BALI,80853.0,Indonesia,,,,-8.2562337,115.5622462,https://maps.google.com/?cid=0x0:0xef889213979c1b38,
perumahan,Komplek perumahan,AGUS MAHESA,"RF2M+8MH, Tianyar Tengah, Kec. Kubu, Kabupaten Karangasem, Bali 80853","Tianyar Tengah, Kec. Kubu, Kabupaten Karangasem",BALI,80853.0,Indonesia,,,,-8.1991412,115.4841924,https://maps.google.com/?cid=0x0:0x349d79ec5139cdc4,
perumahan,Komplek perumahan,Era Dinata Home,"PHQH+5H9, Jl. Amlapura Singaraja, Kubu, Kec. Kubu, Kabupaten Karangasem, Bali 80853","Jl. Amlapura Singaraja, Kubu, Kec. Kubu, Kabupaten Karangasem",BALI,80853.0,Indonesia,,,,-8.2620925,115.5789845,https://maps.google.com/?cid=0x0:0xafc05c00a7bad11b,
perumahan,Komplek perumahan,Pondok indah,"PHRG+JJ3, Jalan, Kubu, Kec. Kubu, Kabupaten Karangasem, Bali 80853","Jalan, Kubu, Kec. Kubu, Kabupaten Karangasem",BALI,80853.0,Indonesia,81353094060.0,,,-8.2581478,115.5764639,https://maps.google.com/?cid=0x0:0x63c3ebcbe4eee766,
perumahan,Perumahan rakyat,KUBU PLUMERIA,"QGX2+9H4, Tianyar, Kec. Kubu, Kabupaten Karangasem, Bali","Kabupaten Karangasem, Bali",BALI,,Indonesia,,,,-8.2016214,115.5014607,https://maps.google.com/?cid=0x0:0x9d75f3342f9ed76b,
perumahan,Komplek perumahan,Pondok gede dana gunem,"QGW4+57R, Tianyar, Kec. Kubu, Kabupaten Karangasem, Bali 80853","Tianyar, Kec. Kubu, Kabupaten Karangasem",BALI,80853.0,Indonesia,,,,-8.204507,115.5056439,https://maps.google.com/?cid=0x0:0x97b938f164de6575,
perumahan,Komplek perumahan,Rumah Lilis,"PHM4+MW7, Kubu, Kec. Kubu, Kabupaten Karangasem, Bali","Kabupaten Karangasem, Bali",BALI,,Indonesia,,,,-8.2658881,115.5572874,https://maps.google.com/?cid=0x0:0x7c01827aa7b845af,
perumahan,Komplek perumahan,Rumah juna,"QGW2+RPX, Jalan, Tianyar, Kec. Kubu, Kabupaten Karangasem, Bali 80853","Jalan, Tianyar, Kec. Kubu, Kabupaten Karangasem",BALI,80853.0,Indonesia,,,,-8.2033678,115.5016802,https://maps.google.com/?cid=0x0:0x2114cbec59039761,
perumahan,Komplek perumahan,RUMAH LASO,"Jl. Singaraja-Amlapura, Tianyar, Kec. Kubu, Kabupaten Karangasem, Bali 80853","Tianyar, Kec. Kubu, Kabupaten Karangasem",BALI,80853.0,Indonesia,,,,-8.2040846,115.5010848,https://maps.google.com/?cid=0x0:0x9b1dad5ef1185b36,
perumahan,perumahan,Home karisna,"PHMM+MPW, Tulamben, Kec. Kubu, Kabupaten Karangasem, Bali 80853","Tulamben, Kec. Kubu, Kabupaten Karangasem",BALI,80853.0,Indonesia,,,,-8.26575,115.5840833,https://maps.google.com/?cid=0x0:0xc5d383c9a23ff851,
perumahan,Pembangunan Perumahan,Rumah Big Pande,"Jl. Amlapura Singaraja No.1, Kubu, Kec. Kubu, Kabupaten Karangasem, Bali 80853","Kubu, Kec. Kubu, Kabupaten Karangasem",BALI,80853.0,Indonesia,,,,-8.2524638,115.5689418,https://maps.google.com/?cid=0x0:0x83d6180bd13daf26,
perumahan,Pembangunan Perumahan,Rumah Windu Angga,"PHXC+7Q9, Kubu, Kec. Kubu, Kabupaten Karangasem, Bali 80853","Kubu, Kec. Kubu, Kabupaten Karangasem",BALI,80853.0,Indonesia,,,,-8.2514755,115.5719223,https://maps.google.com/?cid=0x0:0x64f3ff6b07dcefc1,
perumahan,Perhimpunan Pengembang Perumahan,Pondok bagus ditya,"QFRX+8V2, Jl. Paleg, Tianyar, Kec. Kubu, Kabupaten Karangasem, Bali 80853","Jl. Paleg, Tianyar, Kec. Kubu, Kabupaten Karangasem",BALI,80853.0,Indonesia,,,,-8.2092392,115.499634,https://maps.google.com/?cid=0x0:0x1d23690e8e1db5c6,
perumahan,perumahan,Kubu,"Kubu, Kec. Kubu, Kabupaten Kubu Raya, Kalimantan Barat","Kabupaten Kubu Raya, Kalimantan Barat",BALI,,Indonesia,,,,-0.483762,109.378899,https://maps.google.com/?cid=0x0:0x3198742738a7ec1b,
perumahan,perumahan,Kubu,"Kubu, Kec. Kubu, Kabupaten Karangasem, Bali","Kabupaten Karangasem, Bali",BALI,,Indonesia,,,,-8.25944,115.566002,https://maps.google.com/?cid=0x0:0x7361d170964b4850,
perumahan,Inspektur Tempat Tinggal,Rumah Tempat Tinggal,"PHR8+GQW Banjar dinas karanganyar, Kubu, Kec. Kubu, Kabupaten Karangasem, Bali 80853","Kubu, Kec. Kubu, Kabupaten Karangasem",BALI,80853.0,Indonesia,,,,-8.2586315,115.5669578,https://maps.google.com/?cid=0x0:0x241869fad4fec8da,
perumahan,Komplek perumahan,Rumah agus,"PHR9+M59, Kubu, Kec. Kubu, Kabupaten Karangasem, Bali 80853","Kubu, Kec. Kubu, Kabupaten Karangasem",BALI,80853.0,Indonesia,,,,-8.2583375,115.5679844,https://maps.google.com/?cid=0x0:0x120d9807de9fa701,
perumahan,Komplek perumahan,Rumah YanDeTangkas,"PHR9+G38 Banjar Dinas Karanganyar, Kubu, Kec. Kubu, Kabupaten Karangasem, Bali","Kabupaten Karangasem, Bali",BALI,,Indonesia,,,,-8.2587089,115.5677061,https://maps.google.com/?cid=0x0:0xdc96e4494c05a39e,
perumahan,Komplek perumahan,Ni luh susini,"PHQ8+VC8, Kubu, Kec. Kubu, Kabupaten Karangasem, Bali 80853","Kubu, Kec. Kubu, Kabupaten Karangasem",BALI,80853.0,Indonesia,,,,-8.2603838,115.5660903,https://maps.google.com/?cid=0x0:0x6eaec884d50ba527,
perumahan,Komplek perumahan,Delut jirr kutun'Bumi,"PHR8+6CC, Kubu, Kec. Kubu, Kabupaten Karangasem, Bali","Kabupaten Karangasem, Bali",BALI,,Indonesia,,,,-8.25944,115.566002,https://maps.google.com/?cid=0x0:0x7c9f69cff2dff4df,
perumahan,perumahan,Kubu,"Kubu, Kec. Kubu, Kabupaten Karangasem, Bali","Kabupaten Karangasem, Bali",BALI,,Indonesia,,,,-8.25944,115.566002,https://maps.google.com/?cid=0x0:0x7361d170964b4850,
perumahan,Pembangunan Perumahan,Rumah Bayu,"PHR8+6CC, Kubu, Kec. Kubu, Kabupaten Karangasem, Bali","Kabupaten Karangasem, Bali",BALI,,Indonesia,,,,-8.25944,115.566002,https://maps.google.com/?cid=0x0:0x6852024983fd3022,
perumahan,Inspektur Tempat Tinggal,Rumah Tempat Tinggal,"PHR8+GQW Banjar dinas karanganyar, Kubu, Kec. Kubu, Kabupaten Karangasem, Bali 80853","Kubu, Kec. Kubu, Kabupaten Karangasem",BALI,80853.0,Indonesia,,,,-8.2586315,115.5669578,https://maps.google.com/?cid=0x0:0x241869fad4fec8da,
perumahan,Komplek perumahan,Delut jirr kutun'Bumi,"PHR8+6CC, Kubu, Kec. Kubu, Kabupaten Karangasem, Bali","Kabupaten Karangasem, Bali",BALI,,Indonesia,,,,-8.25944,115.566002,https://maps.google.com/?cid=0x0:0x7c9f69cff2dff4df,
perumahan,Pembangunan Perumahan,welcome to may house i ketut wangsuh,"PHR8+6CC, Kubu, Kec. Kubu, Kabupaten Karangasem, Bali","Kabupaten Karangasem, Bali",BALI,,Indonesia,,,,-8.25944,115.566002,https://maps.google.com/?cid=0x0:0x57e43b60a7d93981,
perumahan,Komplek perumahan,Rumah agus,"PHR9+M59, Kubu, Kec. Kubu, Kabupaten Karangasem, Bali 80853","Kubu, Kec. Kubu, Kabupaten Karangasem",BALI,80853.0,Indonesia,,,,-8.2583375,115.5679844,https://maps.google.com/?cid=0x0:0x120d9807de9fa701,
perumahan,Komplek perumahan,Rumah YanDeTangkas,"PHR9+G38 Banjar Dinas Karanganyar, Kubu, Kec. Kubu, Kabupaten Karangasem, Bali","Kabupaten Karangasem, Bali",BALI,,Indonesia,,,,-8.2587089,115.5677061,https://maps.google.com/?cid=0x0:0xdc96e4494c05a39e,
perumahan,Pembangunan Perumahan,Tunas Sari Residence,"RF2W+GXV, Tianyar, Kec. Kubu, Kabupaten Karangasem, Bali 80853","Tianyar, Kec. Kubu, Kabupaten Karangasem",BALI,80853.0,Indonesia,82147111475.0,,,-8.1961196,115.4991982,https://maps.google.com/?cid=0x0:0x75c1ec08faa50d6a,
perumahan,Agen Properti,Bali Kubu Asri | Estate Agent,"Jl. Nangka Utara Gg Murai No.30, Tonja, Kec. Denpasar Utara, Kota Denpasar, Bali 80234","Tonja, Kec. Denpasar Utara, Kota Denpasar",BALI,80234.0,Indonesia,81999056888.0,,,-8.6341501,115.2215127,https://maps.google.com/?cid=0x0:0x2ccdeec58d583b61,
perumahan,,Yuda yudi bali,"PHR8+6CC, Kubu, Kec. Kubu, Kabupaten Karangasem, Bali","Kabupaten Karangasem, Bali",BALI,,Indonesia,,,,-8.25944,115.566002,https://maps.google.com/?cid=0x0:0xa49ad620e5875c20,
perumahan,Komplek perumahan,Taman Sari Residence,"RF95+4F5, Jl. Taman Sari, Tianyar Bar., Kec. Kubu, Kabupaten Karangasem, Bali 80853","Jl. Taman Sari, Tianyar Bar., Kec. Kubu, Kabupaten Karangasem",BALI,80853.0,Indonesia,82147111475.0,,,-8.1810556,115.4590955,https://maps.google.com/?cid=0x0:0xf0facfd510db9001,
perumahan,perumahan,Rumah,"QGH2+5R, Tianyar, Kec. Kubu, Kabupaten Karangasem, Bali","Kabupaten Karangasem, Bali",BALI,,Indonesia,,,,-8.2213953,115.501806,https://maps.google.com/?cid=0x0:0x15374a9de9921920,
perumahan,Perumahan,Perumahan pondok rawamas indah F5 no 26,"HFJH+MHG, Unnamed Road, Jomin Bar., Kec. Kota Baru, Karawang, Jawa Barat 41374","Unnamed Road, Jomin Bar., Kec. Kota Baru, Karawang",BALI,41374.0,Indonesia,,,,-6.4183024,107.4789409,https://maps.google.com/?cid=0x0:0x717aa00551b6f128,
perumahan,perumahan,Manggis,"Manggis, Kec. Manggis, Kabupaten Karangasem, Bali","Kabupaten Karangasem, Bali",BALI,,Indonesia,,,,-8.492179,115.5252,https://maps.google.com/?cid=0x0:0xe8cfc3ff76ecc7c4,
perumahan,Komplek perumahan,Rumah,"GG5G+43G, Manggis, Kec. Manggis, Kabupaten Karangasem, Bali","Kabupaten Karangasem, Bali",BALI,,Indonesia,,,,-8.492179,115.5252,https://maps.google.com/?cid=0x0:0xd7c2409765b69582,
perumahan,Komplek perumahan,Perumahan Pertamina Manggis,"GG47+9CX, Jl. Raya Yehpoh, Manggis, Kec. Manggis, Kabupaten Karangasem, Bali 80871","Jl. Raya Yehpoh, Manggis, Kec. Manggis, Kabupaten Karangasem",BALI,80871.0,Indonesia,,,,-8.494024,115.5136206,https://maps.google.com/?cid=0x0:0x8e8e8657ef77662c,
perumahan,perumahan,,,,BALI,,Indonesia,,,,,,https://maps.google.com/?cid=0x0:0xb2a608415b848e70%7C/g/1t_gbkxt%7Cid-ID,
perumahan,perumahan,Ramayana Candidasa Beach Resort,"Jl. Raya Sengkidu, Sengkidu, Kec. Manggis, Kabupaten Karangasem, Bali 80871","Sengkidu, Kec. Manggis, Kabupaten Karangasem",BALI,80871.0,Indonesia,36341974.0,,,-8.5049584,115.5577108,https://maps.google.com/?cid=0x0:0x3342dfe2744bae02,
perumahan,perumahan,Neano Escape,"Jalan Bukit Meluang Desa Adat Apit Yeh, Manggis, Kec. Manggis, Kabupaten Karangasem, Bali 80871","Manggis, Kec. Manggis, Kabupaten Karangasem",BALI,80871.0,Indonesia,81818882223.0,,,-8.4909734,115.5343435,https://maps.google.com/?cid=0x0:0x466678b0602a682d,
perumahan,perumahan,Villa Gita Segara,"FHV5+GGF, Jl. Raya Candidasa, Nyuh Tebel, Kec. Manggis, Kabupaten Karangasem, Bali 80361","Jl. Raya Candidasa, Nyuh Tebel, Kec. Manggis, Kabupaten Karangasem",BALI,80361.0,Indonesia,82266576119.0,,,-8.50619,115.558796,https://maps.google.com/?cid=0x0:0x55ffccbfa62de9af,
perumahan,perumahan,Kimana Villa,"Jl. Raya Sengkidu, Sengkidu, Kec. Manggis, Kabupaten Karangasem, Bali","Kabupaten Karangasem, Bali",BALI,,Indonesia,361970980.0,,,-8.5009855,115.541052,https://maps.google.com/?cid=0x0:0x195a2e2f769729c2,
perumahan,perumahan,Villa Candi,"Jl. Pura Segara, Sengkidu, Kec. Manggis, Kabupaten Karangasem, Bali","Kabupaten Karangasem, Bali",BALI,,Indonesia,818865742.0,,,-8.5045832,115.5541697,https://maps.google.com/?cid=0x0:0x3de2542055f3ebfc,
perumahan,perumahan,Pondok Carik,"Selumbung, Kec. Manggis, Kabupaten Karangasem, Bali","Kabupaten Karangasem, Bali",BALI,,Indonesia,81239128210.0,,,-8.4809194,115.527146,https://maps.google.com/?cid=0x0:0x93983e81d48abc74,
perumahan,Pemandian Umum,Tirta Gangga,"HHQQ+836, Jalan Raya Abang Desa Adat Jl. Raya Tirta Gangga, Ababi, Kec. Abang, Kabupaten Karangasem, Bali 80852","Jalan Raya Abang Desa Adat Jl. Raya Tirta Gangga, Ababi, Kec. Abang, Kabupaten Karangasem",BALI,80852.0,Indonesia,36321697.0,,,-8.4123473,115.5872919,https://maps.google.com/?cid=0x0:0x65af03b0d108a7d1,
perumahan,Terminal kapal pesiar,Padang Bai Fast Boat Harbour,"Padangbai, Kec. Manggis, Kabupaten Karangasem, Bali","Kabupaten Karangasem, Bali",BALI,,Indonesia,,,,-8.5309919,115.5090845,https://maps.google.com/?cid=0x0:0x52bbbdd0b3b9383f,
perumahan,perumahan,Candi Dasa,"Nyuh Tebel, Kec. Manggis, Kabupaten Karangasem, Bali","Kabupaten Karangasem, Bali",BALI,,Indonesia,,,,-8.4995354,115.5555238,https://maps.google.com/?cid=0x0:0x1eb0ffc994219401,
perumahan,Komplek perumahan,Drs k suadnya MM,"Jl Manggis I No.18x, Manggis, abiansoan, Kabupaten Karangasem, Bali 80871","Manggis, abiansoan, Kabupaten Karangasem",BALI,80871.0,Indonesia,,,,-8.4943907,115.5257987,https://maps.google.com/?cid=0x0:0x435d647bc9d1ddd0,
perumahan,Perusahaan investasi properti,HS Manggis 1,"Jl. Cipedak Gg. Manggis No.60-62 Blok C5, Pasir Putih, Kec. Sawangan, Kota Depok, Jawa Barat 16519","Pasir Putih, Kec. Sawangan, Kota Depok",BALI,16519.0,Indonesia,,,,-6.4146303,106.7769659,https://maps.google.com/?cid=0x0:0xdd03b1313a76e437,
perumahan,,Rumah Manggis,"Jl. Manggis No.30, RT.1/RW.4, Jagakarsa, Kec. Jagakarsa, Kota Jakarta Selatan, Daerah Khusus Ibukota Jakarta 12620","RT.1/RW.4, Jagakarsa, Kec. Jagakarsa, Kota Jakarta Selatan",BALI,12620.0,Indonesia,,,,-6.3251712,106.810661,https://maps.google.com/?cid=0x0:0xbb257779f69405db,
perumahan,Pembangunan Perumahan,Perumahan Puri Manggis 1,"P3H4+XHG, Tambun, Kec. Tambun Sel., Kabupaten Bekasi, Jawa Barat 17510","Tambun, Kec. Tambun Sel., Kabupaten Bekasi",BALI,17510.0,Indonesia,,,,-6.2700635,107.0564589,https://maps.google.com/?cid=0x0:0x7ffd13853bd975ed,
perumahan,perumahan,Bali 80863,"Kec. Rendang, Kabupaten Karangasem, Bali","Kabupaten Karangasem, Bali",BALI,,Indonesia,,,,-8.3623262,115.4378152,https://maps.google.com/?cid=0x0:0x1c00c5eb6016c0a0,
perumahan,Komplek perumahan,Diarsana,"HC9C+84J, Gg. Apel, Rendang, Kec. Rendang, Kabupaten Karangasem, Bali 80863","Gg. Apel, Rendang, Kec. Rendang, Kabupaten Karangasem",BALI,80863.0,Indonesia,,,,-8.4316518,115.4202605,https://maps.google.com/?cid=0x0:0x33cca637c49b3c50,
perumahan,Komplek perumahan,Rumah Tuarik,"HCCQ+Q4G, Jl. Langsat, Rendang, Kec. Rendang, Kabupaten Karangasem, Bali 80863","Jl. Langsat, Rendang, Kec. Rendang, Kabupaten Karangasem",BALI,80863.0,Indonesia,,,,-8.428067,115.4378391,https://maps.google.com/?cid=0x0:0xe901e28d9190e57,
perumahan,Kantor Pemerintah,Bandesa Adat Geliang,"JCMM+8M8 Br. Dinas Geliang, Pempatan, Kec. Rendang, Kabupaten Karangasem, Bali","Kabupaten Karangasem, Bali",BALI,,Indonesia,82396220247.0,,,-8.3667102,115.4342103,https://maps.google.com/?cid=0x0:0x44eead710916c42d,
perumahan,Perumahan,SWD,"HC8P+8V4, Jl. Dukuh Sakti, Rendang, Kec. Rendang, Kabupaten Karangasem, Bali 80863","Jl. Dukuh Sakti, Rendang, Kec. Rendang, Kabupaten Karangasem",BALI,80863.0,Indonesia,,,,-8.4342264,115.437218,https://maps.google.com/?cid=0x0:0xf85f3550aee2ea67,
perumahan,Pembangunan Perumahan,Rumah otes,"Gg. Pande No.246, Nongan, Kec. Rendang, Kabupaten Karangasem, Bali 80863","Nongan, Kec. Rendang, Kabupaten Karangasem",BALI,80863.0,Indonesia,,,,-8.4392982,115.4148989,https://maps.google.com/?cid=0x0:0x3ad7449479084acc,
perumahan,Pembangunan Perumahan,Pondok pak sardika,"Jl. Surya Indah No.1, Rendang, Kec. Rendang, Kabupaten Karangasem, Bali 80863","Rendang, Kec. Rendang, Kabupaten Karangasem",BALI,80863.0,Indonesia,,,,-8.427787,115.429121,https://maps.google.com/?cid=0x0:0xa273b2ec026ed3c7,
perumahan,Komplek perumahan,Ru,"JCCQ+HJ, Besakih, Kec. Rendang, Kabupaten Karangasem, Bali 80863","Besakih, Kec. Rendang, Kabupaten Karangasem",BALI,80863.0,Indonesia,,,,-8.3789033,115.4392483,https://maps.google.com/?cid=0x0:0xe09fc2ae8f53578a,
perumahan,Perumahan,Mang Alex tinggal disini,"HC2F+X7H, Nongan, Kec. Rendang, Kabupaten Karangasem, Bali 80863","Nongan, Kec. Rendang, Kabupaten Karangasem",BALI,80863.0,Indonesia,,,,-8.4477038,115.4231348,https://maps.google.com/?cid=0x0:0x595a1ecad9158c78,
perumahan,Komplek perumahan,Rumah Rahayu,"JCMJ+3CG, Jalan Besakih, Pempatan, Kec. Rendang, Kabupaten Karangasem, Bali 80863","Jalan Besakih, Pempatan, Kec. Rendang, Kabupaten Karangasem",BALI,80863.0,Indonesia,,,,-8.3673131,115.4310732,https://maps.google.com/?cid=0x0:0xad9cb9b7f83b1de9,
perumahan,Komplek perumahan,Rumah Trisna,"JC7R+WW3, Besakih, Kec. Rendang, Kabupaten Karangasem, Bali 80863","Besakih, Kec. Rendang, Kabupaten Karangasem",BALI,80863.0,Indonesia,,,,-8.3852317,115.4422969,https://maps.google.com/?cid=0x0:0x15a84b5a478c191a,
perumahan,perumahan,Rumah,"JCCW+2J3, Jl. Raya Besakih, Besakih, Kec. Rendang, Kabupaten Karangasem, Bali 80863","Jl. Raya Besakih, Besakih, Kec. Rendang, Kabupaten Karangasem",BALI,80863.0,Indonesia,,,,-8.3799892,115.446555,https://maps.google.com/?cid=0x0:0x7c9e6181b0704d70,
perumahan,Komplek perumahan,Rumah Rakaaprillia,"HCCM+VCP, Gg. Tirtasari, Rendang, Kec. Rendang, Kabupaten Karangasem, Bali 80863","Gg. Tirtasari, Rendang, Kec. Rendang, Kabupaten Karangasem",BALI,80863.0,Indonesia,,,,-8.4277798,115.4335917,https://maps.google.com/?cid=0x0:0x9e71602b0439642,
perumahan,Komplek perumahan,Rumah Wulannn,"HC4F+9WF, Unnamed Road, Nongan, Kec. Rendang, Kabupaten Karangasem, Bali 80863","Unnamed Road, Nongan, Kec. Rendang, Kabupaten Karangasem",BALI,80863.0,Indonesia,,,,-8.4440515,115.4247861,https://maps.google.com/?cid=0x0:0x5d541047bced8e06,
perumahan,Komplek perumahan,Ditz. S,"HC3F+XPJ, Nongan, Kec. Rendang, Kabupaten Karangasem, Bali 80863","Nongan, Kec. Rendang, Kabupaten Karangasem",BALI,80863.0,Indonesia,85829628528.0,,,-8.4447512,115.4245017,https://maps.google.com/?cid=0x0:0x7fc94c85d6dfbc90,
perumahan,Komplek perumahan,Rumah I Nyoman Bagiarta,"JCMJ+3CG Biyas, Jalan Besakih, Pempatan, Kec. Rendang, Kabupaten Karangasem, Bali 80863","Jalan Besakih, Pempatan, Kec. Rendang, Kabupaten Karangasem",BALI,80863.0,Indonesia,,,,-8.3671646,115.4319676,https://maps.google.com/?cid=0x0:0x9f313e0d1ef4f2f3,
perumahan,Komplek perumahan,Kubu yah Gunung,"Jl. Dewa Anom No.72, Rendang, Kec. Rendang, Kabupaten Karangasem, Bali 80863","Rendang, Kec. Rendang, Kabupaten Karangasem",BALI,80863.0,Indonesia,,,,-8.428914,115.4284975,https://maps.google.com/?cid=0x0:0xeecf90a3b8f03006,
perumahan,Komplek perumahan,Kubuku,"Jl. Dewa Anom No.56, Rendang, Kec. Rendang, Kabupaten Karangasem, Bali 80863","Rendang, Kec. Rendang, Kabupaten Karangasem",BALI,80863.0,Indonesia,,,,-8.4286139,115.4273691,https://maps.google.com/?cid=0x0:0xb313c07703b4b993,
perumahan,Komplek perumahan,Rumah Di,"HC6P+XP6, Rendang, Kec. Rendang, Kabupaten Karangasem, Bali 80863","Rendang, Kec. Rendang, Kabupaten Karangasem",BALI,80863.0,Indonesia,,,,-8.4375976,115.436776,https://maps.google.com/?cid=0x0:0x3a08b6e95f7f0104,
perumahan,perumahan,Rendang,"Kec. Rendang, Kabupaten Karangasem, Bali","Kabupaten Karangasem, Bali",BALI,,Indonesia,,,,-8.4308548,115.4289294,https://maps.google.com/?cid=0x0:0x5030bfbca831610,
perumahan,Klub Malam,Rumahku MOYO BORAZ,"HC3F+82V, Nongan, Kec. Rendang, Kabupaten Karangasem, Bali","Kabupaten Karangasem, Bali",BALI,,Indonesia,,,,-8.4466257,115.422543,https://maps.google.com/?cid=0x0:0x33e5e2c3d49d9a81,
perumahan,Perhimpunan Pengembang Perumahan,Perumahan,"JF73+VP, Besakih, Kec. Rendang, Kabupaten Karangasem, Bali 80863","Besakih, Kec. Rendang, Kabupaten Karangasem",BALI,80863.0,Indonesia,,,,-8.3852745,115.4543974,https://maps.google.com/?cid=0x0:0x77bb14bcb064fc67,
perumahan,Komplek perumahan,Umah arnita,"JCR7+CMM, jl. Teges Waringin, Pempatan, Kec. Rendang, Kabupaten Karangasem, Bali 80863","jl. Teges Waringin, Pempatan, Kec. Rendang, Kabupaten Karangasem",BALI,80863.0,Indonesia,,,,-8.3589172,115.4141574,https://maps.google.com/?cid=0x0:0xaa2be0e193551b99,
perumahan,Komplek perumahan,Rumah . Putu nadi,"HCQV+H9W, Menanga, Kec. Rendang, Kabupaten Karangasem, Bali 80863","Menanga, Kec. Rendang, Kabupaten Karangasem",BALI,80863.0,Indonesia,,,,-8.410355,115.443662,https://maps.google.com/?cid=0x0:0x3bc77f8085854e7a,
perumahan,Komplek perumahan,nawa,"MC4P+758, Pempatan, Kec. Rendang, Kabupaten Karangasem, Bali 80863","Pempatan, Kec. Rendang, Kabupaten Karangasem",BALI,80863.0,Indonesia,85954247118.0,,,-8.3443498,115.4354494,https://maps.google.com/?cid=0x0:0xac55dec89e57be82,
perumahan,Komplek perumahan,Di kampung asah,"MC6P+C2H, Pempatan, Kec. Rendang, Kabupaten Karangasem, Bali 80863","Pempatan, Kec. Rendang, Kabupaten Karangasem",BALI,80863.0,Indonesia,,,,-8.3389459,115.4351249,https://maps.google.com/?cid=0x0:0x579071dec1189af2,
perumahan,Komplek perumahan,Rumah Aris,"JC8J+VJ, Menanga, Kec. Rendang, Kabupaten Karangasem, Bali 80863","Menanga, Kec. Rendang, Kabupaten Karangasem",BALI,80863.0,Indonesia,,,,-8.3827433,115.431394,https://maps.google.com/?cid=0x0:0xc06a2a900cd62dc6,
perumahan,Komplek perumahan,Rumah bandesa adat waringin,"MC56+H7F, Jl. Batur Tengah, Pempatan, Kec. Rendang, Kabupaten Karangasem, Bali 80863","Jl. Batur Tengah, Pempatan, Kec. Rendang, Kabupaten Karangasem",BALI,80863.0,Indonesia,,,,-8.3410592,115.4106805,https://maps.google.com/?cid=0x0:0x69bbd7b172439ba6,
perumahan,Perumahan,Rumah basir,"JFF6+RMG, Besakih, Kec. Rendang, Kabupaten Karangasem, Bali 80863","Besakih, Kec. Rendang, Kabupaten Karangasem",BALI,80863.0,Indonesia,,,,-8.375447,115.4617126,https://maps.google.com/?cid=0x0:0x2144125d4d28cfee,
perumahan,Komplek perumahan,Rumah Pageh Widiastra,"HF78+4P3, Pering Sari, Kec. Selat, Kabupaten Karangasem, Bali 80862","Pering Sari, Kec. Selat, Kabupaten Karangasem",BALI,80862.0,Indonesia,,,,-8.4372329,115.4667965,https://maps.google.com/?cid=0x0:0x11f9ba078ba90fed,
perumahan,Komplek perumahan,Rasya adiputra,"HF77+8JF, Pering Sari, Kec. Selat, Kabupaten Karangasem, Bali 80862","Pering Sari, Kec. Selat, Kabupaten Karangasem",BALI,80862.0,Indonesia,,,,-8.4367568,115.4645267,https://maps.google.com/?cid=0x0:0x4ea1aa1437758574,
perumahan,perumahan,Selat,"Pering Sari, Kec. Selat, Kabupaten Karangasem, Bali","Kabupaten Karangasem, Bali",BALI,,Indonesia,,,,-8.437853,115.465897,https://maps.google.com/?cid=0x0:0x22f53a4a73abc935,
perumahan,Komplek perumahan,MKYF HOME,"HF68+PGG, Br Umasari Kangin, Pering Sari, Kec. Selat, Kabupaten Karangasem, Bali 80862","Br Umasari Kangin, Pering Sari, Kec. Selat, Kabupaten Karangasem",BALI,80862.0,Indonesia,,,,-8.4381916,115.466314,https://maps.google.com/?cid=0x0:0x1b0f2f5c7869a790,
perumahan,Komplek perumahan,Rumah Danan Jaya,"HF68+PFV Br.Dinas Umasari Kangin, Pering Sari, Kec. Selat, Kabupaten Karangasem, Bali","Kabupaten Karangasem, Bali",BALI,,Indonesia,,,,-8.438128,115.4661796,https://maps.google.com/?cid=0x0:0xc3cfa56ed0c1c347,
perumahan,Komplek perumahan,Made Budi Shinobi's House,"HF77+8JF, Pering Sari, Kec. Selat, Kabupaten Karangasem, Bali 80862","Pering Sari, Kec. Selat, Kabupaten Karangasem",BALI,80862.0,Indonesia,,,,-8.4367811,115.4647378,https://maps.google.com/?cid=0x0:0xedafa3f5d0776a27,
perumahan,Hostel,Rumah kt swidnya,"HF78+2FV, Br dinas umasari kangin, Pering Sari","Kabupaten Karangasem, Bali",BALI,,Indonesia,,,,-8.4373807,115.4661853,https://maps.google.com/?cid=0x0:0x3418428256ee1392,
perumahan,Komplek perumahan,Rumah mng jabir,"HF78+2H8, Jln. Umacetra, Umesari Kangin, Pering Sari, Kec. Selat, Kabupaten Karangasem, Bali","Kabupaten Karangasem, Bali",BALI,,Indonesia,,,,-8.4375602,115.4664699,https://maps.google.com/?cid=0x0:0xede5dc9c20c6c4b6,
perumahan,Balai masyarakat,Gang utara balai banjar umasari kangin,"HF68+RG8, Gg. Umasari Gg. Kaja Kangin, Pering Sari, Kec. Selat, Kabupaten Karangasem, Bali 80862","Gg. Umasari Gg. Kaja Kangin, Pering Sari, Kec. Selat, Kabupaten Karangasem",BALI,80862.0,Indonesia,,,,-8.4379542,115.4663168,https://maps.google.com/?cid=0x0:0x60034715ca85e9eb,
perumahan,Komplek perumahan,Astari Dewi Home,"HF68+PFV Br. Dinas Umasari Kangin, Pering Sari, Kec. Selat, Kabupaten Karangasem, Bali","Kabupaten Karangasem, Bali",BALI,,Indonesia,,,,-8.438128,115.4661796,https://maps.google.com/?cid=0x0:0xde4858d074fbfd63,
perumahan,Pembangunan Perumahan,Lodekan hause,"HF68+RGR, Gang sebelah utara balai Banjar umasari kangin, Pering Sari, Kec. Selat, Kabupaten Karangasem, Bali 80862","Gang sebelah utara balai Banjar umasari kangin, Pering Sari, Kec. Selat, Kabupaten Karangasem",BALI,80862.0,Indonesia,,,,-8.4378895,115.4662576,https://maps.google.com/?cid=0x0:0xda82996af52cd917,
perumahan,Komplek perumahan,Rumah I Wayan Yasa,"HF78+3H, Pering Sari, Kec. Selat, Kabupaten Karangasem, Bali","Kabupaten Karangasem, Bali",BALI,,Indonesia,,,,-8.4373125,115.4664375,https://maps.google.com/?cid=0x0:0xb4fd1594f54e1719,
perumahan,Komplek perumahan,Rumah Selat Bali,"Jl. Selat Bali No.E11-5 Blok E-11, RT.4/RW.17, Duren Sawit, Kec. Duren Sawit, Kota Jakarta Timur, Daerah Khusus Ibukota Jakarta 13440","RT.4/RW.17, Duren Sawit, Kec. Duren Sawit, Kota Jakarta Timur",BALI,13440.0,Indonesia,,,,-6.237781,106.914803,https://maps.google.com/?cid=0x0:0x86536e2e09e2c66f,
perumahan,Komplek perumahan,Perumahan Green Pilau,"292J+FR9, Jl. Pilau, Selat Tengah, Kec. Selat, Kabupaten Kapuas, Kalimantan Tengah 73516","Jl. Pilau, Selat Tengah, Kec. Selat, Kabupaten Kapuas",BALI,73516.0,Indonesia,,,,-2.998849,114.3821013,https://maps.google.com/?cid=0x0:0xa0f53eb00589e80b,
perumahan,Komplek perumahan,Jl. Selat Karimata,"Jl. Selat Karimata No.D8 /17, RT.7/RW.17, Duren Sawit, Kec. Duren Sawit, Kota Jakarta Timur, Daerah Khusus Ibukota Jakarta 13440","RT.7/RW.17, Duren Sawit, Kec. Duren Sawit, Kota Jakarta Timur",BALI,13440.0,Indonesia,,,,-6.2360067,106.9147576,https://maps.google.com/?cid=0x0:0x5d336ce06028d97d,
perumahan,Komplek perumahan,Perumahan NSD,"2CQ9+W3V, Selat Hulu, Kec. Selat, Kabupaten Kapuas, Kalimantan Tengah 73581","Selat Hulu, Kec. Selat, Kabupaten Kapuas",BALI,73581.0,Indonesia,,,,-2.9601267,114.4176785,https://maps.google.com/?cid=0x0:0x6e851adb83e44a5,
perumahan,Toko Perlengkapan Rumah,Perumahan CITRA MAS 2,"292Q+996, Selat Tengah, Kec. Selat, Kabupaten Kapuas, Kalimantan Tengah 73516","Selat Tengah, Kec. Selat, Kabupaten Kapuas",BALI,73516.0,Indonesia,,,,-2.9990866,114.3883972,https://maps.google.com/?cid=0x0:0x1f5c40034ff6bc72,
perumahan,Komplek perumahan,Perumahan BIP 2,"X9XR+Q72, Jl. Cilik Riwut, Selat Dalam, Kec. Selat, Kabupaten Kapuas, Kalimantan Tengah","Kabupaten Kapuas, Kalimantan Tengah",BALI,,Indonesia,,,,-3.0006137,114.390643,https://maps.google.com/?cid=0x0:0x56eaff45e597c602,
perumahan,Komplek perumahan,Rumah,"X9XV+MW9, Jl. Cilik Riwut Gg. III, Selat Tengah, Kec. Selat, Kabupaten Kapuas, Kalimantan Tengah 73516","Jl. Cilik Riwut Gg. III, Selat Tengah, Kec. Selat, Kabupaten Kapuas",BALI,73516.0,Indonesia,,,,-3.0008334,114.3948452,https://maps.google.com/?cid=0x0:0x3a9ebca1d720cfc2,
perumahan,Komplek perumahan,rumah,"X9PQ+7WG, Jl. Seroja Gg. 2, Selat Hilir, Kec. Selat, Kabupaten Kapuas, Kalimantan Tengah 73516","Jl. Seroja Gg. 2, Selat Hilir, Kec. Selat, Kabupaten Kapuas",BALI,73516.0,Indonesia,,,,-3.0143019,114.3898366,https://maps.google.com/?cid=0x0:0xc47afed69a9ba017,
perumahan,Pembangunan Perumahan,Perumahan Kampoeng Modern,"2C92+C32, Jl. Pemuda, Selat Dalam, Kec. Selat, Kabupaten Kapuas, Kalimantan Tengah 73516","Jl. Pemuda, Selat Dalam, Kec. Selat, Kabupaten Kapuas",BALI,73516.0,Indonesia,,,,-2.9814787,114.4001415,https://maps.google.com/?cid=0x0:0xb3cc0ff9499555fb,
perumahan,Toko Perlengkapan Rumah,Perumahan GRANDCITRAMAS 2,"X9XQ+X63, Selat Tengah, Kec. Selat, Kabupaten Kapuas, Kalimantan Tengah 73516","Selat Tengah, Kec. Selat, Kabupaten Kapuas",BALI,73516.0,Indonesia,,,,-3.000106,114.3880369,https://maps.google.com/?cid=0x0:0x428806888d3873ff,
perumahan,Komplek perumahan,Komp. Perumahan Kota Kapuas Baru,"Jl. Mandomai Kapuas, Pulau Telo, Kec. Selat, Kabupaten Kapuas, Kalimantan Tengah 73516","Pulau Telo, Kec. Selat, Kabupaten Kapuas",BALI,73516.0,Indonesia,8978862745.0,,,-2.9620163,114.3881623,https://maps.google.com/?cid=0x0:0xb99cde2ac7649e06,
perumahan,Pembangunan Perumahan,selat marata,"4F7Q+XHF, Selat marata, Sei Tatas, Kec. Pulau Petak, Kabupaten Kapuas, Kalimantan Tengah","Kabupaten Kapuas, Kalimantan Tengah",BALI,,Indonesia,,,,-2.8850579,114.4889358,https://maps.google.com/?cid=0x0:0xc0dcac66c9e4d29c,
perumahan,Komplek perumahan,RUMAH MEMPELAI WANITA,"Gg. V No.09, Selat Tengah, Kec. Selat, Kabupaten Kapuas, Kalimantan Tengah 73516","Selat Tengah, Kec. Selat, Kabupaten Kapuas",BALI,73516.0,Indonesia,,,,-3.0005824,114.3889738,https://maps.google.com/?cid=0x0:0xc711a30536f80da2,
perumahan,Komplek perumahan,Rumah Pageh Widiastra,"HF78+4P3, Pering Sari, Kec. Selat, Kabupaten Karangasem, Bali 80862","Pering Sari, Kec. Selat, Kabupaten Karangasem",BALI,80862.0,Indonesia,,,,-8.4372329,115.4667965,https://maps.google.com/?cid=0x0:0x11f9ba078ba90fed,
perumahan,perumahan,Selat,"Pering Sari, Kec. Selat, Kabupaten Karangasem, Bali","Kabupaten Karangasem, Bali",BALI,,Indonesia,,,,-8.437853,115.465897,https://maps.google.com/?cid=0x0:0x22f53a4a73abc935,
perumahan,Komplek perumahan,MKYF HOME,"HF68+PGG, Br Umasari Kangin, Pering Sari, Kec. Selat, Kabupaten Karangasem, Bali 80862","Br Umasari Kangin, Pering Sari, Kec. Selat, Kabupaten Karangasem",BALI,80862.0,Indonesia,,,,-8.4381916,115.466314,https://maps.google.com/?cid=0x0:0x1b0f2f5c7869a790,
perumahan,Komplek perumahan,Rasya adiputra,"HF77+8JF, Pering Sari, Kec. Selat, Kabupaten Karangasem, Bali 80862","Pering Sari, Kec. Selat, Kabupaten Karangasem",BALI,80862.0,Indonesia,,,,-8.4367568,115.4645267,https://maps.google.com/?cid=0x0:0x4ea1aa1437758574,
perumahan,Komplek perumahan,Rumah Danan Jaya,"HF68+PFV Br.Dinas Umasari Kangin, Pering Sari, Kec. Selat, Kabupaten Karangasem, Bali","Kabupaten Karangasem, Bali",BALI,,Indonesia,,,,-8.438128,115.4661796,https://maps.google.com/?cid=0x0:0xc3cfa56ed0c1c347,
perumahan,Komplek perumahan,Rumah mng jabir,"HF78+2H8, Jln. Umacetra, Umesari Kangin, Pering Sari, Kec. Selat, Kabupaten Karangasem, Bali","Kabupaten Karangasem, Bali",BALI,,Indonesia,,,,-8.4375602,115.4664699,https://maps.google.com/?cid=0x0:0xede5dc9c20c6c4b6,
perumahan,Komplek perumahan,Made Budi Shinobi's House,"HF77+8JF, Pering Sari, Kec. Selat, Kabupaten Karangasem, Bali 80862","Pering Sari, Kec. Selat, Kabupaten Karangasem",BALI,80862.0,Indonesia,,,,-8.4367811,115.4647378,https://maps.google.com/?cid=0x0:0xedafa3f5d0776a27,
perumahan,Balai masyarakat,Gang utara balai banjar umasari kangin,"HF68+RG8, Gg. Umasari Gg. Kaja Kangin, Pering Sari, Kec. Selat, Kabupaten Karangasem, Bali 80862","Gg. Umasari Gg. Kaja Kangin, Pering Sari, Kec. Selat, Kabupaten Karangasem",BALI,80862.0,Indonesia,,,,-8.4379542,115.4663168,https://maps.google.com/?cid=0x0:0x60034715ca85e9eb,
perumahan,Komplek perumahan,Astari Dewi Home,"HF68+PFV Br. Dinas Umasari Kangin, Pering Sari, Kec. Selat, Kabupaten Karangasem, Bali","Kabupaten Karangasem, Bali",BALI,,Indonesia,,,,-8.438128,115.4661796,https://maps.google.com/?cid=0x0:0xde4858d074fbfd63,
perumahan,Hostel,Rumah kt swidnya,"HF78+2FV, Br dinas umasari kangin, Pering Sari","Kabupaten Karangasem, Bali",BALI,,Indonesia,,,,-8.4373807,115.4661853,https://maps.google.com/?cid=0x0:0x3418428256ee1392,
perumahan,Rumah wisata,Rumah Kadek Budiarta,"HF78+584 Br dinas umasari kangin, Pering Sari, Kec. Selat, Kabupaten Karangasem, Bali","Kabupaten Karangasem, Bali",BALI,,Indonesia,,,,-8.4371065,115.4658322,https://maps.google.com/?cid=0x0:0x43d1d03223b06140,
perumahan,Pembangunan Perumahan,Lodekan hause,"HF68+RGR, Gang sebelah utara balai Banjar umasari kangin, Pering Sari, Kec. Selat, Kabupaten Karangasem, Bali 80862","Gang sebelah utara balai Banjar umasari kangin, Pering Sari, Kec. Selat, Kabupaten Karangasem",BALI,80862.0,Indonesia,,,,-8.4378895,115.4662576,https://maps.google.com/?cid=0x0:0xda82996af52cd917,
perumahan,Komplek perumahan,Komp. Perumahan Kota Kapuas Baru,"Jl. Mandomai Kapuas, Pulau Telo, Kec. Selat, Kabupaten Kapuas, Kalimantan Tengah 73516","Pulau Telo, Kec. Selat, Kabupaten Kapuas",BALI,73516.0,Indonesia,8978862745.0,,,-2.9620163,114.3881623,https://maps.google.com/?cid=0x0:0xb99cde2ac7649e06,
perumahan,perumahan,Selat Bali,,,BALI,,Indonesia,,,,-8.1,114.425,https://maps.google.com/?cid=0x0:0x2a027a7715df34d0,
perumahan,Pembangunan Perumahan,Kuala kapyas,"299P+VGP, Pulau Telo, Kec. Selat, Kabupaten Kapuas, Kalimantan Tengah","Kabupaten Kapuas, Kalimantan Tengah",BALI,,Indonesia,,,,-2.980275,114.3863156,https://maps.google.com/?cid=0x0:0xb94baf74f1b10a9d,
perumahan,perumahan,Selat,"Pering Sari, Kec. Selat, Kabupaten Karangasem, Bali","Kabupaten Karangasem, Bali",BALI,,Indonesia,,,,-8.437853,115.465897,https://maps.google.com/?cid=0x0:0x22f53a4a73abc935,
perumahan,Komplek perumahan,Rumah Pageh Widiastra,"HF78+4P3, Pering Sari, Kec. Selat, Kabupaten Karangasem, Bali 80862","Pering Sari, Kec. Selat, Kabupaten Karangasem",BALI,80862.0,Indonesia,,,,-8.4372329,115.4667965,https://maps.google.com/?cid=0x0:0x11f9ba078ba90fed,
perumahan,Komplek perumahan,MKYF HOME,"HF68+PGG, Br Umasari Kangin, Pering Sari, Kec. Selat, Kabupaten Karangasem, Bali 80862","Br Umasari Kangin, Pering Sari, Kec. Selat, Kabupaten Karangasem",BALI,80862.0,Indonesia,,,,-8.4381916,115.466314,https://maps.google.com/?cid=0x0:0x1b0f2f5c7869a790,
perumahan,Komplek perumahan,Rasya kusuma home,"HF77+8JF, Pering Sari, Kec. Selat, Kabupaten Karangasem, Bali 80862","Pering Sari, Kec. Selat, Kabupaten Karangasem",BALI,80862.0,Indonesia,85238932000.0,,,-8.4367022,115.4646533,https://maps.google.com/?cid=0x0:0xe28358adaf27ca75,
perumahan,Komplek perumahan,Rumah mng jabir,"HF78+2H8, Jln. Umacetra, Umesari Kangin, Pering Sari, Kec. Selat, Kabupaten Karangasem, Bali","Kabupaten Karangasem, Bali",BALI,,Indonesia,,,,-8.4375602,115.4664699,https://maps.google.com/?cid=0x0:0xede5dc9c20c6c4b6,
perumahan,Komplek perumahan,Made Budi Shinobi's House,"HF77+8JF, Pering Sari, Kec. Selat, Kabupaten Karangasem, Bali 80862","Pering Sari, Kec. Selat, Kabupaten Karangasem",BALI,80862.0,Indonesia,,,,-8.4367811,115.4647378,https://maps.google.com/?cid=0x0:0xedafa3f5d0776a27,
perumahan,Komplek perumahan,Rumah Danan Jaya,"HF68+PFV Br.Dinas Umasari Kangin, Pering Sari, Kec. Selat, Kabupaten Karangasem, Bali","Kabupaten Karangasem, Bali",BALI,,Indonesia,,,,-8.438128,115.4661796,https://maps.google.com/?cid=0x0:0xc3cfa56ed0c1c347,
perumahan,Hostel,Rumah kt swidnya,"HF78+2FV, Br dinas umasari kangin, Pering Sari","Kabupaten Karangasem, Bali",BALI,,Indonesia,,,,-8.4373807,115.4661853,https://maps.google.com/?cid=0x0:0x3418428256ee1392,
perumahan,Komplek perumahan,Astari Dewi Home,"HF68+PFV Br. Dinas Umasari Kangin, Pering Sari, Kec. Selat, Kabupaten Karangasem, Bali","Kabupaten Karangasem, Bali",BALI,,Indonesia,,,,-8.438128,115.4661796,https://maps.google.com/?cid=0x0:0xde4858d074fbfd63,
perumahan,perumahan,Selat Bali,,,BALI,,Indonesia,,,,-8.1,114.425,https://maps.google.com/?cid=0x0:0x2a027a7715df34d0,
perumahan,Balai masyarakat,Gang utara balai banjar umasari kangin,"HF68+RG8, Gg. Umasari Gg. Kaja Kangin, Pering Sari, Kec. Selat, Kabupaten Karangasem, Bali 80862","Gg. Umasari Gg. Kaja Kangin, Pering Sari, Kec. Selat, Kabupaten Karangasem",BALI,80862.0,Indonesia,,,,-8.4379542,115.4663168,https://maps.google.com/?cid=0x0:0x60034715ca85e9eb,
perumahan,Pembangunan Perumahan,Komplek-Lili-Permata,"29WQ+62H, Pulau Telo, Kec. Selat, Kabupaten Kapuas, Kalimantan Tengah 73516","Pulau Telo, Kec. Selat, Kabupaten Kapuas",BALI,73516.0,Indonesia,,,,-2.9544275,114.3876237,https://maps.google.com/?cid=0x0:0xbaf0f0b55511287f,
perumahan,Pembangunan Perumahan,Komplek-Lily-Permata,"Komplek Lily Permata, A9l. Jepang No.09, RT.007, Pulau Telo, Kec. Selat, Kabupaten Kapuas, Kalimantan Tengah 73516","A9l. Jepang No.09, RT.007, Pulau Telo, Kec. Selat, Kabupaten Kapuas",BALI,73516.0,Indonesia,,,,-2.9817662,114.3861719,https://maps.google.com/?cid=0x0:0xeadb05ec236cb55d,
perumahan,Pembangunan Perumahan,Land Of Dawn,"komplek lily permata, Jl. Jepang, Pulau Telo, Kec. Selat, Kabupaten Kapuas, Kalimantan Tengah 73516","Jl. Jepang, Pulau Telo, Kec. Selat, Kabupaten Kapuas",BALI,73516.0,Indonesia,,,,-2.9830833,114.3886061,https://maps.google.com/?cid=0x0:0x6d57390c929ff752,
perumahan,Komplek perumahan,Rumah Pageh Widiastra,"HF78+4P3, Pering Sari, Kec. Selat, Kabupaten Karangasem, Bali 80862","Pering Sari, Kec. Selat, Kabupaten Karangasem",BALI,80862.0,Indonesia,,,,-8.4372329,115.4667965,https://maps.google.com/?cid=0x0:0x11f9ba078ba90fed,
perumahan,Komplek perumahan,MKYF HOME,"HF68+PGG, Br Umasari Kangin, Pering Sari, Kec. Selat, Kabupaten Karangasem, Bali 80862","Br Umasari Kangin, Pering Sari, Kec. Selat, Kabupaten Karangasem",BALI,80862.0,Indonesia,,,,-8.4381916,115.466314,https://maps.google.com/?cid=0x0:0x1b0f2f5c7869a790,
perumahan,perumahan,Selat,"Pering Sari, Kec. Selat, Kabupaten Karangasem, Bali","Kabupaten Karangasem, Bali",BALI,,Indonesia,,,,-8.437853,115.465897,https://maps.google.com/?cid=0x0:0x22f53a4a73abc935,
perumahan,Komplek perumahan,Made Budi Shinobi's House,"HF77+8JF, Pering Sari, Kec. Selat, Kabupaten Karangasem, Bali 80862","Pering Sari, Kec. Selat, Kabupaten Karangasem",BALI,80862.0,Indonesia,,,,-8.4367811,115.4647378,https://maps.google.com/?cid=0x0:0xedafa3f5d0776a27,
perumahan,Komplek perumahan,Rasya kusuma home,"HF77+8JF, Pering Sari, Kec. Selat, Kabupaten Karangasem, Bali 80862","Pering Sari, Kec. Selat, Kabupaten Karangasem",BALI,80862.0,Indonesia,85238932000.0,,,-8.4367022,115.4646533,https://maps.google.com/?cid=0x0:0xe28358adaf27ca75,
perumahan,Komplek perumahan,Rumah Danan Jaya,"HF68+PFV Br.Dinas Umasari Kangin, Pering Sari, Kec. Selat, Kabupaten Karangasem, Bali","Kabupaten Karangasem, Bali",BALI,,Indonesia,,,,-8.438128,115.4661796,https://maps.google.com/?cid=0x0:0xc3cfa56ed0c1c347,
perumahan,Komplek perumahan,Rumah mng jabir,"HF78+2H8, Jln. Umacetra, Umesari Kangin, Pering Sari, Kec. Selat, Kabupaten Karangasem, Bali","Kabupaten Karangasem, Bali",BALI,,Indonesia,,,,-8.4375602,115.4664699,https://maps.google.com/?cid=0x0:0xede5dc9c20c6c4b6,
perumahan,Balai masyarakat,Gang utara balai banjar umasari kangin,"HF68+RG8, Gg. Umasari Gg. Kaja Kangin, Pering Sari, Kec. Selat, Kabupaten Karangasem, Bali 80862","Gg. Umasari Gg. Kaja Kangin, Pering Sari, Kec. Selat, Kabupaten Karangasem",BALI,80862.0,Indonesia,,,,-8.4379542,115.4663168,https://maps.google.com/?cid=0x0:0x60034715ca85e9eb,
perumahan,Komplek perumahan,Astari Dewi Home,"HF68+PFV Br. Dinas Umasari Kangin, Pering Sari, Kec. Selat, Kabupaten Karangasem, Bali","Kabupaten Karangasem, Bali",BALI,,Indonesia,,,,-8.438128,115.4661796,https://maps.google.com/?cid=0x0:0xde4858d074fbfd63,
perumahan,Hostel,Rumah kt swidnya,"HF78+2FV, Br dinas umasari kangin, Pering Sari","Kabupaten Karangasem, Bali",BALI,,Indonesia,,,,-8.4373807,115.4661853,https://maps.google.com/?cid=0x0:0x3418428256ee1392,
perumahan,Pembangunan Perumahan,Lodekan hause,"HF68+RGR, Gang sebelah utara balai Banjar umasari kangin, Pering Sari, Kec. Selat, Kabupaten Karangasem, Bali 80862","Gang sebelah utara balai Banjar umasari kangin, Pering Sari, Kec. Selat, Kabupaten Karangasem",BALI,80862.0,Indonesia,,,,-8.4378895,115.4662576,https://maps.google.com/?cid=0x0:0xda82996af52cd917,
perumahan,Komplek perumahan,Rumah I Wayan Yasa,"HF78+3H, Pering Sari, Kec. Selat, Kabupaten Karangasem, Bali","Kabupaten Karangasem, Bali",BALI,,Indonesia,,,,-8.4373125,115.4664375,https://maps.google.com/?cid=0x0:0xb4fd1594f54e1719,
perumahan,perumahan,Kec. Selat,"Kabupaten Kapuas, Kalimantan Tengah","Kabupaten Kapuas, Kalimantan Tengah",BALI,,Indonesia,,,,-3.0083243,114.3887747,https://maps.google.com/?cid=0x0:0x9d26cccb7f59dfce,
perumahan,perumahan,Bali,,Bali,BALI,,Indonesia,,,,-8.4095178,115.188916,https://maps.google.com/?cid=0x0:0x24910fb14b24e690,
perumahan,Komplek perumahan,Komp. Perumahan Kota Kapuas Baru,"Jl. Mandomai Kapuas, Pulau Telo, Kec. Selat, Kabupaten Kapuas, Kalimantan Tengah 73516","Pulau Telo, Kec. Selat, Kabupaten Kapuas",BALI,73516.0,Indonesia,8978862745.0,,,-2.9620163,114.3881623,https://maps.google.com/?cid=0x0:0xb99cde2ac7649e06,
perumahan,Komplek perumahan,Perumahan NSD,"2CQ9+W3V, Selat Hulu, Kec. Selat, Kabupaten Kapuas, Kalimantan Tengah 73581","Selat Hulu, Kec. Selat, Kabupaten Kapuas",BALI,73581.0,Indonesia,,,,-2.9601267,114.4176785,https://maps.google.com/?cid=0x0:0x6e851adb83e44a5,
perumahan,Komplek perumahan,Rumah Dhea,"X9PV+XG4, Jl. Barito Gg. Lumba-Lumba, Selat Tengah, Kec. Selat, Kabupaten Kapuas, Kalimantan Tengah 73516","Jl. Barito Gg. Lumba-Lumba, Selat Tengah, Kec. Selat, Kabupaten Kapuas",BALI,73516.0,Indonesia,,,,-3.0126055,114.3938399,https://maps.google.com/?cid=0x0:0x6102f9b0b97e1872,
perumahan,Pembangunan Perumahan,Rumah lala,"X9QW+53J, Jl. Barito Gg. Lumba-Lumba, Selat Tengah, Kec. Selat, Kabupaten Kapuas, Kalimantan Tengah 73516","Jl. Barito Gg. Lumba-Lumba, Selat Tengah, Kec. Selat, Kabupaten Kapuas",BALI,73516.0,Indonesia,,,,-3.012048,114.3951429,https://maps.google.com/?cid=0x0:0x87ab61331caadbf7,
perumahan,Komplek perumahan,RUAM MUNAWIR AG,"X9PW+F5G, Selat Tengah, Kec. Selat, Kabupaten Kapuas, Kalimantan Tengah","Kabupaten Kapuas, Kalimantan Tengah",BALI,,Indonesia,,,,-3.0138175,114.3954575,https://maps.google.com/?cid=0x0:0xc175d6774a26b90d,
perumahan,perumahan,Selat,"Pering Sari, Kec. Selat, Kabupaten Karangasem, Bali","Kabupaten Karangasem, Bali",BALI,,Indonesia,,,,-8.437853,115.465897,https://maps.google.com/?cid=0x0:0x22f53a4a73abc935,
perumahan,Komplek perumahan,Rumah Pageh Widiastra,"HF78+4P3, Pering Sari, Kec. Selat, Kabupaten Karangasem, Bali 80862","Pering Sari, Kec. Selat, Kabupaten Karangasem",BALI,80862.0,Indonesia,,,,-8.4372329,115.4667965,https://maps.google.com/?cid=0x0:0x11f9ba078ba90fed,
perumahan,Komplek perumahan,Rasya kusuma home,"HF77+8JF, Pering Sari, Kec. Selat, Kabupaten Karangasem, Bali 80862","Pering Sari, Kec. Selat, Kabupaten Karangasem",BALI,80862.0,Indonesia,85238932000.0,,,-8.4367022,115.4646533,https://maps.google.com/?cid=0x0:0xe28358adaf27ca75,
perumahan,Komplek perumahan,MKYF HOME,"HF68+PGG, Br Umasari Kangin, Pering Sari, Kec. Selat, Kabupaten Karangasem, Bali 80862","Br Umasari Kangin, Pering Sari, Kec. Selat, Kabupaten Karangasem",BALI,80862.0,Indonesia,,,,-8.4381916,115.466314,https://maps.google.com/?cid=0x0:0x1b0f2f5c7869a790,
perumahan,Komplek perumahan,Rumah Danan Jaya,"HF68+PFV Br.Dinas Umasari Kangin, Pering Sari, Kec. Selat, Kabupaten Karangasem, Bali","Kabupaten Karangasem, Bali",BALI,,Indonesia,,,,-8.438128,115.4661796,https://maps.google.com/?cid=0x0:0xc3cfa56ed0c1c347,
perumahan,Komplek perumahan,Made Budi Shinobi's House,"HF77+8JF, Pering Sari, Kec. Selat, Kabupaten Karangasem, Bali 80862","Pering Sari, Kec. Selat, Kabupaten Karangasem",BALI,80862.0,Indonesia,,,,-8.4367811,115.4647378,https://maps.google.com/?cid=0x0:0xedafa3f5d0776a27,
perumahan,Hostel,Rumah kt swidnya,"HF78+2FV, Br dinas umasari kangin, Pering Sari","Kabupaten Karangasem, Bali",BALI,,Indonesia,,,,-8.4373807,115.4661853,https://maps.google.com/?cid=0x0:0x3418428256ee1392,
perumahan,Komplek perumahan,Rumah mng jabir,"HF78+2H8, Jln. Umacetra, Umesari Kangin, Pering Sari, Kec. Selat, Kabupaten Karangasem, Bali","Kabupaten Karangasem, Bali",BALI,,Indonesia,,,,-8.4375602,115.4664699,https://maps.google.com/?cid=0x0:0xede5dc9c20c6c4b6,
perumahan,Komplek perumahan,Astari Dewi Home,"HF68+PFV Br. Dinas Umasari Kangin, Pering Sari, Kec. Selat, Kabupaten Karangasem, Bali","Kabupaten Karangasem, Bali",BALI,,Indonesia,,,,-8.438128,115.4661796,https://maps.google.com/?cid=0x0:0xde4858d074fbfd63,
perumahan,Pembangunan Perumahan,Lodekan hause,"HF68+RGR, Gang sebelah utara balai Banjar umasari kangin, Pering Sari, Kec. Selat, Kabupaten Karangasem, Bali 80862","Gang sebelah utara balai Banjar umasari kangin, Pering Sari, Kec. Selat, Kabupaten Karangasem",BALI,80862.0,Indonesia,,,,-8.4378895,115.4662576,https://maps.google.com/?cid=0x0:0xda82996af52cd917,
perumahan,Balai masyarakat,Gang utara balai banjar umasari kangin,"HF68+RG8, Gg. Umasari Gg. Kaja Kangin, Pering Sari, Kec. Selat, Kabupaten Karangasem, Bali 80862","Gg. Umasari Gg. Kaja Kangin, Pering Sari, Kec. Selat, Kabupaten Karangasem",BALI,80862.0,Indonesia,,,,-8.4379542,115.4663168,https://maps.google.com/?cid=0x0:0x60034715ca85e9eb,
perumahan,Pusat Kegiatan Warga,Balai Banjar Selat Belega Blahbatuh,"C8J7+VMC, Jl. Banjar Selat, Belega, Kec. Blahbatuh, Kabupaten Gianyar, Bali 80581","Jl. Banjar Selat, Belega, Kec. Blahbatuh, Kabupaten Gianyar",BALI,80581.0,Indonesia,,,,-8.5678161,115.3141365,https://maps.google.com/?cid=0x0:0x9337bbaaac99f9d3,
perumahan,Tempat acara,Jalan banjar selat belega,"Gg. Sahadewa Jl. Banjar Selat No.3, Belega, Kec. Blahbatuh, Kabupaten Gianyar, Bali 80581","Belega, Kec. Blahbatuh, Kabupaten Gianyar",BALI,80581.0,Indonesia,,,,-8.5676737,115.3149843,https://maps.google.com/?cid=0x0:0x2d99bd005c8a1ed,
perumahan,Komplek perumahan,Perumahan Pemuda Permai,"X9XW+V3C, Selat Tengah, Kec. Selat, Kabupaten Kapuas, Kalimantan Tengah 73516","Selat Tengah, Kec. Selat, Kabupaten Kapuas",BALI,73516.0,Indonesia,85233623636.0,,,-3.0003049,114.3951442,https://maps.google.com/?cid=0x0:0x3ae56e7c05910cb3,
perumahan,perumahan,Kalimantan Tengah 73516,Kalimantan Tengah,Kalimantan Tengah,BALI,,Indonesia,,,,-2.9883279,114.3103718,https://maps.google.com/?cid=0x0:0x7f8e8af654c2b83e,
perumahan,Komplek perumahan,Perumahan Green Pilau,"292J+FR9, Jl. Pilau, Selat Tengah, Kec. Selat, Kabupaten Kapuas, Kalimantan Tengah 73516","Jl. Pilau, Selat Tengah, Kec. Selat, Kabupaten Kapuas",BALI,73516.0,Indonesia,,,,-2.998849,114.3821013,https://maps.google.com/?cid=0x0:0xa0f53eb00589e80b,
perumahan,Komplek perumahan,Perumahan NSD,"2CQ9+W3V, Selat Hulu, Kec. Selat, Kabupaten Kapuas, Kalimantan Tengah 73581","Selat Hulu, Kec. Selat, Kabupaten Kapuas",BALI,73581.0,Indonesia,,,,-2.9601267,114.4176785,https://maps.google.com/?cid=0x0:0x6e851adb83e44a5,
perumahan,Komplek perumahan,Rumah Ixand,"Jl. Tambun Bungai Gg. III No.77, Selat Tengah, Kec. Selat, Kabupaten Kapuas, Kalimantan Tengah 73516","Selat Tengah, Kec. Selat, Kabupaten Kapuas",BALI,73516.0,Indonesia,,,,-3.0090484,114.3917935,https://maps.google.com/?cid=0x0:0xec4e4143b2689dc4,
perumahan,Komplek perumahan,Komplek Griya Agung Mandiri,"Selat Dalam, Kec. Selat, Kabupaten Kapuas, Kalimantan Tengah 73516","Kec. Selat, Kabupaten Kapuas",BALI,73516.0,Indonesia,,,,-2.984955,114.3987917,https://maps.google.com/?cid=0x0:0x5de030805371315a,
perumahan,Komplek perumahan,Rumah Maheza dan Adiza,"Jl. Patih Rumbih Gg.5 No.74, Barat, Kec. Selat, Kabupaten Kapuas, Kalimantan Tengah 73516","Barat, Kec. Selat, Kabupaten Kapuas",BALI,73516.0,Indonesia,,,,-3.0067543,114.3810293,https://maps.google.com/?cid=0x0:0xce76efa7c95bc4da,
perumahan,Pembangunan Perumahan,Anes,"Jl. Patih Rumbih Gg. 10 No.7, Selat Tengah, Kec. Selat, Kabupaten Kapuas, Kalimantan Tengah 73516","Selat Tengah, Kec. Selat, Kabupaten Kapuas",BALI,73516.0,Indonesia,,,,-3.0038704,114.3816808,https://maps.google.com/?cid=0x0:0xa1a25701eacaac76,
perumahan,Pembangunan Perumahan,"Rumah H.YALLIANSYAH, BBA.","X9MV+MW9, Selat Tengah, Kec. Selat, Kabupaten Kapuas, Kalimantan Tengah 73516","Selat Tengah, Kec. Selat, Kabupaten Kapuas",BALI,73516.0,Indonesia,,,,-3.015918,114.3948743,https://maps.google.com/?cid=0x0:0x284bf59ee938fdba,
perumahan,Komplek perumahan,Posko LTT,"Jl. Cilik Riwut No.17, Selat Tengah, Kec. Selat, Kabupaten Kapuas, Kalimantan Tengah 73516","Selat Tengah, Kec. Selat, Kabupaten Kapuas",BALI,73516.0,Indonesia,,,,-2.9993145,114.3912354,https://maps.google.com/?cid=0x0:0x45222a6ae062f6a4,
perumahan,Komplek perumahan,Ririn rumah,"X9VV+HM2, Gg. 1B, Selat Tengah, Kec. Selat, Kabupaten Kapuas, Kalimantan Tengah 73516","Gg. 1B, Selat Tengah, Kec. Selat, Kabupaten Kapuas",BALI,73516.0,Indonesia,,,,-3.0061044,114.3941374,https://maps.google.com/?cid=0x0:0x2663b0be7a713e22,
perumahan,Komplek perumahan,Reisa,"X9RG+5V2, Jl. Sumatera Gg. VIII, Selat Hilir, Kec. Selat, Kabupaten Kapuas, Kalimantan Tengah 73516","Jl. Sumatera Gg. VIII, Selat Hilir, Kec. Selat, Kabupaten Kapuas",BALI,73516.0,Indonesia,,,,-3.0096129,114.377145,https://maps.google.com/?cid=0x0:0x9cfbd7fbec76cdef,
perumahan,Komplek perumahan,Komplek Alfatina,"296Q+59P, Jl. Semangat Baru, Selat Dalam, Kec. Selat, Kabupaten Kapuas, Kalimantan Tengah 73516","Jl. Semangat Baru, Selat Dalam, Kec. Selat, Kabupaten Kapuas",BALI,73516.0,Indonesia,,,,-2.989533,114.3884388,https://maps.google.com/?cid=0x0:0x1c6703a4b4f5dd98,
perumahan,Komplek perumahan,Rumah iki,"X9XX+34P, Selat Tengah, Kec. Selat, Kabupaten Kapuas, Kalimantan Tengah 73516","Selat Tengah, Kec. Selat, Kabupaten Kapuas",BALI,73516.0,Indonesia,,,,-3.0022938,114.3978332,https://maps.google.com/?cid=0x0:0xf9a5466b370d2311,
perumahan,Komplek perumahan,R family,"Jl. Patih Rumbih Gg. IV No.107, Selat Tengah, Kec. Selat, Kabupaten Kapuas, Kalimantan Tengah 73516","Selat Tengah, Kec. Selat, Kabupaten Kapuas",BALI,73516.0,Indonesia,,,,-3.007209,114.38158,https://maps.google.com/?cid=0x0:0xa13acc76d75366e7,
perumahan,Pembangunan Perumahan,Rumah Asn,"Jl. Keruing No.118, Selat Dalam, Kec. Selat, Kabupaten Kapuas, Kalimantan Tengah 73516","Selat Dalam, Kec. Selat, Kabupaten Kapuas",BALI,73516.0,Indonesia,,,,-3.0029293,114.3863017,https://maps.google.com/?cid=0x0:0xbd7b60f954fcfde9,
perumahan,perumahan,Selat,"Pering Sari, Kec. Selat, Kabupaten Karangasem, Bali","Kabupaten Karangasem, Bali",BALI,,Indonesia,,,,-8.437853,115.465897,https://maps.google.com/?cid=0x0:0x22f53a4a73abc935,
perumahan,Komplek perumahan,MKYF HOME,"HF68+PGG, Br Umasari Kangin, Pering Sari, Kec. Selat, Kabupaten Karangasem, Bali 80862","Br Umasari Kangin, Pering Sari, Kec. Selat, Kabupaten Karangasem",BALI,80862.0,Indonesia,,,,-8.4381916,115.466314,https://maps.google.com/?cid=0x0:0x1b0f2f5c7869a790,
perumahan,Komplek perumahan,Rasya kusuma home,"HF77+8JF, Pering Sari, Kec. Selat, Kabupaten Karangasem, Bali 80862","Pering Sari, Kec. Selat, Kabupaten Karangasem",BALI,80862.0,Indonesia,85238932000.0,,,-8.4367022,115.4646533,https://maps.google.com/?cid=0x0:0xe28358adaf27ca75,
perumahan,Komplek perumahan,Rumah Pageh Widiastra,"HF78+4P3, Pering Sari, Kec. Selat, Kabupaten Karangasem, Bali 80862","Pering Sari, Kec. Selat, Kabupaten Karangasem",BALI,80862.0,Indonesia,,,,-8.4372329,115.4667965,https://maps.google.com/?cid=0x0:0x11f9ba078ba90fed,
perumahan,Komplek perumahan,Rasya adiputra,"HF77+8JF, Pering Sari, Kec. Selat, Kabupaten Karangasem, Bali 80862","Pering Sari, Kec. Selat, Kabupaten Karangasem",BALI,80862.0,Indonesia,,,,-8.4367568,115.4645267,https://maps.google.com/?cid=0x0:0x4ea1aa1437758574,
perumahan,Pembangunan Perumahan,Lodekan hause,"HF68+RGR, Gang sebelah utara balai Banjar umasari kangin, Pering Sari, Kec. Selat, Kabupaten Karangasem, Bali 80862","Gang sebelah utara balai Banjar umasari kangin, Pering Sari, Kec. Selat, Kabupaten Karangasem",BALI,80862.0,Indonesia,,,,-8.4378895,115.4662576,https://maps.google.com/?cid=0x0:0xda82996af52cd917,
perumahan,Komplek perumahan,Rumah mng jabir,"HF78+2H8, Jln. Umacetra, Umesari Kangin, Pering Sari, Kec. Selat, Kabupaten Karangasem, Bali","Kabupaten Karangasem, Bali",BALI,,Indonesia,,,,-8.4375602,115.4664699,https://maps.google.com/?cid=0x0:0xede5dc9c20c6c4b6,
perumahan,Komplek perumahan,Rumah Danan Jaya,"HF68+PFV Br.Dinas Umasari Kangin, Pering Sari, Kec. Selat, Kabupaten Karangasem, Bali","Kabupaten Karangasem, Bali",BALI,,Indonesia,,,,-8.438128,115.4661796,https://maps.google.com/?cid=0x0:0xc3cfa56ed0c1c347,
perumahan,Komplek perumahan,Astari Dewi Home,"HF68+PFV Br. Dinas Umasari Kangin, Pering Sari, Kec. Selat, Kabupaten Karangasem, Bali","Kabupaten Karangasem, Bali",BALI,,Indonesia,,,,-8.438128,115.4661796,https://maps.google.com/?cid=0x0:0xde4858d074fbfd63,
perumahan,Hostel,Rumah kt swidnya,"HF78+2FV, Br dinas umasari kangin, Pering Sari","Kabupaten Karangasem, Bali",BALI,,Indonesia,,,,-8.4373807,115.4661853,https://maps.google.com/?cid=0x0:0x3418428256ee1392,
perumahan,Rumah wisata,Rumah Kadek Budiarta,"HF78+584 Br dinas umasari kangin, Pering Sari, Kec. Selat, Kabupaten Karangasem, Bali","Kabupaten Karangasem, Bali",BALI,,Indonesia,,,,-8.4371065,115.4658322,https://maps.google.com/?cid=0x0:0x43d1d03223b06140,
perumahan,Komplek perumahan,Rumah I Wayan Yasa,"HF78+3H, Pering Sari, Kec. Selat, Kabupaten Karangasem, Bali","Kabupaten Karangasem, Bali",BALI,,Indonesia,,,,-8.4373125,115.4664375,https://maps.google.com/?cid=0x0:0xb4fd1594f54e1719,
perumahan,Balai masyarakat,Gang utara balai banjar umasari kangin,"HF68+RG8, Gg. Umasari Gg. Kaja Kangin, Pering Sari, Kec. Selat, Kabupaten Karangasem, Bali 80862","Gg. Umasari Gg. Kaja Kangin, Pering Sari, Kec. Selat, Kabupaten Karangasem",BALI,80862.0,Indonesia,,,,-8.4379542,115.4663168,https://maps.google.com/?cid=0x0:0x60034715ca85e9eb,
perumahan,perumahan,Bali 80862,"Kec. Selat, Kabupaten Karangasem, Bali","Kabupaten Karangasem, Bali",BALI,,Indonesia,,,,-8.4194238,115.4852012,https://maps.google.com/?cid=0x0:0x1c00c5eb6016c090,
perumahan,Komplek perumahan,rumah tu suartaka,"HFHQ+M99, Duda Utara, Kec. Selat, Kabupaten Karangasem, Bali 80862","Duda Utara, Kec. Selat, Kabupaten Karangasem",BALI,80862.0,Indonesia,,,,-8.421432,115.488407,https://maps.google.com/?cid=0x0:0x1dc70288bab9bf80,
perumahan,Komplek perumahan,Tu adi,"HFHQ+XPV, Amerta Bhuana, Kec. Selat, Kabupaten Karangasem, Bali 80862","Amerta Bhuana, Kec. Selat, Kabupaten Karangasem",BALI,80862.0,Indonesia,,,,-8.4200219,115.489566,https://maps.google.com/?cid=0x0:0x4cf50bf393ef433f,
perumahan,Komplek perumahan,Rumah Poh,"HGP2+F6, Duda Utara, Kec. Selat, Kabupaten Karangasem, Bali 80862","Duda Utara, Kec. Selat, Kabupaten Karangasem",BALI,80862.0,Indonesia,,,,-8.41387,115.500065,https://maps.google.com/?cid=0x0:0xd9dccc5a02a5f900,
perumahan,Komplek perumahan,Rumah,"HFVC+RQQ, Jl. Badeg Kelodan, Sebudi, Kec. Selat, Kabupaten Karangasem, Bali 80862","Jl. Badeg Kelodan, Sebudi, Kec. Selat, Kabupaten Karangasem",BALI,80862.0,Indonesia,,,,-8.4046672,115.4723765,https://maps.google.com/?cid=0x0:0x41285e962dbd6d38,
perumahan,Komplek perumahan,Pak Jero Selat,"HFGF+CQX, Pering Sari, Kec. Selat, Kabupaten Karangasem, Bali 80862","Pering Sari, Kec. Selat, Kabupaten Karangasem",BALI,80862.0,Indonesia,,,,-8.4243739,115.4745529,https://maps.google.com/?cid=0x0:0xc07e015fe0dcbc45,
perumahan,Balai masyarakat,"Padang Tunggal, Selat Duda Karangasem","Jl. Padang Tunggal, Duda, Kec. Selat, Kabupaten Karangasem, Bali 80862","Duda, Kec. Selat, Kabupaten Karangasem",BALI,80862.0,Indonesia,,,,-8.4515763,115.4781584,https://maps.google.com/?cid=0x0:0x7d3b14d0021de16d,
perumahan,Perumahan,Rumah tut day/sukarba,"HF56+3R, Pering Sari, Kec. Selat, Kabupaten Karangasem, Bali 80862","Pering Sari, Kec. Selat, Kabupaten Karangasem",BALI,80862.0,Indonesia,82339389390.0,,,-8.4423381,115.4620352,https://maps.google.com/?cid=0x0:0xfa1f6f0a042c97d,
perumahan,Komplek perumahan,Home suastika,"HF79+QR9, Jl. Baledan, Pering Sari, Kec. Selat, Kabupaten Karangasem, Bali 80862","Jl. Baledan, Pering Sari, Kec. Selat, Kabupaten Karangasem",BALI,80862.0,Indonesia,,,,-8.436026,115.469498,https://maps.google.com/?cid=0x0:0x8d43f2c238becbbc,
perumahan,Komplek perumahan,pondok suastika,"HFMR+MXV, Amerta Bhuana, Kec. Selat, Kabupaten Karangasem, Bali 80862","Amerta Bhuana, Kec. Selat, Kabupaten Karangasem",BALI,80862.0,Indonesia,,,,-8.4157636,115.4924089,https://maps.google.com/?cid=0x0:0xf5883dd7f65a0e33,
perumahan,Perumahan,Martika house,"HF87+2Q2, Pering Sari, Kec. Selat, Kabupaten Karangasem, Bali 80862","Pering Sari, Kec. Selat, Kabupaten Karangasem",BALI,80862.0,Indonesia,,,,-8.4350125,115.4643846,https://maps.google.com/?cid=0x0:0x2e06952aa4f8c94d,
perumahan,Perumahan,Rumah pak sumatre,"HFHH+8QJ, Amerta Bhuana, Kec. Selat, Kabupaten Karangasem, Bali 80862","Amerta Bhuana, Kec. Selat, Kabupaten Karangasem",BALI,80862.0,Indonesia,,,,-8.4216537,115.4793971,https://maps.google.com/?cid=0x0:0x328e434c13426057,
perumahan,Perhimpunan Pengembang Perumahan,I Ketut Kepeg,"HF96+2RG, Jl. Raya Muncan, Pering Sari, Kec. Selat, Kabupaten Karangasem, Bali 80862","Jl. Raya Muncan, Pering Sari, Kec. Selat, Kabupaten Karangasem",BALI,80862.0,Indonesia,,,,-8.4323792,115.462056,https://maps.google.com/?cid=0x0:0xe4c5008111e7577,
perumahan,Komplek perumahan,Jero Selat Duda,"HF7F+HGV, Jl. Baledan, Selat, Kec. Selat, Kabupaten Karangasem, Bali 80862","Jl. Baledan, Selat, Kec. Selat, Kabupaten Karangasem",BALI,80862.0,Indonesia,,,,-8.4361079,115.473996,https://maps.google.com/?cid=0x0:0xdd620953ba529d81,
perumahan,Pembangunan Perumahan,"Pondok Komang Hendra ,Sukaluwih.","HFMV+99P, Jl. Penyangsaran, Desa Sukaluwih, Amerta Bhuana, Duda Utara, Kec. Selat, Kabupaten Karangasem, Bali 80862","Jl. Penyangsaran, Desa Sukaluwih, Amerta Bhuana, Duda Utara, Kec. Selat, Kabupaten Karangasem",BALI,80862.0,Indonesia,82145586649.0,,,-8.416535,115.4934454,https://maps.google.com/?cid=0x0:0x3434a6d9a744732b,
perumahan,perumahan,Jero Kelodan Dalem Jawi,"HF7G+726, Jl. Baledan, Selat, Kec. Selat, Kabupaten Karangasem, Bali 80862","Jl. Baledan, Selat, Kec. Selat, Kabupaten Karangasem",BALI,80862.0,Indonesia,,,,-8.4368402,115.4750013,https://maps.google.com/?cid=0x0:0x17b8b9aec630c7c5,
perumahan,perumahan,Bali 80864,"Kec. Sidemen, Kabupaten Karangasem, Bali","Kabupaten Karangasem, Bali",BALI,,Indonesia,,,,-8.4831122,115.4378152,https://maps.google.com/?cid=0x0:0x1c00c5eb6016c0b0,
perumahan,Perhimpunan Pengembang Perumahan,Perumahan Kluarga Besar PGSDT kelodan,"GC4X+CFM, Tri Eka Buana, Kec. Sidemen, Kabupaten Karangasem, Bali 80864","Tri Eka Buana, Kec. Sidemen, Kabupaten Karangasem",BALI,80864.0,Indonesia,,,,-8.4939112,115.4486717,https://maps.google.com/?cid=0x0:0x9f0d1433ac99d7a6,
perumahan,perumahan,Rumah Sidemen,"Budamanis, Jl. Sidemen No.Br, Kec. Sidemen, Kabupaten Karangasem, Bali 80864","Jl. Sidemen No.Br, Kec. Sidemen, Kabupaten Karangasem",BALI,80864.0,Indonesia,85737250169.0,,,-8.4662561,115.44573,https://maps.google.com/?cid=0x0:0xda9350297b36ec25,
perumahan,Komplek perumahan,Rumah pande,"GC3C+WPG, Wismakerta, Kec. Sidemen, Kabupaten Karangasem, Bali 80864","Wismakerta, Kec. Sidemen, Kabupaten Karangasem",BALI,80864.0,Indonesia,,,,-8.4951932,115.4218413,https://maps.google.com/?cid=0x0:0x94ba95a3b9984d28,
perumahan,Pembangunan Perumahan,Perumahan,"GCCW+3C8, Banjar kebon, Telaga Tawang, Kec. Sidemen, Kabupaten Karangasem, Bali 80864","Banjar kebon, Telaga Tawang, Kec. Sidemen, Kabupaten Karangasem",BALI,80864.0,Indonesia,,,,-8.4798496,115.4460745,https://maps.google.com/?cid=0x0:0x8101e4ebe1776d91,
perumahan,Toko Bebas Bea,Bandara Internasional I Gusti Ngurah Rai (DPS),"Bandara International I Gusti Ngurah Rai, Kabupaten Badung, Bali 80362",Kabupaten Badung,BALI,80362.0,Indonesia,85166911003.0,,,-8.7469933,115.1681655,https://maps.google.com/?cid=0x0:0xdf71da6ddd7bcc1f,
perumahan,Komplek perumahan,Gede Sutama,"GC8F+QFX, Sangkan Gn., Kec. Sidemen, Kabupaten Karangasem, Bali 80864","Sangkan Gn., Kec. Sidemen, Kabupaten Karangasem",BALI,80864.0,Indonesia,,,,-8.4830051,115.4237292,https://maps.google.com/?cid=0x0:0x207da106019b9100,
perumahan,Komplek perumahan,Batan Sabo Dauh Peken Sidemen Karangasem,"Sidemen, Kec. Sidemen, Kabupaten Karangasem, Bali 80864","Kec. Sidemen, Kabupaten Karangasem",BALI,80864.0,Indonesia,,,,-8.4647791,115.4465286,https://maps.google.com/?cid=0x0:0xcb7aa9055226eb27,
perumahan,Komplek perumahan,Rumah Kanda,"GCJV+2Q7, Telaga Tawang, Kec. Sidemen, Kabupaten Karangasem, Bali 80864","Telaga Tawang, Kec. Sidemen, Kabupaten Karangasem",BALI,80864.0,Indonesia,,,,-8.469974,115.4444218,https://maps.google.com/?cid=0x0:0xdd556e8d75845e06,
perumahan,Komplek perumahan,Mahardika's House,"GCFJ+8C6, Wismakerta, Kec. Sidemen, Kabupaten Karangasem, Bali 80864","Wismakerta, Kec. Sidemen, Kabupaten Karangasem",BALI,80864.0,Indonesia,,,,-8.4767241,115.4310168,https://maps.google.com/?cid=0x0:0xa4b3628986085885,
perumahan,Komplek perumahan,Bali Ayu,"GF33+5GM, Tri Eka Buana, Kec. Sidemen, Kabupaten Karangasem, Bali 80864","Tri Eka Buana, Kec. Sidemen, Kabupaten Karangasem",BALI,80864.0,Indonesia,,,,-8.4974612,115.454273,https://maps.google.com/?cid=0x0:0x896b3108c4404852,
perumahan,Komplek perumahan,Rumah panca TI,"GCMX+793, Sidemen, Kec. Sidemen, Kabupaten Karangasem, Bali 80864","Sidemen, Kec. Sidemen, Kabupaten Karangasem",BALI,80864.0,Indonesia,,,,-8.4668764,115.4499786,https://maps.google.com/?cid=0x0:0x781aacbfaf7c4a02,
perumahan,Komplek perumahan,Rumah Sutawan,"GC8C+47, Tangkup, Kec. Sidemen, Kabupaten Karangasem, Bali","Kabupaten Karangasem, Bali",BALI,,Indonesia,,,,-8.484718,115.420722,https://maps.google.com/?cid=0x0:0x1183240763bf2a56,
perumahan,Pembangunan Perumahan,Budiarta Desa,"GC4X+9F4, Tri Eka Buana, Kec. Sidemen, Kabupaten Karangasem, Bali 80864","Tri Eka Buana, Kec. Sidemen, Kabupaten Karangasem",BALI,80864.0,Indonesia,,,,-8.4941022,115.4487029,https://maps.google.com/?cid=0x0:0xc5d8d4cc68ee2bee,
perumahan,Komplek perumahan,Griya gede wanasari,"Jl. Semarapura-Karangasem No.16, Lokasari, Kec. Sidemen, Kabupaten Karangasem, Bali 80864","Lokasari, Kec. Sidemen, Kabupaten Karangasem",BALI,80864.0,Indonesia,,,,-8.5044081,115.4278816,https://maps.google.com/?cid=0x0:0x7374daa9fb1843da,
perumahan,Komplek perumahan,Rumah Wayan yadnya,"GCCX+P3W, Jalan, Telaga Tawang, Sidemen, Karangasem Regency, Bali","Kabupaten Karangasem, Bali",BALI,,Indonesia,,,,-8.4781258,115.4477172,https://maps.google.com/?cid=0x0:0x4cd40ccaee5dffd2,
perumahan,Perumahan,Rumah sumerta/dita aryani,"GC5G+HJ, Wismakerta, Kec. Sidemen, Kabupaten Karangasem, Bali 80864","Wismakerta, Kec. Sidemen, Kabupaten Karangasem",BALI,80864.0,Indonesia,81809196133.0,,,-8.4911165,115.4265955,https://maps.google.com/?cid=0x0:0xd8d8dcefd965263c,
perumahan,Perumahan,Goku Budiarta,"Jl. Semarapura-Karangasem No.16, Talibeng, Kec. Sidemen, Kabupaten Karangasem, Bali 80864","Talibeng, Kec. Sidemen, Kabupaten Karangasem",BALI,80864.0,Indonesia,,,,-8.4987097,115.4373019,https://maps.google.com/?cid=0x0:0xa94394b2f6fa3242,
perumahan,Komplek perumahan,Perumahan Medauh,"GC2J+2RH, Talibeng, Kec. Sidemen, Kabupaten Karangasem, Bali 80864","Talibeng, Kec. Sidemen, Kabupaten Karangasem",BALI,80864.0,Indonesia,,,,-8.4998823,115.432204,https://maps.google.com/?cid=0x0:0x64e1937919a9c235,
perumahan,Komplek perumahan,rumah ariawan,"GCF8+5G2, Sangkan Gn., Kec. Sidemen, Kabupaten Karangasem, Bali 80864","Sangkan Gn., Kec. Sidemen, Kabupaten Karangasem",BALI,80864.0,Indonesia,,,,-8.4771127,115.4162604,https://maps.google.com/?cid=0x0:0x460545e6f61345a7,
perumahan,perumahan,Griya Valud Sidemen,"Jl. Sidemen - Sangkan Gn., Telaga Tawang, Kec. Sidemen, Kabupaten Karangasem, Bali 80864","Telaga Tawang, Kec. Sidemen, Kabupaten Karangasem",BALI,80864.0,Indonesia,81236088446.0,,,-8.4683524,115.4403901,https://maps.google.com/?cid=0x0:0x8dd2adb7fe095c7e,
perumahan,Komplek perumahan,NurtaHome,"FCXV+28G, Talibeng, Kec. Sidemen, Kabupaten Karangasem, Bali","Kabupaten Karangasem, Bali",BALI,,Indonesia,,,,-8.5015684,115.4424557,https://maps.google.com/?cid=0x0:0xfd814f8bfb641d83,
perumahan,Komplek perumahan,Banjar Kebon,"GC9W+VQW, Banjar Kebon, Telaga Tawang, Kec. Sidemen, Kabupaten Karangasem, Bali 80864","Banjar Kebon, Telaga Tawang, Kec. Sidemen, Kabupaten Karangasem",BALI,80864.0,Indonesia,,,,-8.4802683,115.4469675,https://maps.google.com/?cid=0x0:0xd7b8a3507f0beb37,
perumahan,Kantor Pemerintah,Perumahan Camat Sidemen,"GFV2+JM8, Jl. Semarapura-Karangasem, Sindu Wati, Kec. Sidemen, Kabupaten Karangasem, Bali 80864","Jl. Semarapura-Karangasem, Sindu Wati, Kec. Sidemen, Kabupaten Karangasem",BALI,80864.0,Indonesia,,,,-8.4559578,115.4516916,https://maps.google.com/?cid=0x0:0xae605f0ab69ff096,
perumahan,perumahan,Natural View House  Restaurant - Sidemen,"GC6M+MMH, Wismakerta, Kec. Sidemen, Kabupaten Karangasem, Bali 80864","Wismakerta, Kec. Sidemen, Kabupaten Karangasem",BALI,80864.0,Indonesia,81246747107.0,,,-8.4883033,115.4342346,https://maps.google.com/?cid=0x0:0xda98f99363887cec,
perumahan,Komplek perumahan,Rumah OshIN,"GCPX+QC8, Gg. Cempaka Kuning, Sidemen, Kec. Sidemen, Kabupaten Karangasem, Bali 80864","Gg. Cempaka Kuning, Sidemen, Kec. Sidemen, Kabupaten Karangasem",BALI,80864.0,Indonesia,,,,-8.4630875,115.4485781,https://maps.google.com/?cid=0x0:0xd09fba997c673b18,
perumahan,Titik Pemandangan,Tukad cepung waterfall,"Jl. Tembuku, Tembuku, Kec. Tembuku, Kabupaten Bangli, Bali 80671","Tembuku, Kec. Tembuku, Kabupaten Bangli",BALI,80671.0,Indonesia,87863220041.0,,,-8.4410173,115.3868079,https://maps.google.com/?cid=0x0:0xbd3a446ae88503f,
