Category,Real Category,Business Name,Address,City,State,Postal Code,Country,Phone,Email,Website,Latitude,Longitude,Map Link,Details Link
building materials,Toko Bahan Bangunan,"penjualan material bangunan, batu, pasir","Waenai, Naru, Bajawa, Kabupaten Ngada, Nusa Tenggara Tim. 86413","Naru, Bajawa, Kabupaten Ngada",NUSA TENGGARA TIMUR,86413.0,Indonesia,82145071014,,,-87.722.267,1.209.789.558,https://maps.google.com/?cid=0x0:0xd3d82f6ad59f712d,
building materials,Toko Bahan Bangunan,"Nuansa Jaya Abadi,Cv","Ngada, Jl. Basuki Rahmat, Tanalodu, Bajawa, Ngada Regency, East Nusa Tenggara 86412","Jl. Basuki Rahmat, Tanalodu, Bajawa, Ngada Regency",NUSA TENGGARA TIMUR,86412.0,Indonesia,85141722822,,,-87.901.931,1.209.747.459,https://maps.google.com/?cid=0x0:0x264d1a01de88fac8,
building materials,Kios,Toko Bahan Bangunan Nazareth,"Jl. Budi Oetomo No.5, Ngedukelu, Bajawa, Kabupaten Ngada, Nusa Tenggara Tim.","Kabupaten Ngada, Nusa Tenggara Tim.",NUSA TENGGARA TIMUR,,Indonesia,,,,-87.880.286,1.209.746.536,https://maps.google.com/?cid=0x0:0x2c5c5e8684cbe434,
building materials,Toko Bahan Bangunan,Toko Cemerlang,"6X6F+G26, Kisanata, Bajawa, Kabupaten Ngada, Nusa Tenggara Tim.","Kabupaten Ngada, Nusa Tenggara Tim.",NUSA TENGGARA TIMUR,,Indonesia,,,,-87.887.022,1.209.725.012,https://maps.google.com/?cid=0x0:0x134e98a0443147ee,
building materials,Pusat Perbelanjaan,Larici. UD,"5XR4+QGF, JL. Pasar, Bajawa, Kabupaten Ngada, Nusa Tenggara Tim.","Kabupaten Ngada, Nusa Tenggara Tim.",NUSA TENGGARA TIMUR,,Indonesia,3842223432,,,-8.808.065,120.956.297,https://maps.google.com/?cid=0x0:0xb0e8f86c0ebef4bf,
building materials,Gudang,Toko SENTRAL,"Jl. Budi Oetomo, Utomo, Bajawa, Kabupaten Ngada, Nusa Tenggara Tim. 86413","Utomo, Bajawa, Kabupaten Ngada",NUSA TENGGARA TIMUR,86413.0,Indonesia,,,,-87.875.796,1.209.734.623,https://maps.google.com/?cid=0x0:0x13fd05e2af09b89a,
building materials,Toko bahan makanan,UD DAMAIAN,"5V25+7C6, Jalan Aimere Tim., Aimere, Langagedha, Bajawa, Kabupaten Ngada, Nusa Tenggara Tim.","Kabupaten Ngada, Nusa Tenggara Tim.",NUSA TENGGARA TIMUR,,Indonesia,,,,-88.493.496,1.208.585.123,https://maps.google.com/?cid=0x0:0xd1988e6145f1226b,
building materials,building materials,"myNnaPilE8r6seMP1aiL8Qk-,null,null,1,null,""https://www.google.com/maps/preview/place/Batu+roster/@-8.790474,120.9770394,3943a,13.1y/datau003d!4m2!3m1!1s0x2db2e1470ff68523:0x589e325a8e4677f2""",,,NUSA TENGGARA TIMUR,,Indonesia,81239044173,,,-8.790.474,1.209.770.394,https://maps.google.com/?cid=0x0:0x589e325a8e4677f2,
building materials,Pasar bahan bangunan,"Penjualan Batu, Pasir, Kerikil dan bahan bangunan lokal lain","Desa Naru, Bajawa, Flores, Kabupaten Ngada, Nusa Tenggara Tim. 86413","Bajawa, Flores, Kabupaten Ngada",NUSA TENGGARA TIMUR,86413.0,Indonesia,85217681729,,,-87.686.996,1.209.847.853,https://maps.google.com/?cid=0x0:0xa501aadb2ed10cc0,
building materials,building materials,TB Elsyor,"5V34+FW, Aimere Tim., Kec. Aimere, Kabupaten Ngada, Nusa Tenggara Tim.","Kabupaten Ngada, Nusa Tenggara Tim.",NUSA TENGGARA TIMUR,,Indonesia,,,,-8.846.259,1.208.572.963,https://maps.google.com/?cid=0x0:0xef5010480ae27acd,
building materials,Komplek perumahan,UD PETRAM,"Jl. Lintas Flores, Nageoga, Kec. Boawae, Kabupaten Nagekeo, Nusa Tenggara Tim.","Kabupaten Nagekeo, Nusa Tenggara Tim.",NUSA TENGGARA TIMUR,,Indonesia,82122228701,,,-8.763.454,1.211.875.084,https://maps.google.com/?cid=0x0:0xeb6f347a103d3d2,
building materials,Toko Bahan Bangunan,Okabe Gallery Alam Sutera,"QM66+Q46, Jalur Sutera No.32A, Pakualam, Kec. Serpong Utara, Kota Tangerang Selatan, Banten 15320","Jalur Sutera No.32A, Pakualam, Kec. Serpong Utara, Kota Tangerang Selatan",NUSA TENGGARA TIMUR,15320.0,Indonesia,82118888519,,,-62.381.706,1.066.605.396,https://maps.google.com/?cid=0x0:0x685a953a8450fdbb,
building materials,Pemasok mebel sesuai pesanan,Okabe Hardware Indonesia,"Jalur Sutera No.32A, Pakualam, Kec. Serpong Utara, Kota Tangerang Selatan, Banten 15320","Pakualam, Kec. Serpong Utara, Kota Tangerang Selatan",NUSA TENGGARA TIMUR,15320.0,Indonesia,2122352581,,,-62.382.287,1.066.604.917,https://maps.google.com/?cid=0x0:0x4be4305755e361e8,
building materials,building materials,Kec. Golewa,"Kabupaten Ngada, Nusa Tenggara Tim.","Kabupaten Ngada, Nusa Tenggara Tim.",NUSA TENGGARA TIMUR,,Indonesia,,,,-8.823.719,121.051.735,https://maps.google.com/?cid=0x0:0xbe72500ebc67578b,
building materials,Kontraktor Umum,CV. Senandung,"Mangulewa, Kec. Golewa, Kabupaten Ngada, Nusa Tenggara Tim.","Kabupaten Ngada, Nusa Tenggara Tim.",NUSA TENGGARA TIMUR,,Indonesia,81237751352,,,-88.161.925,1.210.081.983,https://maps.google.com/?cid=0x0:0x8410ea96299acf6d,
building materials,Toko Bahan Bangunan,"penjualan material bangunan, batu, pasir","Waenai, Naru, Bajawa, Kabupaten Ngada, Nusa Tenggara Tim. 86413","Naru, Bajawa, Kabupaten Ngada",NUSA TENGGARA TIMUR,86413.0,Indonesia,82145071014,,,-87.722.267,1.209.789.558,https://maps.google.com/?cid=0x0:0xd3d82f6ad59f712d,
building materials,Produsen,Percetakan batako,"Dusun Wulilade 1, Tarawaja, Kec. Soa, Kabupaten Ngada, Nusa Tenggara Tim. 86414","Tarawaja, Kec. Soa, Kabupaten Ngada",NUSA TENGGARA TIMUR,86414.0,Indonesia,81357140714,,,-87.214.146,1.210.383.819,https://maps.google.com/?cid=0x0:0x250ec7ba6d7892,
building materials,Perusahaan Konstruksi,APM Material,"6XRR+455, Naru, Bajawa, Kabupaten Ngada, Nusa Tenggara Tim.","Kabupaten Ngada, Nusa Tenggara Tim.",NUSA TENGGARA TIMUR,,Indonesia,,,,-87.597.358,1.209.905,https://maps.google.com/?cid=0x0:0xcec9f76fa4844e32,
building materials,Gudang,Toko SENTRAL,"Jl. Budi Oetomo, Utomo, Bajawa, Kabupaten Ngada, Nusa Tenggara Tim. 86413","Utomo, Bajawa, Kabupaten Ngada",NUSA TENGGARA TIMUR,86413.0,Indonesia,,,,-87.875.796,1.209.734.623,https://maps.google.com/?cid=0x0:0x13fd05e2af09b89a,
building materials,building materials,,,,NUSA TENGGARA TIMUR,,Indonesia,85231776870,,,-88.176.214,121.028.111,https://maps.google.com/?cid=0x0:0xe3fac21964272d23,
building materials,Jasa Konstruksi dan Bangunan,USAHA SOMEL,"Kampung Wae (Yoda, Kelewae, Kec. Boawae, Kabupaten Nagekeo, Nusa Tenggara Tim. 86462","Kelewae, Kec. Boawae, Kabupaten Nagekeo",NUSA TENGGARA TIMUR,86462.0,Indonesia,82145059424,,,-88.318.908,1.211.695.751,https://maps.google.com/?cid=0x0:0xf7231976f75bcf7d,
building materials,building materials,Tb. Hokky,"52P2+RPF, Jl. Trans Flores, Mangulewa, Kec. Golewa, Kabupaten Ngada, Nusa Tenggara Tim.","Kabupaten Ngada, Nusa Tenggara Tim.",NUSA TENGGARA TIMUR,,Indonesia,,,,-88.129.481,1.210.017.864,https://maps.google.com/?cid=0x0:0x2887d81450ca5fa2,
building materials,building materials,Bajawa,"Bajawa, Kabupaten Ngada, Nusa Tenggara Tim.","Kabupaten Ngada, Nusa Tenggara Tim.",NUSA TENGGARA TIMUR,,Indonesia,,,,-8.792.325,120.960.602,https://maps.google.com/?cid=0x0:0x3cbeacbc23e7d171,
building materials,Toko Bahan Bangunan,"penjualan material bangunan, batu, pasir","Waenai, Naru, Bajawa, Kabupaten Ngada, Nusa Tenggara Tim. 86413","Naru, Bajawa, Kabupaten Ngada",NUSA TENGGARA TIMUR,86413.0,Indonesia,82145071014,,,-87.722.267,1.209.789.558,https://maps.google.com/?cid=0x0:0xd3d82f6ad59f712d,
building materials,Gudang,Toko SENTRAL,"Jl. Budi Oetomo, Utomo, Bajawa, Kabupaten Ngada, Nusa Tenggara Tim. 86413","Utomo, Bajawa, Kabupaten Ngada",NUSA TENGGARA TIMUR,86413.0,Indonesia,,,,-87.875.796,1.209.734.623,https://maps.google.com/?cid=0x0:0x13fd05e2af09b89a,
building materials,Pasar bahan bangunan,"Penjualan Batu, Pasir, Kerikil dan bahan bangunan lokal lain","Desa Naru, Bajawa, Flores, Kabupaten Ngada, Nusa Tenggara Tim. 86413","Bajawa, Flores, Kabupaten Ngada",NUSA TENGGARA TIMUR,86413.0,Indonesia,85217681729,,,-87.686.996,1.209.847.853,https://maps.google.com/?cid=0x0:0xa501aadb2ed10cc0,
building materials,Toko Bahan Bangunan,Toko Cemerlang,"6X6F+G26, Kisanata, Bajawa, Kabupaten Ngada, Nusa Tenggara Tim.","Kabupaten Ngada, Nusa Tenggara Tim.",NUSA TENGGARA TIMUR,,Indonesia,,,,-87.887.022,1.209.725.012,https://maps.google.com/?cid=0x0:0x134e98a0443147ee,
building materials,Kios,Toko Bahan Bangunan Nazareth,"Jl. Budi Oetomo No.5, Ngedukelu, Bajawa, Kabupaten Ngada, Nusa Tenggara Tim.","Kabupaten Ngada, Nusa Tenggara Tim.",NUSA TENGGARA TIMUR,,Indonesia,,,,-87.880.286,1.209.746.536,https://maps.google.com/?cid=0x0:0x2c5c5e8684cbe434,
building materials,Pusat Perbelanjaan,Larici. UD,"5XR4+QGF, JL. Pasar, Bajawa, Kabupaten Ngada, Nusa Tenggara Tim.","Kabupaten Ngada, Nusa Tenggara Tim.",NUSA TENGGARA TIMUR,,Indonesia,3842223432,,,-8.808.065,120.956.297,https://maps.google.com/?cid=0x0:0xb0e8f86c0ebef4bf,
building materials,Tambang,Tambang Pasir Loboleke Naru-Lestari,"Naru, Bajawa, Kabupaten Ngada, Nusa Tenggara Tim. 86413","Bajawa, Kabupaten Ngada",NUSA TENGGARA TIMUR,86413.0,Indonesia,85217681729,,,-87.703.125,1.209.841.875,https://maps.google.com/?cid=0x0:0x1aae89b10dc772d3,
building materials,Pasar bahan bangunan,Pusat pasir Bajawa,"6XJM+R9, Naru, Bajawa, Kabupaten Ngada, Nusa Tenggara Tim.","Kabupaten Ngada, Nusa Tenggara Tim.",NUSA TENGGARA TIMUR,,Indonesia,,,,-87.679.624,1.209.834.496,https://maps.google.com/?cid=0x0:0xa012e2ef754fb02c,
building materials,Toko Bahan Bangunan,Songke Keramic,"JL. Bangau No.1, Flores, Nginamanu, Kupang, Kabupaten Ngada, Nusa Tenggara Tim.","Kabupaten Ngada, Nusa Tenggara Tim.",NUSA TENGGARA TIMUR,,Indonesia,85239177611,,,-8.658.542,12.107.665,https://maps.google.com/?cid=0x0:0xc471ec0e825f0599,
building materials,building materials,CV Hanindo Building Material,"Jl. Manis II No.12, Manis Jaya, Kec. Jatiuwung, Kota Tangerang, Banten 15136","Manis Jaya, Kec. Jatiuwung, Kota Tangerang",NUSA TENGGARA TIMUR,15136.0,Indonesia,2155662808,,,-62.136.244,1.065.735.045,https://maps.google.com/?cid=0x0:0x306811bfc2681113,
building materials,Pemasok Pintu,PT. KAISHENG BUILDING MATERIAL,"Jl. Manis II No.12, Gudang i, Kec. Jatiuwung, Kota Tangerang, Banten 15136","Gudang i, Kec. Jatiuwung, Kota Tangerang",NUSA TENGGARA TIMUR,15136.0,Indonesia,2155662808,,,-62.137.603,1.065.752.171,https://maps.google.com/?cid=0x0:0x8d5f19e253e55d3c,
building materials,Konsultan Teknik,PT. Hamasa Steel Center,"Jl. Pangeran Jayakarta No.30-A, Mangga Dua Sel., Kecamatan Sawah Besar, Kota Jakarta Pusat, Daerah Khusus Ibukota Jakarta 12820","Mangga Dua Sel., Kecamatan Sawah Besar, Kota Jakarta Pusat",NUSA TENGGARA TIMUR,12820.0,Indonesia,216006113,,,-61.413.021,1.068.258.168,https://maps.google.com/?cid=0x0:0x95238ac21061f1c9,
building materials,building materials,Bajawa,"Bajawa, Kabupaten Ngada, Nusa Tenggara Tim.","Kabupaten Ngada, Nusa Tenggara Tim.",NUSA TENGGARA TIMUR,,Indonesia,,,,-8.792.325,120.960.602,https://maps.google.com/?cid=0x0:0x3cbeacbc23e7d171,
building materials,Toko Bahan Bangunan,"penjualan material bangunan, batu, pasir","Waenai, Naru, Bajawa, Kabupaten Ngada, Nusa Tenggara Tim. 86413","Naru, Bajawa, Kabupaten Ngada",NUSA TENGGARA TIMUR,86413.0,Indonesia,82145071014,,,-87.722.267,1.209.789.558,https://maps.google.com/?cid=0x0:0xd3d82f6ad59f712d,
building materials,Kios,Toko Bahan Bangunan Nazareth,"Jl. Budi Oetomo No.5, Ngedukelu, Bajawa, Kabupaten Ngada, Nusa Tenggara Tim.","Kabupaten Ngada, Nusa Tenggara Tim.",NUSA TENGGARA TIMUR,,Indonesia,,,,-87.880.286,1.209.746.536,https://maps.google.com/?cid=0x0:0x2c5c5e8684cbe434,
building materials,Perusahaan Konstruksi,APM Material,"6XRR+455, Naru, Bajawa, Kabupaten Ngada, Nusa Tenggara Tim.","Kabupaten Ngada, Nusa Tenggara Tim.",NUSA TENGGARA TIMUR,,Indonesia,,,,-87.597.358,1.209.905,https://maps.google.com/?cid=0x0:0xcec9f76fa4844e32,
building materials,Pasar bahan bangunan,"Penjualan Batu, Pasir, Kerikil dan bahan bangunan lokal lain","Desa Naru, Bajawa, Flores, Kabupaten Ngada, Nusa Tenggara Tim. 86413","Bajawa, Flores, Kabupaten Ngada",NUSA TENGGARA TIMUR,86413.0,Indonesia,85217681729,,,-87.686.996,1.209.847.853,https://maps.google.com/?cid=0x0:0xa501aadb2ed10cc0,
building materials,Toko Bahan Bangunan,Toko Cemerlang,"6X6F+G26, Kisanata, Bajawa, Kabupaten Ngada, Nusa Tenggara Tim.","Kabupaten Ngada, Nusa Tenggara Tim.",NUSA TENGGARA TIMUR,,Indonesia,,,,-87.887.022,1.209.725.012,https://maps.google.com/?cid=0x0:0x134e98a0443147ee,
building materials,Pusat Perbelanjaan,Larici. UD,"5XR4+QGF, JL. Pasar, Bajawa, Kabupaten Ngada, Nusa Tenggara Tim.","Kabupaten Ngada, Nusa Tenggara Tim.",NUSA TENGGARA TIMUR,,Indonesia,3842223432,,,-8.808.065,120.956.297,https://maps.google.com/?cid=0x0:0xb0e8f86c0ebef4bf,
building materials,Tambang,Tambang Pasir Loboleke Naru-Lestari,"Naru, Bajawa, Kabupaten Ngada, Nusa Tenggara Tim. 86413","Bajawa, Kabupaten Ngada",NUSA TENGGARA TIMUR,86413.0,Indonesia,85217681729,,,-87.703.125,1.209.841.875,https://maps.google.com/?cid=0x0:0x1aae89b10dc772d3,
building materials,Pasar bahan bangunan,Pusat pasir Bajawa,"6XJM+R9, Naru, Bajawa, Kabupaten Ngada, Nusa Tenggara Tim.","Kabupaten Ngada, Nusa Tenggara Tim.",NUSA TENGGARA TIMUR,,Indonesia,,,,-87.679.624,1.209.834.496,https://maps.google.com/?cid=0x0:0xa012e2ef754fb02c,
building materials,Toko Bahan Bangunan,Songke Keramic,"JL. Bangau No.1, Flores, Nginamanu, Kupang, Kabupaten Ngada, Nusa Tenggara Tim.","Kabupaten Ngada, Nusa Tenggara Tim.",NUSA TENGGARA TIMUR,,Indonesia,85239177611,,,-8.658.542,12.107.665,https://maps.google.com/?cid=0x0:0xc471ec0e825f0599,
building materials,Konsultan Teknik,PT. Hamasa Steel Center,"Jl. Pangeran Jayakarta No.30-A, Mangga Dua Sel., Kecamatan Sawah Besar, Kota Jakarta Pusat, Daerah Khusus Ibukota Jakarta 12820","Mangga Dua Sel., Kecamatan Sawah Besar, Kota Jakarta Pusat",NUSA TENGGARA TIMUR,12820.0,Indonesia,216006113,,,-61.413.021,1.068.258.168,https://maps.google.com/?cid=0x0:0x95238ac21061f1c9,
building materials,building materials,Bajawa,"Bajawa, Kabupaten Ngada, Nusa Tenggara Tim.","Kabupaten Ngada, Nusa Tenggara Tim.",NUSA TENGGARA TIMUR,,Indonesia,,,,-8.792.325,120.960.602,https://maps.google.com/?cid=0x0:0x3cbeacbc23e7d171,
building materials,Toko Bahan Bangunan,"penjualan material bangunan, batu, pasir","Waenai, Naru, Bajawa, Kabupaten Ngada, Nusa Tenggara Tim. 86413","Naru, Bajawa, Kabupaten Ngada",NUSA TENGGARA TIMUR,86413.0,Indonesia,82145071014,,,-87.722.267,1.209.789.558,https://maps.google.com/?cid=0x0:0xd3d82f6ad59f712d,
building materials,Toko Bahan Bangunan,Toko Cemerlang,"6X6F+G26, Kisanata, Bajawa, Kabupaten Ngada, Nusa Tenggara Tim.","Kabupaten Ngada, Nusa Tenggara Tim.",NUSA TENGGARA TIMUR,,Indonesia,,,,-87.887.022,1.209.725.012,https://maps.google.com/?cid=0x0:0x134e98a0443147ee,
building materials,Gudang,Toko SENTRAL,"Jl. Budi Oetomo, Utomo, Bajawa, Kabupaten Ngada, Nusa Tenggara Tim. 86413","Utomo, Bajawa, Kabupaten Ngada",NUSA TENGGARA TIMUR,86413.0,Indonesia,,,,-87.875.796,1.209.734.623,https://maps.google.com/?cid=0x0:0x13fd05e2af09b89a,
building materials,Pasar bahan bangunan,"Penjualan Batu, Pasir, Kerikil dan bahan bangunan lokal lain","Desa Naru, Bajawa, Flores, Kabupaten Ngada, Nusa Tenggara Tim. 86413","Bajawa, Flores, Kabupaten Ngada",NUSA TENGGARA TIMUR,86413.0,Indonesia,85217681729,,,-87.686.996,1.209.847.853,https://maps.google.com/?cid=0x0:0xa501aadb2ed10cc0,
building materials,Tambang,Tambang Pasir Loboleke Naru-Lestari,"Naru, Bajawa, Kabupaten Ngada, Nusa Tenggara Tim. 86413","Bajawa, Kabupaten Ngada",NUSA TENGGARA TIMUR,86413.0,Indonesia,85217681729,,,-87.703.125,1.209.841.875,https://maps.google.com/?cid=0x0:0x1aae89b10dc772d3,
building materials,Pusat Perbelanjaan,Larici. UD,"5XR4+QGF, JL. Pasar, Bajawa, Kabupaten Ngada, Nusa Tenggara Tim.","Kabupaten Ngada, Nusa Tenggara Tim.",NUSA TENGGARA TIMUR,,Indonesia,3842223432,,,-8.808.065,120.956.297,https://maps.google.com/?cid=0x0:0xb0e8f86c0ebef4bf,
building materials,Perusahaan Konstruksi,APM Material,"6XRR+455, Naru, Bajawa, Kabupaten Ngada, Nusa Tenggara Tim.","Kabupaten Ngada, Nusa Tenggara Tim.",NUSA TENGGARA TIMUR,,Indonesia,,,,-87.597.358,1.209.905,https://maps.google.com/?cid=0x0:0xcec9f76fa4844e32,
building materials,Pasar bahan bangunan,Pusat pasir Bajawa,"6XJM+R9, Naru, Bajawa, Kabupaten Ngada, Nusa Tenggara Tim.","Kabupaten Ngada, Nusa Tenggara Tim.",NUSA TENGGARA TIMUR,,Indonesia,,,,-87.679.624,1.209.834.496,https://maps.google.com/?cid=0x0:0xa012e2ef754fb02c,
building materials,Toko Bahan Bangunan,Songke Keramic,"JL. Bangau No.1, Flores, Nginamanu, Kupang, Kabupaten Ngada, Nusa Tenggara Tim.","Kabupaten Ngada, Nusa Tenggara Tim.",NUSA TENGGARA TIMUR,,Indonesia,85239177611,,,-8.658.542,12.107.665,https://maps.google.com/?cid=0x0:0xc471ec0e825f0599,
building materials,Toko Bahan Bangunan,Toko Sedang Mekar,"6X6F+J9H, Ngedukelu, Bajawa, Kabupaten Ngada, Nusa Tenggara Tim.","Kabupaten Ngada, Nusa Tenggara Tim.",NUSA TENGGARA TIMUR,,Indonesia,,,,-87.884.434,1.209.734.838,https://maps.google.com/?cid=0x0:0xcb094957881919c6,
building materials,building materials,Bajawa,"Bajawa, Kabupaten Ngada, Nusa Tenggara Tim.","Kabupaten Ngada, Nusa Tenggara Tim.",NUSA TENGGARA TIMUR,,Indonesia,,,,-8.792.325,120.960.602,https://maps.google.com/?cid=0x0:0x3cbeacbc23e7d171,
building materials,Toko Bahan Bangunan,"penjualan material bangunan, batu, pasir","Waenai, Naru, Bajawa, Kabupaten Ngada, Nusa Tenggara Tim. 86413","Naru, Bajawa, Kabupaten Ngada",NUSA TENGGARA TIMUR,86413.0,Indonesia,82145071014,,,-87.722.267,1.209.789.558,https://maps.google.com/?cid=0x0:0xd3d82f6ad59f712d,
building materials,Gudang,Toko SENTRAL,"Jl. Budi Oetomo, Utomo, Bajawa, Kabupaten Ngada, Nusa Tenggara Tim. 86413","Utomo, Bajawa, Kabupaten Ngada",NUSA TENGGARA TIMUR,86413.0,Indonesia,,,,-87.875.796,1.209.734.623,https://maps.google.com/?cid=0x0:0x13fd05e2af09b89a,
building materials,Tambang,Tambang Pasir Loboleke Naru-Lestari,"Naru, Bajawa, Kabupaten Ngada, Nusa Tenggara Tim. 86413","Bajawa, Kabupaten Ngada",NUSA TENGGARA TIMUR,86413.0,Indonesia,85217681729,,,-87.703.125,1.209.841.875,https://maps.google.com/?cid=0x0:0x1aae89b10dc772d3,
building materials,Pasar bahan bangunan,"Penjualan Batu, Pasir, Kerikil dan bahan bangunan lokal lain","Desa Naru, Bajawa, Flores, Kabupaten Ngada, Nusa Tenggara Tim. 86413","Bajawa, Flores, Kabupaten Ngada",NUSA TENGGARA TIMUR,86413.0,Indonesia,85217681729,,,-87.686.996,1.209.847.853,https://maps.google.com/?cid=0x0:0xa501aadb2ed10cc0,
building materials,Kios,Toko Bahan Bangunan Nazareth,"Jl. Budi Oetomo No.5, Ngedukelu, Bajawa, Kabupaten Ngada, Nusa Tenggara Tim.","Kabupaten Ngada, Nusa Tenggara Tim.",NUSA TENGGARA TIMUR,,Indonesia,,,,-87.880.286,1.209.746.536,https://maps.google.com/?cid=0x0:0x2c5c5e8684cbe434,
building materials,Pusat Perbelanjaan,Larici. UD,"5XR4+QGF, JL. Pasar, Bajawa, Kabupaten Ngada, Nusa Tenggara Tim.","Kabupaten Ngada, Nusa Tenggara Tim.",NUSA TENGGARA TIMUR,,Indonesia,3842223432,,,-8.808.065,120.956.297,https://maps.google.com/?cid=0x0:0xb0e8f86c0ebef4bf,
building materials,building materials,CV Hanindo Building Material,"Jl. Manis II No.12, Manis Jaya, Kec. Jatiuwung, Kota Tangerang, Banten 15136","Manis Jaya, Kec. Jatiuwung, Kota Tangerang",NUSA TENGGARA TIMUR,15136.0,Indonesia,2155662808,,,-62.136.244,1.065.735.045,https://maps.google.com/?cid=0x0:0x306811bfc2681113,
building materials,Pemasok Pintu,PT. KAISHENG BUILDING MATERIAL,"Jl. Manis II No.12, Gudang i, Kec. Jatiuwung, Kota Tangerang, Banten 15136","Gudang i, Kec. Jatiuwung, Kota Tangerang",NUSA TENGGARA TIMUR,15136.0,Indonesia,2155662808,,,-62.137.603,1.065.752.171,https://maps.google.com/?cid=0x0:0x8d5f19e253e55d3c,
building materials,building materials,Bajawa,"Bajawa, Kabupaten Ngada, Nusa Tenggara Tim.","Kabupaten Ngada, Nusa Tenggara Tim.",NUSA TENGGARA TIMUR,,Indonesia,,,,-8.792.325,120.960.602,https://maps.google.com/?cid=0x0:0x3cbeacbc23e7d171,
building materials,Toko Bahan Bangunan,"penjualan material bangunan, batu, pasir","Waenai, Naru, Bajawa, Kabupaten Ngada, Nusa Tenggara Tim. 86413","Naru, Bajawa, Kabupaten Ngada",NUSA TENGGARA TIMUR,86413.0,Indonesia,82145071014,,,-87.722.267,1.209.789.558,https://maps.google.com/?cid=0x0:0xd3d82f6ad59f712d,
building materials,Gudang,Toko SENTRAL,"Jl. Budi Oetomo, Utomo, Bajawa, Kabupaten Ngada, Nusa Tenggara Tim. 86413","Utomo, Bajawa, Kabupaten Ngada",NUSA TENGGARA TIMUR,86413.0,Indonesia,,,,-87.875.796,1.209.734.623,https://maps.google.com/?cid=0x0:0x13fd05e2af09b89a,
building materials,Perusahaan Konstruksi,APM Material,"6XRR+455, Naru, Bajawa, Kabupaten Ngada, Nusa Tenggara Tim.","Kabupaten Ngada, Nusa Tenggara Tim.",NUSA TENGGARA TIMUR,,Indonesia,,,,-87.597.358,1.209.905,https://maps.google.com/?cid=0x0:0xcec9f76fa4844e32,
building materials,Kios,Toko Bahan Bangunan Nazareth,"Jl. Budi Oetomo No.5, Ngedukelu, Bajawa, Kabupaten Ngada, Nusa Tenggara Tim.","Kabupaten Ngada, Nusa Tenggara Tim.",NUSA TENGGARA TIMUR,,Indonesia,,,,-87.880.286,1.209.746.536,https://maps.google.com/?cid=0x0:0x2c5c5e8684cbe434,
building materials,Konsultan Teknik,PT. Hamasa Steel Center,"Jl. Pangeran Jayakarta No.30-A, Mangga Dua Sel., Kecamatan Sawah Besar, Kota Jakarta Pusat, Daerah Khusus Ibukota Jakarta 12820","Mangga Dua Sel., Kecamatan Sawah Besar, Kota Jakarta Pusat",NUSA TENGGARA TIMUR,12820.0,Indonesia,216006113,,,-61.413.021,1.068.258.168,https://maps.google.com/?cid=0x0:0x95238ac21061f1c9,
building materials,building materials,Bajawa,"Bajawa, Kabupaten Ngada, Nusa Tenggara Tim.","Kabupaten Ngada, Nusa Tenggara Tim.",NUSA TENGGARA TIMUR,,Indonesia,,,,-8.792.325,120.960.602,https://maps.google.com/?cid=0x0:0x3cbeacbc23e7d171,
building materials,Toko Bahan Bangunan,"penjualan material bangunan, batu, pasir","Waenai, Naru, Bajawa, Kabupaten Ngada, Nusa Tenggara Tim. 86413","Naru, Bajawa, Kabupaten Ngada",NUSA TENGGARA TIMUR,86413.0,Indonesia,82145071014,,,-87.722.267,1.209.789.558,https://maps.google.com/?cid=0x0:0xd3d82f6ad59f712d,
building materials,Gudang,Toko SENTRAL,"Jl. Budi Oetomo, Utomo, Bajawa, Kabupaten Ngada, Nusa Tenggara Tim. 86413","Utomo, Bajawa, Kabupaten Ngada",NUSA TENGGARA TIMUR,86413.0,Indonesia,,,,-87.875.796,1.209.734.623,https://maps.google.com/?cid=0x0:0x13fd05e2af09b89a,
building materials,Perusahaan Konstruksi,APM Material,"6XRR+455, Naru, Bajawa, Kabupaten Ngada, Nusa Tenggara Tim.","Kabupaten Ngada, Nusa Tenggara Tim.",NUSA TENGGARA TIMUR,,Indonesia,,,,-87.597.358,1.209.905,https://maps.google.com/?cid=0x0:0xcec9f76fa4844e32,
building materials,Tambang,Tambang Pasir Loboleke Naru-Lestari,"Naru, Bajawa, Kabupaten Ngada, Nusa Tenggara Tim. 86413","Bajawa, Kabupaten Ngada",NUSA TENGGARA TIMUR,86413.0,Indonesia,85217681729,,,-87.703.125,1.209.841.875,https://maps.google.com/?cid=0x0:0x1aae89b10dc772d3,
building materials,Pasar bahan bangunan,"Penjualan Batu, Pasir, Kerikil dan bahan bangunan lokal lain","Desa Naru, Bajawa, Flores, Kabupaten Ngada, Nusa Tenggara Tim. 86413","Bajawa, Flores, Kabupaten Ngada",NUSA TENGGARA TIMUR,86413.0,Indonesia,85217681729,,,-87.686.996,1.209.847.853,https://maps.google.com/?cid=0x0:0xa501aadb2ed10cc0,
building materials,Toko Bahan Bangunan,Toko Cemerlang,"6X6F+G26, Kisanata, Bajawa, Kabupaten Ngada, Nusa Tenggara Tim.","Kabupaten Ngada, Nusa Tenggara Tim.",NUSA TENGGARA TIMUR,,Indonesia,,,,-87.887.022,1.209.725.012,https://maps.google.com/?cid=0x0:0x134e98a0443147ee,
building materials,Kios,Toko Bahan Bangunan Nazareth,"Jl. Budi Oetomo No.5, Ngedukelu, Bajawa, Kabupaten Ngada, Nusa Tenggara Tim.","Kabupaten Ngada, Nusa Tenggara Tim.",NUSA TENGGARA TIMUR,,Indonesia,,,,-87.880.286,1.209.746.536,https://maps.google.com/?cid=0x0:0x2c5c5e8684cbe434,
building materials,building materials,CV Hanindo Building Material,"Jl. Manis II No.12, Manis Jaya, Kec. Jatiuwung, Kota Tangerang, Banten 15136","Manis Jaya, Kec. Jatiuwung, Kota Tangerang",NUSA TENGGARA TIMUR,15136.0,Indonesia,2155662808,,,-62.136.244,1.065.735.045,https://maps.google.com/?cid=0x0:0x306811bfc2681113,
building materials,Pemasok Pintu,PT. KAISHENG BUILDING MATERIAL,"Jl. Manis II No.12, Gudang i, Kec. Jatiuwung, Kota Tangerang, Banten 15136","Gudang i, Kec. Jatiuwung, Kota Tangerang",NUSA TENGGARA TIMUR,15136.0,Indonesia,2155662808,,,-62.137.603,1.065.752.171,https://maps.google.com/?cid=0x0:0x8d5f19e253e55d3c,
building materials,Konsultan Teknik,PT. Hamasa Steel Center,"Jl. Pangeran Jayakarta No.30-A, Mangga Dua Sel., Kecamatan Sawah Besar, Kota Jakarta Pusat, Daerah Khusus Ibukota Jakarta 12820","Mangga Dua Sel., Kecamatan Sawah Besar, Kota Jakarta Pusat",NUSA TENGGARA TIMUR,12820.0,Indonesia,216006113,,,-61.413.021,1.068.258.168,https://maps.google.com/?cid=0x0:0x95238ac21061f1c9,
building materials,Pasar bahan bangunan,Pusat pasir Bajawa,"6XJM+R9, Naru, Bajawa, Kabupaten Ngada, Nusa Tenggara Tim.","Kabupaten Ngada, Nusa Tenggara Tim.",NUSA TENGGARA TIMUR,,Indonesia,,,,-87.679.624,1.209.834.496,https://maps.google.com/?cid=0x0:0xa012e2ef754fb02c,
building materials,Toko Bahan Bangunan,Songke Keramic,"JL. Bangau No.1, Flores, Nginamanu, Kupang, Kabupaten Ngada, Nusa Tenggara Tim.","Kabupaten Ngada, Nusa Tenggara Tim.",NUSA TENGGARA TIMUR,,Indonesia,85239177611,,,-8.658.542,12.107.665,https://maps.google.com/?cid=0x0:0xc471ec0e825f0599,
building materials,building materials,Bajawa,"Bajawa, Kabupaten Ngada, Nusa Tenggara Tim.","Kabupaten Ngada, Nusa Tenggara Tim.",NUSA TENGGARA TIMUR,,Indonesia,,,,-8.792.325,120.960.602,https://maps.google.com/?cid=0x0:0x3cbeacbc23e7d171,
building materials,Toko Bahan Bangunan,"penjualan material bangunan, batu, pasir","Waenai, Naru, Bajawa, Kabupaten Ngada, Nusa Tenggara Tim. 86413","Naru, Bajawa, Kabupaten Ngada",NUSA TENGGARA TIMUR,86413.0,Indonesia,82145071014,,,-87.722.267,1.209.789.558,https://maps.google.com/?cid=0x0:0xd3d82f6ad59f712d,
building materials,Gudang,Toko SENTRAL,"Jl. Budi Oetomo, Utomo, Bajawa, Kabupaten Ngada, Nusa Tenggara Tim. 86413","Utomo, Bajawa, Kabupaten Ngada",NUSA TENGGARA TIMUR,86413.0,Indonesia,,,,-87.875.796,1.209.734.623,https://maps.google.com/?cid=0x0:0x13fd05e2af09b89a,
building materials,Perusahaan Konstruksi,APM Material,"6XRR+455, Naru, Bajawa, Kabupaten Ngada, Nusa Tenggara Tim.","Kabupaten Ngada, Nusa Tenggara Tim.",NUSA TENGGARA TIMUR,,Indonesia,,,,-87.597.358,1.209.905,https://maps.google.com/?cid=0x0:0xcec9f76fa4844e32,
building materials,Tambang,Tambang Pasir Loboleke Naru-Lestari,"Naru, Bajawa, Kabupaten Ngada, Nusa Tenggara Tim. 86413","Bajawa, Kabupaten Ngada",NUSA TENGGARA TIMUR,86413.0,Indonesia,85217681729,,,-87.703.125,1.209.841.875,https://maps.google.com/?cid=0x0:0x1aae89b10dc772d3,
building materials,Pasar bahan bangunan,"Penjualan Batu, Pasir, Kerikil dan bahan bangunan lokal lain","Desa Naru, Bajawa, Flores, Kabupaten Ngada, Nusa Tenggara Tim. 86413","Bajawa, Flores, Kabupaten Ngada",NUSA TENGGARA TIMUR,86413.0,Indonesia,85217681729,,,-87.686.996,1.209.847.853,https://maps.google.com/?cid=0x0:0xa501aadb2ed10cc0,
building materials,Toko Bahan Bangunan,Toko Cemerlang,"6X6F+G26, Kisanata, Bajawa, Kabupaten Ngada, Nusa Tenggara Tim.","Kabupaten Ngada, Nusa Tenggara Tim.",NUSA TENGGARA TIMUR,,Indonesia,,,,-87.887.022,1.209.725.012,https://maps.google.com/?cid=0x0:0x134e98a0443147ee,
building materials,Kios,Toko Bahan Bangunan Nazareth,"Jl. Budi Oetomo No.5, Ngedukelu, Bajawa, Kabupaten Ngada, Nusa Tenggara Tim.","Kabupaten Ngada, Nusa Tenggara Tim.",NUSA TENGGARA TIMUR,,Indonesia,,,,-87.880.286,1.209.746.536,https://maps.google.com/?cid=0x0:0x2c5c5e8684cbe434,
building materials,Pasar bahan bangunan,Pusat pasir Bajawa,"6XJM+R9, Naru, Bajawa, Kabupaten Ngada, Nusa Tenggara Tim.","Kabupaten Ngada, Nusa Tenggara Tim.",NUSA TENGGARA TIMUR,,Indonesia,,,,-87.679.624,1.209.834.496,https://maps.google.com/?cid=0x0:0xa012e2ef754fb02c,
building materials,Toko Bahan Bangunan,Songke Keramic,"JL. Bangau No.1, Flores, Nginamanu, Kupang, Kabupaten Ngada, Nusa Tenggara Tim.","Kabupaten Ngada, Nusa Tenggara Tim.",NUSA TENGGARA TIMUR,,Indonesia,85239177611,,,-8.658.542,12.107.665,https://maps.google.com/?cid=0x0:0xc471ec0e825f0599,
building materials,building materials,Bajawa,"Bajawa, Kabupaten Ngada, Nusa Tenggara Tim.","Kabupaten Ngada, Nusa Tenggara Tim.",NUSA TENGGARA TIMUR,,Indonesia,,,,-8.792.325,120.960.602,https://maps.google.com/?cid=0x0:0x3cbeacbc23e7d171,
building materials,Toko Bahan Bangunan,"penjualan material bangunan, batu, pasir","Waenai, Naru, Bajawa, Kabupaten Ngada, Nusa Tenggara Tim. 86413","Naru, Bajawa, Kabupaten Ngada",NUSA TENGGARA TIMUR,86413.0,Indonesia,82145071014,,,-87.722.267,1.209.789.558,https://maps.google.com/?cid=0x0:0xd3d82f6ad59f712d,
building materials,Kios,Toko Bahan Bangunan Nazareth,"Jl. Budi Oetomo No.5, Ngedukelu, Bajawa, Kabupaten Ngada, Nusa Tenggara Tim.","Kabupaten Ngada, Nusa Tenggara Tim.",NUSA TENGGARA TIMUR,,Indonesia,,,,-87.880.286,1.209.746.536,https://maps.google.com/?cid=0x0:0x2c5c5e8684cbe434,
building materials,Pusat Perbelanjaan,Larici. UD,"5XR4+QGF, JL. Pasar, Bajawa, Kabupaten Ngada, Nusa Tenggara Tim.","Kabupaten Ngada, Nusa Tenggara Tim.",NUSA TENGGARA TIMUR,,Indonesia,3842223432,,,-8.808.065,120.956.297,https://maps.google.com/?cid=0x0:0xb0e8f86c0ebef4bf,
building materials,Perusahaan Konstruksi,APM Material,"6XRR+455, Naru, Bajawa, Kabupaten Ngada, Nusa Tenggara Tim.","Kabupaten Ngada, Nusa Tenggara Tim.",NUSA TENGGARA TIMUR,,Indonesia,,,,-87.597.358,1.209.905,https://maps.google.com/?cid=0x0:0xcec9f76fa4844e32,
building materials,Tambang,Tambang Pasir Loboleke Naru-Lestari,"Naru, Bajawa, Kabupaten Ngada, Nusa Tenggara Tim. 86413","Bajawa, Kabupaten Ngada",NUSA TENGGARA TIMUR,86413.0,Indonesia,85217681729,,,-87.703.125,1.209.841.875,https://maps.google.com/?cid=0x0:0x1aae89b10dc772d3,
building materials,Pasar bahan bangunan,"Penjualan Batu, Pasir, Kerikil dan bahan bangunan lokal lain","Desa Naru, Bajawa, Flores, Kabupaten Ngada, Nusa Tenggara Tim. 86413","Bajawa, Flores, Kabupaten Ngada",NUSA TENGGARA TIMUR,86413.0,Indonesia,85217681729,,,-87.686.996,1.209.847.853,https://maps.google.com/?cid=0x0:0xa501aadb2ed10cc0,
building materials,Toko Bahan Bangunan,Toko Cemerlang,"6X6F+G26, Kisanata, Bajawa, Kabupaten Ngada, Nusa Tenggara Tim.","Kabupaten Ngada, Nusa Tenggara Tim.",NUSA TENGGARA TIMUR,,Indonesia,,,,-87.887.022,1.209.725.012,https://maps.google.com/?cid=0x0:0x134e98a0443147ee,
building materials,Konsultan Teknik,PT. Hamasa Steel Center,"Jl. Pangeran Jayakarta No.30-A, Mangga Dua Sel., Kecamatan Sawah Besar, Kota Jakarta Pusat, Daerah Khusus Ibukota Jakarta 12820","Mangga Dua Sel., Kecamatan Sawah Besar, Kota Jakarta Pusat",NUSA TENGGARA TIMUR,12820.0,Indonesia,216006113,,,-61.413.021,1.068.258.168,https://maps.google.com/?cid=0x0:0x95238ac21061f1c9,
building materials,Pasar bahan bangunan,Pusat pasir Bajawa,"6XJM+R9, Naru, Bajawa, Kabupaten Ngada, Nusa Tenggara Tim.","Kabupaten Ngada, Nusa Tenggara Tim.",NUSA TENGGARA TIMUR,,Indonesia,,,,-87.679.624,1.209.834.496,https://maps.google.com/?cid=0x0:0xa012e2ef754fb02c,
building materials,Perusahaan Konstruksi,PT.Honglu konstruksi baja,"Jalan Jarakosta No.256, RT.05/RW.02, Sukadanau, Cikarang Barat, Bekasi, Jawa Barat 17520","RT.05/RW.02, Sukadanau, Cikarang Barat, Bekasi",NUSA TENGGARA TIMUR,17520.0,Indonesia,82352966666,,,-60.603.168,1.066.181.968,https://maps.google.com/?cid=0x0:0xae3db470a5a742c8,
building materials,Toko Bahan Bangunan,Songke Keramic,"JL. Bangau No.1, Flores, Nginamanu, Kupang, Kabupaten Ngada, Nusa Tenggara Tim.","Kabupaten Ngada, Nusa Tenggara Tim.",NUSA TENGGARA TIMUR,,Indonesia,85239177611,,,-8.658.542,12.107.665,https://maps.google.com/?cid=0x0:0xc471ec0e825f0599,
building materials,building materials,Bajawa,"Bajawa, Kabupaten Ngada, Nusa Tenggara Tim.","Kabupaten Ngada, Nusa Tenggara Tim.",NUSA TENGGARA TIMUR,,Indonesia,,,,-8.792.325,120.960.602,https://maps.google.com/?cid=0x0:0x3cbeacbc23e7d171,
building materials,Toko Bahan Bangunan,"penjualan material bangunan, batu, pasir","Waenai, Naru, Bajawa, Kabupaten Ngada, Nusa Tenggara Tim. 86413","Naru, Bajawa, Kabupaten Ngada",NUSA TENGGARA TIMUR,86413.0,Indonesia,82145071014,,,-87.722.267,1.209.789.558,https://maps.google.com/?cid=0x0:0xd3d82f6ad59f712d,
building materials,Kios,Toko Bahan Bangunan Nazareth,"Jl. Budi Oetomo No.5, Ngedukelu, Bajawa, Kabupaten Ngada, Nusa Tenggara Tim.","Kabupaten Ngada, Nusa Tenggara Tim.",NUSA TENGGARA TIMUR,,Indonesia,,,,-87.880.286,1.209.746.536,https://maps.google.com/?cid=0x0:0x2c5c5e8684cbe434,
building materials,Perusahaan Konstruksi,APM Material,"6XRR+455, Naru, Bajawa, Kabupaten Ngada, Nusa Tenggara Tim.","Kabupaten Ngada, Nusa Tenggara Tim.",NUSA TENGGARA TIMUR,,Indonesia,,,,-87.597.358,1.209.905,https://maps.google.com/?cid=0x0:0xcec9f76fa4844e32,
building materials,Pasar bahan bangunan,"Penjualan Batu, Pasir, Kerikil dan bahan bangunan lokal lain","Desa Naru, Bajawa, Flores, Kabupaten Ngada, Nusa Tenggara Tim. 86413","Bajawa, Flores, Kabupaten Ngada",NUSA TENGGARA TIMUR,86413.0,Indonesia,85217681729,,,-87.686.996,1.209.847.853,https://maps.google.com/?cid=0x0:0xa501aadb2ed10cc0,
building materials,Toko Bahan Bangunan,Toko Cemerlang,"6X6F+G26, Kisanata, Bajawa, Kabupaten Ngada, Nusa Tenggara Tim.","Kabupaten Ngada, Nusa Tenggara Tim.",NUSA TENGGARA TIMUR,,Indonesia,,,,-87.887.022,1.209.725.012,https://maps.google.com/?cid=0x0:0x134e98a0443147ee,
building materials,Pasar bahan bangunan,Pusat pasir Bajawa,"6XJM+R9, Naru, Bajawa, Kabupaten Ngada, Nusa Tenggara Tim.","Kabupaten Ngada, Nusa Tenggara Tim.",NUSA TENGGARA TIMUR,,Indonesia,,,,-87.679.624,1.209.834.496,https://maps.google.com/?cid=0x0:0xa012e2ef754fb02c,
building materials,Toko Bahan Bangunan,Songke Keramic,"JL. Bangau No.1, Flores, Nginamanu, Kupang, Kabupaten Ngada, Nusa Tenggara Tim.","Kabupaten Ngada, Nusa Tenggara Tim.",NUSA TENGGARA TIMUR,,Indonesia,85239177611,,,-8.658.542,12.107.665,https://maps.google.com/?cid=0x0:0xc471ec0e825f0599,
building materials,building materials,Kec. Soa,"Kabupaten Ngada, Nusa Tenggara Tim.","Kabupaten Ngada, Nusa Tenggara Tim.",NUSA TENGGARA TIMUR,,Indonesia,,,,-86.991.961,1.210.341.254,https://maps.google.com/?cid=0x0:0xa0e2c22221dea3ea,
building materials,Toko Bahan Bangunan,Songke Keramic,"JL. Bangau No.1, Flores, Nginamanu, Kupang, Kabupaten Ngada, Nusa Tenggara Tim.","Kabupaten Ngada, Nusa Tenggara Tim.",NUSA TENGGARA TIMUR,,Indonesia,85239177611,,,-8.658.542,12.107.665,https://maps.google.com/?cid=0x0:0xc471ec0e825f0599,
building materials,Produsen,Percetakan batako,"Dusun Wulilade 1, Tarawaja, Kec. Soa, Kabupaten Ngada, Nusa Tenggara Tim. 86414","Tarawaja, Kec. Soa, Kabupaten Ngada",NUSA TENGGARA TIMUR,86414.0,Indonesia,81357140714,,,-87.214.146,1.210.383.819,https://maps.google.com/?cid=0x0:0x250ec7ba6d7892,
building materials,Toko Bahan Bangunan,"penjualan material bangunan, batu, pasir","Waenai, Naru, Bajawa, Kabupaten Ngada, Nusa Tenggara Tim. 86413","Naru, Bajawa, Kabupaten Ngada",NUSA TENGGARA TIMUR,86413.0,Indonesia,82145071014,,,-87.722.267,1.209.789.558,https://maps.google.com/?cid=0x0:0xd3d82f6ad59f712d,
building materials,building materials,Riung,"Benteng Tengah, Kec. Riung, Kabupaten Ngada, Nusa Tenggara Tim.","Kabupaten Ngada, Nusa Tenggara Tim.",NUSA TENGGARA TIMUR,,Indonesia,,,,-8.433.639,1.210.317,https://maps.google.com/?cid=0x0:0x421c43f4ef9b08fa,
building materials,building materials,Nirvana Bungalows RIUNG / Nirvana RIUNG,"Nirvana Road, Nangamese, Kec. Riung, Kabupaten Ngada, Nusa Tenggara Tim.","Kabupaten Ngada, Nusa Tenggara Tim.",NUSA TENGGARA TIMUR,,Indonesia,81338528529,,,-84.184.645,1.210.292.928,https://maps.google.com/?cid=0x0:0xcecab3c11952c396,
building materials,Bengkel Mesin,PT Riung Mitra Lestari Head Office,"Jl. Harapan Indah Raya Jl. Boulevard Hijau Raya No.26, RT.004/RW.030, Pejuang, Kecamatan Medan Satria, Kota Bks, Jawa Barat 17131","RT.004/RW.030, Pejuang, Kecamatan Medan Satria, Kota Bks",NUSA TENGGARA TIMUR,17131.0,Indonesia,2188865787,,,-61.864.659,1.069.778.517,https://maps.google.com/?cid=0x0:0x6933aae2d88c2fa5,
building materials,Toko Bahan Bangunan,"penjualan material bangunan, batu, pasir","Waenai, Naru, Bajawa, Kabupaten Ngada, Nusa Tenggara Tim. 86413","Naru, Bajawa, Kabupaten Ngada",NUSA TENGGARA TIMUR,86413.0,Indonesia,82145071014,,,-87.722.267,1.209.789.558,https://maps.google.com/?cid=0x0:0xd3d82f6ad59f712d,
building materials,Pasar bahan bangunan,"Penjualan Batu, Pasir, Kerikil dan bahan bangunan lokal lain","Desa Naru, Bajawa, Flores, Kabupaten Ngada, Nusa Tenggara Tim. 86413","Bajawa, Flores, Kabupaten Ngada",NUSA TENGGARA TIMUR,86413.0,Indonesia,85217681729,,,-87.686.996,1.209.847.853,https://maps.google.com/?cid=0x0:0xa501aadb2ed10cc0,
building materials,building materials,Waka mana,"F399+34H, Wangka Sel., Kec. Riung, Kabupaten Ngada, Nusa Tenggara Tim.","Kabupaten Ngada, Nusa Tenggara Tim.",NUSA TENGGARA TIMUR,,Indonesia,,,,-85.323.221,1.210.678.732,https://maps.google.com/?cid=0x0:0x60fe789ef5c42508,
building materials,building materials,Kec. Bajawa Utara,"Kabupaten Ngada, Nusa Tenggara Tim.","Kabupaten Ngada, Nusa Tenggara Tim.",NUSA TENGGARA TIMUR,,Indonesia,,,,-87.368.576,1.210.030.037,https://maps.google.com/?cid=0x0:0xb1d8c7bab42c5a19,
building materials,Toko Bahan Bangunan,"penjualan material bangunan, batu, pasir","Waenai, Naru, Bajawa, Kabupaten Ngada, Nusa Tenggara Tim. 86413","Naru, Bajawa, Kabupaten Ngada",NUSA TENGGARA TIMUR,86413.0,Indonesia,82145071014,,,-87.722.267,1.209.789.558,https://maps.google.com/?cid=0x0:0xd3d82f6ad59f712d,
building materials,Kios,Toko Bahan Bangunan Nazareth,"Jl. Budi Oetomo No.5, Ngedukelu, Bajawa, Kabupaten Ngada, Nusa Tenggara Tim.","Kabupaten Ngada, Nusa Tenggara Tim.",NUSA TENGGARA TIMUR,,Indonesia,,,,-87.880.286,1.209.746.536,https://maps.google.com/?cid=0x0:0x2c5c5e8684cbe434,
building materials,Perusahaan Konstruksi,APM Material,"6XRR+455, Naru, Bajawa, Kabupaten Ngada, Nusa Tenggara Tim.","Kabupaten Ngada, Nusa Tenggara Tim.",NUSA TENGGARA TIMUR,,Indonesia,,,,-87.597.358,1.209.905,https://maps.google.com/?cid=0x0:0xcec9f76fa4844e32,
building materials,Pasar bahan bangunan,"Penjualan Batu, Pasir, Kerikil dan bahan bangunan lokal lain","Desa Naru, Bajawa, Flores, Kabupaten Ngada, Nusa Tenggara Tim. 86413","Bajawa, Flores, Kabupaten Ngada",NUSA TENGGARA TIMUR,86413.0,Indonesia,85217681729,,,-87.686.996,1.209.847.853,https://maps.google.com/?cid=0x0:0xa501aadb2ed10cc0,
building materials,Gudang,Toko SENTRAL,"Jl. Budi Oetomo, Utomo, Bajawa, Kabupaten Ngada, Nusa Tenggara Tim. 86413","Utomo, Bajawa, Kabupaten Ngada",NUSA TENGGARA TIMUR,86413.0,Indonesia,,,,-87.875.796,1.209.734.623,https://maps.google.com/?cid=0x0:0x13fd05e2af09b89a,
building materials,Tambang,Tambang Pasir Loboleke Naru-Lestari,"Naru, Bajawa, Kabupaten Ngada, Nusa Tenggara Tim. 86413","Bajawa, Kabupaten Ngada",NUSA TENGGARA TIMUR,86413.0,Indonesia,85217681729,,,-87.703.125,1.209.841.875,https://maps.google.com/?cid=0x0:0x1aae89b10dc772d3,
building materials,Produsen,Percetakan batako,"Dusun Wulilade 1, Tarawaja, Kec. Soa, Kabupaten Ngada, Nusa Tenggara Tim. 86414","Tarawaja, Kec. Soa, Kabupaten Ngada",NUSA TENGGARA TIMUR,86414.0,Indonesia,81357140714,,,-87.214.146,1.210.383.819,https://maps.google.com/?cid=0x0:0x250ec7ba6d7892,
building materials,Pusat Perbelanjaan,Larici. UD,"5XR4+QGF, JL. Pasar, Bajawa, Kabupaten Ngada, Nusa Tenggara Tim.","Kabupaten Ngada, Nusa Tenggara Tim.",NUSA TENGGARA TIMUR,,Indonesia,3842223432,,,-8.808.065,120.956.297,https://maps.google.com/?cid=0x0:0xb0e8f86c0ebef4bf,
building materials,Industri Pasir,Batu Naru,"Naru, Bajawa, Kabupaten Ngada, Nusa Tenggara Tim.","Kabupaten Ngada, Nusa Tenggara Tim.",NUSA TENGGARA TIMUR,,Indonesia,,,,-87.634.978,1.209.831.992,https://maps.google.com/?cid=0x0:0x97bdc8ca1208b384,
building materials,Pasar bahan bangunan,Pusat pasir Bajawa,"6XJM+R9, Naru, Bajawa, Kabupaten Ngada, Nusa Tenggara Tim.","Kabupaten Ngada, Nusa Tenggara Tim.",NUSA TENGGARA TIMUR,,Indonesia,,,,-87.679.624,1.209.834.496,https://maps.google.com/?cid=0x0:0xa012e2ef754fb02c,
building materials,Kios,TRINUSA ATK,"jln TW Mengeruda so'a, Bajawa, Nusa Tenggara Tim. 86415",Bajawa,NUSA TENGGARA TIMUR,86415.0,Indonesia,82236117236,,,-86.969.791,1.210.360.507,https://maps.google.com/?cid=0x0:0xa53112594e673f6e,
building materials,building materials,,,,NUSA TENGGARA TIMUR,,Indonesia,85231776870,,,-88.176.214,121.028.111,https://maps.google.com/?cid=0x0:0xe3fac21964272d23,
building materials,Kontraktor Umum,CV. Senandung,"Mangulewa, Kec. Golewa, Kabupaten Ngada, Nusa Tenggara Tim.","Kabupaten Ngada, Nusa Tenggara Tim.",NUSA TENGGARA TIMUR,,Indonesia,81237751352,,,-88.161.925,1.210.081.983,https://maps.google.com/?cid=0x0:0x8410ea96299acf6d,
building materials,Toko Bahan Bangunan,Songke Keramic,"JL. Bangau No.1, Flores, Nginamanu, Kupang, Kabupaten Ngada, Nusa Tenggara Tim.","Kabupaten Ngada, Nusa Tenggara Tim.",NUSA TENGGARA TIMUR,,Indonesia,85239177611,,,-8.658.542,12.107.665,https://maps.google.com/?cid=0x0:0xc471ec0e825f0599,
building materials,Toko Bahan Bangunan,Vimijo Bangunan,"XW8X+XH7, Jl. Oesao - Bokong, Camplong II, Kec. Fatuleu, Kabupaten Kupang, Nusa Tenggara Tim.","Kabupaten Kupang, Nusa Tenggara Tim.",NUSA TENGGARA TIMUR,,Indonesia,,,,-100.325.942,1.239.489.106,https://maps.google.com/?cid=0x0:0xe4627d37c494bea6,
building materials,Pemasok Bahan Bangunan,TEMPAT JUAL BATAKO,"WV8F+HQG, Naibonat, Kec. Kupang Tim., Kabupaten Kupang, Nusa Tenggara Tim.","Kabupaten Kupang, Nusa Tenggara Tim.",NUSA TENGGARA TIMUR,,Indonesia,82144961554,,,-100.835.603,1.238.744.477,https://maps.google.com/?cid=0x0:0x8568e560a44a8745,
building materials,building materials,Waka mana,"F399+34H, Wangka Sel., Kec. Riung, Kabupaten Ngada, Nusa Tenggara Tim.","Kabupaten Ngada, Nusa Tenggara Tim.",NUSA TENGGARA TIMUR,,Indonesia,,,,-85.323.221,1.210.678.732,https://maps.google.com/?cid=0x0:0x60fe789ef5c42508,
building materials,building materials,Kec. Golewa Selatan,"Kabupaten Ngada, Nusa Tenggara Tim.","Kabupaten Ngada, Nusa Tenggara Tim.",NUSA TENGGARA TIMUR,,Indonesia,,,,-88.533.694,1.211.030.931,https://maps.google.com/?cid=0x0:0x841f99d069ae89c3,
building materials,Kontraktor Umum,CV. Senandung,"Mangulewa, Kec. Golewa, Kabupaten Ngada, Nusa Tenggara Tim.","Kabupaten Ngada, Nusa Tenggara Tim.",NUSA TENGGARA TIMUR,,Indonesia,81237751352,,,-88.161.925,1.210.081.983,https://maps.google.com/?cid=0x0:0x8410ea96299acf6d,
building materials,Toko Bahan Bangunan,CV. SINAR BERLIAN,"5XQV+GJJ, Ubedolumolo, Bajawa, Kabupaten Ngada, Nusa Tenggara Tim.","Kabupaten Ngada, Nusa Tenggara Tim.",NUSA TENGGARA TIMUR,,Indonesia,,,,-88.111.709,1.209.940.073,https://maps.google.com/?cid=0x0:0xe1fcc0cee3d84e86,
building materials,Jasa Konstruksi dan Bangunan,USAHA SOMEL,"Kampung Wae (Yoda, Kelewae, Kec. Boawae, Kabupaten Nagekeo, Nusa Tenggara Tim. 86462","Kelewae, Kec. Boawae, Kabupaten Nagekeo",NUSA TENGGARA TIMUR,86462.0,Indonesia,82145059424,,,-88.318.908,1.211.695.751,https://maps.google.com/?cid=0x0:0xf7231976f75bcf7d,
building materials,building materials,,,,NUSA TENGGARA TIMUR,,Indonesia,85231776870,,,-88.176.214,121.028.111,https://maps.google.com/?cid=0x0:0xe3fac21964272d23,
building materials,building materials,Tb. Hokky,"52P2+RPF, Jl. Trans Flores, Mangulewa, Kec. Golewa, Kabupaten Ngada, Nusa Tenggara Tim.","Kabupaten Ngada, Nusa Tenggara Tim.",NUSA TENGGARA TIMUR,,Indonesia,,,,-88.129.481,1.210.017.864,https://maps.google.com/?cid=0x0:0x2887d81450ca5fa2,
building materials,Kantor Pemerintah,KANTOR CAMAT GOLEWA SELATAN,"43HW+W7R, Were II, Kec. Golewa, Kabupaten Ngada, Nusa Tenggara Tim.","Kabupaten Ngada, Nusa Tenggara Tim.",NUSA TENGGARA TIMUR,,Indonesia,,,,-88.701.446,1.210.956.358,https://maps.google.com/?cid=0x0:0xad799d8aeb722b7d,
building materials,Gudang,Toko SENTRAL,"Jl. Budi Oetomo, Utomo, Bajawa, Kabupaten Ngada, Nusa Tenggara Tim. 86413","Utomo, Bajawa, Kabupaten Ngada",NUSA TENGGARA TIMUR,86413.0,Indonesia,,,,-87.875.796,1.209.734.623,https://maps.google.com/?cid=0x0:0x13fd05e2af09b89a,
building materials,building materials,Golewa Bar.,"Kabupaten Ngada, Nusa Tenggara Tim.","Kabupaten Ngada, Nusa Tenggara Tim.",NUSA TENGGARA TIMUR,,Indonesia,,,,-88.077.491,1.210.220.422,https://maps.google.com/?cid=0x0:0x103098ccabb3bc1,
building materials,Kontraktor Umum,CV. Senandung,"Mangulewa, Kec. Golewa, Kabupaten Ngada, Nusa Tenggara Tim.","Kabupaten Ngada, Nusa Tenggara Tim.",NUSA TENGGARA TIMUR,,Indonesia,81237751352,,,-88.161.925,1.210.081.983,https://maps.google.com/?cid=0x0:0x8410ea96299acf6d,
building materials,Toko Bahan Bangunan,CV. SINAR BERLIAN,"5XQV+GJJ, Ubedolumolo, Bajawa, Kabupaten Ngada, Nusa Tenggara Tim.","Kabupaten Ngada, Nusa Tenggara Tim.",NUSA TENGGARA TIMUR,,Indonesia,,,,-88.111.709,1.209.940.073,https://maps.google.com/?cid=0x0:0xe1fcc0cee3d84e86,
building materials,Toko Bahan Bangunan,"penjualan material bangunan, batu, pasir","Waenai, Naru, Bajawa, Kabupaten Ngada, Nusa Tenggara Tim. 86413","Naru, Bajawa, Kabupaten Ngada",NUSA TENGGARA TIMUR,86413.0,Indonesia,82145071014,,,-87.722.267,1.209.789.558,https://maps.google.com/?cid=0x0:0xd3d82f6ad59f712d,
building materials,Toko Bahan Bangunan,Toko Sedang Mekar,"6X6F+J9H, Ngedukelu, Bajawa, Kabupaten Ngada, Nusa Tenggara Tim.","Kabupaten Ngada, Nusa Tenggara Tim.",NUSA TENGGARA TIMUR,,Indonesia,,,,-87.884.434,1.209.734.838,https://maps.google.com/?cid=0x0:0xcb094957881919c6,
building materials,Toko Bahan Bangunan,Toko Cemerlang,"6X6F+G26, Kisanata, Bajawa, Kabupaten Ngada, Nusa Tenggara Tim.","Kabupaten Ngada, Nusa Tenggara Tim.",NUSA TENGGARA TIMUR,,Indonesia,,,,-87.887.022,1.209.725.012,https://maps.google.com/?cid=0x0:0x134e98a0443147ee,
building materials,Kios,Toko Bahan Bangunan Nazareth,"Jl. Budi Oetomo No.5, Ngedukelu, Bajawa, Kabupaten Ngada, Nusa Tenggara Tim.","Kabupaten Ngada, Nusa Tenggara Tim.",NUSA TENGGARA TIMUR,,Indonesia,,,,-87.880.286,1.209.746.536,https://maps.google.com/?cid=0x0:0x2c5c5e8684cbe434,
building materials,Produsen,Percetakan batako,"Dusun Wulilade 1, Tarawaja, Kec. Soa, Kabupaten Ngada, Nusa Tenggara Tim. 86414","Tarawaja, Kec. Soa, Kabupaten Ngada",NUSA TENGGARA TIMUR,86414.0,Indonesia,81357140714,,,-87.214.146,1.210.383.819,https://maps.google.com/?cid=0x0:0x250ec7ba6d7892,
building materials,Tambang,Tambang Pasir Loboleke Naru-Lestari,"Naru, Bajawa, Kabupaten Ngada, Nusa Tenggara Tim. 86413","Bajawa, Kabupaten Ngada",NUSA TENGGARA TIMUR,86413.0,Indonesia,85217681729,,,-87.703.125,1.209.841.875,https://maps.google.com/?cid=0x0:0x1aae89b10dc772d3,
building materials,Gudang,Toko SENTRAL,"Jl. Budi Oetomo, Utomo, Bajawa, Kabupaten Ngada, Nusa Tenggara Tim. 86413","Utomo, Bajawa, Kabupaten Ngada",NUSA TENGGARA TIMUR,86413.0,Indonesia,,,,-87.875.796,1.209.734.623,https://maps.google.com/?cid=0x0:0x13fd05e2af09b89a,
building materials,Perusahaan Konstruksi,APM Material,"6XRR+455, Naru, Bajawa, Kabupaten Ngada, Nusa Tenggara Tim.","Kabupaten Ngada, Nusa Tenggara Tim.",NUSA TENGGARA TIMUR,,Indonesia,,,,-87.597.358,1.209.905,https://maps.google.com/?cid=0x0:0xcec9f76fa4844e32,
building materials,Pasar bahan bangunan,"Penjualan Batu, Pasir, Kerikil dan bahan bangunan lokal lain","Desa Naru, Bajawa, Flores, Kabupaten Ngada, Nusa Tenggara Tim. 86413","Bajawa, Flores, Kabupaten Ngada",NUSA TENGGARA TIMUR,86413.0,Indonesia,85217681729,,,-87.686.996,1.209.847.853,https://maps.google.com/?cid=0x0:0xa501aadb2ed10cc0,
building materials,building materials,,,,NUSA TENGGARA TIMUR,,Indonesia,85231776870,,,-88.176.214,121.028.111,https://maps.google.com/?cid=0x0:0xe3fac21964272d23,
building materials,Pusat Perbelanjaan,Larici. UD,"5XR4+QGF, JL. Pasar, Bajawa, Kabupaten Ngada, Nusa Tenggara Tim.","Kabupaten Ngada, Nusa Tenggara Tim.",NUSA TENGGARA TIMUR,,Indonesia,3842223432,,,-8.808.065,120.956.297,https://maps.google.com/?cid=0x0:0xb0e8f86c0ebef4bf,
building materials,Industri Pasir,Batu Naru,"Naru, Bajawa, Kabupaten Ngada, Nusa Tenggara Tim.","Kabupaten Ngada, Nusa Tenggara Tim.",NUSA TENGGARA TIMUR,,Indonesia,,,,-87.634.978,1.209.831.992,https://maps.google.com/?cid=0x0:0x97bdc8ca1208b384,
building materials,building materials,"NSZnaOKjNaCvseMP2syqyQk-,null,null,1,null,""https://www.google.com/maps/preview/place/Batu+roster/@-8.790474,120.9770394,3943a,13.1y/datau003d!4m2!3m1!1s0x2db2e1470ff68523:0x589e325a8e4677f2""",,,NUSA TENGGARA TIMUR,,Indonesia,81239044173,,,-8.790.474,1.209.770.394,https://maps.google.com/?cid=0x0:0x589e325a8e4677f2,
building materials,Toko,Toko Kurniawan,"6X6F+WF9, Ngedukelu, Bajawa, Kabupaten Ngada, Nusa Tenggara Tim.","Kabupaten Ngada, Nusa Tenggara Tim.",NUSA TENGGARA TIMUR,,Indonesia,38421096,,,-87.877.219,1.209.737.335,https://maps.google.com/?cid=0x0:0x883e0e3acb0c0347,
building materials,building materials,Tb. Hokky,"52P2+RPF, Jl. Trans Flores, Mangulewa, Kec. Golewa, Kabupaten Ngada, Nusa Tenggara Tim.","Kabupaten Ngada, Nusa Tenggara Tim.",NUSA TENGGARA TIMUR,,Indonesia,,,,-88.129.481,1.210.017.864,https://maps.google.com/?cid=0x0:0x2887d81450ca5fa2,
building materials,Toko Bahan Bangunan,"penjualan material bangunan, batu, pasir","Waenai, Naru, Bajawa, Kabupaten Ngada, Nusa Tenggara Tim. 86413","Naru, Bajawa, Kabupaten Ngada",NUSA TENGGARA TIMUR,86413.0,Indonesia,82145071014,,,-87.722.267,1.209.789.558,https://maps.google.com/?cid=0x0:0xd3d82f6ad59f712d,
building materials,Pasar bahan bangunan,"Penjualan Batu, Pasir, Kerikil dan bahan bangunan lokal lain","Desa Naru, Bajawa, Flores, Kabupaten Ngada, Nusa Tenggara Tim. 86413","Bajawa, Flores, Kabupaten Ngada",NUSA TENGGARA TIMUR,86413.0,Indonesia,85217681729,,,-87.686.996,1.209.847.853,https://maps.google.com/?cid=0x0:0xa501aadb2ed10cc0,
building materials,building materials,Gunung Inerie,"Kelitei, Kec. Inerie, Kabupaten Ngada, Nusa Tenggara Tim.","Kabupaten Ngada, Nusa Tenggara Tim.",NUSA TENGGARA TIMUR,,Indonesia,,,,-88.781.054,1.209.543.944,https://maps.google.com/?cid=0x0:0x43fe208382cb2661,
building materials,Toko,Utama Karya,"Jl. Raya Hankam No.67, RT.008/RW.005, Jatimurni, Kec. Pd. Melati, Kota Bks, Jawa Barat 17431","RT.008/RW.005, Jatimurni, Kec. Pd. Melati, Kota Bks",NUSA TENGGARA TIMUR,17431.0,Indonesia,85323107681,,,-63.245.734,1.069.239.649,https://maps.google.com/?cid=0x0:0x3e35e21165843dd5,
toko bangunan,toko bangunan,Nusa Tenggara Tim.,,Nusa Tenggara Tim.,NUSA TENGGARA TIMUR,,Indonesia,,,,-86.573.819,1.210.793.705,https://maps.google.com/?cid=0x0:0x1030bfbcaf71ae0,
toko bangunan,Toko Bahan Bangunan,Toko Metro Bangunan,"Jl. Pulau Indah, Oesapa Bar., Kec. Klp. Lima, Kota Kupang, Nusa Tenggara Tim. 85228","Oesapa Bar., Kec. Klp. Lima, Kota Kupang",NUSA TENGGARA TIMUR,85228.0,Indonesia,82164218639,,,-101.488.046,1.236.344.972,https://maps.google.com/?cid=0x0:0x4afb0da23e208afb,
toko bangunan,Toko Bahan Bangunan,Toko Bangunan Jaya,"Jl. Terusan Timor Raya No.9u KM. 6, Oesapa Bar., Kec. Klp. Lima, Kota Kupang, Nusa Tenggara Tim.","Kota Kupang, Nusa Tenggara Tim.",NUSA TENGGARA TIMUR,,Indonesia,81338567839,,,-1.014.441,1.236.254.719,https://maps.google.com/?cid=0x0:0x4a94c89160bbe62c,
toko bangunan,Toko Bahan Bangunan,Toko Graha Bangunan,"Gedung Graha Ariadi, Oesapa Bar., Kec. Klp. Lima, Kota Kupang, Nusa Tenggara Tim. 85228","Oesapa Bar., Kec. Klp. Lima, Kota Kupang",NUSA TENGGARA TIMUR,85228.0,Indonesia,81312893723,,,-101.468.703,123.631.267,https://maps.google.com/?cid=0x0:0x4167d73ee95fc845,
toko bangunan,Toko Bahan Bangunan,toko sinar bangunan (ende),"5J3V+MWW, Kel. Mbongawani, Kec. Ende Sel., Kabupaten Ende, Nusa Tenggara Tim.","Kabupaten Ende, Nusa Tenggara Tim.",NUSA TENGGARA TIMUR,,Indonesia,38121454,,,-88.457.706,1.216.448.129,https://maps.google.com/?cid=0x0:0x286f8de860e51520,
toko bangunan,Pemasok Pipa,Toko Bangunan,"Manulai II, Kec. Alak, Kota Kupang, Nusa Tenggara Tim.","Kota Kupang, Nusa Tenggara Tim.",NUSA TENGGARA TIMUR,,Indonesia,85123255522,,,-10.213.815,1.235.749.527,https://maps.google.com/?cid=0x0:0x5559349e9e4fc36f,
toko bangunan,Toko Bahan Bangunan,UD. Fajar Bangunan ENDE,"Jl. Ahmad Yani, Kel. Kelimutu, Kec. Ende Tengah, Kabupaten Ende, Nusa Tenggara Tim.","Kabupaten Ende, Nusa Tenggara Tim.",NUSA TENGGARA TIMUR,,Indonesia,82155194068,,,-88.481.109,1.216.573.345,https://maps.google.com/?cid=0x0:0x8a620756dd470b99,
toko bangunan,Toko Bahan Bangunan,TOKO MUTIARA BANGUNAN,"JALAN R. W. MONGINSIDI Jl. Boanawa, Kel. Mbongawani, Kec. Ende Sel., Kabupaten Ende, Nusa Tenggara Tim. 86318","Kel. Mbongawani, Kec. Ende Sel., Kabupaten Ende",NUSA TENGGARA TIMUR,86318.0,Indonesia,82342055794,,,-88.505.091,121.649.829,https://maps.google.com/?cid=0x0:0xd3b67f3d4b660364,
toko bangunan,Toko Bahan Bangunan,toko gloria bangunan,"Jl. Kemakmuran No.14, Kel. Mbongawani, Kec. Ende Sel., Kabupaten Ende, Nusa Tenggara Tim.","Kabupaten Ende, Nusa Tenggara Tim.",NUSA TENGGARA TIMUR,,Indonesia,81331006673,,,-88.465.826,121.644.941,https://maps.google.com/?cid=0x0:0xe6e6044a0d0864ee,
toko bangunan,Toko Bahan Bangunan,Sinar Bangunan Building Mart,"Jl. Yos Sudarso No.177, Namosain, Kec. Alak, Kota Kupang, Nusa Tenggara Tim.","Kota Kupang, Nusa Tenggara Tim.",NUSA TENGGARA TIMUR,,Indonesia,81238941314,,,-101.916.248,1.235.407.476,https://maps.google.com/?cid=0x0:0x411fca6242be55fc,
toko bangunan,Pemasok Bahan Bangunan,Toko Hero Bangunan,"Toko Hero Bangunan, Tini, Manuaman, Kec. Kota Atambua, Kabupaten Belu, Nusa Tenggara Tim. 85712","Tini, Manuaman, Kec. Kota Atambua, Kabupaten Belu",NUSA TENGGARA TIMUR,85712.0,Indonesia,82221202985,,,-91.117.919,1.248.871.833,https://maps.google.com/?cid=0x0:0xb79f7fc42724fd10,
toko bangunan,Toko Bahan Bangunan,UD. SAMA JAYA,"RHHP+VX2, Jl. Jenderal Sudirman No.27, Kuanino, Kec. Kota Raja, Kota Kupang, Nusa Tenggara Tim.","Kota Kupang, Nusa Tenggara Tim.",NUSA TENGGARA TIMUR,,Indonesia,81238825057,,,-101.703.192,1.235.873.411,https://maps.google.com/?cid=0x0:0xb81f7d1e47e6001b,
toko bangunan,Toko,Toko Bagunan Aeramo Jaya,"C8CM+22R, Jalan Raya Mbay-, Uneng City, Alok, Sikka Regency, East Nusa Tenggara","Kabupaten Sikka, Nusa Tenggara Tim.",NUSA TENGGARA TIMUR,,Indonesia,,,,-85.798.801,1.213.325.008,https://maps.google.com/?cid=0x0:0xed5fa59820787f9b,
toko bangunan,Toko Bahan Bangunan,CV. Tujuh Jaya,"723W+C6P, Unnamed Rd, Mokdale, Kec. Lobalain, Kabupaten Rote Ndao, Nusa Tenggara Tim.","Kabupaten Rote Ndao, Nusa Tenggara Tim.",NUSA TENGGARA TIMUR,,Indonesia,,,,-107.464.098,12.304.558,https://maps.google.com/?cid=0x0:0x575a85c650ddf9e4,
toko bangunan,Toko Bahan Bangunan,Sinar Bangunan Building Center,"Jl. Bund. PU No.12, Tuak Daun Merah, Kec. Oebobo, Kota Kupang, Nusa Tenggara Tim. 85228","Tuak Daun Merah, Kec. Oebobo, Kota Kupang",NUSA TENGGARA TIMUR,85228.0,Indonesia,81236648694,,,-101.675.355,1.236.289.538,https://maps.google.com/?cid=0x0:0x8b34913a09e207d2,
toko bangunan,Pemasok Pipa,Toko Buana Bangunan,"Lasiana, Kec. Klp. Lima, Kota Kupang, Nusa Tenggara Tim.","Kota Kupang, Nusa Tenggara Tim.",NUSA TENGGARA TIMUR,,Indonesia,82244376888,,,-101.373.266,1.236.764.484,https://maps.google.com/?cid=0x0:0x9fc6cad7dda4e71a,
toko bangunan,Toko Bahan Bangunan,Toko Cipta Bangunan,"Wolomarang, Kec. Alok Bar., Kabupaten Sikka, Nusa Tenggara Tim.","Kabupaten Sikka, Nusa Tenggara Tim.",NUSA TENGGARA TIMUR,,Indonesia,81231842348,,,-86.105.049,1.221.996.912,https://maps.google.com/?cid=0x0:0x1d786c0067a3953f,
toko bangunan,Toko Bahan Bangunan,Toko Gloria,"Jl. Kemakmuran No.4, Kel. Rukunlima, Kec. Ende, Kabupaten Ende, Nusa Tenggara Tim.","Kabupaten Ende, Nusa Tenggara Tim.",NUSA TENGGARA TIMUR,,Indonesia,38121405,,,-8.853.948,121.654.251,https://maps.google.com/?cid=0x0:0xbf3a983e033d59a5,
toko bangunan,Gudang,Toko SENTRAL,"Jl. Budi Oetomo, Utomo, Bajawa, Kabupaten Ngada, Nusa Tenggara Tim. 86413","Utomo, Bajawa, Kabupaten Ngada",NUSA TENGGARA TIMUR,86413.0,Indonesia,,,,-87.875.796,1.209.734.623,https://maps.google.com/?cid=0x0:0x13fd05e2af09b89a,
toko bangunan,Minimarket,toko hebron,"725V+CW9, Unnamed Rd, Mokdale, Kec. Lobalain, Kabupaten Rote Ndao, Nusa Tenggara Tim.","Kabupaten Rote Ndao, Nusa Tenggara Tim.",NUSA TENGGARA TIMUR,,Indonesia,,,,-107.414.723,1.230.448.675,https://maps.google.com/?cid=0x0:0x699558aa9d2e663a,
toko bangunan,toko bangunan,Aimere,"Langagedha, Bajawa, Kabupaten Ngada, Nusa Tenggara Tim.","Kabupaten Ngada, Nusa Tenggara Tim.",NUSA TENGGARA TIMUR,,Indonesia,,,,-8.821.697,120.945.702,https://maps.google.com/?cid=0x0:0x6b62a64ace33e6d9,
toko bangunan,toko bangunan,TB Elsyor,"5V34+FW, Aimere Tim., Kec. Aimere, Kabupaten Ngada, Nusa Tenggara Tim.","Kabupaten Ngada, Nusa Tenggara Tim.",NUSA TENGGARA TIMUR,,Indonesia,,,,-8.846.259,1.208.572.963,https://maps.google.com/?cid=0x0:0xef5010480ae27acd,
toko bangunan,toko bangunan,Kec. Golewa,"Kabupaten Ngada, Nusa Tenggara Tim.","Kabupaten Ngada, Nusa Tenggara Tim.",NUSA TENGGARA TIMUR,,Indonesia,,,,-8.823.719,121.051.735,https://maps.google.com/?cid=0x0:0xbe72500ebc67578b,
toko bangunan,Gudang,Toko SENTRAL,"Jl. Budi Oetomo, Utomo, Bajawa, Kabupaten Ngada, Nusa Tenggara Tim. 86413","Utomo, Bajawa, Kabupaten Ngada",NUSA TENGGARA TIMUR,86413.0,Indonesia,,,,-87.875.796,1.209.734.623,https://maps.google.com/?cid=0x0:0x13fd05e2af09b89a,
toko bangunan,Toko Bahan Bangunan,Toko Graha Bangunan,"Gedung Graha Ariadi, Oesapa Bar., Kec. Klp. Lima, Kota Kupang, Nusa Tenggara Tim. 85228","Oesapa Bar., Kec. Klp. Lima, Kota Kupang",NUSA TENGGARA TIMUR,85228.0,Indonesia,81312893723,,,-101.468.703,123.631.267,https://maps.google.com/?cid=0x0:0x4167d73ee95fc845,
toko bangunan,Kontraktor Umum,CV. Senandung,"Mangulewa, Kec. Golewa, Kabupaten Ngada, Nusa Tenggara Tim.","Kabupaten Ngada, Nusa Tenggara Tim.",NUSA TENGGARA TIMUR,,Indonesia,81237751352,,,-88.161.925,1.210.081.983,https://maps.google.com/?cid=0x0:0x8410ea96299acf6d,
toko bangunan,Pemasok Pipa,Toko Buana Bangunan,"Lasiana, Kec. Klp. Lima, Kota Kupang, Nusa Tenggara Tim.","Kota Kupang, Nusa Tenggara Tim.",NUSA TENGGARA TIMUR,,Indonesia,82244376888,,,-101.373.266,1.236.764.484,https://maps.google.com/?cid=0x0:0x9fc6cad7dda4e71a,
toko bangunan,Toko Bahan Bangunan,SURYA BANGUNAN BUILDING MATERIAL,"Tuak Daun Merah, Kec. Oebobo, Kota Kupang, Nusa Tenggara Tim. 85228","Kec. Oebobo, Kota Kupang",NUSA TENGGARA TIMUR,85228.0,Indonesia,85101757906,,,-101.673.497,1.236.293.264,https://maps.google.com/?cid=0x0:0xadd57bf60a816b00,
toko bangunan,Toko Bahan Bangunan,CV KENCANA MULIA ABADI,"Jl. Terusan Timor Raya No.9, Oeba, Kec. Kota Lama, Kota Kupang, Nusa Tenggara Tim.","Kota Kupang, Nusa Tenggara Tim.",NUSA TENGGARA TIMUR,,Indonesia,,,,-101.562.204,123.594.482,https://maps.google.com/?cid=0x0:0x74678b2af89178aa,
toko bangunan,Toko Bahan Bangunan,PT. Makmur Abadi Bangunan,"Jl. Terusan Timor Raya No.Km 9, Oesapa, Kec. Klp. Lima, Kota Kupang, Nusa Tenggara Tim. 85228","Oesapa, Kec. Klp. Lima, Kota Kupang",NUSA TENGGARA TIMUR,85228.0,Indonesia,81367756504,,,-101.446.954,1.236.559.765,https://maps.google.com/?cid=0x0:0x7abc85a224f4ba37,
toko bangunan,Toko Bahan Bangunan,Toko Bravo Bangunan,"Jl. Terusan Timor Raya, Pasir Panjang, Kec. Kota Lama, Kota Kupang, Nusa Tenggara Tim. 85000","Pasir Panjang, Kec. Kota Lama, Kota Kupang",NUSA TENGGARA TIMUR,85000.0,Indonesia,81246295800,,,-101.509.378,1.236.033.391,https://maps.google.com/?cid=0x0:0xdf4da131f9948aff,
toko bangunan,Toko Bahan Bangunan,CV. Tujuh Jaya,"723W+C6P, Unnamed Rd, Mokdale, Kec. Lobalain, Kabupaten Rote Ndao, Nusa Tenggara Tim.","Kabupaten Rote Ndao, Nusa Tenggara Tim.",NUSA TENGGARA TIMUR,,Indonesia,,,,-107.464.098,12.304.558,https://maps.google.com/?cid=0x0:0x575a85c650ddf9e4,
toko bangunan,Toko Bahan Bangunan,Toko Bangunan Kanaan,"Jl. Terusan Timor Raya No.KM 8, Oesapa, Kec. Klp. Lima, Kota Kupang, Nusa Tenggara Tim. 85226","Oesapa, Kec. Klp. Lima, Kota Kupang",NUSA TENGGARA TIMUR,85226.0,Indonesia,81236129325,,,-101.492.781,1.236.411.571,https://maps.google.com/?cid=0x0:0x9ccb845e1bb38ce5,
toko bangunan,Toko Bahan Bangunan,Songke Keramic,"JL. Bangau No.1, Flores, Nginamanu, Kupang, Kabupaten Ngada, Nusa Tenggara Tim.","Kabupaten Ngada, Nusa Tenggara Tim.",NUSA TENGGARA TIMUR,,Indonesia,85239177611,,,-8.658.542,12.107.665,https://maps.google.com/?cid=0x0:0xc471ec0e825f0599,
toko bangunan,Toko Bahan Bangunan,Toko Metro Bangunan,"Jl. Pulau Indah, Oesapa Bar., Kec. Klp. Lima, Kota Kupang, Nusa Tenggara Tim. 85228","Oesapa Bar., Kec. Klp. Lima, Kota Kupang",NUSA TENGGARA TIMUR,85228.0,Indonesia,82164218639,,,-101.488.046,1.236.344.972,https://maps.google.com/?cid=0x0:0x4afb0da23e208afb,
toko bangunan,Toko Bahan Bangunan,Sinar Bangunan Building Center,"Jl. Bund. PU No.12, Tuak Daun Merah, Kec. Oebobo, Kota Kupang, Nusa Tenggara Tim. 85228","Tuak Daun Merah, Kec. Oebobo, Kota Kupang",NUSA TENGGARA TIMUR,85228.0,Indonesia,81236648694,,,-101.675.355,1.236.289.538,https://maps.google.com/?cid=0x0:0x8b34913a09e207d2,
toko bangunan,Toko Bahan Bangunan,Toko Duta Bangunan,"GFMJ+896, Benpasi, Kec. Kota Kefamenanu, Kabupaten Timor Tengah Utara, Nusa Tenggara Tim.","Kabupaten Timor Tengah Utara, Nusa Tenggara Tim.",NUSA TENGGARA TIMUR,,Indonesia,8113827627,,,-94.667.226,1.244.808.961,https://maps.google.com/?cid=0x0:0x7bd4b59644a2a0bd,
toko bangunan,Produsen,Percetakan batako,"Dusun Wulilade 1, Tarawaja, Kec. Soa, Kabupaten Ngada, Nusa Tenggara Tim. 86414","Tarawaja, Kec. Soa, Kabupaten Ngada",NUSA TENGGARA TIMUR,86414.0,Indonesia,81357140714,,,-87.214.146,1.210.383.819,https://maps.google.com/?cid=0x0:0x250ec7ba6d7892,
toko bangunan,Toko Perlengkapan Rumah,Toko Karya Bangunan,"RJQV+H9Q, Jl. Bumi I, Oesapa Sel., Kec. Klp. Lima, Kota Kupang, Nusa Tenggara Tim.","Kota Kupang, Nusa Tenggara Tim.",NUSA TENGGARA TIMUR,,Indonesia,,,,-101.610.333,1.236.434.727,https://maps.google.com/?cid=0x0:0x480107de15c2a6cf,
toko bangunan,Toko Bahan Bangunan,UD. SAMA JAYA,"RHHP+VX2, Jl. Jenderal Sudirman No.27, Kuanino, Kec. Kota Raja, Kota Kupang, Nusa Tenggara Tim.","Kota Kupang, Nusa Tenggara Tim.",NUSA TENGGARA TIMUR,,Indonesia,81238825057,,,-101.703.192,1.235.873.411,https://maps.google.com/?cid=0x0:0xb81f7d1e47e6001b,
toko bangunan,Minimarket,toko hebron,"725V+CW9, Unnamed Rd, Mokdale, Kec. Lobalain, Kabupaten Rote Ndao, Nusa Tenggara Tim.","Kabupaten Rote Ndao, Nusa Tenggara Tim.",NUSA TENGGARA TIMUR,,Indonesia,,,,-107.414.723,1.230.448.675,https://maps.google.com/?cid=0x0:0x699558aa9d2e663a,
toko bangunan,Toko Bahan Bangunan,Utama Bangunan,"Jl. Jenderal Sudirman No.104, Nunleu, Kec. Kota Raja, Kota Kupang, Nusa Tenggara Tim.","Kota Kupang, Nusa Tenggara Tim.",NUSA TENGGARA TIMUR,,Indonesia,,,,-101.737.992,123.592.435,https://maps.google.com/?cid=0x0:0x5d963cfe75d2b6f3,
toko bangunan,Toko Bahan Bangunan,toko gloria bangunan,"Jl. Kemakmuran No.14, Kel. Mbongawani, Kec. Ende Sel., Kabupaten Ende, Nusa Tenggara Tim.","Kabupaten Ende, Nusa Tenggara Tim.",NUSA TENGGARA TIMUR,,Indonesia,81331006673,,,-88.465.826,121.644.941,https://maps.google.com/?cid=0x0:0xe6e6044a0d0864ee,
toko bangunan,Pemasok Pipa,Toko Bangunan,"Manulai II, Kec. Alak, Kota Kupang, Nusa Tenggara Tim.","Kota Kupang, Nusa Tenggara Tim.",NUSA TENGGARA TIMUR,,Indonesia,85123255522,,,-10.213.815,1.235.749.527,https://maps.google.com/?cid=0x0:0x5559349e9e4fc36f,
toko bangunan,Jasa Konstruksi dan Bangunan,USAHA SOMEL,"Kampung Wae (Yoda, Kelewae, Kec. Boawae, Kabupaten Nagekeo, Nusa Tenggara Tim. 86462","Kelewae, Kec. Boawae, Kabupaten Nagekeo",NUSA TENGGARA TIMUR,86462.0,Indonesia,82145059424,,,-88.318.908,1.211.695.751,https://maps.google.com/?cid=0x0:0xf7231976f75bcf7d,
toko bangunan,Toko,Oesao gunung Golkar,"WR27+27G gunung Golkar, Oesao, Kec. Kupang Tim., Kabupaten Kupang, Nusa Tenggara Tim.","Kabupaten Kupang, Nusa Tenggara Tim.",NUSA TENGGARA TIMUR,,Indonesia,,,,-100.999.445,1.238.132.141,https://maps.google.com/?cid=0x0:0x9e868015a786a04a,
toko bangunan,Toko Bahan Bangunan,Toko Gloria,"Jl. Kemakmuran No.4, Kel. Rukunlima, Kec. Ende, Kabupaten Ende, Nusa Tenggara Tim.","Kabupaten Ende, Nusa Tenggara Tim.",NUSA TENGGARA TIMUR,,Indonesia,38121405,,,-8.853.948,121.654.251,https://maps.google.com/?cid=0x0:0xbf3a983e033d59a5,
toko bangunan,Toko Bahan Bangunan,Toko bangunan,"VM4C+R79, Lasiana, Kec. Klp. Lima, Kota Kupang, Nusa Tenggara Tim.","Kota Kupang, Nusa Tenggara Tim.",NUSA TENGGARA TIMUR,,Indonesia,,,,-10.142.954,1.236.707.233,https://maps.google.com/?cid=0x0:0xb111458939496520,
toko bangunan,toko bangunan,Tb. Hokky,"52P2+RPF, Jl. Trans Flores, Mangulewa, Kec. Golewa, Kabupaten Ngada, Nusa Tenggara Tim.","Kabupaten Ngada, Nusa Tenggara Tim.",NUSA TENGGARA TIMUR,,Indonesia,,,,-88.129.481,1.210.017.864,https://maps.google.com/?cid=0x0:0x2887d81450ca5fa2,
toko bangunan,toko bangunan,Nusa Tenggara Tim.,,Nusa Tenggara Tim.,NUSA TENGGARA TIMUR,,Indonesia,,,,-86.573.819,1.210.793.705,https://maps.google.com/?cid=0x0:0x1030bfbcaf71ae0,
toko bangunan,Toko Bahan Bangunan,Toko Cemerlang,"6X6F+G26, Kisanata, Bajawa, Kabupaten Ngada, Nusa Tenggara Tim.","Kabupaten Ngada, Nusa Tenggara Tim.",NUSA TENGGARA TIMUR,,Indonesia,,,,-87.887.022,1.209.725.012,https://maps.google.com/?cid=0x0:0x134e98a0443147ee,
toko bangunan,Kios,Toko Bahan Bangunan Nazareth,"Jl. Budi Oetomo No.5, Ngedukelu, Bajawa, Kabupaten Ngada, Nusa Tenggara Tim.","Kabupaten Ngada, Nusa Tenggara Tim.",NUSA TENGGARA TIMUR,,Indonesia,,,,-87.880.286,1.209.746.536,https://maps.google.com/?cid=0x0:0x2c5c5e8684cbe434,
toko bangunan,Gudang,Toko SENTRAL,"Jl. Budi Oetomo, Utomo, Bajawa, Kabupaten Ngada, Nusa Tenggara Tim. 86413","Utomo, Bajawa, Kabupaten Ngada",NUSA TENGGARA TIMUR,86413.0,Indonesia,,,,-87.875.796,1.209.734.623,https://maps.google.com/?cid=0x0:0x13fd05e2af09b89a,
toko bangunan,Pasar bahan bangunan,"Penjualan Batu, Pasir, Kerikil dan bahan bangunan lokal lain","Desa Naru, Bajawa, Flores, Kabupaten Ngada, Nusa Tenggara Tim. 86413","Bajawa, Flores, Kabupaten Ngada",NUSA TENGGARA TIMUR,86413.0,Indonesia,85217681729,,,-87.686.996,1.209.847.853,https://maps.google.com/?cid=0x0:0xa501aadb2ed10cc0,
toko bangunan,Toko Bahan Bangunan,CV. Tujuh Jaya,"723W+C6P, Unnamed Rd, Mokdale, Kec. Lobalain, Kabupaten Rote Ndao, Nusa Tenggara Tim.","Kabupaten Rote Ndao, Nusa Tenggara Tim.",NUSA TENGGARA TIMUR,,Indonesia,,,,-107.464.098,12.304.558,https://maps.google.com/?cid=0x0:0x575a85c650ddf9e4,
toko bangunan,Toko Bahan Bangunan,Toko Cipta Bangunan,"Wolomarang, Kec. Alok Bar., Kabupaten Sikka, Nusa Tenggara Tim.","Kabupaten Sikka, Nusa Tenggara Tim.",NUSA TENGGARA TIMUR,,Indonesia,81231842348,,,-86.105.049,1.221.996.912,https://maps.google.com/?cid=0x0:0x1d786c0067a3953f,
toko bangunan,Toko Bahan Bangunan,Toko Belu Bangunan,"Jl. Jenderal Sudirman No.34, Atambua, Kec. Kota Atambua, Kabupaten Belu, Nusa Tenggara Tim.","Kabupaten Belu, Nusa Tenggara Tim.",NUSA TENGGARA TIMUR,,Indonesia,85137362494,,,-9.107.011,1.248.962.022,https://maps.google.com/?cid=0x0:0x559d9cf31ea38cd,
toko bangunan,Pemasok Pipa,Toko Buana Bangunan,"Lasiana, Kec. Klp. Lima, Kota Kupang, Nusa Tenggara Tim.","Kota Kupang, Nusa Tenggara Tim.",NUSA TENGGARA TIMUR,,Indonesia,82244376888,,,-101.373.266,1.236.764.484,https://maps.google.com/?cid=0x0:0x9fc6cad7dda4e71a,
toko bangunan,Toko Bahan Bangunan,toko pelangi bangunan,"FVQP+VXF, Goron Talo, Kec. Komodo, Kabupaten Manggarai Barat, Nusa Tenggara Tim.","Kabupaten Manggarai Barat, Nusa Tenggara Tim.",NUSA TENGGARA TIMUR,,Indonesia,82145627171,,,-85.103.078,1.198.874.183,https://maps.google.com/?cid=0x0:0x6f62dc0810d90ac8,
toko bangunan,Toko Bahan Bangunan,Toko Bangunan Jaya,"Jl. Terusan Timor Raya No.9u KM. 6, Oesapa Bar., Kec. Klp. Lima, Kota Kupang, Nusa Tenggara Tim.","Kota Kupang, Nusa Tenggara Tim.",NUSA TENGGARA TIMUR,,Indonesia,81338567839,,,-1.014.441,1.236.254.719,https://maps.google.com/?cid=0x0:0x4a94c89160bbe62c,
toko bangunan,Pemasok Pipa,Toko Bangunan,"Manulai II, Kec. Alak, Kota Kupang, Nusa Tenggara Tim.","Kota Kupang, Nusa Tenggara Tim.",NUSA TENGGARA TIMUR,,Indonesia,85123255522,,,-10.213.815,1.235.749.527,https://maps.google.com/?cid=0x0:0x5559349e9e4fc36f,
toko bangunan,Toko Bahan Bangunan,Toko Roda Bangunan,"VVVX+333, Atambua, Kec. Kota Atambua, Kabupaten Belu, Nusa Tenggara Tim.","Kabupaten Belu, Nusa Tenggara Tim.",NUSA TENGGARA TIMUR,,Indonesia,,,,-91.073.625,1.248.976.836,https://maps.google.com/?cid=0x0:0xfdf308e29f21112,
toko bangunan,Pusat Perbelanjaan,Sinar Kencana Alor - Toko Bangunan,"Jl. Jend. Sudirman, Kalabahi Kota, Kec. Tlk. Mutiara, Kabupaten Alor, Nusa Tenggara Tim.","Kabupaten Alor, Nusa Tenggara Tim.",NUSA TENGGARA TIMUR,,Indonesia,82228000848,,,-82.165.322,1.245.274.066,https://maps.google.com/?cid=0x0:0xf8954eac934992e1,
toko bangunan,Toko Bahan Bangunan,UD TUJUH JAYA BANGUNAN I,"72GX+8M5, Metina, Kec. Lobalain, Kabupaten Rote Ndao, Nusa Tenggara Tim.","Kabupaten Rote Ndao, Nusa Tenggara Tim.",NUSA TENGGARA TIMUR,,Indonesia,,,,-107.242.448,1.230.492.313,https://maps.google.com/?cid=0x0:0xca85d779b23c1d9d,
toko bangunan,Toko Bahan Bangunan,Toko Graha Bangunan,"Gedung Graha Ariadi, Oesapa Bar., Kec. Klp. Lima, Kota Kupang, Nusa Tenggara Tim. 85228","Oesapa Bar., Kec. Klp. Lima, Kota Kupang",NUSA TENGGARA TIMUR,85228.0,Indonesia,81312893723,,,-101.468.703,123.631.267,https://maps.google.com/?cid=0x0:0x4167d73ee95fc845,
toko bangunan,Pasar bahan bangunan,Toko Sentral Bangunan,"Jl. A. Yani No.31, Oeba, Kec. Kota Lama, Kota Kupang, Nusa Tenggara Tim.","Kota Kupang, Nusa Tenggara Tim.",NUSA TENGGARA TIMUR,,Indonesia,,,,-101.589.841,1.235.906.754,https://maps.google.com/?cid=0x0:0x86beb21036599681,
toko bangunan,Toko Bahan Bangunan,Toko Duta Bangunan,"GFMJ+896, Benpasi, Kec. Kota Kefamenanu, Kabupaten Timor Tengah Utara, Nusa Tenggara Tim.","Kabupaten Timor Tengah Utara, Nusa Tenggara Tim.",NUSA TENGGARA TIMUR,,Indonesia,8113827627,,,-94.667.226,1.244.808.961,https://maps.google.com/?cid=0x0:0x7bd4b59644a2a0bd,
toko bangunan,Minimarket,toko hebron,"725V+CW9, Unnamed Rd, Mokdale, Kec. Lobalain, Kabupaten Rote Ndao, Nusa Tenggara Tim.","Kabupaten Rote Ndao, Nusa Tenggara Tim.",NUSA TENGGARA TIMUR,,Indonesia,,,,-107.414.723,1.230.448.675,https://maps.google.com/?cid=0x0:0x699558aa9d2e663a,
toko bangunan,Toko Bahan Bangunan,Mitra Bangunan Toko,"HF4H+RM8, Kefamenanu Tengah, Kec. Kota Kefamenanu, Kabupaten Timor Tengah Utara, Nusa Tenggara Tim.","Kabupaten Timor Tengah Utara, Nusa Tenggara Tim.",NUSA TENGGARA TIMUR,,Indonesia,38831958,,,-9.442.966,124.479.218,https://maps.google.com/?cid=0x0:0x87c7790178b54766,
toko bangunan,toko bangunan,Bajawa,"Bajawa, Kabupaten Ngada, Nusa Tenggara Tim.","Kabupaten Ngada, Nusa Tenggara Tim.",NUSA TENGGARA TIMUR,,Indonesia,,,,-8.792.325,120.960.602,https://maps.google.com/?cid=0x0:0x3cbeacbc23e7d171,
toko bangunan,toko bangunan,Nusa Tenggara Tim.,,Nusa Tenggara Tim.,NUSA TENGGARA TIMUR,,Indonesia,,,,-86.573.819,1.210.793.705,https://maps.google.com/?cid=0x0:0x1030bfbcaf71ae0,
toko bangunan,Toko Bahan Bangunan,"Nuansa Jaya Abadi,Cv","Ngada, Jl. Basuki Rahmat, Tanalodu, Bajawa, Ngada Regency, East Nusa Tenggara 86412","Jl. Basuki Rahmat, Tanalodu, Bajawa, Ngada Regency",NUSA TENGGARA TIMUR,86412.0,Indonesia,85141722822,,,-87.901.931,1.209.747.459,https://maps.google.com/?cid=0x0:0x264d1a01de88fac8,
toko bangunan,Kios,Toko Bahan Bangunan Nazareth,"Jl. Budi Oetomo No.5, Ngedukelu, Bajawa, Kabupaten Ngada, Nusa Tenggara Tim.","Kabupaten Ngada, Nusa Tenggara Tim.",NUSA TENGGARA TIMUR,,Indonesia,,,,-87.880.286,1.209.746.536,https://maps.google.com/?cid=0x0:0x2c5c5e8684cbe434,
toko bangunan,Toko Bahan Bangunan,"penjualan material bangunan, batu, pasir","Waenai, Naru, Bajawa, Kabupaten Ngada, Nusa Tenggara Tim. 86413","Naru, Bajawa, Kabupaten Ngada",NUSA TENGGARA TIMUR,86413.0,Indonesia,82145071014,,,-87.722.267,1.209.789.558,https://maps.google.com/?cid=0x0:0xd3d82f6ad59f712d,
toko bangunan,Toko Bahan Bangunan,Toko Sedang Mekar,"6X6F+J9H, Ngedukelu, Bajawa, Kabupaten Ngada, Nusa Tenggara Tim.","Kabupaten Ngada, Nusa Tenggara Tim.",NUSA TENGGARA TIMUR,,Indonesia,,,,-87.884.434,1.209.734.838,https://maps.google.com/?cid=0x0:0xcb094957881919c6,
toko bangunan,Toko Bahan Bangunan,CV. Tujuh Jaya,"723W+C6P, Unnamed Rd, Mokdale, Kec. Lobalain, Kabupaten Rote Ndao, Nusa Tenggara Tim.","Kabupaten Rote Ndao, Nusa Tenggara Tim.",NUSA TENGGARA TIMUR,,Indonesia,,,,-107.464.098,12.304.558,https://maps.google.com/?cid=0x0:0x575a85c650ddf9e4,
toko bangunan,Pasar bahan bangunan,"Penjualan Batu, Pasir, Kerikil dan bahan bangunan lokal lain","Desa Naru, Bajawa, Flores, Kabupaten Ngada, Nusa Tenggara Tim. 86413","Bajawa, Flores, Kabupaten Ngada",NUSA TENGGARA TIMUR,86413.0,Indonesia,85217681729,,,-87.686.996,1.209.847.853,https://maps.google.com/?cid=0x0:0xa501aadb2ed10cc0,
toko bangunan,Gudang,Toko SENTRAL,"Jl. Budi Oetomo, Utomo, Bajawa, Kabupaten Ngada, Nusa Tenggara Tim. 86413","Utomo, Bajawa, Kabupaten Ngada",NUSA TENGGARA TIMUR,86413.0,Indonesia,,,,-87.875.796,1.209.734.623,https://maps.google.com/?cid=0x0:0x13fd05e2af09b89a,
toko bangunan,Toko Bahan Bangunan,Toko Cipta Bangunan,"Wolomarang, Kec. Alok Bar., Kabupaten Sikka, Nusa Tenggara Tim.","Kabupaten Sikka, Nusa Tenggara Tim.",NUSA TENGGARA TIMUR,,Indonesia,81231842348,,,-86.105.049,1.221.996.912,https://maps.google.com/?cid=0x0:0x1d786c0067a3953f,
toko bangunan,Pemasok Pipa,Toko Buana Bangunan,"Lasiana, Kec. Klp. Lima, Kota Kupang, Nusa Tenggara Tim.","Kota Kupang, Nusa Tenggara Tim.",NUSA TENGGARA TIMUR,,Indonesia,82244376888,,,-101.373.266,1.236.764.484,https://maps.google.com/?cid=0x0:0x9fc6cad7dda4e71a,
toko bangunan,Toko Bahan Bangunan,Toko Bangunan Jaya,"Jl. Terusan Timor Raya No.9u KM. 6, Oesapa Bar., Kec. Klp. Lima, Kota Kupang, Nusa Tenggara Tim.","Kota Kupang, Nusa Tenggara Tim.",NUSA TENGGARA TIMUR,,Indonesia,81338567839,,,-1.014.441,1.236.254.719,https://maps.google.com/?cid=0x0:0x4a94c89160bbe62c,
toko bangunan,Pemasok Bahan Bangunan,Toko bangunan RODA BANGUNAN,"VVRP+PWJ, Beirafu, Kec. Atambua Bar., Kabupaten Belu, Nusa Tenggara Tim.","Kabupaten Belu, Nusa Tenggara Tim.",NUSA TENGGARA TIMUR,,Indonesia,,,,-91.084.148,1.248.873.126,https://maps.google.com/?cid=0x0:0x75291b2655aebbf5,
toko bangunan,Pemasok Pipa,Toko Bangunan,"Manulai II, Kec. Alak, Kota Kupang, Nusa Tenggara Tim.","Kota Kupang, Nusa Tenggara Tim.",NUSA TENGGARA TIMUR,,Indonesia,85123255522,,,-10.213.815,1.235.749.527,https://maps.google.com/?cid=0x0:0x5559349e9e4fc36f,
toko bangunan,Toko Bahan Bangunan,Toko Duta Bangunan,"GFMJ+896, Benpasi, Kec. Kota Kefamenanu, Kabupaten Timor Tengah Utara, Nusa Tenggara Tim.","Kabupaten Timor Tengah Utara, Nusa Tenggara Tim.",NUSA TENGGARA TIMUR,,Indonesia,8113827627,,,-94.667.226,1.244.808.961,https://maps.google.com/?cid=0x0:0x7bd4b59644a2a0bd,
toko bangunan,Toko Bahan Bangunan,UD TUJUH JAYA BANGUNAN I,"72GX+8M5, Metina, Kec. Lobalain, Kabupaten Rote Ndao, Nusa Tenggara Tim.","Kabupaten Rote Ndao, Nusa Tenggara Tim.",NUSA TENGGARA TIMUR,,Indonesia,,,,-107.242.448,1.230.492.313,https://maps.google.com/?cid=0x0:0xca85d779b23c1d9d,
toko bangunan,Minimarket,toko hebron,"725V+CW9, Unnamed Rd, Mokdale, Kec. Lobalain, Kabupaten Rote Ndao, Nusa Tenggara Tim.","Kabupaten Rote Ndao, Nusa Tenggara Tim.",NUSA TENGGARA TIMUR,,Indonesia,,,,-107.414.723,1.230.448.675,https://maps.google.com/?cid=0x0:0x699558aa9d2e663a,
toko bangunan,Toko Bahan Bangunan,Toko Graha Bangunan,"Gedung Graha Ariadi, Oesapa Bar., Kec. Klp. Lima, Kota Kupang, Nusa Tenggara Tim. 85228","Oesapa Bar., Kec. Klp. Lima, Kota Kupang",NUSA TENGGARA TIMUR,85228.0,Indonesia,81312893723,,,-101.468.703,123.631.267,https://maps.google.com/?cid=0x0:0x4167d73ee95fc845,
toko bangunan,Pasar bahan bangunan,Toko Sentral Bangunan,"Jl. A. Yani No.31, Oeba, Kec. Kota Lama, Kota Kupang, Nusa Tenggara Tim.","Kota Kupang, Nusa Tenggara Tim.",NUSA TENGGARA TIMUR,,Indonesia,,,,-101.589.841,1.235.906.754,https://maps.google.com/?cid=0x0:0x86beb21036599681,
toko bangunan,Toko Bahan Bangunan,Songke Keramic,"JL. Bangau No.1, Flores, Nginamanu, Kupang, Kabupaten Ngada, Nusa Tenggara Tim.","Kabupaten Ngada, Nusa Tenggara Tim.",NUSA TENGGARA TIMUR,,Indonesia,85239177611,,,-8.658.542,12.107.665,https://maps.google.com/?cid=0x0:0xc471ec0e825f0599,
toko bangunan,toko bangunan,Bajawa,"Bajawa, Kabupaten Ngada, Nusa Tenggara Tim.","Kabupaten Ngada, Nusa Tenggara Tim.",NUSA TENGGARA TIMUR,,Indonesia,,,,-8.792.325,120.960.602,https://maps.google.com/?cid=0x0:0x3cbeacbc23e7d171,
toko bangunan,toko bangunan,Nusa Tenggara Tim.,,Nusa Tenggara Tim.,NUSA TENGGARA TIMUR,,Indonesia,,,,-86.573.819,1.210.793.705,https://maps.google.com/?cid=0x0:0x1030bfbcaf71ae0,
toko bangunan,Toko Bahan Bangunan,"penjualan material bangunan, batu, pasir","Waenai, Naru, Bajawa, Kabupaten Ngada, Nusa Tenggara Tim. 86413","Naru, Bajawa, Kabupaten Ngada",NUSA TENGGARA TIMUR,86413.0,Indonesia,82145071014,,,-87.722.267,1.209.789.558,https://maps.google.com/?cid=0x0:0xd3d82f6ad59f712d,
toko bangunan,Kios,Toko Bahan Bangunan Nazareth,"Jl. Budi Oetomo No.5, Ngedukelu, Bajawa, Kabupaten Ngada, Nusa Tenggara Tim.","Kabupaten Ngada, Nusa Tenggara Tim.",NUSA TENGGARA TIMUR,,Indonesia,,,,-87.880.286,1.209.746.536,https://maps.google.com/?cid=0x0:0x2c5c5e8684cbe434,
toko bangunan,Pasar bahan bangunan,"Penjualan Batu, Pasir, Kerikil dan bahan bangunan lokal lain","Desa Naru, Bajawa, Flores, Kabupaten Ngada, Nusa Tenggara Tim. 86413","Bajawa, Flores, Kabupaten Ngada",NUSA TENGGARA TIMUR,86413.0,Indonesia,85217681729,,,-87.686.996,1.209.847.853,https://maps.google.com/?cid=0x0:0xa501aadb2ed10cc0,
toko bangunan,Gudang,Toko SENTRAL,"Jl. Budi Oetomo, Utomo, Bajawa, Kabupaten Ngada, Nusa Tenggara Tim. 86413","Utomo, Bajawa, Kabupaten Ngada",NUSA TENGGARA TIMUR,86413.0,Indonesia,,,,-87.875.796,1.209.734.623,https://maps.google.com/?cid=0x0:0x13fd05e2af09b89a,
toko bangunan,Toko Bahan Bangunan,CV. Tujuh Jaya,"723W+C6P, Unnamed Rd, Mokdale, Kec. Lobalain, Kabupaten Rote Ndao, Nusa Tenggara Tim.","Kabupaten Rote Ndao, Nusa Tenggara Tim.",NUSA TENGGARA TIMUR,,Indonesia,,,,-107.464.098,12.304.558,https://maps.google.com/?cid=0x0:0x575a85c650ddf9e4,
toko bangunan,Toko Bahan Bangunan,Toko Cipta Bangunan,"Wolomarang, Kec. Alok Bar., Kabupaten Sikka, Nusa Tenggara Tim.","Kabupaten Sikka, Nusa Tenggara Tim.",NUSA TENGGARA TIMUR,,Indonesia,81231842348,,,-86.105.049,1.221.996.912,https://maps.google.com/?cid=0x0:0x1d786c0067a3953f,
toko bangunan,Toko Bahan Bangunan,TOKO MUTIARA BANGUNAN,"JALAN R. W. MONGINSIDI Jl. Boanawa, Kel. Mbongawani, Kec. Ende Sel., Kabupaten Ende, Nusa Tenggara Tim. 86318","Kel. Mbongawani, Kec. Ende Sel., Kabupaten Ende",NUSA TENGGARA TIMUR,86318.0,Indonesia,82342055794,,,-88.505.091,121.649.829,https://maps.google.com/?cid=0x0:0xd3b67f3d4b660364,
toko bangunan,Pemasok Pipa,Toko Buana Bangunan,"Lasiana, Kec. Klp. Lima, Kota Kupang, Nusa Tenggara Tim.","Kota Kupang, Nusa Tenggara Tim.",NUSA TENGGARA TIMUR,,Indonesia,82244376888,,,-101.373.266,1.236.764.484,https://maps.google.com/?cid=0x0:0x9fc6cad7dda4e71a,
toko bangunan,Toko Bahan Bangunan,toko gloria bangunan,"Jl. Kemakmuran No.14, Kel. Mbongawani, Kec. Ende Sel., Kabupaten Ende, Nusa Tenggara Tim.","Kabupaten Ende, Nusa Tenggara Tim.",NUSA TENGGARA TIMUR,,Indonesia,81331006673,,,-88.465.826,121.644.941,https://maps.google.com/?cid=0x0:0xe6e6044a0d0864ee,
toko bangunan,Toko Bahan Bangunan,Toko Bangunan Jaya,"Jl. Terusan Timor Raya No.9u KM. 6, Oesapa Bar., Kec. Klp. Lima, Kota Kupang, Nusa Tenggara Tim.","Kota Kupang, Nusa Tenggara Tim.",NUSA TENGGARA TIMUR,,Indonesia,81338567839,,,-1.014.441,1.236.254.719,https://maps.google.com/?cid=0x0:0x4a94c89160bbe62c,
toko bangunan,Toko Bahan Bangunan,toko sinar bangunan (ende),"5J3V+MWW, Kel. Mbongawani, Kec. Ende Sel., Kabupaten Ende, Nusa Tenggara Tim.","Kabupaten Ende, Nusa Tenggara Tim.",NUSA TENGGARA TIMUR,,Indonesia,38121454,,,-88.457.706,1.216.448.129,https://maps.google.com/?cid=0x0:0x286f8de860e51520,
toko bangunan,Toko Bahan Bangunan,Toko Belu Bangunan,"Jl. Jenderal Sudirman No.34, Atambua, Kec. Kota Atambua, Kabupaten Belu, Nusa Tenggara Tim.","Kabupaten Belu, Nusa Tenggara Tim.",NUSA TENGGARA TIMUR,,Indonesia,85137362494,,,-9.107.011,1.248.962.022,https://maps.google.com/?cid=0x0:0x559d9cf31ea38cd,
toko bangunan,Toko Bahan Bangunan,Toko Roda Bangunan,"VVVX+333, Atambua, Kec. Kota Atambua, Kabupaten Belu, Nusa Tenggara Tim.","Kabupaten Belu, Nusa Tenggara Tim.",NUSA TENGGARA TIMUR,,Indonesia,,,,-91.073.625,1.248.976.836,https://maps.google.com/?cid=0x0:0xfdf308e29f21112,
toko bangunan,Pemasok Pipa,Toko Bangunan,"Manulai II, Kec. Alak, Kota Kupang, Nusa Tenggara Tim.","Kota Kupang, Nusa Tenggara Tim.",NUSA TENGGARA TIMUR,,Indonesia,85123255522,,,-10.213.815,1.235.749.527,https://maps.google.com/?cid=0x0:0x5559349e9e4fc36f,
toko bangunan,Toko Bahan Bangunan,UD. Fajar Bangunan ENDE,"Jl. Ahmad Yani, Kel. Kelimutu, Kec. Ende Tengah, Kabupaten Ende, Nusa Tenggara Tim.","Kabupaten Ende, Nusa Tenggara Tim.",NUSA TENGGARA TIMUR,,Indonesia,82155194068,,,-88.481.109,1.216.573.345,https://maps.google.com/?cid=0x0:0x8a620756dd470b99,
toko bangunan,Toko Bahan Bangunan,Toko Duta Bangunan,"GFMJ+896, Benpasi, Kec. Kota Kefamenanu, Kabupaten Timor Tengah Utara, Nusa Tenggara Tim.","Kabupaten Timor Tengah Utara, Nusa Tenggara Tim.",NUSA TENGGARA TIMUR,,Indonesia,8113827627,,,-94.667.226,1.244.808.961,https://maps.google.com/?cid=0x0:0x7bd4b59644a2a0bd,
toko bangunan,Toko Bahan Bangunan,UD TUJUH JAYA BANGUNAN I,"72GX+8M5, Metina, Kec. Lobalain, Kabupaten Rote Ndao, Nusa Tenggara Tim.","Kabupaten Rote Ndao, Nusa Tenggara Tim.",NUSA TENGGARA TIMUR,,Indonesia,,,,-107.242.448,1.230.492.313,https://maps.google.com/?cid=0x0:0xca85d779b23c1d9d,
toko bangunan,Tambang,Tambang Pasir Loboleke Naru-Lestari,"Naru, Bajawa, Kabupaten Ngada, Nusa Tenggara Tim. 86413","Bajawa, Kabupaten Ngada",NUSA TENGGARA TIMUR,86413.0,Indonesia,85217681729,,,-87.703.125,1.209.841.875,https://maps.google.com/?cid=0x0:0x1aae89b10dc772d3,
toko bangunan,Minimarket,toko hebron,"725V+CW9, Unnamed Rd, Mokdale, Kec. Lobalain, Kabupaten Rote Ndao, Nusa Tenggara Tim.","Kabupaten Rote Ndao, Nusa Tenggara Tim.",NUSA TENGGARA TIMUR,,Indonesia,,,,-107.414.723,1.230.448.675,https://maps.google.com/?cid=0x0:0x699558aa9d2e663a,
toko bangunan,toko bangunan,Bajawa,"Bajawa, Kabupaten Ngada, Nusa Tenggara Tim.","Kabupaten Ngada, Nusa Tenggara Tim.",NUSA TENGGARA TIMUR,,Indonesia,,,,-8.792.325,120.960.602,https://maps.google.com/?cid=0x0:0x3cbeacbc23e7d171,
toko bangunan,toko bangunan,Nusa Tenggara Tim.,,Nusa Tenggara Tim.,NUSA TENGGARA TIMUR,,Indonesia,,,,-86.573.819,1.210.793.705,https://maps.google.com/?cid=0x0:0x1030bfbcaf71ae0,
toko bangunan,Toko Bahan Bangunan,"Nuansa Jaya Abadi,Cv","Ngada, Jl. Basuki Rahmat, Tanalodu, Bajawa, Ngada Regency, East Nusa Tenggara 86412","Jl. Basuki Rahmat, Tanalodu, Bajawa, Ngada Regency",NUSA TENGGARA TIMUR,86412.0,Indonesia,85141722822,,,-87.901.931,1.209.747.459,https://maps.google.com/?cid=0x0:0x264d1a01de88fac8,
toko bangunan,Kios,Toko Bahan Bangunan Nazareth,"Jl. Budi Oetomo No.5, Ngedukelu, Bajawa, Kabupaten Ngada, Nusa Tenggara Tim.","Kabupaten Ngada, Nusa Tenggara Tim.",NUSA TENGGARA TIMUR,,Indonesia,,,,-87.880.286,1.209.746.536,https://maps.google.com/?cid=0x0:0x2c5c5e8684cbe434,
toko bangunan,Toko Bahan Bangunan,"penjualan material bangunan, batu, pasir","Waenai, Naru, Bajawa, Kabupaten Ngada, Nusa Tenggara Tim. 86413","Naru, Bajawa, Kabupaten Ngada",NUSA TENGGARA TIMUR,86413.0,Indonesia,82145071014,,,-87.722.267,1.209.789.558,https://maps.google.com/?cid=0x0:0xd3d82f6ad59f712d,
toko bangunan,Gudang,Toko SENTRAL,"Jl. Budi Oetomo, Utomo, Bajawa, Kabupaten Ngada, Nusa Tenggara Tim. 86413","Utomo, Bajawa, Kabupaten Ngada",NUSA TENGGARA TIMUR,86413.0,Indonesia,,,,-87.875.796,1.209.734.623,https://maps.google.com/?cid=0x0:0x13fd05e2af09b89a,
toko bangunan,Pasar bahan bangunan,"Penjualan Batu, Pasir, Kerikil dan bahan bangunan lokal lain","Desa Naru, Bajawa, Flores, Kabupaten Ngada, Nusa Tenggara Tim. 86413","Bajawa, Flores, Kabupaten Ngada",NUSA TENGGARA TIMUR,86413.0,Indonesia,85217681729,,,-87.686.996,1.209.847.853,https://maps.google.com/?cid=0x0:0xa501aadb2ed10cc0,
toko bangunan,Toko Bahan Bangunan,CV. Tujuh Jaya,"723W+C6P, Unnamed Rd, Mokdale, Kec. Lobalain, Kabupaten Rote Ndao, Nusa Tenggara Tim.","Kabupaten Rote Ndao, Nusa Tenggara Tim.",NUSA TENGGARA TIMUR,,Indonesia,,,,-107.464.098,12.304.558,https://maps.google.com/?cid=0x0:0x575a85c650ddf9e4,
toko bangunan,Toko Bahan Bangunan,Toko Roda Bangunan,"VVVX+333, Atambua, Kec. Kota Atambua, Kabupaten Belu, Nusa Tenggara Tim.","Kabupaten Belu, Nusa Tenggara Tim.",NUSA TENGGARA TIMUR,,Indonesia,,,,-91.073.625,1.248.976.836,https://maps.google.com/?cid=0x0:0xfdf308e29f21112,
toko bangunan,Toko Bahan Bangunan,Toko Cipta Bangunan,"Wolomarang, Kec. Alok Bar., Kabupaten Sikka, Nusa Tenggara Tim.","Kabupaten Sikka, Nusa Tenggara Tim.",NUSA TENGGARA TIMUR,,Indonesia,81231842348,,,-86.105.049,1.221.996.912,https://maps.google.com/?cid=0x0:0x1d786c0067a3953f,
toko bangunan,Produsen,Percetakan batako,"Dusun Wulilade 1, Tarawaja, Kec. Soa, Kabupaten Ngada, Nusa Tenggara Tim. 86414","Tarawaja, Kec. Soa, Kabupaten Ngada",NUSA TENGGARA TIMUR,86414.0,Indonesia,81357140714,,,-87.214.146,1.210.383.819,https://maps.google.com/?cid=0x0:0x250ec7ba6d7892,
toko bangunan,Toko Bahan Bangunan,Toko Bangunan Jaya,"Jl. Terusan Timor Raya No.9u KM. 6, Oesapa Bar., Kec. Klp. Lima, Kota Kupang, Nusa Tenggara Tim.","Kota Kupang, Nusa Tenggara Tim.",NUSA TENGGARA TIMUR,,Indonesia,81338567839,,,-1.014.441,1.236.254.719,https://maps.google.com/?cid=0x0:0x4a94c89160bbe62c,
toko bangunan,Toko Bahan Bangunan,Toko Graha Bangunan,"Gedung Graha Ariadi, Oesapa Bar., Kec. Klp. Lima, Kota Kupang, Nusa Tenggara Tim. 85228","Oesapa Bar., Kec. Klp. Lima, Kota Kupang",NUSA TENGGARA TIMUR,85228.0,Indonesia,81312893723,,,-101.468.703,123.631.267,https://maps.google.com/?cid=0x0:0x4167d73ee95fc845,
toko bangunan,Toko Bahan Bangunan,Toko Belu Bangunan,"Jl. Jenderal Sudirman No.34, Atambua, Kec. Kota Atambua, Kabupaten Belu, Nusa Tenggara Tim.","Kabupaten Belu, Nusa Tenggara Tim.",NUSA TENGGARA TIMUR,,Indonesia,85137362494,,,-9.107.011,1.248.962.022,https://maps.google.com/?cid=0x0:0x559d9cf31ea38cd,
toko bangunan,Toko Bahan Bangunan,UD TUJUH JAYA BANGUNAN I,"72GX+8M5, Metina, Kec. Lobalain, Kabupaten Rote Ndao, Nusa Tenggara Tim.","Kabupaten Rote Ndao, Nusa Tenggara Tim.",NUSA TENGGARA TIMUR,,Indonesia,,,,-107.242.448,1.230.492.313,https://maps.google.com/?cid=0x0:0xca85d779b23c1d9d,
toko bangunan,Pemasok Bahan Bangunan,Toko bangunan RODA BANGUNAN,"VVRP+PWJ, Beirafu, Kec. Atambua Bar., Kabupaten Belu, Nusa Tenggara Tim.","Kabupaten Belu, Nusa Tenggara Tim.",NUSA TENGGARA TIMUR,,Indonesia,,,,-91.084.148,1.248.873.126,https://maps.google.com/?cid=0x0:0x75291b2655aebbf5,
toko bangunan,Minimarket,toko hebron,"725V+CW9, Unnamed Rd, Mokdale, Kec. Lobalain, Kabupaten Rote Ndao, Nusa Tenggara Tim.","Kabupaten Rote Ndao, Nusa Tenggara Tim.",NUSA TENGGARA TIMUR,,Indonesia,,,,-107.414.723,1.230.448.675,https://maps.google.com/?cid=0x0:0x699558aa9d2e663a,
toko bangunan,Tambang,Tambang Pasir Loboleke Naru-Lestari,"Naru, Bajawa, Kabupaten Ngada, Nusa Tenggara Tim. 86413","Bajawa, Kabupaten Ngada",NUSA TENGGARA TIMUR,86413.0,Indonesia,85217681729,,,-87.703.125,1.209.841.875,https://maps.google.com/?cid=0x0:0x1aae89b10dc772d3,
toko bangunan,Toko Bahan Bangunan,Songke Keramic,"JL. Bangau No.1, Flores, Nginamanu, Kupang, Kabupaten Ngada, Nusa Tenggara Tim.","Kabupaten Ngada, Nusa Tenggara Tim.",NUSA TENGGARA TIMUR,,Indonesia,85239177611,,,-8.658.542,12.107.665,https://maps.google.com/?cid=0x0:0xc471ec0e825f0599,
toko bangunan,toko bangunan,Bajawa,"Bajawa, Kabupaten Ngada, Nusa Tenggara Tim.","Kabupaten Ngada, Nusa Tenggara Tim.",NUSA TENGGARA TIMUR,,Indonesia,,,,-8.792.325,120.960.602,https://maps.google.com/?cid=0x0:0x3cbeacbc23e7d171,
toko bangunan,toko bangunan,Nusa Tenggara Tim.,,Nusa Tenggara Tim.,NUSA TENGGARA TIMUR,,Indonesia,,,,-86.573.819,1.210.793.705,https://maps.google.com/?cid=0x0:0x1030bfbcaf71ae0,
toko bangunan,Kios,Toko Bahan Bangunan Nazareth,"Jl. Budi Oetomo No.5, Ngedukelu, Bajawa, Kabupaten Ngada, Nusa Tenggara Tim.","Kabupaten Ngada, Nusa Tenggara Tim.",NUSA TENGGARA TIMUR,,Indonesia,,,,-87.880.286,1.209.746.536,https://maps.google.com/?cid=0x0:0x2c5c5e8684cbe434,
toko bangunan,Toko Bahan Bangunan,Toko Cemerlang,"6X6F+G26, Kisanata, Bajawa, Kabupaten Ngada, Nusa Tenggara Tim.","Kabupaten Ngada, Nusa Tenggara Tim.",NUSA TENGGARA TIMUR,,Indonesia,,,,-87.887.022,1.209.725.012,https://maps.google.com/?cid=0x0:0x134e98a0443147ee,
toko bangunan,Pasar bahan bangunan,"Penjualan Batu, Pasir, Kerikil dan bahan bangunan lokal lain","Desa Naru, Bajawa, Flores, Kabupaten Ngada, Nusa Tenggara Tim. 86413","Bajawa, Flores, Kabupaten Ngada",NUSA TENGGARA TIMUR,86413.0,Indonesia,85217681729,,,-87.686.996,1.209.847.853,https://maps.google.com/?cid=0x0:0xa501aadb2ed10cc0,
toko bangunan,Toko Bahan Bangunan,CV. Tujuh Jaya,"723W+C6P, Unnamed Rd, Mokdale, Kec. Lobalain, Kabupaten Rote Ndao, Nusa Tenggara Tim.","Kabupaten Rote Ndao, Nusa Tenggara Tim.",NUSA TENGGARA TIMUR,,Indonesia,,,,-107.464.098,12.304.558,https://maps.google.com/?cid=0x0:0x575a85c650ddf9e4,
toko bangunan,Gudang,Toko SENTRAL,"Jl. Budi Oetomo, Utomo, Bajawa, Kabupaten Ngada, Nusa Tenggara Tim. 86413","Utomo, Bajawa, Kabupaten Ngada",NUSA TENGGARA TIMUR,86413.0,Indonesia,,,,-87.875.796,1.209.734.623,https://maps.google.com/?cid=0x0:0x13fd05e2af09b89a,
toko bangunan,Toko Bahan Bangunan,Toko Cipta Bangunan,"Wolomarang, Kec. Alok Bar., Kabupaten Sikka, Nusa Tenggara Tim.","Kabupaten Sikka, Nusa Tenggara Tim.",NUSA TENGGARA TIMUR,,Indonesia,81231842348,,,-86.105.049,1.221.996.912,https://maps.google.com/?cid=0x0:0x1d786c0067a3953f,
toko bangunan,Toko Bahan Bangunan,Toko Bangunan Jaya,"Jl. Terusan Timor Raya No.9u KM. 6, Oesapa Bar., Kec. Klp. Lima, Kota Kupang, Nusa Tenggara Tim.","Kota Kupang, Nusa Tenggara Tim.",NUSA TENGGARA TIMUR,,Indonesia,81338567839,,,-1.014.441,1.236.254.719,https://maps.google.com/?cid=0x0:0x4a94c89160bbe62c,
toko bangunan,Minimarket,toko hebron,"725V+CW9, Unnamed Rd, Mokdale, Kec. Lobalain, Kabupaten Rote Ndao, Nusa Tenggara Tim.","Kabupaten Rote Ndao, Nusa Tenggara Tim.",NUSA TENGGARA TIMUR,,Indonesia,,,,-107.414.723,1.230.448.675,https://maps.google.com/?cid=0x0:0x699558aa9d2e663a,
toko bangunan,Toko Bahan Bangunan,Toko Graha Bangunan,"Gedung Graha Ariadi, Oesapa Bar., Kec. Klp. Lima, Kota Kupang, Nusa Tenggara Tim. 85228","Oesapa Bar., Kec. Klp. Lima, Kota Kupang",NUSA TENGGARA TIMUR,85228.0,Indonesia,81312893723,,,-101.468.703,123.631.267,https://maps.google.com/?cid=0x0:0x4167d73ee95fc845,
toko bangunan,Toko Bahan Bangunan,UD TUJUH JAYA BANGUNAN I,"72GX+8M5, Metina, Kec. Lobalain, Kabupaten Rote Ndao, Nusa Tenggara Tim.","Kabupaten Rote Ndao, Nusa Tenggara Tim.",NUSA TENGGARA TIMUR,,Indonesia,,,,-107.242.448,1.230.492.313,https://maps.google.com/?cid=0x0:0xca85d779b23c1d9d,
toko bangunan,Tambang,Tambang Pasir Loboleke Naru-Lestari,"Naru, Bajawa, Kabupaten Ngada, Nusa Tenggara Tim. 86413","Bajawa, Kabupaten Ngada",NUSA TENGGARA TIMUR,86413.0,Indonesia,85217681729,,,-87.703.125,1.209.841.875,https://maps.google.com/?cid=0x0:0x1aae89b10dc772d3,
toko bangunan,Toko Bahan Bangunan,Songke Keramic,"JL. Bangau No.1, Flores, Nginamanu, Kupang, Kabupaten Ngada, Nusa Tenggara Tim.","Kabupaten Ngada, Nusa Tenggara Tim.",NUSA TENGGARA TIMUR,,Indonesia,85239177611,,,-8.658.542,12.107.665,https://maps.google.com/?cid=0x0:0xc471ec0e825f0599,
toko bangunan,toko bangunan,Bajawa,"Bajawa, Kabupaten Ngada, Nusa Tenggara Tim.","Kabupaten Ngada, Nusa Tenggara Tim.",NUSA TENGGARA TIMUR,,Indonesia,,,,-8.792.325,120.960.602,https://maps.google.com/?cid=0x0:0x3cbeacbc23e7d171,
toko bangunan,toko bangunan,Nusa Tenggara Tim.,,Nusa Tenggara Tim.,NUSA TENGGARA TIMUR,,Indonesia,,,,-86.573.819,1.210.793.705,https://maps.google.com/?cid=0x0:0x1030bfbcaf71ae0,
toko bangunan,Toko Bahan Bangunan,"Nuansa Jaya Abadi,Cv","Ngada, Jl. Basuki Rahmat, Tanalodu, Bajawa, Ngada Regency, East Nusa Tenggara 86412","Jl. Basuki Rahmat, Tanalodu, Bajawa, Ngada Regency",NUSA TENGGARA TIMUR,86412.0,Indonesia,85141722822,,,-87.901.931,1.209.747.459,https://maps.google.com/?cid=0x0:0x264d1a01de88fac8,
toko bangunan,Kios,Toko Bahan Bangunan Nazareth,"Jl. Budi Oetomo No.5, Ngedukelu, Bajawa, Kabupaten Ngada, Nusa Tenggara Tim.","Kabupaten Ngada, Nusa Tenggara Tim.",NUSA TENGGARA TIMUR,,Indonesia,,,,-87.880.286,1.209.746.536,https://maps.google.com/?cid=0x0:0x2c5c5e8684cbe434,
toko bangunan,Toko Bahan Bangunan,Toko Cemerlang,"6X6F+G26, Kisanata, Bajawa, Kabupaten Ngada, Nusa Tenggara Tim.","Kabupaten Ngada, Nusa Tenggara Tim.",NUSA TENGGARA TIMUR,,Indonesia,,,,-87.887.022,1.209.725.012,https://maps.google.com/?cid=0x0:0x134e98a0443147ee,
toko bangunan,Toko Bahan Bangunan,"penjualan material bangunan, batu, pasir","Waenai, Naru, Bajawa, Kabupaten Ngada, Nusa Tenggara Tim. 86413","Naru, Bajawa, Kabupaten Ngada",NUSA TENGGARA TIMUR,86413.0,Indonesia,82145071014,,,-87.722.267,1.209.789.558,https://maps.google.com/?cid=0x0:0xd3d82f6ad59f712d,
toko bangunan,Toko Bahan Bangunan,CV. Tujuh Jaya,"723W+C6P, Unnamed Rd, Mokdale, Kec. Lobalain, Kabupaten Rote Ndao, Nusa Tenggara Tim.","Kabupaten Rote Ndao, Nusa Tenggara Tim.",NUSA TENGGARA TIMUR,,Indonesia,,,,-107.464.098,12.304.558,https://maps.google.com/?cid=0x0:0x575a85c650ddf9e4,
toko bangunan,Gudang,Toko SENTRAL,"Jl. Budi Oetomo, Utomo, Bajawa, Kabupaten Ngada, Nusa Tenggara Tim. 86413","Utomo, Bajawa, Kabupaten Ngada",NUSA TENGGARA TIMUR,86413.0,Indonesia,,,,-87.875.796,1.209.734.623,https://maps.google.com/?cid=0x0:0x13fd05e2af09b89a,
toko bangunan,Pasar bahan bangunan,"Penjualan Batu, Pasir, Kerikil dan bahan bangunan lokal lain","Desa Naru, Bajawa, Flores, Kabupaten Ngada, Nusa Tenggara Tim. 86413","Bajawa, Flores, Kabupaten Ngada",NUSA TENGGARA TIMUR,86413.0,Indonesia,85217681729,,,-87.686.996,1.209.847.853,https://maps.google.com/?cid=0x0:0xa501aadb2ed10cc0,
toko bangunan,Toko Bahan Bangunan,Toko Cipta Bangunan,"Wolomarang, Kec. Alok Bar., Kabupaten Sikka, Nusa Tenggara Tim.","Kabupaten Sikka, Nusa Tenggara Tim.",NUSA TENGGARA TIMUR,,Indonesia,81231842348,,,-86.105.049,1.221.996.912,https://maps.google.com/?cid=0x0:0x1d786c0067a3953f,
toko bangunan,Toko Bahan Bangunan,Toko Duta Bangunan,"GFMJ+896, Benpasi, Kec. Kota Kefamenanu, Kabupaten Timor Tengah Utara, Nusa Tenggara Tim.","Kabupaten Timor Tengah Utara, Nusa Tenggara Tim.",NUSA TENGGARA TIMUR,,Indonesia,8113827627,,,-94.667.226,1.244.808.961,https://maps.google.com/?cid=0x0:0x7bd4b59644a2a0bd,
toko bangunan,Pemasok Pipa,Toko Buana Bangunan,"Lasiana, Kec. Klp. Lima, Kota Kupang, Nusa Tenggara Tim.","Kota Kupang, Nusa Tenggara Tim.",NUSA TENGGARA TIMUR,,Indonesia,82244376888,,,-101.373.266,1.236.764.484,https://maps.google.com/?cid=0x0:0x9fc6cad7dda4e71a,
toko bangunan,Toko Bahan Bangunan,Toko Bangunan Jaya,"Jl. Terusan Timor Raya No.9u KM. 6, Oesapa Bar., Kec. Klp. Lima, Kota Kupang, Nusa Tenggara Tim.","Kota Kupang, Nusa Tenggara Tim.",NUSA TENGGARA TIMUR,,Indonesia,81338567839,,,-1.014.441,1.236.254.719,https://maps.google.com/?cid=0x0:0x4a94c89160bbe62c,
toko bangunan,Tambang,Tambang Pasir Loboleke Naru-Lestari,"Naru, Bajawa, Kabupaten Ngada, Nusa Tenggara Tim. 86413","Bajawa, Kabupaten Ngada",NUSA TENGGARA TIMUR,86413.0,Indonesia,85217681729,,,-87.703.125,1.209.841.875,https://maps.google.com/?cid=0x0:0x1aae89b10dc772d3,
toko bangunan,Minimarket,toko hebron,"725V+CW9, Unnamed Rd, Mokdale, Kec. Lobalain, Kabupaten Rote Ndao, Nusa Tenggara Tim.","Kabupaten Rote Ndao, Nusa Tenggara Tim.",NUSA TENGGARA TIMUR,,Indonesia,,,,-107.414.723,1.230.448.675,https://maps.google.com/?cid=0x0:0x699558aa9d2e663a,
toko bangunan,Toko Bahan Bangunan,UD TUJUH JAYA BANGUNAN I,"72GX+8M5, Metina, Kec. Lobalain, Kabupaten Rote Ndao, Nusa Tenggara Tim.","Kabupaten Rote Ndao, Nusa Tenggara Tim.",NUSA TENGGARA TIMUR,,Indonesia,,,,-107.242.448,1.230.492.313,https://maps.google.com/?cid=0x0:0xca85d779b23c1d9d,
toko bangunan,Toko Bahan Bangunan,Toko Graha Bangunan,"Gedung Graha Ariadi, Oesapa Bar., Kec. Klp. Lima, Kota Kupang, Nusa Tenggara Tim. 85228","Oesapa Bar., Kec. Klp. Lima, Kota Kupang",NUSA TENGGARA TIMUR,85228.0,Indonesia,81312893723,,,-101.468.703,123.631.267,https://maps.google.com/?cid=0x0:0x4167d73ee95fc845,
toko bangunan,Toko Bahan Bangunan,Songke Keramic,"JL. Bangau No.1, Flores, Nginamanu, Kupang, Kabupaten Ngada, Nusa Tenggara Tim.","Kabupaten Ngada, Nusa Tenggara Tim.",NUSA TENGGARA TIMUR,,Indonesia,85239177611,,,-8.658.542,12.107.665,https://maps.google.com/?cid=0x0:0xc471ec0e825f0599,
toko bangunan,toko bangunan,Bajawa,"Bajawa, Kabupaten Ngada, Nusa Tenggara Tim.","Kabupaten Ngada, Nusa Tenggara Tim.",NUSA TENGGARA TIMUR,,Indonesia,,,,-8.792.325,120.960.602,https://maps.google.com/?cid=0x0:0x3cbeacbc23e7d171,
toko bangunan,toko bangunan,Nusa Tenggara Tim.,,Nusa Tenggara Tim.,NUSA TENGGARA TIMUR,,Indonesia,,,,-86.573.819,1.210.793.705,https://maps.google.com/?cid=0x0:0x1030bfbcaf71ae0,
toko bangunan,Toko Bahan Bangunan,"Nuansa Jaya Abadi,Cv","Ngada, Jl. Basuki Rahmat, Tanalodu, Bajawa, Ngada Regency, East Nusa Tenggara 86412","Jl. Basuki Rahmat, Tanalodu, Bajawa, Ngada Regency",NUSA TENGGARA TIMUR,86412.0,Indonesia,85141722822,,,-87.901.931,1.209.747.459,https://maps.google.com/?cid=0x0:0x264d1a01de88fac8,
toko bangunan,Kios,Toko Bahan Bangunan Nazareth,"Jl. Budi Oetomo No.5, Ngedukelu, Bajawa, Kabupaten Ngada, Nusa Tenggara Tim.","Kabupaten Ngada, Nusa Tenggara Tim.",NUSA TENGGARA TIMUR,,Indonesia,,,,-87.880.286,1.209.746.536,https://maps.google.com/?cid=0x0:0x2c5c5e8684cbe434,
toko bangunan,Toko Bahan Bangunan,Toko Sedang Mekar,"6X6F+J9H, Ngedukelu, Bajawa, Kabupaten Ngada, Nusa Tenggara Tim.","Kabupaten Ngada, Nusa Tenggara Tim.",NUSA TENGGARA TIMUR,,Indonesia,,,,-87.884.434,1.209.734.838,https://maps.google.com/?cid=0x0:0xcb094957881919c6,
toko bangunan,Toko Bahan Bangunan,"penjualan material bangunan, batu, pasir","Waenai, Naru, Bajawa, Kabupaten Ngada, Nusa Tenggara Tim. 86413","Naru, Bajawa, Kabupaten Ngada",NUSA TENGGARA TIMUR,86413.0,Indonesia,82145071014,,,-87.722.267,1.209.789.558,https://maps.google.com/?cid=0x0:0xd3d82f6ad59f712d,
toko bangunan,Toko Bahan Bangunan,CV. Tujuh Jaya,"723W+C6P, Unnamed Rd, Mokdale, Kec. Lobalain, Kabupaten Rote Ndao, Nusa Tenggara Tim.","Kabupaten Rote Ndao, Nusa Tenggara Tim.",NUSA TENGGARA TIMUR,,Indonesia,,,,-107.464.098,12.304.558,https://maps.google.com/?cid=0x0:0x575a85c650ddf9e4,
toko bangunan,Pasar bahan bangunan,"Penjualan Batu, Pasir, Kerikil dan bahan bangunan lokal lain","Desa Naru, Bajawa, Flores, Kabupaten Ngada, Nusa Tenggara Tim. 86413","Bajawa, Flores, Kabupaten Ngada",NUSA TENGGARA TIMUR,86413.0,Indonesia,85217681729,,,-87.686.996,1.209.847.853,https://maps.google.com/?cid=0x0:0xa501aadb2ed10cc0,
toko bangunan,Gudang,Toko SENTRAL,"Jl. Budi Oetomo, Utomo, Bajawa, Kabupaten Ngada, Nusa Tenggara Tim. 86413","Utomo, Bajawa, Kabupaten Ngada",NUSA TENGGARA TIMUR,86413.0,Indonesia,,,,-87.875.796,1.209.734.623,https://maps.google.com/?cid=0x0:0x13fd05e2af09b89a,
toko bangunan,Toko Bahan Bangunan,Toko Cipta Bangunan,"Wolomarang, Kec. Alok Bar., Kabupaten Sikka, Nusa Tenggara Tim.","Kabupaten Sikka, Nusa Tenggara Tim.",NUSA TENGGARA TIMUR,,Indonesia,81231842348,,,-86.105.049,1.221.996.912,https://maps.google.com/?cid=0x0:0x1d786c0067a3953f,
toko bangunan,Toko Bahan Bangunan,TOKO MUTIARA BANGUNAN,"JALAN R. W. MONGINSIDI Jl. Boanawa, Kel. Mbongawani, Kec. Ende Sel., Kabupaten Ende, Nusa Tenggara Tim. 86318","Kel. Mbongawani, Kec. Ende Sel., Kabupaten Ende",NUSA TENGGARA TIMUR,86318.0,Indonesia,82342055794,,,-88.505.091,121.649.829,https://maps.google.com/?cid=0x0:0xd3b67f3d4b660364,
toko bangunan,Toko Bahan Bangunan,Toko Bangunan Jaya,"Jl. Terusan Timor Raya No.9u KM. 6, Oesapa Bar., Kec. Klp. Lima, Kota Kupang, Nusa Tenggara Tim.","Kota Kupang, Nusa Tenggara Tim.",NUSA TENGGARA TIMUR,,Indonesia,81338567839,,,-1.014.441,1.236.254.719,https://maps.google.com/?cid=0x0:0x4a94c89160bbe62c,
toko bangunan,Toko Bahan Bangunan,toko gloria bangunan,"Jl. Kemakmuran No.14, Kel. Mbongawani, Kec. Ende Sel., Kabupaten Ende, Nusa Tenggara Tim.","Kabupaten Ende, Nusa Tenggara Tim.",NUSA TENGGARA TIMUR,,Indonesia,81331006673,,,-88.465.826,121.644.941,https://maps.google.com/?cid=0x0:0xe6e6044a0d0864ee,
toko bangunan,Pemasok Bahan Bangunan,Toko bangunan RODA BANGUNAN,"VVRP+PWJ, Beirafu, Kec. Atambua Bar., Kabupaten Belu, Nusa Tenggara Tim.","Kabupaten Belu, Nusa Tenggara Tim.",NUSA TENGGARA TIMUR,,Indonesia,,,,-91.084.148,1.248.873.126,https://maps.google.com/?cid=0x0:0x75291b2655aebbf5,
toko bangunan,Toko Bahan Bangunan,UD TUJUH JAYA BANGUNAN I,"72GX+8M5, Metina, Kec. Lobalain, Kabupaten Rote Ndao, Nusa Tenggara Tim.","Kabupaten Rote Ndao, Nusa Tenggara Tim.",NUSA TENGGARA TIMUR,,Indonesia,,,,-107.242.448,1.230.492.313,https://maps.google.com/?cid=0x0:0xca85d779b23c1d9d,
toko bangunan,Toko Bahan Bangunan,toko sinar bangunan (ende),"5J3V+MWW, Kel. Mbongawani, Kec. Ende Sel., Kabupaten Ende, Nusa Tenggara Tim.","Kabupaten Ende, Nusa Tenggara Tim.",NUSA TENGGARA TIMUR,,Indonesia,38121454,,,-88.457.706,1.216.448.129,https://maps.google.com/?cid=0x0:0x286f8de860e51520,
toko bangunan,Toko Bahan Bangunan,UD. Fajar Bangunan ENDE,"Jl. Ahmad Yani, Kel. Kelimutu, Kec. Ende Tengah, Kabupaten Ende, Nusa Tenggara Tim.","Kabupaten Ende, Nusa Tenggara Tim.",NUSA TENGGARA TIMUR,,Indonesia,82155194068,,,-88.481.109,1.216.573.345,https://maps.google.com/?cid=0x0:0x8a620756dd470b99,
toko bangunan,Toko Bahan Bangunan,Toko Duta Bangunan,"GFMJ+896, Benpasi, Kec. Kota Kefamenanu, Kabupaten Timor Tengah Utara, Nusa Tenggara Tim.","Kabupaten Timor Tengah Utara, Nusa Tenggara Tim.",NUSA TENGGARA TIMUR,,Indonesia,8113827627,,,-94.667.226,1.244.808.961,https://maps.google.com/?cid=0x0:0x7bd4b59644a2a0bd,
toko bangunan,Minimarket,toko hebron,"725V+CW9, Unnamed Rd, Mokdale, Kec. Lobalain, Kabupaten Rote Ndao, Nusa Tenggara Tim.","Kabupaten Rote Ndao, Nusa Tenggara Tim.",NUSA TENGGARA TIMUR,,Indonesia,,,,-107.414.723,1.230.448.675,https://maps.google.com/?cid=0x0:0x699558aa9d2e663a,
toko bangunan,Toko Bahan Bangunan,Toko Graha Bangunan,"Gedung Graha Ariadi, Oesapa Bar., Kec. Klp. Lima, Kota Kupang, Nusa Tenggara Tim. 85228","Oesapa Bar., Kec. Klp. Lima, Kota Kupang",NUSA TENGGARA TIMUR,85228.0,Indonesia,81312893723,,,-101.468.703,123.631.267,https://maps.google.com/?cid=0x0:0x4167d73ee95fc845,
toko bangunan,Toko Bahan Bangunan,Songke Keramic,"JL. Bangau No.1, Flores, Nginamanu, Kupang, Kabupaten Ngada, Nusa Tenggara Tim.","Kabupaten Ngada, Nusa Tenggara Tim.",NUSA TENGGARA TIMUR,,Indonesia,85239177611,,,-8.658.542,12.107.665,https://maps.google.com/?cid=0x0:0xc471ec0e825f0599,
toko bangunan,toko bangunan,Bajawa,"Bajawa, Kabupaten Ngada, Nusa Tenggara Tim.","Kabupaten Ngada, Nusa Tenggara Tim.",NUSA TENGGARA TIMUR,,Indonesia,,,,-8.792.325,120.960.602,https://maps.google.com/?cid=0x0:0x3cbeacbc23e7d171,
toko bangunan,Pusat Perbelanjaan,Kios Nazareth,"6X8C+QPJ, Jl. Diponegoro, Trikora, Bajawa, Kabupaten Ngada, Nusa Tenggara Tim.","Kabupaten Ngada, Nusa Tenggara Tim.",NUSA TENGGARA TIMUR,,Indonesia,,,,-87.830.304,120.971.775,https://maps.google.com/?cid=0x0:0x514562406f9b03d7,
toko bangunan,toko bangunan,Nusa Tenggara Tim.,,Nusa Tenggara Tim.,NUSA TENGGARA TIMUR,,Indonesia,,,,-86.573.819,1.210.793.705,https://maps.google.com/?cid=0x0:0x1030bfbcaf71ae0,
toko bangunan,Toko Bahan Bangunan,"Nuansa Jaya Abadi,Cv","Ngada, Jl. Basuki Rahmat, Tanalodu, Bajawa, Ngada Regency, East Nusa Tenggara 86412","Jl. Basuki Rahmat, Tanalodu, Bajawa, Ngada Regency",NUSA TENGGARA TIMUR,86412.0,Indonesia,85141722822,,,-87.901.931,1.209.747.459,https://maps.google.com/?cid=0x0:0x264d1a01de88fac8,
toko bangunan,Kios,Toko Bahan Bangunan Nazareth,"Jl. Budi Oetomo No.5, Ngedukelu, Bajawa, Kabupaten Ngada, Nusa Tenggara Tim.","Kabupaten Ngada, Nusa Tenggara Tim.",NUSA TENGGARA TIMUR,,Indonesia,,,,-87.880.286,1.209.746.536,https://maps.google.com/?cid=0x0:0x2c5c5e8684cbe434,
toko bangunan,Toko Bahan Bangunan,Toko Cemerlang,"6X6F+G26, Kisanata, Bajawa, Kabupaten Ngada, Nusa Tenggara Tim.","Kabupaten Ngada, Nusa Tenggara Tim.",NUSA TENGGARA TIMUR,,Indonesia,,,,-87.887.022,1.209.725.012,https://maps.google.com/?cid=0x0:0x134e98a0443147ee,
toko bangunan,Toko Bahan Bangunan,CV. Tujuh Jaya,"723W+C6P, Unnamed Rd, Mokdale, Kec. Lobalain, Kabupaten Rote Ndao, Nusa Tenggara Tim.","Kabupaten Rote Ndao, Nusa Tenggara Tim.",NUSA TENGGARA TIMUR,,Indonesia,,,,-107.464.098,12.304.558,https://maps.google.com/?cid=0x0:0x575a85c650ddf9e4,
toko bangunan,Pasar bahan bangunan,"Penjualan Batu, Pasir, Kerikil dan bahan bangunan lokal lain","Desa Naru, Bajawa, Flores, Kabupaten Ngada, Nusa Tenggara Tim. 86413","Bajawa, Flores, Kabupaten Ngada",NUSA TENGGARA TIMUR,86413.0,Indonesia,85217681729,,,-87.686.996,1.209.847.853,https://maps.google.com/?cid=0x0:0xa501aadb2ed10cc0,
toko bangunan,Gudang,Toko SENTRAL,"Jl. Budi Oetomo, Utomo, Bajawa, Kabupaten Ngada, Nusa Tenggara Tim. 86413","Utomo, Bajawa, Kabupaten Ngada",NUSA TENGGARA TIMUR,86413.0,Indonesia,,,,-87.875.796,1.209.734.623,https://maps.google.com/?cid=0x0:0x13fd05e2af09b89a,
toko bangunan,Toko Bahan Bangunan,Toko Cipta Bangunan,"Wolomarang, Kec. Alok Bar., Kabupaten Sikka, Nusa Tenggara Tim.","Kabupaten Sikka, Nusa Tenggara Tim.",NUSA TENGGARA TIMUR,,Indonesia,81231842348,,,-86.105.049,1.221.996.912,https://maps.google.com/?cid=0x0:0x1d786c0067a3953f,
toko bangunan,Pemasok Pipa,Toko Buana Bangunan,"Lasiana, Kec. Klp. Lima, Kota Kupang, Nusa Tenggara Tim.","Kota Kupang, Nusa Tenggara Tim.",NUSA TENGGARA TIMUR,,Indonesia,82244376888,,,-101.373.266,1.236.764.484,https://maps.google.com/?cid=0x0:0x9fc6cad7dda4e71a,
toko bangunan,Toko Bahan Bangunan,Toko Bangunan Jaya,"Jl. Terusan Timor Raya No.9u KM. 6, Oesapa Bar., Kec. Klp. Lima, Kota Kupang, Nusa Tenggara Tim.","Kota Kupang, Nusa Tenggara Tim.",NUSA TENGGARA TIMUR,,Indonesia,81338567839,,,-1.014.441,1.236.254.719,https://maps.google.com/?cid=0x0:0x4a94c89160bbe62c,
toko bangunan,Pemasok Bahan Bangunan,Toko bangunan RODA BANGUNAN,"VVRP+PWJ, Beirafu, Kec. Atambua Bar., Kabupaten Belu, Nusa Tenggara Tim.","Kabupaten Belu, Nusa Tenggara Tim.",NUSA TENGGARA TIMUR,,Indonesia,,,,-91.084.148,1.248.873.126,https://maps.google.com/?cid=0x0:0x75291b2655aebbf5,
toko bangunan,Pemasok Pipa,Toko Bangunan,"Manulai II, Kec. Alak, Kota Kupang, Nusa Tenggara Tim.","Kota Kupang, Nusa Tenggara Tim.",NUSA TENGGARA TIMUR,,Indonesia,85123255522,,,-10.213.815,1.235.749.527,https://maps.google.com/?cid=0x0:0x5559349e9e4fc36f,
toko bangunan,Toko Bahan Bangunan,Toko Belu Bangunan,"Jl. Jenderal Sudirman No.34, Atambua, Kec. Kota Atambua, Kabupaten Belu, Nusa Tenggara Tim.","Kabupaten Belu, Nusa Tenggara Tim.",NUSA TENGGARA TIMUR,,Indonesia,85137362494,,,-9.107.011,1.248.962.022,https://maps.google.com/?cid=0x0:0x559d9cf31ea38cd,
toko bangunan,Toko Bahan Bangunan,Toko Roda Bangunan,"VVVX+333, Atambua, Kec. Kota Atambua, Kabupaten Belu, Nusa Tenggara Tim.","Kabupaten Belu, Nusa Tenggara Tim.",NUSA TENGGARA TIMUR,,Indonesia,,,,-91.073.625,1.248.976.836,https://maps.google.com/?cid=0x0:0xfdf308e29f21112,
toko bangunan,Toko Bahan Bangunan,Toko Duta Bangunan,"GFMJ+896, Benpasi, Kec. Kota Kefamenanu, Kabupaten Timor Tengah Utara, Nusa Tenggara Tim.","Kabupaten Timor Tengah Utara, Nusa Tenggara Tim.",NUSA TENGGARA TIMUR,,Indonesia,8113827627,,,-94.667.226,1.244.808.961,https://maps.google.com/?cid=0x0:0x7bd4b59644a2a0bd,
toko bangunan,Toko Bahan Bangunan,UD TUJUH JAYA BANGUNAN I,"72GX+8M5, Metina, Kec. Lobalain, Kabupaten Rote Ndao, Nusa Tenggara Tim.","Kabupaten Rote Ndao, Nusa Tenggara Tim.",NUSA TENGGARA TIMUR,,Indonesia,,,,-107.242.448,1.230.492.313,https://maps.google.com/?cid=0x0:0xca85d779b23c1d9d,
toko bangunan,Minimarket,toko hebron,"725V+CW9, Unnamed Rd, Mokdale, Kec. Lobalain, Kabupaten Rote Ndao, Nusa Tenggara Tim.","Kabupaten Rote Ndao, Nusa Tenggara Tim.",NUSA TENGGARA TIMUR,,Indonesia,,,,-107.414.723,1.230.448.675,https://maps.google.com/?cid=0x0:0x699558aa9d2e663a,
toko bangunan,Toko Bahan Bangunan,Toko Graha Bangunan,"Gedung Graha Ariadi, Oesapa Bar., Kec. Klp. Lima, Kota Kupang, Nusa Tenggara Tim. 85228","Oesapa Bar., Kec. Klp. Lima, Kota Kupang",NUSA TENGGARA TIMUR,85228.0,Indonesia,81312893723,,,-101.468.703,123.631.267,https://maps.google.com/?cid=0x0:0x4167d73ee95fc845,
toko bangunan,Pasar bahan bangunan,Toko Sentral Bangunan,"Jl. A. Yani No.31, Oeba, Kec. Kota Lama, Kota Kupang, Nusa Tenggara Tim.","Kota Kupang, Nusa Tenggara Tim.",NUSA TENGGARA TIMUR,,Indonesia,,,,-101.589.841,1.235.906.754,https://maps.google.com/?cid=0x0:0x86beb21036599681,
toko bangunan,Toko Bahan Bangunan,Songke Keramic,"JL. Bangau No.1, Flores, Nginamanu, Kupang, Kabupaten Ngada, Nusa Tenggara Tim.","Kabupaten Ngada, Nusa Tenggara Tim.",NUSA TENGGARA TIMUR,,Indonesia,85239177611,,,-8.658.542,12.107.665,https://maps.google.com/?cid=0x0:0xc471ec0e825f0599,
toko bangunan,toko bangunan,Bajawa,"Bajawa, Kabupaten Ngada, Nusa Tenggara Tim.","Kabupaten Ngada, Nusa Tenggara Tim.",NUSA TENGGARA TIMUR,,Indonesia,,,,-8.792.325,120.960.602,https://maps.google.com/?cid=0x0:0x3cbeacbc23e7d171,
toko bangunan,Toko Bahan Bangunan,Toko Sedang Mekar,"6X6F+J9H, Ngedukelu, Bajawa, Kabupaten Ngada, Nusa Tenggara Tim.","Kabupaten Ngada, Nusa Tenggara Tim.",NUSA TENGGARA TIMUR,,Indonesia,,,,-87.884.434,1.209.734.838,https://maps.google.com/?cid=0x0:0xcb094957881919c6,
toko bangunan,toko bangunan,Nusa Tenggara Tim.,,Nusa Tenggara Tim.,NUSA TENGGARA TIMUR,,Indonesia,,,,-86.573.819,1.210.793.705,https://maps.google.com/?cid=0x0:0x1030bfbcaf71ae0,
toko bangunan,Kios,Toko Bahan Bangunan Nazareth,"Jl. Budi Oetomo No.5, Ngedukelu, Bajawa, Kabupaten Ngada, Nusa Tenggara Tim.","Kabupaten Ngada, Nusa Tenggara Tim.",NUSA TENGGARA TIMUR,,Indonesia,,,,-87.880.286,1.209.746.536,https://maps.google.com/?cid=0x0:0x2c5c5e8684cbe434,
toko bangunan,Toko Bahan Bangunan,Toko Cemerlang,"6X6F+G26, Kisanata, Bajawa, Kabupaten Ngada, Nusa Tenggara Tim.","Kabupaten Ngada, Nusa Tenggara Tim.",NUSA TENGGARA TIMUR,,Indonesia,,,,-87.887.022,1.209.725.012,https://maps.google.com/?cid=0x0:0x134e98a0443147ee,
toko bangunan,Toko Bahan Bangunan,CV. Tujuh Jaya,"723W+C6P, Unnamed Rd, Mokdale, Kec. Lobalain, Kabupaten Rote Ndao, Nusa Tenggara Tim.","Kabupaten Rote Ndao, Nusa Tenggara Tim.",NUSA TENGGARA TIMUR,,Indonesia,,,,-107.464.098,12.304.558,https://maps.google.com/?cid=0x0:0x575a85c650ddf9e4,
toko bangunan,Pasar bahan bangunan,"Penjualan Batu, Pasir, Kerikil dan bahan bangunan lokal lain","Desa Naru, Bajawa, Flores, Kabupaten Ngada, Nusa Tenggara Tim. 86413","Bajawa, Flores, Kabupaten Ngada",NUSA TENGGARA TIMUR,86413.0,Indonesia,85217681729,,,-87.686.996,1.209.847.853,https://maps.google.com/?cid=0x0:0xa501aadb2ed10cc0,
toko bangunan,Gudang,Toko SENTRAL,"Jl. Budi Oetomo, Utomo, Bajawa, Kabupaten Ngada, Nusa Tenggara Tim. 86413","Utomo, Bajawa, Kabupaten Ngada",NUSA TENGGARA TIMUR,86413.0,Indonesia,,,,-87.875.796,1.209.734.623,https://maps.google.com/?cid=0x0:0x13fd05e2af09b89a,
toko bangunan,Toko Bahan Bangunan,Toko Cipta Bangunan,"Wolomarang, Kec. Alok Bar., Kabupaten Sikka, Nusa Tenggara Tim.","Kabupaten Sikka, Nusa Tenggara Tim.",NUSA TENGGARA TIMUR,,Indonesia,81231842348,,,-86.105.049,1.221.996.912,https://maps.google.com/?cid=0x0:0x1d786c0067a3953f,
toko bangunan,Pemasok Pipa,Toko Buana Bangunan,"Lasiana, Kec. Klp. Lima, Kota Kupang, Nusa Tenggara Tim.","Kota Kupang, Nusa Tenggara Tim.",NUSA TENGGARA TIMUR,,Indonesia,82244376888,,,-101.373.266,1.236.764.484,https://maps.google.com/?cid=0x0:0x9fc6cad7dda4e71a,
toko bangunan,Toko Bahan Bangunan,Toko Bangunan Jaya,"Jl. Terusan Timor Raya No.9u KM. 6, Oesapa Bar., Kec. Klp. Lima, Kota Kupang, Nusa Tenggara Tim.","Kota Kupang, Nusa Tenggara Tim.",NUSA TENGGARA TIMUR,,Indonesia,81338567839,,,-1.014.441,1.236.254.719,https://maps.google.com/?cid=0x0:0x4a94c89160bbe62c,
toko bangunan,Pemasok Pipa,Toko Bangunan,"Manulai II, Kec. Alak, Kota Kupang, Nusa Tenggara Tim.","Kota Kupang, Nusa Tenggara Tim.",NUSA TENGGARA TIMUR,,Indonesia,85123255522,,,-10.213.815,1.235.749.527,https://maps.google.com/?cid=0x0:0x5559349e9e4fc36f,
toko bangunan,Toko Bahan Bangunan,Toko Duta Bangunan,"GFMJ+896, Benpasi, Kec. Kota Kefamenanu, Kabupaten Timor Tengah Utara, Nusa Tenggara Tim.","Kabupaten Timor Tengah Utara, Nusa Tenggara Tim.",NUSA TENGGARA TIMUR,,Indonesia,8113827627,,,-94.667.226,1.244.808.961,https://maps.google.com/?cid=0x0:0x7bd4b59644a2a0bd,
toko bangunan,Toko Bahan Bangunan,UD TUJUH JAYA BANGUNAN I,"72GX+8M5, Metina, Kec. Lobalain, Kabupaten Rote Ndao, Nusa Tenggara Tim.","Kabupaten Rote Ndao, Nusa Tenggara Tim.",NUSA TENGGARA TIMUR,,Indonesia,,,,-107.242.448,1.230.492.313,https://maps.google.com/?cid=0x0:0xca85d779b23c1d9d,
toko bangunan,Minimarket,toko hebron,"725V+CW9, Unnamed Rd, Mokdale, Kec. Lobalain, Kabupaten Rote Ndao, Nusa Tenggara Tim.","Kabupaten Rote Ndao, Nusa Tenggara Tim.",NUSA TENGGARA TIMUR,,Indonesia,,,,-107.414.723,1.230.448.675,https://maps.google.com/?cid=0x0:0x699558aa9d2e663a,
toko bangunan,Toko Bahan Bangunan,Toko Graha Bangunan,"Gedung Graha Ariadi, Oesapa Bar., Kec. Klp. Lima, Kota Kupang, Nusa Tenggara Tim. 85228","Oesapa Bar., Kec. Klp. Lima, Kota Kupang",NUSA TENGGARA TIMUR,85228.0,Indonesia,81312893723,,,-101.468.703,123.631.267,https://maps.google.com/?cid=0x0:0x4167d73ee95fc845,
toko bangunan,Toko Bahan Bangunan,Songke Keramic,"JL. Bangau No.1, Flores, Nginamanu, Kupang, Kabupaten Ngada, Nusa Tenggara Tim.","Kabupaten Ngada, Nusa Tenggara Tim.",NUSA TENGGARA TIMUR,,Indonesia,85239177611,,,-8.658.542,12.107.665,https://maps.google.com/?cid=0x0:0xc471ec0e825f0599,
toko bangunan,toko bangunan,Bajawa,"Bajawa, Kabupaten Ngada, Nusa Tenggara Tim.","Kabupaten Ngada, Nusa Tenggara Tim.",NUSA TENGGARA TIMUR,,Indonesia,,,,-8.792.325,120.960.602,https://maps.google.com/?cid=0x0:0x3cbeacbc23e7d171,
toko bangunan,Toko Bahan Bangunan,"Nuansa Jaya Abadi,Cv","Ngada, Jl. Basuki Rahmat, Tanalodu, Bajawa, Ngada Regency, East Nusa Tenggara 86412","Jl. Basuki Rahmat, Tanalodu, Bajawa, Ngada Regency",NUSA TENGGARA TIMUR,86412.0,Indonesia,85141722822,,,-87.901.931,1.209.747.459,https://maps.google.com/?cid=0x0:0x264d1a01de88fac8,
toko bangunan,Toko Bahan Bangunan,Toko Sedang Mekar,"6X6F+J9H, Ngedukelu, Bajawa, Kabupaten Ngada, Nusa Tenggara Tim.","Kabupaten Ngada, Nusa Tenggara Tim.",NUSA TENGGARA TIMUR,,Indonesia,,,,-87.884.434,1.209.734.838,https://maps.google.com/?cid=0x0:0xcb094957881919c6,
toko bangunan,toko bangunan,Kec. Soa,"Kabupaten Ngada, Nusa Tenggara Tim.","Kabupaten Ngada, Nusa Tenggara Tim.",NUSA TENGGARA TIMUR,,Indonesia,,,,-86.991.961,1.210.341.254,https://maps.google.com/?cid=0x0:0xa0e2c22221dea3ea,
toko bangunan,Toko Bahan Bangunan,SURYA BANGUNAN BUILDING MATERIAL,"Tuak Daun Merah, Kec. Oebobo, Kota Kupang, Nusa Tenggara Tim. 85228","Kec. Oebobo, Kota Kupang",NUSA TENGGARA TIMUR,85228.0,Indonesia,85101757906,,,-101.673.497,1.236.293.264,https://maps.google.com/?cid=0x0:0xadd57bf60a816b00,
toko bangunan,toko bangunan,Toko Zebada,"62RQ+X53, Mokdale, Kec. Lobalain, Kabupaten Rote Ndao, Nusa Tenggara Tim.","Kabupaten Rote Ndao, Nusa Tenggara Tim.",NUSA TENGGARA TIMUR,,Indonesia,,,,-107.576.161,1.230.379.074,https://maps.google.com/?cid=0x0:0x6a53e34db7a737ed,
toko bangunan,Produsen,Percetakan batako,"Dusun Wulilade 1, Tarawaja, Kec. Soa, Kabupaten Ngada, Nusa Tenggara Tim. 86414","Tarawaja, Kec. Soa, Kabupaten Ngada",NUSA TENGGARA TIMUR,86414.0,Indonesia,81357140714,,,-87.214.146,1.210.383.819,https://maps.google.com/?cid=0x0:0x250ec7ba6d7892,
toko bangunan,Toko Bahan Bangunan,Toko Sarana Bangunan,"Jalan Raya Hek Jl. Raya Cipayung No.55, RT.002/RW.009, Bojong Pd. Terong, Kec. Cipayung, Kota Depok, Jawa Barat 16437","RT.002/RW.009, Bojong Pd. Terong, Kec. Cipayung, Kota Depok",NUSA TENGGARA TIMUR,16437.0,Indonesia,8569047807,,,-64.392.806,1.067.974.443,https://maps.google.com/?cid=0x0:0x4d90155610a5291d,
toko bangunan,Toko Bahan Bangunan,TB.Citayam Bangunan,"Jl. Pertanian No.17, Cipayung Jaya, Kec. Cipayung, Kota Depok, Jawa Barat 16437","Cipayung Jaya, Kec. Cipayung, Kota Depok",NUSA TENGGARA TIMUR,16437.0,Indonesia,81290038337,,,-64.415.924,106.793.559,https://maps.google.com/?cid=0x0:0xb25807ea79fc56,
toko bangunan,Toko Bahan Bangunan,Toko Bangunan 89 Jaya,"HR3R+P9J, Jl. Kampung Bedahan, Kalibaru, Kec. Cilodong, Kota Depok, Jawa Barat 16419","Jl. Kampung Bedahan, Kalibaru, Kec. Cilodong, Kota Depok",NUSA TENGGARA TIMUR,16419.0,Indonesia,82111886567,,,-64.456.717,1.068.408.893,https://maps.google.com/?cid=0x0:0x9adb23a8412c4765,
toko bangunan,Toko Bahan Bangunan,Toko Bangunan Putra Mahkota,"1, Jl. Pd. Ranggon Selatan No.81, RT.8/RW.1, Pd. Ranggon, Kec. Cipayung, Kota Jakarta Timur, Daerah Khusus Ibukota Jakarta 13860","Jl. Pd. Ranggon Selatan No.81, RT.8/RW.1, Pd. Ranggon, Kec. Cipayung, Kota Jakarta Timur",NUSA TENGGARA TIMUR,13860.0,Indonesia,82188889282,,,-63.488.217,1.069.131.318,https://maps.google.com/?cid=0x0:0xd638eda47ecc824b,
toko bangunan,Toko Bahan Bangunan,TB.dua Putra Citayam,"Jalan Kampung Panjang No.89, RT.01 RW.21, Rawa Panjang, Citayam, Rw. Panjang, Kecamatan Bojonggede, Kabupaten Bogor, Jawa Barat 16320","RT.01 RW.21, Rawa Panjang, Citayam, Rw. Panjang, Kecamatan Bojonggede, Kabupaten Bogor",NUSA TENGGARA TIMUR,16320.0,Indonesia,2187982494,,,-64.496.438,1.068.084.981,https://maps.google.com/?cid=0x0:0x71e591d2c19556b6,
toko bangunan,Toko bahan makanan,SBA (Supermarket Bangunan Abadi),"Jl. Pd. Kacang No.88B, Pd. Kacang Bar., Kec. Pd. Aren, Kota Tangerang Selatan, Banten 15226","Pd. Kacang Bar., Kec. Pd. Aren, Kota Tangerang Selatan",NUSA TENGGARA TIMUR,15226.0,Indonesia,2173460185,,,-6.254.577,106.688.324,https://maps.google.com/?cid=0x0:0x370ec3ee4dda53b,
toko bangunan,Toko Bahan Bangunan,TB. Putra Daha,"Jl. Persatuan 1, Pasir Gn. Sel., Kec. Cimanggis, Kota Depok, Jawa Barat 16451","Pasir Gn. Sel., Kec. Cimanggis, Kota Depok",NUSA TENGGARA TIMUR,16451.0,Indonesia,81381411341,,,-63.395.646,1.068.484.367,https://maps.google.com/?cid=0x0:0xb346e391bfe05319,
toko bangunan,Toko Bahan Bangunan,Tirta Bangunan Supermarket,"Jl. Siliwangi No.1, Depok, Kec. Pancoran Mas, Kota Depok, Jawa Barat 16431","Depok, Kec. Pancoran Mas, Kota Depok",NUSA TENGGARA TIMUR,16431.0,Indonesia,2177211585,,,-63.994.435,106.820.465,https://maps.google.com/?cid=0x0:0x6c5691b15a29e9f8,
toko bangunan,Pemasok Bahan Bangunan,Tirta Bangunan Cilangkap Depok,"Jalan Raya Jakarta - Bogor No.Km. 39 No. 06, Cilangkap, Kec. Tapos, Kota Depok, Jawa Barat 16458","Cilangkap, Kec. Tapos, Kota Depok",NUSA TENGGARA TIMUR,16458.0,Indonesia,218750160,,,-6.443.838,106.853.566,https://maps.google.com/?cid=0x0:0xf553fc838aae54b3,
toko bangunan,Toko Bahan Bangunan,Toko Aneka Bangunan,"Jl. Tole Iskandar, Mekar Jaya, Kec. Sukmajaya, Kota Depok, Jawa Barat 16412","Mekar Jaya, Kec. Sukmajaya, Kota Depok",NUSA TENGGARA TIMUR,16412.0,Indonesia,85939819569,,,-64.039.721,1.068.379.499,https://maps.google.com/?cid=0x0:0x8357c771b0f3eb28,
toko bangunan,Toko Cat,Toko bangunan Lapan-Lapan,"Jl. Raya Jakarta-Bogor No.49, Jatijajar, Kec. Tapos, Kabupaten Bogor, Jawa Barat 16912","Jatijajar, Kec. Tapos, Kabupaten Bogor",NUSA TENGGARA TIMUR,16912.0,Indonesia,2187916688,,,-64.222.536,1.068.568.861,https://maps.google.com/?cid=0x0:0xc97b3a8c008e2770,
toko bangunan,Pemasok Bahan Bangunan,Supermarket Bangunan Abadi ( Bangunan Abadi ) Meruya,"Jl. Meruya Ilir Raya No.13 3, RT.3/RW.2, Meruya Utara, Kec. Kembangan, Kota Jakarta Barat, Daerah Khusus Ibukota Jakarta 11610","RT.3/RW.2, Meruya Utara, Kec. Kembangan, Kota Jakarta Barat",NUSA TENGGARA TIMUR,11610.0,Indonesia,215856801,,,-61.976.477,1.067.425.118,https://maps.google.com/?cid=0x0:0x13872e6ebcfc2cac,
toko bangunan,Toko Bahan Bangunan,TB Aneka Bangunan,"HR3P+52W, Jl. Aridho, Jatimulya, Kec. Cilodong, Kota Depok, Jawa Barat 16413","Jl. Aridho, Jatimulya, Kec. Cilodong, Kota Depok",NUSA TENGGARA TIMUR,16413.0,Indonesia,8119825087,,,-64.470.023,1.068.350.699,https://maps.google.com/?cid=0x0:0xc45d8b7389e3fb51,
toko bangunan,Toko Bahan Bangunan,Toko Bangunan Tunas Jaya Pondok Rajeg,"Jl. Raya Kp. Sawah, Jatimulya, Depok, Kota Depok, Jawa Barat 16413","Jatimulya, Depok, Kota Depok",NUSA TENGGARA TIMUR,16413.0,Indonesia,81802624769,,,-64.546.005,1.068.263.626,https://maps.google.com/?cid=0x0:0x95bc6d61eba1ee21,
toko bangunan,Toko Bahan Bangunan,TB. Pondok Rajeg,"Jl. Kelurahan No. 27, RT. 04/ RW. 02, Kel, Pd. Rajeg, Kec. Cibinong, Kabupaten Bogor, Jawa Barat 16914","RT. 04/ RW. 02, Kel, Pd. Rajeg, Kec. Cibinong, Kabupaten Bogor",NUSA TENGGARA TIMUR,16914.0,Indonesia,2187900826,,,-64.501.711,1.068.188.079,https://maps.google.com/?cid=0x0:0x14ef96bb7f197303,
toko bangunan,Toko Bahan Bangunan,Maju Bangunan,"GQXX+7HC, Jl. Raya Jemb. Serong, Bojong Pd. Terong, Kec. Cipayung, Kota Depok, Jawa Barat 16431","Jl. Raya Jemb. Serong, Bojong Pd. Terong, Kec. Cipayung, Kota Depok",NUSA TENGGARA TIMUR,16431.0,Indonesia,218781059,,,-64.518.116,1.067.988.923,https://maps.google.com/?cid=0x0:0x3482af217b429dcd,
toko bangunan,Toko Bahan Bangunan,Toko Bangunan 89JAYA,"Jl. Banjaran Pucung No.Rt.05/07, Cilangkap, Kec. Tapos, Kota Depok, Jawa Barat 16465","Cilangkap, Kec. Tapos, Kota Depok",NUSA TENGGARA TIMUR,16465.0,Indonesia,2183723589,,,-64.308.133,1.068.712.317,https://maps.google.com/?cid=0x0:0x2477b30a57073bf1,
toko bangunan,Toko Bahan Bangunan,Toko Bangunan,"HRJG+QP2, Tirtajaya, Kec. Sukmajaya, Kota Depok, Jawa Barat 16412","Tirtajaya, Kec. Sukmajaya, Kota Depok",NUSA TENGGARA TIMUR,16412.0,Indonesia,2177831119,,,-64.181.083,1.068.267.628,https://maps.google.com/?cid=0x0:0x8eb083ef454ec73a,
toko bangunan,Toko Bahan Bangunan,TB. Putra Daha II,"No.2Pasir, Jl. Garuda, Gn. Sel, Kec. Cimanggis, Kota Depok, Jawa Barat 16451","Jl. Garuda, Gn. Sel, Kec. Cimanggis, Kota Depok",NUSA TENGGARA TIMUR,16451.0,Indonesia,218722767,,,-63.423.978,1.068.496.191,https://maps.google.com/?cid=0x0:0xe7906fb8cd0846d5,
toko bangunan,Toko Bahan Bangunan,Toko Bangunan Samudra Raffles Hills,"Ruko Raffles Hills, blok AD/1, Harjamukti, Kec. Cimanggis, Kota Depok, Jawa Barat 16454","blok AD/1, Harjamukti, Kec. Cimanggis, Kota Depok",NUSA TENGGARA TIMUR,16454.0,Indonesia,87882895883,,,-63.766.656,1.069.031.215,https://maps.google.com/?cid=0x0:0xf6ee36c45c4b06fa,
toko bangunan,toko bangunan,Nusa Tenggara Tim.,,Nusa Tenggara Tim.,NUSA TENGGARA TIMUR,,Indonesia,,,,-86.573.819,1.210.793.705,https://maps.google.com/?cid=0x0:0x1030bfbcaf71ae0,
toko bangunan,Toko Bahan Bangunan,toko pelangi bangunan,"FVQP+VXF, Goron Talo, Kec. Komodo, Kabupaten Manggarai Barat, Nusa Tenggara Tim.","Kabupaten Manggarai Barat, Nusa Tenggara Tim.",NUSA TENGGARA TIMUR,,Indonesia,82145627171,,,-85.103.078,1.198.874.183,https://maps.google.com/?cid=0x0:0x6f62dc0810d90ac8,
toko bangunan,Toko Bahan Bangunan,Toko Duta Bangunan,"GFMJ+896, Benpasi, Kec. Kota Kefamenanu, Kabupaten Timor Tengah Utara, Nusa Tenggara Tim.","Kabupaten Timor Tengah Utara, Nusa Tenggara Tim.",NUSA TENGGARA TIMUR,,Indonesia,8113827627,,,-94.667.226,1.244.808.961,https://maps.google.com/?cid=0x0:0x7bd4b59644a2a0bd,
toko bangunan,Toko Bahan Bangunan,Toko Metro Bangunan,"Jl. Pulau Indah, Oesapa Bar., Kec. Klp. Lima, Kota Kupang, Nusa Tenggara Tim. 85228","Oesapa Bar., Kec. Klp. Lima, Kota Kupang",NUSA TENGGARA TIMUR,85228.0,Indonesia,82164218639,,,-101.488.046,1.236.344.972,https://maps.google.com/?cid=0x0:0x4afb0da23e208afb,
toko bangunan,Toko Bahan Bangunan,CV. Tujuh Jaya,"723W+C6P, Unnamed Rd, Mokdale, Kec. Lobalain, Kabupaten Rote Ndao, Nusa Tenggara Tim.","Kabupaten Rote Ndao, Nusa Tenggara Tim.",NUSA TENGGARA TIMUR,,Indonesia,,,,-107.464.098,12.304.558,https://maps.google.com/?cid=0x0:0x575a85c650ddf9e4,
toko bangunan,Toko Bahan Bangunan,Toko Bangunan Jaya,"Jl. Terusan Timor Raya No.9u KM. 6, Oesapa Bar., Kec. Klp. Lima, Kota Kupang, Nusa Tenggara Tim.","Kota Kupang, Nusa Tenggara Tim.",NUSA TENGGARA TIMUR,,Indonesia,81338567839,,,-1.014.441,1.236.254.719,https://maps.google.com/?cid=0x0:0x4a94c89160bbe62c,
toko bangunan,Pemasok Pipa,Toko Buana Bangunan,"Lasiana, Kec. Klp. Lima, Kota Kupang, Nusa Tenggara Tim.","Kota Kupang, Nusa Tenggara Tim.",NUSA TENGGARA TIMUR,,Indonesia,82244376888,,,-101.373.266,1.236.764.484,https://maps.google.com/?cid=0x0:0x9fc6cad7dda4e71a,
toko bangunan,Pemasok Pipa,Toko Bangunan,"Manulai II, Kec. Alak, Kota Kupang, Nusa Tenggara Tim.","Kota Kupang, Nusa Tenggara Tim.",NUSA TENGGARA TIMUR,,Indonesia,85123255522,,,-10.213.815,1.235.749.527,https://maps.google.com/?cid=0x0:0x5559349e9e4fc36f,
toko bangunan,Pemasok Bahan Bangunan,Indo Bangunan,"Jl. Taebenu, Liliba, Kec. Oebobo, Kota Kupang, Nusa Tenggara Tim. 85142","Liliba, Kec. Oebobo, Kota Kupang",NUSA TENGGARA TIMUR,85142.0,Indonesia,85198498181,,,-10.177.757,1.236.444.948,https://maps.google.com/?cid=0x0:0xe79b41c05f57dec9,
toko bangunan,Toko Bahan Bangunan,Toko Bravo Bangunan,"Jl. Terusan Timor Raya, Pasir Panjang, Kec. Kota Lama, Kota Kupang, Nusa Tenggara Tim. 85000","Pasir Panjang, Kec. Kota Lama, Kota Kupang",NUSA TENGGARA TIMUR,85000.0,Indonesia,81246295800,,,-101.509.378,1.236.033.391,https://maps.google.com/?cid=0x0:0xdf4da131f9948aff,
toko bangunan,Toko Bahan Bangunan,toko sinar bangunan (ende),"5J3V+MWW, Kel. Mbongawani, Kec. Ende Sel., Kabupaten Ende, Nusa Tenggara Tim.","Kabupaten Ende, Nusa Tenggara Tim.",NUSA TENGGARA TIMUR,,Indonesia,38121454,,,-88.457.706,1.216.448.129,https://maps.google.com/?cid=0x0:0x286f8de860e51520,
toko bangunan,Toko Bahan Bangunan,Songke Keramic,"JL. Bangau No.1, Flores, Nginamanu, Kupang, Kabupaten Ngada, Nusa Tenggara Tim.","Kabupaten Ngada, Nusa Tenggara Tim.",NUSA TENGGARA TIMUR,,Indonesia,85239177611,,,-8.658.542,12.107.665,https://maps.google.com/?cid=0x0:0xc471ec0e825f0599,
toko bangunan,Minimarket,toko hebron,"725V+CW9, Unnamed Rd, Mokdale, Kec. Lobalain, Kabupaten Rote Ndao, Nusa Tenggara Tim.","Kabupaten Rote Ndao, Nusa Tenggara Tim.",NUSA TENGGARA TIMUR,,Indonesia,,,,-107.414.723,1.230.448.675,https://maps.google.com/?cid=0x0:0x699558aa9d2e663a,
toko bangunan,Toko Perlengkapan Rumah,Toko Karya Bangunan,"RJQV+H9Q, Jl. Bumi I, Oesapa Sel., Kec. Klp. Lima, Kota Kupang, Nusa Tenggara Tim.","Kota Kupang, Nusa Tenggara Tim.",NUSA TENGGARA TIMUR,,Indonesia,,,,-101.610.333,1.236.434.727,https://maps.google.com/?cid=0x0:0x480107de15c2a6cf,
toko bangunan,Toko Bahan Bangunan,UD TUJUH JAYA BANGUNAN I,"72GX+8M5, Metina, Kec. Lobalain, Kabupaten Rote Ndao, Nusa Tenggara Tim.","Kabupaten Rote Ndao, Nusa Tenggara Tim.",NUSA TENGGARA TIMUR,,Indonesia,,,,-107.242.448,1.230.492.313,https://maps.google.com/?cid=0x0:0xca85d779b23c1d9d,
toko bangunan,Toko Bahan Bangunan,toko gloria bangunan,"Jl. Kemakmuran No.14, Kel. Mbongawani, Kec. Ende Sel., Kabupaten Ende, Nusa Tenggara Tim.","Kabupaten Ende, Nusa Tenggara Tim.",NUSA TENGGARA TIMUR,,Indonesia,81331006673,,,-88.465.826,121.644.941,https://maps.google.com/?cid=0x0:0xe6e6044a0d0864ee,
toko bangunan,Pusat Perbelanjaan,Indo Bangunan,"RMR7+GXF, Jl. Prof. Dr. Herman Johanes, Penfui, Kec. Kupang Tengah, Kabupaten Kupang, Nusa Tenggara Tim.","Kabupaten Kupang, Nusa Tenggara Tim.",NUSA TENGGARA TIMUR,,Indonesia,82146161359,,,-101.586.919,123.664.932,https://maps.google.com/?cid=0x0:0x5bd2db62b6d4f924,
toko bangunan,Toko Perlengkapan Rumah,Toko Bangunan Champion,"QGMX+63R, Mutiara, Kec. Tlk. Mutiara, Kabupaten Alor, Nusa Tenggara Tim.","Kabupaten Alor, Nusa Tenggara Tim.",NUSA TENGGARA TIMUR,,Indonesia,81338757523,,,-82.168.892,1.245.476.484,https://maps.google.com/?cid=0x0:0x43281458e96c59c8,
toko bangunan,Toko Bahan Bangunan,Toko Gloria,"Jl. Kemakmuran No.4, Kel. Rukunlima, Kec. Ende, Kabupaten Ende, Nusa Tenggara Tim.","Kabupaten Ende, Nusa Tenggara Tim.",NUSA TENGGARA TIMUR,,Indonesia,38121405,,,-8.853.948,121.654.251,https://maps.google.com/?cid=0x0:0xbf3a983e033d59a5,
toko bangunan,Pasar bahan bangunan,Toko Sentral Bangunan,"Jl. A. Yani No.31, Oeba, Kec. Kota Lama, Kota Kupang, Nusa Tenggara Tim.","Kota Kupang, Nusa Tenggara Tim.",NUSA TENGGARA TIMUR,,Indonesia,,,,-101.589.841,1.235.906.754,https://maps.google.com/?cid=0x0:0x86beb21036599681,
toko bangunan,toko bangunan,Toko Bangunan HeriMane,"H2HG+2V5, Nangamese, Kec. Riung, Kabupaten Ngada, Nusa Tenggara Tim.","Kabupaten Ngada, Nusa Tenggara Tim.",NUSA TENGGARA TIMUR,,Indonesia,,,,-84.224.784,1.210.272.444,https://maps.google.com/?cid=0x0:0x9a5d4d179c4cbdc1,
toko bangunan,Toko Bahan Bangunan,Toko Riung Keramik,"JX69+6V5, Limus Nunggal, Kec. Cileungsi, Kabupaten Bogor, Jawa Barat 16820","Limus Nunggal, Kec. Cileungsi, Kabupaten Bogor",NUSA TENGGARA TIMUR,16820.0,Indonesia,,,,-63.894.912,1.069.697.382,https://maps.google.com/?cid=0x0:0x827c4915bb3d13c,
toko bangunan,Toko Bahan Bangunan,Tri Jaya Keramik,"Jl. Raya Setu No.5, Cileungsi, Kec. Cileungsi, Kabupaten Bogor, Jawa Barat 16820","Cileungsi, Kec. Cileungsi, Kabupaten Bogor",NUSA TENGGARA TIMUR,16820.0,Indonesia,,,,-63.942.447,1.069.755.069,https://maps.google.com/?cid=0x0:0x144911950f0d6d0a,
toko bangunan,toko bangunan,Kec. Jerebuu,"Kabupaten Ngada, Nusa Tenggara Tim.","Kabupaten Ngada, Nusa Tenggara Tim.",NUSA TENGGARA TIMUR,,Indonesia,,,,-88.964.289,1.209.972.433,https://maps.google.com/?cid=0x0:0x39c158f74ac29cdb,
toko bangunan,Kios,Toko Bahan Bangunan Nazareth,"Jl. Budi Oetomo No.5, Ngedukelu, Bajawa, Kabupaten Ngada, Nusa Tenggara Tim.","Kabupaten Ngada, Nusa Tenggara Tim.",NUSA TENGGARA TIMUR,,Indonesia,,,,-87.880.286,1.209.746.536,https://maps.google.com/?cid=0x0:0x2c5c5e8684cbe434,
toko bangunan,Toko Bahan Bangunan,Toko Henny Jaya Bangunan,"Jln. Trans Seba, RT.03/RW.02, Menia, Kec. Sabu Bar., Kabupaten Sabu Raijua, Nusa Tenggara Tim.","Kabupaten Sabu Raijua, Nusa Tenggara Tim.",NUSA TENGGARA TIMUR,,Indonesia,,,,-104.920.399,1.218.385.402,https://maps.google.com/?cid=0x0:0xa06a0aad28836da0,
toko bangunan,Toko Bahan Bangunan,Toko Duta Bangunan,"GFMJ+896, Benpasi, Kec. Kota Kefamenanu, Kabupaten Timor Tengah Utara, Nusa Tenggara Tim.","Kabupaten Timor Tengah Utara, Nusa Tenggara Tim.",NUSA TENGGARA TIMUR,,Indonesia,8113827627,,,-94.667.226,1.244.808.961,https://maps.google.com/?cid=0x0:0x7bd4b59644a2a0bd,
toko bangunan,Gudang,Toko SENTRAL,"Jl. Budi Oetomo, Utomo, Bajawa, Kabupaten Ngada, Nusa Tenggara Tim. 86413","Utomo, Bajawa, Kabupaten Ngada",NUSA TENGGARA TIMUR,86413.0,Indonesia,,,,-87.875.796,1.209.734.623,https://maps.google.com/?cid=0x0:0x13fd05e2af09b89a,
toko bangunan,Pusat Perbelanjaan,Kios Nazareth,"6X8C+QPJ, Jl. Diponegoro, Trikora, Bajawa, Kabupaten Ngada, Nusa Tenggara Tim.","Kabupaten Ngada, Nusa Tenggara Tim.",NUSA TENGGARA TIMUR,,Indonesia,,,,-87.830.304,120.971.775,https://maps.google.com/?cid=0x0:0x514562406f9b03d7,
toko bangunan,toko bangunan,Kec. Riung Bar.,"Kabupaten Ngada, Nusa Tenggara Tim.","Kabupaten Ngada, Nusa Tenggara Tim.",NUSA TENGGARA TIMUR,,Indonesia,,,,-85.210.715,120.949.077,https://maps.google.com/?cid=0x0:0x457d9b30e57a9ad3,
toko bangunan,Pemasok Pipa,Toko Buana Bangunan,"Lasiana, Kec. Klp. Lima, Kota Kupang, Nusa Tenggara Tim.","Kota Kupang, Nusa Tenggara Tim.",NUSA TENGGARA TIMUR,,Indonesia,82244376888,,,-101.373.266,1.236.764.484,https://maps.google.com/?cid=0x0:0x9fc6cad7dda4e71a,
toko bangunan,Pemasok Pipa,Toko Bangunan,"Manulai II, Kec. Alak, Kota Kupang, Nusa Tenggara Tim.","Kota Kupang, Nusa Tenggara Tim.",NUSA TENGGARA TIMUR,,Indonesia,85123255522,,,-10.213.815,1.235.749.527,https://maps.google.com/?cid=0x0:0x5559349e9e4fc36f,
toko bangunan,Toko Bahan Bangunan,Toko Metro Bangunan,"Jl. Pulau Indah, Oesapa Bar., Kec. Klp. Lima, Kota Kupang, Nusa Tenggara Tim. 85228","Oesapa Bar., Kec. Klp. Lima, Kota Kupang",NUSA TENGGARA TIMUR,85228.0,Indonesia,82164218639,,,-101.488.046,1.236.344.972,https://maps.google.com/?cid=0x0:0x4afb0da23e208afb,
toko bangunan,Minimarket,toko hebron,"725V+CW9, Unnamed Rd, Mokdale, Kec. Lobalain, Kabupaten Rote Ndao, Nusa Tenggara Tim.","Kabupaten Rote Ndao, Nusa Tenggara Tim.",NUSA TENGGARA TIMUR,,Indonesia,,,,-107.414.723,1.230.448.675,https://maps.google.com/?cid=0x0:0x699558aa9d2e663a,
toko bangunan,Toko Bahan Bangunan,toko pelangi bangunan,"FVQP+VXF, Goron Talo, Kec. Komodo, Kabupaten Manggarai Barat, Nusa Tenggara Tim.","Kabupaten Manggarai Barat, Nusa Tenggara Tim.",NUSA TENGGARA TIMUR,,Indonesia,82145627171,,,-85.103.078,1.198.874.183,https://maps.google.com/?cid=0x0:0x6f62dc0810d90ac8,
toko bangunan,Toko Bahan Bangunan,Toko Graha Bangunan,"Gedung Graha Ariadi, Oesapa Bar., Kec. Klp. Lima, Kota Kupang, Nusa Tenggara Tim. 85228","Oesapa Bar., Kec. Klp. Lima, Kota Kupang",NUSA TENGGARA TIMUR,85228.0,Indonesia,81312893723,,,-101.468.703,123.631.267,https://maps.google.com/?cid=0x0:0x4167d73ee95fc845,
toko bangunan,Toko Bahan Bangunan,Songke Keramic,"JL. Bangau No.1, Flores, Nginamanu, Kupang, Kabupaten Ngada, Nusa Tenggara Tim.","Kabupaten Ngada, Nusa Tenggara Tim.",NUSA TENGGARA TIMUR,,Indonesia,85239177611,,,-8.658.542,12.107.665,https://maps.google.com/?cid=0x0:0xc471ec0e825f0599,
toko bangunan,toko bangunan,Waka mana,"F399+34H, Wangka Sel., Kec. Riung, Kabupaten Ngada, Nusa Tenggara Tim.","Kabupaten Ngada, Nusa Tenggara Tim.",NUSA TENGGARA TIMUR,,Indonesia,,,,-85.323.221,1.210.678.732,https://maps.google.com/?cid=0x0:0x60fe789ef5c42508,
toko bangunan,Toko Bahan Bangunan,Toko bangunan (UD.FITRAH),"7R2W+PV6, Kuang, Kec. Taliwang, Kabupaten Sumbawa Barat, Nusa Tenggara Bar. 84455","Kuang, Kec. Taliwang, Kabupaten Sumbawa Barat",NUSA TENGGARA TIMUR,84455.0,Indonesia,,,,-87.482.188,1.168.471.476,https://maps.google.com/?cid=0x0:0x300faa66d2d782aa,
toko bangunan,Toko Bahan Bangunan,Sinar Bangunan Building Mart,"Jl. Yos Sudarso No.177, Namosain, Kec. Alak, Kota Kupang, Nusa Tenggara Tim.","Kota Kupang, Nusa Tenggara Tim.",NUSA TENGGARA TIMUR,,Indonesia,81238941314,,,-101.916.248,1.235.407.476,https://maps.google.com/?cid=0x0:0x411fca6242be55fc,
toko bangunan,Toko Bahan Bangunan,Toko Senter Bangunan,"7R4W+QPW, Jl. Ps. Baru, Dalam, Kec. Taliwang, Kabupaten Sumbawa Barat, Nusa Tenggara Bar. 84455","Jl. Ps. Baru, Dalam, Kec. Taliwang, Kabupaten Sumbawa Barat",NUSA TENGGARA TIMUR,84455.0,Indonesia,37281059,,,-87.430.177,1.168.468.144,https://maps.google.com/?cid=0x0:0x4caf7cd21eb7421c,
toko bangunan,Toko Bahan Bangunan,Toko Cipta Bangunan,"Wolomarang, Kec. Alok Bar., Kabupaten Sikka, Nusa Tenggara Tim.","Kabupaten Sikka, Nusa Tenggara Tim.",NUSA TENGGARA TIMUR,,Indonesia,81231842348,,,-86.105.049,1.221.996.912,https://maps.google.com/?cid=0x0:0x1d786c0067a3953f,
toko bangunan,Toko Bahan Bangunan,Depo Bangunan Toko,"JL St Syahrir, RT 005/01, Bugis, Kec. Taliwang, Kabupaten Sumbawa Barat, Nusa Tenggara Bar. 84355","RT 005/01, Bugis, Kec. Taliwang, Kabupaten Sumbawa Barat",NUSA TENGGARA TIMUR,84355.0,Indonesia,37281797,,,-87.465.406,1.168.344.096,https://maps.google.com/?cid=0x0:0x1c089e160c4a5868,
toko bangunan,toko bangunan,Toko Bangunan HeriMane,"H2HG+2V5, Nangamese, Kec. Riung, Kabupaten Ngada, Nusa Tenggara Tim.","Kabupaten Ngada, Nusa Tenggara Tim.",NUSA TENGGARA TIMUR,,Indonesia,,,,-84.224.784,1.210.272.444,https://maps.google.com/?cid=0x0:0x9a5d4d179c4cbdc1,
toko bangunan,toko bangunan,Kec. Bajawa Utara,"Kabupaten Ngada, Nusa Tenggara Tim.","Kabupaten Ngada, Nusa Tenggara Tim.",NUSA TENGGARA TIMUR,,Indonesia,,,,-87.368.576,1.210.030.037,https://maps.google.com/?cid=0x0:0xb1d8c7bab42c5a19,
toko bangunan,Toko Bahan Bangunan,"penjualan material bangunan, batu, pasir","Waenai, Naru, Bajawa, Kabupaten Ngada, Nusa Tenggara Tim. 86413","Naru, Bajawa, Kabupaten Ngada",NUSA TENGGARA TIMUR,86413.0,Indonesia,82145071014,,,-87.722.267,1.209.789.558,https://maps.google.com/?cid=0x0:0xd3d82f6ad59f712d,
toko bangunan,Kios,Toko Bahan Bangunan Nazareth,"Jl. Budi Oetomo No.5, Ngedukelu, Bajawa, Kabupaten Ngada, Nusa Tenggara Tim.","Kabupaten Ngada, Nusa Tenggara Tim.",NUSA TENGGARA TIMUR,,Indonesia,,,,-87.880.286,1.209.746.536,https://maps.google.com/?cid=0x0:0x2c5c5e8684cbe434,
toko bangunan,Gudang,Toko SENTRAL,"Jl. Budi Oetomo, Utomo, Bajawa, Kabupaten Ngada, Nusa Tenggara Tim. 86413","Utomo, Bajawa, Kabupaten Ngada",NUSA TENGGARA TIMUR,86413.0,Indonesia,,,,-87.875.796,1.209.734.623,https://maps.google.com/?cid=0x0:0x13fd05e2af09b89a,
toko bangunan,Pasar bahan bangunan,"Penjualan Batu, Pasir, Kerikil dan bahan bangunan lokal lain","Desa Naru, Bajawa, Flores, Kabupaten Ngada, Nusa Tenggara Tim. 86413","Bajawa, Flores, Kabupaten Ngada",NUSA TENGGARA TIMUR,86413.0,Indonesia,85217681729,,,-87.686.996,1.209.847.853,https://maps.google.com/?cid=0x0:0xa501aadb2ed10cc0,
toko bangunan,Toko Bahan Bangunan,CV. SINAR BERLIAN,"5XQV+GJJ, Ubedolumolo, Bajawa, Kabupaten Ngada, Nusa Tenggara Tim.","Kabupaten Ngada, Nusa Tenggara Tim.",NUSA TENGGARA TIMUR,,Indonesia,,,,-88.111.709,1.209.940.073,https://maps.google.com/?cid=0x0:0xe1fcc0cee3d84e86,
toko bangunan,Tambang,Tambang Pasir Loboleke Naru-Lestari,"Naru, Bajawa, Kabupaten Ngada, Nusa Tenggara Tim. 86413","Bajawa, Kabupaten Ngada",NUSA TENGGARA TIMUR,86413.0,Indonesia,85217681729,,,-87.703.125,1.209.841.875,https://maps.google.com/?cid=0x0:0x1aae89b10dc772d3,
toko bangunan,Toko Bahan Bangunan,CV. Tujuh Jaya,"723W+C6P, Unnamed Rd, Mokdale, Kec. Lobalain, Kabupaten Rote Ndao, Nusa Tenggara Tim.","Kabupaten Rote Ndao, Nusa Tenggara Tim.",NUSA TENGGARA TIMUR,,Indonesia,,,,-107.464.098,12.304.558,https://maps.google.com/?cid=0x0:0x575a85c650ddf9e4,
toko bangunan,Produsen,Percetakan batako,"Dusun Wulilade 1, Tarawaja, Kec. Soa, Kabupaten Ngada, Nusa Tenggara Tim. 86414","Tarawaja, Kec. Soa, Kabupaten Ngada",NUSA TENGGARA TIMUR,86414.0,Indonesia,81357140714,,,-87.214.146,1.210.383.819,https://maps.google.com/?cid=0x0:0x250ec7ba6d7892,
toko bangunan,toko bangunan,Nusa Tenggara Tim.,,Nusa Tenggara Tim.,NUSA TENGGARA TIMUR,,Indonesia,,,,-86.573.819,1.210.793.705,https://maps.google.com/?cid=0x0:0x1030bfbcaf71ae0,
toko bangunan,toko bangunan,Toko Bangunan Metro,"JC85+7Q7, Jl. Trans Nagawutung, RT./RW/RW.003, 001, Lewoleba, Kec. Nubatukan, Kabupaten Lembata, Nusa Tenggara Tim.","Kabupaten Lembata, Nusa Tenggara Tim.",NUSA TENGGARA TIMUR,,Indonesia,,,,-83.838.599,1.234.101.432,https://maps.google.com/?cid=0x0:0xd35c47a0cc92cd06,
toko bangunan,Toko Bahan Bangunan,CV. Tujuh Jaya,"723W+C6P, Unnamed Rd, Mokdale, Kec. Lobalain, Kabupaten Rote Ndao, Nusa Tenggara Tim.","Kabupaten Rote Ndao, Nusa Tenggara Tim.",NUSA TENGGARA TIMUR,,Indonesia,,,,-107.464.098,12.304.558,https://maps.google.com/?cid=0x0:0x575a85c650ddf9e4,
toko bangunan,Minimarket,toko hebron,"725V+CW9, Unnamed Rd, Mokdale, Kec. Lobalain, Kabupaten Rote Ndao, Nusa Tenggara Tim.","Kabupaten Rote Ndao, Nusa Tenggara Tim.",NUSA TENGGARA TIMUR,,Indonesia,,,,-107.414.723,1.230.448.675,https://maps.google.com/?cid=0x0:0x699558aa9d2e663a,
toko bangunan,Toko Bahan Bangunan,UD TUJUH JAYA BANGUNAN I,"72GX+8M5, Metina, Kec. Lobalain, Kabupaten Rote Ndao, Nusa Tenggara Tim.","Kabupaten Rote Ndao, Nusa Tenggara Tim.",NUSA TENGGARA TIMUR,,Indonesia,,,,-107.242.448,1.230.492.313,https://maps.google.com/?cid=0x0:0xca85d779b23c1d9d,
toko bangunan,Toko Bahan Bangunan,Songke Keramic,"JL. Bangau No.1, Flores, Nginamanu, Kupang, Kabupaten Ngada, Nusa Tenggara Tim.","Kabupaten Ngada, Nusa Tenggara Tim.",NUSA TENGGARA TIMUR,,Indonesia,85239177611,,,-8.658.542,12.107.665,https://maps.google.com/?cid=0x0:0xc471ec0e825f0599,
toko bangunan,toko bangunan,Waka mana,"F399+34H, Wangka Sel., Kec. Riung, Kabupaten Ngada, Nusa Tenggara Tim.","Kabupaten Ngada, Nusa Tenggara Tim.",NUSA TENGGARA TIMUR,,Indonesia,,,,-85.323.221,1.210.678.732,https://maps.google.com/?cid=0x0:0x60fe789ef5c42508,
toko bangunan,toko bangunan,Kec. Golewa Selatan,"Kabupaten Ngada, Nusa Tenggara Tim.","Kabupaten Ngada, Nusa Tenggara Tim.",NUSA TENGGARA TIMUR,,Indonesia,,,,-88.533.694,1.211.030.931,https://maps.google.com/?cid=0x0:0x841f99d069ae89c3,
toko bangunan,Gudang,Toko SENTRAL,"Jl. Budi Oetomo, Utomo, Bajawa, Kabupaten Ngada, Nusa Tenggara Tim. 86413","Utomo, Bajawa, Kabupaten Ngada",NUSA TENGGARA TIMUR,86413.0,Indonesia,,,,-87.875.796,1.209.734.623,https://maps.google.com/?cid=0x0:0x13fd05e2af09b89a,
toko bangunan,Kantor Pemerintah,KANTOR CAMAT GOLEWA SELATAN,"43HW+W7R, Were II, Kec. Golewa, Kabupaten Ngada, Nusa Tenggara Tim.","Kabupaten Ngada, Nusa Tenggara Tim.",NUSA TENGGARA TIMUR,,Indonesia,,,,-88.701.446,1.210.956.358,https://maps.google.com/?cid=0x0:0xad799d8aeb722b7d,
toko bangunan,Toko Bahan Bangunan,Songke Keramic,"JL. Bangau No.1, Flores, Nginamanu, Kupang, Kabupaten Ngada, Nusa Tenggara Tim.","Kabupaten Ngada, Nusa Tenggara Tim.",NUSA TENGGARA TIMUR,,Indonesia,85239177611,,,-8.658.542,12.107.665,https://maps.google.com/?cid=0x0:0xc471ec0e825f0599,
toko bangunan,toko bangunan,Tb. Hokky,"52P2+RPF, Jl. Trans Flores, Mangulewa, Kec. Golewa, Kabupaten Ngada, Nusa Tenggara Tim.","Kabupaten Ngada, Nusa Tenggara Tim.",NUSA TENGGARA TIMUR,,Indonesia,,,,-88.129.481,1.210.017.864,https://maps.google.com/?cid=0x0:0x2887d81450ca5fa2,
toko bangunan,toko bangunan,Golewa Bar.,"Kabupaten Ngada, Nusa Tenggara Tim.","Kabupaten Ngada, Nusa Tenggara Tim.",NUSA TENGGARA TIMUR,,Indonesia,,,,-88.077.491,1.210.220.422,https://maps.google.com/?cid=0x0:0x103098ccabb3bc1,
toko bangunan,Toko Bahan Bangunan,"Nuansa Jaya Abadi,Cv","Ngada, Jl. Basuki Rahmat, Tanalodu, Bajawa, Ngada Regency, East Nusa Tenggara 86412","Jl. Basuki Rahmat, Tanalodu, Bajawa, Ngada Regency",NUSA TENGGARA TIMUR,86412.0,Indonesia,85141722822,,,-87.901.931,1.209.747.459,https://maps.google.com/?cid=0x0:0x264d1a01de88fac8,
toko bangunan,Toko Bahan Bangunan,Toko Sedang Mekar,"6X6F+J9H, Ngedukelu, Bajawa, Kabupaten Ngada, Nusa Tenggara Tim.","Kabupaten Ngada, Nusa Tenggara Tim.",NUSA TENGGARA TIMUR,,Indonesia,,,,-87.884.434,1.209.734.838,https://maps.google.com/?cid=0x0:0xcb094957881919c6,
toko bangunan,Toko Bahan Bangunan,Toko Cemerlang,"6X6F+G26, Kisanata, Bajawa, Kabupaten Ngada, Nusa Tenggara Tim.","Kabupaten Ngada, Nusa Tenggara Tim.",NUSA TENGGARA TIMUR,,Indonesia,,,,-87.887.022,1.209.725.012,https://maps.google.com/?cid=0x0:0x134e98a0443147ee,
toko bangunan,Kios,Toko Bahan Bangunan Nazareth,"Jl. Budi Oetomo No.5, Ngedukelu, Bajawa, Kabupaten Ngada, Nusa Tenggara Tim.","Kabupaten Ngada, Nusa Tenggara Tim.",NUSA TENGGARA TIMUR,,Indonesia,,,,-87.880.286,1.209.746.536,https://maps.google.com/?cid=0x0:0x2c5c5e8684cbe434,
toko bangunan,Toko Bahan Bangunan,"penjualan material bangunan, batu, pasir","Waenai, Naru, Bajawa, Kabupaten Ngada, Nusa Tenggara Tim. 86413","Naru, Bajawa, Kabupaten Ngada",NUSA TENGGARA TIMUR,86413.0,Indonesia,82145071014,,,-87.722.267,1.209.789.558,https://maps.google.com/?cid=0x0:0xd3d82f6ad59f712d,
toko bangunan,Pasar bahan bangunan,"Penjualan Batu, Pasir, Kerikil dan bahan bangunan lokal lain","Desa Naru, Bajawa, Flores, Kabupaten Ngada, Nusa Tenggara Tim. 86413","Bajawa, Flores, Kabupaten Ngada",NUSA TENGGARA TIMUR,86413.0,Indonesia,85217681729,,,-87.686.996,1.209.847.853,https://maps.google.com/?cid=0x0:0xa501aadb2ed10cc0,
toko bangunan,Kontraktor Umum,CV. Senandung,"Mangulewa, Kec. Golewa, Kabupaten Ngada, Nusa Tenggara Tim.","Kabupaten Ngada, Nusa Tenggara Tim.",NUSA TENGGARA TIMUR,,Indonesia,81237751352,,,-88.161.925,1.210.081.983,https://maps.google.com/?cid=0x0:0x8410ea96299acf6d,
toko bangunan,Gudang,Toko SENTRAL,"Jl. Budi Oetomo, Utomo, Bajawa, Kabupaten Ngada, Nusa Tenggara Tim. 86413","Utomo, Bajawa, Kabupaten Ngada",NUSA TENGGARA TIMUR,86413.0,Indonesia,,,,-87.875.796,1.209.734.623,https://maps.google.com/?cid=0x0:0x13fd05e2af09b89a,
toko bangunan,Pemasok Pipa,Toko Buana Bangunan,"Lasiana, Kec. Klp. Lima, Kota Kupang, Nusa Tenggara Tim.","Kota Kupang, Nusa Tenggara Tim.",NUSA TENGGARA TIMUR,,Indonesia,82244376888,,,-101.373.266,1.236.764.484,https://maps.google.com/?cid=0x0:0x9fc6cad7dda4e71a,
toko bangunan,Pusat Perbelanjaan,Larici. UD,"5XR4+QGF, JL. Pasar, Bajawa, Kabupaten Ngada, Nusa Tenggara Tim.","Kabupaten Ngada, Nusa Tenggara Tim.",NUSA TENGGARA TIMUR,,Indonesia,3842223432,,,-8.808.065,120.956.297,https://maps.google.com/?cid=0x0:0xb0e8f86c0ebef4bf,
toko bangunan,Toko Bahan Bangunan,SURYA BANGUNAN BUILDING MATERIAL,"Tuak Daun Merah, Kec. Oebobo, Kota Kupang, Nusa Tenggara Tim. 85228","Kec. Oebobo, Kota Kupang",NUSA TENGGARA TIMUR,85228.0,Indonesia,85101757906,,,-101.673.497,1.236.293.264,https://maps.google.com/?cid=0x0:0xadd57bf60a816b00,
toko bangunan,Toko Bahan Bangunan,Toko Graha Bangunan,"Gedung Graha Ariadi, Oesapa Bar., Kec. Klp. Lima, Kota Kupang, Nusa Tenggara Tim. 85228","Oesapa Bar., Kec. Klp. Lima, Kota Kupang",NUSA TENGGARA TIMUR,85228.0,Indonesia,81312893723,,,-101.468.703,123.631.267,https://maps.google.com/?cid=0x0:0x4167d73ee95fc845,
toko bangunan,Pemasok Pipa,Toko Bangunan,"Manulai II, Kec. Alak, Kota Kupang, Nusa Tenggara Tim.","Kota Kupang, Nusa Tenggara Tim.",NUSA TENGGARA TIMUR,,Indonesia,85123255522,,,-10.213.815,1.235.749.527,https://maps.google.com/?cid=0x0:0x5559349e9e4fc36f,
toko bangunan,Toko Bahan Bangunan,CV. Tujuh Jaya,"723W+C6P, Unnamed Rd, Mokdale, Kec. Lobalain, Kabupaten Rote Ndao, Nusa Tenggara Tim.","Kabupaten Rote Ndao, Nusa Tenggara Tim.",NUSA TENGGARA TIMUR,,Indonesia,,,,-107.464.098,12.304.558,https://maps.google.com/?cid=0x0:0x575a85c650ddf9e4,
toko bangunan,Toko Bahan Bangunan,Toko Bravo Bangunan,"Jl. Terusan Timor Raya, Pasir Panjang, Kec. Kota Lama, Kota Kupang, Nusa Tenggara Tim. 85000","Pasir Panjang, Kec. Kota Lama, Kota Kupang",NUSA TENGGARA TIMUR,85000.0,Indonesia,81246295800,,,-101.509.378,1.236.033.391,https://maps.google.com/?cid=0x0:0xdf4da131f9948aff,
toko bangunan,Toko Perlengkapan Rumah,Toko Karya Bangunan,"RJQV+H9Q, Jl. Bumi I, Oesapa Sel., Kec. Klp. Lima, Kota Kupang, Nusa Tenggara Tim.","Kota Kupang, Nusa Tenggara Tim.",NUSA TENGGARA TIMUR,,Indonesia,,,,-101.610.333,1.236.434.727,https://maps.google.com/?cid=0x0:0x480107de15c2a6cf,
toko bangunan,Produsen,Percetakan batako,"Dusun Wulilade 1, Tarawaja, Kec. Soa, Kabupaten Ngada, Nusa Tenggara Tim. 86414","Tarawaja, Kec. Soa, Kabupaten Ngada",NUSA TENGGARA TIMUR,86414.0,Indonesia,81357140714,,,-87.214.146,1.210.383.819,https://maps.google.com/?cid=0x0:0x250ec7ba6d7892,
toko bangunan,Toko Bahan Bangunan,Toko Metro Bangunan,"Jl. Pulau Indah, Oesapa Bar., Kec. Klp. Lima, Kota Kupang, Nusa Tenggara Tim. 85228","Oesapa Bar., Kec. Klp. Lima, Kota Kupang",NUSA TENGGARA TIMUR,85228.0,Indonesia,82164218639,,,-101.488.046,1.236.344.972,https://maps.google.com/?cid=0x0:0x4afb0da23e208afb,
toko bangunan,Tambang,Tambang Pasir Loboleke Naru-Lestari,"Naru, Bajawa, Kabupaten Ngada, Nusa Tenggara Tim. 86413","Bajawa, Kabupaten Ngada",NUSA TENGGARA TIMUR,86413.0,Indonesia,85217681729,,,-87.703.125,1.209.841.875,https://maps.google.com/?cid=0x0:0x1aae89b10dc772d3,
toko bangunan,toko bangunan,,,,NUSA TENGGARA TIMUR,,Indonesia,85231776870,,,-88.176.214,121.028.111,https://maps.google.com/?cid=0x0:0xe3fac21964272d23,
toko bangunan,toko bangunan,Nusa Tenggara Tim.,,Nusa Tenggara Tim.,NUSA TENGGARA TIMUR,,Indonesia,,,,-86.573.819,1.210.793.705,https://maps.google.com/?cid=0x0:0x1030bfbcaf71ae0,
toko bangunan,Toko Bahan Bangunan,toko sinar bangunan (ende),"5J3V+MWW, Kel. Mbongawani, Kec. Ende Sel., Kabupaten Ende, Nusa Tenggara Tim.","Kabupaten Ende, Nusa Tenggara Tim.",NUSA TENGGARA TIMUR,,Indonesia,38121454,,,-88.457.706,1.216.448.129,https://maps.google.com/?cid=0x0:0x286f8de860e51520,
toko bangunan,Toko Bahan Bangunan,toko gloria bangunan,"Jl. Kemakmuran No.14, Kel. Mbongawani, Kec. Ende Sel., Kabupaten Ende, Nusa Tenggara Tim.","Kabupaten Ende, Nusa Tenggara Tim.",NUSA TENGGARA TIMUR,,Indonesia,81331006673,,,-88.465.826,121.644.941,https://maps.google.com/?cid=0x0:0xe6e6044a0d0864ee,
toko bangunan,Toko Bahan Bangunan,Toko Duta Bangunan,"GFMJ+896, Benpasi, Kec. Kota Kefamenanu, Kabupaten Timor Tengah Utara, Nusa Tenggara Tim.","Kabupaten Timor Tengah Utara, Nusa Tenggara Tim.",NUSA TENGGARA TIMUR,,Indonesia,8113827627,,,-94.667.226,1.244.808.961,https://maps.google.com/?cid=0x0:0x7bd4b59644a2a0bd,
toko bangunan,Toko Bahan Bangunan,Sinar Bangunan Building Center,"Jl. Bund. PU No.12, Tuak Daun Merah, Kec. Oebobo, Kota Kupang, Nusa Tenggara Tim. 85228","Tuak Daun Merah, Kec. Oebobo, Kota Kupang",NUSA TENGGARA TIMUR,85228.0,Indonesia,81236648694,,,-101.675.355,1.236.289.538,https://maps.google.com/?cid=0x0:0x8b34913a09e207d2,
toko bangunan,Toko Bahan Bangunan,UD. Fajar Bangunan ENDE,"Jl. Ahmad Yani, Kel. Kelimutu, Kec. Ende Tengah, Kabupaten Ende, Nusa Tenggara Tim.","Kabupaten Ende, Nusa Tenggara Tim.",NUSA TENGGARA TIMUR,,Indonesia,82155194068,,,-88.481.109,1.216.573.345,https://maps.google.com/?cid=0x0:0x8a620756dd470b99,
toko bangunan,Toko Bahan Bangunan,CV. Tujuh Jaya,"723W+C6P, Unnamed Rd, Mokdale, Kec. Lobalain, Kabupaten Rote Ndao, Nusa Tenggara Tim.","Kabupaten Rote Ndao, Nusa Tenggara Tim.",NUSA TENGGARA TIMUR,,Indonesia,,,,-107.464.098,12.304.558,https://maps.google.com/?cid=0x0:0x575a85c650ddf9e4,
toko bangunan,Toko Bahan Bangunan,TOKO BANGUNAN,"962F+FR3, Lkr. Luar Maumere, Kota Baru, Kec. Alok Tim., Kabupaten Sikka, Nusa Tenggara Tim.","Kabupaten Sikka, Nusa Tenggara Tim.",NUSA TENGGARA TIMUR,,Indonesia,81228455504,,,-8.648.865,1.222.245.369,https://maps.google.com/?cid=0x0:0xfcda8409dfe7e722,
toko bangunan,Pemasok Pipa,Toko Buana Bangunan,"Lasiana, Kec. Klp. Lima, Kota Kupang, Nusa Tenggara Tim.","Kota Kupang, Nusa Tenggara Tim.",NUSA TENGGARA TIMUR,,Indonesia,82244376888,,,-101.373.266,1.236.764.484,https://maps.google.com/?cid=0x0:0x9fc6cad7dda4e71a,
toko bangunan,Toko Bahan Bangunan,Toko Nirmala,"Jl. Banteng No.10, Kel. Kotaraja, Kec. Ende Tengah, Kabupaten Ende, Nusa Tenggara Tim.","Kabupaten Ende, Nusa Tenggara Tim.",NUSA TENGGARA TIMUR,,Indonesia,38122765,,,-88.423.668,121.649.905,https://maps.google.com/?cid=0x0:0x10acb33e66af379f,
toko bangunan,Toko Bahan Bangunan,toko pelangi bangunan,"FVQP+VXF, Goron Talo, Kec. Komodo, Kabupaten Manggarai Barat, Nusa Tenggara Tim.","Kabupaten Manggarai Barat, Nusa Tenggara Tim.",NUSA TENGGARA TIMUR,,Indonesia,82145627171,,,-85.103.078,1.198.874.183,https://maps.google.com/?cid=0x0:0x6f62dc0810d90ac8,
toko bangunan,Toko Bahan Bangunan,Toko Gloria,"Jl. Kemakmuran No.4, Kel. Rukunlima, Kec. Ende, Kabupaten Ende, Nusa Tenggara Tim.","Kabupaten Ende, Nusa Tenggara Tim.",NUSA TENGGARA TIMUR,,Indonesia,38121405,,,-8.853.948,121.654.251,https://maps.google.com/?cid=0x0:0xbf3a983e033d59a5,
toko bangunan,Toko Bahan Bangunan,UD TUJUH JAYA BANGUNAN I,"72GX+8M5, Metina, Kec. Lobalain, Kabupaten Rote Ndao, Nusa Tenggara Tim.","Kabupaten Rote Ndao, Nusa Tenggara Tim.",NUSA TENGGARA TIMUR,,Indonesia,,,,-107.242.448,1.230.492.313,https://maps.google.com/?cid=0x0:0xca85d779b23c1d9d,
toko bangunan,Toko Bahan Bangunan,Toko Sinar Rembulan,"Kel. Mautapaga, Kec. Ende Tim., Kabupaten Ende, Nusa Tenggara Tim.","Kabupaten Ende, Nusa Tenggara Tim.",NUSA TENGGARA TIMUR,,Indonesia,,,,-88.457.899,1.216.663.021,https://maps.google.com/?cid=0x0:0xbda3c29037862e1f,
toko bangunan,Toko Bahan Bangunan,Toko bangunan,"VM4C+R79, Lasiana, Kec. Klp. Lima, Kota Kupang, Nusa Tenggara Tim.","Kota Kupang, Nusa Tenggara Tim.",NUSA TENGGARA TIMUR,,Indonesia,,,,-10.142.954,1.236.707.233,https://maps.google.com/?cid=0x0:0xb111458939496520,
toko bangunan,Pemasok Pipa,Toko Bangunan,"Manulai II, Kec. Alak, Kota Kupang, Nusa Tenggara Tim.","Kota Kupang, Nusa Tenggara Tim.",NUSA TENGGARA TIMUR,,Indonesia,85123255522,,,-10.213.815,1.235.749.527,https://maps.google.com/?cid=0x0:0x5559349e9e4fc36f,
toko bangunan,Toko Bahan Bangunan,Toko Henny Jaya Bangunan,"Jln. Trans Seba, RT.03/RW.02, Menia, Kec. Sabu Bar., Kabupaten Sabu Raijua, Nusa Tenggara Tim.","Kabupaten Sabu Raijua, Nusa Tenggara Tim.",NUSA TENGGARA TIMUR,,Indonesia,,,,-104.920.399,1.218.385.402,https://maps.google.com/?cid=0x0:0xa06a0aad28836da0,
toko bangunan,Toko Bahan Bangunan,Toko Cipta Bangunan,"Wolomarang, Kec. Alok Bar., Kabupaten Sikka, Nusa Tenggara Tim.","Kabupaten Sikka, Nusa Tenggara Tim.",NUSA TENGGARA TIMUR,,Indonesia,81231842348,,,-86.105.049,1.221.996.912,https://maps.google.com/?cid=0x0:0x1d786c0067a3953f,
toko bangunan,Toko Bahan Bangunan,Toko Graha Bangunan,"Gedung Graha Ariadi, Oesapa Bar., Kec. Klp. Lima, Kota Kupang, Nusa Tenggara Tim. 85228","Oesapa Bar., Kec. Klp. Lima, Kota Kupang",NUSA TENGGARA TIMUR,85228.0,Indonesia,81312893723,,,-101.468.703,123.631.267,https://maps.google.com/?cid=0x0:0x4167d73ee95fc845,
toko bangunan,Minimarket,toko hebron,"725V+CW9, Unnamed Rd, Mokdale, Kec. Lobalain, Kabupaten Rote Ndao, Nusa Tenggara Tim.","Kabupaten Rote Ndao, Nusa Tenggara Tim.",NUSA TENGGARA TIMUR,,Indonesia,,,,-107.414.723,1.230.448.675,https://maps.google.com/?cid=0x0:0x699558aa9d2e663a,
toko bangunan,toko bangunan,Toko Bangunan Inayah,"J26Q+3R6 Perum Rifka Lestari, Jl. Dumati, Dulamayo Bar., Kec. Telaga Biru, Kabupaten Gorontalo, Gorontalo 96181","Jl. Dumati, Dulamayo Bar., Kec. Telaga Biru, Kabupaten Gorontalo",NUSA TENGGARA TIMUR,96181.0,Indonesia,,,,0.6102188,1.230.396.096,https://maps.google.com/?cid=0x0:0xbe9ca80284308423,
toko bangunan,Toko Bahan Bangunan,IKI BANGUNAN,"Jl. Ayip Usman, Unyur, Kec. Serang, Kota Serang, Banten 42111","Unyur, Kec. Serang, Kota Serang",NUSA TENGGARA TIMUR,42111.0,Indonesia,8118820342,,,-61.043.105,106.167.871,https://maps.google.com/?cid=0x0:0x328f78aca58b1feb,
toko bangunan,Toko Bahan Bangunan,PT. Inori Indonesia,"Niaga Kalimas 2 Jl. Inspeksi Kalimalang No.15-16, Tambun, Kec. Cibitung, Kabupaten Bekasi, Jawa Barat 17510","Tambun, Kec. Cibitung, Kabupaten Bekasi",NUSA TENGGARA TIMUR,17510.0,Indonesia,8989318570,,,-62.736.886,1.070.534.151,https://maps.google.com/?cid=0x0:0x294afdba955a4098,
hardware store,Toko Bahan Bangunan,"Nuansa Jaya Abadi,Cv","Ngada, Jl. Basuki Rahmat, Tanalodu, Bajawa, Ngada Regency, East Nusa Tenggara 86412","Jl. Basuki Rahmat, Tanalodu, Bajawa, Ngada Regency",NUSA TENGGARA TIMUR,86412.0,Indonesia,85141722822,,,-87.901.931,1.209.747.459,https://maps.google.com/?cid=0x0:0x264d1a01de88fac8,
hardware store,Toko Bahan Bangunan,Toko Sedang Mekar,"6X6F+J9H, Ngedukelu, Bajawa, Kabupaten Ngada, Nusa Tenggara Tim.","Kabupaten Ngada, Nusa Tenggara Tim.",NUSA TENGGARA TIMUR,,Indonesia,,,,-87.884.434,1.209.734.838,https://maps.google.com/?cid=0x0:0xcb094957881919c6,
hardware store,Toko Bahan Bangunan,Ishadana Hardware,"4, 09200 Kupang, Kedah, Malaysia",Kupang,NUSA TENGGARA TIMUR,9200.0,Indonesia,,,,5.617.463,1.008.428.419,https://maps.google.com/?cid=0x0:0x972b19d7f7777915,
hardware store,Perusahaan Konstruksi,MIHM ENTERPRISE GEDUNG HARDWARE,"No 9, Lot 698, Jln Kemajuan, Pekan Baru Kupang, 09200 Kupang, Kedah, Malaysia",Kupang,NUSA TENGGARA TIMUR,9200.0,Indonesia,6044765633,,,56.384.876,1.008.458.195,https://maps.google.com/?cid=0x0:0x71ac62a9008d84c,
hardware store,hardware store,Kec. Golewa,"Kabupaten Ngada, Nusa Tenggara Tim.","Kabupaten Ngada, Nusa Tenggara Tim.",NUSA TENGGARA TIMUR,,Indonesia,,,,-8.823.719,121.051.735,https://maps.google.com/?cid=0x0:0xbe72500ebc67578b,
hardware store,Sekolah menengah,SMAN. 1 Golewa,"52P3+6FW, Mangulewa, Kec. Golewa, Kabupaten Ngada, Nusa Tenggara Tim.","Kabupaten Ngada, Nusa Tenggara Tim.",NUSA TENGGARA TIMUR,,Indonesia,85205885200,,,-88.143.807,1.210.037.175,https://maps.google.com/?cid=0x0:0xf88b078d19c6bb05,
hardware store,Sekolah Menengah Umum,SMA NEGERI 1 GOLEWA WERE,"43M8+85C, Were IV, Kec. Golewa, Kabupaten Ngada, Nusa Tenggara Tim.","Kabupaten Ngada, Nusa Tenggara Tim.",NUSA TENGGARA TIMUR,,Indonesia,,,,-88.666.887,121.065.377,https://maps.google.com/?cid=0x0:0x44f74e77d5ddd518,
hardware store,Tambang,Tambang Pasir Loboleke Naru-Lestari,"Naru, Bajawa, Kabupaten Ngada, Nusa Tenggara Tim. 86413","Bajawa, Kabupaten Ngada",NUSA TENGGARA TIMUR,86413.0,Indonesia,85217681729,,,-87.703.125,1.209.841.875,https://maps.google.com/?cid=0x0:0x1aae89b10dc772d3,
hardware store,Industri Pasir,Gunung pasir LOBOLEKE,"6XJJ+H7, Naru, Bajawa, Kabupaten Ngada, Nusa Tenggara Tim.","Kabupaten Ngada, Nusa Tenggara Tim.",NUSA TENGGARA TIMUR,,Indonesia,,,,-87.685.079,1.209.806.906,https://maps.google.com/?cid=0x0:0x9014f680bf8d6f5b,
hardware store,hardware store,Bajawa,"Bajawa, Kabupaten Ngada, Nusa Tenggara Tim.","Kabupaten Ngada, Nusa Tenggara Tim.",NUSA TENGGARA TIMUR,,Indonesia,,,,-8.792.325,120.960.602,https://maps.google.com/?cid=0x0:0x3cbeacbc23e7d171,
hardware store,Toko bahan makanan,Toko Sinar Seleria,"6X6F+MCV, Jl. Palapa, Ngedukelu, Bajawa, Kabupaten Ngada, Nusa Tenggara Tim.","Kabupaten Ngada, Nusa Tenggara Tim.",NUSA TENGGARA TIMUR,,Indonesia,,,,-87.882.519,1.209.735.535,https://maps.google.com/?cid=0x0:0xc2e7f62b5fe42b75,
hardware store,Grosir,Krista Toko,"5XV4+4C9, JL. Pasar Baru, Bajawa, Ngada Bawa, Bajawa, Kabupaten Ngada, Nusa Tenggara Tim. 86413","JL. Pasar Baru, Bajawa, Ngada Bawa, Bajawa, Kabupaten Ngada",NUSA TENGGARA TIMUR,86413.0,Indonesia,38421685,,,-88.072.159,1.209.561.123,https://maps.google.com/?cid=0x0:0x12350b13744f5639,
hardware store,Toko Bahan Bangunan,Bhavani Hardwares,"Talebazar, Maharashtra 416611, India",Maharashtra,NUSA TENGGARA TIMUR,416611.0,Indonesia,"9,19422E+11",,,163.913.799,734.931.264,https://maps.google.com/?cid=0x0:0x2776ece1e39c06be,
hardware store,Toko Bahan Bangunan,Samarth Hardware,"Bank of India, Talebazar, Maharashtra 416611, India","Talebazar, Maharashtra",NUSA TENGGARA TIMUR,416611.0,Indonesia,,,,163.903.862,734.967.282,https://maps.google.com/?cid=0x0:0x61bc6444a7fac974,
hardware store,hardware store,Bajawa,"Bajawa, Kabupaten Ngada, Nusa Tenggara Tim.","Kabupaten Ngada, Nusa Tenggara Tim.",NUSA TENGGARA TIMUR,,Indonesia,,,,-8.792.325,120.960.602,https://maps.google.com/?cid=0x0:0x3cbeacbc23e7d171,
hardware store,Toko Elektronik,TOKO MUSTIKA BAJAWA,"Jl. R Soeprapto No.20, Ngedukelu, Bajawa, Kabupaten Ngada, Nusa Tenggara Tim.","Kabupaten Ngada, Nusa Tenggara Tim.",NUSA TENGGARA TIMUR,,Indonesia,81259776776,,,-87.885.483,1.209.773.765,https://maps.google.com/?cid=0x0:0xa7dc7be9e1841f11,
hardware store,Toko bahan makanan,Toko Sinar Seleria,"6X6F+MCV, Jl. Palapa, Ngedukelu, Bajawa, Kabupaten Ngada, Nusa Tenggara Tim.","Kabupaten Ngada, Nusa Tenggara Tim.",NUSA TENGGARA TIMUR,,Indonesia,,,,-87.882.519,1.209.735.535,https://maps.google.com/?cid=0x0:0xc2e7f62b5fe42b75,
hardware store,Toko Bahan Bangunan,Toko Cemerlang,"6X6F+G26, Kisanata, Bajawa, Kabupaten Ngada, Nusa Tenggara Tim.","Kabupaten Ngada, Nusa Tenggara Tim.",NUSA TENGGARA TIMUR,,Indonesia,,,,-87.887.022,1.209.725.012,https://maps.google.com/?cid=0x0:0x134e98a0443147ee,
hardware store,Gudang,Toko SENTRAL,"Jl. Budi Oetomo, Utomo, Bajawa, Kabupaten Ngada, Nusa Tenggara Tim. 86413","Utomo, Bajawa, Kabupaten Ngada",NUSA TENGGARA TIMUR,86413.0,Indonesia,,,,-87.875.796,1.209.734.623,https://maps.google.com/?cid=0x0:0x13fd05e2af09b89a,
hardware store,hardware store,TOKO SEPATU BAJAWA,"LOKALODO, Rakateda II, Golewa Bar., Kabupaten Ngada, Nusa Tenggara Tim. 86413","Rakateda II, Golewa Bar., Kabupaten Ngada",NUSA TENGGARA TIMUR,86413.0,Indonesia,82349498752,,,-88.432.523,1.210.048.384,https://maps.google.com/?cid=0x0:0x7b707c51bfe45fe6,
hardware store,Toko Bahan Bangunan,Bhavani Hardwares,"Talebazar, Maharashtra 416611, India",Maharashtra,NUSA TENGGARA TIMUR,416611.0,Indonesia,"9,19422E+11",,,163.913.799,734.931.264,https://maps.google.com/?cid=0x0:0x2776ece1e39c06be,
hardware store,Toko Bahan Bangunan,Samarth Hardware,"Bank of India, Talebazar, Maharashtra 416611, India","Talebazar, Maharashtra",NUSA TENGGARA TIMUR,416611.0,Indonesia,,,,163.903.862,734.967.282,https://maps.google.com/?cid=0x0:0x61bc6444a7fac974,
hardware store,hardware store,Bajawa,"Bajawa, Kabupaten Ngada, Nusa Tenggara Tim.","Kabupaten Ngada, Nusa Tenggara Tim.",NUSA TENGGARA TIMUR,,Indonesia,,,,-8.792.325,120.960.602,https://maps.google.com/?cid=0x0:0x3cbeacbc23e7d171,
hardware store,Toko Bahan Bangunan,Toko Cemerlang,"6X6F+G26, Kisanata, Bajawa, Kabupaten Ngada, Nusa Tenggara Tim.","Kabupaten Ngada, Nusa Tenggara Tim.",NUSA TENGGARA TIMUR,,Indonesia,,,,-87.887.022,1.209.725.012,https://maps.google.com/?cid=0x0:0x134e98a0443147ee,
hardware store,Gudang,Toko SENTRAL,"Jl. Budi Oetomo, Utomo, Bajawa, Kabupaten Ngada, Nusa Tenggara Tim. 86413","Utomo, Bajawa, Kabupaten Ngada",NUSA TENGGARA TIMUR,86413.0,Indonesia,,,,-87.875.796,1.209.734.623,https://maps.google.com/?cid=0x0:0x13fd05e2af09b89a,
hardware store,Grosir,Krista Toko,"5XV4+4C9, JL. Pasar Baru, Bajawa, Ngada Bawa, Bajawa, Kabupaten Ngada, Nusa Tenggara Tim. 86413","JL. Pasar Baru, Bajawa, Ngada Bawa, Bajawa, Kabupaten Ngada",NUSA TENGGARA TIMUR,86413.0,Indonesia,38421685,,,-88.072.159,1.209.561.123,https://maps.google.com/?cid=0x0:0x12350b13744f5639,
hardware store,Toko bahan makanan,Toko Sinar Seleria,"6X6F+MCV, Jl. Palapa, Ngedukelu, Bajawa, Kabupaten Ngada, Nusa Tenggara Tim.","Kabupaten Ngada, Nusa Tenggara Tim.",NUSA TENGGARA TIMUR,,Indonesia,,,,-87.882.519,1.209.735.535,https://maps.google.com/?cid=0x0:0xc2e7f62b5fe42b75,
hardware store,hardware store,Kristian Homestay,"6X4G+H4P, Unnamed Road, Bajawa, Kabupaten Ngada, Nusa Tenggara Tim.","Kabupaten Ngada, Nusa Tenggara Tim.",NUSA TENGGARA TIMUR,,Indonesia,81339480142,,,-87.935.334,1.209.753.132,https://maps.google.com/?cid=0x0:0x1fe97ebc303d5d72,
hardware store,Tambang,Tambang Pasir Loboleke Naru-Lestari,"Naru, Bajawa, Kabupaten Ngada, Nusa Tenggara Tim. 86413","Bajawa, Kabupaten Ngada",NUSA TENGGARA TIMUR,86413.0,Indonesia,85217681729,,,-87.703.125,1.209.841.875,https://maps.google.com/?cid=0x0:0x1aae89b10dc772d3,
hardware store,Industri Pasir,Gunung pasir LOBOLEKE,"6XJJ+H7, Naru, Bajawa, Kabupaten Ngada, Nusa Tenggara Tim.","Kabupaten Ngada, Nusa Tenggara Tim.",NUSA TENGGARA TIMUR,,Indonesia,,,,-87.685.079,1.209.806.906,https://maps.google.com/?cid=0x0:0x9014f680bf8d6f5b,
hardware store,hardware store,Bajawa,"Bajawa, Kabupaten Ngada, Nusa Tenggara Tim.","Kabupaten Ngada, Nusa Tenggara Tim.",NUSA TENGGARA TIMUR,,Indonesia,,,,-8.792.325,120.960.602,https://maps.google.com/?cid=0x0:0x3cbeacbc23e7d171,
hardware store,Grosir,Krista Toko,"5XV4+4C9, JL. Pasar Baru, Bajawa, Ngada Bawa, Bajawa, Kabupaten Ngada, Nusa Tenggara Tim. 86413","JL. Pasar Baru, Bajawa, Ngada Bawa, Bajawa, Kabupaten Ngada",NUSA TENGGARA TIMUR,86413.0,Indonesia,38421685,,,-88.072.159,1.209.561.123,https://maps.google.com/?cid=0x0:0x12350b13744f5639,
hardware store,hardware store,TOKO SEPATU BAJAWA,"LOKALODO, Rakateda II, Golewa Bar., Kabupaten Ngada, Nusa Tenggara Tim. 86413","Rakateda II, Golewa Bar., Kabupaten Ngada",NUSA TENGGARA TIMUR,86413.0,Indonesia,82349498752,,,-88.432.523,1.210.048.384,https://maps.google.com/?cid=0x0:0x7b707c51bfe45fe6,
hardware store,Toko Bahan Bangunan,Bhavani Hardwares,"Talebazar, Maharashtra 416611, India",Maharashtra,NUSA TENGGARA TIMUR,416611.0,Indonesia,"9,19422E+11",,,163.913.799,734.931.264,https://maps.google.com/?cid=0x0:0x2776ece1e39c06be,
hardware store,Toko Bahan Bangunan,Samarth Hardware,"Bank of India, Talebazar, Maharashtra 416611, India","Talebazar, Maharashtra",NUSA TENGGARA TIMUR,416611.0,Indonesia,,,,163.903.862,734.967.282,https://maps.google.com/?cid=0x0:0x61bc6444a7fac974,
hardware store,hardware store,Bajawa,"Bajawa, Kabupaten Ngada, Nusa Tenggara Tim.","Kabupaten Ngada, Nusa Tenggara Tim.",NUSA TENGGARA TIMUR,,Indonesia,,,,-8.792.325,120.960.602,https://maps.google.com/?cid=0x0:0x3cbeacbc23e7d171,
hardware store,hardware store,Kristian Homestay,"6X4G+H4P, Unnamed Road, Bajawa, Kabupaten Ngada, Nusa Tenggara Tim.","Kabupaten Ngada, Nusa Tenggara Tim.",NUSA TENGGARA TIMUR,,Indonesia,81339480142,,,-87.935.334,1.209.753.132,https://maps.google.com/?cid=0x0:0x1fe97ebc303d5d72,
hardware store,Toko Elektronik,TOKO MUSTIKA BAJAWA,"Jl. R Soeprapto No.20, Ngedukelu, Bajawa, Kabupaten Ngada, Nusa Tenggara Tim.","Kabupaten Ngada, Nusa Tenggara Tim.",NUSA TENGGARA TIMUR,,Indonesia,81259776776,,,-87.885.483,1.209.773.765,https://maps.google.com/?cid=0x0:0xa7dc7be9e1841f11,
hardware store,Grosir,Krista Toko,"5XV4+4C9, JL. Pasar Baru, Bajawa, Ngada Bawa, Bajawa, Kabupaten Ngada, Nusa Tenggara Tim. 86413","JL. Pasar Baru, Bajawa, Ngada Bawa, Bajawa, Kabupaten Ngada",NUSA TENGGARA TIMUR,86413.0,Indonesia,38421685,,,-88.072.159,1.209.561.123,https://maps.google.com/?cid=0x0:0x12350b13744f5639,
hardware store,Toko Bahan Bangunan,Bhavani Hardwares,"Talebazar, Maharashtra 416611, India",Maharashtra,NUSA TENGGARA TIMUR,416611.0,Indonesia,"9,19422E+11",,,163.913.799,734.931.264,https://maps.google.com/?cid=0x0:0x2776ece1e39c06be,
hardware store,Toko Bahan Bangunan,Samarth Hardware,"Bank of India, Talebazar, Maharashtra 416611, India","Talebazar, Maharashtra",NUSA TENGGARA TIMUR,416611.0,Indonesia,,,,163.903.862,734.967.282,https://maps.google.com/?cid=0x0:0x61bc6444a7fac974,
hardware store,Tambang,Tambang Pasir Loboleke Naru-Lestari,"Naru, Bajawa, Kabupaten Ngada, Nusa Tenggara Tim. 86413","Bajawa, Kabupaten Ngada",NUSA TENGGARA TIMUR,86413.0,Indonesia,85217681729,,,-87.703.125,1.209.841.875,https://maps.google.com/?cid=0x0:0x1aae89b10dc772d3,
hardware store,Industri Pasir,Gunung pasir LOBOLEKE,"6XJJ+H7, Naru, Bajawa, Kabupaten Ngada, Nusa Tenggara Tim.","Kabupaten Ngada, Nusa Tenggara Tim.",NUSA TENGGARA TIMUR,,Indonesia,,,,-87.685.079,1.209.806.906,https://maps.google.com/?cid=0x0:0x9014f680bf8d6f5b,
hardware store,hardware store,Bajawa,"Bajawa, Kabupaten Ngada, Nusa Tenggara Tim.","Kabupaten Ngada, Nusa Tenggara Tim.",NUSA TENGGARA TIMUR,,Indonesia,,,,-8.792.325,120.960.602,https://maps.google.com/?cid=0x0:0x3cbeacbc23e7d171,
hardware store,Toko bahan makanan,Toko Sinar Seleria,"6X6F+MCV, Jl. Palapa, Ngedukelu, Bajawa, Kabupaten Ngada, Nusa Tenggara Tim.","Kabupaten Ngada, Nusa Tenggara Tim.",NUSA TENGGARA TIMUR,,Indonesia,,,,-87.882.519,1.209.735.535,https://maps.google.com/?cid=0x0:0xc2e7f62b5fe42b75,
hardware store,hardware store,TOKO SEPATU BAJAWA,"LOKALODO, Rakateda II, Golewa Bar., Kabupaten Ngada, Nusa Tenggara Tim. 86413","Rakateda II, Golewa Bar., Kabupaten Ngada",NUSA TENGGARA TIMUR,86413.0,Indonesia,82349498752,,,-88.432.523,1.210.048.384,https://maps.google.com/?cid=0x0:0x7b707c51bfe45fe6,
hardware store,Grosir,Krista Toko,"5XV4+4C9, JL. Pasar Baru, Bajawa, Ngada Bawa, Bajawa, Kabupaten Ngada, Nusa Tenggara Tim. 86413","JL. Pasar Baru, Bajawa, Ngada Bawa, Bajawa, Kabupaten Ngada",NUSA TENGGARA TIMUR,86413.0,Indonesia,38421685,,,-88.072.159,1.209.561.123,https://maps.google.com/?cid=0x0:0x12350b13744f5639,
hardware store,Toko Bahan Bangunan,Bhavani Hardwares,"Talebazar, Maharashtra 416611, India",Maharashtra,NUSA TENGGARA TIMUR,416611.0,Indonesia,"9,19422E+11",,,163.913.799,734.931.264,https://maps.google.com/?cid=0x0:0x2776ece1e39c06be,
hardware store,Toko Bahan Bangunan,Samarth Hardware,"Bank of India, Talebazar, Maharashtra 416611, India","Talebazar, Maharashtra",NUSA TENGGARA TIMUR,416611.0,Indonesia,,,,163.903.862,734.967.282,https://maps.google.com/?cid=0x0:0x61bc6444a7fac974,
hardware store,Tambang,Tambang Pasir Loboleke Naru-Lestari,"Naru, Bajawa, Kabupaten Ngada, Nusa Tenggara Tim. 86413","Bajawa, Kabupaten Ngada",NUSA TENGGARA TIMUR,86413.0,Indonesia,85217681729,,,-87.703.125,1.209.841.875,https://maps.google.com/?cid=0x0:0x1aae89b10dc772d3,
hardware store,Industri Pasir,Gunung pasir LOBOLEKE,"6XJJ+H7, Naru, Bajawa, Kabupaten Ngada, Nusa Tenggara Tim.","Kabupaten Ngada, Nusa Tenggara Tim.",NUSA TENGGARA TIMUR,,Indonesia,,,,-87.685.079,1.209.806.906,https://maps.google.com/?cid=0x0:0x9014f680bf8d6f5b,
hardware store,hardware store,Bajawa,"Bajawa, Kabupaten Ngada, Nusa Tenggara Tim.","Kabupaten Ngada, Nusa Tenggara Tim.",NUSA TENGGARA TIMUR,,Indonesia,,,,-8.792.325,120.960.602,https://maps.google.com/?cid=0x0:0x3cbeacbc23e7d171,
hardware store,Gudang,Toko SENTRAL,"Jl. Budi Oetomo, Utomo, Bajawa, Kabupaten Ngada, Nusa Tenggara Tim. 86413","Utomo, Bajawa, Kabupaten Ngada",NUSA TENGGARA TIMUR,86413.0,Indonesia,,,,-87.875.796,1.209.734.623,https://maps.google.com/?cid=0x0:0x13fd05e2af09b89a,
hardware store,Toko Elektronik,TOKO MUSTIKA BAJAWA,"Jl. R Soeprapto No.20, Ngedukelu, Bajawa, Kabupaten Ngada, Nusa Tenggara Tim.","Kabupaten Ngada, Nusa Tenggara Tim.",NUSA TENGGARA TIMUR,,Indonesia,81259776776,,,-87.885.483,1.209.773.765,https://maps.google.com/?cid=0x0:0xa7dc7be9e1841f11,
hardware store,Toko bahan makanan,Toko Sinar Seleria,"6X6F+MCV, Jl. Palapa, Ngedukelu, Bajawa, Kabupaten Ngada, Nusa Tenggara Tim.","Kabupaten Ngada, Nusa Tenggara Tim.",NUSA TENGGARA TIMUR,,Indonesia,,,,-87.882.519,1.209.735.535,https://maps.google.com/?cid=0x0:0xc2e7f62b5fe42b75,
hardware store,hardware store,TOKO SEPATU BAJAWA,"LOKALODO, Rakateda II, Golewa Bar., Kabupaten Ngada, Nusa Tenggara Tim. 86413","Rakateda II, Golewa Bar., Kabupaten Ngada",NUSA TENGGARA TIMUR,86413.0,Indonesia,82349498752,,,-88.432.523,1.210.048.384,https://maps.google.com/?cid=0x0:0x7b707c51bfe45fe6,
hardware store,Grosir,Krista Toko,"5XV4+4C9, JL. Pasar Baru, Bajawa, Ngada Bawa, Bajawa, Kabupaten Ngada, Nusa Tenggara Tim. 86413","JL. Pasar Baru, Bajawa, Ngada Bawa, Bajawa, Kabupaten Ngada",NUSA TENGGARA TIMUR,86413.0,Indonesia,38421685,,,-88.072.159,1.209.561.123,https://maps.google.com/?cid=0x0:0x12350b13744f5639,
hardware store,Toko,TOKO SINAR HIDUP,"6X6F+W68, Jl. Gajah Mada, Ngedukelu, Bajawa, Kabupaten Ngada, Nusa Tenggara Tim.","Kabupaten Ngada, Nusa Tenggara Tim.",NUSA TENGGARA TIMUR,,Indonesia,,,,-87.877.095,1.209.730.815,https://maps.google.com/?cid=0x0:0x6ce4d2b43781f0aa,
hardware store,hardware store,Bajawa,"Bajawa, Kabupaten Ngada, Nusa Tenggara Tim.","Kabupaten Ngada, Nusa Tenggara Tim.",NUSA TENGGARA TIMUR,,Indonesia,,,,-8.792.325,120.960.602,https://maps.google.com/?cid=0x0:0x3cbeacbc23e7d171,
hardware store,Kios,Toko Bahan Bangunan Nazareth,"Jl. Budi Oetomo No.5, Ngedukelu, Bajawa, Kabupaten Ngada, Nusa Tenggara Tim.","Kabupaten Ngada, Nusa Tenggara Tim.",NUSA TENGGARA TIMUR,,Indonesia,,,,-87.880.286,1.209.746.536,https://maps.google.com/?cid=0x0:0x2c5c5e8684cbe434,
hardware store,Toko Elektronik,TOKO MUSTIKA BAJAWA,"Jl. R Soeprapto No.20, Ngedukelu, Bajawa, Kabupaten Ngada, Nusa Tenggara Tim.","Kabupaten Ngada, Nusa Tenggara Tim.",NUSA TENGGARA TIMUR,,Indonesia,81259776776,,,-87.885.483,1.209.773.765,https://maps.google.com/?cid=0x0:0xa7dc7be9e1841f11,
hardware store,Toko Komputer,ITC BAJAWA SERVICE KOMPUTER LAPTOP,"6X8G+86Q, Ngedukelu, Bajawa, Kabupaten Ngada, Nusa Tenggara Tim.","Kabupaten Ngada, Nusa Tenggara Tim.",NUSA TENGGARA TIMUR,,Indonesia,,,,-87.841.504,1.209.756.089,https://maps.google.com/?cid=0x0:0x3316eb38d88e4e59,
hardware store,Toko Bahan Bangunan,Toko Cemerlang,"6X6F+G26, Kisanata, Bajawa, Kabupaten Ngada, Nusa Tenggara Tim.","Kabupaten Ngada, Nusa Tenggara Tim.",NUSA TENGGARA TIMUR,,Indonesia,,,,-87.887.022,1.209.725.012,https://maps.google.com/?cid=0x0:0x134e98a0443147ee,
hardware store,Gudang,Toko SENTRAL,"Jl. Budi Oetomo, Utomo, Bajawa, Kabupaten Ngada, Nusa Tenggara Tim. 86413","Utomo, Bajawa, Kabupaten Ngada",NUSA TENGGARA TIMUR,86413.0,Indonesia,,,,-87.875.796,1.209.734.623,https://maps.google.com/?cid=0x0:0x13fd05e2af09b89a,
hardware store,Toko bahan makanan,Toko Sinar Seleria,"6X6F+MCV, Jl. Palapa, Ngedukelu, Bajawa, Kabupaten Ngada, Nusa Tenggara Tim.","Kabupaten Ngada, Nusa Tenggara Tim.",NUSA TENGGARA TIMUR,,Indonesia,,,,-87.882.519,1.209.735.535,https://maps.google.com/?cid=0x0:0xc2e7f62b5fe42b75,
hardware store,hardware store,TOKO SEPATU BAJAWA,"LOKALODO, Rakateda II, Golewa Bar., Kabupaten Ngada, Nusa Tenggara Tim. 86413","Rakateda II, Golewa Bar., Kabupaten Ngada",NUSA TENGGARA TIMUR,86413.0,Indonesia,82349498752,,,-88.432.523,1.210.048.384,https://maps.google.com/?cid=0x0:0x7b707c51bfe45fe6,
hardware store,Grosir,Krista Toko,"5XV4+4C9, JL. Pasar Baru, Bajawa, Ngada Bawa, Bajawa, Kabupaten Ngada, Nusa Tenggara Tim. 86413","JL. Pasar Baru, Bajawa, Ngada Bawa, Bajawa, Kabupaten Ngada",NUSA TENGGARA TIMUR,86413.0,Indonesia,38421685,,,-88.072.159,1.209.561.123,https://maps.google.com/?cid=0x0:0x12350b13744f5639,
hardware store,hardware store,Kristian Homestay,"6X4G+H4P, Unnamed Road, Bajawa, Kabupaten Ngada, Nusa Tenggara Tim.","Kabupaten Ngada, Nusa Tenggara Tim.",NUSA TENGGARA TIMUR,,Indonesia,81339480142,,,-87.935.334,1.209.753.132,https://maps.google.com/?cid=0x0:0x1fe97ebc303d5d72,
hardware store,hardware store,Bajawa,"Bajawa, Kabupaten Ngada, Nusa Tenggara Tim.","Kabupaten Ngada, Nusa Tenggara Tim.",NUSA TENGGARA TIMUR,,Indonesia,,,,-8.792.325,120.960.602,https://maps.google.com/?cid=0x0:0x3cbeacbc23e7d171,
hardware store,hardware store,Kristian Homestay,"6X4G+H4P, Unnamed Road, Bajawa, Kabupaten Ngada, Nusa Tenggara Tim.","Kabupaten Ngada, Nusa Tenggara Tim.",NUSA TENGGARA TIMUR,,Indonesia,81339480142,,,-87.935.334,1.209.753.132,https://maps.google.com/?cid=0x0:0x1fe97ebc303d5d72,
hardware store,Kantor Pemerintah Kota,Bajawa Nusa tenggara timur,"6X56+369, Bajawa, Kabupaten Ngada, Nusa Tenggara Tim.","Kabupaten Ngada, Nusa Tenggara Tim.",NUSA TENGGARA TIMUR,,Indonesia,,,,-8.792.325,120.960.602,https://maps.google.com/?cid=0x0:0x6c5420c39c16889c,
hardware store,Toko bahan makanan,Toko Sinar Seleria,"6X6F+MCV, Jl. Palapa, Ngedukelu, Bajawa, Kabupaten Ngada, Nusa Tenggara Tim.","Kabupaten Ngada, Nusa Tenggara Tim.",NUSA TENGGARA TIMUR,,Indonesia,,,,-87.882.519,1.209.735.535,https://maps.google.com/?cid=0x0:0xc2e7f62b5fe42b75,
hardware store,Grosir,Krista Toko,"5XV4+4C9, JL. Pasar Baru, Bajawa, Ngada Bawa, Bajawa, Kabupaten Ngada, Nusa Tenggara Tim. 86413","JL. Pasar Baru, Bajawa, Ngada Bawa, Bajawa, Kabupaten Ngada",NUSA TENGGARA TIMUR,86413.0,Indonesia,38421685,,,-88.072.159,1.209.561.123,https://maps.google.com/?cid=0x0:0x12350b13744f5639,
hardware store,Toko Komputer,ITC BAJAWA SERVICE KOMPUTER LAPTOP,"6X8G+86Q, Ngedukelu, Bajawa, Kabupaten Ngada, Nusa Tenggara Tim.","Kabupaten Ngada, Nusa Tenggara Tim.",NUSA TENGGARA TIMUR,,Indonesia,,,,-87.841.504,1.209.756.089,https://maps.google.com/?cid=0x0:0x3316eb38d88e4e59,
hardware store,Toko Elektronik,PortaCOM Bajawa,"JL Soekarno-Hatta, RT 004 RW 02, Ngedukelu, Bajawa, Kabupaten Ngada, Nusa Tenggara Tim.","Kabupaten Ngada, Nusa Tenggara Tim.",NUSA TENGGARA TIMUR,,Indonesia,81339605678,,,-87.854.409,1.209.757.702,https://maps.google.com/?cid=0x0:0x42c48be497c479f6,
hardware store,Kios,TRINUSA ATK,"jln TW Mengeruda so'a, Bajawa, Nusa Tenggara Tim. 86415",Bajawa,NUSA TENGGARA TIMUR,86415.0,Indonesia,82236117236,,,-86.969.791,1.210.360.507,https://maps.google.com/?cid=0x0:0xa53112594e673f6e,
hardware store,Kios,3KIOSKNGADA,"6X7F+89W, Ngedukelu, Bajawa, Kabupaten Ngada, Nusa Tenggara Tim.","Kabupaten Ngada, Nusa Tenggara Tim.",NUSA TENGGARA TIMUR,,Indonesia,,,,-87.867.997,1.209.733.699,https://maps.google.com/?cid=0x0:0x4d3634b6bf1511b6,
hardware store,Toko Bahan Bangunan,Hardware Clothing,"Rukan Gading Indah, Blok V9-12, RT.18/RW.8, Klp. Gading Bar., Kec. Klp. Gading, Jkt Utara, Daerah Khusus Ibukota Jakarta 12930","Blok V9-12, RT.18/RW.8, Klp. Gading Bar., Kec. Klp. Gading, Jkt Utara",NUSA TENGGARA TIMUR,12930.0,Indonesia,2125539858,,,-6.149.231,106.896.942,https://maps.google.com/?cid=0x0:0x488fdb7f986cd389,
hardware store,hardware store,Riung,"Benteng Tengah, Kec. Riung, Kabupaten Ngada, Nusa Tenggara Tim.","Kabupaten Ngada, Nusa Tenggara Tim.",NUSA TENGGARA TIMUR,,Indonesia,,,,-8.433.639,1.210.317,https://maps.google.com/?cid=0x0:0x421c43f4ef9b08fa,
hardware store,hardware store,Nirvana Bungalows RIUNG / Nirvana RIUNG,"Nirvana Road, Nangamese, Kec. Riung, Kabupaten Ngada, Nusa Tenggara Tim.","Kabupaten Ngada, Nusa Tenggara Tim.",NUSA TENGGARA TIMUR,,Indonesia,81338528529,,,-84.184.645,1.210.292.928,https://maps.google.com/?cid=0x0:0xcecab3c11952c396,
hardware store,hardware store,Kec. Jerebuu,"Kabupaten Ngada, Nusa Tenggara Tim.","Kabupaten Ngada, Nusa Tenggara Tim.",NUSA TENGGARA TIMUR,,Indonesia,,,,-88.964.289,1.209.972.433,https://maps.google.com/?cid=0x0:0x39c158f74ac29cdb,
hardware store,Toko Bahan Bangunan,New Jet Hardware  Electrical Supplies Inc.,"Pio del Pilar St, Danao, Cebu, Filipina","Danao, Cebu, Filipina",NUSA TENGGARA TIMUR,,Indonesia,"6,39157E+11",,,105.201.978,1.240.260.007,https://maps.google.com/?cid=0x0:0x748770fe02dd10a,
hardware store,Toko Perlengkapan Rumah,ACE Hardware CityMall Danao,"Ground Floor, CityMall Danao, Olivar Senior Extension, corner F. Ralota St, Poblacion, Danao, 6004 Cebu, Filipina","Danao, Cebu, Filipina",NUSA TENGGARA TIMUR,,Indonesia,63322337605,,,105.190.169,1.240.265.446,https://maps.google.com/?cid=0x0:0xdaf987bec3ea4f3f,
hardware store,hardware store,Toko Bangunan HeriMane,"H2HG+2V5, Nangamese, Kec. Riung, Kabupaten Ngada, Nusa Tenggara Tim.","Kabupaten Ngada, Nusa Tenggara Tim.",NUSA TENGGARA TIMUR,,Indonesia,,,,-84.224.784,1.210.272.444,https://maps.google.com/?cid=0x0:0x9a5d4d179c4cbdc1,
hardware store,hardware store,Kec. Bajawa Utara,"Kabupaten Ngada, Nusa Tenggara Tim.","Kabupaten Ngada, Nusa Tenggara Tim.",NUSA TENGGARA TIMUR,,Indonesia,,,,-87.368.576,1.210.030.037,https://maps.google.com/?cid=0x0:0xb1d8c7bab42c5a19,
hardware store,Pasar bahan bangunan,"Penjualan Batu, Pasir, Kerikil dan bahan bangunan lokal lain","Desa Naru, Bajawa, Flores, Kabupaten Ngada, Nusa Tenggara Tim. 86413","Bajawa, Flores, Kabupaten Ngada",NUSA TENGGARA TIMUR,86413.0,Indonesia,85217681729,,,-87.686.996,1.209.847.853,https://maps.google.com/?cid=0x0:0xa501aadb2ed10cc0,
hardware store,Kios,Toko Bahan Bangunan Nazareth,"Jl. Budi Oetomo No.5, Ngedukelu, Bajawa, Kabupaten Ngada, Nusa Tenggara Tim.","Kabupaten Ngada, Nusa Tenggara Tim.",NUSA TENGGARA TIMUR,,Indonesia,,,,-87.880.286,1.209.746.536,https://maps.google.com/?cid=0x0:0x2c5c5e8684cbe434,
hardware store,hardware store,Nusa Tenggara Tim.,,Nusa Tenggara Tim.,NUSA TENGGARA TIMUR,,Indonesia,,,,-86.573.819,1.210.793.705,https://maps.google.com/?cid=0x0:0x1030bfbcaf71ae0,
hardware store,Toko Komputer,Venus Computer,"6X8G+J3H, Jl. S. Parman, Lebijaga, Bajawa, Kabupaten Ngada, Nusa Tenggara Tim.","Kabupaten Ngada, Nusa Tenggara Tim.",NUSA TENGGARA TIMUR,,Indonesia,81236401201,,,-87.834.321,1.209.752.196,https://maps.google.com/?cid=0x0:0xd06b2e4048468e42,
hardware store,Jasa Reparasi Komputer,Rumah Laptop Injeksi Pusat Laptop Murah NTT,"Pohon Duri, Kec. Klp. Lima, Kota Kupang, Nusa Tenggara Tim. 85228","Kec. Klp. Lima, Kota Kupang",NUSA TENGGARA TIMUR,85228.0,Indonesia,81358011681,,,-101.494.105,1.236.405.847,https://maps.google.com/?cid=0x0:0xd36e2a5c99c0e86f,
hardware store,hardware store,Kec. Wolomeze,"Kabupaten Ngada, Nusa Tenggara Tim.","Kabupaten Ngada, Nusa Tenggara Tim.",NUSA TENGGARA TIMUR,,Indonesia,,,,-86.643.282,121.044.547,https://maps.google.com/?cid=0x0:0xc9c65a778e87e894,
hardware store,Toko Elektronik,PortaCOM Bajawa,"JL Soekarno-Hatta, RT 004 RW 02, Ngedukelu, Bajawa, Kabupaten Ngada, Nusa Tenggara Tim.","Kabupaten Ngada, Nusa Tenggara Tim.",NUSA TENGGARA TIMUR,,Indonesia,81339605678,,,-87.854.409,1.209.757.702,https://maps.google.com/?cid=0x0:0x42c48be497c479f6,
hardware store,hardware store,Kec. Golewa Selatan,"Kabupaten Ngada, Nusa Tenggara Tim.","Kabupaten Ngada, Nusa Tenggara Tim.",NUSA TENGGARA TIMUR,,Indonesia,,,,-88.533.694,1.211.030.931,https://maps.google.com/?cid=0x0:0x841f99d069ae89c3,
hardware store,Kantor Pemerintah,KANTOR CAMAT GOLEWA SELATAN,"43HW+W7R, Were II, Kec. Golewa, Kabupaten Ngada, Nusa Tenggara Tim.","Kabupaten Ngada, Nusa Tenggara Tim.",NUSA TENGGARA TIMUR,,Indonesia,,,,-88.701.446,1.210.956.358,https://maps.google.com/?cid=0x0:0xad799d8aeb722b7d,
hardware store,Kantor Pemerintah Distrik,Kantor Camat Golewa,"53H6+5M9, Todabelu, Kec. Golewa, Kabupaten Ngada, Nusa Tenggara Tim.","Kabupaten Ngada, Nusa Tenggara Tim.",NUSA TENGGARA TIMUR,,Indonesia,82227398591,,,-88.220.944,1.210.617.289,https://maps.google.com/?cid=0x0:0xea9d6a769c728dfc,
hardware store,Toko Bahan Bangunan,BUMIJAYA HARDWARE SOOK,"KEDAI NO 85, SOOK TOWNSHIP PETI SURAT 1327, KENINGAU, SABAH SOOK, 89000 Keningau, Sabah, Malaysia",Keningau,NUSA TENGGARA TIMUR,89000.0,Indonesia,,,,51.443.262,116.306.531,https://maps.google.com/?cid=0x0:0xdfcf26d40370df76,
hardware store,Restoran,"Tower Cafe, Sook","Miles 1, Jln Sook Tulid, 89009 Sook, Sabah, Malaysia",Sook,NUSA TENGGARA TIMUR,89009.0,Indonesia,6087364080,,,51.515.275,1.163.122.934,https://maps.google.com/?cid=0x0:0x7ba3082cf27b0358,
hardware store,hardware store,Golewa Bar.,"Kabupaten Ngada, Nusa Tenggara Tim.","Kabupaten Ngada, Nusa Tenggara Tim.",NUSA TENGGARA TIMUR,,Indonesia,,,,-88.077.491,1.210.220.422,https://maps.google.com/?cid=0x0:0x103098ccabb3bc1,
hardware store,Toko Bahan Bangunan,"Nuansa Jaya Abadi,Cv","Ngada, Jl. Basuki Rahmat, Tanalodu, Bajawa, Ngada Regency, East Nusa Tenggara 86412","Jl. Basuki Rahmat, Tanalodu, Bajawa, Ngada Regency",NUSA TENGGARA TIMUR,86412.0,Indonesia,85141722822,,,-87.901.931,1.209.747.459,https://maps.google.com/?cid=0x0:0x264d1a01de88fac8,
hardware store,Pasar bahan bangunan,"Penjualan Batu, Pasir, Kerikil dan bahan bangunan lokal lain","Desa Naru, Bajawa, Flores, Kabupaten Ngada, Nusa Tenggara Tim. 86413","Bajawa, Flores, Kabupaten Ngada",NUSA TENGGARA TIMUR,86413.0,Indonesia,85217681729,,,-87.686.996,1.209.847.853,https://maps.google.com/?cid=0x0:0xa501aadb2ed10cc0,
hardware store,hardware store,Kec. Inerie,"Kabupaten Ngada, Nusa Tenggara Tim.","Kabupaten Ngada, Nusa Tenggara Tim.",NUSA TENGGARA TIMUR,,Indonesia,,,,-89.262.385,1.209.260.636,https://maps.google.com/?cid=0x0:0xea23f34b6816de42,
hardware store,hardware store,Gunung Inerie,"Kelitei, Kec. Inerie, Kabupaten Ngada, Nusa Tenggara Tim.","Kabupaten Ngada, Nusa Tenggara Tim.",NUSA TENGGARA TIMUR,,Indonesia,,,,-88.781.054,1.209.543.944,https://maps.google.com/?cid=0x0:0x43fe208382cb2661,
