Category,Real Category,Business Name,Address,City,State,Postal Code,Country,Phone,Email,Website,Latitude,Longitude,Map Link,Details Link
mall,Toko bahan makanan,Harapan Indah 1 Aimere,"5V35+M52, Aimere Tim., Kec. Aimere, Kabupaten Ngada, Nusa Tenggara Tim.","Kabupaten Ngada, Nusa Tenggara Tim.",NUSA TENGGARA TIMUR,,Indonesia,81236236506,,,-88.458.682,1.208.578.891,https://maps.google.com/?cid=0x0:0xb0b6c9c30827458d,
mall,Toko bahan makanan,UD DAMAIAN,"5V25+7C6, Jalan Aimere Tim., Aimere, Langagedha, Bajawa, Kabupaten Ngada, Nusa Tenggara Tim.","Kabupaten Ngada, Nusa Tenggara Tim.",NUSA TENGGARA TIMUR,,Indonesia,,,,-88.493.496,1.208.585.123,https://maps.google.com/?cid=0x0:0xd1988e6145f1226b,
mall,Minimarket,Langganan toserba,"6X7F+29X, Ngedukelu, Bajawa, Kabupaten Ngada, Nusa Tenggara Tim.","Kabupaten Ngada, Nusa Tenggara Tim.",NUSA TENGGARA TIMUR,,Indonesia,38421056,,,-87.873.884,1.209.734.788,https://maps.google.com/?cid=0x0:0xc7308eaa8237f25d,
mall,Pusat Perbelanjaan,Armi family,"5RF4+32V, Watu Nggene, Kec. Kota Komba, Kabupaten Manggarai Timur, Nusa Tenggara Tim.","Kabupaten Manggarai Timur, Nusa Tenggara Tim.",NUSA TENGGARA TIMUR,,Indonesia,81337633111,,,-8.827.255,1.208.050.437,https://maps.google.com/?cid=0x0:0x135f4a7bac651e53,
mall,Minimarket,Toko fajar baru,"5V45+F95, Aimere, Kec. Aimere, Kabupaten Ngada, Nusa Tenggara Tim.","Kabupaten Ngada, Nusa Tenggara Tim.",NUSA TENGGARA TIMUR,,Indonesia,85253483444,,,-88.438.617,1.208.584.989,https://maps.google.com/?cid=0x0:0x7fe5a11ea499fccf,
mall,mall,Toko Elsior,"4VW6+3X2, Unnamed Road, Aimere Tim., Kec. Aimere, Kabupaten Ngada, Nusa Tenggara Tim.","Kabupaten Ngada, Nusa Tenggara Tim.",NUSA TENGGARA TIMUR,,Indonesia,,,,-88.548.678,1.208.624.052,https://maps.google.com/?cid=0x0:0x128e436477ebfcc8,
mall,mall,Benie Raga,"5V25+Q46, Aimere Tim., Kec. Aimere, Kabupaten Ngada, Nusa Tenggara Tim.","Kabupaten Ngada, Nusa Tenggara Tim.",NUSA TENGGARA TIMUR,,Indonesia,,,,-88.480.939,1.208.577.782,https://maps.google.com/?cid=0x0:0x47e4ec12d90be582,
mall,mall,Aimere,"Langagedha, Bajawa, Kabupaten Ngada, Nusa Tenggara Tim.","Kabupaten Ngada, Nusa Tenggara Tim.",NUSA TENGGARA TIMUR,,Indonesia,,,,-8.821.697,120.945.702,https://maps.google.com/?cid=0x0:0x6b62a64ace33e6d9,
mall,mall,Kec. Aimere,"Kabupaten Ngada, Nusa Tenggara Tim.","Kabupaten Ngada, Nusa Tenggara Tim.",NUSA TENGGARA TIMUR,,Indonesia,,,,-88.493.295,120.858.269,https://maps.google.com/?cid=0x0:0xc48710dbca09700e,
mall,mall,Kec. Golewa,"Kabupaten Ngada, Nusa Tenggara Tim.","Kabupaten Ngada, Nusa Tenggara Tim.",NUSA TENGGARA TIMUR,,Indonesia,,,,-8.823.719,121.051.735,https://maps.google.com/?cid=0x0:0xbe72500ebc67578b,
mall,mall,Kec. Golewa Selatan,"Kabupaten Ngada, Nusa Tenggara Tim.","Kabupaten Ngada, Nusa Tenggara Tim.",NUSA TENGGARA TIMUR,,Indonesia,,,,-88.533.694,1.211.030.931,https://maps.google.com/?cid=0x0:0x841f99d069ae89c3,
mall,Pusat Perbelanjaan,Hortikultura Trio Mandiri,"53C5+FQ9, Todabelu, Kec. Golewa, Kabupaten Ngada, Nusa Tenggara Tim.","Kabupaten Ngada, Nusa Tenggara Tim.",NUSA TENGGARA TIMUR,,Indonesia,82266302018,,,-8.828.844,1.210.594.753,https://maps.google.com/?cid=0x0:0x5d3d69c0534bd895,
mall,Perhimpunan Pengembang Perumahan,"Rowa Traditional village, Wolopogo","Rowa, Kec. Boawae, Kabupaten Nagekeo, Nusa Tenggara Tim.","Kabupaten Nagekeo, Nusa Tenggara Tim.",NUSA TENGGARA TIMUR,,Indonesia,82235499925,,,-8.782.439,1.211.220.945,https://maps.google.com/?cid=0x0:0x3a02b1f57063d2d7,
mall,mall,P4S HARAPAN KITA,"444G+55X, Were III, Kec. Golewa, Kabupaten Ngada, Nusa Tenggara Tim.","Kabupaten Ngada, Nusa Tenggara Tim.",NUSA TENGGARA TIMUR,,Indonesia,81237449312,,,-88.945.063,1.211.254.793,https://maps.google.com/?cid=0x0:0xb0ae438b63c16a06,
mall,Kantor Pemerintah Distrik,Kantor Camat Golewa,"53H6+5M9, Todabelu, Kec. Golewa, Kabupaten Ngada, Nusa Tenggara Tim.","Kabupaten Ngada, Nusa Tenggara Tim.",NUSA TENGGARA TIMUR,,Indonesia,82227398591,,,-88.220.944,1.210.617.289,https://maps.google.com/?cid=0x0:0xea9d6a769c728dfc,
mall,mall,Nusa Tenggara Tim.,,Nusa Tenggara Tim.,NUSA TENGGARA TIMUR,,Indonesia,,,,-86.573.819,1.210.793.705,https://maps.google.com/?cid=0x0:0x1030bfbcaf71ae0,
mall,Toko Elektronik,Bajawa Multimedia,"Jl. El Tari, Trikora, Bajawa, Kabupaten Ngada, Nusa Tenggara Tim.","Kabupaten Ngada, Nusa Tenggara Tim.",NUSA TENGGARA TIMUR,,Indonesia,85239050841,,,-87.861.667,1.209.712.182,https://maps.google.com/?cid=0x0:0x51002ed4a5a472d7,
mall,Pasar Loak,Pasar Bobou,"6X9V+Q45, Bobou, Bajawa, Kabupaten Ngada, Nusa Tenggara Tim.","Kabupaten Ngada, Nusa Tenggara Tim.",NUSA TENGGARA TIMUR,,Indonesia,,,,-87.806.064,1.209.928.568,https://maps.google.com/?cid=0x0:0xb2b8c51efc95f28d,
mall,Toko Pakaian,Butik.dayana,"Jl. WJ Lalamentik No.72, Faobata, Bajawa, Kabupaten Ngada, Nusa Tenggara Tim.","Kabupaten Ngada, Nusa Tenggara Tim.",NUSA TENGGARA TIMUR,,Indonesia,,,,-8.781.105,1.209.883.629,https://maps.google.com/?cid=0x0:0x1a509909cdcae5c8,
mall,Pusat Perbelanjaan,Pasar Loak Bobou,"6X9V+V2, Faobata, Bajawa, Kabupaten Ngada, Nusa Tenggara Tim.","Kabupaten Ngada, Nusa Tenggara Tim.",NUSA TENGGARA TIMUR,,Indonesia,,,,-87.804.379,1.209.917.001,https://maps.google.com/?cid=0x0:0x1b849c6c4f226e8b,
mall,Indonesia,Bajawa Food Corner,"Kisanata, Bajawa, Kabupaten Ngada, Nusa Tenggara Tim.","Kabupaten Ngada, Nusa Tenggara Tim.",NUSA TENGGARA TIMUR,,Indonesia,81239950907,,,-87.874.331,1.209.730.135,https://maps.google.com/?cid=0x0:0x243d0e511048d5fe,
mall,Kantor Pemerintah Kota,Bajawa Nusa tenggara timur,"6X56+369, Bajawa, Kabupaten Ngada, Nusa Tenggara Tim.","Kabupaten Ngada, Nusa Tenggara Tim.",NUSA TENGGARA TIMUR,,Indonesia,,,,-8.792.325,120.960.602,https://maps.google.com/?cid=0x0:0x6c5420c39c16889c,
mall,Restoran,Bajawa Family Resto,"Jl. WJ Lalamentik, Faobata, Bajawa, Kabupaten Ngada, Nusa Tenggara Tim. 86419","Faobata, Bajawa, Kabupaten Ngada",NUSA TENGGARA TIMUR,86419.0,Indonesia,82266397945,,,-87.777.766,1.209.887.957,https://maps.google.com/?cid=0x0:0x1bebbd2301fe2c95,
mall,mall,Bajawa,"Bajawa, Kabupaten Ngada, Nusa Tenggara Tim.","Kabupaten Ngada, Nusa Tenggara Tim.",NUSA TENGGARA TIMUR,,Indonesia,,,,-8.792.325,120.960.602,https://maps.google.com/?cid=0x0:0x3cbeacbc23e7d171,
mall,Komplek perumahan,Mahajan niwas,"Near bajawa hospital kahnuwan, Bajawa, Ngada Regency, East Nusa Tenggara","Kabupaten Ngada, Nusa Tenggara Tim.",NUSA TENGGARA TIMUR,,Indonesia,,,,-8.792.325,120.960.602,https://maps.google.com/?cid=0x0:0x2113fd1c76728798,
mall,Kedai Kopi,Bajawa Flores NTT Tebet,"Kopi Bajawa Flores NTT, Jl. Tebet Timur Dalam Raya No.37, East Tebet, Tebet, South Jakarta City, Jakarta 12820","Jl. Tebet Timur Dalam Raya No.37, East Tebet, Tebet, South Jakarta City",NUSA TENGGARA TIMUR,12820.0,Indonesia,82258420016,,,-62.322.927,1.068.563.465,https://maps.google.com/?cid=0x0:0xa49d7eb17c59b5dd,
mall,Kedai Kopi,Kopi Bajawa Flores NTT,"PXQX+C9J, Bekasi, RT.003/RW.001, Sepanjang Jaya, Kec. Rawalumbu, Kota Bks, Jawa Barat 17114","Bekasi, RT.003/RW.001, Sepanjang Jaya, Kec. Rawalumbu, Kota Bks",NUSA TENGGARA TIMUR,17114.0,Indonesia,,,,-62.614.062,1.069.983.915,https://maps.google.com/?cid=0x0:0x6bcf551b3bef263,
mall,Pasar,Pasar Inpres Lama Bajawa,"6X6F+M3R, Kisanata, Bajawa, Kabupaten Ngada, Nusa Tenggara Tim.","Kabupaten Ngada, Nusa Tenggara Tim.",NUSA TENGGARA TIMUR,,Indonesia,,,,-87.882.589,120.972.652,https://maps.google.com/?cid=0x0:0xd1a4c8ace7296924,
mall,Kedai Kopi,Bajawa kemang,"Wisma Semeru, Jl. Taman Kemang No.18 Lantai Dasar, RT.14/RW.1, Bangka, Kec. Mampang Prpt., Kota Jakarta Selatan, Daerah Khusus Ibukota Jakarta 12730","Jl. Taman Kemang No.18 Lantai Dasar, RT.14/RW.1, Bangka, Kec. Mampang Prpt., Kota Jakarta Selatan",NUSA TENGGARA TIMUR,12730.0,Indonesia,82258420016,,,-62.559.442,1.068.103.293,https://maps.google.com/?cid=0x0:0x604600a2b8ae81f,
mall,mall,Nusa Tenggara Tim.,,Nusa Tenggara Tim.,NUSA TENGGARA TIMUR,,Indonesia,,,,-86.573.819,1.210.793.705,https://maps.google.com/?cid=0x0:0x1030bfbcaf71ae0,
mall,Pasar,Pasar Inpres Lama Bajawa,"6X6F+M3R, Kisanata, Bajawa, Kabupaten Ngada, Nusa Tenggara Tim.","Kabupaten Ngada, Nusa Tenggara Tim.",NUSA TENGGARA TIMUR,,Indonesia,,,,-87.882.589,120.972.652,https://maps.google.com/?cid=0x0:0xd1a4c8ace7296924,
mall,Toko Elektronik,Bajawa Multimedia,"Jl. El Tari, Trikora, Bajawa, Kabupaten Ngada, Nusa Tenggara Tim.","Kabupaten Ngada, Nusa Tenggara Tim.",NUSA TENGGARA TIMUR,,Indonesia,85239050841,,,-87.861.667,1.209.712.182,https://maps.google.com/?cid=0x0:0x51002ed4a5a472d7,
mall,Pasar Loak,Pasar Bobou,"6X9V+Q45, Bobou, Bajawa, Kabupaten Ngada, Nusa Tenggara Tim.","Kabupaten Ngada, Nusa Tenggara Tim.",NUSA TENGGARA TIMUR,,Indonesia,,,,-87.806.064,1.209.928.568,https://maps.google.com/?cid=0x0:0xb2b8c51efc95f28d,
mall,Toko,Toko Laris Bajawa,"6X5F+W6G, Jl. Budi Oetomo, Tanalodu, Bajawa, Kabupaten Ngada, Nusa Tenggara Tim.","Kabupaten Ngada, Nusa Tenggara Tim.",NUSA TENGGARA TIMUR,,Indonesia,82123564585,,,-87.901.979,1.209.730.731,https://maps.google.com/?cid=0x0:0xf904cf73665ceb9a,
mall,Pusat Perbelanjaan,Pasar Loak Bobou,"6X9V+V2, Faobata, Bajawa, Kabupaten Ngada, Nusa Tenggara Tim.","Kabupaten Ngada, Nusa Tenggara Tim.",NUSA TENGGARA TIMUR,,Indonesia,,,,-87.804.379,1.209.917.001,https://maps.google.com/?cid=0x0:0x1b849c6c4f226e8b,
mall,Pusat Perbelanjaan,ADELIA TOYS (Grosir dan eceran Mainan Anak,"Jl. Palapa No.9, Ngedukelu, Bajawa, Kabupaten Ngada, Nusa Tenggara Tim. 86412","Ngedukelu, Bajawa, Kabupaten Ngada",NUSA TENGGARA TIMUR,86412.0,Indonesia,81338017778,,,-87.883.996,1.209.741.176,https://maps.google.com/?cid=0x0:0xb8604cbcc7c5dd87,
mall,Toko Pakaian,Butik.dayana,"Jl. WJ Lalamentik No.72, Faobata, Bajawa, Kabupaten Ngada, Nusa Tenggara Tim.","Kabupaten Ngada, Nusa Tenggara Tim.",NUSA TENGGARA TIMUR,,Indonesia,,,,-8.781.105,1.209.883.629,https://maps.google.com/?cid=0x0:0x1a509909cdcae5c8,
mall,Indonesia,Bajawa Food Corner,"Kisanata, Bajawa, Kabupaten Ngada, Nusa Tenggara Tim.","Kabupaten Ngada, Nusa Tenggara Tim.",NUSA TENGGARA TIMUR,,Indonesia,81239950907,,,-87.874.331,1.209.730.135,https://maps.google.com/?cid=0x0:0x243d0e511048d5fe,
mall,Kantor Pemerintah Kota,Bajawa Nusa tenggara timur,"6X56+369, Bajawa, Kabupaten Ngada, Nusa Tenggara Tim.","Kabupaten Ngada, Nusa Tenggara Tim.",NUSA TENGGARA TIMUR,,Indonesia,,,,-8.792.325,120.960.602,https://maps.google.com/?cid=0x0:0x6c5420c39c16889c,
mall,Indonesia,The Kartini Restaurant,"Jl. Kartini, Tanalodu, Bajawa, Kabupaten Ngada, Nusa Tenggara Tim. 86412","Tanalodu, Bajawa, Kabupaten Ngada",NUSA TENGGARA TIMUR,86412.0,Indonesia,82147420875,,,-87.917.707,1.209.710.705,https://maps.google.com/?cid=0x0:0x8bd11f1acad7c6e9,
mall,Toko,Toko Helm Ud crystal Bajawa,"Ngedukelu, Bajawa, Kabupaten Ngada, Nusa Tenggara Tim.","Kabupaten Ngada, Nusa Tenggara Tim.",NUSA TENGGARA TIMUR,,Indonesia,8995925050,,,-87.879.886,1.209.784.901,https://maps.google.com/?cid=0x0:0xf395fdda24e4af7c,
mall,mall,Bajawa,"Bajawa, Kabupaten Ngada, Nusa Tenggara Tim.","Kabupaten Ngada, Nusa Tenggara Tim.",NUSA TENGGARA TIMUR,,Indonesia,,,,-8.792.325,120.960.602,https://maps.google.com/?cid=0x0:0x3cbeacbc23e7d171,
mall,Toko,Toko SINAR TERANG Bajawa,"Jl. TW Mengeruda, Ngedukelu, Bajawa, Kabupaten Ngada, Nusa Tenggara Tim.","Kabupaten Ngada, Nusa Tenggara Tim.",NUSA TENGGARA TIMUR,,Indonesia,81222999266,,,-87.854.951,1.209.759.694,https://maps.google.com/?cid=0x0:0x598c06a0b8eef939,
mall,Komplek perumahan,Mahajan niwas,"Near bajawa hospital kahnuwan, Bajawa, Ngada Regency, East Nusa Tenggara","Kabupaten Ngada, Nusa Tenggara Tim.",NUSA TENGGARA TIMUR,,Indonesia,,,,-8.792.325,120.960.602,https://maps.google.com/?cid=0x0:0x2113fd1c76728798,
mall,Pusat Perbelanjaan,Toko Atika Jaya,"6X6F+M7R, Kisanata, Bajawa, Kabupaten Ngada, Nusa Tenggara Tim.","Kabupaten Ngada, Nusa Tenggara Tim.",NUSA TENGGARA TIMUR,,Indonesia,8123732785,,,-87.882.709,12.097.313,https://maps.google.com/?cid=0x0:0x5c65a6c6ea606a9c,
mall,Kedai Kopi,Bajawa Flores NTT Tebet,"Kopi Bajawa Flores NTT, Jl. Tebet Timur Dalam Raya No.37, East Tebet, Tebet, South Jakarta City, Jakarta 12820","Jl. Tebet Timur Dalam Raya No.37, East Tebet, Tebet, South Jakarta City",NUSA TENGGARA TIMUR,12820.0,Indonesia,82258420016,,,-62.322.927,1.068.563.465,https://maps.google.com/?cid=0x0:0xa49d7eb17c59b5dd,
mall,Kedai Kopi,Bajawa kemang,"Wisma Semeru, Jl. Taman Kemang No.18 Lantai Dasar, RT.14/RW.1, Bangka, Kec. Mampang Prpt., Kota Jakarta Selatan, Daerah Khusus Ibukota Jakarta 12730","Jl. Taman Kemang No.18 Lantai Dasar, RT.14/RW.1, Bangka, Kec. Mampang Prpt., Kota Jakarta Selatan",NUSA TENGGARA TIMUR,12730.0,Indonesia,82258420016,,,-62.559.442,1.068.103.293,https://maps.google.com/?cid=0x0:0x604600a2b8ae81f,
mall,Kedai Kopi,Kopi Bajawa Flores NTT - Sunter,"11, Jl. Agung Perkasa 8 No.37, RT.10/RW.11, Sunter Agung, Tanjung Priok, North Jakarta City, Jakarta 14350","Jl. Agung Perkasa 8 No.37, RT.10/RW.11, Sunter Agung, Tanjung Priok, North Jakarta City",NUSA TENGGARA TIMUR,14350.0,Indonesia,,,,-61.406.298,1.068.778.066,https://maps.google.com/?cid=0x0:0xae0478e898cb9bb2,
mall,mall,Nusa Tenggara Tim.,,Nusa Tenggara Tim.,NUSA TENGGARA TIMUR,,Indonesia,,,,-86.573.819,1.210.793.705,https://maps.google.com/?cid=0x0:0x1030bfbcaf71ae0,
mall,Toko Elektronik,Bajawa Multimedia,"Jl. El Tari, Trikora, Bajawa, Kabupaten Ngada, Nusa Tenggara Tim.","Kabupaten Ngada, Nusa Tenggara Tim.",NUSA TENGGARA TIMUR,,Indonesia,85239050841,,,-87.861.667,1.209.712.182,https://maps.google.com/?cid=0x0:0x51002ed4a5a472d7,
mall,Toko,Toko Laris Bajawa,"6X5F+W6G, Jl. Budi Oetomo, Tanalodu, Bajawa, Kabupaten Ngada, Nusa Tenggara Tim.","Kabupaten Ngada, Nusa Tenggara Tim.",NUSA TENGGARA TIMUR,,Indonesia,82123564585,,,-87.901.979,1.209.730.731,https://maps.google.com/?cid=0x0:0xf904cf73665ceb9a,
mall,Pusat Perbelanjaan,Pasar Loak Bobou,"6X9V+V2, Faobata, Bajawa, Kabupaten Ngada, Nusa Tenggara Tim.","Kabupaten Ngada, Nusa Tenggara Tim.",NUSA TENGGARA TIMUR,,Indonesia,,,,-87.804.379,1.209.917.001,https://maps.google.com/?cid=0x0:0x1b849c6c4f226e8b,
mall,Rumah Kayu,Rumah produksi kopi Wolowio,"Wawowae, Bajawa, Kabupaten Ngada, Nusa Tenggara Tim. 86413","Bajawa, Kabupaten Ngada",NUSA TENGGARA TIMUR,86413.0,Indonesia,85253614006,,,-87.822.651,1.209.585.495,https://maps.google.com/?cid=0x0:0x3364827991a300d0,
mall,Restoran,Bajawa Family Resto,"Jl. WJ Lalamentik, Faobata, Bajawa, Kabupaten Ngada, Nusa Tenggara Tim. 86419","Faobata, Bajawa, Kabupaten Ngada",NUSA TENGGARA TIMUR,86419.0,Indonesia,82266397945,,,-87.777.766,1.209.887.957,https://maps.google.com/?cid=0x0:0x1bebbd2301fe2c95,
mall,Kantor Pemerintah Kota,Bajawa Nusa tenggara timur,"6X56+369, Bajawa, Kabupaten Ngada, Nusa Tenggara Tim.","Kabupaten Ngada, Nusa Tenggara Tim.",NUSA TENGGARA TIMUR,,Indonesia,,,,-8.792.325,120.960.602,https://maps.google.com/?cid=0x0:0x6c5420c39c16889c,
mall,Indonesia,Bajawa Food Corner,"Kisanata, Bajawa, Kabupaten Ngada, Nusa Tenggara Tim.","Kabupaten Ngada, Nusa Tenggara Tim.",NUSA TENGGARA TIMUR,,Indonesia,81239950907,,,-87.874.331,1.209.730.135,https://maps.google.com/?cid=0x0:0x243d0e511048d5fe,
mall,mall,Bajawa,"Bajawa, Kabupaten Ngada, Nusa Tenggara Tim.","Kabupaten Ngada, Nusa Tenggara Tim.",NUSA TENGGARA TIMUR,,Indonesia,,,,-8.792.325,120.960.602,https://maps.google.com/?cid=0x0:0x3cbeacbc23e7d171,
mall,Pasar,Pasar Inpres Lama Bajawa,"6X6F+M3R, Kisanata, Bajawa, Kabupaten Ngada, Nusa Tenggara Tim.","Kabupaten Ngada, Nusa Tenggara Tim.",NUSA TENGGARA TIMUR,,Indonesia,,,,-87.882.589,120.972.652,https://maps.google.com/?cid=0x0:0xd1a4c8ace7296924,
mall,Komplek perumahan,Mahajan niwas,"Near bajawa hospital kahnuwan, Bajawa, Ngada Regency, East Nusa Tenggara","Kabupaten Ngada, Nusa Tenggara Tim.",NUSA TENGGARA TIMUR,,Indonesia,,,,-8.792.325,120.960.602,https://maps.google.com/?cid=0x0:0x2113fd1c76728798,
mall,Kedai Kopi,Kopi Bajawa Flores NTT Bogor,"Jl. Ciwaringin 1 Blok Maxim No.49, RT.04/RW.03, Ciwaringin, Bogor Tengah, Bogor City, West Java 16124","RT.04/RW.03, Ciwaringin, Bogor Tengah, Bogor City",NUSA TENGGARA TIMUR,16124.0,Indonesia,,,,-65.894.846,1.067.880.459,https://maps.google.com/?cid=0x0:0x6ed7c56f2633bed4,
mall,Gedung Apartemen,Mall@Bassura,"Jl. Jenderal Basuki Rachmat No.1A, Cipinang Besar Sel., Kecamatan Jatinegara, Kota Jakarta Timur, Daerah Khusus Ibukota Jakarta 13410","Cipinang Besar Sel., Kecamatan Jatinegara, Kota Jakarta Timur",NUSA TENGGARA TIMUR,13410.0,Indonesia,2122807300,,,-62.240.597,1.068.778.851,https://maps.google.com/?cid=0x0:0x610648e929845480,
mall,Kedai Kopi,Bajawa Flores NTT Tebet,"Kopi Bajawa Flores NTT, Jl. Tebet Timur Dalam Raya No.37, East Tebet, Tebet, South Jakarta City, Jakarta 12820","Jl. Tebet Timur Dalam Raya No.37, East Tebet, Tebet, South Jakarta City",NUSA TENGGARA TIMUR,12820.0,Indonesia,82258420016,,,-62.322.927,1.068.563.465,https://maps.google.com/?cid=0x0:0xa49d7eb17c59b5dd,
mall,Kedai Kopi,Bajawa kemang,"Wisma Semeru, Jl. Taman Kemang No.18 Lantai Dasar, RT.14/RW.1, Bangka, Kec. Mampang Prpt., Kota Jakarta Selatan, Daerah Khusus Ibukota Jakarta 12730","Jl. Taman Kemang No.18 Lantai Dasar, RT.14/RW.1, Bangka, Kec. Mampang Prpt., Kota Jakarta Selatan",NUSA TENGGARA TIMUR,12730.0,Indonesia,82258420016,,,-62.559.442,1.068.103.293,https://maps.google.com/?cid=0x0:0x604600a2b8ae81f,
mall,mall,Nusa Tenggara Tim.,,Nusa Tenggara Tim.,NUSA TENGGARA TIMUR,,Indonesia,,,,-86.573.819,1.210.793.705,https://maps.google.com/?cid=0x0:0x1030bfbcaf71ae0,
mall,Toko Elektronik,Bajawa Multimedia,"Jl. El Tari, Trikora, Bajawa, Kabupaten Ngada, Nusa Tenggara Tim.","Kabupaten Ngada, Nusa Tenggara Tim.",NUSA TENGGARA TIMUR,,Indonesia,85239050841,,,-87.861.667,1.209.712.182,https://maps.google.com/?cid=0x0:0x51002ed4a5a472d7,
mall,Pasar,Pasar Inpres Lama Bajawa,"6X6F+M3R, Kisanata, Bajawa, Kabupaten Ngada, Nusa Tenggara Tim.","Kabupaten Ngada, Nusa Tenggara Tim.",NUSA TENGGARA TIMUR,,Indonesia,,,,-87.882.589,120.972.652,https://maps.google.com/?cid=0x0:0xd1a4c8ace7296924,
mall,Toko,Toko Laris Bajawa,"6X5F+W6G, Jl. Budi Oetomo, Tanalodu, Bajawa, Kabupaten Ngada, Nusa Tenggara Tim.","Kabupaten Ngada, Nusa Tenggara Tim.",NUSA TENGGARA TIMUR,,Indonesia,82123564585,,,-87.901.979,1.209.730.731,https://maps.google.com/?cid=0x0:0xf904cf73665ceb9a,
mall,mall,.,"Trikora, Bajawa, Kabupaten Ngada, Nusa Tenggara Tim.","Kabupaten Ngada, Nusa Tenggara Tim.",NUSA TENGGARA TIMUR,,Indonesia,,,,-87.859.083,1.209.703.357,https://maps.google.com/?cid=0x0:0x3fde308afccf7c18,
mall,mall,Bajawa,"Bajawa, Kabupaten Ngada, Nusa Tenggara Tim.","Kabupaten Ngada, Nusa Tenggara Tim.",NUSA TENGGARA TIMUR,,Indonesia,,,,-8.792.325,120.960.602,https://maps.google.com/?cid=0x0:0x3cbeacbc23e7d171,
mall,Komplek perumahan,Mahajan niwas,"Near bajawa hospital kahnuwan, Bajawa, Ngada Regency, East Nusa Tenggara","Kabupaten Ngada, Nusa Tenggara Tim.",NUSA TENGGARA TIMUR,,Indonesia,,,,-8.792.325,120.960.602,https://maps.google.com/?cid=0x0:0x2113fd1c76728798,
mall,Kedai Kopi,Bajawa Flores NTT Tebet,"Kopi Bajawa Flores NTT, Jl. Tebet Timur Dalam Raya No.37, East Tebet, Tebet, South Jakarta City, Jakarta 12820","Jl. Tebet Timur Dalam Raya No.37, East Tebet, Tebet, South Jakarta City",NUSA TENGGARA TIMUR,12820.0,Indonesia,82258420016,,,-62.322.927,1.068.563.465,https://maps.google.com/?cid=0x0:0xa49d7eb17c59b5dd,
mall,Kedai Kopi,Bajawa kemang,"Wisma Semeru, Jl. Taman Kemang No.18 Lantai Dasar, RT.14/RW.1, Bangka, Kec. Mampang Prpt., Kota Jakarta Selatan, Daerah Khusus Ibukota Jakarta 12730","Jl. Taman Kemang No.18 Lantai Dasar, RT.14/RW.1, Bangka, Kec. Mampang Prpt., Kota Jakarta Selatan",NUSA TENGGARA TIMUR,12730.0,Indonesia,82258420016,,,-62.559.442,1.068.103.293,https://maps.google.com/?cid=0x0:0x604600a2b8ae81f,
mall,mall,Nusa Tenggara Tim.,,Nusa Tenggara Tim.,NUSA TENGGARA TIMUR,,Indonesia,,,,-86.573.819,1.210.793.705,https://maps.google.com/?cid=0x0:0x1030bfbcaf71ae0,
mall,Toko Elektronik,Bajawa Multimedia,"Jl. El Tari, Trikora, Bajawa, Kabupaten Ngada, Nusa Tenggara Tim.","Kabupaten Ngada, Nusa Tenggara Tim.",NUSA TENGGARA TIMUR,,Indonesia,85239050841,,,-87.861.667,1.209.712.182,https://maps.google.com/?cid=0x0:0x51002ed4a5a472d7,
mall,Pasar Loak,Pasar Bobou,"6X9V+Q45, Bobou, Bajawa, Kabupaten Ngada, Nusa Tenggara Tim.","Kabupaten Ngada, Nusa Tenggara Tim.",NUSA TENGGARA TIMUR,,Indonesia,,,,-87.806.064,1.209.928.568,https://maps.google.com/?cid=0x0:0xb2b8c51efc95f28d,
mall,mall,Bajawa,"Bajawa, Kabupaten Ngada, Nusa Tenggara Tim.","Kabupaten Ngada, Nusa Tenggara Tim.",NUSA TENGGARA TIMUR,,Indonesia,,,,-8.792.325,120.960.602,https://maps.google.com/?cid=0x0:0x3cbeacbc23e7d171,
mall,Minimarket,Langganan toserba,"6X7F+29X, Ngedukelu, Bajawa, Kabupaten Ngada, Nusa Tenggara Tim.","Kabupaten Ngada, Nusa Tenggara Tim.",NUSA TENGGARA TIMUR,,Indonesia,38421056,,,-87.873.884,1.209.734.788,https://maps.google.com/?cid=0x0:0xc7308eaa8237f25d,
mall,Toko,Toko Laris Bajawa,"6X5F+W6G, Jl. Budi Oetomo, Tanalodu, Bajawa, Kabupaten Ngada, Nusa Tenggara Tim.","Kabupaten Ngada, Nusa Tenggara Tim.",NUSA TENGGARA TIMUR,,Indonesia,82123564585,,,-87.901.979,1.209.730.731,https://maps.google.com/?cid=0x0:0xf904cf73665ceb9a,
mall,Komplek perumahan,Mahajan niwas,"Near bajawa hospital kahnuwan, Bajawa, Ngada Regency, East Nusa Tenggara","Kabupaten Ngada, Nusa Tenggara Tim.",NUSA TENGGARA TIMUR,,Indonesia,,,,-8.792.325,120.960.602,https://maps.google.com/?cid=0x0:0x2113fd1c76728798,
mall,Kedai Kopi,Bajawa Flores NTT Tebet,"Kopi Bajawa Flores NTT, Jl. Tebet Timur Dalam Raya No.37, East Tebet, Tebet, South Jakarta City, Jakarta 12820","Jl. Tebet Timur Dalam Raya No.37, East Tebet, Tebet, South Jakarta City",NUSA TENGGARA TIMUR,12820.0,Indonesia,82258420016,,,-62.322.927,1.068.563.465,https://maps.google.com/?cid=0x0:0xa49d7eb17c59b5dd,
mall,Kedai Kopi,Kopi Bajawa Flores Tangerang Kota,"Jl. Imam Bonjol No.9, RT.002/RW.003, Karawaci, Kec. Karawaci, Kota Tangerang, Banten 15115","RT.002/RW.003, Karawaci, Kec. Karawaci, Kota Tangerang",NUSA TENGGARA TIMUR,15115.0,Indonesia,,,,-61.868.714,1.066.258.439,https://maps.google.com/?cid=0x0:0xb6ae11104078cf61,
mall,Kedai Kopi,Kopi Bajawa Flores NTT - Sunter,"11, Jl. Agung Perkasa 8 No.37, RT.10/RW.11, Sunter Agung, Tanjung Priok, North Jakarta City, Jakarta 14350","Jl. Agung Perkasa 8 No.37, RT.10/RW.11, Sunter Agung, Tanjung Priok, North Jakarta City",NUSA TENGGARA TIMUR,14350.0,Indonesia,,,,-61.406.298,1.068.778.066,https://maps.google.com/?cid=0x0:0xae0478e898cb9bb2,
mall,Kedai Kopi,Bajawa kemang,"Wisma Semeru, Jl. Taman Kemang No.18 Lantai Dasar, RT.14/RW.1, Bangka, Kec. Mampang Prpt., Kota Jakarta Selatan, Daerah Khusus Ibukota Jakarta 12730","Jl. Taman Kemang No.18 Lantai Dasar, RT.14/RW.1, Bangka, Kec. Mampang Prpt., Kota Jakarta Selatan",NUSA TENGGARA TIMUR,12730.0,Indonesia,82258420016,,,-62.559.442,1.068.103.293,https://maps.google.com/?cid=0x0:0x604600a2b8ae81f,
mall,mall,Kopi Bajawa Flores NTT Bintaro,"Jl. Cut Mutia II Blok FG2 No.38, Jurang Mangu Barat, Kec. Pd. Aren, Kota Tangerang Selatan, Banten 15222","Jurang Mangu Barat, Kec. Pd. Aren, Kota Tangerang Selatan",NUSA TENGGARA TIMUR,15222.0,Indonesia,81381748035,,,-62.722.942,1.067.252.074,https://maps.google.com/?cid=0x0:0x1368608128ff5c89,
mall,mall,.,"Trikora, Bajawa, Kabupaten Ngada, Nusa Tenggara Tim.","Kabupaten Ngada, Nusa Tenggara Tim.",NUSA TENGGARA TIMUR,,Indonesia,,,,-87.859.083,1.209.703.357,https://maps.google.com/?cid=0x0:0x3fde308afccf7c18,
mall,mall,Nusa Tenggara Tim.,,Nusa Tenggara Tim.,NUSA TENGGARA TIMUR,,Indonesia,,,,-86.573.819,1.210.793.705,https://maps.google.com/?cid=0x0:0x1030bfbcaf71ae0,
mall,Toko Elektronik,Bajawa Multimedia,"Jl. El Tari, Trikora, Bajawa, Kabupaten Ngada, Nusa Tenggara Tim.","Kabupaten Ngada, Nusa Tenggara Tim.",NUSA TENGGARA TIMUR,,Indonesia,85239050841,,,-87.861.667,1.209.712.182,https://maps.google.com/?cid=0x0:0x51002ed4a5a472d7,
mall,Pasar Loak,Pasar Bobou,"6X9V+Q45, Bobou, Bajawa, Kabupaten Ngada, Nusa Tenggara Tim.","Kabupaten Ngada, Nusa Tenggara Tim.",NUSA TENGGARA TIMUR,,Indonesia,,,,-87.806.064,1.209.928.568,https://maps.google.com/?cid=0x0:0xb2b8c51efc95f28d,
mall,Pusat Perbelanjaan,Pasar Loak Bobou,"6X9V+V2, Faobata, Bajawa, Kabupaten Ngada, Nusa Tenggara Tim.","Kabupaten Ngada, Nusa Tenggara Tim.",NUSA TENGGARA TIMUR,,Indonesia,,,,-87.804.379,1.209.917.001,https://maps.google.com/?cid=0x0:0x1b849c6c4f226e8b,
mall,Kantor Pemerintah Kota,Bajawa Nusa tenggara timur,"6X56+369, Bajawa, Kabupaten Ngada, Nusa Tenggara Tim.","Kabupaten Ngada, Nusa Tenggara Tim.",NUSA TENGGARA TIMUR,,Indonesia,,,,-8.792.325,120.960.602,https://maps.google.com/?cid=0x0:0x6c5420c39c16889c,
mall,mall,Bajawa,"Bajawa, Kabupaten Ngada, Nusa Tenggara Tim.","Kabupaten Ngada, Nusa Tenggara Tim.",NUSA TENGGARA TIMUR,,Indonesia,,,,-8.792.325,120.960.602,https://maps.google.com/?cid=0x0:0x3cbeacbc23e7d171,
mall,Pasar,Pasar Inpres Lama Bajawa,"6X6F+M3R, Kisanata, Bajawa, Kabupaten Ngada, Nusa Tenggara Tim.","Kabupaten Ngada, Nusa Tenggara Tim.",NUSA TENGGARA TIMUR,,Indonesia,,,,-87.882.589,120.972.652,https://maps.google.com/?cid=0x0:0xd1a4c8ace7296924,
mall,Toko,Toko SINAR TERANG Bajawa,"Jl. TW Mengeruda, Ngedukelu, Bajawa, Kabupaten Ngada, Nusa Tenggara Tim.","Kabupaten Ngada, Nusa Tenggara Tim.",NUSA TENGGARA TIMUR,,Indonesia,81222999266,,,-87.854.951,1.209.759.694,https://maps.google.com/?cid=0x0:0x598c06a0b8eef939,
mall,Komplek perumahan,Mahajan niwas,"Near bajawa hospital kahnuwan, Bajawa, Ngada Regency, East Nusa Tenggara","Kabupaten Ngada, Nusa Tenggara Tim.",NUSA TENGGARA TIMUR,,Indonesia,,,,-8.792.325,120.960.602,https://maps.google.com/?cid=0x0:0x2113fd1c76728798,
mall,Kedai Kopi,Bajawa Flores NTT Tebet,"Kopi Bajawa Flores NTT, Jl. Tebet Timur Dalam Raya No.37, East Tebet, Tebet, South Jakarta City, Jakarta 12820","Jl. Tebet Timur Dalam Raya No.37, East Tebet, Tebet, South Jakarta City",NUSA TENGGARA TIMUR,12820.0,Indonesia,82258420016,,,-62.322.927,1.068.563.465,https://maps.google.com/?cid=0x0:0xa49d7eb17c59b5dd,
mall,Pusat Perbelanjaan,BSD Plaza,"Jl. Pahlawan Seribu Sektor 4, Lengkong Wetan, Serpong Sub-District, South Tangerang City, Banten 15322","Lengkong Wetan, Serpong Sub-District, South Tangerang City",NUSA TENGGARA TIMUR,15322.0,Indonesia,215371171,,,-62.794.797,1.066.625.764,https://maps.google.com/?cid=0x0:0xfa4e7a509dd69041,
mall,Mal outlet,Millenia Outlet BSD Plaza,"Jl. Pahlawan Seribu No.Sektor 4, Lengkong Wetan, Kec. Serpong, Kota Tangerang Selatan, Banten 15322","Lengkong Wetan, Kec. Serpong, Kota Tangerang Selatan",NUSA TENGGARA TIMUR,15322.0,Indonesia,81261661628,,,-62.795.649,1.066.627.234,https://maps.google.com/?cid=0x0:0x3c0370800c31f9f9,
mall,Kedai Kopi,Bajawa kemang,"Wisma Semeru, Jl. Taman Kemang No.18 Lantai Dasar, RT.14/RW.1, Bangka, Kec. Mampang Prpt., Kota Jakarta Selatan, Daerah Khusus Ibukota Jakarta 12730","Jl. Taman Kemang No.18 Lantai Dasar, RT.14/RW.1, Bangka, Kec. Mampang Prpt., Kota Jakarta Selatan",NUSA TENGGARA TIMUR,12730.0,Indonesia,82258420016,,,-62.559.442,1.068.103.293,https://maps.google.com/?cid=0x0:0x604600a2b8ae81f,
mall,mall,Nusa Tenggara Tim.,,Nusa Tenggara Tim.,NUSA TENGGARA TIMUR,,Indonesia,,,,-86.573.819,1.210.793.705,https://maps.google.com/?cid=0x0:0x1030bfbcaf71ae0,
mall,Toko Elektronik,Bajawa Multimedia,"Jl. El Tari, Trikora, Bajawa, Kabupaten Ngada, Nusa Tenggara Tim.","Kabupaten Ngada, Nusa Tenggara Tim.",NUSA TENGGARA TIMUR,,Indonesia,85239050841,,,-87.861.667,1.209.712.182,https://maps.google.com/?cid=0x0:0x51002ed4a5a472d7,
mall,Pasar,Pasar Inpres Lama Bajawa,"6X6F+M3R, Kisanata, Bajawa, Kabupaten Ngada, Nusa Tenggara Tim.","Kabupaten Ngada, Nusa Tenggara Tim.",NUSA TENGGARA TIMUR,,Indonesia,,,,-87.882.589,120.972.652,https://maps.google.com/?cid=0x0:0xd1a4c8ace7296924,
mall,Toko,Toko Laris Bajawa,"6X5F+W6G, Jl. Budi Oetomo, Tanalodu, Bajawa, Kabupaten Ngada, Nusa Tenggara Tim.","Kabupaten Ngada, Nusa Tenggara Tim.",NUSA TENGGARA TIMUR,,Indonesia,82123564585,,,-87.901.979,1.209.730.731,https://maps.google.com/?cid=0x0:0xf904cf73665ceb9a,
mall,Pasar Loak,Pasar Bobou,"6X9V+Q45, Bobou, Bajawa, Kabupaten Ngada, Nusa Tenggara Tim.","Kabupaten Ngada, Nusa Tenggara Tim.",NUSA TENGGARA TIMUR,,Indonesia,,,,-87.806.064,1.209.928.568,https://maps.google.com/?cid=0x0:0xb2b8c51efc95f28d,
mall,Pusat Perbelanjaan,Pasar Loak Bobou,"6X9V+V2, Faobata, Bajawa, Kabupaten Ngada, Nusa Tenggara Tim.","Kabupaten Ngada, Nusa Tenggara Tim.",NUSA TENGGARA TIMUR,,Indonesia,,,,-87.804.379,1.209.917.001,https://maps.google.com/?cid=0x0:0x1b849c6c4f226e8b,
mall,Toko Pakaian,Butik.dayana,"Jl. WJ Lalamentik No.72, Faobata, Bajawa, Kabupaten Ngada, Nusa Tenggara Tim.","Kabupaten Ngada, Nusa Tenggara Tim.",NUSA TENGGARA TIMUR,,Indonesia,,,,-8.781.105,1.209.883.629,https://maps.google.com/?cid=0x0:0x1a509909cdcae5c8,
mall,Toko,Toko Helm Ud crystal Bajawa,"Ngedukelu, Bajawa, Kabupaten Ngada, Nusa Tenggara Tim.","Kabupaten Ngada, Nusa Tenggara Tim.",NUSA TENGGARA TIMUR,,Indonesia,8995925050,,,-87.879.886,1.209.784.901,https://maps.google.com/?cid=0x0:0xf395fdda24e4af7c,
mall,Kantor Pemerintah Kota,Bajawa Nusa tenggara timur,"6X56+369, Bajawa, Kabupaten Ngada, Nusa Tenggara Tim.","Kabupaten Ngada, Nusa Tenggara Tim.",NUSA TENGGARA TIMUR,,Indonesia,,,,-8.792.325,120.960.602,https://maps.google.com/?cid=0x0:0x6c5420c39c16889c,
mall,Toko Ponsel,Gallery Phone Shop,"Jl. Gajah Mada, Kisanata, Bajawa, Kabupaten Ngada, Nusa Tenggara Tim.","Kabupaten Ngada, Nusa Tenggara Tim.",NUSA TENGGARA TIMUR,,Indonesia,,,,-87.875.225,1.209.729.589,https://maps.google.com/?cid=0x0:0x9283462b97dd8d59,
mall,mall,Bajawa,"Bajawa, Kabupaten Ngada, Nusa Tenggara Tim.","Kabupaten Ngada, Nusa Tenggara Tim.",NUSA TENGGARA TIMUR,,Indonesia,,,,-8.792.325,120.960.602,https://maps.google.com/?cid=0x0:0x3cbeacbc23e7d171,
mall,Komplek perumahan,Mahajan niwas,"Near bajawa hospital kahnuwan, Bajawa, Ngada Regency, East Nusa Tenggara","Kabupaten Ngada, Nusa Tenggara Tim.",NUSA TENGGARA TIMUR,,Indonesia,,,,-8.792.325,120.960.602,https://maps.google.com/?cid=0x0:0x2113fd1c76728798,
mall,Kedai Kopi,Bajawa Flores NTT Tebet,"Kopi Bajawa Flores NTT, Jl. Tebet Timur Dalam Raya No.37, East Tebet, Tebet, South Jakarta City, Jakarta 12820","Jl. Tebet Timur Dalam Raya No.37, East Tebet, Tebet, South Jakarta City",NUSA TENGGARA TIMUR,12820.0,Indonesia,82258420016,,,-62.322.927,1.068.563.465,https://maps.google.com/?cid=0x0:0xa49d7eb17c59b5dd,
mall,Kedai Kopi,Bajawa kemang,"Wisma Semeru, Jl. Taman Kemang No.18 Lantai Dasar, RT.14/RW.1, Bangka, Kec. Mampang Prpt., Kota Jakarta Selatan, Daerah Khusus Ibukota Jakarta 12730","Jl. Taman Kemang No.18 Lantai Dasar, RT.14/RW.1, Bangka, Kec. Mampang Prpt., Kota Jakarta Selatan",NUSA TENGGARA TIMUR,12730.0,Indonesia,82258420016,,,-62.559.442,1.068.103.293,https://maps.google.com/?cid=0x0:0x604600a2b8ae81f,
mall,mall,Nusa Tenggara Tim.,,Nusa Tenggara Tim.,NUSA TENGGARA TIMUR,,Indonesia,,,,-86.573.819,1.210.793.705,https://maps.google.com/?cid=0x0:0x1030bfbcaf71ae0,
mall,Toko Elektronik,Bajawa Multimedia,"Jl. El Tari, Trikora, Bajawa, Kabupaten Ngada, Nusa Tenggara Tim.","Kabupaten Ngada, Nusa Tenggara Tim.",NUSA TENGGARA TIMUR,,Indonesia,85239050841,,,-87.861.667,1.209.712.182,https://maps.google.com/?cid=0x0:0x51002ed4a5a472d7,
mall,Pasar,Pasar Inpres Lama Bajawa,"6X6F+M3R, Kisanata, Bajawa, Kabupaten Ngada, Nusa Tenggara Tim.","Kabupaten Ngada, Nusa Tenggara Tim.",NUSA TENGGARA TIMUR,,Indonesia,,,,-87.882.589,120.972.652,https://maps.google.com/?cid=0x0:0xd1a4c8ace7296924,
mall,Pasar Loak,Pasar Bobou,"6X9V+Q45, Bobou, Bajawa, Kabupaten Ngada, Nusa Tenggara Tim.","Kabupaten Ngada, Nusa Tenggara Tim.",NUSA TENGGARA TIMUR,,Indonesia,,,,-87.806.064,1.209.928.568,https://maps.google.com/?cid=0x0:0xb2b8c51efc95f28d,
mall,Toko,Toko Laris Bajawa,"6X5F+W6G, Jl. Budi Oetomo, Tanalodu, Bajawa, Kabupaten Ngada, Nusa Tenggara Tim.","Kabupaten Ngada, Nusa Tenggara Tim.",NUSA TENGGARA TIMUR,,Indonesia,82123564585,,,-87.901.979,1.209.730.731,https://maps.google.com/?cid=0x0:0xf904cf73665ceb9a,
mall,Pusat Perbelanjaan,Pasar Loak Bobou,"6X9V+V2, Faobata, Bajawa, Kabupaten Ngada, Nusa Tenggara Tim.","Kabupaten Ngada, Nusa Tenggara Tim.",NUSA TENGGARA TIMUR,,Indonesia,,,,-87.804.379,1.209.917.001,https://maps.google.com/?cid=0x0:0x1b849c6c4f226e8b,
mall,Toko Pakaian,Butik.dayana,"Jl. WJ Lalamentik No.72, Faobata, Bajawa, Kabupaten Ngada, Nusa Tenggara Tim.","Kabupaten Ngada, Nusa Tenggara Tim.",NUSA TENGGARA TIMUR,,Indonesia,,,,-8.781.105,1.209.883.629,https://maps.google.com/?cid=0x0:0x1a509909cdcae5c8,
mall,Restoran,Bajawa Family Resto,"Jl. WJ Lalamentik, Faobata, Bajawa, Kabupaten Ngada, Nusa Tenggara Tim. 86419","Faobata, Bajawa, Kabupaten Ngada",NUSA TENGGARA TIMUR,86419.0,Indonesia,82266397945,,,-87.777.766,1.209.887.957,https://maps.google.com/?cid=0x0:0x1bebbd2301fe2c95,
mall,Indonesia,Bajawa Food Corner,"Kisanata, Bajawa, Kabupaten Ngada, Nusa Tenggara Tim.","Kabupaten Ngada, Nusa Tenggara Tim.",NUSA TENGGARA TIMUR,,Indonesia,81239950907,,,-87.874.331,1.209.730.135,https://maps.google.com/?cid=0x0:0x243d0e511048d5fe,
mall,Toko,Toko Helm Ud crystal Bajawa,"Ngedukelu, Bajawa, Kabupaten Ngada, Nusa Tenggara Tim.","Kabupaten Ngada, Nusa Tenggara Tim.",NUSA TENGGARA TIMUR,,Indonesia,8995925050,,,-87.879.886,1.209.784.901,https://maps.google.com/?cid=0x0:0xf395fdda24e4af7c,
mall,Kantor Pemerintah Kota,Bajawa Nusa tenggara timur,"6X56+369, Bajawa, Kabupaten Ngada, Nusa Tenggara Tim.","Kabupaten Ngada, Nusa Tenggara Tim.",NUSA TENGGARA TIMUR,,Indonesia,,,,-8.792.325,120.960.602,https://maps.google.com/?cid=0x0:0x6c5420c39c16889c,
mall,mall,Bajawa,"Bajawa, Kabupaten Ngada, Nusa Tenggara Tim.","Kabupaten Ngada, Nusa Tenggara Tim.",NUSA TENGGARA TIMUR,,Indonesia,,,,-8.792.325,120.960.602,https://maps.google.com/?cid=0x0:0x3cbeacbc23e7d171,
mall,Minimarket,Langganan toserba,"6X7F+29X, Ngedukelu, Bajawa, Kabupaten Ngada, Nusa Tenggara Tim.","Kabupaten Ngada, Nusa Tenggara Tim.",NUSA TENGGARA TIMUR,,Indonesia,38421056,,,-87.873.884,1.209.734.788,https://maps.google.com/?cid=0x0:0xc7308eaa8237f25d,
mall,Komplek perumahan,Mahajan niwas,"Near bajawa hospital kahnuwan, Bajawa, Ngada Regency, East Nusa Tenggara","Kabupaten Ngada, Nusa Tenggara Tim.",NUSA TENGGARA TIMUR,,Indonesia,,,,-8.792.325,120.960.602,https://maps.google.com/?cid=0x0:0x2113fd1c76728798,
mall,Kedai Kopi,Kopi Bajawa Flores NTT,"PXQX+C9J, Bekasi, RT.003/RW.001, Sepanjang Jaya, Kec. Rawalumbu, Kota Bks, Jawa Barat 17114","Bekasi, RT.003/RW.001, Sepanjang Jaya, Kec. Rawalumbu, Kota Bks",NUSA TENGGARA TIMUR,17114.0,Indonesia,,,,-62.614.062,1.069.983.915,https://maps.google.com/?cid=0x0:0x6bcf551b3bef263,
mall,Kedai Kopi,Bajawa Flores NTT Tebet,"Kopi Bajawa Flores NTT, Jl. Tebet Timur Dalam Raya No.37, East Tebet, Tebet, South Jakarta City, Jakarta 12820","Jl. Tebet Timur Dalam Raya No.37, East Tebet, Tebet, South Jakarta City",NUSA TENGGARA TIMUR,12820.0,Indonesia,82258420016,,,-62.322.927,1.068.563.465,https://maps.google.com/?cid=0x0:0xa49d7eb17c59b5dd,
mall,Kedai Kopi,Kopi Bajawa Flores Tangerang Kota,"Jl. Imam Bonjol No.9, RT.002/RW.003, Karawaci, Kec. Karawaci, Kota Tangerang, Banten 15115","RT.002/RW.003, Karawaci, Kec. Karawaci, Kota Tangerang",NUSA TENGGARA TIMUR,15115.0,Indonesia,,,,-61.868.714,1.066.258.439,https://maps.google.com/?cid=0x0:0xb6ae11104078cf61,
mall,Kedai Kopi,Bajawa kemang,"Wisma Semeru, Jl. Taman Kemang No.18 Lantai Dasar, RT.14/RW.1, Bangka, Kec. Mampang Prpt., Kota Jakarta Selatan, Daerah Khusus Ibukota Jakarta 12730","Jl. Taman Kemang No.18 Lantai Dasar, RT.14/RW.1, Bangka, Kec. Mampang Prpt., Kota Jakarta Selatan",NUSA TENGGARA TIMUR,12730.0,Indonesia,82258420016,,,-62.559.442,1.068.103.293,https://maps.google.com/?cid=0x0:0x604600a2b8ae81f,
mall,Kedai Kopi,Kopi Bajawa Flores NTT - Sunter,"11, Jl. Agung Perkasa 8 No.37, RT.10/RW.11, Sunter Agung, Tanjung Priok, North Jakarta City, Jakarta 14350","Jl. Agung Perkasa 8 No.37, RT.10/RW.11, Sunter Agung, Tanjung Priok, North Jakarta City",NUSA TENGGARA TIMUR,14350.0,Indonesia,,,,-61.406.298,1.068.778.066,https://maps.google.com/?cid=0x0:0xae0478e898cb9bb2,
mall,Perusahaan investasi properti,Hampton Square Serpong,"Jl. Gading Serpong Boulevard, Medang, Kec. Pagedangan, Kabupaten Tangerang, Banten 15810","Medang, Kec. Pagedangan, Kabupaten Tangerang",NUSA TENGGARA TIMUR,15810.0,Indonesia,811158829,,,-62.666.127,1.066.175.838,https://maps.google.com/?cid=0x0:0x213c691343604a00,
mall,mall,Nusa Tenggara Tim.,,Nusa Tenggara Tim.,NUSA TENGGARA TIMUR,,Indonesia,,,,-86.573.819,1.210.793.705,https://maps.google.com/?cid=0x0:0x1030bfbcaf71ae0,
mall,Toko Elektronik,Bajawa Multimedia,"Jl. El Tari, Trikora, Bajawa, Kabupaten Ngada, Nusa Tenggara Tim.","Kabupaten Ngada, Nusa Tenggara Tim.",NUSA TENGGARA TIMUR,,Indonesia,85239050841,,,-87.861.667,1.209.712.182,https://maps.google.com/?cid=0x0:0x51002ed4a5a472d7,
mall,Pasar Loak,Pasar Bobou,"6X9V+Q45, Bobou, Bajawa, Kabupaten Ngada, Nusa Tenggara Tim.","Kabupaten Ngada, Nusa Tenggara Tim.",NUSA TENGGARA TIMUR,,Indonesia,,,,-87.806.064,1.209.928.568,https://maps.google.com/?cid=0x0:0xb2b8c51efc95f28d,
mall,Toko,Toko Laris Bajawa,"6X5F+W6G, Jl. Budi Oetomo, Tanalodu, Bajawa, Kabupaten Ngada, Nusa Tenggara Tim.","Kabupaten Ngada, Nusa Tenggara Tim.",NUSA TENGGARA TIMUR,,Indonesia,82123564585,,,-87.901.979,1.209.730.731,https://maps.google.com/?cid=0x0:0xf904cf73665ceb9a,
mall,Komplek perumahan,Mahajan niwas,"Near bajawa hospital kahnuwan, Bajawa, Ngada Regency, East Nusa Tenggara","Kabupaten Ngada, Nusa Tenggara Tim.",NUSA TENGGARA TIMUR,,Indonesia,,,,-8.792.325,120.960.602,https://maps.google.com/?cid=0x0:0x2113fd1c76728798,
mall,mall,Kec. Soa,"Kabupaten Ngada, Nusa Tenggara Tim.","Kabupaten Ngada, Nusa Tenggara Tim.",NUSA TENGGARA TIMUR,,Indonesia,,,,-86.991.961,1.210.341.254,https://maps.google.com/?cid=0x0:0xa0e2c22221dea3ea,
mall,Vegetarian cafe and deli,Nusa Tenggara Timur,"83VH+2PX, Nginamanu, Kec. Wolomeze, Kabupaten Ngada, Nusa Tenggara Tim.","Kabupaten Ngada, Nusa Tenggara Tim.",NUSA TENGGARA TIMUR,,Indonesia,,,,-86.573.819,1.210.793.705,https://maps.google.com/?cid=0x0:0x27af687c1dcf24cf,
mall,Toko,Kios Terima kasih,"72QP+HW5, Masumeli, Kec. Soa, Kabupaten Ngada, Nusa Tenggara Tim.","Kabupaten Ngada, Nusa Tenggara Tim.",NUSA TENGGARA TIMUR,,Indonesia,85237358436,,,-87.111.168,1.210.373.461,https://maps.google.com/?cid=0x0:0x8efd590ea7a86dcb,
mall,Pusat Perbelanjaan,Lotte Shopping Avenue Mall,"Jl. Prof. DR. Satrio No.Kav.3, RW.5, Kuningan, Karet Kuningan, Kecamatan Setiabudi, Kota Jakarta Selatan, Daerah Khusus Ibukota Jakarta 12940","RW.5, Kuningan, Karet Kuningan, Kecamatan Setiabudi, Kota Jakarta Selatan",NUSA TENGGARA TIMUR,12940.0,Indonesia,2129889292,,,-62.233.644,1.068.232.981,https://maps.google.com/?cid=0x0:0xe8323175da8b9770,
mall,Pusat Perbelanjaan,Mall Plaza Senayan,"Jl. Asia Afrika No.8, RT.1/RW.3, Gelora, Kecamatan Tanah Abang, Kota Jakarta Pusat, Daerah Khusus Ibukota Jakarta 10270","RT.1/RW.3, Gelora, Kecamatan Tanah Abang, Kota Jakarta Pusat",NUSA TENGGARA TIMUR,10270.0,Indonesia,215725555,,,-62.254.775,1.067.992.649,https://maps.google.com/?cid=0x0:0x788e3a1eef75ac94,
mall,Pusat Perbelanjaan,Mall Of Indonesia,"Jl. Boulevard Bar. Raya No.12, RT.18/RW.19, Klp. Gading Bar., Kec. Klp. Gading, Jkt Utara, Daerah Khusus Ibukota Jakarta 14240","RT.18/RW.19, Klp. Gading Bar., Kec. Klp. Gading, Jkt Utara",NUSA TENGGARA TIMUR,14240.0,Indonesia,2145867888,,,-61.514.549,1.068.918.949,https://maps.google.com/?cid=0x0:0x3431c7aaadd1f1b6,
mall,Gedung Apartemen,NEO SOHO Mall,"Jl. Letjen S. Parman No.28, RT.3/RW.5, Tj. Duren Sel., Kec. Grogol petamburan, Kota Jakarta Barat, Daerah Khusus Ibukota Jakarta 11470","RT.3/RW.5, Tj. Duren Sel., Kec. Grogol petamburan, Kota Jakarta Barat",NUSA TENGGARA TIMUR,11470.0,Indonesia,,,,-6.174.963,1.067.900.134,https://maps.google.com/?cid=0x0:0x2c4c67f4d94e8e65,
mall,Pusat Perbelanjaan,ASHTA District 8,"Jl. Senopati No.83, Senayan, Kec. Kby. Baru, Kota Jakarta Selatan, Daerah Khusus Ibukota Jakarta 12190","Senayan, Kec. Kby. Baru, Kota Jakarta Selatan",NUSA TENGGARA TIMUR,12190.0,Indonesia,2150262888,,,-6.229.976,1.068.070.846,https://maps.google.com/?cid=0x0:0x1042cab307c13c5f,
mall,Pusat Perbelanjaan,Mall Plaza Festival,"Jl. H. R. Rasuna Said No.22 Kav. C, Karet Kuningan, Kecamatan Setiabudi, Kota Jakarta Selatan, Daerah Khusus Ibukota Jakarta 12940","Karet Kuningan, Kecamatan Setiabudi, Kota Jakarta Selatan",NUSA TENGGARA TIMUR,12940.0,Indonesia,215263212,,,-62.210.766,1.068.324.118,https://maps.google.com/?cid=0x0:0xea6830e6c82c7a18,
mall,mall,Nusa Tenggara Tim.,,Nusa Tenggara Tim.,NUSA TENGGARA TIMUR,,Indonesia,,,,-86.573.819,1.210.793.705,https://maps.google.com/?cid=0x0:0x1030bfbcaf71ae0,
mall,Pusat Informasi Pariwisata,TAMAN WISATA ALAM LAUT 17 PULAU RIUNG,"H2WM+CFM, Kec. Riung, Kabupaten Ngada, Nusa Tenggara Tim.","Kabupaten Ngada, Nusa Tenggara Tim.",NUSA TENGGARA TIMUR,,Indonesia,,,,-84.039.191,1.210.336.602,https://maps.google.com/?cid=0x0:0xd14b952d02a202b4,
mall,Tujuan Wisata,Watu Mitong Riung,"Sambinasi, Kec. Riung, Kabupaten Ngada, Nusa Tenggara Tim.","Kabupaten Ngada, Nusa Tenggara Tim.",NUSA TENGGARA TIMUR,,Indonesia,81239805708,,,-8.386.666,120.982.498,https://maps.google.com/?cid=0x0:0x297c3961bcb99012,
mall,mall,Kec. Tebet,"Kota Jakarta Selatan, Daerah Khusus Ibukota Jakarta","Kota Jakarta Selatan, Daerah Khusus Ibukota Jakarta",NUSA TENGGARA TIMUR,,Indonesia,,,,-62.251.223,1.068.549.881,https://maps.google.com/?cid=0x0:0xd575e31c807295f9,
mall,mall,Kec. Jerebuu,"Kabupaten Ngada, Nusa Tenggara Tim.","Kabupaten Ngada, Nusa Tenggara Tim.",NUSA TENGGARA TIMUR,,Indonesia,,,,-88.964.289,1.209.972.433,https://maps.google.com/?cid=0x0:0x39c158f74ac29cdb,
mall,Pusat Perbelanjaan,Hortikultura Trio Mandiri,"53C5+FQ9, Todabelu, Kec. Golewa, Kabupaten Ngada, Nusa Tenggara Tim.","Kabupaten Ngada, Nusa Tenggara Tim.",NUSA TENGGARA TIMUR,,Indonesia,82266302018,,,-8.828.844,1.210.594.753,https://maps.google.com/?cid=0x0:0x5d3d69c0534bd895,
mall,mall,Kios AC Milan,"3353+554, Boba, Kec. Golewa, Kabupaten Ngada, Nusa Tenggara Tim.","Kabupaten Ngada, Nusa Tenggara Tim.",NUSA TENGGARA TIMUR,,Indonesia,,,,-89.414.645,1.210.534.357,https://maps.google.com/?cid=0x0:0x45d9d182f3cb5fc1,
mall,mall,Kec. Riung Bar.,"Kabupaten Ngada, Nusa Tenggara Tim.","Kabupaten Ngada, Nusa Tenggara Tim.",NUSA TENGGARA TIMUR,,Indonesia,,,,-85.210.715,120.949.077,https://maps.google.com/?cid=0x0:0x457d9b30e57a9ad3,
mall,Pasar,UD. NURMALA RIUNG,"Jalan Trans Flores, Benteng Tengah, Kec. Riung, Kabupaten Ngada, Nusa Tenggara Tim.","Kabupaten Ngada, Nusa Tenggara Tim.",NUSA TENGGARA TIMUR,,Indonesia,,,,-84.264.541,1.210.268.141,https://maps.google.com/?cid=0x0:0x6368ad113c8d6fdb,
mall,Pusat Perbelanjaan,Blandina sambi,"G354+48P, Rawangkalo, Kec. Riung, Kabupaten Ngada, Nusa Tenggara Tim.","Kabupaten Ngada, Nusa Tenggara Tim.",NUSA TENGGARA TIMUR,,Indonesia,,,,-84.921.622,1.210.558.334,https://maps.google.com/?cid=0x0:0x46a8bdf3b4819536,
mall,Pasar,Kios Kirana,"H2HG+3G9, Nangamese, Kec. Riung, Kabupaten Ngada, Nusa Tenggara Tim.","Kabupaten Ngada, Nusa Tenggara Tim.",NUSA TENGGARA TIMUR,,Indonesia,,,,-84.223.333,1.210.263.478,https://maps.google.com/?cid=0x0:0x8ac493d17545eaf6,
mall,Toko,Toko Andalas Riung,"H2HG+6HH, Nangamese, Kec. Riung, Kabupaten Ngada, Nusa Tenggara Tim.","Kabupaten Ngada, Nusa Tenggara Tim.",NUSA TENGGARA TIMUR,,Indonesia,82144412361,,,-84.219.287,1.210.264.726,https://maps.google.com/?cid=0x0:0x65f9f1ba4977621e,
mall,Tujuan Wisata,Watu Mitong Riung,"Sambinasi, Kec. Riung, Kabupaten Ngada, Nusa Tenggara Tim.","Kabupaten Ngada, Nusa Tenggara Tim.",NUSA TENGGARA TIMUR,,Indonesia,81239805708,,,-8.386.666,120.982.498,https://maps.google.com/?cid=0x0:0x297c3961bcb99012,
mall,Pusat Informasi Pariwisata,TAMAN WISATA ALAM LAUT 17 PULAU RIUNG,"H2WM+CFM, Kec. Riung, Kabupaten Ngada, Nusa Tenggara Tim.","Kabupaten Ngada, Nusa Tenggara Tim.",NUSA TENGGARA TIMUR,,Indonesia,,,,-84.039.191,1.210.336.602,https://maps.google.com/?cid=0x0:0xd14b952d02a202b4,
mall,Pasar,Atazena Center,"Pasar Riung Ruko No. 4 Atazena 46, Nangamese, Kec. Riung, Kabupaten Ngada, Nusa Tenggara Tim.","Kabupaten Ngada, Nusa Tenggara Tim.",NUSA TENGGARA TIMUR,,Indonesia,81236656617,,,-84.227.148,1.210.264.589,https://maps.google.com/?cid=0x0:0x5bf516f0b27b70f8,
mall,Kios,Kios Gun,"FRHG+V55, Lempang Paji, Kec. Elar Selatan, Kabupaten Manggarai Timur, Nusa Tenggara Tim.","Kabupaten Manggarai Timur, Nusa Tenggara Tim.",NUSA TENGGARA TIMUR,,Indonesia,,,,-85.203.726,1.208.254.825,https://maps.google.com/?cid=0x0:0x540716981990557,
mall,mall,Kompleks Pertokoan Riung,"H2GG+XMF, Nangamese, Kec. Riung, Kabupaten Ngada, Nusa Tenggara Tim.","Kabupaten Ngada, Nusa Tenggara Tim.",NUSA TENGGARA TIMUR,,Indonesia,,,,-84.225.525,1.210.266.868,https://maps.google.com/?cid=0x0:0xcb498a0a3199cae,
mall,mall,Ayam pedaging magel,"FWHW+MPG, Unnamed Road, Wolomeze, Kec. Riung Bar., Kabupaten Ngada, Nusa Tenggara Tim.","Kabupaten Ngada, Nusa Tenggara Tim.",NUSA TENGGARA TIMUR,,Indonesia,,,,-85.208.041,1.209.468.309,https://maps.google.com/?cid=0x0:0x698c457f2ff4abe6,
mall,mall,Kec. Bajawa Utara,"Kabupaten Ngada, Nusa Tenggara Tim.","Kabupaten Ngada, Nusa Tenggara Tim.",NUSA TENGGARA TIMUR,,Indonesia,,,,-87.368.576,1.210.030.037,https://maps.google.com/?cid=0x0:0xb1d8c7bab42c5a19,
mall,Pasar Loak,Pasar Bobou,"6X9V+Q45, Bobou, Bajawa, Kabupaten Ngada, Nusa Tenggara Tim.","Kabupaten Ngada, Nusa Tenggara Tim.",NUSA TENGGARA TIMUR,,Indonesia,,,,-87.806.064,1.209.928.568,https://maps.google.com/?cid=0x0:0xb2b8c51efc95f28d,
mall,Toko Elektronik,Bajawa Multimedia,"Jl. El Tari, Trikora, Bajawa, Kabupaten Ngada, Nusa Tenggara Tim.","Kabupaten Ngada, Nusa Tenggara Tim.",NUSA TENGGARA TIMUR,,Indonesia,85239050841,,,-87.861.667,1.209.712.182,https://maps.google.com/?cid=0x0:0x51002ed4a5a472d7,
mall,Toko Pakaian,Butik.dayana,"Jl. WJ Lalamentik No.72, Faobata, Bajawa, Kabupaten Ngada, Nusa Tenggara Tim.","Kabupaten Ngada, Nusa Tenggara Tim.",NUSA TENGGARA TIMUR,,Indonesia,,,,-8.781.105,1.209.883.629,https://maps.google.com/?cid=0x0:0x1a509909cdcae5c8,
mall,Industri Pasir,Tambang Pasir Artha Prima Mandiri,"6XPP+4FV, Naru, Bajawa, Kabupaten Ngada, Nusa Tenggara Tim.","Kabupaten Ngada, Nusa Tenggara Tim.",NUSA TENGGARA TIMUR,,Indonesia,,,,-87.646.475,1.209.861.791,https://maps.google.com/?cid=0x0:0x937d89e30b294914,
mall,Kantor Pemda,Kantor Camat Bajawa Utara,"8WCX+J24, Watukapu, Kec. Bajawa Utara, Kabupaten Ngada, Nusa Tenggara Tim.","Kabupaten Ngada, Nusa Tenggara Tim.",NUSA TENGGARA TIMUR,,Indonesia,,,,-86.784.923,1.209.475.875,https://maps.google.com/?cid=0x0:0xb60b94778f7e8b49,
mall,Kantor Pemerintah,Bajawa-Soa,"725M+5V6, Unnamed Road, Inelika, Kec. Bajawa Utara, Kabupaten Ngada, Nusa Tenggara Tim.","Kabupaten Ngada, Nusa Tenggara Tim.",NUSA TENGGARA TIMUR,,Indonesia,,,,-87.420.984,1.210.346.275,https://maps.google.com/?cid=0x0:0xa313e668d3f8e43f,
mall,Rumah Kayu,Rumah produksi kopi Wolowio,"Wawowae, Bajawa, Kabupaten Ngada, Nusa Tenggara Tim. 86413","Bajawa, Kabupaten Ngada",NUSA TENGGARA TIMUR,86413.0,Indonesia,85253614006,,,-87.822.651,1.209.585.495,https://maps.google.com/?cid=0x0:0x3364827991a300d0,
mall,mall,Natan otepah,"6X9R+PRC, Jl. Ps. Baru, Faobata, Bajawa, Kabupaten Ngada, Nusa Tenggara Tim.","Kabupaten Ngada, Nusa Tenggara Tim.",NUSA TENGGARA TIMUR,,Indonesia,,,,-8.780.695,1.209.920.706,https://maps.google.com/?cid=0x0:0xcc915790e17b2e51,
mall,Toko,Kios Terima kasih,"72QP+HW5, Masumeli, Kec. Soa, Kabupaten Ngada, Nusa Tenggara Tim.","Kabupaten Ngada, Nusa Tenggara Tim.",NUSA TENGGARA TIMUR,,Indonesia,85237358436,,,-87.111.168,1.210.373.461,https://maps.google.com/?cid=0x0:0x8efd590ea7a86dcb,
mall,Vegetarian cafe and deli,Nusa Tenggara Timur,"83VH+2PX, Nginamanu, Kec. Wolomeze, Kabupaten Ngada, Nusa Tenggara Tim.","Kabupaten Ngada, Nusa Tenggara Tim.",NUSA TENGGARA TIMUR,,Indonesia,,,,-86.573.819,1.210.793.705,https://maps.google.com/?cid=0x0:0x27af687c1dcf24cf,
mall,mall,Nusa Tenggara Tim.,,Nusa Tenggara Tim.,NUSA TENGGARA TIMUR,,Indonesia,,,,-86.573.819,1.210.793.705,https://maps.google.com/?cid=0x0:0x1030bfbcaf71ae0,
mall,Vegetarian cafe and deli,Nusa Tenggara Timur,"83VH+2PX, Nginamanu, Kec. Wolomeze, Kabupaten Ngada, Nusa Tenggara Tim.","Kabupaten Ngada, Nusa Tenggara Tim.",NUSA TENGGARA TIMUR,,Indonesia,,,,-86.573.819,1.210.793.705,https://maps.google.com/?cid=0x0:0x27af687c1dcf24cf,
mall,mall,Kec. Wolomeze,"Kabupaten Ngada, Nusa Tenggara Tim.","Kabupaten Ngada, Nusa Tenggara Tim.",NUSA TENGGARA TIMUR,,Indonesia,,,,-86.643.282,121.044.547,https://maps.google.com/?cid=0x0:0xc9c65a778e87e894,
mall,mall,Wolomeze,"Kec. Riung Bar., Kabupaten Ngada, Nusa Tenggara Tim.","Kabupaten Ngada, Nusa Tenggara Tim.",NUSA TENGGARA TIMUR,,Indonesia,,,,-85.623.031,1.209.532.123,https://maps.google.com/?cid=0x0:0x99440c213d9da922,
mall,mall,Kec. Golewa Selatan,"Kabupaten Ngada, Nusa Tenggara Tim.","Kabupaten Ngada, Nusa Tenggara Tim.",NUSA TENGGARA TIMUR,,Indonesia,,,,-88.533.694,1.211.030.931,https://maps.google.com/?cid=0x0:0x841f99d069ae89c3,
mall,Otoritas Pelabuhan,Pasar Maumbawa,"442P+HH9, Kezewea, Kec. Golewa, Kabupaten Ngada, Nusa Tenggara Tim.","Kabupaten Ngada, Nusa Tenggara Tim.",NUSA TENGGARA TIMUR,,Indonesia,,,,-88.985.911,1.211.364.996,https://maps.google.com/?cid=0x0:0x3f3f0bad6f1065c0,
mall,mall,P4S HARAPAN KITA,"444G+55X, Were III, Kec. Golewa, Kabupaten Ngada, Nusa Tenggara Tim.","Kabupaten Ngada, Nusa Tenggara Tim.",NUSA TENGGARA TIMUR,,Indonesia,81237449312,,,-88.945.063,1.211.254.793,https://maps.google.com/?cid=0x0:0xb0ae438b63c16a06,
mall,mall,Kios AC Milan,"3353+554, Boba, Kec. Golewa, Kabupaten Ngada, Nusa Tenggara Tim.","Kabupaten Ngada, Nusa Tenggara Tim.",NUSA TENGGARA TIMUR,,Indonesia,,,,-89.414.645,1.210.534.357,https://maps.google.com/?cid=0x0:0x45d9d182f3cb5fc1,
mall,Kantor Pemerintah,KANTOR CAMAT GOLEWA SELATAN,"43HW+W7R, Were II, Kec. Golewa, Kabupaten Ngada, Nusa Tenggara Tim.","Kabupaten Ngada, Nusa Tenggara Tim.",NUSA TENGGARA TIMUR,,Indonesia,,,,-88.701.446,1.210.956.358,https://maps.google.com/?cid=0x0:0xad799d8aeb722b7d,
mall,Pasar,Pasar Senin Aewoe,"444W+45P, Unnamed Road, Aewoe, Kec. Mauponggo, Kabupaten Nagekeo, Nusa Tenggara Tim.","Kabupaten Nagekeo, Nusa Tenggara Tim.",NUSA TENGGARA TIMUR,,Indonesia,,,,-88.946.653,1.211.454.389,https://maps.google.com/?cid=0x0:0xb38cdfdde4b9ea8e,
mall,mall,Golewa Bar.,"Kabupaten Ngada, Nusa Tenggara Tim.","Kabupaten Ngada, Nusa Tenggara Tim.",NUSA TENGGARA TIMUR,,Indonesia,,,,-88.077.491,1.210.220.422,https://maps.google.com/?cid=0x0:0x103098ccabb3bc1,
mall,Pusat Perbelanjaan,Hortikultura Trio Mandiri,"53C5+FQ9, Todabelu, Kec. Golewa, Kabupaten Ngada, Nusa Tenggara Tim.","Kabupaten Ngada, Nusa Tenggara Tim.",NUSA TENGGARA TIMUR,,Indonesia,82266302018,,,-8.828.844,1.210.594.753,https://maps.google.com/?cid=0x0:0x5d3d69c0534bd895,
mall,Minimarket,Langganan toserba,"6X7F+29X, Ngedukelu, Bajawa, Kabupaten Ngada, Nusa Tenggara Tim.","Kabupaten Ngada, Nusa Tenggara Tim.",NUSA TENGGARA TIMUR,,Indonesia,38421056,,,-87.873.884,1.209.734.788,https://maps.google.com/?cid=0x0:0xc7308eaa8237f25d,
mall,Toko Elektronik,Bajawa Multimedia,"Jl. El Tari, Trikora, Bajawa, Kabupaten Ngada, Nusa Tenggara Tim.","Kabupaten Ngada, Nusa Tenggara Tim.",NUSA TENGGARA TIMUR,,Indonesia,85239050841,,,-87.861.667,1.209.712.182,https://maps.google.com/?cid=0x0:0x51002ed4a5a472d7,
mall,Otoritas Pelabuhan,Pasar Maumbawa,"442P+HH9, Kezewea, Kec. Golewa, Kabupaten Ngada, Nusa Tenggara Tim.","Kabupaten Ngada, Nusa Tenggara Tim.",NUSA TENGGARA TIMUR,,Indonesia,,,,-88.985.911,1.211.364.996,https://maps.google.com/?cid=0x0:0x3f3f0bad6f1065c0,
mall,Pusat Perbelanjaan,Lestari Jaya Collection,"6X6F+W4V, Jl. Gajah Mada, Kisanata, Bajawa, Kabupaten Ngada, Nusa Tenggara Tim.","Kabupaten Ngada, Nusa Tenggara Tim.",NUSA TENGGARA TIMUR,,Indonesia,,,,-8.787.632,1.209.727.978,https://maps.google.com/?cid=0x0:0x762eeb26e849ac54,
mall,Pasar,Pasar Inpres Lama Bajawa,"6X6F+M3R, Kisanata, Bajawa, Kabupaten Ngada, Nusa Tenggara Tim.","Kabupaten Ngada, Nusa Tenggara Tim.",NUSA TENGGARA TIMUR,,Indonesia,,,,-87.882.589,120.972.652,https://maps.google.com/?cid=0x0:0xd1a4c8ace7296924,
mall,Toko Pakaian,Butik.dayana,"Jl. WJ Lalamentik No.72, Faobata, Bajawa, Kabupaten Ngada, Nusa Tenggara Tim.","Kabupaten Ngada, Nusa Tenggara Tim.",NUSA TENGGARA TIMUR,,Indonesia,,,,-8.781.105,1.209.883.629,https://maps.google.com/?cid=0x0:0x1a509909cdcae5c8,
mall,Toko,Toko SINAR TERANG Bajawa,"Jl. TW Mengeruda, Ngedukelu, Bajawa, Kabupaten Ngada, Nusa Tenggara Tim.","Kabupaten Ngada, Nusa Tenggara Tim.",NUSA TENGGARA TIMUR,,Indonesia,81222999266,,,-87.854.951,1.209.759.694,https://maps.google.com/?cid=0x0:0x598c06a0b8eef939,
mall,Pusat Perbelanjaan,UD. DAMIAN,"6X7H+43J, Ngedukelu, Bajawa, Kabupaten Ngada, Nusa Tenggara Tim.","Kabupaten Ngada, Nusa Tenggara Tim.",NUSA TENGGARA TIMUR,,Indonesia,82342294066,,,-87.871.602,120.977.645,https://maps.google.com/?cid=0x0:0xe08c31d030cd70da,
mall,Hipermarket,Lippo Plaza Kupang,"Jl. Veteran, Fatululi, Kec. Oebobo, Kota Kupang, Nusa Tenggara Tim.","Kota Kupang, Nusa Tenggara Tim.",NUSA TENGGARA TIMUR,,Indonesia,,,,-10.158.877,1.236.112.188,https://maps.google.com/?cid=0x0:0x2d473260f9494ae7,
mall,Pusat Perbelanjaan,Toko Atika Jaya,"6X6F+M7R, Kisanata, Bajawa, Kabupaten Ngada, Nusa Tenggara Tim.","Kabupaten Ngada, Nusa Tenggara Tim.",NUSA TENGGARA TIMUR,,Indonesia,8123732785,,,-87.882.709,12.097.313,https://maps.google.com/?cid=0x0:0x5c65a6c6ea606a9c,
mall,Pusat Perbelanjaan,ADELIA TOYS (Grosir dan eceran Mainan Anak,"Jl. Palapa No.9, Ngedukelu, Bajawa, Kabupaten Ngada, Nusa Tenggara Tim. 86412","Ngedukelu, Bajawa, Kabupaten Ngada",NUSA TENGGARA TIMUR,86412.0,Indonesia,81338017778,,,-87.883.996,1.209.741.176,https://maps.google.com/?cid=0x0:0xb8604cbcc7c5dd87,
mall,Pusat Perbelanjaan,LESTARI JAYA GROSIR,"dekat lampu merah, Jl. TW Mengeruda, Ngedukelu, Bajawa, Kabupaten Ngada, Nusa Tenggara Tim. 86415","Jl. TW Mengeruda, Ngedukelu, Bajawa, Kabupaten Ngada",NUSA TENGGARA TIMUR,86415.0,Indonesia,82145442821,,,-87.854.094,1.209.761.637,https://maps.google.com/?cid=0x0:0x8ff18ca0e21d2ba1,
mall,Perhimpunan Pengembang Perumahan,"Rowa Traditional village, Wolopogo","Rowa, Kec. Boawae, Kabupaten Nagekeo, Nusa Tenggara Tim.","Kabupaten Nagekeo, Nusa Tenggara Tim.",NUSA TENGGARA TIMUR,,Indonesia,82235499925,,,-8.782.439,1.211.220.945,https://maps.google.com/?cid=0x0:0x3a02b1f57063d2d7,
mall,Toko,Kios Terima kasih,"72QP+HW5, Masumeli, Kec. Soa, Kabupaten Ngada, Nusa Tenggara Tim.","Kabupaten Ngada, Nusa Tenggara Tim.",NUSA TENGGARA TIMUR,,Indonesia,85237358436,,,-87.111.168,1.210.373.461,https://maps.google.com/?cid=0x0:0x8efd590ea7a86dcb,
mall,Toko,Toko Laris Bajawa,"6X5F+W6G, Jl. Budi Oetomo, Tanalodu, Bajawa, Kabupaten Ngada, Nusa Tenggara Tim.","Kabupaten Ngada, Nusa Tenggara Tim.",NUSA TENGGARA TIMUR,,Indonesia,82123564585,,,-87.901.979,1.209.730.731,https://maps.google.com/?cid=0x0:0xf904cf73665ceb9a,
mall,Toko,Toko Helm Ud crystal Bajawa,"Ngedukelu, Bajawa, Kabupaten Ngada, Nusa Tenggara Tim.","Kabupaten Ngada, Nusa Tenggara Tim.",NUSA TENGGARA TIMUR,,Indonesia,8995925050,,,-87.879.886,1.209.784.901,https://maps.google.com/?cid=0x0:0xf395fdda24e4af7c,
mall,Toko Perlengkapan Rumah,Toko Indon Jaya Serba Ada,"6X7G+G4X, Ngedukelu, Bajawa, Kabupaten Ngada, Nusa Tenggara Tim.","Kabupaten Ngada, Nusa Tenggara Tim.",NUSA TENGGARA TIMUR,,Indonesia,82230589086,,,-87.861.369,1.209.753.567,https://maps.google.com/?cid=0x0:0x901b19c8567dfeda,
mall,Industri Pasir,Tambang Pasir Artha Prima Mandiri,"6XPP+4FV, Naru, Bajawa, Kabupaten Ngada, Nusa Tenggara Tim.","Kabupaten Ngada, Nusa Tenggara Tim.",NUSA TENGGARA TIMUR,,Indonesia,,,,-87.646.475,1.209.861.791,https://maps.google.com/?cid=0x0:0x937d89e30b294914,
mall,Sekolah menengah,SMAN. 1 Golewa,"52P3+6FW, Mangulewa, Kec. Golewa, Kabupaten Ngada, Nusa Tenggara Tim.","Kabupaten Ngada, Nusa Tenggara Tim.",NUSA TENGGARA TIMUR,,Indonesia,85205885200,,,-88.143.807,1.210.037.175,https://maps.google.com/?cid=0x0:0xf88b078d19c6bb05,
mall,mall,SENANDUNG ATK,"52M4+RPC, Jl. Trans Flores, Mangulewa, Kec. Golewa, Kabupaten Ngada, Nusa Tenggara Tim.","Kabupaten Ngada, Nusa Tenggara Tim.",NUSA TENGGARA TIMUR,,Indonesia,,,,-88.154.314,1.210.067.601,https://maps.google.com/?cid=0x0:0x2edfaa1315c6686e,
mall,mall,Gunung Inerie,"Kelitei, Kec. Inerie, Kabupaten Ngada, Nusa Tenggara Tim.","Kabupaten Ngada, Nusa Tenggara Tim.",NUSA TENGGARA TIMUR,,Indonesia,,,,-88.781.054,1.209.543.944,https://maps.google.com/?cid=0x0:0x43fe208382cb2661,
mall,Pembangunan Perumahan,Pesi,"7HF9+H84, Sita, Kec. Rana Mese, Kabupaten Manggarai Timur, Nusa Tenggara Tim.","Kabupaten Manggarai Timur, Nusa Tenggara Tim.",NUSA TENGGARA TIMUR,,Indonesia,,,,-87.261.215,1.205.683.362,https://maps.google.com/?cid=0x0:0x3988162b96c9843c,
mall,Komplek perumahan,Kampung Pesi,"7HF9+J6F, Sita, Kec. Borong, Kabupaten Manggarai Timur, Nusa Tenggara Tim.","Kabupaten Manggarai Timur, Nusa Tenggara Tim.",NUSA TENGGARA TIMUR,,Indonesia,,,,-87.259.421,1.205.680.613,https://maps.google.com/?cid=0x0:0xa4f6c1b44cc3a5fe,
mall,mall,Kec. Inerie,"Kabupaten Ngada, Nusa Tenggara Tim.","Kabupaten Ngada, Nusa Tenggara Tim.",NUSA TENGGARA TIMUR,,Indonesia,,,,-89.262.385,1.209.260.636,https://maps.google.com/?cid=0x0:0xea23f34b6816de42,
supermarket,Minimarket,Pasar Aimere,"Langagedha, Bajawa, Kabupaten Ngada, Nusa Tenggara Tim.","Kabupaten Ngada, Nusa Tenggara Tim.",NUSA TENGGARA TIMUR,,Indonesia,,,,-88.396.091,1.208.551.211,https://maps.google.com/?cid=0x0:0x541fcc7a8362929b,
supermarket,Pusat Perbelanjaan,UD Harapan Indah 2 Aimere,"5V45+GWV, Aimere, Kec. Aimere, Kabupaten Ngada, Nusa Tenggara Tim.","Kabupaten Ngada, Nusa Tenggara Tim.",NUSA TENGGARA TIMUR,,Indonesia,81236236506,,,-8.843.644,120.859.787,https://maps.google.com/?cid=0x0:0x67ddc0e1e4e6ea8b,
supermarket,Toko bahan makanan,UD.Tunas Harapan,"5V82+2G4, Jl. Kali 2, Aimere, Kec. Aimere, Kabupaten Ngada, Nusa Tenggara Tim.","Kabupaten Ngada, Nusa Tenggara Tim.",NUSA TENGGARA TIMUR,,Indonesia,81233879652,,,-88.349.984,1.208.513.337,https://maps.google.com/?cid=0x0:0xd25223c70c27595d,
supermarket,Minimarket,Pionis Oliver,"5V27+J99, Aimere Tim., Kec. Aimere, Kabupaten Ngada, Nusa Tenggara Tim.","Kabupaten Ngada, Nusa Tenggara Tim.",NUSA TENGGARA TIMUR,,Indonesia,81237710878,,,-88.484.505,1.208.634.771,https://maps.google.com/?cid=0x0:0xb99f8c0b0322cb5d,
supermarket,Toko bahan makanan,Kios Astika,"5V35+X5H, Aimere Tim., Kec. Aimere, Kabupaten Ngada, Nusa Tenggara Tim.","Kabupaten Ngada, Nusa Tenggara Tim.",NUSA TENGGARA TIMUR,,Indonesia,85237793724,,,-88.450.687,1.208.579.851,https://maps.google.com/?cid=0x0:0x1924b480c34197ad,
supermarket,Toko bahan makanan,Kios JUNES,"4VGF+GH7, Foa, Kec. Aimere, Kabupaten Ngada, Nusa Tenggara Tim.","Kabupaten Ngada, Nusa Tenggara Tim.",NUSA TENGGARA TIMUR,,Indonesia,81312563570,,,-88.737.142,1.208.739.293,https://maps.google.com/?cid=0x0:0xd8e09d8cc6a20700,
supermarket,Toko bahan makanan,KIOS AVIRA CELLULER,"8X6C+GC, Genamere, Kec. Bajawa Utara, Kabupaten Ngada, Nusa Tenggara Tim.","Kabupaten Ngada, Nusa Tenggara Tim.",NUSA TENGGARA TIMUR,,Indonesia,,,,-8.688.068,1.209.707.465,https://maps.google.com/?cid=0x0:0x253747af0d5e41d8,
supermarket,supermarket,Aimere,"Langagedha, Bajawa, Kabupaten Ngada, Nusa Tenggara Tim.","Kabupaten Ngada, Nusa Tenggara Tim.",NUSA TENGGARA TIMUR,,Indonesia,,,,-8.821.697,120.945.702,https://maps.google.com/?cid=0x0:0x6b62a64ace33e6d9,
supermarket,Pasar,Alfamart Aimere,"5V34+6VX, Aimere Tim., Kec. Aimere, Kabupaten Ngada, Nusa Tenggara Tim.","Kabupaten Ngada, Nusa Tenggara Tim.",NUSA TENGGARA TIMUR,,Indonesia,,,,-88.469.595,1.208.572.665,https://maps.google.com/?cid=0x0:0xb456b150f38ef021,
supermarket,supermarket,Kec. Aimere,"Kabupaten Ngada, Nusa Tenggara Tim.","Kabupaten Ngada, Nusa Tenggara Tim.",NUSA TENGGARA TIMUR,,Indonesia,,,,-88.493.295,120.858.269,https://maps.google.com/?cid=0x0:0xc48710dbca09700e,
supermarket,Produsen,Pabrik tahu tempe,"5V25+786, Aimere Tim., Kec. Aimere, Kabupaten Ngada, Nusa Tenggara Tim.","Kabupaten Ngada, Nusa Tenggara Tim.",NUSA TENGGARA TIMUR,,Indonesia,,,,-88.493.295,120.858.269,https://maps.google.com/?cid=0x0:0xe3ece9e6e2477061,
supermarket,Toko,Kios OM PEA,"5RF6+Q8M, Watu Nggene, Kec. Kota Komba, Kabupaten Manggarai Timur, Nusa Tenggara Tim.","Kabupaten Manggarai Timur, Nusa Tenggara Tim.",NUSA TENGGARA TIMUR,,Indonesia,81236153815,,,-8.825.539,1.208.108.011,https://maps.google.com/?cid=0x0:0x98d1f71e32e9c9c8,
supermarket,supermarket,Kec. Golewa,"Kabupaten Ngada, Nusa Tenggara Tim.","Kabupaten Ngada, Nusa Tenggara Tim.",NUSA TENGGARA TIMUR,,Indonesia,,,,-8.823.719,121.051.735,https://maps.google.com/?cid=0x0:0xbe72500ebc67578b,
supermarket,Kios,Kios Kalista,"Jl. Raya Bajawa-Ende, Malanuza, Kec. Golewa, Kabupaten Ngada, Nusa Tenggara Tim.","Kabupaten Ngada, Nusa Tenggara Tim.",NUSA TENGGARA TIMUR,,Indonesia,,,,-88.154.683,1.210.860.111,https://maps.google.com/?cid=0x0:0x31d2ef85075c2e4b,
supermarket,Kios,NIRMALA MART,"Unnamed Road, Kezewea, Kec. Golewa, Kabupaten Ngada, Nusa Tenggara Tim.","Kabupaten Ngada, Nusa Tenggara Tim.",NUSA TENGGARA TIMUR,,Indonesia,82237383840,,,-88.675.164,1.211.148.624,https://maps.google.com/?cid=0x0:0x669109a27c522f8,
supermarket,Supermarket Diskon,UD Mami,"Jl. Raya Bajawa-Ende, Todabelu, Kec. Golewa, Kabupaten Ngada, Nusa Tenggara Tim.","Kabupaten Ngada, Nusa Tenggara Tim.",NUSA TENGGARA TIMUR,,Indonesia,,,,-88.200.036,121.066.454,https://maps.google.com/?cid=0x0:0xe25a8c4a72e35609,
supermarket,supermarket,Jonathan cell,"535P+4J7, Malanuza, Kec. Golewa, Kabupaten Ngada, Nusa Tenggara Tim.","Kabupaten Ngada, Nusa Tenggara Tim.",NUSA TENGGARA TIMUR,,Indonesia,,,,-88.422.049,1.210.865.392,https://maps.google.com/?cid=0x0:0xfeb3a855162565ba,
supermarket,Toko Elektronik,Bertho Ladja Cellular,"44W3+F27, Dusun Tiwuriwu, Sadha, Kec. Golewa Selatan, Kabupaten Ngada, Nusa Tenggara Tim.","Kabupaten Ngada, Nusa Tenggara Tim.",NUSA TENGGARA TIMUR,,Indonesia,,,,-88.538.259,1.211.025.577,https://maps.google.com/?cid=0x0:0xb38ed735653aecd0,
supermarket,Toko Swalayan,KUD Pelipedha/Co-op Mart Boawae,"65PC+25V, Natanage Tim., Kec. Boawae, Kabupaten Nagekeo, Nusa Tenggara Tim.","Kabupaten Nagekeo, Nusa Tenggara Tim.",NUSA TENGGARA TIMUR,,Indonesia,,,,-87.648.842,1.211.704.178,https://maps.google.com/?cid=0x0:0x52079c37eebaded,
supermarket,Toko bahan makanan,KIOS ORIN MEO,"724R+HV2, Waero, Tarawaja, Kec. Soa, Kabupaten Ngada, Nusa Tenggara Tim.","Kabupaten Ngada, Nusa Tenggara Tim.",NUSA TENGGARA TIMUR,,Indonesia,,,,-87.436.048,1.210.421.561,https://maps.google.com/?cid=0x0:0xe077c76b91979f7d,
supermarket,supermarket,"Rumah pribadi dan kios emanuel jual;dedak, pakan, beras, dll","53MH+V8M, Jl. Raya Bajawa-Ende, Malanuza, Kec. Golewa, Kabupaten Ngada, Nusa Tenggara Tim.","Kabupaten Ngada, Nusa Tenggara Tim.",NUSA TENGGARA TIMUR,,Indonesia,,,,-88.160.629,1.210.779.458,https://maps.google.com/?cid=0x0:0x3ac9bedfb0dff8ba,
supermarket,Toko bahan makanan,KAREMPENG 99,"4253+5P5, Dariwali, Kec. Jerebuu, Kabupaten Ngada, Nusa Tenggara Tim.","Kabupaten Ngada, Nusa Tenggara Tim.",NUSA TENGGARA TIMUR,,Indonesia,,,,-88.909.934,1.210.042.937,https://maps.google.com/?cid=0x0:0x75e315af8a464232,
supermarket,Kantor Pemerintah,Kantor Desa Ratogesa,"5392+RJP, Ratogesa, Kec. Golewa, Kabupaten Ngada, Nusa Tenggara Tim.","Kabupaten Ngada, Nusa Tenggara Tim.",NUSA TENGGARA TIMUR,,Indonesia,,,,-88.304.052,1.210.515.769,https://maps.google.com/?cid=0x0:0x9081ae36eba99753,
supermarket,Minimarket,Toko Pelangi Boawae,"RT 10 Hobo B, Natanage, Kec. Boawae, Kabupaten Nagekeo, Nusa Tenggara Tim. 86462","Natanage, Kec. Boawae, Kabupaten Nagekeo",NUSA TENGGARA TIMUR,86462.0,Indonesia,81236633060,,,-87.642.665,1.211.642.584,https://maps.google.com/?cid=0x0:0x76b11e8158289669,
supermarket,Sekolah Dasar,STKIP Citra Bakti Ngada official,"Jl. Raya Bajawa, Malanuza, Kec. Golewa, Kabupaten Ngada, Nusa Tenggara Tim.","Kabupaten Ngada, Nusa Tenggara Tim.",NUSA TENGGARA TIMUR,,Indonesia,81236518677,,,-88.137.036,1.210.871.734,https://maps.google.com/?cid=0x0:0xd806759538365c13,
supermarket,Toko,Kios Mama Yanti,"Jl. WJ Lalamentik, Faobata, Bajawa, Kabupaten Ngada, Nusa Tenggara Tim. 86413","Faobata, Bajawa, Kabupaten Ngada",NUSA TENGGARA TIMUR,86413.0,Indonesia,81338702630,,,-87.840.905,1.209.884.525,https://maps.google.com/?cid=0x0:0xf161dcfaf5ba655c,
supermarket,Komplek perumahan,Kantor Desa Wogo,"5383+4J, Wogo, Kec. Golewa, Kabupaten Ngada, Nusa Tenggara Tim.","Kabupaten Ngada, Nusa Tenggara Tim.",NUSA TENGGARA TIMUR,,Indonesia,,,,-88.347.143,1.210.540.651,https://maps.google.com/?cid=0x0:0xa36d0678e5899e64,
supermarket,Klub Olahraga,Lapangan pacu kuda,"72HX+MRQ, Loa, Kec. Soa, Kabupaten Ngada, Nusa Tenggara Tim.","Kabupaten Ngada, Nusa Tenggara Tim.",NUSA TENGGARA TIMUR,,Indonesia,,,,-87.207.926,1.210.496.106,https://maps.google.com/?cid=0x0:0xaddd0fa8cbd27864,
supermarket,Pembangunan Perumahan,Boba satu,"338C+854, Unnamed Road, Boba, Kec. Golewa, Kabupaten Ngada, Nusa Tenggara Tim.","Kabupaten Ngada, Nusa Tenggara Tim.",NUSA TENGGARA TIMUR,,Indonesia,,,,-89.342.397,1.210.704.408,https://maps.google.com/?cid=0x0:0x415501c36f49eddb,
supermarket,Sekolah Menengah Umum,SD CITRA BAKTI,"53MP+92Q, Malanuza, Kec. Golewa, Kabupaten Ngada, Nusa Tenggara Tim.","Kabupaten Ngada, Nusa Tenggara Tim.",NUSA TENGGARA TIMUR,,Indonesia,,,,-88.165.366,1.210.851.019,https://maps.google.com/?cid=0x0:0xfe3d66031aa2c92e,
supermarket,supermarket,Nusa Tenggara Tim.,,Nusa Tenggara Tim.,NUSA TENGGARA TIMUR,,Indonesia,,,,-86.573.819,1.210.793.705,https://maps.google.com/?cid=0x0:0x1030bfbcaf71ae0,
supermarket,Toko,Sinar Harapan,"6X9J+F64, Watujaji, Bajawa, Kabupaten Ngada, Nusa Tenggara Tim.","Kabupaten Ngada, Nusa Tenggara Tim.",NUSA TENGGARA TIMUR,,Indonesia,,,,-87.813.504,1.209.805.866,https://maps.google.com/?cid=0x0:0xc143fb9f83e22c94,
supermarket,Minimarket,Alfamart Soa Bajawa,"822M+CMV, Waepana, Kec. Soa, Kabupaten Ngada, Nusa Tenggara Tim.","Kabupaten Ngada, Nusa Tenggara Tim.",NUSA TENGGARA TIMUR,,Indonesia,,,,-86.988.497,1.210.343.167,https://maps.google.com/?cid=0x0:0x8f666099a68e06fe,
supermarket,Toko,Alfamart D.I Panjaitan Bajawa,"6X8F+PCF, Jl. Mayjend D.I. Panjaitan, Trikora, Bajawa, Kabupaten Ngada, Nusa Tenggara Tim.","Kabupaten Ngada, Nusa Tenggara Tim.",NUSA TENGGARA TIMUR,,Indonesia,,,,-87.831.927,1.209.735.475,https://maps.google.com/?cid=0x0:0x5091b941dd8a34c9,
supermarket,Toko,Sumber berkat mart,"6X7P+MJ9, Jl. R Soeprapto, Faobata, Bajawa, Kabupaten Ngada, Nusa Tenggara Tim.","Kabupaten Ngada, Nusa Tenggara Tim.",NUSA TENGGARA TIMUR,,Indonesia,,,,-87.858.013,1.209.870.347,https://maps.google.com/?cid=0x0:0x7ee63eafa77e70bc,
supermarket,Toserba,Supermarket Matahari,"pasar inpres naikoten No.1, Naikoten I, Kec. Kota Raja, Kota Kupang, Nusa Tenggara Tim. 85142","Naikoten I, Kec. Kota Raja, Kota Kupang",NUSA TENGGARA TIMUR,85142.0,Indonesia,,,,-101.813.187,1.236.009.175,https://maps.google.com/?cid=0x0:0x47fc92b423019c18,
supermarket,Indonesia,Bajawa Food Corner,"Kisanata, Bajawa, Kabupaten Ngada, Nusa Tenggara Tim.","Kabupaten Ngada, Nusa Tenggara Tim.",NUSA TENGGARA TIMUR,,Indonesia,81239950907,,,-87.874.331,1.209.730.135,https://maps.google.com/?cid=0x0:0x243d0e511048d5fe,
supermarket,Toko Elektronik,Bajawa,"6X7H+9W2, Ngedukelu, Bajawa, Kabupaten Ngada, Nusa Tenggara Tim.","Kabupaten Ngada, Nusa Tenggara Tim.",NUSA TENGGARA TIMUR,,Indonesia,,,,-87.877.086,1.209.793.489,https://maps.google.com/?cid=0x0:0x6ddc69c337d15eb9,
supermarket,supermarket,Bajawa,"Bajawa, Kabupaten Ngada, Nusa Tenggara Tim.","Kabupaten Ngada, Nusa Tenggara Tim.",NUSA TENGGARA TIMUR,,Indonesia,,,,-8.792.325,120.960.602,https://maps.google.com/?cid=0x0:0x3cbeacbc23e7d171,
supermarket,Restoran,Bajawa Family Resto,"Jl. WJ Lalamentik, Faobata, Bajawa, Kabupaten Ngada, Nusa Tenggara Tim. 86419","Faobata, Bajawa, Kabupaten Ngada",NUSA TENGGARA TIMUR,86419.0,Indonesia,82266397945,,,-87.777.766,1.209.887.957,https://maps.google.com/?cid=0x0:0x1bebbd2301fe2c95,
supermarket,Restoran,MAIBETH RESTAURANT,"Jl. Ahmad Yani No.70, Tanalodu, Bajawa, Kabupaten Ngada, Nusa Tenggara Tim.","Kabupaten Ngada, Nusa Tenggara Tim.",NUSA TENGGARA TIMUR,,Indonesia,81338319349,,,-87.918.124,1.209.741.893,https://maps.google.com/?cid=0x0:0xe81b14e4190a7f5f,
supermarket,Indonesia,The Kartini Restaurant,"Jl. Kartini, Tanalodu, Bajawa, Kabupaten Ngada, Nusa Tenggara Tim. 86412","Tanalodu, Bajawa, Kabupaten Ngada",NUSA TENGGARA TIMUR,86412.0,Indonesia,82147420875,,,-87.917.707,1.209.710.705,https://maps.google.com/?cid=0x0:0x8bd11f1acad7c6e9,
supermarket,supermarket,,,,NUSA TENGGARA TIMUR,,Indonesia,,,,,,https://maps.google.com/?cid=0x0:0x243d0e511048d5feu0026onu003dMie+Ayamu0026midu003d/g/11pcpryn6l,
supermarket,supermarket,,,,NUSA TENGGARA TIMUR,,Indonesia,,,,,,https://maps.google.com/?cid=0x0:0x243d0e511048d5feu0026onu003dWedang+Rondeu0026midu003d/g/11pcpryn6l,
supermarket,supermarket,,,,NUSA TENGGARA TIMUR,,Indonesia,,,,,,https://maps.google.com/?cid=0x0:0x243d0e511048d5feu0026onu003dWedang+Uwoh+Segar+Hangat+Bikin+Badan+Segar+Capek+Hilangu0026midu003d/g/11pcpryn6l,
supermarket,supermarket,,,,NUSA TENGGARA TIMUR,,Indonesia,,,,,,https://maps.google.com/?cid=0x0:0x243d0e511048d5feu0026onu003dEs+Teh+Pociu0026midu003d/g/11pcpryn6l,
supermarket,supermarket,,,,NUSA TENGGARA TIMUR,,Indonesia,,,,,,https://maps.google.com/?cid=0x0:0x243d0e511048d5feu0026onu003dPuding+Coklat+Oreou0026midu003d/g/11pcpryn6l,
supermarket,supermarket,,,,NUSA TENGGARA TIMUR,,Indonesia,,,,,,https://maps.google.com/?cid=0x0:0x243d0e511048d5feu0026onu003dLumpia+Khas+Semarangu0026midu003d/g/11pcpryn6l,
supermarket,supermarket,,,,NUSA TENGGARA TIMUR,,Indonesia,,,,,,https://maps.google.com/?cid=0x0:0x243d0e511048d5feu0026onu0026midu003d/g/11pcpryn6l,
supermarket,supermarket,Nusa Tenggara Tim.,,Nusa Tenggara Tim.,NUSA TENGGARA TIMUR,,Indonesia,,,,-86.573.819,1.210.793.705,https://maps.google.com/?cid=0x0:0x1030bfbcaf71ae0,
supermarket,Toko,Sinar Harapan,"6X9J+F64, Watujaji, Bajawa, Kabupaten Ngada, Nusa Tenggara Tim.","Kabupaten Ngada, Nusa Tenggara Tim.",NUSA TENGGARA TIMUR,,Indonesia,,,,-87.813.504,1.209.805.866,https://maps.google.com/?cid=0x0:0xc143fb9f83e22c94,
supermarket,Minimarket,Alfamart Soa Bajawa,"822M+CMV, Waepana, Kec. Soa, Kabupaten Ngada, Nusa Tenggara Tim.","Kabupaten Ngada, Nusa Tenggara Tim.",NUSA TENGGARA TIMUR,,Indonesia,,,,-86.988.497,1.210.343.167,https://maps.google.com/?cid=0x0:0x8f666099a68e06fe,
supermarket,Toko,Kios Mama Yanti,"Jl. WJ Lalamentik, Faobata, Bajawa, Kabupaten Ngada, Nusa Tenggara Tim. 86413","Faobata, Bajawa, Kabupaten Ngada",NUSA TENGGARA TIMUR,86413.0,Indonesia,81338702630,,,-87.840.905,1.209.884.525,https://maps.google.com/?cid=0x0:0xf161dcfaf5ba655c,
supermarket,Toko bahan makanan,TOKO TUNAS KARYA,"Jl. R Soeprapto, Ngedukelu, Bajawa, Kabupaten Ngada, Nusa Tenggara Tim.","Kabupaten Ngada, Nusa Tenggara Tim.",NUSA TENGGARA TIMUR,,Indonesia,82144266277,,,-87.883.672,1.209.776.902,https://maps.google.com/?cid=0x0:0xaa2009e38676a0df,
supermarket,,IBEMART TANALODU,"6X5G+JQV, Tanalodu, Bajawa, Kabupaten Ngada, Nusa Tenggara Tim.","Kabupaten Ngada, Nusa Tenggara Tim.",NUSA TENGGARA TIMUR,,Indonesia,82288885648,,,-87.908.834,1.209.769.064,https://maps.google.com/?cid=0x0:0x9106a78655fee16d,
supermarket,Toko,Alfamart D.I Panjaitan Bajawa,"6X8F+PCF, Jl. Mayjend D.I. Panjaitan, Trikora, Bajawa, Kabupaten Ngada, Nusa Tenggara Tim.","Kabupaten Ngada, Nusa Tenggara Tim.",NUSA TENGGARA TIMUR,,Indonesia,,,,-87.831.927,1.209.735.475,https://maps.google.com/?cid=0x0:0x5091b941dd8a34c9,
supermarket,Toko,Sumber berkat mart,"6X7P+MJ9, Jl. R Soeprapto, Faobata, Bajawa, Kabupaten Ngada, Nusa Tenggara Tim.","Kabupaten Ngada, Nusa Tenggara Tim.",NUSA TENGGARA TIMUR,,Indonesia,,,,-87.858.013,1.209.870.347,https://maps.google.com/?cid=0x0:0x7ee63eafa77e70bc,
supermarket,Toko Elektronik,Bajawa,"6X7H+9W2, Ngedukelu, Bajawa, Kabupaten Ngada, Nusa Tenggara Tim.","Kabupaten Ngada, Nusa Tenggara Tim.",NUSA TENGGARA TIMUR,,Indonesia,,,,-87.877.086,1.209.793.489,https://maps.google.com/?cid=0x0:0x6ddc69c337d15eb9,
supermarket,Toko,Toko Laris Bajawa,"6X5F+W6G, Jl. Budi Oetomo, Tanalodu, Bajawa, Kabupaten Ngada, Nusa Tenggara Tim.","Kabupaten Ngada, Nusa Tenggara Tim.",NUSA TENGGARA TIMUR,,Indonesia,82123564585,,,-87.901.979,1.209.730.731,https://maps.google.com/?cid=0x0:0xf904cf73665ceb9a,
supermarket,Pusat Perbelanjaan,Pasar Loak Bobou,"6X9V+V2, Faobata, Bajawa, Kabupaten Ngada, Nusa Tenggara Tim.","Kabupaten Ngada, Nusa Tenggara Tim.",NUSA TENGGARA TIMUR,,Indonesia,,,,-87.804.379,1.209.917.001,https://maps.google.com/?cid=0x0:0x1b849c6c4f226e8b,
supermarket,Pasar Loak,Pasar Bobou,"6X9V+Q45, Bobou, Bajawa, Kabupaten Ngada, Nusa Tenggara Tim.","Kabupaten Ngada, Nusa Tenggara Tim.",NUSA TENGGARA TIMUR,,Indonesia,,,,-87.806.064,1.209.928.568,https://maps.google.com/?cid=0x0:0xb2b8c51efc95f28d,
supermarket,Indonesia,Bajawa Food Corner,"Kisanata, Bajawa, Kabupaten Ngada, Nusa Tenggara Tim.","Kabupaten Ngada, Nusa Tenggara Tim.",NUSA TENGGARA TIMUR,,Indonesia,81239950907,,,-87.874.331,1.209.730.135,https://maps.google.com/?cid=0x0:0x243d0e511048d5fe,
supermarket,supermarket,Bajawa,"Bajawa, Kabupaten Ngada, Nusa Tenggara Tim.","Kabupaten Ngada, Nusa Tenggara Tim.",NUSA TENGGARA TIMUR,,Indonesia,,,,-8.792.325,120.960.602,https://maps.google.com/?cid=0x0:0x3cbeacbc23e7d171,
supermarket,Toko,Alfamart Ahmad Yani Bajawa,"6X7F+6JJ, Jl. Gajah Mada, Ngedukelu, Bajawa, Kabupaten Ngada, Nusa Tenggara Tim.","Kabupaten Ngada, Nusa Tenggara Tim.",NUSA TENGGARA TIMUR,,Indonesia,,,,-87.916.234,1.209.754.567,https://maps.google.com/?cid=0x0:0x57cfe81e052a2b2c,
supermarket,Pusat Perbelanjaan,TOKO FAVORIT BAJAWA,"Jln.basuki rahmat, Ngedukelu, Bajawa, Kabupaten Ngada, Nusa Tenggara Tim. 86412","Ngedukelu, Bajawa, Kabupaten Ngada",NUSA TENGGARA TIMUR,86412.0,Indonesia,,,,-87.881.762,1.209.744.939,https://maps.google.com/?cid=0x0:0x956599de4ae3f62b,
supermarket,supermarket,Kec. Tebet,"Kota Jakarta Selatan, Daerah Khusus Ibukota Jakarta","Kota Jakarta Selatan, Daerah Khusus Ibukota Jakarta",NUSA TENGGARA TIMUR,,Indonesia,,,,-62.251.223,1.068.549.881,https://maps.google.com/?cid=0x0:0xd575e31c807295f9,
supermarket,supermarket,Nusa Tenggara Tim.,,Nusa Tenggara Tim.,NUSA TENGGARA TIMUR,,Indonesia,,,,-86.573.819,1.210.793.705,https://maps.google.com/?cid=0x0:0x1030bfbcaf71ae0,
supermarket,Toko,Sinar Harapan,"6X9J+F64, Watujaji, Bajawa, Kabupaten Ngada, Nusa Tenggara Tim.","Kabupaten Ngada, Nusa Tenggara Tim.",NUSA TENGGARA TIMUR,,Indonesia,,,,-87.813.504,1.209.805.866,https://maps.google.com/?cid=0x0:0xc143fb9f83e22c94,
supermarket,Minimarket,Alfamart Soa Bajawa,"822M+CMV, Waepana, Kec. Soa, Kabupaten Ngada, Nusa Tenggara Tim.","Kabupaten Ngada, Nusa Tenggara Tim.",NUSA TENGGARA TIMUR,,Indonesia,,,,-86.988.497,1.210.343.167,https://maps.google.com/?cid=0x0:0x8f666099a68e06fe,
supermarket,Toko bahan makanan,MINI MARKET IMANUEL,"Jl. Yos Soedarso No.9, Trikora, Bajawa, Kabupaten Ngada, Nusa Tenggara Tim.","Kabupaten Ngada, Nusa Tenggara Tim.",NUSA TENGGARA TIMUR,,Indonesia,82146226988,,,-87.866.037,1.209.705.853,https://maps.google.com/?cid=0x0:0xd4c0d3f24c778722,
supermarket,Toko bahan makanan,TOKO TUNAS KARYA,"Jl. R Soeprapto, Ngedukelu, Bajawa, Kabupaten Ngada, Nusa Tenggara Tim.","Kabupaten Ngada, Nusa Tenggara Tim.",NUSA TENGGARA TIMUR,,Indonesia,82144266277,,,-87.883.672,1.209.776.902,https://maps.google.com/?cid=0x0:0xaa2009e38676a0df,
supermarket,Toko,Alfamart D.I Panjaitan Bajawa,"6X8F+PCF, Jl. Mayjend D.I. Panjaitan, Trikora, Bajawa, Kabupaten Ngada, Nusa Tenggara Tim.","Kabupaten Ngada, Nusa Tenggara Tim.",NUSA TENGGARA TIMUR,,Indonesia,,,,-87.831.927,1.209.735.475,https://maps.google.com/?cid=0x0:0x5091b941dd8a34c9,
supermarket,Toko,Sumber berkat mart,"6X7P+MJ9, Jl. R Soeprapto, Faobata, Bajawa, Kabupaten Ngada, Nusa Tenggara Tim.","Kabupaten Ngada, Nusa Tenggara Tim.",NUSA TENGGARA TIMUR,,Indonesia,,,,-87.858.013,1.209.870.347,https://maps.google.com/?cid=0x0:0x7ee63eafa77e70bc,
supermarket,Toko Elektronik,Bajawa,"6X7H+9W2, Ngedukelu, Bajawa, Kabupaten Ngada, Nusa Tenggara Tim.","Kabupaten Ngada, Nusa Tenggara Tim.",NUSA TENGGARA TIMUR,,Indonesia,,,,-87.877.086,1.209.793.489,https://maps.google.com/?cid=0x0:0x6ddc69c337d15eb9,
supermarket,Pusat Perbelanjaan,Pasar Loak Bobou,"6X9V+V2, Faobata, Bajawa, Kabupaten Ngada, Nusa Tenggara Tim.","Kabupaten Ngada, Nusa Tenggara Tim.",NUSA TENGGARA TIMUR,,Indonesia,,,,-87.804.379,1.209.917.001,https://maps.google.com/?cid=0x0:0x1b849c6c4f226e8b,
supermarket,Indonesia,Bajawa Food Corner,"Kisanata, Bajawa, Kabupaten Ngada, Nusa Tenggara Tim.","Kabupaten Ngada, Nusa Tenggara Tim.",NUSA TENGGARA TIMUR,,Indonesia,81239950907,,,-87.874.331,1.209.730.135,https://maps.google.com/?cid=0x0:0x243d0e511048d5fe,
supermarket,Pasar Loak,Pasar Bobou,"6X9V+Q45, Bobou, Bajawa, Kabupaten Ngada, Nusa Tenggara Tim.","Kabupaten Ngada, Nusa Tenggara Tim.",NUSA TENGGARA TIMUR,,Indonesia,,,,-87.806.064,1.209.928.568,https://maps.google.com/?cid=0x0:0xb2b8c51efc95f28d,
supermarket,Kantor Pemerintah Kota,Bajawa Nusa tenggara timur,"6X56+369, Bajawa, Kabupaten Ngada, Nusa Tenggara Tim.","Kabupaten Ngada, Nusa Tenggara Tim.",NUSA TENGGARA TIMUR,,Indonesia,,,,-8.792.325,120.960.602,https://maps.google.com/?cid=0x0:0x6c5420c39c16889c,
supermarket,supermarket,Bajawa,"Bajawa, Kabupaten Ngada, Nusa Tenggara Tim.","Kabupaten Ngada, Nusa Tenggara Tim.",NUSA TENGGARA TIMUR,,Indonesia,,,,-8.792.325,120.960.602,https://maps.google.com/?cid=0x0:0x3cbeacbc23e7d171,
supermarket,supermarket,Nusa Tenggara Tim.,,Nusa Tenggara Tim.,NUSA TENGGARA TIMUR,,Indonesia,,,,-86.573.819,1.210.793.705,https://maps.google.com/?cid=0x0:0x1030bfbcaf71ae0,
supermarket,Minimarket,Alfamart Soa Bajawa,"822M+CMV, Waepana, Kec. Soa, Kabupaten Ngada, Nusa Tenggara Tim.","Kabupaten Ngada, Nusa Tenggara Tim.",NUSA TENGGARA TIMUR,,Indonesia,,,,-86.988.497,1.210.343.167,https://maps.google.com/?cid=0x0:0x8f666099a68e06fe,
supermarket,Toko bahan makanan,MINI MARKET IMANUEL,"Jl. Yos Soedarso No.9, Trikora, Bajawa, Kabupaten Ngada, Nusa Tenggara Tim.","Kabupaten Ngada, Nusa Tenggara Tim.",NUSA TENGGARA TIMUR,,Indonesia,82146226988,,,-87.866.037,1.209.705.853,https://maps.google.com/?cid=0x0:0xd4c0d3f24c778722,
supermarket,Toko,Sumber berkat mart,"6X7P+MJ9, Jl. R Soeprapto, Faobata, Bajawa, Kabupaten Ngada, Nusa Tenggara Tim.","Kabupaten Ngada, Nusa Tenggara Tim.",NUSA TENGGARA TIMUR,,Indonesia,,,,-87.858.013,1.209.870.347,https://maps.google.com/?cid=0x0:0x7ee63eafa77e70bc,
supermarket,Pusat Perbelanjaan,Pasar Loak Bobou,"6X9V+V2, Faobata, Bajawa, Kabupaten Ngada, Nusa Tenggara Tim.","Kabupaten Ngada, Nusa Tenggara Tim.",NUSA TENGGARA TIMUR,,Indonesia,,,,-87.804.379,1.209.917.001,https://maps.google.com/?cid=0x0:0x1b849c6c4f226e8b,
supermarket,Indonesia,Bajawa Food Corner,"Kisanata, Bajawa, Kabupaten Ngada, Nusa Tenggara Tim.","Kabupaten Ngada, Nusa Tenggara Tim.",NUSA TENGGARA TIMUR,,Indonesia,81239950907,,,-87.874.331,1.209.730.135,https://maps.google.com/?cid=0x0:0x243d0e511048d5fe,
supermarket,Pasar Loak,Pasar Bobou,"6X9V+Q45, Bobou, Bajawa, Kabupaten Ngada, Nusa Tenggara Tim.","Kabupaten Ngada, Nusa Tenggara Tim.",NUSA TENGGARA TIMUR,,Indonesia,,,,-87.806.064,1.209.928.568,https://maps.google.com/?cid=0x0:0xb2b8c51efc95f28d,
supermarket,Toserba,Supermarket Matahari,"pasar inpres naikoten No.1, Naikoten I, Kec. Kota Raja, Kota Kupang, Nusa Tenggara Tim. 85142","Naikoten I, Kec. Kota Raja, Kota Kupang",NUSA TENGGARA TIMUR,85142.0,Indonesia,,,,-101.813.187,1.236.009.175,https://maps.google.com/?cid=0x0:0x47fc92b423019c18,
supermarket,supermarket,Bajawa,"Bajawa, Kabupaten Ngada, Nusa Tenggara Tim.","Kabupaten Ngada, Nusa Tenggara Tim.",NUSA TENGGARA TIMUR,,Indonesia,,,,-8.792.325,120.960.602,https://maps.google.com/?cid=0x0:0x3cbeacbc23e7d171,
supermarket,Toko Elektronik,Bajawa,"6X7H+9W2, Ngedukelu, Bajawa, Kabupaten Ngada, Nusa Tenggara Tim.","Kabupaten Ngada, Nusa Tenggara Tim.",NUSA TENGGARA TIMUR,,Indonesia,,,,-87.877.086,1.209.793.489,https://maps.google.com/?cid=0x0:0x6ddc69c337d15eb9,
supermarket,Restoran,Bajawa Family Resto,"Jl. WJ Lalamentik, Faobata, Bajawa, Kabupaten Ngada, Nusa Tenggara Tim. 86419","Faobata, Bajawa, Kabupaten Ngada",NUSA TENGGARA TIMUR,86419.0,Indonesia,82266397945,,,-87.777.766,1.209.887.957,https://maps.google.com/?cid=0x0:0x1bebbd2301fe2c95,
supermarket,Restoran,MAIBETH RESTAURANT,"Jl. Ahmad Yani No.70, Tanalodu, Bajawa, Kabupaten Ngada, Nusa Tenggara Tim.","Kabupaten Ngada, Nusa Tenggara Tim.",NUSA TENGGARA TIMUR,,Indonesia,81338319349,,,-87.918.124,1.209.741.893,https://maps.google.com/?cid=0x0:0xe81b14e4190a7f5f,
supermarket,Indonesia,The Kartini Restaurant,"Jl. Kartini, Tanalodu, Bajawa, Kabupaten Ngada, Nusa Tenggara Tim. 86412","Tanalodu, Bajawa, Kabupaten Ngada",NUSA TENGGARA TIMUR,86412.0,Indonesia,82147420875,,,-87.917.707,1.209.710.705,https://maps.google.com/?cid=0x0:0x8bd11f1acad7c6e9,
supermarket,supermarket,,,,NUSA TENGGARA TIMUR,,Indonesia,,,,,,https://maps.google.com/?cid=0x0:0x243d0e511048d5feu0026onu003dMie+Ayamu0026midu003d/g/11pcpryn6l,
supermarket,supermarket,,,,NUSA TENGGARA TIMUR,,Indonesia,,,,,,https://maps.google.com/?cid=0x0:0x243d0e511048d5feu0026onu003dWedang+Rondeu0026midu003d/g/11pcpryn6l,
supermarket,supermarket,,,,NUSA TENGGARA TIMUR,,Indonesia,,,,,,https://maps.google.com/?cid=0x0:0x243d0e511048d5feu0026onu003dWedang+Uwoh+Segar+Hangat+Bikin+Badan+Segar+Capek+Hilangu0026midu003d/g/11pcpryn6l,
supermarket,supermarket,,,,NUSA TENGGARA TIMUR,,Indonesia,,,,,,https://maps.google.com/?cid=0x0:0x243d0e511048d5feu0026onu003dEs+Teh+Pociu0026midu003d/g/11pcpryn6l,
supermarket,supermarket,,,,NUSA TENGGARA TIMUR,,Indonesia,,,,,,https://maps.google.com/?cid=0x0:0x243d0e511048d5feu0026onu003dPuding+Coklat+Oreou0026midu003d/g/11pcpryn6l,
supermarket,supermarket,,,,NUSA TENGGARA TIMUR,,Indonesia,,,,,,https://maps.google.com/?cid=0x0:0x243d0e511048d5feu0026onu003dLumpia+Khas+Semarangu0026midu003d/g/11pcpryn6l,
supermarket,supermarket,,,,NUSA TENGGARA TIMUR,,Indonesia,,,,,,https://maps.google.com/?cid=0x0:0x243d0e511048d5feu0026onu0026midu003d/g/11pcpryn6l,
supermarket,supermarket,Nusa Tenggara Tim.,,Nusa Tenggara Tim.,NUSA TENGGARA TIMUR,,Indonesia,,,,-86.573.819,1.210.793.705,https://maps.google.com/?cid=0x0:0x1030bfbcaf71ae0,
supermarket,Toko,Sumber berkat mart,"6X7P+MJ9, Jl. R Soeprapto, Faobata, Bajawa, Kabupaten Ngada, Nusa Tenggara Tim.","Kabupaten Ngada, Nusa Tenggara Tim.",NUSA TENGGARA TIMUR,,Indonesia,,,,-87.858.013,1.209.870.347,https://maps.google.com/?cid=0x0:0x7ee63eafa77e70bc,
supermarket,Pusat Perbelanjaan,Pasar Loak Bobou,"6X9V+V2, Faobata, Bajawa, Kabupaten Ngada, Nusa Tenggara Tim.","Kabupaten Ngada, Nusa Tenggara Tim.",NUSA TENGGARA TIMUR,,Indonesia,,,,-87.804.379,1.209.917.001,https://maps.google.com/?cid=0x0:0x1b849c6c4f226e8b,
supermarket,Indonesia,Bajawa Food Corner,"Kisanata, Bajawa, Kabupaten Ngada, Nusa Tenggara Tim.","Kabupaten Ngada, Nusa Tenggara Tim.",NUSA TENGGARA TIMUR,,Indonesia,81239950907,,,-87.874.331,1.209.730.135,https://maps.google.com/?cid=0x0:0x243d0e511048d5fe,
supermarket,Pasar Loak,Pasar Bobou,"6X9V+Q45, Bobou, Bajawa, Kabupaten Ngada, Nusa Tenggara Tim.","Kabupaten Ngada, Nusa Tenggara Tim.",NUSA TENGGARA TIMUR,,Indonesia,,,,-87.806.064,1.209.928.568,https://maps.google.com/?cid=0x0:0xb2b8c51efc95f28d,
supermarket,Kafe,GEG Fruits,"Jalan Brigjen Katamso No.10, Kota Baru, Kec. Kota Soe, Kabupaten Timor Tengah Selatan, Nusa Tenggara Tim.","Kabupaten Timor Tengah Selatan, Nusa Tenggara Tim.",NUSA TENGGARA TIMUR,,Indonesia,81337448475,,,-98.558.424,1.242.859.296,https://maps.google.com/?cid=0x0:0x2e4806cd77fbec58,
supermarket,supermarket,Bajawa,"Bajawa, Kabupaten Ngada, Nusa Tenggara Tim.","Kabupaten Ngada, Nusa Tenggara Tim.",NUSA TENGGARA TIMUR,,Indonesia,,,,-8.792.325,120.960.602,https://maps.google.com/?cid=0x0:0x3cbeacbc23e7d171,
supermarket,Toko,Alfamart D.I Panjaitan Bajawa,"6X8F+PCF, Jl. Mayjend D.I. Panjaitan, Trikora, Bajawa, Kabupaten Ngada, Nusa Tenggara Tim.","Kabupaten Ngada, Nusa Tenggara Tim.",NUSA TENGGARA TIMUR,,Indonesia,,,,-87.831.927,1.209.735.475,https://maps.google.com/?cid=0x0:0x5091b941dd8a34c9,
supermarket,Restoran,Bajawa Family Resto,"Jl. WJ Lalamentik, Faobata, Bajawa, Kabupaten Ngada, Nusa Tenggara Tim. 86419","Faobata, Bajawa, Kabupaten Ngada",NUSA TENGGARA TIMUR,86419.0,Indonesia,82266397945,,,-87.777.766,1.209.887.957,https://maps.google.com/?cid=0x0:0x1bebbd2301fe2c95,
supermarket,Restoran,MAIBETH RESTAURANT,"Jl. Ahmad Yani No.70, Tanalodu, Bajawa, Kabupaten Ngada, Nusa Tenggara Tim.","Kabupaten Ngada, Nusa Tenggara Tim.",NUSA TENGGARA TIMUR,,Indonesia,81338319349,,,-87.918.124,1.209.741.893,https://maps.google.com/?cid=0x0:0xe81b14e4190a7f5f,
supermarket,Indonesia,The Kartini Restaurant,"Jl. Kartini, Tanalodu, Bajawa, Kabupaten Ngada, Nusa Tenggara Tim. 86412","Tanalodu, Bajawa, Kabupaten Ngada",NUSA TENGGARA TIMUR,86412.0,Indonesia,82147420875,,,-87.917.707,1.209.710.705,https://maps.google.com/?cid=0x0:0x8bd11f1acad7c6e9,
supermarket,supermarket,,,,NUSA TENGGARA TIMUR,,Indonesia,,,,,,https://maps.google.com/?cid=0x0:0x243d0e511048d5feu0026onu003dMie+Ayamu0026midu003d/g/11pcpryn6l,
supermarket,supermarket,,,,NUSA TENGGARA TIMUR,,Indonesia,,,,,,https://maps.google.com/?cid=0x0:0x243d0e511048d5feu0026onu003dWedang+Rondeu0026midu003d/g/11pcpryn6l,
supermarket,supermarket,,,,NUSA TENGGARA TIMUR,,Indonesia,,,,,,https://maps.google.com/?cid=0x0:0x243d0e511048d5feu0026onu003dWedang+Uwoh+Segar+Hangat+Bikin+Badan+Segar+Capek+Hilangu0026midu003d/g/11pcpryn6l,
supermarket,supermarket,,,,NUSA TENGGARA TIMUR,,Indonesia,,,,,,https://maps.google.com/?cid=0x0:0x243d0e511048d5feu0026onu003dEs+Teh+Pociu0026midu003d/g/11pcpryn6l,
supermarket,supermarket,,,,NUSA TENGGARA TIMUR,,Indonesia,,,,,,https://maps.google.com/?cid=0x0:0x243d0e511048d5feu0026onu003dPuding+Coklat+Oreou0026midu003d/g/11pcpryn6l,
supermarket,supermarket,,,,NUSA TENGGARA TIMUR,,Indonesia,,,,,,https://maps.google.com/?cid=0x0:0x243d0e511048d5feu0026onu003dLumpia+Khas+Semarangu0026midu003d/g/11pcpryn6l,
supermarket,supermarket,,,,NUSA TENGGARA TIMUR,,Indonesia,,,,,,https://maps.google.com/?cid=0x0:0x243d0e511048d5feu0026onu0026midu003d/g/11pcpryn6l,
supermarket,supermarket,Nusa Tenggara Tim.,,Nusa Tenggara Tim.,NUSA TENGGARA TIMUR,,Indonesia,,,,-86.573.819,1.210.793.705,https://maps.google.com/?cid=0x0:0x1030bfbcaf71ae0,
supermarket,Toko bahan makanan,MINI MARKET IMANUEL,"Jl. Yos Soedarso No.9, Trikora, Bajawa, Kabupaten Ngada, Nusa Tenggara Tim.","Kabupaten Ngada, Nusa Tenggara Tim.",NUSA TENGGARA TIMUR,,Indonesia,82146226988,,,-87.866.037,1.209.705.853,https://maps.google.com/?cid=0x0:0xd4c0d3f24c778722,
supermarket,Toko,Sumber berkat mart,"6X7P+MJ9, Jl. R Soeprapto, Faobata, Bajawa, Kabupaten Ngada, Nusa Tenggara Tim.","Kabupaten Ngada, Nusa Tenggara Tim.",NUSA TENGGARA TIMUR,,Indonesia,,,,-87.858.013,1.209.870.347,https://maps.google.com/?cid=0x0:0x7ee63eafa77e70bc,
supermarket,Toserba,Supermarket Matahari,"pasar inpres naikoten No.1, Naikoten I, Kec. Kota Raja, Kota Kupang, Nusa Tenggara Tim. 85142","Naikoten I, Kec. Kota Raja, Kota Kupang",NUSA TENGGARA TIMUR,85142.0,Indonesia,,,,-101.813.187,1.236.009.175,https://maps.google.com/?cid=0x0:0x47fc92b423019c18,
supermarket,Toko Elektronik,Bajawa,"6X7H+9W2, Ngedukelu, Bajawa, Kabupaten Ngada, Nusa Tenggara Tim.","Kabupaten Ngada, Nusa Tenggara Tim.",NUSA TENGGARA TIMUR,,Indonesia,,,,-87.877.086,1.209.793.489,https://maps.google.com/?cid=0x0:0x6ddc69c337d15eb9,
supermarket,Pusat Perbelanjaan,Pasar Loak Bobou,"6X9V+V2, Faobata, Bajawa, Kabupaten Ngada, Nusa Tenggara Tim.","Kabupaten Ngada, Nusa Tenggara Tim.",NUSA TENGGARA TIMUR,,Indonesia,,,,-87.804.379,1.209.917.001,https://maps.google.com/?cid=0x0:0x1b849c6c4f226e8b,
supermarket,Indonesia,Bajawa Food Corner,"Kisanata, Bajawa, Kabupaten Ngada, Nusa Tenggara Tim.","Kabupaten Ngada, Nusa Tenggara Tim.",NUSA TENGGARA TIMUR,,Indonesia,81239950907,,,-87.874.331,1.209.730.135,https://maps.google.com/?cid=0x0:0x243d0e511048d5fe,
supermarket,Pasar Loak,Pasar Bobou,"6X9V+Q45, Bobou, Bajawa, Kabupaten Ngada, Nusa Tenggara Tim.","Kabupaten Ngada, Nusa Tenggara Tim.",NUSA TENGGARA TIMUR,,Indonesia,,,,-87.806.064,1.209.928.568,https://maps.google.com/?cid=0x0:0xb2b8c51efc95f28d,
supermarket,Kantor Pemerintah Kota,Bajawa Nusa tenggara timur,"6X56+369, Bajawa, Kabupaten Ngada, Nusa Tenggara Tim.","Kabupaten Ngada, Nusa Tenggara Tim.",NUSA TENGGARA TIMUR,,Indonesia,,,,-8.792.325,120.960.602,https://maps.google.com/?cid=0x0:0x6c5420c39c16889c,
supermarket,Kafe,GEG Fruits,"Jalan Brigjen Katamso No.10, Kota Baru, Kec. Kota Soe, Kabupaten Timor Tengah Selatan, Nusa Tenggara Tim.","Kabupaten Timor Tengah Selatan, Nusa Tenggara Tim.",NUSA TENGGARA TIMUR,,Indonesia,81337448475,,,-98.558.424,1.242.859.296,https://maps.google.com/?cid=0x0:0x2e4806cd77fbec58,
supermarket,supermarket,Bajawa,"Bajawa, Kabupaten Ngada, Nusa Tenggara Tim.","Kabupaten Ngada, Nusa Tenggara Tim.",NUSA TENGGARA TIMUR,,Indonesia,,,,-8.792.325,120.960.602,https://maps.google.com/?cid=0x0:0x3cbeacbc23e7d171,
supermarket,Toko bahan makanan,TOKO TUNAS KARYA,"Jl. R Soeprapto, Ngedukelu, Bajawa, Kabupaten Ngada, Nusa Tenggara Tim.","Kabupaten Ngada, Nusa Tenggara Tim.",NUSA TENGGARA TIMUR,,Indonesia,82144266277,,,-87.883.672,1.209.776.902,https://maps.google.com/?cid=0x0:0xaa2009e38676a0df,
supermarket,,Toko Mitra Usaha,"6X6C+RG6, Kisanata, Bajawa, Kabupaten Ngada, Nusa Tenggara Tim.","Kabupaten Ngada, Nusa Tenggara Tim.",NUSA TENGGARA TIMUR,,Indonesia,81237792655,,,-87.879.638,1.209.712.689,https://maps.google.com/?cid=0x0:0xcf146e3334cc7728,
supermarket,Toko,Toko Laris Bajawa,"6X5F+W6G, Jl. Budi Oetomo, Tanalodu, Bajawa, Kabupaten Ngada, Nusa Tenggara Tim.","Kabupaten Ngada, Nusa Tenggara Tim.",NUSA TENGGARA TIMUR,,Indonesia,82123564585,,,-87.901.979,1.209.730.731,https://maps.google.com/?cid=0x0:0xf904cf73665ceb9a,
supermarket,Toko,Toko Karmawan,"6X6F+W95, Ngedukelu, Bajawa, Kabupaten Ngada, Nusa Tenggara Tim.","Kabupaten Ngada, Nusa Tenggara Tim.",NUSA TENGGARA TIMUR,,Indonesia,38421152,,,-87.877.309,1.209.734.695,https://maps.google.com/?cid=0x0:0x2ab95337cf1aa2a9,
supermarket,Restoran,Bajawa Family Resto,"Jl. WJ Lalamentik, Faobata, Bajawa, Kabupaten Ngada, Nusa Tenggara Tim. 86419","Faobata, Bajawa, Kabupaten Ngada",NUSA TENGGARA TIMUR,86419.0,Indonesia,82266397945,,,-87.777.766,1.209.887.957,https://maps.google.com/?cid=0x0:0x1bebbd2301fe2c95,
supermarket,Restoran,MAIBETH RESTAURANT,"Jl. Ahmad Yani No.70, Tanalodu, Bajawa, Kabupaten Ngada, Nusa Tenggara Tim.","Kabupaten Ngada, Nusa Tenggara Tim.",NUSA TENGGARA TIMUR,,Indonesia,81338319349,,,-87.918.124,1.209.741.893,https://maps.google.com/?cid=0x0:0xe81b14e4190a7f5f,
supermarket,Indonesia,The Kartini Restaurant,"Jl. Kartini, Tanalodu, Bajawa, Kabupaten Ngada, Nusa Tenggara Tim. 86412","Tanalodu, Bajawa, Kabupaten Ngada",NUSA TENGGARA TIMUR,86412.0,Indonesia,82147420875,,,-87.917.707,1.209.710.705,https://maps.google.com/?cid=0x0:0x8bd11f1acad7c6e9,
supermarket,supermarket,,,,NUSA TENGGARA TIMUR,,Indonesia,,,,,,https://maps.google.com/?cid=0x0:0x243d0e511048d5feu0026onu003dMie+Ayamu0026midu003d/g/11pcpryn6l,
supermarket,supermarket,,,,NUSA TENGGARA TIMUR,,Indonesia,,,,,,https://maps.google.com/?cid=0x0:0x243d0e511048d5feu0026onu003dWedang+Rondeu0026midu003d/g/11pcpryn6l,
supermarket,supermarket,,,,NUSA TENGGARA TIMUR,,Indonesia,,,,,,https://maps.google.com/?cid=0x0:0x243d0e511048d5feu0026onu003dWedang+Uwoh+Segar+Hangat+Bikin+Badan+Segar+Capek+Hilangu0026midu003d/g/11pcpryn6l,
supermarket,supermarket,,,,NUSA TENGGARA TIMUR,,Indonesia,,,,,,https://maps.google.com/?cid=0x0:0x243d0e511048d5feu0026onu003dEs+Teh+Pociu0026midu003d/g/11pcpryn6l,
supermarket,supermarket,,,,NUSA TENGGARA TIMUR,,Indonesia,,,,,,https://maps.google.com/?cid=0x0:0x243d0e511048d5feu0026onu003dPuding+Coklat+Oreou0026midu003d/g/11pcpryn6l,
supermarket,supermarket,,,,NUSA TENGGARA TIMUR,,Indonesia,,,,,,https://maps.google.com/?cid=0x0:0x243d0e511048d5feu0026onu003dLumpia+Khas+Semarangu0026midu003d/g/11pcpryn6l,
supermarket,supermarket,,,,NUSA TENGGARA TIMUR,,Indonesia,,,,,,https://maps.google.com/?cid=0x0:0x243d0e511048d5feu0026onu0026midu003d/g/11pcpryn6l,
supermarket,supermarket,Nusa Tenggara Tim.,,Nusa Tenggara Tim.,NUSA TENGGARA TIMUR,,Indonesia,,,,-86.573.819,1.210.793.705,https://maps.google.com/?cid=0x0:0x1030bfbcaf71ae0,
supermarket,Toko,Sinar Harapan,"6X9J+F64, Watujaji, Bajawa, Kabupaten Ngada, Nusa Tenggara Tim.","Kabupaten Ngada, Nusa Tenggara Tim.",NUSA TENGGARA TIMUR,,Indonesia,,,,-87.813.504,1.209.805.866,https://maps.google.com/?cid=0x0:0xc143fb9f83e22c94,
supermarket,Minimarket,Alfamart Soa Bajawa,"822M+CMV, Waepana, Kec. Soa, Kabupaten Ngada, Nusa Tenggara Tim.","Kabupaten Ngada, Nusa Tenggara Tim.",NUSA TENGGARA TIMUR,,Indonesia,,,,-86.988.497,1.210.343.167,https://maps.google.com/?cid=0x0:0x8f666099a68e06fe,
supermarket,Toko bahan makanan,TOKO TUNAS KARYA,"Jl. R Soeprapto, Ngedukelu, Bajawa, Kabupaten Ngada, Nusa Tenggara Tim.","Kabupaten Ngada, Nusa Tenggara Tim.",NUSA TENGGARA TIMUR,,Indonesia,82144266277,,,-87.883.672,1.209.776.902,https://maps.google.com/?cid=0x0:0xaa2009e38676a0df,
supermarket,,IBEMART TANALODU,"6X5G+JQV, Tanalodu, Bajawa, Kabupaten Ngada, Nusa Tenggara Tim.","Kabupaten Ngada, Nusa Tenggara Tim.",NUSA TENGGARA TIMUR,,Indonesia,82288885648,,,-87.908.834,1.209.769.064,https://maps.google.com/?cid=0x0:0x9106a78655fee16d,
supermarket,Toko,Sumber berkat mart,"6X7P+MJ9, Jl. R Soeprapto, Faobata, Bajawa, Kabupaten Ngada, Nusa Tenggara Tim.","Kabupaten Ngada, Nusa Tenggara Tim.",NUSA TENGGARA TIMUR,,Indonesia,,,,-87.858.013,1.209.870.347,https://maps.google.com/?cid=0x0:0x7ee63eafa77e70bc,
supermarket,Toko,Alfamart D.I Panjaitan Bajawa,"6X8F+PCF, Jl. Mayjend D.I. Panjaitan, Trikora, Bajawa, Kabupaten Ngada, Nusa Tenggara Tim.","Kabupaten Ngada, Nusa Tenggara Tim.",NUSA TENGGARA TIMUR,,Indonesia,,,,-87.831.927,1.209.735.475,https://maps.google.com/?cid=0x0:0x5091b941dd8a34c9,
supermarket,Toserba,Supermarket Matahari,"pasar inpres naikoten No.1, Naikoten I, Kec. Kota Raja, Kota Kupang, Nusa Tenggara Tim. 85142","Naikoten I, Kec. Kota Raja, Kota Kupang",NUSA TENGGARA TIMUR,85142.0,Indonesia,,,,-101.813.187,1.236.009.175,https://maps.google.com/?cid=0x0:0x47fc92b423019c18,
supermarket,Toko Elektronik,Bajawa,"6X7H+9W2, Ngedukelu, Bajawa, Kabupaten Ngada, Nusa Tenggara Tim.","Kabupaten Ngada, Nusa Tenggara Tim.",NUSA TENGGARA TIMUR,,Indonesia,,,,-87.877.086,1.209.793.489,https://maps.google.com/?cid=0x0:0x6ddc69c337d15eb9,
supermarket,Pusat Perbelanjaan,Pasar Loak Bobou,"6X9V+V2, Faobata, Bajawa, Kabupaten Ngada, Nusa Tenggara Tim.","Kabupaten Ngada, Nusa Tenggara Tim.",NUSA TENGGARA TIMUR,,Indonesia,,,,-87.804.379,1.209.917.001,https://maps.google.com/?cid=0x0:0x1b849c6c4f226e8b,
supermarket,Toko,Toko Laris Bajawa,"6X5F+W6G, Jl. Budi Oetomo, Tanalodu, Bajawa, Kabupaten Ngada, Nusa Tenggara Tim.","Kabupaten Ngada, Nusa Tenggara Tim.",NUSA TENGGARA TIMUR,,Indonesia,82123564585,,,-87.901.979,1.209.730.731,https://maps.google.com/?cid=0x0:0xf904cf73665ceb9a,
supermarket,Indonesia,Bajawa Food Corner,"Kisanata, Bajawa, Kabupaten Ngada, Nusa Tenggara Tim.","Kabupaten Ngada, Nusa Tenggara Tim.",NUSA TENGGARA TIMUR,,Indonesia,81239950907,,,-87.874.331,1.209.730.135,https://maps.google.com/?cid=0x0:0x243d0e511048d5fe,
supermarket,supermarket,Bajawa,"Bajawa, Kabupaten Ngada, Nusa Tenggara Tim.","Kabupaten Ngada, Nusa Tenggara Tim.",NUSA TENGGARA TIMUR,,Indonesia,,,,-8.792.325,120.960.602,https://maps.google.com/?cid=0x0:0x3cbeacbc23e7d171,
supermarket,Toko,Alfamart Ahmad Yani Bajawa,"6X7F+6JJ, Jl. Gajah Mada, Ngedukelu, Bajawa, Kabupaten Ngada, Nusa Tenggara Tim.","Kabupaten Ngada, Nusa Tenggara Tim.",NUSA TENGGARA TIMUR,,Indonesia,,,,-87.916.234,1.209.754.567,https://maps.google.com/?cid=0x0:0x57cfe81e052a2b2c,
supermarket,Toko,Kios Mama Yanti,"Jl. WJ Lalamentik, Faobata, Bajawa, Kabupaten Ngada, Nusa Tenggara Tim. 86413","Faobata, Bajawa, Kabupaten Ngada",NUSA TENGGARA TIMUR,86413.0,Indonesia,81338702630,,,-87.840.905,1.209.884.525,https://maps.google.com/?cid=0x0:0xf161dcfaf5ba655c,
supermarket,supermarket,Nusa Tenggara Tim.,,Nusa Tenggara Tim.,NUSA TENGGARA TIMUR,,Indonesia,,,,-86.573.819,1.210.793.705,https://maps.google.com/?cid=0x0:0x1030bfbcaf71ae0,
supermarket,Toko,Sinar Harapan,"6X9J+F64, Watujaji, Bajawa, Kabupaten Ngada, Nusa Tenggara Tim.","Kabupaten Ngada, Nusa Tenggara Tim.",NUSA TENGGARA TIMUR,,Indonesia,,,,-87.813.504,1.209.805.866,https://maps.google.com/?cid=0x0:0xc143fb9f83e22c94,
supermarket,Minimarket,Alfamart Soa Bajawa,"822M+CMV, Waepana, Kec. Soa, Kabupaten Ngada, Nusa Tenggara Tim.","Kabupaten Ngada, Nusa Tenggara Tim.",NUSA TENGGARA TIMUR,,Indonesia,,,,-86.988.497,1.210.343.167,https://maps.google.com/?cid=0x0:0x8f666099a68e06fe,
supermarket,Toko bahan makanan,MINI MARKET IMANUEL,"Jl. Yos Soedarso No.9, Trikora, Bajawa, Kabupaten Ngada, Nusa Tenggara Tim.","Kabupaten Ngada, Nusa Tenggara Tim.",NUSA TENGGARA TIMUR,,Indonesia,82146226988,,,-87.866.037,1.209.705.853,https://maps.google.com/?cid=0x0:0xd4c0d3f24c778722,
supermarket,Toko,Kios Mama Yanti,"Jl. WJ Lalamentik, Faobata, Bajawa, Kabupaten Ngada, Nusa Tenggara Tim. 86413","Faobata, Bajawa, Kabupaten Ngada",NUSA TENGGARA TIMUR,86413.0,Indonesia,81338702630,,,-87.840.905,1.209.884.525,https://maps.google.com/?cid=0x0:0xf161dcfaf5ba655c,
supermarket,Toko bahan makanan,TOKO TUNAS KARYA,"Jl. R Soeprapto, Ngedukelu, Bajawa, Kabupaten Ngada, Nusa Tenggara Tim.","Kabupaten Ngada, Nusa Tenggara Tim.",NUSA TENGGARA TIMUR,,Indonesia,82144266277,,,-87.883.672,1.209.776.902,https://maps.google.com/?cid=0x0:0xaa2009e38676a0df,
supermarket,Toko,Alfamart D.I Panjaitan Bajawa,"6X8F+PCF, Jl. Mayjend D.I. Panjaitan, Trikora, Bajawa, Kabupaten Ngada, Nusa Tenggara Tim.","Kabupaten Ngada, Nusa Tenggara Tim.",NUSA TENGGARA TIMUR,,Indonesia,,,,-87.831.927,1.209.735.475,https://maps.google.com/?cid=0x0:0x5091b941dd8a34c9,
supermarket,Toko,Sumber berkat mart,"6X7P+MJ9, Jl. R Soeprapto, Faobata, Bajawa, Kabupaten Ngada, Nusa Tenggara Tim.","Kabupaten Ngada, Nusa Tenggara Tim.",NUSA TENGGARA TIMUR,,Indonesia,,,,-87.858.013,1.209.870.347,https://maps.google.com/?cid=0x0:0x7ee63eafa77e70bc,
supermarket,Toserba,Supermarket Matahari,"pasar inpres naikoten No.1, Naikoten I, Kec. Kota Raja, Kota Kupang, Nusa Tenggara Tim. 85142","Naikoten I, Kec. Kota Raja, Kota Kupang",NUSA TENGGARA TIMUR,85142.0,Indonesia,,,,-101.813.187,1.236.009.175,https://maps.google.com/?cid=0x0:0x47fc92b423019c18,
supermarket,Toko Elektronik,Bajawa,"6X7H+9W2, Ngedukelu, Bajawa, Kabupaten Ngada, Nusa Tenggara Tim.","Kabupaten Ngada, Nusa Tenggara Tim.",NUSA TENGGARA TIMUR,,Indonesia,,,,-87.877.086,1.209.793.489,https://maps.google.com/?cid=0x0:0x6ddc69c337d15eb9,
supermarket,Pusat Perbelanjaan,Pasar Loak Bobou,"6X9V+V2, Faobata, Bajawa, Kabupaten Ngada, Nusa Tenggara Tim.","Kabupaten Ngada, Nusa Tenggara Tim.",NUSA TENGGARA TIMUR,,Indonesia,,,,-87.804.379,1.209.917.001,https://maps.google.com/?cid=0x0:0x1b849c6c4f226e8b,
supermarket,Indonesia,Bajawa Food Corner,"Kisanata, Bajawa, Kabupaten Ngada, Nusa Tenggara Tim.","Kabupaten Ngada, Nusa Tenggara Tim.",NUSA TENGGARA TIMUR,,Indonesia,81239950907,,,-87.874.331,1.209.730.135,https://maps.google.com/?cid=0x0:0x243d0e511048d5fe,
supermarket,supermarket,Bajawa,"Bajawa, Kabupaten Ngada, Nusa Tenggara Tim.","Kabupaten Ngada, Nusa Tenggara Tim.",NUSA TENGGARA TIMUR,,Indonesia,,,,-8.792.325,120.960.602,https://maps.google.com/?cid=0x0:0x3cbeacbc23e7d171,
supermarket,Restoran,Bajawa Family Resto,"Jl. WJ Lalamentik, Faobata, Bajawa, Kabupaten Ngada, Nusa Tenggara Tim. 86419","Faobata, Bajawa, Kabupaten Ngada",NUSA TENGGARA TIMUR,86419.0,Indonesia,82266397945,,,-87.777.766,1.209.887.957,https://maps.google.com/?cid=0x0:0x1bebbd2301fe2c95,
supermarket,Restoran,MAIBETH RESTAURANT,"Jl. Ahmad Yani No.70, Tanalodu, Bajawa, Kabupaten Ngada, Nusa Tenggara Tim.","Kabupaten Ngada, Nusa Tenggara Tim.",NUSA TENGGARA TIMUR,,Indonesia,81338319349,,,-87.918.124,1.209.741.893,https://maps.google.com/?cid=0x0:0xe81b14e4190a7f5f,
supermarket,Indonesia,The Kartini Restaurant,"Jl. Kartini, Tanalodu, Bajawa, Kabupaten Ngada, Nusa Tenggara Tim. 86412","Tanalodu, Bajawa, Kabupaten Ngada",NUSA TENGGARA TIMUR,86412.0,Indonesia,82147420875,,,-87.917.707,1.209.710.705,https://maps.google.com/?cid=0x0:0x8bd11f1acad7c6e9,
supermarket,supermarket,,,,NUSA TENGGARA TIMUR,,Indonesia,,,,,,https://maps.google.com/?cid=0x0:0x243d0e511048d5feu0026onu003dMie+Ayamu0026midu003d/g/11pcpryn6l,
supermarket,supermarket,,,,NUSA TENGGARA TIMUR,,Indonesia,,,,,,https://maps.google.com/?cid=0x0:0x243d0e511048d5feu0026onu003dWedang+Rondeu0026midu003d/g/11pcpryn6l,
supermarket,supermarket,,,,NUSA TENGGARA TIMUR,,Indonesia,,,,,,https://maps.google.com/?cid=0x0:0x243d0e511048d5feu0026onu003dWedang+Uwoh+Segar+Hangat+Bikin+Badan+Segar+Capek+Hilangu0026midu003d/g/11pcpryn6l,
supermarket,supermarket,,,,NUSA TENGGARA TIMUR,,Indonesia,,,,,,https://maps.google.com/?cid=0x0:0x243d0e511048d5feu0026onu003dEs+Teh+Pociu0026midu003d/g/11pcpryn6l,
supermarket,supermarket,,,,NUSA TENGGARA TIMUR,,Indonesia,,,,,,https://maps.google.com/?cid=0x0:0x243d0e511048d5feu0026onu003dPuding+Coklat+Oreou0026midu003d/g/11pcpryn6l,
supermarket,supermarket,,,,NUSA TENGGARA TIMUR,,Indonesia,,,,,,https://maps.google.com/?cid=0x0:0x243d0e511048d5feu0026onu003dLumpia+Khas+Semarangu0026midu003d/g/11pcpryn6l,
supermarket,supermarket,,,,NUSA TENGGARA TIMUR,,Indonesia,,,,,,https://maps.google.com/?cid=0x0:0x243d0e511048d5feu0026onu0026midu003d/g/11pcpryn6l,
supermarket,supermarket,Nusa Tenggara Tim.,,Nusa Tenggara Tim.,NUSA TENGGARA TIMUR,,Indonesia,,,,-86.573.819,1.210.793.705,https://maps.google.com/?cid=0x0:0x1030bfbcaf71ae0,
supermarket,Toko bahan makanan,MINI MARKET IMANUEL,"Jl. Yos Soedarso No.9, Trikora, Bajawa, Kabupaten Ngada, Nusa Tenggara Tim.","Kabupaten Ngada, Nusa Tenggara Tim.",NUSA TENGGARA TIMUR,,Indonesia,82146226988,,,-87.866.037,1.209.705.853,https://maps.google.com/?cid=0x0:0xd4c0d3f24c778722,
supermarket,Toko,Sumber berkat mart,"6X7P+MJ9, Jl. R Soeprapto, Faobata, Bajawa, Kabupaten Ngada, Nusa Tenggara Tim.","Kabupaten Ngada, Nusa Tenggara Tim.",NUSA TENGGARA TIMUR,,Indonesia,,,,-87.858.013,1.209.870.347,https://maps.google.com/?cid=0x0:0x7ee63eafa77e70bc,
supermarket,Indonesia,Bajawa Food Corner,"Kisanata, Bajawa, Kabupaten Ngada, Nusa Tenggara Tim.","Kabupaten Ngada, Nusa Tenggara Tim.",NUSA TENGGARA TIMUR,,Indonesia,81239950907,,,-87.874.331,1.209.730.135,https://maps.google.com/?cid=0x0:0x243d0e511048d5fe,
supermarket,Pasar Loak,Pasar Bobou,"6X9V+Q45, Bobou, Bajawa, Kabupaten Ngada, Nusa Tenggara Tim.","Kabupaten Ngada, Nusa Tenggara Tim.",NUSA TENGGARA TIMUR,,Indonesia,,,,-87.806.064,1.209.928.568,https://maps.google.com/?cid=0x0:0xb2b8c51efc95f28d,
supermarket,Toserba,Supermarket Matahari,"pasar inpres naikoten No.1, Naikoten I, Kec. Kota Raja, Kota Kupang, Nusa Tenggara Tim. 85142","Naikoten I, Kec. Kota Raja, Kota Kupang",NUSA TENGGARA TIMUR,85142.0,Indonesia,,,,-101.813.187,1.236.009.175,https://maps.google.com/?cid=0x0:0x47fc92b423019c18,
supermarket,Kantor Pemerintah Kota,Bajawa Nusa tenggara timur,"6X56+369, Bajawa, Kabupaten Ngada, Nusa Tenggara Tim.","Kabupaten Ngada, Nusa Tenggara Tim.",NUSA TENGGARA TIMUR,,Indonesia,,,,-8.792.325,120.960.602,https://maps.google.com/?cid=0x0:0x6c5420c39c16889c,
supermarket,supermarket,Bajawa,"Bajawa, Kabupaten Ngada, Nusa Tenggara Tim.","Kabupaten Ngada, Nusa Tenggara Tim.",NUSA TENGGARA TIMUR,,Indonesia,,,,-8.792.325,120.960.602,https://maps.google.com/?cid=0x0:0x3cbeacbc23e7d171,
supermarket,Toko,Sinar Harapan,"6X9J+F64, Watujaji, Bajawa, Kabupaten Ngada, Nusa Tenggara Tim.","Kabupaten Ngada, Nusa Tenggara Tim.",NUSA TENGGARA TIMUR,,Indonesia,,,,-87.813.504,1.209.805.866,https://maps.google.com/?cid=0x0:0xc143fb9f83e22c94,
supermarket,Restoran,Bajawa Family Resto,"Jl. WJ Lalamentik, Faobata, Bajawa, Kabupaten Ngada, Nusa Tenggara Tim. 86419","Faobata, Bajawa, Kabupaten Ngada",NUSA TENGGARA TIMUR,86419.0,Indonesia,82266397945,,,-87.777.766,1.209.887.957,https://maps.google.com/?cid=0x0:0x1bebbd2301fe2c95,
supermarket,Restoran,MAIBETH RESTAURANT,"Jl. Ahmad Yani No.70, Tanalodu, Bajawa, Kabupaten Ngada, Nusa Tenggara Tim.","Kabupaten Ngada, Nusa Tenggara Tim.",NUSA TENGGARA TIMUR,,Indonesia,81338319349,,,-87.918.124,1.209.741.893,https://maps.google.com/?cid=0x0:0xe81b14e4190a7f5f,
supermarket,Indonesia,The Kartini Restaurant,"Jl. Kartini, Tanalodu, Bajawa, Kabupaten Ngada, Nusa Tenggara Tim. 86412","Tanalodu, Bajawa, Kabupaten Ngada",NUSA TENGGARA TIMUR,86412.0,Indonesia,82147420875,,,-87.917.707,1.209.710.705,https://maps.google.com/?cid=0x0:0x8bd11f1acad7c6e9,
supermarket,supermarket,,,,NUSA TENGGARA TIMUR,,Indonesia,,,,,,https://maps.google.com/?cid=0x0:0x243d0e511048d5feu0026onu003dMie+Ayamu0026midu003d/g/11pcpryn6l,
supermarket,supermarket,,,,NUSA TENGGARA TIMUR,,Indonesia,,,,,,https://maps.google.com/?cid=0x0:0x243d0e511048d5feu0026onu003dWedang+Rondeu0026midu003d/g/11pcpryn6l,
supermarket,supermarket,,,,NUSA TENGGARA TIMUR,,Indonesia,,,,,,https://maps.google.com/?cid=0x0:0x243d0e511048d5feu0026onu003dWedang+Uwoh+Segar+Hangat+Bikin+Badan+Segar+Capek+Hilangu0026midu003d/g/11pcpryn6l,
supermarket,supermarket,,,,NUSA TENGGARA TIMUR,,Indonesia,,,,,,https://maps.google.com/?cid=0x0:0x243d0e511048d5feu0026onu003dEs+Teh+Pociu0026midu003d/g/11pcpryn6l,
supermarket,supermarket,,,,NUSA TENGGARA TIMUR,,Indonesia,,,,,,https://maps.google.com/?cid=0x0:0x243d0e511048d5feu0026onu003dPuding+Coklat+Oreou0026midu003d/g/11pcpryn6l,
supermarket,supermarket,,,,NUSA TENGGARA TIMUR,,Indonesia,,,,,,https://maps.google.com/?cid=0x0:0x243d0e511048d5feu0026onu003dLumpia+Khas+Semarangu0026midu003d/g/11pcpryn6l,
supermarket,supermarket,,,,NUSA TENGGARA TIMUR,,Indonesia,,,,,,https://maps.google.com/?cid=0x0:0x243d0e511048d5feu0026onu0026midu003d/g/11pcpryn6l,
supermarket,supermarket,Kec. Soa,"Kabupaten Ngada, Nusa Tenggara Tim.","Kabupaten Ngada, Nusa Tenggara Tim.",NUSA TENGGARA TIMUR,,Indonesia,,,,-86.991.961,1.210.341.254,https://maps.google.com/?cid=0x0:0xa0e2c22221dea3ea,
supermarket,Toko Buah dan Sayuran,Toko Suasana Baru,"822P+WQR, Waepana, Kec. Soa, Kabupaten Ngada, Nusa Tenggara Tim.","Kabupaten Ngada, Nusa Tenggara Tim.",NUSA TENGGARA TIMUR,,Indonesia,,,,-86.976.258,1.210.368.954,https://maps.google.com/?cid=0x0:0x9c642fd62057f5ca,
supermarket,Toko bahan makanan,KIOS ORIN MEO,"724R+HV2, Waero, Tarawaja, Kec. Soa, Kabupaten Ngada, Nusa Tenggara Tim.","Kabupaten Ngada, Nusa Tenggara Tim.",NUSA TENGGARA TIMUR,,Indonesia,,,,-87.436.048,1.210.421.561,https://maps.google.com/?cid=0x0:0xe077c76b91979f7d,
supermarket,Minimarket,Alfamart Soa Bajawa,"822M+CMV, Waepana, Kec. Soa, Kabupaten Ngada, Nusa Tenggara Tim.","Kabupaten Ngada, Nusa Tenggara Tim.",NUSA TENGGARA TIMUR,,Indonesia,,,,-86.988.497,1.210.343.167,https://maps.google.com/?cid=0x0:0x8f666099a68e06fe,
supermarket,Klub Olahraga,Lapangan pacu kuda,"72HX+MRQ, Loa, Kec. Soa, Kabupaten Ngada, Nusa Tenggara Tim.","Kabupaten Ngada, Nusa Tenggara Tim.",NUSA TENGGARA TIMUR,,Indonesia,,,,-87.207.926,1.210.496.106,https://maps.google.com/?cid=0x0:0xaddd0fa8cbd27864,
supermarket,Toko Swalayan,KUD Pelipedha/Co-op Mart Boawae,"65PC+25V, Natanage Tim., Kec. Boawae, Kabupaten Nagekeo, Nusa Tenggara Tim.","Kabupaten Nagekeo, Nusa Tenggara Tim.",NUSA TENGGARA TIMUR,,Indonesia,,,,-87.648.842,1.211.704.178,https://maps.google.com/?cid=0x0:0x52079c37eebaded,
supermarket,Minimarket,ALFAMART YOHANES,"Jln.yohanes, Nginamanu, Kec. Wolomeze, Taworara, Nusa Tenggara Tim. 23671","Nginamanu, Kec. Wolomeze, Taworara",NUSA TENGGARA TIMUR,23671.0,Indonesia,,,,-86.573.819,1.210.793.705,https://maps.google.com/?cid=0x0:0x8059ec176891f2ac,
supermarket,Toko Barang Oriental,Kios Era Mandiri Masu Kedhi,"Masu Kedhi, Masumeli, Kec. Soa, Kabupaten Ngada, Nusa Tenggara Tim.","Kabupaten Ngada, Nusa Tenggara Tim.",NUSA TENGGARA TIMUR,,Indonesia,81237510995,,,-87.147.497,1.210.416.136,https://maps.google.com/?cid=0x0:0xb3dc66e715c27e48,
supermarket,Toko umum,Kios AA,"65Q8+MF3, Natanage, Kec. Boawae, Kabupaten Nagekeo, Nusa Tenggara Tim.","Kabupaten Nagekeo, Nusa Tenggara Tim.",NUSA TENGGARA TIMUR,,Indonesia,,,,-87.608.511,1.211.661.691,https://maps.google.com/?cid=0x0:0x6609d4afd27c71b8,
supermarket,Minimarket,Toko Pelangi Boawae,"RT 10 Hobo B, Natanage, Kec. Boawae, Kabupaten Nagekeo, Nusa Tenggara Tim. 86462","Natanage, Kec. Boawae, Kabupaten Nagekeo",NUSA TENGGARA TIMUR,86462.0,Indonesia,81236633060,,,-87.642.665,1.211.642.584,https://maps.google.com/?cid=0x0:0x76b11e8158289669,
supermarket,Pusat Perbelanjaan,LYON NUSANTARA SUPER MARKET,"9754+5H3, Kamalaputi, Kec. Kota Waingapu, Kabupaten Sumba Timur, Nusa Tenggara Tim.","Kabupaten Sumba Timur, Nusa Tenggara Tim.",NUSA TENGGARA TIMUR,,Indonesia,,,,-96.421.199,1.202.564.251,https://maps.google.com/?cid=0x0:0xf39f6f3279d31f50,
supermarket,Toko bahan makanan,Wijaya Swalayan- Soe - NTT,"Jl. Ahmad Yani, So'e, Kec. Kota Soe, Kabupaten Timor Tengah Selatan, Nusa Tenggara Tim. 85511","So'e, Kec. Kota Soe, Kabupaten Timor Tengah Selatan",NUSA TENGGARA TIMUR,85511.0,Indonesia,,,,-98.650.813,1.242.803.863,https://maps.google.com/?cid=0x0:0xa512951364393ddb,
supermarket,Toserba,Supermarket Matahari,"pasar inpres naikoten No.1, Naikoten I, Kec. Kota Raja, Kota Kupang, Nusa Tenggara Tim. 85142","Naikoten I, Kec. Kota Raja, Kota Kupang",NUSA TENGGARA TIMUR,85142.0,Indonesia,,,,-101.813.187,1.236.009.175,https://maps.google.com/?cid=0x0:0x47fc92b423019c18,
supermarket,Toko,Kios Bp. Siprianus Ngala,"72VX+8XF, Masumeli, Kec. Soa, Kabupaten Ngada, Nusa Tenggara Tim.","Kabupaten Ngada, Nusa Tenggara Tim.",NUSA TENGGARA TIMUR,,Indonesia,,,,-8.706.682,1.210.499.302,https://maps.google.com/?cid=0x0:0x144b428f3494e8ba,
supermarket,supermarket,Nusa Tenggara Tim.,,Nusa Tenggara Tim.,NUSA TENGGARA TIMUR,,Indonesia,,,,-86.573.819,1.210.793.705,https://maps.google.com/?cid=0x0:0x1030bfbcaf71ae0,
supermarket,Pusat Perbelanjaan,LYON NUSANTARA SUPER MARKET,"9754+5H3, Kamalaputi, Kec. Kota Waingapu, Kabupaten Sumba Timur, Nusa Tenggara Tim.","Kabupaten Sumba Timur, Nusa Tenggara Tim.",NUSA TENGGARA TIMUR,,Indonesia,,,,-96.421.199,1.202.564.251,https://maps.google.com/?cid=0x0:0xf39f6f3279d31f50,
supermarket,Toserba,Supermarket Matahari,"pasar inpres naikoten No.1, Naikoten I, Kec. Kota Raja, Kota Kupang, Nusa Tenggara Tim. 85142","Naikoten I, Kec. Kota Raja, Kota Kupang",NUSA TENGGARA TIMUR,85142.0,Indonesia,,,,-101.813.187,1.236.009.175,https://maps.google.com/?cid=0x0:0x47fc92b423019c18,
supermarket,Toko,ULVA MART OESAPA GROSIR  ECER,"Oesapa, Kec. Klp. Lima, Kota Kupang, Nusa Tenggara Tim.","Kota Kupang, Nusa Tenggara Tim.",NUSA TENGGARA TIMUR,,Indonesia,85333462848,,,-101.476.004,1.236.516.032,https://maps.google.com/?cid=0x0:0x6d617ed22e55ddf4,
supermarket,Toko Daging,CV. Multi Prima Bhakti,"C7QF+G9C, Danga, Kec. Aesesa, Kabupaten Nagekeo, Nusa Tenggara Tim.","Kabupaten Nagekeo, Nusa Tenggara Tim.",NUSA TENGGARA TIMUR,,Indonesia,85179686808,,,-85.613.508,121.273.215,https://maps.google.com/?cid=0x0:0xb52cab2f90afff9b,
supermarket,Toko Pertanian,CV Multi Prima Bhakti,"Jl. A. Yani No.68, Merdeka, Kec. Kota Lama, Kota Kupang, Nusa Tenggara Tim.","Kota Kupang, Nusa Tenggara Tim.",NUSA TENGGARA TIMUR,,Indonesia,81335117505,,,-101.608.699,1.235.851.622,https://maps.google.com/?cid=0x0:0x21ae9028f2f5af6a,
supermarket,Pertanian Organik,GS Organik,"RMQR+347, Jl. Nome Laktosi Desa, RT.023/RW.007, Penfui Tim., Kec. Kupang Tengah, Kabupaten Kupang, Nusa Tenggara Tim. 85361","Jl. Nome Laktosi Desa, RT.023/RW.007, Penfui Tim., Kec. Kupang Tengah, Kabupaten Kupang",NUSA TENGGARA TIMUR,85361.0,Indonesia,81337272946,,,-10.162.349,12.369.029,https://maps.google.com/?cid=0x0:0xf84662a49d37367e,
supermarket,Pusat Perbelanjaan,Niaga Supermarket Adisucipto,"Jl. Adi Sucipto, Ampenan Utara, Kec. Ampenan, Kota Mataram, Nusa Tenggara Bar. 83111","Ampenan Utara, Kec. Ampenan, Kota Mataram",NUSA TENGGARA TIMUR,83111.0,Indonesia,370625907,,,-85.656.447,1.160.881.619,https://maps.google.com/?cid=0x0:0x990fde18fb3fe8d1,
supermarket,Kios,Kios Merlin Bakunase,"RH8Q+WQR, Air Nona, Kec. Kota Raja, Kota Kupang, Nusa Tenggara Tim.","Kota Kupang, Nusa Tenggara Tim.",NUSA TENGGARA TIMUR,,Indonesia,85253457167,,,-101.826.313,1.235.893.769,https://maps.google.com/?cid=0x0:0x3a8c0547ffa8fec4,
supermarket,Pusat Perbelanjaan,Lyonmart Supermarket,"Jl. Yos Sudarso No.31, Kamalaputi, Kec. Kota Waingapu, Kabupaten Sumba Timur, Nusa Tenggara Tim.","Kabupaten Sumba Timur, Nusa Tenggara Tim.",NUSA TENGGARA TIMUR,,Indonesia,,,,-96.421.055,1.202.564.121,https://maps.google.com/?cid=0x0:0x3e1e085bee0f151b,
supermarket,Pusat Perbelanjaan,IKENNA SHOP,"RWW9+56C, Gading Nias Apartemen tower emerald lobby T, Jl. Pegangsaan Dua, RT.13/RW.3, Pegangsaan Dua, Kec. Klp. Gading, Jkt Utara, Daerah Khusus Ibukota Jakarta 14250","Gading Nias Apartemen tower emerald lobby T, Jl. Pegangsaan Dua, RT.13/RW.3, Pegangsaan Dua, Kec. Klp. Gading, Jkt Utara",NUSA TENGGARA TIMUR,14250.0,Indonesia,"8,95333E+11",,,-61.545.572,1.069.180.112,https://maps.google.com/?cid=0x0:0xa9967c9000a8535e,
supermarket,Pusat Perbelanjaan,Toko Ebirim,"NL 8 kiosk Dhalia tower Gading Nias, Jl. Gading Nias Timur 3, RT.13/RW.3, Pegangsaan Dua, Kelapa Gading, North Jakarta City, Jakarta 14250","Jl. Gading Nias Timur 3, RT.13/RW.3, Pegangsaan Dua, Kelapa Gading, North Jakarta City",NUSA TENGGARA TIMUR,14250.0,Indonesia,85846888858,,,-61.541.172,1.069.181.586,https://maps.google.com/?cid=0x0:0x1d1745957693ce0,
supermarket,supermarket,Kec. Jerebuu,"Kabupaten Ngada, Nusa Tenggara Tim.","Kabupaten Ngada, Nusa Tenggara Tim.",NUSA TENGGARA TIMUR,,Indonesia,,,,-88.964.289,1.209.972.433,https://maps.google.com/?cid=0x0:0x39c158f74ac29cdb,
supermarket,Minimarket,Kim yohano,"4XQC+4J8, Tiworiwu, Kec. Jerebuu, Kabupaten Ngada, Nusa Tenggara Tim.","Kabupaten Ngada, Nusa Tenggara Tim.",NUSA TENGGARA TIMUR,,Indonesia,,,,-88.622.079,1.209.715.775,https://maps.google.com/?cid=0x0:0xc3a0c2b7a0c64be1,
supermarket,Toko bahan makanan,KAREMPENG 99,"4253+5P5, Dariwali, Kec. Jerebuu, Kabupaten Ngada, Nusa Tenggara Tim.","Kabupaten Ngada, Nusa Tenggara Tim.",NUSA TENGGARA TIMUR,,Indonesia,,,,-88.909.934,1.210.042.937,https://maps.google.com/?cid=0x0:0x75e315af8a464232,
supermarket,Pusat Perbelanjaan,UD. DAMAIANGROUP,"RT.006 RW.002 Dusun Nunu, Kelitei, Kec. Inerie, Kabupaten Ngada, Nusa Tenggara Tim. 86452","Kelitei, Kec. Inerie, Kabupaten Ngada",NUSA TENGGARA TIMUR,86452.0,Indonesia,82312450340,,,-89.328.581,120.936.864,https://maps.google.com/?cid=0x0:0x150d87f802631015,
supermarket,supermarket,Kec. Riung Bar.,"Kabupaten Ngada, Nusa Tenggara Tim.","Kabupaten Ngada, Nusa Tenggara Tim.",NUSA TENGGARA TIMUR,,Indonesia,,,,-85.210.715,120.949.077,https://maps.google.com/?cid=0x0:0x457d9b30e57a9ad3,
supermarket,Toko Swalayan,Toko Sinar Harapan,"CV2R+CGH, Unnamed Road, Benteng Tawa, Kec. Riung Bar., Kabupaten Ngada, Nusa Tenggara Tim.","Kabupaten Ngada, Nusa Tenggara Tim.",NUSA TENGGARA TIMUR,,Indonesia,85237869837,,,-8.598.942,1.208.913.684,https://maps.google.com/?cid=0x0:0x5e2d31a846f6115,
supermarket,Kios,MM Loti,"FVHM+R67, Lanamai, Kec. Riung Bar., Kabupaten Ngada, Nusa Tenggara Tim.","Kabupaten Ngada, Nusa Tenggara Tim.",NUSA TENGGARA TIMUR,,Indonesia,,,,-85.204.672,120.883.032,https://maps.google.com/?cid=0x0:0xa2f54bbe5ba93e19,
supermarket,Toko,Sinar Harapan,"6X9J+F64, Watujaji, Bajawa, Kabupaten Ngada, Nusa Tenggara Tim.","Kabupaten Ngada, Nusa Tenggara Tim.",NUSA TENGGARA TIMUR,,Indonesia,,,,-87.813.504,1.209.805.866,https://maps.google.com/?cid=0x0:0xc143fb9f83e22c94,
supermarket,supermarket,Kec. Bajawa Utara,"Kabupaten Ngada, Nusa Tenggara Tim.","Kabupaten Ngada, Nusa Tenggara Tim.",NUSA TENGGARA TIMUR,,Indonesia,,,,-87.368.576,1.210.030.037,https://maps.google.com/?cid=0x0:0xb1d8c7bab42c5a19,
supermarket,Toko,Sinar Harapan,"6X9J+F64, Watujaji, Bajawa, Kabupaten Ngada, Nusa Tenggara Tim.","Kabupaten Ngada, Nusa Tenggara Tim.",NUSA TENGGARA TIMUR,,Indonesia,,,,-87.813.504,1.209.805.866,https://maps.google.com/?cid=0x0:0xc143fb9f83e22c94,
supermarket,Toko bahan makanan,KIOS AVIRA CELLULER,"8X6C+GC, Genamere, Kec. Bajawa Utara, Kabupaten Ngada, Nusa Tenggara Tim.","Kabupaten Ngada, Nusa Tenggara Tim.",NUSA TENGGARA TIMUR,,Indonesia,,,,-8.688.068,1.209.707.465,https://maps.google.com/?cid=0x0:0x253747af0d5e41d8,
supermarket,Toko,Kios Mama Yanti,"Jl. WJ Lalamentik, Faobata, Bajawa, Kabupaten Ngada, Nusa Tenggara Tim. 86413","Faobata, Bajawa, Kabupaten Ngada",NUSA TENGGARA TIMUR,86413.0,Indonesia,81338702630,,,-87.840.905,1.209.884.525,https://maps.google.com/?cid=0x0:0xf161dcfaf5ba655c,
supermarket,Toko Buah dan Sayuran,Toko Suasana Baru,"822P+WQR, Waepana, Kec. Soa, Kabupaten Ngada, Nusa Tenggara Tim.","Kabupaten Ngada, Nusa Tenggara Tim.",NUSA TENGGARA TIMUR,,Indonesia,,,,-86.976.258,1.210.368.954,https://maps.google.com/?cid=0x0:0x9c642fd62057f5ca,
supermarket,Toko bahan makanan,KIOS ORIN MEO,"724R+HV2, Waero, Tarawaja, Kec. Soa, Kabupaten Ngada, Nusa Tenggara Tim.","Kabupaten Ngada, Nusa Tenggara Tim.",NUSA TENGGARA TIMUR,,Indonesia,,,,-87.436.048,1.210.421.561,https://maps.google.com/?cid=0x0:0xe077c76b91979f7d,
supermarket,Pusat Perbelanjaan,Pasar Loak Bobou,"6X9V+V2, Faobata, Bajawa, Kabupaten Ngada, Nusa Tenggara Tim.","Kabupaten Ngada, Nusa Tenggara Tim.",NUSA TENGGARA TIMUR,,Indonesia,,,,-87.804.379,1.209.917.001,https://maps.google.com/?cid=0x0:0x1b849c6c4f226e8b,
supermarket,Pasar Loak,Pasar Bobou,"6X9V+Q45, Bobou, Bajawa, Kabupaten Ngada, Nusa Tenggara Tim.","Kabupaten Ngada, Nusa Tenggara Tim.",NUSA TENGGARA TIMUR,,Indonesia,,,,-87.806.064,1.209.928.568,https://maps.google.com/?cid=0x0:0xb2b8c51efc95f28d,
supermarket,Toko,Sumber berkat mart,"6X7P+MJ9, Jl. R Soeprapto, Faobata, Bajawa, Kabupaten Ngada, Nusa Tenggara Tim.","Kabupaten Ngada, Nusa Tenggara Tim.",NUSA TENGGARA TIMUR,,Indonesia,,,,-87.858.013,1.209.870.347,https://maps.google.com/?cid=0x0:0x7ee63eafa77e70bc,
supermarket,supermarket,Nusa Tenggara Tim.,,Nusa Tenggara Tim.,NUSA TENGGARA TIMUR,,Indonesia,,,,-86.573.819,1.210.793.705,https://maps.google.com/?cid=0x0:0x1030bfbcaf71ae0,
supermarket,Pusat Perbelanjaan,LYON NUSANTARA SUPER MARKET,"9754+5H3, Kamalaputi, Kec. Kota Waingapu, Kabupaten Sumba Timur, Nusa Tenggara Tim.","Kabupaten Sumba Timur, Nusa Tenggara Tim.",NUSA TENGGARA TIMUR,,Indonesia,,,,-96.421.199,1.202.564.251,https://maps.google.com/?cid=0x0:0xf39f6f3279d31f50,
supermarket,Toserba,Supermarket Matahari,"pasar inpres naikoten No.1, Naikoten I, Kec. Kota Raja, Kota Kupang, Nusa Tenggara Tim. 85142","Naikoten I, Kec. Kota Raja, Kota Kupang",NUSA TENGGARA TIMUR,85142.0,Indonesia,,,,-101.813.187,1.236.009.175,https://maps.google.com/?cid=0x0:0x47fc92b423019c18,
supermarket,Toko Swalayan,Toko Sinar Harapan,"CV2R+CGH, Unnamed Road, Benteng Tawa, Kec. Riung Bar., Kabupaten Ngada, Nusa Tenggara Tim.","Kabupaten Ngada, Nusa Tenggara Tim.",NUSA TENGGARA TIMUR,,Indonesia,85237869837,,,-8.598.942,1.208.913.684,https://maps.google.com/?cid=0x0:0x5e2d31a846f6115,
supermarket,Toko,Sinar Harapan,"6X9J+F64, Watujaji, Bajawa, Kabupaten Ngada, Nusa Tenggara Tim.","Kabupaten Ngada, Nusa Tenggara Tim.",NUSA TENGGARA TIMUR,,Indonesia,,,,-87.813.504,1.209.805.866,https://maps.google.com/?cid=0x0:0xc143fb9f83e22c94,
supermarket,supermarket,Wolomeze,"Kec. Riung Bar., Kabupaten Ngada, Nusa Tenggara Tim.","Kabupaten Ngada, Nusa Tenggara Tim.",NUSA TENGGARA TIMUR,,Indonesia,,,,-85.623.031,1.209.532.123,https://maps.google.com/?cid=0x0:0x99440c213d9da922,
supermarket,supermarket,Kec. Wolomeze,"Kabupaten Ngada, Nusa Tenggara Tim.","Kabupaten Ngada, Nusa Tenggara Tim.",NUSA TENGGARA TIMUR,,Indonesia,,,,-86.643.282,121.044.547,https://maps.google.com/?cid=0x0:0xc9c65a778e87e894,
supermarket,supermarket,Kec. Golewa Selatan,"Kabupaten Ngada, Nusa Tenggara Tim.","Kabupaten Ngada, Nusa Tenggara Tim.",NUSA TENGGARA TIMUR,,Indonesia,,,,-88.533.694,1.211.030.931,https://maps.google.com/?cid=0x0:0x841f99d069ae89c3,
supermarket,Kios,NIRMALA MART,"Unnamed Road, Kezewea, Kec. Golewa, Kabupaten Ngada, Nusa Tenggara Tim.","Kabupaten Ngada, Nusa Tenggara Tim.",NUSA TENGGARA TIMUR,,Indonesia,82237383840,,,-88.675.164,1.211.148.624,https://maps.google.com/?cid=0x0:0x669109a27c522f8,
supermarket,Kantor Pemerintah,KANTOR CAMAT GOLEWA SELATAN,"43HW+W7R, Were II, Kec. Golewa, Kabupaten Ngada, Nusa Tenggara Tim.","Kabupaten Ngada, Nusa Tenggara Tim.",NUSA TENGGARA TIMUR,,Indonesia,,,,-88.701.446,1.210.956.358,https://maps.google.com/?cid=0x0:0xad799d8aeb722b7d,
supermarket,Toko bahan makanan,KAREMPENG 99,"4253+5P5, Dariwali, Kec. Jerebuu, Kabupaten Ngada, Nusa Tenggara Tim.","Kabupaten Ngada, Nusa Tenggara Tim.",NUSA TENGGARA TIMUR,,Indonesia,,,,-88.909.934,1.210.042.937,https://maps.google.com/?cid=0x0:0x75e315af8a464232,
supermarket,Toko,Kios Mama Yanti,"Jl. WJ Lalamentik, Faobata, Bajawa, Kabupaten Ngada, Nusa Tenggara Tim. 86413","Faobata, Bajawa, Kabupaten Ngada",NUSA TENGGARA TIMUR,86413.0,Indonesia,81338702630,,,-87.840.905,1.209.884.525,https://maps.google.com/?cid=0x0:0xf161dcfaf5ba655c,
supermarket,Kios,Kios Kalista,"Jl. Raya Bajawa-Ende, Malanuza, Kec. Golewa, Kabupaten Ngada, Nusa Tenggara Tim.","Kabupaten Ngada, Nusa Tenggara Tim.",NUSA TENGGARA TIMUR,,Indonesia,,,,-88.154.683,1.210.860.111,https://maps.google.com/?cid=0x0:0x31d2ef85075c2e4b,
supermarket,Toko Elektronik,Bertho Ladja Cellular,"44W3+F27, Dusun Tiwuriwu, Sadha, Kec. Golewa Selatan, Kabupaten Ngada, Nusa Tenggara Tim.","Kabupaten Ngada, Nusa Tenggara Tim.",NUSA TENGGARA TIMUR,,Indonesia,,,,-88.538.259,1.211.025.577,https://maps.google.com/?cid=0x0:0xb38ed735653aecd0,
supermarket,supermarket,Jonathan cell,"535P+4J7, Malanuza, Kec. Golewa, Kabupaten Ngada, Nusa Tenggara Tim.","Kabupaten Ngada, Nusa Tenggara Tim.",NUSA TENGGARA TIMUR,,Indonesia,,,,-88.422.049,1.210.865.392,https://maps.google.com/?cid=0x0:0xfeb3a855162565ba,
supermarket,Toko bahan makanan,Maria Wijima Regina Titu,"53MP+92Q, Malanuza, Kec. Golewa, Kabupaten Ngada, Nusa Tenggara Tim.","Kabupaten Ngada, Nusa Tenggara Tim.",NUSA TENGGARA TIMUR,,Indonesia,,,,-88.165.366,1.210.851.019,https://maps.google.com/?cid=0x0:0x970dd3393d50527f,
supermarket,supermarket,"Rumah pribadi dan kios emanuel jual;dedak, pakan, beras, dll","53MH+V8M, Jl. Raya Bajawa-Ende, Malanuza, Kec. Golewa, Kabupaten Ngada, Nusa Tenggara Tim.","Kabupaten Ngada, Nusa Tenggara Tim.",NUSA TENGGARA TIMUR,,Indonesia,,,,-88.160.629,1.210.779.458,https://maps.google.com/?cid=0x0:0x3ac9bedfb0dff8ba,
supermarket,Supermarket Diskon,UD Mami,"Jl. Raya Bajawa-Ende, Todabelu, Kec. Golewa, Kabupaten Ngada, Nusa Tenggara Tim.","Kabupaten Ngada, Nusa Tenggara Tim.",NUSA TENGGARA TIMUR,,Indonesia,,,,-88.200.036,121.066.454,https://maps.google.com/?cid=0x0:0xe25a8c4a72e35609,
supermarket,supermarket,Golewa Bar.,"Kabupaten Ngada, Nusa Tenggara Tim.","Kabupaten Ngada, Nusa Tenggara Tim.",NUSA TENGGARA TIMUR,,Indonesia,,,,-88.077.491,1.210.220.422,https://maps.google.com/?cid=0x0:0x103098ccabb3bc1,
supermarket,Toko bahan makanan,KIOS ORIN MEO,"724R+HV2, Waero, Tarawaja, Kec. Soa, Kabupaten Ngada, Nusa Tenggara Tim.","Kabupaten Ngada, Nusa Tenggara Tim.",NUSA TENGGARA TIMUR,,Indonesia,,,,-87.436.048,1.210.421.561,https://maps.google.com/?cid=0x0:0xe077c76b91979f7d,
supermarket,Kios,NIRMALA MART,"Unnamed Road, Kezewea, Kec. Golewa, Kabupaten Ngada, Nusa Tenggara Tim.","Kabupaten Ngada, Nusa Tenggara Tim.",NUSA TENGGARA TIMUR,,Indonesia,82237383840,,,-88.675.164,1.211.148.624,https://maps.google.com/?cid=0x0:0x669109a27c522f8,
supermarket,Kios,Kios Oma Lena,"5XQQ+XV9, Ubedolumolo, Bajawa, Kabupaten Ngada, Nusa Tenggara Tim.","Kabupaten Ngada, Nusa Tenggara Tim.",NUSA TENGGARA TIMUR,,Indonesia,81238720644,,,-88.100.796,1.209.897.472,https://maps.google.com/?cid=0x0:0x76809939499e1632,
supermarket,Kios,Kios Kalista,"Jl. Raya Bajawa-Ende, Malanuza, Kec. Golewa, Kabupaten Ngada, Nusa Tenggara Tim.","Kabupaten Ngada, Nusa Tenggara Tim.",NUSA TENGGARA TIMUR,,Indonesia,,,,-88.154.683,1.210.860.111,https://maps.google.com/?cid=0x0:0x31d2ef85075c2e4b,
supermarket,Toko,Kios Mama Yanti,"Jl. WJ Lalamentik, Faobata, Bajawa, Kabupaten Ngada, Nusa Tenggara Tim. 86413","Faobata, Bajawa, Kabupaten Ngada",NUSA TENGGARA TIMUR,86413.0,Indonesia,81338702630,,,-87.840.905,1.209.884.525,https://maps.google.com/?cid=0x0:0xf161dcfaf5ba655c,
supermarket,Minimarket,Langganan toserba,"6X7F+29X, Ngedukelu, Bajawa, Kabupaten Ngada, Nusa Tenggara Tim.","Kabupaten Ngada, Nusa Tenggara Tim.",NUSA TENGGARA TIMUR,,Indonesia,38421056,,,-87.873.884,1.209.734.788,https://maps.google.com/?cid=0x0:0xc7308eaa8237f25d,
supermarket,Toko bahan makanan,Stan ma imel,"6X9V+J52, Unnamed Road, Faobata, Bajawa, Kabupaten Ngada, Nusa Tenggara Tim.","Kabupaten Ngada, Nusa Tenggara Tim.",NUSA TENGGARA TIMUR,,Indonesia,81239545006,,,-87.809.786,1.209.928.906,https://maps.google.com/?cid=0x0:0x96a42e396868eb5b,
supermarket,Supermarket Diskon,UD Mami,"Jl. Raya Bajawa-Ende, Todabelu, Kec. Golewa, Kabupaten Ngada, Nusa Tenggara Tim.","Kabupaten Ngada, Nusa Tenggara Tim.",NUSA TENGGARA TIMUR,,Indonesia,,,,-88.200.036,121.066.454,https://maps.google.com/?cid=0x0:0xe25a8c4a72e35609,
supermarket,Toko bahan makanan,TOKO TUNAS KARYA,"Jl. R Soeprapto, Ngedukelu, Bajawa, Kabupaten Ngada, Nusa Tenggara Tim.","Kabupaten Ngada, Nusa Tenggara Tim.",NUSA TENGGARA TIMUR,,Indonesia,82144266277,,,-87.883.672,1.209.776.902,https://maps.google.com/?cid=0x0:0xaa2009e38676a0df,
supermarket,Toko,Kios Alvin,"6XFJ+QH6, Lebijaga, Bajawa, Kabupaten Ngada, Nusa Tenggara Tim.","Kabupaten Ngada, Nusa Tenggara Tim.",NUSA TENGGARA TIMUR,,Indonesia,81238886489,,,-87.755.983,1.209.813.856,https://maps.google.com/?cid=0x0:0x398ed1dcbd96bc2,
supermarket,Toko Ponsel,Rajawali Selular Bajawa,"6X7G+XJF, Ngedukelu, Bajawa, Kabupaten Ngada, Nusa Tenggara Tim.","Kabupaten Ngada, Nusa Tenggara Tim.",NUSA TENGGARA TIMUR,,Indonesia,,,,-87.850.554,1.209.765.387,https://maps.google.com/?cid=0x0:0x67f8ec2e4b93368c,
supermarket,Toko,UD. Firman,"6X9C+385, Trikora, Bajawa, Kabupaten Ngada, Nusa Tenggara Tim.","Kabupaten Ngada, Nusa Tenggara Tim.",NUSA TENGGARA TIMUR,,Indonesia,,,,-87.823.714,1.209.708.555,https://maps.google.com/?cid=0x0:0x1b86ecef784ed8d8,
supermarket,Toko bahan makanan,Maria Wijima Regina Titu,"53MP+92Q, Malanuza, Kec. Golewa, Kabupaten Ngada, Nusa Tenggara Tim.","Kabupaten Ngada, Nusa Tenggara Tim.",NUSA TENGGARA TIMUR,,Indonesia,,,,-88.165.366,1.210.851.019,https://maps.google.com/?cid=0x0:0x970dd3393d50527f,
supermarket,Toko,TOKO SINAR HIDUP,"6X6F+W68, Jl. Gajah Mada, Ngedukelu, Bajawa, Kabupaten Ngada, Nusa Tenggara Tim.","Kabupaten Ngada, Nusa Tenggara Tim.",NUSA TENGGARA TIMUR,,Indonesia,,,,-87.877.095,1.209.730.815,https://maps.google.com/?cid=0x0:0x6ce4d2b43781f0aa,
supermarket,Toko bahan makanan,MINI MARKET IMANUEL,"Jl. Yos Soedarso No.9, Trikora, Bajawa, Kabupaten Ngada, Nusa Tenggara Tim.","Kabupaten Ngada, Nusa Tenggara Tim.",NUSA TENGGARA TIMUR,,Indonesia,82146226988,,,-87.866.037,1.209.705.853,https://maps.google.com/?cid=0x0:0xd4c0d3f24c778722,
supermarket,supermarket,Jonathan cell,"535P+4J7, Malanuza, Kec. Golewa, Kabupaten Ngada, Nusa Tenggara Tim.","Kabupaten Ngada, Nusa Tenggara Tim.",NUSA TENGGARA TIMUR,,Indonesia,,,,-88.422.049,1.210.865.392,https://maps.google.com/?cid=0x0:0xfeb3a855162565ba,
supermarket,Toko bahan makanan,KAREMPENG 99,"4253+5P5, Dariwali, Kec. Jerebuu, Kabupaten Ngada, Nusa Tenggara Tim.","Kabupaten Ngada, Nusa Tenggara Tim.",NUSA TENGGARA TIMUR,,Indonesia,,,,-88.909.934,1.210.042.937,https://maps.google.com/?cid=0x0:0x75e315af8a464232,
supermarket,Minimarket,Kios Mira Aneka Buah Lokal,"6X7F+C78, Jl. Mayjend D.I. Panjaitan, Ngedukelu, Bajawa, Kabupaten Ngada, Nusa Tenggara Tim.","Kabupaten Ngada, Nusa Tenggara Tim.",NUSA TENGGARA TIMUR,,Indonesia,,,,-87.864.687,1.209.732.054,https://maps.google.com/?cid=0x0:0xd9f98b13c7676278,
supermarket,Grosir Sayur dan Buah,U.D Sunflower,"6X5F+XXQ, Jl. Basoeki Rahmat, Tanalodu, Bajawa, Kabupaten Ngada, Nusa Tenggara Tim.","Kabupaten Ngada, Nusa Tenggara Tim.",NUSA TENGGARA TIMUR,,Indonesia,82231190015,,,-87.900.445,1.209.749.894,https://maps.google.com/?cid=0x0:0xb621acff84d8ffcb,
supermarket,Martabak,Crepes ALFAREZ 99 Martabak Bangka,"Jl. Gajah Mada No.1, Ngedukelu, Bajawa, Kabupaten Ngada, Nusa Tenggara Tim.","Kabupaten Ngada, Nusa Tenggara Tim.",NUSA TENGGARA TIMUR,,Indonesia,,,,-87.871.839,1.209.734.244,https://maps.google.com/?cid=0x0:0xad8f52c764667c82,
supermarket,Pusat Perbelanjaan,UD. DAMAIANGROUP,"RT.006 RW.002 Dusun Nunu, Kelitei, Kec. Inerie, Kabupaten Ngada, Nusa Tenggara Tim. 86452","Kelitei, Kec. Inerie, Kabupaten Ngada",NUSA TENGGARA TIMUR,86452.0,Indonesia,82312450340,,,-89.328.581,120.936.864,https://maps.google.com/?cid=0x0:0x150d87f802631015,
supermarket,Toko bahan makanan,UD DAMAIAN,"5V25+7C6, Jalan Aimere Tim., Aimere, Langagedha, Bajawa, Kabupaten Ngada, Nusa Tenggara Tim.","Kabupaten Ngada, Nusa Tenggara Tim.",NUSA TENGGARA TIMUR,,Indonesia,,,,-88.493.496,1.208.585.123,https://maps.google.com/?cid=0x0:0xd1988e6145f1226b,
supermarket,Toko bahan makanan,KAREMPENG 99,"4253+5P5, Dariwali, Kec. Jerebuu, Kabupaten Ngada, Nusa Tenggara Tim.","Kabupaten Ngada, Nusa Tenggara Tim.",NUSA TENGGARA TIMUR,,Indonesia,,,,-88.909.934,1.210.042.937,https://maps.google.com/?cid=0x0:0x75e315af8a464232,
