Category,Real Category,Business Name,Address,City,State,Postal Code,Country,Phone,Email,Website,Latitude,Longitude,Map Link,Details Link
komplek housing,Pembangunan Perumahan,Aimere,"83VH+2PX, Nginamanu, Kec. Wolomeze, Kabupaten Ngada, Nusa Tenggara Tim.","Kabupaten Ngada, Nusa Tenggara Tim.",NUSA TENGGARA TIMUR,,Indonesia,,,,-86.573.819,1.210.793.705,https://maps.google.com/?cid=0x0:0xd2e5fc6fc837362d,
komplek housing,Komplek perumahan,Emerald Townhouse,"Parigi, Kec. Pd. Aren, Kota Tangerang Selatan, Banten","Kota Tangerang Selatan, Banten",NUSA TENGGARA TIMUR,,Indonesia,,,,-62.820.766,1.067.006.705,https://maps.google.com/?cid=0x0:0xa484e630ab2f5e3a,
komplek housing,Komplek perumahan,Ae Ero Village,"83VH+2PX, Nginamanu, Kec. Wolomeze, Kabupaten Ngada, Nusa Tenggara Tim.","Kabupaten Ngada, Nusa Tenggara Tim.",NUSA TENGGARA TIMUR,,Indonesia,,,,-86.573.819,1.210.793.705,https://maps.google.com/?cid=0x0:0x56603a22613a6c10,
komplek housing,Komplek perumahan,AwanCrew,"5V35+Q3Q, Aimere Tim., Kec. Aimere, Kabupaten Ngada, Nusa Tenggara Tim. 86452","Aimere Tim., Kec. Aimere, Kabupaten Ngada",NUSA TENGGARA TIMUR,86452.0,Indonesia,,,,-8.845.532,1.208.577.242,https://maps.google.com/?cid=0x0:0xb32a9a956c518134,
komplek housing,komplek housing,Kec. Golewa,"Kabupaten Ngada, Nusa Tenggara Tim.","Kabupaten Ngada, Nusa Tenggara Tim.",NUSA TENGGARA TIMUR,,Indonesia,,,,-8.823.719,121.051.735,https://maps.google.com/?cid=0x0:0xbe72500ebc67578b,
komplek housing,Komplek perumahan,Desa wogo,"Jl. Raya Bajawa-Ende No.12, Malanuza, Kec. Golewa, Kabupaten Ngada, Nusa Tenggara Tim.","Kabupaten Ngada, Nusa Tenggara Tim.",NUSA TENGGARA TIMUR,,Indonesia,,,,-88.336.831,1.210.520.357,https://maps.google.com/?cid=0x0:0x7137d9bbae14b2f8,
komplek housing,Komplek perumahan,B'Gradya,"Jl. Trans Flores No.1, Mangulewa, Kec. Golewa, Kabupaten Ngada, Nusa Tenggara Tim. 86461","Mangulewa, Kec. Golewa, Kabupaten Ngada",NUSA TENGGARA TIMUR,86461.0,Indonesia,,,,-88.159.208,1.210.087.613,https://maps.google.com/?cid=0x0:0x188fba12cacee39e,
komplek housing,komplek housing,Bajawa,"Bajawa, Kabupaten Ngada, Nusa Tenggara Tim.","Kabupaten Ngada, Nusa Tenggara Tim.",NUSA TENGGARA TIMUR,,Indonesia,,,,-8.792.325,120.960.602,https://maps.google.com/?cid=0x0:0x3cbeacbc23e7d171,
komplek housing,komplek housing,Kristian Homestay,"6X4G+H4P, Unnamed Road, Bajawa, Kabupaten Ngada, Nusa Tenggara Tim.","Kabupaten Ngada, Nusa Tenggara Tim.",NUSA TENGGARA TIMUR,,Indonesia,81339480142,,,-87.935.334,1.209.753.132,https://maps.google.com/?cid=0x0:0x1fe97ebc303d5d72,
komplek housing,Komplek perumahan,Bumi Dirgantara Permai,"RT.009/RW.011, Jatisari, Kec. Jatiasih, Kota Bks, Jawa Barat 17426","Jatisari, Kec. Jatiasih, Kota Bks",NUSA TENGGARA TIMUR,17426.0,Indonesia,,,,-63.463.327,1.069.431.248,https://maps.google.com/?cid=0x0:0xf40af7137bfb745c,
komplek housing,komplek housing,Bajawa,"Bajawa, Kabupaten Ngada, Nusa Tenggara Tim.","Kabupaten Ngada, Nusa Tenggara Tim.",NUSA TENGGARA TIMUR,,Indonesia,,,,-8.792.325,120.960.602,https://maps.google.com/?cid=0x0:0x3cbeacbc23e7d171,
komplek housing,Komplek perumahan,KOMPLEK BAJAWA,"Jl. Limau Jl. Satar Tacik No.Kel, Tenda, Langke Rembong, Manggarai Regency, East Nusa Tenggara","Kabupaten Manggarai, Nusa Tenggara Tim.",NUSA TENGGARA TIMUR,,Indonesia,,,,-86.077.421,1.204.781.536,https://maps.google.com/?cid=0x0:0x58c14731cbb05425,
komplek housing,Perhimpunan Pengembang Perumahan,Bajawa,"83VH+2PX, Nginamanu, Kec. Wolomeze, Kabupaten Ngada, Nusa Tenggara Tim.","Kabupaten Ngada, Nusa Tenggara Tim.",NUSA TENGGARA TIMUR,,Indonesia,,,,-86.573.819,1.210.793.705,https://maps.google.com/?cid=0x0:0x2f0e27c7e722b250,
komplek housing,komplek housing,Komplek Housing,"Blok Bojong Nangka I, Jl. Ring Rudal Blok Bojong Nangka I No.68, RT.001/RW.007, Jatirahayu, Kec. Pd. Melati, Kota Bks, Jawa Barat 17414","Jl. Ring Rudal Blok Bojong Nangka I No.68, RT.001/RW.007, Jatirahayu, Kec. Pd. Melati, Kota Bks",NUSA TENGGARA TIMUR,17414.0,Indonesia,,,,-6.293.724,1.069.165.114,https://maps.google.com/?cid=0x0:0x9c50464976dee674,
komplek housing,komplek housing,Bajawa,"Bajawa, Kabupaten Ngada, Nusa Tenggara Tim.","Kabupaten Ngada, Nusa Tenggara Tim.",NUSA TENGGARA TIMUR,,Indonesia,,,,-8.792.325,120.960.602,https://maps.google.com/?cid=0x0:0x3cbeacbc23e7d171,
komplek housing,Penginapan,Bajawa,"6X56+369, Bajawa, Kabupaten Ngada, Nusa Tenggara Tim.","Kabupaten Ngada, Nusa Tenggara Tim.",NUSA TENGGARA TIMUR,,Indonesia,,,,-8.792.325,120.960.602,https://maps.google.com/?cid=0x0:0xe868b694e147ece6,
komplek housing,Komplek perumahan,Kampung Bajawa A,"6X58+V2J, Bajawa, Kabupaten Ngada, Nusa Tenggara Tim.","Kabupaten Ngada, Nusa Tenggara Tim.",NUSA TENGGARA TIMUR,,Indonesia,,,,-87.902.859,1.209.650.248,https://maps.google.com/?cid=0x0:0xa3a7af7befc14bcf,
komplek housing,Kantor Perusahaan,HOME BASE BAJAWA,"6XCM+9CR, Jl. TW Mengeruda, Lebijaga, Bajawa, Kabupaten Ngada, Nusa Tenggara Tim.","Kabupaten Ngada, Nusa Tenggara Tim.",NUSA TENGGARA TIMUR,,Indonesia,,,,-87.790.154,1.209.835.123,https://maps.google.com/?cid=0x0:0xa0e0edf8e29bf198,
komplek housing,Komplek perumahan,Perumahan Pondok Cipta,"Perumahan Jl. Pd. Cipta No.Blok D.25, Bintara, Kec. Bekasi Bar., Kota Bks, Jawa Barat 17134","Bintara, Kec. Bekasi Bar., Kota Bks",NUSA TENGGARA TIMUR,17134.0,Indonesia,,,,-62.297.221,1.069.605.131,https://maps.google.com/?cid=0x0:0xfe44dcd740540127,
komplek housing,Komplek perumahan,Perumahan Citra Townhouse,"MWCF+5J6, Jl. Raya Hankam, RT.005/RW.006, Jatimurni, Kec. Pd. Melati, Kota Bks, Jawa Barat 17431","Jl. Raya Hankam, RT.005/RW.006, Jatimurni, Kec. Pd. Melati, Kota Bks",NUSA TENGGARA TIMUR,17431.0,Indonesia,,,,-63.295.866,1.069.240.196,https://maps.google.com/?cid=0x0:0x3a8b26daf7e305f7,
komplek housing,Komplek perumahan,Hunian,"PWC9+39R, Jl. Bojong Tua, RT.009/RW.008, Jatimakmur, Kec. Pd. Gede, Kota Bks, Jawa Barat 17411","Jl. Bojong Tua, RT.009/RW.008, Jatimakmur, Kec. Pd. Gede, Kota Bks",NUSA TENGGARA TIMUR,17411.0,Indonesia,8116145185,,,-6.279.762,106.918.378,https://maps.google.com/?cid=0x0:0x677c66a269a60ad1,
komplek housing,Kompleks Townhouse,Bhuvana Residence Bintaro,"Jl. Palem Puri, Pd. Pucung, Kec. Pd. Aren, Kota Tangerang Selatan, Banten 15229","Pd. Pucung, Kec. Pd. Aren, Kota Tangerang Selatan",NUSA TENGGARA TIMUR,15229.0,Indonesia,,,,-62.935.977,1.067.119.775,https://maps.google.com/?cid=0x0:0x27a92352adb0a1f3,
komplek housing,Komplek perumahan,Artha Kencana,"PW4P+PF7, Jl. Kav. Artha Kencana, RT.9/RW.2, Cilangkap, Kec. Pd. Gede, Kota Jakarta Timur, Daerah Khusus Ibukota Jakarta","Kota Jakarta Timur, Daerah Khusus Ibukota Jakarta",NUSA TENGGARA TIMUR,,Indonesia,,,,-62.932.195,1.069.361.767,https://maps.google.com/?cid=0x0:0x7c758e5a0c03748e,
komplek housing,Komplek perumahan,KOMPLEK BAJAWA,"Jl. Limau Jl. Satar Tacik No.Kel, Tenda, Langke Rembong, Manggarai Regency, East Nusa Tenggara","Kabupaten Manggarai, Nusa Tenggara Tim.",NUSA TENGGARA TIMUR,,Indonesia,,,,-86.077.421,1.204.781.536,https://maps.google.com/?cid=0x0:0x58c14731cbb05425,
komplek housing,Komplek perumahan,Perum Alam Pesona,"Jalan Perum Alam Pesona Blok P39A No, RW.2, Wanasari, Kec. Cibitung, Kabupaten Bekasi, Jawa Barat 17520","RW.2, Wanasari, Kec. Cibitung, Kabupaten Bekasi",NUSA TENGGARA TIMUR,17520.0,Indonesia,,,,-6.237.419,1.071.016.581,https://maps.google.com/?cid=0x0:0x25117b7f9a7f677d,
komplek housing,Perusahaan Media,Sukamanah Residence,"Jalan Sukamanah, Sukamanah, Kec. Sukatani, Kabupaten Bekasi, Jawa Barat 17630","Sukamanah, Kec. Sukatani, Kabupaten Bekasi",NUSA TENGGARA TIMUR,17630.0,Indonesia,,,,-61.880.961,1.071.659.131,https://maps.google.com/?cid=0x0:0x101a15a49d09cb73,
komplek housing,Komplek perumahan,CLUSTER JAVANA,"Jl. Raya Serang - Setu, Ciantra, Cikarang Sel., Kabupaten Bekasi, Jawa Barat 17530","Ciantra, Cikarang Sel., Kabupaten Bekasi",NUSA TENGGARA TIMUR,17530.0,Indonesia,81322060619,,,-63.671.603,1.070.933.848,https://maps.google.com/?cid=0x0:0xa8c0115a31a96335,
komplek housing,Gedung Apartemen,Apartemen Casablanca East Residence,"Jl. Pahlawan Revolusi No.2, Pd. Bambu, Kec. Duren Sawit, Kota Jakarta Timur, Daerah Khusus Ibukota Jakarta 13430","Pd. Bambu, Kec. Duren Sawit, Kota Jakarta Timur",NUSA TENGGARA TIMUR,13430.0,Indonesia,81977664596,,,-62.239.063,1.068.983.815,https://maps.google.com/?cid=0x0:0xa8675ce9552a66a6,
komplek housing,komplek housing,Bajawa,"Bajawa, Kabupaten Ngada, Nusa Tenggara Tim.","Kabupaten Ngada, Nusa Tenggara Tim.",NUSA TENGGARA TIMUR,,Indonesia,,,,-8.792.325,120.960.602,https://maps.google.com/?cid=0x0:0x3cbeacbc23e7d171,
komplek housing,Penginapan,Bajawa,"6X56+369, Bajawa, Kabupaten Ngada, Nusa Tenggara Tim.","Kabupaten Ngada, Nusa Tenggara Tim.",NUSA TENGGARA TIMUR,,Indonesia,,,,-8.792.325,120.960.602,https://maps.google.com/?cid=0x0:0xe868b694e147ece6,
komplek housing,Komplek perumahan,Kampung Bajawa A,"6X58+V2J, Bajawa, Kabupaten Ngada, Nusa Tenggara Tim.","Kabupaten Ngada, Nusa Tenggara Tim.",NUSA TENGGARA TIMUR,,Indonesia,,,,-87.902.859,1.209.650.248,https://maps.google.com/?cid=0x0:0xa3a7af7befc14bcf,
komplek housing,Pembangunan Perumahan,Frid suka hime,"8255+7P3, Nabelena, Kec. Bajawa Utara, Kabupaten Ngada, Nusa Tenggara Tim.","Kabupaten Ngada, Nusa Tenggara Tim.",NUSA TENGGARA TIMUR,,Indonesia,,,,-8.691.741,1.210.100.574,https://maps.google.com/?cid=0x0:0x1ddeed1664cdd03a,
komplek housing,Perhimpunan Pengembang Perumahan,Jln Bajawa,"RJP6+CG2, Unnamed Road, Fatululi, Kec. Oebobo, Kota Kupang, Nusa Tenggara Tim.","Kota Kupang, Nusa Tenggara Tim.",NUSA TENGGARA TIMUR,,Indonesia,,,,-101.639.958,1.236.112.731,https://maps.google.com/?cid=0x0:0x23fbee2f2ca1ea89,
komplek housing,Perhimpunan Pengembang Perumahan,Bajawa,"83VH+2PX, Nginamanu, Kec. Wolomeze, Kabupaten Ngada, Nusa Tenggara Tim.","Kabupaten Ngada, Nusa Tenggara Tim.",NUSA TENGGARA TIMUR,,Indonesia,,,,-86.573.819,1.210.793.705,https://maps.google.com/?cid=0x0:0x2f0e27c7e722b250,
komplek housing,Kantor Perusahaan,HOME BASE BAJAWA,"6XCM+9CR, Jl. TW Mengeruda, Lebijaga, Bajawa, Kabupaten Ngada, Nusa Tenggara Tim.","Kabupaten Ngada, Nusa Tenggara Tim.",NUSA TENGGARA TIMUR,,Indonesia,,,,-87.790.154,1.209.835.123,https://maps.google.com/?cid=0x0:0xa0e0edf8e29bf198,
komplek housing,komplek housing,Rumah Keden,"6XHP+WCJ, Naru, Bajawa, Kabupaten Ngada, Nusa Tenggara Tim.","Kabupaten Ngada, Nusa Tenggara Tim.",NUSA TENGGARA TIMUR,,Indonesia,,,,-87.701.613,1.209.860.047,https://maps.google.com/?cid=0x0:0x3d7a6208250a76d,
komplek housing,Komplek perumahan,KOMPLEK BAJAWA,"Jl. Limau Jl. Satar Tacik No.Kel, Tenda, Langke Rembong, Manggarai Regency, East Nusa Tenggara","Kabupaten Manggarai, Nusa Tenggara Tim.",NUSA TENGGARA TIMUR,,Indonesia,,,,-86.077.421,1.204.781.536,https://maps.google.com/?cid=0x0:0x58c14731cbb05425,
komplek housing,Perumahan,Perumahan Lavana garden,"R2FH+MCH, Jl. Griya Asri Bahagia No.Blok F18, Bahagia, Kec. Babelan, Kabupaten Bekasi, Jawa Barat 17610","Jl. Griya Asri Bahagia No.Blok F18, Bahagia, Kec. Babelan, Kabupaten Bekasi",NUSA TENGGARA TIMUR,17610.0,Indonesia,,,,-61.745.893,1.070.272.968,https://maps.google.com/?cid=0x0:0xf42d21236c661ad2,
komplek housing,Komplek perumahan,Kantor pemasaran lavana garden,"Jl. Griya Asri Bahagia No.29, Bahagia, Kec. Babelan, Kabupaten Bekasi, Jawa Barat 17610","Bahagia, Kec. Babelan, Kabupaten Bekasi",NUSA TENGGARA TIMUR,17610.0,Indonesia,,,,-61.745.563,1.070.266.129,https://maps.google.com/?cid=0x0:0x46fdeb928cbd7a5d,
komplek housing,komplek housing,HOME,"Perumahan lavana garden Jl. Griya Asri Bahagia No.2, Bahagia, Kec. Babelan, Kabupaten Bekasi, Jawa Barat 17610","Bahagia, Kec. Babelan, Kabupaten Bekasi",NUSA TENGGARA TIMUR,17610.0,Indonesia,,,,-61.745.893,1.070.272.968,https://maps.google.com/?cid=0x0:0x21ab3d0621a2053a,
komplek housing,komplek housing,Bajawa,"Bajawa, Kabupaten Ngada, Nusa Tenggara Tim.","Kabupaten Ngada, Nusa Tenggara Tim.",NUSA TENGGARA TIMUR,,Indonesia,,,,-8.792.325,120.960.602,https://maps.google.com/?cid=0x0:0x3cbeacbc23e7d171,
komplek housing,komplek housing,Kristian Homestay,"6X4G+H4P, Unnamed Road, Bajawa, Kabupaten Ngada, Nusa Tenggara Tim.","Kabupaten Ngada, Nusa Tenggara Tim.",NUSA TENGGARA TIMUR,,Indonesia,81339480142,,,-87.935.334,1.209.753.132,https://maps.google.com/?cid=0x0:0x1fe97ebc303d5d72,
komplek housing,Komplek perumahan,KOMPLEK BAJAWA,"Jl. Limau Jl. Satar Tacik No.Kel, Tenda, Langke Rembong, Manggarai Regency, East Nusa Tenggara","Kabupaten Manggarai, Nusa Tenggara Tim.",NUSA TENGGARA TIMUR,,Indonesia,,,,-86.077.421,1.204.781.536,https://maps.google.com/?cid=0x0:0x58c14731cbb05425,
komplek housing,komplek housing,Komplek Housing,"Blok Bojong Nangka I, Jl. Ring Rudal Blok Bojong Nangka I No.68, RT.001/RW.007, Jatirahayu, Kec. Pd. Melati, Kota Bks, Jawa Barat 17414","Jl. Ring Rudal Blok Bojong Nangka I No.68, RT.001/RW.007, Jatirahayu, Kec. Pd. Melati, Kota Bks",NUSA TENGGARA TIMUR,17414.0,Indonesia,,,,-6.293.724,1.069.165.114,https://maps.google.com/?cid=0x0:0x9c50464976dee674,
komplek housing,komplek housing,Bajawa,"Bajawa, Kabupaten Ngada, Nusa Tenggara Tim.","Kabupaten Ngada, Nusa Tenggara Tim.",NUSA TENGGARA TIMUR,,Indonesia,,,,-8.792.325,120.960.602,https://maps.google.com/?cid=0x0:0x3cbeacbc23e7d171,
komplek housing,Komplek perumahan,KOMPLEK BAJAWA,"Jl. Limau Jl. Satar Tacik No.Kel, Tenda, Langke Rembong, Manggarai Regency, East Nusa Tenggara","Kabupaten Manggarai, Nusa Tenggara Tim.",NUSA TENGGARA TIMUR,,Indonesia,,,,-86.077.421,1.204.781.536,https://maps.google.com/?cid=0x0:0x58c14731cbb05425,
komplek housing,Perhimpunan Pengembang Perumahan,Bajawa,"83VH+2PX, Nginamanu, Kec. Wolomeze, Kabupaten Ngada, Nusa Tenggara Tim.","Kabupaten Ngada, Nusa Tenggara Tim.",NUSA TENGGARA TIMUR,,Indonesia,,,,-86.573.819,1.210.793.705,https://maps.google.com/?cid=0x0:0x2f0e27c7e722b250,
komplek housing,Komplek perumahan,Rumah,"Bumi Dirgantara Permai, Jl. Nangka CT. 1 No.29, Jatisari, Kec. Jatiasih","Kota Bks, Jawa Barat",NUSA TENGGARA TIMUR,,Indonesia,,,,-63.395.782,1.069.535.725,https://maps.google.com/?cid=0x0:0xc4fb24ef5507dbcc,
komplek housing,Kafe,Dorin.ku,"Jl. Surya Dharma No.5, RT.002/RW.011, Jatisari, Kec. Jatiasih, Kota Bks, Jawa Barat 17426","RT.002/RW.011, Jatisari, Kec. Jatiasih, Kota Bks",NUSA TENGGARA TIMUR,17426.0,Indonesia,85732291114,,,-63.442.674,1.069.491.584,https://maps.google.com/?cid=0x0:0x2438d6c6feb0e93e,
komplek housing,komplek housing,Bajawa,"Bajawa, Kabupaten Ngada, Nusa Tenggara Tim.","Kabupaten Ngada, Nusa Tenggara Tim.",NUSA TENGGARA TIMUR,,Indonesia,,,,-8.792.325,120.960.602,https://maps.google.com/?cid=0x0:0x3cbeacbc23e7d171,
komplek housing,Penginapan,Bajawa,"6X56+369, Bajawa, Kabupaten Ngada, Nusa Tenggara Tim.","Kabupaten Ngada, Nusa Tenggara Tim.",NUSA TENGGARA TIMUR,,Indonesia,,,,-8.792.325,120.960.602,https://maps.google.com/?cid=0x0:0xe868b694e147ece6,
komplek housing,Komplek perumahan,Kampung Bajawa A,"6X58+V2J, Bajawa, Kabupaten Ngada, Nusa Tenggara Tim.","Kabupaten Ngada, Nusa Tenggara Tim.",NUSA TENGGARA TIMUR,,Indonesia,,,,-87.902.859,1.209.650.248,https://maps.google.com/?cid=0x0:0xa3a7af7befc14bcf,
komplek housing,Komplek perumahan,Kota wisata Cibubur,"Cluster Nebraska, Blok SJ 6/7, Ciangsana, Kec. Gn. Putri, Kabupaten Bogor, Jawa Barat 16968","Blok SJ 6/7, Ciangsana, Kec. Gn. Putri, Kabupaten Bogor",NUSA TENGGARA TIMUR,16968.0,Indonesia,,,,-63.499.648,106.960.657,https://maps.google.com/?cid=0x0:0xce53f99aafcb6062,
komplek housing,Komplek perumahan,Artha Kencana,"PW4P+PF7, Jl. Kav. Artha Kencana, RT.9/RW.2, Cilangkap, Kec. Pd. Gede, Kota Jakarta Timur, Daerah Khusus Ibukota Jakarta","Kota Jakarta Timur, Daerah Khusus Ibukota Jakarta",NUSA TENGGARA TIMUR,,Indonesia,,,,-62.932.195,1.069.361.767,https://maps.google.com/?cid=0x0:0x7c758e5a0c03748e,
komplek housing,Komplek perumahan,Hunian,"PWC9+39R, Jl. Bojong Tua, RT.009/RW.008, Jatimakmur, Kec. Pd. Gede, Kota Bks, Jawa Barat 17411","Jl. Bojong Tua, RT.009/RW.008, Jatimakmur, Kec. Pd. Gede, Kota Bks",NUSA TENGGARA TIMUR,17411.0,Indonesia,8116145185,,,-6.279.762,106.918.378,https://maps.google.com/?cid=0x0:0x677c66a269a60ad1,
komplek housing,Komplek perumahan,KOMPLEK BAJAWA,"Jl. Limau Jl. Satar Tacik No.Kel, Tenda, Langke Rembong, Manggarai Regency, East Nusa Tenggara","Kabupaten Manggarai, Nusa Tenggara Tim.",NUSA TENGGARA TIMUR,,Indonesia,,,,-86.077.421,1.204.781.536,https://maps.google.com/?cid=0x0:0x58c14731cbb05425,
komplek housing,Komplek perumahan,Residence Casa Jardin,"Jl. Daan Mogot No.Km. 11, RT.1/RW.4, Kedaung Kali Angke, Kecamatan Cengkareng, Kota Jakarta Barat, Daerah Khusus Ibukota Jakarta 11710","RT.1/RW.4, Kedaung Kali Angke, Kecamatan Cengkareng, Kota Jakarta Barat",NUSA TENGGARA TIMUR,11710.0,Indonesia,81212162348,,,-61.539.524,1.067.524.764,https://maps.google.com/?cid=0x0:0xfac206204b9840f4,
komplek housing,komplek housing,Bajawa,"Bajawa, Kabupaten Ngada, Nusa Tenggara Tim.","Kabupaten Ngada, Nusa Tenggara Tim.",NUSA TENGGARA TIMUR,,Indonesia,,,,-8.792.325,120.960.602,https://maps.google.com/?cid=0x0:0x3cbeacbc23e7d171,
komplek housing,Komplek perumahan,KOMPLEK BAJAWA,"Jl. Limau Jl. Satar Tacik No.Kel, Tenda, Langke Rembong, Manggarai Regency, East Nusa Tenggara","Kabupaten Manggarai, Nusa Tenggara Tim.",NUSA TENGGARA TIMUR,,Indonesia,,,,-86.077.421,1.204.781.536,https://maps.google.com/?cid=0x0:0x58c14731cbb05425,
komplek housing,Perhimpunan Pengembang Perumahan,Bajawa,"83VH+2PX, Nginamanu, Kec. Wolomeze, Kabupaten Ngada, Nusa Tenggara Tim.","Kabupaten Ngada, Nusa Tenggara Tim.",NUSA TENGGARA TIMUR,,Indonesia,,,,-86.573.819,1.210.793.705,https://maps.google.com/?cid=0x0:0x2f0e27c7e722b250,
komplek housing,Perhimpunan Pengembang Perumahan,Bajawa,"83VH+2PX, Nginamanu, Kec. Wolomeze, Kabupaten Ngada, Nusa Tenggara Tim.","Kabupaten Ngada, Nusa Tenggara Tim.",NUSA TENGGARA TIMUR,,Indonesia,,,,-86.573.819,1.210.793.705,https://maps.google.com/?cid=0x0:0x2f0e27c7e722b250,
komplek housing,Pembangunan Perumahan,Gazewa,"83VH+2PX, Nginamanu, Kec. Wolomeze, Kabupaten Ngada, Nusa Tenggara Tim.","Kabupaten Ngada, Nusa Tenggara Tim.",NUSA TENGGARA TIMUR,,Indonesia,,,,-86.573.819,1.210.793.705,https://maps.google.com/?cid=0x0:0xabcccda9ae7fb7e3,
komplek housing,komplek housing,Bajawa,"Bajawa, Kabupaten Ngada, Nusa Tenggara Tim.","Kabupaten Ngada, Nusa Tenggara Tim.",NUSA TENGGARA TIMUR,,Indonesia,,,,-8.792.325,120.960.602,https://maps.google.com/?cid=0x0:0x3cbeacbc23e7d171,
komplek housing,Komplek perumahan,BAJAWA,"Jl. W.J. Lalamentik, Oebufu, Kec. Oebobo, Kota Kupang, Nusa Tenggara Tim.","Kota Kupang, Nusa Tenggara Tim.",NUSA TENGGARA TIMUR,,Indonesia,,,,-101.730.684,1.236.130.903,https://maps.google.com/?cid=0x0:0x858212b5a325267d,
komplek housing,Kantor Pemerintah Kota,Bajawa Nusa tenggara timur,"6X56+369, Bajawa, Kabupaten Ngada, Nusa Tenggara Tim.","Kabupaten Ngada, Nusa Tenggara Tim.",NUSA TENGGARA TIMUR,,Indonesia,,,,-8.792.325,120.960.602,https://maps.google.com/?cid=0x0:0x6c5420c39c16889c,
komplek housing,Komplek perumahan,Pondok Gede Housing 1,"Jl. Cipta Raya No.45-3, RT.001/RW.003, Jatirahayu, Kec. Pd. Melati, Kota Bks, Jawa Barat 17414","RT.001/RW.003, Jatirahayu, Kec. Pd. Melati, Kota Bks",NUSA TENGGARA TIMUR,17414.0,Indonesia,,,,-62.852.504,1.069.163.397,https://maps.google.com/?cid=0x0:0x3132afedbf38cd61,
komplek housing,Komplek perumahan,Bumi Dirgantara Permai,"RT.009/RW.011, Jatisari, Kec. Jatiasih, Kota Bks, Jawa Barat 17426","Jatisari, Kec. Jatiasih, Kota Bks",NUSA TENGGARA TIMUR,17426.0,Indonesia,,,,-63.463.327,1.069.431.248,https://maps.google.com/?cid=0x0:0xf40af7137bfb745c,
komplek housing,Komplek perumahan,Tanakayu BSD City,"near, Cijantra, Kec. Pagedangan, BSDCITY, Banten","BSDCITY, Banten",NUSA TENGGARA TIMUR,,Indonesia,,,,-62.899.233,1.066.158.628,https://maps.google.com/?cid=0x0:0x4ee4caa5a9f91c1,
komplek housing,Kompleks Townhouse,Bhuvana Residence Bintaro,"Jl. Palem Puri, Pd. Pucung, Kec. Pd. Aren, Kota Tangerang Selatan, Banten 15229","Pd. Pucung, Kec. Pd. Aren, Kota Tangerang Selatan",NUSA TENGGARA TIMUR,15229.0,Indonesia,,,,-62.935.977,1.067.119.775,https://maps.google.com/?cid=0x0:0x27a92352adb0a1f3,
komplek housing,komplek housing,Kec. Soa,"Kabupaten Ngada, Nusa Tenggara Tim.","Kabupaten Ngada, Nusa Tenggara Tim.",NUSA TENGGARA TIMUR,,Indonesia,,,,-86.991.961,1.210.341.254,https://maps.google.com/?cid=0x0:0xa0e2c22221dea3ea,
komplek housing,Konsultan Realestat,Komplek Raya Housing C-9,"Komplek Raya Jl. Raya Housing No.9 BLOK C, RT.003/RW.001, Jatiwaringin, Kec. Pd. Gede, Kota Bks, Jawa Barat 17411","RT.003/RW.001, Jatiwaringin, Kec. Pd. Gede, Kota Bks",NUSA TENGGARA TIMUR,17411.0,Indonesia,,,,-62.809.842,1.069.097.473,https://maps.google.com/?cid=0x0:0x5332830131150540,
komplek housing,Komplek perumahan,Pondok Gede Housing 1,"Jl. Cipta Raya No.45-3, RT.001/RW.003, Jatirahayu, Kec. Pd. Melati, Kota Bks, Jawa Barat 17414","RT.001/RW.003, Jatirahayu, Kec. Pd. Melati, Kota Bks",NUSA TENGGARA TIMUR,17414.0,Indonesia,,,,-62.852.504,1.069.163.397,https://maps.google.com/?cid=0x0:0x3132afedbf38cd61,
komplek housing,Komplek perumahan,Komplek Raya Housing/Molek Blok B No. 4,"PW95+CQ7, Jl. Raya Housing, RT.006/RW.011, Jatiwaringin, Kec. Pd. Gede, Kota Bks, Jawa Barat 17411","Jl. Raya Housing, RT.006/RW.011, Jatiwaringin, Kec. Pd. Gede, Kota Bks",NUSA TENGGARA TIMUR,17411.0,Indonesia,,,,-62.814.591,106.909.408,https://maps.google.com/?cid=0x0:0x47a4e28e626334ff,
komplek housing,komplek housing,Kec. Riung,"Kabupaten Ngada, Nusa Tenggara Tim.","Kabupaten Ngada, Nusa Tenggara Tim.",NUSA TENGGARA TIMUR,,Indonesia,,,,-8.420.665,1.210.268.594,https://maps.google.com/?cid=0x0:0xbef61f4843977b01,
komplek housing,Kantor Perusahaan,Komplek raya housing blok G 10C,"Jl. Raya Housing No.10.C Blok G, Jatiwaringin, Pondok Gede, Bekasi, West Java 17411","Jatiwaringin, Pondok Gede, Bekasi",NUSA TENGGARA TIMUR,17411.0,Indonesia,,,,-62.795.575,1.069.095.851,https://maps.google.com/?cid=0x0:0x3047af3244b1bc18,
komplek housing,Komplek perumahan,Pondok Gede Housing 1,"Jl. Cipta Raya No.45-3, RT.001/RW.003, Jatirahayu, Kec. Pd. Melati, Kota Bks, Jawa Barat 17414","RT.001/RW.003, Jatirahayu, Kec. Pd. Melati, Kota Bks",NUSA TENGGARA TIMUR,17414.0,Indonesia,,,,-62.852.504,1.069.163.397,https://maps.google.com/?cid=0x0:0x3132afedbf38cd61,
komplek housing,Komplek perumahan,Komplek Perumahan Riung Bandung,"Jl. Kemakmuran IV A No.148, Derwati, Kec. Rancasari, Kota Bandung, Jawa Barat 40292","Derwati, Kec. Rancasari, Kota Bandung",NUSA TENGGARA TIMUR,40292.0,Indonesia,,,,-69.564.547,1.076.828.917,https://maps.google.com/?cid=0x0:0xa416ca01f8a5d3e5,
komplek housing,Komplek perumahan,Bumi Dirgantara Permai,"RT.009/RW.011, Jatisari, Kec. Jatiasih, Kota Bks, Jawa Barat 17426","Jatisari, Kec. Jatiasih, Kota Bks",NUSA TENGGARA TIMUR,17426.0,Indonesia,,,,-63.463.327,1.069.431.248,https://maps.google.com/?cid=0x0:0xf40af7137bfb745c,
komplek housing,komplek housing,Rumah bojes,"3X4G+VC4, Jl. Ujung Aspal, Waebela, Kec. Inerie, Kabupaten Ngada, Nusa Tenggara Tim. 86452","Jl. Ujung Aspal, Waebela, Kec. Inerie, Kabupaten Ngada",NUSA TENGGARA TIMUR,86452.0,Indonesia,,,,-89.429.152,1.209.760.981,https://maps.google.com/?cid=0x0:0x875406a20a32e50a,
komplek housing,komplek housing,Kec. Riung Bar.,"Kabupaten Ngada, Nusa Tenggara Tim.","Kabupaten Ngada, Nusa Tenggara Tim.",NUSA TENGGARA TIMUR,,Indonesia,,,,-85.210.715,120.949.077,https://maps.google.com/?cid=0x0:0x457d9b30e57a9ad3,
komplek housing,komplek housing,Kec. Bajawa Utara,"Kabupaten Ngada, Nusa Tenggara Tim.","Kabupaten Ngada, Nusa Tenggara Tim.",NUSA TENGGARA TIMUR,,Indonesia,,,,-87.368.576,1.210.030.037,https://maps.google.com/?cid=0x0:0xb1d8c7bab42c5a19,
komplek housing,Komplek perumahan,Kampung Bajawa A,"6X58+V2J, Bajawa, Kabupaten Ngada, Nusa Tenggara Tim.","Kabupaten Ngada, Nusa Tenggara Tim.",NUSA TENGGARA TIMUR,,Indonesia,,,,-87.902.859,1.209.650.248,https://maps.google.com/?cid=0x0:0xa3a7af7befc14bcf,
komplek housing,Perhimpunan Pengembang Perumahan,Bajawa,"83VH+2PX, Nginamanu, Kec. Wolomeze, Kabupaten Ngada, Nusa Tenggara Tim.","Kabupaten Ngada, Nusa Tenggara Tim.",NUSA TENGGARA TIMUR,,Indonesia,,,,-86.573.819,1.210.793.705,https://maps.google.com/?cid=0x0:0x2f0e27c7e722b250,
komplek housing,komplek housing,Wolomeze,"Kec. Riung Bar., Kabupaten Ngada, Nusa Tenggara Tim.","Kabupaten Ngada, Nusa Tenggara Tim.",NUSA TENGGARA TIMUR,,Indonesia,,,,-85.623.031,1.209.532.123,https://maps.google.com/?cid=0x0:0x99440c213d9da922,
komplek housing,komplek housing,Wogo,"83VH+2PX, Nginamanu, Kec. Wolomeze, Kabupaten Ngada, Nusa Tenggara Tim.","Kabupaten Ngada, Nusa Tenggara Tim.",NUSA TENGGARA TIMUR,,Indonesia,,,,-86.573.819,1.210.793.705,https://maps.google.com/?cid=0x0:0x520b6feb007f49,
komplek housing,Komplek perumahan,Kampung wolomeli,"8X8R+HM8, Inegena, Kec. Bajawa Utara, Kabupaten Ngada, Nusa Tenggara Tim.","Kabupaten Ngada, Nusa Tenggara Tim.",NUSA TENGGARA TIMUR,,Indonesia,,,,-86.835.795,1.209.917.121,https://maps.google.com/?cid=0x0:0xe44a80c77d5a279f,
komplek housing,komplek housing,Kec. Golewa Selatan,"Kabupaten Ngada, Nusa Tenggara Tim.","Kabupaten Ngada, Nusa Tenggara Tim.",NUSA TENGGARA TIMUR,,Indonesia,,,,-88.533.694,1.211.030.931,https://maps.google.com/?cid=0x0:0x841f99d069ae89c3,
komplek housing,Komplek perumahan,Ngorabolo Golewa Selatan,"5458+3CX, Unnamed Road, Takatunga, Kec. Golewa, Kabupaten Ngada, Nusa Tenggara Tim.","Kabupaten Ngada, Nusa Tenggara Tim.",NUSA TENGGARA TIMUR,,Indonesia,,,,-88.422.601,121.116.113,https://maps.google.com/?cid=0x0:0x445cf670a3884066,
komplek housing,Komplek perumahan,B'Gradya,"Jl. Trans Flores No.1, Mangulewa, Kec. Golewa, Kabupaten Ngada, Nusa Tenggara Tim. 86461","Mangulewa, Kec. Golewa, Kabupaten Ngada",NUSA TENGGARA TIMUR,86461.0,Indonesia,,,,-88.159.208,1.210.087.613,https://maps.google.com/?cid=0x0:0x188fba12cacee39e,
komplek housing,komplek housing,Sa'o legewali,"43G7+H85, RT.Jawalina, Were I, Kec. Golewa, Kabupaten Ngada, Nusa Tenggara Tim.","Kabupaten Ngada, Nusa Tenggara Tim.",NUSA TENGGARA TIMUR,,Indonesia,,,,-88.729.171,1.210.631.273,https://maps.google.com/?cid=0x0:0x8eb7b7c5fac96ed1,
komplek housing,Komplek perumahan,B'Gradya,"Jl. Trans Flores No.1, Mangulewa, Kec. Golewa, Kabupaten Ngada, Nusa Tenggara Tim. 86461","Mangulewa, Kec. Golewa, Kabupaten Ngada",NUSA TENGGARA TIMUR,86461.0,Indonesia,,,,-88.159.208,1.210.087.613,https://maps.google.com/?cid=0x0:0x188fba12cacee39e,
komplek housing,Komplek perumahan,Lorong Brakomada,"52P4+634, Jl. Trans Flores, Mangulewa, Kec. Golewa, Kabupaten Ngada, Nusa Tenggara Tim.","Kabupaten Ngada, Nusa Tenggara Tim.",NUSA TENGGARA TIMUR,,Indonesia,,,,-88.144.796,1.210.051.718,https://maps.google.com/?cid=0x0:0xb64b34fca1fcd0e7,
komplek housing,komplek housing,Golewa Bar.,"Kabupaten Ngada, Nusa Tenggara Tim.","Kabupaten Ngada, Nusa Tenggara Tim.",NUSA TENGGARA TIMUR,,Indonesia,,,,-88.077.491,1.210.220.422,https://maps.google.com/?cid=0x0:0x103098ccabb3bc1,
komplek housing,komplek housing,Rumah bojes,"3X4G+VC4, Jl. Ujung Aspal, Waebela, Kec. Inerie, Kabupaten Ngada, Nusa Tenggara Tim. 86452","Jl. Ujung Aspal, Waebela, Kec. Inerie, Kabupaten Ngada",NUSA TENGGARA TIMUR,86452.0,Indonesia,,,,-89.429.152,1.209.760.981,https://maps.google.com/?cid=0x0:0x875406a20a32e50a,
komplek housing,komplek housing,Komplek Housing,"Blok Bojong Nangka I, Jl. Ring Rudal Blok Bojong Nangka I No.68, RT.001/RW.007, Jatirahayu, Kec. Pd. Melati, Kota Bks, Jawa Barat 17414","Jl. Ring Rudal Blok Bojong Nangka I No.68, RT.001/RW.007, Jatirahayu, Kec. Pd. Melati, Kota Bks",NUSA TENGGARA TIMUR,17414.0,Indonesia,,,,-6.293.724,1.069.165.114,https://maps.google.com/?cid=0x0:0x9c50464976dee674,
komplek housing,komplek housing,Kec. Inerie,"Kabupaten Ngada, Nusa Tenggara Tim.","Kabupaten Ngada, Nusa Tenggara Tim.",NUSA TENGGARA TIMUR,,Indonesia,,,,-89.262.385,1.209.260.636,https://maps.google.com/?cid=0x0:0xea23f34b6816de42,
perumahan,Pembangunan Perumahan,Rumah Ancis Goti,"5V76+53, Aimere, Kec. Aimere, Kabupaten Ngada, Nusa Tenggara Tim.","Kabupaten Ngada, Nusa Tenggara Tim.",NUSA TENGGARA TIMUR,,Indonesia,,,,-88.370.501,1.208.602.254,https://maps.google.com/?cid=0x0:0x49a928409a65341e,
perumahan,Komplek perumahan,Rumah Yuliana Deku,"5V36+QCC, Aimere Tim., Kec. Aimere, Kabupaten Ngada, Nusa Tenggara Tim.","Kabupaten Ngada, Nusa Tenggara Tim.",NUSA TENGGARA TIMUR,,Indonesia,,,,-88.459.146,1.208.622.641,https://maps.google.com/?cid=0x0:0x6b9ee9257546d83c,
perumahan,Komplek perumahan,Rumahnya Galang,"5RCP+H63, Aimere, Kec. Aimere, Kabupaten Ngada, Nusa Tenggara Tim.","Kabupaten Ngada, Nusa Tenggara Tim.",NUSA TENGGARA TIMUR,,Indonesia,81337322468,,,-88.285.821,1.208.355.818,https://maps.google.com/?cid=0x0:0xe873554d412a8914,
perumahan,Kantor Pemerintah,Rumah Jabatan Camat Aimere,"5V45+W2C, Jl. Raya Lintas Flores, Aimere, Kec. Aimere, Kabupaten Ngada, Nusa Tenggara Tim.","Kabupaten Ngada, Nusa Tenggara Tim.",NUSA TENGGARA TIMUR,,Indonesia,,,,-88.426.876,1.208.575.109,https://maps.google.com/?cid=0x0:0x228792efdb5ba87e,
perumahan,Komplek perumahan,SIWE FAMILY,"5V36+X97, Aimere Tim., Kec. Aimere, Kabupaten Ngada, Nusa Tenggara Tim.","Kabupaten Ngada, Nusa Tenggara Tim.",NUSA TENGGARA TIMUR,,Indonesia,,,,-88.450.826,1.208.609.256,https://maps.google.com/?cid=0x0:0xae8a3eafbe2d3227,
perumahan,Perhimpunan Pengembang Perumahan,BENGKEL LAS MENTARI PAGI BHAGAROGA KECAMATAN AIMETE,"5V25+786, Aimere Tim., Kec. Aimere, Kabupaten Ngada, Nusa Tenggara Tim.","Kabupaten Ngada, Nusa Tenggara Tim.",NUSA TENGGARA TIMUR,,Indonesia,,,,-88.493.295,120.858.269,https://maps.google.com/?cid=0x0:0x57615e7a16afa40a,
perumahan,Komplek perumahan,Onekore,"5V38+R4, Aimere Tim., Kec. Aimere, Kabupaten Ngada, Nusa Tenggara Tim.","Kabupaten Ngada, Nusa Tenggara Tim.",NUSA TENGGARA TIMUR,,Indonesia,,,,-88.454.921,1.208.652.442,https://maps.google.com/?cid=0x0:0x7f3c8bdf4d54ff8a,
perumahan,Komplek perumahan,Rumah mas herson,"5R9C+JCX, Aimere, Kec. Aimere, Kabupaten Ngada, Nusa Tenggara Tim.","Kabupaten Ngada, Nusa Tenggara Tim.",NUSA TENGGARA TIMUR,,Indonesia,,,,-88.308.836,1.208.211.099,https://maps.google.com/?cid=0x0:0xd60103ba1e0b8cb3,
perumahan,perumahan,PATAZ BIG FAMILI PADHAWOLI,"6X99+JM7, Jl. Wolter Monginsidi, Trikora, Bajawa, Kabupaten Ngada, Nusa Tenggara Tim.","Kabupaten Ngada, Nusa Tenggara Tim.",NUSA TENGGARA TIMUR,,Indonesia,,,,-87.809.738,1.209.691.609,https://maps.google.com/?cid=0x0:0x86e9d82e1da115d4,
perumahan,Komplek perumahan,Kompleks Golgota,"5V46+GJ, Aimere Tim., Kec. Aimere, Kabupaten Ngada, Nusa Tenggara Tim.","Kabupaten Ngada, Nusa Tenggara Tim.",NUSA TENGGARA TIMUR,,Indonesia,,,,-88.436.647,120.861.619,https://maps.google.com/?cid=0x0:0x9b6f90c035c5267a,
perumahan,Komplek perumahan,Bojawa,"5V4G+R7X, Aimere Tim., Kec. Aimere, Kabupaten Ngada, Nusa Tenggara Tim.","Kabupaten Ngada, Nusa Tenggara Tim.",NUSA TENGGARA TIMUR,,Indonesia,,,,-88.428.777,120.875.732,https://maps.google.com/?cid=0x0:0xe9f1dc40d7f71f8a,
perumahan,Pembangunan Perumahan,Lekogoko Nusa tenggara timur,"5V25+786, Aimere Tim., Kec. Aimere, Kabupaten Ngada, Nusa Tenggara Tim.","Kabupaten Ngada, Nusa Tenggara Tim.",NUSA TENGGARA TIMUR,,Indonesia,,,,-88.493.295,120.858.269,https://maps.google.com/?cid=0x0:0x7d6d9ae1085a352b,
perumahan,Komplek perumahan,RM Bastian,"4VGJ+QHW, Foa, Kec. Aimere, Kabupaten Ngada, Nusa Tenggara Tim.","Kabupaten Ngada, Nusa Tenggara Tim.",NUSA TENGGARA TIMUR,,Indonesia,,,,-88.730.153,1.208.814.678,https://maps.google.com/?cid=0x0:0x75606e2084ff5683,
perumahan,Komplek perumahan,Rumah Cheiz,"4VGG+C3, Foa, Kec. Aimere, Kabupaten Ngada, Nusa Tenggara Tim.","Kabupaten Ngada, Nusa Tenggara Tim.",NUSA TENGGARA TIMUR,,Indonesia,,,,-8.873.886,1.208.751.403,https://maps.google.com/?cid=0x0:0xd9d9bc56047c1948,
perumahan,Komplek perumahan,wedding loation,"4VX6+23H, Aimere Tim., Kec. Aimere, Kabupaten Ngada, Nusa Tenggara Tim.","Kabupaten Ngada, Nusa Tenggara Tim.",NUSA TENGGARA TIMUR,,Indonesia,,,,-88.524.453,1.208.602.369,https://maps.google.com/?cid=0x0:0x8f4388cc7ec19071,
perumahan,perumahan,Kec. Aimere,"Kabupaten Ngada, Nusa Tenggara Tim.","Kabupaten Ngada, Nusa Tenggara Tim.",NUSA TENGGARA TIMUR,,Indonesia,,,,-88.493.295,120.858.269,https://maps.google.com/?cid=0x0:0xc48710dbca09700e,
perumahan,Pembangunan Perumahan,Rumah Sendy,"4VJJ+3PJ, Binawali, Aimere, Ngada Regency, East Nusa Tenggara","Kabupaten Ngada, Nusa Tenggara Tim.",NUSA TENGGARA TIMUR,,Indonesia,,,,-88.697.922,1.208.817.692,https://maps.google.com/?cid=0x0:0xb5faea24dd35e790,
perumahan,Komplek perumahan,Ibu Ros ngamo,"5V36+J43, Aimere Tim., Kec. Aimere, Kabupaten Ngada, Nusa Tenggara Tim.","Kabupaten Ngada, Nusa Tenggara Tim.",NUSA TENGGARA TIMUR,,Indonesia,82353293483,,,-8.845.991,1.208.602.919,https://maps.google.com/?cid=0x0:0xd870b089825d1e40,
perumahan,Pembangunan Perumahan,EMVM,"5V25+786, Aimere Tim., Kec. Aimere, Kabupaten Ngada, Nusa Tenggara Tim.","Kabupaten Ngada, Nusa Tenggara Tim.",NUSA TENGGARA TIMUR,,Indonesia,,,,-88.493.295,120.858.269,https://maps.google.com/?cid=0x0:0x90c03fa9cf2f60a3,
perumahan,perumahan,Aimere,"Langagedha, Bajawa, Kabupaten Ngada, Nusa Tenggara Tim.","Kabupaten Ngada, Nusa Tenggara Tim.",NUSA TENGGARA TIMUR,,Indonesia,,,,-8.821.697,120.945.702,https://maps.google.com/?cid=0x0:0x6b62a64ace33e6d9,
perumahan,perumahan,Kristian Homestay,"6X4G+H4P, Unnamed Road, Bajawa, Kabupaten Ngada, Nusa Tenggara Tim.","Kabupaten Ngada, Nusa Tenggara Tim.",NUSA TENGGARA TIMUR,,Indonesia,81339480142,,,-87.935.334,1.209.753.132,https://maps.google.com/?cid=0x0:0x1fe97ebc303d5d72,
perumahan,Pembangunan Perumahan,Rumah Bapak WILHELMUS LONGA,"5V46+R5V, Unnamed Road, Aimere, Kec. Aimere, Kabupaten Ngada, Nusa Tenggara Tim.","Kabupaten Ngada, Nusa Tenggara Tim.",NUSA TENGGARA TIMUR,,Indonesia,,,,-88.428.996,1.208.604.066,https://maps.google.com/?cid=0x0:0xd5400295414eb7ea,
perumahan,Pembangunan Perumahan,Rumah Moses Pajo,"5RCC+8M, Aimere, Kec. Aimere, Kabupaten Ngada, Nusa Tenggara Tim.","Kabupaten Ngada, Nusa Tenggara Tim.",NUSA TENGGARA TIMUR,,Indonesia,,,,-8.829.248,120.821.714,https://maps.google.com/?cid=0x0:0xa57752bf42aae9f4,
perumahan,Komplek perumahan,AwanCrew,"5V35+Q3Q, Aimere Tim., Kec. Aimere, Kabupaten Ngada, Nusa Tenggara Tim. 86452","Aimere Tim., Kec. Aimere, Kabupaten Ngada",NUSA TENGGARA TIMUR,86452.0,Indonesia,,,,-8.845.532,1.208.577.242,https://maps.google.com/?cid=0x0:0xb32a9a956c518134,
perumahan,Komplek perumahan,Rumah Alexander,"5V38+M2V, Aimere Tim., Kec. Aimere, Kabupaten Ngada, Nusa Tenggara Tim.","Kabupaten Ngada, Nusa Tenggara Tim.",NUSA TENGGARA TIMUR,,Indonesia,,,,-88.457.598,1.208.650.421,https://maps.google.com/?cid=0x0:0x4f288343443779d0,
perumahan,Pembangunan Perumahan,Kebun ibu romana lewa,"4VXC+28C, Aimere Tim., Kec. Aimere, Kabupaten Ngada, Nusa Tenggara Tim.","Kabupaten Ngada, Nusa Tenggara Tim.",NUSA TENGGARA TIMUR,,Indonesia,,,,-88.524.398,1.208.707.589,https://maps.google.com/?cid=0x0:0x9a2cd90b3a0cde98,
perumahan,perumahan,Kec. Golewa,"Kabupaten Ngada, Nusa Tenggara Tim.","Kabupaten Ngada, Nusa Tenggara Tim.",NUSA TENGGARA TIMUR,,Indonesia,,,,-8.823.719,121.051.735,https://maps.google.com/?cid=0x0:0xbe72500ebc67578b,
perumahan,Pusat Pendidikan,Turetogo,"5365+3XV, Ratogesa, Kec. Golewa, Kabupaten Ngada, Nusa Tenggara Tim.","Kabupaten Ngada, Nusa Tenggara Tim.",NUSA TENGGARA TIMUR,,Indonesia,,,,-88.397.707,1.210.599.177,https://maps.google.com/?cid=0x0:0x328b7ec487b0fc1d,
perumahan,Seminari,Rumah Retret Kemah Tabor Mataloko,"53F3+QRP, Mataloko, Kec. Golewa, Kabupaten Ngada, Nusa Tenggara Tim.","Kabupaten Ngada, Nusa Tenggara Tim.",NUSA TENGGARA TIMUR,,Indonesia,,,,-88.255.489,1.210.545.793,https://maps.google.com/?cid=0x0:0xebe23cbd18294901,
perumahan,perumahan,Rumah Kepala Desa Waeia,"52CX+PPC, Mataloko, Kec. Golewa, Kabupaten Ngada, Nusa Tenggara Tim.","Kabupaten Ngada, Nusa Tenggara Tim.",NUSA TENGGARA TIMUR,,Indonesia,,,,-88.288.306,1.210.485.274,https://maps.google.com/?cid=0x0:0xce86926a8fc232e,
perumahan,perumahan,Waeia,"53C2+R6R, Mataloko, Kec. Golewa, Kabupaten Ngada, Nusa Tenggara Tim.","Kabupaten Ngada, Nusa Tenggara Tim.",NUSA TENGGARA TIMUR,,Indonesia,,,,-88.278.926,1.210.505.125,https://maps.google.com/?cid=0x0:0x1c39ad5ad257a2b0,
perumahan,Perhimpunan Pengembang Perumahan,Kampung sawuwawo,"43VX+CQM, Sadha, Kec. Golewa, Kabupaten Ngada, Nusa Tenggara Tim.","Kabupaten Ngada, Nusa Tenggara Tim.",NUSA TENGGARA TIMUR,,Indonesia,,,,-88.564.107,121.099.429,https://maps.google.com/?cid=0x0:0x9981d12d568345a1,
perumahan,Komplek perumahan,Sa'o BHAHOGA,"54W3+897, Sarasedu, Kec. Golewa, Kabupaten Ngada, Nusa Tenggara Tim.","Kabupaten Ngada, Nusa Tenggara Tim.",NUSA TENGGARA TIMUR,,Indonesia,,,,-88.042.092,1.211.034.161,https://maps.google.com/?cid=0x0:0xede22c5e5f7b303,
perumahan,Pembangunan Perumahan,Pomamana,"5355+PGV, Ratogesa, Kec. Golewa, Kabupaten Ngada, Nusa Tenggara Tim.","Kabupaten Ngada, Nusa Tenggara Tim.",NUSA TENGGARA TIMUR,,Indonesia,,,,-88.406.257,1.210.588.017,https://maps.google.com/?cid=0x0:0x3f5491aac7bda61,
perumahan,Komplek perumahan,Ngorabolo Golewa Selatan,"5458+3CX, Unnamed Road, Takatunga, Kec. Golewa, Kabupaten Ngada, Nusa Tenggara Tim.","Kabupaten Ngada, Nusa Tenggara Tim.",NUSA TENGGARA TIMUR,,Indonesia,,,,-88.422.601,121.116.113,https://maps.google.com/?cid=0x0:0x445cf670a3884066,
perumahan,Komplek perumahan,Malakaro,"43Q7+CH, Were I, Kec. Golewa, Kabupaten Ngada, Nusa Tenggara Tim.","Kabupaten Ngada, Nusa Tenggara Tim.",NUSA TENGGARA TIMUR,,Indonesia,,,,-88.614.387,1.210.639.735,https://maps.google.com/?cid=0x0:0xf9d334ea2346fdb2,
perumahan,perumahan,Rumah Sebastianus Fongo,"52CX+PPC, Mataloko, Kec. Golewa, Kabupaten Ngada, Nusa Tenggara Tim.","Kabupaten Ngada, Nusa Tenggara Tim.",NUSA TENGGARA TIMUR,,Indonesia,,,,-88.287.869,1.210.485.414,https://maps.google.com/?cid=0x0:0xe386df49c961144a,
perumahan,Pembangunan Perumahan,Malanuza,"Malanuza, Kec. Golewa, Kabupaten Ngada, Nusa Tenggara Tim.","Kabupaten Ngada, Nusa Tenggara Tim.",NUSA TENGGARA TIMUR,,Indonesia,,,,-88.165.366,1.210.851.019,https://maps.google.com/?cid=0x0:0x22f0115d606217fd,
perumahan,Pembangunan Perumahan,Babinsa golewa,"53G7+CW, Todabelu, Kec. Golewa, Kabupaten Ngada, Nusa Tenggara Tim.","Kabupaten Ngada, Nusa Tenggara Tim.",NUSA TENGGARA TIMUR,,Indonesia,,,,-8.823.986,121.064.861,https://maps.google.com/?cid=0x0:0x6016489afa86a430,
perumahan,Komplek perumahan,"Kile, desa were kec. Golewa kab. Ngada","43MF+HFJ, Kile, Were I, Kec. Golewa, Kabupaten Ngada, Nusa Tenggara Tim.","Kabupaten Ngada, Nusa Tenggara Tim.",NUSA TENGGARA TIMUR,,Indonesia,,,,-88.660.484,1.210.736.389,https://maps.google.com/?cid=0x0:0xa5b79f3da9e698ca,
perumahan,Komplek perumahan,Rumah Elisa Daku,"5385+VJ, Todabelu, Kec. Golewa, Kabupaten Ngada, Nusa Tenggara Tim.","Kabupaten Ngada, Nusa Tenggara Tim.",NUSA TENGGARA TIMUR,,Indonesia,,,,-88.323.913,1.210.600.016,https://maps.google.com/?cid=0x0:0x939e441d6cc5434,
perumahan,Vila,Kos Andin,"53MR+77R, Malanuza, Kec. Golewa, Kabupaten Ngada, Nusa Tenggara Tim.","Kabupaten Ngada, Nusa Tenggara Tim.",NUSA TENGGARA TIMUR,,Indonesia,,,,-88.167.703,1.210.906.407,https://maps.google.com/?cid=0x0:0x53bd38a9e143b64d,
perumahan,Perhimpunan Pengembang Perumahan,PERUMNAS REGIONAL NTT,"52P2+P6F, Jl. Trans Flores, Mangulewa, Kec. Golewa, Kabupaten Ngada, Nusa Tenggara Tim.","Kabupaten Ngada, Nusa Tenggara Tim.",NUSA TENGGARA TIMUR,,Indonesia,,,,-88.131.941,1.210.005.569,https://maps.google.com/?cid=0x0:0xd8643f9eee6033e0,
perumahan,Komplek perumahan,Emil Radho,"43H4+88J, Were I, Kec. Golewa, Kabupaten Ngada, Nusa Tenggara Tim.","Kabupaten Ngada, Nusa Tenggara Tim.",NUSA TENGGARA TIMUR,,Indonesia,,,,-88.715.835,1.210.557.019,https://maps.google.com/?cid=0x0:0x1d071b81aaa3f106,
perumahan,Pembangunan Perumahan,Kampung Zepe,"63MR+8MW, Sangadeto, Kec. Golewa, Kabupaten Ngada, Nusa Tenggara Tim.","Kabupaten Ngada, Nusa Tenggara Tim.",NUSA TENGGARA TIMUR,,Indonesia,,,,-87.666.294,1.210.917.031,https://maps.google.com/?cid=0x0:0xc8985c271f9299e6,
perumahan,Komplek perumahan,Tal,"43H4+MJ2, Were I, Kec. Golewa, Kabupaten Ngada, Nusa Tenggara Tim.","Kabupaten Ngada, Nusa Tenggara Tim.",NUSA TENGGARA TIMUR,,Indonesia,,,,-88.708.676,1.210.565.187,https://maps.google.com/?cid=0x0:0x25f75c365abbea46,
perumahan,Komplek perumahan,Rumah Nadya Geme,"53G6+8QJ, Mataloko, Kec. Golewa, Kabupaten Ngada, Nusa Tenggara Tim.","Kabupaten Ngada, Nusa Tenggara Tim.",NUSA TENGGARA TIMUR,,Indonesia,,,,-88.241.625,1.210.618.837,https://maps.google.com/?cid=0x0:0x1a793dad0da04626,
perumahan,Komplek perumahan,Wogo Traditional Village (wogoTV),"5383+R4X, Jl. Raya Bajawa-Ende, Were, Ratogesa, Kec. Golewa, Kabupaten Ngada, Nusa Tenggara Tim.","Kabupaten Ngada, Nusa Tenggara Tim.",NUSA TENGGARA TIMUR,,Indonesia,,,,-8.832.898,1.210.528.585,https://maps.google.com/?cid=0x0:0xda4e0507f39cae04,
perumahan,Komplek perumahan,Rumah natalia,"5367+5M, Ratogesa, Kec. Golewa, Kabupaten Ngada, Nusa Tenggara Tim.","Kabupaten Ngada, Nusa Tenggara Tim.",NUSA TENGGARA TIMUR,,Indonesia,,,,-8.839.556,121.064.239,https://maps.google.com/?cid=0x0:0xfce15f966ef0fbf0,
perumahan,Komplek perumahan,B'Gradya,"Jl. Trans Flores No.1, Mangulewa, Kec. Golewa, Kabupaten Ngada, Nusa Tenggara Tim. 86461","Mangulewa, Kec. Golewa, Kabupaten Ngada",NUSA TENGGARA TIMUR,86461.0,Indonesia,,,,-88.159.208,1.210.087.613,https://maps.google.com/?cid=0x0:0x188fba12cacee39e,
perumahan,Komplek perumahan,Paraliti,"52HJ+FF5, Sobo, Kec. Golewa, Kabupaten Ngada, Nusa Tenggara Tim.","Kabupaten Ngada, Nusa Tenggara Tim.",NUSA TENGGARA TIMUR,,Indonesia,,,,-88.213.606,1.210.312.354,https://maps.google.com/?cid=0x0:0x24ded9e86a167542,
perumahan,perumahan,Sa'o legewali,"43G7+H85, RT.Jawalina, Were I, Kec. Golewa, Kabupaten Ngada, Nusa Tenggara Tim.","Kabupaten Ngada, Nusa Tenggara Tim.",NUSA TENGGARA TIMUR,,Indonesia,,,,-88.729.171,1.210.631.273,https://maps.google.com/?cid=0x0:0x8eb7b7c5fac96ed1,
perumahan,Pembangunan Perumahan,Dadawea,"42XW+VH3, Dadawea, Kec. Golewa, Kabupaten Ngada, Nusa Tenggara Tim.","Kabupaten Ngada, Nusa Tenggara Tim.",NUSA TENGGARA TIMUR,,Indonesia,,,,-88.503.626,1.210.464.101,https://maps.google.com/?cid=0x0:0xcfc429418a1387c2,
perumahan,perumahan,Nusa Tenggara Tim.,,Nusa Tenggara Tim.,NUSA TENGGARA TIMUR,,Indonesia,,,,-86.573.819,1.210.793.705,https://maps.google.com/?cid=0x0:0x1030bfbcaf71ae0,
perumahan,Perhimpunan Pengembang Perumahan,Bajawa,"83VH+2PX, Nginamanu, Kec. Wolomeze, Kabupaten Ngada, Nusa Tenggara Tim.","Kabupaten Ngada, Nusa Tenggara Tim.",NUSA TENGGARA TIMUR,,Indonesia,,,,-86.573.819,1.210.793.705,https://maps.google.com/?cid=0x0:0x2f0e27c7e722b250,
perumahan,Perhimpunan Pengembang Perumahan,BARAK BUJANG RES NGADA,"Jl. Imam Bonjol No.1, Kisanata, Bajawa, Kabupaten Ngada, Nusa Tenggara Tim. 86411","Kisanata, Bajawa, Kabupaten Ngada",NUSA TENGGARA TIMUR,86411.0,Indonesia,,,,-87.883.203,1.209.701.925,https://maps.google.com/?cid=0x0:0x7d6f473552bb00af,
perumahan,perumahan,Hotel Silverin Bajawa,"Jl. Trans Flores Bajawa-Ende Km. 04, Bajawa, Kabupaten Ngada, Nusa Tenggara Tim. 86411","Bajawa, Kabupaten Ngada",NUSA TENGGARA TIMUR,86411.0,Indonesia,3842225506,,,-88.068.765,1.209.768.528,https://maps.google.com/?cid=0x0:0xa57ca8b51e4d7ac3,
perumahan,perumahan,Hotel Virgo,"6X7F+H6Q, Jalan D. I. Panjaitan, Trikora, Bajawa, Ngada Regency, East Nusa Tenggara 86411","Jalan D. I. Panjaitan, Trikora, Bajawa, Ngada Regency",NUSA TENGGARA TIMUR,86411.0,Indonesia,82145968066,,,-87.860.313,1.209.731.117,https://maps.google.com/?cid=0x0:0x8fc26f2f43f4869,
perumahan,Tujuan Wisata,Desa Bena,"4XFP+892, Unnamed Rd, Nusa Tenggara Tim., Tiworiwu, Kec. Jerebuu, Kabupaten Ngada, Nusa Tenggara Tim.","Kabupaten Ngada, Nusa Tenggara Tim.",NUSA TENGGARA TIMUR,,Indonesia,,,,-88.767.439,1.209.858.981,https://maps.google.com/?cid=0x0:0x37927d1166e19c6e,
perumahan,perumahan,Bursa Cellular Bajawa,"jalan. RE.MARTADINATA No.4, Bajawa, FLORES, Nusa Tenggara Tim. 86411","Bajawa, FLORES",NUSA TENGGARA TIMUR,86411.0,Indonesia,,,,-8.792.325,120.960.602,https://maps.google.com/?cid=0x0:0x383f082103080442,
perumahan,perumahan,Bajawa,"Bajawa, Kabupaten Ngada, Nusa Tenggara Tim.","Kabupaten Ngada, Nusa Tenggara Tim.",NUSA TENGGARA TIMUR,,Indonesia,,,,-8.792.325,120.960.602,https://maps.google.com/?cid=0x0:0x3cbeacbc23e7d171,
perumahan,Penginapan,Bajawa,"6X56+369, Bajawa, Kabupaten Ngada, Nusa Tenggara Tim.","Kabupaten Ngada, Nusa Tenggara Tim.",NUSA TENGGARA TIMUR,,Indonesia,,,,-8.792.325,120.960.602,https://maps.google.com/?cid=0x0:0xe868b694e147ece6,
perumahan,Komplek perumahan,Uluwae 1,"6X56+369, Bajawa, Kabupaten Ngada, Nusa Tenggara Tim.","Kabupaten Ngada, Nusa Tenggara Tim.",NUSA TENGGARA TIMUR,,Indonesia,,,,-8.792.325,120.960.602,https://maps.google.com/?cid=0x0:0xf250a0a970ea4dd4,
perumahan,Perhimpunan Pengembang Perumahan,Kisanata,"6X56+369, Bajawa, Kabupaten Ngada, Nusa Tenggara Tim.","Kabupaten Ngada, Nusa Tenggara Tim.",NUSA TENGGARA TIMUR,,Indonesia,,,,-8.792.325,120.960.602,https://maps.google.com/?cid=0x0:0x5579b43ad48bbe37,
perumahan,Komplek perumahan,rakalaba 1,"6X56+369, Bajawa, Kabupaten Ngada, Nusa Tenggara Tim.","Kabupaten Ngada, Nusa Tenggara Tim.",NUSA TENGGARA TIMUR,,Indonesia,,,,-8.792.325,120.960.602,https://maps.google.com/?cid=0x0:0xdceca3f22c7325e0,
perumahan,Komplek perumahan,Lindi,"6X56+369, Bajawa, Kabupaten Ngada, Nusa Tenggara Tim.","Kabupaten Ngada, Nusa Tenggara Tim.",NUSA TENGGARA TIMUR,,Indonesia,,,,-8.792.325,120.960.602,https://maps.google.com/?cid=0x0:0xcf4262f0f64f3181,
perumahan,Komplek perumahan,Ngada,"6X56+369, Bajawa, Kabupaten Ngada, Nusa Tenggara Tim.","Kabupaten Ngada, Nusa Tenggara Tim.",NUSA TENGGARA TIMUR,,Indonesia,,,,-8.792.325,120.960.602,https://maps.google.com/?cid=0x0:0x90bf4198852fc753,
perumahan,perumahan,Lila,"6X45+JVC, Bajawa, Kabupaten Ngada, Nusa Tenggara Tim.","Kabupaten Ngada, Nusa Tenggara Tim.",NUSA TENGGARA TIMUR,,Indonesia,,,,-87.934.486,1.209.596.366,https://maps.google.com/?cid=0x0:0x5cfc123310d47ce4,
perumahan,Komplek perumahan,Rumah Tinggal,"Basuki Rahmat No.11, Bajawa, Flores, Kabupaten Ngada, Nusa Tenggara Tim.","Kabupaten Ngada, Nusa Tenggara Tim.",NUSA TENGGARA TIMUR,,Indonesia,,,,-8.792.325,120.960.602,https://maps.google.com/?cid=0x0:0xaebe024f4773fb5,
perumahan,perumahan,Boloji,"6X56+369, Bajawa, Kabupaten Ngada, Nusa Tenggara Tim.","Kabupaten Ngada, Nusa Tenggara Tim.",NUSA TENGGARA TIMUR,,Indonesia,,,,-8.792.325,120.960.602,https://maps.google.com/?cid=0x0:0x6b3dc463305dc2e2,
perumahan,Pembangunan Perumahan,Malanawe woiohoo,"6X56+369, Bajawa, Kabupaten Ngada, Nusa Tenggara Tim.","Kabupaten Ngada, Nusa Tenggara Tim.",NUSA TENGGARA TIMUR,,Indonesia,,,,-8.792.325,120.960.602,https://maps.google.com/?cid=0x0:0xa88995d8d2bc7a5c,
perumahan,Kompleks Kondominium,Watujaji village,"6X56+369, Bajawa, Kabupaten Ngada, Nusa Tenggara Tim.","Kabupaten Ngada, Nusa Tenggara Tim.",NUSA TENGGARA TIMUR,,Indonesia,,,,-8.792.325,120.960.602,https://maps.google.com/?cid=0x0:0x6551df3e9aeac910,
perumahan,perumahan,Gudang bokua,"6X56+369, Bajawa, Kabupaten Ngada, Nusa Tenggara Tim.","Kabupaten Ngada, Nusa Tenggara Tim.",NUSA TENGGARA TIMUR,,Indonesia,,,,-8.792.325,120.960.602,https://maps.google.com/?cid=0x0:0x2fa944c63e84b11a,
perumahan,Komplek perumahan,Desa Ngoranale,"6X56+369, Bajawa, Kabupaten Ngada, Nusa Tenggara Tim.","Kabupaten Ngada, Nusa Tenggara Tim.",NUSA TENGGARA TIMUR,,Indonesia,,,,-8.792.325,120.960.602,https://maps.google.com/?cid=0x0:0x67826224adf1f557,
perumahan,Komplek perumahan,Rumah ikson riwu,"6X56+369, Bajawa, Kabupaten Ngada, Nusa Tenggara Tim.","Kabupaten Ngada, Nusa Tenggara Tim.",NUSA TENGGARA TIMUR,,Indonesia,,,,-8.792.325,120.960.602,https://maps.google.com/?cid=0x0:0xbcdd9791b56a8534,
perumahan,Pembangunan Perumahan,Kelurahan Trikora,"6X56+369, Bajawa, Kabupaten Ngada, Nusa Tenggara Tim.","Kabupaten Ngada, Nusa Tenggara Tim.",NUSA TENGGARA TIMUR,,Indonesia,,,,-8.792.325,120.960.602,https://maps.google.com/?cid=0x0:0xe9c089b0de95f171,
perumahan,Pembangunan Perumahan,Verma farm house,"Bajawa Rawat ka, Bajawa, Ngada Regency, East Nusa Tenggara","Kabupaten Ngada, Nusa Tenggara Tim.",NUSA TENGGARA TIMUR,,Indonesia,,,,-8.792.325,120.960.602,https://maps.google.com/?cid=0x0:0x7a9d71b99ec6dafc,
perumahan,Perhimpunan Pengembang Perumahan,Sonu kumar,"6X56+369, Bajawa, Rajasthan, India, Bajawa","Kabupaten Ngada, Nusa Tenggara Tim.",NUSA TENGGARA TIMUR,,Indonesia,,,,-8.792.325,120.960.602,https://maps.google.com/?cid=0x0:0xfac5c76920f40c3f,
perumahan,Komplek perumahan,Stef lGae,"Jln. Waenay No.RT 8, Desa Bolonga, Bajawa, Kabupaten Ngada, Nusa Tenggara Tim.","Kabupaten Ngada, Nusa Tenggara Tim.",NUSA TENGGARA TIMUR,,Indonesia,,,,-8.792.325,120.960.602,https://maps.google.com/?cid=0x0:0x8d28ca1ff47e5d32,
perumahan,Pembangunan Perumahan,Desa Tadho Barat,"6X56+369, Jalan riung -bajawa, RT.01/RW.01, desa tadho barat, kec riung, Kabupaten Ngada, Nusa Tenggara Tim.","Kabupaten Ngada, Nusa Tenggara Tim.",NUSA TENGGARA TIMUR,,Indonesia,,,,-8.792.325,120.960.602,https://maps.google.com/?cid=0x0:0xa84084024290e5d1,
perumahan,perumahan,Nusa Tenggara Tim.,,Nusa Tenggara Tim.,NUSA TENGGARA TIMUR,,Indonesia,,,,-86.573.819,1.210.793.705,https://maps.google.com/?cid=0x0:0x1030bfbcaf71ae0,
perumahan,Penginapan,Bajawa,"6X56+369, Bajawa, Kabupaten Ngada, Nusa Tenggara Tim.","Kabupaten Ngada, Nusa Tenggara Tim.",NUSA TENGGARA TIMUR,,Indonesia,,,,-8.792.325,120.960.602,https://maps.google.com/?cid=0x0:0xe868b694e147ece6,
perumahan,Komplek perumahan,Kampung Bajawa A,"6X58+V2J, Bajawa, Kabupaten Ngada, Nusa Tenggara Tim.","Kabupaten Ngada, Nusa Tenggara Tim.",NUSA TENGGARA TIMUR,,Indonesia,,,,-87.902.859,1.209.650.248,https://maps.google.com/?cid=0x0:0xa3a7af7befc14bcf,
perumahan,Komplek perumahan,Kampung beiposo bajawa,"6WGV+HR9, Beiwali, Bajawa, Kabupaten Ngada, Nusa Tenggara Tim.","Kabupaten Ngada, Nusa Tenggara Tim.",NUSA TENGGARA TIMUR,,Indonesia,,,,-87.735.753,1.209.446.058,https://maps.google.com/?cid=0x0:0xe20af22dbc51173,
perumahan,Perhimpunan Pengembang Perumahan,Ngalisabu,"6X3C+7V3, Bajawa, Kabupaten Ngada, Nusa Tenggara Tim.","Kabupaten Ngada, Nusa Tenggara Tim.",NUSA TENGGARA TIMUR,,Indonesia,,,,-87.968.543,120.972.167,https://maps.google.com/?cid=0x0:0xcab11bea0728d6a4,
perumahan,Kantor Pemerintah,Kampung Borani Desa Borani Langa Kecamatan Bajawa Ngada NTT,"5XG7+CQM, Borani, Bajawa, Kabupaten Ngada, Nusa Tenggara Tim.","Kabupaten Ngada, Nusa Tenggara Tim.",NUSA TENGGARA TIMUR,,Indonesia,,,,-8.823.919,1.209.644.324,https://maps.google.com/?cid=0x0:0x3d9b66bc71ed2519,
perumahan,Komplek perumahan,BAJAWA,"Jl. W.J. Lalamentik, Oebufu, Kec. Oebobo, Kota Kupang, Nusa Tenggara Tim.","Kota Kupang, Nusa Tenggara Tim.",NUSA TENGGARA TIMUR,,Indonesia,,,,-101.730.684,1.236.130.903,https://maps.google.com/?cid=0x0:0x858212b5a325267d,
perumahan,Pembangunan Perumahan,Rumah Opa Yohanes Nuwa,"66H4+CF4, RT.01, Wolopogo, Kec. Boawae, Kabupaten Nagekeo, Nusa Tenggara Tim. 86412","RT.01, Wolopogo, Kec. Boawae, Kabupaten Nagekeo",NUSA TENGGARA TIMUR,86412.0,Indonesia,82138783089,,,-87.714.855,1.212.062.075,https://maps.google.com/?cid=0x0:0x31a3200ecc2e8f57,
perumahan,Restoran,Anugrah Resto,"Jl. Ahmad Yani No.76, Tanalodu, Bajawa, Kabupaten Ngada, Nusa Tenggara Tim. 86412","Tanalodu, Bajawa, Kabupaten Ngada",NUSA TENGGARA TIMUR,86412.0,Indonesia,,,,-87.915.706,1.209.750.104,https://maps.google.com/?cid=0x0:0xd4f8011f7b7298b7,
perumahan,Toko Bahan Bangunan,"Nuansa Jaya Abadi,Cv","Ngada, Jl. Basuki Rahmat, Tanalodu, Bajawa, Ngada Regency, East Nusa Tenggara 86412","Jl. Basuki Rahmat, Tanalodu, Bajawa, Ngada Regency",NUSA TENGGARA TIMUR,86412.0,Indonesia,85141722822,,,-87.901.931,1.209.747.459,https://maps.google.com/?cid=0x0:0x264d1a01de88fac8,
perumahan,perumahan,Bajawa,"Bajawa, Kabupaten Ngada, Nusa Tenggara Tim.","Kabupaten Ngada, Nusa Tenggara Tim.",NUSA TENGGARA TIMUR,,Indonesia,,,,-8.792.325,120.960.602,https://maps.google.com/?cid=0x0:0x3cbeacbc23e7d171,
perumahan,Komplek perumahan,Lindi,"6X56+369, Bajawa, Kabupaten Ngada, Nusa Tenggara Tim.","Kabupaten Ngada, Nusa Tenggara Tim.",NUSA TENGGARA TIMUR,,Indonesia,,,,-8.792.325,120.960.602,https://maps.google.com/?cid=0x0:0xcf4262f0f64f3181,
perumahan,Perhimpunan Pengembang Perumahan,Kisanata,"6X56+369, Bajawa, Kabupaten Ngada, Nusa Tenggara Tim.","Kabupaten Ngada, Nusa Tenggara Tim.",NUSA TENGGARA TIMUR,,Indonesia,,,,-8.792.325,120.960.602,https://maps.google.com/?cid=0x0:0x5579b43ad48bbe37,
perumahan,Komplek perumahan,Uluwae 1,"6X56+369, Bajawa, Kabupaten Ngada, Nusa Tenggara Tim.","Kabupaten Ngada, Nusa Tenggara Tim.",NUSA TENGGARA TIMUR,,Indonesia,,,,-8.792.325,120.960.602,https://maps.google.com/?cid=0x0:0xf250a0a970ea4dd4,
perumahan,Komplek perumahan,Ngada,"6X56+369, Bajawa, Kabupaten Ngada, Nusa Tenggara Tim.","Kabupaten Ngada, Nusa Tenggara Tim.",NUSA TENGGARA TIMUR,,Indonesia,,,,-8.792.325,120.960.602,https://maps.google.com/?cid=0x0:0x90bf4198852fc753,
perumahan,perumahan,Lila,"6X45+JVC, Bajawa, Kabupaten Ngada, Nusa Tenggara Tim.","Kabupaten Ngada, Nusa Tenggara Tim.",NUSA TENGGARA TIMUR,,Indonesia,,,,-87.934.486,1.209.596.366,https://maps.google.com/?cid=0x0:0x5cfc123310d47ce4,
perumahan,Komplek perumahan,Rumah Tinggal,"Basuki Rahmat No.11, Bajawa, Flores, Kabupaten Ngada, Nusa Tenggara Tim.","Kabupaten Ngada, Nusa Tenggara Tim.",NUSA TENGGARA TIMUR,,Indonesia,,,,-8.792.325,120.960.602,https://maps.google.com/?cid=0x0:0xaebe024f4773fb5,
perumahan,Komplek perumahan,rakalaba 1,"6X56+369, Bajawa, Kabupaten Ngada, Nusa Tenggara Tim.","Kabupaten Ngada, Nusa Tenggara Tim.",NUSA TENGGARA TIMUR,,Indonesia,,,,-8.792.325,120.960.602,https://maps.google.com/?cid=0x0:0xdceca3f22c7325e0,
perumahan,Pembangunan Perumahan,Malanawe woiohoo,"6X56+369, Bajawa, Kabupaten Ngada, Nusa Tenggara Tim.","Kabupaten Ngada, Nusa Tenggara Tim.",NUSA TENGGARA TIMUR,,Indonesia,,,,-8.792.325,120.960.602,https://maps.google.com/?cid=0x0:0xa88995d8d2bc7a5c,
perumahan,perumahan,Boloji,"6X56+369, Bajawa, Kabupaten Ngada, Nusa Tenggara Tim.","Kabupaten Ngada, Nusa Tenggara Tim.",NUSA TENGGARA TIMUR,,Indonesia,,,,-8.792.325,120.960.602,https://maps.google.com/?cid=0x0:0x6b3dc463305dc2e2,
perumahan,perumahan,Gudang bokua,"6X56+369, Bajawa, Kabupaten Ngada, Nusa Tenggara Tim.","Kabupaten Ngada, Nusa Tenggara Tim.",NUSA TENGGARA TIMUR,,Indonesia,,,,-8.792.325,120.960.602,https://maps.google.com/?cid=0x0:0x2fa944c63e84b11a,
perumahan,Kompleks Kondominium,Watujaji village,"6X56+369, Bajawa, Kabupaten Ngada, Nusa Tenggara Tim.","Kabupaten Ngada, Nusa Tenggara Tim.",NUSA TENGGARA TIMUR,,Indonesia,,,,-8.792.325,120.960.602,https://maps.google.com/?cid=0x0:0x6551df3e9aeac910,
perumahan,Komplek perumahan,Rumah ikson riwu,"6X56+369, Bajawa, Kabupaten Ngada, Nusa Tenggara Tim.","Kabupaten Ngada, Nusa Tenggara Tim.",NUSA TENGGARA TIMUR,,Indonesia,,,,-8.792.325,120.960.602,https://maps.google.com/?cid=0x0:0xbcdd9791b56a8534,
perumahan,Komplek perumahan,Desa Ngoranale,"6X56+369, Bajawa, Kabupaten Ngada, Nusa Tenggara Tim.","Kabupaten Ngada, Nusa Tenggara Tim.",NUSA TENGGARA TIMUR,,Indonesia,,,,-8.792.325,120.960.602,https://maps.google.com/?cid=0x0:0x67826224adf1f557,
perumahan,Pembangunan Perumahan,Kelurahan Trikora,"6X56+369, Bajawa, Kabupaten Ngada, Nusa Tenggara Tim.","Kabupaten Ngada, Nusa Tenggara Tim.",NUSA TENGGARA TIMUR,,Indonesia,,,,-8.792.325,120.960.602,https://maps.google.com/?cid=0x0:0xe9c089b0de95f171,
perumahan,Pembangunan Perumahan,Desa Tadho Barat,"6X56+369, Jalan riung -bajawa, RT.01/RW.01, desa tadho barat, kec riung, Kabupaten Ngada, Nusa Tenggara Tim.","Kabupaten Ngada, Nusa Tenggara Tim.",NUSA TENGGARA TIMUR,,Indonesia,,,,-8.792.325,120.960.602,https://maps.google.com/?cid=0x0:0xa84084024290e5d1,
perumahan,Perhimpunan Pengembang Perumahan,Sonu kumar,"6X56+369, Bajawa, Rajasthan, India, Bajawa","Kabupaten Ngada, Nusa Tenggara Tim.",NUSA TENGGARA TIMUR,,Indonesia,,,,-8.792.325,120.960.602,https://maps.google.com/?cid=0x0:0xfac5c76920f40c3f,
perumahan,Komplek perumahan,Stef lGae,"Jln. Waenay No.RT 8, Desa Bolonga, Bajawa, Kabupaten Ngada, Nusa Tenggara Tim.","Kabupaten Ngada, Nusa Tenggara Tim.",NUSA TENGGARA TIMUR,,Indonesia,,,,-8.792.325,120.960.602,https://maps.google.com/?cid=0x0:0x8d28ca1ff47e5d32,
perumahan,Pembangunan Perumahan,Verma farm house,"Bajawa Rawat ka, Bajawa, Ngada Regency, East Nusa Tenggara","Kabupaten Ngada, Nusa Tenggara Tim.",NUSA TENGGARA TIMUR,,Indonesia,,,,-8.792.325,120.960.602,https://maps.google.com/?cid=0x0:0x7a9d71b99ec6dafc,
perumahan,perumahan,Nusa Tenggara Tim.,,Nusa Tenggara Tim.,NUSA TENGGARA TIMUR,,Indonesia,,,,-86.573.819,1.210.793.705,https://maps.google.com/?cid=0x0:0x1030bfbcaf71ae0,
perumahan,Penginapan,Bajawa,"6X56+369, Bajawa, Kabupaten Ngada, Nusa Tenggara Tim.","Kabupaten Ngada, Nusa Tenggara Tim.",NUSA TENGGARA TIMUR,,Indonesia,,,,-8.792.325,120.960.602,https://maps.google.com/?cid=0x0:0xe868b694e147ece6,
perumahan,Komplek perumahan,Kampung Bajawa A,"6X58+V2J, Bajawa, Kabupaten Ngada, Nusa Tenggara Tim.","Kabupaten Ngada, Nusa Tenggara Tim.",NUSA TENGGARA TIMUR,,Indonesia,,,,-87.902.859,1.209.650.248,https://maps.google.com/?cid=0x0:0xa3a7af7befc14bcf,
perumahan,Perhimpunan Pengembang Perumahan,Ngalisabu,"6X3C+7V3, Bajawa, Kabupaten Ngada, Nusa Tenggara Tim.","Kabupaten Ngada, Nusa Tenggara Tim.",NUSA TENGGARA TIMUR,,Indonesia,,,,-87.968.543,120.972.167,https://maps.google.com/?cid=0x0:0xcab11bea0728d6a4,
perumahan,Komplek perumahan,Kampung beiposo bajawa,"6WGV+HR9, Beiwali, Bajawa, Kabupaten Ngada, Nusa Tenggara Tim.","Kabupaten Ngada, Nusa Tenggara Tim.",NUSA TENGGARA TIMUR,,Indonesia,,,,-87.735.753,1.209.446.058,https://maps.google.com/?cid=0x0:0xe20af22dbc51173,
perumahan,Rumah Kayu,Rumah produksi kopi Wolowio,"Wawowae, Bajawa, Kabupaten Ngada, Nusa Tenggara Tim. 86413","Bajawa, Kabupaten Ngada",NUSA TENGGARA TIMUR,86413.0,Indonesia,85253614006,,,-87.822.651,1.209.585.495,https://maps.google.com/?cid=0x0:0x3364827991a300d0,
perumahan,Komplek perumahan,BAJAWA,"Jl. W.J. Lalamentik, Oebufu, Kec. Oebobo, Kota Kupang, Nusa Tenggara Tim.","Kota Kupang, Nusa Tenggara Tim.",NUSA TENGGARA TIMUR,,Indonesia,,,,-101.730.684,1.236.130.903,https://maps.google.com/?cid=0x0:0x858212b5a325267d,
perumahan,Kantor Pemerintah,RSUD BAJAWA,"Jl. Diponegoro No.5, Trikora, Bajawa, Kabupaten Ngada, Nusa Tenggara Tim.","Kabupaten Ngada, Nusa Tenggara Tim.",NUSA TENGGARA TIMUR,,Indonesia,38421030,,,-87.830.442,1.209.727.449,https://maps.google.com/?cid=0x0:0xba6d39f49cb3935e,
perumahan,Indonesia,Heavens Door Bar  Restaurant,"Jerebuu, Tiworiwu, Bajawa, Kabupaten Ngada, Nusa Tenggara Tim. 86413","Tiworiwu, Bajawa, Kabupaten Ngada",NUSA TENGGARA TIMUR,86413.0,Indonesia,82144774417,,,-88.641.596,120.994.707,https://maps.google.com/?cid=0x0:0xcee91644a99e188b,
perumahan,Toko Komputer,Ao2 Solution Bajawa,"Kampung Wakomenge, Bajawa, Kabupaten Ngada, Nusa Tenggara Tim. 86413","Bajawa, Kabupaten Ngada",NUSA TENGGARA TIMUR,86413.0,Indonesia,85933642982,,,-87.841.838,120.963.758,https://maps.google.com/?cid=0x0:0xa2e54ee19b946a1b,
perumahan,perumahan,Bajawa,"Bajawa, Kabupaten Ngada, Nusa Tenggara Tim.","Kabupaten Ngada, Nusa Tenggara Tim.",NUSA TENGGARA TIMUR,,Indonesia,,,,-8.792.325,120.960.602,https://maps.google.com/?cid=0x0:0x3cbeacbc23e7d171,
perumahan,Komplek perumahan,Uluwae 1,"6X56+369, Bajawa, Kabupaten Ngada, Nusa Tenggara Tim.","Kabupaten Ngada, Nusa Tenggara Tim.",NUSA TENGGARA TIMUR,,Indonesia,,,,-8.792.325,120.960.602,https://maps.google.com/?cid=0x0:0xf250a0a970ea4dd4,
perumahan,Komplek perumahan,Ngada,"6X56+369, Bajawa, Kabupaten Ngada, Nusa Tenggara Tim.","Kabupaten Ngada, Nusa Tenggara Tim.",NUSA TENGGARA TIMUR,,Indonesia,,,,-8.792.325,120.960.602,https://maps.google.com/?cid=0x0:0x90bf4198852fc753,
perumahan,Komplek perumahan,Lindi,"6X56+369, Bajawa, Kabupaten Ngada, Nusa Tenggara Tim.","Kabupaten Ngada, Nusa Tenggara Tim.",NUSA TENGGARA TIMUR,,Indonesia,,,,-8.792.325,120.960.602,https://maps.google.com/?cid=0x0:0xcf4262f0f64f3181,
perumahan,Komplek perumahan,Rumah Tinggal,"Basuki Rahmat No.11, Bajawa, Flores, Kabupaten Ngada, Nusa Tenggara Tim.","Kabupaten Ngada, Nusa Tenggara Tim.",NUSA TENGGARA TIMUR,,Indonesia,,,,-8.792.325,120.960.602,https://maps.google.com/?cid=0x0:0xaebe024f4773fb5,
perumahan,Perhimpunan Pengembang Perumahan,Kisanata,"6X56+369, Bajawa, Kabupaten Ngada, Nusa Tenggara Tim.","Kabupaten Ngada, Nusa Tenggara Tim.",NUSA TENGGARA TIMUR,,Indonesia,,,,-8.792.325,120.960.602,https://maps.google.com/?cid=0x0:0x5579b43ad48bbe37,
perumahan,Komplek perumahan,rakalaba 1,"6X56+369, Bajawa, Kabupaten Ngada, Nusa Tenggara Tim.","Kabupaten Ngada, Nusa Tenggara Tim.",NUSA TENGGARA TIMUR,,Indonesia,,,,-8.792.325,120.960.602,https://maps.google.com/?cid=0x0:0xdceca3f22c7325e0,
perumahan,perumahan,Lila,"6X45+JVC, Bajawa, Kabupaten Ngada, Nusa Tenggara Tim.","Kabupaten Ngada, Nusa Tenggara Tim.",NUSA TENGGARA TIMUR,,Indonesia,,,,-87.934.486,1.209.596.366,https://maps.google.com/?cid=0x0:0x5cfc123310d47ce4,
perumahan,Pembangunan Perumahan,Malanawe woiohoo,"6X56+369, Bajawa, Kabupaten Ngada, Nusa Tenggara Tim.","Kabupaten Ngada, Nusa Tenggara Tim.",NUSA TENGGARA TIMUR,,Indonesia,,,,-8.792.325,120.960.602,https://maps.google.com/?cid=0x0:0xa88995d8d2bc7a5c,
perumahan,perumahan,Boloji,"6X56+369, Bajawa, Kabupaten Ngada, Nusa Tenggara Tim.","Kabupaten Ngada, Nusa Tenggara Tim.",NUSA TENGGARA TIMUR,,Indonesia,,,,-8.792.325,120.960.602,https://maps.google.com/?cid=0x0:0x6b3dc463305dc2e2,
perumahan,Komplek perumahan,Desa Ngoranale,"6X56+369, Bajawa, Kabupaten Ngada, Nusa Tenggara Tim.","Kabupaten Ngada, Nusa Tenggara Tim.",NUSA TENGGARA TIMUR,,Indonesia,,,,-8.792.325,120.960.602,https://maps.google.com/?cid=0x0:0x67826224adf1f557,
perumahan,Pembangunan Perumahan,Kelurahan Trikora,"6X56+369, Bajawa, Kabupaten Ngada, Nusa Tenggara Tim.","Kabupaten Ngada, Nusa Tenggara Tim.",NUSA TENGGARA TIMUR,,Indonesia,,,,-8.792.325,120.960.602,https://maps.google.com/?cid=0x0:0xe9c089b0de95f171,
perumahan,Kompleks Kondominium,Watujaji village,"6X56+369, Bajawa, Kabupaten Ngada, Nusa Tenggara Tim.","Kabupaten Ngada, Nusa Tenggara Tim.",NUSA TENGGARA TIMUR,,Indonesia,,,,-8.792.325,120.960.602,https://maps.google.com/?cid=0x0:0x6551df3e9aeac910,
perumahan,perumahan,Gudang bokua,"6X56+369, Bajawa, Kabupaten Ngada, Nusa Tenggara Tim.","Kabupaten Ngada, Nusa Tenggara Tim.",NUSA TENGGARA TIMUR,,Indonesia,,,,-8.792.325,120.960.602,https://maps.google.com/?cid=0x0:0x2fa944c63e84b11a,
perumahan,Komplek perumahan,Rumah ikson riwu,"6X56+369, Bajawa, Kabupaten Ngada, Nusa Tenggara Tim.","Kabupaten Ngada, Nusa Tenggara Tim.",NUSA TENGGARA TIMUR,,Indonesia,,,,-8.792.325,120.960.602,https://maps.google.com/?cid=0x0:0xbcdd9791b56a8534,
perumahan,Komplek perumahan,Stef lGae,"Jln. Waenay No.RT 8, Desa Bolonga, Bajawa, Kabupaten Ngada, Nusa Tenggara Tim.","Kabupaten Ngada, Nusa Tenggara Tim.",NUSA TENGGARA TIMUR,,Indonesia,,,,-8.792.325,120.960.602,https://maps.google.com/?cid=0x0:0x8d28ca1ff47e5d32,
perumahan,Perhimpunan Pengembang Perumahan,Sonu kumar,"6X56+369, Bajawa, Rajasthan, India, Bajawa","Kabupaten Ngada, Nusa Tenggara Tim.",NUSA TENGGARA TIMUR,,Indonesia,,,,-8.792.325,120.960.602,https://maps.google.com/?cid=0x0:0xfac5c76920f40c3f,
perumahan,Pembangunan Perumahan,Verma farm house,"Bajawa Rawat ka, Bajawa, Ngada Regency, East Nusa Tenggara","Kabupaten Ngada, Nusa Tenggara Tim.",NUSA TENGGARA TIMUR,,Indonesia,,,,-8.792.325,120.960.602,https://maps.google.com/?cid=0x0:0x7a9d71b99ec6dafc,
perumahan,Pembangunan Perumahan,Desa Tadho Barat,"6X56+369, Jalan riung -bajawa, RT.01/RW.01, desa tadho barat, kec riung, Kabupaten Ngada, Nusa Tenggara Tim.","Kabupaten Ngada, Nusa Tenggara Tim.",NUSA TENGGARA TIMUR,,Indonesia,,,,-8.792.325,120.960.602,https://maps.google.com/?cid=0x0:0xa84084024290e5d1,
perumahan,perumahan,Nusa Tenggara Tim.,,Nusa Tenggara Tim.,NUSA TENGGARA TIMUR,,Indonesia,,,,-86.573.819,1.210.793.705,https://maps.google.com/?cid=0x0:0x1030bfbcaf71ae0,
perumahan,Penginapan,Bajawa,"6X56+369, Bajawa, Kabupaten Ngada, Nusa Tenggara Tim.","Kabupaten Ngada, Nusa Tenggara Tim.",NUSA TENGGARA TIMUR,,Indonesia,,,,-8.792.325,120.960.602,https://maps.google.com/?cid=0x0:0xe868b694e147ece6,
perumahan,Komplek perumahan,Rumah Fian Kadju,"6XC9+FW4, JL P. Diponegoro, Trikora, Bajawa, Kabupaten Ngada, Nusa Tenggara Tim. 86414","JL P. Diponegoro, Trikora, Bajawa, Kabupaten Ngada",NUSA TENGGARA TIMUR,86414.0,Indonesia,,,,-87.788.448,1.209.698.632,https://maps.google.com/?cid=0x0:0x6ec542450b8bc80,
perumahan,Toko Komputer,Hito Hato Bajawa,"Jln R.E.martadinata, Bajawa, Kabupaten Ngada, Nusa Tenggara Tim. 86414","Bajawa, Kabupaten Ngada",NUSA TENGGARA TIMUR,86414.0,Indonesia,81237021525,,,-8.792.325,120.960.602,https://maps.google.com/?cid=0x0:0xc3ffa0aaace36a93,
perumahan,Toko Komputer,Maiwali Computer Bajawa,"Area SMAS Katolik Regina Pacis Bajawa, Jl. Yos Soedarso No.Samping, Trikora, Bajawa, Nusa Tenggara Tim. 86414","Jl. Yos Soedarso No.Samping, Trikora, Bajawa",NUSA TENGGARA TIMUR,86414.0,Indonesia,82192166777,,,-87.844.706,1.209.706.945,https://maps.google.com/?cid=0x0:0xa55d82997471d57c,
perumahan,perumahan,Bajawa,"Bajawa, Kabupaten Ngada, Nusa Tenggara Tim.","Kabupaten Ngada, Nusa Tenggara Tim.",NUSA TENGGARA TIMUR,,Indonesia,,,,-8.792.325,120.960.602,https://maps.google.com/?cid=0x0:0x3cbeacbc23e7d171,
perumahan,Perhimpunan Pengembang Perumahan,Kisanata,"6X56+369, Bajawa, Kabupaten Ngada, Nusa Tenggara Tim.","Kabupaten Ngada, Nusa Tenggara Tim.",NUSA TENGGARA TIMUR,,Indonesia,,,,-8.792.325,120.960.602,https://maps.google.com/?cid=0x0:0x5579b43ad48bbe37,
perumahan,Komplek perumahan,Uluwae 1,"6X56+369, Bajawa, Kabupaten Ngada, Nusa Tenggara Tim.","Kabupaten Ngada, Nusa Tenggara Tim.",NUSA TENGGARA TIMUR,,Indonesia,,,,-8.792.325,120.960.602,https://maps.google.com/?cid=0x0:0xf250a0a970ea4dd4,
perumahan,Komplek perumahan,Ngada,"6X56+369, Bajawa, Kabupaten Ngada, Nusa Tenggara Tim.","Kabupaten Ngada, Nusa Tenggara Tim.",NUSA TENGGARA TIMUR,,Indonesia,,,,-8.792.325,120.960.602,https://maps.google.com/?cid=0x0:0x90bf4198852fc753,
perumahan,Komplek perumahan,Rumah Tinggal,"Basuki Rahmat No.11, Bajawa, Flores, Kabupaten Ngada, Nusa Tenggara Tim.","Kabupaten Ngada, Nusa Tenggara Tim.",NUSA TENGGARA TIMUR,,Indonesia,,,,-8.792.325,120.960.602,https://maps.google.com/?cid=0x0:0xaebe024f4773fb5,
perumahan,Komplek perumahan,Lindi,"6X56+369, Bajawa, Kabupaten Ngada, Nusa Tenggara Tim.","Kabupaten Ngada, Nusa Tenggara Tim.",NUSA TENGGARA TIMUR,,Indonesia,,,,-8.792.325,120.960.602,https://maps.google.com/?cid=0x0:0xcf4262f0f64f3181,
perumahan,Komplek perumahan,rakalaba 1,"6X56+369, Bajawa, Kabupaten Ngada, Nusa Tenggara Tim.","Kabupaten Ngada, Nusa Tenggara Tim.",NUSA TENGGARA TIMUR,,Indonesia,,,,-8.792.325,120.960.602,https://maps.google.com/?cid=0x0:0xdceca3f22c7325e0,
perumahan,perumahan,Lila,"6X45+JVC, Bajawa, Kabupaten Ngada, Nusa Tenggara Tim.","Kabupaten Ngada, Nusa Tenggara Tim.",NUSA TENGGARA TIMUR,,Indonesia,,,,-87.934.486,1.209.596.366,https://maps.google.com/?cid=0x0:0x5cfc123310d47ce4,
perumahan,Pembangunan Perumahan,Malanawe woiohoo,"6X56+369, Bajawa, Kabupaten Ngada, Nusa Tenggara Tim.","Kabupaten Ngada, Nusa Tenggara Tim.",NUSA TENGGARA TIMUR,,Indonesia,,,,-8.792.325,120.960.602,https://maps.google.com/?cid=0x0:0xa88995d8d2bc7a5c,
perumahan,Komplek perumahan,Desa Ngoranale,"6X56+369, Bajawa, Kabupaten Ngada, Nusa Tenggara Tim.","Kabupaten Ngada, Nusa Tenggara Tim.",NUSA TENGGARA TIMUR,,Indonesia,,,,-8.792.325,120.960.602,https://maps.google.com/?cid=0x0:0x67826224adf1f557,
perumahan,perumahan,Boloji,"6X56+369, Bajawa, Kabupaten Ngada, Nusa Tenggara Tim.","Kabupaten Ngada, Nusa Tenggara Tim.",NUSA TENGGARA TIMUR,,Indonesia,,,,-8.792.325,120.960.602,https://maps.google.com/?cid=0x0:0x6b3dc463305dc2e2,
perumahan,perumahan,Gudang bokua,"6X56+369, Bajawa, Kabupaten Ngada, Nusa Tenggara Tim.","Kabupaten Ngada, Nusa Tenggara Tim.",NUSA TENGGARA TIMUR,,Indonesia,,,,-8.792.325,120.960.602,https://maps.google.com/?cid=0x0:0x2fa944c63e84b11a,
perumahan,Komplek perumahan,Rumah ikson riwu,"6X56+369, Bajawa, Kabupaten Ngada, Nusa Tenggara Tim.","Kabupaten Ngada, Nusa Tenggara Tim.",NUSA TENGGARA TIMUR,,Indonesia,,,,-8.792.325,120.960.602,https://maps.google.com/?cid=0x0:0xbcdd9791b56a8534,
perumahan,Pembangunan Perumahan,Kelurahan Trikora,"6X56+369, Bajawa, Kabupaten Ngada, Nusa Tenggara Tim.","Kabupaten Ngada, Nusa Tenggara Tim.",NUSA TENGGARA TIMUR,,Indonesia,,,,-8.792.325,120.960.602,https://maps.google.com/?cid=0x0:0xe9c089b0de95f171,
perumahan,Kompleks Kondominium,Watujaji village,"6X56+369, Bajawa, Kabupaten Ngada, Nusa Tenggara Tim.","Kabupaten Ngada, Nusa Tenggara Tim.",NUSA TENGGARA TIMUR,,Indonesia,,,,-8.792.325,120.960.602,https://maps.google.com/?cid=0x0:0x6551df3e9aeac910,
perumahan,Komplek perumahan,Stef lGae,"Jln. Waenay No.RT 8, Desa Bolonga, Bajawa, Kabupaten Ngada, Nusa Tenggara Tim.","Kabupaten Ngada, Nusa Tenggara Tim.",NUSA TENGGARA TIMUR,,Indonesia,,,,-8.792.325,120.960.602,https://maps.google.com/?cid=0x0:0x8d28ca1ff47e5d32,
perumahan,Pembangunan Perumahan,Verma farm house,"Bajawa Rawat ka, Bajawa, Ngada Regency, East Nusa Tenggara","Kabupaten Ngada, Nusa Tenggara Tim.",NUSA TENGGARA TIMUR,,Indonesia,,,,-8.792.325,120.960.602,https://maps.google.com/?cid=0x0:0x7a9d71b99ec6dafc,
perumahan,Perhimpunan Pengembang Perumahan,Sonu kumar,"6X56+369, Bajawa, Rajasthan, India, Bajawa","Kabupaten Ngada, Nusa Tenggara Tim.",NUSA TENGGARA TIMUR,,Indonesia,,,,-8.792.325,120.960.602,https://maps.google.com/?cid=0x0:0xfac5c76920f40c3f,
perumahan,Pembangunan Perumahan,Desa Tadho Barat,"6X56+369, Jalan riung -bajawa, RT.01/RW.01, desa tadho barat, kec riung, Kabupaten Ngada, Nusa Tenggara Tim.","Kabupaten Ngada, Nusa Tenggara Tim.",NUSA TENGGARA TIMUR,,Indonesia,,,,-8.792.325,120.960.602,https://maps.google.com/?cid=0x0:0xa84084024290e5d1,
perumahan,perumahan,Nusa Tenggara Tim.,,Nusa Tenggara Tim.,NUSA TENGGARA TIMUR,,Indonesia,,,,-86.573.819,1.210.793.705,https://maps.google.com/?cid=0x0:0x1030bfbcaf71ae0,
perumahan,Komplek perumahan,XTRADA Homes,"Jl. R Soeprapto No.18kel, Ngedu Kelu, Bajawa, Kabupaten Ngada, Nusa Tenggara Tim. 86415","Ngedu Kelu, Bajawa, Kabupaten Ngada",NUSA TENGGARA TIMUR,86415.0,Indonesia,,,,-87.879.291,120.977.425,https://maps.google.com/?cid=0x0:0x88145344d14a5f0c,
perumahan,Toko Elektronik,Spektrum Elektronik,"Jl. Uma moni .32, Ngedukelu, Bajawa, Kabupaten Ngada, Nusa Tenggara Tim. 86415","Ngedukelu, Bajawa, Kabupaten Ngada",NUSA TENGGARA TIMUR,86415.0,Indonesia,816268000,,,-87.870.442,120.980.465,https://maps.google.com/?cid=0x0:0x4d5af83ef8186c07,
perumahan,Rumah wisata,Rumah Sementara Ispin Kaju,"Jl. T.W. Mengeruda No.9, Lebijaga, Bajawa, Kabupaten Ngada, Nusa Tenggara Tim. 86415","Lebijaga, Bajawa, Kabupaten Ngada",NUSA TENGGARA TIMUR,86415.0,Indonesia,,,,-878.081,1.209.791.349,https://maps.google.com/?cid=0x0:0xf5bd260219c05dd8,
perumahan,Padang,Rumah Makan Garuda,"Jl. Basoeki Rahmat, Ngedukelu, Bajawa, Kabupaten Ngada, Nusa Tenggara Tim. 86415","Ngedukelu, Bajawa, Kabupaten Ngada",NUSA TENGGARA TIMUR,86415.0,Indonesia,82144147288,,,-8.788.426,1.209.745.538,https://maps.google.com/?cid=0x0:0xafb121a64be37cf2,
perumahan,Pusat Perbelanjaan,Toko Terang Jaya - Bajawa,"Jl. Budi Oetomo Pertokoan No.11 Lt. 1, Kisanata, Bajawa, Kabupaten Ngada, Nusa Tenggara Tim. 86415","Kisanata, Bajawa, Kabupaten Ngada",NUSA TENGGARA TIMUR,86415.0,Indonesia,82146233656,,,-87.880.722,1.209.732.308,https://maps.google.com/?cid=0x0:0xd3f16d8b02064bbf,
perumahan,Bed >>u0026 Breakfast,Cafe Hitam Putih,"Jl. S. Parman Kelurahan Ngedukelu-Lekosoro No.1, Ngedukelu, Bajawa, Kabupaten Ngada, Nusa Tenggara Tim. 86415","Ngedukelu, Bajawa, Kabupaten Ngada",NUSA TENGGARA TIMUR,86415.0,Indonesia,,,,-87.846.483,1.209.777.506,https://maps.google.com/?cid=0x0:0x20c312ef109fee55,
perumahan,perumahan,Ferdinandus Lembe,"Translok, Watukapu, Kec. Bajawa Utara, Kabupaten Ngada, Nusa Tenggara Tim. 86415","Watukapu, Kec. Bajawa Utara, Kabupaten Ngada",NUSA TENGGARA TIMUR,86415.0,Indonesia,,,,-86.771.044,1.209.493.146,https://maps.google.com/?cid=0x0:0x3076ffebaadc8040,
perumahan,Warnet,Dragon Net Cafe  Rental,"Jl. W.R. Supratman No.RT01/01, Lebijaga, Bajawa, Kabupaten Ngada, Nusa Tenggara Tim. 86415","Lebijaga, Bajawa, Kabupaten Ngada",NUSA TENGGARA TIMUR,86415.0,Indonesia,81337703721,,,-87.805.561,1.209.717.839,https://maps.google.com/?cid=0x0:0x64ed86d370882bb2,
perumahan,Toko Komputer,EL COMPUTER,"Jl. El Tari, Bajawa, Kabupaten Ngada, Nusa Tenggara Tim. 86415","Bajawa, Kabupaten Ngada",NUSA TENGGARA TIMUR,86415.0,Indonesia,8989725800,,,-87.862.697,1.209.738.979,https://maps.google.com/?cid=0x0:0xb1d96a0e4e775af8,
perumahan,Restoran,Warung Anugerah,"Jalan palapa, ngedukelu, Bajawa, Ngada, Flores, Bajawa, Nusa Tenggara Tim. 86415","ngedukelu, Bajawa, Ngada, Flores, Bajawa",NUSA TENGGARA TIMUR,86415.0,Indonesia,85692985633,,,-87.884.876,120.974.272,https://maps.google.com/?cid=0x0:0xf2fa5cfe59fa89c0,
perumahan,perumahan,Bajawa,"Bajawa, Kabupaten Ngada, Nusa Tenggara Tim.","Kabupaten Ngada, Nusa Tenggara Tim.",NUSA TENGGARA TIMUR,,Indonesia,,,,-8.792.325,120.960.602,https://maps.google.com/?cid=0x0:0x3cbeacbc23e7d171,
perumahan,Penginapan,Bajawa,"6X56+369, Bajawa, Kabupaten Ngada, Nusa Tenggara Tim.","Kabupaten Ngada, Nusa Tenggara Tim.",NUSA TENGGARA TIMUR,,Indonesia,,,,-8.792.325,120.960.602,https://maps.google.com/?cid=0x0:0xe868b694e147ece6,
perumahan,Komplek perumahan,Uluwae 1,"6X56+369, Bajawa, Kabupaten Ngada, Nusa Tenggara Tim.","Kabupaten Ngada, Nusa Tenggara Tim.",NUSA TENGGARA TIMUR,,Indonesia,,,,-8.792.325,120.960.602,https://maps.google.com/?cid=0x0:0xf250a0a970ea4dd4,
perumahan,Komplek perumahan,Lindi,"6X56+369, Bajawa, Kabupaten Ngada, Nusa Tenggara Tim.","Kabupaten Ngada, Nusa Tenggara Tim.",NUSA TENGGARA TIMUR,,Indonesia,,,,-8.792.325,120.960.602,https://maps.google.com/?cid=0x0:0xcf4262f0f64f3181,
perumahan,Komplek perumahan,Ngada,"6X56+369, Bajawa, Kabupaten Ngada, Nusa Tenggara Tim.","Kabupaten Ngada, Nusa Tenggara Tim.",NUSA TENGGARA TIMUR,,Indonesia,,,,-8.792.325,120.960.602,https://maps.google.com/?cid=0x0:0x90bf4198852fc753,
perumahan,Komplek perumahan,Rumah Tinggal,"Basuki Rahmat No.11, Bajawa, Flores, Kabupaten Ngada, Nusa Tenggara Tim.","Kabupaten Ngada, Nusa Tenggara Tim.",NUSA TENGGARA TIMUR,,Indonesia,,,,-8.792.325,120.960.602,https://maps.google.com/?cid=0x0:0xaebe024f4773fb5,
perumahan,Perhimpunan Pengembang Perumahan,Kisanata,"6X56+369, Bajawa, Kabupaten Ngada, Nusa Tenggara Tim.","Kabupaten Ngada, Nusa Tenggara Tim.",NUSA TENGGARA TIMUR,,Indonesia,,,,-8.792.325,120.960.602,https://maps.google.com/?cid=0x0:0x5579b43ad48bbe37,
perumahan,Komplek perumahan,rakalaba 1,"6X56+369, Bajawa, Kabupaten Ngada, Nusa Tenggara Tim.","Kabupaten Ngada, Nusa Tenggara Tim.",NUSA TENGGARA TIMUR,,Indonesia,,,,-8.792.325,120.960.602,https://maps.google.com/?cid=0x0:0xdceca3f22c7325e0,
perumahan,perumahan,Lila,"6X45+JVC, Bajawa, Kabupaten Ngada, Nusa Tenggara Tim.","Kabupaten Ngada, Nusa Tenggara Tim.",NUSA TENGGARA TIMUR,,Indonesia,,,,-87.934.486,1.209.596.366,https://maps.google.com/?cid=0x0:0x5cfc123310d47ce4,
perumahan,Pembangunan Perumahan,Malanawe woiohoo,"6X56+369, Bajawa, Kabupaten Ngada, Nusa Tenggara Tim.","Kabupaten Ngada, Nusa Tenggara Tim.",NUSA TENGGARA TIMUR,,Indonesia,,,,-8.792.325,120.960.602,https://maps.google.com/?cid=0x0:0xa88995d8d2bc7a5c,
perumahan,perumahan,Gudang bokua,"6X56+369, Bajawa, Kabupaten Ngada, Nusa Tenggara Tim.","Kabupaten Ngada, Nusa Tenggara Tim.",NUSA TENGGARA TIMUR,,Indonesia,,,,-8.792.325,120.960.602,https://maps.google.com/?cid=0x0:0x2fa944c63e84b11a,
perumahan,perumahan,Boloji,"6X56+369, Bajawa, Kabupaten Ngada, Nusa Tenggara Tim.","Kabupaten Ngada, Nusa Tenggara Tim.",NUSA TENGGARA TIMUR,,Indonesia,,,,-8.792.325,120.960.602,https://maps.google.com/?cid=0x0:0x6b3dc463305dc2e2,
perumahan,Komplek perumahan,Desa Ngoranale,"6X56+369, Bajawa, Kabupaten Ngada, Nusa Tenggara Tim.","Kabupaten Ngada, Nusa Tenggara Tim.",NUSA TENGGARA TIMUR,,Indonesia,,,,-8.792.325,120.960.602,https://maps.google.com/?cid=0x0:0x67826224adf1f557,
perumahan,Komplek perumahan,Rumah ikson riwu,"6X56+369, Bajawa, Kabupaten Ngada, Nusa Tenggara Tim.","Kabupaten Ngada, Nusa Tenggara Tim.",NUSA TENGGARA TIMUR,,Indonesia,,,,-8.792.325,120.960.602,https://maps.google.com/?cid=0x0:0xbcdd9791b56a8534,
perumahan,Pembangunan Perumahan,Kelurahan Trikora,"6X56+369, Bajawa, Kabupaten Ngada, Nusa Tenggara Tim.","Kabupaten Ngada, Nusa Tenggara Tim.",NUSA TENGGARA TIMUR,,Indonesia,,,,-8.792.325,120.960.602,https://maps.google.com/?cid=0x0:0xe9c089b0de95f171,
perumahan,Kompleks Kondominium,Watujaji village,"6X56+369, Bajawa, Kabupaten Ngada, Nusa Tenggara Tim.","Kabupaten Ngada, Nusa Tenggara Tim.",NUSA TENGGARA TIMUR,,Indonesia,,,,-8.792.325,120.960.602,https://maps.google.com/?cid=0x0:0x6551df3e9aeac910,
perumahan,Perhimpunan Pengembang Perumahan,Sonu kumar,"6X56+369, Bajawa, Rajasthan, India, Bajawa","Kabupaten Ngada, Nusa Tenggara Tim.",NUSA TENGGARA TIMUR,,Indonesia,,,,-8.792.325,120.960.602,https://maps.google.com/?cid=0x0:0xfac5c76920f40c3f,
perumahan,Komplek perumahan,Stef lGae,"Jln. Waenay No.RT 8, Desa Bolonga, Bajawa, Kabupaten Ngada, Nusa Tenggara Tim.","Kabupaten Ngada, Nusa Tenggara Tim.",NUSA TENGGARA TIMUR,,Indonesia,,,,-8.792.325,120.960.602,https://maps.google.com/?cid=0x0:0x8d28ca1ff47e5d32,
perumahan,perumahan,Nusa Tenggara Tim.,,Nusa Tenggara Tim.,NUSA TENGGARA TIMUR,,Indonesia,,,,-86.573.819,1.210.793.705,https://maps.google.com/?cid=0x0:0x1030bfbcaf71ae0,
perumahan,Penginapan,Bajawa,"6X56+369, Bajawa, Kabupaten Ngada, Nusa Tenggara Tim.","Kabupaten Ngada, Nusa Tenggara Tim.",NUSA TENGGARA TIMUR,,Indonesia,,,,-8.792.325,120.960.602,https://maps.google.com/?cid=0x0:0xe868b694e147ece6,
perumahan,Perhimpunan Pengembang Perumahan,Bajawa,"83VH+2PX, Nginamanu, Kec. Wolomeze, Kabupaten Ngada, Nusa Tenggara Tim.","Kabupaten Ngada, Nusa Tenggara Tim.",NUSA TENGGARA TIMUR,,Indonesia,,,,-86.573.819,1.210.793.705,https://maps.google.com/?cid=0x0:0x2f0e27c7e722b250,
perumahan,Komplek perumahan,Kampung Boripo,"6X69+VFC, Kisanata, Bajawa, Kabupaten Ngada, Nusa Tenggara Tim.","Kabupaten Ngada, Nusa Tenggara Tim.",NUSA TENGGARA TIMUR,,Indonesia,,,,-87.878.125,1.209.686.403,https://maps.google.com/?cid=0x0:0xb7e8050cc8f90f98,
perumahan,Agen Tenaga Kerja,K-Agency Bajawa,"Jl. Menurun A No.RT 01, Lingkungan I, Kisanata, Bajawa, Kabupaten Ngada, Nusa Tenggara Tim. 86416","Lingkungan I, Kisanata, Bajawa, Kabupaten Ngada",NUSA TENGGARA TIMUR,86416.0,Indonesia,81337703721,,,-87.908.307,120.968.116,https://maps.google.com/?cid=0x0:0xb63a90e66398e2d0,
perumahan,Komplek perumahan,Perumahan Baumata,"Rss, no 31, blok S, Baumata","Kabupaten Kupang, Nusa Tenggara Tim.",NUSA TENGGARA TIMUR,,Indonesia,,,,-101.908.193,123.668.547,https://maps.google.com/?cid=0x0:0x816e2dddd1e45189,
perumahan,perumahan,Bajawa,"Bajawa, Kabupaten Ngada, Nusa Tenggara Tim.","Kabupaten Ngada, Nusa Tenggara Tim.",NUSA TENGGARA TIMUR,,Indonesia,,,,-8.792.325,120.960.602,https://maps.google.com/?cid=0x0:0x3cbeacbc23e7d171,
perumahan,Komplek perumahan,Uluwae 1,"6X56+369, Bajawa, Kabupaten Ngada, Nusa Tenggara Tim.","Kabupaten Ngada, Nusa Tenggara Tim.",NUSA TENGGARA TIMUR,,Indonesia,,,,-8.792.325,120.960.602,https://maps.google.com/?cid=0x0:0xf250a0a970ea4dd4,
perumahan,Komplek perumahan,Lindi,"6X56+369, Bajawa, Kabupaten Ngada, Nusa Tenggara Tim.","Kabupaten Ngada, Nusa Tenggara Tim.",NUSA TENGGARA TIMUR,,Indonesia,,,,-8.792.325,120.960.602,https://maps.google.com/?cid=0x0:0xcf4262f0f64f3181,
perumahan,Perhimpunan Pengembang Perumahan,Kisanata,"6X56+369, Bajawa, Kabupaten Ngada, Nusa Tenggara Tim.","Kabupaten Ngada, Nusa Tenggara Tim.",NUSA TENGGARA TIMUR,,Indonesia,,,,-8.792.325,120.960.602,https://maps.google.com/?cid=0x0:0x5579b43ad48bbe37,
perumahan,Komplek perumahan,rakalaba 1,"6X56+369, Bajawa, Kabupaten Ngada, Nusa Tenggara Tim.","Kabupaten Ngada, Nusa Tenggara Tim.",NUSA TENGGARA TIMUR,,Indonesia,,,,-8.792.325,120.960.602,https://maps.google.com/?cid=0x0:0xdceca3f22c7325e0,
perumahan,Komplek perumahan,Ngada,"6X56+369, Bajawa, Kabupaten Ngada, Nusa Tenggara Tim.","Kabupaten Ngada, Nusa Tenggara Tim.",NUSA TENGGARA TIMUR,,Indonesia,,,,-8.792.325,120.960.602,https://maps.google.com/?cid=0x0:0x90bf4198852fc753,
perumahan,Komplek perumahan,Rumah Tinggal,"Basuki Rahmat No.11, Bajawa, Flores, Kabupaten Ngada, Nusa Tenggara Tim.","Kabupaten Ngada, Nusa Tenggara Tim.",NUSA TENGGARA TIMUR,,Indonesia,,,,-8.792.325,120.960.602,https://maps.google.com/?cid=0x0:0xaebe024f4773fb5,
perumahan,perumahan,Lila,"6X45+JVC, Bajawa, Kabupaten Ngada, Nusa Tenggara Tim.","Kabupaten Ngada, Nusa Tenggara Tim.",NUSA TENGGARA TIMUR,,Indonesia,,,,-87.934.486,1.209.596.366,https://maps.google.com/?cid=0x0:0x5cfc123310d47ce4,
perumahan,Pembangunan Perumahan,Malanawe woiohoo,"6X56+369, Bajawa, Kabupaten Ngada, Nusa Tenggara Tim.","Kabupaten Ngada, Nusa Tenggara Tim.",NUSA TENGGARA TIMUR,,Indonesia,,,,-8.792.325,120.960.602,https://maps.google.com/?cid=0x0:0xa88995d8d2bc7a5c,
perumahan,perumahan,Boloji,"6X56+369, Bajawa, Kabupaten Ngada, Nusa Tenggara Tim.","Kabupaten Ngada, Nusa Tenggara Tim.",NUSA TENGGARA TIMUR,,Indonesia,,,,-8.792.325,120.960.602,https://maps.google.com/?cid=0x0:0x6b3dc463305dc2e2,
perumahan,Kompleks Kondominium,Watujaji village,"6X56+369, Bajawa, Kabupaten Ngada, Nusa Tenggara Tim.","Kabupaten Ngada, Nusa Tenggara Tim.",NUSA TENGGARA TIMUR,,Indonesia,,,,-8.792.325,120.960.602,https://maps.google.com/?cid=0x0:0x6551df3e9aeac910,
perumahan,Komplek perumahan,Desa Ngoranale,"6X56+369, Bajawa, Kabupaten Ngada, Nusa Tenggara Tim.","Kabupaten Ngada, Nusa Tenggara Tim.",NUSA TENGGARA TIMUR,,Indonesia,,,,-8.792.325,120.960.602,https://maps.google.com/?cid=0x0:0x67826224adf1f557,
perumahan,Komplek perumahan,Rumah ikson riwu,"6X56+369, Bajawa, Kabupaten Ngada, Nusa Tenggara Tim.","Kabupaten Ngada, Nusa Tenggara Tim.",NUSA TENGGARA TIMUR,,Indonesia,,,,-8.792.325,120.960.602,https://maps.google.com/?cid=0x0:0xbcdd9791b56a8534,
perumahan,perumahan,Gudang bokua,"6X56+369, Bajawa, Kabupaten Ngada, Nusa Tenggara Tim.","Kabupaten Ngada, Nusa Tenggara Tim.",NUSA TENGGARA TIMUR,,Indonesia,,,,-8.792.325,120.960.602,https://maps.google.com/?cid=0x0:0x2fa944c63e84b11a,
perumahan,Pembangunan Perumahan,Kelurahan Trikora,"6X56+369, Bajawa, Kabupaten Ngada, Nusa Tenggara Tim.","Kabupaten Ngada, Nusa Tenggara Tim.",NUSA TENGGARA TIMUR,,Indonesia,,,,-8.792.325,120.960.602,https://maps.google.com/?cid=0x0:0xe9c089b0de95f171,
perumahan,Komplek perumahan,Stef lGae,"Jln. Waenay No.RT 8, Desa Bolonga, Bajawa, Kabupaten Ngada, Nusa Tenggara Tim.","Kabupaten Ngada, Nusa Tenggara Tim.",NUSA TENGGARA TIMUR,,Indonesia,,,,-8.792.325,120.960.602,https://maps.google.com/?cid=0x0:0x8d28ca1ff47e5d32,
perumahan,Perhimpunan Pengembang Perumahan,Sonu kumar,"6X56+369, Bajawa, Rajasthan, India, Bajawa","Kabupaten Ngada, Nusa Tenggara Tim.",NUSA TENGGARA TIMUR,,Indonesia,,,,-8.792.325,120.960.602,https://maps.google.com/?cid=0x0:0xfac5c76920f40c3f,
perumahan,Pembangunan Perumahan,Verma farm house,"Bajawa Rawat ka, Bajawa, Ngada Regency, East Nusa Tenggara","Kabupaten Ngada, Nusa Tenggara Tim.",NUSA TENGGARA TIMUR,,Indonesia,,,,-8.792.325,120.960.602,https://maps.google.com/?cid=0x0:0x7a9d71b99ec6dafc,
perumahan,Pembangunan Perumahan,Desa Tadho Barat,"6X56+369, Jalan riung -bajawa, RT.01/RW.01, desa tadho barat, kec riung, Kabupaten Ngada, Nusa Tenggara Tim.","Kabupaten Ngada, Nusa Tenggara Tim.",NUSA TENGGARA TIMUR,,Indonesia,,,,-8.792.325,120.960.602,https://maps.google.com/?cid=0x0:0xa84084024290e5d1,
perumahan,perumahan,Nusa Tenggara Tim.,,Nusa Tenggara Tim.,NUSA TENGGARA TIMUR,,Indonesia,,,,-86.573.819,1.210.793.705,https://maps.google.com/?cid=0x0:0x1030bfbcaf71ae0,
perumahan,Penginapan,Bajawa,"6X56+369, Bajawa, Kabupaten Ngada, Nusa Tenggara Tim.","Kabupaten Ngada, Nusa Tenggara Tim.",NUSA TENGGARA TIMUR,,Indonesia,,,,-8.792.325,120.960.602,https://maps.google.com/?cid=0x0:0xe868b694e147ece6,
perumahan,Perhimpunan Pengembang Perumahan,Bajawa,"83VH+2PX, Nginamanu, Kec. Wolomeze, Kabupaten Ngada, Nusa Tenggara Tim.","Kabupaten Ngada, Nusa Tenggara Tim.",NUSA TENGGARA TIMUR,,Indonesia,,,,-86.573.819,1.210.793.705,https://maps.google.com/?cid=0x0:0x2f0e27c7e722b250,
perumahan,Pembangunan Perumahan,Rmh.Bapak Bento,"Jalan Malanawe No.727, RT./Rw:10/RW.03, Susu, Bajawa, Kabupaten Ngada, Nusa Tenggara Tim. 86417","RT./Rw:10/RW.03, Susu, Bajawa, Kabupaten Ngada",NUSA TENGGARA TIMUR,86417.0,Indonesia,,,,-87.773.053,1.209.658.463,https://maps.google.com/?cid=0x0:0x7ad74448ca63bb57,
perumahan,Komplek perumahan,Rumah BPK Rambo,"Jalan Malanawe No.727, RT./Rw:10/RW.03, Susu, Bajawa, Kabupaten Ngada, Nusa Tenggara Tim. 86417","RT./Rw:10/RW.03, Susu, Bajawa, Kabupaten Ngada",NUSA TENGGARA TIMUR,86417.0,Indonesia,,,,-8.777.468,1.209.655.361,https://maps.google.com/?cid=0x0:0xb44eeb495248931a,
perumahan,perumahan,Bajawa,"Bajawa, Kabupaten Ngada, Nusa Tenggara Tim.","Kabupaten Ngada, Nusa Tenggara Tim.",NUSA TENGGARA TIMUR,,Indonesia,,,,-8.792.325,120.960.602,https://maps.google.com/?cid=0x0:0x3cbeacbc23e7d171,
perumahan,Komplek perumahan,Uluwae 1,"6X56+369, Bajawa, Kabupaten Ngada, Nusa Tenggara Tim.","Kabupaten Ngada, Nusa Tenggara Tim.",NUSA TENGGARA TIMUR,,Indonesia,,,,-8.792.325,120.960.602,https://maps.google.com/?cid=0x0:0xf250a0a970ea4dd4,
perumahan,Perhimpunan Pengembang Perumahan,Kisanata,"6X56+369, Bajawa, Kabupaten Ngada, Nusa Tenggara Tim.","Kabupaten Ngada, Nusa Tenggara Tim.",NUSA TENGGARA TIMUR,,Indonesia,,,,-8.792.325,120.960.602,https://maps.google.com/?cid=0x0:0x5579b43ad48bbe37,
perumahan,Komplek perumahan,Ngada,"6X56+369, Bajawa, Kabupaten Ngada, Nusa Tenggara Tim.","Kabupaten Ngada, Nusa Tenggara Tim.",NUSA TENGGARA TIMUR,,Indonesia,,,,-8.792.325,120.960.602,https://maps.google.com/?cid=0x0:0x90bf4198852fc753,
perumahan,Komplek perumahan,Lindi,"6X56+369, Bajawa, Kabupaten Ngada, Nusa Tenggara Tim.","Kabupaten Ngada, Nusa Tenggara Tim.",NUSA TENGGARA TIMUR,,Indonesia,,,,-8.792.325,120.960.602,https://maps.google.com/?cid=0x0:0xcf4262f0f64f3181,
perumahan,Komplek perumahan,rakalaba 1,"6X56+369, Bajawa, Kabupaten Ngada, Nusa Tenggara Tim.","Kabupaten Ngada, Nusa Tenggara Tim.",NUSA TENGGARA TIMUR,,Indonesia,,,,-8.792.325,120.960.602,https://maps.google.com/?cid=0x0:0xdceca3f22c7325e0,
perumahan,Komplek perumahan,Rumah Tinggal,"Basuki Rahmat No.11, Bajawa, Flores, Kabupaten Ngada, Nusa Tenggara Tim.","Kabupaten Ngada, Nusa Tenggara Tim.",NUSA TENGGARA TIMUR,,Indonesia,,,,-8.792.325,120.960.602,https://maps.google.com/?cid=0x0:0xaebe024f4773fb5,
perumahan,perumahan,Lila,"6X45+JVC, Bajawa, Kabupaten Ngada, Nusa Tenggara Tim.","Kabupaten Ngada, Nusa Tenggara Tim.",NUSA TENGGARA TIMUR,,Indonesia,,,,-87.934.486,1.209.596.366,https://maps.google.com/?cid=0x0:0x5cfc123310d47ce4,
perumahan,Pembangunan Perumahan,Malanawe woiohoo,"6X56+369, Bajawa, Kabupaten Ngada, Nusa Tenggara Tim.","Kabupaten Ngada, Nusa Tenggara Tim.",NUSA TENGGARA TIMUR,,Indonesia,,,,-8.792.325,120.960.602,https://maps.google.com/?cid=0x0:0xa88995d8d2bc7a5c,
perumahan,Kompleks Kondominium,Watujaji village,"6X56+369, Bajawa, Kabupaten Ngada, Nusa Tenggara Tim.","Kabupaten Ngada, Nusa Tenggara Tim.",NUSA TENGGARA TIMUR,,Indonesia,,,,-8.792.325,120.960.602,https://maps.google.com/?cid=0x0:0x6551df3e9aeac910,
perumahan,perumahan,Gudang bokua,"6X56+369, Bajawa, Kabupaten Ngada, Nusa Tenggara Tim.","Kabupaten Ngada, Nusa Tenggara Tim.",NUSA TENGGARA TIMUR,,Indonesia,,,,-8.792.325,120.960.602,https://maps.google.com/?cid=0x0:0x2fa944c63e84b11a,
perumahan,Komplek perumahan,Rumah ikson riwu,"6X56+369, Bajawa, Kabupaten Ngada, Nusa Tenggara Tim.","Kabupaten Ngada, Nusa Tenggara Tim.",NUSA TENGGARA TIMUR,,Indonesia,,,,-8.792.325,120.960.602,https://maps.google.com/?cid=0x0:0xbcdd9791b56a8534,
perumahan,perumahan,Boloji,"6X56+369, Bajawa, Kabupaten Ngada, Nusa Tenggara Tim.","Kabupaten Ngada, Nusa Tenggara Tim.",NUSA TENGGARA TIMUR,,Indonesia,,,,-8.792.325,120.960.602,https://maps.google.com/?cid=0x0:0x6b3dc463305dc2e2,
perumahan,Komplek perumahan,Desa Ngoranale,"6X56+369, Bajawa, Kabupaten Ngada, Nusa Tenggara Tim.","Kabupaten Ngada, Nusa Tenggara Tim.",NUSA TENGGARA TIMUR,,Indonesia,,,,-8.792.325,120.960.602,https://maps.google.com/?cid=0x0:0x67826224adf1f557,
perumahan,Pembangunan Perumahan,Kelurahan Trikora,"6X56+369, Bajawa, Kabupaten Ngada, Nusa Tenggara Tim.","Kabupaten Ngada, Nusa Tenggara Tim.",NUSA TENGGARA TIMUR,,Indonesia,,,,-8.792.325,120.960.602,https://maps.google.com/?cid=0x0:0xe9c089b0de95f171,
perumahan,Pembangunan Perumahan,Verma farm house,"Bajawa Rawat ka, Bajawa, Ngada Regency, East Nusa Tenggara","Kabupaten Ngada, Nusa Tenggara Tim.",NUSA TENGGARA TIMUR,,Indonesia,,,,-8.792.325,120.960.602,https://maps.google.com/?cid=0x0:0x7a9d71b99ec6dafc,
perumahan,Komplek perumahan,Stef lGae,"Jln. Waenay No.RT 8, Desa Bolonga, Bajawa, Kabupaten Ngada, Nusa Tenggara Tim.","Kabupaten Ngada, Nusa Tenggara Tim.",NUSA TENGGARA TIMUR,,Indonesia,,,,-8.792.325,120.960.602,https://maps.google.com/?cid=0x0:0x8d28ca1ff47e5d32,
perumahan,Pembangunan Perumahan,Desa Tadho Barat,"6X56+369, Jalan riung -bajawa, RT.01/RW.01, desa tadho barat, kec riung, Kabupaten Ngada, Nusa Tenggara Tim.","Kabupaten Ngada, Nusa Tenggara Tim.",NUSA TENGGARA TIMUR,,Indonesia,,,,-8.792.325,120.960.602,https://maps.google.com/?cid=0x0:0xa84084024290e5d1,
perumahan,Perhimpunan Pengembang Perumahan,Sonu kumar,"6X56+369, Bajawa, Rajasthan, India, Bajawa","Kabupaten Ngada, Nusa Tenggara Tim.",NUSA TENGGARA TIMUR,,Indonesia,,,,-8.792.325,120.960.602,https://maps.google.com/?cid=0x0:0xfac5c76920f40c3f,
perumahan,perumahan,Bajawa,"Bajawa, Kabupaten Ngada, Nusa Tenggara Tim.","Kabupaten Ngada, Nusa Tenggara Tim.",NUSA TENGGARA TIMUR,,Indonesia,,,,-8.792.325,120.960.602,https://maps.google.com/?cid=0x0:0x3cbeacbc23e7d171,
perumahan,Penginapan,Bajawa,"6X56+369, Bajawa, Kabupaten Ngada, Nusa Tenggara Tim.","Kabupaten Ngada, Nusa Tenggara Tim.",NUSA TENGGARA TIMUR,,Indonesia,,,,-8.792.325,120.960.602,https://maps.google.com/?cid=0x0:0xe868b694e147ece6,
perumahan,Komplek perumahan,Kampung Bajawa A,"6X58+V2J, Bajawa, Kabupaten Ngada, Nusa Tenggara Tim.","Kabupaten Ngada, Nusa Tenggara Tim.",NUSA TENGGARA TIMUR,,Indonesia,,,,-87.902.859,1.209.650.248,https://maps.google.com/?cid=0x0:0xa3a7af7befc14bcf,
perumahan,Komplek perumahan,Uluwae 1,"6X56+369, Bajawa, Kabupaten Ngada, Nusa Tenggara Tim.","Kabupaten Ngada, Nusa Tenggara Tim.",NUSA TENGGARA TIMUR,,Indonesia,,,,-8.792.325,120.960.602,https://maps.google.com/?cid=0x0:0xf250a0a970ea4dd4,
perumahan,Komplek perumahan,rakalaba 1,"6X56+369, Bajawa, Kabupaten Ngada, Nusa Tenggara Tim.","Kabupaten Ngada, Nusa Tenggara Tim.",NUSA TENGGARA TIMUR,,Indonesia,,,,-8.792.325,120.960.602,https://maps.google.com/?cid=0x0:0xdceca3f22c7325e0,
perumahan,Komplek perumahan,Lindi,"6X56+369, Bajawa, Kabupaten Ngada, Nusa Tenggara Tim.","Kabupaten Ngada, Nusa Tenggara Tim.",NUSA TENGGARA TIMUR,,Indonesia,,,,-8.792.325,120.960.602,https://maps.google.com/?cid=0x0:0xcf4262f0f64f3181,
perumahan,Komplek perumahan,Ngada,"6X56+369, Bajawa, Kabupaten Ngada, Nusa Tenggara Tim.","Kabupaten Ngada, Nusa Tenggara Tim.",NUSA TENGGARA TIMUR,,Indonesia,,,,-8.792.325,120.960.602,https://maps.google.com/?cid=0x0:0x90bf4198852fc753,
perumahan,Komplek perumahan,Rumah Tinggal,"Basuki Rahmat No.11, Bajawa, Flores, Kabupaten Ngada, Nusa Tenggara Tim.","Kabupaten Ngada, Nusa Tenggara Tim.",NUSA TENGGARA TIMUR,,Indonesia,,,,-8.792.325,120.960.602,https://maps.google.com/?cid=0x0:0xaebe024f4773fb5,
perumahan,perumahan,Lila,"6X45+JVC, Bajawa, Kabupaten Ngada, Nusa Tenggara Tim.","Kabupaten Ngada, Nusa Tenggara Tim.",NUSA TENGGARA TIMUR,,Indonesia,,,,-87.934.486,1.209.596.366,https://maps.google.com/?cid=0x0:0x5cfc123310d47ce4,
perumahan,Pembangunan Perumahan,Malanawe woiohoo,"6X56+369, Bajawa, Kabupaten Ngada, Nusa Tenggara Tim.","Kabupaten Ngada, Nusa Tenggara Tim.",NUSA TENGGARA TIMUR,,Indonesia,,,,-8.792.325,120.960.602,https://maps.google.com/?cid=0x0:0xa88995d8d2bc7a5c,
perumahan,perumahan,Boloji,"6X56+369, Bajawa, Kabupaten Ngada, Nusa Tenggara Tim.","Kabupaten Ngada, Nusa Tenggara Tim.",NUSA TENGGARA TIMUR,,Indonesia,,,,-8.792.325,120.960.602,https://maps.google.com/?cid=0x0:0x6b3dc463305dc2e2,
perumahan,Kompleks Kondominium,Watujaji village,"6X56+369, Bajawa, Kabupaten Ngada, Nusa Tenggara Tim.","Kabupaten Ngada, Nusa Tenggara Tim.",NUSA TENGGARA TIMUR,,Indonesia,,,,-8.792.325,120.960.602,https://maps.google.com/?cid=0x0:0x6551df3e9aeac910,
perumahan,Perhimpunan Pengembang Perumahan,Ngalisabu,"6X3C+7V3, Bajawa, Kabupaten Ngada, Nusa Tenggara Tim.","Kabupaten Ngada, Nusa Tenggara Tim.",NUSA TENGGARA TIMUR,,Indonesia,,,,-87.968.543,120.972.167,https://maps.google.com/?cid=0x0:0xcab11bea0728d6a4,
perumahan,Komplek perumahan,Rumah ikson riwu,"6X56+369, Bajawa, Kabupaten Ngada, Nusa Tenggara Tim.","Kabupaten Ngada, Nusa Tenggara Tim.",NUSA TENGGARA TIMUR,,Indonesia,,,,-8.792.325,120.960.602,https://maps.google.com/?cid=0x0:0xbcdd9791b56a8534,
perumahan,Komplek perumahan,Desa Ngoranale,"6X56+369, Bajawa, Kabupaten Ngada, Nusa Tenggara Tim.","Kabupaten Ngada, Nusa Tenggara Tim.",NUSA TENGGARA TIMUR,,Indonesia,,,,-8.792.325,120.960.602,https://maps.google.com/?cid=0x0:0x67826224adf1f557,
perumahan,Pembangunan Perumahan,Kelurahan Trikora,"6X56+369, Bajawa, Kabupaten Ngada, Nusa Tenggara Tim.","Kabupaten Ngada, Nusa Tenggara Tim.",NUSA TENGGARA TIMUR,,Indonesia,,,,-8.792.325,120.960.602,https://maps.google.com/?cid=0x0:0xe9c089b0de95f171,
perumahan,perumahan,Gudang bokua,"6X56+369, Bajawa, Kabupaten Ngada, Nusa Tenggara Tim.","Kabupaten Ngada, Nusa Tenggara Tim.",NUSA TENGGARA TIMUR,,Indonesia,,,,-8.792.325,120.960.602,https://maps.google.com/?cid=0x0:0x2fa944c63e84b11a,
perumahan,Komplek perumahan,Stef lGae,"Jln. Waenay No.RT 8, Desa Bolonga, Bajawa, Kabupaten Ngada, Nusa Tenggara Tim.","Kabupaten Ngada, Nusa Tenggara Tim.",NUSA TENGGARA TIMUR,,Indonesia,,,,-8.792.325,120.960.602,https://maps.google.com/?cid=0x0:0x8d28ca1ff47e5d32,
perumahan,Pembangunan Perumahan,Desa Tadho Barat,"6X56+369, Jalan riung -bajawa, RT.01/RW.01, desa tadho barat, kec riung, Kabupaten Ngada, Nusa Tenggara Tim.","Kabupaten Ngada, Nusa Tenggara Tim.",NUSA TENGGARA TIMUR,,Indonesia,,,,-8.792.325,120.960.602,https://maps.google.com/?cid=0x0:0xa84084024290e5d1,
perumahan,Kantor Pemerintah,Kampung Borani Desa Borani Langa Kecamatan Bajawa Ngada NTT,"5XG7+CQM, Borani, Bajawa, Kabupaten Ngada, Nusa Tenggara Tim.","Kabupaten Ngada, Nusa Tenggara Tim.",NUSA TENGGARA TIMUR,,Indonesia,,,,-8.823.919,1.209.644.324,https://maps.google.com/?cid=0x0:0x3d9b66bc71ed2519,
perumahan,Pembangunan Perumahan,Verma farm house,"Bajawa Rawat ka, Bajawa, Ngada Regency, East Nusa Tenggara","Kabupaten Ngada, Nusa Tenggara Tim.",NUSA TENGGARA TIMUR,,Indonesia,,,,-8.792.325,120.960.602,https://maps.google.com/?cid=0x0:0x7a9d71b99ec6dafc,
perumahan,Perhimpunan Pengembang Perumahan,Sonu kumar,"6X56+369, Bajawa, Rajasthan, India, Bajawa","Kabupaten Ngada, Nusa Tenggara Tim.",NUSA TENGGARA TIMUR,,Indonesia,,,,-8.792.325,120.960.602,https://maps.google.com/?cid=0x0:0xfac5c76920f40c3f,
perumahan,perumahan,Nusa Tenggara Tim.,,Nusa Tenggara Tim.,NUSA TENGGARA TIMUR,,Indonesia,,,,-86.573.819,1.210.793.705,https://maps.google.com/?cid=0x0:0x1030bfbcaf71ae0,
perumahan,Komplek perumahan,Oma rina,"6X7M+5FJ, Faobata, Bajawa, Kabupaten Ngada, Nusa Tenggara Tim. 86419","Faobata, Bajawa, Kabupaten Ngada",NUSA TENGGARA TIMUR,86419.0,Indonesia,,,,-87.871.621,1.209.837.091,https://maps.google.com/?cid=0x0:0x420db2d42f9c8a7d,
perumahan,Komplek perumahan,Home putryy,"Jl. R Soeprapto No.86419, Faobata, Bajawa, Kabupaten Ngada, Nusa Tenggara Tim.","Kabupaten Ngada, Nusa Tenggara Tim.",NUSA TENGGARA TIMUR,,Indonesia,,,,-87.848.116,1.209.888.693,https://maps.google.com/?cid=0x0:0xf36dd474b0e73a5,
perumahan,Restoran,RM CITRA MINANG BAJAWA,"JL. D.I Pandjaitan, Bajawa, Kabupaten Ngada, Nusa Tenggara Tim. 86419","Bajawa, Kabupaten Ngada",NUSA TENGGARA TIMUR,86419.0,Indonesia,8113334434,,,-87.863.772,1.209.732.189,https://maps.google.com/?cid=0x0:0x15361fa664da6cbb,
perumahan,perumahan,Bajawa,"Bajawa, Kabupaten Ngada, Nusa Tenggara Tim.","Kabupaten Ngada, Nusa Tenggara Tim.",NUSA TENGGARA TIMUR,,Indonesia,,,,-8.792.325,120.960.602,https://maps.google.com/?cid=0x0:0x3cbeacbc23e7d171,
perumahan,Penginapan,Bajawa,"6X56+369, Bajawa, Kabupaten Ngada, Nusa Tenggara Tim.","Kabupaten Ngada, Nusa Tenggara Tim.",NUSA TENGGARA TIMUR,,Indonesia,,,,-8.792.325,120.960.602,https://maps.google.com/?cid=0x0:0xe868b694e147ece6,
perumahan,Komplek perumahan,Ngada,"6X56+369, Bajawa, Kabupaten Ngada, Nusa Tenggara Tim.","Kabupaten Ngada, Nusa Tenggara Tim.",NUSA TENGGARA TIMUR,,Indonesia,,,,-8.792.325,120.960.602,https://maps.google.com/?cid=0x0:0x90bf4198852fc753,
perumahan,Komplek perumahan,Uluwae 1,"6X56+369, Bajawa, Kabupaten Ngada, Nusa Tenggara Tim.","Kabupaten Ngada, Nusa Tenggara Tim.",NUSA TENGGARA TIMUR,,Indonesia,,,,-8.792.325,120.960.602,https://maps.google.com/?cid=0x0:0xf250a0a970ea4dd4,
perumahan,Komplek perumahan,Lindi,"6X56+369, Bajawa, Kabupaten Ngada, Nusa Tenggara Tim.","Kabupaten Ngada, Nusa Tenggara Tim.",NUSA TENGGARA TIMUR,,Indonesia,,,,-8.792.325,120.960.602,https://maps.google.com/?cid=0x0:0xcf4262f0f64f3181,
perumahan,Perhimpunan Pengembang Perumahan,Kisanata,"6X56+369, Bajawa, Kabupaten Ngada, Nusa Tenggara Tim.","Kabupaten Ngada, Nusa Tenggara Tim.",NUSA TENGGARA TIMUR,,Indonesia,,,,-8.792.325,120.960.602,https://maps.google.com/?cid=0x0:0x5579b43ad48bbe37,
perumahan,Komplek perumahan,Rumah Tinggal,"Basuki Rahmat No.11, Bajawa, Flores, Kabupaten Ngada, Nusa Tenggara Tim.","Kabupaten Ngada, Nusa Tenggara Tim.",NUSA TENGGARA TIMUR,,Indonesia,,,,-8.792.325,120.960.602,https://maps.google.com/?cid=0x0:0xaebe024f4773fb5,
perumahan,Komplek perumahan,rakalaba 1,"6X56+369, Bajawa, Kabupaten Ngada, Nusa Tenggara Tim.","Kabupaten Ngada, Nusa Tenggara Tim.",NUSA TENGGARA TIMUR,,Indonesia,,,,-8.792.325,120.960.602,https://maps.google.com/?cid=0x0:0xdceca3f22c7325e0,
perumahan,perumahan,Lila,"6X45+JVC, Bajawa, Kabupaten Ngada, Nusa Tenggara Tim.","Kabupaten Ngada, Nusa Tenggara Tim.",NUSA TENGGARA TIMUR,,Indonesia,,,,-87.934.486,1.209.596.366,https://maps.google.com/?cid=0x0:0x5cfc123310d47ce4,
perumahan,Pembangunan Perumahan,Malanawe woiohoo,"6X56+369, Bajawa, Kabupaten Ngada, Nusa Tenggara Tim.","Kabupaten Ngada, Nusa Tenggara Tim.",NUSA TENGGARA TIMUR,,Indonesia,,,,-8.792.325,120.960.602,https://maps.google.com/?cid=0x0:0xa88995d8d2bc7a5c,
perumahan,perumahan,Boloji,"6X56+369, Bajawa, Kabupaten Ngada, Nusa Tenggara Tim.","Kabupaten Ngada, Nusa Tenggara Tim.",NUSA TENGGARA TIMUR,,Indonesia,,,,-8.792.325,120.960.602,https://maps.google.com/?cid=0x0:0x6b3dc463305dc2e2,
perumahan,Komplek perumahan,Desa Ngoranale,"6X56+369, Bajawa, Kabupaten Ngada, Nusa Tenggara Tim.","Kabupaten Ngada, Nusa Tenggara Tim.",NUSA TENGGARA TIMUR,,Indonesia,,,,-8.792.325,120.960.602,https://maps.google.com/?cid=0x0:0x67826224adf1f557,
perumahan,Kompleks Kondominium,Watujaji village,"6X56+369, Bajawa, Kabupaten Ngada, Nusa Tenggara Tim.","Kabupaten Ngada, Nusa Tenggara Tim.",NUSA TENGGARA TIMUR,,Indonesia,,,,-8.792.325,120.960.602,https://maps.google.com/?cid=0x0:0x6551df3e9aeac910,
perumahan,Komplek perumahan,Rumah ikson riwu,"6X56+369, Bajawa, Kabupaten Ngada, Nusa Tenggara Tim.","Kabupaten Ngada, Nusa Tenggara Tim.",NUSA TENGGARA TIMUR,,Indonesia,,,,-8.792.325,120.960.602,https://maps.google.com/?cid=0x0:0xbcdd9791b56a8534,
perumahan,perumahan,Gudang bokua,"6X56+369, Bajawa, Kabupaten Ngada, Nusa Tenggara Tim.","Kabupaten Ngada, Nusa Tenggara Tim.",NUSA TENGGARA TIMUR,,Indonesia,,,,-8.792.325,120.960.602,https://maps.google.com/?cid=0x0:0x2fa944c63e84b11a,
perumahan,Pembangunan Perumahan,Kelurahan Trikora,"6X56+369, Bajawa, Kabupaten Ngada, Nusa Tenggara Tim.","Kabupaten Ngada, Nusa Tenggara Tim.",NUSA TENGGARA TIMUR,,Indonesia,,,,-8.792.325,120.960.602,https://maps.google.com/?cid=0x0:0xe9c089b0de95f171,
perumahan,Komplek perumahan,Stef lGae,"Jln. Waenay No.RT 8, Desa Bolonga, Bajawa, Kabupaten Ngada, Nusa Tenggara Tim.","Kabupaten Ngada, Nusa Tenggara Tim.",NUSA TENGGARA TIMUR,,Indonesia,,,,-8.792.325,120.960.602,https://maps.google.com/?cid=0x0:0x8d28ca1ff47e5d32,
perumahan,Pembangunan Perumahan,Verma farm house,"Bajawa Rawat ka, Bajawa, Ngada Regency, East Nusa Tenggara","Kabupaten Ngada, Nusa Tenggara Tim.",NUSA TENGGARA TIMUR,,Indonesia,,,,-8.792.325,120.960.602,https://maps.google.com/?cid=0x0:0x7a9d71b99ec6dafc,
perumahan,Perhimpunan Pengembang Perumahan,Sonu kumar,"6X56+369, Bajawa, Rajasthan, India, Bajawa","Kabupaten Ngada, Nusa Tenggara Tim.",NUSA TENGGARA TIMUR,,Indonesia,,,,-8.792.325,120.960.602,https://maps.google.com/?cid=0x0:0xfac5c76920f40c3f,
perumahan,Pembangunan Perumahan,Desa Tadho Barat,"6X56+369, Jalan riung -bajawa, RT.01/RW.01, desa tadho barat, kec riung, Kabupaten Ngada, Nusa Tenggara Tim.","Kabupaten Ngada, Nusa Tenggara Tim.",NUSA TENGGARA TIMUR,,Indonesia,,,,-8.792.325,120.960.602,https://maps.google.com/?cid=0x0:0xa84084024290e5d1,
perumahan,perumahan,Kec. Soa,"Kabupaten Ngada, Nusa Tenggara Tim.","Kabupaten Ngada, Nusa Tenggara Tim.",NUSA TENGGARA TIMUR,,Indonesia,,,,-86.991.961,1.210.341.254,https://maps.google.com/?cid=0x0:0xa0e2c22221dea3ea,
perumahan,Pembangunan Perumahan,Desa Ngabheo,"72RV+GV8, Masumeli, Kec. Soa, Kabupaten Ngada, Nusa Tenggara Tim.","Kabupaten Ngada, Nusa Tenggara Tim.",NUSA TENGGARA TIMUR,,Indonesia,,,,-87.087.178,1.210.446.991,https://maps.google.com/?cid=0x0:0x4e2ca97fa7a101a,
perumahan,Komplek perumahan,Loa,"822M+8JQ, Waepana, Kec. Soa, Kabupaten Ngada, Nusa Tenggara Tim.","Kabupaten Ngada, Nusa Tenggara Tim.",NUSA TENGGARA TIMUR,,Indonesia,,,,-86.991.556,1.210.340.979,https://maps.google.com/?cid=0x0:0x99bc1b53200b2916,
perumahan,Perhimpunan Pengembang Perumahan,TUREWUDAH,"82JC+J95, Waepana, Kec. Soa, Kabupaten Ngada, Nusa Tenggara Tim.","Kabupaten Ngada, Nusa Tenggara Tim.",NUSA TENGGARA TIMUR,,Indonesia,,,,-86.684.875,1.210.209.904,https://maps.google.com/?cid=0x0:0xafe3c0ea9812e401,
perumahan,Pembangunan Perumahan,Kampung Meli,"72M8+PX, Meliwaru, Kec. Soa, Kabupaten Ngada, Nusa Tenggara Tim.","Kabupaten Ngada, Nusa Tenggara Tim.",NUSA TENGGARA TIMUR,,Indonesia,,,,-87.156.909,1.210.174.176,https://maps.google.com/?cid=0x0:0x7ecb6ce6c2d57e9e,
perumahan,Pembangunan Perumahan,Rumah Poli Meo Ngabheo,"72RX+XVQ, Masumeli, Kec. Soa, Kabupaten Ngada, Nusa Tenggara Tim.","Kabupaten Ngada, Nusa Tenggara Tim.",NUSA TENGGARA TIMUR,,Indonesia,,,,-87.075.443,121.049.734,https://maps.google.com/?cid=0x0:0x8de8706b9a67f8df,
perumahan,Kantor Pemerintah,Desa tarawaja,"7387+J22, Tarawaja, Kec. Soa, Kabupaten Ngada, Nusa Tenggara Tim.","Kabupaten Ngada, Nusa Tenggara Tim.",NUSA TENGGARA TIMUR,,Indonesia,,,,-87.334.875,1.210.625.156,https://maps.google.com/?cid=0x0:0x67f2119c27342c39,
perumahan,Balai masyarakat,Soa ngabheo,"72RW+RJ5, Ngabheo, Kec. Soa, Kabupaten Ngada, Nusa Tenggara Tim.","Kabupaten Ngada, Nusa Tenggara Tim.",NUSA TENGGARA TIMUR,,Indonesia,,,,-8.707.975,1.210.466.049,https://maps.google.com/?cid=0x0:0xdbffb60a5b28c95b,
perumahan,Perhimpunan Pengembang Perumahan,Rumah CHEO R,"72CX+F62, Tarawaja, Kec. Soa, Kabupaten Ngada, Nusa Tenggara Tim.","Kabupaten Ngada, Nusa Tenggara Tim.",NUSA TENGGARA TIMUR,,Indonesia,,,,-87.288.717,1.210.480.117,https://maps.google.com/?cid=0x0:0x28dd1f5b17c3dc6b,
perumahan,Komplek perumahan,Desa wololika,"72H8+FJ, Wololika, Kec. Bajawa Utara, Kabupaten Ngada, Nusa Tenggara Tim.","Kabupaten Ngada, Nusa Tenggara Tim.",NUSA TENGGARA TIMUR,,Indonesia,,,,-8.721.284,1.210.165.193,https://maps.google.com/?cid=0x0:0x1087e1873e7704e7,
perumahan,,Soa waepana,"8382+87W, Waepana, Kec. Soa, Kabupaten Ngada, Nusa Tenggara Tim.","Kabupaten Ngada, Nusa Tenggara Tim.",NUSA TENGGARA TIMUR,,Indonesia,,,,-86.841.275,1.210.507.098,https://maps.google.com/?cid=0x0:0x970947d14352b348,
perumahan,Perhimpunan Pengembang Perumahan,Kos,"72HP+Q4, Tarawaja, Kec. Soa, Kabupaten Ngada, Nusa Tenggara Tim.","Kabupaten Ngada, Nusa Tenggara Tim.",NUSA TENGGARA TIMUR,,Indonesia,,,,-87.205.865,1.210.353.272,https://maps.google.com/?cid=0x0:0x2199af1636af0c4b,
perumahan,Komplek perumahan,Perumahan sola olo,"72RV+JGH, Masumeli, Ngabheo, Kabupaten Ngada, Nusa Tenggara Tim.","Kabupaten Ngada, Nusa Tenggara Tim.",NUSA TENGGARA TIMUR,,Indonesia,,,,-8.708.431,1.210.438.533,https://maps.google.com/?cid=0x0:0xef6d84d19a2466f4,
perumahan,Kantor Pemerintahan Wilayah,Desa loa,"739F+RFC, Loa, Kec. Soa, Kabupaten Ngada, Nusa Tenggara Tim.","Kabupaten Ngada, Nusa Tenggara Tim.",NUSA TENGGARA TIMUR,,Indonesia,,,,-87.304.337,1.210.736.389,https://maps.google.com/?cid=0x0:0xef9790155456c57f,
perumahan,Komplek perumahan,Rumah Anysius Nuwa,"823Q+23Q, Waepana, Kec. Soa, Kabupaten Ngada, Nusa Tenggara Tim.","Kabupaten Ngada, Nusa Tenggara Tim.",NUSA TENGGARA TIMUR,,Indonesia,,,,-8.697.206,121.037.866,https://maps.google.com/?cid=0x0:0x702acbda51b6e58f,
perumahan,Pembangunan Perumahan,YoghalHome,"72PW+2MQ, Piga, Kec. Soa, Kabupaten Ngada, Nusa Tenggara Tim.","Kabupaten Ngada, Nusa Tenggara Tim.",NUSA TENGGARA TIMUR,,Indonesia,,,,-87.149.125,1.210.467.344,https://maps.google.com/?cid=0x0:0x556d5b7d3d0d2cfc,
perumahan,Komplek perumahan,Rumah rado ria,"822M+6JF, Seso, Kec. Soa, Kabupaten Ngada, Nusa Tenggara Tim.","Kabupaten Ngada, Nusa Tenggara Tim.",NUSA TENGGARA TIMUR,,Indonesia,,,,-8.700.407,1.210.344.565,https://maps.google.com/?cid=0x0:0x3991c9a1b047a246,
perumahan,Komplek perumahan,desa lokaweka,"822M+8JQ, Waepana, Kec. Soa, Kabupaten Ngada, Nusa Tenggara Tim.","Kabupaten Ngada, Nusa Tenggara Tim.",NUSA TENGGARA TIMUR,,Indonesia,,,,-86.991.557,1.210.340.978,https://maps.google.com/?cid=0x0:0x2fdcb6980c9d4f33,
perumahan,Perhimpunan Pengembang Perumahan,Rumah saya,"83VH+2PX, Nginamanu, Kec. Wolomeze, Fatuatis, Nusa Tenggara Tim.","Fatuatis, Nusa Tenggara Tim.",NUSA TENGGARA TIMUR,,Indonesia,,,,-86.573.819,1.210.793.705,https://maps.google.com/?cid=0x0:0xaa445e9d7bb4d1de,
perumahan,Komplek perumahan,Rumah bapa Sil,"72XJ+49, Waepana, Kec. Soa, Kabupaten Ngada, Nusa Tenggara Tim.","Kabupaten Ngada, Nusa Tenggara Tim.",NUSA TENGGARA TIMUR,,Indonesia,,,,-8.702.142,121.030.941,https://maps.google.com/?cid=0x0:0x64eb8451de03ee28,
perumahan,Komplek perumahan,Megan Home,"822M+8JQ, Waepana, Kec. Soa, Kabupaten Ngada, Nusa Tenggara Tim.","Kabupaten Ngada, Nusa Tenggara Tim.",NUSA TENGGARA TIMUR,,Indonesia,,,,-86.991.557,1.210.340.978,https://maps.google.com/?cid=0x0:0xed4e8c8ba72c85db,
perumahan,Pembangunan Perumahan,Megan Home,"72GV+32M, Tarawaja, Kec. Soa, Kabupaten Ngada, Nusa Tenggara Tim.","Kabupaten Ngada, Nusa Tenggara Tim.",NUSA TENGGARA TIMUR,,Indonesia,,,,-87.247.839,1.210.425.317,https://maps.google.com/?cid=0x0:0xcb32446f79adf7df,
perumahan,perumahan,Nusa Tenggara Tim.,,Nusa Tenggara Tim.,NUSA TENGGARA TIMUR,,Indonesia,,,,-86.573.819,1.210.793.705,https://maps.google.com/?cid=0x0:0x1030bfbcaf71ae0,
perumahan,Komplek perumahan,Oma rina,"6X7M+5FJ, Faobata, Bajawa, Kabupaten Ngada, Nusa Tenggara Tim. 86419","Faobata, Bajawa, Kabupaten Ngada",NUSA TENGGARA TIMUR,86419.0,Indonesia,,,,-87.871.621,1.209.837.091,https://maps.google.com/?cid=0x0:0x420db2d42f9c8a7d,
perumahan,Komplek perumahan,Home putryy,"Jl. R Soeprapto No.86419, Faobata, Bajawa, Kabupaten Ngada, Nusa Tenggara Tim.","Kabupaten Ngada, Nusa Tenggara Tim.",NUSA TENGGARA TIMUR,,Indonesia,,,,-87.848.116,1.209.888.693,https://maps.google.com/?cid=0x0:0xf36dd474b0e73a5,
perumahan,Pembangunan Perumahan,naioni,"QH9W+M58, Jl. Laluteti, Fatukoa, Kec. Maulafa, Kota Kupang, Nusa Tenggara Tim.","Kota Kupang, Nusa Tenggara Tim.",NUSA TENGGARA TIMUR,,Indonesia,,,,-10.230.846,123.595.466,https://maps.google.com/?cid=0x0:0x3eafa979d3f7dbf,
perumahan,Komplek perumahan,Perumahan Gloria Regency,"Waturia, Kolisia B, Kec. Magepanda, Kabupaten Sikka, Nusa Tenggara Tim. 86111","Kolisia B, Kec. Magepanda, Kabupaten Sikka",NUSA TENGGARA TIMUR,86111.0,Indonesia,81353928372,,,-85.500.341,1.221.347.679,https://maps.google.com/?cid=0x0:0xa74817ac7a773063,
perumahan,Restoran,RM CITRA MINANG BAJAWA,"JL. D.I Pandjaitan, Bajawa, Kabupaten Ngada, Nusa Tenggara Tim. 86419","Bajawa, Kabupaten Ngada",NUSA TENGGARA TIMUR,86419.0,Indonesia,8113334434,,,-87.863.772,1.209.732.189,https://maps.google.com/?cid=0x0:0x15361fa664da6cbb,
perumahan,Restoran,Bajawa Family Resto,"Jl. WJ Lalamentik, Faobata, Bajawa, Kabupaten Ngada, Nusa Tenggara Tim. 86419","Faobata, Bajawa, Kabupaten Ngada",NUSA TENGGARA TIMUR,86419.0,Indonesia,82266397945,,,-87.777.766,1.209.887.957,https://maps.google.com/?cid=0x0:0x1bebbd2301fe2c95,
perumahan,Restoran,Rumah Makan A'la,"Jl. R Soeprapto, RT.05/RW.02, Faobata, Bajawa, Kabupaten Ngada, Nusa Tenggara Tim. 86419","RT.05/RW.02, Faobata, Bajawa, Kabupaten Ngada",NUSA TENGGARA TIMUR,86419.0,Indonesia,85335575369,,,-87.836.716,1.209.899.386,https://maps.google.com/?cid=0x0:0x8a953729dfb61da6,
perumahan,perumahan,Riung,"Benteng Tengah, Kec. Riung, Kabupaten Ngada, Nusa Tenggara Tim.","Kabupaten Ngada, Nusa Tenggara Tim.",NUSA TENGGARA TIMUR,,Indonesia,,,,-8.433.639,1.210.317,https://maps.google.com/?cid=0x0:0x421c43f4ef9b08fa,
perumahan,perumahan,Nirvana Bungalows RIUNG / Nirvana RIUNG,"Nirvana Road, Nangamese, Kec. Riung, Kabupaten Ngada, Nusa Tenggara Tim.","Kabupaten Ngada, Nusa Tenggara Tim.",NUSA TENGGARA TIMUR,,Indonesia,81338528529,,,-84.184.645,1.210.292.928,https://maps.google.com/?cid=0x0:0xcecab3c11952c396,
perumahan,Komplek perumahan,Bumi Dirgantara Permai,"RT.009/RW.011, Jatisari, Kec. Jatiasih, Kota Bks, Jawa Barat 17426","Jatisari, Kec. Jatiasih, Kota Bks",NUSA TENGGARA TIMUR,17426.0,Indonesia,,,,-63.463.327,1.069.431.248,https://maps.google.com/?cid=0x0:0xf40af7137bfb745c,
perumahan,Komplek perumahan,Rumah,"Bumi Dirgantara Permai, Jl. Nangka CT. 1 No.29, Jatisari, Kec. Jatiasih","Kota Bks, Jawa Barat",NUSA TENGGARA TIMUR,,Indonesia,,,,-63.395.782,1.069.535.725,https://maps.google.com/?cid=0x0:0xc4fb24ef5507dbcc,
perumahan,Kafe,Dorin.ku,"Jl. Surya Dharma No.5, RT.002/RW.011, Jatisari, Kec. Jatiasih, Kota Bks, Jawa Barat 17426","RT.002/RW.011, Jatisari, Kec. Jatiasih, Kota Bks",NUSA TENGGARA TIMUR,17426.0,Indonesia,85732291114,,,-63.442.674,1.069.491.584,https://maps.google.com/?cid=0x0:0x2438d6c6feb0e93e,
perumahan,perumahan,Kec. Jerebuu,"Kabupaten Ngada, Nusa Tenggara Tim.","Kabupaten Ngada, Nusa Tenggara Tim.",NUSA TENGGARA TIMUR,,Indonesia,,,,-88.964.289,1.209.972.433,https://maps.google.com/?cid=0x0:0x39c158f74ac29cdb,
perumahan,Tujuan Wisata,Kampung Adat Gurusina,"Watumanu, Kec. Jerebuu, Kabupaten Ngada, Nusa Tenggara Tim.","Kabupaten Ngada, Nusa Tenggara Tim.",NUSA TENGGARA TIMUR,,Indonesia,81239826726,,,-88.962.085,1.209.910.433,https://maps.google.com/?cid=0x0:0x7c844cf8a0034080,
perumahan,Tujuan Wisata,Desa Bena,"4XFP+892, Unnamed Rd, Nusa Tenggara Tim., Tiworiwu, Kec. Jerebuu, Kabupaten Ngada, Nusa Tenggara Tim.","Kabupaten Ngada, Nusa Tenggara Tim.",NUSA TENGGARA TIMUR,,Indonesia,,,,-88.767.439,1.209.858.981,https://maps.google.com/?cid=0x0:0x37927d1166e19c6e,
perumahan,Hotel,Manulalu Panorama,"4XPV+8VC, Tiworiwu, Kec. Jerebuu, Kabupaten Ngada, Nusa Tenggara Tim.","Kabupaten Ngada, Nusa Tenggara Tim.",NUSA TENGGARA TIMUR,,Indonesia,,,,-88.641.982,1.209.946.518,https://maps.google.com/?cid=0x0:0xea00f1e256078a2b,
perumahan,perumahan,Penginapan Manulalu,"Jalan. Mangulewa Jerebu'u, Tiworiwu, Kec. Jerebuu, Kabupaten Ngada, Nusa Tenggara Tim.","Kabupaten Ngada, Nusa Tenggara Tim.",NUSA TENGGARA TIMUR,,Indonesia,82144774417,,,-88.632.173,1.209.944.403,https://maps.google.com/?cid=0x0:0x349a06c91182b160,
perumahan,perumahan,Bajawa Roo Hotel,"Jln. Martadinatha, RT Ngali, Trikora, Bajawa, Flores, East Nusa Tenggara 86411","RT Ngali, Trikora, Bajawa, Flores",NUSA TENGGARA TIMUR,86411.0,Indonesia,81338639607,,,-87.846.152,1.209.692.896,https://maps.google.com/?cid=0x0:0x7602b2bd0e921492,
perumahan,perumahan,Hotel Edelweis 2 Bajawa,"Jl. Sriwijaya, Tanalodu, Bajawa, Kabupaten Ngada, Nusa Tenggara Tim.","Kabupaten Ngada, Nusa Tenggara Tim.",NUSA TENGGARA TIMUR,,Indonesia,81237800369,,,-87.900.255,1.209.761.325,https://maps.google.com/?cid=0x0:0xd06d6f9bf3f9bcfe,
perumahan,perumahan,( Madja) Edelweiss Homestay,"6X5F+2WW, Tanalodu, Bajawa, Kabupaten Ngada, Nusa Tenggara Tim.","Kabupaten Ngada, Nusa Tenggara Tim.",NUSA TENGGARA TIMUR,,Indonesia,81237795490,,,-87.923.966,1.209.748.236,https://maps.google.com/?cid=0x0:0xebd9ccd9f0bf43b8,
perumahan,perumahan,Arnolds Family Homestay,"Jl. El Tari, Trikora, Bajawa, Kabupaten Ngada, Nusa Tenggara Tim. 86514","Trikora, Bajawa, Kabupaten Ngada",NUSA TENGGARA TIMUR,86514.0,Indonesia,,,,-87.861.305,1.209.702.128,https://maps.google.com/?cid=0x0:0x338ad602d6eda750,
perumahan,Tujuan Wisata,Tololela Traditional Village,"4X4M+C2J, Watumanu, Kec. Jerebuu, Kabupaten Ngada, Nusa Tenggara Tim.","Kabupaten Ngada, Nusa Tenggara Tim.",NUSA TENGGARA TIMUR,,Indonesia,,,,-88.939.114,1.209.825.294,https://maps.google.com/?cid=0x0:0x743d231e0d689e5d,
perumahan,Pusat Pendidikan,Turetogo,"5365+3XV, Ratogesa, Kec. Golewa, Kabupaten Ngada, Nusa Tenggara Tim.","Kabupaten Ngada, Nusa Tenggara Tim.",NUSA TENGGARA TIMUR,,Indonesia,,,,-88.397.707,1.210.599.177,https://maps.google.com/?cid=0x0:0x328b7ec487b0fc1d,
perumahan,perumahan,Tiworiwu,"Kec. Jerebuu, Kabupaten Ngada, Nusa Tenggara Tim.","Kabupaten Ngada, Nusa Tenggara Tim.",NUSA TENGGARA TIMUR,,Indonesia,,,,-8.874.456,1.209.818.962,https://maps.google.com/?cid=0x0:0x8f4f7cd8facfec28,
perumahan,Museum,Desa Adat Bela,"5X55+75J, Unnamed Road, Beja, Bajawa, Kabupaten Ngada, Nusa Tenggara Tim.","Kabupaten Ngada, Nusa Tenggara Tim.",NUSA TENGGARA TIMUR,,Indonesia,85648186848,,,-88.417.799,1.209.579.047,https://maps.google.com/?cid=0x0:0xb091837895517f9c,
perumahan,Seminari,Rumah Retret Kemah Tabor Mataloko,"53F3+QRP, Mataloko, Kec. Golewa, Kabupaten Ngada, Nusa Tenggara Tim.","Kabupaten Ngada, Nusa Tenggara Tim.",NUSA TENGGARA TIMUR,,Indonesia,,,,-88.255.489,1.210.545.793,https://maps.google.com/?cid=0x0:0xebe23cbd18294901,
perumahan,perumahan,Watumanu,"Kec. Jerebuu, Kabupaten Ngada, Nusa Tenggara Tim.","Kabupaten Ngada, Nusa Tenggara Tim.",NUSA TENGGARA TIMUR,,Indonesia,,,,-88.938.697,1.209.818.962,https://maps.google.com/?cid=0x0:0x9f9b3adb44a533fa,
perumahan,Indonesia,Heavens Door Bar  Restaurant,"Jerebuu, Tiworiwu, Bajawa, Kabupaten Ngada, Nusa Tenggara Tim. 86413","Tiworiwu, Bajawa, Kabupaten Ngada",NUSA TENGGARA TIMUR,86413.0,Indonesia,82144774417,,,-88.641.596,120.994.707,https://maps.google.com/?cid=0x0:0xcee91644a99e188b,
perumahan,perumahan,Wajojerebuu,"4264+P5, Dariwali, Kec. Jerebuu, Kabupaten Ngada, Nusa Tenggara Tim.","Kabupaten Ngada, Nusa Tenggara Tim.",NUSA TENGGARA TIMUR,,Indonesia,,,,-88.881.434,1.210.054.202,https://maps.google.com/?cid=0x0:0xb378a7e0cc099d8d,
perumahan,perumahan,Naidewa,"42Q8+9G3, Rakateda I, Golewa Bar., Kabupaten Ngada, Nusa Tenggara Tim.","Kabupaten Ngada, Nusa Tenggara Tim.",NUSA TENGGARA TIMUR,,Indonesia,,,,-88.616.037,1.210.163.079,https://maps.google.com/?cid=0x0:0x81ac0ce11c3ff0b3,
perumahan,Komplek perumahan,Watumanu jerebuu,"4X4J+FQ2, Watumanu, Kec. Jerebuu, Kabupaten Ngada, Nusa Tenggara Tim.","Kabupaten Ngada, Nusa Tenggara Tim.",NUSA TENGGARA TIMUR,,Indonesia,,,,-88.938.697,1.209.818.962,https://maps.google.com/?cid=0x0:0xf67a430d41cfacb3,
perumahan,Pembangunan Perumahan,Kampung Deru,"32P3+4GR, Nenowea, Kec. Jerebuu, Kabupaten Ngada, Nusa Tenggara Tim.","Kabupaten Ngada, Nusa Tenggara Tim.",NUSA TENGGARA TIMUR,,Indonesia,,,,-8.914.632,121.003.772,https://maps.google.com/?cid=0x0:0xf4f3e9befafa2eae,
perumahan,Pembangunan Perumahan,Dusun Ngedu Bhaga,"4243+WP, Bowaru, Kec. Jerebuu, Kabupaten Ngada, Nusa Tenggara Tim.","Kabupaten Ngada, Nusa Tenggara Tim.",NUSA TENGGARA TIMUR,,Indonesia,,,,-88.927.457,1.210.042.914,https://maps.google.com/?cid=0x0:0x79486cb41d722948,
perumahan,Museum,Bowaru village,"4243+WP, Dariwali, Kec. Jerebuu, Kabupaten Ngada, Nusa Tenggara Tim.","Kabupaten Ngada, Nusa Tenggara Tim.",NUSA TENGGARA TIMUR,,Indonesia,81281614501,,,-88.927.457,1.210.042.914,https://maps.google.com/?cid=0x0:0x159587e4b051740b,
perumahan,Pembangunan Perumahan,Nikolaus Pati,"32P7+JX3, RT Kota dusun Tiwungebu, Nenowea, Kec. Jerebuu, Kabupaten Ngada","Kabupaten Ngada, Nusa Tenggara Tim.",NUSA TENGGARA TIMUR,,Indonesia,,,,-89.134.781,121.014.921,https://maps.google.com/?cid=0x0:0x36d9bd4be8ae7ac1,
perumahan,Komplek perumahan,Six Seven R,"4X4R+2GX, Watumanu, Kec. Jerebuu, Kabupaten Ngada, Nusa Tenggara Tim.","Kabupaten Ngada, Nusa Tenggara Tim.",NUSA TENGGARA TIMUR,,Indonesia,,,,-88.956.078,1.209.910.191,https://maps.google.com/?cid=0x0:0x81ebdb04a7b077,
perumahan,Pembangunan Perumahan,Kampung wajo,"4264+P4, Dariwali, Kec. Jerebuu, Kabupaten Ngada, Nusa Tenggara Tim.","Kabupaten Ngada, Nusa Tenggara Tim.",NUSA TENGGARA TIMUR,,Indonesia,,,,-8.888.179,1.210.053.296,https://maps.google.com/?cid=0x0:0x1d266d5c58b09e95,
perumahan,Komplek perumahan,Aloysius Mangu,"4XJP+8G8, Tiworiwu, Kec. Jerebuu, Kabupaten Ngada, Nusa Tenggara Tim.","Kabupaten Ngada, Nusa Tenggara Tim.",NUSA TENGGARA TIMUR,,Indonesia,,,,-88.692.224,1.209.863.232,https://maps.google.com/?cid=0x0:0xcc8ac5cd487fa49f,
perumahan,Komplek perumahan,Hala Cegu 2,"3XRH+MC, Manubhara, Kec. Jerebuu, Kabupaten Ngada, Nusa Tenggara Tim.","Kabupaten Ngada, Nusa Tenggara Tim.",NUSA TENGGARA TIMUR,,Indonesia,,,,-8.908.252,1.209.785.227,https://maps.google.com/?cid=0x0:0x2da2194f5b44113,
perumahan,perumahan,Rumah Kepala Desa Waeia,"52CX+PPC, Mataloko, Kec. Golewa, Kabupaten Ngada, Nusa Tenggara Tim.","Kabupaten Ngada, Nusa Tenggara Tim.",NUSA TENGGARA TIMUR,,Indonesia,,,,-88.288.306,1.210.485.274,https://maps.google.com/?cid=0x0:0xce86926a8fc232e,
perumahan,Pembangunan Perumahan,Yasin Bupu,"4X2R+V8M, Watumanu, Kec. Jerebuu, Kabupaten Ngada, Nusa Tenggara Tim.","Kabupaten Ngada, Nusa Tenggara Tim.",NUSA TENGGARA TIMUR,,Indonesia,,,,-88.979.939,1.209.909.896,https://maps.google.com/?cid=0x0:0x98f54a26461539ea,
perumahan,perumahan,Kec. Riung Bar.,"Kabupaten Ngada, Nusa Tenggara Tim.","Kabupaten Ngada, Nusa Tenggara Tim.",NUSA TENGGARA TIMUR,,Indonesia,,,,-85.210.715,120.949.077,https://maps.google.com/?cid=0x0:0x457d9b30e57a9ad3,
perumahan,Perhimpunan Pengembang Perumahan,bezy_sintuz,"FW7W+P7W, Wolomeze, Kec. Riung Bar., Kabupaten Ngada, Nusa Tenggara Tim.","Kabupaten Ngada, Nusa Tenggara Tim.",NUSA TENGGARA TIMUR,,Indonesia,,,,-85.351.642,1.209.464.192,https://maps.google.com/?cid=0x0:0xd2168d3507a8e44b,
perumahan,Komplek perumahan,Ronal sama,"FVJH+MW, Lanamai, Kec. Riung Bar., Kabupaten Ngada, Nusa Tenggara Tim.","Kabupaten Ngada, Nusa Tenggara Tim.",NUSA TENGGARA TIMUR,,Indonesia,,,,-85.183.377,1.208.797.628,https://maps.google.com/?cid=0x0:0xe88e8f8ec9e17b2d,
perumahan,Komplek perumahan,Theong,"FVHR+83, Lanamai, Kec. Riung Bar., Kabupaten Ngada, Nusa Tenggara Tim.","Kabupaten Ngada, Nusa Tenggara Tim.",NUSA TENGGARA TIMUR,,Indonesia,,,,-85.217.126,120.890.157,https://maps.google.com/?cid=0x0:0xa39f31bacbb329e4,
perumahan,Komplek perumahan,Perbatasan Theong dan Teding,"FWHX+P43, Lanamai, Kec. Riung Bar., Kabupaten Ngada, Nusa Tenggara Tim.","Kabupaten Ngada, Nusa Tenggara Tim.",NUSA TENGGARA TIMUR,,Indonesia,,,,-85.206.997,1.209.478.019,https://maps.google.com/?cid=0x0:0x9982fc9478dbfa73,
perumahan,Komplek perumahan,Damu,"CV2X+WCC, Benteng Tawa, Kec. Riung Bar., Kabupaten Ngada, Nusa Tenggara Tim.","Kabupaten Ngada, Nusa Tenggara Tim.",NUSA TENGGARA TIMUR,,Indonesia,,,,-85.976.792,1.208.985.306,https://maps.google.com/?cid=0x0:0xc7d406d828f8d268,
perumahan,Komplek perumahan,Rumah Tinggal,"FXH4+765, Ria, Kec. Riung Bar., Kabupaten Ngada, Nusa Tenggara Tim.","Kabupaten Ngada, Nusa Tenggara Tim.",NUSA TENGGARA TIMUR,,Indonesia,,,,-85.219.303,1.209.556.258,https://maps.google.com/?cid=0x0:0x977f86647099e3d1,
perumahan,Komplek perumahan,Rumah Nitu Dewa KADUS NGGIRINGLING,"FXH4+765, Ria, Kec. Riung Bar., Kabupaten Ngada, Nusa Tenggara Tim.","Kabupaten Ngada, Nusa Tenggara Tim.",NUSA TENGGARA TIMUR,,Indonesia,,,,-85.218.732,1.209.555.975,https://maps.google.com/?cid=0x0:0xa45ee8a01151ddde,
perumahan,Komplek perumahan,mira,"FWJX+7CQ, Ria, Kec. Riung Bar., Kabupaten Ngada, Nusa Tenggara Tim.","Kabupaten Ngada, Nusa Tenggara Tim.",NUSA TENGGARA TIMUR,,Indonesia,,,,-8.518.101,1.209.493.442,https://maps.google.com/?cid=0x0:0xa11caf9c8e508523,
perumahan,Komplek perumahan,Frederikus Wantong,"F2V2+2PQ, Ngara, Kec. Riung Bar., Kabupaten Ngada, Nusa Tenggara Tim.","Kabupaten Ngada, Nusa Tenggara Tim.",NUSA TENGGARA TIMUR,,Indonesia,,,,-85.085.938,1.210.034.958,https://maps.google.com/?cid=0x0:0x2cfab7b546bd3044,
perumahan,Perhimpunan Pengembang Perumahan,Eman pogol,"FVJJ+GJP, Lanamai, Kec. Riung Bar., Kabupaten Ngada, Nusa Tenggara Tim.","Kabupaten Ngada, Nusa Tenggara Tim.",NUSA TENGGARA TIMUR,,Indonesia,,,,-85.186.704,1.208.815.915,https://maps.google.com/?cid=0x0:0xce789b83bba9cc62,
perumahan,Pembangunan Perumahan,STANISLAUS NALUN,"9VVR+787, Benteng Tawa, Kec. Riung Bar., Kabupaten Ngada, Nusa Tenggara Tim.","Kabupaten Ngada, Nusa Tenggara Tim.",NUSA TENGGARA TIMUR,,Indonesia,,,,-86.068.348,1.208.908.005,https://maps.google.com/?cid=0x0:0xb8e3fc3e5f90c9bc,
perumahan,Komplek perumahan,Watunerek,"FXXV+FR, Ngara, Kec. Riung Bar., Kabupaten Ngada, Nusa Tenggara Tim.","Kabupaten Ngada, Nusa Tenggara Tim.",NUSA TENGGARA TIMUR,,Indonesia,,,,-85.012.846,1.209.945.704,https://maps.google.com/?cid=0x0:0x9359e67cd78035c1,
perumahan,Perhimpunan Pengembang Perumahan,Rumah Sinci,"FVJJ+P9P, Lanamai, Kec. Riung Bar., Kabupaten Ngada, Nusa Tenggara Tim.","Kabupaten Ngada, Nusa Tenggara Tim.",NUSA TENGGARA TIMUR,,Indonesia,,,,-85.188.643,120.880.444,https://maps.google.com/?cid=0x0:0x6a446ebb96ef6296,
perumahan,Komplek perumahan,Gian Kawak,"CWWR+GMQ, Wolomeze, Kec. Riung Bar., Kabupaten Ngada, Nusa Tenggara Tim.","Kabupaten Ngada, Nusa Tenggara Tim.",NUSA TENGGARA TIMUR,,Indonesia,,,,-85.536.532,1.209.417.368,https://maps.google.com/?cid=0x0:0x7dbfe5d68eb2ca1e,
perumahan,Komplek perumahan,MboreNoang Area,"FWHX+V8V, Ria, Kec. Riung Bar., Kabupaten Ngada, Nusa Tenggara Tim.","Kabupaten Ngada, Nusa Tenggara Tim.",NUSA TENGGARA TIMUR,,Indonesia,,,,-85.202.525,1.209.483.013,https://maps.google.com/?cid=0x0:0xffb70e961f1fb1bc,
perumahan,Komplek perumahan,Nongkrong jaringan,"FVJW+45, Lanamai, Kec. Riung Bar., Kabupaten Ngada, Nusa Tenggara Tim.","Kabupaten Ngada, Nusa Tenggara Tim.",NUSA TENGGARA TIMUR,,Indonesia,,,,-85.196.305,1.208.954.037,https://maps.google.com/?cid=0x0:0x2cdb971632e8c7bb,
perumahan,Komplek perumahan,Harry Home,"CVJF+M23 Rio minsi, Benteng Tawa, Kec. Riung Bar., Kabupaten Ngada, Nusa Tenggara Tim.","Kabupaten Ngada, Nusa Tenggara Tim.",NUSA TENGGARA TIMUR,,Indonesia,,,,-85.683.611,1.208.725.469,https://maps.google.com/?cid=0x0:0x3f62c595d4c73867,
perumahan,Perhimpunan Pengembang Perumahan,Rumah kz,"FVJP+7C, Lanamai, Kec. Riung Bar., Kabupaten Ngada, Nusa Tenggara Tim.","Kabupaten Ngada, Nusa Tenggara Tim.",NUSA TENGGARA TIMUR,,Indonesia,,,,-85.212.125,1.208.859.531,https://maps.google.com/?cid=0x0:0x89da3cce59047b7c,
perumahan,Komplek perumahan,Om Yan Desa House,"FWJ2+275, Lanamai, Kec. Riung Bar., Kabupaten Ngada, Nusa Tenggara Tim.","Kabupaten Ngada, Nusa Tenggara Tim.",NUSA TENGGARA TIMUR,,Indonesia,,,,-85.197.847,1.209.005.465,https://maps.google.com/?cid=0x0:0x8c1ef8c63ee7b97c,
perumahan,Perhimpunan Pengembang Perumahan,Roy Lita.,"FW8W+VQC, Wolomeze, Kec. Riung Bar., Kabupaten Ngada, Nusa Tenggara Tim.","Kabupaten Ngada, Nusa Tenggara Tim.",NUSA TENGGARA TIMUR,,Indonesia,,,,-8.532.483,120.946.514,https://maps.google.com/?cid=0x0:0x7581a3c7f44960c,
perumahan,perumahan,Kec. Bajawa Utara,"Kabupaten Ngada, Nusa Tenggara Tim.","Kabupaten Ngada, Nusa Tenggara Tim.",NUSA TENGGARA TIMUR,,Indonesia,,,,-87.368.576,1.210.030.037,https://maps.google.com/?cid=0x0:0xb1d8c7bab42c5a19,
perumahan,Penginapan,Bajawa,"6X56+369, Bajawa, Kabupaten Ngada, Nusa Tenggara Tim.","Kabupaten Ngada, Nusa Tenggara Tim.",NUSA TENGGARA TIMUR,,Indonesia,,,,-8.792.325,120.960.602,https://maps.google.com/?cid=0x0:0xe868b694e147ece6,
perumahan,Perhimpunan Pengembang Perumahan,Ngalisabu,"6X3C+7V3, Bajawa, Kabupaten Ngada, Nusa Tenggara Tim.","Kabupaten Ngada, Nusa Tenggara Tim.",NUSA TENGGARA TIMUR,,Indonesia,,,,-87.968.543,120.972.167,https://maps.google.com/?cid=0x0:0xcab11bea0728d6a4,
perumahan,perumahan,Kabupaten Ngada,Nusa Tenggara Tim.,"Kabupaten Ngada, Nusa Tenggara Tim.",NUSA TENGGARA TIMUR,,Indonesia,,,,-87.430.424,1.209.876.321,https://maps.google.com/?cid=0x0:0x87832b44afe1554,
perumahan,Kantor Pemerintah,RSUD BAJAWA,"Jl. Diponegoro No.5, Trikora, Bajawa, Kabupaten Ngada, Nusa Tenggara Tim.","Kabupaten Ngada, Nusa Tenggara Tim.",NUSA TENGGARA TIMUR,,Indonesia,38421030,,,-87.830.442,1.209.727.449,https://maps.google.com/?cid=0x0:0xba6d39f49cb3935e,
perumahan,Restoran,Bajawa Family Resto,"Jl. WJ Lalamentik, Faobata, Bajawa, Kabupaten Ngada, Nusa Tenggara Tim. 86419","Faobata, Bajawa, Kabupaten Ngada",NUSA TENGGARA TIMUR,86419.0,Indonesia,82266397945,,,-87.777.766,1.209.887.957,https://maps.google.com/?cid=0x0:0x1bebbd2301fe2c95,
perumahan,Komplek perumahan,"WAEMATA, Desa Genamere Kecamatan Bajawa Utara Kabupaten Ngada","8X6C+GC, Genamere, Kec. Bajawa Utara, Kabupaten Ngada, Nusa Tenggara Tim.","Kabupaten Ngada, Nusa Tenggara Tim.",NUSA TENGGARA TIMUR,,Indonesia,,,,-86.886.881,1.209.710.735,https://maps.google.com/?cid=0x0:0xf1ccc14da304a23a,
perumahan,Perhimpunan Pengembang Perumahan,INEGENA,"8X6V+X8H, Inegena, Kec. Bajawa Utara, Kabupaten Ngada, Nusa Tenggara Tim.","Kabupaten Ngada, Nusa Tenggara Tim.",NUSA TENGGARA TIMUR,,Indonesia,,,,-86.875.627,120.993.364,https://maps.google.com/?cid=0x0:0xf47d670fc46b8316,
perumahan,Komplek perumahan,Orianto Minggu/Om Bajawa,"8263+F6J, Inegena, Kec. Bajawa Utara, Kabupaten Ngada, Nusa Tenggara Tim.","Kabupaten Ngada, Nusa Tenggara Tim.",NUSA TENGGARA TIMUR,,Indonesia,,,,-86.887.909,1.210.030.274,https://maps.google.com/?cid=0x0:0x7f98de460e91880d,
perumahan,Komplek perumahan,Kampung Hoboredu,"8X6W+W8, Inegena, Kec. Bajawa Utara, Kabupaten Ngada, Nusa Tenggara Tim.","Kabupaten Ngada, Nusa Tenggara Tim.",NUSA TENGGARA TIMUR,,Indonesia,,,,-86.877.327,1.209.958.025,https://maps.google.com/?cid=0x0:0x9ac1023750e7df3,
perumahan,Komplek perumahan,Desa wololika,"72H8+FJ, Wololika, Kec. Bajawa Utara, Kabupaten Ngada, Nusa Tenggara Tim.","Kabupaten Ngada, Nusa Tenggara Tim.",NUSA TENGGARA TIMUR,,Indonesia,,,,-8.721.284,1.210.165.193,https://maps.google.com/?cid=0x0:0x1087e1873e7704e7,
perumahan,Komplek perumahan,Lembah Indah Nurjaya,"6XCQ+MWW, Unnamed Road, Faobata, Bajawa, Kabupaten Ngada, Nusa Tenggara Tim.","Kabupaten Ngada, Nusa Tenggara Tim.",NUSA TENGGARA TIMUR,,Indonesia,,,,-87.782.566,1.209.898.188,https://maps.google.com/?cid=0x0:0x4c8e5d1ae89e2558,
perumahan,Komplek perumahan,Were,"7X4Q+Q2W, Inelika, Kec. Bajawa Utara, Kabupaten Ngada, Nusa Tenggara Tim.","Kabupaten Ngada, Nusa Tenggara Tim.",NUSA TENGGARA TIMUR,,Indonesia,,,,-87.430.249,1.209.875.913,https://maps.google.com/?cid=0x0:0xa3c03c9acf5a6216,
perumahan,Pembangunan Perumahan,Desa Wololika kecamatan Bajawa utara,"72G7+432, Jalan bajawa mengeruda, Wololika, Kec. Bajawa Utara, Kabupaten Ngada, Nusa Tenggara Tim.","Kabupaten Ngada, Nusa Tenggara Tim.",NUSA TENGGARA TIMUR,,Indonesia,,,,-87.247.457,1.210.126.351,https://maps.google.com/?cid=0x0:0xc9e39f5a23193b4b,
perumahan,Pembangunan Perumahan,Ranisiga,"6XPP+4FV, Naru, Bajawa, Kabupaten Ngada, Nusa Tenggara Tim.","Kabupaten Ngada, Nusa Tenggara Tim.",NUSA TENGGARA TIMUR,,Indonesia,,,,-87.646.229,1.209.863.526,https://maps.google.com/?cid=0x0:0x74e6ee175cc948a7,
perumahan,perumahan,HeriBalawanga,"6XCM+F63, Lebijaga, Bajawa, Kabupaten Ngada, Nusa Tenggara Tim.","Kabupaten Ngada, Nusa Tenggara Tim.",NUSA TENGGARA TIMUR,,Indonesia,,,,-87.788.997,1.209.832.169,https://maps.google.com/?cid=0x0:0xb48be971fecf57d8,
perumahan,Komplek perumahan,Gebi Ratu Home,"7X4Q+Q2P, Inelika, Kec. Bajawa Utara, Kabupaten Ngada, Nusa Tenggara Tim.","Kabupaten Ngada, Nusa Tenggara Tim.",NUSA TENGGARA TIMUR,,Indonesia,,,,-8.743.025,1.209.875.912,https://maps.google.com/?cid=0x0:0xa6eaa98474816b18,
perumahan,Pembangunan Perumahan,Waruwogo,"6XQ4+CQP, Susu, Bajawa, Kabupaten Ngada, Nusa Tenggara Tim.","Kabupaten Ngada, Nusa Tenggara Tim.",NUSA TENGGARA TIMUR,,Indonesia,,,,-8.760.945,1.209.573.133,https://maps.google.com/?cid=0x0:0x65297c733e223c98,
perumahan,Pembangunan Perumahan,Sagalaka,"6XQ5+2Q, Susu, Bajawa, Kabupaten Ngada, Nusa Tenggara Tim.","Kabupaten Ngada, Nusa Tenggara Tim.",NUSA TENGGARA TIMUR,,Indonesia,,,,-8.762.387,120.959.487,https://maps.google.com/?cid=0x0:0x83967678583f0cef,
perumahan,Komplek perumahan,Longkerz family,"7X6R+HXV, JL. Soekarno - Hatta, Bajawa, Inelika, Kec. Bajawa Utara, Kabupaten Ngada, Nusa Tenggara Tim.","Kabupaten Ngada, Nusa Tenggara Tim.",NUSA TENGGARA TIMUR,,Indonesia,82252635257,,,-87.385.125,1.209.924.219,https://maps.google.com/?cid=0x0:0x79505909b347e0bb,
perumahan,Pembangunan Perumahan,Alda Meo liko Home's,"8245+RC9, Nabelena, Kec. Bajawa Utara, Kabupaten Ngada, Nusa Tenggara Tim.","Kabupaten Ngada, Nusa Tenggara Tim.",NUSA TENGGARA TIMUR,,Indonesia,,,,-8.692.955,1.210.086.107,https://maps.google.com/?cid=0x0:0x43a5d0d3aa30cf6a,
perumahan,perumahan,Restin,"62P8+4GM, Faobata, Bajawa, Kabupaten Ngada, Nusa Tenggara Tim.","Kabupaten Ngada, Nusa Tenggara Tim.",NUSA TENGGARA TIMUR,,Indonesia,,,,-87.646.664,1.210.163.079,https://maps.google.com/?cid=0x0:0x227b729e28be443d,
perumahan,Komplek perumahan,Rumah Ocin,"6XPP+4FV, Naru, Bajawa, Kabupaten Ngada, Nusa Tenggara Tim.","Kabupaten Ngada, Nusa Tenggara Tim.",NUSA TENGGARA TIMUR,,Indonesia,,,,-87.646.428,1.209.862.239,https://maps.google.com/?cid=0x0:0x4963bc8776cdda90,
perumahan,Komplek perumahan,Lorong KaMiLa,"8263+844, Inegena, Kec. Bajawa Utara, Kabupaten Ngada, Nusa Tenggara Tim.","Kabupaten Ngada, Nusa Tenggara Tim.",NUSA TENGGARA TIMUR,,Indonesia,,,,-86.892.498,1.210.028.182,https://maps.google.com/?cid=0x0:0x3aef79c9c2cb970f,
perumahan,Komplek perumahan,NEYFREDELLA,"72X5+259, Nabelena, Kec. Bajawa Utara, Kabupaten Ngada, Nusa Tenggara Tim.","Kabupaten Ngada, Nusa Tenggara Tim.",NUSA TENGGARA TIMUR,,Indonesia,,,,-8.702.471,1.210.079.806,https://maps.google.com/?cid=0x0:0x88522523dec2b074,
perumahan,Komplek perumahan,Agung Home,"8255+4G8, Nabelena, Kec. Bajawa Utara, Kabupaten Ngada, Nusa Tenggara Tim.","Kabupaten Ngada, Nusa Tenggara Tim.",NUSA TENGGARA TIMUR,,Indonesia,82145684197,,,-86.925.642,1.210.091.029,https://maps.google.com/?cid=0x0:0x6d2f4a4ee0b9a5d2,
perumahan,Pembangunan Perumahan,Frid suka hime,"8255+7P3, Nabelena, Kec. Bajawa Utara, Kabupaten Ngada, Nusa Tenggara Tim.","Kabupaten Ngada, Nusa Tenggara Tim.",NUSA TENGGARA TIMUR,,Indonesia,,,,-8.691.741,1.210.100.574,https://maps.google.com/?cid=0x0:0x1ddeed1664cdd03a,
perumahan,perumahan,Nusa Tenggara Tim.,,Nusa Tenggara Tim.,NUSA TENGGARA TIMUR,,Indonesia,,,,-86.573.819,1.210.793.705,https://maps.google.com/?cid=0x0:0x1030bfbcaf71ae0,
perumahan,perumahan,Wolomeze,"Kec. Riung Bar., Kabupaten Ngada, Nusa Tenggara Tim.","Kabupaten Ngada, Nusa Tenggara Tim.",NUSA TENGGARA TIMUR,,Indonesia,,,,-85.623.031,1.209.532.123,https://maps.google.com/?cid=0x0:0x99440c213d9da922,
perumahan,Komplek perumahan,Oma rina,"6X7M+5FJ, Faobata, Bajawa, Kabupaten Ngada, Nusa Tenggara Tim. 86419","Faobata, Bajawa, Kabupaten Ngada",NUSA TENGGARA TIMUR,86419.0,Indonesia,,,,-87.871.621,1.209.837.091,https://maps.google.com/?cid=0x0:0x420db2d42f9c8a7d,
perumahan,Restoran,Bajawa Family Resto,"Jl. WJ Lalamentik, Faobata, Bajawa, Kabupaten Ngada, Nusa Tenggara Tim. 86419","Faobata, Bajawa, Kabupaten Ngada",NUSA TENGGARA TIMUR,86419.0,Indonesia,82266397945,,,-87.777.766,1.209.887.957,https://maps.google.com/?cid=0x0:0x1bebbd2301fe2c95,
perumahan,Perhimpunan Pengembang Perumahan,bezy_sintuz,"FW7W+P7W, Wolomeze, Kec. Riung Bar., Kabupaten Ngada, Nusa Tenggara Tim.","Kabupaten Ngada, Nusa Tenggara Tim.",NUSA TENGGARA TIMUR,,Indonesia,,,,-85.351.642,1.209.464.192,https://maps.google.com/?cid=0x0:0xd2168d3507a8e44b,
perumahan,Pembangunan Perumahan,Watusila,"CX8F+5V, Wolomeze, Kec. Wolomeze, Kabupaten Ngada, Nusa Tenggara Tim.","Kabupaten Ngada, Nusa Tenggara Tim.",NUSA TENGGARA TIMUR,,Indonesia,,,,-8.584.603,1.209.746.639,https://maps.google.com/?cid=0x0:0x499fc83cb37a3a43,
perumahan,perumahan,Molanggua,"FWCW+CJF, Wolomeze, Kec. Riung Bar., Kabupaten Ngada, Nusa Tenggara Tim.","Kabupaten Ngada, Nusa Tenggara Tim.",NUSA TENGGARA TIMUR,,Indonesia,,,,-85.289.339,1.209.465.349,https://maps.google.com/?cid=0x0:0x2afb24ef6d9772cb,
perumahan,Komplek perumahan,Gian Kawak,"CWWR+GMQ, Wolomeze, Kec. Riung Bar., Kabupaten Ngada, Nusa Tenggara Tim.","Kabupaten Ngada, Nusa Tenggara Tim.",NUSA TENGGARA TIMUR,,Indonesia,,,,-85.536.532,1.209.417.368,https://maps.google.com/?cid=0x0:0x7dbfe5d68eb2ca1e,
perumahan,Komplek perumahan,Masobek Family,"FWFW+4R5, Wolomeze, Kec. Riung Bar., Kabupaten Ngada, Nusa Tenggara Tim.","Kabupaten Ngada, Nusa Tenggara Tim.",NUSA TENGGARA TIMUR,,Indonesia,,,,-85.272.411,1.209.471.244,https://maps.google.com/?cid=0x0:0x3c4ea8d80e679e54,
perumahan,Perhimpunan Pengembang Perumahan,Poly,"FW8W+8QJ, Wolomeze, Kec. Riung Bar., Kabupaten Ngada, Nusa Tenggara Tim.","Kabupaten Ngada, Nusa Tenggara Tim.",NUSA TENGGARA TIMUR,,Indonesia,,,,-85.344.795,1.209.468.763,https://maps.google.com/?cid=0x0:0x8b7972418e1cf78b,
perumahan,Komplek perumahan,Pokan,"FWC7+2J2, Wolomeze, Kec. Riung Bar., Kabupaten Ngada, Nusa Tenggara Tim.","Kabupaten Ngada, Nusa Tenggara Tim.",NUSA TENGGARA TIMUR,,Indonesia,,,,-85.326.759,1.209.148.632,https://maps.google.com/?cid=0x0:0xdb126eff05f84fbe,
perumahan,Komplek perumahan,santoz,"FWHQ+M7V, Wolomeze, Kec. Riung Bar., Kabupaten Ngada, Nusa Tenggara Tim.","Kabupaten Ngada, Nusa Tenggara Tim.",NUSA TENGGARA TIMUR,,Indonesia,,,,-85.207.718,1.209.381.803,https://maps.google.com/?cid=0x0:0x399e347465a10e47,
perumahan,Komplek perumahan,Sevrind,"FWC7+2J2, Wolomeze, Kec. Riung Bar., Kabupaten Ngada, Nusa Tenggara Tim.","Kabupaten Ngada, Nusa Tenggara Tim.",NUSA TENGGARA TIMUR,,Indonesia,,,,-85.314.948,1.209.149.091,https://maps.google.com/?cid=0x0:0x85457de5bf81857d,
perumahan,Komplek perumahan,Rumah siska meo,"FXJ3+GVX, maronggela, Wolomeze, Kec. Riung Bar., Kabupaten Ngada, Nusa Tenggara Tim.","Kabupaten Ngada, Nusa Tenggara Tim.",NUSA TENGGARA TIMUR,,Indonesia,,,,-85.186.457,1.209.547.218,https://maps.google.com/?cid=0x0:0x4cf71ce24fea4713,
perumahan,Perhimpunan Pengembang Perumahan,Roy Lita.,"FW8W+VQC, Wolomeze, Kec. Riung Bar., Kabupaten Ngada, Nusa Tenggara Tim.","Kabupaten Ngada, Nusa Tenggara Tim.",NUSA TENGGARA TIMUR,,Indonesia,,,,-8.532.483,120.946.514,https://maps.google.com/?cid=0x0:0x7581a3c7f44960c,
perumahan,Pembangunan Perumahan,Santy,"FXG2+FQC, Wolomeze, Kec. Riung Bar., Kabupaten Ngada, Nusa Tenggara Tim.","Kabupaten Ngada, Nusa Tenggara Tim.",NUSA TENGGARA TIMUR,,Indonesia,,,,-85.238.096,1.209.518.864,https://maps.google.com/?cid=0x0:0xa77445ec81feeb53,
perumahan,Komplek perumahan,TARSON REMA,"CXGC+H3, Wolomeze, Kec. Riung Bar., Kabupaten Ngada, Nusa Tenggara Tim.","Kabupaten Ngada, Nusa Tenggara Tim.",NUSA TENGGARA TIMUR,,Indonesia,,,,-8.573.578,1.209.702.069,https://maps.google.com/?cid=0x0:0x15affa92a799a1f3,
perumahan,Perhimpunan Pengembang Perumahan,Putra penawan,"FW9P+CQ4, Wolomeze, Kec. Riung Bar., Kabupaten Ngada, Nusa Tenggara Tim.","Kabupaten Ngada, Nusa Tenggara Tim.",NUSA TENGGARA TIMUR,,Indonesia,,,,-85.304.453,1.209.370.621,https://maps.google.com/?cid=0x0:0x11a0c54c3c9a7dfa,
perumahan,Komplek perumahan,Maya Kolong,"FWFW+7G3, Maronggela, Wolomeze, Kec. Riung Bar., Kabupaten Ngada, Nusa Tenggara Tim.","Kabupaten Ngada, Nusa Tenggara Tim.",NUSA TENGGARA TIMUR,,Indonesia,,,,-85.268.719,1.209.463.007,https://maps.google.com/?cid=0x0:0xc1c6f5a112e5a2cd,
perumahan,perumahan,LoverFAMILY,"FWFX+2JJ, Wolomeze, Kec. Wolomeze, Kabupaten Ngada, Nusa Tenggara Tim.","Kabupaten Ngada, Nusa Tenggara Tim.",NUSA TENGGARA TIMUR,,Indonesia,,,,-85.281.884,120.948.888,https://maps.google.com/?cid=0x0:0x55f3e390d56c23aa,
perumahan,Pembangunan Perumahan,banggamas,"FWCG+Q6, 1, Wolomeze, Kec. Wolomeze, Kabupaten Ngada, Nusa Tenggara Tim.","Kabupaten Ngada, Nusa Tenggara Tim.",NUSA TENGGARA TIMUR,,Indonesia,,,,-85.280.789,1.209.255.507,https://maps.google.com/?cid=0x0:0x83aa1839f18e3dbb,
perumahan,Perumahan,Gian Ngoton,"CXVJ+33F, Wolomeze, Kec. Riung Bar., Kabupaten Ngada, Nusa Tenggara Tim.","Kabupaten Ngada, Nusa Tenggara Tim.",NUSA TENGGARA TIMUR,,Indonesia,,,,-85.573.083,1.209.801.752,https://maps.google.com/?cid=0x0:0x31649f5fe1f4b0ec,
perumahan,perumahan,Erry Wean,"FW7W+P7W, Wolomeze, Kec. Riung Bar., Kabupaten Ngada, Nusa Tenggara Tim.","Kabupaten Ngada, Nusa Tenggara Tim.",NUSA TENGGARA TIMUR,,Indonesia,,,,-8.535.634,120.945.935,https://maps.google.com/?cid=0x0:0xfc67350b524d0f3e,
perumahan,Komplek perumahan,Rumah Nitu Dewa KADUS NGGIRINGLING,"FXH4+765, Ria, Kec. Riung Bar., Kabupaten Ngada, Nusa Tenggara Tim.","Kabupaten Ngada, Nusa Tenggara Tim.",NUSA TENGGARA TIMUR,,Indonesia,,,,-85.218.732,1.209.555.975,https://maps.google.com/?cid=0x0:0xa45ee8a01151ddde,
perumahan,perumahan,Kec. Wolomeze,"Kabupaten Ngada, Nusa Tenggara Tim.","Kabupaten Ngada, Nusa Tenggara Tim.",NUSA TENGGARA TIMUR,,Indonesia,,,,-86.643.282,121.044.547,https://maps.google.com/?cid=0x0:0xc9c65a778e87e894,
perumahan,Perhimpunan Pengembang Perumahan,"Waso, konggang","83VH+2PX, Nginamanu, Kec. Wolomeze, Kabupaten Ngada, Nusa Tenggara Tim.","Kabupaten Ngada, Nusa Tenggara Tim.",NUSA TENGGARA TIMUR,,Indonesia,,,,-86.573.819,1.210.793.705,https://maps.google.com/?cid=0x0:0xb664b707cfca3be,
perumahan,Pembangunan Perumahan,Naputiwu,"8XJG+JJJ, Selatan, Nginamanu, Kec. Wolomeze, Kabupaten Ngada, Nusa Tenggara Tim.","Kabupaten Ngada, Nusa Tenggara Tim.",NUSA TENGGARA TIMUR,,Indonesia,,,,-86.684,1.209.765.133,https://maps.google.com/?cid=0x0:0x8592b00536d123c3,
perumahan,Perhimpunan Pengembang Perumahan,Rumah irenius,"C3X9+45M, Wangka Sel., Kec. Riung, Kabupaten Ngada, Nusa Tenggara Tim.","Kabupaten Ngada, Nusa Tenggara Tim.",NUSA TENGGARA TIMUR,,Indonesia,,,,-85.521.586,121.067.907,https://maps.google.com/?cid=0x0:0xca0cefffbb338fa8,
perumahan,Komplek perumahan,Tiwu toro,"8XJC+W7, Nginamanu selatan, Kec. Wolomeze, Kabupaten Ngada, Nusa Tenggara Tim.","Kabupaten Ngada, Nusa Tenggara Tim.",NUSA TENGGARA TIMUR,,Indonesia,,,,-86.676.875,1.209.706.875,https://maps.google.com/?cid=0x0:0x6d3dede3708d9f60,
perumahan,perumahan,Kec. Golewa Selatan,"Kabupaten Ngada, Nusa Tenggara Tim.","Kabupaten Ngada, Nusa Tenggara Tim.",NUSA TENGGARA TIMUR,,Indonesia,,,,-88.533.694,1.211.030.931,https://maps.google.com/?cid=0x0:0x841f99d069ae89c3,
perumahan,Komplek perumahan,Ngorabolo Golewa Selatan,"5458+3CX, Unnamed Road, Takatunga, Kec. Golewa, Kabupaten Ngada, Nusa Tenggara Tim.","Kabupaten Ngada, Nusa Tenggara Tim.",NUSA TENGGARA TIMUR,,Indonesia,,,,-88.422.601,121.116.113,https://maps.google.com/?cid=0x0:0x445cf670a3884066,
perumahan,Pembangunan Perumahan,Rumah saya,"34Q9+R8M, Were III, Kec. Golewa Selatan, Kabupaten Ngada, Nusa Tenggara Tim.","Kabupaten Ngada, Nusa Tenggara Tim.",NUSA TENGGARA TIMUR,,Indonesia,,,,-89.104.212,1.211.182.873,https://maps.google.com/?cid=0x0:0xc8f5bd0d1fdbd43f,
perumahan,Perhimpunan Pengembang Perumahan,Kampung sawuwawo,"43VX+CQM, Sadha, Kec. Golewa, Kabupaten Ngada, Nusa Tenggara Tim.","Kabupaten Ngada, Nusa Tenggara Tim.",NUSA TENGGARA TIMUR,,Indonesia,,,,-88.564.107,121.099.429,https://maps.google.com/?cid=0x0:0x9981d12d568345a1,
perumahan,Komplek perumahan,Ekomawo,"446C+VHR, Kezewea, Kec. Golewa Selatan, Kabupaten Ngada, Nusa Tenggara Tim.","Kabupaten Ngada, Nusa Tenggara Tim.",NUSA TENGGARA TIMUR,,Indonesia,,,,-88.877.618,1.211.213.822,https://maps.google.com/?cid=0x0:0x7757b16e4d9c0aa1,
perumahan,Komplek perumahan,Rumah Yoris,"5458+673, Takatunga, Kec. Golewa Selatan, Kabupaten Ngada, Nusa Tenggara Tim.","Kabupaten Ngada, Nusa Tenggara Tim.",NUSA TENGGARA TIMUR,,Indonesia,,,,-88.419.883,1.211.156.779,https://maps.google.com/?cid=0x0:0x7c59398d0f125b07,
perumahan,Pembangunan Perumahan,Sao Tenga Wea,"445G+JMF, Kezewea 1, Kec. Golewa Selatan, Kabupaten Ngada, Nusa Tenggara Tim.","Kabupaten Ngada, Nusa Tenggara Tim.",NUSA TENGGARA TIMUR,,Indonesia,,,,-88.911.689,1.211.273.605,https://maps.google.com/?cid=0x0:0x71bb61389b04783e,
perumahan,perumahan,Rumah NusLonga,"5457+4V, Takatunga, Kec. Golewa Selatan, Kabupaten Ngada, Nusa Tenggara Tim.","Kabupaten Ngada, Nusa Tenggara Tim.",NUSA TENGGARA TIMUR,,Indonesia,,,,-88.417.061,1.211.140.534,https://maps.google.com/?cid=0x0:0x501ba4dd7f226206,
perumahan,Pembangunan Perumahan,Boba satu,"338C+854, Unnamed Road, Boba, Kec. Golewa, Kabupaten Ngada, Nusa Tenggara Tim.","Kabupaten Ngada, Nusa Tenggara Tim.",NUSA TENGGARA TIMUR,,Indonesia,,,,-89.342.397,1.210.704.408,https://maps.google.com/?cid=0x0:0x415501c36f49eddb,
perumahan,Vila,Kos Andin,"53MR+77R, Malanuza, Kec. Golewa, Kabupaten Ngada, Nusa Tenggara Tim.","Kabupaten Ngada, Nusa Tenggara Tim.",NUSA TENGGARA TIMUR,,Indonesia,,,,-88.167.703,1.210.906.407,https://maps.google.com/?cid=0x0:0x53bd38a9e143b64d,
perumahan,Komplek perumahan,Boraba kampung gaul,"445G+WF3, Kezewea, Kec. Golewa Selatan, Kabupaten Ngada, Nusa Tenggara Tim.","Kabupaten Ngada, Nusa Tenggara Tim.",NUSA TENGGARA TIMUR,,Indonesia,,,,-88.902.266,1.211.261.698,https://maps.google.com/?cid=0x0:0x75b88204f0352eaa,
perumahan,perumahan,Watulaja,"33CJ+6F, Boba, Kec. Golewa Selatan, Kabupaten Ngada, Nusa Tenggara Tim.","Kabupaten Ngada, Nusa Tenggara Tim.",NUSA TENGGARA TIMUR,,Indonesia,,,,-89.294.848,1.210.811.184,https://maps.google.com/?cid=0x0:0x7f1c58606d5d2d6a,
perumahan,Pembangunan Perumahan,Malanuza,"Malanuza, Kec. Golewa, Kabupaten Ngada, Nusa Tenggara Tim.","Kabupaten Ngada, Nusa Tenggara Tim.",NUSA TENGGARA TIMUR,,Indonesia,,,,-88.165.366,1.210.851.019,https://maps.google.com/?cid=0x0:0x22f0115d606217fd,
perumahan,Komplek perumahan,Dusun ngalubua,"34P6+JMW, Were III, Kec. Golewa Selatan, Kabupaten Ngada, Nusa Tenggara Tim.","Kabupaten Ngada, Nusa Tenggara Tim.",NUSA TENGGARA TIMUR,,Indonesia,,,,-89.133.817,1.211.117.128,https://maps.google.com/?cid=0x0:0x9cd3f5f68ad02647,
perumahan,perumahan,Kampung Soka,"33CG+FR, Boba, Kec. Golewa Selatan, Kabupaten Ngada, Nusa Tenggara Tim.","Kabupaten Ngada, Nusa Tenggara Tim.",NUSA TENGGARA TIMUR,,Indonesia,,,,-89.288.004,1.210.770.211,https://maps.google.com/?cid=0x0:0x6d9e726803561e56,
perumahan,perumahan,Enabhara Timur,"34P6+6QP, Were III, Kec. Golewa Selatan, Kabupaten Ngada, Nusa Tenggara Tim.","Kabupaten Ngada, Nusa Tenggara Tim.",NUSA TENGGARA TIMUR,,Indonesia,,,,-89.144.059,1.211.119.454,https://maps.google.com/?cid=0x0:0xce60d3b11b991823,
perumahan,Komplek perumahan,Rumah Yanti,"4495+QV9, Kezewea, Kec. Golewa, Kabupaten Ngada, Nusa Tenggara Tim.","Kabupaten Ngada, Nusa Tenggara Tim.",NUSA TENGGARA TIMUR,,Indonesia,,,,-88.795.924,1.211.096.462,https://maps.google.com/?cid=0x0:0x3372d93c8beff472,
perumahan,perumahan,Rumah Kepala Desa Waeia,"52CX+PPC, Mataloko, Kec. Golewa, Kabupaten Ngada, Nusa Tenggara Tim.","Kabupaten Ngada, Nusa Tenggara Tim.",NUSA TENGGARA TIMUR,,Indonesia,,,,-88.288.306,1.210.485.274,https://maps.google.com/?cid=0x0:0xce86926a8fc232e,
perumahan,Komplek perumahan,Rumah John Beli,"44W4+58C, Sadha, Kec. Golewa, Kabupaten Ngada, Nusa Tenggara Tim.","Kabupaten Ngada, Nusa Tenggara Tim.",NUSA TENGGARA TIMUR,,Indonesia,,,,-88.545.625,1.211.057.656,https://maps.google.com/?cid=0x0:0xf60f0a48a639f366,
perumahan,Komplek perumahan,Rumah bruno,"5447+XVW, Takatunga, Kec. Golewa, Kabupaten Ngada, Nusa Tenggara Tim.","Kabupaten Ngada, Nusa Tenggara Tim.",NUSA TENGGARA TIMUR,,Indonesia,,,,-88.425.095,1.211.147.152,https://maps.google.com/?cid=0x0:0xae490db73378f622,
perumahan,Pembangunan Perumahan,Dusun Hedhapoma,"542J+C22, Takatunga, Kec. Golewa, Kabupaten Ngada, Nusa Tenggara Tim.","Kabupaten Ngada, Nusa Tenggara Tim.",NUSA TENGGARA TIMUR,,Indonesia,,,,-88.489.778,1.211.300.208,https://maps.google.com/?cid=0x0:0xbdc71dcc06ce5ce7,
perumahan,Komplek perumahan,Kantor desa kezewea 1,"1, Ekomawo, Kezewea","Kabupaten Ngada, Nusa Tenggara Tim.",NUSA TENGGARA TIMUR,,Indonesia,,,,-88.877.618,1.211.213.822,https://maps.google.com/?cid=0x0:0xe959128b0ac01f2a,
perumahan,Komplek perumahan,SiRob Family,"43QX+5F2, Puuboa - Desa, Radamasa, Kec. Golewa Selatan, Kabupaten Ngada, Nusa Tenggara Tim.","Kabupaten Ngada, Nusa Tenggara Tim.",NUSA TENGGARA TIMUR,,Indonesia,,,,-88.621.135,121.098.631,https://maps.google.com/?cid=0x0:0x12c5ba18b2f33461,
perumahan,Komplek perumahan,Rumah juand,"5458+67X, Takatunga, Kec. Golewa Selatan, Kabupaten Ngada, Nusa Tenggara Tim.","Kabupaten Ngada, Nusa Tenggara Tim.",NUSA TENGGARA TIMUR,,Indonesia,,,,-88.418.872,1.211.157.258,https://maps.google.com/?cid=0x0:0xc9aa5a4330690132,
perumahan,Komplek perumahan,Bowae - Rumah Bpk Huber Ruba,"545G+R6, Takatunga, Kec. Golewa Selatan, Kabupaten Ngada, Nusa Tenggara Tim.","Kabupaten Ngada, Nusa Tenggara Tim.",NUSA TENGGARA TIMUR,,Indonesia,,,,-88.405.097,121.125.518,https://maps.google.com/?cid=0x0:0x49a17866836c298e,
perumahan,perumahan,Naidewa,"42Q8+9G3, Rakateda I, Golewa Bar., Kabupaten Ngada, Nusa Tenggara Tim.","Kabupaten Ngada, Nusa Tenggara Tim.",NUSA TENGGARA TIMUR,,Indonesia,,,,-88.616.037,1.210.163.079,https://maps.google.com/?cid=0x0:0x81ac0ce11c3ff0b3,
perumahan,perumahan,Golewa Bar.,"Kabupaten Ngada, Nusa Tenggara Tim.","Kabupaten Ngada, Nusa Tenggara Tim.",NUSA TENGGARA TIMUR,,Indonesia,,,,-88.077.491,1.210.220.422,https://maps.google.com/?cid=0x0:0x103098ccabb3bc1,
perumahan,perumahan,Rumah Kepala Desa Waeia,"52CX+PPC, Mataloko, Kec. Golewa, Kabupaten Ngada, Nusa Tenggara Tim.","Kabupaten Ngada, Nusa Tenggara Tim.",NUSA TENGGARA TIMUR,,Indonesia,,,,-88.288.306,1.210.485.274,https://maps.google.com/?cid=0x0:0xce86926a8fc232e,
perumahan,perumahan,Waeia,"53C2+R6R, Mataloko, Kec. Golewa, Kabupaten Ngada, Nusa Tenggara Tim.","Kabupaten Ngada, Nusa Tenggara Tim.",NUSA TENGGARA TIMUR,,Indonesia,,,,-88.278.926,1.210.505.125,https://maps.google.com/?cid=0x0:0x1c39ad5ad257a2b0,
perumahan,Perhimpunan Pengembang Perumahan,PERUMNAS REGIONAL NTT,"52P2+P6F, Jl. Trans Flores, Mangulewa, Kec. Golewa, Kabupaten Ngada, Nusa Tenggara Tim.","Kabupaten Ngada, Nusa Tenggara Tim.",NUSA TENGGARA TIMUR,,Indonesia,,,,-88.131.941,1.210.005.569,https://maps.google.com/?cid=0x0:0xd8643f9eee6033e0,
perumahan,Komplek perumahan,Lorong Brakomada,"52P4+634, Jl. Trans Flores, Mangulewa, Kec. Golewa, Kabupaten Ngada, Nusa Tenggara Tim.","Kabupaten Ngada, Nusa Tenggara Tim.",NUSA TENGGARA TIMUR,,Indonesia,,,,-88.144.796,1.210.051.718,https://maps.google.com/?cid=0x0:0xb64b34fca1fcd0e7,
perumahan,Komplek perumahan,B'Gradya,"Jl. Trans Flores No.1, Mangulewa, Kec. Golewa, Kabupaten Ngada, Nusa Tenggara Tim. 86461","Mangulewa, Kec. Golewa, Kabupaten Ngada",NUSA TENGGARA TIMUR,86461.0,Indonesia,,,,-88.159.208,1.210.087.613,https://maps.google.com/?cid=0x0:0x188fba12cacee39e,
perumahan,Komplek perumahan,Kebun,"62GJ+R45, Mangulewa, Golewa Bar., Kabupaten Ngada, Nusa Tenggara Tim.","Kabupaten Ngada, Nusa Tenggara Tim.",NUSA TENGGARA TIMUR,,Indonesia,,,,-87.729.788,1.210.303.447,https://maps.google.com/?cid=0x0:0x9e92742c820f126a,
perumahan,Komplek perumahan,Kantor Desa Rakalaba,"52H9+CH, Rakalaba, Golewa Bar., Kabupaten Ngada, Nusa Tenggara Tim.","Kabupaten Ngada, Nusa Tenggara Tim.",NUSA TENGGARA TIMUR,,Indonesia,,,,-88.214.416,12.101.892,https://maps.google.com/?cid=0x0:0x6c67b4cb28b1704d,
perumahan,perumahan,Rumah Sebastianus Fongo,"52CX+PPC, Mataloko, Kec. Golewa, Kabupaten Ngada, Nusa Tenggara Tim.","Kabupaten Ngada, Nusa Tenggara Tim.",NUSA TENGGARA TIMUR,,Indonesia,,,,-88.287.869,1.210.485.414,https://maps.google.com/?cid=0x0:0xe386df49c961144a,
perumahan,Komplek perumahan,Pemeran siana GEme,"62CJ+JJ3, Mangulewa, Golewa Bar., Kabupaten Ngada, Nusa Tenggara Tim.","Kabupaten Ngada, Nusa Tenggara Tim.",NUSA TENGGARA TIMUR,,Indonesia,,,,-87.783.143,1.210.317.344,https://maps.google.com/?cid=0x0:0xc4f4129aba5269ea,
perumahan,Perhimpunan Pengembang Perumahan,Dado,"52MH+QM8, Rakalaba, Golewa Bar., Kabupaten Ngada, Nusa Tenggara Tim.","Kabupaten Ngada, Nusa Tenggara Tim.",NUSA TENGGARA TIMUR,,Indonesia,,,,-88.155.777,1.210.292.097,https://maps.google.com/?cid=0x0:0x60cd28dca821345c,
perumahan,Kantor Pemerintah,Kampung Bopoma,"52H8+X6W, Mangulewa, Golewa Bar., Kabupaten Ngada, Nusa Tenggara Tim.","Kabupaten Ngada, Nusa Tenggara Tim.",NUSA TENGGARA TIMUR,,Indonesia,,,,-88.200.249,1.210.155.826,https://maps.google.com/?cid=0x0:0x900d272e31469900,
perumahan,Komplek perumahan,Paraliti,"52HJ+FF5, Sobo, Kec. Golewa, Kabupaten Ngada, Nusa Tenggara Tim.","Kabupaten Ngada, Nusa Tenggara Tim.",NUSA TENGGARA TIMUR,,Indonesia,,,,-88.213.606,1.210.312.354,https://maps.google.com/?cid=0x0:0x24ded9e86a167542,
perumahan,Perhimpunan Pengembang Perumahan,Tuku Waruwaja,"52HH+MV6, Sobo, Kec. Golewa, Kabupaten Ngada, Nusa Tenggara Tim.","Kabupaten Ngada, Nusa Tenggara Tim.",NUSA TENGGARA TIMUR,,Indonesia,,,,-88.208.431,1.210.296.541,https://maps.google.com/?cid=0x0:0xb3a1a6445d17e0ac,
perumahan,Pembangunan Perumahan,Rategisi,"52M9+2JC, Unnamed Road, Mangulewa, Kec. Golewa, Kabupaten Ngada, Nusa Tenggara Tim.","Kabupaten Ngada, Nusa Tenggara Tim.",NUSA TENGGARA TIMUR,,Indonesia,,,,-88.174.325,1.210.190.129,https://maps.google.com/?cid=0x0:0x8d51a021752c6d4,
perumahan,Pembangunan Perumahan,Pomamana,"5355+PGV, Ratogesa, Kec. Golewa, Kabupaten Ngada, Nusa Tenggara Tim.","Kabupaten Ngada, Nusa Tenggara Tim.",NUSA TENGGARA TIMUR,,Indonesia,,,,-88.406.257,1.210.588.017,https://maps.google.com/?cid=0x0:0x3f5491aac7bda61,
perumahan,Komplek perumahan,Wogo Traditional Village (wogoTV),"5383+R4X, Jl. Raya Bajawa-Ende, Were, Ratogesa, Kec. Golewa, Kabupaten Ngada, Nusa Tenggara Tim.","Kabupaten Ngada, Nusa Tenggara Tim.",NUSA TENGGARA TIMUR,,Indonesia,,,,-8.832.898,1.210.528.585,https://maps.google.com/?cid=0x0:0xda4e0507f39cae04,
perumahan,Perhimpunan Pengembang Perumahan,Sobo,"52CJ+F7J, Sobo, Golewa Bar., Kabupaten Ngada, Nusa Tenggara Tim.","Kabupaten Ngada, Nusa Tenggara Tim.",NUSA TENGGARA TIMUR,,Indonesia,,,,-88.287.761,1.210.306.432,https://maps.google.com/?cid=0x0:0x53a84b6ea1bbae3b,
perumahan,Komplek perumahan,Kampung Mangulewa,"52PC+59P, Mangulewa, Golewa Bar., Kabupaten Ngada, Nusa Tenggara Tim.","Kabupaten Ngada, Nusa Tenggara Tim.",NUSA TENGGARA TIMUR,,Indonesia,,,,-88.145.329,1.210.209.559,https://maps.google.com/?cid=0x0:0x65bd3affa039f174,
perumahan,Komplek perumahan,Desa wogo,"Jl. Raya Bajawa-Ende No.12, Malanuza, Kec. Golewa, Kabupaten Ngada, Nusa Tenggara Tim.","Kabupaten Ngada, Nusa Tenggara Tim.",NUSA TENGGARA TIMUR,,Indonesia,,,,-88.336.831,1.210.520.357,https://maps.google.com/?cid=0x0:0x7137d9bbae14b2f8,
perumahan,perumahan,HeriBalawanga,"6XCM+F63, Lebijaga, Bajawa, Kabupaten Ngada, Nusa Tenggara Tim.","Kabupaten Ngada, Nusa Tenggara Tim.",NUSA TENGGARA TIMUR,,Indonesia,,,,-87.788.997,1.209.832.169,https://maps.google.com/?cid=0x0:0xb48be971fecf57d8,
perumahan,Komplek perumahan,Ibu Veronika Dhono,"5256+FC, Rakateda II, Golewa Bar., Kabupaten Ngada, Nusa Tenggara Tim.","Kabupaten Ngada, Nusa Tenggara Tim.",NUSA TENGGARA TIMUR,,Indonesia,,,,-88.416.389,1.210.102.009,https://maps.google.com/?cid=0x0:0xb26d9ac7aa853f62,
perumahan,Komplek perumahan,Narny Wea,"5266+GFC, Unnamed Road, Dizi gedha, Rakateda II, Golewa Bar., Kabupaten Ngada, Nusa Tenggara Tim.","Kabupaten Ngada, Nusa Tenggara Tim.",NUSA TENGGARA TIMUR,,Indonesia,,,,-88.386.814,1.210.111.304,https://maps.google.com/?cid=0x0:0x714a5000a6908ff9,
perumahan,perumahan,Nusa Tenggara Tim.,,Nusa Tenggara Tim.,NUSA TENGGARA TIMUR,,Indonesia,,,,-86.573.819,1.210.793.705,https://maps.google.com/?cid=0x0:0x1030bfbcaf71ae0,
perumahan,perumahan,Rumah bojes,"3X4G+VC4, Jl. Ujung Aspal, Waebela, Kec. Inerie, Kabupaten Ngada, Nusa Tenggara Tim. 86452","Jl. Ujung Aspal, Waebela, Kec. Inerie, Kabupaten Ngada",NUSA TENGGARA TIMUR,86452.0,Indonesia,,,,-89.429.152,1.209.760.981,https://maps.google.com/?cid=0x0:0x875406a20a32e50a,
perumahan,Komplek perumahan,AwanCrew,"5V35+Q3Q, Aimere Tim., Kec. Aimere, Kabupaten Ngada, Nusa Tenggara Tim. 86452","Aimere Tim., Kec. Aimere, Kabupaten Ngada",NUSA TENGGARA TIMUR,86452.0,Indonesia,,,,-8.845.532,1.208.577.242,https://maps.google.com/?cid=0x0:0xb32a9a956c518134,
perumahan,Komplek perumahan,Inerie,"3XM5+RHW, Kelitei, Kec. Inerie, Kabupaten Ngada, Nusa Tenggara Tim.","Kabupaten Ngada, Nusa Tenggara Tim.",NUSA TENGGARA TIMUR,,Indonesia,,,,-89.153.971,1.209.589.496,https://maps.google.com/?cid=0x0:0x4a7972a004d381fc,
perumahan,Komplek perumahan,Rumah Frans Due,"3WR3+XM8, Sebowuli, Kec. Inerie, Kabupaten Ngada, Nusa Tenggara Tim.","Kabupaten Ngada, Nusa Tenggara Tim.",NUSA TENGGARA TIMUR,,Indonesia,,,,-89.075.929,1.209.042.044,https://maps.google.com/?cid=0x0:0x8abcb73bfc0bc27b,
perumahan,Komplek perumahan,San Lina,"3WV3+PH, Sebowuli, Kec. Inerie, Kabupaten Ngada, Nusa Tenggara Tim.","Kabupaten Ngada, Nusa Tenggara Tim.",NUSA TENGGARA TIMUR,,Indonesia,,,,-89.056.798,1.209.039.049,https://maps.google.com/?cid=0x0:0x2ebedaf4bb4aaa74,
perumahan,Komplek perumahan,Rumah dofando,"3WGC+VC, Warupele II, Kec. Inerie, Kabupaten Ngada, Nusa Tenggara Tim.","Kabupaten Ngada, Nusa Tenggara Tim.",NUSA TENGGARA TIMUR,,Indonesia,,,,-89.228.759,1.209.210.215,https://maps.google.com/?cid=0x0:0x3bb04f89204e9454,
perumahan,Komplek perumahan,Home stay,"3XM5+RHW, Kelitei, Kec. Inerie, Kabupaten Ngada, Nusa Tenggara Tim.","Kabupaten Ngada, Nusa Tenggara Tim.",NUSA TENGGARA TIMUR,,Indonesia,,,,-89.153.971,1.209.589.496,https://maps.google.com/?cid=0x0:0x3672303177ec540a,
perumahan,Komplek perumahan,Kelitey,"3X55+3F, Kelitei, Kec. Inerie, Kabupaten Ngada, Nusa Tenggara Tim.","Kabupaten Ngada, Nusa Tenggara Tim.",NUSA TENGGARA TIMUR,,Indonesia,,,,-89.423.613,1.209.587.364,https://maps.google.com/?cid=0x0:0x4fee9424155d42dc,
perumahan,Kios,Tiga Putra,"3WGC+VC, Warupele II, Kec. Inerie, Kabupaten Ngada, Nusa Tenggara Tim.","Kabupaten Ngada, Nusa Tenggara Tim.",NUSA TENGGARA TIMUR,,Indonesia,,,,-89.228.227,120.921.054,https://maps.google.com/?cid=0x0:0x70431d883af9249b,
perumahan,Komplek perumahan,Rumah marni,"3W7W+67F, Kelitei, Kec. Inerie, Kabupaten Ngada, Nusa Tenggara Tim.","Kabupaten Ngada, Nusa Tenggara Tim.",NUSA TENGGARA TIMUR,,Indonesia,,,,-89.369.313,1.209.456.787,https://maps.google.com/?cid=0x0:0x9b38b6571d7e52aa,
perumahan,Komplek perumahan,Ledo,"3WQ7+6Q, Inerie, Kec. Inerie, Kabupaten Ngada, Nusa Tenggara Tim.","Kabupaten Ngada, Nusa Tenggara Tim.",NUSA TENGGARA TIMUR,,Indonesia,,,,-89.119.721,120.914.378,https://maps.google.com/?cid=0x0:0xd066adbb924da34,
perumahan,Komplek perumahan,Rumah impian,"3WGH+2W, Warupele I, Kec. Inerie, Kabupaten Ngada, Nusa Tenggara Tim.","Kabupaten Ngada, Nusa Tenggara Tim.",NUSA TENGGARA TIMUR,,Indonesia,,,,-89.259.509,1.209.296.775,https://maps.google.com/?cid=0x0:0xf6837f0ba321af36,
perumahan,Komplek perumahan,Yheno,"3WGJ+R7, Warupele I, Kec. Inerie, Kabupaten Ngada, Nusa Tenggara Tim.","Kabupaten Ngada, Nusa Tenggara Tim.",NUSA TENGGARA TIMUR,,Indonesia,,,,-89.229.152,1.209.307.392,https://maps.google.com/?cid=0x0:0xa98dd34118dbc485,
perumahan,Komplek perumahan,Rumah Emanuel,"3X62+49, Kelitei, Kec. Inerie, Kabupaten Ngada, Nusa Tenggara Tim.","Kabupaten Ngada, Nusa Tenggara Tim.",NUSA TENGGARA TIMUR,,Indonesia,,,,-89.396.647,1.209.509.373,https://maps.google.com/?cid=0x0:0x257d452337d3b3a2,
perumahan,Komplek perumahan,Sao No'a,"3WM6+FMG, A, RT.06/RW.Dusun Malapedho, Inerie, Kec. Inerie, Kabupaten Ngada, Nusa Tenggara Tim.","Kabupaten Ngada, Nusa Tenggara Tim.",NUSA TENGGARA TIMUR,,Indonesia,,,,-89.163.117,1.209.116.966,https://maps.google.com/?cid=0x0:0x2e24f74c4f7b4bcb,
perumahan,Komplek perumahan,Rumah adat SA'O LUDJU,"3WHH+4R, Warupele I, Kec. Inerie, Kabupaten Ngada, Nusa Tenggara Tim.","Kabupaten Ngada, Nusa Tenggara Tim.",NUSA TENGGARA TIMUR,,Indonesia,,,,-89.219.197,1.209.294.175,https://maps.google.com/?cid=0x0:0x7da0c80595951163,
perumahan,perumahan,Kopo,"3WRR+H43, Warupele I, Kec. Inerie, Kabupaten Ngada, Nusa Tenggara Tim.","Kabupaten Ngada, Nusa Tenggara Tim.",NUSA TENGGARA TIMUR,,Indonesia,,,,-89.086.092,1.209.403.023,https://maps.google.com/?cid=0x0:0x2d47ec6f4f97921c,
perumahan,Komplek perumahan,Rumah inno,"3X5C+JX4, Waebela, Kec. Aimere, Kabupaten Ngada, Nusa Tenggara Tim.","Kabupaten Ngada, Nusa Tenggara Tim.",NUSA TENGGARA TIMUR,,Indonesia,,,,-89.416.244,1.209.723.456,https://maps.google.com/?cid=0x0:0x396ce2704993852,
perumahan,Komplek perumahan,RUMAH ACA,"3W7W+66W, 3W7W+67FKeliteiKec, Kec. Inerie, Kabupaten Ngada, Nusa Tenggara Tim.","Kabupaten Ngada, Nusa Tenggara Tim.",NUSA TENGGARA TIMUR,,Indonesia,,,,-89.368.852,1.209.455.929,https://maps.google.com/?cid=0x0:0xbf6d9fffeb75ca28,
perumahan,Komplek perumahan,Rmh.Sipri Sedo,"3W8Q+QF6, Kelitei, Kec. Aimere, Kabupaten Ngada, Nusa Tenggara Tim.","Kabupaten Ngada, Nusa Tenggara Tim.",NUSA TENGGARA TIMUR,,Indonesia,,,,-89.330.495,1.209.385.789,https://maps.google.com/?cid=0x0:0x2c646ac876d009e5,
perumahan,Komplek perumahan,RUMAH ARWIN POSO,"3XCJ+JFX, Waebela, Kec. Inerie, Kabupaten Ngada, Nusa Tenggara Tim.","Kabupaten Ngada, Nusa Tenggara Tim.",NUSA TENGGARA TIMUR,,Indonesia,,,,-89.283.924,1.209.812.293,https://maps.google.com/?cid=0x0:0xe344a02aaa23a989,
