Category,Real Category,Business Name,Address,City,State,Postal Code,Country,Phone,Email,Website,Latitude,Longitude,Map Link,Details Link
hotel,hotel,Kec. Betayau,"Kabupaten Tana Tidung, Kalimantan Utara","Kabupaten Tana Tidung, Kalimantan Utara",KALIMANTAN UTARA,,Indonesia,,,,3.4907666,116.9967322,https://maps.google.com/?cid=0x0:0xf200f24085399f93,
hotel,hotel,Kaisar Belumu Guest house  Caferesto,"Jl. Ahmad Yani No.01, Tideng Pale, Kec. Sesayap, Kabupaten Tana Tidung, Kalimantan Utara 77152","Tideng Pale, Kec. Sesayap, Kabupaten Tana Tidung",KALIMANTAN UTARA,77152.0,Indonesia,,,,3.6020958,116.9027998,https://maps.google.com/?cid=0x0:0xf4222674a23254a,
hotel,hotel,Hotel D'Calia Tarakan,"Jl. Yos Sudarso No.3, Karang Rejo, Kec. Tarakan Bar., Kota Tarakan, Kalimantan Utara 77112","Karang Rejo, Kec. Tarakan Bar., Kota Tarakan",KALIMANTAN UTARA,77112.0,Indonesia,81348176524.0,,,3.3075182,117.5837066,https://maps.google.com/?cid=0x0:0xe4b1fbaa36f1363f,
hotel,hotel,Bahtera Hotel,"Jl. Sulawesi No.1, Pamusian, Kec. Tarakan Tengah, Kota Tarakan, Kalimantan Utara","Kota Tarakan, Kalimantan Utara",KALIMANTAN UTARA,,Indonesia,895417300072.0,,,3.3067642,117.6073552,https://maps.google.com/?cid=0x0:0x76d95a6f0d8cd140,
hotel,hotel,Milia Hotel Bintang 2,"Jl. Yos Sudarso No.1, Karang Rejo, Kec. Tarakan Bar., Kota Tarakan, Kalimantan Utara","Kota Tarakan, Kalimantan Utara",KALIMANTAN UTARA,,Indonesia,82252926185.0,,,3.3076107,117.5836888,https://maps.google.com/?cid=0x0:0x2ac7ffda865c198f,
hotel,hotel,Hotel Segiri,"Jl. Gajah Mada No.24, Karang Rejo, Kec. Tarakan Bar., Kota Tarakan, Kalimantan Utara 77112","Karang Rejo, Kec. Tarakan Bar., Kota Tarakan",KALIMANTAN UTARA,77112.0,Indonesia,55151799.0,,,3.3083177,117.5819968,https://maps.google.com/?cid=0x0:0x6b5990c408b4fb3,
hotel,hotel,Hotel Bintang,"Jl. Jend. Sudirman No.20, Karang Anyar, Kec. Tarakan Bar., Kota Tarakan, Kalimantan Utara 77111","Karang Anyar, Kec. Tarakan Bar., Kota Tarakan",KALIMANTAN UTARA,77111.0,Indonesia,55133533.0,,,3.3102764,117.5881482,https://maps.google.com/?cid=0x0:0xfbd325eb48527769,
hotel,hotel,Barito hotel,"8H6P+6X7, Karang Anyar, Kec. Tarakan Bar., Kota Tarakan, Kalimantan Utara","Kota Tarakan, Kalimantan Utara",KALIMANTAN UTARA,,Indonesia,,,,3.3105284,117.5874314,https://maps.google.com/?cid=0x0:0x996d5c4fe759255a,
hotel,hotel,Airy Karang Balik Yos Sudarso 77 Tarakan,"Jl. Yos Sudarso No.77, Karang Balik, Kec. Tarakan Bar., Kota Tarakan, Kalimantan Utara 77126","Karang Balik, Kec. Tarakan Bar., Kota Tarakan",KALIMANTAN UTARA,77126.0,Indonesia,8041112479.0,,,3.303742,117.585288,https://maps.google.com/?cid=0x0:0xa0d60f2c50315b98,
hotel,hotel,Guest House Cempaka,"8J43+35P, Jl. Pattimura, Pamusian, Kec. Tarakan Tengah, Kota Tarakan, Kalimantan Utara","Kota Tarakan, Kalimantan Utara",KALIMANTAN UTARA,,Indonesia,,,,3.3052086,117.6029345,https://maps.google.com/?cid=0x0:0x749dcfe531c2b0ba,
hotel,hotel,Bahagia Hotel Tarakan,"Depan Gusher Plaza, Jl. Gajah Mada, Karang Anyar Pantai, Tarakan Barat, Tarakan City, North Kalimantan","Kota Tarakan, Kalimantan Utara",KALIMANTAN UTARA,,Indonesia,85247188868.0,,,3.3070759,117.5790587,https://maps.google.com/?cid=0x0:0x69a65e094a23c9e7,
hotel,hotel,Kec. Sesayap,"Kabupaten Tana Tidung, Kalimantan Utara","Kabupaten Tana Tidung, Kalimantan Utara",KALIMANTAN UTARA,,Indonesia,,,,3.6087268,116.902766,https://maps.google.com/?cid=0x0:0xf236a712c1f65dad,
hotel,hotel,Hotel D’Calia Malinau,"Jl. Terminal Baru, Malinau Kota, Kec. Malinau Kota, Kabupaten Malinau, Kalimantan Utara 77554","Malinau Kota, Kec. Malinau Kota, Kabupaten Malinau",KALIMANTAN UTARA,77554.0,Indonesia,8565057370.0,,,3.5913411,116.6358836,https://maps.google.com/?cid=0x0:0x26e060298b7e875f,
hotel,hotel,Kaisar Belumu Guest house  Caferesto,"Jl. Ahmad Yani No.01, Tideng Pale, Kec. Sesayap, Kabupaten Tana Tidung, Kalimantan Utara 77152","Tideng Pale, Kec. Sesayap, Kabupaten Tana Tidung",KALIMANTAN UTARA,77152.0,Indonesia,,,,3.6020958,116.9027998,https://maps.google.com/?cid=0x0:0xf4222674a23254a,
hotel,hotel,Hotel Mahkota,"Jl. Raja Pandita No.138, RT.5, Malinau Hulu, Kec. Malinau Kota, Kabupaten Malinau, Kalimantan Utara 77554","RT.5, Malinau Hulu, Kec. Malinau Kota, Kabupaten Malinau",KALIMANTAN UTARA,77554.0,Indonesia,55321988.0,,,3.5686037,116.6038935,https://maps.google.com/?cid=0x0:0x79b8889f11331736,
hotel,hotel,Milia Hotel Bintang 2,"Jl. Yos Sudarso No.1, Karang Rejo, Kec. Tarakan Bar., Kota Tarakan, Kalimantan Utara","Kota Tarakan, Kalimantan Utara",KALIMANTAN UTARA,,Indonesia,82252926185.0,,,3.3076107,117.5836888,https://maps.google.com/?cid=0x0:0x2ac7ffda865c198f,
hotel,hotel,Grace Hotel Malinau,"HJF7+JRR, Jl. Raja Pandita, Pelita Kanaan, Kec. Malinau Kota, Kabupaten Malinau, Kalimantan Utara 77554","Jl. Raja Pandita, Pelita Kanaan, Kec. Malinau Kota, Kabupaten Malinau",KALIMANTAN UTARA,77554.0,Indonesia,55321452.0,,,3.574117,116.6145223,https://maps.google.com/?cid=0x0:0x4eeba7c713b1711d,
hotel,hotel,Hotel Hokiwa,"Malinau Kota, Kec. Malinau Kota, Kabupaten Malinau, Kalimantan Utara 77554","Kec. Malinau Kota, Kabupaten Malinau",KALIMANTAN UTARA,77554.0,Indonesia,8115391999.0,,,3.5891248,116.6249066,https://maps.google.com/?cid=0x0:0x6dc033912875d7ed,
hotel,hotel,Hotel MC,"Jl. Aji Abdul Muthalib, Malinau Hulu, Kec. Malinau Kota, Kabupaten Malinau, Kalimantan Utara 77554","Malinau Hulu, Kec. Malinau Kota, Kabupaten Malinau",KALIMANTAN UTARA,77554.0,Indonesia,82354270005.0,,,3.56742,116.6047676,https://maps.google.com/?cid=0x0:0xd621d038e675b597,
hotel,hotel,Hotel Segiri,"Jl. Gajah Mada No.24, Karang Rejo, Kec. Tarakan Bar., Kota Tarakan, Kalimantan Utara 77112","Karang Rejo, Kec. Tarakan Bar., Kota Tarakan",KALIMANTAN UTARA,77112.0,Indonesia,55151799.0,,,3.3083177,117.5819968,https://maps.google.com/?cid=0x0:0x6b5990c408b4fb3,
hotel,hotel,Hotel D'Calia Tarakan,"Jl. Yos Sudarso No.3, Karang Rejo, Kec. Tarakan Bar., Kota Tarakan, Kalimantan Utara 77112","Karang Rejo, Kec. Tarakan Bar., Kota Tarakan",KALIMANTAN UTARA,77112.0,Indonesia,81348176524.0,,,3.3075182,117.5837066,https://maps.google.com/?cid=0x0:0xe4b1fbaa36f1363f,
hotel,hotel,Airy Karang Balik Yos Sudarso 77 Tarakan,"Jl. Yos Sudarso No.77, Karang Balik, Kec. Tarakan Bar., Kota Tarakan, Kalimantan Utara 77126","Karang Balik, Kec. Tarakan Bar., Kota Tarakan",KALIMANTAN UTARA,77126.0,Indonesia,8041112479.0,,,3.303742,117.585288,https://maps.google.com/?cid=0x0:0xa0d60f2c50315b98,
hotel,hotel,sari resort,"76JV+F47, Kec. Pulau Derawan, Kabupaten Berau, Kalimantan Timur","Kabupaten Berau, Kalimantan Timur",KALIMANTAN UTARA,,Indonesia,81346538448.0,,,2.2811693,118.242787,https://maps.google.com/?cid=0x0:0xb5c948c09a823187,
hotel,hotel,Cucun Cottage,"Kasai, Kec. Pulau Derawan, Kabupaten Berau, Kalimantan Timur 77381","Kec. Pulau Derawan, Kabupaten Berau",KALIMANTAN UTARA,77381.0,Indonesia,81347171957.0,,,2.2836806,118.2399772,https://maps.google.com/?cid=0x0:0x3e33492bef9699d1,
hotel,hotel,Kalimantan Utara 77152,Kalimantan Utara,Kalimantan Utara,KALIMANTAN UTARA,,Indonesia,,,,3.4065813,117.0794082,https://maps.google.com/?cid=0x0:0xc52bb53e44e54a8,
hotel,hotel,Hotel D’Calia Malinau,"Jl. Terminal Baru, Malinau Kota, Kec. Malinau Kota, Kabupaten Malinau, Kalimantan Utara 77554","Malinau Kota, Kec. Malinau Kota, Kabupaten Malinau",KALIMANTAN UTARA,77554.0,Indonesia,8565057370.0,,,3.5913411,116.6358836,https://maps.google.com/?cid=0x0:0x26e060298b7e875f,
hotel,hotel,Swiss-Belhotel Tarakan,"8H5M+Q6Q, Jl. Mulawarman No.15, Karang Anyar Pantai, Kec. Tarakan Bar., Kota Tarakan, Kalimantan Utara 77111","Jl. Mulawarman No.15, Karang Anyar Pantai, Kec. Tarakan Bar., Kota Tarakan",KALIMANTAN UTARA,77111.0,Indonesia,55121133.0,,,3.3094501,117.5828837,https://maps.google.com/?cid=0x0:0x1de4b373406f15bc,
hotel,hotel,Hotel GRAND CITRA,"Jalan Mulawarman RT26, Karang Anyar Pantai, Kec. Tarakan Bar., Kota Tarakan, Kalimantan Utara","Kota Tarakan, Kalimantan Utara",KALIMANTAN UTARA,,Indonesia,81258000098.0,,,3.3242068,117.574369,https://maps.google.com/?cid=0x0:0xa1a2b24b9edda1dd,
hotel,hotel,Hotel Royal Tarakan,"Jl. Mulawarman No.14, RW.No.18, Karang Anyar, Kec. Tarakan Bar., Kota Tarakan, Kalimantan Utara","Kota Tarakan, Kalimantan Utara",KALIMANTAN UTARA,,Indonesia,8115933338.0,,,3.3130234,117.579329,https://maps.google.com/?cid=0x0:0xabe5c759f284472f,
hotel,hotel,Hotel D'Calia Tarakan,"Jl. Yos Sudarso No.3, Karang Rejo, Kec. Tarakan Bar., Kota Tarakan, Kalimantan Utara 77112","Karang Rejo, Kec. Tarakan Bar., Kota Tarakan",KALIMANTAN UTARA,77112.0,Indonesia,81348176524.0,,,3.3075182,117.5837066,https://maps.google.com/?cid=0x0:0xe4b1fbaa36f1363f,
hotel,hotel,Padmaloka Hotel Tarakan,"Tengah Jl. Yos Sudarso, Selumit, Kec. Tarakan Tengah, Kota Tarakan, Kalimantan Utara 77111","Selumit, Kec. Tarakan Tengah, Kota Tarakan",KALIMANTAN UTARA,77111.0,Indonesia,55133336.0,,,3.3005121,117.5860493,https://maps.google.com/?cid=0x0:0xdb5c2192eaca0e1e,
hotel,hotel,Hotel Lembasung,"Jalan Pulau Irian No.1, Kampung Satu Skip, Tarakan Tengah, Kp. Satu Skip, Kec. Tarakan Tengah, Kota Tarakan, Kalimantan Utara","Kota Tarakan, Kalimantan Utara",KALIMANTAN UTARA,,Indonesia,82251720200.0,,,3.3147321,117.6068947,https://maps.google.com/?cid=0x0:0x4dbd5e88264d506d,
hotel,hotel,,,,KALIMANTAN UTARA,,Indonesia,,,,,,https://maps.google.com/?cid=0x0:0x4dbd5e88264d506d%7C/g/11b7cc3z3v%7Cen-ID,
hotel,Hotel bintang 2,Hotel Tarakan Plaza  Convention Centre,"Jl. Yos Sudarso, Karang Balik, Kec. Tarakan Bar., Kota Tarakan, Kalimantan Utara","Kota Tarakan, Kalimantan Utara",KALIMANTAN UTARA,,Indonesia,81350275180.0,,,3.303563,117.585125,https://maps.google.com/?cid=0x0:0xa9e0975456f210f8,
hotel,hotel,Mycity Hotel,"8H6J+MR8, Karang Anyar, Kec. Tarakan Bar., Kota Tarakan, Kalimantan Utara","Kota Tarakan, Kalimantan Utara",KALIMANTAN UTARA,,Indonesia,81350976047.0,,,3.3116517,117.5820641,https://maps.google.com/?cid=0x0:0xc33886e2ddcea487,
hotel,Hotel bintang 3,Galaxy Hotel,"Jl. Yos Sudarso, Karang Rejo, Kec. Tarakan Bar., Kota Tarakan, Kalimantan Utara","Kota Tarakan, Kalimantan Utara",KALIMANTAN UTARA,,Indonesia,81213125222.0,,,3.3066345,117.5840066,https://maps.google.com/?cid=0x0:0xfaaf5b399310a71a,
hotel,hotel,Harmonis Hotel,"Jl. P. Diponegoro No.5, RT.005, Sebengkok, Kec. Tarakan Tengah, Kota Tarakan, Kalimantan Utara 77114","RT.005, Sebengkok, Kec. Tarakan Tengah, Kota Tarakan",KALIMANTAN UTARA,77114.0,Indonesia,81380999919.0,,,3.2949092,117.5896341,https://maps.google.com/?cid=0x0:0x62e42d8462f5dd4e,
hotel,hotel,Kaisar Belumu Guest house  Caferesto,"Jl. Ahmad Yani No.01, Tideng Pale, Kec. Sesayap, Kabupaten Tana Tidung, Kalimantan Utara 77152","Tideng Pale, Kec. Sesayap, Kabupaten Tana Tidung",KALIMANTAN UTARA,77152.0,Indonesia,,,,3.6020958,116.9027998,https://maps.google.com/?cid=0x0:0xf4222674a23254a,
hotel,Hotel bintang 3,Paradise by CaLia Tarakan,"Jl. Mulawarman No.7, Karang Anyar Pantai, Kec. Tarakan Bar., Kota Tarakan, Kalimantan Utara 77111","Karang Anyar Pantai, Kec. Tarakan Bar., Kota Tarakan",KALIMANTAN UTARA,77111.0,Indonesia,81234149881.0,,,3.311255,117.5817923,https://maps.google.com/?cid=0x0:0x78cf40489387ab7e,
hotel,hotel,Atia New Hotel Tarakan,"7HXP+2MF, Jl. Yos Sudarso, Selumit Pantai, Kec. Tarakan Tengah, Kota Tarakan, Kalimantan Utara","Kota Tarakan, Kalimantan Utara",KALIMANTAN UTARA,,Indonesia,55121100.0,,,3.2975737,117.5866671,https://maps.google.com/?cid=0x0:0x91e89d040165dbd9,
hotel,hotel,,,,KALIMANTAN UTARA,,Indonesia,,,,,,https://maps.google.com/?cid=0x0:0x91e89d040165dbd9%7C/g/11b8v9qp0s%7Cen-ID,
hotel,Hotel bintang 2,Hotel Gajah Mada Tarakan,"Jl. Gajah Mada No.RT 03 Kel, Karang Rejo, Kec. Tarakan Bar., Kota Tarakan, Kalimantan Utara 77112","Karang Rejo, Kec. Tarakan Bar., Kota Tarakan",KALIMANTAN UTARA,77112.0,Indonesia,82252587288.0,,,3.3074489,117.5803878,https://maps.google.com/?cid=0x0:0x73edba16ed938461,
hotel,hotel,Hotel Makmur,"Jl. Jend. Sudirman No.18, Karang Balik, Kec. Tarakan Bar., Kota Tarakan, Kalimantan Utara","Kota Tarakan, Kalimantan Utara",KALIMANTAN UTARA,,Indonesia,82282003900.0,,,3.3096873,117.5854244,https://maps.google.com/?cid=0x0:0xdba7996d6a18a6a4,
hotel,hotel,Bahtera Hotel,"Jl. Sulawesi No.1, Pamusian, Kec. Tarakan Tengah, Kota Tarakan, Kalimantan Utara","Kota Tarakan, Kalimantan Utara",KALIMANTAN UTARA,,Indonesia,895417300072.0,,,3.3067642,117.6073552,https://maps.google.com/?cid=0x0:0x76d95a6f0d8cd140,
hotel,hotel,Bumi Palapa Hotel,"JL. Jend Sudirman, No. 145, Kp. Empat, Kec. Tarakan Tim., Kota Tarakan, Kalimantan Utara","Kota Tarakan, Kalimantan Utara",KALIMANTAN UTARA,,Indonesia,55134333.0,,,3.3103174,117.5869195,https://maps.google.com/?cid=0x0:0xf47e6de65d623ad9,
hotel,Hotel,RedDoorz Syariah near Taman Berlabuh Tarakan,"Jl. Yos Sudarso No.7, Jemb. Besi, Kec. Tarakan Tim., Kota Tarakan, Kalimantan Utara 77126","Jemb. Besi, Kec. Tarakan Tim., Kota Tarakan",KALIMANTAN UTARA,77126.0,Indonesia,895417300072.0,,,3.289963,117.5908108,https://maps.google.com/?cid=0x0:0x62e291428e33f58b,
hotel,hotel,Hotel Fadira,"Tideng Pale, Kec. Sesayap, Kabupaten Tana Tidung, Kalimantan Utara 77152","Kec. Sesayap, Kabupaten Tana Tidung",KALIMANTAN UTARA,77152.0,Indonesia,85346187166.0,,,3.6078731,116.9040296,https://maps.google.com/?cid=0x0:0x31e355f7bb0042c,
hotel,hotel,Kec. Tana Lia,"Kabupaten Tana Tidung, Kalimantan Utara","Kabupaten Tana Tidung, Kalimantan Utara",KALIMANTAN UTARA,,Indonesia,,,,3.6670469,117.5377612,https://maps.google.com/?cid=0x0:0x6e14a7898117f78f,
hotel,Penginapan,Penginapan Fatma Tana Lia,"MG9H+HVX, Tanah Merah, Kec. Tana Lia, Kabupaten Tana Tidung, Kalimantan Utara 77453","Tanah Merah, Kec. Tana Lia, Kabupaten Tana Tidung",KALIMANTAN UTARA,77453.0,Indonesia,81294266459.0,,,3.6689811,117.5297196,https://maps.google.com/?cid=0x0:0xb0c5762200b698b8,
hotel,Pondok,Tana Lia Guest House,"MG7Q+W7F, Sambungan, Kec. Tana Lia, Kabupaten Tana Tidung, Kalimantan Utara 77453","Sambungan, Kec. Tana Lia, Kabupaten Tana Tidung",KALIMANTAN UTARA,77453.0,Indonesia,81350000243.0,,,3.6648222,117.5381699,https://maps.google.com/?cid=0x0:0x7b8ef0f8c6163b5,
restaurant,restaurant,Kec. Betayau,"Kabupaten Tana Tidung, Kalimantan Utara","Kabupaten Tana Tidung, Kalimantan Utara",KALIMANTAN UTARA,,Indonesia,,,,3.4907666,116.9967322,https://maps.google.com/?cid=0x0:0xf200f24085399f93,
restaurant,Restoran,Warung Makan wong solo,"Jl. Poros Kaltim, Kujau, Kec. Betayau, Kabupaten Tana Tidung, Kalimantan Utara 77152","Kujau, Kec. Betayau, Kabupaten Tana Tidung",KALIMANTAN UTARA,77152.0,Indonesia,81229778205.0,,,3.4615487,117.0117808,https://maps.google.com/?cid=0x0:0x44dfebfda3643d81,
restaurant,Rumah Makan,Warung makan mas gombloh,"Jl.ahmad yani,maning rt 2, Kujau, Kec. Betayau, Kabupaten Tana Tidung, Kalimantan Utara 77152","Kujau, Kec. Betayau, Kabupaten Tana Tidung",KALIMANTAN UTARA,77152.0,Indonesia,85392080523.0,,,3.4609146,117.0144357,https://maps.google.com/?cid=0x0:0x65d0b61a178701e,
restaurant,Hotel,Penginapan Betayau Indah,"F295+F24, Kujau, Kec. Sesayap, Kabupaten Tana Tidung, Kalimantan Utara 77152","Kujau, Kec. Sesayap, Kabupaten Tana Tidung",KALIMANTAN UTARA,77152.0,Indonesia,82251963818.0,,,3.4683829,117.0074072,https://maps.google.com/?cid=0x0:0x5eb9db5fd3baa721,
restaurant,Restoran,Warung barokah,"F2C3+4H7, Kujau, Kec. Sesayap, Kabupaten Tana Tidung, Kalimantan Utara 77152","Kujau, Kec. Sesayap, Kabupaten Tana Tidung",KALIMANTAN UTARA,77152.0,Indonesia,81255653487.0,,,3.4702772,117.0039191,https://maps.google.com/?cid=0x0:0x2e510b8fa698a47a,
restaurant,Brunch,Kedai Rasilia Biyu,"JW54+4PC, Jl. Tanah Abang, Tideng Pale, Kec. Sesayap, Kabupaten Tana Tidung, Kalimantan Utara 77152","Jl. Tanah Abang, Tideng Pale, Kec. Sesayap, Kabupaten Tana Tidung",KALIMANTAN UTARA,77152.0,Indonesia,,,,3.6078118,116.9067704,https://maps.google.com/?cid=0x0:0xb6747ef184e49445,
restaurant,Indonesia,RM. SALAMAH Khas Djogya,"HWV3+M22, Jl. Perintis, RT.06/RW.03, Tideng Pale, Kec. Sesayap, Kabupaten Tana Tidung, Kalimantan Utara 77152","Jl. Perintis, RT.06/RW.03, Tideng Pale, Kec. Sesayap, Kabupaten Tana Tidung",KALIMANTAN UTARA,77152.0,Indonesia,81254155754.0,,,3.5941405,116.9025071,https://maps.google.com/?cid=0x0:0xd0022df09f2f1653,
restaurant,Kedai Kopi,Home's Cafe KTT - Rooftop,"JW26+JX8, Tideng Pale, Kec. Sesayap, Kabupaten Tana Tidung, Kalimantan Utara 77152","Tideng Pale, Kec. Sesayap, Kabupaten Tana Tidung",KALIMANTAN UTARA,77152.0,Indonesia,8115251283.0,,,3.6015455,116.9124375,https://maps.google.com/?cid=0x0:0x741402f2b1570b45,
restaurant,Restoran,RM MENEL,"F258+F8C, Jl. Ahmad Yani, Kujau, Kec. Sesayap, Kabupaten Tana Tidung, Kalimantan Utara 77152","Jl. Ahmad Yani, Kujau, Kec. Sesayap, Kabupaten Tana Tidung",KALIMANTAN UTARA,77152.0,Indonesia,,,,3.4586841,117.0157795,https://maps.google.com/?cid=0x0:0x597d5c25c7655ade,
restaurant,Kedai Kopi,Jamu instan,"Jln sungai bentunai No.RT 5, Kujau, Kec. Betayau, Kabupaten Tana Tidung, Kalimantan Utara 77152","Kujau, Kec. Betayau, Kabupaten Tana Tidung",KALIMANTAN UTARA,77152.0,Indonesia,81649482075.0,,,3.4650427,117.0026417,https://maps.google.com/?cid=0x0:0x8f42302f9c5b2be2,
restaurant,Restoran,Warung makan Sudi Mampir,"F258+X45, Jl. Ahmad Yani, Kujau, Kec. Sesayap, Kabupaten Tana Tidung, Kalimantan Utara 77152","Jl. Ahmad Yani, Kujau, Kec. Sesayap, Kabupaten Tana Tidung",KALIMANTAN UTARA,77152.0,Indonesia,85753149625.0,,,3.4598776,117.015344,https://maps.google.com/?cid=0x0:0xd6b5cac4a8bbee43,
restaurant,Dapur Umum,warung makan Paguntaka,"Jl. Aji Putra, rt 04, Sesayap, Kec. Sesayap Hilir, Kabupaten Tana Tidung, Kalimantan Utara 77152","rt 04, Sesayap, Kec. Sesayap Hilir, Kabupaten Tana Tidung",KALIMANTAN UTARA,77152.0,Indonesia,,,,3.5828628,117.0073104,https://maps.google.com/?cid=0x0:0x46662198786431d7,
restaurant,Rumah Makan,Rumah Makan Jaya Makmur,"F2M2+47F, Kujau, Kec. Sesayap, Kabupaten Tana Tidung, Kalimantan Utara 77152","Kujau, Kec. Sesayap, Kabupaten Tana Tidung",KALIMANTAN UTARA,77152.0,Indonesia,81352222759.0,,,3.4828209,117.0006609,https://maps.google.com/?cid=0x0:0x26adbda74d972a49,
restaurant,Brunch,Warung AYU,"JW54+RWJ, Tideng Pale, Kec. Sesayap, Kabupaten Tana Tidung, Kalimantan Utara 77152","Tideng Pale, Kec. Sesayap, Kabupaten Tana Tidung",KALIMANTAN UTARA,77152.0,Indonesia,82210527674.0,,,3.6095769,116.9072567,https://maps.google.com/?cid=0x0:0x43b586ed378f5c2a,
restaurant,Kedai Kopi,Warung Kopi Butet,"JW53+G3W, Tideng Pale, Kec. Sesayap, Kabupaten Tana Tidung, Kalimantan Utara 77152","Tideng Pale, Kec. Sesayap, Kabupaten Tana Tidung",KALIMANTAN UTARA,77152.0,Indonesia,,,,3.6088517,116.9026984,https://maps.google.com/?cid=0x0:0x1c77daa5cc67a2e1,
restaurant,Rumah Makan,Tahu Tek KTT,"JW56+WQ9, Jl. Jend. Sudirman, Tideng Pale Tim., Kec. Sesayap, Kabupaten Tana Tidung, Kalimantan Utara 77152","Jl. Jend. Sudirman, Tideng Pale Tim., Kec. Sesayap, Kabupaten Tana Tidung",KALIMANTAN UTARA,77152.0,Indonesia,,,,3.6097894,116.9119918,https://maps.google.com/?cid=0x0:0x46c1213044a3c447,
restaurant,restaurant,Kaisar Belumu Guest house  Caferesto,"Jl. Ahmad Yani No.01, Tideng Pale, Kec. Sesayap, Kabupaten Tana Tidung, Kalimantan Utara 77152","Tideng Pale, Kec. Sesayap, Kabupaten Tana Tidung",KALIMANTAN UTARA,77152.0,Indonesia,,,,3.6020958,116.9027998,https://maps.google.com/?cid=0x0:0xf4222674a23254a,
restaurant,Tujuan Wisata,Objek Wisata Air Terjun Gunung Rian,"GR5G+6CX, Rian, Kec. Sesayap, Kabupaten Tana Tidung, Kalimantan Utara 77152","Rian, Kec. Sesayap, Kabupaten Tana Tidung",KALIMANTAN UTARA,77152.0,Indonesia,,,,3.5081035,116.8261118,https://maps.google.com/?cid=0x0:0xe209d1f9b7e74d0b,
restaurant,Brunch,Warung AREMA,"Tideng Pale Tim., Kec. Sesayap, Kabupaten Tana Tidung, Kalimantan Utara 77152","Kec. Sesayap, Kabupaten Tana Tidung",KALIMANTAN UTARA,77152.0,Indonesia,,,,3.6099437,116.9123023,https://maps.google.com/?cid=0x0:0xdea2fe3c346a6a6d,
restaurant,Padang,Warung (BULEK SIH) Lamongan,"JW54+QVF, Tideng Pale, Kec. Sesayap, Kabupaten Tana Tidung, Kalimantan Utara 77152","Tideng Pale, Kec. Sesayap, Kabupaten Tana Tidung",KALIMANTAN UTARA,77152.0,Indonesia,82151987352.0,,,3.6094344,116.9071661,https://maps.google.com/?cid=0x0:0xc9bd81da7953f88a,
restaurant,Restoran,Bakso Sinar Rahayu,"HX8R+GRR, Jl. Astrali, Sesayap, Kec. Sesayap Hilir, Kabupaten Tana Tidung, Kalimantan Utara 77152","Jl. Astrali, Sesayap, Kec. Sesayap Hilir, Kabupaten Tana Tidung",KALIMANTAN UTARA,77152.0,Indonesia,,,,3.5663589,116.9920088,https://maps.google.com/?cid=0x0:0x6dc99ca7e99b0db6,
restaurant,Toko Makanan,Food Court Tana Tidung,"JV5X+3HG, Jl. Wisma, Tideng Pale, Kec. Sesayap, Kabupaten Tana Tidung, Kalimantan Utara 77152","Jl. Wisma, Tideng Pale, Kec. Sesayap, Kabupaten Tana Tidung",KALIMANTAN UTARA,77152.0,Indonesia,,,,3.607681,116.8989559,https://maps.google.com/?cid=0x0:0xa1e7e75aff7438b7,
restaurant,Restoran,Rumah Makan Assalamu'alaikum,"Kujau, Kec. Betayau, Kabupaten Tana Tidung, Kalimantan Utara 77152","Kec. Betayau, Kabupaten Tana Tidung",KALIMANTAN UTARA,77152.0,Indonesia,81251027775.0,,,3.4882448,116.994187,https://maps.google.com/?cid=0x0:0x859ecdf8185771c9,
restaurant,Rumah Makan,Warung Makan Tulung Agung,"FXQX+7FW, Jl. Ahmad Yani, Kujau, Kec. Betayau, Kabupaten Tana Tidung, Kalimantan Utara 77152","Jl. Ahmad Yani, Kujau, Kec. Betayau, Kabupaten Tana Tidung",KALIMANTAN UTARA,77152.0,Indonesia,,,,3.4882368,116.9986977,https://maps.google.com/?cid=0x0:0xa33e2a20df082fa7,
restaurant,Kantor Pemerintah,Dapoer mama rani,"HWP6+4FF, Tideng Pale, Kec. Sesayap, Kabupaten Tana Tidung, Kalimantan Utara 77152","Tideng Pale, Kec. Sesayap, Kabupaten Tana Tidung",KALIMANTAN UTARA,77152.0,Indonesia,81347398679.0,,,3.5857356,116.9100458,https://maps.google.com/?cid=0x0:0xa2fb91e44b2c1be0,
restaurant,Kafe,Warkop Pujon,"F295+649, Desa Maning, Buang Baru, Kec. Betayau, Kabupaten Tana Tidung, Kalimantan Utara 77152","Desa Maning, Buang Baru, Kec. Betayau, Kabupaten Tana Tidung",KALIMANTAN UTARA,77152.0,Indonesia,81521502296.0,,,3.4680302,117.0078643,https://maps.google.com/?cid=0x0:0xd5fe3c7fa5f9b721,
restaurant,restaurant,Kec. Sesayap,"Kabupaten Tana Tidung, Kalimantan Utara","Kabupaten Tana Tidung, Kalimantan Utara",KALIMANTAN UTARA,,Indonesia,,,,3.6087268,116.902766,https://maps.google.com/?cid=0x0:0xf236a712c1f65dad,
restaurant,Rumah Makan,Depot Nyaman,"Jl. Jend. Sudirman, Tideng Pale Tim., Kec. Sesayap, Kabupaten Tana Tidung, Kalimantan Utara 77152","Tideng Pale Tim., Kec. Sesayap, Kabupaten Tana Tidung",KALIMANTAN UTARA,77152.0,Indonesia,82150818102.0,,,3.6100373,116.9112542,https://maps.google.com/?cid=0x0:0xdf148d3344b43a1,
restaurant,Kedai Kopi,Home's Cafe KTT - Rooftop,"JW26+JX8, Tideng Pale, Kec. Sesayap, Kabupaten Tana Tidung, Kalimantan Utara 77152","Tideng Pale, Kec. Sesayap, Kabupaten Tana Tidung",KALIMANTAN UTARA,77152.0,Indonesia,8115251283.0,,,3.6015455,116.9124375,https://maps.google.com/?cid=0x0:0x741402f2b1570b45,
restaurant,Brunch,Warung Jawa Rasa,"JW53+77J, Tideng Pale, Kec. Sesayap, Kabupaten Tana Tidung, Kalimantan Utara 77152","Tideng Pale, Kec. Sesayap, Kabupaten Tana Tidung",KALIMANTAN UTARA,77152.0,Indonesia,,,,3.6082043,116.9031552,https://maps.google.com/?cid=0x0:0xbd921b9a197ea9a5,
restaurant,Indonesia,RM. SALAMAH Khas Djogya,"HWV3+M22, Jl. Perintis, RT.06/RW.03, Tideng Pale, Kec. Sesayap, Kabupaten Tana Tidung, Kalimantan Utara 77152","Jl. Perintis, RT.06/RW.03, Tideng Pale, Kec. Sesayap, Kabupaten Tana Tidung",KALIMANTAN UTARA,77152.0,Indonesia,81254155754.0,,,3.5941405,116.9025071,https://maps.google.com/?cid=0x0:0xd0022df09f2f1653,
restaurant,Kedai Kopi,WARUNG MAKAN SEPUNTI,"Jl. Jend. Sudirman No.SIMPANG, RW.4, Tideng Pale Tim., Kec. Sesayap, Kabupaten Tana Tidung, Kalimantan Utara 77152","RW.4, Tideng Pale Tim., Kec. Sesayap, Kabupaten Tana Tidung",KALIMANTAN UTARA,77152.0,Indonesia,81349644681.0,,,3.6099069,116.9130408,https://maps.google.com/?cid=0x0:0x76c6aeb2edec59a,
restaurant,Rumah Makan,Masakan Jawa,"Warung AREMA, Tideng Pale Tim., Kec. Sesayap, Kabupaten Tana Tidung, Kalimantan Utara 77152","Tideng Pale Tim., Kec. Sesayap, Kabupaten Tana Tidung",KALIMANTAN UTARA,77152.0,Indonesia,,,,3.6099437,116.9123023,https://maps.google.com/?cid=0x0:0xff1bce9d40845ccb,
restaurant,Brunch,Warung AREMA,"Tideng Pale Tim., Kec. Sesayap, Kabupaten Tana Tidung, Kalimantan Utara 77152","Kec. Sesayap, Kabupaten Tana Tidung",KALIMANTAN UTARA,77152.0,Indonesia,,,,3.6099437,116.9123023,https://maps.google.com/?cid=0x0:0xdea2fe3c346a6a6d,
restaurant,Sulawesi Selatan,Warung Coto Makassar,"JW2C+53R, Tim., Tideng Pale Tim., Kec. Sesayap, Kabupaten Tana Tidung, Kalimantan Utara 77152","Tim., Tideng Pale Tim., Kec. Sesayap, Kabupaten Tana Tidung",KALIMANTAN UTARA,77152.0,Indonesia,,,,3.6004861,116.9201554,https://maps.google.com/?cid=0x0:0x5066d43776360579,
restaurant,Brunch,Kedai Rasilia Biyu,"JW54+4PC, Jl. Tanah Abang, Tideng Pale, Kec. Sesayap, Kabupaten Tana Tidung, Kalimantan Utara 77152","Jl. Tanah Abang, Tideng Pale, Kec. Sesayap, Kabupaten Tana Tidung",KALIMANTAN UTARA,77152.0,Indonesia,,,,3.6078118,116.9067704,https://maps.google.com/?cid=0x0:0xb6747ef184e49445,
restaurant,Kedai Kopi,Warung Kopi Butet,"JW53+G3W, Tideng Pale, Kec. Sesayap, Kabupaten Tana Tidung, Kalimantan Utara 77152","Tideng Pale, Kec. Sesayap, Kabupaten Tana Tidung",KALIMANTAN UTARA,77152.0,Indonesia,,,,3.6088517,116.9026984,https://maps.google.com/?cid=0x0:0x1c77daa5cc67a2e1,
restaurant,Dapur Umum,warung makan Paguntaka,"Jl. Aji Putra, rt 04, Sesayap, Kec. Sesayap Hilir, Kabupaten Tana Tidung, Kalimantan Utara 77152","rt 04, Sesayap, Kec. Sesayap Hilir, Kabupaten Tana Tidung",KALIMANTAN UTARA,77152.0,Indonesia,,,,3.5828628,117.0073104,https://maps.google.com/?cid=0x0:0x46662198786431d7,
restaurant,Toko Makanan,Food Court Tana Tidung,"JV5X+3HG, Jl. Wisma, Tideng Pale, Kec. Sesayap, Kabupaten Tana Tidung, Kalimantan Utara 77152","Jl. Wisma, Tideng Pale, Kec. Sesayap, Kabupaten Tana Tidung",KALIMANTAN UTARA,77152.0,Indonesia,,,,3.607681,116.8989559,https://maps.google.com/?cid=0x0:0xa1e7e75aff7438b7,
restaurant,Rumah Makan,Warung Gunung,"Tideng Pale Tim., Kec. Sesayap, Kabupaten Tana Tidung, Kalimantan Utara 77152","Kec. Sesayap, Kabupaten Tana Tidung",KALIMANTAN UTARA,77152.0,Indonesia,82158952278.0,,,3.6087958,116.9046083,https://maps.google.com/?cid=0x0:0x10904affd6318dad,
restaurant,Restoran,Warung barokah,"F2C3+4H7, Kujau, Kec. Sesayap, Kabupaten Tana Tidung, Kalimantan Utara 77152","Kujau, Kec. Sesayap, Kabupaten Tana Tidung",KALIMANTAN UTARA,77152.0,Indonesia,81255653487.0,,,3.4702772,117.0039191,https://maps.google.com/?cid=0x0:0x2e510b8fa698a47a,
restaurant,Rumah Makan,Warung Barokah,"HX6G+WP, Seludau, Kec. Sesayap Hilir, Kabupaten Tana Tidung, Kalimantan Utara","Kabupaten Tana Tidung, Kalimantan Utara",KALIMANTAN UTARA,,Indonesia,,,,3.562333,116.9768305,https://maps.google.com/?cid=0x0:0x51ed6532dfc79ceb,
restaurant,Rumah Makan,Tahu Tek KTT,"JW56+WQ9, Jl. Jend. Sudirman, Tideng Pale Tim., Kec. Sesayap, Kabupaten Tana Tidung, Kalimantan Utara 77152","Jl. Jend. Sudirman, Tideng Pale Tim., Kec. Sesayap, Kabupaten Tana Tidung",KALIMANTAN UTARA,77152.0,Indonesia,,,,3.6097894,116.9119918,https://maps.google.com/?cid=0x0:0x46c1213044a3c447,
restaurant,Rumah Makan,warung makan monggo monggo,"JW53+64W, Tideng Pale, Kec. Sesayap, Kabupaten Tana Tidung, Kalimantan Utara 77152","Tideng Pale, Kec. Sesayap, Kabupaten Tana Tidung",KALIMANTAN UTARA,77152.0,Indonesia,,,,3.6081059,116.9028414,https://maps.google.com/?cid=0x0:0xdabdad7b074eef14,
restaurant,Kedai Kopi,Warna Senja Cafe,"JW42+V9X, Jl. TMD, Tideng Pale, Kec. Sesayap, Kabupaten Tana Tidung, Kalimantan Utara 77152","Jl. TMD, Tideng Pale, Kec. Sesayap, Kabupaten Tana Tidung",KALIMANTAN UTARA,77152.0,Indonesia,,,,3.6072721,116.9010335,https://maps.google.com/?cid=0x0:0xf2330c73815fb92c,
restaurant,Jawa Tengah,Warung Oma Zhafran,"Samping Pangkalan Gass 3kg, Jl. Padat Karya, Sebidai, Kec. Sesayap, Kabupaten Tana Tidung, Kalimantan Utara 77152","Jl. Padat Karya, Sebidai, Kec. Sesayap, Kabupaten Tana Tidung",KALIMANTAN UTARA,77152.0,Indonesia,85350893712.0,,,3.5998444,116.9205025,https://maps.google.com/?cid=0x0:0x82ef5b4426547507,
restaurant,Restoran,Warung Sederhana,"HX7H+68R, Jl. Astrali, Sesayap, Kec. Sesayap Hilir, Kabupaten Tana Tidung, Kalimantan Utara 77152","Jl. Astrali, Sesayap, Kec. Sesayap Hilir, Kabupaten Tana Tidung",KALIMANTAN UTARA,77152.0,Indonesia,81253946873.0,,,3.5631005,116.978276,https://maps.google.com/?cid=0x0:0x6048f218736f6014,
restaurant,Kantor Pemerintah,Dapoer mama rani,"HWP6+4FF, Tideng Pale, Kec. Sesayap, Kabupaten Tana Tidung, Kalimantan Utara 77152","Tideng Pale, Kec. Sesayap, Kabupaten Tana Tidung",KALIMANTAN UTARA,77152.0,Indonesia,81347398679.0,,,3.5857356,116.9100458,https://maps.google.com/?cid=0x0:0xa2fb91e44b2c1be0,
restaurant,Padang,Warung (BULEK SIH) Lamongan,"JW54+QVF, Tideng Pale, Kec. Sesayap, Kabupaten Tana Tidung, Kalimantan Utara 77152","Tideng Pale, Kec. Sesayap, Kabupaten Tana Tidung",KALIMANTAN UTARA,77152.0,Indonesia,82151987352.0,,,3.6094344,116.9071661,https://maps.google.com/?cid=0x0:0xc9bd81da7953f88a,
restaurant,Soto,Gado Gado Warung Gresik,"JW38+6HW, Tideng Pale Tim., Kec. Sesayap, Kabupaten Tana Tidung, Kalimantan Utara 77152","Tideng Pale Tim., Kec. Sesayap, Kabupaten Tana Tidung",KALIMANTAN UTARA,77152.0,Indonesia,,,,3.6031025,116.9164412,https://maps.google.com/?cid=0x0:0xbe791bced9673399,
restaurant,Sarapan,Warung Kuning,"JW54+P42, Tideng Pale, Kec. Sesayap, Kabupaten Tana Tidung, Kalimantan Utara 77152","Tideng Pale, Kec. Sesayap, Kabupaten Tana Tidung",KALIMANTAN UTARA,77152.0,Indonesia,,,,3.60925,116.9052705,https://maps.google.com/?cid=0x0:0x51c19910774ca86,
restaurant,restaurant,Kalimantan Utara 77152,Kalimantan Utara,Kalimantan Utara,KALIMANTAN UTARA,,Indonesia,,,,3.4065813,117.0794082,https://maps.google.com/?cid=0x0:0xc52bb53e44e54a8,
restaurant,Dapur Umum,warung makan Paguntaka,"Jl. Aji Putra, rt 04, Sesayap, Kec. Sesayap Hilir, Kabupaten Tana Tidung, Kalimantan Utara 77152","rt 04, Sesayap, Kec. Sesayap Hilir, Kabupaten Tana Tidung",KALIMANTAN UTARA,77152.0,Indonesia,,,,3.5828628,117.0073104,https://maps.google.com/?cid=0x0:0x46662198786431d7,
restaurant,Rumah Makan,Depot Nyaman,"Jl. Jend. Sudirman, Tideng Pale Tim., Kec. Sesayap, Kabupaten Tana Tidung, Kalimantan Utara 77152","Tideng Pale Tim., Kec. Sesayap, Kabupaten Tana Tidung",KALIMANTAN UTARA,77152.0,Indonesia,82150818102.0,,,3.6100373,116.9112542,https://maps.google.com/?cid=0x0:0xdf148d3344b43a1,
restaurant,Rumah Makan,"Waroeng Eyang (Sesayap Hilir, KTT)","H2G2+5J7, Jl. Astrali, Sesayap, Kec. Sesayap Hilir, Kabupaten Tana Tidung, Kalimantan Utara 77152","Jl. Astrali, Sesayap, Kec. Sesayap Hilir, Kabupaten Tana Tidung",KALIMANTAN UTARA,77152.0,Indonesia,,,,3.5754095,117.0015459,https://maps.google.com/?cid=0x0:0x599e382c4ac37dae,
restaurant,Brunch,Warung AYU,"JW54+RWJ, Tideng Pale, Kec. Sesayap, Kabupaten Tana Tidung, Kalimantan Utara 77152","Tideng Pale, Kec. Sesayap, Kabupaten Tana Tidung",KALIMANTAN UTARA,77152.0,Indonesia,82210527674.0,,,3.6095769,116.9072567,https://maps.google.com/?cid=0x0:0x43b586ed378f5c2a,
restaurant,Restoran,Warung barokah,"F2C3+4H7, Kujau, Kec. Sesayap, Kabupaten Tana Tidung, Kalimantan Utara 77152","Kujau, Kec. Sesayap, Kabupaten Tana Tidung",KALIMANTAN UTARA,77152.0,Indonesia,81255653487.0,,,3.4702772,117.0039191,https://maps.google.com/?cid=0x0:0x2e510b8fa698a47a,
restaurant,Brunch,Warung Jawa Rasa,"JW53+77J, Tideng Pale, Kec. Sesayap, Kabupaten Tana Tidung, Kalimantan Utara 77152","Tideng Pale, Kec. Sesayap, Kabupaten Tana Tidung",KALIMANTAN UTARA,77152.0,Indonesia,,,,3.6082043,116.9031552,https://maps.google.com/?cid=0x0:0xbd921b9a197ea9a5,
restaurant,Rumah Makan,Warung Barokah,"HX6G+WP, Seludau, Kec. Sesayap Hilir, Kabupaten Tana Tidung, Kalimantan Utara","Kabupaten Tana Tidung, Kalimantan Utara",KALIMANTAN UTARA,,Indonesia,,,,3.562333,116.9768305,https://maps.google.com/?cid=0x0:0x51ed6532dfc79ceb,
restaurant,Toko Makanan,Food Court Tana Tidung,"JV5X+3HG, Jl. Wisma, Tideng Pale, Kec. Sesayap, Kabupaten Tana Tidung, Kalimantan Utara 77152","Jl. Wisma, Tideng Pale, Kec. Sesayap, Kabupaten Tana Tidung",KALIMANTAN UTARA,77152.0,Indonesia,,,,3.607681,116.8989559,https://maps.google.com/?cid=0x0:0xa1e7e75aff7438b7,
restaurant,Restoran,Warung makan Sudi Mampir,"F258+X45, Jl. Ahmad Yani, Kujau, Kec. Sesayap, Kabupaten Tana Tidung, Kalimantan Utara 77152","Jl. Ahmad Yani, Kujau, Kec. Sesayap, Kabupaten Tana Tidung",KALIMANTAN UTARA,77152.0,Indonesia,85753149625.0,,,3.4598776,117.015344,https://maps.google.com/?cid=0x0:0xd6b5cac4a8bbee43,
restaurant,Indonesia,RM. SALAMAH Khas Djogya,"HWV3+M22, Jl. Perintis, RT.06/RW.03, Tideng Pale, Kec. Sesayap, Kabupaten Tana Tidung, Kalimantan Utara 77152","Jl. Perintis, RT.06/RW.03, Tideng Pale, Kec. Sesayap, Kabupaten Tana Tidung",KALIMANTAN UTARA,77152.0,Indonesia,81254155754.0,,,3.5941405,116.9025071,https://maps.google.com/?cid=0x0:0xd0022df09f2f1653,
restaurant,Restoran,Waroeng dapoer/Qadan cell,"H2P3+J8Q, Jl. Beluan, Sesayap, Kec. Sesayap Hilir, Kabupaten Tana Tidung, Kalimantan Utara 77152","Jl. Beluan, Sesayap, Kec. Sesayap Hilir, Kabupaten Tana Tidung",KALIMANTAN UTARA,77152.0,Indonesia,85389632158.0,,,3.5865815,117.0033689,https://maps.google.com/?cid=0x0:0x7eb32908338d820b,
restaurant,Rumah Makan,Masakan Jawa,"Warung AREMA, Tideng Pale Tim., Kec. Sesayap, Kabupaten Tana Tidung, Kalimantan Utara 77152","Tideng Pale Tim., Kec. Sesayap, Kabupaten Tana Tidung",KALIMANTAN UTARA,77152.0,Indonesia,,,,3.6099437,116.9123023,https://maps.google.com/?cid=0x0:0xff1bce9d40845ccb,
restaurant,Restoran,RM MENEL,"F258+F8C, Jl. Ahmad Yani, Kujau, Kec. Sesayap, Kabupaten Tana Tidung, Kalimantan Utara 77152","Jl. Ahmad Yani, Kujau, Kec. Sesayap, Kabupaten Tana Tidung",KALIMANTAN UTARA,77152.0,Indonesia,,,,3.4586841,117.0157795,https://maps.google.com/?cid=0x0:0x597d5c25c7655ade,
restaurant,Rumah Makan,Tahu Tek KTT,"JW56+WQ9, Jl. Jend. Sudirman, Tideng Pale Tim., Kec. Sesayap, Kabupaten Tana Tidung, Kalimantan Utara 77152","Jl. Jend. Sudirman, Tideng Pale Tim., Kec. Sesayap, Kabupaten Tana Tidung",KALIMANTAN UTARA,77152.0,Indonesia,,,,3.6097894,116.9119918,https://maps.google.com/?cid=0x0:0x46c1213044a3c447,
restaurant,Brunch,Kedai Rasilia Biyu,"JW54+4PC, Jl. Tanah Abang, Tideng Pale, Kec. Sesayap, Kabupaten Tana Tidung, Kalimantan Utara 77152","Jl. Tanah Abang, Tideng Pale, Kec. Sesayap, Kabupaten Tana Tidung",KALIMANTAN UTARA,77152.0,Indonesia,,,,3.6078118,116.9067704,https://maps.google.com/?cid=0x0:0xb6747ef184e49445,
restaurant,Rumah Makan,Warung Makan Acil Umak,"Sepala Dalung, Kec. Sesayap Hilir, Kabupaten Tana Tidung, Kalimantan Utara 77152","Kec. Sesayap Hilir, Kabupaten Tana Tidung",KALIMANTAN UTARA,77152.0,Indonesia,82210105861.0,,,3.5836253,117.0077709,https://maps.google.com/?cid=0x0:0x5dc5d7448cd93a68,
restaurant,Sulawesi Selatan,Warung Coto Makassar,"JW2C+53R, Tim., Tideng Pale Tim., Kec. Sesayap, Kabupaten Tana Tidung, Kalimantan Utara 77152","Tim., Tideng Pale Tim., Kec. Sesayap, Kabupaten Tana Tidung",KALIMANTAN UTARA,77152.0,Indonesia,,,,3.6004861,116.9201554,https://maps.google.com/?cid=0x0:0x5066d43776360579,
restaurant,Rumah Makan,Rumah Makan Jaya Makmur,"F2M2+47F, Kujau, Kec. Sesayap, Kabupaten Tana Tidung, Kalimantan Utara 77152","Kujau, Kec. Sesayap, Kabupaten Tana Tidung",KALIMANTAN UTARA,77152.0,Indonesia,81352222759.0,,,3.4828209,117.0006609,https://maps.google.com/?cid=0x0:0x26adbda74d972a49,
restaurant,Rumah Makan,warung makan monggo monggo,"JW53+64W, Tideng Pale, Kec. Sesayap, Kabupaten Tana Tidung, Kalimantan Utara 77152","Tideng Pale, Kec. Sesayap, Kabupaten Tana Tidung",KALIMANTAN UTARA,77152.0,Indonesia,,,,3.6081059,116.9028414,https://maps.google.com/?cid=0x0:0xdabdad7b074eef14,
restaurant,Restoran,Warung Sederhana,"HX7H+68R, Jl. Astrali, Sesayap, Kec. Sesayap Hilir, Kabupaten Tana Tidung, Kalimantan Utara 77152","Jl. Astrali, Sesayap, Kec. Sesayap Hilir, Kabupaten Tana Tidung",KALIMANTAN UTARA,77152.0,Indonesia,81253946873.0,,,3.5631005,116.978276,https://maps.google.com/?cid=0x0:0x6048f218736f6014,
restaurant,Brunch,Warung AREMA,"Tideng Pale Tim., Kec. Sesayap, Kabupaten Tana Tidung, Kalimantan Utara 77152","Kec. Sesayap, Kabupaten Tana Tidung",KALIMANTAN UTARA,77152.0,Indonesia,,,,3.6099437,116.9123023,https://maps.google.com/?cid=0x0:0xdea2fe3c346a6a6d,
restaurant,Kedai Kopi,WARUNG MAKAN SEPUNTI,"Jl. Jend. Sudirman No.SIMPANG, RW.4, Tideng Pale Tim., Kec. Sesayap, Kabupaten Tana Tidung, Kalimantan Utara 77152","RW.4, Tideng Pale Tim., Kec. Sesayap, Kabupaten Tana Tidung",KALIMANTAN UTARA,77152.0,Indonesia,81349644681.0,,,3.6099069,116.9130408,https://maps.google.com/?cid=0x0:0x76c6aeb2edec59a,
restaurant,Padang,Warung (BULEK SIH) Lamongan,"JW54+QVF, Tideng Pale, Kec. Sesayap, Kabupaten Tana Tidung, Kalimantan Utara 77152","Tideng Pale, Kec. Sesayap, Kabupaten Tana Tidung",KALIMANTAN UTARA,77152.0,Indonesia,82151987352.0,,,3.6094344,116.9071661,https://maps.google.com/?cid=0x0:0xc9bd81da7953f88a,
restaurant,Restoran,Bakso Sinar Rahayu,"HX8R+GRR, Jl. Astrali, Sesayap, Kec. Sesayap Hilir, Kabupaten Tana Tidung, Kalimantan Utara 77152","Jl. Astrali, Sesayap, Kec. Sesayap Hilir, Kabupaten Tana Tidung",KALIMANTAN UTARA,77152.0,Indonesia,,,,3.5663589,116.9920088,https://maps.google.com/?cid=0x0:0x6dc99ca7e99b0db6,
restaurant,restaurant,Kec. Tana Lia,"Kabupaten Tana Tidung, Kalimantan Utara","Kabupaten Tana Tidung, Kalimantan Utara",KALIMANTAN UTARA,,Indonesia,,,,3.6670469,117.5377612,https://maps.google.com/?cid=0x0:0x6e14a7898117f78f,
restaurant,Dapur Umum,Rumah Roti Tana Lia,"Jalan Tarakan Jaya No.RT 003, Sambungan, Tana Lia, Tana Tidung Regency, North Kalimantan 77453","Sambungan, Tana Lia, Tana Tidung Regency",KALIMANTAN UTARA,77453.0,Indonesia,81351986754.0,,,3.6738611,117.5387824,https://maps.google.com/?cid=0x0:0xb137a1ec58a608a4,
restaurant,Kafe,FAMILY CAFE,"PHPF+868, Jalan Imam Abdullah Desa Barat, Tanah Merah, Tana Lia, Tana Tidung Regency, North Kalimantan 77453","Jalan Imam Abdullah Desa Barat, Tanah Merah, Tana Lia, Tana Tidung Regency",KALIMANTAN UTARA,77453.0,Indonesia,82155665523.0,,,3.7357868,117.5730639,https://maps.google.com/?cid=0x0:0x1c3ffc9c62f3cb2d,
restaurant,Kafe,CAFE,"JALAN IMAM ABDULLAH No.RT 05, Tanah Merah, BARAT, Kabupaten Tana Tidung, Kalimantan Utara 77451","Tanah Merah, BARAT, Kabupaten Tana Tidung",KALIMANTAN UTARA,77451.0,Indonesia,82354139930.0,,,3.7000065,117.5604039,https://maps.google.com/?cid=0x0:0x22c2b4567122281b,
restaurant,Perhimpunan Pengembang Perumahan,Tanah Merah Barat,"MGCF+P75, Unnamed Road, Tanah Merah, Kec. Tana Lia, Kabupaten Tana Tidung, Kalimantan Utara 77453","Unnamed Road, Tanah Merah, Kec. Tana Lia, Kabupaten Tana Tidung",KALIMANTAN UTARA,77453.0,Indonesia,,,,3.6717517,117.5232399,https://maps.google.com/?cid=0x0:0xb0b9aac8687241de,
restaurant,Dapur Umum,Isah kabupaten tana tidung,"MG8Q+R46, Tanah Merah, Kec. Tana Lia, Kabupaten Tana Tidung, Kalimantan Utara","Kabupaten Tana Tidung, Kalimantan Utara",KALIMANTAN UTARA,,Indonesia,,,,3.6670469,117.5377612,https://maps.google.com/?cid=0x0:0x64d21b345e0fdd71,
restaurant,Kafe,Angkringan BuMDes BEBILIN TAKA,"jalan hanafiah No.rt 02, Tanah Merah, Kec. Tana Lia, Kabupaten Tana Tidung, Kalimantan Utara 77453","Tanah Merah, Kec. Tana Lia, Kabupaten Tana Tidung",KALIMANTAN UTARA,77453.0,Indonesia,82255856163.0,,,3.7357868,117.5730639,https://maps.google.com/?cid=0x0:0xd13075f53d422613,
restaurant,restaurant,Warung Makan Sri 777,"MG9Q+852, Tanah Merah, Kec. Tana Lia, Kabupaten Tana Tidung, Kalimantan Utara 77453","Tanah Merah, Kec. Tana Lia, Kabupaten Tana Tidung",KALIMANTAN UTARA,77453.0,Indonesia,,,,3.6682544,117.5378866,https://maps.google.com/?cid=0x0:0xf5497d1d8044b802,
restaurant,Kantor Pemerintahan Wilayah,Polsek Tana Lia,"Jl. Tarakan Jaya No.02, Sambungan, Kec. Tana Lia, Kabupaten Tana Tidung, Kalimantan Utara 77453","Sambungan, Kec. Tana Lia, Kabupaten Tana Tidung",KALIMANTAN UTARA,77453.0,Indonesia,,,,3.6715802,117.5383181,https://maps.google.com/?cid=0x0:0xcacd2cc5d2454e1a,
restaurant,restaurant,nasi kuning,"MG9J+RGQ, Tanah Merah, Kec. Tana Lia, Kabupaten Tana Tidung, Kalimantan Utara 77453","Tanah Merah, Kec. Tana Lia, Kabupaten Tana Tidung",KALIMANTAN UTARA,77453.0,Indonesia,,,,3.6695834,117.531353,https://maps.google.com/?cid=0x0:0xaa52dcfdcdb4bb11,
restaurant,Dapur Umum,Warung Makan Lia,"Jl. Bahaudin Musa, Bantuil, Kec. Cerbon, Kabupaten Barito Kuala, Kalimantan Selatan 70512","Bantuil, Kec. Cerbon, Kabupaten Barito Kuala",KALIMANTAN UTARA,70512.0,Indonesia,82154909797.0,,,-3.0132569,114.7806564,https://maps.google.com/?cid=0x0:0x5d4f248be7b20d65,
cafe,cafe,Kec. Betayau,"Kabupaten Tana Tidung, Kalimantan Utara","Kabupaten Tana Tidung, Kalimantan Utara",KALIMANTAN UTARA,,Indonesia,,,,3.4907666,116.9967322,https://maps.google.com/?cid=0x0:0xf200f24085399f93,
cafe,Kedai Kopi,Warung Kopi Butet,"JW53+G3W, Tideng Pale, Kec. Sesayap, Kabupaten Tana Tidung, Kalimantan Utara 77152","Tideng Pale, Kec. Sesayap, Kabupaten Tana Tidung",KALIMANTAN UTARA,77152.0,Indonesia,,,,3.6088517,116.9026984,https://maps.google.com/?cid=0x0:0x1c77daa5cc67a2e1,
cafe,Kafe,Warkop Pujon,"F295+649, Desa Maning, Buang Baru, Kec. Betayau, Kabupaten Tana Tidung, Kalimantan Utara 77152","Desa Maning, Buang Baru, Kec. Betayau, Kabupaten Tana Tidung",KALIMANTAN UTARA,77152.0,Indonesia,81521502296.0,,,3.4680302,117.0078643,https://maps.google.com/?cid=0x0:0xd5fe3c7fa5f9b721,
cafe,Kedai Kopi,Warna Senja Cafe,"JW42+V9X, Jl. TMD, Tideng Pale, Kec. Sesayap, Kabupaten Tana Tidung, Kalimantan Utara 77152","Jl. TMD, Tideng Pale, Kec. Sesayap, Kabupaten Tana Tidung",KALIMANTAN UTARA,77152.0,Indonesia,,,,3.6072721,116.9010335,https://maps.google.com/?cid=0x0:0xf2330c73815fb92c,
cafe,Kedai Kopi,Jamu instan,"Jln sungai bentunai No.RT 5, Kujau, Kec. Betayau, Kabupaten Tana Tidung, Kalimantan Utara 77152","Kujau, Kec. Betayau, Kabupaten Tana Tidung",KALIMANTAN UTARA,77152.0,Indonesia,81649482075.0,,,3.4650427,117.0026417,https://maps.google.com/?cid=0x0:0x8f42302f9c5b2be2,
cafe,Rumah Makan,Warung makan mas gombloh,"Jl.ahmad yani,maning rt 2, Kujau, Kec. Betayau, Kabupaten Tana Tidung, Kalimantan Utara 77152","Kujau, Kec. Betayau, Kabupaten Tana Tidung",KALIMANTAN UTARA,77152.0,Indonesia,85392080523.0,,,3.4609146,117.0144357,https://maps.google.com/?cid=0x0:0x65d0b61a178701e,
cafe,Kedai Kopi,Home's Cafe KTT - Rooftop,"JW26+JX8, Tideng Pale, Kec. Sesayap, Kabupaten Tana Tidung, Kalimantan Utara 77152","Tideng Pale, Kec. Sesayap, Kabupaten Tana Tidung",KALIMANTAN UTARA,77152.0,Indonesia,8115251283.0,,,3.6015455,116.9124375,https://maps.google.com/?cid=0x0:0x741402f2b1570b45,
cafe,Restoran,Warung Makan wong solo,"Jl. Poros Kaltim, Kujau, Kec. Betayau, Kabupaten Tana Tidung, Kalimantan Utara 77152","Kujau, Kec. Betayau, Kabupaten Tana Tidung",KALIMANTAN UTARA,77152.0,Indonesia,81229778205.0,,,3.4615487,117.0117808,https://maps.google.com/?cid=0x0:0x44dfebfda3643d81,
cafe,Kedai Kopi,UP COFFEE,"HX7H+68P, Jl. Astrali, Sesayap, Kec. Sesayap Hilir, Kabupaten Tana Tidung, Kalimantan Utara 77152","Jl. Astrali, Sesayap, Kec. Sesayap Hilir, Kabupaten Tana Tidung",KALIMANTAN UTARA,77152.0,Indonesia,82251783712.0,,,3.5630974,116.9783257,https://maps.google.com/?cid=0x0:0x7cd494038c2a479a,
cafe,Kafe,Warkop Luxi Jaya,"Jl. Ahmad Yani No.km. 1, Tideng Pale, Kec. Sesayap, Kabupaten Tana Tidung, Kalimantan Utara 77152","Tideng Pale, Kec. Sesayap, Kabupaten Tana Tidung",KALIMANTAN UTARA,77152.0,Indonesia,85350395311.0,,,3.5985039,116.9014724,https://maps.google.com/?cid=0x0:0x726dcbcc0ee977a7,
cafe,Kedai Kopi,F.O cafe,"JW29+9MM, Jl. Padat Karya, Tideng Pale Tim., Kec. Sesayap, Kabupaten Tana Tidung, Kalimantan Utara 77152","Jl. Padat Karya, Tideng Pale Tim., Kec. Sesayap, Kabupaten Tana Tidung",KALIMANTAN UTARA,77152.0,Indonesia,82254522637.0,,,3.6009539,116.919166,https://maps.google.com/?cid=0x0:0x9b10eb42db4b73b6,
cafe,Kedai Kopi,KAINA COFFE,"Jl. Padat Karya, Tideng Pale Tim., Kec. Sesayap, Kabupaten Tana Tidung, Kalimantan Utara 77152","Tideng Pale Tim., Kec. Sesayap, Kabupaten Tana Tidung",KALIMANTAN UTARA,77152.0,Indonesia,82253412313.0,,,3.6075792,116.9133971,https://maps.google.com/?cid=0x0:0x5e09cbecede30083,
cafe,Kedai Kopi,Kopilusion,"depan lapangan bola, jl.jendral sudirman no:003 rt:7, Tideng Pale, Kec. Sesayap, Kabupaten Tana Tidung, Kalimantan Utara 77151","jl.jendral sudirman no:003 rt:7, Tideng Pale, Kec. Sesayap, Kabupaten Tana Tidung",KALIMANTAN UTARA,77151.0,Indonesia,82230267604.0,,,3.6099704,116.9100937,https://maps.google.com/?cid=0x0:0xbc79c49485ecf9b0,
cafe,Kedai Kopi,Warkop Nusantara,"JW66+6X9, Tideng Pale Tim., Kec. Sesayap, Kabupaten Tana Tidung, Kalimantan Utara 77152","Tideng Pale Tim., Kec. Sesayap, Kabupaten Tana Tidung",KALIMANTAN UTARA,77152.0,Indonesia,85256813123.0,,,3.6105412,116.912498,https://maps.google.com/?cid=0x0:0xb4b97aa5ac1aa91d,
cafe,Kafe,WARKOP CATUR KTT,"Jl. Padat Karya, Tideng Pale Tim., Kec. Sesayap, Kabupaten Tana Tidung, Kalimantan Utara 77152","Tideng Pale Tim., Kec. Sesayap, Kabupaten Tana Tidung",KALIMANTAN UTARA,77152.0,Indonesia,81350033133.0,,,3.608325,116.91345,https://maps.google.com/?cid=0x0:0x3a3cb2fe1b6f9e7e,
cafe,Kantor Pemerintah,Dapoer mama rani,"HWP6+4FF, Tideng Pale, Kec. Sesayap, Kabupaten Tana Tidung, Kalimantan Utara 77152","Tideng Pale, Kec. Sesayap, Kabupaten Tana Tidung",KALIMANTAN UTARA,77152.0,Indonesia,81347398679.0,,,3.5857356,116.9100458,https://maps.google.com/?cid=0x0:0xa2fb91e44b2c1be0,
cafe,Kafe,KOPIRENG,"JW57+VMW, Jl. Manunggal, Tideng Pale Tim., Kec. Sesayap, Kabupaten Tana Tidung, Kalimantan Utara 77152","Jl. Manunggal, Tideng Pale Tim., Kec. Sesayap, Kabupaten Tana Tidung",KALIMANTAN UTARA,77152.0,Indonesia,85248918471.0,,,3.6097479,116.9142106,https://maps.google.com/?cid=0x0:0xe5c3554abb24426e,
cafe,Restoran,Warung barokah,"F2C3+4H7, Kujau, Kec. Sesayap, Kabupaten Tana Tidung, Kalimantan Utara 77152","Kujau, Kec. Sesayap, Kabupaten Tana Tidung",KALIMANTAN UTARA,77152.0,Indonesia,81255653487.0,,,3.4702772,117.0039191,https://maps.google.com/?cid=0x0:0x2e510b8fa698a47a,
cafe,Restoran,Warung makan Cakra,"F285+M72, Kujau, Kec. Betayau, Kabupaten Tana Tidung, Kalimantan Utara 77152","Kujau, Kec. Betayau, Kabupaten Tana Tidung",KALIMANTAN UTARA,77152.0,Indonesia,,,,3.4666311,117.0081305,https://maps.google.com/?cid=0x0:0x54db53d99f8770dc,
cafe,cafe,Kaisar Belumu Guest house  Caferesto,"Jl. Ahmad Yani No.01, Tideng Pale, Kec. Sesayap, Kabupaten Tana Tidung, Kalimantan Utara 77152","Tideng Pale, Kec. Sesayap, Kabupaten Tana Tidung",KALIMANTAN UTARA,77152.0,Indonesia,,,,3.6020958,116.9027998,https://maps.google.com/?cid=0x0:0xf4222674a23254a,
cafe,Tujuan Wisata,Objek Wisata Air Terjun Gunung Rian,"GR5G+6CX, Rian, Kec. Sesayap, Kabupaten Tana Tidung, Kalimantan Utara 77152","Rian, Kec. Sesayap, Kabupaten Tana Tidung",KALIMANTAN UTARA,77152.0,Indonesia,,,,3.5081035,116.8261118,https://maps.google.com/?cid=0x0:0xe209d1f9b7e74d0b,
cafe,Toko Makanan,ICE NYOKLAT,"Imbayud Taka, Pasar, Tideng Pale, Sesayap, Tana Tidung Regency, North Kalimantan 77152","Pasar, Tideng Pale, Sesayap, Tana Tidung Regency",KALIMANTAN UTARA,77152.0,Indonesia,82254355163.0,,,3.6098598,116.9087228,https://maps.google.com/?cid=0x0:0xc2485db85ddc5f21,
cafe,Restoran,Warung makan Sudi Mampir,"F258+X45, Jl. Ahmad Yani, Kujau, Kec. Sesayap, Kabupaten Tana Tidung, Kalimantan Utara 77152","Jl. Ahmad Yani, Kujau, Kec. Sesayap, Kabupaten Tana Tidung",KALIMANTAN UTARA,77152.0,Indonesia,85753149625.0,,,3.4598776,117.015344,https://maps.google.com/?cid=0x0:0xd6b5cac4a8bbee43,
cafe,Kafe,Es Teh Ndeso,"Kujau, Kec. Betayau, Kabupaten Tana Tidung, Kalimantan Utara 77152","Kec. Betayau, Kabupaten Tana Tidung",KALIMANTAN UTARA,77152.0,Indonesia,,,,3.4666026,117.0081486,https://maps.google.com/?cid=0x0:0x35ab007097eabdc9,
cafe,Rumah Makan,Warung Makan Tulung Agung,"FXQX+7FW, Jl. Ahmad Yani, Kujau, Kec. Betayau, Kabupaten Tana Tidung, Kalimantan Utara 77152","Jl. Ahmad Yani, Kujau, Kec. Betayau, Kabupaten Tana Tidung",KALIMANTAN UTARA,77152.0,Indonesia,,,,3.4882368,116.9986977,https://maps.google.com/?cid=0x0:0xa33e2a20df082fa7,
cafe,Restoran,Rumah Makan Assalamu'alaikum,"Kujau, Kec. Betayau, Kabupaten Tana Tidung, Kalimantan Utara 77152","Kec. Betayau, Kabupaten Tana Tidung",KALIMANTAN UTARA,77152.0,Indonesia,81251027775.0,,,3.4882448,116.994187,https://maps.google.com/?cid=0x0:0x859ecdf8185771c9,
cafe,Rumah Makan,Rumah Makan Jaya Makmur,"F2M2+47F, Kujau, Kec. Sesayap, Kabupaten Tana Tidung, Kalimantan Utara 77152","Kujau, Kec. Sesayap, Kabupaten Tana Tidung",KALIMANTAN UTARA,77152.0,Indonesia,81352222759.0,,,3.4828209,117.0006609,https://maps.google.com/?cid=0x0:0x26adbda74d972a49,
cafe,cafe,Warung makan betayau,"F295+822, Kujau, Kec. Betayau, Kabupaten Tana Tidung, Kalimantan Utara 77152","Kujau, Kec. Betayau, Kabupaten Tana Tidung",KALIMANTAN UTARA,77152.0,Indonesia,,,,3.4682748,117.0075146,https://maps.google.com/?cid=0x0:0x5515d3da4024917c,
cafe,cafe,Kec. Sesayap,"Kabupaten Tana Tidung, Kalimantan Utara","Kabupaten Tana Tidung, Kalimantan Utara",KALIMANTAN UTARA,,Indonesia,,,,3.6087268,116.902766,https://maps.google.com/?cid=0x0:0xf236a712c1f65dad,
cafe,Kedai Kopi,Warna Senja Cafe,"JW42+V9X, Jl. TMD, Tideng Pale, Kec. Sesayap, Kabupaten Tana Tidung, Kalimantan Utara 77152","Jl. TMD, Tideng Pale, Kec. Sesayap, Kabupaten Tana Tidung",KALIMANTAN UTARA,77152.0,Indonesia,,,,3.6072721,116.9010335,https://maps.google.com/?cid=0x0:0xf2330c73815fb92c,
cafe,Kedai Kopi,Warung Kopi Butet,"JW53+G3W, Tideng Pale, Kec. Sesayap, Kabupaten Tana Tidung, Kalimantan Utara 77152","Tideng Pale, Kec. Sesayap, Kabupaten Tana Tidung",KALIMANTAN UTARA,77152.0,Indonesia,,,,3.6088517,116.9026984,https://maps.google.com/?cid=0x0:0x1c77daa5cc67a2e1,
cafe,Kedai Kopi,UP COFFEE,"HX7H+68P, Jl. Astrali, Sesayap, Kec. Sesayap Hilir, Kabupaten Tana Tidung, Kalimantan Utara 77152","Jl. Astrali, Sesayap, Kec. Sesayap Hilir, Kabupaten Tana Tidung",KALIMANTAN UTARA,77152.0,Indonesia,82251783712.0,,,3.5630974,116.9783257,https://maps.google.com/?cid=0x0:0x7cd494038c2a479a,
cafe,Kedai Kopi,Kopilusion,"depan lapangan bola, jl.jendral sudirman no:003 rt:7, Tideng Pale, Kec. Sesayap, Kabupaten Tana Tidung, Kalimantan Utara 77151","jl.jendral sudirman no:003 rt:7, Tideng Pale, Kec. Sesayap, Kabupaten Tana Tidung",KALIMANTAN UTARA,77151.0,Indonesia,82230267604.0,,,3.6099704,116.9100937,https://maps.google.com/?cid=0x0:0xbc79c49485ecf9b0,
cafe,Sesuai untuk keluarga,My Boss Town Cafe and Resto,"JW42+X5X, Jl. Wisma, Tideng Pale, Kec. Sesayap, Kabupaten Tana Tidung, Kalimantan Utara 77152","Jl. Wisma, Tideng Pale, Kec. Sesayap, Kabupaten Tana Tidung",KALIMANTAN UTARA,77152.0,Indonesia,82353106446.0,,,3.6076355,116.90065,https://maps.google.com/?cid=0x0:0xdb2e8b5acb34de4,
cafe,Rumah Makan,Depot Nyaman,"Jl. Jend. Sudirman, Tideng Pale Tim., Kec. Sesayap, Kabupaten Tana Tidung, Kalimantan Utara 77152","Tideng Pale Tim., Kec. Sesayap, Kabupaten Tana Tidung",KALIMANTAN UTARA,77152.0,Indonesia,82150818102.0,,,3.6100373,116.9112542,https://maps.google.com/?cid=0x0:0xdf148d3344b43a1,
cafe,Kedai Kopi,F.O cafe,"JW29+9MM, Jl. Padat Karya, Tideng Pale Tim., Kec. Sesayap, Kabupaten Tana Tidung, Kalimantan Utara 77152","Jl. Padat Karya, Tideng Pale Tim., Kec. Sesayap, Kabupaten Tana Tidung",KALIMANTAN UTARA,77152.0,Indonesia,82254522637.0,,,3.6009539,116.919166,https://maps.google.com/?cid=0x0:0x9b10eb42db4b73b6,
cafe,Kedai Kopi,Warkop Nusantara,"JW66+6X9, Tideng Pale Tim., Kec. Sesayap, Kabupaten Tana Tidung, Kalimantan Utara 77152","Tideng Pale Tim., Kec. Sesayap, Kabupaten Tana Tidung",KALIMANTAN UTARA,77152.0,Indonesia,85256813123.0,,,3.6105412,116.912498,https://maps.google.com/?cid=0x0:0xb4b97aa5ac1aa91d,
cafe,Kedai Kopi,Mix_cafe,"JW57+V6C, Jl. Mulawarman, Tideng Pale Tim., Kec. Sesayap, Kabupaten Tana Tidung, Kalimantan Utara 77152","Jl. Mulawarman, Tideng Pale Tim., Kec. Sesayap, Kabupaten Tana Tidung",KALIMANTAN UTARA,77152.0,Indonesia,82155677743.0,,,3.6096975,116.9130125,https://maps.google.com/?cid=0x0:0xbe40b83817e95d95,
cafe,Kafe,KOPIRENG,"JW57+VMW, Jl. Manunggal, Tideng Pale Tim., Kec. Sesayap, Kabupaten Tana Tidung, Kalimantan Utara 77152","Jl. Manunggal, Tideng Pale Tim., Kec. Sesayap, Kabupaten Tana Tidung",KALIMANTAN UTARA,77152.0,Indonesia,85248918471.0,,,3.6097479,116.9142106,https://maps.google.com/?cid=0x0:0xe5c3554abb24426e,
cafe,Kedai Kopi,KAINA COFFE,"Jl. Padat Karya, Tideng Pale Tim., Kec. Sesayap, Kabupaten Tana Tidung, Kalimantan Utara 77152","Tideng Pale Tim., Kec. Sesayap, Kabupaten Tana Tidung",KALIMANTAN UTARA,77152.0,Indonesia,82253412313.0,,,3.6075792,116.9133971,https://maps.google.com/?cid=0x0:0x5e09cbecede30083,
cafe,Kafe,SEPUNTI KOPI,"JW54+P64, Jl. Jend. Sudirman, Tideng Pale, Kec. Sesayap, Kabupaten Tana Tidung, Kalimantan Utara 77152","Jl. Jend. Sudirman, Tideng Pale, Kec. Sesayap, Kabupaten Tana Tidung",KALIMANTAN UTARA,77152.0,Indonesia,,,,3.6091385,116.9055488,https://maps.google.com/?cid=0x0:0x5136b67b66d222be,
cafe,Toko Makanan,ICE NYOKLAT,"Imbayud Taka, Pasar, Tideng Pale, Sesayap, Tana Tidung Regency, North Kalimantan 77152","Pasar, Tideng Pale, Sesayap, Tana Tidung Regency",KALIMANTAN UTARA,77152.0,Indonesia,82254355163.0,,,3.6098598,116.9087228,https://maps.google.com/?cid=0x0:0xc2485db85ddc5f21,
cafe,Kafe,Warkop Luxi Jaya,"Jl. Ahmad Yani No.km. 1, Tideng Pale, Kec. Sesayap, Kabupaten Tana Tidung, Kalimantan Utara 77152","Tideng Pale, Kec. Sesayap, Kabupaten Tana Tidung",KALIMANTAN UTARA,77152.0,Indonesia,85350395311.0,,,3.5985039,116.9014724,https://maps.google.com/?cid=0x0:0x726dcbcc0ee977a7,
cafe,Kedai Kopi,Warung kopi AMI,"Jl. Tanah Abang No.44, RT.3/RW.2, Tideng Pale, Kec. Sesayap, Kabupaten Tana Tidung, Kalimantan Utara 77152","RT.3/RW.2, Tideng Pale, Kec. Sesayap, Kabupaten Tana Tidung",KALIMANTAN UTARA,77152.0,Indonesia,,,,3.6082511,116.9033183,https://maps.google.com/?cid=0x0:0xe5a5a4f31e526851,
cafe,Sarapan,Kedai Rafi,"JW38+8F5, Jl. Padat Karya, Tideng Pale Tim., Kec. Sesayap, Kabupaten Tana Tidung, Kalimantan Utara 77152","Jl. Padat Karya, Tideng Pale Tim., Kec. Sesayap, Kabupaten Tana Tidung",KALIMANTAN UTARA,77152.0,Indonesia,,,,3.60352,116.9159475,https://maps.google.com/?cid=0x0:0x88702c499e9b4f40,
cafe,Kantor Pemerintah,Dapoer mama rani,"HWP6+4FF, Tideng Pale, Kec. Sesayap, Kabupaten Tana Tidung, Kalimantan Utara 77152","Tideng Pale, Kec. Sesayap, Kabupaten Tana Tidung",KALIMANTAN UTARA,77152.0,Indonesia,81347398679.0,,,3.5857356,116.9100458,https://maps.google.com/?cid=0x0:0xa2fb91e44b2c1be0,
cafe,Kedai Kopi,ADA COFFEE,"Sebidai, Kec. Sesayap, Kabupaten Tana Tidung, Kalimantan Utara","Kabupaten Tana Tidung, Kalimantan Utara",KALIMANTAN UTARA,,Indonesia,82158118803.0,,,3.5951911,116.9247402,https://maps.google.com/?cid=0x0:0x57f5ebd23b8216ec,
cafe,Kedai Kopi,Coffe Janji Kamu,"JW53+73Q, Jl. Ahmad Yani, Tideng Pale, Kec. Sesayap, Kabupaten Tana Tidung, Kalimantan Utara 77152","Jl. Ahmad Yani, Tideng Pale, Kec. Sesayap, Kabupaten Tana Tidung",KALIMANTAN UTARA,77152.0,Indonesia,,,,3.608219,116.9027231,https://maps.google.com/?cid=0x0:0xfd408387a755c0ee,
cafe,cafe,Kaisar Belumu Guest house  Caferesto,"Jl. Ahmad Yani No.01, Tideng Pale, Kec. Sesayap, Kabupaten Tana Tidung, Kalimantan Utara 77152","Tideng Pale, Kec. Sesayap, Kabupaten Tana Tidung",KALIMANTAN UTARA,77152.0,Indonesia,,,,3.6020958,116.9027998,https://maps.google.com/?cid=0x0:0xf4222674a23254a,
cafe,Tujuan Wisata,Objek Wisata Air Terjun Gunung Rian,"GR5G+6CX, Rian, Kec. Sesayap, Kabupaten Tana Tidung, Kalimantan Utara 77152","Rian, Kec. Sesayap, Kabupaten Tana Tidung",KALIMANTAN UTARA,77152.0,Indonesia,,,,3.5081035,116.8261118,https://maps.google.com/?cid=0x0:0xe209d1f9b7e74d0b,
cafe,Sarapan,Kedai Nan Bira,"Jl. Aji putra, 77152, Sesayap, Kec. Sesayap Hilir, Kabupaten Tana Tidung, Kalimantan Utara 77152","77152, Sesayap, Kec. Sesayap Hilir, Kabupaten Tana Tidung",KALIMANTAN UTARA,77152.0,Indonesia,82347374144.0,,,3.5821578,117.0066811,https://maps.google.com/?cid=0x0:0xb94b951c37415d8,
cafe,cafe,Kalimantan Utara 77152,Kalimantan Utara,Kalimantan Utara,KALIMANTAN UTARA,,Indonesia,,,,3.4065813,117.0794082,https://maps.google.com/?cid=0x0:0xc52bb53e44e54a8,
cafe,Kedai Kopi,Warna Senja Cafe,"JW42+V9X, Jl. TMD, Tideng Pale, Kec. Sesayap, Kabupaten Tana Tidung, Kalimantan Utara 77152","Jl. TMD, Tideng Pale, Kec. Sesayap, Kabupaten Tana Tidung",KALIMANTAN UTARA,77152.0,Indonesia,,,,3.6072721,116.9010335,https://maps.google.com/?cid=0x0:0xf2330c73815fb92c,
cafe,Kedai Kopi,UP COFFEE,"HX7H+68P, Jl. Astrali, Sesayap, Kec. Sesayap Hilir, Kabupaten Tana Tidung, Kalimantan Utara 77152","Jl. Astrali, Sesayap, Kec. Sesayap Hilir, Kabupaten Tana Tidung",KALIMANTAN UTARA,77152.0,Indonesia,82251783712.0,,,3.5630974,116.9783257,https://maps.google.com/?cid=0x0:0x7cd494038c2a479a,
cafe,Kedai Kopi,F.O cafe,"JW29+9MM, Jl. Padat Karya, Tideng Pale Tim., Kec. Sesayap, Kabupaten Tana Tidung, Kalimantan Utara 77152","Jl. Padat Karya, Tideng Pale Tim., Kec. Sesayap, Kabupaten Tana Tidung",KALIMANTAN UTARA,77152.0,Indonesia,82254522637.0,,,3.6009539,116.919166,https://maps.google.com/?cid=0x0:0x9b10eb42db4b73b6,
cafe,Kedai Kopi,Warung Kopi Butet,"JW53+G3W, Tideng Pale, Kec. Sesayap, Kabupaten Tana Tidung, Kalimantan Utara 77152","Tideng Pale, Kec. Sesayap, Kabupaten Tana Tidung",KALIMANTAN UTARA,77152.0,Indonesia,,,,3.6088517,116.9026984,https://maps.google.com/?cid=0x0:0x1c77daa5cc67a2e1,
cafe,Sesuai untuk keluarga,My Boss Town Cafe and Resto,"JW42+X5X, Jl. Wisma, Tideng Pale, Kec. Sesayap, Kabupaten Tana Tidung, Kalimantan Utara 77152","Jl. Wisma, Tideng Pale, Kec. Sesayap, Kabupaten Tana Tidung",KALIMANTAN UTARA,77152.0,Indonesia,82353106446.0,,,3.6076355,116.90065,https://maps.google.com/?cid=0x0:0xdb2e8b5acb34de4,
cafe,Rumah Makan,Depot Nyaman,"Jl. Jend. Sudirman, Tideng Pale Tim., Kec. Sesayap, Kabupaten Tana Tidung, Kalimantan Utara 77152","Tideng Pale Tim., Kec. Sesayap, Kabupaten Tana Tidung",KALIMANTAN UTARA,77152.0,Indonesia,82150818102.0,,,3.6100373,116.9112542,https://maps.google.com/?cid=0x0:0xdf148d3344b43a1,
cafe,Kedai Kopi,Mix_cafe,"JW57+V6C, Jl. Mulawarman, Tideng Pale Tim., Kec. Sesayap, Kabupaten Tana Tidung, Kalimantan Utara 77152","Jl. Mulawarman, Tideng Pale Tim., Kec. Sesayap, Kabupaten Tana Tidung",KALIMANTAN UTARA,77152.0,Indonesia,82155677743.0,,,3.6096975,116.9130125,https://maps.google.com/?cid=0x0:0xbe40b83817e95d95,
cafe,Kafe,Warkop Luxi Jaya,"Jl. Ahmad Yani No.km. 1, Tideng Pale, Kec. Sesayap, Kabupaten Tana Tidung, Kalimantan Utara 77152","Tideng Pale, Kec. Sesayap, Kabupaten Tana Tidung",KALIMANTAN UTARA,77152.0,Indonesia,85350395311.0,,,3.5985039,116.9014724,https://maps.google.com/?cid=0x0:0x726dcbcc0ee977a7,
cafe,Kafe,Warung kifi,"G5WR+3V8, Bebatu, Kec. Sesayap Hilir, Kabupaten Tana Tidung, Kalimantan Utara 77152","Bebatu, Kec. Sesayap Hilir, Kabupaten Tana Tidung",KALIMANTAN UTARA,77152.0,Indonesia,81351380733.0,,,3.5451617,117.1922025,https://maps.google.com/?cid=0x0:0x143c07574919dd41,
cafe,Kafe,SEPUNTI KOPI,"JW54+P64, Jl. Jend. Sudirman, Tideng Pale, Kec. Sesayap, Kabupaten Tana Tidung, Kalimantan Utara 77152","Jl. Jend. Sudirman, Tideng Pale, Kec. Sesayap, Kabupaten Tana Tidung",KALIMANTAN UTARA,77152.0,Indonesia,,,,3.6091385,116.9055488,https://maps.google.com/?cid=0x0:0x5136b67b66d222be,
cafe,Kedai Kopi,KAINA COFFE,"Jl. Padat Karya, Tideng Pale Tim., Kec. Sesayap, Kabupaten Tana Tidung, Kalimantan Utara 77152","Tideng Pale Tim., Kec. Sesayap, Kabupaten Tana Tidung",KALIMANTAN UTARA,77152.0,Indonesia,82253412313.0,,,3.6075792,116.9133971,https://maps.google.com/?cid=0x0:0x5e09cbecede30083,
cafe,Rumah Makan,"Waroeng Eyang (Sesayap Hilir, KTT)","H2G2+5J7, Jl. Astrali, Sesayap, Kec. Sesayap Hilir, Kabupaten Tana Tidung, Kalimantan Utara 77152","Jl. Astrali, Sesayap, Kec. Sesayap Hilir, Kabupaten Tana Tidung",KALIMANTAN UTARA,77152.0,Indonesia,,,,3.5754095,117.0015459,https://maps.google.com/?cid=0x0:0x599e382c4ac37dae,
cafe,Sarapan,Kedai Nan Bira,"Jl. Aji putra, 77152, Sesayap, Kec. Sesayap Hilir, Kabupaten Tana Tidung, Kalimantan Utara 77152","77152, Sesayap, Kec. Sesayap Hilir, Kabupaten Tana Tidung",KALIMANTAN UTARA,77152.0,Indonesia,82347374144.0,,,3.5821578,117.0066811,https://maps.google.com/?cid=0x0:0xb94b951c37415d8,
cafe,Dapur Umum,warung makan Paguntaka,"Jl. Aji Putra, rt 04, Sesayap, Kec. Sesayap Hilir, Kabupaten Tana Tidung, Kalimantan Utara 77152","rt 04, Sesayap, Kec. Sesayap Hilir, Kabupaten Tana Tidung",KALIMANTAN UTARA,77152.0,Indonesia,,,,3.5828628,117.0073104,https://maps.google.com/?cid=0x0:0x46662198786431d7,
cafe,Kafe,KOPIRENG,"JW57+VMW, Jl. Manunggal, Tideng Pale Tim., Kec. Sesayap, Kabupaten Tana Tidung, Kalimantan Utara 77152","Jl. Manunggal, Tideng Pale Tim., Kec. Sesayap, Kabupaten Tana Tidung",KALIMANTAN UTARA,77152.0,Indonesia,85248918471.0,,,3.6097479,116.9142106,https://maps.google.com/?cid=0x0:0xe5c3554abb24426e,
cafe,Kedai Kopi,Warkop Nusantara,"JW66+6X9, Tideng Pale Tim., Kec. Sesayap, Kabupaten Tana Tidung, Kalimantan Utara 77152","Tideng Pale Tim., Kec. Sesayap, Kabupaten Tana Tidung",KALIMANTAN UTARA,77152.0,Indonesia,85256813123.0,,,3.6105412,116.912498,https://maps.google.com/?cid=0x0:0xb4b97aa5ac1aa91d,
cafe,Kedai Kopi,Warung kopi AMI,"Jl. Tanah Abang No.44, RT.3/RW.2, Tideng Pale, Kec. Sesayap, Kabupaten Tana Tidung, Kalimantan Utara 77152","RT.3/RW.2, Tideng Pale, Kec. Sesayap, Kabupaten Tana Tidung",KALIMANTAN UTARA,77152.0,Indonesia,,,,3.6082511,116.9033183,https://maps.google.com/?cid=0x0:0xe5a5a4f31e526851,
cafe,Kedai Kopi,Coffe Janji Kamu,"JW53+73Q, Jl. Ahmad Yani, Tideng Pale, Kec. Sesayap, Kabupaten Tana Tidung, Kalimantan Utara 77152","Jl. Ahmad Yani, Tideng Pale, Kec. Sesayap, Kabupaten Tana Tidung",KALIMANTAN UTARA,77152.0,Indonesia,,,,3.608219,116.9027231,https://maps.google.com/?cid=0x0:0xfd408387a755c0ee,
cafe,Toko Makanan,ICE NYOKLAT,"Imbayud Taka, Pasar, Tideng Pale, Sesayap, Tana Tidung Regency, North Kalimantan 77152","Pasar, Tideng Pale, Sesayap, Tana Tidung Regency",KALIMANTAN UTARA,77152.0,Indonesia,82254355163.0,,,3.6098598,116.9087228,https://maps.google.com/?cid=0x0:0xc2485db85ddc5f21,
cafe,Kantor Pemerintah,Dapoer mama rani,"HWP6+4FF, Tideng Pale, Kec. Sesayap, Kabupaten Tana Tidung, Kalimantan Utara 77152","Tideng Pale, Kec. Sesayap, Kabupaten Tana Tidung",KALIMANTAN UTARA,77152.0,Indonesia,81347398679.0,,,3.5857356,116.9100458,https://maps.google.com/?cid=0x0:0xa2fb91e44b2c1be0,
cafe,Es Krim,Es kepal Milo Copy Paste,"G47G+JH9, siring, Kec. Sesayap Hilir, Kabupaten Tana Tidung, Kalimantan Utara 77152","siring, Kec. Sesayap Hilir, Kabupaten Tana Tidung",KALIMANTAN UTARA,77152.0,Indonesia,81350537743.0,,,3.5140288,117.1264753,https://maps.google.com/?cid=0x0:0x14982b0faecb48f5,
cafe,cafe,Kec. Tana Lia,"Kabupaten Tana Tidung, Kalimantan Utara","Kabupaten Tana Tidung, Kalimantan Utara",KALIMANTAN UTARA,,Indonesia,,,,3.6670469,117.5377612,https://maps.google.com/?cid=0x0:0x6e14a7898117f78f,
cafe,Kafe,FAMILY CAFE,"PHPF+868, Jalan Imam Abdullah Desa Barat, Tanah Merah, Tana Lia, Tana Tidung Regency, North Kalimantan 77453","Jalan Imam Abdullah Desa Barat, Tanah Merah, Tana Lia, Tana Tidung Regency",KALIMANTAN UTARA,77453.0,Indonesia,82155665523.0,,,3.7357868,117.5730639,https://maps.google.com/?cid=0x0:0x1c3ffc9c62f3cb2d,
cafe,Dapur Umum,Rumah Roti Tana Lia,"Jalan Tarakan Jaya No.RT 003, Sambungan, Tana Lia, Tana Tidung Regency, North Kalimantan 77453","Sambungan, Tana Lia, Tana Tidung Regency",KALIMANTAN UTARA,77453.0,Indonesia,81351986754.0,,,3.6738611,117.5387824,https://maps.google.com/?cid=0x0:0xb137a1ec58a608a4,
cafe,Kafe,CAFE,"JALAN IMAM ABDULLAH No.RT 05, Tanah Merah, BARAT, Kabupaten Tana Tidung, Kalimantan Utara 77451","Tanah Merah, BARAT, Kabupaten Tana Tidung",KALIMANTAN UTARA,77451.0,Indonesia,82354139930.0,,,3.7000065,117.5604039,https://maps.google.com/?cid=0x0:0x22c2b4567122281b,
cafe,Kafe,Tana lia,"MG9J+JGJ, Tanah Merah, Kec. Tana Lia, Kabupaten Tana Tidung, Kalimantan Utara","Kabupaten Tana Tidung, Kalimantan Utara",KALIMANTAN UTARA,,Indonesia,,,,3.6696653,117.5313634,https://maps.google.com/?cid=0x0:0xad9bd519530051e4,
cafe,Perhimpunan Pengembang Perumahan,Tanah Merah Barat,"MGCF+P75, Unnamed Road, Tanah Merah, Kec. Tana Lia, Kabupaten Tana Tidung, Kalimantan Utara 77453","Unnamed Road, Tanah Merah, Kec. Tana Lia, Kabupaten Tana Tidung",KALIMANTAN UTARA,77453.0,Indonesia,,,,3.6717517,117.5232399,https://maps.google.com/?cid=0x0:0xb0b9aac8687241de,
cafe,Kedai Kopi,Home's Cafe KTT - Rooftop,"JW26+JX8, Tideng Pale, Kec. Sesayap, Kabupaten Tana Tidung, Kalimantan Utara 77152","Tideng Pale, Kec. Sesayap, Kabupaten Tana Tidung",KALIMANTAN UTARA,77152.0,Indonesia,8115251283.0,,,3.6015455,116.9124375,https://maps.google.com/?cid=0x0:0x741402f2b1570b45,
cafe,Kafe,Angkringan BuMDes BEBILIN TAKA,"jalan hanafiah No.rt 02, Tanah Merah, Kec. Tana Lia, Kabupaten Tana Tidung, Kalimantan Utara 77453","Tanah Merah, Kec. Tana Lia, Kabupaten Tana Tidung",KALIMANTAN UTARA,77453.0,Indonesia,82255856163.0,,,3.7357868,117.5730639,https://maps.google.com/?cid=0x0:0xd13075f53d422613,
cafe,Kantor Pemerintahan Wilayah,Polsek Tana Lia,"Jl. Tarakan Jaya No.02, Sambungan, Kec. Tana Lia, Kabupaten Tana Tidung, Kalimantan Utara 77453","Sambungan, Kec. Tana Lia, Kabupaten Tana Tidung",KALIMANTAN UTARA,77453.0,Indonesia,,,,3.6715802,117.5383181,https://maps.google.com/?cid=0x0:0xcacd2cc5d2454e1a,
cafe,Kafe,CAFE LIA,"3568+55M, Jl. Jenderal Sudirman, Rangda Malingkung, Kec. Tapin Utara, Kabupaten Tapin, Kalimantan Selatan 71114","Jl. Jenderal Sudirman, Rangda Malingkung, Kec. Tapin Utara, Kabupaten Tapin",KALIMANTAN UTARA,71114.0,Indonesia,,,,-2.9393078,115.1656323,https://maps.google.com/?cid=0x0:0x6e9f476e362d854b,
