Category,Real Category,Business Name,Address,City,State,Postal Code,Country,Phone,Email,Website,Latitude,Longitude,Map Link,Details Link
hotel,hotel,Ndetukou village,"Jl. Woloare No.1, Kel. Kotaratu, Kec. Ende Utara, Kabupaten Ende, Nusa Tenggara Tim. 86319","Kel. Kotaratu, Kec. Ende Utara, Kabupaten Ende",NUSA TENGGARA TIMUR,86319.0,Indonesia,81248242442.0,,,-8.8368045,121.6395541,https://maps.google.com/?cid=0x0:0xc8dd4ceb5a29ec0,
hotel,hotel,Kodi,"Kalena Rongo, Kec. Kodi Utara, Kabupaten Sumba Barat Daya, Nusa Tenggara Tim.","Kabupaten Sumba Barat Daya, Nusa Tenggara Tim.",NUSA TENGGARA TIMUR,,Indonesia,,,,-9.528481,118.9841,https://maps.google.com/?cid=0x0:0xa0abc272b8b7b281,
hotel,hotel,Resort Cap Karoso,"Pantai Karoso, Ate Dalo, Kec. Kodi, Kabupaten Sumba Barat Daya, Nusa Tenggara Tim.","Kabupaten Sumba Barat Daya, Nusa Tenggara Tim.",NUSA TENGGARA TIMUR,,Indonesia,3616201805.0,,,-9.5291259,118.9356799,https://maps.google.com/?cid=0x0:0xf44f47b77a3190a0,
hotel,hotel,ARYA Sumba Kodi,"CWQM+6R2, Ate Dalo, Kec. Kodi, Kabupaten Sumba Barat Daya, Nusa Tenggara Tim.","Kabupaten Sumba Barat Daya, Nusa Tenggara Tim.",NUSA TENGGARA TIMUR,,Indonesia,81138014222.0,,,-9.5619375,118.9345625,https://maps.google.com/?cid=0x0:0xd3c2a55415b690f5,
hotel,hotel,,,,NUSA TENGGARA TIMUR,,Indonesia,,,,,,https://maps.google.com/?cid=0x0:0xde3625906a0594e9%7C/g/11csrs2p62%7Cid-ID,
hotel,hotel,Villa Redemptorist,"Unnamed Road, Radamata, Kec. Loura, Kabupaten Sumba Barat Daya, Nusa Tenggara Tim.","Kabupaten Sumba Barat Daya, Nusa Tenggara Tim.",NUSA TENGGARA TIMUR,,Indonesia,81216498177.0,,,-9.3901395,119.2240008,https://maps.google.com/?cid=0x0:0xe015bc11d11fb1e,
hotel,hotel,RD Hotel Resto and Familly Karoke,"GV6W+5RF, Batu Cermin, Kec. Komodo, Kabupaten Manggarai Barat, Nusa Tenggara Tim.","Kabupaten Manggarai Barat, Nusa Tenggara Tim.",NUSA TENGGARA TIMUR,,Indonesia,82237920898.0,,,-8.4895586,119.8970086,https://maps.google.com/?cid=0x0:0x9f834953caf3a4fc,
hotel,hotel,New Hotel Ricky,"72FX+83Q, Onotali, Kec. Rote Tengah, Kabupaten Rote Ndao, Nusa Tenggara Tim.","Kabupaten Rote Ndao, Nusa Tenggara Tim.",NUSA TENGGARA TIMUR,,Indonesia,81331450005.0,,,-10.7266555,123.0477495,https://maps.google.com/?cid=0x0:0x8d7387bc103c64f4,
hotel,hotel,El Ora Hotel  Eatery Labuan Bajo,"Jl. Yohanis Sahadun No.8, Labuan Bajo, Kec. Komodo, Kabupaten Manggarai Barat, Nusa Tenggara Tim.","Kabupaten Manggarai Barat, Nusa Tenggara Tim.",NUSA TENGGARA TIMUR,,Indonesia,85106077731.0,,,-8.4956322,119.8857116,https://maps.google.com/?cid=0x0:0xe53b28681242ee9c,
hotel,hotel,,,,NUSA TENGGARA TIMUR,,Indonesia,,,,,,https://maps.google.com/?cid=0x0:0xa606773756b2712%7C/g/11fn_wvfhs%7Cid-ID,
hotel,hotel,New Sasando International Hotel,"Jl. RA Kartini No.1, Klp. Lima, Kec. Klp. Lima, Kota Kupang, Nusa Tenggara Tim. 85228","Klp. Lima, Kec. Klp. Lima, Kota Kupang",NUSA TENGGARA TIMUR,85228.0,Indonesia,85246653611.0,,,-10.150168,123.6162022,https://maps.google.com/?cid=0x0:0xa606773756b2712,
hotel,hotel,Hotel Romyta,"Jl. Bund. PU, Oebufu, Kec. Oebobo, Kota Kupang, Nusa Tenggara Tim. 85142","Oebufu, Kec. Oebobo, Kota Kupang",NUSA TENGGARA TIMUR,85142.0,Indonesia,83340887489.0,,,-10.1749739,123.624947,https://maps.google.com/?cid=0x0:0xca97e477c2498b86,
hotel,hotel,Four'i Hotel,"Jl. Ba'a Pantai Baru, Metina, Kec. Lobalain, Kabupaten Rote Ndao, Nusa Tenggara Tim.","Kabupaten Rote Ndao, Nusa Tenggara Tim.",NUSA TENGGARA TIMUR,,Indonesia,82144093999.0,,,-10.7200015,123.0529723,https://maps.google.com/?cid=0x0:0x5215172ced3fa318,
hotel,hotel,Puri Komodo Resort,"JL. El Tari, No. 5, Lohayong Larantuka, Nggorang, Kec. Komodo, Kabupaten Manggarai Barat, Nusa Tenggara Tim. 86215","No. 5, Lohayong Larantuka, Nggorang, Kec. Komodo, Kabupaten Manggarai Barat",NUSA TENGGARA TIMUR,86215.0,Indonesia,38541319.0,,,-8.541809,119.945798,https://maps.google.com/?cid=0x0:0xdbc126ef4118e823,
hotel,hotel,Frawijaya Hotel,"HF2H+QRF, Jl. Sonbai, Kefamenanu Tengah, Kec. Kota Kefamenanu, Kabupaten Timor Tengah Utara, Nusa Tenggara Tim. 85612","Jl. Sonbai, Kefamenanu Tengah, Kec. Kota Kefamenanu, Kabupaten Timor Tengah Utara",NUSA TENGGARA TIMUR,85612.0,Indonesia,38831697.0,,,-9.4480728,124.4795537,https://maps.google.com/?cid=0x0:0x53e59b606a0e2a27,
hotel,hotel,Bajo Komodo Eko Lodge Hotel,"FW5W+78F, Nggorang, Kec. Komodo, Kabupaten Manggarai Barat, Nusa Tenggara Tim.","Kabupaten Manggarai Barat, Nusa Tenggara Tim.",NUSA TENGGARA TIMUR,,Indonesia,38541293.0,,,-8.541809,119.945798,https://maps.google.com/?cid=0x0:0x505df987bb216d36,
hotel,hotel,Hotel Kaliuda Waingapu,"87W8+88G, Matawai, Kec. Kota Waingapu, Kabupaten Sumba Timur, Nusa Tenggara Tim.","Kabupaten Sumba Timur, Nusa Tenggara Tim.",NUSA TENGGARA TIMUR,,Indonesia,,,,-9.6541843,120.2658319,https://maps.google.com/?cid=0x0:0xc088b40909cbf1f4,
hotel,hotel,Ed-Commodus Hotel,"GW34+PHC, Kp Jl Lancang City, Wae Kelambu, Kec. Komodo, Kabupaten Manggarai Barat, Nusa Tenggara Tim.","Kabupaten Manggarai Barat, Nusa Tenggara Tim.",NUSA TENGGARA TIMUR,,Indonesia,87762652405.0,,,-8.4956932,119.9064032,https://maps.google.com/?cid=0x0:0xb61a7297e394586c,
hotel,hotel,Hotel Kelimutu,"Jl. Gn. Kelimutu No.38, Merdeka, Kec. Kota Lama, Kota Kupang, Nusa Tenggara Tim. 85229","Merdeka, Kec. Kota Lama, Kota Kupang",NUSA TENGGARA TIMUR,85229.0,Indonesia,2129707601.0,,,-10.1625957,123.5829132,https://maps.google.com/?cid=0x0:0xd4936dcedc0a5ae2,
hotel,hotel,Hotel Pelita,"9C96+5J2, Komerda, Kec. Kota Waikabubak, Kabupaten Sumba Barat, Nusa Tenggara Tim.","Kabupaten Sumba Barat, Nusa Tenggara Tim.",NUSA TENGGARA TIMUR,,Indonesia,81237032182.0,,,-9.6321228,119.411527,https://maps.google.com/?cid=0x0:0xc869fbc814ad2f11,
hotel,hotel,Penginapan Ronita,"9C79+78Q, Kp. Sawah, Kec. Kota Waikabubak, Kabupaten Sumba Barat, Nusa Tenggara Tim.","Kabupaten Sumba Barat, Nusa Tenggara Tim.",NUSA TENGGARA TIMUR,,Indonesia,,,,-9.6367893,119.4183457,https://maps.google.com/?cid=0x0:0x881fbc3468e86e6a,
hotel,hotel,Tempode Resort,"Jln raya, Reo, kedindi, Kabupaten Manggarai, Nusa Tenggara Tim. 08592","Reo, kedindi, Kabupaten Manggarai",NUSA TENGGARA TIMUR,8592.0,Indonesia,82342222939.0,,,-8.2971653,120.4665642,https://maps.google.com/?cid=0x0:0x90b5654626f1603e,
hotel,hotel,Hotel Rai Hawu,"Jl. Timor Raya No.62, Bakunase, Kec. Kota Raja, Kota Kupang, Nusa Tenggara Tim.","Kota Kupang, Nusa Tenggara Tim.",NUSA TENGGARA TIMUR,,Indonesia,,,,-10.1833442,123.5832076,https://maps.google.com/?cid=0x0:0x7ad52972261cf162,
hotel,Hostel,Wisma JDF,"Jl. Budi Swadaya No.143, RT.1/RW.4, Kb. Jeruk, Kec. Kb. Jeruk, Kota Jakarta Barat, Daerah Khusus Ibukota Jakarta 11530","RT.1/RW.4, Kb. Jeruk, Kec. Kb. Jeruk, Kota Jakarta Barat",NUSA TENGGARA TIMUR,11530.0,Indonesia,8128979110.0,,,-6.1891007,106.7820549,https://maps.google.com/?cid=0x0:0xa3193f575519ef00,
hotel,hotel,,,,NUSA TENGGARA TIMUR,,Indonesia,,,,,,https://maps.google.com/?cid=0x0:0x2e9f64b149881949%7C/g/1v2bnctb%7Cid-ID,
hotel,hotel,Cityloog Hotel Tebet - Jakarta,"Jl. Dr. Saharjo No.191 1st floor, RT.6/RW.1, Manggarai Sel., Kec. Tebet, Kota Jakarta Selatan, Daerah Khusus Ibukota Jakarta 12960","RT.6/RW.1, Manggarai Sel., Kec. Tebet, Kota Jakarta Selatan",NUSA TENGGARA TIMUR,12960.0,Indonesia,218303355.0,,,-6.2230159,106.8479561,https://maps.google.com/?cid=0x0:0x2e9f64b149881949,
hotel,Museum Sejarah Lokal,Monumen Nasional,"Merdeka Square, Jalan Lapangan Monas, Gambir, Kecamatan Gambir, Kota Jakarta Pusat, Daerah Khusus Ibukota Jakarta 10110","Jalan Lapangan Monas, Gambir, Kecamatan Gambir, Kota Jakarta Pusat",NUSA TENGGARA TIMUR,10110.0,Indonesia,213853040.0,,,-6.1753924,106.8271528,https://maps.google.com/?cid=0x0:0x3d2ad6e1e0e9bcc8,
hotel,hotel,Hotel Mercure Jakarta Gatot Subroto,"Jl. Gatot Subroto No.Kav. 1, Kuningan Bar., Jakarta, Kota Jakarta Selatan, Daerah Khusus Ibukota Jakarta 12790","Kuningan Bar., Jakarta, Kota Jakarta Selatan",NUSA TENGGARA TIMUR,12790.0,Indonesia,2150825400.0,,,-6.2395588,106.8307447,https://maps.google.com/?cid=0x0:0xae2c6b053bbf55c2,
hotel,Layanan Transportasi,Tebet,"Tim, Jl. Tebet Raya No.62, Tebet Tim., Kec. Tebet, Kota Jakarta Selatan, Daerah Khusus Ibukota Jakarta 12820","Jl. Tebet Raya No.62, Tebet Tim., Kec. Tebet, Kota Jakarta Selatan",NUSA TENGGARA TIMUR,12820.0,Indonesia,,,,-6.2263866,106.8584642,https://maps.google.com/?cid=0x0:0x1219f397c6c4c44b,
hotel,hotel,Kec. Kodi Balaghar,"Kabupaten Sumba Barat Daya, Nusa Tenggara Tim.","Kabupaten Sumba Barat Daya, Nusa Tenggara Tim.",NUSA TENGGARA TIMUR,,Indonesia,,,,-9.6674786,119.0525222,https://maps.google.com/?cid=0x0:0x553cbf3de56efc03,
hotel,hotel,Resort Cap Karoso,"Pantai Karoso, Ate Dalo, Kec. Kodi, Kabupaten Sumba Barat Daya, Nusa Tenggara Tim.","Kabupaten Sumba Barat Daya, Nusa Tenggara Tim.",NUSA TENGGARA TIMUR,,Indonesia,3616201805.0,,,-9.5291259,118.9356799,https://maps.google.com/?cid=0x0:0xf44f47b77a3190a0,
hotel,hotel,ARYA Sumba Kodi,"CWQM+6R2, Ate Dalo, Kec. Kodi, Kabupaten Sumba Barat Daya, Nusa Tenggara Tim.","Kabupaten Sumba Barat Daya, Nusa Tenggara Tim.",NUSA TENGGARA TIMUR,,Indonesia,81138014222.0,,,-9.5619375,118.9345625,https://maps.google.com/?cid=0x0:0xd3c2a55415b690f5,
hotel,hotel,Ngalung Kalla Retreat,"Jl. Pantai Ngedo No.1, Patiala Dete, Kec. Laboya Bar., Kabupaten Sumba Barat, Nusa Tenggara Tim. 87217","Patiala Dete, Kec. Laboya Bar., Kabupaten Sumba Barat",NUSA TENGGARA TIMUR,87217.0,Indonesia,,,,-9.7464001,119.2846202,https://maps.google.com/?cid=0x0:0xe6f880910ed790fa,
hotel,hotel,Hotel Sumba Sejahtera,"Jl. Sapurata, Kalena Wano, Kec. Kota Tambolaka, Kabupaten Sumba Barat Daya, Nusa Tenggara Tim.","Kabupaten Sumba Barat Daya, Nusa Tenggara Tim.",NUSA TENGGARA TIMUR,,Indonesia,82279245244.0,,,-9.4316553,119.2354984,https://maps.google.com/?cid=0x0:0xdca5c90d6ac4c2d4,
hotel,hotel,Melati Homestay,"H68M+XHG, Jl. Sapurata, Wee Tobula, Kec. Loura, Kabupaten Sumba Barat Daya, Nusa Tenggara Tim.","Kabupaten Sumba Barat Daya, Nusa Tenggara Tim.",NUSA TENGGARA TIMUR,,Indonesia,81353966066.0,,,-9.4325568,119.2339512,https://maps.google.com/?cid=0x0:0xc0d44dda3a0bdc24,
hotel,hotel,Kec. Kodi Bangedo,"Kabupaten Sumba Barat Daya, Nusa Tenggara Tim.","Kabupaten Sumba Barat Daya, Nusa Tenggara Tim.",NUSA TENGGARA TIMUR,,Indonesia,,,,-9.6026813,119.0171447,https://maps.google.com/?cid=0x0:0x3bbfbd9e4fb43622,
hotel,hotel,Resort Cap Karoso,"Pantai Karoso, Ate Dalo, Kec. Kodi, Kabupaten Sumba Barat Daya, Nusa Tenggara Tim.","Kabupaten Sumba Barat Daya, Nusa Tenggara Tim.",NUSA TENGGARA TIMUR,,Indonesia,3616201805.0,,,-9.5291259,118.9356799,https://maps.google.com/?cid=0x0:0xf44f47b77a3190a0,
hotel,hotel,ARYA Sumba Kodi,"CWQM+6R2, Ate Dalo, Kec. Kodi, Kabupaten Sumba Barat Daya, Nusa Tenggara Tim.","Kabupaten Sumba Barat Daya, Nusa Tenggara Tim.",NUSA TENGGARA TIMUR,,Indonesia,81138014222.0,,,-9.5619375,118.9345625,https://maps.google.com/?cid=0x0:0xd3c2a55415b690f5,
hotel,hotel,Sinar Tambolaka,"Hotel Sinar, Kalena Wano, Kec. Kota Tambolaka, Kabupaten Sumba Barat Daya, Nusa Tenggara Tim. 87255","Kalena Wano, Kec. Kota Tambolaka, Kabupaten Sumba Barat Daya",NUSA TENGGARA TIMUR,87255.0,Indonesia,3872524088.0,,,-9.4305675,119.2386103,https://maps.google.com/?cid=0x0:0xd1c8f3f36b22eaa1,
hotel,hotel,,,,NUSA TENGGARA TIMUR,,Indonesia,,,,,,https://maps.google.com/?cid=0x0:0xd1c8f3f36b22eaa1%7C/g/12vr2q517%7Cid-ID,
hotel,hotel,Hotel pasola,"Terminal Keberangkatan Bandar Udara Tambolaka, Radamata, Loura, Southwest Sumba Regency, East Nusa Tenggara","Kabupaten Sumba Barat Daya, Nusa Tenggara Tim.",NUSA TENGGARA TIMUR,,Indonesia,81329458690.0,,,-9.4133411,119.2445581,https://maps.google.com/?cid=0x0:0x7c0eb9d00100bb2c,
hotel,hotel,Hotel Ella,"H6CQ+2C8, Jl. Sapurata, Wee Tobula, Kec. Kota Tambolaka, Kabupaten Sumba Barat Daya, Nusa Tenggara Tim.","Kabupaten Sumba Barat Daya, Nusa Tenggara Tim.",NUSA TENGGARA TIMUR,,Indonesia,82145837745.0,,,-9.4299593,119.2385852,https://maps.google.com/?cid=0x0:0x848f5e0913612753,
hotel,hotel,RedDoorz @ Tambolaka Sumba,"Hotel Sinar, Kalena Wano, Kec. Kota Tambolaka, Kabupaten Sumba Barat Daya, Nusa Tenggara Tim. 87255","Kalena Wano, Kec. Kota Tambolaka, Kabupaten Sumba Barat Daya",NUSA TENGGARA TIMUR,87255.0,Indonesia,2180629666.0,,,-9.4306539,119.2385182,https://maps.google.com/?cid=0x0:0x5190bda48a33c1b6,
hotel,hotel,Hotel Sumba Sejahtera,"Jl. Sapurata, Kalena Wano, Kec. Kota Tambolaka, Kabupaten Sumba Barat Daya, Nusa Tenggara Tim.","Kabupaten Sumba Barat Daya, Nusa Tenggara Tim.",NUSA TENGGARA TIMUR,,Indonesia,82279245244.0,,,-9.4316553,119.2354984,https://maps.google.com/?cid=0x0:0xdca5c90d6ac4c2d4,
hotel,hotel,Melati Homestay,"H68M+XHG, Jl. Sapurata, Wee Tobula, Kec. Loura, Kabupaten Sumba Barat Daya, Nusa Tenggara Tim.","Kabupaten Sumba Barat Daya, Nusa Tenggara Tim.",NUSA TENGGARA TIMUR,,Indonesia,81353966066.0,,,-9.4325568,119.2339512,https://maps.google.com/?cid=0x0:0xc0d44dda3a0bdc24,
hotel,hotel,Resort Cap Karoso,"Pantai Karoso, Ate Dalo, Kec. Kodi, Kabupaten Sumba Barat Daya, Nusa Tenggara Tim.","Kabupaten Sumba Barat Daya, Nusa Tenggara Tim.",NUSA TENGGARA TIMUR,,Indonesia,3616201805.0,,,-9.5291259,118.9356799,https://maps.google.com/?cid=0x0:0xf44f47b77a3190a0,
hotel,hotel,Kec. Kodi Utara,"Kabupaten Sumba Barat Daya, Nusa Tenggara Tim.","Kabupaten Sumba Barat Daya, Nusa Tenggara Tim.",NUSA TENGGARA TIMUR,,Indonesia,,,,-9.5201893,119.0312709,https://maps.google.com/?cid=0x0:0xc02655b0903b58a2,
hotel,hotel,ARYA Sumba Kodi,"CWQM+6R2, Ate Dalo, Kec. Kodi, Kabupaten Sumba Barat Daya, Nusa Tenggara Tim.","Kabupaten Sumba Barat Daya, Nusa Tenggara Tim.",NUSA TENGGARA TIMUR,,Indonesia,81138014222.0,,,-9.5619375,118.9345625,https://maps.google.com/?cid=0x0:0xd3c2a55415b690f5,
hotel,hotel,Villa Redemptorist,"Unnamed Road, Radamata, Kec. Loura, Kabupaten Sumba Barat Daya, Nusa Tenggara Tim.","Kabupaten Sumba Barat Daya, Nusa Tenggara Tim.",NUSA TENGGARA TIMUR,,Indonesia,81216498177.0,,,-9.3901395,119.2240008,https://maps.google.com/?cid=0x0:0xe015bc11d11fb1e,
hotel,hotel,Sinar Tambolaka,"Hotel Sinar, Kalena Wano, Kec. Kota Tambolaka, Kabupaten Sumba Barat Daya, Nusa Tenggara Tim. 87255","Kalena Wano, Kec. Kota Tambolaka, Kabupaten Sumba Barat Daya",NUSA TENGGARA TIMUR,87255.0,Indonesia,3872524088.0,,,-9.4305675,119.2386103,https://maps.google.com/?cid=0x0:0xd1c8f3f36b22eaa1,
hotel,hotel,,,,NUSA TENGGARA TIMUR,,Indonesia,,,,,,https://maps.google.com/?cid=0x0:0xd1c8f3f36b22eaa1%7C/g/12vr2q517%7Cid-ID,
hotel,hotel,Hotel pasola,"Terminal Keberangkatan Bandar Udara Tambolaka, Radamata, Loura, Southwest Sumba Regency, East Nusa Tenggara","Kabupaten Sumba Barat Daya, Nusa Tenggara Tim.",NUSA TENGGARA TIMUR,,Indonesia,81329458690.0,,,-9.4133411,119.2445581,https://maps.google.com/?cid=0x0:0x7c0eb9d00100bb2c,
hotel,hotel,Sumba Beach (Anna Villas),"JHWJ+V7, Manu Wolu, Kec. Mamboro, Kabupaten Sumba Tengah, Nusa Tenggara Tim.","Kabupaten Sumba Tengah, Nusa Tenggara Tim.",NUSA TENGGARA TIMUR,,Indonesia,81139600235.0,,,-9.3527589,119.5806888,https://maps.google.com/?cid=0x0:0x647d48a1ba8c1e65,
hotel,hotel,Oro Beach Houses,"Weepangali, Wee Pangali, Kec. Kota Tambolaka, Kabupaten Sumba Barat Daya, Nusa Tenggara Tim. 87254","Wee Pangali, Kec. Kota Tambolaka, Kabupaten Sumba Barat Daya",NUSA TENGGARA TIMUR,87254.0,Indonesia,81339110068.0,,,-9.3698359,119.2691648,https://maps.google.com/?cid=0x0:0xe9208c199549c4b1,
hotel,hotel,RedDoorz @ Tambolaka Sumba,"Hotel Sinar, Kalena Wano, Kec. Kota Tambolaka, Kabupaten Sumba Barat Daya, Nusa Tenggara Tim. 87255","Kalena Wano, Kec. Kota Tambolaka, Kabupaten Sumba Barat Daya",NUSA TENGGARA TIMUR,87255.0,Indonesia,2180629666.0,,,-9.4306539,119.2385182,https://maps.google.com/?cid=0x0:0x5190bda48a33c1b6,
hotel,hotel,Amudahi restaurant  villa,"Jl. Raya Melolo, Lumbukore, Kec. Umalulu, Kabupaten Sumba Timur, Nusa Tenggara Tim. 87181","Lumbukore, Kec. Umalulu, Kabupaten Sumba Timur",NUSA TENGGARA TIMUR,87181.0,Indonesia,81339572713.0,,,-9.8790647,120.6620393,https://maps.google.com/?cid=0x0:0x2adaeb37d725bcdd,
hotel,hotel,Newa Sumba Resort,"Radamata, Kec. Loura, Kabupaten Sumba Barat Daya, Nusa Tenggara Tim.","Kabupaten Sumba Barat Daya, Nusa Tenggara Tim.",NUSA TENGGARA TIMUR,,Indonesia,81339187077.0,,,-9.3789306,119.2416512,https://maps.google.com/?cid=0x0:0xda0aadee04f42658,
hotel,hotel,Hotel Ella,"H6CQ+2C8, Jl. Sapurata, Wee Tobula, Kec. Kota Tambolaka, Kabupaten Sumba Barat Daya, Nusa Tenggara Tim.","Kabupaten Sumba Barat Daya, Nusa Tenggara Tim.",NUSA TENGGARA TIMUR,,Indonesia,82145837745.0,,,-9.4299593,119.2385852,https://maps.google.com/?cid=0x0:0x848f5e0913612753,
hotel,hotel,Hotel Sumba Sejahtera,"Jl. Sapurata, Kalena Wano, Kec. Kota Tambolaka, Kabupaten Sumba Barat Daya, Nusa Tenggara Tim.","Kabupaten Sumba Barat Daya, Nusa Tenggara Tim.",NUSA TENGGARA TIMUR,,Indonesia,82279245244.0,,,-9.4316553,119.2354984,https://maps.google.com/?cid=0x0:0xdca5c90d6ac4c2d4,
hotel,hotel,Ndetukou village,"Jl. Woloare No.1, Kel. Kotaratu, Kec. Ende Utara, Kabupaten Ende, Nusa Tenggara Tim. 86319","Kel. Kotaratu, Kec. Ende Utara, Kabupaten Ende",NUSA TENGGARA TIMUR,86319.0,Indonesia,81248242442.0,,,-8.8368045,121.6395541,https://maps.google.com/?cid=0x0:0xc8dd4ceb5a29ec0,
hotel,hotel,HOTEL ARTHA,"9C88+5VC, Kp. Sawah, Kec. Kota Waikabubak, Kabupaten Sumba Barat, Nusa Tenggara Tim.","Kabupaten Sumba Barat, Nusa Tenggara Tim.",NUSA TENGGARA TIMUR,,Indonesia,85253253980.0,,,-9.6345519,119.4171334,https://maps.google.com/?cid=0x0:0x3db048529ff7c25e,
hotel,hotel,Hotel Pelita,"9C96+5J2, Komerda, Kec. Kota Waikabubak, Kabupaten Sumba Barat, Nusa Tenggara Tim.","Kabupaten Sumba Barat, Nusa Tenggara Tim.",NUSA TENGGARA TIMUR,,Indonesia,81237032182.0,,,-9.6321228,119.411527,https://maps.google.com/?cid=0x0:0xc869fbc814ad2f11,
hotel,hotel,Hotel Aloha,"Kampung Sawah, Kota Waikabubak, Kp. Sawah, Kec. Kota Waikabubak, Kabupaten Sumba Barat, Nusa Tenggara Tim.","Kabupaten Sumba Barat, Nusa Tenggara Tim.",NUSA TENGGARA TIMUR,,Indonesia,38722227.0,,,-9.6331592,119.4139515,https://maps.google.com/?cid=0x0:0xb32f2f329d1931d9,
hotel,hotel,Penginapan Ronita,"9C79+78Q, Kp. Sawah, Kec. Kota Waikabubak, Kabupaten Sumba Barat, Nusa Tenggara Tim.","Kabupaten Sumba Barat, Nusa Tenggara Tim.",NUSA TENGGARA TIMUR,,Indonesia,,,,-9.6367893,119.4183457,https://maps.google.com/?cid=0x0:0x881fbc3468e86e6a,
hotel,hotel,Melati Homestay,"H68M+XHG, Jl. Sapurata, Wee Tobula, Kec. Loura, Kabupaten Sumba Barat Daya, Nusa Tenggara Tim.","Kabupaten Sumba Barat Daya, Nusa Tenggara Tim.",NUSA TENGGARA TIMUR,,Indonesia,81353966066.0,,,-9.4325568,119.2339512,https://maps.google.com/?cid=0x0:0xc0d44dda3a0bdc24,
hotel,hotel,Hotel Kaliuda Waingapu,"87W8+88G, Matawai, Kec. Kota Waingapu, Kabupaten Sumba Timur, Nusa Tenggara Tim.","Kabupaten Sumba Timur, Nusa Tenggara Tim.",NUSA TENGGARA TIMUR,,Indonesia,,,,-9.6541843,120.2658319,https://maps.google.com/?cid=0x0:0xc088b40909cbf1f4,
hotel,hotel,Mario Hotel  Cafe,"Ramadana, Ramma Dana, Kec. Loura, Kabupaten Sumba Barat Daya, Nusa Tenggara Tim.","Kabupaten Sumba Barat Daya, Nusa Tenggara Tim.",NUSA TENGGARA TIMUR,,Indonesia,81239710000.0,,,-9.3585658,119.2948611,https://maps.google.com/?cid=0x0:0x2bea9d4b63ab95de,
hotel,hotel,Kambaniru Beach Hotel and Resort,"RT.010/RW.003, Kambaniru, Kec. Kambera, Kabupaten Sumba Timur, Nusa Tenggara Tim. 87114","Kambaniru, Kec. Kambera, Kabupaten Sumba Timur",NUSA TENGGARA TIMUR,87114.0,Indonesia,8113939100.0,,,-9.6445204,120.2914495,https://maps.google.com/?cid=0x0:0x7866412594e233bd,
hotel,hotel,,,,NUSA TENGGARA TIMUR,,Indonesia,,,,,,https://maps.google.com/?cid=0x0:0xde3625906a0594e9%7C/g/11csrs2p62%7Cid-ID,
hotel,hotel,Padadita Beach Hotel,"Jl. Airlangga Padadita, Prailiu, Waingapu City, East Sumba Regency, East Nusa Tenggara","Kabupaten Sumba Timur, Nusa Tenggara Tim.",NUSA TENGGARA TIMUR,,Indonesia,81238995246.0,,,-9.6410584,120.2711388,https://maps.google.com/?cid=0x0:0xde3625906a0594e9,
hotel,hotel,Morinda Villa and Resto,"Kambaniru, Bendungan, Vaingapu, Kiritana, Kec. Kambera, Kabupaten Sumba Timur, Nusa Tenggara Tim. 87111","Bendungan, Vaingapu, Kiritana, Kec. Kambera, Kabupaten Sumba Timur",NUSA TENGGARA TIMUR,87111.0,Indonesia,8123795355.0,,,-9.7233121,120.2678228,https://maps.google.com/?cid=0x0:0xd825023448757a52,
hotel,hotel,Ketanu Bamboo lodge sumba - Hôtel sumba Indonésie,"Jl pahola, wanokaka, west, Kec. Kota Waikabubak, Kabupaten Sumba Barat, Nusa Tenggara Tim. 87272","wanokaka, west, Kec. Kota Waikabubak, Kabupaten Sumba Barat",NUSA TENGGARA TIMUR,87272.0,Indonesia,82340722775.0,,,-9.7542024,119.4188266,https://maps.google.com/?cid=0x0:0xb7869eb34516abd6,
hotel,hotel,Manandang Hotel,"Jl. Pemuda No.4, Maliti, Kec. Kota Waikabubak, Kabupaten Sumba Barat, Nusa Tenggara Tim.","Kabupaten Sumba Barat, Nusa Tenggara Tim.",NUSA TENGGARA TIMUR,,Indonesia,38721197.0,,,-9.6352766,119.4110344,https://maps.google.com/?cid=0x0:0x30462dea11a5863,
hotel,hotel,Kec. Kota Tambolaka,"Kabupaten Sumba Barat Daya, Nusa Tenggara Tim.","Kabupaten Sumba Barat Daya, Nusa Tenggara Tim.",NUSA TENGGARA TIMUR,,Indonesia,,,,-9.4295733,119.2387484,https://maps.google.com/?cid=0x0:0x9f73216af1e7222b,
hotel,hotel,Sima Hotel Sumba,"Jl. Raja Yohanes Ngongo Bani, Weerena, Kec. Kota Tambolaka, Kabupaten Sumba Barat Daya, Nusa Tenggara Tim. 87261","Weerena, Kec. Kota Tambolaka, Kabupaten Sumba Barat Daya",NUSA TENGGARA TIMUR,87261.0,Indonesia,3872527411.0,,,-9.460902,119.2215221,https://maps.google.com/?cid=0x0:0x4237c4e0781d3bba,
hotel,hotel,Sinar Tambolaka,"Hotel Sinar, Kalena Wano, Kec. Kota Tambolaka, Kabupaten Sumba Barat Daya, Nusa Tenggara Tim. 87255","Kalena Wano, Kec. Kota Tambolaka, Kabupaten Sumba Barat Daya",NUSA TENGGARA TIMUR,87255.0,Indonesia,3872524088.0,,,-9.4305675,119.2386103,https://maps.google.com/?cid=0x0:0xd1c8f3f36b22eaa1,
hotel,hotel,Villa Redemptorist,"Unnamed Road, Radamata, Kec. Loura, Kabupaten Sumba Barat Daya, Nusa Tenggara Tim.","Kabupaten Sumba Barat Daya, Nusa Tenggara Tim.",NUSA TENGGARA TIMUR,,Indonesia,81216498177.0,,,-9.3901395,119.2240008,https://maps.google.com/?cid=0x0:0xe015bc11d11fb1e,
hotel,hotel,Hotel pasola,"Terminal Keberangkatan Bandar Udara Tambolaka, Radamata, Loura, Southwest Sumba Regency, East Nusa Tenggara","Kabupaten Sumba Barat Daya, Nusa Tenggara Tim.",NUSA TENGGARA TIMUR,,Indonesia,81329458690.0,,,-9.4133411,119.2445581,https://maps.google.com/?cid=0x0:0x7c0eb9d00100bb2c,
hotel,hotel,Mario Hotel  Cafe,"Ramadana, Ramma Dana, Kec. Loura, Kabupaten Sumba Barat Daya, Nusa Tenggara Tim.","Kabupaten Sumba Barat Daya, Nusa Tenggara Tim.",NUSA TENGGARA TIMUR,,Indonesia,81239710000.0,,,-9.3585658,119.2948611,https://maps.google.com/?cid=0x0:0x2bea9d4b63ab95de,
hotel,hotel,Hotel Ella,"H6CQ+2C8, Jl. Sapurata, Wee Tobula, Kec. Kota Tambolaka, Kabupaten Sumba Barat Daya, Nusa Tenggara Tim.","Kabupaten Sumba Barat Daya, Nusa Tenggara Tim.",NUSA TENGGARA TIMUR,,Indonesia,82145837745.0,,,-9.4299593,119.2385852,https://maps.google.com/?cid=0x0:0x848f5e0913612753,
hotel,hotel,Hotel Sumba Sejahtera,"Jl. Sapurata, Kalena Wano, Kec. Kota Tambolaka, Kabupaten Sumba Barat Daya, Nusa Tenggara Tim.","Kabupaten Sumba Barat Daya, Nusa Tenggara Tim.",NUSA TENGGARA TIMUR,,Indonesia,82279245244.0,,,-9.4316553,119.2354984,https://maps.google.com/?cid=0x0:0xdca5c90d6ac4c2d4,
hotel,hotel,Maringi Sumba by the Sumba Hospitality Foundation,"Sumba Hospitality Foundation, Jl Mananga Aba, Karuni, Loura, Southwest Sumba Regency, East Nusa Tenggara","Kabupaten Sumba Barat Daya, Nusa Tenggara Tim.",NUSA TENGGARA TIMUR,,Indonesia,82147148489.0,,,-9.3885915,119.301921,https://maps.google.com/?cid=0x0:0x455c193adffb5e44,
hotel,hotel,RedDoorz @ Tambolaka Sumba,"Hotel Sinar, Kalena Wano, Kec. Kota Tambolaka, Kabupaten Sumba Barat Daya, Nusa Tenggara Tim. 87255","Kalena Wano, Kec. Kota Tambolaka, Kabupaten Sumba Barat Daya",NUSA TENGGARA TIMUR,87255.0,Indonesia,2180629666.0,,,-9.4306539,119.2385182,https://maps.google.com/?cid=0x0:0x5190bda48a33c1b6,
hotel,hotel,Tanto Hotel,"Jl. Prof. Dr. W. Z. Yohanes No. 14, Waingapu, Prailiu, Kec. Kambera, Kabupaten Sumba Timur, Nusa Tenggara Tim. 87112","Waingapu, Prailiu, Kec. Kambera, Kabupaten Sumba Timur",NUSA TENGGARA TIMUR,87112.0,Indonesia,81281816484.0,,,-9.6586796,120.270165,https://maps.google.com/?cid=0x0:0x76930ba103e9c0a3,
hotel,hotel,Oro Beach Houses,"Weepangali, Wee Pangali, Kec. Kota Tambolaka, Kabupaten Sumba Barat Daya, Nusa Tenggara Tim. 87254","Wee Pangali, Kec. Kota Tambolaka, Kabupaten Sumba Barat Daya",NUSA TENGGARA TIMUR,87254.0,Indonesia,81339110068.0,,,-9.3698359,119.2691648,https://maps.google.com/?cid=0x0:0xe9208c199549c4b1,
hotel,hotel,Sumba Nautil Resort,"782C+4F9, Tarakatuku, Desa Patiala Bawa, Kacamatan Lamboya, Harona Kala, Kec. Laboya Bar., Kabupaten Sumba Barat, Nusa Tenggara Tim.","Kabupaten Sumba Barat, Nusa Tenggara Tim.",NUSA TENGGARA TIMUR,,Indonesia,38721806.0,,,-9.7497128,119.3212273,https://maps.google.com/?cid=0x0:0xb8fb1e2c0ca9a079,
hotel,hotel,Melati Homestay,"H68M+XHG, Jl. Sapurata, Wee Tobula, Kec. Loura, Kabupaten Sumba Barat Daya, Nusa Tenggara Tim.","Kabupaten Sumba Barat Daya, Nusa Tenggara Tim.",NUSA TENGGARA TIMUR,,Indonesia,81353966066.0,,,-9.4325568,119.2339512,https://maps.google.com/?cid=0x0:0xc0d44dda3a0bdc24,
hotel,hotel,RedDoorz @ Waikabubak Sumba,"Jl. Ahmad Yani No.107, Wailiang, Kec. Kota Waikabubak, Kabupaten Sumba Barat, Nusa Tenggara Tim. 87212","Wailiang, Kec. Kota Waikabubak, Kabupaten Sumba Barat",NUSA TENGGARA TIMUR,87212.0,Indonesia,895417300072.0,,,-9.6376664,119.4084299,https://maps.google.com/?cid=0x0:0x671432ec6713ef1a,
hotel,hotel,Newa Sumba Resort,"Radamata, Kec. Loura, Kabupaten Sumba Barat Daya, Nusa Tenggara Tim.","Kabupaten Sumba Barat Daya, Nusa Tenggara Tim.",NUSA TENGGARA TIMUR,,Indonesia,81339187077.0,,,-9.3789306,119.2416512,https://maps.google.com/?cid=0x0:0xda0aadee04f42658,
hotel,hotel,HOTEL ARTHA,"9C88+5VC, Kp. Sawah, Kec. Kota Waikabubak, Kabupaten Sumba Barat, Nusa Tenggara Tim.","Kabupaten Sumba Barat, Nusa Tenggara Tim.",NUSA TENGGARA TIMUR,,Indonesia,85253253980.0,,,-9.6345519,119.4171334,https://maps.google.com/?cid=0x0:0x3db048529ff7c25e,
hotel,hotel,Monalisa Hotel,"JL Adhyaksa No.30, Kampung Baru, Maliti, Kec. Kota Waikabubak, Kabupaten Sumba Barat, Nusa Tenggara Tim.","Kabupaten Sumba Barat, Nusa Tenggara Tim.",NUSA TENGGARA TIMUR,,Indonesia,38721364.0,,,-9.6232113,119.3935882,https://maps.google.com/?cid=0x0:0xe25d9790532c949c,
hotel,hotel,Hotel Bintang Waibakul,"CH4J+JFW, Wai Rasa, Kec. Umbu Ratu Nggay Bar., Kabupaten Sumba Tengah, Nusa Tenggara Tim.","Kabupaten Sumba Tengah, Nusa Tenggara Tim.",NUSA TENGGARA TIMUR,,Indonesia,81312246201.0,,,-9.593558,119.5814717,https://maps.google.com/?cid=0x0:0x51358ae2a77802c,
hotel,hotel,Hotel Aloha,"Kampung Sawah, Kota Waikabubak, Kp. Sawah, Kec. Kota Waikabubak, Kabupaten Sumba Barat, Nusa Tenggara Tim.","Kabupaten Sumba Barat, Nusa Tenggara Tim.",NUSA TENGGARA TIMUR,,Indonesia,38722227.0,,,-9.6331592,119.4139515,https://maps.google.com/?cid=0x0:0xb32f2f329d1931d9,
hotel,hotel,Pantai Maramba,"96GR+3WH, Temu, Kec. Kanatang, Kabupaten Sumba Timur, Nusa Tenggara Tim.","Kabupaten Sumba Timur, Nusa Tenggara Tim.",NUSA TENGGARA TIMUR,,Indonesia,,,,-9.6248129,120.2423598,https://maps.google.com/?cid=0x0:0x78c8b026b247b143,
hotel,hotel,Kec. Loura,"Kabupaten Sumba Barat Daya, Nusa Tenggara Tim.","Kabupaten Sumba Barat Daya, Nusa Tenggara Tim.",NUSA TENGGARA TIMUR,,Indonesia,,,,-9.4214178,119.2970741,https://maps.google.com/?cid=0x0:0x49ebe3d33838ae6d,
hotel,hotel,Mario Hotel  Cafe,"Ramadana, Ramma Dana, Kec. Loura, Kabupaten Sumba Barat Daya, Nusa Tenggara Tim.","Kabupaten Sumba Barat Daya, Nusa Tenggara Tim.",NUSA TENGGARA TIMUR,,Indonesia,81239710000.0,,,-9.3585658,119.2948611,https://maps.google.com/?cid=0x0:0x2bea9d4b63ab95de,
hotel,hotel,Hotel pasola,"Terminal Keberangkatan Bandar Udara Tambolaka, Radamata, Loura, Southwest Sumba Regency, East Nusa Tenggara","Kabupaten Sumba Barat Daya, Nusa Tenggara Tim.",NUSA TENGGARA TIMUR,,Indonesia,81329458690.0,,,-9.4133411,119.2445581,https://maps.google.com/?cid=0x0:0x7c0eb9d00100bb2c,
hotel,hotel,Sinar Tambolaka,"Hotel Sinar, Kalena Wano, Kec. Kota Tambolaka, Kabupaten Sumba Barat Daya, Nusa Tenggara Tim. 87255","Kalena Wano, Kec. Kota Tambolaka, Kabupaten Sumba Barat Daya",NUSA TENGGARA TIMUR,87255.0,Indonesia,3872524088.0,,,-9.4305675,119.2386103,https://maps.google.com/?cid=0x0:0xd1c8f3f36b22eaa1,
hotel,hotel,,,,NUSA TENGGARA TIMUR,,Indonesia,,,,,,https://maps.google.com/?cid=0x0:0xd1c8f3f36b22eaa1%7C/g/12vr2q517%7Cid-ID,
hotel,hotel,Sima Hotel Sumba,"Jl. Raja Yohanes Ngongo Bani, Weerena, Kec. Kota Tambolaka, Kabupaten Sumba Barat Daya, Nusa Tenggara Tim. 87261","Weerena, Kec. Kota Tambolaka, Kabupaten Sumba Barat Daya",NUSA TENGGARA TIMUR,87261.0,Indonesia,3872527411.0,,,-9.460902,119.2215221,https://maps.google.com/?cid=0x0:0x4237c4e0781d3bba,
hotel,hotel,Oro Beach Houses,"Weepangali, Wee Pangali, Kec. Kota Tambolaka, Kabupaten Sumba Barat Daya, Nusa Tenggara Tim. 87254","Wee Pangali, Kec. Kota Tambolaka, Kabupaten Sumba Barat Daya",NUSA TENGGARA TIMUR,87254.0,Indonesia,81339110068.0,,,-9.3698359,119.2691648,https://maps.google.com/?cid=0x0:0xe9208c199549c4b1,
hotel,hotel,Maringi Sumba by the Sumba Hospitality Foundation,"Sumba Hospitality Foundation, Jl Mananga Aba, Karuni, Loura, Southwest Sumba Regency, East Nusa Tenggara","Kabupaten Sumba Barat Daya, Nusa Tenggara Tim.",NUSA TENGGARA TIMUR,,Indonesia,82147148489.0,,,-9.3885915,119.301921,https://maps.google.com/?cid=0x0:0x455c193adffb5e44,
hotel,hotel,Hotel Ella,"H6CQ+2C8, Jl. Sapurata, Wee Tobula, Kec. Kota Tambolaka, Kabupaten Sumba Barat Daya, Nusa Tenggara Tim.","Kabupaten Sumba Barat Daya, Nusa Tenggara Tim.",NUSA TENGGARA TIMUR,,Indonesia,82145837745.0,,,-9.4299593,119.2385852,https://maps.google.com/?cid=0x0:0x848f5e0913612753,
hotel,hotel,RedDoorz @ Tambolaka Sumba,"Hotel Sinar, Kalena Wano, Kec. Kota Tambolaka, Kabupaten Sumba Barat Daya, Nusa Tenggara Tim. 87255","Kalena Wano, Kec. Kota Tambolaka, Kabupaten Sumba Barat Daya",NUSA TENGGARA TIMUR,87255.0,Indonesia,2180629666.0,,,-9.4306539,119.2385182,https://maps.google.com/?cid=0x0:0x5190bda48a33c1b6,
hotel,hotel,Hotel Sumba Sejahtera,"Jl. Sapurata, Kalena Wano, Kec. Kota Tambolaka, Kabupaten Sumba Barat Daya, Nusa Tenggara Tim.","Kabupaten Sumba Barat Daya, Nusa Tenggara Tim.",NUSA TENGGARA TIMUR,,Indonesia,82279245244.0,,,-9.4316553,119.2354984,https://maps.google.com/?cid=0x0:0xdca5c90d6ac4c2d4,
hotel,hotel,Newa Sumba Resort,"Radamata, Kec. Loura, Kabupaten Sumba Barat Daya, Nusa Tenggara Tim.","Kabupaten Sumba Barat Daya, Nusa Tenggara Tim.",NUSA TENGGARA TIMUR,,Indonesia,81339187077.0,,,-9.3789306,119.2416512,https://maps.google.com/?cid=0x0:0xda0aadee04f42658,
hotel,hotel,El Ora Hotel  Eatery Labuan Bajo,"Jl. Yohanis Sahadun No.8, Labuan Bajo, Kec. Komodo, Kabupaten Manggarai Barat, Nusa Tenggara Tim.","Kabupaten Manggarai Barat, Nusa Tenggara Tim.",NUSA TENGGARA TIMUR,,Indonesia,85106077731.0,,,-8.4956322,119.8857116,https://maps.google.com/?cid=0x0:0xe53b28681242ee9c,
hotel,hotel,Hotel Laura Senen,"Jl. Kramat Raya No.7 9, RT.4/RW.2, Kramat, Kec. Senen, Kota Jakarta Pusat, Daerah Khusus Ibukota Jakarta 10450","RT.4/RW.2, Kramat, Kec. Senen, Kota Jakarta Pusat",NUSA TENGGARA TIMUR,10450.0,Indonesia,213907036.0,,,-6.1790189,106.8435813,https://maps.google.com/?cid=0x0:0x809a59dd3360eecd,
hotel,hotel,Melati Homestay,"H68M+XHG, Jl. Sapurata, Wee Tobula, Kec. Loura, Kabupaten Sumba Barat Daya, Nusa Tenggara Tim.","Kabupaten Sumba Barat Daya, Nusa Tenggara Tim.",NUSA TENGGARA TIMUR,,Indonesia,81353966066.0,,,-9.4325568,119.2339512,https://maps.google.com/?cid=0x0:0xc0d44dda3a0bdc24,
hotel,Museum Sejarah Lokal,Monumen Nasional,"Merdeka Square, Jalan Lapangan Monas, Gambir, Kecamatan Gambir, Kota Jakarta Pusat, Daerah Khusus Ibukota Jakarta 10110","Jalan Lapangan Monas, Gambir, Kecamatan Gambir, Kota Jakarta Pusat",NUSA TENGGARA TIMUR,10110.0,Indonesia,213853040.0,,,-6.1753924,106.8271528,https://maps.google.com/?cid=0x0:0x3d2ad6e1e0e9bcc8,
hotel,Layanan Transportasi,Stasiun Pasar Senen,"Jl. Pasar Senen No.14, Senen, Kec. Senen, Kota Jakarta Pusat, Daerah Khusus Ibukota Jakarta 10410","Senen, Kec. Senen, Kota Jakarta Pusat",NUSA TENGGARA TIMUR,10410.0,Indonesia,,,,-6.1747,106.84435,https://maps.google.com/?cid=0x0:0x26d8e8d36c8b8021,
hotel,hotel,Cordela Hotel Senen,"Jl. Kramat Raya No.102, RT.2/RW.9, Kwitang, Kec. Senen, Kota Jakarta Pusat, Daerah Khusus Ibukota Jakarta 10420","RT.2/RW.9, Kwitang, Kec. Senen, Kota Jakarta Pusat",NUSA TENGGARA TIMUR,10420.0,Indonesia,2121390333.0,,,-6.1834969,106.842815,https://maps.google.com/?cid=0x0:0xd4df387639709857,
hotel,hotel,,,,NUSA TENGGARA TIMUR,,Indonesia,,,,,,https://maps.google.com/?cid=0x0:0xd4df387639709857%7C/g/11bx55dxb1%7Cid-ID,
hotel,hotel,Sima Hotel Sumba,"Jl. Raja Yohanes Ngongo Bani, Weerena, Kec. Kota Tambolaka, Kabupaten Sumba Barat Daya, Nusa Tenggara Tim. 87261","Weerena, Kec. Kota Tambolaka, Kabupaten Sumba Barat Daya",NUSA TENGGARA TIMUR,87261.0,Indonesia,3872527411.0,,,-9.460902,119.2215221,https://maps.google.com/?cid=0x0:0x4237c4e0781d3bba,
hotel,hotel,Sinar Tambolaka,"Hotel Sinar, Kalena Wano, Kec. Kota Tambolaka, Kabupaten Sumba Barat Daya, Nusa Tenggara Tim. 87255","Kalena Wano, Kec. Kota Tambolaka, Kabupaten Sumba Barat Daya",NUSA TENGGARA TIMUR,87255.0,Indonesia,3872524088.0,,,-9.4305675,119.2386103,https://maps.google.com/?cid=0x0:0xd1c8f3f36b22eaa1,
hotel,hotel,Nusa Tenggara Tim. 87253,"Raba Engge, Kec. Wewewa Bar., Kabupaten Sumba Barat Daya, Nusa Tenggara Tim.","Kabupaten Sumba Barat Daya, Nusa Tenggara Tim.",NUSA TENGGARA TIMUR,,Indonesia,,,,-9.5600081,119.2279835,https://maps.google.com/?cid=0x0:0x408cc62c8b3addfc,
hotel,hotel,Hotel pasola,"Terminal Keberangkatan Bandar Udara Tambolaka, Radamata, Loura, Southwest Sumba Regency, East Nusa Tenggara","Kabupaten Sumba Barat Daya, Nusa Tenggara Tim.",NUSA TENGGARA TIMUR,,Indonesia,81329458690.0,,,-9.4133411,119.2445581,https://maps.google.com/?cid=0x0:0x7c0eb9d00100bb2c,
hotel,hotel,RedDoorz @ Waikabubak Sumba,"Jl. Ahmad Yani No.107, Wailiang, Kec. Kota Waikabubak, Kabupaten Sumba Barat, Nusa Tenggara Tim. 87212","Wailiang, Kec. Kota Waikabubak, Kabupaten Sumba Barat",NUSA TENGGARA TIMUR,87212.0,Indonesia,895417300072.0,,,-9.6376664,119.4084299,https://maps.google.com/?cid=0x0:0x671432ec6713ef1a,
hotel,hotel,Hotel Ella,"H6CQ+2C8, Jl. Sapurata, Wee Tobula, Kec. Kota Tambolaka, Kabupaten Sumba Barat Daya, Nusa Tenggara Tim.","Kabupaten Sumba Barat Daya, Nusa Tenggara Tim.",NUSA TENGGARA TIMUR,,Indonesia,82145837745.0,,,-9.4299593,119.2385852,https://maps.google.com/?cid=0x0:0x848f5e0913612753,
hotel,hotel,Wajonata Sumba,"Unnamed Road, W U L A, Kec. Wulla Waijelu, Kabupaten Sumba Timur, Nusa Tenggara Tim.","Kabupaten Sumba Timur, Nusa Tenggara Tim.",NUSA TENGGARA TIMUR,,Indonesia,81288271734.0,,,-10.2502349,120.6194603,https://maps.google.com/?cid=0x0:0xb8f20d8d7e967f49,
hotel,hotel,Hotel Sumba Sejahtera,"Jl. Sapurata, Kalena Wano, Kec. Kota Tambolaka, Kabupaten Sumba Barat Daya, Nusa Tenggara Tim.","Kabupaten Sumba Barat Daya, Nusa Tenggara Tim.",NUSA TENGGARA TIMUR,,Indonesia,82279245244.0,,,-9.4316553,119.2354984,https://maps.google.com/?cid=0x0:0xdca5c90d6ac4c2d4,
hotel,hotel,Sumba Beach (Anna Villas),"JHWJ+V7, Manu Wolu, Kec. Mamboro, Kabupaten Sumba Tengah, Nusa Tenggara Tim.","Kabupaten Sumba Tengah, Nusa Tenggara Tim.",NUSA TENGGARA TIMUR,,Indonesia,81139600235.0,,,-9.3527589,119.5806888,https://maps.google.com/?cid=0x0:0x647d48a1ba8c1e65,
hotel,hotel,RedDoorz @ Tambolaka Sumba,"Hotel Sinar, Kalena Wano, Kec. Kota Tambolaka, Kabupaten Sumba Barat Daya, Nusa Tenggara Tim. 87255","Kalena Wano, Kec. Kota Tambolaka, Kabupaten Sumba Barat Daya",NUSA TENGGARA TIMUR,87255.0,Indonesia,2180629666.0,,,-9.4306539,119.2385182,https://maps.google.com/?cid=0x0:0x5190bda48a33c1b6,
hotel,hotel,Myze Hotel Waingapu,"Kambaniru, Kec. Kambera, Kabupaten Sumba Timur, Nusa Tenggara Tim.","Kabupaten Sumba Timur, Nusa Tenggara Tim.",NUSA TENGGARA TIMUR,,Indonesia,81238828187.0,,,-9.652862,120.3009608,https://maps.google.com/?cid=0x0:0x7ae13eec9757b4d3,
hotel,hotel,HOTEL ARTHA,"9C88+5VC, Kp. Sawah, Kec. Kota Waikabubak, Kabupaten Sumba Barat, Nusa Tenggara Tim.","Kabupaten Sumba Barat, Nusa Tenggara Tim.",NUSA TENGGARA TIMUR,,Indonesia,85253253980.0,,,-9.6345519,119.4171334,https://maps.google.com/?cid=0x0:0x3db048529ff7c25e,
hotel,hotel,Hotel Aloha,"Kampung Sawah, Kota Waikabubak, Kp. Sawah, Kec. Kota Waikabubak, Kabupaten Sumba Barat, Nusa Tenggara Tim.","Kabupaten Sumba Barat, Nusa Tenggara Tim.",NUSA TENGGARA TIMUR,,Indonesia,38722227.0,,,-9.6331592,119.4139515,https://maps.google.com/?cid=0x0:0xb32f2f329d1931d9,
hotel,hotel,Newa Sumba Resort,"Radamata, Kec. Loura, Kabupaten Sumba Barat Daya, Nusa Tenggara Tim.","Kabupaten Sumba Barat Daya, Nusa Tenggara Tim.",NUSA TENGGARA TIMUR,,Indonesia,81339187077.0,,,-9.3789306,119.2416512,https://maps.google.com/?cid=0x0:0xda0aadee04f42658,
hotel,hotel,Hotel Bintang Waibakul,"CH4J+JFW, Wai Rasa, Kec. Umbu Ratu Nggay Bar., Kabupaten Sumba Tengah, Nusa Tenggara Tim.","Kabupaten Sumba Tengah, Nusa Tenggara Tim.",NUSA TENGGARA TIMUR,,Indonesia,81312246201.0,,,-9.593558,119.5814717,https://maps.google.com/?cid=0x0:0x51358ae2a77802c,
hotel,hotel,Melati Homestay,"H68M+XHG, Jl. Sapurata, Wee Tobula, Kec. Loura, Kabupaten Sumba Barat Daya, Nusa Tenggara Tim.","Kabupaten Sumba Barat Daya, Nusa Tenggara Tim.",NUSA TENGGARA TIMUR,,Indonesia,81353966066.0,,,-9.4325568,119.2339512,https://maps.google.com/?cid=0x0:0xc0d44dda3a0bdc24,
hotel,hotel,Hotel Pelita,"9C96+5J2, Komerda, Kec. Kota Waikabubak, Kabupaten Sumba Barat, Nusa Tenggara Tim.","Kabupaten Sumba Barat, Nusa Tenggara Tim.",NUSA TENGGARA TIMUR,,Indonesia,81237032182.0,,,-9.6321228,119.411527,https://maps.google.com/?cid=0x0:0xc869fbc814ad2f11,
hotel,hotel,Hotel Yotowawa,"Jl. Farmasi, Liliba, Kec. Oebobo, Kota Kupang, Nusa Tenggara Tim.","Kota Kupang, Nusa Tenggara Tim.",NUSA TENGGARA TIMUR,,Indonesia,,,,-10.1625609,123.6558959,https://maps.google.com/?cid=0x0:0x217ba4f510510ca0,
hotel,hotel,Tanto Hotel,"Jl. Prof. Dr. W. Z. Yohanes No. 14, Waingapu, Prailiu, Kec. Kambera, Kabupaten Sumba Timur, Nusa Tenggara Tim. 87112","Waingapu, Prailiu, Kec. Kambera, Kabupaten Sumba Timur",NUSA TENGGARA TIMUR,87112.0,Indonesia,81281816484.0,,,-9.6586796,120.270165,https://maps.google.com/?cid=0x0:0x76930ba103e9c0a3,
hotel,hotel,Sumba Nautil Resort,"782C+4F9, Tarakatuku, Desa Patiala Bawa, Kacamatan Lamboya, Harona Kala, Kec. Laboya Bar., Kabupaten Sumba Barat, Nusa Tenggara Tim.","Kabupaten Sumba Barat, Nusa Tenggara Tim.",NUSA TENGGARA TIMUR,,Indonesia,38721806.0,,,-9.7497128,119.3212273,https://maps.google.com/?cid=0x0:0xb8fb1e2c0ca9a079,
hotel,hotel,Hotel Kaliuda Waingapu,"87W8+88G, Matawai, Kec. Kota Waingapu, Kabupaten Sumba Timur, Nusa Tenggara Tim.","Kabupaten Sumba Timur, Nusa Tenggara Tim.",NUSA TENGGARA TIMUR,,Indonesia,,,,-9.6541843,120.2658319,https://maps.google.com/?cid=0x0:0xc088b40909cbf1f4,
hotel,hotel,Rua Beach Resort Sumba,"Rua, Kec. Wanokaka, Kabupaten Sumba Barat, Nusa Tenggara Tim.","Kabupaten Sumba Barat, Nusa Tenggara Tim.",NUSA TENGGARA TIMUR,,Indonesia,8113865586.0,,,-9.7639457,119.4146995,https://maps.google.com/?cid=0x0:0xcf6117e192385cfe,
hotel,hotel,Kec. Wewewa Sel.,"Kabupaten Sumba Barat Daya, Nusa Tenggara Tim.","Kabupaten Sumba Barat Daya, Nusa Tenggara Tim.",NUSA TENGGARA TIMUR,,Indonesia,,,,-9.5674808,119.2200814,https://maps.google.com/?cid=0x0:0x5dc8281eeb398606,
hotel,hotel,Sima Hotel Sumba,"Jl. Raja Yohanes Ngongo Bani, Weerena, Kec. Kota Tambolaka, Kabupaten Sumba Barat Daya, Nusa Tenggara Tim. 87261","Weerena, Kec. Kota Tambolaka, Kabupaten Sumba Barat Daya",NUSA TENGGARA TIMUR,87261.0,Indonesia,3872527411.0,,,-9.460902,119.2215221,https://maps.google.com/?cid=0x0:0x4237c4e0781d3bba,
hotel,hotel,NIHI Sumba,"Hoba Wawi, Kec. Wanokaka, Kabupaten Sumba Barat, Nusa Tenggara Tim.","Kabupaten Sumba Barat, Nusa Tenggara Tim.",NUSA TENGGARA TIMUR,,Indonesia,361757149.0,,,-9.7776308,119.3762222,https://maps.google.com/?cid=0x0:0x2b81189bedf1a30a,
hotel,hotel,Lelewatu Resort Sumba,"Jl. Lelewatu No.168, Hoba Wawi, Wanokaka, Sumba, East Nusa Tenggara 87272","Hoba Wawi, Wanokaka, Sumba",NUSA TENGGARA TIMUR,87272.0,Indonesia,81139606060.0,,,-9.7911026,119.3807849,https://maps.google.com/?cid=0x0:0xe3cfeaac2ee41407,
hotel,hotel,Sinar Tambolaka,"Hotel Sinar, Kalena Wano, Kec. Kota Tambolaka, Kabupaten Sumba Barat Daya, Nusa Tenggara Tim. 87255","Kalena Wano, Kec. Kota Tambolaka, Kabupaten Sumba Barat Daya",NUSA TENGGARA TIMUR,87255.0,Indonesia,3872524088.0,,,-9.4305675,119.2386103,https://maps.google.com/?cid=0x0:0xd1c8f3f36b22eaa1,
hotel,hotel,,,,NUSA TENGGARA TIMUR,,Indonesia,,,,,,https://maps.google.com/?cid=0x0:0xd1c8f3f36b22eaa1%7C/g/12vr2q517%7Cid-ID,
hotel,hotel,Sumba Voyage Villa,"Sumba Voyage, Bara kabelak, Hoba Wawi, Kec. Wanokaka, Kabupaten Sumba Barat, Nusa Tenggara Tim.","Kabupaten Sumba Barat, Nusa Tenggara Tim.",NUSA TENGGARA TIMUR,,Indonesia,81386709761.0,,,-9.7656659,119.3930066,https://maps.google.com/?cid=0x0:0x2976e081978f8703,
hotel,hotel,Villa Redemptorist,"Unnamed Road, Radamata, Kec. Loura, Kabupaten Sumba Barat Daya, Nusa Tenggara Tim.","Kabupaten Sumba Barat Daya, Nusa Tenggara Tim.",NUSA TENGGARA TIMUR,,Indonesia,81216498177.0,,,-9.3901395,119.2240008,https://maps.google.com/?cid=0x0:0xe015bc11d11fb1e,
hotel,hotel,Hotel pasola,"Terminal Keberangkatan Bandar Udara Tambolaka, Radamata, Loura, Southwest Sumba Regency, East Nusa Tenggara","Kabupaten Sumba Barat Daya, Nusa Tenggara Tim.",NUSA TENGGARA TIMUR,,Indonesia,81329458690.0,,,-9.4133411,119.2445581,https://maps.google.com/?cid=0x0:0x7c0eb9d00100bb2c,
hotel,hotel,Umarato Resort,"Jurusan Arena, Rua Wanokaka Jalan Rua-Wanokaka no 7, Pahola, Kec. Wanokaka, Kabupaten Sumba Barat, Nusa Tenggara Tim. 87272","Rua Wanokaka Jalan Rua-Wanokaka no 7, Pahola, Kec. Wanokaka, Kabupaten Sumba Barat",NUSA TENGGARA TIMUR,87272.0,Indonesia,8118192999.0,,,-9.7552382,119.4128409,https://maps.google.com/?cid=0x0:0x627988f4195723d6,
hotel,hotel,Sumba Nautil Resort,"782C+4F9, Tarakatuku, Desa Patiala Bawa, Kacamatan Lamboya, Harona Kala, Kec. Laboya Bar., Kabupaten Sumba Barat, Nusa Tenggara Tim.","Kabupaten Sumba Barat, Nusa Tenggara Tim.",NUSA TENGGARA TIMUR,,Indonesia,38721806.0,,,-9.7497128,119.3212273,https://maps.google.com/?cid=0x0:0xb8fb1e2c0ca9a079,
hotel,hotel,Maringi Sumba by the Sumba Hospitality Foundation,"Sumba Hospitality Foundation, Jl Mananga Aba, Karuni, Loura, Southwest Sumba Regency, East Nusa Tenggara","Kabupaten Sumba Barat Daya, Nusa Tenggara Tim.",NUSA TENGGARA TIMUR,,Indonesia,82147148489.0,,,-9.3885915,119.301921,https://maps.google.com/?cid=0x0:0x455c193adffb5e44,
hotel,hotel,Musa Homestay,"Patiala Bawa, Kec. Lamboya, Kabupaten Sumba Barat, Nusa Tenggara Tim.","Kabupaten Sumba Barat, Nusa Tenggara Tim.",NUSA TENGGARA TIMUR,,Indonesia,85142994403.0,,,-9.7596772,119.3327706,https://maps.google.com/?cid=0x0:0x70658a09ca09da2a,
hotel,hotel,Rua Beach Resort Sumba,"Rua, Kec. Wanokaka, Kabupaten Sumba Barat, Nusa Tenggara Tim.","Kabupaten Sumba Barat, Nusa Tenggara Tim.",NUSA TENGGARA TIMUR,,Indonesia,8113865586.0,,,-9.7639457,119.4146995,https://maps.google.com/?cid=0x0:0xcf6117e192385cfe,
hotel,hotel,Sumba Retreat,"Pantai Kerewe, Patiala Bawa, Kec. Lamboya, Waikabubak, Nusa Tenggara Tim. 87271","Patiala Bawa, Kec. Lamboya, Waikabubak",NUSA TENGGARA TIMUR,87271.0,Indonesia,85339234685.0,,,-9.7592846,119.3329636,https://maps.google.com/?cid=0x0:0xb14db5234857fe5b,
hotel,hotel,Umarato Villa,"Jalan Rua - Wanokaka no 7 Jurusan Pahola Kec. Wanokaka, Rua, Kec. Kota Waikabubak, Nusa Tenggara Tim. 87272","Rua, Kec. Kota Waikabubak",NUSA TENGGARA TIMUR,87272.0,Indonesia,8118192999.0,,,-9.7522658,119.4129673,https://maps.google.com/?cid=0x0:0xdefc6f1216ba5c2c,
hotel,hotel,LaCasa DeLuna Guest House,"9C65+5XF, Maliti, Kec. Kota Waikabubak, Kabupaten Sumba Barat, Nusa Tenggara Tim.","Kabupaten Sumba Barat, Nusa Tenggara Tim.",NUSA TENGGARA TIMUR,,Indonesia,81338719299.0,,,-9.6395419,119.4099796,https://maps.google.com/?cid=0x0:0x73634316f7cb09fe,
hotel,hotel,"Bobocabin Umarato, Sumba","Jl. Rua-Wanokaka No. 7, Pahola, Kec. Wanokaka, Kabupaten Sumba Barat, Nusa Tenggara Tim. 87272","Pahola, Kec. Wanokaka, Kabupaten Sumba Barat",NUSA TENGGARA TIMUR,87272.0,Indonesia,81120022864.0,,,-9.7534168,119.413178,https://maps.google.com/?cid=0x0:0x8429f2c37c7984c5,
hotel,hotel,THE VILLAGE INN Rua Beach,"Rua 2, Kec. Wanokaka, Kabupaten Sumba Barat, Nusa Tenggara Tim.","Kabupaten Sumba Barat, Nusa Tenggara Tim.",NUSA TENGGARA TIMUR,,Indonesia,8118632632.0,,,-9.7640069,119.4133303,https://maps.google.com/?cid=0x0:0x6bbc16eb8b8a825e,
hotel,hotel,Wajonata Sumba,"Unnamed Road, W U L A, Kec. Wulla Waijelu, Kabupaten Sumba Timur, Nusa Tenggara Tim.","Kabupaten Sumba Timur, Nusa Tenggara Tim.",NUSA TENGGARA TIMUR,,Indonesia,81288271734.0,,,-10.2502349,120.6194603,https://maps.google.com/?cid=0x0:0xb8f20d8d7e967f49,
hotel,hotel,RedDoorz @ Waikabubak Sumba,"Jl. Ahmad Yani No.107, Wailiang, Kec. Kota Waikabubak, Kabupaten Sumba Barat, Nusa Tenggara Tim. 87212","Wailiang, Kec. Kota Waikabubak, Kabupaten Sumba Barat",NUSA TENGGARA TIMUR,87212.0,Indonesia,895417300072.0,,,-9.6376664,119.4084299,https://maps.google.com/?cid=0x0:0x671432ec6713ef1a,
hotel,hotel,The Sanubari,"pantai Dasang, Harona Kala, Laboya Barat, West Sumba Regency, East Nusa Tenggara","Kabupaten Sumba Barat, Nusa Tenggara Tim.",NUSA TENGGARA TIMUR,,Indonesia,82146394499.0,,,-9.7513736,119.307935,https://maps.google.com/?cid=0x0:0xe6500b803b15497b,
hotel,hotel,Manandang Hotel,"Jl. Pemuda No.4, Maliti, Kec. Kota Waikabubak, Kabupaten Sumba Barat, Nusa Tenggara Tim.","Kabupaten Sumba Barat, Nusa Tenggara Tim.",NUSA TENGGARA TIMUR,,Indonesia,38721197.0,,,-9.6352766,119.4110344,https://maps.google.com/?cid=0x0:0x30462dea11a5863,
hotel,hotel,Sinar Tambolaka,"Hotel Sinar, Kalena Wano, Kec. Kota Tambolaka, Kabupaten Sumba Barat Daya, Nusa Tenggara Tim. 87255","Kalena Wano, Kec. Kota Tambolaka, Kabupaten Sumba Barat Daya",NUSA TENGGARA TIMUR,87255.0,Indonesia,3872524088.0,,,-9.4305675,119.2386103,https://maps.google.com/?cid=0x0:0xd1c8f3f36b22eaa1,
hotel,hotel,Kec. Wewewa Tengah,"Kabupaten Sumba Barat Daya, Nusa Tenggara Tim.","Kabupaten Sumba Barat Daya, Nusa Tenggara Tim.",NUSA TENGGARA TIMUR,,Indonesia,,,,-9.532605,119.2909927,https://maps.google.com/?cid=0x0:0x6f978c8d3fab9d28,
hotel,hotel,,,,NUSA TENGGARA TIMUR,,Indonesia,,,,,,https://maps.google.com/?cid=0x0:0xd1c8f3f36b22eaa1%7C/g/12vr2q517%7Cid-ID,
hotel,hotel,Hotel Sumba Sejahtera,"Jl. Sapurata, Kalena Wano, Kec. Kota Tambolaka, Kabupaten Sumba Barat Daya, Nusa Tenggara Tim.","Kabupaten Sumba Barat Daya, Nusa Tenggara Tim.",NUSA TENGGARA TIMUR,,Indonesia,82279245244.0,,,-9.4316553,119.2354984,https://maps.google.com/?cid=0x0:0xdca5c90d6ac4c2d4,
hotel,hotel,Sima Hotel Sumba,"Jl. Raja Yohanes Ngongo Bani, Weerena, Kec. Kota Tambolaka, Kabupaten Sumba Barat Daya, Nusa Tenggara Tim. 87261","Weerena, Kec. Kota Tambolaka, Kabupaten Sumba Barat Daya",NUSA TENGGARA TIMUR,87261.0,Indonesia,3872527411.0,,,-9.460902,119.2215221,https://maps.google.com/?cid=0x0:0x4237c4e0781d3bba,
hotel,Kantor Perusahaan,Rumah Budaya Sumba,"Jl. Rumah Budaya No.212, Kalembu Nga, bangga Weetebula, Kabupaten Sumba Barat Daya, Nusa Tenggara Tim.","Kabupaten Sumba Barat Daya, Nusa Tenggara Tim.",NUSA TENGGARA TIMUR,,Indonesia,,,,-9.4335489,119.214735,https://maps.google.com/?cid=0x0:0xc74dc666ea2888e8,
hotel,hotel,Rua Beach Resort Sumba,"Rua, Kec. Wanokaka, Kabupaten Sumba Barat, Nusa Tenggara Tim.","Kabupaten Sumba Barat, Nusa Tenggara Tim.",NUSA TENGGARA TIMUR,,Indonesia,8113865586.0,,,-9.7639457,119.4146995,https://maps.google.com/?cid=0x0:0xcf6117e192385cfe,
hotel,hotel,Nihiwatu Beach,Nusa Tenggara Tim.,Nusa Tenggara Tim.,NUSA TENGGARA TIMUR,,Indonesia,,,,-9.7720795,119.3682249,https://maps.google.com/?cid=0x0:0x54c747e3fc22ac63,
hotel,hotel,Hotel pasola,"Terminal Keberangkatan Bandar Udara Tambolaka, Radamata, Loura, Southwest Sumba Regency, East Nusa Tenggara","Kabupaten Sumba Barat Daya, Nusa Tenggara Tim.",NUSA TENGGARA TIMUR,,Indonesia,81329458690.0,,,-9.4133411,119.2445581,https://maps.google.com/?cid=0x0:0x7c0eb9d00100bb2c,
hotel,hotel,Hotel Pelita,"9C96+5J2, Komerda, Kec. Kota Waikabubak, Kabupaten Sumba Barat, Nusa Tenggara Tim.","Kabupaten Sumba Barat, Nusa Tenggara Tim.",NUSA TENGGARA TIMUR,,Indonesia,81237032182.0,,,-9.6321228,119.411527,https://maps.google.com/?cid=0x0:0xc869fbc814ad2f11,
hotel,hotel,Hotel Aloha,"Kampung Sawah, Kota Waikabubak, Kp. Sawah, Kec. Kota Waikabubak, Kabupaten Sumba Barat, Nusa Tenggara Tim.","Kabupaten Sumba Barat, Nusa Tenggara Tim.",NUSA TENGGARA TIMUR,,Indonesia,38722227.0,,,-9.6331592,119.4139515,https://maps.google.com/?cid=0x0:0xb32f2f329d1931d9,
hotel,hotel,RedDoorz @ Waikabubak Sumba,"Jl. Ahmad Yani No.107, Wailiang, Kec. Kota Waikabubak, Kabupaten Sumba Barat, Nusa Tenggara Tim. 87212","Wailiang, Kec. Kota Waikabubak, Kabupaten Sumba Barat",NUSA TENGGARA TIMUR,87212.0,Indonesia,895417300072.0,,,-9.6376664,119.4084299,https://maps.google.com/?cid=0x0:0x671432ec6713ef1a,
hotel,hotel,HOTEL ARTHA,"9C88+5VC, Kp. Sawah, Kec. Kota Waikabubak, Kabupaten Sumba Barat, Nusa Tenggara Tim.","Kabupaten Sumba Barat, Nusa Tenggara Tim.",NUSA TENGGARA TIMUR,,Indonesia,85253253980.0,,,-9.6345519,119.4171334,https://maps.google.com/?cid=0x0:0x3db048529ff7c25e,
hotel,hotel,Manandang Hotel,"Jl. Pemuda No.4, Maliti, Kec. Kota Waikabubak, Kabupaten Sumba Barat, Nusa Tenggara Tim.","Kabupaten Sumba Barat, Nusa Tenggara Tim.",NUSA TENGGARA TIMUR,,Indonesia,38721197.0,,,-9.6352766,119.4110344,https://maps.google.com/?cid=0x0:0x30462dea11a5863,
hotel,hotel,Penginapan Ronita,"9C79+78Q, Kp. Sawah, Kec. Kota Waikabubak, Kabupaten Sumba Barat, Nusa Tenggara Tim.","Kabupaten Sumba Barat, Nusa Tenggara Tim.",NUSA TENGGARA TIMUR,,Indonesia,,,,-9.6367893,119.4183457,https://maps.google.com/?cid=0x0:0x881fbc3468e86e6a,
hotel,hotel,Morika Inn and Cafe,"Wee Karou, Kec. Loli, Kabupaten Sumba Barat, Nusa Tenggara Tim.","Kabupaten Sumba Barat, Nusa Tenggara Tim.",NUSA TENGGARA TIMUR,,Indonesia,81259541325.0,,,-9.6453034,119.3963347,https://maps.google.com/?cid=0x0:0x1d57ab1c9a7d79cf,
hotel,hotel,Monalisa Hotel,"JL Adhyaksa No.30, Kampung Baru, Maliti, Kec. Kota Waikabubak, Kabupaten Sumba Barat, Nusa Tenggara Tim.","Kabupaten Sumba Barat, Nusa Tenggara Tim.",NUSA TENGGARA TIMUR,,Indonesia,38721364.0,,,-9.6232113,119.3935882,https://maps.google.com/?cid=0x0:0xe25d9790532c949c,
hotel,hotel,Kec. Wewewa Tim.,"Kabupaten Sumba Barat Daya, Nusa Tenggara Tim.","Kabupaten Sumba Barat Daya, Nusa Tenggara Tim.",NUSA TENGGARA TIMUR,,Indonesia,,,,-9.5922479,119.3511009,https://maps.google.com/?cid=0x0:0x69ead4906c239f2b,
hotel,hotel,NIHI Sumba,"Hoba Wawi, Kec. Wanokaka, Kabupaten Sumba Barat, Nusa Tenggara Tim.","Kabupaten Sumba Barat, Nusa Tenggara Tim.",NUSA TENGGARA TIMUR,,Indonesia,361757149.0,,,-9.7776308,119.3762222,https://maps.google.com/?cid=0x0:0x2b81189bedf1a30a,
hotel,hotel,,,,NUSA TENGGARA TIMUR,,Indonesia,,,,,,https://maps.google.com/?cid=0x0:0x2b81189bedf1a30a%7C/g/11bc7r28bv%7Cid-ID,
hotel,hotel,LaCasa DeLuna Guest House,"9C65+5XF, Maliti, Kec. Kota Waikabubak, Kabupaten Sumba Barat, Nusa Tenggara Tim.","Kabupaten Sumba Barat, Nusa Tenggara Tim.",NUSA TENGGARA TIMUR,,Indonesia,81338719299.0,,,-9.6395419,119.4099796,https://maps.google.com/?cid=0x0:0x73634316f7cb09fe,
hotel,hotel,Sima Hotel Sumba,"Jl. Raja Yohanes Ngongo Bani, Weerena, Kec. Kota Tambolaka, Kabupaten Sumba Barat Daya, Nusa Tenggara Tim. 87261","Weerena, Kec. Kota Tambolaka, Kabupaten Sumba Barat Daya",NUSA TENGGARA TIMUR,87261.0,Indonesia,3872527411.0,,,-9.460902,119.2215221,https://maps.google.com/?cid=0x0:0x4237c4e0781d3bba,
hotel,hotel,RedDoorz @ Waikabubak Sumba,"Jl. Ahmad Yani No.107, Wailiang, Kec. Kota Waikabubak, Kabupaten Sumba Barat, Nusa Tenggara Tim. 87212","Wailiang, Kec. Kota Waikabubak, Kabupaten Sumba Barat",NUSA TENGGARA TIMUR,87212.0,Indonesia,895417300072.0,,,-9.6376664,119.4084299,https://maps.google.com/?cid=0x0:0x671432ec6713ef1a,
hotel,hotel,Sumba Nautil Resort,"782C+4F9, Tarakatuku, Desa Patiala Bawa, Kacamatan Lamboya, Harona Kala, Kec. Laboya Bar., Kabupaten Sumba Barat, Nusa Tenggara Tim.","Kabupaten Sumba Barat, Nusa Tenggara Tim.",NUSA TENGGARA TIMUR,,Indonesia,38721806.0,,,-9.7497128,119.3212273,https://maps.google.com/?cid=0x0:0xb8fb1e2c0ca9a079,
hotel,hotel,Sumba Voyage Villa,"Sumba Voyage, Bara kabelak, Hoba Wawi, Kec. Wanokaka, Kabupaten Sumba Barat, Nusa Tenggara Tim.","Kabupaten Sumba Barat, Nusa Tenggara Tim.",NUSA TENGGARA TIMUR,,Indonesia,81386709761.0,,,-9.7656659,119.3930066,https://maps.google.com/?cid=0x0:0x2976e081978f8703,
hotel,hotel,Rua Beach Resort Sumba,"Rua, Kec. Wanokaka, Kabupaten Sumba Barat, Nusa Tenggara Tim.","Kabupaten Sumba Barat, Nusa Tenggara Tim.",NUSA TENGGARA TIMUR,,Indonesia,8113865586.0,,,-9.7639457,119.4146995,https://maps.google.com/?cid=0x0:0xcf6117e192385cfe,
hotel,hotel,Ketanu Bamboo lodge sumba - Hôtel sumba Indonésie,"Jl pahola, wanokaka, west, Kec. Kota Waikabubak, Kabupaten Sumba Barat, Nusa Tenggara Tim. 87272","wanokaka, west, Kec. Kota Waikabubak, Kabupaten Sumba Barat",NUSA TENGGARA TIMUR,87272.0,Indonesia,82340722775.0,,,-9.7542024,119.4188266,https://maps.google.com/?cid=0x0:0xb7869eb34516abd6,
hotel,hotel,Umarato Resort,"Jurusan Arena, Rua Wanokaka Jalan Rua-Wanokaka no 7, Pahola, Kec. Wanokaka, Kabupaten Sumba Barat, Nusa Tenggara Tim. 87272","Rua Wanokaka Jalan Rua-Wanokaka no 7, Pahola, Kec. Wanokaka, Kabupaten Sumba Barat",NUSA TENGGARA TIMUR,87272.0,Indonesia,8118192999.0,,,-9.7552382,119.4128409,https://maps.google.com/?cid=0x0:0x627988f4195723d6,
hotel,hotel,Sumba Retreat,"Pantai Kerewe, Patiala Bawa, Kec. Lamboya, Waikabubak, Nusa Tenggara Tim. 87271","Patiala Bawa, Kec. Lamboya, Waikabubak",NUSA TENGGARA TIMUR,87271.0,Indonesia,85339234685.0,,,-9.7592846,119.3329636,https://maps.google.com/?cid=0x0:0xb14db5234857fe5b,
hotel,hotel,Manandang Hotel,"Jl. Pemuda No.4, Maliti, Kec. Kota Waikabubak, Kabupaten Sumba Barat, Nusa Tenggara Tim.","Kabupaten Sumba Barat, Nusa Tenggara Tim.",NUSA TENGGARA TIMUR,,Indonesia,38721197.0,,,-9.6352766,119.4110344,https://maps.google.com/?cid=0x0:0x30462dea11a5863,
hotel,hotel,Shekinah Homestay  Cafe,"Jl. Veteran, Kp. Sawah, Kec. Kota Waikabubak, Kabupaten Sumba Barat, Nusa Tenggara Tim. 87211","Kp. Sawah, Kec. Kota Waikabubak, Kabupaten Sumba Barat",NUSA TENGGARA TIMUR,87211.0,Indonesia,895417300072.0,,,-9.6360542,119.4202479,https://maps.google.com/?cid=0x0:0x3adf4c4cbbc649f5,
hotel,hotel,Musa Homestay,"Patiala Bawa, Kec. Lamboya, Kabupaten Sumba Barat, Nusa Tenggara Tim.","Kabupaten Sumba Barat, Nusa Tenggara Tim.",NUSA TENGGARA TIMUR,,Indonesia,85142994403.0,,,-9.7596772,119.3327706,https://maps.google.com/?cid=0x0:0x70658a09ca09da2a,
hotel,hotel,Morika Inn and Cafe,"Wee Karou, Kec. Loli, Kabupaten Sumba Barat, Nusa Tenggara Tim.","Kabupaten Sumba Barat, Nusa Tenggara Tim.",NUSA TENGGARA TIMUR,,Indonesia,81259541325.0,,,-9.6453034,119.3963347,https://maps.google.com/?cid=0x0:0x1d57ab1c9a7d79cf,
hotel,hotel,Umarato Villa,"Jalan Rua - Wanokaka no 7 Jurusan Pahola Kec. Wanokaka, Rua, Kec. Kota Waikabubak, Nusa Tenggara Tim. 87272","Rua, Kec. Kota Waikabubak",NUSA TENGGARA TIMUR,87272.0,Indonesia,8118192999.0,,,-9.7522658,119.4129673,https://maps.google.com/?cid=0x0:0xdefc6f1216ba5c2c,
hotel,hotel,Three Queen Villa and Homestay,"7F42+W7, Wai Hura, Kec. Wanokaka, Kabupaten Sumba Barat, Nusa Tenggara Tim.","Kabupaten Sumba Barat, Nusa Tenggara Tim.",NUSA TENGGARA TIMUR,,Indonesia,87865507477.0,,,-9.7430813,119.4506213,https://maps.google.com/?cid=0x0:0xccaae4f6d9e697e7,
hotel,hotel,"Bobocabin Umarato, Sumba","Jl. Rua-Wanokaka No. 7, Pahola, Kec. Wanokaka, Kabupaten Sumba Barat, Nusa Tenggara Tim. 87272","Pahola, Kec. Wanokaka, Kabupaten Sumba Barat",NUSA TENGGARA TIMUR,87272.0,Indonesia,81120022864.0,,,-9.7534168,119.413178,https://maps.google.com/?cid=0x0:0x8429f2c37c7984c5,
hotel,hotel,ALAMAYAH,"Kerewe, Patiala Bawa, Lamboya, West Sumba Regency, Provinsi East Nusa Tenggara 081 Kerewe, Nusa Tenggara Tim. 87252","Patiala Bawa, Lamboya, West Sumba Regency, Provinsi East Nusa Tenggara 081 Kerewe",NUSA TENGGARA TIMUR,87252.0,Indonesia,81218928101.0,,,-9.7588985,119.3327779,https://maps.google.com/?cid=0x0:0xa4cb8e84938d4e5d,
hotel,hotel,THE VILLAGE INN Rua Beach,"Rua 2, Kec. Wanokaka, Kabupaten Sumba Barat, Nusa Tenggara Tim.","Kabupaten Sumba Barat, Nusa Tenggara Tim.",NUSA TENGGARA TIMUR,,Indonesia,8118632632.0,,,-9.7640069,119.4133303,https://maps.google.com/?cid=0x0:0x6bbc16eb8b8a825e,
hotel,hotel,Monalisa Hotel,"JL Adhyaksa No.30, Kampung Baru, Maliti, Kec. Kota Waikabubak, Kabupaten Sumba Barat, Nusa Tenggara Tim.","Kabupaten Sumba Barat, Nusa Tenggara Tim.",NUSA TENGGARA TIMUR,,Indonesia,38721364.0,,,-9.6232113,119.3935882,https://maps.google.com/?cid=0x0:0xe25d9790532c949c,
hotel,hotel,Kec. Wewewa Utara,"Kabupaten Sumba Barat Daya, Nusa Tenggara Tim.","Kabupaten Sumba Barat Daya, Nusa Tenggara Tim.",NUSA TENGGARA TIMUR,,Indonesia,,,,-9.5267607,119.3539572,https://maps.google.com/?cid=0x0:0xe58277af67096a5b,
hotel,hotel,Sima Hotel Sumba,"Jl. Raja Yohanes Ngongo Bani, Weerena, Kec. Kota Tambolaka, Kabupaten Sumba Barat Daya, Nusa Tenggara Tim. 87261","Weerena, Kec. Kota Tambolaka, Kabupaten Sumba Barat Daya",NUSA TENGGARA TIMUR,87261.0,Indonesia,3872527411.0,,,-9.460902,119.2215221,https://maps.google.com/?cid=0x0:0x4237c4e0781d3bba,
hotel,hotel,Mario Hotel  Cafe,"Ramadana, Ramma Dana, Kec. Loura, Kabupaten Sumba Barat Daya, Nusa Tenggara Tim.","Kabupaten Sumba Barat Daya, Nusa Tenggara Tim.",NUSA TENGGARA TIMUR,,Indonesia,81239710000.0,,,-9.3585658,119.2948611,https://maps.google.com/?cid=0x0:0x2bea9d4b63ab95de,
hotel,hotel,Sinar Tambolaka,"Hotel Sinar, Kalena Wano, Kec. Kota Tambolaka, Kabupaten Sumba Barat Daya, Nusa Tenggara Tim. 87255","Kalena Wano, Kec. Kota Tambolaka, Kabupaten Sumba Barat Daya",NUSA TENGGARA TIMUR,87255.0,Indonesia,3872524088.0,,,-9.4305675,119.2386103,https://maps.google.com/?cid=0x0:0xd1c8f3f36b22eaa1,
hotel,hotel,,,,NUSA TENGGARA TIMUR,,Indonesia,,,,,,https://maps.google.com/?cid=0x0:0xd1c8f3f36b22eaa1%7C/g/12vr2q517%7Cid-ID,
hotel,hotel,Hotel pasola,"Terminal Keberangkatan Bandar Udara Tambolaka, Radamata, Loura, Southwest Sumba Regency, East Nusa Tenggara","Kabupaten Sumba Barat Daya, Nusa Tenggara Tim.",NUSA TENGGARA TIMUR,,Indonesia,81329458690.0,,,-9.4133411,119.2445581,https://maps.google.com/?cid=0x0:0x7c0eb9d00100bb2c,
hotel,hotel,Villa Redemptorist,"Unnamed Road, Radamata, Kec. Loura, Kabupaten Sumba Barat Daya, Nusa Tenggara Tim.","Kabupaten Sumba Barat Daya, Nusa Tenggara Tim.",NUSA TENGGARA TIMUR,,Indonesia,81216498177.0,,,-9.3901395,119.2240008,https://maps.google.com/?cid=0x0:0xe015bc11d11fb1e,
hotel,hotel,RedDoorz @ Waikabubak Sumba,"Jl. Ahmad Yani No.107, Wailiang, Kec. Kota Waikabubak, Kabupaten Sumba Barat, Nusa Tenggara Tim. 87212","Wailiang, Kec. Kota Waikabubak, Kabupaten Sumba Barat",NUSA TENGGARA TIMUR,87212.0,Indonesia,895417300072.0,,,-9.6376664,119.4084299,https://maps.google.com/?cid=0x0:0x671432ec6713ef1a,
hotel,hotel,LaCasa DeLuna Guest House,"9C65+5XF, Maliti, Kec. Kota Waikabubak, Kabupaten Sumba Barat, Nusa Tenggara Tim.","Kabupaten Sumba Barat, Nusa Tenggara Tim.",NUSA TENGGARA TIMUR,,Indonesia,81338719299.0,,,-9.6395419,119.4099796,https://maps.google.com/?cid=0x0:0x73634316f7cb09fe,
hotel,hotel,Shekinah Homestay  Cafe,"Jl. Veteran, Kp. Sawah, Kec. Kota Waikabubak, Kabupaten Sumba Barat, Nusa Tenggara Tim. 87211","Kp. Sawah, Kec. Kota Waikabubak, Kabupaten Sumba Barat",NUSA TENGGARA TIMUR,87211.0,Indonesia,895417300072.0,,,-9.6360542,119.4202479,https://maps.google.com/?cid=0x0:0x3adf4c4cbbc649f5,
hotel,hotel,Manandang Hotel,"Jl. Pemuda No.4, Maliti, Kec. Kota Waikabubak, Kabupaten Sumba Barat, Nusa Tenggara Tim.","Kabupaten Sumba Barat, Nusa Tenggara Tim.",NUSA TENGGARA TIMUR,,Indonesia,38721197.0,,,-9.6352766,119.4110344,https://maps.google.com/?cid=0x0:0x30462dea11a5863,
hotel,hotel,Morika Inn and Cafe,"Wee Karou, Kec. Loli, Kabupaten Sumba Barat, Nusa Tenggara Tim.","Kabupaten Sumba Barat, Nusa Tenggara Tim.",NUSA TENGGARA TIMUR,,Indonesia,81259541325.0,,,-9.6453034,119.3963347,https://maps.google.com/?cid=0x0:0x1d57ab1c9a7d79cf,
hotel,hotel,Oro Beach Houses,"Weepangali, Wee Pangali, Kec. Kota Tambolaka, Kabupaten Sumba Barat Daya, Nusa Tenggara Tim. 87254","Wee Pangali, Kec. Kota Tambolaka, Kabupaten Sumba Barat Daya",NUSA TENGGARA TIMUR,87254.0,Indonesia,81339110068.0,,,-9.3698359,119.2691648,https://maps.google.com/?cid=0x0:0xe9208c199549c4b1,
hotel,hotel,Sumba Beach (Anna Villas),"JHWJ+V7, Manu Wolu, Kec. Mamboro, Kabupaten Sumba Tengah, Nusa Tenggara Tim.","Kabupaten Sumba Tengah, Nusa Tenggara Tim.",NUSA TENGGARA TIMUR,,Indonesia,81139600235.0,,,-9.3527589,119.5806888,https://maps.google.com/?cid=0x0:0x647d48a1ba8c1e65,
hotel,hotel,Hotel Ella,"H6CQ+2C8, Jl. Sapurata, Wee Tobula, Kec. Kota Tambolaka, Kabupaten Sumba Barat Daya, Nusa Tenggara Tim.","Kabupaten Sumba Barat Daya, Nusa Tenggara Tim.",NUSA TENGGARA TIMUR,,Indonesia,82145837745.0,,,-9.4299593,119.2385852,https://maps.google.com/?cid=0x0:0x848f5e0913612753,
hotel,hotel,RedDoorz @ Tambolaka Sumba,"Hotel Sinar, Kalena Wano, Kec. Kota Tambolaka, Kabupaten Sumba Barat Daya, Nusa Tenggara Tim. 87255","Kalena Wano, Kec. Kota Tambolaka, Kabupaten Sumba Barat Daya",NUSA TENGGARA TIMUR,87255.0,Indonesia,2180629666.0,,,-9.4306539,119.2385182,https://maps.google.com/?cid=0x0:0x5190bda48a33c1b6,
hotel,hotel,HOTEL ARTHA,"9C88+5VC, Kp. Sawah, Kec. Kota Waikabubak, Kabupaten Sumba Barat, Nusa Tenggara Tim.","Kabupaten Sumba Barat, Nusa Tenggara Tim.",NUSA TENGGARA TIMUR,,Indonesia,85253253980.0,,,-9.6345519,119.4171334,https://maps.google.com/?cid=0x0:0x3db048529ff7c25e,
hotel,hotel,Hotel Sumba Sejahtera,"Jl. Sapurata, Kalena Wano, Kec. Kota Tambolaka, Kabupaten Sumba Barat Daya, Nusa Tenggara Tim.","Kabupaten Sumba Barat Daya, Nusa Tenggara Tim.",NUSA TENGGARA TIMUR,,Indonesia,82279245244.0,,,-9.4316553,119.2354984,https://maps.google.com/?cid=0x0:0xdca5c90d6ac4c2d4,
hotel,hotel,Hotel Aloha,"Kampung Sawah, Kota Waikabubak, Kp. Sawah, Kec. Kota Waikabubak, Kabupaten Sumba Barat, Nusa Tenggara Tim.","Kabupaten Sumba Barat, Nusa Tenggara Tim.",NUSA TENGGARA TIMUR,,Indonesia,38722227.0,,,-9.6331592,119.4139515,https://maps.google.com/?cid=0x0:0xb32f2f329d1931d9,
hotel,hotel,Hotel Pelita,"9C96+5J2, Komerda, Kec. Kota Waikabubak, Kabupaten Sumba Barat, Nusa Tenggara Tim.","Kabupaten Sumba Barat, Nusa Tenggara Tim.",NUSA TENGGARA TIMUR,,Indonesia,81237032182.0,,,-9.6321228,119.411527,https://maps.google.com/?cid=0x0:0xc869fbc814ad2f11,
hotel,hotel,Monalisa Hotel,"JL Adhyaksa No.30, Kampung Baru, Maliti, Kec. Kota Waikabubak, Kabupaten Sumba Barat, Nusa Tenggara Tim.","Kabupaten Sumba Barat, Nusa Tenggara Tim.",NUSA TENGGARA TIMUR,,Indonesia,38721364.0,,,-9.6232113,119.3935882,https://maps.google.com/?cid=0x0:0xe25d9790532c949c,
hotel,hotel,Penginapan Ronita,"9C79+78Q, Kp. Sawah, Kec. Kota Waikabubak, Kabupaten Sumba Barat, Nusa Tenggara Tim.","Kabupaten Sumba Barat, Nusa Tenggara Tim.",NUSA TENGGARA TIMUR,,Indonesia,,,,-9.6367893,119.4183457,https://maps.google.com/?cid=0x0:0x881fbc3468e86e6a,
restaurant,restaurant,Nusa Tenggara Tim.,,Nusa Tenggara Tim.,NUSA TENGGARA TIMUR,,Indonesia,,,,-8.6573819,121.0793705,https://maps.google.com/?cid=0x0:0x1030bfbcaf71ae0,
restaurant,Restoran,The Kelapa Restaurant  Sky Lounge,"Jl. Terusan Timor Raya No.128, Klp. Lima, Kec. Klp. Lima, Kota Kupang, Nusa Tenggara Tim. 85228","Klp. Lima, Kec. Klp. Lima, Kota Kupang",NUSA TENGGARA TIMUR,85228.0,Indonesia,81353830198.0,,,-10.1465799,123.612465,https://maps.google.com/?cid=0x0:0x4d01914bed7da79a,
restaurant,Restoran,Warung Makan Ibu Asni,"FVWJ+622, Jl. Pantai Pede, Goron Talo, Kec. Komodo, Kabupaten Manggarai Barat, Nusa Tenggara Tim.","Kabupaten Manggarai Barat, Nusa Tenggara Tim.",NUSA TENGGARA TIMUR,,Indonesia,,,,-8.5044964,119.880025,https://maps.google.com/?cid=0x0:0x7ceef9f7b0f3532e,
restaurant,restaurant,THE CONTAINER RESTO,"Jl. Lamber Kape, Wae Kelambu, Kec. Komodo, Kabupaten Manggarai Barat, Nusa Tenggara Tim.","Kabupaten Manggarai Barat, Nusa Tenggara Tim.",NUSA TENGGARA TIMUR,,Indonesia,81237975533.0,,,-8.4980966,119.8860159,https://maps.google.com/?cid=0x0:0x46689963645c6d96,
restaurant,restaurant,Pulau Kelor,"Pasir Putih, Kec. Komodo, Kabupaten Manggarai Barat, Nusa Tenggara Tim.","Kabupaten Manggarai Barat, Nusa Tenggara Tim.",NUSA TENGGARA TIMUR,,Indonesia,,,,-8.5475,119.8147222,https://maps.google.com/?cid=0x0:0x29e8980519c764a7,
restaurant,Restoran,Taman Laut Handayani Seafood Restaurant Labuan Bajo,"Ir. Soekarno Hatta No.9, Labuan Bajo, Kec. Komodo, Kabupaten Manggarai Barat, Nusa Tenggara Tim.","Kabupaten Manggarai Barat, Nusa Tenggara Tim.",NUSA TENGGARA TIMUR,,Indonesia,85333888827.0,,,-8.492004,119.8785031,https://maps.google.com/?cid=0x0:0x3ab46d6120ae37b6,
restaurant,Kafe,Like Resto  Catering,"47VM+C7H, Kota Baru, Kec. Kota Soe, Kabupaten Timor Tengah Selatan, Nusa Tenggara Tim.","Kabupaten Timor Tengah Selatan, Nusa Tenggara Tim.",NUSA TENGGARA TIMUR,,Indonesia,85239055500.0,,,-9.856036,124.2834019,https://maps.google.com/?cid=0x0:0x1664e93631b6203b,
restaurant,Italia,MadeInItaly Italian Restaurant Labuan Bajo,"Jl. Pantai Pede No.10-B, Labuan Bajo, Kec. Komodo, Kabupaten Manggarai Barat, Nusa Tenggara Tim. 86574","Labuan Bajo, Kec. Komodo, Kabupaten Manggarai Barat",NUSA TENGGARA TIMUR,86574.0,Indonesia,81139003003.0,,,-8.5027291,119.8810721,https://maps.google.com/?cid=0x0:0xddc7301452f34ff3,
restaurant,Indonesia,Heaven’s Door Bar  Restaurant,"Jerebu’u, Tiworiwu, Bajawa, Kabupaten Ngada, Nusa Tenggara Tim. 86413","Tiworiwu, Bajawa, Kabupaten Ngada",NUSA TENGGARA TIMUR,86413.0,Indonesia,82144774417.0,,,-8.8641596,120.994707,https://maps.google.com/?cid=0x0:0xcee91644a99e188b,
restaurant,Restoran,KISIK Seafood and Grill,"AYANA Komodo Resort, Waecicu Beach Pantai Waecicu, Labuan Bajo, Kec. Komodo, Kabupaten Manggarai Barat, Nusa Tenggara Tim. 86554","Waecicu Beach Pantai Waecicu, Labuan Bajo, Kec. Komodo, Kabupaten Manggarai Barat",NUSA TENGGARA TIMUR,86554.0,Indonesia,3852441000.0,,,-8.4683289,119.8739595,https://maps.google.com/?cid=0x0:0x899f340b0aea4c96,
restaurant,Jepang,Honzen Komodo,"AYANA Komodo Resort, Pantai Waecicu, Labuan Bajo, Kabupaten Manggarai Barat, Nusa Tenggara Tim. 86554","Pantai Waecicu, Labuan Bajo, Kabupaten Manggarai Barat",NUSA TENGGARA TIMUR,86554.0,Indonesia,82236808724.0,,,-8.4678817,119.8740227,https://maps.google.com/?cid=0x0:0x2f54f14ba27903d6,
restaurant,Hidangan Laut,Atlantis On The Rock,"Labuan Bajo, Kec. Komodo, Kabupaten Manggarai Barat, Nusa Tenggara Tim. 86757","Kec. Komodo, Kabupaten Manggarai Barat",NUSA TENGGARA TIMUR,86757.0,Indonesia,8113826935.0,,,-8.4568023,119.8703842,https://maps.google.com/?cid=0x0:0xc8b3cef2de7f3278,
restaurant,Ayam,Kodi balagar kampung weikrara,"H65J+RQP, Langga Lero, Kec. Kota Tambolaka, Kabupaten Sumba Barat Daya, Nusa Tenggara Tim.","Kabupaten Sumba Barat Daya, Nusa Tenggara Tim.",NUSA TENGGARA TIMUR,,Indonesia,,,,-9.440492,119.232043,https://maps.google.com/?cid=0x0:0xda318c0851fc6d9b,
restaurant,Makanan Siap Saji,KFC Frans Seda Kupang,"Jl. Sam Ratulangi 5, Oesapa Bar., Kec. Klp. Lima, Kota Kupang, Nusa Tenggara Tim. 85228","Oesapa Bar., Kec. Klp. Lima, Kota Kupang",NUSA TENGGARA TIMUR,85228.0,Indonesia,2114022.0,,,-10.155834,123.631273,https://maps.google.com/?cid=0x0:0x62a47428b70d2847,
restaurant,Restoran,Le Bajo Flores,"Jalan Pantai Reklamasi Lingkungan I, Kampung Ujung, Labuan Bajo, Kec. Komodo, Kabupaten Manggarai Barat, Nusa Tenggara Tim. 86711","Kampung Ujung, Labuan Bajo, Kec. Komodo, Kabupaten Manggarai Barat",NUSA TENGGARA TIMUR,86711.0,Indonesia,8113839909.0,,,-8.4837958,119.8786026,https://maps.google.com/?cid=0x0:0xe56038828cc8d279,
restaurant,restaurant,Sima Hotel Sumba,"Jl. Raja Yohanes Ngongo Bani, Weerena, Kec. Kota Tambolaka, Kabupaten Sumba Barat Daya, Nusa Tenggara Tim. 87261","Weerena, Kec. Kota Tambolaka, Kabupaten Sumba Barat Daya",NUSA TENGGARA TIMUR,87261.0,Indonesia,3872527411.0,,,-9.460902,119.2215221,https://maps.google.com/?cid=0x0:0x4237c4e0781d3bba,
restaurant,Kedai Kopi,Happy Banana Komodo,"50m after Alfamart Soekarno Hatta, Jl. Soekarno Hatta, Labuan Bajo, Kec. Komodo, Kabupaten Manggarai Barat, Nusa Tenggara Tim. 86554","Jl. Soekarno Hatta, Labuan Bajo, Kec. Komodo, Kabupaten Manggarai Barat",NUSA TENGGARA TIMUR,86554.0,Indonesia,81238770093.0,,,-8.4978312,119.8805146,https://maps.google.com/?cid=0x0:0x8ea325383a20466e,
restaurant,Kantor Perusahaan,Rumah Budaya Sumba,"Jl. Rumah Budaya No.212, Kalembu Nga, bangga Weetebula, Kabupaten Sumba Barat Daya, Nusa Tenggara Tim.","Kabupaten Sumba Barat Daya, Nusa Tenggara Tim.",NUSA TENGGARA TIMUR,,Indonesia,,,,-9.4335489,119.214735,https://maps.google.com/?cid=0x0:0xc74dc666ea2888e8,
restaurant,restaurant,Hotel On The Rock by Prasanthi,"Jl. Timor Timur No.2, Klp. Lima, Kec. Klp. Lima, Kota Kupang, Nusa Tenggara Tim. 85228","Klp. Lima, Kec. Klp. Lima, Kota Kupang",NUSA TENGGARA TIMUR,85228.0,Indonesia,3808586100.0,,,-10.1460512,123.6140593,https://maps.google.com/?cid=0x0:0xfffa6bcc54031498,
restaurant,restaurant,,,,NUSA TENGGARA TIMUR,,Indonesia,,,,,,https://maps.google.com/?cid=0x0:0xfffa6bcc54031498%7C/g/12hpr393d%7Cid-ID,
restaurant,restaurant,Kodi,"Kalena Rongo, Kec. Kodi Utara, Kabupaten Sumba Barat Daya, Nusa Tenggara Tim.","Kabupaten Sumba Barat Daya, Nusa Tenggara Tim.",NUSA TENGGARA TIMUR,,Indonesia,,,,-9.528481,118.9841,https://maps.google.com/?cid=0x0:0xa0abc272b8b7b281,
restaurant,restaurant,Pantai Lasiana,Nusa Tenggara Tim.,Nusa Tenggara Tim.,NUSA TENGGARA TIMUR,,Indonesia,,,,-10.1296736,123.6707237,https://maps.google.com/?cid=0x0:0x3770d54506c499c0,
restaurant,Restoran,Makan Dulu Restaurant by the Sumba Hospitality Foundation,"Kalena Wano, Kec. Loura, Kabupaten Sumba Barat Daya, Nusa Tenggara Tim.","Kabupaten Sumba Barat Daya, Nusa Tenggara Tim.",NUSA TENGGARA TIMUR,,Indonesia,81239230989.0,,,-9.4318327,119.2450173,https://maps.google.com/?cid=0x0:0xfc3caaac08694be,
restaurant,Restoran,Dapur Sumba,"Radamata, Kec. Loura, Kabupaten Sumba Barat Daya, Nusa Tenggara Tim. 87254","Kec. Loura, Kabupaten Sumba Barat Daya",NUSA TENGGARA TIMUR,87254.0,Indonesia,81353315055.0,,,-9.4167954,119.245971,https://maps.google.com/?cid=0x0:0xb774a37a3fc0df4d,
restaurant,Restoran,Sirkey Resto,"Jalan Sudirman, Radamata, Kec. Kota Tambolaka, Kabupaten Sumba Barat Daya, Nusa Tenggara Tim.","Kabupaten Sumba Barat Daya, Nusa Tenggara Tim.",NUSA TENGGARA TIMUR,,Indonesia,85333077007.0,,,-9.4296618,119.2383019,https://maps.google.com/?cid=0x0:0xaff317bab9d61459,
restaurant,Restoran,Dapur Sumba Waikabubak,"Jl. Ahmad Yani No.51, Maliti, Kec. Kota Waikabubak, Kabupaten Sumba Barat, Nusa Tenggara Tim.","Kabupaten Sumba Barat, Nusa Tenggara Tim.",NUSA TENGGARA TIMUR,,Indonesia,81329575563.0,,,-9.6345839,119.4100495,https://maps.google.com/?cid=0x0:0xfffb69d9ed16ed21,
restaurant,restaurant,Restoran Alam Hijau,"H6MR+J86, Radamata, Kec. Loura, Kabupaten Sumba Barat Daya, Nusa Tenggara Tim.","Kabupaten Sumba Barat Daya, Nusa Tenggara Tim.",NUSA TENGGARA TIMUR,,Indonesia,81246668858.0,,,-9.4159737,119.2407777,https://maps.google.com/?cid=0x0:0x2059c513594568de,
restaurant,Restoran,WARUNG GULA GARAM,"Jl. Soeharto No.18, Radamata, Kec. Kota Tambolaka, Kabupaten Sumba Barat Daya, Nusa Tenggara Tim.","Kabupaten Sumba Barat Daya, Nusa Tenggara Tim.",NUSA TENGGARA TIMUR,,Indonesia,3872524019.0,,,-9.4230396,119.2455498,https://maps.google.com/?cid=0x0:0x695421ad0206e3f6,
restaurant,restaurant,Kec. Kodi Balaghar,"Kabupaten Sumba Barat Daya, Nusa Tenggara Tim.","Kabupaten Sumba Barat Daya, Nusa Tenggara Tim.",NUSA TENGGARA TIMUR,,Indonesia,,,,-9.6674786,119.0525222,https://maps.google.com/?cid=0x0:0x553cbf3de56efc03,
restaurant,Restoran,Makan Dulu Restaurant by the Sumba Hospitality Foundation,"Kalena Wano, Kec. Loura, Kabupaten Sumba Barat Daya, Nusa Tenggara Tim.","Kabupaten Sumba Barat Daya, Nusa Tenggara Tim.",NUSA TENGGARA TIMUR,,Indonesia,81239230989.0,,,-9.4318327,119.2450173,https://maps.google.com/?cid=0x0:0xfc3caaac08694be,
restaurant,Restoran,Sirkey Resto,"Jalan Sudirman, Radamata, Kec. Kota Tambolaka, Kabupaten Sumba Barat Daya, Nusa Tenggara Tim.","Kabupaten Sumba Barat Daya, Nusa Tenggara Tim.",NUSA TENGGARA TIMUR,,Indonesia,85333077007.0,,,-9.4296618,119.2383019,https://maps.google.com/?cid=0x0:0xaff317bab9d61459,
restaurant,Restoran,Dapur Sumba,"Radamata, Kec. Loura, Kabupaten Sumba Barat Daya, Nusa Tenggara Tim. 87254","Kec. Loura, Kabupaten Sumba Barat Daya",NUSA TENGGARA TIMUR,87254.0,Indonesia,81353315055.0,,,-9.4167954,119.245971,https://maps.google.com/?cid=0x0:0xb774a37a3fc0df4d,
restaurant,Sarapan,Andalara,"92X4+R49, Dinjo, Kec. Kodi Bangedo, Kabupaten Sumba Barat Daya, Nusa Tenggara Tim.","Kabupaten Sumba Barat Daya, Nusa Tenggara Tim.",NUSA TENGGARA TIMUR,,Indonesia,,,,-9.6004567,119.005353,https://maps.google.com/?cid=0x0:0x899139e23e8a3da1,
restaurant,Restoran,WARUNG GULA GARAM,"Jl. Soeharto No.18, Radamata, Kec. Kota Tambolaka, Kabupaten Sumba Barat Daya, Nusa Tenggara Tim.","Kabupaten Sumba Barat Daya, Nusa Tenggara Tim.",NUSA TENGGARA TIMUR,,Indonesia,3872524019.0,,,-9.4230396,119.2455498,https://maps.google.com/?cid=0x0:0x695421ad0206e3f6,
restaurant,Restoran,Dapur Sumba Waikabubak,"Jl. Ahmad Yani No.51, Maliti, Kec. Kota Waikabubak, Kabupaten Sumba Barat, Nusa Tenggara Tim.","Kabupaten Sumba Barat, Nusa Tenggara Tim.",NUSA TENGGARA TIMUR,,Indonesia,81329575563.0,,,-9.6345839,119.4100495,https://maps.google.com/?cid=0x0:0xfffb69d9ed16ed21,
restaurant,Area Mendaki,Domi Katoda,"933W+JPF, Wailangira, Kec. Kodi Bangedo, Kabupaten Sumba Barat Daya, Nusa Tenggara Tim.","Kabupaten Sumba Barat Daya, Nusa Tenggara Tim.",NUSA TENGGARA TIMUR,,Indonesia,,,,-9.6459477,119.0968104,https://maps.google.com/?cid=0x0:0xbeec0c58d9b4d95,
restaurant,Restoran,D'Sumba Ate,"Jl. Ahmad Yani No.148 A, Wailiang, Kec. Kota Waikabubak, Kabupaten Sumba Barat, Nusa Tenggara Tim. 87211","Wailiang, Kec. Kota Waikabubak, Kabupaten Sumba Barat",NUSA TENGGARA TIMUR,87211.0,Indonesia,82146325612.0,,,-9.6428236,119.4082311,https://maps.google.com/?cid=0x0:0xb13af0eefc64bd7d,
restaurant,restaurant,Bapa Cent,"92FP+VJJ, Umbu Ngedo, Kec. Kodi Bangedo, Kabupaten Sumba Barat Daya, Nusa Tenggara Tim.","Kabupaten Sumba Barat Daya, Nusa Tenggara Tim.",NUSA TENGGARA TIMUR,,Indonesia,,,,-9.6252974,119.0365047,https://maps.google.com/?cid=0x0:0x885516284981e2d,
restaurant,restaurant,Penenggo ede,"83P2+9Q9, Panenggo Ede, Kec. Kodi Balaghar, Kabupaten Sumba Barat Daya, Nusa Tenggara Tim.","Kabupaten Sumba Barat Daya, Nusa Tenggara Tim.",NUSA TENGGARA TIMUR,,Indonesia,,,,-9.6640832,119.0519882,https://maps.google.com/?cid=0x0:0x47fb41053a94ab8b,
restaurant,restaurant,OM RAKA,"92FP+V69, Umbu Ngedo, Kec. Kodi Bangedo, Kabupaten Sumba Barat Daya, Nusa Tenggara Tim.","Kabupaten Sumba Barat Daya, Nusa Tenggara Tim.",NUSA TENGGARA TIMUR,,Indonesia,,,,-9.6253323,119.0355944,https://maps.google.com/?cid=0x0:0x1097e2d6d26831f,
restaurant,restaurant,Warung Mama Jawa,"92FR+7HP, Unnamed Road, Walla Ndimu, Kodi Bangedo, Southwest Sumba Regency, East Nusa Tenggara","Kabupaten Sumba Barat Daya, Nusa Tenggara Tim.",NUSA TENGGARA TIMUR,,Indonesia,,,,-9.6267757,119.0414509,https://maps.google.com/?cid=0x0:0x8a331e1e3e41deba,
restaurant,Bakso,Bakso Malada,"9C86+FWW, Komerda, Kec. Kota Waikabubak, Kabupaten Sumba Barat, Nusa Tenggara Tim.","Kabupaten Sumba Barat, Nusa Tenggara Tim.",NUSA TENGGARA TIMUR,,Indonesia,,,,-9.633767,119.4123405,https://maps.google.com/?cid=0x0:0xc219a4bf908c5a92,
restaurant,Rumah Makan,Resto Maguro,"9C63+76C, Wee Karou, Kec. Loli, Kabupaten Sumba Barat, Nusa Tenggara Tim.","Kabupaten Sumba Barat, Nusa Tenggara Tim.",NUSA TENGGARA TIMUR,,Indonesia,81337968520.0,,,-9.639307,119.4030075,https://maps.google.com/?cid=0x0:0x9c2c1872209c1821,
restaurant,Restoran,Pondok Daun Ubi,"9C63+234, Jl. Pisang, Wee Karou, Kec. Loli, Kabupaten Sumba Barat, Nusa Tenggara Tim.","Kabupaten Sumba Barat, Nusa Tenggara Tim.",NUSA TENGGARA TIMUR,,Indonesia,,,,-9.6399809,119.402688,https://maps.google.com/?cid=0x0:0x19dbba717a22a18,
restaurant,restaurant,Kec. Kodi Bangedo,"Kabupaten Sumba Barat Daya, Nusa Tenggara Tim.","Kabupaten Sumba Barat Daya, Nusa Tenggara Tim.",NUSA TENGGARA TIMUR,,Indonesia,,,,-9.6026813,119.0171447,https://maps.google.com/?cid=0x0:0x3bbfbd9e4fb43622,
restaurant,Restoran,Makan Dulu Restaurant by the Sumba Hospitality Foundation,"Kalena Wano, Kec. Loura, Kabupaten Sumba Barat Daya, Nusa Tenggara Tim.","Kabupaten Sumba Barat Daya, Nusa Tenggara Tim.",NUSA TENGGARA TIMUR,,Indonesia,81239230989.0,,,-9.4318327,119.2450173,https://maps.google.com/?cid=0x0:0xfc3caaac08694be,
restaurant,Sarapan,Andalara,"92X4+R49, Dinjo, Kec. Kodi Bangedo, Kabupaten Sumba Barat Daya, Nusa Tenggara Tim.","Kabupaten Sumba Barat Daya, Nusa Tenggara Tim.",NUSA TENGGARA TIMUR,,Indonesia,,,,-9.6004567,119.005353,https://maps.google.com/?cid=0x0:0x899139e23e8a3da1,
restaurant,Nasi,Rumah Makan Mulia Agung,"CX8W+559, Bondo Kodi, Kec. Kodi, Kabupaten Sumba Barat Daya, Nusa Tenggara Tim.","Kabupaten Sumba Barat Daya, Nusa Tenggara Tim.",NUSA TENGGARA TIMUR,,Indonesia,,,,-9.5845926,118.9955,https://maps.google.com/?cid=0x0:0xed4b9b27da82c1ef,
restaurant,,Warung Sabana Japa,"CX4V+MMW, Bondo Kodi, Kec. Kodi, Kabupaten Sumba Barat Daya, Nusa Tenggara Tim.","Kabupaten Sumba Barat Daya, Nusa Tenggara Tim.",NUSA TENGGARA TIMUR,,Indonesia,81339808233.0,,,-9.5936519,118.9940675,https://maps.google.com/?cid=0x0:0x23a9d76d081123b1,
restaurant,Dapur Umum,WARUNG ANAS,"9XXQ+QP4, Pero Batang, Kec. Kodi, Kabupaten Sumba Barat Daya, Nusa Tenggara Tim.","Kabupaten Sumba Barat Daya, Nusa Tenggara Tim.",NUSA TENGGARA TIMUR,,Indonesia,82328531008.0,,,-9.6006077,118.9893353,https://maps.google.com/?cid=0x0:0xdfb21fc07ab94d30,
restaurant,restaurant,Bapa Cent,"92FP+VJJ, Umbu Ngedo, Kec. Kodi Bangedo, Kabupaten Sumba Barat Daya, Nusa Tenggara Tim.","Kabupaten Sumba Barat Daya, Nusa Tenggara Tim.",NUSA TENGGARA TIMUR,,Indonesia,,,,-9.6252974,119.0365047,https://maps.google.com/?cid=0x0:0x885516284981e2d,
restaurant,Dapur Umum,Bakso Mama FIQIH,"Unnamed Road, Pero Batang, Kec. Kodi, Kabupaten Sumba Barat Daya, Nusa Tenggara Tim.","Kabupaten Sumba Barat Daya, Nusa Tenggara Tim.",NUSA TENGGARA TIMUR,,Indonesia,81237426807.0,,,-9.5991385,118.9894424,https://maps.google.com/?cid=0x0:0x5f2a88609593974c,
restaurant,restaurant,Kec. Kodi Utara,"Kabupaten Sumba Barat Daya, Nusa Tenggara Tim.","Kabupaten Sumba Barat Daya, Nusa Tenggara Tim.",NUSA TENGGARA TIMUR,,Indonesia,,,,-9.5201893,119.0312709,https://maps.google.com/?cid=0x0:0xc02655b0903b58a2,
restaurant,Restoran,NINO Restaurant  Bar,"CWQM+6R2 Tim, Ate Dalo, Kec. Kodi, Kabupaten Sumba Barat Daya, Nusa Tenggara Tim. 87261","Ate Dalo, Kec. Kodi, Kabupaten Sumba Barat Daya",NUSA TENGGARA TIMUR,87261.0,Indonesia,81138314874.0,,,-9.5629526,118.9329508,https://maps.google.com/?cid=0x0:0x4dba78c8a942c092,
restaurant,Restoran,Makan Dulu Restaurant by the Sumba Hospitality Foundation,"Kalena Wano, Kec. Loura, Kabupaten Sumba Barat Daya, Nusa Tenggara Tim.","Kabupaten Sumba Barat Daya, Nusa Tenggara Tim.",NUSA TENGGARA TIMUR,,Indonesia,81239230989.0,,,-9.4318327,119.2450173,https://maps.google.com/?cid=0x0:0xfc3caaac08694be,
restaurant,Nasi,Rumah Makan Mulia Agung,"CX8W+559, Bondo Kodi, Kec. Kodi, Kabupaten Sumba Barat Daya, Nusa Tenggara Tim.","Kabupaten Sumba Barat Daya, Nusa Tenggara Tim.",NUSA TENGGARA TIMUR,,Indonesia,,,,-9.5845926,118.9955,https://maps.google.com/?cid=0x0:0xed4b9b27da82c1ef,
restaurant,Restoran,Dapur Sumba Waikabubak,"Jl. Ahmad Yani No.51, Maliti, Kec. Kota Waikabubak, Kabupaten Sumba Barat, Nusa Tenggara Tim.","Kabupaten Sumba Barat, Nusa Tenggara Tim.",NUSA TENGGARA TIMUR,,Indonesia,81329575563.0,,,-9.6345839,119.4100495,https://maps.google.com/?cid=0x0:0xfffb69d9ed16ed21,
restaurant,Restoran,WARUNG GULA GARAM,"Jl. Soeharto No.18, Radamata, Kec. Kota Tambolaka, Kabupaten Sumba Barat Daya, Nusa Tenggara Tim.","Kabupaten Sumba Barat Daya, Nusa Tenggara Tim.",NUSA TENGGARA TIMUR,,Indonesia,3872524019.0,,,-9.4230396,119.2455498,https://maps.google.com/?cid=0x0:0x695421ad0206e3f6,
restaurant,Kedai Kopi,RUMAH MAKAN ALVA GROUP,"G3R7+QXC, Bila Cenge, Kec. Kodi Utara, Kabupaten Sumba Barat Daya, Nusa Tenggara Tim.","Kabupaten Sumba Barat Daya, Nusa Tenggara Tim.",NUSA TENGGARA TIMUR,,Indonesia,,,,-9.4580614,119.0648835,https://maps.google.com/?cid=0x0:0x26c39dae127fbc8f,
restaurant,Restoran,D'Sumba Ate,"Jl. Ahmad Yani No.148 A, Wailiang, Kec. Kota Waikabubak, Kabupaten Sumba Barat, Nusa Tenggara Tim. 87211","Wailiang, Kec. Kota Waikabubak, Kabupaten Sumba Barat",NUSA TENGGARA TIMUR,87211.0,Indonesia,82146325612.0,,,-9.6428236,119.4082311,https://maps.google.com/?cid=0x0:0xb13af0eefc64bd7d,
restaurant,Restoran,Walla Ndimu,"92FR+7H4, Walla Ndimu, Kec. Kodi Bangedo, Kabupaten Sumba Barat Daya, Nusa Tenggara Tim.","Kabupaten Sumba Barat Daya, Nusa Tenggara Tim.",NUSA TENGGARA TIMUR,,Indonesia,,,,-9.6268547,119.0414561,https://maps.google.com/?cid=0x0:0xade073fb60f9641b,
restaurant,Sarapan,Andalara,"92X4+R49, Dinjo, Kec. Kodi Bangedo, Kabupaten Sumba Barat Daya, Nusa Tenggara Tim.","Kabupaten Sumba Barat Daya, Nusa Tenggara Tim.",NUSA TENGGARA TIMUR,,Indonesia,,,,-9.6004567,119.005353,https://maps.google.com/?cid=0x0:0x899139e23e8a3da1,
restaurant,Komplek perumahan,Gallu kalogho,"F248+47, Mali Iha, Kec. Kodi, Kabupaten Sumba Barat Daya, Nusa Tenggara Tim.","Kabupaten Sumba Barat Daya, Nusa Tenggara Tim.",NUSA TENGGARA TIMUR,,Indonesia,,,,-9.5446239,119.0157463,https://maps.google.com/?cid=0x0:0x6750a9b3212f5e45,
restaurant,restaurant,ARYA Sumba Kodi,"CWQM+6R2, Ate Dalo, Kec. Kodi, Kabupaten Sumba Barat Daya, Nusa Tenggara Tim.","Kabupaten Sumba Barat Daya, Nusa Tenggara Tim.",NUSA TENGGARA TIMUR,,Indonesia,81138014222.0,,,-9.5619375,118.9345625,https://maps.google.com/?cid=0x0:0xd3c2a55415b690f5,
restaurant,Cagar Alam,Waikuri Lagoon,"GX55+JW8, Desa, Kalena Rongo, Kec. Kodi Utara, Kabupaten Sumba Barat Daya, Nusa Tenggara Tim.","Kabupaten Sumba Barat Daya, Nusa Tenggara Tim.",NUSA TENGGARA TIMUR,,Indonesia,,,,-9.4909691,118.9598404,https://maps.google.com/?cid=0x0:0x3915b7886efa48b6,
restaurant,restaurant,Pantai Mandorak,"Kalena Rongo, Kec. Kodi Utara, Kabupaten Sumba Barat Daya, Nusa Tenggara Tim.","Kabupaten Sumba Barat Daya, Nusa Tenggara Tim.",NUSA TENGGARA TIMUR,,Indonesia,,,,-9.4985436,118.9547031,https://maps.google.com/?cid=0x0:0x60144cbf86fc4a8f,
restaurant,,Warung Sabana Japa,"CX4V+MMW, Bondo Kodi, Kec. Kodi, Kabupaten Sumba Barat Daya, Nusa Tenggara Tim.","Kabupaten Sumba Barat Daya, Nusa Tenggara Tim.",NUSA TENGGARA TIMUR,,Indonesia,81339808233.0,,,-9.5936519,118.9940675,https://maps.google.com/?cid=0x0:0x23a9d76d081123b1,
restaurant,Dapur Umum,WARUNG ANAS,"9XXQ+QP4, Pero Batang, Kec. Kodi, Kabupaten Sumba Barat Daya, Nusa Tenggara Tim.","Kabupaten Sumba Barat Daya, Nusa Tenggara Tim.",NUSA TENGGARA TIMUR,,Indonesia,82328531008.0,,,-9.6006077,118.9893353,https://maps.google.com/?cid=0x0:0xdfb21fc07ab94d30,
restaurant,Restoran,Elcafe Sumba,"Matawai, Kec. Kota Waingapu, Kabupaten Sumba Timur, Nusa Tenggara Tim.","Kabupaten Sumba Timur, Nusa Tenggara Tim.",NUSA TENGGARA TIMUR,,Indonesia,81238246474.0,,,-9.6541853,120.263791,https://maps.google.com/?cid=0x0:0xf8e772e0e7ecd0d1,
restaurant,Dapur Umum,Bakso Mama FIQIH,"Unnamed Road, Pero Batang, Kec. Kodi, Kabupaten Sumba Barat Daya, Nusa Tenggara Tim.","Kabupaten Sumba Barat Daya, Nusa Tenggara Tim.",NUSA TENGGARA TIMUR,,Indonesia,81237426807.0,,,-9.5991385,118.9894424,https://maps.google.com/?cid=0x0:0x5f2a88609593974c,
restaurant,restaurant,Resort Cap Karoso,"Pantai Karoso, Ate Dalo, Kec. Kodi, Kabupaten Sumba Barat Daya, Nusa Tenggara Tim.","Kabupaten Sumba Barat Daya, Nusa Tenggara Tim.",NUSA TENGGARA TIMUR,,Indonesia,3616201805.0,,,-9.5291259,118.9356799,https://maps.google.com/?cid=0x0:0xf44f47b77a3190a0,
restaurant,Restoran,D'Sumba Ate Tambolaka,"Jl. Mahoni, Radamata, Kec. Kota Tambolaka, Kabupaten Sumba Barat Daya, Nusa Tenggara Tim. 87255","Radamata, Kec. Kota Tambolaka, Kabupaten Sumba Barat Daya",NUSA TENGGARA TIMUR,87255.0,Indonesia,81238683588.0,,,-9.4151422,119.2484716,https://maps.google.com/?cid=0x0:0xbc56d2028f058074,
restaurant,Restoran,Sirkey Resto,"Jalan Sudirman, Radamata, Kec. Kota Tambolaka, Kabupaten Sumba Barat Daya, Nusa Tenggara Tim.","Kabupaten Sumba Barat Daya, Nusa Tenggara Tim.",NUSA TENGGARA TIMUR,,Indonesia,85333077007.0,,,-9.4296618,119.2383019,https://maps.google.com/?cid=0x0:0xaff317bab9d61459,
restaurant,restaurant,Kec. Kota Tambolaka,"Kabupaten Sumba Barat Daya, Nusa Tenggara Tim.","Kabupaten Sumba Barat Daya, Nusa Tenggara Tim.",NUSA TENGGARA TIMUR,,Indonesia,,,,-9.4295733,119.2387484,https://maps.google.com/?cid=0x0:0x9f73216af1e7222b,
restaurant,Restoran,Sirkey Resto,"Jalan Sudirman, Radamata, Kec. Kota Tambolaka, Kabupaten Sumba Barat Daya, Nusa Tenggara Tim.","Kabupaten Sumba Barat Daya, Nusa Tenggara Tim.",NUSA TENGGARA TIMUR,,Indonesia,85333077007.0,,,-9.4296618,119.2383019,https://maps.google.com/?cid=0x0:0xaff317bab9d61459,
restaurant,Hotel,Restoran Hotel Sinar Tambolaka,"H69Q+M9R, Kalena Wano, Kec. Loura, Kabupaten Sumba Barat Daya, Nusa Tenggara Tim.","Kabupaten Sumba Barat Daya, Nusa Tenggara Tim.",NUSA TENGGARA TIMUR,,Indonesia,81216824269.0,,,-9.4307735,119.2383977,https://maps.google.com/?cid=0x0:0xd401bf034df95907,
restaurant,Restoran,WARUNG GULA GARAM,"Jl. Soeharto No.18, Radamata, Kec. Kota Tambolaka, Kabupaten Sumba Barat Daya, Nusa Tenggara Tim.","Kabupaten Sumba Barat Daya, Nusa Tenggara Tim.",NUSA TENGGARA TIMUR,,Indonesia,3872524019.0,,,-9.4230396,119.2455498,https://maps.google.com/?cid=0x0:0x695421ad0206e3f6,
restaurant,Restoran,Dapur Sumba,"Radamata, Kec. Loura, Kabupaten Sumba Barat Daya, Nusa Tenggara Tim. 87254","Kec. Loura, Kabupaten Sumba Barat Daya",NUSA TENGGARA TIMUR,87254.0,Indonesia,81353315055.0,,,-9.4167954,119.245971,https://maps.google.com/?cid=0x0:0xb774a37a3fc0df4d,
restaurant,Komplek perumahan,Talasi Estate at Weetabula Sumba,"Jl. Rumah Budaya Waitabula No.218, Wee Londa, Kec. Kota Tambolaka, Kabupaten Sumba Barat Daya, Nusa Tenggara Tim. 87255","Wee Londa, Kec. Kota Tambolaka, Kabupaten Sumba Barat Daya",NUSA TENGGARA TIMUR,87255.0,Indonesia,82213334004.0,,,-9.431134,119.2158301,https://maps.google.com/?cid=0x0:0x437412f756e9179f,
restaurant,restaurant,Sinar Tambolaka,"Hotel Sinar, Kalena Wano, Kec. Kota Tambolaka, Kabupaten Sumba Barat Daya, Nusa Tenggara Tim. 87255","Kalena Wano, Kec. Kota Tambolaka, Kabupaten Sumba Barat Daya",NUSA TENGGARA TIMUR,87255.0,Indonesia,3872524088.0,,,-9.4305675,119.2386103,https://maps.google.com/?cid=0x0:0xd1c8f3f36b22eaa1,
restaurant,restaurant,,,,NUSA TENGGARA TIMUR,,Indonesia,,,,,,https://maps.google.com/?cid=0x0:0xd1c8f3f36b22eaa1%7C/g/12vr2q517%7Cid-ID,
restaurant,Biro Perjalanan dan Wisata,Mananga Aba Beach,"J8P6+8X5, Karuni, Kec. Loura, Kabupaten Sumba Barat Daya, Nusa Tenggara Tim.","Kabupaten Sumba Barat Daya, Nusa Tenggara Tim.",NUSA TENGGARA TIMUR,,Indonesia,82191124143.0,,,-9.3642355,119.3124921,https://maps.google.com/?cid=0x0:0x115b70debc72be54,
restaurant,Restoran,Makan Dulu Restaurant by the Sumba Hospitality Foundation,"Kalena Wano, Kec. Loura, Kabupaten Sumba Barat Daya, Nusa Tenggara Tim.","Kabupaten Sumba Barat Daya, Nusa Tenggara Tim.",NUSA TENGGARA TIMUR,,Indonesia,81239230989.0,,,-9.4318327,119.2450173,https://maps.google.com/?cid=0x0:0xfc3caaac08694be,
restaurant,Restoran,Terminal Lalapan (SBD),"H6CR+QMJ, Radamata, Kec. Kota Tambolaka, Kabupaten Sumba Barat Daya, Nusa Tenggara Tim.","Kabupaten Sumba Barat Daya, Nusa Tenggara Tim.",NUSA TENGGARA TIMUR,,Indonesia,,,,-9.4280534,119.2416545,https://maps.google.com/?cid=0x0:0x994b3112f250d0ed,
restaurant,Masakan Asia,WARUNG MADIUN JAWA TIMUR,"H69P+F25, Langga Lero, Kec. Kota Tambolaka, Kabupaten Sumba Barat Daya, Nusa Tenggara Tim.","Kabupaten Sumba Barat Daya, Nusa Tenggara Tim.",NUSA TENGGARA TIMUR,,Indonesia,,,,-9.4313599,119.2353058,https://maps.google.com/?cid=0x0:0xb994dc50988f7895,
restaurant,Restoran,Rumah Makan Richard,"H6FW+WG6, Radamata, Kec. Loura, Kabupaten Sumba Barat Daya, Nusa Tenggara Tim.","Kabupaten Sumba Barat Daya, Nusa Tenggara Tim.",NUSA TENGGARA TIMUR,,Indonesia,85339235680.0,,,-9.4252246,119.2462794,https://maps.google.com/?cid=0x0:0x66da2c3067d5fa6,
restaurant,Bakso,Warung Bakso Manha,"Jl. Yos Sudarso No.10, Radamata, Kec. Kota Tambolaka, Kabupaten Sumba Barat Daya, Nusa Tenggara Tim.","Kabupaten Sumba Barat Daya, Nusa Tenggara Tim.",NUSA TENGGARA TIMUR,,Indonesia,,,,-9.4249493,119.2371297,https://maps.google.com/?cid=0x0:0x2591b741618ab772,
restaurant,Restoran,Rumah Makan LG Malole,"H6HJ+CW7, Radamata, Kec. Loura, Kabupaten Sumba Barat Daya, Nusa Tenggara Tim.","Kabupaten Sumba Barat Daya, Nusa Tenggara Tim.",NUSA TENGGARA TIMUR,,Indonesia,,,,-9.4214537,119.2322881,https://maps.google.com/?cid=0x0:0xea4f51e14144fd2,
restaurant,Rumah Makan,Dapoer Mertua,"H68M+PJP, Jl. Sapurata, Wee Tobula, Kec. Loura, Kabupaten Sumba Barat Daya, Nusa Tenggara Tim.","Kabupaten Sumba Barat Daya, Nusa Tenggara Tim.",NUSA TENGGARA TIMUR,,Indonesia,,,,-9.433168,119.2340773,https://maps.google.com/?cid=0x0:0xa75b7d1999b347e6,
restaurant,Bakso,Bakso Malada sapurata,"H68M+QG2, Langga Lero, Kec. Loura, Kabupaten Sumba Barat Daya, Nusa Tenggara Tim.","Kabupaten Sumba Barat Daya, Nusa Tenggara Tim.",NUSA TENGGARA TIMUR,,Indonesia,,,,-9.4331197,119.2337634,https://maps.google.com/?cid=0x0:0xa6ec7d384e979fde,
restaurant,Restoran,Warung Makan Sei Babi,"H6HJ+CW7, Radamata, Kec. Loura, Kabupaten Sumba Barat Daya, Nusa Tenggara Tim.","Kabupaten Sumba Barat Daya, Nusa Tenggara Tim.",NUSA TENGGARA TIMUR,,Indonesia,,,,-9.421493,119.2323279,https://maps.google.com/?cid=0x0:0xdbce74f7840c4a85,
restaurant,Tujuan Wisata,Kawona Beach Club,"J5FW+J72 Kadul dekat kantor bupati, Kadi Pada, Kec. Kota Tambolaka, Kabupaten Sumba Barat Daya, Nusa Tenggara Tim.","Kabupaten Sumba Barat Daya, Nusa Tenggara Tim.",NUSA TENGGARA TIMUR,,Indonesia,81236279457.0,,,-9.3759869,119.1956379,https://maps.google.com/?cid=0x0:0x5fc0ca10313836ce,
restaurant,Kantor Perusahaan,Rumah Budaya Sumba,"Jl. Rumah Budaya No.212, Kalembu Nga, bangga Weetebula, Kabupaten Sumba Barat Daya, Nusa Tenggara Tim.","Kabupaten Sumba Barat Daya, Nusa Tenggara Tim.",NUSA TENGGARA TIMUR,,Indonesia,,,,-9.4335489,119.214735,https://maps.google.com/?cid=0x0:0xc74dc666ea2888e8,
restaurant,restaurant,Hotel Sumba Sejahtera,"Jl. Sapurata, Kalena Wano, Kec. Kota Tambolaka, Kabupaten Sumba Barat Daya, Nusa Tenggara Tim.","Kabupaten Sumba Barat Daya, Nusa Tenggara Tim.",NUSA TENGGARA TIMUR,,Indonesia,82279245244.0,,,-9.4316553,119.2354984,https://maps.google.com/?cid=0x0:0xdca5c90d6ac4c2d4,
restaurant,Makanan Siap Saji,Warung Sederhana Ayam  Ikan Bakar,"H65J+9PW, Langga Lero, Kec. Kota Tambolaka, Kabupaten Sumba Barat Daya, Nusa Tenggara Tim.","Kabupaten Sumba Barat Daya, Nusa Tenggara Tim.",NUSA TENGGARA TIMUR,,Indonesia,81216824269.0,,,-9.4414812,119.2318288,https://maps.google.com/?cid=0x0:0xe0a0c9680971d4ed,
restaurant,restaurant,Nusa Tenggara Tim.,,Nusa Tenggara Tim.,NUSA TENGGARA TIMUR,,Indonesia,,,,-8.6573819,121.0793705,https://maps.google.com/?cid=0x0:0x1030bfbcaf71ae0,
restaurant,Padang,RICHARD CAFE  CATERING,"Jl. Uranus, Wee Tobula, Kec. Kota Tambolaka, Kabupaten Sumba Barat Daya, Nusa Tenggara Tim. 87255","Wee Tobula, Kec. Kota Tambolaka, Kabupaten Sumba Barat Daya",NUSA TENGGARA TIMUR,87255.0,Indonesia,82243888776.0,,,-9.4442036,119.2336287,https://maps.google.com/?cid=0x0:0x910f48e62840b359,
restaurant,Restoran,WARUNG SUMBER MAS,"Jl. Ir. Soekarno, Kadi Pada, Kec. Kota Tambolaka, Kabupaten Sumba Barat Daya, Nusa Tenggara Tim. 87255","Kadi Pada, Kec. Kota Tambolaka, Kabupaten Sumba Barat Daya",NUSA TENGGARA TIMUR,87255.0,Indonesia,85253384908.0,,,-9.3959234,119.1828665,https://maps.google.com/?cid=0x0:0x7084d20455a59f1f,
restaurant,restaurant,Kedai Sejak Kapan,"Jl. Cendana, Radamata, Kec. Kota Tambolaka, Kabupaten Sumba Barat Daya, Nusa Tenggara Tim. 87255","Radamata, Kec. Kota Tambolaka, Kabupaten Sumba Barat Daya",NUSA TENGGARA TIMUR,87255.0,Indonesia,82242813823.0,,,-9.4250956,119.244516,https://maps.google.com/?cid=0x0:0x57b988218ccfb528,
restaurant,Restoran,Warung Bu Putu,"Poma, Kadi Pada, Kec. Kota Tambolaka, Kabupaten Sumba Barat Daya, Nusa Tenggara Tim. 87255","Kadi Pada, Kec. Kota Tambolaka, Kabupaten Sumba Barat Daya",NUSA TENGGARA TIMUR,87255.0,Indonesia,82339631183.0,,,-9.4099452,119.1931301,https://maps.google.com/?cid=0x0:0xb9ac9305a7a47356,
restaurant,Kedai Kopi,Cafein Sumba,"Depan SMK Pancasila Tambolaka, Jl. Cendana, Radamata, Kec. Kota Tambolaka, Nusa Tenggara Tim. 87255","Jl. Cendana, Radamata, Kec. Kota Tambolaka",NUSA TENGGARA TIMUR,87255.0,Indonesia,82144525903.0,,,-9.4250161,119.2444685,https://maps.google.com/?cid=0x0:0x91c08451b7ebeb5d,
restaurant,restaurant,Kec. Loura,"Kabupaten Sumba Barat Daya, Nusa Tenggara Tim.","Kabupaten Sumba Barat Daya, Nusa Tenggara Tim.",NUSA TENGGARA TIMUR,,Indonesia,,,,-9.4214178,119.2970741,https://maps.google.com/?cid=0x0:0x49ebe3d33838ae6d,
restaurant,Restoran,Makan Dulu Restaurant by the Sumba Hospitality Foundation,"Kalena Wano, Kec. Loura, Kabupaten Sumba Barat Daya, Nusa Tenggara Tim.","Kabupaten Sumba Barat Daya, Nusa Tenggara Tim.",NUSA TENGGARA TIMUR,,Indonesia,81239230989.0,,,-9.4318327,119.2450173,https://maps.google.com/?cid=0x0:0xfc3caaac08694be,
restaurant,Restoran,Dapur Sumba,"Radamata, Kec. Loura, Kabupaten Sumba Barat Daya, Nusa Tenggara Tim. 87254","Kec. Loura, Kabupaten Sumba Barat Daya",NUSA TENGGARA TIMUR,87254.0,Indonesia,81353315055.0,,,-9.4167954,119.245971,https://maps.google.com/?cid=0x0:0xb774a37a3fc0df4d,
restaurant,Kafe,Resto  Cafe - Dr. NT,"H6CQ+GW2, Radamata, Kec. Loura, Kabupaten Sumba Barat Daya, Nusa Tenggara Tim.","Kabupaten Sumba Barat Daya, Nusa Tenggara Tim.",NUSA TENGGARA TIMUR,,Indonesia,81238916090.0,,,-9.4287466,119.2397686,https://maps.google.com/?cid=0x0:0xa088b2115852bf7a,
restaurant,Kedai Kopi,Restory Café Sumba,"Jl. Lede Kalumbang, Kalena Wano, Kec. Kota Tambolaka, Kabupaten Sumba Barat Daya, Nusa Tenggara Tim. 87254","Kalena Wano, Kec. Kota Tambolaka, Kabupaten Sumba Barat Daya",NUSA TENGGARA TIMUR,87254.0,Indonesia,87873465372.0,,,-9.4240244,119.248521,https://maps.google.com/?cid=0x0:0xd652636c2d64adcf,
restaurant,restaurant,Oro Beach Houses,"Weepangali, Wee Pangali, Kec. Kota Tambolaka, Kabupaten Sumba Barat Daya, Nusa Tenggara Tim. 87254","Wee Pangali, Kec. Kota Tambolaka, Kabupaten Sumba Barat Daya",NUSA TENGGARA TIMUR,87254.0,Indonesia,81339110068.0,,,-9.3698359,119.2691648,https://maps.google.com/?cid=0x0:0xe9208c199549c4b1,
restaurant,restaurant,Villa Redemptorist,"Unnamed Road, Radamata, Kec. Loura, Kabupaten Sumba Barat Daya, Nusa Tenggara Tim.","Kabupaten Sumba Barat Daya, Nusa Tenggara Tim.",NUSA TENGGARA TIMUR,,Indonesia,81216498177.0,,,-9.3901395,119.2240008,https://maps.google.com/?cid=0x0:0xe015bc11d11fb1e,
restaurant,Biro Perjalanan dan Wisata,Mananga Aba Beach,"J8P6+8X5, Karuni, Kec. Loura, Kabupaten Sumba Barat Daya, Nusa Tenggara Tim.","Kabupaten Sumba Barat Daya, Nusa Tenggara Tim.",NUSA TENGGARA TIMUR,,Indonesia,82191124143.0,,,-9.3642355,119.3124921,https://maps.google.com/?cid=0x0:0x115b70debc72be54,
restaurant,restaurant,Sinar Tambolaka,"Hotel Sinar, Kalena Wano, Kec. Kota Tambolaka, Kabupaten Sumba Barat Daya, Nusa Tenggara Tim. 87255","Kalena Wano, Kec. Kota Tambolaka, Kabupaten Sumba Barat Daya",NUSA TENGGARA TIMUR,87255.0,Indonesia,3872524088.0,,,-9.4305675,119.2386103,https://maps.google.com/?cid=0x0:0xd1c8f3f36b22eaa1,
restaurant,Rumah Makan,Rumah Makan Aneka Rasa,"H69M+5HC, Langga Lero, Kec. Loura, Kabupaten Sumba Barat Daya, Nusa Tenggara Tim.","Kabupaten Sumba Barat Daya, Nusa Tenggara Tim.",NUSA TENGGARA TIMUR,,Indonesia,82145877031.0,,,-9.4320597,119.2338848,https://maps.google.com/?cid=0x0:0x8e352f29135df742,
restaurant,Makanan Siap Saji,Warung Padang,"H6GM+CMR, Jl. Yos Sudarso, Radamata, Kec. Loura, Kabupaten Sumba Barat Daya, Nusa Tenggara Tim.","Kabupaten Sumba Barat Daya, Nusa Tenggara Tim.",NUSA TENGGARA TIMUR,,Indonesia,,,,-9.4238903,119.2341541,https://maps.google.com/?cid=0x0:0xac11e057ad76e76a,
restaurant,Restoran,HF Resto  Boutique,"Jl. Kenari No.88, Radamata, Kec. Kota Tambolaka, Kabupaten Sumba Barat Daya, Nusa Tenggara Tim.","Kabupaten Sumba Barat Daya, Nusa Tenggara Tim.",NUSA TENGGARA TIMUR,,Indonesia,82143538789.0,,,-9.4160077,119.2408536,https://maps.google.com/?cid=0x0:0xd45aeb2593645658,
restaurant,Restoran,Sirkey Resto,"Jalan Sudirman, Radamata, Kec. Kota Tambolaka, Kabupaten Sumba Barat Daya, Nusa Tenggara Tim.","Kabupaten Sumba Barat Daya, Nusa Tenggara Tim.",NUSA TENGGARA TIMUR,,Indonesia,85333077007.0,,,-9.4296618,119.2383019,https://maps.google.com/?cid=0x0:0xaff317bab9d61459,
restaurant,Rumah Makan,Warung Sekar Jawi,"H67M+828, Langga Lero, Kec. Loura, Kabupaten Sumba Barat Daya, Nusa Tenggara Tim.","Kabupaten Sumba Barat Daya, Nusa Tenggara Tim.",NUSA TENGGARA TIMUR,,Indonesia,,,,-9.4367112,119.2325935,https://maps.google.com/?cid=0x0:0x828293bbed38cddc,
restaurant,Restoran,Rumah Makan LG Malole,"H6HJ+CW7, Radamata, Kec. Loura, Kabupaten Sumba Barat Daya, Nusa Tenggara Tim.","Kabupaten Sumba Barat Daya, Nusa Tenggara Tim.",NUSA TENGGARA TIMUR,,Indonesia,,,,-9.4214537,119.2322881,https://maps.google.com/?cid=0x0:0xea4f51e14144fd2,
restaurant,Indonesia,Rumah Makan Sei Babi RM LG Malole,"Jl, Yosudarso, Ledegiring, Ladegiring, Kec. Loura, Kabupaten Sumba Barat Daya, Nusa Tenggara Tim. 87255","Yosudarso, Ledegiring, Ladegiring, Kec. Loura, Kabupaten Sumba Barat Daya",NUSA TENGGARA TIMUR,87255.0,Indonesia,,,,-9.4079311,119.2269419,https://maps.google.com/?cid=0x0:0xc07e7da00ffbdcb8,
restaurant,Hotel,Restoran Hotel Sinar Tambolaka,"H69Q+M9R, Kalena Wano, Kec. Loura, Kabupaten Sumba Barat Daya, Nusa Tenggara Tim.","Kabupaten Sumba Barat Daya, Nusa Tenggara Tim.",NUSA TENGGARA TIMUR,,Indonesia,81216824269.0,,,-9.4307735,119.2383977,https://maps.google.com/?cid=0x0:0xd401bf034df95907,
restaurant,Restoran,WARUNG GULA GARAM,"Jl. Soeharto No.18, Radamata, Kec. Kota Tambolaka, Kabupaten Sumba Barat Daya, Nusa Tenggara Tim.","Kabupaten Sumba Barat Daya, Nusa Tenggara Tim.",NUSA TENGGARA TIMUR,,Indonesia,3872524019.0,,,-9.4230396,119.2455498,https://maps.google.com/?cid=0x0:0x695421ad0206e3f6,
restaurant,Restoran,Depot Asri Lamongan,"H68M+8F5, Langga Lero, Kec. Loura, Kabupaten Sumba Barat Daya, Nusa Tenggara Tim.","Kabupaten Sumba Barat Daya, Nusa Tenggara Tim.",NUSA TENGGARA TIMUR,,Indonesia,,,,-9.4342446,119.2337403,https://maps.google.com/?cid=0x0:0x9ea22ff88a75412d,
restaurant,Bakso,Bakso Malada sapurata,"H68M+QG2, Langga Lero, Kec. Loura, Kabupaten Sumba Barat Daya, Nusa Tenggara Tim.","Kabupaten Sumba Barat Daya, Nusa Tenggara Tim.",NUSA TENGGARA TIMUR,,Indonesia,,,,-9.4331197,119.2337634,https://maps.google.com/?cid=0x0:0xa6ec7d384e979fde,
restaurant,Restoran,Rumah Makan Richard,"H6FW+WG6, Radamata, Kec. Loura, Kabupaten Sumba Barat Daya, Nusa Tenggara Tim.","Kabupaten Sumba Barat Daya, Nusa Tenggara Tim.",NUSA TENGGARA TIMUR,,Indonesia,85339235680.0,,,-9.4252246,119.2462794,https://maps.google.com/?cid=0x0:0x66da2c3067d5fa6,
restaurant,Restoran,Rm. Rinjani,"Langga Lero, Kec. Loura, Kabupaten Sumba Barat Daya, Nusa Tenggara Tim.","Kabupaten Sumba Barat Daya, Nusa Tenggara Tim.",NUSA TENGGARA TIMUR,,Indonesia,,,,-9.4377172,119.2322943,https://maps.google.com/?cid=0x0:0x6033fd038abc54d5,
restaurant,Kantor Perusahaan,Pesona Laut,"H6FP+3PH, Jl. Yos Sudarso, Radamata, Kec. Loura, Kabupaten Sumba Barat Daya, Nusa Tenggara Tim.","Kabupaten Sumba Barat Daya, Nusa Tenggara Tim.",NUSA TENGGARA TIMUR,,Indonesia,,,,-9.427323,119.2368749,https://maps.google.com/?cid=0x0:0xa9ce4c27cb5cc7b0,
restaurant,Restoran,Nyantai Doeloe,"H6CR+F5, Kalena Wano, Kec. Kota Tambolaka, Kabupaten Sumba Barat Daya, Nusa Tenggara Tim.","Kabupaten Sumba Barat Daya, Nusa Tenggara Tim.",NUSA TENGGARA TIMUR,,Indonesia,81338981345.0,,,-9.4285495,119.2402801,https://maps.google.com/?cid=0x0:0xb1581d0afc92ad8d,
restaurant,Katering,Larasha resto  bakery,"Jl. Ketapang, Kedaung, Kec. Sawangan, Kota Depok, Jawa Barat 16516","Kedaung, Kec. Sawangan, Kota Depok",NUSA TENGGARA TIMUR,16516.0,Indonesia,82244935999.0,,,-6.3665422,106.7462682,https://maps.google.com/?cid=0x0:0xc2f7f287b7d9d2,
restaurant,Restoran,WARUNG LALAURA,"Purworejo, Kec. Pasir Sakti, Kabupaten Lampung Timur, Lampung","Kabupaten Lampung Timur, Lampung",NUSA TENGGARA TIMUR,,Indonesia,,,,-5.5287001,105.7858715,https://maps.google.com/?cid=0x0:0x5eaabd2a2fc1eaf0,
restaurant,restaurant,Nusa Tenggara Tim. 87253,"Raba Engge, Kec. Wewewa Bar., Kabupaten Sumba Barat Daya, Nusa Tenggara Tim.","Kabupaten Sumba Barat Daya, Nusa Tenggara Tim.",NUSA TENGGARA TIMUR,,Indonesia,,,,-9.5600081,119.2279835,https://maps.google.com/?cid=0x0:0x408cc62c8b3addfc,
restaurant,Restoran,Makan Dulu Restaurant by the Sumba Hospitality Foundation,"Kalena Wano, Kec. Loura, Kabupaten Sumba Barat Daya, Nusa Tenggara Tim.","Kabupaten Sumba Barat Daya, Nusa Tenggara Tim.",NUSA TENGGARA TIMUR,,Indonesia,81239230989.0,,,-9.4318327,119.2450173,https://maps.google.com/?cid=0x0:0xfc3caaac08694be,
restaurant,Restoran,Ro'o Luwa,"H664+4J5, Jl. Lukas Dairo Bili, Wee Londa, Kec. Loura, Kabupaten Sumba Barat Daya, Nusa Tenggara Tim.","Kabupaten Sumba Barat Daya, Nusa Tenggara Tim.",NUSA TENGGARA TIMUR,,Indonesia,82145441081.0,,,-9.4397402,119.2066122,https://maps.google.com/?cid=0x0:0xabd524235b9d5344,
restaurant,Restoran,Dapur Sumba,"Radamata, Kec. Loura, Kabupaten Sumba Barat Daya, Nusa Tenggara Tim. 87254","Kec. Loura, Kabupaten Sumba Barat Daya",NUSA TENGGARA TIMUR,87254.0,Indonesia,81353315055.0,,,-9.4167954,119.245971,https://maps.google.com/?cid=0x0:0xb774a37a3fc0df4d,
restaurant,Restoran,Dapur Sumba Waikabubak,"Jl. Ahmad Yani No.51, Maliti, Kec. Kota Waikabubak, Kabupaten Sumba Barat, Nusa Tenggara Tim.","Kabupaten Sumba Barat, Nusa Tenggara Tim.",NUSA TENGGARA TIMUR,,Indonesia,81329575563.0,,,-9.6345839,119.4100495,https://maps.google.com/?cid=0x0:0xfffb69d9ed16ed21,
restaurant,Restoran,Sirkey Resto,"Jalan Sudirman, Radamata, Kec. Kota Tambolaka, Kabupaten Sumba Barat Daya, Nusa Tenggara Tim.","Kabupaten Sumba Barat Daya, Nusa Tenggara Tim.",NUSA TENGGARA TIMUR,,Indonesia,85333077007.0,,,-9.4296618,119.2383019,https://maps.google.com/?cid=0x0:0xaff317bab9d61459,
restaurant,Restoran,WARUNG GULA GARAM,"Jl. Soeharto No.18, Radamata, Kec. Kota Tambolaka, Kabupaten Sumba Barat Daya, Nusa Tenggara Tim.","Kabupaten Sumba Barat Daya, Nusa Tenggara Tim.",NUSA TENGGARA TIMUR,,Indonesia,3872524019.0,,,-9.4230396,119.2455498,https://maps.google.com/?cid=0x0:0x695421ad0206e3f6,
restaurant,Restoran,D'Sumba Ate,"Jl. Ahmad Yani No.148 A, Wailiang, Kec. Kota Waikabubak, Kabupaten Sumba Barat, Nusa Tenggara Tim. 87211","Wailiang, Kec. Kota Waikabubak, Kabupaten Sumba Barat",NUSA TENGGARA TIMUR,87211.0,Indonesia,82146325612.0,,,-9.6428236,119.4082311,https://maps.google.com/?cid=0x0:0xb13af0eefc64bd7d,
restaurant,Restoran,Pondok Daun Ubi,"9C63+234, Jl. Pisang, Wee Karou, Kec. Loli, Kabupaten Sumba Barat, Nusa Tenggara Tim.","Kabupaten Sumba Barat, Nusa Tenggara Tim.",NUSA TENGGARA TIMUR,,Indonesia,,,,-9.6399809,119.402688,https://maps.google.com/?cid=0x0:0x19dbba717a22a18,
restaurant,Kafe,Resto  Cafe - Dr. NT,"H6CQ+GW2, Radamata, Kec. Loura, Kabupaten Sumba Barat Daya, Nusa Tenggara Tim.","Kabupaten Sumba Barat Daya, Nusa Tenggara Tim.",NUSA TENGGARA TIMUR,,Indonesia,81238916090.0,,,-9.4287466,119.2397686,https://maps.google.com/?cid=0x0:0xa088b2115852bf7a,
restaurant,Restoran,Cafe Foodie  Art Shop,"Jl. Bhayangkara No.km 2, Pada Eweta, Kec. Kota Waikabubak, Kabupaten Sumba Barat, Nusa Tenggara Tim.","Kabupaten Sumba Barat, Nusa Tenggara Tim.",NUSA TENGGARA TIMUR,,Indonesia,82144760812.0,,,-9.6252721,119.4032057,https://maps.google.com/?cid=0x0:0xc3fbf0943bb2d894,
restaurant,Bakso,Bakso Malada,"9C86+FWW, Komerda, Kec. Kota Waikabubak, Kabupaten Sumba Barat, Nusa Tenggara Tim.","Kabupaten Sumba Barat, Nusa Tenggara Tim.",NUSA TENGGARA TIMUR,,Indonesia,,,,-9.633767,119.4123405,https://maps.google.com/?cid=0x0:0xc219a4bf908c5a92,
restaurant,Restoran,Restoria,"Jl. Ahmad Yani No.48, Maliti, Kec. Kota Waikabubak, Kabupaten Sumba Barat, Nusa Tenggara Tim.","Kabupaten Sumba Barat, Nusa Tenggara Tim.",NUSA TENGGARA TIMUR,,Indonesia,81337847707.0,,,-9.6340729,119.410218,https://maps.google.com/?cid=0x0:0xd5c9813e97124d2f,
restaurant,Rumah Makan,Rumah Makan Aneka Rasa,"H69M+5HC, Langga Lero, Kec. Loura, Kabupaten Sumba Barat Daya, Nusa Tenggara Tim.","Kabupaten Sumba Barat Daya, Nusa Tenggara Tim.",NUSA TENGGARA TIMUR,,Indonesia,82145877031.0,,,-9.4320597,119.2338848,https://maps.google.com/?cid=0x0:0x8e352f29135df742,
restaurant,restaurant,,,,NUSA TENGGARA TIMUR,,Indonesia,,,,,,https://maps.google.com/?cid=0x0:0xabd524235b9d5344u0026onu003dTumis+Jantung+Pisangu0026midu003d/g/11c0rm_6zy,
restaurant,restaurant,,,,NUSA TENGGARA TIMUR,,Indonesia,,,,,,https://maps.google.com/?cid=0x0:0xabd524235b9d5344u0026onu003dStir+Fried+Banana+Floweru0026midu003d/g/11c0rm_6zy,
restaurant,restaurant,,,,NUSA TENGGARA TIMUR,,Indonesia,,,,,,https://maps.google.com/?cid=0x0:0xabd524235b9d5344u0026onu003dStir+Fried+Papaya+Flowersu0026midu003d/g/11c0rm_6zy,
restaurant,restaurant,,,,NUSA TENGGARA TIMUR,,Indonesia,,,,,,https://maps.google.com/?cid=0x0:0xabd524235b9d5344u0026onu003dSup+Ikanu0026midu003d/g/11c0rm_6zy,
restaurant,restaurant,,,,NUSA TENGGARA TIMUR,,Indonesia,,,,,,https://maps.google.com/?cid=0x0:0xabd524235b9d5344u0026onu003dTeh+Linou0026midu003d/g/11c0rm_6zy,
restaurant,restaurant,,,,NUSA TENGGARA TIMUR,,Indonesia,,,,,,https://maps.google.com/?cid=0x0:0xabd524235b9d5344u0026onu0026midu003d/g/11c0rm_6zy,
restaurant,restaurant,Kec. Wewewa Sel.,"Kabupaten Sumba Barat Daya, Nusa Tenggara Tim.","Kabupaten Sumba Barat Daya, Nusa Tenggara Tim.",NUSA TENGGARA TIMUR,,Indonesia,,,,-9.5674808,119.2200814,https://maps.google.com/?cid=0x0:0x5dc8281eeb398606,
restaurant,Restoran,Sirkey Resto,"Jalan Sudirman, Radamata, Kec. Kota Tambolaka, Kabupaten Sumba Barat Daya, Nusa Tenggara Tim.","Kabupaten Sumba Barat Daya, Nusa Tenggara Tim.",NUSA TENGGARA TIMUR,,Indonesia,85333077007.0,,,-9.4296618,119.2383019,https://maps.google.com/?cid=0x0:0xaff317bab9d61459,
restaurant,Restoran,Makan Dulu Restaurant by the Sumba Hospitality Foundation,"Kalena Wano, Kec. Loura, Kabupaten Sumba Barat Daya, Nusa Tenggara Tim.","Kabupaten Sumba Barat Daya, Nusa Tenggara Tim.",NUSA TENGGARA TIMUR,,Indonesia,81239230989.0,,,-9.4318327,119.2450173,https://maps.google.com/?cid=0x0:0xfc3caaac08694be,
restaurant,Rumah Makan,Resto Maguro,"9C63+76C, Wee Karou, Kec. Loli, Kabupaten Sumba Barat, Nusa Tenggara Tim.","Kabupaten Sumba Barat, Nusa Tenggara Tim.",NUSA TENGGARA TIMUR,,Indonesia,81337968520.0,,,-9.639307,119.4030075,https://maps.google.com/?cid=0x0:0x9c2c1872209c1821,
restaurant,Restoran,Ro'o Luwa,"H664+4J5, Jl. Lukas Dairo Bili, Wee Londa, Kec. Loura, Kabupaten Sumba Barat Daya, Nusa Tenggara Tim.","Kabupaten Sumba Barat Daya, Nusa Tenggara Tim.",NUSA TENGGARA TIMUR,,Indonesia,82145441081.0,,,-9.4397402,119.2066122,https://maps.google.com/?cid=0x0:0xabd524235b9d5344,
restaurant,Restoran,D'Sumba Ate,"Jl. Ahmad Yani No.148 A, Wailiang, Kec. Kota Waikabubak, Kabupaten Sumba Barat, Nusa Tenggara Tim. 87211","Wailiang, Kec. Kota Waikabubak, Kabupaten Sumba Barat",NUSA TENGGARA TIMUR,87211.0,Indonesia,82146325612.0,,,-9.6428236,119.4082311,https://maps.google.com/?cid=0x0:0xb13af0eefc64bd7d,
restaurant,Restoran,Dapur Sumba Waikabubak,"Jl. Ahmad Yani No.51, Maliti, Kec. Kota Waikabubak, Kabupaten Sumba Barat, Nusa Tenggara Tim.","Kabupaten Sumba Barat, Nusa Tenggara Tim.",NUSA TENGGARA TIMUR,,Indonesia,81329575563.0,,,-9.6345839,119.4100495,https://maps.google.com/?cid=0x0:0xfffb69d9ed16ed21,
restaurant,Restoran,Pondok Daun Ubi,"9C63+234, Jl. Pisang, Wee Karou, Kec. Loli, Kabupaten Sumba Barat, Nusa Tenggara Tim.","Kabupaten Sumba Barat, Nusa Tenggara Tim.",NUSA TENGGARA TIMUR,,Indonesia,,,,-9.6399809,119.402688,https://maps.google.com/?cid=0x0:0x19dbba717a22a18,
restaurant,Restoran,WARUNG GULA GARAM,"Jl. Soeharto No.18, Radamata, Kec. Kota Tambolaka, Kabupaten Sumba Barat Daya, Nusa Tenggara Tim.","Kabupaten Sumba Barat Daya, Nusa Tenggara Tim.",NUSA TENGGARA TIMUR,,Indonesia,3872524019.0,,,-9.4230396,119.2455498,https://maps.google.com/?cid=0x0:0x695421ad0206e3f6,
restaurant,Restoran,Soemba Coffee  Resto Waikabubak,"Jl. Ahmad Yani No.119, Maliti, Kec. Kota Waikabubak, Kabupaten Sumba Barat, Nusa Tenggara Tim.","Kabupaten Sumba Barat, Nusa Tenggara Tim.",NUSA TENGGARA TIMUR,,Indonesia,82155665147.0,,,-9.638199,119.4078702,https://maps.google.com/?cid=0x0:0x7f6da285e14506ee,
restaurant,Kafe,Resto  Cafe - Dr. NT,"H6CQ+GW2, Radamata, Kec. Loura, Kabupaten Sumba Barat Daya, Nusa Tenggara Tim.","Kabupaten Sumba Barat Daya, Nusa Tenggara Tim.",NUSA TENGGARA TIMUR,,Indonesia,81238916090.0,,,-9.4287466,119.2397686,https://maps.google.com/?cid=0x0:0xa088b2115852bf7a,
restaurant,Bakso,Warung Bakso Maliti,"C8G9+MVV, Kalembu Ndara Mane, Kec. Wewewa Tim., Kabupaten Sumba Barat Daya, Nusa Tenggara Tim.","Kabupaten Sumba Barat Daya, Nusa Tenggara Tim.",NUSA TENGGARA TIMUR,,Indonesia,85253675659.0,,,-9.5732664,119.3196814,https://maps.google.com/?cid=0x0:0xa81e0a65716b1d38,
restaurant,Restoran,Cafe Foodie  Art Shop,"Jl. Bhayangkara No.km 2, Pada Eweta, Kec. Kota Waikabubak, Kabupaten Sumba Barat, Nusa Tenggara Tim.","Kabupaten Sumba Barat, Nusa Tenggara Tim.",NUSA TENGGARA TIMUR,,Indonesia,82144760812.0,,,-9.6252721,119.4032057,https://maps.google.com/?cid=0x0:0xc3fbf0943bb2d894,
restaurant,Bakso,Bakso Malada,"9C86+FWW, Komerda, Kec. Kota Waikabubak, Kabupaten Sumba Barat, Nusa Tenggara Tim.","Kabupaten Sumba Barat, Nusa Tenggara Tim.",NUSA TENGGARA TIMUR,,Indonesia,,,,-9.633767,119.4123405,https://maps.google.com/?cid=0x0:0xc219a4bf908c5a92,
restaurant,Restoran,Elcafe Sumba,"Matawai, Kec. Kota Waingapu, Kabupaten Sumba Timur, Nusa Tenggara Tim.","Kabupaten Sumba Timur, Nusa Tenggara Tim.",NUSA TENGGARA TIMUR,,Indonesia,81238246474.0,,,-9.6541853,120.263791,https://maps.google.com/?cid=0x0:0xf8e772e0e7ecd0d1,
restaurant,Bakso,Warung Bakso Sarinah,"C8M8+4GP, Unnamed Road, Kalembu Ndara Mane, Kec. Wewewa Tim., Kabupaten Sumba Barat Daya, Nusa Tenggara Tim.","Kabupaten Sumba Barat Daya, Nusa Tenggara Tim.",NUSA TENGGARA TIMUR,,Indonesia,85343948926.0,,,-9.5671719,119.3163253,https://maps.google.com/?cid=0x0:0x6a1031832dec9781,
restaurant,Restoran,RM Enjoy Aja,"G6VG+676 Ngongo Bani, Jalan Raja Yohanes, Wee Renna, Wewewa Barat, Southwest Sumba Regency, East Nusa Tenggara","Kabupaten Sumba Barat Daya, Nusa Tenggara Tim.",NUSA TENGGARA TIMUR,,Indonesia,,,,-9.4569722,119.225643,https://maps.google.com/?cid=0x0:0xead89d97d206ae3a,
restaurant,Restoran,Restoria,"Jl. Ahmad Yani No.48, Maliti, Kec. Kota Waikabubak, Kabupaten Sumba Barat, Nusa Tenggara Tim.","Kabupaten Sumba Barat, Nusa Tenggara Tim.",NUSA TENGGARA TIMUR,,Indonesia,81337847707.0,,,-9.6340729,119.410218,https://maps.google.com/?cid=0x0:0xd5c9813e97124d2f,
restaurant,restaurant,Simpang Wee Kaka,"C6JC+Q5M, Tena Teke, Kec. Wewewa Sel., Kabupaten Sumba Barat Daya, Nusa Tenggara Tim.","Kabupaten Sumba Barat Daya, Nusa Tenggara Tim.",NUSA TENGGARA TIMUR,,Indonesia,,,,-9.567537,119.220141,https://maps.google.com/?cid=0x0:0xaa3e3f1481a87b14,
restaurant,Restoran,Pang kleng,"Jalan wanno wola 0, RT./rw/RW.0, dusun 2, Wali Ate, Wewewa Barat, Southwest Sumba Regency, East Nusa Tenggara","Kabupaten Sumba Barat Daya, Nusa Tenggara Tim.",NUSA TENGGARA TIMUR,,Indonesia,82144764311.0,,,-9.5283104,119.1666909,https://maps.google.com/?cid=0x0:0x361190af08fd03b5,
restaurant,restaurant,Warung makan Marselina,"C6MC+494, Tena Teke, Kec. Wewewa Sel., Kabupaten Sumba Barat Daya, Nusa Tenggara Tim.","Kabupaten Sumba Barat Daya, Nusa Tenggara Tim.",NUSA TENGGARA TIMUR,,Indonesia,,,,-9.5673336,119.2209084,https://maps.google.com/?cid=0x0:0x2e1f059ca875ac4,
restaurant,Kedai Kopi,FX's Coffee House,"Unnamed Road, Tena Teke, Wewewa Selatan, Southwest Sumba Regency, East Nusa Tenggara","Kabupaten Sumba Barat Daya, Nusa Tenggara Tim.",NUSA TENGGARA TIMUR,,Indonesia,85239910479.0,,,-9.5676127,119.2141271,https://maps.google.com/?cid=0x0:0xc5cfa061edc2db33,
restaurant,Pemasok makanan dan minuman katering,JULIE CATERING,"G6QF+P2M, Wee Renna, Kec. Wewewa Bar., Kabupaten Sumba Barat Daya, Nusa Tenggara Tim.","Kabupaten Sumba Barat Daya, Nusa Tenggara Tim.",NUSA TENGGARA TIMUR,,Indonesia,,,,-9.4606787,119.2225799,https://maps.google.com/?cid=0x0:0x2715fa22f0fc5276,
restaurant,restaurant,Anandalove dopal ina,"F7FJ+HMM, Jl. Ahmad Yani, Lombu, Kec. Wewewa Tim., Kabupaten Sumba Barat Daya, Nusa Tenggara Tim.","Kabupaten Sumba Barat Daya, Nusa Tenggara Tim.",NUSA TENGGARA TIMUR,,Indonesia,,,,-9.5266086,119.2820725,https://maps.google.com/?cid=0x0:0x234dfa67b070ed,
restaurant,Pondok,MASRI PUNG RUMAH,"F6P5+RGW, Lolo, Kec. Wewewa Bar., Kabupaten Sumba Barat Daya, Nusa Tenggara Tim.","Kabupaten Sumba Barat Daya, Nusa Tenggara Tim.",NUSA TENGGARA TIMUR,,Indonesia,81385854808.0,,,-9.5128943,119.2088303,https://maps.google.com/?cid=0x0:0x568468eedc006d7f,
restaurant,Rumah Pondokan,Pondok BP dimas,"F77C+FHX Nalodana dus. 3, Watu Lambara, Kec. Wewewa Tengah, Kabupaten Sumba Barat Daya, Nusa Tenggara Tim.","Kabupaten Sumba Barat Daya, Nusa Tenggara Tim.",NUSA TENGGARA TIMUR,,Indonesia,,,,-9.5362714,119.2714964,https://maps.google.com/?cid=0x0:0xe4bb058f52c624e3,
restaurant,restaurant,D’Vito Cafe,"Jl. Raja Yohanes Ngongo Bani, Wee Tobula, Kec. Kota Tambolaka, Kabupaten Sumba Barat Daya, Nusa Tenggara Tim.","Kabupaten Sumba Barat Daya, Nusa Tenggara Tim.",NUSA TENGGARA TIMUR,,Indonesia,85238410716.0,,,-9.4545564,119.2267233,https://maps.google.com/?cid=0x0:0x3ef99a42d8af4e7f,
restaurant,Kedai Kopi,Warung OLINOR,"Jati Lima, Wali Ate, Kec. Wewewa Bar., Kabupaten Sumba Barat Daya, Nusa Tenggara Tim.","Kabupaten Sumba Barat Daya, Nusa Tenggara Tim.",NUSA TENGGARA TIMUR,,Indonesia,,,,-9.5308435,119.1698823,https://maps.google.com/?cid=0x0:0x478c4a092a07a4ad,
restaurant,Mesin Jual Otomatis Kopi,AKS : Aroma Kopi Sumba,"Omba Rade, Kec. Wewewa Tim., Kabupaten Sumba Barat Daya, Nusa Tenggara Tim.","Kabupaten Sumba Barat Daya, Nusa Tenggara Tim.",NUSA TENGGARA TIMUR,,Indonesia,82236215888.0,,,-9.5634125,119.3038822,https://maps.google.com/?cid=0x0:0xc549ceb381ca8f9d,
restaurant,restaurant,Kec. Wewewa Tengah,"Kabupaten Sumba Barat Daya, Nusa Tenggara Tim.","Kabupaten Sumba Barat Daya, Nusa Tenggara Tim.",NUSA TENGGARA TIMUR,,Indonesia,,,,-9.532605,119.2909927,https://maps.google.com/?cid=0x0:0x6f978c8d3fab9d28,
restaurant,Restoran,Makan Dulu Restaurant by the Sumba Hospitality Foundation,"Kalena Wano, Kec. Loura, Kabupaten Sumba Barat Daya, Nusa Tenggara Tim.","Kabupaten Sumba Barat Daya, Nusa Tenggara Tim.",NUSA TENGGARA TIMUR,,Indonesia,81239230989.0,,,-9.4318327,119.2450173,https://maps.google.com/?cid=0x0:0xfc3caaac08694be,
restaurant,Restoran,Dapur Sumba,"Radamata, Kec. Loura, Kabupaten Sumba Barat Daya, Nusa Tenggara Tim. 87254","Kec. Loura, Kabupaten Sumba Barat Daya",NUSA TENGGARA TIMUR,87254.0,Indonesia,81353315055.0,,,-9.4167954,119.245971,https://maps.google.com/?cid=0x0:0xb774a37a3fc0df4d,
restaurant,Restoran,Ro'o Luwa,"H664+4J5, Jl. Lukas Dairo Bili, Wee Londa, Kec. Loura, Kabupaten Sumba Barat Daya, Nusa Tenggara Tim.","Kabupaten Sumba Barat Daya, Nusa Tenggara Tim.",NUSA TENGGARA TIMUR,,Indonesia,82145441081.0,,,-9.4397402,119.2066122,https://maps.google.com/?cid=0x0:0xabd524235b9d5344,
restaurant,Restoran,HF Resto  Boutique,"Jl. Kenari No.88, Radamata, Kec. Kota Tambolaka, Kabupaten Sumba Barat Daya, Nusa Tenggara Tim.","Kabupaten Sumba Barat Daya, Nusa Tenggara Tim.",NUSA TENGGARA TIMUR,,Indonesia,82143538789.0,,,-9.4160077,119.2408536,https://maps.google.com/?cid=0x0:0xd45aeb2593645658,
restaurant,Restoran,WARUNG GULA GARAM,"Jl. Soeharto No.18, Radamata, Kec. Kota Tambolaka, Kabupaten Sumba Barat Daya, Nusa Tenggara Tim.","Kabupaten Sumba Barat Daya, Nusa Tenggara Tim.",NUSA TENGGARA TIMUR,,Indonesia,3872524019.0,,,-9.4230396,119.2455498,https://maps.google.com/?cid=0x0:0x695421ad0206e3f6,
restaurant,Kafe,Resto  Cafe - Dr. NT,"H6CQ+GW2, Radamata, Kec. Loura, Kabupaten Sumba Barat Daya, Nusa Tenggara Tim.","Kabupaten Sumba Barat Daya, Nusa Tenggara Tim.",NUSA TENGGARA TIMUR,,Indonesia,81238916090.0,,,-9.4287466,119.2397686,https://maps.google.com/?cid=0x0:0xa088b2115852bf7a,
restaurant,Padang,RICHARD CAFE  CATERING,"Jl. Uranus, Wee Tobula, Kec. Kota Tambolaka, Kabupaten Sumba Barat Daya, Nusa Tenggara Tim. 87255","Wee Tobula, Kec. Kota Tambolaka, Kabupaten Sumba Barat Daya",NUSA TENGGARA TIMUR,87255.0,Indonesia,82243888776.0,,,-9.4442036,119.2336287,https://maps.google.com/?cid=0x0:0x910f48e62840b359,
restaurant,Restoran,D'Sumba Ate,"Jl. Ahmad Yani No.148 A, Wailiang, Kec. Kota Waikabubak, Kabupaten Sumba Barat, Nusa Tenggara Tim. 87211","Wailiang, Kec. Kota Waikabubak, Kabupaten Sumba Barat",NUSA TENGGARA TIMUR,87211.0,Indonesia,82146325612.0,,,-9.6428236,119.4082311,https://maps.google.com/?cid=0x0:0xb13af0eefc64bd7d,
restaurant,Restoran,Dapur Sumba Waikabubak,"Jl. Ahmad Yani No.51, Maliti, Kec. Kota Waikabubak, Kabupaten Sumba Barat, Nusa Tenggara Tim.","Kabupaten Sumba Barat, Nusa Tenggara Tim.",NUSA TENGGARA TIMUR,,Indonesia,81329575563.0,,,-9.6345839,119.4100495,https://maps.google.com/?cid=0x0:0xfffb69d9ed16ed21,
restaurant,Restoran,Cafe Foodie  Art Shop,"Jl. Bhayangkara No.km 2, Pada Eweta, Kec. Kota Waikabubak, Kabupaten Sumba Barat, Nusa Tenggara Tim.","Kabupaten Sumba Barat, Nusa Tenggara Tim.",NUSA TENGGARA TIMUR,,Indonesia,82144760812.0,,,-9.6252721,119.4032057,https://maps.google.com/?cid=0x0:0xc3fbf0943bb2d894,
restaurant,Restoran,Elcafe Sumba,"Matawai, Kec. Kota Waingapu, Kabupaten Sumba Timur, Nusa Tenggara Tim.","Kabupaten Sumba Timur, Nusa Tenggara Tim.",NUSA TENGGARA TIMUR,,Indonesia,81238246474.0,,,-9.6541853,120.263791,https://maps.google.com/?cid=0x0:0xf8e772e0e7ecd0d1,
restaurant,Restoran,D'Sumba Ate Tambolaka,"Jl. Mahoni, Radamata, Kec. Kota Tambolaka, Kabupaten Sumba Barat Daya, Nusa Tenggara Tim. 87255","Radamata, Kec. Kota Tambolaka, Kabupaten Sumba Barat Daya",NUSA TENGGARA TIMUR,87255.0,Indonesia,81238683588.0,,,-9.4151422,119.2484716,https://maps.google.com/?cid=0x0:0xbc56d2028f058074,
restaurant,Rumah Makan,Resto Maguro,"9C63+76C, Wee Karou, Kec. Loli, Kabupaten Sumba Barat, Nusa Tenggara Tim.","Kabupaten Sumba Barat, Nusa Tenggara Tim.",NUSA TENGGARA TIMUR,,Indonesia,81337968520.0,,,-9.639307,119.4030075,https://maps.google.com/?cid=0x0:0x9c2c1872209c1821,
restaurant,Restoran,Pondok Daun Ubi,"9C63+234, Jl. Pisang, Wee Karou, Kec. Loli, Kabupaten Sumba Barat, Nusa Tenggara Tim.","Kabupaten Sumba Barat, Nusa Tenggara Tim.",NUSA TENGGARA TIMUR,,Indonesia,,,,-9.6399809,119.402688,https://maps.google.com/?cid=0x0:0x19dbba717a22a18,
restaurant,Restoran,PC Corner Cafe  Restaurant,"87R7+PX7, Matawai, Kec. Kota Waingapu, Kabupaten Sumba Timur, Nusa Tenggara Tim.","Kabupaten Sumba Timur, Nusa Tenggara Tim.",NUSA TENGGARA TIMUR,,Indonesia,81223171725.0,,,-9.6582224,120.264934,https://maps.google.com/?cid=0x0:0x2fa4a65173884c70,
restaurant,Bakso,Bakso Malada,"9C86+FWW, Komerda, Kec. Kota Waikabubak, Kabupaten Sumba Barat, Nusa Tenggara Tim.","Kabupaten Sumba Barat, Nusa Tenggara Tim.",NUSA TENGGARA TIMUR,,Indonesia,,,,-9.633767,119.4123405,https://maps.google.com/?cid=0x0:0xc219a4bf908c5a92,
restaurant,Rumah Makan,Rumah Makan Aneka Rasa,"H69M+5HC, Langga Lero, Kec. Loura, Kabupaten Sumba Barat Daya, Nusa Tenggara Tim.","Kabupaten Sumba Barat Daya, Nusa Tenggara Tim.",NUSA TENGGARA TIMUR,,Indonesia,82145877031.0,,,-9.4320597,119.2338848,https://maps.google.com/?cid=0x0:0x8e352f29135df742,
restaurant,restaurant,,,,NUSA TENGGARA TIMUR,,Indonesia,,,,,,https://maps.google.com/?cid=0x0:0xabd524235b9d5344u0026onu003dTumis+Jantung+Pisangu0026midu003d/g/11c0rm_6zy,
restaurant,restaurant,,,,NUSA TENGGARA TIMUR,,Indonesia,,,,,,https://maps.google.com/?cid=0x0:0xabd524235b9d5344u0026onu003dStir+Fried+Banana+Floweru0026midu003d/g/11c0rm_6zy,
restaurant,restaurant,,,,NUSA TENGGARA TIMUR,,Indonesia,,,,,,https://maps.google.com/?cid=0x0:0xabd524235b9d5344u0026onu003dStir+Fried+Papaya+Flowersu0026midu003d/g/11c0rm_6zy,
restaurant,restaurant,,,,NUSA TENGGARA TIMUR,,Indonesia,,,,,,https://maps.google.com/?cid=0x0:0xabd524235b9d5344u0026onu003dSup+Ikanu0026midu003d/g/11c0rm_6zy,
restaurant,restaurant,,,,NUSA TENGGARA TIMUR,,Indonesia,,,,,,https://maps.google.com/?cid=0x0:0xabd524235b9d5344u0026onu003dTeh+Linou0026midu003d/g/11c0rm_6zy,
restaurant,restaurant,,,,NUSA TENGGARA TIMUR,,Indonesia,,,,,,https://maps.google.com/?cid=0x0:0xabd524235b9d5344u0026onu0026midu003d/g/11c0rm_6zy,
restaurant,restaurant,Kec. Wewewa Tim.,"Kabupaten Sumba Barat Daya, Nusa Tenggara Tim.","Kabupaten Sumba Barat Daya, Nusa Tenggara Tim.",NUSA TENGGARA TIMUR,,Indonesia,,,,-9.5922479,119.3511009,https://maps.google.com/?cid=0x0:0x69ead4906c239f2b,
restaurant,Rumah Makan,Resto Maguro,"9C63+76C, Wee Karou, Kec. Loli, Kabupaten Sumba Barat, Nusa Tenggara Tim.","Kabupaten Sumba Barat, Nusa Tenggara Tim.",NUSA TENGGARA TIMUR,,Indonesia,81337968520.0,,,-9.639307,119.4030075,https://maps.google.com/?cid=0x0:0x9c2c1872209c1821,
restaurant,Restoran,RESTO NE'NERU LOKO,"9CF8+PJH, Kp. Baru, Kec. Kota Waikabubak, Kabupaten Sumba Barat, Nusa Tenggara Tim.","Kabupaten Sumba Barat, Nusa Tenggara Tim.",NUSA TENGGARA TIMUR,,Indonesia,81338236237.0,,,-9.6254467,119.4163814,https://maps.google.com/?cid=0x0:0x1b5f3f8a383dde27,
restaurant,Rumah Makan,Rumah Makan Cemara,"Jl. Simpang 3 Weekaneke, Weekarou Road, Kec. Kota Waikabubak, Kabupaten Sumba Barat, Nusa Tenggara Tim. 87211","Weekarou Road, Kec. Kota Waikabubak, Kabupaten Sumba Barat",NUSA TENGGARA TIMUR,87211.0,Indonesia,85239605528.0,,,-9.64127,119.3982168,https://maps.google.com/?cid=0x0:0xc49dba355031c88a,
restaurant,Restoran,Sirkey Resto,"Jalan Sudirman, Radamata, Kec. Kota Tambolaka, Kabupaten Sumba Barat Daya, Nusa Tenggara Tim.","Kabupaten Sumba Barat Daya, Nusa Tenggara Tim.",NUSA TENGGARA TIMUR,,Indonesia,85333077007.0,,,-9.4296618,119.2383019,https://maps.google.com/?cid=0x0:0xaff317bab9d61459,
restaurant,Bakso,Warung Bakso Maliti,"C8G9+MVV, Kalembu Ndara Mane, Kec. Wewewa Tim., Kabupaten Sumba Barat Daya, Nusa Tenggara Tim.","Kabupaten Sumba Barat Daya, Nusa Tenggara Tim.",NUSA TENGGARA TIMUR,,Indonesia,85253675659.0,,,-9.5732664,119.3196814,https://maps.google.com/?cid=0x0:0xa81e0a65716b1d38,
restaurant,Restoran,Dapur Sumba Waikabubak,"Jl. Ahmad Yani No.51, Maliti, Kec. Kota Waikabubak, Kabupaten Sumba Barat, Nusa Tenggara Tim.","Kabupaten Sumba Barat, Nusa Tenggara Tim.",NUSA TENGGARA TIMUR,,Indonesia,81329575563.0,,,-9.6345839,119.4100495,https://maps.google.com/?cid=0x0:0xfffb69d9ed16ed21,
restaurant,Restoran,Ro'o Luwa,"H664+4J5, Jl. Lukas Dairo Bili, Wee Londa, Kec. Loura, Kabupaten Sumba Barat Daya, Nusa Tenggara Tim.","Kabupaten Sumba Barat Daya, Nusa Tenggara Tim.",NUSA TENGGARA TIMUR,,Indonesia,82145441081.0,,,-9.4397402,119.2066122,https://maps.google.com/?cid=0x0:0xabd524235b9d5344,
restaurant,Kedai Kopi,Corner Coffee,"Pada Eweta, Kec. Kota Waikabubak, Kabupaten Sumba Barat, Nusa Tenggara Tim.","Kabupaten Sumba Barat, Nusa Tenggara Tim.",NUSA TENGGARA TIMUR,,Indonesia,81237206363.0,,,-9.6216078,119.3816711,https://maps.google.com/?cid=0x0:0x52e078dba4b712aa,
restaurant,Mesin Jual Otomatis Kopi,AKS : Aroma Kopi Sumba,"Omba Rade, Kec. Wewewa Tim., Kabupaten Sumba Barat Daya, Nusa Tenggara Tim.","Kabupaten Sumba Barat Daya, Nusa Tenggara Tim.",NUSA TENGGARA TIMUR,,Indonesia,82236215888.0,,,-9.5634125,119.3038822,https://maps.google.com/?cid=0x0:0xc549ceb381ca8f9d,
restaurant,Restoran,Dapur Sumba,"Radamata, Kec. Loura, Kabupaten Sumba Barat Daya, Nusa Tenggara Tim. 87254","Kec. Loura, Kabupaten Sumba Barat Daya",NUSA TENGGARA TIMUR,87254.0,Indonesia,81353315055.0,,,-9.4167954,119.245971,https://maps.google.com/?cid=0x0:0xb774a37a3fc0df4d,
restaurant,Restoran,D'Sumba Ate,"Jl. Ahmad Yani No.148 A, Wailiang, Kec. Kota Waikabubak, Kabupaten Sumba Barat, Nusa Tenggara Tim. 87211","Wailiang, Kec. Kota Waikabubak, Kabupaten Sumba Barat",NUSA TENGGARA TIMUR,87211.0,Indonesia,82146325612.0,,,-9.6428236,119.4082311,https://maps.google.com/?cid=0x0:0xb13af0eefc64bd7d,
restaurant,Restoran,Pondok Daun Ubi,"9C63+234, Jl. Pisang, Wee Karou, Kec. Loli, Kabupaten Sumba Barat, Nusa Tenggara Tim.","Kabupaten Sumba Barat, Nusa Tenggara Tim.",NUSA TENGGARA TIMUR,,Indonesia,,,,-9.6399809,119.402688,https://maps.google.com/?cid=0x0:0x19dbba717a22a18,
restaurant,Kedai Kopi,FA Cafe,"Jl. Bhayangkara, Pada Eweta, Kec. Kota Waikabubak, Kabupaten Sumba Barat, Nusa Tenggara Tim.","Kabupaten Sumba Barat, Nusa Tenggara Tim.",NUSA TENGGARA TIMUR,,Indonesia,81246407572.0,,,-9.6255981,119.4033559,https://maps.google.com/?cid=0x0:0x36d8618b19f55c66,
restaurant,Bakso,Warung Bakso Sarinah,"C8M8+4GP, Unnamed Road, Kalembu Ndara Mane, Kec. Wewewa Tim., Kabupaten Sumba Barat Daya, Nusa Tenggara Tim.","Kabupaten Sumba Barat Daya, Nusa Tenggara Tim.",NUSA TENGGARA TIMUR,,Indonesia,85343948926.0,,,-9.5671719,119.3163253,https://maps.google.com/?cid=0x0:0x6a1031832dec9781,
restaurant,Restoran,Cafe Foodie  Art Shop,"Jl. Bhayangkara No.km 2, Pada Eweta, Kec. Kota Waikabubak, Kabupaten Sumba Barat, Nusa Tenggara Tim.","Kabupaten Sumba Barat, Nusa Tenggara Tim.",NUSA TENGGARA TIMUR,,Indonesia,82144760812.0,,,-9.6252721,119.4032057,https://maps.google.com/?cid=0x0:0xc3fbf0943bb2d894,
restaurant,Padang,Rumah Makan Pondok Salero,"9C65+V82, Wailiang, Kec. Kota Waikabubak, Kabupaten Sumba Barat, Nusa Tenggara Tim.","Kabupaten Sumba Barat, Nusa Tenggara Tim.",NUSA TENGGARA TIMUR,,Indonesia,81337757728.0,,,-9.6378679,119.4082565,https://maps.google.com/?cid=0x0:0xcba49331c1564d4,
restaurant,restaurant,Anandalove dopal ina,"F7FJ+HMM, Jl. Ahmad Yani, Lombu, Kec. Wewewa Tim., Kabupaten Sumba Barat Daya, Nusa Tenggara Tim.","Kabupaten Sumba Barat Daya, Nusa Tenggara Tim.",NUSA TENGGARA TIMUR,,Indonesia,,,,-9.5266086,119.2820725,https://maps.google.com/?cid=0x0:0x234dfa67b070ed,
restaurant,Restoran,WARUNG GULA GARAM,"Jl. Soeharto No.18, Radamata, Kec. Kota Tambolaka, Kabupaten Sumba Barat Daya, Nusa Tenggara Tim.","Kabupaten Sumba Barat Daya, Nusa Tenggara Tim.",NUSA TENGGARA TIMUR,,Indonesia,3872524019.0,,,-9.4230396,119.2455498,https://maps.google.com/?cid=0x0:0x695421ad0206e3f6,
restaurant,Kedai Kopi,Cafe KM. 6 Janji Bui,"99QC+287, Soba Wawi, Kec. Loli, Kabupaten Sumba Barat, Nusa Tenggara Tim.","Kabupaten Sumba Barat, Nusa Tenggara Tim.",NUSA TENGGARA TIMUR,,Indonesia,,,,-9.6124228,119.37122,https://maps.google.com/?cid=0x0:0xe41100e738332532,
restaurant,Rumah Makan,Uma Nga'A Restaurant by Umarato Resort ( RESERVATION NEEDED ),"Jalan Rua Wanokaka no 7 ( Jurusan Pahola Desa Rua, Kec Wanokaka, Kec. Kota Waikabubak, Nusa Tenggara Tim. 87272","Kec Wanokaka, Kec. Kota Waikabubak",NUSA TENGGARA TIMUR,87272.0,Indonesia,82223378818.0,,,-9.7524374,119.4128981,https://maps.google.com/?cid=0x0:0x1ca0d0b13ea7d83,
restaurant,Restoran,Soemba Coffee  Resto Waikabubak,"Jl. Ahmad Yani No.119, Maliti, Kec. Kota Waikabubak, Kabupaten Sumba Barat, Nusa Tenggara Tim.","Kabupaten Sumba Barat, Nusa Tenggara Tim.",NUSA TENGGARA TIMUR,,Indonesia,82155665147.0,,,-9.638199,119.4078702,https://maps.google.com/?cid=0x0:0x7f6da285e14506ee,
restaurant,Brunch,Depot Dek Mama Lia,"Wee Paboba, Kec. Wewewa Utara, Kabupaten Sumba Barat Daya, Nusa Tenggara Tim.","Kabupaten Sumba Barat Daya, Nusa Tenggara Tim.",NUSA TENGGARA TIMUR,,Indonesia,82340667040.0,,,-9.5269916,119.3541322,https://maps.google.com/?cid=0x0:0xca3e2872b364e57d,
restaurant,restaurant,Kec. Wewewa Utara,"Kabupaten Sumba Barat Daya, Nusa Tenggara Tim.","Kabupaten Sumba Barat Daya, Nusa Tenggara Tim.",NUSA TENGGARA TIMUR,,Indonesia,,,,-9.5267607,119.3539572,https://maps.google.com/?cid=0x0:0xe58277af67096a5b,
restaurant,Brunch,Depot Dek Mama Lia,"Wee Paboba, Kec. Wewewa Utara, Kabupaten Sumba Barat Daya, Nusa Tenggara Tim.","Kabupaten Sumba Barat Daya, Nusa Tenggara Tim.",NUSA TENGGARA TIMUR,,Indonesia,82340667040.0,,,-9.5269916,119.3541322,https://maps.google.com/?cid=0x0:0xca3e2872b364e57d,
restaurant,Restoran,Makan Dulu Restaurant by the Sumba Hospitality Foundation,"Kalena Wano, Kec. Loura, Kabupaten Sumba Barat Daya, Nusa Tenggara Tim.","Kabupaten Sumba Barat Daya, Nusa Tenggara Tim.",NUSA TENGGARA TIMUR,,Indonesia,81239230989.0,,,-9.4318327,119.2450173,https://maps.google.com/?cid=0x0:0xfc3caaac08694be,
restaurant,Restoran,HF Resto  Boutique,"Jl. Kenari No.88, Radamata, Kec. Kota Tambolaka, Kabupaten Sumba Barat Daya, Nusa Tenggara Tim.","Kabupaten Sumba Barat Daya, Nusa Tenggara Tim.",NUSA TENGGARA TIMUR,,Indonesia,82143538789.0,,,-9.4160077,119.2408536,https://maps.google.com/?cid=0x0:0xd45aeb2593645658,
restaurant,Restoran,Ro'o Luwa,"H664+4J5, Jl. Lukas Dairo Bili, Wee Londa, Kec. Loura, Kabupaten Sumba Barat Daya, Nusa Tenggara Tim.","Kabupaten Sumba Barat Daya, Nusa Tenggara Tim.",NUSA TENGGARA TIMUR,,Indonesia,82145441081.0,,,-9.4397402,119.2066122,https://maps.google.com/?cid=0x0:0xabd524235b9d5344,
restaurant,Restoran,Dapur Sumba Waikabubak,"Jl. Ahmad Yani No.51, Maliti, Kec. Kota Waikabubak, Kabupaten Sumba Barat, Nusa Tenggara Tim.","Kabupaten Sumba Barat, Nusa Tenggara Tim.",NUSA TENGGARA TIMUR,,Indonesia,81329575563.0,,,-9.6345839,119.4100495,https://maps.google.com/?cid=0x0:0xfffb69d9ed16ed21,
restaurant,Restoran,Sirkey Resto,"Jalan Sudirman, Radamata, Kec. Kota Tambolaka, Kabupaten Sumba Barat Daya, Nusa Tenggara Tim.","Kabupaten Sumba Barat Daya, Nusa Tenggara Tim.",NUSA TENGGARA TIMUR,,Indonesia,85333077007.0,,,-9.4296618,119.2383019,https://maps.google.com/?cid=0x0:0xaff317bab9d61459,
restaurant,Restoran,D'Sumba Ate,"Jl. Ahmad Yani No.148 A, Wailiang, Kec. Kota Waikabubak, Kabupaten Sumba Barat, Nusa Tenggara Tim. 87211","Wailiang, Kec. Kota Waikabubak, Kabupaten Sumba Barat",NUSA TENGGARA TIMUR,87211.0,Indonesia,82146325612.0,,,-9.6428236,119.4082311,https://maps.google.com/?cid=0x0:0xb13af0eefc64bd7d,
restaurant,Restoran,Warung Makan MAMA KORI,"F9F3+FQ8, Wee Paboba, Kec. Wewewa Utara, Kabupaten Sumba Barat Daya, Nusa Tenggara Tim.","Kabupaten Sumba Barat Daya, Nusa Tenggara Tim.",NUSA TENGGARA TIMUR,,Indonesia,81238538068.0,,,-9.5263316,119.3544424,https://maps.google.com/?cid=0x0:0xcf4f72a3ac2518b4,
restaurant,Kafe,Resto  Cafe - Dr. NT,"H6CQ+GW2, Radamata, Kec. Loura, Kabupaten Sumba Barat Daya, Nusa Tenggara Tim.","Kabupaten Sumba Barat Daya, Nusa Tenggara Tim.",NUSA TENGGARA TIMUR,,Indonesia,81238916090.0,,,-9.4287466,119.2397686,https://maps.google.com/?cid=0x0:0xa088b2115852bf7a,
restaurant,Restoran,Cafe Foodie  Art Shop,"Jl. Bhayangkara No.km 2, Pada Eweta, Kec. Kota Waikabubak, Kabupaten Sumba Barat, Nusa Tenggara Tim.","Kabupaten Sumba Barat, Nusa Tenggara Tim.",NUSA TENGGARA TIMUR,,Indonesia,82144760812.0,,,-9.6252721,119.4032057,https://maps.google.com/?cid=0x0:0xc3fbf0943bb2d894,
restaurant,Restoran,WARUNG GULA GARAM,"Jl. Soeharto No.18, Radamata, Kec. Kota Tambolaka, Kabupaten Sumba Barat Daya, Nusa Tenggara Tim.","Kabupaten Sumba Barat Daya, Nusa Tenggara Tim.",NUSA TENGGARA TIMUR,,Indonesia,3872524019.0,,,-9.4230396,119.2455498,https://maps.google.com/?cid=0x0:0x695421ad0206e3f6,
restaurant,Komplek perumahan,Talasi Estate at Weetabula Sumba,"Jl. Rumah Budaya Waitabula No.218, Wee Londa, Kec. Kota Tambolaka, Kabupaten Sumba Barat Daya, Nusa Tenggara Tim. 87255","Wee Londa, Kec. Kota Tambolaka, Kabupaten Sumba Barat Daya",NUSA TENGGARA TIMUR,87255.0,Indonesia,82213334004.0,,,-9.431134,119.2158301,https://maps.google.com/?cid=0x0:0x437412f756e9179f,
restaurant,Indonesia,Leslie Cafe  Laundry,"87W8+793, Matawai, Kec. Kota Waingapu, Kabupaten Sumba Timur, Nusa Tenggara Tim.","Kabupaten Sumba Timur, Nusa Tenggara Tim.",NUSA TENGGARA TIMUR,,Indonesia,81239536666.0,,,-9.6543723,120.2659284,https://maps.google.com/?cid=0x0:0x6a0fcfe2cc14b730,
restaurant,Restoran,Elcafe Sumba,"Matawai, Kec. Kota Waingapu, Kabupaten Sumba Timur, Nusa Tenggara Tim.","Kabupaten Sumba Timur, Nusa Tenggara Tim.",NUSA TENGGARA TIMUR,,Indonesia,81238246474.0,,,-9.6541853,120.263791,https://maps.google.com/?cid=0x0:0xf8e772e0e7ecd0d1,
restaurant,Tujuan Wisata,Rumah Besar Gollu Majaga,"C9M2+6FF, Weelimbu, Kec. Wewewa Tim., Kabupaten Sumba Barat Daya, Nusa Tenggara Tim.","Kabupaten Sumba Barat Daya, Nusa Tenggara Tim.",NUSA TENGGARA TIMUR,,Indonesia,82339757601.0,,,-9.5669265,119.3511681,https://maps.google.com/?cid=0x0:0xfb9a83cddd928632,
restaurant,Kedai Kopi,Jevan kopi,"G9QW+W84, Ngadu Pada, Kec. Tana Righu, Kabupaten Sumba Barat, Nusa Tenggara Tim.","Kabupaten Sumba Barat, Nusa Tenggara Tim.",NUSA TENGGARA TIMUR,,Indonesia,,,,-9.459873,119.394642,https://maps.google.com/?cid=0x0:0x2e8dbd7dd1c6e1a0,
restaurant,Sekolah,Sumba Hospitality Foundation,"Sumba Hospitality Foundation Jl Mananga Aba, Karuni, Kec. Loura, Kabupaten Sumba Barat Daya, Nusa Tenggara Tim.","Kabupaten Sumba Barat Daya, Nusa Tenggara Tim.",NUSA TENGGARA TIMUR,,Indonesia,82147148489.0,,,-9.3886396,119.3022824,https://maps.google.com/?cid=0x0:0xc687a59f6d23b48d,
restaurant,Rumah Makan,Resto Maguro,"9C63+76C, Wee Karou, Kec. Loli, Kabupaten Sumba Barat, Nusa Tenggara Tim.","Kabupaten Sumba Barat, Nusa Tenggara Tim.",NUSA TENGGARA TIMUR,,Indonesia,81337968520.0,,,-9.639307,119.4030075,https://maps.google.com/?cid=0x0:0x9c2c1872209c1821,
restaurant,Restoran,Pondok Daun Ubi,"9C63+234, Jl. Pisang, Wee Karou, Kec. Loli, Kabupaten Sumba Barat, Nusa Tenggara Tim.","Kabupaten Sumba Barat, Nusa Tenggara Tim.",NUSA TENGGARA TIMUR,,Indonesia,,,,-9.6399809,119.402688,https://maps.google.com/?cid=0x0:0x19dbba717a22a18,
restaurant,Bakso,Bakso Malada,"9C86+FWW, Komerda, Kec. Kota Waikabubak, Kabupaten Sumba Barat, Nusa Tenggara Tim.","Kabupaten Sumba Barat, Nusa Tenggara Tim.",NUSA TENGGARA TIMUR,,Indonesia,,,,-9.633767,119.4123405,https://maps.google.com/?cid=0x0:0xc219a4bf908c5a92,
cafe,cafe,Nusa Tenggara Tim.,,Nusa Tenggara Tim.,NUSA TENGGARA TIMUR,,Indonesia,,,,-8.6573819,121.0793705,https://maps.google.com/?cid=0x0:0x1030bfbcaf71ae0,
cafe,Restoran,NINO Restaurant  Bar,"CWQM+6R2 Tim, Ate Dalo, Kec. Kodi, Kabupaten Sumba Barat Daya, Nusa Tenggara Tim. 87261","Ate Dalo, Kec. Kodi, Kabupaten Sumba Barat Daya",NUSA TENGGARA TIMUR,87261.0,Indonesia,81138314874.0,,,-9.5629526,118.9329508,https://maps.google.com/?cid=0x0:0x4dba78c8a942c092,
cafe,Kedai Kopi,Komi kafe,"Dekat Atm Bni, Jl. Amabi No.77, Maulafa, Kec. Maulafa, Kota Kupang, Nusa Tenggara Tim. 85117","Jl. Amabi No.77, Maulafa, Kec. Maulafa, Kota Kupang",NUSA TENGGARA TIMUR,85117.0,Indonesia,85142015519.0,,,-10.178221,123.6191943,https://maps.google.com/?cid=0x0:0x1214ed86baabd0b4,
cafe,Toko,Koda Ian Kafe,"RMR8+HPQ, Jl. Prof. Dr. Herman Johanes, Penfui, Kec. Kupang Tengah, Kabupaten Kupang, Nusa Tenggara Tim.","Kabupaten Kupang, Nusa Tenggara Tim.",NUSA TENGGARA TIMUR,,Indonesia,81239435212.0,,,-10.1585499,123.6668725,https://maps.google.com/?cid=0x0:0x9664352f18a99bac,
cafe,Hotel bintang 2,Cafe dan homestay kebun,"Alak, Kec. Alak, Kota Kupang, Nusa Tenggara Tim.","Kota Kupang, Nusa Tenggara Tim.",NUSA TENGGARA TIMUR,,Indonesia,,,,-10.1899429,123.5672008,https://maps.google.com/?cid=0x0:0x94a10d7953feef03,
cafe,Kafe,CAPITAL CAFE,"Jl. Bund. PU No.106, Tuak Daun Merah, Kec. Oebobo, Kota Kupang, Nusa Tenggara Tim. 85111","Tuak Daun Merah, Kec. Oebobo, Kota Kupang",NUSA TENGGARA TIMUR,85111.0,Indonesia,81138311118.0,,,-10.168289,123.6289318,https://maps.google.com/?cid=0x0:0x672c72df32c0a5eb,
cafe,Kafe,Dreamland Organik Kupang,"Belakang Perumahan Seroja No.1 Blok A, Manulai II, Kec. Alak, Kota Kupang, Nusa Tenggara Tim. 85238","Manulai II, Kec. Alak, Kota Kupang",NUSA TENGGARA TIMUR,85238.0,Indonesia,8113838020.0,,,-10.2088613,123.553338,https://maps.google.com/?cid=0x0:0x384a6c04bc9643d9,
cafe,cafe,Basement Cafe,"Jl. Tompello, Oetete, Kec. Oebobo, Kota Kupang, Nusa Tenggara Tim.","Kota Kupang, Nusa Tenggara Tim.",NUSA TENGGARA TIMUR,,Indonesia,,,,-10.164066,123.5855774,https://maps.google.com/?cid=0x0:0xd88abd2b3e7facd9,
cafe,Kedai Kopi,Coffee Break Cafe,"Jalan Sam Ratulangi No.5, Oesapa Barat, Kelapa Lima, Kupang City, East Nusa Tenggara 85228","Oesapa Barat, Kelapa Lima, Kupang City",NUSA TENGGARA TIMUR,85228.0,Indonesia,81238250250.0,,,-10.1534994,123.6327507,https://maps.google.com/?cid=0x0:0xad1ede6b802c126b,
cafe,Kafe,FN Cafe,"Goron Talo, Kec. Komodo, Kabupaten Manggarai Barat, Nusa Tenggara Tim.","Kabupaten Manggarai Barat, Nusa Tenggara Tim.",NUSA TENGGARA TIMUR,,Indonesia,81237431688.0,,,-8.5065476,119.8872469,https://maps.google.com/?cid=0x0:0xf326efd80ade5cf0,
cafe,Kafe,Dream Cafe,"Jl. Terusan Timor Raya, Klp. Lima, Kec. Klp. Lima, Kota Kupang, Nusa Tenggara Tim.","Kota Kupang, Nusa Tenggara Tim.",NUSA TENGGARA TIMUR,,Indonesia,82148494257.0,,,-10.1443509,123.6243137,https://maps.google.com/?cid=0x0:0x1fd99d051ba8eb37,
cafe,Perpustakaan Umum,Diskusi Kopi Isi Langa,"5XG7+HJM, Borani, Bajawa, Kabupaten Ngada, Nusa Tenggara Tim.","Kabupaten Ngada, Nusa Tenggara Tim.",NUSA TENGGARA TIMUR,,Indonesia,,,,-8.8235388,120.9640442,https://maps.google.com/?cid=0x0:0x258e8fffad76724a,
cafe,cafe,Sima Hotel Sumba,"Jl. Raja Yohanes Ngongo Bani, Weerena, Kec. Kota Tambolaka, Kabupaten Sumba Barat Daya, Nusa Tenggara Tim. 87261","Weerena, Kec. Kota Tambolaka, Kabupaten Sumba Barat Daya",NUSA TENGGARA TIMUR,87261.0,Indonesia,3872527411.0,,,-9.460902,119.2215221,https://maps.google.com/?cid=0x0:0x4237c4e0781d3bba,
cafe,Kantor Perusahaan,Rumah Budaya Sumba,"Jl. Rumah Budaya No.212, Kalembu Nga, bangga Weetebula, Kabupaten Sumba Barat Daya, Nusa Tenggara Tim.","Kabupaten Sumba Barat Daya, Nusa Tenggara Tim.",NUSA TENGGARA TIMUR,,Indonesia,,,,-9.4335489,119.214735,https://maps.google.com/?cid=0x0:0xc74dc666ea2888e8,
cafe,cafe,Sinar Tambolaka,"Hotel Sinar, Kalena Wano, Kec. Kota Tambolaka, Kabupaten Sumba Barat Daya, Nusa Tenggara Tim. 87255","Kalena Wano, Kec. Kota Tambolaka, Kabupaten Sumba Barat Daya",NUSA TENGGARA TIMUR,87255.0,Indonesia,3872524088.0,,,-9.4305675,119.2386103,https://maps.google.com/?cid=0x0:0xd1c8f3f36b22eaa1,
cafe,Warnet,Kodi,"8FPQ+544, Rumbuk, Kec. Sakra, Kabupaten Lombok Timur, Nusa Tenggara Bar. 83671","Rumbuk, Kec. Sakra, Kabupaten Lombok Timur",NUSA TENGGARA TIMUR,83671.0,Indonesia,82339490846.0,,,-8.6646072,116.4878346,https://maps.google.com/?cid=0x0:0xbad23addb91e9189,
cafe,Nasi,WARKOP SEDARI DULU,"GV3J+89W, Labuan Bajo, Kec. Komodo, Kabupaten Manggarai Barat, Nusa Tenggara Tim.","Kabupaten Manggarai Barat, Nusa Tenggara Tim.",NUSA TENGGARA TIMUR,,Indonesia,82339569724.0,,,-8.4966666,119.8809849,https://maps.google.com/?cid=0x0:0xc444019596d98cdd,
cafe,Kedai Kopi,Kedai kopi ( Dorm Artshop TiC Tours),"96HC+58X, Jl. Don Thomas, Kota Baru, Kec. Alok Tim., Kabupaten Sikka, Nusa Tenggara Tim.","Kabupaten Sikka, Nusa Tenggara Tim.",NUSA TENGGARA TIMUR,,Indonesia,,,,-8.6220222,122.2208714,https://maps.google.com/?cid=0x0:0x642e3688a1f92f65,
cafe,Restoran,Kedai Ci  Leu,"seberang RSIA Mitra Ananda, Jl. IR Juanda Jalan PLN Lama, Matawai, Kec. Kota Waingapu, Kabupaten Sumba Timur, Nusa Tenggara Tim. 87116","Jl. IR Juanda Jalan PLN Lama, Matawai, Kec. Kota Waingapu, Kabupaten Sumba Timur",NUSA TENGGARA TIMUR,87116.0,Indonesia,85174291404.0,,,-9.6469196,120.2606771,https://maps.google.com/?cid=0x0:0xc48eca264a1e59f2,
cafe,Kedai Kopi,Cafe Kitta,"Jl. Raya Kodau No.4, RT.004/RW.023, Jatimekar, Kec. Jatiasih, Kota Bks, Jawa Barat 17422","RT.004/RW.023, Jatimekar, Kec. Jatiasih, Kota Bks",NUSA TENGGARA TIMUR,17422.0,Indonesia,818694393.0,,,-6.2938259,106.9393787,https://maps.google.com/?cid=0x0:0x22a19c72016d6da5,
cafe,cafe,D’Vito Cafe,"Jl. Raja Yohanes Ngongo Bani, Wee Tobula, Kec. Kota Tambolaka, Kabupaten Sumba Barat Daya, Nusa Tenggara Tim.","Kabupaten Sumba Barat Daya, Nusa Tenggara Tim.",NUSA TENGGARA TIMUR,,Indonesia,85238410716.0,,,-9.4545564,119.2267233,https://maps.google.com/?cid=0x0:0x3ef99a42d8af4e7f,
cafe,Kafe,The Family Coffee  Resto,"jl. raya balaraja, kresek lembur leutik, leuweng Ds. Parahu, Kec. Sukamulya, Kec. Balaraja, Banten 15610","kresek lembur leutik, leuweng Ds. Parahu, Kec. Sukamulya, Kec. Balaraja",NUSA TENGGARA TIMUR,15610.0,Indonesia,81280803057.0,,,-6.1698685,106.434065,https://maps.google.com/?cid=0x0:0x8c013d9a7c631a5,
cafe,Restoran,D'S CAFE FAMILY  KITCHEN,"Jl. Tanah Baru, RT.04/RW.06, Waringin Jaya, Kecamatan Bojonggede, Kabupaten Bogor, Jawa Barat 19620","RT.04/RW.06, Waringin Jaya, Kecamatan Bojonggede, Kabupaten Bogor",NUSA TENGGARA TIMUR,19620.0,Indonesia,85134336191.0,,,-6.5146087,106.787064,https://maps.google.com/?cid=0x0:0x12ec6608b8af6164,
cafe,Kedai Kopi,KODI CAFE,"RUKO GRAND GALAXY PARK, Jl. Boulevard Raya RGB 35, Jaka Setia, Kec. Bekasi Sel., Kota Bks, Jawa Barat 17147","Jl. Boulevard Raya RGB 35, Jaka Setia, Kec. Bekasi Sel., Kota Bks",NUSA TENGGARA TIMUR,17147.0,Indonesia,85788047858.0,,,-6.2770861,106.9745161,https://maps.google.com/?cid=0x0:0x80e4ccbf056c3541,
cafe,Kedai Kopi,Kodi.kopidingin,"Perumahan Garden Ville Jl. Cisanggiri Timur Raya Blok E1/2A, RT.02/RW.10, Jatireja, Kec. Cikarang Tim., Kabupaten Bekasi, Jawa Barat 17821","RT.02/RW.10, Jatireja, Kec. Cikarang Tim., Kabupaten Bekasi",NUSA TENGGARA TIMUR,17821.0,Indonesia,81286862131.0,,,-6.2810922,107.1890205,https://maps.google.com/?cid=0x0:0x8358537b6e5e53c8,
cafe,Kedai Kopi,Kopi kodi ( resto  cafe ),"Jl. Bojong Raya No.1, Caringin, Kec. Bandung Kulon, Kota Bandung, Jawa Barat 40212","Caringin, Kec. Bandung Kulon, Kota Bandung",NUSA TENGGARA TIMUR,40212.0,Indonesia,82128676955.0,,,-6.9279799,107.5738688,https://maps.google.com/?cid=0x0:0x934fc30c23be54d6,
cafe,Kedai Kopi,Warung Kodi,"Jl. Artzimar III No.20a, RT.01/RW.09, Tegal Gundil, Kec. Bogor Utara, Kota Bogor, Jawa Barat 16152","RT.01/RW.09, Tegal Gundil, Kec. Bogor Utara, Kota Bogor",NUSA TENGGARA TIMUR,16152.0,Indonesia,85717885745.0,,,-6.5856421,106.8123416,https://maps.google.com/?cid=0x0:0x735b0fa56867cba5,
cafe,Kedai Kopi,Kodi Kopi Elok,"Jl. Perumahan Griya Waringin Elok No.10 Blok B 13, RT.002/RW.008, Waringin Jaya, Kecamatan Bojonggede, Kabupaten Bogor, Jawa Barat 16920","RT.002/RW.008, Waringin Jaya, Kecamatan Bojonggede, Kabupaten Bogor",NUSA TENGGARA TIMUR,16920.0,Indonesia,82111613045.0,,,-6.5062333,106.7866272,https://maps.google.com/?cid=0x0:0x8effe1263b42b3,
cafe,Restoran,Walla Ndimu,"92FR+7H4, Walla Ndimu, Kec. Kodi Bangedo, Kabupaten Sumba Barat Daya, Nusa Tenggara Tim.","Kabupaten Sumba Barat Daya, Nusa Tenggara Tim.",NUSA TENGGARA TIMUR,,Indonesia,,,,-9.6268547,119.0414561,https://maps.google.com/?cid=0x0:0xade073fb60f9641b,
cafe,Sarapan,Andalara,"92X4+R49, Dinjo, Kec. Kodi Bangedo, Kabupaten Sumba Barat Daya, Nusa Tenggara Tim.","Kabupaten Sumba Barat Daya, Nusa Tenggara Tim.",NUSA TENGGARA TIMUR,,Indonesia,,,,-9.6004567,119.005353,https://maps.google.com/?cid=0x0:0x899139e23e8a3da1,
cafe,cafe,PUSAT KESEHATAN HEWAN,"92FQ+HCG, Walla Ndimu, Kec. Kodi Bangedo, Kabupaten Sumba Barat Daya, Nusa Tenggara Tim.","Kabupaten Sumba Barat Daya, Nusa Tenggara Tim.",NUSA TENGGARA TIMUR,,Indonesia,,,,-9.6258956,119.0391374,https://maps.google.com/?cid=0x0:0xfb1ba6283505c5b9,
cafe,Area Mendaki,Domi Katoda,"933W+JPF, Wailangira, Kec. Kodi Bangedo, Kabupaten Sumba Barat Daya, Nusa Tenggara Tim.","Kabupaten Sumba Barat Daya, Nusa Tenggara Tim.",NUSA TENGGARA TIMUR,,Indonesia,,,,-9.6459477,119.0968104,https://maps.google.com/?cid=0x0:0xbeec0c58d9b4d95,
cafe,Kedai Kopi,Corner Coffee,"Pada Eweta, Kec. Kota Waikabubak, Kabupaten Sumba Barat, Nusa Tenggara Tim.","Kabupaten Sumba Barat, Nusa Tenggara Tim.",NUSA TENGGARA TIMUR,,Indonesia,81237206363.0,,,-9.6216078,119.3816711,https://maps.google.com/?cid=0x0:0x52e078dba4b712aa,
cafe,Toko bahan makanan,Almasih,"83Q2+G9, Panenggo Ede, Kec. Kodi Balaghar, Kabupaten Sumba Barat Daya, Nusa Tenggara Tim.","Kabupaten Sumba Barat Daya, Nusa Tenggara Tim.",NUSA TENGGARA TIMUR,,Indonesia,,,,-9.6611637,119.0509381,https://maps.google.com/?cid=0x0:0x1f64c63e2991a09,
cafe,Toko bahan makanan,Ana Maraka,"922W+8P9, Wai Ha, Kec. Kodi Bangedo, Kabupaten Sumba Barat Daya, Nusa Tenggara Tim.","Kabupaten Sumba Barat Daya, Nusa Tenggara Tim.",NUSA TENGGARA TIMUR,,Indonesia,81292759812.0,,,-9.6492075,119.0468531,https://maps.google.com/?cid=0x0:0x75b0eaa991d22283,
cafe,Kedai Kopi,Cafe KM. 6 Janji Bui,"99QC+287, Soba Wawi, Kec. Loli, Kabupaten Sumba Barat, Nusa Tenggara Tim.","Kabupaten Sumba Barat, Nusa Tenggara Tim.",NUSA TENGGARA TIMUR,,Indonesia,,,,-9.6124228,119.37122,https://maps.google.com/?cid=0x0:0xe41100e738332532,
cafe,cafe,Kec. Kodi Bangedo,"Kabupaten Sumba Barat Daya, Nusa Tenggara Tim.","Kabupaten Sumba Barat Daya, Nusa Tenggara Tim.",NUSA TENGGARA TIMUR,,Indonesia,,,,-9.6026813,119.0171447,https://maps.google.com/?cid=0x0:0x3bbfbd9e4fb43622,
cafe,Area Mendaki,Domi Katoda,"933W+JPF, Wailangira, Kec. Kodi Bangedo, Kabupaten Sumba Barat Daya, Nusa Tenggara Tim.","Kabupaten Sumba Barat Daya, Nusa Tenggara Tim.",NUSA TENGGARA TIMUR,,Indonesia,,,,-9.6459477,119.0968104,https://maps.google.com/?cid=0x0:0xbeec0c58d9b4d95,
cafe,Sarapan,Andalara,"92X4+R49, Dinjo, Kec. Kodi Bangedo, Kabupaten Sumba Barat Daya, Nusa Tenggara Tim.","Kabupaten Sumba Barat Daya, Nusa Tenggara Tim.",NUSA TENGGARA TIMUR,,Indonesia,,,,-9.6004567,119.005353,https://maps.google.com/?cid=0x0:0x899139e23e8a3da1,
cafe,Komplek perumahan,Gallu kalogho,"F248+47, Mali Iha, Kec. Kodi, Kabupaten Sumba Barat Daya, Nusa Tenggara Tim.","Kabupaten Sumba Barat Daya, Nusa Tenggara Tim.",NUSA TENGGARA TIMUR,,Indonesia,,,,-9.5446239,119.0157463,https://maps.google.com/?cid=0x0:0x6750a9b3212f5e45,
cafe,Dapur Umum,WARUNG ANAS,"9XXQ+QP4, Pero Batang, Kec. Kodi, Kabupaten Sumba Barat Daya, Nusa Tenggara Tim.","Kabupaten Sumba Barat Daya, Nusa Tenggara Tim.",NUSA TENGGARA TIMUR,,Indonesia,82328531008.0,,,-9.6006077,118.9893353,https://maps.google.com/?cid=0x0:0xdfb21fc07ab94d30,
cafe,,Warung Sabana Japa,"CX4V+MMW, Bondo Kodi, Kec. Kodi, Kabupaten Sumba Barat Daya, Nusa Tenggara Tim.","Kabupaten Sumba Barat Daya, Nusa Tenggara Tim.",NUSA TENGGARA TIMUR,,Indonesia,81339808233.0,,,-9.5936519,118.9940675,https://maps.google.com/?cid=0x0:0x23a9d76d081123b1,
cafe,Nasi,Rumah Makan Mulia Agung,"CX8W+559, Bondo Kodi, Kec. Kodi, Kabupaten Sumba Barat Daya, Nusa Tenggara Tim.","Kabupaten Sumba Barat Daya, Nusa Tenggara Tim.",NUSA TENGGARA TIMUR,,Indonesia,,,,-9.5845926,118.9955,https://maps.google.com/?cid=0x0:0xed4b9b27da82c1ef,
cafe,cafe,Pasar Delu Depa,"C3F4+7W6, Wai Kadada, Kec. Kodi Bangedo, Kabupaten Sumba Barat Daya, Nusa Tenggara Tim.","Kabupaten Sumba Barat Daya, Nusa Tenggara Tim.",NUSA TENGGARA TIMUR,,Indonesia,,,,-9.5768253,119.0572594,https://maps.google.com/?cid=0x0:0xb7032da47b1503c3,
cafe,Pelayanan Keamanan Jalan,Bironggo,"C25V+26, Wai Kadada, Kec. Kodi Bangedo, Kabupaten Sumba Barat Daya, Nusa Tenggara Tim.","Kabupaten Sumba Barat Daya, Nusa Tenggara Tim.",NUSA TENGGARA TIMUR,,Indonesia,,,,-9.59249,119.0430085,https://maps.google.com/?cid=0x0:0x2432b805b99eec34,
cafe,Toko bahan makanan,Ana Maraka,"922W+8P9, Wai Ha, Kec. Kodi Bangedo, Kabupaten Sumba Barat Daya, Nusa Tenggara Tim.","Kabupaten Sumba Barat Daya, Nusa Tenggara Tim.",NUSA TENGGARA TIMUR,,Indonesia,81292759812.0,,,-9.6492075,119.0468531,https://maps.google.com/?cid=0x0:0x75b0eaa991d22283,
cafe,Restoran,Elcafe Sumba,"Matawai, Kec. Kota Waingapu, Kabupaten Sumba Timur, Nusa Tenggara Tim.","Kabupaten Sumba Timur, Nusa Tenggara Tim.",NUSA TENGGARA TIMUR,,Indonesia,81238246474.0,,,-9.6541853,120.263791,https://maps.google.com/?cid=0x0:0xf8e772e0e7ecd0d1,
cafe,Komplek perumahan,Kampung pakopakomi,"Unnamed Road, Kapaka Madeta, Kec. Kodi, Kabupaten Sumba Barat Daya, Nusa Tenggara Tim.","Kabupaten Sumba Barat Daya, Nusa Tenggara Tim.",NUSA TENGGARA TIMUR,,Indonesia,82337724390.0,,,-9.5525449,119.0077487,https://maps.google.com/?cid=0x0:0x67b9a45f89946be6,
cafe,Dapur Umum,Bakso Mama FIQIH,"Unnamed Road, Pero Batang, Kec. Kodi, Kabupaten Sumba Barat Daya, Nusa Tenggara Tim.","Kabupaten Sumba Barat Daya, Nusa Tenggara Tim.",NUSA TENGGARA TIMUR,,Indonesia,81237426807.0,,,-9.5991385,118.9894424,https://maps.google.com/?cid=0x0:0x5f2a88609593974c,
cafe,cafe,Chymo kolam Ikan,"C39G+QX9, Mata Kapore, Kec. Kodi Bangedo, Kabupaten Sumba Barat Daya, Nusa Tenggara Tim.","Kabupaten Sumba Barat Daya, Nusa Tenggara Tim.",NUSA TENGGARA TIMUR,,Indonesia,,,,-9.5805993,119.0774841,https://maps.google.com/?cid=0x0:0x33ea852ab89d5833,
cafe,cafe,Warung Viginsa,"9XXQ+PJ5, Unnamed Road, Pero Batang, Kec. Kodi, Kabupaten Sumba Barat Daya, Nusa Tenggara Tim.","Kabupaten Sumba Barat Daya, Nusa Tenggara Tim.",NUSA TENGGARA TIMUR,,Indonesia,,,,-9.6007291,118.9891241,https://maps.google.com/?cid=0x0:0x65d0f0b32b5c406c,
cafe,cafe,D’Vito Cafe,"Jl. Raja Yohanes Ngongo Bani, Wee Tobula, Kec. Kota Tambolaka, Kabupaten Sumba Barat Daya, Nusa Tenggara Tim.","Kabupaten Sumba Barat Daya, Nusa Tenggara Tim.",NUSA TENGGARA TIMUR,,Indonesia,85238410716.0,,,-9.4545564,119.2267233,https://maps.google.com/?cid=0x0:0x3ef99a42d8af4e7f,
cafe,Kedai Kopi,Corner Coffee,"Pada Eweta, Kec. Kota Waikabubak, Kabupaten Sumba Barat, Nusa Tenggara Tim.","Kabupaten Sumba Barat, Nusa Tenggara Tim.",NUSA TENGGARA TIMUR,,Indonesia,81237206363.0,,,-9.6216078,119.3816711,https://maps.google.com/?cid=0x0:0x52e078dba4b712aa,
cafe,Restoran,Soemba Coffee  Resto Waikabubak,"Jl. Ahmad Yani No.119, Maliti, Kec. Kota Waikabubak, Kabupaten Sumba Barat, Nusa Tenggara Tim.","Kabupaten Sumba Barat, Nusa Tenggara Tim.",NUSA TENGGARA TIMUR,,Indonesia,82155665147.0,,,-9.638199,119.4078702,https://maps.google.com/?cid=0x0:0x7f6da285e14506ee,
cafe,Pasar Petani,Pasar Rakyat Waiha,"928V+2V2, Wai Ha, Kec. Kodi Bangedo, Kabupaten Sumba Barat Daya, Nusa Tenggara Tim.","Kabupaten Sumba Barat Daya, Nusa Tenggara Tim.",NUSA TENGGARA TIMUR,,Indonesia,,,,-9.634994,119.044643,https://maps.google.com/?cid=0x0:0xeba0f5a5b754b39b,
cafe,cafe,Bapa Cent,"92FP+VJJ, Umbu Ngedo, Kec. Kodi Bangedo, Kabupaten Sumba Barat Daya, Nusa Tenggara Tim.","Kabupaten Sumba Barat Daya, Nusa Tenggara Tim.",NUSA TENGGARA TIMUR,,Indonesia,,,,-9.6252974,119.0365047,https://maps.google.com/?cid=0x0:0x885516284981e2d,
cafe,Restoran,NINO Restaurant  Bar,"CWQM+6R2 Tim, Ate Dalo, Kec. Kodi, Kabupaten Sumba Barat Daya, Nusa Tenggara Tim. 87261","Ate Dalo, Kec. Kodi, Kabupaten Sumba Barat Daya",NUSA TENGGARA TIMUR,87261.0,Indonesia,81138314874.0,,,-9.5629526,118.9329508,https://maps.google.com/?cid=0x0:0x4dba78c8a942c092,
cafe,cafe,Kec. Kodi Utara,"Kabupaten Sumba Barat Daya, Nusa Tenggara Tim.","Kabupaten Sumba Barat Daya, Nusa Tenggara Tim.",NUSA TENGGARA TIMUR,,Indonesia,,,,-9.5201893,119.0312709,https://maps.google.com/?cid=0x0:0xc02655b0903b58a2,
cafe,Komplek perumahan,Gallu kalogho,"F248+47, Mali Iha, Kec. Kodi, Kabupaten Sumba Barat Daya, Nusa Tenggara Tim.","Kabupaten Sumba Barat Daya, Nusa Tenggara Tim.",NUSA TENGGARA TIMUR,,Indonesia,,,,-9.5446239,119.0157463,https://maps.google.com/?cid=0x0:0x6750a9b3212f5e45,
cafe,cafe,D’Vito Cafe,"Jl. Raja Yohanes Ngongo Bani, Wee Tobula, Kec. Kota Tambolaka, Kabupaten Sumba Barat Daya, Nusa Tenggara Tim.","Kabupaten Sumba Barat Daya, Nusa Tenggara Tim.",NUSA TENGGARA TIMUR,,Indonesia,85238410716.0,,,-9.4545564,119.2267233,https://maps.google.com/?cid=0x0:0x3ef99a42d8af4e7f,
cafe,Komplek perumahan,Kampung pakopakomi,"Unnamed Road, Kapaka Madeta, Kec. Kodi, Kabupaten Sumba Barat Daya, Nusa Tenggara Tim.","Kabupaten Sumba Barat Daya, Nusa Tenggara Tim.",NUSA TENGGARA TIMUR,,Indonesia,82337724390.0,,,-9.5525449,119.0077487,https://maps.google.com/?cid=0x0:0x67b9a45f89946be6,
cafe,Minimarket,Indomaret,"F2WP+PV5, Kori, Kec. Kodi Utara, Kabupaten Sumba Barat Daya, Nusa Tenggara Tim.","Kabupaten Sumba Barat Daya, Nusa Tenggara Tim.",NUSA TENGGARA TIMUR,,Indonesia,,,,-9.503255,119.037196,https://maps.google.com/?cid=0x0:0xee828d5f40d0dde8,
cafe,Kedai Kopi,Cafe Kitta,"Jl. Raya Kodau No.4, RT.004/RW.023, Jatimekar, Kec. Jatiasih, Kota Bks, Jawa Barat 17422","RT.004/RW.023, Jatimekar, Kec. Jatiasih, Kota Bks",NUSA TENGGARA TIMUR,17422.0,Indonesia,818694393.0,,,-6.2938259,106.9393787,https://maps.google.com/?cid=0x0:0x22a19c72016d6da5,
cafe,cafe,Kec. Kota Tambolaka,"Kabupaten Sumba Barat Daya, Nusa Tenggara Tim.","Kabupaten Sumba Barat Daya, Nusa Tenggara Tim.",NUSA TENGGARA TIMUR,,Indonesia,,,,-9.4295733,119.2387484,https://maps.google.com/?cid=0x0:0x9f73216af1e7222b,
cafe,Kedai Kopi,Restory Café Sumba,"Jl. Lede Kalumbang, Kalena Wano, Kec. Kota Tambolaka, Kabupaten Sumba Barat Daya, Nusa Tenggara Tim. 87254","Kalena Wano, Kec. Kota Tambolaka, Kabupaten Sumba Barat Daya",NUSA TENGGARA TIMUR,87254.0,Indonesia,87873465372.0,,,-9.4240244,119.248521,https://maps.google.com/?cid=0x0:0xd652636c2d64adcf,
cafe,Restoran,Sirkey Resto,"Jalan Sudirman, Radamata, Kec. Kota Tambolaka, Kabupaten Sumba Barat Daya, Nusa Tenggara Tim.","Kabupaten Sumba Barat Daya, Nusa Tenggara Tim.",NUSA TENGGARA TIMUR,,Indonesia,85333077007.0,,,-9.4296618,119.2383019,https://maps.google.com/?cid=0x0:0xaff317bab9d61459,
cafe,Restoran,Nyantai Doeloe,"H6CR+F5, Kalena Wano, Kec. Kota Tambolaka, Kabupaten Sumba Barat Daya, Nusa Tenggara Tim.","Kabupaten Sumba Barat Daya, Nusa Tenggara Tim.",NUSA TENGGARA TIMUR,,Indonesia,81338981345.0,,,-9.4285495,119.2402801,https://maps.google.com/?cid=0x0:0xb1581d0afc92ad8d,
cafe,Padang,RICHARD CAFE  CATERING,"Jl. Uranus, Wee Tobula, Kec. Kota Tambolaka, Kabupaten Sumba Barat Daya, Nusa Tenggara Tim. 87255","Wee Tobula, Kec. Kota Tambolaka, Kabupaten Sumba Barat Daya",NUSA TENGGARA TIMUR,87255.0,Indonesia,82243888776.0,,,-9.4442036,119.2336287,https://maps.google.com/?cid=0x0:0x910f48e62840b359,
cafe,Komplek perumahan,Talasi Estate at Weetabula Sumba,"Jl. Rumah Budaya Waitabula No.218, Wee Londa, Kec. Kota Tambolaka, Kabupaten Sumba Barat Daya, Nusa Tenggara Tim. 87255","Wee Londa, Kec. Kota Tambolaka, Kabupaten Sumba Barat Daya",NUSA TENGGARA TIMUR,87255.0,Indonesia,82213334004.0,,,-9.431134,119.2158301,https://maps.google.com/?cid=0x0:0x437412f756e9179f,
cafe,Kedai Kopi,Cafein Sumba,"Depan SMK Pancasila Tambolaka, Jl. Cendana, Radamata, Kec. Kota Tambolaka, Nusa Tenggara Tim. 87255","Jl. Cendana, Radamata, Kec. Kota Tambolaka",NUSA TENGGARA TIMUR,87255.0,Indonesia,82144525903.0,,,-9.4250161,119.2444685,https://maps.google.com/?cid=0x0:0x91c08451b7ebeb5d,
cafe,Restoran,Sofer Cafe Sumba,"Radamata, Kec. Kota Tambolaka, Kabupaten Sumba Barat Daya, Nusa Tenggara Tim.","Kabupaten Sumba Barat Daya, Nusa Tenggara Tim.",NUSA TENGGARA TIMUR,,Indonesia,,,,-9.4123353,119.2449463,https://maps.google.com/?cid=0x0:0x20c497219de9f45f,
cafe,cafe,D’Vito Cafe,"Jl. Raja Yohanes Ngongo Bani, Wee Tobula, Kec. Kota Tambolaka, Kabupaten Sumba Barat Daya, Nusa Tenggara Tim.","Kabupaten Sumba Barat Daya, Nusa Tenggara Tim.",NUSA TENGGARA TIMUR,,Indonesia,85238410716.0,,,-9.4545564,119.2267233,https://maps.google.com/?cid=0x0:0x3ef99a42d8af4e7f,
cafe,Kedai Kopi,Kedai Peduli Sumba,"Wee Londa, Kec. Kota Tambolaka, Kabupaten Sumba Barat Daya, Nusa Tenggara Tim.","Kabupaten Sumba Barat Daya, Nusa Tenggara Tim.",NUSA TENGGARA TIMUR,,Indonesia,81239712100.0,,,-9.4378519,119.2109634,https://maps.google.com/?cid=0x0:0x70159de9392b1fa9,
cafe,Restoran,HF Resto  Boutique,"Jl. Kenari No.88, Radamata, Kec. Kota Tambolaka, Kabupaten Sumba Barat Daya, Nusa Tenggara Tim.","Kabupaten Sumba Barat Daya, Nusa Tenggara Tim.",NUSA TENGGARA TIMUR,,Indonesia,82143538789.0,,,-9.4160077,119.2408536,https://maps.google.com/?cid=0x0:0xd45aeb2593645658,
cafe,Kafe,Resto  Cafe - Dr. NT,"H6CQ+GW2, Radamata, Kec. Loura, Kabupaten Sumba Barat Daya, Nusa Tenggara Tim.","Kabupaten Sumba Barat Daya, Nusa Tenggara Tim.",NUSA TENGGARA TIMUR,,Indonesia,81238916090.0,,,-9.4287466,119.2397686,https://maps.google.com/?cid=0x0:0xa088b2115852bf7a,
cafe,Kedai Kopi,Key Coffee,"Jl. Kemuning, puu uppo, Kec. Kota Tambolaka, Kabupaten Sumba Barat Daya, Nusa Tenggara Tim. 87255","puu uppo, Kec. Kota Tambolaka, Kabupaten Sumba Barat Daya",NUSA TENGGARA TIMUR,87255.0,Indonesia,81339724570.0,,,-9.4268285,119.2527659,https://maps.google.com/?cid=0x0:0xc5192b1d36e683d1,
cafe,Restoran,WARUNG GULA GARAM,"Jl. Soeharto No.18, Radamata, Kec. Kota Tambolaka, Kabupaten Sumba Barat Daya, Nusa Tenggara Tim.","Kabupaten Sumba Barat Daya, Nusa Tenggara Tim.",NUSA TENGGARA TIMUR,,Indonesia,3872524019.0,,,-9.4230396,119.2455498,https://maps.google.com/?cid=0x0:0x695421ad0206e3f6,
cafe,Tujuan Wisata,Kawona Beach Club,"J5FW+J72 Kadul dekat kantor bupati, Kadi Pada, Kec. Kota Tambolaka, Kabupaten Sumba Barat Daya, Nusa Tenggara Tim.","Kabupaten Sumba Barat Daya, Nusa Tenggara Tim.",NUSA TENGGARA TIMUR,,Indonesia,81236279457.0,,,-9.3759869,119.1956379,https://maps.google.com/?cid=0x0:0x5fc0ca10313836ce,
cafe,Kedai Kopi,Roots Culture,"H6FV+VJH, Jl. Cendana, Radamata, Kec. Kota Tambolaka, Kabupaten Sumba Barat Daya, Nusa Tenggara Tim.","Kabupaten Sumba Barat Daya, Nusa Tenggara Tim.",NUSA TENGGARA TIMUR,,Indonesia,82247163334.0,,,-9.425045,119.244493,https://maps.google.com/?cid=0x0:0x18f7eb424e71e31a,
cafe,Restoran,"Queen,s Cafe  angkringan","Ledegiring, Jl transumba, Kec. Kota Tambolaka, Nusa Tenggara Tim. 87272","Jl transumba, Kec. Kota Tambolaka",NUSA TENGGARA TIMUR,87272.0,Indonesia,81246880650.0,,,-9.4223206,119.2329871,https://maps.google.com/?cid=0x0:0x32c4ca2d7b68d536,
cafe,Kedai Kopi,Kedai Kopi B'EM,"Radamata, Kec. Kota Tambolaka, Kabupaten Sumba Barat Daya, Nusa Tenggara Tim.","Kabupaten Sumba Barat Daya, Nusa Tenggara Tim.",NUSA TENGGARA TIMUR,,Indonesia,82199693378.0,,,-9.4270579,119.2397812,https://maps.google.com/?cid=0x0:0xaf9a7a0da95cf2ac,
cafe,Kedai Kopi,warung kopi,"Karuni, Kec. Kota Tambolaka, Kabupaten Sumba Barat Daya, Nusa Tenggara Tim. 87255","Kec. Kota Tambolaka, Kabupaten Sumba Barat Daya",NUSA TENGGARA TIMUR,87255.0,Indonesia,,,,-9.4295733,119.2387484,https://maps.google.com/?cid=0x0:0x5f3e3cbb02ed693c,
cafe,Kedai Kopi,Mahir Kopi,"H7W3+6V4, Jalan Kolping, loura, pogotena, Radamata, Kec. Kota Tambolaka, Kabupaten Sumba Barat Daya, Nusa Tenggara Tim.","Kabupaten Sumba Barat Daya, Nusa Tenggara Tim.",NUSA TENGGARA TIMUR,,Indonesia,81359736693.0,,,-9.4044862,119.2546878,https://maps.google.com/?cid=0x0:0x20850effe508e160,
cafe,Kafe,Mata Rammu Cafe,"Lapangan Galatama, Jl. Cendana, Radamata, Kec. Kota Tambolaka, Kabupaten Sumba Barat Daya, Nusa Tenggara Tim. 87255","Jl. Cendana, Radamata, Kec. Kota Tambolaka, Kabupaten Sumba Barat Daya",NUSA TENGGARA TIMUR,87255.0,Indonesia,81946151662.0,,,-9.4251837,119.2445931,https://maps.google.com/?cid=0x0:0xd83feb112bdb76ac,
cafe,Kafe,Jln. Paris,"H65J+X77, Langga Lero, Kec. Kota Tambolaka, Kabupaten Sumba Barat Daya, Nusa Tenggara Tim.","Kabupaten Sumba Barat Daya, Nusa Tenggara Tim.",NUSA TENGGARA TIMUR,,Indonesia,,,,-9.4403454,119.2306169,https://maps.google.com/?cid=0x0:0x4194a3dd0bd97f18,
cafe,Kafe,Resto  Cafe - Dr. NT,"H6CQ+GW2, Radamata, Kec. Loura, Kabupaten Sumba Barat Daya, Nusa Tenggara Tim.","Kabupaten Sumba Barat Daya, Nusa Tenggara Tim.",NUSA TENGGARA TIMUR,,Indonesia,81238916090.0,,,-9.4287466,119.2397686,https://maps.google.com/?cid=0x0:0xa088b2115852bf7a,
cafe,Kedai Kopi,Luma Cafe  Eatery by Stela Project,"RUKO ELITE, BLOK 3B, Jl. Ki Hajar Dewantara No.62 Lantai 1, RW.63, KOTA JABABEKA, Kec. Cikarang Utara, Kabupaten Bekasi, Jawa Barat 17530","BLOK 3B, Jl. Ki Hajar Dewantara No.62 Lantai 1, RW.63, KOTA JABABEKA, Kec. Cikarang Utara, Kabupaten Bekasi",NUSA TENGGARA TIMUR,17530.0,Indonesia,,,,-6.2825106,107.1683761,https://maps.google.com/?cid=0x0:0xd887a26240f81b1c,
cafe,Restoran,Ro'o Luwa,"H664+4J5, Jl. Lukas Dairo Bili, Wee Londa, Kec. Loura, Kabupaten Sumba Barat Daya, Nusa Tenggara Tim.","Kabupaten Sumba Barat Daya, Nusa Tenggara Tim.",NUSA TENGGARA TIMUR,,Indonesia,82145441081.0,,,-9.4397402,119.2066122,https://maps.google.com/?cid=0x0:0xabd524235b9d5344,
cafe,Kedai Kopi,Restory Café Sumba,"Jl. Lede Kalumbang, Kalena Wano, Kec. Kota Tambolaka, Kabupaten Sumba Barat Daya, Nusa Tenggara Tim. 87254","Kalena Wano, Kec. Kota Tambolaka, Kabupaten Sumba Barat Daya",NUSA TENGGARA TIMUR,87254.0,Indonesia,87873465372.0,,,-9.4240244,119.248521,https://maps.google.com/?cid=0x0:0xd652636c2d64adcf,
cafe,Restoran,Sofer Cafe Sumba,"Radamata, Kec. Kota Tambolaka, Kabupaten Sumba Barat Daya, Nusa Tenggara Tim.","Kabupaten Sumba Barat Daya, Nusa Tenggara Tim.",NUSA TENGGARA TIMUR,,Indonesia,,,,-9.4123353,119.2449463,https://maps.google.com/?cid=0x0:0x20c497219de9f45f,
cafe,Restoran,Nyantai Doeloe,"H6CR+F5, Kalena Wano, Kec. Kota Tambolaka, Kabupaten Sumba Barat Daya, Nusa Tenggara Tim.","Kabupaten Sumba Barat Daya, Nusa Tenggara Tim.",NUSA TENGGARA TIMUR,,Indonesia,81338981345.0,,,-9.4285495,119.2402801,https://maps.google.com/?cid=0x0:0xb1581d0afc92ad8d,
cafe,Kedai Kopi,Mahir Kopi,"H7W3+6V4, Jalan Kolping, loura, pogotena, Radamata, Kec. Kota Tambolaka, Kabupaten Sumba Barat Daya, Nusa Tenggara Tim.","Kabupaten Sumba Barat Daya, Nusa Tenggara Tim.",NUSA TENGGARA TIMUR,,Indonesia,81359736693.0,,,-9.4044862,119.2546878,https://maps.google.com/?cid=0x0:0x20850effe508e160,
cafe,Kafe,TRIPLE STAR CAFE  BAKERY SBD,"H6GQ+6QM, Jl. Manera, Radamata, Kec. Loura, Kabupaten Sumba Barat Daya, Nusa Tenggara Tim.","Kabupaten Sumba Barat Daya, Nusa Tenggara Tim.",NUSA TENGGARA TIMUR,,Indonesia,,,,-9.4244201,119.2394196,https://maps.google.com/?cid=0x0:0xf7cd3e65df4789ed,
cafe,Kedai Kopi,Cafe Talasi SBD,"H687+PW, Wee Londa, Kec. Kota Tambolaka, Kabupaten Sumba Barat Daya, Nusa Tenggara Tim.","Kabupaten Sumba Barat Daya, Nusa Tenggara Tim.",NUSA TENGGARA TIMUR,,Indonesia,,,,-9.432744,119.2148888,https://maps.google.com/?cid=0x0:0xf3aaf20a1aa2d25d,
cafe,Kedai Kopi,Cafe masa kini,"J8CW+6F, Lete Konda, Kec. Loura, Kabupaten Sumba Barat Daya, Nusa Tenggara Tim.","Kabupaten Sumba Barat Daya, Nusa Tenggara Tim.",NUSA TENGGARA TIMUR,,Indonesia,82174434777.0,,,-9.379495,119.346249,https://maps.google.com/?cid=0x0:0xca2bfe6d149e2393,
cafe,Restoran,Dapur Sumba,"Radamata, Kec. Loura, Kabupaten Sumba Barat Daya, Nusa Tenggara Tim. 87254","Kec. Loura, Kabupaten Sumba Barat Daya",NUSA TENGGARA TIMUR,87254.0,Indonesia,81353315055.0,,,-9.4167954,119.245971,https://maps.google.com/?cid=0x0:0xb774a37a3fc0df4d,
cafe,Kedai Kopi,Kedai Peduli Sumba,"Wee Londa, Kec. Kota Tambolaka, Kabupaten Sumba Barat Daya, Nusa Tenggara Tim.","Kabupaten Sumba Barat Daya, Nusa Tenggara Tim.",NUSA TENGGARA TIMUR,,Indonesia,81239712100.0,,,-9.4378519,119.2109634,https://maps.google.com/?cid=0x0:0x70159de9392b1fa9,
cafe,Makanan Siap Saji,Warung Padang,"H6GM+CMR, Jl. Yos Sudarso, Radamata, Kec. Loura, Kabupaten Sumba Barat Daya, Nusa Tenggara Tim.","Kabupaten Sumba Barat Daya, Nusa Tenggara Tim.",NUSA TENGGARA TIMUR,,Indonesia,,,,-9.4238903,119.2341541,https://maps.google.com/?cid=0x0:0xac11e057ad76e76a,
cafe,Restoran,Makan Dulu Restaurant by the Sumba Hospitality Foundation,"Kalena Wano, Kec. Loura, Kabupaten Sumba Barat Daya, Nusa Tenggara Tim.","Kabupaten Sumba Barat Daya, Nusa Tenggara Tim.",NUSA TENGGARA TIMUR,,Indonesia,81239230989.0,,,-9.4318327,119.2450173,https://maps.google.com/?cid=0x0:0xfc3caaac08694be,
cafe,Restoran,Sirkey Resto,"Jalan Sudirman, Radamata, Kec. Kota Tambolaka, Kabupaten Sumba Barat Daya, Nusa Tenggara Tim.","Kabupaten Sumba Barat Daya, Nusa Tenggara Tim.",NUSA TENGGARA TIMUR,,Indonesia,85333077007.0,,,-9.4296618,119.2383019,https://maps.google.com/?cid=0x0:0xaff317bab9d61459,
cafe,Rumah Makan,Warung Sekar Jawi,"H67M+828, Langga Lero, Kec. Loura, Kabupaten Sumba Barat Daya, Nusa Tenggara Tim.","Kabupaten Sumba Barat Daya, Nusa Tenggara Tim.",NUSA TENGGARA TIMUR,,Indonesia,,,,-9.4367112,119.2325935,https://maps.google.com/?cid=0x0:0x828293bbed38cddc,
cafe,Kantor Perusahaan,Pesona Laut,"H6FP+3PH, Jl. Yos Sudarso, Radamata, Kec. Loura, Kabupaten Sumba Barat Daya, Nusa Tenggara Tim.","Kabupaten Sumba Barat Daya, Nusa Tenggara Tim.",NUSA TENGGARA TIMUR,,Indonesia,,,,-9.427323,119.2368749,https://maps.google.com/?cid=0x0:0xa9ce4c27cb5cc7b0,
cafe,Toko Roti,Puan Malo,"H765+P27, Wee Pangali, Kec. Loura, Kabupaten Sumba Barat Daya, Nusa Tenggara Tim.","Kabupaten Sumba Barat Daya, Nusa Tenggara Tim.",NUSA TENGGARA TIMUR,,Indonesia,,,,-9.4382022,119.2575483,https://maps.google.com/?cid=0x0:0x219f35d9dee2cfda,
cafe,Restoran,Depot Asri Lamongan,"H68M+8F5, Langga Lero, Kec. Loura, Kabupaten Sumba Barat Daya, Nusa Tenggara Tim.","Kabupaten Sumba Barat Daya, Nusa Tenggara Tim.",NUSA TENGGARA TIMUR,,Indonesia,,,,-9.4342446,119.2337403,https://maps.google.com/?cid=0x0:0x9ea22ff88a75412d,
cafe,Restoran,HF Resto  Boutique,"Jl. Kenari No.88, Radamata, Kec. Kota Tambolaka, Kabupaten Sumba Barat Daya, Nusa Tenggara Tim.","Kabupaten Sumba Barat Daya, Nusa Tenggara Tim.",NUSA TENGGARA TIMUR,,Indonesia,82143538789.0,,,-9.4160077,119.2408536,https://maps.google.com/?cid=0x0:0xd45aeb2593645658,
cafe,Rumah Makan,Rumah Makan Aneka Rasa,"H69M+5HC, Langga Lero, Kec. Loura, Kabupaten Sumba Barat Daya, Nusa Tenggara Tim.","Kabupaten Sumba Barat Daya, Nusa Tenggara Tim.",NUSA TENGGARA TIMUR,,Indonesia,82145877031.0,,,-9.4320597,119.2338848,https://maps.google.com/?cid=0x0:0x8e352f29135df742,
cafe,cafe,Nusa Tenggara Tim. 87253,"Raba Engge, Kec. Wewewa Bar., Kabupaten Sumba Barat Daya, Nusa Tenggara Tim.","Kabupaten Sumba Barat Daya, Nusa Tenggara Tim.",NUSA TENGGARA TIMUR,,Indonesia,,,,-9.5600081,119.2279835,https://maps.google.com/?cid=0x0:0x408cc62c8b3addfc,
cafe,Kedai Kopi,FA Cafe,"Jl. Bhayangkara, Pada Eweta, Kec. Kota Waikabubak, Kabupaten Sumba Barat, Nusa Tenggara Tim.","Kabupaten Sumba Barat, Nusa Tenggara Tim.",NUSA TENGGARA TIMUR,,Indonesia,81246407572.0,,,-9.6255981,119.4033559,https://maps.google.com/?cid=0x0:0x36d8618b19f55c66,
cafe,Kafe,Resto  Cafe - Dr. NT,"H6CQ+GW2, Radamata, Kec. Loura, Kabupaten Sumba Barat Daya, Nusa Tenggara Tim.","Kabupaten Sumba Barat Daya, Nusa Tenggara Tim.",NUSA TENGGARA TIMUR,,Indonesia,81238916090.0,,,-9.4287466,119.2397686,https://maps.google.com/?cid=0x0:0xa088b2115852bf7a,
cafe,Restoran,Cafe Foodie  Art Shop,"Jl. Bhayangkara No.km 2, Pada Eweta, Kec. Kota Waikabubak, Kabupaten Sumba Barat, Nusa Tenggara Tim.","Kabupaten Sumba Barat, Nusa Tenggara Tim.",NUSA TENGGARA TIMUR,,Indonesia,82144760812.0,,,-9.6252721,119.4032057,https://maps.google.com/?cid=0x0:0xc3fbf0943bb2d894,
cafe,cafe,BINTANG KOPI,"F6XG+5GJ, Jl. W.R. Supratman, Waimangura, Kec. Wewewa Bar., Kabupaten Sumba Barat Daya, Nusa Tenggara Tim.","Kabupaten Sumba Barat Daya, Nusa Tenggara Tim.",NUSA TENGGARA TIMUR,,Indonesia,,,,-9.5020263,119.2262504,https://maps.google.com/?cid=0x0:0x65e3d10aaecd006f,
cafe,Restoran,Sirkey Resto,"Jalan Sudirman, Radamata, Kec. Kota Tambolaka, Kabupaten Sumba Barat Daya, Nusa Tenggara Tim.","Kabupaten Sumba Barat Daya, Nusa Tenggara Tim.",NUSA TENGGARA TIMUR,,Indonesia,85333077007.0,,,-9.4296618,119.2383019,https://maps.google.com/?cid=0x0:0xaff317bab9d61459,
cafe,Restoran,Soemba Coffee  Resto Waikabubak,"Jl. Ahmad Yani No.119, Maliti, Kec. Kota Waikabubak, Kabupaten Sumba Barat, Nusa Tenggara Tim.","Kabupaten Sumba Barat, Nusa Tenggara Tim.",NUSA TENGGARA TIMUR,,Indonesia,82155665147.0,,,-9.638199,119.4078702,https://maps.google.com/?cid=0x0:0x7f6da285e14506ee,
cafe,cafe,,,,NUSA TENGGARA TIMUR,,Indonesia,,,,,,https://maps.google.com/?cid=0x0:0x7f6da285e14506eeu0026onu003dNasi+Ayam+Betutu+Dengan+Sambal+Matahu0026midu003d/g/11nghkwd5g,
cafe,Restoran,D'Sumba Ate,"Jl. Ahmad Yani No.148 A, Wailiang, Kec. Kota Waikabubak, Kabupaten Sumba Barat, Nusa Tenggara Tim. 87211","Wailiang, Kec. Kota Waikabubak, Kabupaten Sumba Barat",NUSA TENGGARA TIMUR,87211.0,Indonesia,82146325612.0,,,-9.6428236,119.4082311,https://maps.google.com/?cid=0x0:0xb13af0eefc64bd7d,
cafe,cafe,,,,NUSA TENGGARA TIMUR,,Indonesia,,,,,,https://maps.google.com/?cid=0x0:0x7f6da285e14506eeu0026onu003dNasi+Sate+Lilit+Dan+Corn+Dogu0026midu003d/g/11nghkwd5g,
cafe,cafe,,,,NUSA TENGGARA TIMUR,,Indonesia,,,,,,https://maps.google.com/?cid=0x0:0x7f6da285e14506eeu0026onu003dMantab+Coffee+Nyau0026midu003d/g/11nghkwd5g,
cafe,cafe,,,,NUSA TENGGARA TIMUR,,Indonesia,,,,,,https://maps.google.com/?cid=0x0:0x7f6da285e14506eeu0026onu003dCirengu0026midu003d/g/11nghkwd5g,
cafe,cafe,,,,NUSA TENGGARA TIMUR,,Indonesia,,,,,,https://maps.google.com/?cid=0x0:0x7f6da285e14506eeu0026onu003dKangkung+Crispyu0026midu003d/g/11nghkwd5g,
cafe,cafe,,,,NUSA TENGGARA TIMUR,,Indonesia,,,,,,https://maps.google.com/?cid=0x0:0x7f6da285e14506eeu0026onu003dLeci+Teau0026midu003d/g/11nghkwd5g,
cafe,cafe,,,,NUSA TENGGARA TIMUR,,Indonesia,,,,,,https://maps.google.com/?cid=0x0:0x7f6da285e14506eeu0026onu003dChicken+Katsu+Curry+Danu0026midu003d/g/11nghkwd5g,
cafe,cafe,,,,NUSA TENGGARA TIMUR,,Indonesia,,,,,,https://maps.google.com/?cid=0x0:0x7f6da285e14506eeu0026onu003dSpaghetti+Carbonarau0026midu003d/g/11nghkwd5g,
cafe,cafe,,,,NUSA TENGGARA TIMUR,,Indonesia,,,,,,https://maps.google.com/?cid=0x0:0x7f6da285e14506eeu0026onu003dPizzau0026midu003d/g/11nghkwd5g,
cafe,cafe,,,,NUSA TENGGARA TIMUR,,Indonesia,,,,,,https://maps.google.com/?cid=0x0:0x7f6da285e14506eeu0026onu003dHot+Chocolateu0026midu003d/g/11nghkwd5g,
cafe,cafe,,,,NUSA TENGGARA TIMUR,,Indonesia,,,,,,https://maps.google.com/?cid=0x0:0x7f6da285e14506eeu0026onu003dAyam+Taliwangu0026midu003d/g/11nghkwd5g,
cafe,cafe,,,,NUSA TENGGARA TIMUR,,Indonesia,,,,,,https://maps.google.com/?cid=0x0:0x7f6da285e14506eeu0026onu003dBeef+Steaku0026midu003d/g/11nghkwd5g,
cafe,cafe,,,,NUSA TENGGARA TIMUR,,Indonesia,,,,,,https://maps.google.com/?cid=0x0:0x7f6da285e14506eeu0026onu003dMatah+Donburi+Beef+with+Riceu0026midu003d/g/11nghkwd5g,
cafe,cafe,,,,NUSA TENGGARA TIMUR,,Indonesia,,,,,,https://maps.google.com/?cid=0x0:0x7f6da285e14506eeu0026onu003dNasi+Goreng+Sumbau0026midu003d/g/11nghkwd5g,
cafe,cafe,,,,NUSA TENGGARA TIMUR,,Indonesia,,,,,,https://maps.google.com/?cid=0x0:0x7f6da285e14506eeu0026onu003dRice+Bowl+Chicken+Katsuu0026midu003d/g/11nghkwd5g,
cafe,cafe,,,,NUSA TENGGARA TIMUR,,Indonesia,,,,,,https://maps.google.com/?cid=0x0:0x7f6da285e14506eeu0026onu003dChurrosu0026midu003d/g/11nghkwd5g,
cafe,cafe,,,,NUSA TENGGARA TIMUR,,Indonesia,,,,,,https://maps.google.com/?cid=0x0:0x7f6da285e14506eeu0026onu003dAmricano+Coffeeu0026midu003d/g/11nghkwd5g,
cafe,cafe,,,,NUSA TENGGARA TIMUR,,Indonesia,,,,,,https://maps.google.com/?cid=0x0:0x7f6da285e14506eeu0026onu003dCoffee+Latteu0026midu003d/g/11nghkwd5g,
cafe,cafe,,,,NUSA TENGGARA TIMUR,,Indonesia,,,,,,https://maps.google.com/?cid=0x0:0x7f6da285e14506eeu0026onu003dChicken+Wings+BBQu0026midu003d/g/11nghkwd5g,
cafe,cafe,,,,NUSA TENGGARA TIMUR,,Indonesia,,,,,,https://maps.google.com/?cid=0x0:0x7f6da285e14506eeu0026onu003dChurossu0026midu003d/g/11nghkwd5g,
cafe,cafe,Kec. Wewewa Sel.,"Kabupaten Sumba Barat Daya, Nusa Tenggara Tim.","Kabupaten Sumba Barat Daya, Nusa Tenggara Tim.",NUSA TENGGARA TIMUR,,Indonesia,,,,-9.5674808,119.2200814,https://maps.google.com/?cid=0x0:0x5dc8281eeb398606,
cafe,Restoran,Elcafe Sumba,"Matawai, Kec. Kota Waingapu, Kabupaten Sumba Timur, Nusa Tenggara Tim.","Kabupaten Sumba Timur, Nusa Tenggara Tim.",NUSA TENGGARA TIMUR,,Indonesia,81238246474.0,,,-9.6541853,120.263791,https://maps.google.com/?cid=0x0:0xf8e772e0e7ecd0d1,
cafe,Restoran,Soemba Coffee  Resto Waikabubak,"Jl. Ahmad Yani No.119, Maliti, Kec. Kota Waikabubak, Kabupaten Sumba Barat, Nusa Tenggara Tim.","Kabupaten Sumba Barat, Nusa Tenggara Tim.",NUSA TENGGARA TIMUR,,Indonesia,82155665147.0,,,-9.638199,119.4078702,https://maps.google.com/?cid=0x0:0x7f6da285e14506ee,
cafe,Restoran,Sirkey Resto,"Jalan Sudirman, Radamata, Kec. Kota Tambolaka, Kabupaten Sumba Barat Daya, Nusa Tenggara Tim.","Kabupaten Sumba Barat Daya, Nusa Tenggara Tim.",NUSA TENGGARA TIMUR,,Indonesia,85333077007.0,,,-9.4296618,119.2383019,https://maps.google.com/?cid=0x0:0xaff317bab9d61459,
cafe,Bakso,Warung Bakso Maliti,"C8G9+MVV, Kalembu Ndara Mane, Kec. Wewewa Tim., Kabupaten Sumba Barat Daya, Nusa Tenggara Tim.","Kabupaten Sumba Barat Daya, Nusa Tenggara Tim.",NUSA TENGGARA TIMUR,,Indonesia,85253675659.0,,,-9.5732664,119.3196814,https://maps.google.com/?cid=0x0:0xa81e0a65716b1d38,
cafe,Restoran,Cafe Foodie  Art Shop,"Jl. Bhayangkara No.km 2, Pada Eweta, Kec. Kota Waikabubak, Kabupaten Sumba Barat, Nusa Tenggara Tim.","Kabupaten Sumba Barat, Nusa Tenggara Tim.",NUSA TENGGARA TIMUR,,Indonesia,82144760812.0,,,-9.6252721,119.4032057,https://maps.google.com/?cid=0x0:0xc3fbf0943bb2d894,
cafe,Restoran,Soemba Cafe  Resto Waingapu,"Jl. Palapa No.26, Matawai, Kec. Kota Waingapu, Kabupaten Sumba Timur, Nusa Tenggara Tim.","Kabupaten Sumba Timur, Nusa Tenggara Tim.",NUSA TENGGARA TIMUR,,Indonesia,,,,-9.6550916,120.2621121,https://maps.google.com/?cid=0x0:0x7893904088bca5e3,
cafe,Bakso,Warung Bakso Sarinah,"C8M8+4GP, Unnamed Road, Kalembu Ndara Mane, Kec. Wewewa Tim., Kabupaten Sumba Barat Daya, Nusa Tenggara Tim.","Kabupaten Sumba Barat Daya, Nusa Tenggara Tim.",NUSA TENGGARA TIMUR,,Indonesia,85343948926.0,,,-9.5671719,119.3163253,https://maps.google.com/?cid=0x0:0x6a1031832dec9781,
cafe,Restoran,Ro'o Luwa,"H664+4J5, Jl. Lukas Dairo Bili, Wee Londa, Kec. Loura, Kabupaten Sumba Barat Daya, Nusa Tenggara Tim.","Kabupaten Sumba Barat Daya, Nusa Tenggara Tim.",NUSA TENGGARA TIMUR,,Indonesia,82145441081.0,,,-9.4397402,119.2066122,https://maps.google.com/?cid=0x0:0xabd524235b9d5344,
cafe,Restoran,Restoria,"Jl. Ahmad Yani No.48, Maliti, Kec. Kota Waikabubak, Kabupaten Sumba Barat, Nusa Tenggara Tim.","Kabupaten Sumba Barat, Nusa Tenggara Tim.",NUSA TENGGARA TIMUR,,Indonesia,81337847707.0,,,-9.6340729,119.410218,https://maps.google.com/?cid=0x0:0xd5c9813e97124d2f,
cafe,Kedai Kopi,FX's Coffee House,"Unnamed Road, Tena Teke, Wewewa Selatan, Southwest Sumba Regency, East Nusa Tenggara","Kabupaten Sumba Barat Daya, Nusa Tenggara Tim.",NUSA TENGGARA TIMUR,,Indonesia,85239910479.0,,,-9.5676127,119.2141271,https://maps.google.com/?cid=0x0:0xc5cfa061edc2db33,
cafe,Mesin Jual Otomatis Kopi,AKS : Aroma Kopi Sumba,"Omba Rade, Kec. Wewewa Tim., Kabupaten Sumba Barat Daya, Nusa Tenggara Tim.","Kabupaten Sumba Barat Daya, Nusa Tenggara Tim.",NUSA TENGGARA TIMUR,,Indonesia,82236215888.0,,,-9.5634125,119.3038822,https://maps.google.com/?cid=0x0:0xc549ceb381ca8f9d,
cafe,cafe,Simpang Wee Kaka,"C6JC+Q5M, Tena Teke, Kec. Wewewa Sel., Kabupaten Sumba Barat Daya, Nusa Tenggara Tim.","Kabupaten Sumba Barat Daya, Nusa Tenggara Tim.",NUSA TENGGARA TIMUR,,Indonesia,,,,-9.567537,119.220141,https://maps.google.com/?cid=0x0:0xaa3e3f1481a87b14,
cafe,Kedai Kopi,Warung OLINOR,"Jati Lima, Wali Ate, Kec. Wewewa Bar., Kabupaten Sumba Barat Daya, Nusa Tenggara Tim.","Kabupaten Sumba Barat Daya, Nusa Tenggara Tim.",NUSA TENGGARA TIMUR,,Indonesia,,,,-9.5308435,119.1698823,https://maps.google.com/?cid=0x0:0x478c4a092a07a4ad,
cafe,Restoran,Pang kleng,"Jalan wanno wola 0, RT./rw/RW.0, dusun 2, Wali Ate, Wewewa Barat, Southwest Sumba Regency, East Nusa Tenggara","Kabupaten Sumba Barat Daya, Nusa Tenggara Tim.",NUSA TENGGARA TIMUR,,Indonesia,82144764311.0,,,-9.5283104,119.1666909,https://maps.google.com/?cid=0x0:0x361190af08fd03b5,
cafe,Restoran,RM Enjoy Aja,"G6VG+676 Ngongo Bani, Jalan Raja Yohanes, Wee Renna, Wewewa Barat, Southwest Sumba Regency, East Nusa Tenggara","Kabupaten Sumba Barat Daya, Nusa Tenggara Tim.",NUSA TENGGARA TIMUR,,Indonesia,,,,-9.4569722,119.225643,https://maps.google.com/?cid=0x0:0xead89d97d206ae3a,
cafe,cafe,D’Vito Cafe,"Jl. Raja Yohanes Ngongo Bani, Wee Tobula, Kec. Kota Tambolaka, Kabupaten Sumba Barat Daya, Nusa Tenggara Tim.","Kabupaten Sumba Barat Daya, Nusa Tenggara Tim.",NUSA TENGGARA TIMUR,,Indonesia,85238410716.0,,,-9.4545564,119.2267233,https://maps.google.com/?cid=0x0:0x3ef99a42d8af4e7f,
cafe,Es Krim,Xie Xie Ice Cream and Boba Sumba Barat Daya,"G62F+HFX, Waimangura, Kec. Wewewa Bar., Kabupaten Sumba Barat Daya, Nusa Tenggara Tim.","Kabupaten Sumba Barat Daya, Nusa Tenggara Tim.",NUSA TENGGARA TIMUR,,Indonesia,,,,-9.4992676,119.2241592,https://maps.google.com/?cid=0x0:0xad9eaa1ada414aa3,
cafe,Kedai Kopi,kopi robusta laga lete,"F6FX+8GW, jln golukatina desa laga lete kecamatan wewewa barat, Kabali Dana, waitabula, Kabupaten Sumba Barat Daya, Nusa Tenggara Tim. 87253","jln golukatina desa laga lete kecamatan wewewa barat, Kabali Dana, waitabula, Kabupaten Sumba Barat Daya",NUSA TENGGARA TIMUR,87253.0,Indonesia,81339875234.0,,,-9.5266315,119.2488348,https://maps.google.com/?cid=0x0:0xbb4b746a0a07fb3c,
cafe,Kios,Jefri,"F735+5HV, Kalembu kanaika, Kec. Wewewa Bar., Kabupaten Sumba Barat Daya, Nusa Tenggara Tim.","Kabupaten Sumba Barat Daya, Nusa Tenggara Tim.",NUSA TENGGARA TIMUR,,Indonesia,,,,-9.5470009,119.2589106,https://maps.google.com/?cid=0x0:0xb03e8c3b71b91a44,
cafe,Toko Kue,Lesny's Shop,"Wee Mete, Tena Teke, Kec. Wewewa Sel., Kabupaten Sumba Barat Daya, Nusa Tenggara Tim.","Kabupaten Sumba Barat Daya, Nusa Tenggara Tim.",NUSA TENGGARA TIMUR,,Indonesia,82144516903.0,,,-9.5559494,119.2227292,https://maps.google.com/?cid=0x0:0x5b0a3027dbb3dbde,
cafe,cafe,Anandalove dopal ina,"F7FJ+HMM, Jl. Ahmad Yani, Lombu, Kec. Wewewa Tim., Kabupaten Sumba Barat Daya, Nusa Tenggara Tim.","Kabupaten Sumba Barat Daya, Nusa Tenggara Tim.",NUSA TENGGARA TIMUR,,Indonesia,,,,-9.5266086,119.2820725,https://maps.google.com/?cid=0x0:0x234dfa67b070ed,
cafe,Pondok,MASRI PUNG RUMAH,"F6P5+RGW, Lolo, Kec. Wewewa Bar., Kabupaten Sumba Barat Daya, Nusa Tenggara Tim.","Kabupaten Sumba Barat Daya, Nusa Tenggara Tim.",NUSA TENGGARA TIMUR,,Indonesia,81385854808.0,,,-9.5128943,119.2088303,https://maps.google.com/?cid=0x0:0x568468eedc006d7f,
cafe,Rumah Pondokan,Pondok BP dimas,"F77C+FHX Nalodana dus. 3, Watu Lambara, Kec. Wewewa Tengah, Kabupaten Sumba Barat Daya, Nusa Tenggara Tim.","Kabupaten Sumba Barat Daya, Nusa Tenggara Tim.",NUSA TENGGARA TIMUR,,Indonesia,,,,-9.5362714,119.2714964,https://maps.google.com/?cid=0x0:0xe4bb058f52c624e3,
cafe,cafe,Warung makan Marselina,"C6MC+494, Tena Teke, Kec. Wewewa Sel., Kabupaten Sumba Barat Daya, Nusa Tenggara Tim.","Kabupaten Sumba Barat Daya, Nusa Tenggara Tim.",NUSA TENGGARA TIMUR,,Indonesia,,,,-9.5673336,119.2209084,https://maps.google.com/?cid=0x0:0x2e1f059ca875ac4,
cafe,Pemasok makanan dan minuman katering,JULIE CATERING,"G6QF+P2M, Wee Renna, Kec. Wewewa Bar., Kabupaten Sumba Barat Daya, Nusa Tenggara Tim.","Kabupaten Sumba Barat Daya, Nusa Tenggara Tim.",NUSA TENGGARA TIMUR,,Indonesia,,,,-9.4606787,119.2225799,https://maps.google.com/?cid=0x0:0x2715fa22f0fc5276,
cafe,Area Mendaki,Domi Katoda,"933W+JPF, Wailangira, Kec. Kodi Bangedo, Kabupaten Sumba Barat Daya, Nusa Tenggara Tim.","Kabupaten Sumba Barat Daya, Nusa Tenggara Tim.",NUSA TENGGARA TIMUR,,Indonesia,,,,-9.6459477,119.0968104,https://maps.google.com/?cid=0x0:0xbeec0c58d9b4d95,
cafe,cafe,Kec. Wewewa Tengah,"Kabupaten Sumba Barat Daya, Nusa Tenggara Tim.","Kabupaten Sumba Barat Daya, Nusa Tenggara Tim.",NUSA TENGGARA TIMUR,,Indonesia,,,,-9.532605,119.2909927,https://maps.google.com/?cid=0x0:0x6f978c8d3fab9d28,
cafe,Kafe,Resto  Cafe - Dr. NT,"H6CQ+GW2, Radamata, Kec. Loura, Kabupaten Sumba Barat Daya, Nusa Tenggara Tim.","Kabupaten Sumba Barat Daya, Nusa Tenggara Tim.",NUSA TENGGARA TIMUR,,Indonesia,81238916090.0,,,-9.4287466,119.2397686,https://maps.google.com/?cid=0x0:0xa088b2115852bf7a,
cafe,Kedai Kopi,FA Cafe,"Jl. Bhayangkara, Pada Eweta, Kec. Kota Waikabubak, Kabupaten Sumba Barat, Nusa Tenggara Tim.","Kabupaten Sumba Barat, Nusa Tenggara Tim.",NUSA TENGGARA TIMUR,,Indonesia,81246407572.0,,,-9.6255981,119.4033559,https://maps.google.com/?cid=0x0:0x36d8618b19f55c66,
cafe,Restoran,Nyantai Doeloe,"H6CR+F5, Kalena Wano, Kec. Kota Tambolaka, Kabupaten Sumba Barat Daya, Nusa Tenggara Tim.","Kabupaten Sumba Barat Daya, Nusa Tenggara Tim.",NUSA TENGGARA TIMUR,,Indonesia,81338981345.0,,,-9.4285495,119.2402801,https://maps.google.com/?cid=0x0:0xb1581d0afc92ad8d,
cafe,Kedai Kopi,Later Coffee,"Perumahan Permata Nusa indah Cibitung.19, Blok B6, Cibitung, Bekasi Regency, West Java 1752","Kabupaten Bekasi, Jawa Barat",NUSA TENGGARA TIMUR,,Indonesia,87728572850.0,,,-6.2253406,107.1010512,https://maps.google.com/?cid=0x0:0x6333853ed18a4e65,
cafe,Restoran,Ro'o Luwa,"H664+4J5, Jl. Lukas Dairo Bili, Wee Londa, Kec. Loura, Kabupaten Sumba Barat Daya, Nusa Tenggara Tim.","Kabupaten Sumba Barat Daya, Nusa Tenggara Tim.",NUSA TENGGARA TIMUR,,Indonesia,82145441081.0,,,-9.4397402,119.2066122,https://maps.google.com/?cid=0x0:0xabd524235b9d5344,
cafe,Kedai Kopi,Teh Mau Cibitung,"Cluster Beryl, Permata Nusa Indah, Blk. A5 No.19, Kabupaten Bekasi, Jawa Barat 17520","Permata Nusa Indah, Blk. A5 No.19, Kabupaten Bekasi",NUSA TENGGARA TIMUR,17520.0,Indonesia,,,,-6.2270144,107.0988183,https://maps.google.com/?cid=0x0:0x2a7fe1ebdfab0baf,
cafe,Restoran,Soemba Coffee  Resto Waikabubak,"Jl. Ahmad Yani No.119, Maliti, Kec. Kota Waikabubak, Kabupaten Sumba Barat, Nusa Tenggara Tim.","Kabupaten Sumba Barat, Nusa Tenggara Tim.",NUSA TENGGARA TIMUR,,Indonesia,82155665147.0,,,-9.638199,119.4078702,https://maps.google.com/?cid=0x0:0x7f6da285e14506ee,
cafe,cafe,Kec. Wewewa Tim.,"Kabupaten Sumba Barat Daya, Nusa Tenggara Tim.","Kabupaten Sumba Barat Daya, Nusa Tenggara Tim.",NUSA TENGGARA TIMUR,,Indonesia,,,,-9.5922479,119.3511009,https://maps.google.com/?cid=0x0:0x69ead4906c239f2b,
cafe,Bakso,Warung Bakso Maliti,"C8G9+MVV, Kalembu Ndara Mane, Kec. Wewewa Tim., Kabupaten Sumba Barat Daya, Nusa Tenggara Tim.","Kabupaten Sumba Barat Daya, Nusa Tenggara Tim.",NUSA TENGGARA TIMUR,,Indonesia,85253675659.0,,,-9.5732664,119.3196814,https://maps.google.com/?cid=0x0:0xa81e0a65716b1d38,
cafe,Restoran,Cafe Foodie  Art Shop,"Jl. Bhayangkara No.km 2, Pada Eweta, Kec. Kota Waikabubak, Kabupaten Sumba Barat, Nusa Tenggara Tim.","Kabupaten Sumba Barat, Nusa Tenggara Tim.",NUSA TENGGARA TIMUR,,Indonesia,82144760812.0,,,-9.6252721,119.4032057,https://maps.google.com/?cid=0x0:0xc3fbf0943bb2d894,
cafe,cafe,Morika Inn and Cafe,"Wee Karou, Kec. Loli, Kabupaten Sumba Barat, Nusa Tenggara Tim.","Kabupaten Sumba Barat, Nusa Tenggara Tim.",NUSA TENGGARA TIMUR,,Indonesia,81259541325.0,,,-9.6453034,119.3963347,https://maps.google.com/?cid=0x0:0x1d57ab1c9a7d79cf,
cafe,cafe,Nihiwatu Beach,Nusa Tenggara Tim.,Nusa Tenggara Tim.,NUSA TENGGARA TIMUR,,Indonesia,,,,-9.7720795,119.3682249,https://maps.google.com/?cid=0x0:0x54c747e3fc22ac63,
cafe,Restoran,Dapur Sumba Waikabubak,"Jl. Ahmad Yani No.51, Maliti, Kec. Kota Waikabubak, Kabupaten Sumba Barat, Nusa Tenggara Tim.","Kabupaten Sumba Barat, Nusa Tenggara Tim.",NUSA TENGGARA TIMUR,,Indonesia,81329575563.0,,,-9.6345839,119.4100495,https://maps.google.com/?cid=0x0:0xfffb69d9ed16ed21,
cafe,Bakso,Warung Bakso Sarinah,"C8M8+4GP, Unnamed Road, Kalembu Ndara Mane, Kec. Wewewa Tim., Kabupaten Sumba Barat Daya, Nusa Tenggara Tim.","Kabupaten Sumba Barat Daya, Nusa Tenggara Tim.",NUSA TENGGARA TIMUR,,Indonesia,85343948926.0,,,-9.5671719,119.3163253,https://maps.google.com/?cid=0x0:0x6a1031832dec9781,
cafe,Toko Suvenir,UMMA KABA,"99GX+RGR, Jl. Simpang Puunaga, Pada Eweta, Kec. Kota Waikabubak, Kabupaten Sumba Barat, Nusa Tenggara Tim.","Kabupaten Sumba Barat, Nusa Tenggara Tim.",NUSA TENGGARA TIMUR,,Indonesia,81331970090.0,,,-9.6228783,119.3987502,https://maps.google.com/?cid=0x0:0x68900e85f3dc735,
cafe,Restoran,Elcafe Sumba,"Matawai, Kec. Kota Waingapu, Kabupaten Sumba Timur, Nusa Tenggara Tim.","Kabupaten Sumba Timur, Nusa Tenggara Tim.",NUSA TENGGARA TIMUR,,Indonesia,81238246474.0,,,-9.6541853,120.263791,https://maps.google.com/?cid=0x0:0xf8e772e0e7ecd0d1,
cafe,Padang,Rumah Makan Pondok Salero,"9C65+V82, Wailiang, Kec. Kota Waikabubak, Kabupaten Sumba Barat, Nusa Tenggara Tim.","Kabupaten Sumba Barat, Nusa Tenggara Tim.",NUSA TENGGARA TIMUR,,Indonesia,81337757728.0,,,-9.6378679,119.4082565,https://maps.google.com/?cid=0x0:0xcba49331c1564d4,
cafe,Kafe,Resto  Cafe - Dr. NT,"H6CQ+GW2, Radamata, Kec. Loura, Kabupaten Sumba Barat Daya, Nusa Tenggara Tim.","Kabupaten Sumba Barat Daya, Nusa Tenggara Tim.",NUSA TENGGARA TIMUR,,Indonesia,81238916090.0,,,-9.4287466,119.2397686,https://maps.google.com/?cid=0x0:0xa088b2115852bf7a,
cafe,Rumah Makan,Rumah Makan Potre Koneng,"Jl. Manda Elu, Maliti, Kec. Kota Waikabubak, Kabupaten Sumba Barat, Nusa Tenggara Tim.","Kabupaten Sumba Barat, Nusa Tenggara Tim.",NUSA TENGGARA TIMUR,,Indonesia,,,,-9.6341112,119.4100438,https://maps.google.com/?cid=0x0:0x8f6808f90767e54,
cafe,cafe,Shekinah Homestay  Cafe,"Jl. Veteran, Kp. Sawah, Kec. Kota Waikabubak, Kabupaten Sumba Barat, Nusa Tenggara Tim. 87211","Kp. Sawah, Kec. Kota Waikabubak, Kabupaten Sumba Barat",NUSA TENGGARA TIMUR,87211.0,Indonesia,895417300072.0,,,-9.6360542,119.4202479,https://maps.google.com/?cid=0x0:0x3adf4c4cbbc649f5,
cafe,Restoran,Sirkey Resto,"Jalan Sudirman, Radamata, Kec. Kota Tambolaka, Kabupaten Sumba Barat Daya, Nusa Tenggara Tim.","Kabupaten Sumba Barat Daya, Nusa Tenggara Tim.",NUSA TENGGARA TIMUR,,Indonesia,85333077007.0,,,-9.4296618,119.2383019,https://maps.google.com/?cid=0x0:0xaff317bab9d61459,
cafe,Tujuan Wisata,Air Terjun Lapopu,"8FCV+F3Q, Manurara, Kec. Katikutana Sel., Kabupaten Sumba Tengah, Nusa Tenggara Tim.","Kabupaten Sumba Tengah, Nusa Tenggara Tim.",NUSA TENGGARA TIMUR,,Indonesia,82221477093.0,,,-9.6787759,119.4927235,https://maps.google.com/?cid=0x0:0x3e214b0555912b37,
cafe,Restoran,Warung Barokah,"9C76+FFX, Maliti, Kec. Kota Waikabubak, Kabupaten Sumba Barat, Nusa Tenggara Tim.","Kabupaten Sumba Barat, Nusa Tenggara Tim.",NUSA TENGGARA TIMUR,,Indonesia,81231538982.0,,,-9.6362749,119.4112266,https://maps.google.com/?cid=0x0:0x9902d079d4df7d44,
cafe,Restoran,PC Corner Cafe  Restaurant,"87R7+PX7, Matawai, Kec. Kota Waingapu, Kabupaten Sumba Timur, Nusa Tenggara Tim.","Kabupaten Sumba Timur, Nusa Tenggara Tim.",NUSA TENGGARA TIMUR,,Indonesia,81223171725.0,,,-9.6582224,120.264934,https://maps.google.com/?cid=0x0:0x2fa4a65173884c70,
cafe,Jawa,Restu Warung,"9C76+9CX, Maliti, Kec. Kota Waikabubak, Kabupaten Sumba Barat, Nusa Tenggara Tim.","Kabupaten Sumba Barat, Nusa Tenggara Tim.",NUSA TENGGARA TIMUR,,Indonesia,,,,-9.6364917,119.4111588,https://maps.google.com/?cid=0x0:0xacbef36d5d5ae8a1,
cafe,Restoran,Ro'o Luwa,"H664+4J5, Jl. Lukas Dairo Bili, Wee Londa, Kec. Loura, Kabupaten Sumba Barat Daya, Nusa Tenggara Tim.","Kabupaten Sumba Barat Daya, Nusa Tenggara Tim.",NUSA TENGGARA TIMUR,,Indonesia,82145441081.0,,,-9.4397402,119.2066122,https://maps.google.com/?cid=0x0:0xabd524235b9d5344,
cafe,Indonesia,Warung Jawa,"Jl. Ahmad Yani No.130, Wailiang, Kec. Kota Waikabubak, Kabupaten Sumba Barat, Nusa Tenggara Tim.","Kabupaten Sumba Barat, Nusa Tenggara Tim.",NUSA TENGGARA TIMUR,,Indonesia,,,,-9.6397781,119.4075679,https://maps.google.com/?cid=0x0:0x1e2254be03662d1b,
cafe,Rumah Makan,Rumah Makan Pondok Bambu,"9C6C+RP6, Kp. Sawah, Kec. Kota Waikabubak, Kabupaten Sumba Barat, Nusa Tenggara Tim.","Kabupaten Sumba Barat, Nusa Tenggara Tim.",NUSA TENGGARA TIMUR,,Indonesia,81338595964.0,,,-9.637967,119.4217657,https://maps.google.com/?cid=0x0:0x3196530451f3d0e9,
cafe,Mesin Jual Otomatis Kopi,AKS : Aroma Kopi Sumba,"Omba Rade, Kec. Wewewa Tim., Kabupaten Sumba Barat Daya, Nusa Tenggara Tim.","Kabupaten Sumba Barat Daya, Nusa Tenggara Tim.",NUSA TENGGARA TIMUR,,Indonesia,82236215888.0,,,-9.5634125,119.3038822,https://maps.google.com/?cid=0x0:0xc549ceb381ca8f9d,
cafe,Kedai Kopi,FX's Coffee House,"Unnamed Road, Tena Teke, Wewewa Selatan, Southwest Sumba Regency, East Nusa Tenggara","Kabupaten Sumba Barat Daya, Nusa Tenggara Tim.",NUSA TENGGARA TIMUR,,Indonesia,85239910479.0,,,-9.5676127,119.2141271,https://maps.google.com/?cid=0x0:0xc5cfa061edc2db33,
cafe,Kedai Kopi,Corner Coffee,"Pada Eweta, Kec. Kota Waikabubak, Kabupaten Sumba Barat, Nusa Tenggara Tim.","Kabupaten Sumba Barat, Nusa Tenggara Tim.",NUSA TENGGARA TIMUR,,Indonesia,81237206363.0,,,-9.6216078,119.3816711,https://maps.google.com/?cid=0x0:0x52e078dba4b712aa,
cafe,Kedai Kopi,Cafe KM. 6 Janji Bui,"99QC+287, Soba Wawi, Kec. Loli, Kabupaten Sumba Barat, Nusa Tenggara Tim.","Kabupaten Sumba Barat, Nusa Tenggara Tim.",NUSA TENGGARA TIMUR,,Indonesia,,,,-9.6124228,119.37122,https://maps.google.com/?cid=0x0:0xe41100e738332532,
cafe,Kedai Kopi,FA Cafe,"Jl. Bhayangkara, Pada Eweta, Kec. Kota Waikabubak, Kabupaten Sumba Barat, Nusa Tenggara Tim.","Kabupaten Sumba Barat, Nusa Tenggara Tim.",NUSA TENGGARA TIMUR,,Indonesia,81246407572.0,,,-9.6255981,119.4033559,https://maps.google.com/?cid=0x0:0x36d8618b19f55c66,
cafe,Restoran,RESTO NE'NERU LOKO,"9CF8+PJH, Kp. Baru, Kec. Kota Waikabubak, Kabupaten Sumba Barat, Nusa Tenggara Tim.","Kabupaten Sumba Barat, Nusa Tenggara Tim.",NUSA TENGGARA TIMUR,,Indonesia,81338236237.0,,,-9.6254467,119.4163814,https://maps.google.com/?cid=0x0:0x1b5f3f8a383dde27,
cafe,Restoran,AL Cafe,"Jl. Ahmad Yani No.32, Komerda, Kec. Kota Waikabubak, Kabupaten Sumba Barat, Nusa Tenggara Tim.","Kabupaten Sumba Barat, Nusa Tenggara Tim.",NUSA TENGGARA TIMUR,,Indonesia,81392442358.0,,,-9.6336903,119.4109124,https://maps.google.com/?cid=0x0:0xc7348e66a32bd572,
cafe,cafe,Kec. Wewewa Utara,"Kabupaten Sumba Barat Daya, Nusa Tenggara Tim.","Kabupaten Sumba Barat Daya, Nusa Tenggara Tim.",NUSA TENGGARA TIMUR,,Indonesia,,,,-9.5267607,119.3539572,https://maps.google.com/?cid=0x0:0xe58277af67096a5b,
cafe,Restoran,Nyantai Doeloe,"H6CR+F5, Kalena Wano, Kec. Kota Tambolaka, Kabupaten Sumba Barat Daya, Nusa Tenggara Tim.","Kabupaten Sumba Barat Daya, Nusa Tenggara Tim.",NUSA TENGGARA TIMUR,,Indonesia,81338981345.0,,,-9.4285495,119.2402801,https://maps.google.com/?cid=0x0:0xb1581d0afc92ad8d,
cafe,Kedai Kopi,FA Cafe,"Jl. Bhayangkara, Pada Eweta, Kec. Kota Waikabubak, Kabupaten Sumba Barat, Nusa Tenggara Tim.","Kabupaten Sumba Barat, Nusa Tenggara Tim.",NUSA TENGGARA TIMUR,,Indonesia,81246407572.0,,,-9.6255981,119.4033559,https://maps.google.com/?cid=0x0:0x36d8618b19f55c66,
cafe,Brunch,Depot Dek Mama Lia,"Wee Paboba, Kec. Wewewa Utara, Kabupaten Sumba Barat Daya, Nusa Tenggara Tim.","Kabupaten Sumba Barat Daya, Nusa Tenggara Tim.",NUSA TENGGARA TIMUR,,Indonesia,82340667040.0,,,-9.5269916,119.3541322,https://maps.google.com/?cid=0x0:0xca3e2872b364e57d,
cafe,Restoran,Cafe Foodie  Art Shop,"Jl. Bhayangkara No.km 2, Pada Eweta, Kec. Kota Waikabubak, Kabupaten Sumba Barat, Nusa Tenggara Tim.","Kabupaten Sumba Barat, Nusa Tenggara Tim.",NUSA TENGGARA TIMUR,,Indonesia,82144760812.0,,,-9.6252721,119.4032057,https://maps.google.com/?cid=0x0:0xc3fbf0943bb2d894,
cafe,Restoran,Ro'o Luwa,"H664+4J5, Jl. Lukas Dairo Bili, Wee Londa, Kec. Loura, Kabupaten Sumba Barat Daya, Nusa Tenggara Tim.","Kabupaten Sumba Barat Daya, Nusa Tenggara Tim.",NUSA TENGGARA TIMUR,,Indonesia,82145441081.0,,,-9.4397402,119.2066122,https://maps.google.com/?cid=0x0:0xabd524235b9d5344,
cafe,Restoran,Sirkey Resto,"Jalan Sudirman, Radamata, Kec. Kota Tambolaka, Kabupaten Sumba Barat Daya, Nusa Tenggara Tim.","Kabupaten Sumba Barat Daya, Nusa Tenggara Tim.",NUSA TENGGARA TIMUR,,Indonesia,85333077007.0,,,-9.4296618,119.2383019,https://maps.google.com/?cid=0x0:0xaff317bab9d61459,
cafe,Restoran,Warung Makan MAMA KORI,"F9F3+FQ8, Wee Paboba, Kec. Wewewa Utara, Kabupaten Sumba Barat Daya, Nusa Tenggara Tim.","Kabupaten Sumba Barat Daya, Nusa Tenggara Tim.",NUSA TENGGARA TIMUR,,Indonesia,81238538068.0,,,-9.5263316,119.3544424,https://maps.google.com/?cid=0x0:0xcf4f72a3ac2518b4,
cafe,Kedai Kopi,Jevan kopi,"G9QW+W84, Ngadu Pada, Kec. Tana Righu, Kabupaten Sumba Barat, Nusa Tenggara Tim.","Kabupaten Sumba Barat, Nusa Tenggara Tim.",NUSA TENGGARA TIMUR,,Indonesia,,,,-9.459873,119.394642,https://maps.google.com/?cid=0x0:0x2e8dbd7dd1c6e1a0,
cafe,Restoran,PC Corner Cafe  Restaurant,"87R7+PX7, Matawai, Kec. Kota Waingapu, Kabupaten Sumba Timur, Nusa Tenggara Tim.","Kabupaten Sumba Timur, Nusa Tenggara Tim.",NUSA TENGGARA TIMUR,,Indonesia,81223171725.0,,,-9.6582224,120.264934,https://maps.google.com/?cid=0x0:0x2fa4a65173884c70,
cafe,Restoran,Elcafe Sumba,"Matawai, Kec. Kota Waingapu, Kabupaten Sumba Timur, Nusa Tenggara Tim.","Kabupaten Sumba Timur, Nusa Tenggara Tim.",NUSA TENGGARA TIMUR,,Indonesia,81238246474.0,,,-9.6541853,120.263791,https://maps.google.com/?cid=0x0:0xf8e772e0e7ecd0d1,
cafe,Toko Swalayan,Toko Setia Mulia,"F83R+W5V, Bolora, Kec. Wewewa Tim., Kabupaten Sumba Barat Daya, Nusa Tenggara Tim.","Kabupaten Sumba Barat Daya, Nusa Tenggara Tim.",NUSA TENGGARA TIMUR,,Indonesia,81339865707.0,,,-9.5451454,119.340415,https://maps.google.com/?cid=0x0:0x39b1504b64d0da45,
cafe,Restoran,Dapur Sumba,"Radamata, Kec. Loura, Kabupaten Sumba Barat Daya, Nusa Tenggara Tim. 87254","Kec. Loura, Kabupaten Sumba Barat Daya",NUSA TENGGARA TIMUR,87254.0,Indonesia,81353315055.0,,,-9.4167954,119.245971,https://maps.google.com/?cid=0x0:0xb774a37a3fc0df4d,
cafe,Restoran,Soemba Coffee  Resto Waikabubak,"Jl. Ahmad Yani No.119, Maliti, Kec. Kota Waikabubak, Kabupaten Sumba Barat, Nusa Tenggara Tim.","Kabupaten Sumba Barat, Nusa Tenggara Tim.",NUSA TENGGARA TIMUR,,Indonesia,82155665147.0,,,-9.638199,119.4078702,https://maps.google.com/?cid=0x0:0x7f6da285e14506ee,
