Category,Real Category,Business Name,Address,City,State,Postal Code,Country,Phone,Email,Website,Latitude,Longitude,Map Link,Details Link
hardware store,hardware store,Nusa Tenggara Tim.,,Nusa Tenggara Tim.,NUSA TENGGARA TIMUR,,Indonesia,,,,-8.6573819,121.0793705,https://maps.google.com/?cid=0x0:0x1030bfbcaf71ae0,
hardware store,Toko Bahan Bangunan,Toko Graha Bangunan,"Gedung Graha Ariadi, Oesapa Bar., Kec. Klp. Lima, Kota Kupang, Nusa Tenggara Tim. 85228","Oesapa Bar., Kec. Klp. Lima, Kota Kupang",NUSA TENGGARA TIMUR,85228.0,Indonesia,81312893723.0,,,-10.1468703,123.631267,https://maps.google.com/?cid=0x0:0x4167d73ee95fc845,
hardware store,Toko Bahan Bangunan,Toko bangunan,"VM4C+R79, Lasiana, Kec. Klp. Lima, Kota Kupang, Nusa Tenggara Tim.","Kota Kupang, Nusa Tenggara Tim.",NUSA TENGGARA TIMUR,,Indonesia,,,,-10.142954,123.6707233,https://maps.google.com/?cid=0x0:0xb111458939496520,
hardware store,Pusat Perbelanjaan,JAYA ELEKTRONIKMEUBEL,"GFGM+26M, Kefamenanu Sel., Kec. Kota Kefamenanu, Kabupaten Timor Tengah Utara, Nusa Tenggara Tim.","Kabupaten Timor Tengah Utara, Nusa Tenggara Tim.",NUSA TENGGARA TIMUR,,Indonesia,3882332020.0,,,-9.4749204,124.4830454,https://maps.google.com/?cid=0x0:0xb590af408aa270c,
hardware store,Toko Komputer,FILOSI LAPTOP KUPANG,"Jl. Adi Sucipto, Oesapa Lampu Merah, Kec. Klp. Lima, Kota Kupang, Nusa Tenggara Tim. 85228","Oesapa Lampu Merah, Kec. Klp. Lima, Kota Kupang",NUSA TENGGARA TIMUR,85228.0,Indonesia,82146049489.0,,,-10.1489745,123.6505575,https://maps.google.com/?cid=0x0:0x8e38b3ac0bdd92d8,
hardware store,Toko Komputer,Toko CENTRO,"Jl. Banteng No.6, Kel. Potulando, Kec. Ende Tengah, Kabupaten Ende, Nusa Tenggara Tim.","Kabupaten Ende, Nusa Tenggara Tim.",NUSA TENGGARA TIMUR,,Indonesia,8123796700.0,,,-8.8427644,121.649799,https://maps.google.com/?cid=0x0:0x76ca6c22a641799,
hardware store,Toko Komputer,Filosi Laptop Kefa,"Jln. KM 6 arah kupang, Maubeli, Kec. Kota Kefamenanu, Kefamenanu, Nusa Tenggara Tim. 85617","Maubeli, Kec. Kota Kefamenanu, Kefamenanu",NUSA TENGGARA TIMUR,85617.0,Indonesia,81239561969.0,,,-9.4880312,124.4903773,https://maps.google.com/?cid=0x0:0x86ec1245c07db9c0,
hardware store,Toko Komputer,CItra Komputer,"Jl. Timor Raya No.62, Bakunase, Kec. Kota Raja, Kota Kupang, Nusa Tenggara Tim.","Kota Kupang, Nusa Tenggara Tim.",NUSA TENGGARA TIMUR,,Indonesia,811381581.0,,,-10.1833442,123.5832076,https://maps.google.com/?cid=0x0:0x6096376f47bb2f79,
hardware store,hardware store,U.D. Vigo Pigfeed And General Hardware Store,"75R9+F36, Tangge, Kecamatan Lembor, Kabupaten Manggarai Barat, Nusa Tenggara Tim.","Kabupaten Manggarai Barat, Nusa Tenggara Tim.",NUSA TENGGARA TIMUR,,Indonesia,,,,-8.708828,120.1676459,https://maps.google.com/?cid=0x0:0xaa897d189a9ad00b,
hardware store,hardware store,Kodi,"Kalena Rongo, Kec. Kodi Utara, Kabupaten Sumba Barat Daya, Nusa Tenggara Tim.","Kabupaten Sumba Barat Daya, Nusa Tenggara Tim.",NUSA TENGGARA TIMUR,,Indonesia,,,,-9.528481,118.9841,https://maps.google.com/?cid=0x0:0xa0abc272b8b7b281,
hardware store,hardware store,Kec. Tebet,"Kota Jakarta Selatan, Daerah Khusus Ibukota Jakarta","Kota Jakarta Selatan, Daerah Khusus Ibukota Jakarta",NUSA TENGGARA TIMUR,,Indonesia,,,,-6.2251223,106.8549881,https://maps.google.com/?cid=0x0:0xd575e31c807295f9,
hardware store,Toko Perlengkapan Rumah,KSL Timber  Hardware S/B,"Jalan besar lot 151, 71500 Tanjung Ipoh, Negeri Sembilan, Malaysia",Tanjung Ipoh,NUSA TENGGARA TIMUR,71500.0,Indonesia,60136600666.0,,,2.7402994,102.1889696,https://maps.google.com/?cid=0x0:0x84999cf61c6d5fd9,
hardware store,Kantor Pemerintah,Kantor Desa Manu Toghi,"93JF+3Q6 Manu Toghi, Wai Ha, Kec. Kodi Balaghar, Kabupaten Sumba Barat Daya, Nusa Tenggara Tim.","Kabupaten Sumba Barat Daya, Nusa Tenggara Tim.",NUSA TENGGARA TIMUR,,Indonesia,,,,-9.6198342,119.0743938,https://maps.google.com/?cid=0x0:0x6ad81091be98352,
hardware store,Toko Bahan Bangunan,"TOA Paint Dealer, KSL Timber  Hardware Sdn Bhd","148, 51, Kampung Tanjung Ipoh, 71500 Tanjung Ipoh, Negeri Sembilan, Malaysia",Tanjung Ipoh,NUSA TENGGARA TIMUR,71500.0,Indonesia,6064887190.0,,,2.7401895,102.1889034,https://maps.google.com/?cid=0x0:0x5f3503a0663908dc,
hardware store,Toko Perlengkapan Rumah,MR.DIY,"Jl. Ahmad Yani, Wailiang, Kec. Kota Waikabubak, Kabupaten Sumba Barat, Nusa Tenggara Tim. 87217","Wailiang, Kec. Kota Waikabubak, Kabupaten Sumba Barat",NUSA TENGGARA TIMUR,87217.0,Indonesia,,,,-9.6406488,119.4078019,https://maps.google.com/?cid=0x0:0x34d1943d35c76109,
hardware store,Toko Perlengkapan Rumah,MR.DIY Waitabula,"JL. Raya Waitabula, Langga Lero, Kec. Kota Tambolaka, Kabupaten Sumba Barat Daya, Nusa Tenggara Tim. 87255","Langga Lero, Kec. Kota Tambolaka, Kabupaten Sumba Barat Daya",NUSA TENGGARA TIMUR,87255.0,Indonesia,,,,-9.4416462,119.2317649,https://maps.google.com/?cid=0x0:0xee8a6b4f3884289c,
hardware store,hardware store,Kec. Kodi Bangedo,"Kabupaten Sumba Barat Daya, Nusa Tenggara Tim.","Kabupaten Sumba Barat Daya, Nusa Tenggara Tim.",NUSA TENGGARA TIMUR,,Indonesia,,,,-9.6026813,119.0171447,https://maps.google.com/?cid=0x0:0x3bbfbd9e4fb43622,
hardware store,hardware store,Kec. Kodi Utara,"Kabupaten Sumba Barat Daya, Nusa Tenggara Tim.","Kabupaten Sumba Barat Daya, Nusa Tenggara Tim.",NUSA TENGGARA TIMUR,,Indonesia,,,,-9.5201893,119.0312709,https://maps.google.com/?cid=0x0:0xc02655b0903b58a2,
hardware store,Toko,Kios Amin,"9C76+23C, Maliti, Kec. Kota Waikabubak, Kabupaten Sumba Barat, Nusa Tenggara Tim.","Kabupaten Sumba Barat, Nusa Tenggara Tim.",NUSA TENGGARA TIMUR,,Indonesia,,,,-9.6375728,119.4101177,https://maps.google.com/?cid=0x0:0x5d98f5b71e9045a,
hardware store,Grosir,KIOS MULIA TAMA,"Jl. Pattimura No.1, Maliti, Kec. Kota Waikabubak, Kabupaten Sumba Barat, Nusa Tenggara Tim. 87214","Maliti, Kec. Kota Waikabubak, Kabupaten Sumba Barat",NUSA TENGGARA TIMUR,87214.0,Indonesia,81360603221.0,,,-9.637615,119.4102504,https://maps.google.com/?cid=0x0:0x8f1010fd32351006,
hardware store,hardware store,Kec. Kota Tambolaka,"Kabupaten Sumba Barat Daya, Nusa Tenggara Tim.","Kabupaten Sumba Barat Daya, Nusa Tenggara Tim.",NUSA TENGGARA TIMUR,,Indonesia,,,,-9.4295733,119.2387484,https://maps.google.com/?cid=0x0:0x9f73216af1e7222b,
hardware store,Toko Perlengkapan Rumah,MR.DIY Waitabula,"JL. Raya Waitabula, Langga Lero, Kec. Kota Tambolaka, Kabupaten Sumba Barat Daya, Nusa Tenggara Tim. 87255","Langga Lero, Kec. Kota Tambolaka, Kabupaten Sumba Barat Daya",NUSA TENGGARA TIMUR,87255.0,Indonesia,,,,-9.4416462,119.2317649,https://maps.google.com/?cid=0x0:0xee8a6b4f3884289c,
hardware store,Toko Bahan Bangunan,Toko Aurora,"Jl. Timotius Tako Geli, Radamata, Kec. Kota Tambolaka, Kabupaten Sumba Barat Daya, Nusa Tenggara Tim. 87255","Radamata, Kec. Kota Tambolaka, Kabupaten Sumba Barat Daya",NUSA TENGGARA TIMUR,87255.0,Indonesia,85257823823.0,,,-9.4274792,119.2417716,https://maps.google.com/?cid=0x0:0x952628c1d397d0fe,
hardware store,Toko,Kios Mata Dou,"J64P+6P, Radamata, Kec. Kota Tambolaka, Kabupaten Sumba Barat Daya, Nusa Tenggara Tim.","Kabupaten Sumba Barat Daya, Nusa Tenggara Tim.",NUSA TENGGARA TIMUR,,Indonesia,,,,-9.3944961,119.2368234,https://maps.google.com/?cid=0x0:0xcc0ebc0575f710ac,
hardware store,Pasar bahan bangunan,Toko MERDEKA,"H7G2+R6G, Jl. Lede Kalumbang, Radamata, Kec. Loura, Kabupaten Sumba Barat Daya, Nusa Tenggara Tim.","Kabupaten Sumba Barat Daya, Nusa Tenggara Tim.",NUSA TENGGARA TIMUR,,Indonesia,8231112666.0,,,-9.4229293,119.2505741,https://maps.google.com/?cid=0x0:0x47fe9599655312f2,
hardware store,Layanan cetak digital,Valentine Stationery,"Kalena Wano, Kec. Kota Tambolaka, Kabupaten Sumba Barat Daya, Nusa Tenggara Tim.","Kabupaten Sumba Barat Daya, Nusa Tenggara Tim.",NUSA TENGGARA TIMUR,,Indonesia,81353759840.0,,,-9.4270547,119.2434083,https://maps.google.com/?cid=0x0:0xbf59425866a60ed1,
hardware store,Toko Bahan Bangunan,TOKO Sinar Galaxi,"H6CR+XJ8, Unnamed Road, Loura, Kabupaten Barat Daya, Nusa Tenggara Tim., Radamata, Kec. Loura, Kabupaten Sumba Barat Daya, Nusa Tenggara Tim.","Kabupaten Sumba Barat Daya, Nusa Tenggara Tim.",NUSA TENGGARA TIMUR,,Indonesia,,,,-9.427579,119.2415805,https://maps.google.com/?cid=0x0:0x50d8175272a243a8,
hardware store,Taman,Alun-alun Kota Tambolaka,"Jl. Lede Kalumbang, Radamata, Kec. Kota Tambolaka, Kabupaten Sumba Barat Daya, Nusa Tenggara Tim. 87255","Radamata, Kec. Kota Tambolaka, Kabupaten Sumba Barat Daya",NUSA TENGGARA TIMUR,87255.0,Indonesia,,,,-9.4248907,119.2463,https://maps.google.com/?cid=0x0:0x6e59592d73840b17,
hardware store,Toko,Toko Cinta Indah,"F7FJ+JGG, Limbu Watu,, Wee Kokora, Kec. Wewewa Tengah, Kabupaten Sumba Barat Daya, Nusa Tenggara Tim.","Kabupaten Sumba Barat Daya, Nusa Tenggara Tim.",NUSA TENGGARA TIMUR,,Indonesia,81353480750.0,,,-9.5259324,119.2813262,https://maps.google.com/?cid=0x0:0xfdd070a95cfb0d00,
hardware store,Gedung Apartemen,KALEMBU PANETA,"H6H2+F5F, Kalembu Paneta, Kadi Pada, Kabupaten Sumba Barat Daya, Nusa Tenggara Tim.","Kabupaten Sumba Barat Daya, Nusa Tenggara Tim.",NUSA TENGGARA TIMUR,,Indonesia,,,,-9.4213038,119.200426,https://maps.google.com/?cid=0x0:0x7c1f3d98fabc419d,
hardware store,Pembangunan Perumahan,Lokokaki,"H66C+V52, Langga Lero, Kec. Kota Tambolaka, Kabupaten Sumba Barat Daya, Nusa Tenggara Tim.","Kabupaten Sumba Barat Daya, Nusa Tenggara Tim.",NUSA TENGGARA TIMUR,,Indonesia,,,,-9.4378516,119.2203755,https://maps.google.com/?cid=0x0:0x13d71506aa946e6c,
hardware store,hardware store,Ruster ATK  Fotocopy,"H6GX+CF9, Jl. Lede Kalumbang, Radamata, Kec. Loura, Kabupaten Sumba Barat Daya, Nusa Tenggara Tim.","Kabupaten Sumba Barat Daya, Nusa Tenggara Tim.",NUSA TENGGARA TIMUR,,Indonesia,82117464454.0,,,-9.423952,119.248728,https://maps.google.com/?cid=0x0:0x3d9f88eeb1bd273d,
hardware store,Area Mendaki,Matadou,"H6FV+HQW, Radamata, Kec. Kota Tambolaka, Kabupaten Sumba Barat Daya, Nusa Tenggara Tim.","Kabupaten Sumba Barat Daya, Nusa Tenggara Tim.",NUSA TENGGARA TIMUR,,Indonesia,,,,-9.4260168,119.2444555,https://maps.google.com/?cid=0x0:0x7ed5936946bc96a7,
hardware store,,Anggrek Fotocopy,"H65J+RV5, Unnamed Road, Langga Lero, Kec. Loura, Kabupaten Sumba Barat Daya, Nusa Tenggara Tim.","Kabupaten Sumba Barat Daya, Nusa Tenggara Tim.",NUSA TENGGARA TIMUR,,Indonesia,,,,-9.4404754,119.2322192,https://maps.google.com/?cid=0x0:0x714dfa8b4ed42127,
hardware store,Kafe,Kadul dekat kantor bupati,"J5CX+X3W, Wee Londa, Kec. Kota Tambolaka, Kabupaten Sumba Barat Daya, Nusa Tenggara Tim.","Kabupaten Sumba Barat Daya, Nusa Tenggara Tim.",NUSA TENGGARA TIMUR,,Indonesia,82235424668.0,,,-9.3775182,119.19771,https://maps.google.com/?cid=0x0:0xa2f771df2802d1d3,
hardware store,Kantor Perusahaan,Jembatan Ledegiring,"H6JJ+46J, Radamata, Kec. Kota Tambolaka, Kabupaten Sumba Barat Daya, Nusa Tenggara Tim.","Kabupaten Sumba Barat Daya, Nusa Tenggara Tim.",NUSA TENGGARA TIMUR,,Indonesia,,,,-9.4196724,119.2305156,https://maps.google.com/?cid=0x0:0xc9476d8f3ade5c28,
hardware store,Toko Alat Tulis Kantor,Renata ATK,"H65J+JVH, Wee Tobula, Kec. Loura, Kabupaten Sumba Barat Daya, Nusa Tenggara Tim.","Kabupaten Sumba Barat Daya, Nusa Tenggara Tim.",NUSA TENGGARA TIMUR,,Indonesia,,,,-9.4410236,119.2321974,https://maps.google.com/?cid=0x0:0x300d4e7cf76c5904,
hardware store,Kios,Kios Vian Hangga,"H67H+657, Jl. Lukas Dairo Bili, Langga Lero, Kec. Loura, Kabupaten Sumba Barat Daya, Nusa Tenggara Tim.","Kabupaten Sumba Barat Daya, Nusa Tenggara Tim.",NUSA TENGGARA TIMUR,,Indonesia,82334736523.0,,,-9.4369341,119.2280141,https://maps.google.com/?cid=0x0:0x9c7561444d845ad4,
hardware store,hardware store,Nusa Tenggara Tim.,,Nusa Tenggara Tim.,NUSA TENGGARA TIMUR,,Indonesia,,,,-8.6573819,121.0793705,https://maps.google.com/?cid=0x0:0x1030bfbcaf71ae0,
hardware store,Toko Elektronik,MEDIA ELEKTRONIK CENTER,"H69M+2JM, Jl. Sapurata, Wee Tobula, Kec. Kota Tambolaka, Kabupaten Sumba Barat Daya, Nusa Tenggara Tim.","Kabupaten Sumba Barat Daya, Nusa Tenggara Tim.",NUSA TENGGARA TIMUR,,Indonesia,85253221889.0,,,-9.4324057,119.2340379,https://maps.google.com/?cid=0x0:0x92590fe823d49377,
hardware store,hardware store,Kererobbo,"Sekolah Tani, Wee Londa, Kec. Kota Tambolaka, Kabupaten Sumba Barat Daya, Nusa Tenggara Tim.","Kabupaten Sumba Barat Daya, Nusa Tenggara Tim.",NUSA TENGGARA TIMUR,,Indonesia,81242625191.0,,,-9.4429317,119.2035625,https://maps.google.com/?cid=0x0:0xd7538fbbfaabbbf2,
hardware store,Toko Bahan Bangunan,Sinar Bangunan Building Center,"Jl. Bund. PU No.12, Tuak Daun Merah, Kec. Oebobo, Kota Kupang, Nusa Tenggara Tim. 85228","Tuak Daun Merah, Kec. Oebobo, Kota Kupang",NUSA TENGGARA TIMUR,85228.0,Indonesia,81236648694.0,,,-10.1675355,123.6289538,https://maps.google.com/?cid=0x0:0x8b34913a09e207d2,
hardware store,Toko,KASIH BERKAT,"Walla Ndimu, Kec. Kodi Bangedo, Kabupaten Sumba Barat Daya, Nusa Tenggara Tim. 87264","Kec. Kodi Bangedo, Kabupaten Sumba Barat Daya",NUSA TENGGARA TIMUR,87264.0,Indonesia,81335789980.0,,,-9.6260985,119.0411577,https://maps.google.com/?cid=0x0:0xe29ea410343cacdf,
hardware store,Gereja Katolik,SD Katolik Kererobbo,"H663+F9W, Wee Londa, Kec. Kota Tambolaka, Kabupaten Sumba Barat Daya, Nusa Tenggara Tim.","Kabupaten Sumba Barat Daya, Nusa Tenggara Tim.",NUSA TENGGARA TIMUR,,Indonesia,,,,-9.4384892,119.202785,https://maps.google.com/?cid=0x0:0x360058c2973f1f81,
hardware store,hardware store,LAURA CELL,"H6FW+HF7, Kalena Wano, Kec. Kota Tambolaka, Kabupaten Sumba Barat Daya, Nusa Tenggara Tim.","Kabupaten Sumba Barat Daya, Nusa Tenggara Tim.",NUSA TENGGARA TIMUR,,Indonesia,82359558411.0,,,-9.4260838,119.2461687,https://maps.google.com/?cid=0x0:0xd030867ed956cb5a,
hardware store,hardware store,Kec. Loura,"Kabupaten Sumba Barat Daya, Nusa Tenggara Tim.","Kabupaten Sumba Barat Daya, Nusa Tenggara Tim.",NUSA TENGGARA TIMUR,,Indonesia,,,,-9.4214178,119.2970741,https://maps.google.com/?cid=0x0:0x49ebe3d33838ae6d,
hardware store,Toko Bahan Bangunan,Toko Nuansa Bangunan Dan Tehnik Terlengkap,"H6CP+QWF, Radamata, Kec. Loura, Kabupaten Sumba Barat Daya, Nusa Tenggara Tim.","Kabupaten Sumba Barat Daya, Nusa Tenggara Tim.",NUSA TENGGARA TIMUR,,Indonesia,81339419509.0,,,-9.4280703,119.2372822,https://maps.google.com/?cid=0x0:0xb106164c739fec1b,
hardware store,Pasar bahan bangunan,Toko MERDEKA,"H7G2+R6G, Jl. Lede Kalumbang, Radamata, Kec. Loura, Kabupaten Sumba Barat Daya, Nusa Tenggara Tim.","Kabupaten Sumba Barat Daya, Nusa Tenggara Tim.",NUSA TENGGARA TIMUR,,Indonesia,8231112666.0,,,-9.4229293,119.2505741,https://maps.google.com/?cid=0x0:0x47fe9599655312f2,
hardware store,Toko Bahan Bangunan,TOKO Sinar Galaxi,"H6CR+XJ8, Unnamed Road, Loura, Kabupaten Barat Daya, Nusa Tenggara Tim., Radamata, Kec. Loura, Kabupaten Sumba Barat Daya, Nusa Tenggara Tim.","Kabupaten Sumba Barat Daya, Nusa Tenggara Tim.",NUSA TENGGARA TIMUR,,Indonesia,,,,-9.427579,119.2415805,https://maps.google.com/?cid=0x0:0x50d8175272a243a8,
hardware store,Toko Perlengkapan Rumah,MR.DIY Waitabula,"JL. Raya Waitabula, Langga Lero, Kec. Kota Tambolaka, Kabupaten Sumba Barat Daya, Nusa Tenggara Tim. 87255","Langga Lero, Kec. Kota Tambolaka, Kabupaten Sumba Barat Daya",NUSA TENGGARA TIMUR,87255.0,Indonesia,,,,-9.4416462,119.2317649,https://maps.google.com/?cid=0x0:0xee8a6b4f3884289c,
hardware store,hardware store,Ruster ATK  Fotocopy,"H6GX+CF9, Jl. Lede Kalumbang, Radamata, Kec. Loura, Kabupaten Sumba Barat Daya, Nusa Tenggara Tim.","Kabupaten Sumba Barat Daya, Nusa Tenggara Tim.",NUSA TENGGARA TIMUR,,Indonesia,82117464454.0,,,-9.423952,119.248728,https://maps.google.com/?cid=0x0:0x3d9f88eeb1bd273d,
hardware store,Sekolah,SDK Bali Loura,"H7JW+2VV, Ramma Dana, Kec. Loura, Kabupaten Sumba Barat Daya, Nusa Tenggara Tim.","Kabupaten Sumba Barat Daya, Nusa Tenggara Tim.",NUSA TENGGARA TIMUR,,Indonesia,,,,-9.4198754,119.2971849,https://maps.google.com/?cid=0x0:0x28ca07080327b9,
hardware store,hardware store,Nusa Tenggara Tim. 87253,"Raba Engge, Kec. Wewewa Bar., Kabupaten Sumba Barat Daya, Nusa Tenggara Tim.","Kabupaten Sumba Barat Daya, Nusa Tenggara Tim.",NUSA TENGGARA TIMUR,,Indonesia,,,,-9.5600081,119.2279835,https://maps.google.com/?cid=0x0:0x408cc62c8b3addfc,
hardware store,Toko,Toko Cinta Indah,"F7FJ+JGG, Limbu Watu,, Wee Kokora, Kec. Wewewa Tengah, Kabupaten Sumba Barat Daya, Nusa Tenggara Tim.","Kabupaten Sumba Barat Daya, Nusa Tenggara Tim.",NUSA TENGGARA TIMUR,,Indonesia,81353480750.0,,,-9.5259324,119.2813262,https://maps.google.com/?cid=0x0:0xfdd070a95cfb0d00,
hardware store,Toko Bahan Bangunan,Toko Nuansa Bangunan Dan Tehnik,"9C75+HG9, Wailiang, Kec. Kota Waikabubak, Kabupaten Sumba Barat, Nusa Tenggara Tim.","Kabupaten Sumba Barat, Nusa Tenggara Tim.",NUSA TENGGARA TIMUR,,Indonesia,81339419509.0,,,-9.6360822,119.4088515,https://maps.google.com/?cid=0x0:0xa546d9dc5012925e,
hardware store,hardware store,Toko asro,"F6VH+PR8, Unnamed Road, Waimangura, Kec. Wewewa Bar., Kabupaten Sumba Barat Daya, Nusa Tenggara Tim.","Kabupaten Sumba Barat Daya, Nusa Tenggara Tim.",NUSA TENGGARA TIMUR,,Indonesia,,,,-9.5057123,119.2295808,https://maps.google.com/?cid=0x0:0xad8e8f98edb828c5,
hardware store,Toko,Toko Cinta Indah,"F7FJ+JGG, Limbu Watu,, Wee Kokora, Kec. Wewewa Tengah, Kabupaten Sumba Barat Daya, Nusa Tenggara Tim.","Kabupaten Sumba Barat Daya, Nusa Tenggara Tim.",NUSA TENGGARA TIMUR,,Indonesia,81353480750.0,,,-9.5259324,119.2813262,https://maps.google.com/?cid=0x0:0xfdd070a95cfb0d00,
hardware store,Toko umum,Toko berkat indah(manecka,"F79R+C5H, Kanelu, Kec. Wewewa Tengah, Kabupaten Sumba Barat Daya, Nusa Tenggara Tim.","Kabupaten Sumba Barat Daya, Nusa Tenggara Tim.",NUSA TENGGARA TIMUR,,Indonesia,,,,-9.5314222,119.2904859,https://maps.google.com/?cid=0x0:0x466327b06998f999,
hardware store,hardware store,Kec. Wewewa Tengah,"Kabupaten Sumba Barat Daya, Nusa Tenggara Tim.","Kabupaten Sumba Barat Daya, Nusa Tenggara Tim.",NUSA TENGGARA TIMUR,,Indonesia,,,,-9.532605,119.2909927,https://maps.google.com/?cid=0x0:0x6f978c8d3fab9d28,
hardware store,Toko Bahan Bangunan,TOKO Sinar Galaxi,"H6CR+XJ8, Unnamed Road, Loura, Kabupaten Barat Daya, Nusa Tenggara Tim., Radamata, Kec. Loura, Kabupaten Sumba Barat Daya, Nusa Tenggara Tim.","Kabupaten Sumba Barat Daya, Nusa Tenggara Tim.",NUSA TENGGARA TIMUR,,Indonesia,,,,-9.427579,119.2415805,https://maps.google.com/?cid=0x0:0x50d8175272a243a8,
hardware store,Toko Perlengkapan Rumah,Saudara Bangunan,"9C43+5CV, Wee Karou, Kec. Loli, Kabupaten Sumba Barat, Nusa Tenggara Tim.","Kabupaten Sumba Barat, Nusa Tenggara Tim.",NUSA TENGGARA TIMUR,,Indonesia,,,,-9.6445021,119.403561,https://maps.google.com/?cid=0x0:0xbd0bec82e2e0b21f,
hardware store,Toko Bahan Bangunan,Toko Duta Bangunan,"CH3M+GQ8, Wai Rasa, Kec. Umbu Ratu Nggay Bar., Kabupaten Sumba Tengah, Nusa Tenggara Tim.","Kabupaten Sumba Tengah, Nusa Tenggara Tim.",NUSA TENGGARA TIMUR,,Indonesia,,,,-9.5962137,119.5844623,https://maps.google.com/?cid=0x0:0x7e609489f14c4fbb,
hardware store,Toko Suku Cadang Mobil,Sumba barat daya,"C8P6+JFP, jln, Omba Rade, Kec. Wewewa Tengah, Kabupaten Sumba Barat Daya, Nusa Tenggara Tim.","Kabupaten Sumba Barat Daya, Nusa Tenggara Tim.",NUSA TENGGARA TIMUR,,Indonesia,,,,-9.5634076,119.3112119,https://maps.google.com/?cid=0x0:0xe0ab42aa384c3ab5,
hardware store,Toko Bahan Bangunan,Toko Nuansa Bangunan Dan Tehnik,"9C75+HG9, Wailiang, Kec. Kota Waikabubak, Kabupaten Sumba Barat, Nusa Tenggara Tim.","Kabupaten Sumba Barat, Nusa Tenggara Tim.",NUSA TENGGARA TIMUR,,Indonesia,81339419509.0,,,-9.6360822,119.4088515,https://maps.google.com/?cid=0x0:0xa546d9dc5012925e,
hardware store,hardware store,Kec. Wewewa Tim.,"Kabupaten Sumba Barat Daya, Nusa Tenggara Tim.","Kabupaten Sumba Barat Daya, Nusa Tenggara Tim.",NUSA TENGGARA TIMUR,,Indonesia,,,,-9.5922479,119.3511009,https://maps.google.com/?cid=0x0:0x69ead4906c239f2b,
hardware store,Toko Perlengkapan Rumah,Saudara Bangunan,"9C43+5CV, Wee Karou, Kec. Loli, Kabupaten Sumba Barat, Nusa Tenggara Tim.","Kabupaten Sumba Barat, Nusa Tenggara Tim.",NUSA TENGGARA TIMUR,,Indonesia,,,,-9.6445021,119.403561,https://maps.google.com/?cid=0x0:0xbd0bec82e2e0b21f,
hardware store,Toko Bahan Bangunan,Toko Sentosa Jaya,"Jl. Bhayangkara No.38, Komerda, Kec. Kota Waikabubak, Kabupaten Sumba Barat, Nusa Tenggara Tim.","Kabupaten Sumba Barat, Nusa Tenggara Tim.",NUSA TENGGARA TIMUR,,Indonesia,38721381.0,,,-9.6289424,119.4079712,https://maps.google.com/?cid=0x0:0x383aa15223e6032a,
hardware store,Toko Bahan Bangunan,Toko Lima Bintang Bangunan,"Jl. Ring Road Waikabubak, Pada Eweta, Kec. Kota Waikabubak, Kabupaten Sumba Barat, Nusa Tenggara Tim.","Kabupaten Sumba Barat, Nusa Tenggara Tim.",NUSA TENGGARA TIMUR,,Indonesia,81236835505.0,,,-9.6253098,119.389322,https://maps.google.com/?cid=0x0:0x2400e10b9df95a55,
hardware store,Toko Perlengkapan Rumah,MR.DIY,"Jl. Ahmad Yani, Wailiang, Kec. Kota Waikabubak, Kabupaten Sumba Barat, Nusa Tenggara Tim. 87217","Wailiang, Kec. Kota Waikabubak, Kabupaten Sumba Barat",NUSA TENGGARA TIMUR,87217.0,Indonesia,,,,-9.6406488,119.4078019,https://maps.google.com/?cid=0x0:0x34d1943d35c76109,
hardware store,,Sumba barat daya,"C8J8+CRX, Jl. Raya Elopada, Kalembu Ndara Mane, Kec. Wewewa Tim., Kabupaten Sumba Barat Daya, Nusa Tenggara Tim.","Kabupaten Sumba Barat Daya, Nusa Tenggara Tim.",NUSA TENGGARA TIMUR,,Indonesia,,,,-9.5688765,119.3171178,https://maps.google.com/?cid=0x0:0x7254d55c96897af0,
hardware store,Toko Bahan Bangunan,Merdeka,"Jl. Bhayangkara No.38, Komerda, Kec. Kota Waikabubak, Kabupaten Sumba Barat, Nusa Tenggara Tim.","Kabupaten Sumba Barat, Nusa Tenggara Tim.",NUSA TENGGARA TIMUR,,Indonesia,,,,-9.6287962,119.4078268,https://maps.google.com/?cid=0x0:0xdc5a3c120ad9d757,
hardware store,Layanan cetak digital,Toko Warna Jaya,"9C86+486, Maliti, Kec. Kota Waikabubak, Kabupaten Sumba Barat, Nusa Tenggara Tim.","Kabupaten Sumba Barat, Nusa Tenggara Tim.",NUSA TENGGARA TIMUR,,Indonesia,81239790872.0,,,-9.6347144,119.4107582,https://maps.google.com/?cid=0x0:0xd0d6f67295df80d3,
hardware store,Toko Bahan Bangunan,TOKO Sinar Galaxi,"H6CR+XJ8, Unnamed Road, Loura, Kabupaten Barat Daya, Nusa Tenggara Tim., Radamata, Kec. Loura, Kabupaten Sumba Barat Daya, Nusa Tenggara Tim.","Kabupaten Sumba Barat Daya, Nusa Tenggara Tim.",NUSA TENGGARA TIMUR,,Indonesia,,,,-9.427579,119.2415805,https://maps.google.com/?cid=0x0:0x50d8175272a243a8,
hardware store,Kantor Pos,Elopada,"Jl No.Km 12, Kalembu Ndara Mane, Kec. Wewewa Tim., Kabupaten Sumba Barat, Nusa Tenggara Tim.","Kabupaten Sumba Barat, Nusa Tenggara Tim.",NUSA TENGGARA TIMUR,,Indonesia,,,,-9.5798375,119.3256094,https://maps.google.com/?cid=0x0:0xacbe9ad64b54bcf,
hardware store,Kontraktor Umum,INDONUSA GORDEN,"jl. Manda elu/perkelembung, kelurahanWailiang, Wailiang, Kec. Kota Waikabubak, Kabupaten Sumba Barat, Nusa Tenggara Tim.","Kabupaten Sumba Barat, Nusa Tenggara Tim.",NUSA TENGGARA TIMUR,,Indonesia,82359439949.0,,,-9.6332037,119.4097046,https://maps.google.com/?cid=0x0:0x6e5e40d1da54cd03,
hardware store,hardware store,Mercy Bangunan,"Kalembu Ndara Mane, Kec. Wewewa Tim., Kabupaten Sumba Barat Daya, Nusa Tenggara Tim.","Kabupaten Sumba Barat Daya, Nusa Tenggara Tim.",NUSA TENGGARA TIMUR,,Indonesia,,,,-9.5823571,119.3283405,https://maps.google.com/?cid=0x0:0x4ff93ebb188519e,
hardware store,Toko Elektronik,Socco Cell,"9C75+G48, Wailiang, Kec. Kota Waikabubak, Kabupaten Sumba Barat, Nusa Tenggara Tim.","Kabupaten Sumba Barat, Nusa Tenggara Tim.",NUSA TENGGARA TIMUR,,Indonesia,,,,-9.6362096,119.4078154,https://maps.google.com/?cid=0x0:0x34e70c6325fa0cfc,
hardware store,Toko Elektronik,Global Teknik Waikabubak,"KM2-Sebelah Bank BNI, Jalan Bhayangkara, Komerda, Pada Eweta","Kabupaten Sumba Barat, Nusa Tenggara Tim.",NUSA TENGGARA TIMUR,,Indonesia,85208522022.0,,,-9.6276322,119.4062492,https://maps.google.com/?cid=0x0:0x80f27e8262a61441,
hardware store,Sekolah Menengah Kejuruan,Yayasan Tunas Timur,"C8CM+V3V, Kalembu Ndara Mane, Kec. Wewewa Tim., Kabupaten Sumba Barat Daya, Nusa Tenggara Tim.","Kabupaten Sumba Barat Daya, Nusa Tenggara Tim.",NUSA TENGGARA TIMUR,,Indonesia,,,,-9.5777623,119.3326733,https://maps.google.com/?cid=0x0:0x42ecccd81d6f5896,
hardware store,Sekolah,SMK Swasta Tunas Timur,"C8CM+P56, Kalembu Ndara Mane, Kec. Wewewa Tim., Kabupaten Sumba Barat Daya, Nusa Tenggara Tim.","Kabupaten Sumba Barat Daya, Nusa Tenggara Tim.",NUSA TENGGARA TIMUR,,Indonesia,,,,-9.5782119,119.3328872,https://maps.google.com/?cid=0x0:0xe5f18930bfff72ad,
hardware store,Toko Elektronik,Azizah Handphone Shop,"9C75+WM2, Wailiang, Kec. Kota Waikabubak, Kabupaten Sumba Barat, Nusa Tenggara Tim.","Kabupaten Sumba Barat, Nusa Tenggara Tim.",NUSA TENGGARA TIMUR,,Indonesia,82145253999.0,,,-9.6352302,119.4091395,https://maps.google.com/?cid=0x0:0xcf9f546a46e6af65,
hardware store,Toko,Kios Amin,"9C76+23C, Maliti, Kec. Kota Waikabubak, Kabupaten Sumba Barat, Nusa Tenggara Tim.","Kabupaten Sumba Barat, Nusa Tenggara Tim.",NUSA TENGGARA TIMUR,,Indonesia,,,,-9.6375728,119.4101177,https://maps.google.com/?cid=0x0:0x5d98f5b71e9045a,
hardware store,Rumah Sakit,Puskesmas Elopada,"C8J8+WWW, Desa, Kab, Kalembu Ndara Mane, Kec. Wewewa Tim., Kabupaten Sumba Barat Daya, Nusa Tenggara Tim.","Kabupaten Sumba Barat Daya, Nusa Tenggara Tim.",NUSA TENGGARA TIMUR,,Indonesia,,,,-9.5676373,119.3173133,https://maps.google.com/?cid=0x0:0xb57601ceed8b4ec3,
hardware store,Toko Elektronik,PLATINUM CELL WAIKABUBAK,"9C55+P57, Jl. Ahmad Yani, Wailiang, Kec. Loli, Kabupaten Sumba Barat, Nusa Tenggara Tim.","Kabupaten Sumba Barat, Nusa Tenggara Tim.",NUSA TENGGARA TIMUR,,Indonesia,,,,-9.6407138,119.4079315,https://maps.google.com/?cid=0x0:0xf28130b0bbd49059,
hardware store,Toko,Toko Cinta Indah,"F7FJ+JGG, Limbu Watu,, Wee Kokora, Kec. Wewewa Tengah, Kabupaten Sumba Barat Daya, Nusa Tenggara Tim.","Kabupaten Sumba Barat Daya, Nusa Tenggara Tim.",NUSA TENGGARA TIMUR,,Indonesia,81353480750.0,,,-9.5259324,119.2813262,https://maps.google.com/?cid=0x0:0xfdd070a95cfb0d00,
hardware store,Toko umum,Toko berkat indah(manecka,"F79R+C5H, Kanelu, Kec. Wewewa Tengah, Kabupaten Sumba Barat Daya, Nusa Tenggara Tim.","Kabupaten Sumba Barat Daya, Nusa Tenggara Tim.",NUSA TENGGARA TIMUR,,Indonesia,,,,-9.5314222,119.2904859,https://maps.google.com/?cid=0x0:0x466327b06998f999,
toko bangunan,toko bangunan,Nusa Tenggara Tim.,,Nusa Tenggara Tim.,NUSA TENGGARA TIMUR,,Indonesia,,,,-8.6573819,121.0793705,https://maps.google.com/?cid=0x0:0x1030bfbcaf71ae0,
toko bangunan,Toko Perlengkapan Rumah,Saudara Bangunan,"9C43+5CV, Wee Karou, Kec. Loli, Kabupaten Sumba Barat, Nusa Tenggara Tim.","Kabupaten Sumba Barat, Nusa Tenggara Tim.",NUSA TENGGARA TIMUR,,Indonesia,,,,-9.6445021,119.403561,https://maps.google.com/?cid=0x0:0xbd0bec82e2e0b21f,
toko bangunan,Toko Bahan Bangunan,Toko Graha Bangunan,"Gedung Graha Ariadi, Oesapa Bar., Kec. Klp. Lima, Kota Kupang, Nusa Tenggara Tim. 85228","Oesapa Bar., Kec. Klp. Lima, Kota Kupang",NUSA TENGGARA TIMUR,85228.0,Indonesia,81312893723.0,,,-10.1468703,123.631267,https://maps.google.com/?cid=0x0:0x4167d73ee95fc845,
toko bangunan,Pemasok Pipa,Toko Bangunan,"Manulai II, Kec. Alak, Kota Kupang, Nusa Tenggara Tim.","Kota Kupang, Nusa Tenggara Tim.",NUSA TENGGARA TIMUR,,Indonesia,85123255522.0,,,-10.213815,123.5749527,https://maps.google.com/?cid=0x0:0x5559349e9e4fc36f,
toko bangunan,Pemasok Pipa,Toko Bangunan Kim 5,"VM68+QFC, Jl. Terusan Timor Raya, Lasiana, Kec. Klp. Lima, Kota Kupang, Nusa Tenggara Tim.","Kota Kupang, Nusa Tenggara Tim.",NUSA TENGGARA TIMUR,,Indonesia,,,,-10.1380642,123.6661317,https://maps.google.com/?cid=0x0:0x57d9219b49c66921,
toko bangunan,Toko Bahan Bangunan,Toko Cipta Bangunan,"Wolomarang, Kec. Alok Bar., Kabupaten Sikka, Nusa Tenggara Tim.","Kabupaten Sikka, Nusa Tenggara Tim.",NUSA TENGGARA TIMUR,,Indonesia,81231842348.0,,,-8.6105049,122.1996912,https://maps.google.com/?cid=0x0:0x1d786c0067a3953f,
toko bangunan,Toko Bahan Bangunan,Toko Nuansa Bangunan Dan Tehnik,"9C75+HG9, Wailiang, Kec. Kota Waikabubak, Kabupaten Sumba Barat, Nusa Tenggara Tim.","Kabupaten Sumba Barat, Nusa Tenggara Tim.",NUSA TENGGARA TIMUR,,Indonesia,81339419509.0,,,-9.6360822,119.4088515,https://maps.google.com/?cid=0x0:0xa546d9dc5012925e,
toko bangunan,Toko Bahan Bangunan,Toko Bangunan Jaya,"Jl. Terusan Timor Raya No.9u KM. 6, Oesapa Bar., Kec. Klp. Lima, Kota Kupang, Nusa Tenggara Tim.","Kota Kupang, Nusa Tenggara Tim.",NUSA TENGGARA TIMUR,,Indonesia,81338567839.0,,,-10.14441,123.6254719,https://maps.google.com/?cid=0x0:0x4a94c89160bbe62c,
toko bangunan,Toko Perlengkapan Rumah,Toko Karya Bangunan,"RJQV+H9Q, Jl. Bumi I, Oesapa Sel., Kec. Klp. Lima, Kota Kupang, Nusa Tenggara Tim.","Kota Kupang, Nusa Tenggara Tim.",NUSA TENGGARA TIMUR,,Indonesia,,,,-10.1610333,123.6434727,https://maps.google.com/?cid=0x0:0x480107de15c2a6cf,
toko bangunan,Toko Bahan Bangunan,Toko bangunan,"VM4C+R79, Lasiana, Kec. Klp. Lima, Kota Kupang, Nusa Tenggara Tim.","Kota Kupang, Nusa Tenggara Tim.",NUSA TENGGARA TIMUR,,Indonesia,,,,-10.142954,123.6707233,https://maps.google.com/?cid=0x0:0xb111458939496520,
toko bangunan,Pemasok Pipa,Toko Buana Bangunan,"Lasiana, Kec. Klp. Lima, Kota Kupang, Nusa Tenggara Tim.","Kota Kupang, Nusa Tenggara Tim.",NUSA TENGGARA TIMUR,,Indonesia,82244376888.0,,,-10.1373266,123.6764484,https://maps.google.com/?cid=0x0:0x9fc6cad7dda4e71a,
toko bangunan,Toko Bahan Bangunan,Toko Duta Bangunan,"CH3M+GQ8, Wai Rasa, Kec. Umbu Ratu Nggay Bar., Kabupaten Sumba Tengah, Nusa Tenggara Tim.","Kabupaten Sumba Tengah, Nusa Tenggara Tim.",NUSA TENGGARA TIMUR,,Indonesia,,,,-9.5962137,119.5844623,https://maps.google.com/?cid=0x0:0x7e609489f14c4fbb,
toko bangunan,Toko Bahan Bangunan,Toko Metro Bangunan,"Jl. Pulau Indah, Oesapa Bar., Kec. Klp. Lima, Kota Kupang, Nusa Tenggara Tim. 85228","Oesapa Bar., Kec. Klp. Lima, Kota Kupang",NUSA TENGGARA TIMUR,85228.0,Indonesia,82164218639.0,,,-10.1488046,123.6344972,https://maps.google.com/?cid=0x0:0x4afb0da23e208afb,
toko bangunan,Pemasok Bahan Bangunan,Toko Hero Bangunan,"Toko Hero Bangunan, Tini, Manuaman, Kec. Kota Atambua, Kabupaten Belu, Nusa Tenggara Tim. 85712","Tini, Manuaman, Kec. Kota Atambua, Kabupaten Belu",NUSA TENGGARA TIMUR,85712.0,Indonesia,82221202985.0,,,-9.1117919,124.8871833,https://maps.google.com/?cid=0x0:0xb79f7fc42724fd10,
toko bangunan,Toko Bahan Bangunan,Toko Duta Bangunan,"GFMJ+896, Benpasi, Kec. Kota Kefamenanu, Kabupaten Timor Tengah Utara, Nusa Tenggara Tim.","Kabupaten Timor Tengah Utara, Nusa Tenggara Tim.",NUSA TENGGARA TIMUR,,Indonesia,8113827627.0,,,-9.4667226,124.4808961,https://maps.google.com/?cid=0x0:0x7bd4b59644a2a0bd,
toko bangunan,Toko Bahan Bangunan,Toko Bravo Bangunan,"Jl. Terusan Timor Raya, Pasir Panjang, Kec. Kota Lama, Kota Kupang, Nusa Tenggara Tim. 85000","Pasir Panjang, Kec. Kota Lama, Kota Kupang",NUSA TENGGARA TIMUR,85000.0,Indonesia,81246295800.0,,,-10.1509378,123.6033391,https://maps.google.com/?cid=0x0:0xdf4da131f9948aff,
toko bangunan,Toko Bahan Bangunan,toko sinar bangunan (ende),"5J3V+MWW, Kel. Mbongawani, Kec. Ende Sel., Kabupaten Ende, Nusa Tenggara Tim.","Kabupaten Ende, Nusa Tenggara Tim.",NUSA TENGGARA TIMUR,,Indonesia,38121454.0,,,-8.8457706,121.6448129,https://maps.google.com/?cid=0x0:0x286f8de860e51520,
toko bangunan,Toko Bahan Bangunan,TOKO MUTIARA BANGUNAN,"JALAN R. W. MONGINSIDI Jl. Boanawa, Kel. Mbongawani, Kec. Ende Sel., Kabupaten Ende, Nusa Tenggara Tim. 86318","Kel. Mbongawani, Kec. Ende Sel., Kabupaten Ende",NUSA TENGGARA TIMUR,86318.0,Indonesia,82342055794.0,,,-8.8505091,121.649829,https://maps.google.com/?cid=0x0:0xd3b67f3d4b660364,
toko bangunan,Toko Bahan Bangunan,toko gloria bangunan,"Jl. Kemakmuran No.14, Kel. Mbongawani, Kec. Ende Sel., Kabupaten Ende, Nusa Tenggara Tim.","Kabupaten Ende, Nusa Tenggara Tim.",NUSA TENGGARA TIMUR,,Indonesia,81331006673.0,,,-8.8465826,121.644941,https://maps.google.com/?cid=0x0:0xe6e6044a0d0864ee,
toko bangunan,Toko Bahan Bangunan,UD. Fajar Bangunan ENDE,"Jl. Ahmad Yani, Kel. Kelimutu, Kec. Ende Tengah, Kabupaten Ende, Nusa Tenggara Tim.","Kabupaten Ende, Nusa Tenggara Tim.",NUSA TENGGARA TIMUR,,Indonesia,82155194068.0,,,-8.8481109,121.6573345,https://maps.google.com/?cid=0x0:0x8a620756dd470b99,
toko bangunan,Toko Bahan Bangunan,Toko Lima Bintang Bangunan,"Jl. Ring Road Waikabubak, Pada Eweta, Kec. Kota Waikabubak, Kabupaten Sumba Barat, Nusa Tenggara Tim.","Kabupaten Sumba Barat, Nusa Tenggara Tim.",NUSA TENGGARA TIMUR,,Indonesia,81236835505.0,,,-9.6253098,119.389322,https://maps.google.com/?cid=0x0:0x2400e10b9df95a55,
toko bangunan,Toko,KASIH BERKAT,"Walla Ndimu, Kec. Kodi Bangedo, Kabupaten Sumba Barat Daya, Nusa Tenggara Tim. 87264","Kec. Kodi Bangedo, Kabupaten Sumba Barat Daya",NUSA TENGGARA TIMUR,87264.0,Indonesia,81335789980.0,,,-9.6260985,119.0411577,https://maps.google.com/?cid=0x0:0xe29ea410343cacdf,
toko bangunan,Toko Bahan Bangunan,Toko Cat  Bangunan : MAKMUR BANGUNAN,"Jl. Percetakan Negara No.66D, Johar Baru, Kec. Johar Baru, Kota Jakarta Pusat, Daerah Khusus Ibukota Jakarta 10560","Johar Baru, Kec. Johar Baru, Kota Jakarta Pusat",NUSA TENGGARA TIMUR,10560.0,Indonesia,87885709000.0,,,-6.1881347,106.8633217,https://maps.google.com/?cid=0x0:0x7d97590353e5c577,
toko bangunan,Toko Bahan Bangunan,Cibodas Jaya Matrial / Hardware,"Jl. Gatot Subroto No.127, Cibodas, Kec. Cibodas, Kota Tangerang, Banten 15132","Cibodas, Kec. Cibodas, Kota Tangerang",NUSA TENGGARA TIMUR,15132.0,Indonesia,215518733.0,,,-6.1884494,106.6040994,https://maps.google.com/?cid=0x0:0x281d7e2cd6a366b0,
toko bangunan,Toko Bahan Bangunan,Toko bangunan Karya Makmur,"blok a8, Jl. Pd. Kelapa Raya No.4, RT.2/RW.4, Pd. Klp., Kec. Duren Sawit, Kota Jakarta Timur, Daerah Khusus Ibukota Jakarta 13450","Jl. Pd. Kelapa Raya No.4, RT.2/RW.4, Pd. Klp., Kec. Duren Sawit, Kota Jakarta Timur",NUSA TENGGARA TIMUR,13450.0,Indonesia,218640676.0,,,-6.2464234,106.9349386,https://maps.google.com/?cid=0x0:0xbf6513d7165638eb,
toko bangunan,Pemasok Bahan Bangunan,Depo Bangunan Tangerang Selatan,"Jl. Raya Serpong No.KM.2, Pakulonan, Kec. Serpong Utara, Kota Tangerang Selatan, Banten 15325","Pakulonan, Kec. Serpong Utara, Kota Tangerang Selatan",NUSA TENGGARA TIMUR,15325.0,Indonesia,2153120808.0,,,-6.2407101,106.6492227,https://maps.google.com/?cid=0x0:0x9a4b22c9292d3f53,
toko bangunan,Toko Bahan Bangunan,Toko Material EL Bangunan,"Jl. Prabu Kian Santang Kelurahan, RT.005/RW.004, Sangiang Jaya, Kec. Periuk, Kota Tangerang, Banten 15138","RT.005/RW.004, Sangiang Jaya, Kec. Periuk, Kota Tangerang",NUSA TENGGARA TIMUR,15138.0,Indonesia,85775156335.0,,,-6.1719718,106.5998893,https://maps.google.com/?cid=0x0:0x41c86bfde0cdac18,
toko bangunan,Toko Bahan Bangunan,Toko Tiga Bintang,"Jalan Prabu Siliwangi Raya #113 Perum 4 Cibodas, RT.003/RW.001, Cibodas Baru, Kec. Cibodas, Kota Tangerang, Banten 15138","RT.003/RW.001, Cibodas Baru, Kec. Cibodas, Kota Tangerang",NUSA TENGGARA TIMUR,15138.0,Indonesia,,,,-6.1988897,106.602371,https://maps.google.com/?cid=0x0:0xf32034d3d9934e8,
toko bangunan,Toko Bahan Bangunan,Cipta Bangunan Toko,"Jl. Bogor Raya Km 19%2F3 Kramat Jati Kramat Jati Jakarta Timur DKI Jakarta, RT.2/RW.4, Kramat Jati, Kec. Kramat jati, Kota Jakarta Timur, Daerah Khusus Ibukota Jakarta 13640","RT.2/RW.4, Kramat Jati, Kec. Kramat jati, Kota Jakarta Timur",NUSA TENGGARA TIMUR,13640.0,Indonesia,218095517.0,,,-6.2676494,106.8662234,https://maps.google.com/?cid=0x0:0xd5863123a1e9421b,
toko bangunan,toko bangunan,Kec. Kodi Balaghar,"Kabupaten Sumba Barat Daya, Nusa Tenggara Tim.","Kabupaten Sumba Barat Daya, Nusa Tenggara Tim.",NUSA TENGGARA TIMUR,,Indonesia,,,,-9.6674786,119.0525222,https://maps.google.com/?cid=0x0:0x553cbf3de56efc03,
toko bangunan,Toko Perlengkapan Rumah,Saudara Bangunan,"9C43+5CV, Wee Karou, Kec. Loli, Kabupaten Sumba Barat, Nusa Tenggara Tim.","Kabupaten Sumba Barat, Nusa Tenggara Tim.",NUSA TENGGARA TIMUR,,Indonesia,,,,-9.6445021,119.403561,https://maps.google.com/?cid=0x0:0xbd0bec82e2e0b21f,
toko bangunan,Toko,KASIH BERKAT,"Walla Ndimu, Kec. Kodi Bangedo, Kabupaten Sumba Barat Daya, Nusa Tenggara Tim. 87264","Kec. Kodi Bangedo, Kabupaten Sumba Barat Daya",NUSA TENGGARA TIMUR,87264.0,Indonesia,81335789980.0,,,-9.6260985,119.0411577,https://maps.google.com/?cid=0x0:0xe29ea410343cacdf,
toko bangunan,Toko Kayu,Sumber kasih,"Walla Ndimu, Kec. Kodi Bangedo, Kabupaten Sumba Barat Daya, Nusa Tenggara Tim. 87255","Kec. Kodi Bangedo, Kabupaten Sumba Barat Daya",NUSA TENGGARA TIMUR,87255.0,Indonesia,81219169550.0,,,-9.6244052,119.0413814,https://maps.google.com/?cid=0x0:0xb16d2da5182d6d1e,
toko bangunan,Toko Bahan Bangunan,Toko Nuansa Bangunan Dan Tehnik,"9C75+HG9, Wailiang, Kec. Kota Waikabubak, Kabupaten Sumba Barat, Nusa Tenggara Tim.","Kabupaten Sumba Barat, Nusa Tenggara Tim.",NUSA TENGGARA TIMUR,,Indonesia,81339419509.0,,,-9.6360822,119.4088515,https://maps.google.com/?cid=0x0:0xa546d9dc5012925e,
toko bangunan,toko bangunan,Kec. Kodi Bangedo,"Kabupaten Sumba Barat Daya, Nusa Tenggara Tim.","Kabupaten Sumba Barat Daya, Nusa Tenggara Tim.",NUSA TENGGARA TIMUR,,Indonesia,,,,-9.6026813,119.0171447,https://maps.google.com/?cid=0x0:0x3bbfbd9e4fb43622,
toko bangunan,Toko,KASIH BERKAT,"Walla Ndimu, Kec. Kodi Bangedo, Kabupaten Sumba Barat Daya, Nusa Tenggara Tim. 87264","Kec. Kodi Bangedo, Kabupaten Sumba Barat Daya",NUSA TENGGARA TIMUR,87264.0,Indonesia,81335789980.0,,,-9.6260985,119.0411577,https://maps.google.com/?cid=0x0:0xe29ea410343cacdf,
toko bangunan,Pusat Perbelanjaan,Toko Surya Gemilang,"CX4V+PR3, Unnamed Road, Nusa Tenggara Tim., Bondo Kodi, Kec. Kodi, Kabupaten Sumba Barat Daya, Nusa Tenggara Tim.","Kabupaten Sumba Barat Daya, Nusa Tenggara Tim.",NUSA TENGGARA TIMUR,,Indonesia,82334839824.0,,,-9.5932278,118.994537,https://maps.google.com/?cid=0x0:0x704ef2a057531580,
toko bangunan,toko bangunan,Kec. Kodi Utara,"Kabupaten Sumba Barat Daya, Nusa Tenggara Tim.","Kabupaten Sumba Barat Daya, Nusa Tenggara Tim.",NUSA TENGGARA TIMUR,,Indonesia,,,,-9.5201893,119.0312709,https://maps.google.com/?cid=0x0:0xc02655b0903b58a2,
toko bangunan,Toko Perlengkapan Rumah,Saudara Bangunan,"9C43+5CV, Wee Karou, Kec. Loli, Kabupaten Sumba Barat, Nusa Tenggara Tim.","Kabupaten Sumba Barat, Nusa Tenggara Tim.",NUSA TENGGARA TIMUR,,Indonesia,,,,-9.6445021,119.403561,https://maps.google.com/?cid=0x0:0xbd0bec82e2e0b21f,
toko bangunan,Toko,KASIH BERKAT,"Walla Ndimu, Kec. Kodi Bangedo, Kabupaten Sumba Barat Daya, Nusa Tenggara Tim. 87264","Kec. Kodi Bangedo, Kabupaten Sumba Barat Daya",NUSA TENGGARA TIMUR,87264.0,Indonesia,81335789980.0,,,-9.6260985,119.0411577,https://maps.google.com/?cid=0x0:0xe29ea410343cacdf,
toko bangunan,Pusat Perbelanjaan,Toko Surya Gemilang,"CX4V+PR3, Unnamed Road, Nusa Tenggara Tim., Bondo Kodi, Kec. Kodi, Kabupaten Sumba Barat Daya, Nusa Tenggara Tim.","Kabupaten Sumba Barat Daya, Nusa Tenggara Tim.",NUSA TENGGARA TIMUR,,Indonesia,82334839824.0,,,-9.5932278,118.994537,https://maps.google.com/?cid=0x0:0x704ef2a057531580,
toko bangunan,Pemasok Pipa,Toko Bangunan,"Manulai II, Kec. Alak, Kota Kupang, Nusa Tenggara Tim.","Kota Kupang, Nusa Tenggara Tim.",NUSA TENGGARA TIMUR,,Indonesia,85123255522.0,,,-10.213815,123.5749527,https://maps.google.com/?cid=0x0:0x5559349e9e4fc36f,
toko bangunan,Pemasok Pipa,Toko Bangunan Kim 5,"VM68+QFC, Jl. Terusan Timor Raya, Lasiana, Kec. Klp. Lima, Kota Kupang, Nusa Tenggara Tim.","Kota Kupang, Nusa Tenggara Tim.",NUSA TENGGARA TIMUR,,Indonesia,,,,-10.1380642,123.6661317,https://maps.google.com/?cid=0x0:0x57d9219b49c66921,
toko bangunan,Toko Bahan Bangunan,Toko Graha Bangunan,"Gedung Graha Ariadi, Oesapa Bar., Kec. Klp. Lima, Kota Kupang, Nusa Tenggara Tim. 85228","Oesapa Bar., Kec. Klp. Lima, Kota Kupang",NUSA TENGGARA TIMUR,85228.0,Indonesia,81312893723.0,,,-10.1468703,123.631267,https://maps.google.com/?cid=0x0:0x4167d73ee95fc845,
toko bangunan,Pemasok Bahan Bangunan,Indo Bangunan,"Jl. Taebenu, Liliba, Kec. Oebobo, Kota Kupang, Nusa Tenggara Tim. 85142","Liliba, Kec. Oebobo, Kota Kupang",NUSA TENGGARA TIMUR,85142.0,Indonesia,85198498181.0,,,-10.177757,123.6444948,https://maps.google.com/?cid=0x0:0xe79b41c05f57dec9,
toko bangunan,Toko Bahan Bangunan,Toko Cipta Bangunan,"Wolomarang, Kec. Alok Bar., Kabupaten Sikka, Nusa Tenggara Tim.","Kabupaten Sikka, Nusa Tenggara Tim.",NUSA TENGGARA TIMUR,,Indonesia,81231842348.0,,,-8.6105049,122.1996912,https://maps.google.com/?cid=0x0:0x1d786c0067a3953f,
toko bangunan,Toko Perlengkapan Rumah,Toko Karya Bangunan,"RJQV+H9Q, Jl. Bumi I, Oesapa Sel., Kec. Klp. Lima, Kota Kupang, Nusa Tenggara Tim.","Kota Kupang, Nusa Tenggara Tim.",NUSA TENGGARA TIMUR,,Indonesia,,,,-10.1610333,123.6434727,https://maps.google.com/?cid=0x0:0x480107de15c2a6cf,
toko bangunan,Pemasok Pipa,Toko Buana Bangunan,"Lasiana, Kec. Klp. Lima, Kota Kupang, Nusa Tenggara Tim.","Kota Kupang, Nusa Tenggara Tim.",NUSA TENGGARA TIMUR,,Indonesia,82244376888.0,,,-10.1373266,123.6764484,https://maps.google.com/?cid=0x0:0x9fc6cad7dda4e71a,
toko bangunan,Pemasok Bahan Bangunan,Toko Hero Bangunan,"Toko Hero Bangunan, Tini, Manuaman, Kec. Kota Atambua, Kabupaten Belu, Nusa Tenggara Tim. 85712","Tini, Manuaman, Kec. Kota Atambua, Kabupaten Belu",NUSA TENGGARA TIMUR,85712.0,Indonesia,82221202985.0,,,-9.1117919,124.8871833,https://maps.google.com/?cid=0x0:0xb79f7fc42724fd10,
toko bangunan,Toko,Toko Cinta Indah,"F7FJ+JGG, Limbu Watu,, Wee Kokora, Kec. Wewewa Tengah, Kabupaten Sumba Barat Daya, Nusa Tenggara Tim.","Kabupaten Sumba Barat Daya, Nusa Tenggara Tim.",NUSA TENGGARA TIMUR,,Indonesia,81353480750.0,,,-9.5259324,119.2813262,https://maps.google.com/?cid=0x0:0xfdd070a95cfb0d00,
toko bangunan,Toko Bahan Bangunan,Toko Bangunan Jaya,"Jl. Terusan Timor Raya No.9u KM. 6, Oesapa Bar., Kec. Klp. Lima, Kota Kupang, Nusa Tenggara Tim.","Kota Kupang, Nusa Tenggara Tim.",NUSA TENGGARA TIMUR,,Indonesia,81338567839.0,,,-10.14441,123.6254719,https://maps.google.com/?cid=0x0:0x4a94c89160bbe62c,
toko bangunan,Toko Bahan Bangunan,Toko bangunan,"VM4C+R79, Lasiana, Kec. Klp. Lima, Kota Kupang, Nusa Tenggara Tim.","Kota Kupang, Nusa Tenggara Tim.",NUSA TENGGARA TIMUR,,Indonesia,,,,-10.142954,123.6707233,https://maps.google.com/?cid=0x0:0xb111458939496520,
toko bangunan,Pusat Perbelanjaan,Indo Bangunan,"RMR7+GXF, Jl. Prof. Dr. Herman Johanes, Penfui, Kec. Kupang Tengah, Kabupaten Kupang, Nusa Tenggara Tim.","Kabupaten Kupang, Nusa Tenggara Tim.",NUSA TENGGARA TIMUR,,Indonesia,82146161359.0,,,-10.1586919,123.664932,https://maps.google.com/?cid=0x0:0x5bd2db62b6d4f924,
toko bangunan,Toko Bahan Bangunan,Toko Bravo Bangunan,"Jl. Terusan Timor Raya, Pasir Panjang, Kec. Kota Lama, Kota Kupang, Nusa Tenggara Tim. 85000","Pasir Panjang, Kec. Kota Lama, Kota Kupang",NUSA TENGGARA TIMUR,85000.0,Indonesia,81246295800.0,,,-10.1509378,123.6033391,https://maps.google.com/?cid=0x0:0xdf4da131f9948aff,
toko bangunan,Toko Bahan Bangunan,TOKO Sinar Galaxi,"H6CR+XJ8, Unnamed Road, Loura, Kabupaten Barat Daya, Nusa Tenggara Tim., Radamata, Kec. Loura, Kabupaten Sumba Barat Daya, Nusa Tenggara Tim.","Kabupaten Sumba Barat Daya, Nusa Tenggara Tim.",NUSA TENGGARA TIMUR,,Indonesia,,,,-9.427579,119.2415805,https://maps.google.com/?cid=0x0:0x50d8175272a243a8,
toko bangunan,Toko Bahan Bangunan,Toko Bangunan PD Karya Muda,"Jl. Sholeh Iskandar No.93, RT.04/RW.04, Cibadak, Kec. Tanah Sereal, Kota Bogor, Jawa Barat 16166","RT.04/RW.04, Cibadak, Kec. Tanah Sereal, Kota Bogor",NUSA TENGGARA TIMUR,16166.0,Indonesia,87776593530.0,,,-6.549167,106.774592,https://maps.google.com/?cid=0x0:0x224f3cf59830352c,
toko bangunan,Toko Bahan Bangunan,Toko bangunan universal,"Jl. Panjang Kp. Baru No.26, Sukabumi Sel., Kec. Kb. Jeruk, Kota Jakarta Barat, Daerah Khusus Ibukota Jakarta 11560","Sukabumi Sel., Kec. Kb. Jeruk, Kota Jakarta Barat",NUSA TENGGARA TIMUR,11560.0,Indonesia,8111900096.0,,,-6.2206237,106.7718805,https://maps.google.com/?cid=0x0:0x746b2fc239b96c2e,
toko bangunan,Toko Bahan Bangunan,ZK BANGUNAN,"PGR8+265, Mekar Bakti, Kec. Panongan, Kabupaten Tangerang, Banten 15710","Mekar Bakti, Kec. Panongan, Kabupaten Tangerang",NUSA TENGGARA TIMUR,15710.0,Indonesia,8977335168.0,,,-6.2601345,106.5155552,https://maps.google.com/?cid=0x0:0xd9460c00ed6609c,
toko bangunan,Toko Bahan Bangunan,Toko Bangunan Agung Jaya,"JL KH. Sholeh Iskandar (Jalan Baru), No. 168 Depan Rumah Makan Ampera,, Sesudah Bukit Cimanggu City, Kedung Jaya, Kedung Waringin, RT.05/RW.09, Kedung Jaya, Kec. Tanah Sereal, Kota Bogor, Jawa Barat 16163","No. 168 Depan Rumah Makan Ampera,, Sesudah Bukit Cimanggu City, Kedung Jaya, Kedung Waringin, RT.05/RW.09, Kedung Jaya, Kec. Tanah Sereal, Kota Bogor",NUSA TENGGARA TIMUR,16163.0,Indonesia,8179170666.0,,,-6.5583245,106.7841321,https://maps.google.com/?cid=0x0:0xf9b3de623d8a987d,
toko bangunan,Toko Bahan Bangunan,Toko bahan bangunan,"2, Jl. Cideng Timur No.67B, RT.2/RW.5, Petojo Sel., Kecamatan Gambir, Kota Jakarta Pusat, Daerah Khusus Ibukota Jakarta 10160","Jl. Cideng Timur No.67B, RT.2/RW.5, Petojo Sel., Kecamatan Gambir, Kota Jakarta Pusat",NUSA TENGGARA TIMUR,10160.0,Indonesia,,,,-6.1748884,106.8122399,https://maps.google.com/?cid=0x0:0x4ab134736945a1c9,
toko bangunan,toko bangunan,Kec. Kota Tambolaka,"Kabupaten Sumba Barat Daya, Nusa Tenggara Tim.","Kabupaten Sumba Barat Daya, Nusa Tenggara Tim.",NUSA TENGGARA TIMUR,,Indonesia,,,,-9.4295733,119.2387484,https://maps.google.com/?cid=0x0:0x9f73216af1e7222b,
toko bangunan,Toko Bahan Bangunan,Toko Aurora,"Jl. Timotius Tako Geli, Radamata, Kec. Kota Tambolaka, Kabupaten Sumba Barat Daya, Nusa Tenggara Tim. 87255","Radamata, Kec. Kota Tambolaka, Kabupaten Sumba Barat Daya",NUSA TENGGARA TIMUR,87255.0,Indonesia,85257823823.0,,,-9.4274792,119.2417716,https://maps.google.com/?cid=0x0:0x952628c1d397d0fe,
toko bangunan,Toko Swalayan,LANCAR JAYA,"Jl. Eltari, Radamata, Kec. Kota Tambolaka, Kabupaten Sumba Barat Daya, Nusa Tenggara Tim.","Kabupaten Sumba Barat Daya, Nusa Tenggara Tim.",NUSA TENGGARA TIMUR,,Indonesia,81252890816.0,,,-9.40697,119.2202219,https://maps.google.com/?cid=0x0:0xec5f51c552303ca5,
toko bangunan,Toko Perlengkapan Rumah,Toko Sinar Agape,"H666+GGR, Wee Londa, Kec. Loura, Kabupaten Sumba Barat Daya, Nusa Tenggara Tim.","Kabupaten Sumba Barat Daya, Nusa Tenggara Tim.",NUSA TENGGARA TIMUR,,Indonesia,,,,-9.4377597,119.2116926,https://maps.google.com/?cid=0x0:0x72469a669a6cf4b4,
toko bangunan,toko bangunan,Radamata,"J65H+4X, Radamata, Kec. Kota Tambolaka, Kabupaten Sumba Barat Daya, Nusa Tenggara Tim.","Kabupaten Sumba Barat Daya, Nusa Tenggara Tim.",NUSA TENGGARA TIMUR,,Indonesia,,,,-9.3922415,119.2299836,https://maps.google.com/?cid=0x0:0x81c9e1e7d904c939,
toko bangunan,Pasar bahan bangunan,Toko MERDEKA,"H7G2+R6G, Jl. Lede Kalumbang, Radamata, Kec. Loura, Kabupaten Sumba Barat Daya, Nusa Tenggara Tim.","Kabupaten Sumba Barat Daya, Nusa Tenggara Tim.",NUSA TENGGARA TIMUR,,Indonesia,8231112666.0,,,-9.4229293,119.2505741,https://maps.google.com/?cid=0x0:0x47fe9599655312f2,
toko bangunan,Toko Bahan Bangunan,Toko Lima Bintang Bangunan,"Jl. Ring Road Waikabubak, Pada Eweta, Kec. Kota Waikabubak, Kabupaten Sumba Barat, Nusa Tenggara Tim.","Kabupaten Sumba Barat, Nusa Tenggara Tim.",NUSA TENGGARA TIMUR,,Indonesia,81236835505.0,,,-9.6253098,119.389322,https://maps.google.com/?cid=0x0:0x2400e10b9df95a55,
toko bangunan,Toko Bahan Bangunan,TOKO Sinar Galaxi,"H6CR+XJ8, Unnamed Road, Loura, Kabupaten Barat Daya, Nusa Tenggara Tim., Radamata, Kec. Loura, Kabupaten Sumba Barat Daya, Nusa Tenggara Tim.","Kabupaten Sumba Barat Daya, Nusa Tenggara Tim.",NUSA TENGGARA TIMUR,,Indonesia,,,,-9.427579,119.2415805,https://maps.google.com/?cid=0x0:0x50d8175272a243a8,
toko bangunan,Toko,Rajawali Perkasa,"H64J+VQ2, Jl. Raja Yohanes Ngongo Bani, Wee Tobula, Kec. Kota Tambolaka, Kabupaten Sumba Barat Daya, Nusa Tenggara Tim.","Kabupaten Sumba Barat Daya, Nusa Tenggara Tim.",NUSA TENGGARA TIMUR,,Indonesia,,,,-9.4428683,119.2318977,https://maps.google.com/?cid=0x0:0xd5504482ff9c4f5b,
toko bangunan,toko bangunan,Nusa Tenggara Tim.,,Nusa Tenggara Tim.,NUSA TENGGARA TIMUR,,Indonesia,,,,-8.6573819,121.0793705,https://maps.google.com/?cid=0x0:0x1030bfbcaf71ae0,
toko bangunan,Toko Perlengkapan Rumah,Saudara Bangunan,"9C43+5CV, Wee Karou, Kec. Loli, Kabupaten Sumba Barat, Nusa Tenggara Tim.","Kabupaten Sumba Barat, Nusa Tenggara Tim.",NUSA TENGGARA TIMUR,,Indonesia,,,,-9.6445021,119.403561,https://maps.google.com/?cid=0x0:0xbd0bec82e2e0b21f,
toko bangunan,Toko Bahan Bangunan,Toko Nuansa Bangunan Dan Tehnik,"9C75+HG9, Wailiang, Kec. Kota Waikabubak, Kabupaten Sumba Barat, Nusa Tenggara Tim.","Kabupaten Sumba Barat, Nusa Tenggara Tim.",NUSA TENGGARA TIMUR,,Indonesia,81339419509.0,,,-9.6360822,119.4088515,https://maps.google.com/?cid=0x0:0xa546d9dc5012925e,
toko bangunan,Toko Perlengkapan Rumah,Toko Makmur Jaya Bangunan,"Jl. Bhayangkara, Pada Eweta, Kec. Kota Waikabubak, Kabupaten Sumba Barat, Nusa Tenggara Tim. 87217","Pada Eweta, Kec. Kota Waikabubak, Kabupaten Sumba Barat",NUSA TENGGARA TIMUR,87217.0,Indonesia,81339020447.0,,,-9.6259517,119.4038705,https://maps.google.com/?cid=0x0:0x2bfca63c0a2429f6,
toko bangunan,Toko Bahan Bangunan,Toko Duta Bangunan,"CH3M+GQ8, Wai Rasa, Kec. Umbu Ratu Nggay Bar., Kabupaten Sumba Tengah, Nusa Tenggara Tim.","Kabupaten Sumba Tengah, Nusa Tenggara Tim.",NUSA TENGGARA TIMUR,,Indonesia,,,,-9.5962137,119.5844623,https://maps.google.com/?cid=0x0:0x7e609489f14c4fbb,
toko bangunan,Pemasok Pipa,Toko Buana Bangunan,"Lasiana, Kec. Klp. Lima, Kota Kupang, Nusa Tenggara Tim.","Kota Kupang, Nusa Tenggara Tim.",NUSA TENGGARA TIMUR,,Indonesia,82244376888.0,,,-10.1373266,123.6764484,https://maps.google.com/?cid=0x0:0x9fc6cad7dda4e71a,
toko bangunan,Pemasok Bahan Bangunan,Toko Teratai,"Jl. Ahmad Yani No.35, Kamalaputi, Kec. Kota Waingapu, Kabupaten Sumba Timur, Nusa Tenggara Tim. 87111","Kamalaputi, Kec. Kota Waingapu, Kabupaten Sumba Timur",NUSA TENGGARA TIMUR,87111.0,Indonesia,81246421529.0,,,-9.6510393,120.2639995,https://maps.google.com/?cid=0x0:0xab03941a7bca64cc,
toko bangunan,Toko Bahan Bangunan,Toko Amerta,"Jl. Jend. Sudirman No.3, Kp. Sawah, Kec. Kota Waikabubak, Kabupaten Sumba Barat, Nusa Tenggara Tim.","Kabupaten Sumba Barat, Nusa Tenggara Tim.",NUSA TENGGARA TIMUR,,Indonesia,82122228701.0,,,-9.635767,119.4129349,https://maps.google.com/?cid=0x0:0xd990784987776293,
toko bangunan,Toko Bahan Bangunan,Toko bangunan,"VM4C+R79, Lasiana, Kec. Klp. Lima, Kota Kupang, Nusa Tenggara Tim.","Kota Kupang, Nusa Tenggara Tim.",NUSA TENGGARA TIMUR,,Indonesia,,,,-10.142954,123.6707233,https://maps.google.com/?cid=0x0:0xb111458939496520,
toko bangunan,Pemasok Pipa,Toko Bangunan Kim 5,"VM68+QFC, Jl. Terusan Timor Raya, Lasiana, Kec. Klp. Lima, Kota Kupang, Nusa Tenggara Tim.","Kota Kupang, Nusa Tenggara Tim.",NUSA TENGGARA TIMUR,,Indonesia,,,,-10.1380642,123.6661317,https://maps.google.com/?cid=0x0:0x57d9219b49c66921,
toko bangunan,Toko Bahan Bangunan,Toko Bravo Bangunan,"Jl. Terusan Timor Raya, Pasir Panjang, Kec. Kota Lama, Kota Kupang, Nusa Tenggara Tim. 85000","Pasir Panjang, Kec. Kota Lama, Kota Kupang",NUSA TENGGARA TIMUR,85000.0,Indonesia,81246295800.0,,,-10.1509378,123.6033391,https://maps.google.com/?cid=0x0:0xdf4da131f9948aff,
toko bangunan,Toko Perlengkapan Rumah,Toko Karya Bangunan,"RJQV+H9Q, Jl. Bumi I, Oesapa Sel., Kec. Klp. Lima, Kota Kupang, Nusa Tenggara Tim.","Kota Kupang, Nusa Tenggara Tim.",NUSA TENGGARA TIMUR,,Indonesia,,,,-10.1610333,123.6434727,https://maps.google.com/?cid=0x0:0x480107de15c2a6cf,
toko bangunan,Toko Perlengkapan Rumah,MR.DIY Waitabula,"JL. Raya Waitabula, Langga Lero, Kec. Kota Tambolaka, Kabupaten Sumba Barat Daya, Nusa Tenggara Tim. 87255","Langga Lero, Kec. Kota Tambolaka, Kabupaten Sumba Barat Daya",NUSA TENGGARA TIMUR,87255.0,Indonesia,,,,-9.4416462,119.2317649,https://maps.google.com/?cid=0x0:0xee8a6b4f3884289c,
toko bangunan,Toko Bahan Bangunan,Sinar Bangunan Building Center,"Jl. Bund. PU No.12, Tuak Daun Merah, Kec. Oebobo, Kota Kupang, Nusa Tenggara Tim. 85228","Tuak Daun Merah, Kec. Oebobo, Kota Kupang",NUSA TENGGARA TIMUR,85228.0,Indonesia,81236648694.0,,,-10.1675355,123.6289538,https://maps.google.com/?cid=0x0:0x8b34913a09e207d2,
toko bangunan,Area Mendaki,Toko Tambolaka Indah,"H6FV+MV6, Radamata, Kec. Loura, Kabupaten Sumba Barat Daya, Nusa Tenggara Tim.","Kabupaten Sumba Barat Daya, Nusa Tenggara Tim.",NUSA TENGGARA TIMUR,,Indonesia,,,,-9.4258341,119.2446325,https://maps.google.com/?cid=0x0:0xe5f24922072cc6dc,
toko bangunan,Pemasok Bahan Bangunan,T.B Santoso,"Campaka, Kec. Campaka, Kabupaten Purwakarta, Jawa Barat","Kabupaten Purwakarta, Jawa Barat",NUSA TENGGARA TIMUR,,Indonesia,,,,-6.5117875,107.4913266,https://maps.google.com/?cid=0x0:0xd506d39e255f9cca,
toko bangunan,Toko Bahan Bangunan,Toko Nuansa Bangunan Dan Tehnik Terlengkap,"H6CP+QWF, Radamata, Kec. Loura, Kabupaten Sumba Barat Daya, Nusa Tenggara Tim.","Kabupaten Sumba Barat Daya, Nusa Tenggara Tim.",NUSA TENGGARA TIMUR,,Indonesia,81339419509.0,,,-9.4280703,119.2372822,https://maps.google.com/?cid=0x0:0xb106164c739fec1b,
toko bangunan,toko bangunan,Kec. Loura,"Kabupaten Sumba Barat Daya, Nusa Tenggara Tim.","Kabupaten Sumba Barat Daya, Nusa Tenggara Tim.",NUSA TENGGARA TIMUR,,Indonesia,,,,-9.4214178,119.2970741,https://maps.google.com/?cid=0x0:0x49ebe3d33838ae6d,
toko bangunan,Toko Bahan Bangunan,Toko Aurora,"Jl. Timotius Tako Geli, Radamata, Kec. Kota Tambolaka, Kabupaten Sumba Barat Daya, Nusa Tenggara Tim. 87255","Radamata, Kec. Kota Tambolaka, Kabupaten Sumba Barat Daya",NUSA TENGGARA TIMUR,87255.0,Indonesia,85257823823.0,,,-9.4274792,119.2417716,https://maps.google.com/?cid=0x0:0x952628c1d397d0fe,
toko bangunan,Toko Bahan Bangunan,TOKO Sinar Galaxi,"H6CR+XJ8, Unnamed Road, Loura, Kabupaten Barat Daya, Nusa Tenggara Tim., Radamata, Kec. Loura, Kabupaten Sumba Barat Daya, Nusa Tenggara Tim.","Kabupaten Sumba Barat Daya, Nusa Tenggara Tim.",NUSA TENGGARA TIMUR,,Indonesia,,,,-9.427579,119.2415805,https://maps.google.com/?cid=0x0:0x50d8175272a243a8,
toko bangunan,Toko Perlengkapan Rumah,Toko Sinar Agape,"H666+GGR, Wee Londa, Kec. Loura, Kabupaten Sumba Barat Daya, Nusa Tenggara Tim.","Kabupaten Sumba Barat Daya, Nusa Tenggara Tim.",NUSA TENGGARA TIMUR,,Indonesia,,,,-9.4377597,119.2116926,https://maps.google.com/?cid=0x0:0x72469a669a6cf4b4,
toko bangunan,Toko Swalayan,LANCAR JAYA,"Jl. Eltari, Radamata, Kec. Kota Tambolaka, Kabupaten Sumba Barat Daya, Nusa Tenggara Tim.","Kabupaten Sumba Barat Daya, Nusa Tenggara Tim.",NUSA TENGGARA TIMUR,,Indonesia,81252890816.0,,,-9.40697,119.2202219,https://maps.google.com/?cid=0x0:0xec5f51c552303ca5,
toko bangunan,toko bangunan,Radamata,"J65H+4X, Radamata, Kec. Kota Tambolaka, Kabupaten Sumba Barat Daya, Nusa Tenggara Tim.","Kabupaten Sumba Barat Daya, Nusa Tenggara Tim.",NUSA TENGGARA TIMUR,,Indonesia,,,,-9.3922415,119.2299836,https://maps.google.com/?cid=0x0:0x81c9e1e7d904c939,
toko bangunan,Minimarket,Toko Monica,"H69P+PW9, Kalena Wano, Kec. Loura, Kabupaten Sumba Barat Daya, Nusa Tenggara Tim.","Kabupaten Sumba Barat Daya, Nusa Tenggara Tim.",NUSA TENGGARA TIMUR,,Indonesia,,,,-9.4307186,119.2373602,https://maps.google.com/?cid=0x0:0x43ffeaba7d370028,
toko bangunan,Pusat Perbelanjaan,Toko flores indah,"H64J+CPF, Jl. Raja Yohanes Ngongo Bani, Wee Tobula, Kec. Loura, Kabupaten Sumba Barat Daya, Nusa Tenggara Tim.","Kabupaten Sumba Barat Daya, Nusa Tenggara Tim.",NUSA TENGGARA TIMUR,,Indonesia,81238208777.0,,,-9.4439468,119.2317878,https://maps.google.com/?cid=0x0:0x29a6d873ba19e60,
toko bangunan,Toko Swalayan,SINAR BARU,"H6CQ+43F, Unnamed Road, Radamata, Loura, Southwest Sumba Regency, East Nusa Tenggara","Kabupaten Sumba Barat Daya, Nusa Tenggara Tim.",NUSA TENGGARA TIMUR,,Indonesia,85230796333.0,,,-9.429679,119.2376792,https://maps.google.com/?cid=0x0:0x9e0238efd304bd49,
toko bangunan,Toko,Rajawali Perkasa,"H64J+VQ2, Jl. Raja Yohanes Ngongo Bani, Wee Tobula, Kec. Kota Tambolaka, Kabupaten Sumba Barat Daya, Nusa Tenggara Tim.","Kabupaten Sumba Barat Daya, Nusa Tenggara Tim.",NUSA TENGGARA TIMUR,,Indonesia,,,,-9.4428683,119.2318977,https://maps.google.com/?cid=0x0:0xd5504482ff9c4f5b,
toko bangunan,Toko Bahan Bangunan,Toko Lima Bintang Bangunan,"Jl. Ring Road Waikabubak, Pada Eweta, Kec. Kota Waikabubak, Kabupaten Sumba Barat, Nusa Tenggara Tim.","Kabupaten Sumba Barat, Nusa Tenggara Tim.",NUSA TENGGARA TIMUR,,Indonesia,81236835505.0,,,-9.6253098,119.389322,https://maps.google.com/?cid=0x0:0x2400e10b9df95a55,
toko bangunan,toko bangunan,Nusa Tenggara Tim. 87253,"Raba Engge, Kec. Wewewa Bar., Kabupaten Sumba Barat Daya, Nusa Tenggara Tim.","Kabupaten Sumba Barat Daya, Nusa Tenggara Tim.",NUSA TENGGARA TIMUR,,Indonesia,,,,-9.5600081,119.2279835,https://maps.google.com/?cid=0x0:0x408cc62c8b3addfc,
toko bangunan,Toko Perlengkapan Rumah,Toko Makmur Jaya Bangunan,"Jl. Bhayangkara, Pada Eweta, Kec. Kota Waikabubak, Kabupaten Sumba Barat, Nusa Tenggara Tim. 87217","Pada Eweta, Kec. Kota Waikabubak, Kabupaten Sumba Barat",NUSA TENGGARA TIMUR,87217.0,Indonesia,81339020447.0,,,-9.6259517,119.4038705,https://maps.google.com/?cid=0x0:0x2bfca63c0a2429f6,
toko bangunan,Toko Bahan Bangunan,Toko Nuansa Bangunan Dan Tehnik,"9C75+HG9, Wailiang, Kec. Kota Waikabubak, Kabupaten Sumba Barat, Nusa Tenggara Tim.","Kabupaten Sumba Barat, Nusa Tenggara Tim.",NUSA TENGGARA TIMUR,,Indonesia,81339419509.0,,,-9.6360822,119.4088515,https://maps.google.com/?cid=0x0:0xa546d9dc5012925e,
toko bangunan,Toko Perlengkapan Rumah,Saudara Bangunan,"9C43+5CV, Wee Karou, Kec. Loli, Kabupaten Sumba Barat, Nusa Tenggara Tim.","Kabupaten Sumba Barat, Nusa Tenggara Tim.",NUSA TENGGARA TIMUR,,Indonesia,,,,-9.6445021,119.403561,https://maps.google.com/?cid=0x0:0xbd0bec82e2e0b21f,
toko bangunan,Toko,Toko Cinta Indah,"F7FJ+JGG, Limbu Watu,, Wee Kokora, Kec. Wewewa Tengah, Kabupaten Sumba Barat Daya, Nusa Tenggara Tim.","Kabupaten Sumba Barat Daya, Nusa Tenggara Tim.",NUSA TENGGARA TIMUR,,Indonesia,81353480750.0,,,-9.5259324,119.2813262,https://maps.google.com/?cid=0x0:0xfdd070a95cfb0d00,
toko bangunan,Toko Bahan Bangunan,TOKO Sinar Galaxi,"H6CR+XJ8, Unnamed Road, Loura, Kabupaten Barat Daya, Nusa Tenggara Tim., Radamata, Kec. Loura, Kabupaten Sumba Barat Daya, Nusa Tenggara Tim.","Kabupaten Sumba Barat Daya, Nusa Tenggara Tim.",NUSA TENGGARA TIMUR,,Indonesia,,,,-9.427579,119.2415805,https://maps.google.com/?cid=0x0:0x50d8175272a243a8,
toko bangunan,toko bangunan,mart,"Omba Rade, Kec. Wewewa Tim., Kabupaten Sumba Barat Daya, Nusa Tenggara Tim.","Kabupaten Sumba Barat Daya, Nusa Tenggara Tim.",NUSA TENGGARA TIMUR,,Indonesia,81246622363.0,,,-9.5635595,119.3107147,https://maps.google.com/?cid=0x0:0xf3a435438d727671,
toko bangunan,Toko Bahan Bangunan,Toko Nuansa Bangunan Dan Tehnik Terlengkap,"H6CP+QWF, Radamata, Kec. Loura, Kabupaten Sumba Barat Daya, Nusa Tenggara Tim.","Kabupaten Sumba Barat Daya, Nusa Tenggara Tim.",NUSA TENGGARA TIMUR,,Indonesia,81339419509.0,,,-9.4280703,119.2372822,https://maps.google.com/?cid=0x0:0xb106164c739fec1b,
toko bangunan,toko bangunan,Toko asro,"F6VH+PR8, Unnamed Road, Waimangura, Kec. Wewewa Bar., Kabupaten Sumba Barat Daya, Nusa Tenggara Tim.","Kabupaten Sumba Barat Daya, Nusa Tenggara Tim.",NUSA TENGGARA TIMUR,,Indonesia,,,,-9.5057123,119.2295808,https://maps.google.com/?cid=0x0:0xad8e8f98edb828c5,
toko bangunan,toko bangunan,Kec. Wewewa Sel.,"Kabupaten Sumba Barat Daya, Nusa Tenggara Tim.","Kabupaten Sumba Barat Daya, Nusa Tenggara Tim.",NUSA TENGGARA TIMUR,,Indonesia,,,,-9.5674808,119.2200814,https://maps.google.com/?cid=0x0:0x5dc8281eeb398606,
toko bangunan,Toko Bahan Bangunan,Toko Lima Bintang Bangunan,"Jl. Ring Road Waikabubak, Pada Eweta, Kec. Kota Waikabubak, Kabupaten Sumba Barat, Nusa Tenggara Tim.","Kabupaten Sumba Barat, Nusa Tenggara Tim.",NUSA TENGGARA TIMUR,,Indonesia,81236835505.0,,,-9.6253098,119.389322,https://maps.google.com/?cid=0x0:0x2400e10b9df95a55,
toko bangunan,Toko Bahan Bangunan,Toko Nuansa Bangunan Dan Tehnik,"9C75+HG9, Wailiang, Kec. Kota Waikabubak, Kabupaten Sumba Barat, Nusa Tenggara Tim.","Kabupaten Sumba Barat, Nusa Tenggara Tim.",NUSA TENGGARA TIMUR,,Indonesia,81339419509.0,,,-9.6360822,119.4088515,https://maps.google.com/?cid=0x0:0xa546d9dc5012925e,
toko bangunan,Toko,Toko Cinta Indah,"F7FJ+JGG, Limbu Watu,, Wee Kokora, Kec. Wewewa Tengah, Kabupaten Sumba Barat Daya, Nusa Tenggara Tim.","Kabupaten Sumba Barat Daya, Nusa Tenggara Tim.",NUSA TENGGARA TIMUR,,Indonesia,81353480750.0,,,-9.5259324,119.2813262,https://maps.google.com/?cid=0x0:0xfdd070a95cfb0d00,
toko bangunan,Toko Perlengkapan Rumah,Saudara Bangunan,"9C43+5CV, Wee Karou, Kec. Loli, Kabupaten Sumba Barat, Nusa Tenggara Tim.","Kabupaten Sumba Barat, Nusa Tenggara Tim.",NUSA TENGGARA TIMUR,,Indonesia,,,,-9.6445021,119.403561,https://maps.google.com/?cid=0x0:0xbd0bec82e2e0b21f,
toko bangunan,Toko Bahan Bangunan,Toko Bangunan Pak Tris,"9737+VFX, Kamalaputi, Kec. Kota Waingapu, Kabupaten Sumba Timur, Nusa Tenggara Tim.","Kabupaten Sumba Timur, Nusa Tenggara Tim.",NUSA TENGGARA TIMUR,,Indonesia,81353759489.0,,,-9.6452547,120.2637361,https://maps.google.com/?cid=0x0:0xf2f45ed234d9c248,
toko bangunan,Toko Bahan Bangunan,TOKO Sinar Galaxi,"H6CR+XJ8, Unnamed Road, Loura, Kabupaten Barat Daya, Nusa Tenggara Tim., Radamata, Kec. Loura, Kabupaten Sumba Barat Daya, Nusa Tenggara Tim.","Kabupaten Sumba Barat Daya, Nusa Tenggara Tim.",NUSA TENGGARA TIMUR,,Indonesia,,,,-9.427579,119.2415805,https://maps.google.com/?cid=0x0:0x50d8175272a243a8,
toko bangunan,Toko Bahan Bangunan,Makmur Raya Toko,"86VW+GV6, Hambala, Kec. Kota Waingapu, Kabupaten Sumba Timur, Nusa Tenggara Tim.","Kabupaten Sumba Timur, Nusa Tenggara Tim.",NUSA TENGGARA TIMUR,,Indonesia,38761688.0,,,-9.6562084,120.247145,https://maps.google.com/?cid=0x0:0xc324108618b9bd38,
toko bangunan,Toko Bahan Bangunan,Toko Cipta Bangunan,"Wolomarang, Kec. Alok Bar., Kabupaten Sikka, Nusa Tenggara Tim.","Kabupaten Sikka, Nusa Tenggara Tim.",NUSA TENGGARA TIMUR,,Indonesia,81231842348.0,,,-8.6105049,122.1996912,https://maps.google.com/?cid=0x0:0x1d786c0067a3953f,
toko bangunan,Toko Bahan Bangunan,TOKO SAHABAT INTI BANGUNAN,"JL. Ruteng - Labuan Bajo, Cancar, Wae Belang, Kec. Ruteng, Kabupaten Manggarai, Nusa Tenggara Tim.","Kabupaten Manggarai, Nusa Tenggara Tim.",NUSA TENGGARA TIMUR,,Indonesia,81359982021.0,,,-8.5896405,120.3779527,https://maps.google.com/?cid=0x0:0x99120b0035e2b615,
toko bangunan,Pemasok Bahan Bangunan,Toko Hero Bangunan,"Toko Hero Bangunan, Tini, Manuaman, Kec. Kota Atambua, Kabupaten Belu, Nusa Tenggara Tim. 85712","Tini, Manuaman, Kec. Kota Atambua, Kabupaten Belu",NUSA TENGGARA TIMUR,85712.0,Indonesia,82221202985.0,,,-9.1117919,124.8871833,https://maps.google.com/?cid=0x0:0xb79f7fc42724fd10,
toko bangunan,Grosir keramik,Toko Bangunan Sumber Berlian,"9FR7+R98, Pitak, Kec. Langke Rembong, Kabupaten Manggarai, Nusa Tenggara Tim.","Kabupaten Manggarai, Nusa Tenggara Tim.",NUSA TENGGARA TIMUR,,Indonesia,38521109.0,,,-8.6079539,120.4634541,https://maps.google.com/?cid=0x0:0x6998fb86419a6f08,
toko bangunan,Toko Bahan Bangunan,Makmur Sejahtera,"86WW+958, Hambala, Kec. Kota Waingapu, Kabupaten Sumba Timur, Nusa Tenggara Tim.","Kabupaten Sumba Timur, Nusa Tenggara Tim.",NUSA TENGGARA TIMUR,,Indonesia,,,,-9.6540827,120.2454421,https://maps.google.com/?cid=0x0:0x2054e4721b862196,
toko bangunan,Pemasok Pipa,Toko Bangunan,"Manulai II, Kec. Alak, Kota Kupang, Nusa Tenggara Tim.","Kota Kupang, Nusa Tenggara Tim.",NUSA TENGGARA TIMUR,,Indonesia,85123255522.0,,,-10.213815,123.5749527,https://maps.google.com/?cid=0x0:0x5559349e9e4fc36f,
toko bangunan,Pemasok Pipa,Toko Buana Bangunan,"Lasiana, Kec. Klp. Lima, Kota Kupang, Nusa Tenggara Tim.","Kota Kupang, Nusa Tenggara Tim.",NUSA TENGGARA TIMUR,,Indonesia,82244376888.0,,,-10.1373266,123.6764484,https://maps.google.com/?cid=0x0:0x9fc6cad7dda4e71a,
toko bangunan,Toko Bahan Bangunan,Toko Bravo Bangunan,"Jl. Terusan Timor Raya, Pasir Panjang, Kec. Kota Lama, Kota Kupang, Nusa Tenggara Tim. 85000","Pasir Panjang, Kec. Kota Lama, Kota Kupang",NUSA TENGGARA TIMUR,85000.0,Indonesia,81246295800.0,,,-10.1509378,123.6033391,https://maps.google.com/?cid=0x0:0xdf4da131f9948aff,
toko bangunan,Toko Bahan Bangunan,Toko Graha Bangunan,"Gedung Graha Ariadi, Oesapa Bar., Kec. Klp. Lima, Kota Kupang, Nusa Tenggara Tim. 85228","Oesapa Bar., Kec. Klp. Lima, Kota Kupang",NUSA TENGGARA TIMUR,85228.0,Indonesia,81312893723.0,,,-10.1468703,123.631267,https://maps.google.com/?cid=0x0:0x4167d73ee95fc845,
toko bangunan,Toko Bahan Bangunan,Sinar Bangunan Building Center,"Jl. Bund. PU No.12, Tuak Daun Merah, Kec. Oebobo, Kota Kupang, Nusa Tenggara Tim. 85228","Tuak Daun Merah, Kec. Oebobo, Kota Kupang",NUSA TENGGARA TIMUR,85228.0,Indonesia,81236648694.0,,,-10.1675355,123.6289538,https://maps.google.com/?cid=0x0:0x8b34913a09e207d2,
toko bangunan,Toko Bahan Bangunan,Toko Amerta,"Jl. Jend. Sudirman No.3, Kp. Sawah, Kec. Kota Waikabubak, Kabupaten Sumba Barat, Nusa Tenggara Tim.","Kabupaten Sumba Barat, Nusa Tenggara Tim.",NUSA TENGGARA TIMUR,,Indonesia,82122228701.0,,,-9.635767,119.4129349,https://maps.google.com/?cid=0x0:0xd990784987776293,
toko bangunan,Toko Bahan Bangunan,Toko Bangunan Saudara,"Mbaumuku, Kec. Langke Rembong, Kabupaten Manggarai, Nusa Tenggara Tim.","Kabupaten Manggarai, Nusa Tenggara Tim.",NUSA TENGGARA TIMUR,,Indonesia,85239009102.0,,,-8.6086449,120.4648361,https://maps.google.com/?cid=0x0:0x5faafa24f0a0065f,
toko bangunan,Toko Bahan Bangunan,Toko bangunan,"VM4C+R79, Lasiana, Kec. Klp. Lima, Kota Kupang, Nusa Tenggara Tim.","Kota Kupang, Nusa Tenggara Tim.",NUSA TENGGARA TIMUR,,Indonesia,,,,-10.142954,123.6707233,https://maps.google.com/?cid=0x0:0xb111458939496520,
toko bangunan,Toko Perlengkapan Rumah,Toko Makmur Jaya Bangunan,"Jl. Bhayangkara, Pada Eweta, Kec. Kota Waikabubak, Kabupaten Sumba Barat, Nusa Tenggara Tim. 87217","Pada Eweta, Kec. Kota Waikabubak, Kabupaten Sumba Barat",NUSA TENGGARA TIMUR,87217.0,Indonesia,81339020447.0,,,-9.6259517,119.4038705,https://maps.google.com/?cid=0x0:0x2bfca63c0a2429f6,
toko bangunan,toko bangunan,Mercy Bangunan,"Kalembu Ndara Mane, Kec. Wewewa Tim., Kabupaten Sumba Barat Daya, Nusa Tenggara Tim.","Kabupaten Sumba Barat Daya, Nusa Tenggara Tim.",NUSA TENGGARA TIMUR,,Indonesia,,,,-9.5823571,119.3283405,https://maps.google.com/?cid=0x0:0x4ff93ebb188519e,
toko bangunan,Toko Bahan Bangunan,Sinar Bangunan Building Mart,"Jl. Yos Sudarso No.177, Namosain, Kec. Alak, Kota Kupang, Nusa Tenggara Tim.","Kota Kupang, Nusa Tenggara Tim.",NUSA TENGGARA TIMUR,,Indonesia,81238941314.0,,,-10.1916248,123.5407476,https://maps.google.com/?cid=0x0:0x411fca6242be55fc,
toko bangunan,toko bangunan,mart,"Omba Rade, Kec. Wewewa Tim., Kabupaten Sumba Barat Daya, Nusa Tenggara Tim.","Kabupaten Sumba Barat Daya, Nusa Tenggara Tim.",NUSA TENGGARA TIMUR,,Indonesia,81246622363.0,,,-9.5635595,119.3107147,https://maps.google.com/?cid=0x0:0xf3a435438d727671,
toko bangunan,Toko,KASIH BERKAT,"Walla Ndimu, Kec. Kodi Bangedo, Kabupaten Sumba Barat Daya, Nusa Tenggara Tim. 87264","Kec. Kodi Bangedo, Kabupaten Sumba Barat Daya",NUSA TENGGARA TIMUR,87264.0,Indonesia,81335789980.0,,,-9.6260985,119.0411577,https://maps.google.com/?cid=0x0:0xe29ea410343cacdf,
toko bangunan,toko bangunan,My home,"C8PF+6XV, Kalembu Ndara Mane, Kec. Wewewa Tim., Kabupaten Sumba Barat Daya, Nusa Tenggara Tim.","Kabupaten Sumba Barat Daya, Nusa Tenggara Tim.",NUSA TENGGARA TIMUR,,Indonesia,,,,-9.5643951,119.3249368,https://maps.google.com/?cid=0x0:0x1b0f4148656653d0,
toko bangunan,toko bangunan,Toko asro,"F6VH+PR8, Unnamed Road, Waimangura, Kec. Wewewa Bar., Kabupaten Sumba Barat Daya, Nusa Tenggara Tim.","Kabupaten Sumba Barat Daya, Nusa Tenggara Tim.",NUSA TENGGARA TIMUR,,Indonesia,,,,-9.5057123,119.2295808,https://maps.google.com/?cid=0x0:0xad8e8f98edb828c5,
toko bangunan,Toko Bahan Bangunan,Toko Nuansa Bangunan Dan Tehnik Terlengkap,"H6CP+QWF, Radamata, Kec. Loura, Kabupaten Sumba Barat Daya, Nusa Tenggara Tim.","Kabupaten Sumba Barat Daya, Nusa Tenggara Tim.",NUSA TENGGARA TIMUR,,Indonesia,81339419509.0,,,-9.4280703,119.2372822,https://maps.google.com/?cid=0x0:0xb106164c739fec1b,
toko bangunan,toko bangunan,Kec. Wewewa Tengah,"Kabupaten Sumba Barat Daya, Nusa Tenggara Tim.","Kabupaten Sumba Barat Daya, Nusa Tenggara Tim.",NUSA TENGGARA TIMUR,,Indonesia,,,,-9.532605,119.2909927,https://maps.google.com/?cid=0x0:0x6f978c8d3fab9d28,
toko bangunan,Toko Bahan Bangunan,Toko Duta Bangunan,"CH3M+GQ8, Wai Rasa, Kec. Umbu Ratu Nggay Bar., Kabupaten Sumba Tengah, Nusa Tenggara Tim.","Kabupaten Sumba Tengah, Nusa Tenggara Tim.",NUSA TENGGARA TIMUR,,Indonesia,,,,-9.5962137,119.5844623,https://maps.google.com/?cid=0x0:0x7e609489f14c4fbb,
toko bangunan,Toko,Toko Cinta Indah,"F7FJ+JGG, Limbu Watu,, Wee Kokora, Kec. Wewewa Tengah, Kabupaten Sumba Barat Daya, Nusa Tenggara Tim.","Kabupaten Sumba Barat Daya, Nusa Tenggara Tim.",NUSA TENGGARA TIMUR,,Indonesia,81353480750.0,,,-9.5259324,119.2813262,https://maps.google.com/?cid=0x0:0xfdd070a95cfb0d00,
toko bangunan,Toko Bahan Bangunan,Toko Nuansa Bangunan Dan Tehnik,"9C75+HG9, Wailiang, Kec. Kota Waikabubak, Kabupaten Sumba Barat, Nusa Tenggara Tim.","Kabupaten Sumba Barat, Nusa Tenggara Tim.",NUSA TENGGARA TIMUR,,Indonesia,81339419509.0,,,-9.6360822,119.4088515,https://maps.google.com/?cid=0x0:0xa546d9dc5012925e,
toko bangunan,Toko Perlengkapan Rumah,Saudara Bangunan,"9C43+5CV, Wee Karou, Kec. Loli, Kabupaten Sumba Barat, Nusa Tenggara Tim.","Kabupaten Sumba Barat, Nusa Tenggara Tim.",NUSA TENGGARA TIMUR,,Indonesia,,,,-9.6445021,119.403561,https://maps.google.com/?cid=0x0:0xbd0bec82e2e0b21f,
toko bangunan,Toko Bahan Bangunan,TOKO Sinar Galaxi,"H6CR+XJ8, Unnamed Road, Loura, Kabupaten Barat Daya, Nusa Tenggara Tim., Radamata, Kec. Loura, Kabupaten Sumba Barat Daya, Nusa Tenggara Tim.","Kabupaten Sumba Barat Daya, Nusa Tenggara Tim.",NUSA TENGGARA TIMUR,,Indonesia,,,,-9.427579,119.2415805,https://maps.google.com/?cid=0x0:0x50d8175272a243a8,
toko bangunan,Toko Bahan Bangunan,Makmur Raya Toko,"86VW+GV6, Hambala, Kec. Kota Waingapu, Kabupaten Sumba Timur, Nusa Tenggara Tim.","Kabupaten Sumba Timur, Nusa Tenggara Tim.",NUSA TENGGARA TIMUR,,Indonesia,38761688.0,,,-9.6562084,120.247145,https://maps.google.com/?cid=0x0:0xc324108618b9bd38,
toko bangunan,Toko Perlengkapan Rumah,Toko Makmur Jaya Bangunan,"Jl. Bhayangkara, Pada Eweta, Kec. Kota Waikabubak, Kabupaten Sumba Barat, Nusa Tenggara Tim. 87217","Pada Eweta, Kec. Kota Waikabubak, Kabupaten Sumba Barat",NUSA TENGGARA TIMUR,87217.0,Indonesia,81339020447.0,,,-9.6259517,119.4038705,https://maps.google.com/?cid=0x0:0x2bfca63c0a2429f6,
toko bangunan,Toko Bahan Bangunan,Makmur Sejahtera,"86WW+958, Hambala, Kec. Kota Waingapu, Kabupaten Sumba Timur, Nusa Tenggara Tim.","Kabupaten Sumba Timur, Nusa Tenggara Tim.",NUSA TENGGARA TIMUR,,Indonesia,,,,-9.6540827,120.2454421,https://maps.google.com/?cid=0x0:0x2054e4721b862196,
toko bangunan,Toko Bahan Bangunan,TOKO SINAR DUTA,"Jl. Ahmad Yani No.46, Matawai, Kec. Kota Waingapu, Kabupaten Sumba Timur, Nusa Tenggara Tim.","Kabupaten Sumba Timur, Nusa Tenggara Tim.",NUSA TENGGARA TIMUR,,Indonesia,38762141.0,,,-9.6518145,120.2647551,https://maps.google.com/?cid=0x0:0xec3fa460dc149196,
toko bangunan,Toko Bahan Bangunan,Toko Bangunan Pak Tris,"9737+VFX, Kamalaputi, Kec. Kota Waingapu, Kabupaten Sumba Timur, Nusa Tenggara Tim.","Kabupaten Sumba Timur, Nusa Tenggara Tim.",NUSA TENGGARA TIMUR,,Indonesia,81353759489.0,,,-9.6452547,120.2637361,https://maps.google.com/?cid=0x0:0xf2f45ed234d9c248,
toko bangunan,Tempat Parkir,Kanelu,"F7GV+X68, Kanelu, Kec. Wewewa Tengah, Kabupaten Sumba Barat Daya, Nusa Tenggara Tim.","Kabupaten Sumba Barat Daya, Nusa Tenggara Tim.",NUSA TENGGARA TIMUR,,Indonesia,,,,-9.5225881,119.2930875,https://maps.google.com/?cid=0x0:0x5f63dab6aa64b8ec,
toko bangunan,Toko Bahan Bangunan,Morika Bangunan,"9CF3+M7M, Jl. Bhayangkara, Pada Eweta, Kec. Kota Waikabubak, Kabupaten Sumba Barat, Nusa Tenggara Tim.","Kabupaten Sumba Barat, Nusa Tenggara Tim.",NUSA TENGGARA TIMUR,,Indonesia,,,,-9.62591,119.403323,https://maps.google.com/?cid=0x0:0x534832efc7043aa5,
toko bangunan,Pemasok Pipa,Toko Buana Bangunan,"Lasiana, Kec. Klp. Lima, Kota Kupang, Nusa Tenggara Tim.","Kota Kupang, Nusa Tenggara Tim.",NUSA TENGGARA TIMUR,,Indonesia,82244376888.0,,,-10.1373266,123.6764484,https://maps.google.com/?cid=0x0:0x9fc6cad7dda4e71a,
toko bangunan,toko bangunan,Kec. Wewewa Tim.,"Kabupaten Sumba Barat Daya, Nusa Tenggara Tim.","Kabupaten Sumba Barat Daya, Nusa Tenggara Tim.",NUSA TENGGARA TIMUR,,Indonesia,,,,-9.5922479,119.3511009,https://maps.google.com/?cid=0x0:0x69ead4906c239f2b,
toko bangunan,Toko Bahan Bangunan,Toko Lima Bintang Bangunan,"Jl. Ring Road Waikabubak, Pada Eweta, Kec. Kota Waikabubak, Kabupaten Sumba Barat, Nusa Tenggara Tim.","Kabupaten Sumba Barat, Nusa Tenggara Tim.",NUSA TENGGARA TIMUR,,Indonesia,81236835505.0,,,-9.6253098,119.389322,https://maps.google.com/?cid=0x0:0x2400e10b9df95a55,
toko bangunan,Toko Bahan Bangunan,Toko Nuansa Bangunan Dan Tehnik,"9C75+HG9, Wailiang, Kec. Kota Waikabubak, Kabupaten Sumba Barat, Nusa Tenggara Tim.","Kabupaten Sumba Barat, Nusa Tenggara Tim.",NUSA TENGGARA TIMUR,,Indonesia,81339419509.0,,,-9.6360822,119.4088515,https://maps.google.com/?cid=0x0:0xa546d9dc5012925e,
toko bangunan,Toko Bahan Bangunan,Toko Duta Bangunan,"CH3M+GQ8, Wai Rasa, Kec. Umbu Ratu Nggay Bar., Kabupaten Sumba Tengah, Nusa Tenggara Tim.","Kabupaten Sumba Tengah, Nusa Tenggara Tim.",NUSA TENGGARA TIMUR,,Indonesia,,,,-9.5962137,119.5844623,https://maps.google.com/?cid=0x0:0x7e609489f14c4fbb,
toko bangunan,Toko Bahan Bangunan,Toko Bangunan Pak Tris,"9737+VFX, Kamalaputi, Kec. Kota Waingapu, Kabupaten Sumba Timur, Nusa Tenggara Tim.","Kabupaten Sumba Timur, Nusa Tenggara Tim.",NUSA TENGGARA TIMUR,,Indonesia,81353759489.0,,,-9.6452547,120.2637361,https://maps.google.com/?cid=0x0:0xf2f45ed234d9c248,
toko bangunan,Toko,Toko Cinta Indah,"F7FJ+JGG, Limbu Watu,, Wee Kokora, Kec. Wewewa Tengah, Kabupaten Sumba Barat Daya, Nusa Tenggara Tim.","Kabupaten Sumba Barat Daya, Nusa Tenggara Tim.",NUSA TENGGARA TIMUR,,Indonesia,81353480750.0,,,-9.5259324,119.2813262,https://maps.google.com/?cid=0x0:0xfdd070a95cfb0d00,
toko bangunan,Toko Perlengkapan Rumah,Saudara Bangunan,"9C43+5CV, Wee Karou, Kec. Loli, Kabupaten Sumba Barat, Nusa Tenggara Tim.","Kabupaten Sumba Barat, Nusa Tenggara Tim.",NUSA TENGGARA TIMUR,,Indonesia,,,,-9.6445021,119.403561,https://maps.google.com/?cid=0x0:0xbd0bec82e2e0b21f,
toko bangunan,Toko Bahan Bangunan,Makmur Sejahtera,"86WW+958, Hambala, Kec. Kota Waingapu, Kabupaten Sumba Timur, Nusa Tenggara Tim.","Kabupaten Sumba Timur, Nusa Tenggara Tim.",NUSA TENGGARA TIMUR,,Indonesia,,,,-9.6540827,120.2454421,https://maps.google.com/?cid=0x0:0x2054e4721b862196,
toko bangunan,Toko Bahan Bangunan,Makmur Raya Toko,"86VW+GV6, Hambala, Kec. Kota Waingapu, Kabupaten Sumba Timur, Nusa Tenggara Tim.","Kabupaten Sumba Timur, Nusa Tenggara Tim.",NUSA TENGGARA TIMUR,,Indonesia,38761688.0,,,-9.6562084,120.247145,https://maps.google.com/?cid=0x0:0xc324108618b9bd38,
toko bangunan,toko bangunan,Mercy Bangunan,"Kalembu Ndara Mane, Kec. Wewewa Tim., Kabupaten Sumba Barat Daya, Nusa Tenggara Tim.","Kabupaten Sumba Barat Daya, Nusa Tenggara Tim.",NUSA TENGGARA TIMUR,,Indonesia,,,,-9.5823571,119.3283405,https://maps.google.com/?cid=0x0:0x4ff93ebb188519e,
toko bangunan,Toko Bahan Bangunan,Morika Bangunan,"9CF3+M7M, Jl. Bhayangkara, Pada Eweta, Kec. Kota Waikabubak, Kabupaten Sumba Barat, Nusa Tenggara Tim.","Kabupaten Sumba Barat, Nusa Tenggara Tim.",NUSA TENGGARA TIMUR,,Indonesia,,,,-9.62591,119.403323,https://maps.google.com/?cid=0x0:0x534832efc7043aa5,
toko bangunan,Toko Bahan Bangunan,Toko Amerta,"Jl. Jend. Sudirman No.3, Kp. Sawah, Kec. Kota Waikabubak, Kabupaten Sumba Barat, Nusa Tenggara Tim.","Kabupaten Sumba Barat, Nusa Tenggara Tim.",NUSA TENGGARA TIMUR,,Indonesia,82122228701.0,,,-9.635767,119.4129349,https://maps.google.com/?cid=0x0:0xd990784987776293,
toko bangunan,Toko Bahan Bangunan,Toko Sentosa Jaya,"Jl. Bhayangkara No.38, Komerda, Kec. Kota Waikabubak, Kabupaten Sumba Barat, Nusa Tenggara Tim.","Kabupaten Sumba Barat, Nusa Tenggara Tim.",NUSA TENGGARA TIMUR,,Indonesia,38721381.0,,,-9.6289424,119.4079712,https://maps.google.com/?cid=0x0:0x383aa15223e6032a,
toko bangunan,Toko Bahan Bangunan,Toko Maju Jaya,"Jl. Ahmad Yani No.53, Wailiang, Kec. Kota Waikabubak, Kabupaten Sumba Barat, Nusa Tenggara Tim.","Kabupaten Sumba Barat, Nusa Tenggara Tim.",NUSA TENGGARA TIMUR,,Indonesia,,,,-9.6345057,119.4101474,https://maps.google.com/?cid=0x0:0x15d31afb4b76e8da,
toko bangunan,Toko Bahan Bangunan,Toko Sari jaya,"Jl. Ahmad Yani No.46, Maliti, Kec. Kota Waikabubak, Kabupaten Sumba Barat, Nusa Tenggara Tim.","Kabupaten Sumba Barat, Nusa Tenggara Tim.",NUSA TENGGARA TIMUR,,Indonesia,,,,-9.6343214,119.4099849,https://maps.google.com/?cid=0x0:0xe8e29f399da2912a,
toko bangunan,Toko Bahan Bangunan,Merdeka,"Jl. Bhayangkara No.38, Komerda, Kec. Kota Waikabubak, Kabupaten Sumba Barat, Nusa Tenggara Tim.","Kabupaten Sumba Barat, Nusa Tenggara Tim.",NUSA TENGGARA TIMUR,,Indonesia,,,,-9.6287962,119.4078268,https://maps.google.com/?cid=0x0:0xdc5a3c120ad9d757,
toko bangunan,Toko Bahan Bangunan,Toko Sinar Agape,"Komerda, Kec. Kota Waikabubak, Kabupaten Sumba Barat, Nusa Tenggara Tim.","Kabupaten Sumba Barat, Nusa Tenggara Tim.",NUSA TENGGARA TIMUR,,Indonesia,81339398500.0,,,-9.6282637,119.4066539,https://maps.google.com/?cid=0x0:0x913b17d5f0bd878b,
toko bangunan,Kontraktor Umum,MITRA SEJATI,"9C55+Q3F, Wailiang, Kec. Kota Waikabubak, Kabupaten Sumba Barat, Nusa Tenggara Tim.","Kabupaten Sumba Barat, Nusa Tenggara Tim.",NUSA TENGGARA TIMUR,,Indonesia,,,,-9.6405613,119.4076847,https://maps.google.com/?cid=0x0:0xf7e6717d37618975,
toko bangunan,toko bangunan,mart,"Omba Rade, Kec. Wewewa Tim., Kabupaten Sumba Barat Daya, Nusa Tenggara Tim.","Kabupaten Sumba Barat Daya, Nusa Tenggara Tim.",NUSA TENGGARA TIMUR,,Indonesia,81246622363.0,,,-9.5635595,119.3107147,https://maps.google.com/?cid=0x0:0xf3a435438d727671,
toko bangunan,toko bangunan,My home,"C8PF+6XV, Kalembu Ndara Mane, Kec. Wewewa Tim., Kabupaten Sumba Barat Daya, Nusa Tenggara Tim.","Kabupaten Sumba Barat Daya, Nusa Tenggara Tim.",NUSA TENGGARA TIMUR,,Indonesia,,,,-9.5643951,119.3249368,https://maps.google.com/?cid=0x0:0x1b0f4148656653d0,
toko bangunan,toko bangunan,Kec. Wewewa Utara,"Kabupaten Sumba Barat Daya, Nusa Tenggara Tim.","Kabupaten Sumba Barat Daya, Nusa Tenggara Tim.",NUSA TENGGARA TIMUR,,Indonesia,,,,-9.5267607,119.3539572,https://maps.google.com/?cid=0x0:0xe58277af67096a5b,
toko bangunan,Toko Bahan Bangunan,Toko Nuansa Bangunan Dan Tehnik,"9C75+HG9, Wailiang, Kec. Kota Waikabubak, Kabupaten Sumba Barat, Nusa Tenggara Tim.","Kabupaten Sumba Barat, Nusa Tenggara Tim.",NUSA TENGGARA TIMUR,,Indonesia,81339419509.0,,,-9.6360822,119.4088515,https://maps.google.com/?cid=0x0:0xa546d9dc5012925e,
toko bangunan,Toko Bahan Bangunan,Toko Lima Bintang Bangunan,"Jl. Ring Road Waikabubak, Pada Eweta, Kec. Kota Waikabubak, Kabupaten Sumba Barat, Nusa Tenggara Tim.","Kabupaten Sumba Barat, Nusa Tenggara Tim.",NUSA TENGGARA TIMUR,,Indonesia,81236835505.0,,,-9.6253098,119.389322,https://maps.google.com/?cid=0x0:0x2400e10b9df95a55,
toko bangunan,Toko Perlengkapan Rumah,Saudara Bangunan,"9C43+5CV, Wee Karou, Kec. Loli, Kabupaten Sumba Barat, Nusa Tenggara Tim.","Kabupaten Sumba Barat, Nusa Tenggara Tim.",NUSA TENGGARA TIMUR,,Indonesia,,,,-9.6445021,119.403561,https://maps.google.com/?cid=0x0:0xbd0bec82e2e0b21f,
toko bangunan,Toko,Toko Cinta Indah,"F7FJ+JGG, Limbu Watu,, Wee Kokora, Kec. Wewewa Tengah, Kabupaten Sumba Barat Daya, Nusa Tenggara Tim.","Kabupaten Sumba Barat Daya, Nusa Tenggara Tim.",NUSA TENGGARA TIMUR,,Indonesia,81353480750.0,,,-9.5259324,119.2813262,https://maps.google.com/?cid=0x0:0xfdd070a95cfb0d00,
toko bangunan,Toko Bahan Bangunan,Toko Bangunan Pak Tris,"9737+VFX, Kamalaputi, Kec. Kota Waingapu, Kabupaten Sumba Timur, Nusa Tenggara Tim.","Kabupaten Sumba Timur, Nusa Tenggara Tim.",NUSA TENGGARA TIMUR,,Indonesia,81353759489.0,,,-9.6452547,120.2637361,https://maps.google.com/?cid=0x0:0xf2f45ed234d9c248,
toko bangunan,Toko Bahan Bangunan,Makmur Raya Toko,"86VW+GV6, Hambala, Kec. Kota Waingapu, Kabupaten Sumba Timur, Nusa Tenggara Tim.","Kabupaten Sumba Timur, Nusa Tenggara Tim.",NUSA TENGGARA TIMUR,,Indonesia,38761688.0,,,-9.6562084,120.247145,https://maps.google.com/?cid=0x0:0xc324108618b9bd38,
toko bangunan,Toko Bahan Bangunan,TOKO Sinar Galaxi,"H6CR+XJ8, Unnamed Road, Loura, Kabupaten Barat Daya, Nusa Tenggara Tim., Radamata, Kec. Loura, Kabupaten Sumba Barat Daya, Nusa Tenggara Tim.","Kabupaten Sumba Barat Daya, Nusa Tenggara Tim.",NUSA TENGGARA TIMUR,,Indonesia,,,,-9.427579,119.2415805,https://maps.google.com/?cid=0x0:0x50d8175272a243a8,
toko bangunan,toko bangunan,kios putra azar,"FCGF+54, Kareka Nduku, Kec. Tana Righu, Kabupaten Sumba Barat, Nusa Tenggara Tim.","Kabupaten Sumba Barat, Nusa Tenggara Tim.",NUSA TENGGARA TIMUR,,Indonesia,,,,-9.5245579,119.4228131,https://maps.google.com/?cid=0x0:0x718efdf149b65b9d,
toko bangunan,Toko Bahan Bangunan,Toko Nuansa Bangunan Dan Tehnik Terlengkap,"H6CP+QWF, Radamata, Kec. Loura, Kabupaten Sumba Barat Daya, Nusa Tenggara Tim.","Kabupaten Sumba Barat Daya, Nusa Tenggara Tim.",NUSA TENGGARA TIMUR,,Indonesia,81339419509.0,,,-9.4280703,119.2372822,https://maps.google.com/?cid=0x0:0xb106164c739fec1b,
toko bangunan,Toko Perlengkapan Rumah,Toko Makmur Jaya Bangunan,"Jl. Bhayangkara, Pada Eweta, Kec. Kota Waikabubak, Kabupaten Sumba Barat, Nusa Tenggara Tim. 87217","Pada Eweta, Kec. Kota Waikabubak, Kabupaten Sumba Barat",NUSA TENGGARA TIMUR,87217.0,Indonesia,81339020447.0,,,-9.6259517,119.4038705,https://maps.google.com/?cid=0x0:0x2bfca63c0a2429f6,
toko bangunan,toko bangunan,Mercy Bangunan,"Kalembu Ndara Mane, Kec. Wewewa Tim., Kabupaten Sumba Barat Daya, Nusa Tenggara Tim.","Kabupaten Sumba Barat Daya, Nusa Tenggara Tim.",NUSA TENGGARA TIMUR,,Indonesia,,,,-9.5823571,119.3283405,https://maps.google.com/?cid=0x0:0x4ff93ebb188519e,
