Category,Real Category,Business Name,Address,City,State,Postal Code,Country,Phone,Email,Website,Latitude,Longitude,Map Link,Details Link
mall,mall,Nusa Tenggara Tim.,,Nusa Tenggara Tim.,NUSA TENGGARA TIMUR,,Indonesia,,,,-8.6573819,121.0793705,https://maps.google.com/?cid=0x0:0x1030bfbcaf71ae0,
mall,Pusat Perbelanjaan,Kios Kodi Dore,"H3X5+VF3, Oyangbarang, Kec. Wotan Ulumando, Kabupaten Flores Timur, Nusa Tenggara Tim.","Kabupaten Flores Timur, Nusa Tenggara Tim.",NUSA TENGGARA TIMUR,,Indonesia,,,,-8.400354,123.0586838,https://maps.google.com/?cid=0x0:0x609fdb652a2a1ba0,
mall,mall,Pasar Delu Depa,"C3F4+7W6, Wai Kadada, Kec. Kodi Bangedo, Kabupaten Sumba Barat Daya, Nusa Tenggara Tim.","Kabupaten Sumba Barat Daya, Nusa Tenggara Tim.",NUSA TENGGARA TIMUR,,Indonesia,,,,-9.5768253,119.0572594,https://maps.google.com/?cid=0x0:0xb7032da47b1503c3,
mall,mall,Kec. Kodi Balaghar,"Kabupaten Sumba Barat Daya, Nusa Tenggara Tim.","Kabupaten Sumba Barat Daya, Nusa Tenggara Tim.",NUSA TENGGARA TIMUR,,Indonesia,,,,-9.6674786,119.0525222,https://maps.google.com/?cid=0x0:0x553cbf3de56efc03,
mall,Hipermarket,Lippo Plaza Kupang,"Jl. Veteran, Fatululi, Kec. Oebobo, Kota Kupang, Nusa Tenggara Tim.","Kota Kupang, Nusa Tenggara Tim.",NUSA TENGGARA TIMUR,,Indonesia,,,,-10.158877,123.6112188,https://maps.google.com/?cid=0x0:0x2d473260f9494ae7,
mall,Pasar Petani,Pasar Rakyat Waiha,"928V+2V2, Wai Ha, Kec. Kodi Bangedo, Kabupaten Sumba Barat Daya, Nusa Tenggara Tim.","Kabupaten Sumba Barat Daya, Nusa Tenggara Tim.",NUSA TENGGARA TIMUR,,Indonesia,,,,-9.634994,119.044643,https://maps.google.com/?cid=0x0:0xeba0f5a5b754b39b,
mall,Toko,Agen tiket dan fotocopy,"92HQ+FXG, Walla Ndimu, Kec. Kodi Bangedo, Kabupaten Sumba Barat Daya, Nusa Tenggara Tim.","Kabupaten Sumba Barat Daya, Nusa Tenggara Tim.",NUSA TENGGARA TIMUR,,Indonesia,,,,-9.6213023,119.0399468,https://maps.google.com/?cid=0x0:0xb6f340cb8459c67f,
mall,Pusat Perbelanjaan,Kios Ole Kehe,"C2V5+HW, Kapaka Madeta, Kec. Kodi, Kabupaten Sumba Barat Daya, Nusa Tenggara Tim.","Kabupaten Sumba Barat Daya, Nusa Tenggara Tim.",NUSA TENGGARA TIMUR,,Indonesia,,,,-9.5564636,119.0104658,https://maps.google.com/?cid=0x0:0x6b2f529186dd0cc6,
mall,Pusat Perbelanjaan,Pasar Weewulla,"95MR+63F, Denduka, Kec. Wewewa Sel., Kabupaten Sumba Barat Daya, Nusa Tenggara Tim.","Kabupaten Sumba Barat Daya, Nusa Tenggara Tim.",NUSA TENGGARA TIMUR,,Indonesia,81254833122.0,,,-9.6169281,119.1901602,https://maps.google.com/?cid=0x0:0x46283d3317ee6e42,
mall,Toko Perlengkapan Rumah,Kios Sumber Kasih,"C2W7+HC, Mali Iha, Kec. Kodi, Kabupaten Sumba Barat Daya, Nusa Tenggara Tim.","Kabupaten Sumba Barat Daya, Nusa Tenggara Tim.",NUSA TENGGARA TIMUR,,Indonesia,,,,-9.5536221,119.0135763,https://maps.google.com/?cid=0x0:0xc3fc8b39999ad6c,
mall,Pusat Perbelanjaan,Pasar Tradisional Wee Tombo,"C4PH+5F4, Jl. Rara Desa, Buru Kaghu, Kec. Wewewa Sel., Kabupaten Sumba Barat Daya, Nusa Tenggara Tim.","Kabupaten Sumba Barat Daya, Nusa Tenggara Tim.",NUSA TENGGARA TIMUR,,Indonesia,,,,-9.5646008,119.1287005,https://maps.google.com/?cid=0x0:0x769bed72e12cb0ac,
mall,mall,Kec. Kodi Bangedo,"Kabupaten Sumba Barat Daya, Nusa Tenggara Tim.","Kabupaten Sumba Barat Daya, Nusa Tenggara Tim.",NUSA TENGGARA TIMUR,,Indonesia,,,,-9.6026813,119.0171447,https://maps.google.com/?cid=0x0:0x3bbfbd9e4fb43622,
mall,Pusat Perbelanjaan,Toko Surya Gemilang,"CX4V+PR3, Unnamed Road, Nusa Tenggara Tim., Bondo Kodi, Kec. Kodi, Kabupaten Sumba Barat Daya, Nusa Tenggara Tim.","Kabupaten Sumba Barat Daya, Nusa Tenggara Tim.",NUSA TENGGARA TIMUR,,Indonesia,82334839824.0,,,-9.5932278,118.994537,https://maps.google.com/?cid=0x0:0x704ef2a057531580,
mall,Toko,Agen tiket dan fotocopy,"92HQ+FXG, Walla Ndimu, Kec. Kodi Bangedo, Kabupaten Sumba Barat Daya, Nusa Tenggara Tim.","Kabupaten Sumba Barat Daya, Nusa Tenggara Tim.",NUSA TENGGARA TIMUR,,Indonesia,,,,-9.6213023,119.0399468,https://maps.google.com/?cid=0x0:0xb6f340cb8459c67f,
mall,Toko,YUHEN FASTPAY,"CX6P+457, KAPUNGETANA, Kec. Kodi, Kabupaten Sumba Barat Daya, Nusa Tenggara Tim.","Kabupaten Sumba Barat Daya, Nusa Tenggara Tim.",NUSA TENGGARA TIMUR,,Indonesia,81220718168.0,,,-9.5897104,118.9854225,https://maps.google.com/?cid=0x0:0xc03624a5cae3ecb3,
mall,Pusat Perbelanjaan,toko sinar agung,"CX8W+45Q, jl. waitabula, Nusa Tenggara Tim., Bondo Kodi, Kec. Kodi, Kabupaten Sumba Barat Daya, Nusa Tenggara Tim.","Kabupaten Sumba Barat Daya, Nusa Tenggara Tim.",NUSA TENGGARA TIMUR,,Indonesia,82334839824.0,,,-9.5846689,118.9954947,https://maps.google.com/?cid=0x0:0x5a358639080b7261,
mall,Pusat Perbelanjaan,Kios Alam Indah,"F239+6MR, Mali Iha, Kec. Kodi, Kabupaten Sumba Barat Daya, Nusa Tenggara Tim.","Kabupaten Sumba Barat Daya, Nusa Tenggara Tim.",NUSA TENGGARA TIMUR,,Indonesia,,,,-9.5475911,119.0187825,https://maps.google.com/?cid=0x0:0x169574618e44928c,
mall,Toko Perlengkapan Rumah,Kios Sumber Kasih,"C2W7+HC, Mali Iha, Kec. Kodi, Kabupaten Sumba Barat Daya, Nusa Tenggara Tim.","Kabupaten Sumba Barat Daya, Nusa Tenggara Tim.",NUSA TENGGARA TIMUR,,Indonesia,,,,-9.5536221,119.0135763,https://maps.google.com/?cid=0x0:0xc3fc8b39999ad6c,
mall,Pusat Perbelanjaan,Kios Ole Kehe,"C2V5+HW, Kapaka Madeta, Kec. Kodi, Kabupaten Sumba Barat Daya, Nusa Tenggara Tim.","Kabupaten Sumba Barat Daya, Nusa Tenggara Tim.",NUSA TENGGARA TIMUR,,Indonesia,,,,-9.5564636,119.0104658,https://maps.google.com/?cid=0x0:0x6b2f529186dd0cc6,
mall,mall,Kantor Desa Delu Depa,"C3F8+667, Wai Kadada, Kec. Kodi Bangedo, Kabupaten Sumba Barat Daya, Nusa Tenggara Tim.","Kabupaten Sumba Barat Daya, Nusa Tenggara Tim.",NUSA TENGGARA TIMUR,,Indonesia,,,,-9.5769637,119.0655615,https://maps.google.com/?cid=0x0:0x8761bc8c62b71aa7,
mall,Pusat Perbelanjaan,Kios Mitra Angreiny,"F2G5+P5, Kori, Kec. Kodi Utara, Kabupaten Sumba Barat Daya, Nusa Tenggara Tim.","Kabupaten Sumba Barat Daya, Nusa Tenggara Tim.",NUSA TENGGARA TIMUR,,Indonesia,,,,-9.5232161,119.0079956,https://maps.google.com/?cid=0x0:0xf138b487bb14b7cf,
mall,Kantor Pemerintah,Kantor Desa Maliti Bondo Ate,"9XJX+3G, Lete Loko, Kec. Kodi Bangedo, Kabupaten Sumba Barat Daya, Nusa Tenggara Tim.","Kabupaten Sumba Barat Daya, Nusa Tenggara Tim.",NUSA TENGGARA TIMUR,,Indonesia,,,,-9.619806,118.9988451,https://maps.google.com/?cid=0x0:0xa35b2236fb17473e,
mall,Perhimpunan Pengembang Perumahan,Rada Loko,"C2CC+64Q, Dinjo, Kec. Kodi Bangedo, Kabupaten Sumba Barat Daya, Nusa Tenggara Tim.","Kabupaten Sumba Barat Daya, Nusa Tenggara Tim.",NUSA TENGGARA TIMUR,,Indonesia,,,,-9.5794028,119.0203546,https://maps.google.com/?cid=0x0:0xcc6f98581f1c961,
mall,mall,Kec. Kodi Utara,"Kabupaten Sumba Barat Daya, Nusa Tenggara Tim.","Kabupaten Sumba Barat Daya, Nusa Tenggara Tim.",NUSA TENGGARA TIMUR,,Indonesia,,,,-9.5201893,119.0312709,https://maps.google.com/?cid=0x0:0xc02655b0903b58a2,
mall,Taman,Mimpi,"G29V+HX5, Unnamed Road, Mangga Nipi, Kec. Kodi Utara, Kabupaten Sumba Barat Daya, Nusa Tenggara Tim.","Kabupaten Sumba Barat Daya, Nusa Tenggara Tim.",NUSA TENGGARA TIMUR,,Indonesia,,,,-9.4811111,119.0449874,https://maps.google.com/?cid=0x0:0x5f8113d9d3a6cf6f,
mall,Toko,Kios Jln. Mandorak,"FXX4+2W, Kalena Rongo, Kec. Kodi Utara, Kabupaten Sumba Barat Daya, Nusa Tenggara Tim.","Kabupaten Sumba Barat Daya, Nusa Tenggara Tim.",NUSA TENGGARA TIMUR,,Indonesia,,,,-9.5025228,118.957298,https://maps.google.com/?cid=0x0:0xca08045220781f9,
mall,Pusat Perbelanjaan,Kios Mitra Angreiny,"F2G5+P5, Kori, Kec. Kodi Utara, Kabupaten Sumba Barat Daya, Nusa Tenggara Tim.","Kabupaten Sumba Barat Daya, Nusa Tenggara Tim.",NUSA TENGGARA TIMUR,,Indonesia,,,,-9.5232161,119.0079956,https://maps.google.com/?cid=0x0:0xf138b487bb14b7cf,
mall,Toko Perlengkapan Rumah,Kios Sumber Kasih,"C2W7+HC, Mali Iha, Kec. Kodi, Kabupaten Sumba Barat Daya, Nusa Tenggara Tim.","Kabupaten Sumba Barat Daya, Nusa Tenggara Tim.",NUSA TENGGARA TIMUR,,Indonesia,,,,-9.5536221,119.0135763,https://maps.google.com/?cid=0x0:0xc3fc8b39999ad6c,
mall,Pusat Perbelanjaan,Kios Ole Kehe,"C2V5+HW, Kapaka Madeta, Kec. Kodi, Kabupaten Sumba Barat Daya, Nusa Tenggara Tim.","Kabupaten Sumba Barat Daya, Nusa Tenggara Tim.",NUSA TENGGARA TIMUR,,Indonesia,,,,-9.5564636,119.0104658,https://maps.google.com/?cid=0x0:0x6b2f529186dd0cc6,
mall,Pusat Perbelanjaan,Kios Alam Indah,"F239+6MR, Mali Iha, Kec. Kodi, Kabupaten Sumba Barat Daya, Nusa Tenggara Tim.","Kabupaten Sumba Barat Daya, Nusa Tenggara Tim.",NUSA TENGGARA TIMUR,,Indonesia,,,,-9.5475911,119.0187825,https://maps.google.com/?cid=0x0:0x169574618e44928c,
mall,Kantor Pemerintah,kantor BUMDes Cinta Usaha Bila Cenge,"G3R8+QXF, Bila Cenge, Kec. Kodi Utara, Kabupaten Sumba Barat Daya, Nusa Tenggara Tim.","Kabupaten Sumba Barat Daya, Nusa Tenggara Tim.",NUSA TENGGARA TIMUR,,Indonesia,82199883053.0,,,-9.4580643,119.067411,https://maps.google.com/?cid=0x0:0xdc02330518fb927,
mall,Pusat Perbelanjaan,Kios Urra lima,"G3RJ+JC4, Bukambero, Kec. Kodi Utara, Kabupaten Sumba Barat Daya, Nusa Tenggara Tim.","Kabupaten Sumba Barat Daya, Nusa Tenggara Tim.",NUSA TENGGARA TIMUR,,Indonesia,,,,-9.4584772,119.0810902,https://maps.google.com/?cid=0x0:0xcc7f654c8454f200,
mall,Toko,YUHEN FASTPAY,"CX6P+457, KAPUNGETANA, Kec. Kodi, Kabupaten Sumba Barat Daya, Nusa Tenggara Tim.","Kabupaten Sumba Barat Daya, Nusa Tenggara Tim.",NUSA TENGGARA TIMUR,,Indonesia,81220718168.0,,,-9.5897104,118.9854225,https://maps.google.com/?cid=0x0:0xc03624a5cae3ecb3,
mall,Pusat Perbelanjaan,Pasar Tradisional Wee Tombo,"C4PH+5F4, Jl. Rara Desa, Buru Kaghu, Kec. Wewewa Sel., Kabupaten Sumba Barat Daya, Nusa Tenggara Tim.","Kabupaten Sumba Barat Daya, Nusa Tenggara Tim.",NUSA TENGGARA TIMUR,,Indonesia,,,,-9.5646008,119.1287005,https://maps.google.com/?cid=0x0:0x769bed72e12cb0ac,
mall,Kantor Pemerintah,Mall Pelayanan,"9C97+62Q, Jl. Jend. Sudirman, Komerda, Kec. Kota Waikabubak, Kabupaten Sumba Barat, Nusa Tenggara Tim.","Kabupaten Sumba Barat, Nusa Tenggara Tim.",NUSA TENGGARA TIMUR,,Indonesia,,,,-9.631913,119.4126171,https://maps.google.com/?cid=0x0:0xb4578efb2dd2cab6,
mall,Pusat Perbelanjaan,toko sinar agung,"CX8W+45Q, jl. waitabula, Nusa Tenggara Tim., Bondo Kodi, Kec. Kodi, Kabupaten Sumba Barat Daya, Nusa Tenggara Tim.","Kabupaten Sumba Barat Daya, Nusa Tenggara Tim.",NUSA TENGGARA TIMUR,,Indonesia,82334839824.0,,,-9.5846689,118.9954947,https://maps.google.com/?cid=0x0:0x5a358639080b7261,
mall,Toko,Agen tiket dan fotocopy,"92HQ+FXG, Walla Ndimu, Kec. Kodi Bangedo, Kabupaten Sumba Barat Daya, Nusa Tenggara Tim.","Kabupaten Sumba Barat Daya, Nusa Tenggara Tim.",NUSA TENGGARA TIMUR,,Indonesia,,,,-9.6213023,119.0399468,https://maps.google.com/?cid=0x0:0xb6f340cb8459c67f,
mall,mall,Kec. Kota Tambolaka,"Kabupaten Sumba Barat Daya, Nusa Tenggara Tim.","Kabupaten Sumba Barat Daya, Nusa Tenggara Tim.",NUSA TENGGARA TIMUR,,Indonesia,,,,-9.4295733,119.2387484,https://maps.google.com/?cid=0x0:0x9f73216af1e7222b,
mall,Layanan Antar-Jemput Bandara,CINTA DAMAI TRAVEL TAMBOLAKA,"H6MW+HFV, Jl. Bandara Tambolaka, Radamata, Kec. Kota Tambolaka, Kabupaten Sumba Barat Daya, Nusa Tenggara Tim.","Kabupaten Sumba Barat Daya, Nusa Tenggara Tim.",NUSA TENGGARA TIMUR,,Indonesia,38722563.0,,,-9.4160212,119.2461611,https://maps.google.com/?cid=0x0:0x236e4c954e8bbe42,
mall,Pusat Perbelanjaan,Toko Sumba Sumber Sejahtera OleAte,"H68W+88X, Lara desa jl.kalena wanno desa kalena wanno, kecamatan, Kec. Kota Tambolaka, Kabupaten Sumba Barat Daya, Nusa Tenggara Tim.","Kabupaten Sumba Barat Daya, Nusa Tenggara Tim.",NUSA TENGGARA TIMUR,,Indonesia,,,,-9.4341391,119.2458714,https://maps.google.com/?cid=0x0:0x7feb897828f0b20e,
mall,Pusat Perbelanjaan,Toko Sumba Oke,"H6CR+GCC, Jln. Mars, Desa Weerena, Weetebula, Kec. Kota Tambolaka, Kab, Kalena Wano, Kec. Kota Tambolaka, Kabupaten Sumba Barat Daya, Nusa Tenggara Tim.","Kabupaten Sumba Barat Daya, Nusa Tenggara Tim.",NUSA TENGGARA TIMUR,,Indonesia,81236779987.0,,,-9.4286994,119.2410085,https://maps.google.com/?cid=0x0:0x87bcae157be47bb,
mall,Toko bahan makanan,Win Mart 3,"H65J+QQH, Langga Lero, Kec. Loura, Kabupaten Sumba Barat Daya, Nusa Tenggara Tim.","Kabupaten Sumba Barat Daya, Nusa Tenggara Tim.",NUSA TENGGARA TIMUR,,Indonesia,,,,-9.4405716,119.231976,https://maps.google.com/?cid=0x0:0xa0583f807e9f61e6,
mall,Kantor Perusahaan,PT.Smart Multi Finance,"Jl. Sapurata, Radamata, Kec. Loura, Kabupaten Sumba Barat Daya, Nusa Tenggara Tim.","Kabupaten Sumba Barat Daya, Nusa Tenggara Tim.",NUSA TENGGARA TIMUR,,Indonesia,3872524160.0,,,-9.430393,119.2376028,https://maps.google.com/?cid=0x0:0x650e45a965f6f14e,
mall,Minimarket,Alfamart Waitabula,"H6CQ+365, Radamata, Kec. Kota Tambolaka, Kabupaten Sumba Barat Daya, Nusa Tenggara Tim.","Kabupaten Sumba Barat Daya, Nusa Tenggara Tim.",NUSA TENGGARA TIMUR,,Indonesia,,,,-9.4298746,119.2380947,https://maps.google.com/?cid=0x0:0x3ac0077a37895662,
mall,Toko Suku Cadang Motor,Toko Duta Motor/Duta Music Tambolaka,"H64J+PRM, Wee Tobula, Kec. Loura, Kabupaten Sumba Barat Daya, Nusa Tenggara Tim.","Kabupaten Sumba Barat Daya, Nusa Tenggara Tim.",NUSA TENGGARA TIMUR,,Indonesia,,,,-9.4431665,119.2320487,https://maps.google.com/?cid=0x0:0xc081a636566196f7,
mall,Toko,Kios ceria pogolede,"H5PJ+8C9, Watu Kawula, Kec. Kota Tambolaka, Kabupaten Sumba Barat Daya, Nusa Tenggara Tim.","Kabupaten Sumba Barat Daya, Nusa Tenggara Tim.",NUSA TENGGARA TIMUR,,Indonesia,,,,-9.4142274,119.1811049,https://maps.google.com/?cid=0x0:0x655a2a82898f8c28,
mall,Pusat Perbelanjaan,Waingapu blesshop,"H6VQ+J52 depan kantor pertanahan, Radamata, Kec. Kota Tambolaka, Kabupaten Sumba Barat Daya, Nusa Tenggara Tim.","Kabupaten Sumba Barat Daya, Nusa Tenggara Tim.",NUSA TENGGARA TIMUR,,Indonesia,82193497544.0,,,-9.4059855,119.2378899,https://maps.google.com/?cid=0x0:0xd88598deb70950ff,
mall,Pasar,Pasar Radamata,"H6CQ+63P, Jl. Yos Sudarso, Radamata, Kec. Kota Tambolaka, Kabupaten Sumba Barat Daya, Nusa Tenggara Tim.","Kabupaten Sumba Barat Daya, Nusa Tenggara Tim.",NUSA TENGGARA TIMUR,,Indonesia,,,,-9.4118197,119.2269401,https://maps.google.com/?cid=0x0:0xc0e72986ecc59b7c,
mall,Toko Kosmetik,MS GLOW Sumba Subur,"H7M7+JR7, Wee Pangali, Kec. Kota Tambolaka, Kabupaten Sumba Barat Daya, Nusa Tenggara Tim.","Kabupaten Sumba Barat Daya, Nusa Tenggara Tim.",NUSA TENGGARA TIMUR,,Indonesia,81246333463.0,,,-9.4159611,119.2645372,https://maps.google.com/?cid=0x0:0x368730e111424a80,
mall,Pusat Perbelanjaan,Winmart,"Jalan Lintas Sumba, Radamata, Kota Tambolaka, Southwest Sumba Regency, East Nusa Tenggara 87255","Radamata, Kota Tambolaka, Southwest Sumba Regency",NUSA TENGGARA TIMUR,87255.0,Indonesia,,,,-9.4263575,119.2358169,https://maps.google.com/?cid=0x0:0x55043783a5b3b980,
mall,Toko Perlengkapan Rumah,Toko CRISTAL,"H65J+GRQ, Wee Tobula, Kec. Loura, Kabupaten Sumba Barat Daya, Nusa Tenggara Tim.","Kabupaten Sumba Barat Daya, Nusa Tenggara Tim.",NUSA TENGGARA TIMUR,,Indonesia,,,,-9.4411542,119.2321014,https://maps.google.com/?cid=0x0:0x5c60bdf864894b71,
mall,Toko Aksesori Pakaian,CAMILAN KHAS SUMBA -Amora-,"H68J+F33, Langga Lero, Kec. Kota Tambolaka, Kabupaten Sumba Barat Daya, Nusa Tenggara Tim.","Kabupaten Sumba Barat Daya, Nusa Tenggara Tim.",NUSA TENGGARA TIMUR,,Indonesia,,,,-9.433853,119.2301791,https://maps.google.com/?cid=0x0:0x5820daf0814d0c5,
mall,Toko Elektronik,MEDIA ELEKTRONIK CENTER,"H69M+2JM, Jl. Sapurata, Wee Tobula, Kec. Kota Tambolaka, Kabupaten Sumba Barat Daya, Nusa Tenggara Tim.","Kabupaten Sumba Barat Daya, Nusa Tenggara Tim.",NUSA TENGGARA TIMUR,,Indonesia,85253221889.0,,,-9.4324057,119.2340379,https://maps.google.com/?cid=0x0:0x92590fe823d49377,
mall,Toko Mainan,Fajar Boneka,"H66J+537, Langga Lero, Kec. Loura, Kabupaten Sumba Barat Daya, Nusa Tenggara Tim.","Kabupaten Sumba Barat Daya, Nusa Tenggara Tim.",NUSA TENGGARA TIMUR,,Indonesia,82147977401.0,,,-9.4395919,119.2301591,https://maps.google.com/?cid=0x0:0xbbbcbd963ed8e0fc,
mall,Toko,Toko Hambers,"H64J+JQ9, Unnamed Road, Wee Tobula, Kec. Loura, Kabupaten Sumba Barat Daya, Nusa Tenggara Tim.","Kabupaten Sumba Barat Daya, Nusa Tenggara Tim.",NUSA TENGGARA TIMUR,,Indonesia,,,,-9.4434657,119.2319879,https://maps.google.com/?cid=0x0:0x8c8a2d79f2d53ba,
mall,Kantor Perusahaan,Bandar Udara Lede Kalumbang,"Jl. Bandara No 1 Rada Mata Sumba Barat Daya Sumba Barat Ntt, Tambolaka, Nusa Tenggara Tim. 87254",Tambolaka,NUSA TENGGARA TIMUR,87254.0,Indonesia,3872524057.0,,,-9.4122602,119.2458204,https://maps.google.com/?cid=0x0:0xb1497aedd07a3363,
mall,mall,Sinar Tambolaka,"Hotel Sinar, Kalena Wano, Kec. Kota Tambolaka, Kabupaten Sumba Barat Daya, Nusa Tenggara Tim. 87255","Kalena Wano, Kec. Kota Tambolaka, Kabupaten Sumba Barat Daya",NUSA TENGGARA TIMUR,87255.0,Indonesia,3872524088.0,,,-9.4305675,119.2386103,https://maps.google.com/?cid=0x0:0xd1c8f3f36b22eaa1,
mall,mall,,,,NUSA TENGGARA TIMUR,,Indonesia,,,,,,https://maps.google.com/?cid=0x0:0xd1c8f3f36b22eaa1%7C/g/12vr2q517%7Cid-ID,
mall,mall,Oro Beach Houses,"Weepangali, Wee Pangali, Kec. Kota Tambolaka, Kabupaten Sumba Barat Daya, Nusa Tenggara Tim. 87254","Wee Pangali, Kec. Kota Tambolaka, Kabupaten Sumba Barat Daya",NUSA TENGGARA TIMUR,87254.0,Indonesia,81339110068.0,,,-9.3698359,119.2691648,https://maps.google.com/?cid=0x0:0xe9208c199549c4b1,
mall,mall,Villa Redemptorist,"Unnamed Road, Radamata, Kec. Loura, Kabupaten Sumba Barat Daya, Nusa Tenggara Tim.","Kabupaten Sumba Barat Daya, Nusa Tenggara Tim.",NUSA TENGGARA TIMUR,,Indonesia,81216498177.0,,,-9.3901395,119.2240008,https://maps.google.com/?cid=0x0:0xe015bc11d11fb1e,
mall,mall,Nusa Tenggara Tim.,,Nusa Tenggara Tim.,NUSA TENGGARA TIMUR,,Indonesia,,,,-8.6573819,121.0793705,https://maps.google.com/?cid=0x0:0x1030bfbcaf71ae0,
mall,Biro Perjalanan dan Wisata,Mananga Aba Beach,"J8P6+8X5, Karuni, Kec. Loura, Kabupaten Sumba Barat Daya, Nusa Tenggara Tim.","Kabupaten Sumba Barat Daya, Nusa Tenggara Tim.",NUSA TENGGARA TIMUR,,Indonesia,82191124143.0,,,-9.3642355,119.3124921,https://maps.google.com/?cid=0x0:0x115b70debc72be54,
mall,Kantor Pemerintah,Mall Pelayanan,"9C97+62Q, Jl. Jend. Sudirman, Komerda, Kec. Kota Waikabubak, Kabupaten Sumba Barat, Nusa Tenggara Tim.","Kabupaten Sumba Barat, Nusa Tenggara Tim.",NUSA TENGGARA TIMUR,,Indonesia,,,,-9.631913,119.4126171,https://maps.google.com/?cid=0x0:0xb4578efb2dd2cab6,
mall,Area Mendaki,Toko Tambolaka Indah,"H6FV+MV6, Radamata, Kec. Loura, Kabupaten Sumba Barat Daya, Nusa Tenggara Tim.","Kabupaten Sumba Barat Daya, Nusa Tenggara Tim.",NUSA TENGGARA TIMUR,,Indonesia,,,,-9.4258341,119.2446325,https://maps.google.com/?cid=0x0:0xe5f24922072cc6dc,
mall,Taman,Alun-alun Kota Tambolaka,"Jl. Lede Kalumbang, Radamata, Kec. Kota Tambolaka, Kabupaten Sumba Barat Daya, Nusa Tenggara Tim. 87255","Radamata, Kec. Kota Tambolaka, Kabupaten Sumba Barat Daya",NUSA TENGGARA TIMUR,87255.0,Indonesia,,,,-9.4248907,119.2463,https://maps.google.com/?cid=0x0:0x6e59592d73840b17,
mall,Pusat Perbelanjaan,Lilo Cell,"C8VM+9JW, Letekamouna, Kec. Wewewa Tim., Kabupaten Sumba Barat Daya, Nusa Tenggara Tim.","Kabupaten Sumba Barat Daya, Nusa Tenggara Tim.",NUSA TENGGARA TIMUR,,Indonesia,85333353332.0,,,-9.5565128,119.3340899,https://maps.google.com/?cid=0x0:0x48a9a9f7139abea4,
mall,mall,Kec. Loura,"Kabupaten Sumba Barat Daya, Nusa Tenggara Tim.","Kabupaten Sumba Barat Daya, Nusa Tenggara Tim.",NUSA TENGGARA TIMUR,,Indonesia,,,,-9.4214178,119.2970741,https://maps.google.com/?cid=0x0:0x49ebe3d33838ae6d,
mall,Pusat Perbelanjaan,Kios uma kalada,"H7RX+9M7, Unnamed Road, Ramma Dana, Kec. Loura, Kabupaten Sumba Barat Daya, Nusa Tenggara Tim.","Kabupaten Sumba Barat Daya, Nusa Tenggara Tim.",NUSA TENGGARA TIMUR,,Indonesia,82144450440.0,,,-9.4090936,119.299164,https://maps.google.com/?cid=0x0:0xe2d94c24bba6810c,
mall,Minimarket,"WR. NUSANTARA Belanja Hemat, Harga Merakyat.","Jl. Yos Sudarso, Radamata, Kec. Loura, Kabupaten Sumba Barat Daya, Nusa Tenggara Tim.","Kabupaten Sumba Barat Daya, Nusa Tenggara Tim.",NUSA TENGGARA TIMUR,,Indonesia,82145773633.0,,,-9.425975,119.2354732,https://maps.google.com/?cid=0x0:0xe8a758b3c7863196,
mall,Pusat Perbelanjaan,Kios Athalie,"H7MX+PQJ, Unnamed Road, Karuni, Kec. Loura, Kabupaten Sumba Barat Daya, Nusa Tenggara Tim.","Kabupaten Sumba Barat Daya, Nusa Tenggara Tim.",NUSA TENGGARA TIMUR,,Indonesia,,,,-9.4156728,119.2993867,https://maps.google.com/?cid=0x0:0x7645d469f53e6349,
mall,Kantor Perusahaan,PT.Smart Multi Finance,"Jl. Sapurata, Radamata, Kec. Loura, Kabupaten Sumba Barat Daya, Nusa Tenggara Tim.","Kabupaten Sumba Barat Daya, Nusa Tenggara Tim.",NUSA TENGGARA TIMUR,,Indonesia,3872524160.0,,,-9.430393,119.2376028,https://maps.google.com/?cid=0x0:0x650e45a965f6f14e,
mall,Toko bahan makanan,Win Mart 3,"H65J+QQH, Langga Lero, Kec. Loura, Kabupaten Sumba Barat Daya, Nusa Tenggara Tim.","Kabupaten Sumba Barat Daya, Nusa Tenggara Tim.",NUSA TENGGARA TIMUR,,Indonesia,,,,-9.4405716,119.231976,https://maps.google.com/?cid=0x0:0xa0583f807e9f61e6,
mall,Pusat Perbelanjaan,Toko Sumba Sumber Sejahtera OleAte,"H68W+88X, Lara desa jl.kalena wanno desa kalena wanno, kecamatan, Kec. Kota Tambolaka, Kabupaten Sumba Barat Daya, Nusa Tenggara Tim.","Kabupaten Sumba Barat Daya, Nusa Tenggara Tim.",NUSA TENGGARA TIMUR,,Indonesia,,,,-9.4341391,119.2458714,https://maps.google.com/?cid=0x0:0x7feb897828f0b20e,
mall,Pusat Perbelanjaan,Evinbers,"H7G7+M4W, Jl. Rangga Rame, Wee Pangali, Kec. Loura, Kabupaten Sumba Barat Daya, Nusa Tenggara Tim.","Kabupaten Sumba Barat Daya, Nusa Tenggara Tim.",NUSA TENGGARA TIMUR,,Indonesia,,,,-9.4232595,119.2628269,https://maps.google.com/?cid=0x0:0x15b6ef621ffe443e,
mall,Toko Kosmetik,MS GLOW Sumba Subur,"H7M7+JR7, Wee Pangali, Kec. Kota Tambolaka, Kabupaten Sumba Barat Daya, Nusa Tenggara Tim.","Kabupaten Sumba Barat Daya, Nusa Tenggara Tim.",NUSA TENGGARA TIMUR,,Indonesia,81246333463.0,,,-9.4159611,119.2645372,https://maps.google.com/?cid=0x0:0x368730e111424a80,
mall,Perhimpunan Pengembang Perumahan,Kabonu Tana,"H826+W9F, Karuni, Kec. Loura, Kabupaten Sumba Barat Daya, Nusa Tenggara Tim.","Kabupaten Sumba Barat Daya, Nusa Tenggara Tim.",NUSA TENGGARA TIMUR,,Indonesia,82146797928.0,,,-9.447688,119.3109163,https://maps.google.com/?cid=0x0:0x5abf63c34962df5f,
mall,Toko Mainan,Fajar Boneka,"H66J+537, Langga Lero, Kec. Loura, Kabupaten Sumba Barat Daya, Nusa Tenggara Tim.","Kabupaten Sumba Barat Daya, Nusa Tenggara Tim.",NUSA TENGGARA TIMUR,,Indonesia,82147977401.0,,,-9.4395919,119.2301591,https://maps.google.com/?cid=0x0:0xbbbcbd963ed8e0fc,
mall,Layanan Antar-Jemput Bandara,CINTA DAMAI TRAVEL TAMBOLAKA,"H6MW+HFV, Jl. Bandara Tambolaka, Radamata, Kec. Kota Tambolaka, Kabupaten Sumba Barat Daya, Nusa Tenggara Tim.","Kabupaten Sumba Barat Daya, Nusa Tenggara Tim.",NUSA TENGGARA TIMUR,,Indonesia,38722563.0,,,-9.4160212,119.2461611,https://maps.google.com/?cid=0x0:0x236e4c954e8bbe42,
mall,Pasar tradisional,Bengkel Obakomi Pasar Baru,"H7C2+7XF, Unnamed Road, Loura, Kabupaten Barat Daya, Nusa Tenggara Tim., Wee Pangali, Kec. Loura, Kabupaten Sumba Barat Daya, Nusa Tenggara Tim.","Kabupaten Sumba Barat Daya, Nusa Tenggara Tim.",NUSA TENGGARA TIMUR,,Indonesia,81246914224.0,,,-9.4293092,119.252435,https://maps.google.com/?cid=0x0:0xb3dfeb32bc0be362,
mall,Pasar,Kios Kembang Desa,"H9FR+5W2, Loko Ry, Kec. Tana Righu, Kabupaten Sumba Barat, Nusa Tenggara Tim.","Kabupaten Sumba Barat, Nusa Tenggara Tim.",NUSA TENGGARA TIMUR,,Indonesia,,,,-9.4277485,119.3926576,https://maps.google.com/?cid=0x0:0x644058c3b1ec4b39,
mall,Pusat Perbelanjaan,Waingapu blesshop,"H6VQ+J52 depan kantor pertanahan, Radamata, Kec. Kota Tambolaka, Kabupaten Sumba Barat Daya, Nusa Tenggara Tim.","Kabupaten Sumba Barat Daya, Nusa Tenggara Tim.",NUSA TENGGARA TIMUR,,Indonesia,82193497544.0,,,-9.4059855,119.2378899,https://maps.google.com/?cid=0x0:0xd88598deb70950ff,
mall,Pusat Perbelanjaan,Toko Sumba Oke,"H6CR+GCC, Jln. Mars, Desa Weerena, Weetebula, Kec. Kota Tambolaka, Kab, Kalena Wano, Kec. Kota Tambolaka, Kabupaten Sumba Barat Daya, Nusa Tenggara Tim.","Kabupaten Sumba Barat Daya, Nusa Tenggara Tim.",NUSA TENGGARA TIMUR,,Indonesia,81236779987.0,,,-9.4286994,119.2410085,https://maps.google.com/?cid=0x0:0x87bcae157be47bb,
mall,Toko Perlengkapan Rumah,Toko CRISTAL,"H65J+GRQ, Wee Tobula, Kec. Loura, Kabupaten Sumba Barat Daya, Nusa Tenggara Tim.","Kabupaten Sumba Barat Daya, Nusa Tenggara Tim.",NUSA TENGGARA TIMUR,,Indonesia,,,,-9.4411542,119.2321014,https://maps.google.com/?cid=0x0:0x5c60bdf864894b71,
mall,Toko,Toko Hambers,"H64J+JQ9, Unnamed Road, Wee Tobula, Kec. Loura, Kabupaten Sumba Barat Daya, Nusa Tenggara Tim.","Kabupaten Sumba Barat Daya, Nusa Tenggara Tim.",NUSA TENGGARA TIMUR,,Indonesia,,,,-9.4434657,119.2319879,https://maps.google.com/?cid=0x0:0x8c8a2d79f2d53ba,
mall,Pusat Perbelanjaan,Toko Baut di Sumba KJS,"H6HW+HRG, Unnamed Road, Radamata, Kec. Loura, Kabupaten Sumba Barat Daya, Nusa Tenggara Tim.","Kabupaten Sumba Barat Daya, Nusa Tenggara Tim.",NUSA TENGGARA TIMUR,,Indonesia,82339829005.0,,,-9.4210625,119.2470663,https://maps.google.com/?cid=0x0:0xe7d1e5e591ad3b52,
mall,Pasar,Pasar Radamata,"H6CQ+63P, Jl. Yos Sudarso, Radamata, Kec. Kota Tambolaka, Kabupaten Sumba Barat Daya, Nusa Tenggara Tim.","Kabupaten Sumba Barat Daya, Nusa Tenggara Tim.",NUSA TENGGARA TIMUR,,Indonesia,,,,-9.4118197,119.2269401,https://maps.google.com/?cid=0x0:0xc0e72986ecc59b7c,
mall,Sekolah Dasar,LOKO KALADA,"H995+PXM Loko Kalada, Bondo Boghila, Kec. Loura, Kabupaten Sumba Barat Daya, Nusa Tenggara Tim.","Kabupaten Sumba Barat Daya, Nusa Tenggara Tim.",NUSA TENGGARA TIMUR,,Indonesia,,,,-9.4306557,119.3599202,https://maps.google.com/?cid=0x0:0x54610d3353c9b0a0,
mall,mall,Nusa Tenggara Tim. 87253,"Raba Engge, Kec. Wewewa Bar., Kabupaten Sumba Barat Daya, Nusa Tenggara Tim.","Kabupaten Sumba Barat Daya, Nusa Tenggara Tim.",NUSA TENGGARA TIMUR,,Indonesia,,,,-9.5600081,119.2279835,https://maps.google.com/?cid=0x0:0x408cc62c8b3addfc,
mall,Toko bahan makanan,KIOS AWOLLA WUNGA,"F6PR+355, Karekakaka, Waimangura, Kec. Wewewa Bar., Kabupaten Sumba Barat Daya, Nusa Tenggara Tim.","Kabupaten Sumba Barat Daya, Nusa Tenggara Tim.",NUSA TENGGARA TIMUR,,Indonesia,81339560764.0,,,-9.5148699,119.2404999,https://maps.google.com/?cid=0x0:0xf41d4543bacf8122,
mall,Kantor Pemerintah,Mall Pelayanan,"9C97+62Q, Jl. Jend. Sudirman, Komerda, Kec. Kota Waikabubak, Kabupaten Sumba Barat, Nusa Tenggara Tim.","Kabupaten Sumba Barat, Nusa Tenggara Tim.",NUSA TENGGARA TIMUR,,Indonesia,,,,-9.631913,119.4126171,https://maps.google.com/?cid=0x0:0xb4578efb2dd2cab6,
mall,Toko Swalayan,Kios Umma Kalada,"F7P8+P36, Wee Kokora, Kec. Wewewa Tengah, Kabupaten Sumba Barat Daya, Nusa Tenggara Tim.","Kabupaten Sumba Barat Daya, Nusa Tenggara Tim.",NUSA TENGGARA TIMUR,,Indonesia,,,,-9.5132096,119.2651508,https://maps.google.com/?cid=0x0:0xd7e195f744604e82,
mall,Pusat Perbelanjaan,Pasar Weewulla,"95MR+63F, Denduka, Kec. Wewewa Sel., Kabupaten Sumba Barat Daya, Nusa Tenggara Tim.","Kabupaten Sumba Barat Daya, Nusa Tenggara Tim.",NUSA TENGGARA TIMUR,,Indonesia,81254833122.0,,,-9.6169281,119.1901602,https://maps.google.com/?cid=0x0:0x46283d3317ee6e42,
mall,mall,Kec. Wewewa Sel.,"Kabupaten Sumba Barat Daya, Nusa Tenggara Tim.","Kabupaten Sumba Barat Daya, Nusa Tenggara Tim.",NUSA TENGGARA TIMUR,,Indonesia,,,,-9.5674808,119.2200814,https://maps.google.com/?cid=0x0:0x5dc8281eeb398606,
mall,Pusat Perbelanjaan,Pasar Weewulla,"95MR+63F, Denduka, Kec. Wewewa Sel., Kabupaten Sumba Barat Daya, Nusa Tenggara Tim.","Kabupaten Sumba Barat Daya, Nusa Tenggara Tim.",NUSA TENGGARA TIMUR,,Indonesia,81254833122.0,,,-9.6169281,119.1901602,https://maps.google.com/?cid=0x0:0x46283d3317ee6e42,
mall,mall,Mawu Ate Home (Mareda Pare),"86VW+9H, Dangga Mango, Kec. Wewewa Tim., Kabupaten Sumba Barat Daya, Nusa Tenggara Tim.","Kabupaten Sumba Barat Daya, Nusa Tenggara Tim.",NUSA TENGGARA TIMUR,,Indonesia,,,,-9.6566875,119.2463125,https://maps.google.com/?cid=0x0:0x1b807087e4906b37,
mall,Pusat Perbelanjaan,Pasar Tradisional Wee Tombo,"C4PH+5F4, Jl. Rara Desa, Buru Kaghu, Kec. Wewewa Sel., Kabupaten Sumba Barat Daya, Nusa Tenggara Tim.","Kabupaten Sumba Barat Daya, Nusa Tenggara Tim.",NUSA TENGGARA TIMUR,,Indonesia,,,,-9.5646008,119.1287005,https://maps.google.com/?cid=0x0:0x769bed72e12cb0ac,
mall,Toko,Foto Copy Ceria,"Jl. Lintas Waitabula, Waimangura, Kec. Wewewa Bar., Kabupaten Sumba Barat Daya, Nusa Tenggara Tim.","Kabupaten Sumba Barat Daya, Nusa Tenggara Tim.",NUSA TENGGARA TIMUR,,Indonesia,82247120547.0,,,-9.5011591,119.2257226,https://maps.google.com/?cid=0x0:0xa69aeae17c70a5cd,
mall,Pasar,Pasar Kawasan Elopada,"C8GC+97V, Jl. Raya Elopada, Kalembu Ndara Mane, Kec. Wewewa Tim., Kabupaten Sumba Barat Daya, Nusa Tenggara Tim.","Kabupaten Sumba Barat Daya, Nusa Tenggara Tim.",NUSA TENGGARA TIMUR,,Indonesia,81237150550.0,,,-9.5740181,119.3206764,https://maps.google.com/?cid=0x0:0xae05cb7105e1e588,
mall,Toko bahan makanan,KIOS AWOLLA WUNGA,"F6PR+355, Karekakaka, Waimangura, Kec. Wewewa Bar., Kabupaten Sumba Barat Daya, Nusa Tenggara Tim.","Kabupaten Sumba Barat Daya, Nusa Tenggara Tim.",NUSA TENGGARA TIMUR,,Indonesia,81339560764.0,,,-9.5148699,119.2404999,https://maps.google.com/?cid=0x0:0xf41d4543bacf8122,
mall,Kios,Elu Ado Indah,"F9C3+W4F, Puu Potto, Kec. Wewewa Utara, Kabupaten Sumba Barat Daya, Nusa Tenggara Tim.","Kabupaten Sumba Barat Daya, Nusa Tenggara Tim.",NUSA TENGGARA TIMUR,,Indonesia,85270438325.0,,,-9.5276852,119.3527849,https://maps.google.com/?cid=0x0:0xfe491d7e2fae389,
mall,Kantor Pemerintah,Mall Pelayanan,"9C97+62Q, Jl. Jend. Sudirman, Komerda, Kec. Kota Waikabubak, Kabupaten Sumba Barat, Nusa Tenggara Tim.","Kabupaten Sumba Barat, Nusa Tenggara Tim.",NUSA TENGGARA TIMUR,,Indonesia,,,,-9.631913,119.4126171,https://maps.google.com/?cid=0x0:0xb4578efb2dd2cab6,
mall,mall,Kec. Wewewa Tengah,"Kabupaten Sumba Barat Daya, Nusa Tenggara Tim.","Kabupaten Sumba Barat Daya, Nusa Tenggara Tim.",NUSA TENGGARA TIMUR,,Indonesia,,,,-9.532605,119.2909927,https://maps.google.com/?cid=0x0:0x6f978c8d3fab9d28,
mall,Pembangunan Perumahan,Kampung Andalara,"G77V+Q2, Lombu, Kec. Wewewa Tengah, Kabupaten Sumba Barat Daya, Nusa Tenggara Tim.","Kabupaten Sumba Barat Daya, Nusa Tenggara Tim.",NUSA TENGGARA TIMUR,,Indonesia,,,,-9.4856214,119.2925247,https://maps.google.com/?cid=0x0:0xb9c64db4167aa7d4,
mall,Kantor Pemerintah,Mall Pelayanan,"9C97+62Q, Jl. Jend. Sudirman, Komerda, Kec. Kota Waikabubak, Kabupaten Sumba Barat, Nusa Tenggara Tim.","Kabupaten Sumba Barat, Nusa Tenggara Tim.",NUSA TENGGARA TIMUR,,Indonesia,,,,-9.631913,119.4126171,https://maps.google.com/?cid=0x0:0xb4578efb2dd2cab6,
mall,mall,Pasar Wewewa Utara,"F9F3+QG7, Wee Paboba, Kec. Wewewa Utara, Kabupaten Sumba Barat Daya, Nusa Tenggara Tim.","Kabupaten Sumba Barat Daya, Nusa Tenggara Tim.",NUSA TENGGARA TIMUR,,Indonesia,,,,-9.5255995,119.3538076,https://maps.google.com/?cid=0x0:0x78323b00b3de912f,
mall,Pasar,Pasar Kawasan Elopada,"C8GC+97V, Jl. Raya Elopada, Kalembu Ndara Mane, Kec. Wewewa Tim., Kabupaten Sumba Barat Daya, Nusa Tenggara Tim.","Kabupaten Sumba Barat Daya, Nusa Tenggara Tim.",NUSA TENGGARA TIMUR,,Indonesia,81237150550.0,,,-9.5740181,119.3206764,https://maps.google.com/?cid=0x0:0xae05cb7105e1e588,
mall,Toko bahan makanan,KIOS AWOLLA WUNGA,"F6PR+355, Karekakaka, Waimangura, Kec. Wewewa Bar., Kabupaten Sumba Barat Daya, Nusa Tenggara Tim.","Kabupaten Sumba Barat Daya, Nusa Tenggara Tim.",NUSA TENGGARA TIMUR,,Indonesia,81339560764.0,,,-9.5148699,119.2404999,https://maps.google.com/?cid=0x0:0xf41d4543bacf8122,
mall,Kantor Pemerintah,Kantor Kecamatan Wewewa Tengah,"F75G+WCV, Wee Kokora, Kec. Wewewa Tengah, Kabupaten Sumba Barat Daya, Nusa Tenggara Tim.","Kabupaten Sumba Barat Daya, Nusa Tenggara Tim.",NUSA TENGGARA TIMUR,,Indonesia,,,,-9.5401343,119.2760338,https://maps.google.com/?cid=0x0:0xb0a4b9fbb0d24b68,
mall,mall,Kec. Wewewa Tim.,"Kabupaten Sumba Barat Daya, Nusa Tenggara Tim.","Kabupaten Sumba Barat Daya, Nusa Tenggara Tim.",NUSA TENGGARA TIMUR,,Indonesia,,,,-9.5922479,119.3511009,https://maps.google.com/?cid=0x0:0x69ead4906c239f2b,
mall,Kantor Pemerintah,Mall Pelayanan,"9C97+62Q, Jl. Jend. Sudirman, Komerda, Kec. Kota Waikabubak, Kabupaten Sumba Barat, Nusa Tenggara Tim.","Kabupaten Sumba Barat, Nusa Tenggara Tim.",NUSA TENGGARA TIMUR,,Indonesia,,,,-9.631913,119.4126171,https://maps.google.com/?cid=0x0:0xb4578efb2dd2cab6,
mall,Toko bahan makanan,KIOS AWOLLA WUNGA,"F6PR+355, Karekakaka, Waimangura, Kec. Wewewa Bar., Kabupaten Sumba Barat Daya, Nusa Tenggara Tim.","Kabupaten Sumba Barat Daya, Nusa Tenggara Tim.",NUSA TENGGARA TIMUR,,Indonesia,81339560764.0,,,-9.5148699,119.2404999,https://maps.google.com/?cid=0x0:0xf41d4543bacf8122,
mall,Pusat Perbelanjaan,Pasar Weewulla,"95MR+63F, Denduka, Kec. Wewewa Sel., Kabupaten Sumba Barat Daya, Nusa Tenggara Tim.","Kabupaten Sumba Barat Daya, Nusa Tenggara Tim.",NUSA TENGGARA TIMUR,,Indonesia,81254833122.0,,,-9.6169281,119.1901602,https://maps.google.com/?cid=0x0:0x46283d3317ee6e42,
mall,mall,Mawu Ate Home (Mareda Pare),"86VW+9H, Dangga Mango, Kec. Wewewa Tim., Kabupaten Sumba Barat Daya, Nusa Tenggara Tim.","Kabupaten Sumba Barat Daya, Nusa Tenggara Tim.",NUSA TENGGARA TIMUR,,Indonesia,,,,-9.6566875,119.2463125,https://maps.google.com/?cid=0x0:0x1b807087e4906b37,
mall,Pasar,Pasar Kawasan Elopada,"C8GC+97V, Jl. Raya Elopada, Kalembu Ndara Mane, Kec. Wewewa Tim., Kabupaten Sumba Barat Daya, Nusa Tenggara Tim.","Kabupaten Sumba Barat Daya, Nusa Tenggara Tim.",NUSA TENGGARA TIMUR,,Indonesia,81237150550.0,,,-9.5740181,119.3206764,https://maps.google.com/?cid=0x0:0xae05cb7105e1e588,
mall,Pusat Perbelanjaan,Ringroad wone-Bondosula,"986W+X98, Wee Karou, Weedabo, Kabupaten Sumba Barat, Nusa Tenggara Tim.","Kabupaten Sumba Barat, Nusa Tenggara Tim.",NUSA TENGGARA TIMUR,,Indonesia,,,,-9.6375967,119.3459677,https://maps.google.com/?cid=0x0:0x90e6641759bda27c,
mall,Pusat Perbelanjaan,Lilo Cell,"C8VM+9JW, Letekamouna, Kec. Wewewa Tim., Kabupaten Sumba Barat Daya, Nusa Tenggara Tim.","Kabupaten Sumba Barat Daya, Nusa Tenggara Tim.",NUSA TENGGARA TIMUR,,Indonesia,85333353332.0,,,-9.5565128,119.3340899,https://maps.google.com/?cid=0x0:0x48a9a9f7139abea4,
mall,Kios,Elu Ado Indah,"F9C3+W4F, Puu Potto, Kec. Wewewa Utara, Kabupaten Sumba Barat Daya, Nusa Tenggara Tim.","Kabupaten Sumba Barat Daya, Nusa Tenggara Tim.",NUSA TENGGARA TIMUR,,Indonesia,85270438325.0,,,-9.5276852,119.3527849,https://maps.google.com/?cid=0x0:0xfe491d7e2fae389,
mall,Pusat Perbelanjaan,LILO CELL CABANG LIMA,"C8CX+582 Maida Ole, Weelimbu, Kec. Wewewa Tim., Kabupaten Sumba Barat Daya, Nusa Tenggara Tim.","Kabupaten Sumba Barat Daya, Nusa Tenggara Tim.",NUSA TENGGARA TIMUR,,Indonesia,,,,-9.5796146,119.3482646,https://maps.google.com/?cid=0x0:0x9ef89cc253a34bbf,
mall,Pasar,Pasar Inpres Dan Terminal Kota,"Jl. Pisang No.4, Wailiang, Kec. Kota Waikabubak, Kabupaten Sumba Barat, Nusa Tenggara Tim.","Kabupaten Sumba Barat, Nusa Tenggara Tim.",NUSA TENGGARA TIMUR,,Indonesia,,,,-9.6358162,119.4086708,https://maps.google.com/?cid=0x0:0x437bb78d9deb606a,
mall,Pasar,Pasar Raya Tenateke,"C6P3+4C9, Unnamed Road, Tena Teke, Kec. Wewewa Sel., Kabupaten Sumba Barat Daya, Nusa Tenggara Tim.","Kabupaten Sumba Barat Daya, Nusa Tenggara Tim.",NUSA TENGGARA TIMUR,,Indonesia,,,,-9.5647044,119.203623,https://maps.google.com/?cid=0x0:0x83193e5d74fa5f17,
mall,Toko Elektronik,Sumba Cell Jadi Makmur,"9C75+R7G, Wailiang, Kec. Kota Waikabubak, Kabupaten Sumba Barat, Nusa Tenggara Tim.","Kabupaten Sumba Barat, Nusa Tenggara Tim.",NUSA TENGGARA TIMUR,,Indonesia,,,,-9.6354314,119.4082177,https://maps.google.com/?cid=0x0:0x2a7a920609baa4d,
mall,mall,Cahaya Fashion Store,"Wailiang, Kec. Kota Waikabubak, Kabupaten Sumba Barat, Nusa Tenggara Tim.","Kabupaten Sumba Barat, Nusa Tenggara Tim.",NUSA TENGGARA TIMUR,,Indonesia,,,,-9.6360552,119.4085702,https://maps.google.com/?cid=0x0:0x65c5220f6d4536f,
mall,Pemasok Air Minum Dalam Kemasan,DEPO AIR MINUM LangitRO,"Wee Karou, Kec. Loli, Kabupaten Sumba Barat, Nusa Tenggara Tim.","Kabupaten Sumba Barat, Nusa Tenggara Tim.",NUSA TENGGARA TIMUR,,Indonesia,,,,-9.6415602,119.4019675,https://maps.google.com/?cid=0x0:0xf8de244a7b90e64,
mall,Toko,Toko Sinar Rejeki,"9CC5+75J, Jl. Bhayangkara, Komerda, Kec. Kota Waikabubak, Kabupaten Sumba Barat, Nusa Tenggara Tim.","Kabupaten Sumba Barat, Nusa Tenggara Tim.",NUSA TENGGARA TIMUR,,Indonesia,,,,-9.6292861,119.4078761,https://maps.google.com/?cid=0x0:0xc0277287f1a58206,
mall,Toko Pakaian,NIZHAMI COLLECTION,"Wee Karou, Kec. Loli, Kabupaten Sumba Barat, Nusa Tenggara Tim.","Kabupaten Sumba Barat, Nusa Tenggara Tim.",NUSA TENGGARA TIMUR,,Indonesia,81326106122.0,,,-9.6390203,119.4052172,https://maps.google.com/?cid=0x0:0x9810c809a49d9bec,
mall,Toko,Kios putra barokah,"Jl. Pisang No.4, Wailiang, Kec. Kota Waikabubak, Kabupaten Sumba Barat, Nusa Tenggara Tim.","Kabupaten Sumba Barat, Nusa Tenggara Tim.",NUSA TENGGARA TIMUR,,Indonesia,,,,-9.6352815,119.40779,https://maps.google.com/?cid=0x0:0xaab8d34d795a9934,
mall,Pasar,Terminal pasar lama,"Terminal pasar lama, Wailiang, Kec. Kota Waikabubak, Kabupaten Sumba Barat, Nusa Tenggara Tim.","Kabupaten Sumba Barat, Nusa Tenggara Tim.",NUSA TENGGARA TIMUR,,Indonesia,,,,-9.6378431,119.4071079,https://maps.google.com/?cid=0x0:0x8769e308c38a9ce4,
mall,Bengkel Sepeda Motor,Toko Sumber Mas Motor,"9CC4+QFQ, Jl. Bhayangkara, Komerda, Kec. Kota Waikabubak, Kabupaten Sumba Barat, Nusa Tenggara Tim.","Kabupaten Sumba Barat, Nusa Tenggara Tim.",NUSA TENGGARA TIMUR,,Indonesia,,,,-9.6280452,119.4062342,https://maps.google.com/?cid=0x0:0xb253222bbb3b1dbc,
mall,mall,Kec. Wewewa Utara,"Kabupaten Sumba Barat Daya, Nusa Tenggara Tim.","Kabupaten Sumba Barat Daya, Nusa Tenggara Tim.",NUSA TENGGARA TIMUR,,Indonesia,,,,-9.5267607,119.3539572,https://maps.google.com/?cid=0x0:0xe58277af67096a5b,
mall,Kios,Elu Ado Indah,"F9C3+W4F, Puu Potto, Kec. Wewewa Utara, Kabupaten Sumba Barat Daya, Nusa Tenggara Tim.","Kabupaten Sumba Barat Daya, Nusa Tenggara Tim.",NUSA TENGGARA TIMUR,,Indonesia,85270438325.0,,,-9.5276852,119.3527849,https://maps.google.com/?cid=0x0:0xfe491d7e2fae389,
mall,Pusat Perbelanjaan,Lilo Cell,"C8VM+9JW, Letekamouna, Kec. Wewewa Tim., Kabupaten Sumba Barat Daya, Nusa Tenggara Tim.","Kabupaten Sumba Barat Daya, Nusa Tenggara Tim.",NUSA TENGGARA TIMUR,,Indonesia,85333353332.0,,,-9.5565128,119.3340899,https://maps.google.com/?cid=0x0:0x48a9a9f7139abea4,
mall,Kantor Pemerintah,Mall Pelayanan,"9C97+62Q, Jl. Jend. Sudirman, Komerda, Kec. Kota Waikabubak, Kabupaten Sumba Barat, Nusa Tenggara Tim.","Kabupaten Sumba Barat, Nusa Tenggara Tim.",NUSA TENGGARA TIMUR,,Indonesia,,,,-9.631913,119.4126171,https://maps.google.com/?cid=0x0:0xb4578efb2dd2cab6,
mall,mall,Pasar Wewewa Utara,"F9F3+QG7, Wee Paboba, Kec. Wewewa Utara, Kabupaten Sumba Barat Daya, Nusa Tenggara Tim.","Kabupaten Sumba Barat Daya, Nusa Tenggara Tim.",NUSA TENGGARA TIMUR,,Indonesia,,,,-9.5255995,119.3538076,https://maps.google.com/?cid=0x0:0x78323b00b3de912f,
mall,Pusat Perbelanjaan,LILO CELL CABANG LIMA,"C8CX+582 Maida Ole, Weelimbu, Kec. Wewewa Tim., Kabupaten Sumba Barat Daya, Nusa Tenggara Tim.","Kabupaten Sumba Barat Daya, Nusa Tenggara Tim.",NUSA TENGGARA TIMUR,,Indonesia,,,,-9.5796146,119.3482646,https://maps.google.com/?cid=0x0:0x9ef89cc253a34bbf,
supermarket,supermarket,Nusa Tenggara Tim.,,Nusa Tenggara Tim.,NUSA TENGGARA TIMUR,,Indonesia,,,,-8.6573819,121.0793705,https://maps.google.com/?cid=0x0:0x1030bfbcaf71ae0,
supermarket,Minimarket,Indomaret,"F2WP+PV5, Kori, Kec. Kodi Utara, Kabupaten Sumba Barat Daya, Nusa Tenggara Tim.","Kabupaten Sumba Barat Daya, Nusa Tenggara Tim.",NUSA TENGGARA TIMUR,,Indonesia,,,,-9.503255,119.037196,https://maps.google.com/?cid=0x0:0xee828d5f40d0dde8,
supermarket,Toserba,Supermarket Matahari,"pasar inpres naikoten No.1, Naikoten I, Kec. Kota Raja, Kota Kupang, Nusa Tenggara Tim. 85142","Naikoten I, Kec. Kota Raja, Kota Kupang",NUSA TENGGARA TIMUR,85142.0,Indonesia,,,,-10.1813187,123.6009175,https://maps.google.com/?cid=0x0:0x47fc92b423019c18,
supermarket,Pasar tradisional,Pasar Rakyat Waimangura,"F6RP+99R, Waimangura, Kec. Wewewa Bar., Kabupaten Sumba Barat Daya, Nusa Tenggara Tim.","Kabupaten Sumba Barat Daya, Nusa Tenggara Tim.",NUSA TENGGARA TIMUR,,Indonesia,,,,-9.5090091,119.2358784,https://maps.google.com/?cid=0x0:0x5cb6085d34f90953,
supermarket,Toko bahan makanan,Toko Kodir,"CQPP+5H4, RT.04/RW.08, Kedung Jaya, Kec. Tanah Sereal, Kota Bogor, Jawa Barat 16164","RT.04/RW.08, Kedung Jaya, Kec. Tanah Sereal, Kota Bogor",NUSA TENGGARA TIMUR,16164.0,Indonesia,,,,-6.5646059,106.7864456,https://maps.google.com/?cid=0x0:0xec75a04628eb017e,
supermarket,Toko bahan makanan,Toko Kodir,"RQ9H+64M, RT.3/RW.2, Duri Kepa, Kec. Kb. Jeruk, Kota Jakarta Barat, Daerah Khusus Ibukota Jakarta 11510","RT.3/RW.2, Duri Kepa, Kec. Kb. Jeruk, Kota Jakarta Barat",NUSA TENGGARA TIMUR,11510.0,Indonesia,,,,-6.1819238,106.7777877,https://maps.google.com/?cid=0x0:0xa2b8b64edaf8cebc,
supermarket,Minimarket,Indomaret Bukitduri Selatan,"Jl. Sawo Raya No.67 6, RT.5/RW.4, Bukit Duri, Kec. Tebet, Kota Jakarta Selatan, Daerah Khusus Ibukota Jakarta 12840","RT.5/RW.4, Bukit Duri, Kec. Tebet, Kota Jakarta Selatan",NUSA TENGGARA TIMUR,12840.0,Indonesia,,,,-6.2210521,106.8553295,https://maps.google.com/?cid=0x0:0xa1c9bd27af4dd681,
supermarket,Toko,Toko Kodir,"Jl. Papanggo 2B No.38 rt07/01, RT.7/RW.1, Papanggo, Kec. Tj. Priok, Jkt Utara, Daerah Khusus Ibukota Jakarta 14340","RT.7/RW.1, Papanggo, Kec. Tj. Priok, Jkt Utara",NUSA TENGGARA TIMUR,14340.0,Indonesia,,,,-6.1275339,106.8811614,https://maps.google.com/?cid=0x0:0x9fa592c48da8b037,
supermarket,Toko Swalayan,Cipta Fruit Market,"Jl. Raya Mangga Besar No.134, Kartini, Kecamatan Sawah Besar, Kota Jakarta Pusat, Daerah Khusus Ibukota Jakarta 10750","Kartini, Kecamatan Sawah Besar, Kota Jakarta Pusat",NUSA TENGGARA TIMUR,10750.0,Indonesia,2162316881.0,,,-6.1482699,106.8298092,https://maps.google.com/?cid=0x0:0xe012b4e4fdb8f04b,
supermarket,Toko Buah dan Sayur,Toko Buah AL-HIDAYAH BST,"Jl. Bukit Duri Tanjakan No.18-43 9, RT.9/RW.8, Bukit Duri, Kec. Tebet, Kota Jakarta Selatan, Daerah Khusus Ibukota Jakarta 12840","RT.9/RW.8, Bukit Duri, Kec. Tebet, Kota Jakarta Selatan",NUSA TENGGARA TIMUR,12840.0,Indonesia,85840005777.0,,,-6.2200461,106.8590315,https://maps.google.com/?cid=0x0:0x264964f68d36c0c3,
supermarket,Kedai Kopi,Warung Herman,"Jl. Kartini IX No.24 1, RT.10/RW.3, Kartini, Kecamatan Sawah Besar, Kota Jakarta Pusat, Daerah Khusus Ibukota Jakarta 10750","RT.10/RW.3, Kartini, Kecamatan Sawah Besar, Kota Jakarta Pusat",NUSA TENGGARA TIMUR,10750.0,Indonesia,81311431476.0,,,-6.152399,106.8329594,https://maps.google.com/?cid=0x0:0x45f127045f3bde4d,
supermarket,Toko bahan makanan,Indomaret Kartini X B RT 002/02,"RRXM+WRV, Jl. Kartini X B, RT.3/RW.2, Kartini, Kecamatan Sawah Besar, Kota Jakarta Pusat, Daerah Khusus Ibukota Jakarta 10750","Jl. Kartini X B, RT.3/RW.2, Kartini, Kecamatan Sawah Besar, Kota Jakarta Pusat",NUSA TENGGARA TIMUR,10750.0,Indonesia,8881002077.0,,,-6.1501433,106.8345366,https://maps.google.com/?cid=0x0:0xd821cf40f4cf0d84,
supermarket,,WARUNG KODIR,"Drangong, Kec. Taktakan, Kota Serang, Banten","Kota Serang, Banten",NUSA TENGGARA TIMUR,,Indonesia,,,,-6.1048667,106.1340294,https://maps.google.com/?cid=0x0:0xd6f20b1f77606dfd,
supermarket,Toko bahan makanan,indomaret kartini 8,"Jl. Kartini Raya No.34, RT.15/RW.4, Kartini, Kecamatan Sawah Besar, Kota Jakarta Pusat, Daerah Khusus Ibukota Jakarta 10750","RT.15/RW.4, Kartini, Kecamatan Sawah Besar, Kota Jakarta Pusat",NUSA TENGGARA TIMUR,10750.0,Indonesia,,,,-6.1529093,106.8317853,https://maps.google.com/?cid=0x0:0x5866103a23cc500,
supermarket,supermarket,Kec. Kodi Balaghar,"Kabupaten Sumba Barat Daya, Nusa Tenggara Tim.","Kabupaten Sumba Barat Daya, Nusa Tenggara Tim.",NUSA TENGGARA TIMUR,,Indonesia,,,,-9.6674786,119.0525222,https://maps.google.com/?cid=0x0:0x553cbf3de56efc03,
supermarket,Tujuan Wisata,Pantai Ratenggaro,"Umbu Ngedo, Kec. Kodi Bangedo, Kabupaten Sumba Barat Daya, Nusa Tenggara Tim.","Kabupaten Sumba Barat Daya, Nusa Tenggara Tim.",NUSA TENGGARA TIMUR,,Indonesia,82261606299.0,,,-9.6298283,119.0027695,https://maps.google.com/?cid=0x0:0xd4337d2a599d5ba8,
supermarket,Kantor Pemerintah,Kantor Desa Manu Toghi,"93JF+3Q6 Manu Toghi, Wai Ha, Kec. Kodi Balaghar, Kabupaten Sumba Barat Daya, Nusa Tenggara Tim.","Kabupaten Sumba Barat Daya, Nusa Tenggara Tim.",NUSA TENGGARA TIMUR,,Indonesia,,,,-9.6198342,119.0743938,https://maps.google.com/?cid=0x0:0x6ad81091be98352,
supermarket,Toko bahan makanan,Kios Tunas Kasih/Mone Kaha,"83C3+6C, Panenggo Ede, Kec. Kodi Balaghar, Kabupaten Sumba Barat Daya, Nusa Tenggara Tim.","Kabupaten Sumba Barat Daya, Nusa Tenggara Tim.",NUSA TENGGARA TIMUR,,Indonesia,,,,-9.6794263,119.0535568,https://maps.google.com/?cid=0x0:0x2a3ea484e6030252,
supermarket,Toko bahan makanan,Ana Maraka,"922W+8P9, Wai Ha, Kec. Kodi Bangedo, Kabupaten Sumba Barat Daya, Nusa Tenggara Tim.","Kabupaten Sumba Barat Daya, Nusa Tenggara Tim.",NUSA TENGGARA TIMUR,,Indonesia,81292759812.0,,,-9.6492075,119.0468531,https://maps.google.com/?cid=0x0:0x75b0eaa991d22283,
supermarket,Toko umum,Mandiri Agen Kios Bapa Citra,"8435+8G2, Panenggo Ede, Kodi Balaghar, Southwest Sumba Regency, East Nusa Tenggara","Kabupaten Sumba Barat Daya, Nusa Tenggara Tim.",NUSA TENGGARA TIMUR,,Indonesia,,,,-9.696748,119.1087622,https://maps.google.com/?cid=0x0:0x408ed6eb4515b46,
supermarket,Toko umum,KIOS ANUGERAH WAIKAMALA,"83CC+P43, Panenggo Ede, Kec. Kodi Balaghar, Kabupaten Sumba Barat Daya, Nusa Tenggara Tim.","Kabupaten Sumba Barat Daya, Nusa Tenggara Tim.",NUSA TENGGARA TIMUR,,Indonesia,82146042553.0,,,-9.6782337,119.0703084,https://maps.google.com/?cid=0x0:0x6272bffff7130ee8,
supermarket,Toko,Nona Helmy,"Kalogho dawa jl. Panenggo ede, Wai Ha, Kec. Kodi Balaghar, Kabupaten Sumba Barat Daya, Nusa Tenggara Tim. 87262","Wai Ha, Kec. Kodi Balaghar, Kabupaten Sumba Barat Daya",NUSA TENGGARA TIMUR,87262.0,Indonesia,82146228102.0,,,-9.6487645,119.0464833,https://maps.google.com/?cid=0x0:0x791eb3cc82b7689,
supermarket,Toko,Lura Ate,"Lete Loko, Kec. Kodi Bangedo, Kabupaten Sumba Barat Daya, Nusa Tenggara Tim.","Kabupaten Sumba Barat Daya, Nusa Tenggara Tim.",NUSA TENGGARA TIMUR,,Indonesia,,,,-9.6072204,119.0208436,https://maps.google.com/?cid=0x0:0x28c1f4e97de6b72b,
supermarket,Toko bahan makanan,Amora Store,"92JQ+CR, Walla Ndimu, Kec. Kodi Bangedo, Kabupaten Sumba Barat Daya, Nusa Tenggara Tim.","Kabupaten Sumba Barat Daya, Nusa Tenggara Tim.",NUSA TENGGARA TIMUR,,Indonesia,,,,-9.6189352,119.0395655,https://maps.google.com/?cid=0x0:0xe7dde8f421aff441,
supermarket,Toko Kayu,Sumber kasih,"Walla Ndimu, Kec. Kodi Bangedo, Kabupaten Sumba Barat Daya, Nusa Tenggara Tim. 87255","Kec. Kodi Bangedo, Kabupaten Sumba Barat Daya",NUSA TENGGARA TIMUR,87255.0,Indonesia,81219169550.0,,,-9.6244052,119.0413814,https://maps.google.com/?cid=0x0:0xb16d2da5182d6d1e,
supermarket,Toko,KASIH BERKAT,"Walla Ndimu, Kec. Kodi Bangedo, Kabupaten Sumba Barat Daya, Nusa Tenggara Tim. 87264","Kec. Kodi Bangedo, Kabupaten Sumba Barat Daya",NUSA TENGGARA TIMUR,87264.0,Indonesia,81335789980.0,,,-9.6260985,119.0411577,https://maps.google.com/?cid=0x0:0xe29ea410343cacdf,
supermarket,supermarket,El' Cookies,"kalogha dawa, Kec. Kodi Balaghar, waitabula, Nusa Tenggara Tim. 87255","Kec. Kodi Balaghar, waitabula",NUSA TENGGARA TIMUR,87255.0,Indonesia,,,,-9.652199,119.0469887,https://maps.google.com/?cid=0x0:0x666321a8c4dbd7a0,
supermarket,Pelayanan Keamanan Jalan,Bironggo,"C25V+26, Wai Kadada, Kec. Kodi Bangedo, Kabupaten Sumba Barat Daya, Nusa Tenggara Tim.","Kabupaten Sumba Barat Daya, Nusa Tenggara Tim.",NUSA TENGGARA TIMUR,,Indonesia,,,,-9.59249,119.0430085,https://maps.google.com/?cid=0x0:0x2432b805b99eec34,
supermarket,Pemasok Air Minum Dalam Kemasan,supplier air bersih,"92CQ+WPM, Walla Ndimu, Kec. Kodi Bangedo, Kabupaten Sumba Barat Daya, Nusa Tenggara Tim.","Kabupaten Sumba Barat Daya, Nusa Tenggara Tim.",NUSA TENGGARA TIMUR,,Indonesia,82336000984.0,,,-9.6276652,119.0392874,https://maps.google.com/?cid=0x0:0x45d51993ec3d6c89,
supermarket,Kios,Kios Pak Agus Longga,"92W8+XM5, Jln. Waimarama, Lete Loko, Kec. Kodi Bangedo, Kabupaten Sumba Barat Daya, Nusa Tenggara Tim.","Kabupaten Sumba Barat Daya, Nusa Tenggara Tim.",NUSA TENGGARA TIMUR,,Indonesia,,,,-9.6026217,119.0167239,https://maps.google.com/?cid=0x0:0x208339646c7f5c07,
supermarket,Kantor Perusahaan,Kodi Indah,"92VC+87, Lete Loko, Kec. Kodi Bangedo, Kabupaten Sumba Barat Daya, Nusa Tenggara Tim.","Kabupaten Sumba Barat Daya, Nusa Tenggara Tim.",NUSA TENGGARA TIMUR,,Indonesia,,,,-9.6066398,119.0207059,https://maps.google.com/?cid=0x0:0xaeed8fd4df4219af,
supermarket,Toko,Kios Mekar Inda,"C2RP+V5R, Mali Iha, Kec. Kodi, Kabupaten Sumba Barat Daya, Nusa Tenggara Tim.","Kabupaten Sumba Barat Daya, Nusa Tenggara Tim.",NUSA TENGGARA TIMUR,,Indonesia,,,,-9.5577695,119.035379,https://maps.google.com/?cid=0x0:0x91b1089b47c1d4b3,
supermarket,Toko Perlengkapan Rumah,Toko Sengsara,"92X7+Q5X, Dinjo, Kec. Kodi Bangedo, Kabupaten Sumba Barat Daya, Nusa Tenggara Tim.","Kabupaten Sumba Barat Daya, Nusa Tenggara Tim.",NUSA TENGGARA TIMUR,,Indonesia,,,,-9.6005202,119.0129909,https://maps.google.com/?cid=0x0:0x149404000ca17a17,
supermarket,Toko,Fajar Agung,"H68M+394, Jl. Sapurata, Wee Tobula, Kec. Loura, Kabupaten Sumba Barat Daya, Nusa Tenggara Tim.","Kabupaten Sumba Barat Daya, Nusa Tenggara Tim.",NUSA TENGGARA TIMUR,,Indonesia,81338993594.0,,,-9.4348721,119.2334377,https://maps.google.com/?cid=0x0:0xe29d5a8cf2f498b6,
supermarket,Pusat Perbelanjaan,Kios.Sumber Rejeki,"C2RG+J39, WatuWona, Kec. Kodi, Kabupaten Sumba Barat Daya, Nusa Tenggara Tim.","Kabupaten Sumba Barat Daya, Nusa Tenggara Tim.",NUSA TENGGARA TIMUR,,Indonesia,,,,-9.55846,119.0252275,https://maps.google.com/?cid=0x0:0xf630d2b17d6e55e0,
supermarket,Komplek perumahan,Kampung pakopakomi,"Unnamed Road, Kapaka Madeta, Kec. Kodi, Kabupaten Sumba Barat Daya, Nusa Tenggara Tim.","Kabupaten Sumba Barat Daya, Nusa Tenggara Tim.",NUSA TENGGARA TIMUR,,Indonesia,82337724390.0,,,-9.5525449,119.0077487,https://maps.google.com/?cid=0x0:0x67b9a45f89946be6,
supermarket,Toko,Kios Sutra Indah,"C2V5+HW, Kapaka Madeta, Kec. Kodi, Kabupaten Sumba Barat Daya, Nusa Tenggara Tim.","Kabupaten Sumba Barat Daya, Nusa Tenggara Tim.",NUSA TENGGARA TIMUR,,Indonesia,,,,-9.55617,119.0108636,https://maps.google.com/?cid=0x0:0x5a465e6b3db56dbb,
supermarket,Pembangunan Perumahan,Kapaka madeta,"C2R4+539, Kapaka Madeta, Kec. Kodi, Kabupaten Sumba Barat Daya, Nusa Tenggara Tim.","Kabupaten Sumba Barat Daya, Nusa Tenggara Tim.",NUSA TENGGARA TIMUR,,Indonesia,81237629348.0,,,-9.5595803,119.0052366,https://maps.google.com/?cid=0x0:0x3f2525f10bc5647e,
supermarket,supermarket,Kec. Kodi Bangedo,"Kabupaten Sumba Barat Daya, Nusa Tenggara Tim.","Kabupaten Sumba Barat Daya, Nusa Tenggara Tim.",NUSA TENGGARA TIMUR,,Indonesia,,,,-9.6026813,119.0171447,https://maps.google.com/?cid=0x0:0x3bbfbd9e4fb43622,
supermarket,Pelayanan Keamanan Jalan,Bironggo,"C25V+26, Wai Kadada, Kec. Kodi Bangedo, Kabupaten Sumba Barat Daya, Nusa Tenggara Tim.","Kabupaten Sumba Barat Daya, Nusa Tenggara Tim.",NUSA TENGGARA TIMUR,,Indonesia,,,,-9.59249,119.0430085,https://maps.google.com/?cid=0x0:0x2432b805b99eec34,
supermarket,supermarket,Pasar Delu Depa,"C3F4+7W6, Wai Kadada, Kec. Kodi Bangedo, Kabupaten Sumba Barat Daya, Nusa Tenggara Tim.","Kabupaten Sumba Barat Daya, Nusa Tenggara Tim.",NUSA TENGGARA TIMUR,,Indonesia,,,,-9.5768253,119.0572594,https://maps.google.com/?cid=0x0:0xb7032da47b1503c3,
supermarket,Toko,Kios Mekar Inda,"C2RP+V5R, Mali Iha, Kec. Kodi, Kabupaten Sumba Barat Daya, Nusa Tenggara Tim.","Kabupaten Sumba Barat Daya, Nusa Tenggara Tim.",NUSA TENGGARA TIMUR,,Indonesia,,,,-9.5577695,119.035379,https://maps.google.com/?cid=0x0:0x91b1089b47c1d4b3,
supermarket,Toko bahan makanan,Amora Store,"92JQ+CR, Walla Ndimu, Kec. Kodi Bangedo, Kabupaten Sumba Barat Daya, Nusa Tenggara Tim.","Kabupaten Sumba Barat Daya, Nusa Tenggara Tim.",NUSA TENGGARA TIMUR,,Indonesia,,,,-9.6189352,119.0395655,https://maps.google.com/?cid=0x0:0xe7dde8f421aff441,
supermarket,Toko,Kios Hiba Ria,"F2FG+6PV, Homba Karipit, Kec. Kodi Utara, Kabupaten Sumba Barat Daya, Nusa Tenggara Tim.","Kabupaten Sumba Barat Daya, Nusa Tenggara Tim.",NUSA TENGGARA TIMUR,,Indonesia,,,,-9.5268971,119.0268064,https://maps.google.com/?cid=0x0:0xeee23bbb3516957,
supermarket,Kantor Perusahaan,Kodi Indah,"92VC+87, Lete Loko, Kec. Kodi Bangedo, Kabupaten Sumba Barat Daya, Nusa Tenggara Tim.","Kabupaten Sumba Barat Daya, Nusa Tenggara Tim.",NUSA TENGGARA TIMUR,,Indonesia,,,,-9.6066398,119.0207059,https://maps.google.com/?cid=0x0:0xaeed8fd4df4219af,
supermarket,Toko Kayu,Sumber kasih,"Walla Ndimu, Kec. Kodi Bangedo, Kabupaten Sumba Barat Daya, Nusa Tenggara Tim. 87255","Kec. Kodi Bangedo, Kabupaten Sumba Barat Daya",NUSA TENGGARA TIMUR,87255.0,Indonesia,81219169550.0,,,-9.6244052,119.0413814,https://maps.google.com/?cid=0x0:0xb16d2da5182d6d1e,
supermarket,Toko Perlengkapan Rumah,Toko Sengsara,"92X7+Q5X, Dinjo, Kec. Kodi Bangedo, Kabupaten Sumba Barat Daya, Nusa Tenggara Tim.","Kabupaten Sumba Barat Daya, Nusa Tenggara Tim.",NUSA TENGGARA TIMUR,,Indonesia,,,,-9.6005202,119.0129909,https://maps.google.com/?cid=0x0:0x149404000ca17a17,
supermarket,Kios,Kios Pak Agus Longga,"92W8+XM5, Jln. Waimarama, Lete Loko, Kec. Kodi Bangedo, Kabupaten Sumba Barat Daya, Nusa Tenggara Tim.","Kabupaten Sumba Barat Daya, Nusa Tenggara Tim.",NUSA TENGGARA TIMUR,,Indonesia,,,,-9.6026217,119.0167239,https://maps.google.com/?cid=0x0:0x208339646c7f5c07,
supermarket,Toko,Toko,"C234+6HC, Dinjo, Kec. Kodi Bangedo, Kabupaten Sumba Barat Daya, Nusa Tenggara Tim.","Kabupaten Sumba Barat Daya, Nusa Tenggara Tim.",NUSA TENGGARA TIMUR,,Indonesia,82125820068.0,,,-9.596935,119.006401,https://maps.google.com/?cid=0x0:0x3633e12401e43b71,
supermarket,Toko,Lura Ate,"Lete Loko, Kec. Kodi Bangedo, Kabupaten Sumba Barat Daya, Nusa Tenggara Tim.","Kabupaten Sumba Barat Daya, Nusa Tenggara Tim.",NUSA TENGGARA TIMUR,,Indonesia,,,,-9.6072204,119.0208436,https://maps.google.com/?cid=0x0:0x28c1f4e97de6b72b,
supermarket,Pasar Petani,Pasar Rakyat Waiha,"928V+2V2, Wai Ha, Kec. Kodi Bangedo, Kabupaten Sumba Barat Daya, Nusa Tenggara Tim.","Kabupaten Sumba Barat Daya, Nusa Tenggara Tim.",NUSA TENGGARA TIMUR,,Indonesia,,,,-9.634994,119.044643,https://maps.google.com/?cid=0x0:0xeba0f5a5b754b39b,
supermarket,Komplek perumahan,Ruma BPK RIO,"92HJ+55W, Umbu Ngedo, Kec. Kodi Bangedo, Kabupaten Sumba Barat Daya, Nusa Tenggara Tim.","Kabupaten Sumba Barat Daya, Nusa Tenggara Tim.",NUSA TENGGARA TIMUR,,Indonesia,,,,-9.6217894,119.0304628,https://maps.google.com/?cid=0x0:0x9187f295af7de8a1,
supermarket,Pusat Perbelanjaan,Kios.Sumber Rejeki,"C2RG+J39, WatuWona, Kec. Kodi, Kabupaten Sumba Barat Daya, Nusa Tenggara Tim.","Kabupaten Sumba Barat Daya, Nusa Tenggara Tim.",NUSA TENGGARA TIMUR,,Indonesia,,,,-9.55846,119.0252275,https://maps.google.com/?cid=0x0:0xf630d2b17d6e55e0,
supermarket,Toko,KASIH BERKAT,"Walla Ndimu, Kec. Kodi Bangedo, Kabupaten Sumba Barat Daya, Nusa Tenggara Tim. 87264","Kec. Kodi Bangedo, Kabupaten Sumba Barat Daya",NUSA TENGGARA TIMUR,87264.0,Indonesia,81335789980.0,,,-9.6260985,119.0411577,https://maps.google.com/?cid=0x0:0xe29ea410343cacdf,
supermarket,Toko,Mitralinkaja,"CX4V+87R, Unnamed Road, Bondo Kodi, Kec. Kodi, Kabupaten Sumba Barat Daya, Nusa Tenggara Tim.","Kabupaten Sumba Barat Daya, Nusa Tenggara Tim.",NUSA TENGGARA TIMUR,,Indonesia,,,,-9.5941434,118.9931536,https://maps.google.com/?cid=0x0:0xd019513ceb21f6e5,
supermarket,Kios,Toko Putra Kalam,"CX4R+P9P, Unnamed Road, Nusa Tenggara Tim., Bondo Kodi, Kec. Kodi, Kabupaten Sumba Barat Daya, Nusa Tenggara Tim.","Kabupaten Sumba Barat Daya, Nusa Tenggara Tim.",NUSA TENGGARA TIMUR,,Indonesia,81238944572.0,,,-9.5931657,118.9909448,https://maps.google.com/?cid=0x0:0xb4d597d0243ecde4,
supermarket,Kios,Kios firan,"9XVP+PG2, Pero Batang, Kec. Kodi, Kabupaten Sumba Barat Daya, Nusa Tenggara Tim.","Kabupaten Sumba Barat Daya, Nusa Tenggara Tim.",NUSA TENGGARA TIMUR,,Indonesia,,,,-9.6049301,118.9860746,https://maps.google.com/?cid=0x0:0x14aa05eeddacd835,
supermarket,Toko bahan makanan,Almasih,"83Q2+G9, Panenggo Ede, Kec. Kodi Balaghar, Kabupaten Sumba Barat Daya, Nusa Tenggara Tim.","Kabupaten Sumba Barat Daya, Nusa Tenggara Tim.",NUSA TENGGARA TIMUR,,Indonesia,,,,-9.6611637,119.0509381,https://maps.google.com/?cid=0x0:0x1f64c63e2991a09,
supermarket,Toko,Haghu Ate,"CX2R+FJ, Pero Batang, Kec. Kodi, Kabupaten Sumba Barat Daya, Nusa Tenggara Tim.","Kabupaten Sumba Barat Daya, Nusa Tenggara Tim.",NUSA TENGGARA TIMUR,,Indonesia,81239117151.0,,,-9.5987926,118.9915077,https://maps.google.com/?cid=0x0:0xaadeca6fa77b6485,
supermarket,Pemasok Air Minum Dalam Kemasan,supplier air bersih,"92CQ+WPM, Walla Ndimu, Kec. Kodi Bangedo, Kabupaten Sumba Barat Daya, Nusa Tenggara Tim.","Kabupaten Sumba Barat Daya, Nusa Tenggara Tim.",NUSA TENGGARA TIMUR,,Indonesia,82336000984.0,,,-9.6276652,119.0392874,https://maps.google.com/?cid=0x0:0x45d51993ec3d6c89,
supermarket,Kios,KIOS IYATH,"9XWQ+P4G, Pero Batang, Kec. Kodi, Kabupaten Sumba Barat Daya, Nusa Tenggara Tim.","Kabupaten Sumba Barat Daya, Nusa Tenggara Tim.",NUSA TENGGARA TIMUR,,Indonesia,81353590761.0,,,-9.6031776,118.9878328,https://maps.google.com/?cid=0x0:0x29c9ab1fbd1b783b,
supermarket,supermarket,Kec. Kodi Utara,"Kabupaten Sumba Barat Daya, Nusa Tenggara Tim.","Kabupaten Sumba Barat Daya, Nusa Tenggara Tim.",NUSA TENGGARA TIMUR,,Indonesia,,,,-9.5201893,119.0312709,https://maps.google.com/?cid=0x0:0xc02655b0903b58a2,
supermarket,Minimarket,Indomaret,"F2WP+PV5, Kori, Kec. Kodi Utara, Kabupaten Sumba Barat Daya, Nusa Tenggara Tim.","Kabupaten Sumba Barat Daya, Nusa Tenggara Tim.",NUSA TENGGARA TIMUR,,Indonesia,,,,-9.503255,119.037196,https://maps.google.com/?cid=0x0:0xee828d5f40d0dde8,
supermarket,Toko,Kios Hiba Ria,"F2FG+6PV, Homba Karipit, Kec. Kodi Utara, Kabupaten Sumba Barat Daya, Nusa Tenggara Tim.","Kabupaten Sumba Barat Daya, Nusa Tenggara Tim.",NUSA TENGGARA TIMUR,,Indonesia,,,,-9.5268971,119.0268064,https://maps.google.com/?cid=0x0:0xeee23bbb3516957,
supermarket,Toko,UD. Mitra jaya,"F2XQ+HJ4, Kori, Kec. Kodi Utara, Kabupaten Sumba Barat Daya, Nusa Tenggara Tim.","Kabupaten Sumba Barat Daya, Nusa Tenggara Tim.",NUSA TENGGARA TIMUR,,Indonesia,,,,-9.5002866,119.038722,https://maps.google.com/?cid=0x0:0xd5f457cc606d40b0,
supermarket,Toko,Terang Indah (G.H),"F29F+527, Hoha Wungo, Kec. Kodi Utara, Kabupaten Sumba Barat Daya, Nusa Tenggara Tim.","Kabupaten Sumba Barat Daya, Nusa Tenggara Tim.",NUSA TENGGARA TIMUR,,Indonesia,81338876627.0,,,-9.5320812,119.0225415,https://maps.google.com/?cid=0x0:0x7130f48eae576ba8,
supermarket,Toko,HIBUR HATI,"G22Q+MM, Kori, Kec. Kodi Utara, Kabupaten Sumba Barat Daya, Nusa Tenggara Tim.","Kabupaten Sumba Barat Daya, Nusa Tenggara Tim.",NUSA TENGGARA TIMUR,,Indonesia,81238860771.0,,,-9.4982914,119.039088,https://maps.google.com/?cid=0x0:0xa58bee07d1b5ef60,
supermarket,Toko Perlengkapan Rumah,KEMBAR PUTRA,"Jalur Kori - Waimangura, Jl. Waiholo_Panda Kiri, Kec. Kodi Utara, Kabupaten Sumba Barat Daya, Nusa Tenggara Tim. 87260","Jl. Waiholo_Panda Kiri, Kec. Kodi Utara, Kabupaten Sumba Barat Daya",NUSA TENGGARA TIMUR,87260.0,Indonesia,81338071805.0,,,-9.5139431,119.0980047,https://maps.google.com/?cid=0x0:0xc6abd2dd20808142,
supermarket,Komplek perumahan,Kampung pakopakomi,"Unnamed Road, Kapaka Madeta, Kec. Kodi, Kabupaten Sumba Barat Daya, Nusa Tenggara Tim.","Kabupaten Sumba Barat Daya, Nusa Tenggara Tim.",NUSA TENGGARA TIMUR,,Indonesia,82337724390.0,,,-9.5525449,119.0077487,https://maps.google.com/?cid=0x0:0x67b9a45f89946be6,
supermarket,supermarket,Pasar Desa Bukambero,"Jalan Kodi No.KM. 15, Bukambero, Kec. Kodi Utara, Kabupaten Sumba Barat Daya, Nusa Tenggara Tim. 87260","Bukambero, Kec. Kodi Utara, Kabupaten Sumba Barat Daya",NUSA TENGGARA TIMUR,87260.0,Indonesia,81337385411.0,,,-9.4681766,119.0981443,https://maps.google.com/?cid=0x0:0x99239ad457cf31c4,
supermarket,Toko umum,Ana Kadudu Indah,"F4G5+567, Wai Holo, Kec. Kodi Utara, Kabupaten Sumba Barat Daya, Nusa Tenggara Tim.","Kabupaten Sumba Barat Daya, Nusa Tenggara Tim.",NUSA TENGGARA TIMUR,,Indonesia,,,,-9.523281,119.1081838,https://maps.google.com/?cid=0x0:0xc4701f08dcc8212,
supermarket,Toko,Kios Sari Indah,"FX2P+W9, Homba Rande, Kec. Kodi, Kabupaten Sumba Barat Daya, Nusa Tenggara Tim.","Kabupaten Sumba Barat Daya, Nusa Tenggara Tim.",NUSA TENGGARA TIMUR,,Indonesia,81233326548.0,,,-9.5477006,118.9859606,https://maps.google.com/?cid=0x0:0xa162152da65883e2,
supermarket,Toko,Kios Amander,"CXQ8+J5G, Wura Homba, Kec. Kodi, Kabupaten Sumba Barat Daya, Nusa Tenggara Tim.","Kabupaten Sumba Barat Daya, Nusa Tenggara Tim.",NUSA TENGGARA TIMUR,,Indonesia,,,,-9.5609381,118.9654504,https://maps.google.com/?cid=0x0:0xee65f7567a7dd50e,
supermarket,Pusat Perbelanjaan,toko elin,"Mali Iha, Kec. Kodi, Kabupaten Sumba Barat Daya, Nusa Tenggara Tim. 87261","Kec. Kodi, Kabupaten Sumba Barat Daya",NUSA TENGGARA TIMUR,87261.0,Indonesia,81237029291.0,,,-9.5520429,119.0160013,https://maps.google.com/?cid=0x0:0xb4e56799bf8794e9,
supermarket,supermarket,LinceKondo,"F2WR+M37, Hombatara, Kori, Kec. Kodi Utara, Kabupaten Sumba Barat Daya, Nusa Tenggara Tim.","Kabupaten Sumba Barat Daya, Nusa Tenggara Tim.",NUSA TENGGARA TIMUR,,Indonesia,81217192574.0,,,-9.5033402,119.0401738,https://maps.google.com/?cid=0x0:0x319f37f07fa67e1c,
supermarket,Pelayanan Keamanan Jalan,Bironggo,"C25V+26, Wai Kadada, Kec. Kodi Bangedo, Kabupaten Sumba Barat Daya, Nusa Tenggara Tim.","Kabupaten Sumba Barat Daya, Nusa Tenggara Tim.",NUSA TENGGARA TIMUR,,Indonesia,,,,-9.59249,119.0430085,https://maps.google.com/?cid=0x0:0x2432b805b99eec34,
supermarket,Minimarket,Toko Monica,"H44G+G28, Kalembu Kaha, Kec. Kodi Utara, Kabupaten Sumba Barat Daya, Nusa Tenggara Tim.","Kabupaten Sumba Barat Daya, Nusa Tenggara Tim.",NUSA TENGGARA TIMUR,,Indonesia,,,,-9.4437214,119.1250758,https://maps.google.com/?cid=0x0:0xf10918f74be31e76,
supermarket,Toko Kosmetik,ORIFLAME GRUP,"F2MM+WCR, Homba Karipit, Kec. Kodi Utara, Kabupaten Sumba Barat Daya, Nusa Tenggara Tim.","Kabupaten Sumba Barat Daya, Nusa Tenggara Tim.",NUSA TENGGARA TIMUR,,Indonesia,,,,-9.5152174,119.0332526,https://maps.google.com/?cid=0x0:0x80c04664609eed8d,
supermarket,Pembangkit Listrik Fotovoltaik Tenaga Surya,PLTS Terpusat Bilacenge,"H35H+MX4, Bukambero, Kec. Kodi Utara, Kabupaten Sumba Barat Daya, Nusa Tenggara Tim.","Kabupaten Sumba Barat Daya, Nusa Tenggara Tim.",NUSA TENGGARA TIMUR,,Indonesia,81809844454.0,,,-9.4408571,119.0799442,https://maps.google.com/?cid=0x0:0xcd566eeb7a481b8e,
supermarket,Toko Swalayan,KIOS LARA BAHI,"Hoha Wungo, Kec. Kodi Utara, Kabupaten Sumba Barat Daya, Nusa Tenggara Tim.","Kabupaten Sumba Barat Daya, Nusa Tenggara Tim.",NUSA TENGGARA TIMUR,,Indonesia,82256691213.0,,,-9.5315905,119.0174123,https://maps.google.com/?cid=0x0:0xa4d4a6b5c2ce6c3c,
supermarket,Toko,Singpat .Tambal Ashera,"F2CQ+GC6, waitaru, Kec. Kodi Utara, Kabupaten Sumba Barat Daya, Nusa Tenggara Tim.","Kabupaten Sumba Barat Daya, Nusa Tenggara Tim.",NUSA TENGGARA TIMUR,,Indonesia,81237276842.0,,,-9.5287161,119.0385295,https://maps.google.com/?cid=0x0:0x58847790562092dd,
supermarket,Toko,Waicungga,"FW9P+CQH, Ate Dalo, Kec. Kodi, Kabupaten Sumba Barat Daya, Nusa Tenggara Tim.","Kabupaten Sumba Barat Daya, Nusa Tenggara Tim.",NUSA TENGGARA TIMUR,,Indonesia,,,,-9.5321083,118.9373492,https://maps.google.com/?cid=0x0:0x59e6eb0d52be2e6e,
supermarket,Toko,Kios Sutra Indah,"C2V5+HW, Kapaka Madeta, Kec. Kodi, Kabupaten Sumba Barat Daya, Nusa Tenggara Tim.","Kabupaten Sumba Barat Daya, Nusa Tenggara Tim.",NUSA TENGGARA TIMUR,,Indonesia,,,,-9.55617,119.0108636,https://maps.google.com/?cid=0x0:0x5a465e6b3db56dbb,
supermarket,Pusat Perbelanjaan,Kios.Sumber Rejeki,"C2RG+J39, WatuWona, Kec. Kodi, Kabupaten Sumba Barat Daya, Nusa Tenggara Tim.","Kabupaten Sumba Barat Daya, Nusa Tenggara Tim.",NUSA TENGGARA TIMUR,,Indonesia,,,,-9.55846,119.0252275,https://maps.google.com/?cid=0x0:0xf630d2b17d6e55e0,
supermarket,Kios,Toko Putra Kalam,"CX4R+P9P, Unnamed Road, Nusa Tenggara Tim., Bondo Kodi, Kec. Kodi, Kabupaten Sumba Barat Daya, Nusa Tenggara Tim.","Kabupaten Sumba Barat Daya, Nusa Tenggara Tim.",NUSA TENGGARA TIMUR,,Indonesia,81238944572.0,,,-9.5931657,118.9909448,https://maps.google.com/?cid=0x0:0xb4d597d0243ecde4,
supermarket,Toko bahan makanan,Mekar Sama,"Hamonggo Lele, Kec. Kodi, Kabupaten Sumba Barat Daya, Nusa Tenggara Tim.","Kabupaten Sumba Barat Daya, Nusa Tenggara Tim.",NUSA TENGGARA TIMUR,,Indonesia,,,,-9.5813668,118.9947666,https://maps.google.com/?cid=0x0:0x43546b5ade53ab28,
supermarket,Apotek,Apotek Gratia,"F2VP+QC8, Kori, Kec. Kodi Utara, Kabupaten Sumba Barat Daya, Nusa Tenggara Tim.","Kabupaten Sumba Barat Daya, Nusa Tenggara Tim.",NUSA TENGGARA TIMUR,,Indonesia,,,,-9.505427,119.036426,https://maps.google.com/?cid=0x0:0x20ac987432d975ed,
supermarket,Kios,Kios Pak Agus Longga,"92W8+XM5, Jln. Waimarama, Lete Loko, Kec. Kodi Bangedo, Kabupaten Sumba Barat Daya, Nusa Tenggara Tim.","Kabupaten Sumba Barat Daya, Nusa Tenggara Tim.",NUSA TENGGARA TIMUR,,Indonesia,,,,-9.6026217,119.0167239,https://maps.google.com/?cid=0x0:0x208339646c7f5c07,
supermarket,Toko bahan makanan,Amora Store,"92JQ+CR, Walla Ndimu, Kec. Kodi Bangedo, Kabupaten Sumba Barat Daya, Nusa Tenggara Tim.","Kabupaten Sumba Barat Daya, Nusa Tenggara Tim.",NUSA TENGGARA TIMUR,,Indonesia,,,,-9.6189352,119.0395655,https://maps.google.com/?cid=0x0:0xe7dde8f421aff441,
supermarket,supermarket,Kec. Kota Tambolaka,"Kabupaten Sumba Barat Daya, Nusa Tenggara Tim.","Kabupaten Sumba Barat Daya, Nusa Tenggara Tim.",NUSA TENGGARA TIMUR,,Indonesia,,,,-9.4295733,119.2387484,https://maps.google.com/?cid=0x0:0x9f73216af1e7222b,
supermarket,Pusat Perbelanjaan,Winmart,"Jalan Lintas Sumba, Radamata, Kota Tambolaka, Southwest Sumba Regency, East Nusa Tenggara 87255","Radamata, Kota Tambolaka, Southwest Sumba Regency",NUSA TENGGARA TIMUR,87255.0,Indonesia,,,,-9.4263575,119.2358169,https://maps.google.com/?cid=0x0:0x55043783a5b3b980,
supermarket,Toko Swalayan,Toko Eka Putra,"H66J+2R4, Langga Lero, Kec. Kota Tambolaka, Kabupaten Sumba Barat Daya, Nusa Tenggara Tim.","Kabupaten Sumba Barat Daya, Nusa Tenggara Tim.",NUSA TENGGARA TIMUR,,Indonesia,,,,-9.4399909,119.2320779,https://maps.google.com/?cid=0x0:0x4eba6e3bd8282059,
supermarket,Toko bahan makanan,Toko Sinar Sabana,"H6GX+65W, Jl. Lede Kalumbang, Kalena Wano, Kec. Kota Tambolaka, Kabupaten Sumba Barat Daya, Nusa Tenggara Tim.","Kabupaten Sumba Barat Daya, Nusa Tenggara Tim.",NUSA TENGGARA TIMUR,,Indonesia,,,,-9.4243764,119.2479432,https://maps.google.com/?cid=0x0:0x6e403b4d6bcecd0d,
supermarket,Toko Swalayan,Yen Mart,"H6CR+Q76, Jalan Tambolaka, Radamata, Kota, Radamata, Kec. Kota Tambolaka, Kabupaten Sumba Barat Daya, Nusa Tenggara Tim. 80111","Jalan Tambolaka, Radamata, Kota, Radamata, Kec. Kota Tambolaka, Kabupaten Sumba Barat Daya",NUSA TENGGARA TIMUR,80111.0,Indonesia,85239818343.0,,,-9.428082,119.2406415,https://maps.google.com/?cid=0x0:0x9ef11b9414209efb,
supermarket,Toko Suvenir,Yenmart Express,"H6QW+399, Radamata, Kec. Loura, Kabupaten Sumba Barat Daya, Nusa Tenggara Tim.","Kabupaten Sumba Barat Daya, Nusa Tenggara Tim.",NUSA TENGGARA TIMUR,,Indonesia,,,,-9.4123364,119.2459839,https://maps.google.com/?cid=0x0:0x7876158d7c3e219,
supermarket,Toko,Fajar Agung,"H68M+394, Jl. Sapurata, Wee Tobula, Kec. Loura, Kabupaten Sumba Barat Daya, Nusa Tenggara Tim.","Kabupaten Sumba Barat Daya, Nusa Tenggara Tim.",NUSA TENGGARA TIMUR,,Indonesia,81338993594.0,,,-9.4348721,119.2334377,https://maps.google.com/?cid=0x0:0xe29d5a8cf2f498b6,
supermarket,Area Mendaki,Toko Tambolaka Indah,"H6FV+MV6, Radamata, Kec. Loura, Kabupaten Sumba Barat Daya, Nusa Tenggara Tim.","Kabupaten Sumba Barat Daya, Nusa Tenggara Tim.",NUSA TENGGARA TIMUR,,Indonesia,,,,-9.4258341,119.2446325,https://maps.google.com/?cid=0x0:0xe5f24922072cc6dc,
supermarket,Toko bahan makanan,Toko glorynd,"Jl. Raja Yohanes Ngongo Bani, kelurahan waitabula, Kec. Kota Tambolaka, Kabupaten Sumba Barat Daya, Nusa Tenggara Tim. 87255","kelurahan waitabula, Kec. Kota Tambolaka, Kabupaten Sumba Barat Daya",NUSA TENGGARA TIMUR,87255.0,Indonesia,81328582553.0,,,-9.4505162,119.2287294,https://maps.google.com/?cid=0x0:0x76f01e741ebdc8f5,
supermarket,Toko,Kios Fortune,"Jalan, Karya Kasih, Kota Tambolaka, Southwest Sumba Regency, East Nusa Tenggara 87255","Karya Kasih, Kota Tambolaka, Southwest Sumba Regency",NUSA TENGGARA TIMUR,87255.0,Indonesia,81246669902.0,,,-9.422699,119.2487101,https://maps.google.com/?cid=0x0:0xd643dca74af7fa8e,
supermarket,Pusat Perbelanjaan,ALFAMART YOS SUDARSO,"H6FP+J5W, Jl. Yos Sudarso, Radamata, Kec. Kota Tambolaka, Kabupaten Sumba Barat Daya, Nusa Tenggara Tim.","Kabupaten Sumba Barat Daya, Nusa Tenggara Tim.",NUSA TENGGARA TIMUR,,Indonesia,,,,-9.42584,119.2358395,https://maps.google.com/?cid=0x0:0x6b6169422336c2bb,
supermarket,Toko,Toko Laksana Jaya,"H7H2+5HM, Radamata, Kec. Loura, Kabupaten Sumba Barat Daya, Nusa Tenggara Tim.","Kabupaten Sumba Barat Daya, Nusa Tenggara Tim.",NUSA TENGGARA TIMUR,,Indonesia,,,,-9.4220386,119.2514335,https://maps.google.com/?cid=0x0:0x338402173c2cb688,
supermarket,Toko bahan makanan,Toko Matahari Waitabula,"H66J+8XH, Wee Tobula, Loura, Southwest Sumba Regency, Waitabula, Nusa Tenggara Tim.","Waitabula, Nusa Tenggara Tim.",NUSA TENGGARA TIMUR,,Indonesia,,,,-9.4391954,119.232478,https://maps.google.com/?cid=0x0:0xba0a0ddcff69d93c,
supermarket,Toko Swalayan,SURYA BARU MART,"H67M+J7F, Jl. Sapurata, Waitabula, Wee Tobula, Kec. Loura, Kabupaten Sumba Barat Daya, Nusa Tenggara Tim.","Kabupaten Sumba Barat Daya, Nusa Tenggara Tim.",NUSA TENGGARA TIMUR,,Indonesia,3872525173.0,,,-9.4359463,119.2331852,https://maps.google.com/?cid=0x0:0x3c25fbda0e9038ea,
supermarket,Toko,Indomaret Tambolaka,"Jl. Lede Kalumbang No.100, Radamata, Kec. Kota Tambolaka, Kabupaten Sumba Barat Daya, Nusa Tenggara Tim.","Kabupaten Sumba Barat Daya, Nusa Tenggara Tim.",NUSA TENGGARA TIMUR,,Indonesia,,,,-9.4247866,119.2464876,https://maps.google.com/?cid=0x0:0x8d1feb9cb3f7835b,
supermarket,Toko Roti,KING BAKERY,"H68M+QJ8, Jl. Sapurata, Wee Tobula, Kec. Kota Tambolaka, Kabupaten Sumba Barat Daya, Nusa Tenggara Tim. 87255","Jl. Sapurata, Wee Tobula, Kec. Kota Tambolaka, Kabupaten Sumba Barat Daya",NUSA TENGGARA TIMUR,87255.0,Indonesia,81239717717.0,,,-9.433089,119.2340691,https://maps.google.com/?cid=0x0:0x4d92cc20406f75cf,
supermarket,Toko,KIOS SEHATI,"jl. ranggaroko indah, ds. langgalero waitabula, Langga Lero, Kec. Kota Tambolaka, Kabupaten Sumba Barat Daya, Nusa Tenggara Tim. 87255","ds. langgalero waitabula, Langga Lero, Kec. Kota Tambolaka, Kabupaten Sumba Barat Daya",NUSA TENGGARA TIMUR,87255.0,Indonesia,81339574228.0,,,-9.433833,119.2278685,https://maps.google.com/?cid=0x0:0xc1a1c56a237508f0,
supermarket,Kios,Kios D'Kraeng,"G6WG+PFX Wee Rena, Desa, Wee Renna, Kec. Kota Tambolaka, Kabupaten Sumba Barat Daya, Nusa Tenggara Tim.","Kabupaten Sumba Barat Daya, Nusa Tenggara Tim.",NUSA TENGGARA TIMUR,,Indonesia,,,,-9.4531319,119.2262333,https://maps.google.com/?cid=0x0:0x77904c01886ccf7a,
supermarket,Toko bahan makanan,Toko Yunior,"H6GM+HC6, Radamata, Kec. Loura, Kabupaten Sumba Barat Daya, Nusa Tenggara Tim.","Kabupaten Sumba Barat Daya, Nusa Tenggara Tim.",NUSA TENGGARA TIMUR,,Indonesia,,,,-9.4235764,119.2335209,https://maps.google.com/?cid=0x0:0x1ce6b1d35c7ace09,
supermarket,Toko Mebel,Kios MAHARANI 1,"Jl. Waitabula, Langga Lero, Kec. Kota Tambolaka, Kabupaten Sumba Barat Daya, Nusa Tenggara Tim. 87225","Langga Lero, Kec. Kota Tambolaka, Kabupaten Sumba Barat Daya",NUSA TENGGARA TIMUR,87225.0,Indonesia,888112233.0,,,-9.4412754,119.2318751,https://maps.google.com/?cid=0x0:0x4561467ffb1166ab,
supermarket,Toko bahan makanan,Atlantic,"H65J+9PW, Langga Lero, Kec. Kota Tambolaka, Kabupaten Sumba Barat Daya, Nusa Tenggara Tim.","Kabupaten Sumba Barat Daya, Nusa Tenggara Tim.",NUSA TENGGARA TIMUR,,Indonesia,,,,-9.4415066,119.2318243,https://maps.google.com/?cid=0x0:0x8055f0c2fefefffb,
supermarket,Toko,Toko Buku Tambolaka,"Jln Kemiri Rt 01/03 Kel. Radamata, Kec, Kec. Kota Tambolaka, Kabupaten Sumba Barat Daya, Nusa Tenggara Tim. 87255","Kec, Kec. Kota Tambolaka, Kabupaten Sumba Barat Daya",NUSA TENGGARA TIMUR,87255.0,Indonesia,82247472106.0,,,-9.4059855,119.2378899,https://maps.google.com/?cid=0x0:0xf33a44e76e944ce7,
supermarket,Toserba,Kios HERA,"Jl. Timotius Tako Geli, Radamata, Kec. Kota Tambolaka, Kabupaten Sumba Barat Daya, Nusa Tenggara Tim.","Kabupaten Sumba Barat Daya, Nusa Tenggara Tim.",NUSA TENGGARA TIMUR,,Indonesia,,,,-9.427507,119.2421248,https://maps.google.com/?cid=0x0:0xeab21bbaf5c69fc2,
supermarket,Grosir Perlengkapan Rumah Tangga,Kios MAHARANI 2,"Jl. Waitabula, Langgalero, Kec. Kota Tambolaka, Kabupaten Sumba Barat Daya, Nusa Tenggara Tim. 87225","Langgalero, Kec. Kota Tambolaka, Kabupaten Sumba Barat Daya",NUSA TENGGARA TIMUR,87225.0,Indonesia,8221234567.0,,,-9.4407668,119.231968,https://maps.google.com/?cid=0x0:0x4cf46c08ec02f3e9,
supermarket,Toko,Fit,"H6JR+39, Radamata, Kec. Kota Tambolaka, Kabupaten Sumba Barat Daya, Nusa Tenggara Tim.","Kabupaten Sumba Barat Daya, Nusa Tenggara Tim.",NUSA TENGGARA TIMUR,,Indonesia,,,,-9.4204488,119.2405545,https://maps.google.com/?cid=0x0:0xe80230918b8588ee,
supermarket,Toko Bahan Bangunan,Toko Aurora,"Jl. Timotius Tako Geli, Radamata, Kec. Kota Tambolaka, Kabupaten Sumba Barat Daya, Nusa Tenggara Tim. 87255","Radamata, Kec. Kota Tambolaka, Kabupaten Sumba Barat Daya",NUSA TENGGARA TIMUR,87255.0,Indonesia,85257823823.0,,,-9.4274792,119.2417716,https://maps.google.com/?cid=0x0:0x952628c1d397d0fe,
supermarket,supermarket,Kec. Loura,"Kabupaten Sumba Barat Daya, Nusa Tenggara Tim.","Kabupaten Sumba Barat Daya, Nusa Tenggara Tim.",NUSA TENGGARA TIMUR,,Indonesia,,,,-9.4214178,119.2970741,https://maps.google.com/?cid=0x0:0x49ebe3d33838ae6d,
supermarket,Komplek perumahan,WADA WEELAINGO (Walu Bannu),"H7M6+FQR, Jl. Weelaingo, Wee Pangali, Kec. Kota Tambolaka, Kabupaten Sumba Barat Daya, Nusa Tenggara Tim.","Kabupaten Sumba Barat Daya, Nusa Tenggara Tim.",NUSA TENGGARA TIMUR,,Indonesia,81952666083.0,,,-9.4162601,119.2618798,https://maps.google.com/?cid=0x0:0xf911b1039fdc711b,
supermarket,Toko,Winmart Sapurata,"H68M+8C7, Jl. Sapurata, Wee Tobula, Kec. Loura, Kabupaten Sumba Barat Daya, Nusa Tenggara Tim.","Kabupaten Sumba Barat Daya, Nusa Tenggara Tim.",NUSA TENGGARA TIMUR,,Indonesia,,,,-9.4342001,119.2335557,https://maps.google.com/?cid=0x0:0x6715e8e47b99e6f4,
supermarket,Supermarket Diskon,SuperTOP Supermarket Kupang,"Oepura, Kec. Maulafa, Kota Kupang, Nusa Tenggara Tim.","Kota Kupang, Nusa Tenggara Tim.",NUSA TENGGARA TIMUR,,Indonesia,82277256688.0,,,-10.1824094,123.6133536,https://maps.google.com/?cid=0x0:0x12e35b65c293fdab,
supermarket,supermarket,Astra77,"Jl. Raya Waikelo. Ds. Radamata Kec. Loura, Kec. Kota Tambolaka, Nusa Tenggara Tim. 87254",Kec. Kota Tambolaka,NUSA TENGGARA TIMUR,87254.0,Indonesia,,,,-9.4062083,119.24017,https://maps.google.com/?cid=0x0:0xa2e985191e595a04,
supermarket,Sekolah Dasar,LOKO KALADA,"H995+PXM Loko Kalada, Bondo Boghila, Kec. Loura, Kabupaten Sumba Barat Daya, Nusa Tenggara Tim.","Kabupaten Sumba Barat Daya, Nusa Tenggara Tim.",NUSA TENGGARA TIMUR,,Indonesia,,,,-9.4306557,119.3599202,https://maps.google.com/?cid=0x0:0x54610d3353c9b0a0,
supermarket,supermarket,Hotel pasola,"Terminal Keberangkatan Bandar Udara Tambolaka, Radamata, Loura, Southwest Sumba Regency, East Nusa Tenggara","Kabupaten Sumba Barat Daya, Nusa Tenggara Tim.",NUSA TENGGARA TIMUR,,Indonesia,81329458690.0,,,-9.4133411,119.2445581,https://maps.google.com/?cid=0x0:0x7c0eb9d00100bb2c,
supermarket,Biro Perjalanan dan Wisata,Mananga Aba Beach,"J8P6+8X5, Karuni, Kec. Loura, Kabupaten Sumba Barat Daya, Nusa Tenggara Tim.","Kabupaten Sumba Barat Daya, Nusa Tenggara Tim.",NUSA TENGGARA TIMUR,,Indonesia,82191124143.0,,,-9.3642355,119.3124921,https://maps.google.com/?cid=0x0:0x115b70debc72be54,
supermarket,Es Krim,Es Kelapa Muda Es Teler NTB,"H6FV+MW2, Jl. Timotius Tako Geli, Radamata, Kec. Loura, Kabupaten Sumba Barat Daya, Nusa Tenggara Tim.","Kabupaten Sumba Barat Daya, Nusa Tenggara Tim.",NUSA TENGGARA TIMUR,,Indonesia,,,,-9.4258615,119.2447686,https://maps.google.com/?cid=0x0:0x3925d7603b49aa93,
supermarket,Toko Suvenir,Yenmart Express,"H6QW+399, Radamata, Kec. Loura, Kabupaten Sumba Barat Daya, Nusa Tenggara Tim.","Kabupaten Sumba Barat Daya, Nusa Tenggara Tim.",NUSA TENGGARA TIMUR,,Indonesia,,,,-9.4123364,119.2459839,https://maps.google.com/?cid=0x0:0x7876158d7c3e219,
supermarket,Toko bahan makanan,Kios IZZA,"Radamata, Kec. Loura, Kabupaten Sumba Barat Daya, Nusa Tenggara Tim.","Kabupaten Sumba Barat Daya, Nusa Tenggara Tim.",NUSA TENGGARA TIMUR,,Indonesia,81392259494.0,,,-9.4040733,119.2524464,https://maps.google.com/?cid=0x0:0x774a95a38b8cccef,
supermarket,Toko,Toko Laksana Jaya,"H7H2+5HM, Radamata, Kec. Loura, Kabupaten Sumba Barat Daya, Nusa Tenggara Tim.","Kabupaten Sumba Barat Daya, Nusa Tenggara Tim.",NUSA TENGGARA TIMUR,,Indonesia,,,,-9.4220386,119.2514335,https://maps.google.com/?cid=0x0:0x338402173c2cb688,
supermarket,Toko bahan makanan,Toko Yunior,"H6GM+HC6, Radamata, Kec. Loura, Kabupaten Sumba Barat Daya, Nusa Tenggara Tim.","Kabupaten Sumba Barat Daya, Nusa Tenggara Tim.",NUSA TENGGARA TIMUR,,Indonesia,,,,-9.4235764,119.2335209,https://maps.google.com/?cid=0x0:0x1ce6b1d35c7ace09,
supermarket,Pusat Perbelanjaan,Lamunde,"H7MX+PQJ, Unnamed Road, Karuni, Kec. Loura, Kabupaten Sumba Barat Daya, Nusa Tenggara Tim.","Kabupaten Sumba Barat Daya, Nusa Tenggara Tim.",NUSA TENGGARA TIMUR,,Indonesia,81353532402.0,,,-9.4156515,119.2993925,https://maps.google.com/?cid=0x0:0x857743556d0e168e,
supermarket,Toko,Fajar Agung,"H68M+394, Jl. Sapurata, Wee Tobula, Kec. Loura, Kabupaten Sumba Barat Daya, Nusa Tenggara Tim.","Kabupaten Sumba Barat Daya, Nusa Tenggara Tim.",NUSA TENGGARA TIMUR,,Indonesia,81338993594.0,,,-9.4348721,119.2334377,https://maps.google.com/?cid=0x0:0xe29d5a8cf2f498b6,
supermarket,Toko Swalayan,SURYA BARU MART,"H67M+J7F, Jl. Sapurata, Waitabula, Wee Tobula, Kec. Loura, Kabupaten Sumba Barat Daya, Nusa Tenggara Tim.","Kabupaten Sumba Barat Daya, Nusa Tenggara Tim.",NUSA TENGGARA TIMUR,,Indonesia,3872525173.0,,,-9.4359463,119.2331852,https://maps.google.com/?cid=0x0:0x3c25fbda0e9038ea,
supermarket,Pasar tradisional,PASAR RAKYAT OMBA KOMI,"H7R5+JW5, Wee Pangali, Kec. Loura, Kabupaten Sumba Barat Daya, Nusa Tenggara Tim.","Kabupaten Sumba Barat Daya, Nusa Tenggara Tim.",NUSA TENGGARA TIMUR,,Indonesia,,,,-9.4084924,119.2598581,https://maps.google.com/?cid=0x0:0x3ac9138b926e1d76,
supermarket,Toko,Hokky Store,"H6MW+69G, Radamata, Kec. Loura, Kabupaten Sumba Barat Daya, Nusa Tenggara Tim.","Kabupaten Sumba Barat Daya, Nusa Tenggara Tim.",NUSA TENGGARA TIMUR,,Indonesia,81230740690.0,,,-9.4169348,119.2459376,https://maps.google.com/?cid=0x0:0xc7f3448cf3b1bee3,
supermarket,Kios,Kios Al 27,"H7M6+MHV, Jl. Weelaingo, Wee Pangali, Kec. Loura, Kabupaten Sumba Barat Daya, Nusa Tenggara Tim.","Kabupaten Sumba Barat Daya, Nusa Tenggara Tim.",NUSA TENGGARA TIMUR,,Indonesia,82235424153.0,,,-9.4157615,119.2614201,https://maps.google.com/?cid=0x0:0xc6843a35fe9d01ce,
supermarket,Minimarket,Alfamart Lede Kalumbang,"H7JW+2VV, Ramma Dana, Kec. Loura, Kabupaten Sumba Barat Daya, Nusa Tenggara Tim.","Kabupaten Sumba Barat Daya, Nusa Tenggara Tim.",NUSA TENGGARA TIMUR,,Indonesia,,,,-9.4211503,119.2966631,https://maps.google.com/?cid=0x0:0xecad81302a6d510a,
supermarket,Toko Roti,Puan Malo,"H765+P27, Wee Pangali, Kec. Loura, Kabupaten Sumba Barat Daya, Nusa Tenggara Tim.","Kabupaten Sumba Barat Daya, Nusa Tenggara Tim.",NUSA TENGGARA TIMUR,,Indonesia,,,,-9.4382022,119.2575483,https://maps.google.com/?cid=0x0:0x219f35d9dee2cfda,
supermarket,Toko umum,Kios melati,"H7J4+85P, Jl. Sakura, Wee Pangali, Kec. Loura, Kabupaten Sumba Barat Daya, Nusa Tenggara Tim.","Kabupaten Sumba Barat Daya, Nusa Tenggara Tim.",NUSA TENGGARA TIMUR,,Indonesia,,,,-9.4191524,119.2554585,https://maps.google.com/?cid=0x0:0x2b4fd463a8485b7c,
supermarket,Minimarket,AurelShop,"H6GQ+P6W, Radamata, Kec. Loura, Kabupaten Sumba Barat Daya, Nusa Tenggara Tim.","Kabupaten Sumba Barat Daya, Nusa Tenggara Tim.",NUSA TENGGARA TIMUR,,Indonesia,,,,-9.4231355,119.2380626,https://maps.google.com/?cid=0x0:0xe9b16ec86c545f4c,
supermarket,Toko bahan makanan,Toko Sinar Sabana,"H6GX+65W, Jl. Lede Kalumbang, Kalena Wano, Kec. Kota Tambolaka, Kabupaten Sumba Barat Daya, Nusa Tenggara Tim.","Kabupaten Sumba Barat Daya, Nusa Tenggara Tim.",NUSA TENGGARA TIMUR,,Indonesia,,,,-9.4243764,119.2479432,https://maps.google.com/?cid=0x0:0x6e403b4d6bcecd0d,
supermarket,Toko Swalayan,SINAR BARU,"H6CQ+43F, Unnamed Road, Radamata, Loura, Southwest Sumba Regency, East Nusa Tenggara","Kabupaten Sumba Barat Daya, Nusa Tenggara Tim.",NUSA TENGGARA TIMUR,,Indonesia,85230796333.0,,,-9.429679,119.2376792,https://maps.google.com/?cid=0x0:0x9e0238efd304bd49,
supermarket,Minimarket,Alvaro's Home,"H65P+7F3, Wee Tobula, Kec. Loura, Kabupaten Sumba Barat Daya, Nusa Tenggara Tim.","Kabupaten Sumba Barat Daya, Nusa Tenggara Tim.",NUSA TENGGARA TIMUR,,Indonesia,8113890977.0,,,-9.4418734,119.2361748,https://maps.google.com/?cid=0x0:0xf9a8aa5b6da6551,
supermarket,Toko Swalayan,TOK0 BERKAT SINAR RAHAYU,"H668+M2V, Jl. Lukas Dairo Bili, Wee Londa, Kec. Loura, Kabupaten Sumba Barat Daya, Nusa Tenggara Tim.","Kabupaten Sumba Barat Daya, Nusa Tenggara Tim.",NUSA TENGGARA TIMUR,,Indonesia,,,,-9.4382658,119.2150414,https://maps.google.com/?cid=0x0:0x4ef31643abd72477,
supermarket,Toko Alat Tulis Kantor,Fotocopy Sinar Berkat Cell,"Jl. Lede kalumbang no. 1 Ds. Ramadana, Kec. Loura, Kec. Kota Tambolaka, Kabupaten Sumba Barat Daya, Nusa Tenggara Tim. 87255","Kec. Loura, Kec. Kota Tambolaka, Kabupaten Sumba Barat Daya",NUSA TENGGARA TIMUR,87255.0,Indonesia,85253877504.0,,,-9.4213281,119.2969038,https://maps.google.com/?cid=0x0:0xad1f336d93c8e2e,
supermarket,Toko bahan makanan,Toko Laura,"Unnamed Road, Bojong Kulur, Kec. Gn. Putri, Kabupaten Bogor, Jawa Barat 16969","Bojong Kulur, Kec. Gn. Putri, Kabupaten Bogor",NUSA TENGGARA TIMUR,16969.0,Indonesia,,,,-6.3190532,106.9686896,https://maps.google.com/?cid=0x0:0x9279548a78248c97,
supermarket,Kios,TOKO KIRANA,"F6WF+8J9, Unnamed Road, Waimangura, Kec. Wewewa Bar., Kabupaten Sumba Barat Daya, Nusa Tenggara Tim.","Kabupaten Sumba Barat Daya, Nusa Tenggara Tim.",NUSA TENGGARA TIMUR,,Indonesia,82145689443.0,,,-9.5042079,119.2241159,https://maps.google.com/?cid=0x0:0xaf9bc3bc8b04e168,
supermarket,Toko Swalayan,RPK KIRANA,"F6WF+5M9, Waimangura, Kec. Wewewa Bar., Kabupaten Sumba Barat Daya, Nusa Tenggara Tim.","Kabupaten Sumba Barat Daya, Nusa Tenggara Tim.",NUSA TENGGARA TIMUR,,Indonesia,,,,-9.5045912,119.2242394,https://maps.google.com/?cid=0x0:0x58e54bc5b8f46b5f,
supermarket,supermarket,Kec. Wewewa Sel.,"Kabupaten Sumba Barat Daya, Nusa Tenggara Tim.","Kabupaten Sumba Barat Daya, Nusa Tenggara Tim.",NUSA TENGGARA TIMUR,,Indonesia,,,,-9.5674808,119.2200814,https://maps.google.com/?cid=0x0:0x5dc8281eeb398606,
supermarket,Pusat Perbelanjaan,LYON NUSANTARA SUPER MARKET,"9754+5H3, Kamalaputi, Kec. Kota Waingapu, Kabupaten Sumba Timur, Nusa Tenggara Tim.","Kabupaten Sumba Timur, Nusa Tenggara Tim.",NUSA TENGGARA TIMUR,,Indonesia,,,,-9.6421199,120.2564251,https://maps.google.com/?cid=0x0:0xf39f6f3279d31f50,
supermarket,Pembangunan Perumahan,Raba ege,"C6CV+JR, Raba Engge, Kec. Wewewa Bar., Kabupaten Sumba Barat Daya, Nusa Tenggara Tim.","Kabupaten Sumba Barat Daya, Nusa Tenggara Tim.",NUSA TENGGARA TIMUR,,Indonesia,85339167302.0,,,-9.5783921,119.2445601,https://maps.google.com/?cid=0x0:0xe2417b421b4522d7,
supermarket,Toko Swalayan,WEGA MORIPA HOME,"Denduka, Kec. Wewewa Sel., Kabupaten Sumba Barat Daya, Nusa Tenggara Tim.","Kabupaten Sumba Barat Daya, Nusa Tenggara Tim.",NUSA TENGGARA TIMUR,,Indonesia,81239398020.0,,,-9.6167642,119.188035,https://maps.google.com/?cid=0x0:0xe798074849331663,
supermarket,Minimarket,KIOS ENDIRA,"F6PV+Q45, Waimangura, Kec. Wewewa Bar., Kabupaten Sumba Barat Daya, Nusa Tenggara Tim.","Kabupaten Sumba Barat Daya, Nusa Tenggara Tim.",NUSA TENGGARA TIMUR,,Indonesia,,,,-9.5131138,119.2428705,https://maps.google.com/?cid=0x0:0x2d8e423430a4a5ea,
supermarket,Toko bahan makanan,Kios Sumber Kasih,"F5XM+F4Q, Marokota, Kec. Wewewa Bar., Kabupaten Sumba Barat Daya, Nusa Tenggara Tim.","Kabupaten Sumba Barat Daya, Nusa Tenggara Tim.",NUSA TENGGARA TIMUR,,Indonesia,,,,-9.5012952,119.1828612,https://maps.google.com/?cid=0x0:0x6771f4c4086babc2,
supermarket,Toko Swalayan,Toko AS,"F6XG+3G3, Jl. W.R. Supratman, Waimangura, Kec. Wewewa Bar., Kabupaten Sumba Barat Daya, Nusa Tenggara Tim.","Kabupaten Sumba Barat Daya, Nusa Tenggara Tim.",NUSA TENGGARA TIMUR,,Indonesia,,,,-9.5023689,119.2262822,https://maps.google.com/?cid=0x0:0x24ebf1c1add779eb,
supermarket,supermarket,Kios Lalo Ina,"F43W+8XW, Weri Lolo, Kec. Wewewa Sel., Kabupaten Sumba Barat Daya, Nusa Tenggara Tim.","Kabupaten Sumba Barat Daya, Nusa Tenggara Tim.",NUSA TENGGARA TIMUR,,Indonesia,,,,-9.5466353,119.147444,https://maps.google.com/?cid=0x0:0x8250f387b64e25eb,
supermarket,Toko Swalayan,Toko Iya Ate,"F6RP+8GP, Waimangura, Kec. Wewewa Bar., Kabupaten Sumba Barat Daya, Nusa Tenggara Tim.","Kabupaten Sumba Barat Daya, Nusa Tenggara Tim.",NUSA TENGGARA TIMUR,,Indonesia,,,,-9.509155,119.2363415,https://maps.google.com/?cid=0x0:0xa1f16ed3344f44b2,
supermarket,supermarket,Kios Tanggu Solo,"F42W+H95, Weri Lolo, Kec. Wewewa Sel., Kabupaten Sumba Barat Daya, Nusa Tenggara Tim.","Kabupaten Sumba Barat Daya, Nusa Tenggara Tim.",NUSA TENGGARA TIMUR,,Indonesia,,,,-9.5486056,119.1459808,https://maps.google.com/?cid=0x0:0xc961974d93e68492,
supermarket,Toko bahan makanan,PAK mart,"F6RP+G4Q, Jl. Ahmad Yani, Waimangura, Kec. Wewewa Bar., Kabupaten Sumba Barat Daya, Nusa Tenggara Tim.","Kabupaten Sumba Barat Daya, Nusa Tenggara Tim.",NUSA TENGGARA TIMUR,,Indonesia,,,,-9.5086572,119.235364,https://maps.google.com/?cid=0x0:0x25051ec6c1ddae72,
supermarket,Kios,PKH,"G64C+56W, Waimangura, Kec. Wewewa Bar., Kabupaten Sumba Barat Daya, Nusa Tenggara Tim. 87254","Waimangura, Kec. Wewewa Bar., Kabupaten Sumba Barat Daya",NUSA TENGGARA TIMUR,87254.0,Indonesia,85338297173.0,,,-9.4945241,119.2205789,https://maps.google.com/?cid=0x0:0xe4978b745be859ea,
supermarket,Toko Swalayan,Toko Sinar Jaya,"F6WH+75W, Waimangura, Kec. Wewewa Bar., Kabupaten Sumba Barat Daya, Nusa Tenggara Tim.","Kabupaten Sumba Barat Daya, Nusa Tenggara Tim.",NUSA TENGGARA TIMUR,,Indonesia,81246856567.0,,,-9.5042743,119.2279589,https://maps.google.com/?cid=0x0:0x4b9bad4f3afc43c3,
supermarket,Pusat Perbelanjaan,Foto copy,"F542+X8P, Weri Lolo, Kec. Wewewa Sel., Kabupaten Sumba Barat Daya, Nusa Tenggara Tim.","Kabupaten Sumba Barat Daya, Nusa Tenggara Tim.",NUSA TENGGARA TIMUR,,Indonesia,,,,-9.5425845,119.1507485,https://maps.google.com/?cid=0x0:0x7523550351264a2c,
supermarket,Toko,Toko Dagamesa,"C5PX+JV9, Tena Teke, Kec. Wewewa Sel., Kabupaten Sumba Barat Daya, Nusa Tenggara Tim.","Kabupaten Sumba Barat Daya, Nusa Tenggara Tim.",NUSA TENGGARA TIMUR,,Indonesia,,,,-9.5629751,119.198636,https://maps.google.com/?cid=0x0:0x2dc9c007fe6e0cae,
supermarket,Toko,Toko Putra Dames,"C5XC+M3M, Buru Deilo, Kec. Wewewa Sel., Kabupaten Sumba Barat Daya, Nusa Tenggara Tim.","Kabupaten Sumba Barat Daya, Nusa Tenggara Tim.",NUSA TENGGARA TIMUR,,Indonesia,,,,-9.5507906,119.170157,https://maps.google.com/?cid=0x0:0x5f80bdc77eee24ce,
supermarket,Toko Kue,Lesny's Shop,"Wee Mete, Tena Teke, Kec. Wewewa Sel., Kabupaten Sumba Barat Daya, Nusa Tenggara Tim.","Kabupaten Sumba Barat Daya, Nusa Tenggara Tim.",NUSA TENGGARA TIMUR,,Indonesia,82144516903.0,,,-9.5559494,119.2227292,https://maps.google.com/?cid=0x0:0x5b0a3027dbb3dbde,
supermarket,Kios,TOKO KIRANA,"F6WF+8J9, Unnamed Road, Waimangura, Kec. Wewewa Bar., Kabupaten Sumba Barat Daya, Nusa Tenggara Tim.","Kabupaten Sumba Barat Daya, Nusa Tenggara Tim.",NUSA TENGGARA TIMUR,,Indonesia,82145689443.0,,,-9.5042079,119.2241159,https://maps.google.com/?cid=0x0:0xaf9bc3bc8b04e168,
supermarket,Toko,Bapa Andi,"C6P3+52W, Tena Teke, Kec. Wewewa Sel., Kabupaten Sumba Barat Daya, Nusa Tenggara Tim.","Kabupaten Sumba Barat Daya, Nusa Tenggara Tim.",NUSA TENGGARA TIMUR,,Indonesia,,,,-9.5639229,119.2029251,https://maps.google.com/?cid=0x0:0x2839376ddb948a2a,
supermarket,Toko,Toko Arya,"C5XC+QJH, Buru Deilo, Kec. Wewewa Sel., Kabupaten Sumba Barat Daya, Nusa Tenggara Tim.","Kabupaten Sumba Barat Daya, Nusa Tenggara Tim.",NUSA TENGGARA TIMUR,,Indonesia,,,,-9.550255,119.172805,https://maps.google.com/?cid=0x0:0x3f5c392f5a60f263,
supermarket,Kios,Tiket dan pulsa_Amira,"95MQ+G95, Denduka, Kec. Wewewa Sel., Kabupaten Sumba Barat Daya, Nusa Tenggara Tim.","Kabupaten Sumba Barat Daya, Nusa Tenggara Tim.",NUSA TENGGARA TIMUR,,Indonesia,,,,-9.6162303,119.1884751,https://maps.google.com/?cid=0x0:0x49f1b016c1f7b9b4,
supermarket,Pusat Perbelanjaan,Kios Ana Lalo,"95MJ+5H, Denduka, Kec. Wewewa Sel., Kabupaten Sumba Barat Daya, Nusa Tenggara Tim.","Kabupaten Sumba Barat Daya, Nusa Tenggara Tim.",NUSA TENGGARA TIMUR,,Indonesia,,,,-9.6171136,119.1814779,https://maps.google.com/?cid=0x0:0x534df06826b1092d,
supermarket,supermarket,Tambolakq,"F46Q+8JW, Weri Lolo, Kec. Wewewa Sel., Kabupaten Sumba Barat Daya, Nusa Tenggara Tim.","Kabupaten Sumba Barat Daya, Nusa Tenggara Tim.",NUSA TENGGARA TIMUR,,Indonesia,,,,-9.539139,119.1390642,https://maps.google.com/?cid=0x0:0x44d997fb57408d08,
supermarket,Pasar tradisional,Pasar Rakyat Waimangura,"F6RP+99R, Waimangura, Kec. Wewewa Bar., Kabupaten Sumba Barat Daya, Nusa Tenggara Tim.","Kabupaten Sumba Barat Daya, Nusa Tenggara Tim.",NUSA TENGGARA TIMUR,,Indonesia,,,,-9.5090091,119.2358784,https://maps.google.com/?cid=0x0:0x5cb6085d34f90953,
supermarket,supermarket,Kec. Wewewa Tengah,"Kabupaten Sumba Barat Daya, Nusa Tenggara Tim.","Kabupaten Sumba Barat Daya, Nusa Tenggara Tim.",NUSA TENGGARA TIMUR,,Indonesia,,,,-9.532605,119.2909927,https://maps.google.com/?cid=0x0:0x6f978c8d3fab9d28,
supermarket,Toko,Winmart Sapurata,"H68M+8C7, Jl. Sapurata, Wee Tobula, Kec. Loura, Kabupaten Sumba Barat Daya, Nusa Tenggara Tim.","Kabupaten Sumba Barat Daya, Nusa Tenggara Tim.",NUSA TENGGARA TIMUR,,Indonesia,,,,-9.4342001,119.2335557,https://maps.google.com/?cid=0x0:0x6715e8e47b99e6f4,
supermarket,Pasar tradisional,Pasar Rakyat Waimangura,"F6RP+99R, Waimangura, Kec. Wewewa Bar., Kabupaten Sumba Barat Daya, Nusa Tenggara Tim.","Kabupaten Sumba Barat Daya, Nusa Tenggara Tim.",NUSA TENGGARA TIMUR,,Indonesia,,,,-9.5090091,119.2358784,https://maps.google.com/?cid=0x0:0x5cb6085d34f90953,
supermarket,Tempat Parkir,Kanelu,"F7GV+X68, Kanelu, Kec. Wewewa Tengah, Kabupaten Sumba Barat Daya, Nusa Tenggara Tim.","Kabupaten Sumba Barat Daya, Nusa Tenggara Tim.",NUSA TENGGARA TIMUR,,Indonesia,,,,-9.5225881,119.2930875,https://maps.google.com/?cid=0x0:0x5f63dab6aa64b8ec,
supermarket,Pembangunan Perumahan,Kampung Andalara,"G77V+Q2, Lombu, Kec. Wewewa Tengah, Kabupaten Sumba Barat Daya, Nusa Tenggara Tim.","Kabupaten Sumba Barat Daya, Nusa Tenggara Tim.",NUSA TENGGARA TIMUR,,Indonesia,,,,-9.4856214,119.2925247,https://maps.google.com/?cid=0x0:0xb9c64db4167aa7d4,
supermarket,Toko,Toko Cinta Indah,"F7FJ+JGG, Limbu Watu,, Wee Kokora, Kec. Wewewa Tengah, Kabupaten Sumba Barat Daya, Nusa Tenggara Tim.","Kabupaten Sumba Barat Daya, Nusa Tenggara Tim.",NUSA TENGGARA TIMUR,,Indonesia,81353480750.0,,,-9.5259324,119.2813262,https://maps.google.com/?cid=0x0:0xfdd070a95cfb0d00,
supermarket,Toko Swalayan,RPK KIRANA,"F6WF+5M9, Waimangura, Kec. Wewewa Bar., Kabupaten Sumba Barat Daya, Nusa Tenggara Tim.","Kabupaten Sumba Barat Daya, Nusa Tenggara Tim.",NUSA TENGGARA TIMUR,,Indonesia,,,,-9.5045912,119.2242394,https://maps.google.com/?cid=0x0:0x58e54bc5b8f46b5f,
supermarket,supermarket,Kec. Wewewa Tim.,"Kabupaten Sumba Barat Daya, Nusa Tenggara Tim.","Kabupaten Sumba Barat Daya, Nusa Tenggara Tim.",NUSA TENGGARA TIMUR,,Indonesia,,,,-9.5922479,119.3511009,https://maps.google.com/?cid=0x0:0x69ead4906c239f2b,
supermarket,Toko,Winmart Sapurata,"H68M+8C7, Jl. Sapurata, Wee Tobula, Kec. Loura, Kabupaten Sumba Barat Daya, Nusa Tenggara Tim.","Kabupaten Sumba Barat Daya, Nusa Tenggara Tim.",NUSA TENGGARA TIMUR,,Indonesia,,,,-9.4342001,119.2335557,https://maps.google.com/?cid=0x0:0x6715e8e47b99e6f4,
supermarket,Kios,TOKO KIRANA,"F6WF+8J9, Unnamed Road, Waimangura, Kec. Wewewa Bar., Kabupaten Sumba Barat Daya, Nusa Tenggara Tim.","Kabupaten Sumba Barat Daya, Nusa Tenggara Tim.",NUSA TENGGARA TIMUR,,Indonesia,82145689443.0,,,-9.5042079,119.2241159,https://maps.google.com/?cid=0x0:0xaf9bc3bc8b04e168,
supermarket,Komplek perumahan,Ngamba Deta,"C8QM+JP4, Weelimbu, Kec. Wewewa Tim., Kabupaten Sumba Barat Daya, Nusa Tenggara Tim.","Kabupaten Sumba Barat Daya, Nusa Tenggara Tim.",NUSA TENGGARA TIMUR,,Indonesia,82146016813.0,,,-9.5609772,119.3343307,https://maps.google.com/?cid=0x0:0xec9032a2b3e3c812,
supermarket,Pusat Perbelanjaan,LYON NUSANTARA SUPER MARKET,"9754+5H3, Kamalaputi, Kec. Kota Waingapu, Kabupaten Sumba Timur, Nusa Tenggara Tim.","Kabupaten Sumba Timur, Nusa Tenggara Tim.",NUSA TENGGARA TIMUR,,Indonesia,,,,-9.6421199,120.2564251,https://maps.google.com/?cid=0x0:0xf39f6f3279d31f50,
supermarket,Pembangunan Perumahan,Wee Keila,"C8G8+9WW, Kalembu Ndara Mane, Kec. Wewewa Tim., Kabupaten Sumba Barat Daya, Nusa Tenggara Tim.","Kabupaten Sumba Barat Daya, Nusa Tenggara Tim.",NUSA TENGGARA TIMUR,,Indonesia,,,,-9.574008,119.3173421,https://maps.google.com/?cid=0x0:0xfce76b7afe2571f5,
supermarket,Toko Suvenir,UMMA KABA,"99GX+RGR, Jl. Simpang Puunaga, Pada Eweta, Kec. Kota Waikabubak, Kabupaten Sumba Barat, Nusa Tenggara Tim.","Kabupaten Sumba Barat, Nusa Tenggara Tim.",NUSA TENGGARA TIMUR,,Indonesia,81331970090.0,,,-9.6228783,119.3987502,https://maps.google.com/?cid=0x0:0x68900e85f3dc735,
supermarket,Toko Bahan Bangunan,Toko Makmur,"Jl. Ahmad Yani No.3, Komerda, Kec. Kota Waikabubak, Kabupaten Sumba Barat, Nusa Tenggara Tim. 87211","Komerda, Kec. Kota Waikabubak, Kabupaten Sumba Barat",NUSA TENGGARA TIMUR,87211.0,Indonesia,81339020447.0,,,-9.6323297,119.411732,https://maps.google.com/?cid=0x0:0x70171ded7fc96b84,
supermarket,Pembangunan Perumahan,Loko dunni,"C952+4F2, Loko dunni, Kec. Wewewa Bar., Kabupaten Sumba Barat Daya, Nusa Tenggara Tim.","Kabupaten Sumba Barat Daya, Nusa Tenggara Tim.",NUSA TENGGARA TIMUR,,Indonesia,,,,-9.5922283,119.3511361,https://maps.google.com/?cid=0x0:0x2c561ac2a37af5a,
supermarket,Toko Suvenir,OLEH OLEH KHAS SUMBA,"9C76+59X, Unnamed Road, Maliti, Kec. Kota Waikabubak, Kabupaten Sumba Barat, Nusa Tenggara Tim.","Kabupaten Sumba Barat, Nusa Tenggara Tim.",NUSA TENGGARA TIMUR,,Indonesia,82145970929.0,,,-9.6370235,119.4109908,https://maps.google.com/?cid=0x0:0x3a9e35ef6d2b4738,
supermarket,Kantor Pemerintah,Kantor Desa Kadi Wanno,"C89H+3M5 Kadi Wanno, Kalembu Ndara Mane, Kec. Wewewa Tim., Kabupaten Sumba Barat Daya, Nusa Tenggara Tim.","Kabupaten Sumba Barat Daya, Nusa Tenggara Tim.",NUSA TENGGARA TIMUR,,Indonesia,,,,-9.5823536,119.329219,https://maps.google.com/?cid=0x0:0x9c44c4eab3ca819e,
supermarket,Kantor Pos,Elopada,"Jl No.Km 12, Kalembu Ndara Mane, Kec. Wewewa Tim., Kabupaten Sumba Barat, Nusa Tenggara Tim.","Kabupaten Sumba Barat, Nusa Tenggara Tim.",NUSA TENGGARA TIMUR,,Indonesia,,,,-9.5798375,119.3256094,https://maps.google.com/?cid=0x0:0xacbe9ad64b54bcf,
supermarket,Sekolah menengah,SD Mawo Dana,"C9G7+7FV, Weelimbu, Kec. Wewewa Tim., Kabupaten Sumba Barat Daya, Nusa Tenggara Tim.","Kabupaten Sumba Barat Daya, Nusa Tenggara Tim.",NUSA TENGGARA TIMUR,,Indonesia,,,,-9.5742705,119.3636782,https://maps.google.com/?cid=0x0:0x466d72bfef5cd940,
supermarket,Toko Swalayan,Toko Setia Mulia,"F83R+W5V, Bolora, Kec. Wewewa Tim., Kabupaten Sumba Barat Daya, Nusa Tenggara Tim.","Kabupaten Sumba Barat Daya, Nusa Tenggara Tim.",NUSA TENGGARA TIMUR,,Indonesia,81339865707.0,,,-9.5451454,119.340415,https://maps.google.com/?cid=0x0:0x39b1504b64d0da45,
supermarket,Toko bahan makanan,Toko Ardinda,"C8P7+C68, Jalan Simpang, Omba Rade, Kec. Wewewa Tengah, Kabupaten Sumba Barat Daya, Nusa Tenggara Tim.","Kabupaten Sumba Barat Daya, Nusa Tenggara Tim.",NUSA TENGGARA TIMUR,,Indonesia,,,,-9.5639664,119.3130722,https://maps.google.com/?cid=0x0:0xb13861ba88e66c88,
supermarket,Toko Swalayan,Toko Maranatha,"C8Q6+2PV, Omba Rade, Kec. Wewewa Tengah, Kabupaten Sumba Barat Daya, Nusa Tenggara Tim.","Kabupaten Sumba Barat Daya, Nusa Tenggara Tim.",NUSA TENGGARA TIMUR,,Indonesia,,,,-9.5623869,119.3117958,https://maps.google.com/?cid=0x0:0x37f4836703c7206a,
supermarket,Toko bahan makanan,Simpang Ippo Mareda Kalada,"C849+4MJ, Mareda Kalada, Kec. Wewewa Tim., Kabupaten Sumba Barat Daya, Nusa Tenggara Tim.","Kabupaten Sumba Barat Daya, Nusa Tenggara Tim.",NUSA TENGGARA TIMUR,,Indonesia,,,,-9.5946742,119.3191472,https://maps.google.com/?cid=0x0:0x9e019d15d4d8c362,
supermarket,Komplek perumahan,Toko Imanuel - KarekaPare - Wee Patando,"C8W6+5HV, Wee Patando, Kec. Wewewa Tim., Kabupaten Sumba Barat Daya, Nusa Tenggara Tim.","Kabupaten Sumba Barat Daya, Nusa Tenggara Tim.",NUSA TENGGARA TIMUR,,Indonesia,81236627668.0,,,-9.5545069,119.3114098,https://maps.google.com/?cid=0x0:0x2fa5ff59f34c350d,
supermarket,Kios,KIOS Berkat Agung,"C8M7+QRM, Kalembu Ndara Mane, Kec. Wewewa Tim., Kabupaten Sumba Barat Daya, Nusa Tenggara Tim.","Kabupaten Sumba Barat Daya, Nusa Tenggara Tim.",NUSA TENGGARA TIMUR,,Indonesia,,,,-9.5655348,119.3145397,https://maps.google.com/?cid=0x0:0xd95f4666b0dcd810,
supermarket,Toko,Toko Maliti Indah,"C8G9+JRJ, Kalembu Ndara Mane, Kec. Wewewa Tim., Kabupaten Sumba Barat Daya, Nusa Tenggara Tim.","Kabupaten Sumba Barat Daya, Nusa Tenggara Tim.",NUSA TENGGARA TIMUR,,Indonesia,82144768522.0,,,-9.5734148,119.3195238,https://maps.google.com/?cid=0x0:0xf9085c0f4048ce42,
supermarket,Kios,Kios Zahwa,"C933+RQH, Jl. Ahmad Yani, Tema Tana, Kec. Wewewa Tim., Kabupaten Sumba Barat Daya, Nusa Tenggara Tim.","Kabupaten Sumba Barat Daya, Nusa Tenggara Tim.",NUSA TENGGARA TIMUR,,Indonesia,,,,-9.5954422,119.3544923,https://maps.google.com/?cid=0x0:0xe4bf20c09c5d91f2,
supermarket,Toko Perlengkapan Rumah,Toko lawata,"C8W6+5HV, Wee Patando, Kec. Wewewa Tim., Kabupaten Sumba Barat Daya, Nusa Tenggara Tim.","Kabupaten Sumba Barat Daya, Nusa Tenggara Tim.",NUSA TENGGARA TIMUR,,Indonesia,81246616268.0,,,-9.5552878,119.3111989,https://maps.google.com/?cid=0x0:0x3834fda95c2a30e2,
supermarket,supermarket,Ud. Bili Mori 03,"C99G+H38, Mata Pyawu, Kec. Wewewa Tim., Kabupaten Sumba Barat Daya, Nusa Tenggara Tim.","Kabupaten Sumba Barat Daya, Nusa Tenggara Tim.",NUSA TENGGARA TIMUR,,Indonesia,,,,-9.5810821,119.375178,https://maps.google.com/?cid=0x0:0x596b671761a07b60,
supermarket,Toko Perlengkapan Rumah,Toko Sahayu,"C89H+585, Jl. Budi Utomo, Kalembu Ndara Mane, Kec. Wewewa Tim., Kabupaten Sumba Barat Daya, Nusa Tenggara Tim.","Kabupaten Sumba Barat Daya, Nusa Tenggara Tim.",NUSA TENGGARA TIMUR,,Indonesia,,,,-9.5821019,119.3283682,https://maps.google.com/?cid=0x0:0x998469770bfdf6ab,
supermarket,Kios,Kios Bina Cipta,"C87Q+RJF Lolo Bali, Kalembu Ndara Mane, Kec. Wewewa Tim., Kabupaten Sumba Barat Daya, Nusa Tenggara Tim.","Kabupaten Sumba Barat Daya, Nusa Tenggara Tim.",NUSA TENGGARA TIMUR,,Indonesia,,,,-9.5854412,119.3390499,https://maps.google.com/?cid=0x0:0x163577eae4e889f3,
supermarket,Komplek perumahan,Kareka Pare Mas,"C8W6+2MJ, Jl. Ahmad Yani, Wee Patando, Kec. Wewewa Tim., Kabupaten Sumba Barat Daya, Nusa Tenggara Tim.","Kabupaten Sumba Barat Daya, Nusa Tenggara Tim.",NUSA TENGGARA TIMUR,,Indonesia,81237962393.0,,,-9.5549181,119.3116382,https://maps.google.com/?cid=0x0:0xb2b9de7dad9de5af,
supermarket,Toko,Kios Scorpio,"C8Q2+WG5 Desa Kadi Roma, Omba Rade, Kec. Wewewa Tengah, Kabupaten Sumba Barat Daya, Nusa Tenggara Tim. 87252","Omba Rade, Kec. Wewewa Tengah, Kabupaten Sumba Barat Daya",NUSA TENGGARA TIMUR,87252.0,Indonesia,82144615353.0,,,-9.5602429,119.3013562,https://maps.google.com/?cid=0x0:0xdb9d60eb99d5ff48,
supermarket,Servis Komputer,Talenta Komputer,"Omba Rade, Kec. Wewewa Tim., Kabupaten Sumba Barat Daya, Nusa Tenggara Tim.","Kabupaten Sumba Barat Daya, Nusa Tenggara Tim.",NUSA TENGGARA TIMUR,,Indonesia,82237444232.0,,,-9.562364,119.3112752,https://maps.google.com/?cid=0x0:0xa2d116f2d08e5f57,
supermarket,Toko bahan makanan,Toko Pada Elo,"99CQ+G7F, Pada Eweta, Kec. Kota Waikabubak, Kabupaten Sumba Barat, Nusa Tenggara Tim.","Kabupaten Sumba Barat, Nusa Tenggara Tim.",NUSA TENGGARA TIMUR,,Indonesia,85237739481.0,,,-9.6286875,119.3881783,https://maps.google.com/?cid=0x0:0x8e13b333c690abd3,
supermarket,Kios,TOKO KIRANA,"F6WF+8J9, Unnamed Road, Waimangura, Kec. Wewewa Bar., Kabupaten Sumba Barat Daya, Nusa Tenggara Tim.","Kabupaten Sumba Barat Daya, Nusa Tenggara Tim.",NUSA TENGGARA TIMUR,,Indonesia,82145689443.0,,,-9.5042079,119.2241159,https://maps.google.com/?cid=0x0:0xaf9bc3bc8b04e168,
supermarket,Toko Swalayan,RPK KIRANA,"F6WF+5M9, Waimangura, Kec. Wewewa Bar., Kabupaten Sumba Barat Daya, Nusa Tenggara Tim.","Kabupaten Sumba Barat Daya, Nusa Tenggara Tim.",NUSA TENGGARA TIMUR,,Indonesia,,,,-9.5045912,119.2242394,https://maps.google.com/?cid=0x0:0x58e54bc5b8f46b5f,
supermarket,supermarket,Kec. Wewewa Utara,"Kabupaten Sumba Barat Daya, Nusa Tenggara Tim.","Kabupaten Sumba Barat Daya, Nusa Tenggara Tim.",NUSA TENGGARA TIMUR,,Indonesia,,,,-9.5267607,119.3539572,https://maps.google.com/?cid=0x0:0xe58277af67096a5b,
supermarket,Toko,Toko Wisnu,"F9C4+X7Q, Wee Paboba, Kec. Wewewa Utara, Kabupaten Sumba Barat Daya, Nusa Tenggara Tim.","Kabupaten Sumba Barat Daya, Nusa Tenggara Tim.",NUSA TENGGARA TIMUR,,Indonesia,81239557598.0,,,-9.5274651,119.3557767,https://maps.google.com/?cid=0x0:0x64e2efe4517a5ad3,
supermarket,Komplek perumahan,Djela manu,"G976+8R, Wee Paboba, Kec. Wewewa Utara, Kabupaten Sumba Barat Daya, Nusa Tenggara Tim.","Kabupaten Sumba Barat Daya, Nusa Tenggara Tim.",NUSA TENGGARA TIMUR,,Indonesia,,,,-9.4867087,119.3621062,https://maps.google.com/?cid=0x0:0xadb72a41701c4ec7,
supermarket,Toko Swalayan,Toko Setia Mulia,"F83R+W5V, Bolora, Kec. Wewewa Tim., Kabupaten Sumba Barat Daya, Nusa Tenggara Tim.","Kabupaten Sumba Barat Daya, Nusa Tenggara Tim.",NUSA TENGGARA TIMUR,,Indonesia,81339865707.0,,,-9.5451454,119.340415,https://maps.google.com/?cid=0x0:0x39b1504b64d0da45,
supermarket,Toko Fotokopi,Foto copy dan sembako,"Wano Rita, Wee Paboba, Kec. Wewewa Utara, Kabupaten Sumba Barat Daya, Nusa Tenggara Tim. 87252","Wee Paboba, Kec. Wewewa Utara, Kabupaten Sumba Barat Daya",NUSA TENGGARA TIMUR,87252.0,Indonesia,,,,-9.5267698,119.3570656,https://maps.google.com/?cid=0x0:0x2030b3619585fa98,
supermarket,Pusat Perbelanjaan,LYON NUSANTARA SUPER MARKET,"9754+5H3, Kamalaputi, Kec. Kota Waingapu, Kabupaten Sumba Timur, Nusa Tenggara Tim.","Kabupaten Sumba Timur, Nusa Tenggara Tim.",NUSA TENGGARA TIMUR,,Indonesia,,,,-9.6421199,120.2564251,https://maps.google.com/?cid=0x0:0xf39f6f3279d31f50,
supermarket,Komplek perumahan,Pasar Malata,"H95J+CG8, Malata, Kec. Tana Righu, Kabupaten Sumba Barat, Nusa Tenggara Tim.","Kabupaten Sumba Barat, Nusa Tenggara Tim.",NUSA TENGGARA TIMUR,,Indonesia,,,,-9.4414622,119.3813308,https://maps.google.com/?cid=0x0:0x1a4b326ebdafe526,
supermarket,Toko Perlengkapan Rumah,Yosinta Nona Ina,"H94F+M6, Bondo Boghila, Kec. Loura, Kabupaten Sumba Barat Daya, Nusa Tenggara Tim.","Kabupaten Sumba Barat Daya, Nusa Tenggara Tim.",NUSA TENGGARA TIMUR,,Indonesia,,,,-9.4433125,119.3730625,https://maps.google.com/?cid=0x0:0x260892c98907925c,
supermarket,Sekolah Dasar,SDN RAWE,"G9Q6+VXF, Wee Namba, Kec. Wewewa Utara, Kabupaten Sumba Barat Daya, Nusa Tenggara Tim.","Kabupaten Sumba Barat Daya, Nusa Tenggara Tim.",NUSA TENGGARA TIMUR,,Indonesia,81246719938.0,,,-9.4603007,119.3624355,https://maps.google.com/?cid=0x0:0xdff211325938202e,
supermarket,Kios,Stelan anak weedindi,"C8WH+RV, Bolora, Kec. Wewewa Tengah, Kabupaten Sumba Barat Daya, Nusa Tenggara Tim.","Kabupaten Sumba Barat Daya, Nusa Tenggara Tim.",NUSA TENGGARA TIMUR,,Indonesia,,,,-9.552905,119.3296726,https://maps.google.com/?cid=0x0:0x620b30bbd3c32f8e,
