Category,Real Category,Business Name,Address,City,State,Postal Code,Country,Phone,Email,Website,Latitude,Longitude,Map Link,Details Link
perumahan,perumahan,Kec. Kodi,"Kabupaten Sumba Barat Daya, Nusa Tenggara Tim.","Kabupaten Sumba Barat Daya, Nusa Tenggara Tim.",NUSA TENGGARA TIMUR,,Indonesia,,,,-9.5609001,119.0040062,https://maps.google.com/?cid=0x0:0x59d73cce043eba08,
perumahan,perumahan,Nusa Tenggara Tim.,,Nusa Tenggara Tim.,NUSA TENGGARA TIMUR,,Indonesia,,,,-8.6573819,121.0793705,https://maps.google.com/?cid=0x0:0x1030bfbcaf71ae0,
perumahan,Penginapan,Wonda Rangga,"Hamonggo Lele, Kec. Kodi, Kabupaten Sumba Barat Daya, Nusa Tenggara Tim. 87261","Kec. Kodi, Kabupaten Sumba Barat Daya",NUSA TENGGARA TIMUR,87261.0,Indonesia,,,,-9.5816283,118.9947272,https://maps.google.com/?cid=0x0:0x2a4f2288f6ff17ac,
perumahan,Kantor Perusahaan,PALMA REGENCY - PALMA GRUP,"VPP9+7HR, Jl. Teluk Naibenu, Dusun Kuanoah, Noelbaki, Kec. Kupang Tengah, Kabupaten Kupang, Nusa Tenggara Tim.","Kabupaten Kupang, Nusa Tenggara Tim.",NUSA TENGGARA TIMUR,,Indonesia,81337282180.0,,,-10.1142561,123.718893,https://maps.google.com/?cid=0x0:0x35b0946b700b7ed6,
perumahan,Kantor Jaksa Penuntut Umum,Kejaksaan Tinggi NTT,"Jl. Polisi Militer No.3, Oebobo, Kec. Oebobo, Kota Kupang, Nusa Tenggara Tim.","Kota Kupang, Nusa Tenggara Tim.",NUSA TENGGARA TIMUR,,Indonesia,81339128601.0,,,-10.1742714,123.605612,https://maps.google.com/?cid=0x0:0x32bc7fe4a8a598d1,
perumahan,Komplek perumahan,Kampung Kapaka,"FX9J+MQQ, Kalena Rongo, Kec. Kodi Utara, Kabupaten Sumba Barat Daya, Nusa Tenggara Tim.","Kabupaten Sumba Barat Daya, Nusa Tenggara Tim.",NUSA TENGGARA TIMUR,,Indonesia,,,,-9.5307986,118.9819864,https://maps.google.com/?cid=0x0:0x2a0074dfc36fa4a3,
perumahan,Komplek perumahan,Kampung Kanduruk,"FXGG+MGH, Kalena Rongo, Kec. Kodi Utara, Kabupaten Sumba Barat Daya, Nusa Tenggara Tim.","Kabupaten Sumba Barat Daya, Nusa Tenggara Tim.",NUSA TENGGARA TIMUR,,Indonesia,,,,-9.5233143,118.9763613,https://maps.google.com/?cid=0x0:0x155af600f7d67406,
perumahan,Pembangunan Perumahan,Kodil,"VWRJ+XXV kp cimanggu ona, RT.3/RW.7, Semper Tim., Kec. Cilincing, Jkt Utara, Daerah Khusus Ibukota Jakarta 14130","RT.3/RW.7, Semper Tim., Kec. Cilincing, Jkt Utara",NUSA TENGGARA TIMUR,14130.0,Indonesia,,,,-6.107521,106.932415,https://maps.google.com/?cid=0x0:0x866a0abcf5e65df0,
perumahan,Komplek perumahan,Rumah H. Kodir,"Jl. Pendidikan 1 No.22, Mangunjaya, Kec. Tambun Sel., Kabupaten Bekasi, Jawa Barat 17510","Mangunjaya, Kec. Tambun Sel., Kabupaten Bekasi",NUSA TENGGARA TIMUR,17510.0,Indonesia,,,,-6.2370911,107.0568696,https://maps.google.com/?cid=0x0:0xe1b29f407a7c2b59,
perumahan,Komplek perumahan,KOMPLEK BEACUKAI SUKAPURA,"Jl. Tarumanegara Q7, kompleks Bea cukai No.29, RT.15/RW.7, Sukapura, Kec. Cilincing, Jkt Utara, Daerah Khusus Ibukota Jakarta 14140","kompleks Bea cukai No.29, RT.15/RW.7, Sukapura, Kec. Cilincing, Jkt Utara",NUSA TENGGARA TIMUR,14140.0,Indonesia,,,,-6.156312,106.9246903,https://maps.google.com/?cid=0x0:0x2e146ae822a014b2,
perumahan,perumahan,Kec. Kodi Balaghar,"Kabupaten Sumba Barat Daya, Nusa Tenggara Tim.","Kabupaten Sumba Barat Daya, Nusa Tenggara Tim.",NUSA TENGGARA TIMUR,,Indonesia,,,,-9.6674786,119.0525222,https://maps.google.com/?cid=0x0:0x553cbf3de56efc03,
perumahan,Pembangunan Perumahan,Lambokat,"8438+W6, Kahale, Kec. Kodi Balaghar, Kabupaten Sumba Barat Daya, Nusa Tenggara Tim.","Kabupaten Sumba Barat Daya, Nusa Tenggara Tim.",NUSA TENGGARA TIMUR,,Indonesia,,,,-9.6952145,119.1154901,https://maps.google.com/?cid=0x0:0x1256426de11ccb8b,
perumahan,Komplek perumahan,"Beikandi, Desa Waiha Kecamatan kodi balaghar","923W+CF, Wai Ha, Kec. Kodi Balaghar, Kabupaten Sumba Barat Daya, Nusa Tenggara Tim.","Kabupaten Sumba Barat Daya, Nusa Tenggara Tim.",NUSA TENGGARA TIMUR,,Indonesia,,,,-9.6463841,119.0462493,https://maps.google.com/?cid=0x0:0xe38c244e667a846f,
perumahan,Perhimpunan Pengembang Perumahan,Perumahan,"C2Q6+JH8, Kapaka Madeta, Kec. Kodi, Kabupaten Sumba Barat Daya, Nusa Tenggara Tim.","Kabupaten Sumba Barat Daya, Nusa Tenggara Tim.",NUSA TENGGARA TIMUR,,Indonesia,,,,-9.5609603,119.0114587,https://maps.google.com/?cid=0x0:0xa23d03d5bab047bc,
perumahan,Komplek perumahan,PANDA,"9387+G89, Wai Ha, Kec. Kodi Bangedo, Kabupaten Sumba Barat Daya, Nusa Tenggara Tim.","Kabupaten Sumba Barat Daya, Nusa Tenggara Tim.",NUSA TENGGARA TIMUR,,Indonesia,,,,-9.6337197,119.0633621,https://maps.google.com/?cid=0x0:0x3c7b4f27e504db80,
perumahan,perumahan,Arka,"8383+P28, Panenggo Ede, Kec. Kodi Balaghar, Kabupaten Sumba Barat Daya, Nusa Tenggara Tim.","Kabupaten Sumba Barat Daya, Nusa Tenggara Tim.",NUSA TENGGARA TIMUR,,Indonesia,,,,-9.6832064,119.0525877,https://maps.google.com/?cid=0x0:0x439875b5a0d5db9,
perumahan,perumahan,HABILUNG,"83M3+229, Desa Waimakaha, Kec. Kodi Balaghar, Kabupaten Sumba Barat Daya, Nusa Tenggara Tim.","Kabupaten Sumba Barat Daya, Nusa Tenggara Tim.",NUSA TENGGARA TIMUR,,Indonesia,,,,-9.6674602,119.052605,https://maps.google.com/?cid=0x0:0x82b3713de53f8375,
perumahan,Komplek perumahan,Manumalogho,"92R5+M77, Lete Loko, Kec. Kodi Bangedo, Kabupaten Sumba Barat Daya, Nusa Tenggara Tim.","Kabupaten Sumba Barat Daya, Nusa Tenggara Tim.",NUSA TENGGARA TIMUR,,Indonesia,,,,-9.6083344,119.0081662,https://maps.google.com/?cid=0x0:0xa82558b7cdbb3c74,
perumahan,perumahan,Hamati kere,"8328+JX, Panenggo Ede, Kec. Kodi Balaghar, Kabupaten Sumba Barat Daya, Nusa Tenggara Tim.","Kabupaten Sumba Barat Daya, Nusa Tenggara Tim.",NUSA TENGGARA TIMUR,,Indonesia,,,,-9.6984679,119.0674518,https://maps.google.com/?cid=0x0:0x63754e144b51961c,
perumahan,Komplek perumahan,GHAIBARAHO,"C497+57, Mata Kapore, Kec. Kodi Bangedo, Kabupaten Sumba Barat Daya, Nusa Tenggara Tim.","Kabupaten Sumba Barat Daya, Nusa Tenggara Tim.",NUSA TENGGARA TIMUR,,Indonesia,,,,-9.58211,119.1131633,https://maps.google.com/?cid=0x0:0xc513832b0a813e58,
perumahan,Perhimpunan Pengembang Perumahan,GALLU KAHI,"92R5+M77, Lete Loko, Kec. Kodi Bangedo, Kabupaten Sumba Barat Daya, Nusa Tenggara Tim.","Kabupaten Sumba Barat Daya, Nusa Tenggara Tim.",NUSA TENGGARA TIMUR,,Indonesia,,,,-9.6083344,119.0081662,https://maps.google.com/?cid=0x0:0x12d18535afe579dc,
perumahan,Komplek perumahan,Rumah Toni ( baikandi,"923W+CF, Wai Ha, Kec. Kodi Balaghar, Kabupaten Sumba Barat Daya, Nusa Tenggara Tim.","Kabupaten Sumba Barat Daya, Nusa Tenggara Tim.",NUSA TENGGARA TIMUR,,Indonesia,,,,-9.646881,119.046483,https://maps.google.com/?cid=0x0:0x2e42905004b21d5a,
perumahan,Komplek perumahan,Rumah danial bole,"932R+CH, Wailangira, Kec. Kodi Balaghar, Kabupaten Sumba Barat Daya, Nusa Tenggara Tim.","Kabupaten Sumba Barat Daya, Nusa Tenggara Tim.",NUSA TENGGARA TIMUR,,Indonesia,,,,-9.6489785,119.0914304,https://maps.google.com/?cid=0x0:0x36ecae547ca65ba7,
perumahan,Perhimpunan Pengembang Perumahan,Kp.Gallu,"923P+32Q, Wainyapu, Kec. Kodi Balaghar, Kabupaten Sumba Barat Daya, Nusa Tenggara Tim.","Kabupaten Sumba Barat Daya, Nusa Tenggara Tim.",NUSA TENGGARA TIMUR,,Indonesia,,,,-9.6472918,119.0351027,https://maps.google.com/?cid=0x0:0xea38ca5b92cd3353,
perumahan,Komplek perumahan,GHAWEYO,"93GH+J8, Wai Ha, Kec. Kodi Balaghar, Kabupaten Sumba Barat Daya, Nusa Tenggara Tim.","Kabupaten Sumba Barat Daya, Nusa Tenggara Tim.",NUSA TENGGARA TIMUR,,Indonesia,,,,-9.6235156,119.078285,https://maps.google.com/?cid=0x0:0x46055eb8645043f7,
perumahan,Komplek perumahan,Kios kasih indah,"92WX+C7, Wai Kadada, Kec. Kodi Bangedo, Kabupaten Sumba Barat Daya, Nusa Tenggara Tim.","Kabupaten Sumba Barat Daya, Nusa Tenggara Tim.",NUSA TENGGARA TIMUR,,Indonesia,,,,-9.6038969,119.0482002,https://maps.google.com/?cid=0x0:0xd7592fbe38269ecc,
perumahan,Komplek perumahan,Homba kedu,"83RG+52P, Wai Karara, Kec. Kodi Balaghar, Kabupaten Sumba Barat Daya, Nusa Tenggara Tim.","Kabupaten Sumba Barat Daya, Nusa Tenggara Tim.",NUSA TENGGARA TIMUR,,Indonesia,,,,-9.659525,119.0750837,https://maps.google.com/?cid=0x0:0x4482e5447d5ba976,
perumahan,Kios,Jalan Lara Dara,"C2J7+4P3, Ana Engge, Kec. Kodi, Kabupaten Sumba Barat Daya, Nusa Tenggara Tim.","Kabupaten Sumba Barat Daya, Nusa Tenggara Tim.",NUSA TENGGARA TIMUR,,Indonesia,,,,-9.5697375,119.0142969,https://maps.google.com/?cid=0x0:0xfa740e2a1e5e82ea,
perumahan,perumahan,Boby Katoda,"8339+RQ, Panenggo Ede, Kec. Kodi Balaghar, Kabupaten Sumba Barat Daya, Nusa Tenggara Tim.","Kabupaten Sumba Barat Daya, Nusa Tenggara Tim.",NUSA TENGGARA TIMUR,,Indonesia,,,,-9.6953034,119.0694205,https://maps.google.com/?cid=0x0:0x4b42af8719386032,
perumahan,perumahan,Kamp Pintu Masuk,"74XR+V3, Karang Indah, Kec. Kodi Balaghar, Kabupaten Sumba Barat Daya, Nusa Tenggara Tim.","Kabupaten Sumba Barat Daya, Nusa Tenggara Tim.",NUSA TENGGARA TIMUR,,Indonesia,,,,-9.7003315,119.1402989,https://maps.google.com/?cid=0x0:0x8154382d43ca2c1e,
perumahan,Pembangunan Perumahan,Glen ana Ote,"8397+Q9P, Karekapalolo, Panenggo Ede, Kec. Kodi Balaghar, Kabupaten Sumba Barat Daya, Nusa Tenggara Tim.","Kabupaten Sumba Barat Daya, Nusa Tenggara Tim.",NUSA TENGGARA TIMUR,,Indonesia,,,,-9.6805393,119.0634479,https://maps.google.com/?cid=0x0:0xbfe4323332096d41,
perumahan,Komplek perumahan,Marten R Radu,"83J2+9H3, Panenggo Ede, Kec. Kodi Bangedo, Kabupaten Sumba Barat Daya, Nusa Tenggara Tim.","Kabupaten Sumba Barat Daya, Nusa Tenggara Tim.",NUSA TENGGARA TIMUR,,Indonesia,,,,-9.6698602,119.0508882,https://maps.google.com/?cid=0x0:0xdae459626f8c220d,
perumahan,Rumah wisata,Villa Tepi Tebing ( Cliffside Villa ),"Pero Batang, Kec. Kodi, Kabupaten Sumba Barat Daya, Nusa Tenggara Tim.","Kabupaten Sumba Barat Daya, Nusa Tenggara Tim.",NUSA TENGGARA TIMUR,,Indonesia,81236370920.0,,,-9.6067664,118.9864203,https://maps.google.com/?cid=0x0:0xfb3f3fa6773644cf,
perumahan,perumahan,Kec. Kodi Bangedo,"Kabupaten Sumba Barat Daya, Nusa Tenggara Tim.","Kabupaten Sumba Barat Daya, Nusa Tenggara Tim.",NUSA TENGGARA TIMUR,,Indonesia,,,,-9.6026813,119.0171447,https://maps.google.com/?cid=0x0:0x3bbfbd9e4fb43622,
perumahan,perumahan,Kec. Kodi,"Kabupaten Sumba Barat Daya, Nusa Tenggara Tim.","Kabupaten Sumba Barat Daya, Nusa Tenggara Tim.",NUSA TENGGARA TIMUR,,Indonesia,,,,-9.5609001,119.0040062,https://maps.google.com/?cid=0x0:0x59d73cce043eba08,
perumahan,Tujuan Wisata,Pantai Ratenggaro,"Umbu Ngedo, Kec. Kodi Bangedo, Kabupaten Sumba Barat Daya, Nusa Tenggara Tim.","Kabupaten Sumba Barat Daya, Nusa Tenggara Tim.",NUSA TENGGARA TIMUR,,Indonesia,82261606299.0,,,-9.6298283,119.0027695,https://maps.google.com/?cid=0x0:0xd4337d2a599d5ba8,
perumahan,Komplek perumahan,Kios kasih indah,"92WX+C7, Wai Kadada, Kec. Kodi Bangedo, Kabupaten Sumba Barat Daya, Nusa Tenggara Tim.","Kabupaten Sumba Barat Daya, Nusa Tenggara Tim.",NUSA TENGGARA TIMUR,,Indonesia,,,,-9.6038969,119.0482002,https://maps.google.com/?cid=0x0:0xd7592fbe38269ecc,
perumahan,Komplek perumahan,Simpang kampung adat HONGA KOKI,"92JC+373, Umbu Ngedo, Kec. Kodi Bangedo, Kabupaten Sumba Barat Daya, Nusa Tenggara Tim.","Kabupaten Sumba Barat Daya, Nusa Tenggara Tim.",NUSA TENGGARA TIMUR,,Indonesia,,,,-9.6198545,119.0206619,https://maps.google.com/?cid=0x0:0xf85e56ded5161e8d,
perumahan,Komplek perumahan,Manumalogho,"92R5+M77, Lete Loko, Kec. Kodi Bangedo, Kabupaten Sumba Barat Daya, Nusa Tenggara Tim.","Kabupaten Sumba Barat Daya, Nusa Tenggara Tim.",NUSA TENGGARA TIMUR,,Indonesia,,,,-9.6083344,119.0081662,https://maps.google.com/?cid=0x0:0xa82558b7cdbb3c74,
perumahan,Komplek perumahan,Kampung Adat Balengger,"9XVW+33W, Lete Loko, Kec. Kodi Bangedo, Kabupaten Sumba Barat Daya, Nusa Tenggara Tim.","Kabupaten Sumba Barat Daya, Nusa Tenggara Tim.",NUSA TENGGARA TIMUR,,Indonesia,,,,-9.6072587,118.9952099,https://maps.google.com/?cid=0x0:0xcd5b03a33f995285,
perumahan,Komplek perumahan,KAMPUNG DINJO,"C24C+X8, Dinjo, Kec. Kodi Bangedo, Kabupaten Sumba Barat Daya, Nusa Tenggara Tim.","Kabupaten Sumba Barat Daya, Nusa Tenggara Tim.",NUSA TENGGARA TIMUR,,Indonesia,,,,-9.5925625,119.0208125,https://maps.google.com/?cid=0x0:0x566b5a8879c20963,
perumahan,Komplek perumahan,Kepala desa,"C256+R9, Dinjo, Kec. Kodi Bangedo, Kabupaten Sumba Barat Daya, Nusa Tenggara Tim.","Kabupaten Sumba Barat Daya, Nusa Tenggara Tim.",NUSA TENGGARA TIMUR,,Indonesia,,,,-9.5904375,119.0109375,https://maps.google.com/?cid=0x0:0x5f762eba33d09e1,
perumahan,Perhimpunan Pengembang Perumahan,Perumahan,"C2Q6+JH8, Kapaka Madeta, Kec. Kodi, Kabupaten Sumba Barat Daya, Nusa Tenggara Tim.","Kabupaten Sumba Barat Daya, Nusa Tenggara Tim.",NUSA TENGGARA TIMUR,,Indonesia,,,,-9.5609603,119.0114587,https://maps.google.com/?cid=0x0:0xa23d03d5bab047bc,
perumahan,Perhimpunan Pengembang Perumahan,GALLU KAHI,"92R5+M77, Lete Loko, Kec. Kodi Bangedo, Kabupaten Sumba Barat Daya, Nusa Tenggara Tim.","Kabupaten Sumba Barat Daya, Nusa Tenggara Tim.",NUSA TENGGARA TIMUR,,Indonesia,,,,-9.6083344,119.0081662,https://maps.google.com/?cid=0x0:0x12d18535afe579dc,
perumahan,Komplek perumahan,Kampung Adat Malongge,"9XRR+WGV, Lete Loko, Kec. Kodi Bangedo, Kabupaten Sumba Barat Daya, Nusa Tenggara Tim.","Kabupaten Sumba Barat Daya, Nusa Tenggara Tim.",NUSA TENGGARA TIMUR,,Indonesia,,,,-9.607627,118.9912977,https://maps.google.com/?cid=0x0:0x464b59d03a5c1a8,
perumahan,Komplek perumahan,PANDA,"9387+G89, Wai Ha, Kec. Kodi Bangedo, Kabupaten Sumba Barat Daya, Nusa Tenggara Tim.","Kabupaten Sumba Barat Daya, Nusa Tenggara Tim.",NUSA TENGGARA TIMUR,,Indonesia,,,,-9.6337197,119.0633621,https://maps.google.com/?cid=0x0:0x3c7b4f27e504db80,
perumahan,Perhimpunan Pengembang Perumahan,Kalogho,"92PM+3G9, Umbu Ngedo, Kec. Kodi Bangedo, Kabupaten Sumba Barat Daya, Nusa Tenggara Tim.","Kabupaten Sumba Barat Daya, Nusa Tenggara Tim.",NUSA TENGGARA TIMUR,,Indonesia,,,,-9.6148376,119.0338638,https://maps.google.com/?cid=0x0:0x5da7b75d53d42fe,
perumahan,Kantor Perusahaan,Waiwikit,"Jln. Waikaninyo, Desa Waikaninyo, Kec. Kodi Bangedo, Kabupaten Sumba Barat Daya, Nusa Tenggara Tim.","Kabupaten Sumba Barat Daya, Nusa Tenggara Tim.",NUSA TENGGARA TIMUR,,Indonesia,,,,-9.6084107,118.9973647,https://maps.google.com/?cid=0x0:0xe11a0295b1d19938,
perumahan,Komplek perumahan,BENDIMU,"C238+XQ6, Dinjo, Kec. Kodi Bangedo, Kabupaten Sumba Barat Daya, Nusa Tenggara Tim.","Kabupaten Sumba Barat Daya, Nusa Tenggara Tim.",NUSA TENGGARA TIMUR,,Indonesia,,,,-9.5950796,119.0168962,https://maps.google.com/?cid=0x0:0xc628365c829349d2,
perumahan,Komplek perumahan,Ghengo,"92WW+H3, Wai Kadada, Kec. Kodi Bangedo, Kabupaten Sumba Barat Daya, Nusa Tenggara Tim.","Kabupaten Sumba Barat Daya, Nusa Tenggara Tim.",NUSA TENGGARA TIMUR,,Indonesia,,,,-9.6035393,119.0451514,https://maps.google.com/?cid=0x0:0x9e45f7d0a5805766,
perumahan,Komplek perumahan,Kampung Milla Ate,"92MJ+GGF, Umbu Ngedo, Kec. Kodi Bangedo, Kabupaten Sumba Barat Daya, Nusa Tenggara Tim.","Kabupaten Sumba Barat Daya, Nusa Tenggara Tim.",NUSA TENGGARA TIMUR,,Indonesia,,,,-9.6161782,119.031298,https://maps.google.com/?cid=0x0:0xf3a4908f202a375d,
perumahan,Komplek perumahan,Rumah Pro OHD,"Bondo Kodi, Kec. Kodi, Kabupaten Sumba Barat Daya, Nusa Tenggara Tim.","Kabupaten Sumba Barat Daya, Nusa Tenggara Tim.",NUSA TENGGARA TIMUR,,Indonesia,,,,-9.5912375,118.9923685,https://maps.google.com/?cid=0x0:0xa93a90a792e47ef6,
perumahan,Komplek perumahan,WATU KRAKIHO,"92V6+GFJ, Lete Loko, Kec. Kodi Bangedo, Kabupaten Sumba Barat Daya, Nusa Tenggara Tim.","Kabupaten Sumba Barat Daya, Nusa Tenggara Tim.",NUSA TENGGARA TIMUR,,Indonesia,,,,-9.6061536,119.0111495,https://maps.google.com/?cid=0x0:0x6634a0b891b1d306,
perumahan,Komplek perumahan,Kalembu Wunga,"92XW+J2, Wai Kadada, Kec. Kodi Bangedo, Kabupaten Sumba Barat Daya, Nusa Tenggara Tim.","Kabupaten Sumba Barat Daya, Nusa Tenggara Tim.",NUSA TENGGARA TIMUR,,Indonesia,,,,-9.5996855,119.0449759,https://maps.google.com/?cid=0x0:0x216e3d46b7386f5e,
perumahan,Pembangunan Perumahan,SIMPANG WAIMARAMA,"92R5+M77, Lete Loko, Kec. Kodi Bangedo, Kabupaten Sumba Barat Daya, Nusa Tenggara Tim.","Kabupaten Sumba Barat Daya, Nusa Tenggara Tim.",NUSA TENGGARA TIMUR,,Indonesia,,,,-9.6083344,119.0081662,https://maps.google.com/?cid=0x0:0xf9a02c20e13c5fad,
perumahan,Pembangunan Perumahan,AYUNG,"C25W+XPM, Wai Kadada, Kec. Kodi Bangedo, Kabupaten Sumba Barat Daya, Nusa Tenggara Tim.","Kabupaten Sumba Barat Daya, Nusa Tenggara Tim.",NUSA TENGGARA TIMUR,,Indonesia,,,,-9.5901368,119.0476816,https://maps.google.com/?cid=0x0:0x728c158cb8a887dd,
perumahan,Komplek perumahan,Kampung Ghanggo Ate,"C3C7+93, Wai Kadada, Kec. Kodi Bangedo, Kabupaten Sumba Barat Daya, Nusa Tenggara Tim.","Kabupaten Sumba Barat Daya, Nusa Tenggara Tim.",NUSA TENGGARA TIMUR,,Indonesia,,,,-9.5790519,119.0626677,https://maps.google.com/?cid=0x0:0xf8cefbee62fbaea4,
perumahan,perumahan,Kec. Kodi Utara,"Kabupaten Sumba Barat Daya, Nusa Tenggara Tim.","Kabupaten Sumba Barat Daya, Nusa Tenggara Tim.",NUSA TENGGARA TIMUR,,Indonesia,,,,-9.5201893,119.0312709,https://maps.google.com/?cid=0x0:0xc02655b0903b58a2,
perumahan,Perhimpunan Pengembang Perumahan,Perumahan,"C2Q6+JH8, Kapaka Madeta, Kec. Kodi, Kabupaten Sumba Barat Daya, Nusa Tenggara Tim.","Kabupaten Sumba Barat Daya, Nusa Tenggara Tim.",NUSA TENGGARA TIMUR,,Indonesia,,,,-9.5609603,119.0114587,https://maps.google.com/?cid=0x0:0xa23d03d5bab047bc,
perumahan,Komplek perumahan,Kota Hombakaripit,"F2MM+WCR, Homba Karipit, Kec. Kodi Utara, Kabupaten Sumba Barat Daya, Nusa Tenggara Tim.","Kabupaten Sumba Barat Daya, Nusa Tenggara Tim.",NUSA TENGGARA TIMUR,,Indonesia,,,,-9.5151357,119.0335054,https://maps.google.com/?cid=0x0:0x12444c8e29b9e792,
perumahan,Komplek perumahan,Buhi,"F2VV+VX, Kori, Kec. Kodi Utara, Kabupaten Sumba Barat Daya, Nusa Tenggara Tim.","Kabupaten Sumba Barat Daya, Nusa Tenggara Tim.",NUSA TENGGARA TIMUR,,Indonesia,,,,-9.5052597,119.0449477,https://maps.google.com/?cid=0x0:0x99ff5301bfc18ac1,
perumahan,Pembangunan Perumahan,Kampung hembah.,"F29H+R9P, Hoha Wungo, Kec. Kodi Utara, Kabupaten Sumba Barat Daya, Nusa Tenggara Tim.","Kabupaten Sumba Barat Daya, Nusa Tenggara Tim.",NUSA TENGGARA TIMUR,,Indonesia,85217569403.0,,,-9.5304173,119.0284575,https://maps.google.com/?cid=0x0:0x462cbe833a9f69c1,
perumahan,Perhimpunan Pengembang Perumahan,Kampung baru,"F259+M6, Mali Iha, Kec. Kodi, Kabupaten Sumba Barat Daya, Nusa Tenggara Tim.","Kabupaten Sumba Barat Daya, Nusa Tenggara Tim.",NUSA TENGGARA TIMUR,,Indonesia,,,,-9.5407983,119.0180957,https://maps.google.com/?cid=0x0:0xb53b4869a14c943c,
perumahan,Pembangunan Perumahan,P. Wikit,"G3HQ+XF2, Bukambero, Kec. Kodi Utara, Kabupaten Sumba Barat Daya, Nusa Tenggara Tim.","Kabupaten Sumba Barat Daya, Nusa Tenggara Tim.",NUSA TENGGARA TIMUR,,Indonesia,,,,-9.470103,119.0886447,https://maps.google.com/?cid=0x0:0xc6ac2c3af3043cbc,
perumahan,Perhimpunan Pengembang Perumahan,Kampung ngora ode,"H335+WC, Bila Cenge, Kec. Kodi Utara, Kabupaten Sumba Barat Daya, Nusa Tenggara Tim.","Kabupaten Sumba Barat Daya, Nusa Tenggara Tim.",NUSA TENGGARA TIMUR,,Indonesia,,,,-9.4452221,119.0585607,https://maps.google.com/?cid=0x0:0x24498fd11845e8c1,
perumahan,Komplek perumahan,kampung pareta Bondi,"G4X2+CG3, Bukambero, Kec. Kodi Utara, Kabupaten Sumba Barat Daya, Nusa Tenggara Tim.","Kabupaten Sumba Barat Daya, Nusa Tenggara Tim.",NUSA TENGGARA TIMUR,,Indonesia,,,,-9.4514899,119.1013017,https://maps.google.com/?cid=0x0:0x6ed49e8bc55330fd,
perumahan,Komplek perumahan,Kenggor,"F245+GMX, Onggol, Kec. Kodi, Kabupaten Sumba Barat Daya, Nusa Tenggara Tim.","Kabupaten Sumba Barat Daya, Nusa Tenggara Tim.",NUSA TENGGARA TIMUR,,Indonesia,,,,-9.5436282,119.009248,https://maps.google.com/?cid=0x0:0x32134003f83671cd,
perumahan,Perumahan,Kompleks ibu seli,"G3X5+32G, Bila Cenge, Kec. Kodi Utara, Kabupaten Sumba Barat Daya, Nusa Tenggara Tim.","Kabupaten Sumba Barat Daya, Nusa Tenggara Tim.",NUSA TENGGARA TIMUR,,Indonesia,,,,-9.4523208,119.0575736,https://maps.google.com/?cid=0x0:0x7970f7cc1d199e6d,
perumahan,perumahan,KALLU ATUR,"FXGC+5C7, Homba Rande, Kec. Kodi, Kabupaten Sumba Barat Daya, Nusa Tenggara Tim.","Kabupaten Sumba Barat Daya, Nusa Tenggara Tim.",NUSA TENGGARA TIMUR,,Indonesia,,,,-9.5245985,118.9710576,https://maps.google.com/?cid=0x0:0x85fda544ea78c2f9,
perumahan,Komplek perumahan,Kampung Kenduwela,"G2FW+7M, Kendu Wela, Kec. Kodi Utara, Kabupaten Sumba Barat Daya, Nusa Tenggara Tim.","Kabupaten Sumba Barat Daya, Nusa Tenggara Tim.",NUSA TENGGARA TIMUR,,Indonesia,,,,-9.4773392,119.0471294,https://maps.google.com/?cid=0x0:0x1e5a0f220a84691b,
perumahan,Komplek perumahan,Kampung Wei Deta Kodi,"GX9G+8VQ, Mangga Nipi, Kec. Kodi Utara, Kabupaten Sumba Barat Daya, Nusa Tenggara Tim.","Kabupaten Sumba Barat Daya, Nusa Tenggara Tim.",NUSA TENGGARA TIMUR,,Indonesia,,,,-9.4816531,118.9772199,https://maps.google.com/?cid=0x0:0xdce49b5f78b3c264,
perumahan,Pembangunan Perumahan,Ikit 1,"G274+5P, Desa, Hameli Ate, Kec. Kodi Utara, Kabupaten Sumba Barat Daya, Nusa Tenggara Tim.","Kabupaten Sumba Barat Daya, Nusa Tenggara Tim.",NUSA TENGGARA TIMUR,,Indonesia,,,,-9.4870073,119.0068703,https://maps.google.com/?cid=0x0:0xafca156271507bcf,
perumahan,Komplek perumahan,KADAILO HORO,"F2HJ+WGC, Kab. Sumba Barat Daya, Kec. Kodi Utara Desa Bila Cenge Kmpung Kadailo Horo, Homba Karipit","Kabupaten Sumba Barat Daya, Nusa Tenggara Tim.",NUSA TENGGARA TIMUR,,Indonesia,,,,-9.5201893,119.0312709,https://maps.google.com/?cid=0x0:0xbfc607cfb38f0657,
perumahan,Perhimpunan Pengembang Perumahan,Kampung wee Talora,"GX9H+346, Jln. Pantura. Desa Hameli Ate, Kec. Kodi Utara, Kabupaten Sumba Barat Daya, Nusa Tenggara Tim.","Kabupaten Sumba Barat Daya, Nusa Tenggara Tim.",NUSA TENGGARA TIMUR,,Indonesia,,,,-9.4823262,118.9777688,https://maps.google.com/?cid=0x0:0x24f0a74393deb864,
perumahan,Perhimpunan Pengembang Perumahan,Kamauta,"G3RJ+RM, Bukambero, Kec. Kodi Utara, Kabupaten Sumba Barat Daya, Nusa Tenggara Tim.","Kabupaten Sumba Barat Daya, Nusa Tenggara Tim.",NUSA TENGGARA TIMUR,,Indonesia,,,,-9.4579375,119.0816875,https://maps.google.com/?cid=0x0:0xee97979dd750a7c5,
perumahan,perumahan,Righu,"G3R6+5Q, Bila Cenge, Kec. Kodi Utara, Kabupaten Sumba Barat Daya, Nusa Tenggara Tim.","Kabupaten Sumba Barat Daya, Nusa Tenggara Tim.",NUSA TENGGARA TIMUR,,Indonesia,,,,-9.4596664,119.0622155,https://maps.google.com/?cid=0x0:0x4c31788b7f366cbb,
perumahan,Perhimpunan Pengembang Perumahan,Puu Komi,"G3R5+3R, Bila Cenge, Kec. Kodi Utara, Kabupaten Sumba Barat Daya, Nusa Tenggara Tim.","Kabupaten Sumba Barat Daya, Nusa Tenggara Tim.",NUSA TENGGARA TIMUR,,Indonesia,,,,-9.4598797,119.0595345,https://maps.google.com/?cid=0x0:0x37fb3437558b609f,
perumahan,Perhimpunan Pengembang Perumahan,Desa Wee Deta,"GX9G+9V9, Unnamed Road, Mangga Nipi, Kec. Kodi Utara, Kabupaten Sumba Barat Daya, Nusa Tenggara Tim.","Kabupaten Sumba Barat Daya, Nusa Tenggara Tim.",NUSA TENGGARA TIMUR,,Indonesia,,,,-9.481581,118.9772478,https://maps.google.com/?cid=0x0:0xed34881dd70b7f45,
perumahan,Pembangunan Perumahan,Bapak Yehuda Malorung,"G2FW+7M, Kendu Wela, Kec. Kodi Utara, Kabupaten Sumba Barat Daya, Nusa Tenggara Tim.","Kabupaten Sumba Barat Daya, Nusa Tenggara Tim.",NUSA TENGGARA TIMUR,,Indonesia,,,,-9.4768375,119.0466436,https://maps.google.com/?cid=0x0:0x8ed8dedf83635e32,
perumahan,Perhimpunan Pengembang Perumahan,Heri Leti,"F2CG+66, Hoha Wungo, Kec. Kodi Utara, Kabupaten Sumba Barat Daya, Nusa Tenggara Tim.","Kabupaten Sumba Barat Daya, Nusa Tenggara Tim.",NUSA TENGGARA TIMUR,,Indonesia,,,,-9.5294456,119.0255376,https://maps.google.com/?cid=0x0:0xc299f7ec0909dd01,
perumahan,Komplek perumahan,Kampung Manduru Kamba,"F29H+W8P, Kampung Manduru Kamba, Hoha Wungo, Kec. Kodi Utara, Kabupaten Sumba Barat Daya, Nusa Tenggara Tim.","Kabupaten Sumba Barat Daya, Nusa Tenggara Tim.",NUSA TENGGARA TIMUR,,Indonesia,,,,-9.5301624,119.0283165,https://maps.google.com/?cid=0x0:0x7f21eec447559948,
perumahan,perumahan,Kec. Kota Tambolaka,"Kabupaten Sumba Barat Daya, Nusa Tenggara Tim.","Kabupaten Sumba Barat Daya, Nusa Tenggara Tim.",NUSA TENGGARA TIMUR,,Indonesia,,,,-9.4295733,119.2387484,https://maps.google.com/?cid=0x0:0x9f73216af1e7222b,
perumahan,Komplek perumahan,BTN Puri Cendana - Tambolaka,"H7W4+C23 BTN Tambolaka, Jalan Cendana, Radamata, Kec. Kota Tambolaka, Kabupaten Sumba Barat Daya, Nusa Tenggara Tim. 87254","Jalan Cendana, Radamata, Kec. Kota Tambolaka, Kabupaten Sumba Barat Daya",NUSA TENGGARA TIMUR,87254.0,Indonesia,81243525712.0,,,-9.4047483,119.252227,https://maps.google.com/?cid=0x0:0x31ea1a63da8c79c7,
perumahan,Komplek perumahan,Talasi Estate at Weetabula Sumba,"Jl. Rumah Budaya Waitabula No.218, Wee Londa, Kec. Kota Tambolaka, Kabupaten Sumba Barat Daya, Nusa Tenggara Tim. 87255","Wee Londa, Kec. Kota Tambolaka, Kabupaten Sumba Barat Daya",NUSA TENGGARA TIMUR,87255.0,Indonesia,82213334004.0,,,-9.431134,119.2158301,https://maps.google.com/?cid=0x0:0x437412f756e9179f,
perumahan,Kantor Perusahaan,Rumah Budaya Sumba,"Jl. Rumah Budaya No.212, Kalembu Nga, bangga Weetebula, Kabupaten Sumba Barat Daya, Nusa Tenggara Tim.","Kabupaten Sumba Barat Daya, Nusa Tenggara Tim.",NUSA TENGGARA TIMUR,,Indonesia,,,,-9.4335489,119.214735,https://maps.google.com/?cid=0x0:0xc74dc666ea2888e8,
perumahan,perumahan,Sinar Tambolaka,"Hotel Sinar, Kalena Wano, Kec. Kota Tambolaka, Kabupaten Sumba Barat Daya, Nusa Tenggara Tim. 87255","Kalena Wano, Kec. Kota Tambolaka, Kabupaten Sumba Barat Daya",NUSA TENGGARA TIMUR,87255.0,Indonesia,3872524088.0,,,-9.4305675,119.2386103,https://maps.google.com/?cid=0x0:0xd1c8f3f36b22eaa1,
perumahan,perumahan,,,,NUSA TENGGARA TIMUR,,Indonesia,,,,,,https://maps.google.com/?cid=0x0:0xd1c8f3f36b22eaa1%7C/g/12vr2q517%7Cid-ID,
perumahan,Biro Perjalanan dan Wisata,Mananga Aba Beach,"J8P6+8X5, Karuni, Kec. Loura, Kabupaten Sumba Barat Daya, Nusa Tenggara Tim.","Kabupaten Sumba Barat Daya, Nusa Tenggara Tim.",NUSA TENGGARA TIMUR,,Indonesia,82191124143.0,,,-9.3642355,119.3124921,https://maps.google.com/?cid=0x0:0x115b70debc72be54,
perumahan,Perumahan,RDJ Houses,"H5XJ+RP5, Kadi Pada, Kec. Kota Tambolaka, Kabupaten Sumba Barat Daya, Nusa Tenggara Tim.","Kabupaten Sumba Barat Daya, Nusa Tenggara Tim.",NUSA TENGGARA TIMUR,,Indonesia,,,,-9.4004818,119.1818666,https://maps.google.com/?cid=0x0:0xa49087bd2174a395,
perumahan,Hotel,Villa Sinar Tambolaka,"H69Q+7X, Kalena Wano, Kec. Kota Tambolaka, Kabupaten Sumba Barat Daya, Nusa Tenggara Tim.","Kabupaten Sumba Barat Daya, Nusa Tenggara Tim.",NUSA TENGGARA TIMUR,,Indonesia,,,,-9.4318016,119.2400715,https://maps.google.com/?cid=0x0:0x41cefcacf67258de,
perumahan,Restoran,WARUNG GULA GARAM,"Jl. Soeharto No.18, Radamata, Kec. Kota Tambolaka, Kabupaten Sumba Barat Daya, Nusa Tenggara Tim.","Kabupaten Sumba Barat Daya, Nusa Tenggara Tim.",NUSA TENGGARA TIMUR,,Indonesia,3872524019.0,,,-9.4230396,119.2455498,https://maps.google.com/?cid=0x0:0x695421ad0206e3f6,
perumahan,perumahan,Oro Beach Houses,"Weepangali, Wee Pangali, Kec. Kota Tambolaka, Kabupaten Sumba Barat Daya, Nusa Tenggara Tim. 87254","Wee Pangali, Kec. Kota Tambolaka, Kabupaten Sumba Barat Daya",NUSA TENGGARA TIMUR,87254.0,Indonesia,81339110068.0,,,-9.3698359,119.2691648,https://maps.google.com/?cid=0x0:0xe9208c199549c4b1,
perumahan,Kantor Perusahaan,Bandar Udara Lede Kalumbang,"Jl. Bandara No 1 Rada Mata Sumba Barat Daya Sumba Barat Ntt, Tambolaka, Nusa Tenggara Tim. 87254",Tambolaka,NUSA TENGGARA TIMUR,87254.0,Indonesia,3872524057.0,,,-9.4122602,119.2458204,https://maps.google.com/?cid=0x0:0xb1497aedd07a3363,
perumahan,Komplek perumahan,Perumahan Saudara Sejati,"9C33+MF9, Weekarou Road, Wee Karou, Kec. Loli, Kabupaten Sumba Barat, Nusa Tenggara Tim.","Kabupaten Sumba Barat, Nusa Tenggara Tim.",NUSA TENGGARA TIMUR,,Indonesia,,,,-9.6458497,119.4037407,https://maps.google.com/?cid=0x0:0x124b4738153cb376,
perumahan,perumahan,Villa Redemptorist,"Unnamed Road, Radamata, Kec. Loura, Kabupaten Sumba Barat Daya, Nusa Tenggara Tim.","Kabupaten Sumba Barat Daya, Nusa Tenggara Tim.",NUSA TENGGARA TIMUR,,Indonesia,81216498177.0,,,-9.3901395,119.2240008,https://maps.google.com/?cid=0x0:0xe015bc11d11fb1e,
perumahan,Komplek perumahan,Sumba ntt,"F46Q+8JW, Weri Lolo, Kec. Wewewa Sel., Kabupaten Sumba Barat Daya, Nusa Tenggara Tim.","Kabupaten Sumba Barat Daya, Nusa Tenggara Tim.",NUSA TENGGARA TIMUR,,Indonesia,,,,-9.539139,119.1390642,https://maps.google.com/?cid=0x0:0x896e98888244dd71,
perumahan,Layanan Feri,"Pelabuhan Waikelo, NTT","J65C+745, Jalan Laut Sulawesi, Radamata, Kec. Kota Tambolaka, Kabupaten Sumba Barat Daya, Nusa Tenggara Tim.","Kabupaten Sumba Barat Daya, Nusa Tenggara Tim.",NUSA TENGGARA TIMUR,,Indonesia,,,,-9.3918749,119.2203543,https://maps.google.com/?cid=0x0:0x5b30a755bb7109c6,
perumahan,Restoran,Sirkey Resto,"Jalan Sudirman, Radamata, Kec. Kota Tambolaka, Kabupaten Sumba Barat Daya, Nusa Tenggara Tim.","Kabupaten Sumba Barat Daya, Nusa Tenggara Tim.",NUSA TENGGARA TIMUR,,Indonesia,85333077007.0,,,-9.4296618,119.2383019,https://maps.google.com/?cid=0x0:0xaff317bab9d61459,
perumahan,Restoran,Dapur Sumba,"Radamata, Kec. Loura, Kabupaten Sumba Barat Daya, Nusa Tenggara Tim. 87254","Kec. Loura, Kabupaten Sumba Barat Daya",NUSA TENGGARA TIMUR,87254.0,Indonesia,81353315055.0,,,-9.4167954,119.245971,https://maps.google.com/?cid=0x0:0xb774a37a3fc0df4d,
perumahan,Komplek perumahan,Rumah Singgah Umma SUBA,"J58J+GW2, Wee Londa, Kec. Loura, Kabupaten Sumba Barat Daya, Nusa Tenggara Tim.","Kabupaten Sumba Barat Daya, Nusa Tenggara Tim.",NUSA TENGGARA TIMUR,,Indonesia,82144265765.0,,,-9.3837362,119.1822659,https://maps.google.com/?cid=0x0:0xa4813b46e334dc5f,
perumahan,perumahan,Newa Sumba Resort,"Radamata, Kec. Loura, Kabupaten Sumba Barat Daya, Nusa Tenggara Tim.","Kabupaten Sumba Barat Daya, Nusa Tenggara Tim.",NUSA TENGGARA TIMUR,,Indonesia,81339187077.0,,,-9.3789306,119.2416512,https://maps.google.com/?cid=0x0:0xda0aadee04f42658,
perumahan,Restoran,Rumah Makan Richard,"H6FW+WG6, Radamata, Kec. Loura, Kabupaten Sumba Barat Daya, Nusa Tenggara Tim.","Kabupaten Sumba Barat Daya, Nusa Tenggara Tim.",NUSA TENGGARA TIMUR,,Indonesia,85339235680.0,,,-9.4252246,119.2462794,https://maps.google.com/?cid=0x0:0x66da2c3067d5fa6,
perumahan,perumahan,Nusa Tenggara Tim.,,Nusa Tenggara Tim.,NUSA TENGGARA TIMUR,,Indonesia,,,,-8.6573819,121.0793705,https://maps.google.com/?cid=0x0:0x1030bfbcaf71ae0,
perumahan,Gedung Apartemen,KALEMBU PANETA,"H6H2+F5F, Kalembu Paneta, Kadi Pada, Kabupaten Sumba Barat Daya, Nusa Tenggara Tim.","Kabupaten Sumba Barat Daya, Nusa Tenggara Tim.",NUSA TENGGARA TIMUR,,Indonesia,,,,-9.4213038,119.200426,https://maps.google.com/?cid=0x0:0x7c1f3d98fabc419d,
perumahan,Pembangunan Perumahan,Rumah BUMN Sumba Barat Daya,"Jl. Lede Kalumbang No.1, Radamata, Kec. Kota Tambolaka, Kabupaten Sumba Barat Daya, Nusa Tenggara Tim. 87255","Radamata, Kec. Kota Tambolaka, Kabupaten Sumba Barat Daya",NUSA TENGGARA TIMUR,87255.0,Indonesia,82314372631.0,,,-9.4243486,119.2462939,https://maps.google.com/?cid=0x0:0xc14aea7891b6724d,
perumahan,Perhimpunan Pengembang Perumahan,Rumah Plataran Sumba,"H6MR+VV8, Jl. Soeharto, Radamata, Kec. Kota Tambolaka, Kabupaten Sumba Barat Daya, Nusa Tenggara Tim. 87255","Jl. Soeharto, Radamata, Kec. Kota Tambolaka, Kabupaten Sumba Barat Daya",NUSA TENGGARA TIMUR,87255.0,Indonesia,8112641867.0,,,-9.4145928,119.2462001,https://maps.google.com/?cid=0x0:0x86eff4df461e93f8,
perumahan,Komplek perumahan,Arie Dangga,"Jl. Beringin No.171, Radamata, Kec. Kota Tambolaka, Kabupaten Sumba Barat Daya, Nusa Tenggara Tim. 87255","Radamata, Kec. Kota Tambolaka, Kabupaten Sumba Barat Daya",NUSA TENGGARA TIMUR,87255.0,Indonesia,,,,-9.416746,119.230686,https://maps.google.com/?cid=0x0:0x5d6f61af6b7a5db0,
perumahan,Komplek perumahan,Rumah bapak nova,"Jl. Bintang, Wee Tobula, Kec. Kota Tambolaka, Kabupaten Sumba Barat Daya, Nusa Tenggara Tim. 87255","Wee Tobula, Kec. Kota Tambolaka, Kabupaten Sumba Barat Daya",NUSA TENGGARA TIMUR,87255.0,Indonesia,,,,-9.4437916,119.2342699,https://maps.google.com/?cid=0x0:0xa2e3786afa853053,
perumahan,Toko Perlengkapan Rumah,MR.DIY Waitabula,"JL. Raya Waitabula, Langga Lero, Kec. Kota Tambolaka, Kabupaten Sumba Barat Daya, Nusa Tenggara Tim. 87255","Langga Lero, Kec. Kota Tambolaka, Kabupaten Sumba Barat Daya",NUSA TENGGARA TIMUR,87255.0,Indonesia,,,,-9.4416462,119.2317649,https://maps.google.com/?cid=0x0:0xee8a6b4f3884289c,
perumahan,Pusat Perbelanjaan,RUMAH AVAIL SUMBA (DAREEN HOUSE),"BTN Puri Cendana Jl.Cendana Gang III No.7, Radamata, Kec. Kota Tambolaka, Kabupaten Sumba Barat Daya, Nusa Tenggara Tim. 87255","Radamata, Kec. Kota Tambolaka, Kabupaten Sumba Barat Daya",NUSA TENGGARA TIMUR,87255.0,Indonesia,81238355557.0,,,-9.4050568,119.2531197,https://maps.google.com/?cid=0x0:0xf17d0643f47b4b86,
perumahan,perumahan,Kec. Loura,"Kabupaten Sumba Barat Daya, Nusa Tenggara Tim.","Kabupaten Sumba Barat Daya, Nusa Tenggara Tim.",NUSA TENGGARA TIMUR,,Indonesia,,,,-9.4214178,119.2970741,https://maps.google.com/?cid=0x0:0x49ebe3d33838ae6d,
perumahan,perumahan,"Dusun Langat, Desa Karuni, Loura","G8Q9+MF, Karuni, Kec. Loura, Kabupaten Sumba Barat Daya, Nusa Tenggara Tim.","Kabupaten Sumba Barat Daya, Nusa Tenggara Tim.",NUSA TENGGARA TIMUR,,Indonesia,,,,-9.4607545,119.3187128,https://maps.google.com/?cid=0x0:0x1a238235fba87ca8,
perumahan,Komplek perumahan,Kampung Weelaka,"H87M+XM, Lete Konda, Kec. Loura, Kabupaten Sumba Barat Daya, Nusa Tenggara Tim.","Kabupaten Sumba Barat Daya, Nusa Tenggara Tim.",NUSA TENGGARA TIMUR,,Indonesia,81216234369.0,,,-9.4347565,119.3345521,https://maps.google.com/?cid=0x0:0xe6132b4b932fbbae,
perumahan,Komplek perumahan,Katura,"H8RG+VG, Lete Konda, Kec. Loura, Kabupaten Sumba Barat Daya, Nusa Tenggara Tim.","Kabupaten Sumba Barat Daya, Nusa Tenggara Tim.",NUSA TENGGARA TIMUR,,Indonesia,,,,-9.4078339,119.3263369,https://maps.google.com/?cid=0x0:0x1fe6bd63fd871c18,
perumahan,Komplek perumahan,Kampung langat kabatana (bubulToro),"G8W9+8VR, Karuni, Kec. Loura, Kabupaten Sumba Barat Daya, Nusa Tenggara Tim.","Kabupaten Sumba Barat Daya, Nusa Tenggara Tim.",NUSA TENGGARA TIMUR,,Indonesia,,,,-9.4541365,119.319645,https://maps.google.com/?cid=0x0:0x6157746086f7cf50,
perumahan,Pembangunan Perumahan,Rumah IBU,"Jl. Weelaingo No.2, Wee Pangali, Kec. Loura, Kabupaten Sumba Barat Daya, Nusa Tenggara Tim. 87254","Wee Pangali, Kec. Loura, Kabupaten Sumba Barat Daya",NUSA TENGGARA TIMUR,87254.0,Indonesia,,,,-9.434501,119.249646,https://maps.google.com/?cid=0x0:0x2b6c838a0d57d0bb,
perumahan,Komplek perumahan,Totok,"G8P8+244, Totok, Kec. Loura, Kabupaten Sumba Barat Daya, Nusa Tenggara Tim.","Kabupaten Sumba Barat Daya, Nusa Tenggara Tim.",NUSA TENGGARA TIMUR,,Indonesia,,,,-9.4649983,119.3153177,https://maps.google.com/?cid=0x0:0xcec8ce42a67aa2b4,
perumahan,Komplek perumahan,Pastori 1 Karuni,"H8C7+4FR, Lete Konda, Kec. Loura, Kabupaten Sumba Barat Daya, Nusa Tenggara Tim.","Kabupaten Sumba Barat Daya, Nusa Tenggara Tim.",NUSA TENGGARA TIMUR,,Indonesia,,,,-9.4288409,119.3137912,https://maps.google.com/?cid=0x0:0x5683f58120f32917,
perumahan,Perhimpunan Pengembang Perumahan,Tana Kaka,"H7V7+3G2, Wee Pangali, Kec. Loura, Kabupaten Sumba Barat Daya, Nusa Tenggara Tim.","Kabupaten Sumba Barat Daya, Nusa Tenggara Tim.",NUSA TENGGARA TIMUR,,Indonesia,,,,-9.4073582,119.263751,https://maps.google.com/?cid=0x0:0x55071d7193e35c01,
perumahan,Komplek perumahan,SARA HOME,"J745+3WH, Pogotena, Kec. Loura, Kabupaten Sumba Barat Daya, Nusa Tenggara Tim.","Kabupaten Sumba Barat Daya, Nusa Tenggara Tim.",NUSA TENGGARA TIMUR,,Indonesia,,,,-9.3948153,119.2598587,https://maps.google.com/?cid=0x0:0x3e30945e57a293c6,
perumahan,Pembangunan Perumahan,Rumah Nadine,"H8GX+47, Bondo Boghila, Kec. Loura, Kabupaten Sumba Barat Daya, Nusa Tenggara Tim.","Kabupaten Sumba Barat Daya, Nusa Tenggara Tim.",NUSA TENGGARA TIMUR,,Indonesia,,,,-9.4246774,119.3482482,https://maps.google.com/?cid=0x0:0xe9bfd01f505cde81,
perumahan,Komplek perumahan,BTN Puri Cendana - Tambolaka,"H7W4+C23 BTN Tambolaka, Jalan Cendana, Radamata, Kec. Kota Tambolaka, Kabupaten Sumba Barat Daya, Nusa Tenggara Tim. 87254","Jalan Cendana, Radamata, Kec. Kota Tambolaka, Kabupaten Sumba Barat Daya",NUSA TENGGARA TIMUR,87254.0,Indonesia,81243525712.0,,,-9.4047483,119.252227,https://maps.google.com/?cid=0x0:0x31ea1a63da8c79c7,
perumahan,Komplek perumahan,Wanno Karedi,"H854+QJ5, Unnamed Road, Karuni, Kec. Loura, Kabupaten Sumba Barat Daya, Nusa Tenggara Tim.","Kabupaten Sumba Barat Daya, Nusa Tenggara Tim.",NUSA TENGGARA TIMUR,,Indonesia,,,,-9.4406249,119.306624,https://maps.google.com/?cid=0x0:0x4ec8ceb9a7ca66f9,
perumahan,Komplek perumahan,KOMBERS,"H8C3+F9P, Karuni, Kec. Loura, Kabupaten Sumba Barat Daya, Nusa Tenggara Tim.","Kabupaten Sumba Barat Daya, Nusa Tenggara Tim.",NUSA TENGGARA TIMUR,,Indonesia,,,,-9.42879,119.3034654,https://maps.google.com/?cid=0x0:0xeeeebf50769b97c,
perumahan,Komplek perumahan,Home stay MALO GADDI,"J74C+XQ, Ramma Dana, Kec. Loura, Kabupaten Sumba Barat Daya, Nusa Tenggara Tim.","Kabupaten Sumba Barat Daya, Nusa Tenggara Tim.",NUSA TENGGARA TIMUR,,Indonesia,,,,-9.39252,119.2719618,https://maps.google.com/?cid=0x0:0x65072337d83b846c,
perumahan,Komplek perumahan,Yuliana Lali Mone,"H7PG+7MF, Ramma Dana, Kec. Loura, Kabupaten Sumba Barat Daya, Nusa Tenggara Tim.","Kabupaten Sumba Barat Daya, Nusa Tenggara Tim.",NUSA TENGGARA TIMUR,,Indonesia,,,,-9.4143218,119.2766651,https://maps.google.com/?cid=0x0:0x3c84a49ceac47c41,
perumahan,Pembangunan Perumahan,sanchez ndori,"H7RG+5JH, Unnamed Road, Ramma Dana, Kec. Loura, Kabupaten Sumba Barat Daya, Nusa Tenggara Tim.","Kabupaten Sumba Barat Daya, Nusa Tenggara Tim.",NUSA TENGGARA TIMUR,,Indonesia,,,,-9.4095628,119.2766068,https://maps.google.com/?cid=0x0:0x731da38d7ee9b444,
perumahan,Pembangunan Perumahan,Ghunu Bobo,"H7PX+QH3, Ramma Dana, Kec. Loura, Kabupaten Sumba Barat Daya, Nusa Tenggara Tim.","Kabupaten Sumba Barat Daya, Nusa Tenggara Tim.",NUSA TENGGARA TIMUR,,Indonesia,,,,-9.4134747,119.2983226,https://maps.google.com/?cid=0x0:0x6cf312d156a80860,
perumahan,Komplek perumahan,Xilla Home,"H7HW+CRP, Ramma Dana, Kec. Loura, Kabupaten Sumba Barat Daya, Nusa Tenggara Tim.","Kabupaten Sumba Barat Daya, Nusa Tenggara Tim.",NUSA TENGGARA TIMUR,,Indonesia,,,,-9.4214178,119.2970741,https://maps.google.com/?cid=0x0:0x169bddbeb042d632,
perumahan,Komplek perumahan,Greon Home,"H69X+JC6, Kalena Wano, Kec. Loura, Kabupaten Sumba Barat Daya, Nusa Tenggara Tim.","Kabupaten Sumba Barat Daya, Nusa Tenggara Tim.",NUSA TENGGARA TIMUR,,Indonesia,,,,-9.430963,119.2485069,https://maps.google.com/?cid=0x0:0x83c6f5b5368571ad,
perumahan,Perhimpunan Pengembang Perumahan,Rumah Syair,"J89W+V8X, Lete Konda, Kec. Loura, Kabupaten Sumba Barat Daya, Nusa Tenggara Tim.","Kabupaten Sumba Barat Daya, Nusa Tenggara Tim.",NUSA TENGGARA TIMUR,,Indonesia,,,,-9.3802525,119.3458648,https://maps.google.com/?cid=0x0:0xc3aef01252ed7deb,
perumahan,Komplek perumahan,Pabadana,"Pabadana, Jalan pabadana No.12, Totok, Kec. Loura, Kabupaten Sumba Barat Daya, Nusa Tenggara Tim.","Kabupaten Sumba Barat Daya, Nusa Tenggara Tim.",NUSA TENGGARA TIMUR,,Indonesia,,,,-9.4802013,119.3018052,https://maps.google.com/?cid=0x0:0x619daa56a935c3ff,
perumahan,Komplek perumahan,Mario,"H7Q6+MVW, Wee Pangali, Kec. Loura, Kabupaten Sumba Barat Daya, Nusa Tenggara Tim.","Kabupaten Sumba Barat Daya, Nusa Tenggara Tim.",NUSA TENGGARA TIMUR,,Indonesia,,,,-9.4107734,119.2622181,https://maps.google.com/?cid=0x0:0x31d154aeb17d648a,
perumahan,perumahan,Nusa Tenggara Tim. 87253,"Raba Engge, Kec. Wewewa Bar., Kabupaten Sumba Barat Daya, Nusa Tenggara Tim.","Kabupaten Sumba Barat Daya, Nusa Tenggara Tim.",NUSA TENGGARA TIMUR,,Indonesia,,,,-9.5600081,119.2279835,https://maps.google.com/?cid=0x0:0x408cc62c8b3addfc,
perumahan,Komplek perumahan,Woorete,"C6QH+P4C, Raba Engge, Kec. Wewewa Bar., Kabupaten Sumba Barat Daya, Nusa Tenggara Tim.","Kabupaten Sumba Barat Daya, Nusa Tenggara Tim.",NUSA TENGGARA TIMUR,,Indonesia,,,,-9.5606783,119.227758,https://maps.google.com/?cid=0x0:0xf7250bc2740f7628,
perumahan,Rumah wisata,Kampung puu mawo,"Raba Engge, Kec. Wewewa Bar., Kabupaten Sumba Barat Daya, Nusa Tenggara Tim.","Kabupaten Sumba Barat Daya, Nusa Tenggara Tim.",NUSA TENGGARA TIMUR,,Indonesia,,,,-9.5595603,119.2281303,https://maps.google.com/?cid=0x0:0xcf6251120b078897,
perumahan,Bangunan Bersejarah,Kalangata,"F53Q+59H, Kalangata, Buru Deilo, Kabupaten Sumba Barat Daya, Nusa Tenggara Tim.","Kabupaten Sumba Barat Daya, Nusa Tenggara Tim.",NUSA TENGGARA TIMUR,,Indonesia,,,,-9.5470636,119.1884852,https://maps.google.com/?cid=0x0:0x2dbcbd5d9f86dba1,
perumahan,perumahan,Kec. Wewewa Sel.,"Kabupaten Sumba Barat Daya, Nusa Tenggara Tim.","Kabupaten Sumba Barat Daya, Nusa Tenggara Tim.",NUSA TENGGARA TIMUR,,Indonesia,,,,-9.5674808,119.2200814,https://maps.google.com/?cid=0x0:0x5dc8281eeb398606,
perumahan,Komplek perumahan,Kampung UMBU WARATA,"95FW+P4, Desa, Wee Wulla, Kec. Wewewa Sel., Kabupaten Sumba Barat Daya, Nusa Tenggara Tim.","Kabupaten Sumba Barat Daya, Nusa Tenggara Tim.",NUSA TENGGARA TIMUR,,Indonesia,,,,-9.6257817,119.1953272,https://maps.google.com/?cid=0x0:0xab5790e77da17a65,
perumahan,Komplek perumahan,Rumah S. D. NGARA,"9544+QQR, Denduka, Kec. Wewewa Sel., Kabupaten Sumba Barat Daya, Nusa Tenggara Tim.","Kabupaten Sumba Barat Daya, Nusa Tenggara Tim.",NUSA TENGGARA TIMUR,,Indonesia,,,,-9.644338,119.156902,https://maps.google.com/?cid=0x0:0x173f89335e79817e,
perumahan,Pembangunan Perumahan,Harun Ate,"C6M9+4VW, Tena Teke, Kec. Wewewa Sel., Kabupaten Sumba Barat Daya, Nusa Tenggara Tim.","Kabupaten Sumba Barat Daya, Nusa Tenggara Tim.",NUSA TENGGARA TIMUR,,Indonesia,,,,-9.5671077,119.2196507,https://maps.google.com/?cid=0x0:0x2bcf626ccdf58ed4,
perumahan,Perhimpunan Pengembang Perumahan,"Kambo, Delo, Wewewa Selatan","95QC+HV, Denduka, Kec. Wewewa Sel., Kabupaten Sumba Barat Daya, Nusa Tenggara Tim.","Kabupaten Sumba Barat Daya, Nusa Tenggara Tim.",NUSA TENGGARA TIMUR,,Indonesia,,,,-9.6110711,119.1721632,https://maps.google.com/?cid=0x0:0xc3a73a52707aafcf,
perumahan,Pembangunan Perumahan,Wee pakoda,"F538+3W8, Buru Deilo, Kec. Wewewa Sel., Kabupaten Sumba Barat Daya, Nusa Tenggara Tim.","Kabupaten Sumba Barat Daya, Nusa Tenggara Tim.",NUSA TENGGARA TIMUR,,Indonesia,,,,-9.5473498,119.1673255,https://maps.google.com/?cid=0x0:0x58cfe8beb4f59e73,
perumahan,Pembangunan Perumahan,Cuply,"C6PC+XC, Tena Teke, Kec. Wewewa Sel., Kabupaten Sumba Barat Daya, Nusa Tenggara Tim.","Kabupaten Sumba Barat Daya, Nusa Tenggara Tim.",NUSA TENGGARA TIMUR,,Indonesia,,,,-9.5625888,119.2210228,https://maps.google.com/?cid=0x0:0xb6cab19889f88f6,
perumahan,Komplek perumahan,Letegeloka Village,"C6MC+GFF, Tena Teke, Kec. Wewewa Sel., Kabupaten Sumba Barat Daya, Nusa Tenggara Tim.","Kabupaten Sumba Barat Daya, Nusa Tenggara Tim.",NUSA TENGGARA TIMUR,,Indonesia,,,,-9.5678503,119.2218344,https://maps.google.com/?cid=0x0:0x1831711777174e8a,
perumahan,Komplek perumahan,Bukit santai,"C69V+8WV, Raba Engge, Kec. Wewewa Bar., Kabupaten Sumba Barat Daya, Nusa Tenggara Tim.","Kabupaten Sumba Barat Daya, Nusa Tenggara Tim.",NUSA TENGGARA TIMUR,,Indonesia,,,,-9.582333,119.244004,https://maps.google.com/?cid=0x0:0x46026dde3cbf9509,
perumahan,Komplek perumahan,Ruly jr,"C6M5+QC4, Tena Teke, Kec. Wewewa Sel., Kabupaten Sumba Barat Daya, Nusa Tenggara Tim.","Kabupaten Sumba Barat Daya, Nusa Tenggara Tim.",NUSA TENGGARA TIMUR,,Indonesia,,,,-9.5656656,119.2100622,https://maps.google.com/?cid=0x0:0x929a184b0c6f18ba,
perumahan,Komplek perumahan,Kalewara,"C5PG+QPQ, Bondo Ukka, Kec. Wewewa Sel., Kabupaten Sumba Barat Daya, Nusa Tenggara Tim.","Kabupaten Sumba Barat Daya, Nusa Tenggara Tim.",NUSA TENGGARA TIMUR,,Indonesia,,,,-9.5630471,119.1768582,https://maps.google.com/?cid=0x0:0x569a51eca635ee9b,
perumahan,Komplek perumahan,Kampung Belakang,"C6M5+WM8, Tena Teke, Kec. Wewewa Sel., Kabupaten Sumba Barat Daya, Nusa Tenggara Tim.","Kabupaten Sumba Barat Daya, Nusa Tenggara Tim.",NUSA TENGGARA TIMUR,,Indonesia,,,,-9.565219,119.209201,https://maps.google.com/?cid=0x0:0xd1a661862fdc5459,
perumahan,Komplek perumahan,Watu kariki,"C5MW+VJQ, Tena Teke, Kec. Wewewa Sel., Kabupaten Sumba Barat Daya, Nusa Tenggara Tim.","Kabupaten Sumba Barat Daya, Nusa Tenggara Tim.",NUSA TENGGARA TIMUR,,Indonesia,,,,-9.5652834,119.1966092,https://maps.google.com/?cid=0x0:0x3a577e2b158f4154,
perumahan,Perhimpunan Pengembang Perumahan,Ana Milla,"F585+JRW, Kalembu Weri, Kec. Wewewa Sel., Kabupaten Sumba Barat Daya, Nusa Tenggara Tim.","Kabupaten Sumba Barat Daya, Nusa Tenggara Tim.",NUSA TENGGARA TIMUR,,Indonesia,,,,-9.5333956,119.1595853,https://maps.google.com/?cid=0x0:0xda7ebdfc8515cabd,
perumahan,Komplek perumahan,"Simpang weekaka,","C6JC+Q5M, Tena Teke, Kec. Wewewa Sel., Kabupaten Sumba Barat Daya, Nusa Tenggara Tim.","Kabupaten Sumba Barat Daya, Nusa Tenggara Tim.",NUSA TENGGARA TIMUR,,Indonesia,,,,-9.5680788,119.2204554,https://maps.google.com/?cid=0x0:0x557deddd752b7f7b,
perumahan,Pembangunan Perumahan,Martinus P. Lewu,"C6V8+3JG, Tena Teke, Kec. Wewewa Sel., Kabupaten Sumba Barat Daya, Nusa Tenggara Tim.","Kabupaten Sumba Barat Daya, Nusa Tenggara Tim.",NUSA TENGGARA TIMUR,,Indonesia,,,,-9.5573131,119.2165743,https://maps.google.com/?cid=0x0:0x8a2c85e1828ccc39,
perumahan,Komplek perumahan,Wanno muttu mandungo wewewa selatan SBD NTT,"C6P6+5V3 Anton Bani. Wanno muttu, Mandungo, Kec. Wewewa Sel., Kabupaten Sumba Barat Daya, Nusa Tenggara Tim.","Kabupaten Sumba Barat Daya, Nusa Tenggara Tim.",NUSA TENGGARA TIMUR,,Indonesia,,,,-9.5646219,119.2121674,https://maps.google.com/?cid=0x0:0xf25be446dcc79490,
perumahan,perumahan,Mateus berjaya,"C6V8+685, Tena Teke, Kec. Wewewa Sel., Kabupaten Sumba Barat Daya, Nusa Tenggara Tim.","Kabupaten Sumba Barat Daya, Nusa Tenggara Tim.",NUSA TENGGARA TIMUR,,Indonesia,,,,-9.5569781,119.2158653,https://maps.google.com/?cid=0x0:0x68358eaba8480eda,
perumahan,Area Mendaki,Kampung wanno kasa,"C69V+9W8, Raba Engge, Kec. Wewewa Bar., Kabupaten Sumba Barat Daya, Nusa Tenggara Tim.","Kabupaten Sumba Barat Daya, Nusa Tenggara Tim.",NUSA TENGGARA TIMUR,,Indonesia,,,,-9.5815803,119.2448135,https://maps.google.com/?cid=0x0:0xcc7b5823d0dddb7f,
perumahan,Komplek perumahan,RUMAH YOHANIS NGARA,"9544+QQR, Denduka, Kec. Wewewa Sel., Kabupaten Sumba Barat Daya, Nusa Tenggara Tim.","Kabupaten Sumba Barat Daya, Nusa Tenggara Tim.",NUSA TENGGARA TIMUR,,Indonesia,,,,-9.646044,119.158139,https://maps.google.com/?cid=0x0:0x21910e71f0eefd08,
perumahan,Komplek perumahan,Reda Wanno,"F539+7C6, Buru Deilo, Kec. Wewewa Sel., Kabupaten Sumba Barat Daya, Nusa Tenggara Tim.","Kabupaten Sumba Barat Daya, Nusa Tenggara Tim.",NUSA TENGGARA TIMUR,,Indonesia,81226930692.0,,,-9.5473898,119.1673078,https://maps.google.com/?cid=0x0:0x46e0c4e34373fc82,
perumahan,Komplek perumahan,Kabupaten SBD kecamatan wejewa selatan desa pero,"C6MC+224, Tena Teke, Kec. Wewewa Sel., Kabupaten Sumba Barat Daya, Nusa Tenggara Tim.","Kabupaten Sumba Barat Daya, Nusa Tenggara Tim.",NUSA TENGGARA TIMUR,,Indonesia,,,,-9.5674808,119.2200814,https://maps.google.com/?cid=0x0:0xf5d6c51e269900b0,
perumahan,Pembangunan Perumahan,Rara mata,"F542+X8P, Weri Lolo, Kec. Wewewa Sel., Kabupaten Sumba Barat Daya, Nusa Tenggara Tim.","Kabupaten Sumba Barat Daya, Nusa Tenggara Tim.",NUSA TENGGARA TIMUR,,Indonesia,,,,-9.5425422,119.1508343,https://maps.google.com/?cid=0x0:0xad240468792d57f2,
perumahan,perumahan,Kec. Wewewa Tengah,"Kabupaten Sumba Barat Daya, Nusa Tenggara Tim.","Kabupaten Sumba Barat Daya, Nusa Tenggara Tim.",NUSA TENGGARA TIMUR,,Indonesia,,,,-9.532605,119.2909927,https://maps.google.com/?cid=0x0:0x6f978c8d3fab9d28,
perumahan,perumahan,Kec. Wewewa Tim.,"Kabupaten Sumba Barat Daya, Nusa Tenggara Tim.","Kabupaten Sumba Barat Daya, Nusa Tenggara Tim.",NUSA TENGGARA TIMUR,,Indonesia,,,,-9.5922479,119.3511009,https://maps.google.com/?cid=0x0:0x69ead4906c239f2b,
perumahan,Pembangunan Perumahan,Widu Wada,"98P7+4R, Pada Ewata, Kec. Wewewa Tim., Kabupaten Sumba Barat Daya, Nusa Tenggara Tim.","Kabupaten Sumba Barat Daya, Nusa Tenggara Tim.",NUSA TENGGARA TIMUR,,Indonesia,,,,-9.6147001,119.3144289,https://maps.google.com/?cid=0x0:0x9c3b5140c00642b9,
perumahan,Komplek perumahan,Wunuta manggolo,"98W9+FR, Pada Ewata, Kec. Wewewa Tim., Kabupaten Sumba Barat Daya, Nusa Tenggara Tim.","Kabupaten Sumba Barat Daya, Nusa Tenggara Tim.",NUSA TENGGARA TIMUR,,Indonesia,,,,-9.603868,119.319621,https://maps.google.com/?cid=0x0:0x5e73fd460a0b7bcd,
perumahan,Komplek perumahan,Fe_cakesid//femakeup,"C8PQ+QPV, Weelimbu, Kec. Wewewa Tim., Kabupaten Sumba Barat Daya, Nusa Tenggara Tim.","Kabupaten Sumba Barat Daya, Nusa Tenggara Tim.",NUSA TENGGARA TIMUR,,Indonesia,,,,-9.5630187,119.3393098,https://maps.google.com/?cid=0x0:0xde6e0e4781a8a6ed,
perumahan,Komplek perumahan,Apakomina,"98F9+GXC, Pada Ewata, Kec. Wewewa Tim., Kabupaten Sumba Barat Daya, Nusa Tenggara Tim.","Kabupaten Sumba Barat Daya, Nusa Tenggara Tim.",NUSA TENGGARA TIMUR,,Indonesia,,,,-9.6261967,119.3198887,https://maps.google.com/?cid=0x0:0xba0384a70f834281,
perumahan,Komplek perumahan,Kampung erunaga,"C9F5+GR, Weelimbu, Kec. Wewewa Tim., Kabupaten Sumba Barat Daya, Nusa Tenggara Tim.","Kabupaten Sumba Barat Daya, Nusa Tenggara Tim.",NUSA TENGGARA TIMUR,,Indonesia,,,,-9.5762392,119.3595595,https://maps.google.com/?cid=0x0:0x2d0b4656b1259648,
perumahan,Perumahan,Rumah Lende Elo,"C8PR+MCV, Weelimbu, Kec. Wewewa Tim., Kabupaten Sumba Barat Daya, Nusa Tenggara Tim.","Kabupaten Sumba Barat Daya, Nusa Tenggara Tim.",NUSA TENGGARA TIMUR,,Indonesia,,,,-9.5632693,119.3410425,https://maps.google.com/?cid=0x0:0x5c03db14e041a31f,
perumahan,Komplek perumahan,PuuNaga,"C8WW+X4H, Letekamouna, Kec. Wewewa Tim., Kabupaten Sumba Barat Daya, Nusa Tenggara Tim.","Kabupaten Sumba Barat Daya, Nusa Tenggara Tim.",NUSA TENGGARA TIMUR,,Indonesia,,,,-9.5525594,119.3453611,https://maps.google.com/?cid=0x0:0x293fadc88921564f,
perumahan,Komplek perumahan,Rumah Bapa yahyah ngongo mada,"98PJ+XPP, Pada Ewata, Kec. Wewewa Tim., Kabupaten Sumba Barat Daya, Nusa Tenggara Tim.","Kabupaten Sumba Barat Daya, Nusa Tenggara Tim.",NUSA TENGGARA TIMUR,,Indonesia,,,,-9.612536,119.3318152,https://maps.google.com/?cid=0x0:0xe4567c3be8ef85dd,
perumahan,Komplek perumahan,Mama Solvi Letewurruna,"Jl. Ahmad Yani No.Desa, Dede Pada, Kec. Wewewa Tim., Kabupaten Sumba Barat Daya, Nusa Tenggara Tim.","Kabupaten Sumba Barat Daya, Nusa Tenggara Tim.",NUSA TENGGARA TIMUR,,Indonesia,,,,-9.6013885,119.3611018,https://maps.google.com/?cid=0x0:0x66f05b3170bf9af3,
perumahan,,Sumba barat daya,"C8J8+CRX, Jl. Raya Elopada, Kalembu Ndara Mane, Kec. Wewewa Tim., Kabupaten Sumba Barat Daya, Nusa Tenggara Tim.","Kabupaten Sumba Barat Daya, Nusa Tenggara Tim.",NUSA TENGGARA TIMUR,,Indonesia,,,,-9.5688765,119.3171178,https://maps.google.com/?cid=0x0:0x7254d55c96897af0,
perumahan,Komplek perumahan,Rumah Robert tulandi,"C89G+HQG, Kalembu Ndara Mane, Kec. Wewewa Tim., Kabupaten Sumba Barat Daya, Nusa Tenggara Tim.","Kabupaten Sumba Barat Daya, Nusa Tenggara Tim.",NUSA TENGGARA TIMUR,,Indonesia,,,,-9.5804184,119.3276558,https://maps.google.com/?cid=0x0:0x30caccd2e88d163c,
perumahan,Komplek perumahan,Qyua Manis,"98MM+WWG, Pada Ewata, Kec. Wewewa Tim., Kabupaten Sumba Barat Daya, Nusa Tenggara Tim.","Kabupaten Sumba Barat Daya, Nusa Tenggara Tim.",NUSA TENGGARA TIMUR,,Indonesia,,,,-9.6151757,119.334838,https://maps.google.com/?cid=0x0:0x2e50560428258c87,
perumahan,Komplek perumahan,Antara kade,"C8MR+PFG, Natarakade, Desa Weekimbu, Kec. Wewewa Tim., Kabupaten Sumba Barat Daya, Nusa Tenggara Tim.","Kabupaten Sumba Barat Daya, Nusa Tenggara Tim.",NUSA TENGGARA TIMUR,,Indonesia,,,,-9.5656985,119.3412143,https://maps.google.com/?cid=0x0:0x6daf8eaaa3463df2,
perumahan,Pembangunan Perumahan,Umma kakkara,"C875+CMR, maliti ndari, Kec. Wewewa Tim., Kabupaten Sumba Barat Daya, Nusa Tenggara Tim.","Kabupaten Sumba Barat Daya, Nusa Tenggara Tim.",NUSA TENGGARA TIMUR,,Indonesia,,,,-9.5863849,119.309148,https://maps.google.com/?cid=0x0:0xaa3af8f46d2fbb17,
perumahan,Komplek perumahan,Kampung Wanno Ege,"C8WQ+FX5, Unnamed Road, Letekamouna, Kec. Wewewa Tim., Kabupaten Sumba Barat Daya, Nusa Tenggara Tim.","Kabupaten Sumba Barat Daya, Nusa Tenggara Tim.",NUSA TENGGARA TIMUR,,Indonesia,,,,-9.5538526,119.3399981,https://maps.google.com/?cid=0x0:0x60cae21cfc900113,
perumahan,Komplek perumahan,LOLO WINNO,"C876+9Q, Eka Pata, Kec. Wewewa Tengah, Kabupaten Sumba Barat Daya, Nusa Tenggara Tim.","Kabupaten Sumba Barat Daya, Nusa Tenggara Tim.",NUSA TENGGARA TIMUR,,Indonesia,,,,-9.5865889,119.3118945,https://maps.google.com/?cid=0x0:0xfea85ab019bde777,
perumahan,Komplek perumahan,Ngamba Deta,"C8QM+JP4, Weelimbu, Kec. Wewewa Tim., Kabupaten Sumba Barat Daya, Nusa Tenggara Tim.","Kabupaten Sumba Barat Daya, Nusa Tenggara Tim.",NUSA TENGGARA TIMUR,,Indonesia,82146016813.0,,,-9.5609772,119.3343307,https://maps.google.com/?cid=0x0:0xec9032a2b3e3c812,
perumahan,perumahan,Kanurru Yosua Home,"C9M2+6FF, Weelimbu, Kec. Wewewa Tim., Kabupaten Sumba Barat Daya, Nusa Tenggara Tim.","Kabupaten Sumba Barat Daya, Nusa Tenggara Tim.",NUSA TENGGARA TIMUR,,Indonesia,,,,-9.5669265,119.3511681,https://maps.google.com/?cid=0x0:0x2efae3d0a837bb0d,
perumahan,Gedung Apartemen,KAMPUNG WUNUTA,"C875+CM4, Eka Pata, Kec. Wewewa Tengah, Kabupaten Sumba Barat Daya, Nusa Tenggara Tim.","Kabupaten Sumba Barat Daya, Nusa Tenggara Tim.",NUSA TENGGARA TIMUR,,Indonesia,,,,-9.5864919,119.309198,https://maps.google.com/?cid=0x0:0x46494c7b4d018eb9,
perumahan,Perhimpunan Pengembang Perumahan,Limbu Watu,"F7FM+4XX, Jl. Ahmad Yani, Lombu, Kec. Wewewa Tim., Kabupaten Sumba Barat Daya, Nusa Tenggara Tim.","Kabupaten Sumba Barat Daya, Nusa Tenggara Tim.",NUSA TENGGARA TIMUR,,Indonesia,,,,-9.5271472,119.2849696,https://maps.google.com/?cid=0x0:0x120bfec31c05822,
perumahan,Pembangunan Perumahan,Kampung Kadobepa,"98JW+QC, Tema Tana, Kec. Wewewa Tim., Kabupaten Sumba Barat Daya, Nusa Tenggara Tim.","Kabupaten Sumba Barat Daya, Nusa Tenggara Tim.",NUSA TENGGARA TIMUR,,Indonesia,,,,-9.618061,119.346048,https://maps.google.com/?cid=0x0:0x51a8ba652cf0740e,
perumahan,Komplek perumahan,Umma kalada,"C9PM+RQM, Unnamed Road, Wee Lima, Kec. Wewewa Tim., Kabupaten Sumba Barat Daya, Nusa Tenggara Tim.","Kabupaten Sumba Barat Daya, Nusa Tenggara Tim.",NUSA TENGGARA TIMUR,,Indonesia,,,,-9.5629029,119.3844106,https://maps.google.com/?cid=0x0:0x8657873eb70edc26,
perumahan,Komplek perumahan,Erick Wunda,"C8G7+X9H, Kalembu Ndara Mane, Kec. Wewewa Tim., Kabupaten Sumba Barat Daya, Nusa Tenggara Tim.","Kabupaten Sumba Barat Daya, Nusa Tenggara Tim.",NUSA TENGGARA TIMUR,,Indonesia,,,,-9.5725513,119.3134865,https://maps.google.com/?cid=0x0:0xa9e464361db60648,
perumahan,Pembangunan Perumahan,Wiwi,"C87R+5RF, Jl. Ahmad Yani, Tema Tana, Kec. Wewewa Tim., Kabupaten Sumba Barat Daya, Nusa Tenggara Tim.","Kabupaten Sumba Barat Daya, Nusa Tenggara Tim.",NUSA TENGGARA TIMUR,,Indonesia,,,,-9.5871275,119.34193,https://maps.google.com/?cid=0x0:0x3c326e4a33319c50,
perumahan,Komplek perumahan,Qua,"98MM+WWG, Pada Ewata, Kec. Wewewa Tim., Kabupaten Sumba Barat Daya, Nusa Tenggara Tim.","Kabupaten Sumba Barat Daya, Nusa Tenggara Tim.",NUSA TENGGARA TIMUR,,Indonesia,,,,-9.6151703,119.3348502,https://maps.google.com/?cid=0x0:0x8c90777d4ccbecb3,
perumahan,perumahan,Kec. Wewewa Utara,"Kabupaten Sumba Barat Daya, Nusa Tenggara Tim.","Kabupaten Sumba Barat Daya, Nusa Tenggara Tim.",NUSA TENGGARA TIMUR,,Indonesia,,,,-9.5267607,119.3539572,https://maps.google.com/?cid=0x0:0xe58277af67096a5b,
perumahan,Perhimpunan Pengembang Perumahan,WEEKAREDI,"F9C6+W24, Wee Paboba, Kec. Wewewa Utara, Kabupaten Sumba Barat Daya, Nusa Tenggara Tim.","Kabupaten Sumba Barat Daya, Nusa Tenggara Tim.",NUSA TENGGARA TIMUR,,Indonesia,,,,-9.5277254,119.3600732,https://maps.google.com/?cid=0x0:0x8e1ed2b7fc3ded16,
perumahan,Komplek perumahan,Kampung Bondowunuta,"F86Q+HX4, Bolora, Kec. Wewewa Utara, Kabupaten Sumba Barat Daya, Nusa Tenggara Tim.","Kabupaten Sumba Barat Daya, Nusa Tenggara Tim.",NUSA TENGGARA TIMUR,,Indonesia,,,,-9.5386054,119.3399477,https://maps.google.com/?cid=0x0:0x79c38c5b977cab6d,
perumahan,Komplek perumahan,Wee Rede Bodo,"F9F3+7HR Desa Odi Paurata, Wee Paboba, Kec. Wewewa Utara, Kabupaten Sumba Barat Daya, Nusa Tenggara Tim.","Kabupaten Sumba Barat Daya, Nusa Tenggara Tim.",NUSA TENGGARA TIMUR,,Indonesia,,,,-9.5267666,119.3538786,https://maps.google.com/?cid=0x0:0xe12cc612e5714b8c,
perumahan,Perhimpunan Pengembang Perumahan,Mikkah,"F97V+VF, Wano Talla, Kec. Wewewa Utara, Kabupaten Sumba Barat Daya, Nusa Tenggara Tim.","Kabupaten Sumba Barat Daya, Nusa Tenggara Tim.",NUSA TENGGARA TIMUR,,Indonesia,,,,-9.5353116,119.3937032,https://maps.google.com/?cid=0x0:0x67f4f8391136b60e,
perumahan,Komplek perumahan,Tarakaruni-puukawona,"F9R9+P94, Wee Paboba, Kec. Wewewa Utara, Kabupaten Sumba Barat Daya, Nusa Tenggara Tim.","Kabupaten Sumba Barat Daya, Nusa Tenggara Tim.",NUSA TENGGARA TIMUR,,Indonesia,,,,-9.5082275,119.3684516,https://maps.google.com/?cid=0x0:0x2923c1a36a0794f4,
perumahan,Komplek perumahan,Kalembu maliti,"F8FM+5VP, Puu Potto, Kec. Wewewa Utara, Kabupaten Sumba Barat Daya, Nusa Tenggara Tim.","Kabupaten Sumba Barat Daya, Nusa Tenggara Tim.",NUSA TENGGARA TIMUR,,Indonesia,,,,-9.5270457,119.3347125,https://maps.google.com/?cid=0x0:0x6e720ebae987e1e2,
perumahan,Komplek perumahan,Geleta,"F9HG+3WF, Mali Mada, Kec. Wewewa Utara, Kabupaten Sumba Barat Daya, Nusa Tenggara Tim.","Kabupaten Sumba Barat Daya, Nusa Tenggara Tim.",NUSA TENGGARA TIMUR,,Indonesia,,,,-9.5223148,119.3772969,https://maps.google.com/?cid=0x0:0xd36d61ec19654747,
perumahan,Komplek perumahan,Puu kadelu,"F8RR+J68, Wee Namba, Kec. Wewewa Utara, Kabupaten Sumba Barat Daya, Nusa Tenggara Tim.","Kabupaten Sumba Barat Daya, Nusa Tenggara Tim.",NUSA TENGGARA TIMUR,,Indonesia,,,,-9.5084699,119.3405889,https://maps.google.com/?cid=0x0:0xd32b0599e7cb166a,
perumahan,Komplek perumahan,Puumaliti,"F9C5+876, Wee Paboba, Kec. Wewewa Utara, Kabupaten Sumba Barat Daya, Nusa Tenggara Tim.","Kabupaten Sumba Barat Daya, Nusa Tenggara Tim.",NUSA TENGGARA TIMUR,,Indonesia,,,,-9.5292015,119.3581495,https://maps.google.com/?cid=0x0:0x5d472eb2e4c3bf8,
perumahan,Komplek perumahan,Kampung kajelu,"F8JM+FJ, Puu Potto, Kec. Wewewa Utara, Kabupaten Sumba Barat Daya, Nusa Tenggara Tim.","Kabupaten Sumba Barat Daya, Nusa Tenggara Tim.",NUSA TENGGARA TIMUR,,Indonesia,,,,-9.518846,119.3341017,https://maps.google.com/?cid=0x0:0x7f8ae9827cc4d3f0,
perumahan,Komplek perumahan,PuuNaga,"C8WW+X4H, Letekamouna, Kec. Wewewa Tim., Kabupaten Sumba Barat Daya, Nusa Tenggara Tim.","Kabupaten Sumba Barat Daya, Nusa Tenggara Tim.",NUSA TENGGARA TIMUR,,Indonesia,,,,-9.5525594,119.3453611,https://maps.google.com/?cid=0x0:0x293fadc88921564f,
perumahan,Perhimpunan Pengembang Perumahan,Kampung puu maladi,"F982+45M Puu maladi desa puu, poto, Kec. Wewewa Utara, Kabupaten Sumba Barat Daya, Nusa Tenggara Tim.","Kabupaten Sumba Barat Daya, Nusa Tenggara Tim.",NUSA TENGGARA TIMUR,,Indonesia,85239098876.0,,,-9.5346585,119.3504208,https://maps.google.com/?cid=0x0:0x384c386c18d2fe,
perumahan,Vila,KANGALI TANAH,"F9F3+7HR, KANGALI TANAH,DESA, BODO, PONDA, Kec. Wewewa Utara, Kabupaten Sumba Barat Daya, Nusa Tenggara Tim.","Kabupaten Sumba Barat Daya, Nusa Tenggara Tim.",NUSA TENGGARA TIMUR,,Indonesia,,,,-9.5267666,119.3538786,https://maps.google.com/?cid=0x0:0x4c55a77f3a8d82d5,
perumahan,Komplek perumahan,Kampung Bodo Komi,"F9W2+MXH, Odipaurata, Kec. Wewewa Utara, Kabupaten Sumba Barat Daya, Nusa Tenggara Tim.","Kabupaten Sumba Barat Daya, Nusa Tenggara Tim.",NUSA TENGGARA TIMUR,,Indonesia,,,,-9.5032972,119.3524783,https://maps.google.com/?cid=0x0:0x14af8835b83cb7d0,
perumahan,Perhimpunan Pengembang Perumahan,Wanno muttu,"F9R6+V3R, Wee Paboba, Kec. Wewewa Utara, Kabupaten Sumba Barat Daya, Nusa Tenggara Tim.","Kabupaten Sumba Barat Daya, Nusa Tenggara Tim.",NUSA TENGGARA TIMUR,,Indonesia,,,,-9.5077662,119.3601425,https://maps.google.com/?cid=0x0:0xa1355813bb35b5aa,
perumahan,Komplek perumahan,Kalimbu Ode,"F89Q+M5, Puu Potto, Kec. Wewewa Utara, Kabupaten Sumba Barat Daya, Nusa Tenggara Tim.","Kabupaten Sumba Barat Daya, Nusa Tenggara Tim.",NUSA TENGGARA TIMUR,,Indonesia,,,,-9.5307814,119.3379078,https://maps.google.com/?cid=0x0:0x915bf82f5958595,
perumahan,Komplek perumahan,Simpang Tiga,"F9F3+7HR, Jln lalo boraka, Kec. Wewewa Utara, Kabupaten Sumba Barat Daya, Nusa Tenggara Tim.","Kabupaten Sumba Barat Daya, Nusa Tenggara Tim.",NUSA TENGGARA TIMUR,,Indonesia,,,,-9.5267666,119.3538786,https://maps.google.com/?cid=0x0:0xcdc88002680b8d32,
perumahan,Perhimpunan Pengembang Perumahan,Kampung Wano Pero,"F979+C8, Wano Talla, Kec. Wewewa Utara, Kabupaten Sumba Barat Daya, Nusa Tenggara Tim.","Kabupaten Sumba Barat Daya, Nusa Tenggara Tim.",NUSA TENGGARA TIMUR,,Indonesia,,,,-9.5364262,119.3683451,https://maps.google.com/?cid=0x0:0xef37dc4ff7a6423b,
perumahan,Komplek perumahan,Wanno Wara,"G922+FQ6 Odi, Paurata, Wewewa Utara, Southwest Sumba Regency, East Nusa Tenggara","Kabupaten Sumba Barat Daya, Nusa Tenggara Tim.",NUSA TENGGARA TIMUR,,Indonesia,,,,-9.4988292,119.3518985,https://maps.google.com/?cid=0x0:0xa794932223d0503e,
perumahan,Gereja Kristen,Komunitas susteran Salesian -FMA Palla,"F9F2+6VH, Puu Potto, Kec. Wewewa Utara, Kabupaten Sumba Barat Daya, Nusa Tenggara Tim.","Kabupaten Sumba Barat Daya, Nusa Tenggara Tim.",NUSA TENGGARA TIMUR,,Indonesia,81278124467.0,,,-9.526926,119.3522398,https://maps.google.com/?cid=0x0:0x4c788d0b980b5e1d,
perumahan,Komplek perumahan,Kampung Kodora,"F9W2+MXH, Odipaurata, Kec. Wewewa Utara, Kabupaten Sumba Barat Daya, Nusa Tenggara Tim.","Kabupaten Sumba Barat Daya, Nusa Tenggara Tim.",NUSA TENGGARA TIMUR,,Indonesia,,,,-9.5032964,119.3524792,https://maps.google.com/?cid=0x0:0x1c643460047566a8,
perumahan,Komplek perumahan,Kampung panggata,"F9W8+H7M, Wee Paboba, Kec. Wewewa Utara, Kabupaten Sumba Barat Daya, Nusa Tenggara Tim.","Kabupaten Sumba Barat Daya, Nusa Tenggara Tim.",NUSA TENGGARA TIMUR,,Indonesia,,,,-9.5035274,119.3656846,https://maps.google.com/?cid=0x0:0x943cf218ad4babd3,
