Category,Real Category,Business Name,Address,City,State,Postal Code,Country,Phone,Email,Website,Latitude,Longitude,Map Link,Details Link
hotel,hotel,Kec. Sabu Bar.,"Kabupaten Sabu Raijua, Nusa Tenggara Tim.","Kabupaten Sabu Raijua, Nusa Tenggara Tim.",NUSA TENGGARA TIMUR,,Indonesia,,,,-10.4996566,121.8400338,https://maps.google.com/?cid=0x0:0xa5c2c568f439a950,
hotel,Pondok,Mana Home Stay,"FRXR+V4X, Jl. Simpang Tiga Tenihawu, Mebba, Kec. Sabu Bar., Kabupaten Sabu Raijua, Nusa Tenggara Tim.","Kabupaten Sabu Raijua, Nusa Tenggara Tim.",NUSA TENGGARA TIMUR,,Indonesia,82145266407.0,,,-10.5002629,121.8403467,https://maps.google.com/?cid=0x0:0x3ed918cda4bb4fc9,
hotel,Hotel,Penginapan Komang,"RT.2/RW.3, Menia, Kec. Sabu Bar., Kabupaten Sabu Raijua, Nusa Tenggara Tim.","Kabupaten Sabu Raijua, Nusa Tenggara Tim.",NUSA TENGGARA TIMUR,,Indonesia,81266655755.0,,,-10.4594207,121.8680429,https://maps.google.com/?cid=0x0:0x45249e6fdb96d379,
hotel,Pondok,Penginapan Maryo - Sabu Seba,"GR4Q+9P4, Mebba, Kec. Sabu Bar., Kabupaten Sabu Raijua, Nusa Tenggara Tim.","Kabupaten Sabu Raijua, Nusa Tenggara Tim.",NUSA TENGGARA TIMUR,,Indonesia,,,,-10.4941174,121.8393404,https://maps.google.com/?cid=0x0:0x7d59780c0e452657,
hotel,Motel,Elsa Homestay,"GRPX+VWV, Raemadia, Kec. Sabu Bar., Kabupaten Sabu Raijua, Nusa Tenggara Tim.","Kabupaten Sabu Raijua, Nusa Tenggara Tim.",NUSA TENGGARA TIMUR,,Indonesia,81337242665.0,,,-10.4627704,121.8498044,https://maps.google.com/?cid=0x0:0x6128543384e00671,
hotel,Hotel,Penginapan Abdullah,"Jl. Masjid An'Nur Seba No.Depan, Mebba, Kec. Sabu Bar., Kabupaten Sabu Raijua, Nusa Tenggara Tim.","Kabupaten Sabu Raijua, Nusa Tenggara Tim.",NUSA TENGGARA TIMUR,,Indonesia,,,,-10.4935094,121.8396694,https://maps.google.com/?cid=0x0:0xc12533b0676894ce,
hotel,Penginapan,Jessica Hotel Sabu Raijua,"Mebba, Kec. Sabu Bar., Kabupaten Sabu Raijua, Nusa Tenggara Tim.","Kabupaten Sabu Raijua, Nusa Tenggara Tim.",NUSA TENGGARA TIMUR,,Indonesia,82146462942.0,,,-10.492037,121.8469376,https://maps.google.com/?cid=0x0:0x9577cfbf15d997e3,
hotel,Pondok,Kaleb Djo Hotel,"GVR9+GWR, Menia, Kec. Sabu Bar., Kabupaten Sabu Raijua, Nusa Tenggara Tim.","Kabupaten Sabu Raijua, Nusa Tenggara Tim.",NUSA TENGGARA TIMUR,,Indonesia,,,,-10.458642,121.8697771,https://maps.google.com/?cid=0x0:0x2491cac09c08188f,
hotel,Komplek perumahan,Ronal Netu,"FRWV+QHF, Raeloro, Kec. Sabu Bar., Kabupaten Sabu Raijua, Nusa Tenggara Tim.","Kabupaten Sabu Raijua, Nusa Tenggara Tim.",NUSA TENGGARA TIMUR,,Indonesia,,,,-10.5034786,121.8434939,https://maps.google.com/?cid=0x0:0x137d9384ff5e796c,
hotel,Hotel,YanoLulu,"FQ55+X9H, Daieko, Kec. Hawu Mehara, Kabupaten Sabu Raijua, Nusa Tenggara Tim.","Kabupaten Sabu Raijua, Nusa Tenggara Tim.",NUSA TENGGARA TIMUR,,Indonesia,,,,-10.5400606,121.758492,https://maps.google.com/?cid=0x0:0x4342e26db4f38f9,
hotel,Kantor Pemerintah,Polres,"GVWH+V7R, Menia, Kec. Sabu Bar., Kabupaten Sabu Raijua, Nusa Tenggara Tim.","Kabupaten Sabu Raijua, Nusa Tenggara Tim.",NUSA TENGGARA TIMUR,,Indonesia,,,,-10.4527627,121.8781312,https://maps.google.com/?cid=0x0:0xa7a90597b076d363,
hotel,Pondok,Apryano(om ape),"GVPC+V5C, Menia, Kec. Sabu Bar., Kabupaten Sabu Raijua, Nusa Tenggara Tim.","Kabupaten Sabu Raijua, Nusa Tenggara Tim.",NUSA TENGGARA TIMUR,,Indonesia,81339390526.0,,,-10.4625208,121.8704558,https://maps.google.com/?cid=0x0:0x2e902682a991ed91,
hotel,Hotel,Ribka Manu Hunga,"GVVH+FVR, Menia, Kec. Sabu Bar., Kabupaten Sabu Raijua, Nusa Tenggara Tim.","Kabupaten Sabu Raijua, Nusa Tenggara Tim.",NUSA TENGGARA TIMUR,,Indonesia,,,,-10.4562719,121.8796537,https://maps.google.com/?cid=0x0:0xb465e8fd580268a9,
hotel,Hotel,purnama homestay,"GR3R+6JX, Mebba, Kec. Sabu Bar., Kabupaten Sabu Raijua, Nusa Tenggara Tim.","Kabupaten Sabu Raijua, Nusa Tenggara Tim.",NUSA TENGGARA TIMUR,,Indonesia,,,,-10.496895,121.8416049,https://maps.google.com/?cid=0x0:0x665fb0fe7a0f43d4,
hotel,Hotel,MIRALA INDEKOS,"FVJ2+H8P, Unnamed Road, Raenyale, Kec. Sabu Bar., Kabupaten Sabu Raijua, Nusa Tenggara Tim.","Kabupaten Sabu Raijua, Nusa Tenggara Tim.",NUSA TENGGARA TIMUR,,Indonesia,,,,-10.518546,121.8508351,https://maps.google.com/?cid=0x0:0x491540b61f92f8f6,
hotel,Hotel,Rumah dara djami,"FRGC+9H4, Ledeana, Kec. Sabu Bar., Kabupaten Sabu Raijua, Nusa Tenggara Tim.","Kabupaten Sabu Raijua, Nusa Tenggara Tim.",NUSA TENGGARA TIMUR,,Indonesia,82148043473.0,,,-10.5241004,121.8214425,https://maps.google.com/?cid=0x0:0x8df8bdc0674fad4a,
hotel,Rumah wisata,HomeStay Rizky dan Kos,"Radio musafir voice, Menia, Kec. Sabu Bar., Kabupaten Sabu Raijua, Nusa Tenggara Tim. 85395","Menia, Kec. Sabu Bar., Kabupaten Sabu Raijua",NUSA TENGGARA TIMUR,85395.0,Indonesia,81295851116.0,,,-10.4581196,121.8785398,https://maps.google.com/?cid=0x0:0xd6c845c7848cb86e,
hotel,Pondok,Anton bala lewar,"GR9V+RM5, Raemadia, Kec. Sabu Bar., Kabupaten Sabu Raijua, Nusa Tenggara Tim.","Kabupaten Sabu Raijua, Nusa Tenggara Tim.",NUSA TENGGARA TIMUR,,Indonesia,,,,-10.4804845,121.8442428,https://maps.google.com/?cid=0x0:0x5ebb6f0d5a72746b,
hotel,Motel,Hotel,"GWFQ+WVQ, Eimmadake, Kec. Sabu Tengah, Kabupaten Sabu Raijua, Nusa Tenggara Tim.","Kabupaten Sabu Raijua, Nusa Tenggara Tim.",NUSA TENGGARA TIMUR,,Indonesia,,,,-10.4751623,121.9397439,https://maps.google.com/?cid=0x0:0x6966e016af5091ed,
hotel,Hotel,Herman Hina Homestay,"9QWM+9XX, Wadumeddi, Kec. Hawu Mehara, Kabupaten Sabu Raijua, Nusa Tenggara Tim.","Kabupaten Sabu Raijua, Nusa Tenggara Tim.",NUSA TENGGARA TIMUR,,Indonesia,,,,-10.6040042,121.7849808,https://maps.google.com/?cid=0x0:0xcc907b8747261ce8,
hotel,Hotel,Masto,"FR85+34Q, Ledekepaka, Kec. Sabu Bar., Kabupaten Sabu Raijua, Nusa Tenggara Tim.","Kabupaten Sabu Raijua, Nusa Tenggara Tim.",NUSA TENGGARA TIMUR,,Indonesia,,,,-10.5347897,121.8078603,https://maps.google.com/?cid=0x0:0xeaffc6136e470e06,
hotel,Hotel,Ledekpaka,"CRWM+995, Depe, Kec. Sabu Bar., Kabupaten Sabu Raijua, Nusa Tenggara Tim.","Kabupaten Sabu Raijua, Nusa Tenggara Tim.",NUSA TENGGARA TIMUR,,Indonesia,,,,-10.5541116,121.8334868,https://maps.google.com/?cid=0x0:0xb9bc5528552eeab3,
hotel,Hotel,PE DINA,"CRWM+995, Depe, Kec. Sabu Bar., Kabupaten Sabu Raijua, Nusa Tenggara Tim.","Kabupaten Sabu Raijua, Nusa Tenggara Tim.",NUSA TENGGARA TIMUR,,Indonesia,,,,-10.5541116,121.8334868,https://maps.google.com/?cid=0x0:0x8ebcdfae771c8769,
hotel,Pondok,Mana Home Stay,"FRXR+V4X, Jl. Simpang Tiga Tenihawu, Mebba, Kec. Sabu Bar., Kabupaten Sabu Raijua, Nusa Tenggara Tim.","Kabupaten Sabu Raijua, Nusa Tenggara Tim.",NUSA TENGGARA TIMUR,,Indonesia,82145266407.0,,,-10.5002629,121.8403467,https://maps.google.com/?cid=0x0:0x3ed918cda4bb4fc9,
hotel,hotel,Nusa Tenggara Tim.,,Nusa Tenggara Tim.,NUSA TENGGARA TIMUR,,Indonesia,,,,-8.6573819,121.0793705,https://maps.google.com/?cid=0x0:0x1030bfbcaf71ae0,
hotel,Hotel,Penginapan Komang,"RT.2/RW.3, Menia, Kec. Sabu Bar., Kabupaten Sabu Raijua, Nusa Tenggara Tim.","Kabupaten Sabu Raijua, Nusa Tenggara Tim.",NUSA TENGGARA TIMUR,,Indonesia,81266655755.0,,,-10.4594207,121.8680429,https://maps.google.com/?cid=0x0:0x45249e6fdb96d379,
hotel,Pondok,Penginapan Maryo - Sabu Seba,"GR4Q+9P4, Mebba, Kec. Sabu Bar., Kabupaten Sabu Raijua, Nusa Tenggara Tim.","Kabupaten Sabu Raijua, Nusa Tenggara Tim.",NUSA TENGGARA TIMUR,,Indonesia,,,,-10.4941174,121.8393404,https://maps.google.com/?cid=0x0:0x7d59780c0e452657,
hotel,hotel,Hotel Blessing Soe - TTS,"47P4+C6R, Jl. Gajah Mada, Kesetnana, Kec. Mollo Sel., Kabupaten Timor Tengah Selatan, Nusa Tenggara Tim.","Kabupaten Timor Tengah Selatan, Nusa Tenggara Tim.",NUSA TENGGARA TIMUR,,Indonesia,81339464302.0,,,-9.8658108,124.2575077,https://maps.google.com/?cid=0x0:0x6039dbe1215add4d,
hotel,hotel,Hotel Bahagia 2,"Jl. Gajah Mada - Soe Kobelete Soe, Karang Siri, Soe City, South Timor Tengah Regency, East Nusa Tenggara","Kabupaten Timor Tengah Selatan, Nusa Tenggara Tim.",NUSA TENGGARA TIMUR,,Indonesia,85166901408.0,,,-9.8592831,124.2619239,https://maps.google.com/?cid=0x0:0xe97134d4bdaa8b7e,
hotel,hotel,Hotel Gajah Mada (tidak bekerja sama dengan OYO maupun agen lainnya),"Jl. Gajah Mada No.7500, Karang Siri, Kec. Kota Soe, Kabupaten Timor Tengah Selatan, Nusa Tenggara Tim.","Kabupaten Timor Tengah Selatan, Nusa Tenggara Tim.",NUSA TENGGARA TIMUR,,Indonesia,,,,-9.8603454,124.2706054,https://maps.google.com/?cid=0x0:0x639813356c689b0a,
hotel,hotel,Timor Megah Hotel,"47R9+JJX, Jl. Gajah Mada No.56, Karang Siri, Kec. Kota Soe, Kabupaten Timor Tengah Selatan, Nusa Tenggara Tim. 85511","Jl. Gajah Mada No.56, Karang Siri, Kec. Kota Soe, Kabupaten Timor Tengah Selatan",NUSA TENGGARA TIMUR,85511.0,Indonesia,85253015444.0,,,-9.8593808,124.2691554,https://maps.google.com/?cid=0x0:0x700ff5c8483cba0c,
hotel,hotel,Hotel Sejati,"Jl. Gajah Mada No.18, Karang Siri, Kec. Kota Soe, Kabupaten Timor Tengah Selatan, Nusa Tenggara Tim.","Kabupaten Timor Tengah Selatan, Nusa Tenggara Tim.",NUSA TENGGARA TIMUR,,Indonesia,38021101.0,,,-9.8618305,124.2727072,https://maps.google.com/?cid=0x0:0xd223de57b5b54b62,
hotel,Penginapan,Taman Rekreasi Bu'at,"57C6+Q3M, Klani/Noinbila, Kec. Mollo Sel., Kabupaten Timor Tengah Selatan, Nusa Tenggara Tim.","Kabupaten Timor Tengah Selatan, Nusa Tenggara Tim.",NUSA TENGGARA TIMUR,,Indonesia,,,,-9.8280342,124.2601572,https://maps.google.com/?cid=0x0:0xc41271a66b73f1a1,
hotel,hotel,Hotel Bahagia 1,"47MJ+WGQ, Kp. Baru, Kec. Kota Soe, Kabupaten Timor Tengah Selatan, Nusa Tenggara Tim. 85511","Kp. Baru, Kec. Kota Soe, Kabupaten Timor Tengah Selatan",NUSA TENGGARA TIMUR,85511.0,Indonesia,38821015.0,,,-9.8651601,124.2813734,https://maps.google.com/?cid=0x0:0x4381b434c3e89d1d,
hotel,hotel,Rai Hawu Hotel,"Eilode, Kec. Sabu Tengah, Kabupaten Sabu Raijua, Nusa Tenggara Tim.","Kabupaten Sabu Raijua, Nusa Tenggara Tim.",NUSA TENGGARA TIMUR,,Indonesia,,,,-10.4530797,121.9350383,https://maps.google.com/?cid=0x0:0xe9f4c2d38d95b798,
hotel,Motel,Hotel,"GWFQ+WVQ, Eimmadake, Kec. Sabu Tengah, Kabupaten Sabu Raijua, Nusa Tenggara Tim.","Kabupaten Sabu Raijua, Nusa Tenggara Tim.",NUSA TENGGARA TIMUR,,Indonesia,,,,-10.4751623,121.9397439,https://maps.google.com/?cid=0x0:0x6966e016af5091ed,
hotel,Hotel,Rumah Penginapan,"GWWP+747, Eilode, Kec. Sabu Tengah, Kabupaten Sabu Raijua, Nusa Tenggara Tim.","Kabupaten Sabu Raijua, Nusa Tenggara Tim.",NUSA TENGGARA TIMUR,,Indonesia,,,,-10.4543329,121.9353096,https://maps.google.com/?cid=0x0:0x6460e77c557df326,
hotel,hotel,Nusa Tenggara Tim.,,Nusa Tenggara Tim.,NUSA TENGGARA TIMUR,,Indonesia,,,,-8.6573819,121.0793705,https://maps.google.com/?cid=0x0:0x1030bfbcaf71ae0,
hotel,Pondok,Mana Home Stay,"FRXR+V4X, Jl. Simpang Tiga Tenihawu, Mebba, Kec. Sabu Bar., Kabupaten Sabu Raijua, Nusa Tenggara Tim.","Kabupaten Sabu Raijua, Nusa Tenggara Tim.",NUSA TENGGARA TIMUR,,Indonesia,82145266407.0,,,-10.5002629,121.8403467,https://maps.google.com/?cid=0x0:0x3ed918cda4bb4fc9,
hotel,Hotel,Penginapan Komang,"RT.2/RW.3, Menia, Kec. Sabu Bar., Kabupaten Sabu Raijua, Nusa Tenggara Tim.","Kabupaten Sabu Raijua, Nusa Tenggara Tim.",NUSA TENGGARA TIMUR,,Indonesia,81266655755.0,,,-10.4594207,121.8680429,https://maps.google.com/?cid=0x0:0x45249e6fdb96d379,
hotel,Pondok,Penginapan Maryo - Sabu Seba,"GR4Q+9P4, Mebba, Kec. Sabu Bar., Kabupaten Sabu Raijua, Nusa Tenggara Tim.","Kabupaten Sabu Raijua, Nusa Tenggara Tim.",NUSA TENGGARA TIMUR,,Indonesia,,,,-10.4941174,121.8393404,https://maps.google.com/?cid=0x0:0x7d59780c0e452657,
hotel,hotel,Hotel Blessing Soe - TTS,"47P4+C6R, Jl. Gajah Mada, Kesetnana, Kec. Mollo Sel., Kabupaten Timor Tengah Selatan, Nusa Tenggara Tim.","Kabupaten Timor Tengah Selatan, Nusa Tenggara Tim.",NUSA TENGGARA TIMUR,,Indonesia,81339464302.0,,,-9.8658108,124.2575077,https://maps.google.com/?cid=0x0:0x6039dbe1215add4d,
hotel,Penginapan,Taman Rekreasi Bu'at,"57C6+Q3M, Klani/Noinbila, Kec. Mollo Sel., Kabupaten Timor Tengah Selatan, Nusa Tenggara Tim.","Kabupaten Timor Tengah Selatan, Nusa Tenggara Tim.",NUSA TENGGARA TIMUR,,Indonesia,,,,-9.8280342,124.2601572,https://maps.google.com/?cid=0x0:0xc41271a66b73f1a1,
hotel,hotel,OYO 92244 Mariko's House,"Jl. Perintis Kemerdekaan, Klp. Lima, Kec. Klp. Lima, Kota Kupang, Nusa Tenggara Tim. 85001","Klp. Lima, Kec. Klp. Lima, Kota Kupang",NUSA TENGGARA TIMUR,85001.0,Indonesia,2129707601.0,,,-10.1556727,123.6167686,https://maps.google.com/?cid=0x0:0xbabfa8e57656e168,
hotel,hotel,Pantai Lasiana,Nusa Tenggara Tim.,Nusa Tenggara Tim.,NUSA TENGGARA TIMUR,,Indonesia,,,,-10.1296736,123.6707237,https://maps.google.com/?cid=0x0:0x3770d54506c499c0,
hotel,hotel,OYO 2320 Hotel Charvita,"Jl. W.J. Lalamentik No.72, Fatululi, Kec. Oebobo, Kota Kupang, Nusa Tenggara Tim. 85226","Fatululi, Kec. Oebobo, Kota Kupang",NUSA TENGGARA TIMUR,85226.0,Indonesia,2129707601.0,,,-10.1689476,123.6053539,https://maps.google.com/?cid=0x0:0xd8053692ec3c6a2,
hotel,hotel,Rai Hawu Hotel,"Eilode, Kec. Sabu Tengah, Kabupaten Sabu Raijua, Nusa Tenggara Tim.","Kabupaten Sabu Raijua, Nusa Tenggara Tim.",NUSA TENGGARA TIMUR,,Indonesia,,,,-10.4530797,121.9350383,https://maps.google.com/?cid=0x0:0xe9f4c2d38d95b798,
hotel,hotel,Kec. Sabu Tim.,"Kabupaten Sabu Raijua, Nusa Tenggara Tim.","Kabupaten Sabu Raijua, Nusa Tenggara Tim.",NUSA TENGGARA TIMUR,,Indonesia,,,,-10.5013069,121.9721227,https://maps.google.com/?cid=0x0:0x89fb1247da8e5a16,
hotel,Motel,Hotel,"GWFQ+WVQ, Eimmadake, Kec. Sabu Tengah, Kabupaten Sabu Raijua, Nusa Tenggara Tim.","Kabupaten Sabu Raijua, Nusa Tenggara Tim.",NUSA TENGGARA TIMUR,,Indonesia,,,,-10.4751623,121.9397439,https://maps.google.com/?cid=0x0:0x6966e016af5091ed,
hotel,Pondok,Vita tari,"FXXC+FVP, Bolou, Kec. Sabu Tim., Kabupaten Sabu Raijua, Nusa Tenggara Tim.","Kabupaten Sabu Raijua, Nusa Tenggara Tim.",NUSA TENGGARA TIMUR,,Indonesia,,,,-10.5012831,121.9722052,https://maps.google.com/?cid=0x0:0x135e5619ce4b932c,
hotel,Hotel jangka panjang,Ilham Mira Higa,"FWFX+MXC, Matei, Kec. Sabu Tengah, Kabupaten Sabu Raijua, Nusa Tenggara Tim.","Kabupaten Sabu Raijua, Nusa Tenggara Tim.",NUSA TENGGARA TIMUR,,Indonesia,,,,-10.5258115,121.9498757,https://maps.google.com/?cid=0x0:0x8c2e1a6c4b1dd615,
hotel,Rumah wisata,Mariana Lado Hina,"HW2R+HJX, Eilode, Kec. Sabu Tengah, Kabupaten Sabu Raijua, Nusa Tenggara Tim.","Kabupaten Sabu Raijua, Nusa Tenggara Tim.",NUSA TENGGARA TIMUR,,Indonesia,,,,-10.448501,121.9416226,https://maps.google.com/?cid=0x0:0x9f178371df8bf6fa,
hotel,Kedai Kopi,Amajhu,"FX32+3H, Eiada, Kec. Sabu Tim., Kabupaten Sabu Raijua, Nusa Tenggara Tim.","Kabupaten Sabu Raijua, Nusa Tenggara Tim.",NUSA TENGGARA TIMUR,,Indonesia,,,,-10.5473864,121.9513577,https://maps.google.com/?cid=0x0:0xffda744f5ffcf9fe,
hotel,Motel,Leonard Udju Tad,"FW95+XF, Raekore, Kec. Sabu Bar., Kabupaten Sabu Raijua, Nusa Tenggara Tim.","Kabupaten Sabu Raijua, Nusa Tenggara Tim.",NUSA TENGGARA TIMUR,,Indonesia,,,,-10.5300558,121.9087031,https://maps.google.com/?cid=0x0:0xc463a741f59d571a,
hotel,hotel,Kecamatan Sabu Liae,"Kabupaten Sabu Raijua, Nusa Tenggara Tim.","Kabupaten Sabu Raijua, Nusa Tenggara Tim.",NUSA TENGGARA TIMUR,,Indonesia,,,,-10.6015691,121.8688783,https://maps.google.com/?cid=0x0:0x957814b2c371884a,
hotel,Pondok,Mana Home Stay,"FRXR+V4X, Jl. Simpang Tiga Tenihawu, Mebba, Kec. Sabu Bar., Kabupaten Sabu Raijua, Nusa Tenggara Tim.","Kabupaten Sabu Raijua, Nusa Tenggara Tim.",NUSA TENGGARA TIMUR,,Indonesia,82145266407.0,,,-10.5002629,121.8403467,https://maps.google.com/?cid=0x0:0x3ed918cda4bb4fc9,
hotel,Pondok,Penginapan Zhuzhi,"GR4R+WJC, Mebba, Kec. Sabu Bar., Kabupaten Sabu Raijua, Nusa Tenggara Tim.","Kabupaten Sabu Raijua, Nusa Tenggara Tim.",NUSA TENGGARA TIMUR,,Indonesia,82144473602.0,,,-10.492688,121.8415251,https://maps.google.com/?cid=0x0:0xd4bd176d49314649,
hotel,Hotel,Penginapan Komang,"RT.2/RW.3, Menia, Kec. Sabu Bar., Kabupaten Sabu Raijua, Nusa Tenggara Tim.","Kabupaten Sabu Raijua, Nusa Tenggara Tim.",NUSA TENGGARA TIMUR,,Indonesia,81266655755.0,,,-10.4594207,121.8680429,https://maps.google.com/?cid=0x0:0x45249e6fdb96d379,
hotel,Komplek perumahan,Ronal Netu,"FRWV+QHF, Raeloro, Kec. Sabu Bar., Kabupaten Sabu Raijua, Nusa Tenggara Tim.","Kabupaten Sabu Raijua, Nusa Tenggara Tim.",NUSA TENGGARA TIMUR,,Indonesia,,,,-10.5034786,121.8434939,https://maps.google.com/?cid=0x0:0x137d9384ff5e796c,
hotel,hotel,Rai Hawu Hotel,"Eilode, Kec. Sabu Tengah, Kabupaten Sabu Raijua, Nusa Tenggara Tim.","Kabupaten Sabu Raijua, Nusa Tenggara Tim.",NUSA TENGGARA TIMUR,,Indonesia,,,,-10.4530797,121.9350383,https://maps.google.com/?cid=0x0:0xe9f4c2d38d95b798,
hotel,hotel,Kec. Hawu Mehara,"Kabupaten Sabu Raijua, Nusa Tenggara Tim.","Kabupaten Sabu Raijua, Nusa Tenggara Tim.",NUSA TENGGARA TIMUR,,Indonesia,,,,-10.5744578,121.7236313,https://maps.google.com/?cid=0x0:0x570cb4b99e28effb,
hotel,hotel,Mehara Hotel,"Jl. Mutiara Gg Tuna, RT.04/RW.02, Labuan Bajo, Kec. Komodo, Kabupaten Manggarai Barat, Nusa Tenggara Tim.","Kabupaten Manggarai Barat, Nusa Tenggara Tim.",NUSA TENGGARA TIMUR,,Indonesia,82147725594.0,,,-8.4898415,119.8776784,https://maps.google.com/?cid=0x0:0x35b1989fa2092ceb,
hotel,hotel,MENIA GREYSTONE,"Jl. Trans Seba Bolow - Seba No.Km. 10, Menia, Kec. Sabu Bar., Kabupaten Sabu Raijua, Nusa Tenggara Tim.","Kabupaten Sabu Raijua, Nusa Tenggara Tim.",NUSA TENGGARA TIMUR,,Indonesia,82216037424.0,,,-10.4439389,121.8917418,https://maps.google.com/?cid=0x0:0x41f8728dba3cc936,
hotel,Hotel,Jefry Do Hina,"CP4V+JH5, Lobohede, Kec. Hawu Mehara, Kabupaten Sabu Raijua, Nusa Tenggara Tim.","Kabupaten Sabu Raijua, Nusa Tenggara Tim.",NUSA TENGGARA TIMUR,,Indonesia,,,,-10.5934767,121.7439833,https://maps.google.com/?cid=0x0:0x5516421074554ae5,
hotel,Hotel,Danni Hiha,"CP5C+WRV, Lobohede, Kec. Hawu Mehara, Kabupaten Sabu Raijua, Nusa Tenggara Tim.","Kabupaten Sabu Raijua, Nusa Tenggara Tim.",NUSA TENGGARA TIMUR,,Indonesia,,,,-10.5898969,121.7216757,https://maps.google.com/?cid=0x0:0xe025f97f89fa60cb,
hotel,Hotel,Herman Hina Homestay,"9QWM+9XX, Wadumeddi, Kec. Hawu Mehara, Kabupaten Sabu Raijua, Nusa Tenggara Tim.","Kabupaten Sabu Raijua, Nusa Tenggara Tim.",NUSA TENGGARA TIMUR,,Indonesia,,,,-10.6040042,121.7849808,https://maps.google.com/?cid=0x0:0xcc907b8747261ce8,
hotel,Vila,Ama Ardhy_19,"CPMC+G7V, Molie, Kec. Hawu Mehara, Kabupaten Sabu Raijua, Nusa Tenggara Tim.","Kabupaten Sabu Raijua, Nusa Tenggara Tim.",NUSA TENGGARA TIMUR,,Indonesia,,,,-10.5647478,121.7206953,https://maps.google.com/?cid=0x0:0x94b24306d47c8d9,
hotel,hotel,Pedarro,"CQ73+2W, Pedarro, Kec. Hawu Mehara, Kabupaten Sabu Raijua, Nusa Tenggara Tim.","Kabupaten Sabu Raijua, Nusa Tenggara Tim.",NUSA TENGGARA TIMUR,,Indonesia,,,,-10.5873952,121.7547765,https://maps.google.com/?cid=0x0:0xbed386c451c1e5d5,
hotel,Pondok,Methu Tagi,"CPM9+W7P, Ledetiti, Molie, Kec. Hawu Mehara, Kabupaten Sabu Raijua, Nusa Tenggara Tim.","Kabupaten Sabu Raijua, Nusa Tenggara Tim.",NUSA TENGGARA TIMUR,,Indonesia,,,,-10.5654359,121.7183504,https://maps.google.com/?cid=0x0:0xfa16ddb1d6882550,
hotel,Hotel,TODA YULIASTI BUKY,"CQ74+R89, Pedarro, Kec. Hawu Mehara, Kabupaten Sabu Raijua, Nusa Tenggara Tim.","Kabupaten Sabu Raijua, Nusa Tenggara Tim.",NUSA TENGGARA TIMUR,,Indonesia,,,,-10.5854578,121.7558498,https://maps.google.com/?cid=0x0:0xf427734ea81c696f,
hotel,Hotel,Juken huki,"CP3V+352, Unnamed Road, Lobohede, Kec. Hawu Mehara, Kabupaten Sabu Raijua, Nusa Tenggara Tim.","Kabupaten Sabu Raijua, Nusa Tenggara Tim.",NUSA TENGGARA TIMUR,,Indonesia,,,,-10.597374,121.7428882,https://maps.google.com/?cid=0x0:0x4f471fb0bd2a5435,
hotel,Rumah wisata,Qim Edizone Dubu,"Dubu Tua(irwan, CP3G+9RF Appu, Lobohede, Kec. Hawu Mehara, Kabupaten Sabu Raijua, Nusa Tenggara Tim.","Kabupaten Sabu Raijua, Nusa Tenggara Tim.",NUSA TENGGARA TIMUR,,Indonesia,,,,-10.5966938,121.7273707,https://maps.google.com/?cid=0x0:0x8b574e925db36f6e,
hotel,Rumah wisata,SEMUEL NERE BUKY,"CQ74+Q8M, Unnamed Road, Pedarro, Kec. Hawu Mehara, Kabupaten Sabu Raijua, Nusa Tenggara Tim.","Kabupaten Sabu Raijua, Nusa Tenggara Tim.",NUSA TENGGARA TIMUR,,Indonesia,,,,-10.5855412,121.7558016,https://maps.google.com/?cid=0x0:0x69da1c3ae139d96c,
hotel,Hotel,RANDO BOEKY,"CQ66+GW8, Pedarro, Kec. Hawu Mehara, Kabupaten Sabu Raijua, Nusa Tenggara Tim.","Kabupaten Sabu Raijua, Nusa Tenggara Tim.",NUSA TENGGARA TIMUR,,Indonesia,,,,-10.5884782,121.7617485,https://maps.google.com/?cid=0x0:0x6a9415eb69ea91c7,
hotel,hotel,Nusa Tenggara Tim.,,Nusa Tenggara Tim.,NUSA TENGGARA TIMUR,,Indonesia,,,,-8.6573819,121.0793705,https://maps.google.com/?cid=0x0:0x1030bfbcaf71ae0,
hotel,Hotel,Penginapan Mata Ruba,"9JV9+VQJ, Ledeunu, Kec. Raijua, Kabupaten Sabu Raijua, Nusa Tenggara Tim.","Kabupaten Sabu Raijua, Nusa Tenggara Tim.",NUSA TENGGARA TIMUR,,Indonesia,81313871753.0,,,-10.6051302,121.6193996,https://maps.google.com/?cid=0x0:0x837bed96baaea844,
hotel,Hotel,Penginapan Abdullah,"Jl. Masjid An'Nur Seba No.Depan, Mebba, Kec. Sabu Bar., Kabupaten Sabu Raijua, Nusa Tenggara Tim.","Kabupaten Sabu Raijua, Nusa Tenggara Tim.",NUSA TENGGARA TIMUR,,Indonesia,,,,-10.4935094,121.8396694,https://maps.google.com/?cid=0x0:0xc12533b0676894ce,
hotel,Hotel,Penginapan Komang,"RT.2/RW.3, Menia, Kec. Sabu Bar., Kabupaten Sabu Raijua, Nusa Tenggara Tim.","Kabupaten Sabu Raijua, Nusa Tenggara Tim.",NUSA TENGGARA TIMUR,,Indonesia,81266655755.0,,,-10.4594207,121.8680429,https://maps.google.com/?cid=0x0:0x45249e6fdb96d379,
hotel,Penginapan,Jessica Hotel Sabu Raijua,"Mebba, Kec. Sabu Bar., Kabupaten Sabu Raijua, Nusa Tenggara Tim.","Kabupaten Sabu Raijua, Nusa Tenggara Tim.",NUSA TENGGARA TIMUR,,Indonesia,82146462942.0,,,-10.492037,121.8469376,https://maps.google.com/?cid=0x0:0x9577cfbf15d997e3,
hotel,Pondok,Mana Home Stay,"FRXR+V4X, Jl. Simpang Tiga Tenihawu, Mebba, Kec. Sabu Bar., Kabupaten Sabu Raijua, Nusa Tenggara Tim.","Kabupaten Sabu Raijua, Nusa Tenggara Tim.",NUSA TENGGARA TIMUR,,Indonesia,82145266407.0,,,-10.5002629,121.8403467,https://maps.google.com/?cid=0x0:0x3ed918cda4bb4fc9,
hotel,Pondok,Penginapan Maryo - Sabu Seba,"GR4Q+9P4, Mebba, Kec. Sabu Bar., Kabupaten Sabu Raijua, Nusa Tenggara Tim.","Kabupaten Sabu Raijua, Nusa Tenggara Tim.",NUSA TENGGARA TIMUR,,Indonesia,,,,-10.4941174,121.8393404,https://maps.google.com/?cid=0x0:0x7d59780c0e452657,
hotel,hotel,OYO 2320 Hotel Charvita,"Jl. W.J. Lalamentik No.72, Fatululi, Kec. Oebobo, Kota Kupang, Nusa Tenggara Tim. 85226","Fatululi, Kec. Oebobo, Kota Kupang",NUSA TENGGARA TIMUR,85226.0,Indonesia,2129707601.0,,,-10.1689476,123.6053539,https://maps.google.com/?cid=0x0:0xd8053692ec3c6a2,
hotel,hotel,Pantai Lasiana,Nusa Tenggara Tim.,Nusa Tenggara Tim.,NUSA TENGGARA TIMUR,,Indonesia,,,,-10.1296736,123.6707237,https://maps.google.com/?cid=0x0:0x3770d54506c499c0,
hotel,hotel,Hotel Sindha,"Jl. Yos Sudarso No.24-26, Mbaumuku, Kec. Langke Rembong, Kabupaten Manggarai, Nusa Tenggara Tim. 86511","Mbaumuku, Kec. Langke Rembong, Kabupaten Manggarai",NUSA TENGGARA TIMUR,86511.0,Indonesia,38521197.0,,,-8.6079311,120.4668603,https://maps.google.com/?cid=0x0:0xfdb2d3b5614172c1,
hotel,Tempat Religius,Keuskupan Ruteng,"Jl. Ahmad Yani No.10, Watu, Kec. Langke Rembong, Kabupaten Manggarai, Nusa Tenggara Tim.","Kabupaten Manggarai, Nusa Tenggara Tim.",NUSA TENGGARA TIMUR,,Indonesia,,,,-8.6114349,120.4687303,https://maps.google.com/?cid=0x0:0x69109760a8d24b10,
hotel,hotel,Hotel Carvita,"RJJ4+27M, Jl. W.J. Lalamentik No. 30, Gg. Hati Murni, Oebobo, Kec. Oebobo, Kota Kupang, Nusa Tenggara Tim.","Kota Kupang, Nusa Tenggara Tim.",NUSA TENGGARA TIMUR,,Indonesia,380821479.0,,,-10.1688985,123.6054048,https://maps.google.com/?cid=0x0:0x948fa5cd8cd0a5a1,
hotel,hotel,Rai Hawu Hotel,"Eilode, Kec. Sabu Tengah, Kabupaten Sabu Raijua, Nusa Tenggara Tim.","Kabupaten Sabu Raijua, Nusa Tenggara Tim.",NUSA TENGGARA TIMUR,,Indonesia,,,,-10.4530797,121.9350383,https://maps.google.com/?cid=0x0:0xe9f4c2d38d95b798,
hotel,hotel,Narisha Guest House,"RJC9+WG9, Oebufu, Kec. Oebobo, Kota Kupang, Nusa Tenggara Tim. 85142","Oebufu, Kec. Oebobo, Kota Kupang",NUSA TENGGARA TIMUR,85142.0,Indonesia,380839463.0,,,-10.1777144,123.6188506,https://maps.google.com/?cid=0x0:0xb50d836e8a55be55,
hotel,hotel,Kec. Raijua,"Kabupaten Sabu Raijua, Nusa Tenggara Tim.","Kabupaten Sabu Raijua, Nusa Tenggara Tim.",NUSA TENGGARA TIMUR,,Indonesia,,,,-10.6051556,121.6181462,https://maps.google.com/?cid=0x0:0x25f150fcbc1533b6,
hotel,Hotel,Penginapan,"9JW9+MWW, Ledeunu, Kec. Raijua, Kabupaten Sabu Raijua, Nusa Tenggara Tim.","Kabupaten Sabu Raijua, Nusa Tenggara Tim.",NUSA TENGGARA TIMUR,,Indonesia,,,,-10.6032627,121.6198435,https://maps.google.com/?cid=0x0:0x2022ad3a619a789d,
hotel,Apartemen sewa liburan,maksad or basha,"9HH4+5FP, Kolorae, Kec. Raijua, Kabupaten Sabu Raijua, Nusa Tenggara Tim.","Kabupaten Sabu Raijua, Nusa Tenggara Tim.",NUSA TENGGARA TIMUR,,Indonesia,,,,-10.621439,121.5557123,https://maps.google.com/?cid=0x0:0x9c21912f26488e99,
restaurant,restaurant,Kec. Sabu Bar.,"Kabupaten Sabu Raijua, Nusa Tenggara Tim.","Kabupaten Sabu Raijua, Nusa Tenggara Tim.",NUSA TENGGARA TIMUR,,Indonesia,,,,-10.4996566,121.8400338,https://maps.google.com/?cid=0x0:0xa5c2c568f439a950,
restaurant,Restoran,Resto  Karaoke Pondok Lontar SARAI,"Jln. Eltari No.KM. 2, Raemadia, Kec. Sabu Bar., Kabupaten Sabu Raijua, Nusa Tenggara Tim. 85392","Raemadia, Kec. Sabu Bar., Kabupaten Sabu Raijua",NUSA TENGGARA TIMUR,85392.0,Indonesia,82263636357.0,,,-10.484739,121.8566204,https://maps.google.com/?cid=0x0:0xdba1b713bffb771b,
restaurant,Komplek perumahan,Sabu Barat,"FVRH+5J2, Nyabbuwawi, Kec. Sabu Bar., Kabupaten Sabu Raijua, Nusa Tenggara Tim.","Kabupaten Sabu Raijua, Nusa Tenggara Tim.",NUSA TENGGARA TIMUR,,Indonesia,82338885456.0,,,-10.5096084,121.8790306,https://maps.google.com/?cid=0x0:0x22a8bcf8a5d3b9e9,
restaurant,Ayam,Depot Makan Baim,"GR4Q+HW8, Mebba, Kec. Sabu Bar., Kabupaten Sabu Raijua, Nusa Tenggara Tim.","Kabupaten Sabu Raijua, Nusa Tenggara Tim.",NUSA TENGGARA TIMUR,,Indonesia,82147150582.0,,,-10.4935849,121.8398181,https://maps.google.com/?cid=0x0:0x857cf1a7e682ae58,
restaurant,Restoran,Depot Makan Kalijogo,"GR4Q+GWR, Mebba, Kec. Sabu Bar., Kabupaten Sabu Raijua, Nusa Tenggara Tim.","Kabupaten Sabu Raijua, Nusa Tenggara Tim.",NUSA TENGGARA TIMUR,,Indonesia,,,,-10.4936413,121.8397745,https://maps.google.com/?cid=0x0:0x3dc9d78dfb76504f,
restaurant,Dapur Umum,Warung AA,"GVCG+RFM, Roboaba, Kec. Sabu Bar., Kabupaten Sabu Raijua, Nusa Tenggara Tim.","Kabupaten Sabu Raijua, Nusa Tenggara Tim.",NUSA TENGGARA TIMUR,,Indonesia,,,,-10.4779202,121.8761846,https://maps.google.com/?cid=0x0:0x2d58819b30b7387b,
restaurant,Sesuai untuk keluarga,Rumah makan nata jawa 2,"GV74+CGV, Jl. Trans Seba Bolou, Raeloro, Kec. Sabu Bar., Kabupaten Sabu Raijua, Nusa Tenggara Tim.","Kabupaten Sabu Raijua, Nusa Tenggara Tim.",NUSA TENGGARA TIMUR,,Indonesia,85853045086.0,,,-10.486391,121.856303,https://maps.google.com/?cid=0x0:0x3fffecc27648304a,
restaurant,Restoran,Rumbul Cafe,"FRXP+JJJ, Mebba, Kec. Sabu Bar., Kabupaten Sabu Raijua, Nusa Tenggara Tim.","Kabupaten Sabu Raijua, Nusa Tenggara Tim.",NUSA TENGGARA TIMUR,,Indonesia,81338039536.0,,,-10.5009225,121.836519,https://maps.google.com/?cid=0x0:0xef6eea191feac7a1,
restaurant,Restoran,RM Primadona,"Jl. Trans Seba Bolou, RT 011 / RW 006, Dusun Bora, Mebba, Sabu Barat, Mebba, Kec. Sabu Bar., Terdamu, Nusa Tenggara Tim. 85391","RT 011 / RW 006, Dusun Bora, Mebba, Sabu Barat, Mebba, Kec. Sabu Bar., Terdamu",NUSA TENGGARA TIMUR,85391.0,Indonesia,81353413739.0,,,-10.491229,121.850277,https://maps.google.com/?cid=0x0:0x3c5db302261f8b7d,
restaurant,restaurant,Warung Mas Al,"GVRC+8X2, Menia, Kec. Sabu Bar., Kabupaten Sabu Raijua, Nusa Tenggara Tim.","Kabupaten Sabu Raijua, Nusa Tenggara Tim.",NUSA TENGGARA TIMUR,,Indonesia,,,,-10.458966,121.8728681,https://maps.google.com/?cid=0x0:0x19f084f73f6d617c,
restaurant,Rumah Makan,Kedai Dinner Toci,"Simpang Tiga Tenihawu, Mebba, Kec. Sabu Bar., Kabupaten Sabu Raijua, Nusa Tenggara Tim.","Kabupaten Sabu Raijua, Nusa Tenggara Tim.",NUSA TENGGARA TIMUR,,Indonesia,81236371207.0,,,-10.4991692,121.8398052,https://maps.google.com/?cid=0x0:0x1c48dc72fb2e5c4a,
restaurant,Rumah Makan,Omah Pawon mbak ratna,"GVQC+V4C, Unnamed Road, Menia, Kec. Sabu Bar., Kabupaten Sabu Raijua, Nusa Tenggara Tim.","Kabupaten Sabu Raijua, Nusa Tenggara Tim.",NUSA TENGGARA TIMUR,,Indonesia,82266354587.0,,,-10.4603118,121.8702563,https://maps.google.com/?cid=0x0:0xb49aa63f00e636b1,
restaurant,Restoran,Warung Yani,"GVWH+2GV, Menia, Kec. Sabu Bar., Kabupaten Sabu Raijua, Nusa Tenggara Tim.","Kabupaten Sabu Raijua, Nusa Tenggara Tim.",NUSA TENGGARA TIMUR,,Indonesia,81338696814.0,,,-10.4548908,121.8787981,https://maps.google.com/?cid=0x0:0x60165a2d9be38b1c,
restaurant,Rumah Makan,Depot Se’i Pojok Indah,"GVWH+4VH, Menia, Kec. Sabu Bar., Kabupaten Sabu Raijua, Nusa Tenggara Tim.","Kabupaten Sabu Raijua, Nusa Tenggara Tim.",NUSA TENGGARA TIMUR,,Indonesia,,,,-10.4546889,121.879729,https://maps.google.com/?cid=0x0:0x5216ea02b5bff983,
restaurant,Hotel,Penginapan Komang,"RT.2/RW.3, Menia, Kec. Sabu Bar., Kabupaten Sabu Raijua, Nusa Tenggara Tim.","Kabupaten Sabu Raijua, Nusa Tenggara Tim.",NUSA TENGGARA TIMUR,,Indonesia,81266655755.0,,,-10.4594207,121.8680429,https://maps.google.com/?cid=0x0:0x45249e6fdb96d379,
restaurant,Pondok Pegunungan,Koro Radjah,"FRQC+67H, Ledeana, Kec. Sabu Bar., Kabupaten Sabu Raijua, Nusa Tenggara Tim.","Kabupaten Sabu Raijua, Nusa Tenggara Tim.",NUSA TENGGARA TIMUR,,Indonesia,,,,-10.5109673,121.8203738,https://maps.google.com/?cid=0x0:0x40cccbcda792f44,
restaurant,Restoran,Ikan kuah asam johe,"GR4Q+5QV, Mebba, Kec. Sabu Bar., Kabupaten Sabu Raijua, Nusa Tenggara Tim.","Kabupaten Sabu Raijua, Nusa Tenggara Tim.",NUSA TENGGARA TIMUR,,Indonesia,82333556352.0,,,-10.4945157,121.8394313,https://maps.google.com/?cid=0x0:0xbbb7ba5521cf64a4,
restaurant,Rumah Makan,Warung makan mas dodi,"GR4Q+QP8, Mebba, Kec. Sabu Bar., Kabupaten Sabu Raijua, Nusa Tenggara Tim.","Kabupaten Sabu Raijua, Nusa Tenggara Tim.",NUSA TENGGARA TIMUR,,Indonesia,,,,-10.4930874,121.8393234,https://maps.google.com/?cid=0x0:0xb834de175c34502d,
restaurant,Rumah Makan,RM.DWI IVANA,"HV4R+FF3, Menia, Kec. Sabu Bar., Kabupaten Sabu Raijua, Nusa Tenggara Tim.","Kabupaten Sabu Raijua, Nusa Tenggara Tim.",NUSA TENGGARA TIMUR,,Indonesia,,,,-10.4438628,121.8911608,https://maps.google.com/?cid=0x0:0x96af56ae3faf0648,
restaurant,Restoran,Rm.Sederhana jagoan ayam geprek JHOKY,"GV64+P8X, Raeloro, Kec. Sabu Bar., Kabupaten Sabu Raijua, Nusa Tenggara Tim.","Kabupaten Sabu Raijua, Nusa Tenggara Tim.",NUSA TENGGARA TIMUR,,Indonesia,81238376707.0,,,-10.4881458,121.8558481,https://maps.google.com/?cid=0x0:0xbd29fa6e72b983b9,
restaurant,Restoran,Resto  Karaoke Pondok Lontar SARAI,"Jln. Eltari No.KM. 2, Raemadia, Kec. Sabu Bar., Kabupaten Sabu Raijua, Nusa Tenggara Tim. 85392","Raemadia, Kec. Sabu Bar., Kabupaten Sabu Raijua",NUSA TENGGARA TIMUR,85392.0,Indonesia,82263636357.0,,,-10.484739,121.8566204,https://maps.google.com/?cid=0x0:0xdba1b713bffb771b,
restaurant,Ayam,Depot Bakso Empat Dara,"Lobodei, Kec. Sabu Tim., Kabupaten Sabu Raijua, Nusa Tenggara Tim. 85392","Kec. Sabu Tim., Kabupaten Sabu Raijua",NUSA TENGGARA TIMUR,85392.0,Indonesia,82312895972.0,,,-10.5220715,121.9669277,https://maps.google.com/?cid=0x0:0x2cb9282cee9d05d3,
restaurant,restaurant,Kec. Sabu Tengah,"Kabupaten Sabu Raijua, Nusa Tenggara Tim.","Kabupaten Sabu Raijua, Nusa Tenggara Tim.",NUSA TENGGARA TIMUR,,Indonesia,,,,-10.455074,121.9356414,https://maps.google.com/?cid=0x0:0x8ba6c85f529ad7ae,
restaurant,restaurant,Salome AR,"Puruwutu, Keliha, Kec. Sabu Tim., Kabupaten Sabu Raijua, Nusa Tenggara Tim. 85392","Keliha, Kec. Sabu Tim., Kabupaten Sabu Raijua",NUSA TENGGARA TIMUR,85392.0,Indonesia,82133766070.0,,,-10.4679433,121.9705674,https://maps.google.com/?cid=0x0:0xb7a3e06b8dfc45f8,
restaurant,Rumah Makan,Rumah Makan Mbak Eva,"GXJC+V4G, Jl. Trans Seba Bolou, Keliha, Kec. Sabu Tim., Kabupaten Sabu Raijua, Nusa Tenggara Tim.","Kabupaten Sabu Raijua, Nusa Tenggara Tim.",NUSA TENGGARA TIMUR,,Indonesia,,,,-10.4678097,121.9703333,https://maps.google.com/?cid=0x0:0x2994b86c80de3c8a,
restaurant,Restoran,BILL RESTO,"GR5Q+4M8, Mebba, Kec. Sabu Bar., Kabupaten Sabu Raijua, Nusa Tenggara Tim.","Kabupaten Sabu Raijua, Nusa Tenggara Tim.",NUSA TENGGARA TIMUR,,Indonesia,82339925154.0,,,-10.4917192,121.8397731,https://maps.google.com/?cid=0x0:0x7abd80905d9d3662,
restaurant,Komplek perumahan,Sabu Barat,"FVRH+5J2, Nyabbuwawi, Kec. Sabu Bar., Kabupaten Sabu Raijua, Nusa Tenggara Tim.","Kabupaten Sabu Raijua, Nusa Tenggara Tim.",NUSA TENGGARA TIMUR,,Indonesia,82338885456.0,,,-10.5096084,121.8790306,https://maps.google.com/?cid=0x0:0x22a8bcf8a5d3b9e9,
restaurant,Rumah Makan,Sandro Ndoda,"GW4M+9HH, Eimmadake, Kec. Sabu Tengah, Kabupaten Sabu Raijua, Nusa Tenggara Tim.","Kabupaten Sabu Raijua, Nusa Tenggara Tim.",NUSA TENGGARA TIMUR,,Indonesia,,,,-10.4943338,121.9337968,https://maps.google.com/?cid=0x0:0xbe238275bf89772f,
restaurant,Hotel,Penginapan Komang,"RT.2/RW.3, Menia, Kec. Sabu Bar., Kabupaten Sabu Raijua, Nusa Tenggara Tim.","Kabupaten Sabu Raijua, Nusa Tenggara Tim.",NUSA TENGGARA TIMUR,,Indonesia,81266655755.0,,,-10.4594207,121.8680429,https://maps.google.com/?cid=0x0:0x45249e6fdb96d379,
restaurant,Rumah Makan,RM.DWI IVANA,"HV4R+FF3, Menia, Kec. Sabu Bar., Kabupaten Sabu Raijua, Nusa Tenggara Tim.","Kabupaten Sabu Raijua, Nusa Tenggara Tim.",NUSA TENGGARA TIMUR,,Indonesia,,,,-10.4438628,121.8911608,https://maps.google.com/?cid=0x0:0x96af56ae3faf0648,
restaurant,Rumah Makan,Kedai Dinner Toci,"Simpang Tiga Tenihawu, Mebba, Kec. Sabu Bar., Kabupaten Sabu Raijua, Nusa Tenggara Tim.","Kabupaten Sabu Raijua, Nusa Tenggara Tim.",NUSA TENGGARA TIMUR,,Indonesia,81236371207.0,,,-10.4991692,121.8398052,https://maps.google.com/?cid=0x0:0x1c48dc72fb2e5c4a,
restaurant,Dapur Umum,Warung AA,"GVCG+RFM, Roboaba, Kec. Sabu Bar., Kabupaten Sabu Raijua, Nusa Tenggara Tim.","Kabupaten Sabu Raijua, Nusa Tenggara Tim.",NUSA TENGGARA TIMUR,,Indonesia,,,,-10.4779202,121.8761846,https://maps.google.com/?cid=0x0:0x2d58819b30b7387b,
restaurant,Rumah Makan,Omah Pawon mbak ratna,"GVQC+V4C, Unnamed Road, Menia, Kec. Sabu Bar., Kabupaten Sabu Raijua, Nusa Tenggara Tim.","Kabupaten Sabu Raijua, Nusa Tenggara Tim.",NUSA TENGGARA TIMUR,,Indonesia,82266354587.0,,,-10.4603118,121.8702563,https://maps.google.com/?cid=0x0:0xb49aa63f00e636b1,
restaurant,Rumah Makan,Depot Se’i Pojok Indah,"GVWH+4VH, Menia, Kec. Sabu Bar., Kabupaten Sabu Raijua, Nusa Tenggara Tim.","Kabupaten Sabu Raijua, Nusa Tenggara Tim.",NUSA TENGGARA TIMUR,,Indonesia,,,,-10.4546889,121.879729,https://maps.google.com/?cid=0x0:0x5216ea02b5bff983,
restaurant,Kedai Kopi,Amajhu,"FX32+3H, Eiada, Kec. Sabu Tim., Kabupaten Sabu Raijua, Nusa Tenggara Tim.","Kabupaten Sabu Raijua, Nusa Tenggara Tim.",NUSA TENGGARA TIMUR,,Indonesia,,,,-10.5473864,121.9513577,https://maps.google.com/?cid=0x0:0xffda744f5ffcf9fe,
restaurant,restaurant,Warung Mas Al,"GVRC+8X2, Menia, Kec. Sabu Bar., Kabupaten Sabu Raijua, Nusa Tenggara Tim.","Kabupaten Sabu Raijua, Nusa Tenggara Tim.",NUSA TENGGARA TIMUR,,Indonesia,,,,-10.458966,121.8728681,https://maps.google.com/?cid=0x0:0x19f084f73f6d617c,
restaurant,Sesuai untuk keluarga,Rumah makan nata jawa 2,"GV74+CGV, Jl. Trans Seba Bolou, Raeloro, Kec. Sabu Bar., Kabupaten Sabu Raijua, Nusa Tenggara Tim.","Kabupaten Sabu Raijua, Nusa Tenggara Tim.",NUSA TENGGARA TIMUR,,Indonesia,85853045086.0,,,-10.486391,121.856303,https://maps.google.com/?cid=0x0:0x3fffecc27648304a,
restaurant,Makanan Kecil,AR Kitchen 2 (AMA RISLY),"Bolow - Seba, Bolou, Kec. Sabu Tim., Kabupaten Sabu Raijua, Nusa Tenggara Tim.","Kabupaten Sabu Raijua, Nusa Tenggara Tim.",NUSA TENGGARA TIMUR,,Indonesia,81250047980.0,,,-10.4999226,121.9719167,https://maps.google.com/?cid=0x0:0xf2dd8960052cf710,
restaurant,Restoran,Warung Yani,"GVWH+2GV, Menia, Kec. Sabu Bar., Kabupaten Sabu Raijua, Nusa Tenggara Tim.","Kabupaten Sabu Raijua, Nusa Tenggara Tim.",NUSA TENGGARA TIMUR,,Indonesia,81338696814.0,,,-10.4548908,121.8787981,https://maps.google.com/?cid=0x0:0x60165a2d9be38b1c,
restaurant,Komplek perumahan,HOME BHENN RADJA,"Eiada, Kec. Sabu Tim., Kabupaten Sabu Raijua, Nusa Tenggara Tim.","Kabupaten Sabu Raijua, Nusa Tenggara Tim.",NUSA TENGGARA TIMUR,,Indonesia,,,,-10.5543635,121.9474842,https://maps.google.com/?cid=0x0:0x3888d600e06b0158,
restaurant,Makanan Kecil,AR Kitchen 1 (AMA RISLY),"FXVP+WV9, Loborai, Kec. Sabu Tim., Kabupaten Sabu Raijua, Nusa Tenggara Tim.","Kabupaten Sabu Raijua, Nusa Tenggara Tim.",NUSA TENGGARA TIMUR,,Indonesia,81250047980.0,,,-10.5052228,121.9872442,https://maps.google.com/?cid=0x0:0xe73d100f09f4fdb9,
restaurant,Hotel,aiboba.sabu,"GX4G+9P5, Bolou, Kec. Sabu Tim., Kabupaten Sabu Raijua, Nusa Tenggara Tim.","Kabupaten Sabu Raijua, Nusa Tenggara Tim.",NUSA TENGGARA TIMUR,,Indonesia,81337151581.0,,,-10.4941245,121.9768644,https://maps.google.com/?cid=0x0:0xf60062cc5ae61b9f,
restaurant,restaurant,Kec. Sabu Tim.,"Kabupaten Sabu Raijua, Nusa Tenggara Tim.","Kabupaten Sabu Raijua, Nusa Tenggara Tim.",NUSA TENGGARA TIMUR,,Indonesia,,,,-10.5013069,121.9721227,https://maps.google.com/?cid=0x0:0x89fb1247da8e5a16,
restaurant,Dapur Umum,Dapur Mama Ghea,"FXW9+WQ, Bolou, Kec. Sabu Tim., Kabupaten Sabu Raijua, Nusa Tenggara Tim.","Kabupaten Sabu Raijua, Nusa Tenggara Tim.",NUSA TENGGARA TIMUR,,Indonesia,82247163984.0,,,-10.5027399,121.9693921,https://maps.google.com/?cid=0x0:0x9e09b74448b69f6f,
restaurant,Ayam,Depot Bakso Empat Dara,"Lobodei, Kec. Sabu Tim., Kabupaten Sabu Raijua, Nusa Tenggara Tim. 85392","Kec. Sabu Tim., Kabupaten Sabu Raijua",NUSA TENGGARA TIMUR,85392.0,Indonesia,82312895972.0,,,-10.5220715,121.9669277,https://maps.google.com/?cid=0x0:0x2cb9282cee9d05d3,
restaurant,Makanan Kecil,AR Kitchen 1 (AMA RISLY),"FXVP+WV9, Loborai, Kec. Sabu Tim., Kabupaten Sabu Raijua, Nusa Tenggara Tim.","Kabupaten Sabu Raijua, Nusa Tenggara Tim.",NUSA TENGGARA TIMUR,,Indonesia,81250047980.0,,,-10.5052228,121.9872442,https://maps.google.com/?cid=0x0:0xe73d100f09f4fdb9,
restaurant,Makanan Kecil,AR Kitchen 2 (AMA RISLY),"Bolow - Seba, Bolou, Kec. Sabu Tim., Kabupaten Sabu Raijua, Nusa Tenggara Tim.","Kabupaten Sabu Raijua, Nusa Tenggara Tim.",NUSA TENGGARA TIMUR,,Indonesia,81250047980.0,,,-10.4999226,121.9719167,https://maps.google.com/?cid=0x0:0xf2dd8960052cf710,
restaurant,restaurant,Salome AR,"Puruwutu, Keliha, Kec. Sabu Tim., Kabupaten Sabu Raijua, Nusa Tenggara Tim. 85392","Keliha, Kec. Sabu Tim., Kabupaten Sabu Raijua",NUSA TENGGARA TIMUR,85392.0,Indonesia,82133766070.0,,,-10.4679433,121.9705674,https://maps.google.com/?cid=0x0:0xb7a3e06b8dfc45f8,
restaurant,Kedai Kopi,Amajhu,"FX32+3H, Eiada, Kec. Sabu Tim., Kabupaten Sabu Raijua, Nusa Tenggara Tim.","Kabupaten Sabu Raijua, Nusa Tenggara Tim.",NUSA TENGGARA TIMUR,,Indonesia,,,,-10.5473864,121.9513577,https://maps.google.com/?cid=0x0:0xffda744f5ffcf9fe,
restaurant,Rumah Makan,Sandro Ndoda,"GW4M+9HH, Eimmadake, Kec. Sabu Tengah, Kabupaten Sabu Raijua, Nusa Tenggara Tim.","Kabupaten Sabu Raijua, Nusa Tenggara Tim.",NUSA TENGGARA TIMUR,,Indonesia,,,,-10.4943338,121.9337968,https://maps.google.com/?cid=0x0:0xbe238275bf89772f,
restaurant,restaurant,Salome Kayla,"Keliha, Kec. Sabu Tim., Kabupaten Sabu Raijua, Nusa Tenggara Tim.","Kabupaten Sabu Raijua, Nusa Tenggara Tim.",NUSA TENGGARA TIMUR,,Indonesia,82132253415.0,,,-10.459354,121.9779114,https://maps.google.com/?cid=0x0:0x5a8dd63e86d3f598,
restaurant,Hotel,aiboba.sabu,"GX4G+9P5, Bolou, Kec. Sabu Tim., Kabupaten Sabu Raijua, Nusa Tenggara Tim.","Kabupaten Sabu Raijua, Nusa Tenggara Tim.",NUSA TENGGARA TIMUR,,Indonesia,81337151581.0,,,-10.4941245,121.9768644,https://maps.google.com/?cid=0x0:0xf60062cc5ae61b9f,
restaurant,Komplek perumahan,HOME BHENN RADJA,"Eiada, Kec. Sabu Tim., Kabupaten Sabu Raijua, Nusa Tenggara Tim.","Kabupaten Sabu Raijua, Nusa Tenggara Tim.",NUSA TENGGARA TIMUR,,Indonesia,,,,-10.5543635,121.9474842,https://maps.google.com/?cid=0x0:0x3888d600e06b0158,
restaurant,Restoran,Depot ENCRD,"GXCP+FVC, Bodae, Kec. Sabu Tim., Kabupaten Sabu Raijua, Nusa Tenggara Tim.","Kabupaten Sabu Raijua, Nusa Tenggara Tim.",NUSA TENGGARA TIMUR,,Indonesia,,,,-10.4788011,121.9871292,https://maps.google.com/?cid=0x0:0x802b6c65800f8b60,
restaurant,Komplek perumahan,Lisa Lado,"GXPP+QP8, Kujiratu, Kec. Sabu Tim., Kabupaten Sabu Raijua, Nusa Tenggara Tim.","Kabupaten Sabu Raijua, Nusa Tenggara Tim.",NUSA TENGGARA TIMUR,,Indonesia,,,,-10.4630875,121.9868281,https://maps.google.com/?cid=0x0:0xba2a017329c5b145,
restaurant,Kedai Kopi,Julyo Savel Lomi rihi,"CWXX+RW, Eiada, Kec. Sabu Tim., Kabupaten Sabu Raijua, Nusa Tenggara Tim.","Kabupaten Sabu Raijua, Nusa Tenggara Tim.",NUSA TENGGARA TIMUR,,Indonesia,,,,-10.5504856,121.9497829,https://maps.google.com/?cid=0x0:0x3ea238df71d5cd97,
restaurant,Pom bensin/SPBU,Pretty cell Eiada,"CWXX+GJP, Eiada, Kec. Sabu Tim., Kabupaten Sabu Raijua, Nusa Tenggara Tim.","Kabupaten Sabu Raijua, Nusa Tenggara Tim.",NUSA TENGGARA TIMUR,,Indonesia,,,,-10.5511662,121.949074,https://maps.google.com/?cid=0x0:0x9da6c17513e1d4c0,
restaurant,Rumah wisata,Djami Wila Home's,"CRH7+3QV, Teriwu, Kec. Sabu Bar., Kabupaten Sabu Raijua, Nusa Tenggara Tim.","Kabupaten Sabu Raijua, Nusa Tenggara Tim.",NUSA TENGGARA TIMUR,,Indonesia,81156797941.0,,,-10.5722686,121.8144221,https://maps.google.com/?cid=0x0:0x39d5d9bf26025195,
restaurant,Bar,Thomaz Kedai Hopy,"CR2P+W9C, Mehona, Kecamatan Sabu Liae, Kabupaten Sabu Raijua, Nusa Tenggara Tim.","Kabupaten Sabu Raijua, Nusa Tenggara Tim.",NUSA TENGGARA TIMUR,,Indonesia,81339514314.0,,,-10.5976868,121.8358871,https://maps.google.com/?cid=0x0:0xda30e61eb9f67f32,
restaurant,restaurant,Kecamatan Sabu Liae,"Kabupaten Sabu Raijua, Nusa Tenggara Tim.","Kabupaten Sabu Raijua, Nusa Tenggara Tim.",NUSA TENGGARA TIMUR,,Indonesia,,,,-10.6015691,121.8688783,https://maps.google.com/?cid=0x0:0x957814b2c371884a,
restaurant,Restoran,Ikan kuah asam johe,"GR4Q+5QV, Mebba, Kec. Sabu Bar., Kabupaten Sabu Raijua, Nusa Tenggara Tim.","Kabupaten Sabu Raijua, Nusa Tenggara Tim.",NUSA TENGGARA TIMUR,,Indonesia,82333556352.0,,,-10.4945157,121.8394313,https://maps.google.com/?cid=0x0:0xbbb7ba5521cf64a4,
restaurant,Pondok Pegunungan,Koro Radjah,"FRQC+67H, Ledeana, Kec. Sabu Bar., Kabupaten Sabu Raijua, Nusa Tenggara Tim.","Kabupaten Sabu Raijua, Nusa Tenggara Tim.",NUSA TENGGARA TIMUR,,Indonesia,,,,-10.5109673,121.8203738,https://maps.google.com/?cid=0x0:0x40cccbcda792f44,
restaurant,Rumah Kaca,TERZON LEE NATTO,"FRCJ+5VF, Depe, Kec. Sabu Bar., Kabupaten Sabu Raijua, Nusa Tenggara Tim.","Kabupaten Sabu Raijua, Nusa Tenggara Tim.",NUSA TENGGARA TIMUR,,Indonesia,82236998764.0,,,-10.5295603,121.8321569,https://maps.google.com/?cid=0x0:0x3bf8d24fbb47ea03,
restaurant,Rumah Makan,Kedai Dinner Toci,"Simpang Tiga Tenihawu, Mebba, Kec. Sabu Bar., Kabupaten Sabu Raijua, Nusa Tenggara Tim.","Kabupaten Sabu Raijua, Nusa Tenggara Tim.",NUSA TENGGARA TIMUR,,Indonesia,81236371207.0,,,-10.4991692,121.8398052,https://maps.google.com/?cid=0x0:0x1c48dc72fb2e5c4a,
restaurant,Rumah Makan,Olivia Chandrika(otvina),"FR6X+Q66, Raemude, Kec. Sabu Bar., Kabupaten Sabu Raijua, Nusa Tenggara Tim.","Kabupaten Sabu Raijua, Nusa Tenggara Tim.",NUSA TENGGARA TIMUR,,Indonesia,,,,-10.5367812,121.8480935,https://maps.google.com/?cid=0x0:0x55890e2d458b2868,
restaurant,Studio Foto,Mr. Cafe  Studio Foto,"Mebba, Kec. Sabu Bar., Kabupaten Sabu Raijua, Nusa Tenggara Tim.","Kabupaten Sabu Raijua, Nusa Tenggara Tim.",NUSA TENGGARA TIMUR,,Indonesia,81353789464.0,,,-10.5010181,121.8407518,https://maps.google.com/?cid=0x0:0x9fd977b6ad4740b,
restaurant,Bar Kopi Espresso,Melcky Male Here,"CR3C+C33, Eikare, Kecamatan Sabu Liae, Kabupaten Sabu Raijua, Nusa Tenggara Tim.","Kabupaten Sabu Raijua, Nusa Tenggara Tim.",NUSA TENGGARA TIMUR,,Indonesia,,,,-10.5964889,121.8201657,https://maps.google.com/?cid=0x0:0x4fd9b3860f881e54,
restaurant,restaurant,LUKAS ROHI,"CR63+5JG, Teriwu, Kec. Sabu Bar., Kabupaten Sabu Raijua, Nusa Tenggara Tim.","Kabupaten Sabu Raijua, Nusa Tenggara Tim.",NUSA TENGGARA TIMUR,,Indonesia,,,,-10.5895553,121.8040778,https://maps.google.com/?cid=0x0:0xdee5b7bfa256815c,
restaurant,restaurant,Nesta Djara Lulu,"9RVH+5JF, Raerobo, Kecamatan Sabu Liae, Kabupaten Sabu Raijua, Nusa Tenggara Tim.","Kabupaten Sabu Raijua, Nusa Tenggara Tim.",NUSA TENGGARA TIMUR,,Indonesia,85210962895.0,,,-10.6070545,121.8290438,https://maps.google.com/?cid=0x0:0xb4c72a8be176e7cc,
restaurant,restaurant,Sadrak wadi,"CR44+FW7, Teriwu, Kec. Sabu Bar., Kabupaten Sabu Raijua, Nusa Tenggara Tim.","Kabupaten Sabu Raijua, Nusa Tenggara Tim.",NUSA TENGGARA TIMUR,,Indonesia,,,,-10.5938291,121.8072875,https://maps.google.com/?cid=0x0:0x933b6a69438a1515,
restaurant,Tempat Minum Bir Luar Ruangan,BPK malebe,"CRR7+FCF, Raenalulu, Kec. Sabu Bar., Kabupaten Sabu Raijua, Nusa Tenggara Tim.","Kabupaten Sabu Raijua, Nusa Tenggara Tim.",NUSA TENGGARA TIMUR,,Indonesia,,,,-10.5588044,121.8135556,https://maps.google.com/?cid=0x0:0x72fc4d7044c5a1da,
restaurant,Rumah Makan,Rumah Makan Seafood Raijua,"9JV9+W7J, Ledeunu, Kec. Raijua, Kabupaten Sabu Raijua, Nusa Tenggara Tim.","Kabupaten Sabu Raijua, Nusa Tenggara Tim.",NUSA TENGGARA TIMUR,,Indonesia,,,,-10.6049894,121.618163,https://maps.google.com/?cid=0x0:0x244735a2e77a0e28,
restaurant,Kafe,Cafe Hethers,"Tehi Hau, Mebba, Kec. Sabu Bar., Kabupaten Sabu Raijua, Nusa Tenggara Tim. 85395","Mebba, Kec. Sabu Bar., Kabupaten Sabu Raijua",NUSA TENGGARA TIMUR,85395.0,Indonesia,81239422626.0,,,-10.4976461,121.8392448,https://maps.google.com/?cid=0x0:0x8caf2051e70cc363,
restaurant,restaurant,Bill Resto  Cafe,"GVRH+VXC, Menia, Kec. Sabu Bar., Kabupaten Sabu Raijua, Nusa Tenggara Tim.","Kabupaten Sabu Raijua, Nusa Tenggara Tim.",NUSA TENGGARA TIMUR,,Indonesia,,,,-10.45782,121.879898,https://maps.google.com/?cid=0x0:0xc1f96caaac0023c5,
restaurant,restaurant,Dapur Kaka Ninii,"FRVX+GHX, Raeloro, Kec. Sabu Bar., Kabupaten Sabu Raijua, Nusa Tenggara Tim.","Kabupaten Sabu Raijua, Nusa Tenggara Tim.",NUSA TENGGARA TIMUR,,Indonesia,,,,-10.505135,121.849402,https://maps.google.com/?cid=0x0:0x9189bc21d55ec34d,
restaurant,restaurant,Kec. Hawu Mehara,"Kabupaten Sabu Raijua, Nusa Tenggara Tim.","Kabupaten Sabu Raijua, Nusa Tenggara Tim.",NUSA TENGGARA TIMUR,,Indonesia,,,,-10.5744578,121.7236313,https://maps.google.com/?cid=0x0:0x570cb4b99e28effb,
restaurant,Bakso,Bakso Aphenia,"CPFP+8R3, Tanajawa, Kec. Hawu Mehara, Kabupaten Sabu Raijua, Nusa Tenggara Tim.","Kabupaten Sabu Raijua, Nusa Tenggara Tim.",NUSA TENGGARA TIMUR,,Indonesia,82144469129.0,,,-10.5767496,121.7367434,https://maps.google.com/?cid=0x0:0xb9db4c5fff7bee42,
restaurant,Bakso,Bakso Ibu Riny,"Tanajawa, Kec. Hawu Mehara, Kabupaten Sabu Raijua, Nusa Tenggara Tim. 85391","Kec. Hawu Mehara, Kabupaten Sabu Raijua",NUSA TENGGARA TIMUR,85391.0,Indonesia,85239103055.0,,,-10.5636875,121.7409375,https://maps.google.com/?cid=0x0:0xf3e7d9549f0efd63,
restaurant,Komplek perumahan,Tanajawa,"CPFP+8R3, Tanajawa, Kec. Hawu Mehara, Kabupaten Sabu Raijua, Nusa Tenggara Tim.","Kabupaten Sabu Raijua, Nusa Tenggara Tim.",NUSA TENGGARA TIMUR,,Indonesia,82144469129.0,,,-10.5767348,121.737035,https://maps.google.com/?cid=0x0:0xe1bf69145009045b,
restaurant,restaurant,Seler hada,"CP2M+99F, Lobohede, Kec. Hawu Mehara, Kabupaten Sabu Raijua, Nusa Tenggara Tim.","Kabupaten Sabu Raijua, Nusa Tenggara Tim.",NUSA TENGGARA TIMUR,,Indonesia,,,,-10.59848,121.7327693,https://maps.google.com/?cid=0x0:0xecda8bf0974f5d3e,
restaurant,restaurant,MAHARI .E. LOMI,"CP89+XW, Lederaga, Kec. Hawu Mehara, Kabupaten Sabu Raijua, Nusa Tenggara Tim.","Kabupaten Sabu Raijua, Nusa Tenggara Tim.",NUSA TENGGARA TIMUR,,Indonesia,,,,-10.5825261,121.719842,https://maps.google.com/?cid=0x0:0xe1a2c3818865cec1,
restaurant,Komplek perumahan,Pante Lie Lena,"CMGP+CXW, Molie, Kec. Hawu Mehara, Kabupaten Sabu Raijua, Nusa Tenggara Tim.","Kabupaten Sabu Raijua, Nusa Tenggara Tim.",NUSA TENGGARA TIMUR,,Indonesia,,,,-10.573885,121.687444,https://maps.google.com/?cid=0x0:0x17c71fd58ebae2ce,
restaurant,Taman,SIMPANG AGACO,"CP2J+PCH, Lobohede, Kec. Hawu Mehara, Kabupaten Sabu Raijua, Nusa Tenggara Tim.","Kabupaten Sabu Raijua, Nusa Tenggara Tim.",NUSA TENGGARA TIMUR,,Indonesia,,,,-10.598044,121.730653,https://maps.google.com/?cid=0x0:0xd59b777b5ce9897d,
restaurant,Indonesia,Warung Trilitokim Raijua,"RT.07/RW.04, Ledeunu, Kec. Raijua, Kabupaten Sabu Raijua, Nusa Tenggara Tim.","Kabupaten Sabu Raijua, Nusa Tenggara Tim.",NUSA TENGGARA TIMUR,,Indonesia,82247613996.0,,,-10.6045424,121.6179945,https://maps.google.com/?cid=0x0:0xb15cb5dfeff61c05,
restaurant,restaurant,Nusa Tenggara Tim.,,Nusa Tenggara Tim.,NUSA TENGGARA TIMUR,,Indonesia,,,,-8.6573819,121.0793705,https://maps.google.com/?cid=0x0:0x1030bfbcaf71ae0,
restaurant,Rumah Makan,Rumah Makan Seafood Raijua,"9JV9+W7J, Ledeunu, Kec. Raijua, Kabupaten Sabu Raijua, Nusa Tenggara Tim.","Kabupaten Sabu Raijua, Nusa Tenggara Tim.",NUSA TENGGARA TIMUR,,Indonesia,,,,-10.6049894,121.618163,https://maps.google.com/?cid=0x0:0x244735a2e77a0e28,
restaurant,Bakso,Bakso Ibu Riny,"Tanajawa, Kec. Hawu Mehara, Kabupaten Sabu Raijua, Nusa Tenggara Tim. 85391","Kec. Hawu Mehara, Kabupaten Sabu Raijua",NUSA TENGGARA TIMUR,85391.0,Indonesia,85239103055.0,,,-10.5636875,121.7409375,https://maps.google.com/?cid=0x0:0xf3e7d9549f0efd63,
restaurant,Restoran,Depot Makan Kalijogo,"GR4Q+GWR, Mebba, Kec. Sabu Bar., Kabupaten Sabu Raijua, Nusa Tenggara Tim.","Kabupaten Sabu Raijua, Nusa Tenggara Tim.",NUSA TENGGARA TIMUR,,Indonesia,,,,-10.4936413,121.8397745,https://maps.google.com/?cid=0x0:0x3dc9d78dfb76504f,
restaurant,Indonesia,WARUNG MAKAN TAMARA  KEFAS,"9JV6+MVR, Ledeunu, Kec. Raijua, Kabupaten Sabu Raijua, Nusa Tenggara Tim.","Kabupaten Sabu Raijua, Nusa Tenggara Tim.",NUSA TENGGARA TIMUR,,Indonesia,81327174185.0,,,-10.6057625,121.6121406,https://maps.google.com/?cid=0x0:0xa5db398a1b50776,
restaurant,Indonesia,WArung makan RUBA DEO,"9JWC+49M, Jalan, namo, Raijua, Sabu Raijua Regency, East Nusa Tenggara","Kabupaten Sabu Raijua, Nusa Tenggara Tim.",NUSA TENGGARA TIMUR,,Indonesia,,,,-10.6046701,121.6209233,https://maps.google.com/?cid=0x0:0x15f9edb287271774,
restaurant,Pondok Pegunungan,Koro Radjah,"FRQC+67H, Ledeana, Kec. Sabu Bar., Kabupaten Sabu Raijua, Nusa Tenggara Tim.","Kabupaten Sabu Raijua, Nusa Tenggara Tim.",NUSA TENGGARA TIMUR,,Indonesia,,,,-10.5109673,121.8203738,https://maps.google.com/?cid=0x0:0x40cccbcda792f44,
restaurant,Restoran,Ro'o Luwa,"H664+4J5, Jl. Lukas Dairo Bili, Wee Londa, Kec. Loura, Kabupaten Sumba Barat Daya, Nusa Tenggara Tim.","Kabupaten Sumba Barat Daya, Nusa Tenggara Tim.",NUSA TENGGARA TIMUR,,Indonesia,82145441081.0,,,-9.4397402,119.2066122,https://maps.google.com/?cid=0x0:0xabd524235b9d5344,
restaurant,Rumah Makan,Kedai Dinner Toci,"Simpang Tiga Tenihawu, Mebba, Kec. Sabu Bar., Kabupaten Sabu Raijua, Nusa Tenggara Tim.","Kabupaten Sabu Raijua, Nusa Tenggara Tim.",NUSA TENGGARA TIMUR,,Indonesia,81236371207.0,,,-10.4991692,121.8398052,https://maps.google.com/?cid=0x0:0x1c48dc72fb2e5c4a,
restaurant,Rumah Makan,Olivia Chandrika(otvina),"FR6X+Q66, Raemude, Kec. Sabu Bar., Kabupaten Sabu Raijua, Nusa Tenggara Tim.","Kabupaten Sabu Raijua, Nusa Tenggara Tim.",NUSA TENGGARA TIMUR,,Indonesia,,,,-10.5367812,121.8480935,https://maps.google.com/?cid=0x0:0x55890e2d458b2868,
restaurant,Rumah Makan,Vemy Ratu,"GVRH+X4, Menia, Kec. Sabu Bar., Kabupaten Sabu Raijua, Nusa Tenggara Tim.","Kabupaten Sabu Raijua, Nusa Tenggara Tim.",NUSA TENGGARA TIMUR,,Indonesia,,,,-10.4572304,121.8785306,https://maps.google.com/?cid=0x0:0x1851ca5c4234053b,
restaurant,restaurant,Kec. Raijua,"Kabupaten Sabu Raijua, Nusa Tenggara Tim.","Kabupaten Sabu Raijua, Nusa Tenggara Tim.",NUSA TENGGARA TIMUR,,Indonesia,,,,-10.6051556,121.6181462,https://maps.google.com/?cid=0x0:0x25f150fcbc1533b6,
cafe,cafe,Kec. Sabu Bar.,"Kabupaten Sabu Raijua, Nusa Tenggara Tim.","Kabupaten Sabu Raijua, Nusa Tenggara Tim.",NUSA TENGGARA TIMUR,,Indonesia,,,,-10.4996566,121.8400338,https://maps.google.com/?cid=0x0:0xa5c2c568f439a950,
cafe,Restoran,Rumbul Cafe,"FRXP+JJJ, Mebba, Kec. Sabu Bar., Kabupaten Sabu Raijua, Nusa Tenggara Tim.","Kabupaten Sabu Raijua, Nusa Tenggara Tim.",NUSA TENGGARA TIMUR,,Indonesia,81338039536.0,,,-10.5009225,121.836519,https://maps.google.com/?cid=0x0:0xef6eea191feac7a1,
cafe,Studio Foto,Mr. Cafe  Studio Foto,"Mebba, Kec. Sabu Bar., Kabupaten Sabu Raijua, Nusa Tenggara Tim.","Kabupaten Sabu Raijua, Nusa Tenggara Tim.",NUSA TENGGARA TIMUR,,Indonesia,81353789464.0,,,-10.5010181,121.8407518,https://maps.google.com/?cid=0x0:0x9fd977b6ad4740b,
cafe,Kafe,Cafe Hethers,"Tehi Hau, Mebba, Kec. Sabu Bar., Kabupaten Sabu Raijua, Nusa Tenggara Tim. 85395","Mebba, Kec. Sabu Bar., Kabupaten Sabu Raijua",NUSA TENGGARA TIMUR,85395.0,Indonesia,81239422626.0,,,-10.4976461,121.8392448,https://maps.google.com/?cid=0x0:0x8caf2051e70cc363,
cafe,Kafe,Run Run Signature Drink,"GR2Q+2CR, Mebba, Kec. Sabu Bar., Kabupaten Sabu Raijua, Nusa Tenggara Tim.","Kabupaten Sabu Raijua, Nusa Tenggara Tim.",NUSA TENGGARA TIMUR,,Indonesia,81239798742.0,,,-10.4998766,121.8385184,https://maps.google.com/?cid=0x0:0xc2a1ea4cd6234cef,
cafe,Restoran,Resto  Karaoke Pondok Lontar SARAI,"Jln. Eltari No.KM. 2, Raemadia, Kec. Sabu Bar., Kabupaten Sabu Raijua, Nusa Tenggara Tim. 85392","Raemadia, Kec. Sabu Bar., Kabupaten Sabu Raijua",NUSA TENGGARA TIMUR,85392.0,Indonesia,82263636357.0,,,-10.484739,121.8566204,https://maps.google.com/?cid=0x0:0xdba1b713bffb771b,
cafe,Komplek perumahan,Sabu Barat,"FVRH+5J2, Nyabbuwawi, Kec. Sabu Bar., Kabupaten Sabu Raijua, Nusa Tenggara Tim.","Kabupaten Sabu Raijua, Nusa Tenggara Tim.",NUSA TENGGARA TIMUR,,Indonesia,82338885456.0,,,-10.5096084,121.8790306,https://maps.google.com/?cid=0x0:0x22a8bcf8a5d3b9e9,
cafe,Pembangunan Perumahan,Kedai Inter (Dinsos Area),"GVWG+X6M, Menia, Kec. Sabu Bar., Kabupaten Sabu Raijua, Nusa Tenggara Tim.","Kabupaten Sabu Raijua, Nusa Tenggara Tim.",NUSA TENGGARA TIMUR,,Indonesia,82237450950.0,,,-10.4525455,121.8755332,https://maps.google.com/?cid=0x0:0x50ac645b78cab3e5,
cafe,Kedai Kopi,WARKOP RILEKS,"Jl. Pelabuhan, Mebba, Kec. Sabu Bar., Kabupaten Sabu Raijua, Nusa Tenggara Tim. 85391","Mebba, Kec. Sabu Bar., Kabupaten Sabu Raijua",NUSA TENGGARA TIMUR,85391.0,Indonesia,82145777313.0,,,-10.4911692,121.838978,https://maps.google.com/?cid=0x0:0x3014180268859af6,
cafe,Dinas Kehutanan,Anfield,"Unnamed Road, Menia, Kec. Sabu Bar., Kabupaten Sabu Raijua, Nusa Tenggara Tim.","Kabupaten Sabu Raijua, Nusa Tenggara Tim.",NUSA TENGGARA TIMUR,,Indonesia,85333982999.0,,,-10.4617438,121.8747486,https://maps.google.com/?cid=0x0:0x55b3aee23d848cb6,
cafe,Sesuai untuk keluarga,Rumah makan nata jawa 2,"GV74+CGV, Jl. Trans Seba Bolou, Raeloro, Kec. Sabu Bar., Kabupaten Sabu Raijua, Nusa Tenggara Tim.","Kabupaten Sabu Raijua, Nusa Tenggara Tim.",NUSA TENGGARA TIMUR,,Indonesia,85853045086.0,,,-10.486391,121.856303,https://maps.google.com/?cid=0x0:0x3fffecc27648304a,
cafe,Dapur Umum,Warung AA,"GVCG+RFM, Roboaba, Kec. Sabu Bar., Kabupaten Sabu Raijua, Nusa Tenggara Tim.","Kabupaten Sabu Raijua, Nusa Tenggara Tim.",NUSA TENGGARA TIMUR,,Indonesia,,,,-10.4779202,121.8761846,https://maps.google.com/?cid=0x0:0x2d58819b30b7387b,
cafe,Hotel,Rio Djami,"FV9X+XMG, Raekore, Kec. Sabu Bar., Kabupaten Sabu Raijua, Nusa Tenggara Tim.","Kabupaten Sabu Raijua, Nusa Tenggara Tim.",NUSA TENGGARA TIMUR,,Indonesia,,,,-10.5300625,121.8992031,https://maps.google.com/?cid=0x0:0xb31b5eebe26e7700,
cafe,Makanan Siap Saji,ANSTIG CREW,"Jl. Masjid An'Nur Seba No.23, Mebba, Kec. Sabu Bar., Kabupaten Sabu Raijua, Nusa Tenggara Tim.","Kabupaten Sabu Raijua, Nusa Tenggara Tim.",NUSA TENGGARA TIMUR,,Indonesia,82147035778.0,,,-10.4929893,121.839497,https://maps.google.com/?cid=0x0:0x45beba2624b67e60,
cafe,Pondok Pegunungan,Koro Radjah,"FRQC+67H, Ledeana, Kec. Sabu Bar., Kabupaten Sabu Raijua, Nusa Tenggara Tim.","Kabupaten Sabu Raijua, Nusa Tenggara Tim.",NUSA TENGGARA TIMUR,,Indonesia,,,,-10.5109673,121.8203738,https://maps.google.com/?cid=0x0:0x40cccbcda792f44,
cafe,Rumah Kaca,TERZON LEE NATTO,"FRCJ+5VF, Depe, Kec. Sabu Bar., Kabupaten Sabu Raijua, Nusa Tenggara Tim.","Kabupaten Sabu Raijua, Nusa Tenggara Tim.",NUSA TENGGARA TIMUR,,Indonesia,82236998764.0,,,-10.5295603,121.8321569,https://maps.google.com/?cid=0x0:0x3bf8d24fbb47ea03,
cafe,Restoran,BILL RESTO,"GR5Q+4M8, Mebba, Kec. Sabu Bar., Kabupaten Sabu Raijua, Nusa Tenggara Tim.","Kabupaten Sabu Raijua, Nusa Tenggara Tim.",NUSA TENGGARA TIMUR,,Indonesia,82339925154.0,,,-10.4917192,121.8397731,https://maps.google.com/?cid=0x0:0x7abd80905d9d3662,
cafe,Bar,Thomaz Kedai Hopy,"CR2P+W9C, Mehona, Kecamatan Sabu Liae, Kabupaten Sabu Raijua, Nusa Tenggara Tim.","Kabupaten Sabu Raijua, Nusa Tenggara Tim.",NUSA TENGGARA TIMUR,,Indonesia,81339514314.0,,,-10.5976868,121.8358871,https://maps.google.com/?cid=0x0:0xda30e61eb9f67f32,
cafe,Restoran,Depot Makan Kalijogo,"GR4Q+GWR, Mebba, Kec. Sabu Bar., Kabupaten Sabu Raijua, Nusa Tenggara Tim.","Kabupaten Sabu Raijua, Nusa Tenggara Tim.",NUSA TENGGARA TIMUR,,Indonesia,,,,-10.4936413,121.8397745,https://maps.google.com/?cid=0x0:0x3dc9d78dfb76504f,
cafe,Hotel,aiboba.sabu,"GX4G+9P5, Bolou, Kec. Sabu Tim., Kabupaten Sabu Raijua, Nusa Tenggara Tim.","Kabupaten Sabu Raijua, Nusa Tenggara Tim.",NUSA TENGGARA TIMUR,,Indonesia,81337151581.0,,,-10.4941245,121.9768644,https://maps.google.com/?cid=0x0:0xf60062cc5ae61b9f,
cafe,Tujuan Wisata,Pantai Hewau,"Raemadia, Kec. Sabu Bar., Kabupaten Sabu Raijua, Nusa Tenggara Tim.","Kabupaten Sabu Raijua, Nusa Tenggara Tim.",NUSA TENGGARA TIMUR,,Indonesia,,,,-10.4730497,121.8437997,https://maps.google.com/?cid=0x0:0x3b79dcfcf5fecca9,
cafe,Ayam,Depot Makan Baim,"GR4Q+HW8, Mebba, Kec. Sabu Bar., Kabupaten Sabu Raijua, Nusa Tenggara Tim.","Kabupaten Sabu Raijua, Nusa Tenggara Tim.",NUSA TENGGARA TIMUR,,Indonesia,82147150582.0,,,-10.4935849,121.8398181,https://maps.google.com/?cid=0x0:0x857cf1a7e682ae58,
cafe,cafe,Warung Mas Al,"GVRC+8X2, Menia, Kec. Sabu Bar., Kabupaten Sabu Raijua, Nusa Tenggara Tim.","Kabupaten Sabu Raijua, Nusa Tenggara Tim.",NUSA TENGGARA TIMUR,,Indonesia,,,,-10.458966,121.8728681,https://maps.google.com/?cid=0x0:0x19f084f73f6d617c,
cafe,Kedai Kopi,Amajhu,"FX32+3H, Eiada, Kec. Sabu Tim., Kabupaten Sabu Raijua, Nusa Tenggara Tim.","Kabupaten Sabu Raijua, Nusa Tenggara Tim.",NUSA TENGGARA TIMUR,,Indonesia,,,,-10.5473864,121.9513577,https://maps.google.com/?cid=0x0:0xffda744f5ffcf9fe,
cafe,Restoran,RM Primadona,"Jl. Trans Seba Bolou, RT 011 / RW 006, Dusun Bora, Mebba, Sabu Barat, Mebba, Kec. Sabu Bar., Terdamu, Nusa Tenggara Tim. 85391","RT 011 / RW 006, Dusun Bora, Mebba, Sabu Barat, Mebba, Kec. Sabu Bar., Terdamu",NUSA TENGGARA TIMUR,85391.0,Indonesia,81353413739.0,,,-10.491229,121.850277,https://maps.google.com/?cid=0x0:0x3c5db302261f8b7d,
cafe,cafe,Kec. Sabu Tengah,"Kabupaten Sabu Raijua, Nusa Tenggara Tim.","Kabupaten Sabu Raijua, Nusa Tenggara Tim.",NUSA TENGGARA TIMUR,,Indonesia,,,,-10.455074,121.9356414,https://maps.google.com/?cid=0x0:0x8ba6c85f529ad7ae,
cafe,Hotel,aiboba.sabu,"GX4G+9P5, Bolou, Kec. Sabu Tim., Kabupaten Sabu Raijua, Nusa Tenggara Tim.","Kabupaten Sabu Raijua, Nusa Tenggara Tim.",NUSA TENGGARA TIMUR,,Indonesia,81337151581.0,,,-10.4941245,121.9768644,https://maps.google.com/?cid=0x0:0xf60062cc5ae61b9f,
cafe,Kedai Kopi,Amajhu,"FX32+3H, Eiada, Kec. Sabu Tim., Kabupaten Sabu Raijua, Nusa Tenggara Tim.","Kabupaten Sabu Raijua, Nusa Tenggara Tim.",NUSA TENGGARA TIMUR,,Indonesia,,,,-10.5473864,121.9513577,https://maps.google.com/?cid=0x0:0xffda744f5ffcf9fe,
cafe,Pom bensin/SPBU,Pretty cell Eiada,"CWXX+GJP, Eiada, Kec. Sabu Tim., Kabupaten Sabu Raijua, Nusa Tenggara Tim.","Kabupaten Sabu Raijua, Nusa Tenggara Tim.",NUSA TENGGARA TIMUR,,Indonesia,,,,-10.5511662,121.949074,https://maps.google.com/?cid=0x0:0x9da6c17513e1d4c0,
cafe,Restoran,Resto  Karaoke Pondok Lontar SARAI,"Jln. Eltari No.KM. 2, Raemadia, Kec. Sabu Bar., Kabupaten Sabu Raijua, Nusa Tenggara Tim. 85392","Raemadia, Kec. Sabu Bar., Kabupaten Sabu Raijua",NUSA TENGGARA TIMUR,85392.0,Indonesia,82263636357.0,,,-10.484739,121.8566204,https://maps.google.com/?cid=0x0:0xdba1b713bffb771b,
cafe,cafe,Salome AR,"Puruwutu, Keliha, Kec. Sabu Tim., Kabupaten Sabu Raijua, Nusa Tenggara Tim. 85392","Keliha, Kec. Sabu Tim., Kabupaten Sabu Raijua",NUSA TENGGARA TIMUR,85392.0,Indonesia,82133766070.0,,,-10.4679433,121.9705674,https://maps.google.com/?cid=0x0:0xb7a3e06b8dfc45f8,
cafe,Pembangunan Perumahan,Kedai Inter (Dinsos Area),"GVWG+X6M, Menia, Kec. Sabu Bar., Kabupaten Sabu Raijua, Nusa Tenggara Tim.","Kabupaten Sabu Raijua, Nusa Tenggara Tim.",NUSA TENGGARA TIMUR,,Indonesia,82237450950.0,,,-10.4525455,121.8755332,https://maps.google.com/?cid=0x0:0x50ac645b78cab3e5,
cafe,Ayam,Depot Bakso Empat Dara,"Lobodei, Kec. Sabu Tim., Kabupaten Sabu Raijua, Nusa Tenggara Tim. 85392","Kec. Sabu Tim., Kabupaten Sabu Raijua",NUSA TENGGARA TIMUR,85392.0,Indonesia,82312895972.0,,,-10.5220715,121.9669277,https://maps.google.com/?cid=0x0:0x2cb9282cee9d05d3,
cafe,Dapur Umum,Dapur Mama Ghea,"FXW9+WQ, Bolou, Kec. Sabu Tim., Kabupaten Sabu Raijua, Nusa Tenggara Tim.","Kabupaten Sabu Raijua, Nusa Tenggara Tim.",NUSA TENGGARA TIMUR,,Indonesia,82247163984.0,,,-10.5027399,121.9693921,https://maps.google.com/?cid=0x0:0x9e09b74448b69f6f,
cafe,Rumah Makan,Rumah Makan Mbak Eva,"GXJC+V4G, Jl. Trans Seba Bolou, Keliha, Kec. Sabu Tim., Kabupaten Sabu Raijua, Nusa Tenggara Tim.","Kabupaten Sabu Raijua, Nusa Tenggara Tim.",NUSA TENGGARA TIMUR,,Indonesia,,,,-10.4678097,121.9703333,https://maps.google.com/?cid=0x0:0x2994b86c80de3c8a,
cafe,Komplek perumahan,Sabu Barat,"FVRH+5J2, Nyabbuwawi, Kec. Sabu Bar., Kabupaten Sabu Raijua, Nusa Tenggara Tim.","Kabupaten Sabu Raijua, Nusa Tenggara Tim.",NUSA TENGGARA TIMUR,,Indonesia,82338885456.0,,,-10.5096084,121.8790306,https://maps.google.com/?cid=0x0:0x22a8bcf8a5d3b9e9,
cafe,Rumah Makan,Sandro Ndoda,"GW4M+9HH, Eimmadake, Kec. Sabu Tengah, Kabupaten Sabu Raijua, Nusa Tenggara Tim.","Kabupaten Sabu Raijua, Nusa Tenggara Tim.",NUSA TENGGARA TIMUR,,Indonesia,,,,-10.4943338,121.9337968,https://maps.google.com/?cid=0x0:0xbe238275bf89772f,
cafe,Dinas Kehutanan,Anfield,"Unnamed Road, Menia, Kec. Sabu Bar., Kabupaten Sabu Raijua, Nusa Tenggara Tim.","Kabupaten Sabu Raijua, Nusa Tenggara Tim.",NUSA TENGGARA TIMUR,,Indonesia,85333982999.0,,,-10.4617438,121.8747486,https://maps.google.com/?cid=0x0:0x55b3aee23d848cb6,
cafe,Hotel,Rio Djami,"FV9X+XMG, Raekore, Kec. Sabu Bar., Kabupaten Sabu Raijua, Nusa Tenggara Tim.","Kabupaten Sabu Raijua, Nusa Tenggara Tim.",NUSA TENGGARA TIMUR,,Indonesia,,,,-10.5300625,121.8992031,https://maps.google.com/?cid=0x0:0xb31b5eebe26e7700,
cafe,Rumah Makan,Depot Se’i Pojok Indah,"GVWH+4VH, Menia, Kec. Sabu Bar., Kabupaten Sabu Raijua, Nusa Tenggara Tim.","Kabupaten Sabu Raijua, Nusa Tenggara Tim.",NUSA TENGGARA TIMUR,,Indonesia,,,,-10.4546889,121.879729,https://maps.google.com/?cid=0x0:0x5216ea02b5bff983,
cafe,Makanan Kecil,AR Kitchen 2 (AMA RISLY),"Bolow - Seba, Bolou, Kec. Sabu Tim., Kabupaten Sabu Raijua, Nusa Tenggara Tim.","Kabupaten Sabu Raijua, Nusa Tenggara Tim.",NUSA TENGGARA TIMUR,,Indonesia,81250047980.0,,,-10.4999226,121.9719167,https://maps.google.com/?cid=0x0:0xf2dd8960052cf710,
cafe,Sesuai untuk keluarga,Rumah makan nata jawa 2,"GV74+CGV, Jl. Trans Seba Bolou, Raeloro, Kec. Sabu Bar., Kabupaten Sabu Raijua, Nusa Tenggara Tim.","Kabupaten Sabu Raijua, Nusa Tenggara Tim.",NUSA TENGGARA TIMUR,,Indonesia,85853045086.0,,,-10.486391,121.856303,https://maps.google.com/?cid=0x0:0x3fffecc27648304a,
cafe,Toko Roti,Yanti Bakery,"GWRR+WVM, Eilode, Kec. Sabu Tengah, Kabupaten Sabu Raijua, Nusa Tenggara Tim.","Kabupaten Sabu Raijua, Nusa Tenggara Tim.",NUSA TENGGARA TIMUR,,Indonesia,81231450801.0,,,-10.4577197,121.9420851,https://maps.google.com/?cid=0x0:0xccf67405123a06e2,
cafe,Rumah Makan,Omah Pawon mbak ratna,"GVQC+V4C, Unnamed Road, Menia, Kec. Sabu Bar., Kabupaten Sabu Raijua, Nusa Tenggara Tim.","Kabupaten Sabu Raijua, Nusa Tenggara Tim.",NUSA TENGGARA TIMUR,,Indonesia,82266354587.0,,,-10.4603118,121.8702563,https://maps.google.com/?cid=0x0:0xb49aa63f00e636b1,
cafe,Bar Kopi Espresso,friskky djara,"FW54+JXQ, Raekore, Kec. Sabu Bar., Kabupaten Sabu Raijua, Nusa Tenggara Tim.","Kabupaten Sabu Raijua, Nusa Tenggara Tim.",NUSA TENGGARA TIMUR,,Indonesia,,,,-10.5409046,121.9074859,https://maps.google.com/?cid=0x0:0x15499a1cb7e856db,
cafe,Kedai Kopi,Julyo Savel Lomi rihi,"CWXX+RW, Eiada, Kec. Sabu Tim., Kabupaten Sabu Raijua, Nusa Tenggara Tim.","Kabupaten Sabu Raijua, Nusa Tenggara Tim.",NUSA TENGGARA TIMUR,,Indonesia,,,,-10.5504856,121.9497829,https://maps.google.com/?cid=0x0:0x3ea238df71d5cd97,
cafe,Toko bahan makanan,Kaleb Djami adi,"GW3P+37, Eimmadake, Kec. Sabu Tengah, Kabupaten Sabu Raijua, Nusa Tenggara Tim.","Kabupaten Sabu Raijua, Nusa Tenggara Tim.",NUSA TENGGARA TIMUR,,Indonesia,,,,-10.4973352,121.935751,https://maps.google.com/?cid=0x0:0xcb93a348db51cd5,
cafe,Komplek perumahan,FERDI KALE LADO(MADOTI KALE),"GX22+F87, Loboaju, Kec. Sabu Tengah, Kabupaten Sabu Raijua, Nusa Tenggara Tim.","Kabupaten Sabu Raijua, Nusa Tenggara Tim.",NUSA TENGGARA TIMUR,,Indonesia,,,,-10.4988291,121.9508049,https://maps.google.com/?cid=0x0:0xe615b4c843bb3a3d,
cafe,cafe,Nataniel Kitu,"FX55+W9P, Eiada, Kec. Sabu Tim., Kabupaten Sabu Raijua, Nusa Tenggara Tim.","Kabupaten Sabu Raijua, Nusa Tenggara Tim.",NUSA TENGGARA TIMUR,,Indonesia,,,,-10.5401651,121.958458,https://maps.google.com/?cid=0x0:0x517b4ff7d638aa7e,
cafe,cafe,Kec. Sabu Tim.,"Kabupaten Sabu Raijua, Nusa Tenggara Tim.","Kabupaten Sabu Raijua, Nusa Tenggara Tim.",NUSA TENGGARA TIMUR,,Indonesia,,,,-10.5013069,121.9721227,https://maps.google.com/?cid=0x0:0x89fb1247da8e5a16,
cafe,Kedai Kopi,Amajhu,"FX32+3H, Eiada, Kec. Sabu Tim., Kabupaten Sabu Raijua, Nusa Tenggara Tim.","Kabupaten Sabu Raijua, Nusa Tenggara Tim.",NUSA TENGGARA TIMUR,,Indonesia,,,,-10.5473864,121.9513577,https://maps.google.com/?cid=0x0:0xffda744f5ffcf9fe,
cafe,Hotel,aiboba.sabu,"GX4G+9P5, Bolou, Kec. Sabu Tim., Kabupaten Sabu Raijua, Nusa Tenggara Tim.","Kabupaten Sabu Raijua, Nusa Tenggara Tim.",NUSA TENGGARA TIMUR,,Indonesia,81337151581.0,,,-10.4941245,121.9768644,https://maps.google.com/?cid=0x0:0xf60062cc5ae61b9f,
cafe,Ayam,Depot Bakso Empat Dara,"Lobodei, Kec. Sabu Tim., Kabupaten Sabu Raijua, Nusa Tenggara Tim. 85392","Kec. Sabu Tim., Kabupaten Sabu Raijua",NUSA TENGGARA TIMUR,85392.0,Indonesia,82312895972.0,,,-10.5220715,121.9669277,https://maps.google.com/?cid=0x0:0x2cb9282cee9d05d3,
cafe,Studio Foto,Mr. Cafe  Studio Foto,"Mebba, Kec. Sabu Bar., Kabupaten Sabu Raijua, Nusa Tenggara Tim.","Kabupaten Sabu Raijua, Nusa Tenggara Tim.",NUSA TENGGARA TIMUR,,Indonesia,81353789464.0,,,-10.5010181,121.8407518,https://maps.google.com/?cid=0x0:0x9fd977b6ad4740b,
cafe,cafe,Salome AR,"Puruwutu, Keliha, Kec. Sabu Tim., Kabupaten Sabu Raijua, Nusa Tenggara Tim. 85392","Keliha, Kec. Sabu Tim., Kabupaten Sabu Raijua",NUSA TENGGARA TIMUR,85392.0,Indonesia,82133766070.0,,,-10.4679433,121.9705674,https://maps.google.com/?cid=0x0:0xb7a3e06b8dfc45f8,
cafe,Warnet,Whataps,"GX9P+XHM, Bodae, Kec. Sabu Tim., Kabupaten Sabu Raijua, Nusa Tenggara Tim.","Kabupaten Sabu Raijua, Nusa Tenggara Tim.",NUSA TENGGARA TIMUR,,Indonesia,,,,-10.4804656,121.9858964,https://maps.google.com/?cid=0x0:0xfb1246e59c8e7267,
cafe,Dapur Umum,Dapur Mama Ghea,"FXW9+WQ, Bolou, Kec. Sabu Tim., Kabupaten Sabu Raijua, Nusa Tenggara Tim.","Kabupaten Sabu Raijua, Nusa Tenggara Tim.",NUSA TENGGARA TIMUR,,Indonesia,82247163984.0,,,-10.5027399,121.9693921,https://maps.google.com/?cid=0x0:0x9e09b74448b69f6f,
cafe,Makanan Kecil,AR Kitchen 1 (AMA RISLY),"FXVP+WV9, Loborai, Kec. Sabu Tim., Kabupaten Sabu Raijua, Nusa Tenggara Tim.","Kabupaten Sabu Raijua, Nusa Tenggara Tim.",NUSA TENGGARA TIMUR,,Indonesia,81250047980.0,,,-10.5052228,121.9872442,https://maps.google.com/?cid=0x0:0xe73d100f09f4fdb9,
cafe,Rumah Makan,Rumah Makan Mbak Eva,"GXJC+V4G, Jl. Trans Seba Bolou, Keliha, Kec. Sabu Tim., Kabupaten Sabu Raijua, Nusa Tenggara Tim.","Kabupaten Sabu Raijua, Nusa Tenggara Tim.",NUSA TENGGARA TIMUR,,Indonesia,,,,-10.4678097,121.9703333,https://maps.google.com/?cid=0x0:0x2994b86c80de3c8a,
cafe,Warnet,Ibu Rosa marselina manu bale,"GXJX+3V8, Bodae, Kec. Sabu Tim., Kabupaten Sabu Raijua, Nusa Tenggara Tim.","Kabupaten Sabu Raijua, Nusa Tenggara Tim.",NUSA TENGGARA TIMUR,,Indonesia,,,,-10.46983,121.999689,https://maps.google.com/?cid=0x0:0xfbac3565557575bf,
cafe,Makanan Kecil,AR Kitchen 2 (AMA RISLY),"Bolow - Seba, Bolou, Kec. Sabu Tim., Kabupaten Sabu Raijua, Nusa Tenggara Tim.","Kabupaten Sabu Raijua, Nusa Tenggara Tim.",NUSA TENGGARA TIMUR,,Indonesia,81250047980.0,,,-10.4999226,121.9719167,https://maps.google.com/?cid=0x0:0xf2dd8960052cf710,
cafe,Pembangunan Perumahan,Kedai Inter (Dinsos Area),"GVWG+X6M, Menia, Kec. Sabu Bar., Kabupaten Sabu Raijua, Nusa Tenggara Tim.","Kabupaten Sabu Raijua, Nusa Tenggara Tim.",NUSA TENGGARA TIMUR,,Indonesia,82237450950.0,,,-10.4525455,121.8755332,https://maps.google.com/?cid=0x0:0x50ac645b78cab3e5,
cafe,Kedai Kopi,Julyo Savel Lomi rihi,"CWXX+RW, Eiada, Kec. Sabu Tim., Kabupaten Sabu Raijua, Nusa Tenggara Tim.","Kabupaten Sabu Raijua, Nusa Tenggara Tim.",NUSA TENGGARA TIMUR,,Indonesia,,,,-10.5504856,121.9497829,https://maps.google.com/?cid=0x0:0x3ea238df71d5cd97,
cafe,Komplek perumahan,Lisa Lado,"GXPP+QP8, Kujiratu, Kec. Sabu Tim., Kabupaten Sabu Raijua, Nusa Tenggara Tim.","Kabupaten Sabu Raijua, Nusa Tenggara Tim.",NUSA TENGGARA TIMUR,,Indonesia,,,,-10.4630875,121.9868281,https://maps.google.com/?cid=0x0:0xba2a017329c5b145,
cafe,Kios,Kios Rejeki,"GX3F+RQV, Bolou, Kec. Sabu Tim., Kabupaten Sabu Raijua, Nusa Tenggara Tim.","Kabupaten Sabu Raijua, Nusa Tenggara Tim.",NUSA TENGGARA TIMUR,,Indonesia,85339004532.0,,,-10.4953829,121.9744262,https://maps.google.com/?cid=0x0:0x8bc2ee09573d4838,
cafe,Kios,WIE RONO,"GX9P+XHM, Bodae, Kec. Sabu Tim., Kabupaten Sabu Raijua, Nusa Tenggara Tim.","Kabupaten Sabu Raijua, Nusa Tenggara Tim.",NUSA TENGGARA TIMUR,,Indonesia,,,,-10.4800292,121.9864347,https://maps.google.com/?cid=0x0:0x53307652a2a1dbd6,
cafe,Minimarket,SURYA MAS,"GX3F+49R, Bolou, Kec. Sabu Tim., Kabupaten Sabu Raijua, Nusa Tenggara Tim.","Kabupaten Sabu Raijua, Nusa Tenggara Tim.",NUSA TENGGARA TIMUR,,Indonesia,,,,-10.4971298,121.9734028,https://maps.google.com/?cid=0x0:0xac4e9de0dc49d40b,
cafe,Toko Roti,SERMY RIWU,"FXFG+68, Lobodei, Kec. Sabu Tim., Kabupaten Sabu Raijua, Nusa Tenggara Tim.","Kabupaten Sabu Raijua, Nusa Tenggara Tim.",NUSA TENGGARA TIMUR,,Indonesia,,,,-10.5269369,121.9758009,https://maps.google.com/?cid=0x0:0xe813a12a43407086,
cafe,cafe,Salome Kayla,"Keliha, Kec. Sabu Tim., Kabupaten Sabu Raijua, Nusa Tenggara Tim.","Kabupaten Sabu Raijua, Nusa Tenggara Tim.",NUSA TENGGARA TIMUR,,Indonesia,82132253415.0,,,-10.459354,121.9779114,https://maps.google.com/?cid=0x0:0x5a8dd63e86d3f598,
cafe,cafe,Nataniel Kitu,"FX55+W9P, Eiada, Kec. Sabu Tim., Kabupaten Sabu Raijua, Nusa Tenggara Tim.","Kabupaten Sabu Raijua, Nusa Tenggara Tim.",NUSA TENGGARA TIMUR,,Indonesia,,,,-10.5401651,121.958458,https://maps.google.com/?cid=0x0:0x517b4ff7d638aa7e,
cafe,cafe,Kecamatan Sabu Liae,"Kabupaten Sabu Raijua, Nusa Tenggara Tim.","Kabupaten Sabu Raijua, Nusa Tenggara Tim.",NUSA TENGGARA TIMUR,,Indonesia,,,,-10.6015691,121.8688783,https://maps.google.com/?cid=0x0:0x957814b2c371884a,
cafe,Restoran,Rumbul Cafe,"FRXP+JJJ, Mebba, Kec. Sabu Bar., Kabupaten Sabu Raijua, Nusa Tenggara Tim.","Kabupaten Sabu Raijua, Nusa Tenggara Tim.",NUSA TENGGARA TIMUR,,Indonesia,81338039536.0,,,-10.5009225,121.836519,https://maps.google.com/?cid=0x0:0xef6eea191feac7a1,
cafe,Bar,Thomaz Kedai Hopy,"CR2P+W9C, Mehona, Kecamatan Sabu Liae, Kabupaten Sabu Raijua, Nusa Tenggara Tim.","Kabupaten Sabu Raijua, Nusa Tenggara Tim.",NUSA TENGGARA TIMUR,,Indonesia,81339514314.0,,,-10.5976868,121.8358871,https://maps.google.com/?cid=0x0:0xda30e61eb9f67f32,
cafe,Studio Foto,Mr. Cafe  Studio Foto,"Mebba, Kec. Sabu Bar., Kabupaten Sabu Raijua, Nusa Tenggara Tim.","Kabupaten Sabu Raijua, Nusa Tenggara Tim.",NUSA TENGGARA TIMUR,,Indonesia,81353789464.0,,,-10.5010181,121.8407518,https://maps.google.com/?cid=0x0:0x9fd977b6ad4740b,
cafe,Bar Kopi Espresso,Melcky Male Here,"CR3C+C33, Eikare, Kecamatan Sabu Liae, Kabupaten Sabu Raijua, Nusa Tenggara Tim.","Kabupaten Sabu Raijua, Nusa Tenggara Tim.",NUSA TENGGARA TIMUR,,Indonesia,,,,-10.5964889,121.8201657,https://maps.google.com/?cid=0x0:0x4fd9b3860f881e54,
cafe,Kafe,Cafe Hethers,"Tehi Hau, Mebba, Kec. Sabu Bar., Kabupaten Sabu Raijua, Nusa Tenggara Tim. 85395","Mebba, Kec. Sabu Bar., Kabupaten Sabu Raijua",NUSA TENGGARA TIMUR,85395.0,Indonesia,81239422626.0,,,-10.4976461,121.8392448,https://maps.google.com/?cid=0x0:0x8caf2051e70cc363,
cafe,Kafe,Run Run Signature Drink,"GR2Q+2CR, Mebba, Kec. Sabu Bar., Kabupaten Sabu Raijua, Nusa Tenggara Tim.","Kabupaten Sabu Raijua, Nusa Tenggara Tim.",NUSA TENGGARA TIMUR,,Indonesia,81239798742.0,,,-10.4998766,121.8385184,https://maps.google.com/?cid=0x0:0xc2a1ea4cd6234cef,
cafe,Pasar,Pasar Eilogo,"CV3Q+X6Q, Eilogo, Kecamatan Sabu Liae, Kabupaten Sabu Raijua, Nusa Tenggara Tim.","Kabupaten Sabu Raijua, Nusa Tenggara Tim.",NUSA TENGGARA TIMUR,,Indonesia,,,,-10.5939216,121.8886653,https://maps.google.com/?cid=0x0:0x2d52824861c4b05c,
cafe,Pasar,PASAR EIKARE,"CR5C+Q6, Mehona, Kecamatan Sabu Liae, Kabupaten Sabu Raijua, Nusa Tenggara Tim.","Kabupaten Sabu Raijua, Nusa Tenggara Tim.",NUSA TENGGARA TIMUR,,Indonesia,,,,-10.5905587,121.8205724,https://maps.google.com/?cid=0x0:0xbe457b115ba5d303,
cafe,Rumah Kaca,TERZON LEE NATTO,"FRCJ+5VF, Depe, Kec. Sabu Bar., Kabupaten Sabu Raijua, Nusa Tenggara Tim.","Kabupaten Sabu Raijua, Nusa Tenggara Tim.",NUSA TENGGARA TIMUR,,Indonesia,82236998764.0,,,-10.5295603,121.8321569,https://maps.google.com/?cid=0x0:0x3bf8d24fbb47ea03,
cafe,Hotel,Rio Djami,"FV9X+XMG, Raekore, Kec. Sabu Bar., Kabupaten Sabu Raijua, Nusa Tenggara Tim.","Kabupaten Sabu Raijua, Nusa Tenggara Tim.",NUSA TENGGARA TIMUR,,Indonesia,,,,-10.5300625,121.8992031,https://maps.google.com/?cid=0x0:0xb31b5eebe26e7700,
cafe,Toko Roti,Raerobo,"9RV9+2P2, Raerobo, Kecamatan Sabu Liae, Kabupaten Sabu Raijua, Nusa Tenggara Tim.","Kabupaten Sabu Raijua, Nusa Tenggara Tim.",NUSA TENGGARA TIMUR,,Indonesia,,,,-10.6074876,121.8192506,https://maps.google.com/?cid=0x0:0xf089bd3a3888fd8,
cafe,Pasar,Pasar Ilogo liae.,"CV29+536, ilogo, Kecamatan Sabu Liae, Kabupaten Sabu Raijua, Nusa Tenggara Tim.","Kabupaten Sabu Raijua, Nusa Tenggara Tim.",NUSA TENGGARA TIMUR,,Indonesia,,,,-10.599585,121.8676464,https://maps.google.com/?cid=0x0:0x712682e195728ffa,
cafe,Toko umum,UD. Bale Lalu Deo,"Jl. Benteng Ege. RT01/RT01, Dusun Railawo, Desa Waduwala, Kec, Waduwala, Kecamatan Sabu Liae, Kabupaten Sabu Raijua, Nusa Tenggara Tim.","Kabupaten Sabu Raijua, Nusa Tenggara Tim.",NUSA TENGGARA TIMUR,,Indonesia,81246996506.0,,,-10.6128561,121.8660472,https://maps.google.com/?cid=0x0:0x2741a70e37546ee,
cafe,Bar Kopi Espresso,friskky djara,"FW54+JXQ, Raekore, Kec. Sabu Bar., Kabupaten Sabu Raijua, Nusa Tenggara Tim.","Kabupaten Sabu Raijua, Nusa Tenggara Tim.",NUSA TENGGARA TIMUR,,Indonesia,,,,-10.5409046,121.9074859,https://maps.google.com/?cid=0x0:0x15499a1cb7e856db,
cafe,Rumah Makan,Kedai Dinner Toci,"Simpang Tiga Tenihawu, Mebba, Kec. Sabu Bar., Kabupaten Sabu Raijua, Nusa Tenggara Tim.","Kabupaten Sabu Raijua, Nusa Tenggara Tim.",NUSA TENGGARA TIMUR,,Indonesia,81236371207.0,,,-10.4991692,121.8398052,https://maps.google.com/?cid=0x0:0x1c48dc72fb2e5c4a,
cafe,Rumah wisata,Djami Wila Home's,"CRH7+3QV, Teriwu, Kec. Sabu Bar., Kabupaten Sabu Raijua, Nusa Tenggara Tim.","Kabupaten Sabu Raijua, Nusa Tenggara Tim.",NUSA TENGGARA TIMUR,,Indonesia,81156797941.0,,,-10.5722686,121.8144221,https://maps.google.com/?cid=0x0:0x39d5d9bf26025195,
cafe,cafe,Nesta Djara Lulu,"9RVH+5JF, Raerobo, Kecamatan Sabu Liae, Kabupaten Sabu Raijua, Nusa Tenggara Tim.","Kabupaten Sabu Raijua, Nusa Tenggara Tim.",NUSA TENGGARA TIMUR,,Indonesia,85210962895.0,,,-10.6070545,121.8290438,https://maps.google.com/?cid=0x0:0xb4c72a8be176e7cc,
cafe,cafe,Alshisha Cafe dan Bakso Ampera Lounge by Inbie,"Samping Mie Gacoan, Ampera Garden Food Festival, Jl. Ampera Raya No.119, Cilandak Tim., Ps. Minggu, Kota Jakarta Selatan, Daerah Khusus Ibukota Jakarta 12560","Ampera Garden Food Festival, Jl. Ampera Raya No.119, Cilandak Tim., Ps. Minggu, Kota Jakarta Selatan",NUSA TENGGARA TIMUR,12560.0,Indonesia,81336104113.0,,,-6.2889569,106.8177616,https://maps.google.com/?cid=0x0:0xa9e788c743c61aba,
cafe,Kafe seni,Lensa Cafe  Eatery,"Happy Walk, Jl. Suvarna Sutera Boulevard No.1 GF #06, Wanakerta, Kec. Cikupa, Kabupaten Tangerang, Banten 15560","Jl. Suvarna Sutera Boulevard No.1 GF #06, Wanakerta, Kec. Cikupa, Kabupaten Tangerang",NUSA TENGGARA TIMUR,15560.0,Indonesia,82159277889.0,,,-6.197354,106.5120167,https://maps.google.com/?cid=0x0:0xa98411e2baea3789,
cafe,cafe,Kec. Hawu Mehara,"Kabupaten Sabu Raijua, Nusa Tenggara Tim.","Kabupaten Sabu Raijua, Nusa Tenggara Tim.",NUSA TENGGARA TIMUR,,Indonesia,,,,-10.5744578,121.7236313,https://maps.google.com/?cid=0x0:0x570cb4b99e28effb,
cafe,Komplek perumahan,Tanajawa,"CPFP+8R3, Tanajawa, Kec. Hawu Mehara, Kabupaten Sabu Raijua, Nusa Tenggara Tim.","Kabupaten Sabu Raijua, Nusa Tenggara Tim.",NUSA TENGGARA TIMUR,,Indonesia,82144469129.0,,,-10.5767348,121.737035,https://maps.google.com/?cid=0x0:0xe1bf69145009045b,
cafe,cafe,Seler hada,"CP2M+99F, Lobohede, Kec. Hawu Mehara, Kabupaten Sabu Raijua, Nusa Tenggara Tim.","Kabupaten Sabu Raijua, Nusa Tenggara Tim.",NUSA TENGGARA TIMUR,,Indonesia,,,,-10.59848,121.7327693,https://maps.google.com/?cid=0x0:0xecda8bf0974f5d3e,
cafe,Pusat Perbelanjaan,Henso Hau Gunspro,"CQ94+V97, Pedarro, Kec. Hawu Mehara, Kabupaten Sabu Raijua, Nusa Tenggara Tim.","Kabupaten Sabu Raijua, Nusa Tenggara Tim.",NUSA TENGGARA TIMUR,,Indonesia,,,,-10.5803259,121.7559261,https://maps.google.com/?cid=0x0:0x7d88ca03ff9408d8,
cafe,Komplek perumahan,Rumah bula,"CQ75+5QG, Pedarro, Kec. Hawu Mehara, Kabupaten Sabu Raijua, Nusa Tenggara Tim.","Kabupaten Sabu Raijua, Nusa Tenggara Tim.",NUSA TENGGARA TIMUR,,Indonesia,,,,-10.5870508,121.7594384,https://maps.google.com/?cid=0x0:0x68968786bfb83b87,
cafe,Komplek perumahan,Pante Lie Lena,"CMGP+CXW, Molie, Kec. Hawu Mehara, Kabupaten Sabu Raijua, Nusa Tenggara Tim.","Kabupaten Sabu Raijua, Nusa Tenggara Tim.",NUSA TENGGARA TIMUR,,Indonesia,,,,-10.573885,121.687444,https://maps.google.com/?cid=0x0:0x17c71fd58ebae2ce,
cafe,cafe,Garena Free Fire,"CP2G+Q6M, Unnamed Road, Lobohede, Kec. Hawu Mehara, Kabupaten Sabu Raijua, Nusa Tenggara Tim.","Kabupaten Sabu Raijua, Nusa Tenggara Tim.",NUSA TENGGARA TIMUR,,Indonesia,,,,-10.5980321,121.7255484,https://maps.google.com/?cid=0x0:0x44abdae6dd7a42b7,
cafe,Bakso,Bakso Aphenia,"CPFP+8R3, Tanajawa, Kec. Hawu Mehara, Kabupaten Sabu Raijua, Nusa Tenggara Tim.","Kabupaten Sabu Raijua, Nusa Tenggara Tim.",NUSA TENGGARA TIMUR,,Indonesia,82144469129.0,,,-10.5767496,121.7367434,https://maps.google.com/?cid=0x0:0xb9db4c5fff7bee42,
cafe,Kios,Kios Kuning,"Jalan Gerbades, Tanajawa, Kec. Hawu Mehara, Kabupaten Sabu Raijua, Nusa Tenggara Tim. 85391","Tanajawa, Kec. Hawu Mehara, Kabupaten Sabu Raijua",NUSA TENGGARA TIMUR,85391.0,Indonesia,85239103055.0,,,-10.5634334,121.7410974,https://maps.google.com/?cid=0x0:0x6dcacfc0faf45f94,
cafe,Kios,Kios Bapa Musa,"CP87+WG8, Lederaga, Kec. Hawu Mehara, Kabupaten Sabu Raijua, Nusa Tenggara Tim.","Kabupaten Sabu Raijua, Nusa Tenggara Tim.",NUSA TENGGARA TIMUR,,Indonesia,,,,-10.5827013,121.71384,https://maps.google.com/?cid=0x0:0x76c03c5d5929c2da,
cafe,Bakso,Bakso Ibu Riny,"Tanajawa, Kec. Hawu Mehara, Kabupaten Sabu Raijua, Nusa Tenggara Tim. 85391","Kec. Hawu Mehara, Kabupaten Sabu Raijua",NUSA TENGGARA TIMUR,85391.0,Indonesia,85239103055.0,,,-10.5636875,121.7409375,https://maps.google.com/?cid=0x0:0xf3e7d9549f0efd63,
cafe,Kedai Kopi,Ruben kale,"CQ56+8WF Bukit : Ledebodoana, Pedarro, Hawu Mehara, Sabu Raijua Regency, East Nusa Tenggara","Kabupaten Sabu Raijua, Nusa Tenggara Tim.",NUSA TENGGARA TIMUR,,Indonesia,,,,-10.592106,121.7632593,https://maps.google.com/?cid=0x0:0x69535e3db7610f4,
cafe,Taman,SIMPANG AGACO,"CP2J+PCH, Lobohede, Kec. Hawu Mehara, Kabupaten Sabu Raijua, Nusa Tenggara Tim.","Kabupaten Sabu Raijua, Nusa Tenggara Tim.",NUSA TENGGARA TIMUR,,Indonesia,,,,-10.598044,121.730653,https://maps.google.com/?cid=0x0:0xd59b777b5ce9897d,
cafe,cafe,Reinhard Manu,"CPRH+V42, Unnamed Road, Molie, Kec. Hawu Mehara, Kabupaten Sabu Raijua, Nusa Tenggara Tim.","Kabupaten Sabu Raijua, Nusa Tenggara Tim.",NUSA TENGGARA TIMUR,,Indonesia,,,,-10.55785,121.7277533,https://maps.google.com/?cid=0x0:0xd3ec0a838125e3f3,
cafe,Kafe,Cafe Hethers,"Tehi Hau, Mebba, Kec. Sabu Bar., Kabupaten Sabu Raijua, Nusa Tenggara Tim. 85395","Mebba, Kec. Sabu Bar., Kabupaten Sabu Raijua",NUSA TENGGARA TIMUR,85395.0,Indonesia,81239422626.0,,,-10.4976461,121.8392448,https://maps.google.com/?cid=0x0:0x8caf2051e70cc363,
cafe,cafe,Nusa Tenggara Tim.,,Nusa Tenggara Tim.,NUSA TENGGARA TIMUR,,Indonesia,,,,-8.6573819,121.0793705,https://maps.google.com/?cid=0x0:0x1030bfbcaf71ae0,
cafe,Studio Foto,Mr. Cafe  Studio Foto,"Mebba, Kec. Sabu Bar., Kabupaten Sabu Raijua, Nusa Tenggara Tim.","Kabupaten Sabu Raijua, Nusa Tenggara Tim.",NUSA TENGGARA TIMUR,,Indonesia,81353789464.0,,,-10.5010181,121.8407518,https://maps.google.com/?cid=0x0:0x9fd977b6ad4740b,
cafe,Kafe,Run Run Signature Drink,"GR2Q+2CR, Mebba, Kec. Sabu Bar., Kabupaten Sabu Raijua, Nusa Tenggara Tim.","Kabupaten Sabu Raijua, Nusa Tenggara Tim.",NUSA TENGGARA TIMUR,,Indonesia,81239798742.0,,,-10.4998766,121.8385184,https://maps.google.com/?cid=0x0:0xc2a1ea4cd6234cef,
cafe,Indonesia,Warung Trilitokim Raijua,"RT.07/RW.04, Ledeunu, Kec. Raijua, Kabupaten Sabu Raijua, Nusa Tenggara Tim.","Kabupaten Sabu Raijua, Nusa Tenggara Tim.",NUSA TENGGARA TIMUR,,Indonesia,82247613996.0,,,-10.6045424,121.6179945,https://maps.google.com/?cid=0x0:0xb15cb5dfeff61c05,
cafe,Bar Kopi Espresso,friskky djara,"FW54+JXQ, Raekore, Kec. Sabu Bar., Kabupaten Sabu Raijua, Nusa Tenggara Tim.","Kabupaten Sabu Raijua, Nusa Tenggara Tim.",NUSA TENGGARA TIMUR,,Indonesia,,,,-10.5409046,121.9074859,https://maps.google.com/?cid=0x0:0x15499a1cb7e856db,
cafe,Makanan Siap Saji,ANSTIG CREW,"Jl. Masjid An'Nur Seba No.23, Mebba, Kec. Sabu Bar., Kabupaten Sabu Raijua, Nusa Tenggara Tim.","Kabupaten Sabu Raijua, Nusa Tenggara Tim.",NUSA TENGGARA TIMUR,,Indonesia,82147035778.0,,,-10.4929893,121.839497,https://maps.google.com/?cid=0x0:0x45beba2624b67e60,
cafe,Pondok Pegunungan,Koro Radjah,"FRQC+67H, Ledeana, Kec. Sabu Bar., Kabupaten Sabu Raijua, Nusa Tenggara Tim.","Kabupaten Sabu Raijua, Nusa Tenggara Tim.",NUSA TENGGARA TIMUR,,Indonesia,,,,-10.5109673,121.8203738,https://maps.google.com/?cid=0x0:0x40cccbcda792f44,
cafe,Pembangunan Perumahan,Kedai Inter (Dinsos Area),"GVWG+X6M, Menia, Kec. Sabu Bar., Kabupaten Sabu Raijua, Nusa Tenggara Tim.","Kabupaten Sabu Raijua, Nusa Tenggara Tim.",NUSA TENGGARA TIMUR,,Indonesia,82237450950.0,,,-10.4525455,121.8755332,https://maps.google.com/?cid=0x0:0x50ac645b78cab3e5,
cafe,Kedai Kopi,Komi kafe,"Dekat Atm Bni, Jl. Amabi No.77, Maulafa, Kec. Maulafa, Kota Kupang, Nusa Tenggara Tim. 85117","Jl. Amabi No.77, Maulafa, Kec. Maulafa, Kota Kupang",NUSA TENGGARA TIMUR,85117.0,Indonesia,85142015519.0,,,-10.178221,123.6191943,https://maps.google.com/?cid=0x0:0x1214ed86baabd0b4,
cafe,Kedai Kopi,WARKOP RILEKS,"Jl. Pelabuhan, Mebba, Kec. Sabu Bar., Kabupaten Sabu Raijua, Nusa Tenggara Tim. 85391","Mebba, Kec. Sabu Bar., Kabupaten Sabu Raijua",NUSA TENGGARA TIMUR,85391.0,Indonesia,82145777313.0,,,-10.4911692,121.838978,https://maps.google.com/?cid=0x0:0x3014180268859af6,
cafe,Kafe,Dreamland Organik Kupang,"Belakang Perumahan Seroja No.1 Blok A, Manulai II, Kec. Alak, Kota Kupang, Nusa Tenggara Tim. 85238","Manulai II, Kec. Alak, Kota Kupang",NUSA TENGGARA TIMUR,85238.0,Indonesia,8113838020.0,,,-10.2088613,123.553338,https://maps.google.com/?cid=0x0:0x384a6c04bc9643d9,
cafe,cafe,Basement Cafe,"Jl. Tompello, Oetete, Kec. Oebobo, Kota Kupang, Nusa Tenggara Tim.","Kota Kupang, Nusa Tenggara Tim.",NUSA TENGGARA TIMUR,,Indonesia,,,,-10.164066,123.5855774,https://maps.google.com/?cid=0x0:0xd88abd2b3e7facd9,
cafe,Kafe,Dream Cafe,"Jl. Terusan Timor Raya, Klp. Lima, Kec. Klp. Lima, Kota Kupang, Nusa Tenggara Tim.","Kota Kupang, Nusa Tenggara Tim.",NUSA TENGGARA TIMUR,,Indonesia,82148494257.0,,,-10.1443509,123.6243137,https://maps.google.com/?cid=0x0:0x1fd99d051ba8eb37,
cafe,Rumah Makan,Olivia Chandrika(otvina),"FR6X+Q66, Raemude, Kec. Sabu Bar., Kabupaten Sabu Raijua, Nusa Tenggara Tim.","Kabupaten Sabu Raijua, Nusa Tenggara Tim.",NUSA TENGGARA TIMUR,,Indonesia,,,,-10.5367812,121.8480935,https://maps.google.com/?cid=0x0:0x55890e2d458b2868,
cafe,Hotel bintang 2,Cafe dan homestay kebun,"Alak, Kec. Alak, Kota Kupang, Nusa Tenggara Tim.","Kota Kupang, Nusa Tenggara Tim.",NUSA TENGGARA TIMUR,,Indonesia,,,,-10.1899429,123.5672008,https://maps.google.com/?cid=0x0:0x94a10d7953feef03,
cafe,Indonesia,WARUNG MAKAN TAMARA  KEFAS,"9JV6+MVR, Ledeunu, Kec. Raijua, Kabupaten Sabu Raijua, Nusa Tenggara Tim.","Kabupaten Sabu Raijua, Nusa Tenggara Tim.",NUSA TENGGARA TIMUR,,Indonesia,81327174185.0,,,-10.6057625,121.6121406,https://maps.google.com/?cid=0x0:0xa5db398a1b50776,
cafe,cafe,Kec. Raijua,"Kabupaten Sabu Raijua, Nusa Tenggara Tim.","Kabupaten Sabu Raijua, Nusa Tenggara Tim.",NUSA TENGGARA TIMUR,,Indonesia,,,,-10.6051556,121.6181462,https://maps.google.com/?cid=0x0:0x25f150fcbc1533b6,
cafe,Rumah Makan,Rumah Makan Seafood Raijua,"9JV9+W7J, Ledeunu, Kec. Raijua, Kabupaten Sabu Raijua, Nusa Tenggara Tim.","Kabupaten Sabu Raijua, Nusa Tenggara Tim.",NUSA TENGGARA TIMUR,,Indonesia,,,,-10.6049894,121.618163,https://maps.google.com/?cid=0x0:0x244735a2e77a0e28,
cafe,Minimarket,Stall jus,"9JR9+PQC, Ledeunu, Kec. Raijua, Kabupaten Sabu Raijua, Nusa Tenggara Tim.","Kabupaten Sabu Raijua, Nusa Tenggara Tim.",NUSA TENGGARA TIMUR,,Indonesia,81237501704.0,,,-10.6081945,121.619379,https://maps.google.com/?cid=0x0:0x69f7e8671c3d1bf8,
cafe,Pusat Perbelanjaan,Kios Anugerah,"9JVC+X66, Ledeunu, Kec. Raijua, Kabupaten Sabu Raijua, Nusa Tenggara Tim.","Kabupaten Sabu Raijua, Nusa Tenggara Tim.",NUSA TENGGARA TIMUR,,Indonesia,,,,-10.604957,121.620527,https://maps.google.com/?cid=0x0:0xc5a56c9ed0070d8c,
cafe,Indonesia,WArung makan RUBA DEO,"9JWC+49M, Jalan, namo, Raijua, Sabu Raijua Regency, East Nusa Tenggara","Kabupaten Sabu Raijua, Nusa Tenggara Tim.",NUSA TENGGARA TIMUR,,Indonesia,,,,-10.6046701,121.6209233,https://maps.google.com/?cid=0x0:0x15f9edb287271774,
cafe,Hotel,Penginapan Mata Ruba,"9JV9+VQJ, Ledeunu, Kec. Raijua, Kabupaten Sabu Raijua, Nusa Tenggara Tim.","Kabupaten Sabu Raijua, Nusa Tenggara Tim.",NUSA TENGGARA TIMUR,,Indonesia,81313871753.0,,,-10.6051302,121.6193996,https://maps.google.com/?cid=0x0:0x837bed96baaea844,
cafe,Komplek perumahan,Pante Lie Lena,"CMGP+CXW, Molie, Kec. Hawu Mehara, Kabupaten Sabu Raijua, Nusa Tenggara Tim.","Kabupaten Sabu Raijua, Nusa Tenggara Tim.",NUSA TENGGARA TIMUR,,Indonesia,,,,-10.573885,121.687444,https://maps.google.com/?cid=0x0:0x17c71fd58ebae2ce,
cafe,Toko umum,UD. IELOWE,"9JQ5+F8G, jln. Humati, Ledeunu, Kec. Raijua, Kabupaten Sabu Raijua, Nusa Tenggara Tim.","Kabupaten Sabu Raijua, Nusa Tenggara Tim.",NUSA TENGGARA TIMUR,,Indonesia,,,,-10.6113202,121.6083421,https://maps.google.com/?cid=0x0:0x1e698bb2aac17528,
cafe,cafe,KIOS RAISA,"9JM2+9V4, Ledeunu, Kec. Raijua, Kabupaten Sabu Raijua, Nusa Tenggara Tim.","Kabupaten Sabu Raijua, Nusa Tenggara Tim.",NUSA TENGGARA TIMUR,,Indonesia,,,,-10.6166163,121.6021923,https://maps.google.com/?cid=0x0:0x31f1350c070ecf0d,
cafe,cafe,Warung Rosi Laga Ha'e,"9JW9+372, Unnamed Road, Ledeunu, Kec. Raijua, Kabupaten Sabu Raijua, Nusa Tenggara Tim.","Kabupaten Sabu Raijua, Nusa Tenggara Tim.",NUSA TENGGARA TIMUR,,Indonesia,,,,-10.6048671,121.6181524,https://maps.google.com/?cid=0x0:0xe8ef85b8e52f502b,
