Category,Real Category,Business Name,Address,City,State,Postal Code,Country,Phone,Email,Website,Latitude,Longitude,Map Link,Details Link
mall,mall,Kec. Sabu Bar.,"Kabupaten Sabu Raijua, Nusa Tenggara Tim.","Kabupaten Sabu Raijua, Nusa Tenggara Tim.",NUSA TENGGARA TIMUR,,Indonesia,,,,-10.4996566,121.8400338,https://maps.google.com/?cid=0x0:0xa5c2c568f439a950,
mall,Komplek perumahan,RUMAH BUMN SABU RAIJUA,"Mebba, Kec. Sabu Bar., Kabupaten Sabu Raijua, Nusa Tenggara Tim.","Kabupaten Sabu Raijua, Nusa Tenggara Tim.",NUSA TENGGARA TIMUR,,Indonesia,,,,-10.4996566,121.8400338,https://maps.google.com/?cid=0x0:0x1bcbd5009afd44fd,
mall,Pembangunan Perumahan,Tuwi,"CQQX+J6F, Jadu, Kec. Sabu Bar., Kabupaten Sabu Raijua, Nusa Tenggara Tim.","Kabupaten Sabu Raijua, Nusa Tenggara Tim.",NUSA TENGGARA TIMUR,,Indonesia,,,,-10.5609353,121.7980314,https://maps.google.com/?cid=0x0:0x17666b6e3e2610b5,
mall,Toko,UD. NGASO,"Jl. Trans Seba Bolow, Menia, Kec. Sabu Bar., Kabupaten Sabu Raijua, Nusa Tenggara Tim.","Kabupaten Sabu Raijua, Nusa Tenggara Tim.",NUSA TENGGARA TIMUR,,Indonesia,8113838367.0,,,-10.459835,121.8711764,https://maps.google.com/?cid=0x0:0x6377f5657a3302d5,
mall,Toko,Chozlet,"GVWH+V7R, Menia, Kec. Sabu Bar., Kabupaten Sabu Raijua, Nusa Tenggara Tim.","Kabupaten Sabu Raijua, Nusa Tenggara Tim.",NUSA TENGGARA TIMUR,,Indonesia,,,,-10.4528183,121.8780941,https://maps.google.com/?cid=0x0:0xc3fdef531db8dd0f,
mall,Toko,Kios JAZEEL,"Menia, Kec. Sabu Bar., Kabupaten Sabu Raijua, Nusa Tenggara Tim.","Kabupaten Sabu Raijua, Nusa Tenggara Tim.",NUSA TENGGARA TIMUR,,Indonesia,81246398574.0,,,-10.4602393,121.8706626,https://maps.google.com/?cid=0x0:0x1275cd31e2a6c61b,
mall,Toko bahan makanan,ADA BERKAT,"Jl. Eltari Seba - Daigama Desa Roboaba, Kab. Sabu Raijia, Menia, Kec. Sabu Bar., Kabupaten Sabu Raijua, Nusa Tenggara Tim.","Kabupaten Sabu Raijua, Nusa Tenggara Tim.",NUSA TENGGARA TIMUR,,Indonesia,81392219221.0,,,-10.4709559,121.8635269,https://maps.google.com/?cid=0x0:0xd573d541d43aa59a,
mall,Toko bahan makanan,Lapak Ma Poe,"GR3Q+QCQ, Mebba, Kec. Sabu Bar., Kabupaten Sabu Raijua, Nusa Tenggara Tim.","Kabupaten Sabu Raijua, Nusa Tenggara Tim.",NUSA TENGGARA TIMUR,,Indonesia,82147750005.0,,,-10.4955316,121.8386052,https://maps.google.com/?cid=0x0:0x6197dcdbe8907c7e,
mall,Toko,Sumber Rezeki (toko pakaian)!,"Jl. Bandeng No.1, Mebba, Kec. Sabu Bar., Kabupaten Sabu Raijua, Nusa Tenggara Tim.","Kabupaten Sabu Raijua, Nusa Tenggara Tim.",NUSA TENGGARA TIMUR,,Indonesia,81393321679.0,,,-10.491688,121.8406707,https://maps.google.com/?cid=0x0:0x2eb7917ca0082f3d,
mall,Bangunan Bersejarah,Oktovianus riwu lay,"FRCG+M7R, Unnamed Road, Depe, Kec. Sabu Bar., Kabupaten Sabu Raijua, Nusa Tenggara Tim.","Kabupaten Sabu Raijua, Nusa Tenggara Tim.",NUSA TENGGARA TIMUR,,Indonesia,,,,-10.528255,121.825629,https://maps.google.com/?cid=0x0:0x533be8a0c6c1674c,
mall,Toko,Wiliams Qua,"Menia, Kec. Sabu Bar., Kabupaten Sabu Raijua, Nusa Tenggara Tim.","Kabupaten Sabu Raijua, Nusa Tenggara Tim.",NUSA TENGGARA TIMUR,,Indonesia,81237427800.0,,,-10.46181,121.8683623,https://maps.google.com/?cid=0x0:0x5b4850a0f43be6c4,
mall,Gudang,GUDANG JAGUNG CHOZLET,"GR5Q+GJC, Mebba, Kec. Sabu Bar., Kabupaten Sabu Raijua, Nusa Tenggara Tim.","Kabupaten Sabu Raijua, Nusa Tenggara Tim.",NUSA TENGGARA TIMUR,,Indonesia,81233675878.0,,,-10.4911994,121.8390108,https://maps.google.com/?cid=0x0:0xbcdc7bb2538d44c5,
mall,Kios,kios Bunqzhu,"Simpang tiga Lobola, RT.008/RW.004, Teriwu, Kec. Sabu Bar., Kabupaten Sabu Raijua, Nusa Tenggara Tim.","Kabupaten Sabu Raijua, Nusa Tenggara Tim.",NUSA TENGGARA TIMUR,,Indonesia,81246611401.0,,,-10.5851538,121.8124443,https://maps.google.com/?cid=0x0:0xdcf46b32ad3ac409,
mall,Toko,Tanjungmas,"GVV3+5RV, Koloudju, Kec. Sabu Bar., Kabupaten Sabu Raijua, Nusa Tenggara Tim.","Kabupaten Sabu Raijua, Nusa Tenggara Tim.",NUSA TENGGARA TIMUR,,Indonesia,81236232190.0,,,-10.4570024,121.8545618,https://maps.google.com/?cid=0x0:0x704e1568805493f5,
mall,Kafe,Herrison Nappu,"CQ79+5QR, Pedarro, Kec. Hawu Mehara, Kabupaten Sabu Raijua, Nusa Tenggara Tim.","Kabupaten Sabu Raijua, Nusa Tenggara Tim.",NUSA TENGGARA TIMUR,,Indonesia,81315123018.0,,,-10.587003,121.7693918,https://maps.google.com/?cid=0x0:0x38bfc6731ce39786,
mall,Pusat Perbelanjaan,Kios putri tunggal,"HV4X+87, Menia, Kec. Sabu Bar., Kabupaten Sabu Raijua, Nusa Tenggara Tim.","Kabupaten Sabu Raijua, Nusa Tenggara Tim.",NUSA TENGGARA TIMUR,,Indonesia,,,,-10.4439023,121.8990139,https://maps.google.com/?cid=0x0:0x19d78daab7c02631,
mall,Toko,KIOS ANON. AYAM BEKU,"GR5R+JPF, Mebba, Kec. Sabu Bar., Kabupaten Sabu Raijua, Nusa Tenggara Tim.","Kabupaten Sabu Raijua, Nusa Tenggara Tim.",NUSA TENGGARA TIMUR,,Indonesia,81353340050.0,,,-10.4909533,121.8415556,https://maps.google.com/?cid=0x0:0xd94c0502e4588354,
mall,Layanan Feri,PELABUHAN SEBA,"GR5Q+V99, Menia, Kec. Sabu Bar., Kabupaten Sabu Raijua, Nusa Tenggara Tim.","Kabupaten Sabu Raijua, Nusa Tenggara Tim.",NUSA TENGGARA TIMUR,,Indonesia,82397038623.0,,,-10.4903462,121.8384926,https://maps.google.com/?cid=0x0:0xb262a8117aec404d,
mall,Toko Pakaian,Natta jaya,"FRWJ+W6J, Ledeana, Kec. Sabu Bar., Kabupaten Sabu Raijua, Nusa Tenggara Tim.","Kabupaten Sabu Raijua, Nusa Tenggara Tim.",NUSA TENGGARA TIMUR,,Indonesia,82266333530.0,,,-10.5026714,121.8305147,https://maps.google.com/?cid=0x0:0x2c4f4d16aee5c90d,
mall,Kantor Administrasi Kota,Kantor Bupati Kabupaten Sabu Raijua,"GVWH+V7R, Menia, Kec. Sabu Bar., Kabupaten Sabu Raijua, Nusa Tenggara Tim.","Kabupaten Sabu Raijua, Nusa Tenggara Tim.",NUSA TENGGARA TIMUR,,Indonesia,,,,-10.4527627,121.8781312,https://maps.google.com/?cid=0x0:0x98ce7f0077c06e7b,
mall,mall,Kec. Sabu Tengah,"Kabupaten Sabu Raijua, Nusa Tenggara Tim.","Kabupaten Sabu Raijua, Nusa Tenggara Tim.",NUSA TENGGARA TIMUR,,Indonesia,,,,-10.455074,121.9356414,https://maps.google.com/?cid=0x0:0x8ba6c85f529ad7ae,
mall,Pusat Perbelanjaan,Kios MANJA,"GWRR+WVM, Eilode, Kec. Sabu Tengah, Kabupaten Sabu Raijua, Nusa Tenggara Tim.","Kabupaten Sabu Raijua, Nusa Tenggara Tim.",NUSA TENGGARA TIMUR,,Indonesia,82144290209.0,,,-10.4576685,121.9421781,https://maps.google.com/?cid=0x0:0xa22aceb62fe4bd10,
mall,Pembangunan Perumahan,jami nyabu,"HW32+H72, Menia, Kec. Sabu Bar., Kabupaten Sabu Raijua, Nusa Tenggara Tim.","Kabupaten Sabu Raijua, Nusa Tenggara Tim.",NUSA TENGGARA TIMUR,,Indonesia,,,,-10.4461009,121.9006494,https://maps.google.com/?cid=0x0:0xfe9dedd9b2017243,
mall,Bengkel Sepeda Motor,Bang_Andy Motor (Aksesoris Motor),"Bolou, Kec. Sabu Tim., Kabupaten Sabu Raijua, Nusa Tenggara Tim.","Kabupaten Sabu Raijua, Nusa Tenggara Tim.",NUSA TENGGARA TIMUR,,Indonesia,82296314399.0,,,-10.4843142,121.9818889,https://maps.google.com/?cid=0x0:0x831acf62ff4b6473,
mall,Toko,Kios JAZEEL,"Menia, Kec. Sabu Bar., Kabupaten Sabu Raijua, Nusa Tenggara Tim.","Kabupaten Sabu Raijua, Nusa Tenggara Tim.",NUSA TENGGARA TIMUR,,Indonesia,81246398574.0,,,-10.4602393,121.8706626,https://maps.google.com/?cid=0x0:0x1275cd31e2a6c61b,
mall,Toko,Chozlet,"GVWH+V7R, Menia, Kec. Sabu Bar., Kabupaten Sabu Raijua, Nusa Tenggara Tim.","Kabupaten Sabu Raijua, Nusa Tenggara Tim.",NUSA TENGGARA TIMUR,,Indonesia,,,,-10.4528183,121.8780941,https://maps.google.com/?cid=0x0:0xc3fdef531db8dd0f,
mall,Pusat Perbelanjaan,Kios putri tunggal,"HV4X+87, Menia, Kec. Sabu Bar., Kabupaten Sabu Raijua, Nusa Tenggara Tim.","Kabupaten Sabu Raijua, Nusa Tenggara Tim.",NUSA TENGGARA TIMUR,,Indonesia,,,,-10.4439023,121.8990139,https://maps.google.com/?cid=0x0:0x19d78daab7c02631,
mall,Toko,UD. NGASO,"Jl. Trans Seba Bolow, Menia, Kec. Sabu Bar., Kabupaten Sabu Raijua, Nusa Tenggara Tim.","Kabupaten Sabu Raijua, Nusa Tenggara Tim.",NUSA TENGGARA TIMUR,,Indonesia,8113838367.0,,,-10.459835,121.8711764,https://maps.google.com/?cid=0x0:0x6377f5657a3302d5,
mall,Toko bahan makanan,ADA BERKAT,"Jl. Eltari Seba - Daigama Desa Roboaba, Kab. Sabu Raijia, Menia, Kec. Sabu Bar., Kabupaten Sabu Raijua, Nusa Tenggara Tim.","Kabupaten Sabu Raijua, Nusa Tenggara Tim.",NUSA TENGGARA TIMUR,,Indonesia,81392219221.0,,,-10.4709559,121.8635269,https://maps.google.com/?cid=0x0:0xd573d541d43aa59a,
mall,Komplek perumahan,RUMAH BUMN SABU RAIJUA,"Mebba, Kec. Sabu Bar., Kabupaten Sabu Raijua, Nusa Tenggara Tim.","Kabupaten Sabu Raijua, Nusa Tenggara Tim.",NUSA TENGGARA TIMUR,,Indonesia,,,,-10.4996566,121.8400338,https://maps.google.com/?cid=0x0:0x1bcbd5009afd44fd,
mall,Titik Pemandangan,Gua Mabala,"HWFH+V8M, Eimau, Kec. Sabu Tengah, Kabupaten Sabu Raijua, Nusa Tenggara Tim.","Kabupaten Sabu Raijua, Nusa Tenggara Tim.",NUSA TENGGARA TIMUR,,Indonesia,,,,-10.425285,121.9283114,https://maps.google.com/?cid=0x0:0x99308f98bd296f91,
mall,Tujuan Wisata,Goa Lie mabala,"HWFH+M88, Eimau, Kec. Sabu Tengah, Kabupaten Sabu Raijua, Nusa Tenggara Tim.","Kabupaten Sabu Raijua, Nusa Tenggara Tim.",NUSA TENGGARA TIMUR,,Indonesia,81337407808.0,,,-10.4258489,121.9283181,https://maps.google.com/?cid=0x0:0x2f151d211924d158,
mall,Pembangunan Perumahan,Tuwi,"CQQX+J6F, Jadu, Kec. Sabu Bar., Kabupaten Sabu Raijua, Nusa Tenggara Tim.","Kabupaten Sabu Raijua, Nusa Tenggara Tim.",NUSA TENGGARA TIMUR,,Indonesia,,,,-10.5609353,121.7980314,https://maps.google.com/?cid=0x0:0x17666b6e3e2610b5,
mall,Toko,Wiliams Qua,"Menia, Kec. Sabu Bar., Kabupaten Sabu Raijua, Nusa Tenggara Tim.","Kabupaten Sabu Raijua, Nusa Tenggara Tim.",NUSA TENGGARA TIMUR,,Indonesia,81237427800.0,,,-10.46181,121.8683623,https://maps.google.com/?cid=0x0:0x5b4850a0f43be6c4,
mall,mall,Kec. Sabu Tim.,"Kabupaten Sabu Raijua, Nusa Tenggara Tim.","Kabupaten Sabu Raijua, Nusa Tenggara Tim.",NUSA TENGGARA TIMUR,,Indonesia,,,,-10.5013069,121.9721227,https://maps.google.com/?cid=0x0:0x89fb1247da8e5a16,
mall,Pusat Perbelanjaan,Kios MANJA,"GWRR+WVM, Eilode, Kec. Sabu Tengah, Kabupaten Sabu Raijua, Nusa Tenggara Tim.","Kabupaten Sabu Raijua, Nusa Tenggara Tim.",NUSA TENGGARA TIMUR,,Indonesia,82144290209.0,,,-10.4576685,121.9421781,https://maps.google.com/?cid=0x0:0xa22aceb62fe4bd10,
mall,Pembangunan Perumahan,Tuwi,"CQQX+J6F, Jadu, Kec. Sabu Bar., Kabupaten Sabu Raijua, Nusa Tenggara Tim.","Kabupaten Sabu Raijua, Nusa Tenggara Tim.",NUSA TENGGARA TIMUR,,Indonesia,,,,-10.5609353,121.7980314,https://maps.google.com/?cid=0x0:0x17666b6e3e2610b5,
mall,Bengkel Sepeda Motor,Bang_Andy Motor (Aksesoris Motor),"Bolou, Kec. Sabu Tim., Kabupaten Sabu Raijua, Nusa Tenggara Tim.","Kabupaten Sabu Raijua, Nusa Tenggara Tim.",NUSA TENGGARA TIMUR,,Indonesia,82296314399.0,,,-10.4843142,121.9818889,https://maps.google.com/?cid=0x0:0x831acf62ff4b6473,
mall,Komplek perumahan,RUMAH BUMN SABU RAIJUA,"Mebba, Kec. Sabu Bar., Kabupaten Sabu Raijua, Nusa Tenggara Tim.","Kabupaten Sabu Raijua, Nusa Tenggara Tim.",NUSA TENGGARA TIMUR,,Indonesia,,,,-10.4996566,121.8400338,https://maps.google.com/?cid=0x0:0x1bcbd5009afd44fd,
mall,Kantor Polisi,Polsek Sabu Timur,"GXFQ+449, Bodae, Kec. Sabu Tim., Kabupaten Sabu Raijua, Nusa Tenggara Tim.","Kabupaten Sabu Raijua, Nusa Tenggara Tim.",NUSA TENGGARA TIMUR,,Indonesia,,,,-10.4772109,121.9878638,https://maps.google.com/?cid=0x0:0x86986c9cf2f6af04,
mall,mall,Kecamatan Sabu Liae,"Kabupaten Sabu Raijua, Nusa Tenggara Tim.","Kabupaten Sabu Raijua, Nusa Tenggara Tim.",NUSA TENGGARA TIMUR,,Indonesia,,,,-10.6015691,121.8688783,https://maps.google.com/?cid=0x0:0x957814b2c371884a,
mall,Kantor Pemerintah,Kantor Camat Liae,"CV2P+6Q9, Eilogo, Kecamatan Sabu Liae, Kabupaten Sabu Raijua, Nusa Tenggara Tim.","Kabupaten Sabu Raijua, Nusa Tenggara Tim.",NUSA TENGGARA TIMUR,,Indonesia,,,,-10.5994502,121.8869699,https://maps.google.com/?cid=0x0:0xc032645fe6887fab,
mall,Tujuan Wisata,Kelabba Madja,"9RV4+W3Q, Wadumeddi, Kec. Hawu Mehara, Kabupaten Sabu Raijua, Nusa Tenggara Tim.","Kabupaten Sabu Raijua, Nusa Tenggara Tim.",NUSA TENGGARA TIMUR,,Indonesia,,,,-10.605167,121.8052429,https://maps.google.com/?cid=0x0:0xec4fd5a38e30cde7,
mall,Kios,kios Bunqzhu,"Simpang tiga Lobola, RT.008/RW.004, Teriwu, Kec. Sabu Bar., Kabupaten Sabu Raijua, Nusa Tenggara Tim.","Kabupaten Sabu Raijua, Nusa Tenggara Tim.",NUSA TENGGARA TIMUR,,Indonesia,81246611401.0,,,-10.5851538,121.8124443,https://maps.google.com/?cid=0x0:0xdcf46b32ad3ac409,
mall,Toko bahan makanan,Lapak Ma Poe,"GR3Q+QCQ, Mebba, Kec. Sabu Bar., Kabupaten Sabu Raijua, Nusa Tenggara Tim.","Kabupaten Sabu Raijua, Nusa Tenggara Tim.",NUSA TENGGARA TIMUR,,Indonesia,82147750005.0,,,-10.4955316,121.8386052,https://maps.google.com/?cid=0x0:0x6197dcdbe8907c7e,
mall,Pembangunan Perumahan,Tuwi,"CQQX+J6F, Jadu, Kec. Sabu Bar., Kabupaten Sabu Raijua, Nusa Tenggara Tim.","Kabupaten Sabu Raijua, Nusa Tenggara Tim.",NUSA TENGGARA TIMUR,,Indonesia,,,,-10.5609353,121.7980314,https://maps.google.com/?cid=0x0:0x17666b6e3e2610b5,
mall,Komplek perumahan,RUMAH BUMN SABU RAIJUA,"Mebba, Kec. Sabu Bar., Kabupaten Sabu Raijua, Nusa Tenggara Tim.","Kabupaten Sabu Raijua, Nusa Tenggara Tim.",NUSA TENGGARA TIMUR,,Indonesia,,,,-10.4996566,121.8400338,https://maps.google.com/?cid=0x0:0x1bcbd5009afd44fd,
mall,Bangunan Bersejarah,Oktovianus riwu lay,"FRCG+M7R, Unnamed Road, Depe, Kec. Sabu Bar., Kabupaten Sabu Raijua, Nusa Tenggara Tim.","Kabupaten Sabu Raijua, Nusa Tenggara Tim.",NUSA TENGGARA TIMUR,,Indonesia,,,,-10.528255,121.825629,https://maps.google.com/?cid=0x0:0x533be8a0c6c1674c,
mall,Toko bahan makanan,ADA BERKAT,"Jl. Eltari Seba - Daigama Desa Roboaba, Kab. Sabu Raijia, Menia, Kec. Sabu Bar., Kabupaten Sabu Raijua, Nusa Tenggara Tim.","Kabupaten Sabu Raijua, Nusa Tenggara Tim.",NUSA TENGGARA TIMUR,,Indonesia,81392219221.0,,,-10.4709559,121.8635269,https://maps.google.com/?cid=0x0:0xd573d541d43aa59a,
mall,Kafe,Herrison Nappu,"CQ79+5QR, Pedarro, Kec. Hawu Mehara, Kabupaten Sabu Raijua, Nusa Tenggara Tim.","Kabupaten Sabu Raijua, Nusa Tenggara Tim.",NUSA TENGGARA TIMUR,,Indonesia,81315123018.0,,,-10.587003,121.7693918,https://maps.google.com/?cid=0x0:0x38bfc6731ce39786,
mall,Tujuan Wisata,Bukit Salju,"9QV8+5XC, Ledeae, Kec. Hawu Mehara, Kabupaten Sabu Raijua, Nusa Tenggara Tim.","Kabupaten Sabu Raijua, Nusa Tenggara Tim.",NUSA TENGGARA TIMUR,,Indonesia,82144298209.0,,,-10.6070721,121.7673993,https://maps.google.com/?cid=0x0:0x64e78d1fd97a0ad4,
mall,Tujuan Wisata,Benteng ege,"9VM8+7MX, Waduwala, Kecamatan Sabu Liae, Kabupaten Sabu Raijua, Nusa Tenggara Tim.","Kabupaten Sabu Raijua, Nusa Tenggara Tim.",NUSA TENGGARA TIMUR,,Indonesia,82298007677.0,,,-10.6167636,121.8667362,https://maps.google.com/?cid=0x0:0x6e830a78770bb9b8,
mall,Komplek perumahan,Robert Lado,"Molie, Kec. Hawu Mehara, Kabupaten Sabu Raijua, Nusa Tenggara Tim.","Kabupaten Sabu Raijua, Nusa Tenggara Tim.",NUSA TENGGARA TIMUR,,Indonesia,85239106794.0,,,-10.5602804,121.728058,https://maps.google.com/?cid=0x0:0x41a485a1e9d1857,
mall,mall,tower ledepemulu,"CR6X+MGX, Unnamed Road, Ledeke, Kecamatan Sabu Liae, Kabupaten Sabu Raijua, Nusa Tenggara Tim.","Kabupaten Sabu Raijua, Nusa Tenggara Tim.",NUSA TENGGARA TIMUR,,Indonesia,,,,-10.5882709,121.8488529,https://maps.google.com/?cid=0x0:0xccd7964b424aae14,
mall,Gedung Apartemen,Mall@Bassura,"Jl. Jenderal Basuki Rachmat No.1A, Cipinang Besar Sel., Kecamatan Jatinegara, Kota Jakarta Timur, Daerah Khusus Ibukota Jakarta 13410","Cipinang Besar Sel., Kecamatan Jatinegara, Kota Jakarta Timur",NUSA TENGGARA TIMUR,13410.0,Indonesia,2122807300.0,,,-6.2240597,106.8778851,https://maps.google.com/?cid=0x0:0x610648e929845480,
mall,Bioskop,Bassura XXI,"Mall Bassura City, Jl. Jenderal Basuki Rachmat No.1 Lantai LG, RT.8/RW.10, Cipinang Besar Sel., Kecamatan Jatinegara, Kota Jakarta Timur, Daerah Khusus Ibukota Jakarta 13410","Jl. Jenderal Basuki Rachmat No.1 Lantai LG, RT.8/RW.10, Cipinang Besar Sel., Kecamatan Jatinegara, Kota Jakarta Timur",NUSA TENGGARA TIMUR,13410.0,Indonesia,2122807229.0,,,-6.2244138,106.877728,https://maps.google.com/?cid=0x0:0x143868372e9c01cf,
mall,mall,Kec. Hawu Mehara,"Kabupaten Sabu Raijua, Nusa Tenggara Tim.","Kabupaten Sabu Raijua, Nusa Tenggara Tim.",NUSA TENGGARA TIMUR,,Indonesia,,,,-10.5744578,121.7236313,https://maps.google.com/?cid=0x0:0x570cb4b99e28effb,
mall,Komplek perumahan,Robert Lado,"Molie, Kec. Hawu Mehara, Kabupaten Sabu Raijua, Nusa Tenggara Tim.","Kabupaten Sabu Raijua, Nusa Tenggara Tim.",NUSA TENGGARA TIMUR,,Indonesia,85239106794.0,,,-10.5602804,121.728058,https://maps.google.com/?cid=0x0:0x41a485a1e9d1857,
mall,Toko bahan makanan,Lapak Ma Poe,"GR3Q+QCQ, Mebba, Kec. Sabu Bar., Kabupaten Sabu Raijua, Nusa Tenggara Tim.","Kabupaten Sabu Raijua, Nusa Tenggara Tim.",NUSA TENGGARA TIMUR,,Indonesia,82147750005.0,,,-10.4955316,121.8386052,https://maps.google.com/?cid=0x0:0x6197dcdbe8907c7e,
mall,Pusat Perbelanjaan,Kios Biru 23,"Molie, Kec. Hawu Mehara, Kabupaten Sabu Raijua, Nusa Tenggara Tim. 85393","Kec. Hawu Mehara, Kabupaten Sabu Raijua",NUSA TENGGARA TIMUR,85393.0,Indonesia,85239106794.0,,,-10.5602878,121.7280558,https://maps.google.com/?cid=0x0:0xc8d2c9a5eca05f61,
mall,Pembangunan Perumahan,Tuwi,"CQQX+J6F, Jadu, Kec. Sabu Bar., Kabupaten Sabu Raijua, Nusa Tenggara Tim.","Kabupaten Sabu Raijua, Nusa Tenggara Tim.",NUSA TENGGARA TIMUR,,Indonesia,,,,-10.5609353,121.7980314,https://maps.google.com/?cid=0x0:0x17666b6e3e2610b5,
mall,Sekolah menengah,SMA N 1 HAWU MEHARA,"CPQR+GP8, Tanajawa, Kec. Hawu Mehara, Kabupaten Sabu Raijua, Nusa Tenggara Tim.","Kabupaten Sabu Raijua, Nusa Tenggara Tim.",NUSA TENGGARA TIMUR,,Indonesia,,,,-10.5612113,121.7418262,https://maps.google.com/?cid=0x0:0x563c34f4674a1642,
mall,mall,Nusa Tenggara Tim.,,Nusa Tenggara Tim.,NUSA TENGGARA TIMUR,,Indonesia,,,,-8.6573819,121.0793705,https://maps.google.com/?cid=0x0:0x1030bfbcaf71ae0,
mall,Komplek perumahan,RUMAH BUMN SABU RAIJUA,"Mebba, Kec. Sabu Bar., Kabupaten Sabu Raijua, Nusa Tenggara Tim.","Kabupaten Sabu Raijua, Nusa Tenggara Tim.",NUSA TENGGARA TIMUR,,Indonesia,,,,-10.4996566,121.8400338,https://maps.google.com/?cid=0x0:0x1bcbd5009afd44fd,
mall,Pusat Perbelanjaan,Kios Biru 23,"Molie, Kec. Hawu Mehara, Kabupaten Sabu Raijua, Nusa Tenggara Tim. 85393","Kec. Hawu Mehara, Kabupaten Sabu Raijua",NUSA TENGGARA TIMUR,85393.0,Indonesia,85239106794.0,,,-10.5602878,121.7280558,https://maps.google.com/?cid=0x0:0xc8d2c9a5eca05f61,
mall,Bangunan Bersejarah,Oktovianus riwu lay,"FRCG+M7R, Unnamed Road, Depe, Kec. Sabu Bar., Kabupaten Sabu Raijua, Nusa Tenggara Tim.","Kabupaten Sabu Raijua, Nusa Tenggara Tim.",NUSA TENGGARA TIMUR,,Indonesia,,,,-10.528255,121.825629,https://maps.google.com/?cid=0x0:0x533be8a0c6c1674c,
mall,Toko,Tanjungmas,"GVV3+5RV, Koloudju, Kec. Sabu Bar., Kabupaten Sabu Raijua, Nusa Tenggara Tim.","Kabupaten Sabu Raijua, Nusa Tenggara Tim.",NUSA TENGGARA TIMUR,,Indonesia,81236232190.0,,,-10.4570024,121.8545618,https://maps.google.com/?cid=0x0:0x704e1568805493f5,
mall,Pembangunan Perumahan,Tuwi,"CQQX+J6F, Jadu, Kec. Sabu Bar., Kabupaten Sabu Raijua, Nusa Tenggara Tim.","Kabupaten Sabu Raijua, Nusa Tenggara Tim.",NUSA TENGGARA TIMUR,,Indonesia,,,,-10.5609353,121.7980314,https://maps.google.com/?cid=0x0:0x17666b6e3e2610b5,
mall,Minimarket,KIOS ANUGERAH LEDEBALI,"9JG4+45M, Ledeke, Kec. Raijua, Kabupaten Sabu Raijua, Nusa Tenggara Tim.","Kabupaten Sabu Raijua, Nusa Tenggara Tim.",NUSA TENGGARA TIMUR,,Indonesia,,,,-10.6246516,121.6054123,https://maps.google.com/?cid=0x0:0x5340266404d79ede,
mall,Toko,Sumber Rezeki (toko pakaian)!,"Jl. Bandeng No.1, Mebba, Kec. Sabu Bar., Kabupaten Sabu Raijua, Nusa Tenggara Tim.","Kabupaten Sabu Raijua, Nusa Tenggara Tim.",NUSA TENGGARA TIMUR,,Indonesia,81393321679.0,,,-10.491688,121.8406707,https://maps.google.com/?cid=0x0:0x2eb7917ca0082f3d,
mall,Toko,Chozlet,"GVWH+V7R, Menia, Kec. Sabu Bar., Kabupaten Sabu Raijua, Nusa Tenggara Tim.","Kabupaten Sabu Raijua, Nusa Tenggara Tim.",NUSA TENGGARA TIMUR,,Indonesia,,,,-10.4528183,121.8780941,https://maps.google.com/?cid=0x0:0xc3fdef531db8dd0f,
mall,Komplek perumahan,Robert Lado,"Molie, Kec. Hawu Mehara, Kabupaten Sabu Raijua, Nusa Tenggara Tim.","Kabupaten Sabu Raijua, Nusa Tenggara Tim.",NUSA TENGGARA TIMUR,,Indonesia,85239106794.0,,,-10.5602804,121.728058,https://maps.google.com/?cid=0x0:0x41a485a1e9d1857,
mall,mall,Kec. Raijua,"Kabupaten Sabu Raijua, Nusa Tenggara Tim.","Kabupaten Sabu Raijua, Nusa Tenggara Tim.",NUSA TENGGARA TIMUR,,Indonesia,,,,-10.6051556,121.6181462,https://maps.google.com/?cid=0x0:0x25f150fcbc1533b6,
mall,Pusat Perbelanjaan,KIOS ALDEN NADJO,"9HM4+77J, Kolorae, Kec. Raijua, Kabupaten Sabu Raijua, Nusa Tenggara Tim.","Kabupaten Sabu Raijua, Nusa Tenggara Tim.",NUSA TENGGARA TIMUR,,Indonesia,,,,-10.6184054,121.5569729,https://maps.google.com/?cid=0x0:0x1fd071f368791a79,
mall,Minimarket,Kios karince djane huki,"9JW9+854, Ledeunu, Kec. Raijua, Kabupaten Sabu Raijua, Nusa Tenggara Tim.","Kabupaten Sabu Raijua, Nusa Tenggara Tim.",NUSA TENGGARA TIMUR,,Indonesia,,,,-10.6041335,121.6179292,https://maps.google.com/?cid=0x0:0x635bc973e6e0e610,
mall,mall,Kios Ina Jalo,"9HJ6+79, Ballu, Kec. Raijua, Kabupaten Sabu Raijua, Nusa Tenggara Tim.","Kabupaten Sabu Raijua, Nusa Tenggara Tim.",NUSA TENGGARA TIMUR,,Indonesia,,,,-10.6193198,121.5609366,https://maps.google.com/?cid=0x0:0xaf5636110fa4bf9f,
mall,mall,ADITYA,"CV8M+RVX, Eilogo, Kecamatan Sabu Liae, Kabupaten Sabu Raijua, Nusa Tenggara Tim.","Kabupaten Sabu Raijua, Nusa Tenggara Tim.",NUSA TENGGARA TIMUR,,Indonesia,,,,-10.5828763,121.8847222,https://maps.google.com/?cid=0x0:0x375b76b0478ff18f,
supermarket,supermarket,Nusa Tenggara Tim.,,Nusa Tenggara Tim.,NUSA TENGGARA TIMUR,,Indonesia,,,,-8.6573819,121.0793705,https://maps.google.com/?cid=0x0:0x1030bfbcaf71ae0,
supermarket,Toko Elektronik,Konter TITI Hede,"Pasar Hede, Mebba, Kec. Sabu Bar., Kabupaten Sabu Raijua, Nusa Tenggara Tim. 85391","Mebba, Kec. Sabu Bar., Kabupaten Sabu Raijua",NUSA TENGGARA TIMUR,85391.0,Indonesia,,,,-10.4912228,121.8414796,https://maps.google.com/?cid=0x0:0x1bf67649548cd085,
supermarket,Toko Obat,Tenangeli,"Jln Trans Seba Liae Samping SD Negeri 2 Seba, RT.001/RW.001, Raeloro, Kec. Sabu Bar., Kabupaten Sabu Raijua, Nusa Tenggara Tim. 85391","RT.001/RW.001, Raeloro, Kec. Sabu Bar., Kabupaten Sabu Raijua",NUSA TENGGARA TIMUR,85391.0,Indonesia,82250909450.0,,,-10.5037341,121.8448523,https://maps.google.com/?cid=0x0:0xec946051e63e155b,
supermarket,Salon Kecantikan,Toko Kosmetik Li Ama Sabu Raijua,"60 Meter dari simpang jalan Delo Raekore Depan RSU, Menia, Kec. Sabu Tengah, Kabupaten Sabu Raijua, Nusa Tenggara Tim. 85391","Menia, Kec. Sabu Tengah, Kabupaten Sabu Raijua",NUSA TENGGARA TIMUR,85391.0,Indonesia,81246010354.0,,,-10.4598108,121.8733569,https://maps.google.com/?cid=0x0:0xc5a3f76cfe033b4,
supermarket,Kios,Kios Samiju,"FVQ2+H8, Nadawawi, Kec. Sabu Bar., Kabupaten Sabu Raijua, Nusa Tenggara Tim. 85391","Nadawawi, Kec. Sabu Bar., Kabupaten Sabu Raijua",NUSA TENGGARA TIMUR,85391.0,Indonesia,81246521866.0,,,-10.5105339,121.8508579,https://maps.google.com/?cid=0x0:0xcae48e6607a3ed9,
supermarket,Toko Roti,EBEN CAKE SABU RAIJUA,"Musafir voice, Jalan Radio, Menia, Kec. Sabu Bar., Kabupaten Sabu Raijua, Nusa Tenggara Tim. 85391","Jalan Radio, Menia, Kec. Sabu Bar., Kabupaten Sabu Raijua",NUSA TENGGARA TIMUR,85391.0,Indonesia,81339744407.0,,,-10.4593309,121.8797827,https://maps.google.com/?cid=0x0:0xda9331680b85fd03,
supermarket,Pertanian,Woperragu,"Bora, Raemadia, Kabupaten Sabu Raijua, Nusa Tenggara Tim. 85391","Raemadia, Kabupaten Sabu Raijua",NUSA TENGGARA TIMUR,85391.0,Indonesia,82145266420.0,,,-10.4876413,121.8459414,https://maps.google.com/?cid=0x0:0x54c33f602db19e01,
supermarket,supermarket,Kios Abang,"Raemadia, RT.08/RW.004, Raeloro, Kec. Sabu Bar., Kabupaten Sabu Raijua, Nusa Tenggara Tim. 85391","RT.08/RW.004, Raeloro, Kec. Sabu Bar., Kabupaten Sabu Raijua",NUSA TENGGARA TIMUR,85391.0,Indonesia,,,,-10.4892532,121.8545491,https://maps.google.com/?cid=0x0:0x55efddb2a9cb096a,
supermarket,Toserba,Supermarket Matahari,"pasar inpres naikoten No.1, Naikoten I, Kec. Kota Raja, Kota Kupang, Nusa Tenggara Tim. 85142","Naikoten I, Kec. Kota Raja, Kota Kupang",NUSA TENGGARA TIMUR,85142.0,Indonesia,,,,-10.1813187,123.6009175,https://maps.google.com/?cid=0x0:0x47fc92b423019c18,
supermarket,Pertanian,PT. Mabua Agro Farm,"Molie, Kec. Hawu Mehara, Kabupaten Sabu Raijua, Nusa Tenggara Tim. 85391","Kec. Hawu Mehara, Kabupaten Sabu Raijua",NUSA TENGGARA TIMUR,85391.0,Indonesia,82359553088.0,,,-10.5723989,121.7138458,https://maps.google.com/?cid=0x0:0xc87805eb9c142016,
supermarket,Toko Pakaian,Yerlin Febriani Store,"Pasar Nataga, Kec. Sabu Bar., Kabupaten Sabu Raijua, Nusa Tenggara Tim. 85391","Kec. Sabu Bar., Kabupaten Sabu Raijua",NUSA TENGGARA TIMUR,85391.0,Indonesia,,,,-10.4875273,121.8567549,https://maps.google.com/?cid=0x0:0xb45a3848bfade446,
supermarket,Kios,Kios Kuning,"Jalan Gerbades, Tanajawa, Kec. Hawu Mehara, Kabupaten Sabu Raijua, Nusa Tenggara Tim. 85391","Tanajawa, Kec. Hawu Mehara, Kabupaten Sabu Raijua",NUSA TENGGARA TIMUR,85391.0,Indonesia,85239103055.0,,,-10.5634334,121.7410974,https://maps.google.com/?cid=0x0:0x6dcacfc0faf45f94,
supermarket,Toko Elektronik,Fatma Dj Alkatiri,"Jln Pelabuhan No.12, Mebba, Kec. Sabu Bar., Kabupaten Sabu Raijua, Nusa Tenggara Tim. 85391","Mebba, Kec. Sabu Bar., Kabupaten Sabu Raijua",NUSA TENGGARA TIMUR,85391.0,Indonesia,81239618174.0,,,-10.4923518,121.8391319,https://maps.google.com/?cid=0x0:0xaadbc5b62c162098,
supermarket,Toko Fotokopi,CV. Surya Nikmat,"Jl. Trans Seba - Bolow (30 m setelah tanjakan daigama (dari arah Seba, Menia, Kec. Sabu Bar., Kabupaten Sabu Raijua, Nusa Tenggara Tim. 85391","Menia, Kec. Sabu Bar., Kabupaten Sabu Raijua",NUSA TENGGARA TIMUR,85391.0,Indonesia,82229998022.0,,,-10.462668,121.866187,https://maps.google.com/?cid=0x0:0x1d56a690a1eed0e1,
supermarket,Kedai Kopi,WARKOP RILEKS,"Jl. Pelabuhan, Mebba, Kec. Sabu Bar., Kabupaten Sabu Raijua, Nusa Tenggara Tim. 85391","Mebba, Kec. Sabu Bar., Kabupaten Sabu Raijua",NUSA TENGGARA TIMUR,85391.0,Indonesia,82145777313.0,,,-10.4911692,121.838978,https://maps.google.com/?cid=0x0:0x3014180268859af6,
supermarket,supermarket,TOKO ABA YASIN,"Jln Pelabuhan No.11, Mebba, Kec. Sabu Bar., Kabupaten Sabu Raijua, Nusa Tenggara Tim. 85391","Mebba, Kec. Sabu Bar., Kabupaten Sabu Raijua",NUSA TENGGARA TIMUR,85391.0,Indonesia,,,,-10.4921527,121.8391356,https://maps.google.com/?cid=0x0:0x93fcdd5fe7887993,
supermarket,supermarket,Kec. Sabu Bar.,"Kabupaten Sabu Raijua, Nusa Tenggara Tim.","Kabupaten Sabu Raijua, Nusa Tenggara Tim.",NUSA TENGGARA TIMUR,,Indonesia,,,,-10.4996566,121.8400338,https://maps.google.com/?cid=0x0:0xa5c2c568f439a950,
supermarket,Minimarket,APPS'DI MART,"FRRX+9XR, Raeloro, Kec. Sabu Bar., Kabupaten Sabu Raijua, Nusa Tenggara Tim.","Kabupaten Sabu Raijua, Nusa Tenggara Tim.",NUSA TENGGARA TIMUR,,Indonesia,85282952895.0,,,-10.5090831,121.8499412,https://maps.google.com/?cid=0x0:0xa5b2c54ca12c043,
supermarket,Kios,Kios PURNA,"HW43+H3R, Menia, Kec. Sabu Bar., Kabupaten Sabu Raijua, Nusa Tenggara Tim.","Kabupaten Sabu Raijua, Nusa Tenggara Tim.",NUSA TENGGARA TIMUR,,Indonesia,,,,-10.4435202,121.9026373,https://maps.google.com/?cid=0x0:0x42a094f2b97efbe3,
supermarket,Minimarket,Kios Raekore,"FWC4+479, Raekore, Kec. Sabu Bar., Kabupaten Sabu Raijua, Nusa Tenggara Tim.","Kabupaten Sabu Raijua, Nusa Tenggara Tim.",NUSA TENGGARA TIMUR,,Indonesia,81318286576.0,,,-10.5297101,121.9057253,https://maps.google.com/?cid=0x0:0x137a846ddf1ff123,
supermarket,Toko bahan makanan,An Nida Shop,"Mebba, Kec. Sabu Bar., Kabupaten Sabu Raijua, Nusa Tenggara Tim.","Kabupaten Sabu Raijua, Nusa Tenggara Tim.",NUSA TENGGARA TIMUR,,Indonesia,82247692676.0,,,-10.4930458,121.8395164,https://maps.google.com/?cid=0x0:0x7eb8ddac673d299,
supermarket,Minimarket,Toko BEDA,"Jln eltari km 11..Rt 19 Rw 10 dusun 05, Menia, Kec. Sabu Bar., Kabupaten Sabu Raijua, Nusa Tenggara Tim. 85390","Menia, Kec. Sabu Bar., Kabupaten Sabu Raijua",NUSA TENGGARA TIMUR,85390.0,Indonesia,81236324724.0,,,-10.4438643,121.9062423,https://maps.google.com/?cid=0x0:0xdb8da00b3c6b69ee,
supermarket,Toko Pakaian,Natta jaya,"FRWJ+W6J, Ledeana, Kec. Sabu Bar., Kabupaten Sabu Raijua, Nusa Tenggara Tim.","Kabupaten Sabu Raijua, Nusa Tenggara Tim.",NUSA TENGGARA TIMUR,,Indonesia,82266333530.0,,,-10.5026714,121.8305147,https://maps.google.com/?cid=0x0:0x2c4f4d16aee5c90d,
supermarket,Toko Fotokopi,Rizky Photocopy,"GVQ9+QW7, Menia, Kec. Sabu Bar., Kabupaten Sabu Raijua, Nusa Tenggara Tim.","Kabupaten Sabu Raijua, Nusa Tenggara Tim.",NUSA TENGGARA TIMUR,,Indonesia,85239003777.0,,,-10.4605997,121.8697852,https://maps.google.com/?cid=0x0:0x37b2ae260eecec04,
supermarket,Minimarket,Elshaki Grethania,"FWF7+68, Raekore, Kec. Sabu Bar., Kabupaten Sabu Raijua, Nusa Tenggara Tim.","Kabupaten Sabu Raijua, Nusa Tenggara Tim.",NUSA TENGGARA TIMUR,,Indonesia,,,,-10.5270334,121.9132431,https://maps.google.com/?cid=0x0:0x8813fcc8c48ef16e,
supermarket,Pusat Perbelanjaan,UD Generasi Baru (GnB Kios Biru),"Samping Kantor Koramil, Mebba, Kec. Sabu Bar., Kabupaten Sabu Raijua, Nusa Tenggara Tim.","Kabupaten Sabu Raijua, Nusa Tenggara Tim.",NUSA TENGGARA TIMUR,,Indonesia,82266125369.0,,,-10.4984099,121.838832,https://maps.google.com/?cid=0x0:0x71526ee8b0a300f2,
supermarket,Toko Bahan Bangunan,CAHAYA BARU,"GR3Q+576, Mebba, Kec. Sabu Bar., Kabupaten Sabu Raijua, Nusa Tenggara Tim.","Kabupaten Sabu Raijua, Nusa Tenggara Tim.",NUSA TENGGARA TIMUR,,Indonesia,81239195358.0,,,-10.4970815,121.8381479,https://maps.google.com/?cid=0x0:0x858e682102d3a447,
supermarket,supermarket,Kios KasihSayang,"Mebba, Kec. Sabu Bar., Kabupaten Sabu Raijua, Nusa Tenggara Tim. 85395","Kec. Sabu Bar., Kabupaten Sabu Raijua",NUSA TENGGARA TIMUR,85395.0,Indonesia,82247103990.0,,,-10.4994892,121.8400246,https://maps.google.com/?cid=0x0:0xd668764da8e5d188,
supermarket,Toko bahan makanan,UD. Dua Purnama,"GR4V+RMM Tardamu Airport (Savu Island Aiport, Mebba, Sabu Barat, Sabu Raijua Regency, East Nusa Tenggara","Kabupaten Sabu Raijua, Nusa Tenggara Tim.",NUSA TENGGARA TIMUR,,Indonesia,81339339121.0,,,-10.4929106,121.844181,https://maps.google.com/?cid=0x0:0x26a02d1b4b0072b0,
supermarket,supermarket,Nusa Tenggara Tim.,,Nusa Tenggara Tim.,NUSA TENGGARA TIMUR,,Indonesia,,,,-8.6573819,121.0793705,https://maps.google.com/?cid=0x0:0x1030bfbcaf71ae0,
supermarket,Toko,Kios Ibeth Ina,"GX2M+58V, Loborai, Kec. Sabu Tim., Kabupaten Sabu Raijua, Nusa Tenggara Tim.","Kabupaten Sabu Raijua, Nusa Tenggara Tim.",NUSA TENGGARA TIMUR,,Indonesia,,,,-10.4995145,121.9832822,https://maps.google.com/?cid=0x0:0x32597e0535b6111b,
supermarket,Minimarket,Kios Empat Saudara(Derrirev),"Jl. Pelabuhan Biu No.5, Limaggu, Kec. Sabu Tim., Kabupaten Sabu Raijua, Nusa Tenggara Tim. 85392","Limaggu, Kec. Sabu Tim., Kabupaten Sabu Raijua",NUSA TENGGARA TIMUR,85392.0,Indonesia,82339487670.0,,,-10.5020073,121.9761506,https://maps.google.com/?cid=0x0:0x994a8a5ff2f96dc9,
supermarket,Minimarket,Olahan pangan lokal,"RT.004/RW.002, Keliha, Kec. Sabu Tim., Kabupaten Sabu Raijua, Nusa Tenggara Tim. 85392","Keliha, Kec. Sabu Tim., Kabupaten Sabu Raijua",NUSA TENGGARA TIMUR,85392.0,Indonesia,82247762038.0,,,-10.4678861,121.9761185,https://maps.google.com/?cid=0x0:0x27dde7f56b4acafb,
supermarket,supermarket,Kec. Sabu Tengah,"Kabupaten Sabu Raijua, Nusa Tenggara Tim.","Kabupaten Sabu Raijua, Nusa Tenggara Tim.",NUSA TENGGARA TIMUR,,Indonesia,,,,-10.455074,121.9356414,https://maps.google.com/?cid=0x0:0x8ba6c85f529ad7ae,
supermarket,Toko Perlengkapan Rumah,CV.Dideer,"FX55+F43, Unnamed Road, Eiada, Kec. Sabu Tim., Kabupaten Sabu Raijua, Nusa Tenggara Tim.","Kabupaten Sabu Raijua, Nusa Tenggara Tim.",NUSA TENGGARA TIMUR,,Indonesia,,,,-10.541363,121.957791,https://maps.google.com/?cid=0x0:0x712519dfb319a0a4,
supermarket,Toko bahan makanan,Kaleb Djami adi,"GW3P+37, Eimmadake, Kec. Sabu Tengah, Kabupaten Sabu Raijua, Nusa Tenggara Tim.","Kabupaten Sabu Raijua, Nusa Tenggara Tim.",NUSA TENGGARA TIMUR,,Indonesia,,,,-10.4973352,121.935751,https://maps.google.com/?cid=0x0:0xcb93a348db51cd5,
supermarket,Kios,Kios PURNA,"HW43+H3R, Menia, Kec. Sabu Bar., Kabupaten Sabu Raijua, Nusa Tenggara Tim.","Kabupaten Sabu Raijua, Nusa Tenggara Tim.",NUSA TENGGARA TIMUR,,Indonesia,,,,-10.4435202,121.9026373,https://maps.google.com/?cid=0x0:0x42a094f2b97efbe3,
supermarket,Toko bahan makanan,Kios 4 putri,"HW48+XF, Eimau, Kec. Sabu Tengah, Kabupaten Sabu Raijua, Nusa Tenggara Tim.","Kabupaten Sabu Raijua, Nusa Tenggara Tim.",NUSA TENGGARA TIMUR,,Indonesia,,,,-10.4425511,121.9162049,https://maps.google.com/?cid=0x0:0xe7118f6774c37c60,
supermarket,Minimarket,Toko BEDA,"Jln eltari km 11..Rt 19 Rw 10 dusun 05, Menia, Kec. Sabu Bar., Kabupaten Sabu Raijua, Nusa Tenggara Tim. 85390","Menia, Kec. Sabu Bar., Kabupaten Sabu Raijua",NUSA TENGGARA TIMUR,85390.0,Indonesia,81236324724.0,,,-10.4438643,121.9062423,https://maps.google.com/?cid=0x0:0xdb8da00b3c6b69ee,
supermarket,Minimarket,SURYA MAS,"GX3F+49R, Bolou, Kec. Sabu Tim., Kabupaten Sabu Raijua, Nusa Tenggara Tim.","Kabupaten Sabu Raijua, Nusa Tenggara Tim.",NUSA TENGGARA TIMUR,,Indonesia,,,,-10.4971298,121.9734028,https://maps.google.com/?cid=0x0:0xac4e9de0dc49d40b,
supermarket,Toko bahan makanan,Rambu mutiara,"GW3P+37, Eimmadake, Kec. Sabu Tengah, Kabupaten Sabu Raijua, Nusa Tenggara Tim.","Kabupaten Sabu Raijua, Nusa Tenggara Tim.",NUSA TENGGARA TIMUR,,Indonesia,,,,-10.4979756,121.9359148,https://maps.google.com/?cid=0x0:0xf9c0e43c09cb121d,
supermarket,Minimarket,Toko ELSADHAY,"GWRR+XJW, Eilode, Kec. Sabu Tengah, Kabupaten Sabu Raijua, Nusa Tenggara Tim.","Kabupaten Sabu Raijua, Nusa Tenggara Tim.",NUSA TENGGARA TIMUR,,Indonesia,,,,-10.4571536,121.9408976,https://maps.google.com/?cid=0x0:0xade38af7f43b4588,
supermarket,Kios,Kios hikmakasih,"HW2G+F5, Eimau, Kec. Sabu Tengah, Kabupaten Sabu Raijua, Nusa Tenggara Tim.","Kabupaten Sabu Raijua, Nusa Tenggara Tim.",NUSA TENGGARA TIMUR,,Indonesia,81236775642.0,,,-10.4488043,121.9254662,https://maps.google.com/?cid=0x0:0xe6eee082cd16e793,
supermarket,Kios,Kios Rejeki,"GX3F+RQV, Bolou, Kec. Sabu Tim., Kabupaten Sabu Raijua, Nusa Tenggara Tim.","Kabupaten Sabu Raijua, Nusa Tenggara Tim.",NUSA TENGGARA TIMUR,,Indonesia,85339004532.0,,,-10.4953829,121.9744262,https://maps.google.com/?cid=0x0:0x8bc2ee09573d4838,
supermarket,Minimarket,Kios Raekore,"FWC4+479, Raekore, Kec. Sabu Bar., Kabupaten Sabu Raijua, Nusa Tenggara Tim.","Kabupaten Sabu Raijua, Nusa Tenggara Tim.",NUSA TENGGARA TIMUR,,Indonesia,81318286576.0,,,-10.5297101,121.9057253,https://maps.google.com/?cid=0x0:0x137a846ddf1ff123,
supermarket,Kios,Kios AmasoN,"GWRR+VW9, Eilode, Kec. Sabu Tengah, Kabupaten Sabu Raijua, Nusa Tenggara Tim.","Kabupaten Sabu Raijua, Nusa Tenggara Tim.",NUSA TENGGARA TIMUR,,Indonesia,81339094161.0,,,-10.4578324,121.9423443,https://maps.google.com/?cid=0x0:0x28a2e7ed0b3278ba,
supermarket,supermarket,KIOS,"GWXJ+JG2, Eimau, Kec. Sabu Tengah, Kabupaten Sabu Raijua, Nusa Tenggara Tim.","Kabupaten Sabu Raijua, Nusa Tenggara Tim.",NUSA TENGGARA TIMUR,,Indonesia,,,,-10.4509927,121.9312079,https://maps.google.com/?cid=0x0:0x9540021f19ae955a,
supermarket,supermarket,Marshanda Huki,"GW2P+RM7, Eimmadake, Kec. Sabu Tengah, Kabupaten Sabu Raijua, Nusa Tenggara Tim.","Kabupaten Sabu Raijua, Nusa Tenggara Tim.",NUSA TENGGARA TIMUR,,Indonesia,,,,-10.497965,121.9366869,https://maps.google.com/?cid=0x0:0xd171d61051b9c6eb,
supermarket,Kios,Kios Harapa Baru,"GWWP+3G5, Unnamed Road, Eilode, Kec. Sabu Tengah, Kabupaten Sabu Raijua, Nusa Tenggara Tim.","Kabupaten Sabu Raijua, Nusa Tenggara Tim.",NUSA TENGGARA TIMUR,,Indonesia,82145071433.0,,,-10.454871,121.936367,https://maps.google.com/?cid=0x0:0x104bbea555a75e4e,
supermarket,Minimarket,Kios kelmy do lalu,"FXJ4+CG, Matei, Kec. Sabu Tengah, Kabupaten Sabu Raijua, Nusa Tenggara Tim.","Kabupaten Sabu Raijua, Nusa Tenggara Tim.",NUSA TENGGARA TIMUR,,Indonesia,,,,-10.5189303,121.9563927,https://maps.google.com/?cid=0x0:0x17ef61e6923fd590,
supermarket,Minimarket,Lestary,"FXP2+C36, Matei, Kec. Sabu Tengah, Kabupaten Sabu Raijua, Nusa Tenggara Tim.","Kabupaten Sabu Raijua, Nusa Tenggara Tim.",NUSA TENGGARA TIMUR,,Indonesia,,,,-10.5139713,121.9501551,https://maps.google.com/?cid=0x0:0xe8e2a5657e147ce1,
supermarket,supermarket,Jecky parera,"FXG7+4PH, Lobodei, Kec. Sabu Tim., Kabupaten Sabu Raijua, Nusa Tenggara Tim.","Kabupaten Sabu Raijua, Nusa Tenggara Tim.",NUSA TENGGARA TIMUR,,Indonesia,,,,-10.5246842,121.9643745,https://maps.google.com/?cid=0x0:0x93655a5b72b86806,
supermarket,Toko bahan makanan,Jiwuwu Gank,"GXX8+2G, Jiwuwu, Kec. Sabu Tengah, Kabupaten Sabu Raijua, Nusa Tenggara Tim.","Kabupaten Sabu Raijua, Nusa Tenggara Tim.",NUSA TENGGARA TIMUR,,Indonesia,,,,-10.4523827,121.9662995,https://maps.google.com/?cid=0x0:0x433dc0ec44644c5a,
supermarket,Toko,Arman Li,"FWFX+6RJ, Matei, Kec. Sabu Tengah, Kabupaten Sabu Raijua, Nusa Tenggara Tim.","Kabupaten Sabu Raijua, Nusa Tenggara Tim.",NUSA TENGGARA TIMUR,,Indonesia,,,,-10.5269236,121.9495133,https://maps.google.com/?cid=0x0:0xf6dd26a403f6e5ab,
supermarket,Toko,Kios Ibeth Ina,"GX2M+58V, Loborai, Kec. Sabu Tim., Kabupaten Sabu Raijua, Nusa Tenggara Tim.","Kabupaten Sabu Raijua, Nusa Tenggara Tim.",NUSA TENGGARA TIMUR,,Indonesia,,,,-10.4995145,121.9832822,https://maps.google.com/?cid=0x0:0x32597e0535b6111b,
supermarket,supermarket,Kec. Sabu Tim.,"Kabupaten Sabu Raijua, Nusa Tenggara Tim.","Kabupaten Sabu Raijua, Nusa Tenggara Tim.",NUSA TENGGARA TIMUR,,Indonesia,,,,-10.5013069,121.9721227,https://maps.google.com/?cid=0x0:0x89fb1247da8e5a16,
supermarket,Toko Perlengkapan Rumah,CV.Dideer,"FX55+F43, Unnamed Road, Eiada, Kec. Sabu Tim., Kabupaten Sabu Raijua, Nusa Tenggara Tim.","Kabupaten Sabu Raijua, Nusa Tenggara Tim.",NUSA TENGGARA TIMUR,,Indonesia,,,,-10.541363,121.957791,https://maps.google.com/?cid=0x0:0x712519dfb319a0a4,
supermarket,Perhimpunan Pengembang Perumahan,Keliha sabu timur NTT,"GXWG+57Q, Keliha, Kec. Sabu Tim., Kabupaten Sabu Raijua, Nusa Tenggara Tim.","Kabupaten Sabu Raijua, Nusa Tenggara Tim.",NUSA TENGGARA TIMUR,,Indonesia,,,,-10.4545384,121.9757487,https://maps.google.com/?cid=0x0:0x77a706bde6f49159,
supermarket,Minimarket,SURYA MAS,"GX3F+49R, Bolou, Kec. Sabu Tim., Kabupaten Sabu Raijua, Nusa Tenggara Tim.","Kabupaten Sabu Raijua, Nusa Tenggara Tim.",NUSA TENGGARA TIMUR,,Indonesia,,,,-10.4971298,121.9734028,https://maps.google.com/?cid=0x0:0xac4e9de0dc49d40b,
supermarket,Kios,Kios Rejeki,"GX3F+RQV, Bolou, Kec. Sabu Tim., Kabupaten Sabu Raijua, Nusa Tenggara Tim.","Kabupaten Sabu Raijua, Nusa Tenggara Tim.",NUSA TENGGARA TIMUR,,Indonesia,85339004532.0,,,-10.4953829,121.9744262,https://maps.google.com/?cid=0x0:0x8bc2ee09573d4838,
supermarket,Komplek perumahan,Dinikuji (Desa Kujiratu),"GXMP+4H6, Kujiratu, Kec. Sabu Tim., Kabupaten Sabu Raijua, Nusa Tenggara Tim.","Kabupaten Sabu Raijua, Nusa Tenggara Tim.",NUSA TENGGARA TIMUR,,Indonesia,85239210497.0,,,-10.4672027,121.9863998,https://maps.google.com/?cid=0x0:0xcd483bd7b852c043,
supermarket,Minimarket,Kios Empat Saudara(Derrirev),"Jl. Pelabuhan Biu No.5, Limaggu, Kec. Sabu Tim., Kabupaten Sabu Raijua, Nusa Tenggara Tim. 85392","Limaggu, Kec. Sabu Tim., Kabupaten Sabu Raijua",NUSA TENGGARA TIMUR,85392.0,Indonesia,82339487670.0,,,-10.5020073,121.9761506,https://maps.google.com/?cid=0x0:0x994a8a5ff2f96dc9,
supermarket,Toko umum,Lapak Dapur Hidup,"Da, Jl. Trans Bolow-Seba, RT 006 RW 003, Way La, Bodae, Kec. Sabu Tim.","Kabupaten Sabu Raijua, Nusa Tenggara Tim.",NUSA TENGGARA TIMUR,,Indonesia,81236543575.0,,,-10.4778691,121.9875138,https://maps.google.com/?cid=0x0:0x1d93f69189e9041f,
supermarket,Minimarket,Olahan pangan lokal,"RT.004/RW.002, Keliha, Kec. Sabu Tim., Kabupaten Sabu Raijua, Nusa Tenggara Tim. 85392","Keliha, Kec. Sabu Tim., Kabupaten Sabu Raijua",NUSA TENGGARA TIMUR,85392.0,Indonesia,82247762038.0,,,-10.4678861,121.9761185,https://maps.google.com/?cid=0x0:0x27dde7f56b4acafb,
supermarket,Minimarket,KIOS: Amira JAYA,"GX6H+23C, Bolou, Kec. Sabu Tim., Kabupaten Sabu Raijua, Nusa Tenggara Tim.","Kabupaten Sabu Raijua, Nusa Tenggara Tim.",NUSA TENGGARA TIMUR,,Indonesia,85333843333.0,,,-10.4899498,121.9776351,https://maps.google.com/?cid=0x0:0xd7ef4d5a0aa093cf,
supermarket,Toko Swalayan,Toko Ina Do Mamiha,"GX7H+7QW, Jln eltari, Bolou, Kec. Sabu Tim., Kabupaten Sabu Raijua, Nusa Tenggara Tim.","Kabupaten Sabu Raijua, Nusa Tenggara Tim.",NUSA TENGGARA TIMUR,,Indonesia,85253412463.0,,,-10.486752,121.9794557,https://maps.google.com/?cid=0x0:0x9e1c8e545a5bb32,
supermarket,Minimarket,Kios kelmy do lalu,"FXJ4+CG, Matei, Kec. Sabu Tengah, Kabupaten Sabu Raijua, Nusa Tenggara Tim.","Kabupaten Sabu Raijua, Nusa Tenggara Tim.",NUSA TENGGARA TIMUR,,Indonesia,,,,-10.5189303,121.9563927,https://maps.google.com/?cid=0x0:0x17ef61e6923fd590,
supermarket,Toko Bahan Bangunan,Toko Heppy Karya,"GX6H+PHX, Jln eltari, Bolou, Kec. Sabu Tim., Kabupaten Sabu Raijua, Nusa Tenggara Tim.","Kabupaten Sabu Raijua, Nusa Tenggara Tim.",NUSA TENGGARA TIMUR,,Indonesia,81246026451.0,,,-10.4881381,121.9789821,https://maps.google.com/?cid=0x0:0x256ab8a33c1608b6,
supermarket,Toko Bahan Bangunan,Bolou sabu timur,"GX3F+85J, Bolou, Kec. Sabu Tim., Kabupaten Sabu Raijua, Nusa Tenggara Tim.","Kabupaten Sabu Raijua, Nusa Tenggara Tim.",NUSA TENGGARA TIMUR,,Indonesia,,,,-10.4966636,121.9729053,https://maps.google.com/?cid=0x0:0xbc3dc5be85bc3074,
supermarket,Toko umum,Kios MAKAHO,"GXHP+FFX, Bodae, Kec. Sabu Tim., Kabupaten Sabu Raijua, Nusa Tenggara Tim.","Kabupaten Sabu Raijua, Nusa Tenggara Tim.",NUSA TENGGARA TIMUR,,Indonesia,82339433374.0,,,-10.4712556,121.986244,https://maps.google.com/?cid=0x0:0x57f16c3924d5288e,
supermarket,Kios,Defe Dida,"FXWM+6CF, Jl. Pelabuhan Biu, Limaggu, Kec. Sabu Tim., Kabupaten Sabu Raijua, Nusa Tenggara Tim.","Kabupaten Sabu Raijua, Nusa Tenggara Tim.",NUSA TENGGARA TIMUR,,Indonesia,,,,-10.5044449,121.9835622,https://maps.google.com/?cid=0x0:0x4aa4d9a923157003,
supermarket,supermarket,Jecky parera,"FXG7+4PH, Lobodei, Kec. Sabu Tim., Kabupaten Sabu Raijua, Nusa Tenggara Tim.","Kabupaten Sabu Raijua, Nusa Tenggara Tim.",NUSA TENGGARA TIMUR,,Indonesia,,,,-10.5246842,121.9643745,https://maps.google.com/?cid=0x0:0x93655a5b72b86806,
supermarket,Toko Pakaian,TOKO MITHA COLLECTION,"GX6H+WG2, Keduru, Kec. Sabu Tim., Kabupaten Sabu Raijua, Nusa Tenggara Tim.","Kabupaten Sabu Raijua, Nusa Tenggara Tim.",NUSA TENGGARA TIMUR,,Indonesia,85253335060.0,,,-10.4877418,121.9787538,https://maps.google.com/?cid=0x0:0xd2a8a8541f035b0b,
supermarket,Toko,UD. TELENTA KASIH,"FXP9+99M, Unnamed Road, Lobodei, Kec. Sabu Tim., Kabupaten Sabu Raijua, Nusa Tenggara Tim.","Kabupaten Sabu Raijua, Nusa Tenggara Tim.",NUSA TENGGARA TIMUR,,Indonesia,,,,-10.5140351,121.9684176,https://maps.google.com/?cid=0x0:0x4119665be1bfd5dd,
supermarket,Toko bahan makanan,Kaleb Djami adi,"GW3P+37, Eimmadake, Kec. Sabu Tengah, Kabupaten Sabu Raijua, Nusa Tenggara Tim.","Kabupaten Sabu Raijua, Nusa Tenggara Tim.",NUSA TENGGARA TIMUR,,Indonesia,,,,-10.4973352,121.935751,https://maps.google.com/?cid=0x0:0xcb93a348db51cd5,
supermarket,Kios,Kios Berkat Lancar,"GXCP+8QV, Bodae, Kec. Sabu Tim., Kabupaten Sabu Raijua, Nusa Tenggara Tim.","Kabupaten Sabu Raijua, Nusa Tenggara Tim.",NUSA TENGGARA TIMUR,,Indonesia,,,,-10.4791281,121.9869076,https://maps.google.com/?cid=0x0:0xb1e1eb932cdb673d,
supermarket,Toko umum,UD. Bale Lalu Deo,"Jl. Benteng Ege. RT01/RT01, Dusun Railawo, Desa Waduwala, Kec, Waduwala, Kecamatan Sabu Liae, Kabupaten Sabu Raijua, Nusa Tenggara Tim.","Kabupaten Sabu Raijua, Nusa Tenggara Tim.",NUSA TENGGARA TIMUR,,Indonesia,81246996506.0,,,-10.6128561,121.8660472,https://maps.google.com/?cid=0x0:0x2741a70e37546ee,
supermarket,supermarket,Kecamatan Sabu Liae,"Kabupaten Sabu Raijua, Nusa Tenggara Tim.","Kabupaten Sabu Raijua, Nusa Tenggara Tim.",NUSA TENGGARA TIMUR,,Indonesia,,,,-10.6015691,121.8688783,https://maps.google.com/?cid=0x0:0x957814b2c371884a,
supermarket,supermarket,UD. TUNAS BARU LEDETALO,"CWG6+X44, Ledetalo, Kecamatan Sabu Liae, Kabupaten Sabu Raijua, Nusa Tenggara Tim.","Kabupaten Sabu Raijua, Nusa Tenggara Tim.",NUSA TENGGARA TIMUR,,Indonesia,,,,-10.5726077,121.910331,https://maps.google.com/?cid=0x0:0x2f4a98b4aa98c42f,
supermarket,Toko bahan makanan,Kios dua putra,"CWJH+VM, Deme, Kecamatan Sabu Liae, Kabupaten Sabu Raijua, Nusa Tenggara Tim.","Kabupaten Sabu Raijua, Nusa Tenggara Tim.",NUSA TENGGARA TIMUR,,Indonesia,,,,-10.5677986,121.929176,https://maps.google.com/?cid=0x0:0x4e6f45db6455216f,
supermarket,Kios,KIOS ALMER,"CV2J+867, Eilogo, Kecamatan Sabu Liae, Kabupaten Sabu Raijua, Nusa Tenggara Tim.","Kabupaten Sabu Raijua, Nusa Tenggara Tim.",NUSA TENGGARA TIMUR,,Indonesia,,,,-10.5992196,121.88056,https://maps.google.com/?cid=0x0:0xa517961afa626c42,
supermarket,Toko,Kios Lopes,"CWF2+8WF, Ledetalo, Kecamatan Sabu Liae, Kabupaten Sabu Raijua, Nusa Tenggara Tim.","Kabupaten Sabu Raijua, Nusa Tenggara Tim.",NUSA TENGGARA TIMUR,,Indonesia,81237953727.0,,,-10.5766987,121.9023026,https://maps.google.com/?cid=0x0:0x943e2b0540bfa5ac,
supermarket,Kantor Perusahaan,FOTOCOPY sheeKL,"CR49+7V2, Eikare, Kecamatan Sabu Liae, Kabupaten Sabu Raijua, Nusa Tenggara Tim.","Kabupaten Sabu Raijua, Nusa Tenggara Tim.",NUSA TENGGARA TIMUR,,Indonesia,,,,-10.5943722,121.8196505,https://maps.google.com/?cid=0x0:0x70d4ac9bd17a305a,
supermarket,supermarket,Herson radja,"CR4M+4JC, Mehona, Kecamatan Sabu Liae, Kabupaten Sabu Raijua, Nusa Tenggara Tim.","Kabupaten Sabu Raijua, Nusa Tenggara Tim.",NUSA TENGGARA TIMUR,,Indonesia,,,,-10.5946914,121.834022,https://maps.google.com/?cid=0x0:0x65f742fbcf4e3d6b,
supermarket,Minimarket,Bolou,"9VRF+FVP, Waduwala, Kecamatan Sabu Liae, Kabupaten Sabu Raijua, Nusa Tenggara Tim.","Kabupaten Sabu Raijua, Nusa Tenggara Tim.",NUSA TENGGARA TIMUR,,Indonesia,,,,-10.609637,121.874662,https://maps.google.com/?cid=0x0:0x5803912a67d6cdcb,
supermarket,Kios,Hendrik Lay Day,"CWG2+PWV, Kotahawu, Kecamatan Sabu Liae, Kabupaten Sabu Raijua, Nusa Tenggara Tim.","Kabupaten Sabu Raijua, Nusa Tenggara Tim.",NUSA TENGGARA TIMUR,,Indonesia,,,,-10.5731375,121.9022969,https://maps.google.com/?cid=0x0:0x316ceb5be4ec4859,
supermarket,Minimarket,ADITYA kios,"CV2J+CM2, Eilogo, Kecamatan Sabu Liae, Kabupaten Sabu Raijua, Nusa Tenggara Tim.","Kabupaten Sabu Raijua, Nusa Tenggara Tim.",NUSA TENGGARA TIMUR,,Indonesia,,,,-10.5989836,121.8816375,https://maps.google.com/?cid=0x0:0xab9286fef7d30b51,
supermarket,Toko bahan makanan,Kios Wohe Uru/Hasan,"Kotahawu, Kecamatan Sabu Liae, Kabupaten Sabu Raijua, Nusa Tenggara Tim.","Kabupaten Sabu Raijua, Nusa Tenggara Tim.",NUSA TENGGARA TIMUR,,Indonesia,85281680931.0,,,-10.6015691,121.8688783,https://maps.google.com/?cid=0x0:0x101c9de422c6a71f,
supermarket,Toko umum,Hendrik Lado,"CW42+WFQ, Halapaji, Kecamatan Sabu Liae, Kabupaten Sabu Raijua, Nusa Tenggara Tim.","Kabupaten Sabu Raijua, Nusa Tenggara Tim.",NUSA TENGGARA TIMUR,,Indonesia,,,,-10.5922415,121.9006561,https://maps.google.com/?cid=0x0:0xaf7b2f4af1be50db,
supermarket,Toko bahan makanan,Kios Mira kaddi Hari,"CR4H+VMG, Dusun V, Mehona, Kecamatan Sabu Liae, Kabupaten Sabu Raijua, Nusa Tenggara Tim.","Kabupaten Sabu Raijua, Nusa Tenggara Tim.",NUSA TENGGARA TIMUR,,Indonesia,,,,-10.592804,121.8292161,https://maps.google.com/?cid=0x0:0x4269917db05505ac,
supermarket,Minimarket,Kios Raekore,"FWC4+479, Raekore, Kec. Sabu Bar., Kabupaten Sabu Raijua, Nusa Tenggara Tim.","Kabupaten Sabu Raijua, Nusa Tenggara Tim.",NUSA TENGGARA TIMUR,,Indonesia,81318286576.0,,,-10.5297101,121.9057253,https://maps.google.com/?cid=0x0:0x137a846ddf1ff123,
supermarket,Gereja,Ud. JLD Ledetalo,"CVGX+FRG, Ledetalo, Kecamatan Sabu Liae, Kabupaten Sabu Raijua, Nusa Tenggara Tim.","Kabupaten Sabu Raijua, Nusa Tenggara Tim.",NUSA TENGGARA TIMUR,,Indonesia,81237484711.0,,,-10.573586,121.9007869,https://maps.google.com/?cid=0x0:0x84b4cb0ae9dcf2bc,
supermarket,Toko,Kios Ibeth Ina,"GX2M+58V, Loborai, Kec. Sabu Tim., Kabupaten Sabu Raijua, Nusa Tenggara Tim.","Kabupaten Sabu Raijua, Nusa Tenggara Tim.",NUSA TENGGARA TIMUR,,Indonesia,,,,-10.4995145,121.9832822,https://maps.google.com/?cid=0x0:0x32597e0535b6111b,
supermarket,Perhimpunan Pengembang Perumahan,Kotahawu,"CVPX+9HP, Kotahawu, Kecamatan Sabu Liae, Kabupaten Sabu Raijua, Nusa Tenggara Tim.","Kabupaten Sabu Raijua, Nusa Tenggara Tim.",NUSA TENGGARA TIMUR,,Indonesia,,,,-10.5640304,121.8989501,https://maps.google.com/?cid=0x0:0x4721522b93385cf7,
supermarket,Toko Roti,Raerobo,"9RV9+2P2, Raerobo, Kecamatan Sabu Liae, Kabupaten Sabu Raijua, Nusa Tenggara Tim.","Kabupaten Sabu Raijua, Nusa Tenggara Tim.",NUSA TENGGARA TIMUR,,Indonesia,,,,-10.6074876,121.8192506,https://maps.google.com/?cid=0x0:0xf089bd3a3888fd8,
supermarket,,Depot air Carlissa KL,"9RXG+QGX, Eikare, Kecamatan Sabu Liae, Kabupaten Sabu Raijua, Nusa Tenggara Tim.","Kabupaten Sabu Raijua, Nusa Tenggara Tim.",NUSA TENGGARA TIMUR,,Indonesia,,,,-10.6005221,121.8263689,https://maps.google.com/?cid=0x0:0xf0b064921cdd4e27,
supermarket,Toko Elektronik,MARSYANDA ELECTRIK,"Waduwala, Kecamatan Sabu Liae, Kabupaten Sabu Raijua, Nusa Tenggara Tim.","Kabupaten Sabu Raijua, Nusa Tenggara Tim.",NUSA TENGGARA TIMUR,,Indonesia,82342850001.0,,,-10.6098108,121.875749,https://maps.google.com/?cid=0x0:0x86745255f581c7e0,
supermarket,Toko Obat,Tenangeli,"Jln Trans Seba Liae Samping SD Negeri 2 Seba, RT.001/RW.001, Raeloro, Kec. Sabu Bar., Kabupaten Sabu Raijua, Nusa Tenggara Tim. 85391","RT.001/RW.001, Raeloro, Kec. Sabu Bar., Kabupaten Sabu Raijua",NUSA TENGGARA TIMUR,85391.0,Indonesia,82250909450.0,,,-10.5037341,121.8448523,https://maps.google.com/?cid=0x0:0xec946051e63e155b,
supermarket,Toko Perlengkapan Rumah,Dominggus wahi,"9VX9+9HC, Hallapadji, Kecamatan Sabu Liae, Kabupaten Sabu Raijua, Nusa Tenggara Tim.","Kabupaten Sabu Raijua, Nusa Tenggara Tim.",NUSA TENGGARA TIMUR,,Indonesia,,,,-10.6015691,121.8688783,https://maps.google.com/?cid=0x0:0x96c7b8c0e0ee79b4,
supermarket,Minimarket,APPS'DI MART,"FRRX+9XR, Raeloro, Kec. Sabu Bar., Kabupaten Sabu Raijua, Nusa Tenggara Tim.","Kabupaten Sabu Raijua, Nusa Tenggara Tim.",NUSA TENGGARA TIMUR,,Indonesia,85282952895.0,,,-10.5090831,121.8499412,https://maps.google.com/?cid=0x0:0xa5b2c54ca12c043,
supermarket,Minimarket,Elshaki Grethania,"FWF7+68, Raekore, Kec. Sabu Bar., Kabupaten Sabu Raijua, Nusa Tenggara Tim.","Kabupaten Sabu Raijua, Nusa Tenggara Tim.",NUSA TENGGARA TIMUR,,Indonesia,,,,-10.5270334,121.9132431,https://maps.google.com/?cid=0x0:0x8813fcc8c48ef16e,
supermarket,supermarket,Kios KasihSayang,"Mebba, Kec. Sabu Bar., Kabupaten Sabu Raijua, Nusa Tenggara Tim. 85395","Kec. Sabu Bar., Kabupaten Sabu Raijua",NUSA TENGGARA TIMUR,85395.0,Indonesia,82247103990.0,,,-10.4994892,121.8400246,https://maps.google.com/?cid=0x0:0xd668764da8e5d188,
supermarket,Toko Bahan Bangunan,CAHAYA BARU,"GR3Q+576, Mebba, Kec. Sabu Bar., Kabupaten Sabu Raijua, Nusa Tenggara Tim.","Kabupaten Sabu Raijua, Nusa Tenggara Tim.",NUSA TENGGARA TIMUR,,Indonesia,81239195358.0,,,-10.4970815,121.8381479,https://maps.google.com/?cid=0x0:0x858e682102d3a447,
supermarket,Kios,Kios Samiju,"FVQ2+H8, Nadawawi, Kec. Sabu Bar., Kabupaten Sabu Raijua, Nusa Tenggara Tim. 85391","Nadawawi, Kec. Sabu Bar., Kabupaten Sabu Raijua",NUSA TENGGARA TIMUR,85391.0,Indonesia,81246521866.0,,,-10.5105339,121.8508579,https://maps.google.com/?cid=0x0:0xcae48e6607a3ed9,
supermarket,Toko bahan makanan,Gula Lempeng,"Ledekepaka, Kec. Sabu Bar., Kabupaten Sabu Raijua, Nusa Tenggara Tim. 85391","Kec. Sabu Bar., Kabupaten Sabu Raijua",NUSA TENGGARA TIMUR,85391.0,Indonesia,81238913651.0,,,-10.535666,121.8079122,https://maps.google.com/?cid=0x0:0xc3d8980fe825ee69,
supermarket,Pasar,Lobohede,"CP2P+6V, Lobohede, Kec. Hawu Mehara, Kabupaten Sabu Raijua, Nusa Tenggara Tim.","Kabupaten Sabu Raijua, Nusa Tenggara Tim.",NUSA TENGGARA TIMUR,,Indonesia,,,,-10.6000151,121.7363416,https://maps.google.com/?cid=0x0:0x266543123f16b220,
supermarket,supermarket,Kec. Hawu Mehara,"Kabupaten Sabu Raijua, Nusa Tenggara Tim.","Kabupaten Sabu Raijua, Nusa Tenggara Tim.",NUSA TENGGARA TIMUR,,Indonesia,,,,-10.5744578,121.7236313,https://maps.google.com/?cid=0x0:0x570cb4b99e28effb,
supermarket,Toko,Ubarani,"CQ47+72J, Jalan Desa, RT.09/RW.04, Pedarro, Hawu Mehara, Sabu Raijua Regency, East Nusa Tenggara","Kabupaten Sabu Raijua, Nusa Tenggara Tim.",NUSA TENGGARA TIMUR,,Indonesia,,,,-10.5942848,121.7625036,https://maps.google.com/?cid=0x0:0xb3101fe16c77b475,
supermarket,Monopoli Ritel Alkohol,Hawwi,"FQ6Q+2Q, Raedewa, Kec. Sabu Bar., Kabupaten Sabu Raijua, Nusa Tenggara Tim.","Kabupaten Sabu Raijua, Nusa Tenggara Tim.",NUSA TENGGARA TIMUR,,Indonesia,,,,-10.5399076,121.7894848,https://maps.google.com/?cid=0x0:0xdbe07631309fc9d7,
supermarket,Pasar,Lhejen Ratu,"CP2V+C4W, Ramedue, Kec. Hawu Mehara, Kabupaten Sabu Raijua, Nusa Tenggara Tim.","Kabupaten Sabu Raijua, Nusa Tenggara Tim.",NUSA TENGGARA TIMUR,,Indonesia,81246578613.0,,,-10.5988778,121.7428365,https://maps.google.com/?cid=0x0:0xaed1128c5684aa94,
supermarket,Toko Swalayan,PKJ,"CP3H+673, Lobohede, City, Kabupaten Sabu Raijua, Nusa Tenggara Tim.","Kabupaten Sabu Raijua, Nusa Tenggara Tim.",NUSA TENGGARA TIMUR,,Indonesia,,,,-10.5969997,121.728181,https://maps.google.com/?cid=0x0:0x90ad8505fc0ae774,
supermarket,Hotel,Matias Tagi Huma,"CPP9+47M, Molie, Kec. Hawu Mehara, Kabupaten Sabu Raijua, Nusa Tenggara Tim.","Kabupaten Sabu Raijua, Nusa Tenggara Tim.",NUSA TENGGARA TIMUR,,Indonesia,8113812422.0,,,-10.5646735,121.7181836,https://maps.google.com/?cid=0x0:0x93fd86c08ac2efe7,
supermarket,Toko umum,Adelfina,"CQFF+98, Pedarro, Kec. Hawu Mehara, Kabupaten Sabu Raijua, Nusa Tenggara Tim.","Kabupaten Sabu Raijua, Nusa Tenggara Tim.",NUSA TENGGARA TIMUR,,Indonesia,,,,-10.576612,121.7733259,https://maps.google.com/?cid=0x0:0x16bc49ab20c89a57,
supermarket,Kios,Kios Mata Harra,"FQ52+5GC, Daieko, Kec. Hawu Mehara, Kabupaten Sabu Raijua, Nusa Tenggara Tim.","Kabupaten Sabu Raijua, Nusa Tenggara Tim.",NUSA TENGGARA TIMUR,,Indonesia,,,,-10.542087,121.7512585,https://maps.google.com/?cid=0x0:0xbecc5ec0ede14f5b,
supermarket,Komplek perumahan,Fhaldo Here,"CQ22+57, Ramedue, Kec. Hawu Mehara, Kabupaten Sabu Raijua, Nusa Tenggara Tim.","Kabupaten Sabu Raijua, Nusa Tenggara Tim.",NUSA TENGGARA TIMUR,,Indonesia,,,,-10.5995929,121.7506884,https://maps.google.com/?cid=0x0:0x65d965953861c67f,
supermarket,Toko Mebel,Daieko,"CQWF+7J, Daieko, Kec. Hawu Mehara, Kabupaten Sabu Raijua, Nusa Tenggara Tim.","Kabupaten Sabu Raijua, Nusa Tenggara Tim.",NUSA TENGGARA TIMUR,,Indonesia,,,,-10.5543453,121.7740243,https://maps.google.com/?cid=0x0:0xef7d806a0b74cae5,
supermarket,Pertanian,PT. Mabua Agro Farm,"Molie, Kec. Hawu Mehara, Kabupaten Sabu Raijua, Nusa Tenggara Tim. 85391","Kec. Hawu Mehara, Kabupaten Sabu Raijua",NUSA TENGGARA TIMUR,85391.0,Indonesia,82359553088.0,,,-10.5723989,121.7138458,https://maps.google.com/?cid=0x0:0xc87805eb9c142016,
supermarket,Kios,Kios Kuning,"Jalan Gerbades, Tanajawa, Kec. Hawu Mehara, Kabupaten Sabu Raijua, Nusa Tenggara Tim. 85391","Tanajawa, Kec. Hawu Mehara, Kabupaten Sabu Raijua",NUSA TENGGARA TIMUR,85391.0,Indonesia,85239103055.0,,,-10.5634334,121.7410974,https://maps.google.com/?cid=0x0:0x6dcacfc0faf45f94,
supermarket,Komplek perumahan,Dannikakki Gank,"CQC3+XMV, Pedarro, Kec. Hawu Mehara, Kabupaten Sabu Raijua, Nusa Tenggara Tim.","Kabupaten Sabu Raijua, Nusa Tenggara Tim.",NUSA TENGGARA TIMUR,,Indonesia,,,,-10.5775106,121.7541827,https://maps.google.com/?cid=0x0:0x8d9d2a9cde0cc1,
supermarket,Komplek perumahan,Rumah,"9QXR+M8C, Wadumeddi, Kec. Hawu Mehara, Kabupaten Sabu Raijua, Nusa Tenggara Tim.","Kabupaten Sabu Raijua, Nusa Tenggara Tim.",NUSA TENGGARA TIMUR,,Indonesia,,,,-10.6008142,121.7907726,https://maps.google.com/?cid=0x0:0x9584830832e093f7,
supermarket,Toko Perlengkapan Rumah,Yogi Dima,"FQ55+X9H, Daieko, Kec. Hawu Mehara, Kabupaten Sabu Raijua, Nusa Tenggara Tim.","Kabupaten Sabu Raijua, Nusa Tenggara Tim.",NUSA TENGGARA TIMUR,,Indonesia,,,,-10.5403439,121.759364,https://maps.google.com/?cid=0x0:0xc858467b37534738,
supermarket,Kios,Kios ama Raja laka,"CQ7C+997, Pedarro, Kec. Hawu Mehara, Kabupaten Sabu Raijua, Nusa Tenggara Tim.","Kabupaten Sabu Raijua, Nusa Tenggara Tim.",NUSA TENGGARA TIMUR,,Indonesia,,,,-10.5865756,121.7709173,https://maps.google.com/?cid=0x0:0xe9b1a55b031eb31f,
supermarket,supermarket,Kios Bale Riwu,"CQ94+V7H, Seba - Mesara, Pedarro, Kec. Hawu Mehara, Kabupaten Sabu Raijua, Nusa Tenggara Tim.","Kabupaten Sabu Raijua, Nusa Tenggara Tim.",NUSA TENGGARA TIMUR,,Indonesia,,,,-10.5803094,121.7557196,https://maps.google.com/?cid=0x0:0x1dd343311b05b630,
supermarket,Minimarket,Kios Arys manu,"9PWV+7P, Ramedue, Kec. Hawu Mehara, Kabupaten Sabu Raijua, Nusa Tenggara Tim.","Kabupaten Sabu Raijua, Nusa Tenggara Tim.",NUSA TENGGARA TIMUR,,Indonesia,,,,-10.6042515,121.7443557,https://maps.google.com/?cid=0x0:0xa38f5e54214171d7,
supermarket,Hostel,John Walker Homa Galla,"CPP9+CR3, Molie, Kec. Hawu Mehara, Kabupaten Sabu Raijua, Nusa Tenggara Tim.","Kabupaten Sabu Raijua, Nusa Tenggara Tim.",NUSA TENGGARA TIMUR,,Indonesia,8113812422.0,,,-10.5639992,121.7195479,https://maps.google.com/?cid=0x0:0xf16e29177558a218,
supermarket,Toko Mebel,Meubel Maruba,"FP4X+G4, Daieko, Kec. Hawu Mehara, Kabupaten Sabu Raijua, Nusa Tenggara Tim.","Kabupaten Sabu Raijua, Nusa Tenggara Tim.",NUSA TENGGARA TIMUR,,Indonesia,,,,-10.5440668,121.7473223,https://maps.google.com/?cid=0x0:0xf5e568576f2df478,
supermarket,supermarket,Nusa Tenggara Tim.,,Nusa Tenggara Tim.,NUSA TENGGARA TIMUR,,Indonesia,,,,-8.6573819,121.0793705,https://maps.google.com/?cid=0x0:0x1030bfbcaf71ae0,
supermarket,Toko bahan makanan,"Kios Karmel,Jorro","9HGF+Q76, Sumur mantati, Bolua, Kec. Raijua, Kabupaten Sabu Raijua, Nusa Tenggara Tim.","Kabupaten Sabu Raijua, Nusa Tenggara Tim.",NUSA TENGGARA TIMUR,,Indonesia,,,,-10.6221742,121.5731731,https://maps.google.com/?cid=0x0:0x40f2d7689203ec2c,
supermarket,Toko,Kios Ibeth Ina,"GX2M+58V, Loborai, Kec. Sabu Tim., Kabupaten Sabu Raijua, Nusa Tenggara Tim.","Kabupaten Sabu Raijua, Nusa Tenggara Tim.",NUSA TENGGARA TIMUR,,Indonesia,,,,-10.4995145,121.9832822,https://maps.google.com/?cid=0x0:0x32597e0535b6111b,
supermarket,Toko Swalayan,BMS Mart,"Bolua, Kec. Raijua, Kabupaten Sabu Raijua, Nusa Tenggara Tim. 85393","Kec. Raijua, Kabupaten Sabu Raijua",NUSA TENGGARA TIMUR,85393.0,Indonesia,81212123050.0,,,-10.6202442,121.5720638,https://maps.google.com/?cid=0x0:0x8a06abbf34c285fe,
supermarket,Minimarket,Toko BEDA,"Jln eltari km 11..Rt 19 Rw 10 dusun 05, Menia, Kec. Sabu Bar., Kabupaten Sabu Raijua, Nusa Tenggara Tim. 85390","Menia, Kec. Sabu Bar., Kabupaten Sabu Raijua",NUSA TENGGARA TIMUR,85390.0,Indonesia,81236324724.0,,,-10.4438643,121.9062423,https://maps.google.com/?cid=0x0:0xdb8da00b3c6b69ee,
supermarket,Perhimpunan Pengembang Perumahan,Keliha sabu timur NTT,"GXWG+57Q, Keliha, Kec. Sabu Tim., Kabupaten Sabu Raijua, Nusa Tenggara Tim.","Kabupaten Sabu Raijua, Nusa Tenggara Tim.",NUSA TENGGARA TIMUR,,Indonesia,,,,-10.4545384,121.9757487,https://maps.google.com/?cid=0x0:0x77a706bde6f49159,
supermarket,Pasar,Lobohede,"CP2P+6V, Lobohede, Kec. Hawu Mehara, Kabupaten Sabu Raijua, Nusa Tenggara Tim.","Kabupaten Sabu Raijua, Nusa Tenggara Tim.",NUSA TENGGARA TIMUR,,Indonesia,,,,-10.6000151,121.7363416,https://maps.google.com/?cid=0x0:0x266543123f16b220,
supermarket,Toserba,Supermarket Matahari,"pasar inpres naikoten No.1, Naikoten I, Kec. Kota Raja, Kota Kupang, Nusa Tenggara Tim. 85142","Naikoten I, Kec. Kota Raja, Kota Kupang",NUSA TENGGARA TIMUR,85142.0,Indonesia,,,,-10.1813187,123.6009175,https://maps.google.com/?cid=0x0:0x47fc92b423019c18,
supermarket,Pusat Perbelanjaan,LYON NUSANTARA SUPER MARKET,"9754+5H3, Kamalaputi, Kec. Kota Waingapu, Kabupaten Sumba Timur, Nusa Tenggara Tim.","Kabupaten Sumba Timur, Nusa Tenggara Tim.",NUSA TENGGARA TIMUR,,Indonesia,,,,-9.6421199,120.2564251,https://maps.google.com/?cid=0x0:0xf39f6f3279d31f50,
supermarket,supermarket,Kios NASA,"GVR6+C27, Menia, Kec. Sabu Bar., Kabupaten Sabu Raijua, Nusa Tenggara Tim.","Kabupaten Sabu Raijua, Nusa Tenggara Tim.",NUSA TENGGARA TIMUR,,Indonesia,82295999382.0,,,-10.4589664,121.8600454,https://maps.google.com/?cid=0x0:0x83ea2ecbc4f2b500,
supermarket,Pusat Perbelanjaan,Kios Anugerah,"9JVC+X66, Ledeunu, Kec. Raijua, Kabupaten Sabu Raijua, Nusa Tenggara Tim.","Kabupaten Sabu Raijua, Nusa Tenggara Tim.",NUSA TENGGARA TIMUR,,Indonesia,,,,-10.604957,121.620527,https://maps.google.com/?cid=0x0:0xc5a56c9ed0070d8c,
supermarket,supermarket,Kec. Raijua,"Kabupaten Sabu Raijua, Nusa Tenggara Tim.","Kabupaten Sabu Raijua, Nusa Tenggara Tim.",NUSA TENGGARA TIMUR,,Indonesia,,,,-10.6051556,121.6181462,https://maps.google.com/?cid=0x0:0x25f150fcbc1533b6,
supermarket,Pusat Perbelanjaan,Kios GALIO,"9JH5+G88, Ledeke, Kec. Raijua, Kabupaten Sabu Raijua, Nusa Tenggara Tim.","Kabupaten Sabu Raijua, Nusa Tenggara Tim.",NUSA TENGGARA TIMUR,,Indonesia,,,,-10.6212064,121.6083421,https://maps.google.com/?cid=0x0:0x31043b0369ef08de,
supermarket,Minimarket,Stall jus,"9JR9+PQC, Ledeunu, Kec. Raijua, Kabupaten Sabu Raijua, Nusa Tenggara Tim.","Kabupaten Sabu Raijua, Nusa Tenggara Tim.",NUSA TENGGARA TIMUR,,Indonesia,81237501704.0,,,-10.6081945,121.619379,https://maps.google.com/?cid=0x0:0x69f7e8671c3d1bf8,
supermarket,Grosir Barang Kelontong,Kios RUBA MURI,"9JR5+GQ2, Ledeunu, Kec. Raijua, Kabupaten Sabu Raijua, Nusa Tenggara Tim.","Kabupaten Sabu Raijua, Nusa Tenggara Tim.",NUSA TENGGARA TIMUR,,Indonesia,,,,-10.6087435,121.609377,https://maps.google.com/?cid=0x0:0xc64706241090cbad,
supermarket,Toko Perlengkapan Rumah,DensiRental,"9JQ5+P8F, Ledeunu, Kec. Raijua, Kabupaten Sabu Raijua, Nusa Tenggara Tim.","Kabupaten Sabu Raijua, Nusa Tenggara Tim.",NUSA TENGGARA TIMUR,,Indonesia,81239706701.0,,,-10.610681,121.6083114,https://maps.google.com/?cid=0x0:0x32a82df28b0fc98b,
supermarket,supermarket,Kios Namo Permai,"9JW8+27H, Ledeunu, Kec. Raijua, Kabupaten Sabu Raijua, Nusa Tenggara Tim.","Kabupaten Sabu Raijua, Nusa Tenggara Tim.",NUSA TENGGARA TIMUR,,Indonesia,,,,-10.6045781,121.6158105,https://maps.google.com/?cid=0x0:0xa1271fab004a71ab,
supermarket,supermarket,TS PMO GURT SYBAU,"9HWQ+FF, Ledeunu, Kec. Raijua, Kabupaten Sabu Raijua, Nusa Tenggara Tim.","Kabupaten Sabu Raijua, Nusa Tenggara Tim.",NUSA TENGGARA TIMUR,,Indonesia,,,,-10.6038551,121.5887306,https://maps.google.com/?cid=0x0:0x2338ecf3bcd14686,
supermarket,Toko umum,YOZHANT YK,"9G7H+X9F, RT.002/Rw001, Kolorae, Kec. Raijua, Kabupaten Sabu Raijua, Nusa Tenggara Tim.","Kabupaten Sabu Raijua, Nusa Tenggara Tim.",NUSA TENGGARA TIMUR,,Indonesia,,,,-10.6350518,121.5284363,https://maps.google.com/?cid=0x0:0xfd232b642e5935f5,
