Category;Real Category;Business Name;Address;City;State;Postal Code;Country;Phone;Latitude;Longitude;Map Link
"mall";"Layanan Transportasi";"Terminal Lawe Pakam";"7XPJ+J96, Pintu Alas, Kec. Babul Makmur, Kabupaten Aceh Tenggara, Aceh 24673";"Pintu Alas, Kec. Babul Makmur, Kabupaten Aceh Tenggara";"ACEH";"24673";"Indonesia";"";"3.2865401";"97.9808821";"https://maps.google.com/?cid=0x0:0xa926572c9f6e52e2"
"mall";"mall";"Kec. Babul Makmur";"Kabupaten Aceh Tenggara, Aceh";"Kabupaten Aceh Tenggara, Aceh";"ACEH";"";"Indonesia";"";"3.2886858";"97.9785032";"https://maps.google.com/?cid=0x0:0xa32290e982898875"
"mall";"Pusat Perbelanjaan";"UD Timbul Ganda";"8X27+53P, Lawe Perbunga, Kec. Babul Makmur, Kabupaten Aceh Tenggara, Aceh 24673";"Lawe Perbunga, Kec. Babul Makmur, Kabupaten Aceh Tenggara";"ACEH";"24673";"Indonesia";"";"3.3004674";"97.9627182";"https://maps.google.com/?cid=0x0:0xa0a4108f9a3569fc"
"mall";"mall";"UD. Riana baru";"Jl. Kutacane-Tigabinanga Jl. Kutacane, Lawe Deski Sabas, Kec. Babul Makmur, Kabupaten Aceh Tenggara, Aceh 24673";"Lawe Deski Sabas, Kec. Babul Makmur, Kabupaten Aceh Tenggara";"ACEH";"24673";"Indonesia";"";"3.3118415";"97.9554428";"https://maps.google.com/?cid=0x0:0x7b3956d21de029f0"
"mall";"Petugas Perbatasan";"Toko Ilham Perbatasan";"7XPJ+FC9, Jl. Kutacane-Tigabinanga, Pintu Alas, Kec. Babul Makmur, Kabupaten Aceh Tenggara, Aceh 24673";"Jl. Kutacane-Tigabinanga, Pintu Alas, Kec. Babul Makmur, Kabupaten Aceh Tenggara";"ACEH";"24673";"Indonesia";" 082221202702";"3.2861727";"97.9811004";"https://maps.google.com/?cid=0x0:0xf1ca4f765fca04c7"
"mall";"Toko bahan makanan";"Marpaung Plastik Kutacane";"Kampung Baru, Lawe Perbunga, Kec. Babul Makmur, Kabupaten Aceh Tenggara, Aceh 24673";"Lawe Perbunga, Kec. Babul Makmur, Kabupaten Aceh Tenggara";"ACEH";"24673";"Indonesia";" 085310916741";"3.3001727";"97.9612747";"https://maps.google.com/?cid=0x0:0xd6997081c31e3e0c"
"mall";"Toko Pertanian";"UD.MARTIN TANI";"8X64+J4J, Lawe Deski Sabas, Kec. Babul Makmur, Kabupaten Aceh Tenggara, Aceh 24673";"Lawe Deski Sabas, Kec. Babul Makmur, Kabupaten Aceh Tenggara";"ACEH";"24673";"Indonesia";" 085270086551";"3.311586";"97.955271";"https://maps.google.com/?cid=0x0:0x8fec83c6a94b67b0"
"mall";"Toko";"UD Tumorang Jaya";"8X45+6XH, Jl. Kutacane, Tigabinanga, Kec. Babul Makmur, Kabupaten Aceh Tenggara, Aceh 24673";"Jl. Kutacane, Tigabinanga, Kec. Babul Makmur, Kabupaten Aceh Tenggara";"ACEH";"24673";"Indonesia";"";"3.3055581";"97.959988";"https://maps.google.com/?cid=0x0:0x6cce8fa669f67cf5"
"mall";"Minimarket";"Warung sumber rezeki";"8X45+8VR, Jl. Kutacane-Tigabinanga, Cinta Damai, Kec. Babul Makmur, Kabupaten Aceh Tenggara, Aceh 24673";"Jl. Kutacane-Tigabinanga, Cinta Damai, Kec. Babul Makmur, Kabupaten Aceh Tenggara";"ACEH";"24673";"Indonesia";"";"3.3061425";"97.9593803";"https://maps.google.com/?cid=0x0:0xe57b7db6a9d5f17f"
"mall";"Pusat Perbelanjaan";"Asqi Collection366";"8X73+Q86, Jl. Kutacane, Deski Jaya, Kec. Lawe Sigala-Gala, Kabupaten Aceh Tenggara, Aceh 24673";"Jl. Kutacane, Deski Jaya, Kec. Lawe Sigala-Gala, Kabupaten Aceh Tenggara";"ACEH";"24673";"Indonesia";" 085358484844";"3.3144147";"97.953255";"https://maps.google.com/?cid=0x0:0x4be097807a6c072e"
"mall";"Minimarket";"Toko Iqbal";"Jl. Kutacane-Tigabinanga, Lawe Loning Aman, Kec. Lawe Sigala-Gala, Kabupaten Aceh Tenggara, Aceh 24673";"Lawe Loning Aman, Kec. Lawe Sigala-Gala, Kabupaten Aceh Tenggara";"ACEH";"24673";"Indonesia";" 082164852332";"3.3281156";"97.9441111";"https://maps.google.com/?cid=0x0:0xfd016c702cc34e01"
"mall";"Pusat Perbelanjaan";"UD. NAPIT MUDA";"8X64+8F4, Jl. Kutacane-Tigabinanga, Lawe Deski Sabas, Kec. Lawe Sigala-Gala, Kabupaten Aceh Tenggara, Aceh 24673";"Jl. Kutacane-Tigabinanga, Lawe Deski Sabas, Kec. Lawe Sigala-Gala, Kabupaten Aceh Tenggara";"ACEH";"24673";"Indonesia";" 081269399664";"3.3107669";"97.9562154";"https://maps.google.com/?cid=0x0:0xa9e863cd71507b48"
"mall";"mall";"TOKO AMELIA";"8X42+XPR, Lawe Deski Sabas, Kec. Babul Makmur, Kabupaten Aceh Tenggara, Aceh 24673";"Lawe Deski Sabas, Kec. Babul Makmur, Kabupaten Aceh Tenggara";"ACEH";"24673";"Indonesia";"";"3.3074784";"97.9517546";"https://maps.google.com/?cid=0x0:0x2a8cd66ac6b3a91c"
"mall";"mall";"Toko Op. Nael";"7WPX+PQ9, Unnamed Road, Pardamean, Kec. Babul Makmur, Kabupaten Aceh Tenggara, Aceh 24673";"Unnamed Road, Pardamean, Kec. Babul Makmur, Kabupaten Aceh Tenggara";"ACEH";"24673";"Indonesia";"";"3.286785";"97.9494833";"https://maps.google.com/?cid=0x0:0x7e151b0ec5b52dec"
"mall";"Pusat Perbelanjaan";"UD Timbul Ganda";"8X27+53P, Lawe Perbunga, Kec. Babul Makmur, Kabupaten Aceh Tenggara, Aceh 24673";"Lawe Perbunga, Kec. Babul Makmur, Kabupaten Aceh Tenggara";"ACEH";"24673";"Indonesia";"";"3.3004674";"97.9627182";"https://maps.google.com/?cid=0x0:0xa0a4108f9a3569fc"
"mall";"Layanan Transportasi";"Terminal Lawe Pakam";"7XPJ+J96, Pintu Alas, Kec. Babul Makmur, Kabupaten Aceh Tenggara, Aceh 24673";"Pintu Alas, Kec. Babul Makmur, Kabupaten Aceh Tenggara";"ACEH";"24673";"Indonesia";"";"3.2865401";"97.9808821";"https://maps.google.com/?cid=0x0:0xa926572c9f6e52e2"
"mall";"mall";"Aceh 24673";"Kabupaten Aceh Tenggara, Aceh";"Kabupaten Aceh Tenggara, Aceh";"ACEH";"";"Indonesia";"";"3.0291759";"97.8286368";"https://maps.google.com/?cid=0x0:0x9e7ae9b803d7455"
"mall";"Petugas Perbatasan";"Toko Ilham Perbatasan";"7XPJ+FC9, Jl. Kutacane-Tigabinanga, Pintu Alas, Kec. Babul Makmur, Kabupaten Aceh Tenggara, Aceh 24673";"Jl. Kutacane-Tigabinanga, Pintu Alas, Kec. Babul Makmur, Kabupaten Aceh Tenggara";"ACEH";"24673";"Indonesia";" 082221202702";"3.2861727";"97.9811004";"https://maps.google.com/?cid=0x0:0xf1ca4f765fca04c7"
"mall";"Toko bahan makanan";"Marpaung Plastik Kutacane";"Kampung Baru, Lawe Perbunga, Kec. Babul Makmur, Kabupaten Aceh Tenggara, Aceh 24673";"Lawe Perbunga, Kec. Babul Makmur, Kabupaten Aceh Tenggara";"ACEH";"24673";"Indonesia";" 085310916741";"3.3001727";"97.9612747";"https://maps.google.com/?cid=0x0:0xd6997081c31e3e0c"
"mall";"Balai masyarakat";"Onan Lawe Desky";"8X64+G26, Lawe Deski Sabas, Kec. Babul Makmur, Kabupaten Aceh Tenggara, Aceh 24673";"Lawe Deski Sabas, Kec. Babul Makmur, Kabupaten Aceh Tenggara";"ACEH";"24673";"Indonesia";" 085310916741";"3.3112851";"97.9550153";"https://maps.google.com/?cid=0x0:0x6e40755d35b968c3"
"mall";"Toko Pertanian";"UD.MARTIN TANI";"8X64+J4J, Lawe Deski Sabas, Kec. Babul Makmur, Kabupaten Aceh Tenggara, Aceh 24673";"Lawe Deski Sabas, Kec. Babul Makmur, Kabupaten Aceh Tenggara";"ACEH";"24673";"Indonesia";" 085270086551";"3.311586";"97.955271";"https://maps.google.com/?cid=0x0:0x8fec83c6a94b67b0"
"mall";"Minimarket";"Warung sumber rezeki";"8X45+8VR, Jl. Kutacane-Tigabinanga, Cinta Damai, Kec. Babul Makmur, Kabupaten Aceh Tenggara, Aceh 24673";"Jl. Kutacane-Tigabinanga, Cinta Damai, Kec. Babul Makmur, Kabupaten Aceh Tenggara";"ACEH";"24673";"Indonesia";"";"3.3061425";"97.9593803";"https://maps.google.com/?cid=0x0:0xe57b7db6a9d5f17f"
"mall";"Pusat Perbelanjaan";"Pekan Lawe Sigala-gala";"9W39+4VW, Jl. Kutacane-Tigabinanga, Lawe Sigala Tim., Kec. Lawe Sigala-Gala, Kabupaten Aceh Tenggara, Aceh 24673";"Jl. Kutacane-Tigabinanga, Lawe Sigala Tim., Kec. Lawe Sigala-Gala, Kabupaten Aceh Tenggara";"ACEH";"24673";"Indonesia";"";"3.3528701";"97.9196959";"https://maps.google.com/?cid=0x0:0x9ea4caa2d2a7ee70"
"mall";"Toko";"UD Tumorang Jaya";"8X45+6XH, Jl. Kutacane, Tigabinanga, Kec. Babul Makmur, Kabupaten Aceh Tenggara, Aceh 24673";"Jl. Kutacane, Tigabinanga, Kec. Babul Makmur, Kabupaten Aceh Tenggara";"ACEH";"24673";"Indonesia";"";"3.3055581";"97.959988";"https://maps.google.com/?cid=0x0:0x6cce8fa669f67cf5"
"mall";"Pusat Perbelanjaan";"Asqi Collection366";"8X73+Q86, Jl. Kutacane, Deski Jaya, Kec. Lawe Sigala-Gala, Kabupaten Aceh Tenggara, Aceh 24673";"Jl. Kutacane, Deski Jaya, Kec. Lawe Sigala-Gala, Kabupaten Aceh Tenggara";"ACEH";"24673";"Indonesia";" 085358484844";"3.3144147";"97.953255";"https://maps.google.com/?cid=0x0:0x4be097807a6c072e"
"mall";"Minimarket";"Toko Iqbal";"Jl. Kutacane-Tigabinanga, Lawe Loning Aman, Kec. Lawe Sigala-Gala, Kabupaten Aceh Tenggara, Aceh 24673";"Lawe Loning Aman, Kec. Lawe Sigala-Gala, Kabupaten Aceh Tenggara";"ACEH";"24673";"Indonesia";" 082164852332";"3.3281156";"97.9441111";"https://maps.google.com/?cid=0x0:0xfd016c702cc34e01"
"mall";"Pusat Perbelanjaan";"UD. Riana Tani";"8X64+Q5G, Jl. Kutacane-Tigabinanga, Lawe Deski Sabas, Kec. Lawe Sigala-Gala, Kabupaten Aceh Tenggara, Aceh 24673";"Jl. Kutacane-Tigabinanga, Lawe Deski Sabas, Kec. Lawe Sigala-Gala, Kabupaten Aceh Tenggara";"ACEH";"24673";"Indonesia";"";"3.3119419";"97.9554459";"https://maps.google.com/?cid=0x0:0x583479b2b4feb2cf"
"mall";"Pusat Perbelanjaan";"UD. NAPIT MUDA";"8X64+8F4, Jl. Kutacane-Tigabinanga, Lawe Deski Sabas, Kec. Lawe Sigala-Gala, Kabupaten Aceh Tenggara, Aceh 24673";"Jl. Kutacane-Tigabinanga, Lawe Deski Sabas, Kec. Lawe Sigala-Gala, Kabupaten Aceh Tenggara";"ACEH";"24673";"Indonesia";" 081269399664";"3.3107669";"97.9562154";"https://maps.google.com/?cid=0x0:0xa9e863cd71507b48"
"mall";"Toko";"Kayysa fotocopi batumbulan";"FRW3+V27, Batu Bulan Asli, Kec. Babussalam, Kabupaten Aceh Tenggara, Aceh 24651";"Batu Bulan Asli, Kec. Babussalam, Kabupaten Aceh Tenggara";"ACEH";"24651";"Indonesia";" 085275725436";"3.4971552";"97.8025462";"https://maps.google.com/?cid=0x0:0xd632c9c76adfbcf"
"mall";"Toko Ponsel";"CHIKA CELL";"FRX5+V36, Kp. Raja, Kec. Babussalam, Kabupaten Aceh Tenggara, Aceh 24651";"Kp. Raja, Kec. Babussalam, Kabupaten Aceh Tenggara";"ACEH";"24651";"Indonesia";" 082370503532";"3.4996597";"97.8076531";"https://maps.google.com/?cid=0x0:0x99db9b196e246883"
"mall";"mall";"Kec. Babussalam";"Kabupaten Aceh Tenggara, Aceh";"Kabupaten Aceh Tenggara, Aceh";"ACEH";"";"Indonesia";"";"3.4831986";"97.812801";"https://maps.google.com/?cid=0x0:0x585c8bae275f9877"
"mall";"Toko Makanan";"Toko Sinar Waja";"Jl. Kutacane, Pulo Latong, Kec. Babussalam, Kabupaten Aceh Tenggara, Aceh 24651";"Pulo Latong, Kec. Babussalam, Kabupaten Aceh Tenggara";"ACEH";"24651";"Indonesia";"";"3.481999";"97.8132748";"https://maps.google.com/?cid=0x0:0xb39c063e113a8261"
"mall";"Layanan E-Niaga";"Toko Sendal Umi Hanif";"FRP6+RWW PAJAK INPRES, Kota Kutacane, Kec. Babussalam, Kabupaten Aceh Tenggara, Aceh 24651";"Kota Kutacane, Kec. Babussalam, Kabupaten Aceh Tenggara";"ACEH";"24651";"Indonesia";" 083854241110";"3.4871222";"97.8123344";"https://maps.google.com/?cid=0x0:0x11cc2874c50a4a01"
"mall";"Pusat Perbelanjaan";"toko wika";"FRM7+72F, Jl. Iskandar Muda, Kota Kutacane, Kec. Babussalam, Kabupaten Aceh Tenggara, Aceh 24651";"Jl. Iskandar Muda, Kota Kutacane, Kec. Babussalam, Kabupaten Aceh Tenggara";"ACEH";"24651";"Indonesia";" 081263701180";"3.4831888";"97.8125339";"https://maps.google.com/?cid=0x0:0x9cab2d8db88ae5b"
"mall";"Penyedia Layanan Telekomunikasi";"TDC (Telkomsel Distibutor Center)";"FRQ6+G5Q, Pulo Sanggar, Kec. Babussalam, Kabupaten Aceh Tenggara, Aceh 24651";"Pulo Sanggar, Kec. Babussalam, Kabupaten Aceh Tenggara";"ACEH";"24651";"Indonesia";" 082274205005";"3.48884";"97.810496";"https://maps.google.com/?cid=0x0:0xa712769fe856608b"
"mall";"Toko Ponsel";"Ersinal Ponsel";"FRP6+HRM, Pulo Sanggar, Kec. Babussalam, Kabupaten Aceh Tenggara, Aceh 24651";"Pulo Sanggar, Kec. Babussalam, Kabupaten Aceh Tenggara";"ACEH";"24651";"Indonesia";"";"3.4864729";"97.8120364";"https://maps.google.com/?cid=0x0:0xa1f368bb9a50bfdf"
"mall";"Toko Pakaian";"KEDAI MAK RIKI";"Jl. Manunggal, Kota Kutacane, Kec. Babussalam, Kabupaten Aceh Tenggara, Aceh 24651";"Kota Kutacane, Kec. Babussalam, Kabupaten Aceh Tenggara";"ACEH";"24651";"Indonesia";"";"3.4897853";"97.8112072";"https://maps.google.com/?cid=0x0:0x64e6e4b15e2059cc"
"mall";"Toko Pakaian";"TRIDARA SANDAL";"Jl. Iskandar Muda No.1, Kota Kutacane, Kec. Babussalam, Kabupaten Aceh Tenggara, Aceh 24651";"Kota Kutacane, Kec. Babussalam, Kabupaten Aceh Tenggara";"ACEH";"24651";"Indonesia";"";"3.4956223";"97.8081041";"https://maps.google.com/?cid=0x0:0xc10c7b97512bf970"
"mall";"Pusat Perbelanjaan";"Kede Ummu Qonita";"FRP8+489, Pulo Sanggar, Kec. Babussalam, Kabupaten Aceh Tenggara, Aceh 24651";"Pulo Sanggar, Kec. Babussalam, Kabupaten Aceh Tenggara";"ACEH";"24651";"Indonesia";"";"3.4852843";"97.8158585";"https://maps.google.com/?cid=0x0:0x4e08badb5a0291cc"
"mall";"Toko Aksesori Pakaian";"NI Group";"Jl. Iskandar Muda No.17, Kota Kutacane, Kec. Babussalam, Kabupaten Aceh Tenggara, Aceh 24651";"Kota Kutacane, Kec. Babussalam, Kabupaten Aceh Tenggara";"ACEH";"24651";"Indonesia";" 082166702629";"3.482168";"97.813319";"https://maps.google.com/?cid=0x0:0xa51945e4b586b9c9"
"mall";"Pusat Perbelanjaan";"RAYAN JAYA, TOKO SEPEDA DAN MAINAN";"FRP7+WF6, Kota Kutacane, Kec. Babussalam, Kabupaten Aceh Tenggara, Aceh 24651";"Kota Kutacane, Kec. Babussalam, Kabupaten Aceh Tenggara";"ACEH";"24651";"Indonesia";" 082282694919";"3.4872299";"97.8136354";"https://maps.google.com/?cid=0x0:0xfdaddf10644e5629"
"mall";"mall";"Luzi parfum";"FRH8+4QF, Jl. Kutacane-Tigabinanga, Perapat Titi Panjang, Kec. Babussalam, Kabupaten Aceh Tenggara, Aceh";"Kabupaten Aceh Tenggara, Aceh";"ACEH";"";"Indonesia";" 08993899238";"3.4778019";"97.8169211";"https://maps.google.com/?cid=0x0:0xe2ef8196e0a9e0c2"
"mall";"mall";"Kec. Babussalam";"Kabupaten Aceh Tenggara, Aceh";"Kabupaten Aceh Tenggara, Aceh";"ACEH";"";"Indonesia";"";"3.4831986";"97.812801";"https://maps.google.com/?cid=0x0:0x585c8bae275f9877"
"mall";"Toko";"Kayysa fotocopi batumbulan";"FRW3+V27, Batu Bulan Asli, Kec. Babussalam, Kabupaten Aceh Tenggara, Aceh 24651";"Batu Bulan Asli, Kec. Babussalam, Kabupaten Aceh Tenggara";"ACEH";"24651";"Indonesia";" 085275725436";"3.4971552";"97.8025462";"https://maps.google.com/?cid=0x0:0xd632c9c76adfbcf"
"mall";"Pasar";"TAQWA MARKET";"Jl. Cut Nyak Dhien No.50, Kota Kutacane, Kec. Babussalam, Kabupaten Aceh Tenggara, Aceh 24651";"Kota Kutacane, Kec. Babussalam, Kabupaten Aceh Tenggara";"ACEH";"24651";"Indonesia";" 085261555586";"3.4845738";"97.8115029";"https://maps.google.com/?cid=0x0:0x438a4978edbd3c44"
"mall";"Penyedia Layanan Telekomunikasi";"TDC (Telkomsel Distibutor Center)";"FRQ6+G5Q, Pulo Sanggar, Kec. Babussalam, Kabupaten Aceh Tenggara, Aceh 24651";"Pulo Sanggar, Kec. Babussalam, Kabupaten Aceh Tenggara";"ACEH";"24651";"Indonesia";" 082274205005";"3.48884";"97.810496";"https://maps.google.com/?cid=0x0:0xa712769fe856608b"
"mall";"Toko Ponsel";"CHIKA CELL";"FRX5+V36, Kp. Raja, Kec. Babussalam, Kabupaten Aceh Tenggara, Aceh 24651";"Kp. Raja, Kec. Babussalam, Kabupaten Aceh Tenggara";"ACEH";"24651";"Indonesia";" 082370503532";"3.4996597";"97.8076531";"https://maps.google.com/?cid=0x0:0x99db9b196e246883"
"mall";"Toko Pakaian";"KEDAI MAK RIKI";"Jl. Manunggal, Kota Kutacane, Kec. Babussalam, Kabupaten Aceh Tenggara, Aceh 24651";"Kota Kutacane, Kec. Babussalam, Kabupaten Aceh Tenggara";"ACEH";"24651";"Indonesia";"";"3.4897853";"97.8112072";"https://maps.google.com/?cid=0x0:0x64e6e4b15e2059cc"
"mall";"Toko Makanan";"Toko Sinar Waja";"Jl. Kutacane, Pulo Latong, Kec. Babussalam, Kabupaten Aceh Tenggara, Aceh 24651";"Pulo Latong, Kec. Babussalam, Kabupaten Aceh Tenggara";"ACEH";"24651";"Indonesia";"";"3.481999";"97.8132748";"https://maps.google.com/?cid=0x0:0xb39c063e113a8261"
"mall";"Layanan E-Niaga";"Toko Sendal Umi Hanif";"FRP6+RWW PAJAK INPRES, Kota Kutacane, Kec. Babussalam, Kabupaten Aceh Tenggara, Aceh 24651";"Kota Kutacane, Kec. Babussalam, Kabupaten Aceh Tenggara";"ACEH";"24651";"Indonesia";" 083854241110";"3.4871222";"97.8123344";"https://maps.google.com/?cid=0x0:0x11cc2874c50a4a01"
"mall";"Toko Ponsel";"Ersinal Ponsel";"FRP6+HRM, Pulo Sanggar, Kec. Babussalam, Kabupaten Aceh Tenggara, Aceh 24651";"Pulo Sanggar, Kec. Babussalam, Kabupaten Aceh Tenggara";"ACEH";"24651";"Indonesia";"";"3.4864729";"97.8120364";"https://maps.google.com/?cid=0x0:0xa1f368bb9a50bfdf"
"mall";"Pusat Perbelanjaan";"Kede Ummu Qonita";"FRP8+489, Pulo Sanggar, Kec. Babussalam, Kabupaten Aceh Tenggara, Aceh 24651";"Pulo Sanggar, Kec. Babussalam, Kabupaten Aceh Tenggara";"ACEH";"24651";"Indonesia";"";"3.4852843";"97.8158585";"https://maps.google.com/?cid=0x0:0x4e08badb5a0291cc"
"mall";"mall";"Luzi parfum";"FRH8+4QF, Jl. Kutacane-Tigabinanga, Perapat Titi Panjang, Kec. Babussalam, Kabupaten Aceh Tenggara, Aceh";"Kabupaten Aceh Tenggara, Aceh";"ACEH";"";"Indonesia";" 08993899238";"3.4778019";"97.8169211";"https://maps.google.com/?cid=0x0:0xe2ef8196e0a9e0c2"
"mall";"Toko Aksesori Pakaian";"NI Group";"Jl. Iskandar Muda No.17, Kota Kutacane, Kec. Babussalam, Kabupaten Aceh Tenggara, Aceh 24651";"Kota Kutacane, Kec. Babussalam, Kabupaten Aceh Tenggara";"ACEH";"24651";"Indonesia";" 082166702629";"3.482168";"97.813319";"https://maps.google.com/?cid=0x0:0xa51945e4b586b9c9"
"mall";"Toko Pakaian";"TRIDARA SANDAL";"Jl. Iskandar Muda No.1, Kota Kutacane, Kec. Babussalam, Kabupaten Aceh Tenggara, Aceh 24651";"Kota Kutacane, Kec. Babussalam, Kabupaten Aceh Tenggara";"ACEH";"24651";"Indonesia";"";"3.4956223";"97.8081041";"https://maps.google.com/?cid=0x0:0xc10c7b97512bf970"
"mall";"Toko";"Toko Faizan";"FRH6+WMP, Perapat Hulu, Kec. Babussalam, Kabupaten Aceh Tenggara, Aceh 24651";"Perapat Hulu, Kec. Babussalam, Kabupaten Aceh Tenggara";"ACEH";"24651";"Indonesia";" 082165908458";"3.4798385";"97.8116984";"https://maps.google.com/?cid=0x0:0xe093eebfd7048f0c"
"mall";"mall";"thousand hills ketambe";"kotacane, Jl. Blangkejeren - Kutacane No.km 32, Ketambe, Kabupaten Aceh Tenggara, Aceh 24652";"Jl. Blangkejeren - Kutacane No.km 32, Ketambe, Kabupaten Aceh Tenggara";"ACEH";"24652";"Indonesia";" 081264176752";"3.6764966";"97.6625585";"https://maps.google.com/?cid=0x0:0xe72a4f0f766804f7"
"mall";"Pusat Perbelanjaan";"Plaza Aceh";"Jl. T. Hasan Dek Jl. Teuku Iskandar No.49, Beurawe, Kec. Kuta Alam, Kota Banda Aceh, Aceh 23127";"Beurawe, Kec. Kuta Alam, Kota Banda Aceh";"ACEH";"23127";"Indonesia";" 08116899890";"5.5547881";"95.3308683";"https://maps.google.com/?cid=0x0:0x45c9eb2ec9e62a76"
"mall";"mall";"Aceh 24652";"Kabupaten Aceh Tenggara, Aceh";"Kabupaten Aceh Tenggara, Aceh";"ACEH";"";"Indonesia";"";"3.6699926";"97.654811";"https://maps.google.com/?cid=0x0:0xf321f2dc3f3b9295"
"mall";"Toserba";"Matahari Department Store Plaza Aceh";"Jl. T. Hasan Dek, Beurawe, Kec. Kuta Alam, Kota Banda Aceh, Aceh 23127";"Beurawe, Kec. Kuta Alam, Kota Banda Aceh";"ACEH";"23127";"Indonesia";" 0651636661";"5.5545532";"95.3310993";"https://maps.google.com/?cid=0x0:0xd1401e47fe4c0b67"
"mall";"Toko Ponsel";"IBOX PLAZA ACEH";"Jl. T. Hasan Dek No.49, Beurawe, Kec. Kuta Alam, Kota Banda Aceh, Aceh 23127";"Beurawe, Kec. Kuta Alam, Kota Banda Aceh";"ACEH";"23127";"Indonesia";" 06513618896";"5.5543235";"95.3314443";"https://maps.google.com/?cid=0x0:0x6657f7f831a0874"
"mall";"Gedung Apartemen";"Mall@Bassura";"Jl. Jenderal Basuki Rachmat No.1A, Cipinang Besar Sel., Kecamatan Jatinegara, Kota Jakarta Timur, Daerah Khusus Ibukota Jakarta 13410";"Cipinang Besar Sel., Kecamatan Jatinegara, Kota Jakarta Timur";"ACEH";"13410";"Indonesia";" 02122807300";"-6.2240597";"106.8778851";"https://maps.google.com/?cid=0x0:0x610648e929845480"
"mall";"Pusat Perbelanjaan";"Bintaro Jaya Xchange Mall";"Jl. Lkr. Jaya No.24, Pd. Jaya, Kec. Pd. Aren, Tangerang, Banten 15227";"Pd. Jaya, Kec. Pd. Aren, Tangerang";"ACEH";"15227";"Indonesia";" 02129865000";"-6.2853789";"106.7276002";"https://maps.google.com/?cid=0x0:0x7a92959c5f05e001"
"mall";"mall";"Badar thea";"QMXJ+GV3, Cikembang, Kec. Kertasari, Kabupaten Bandung, Jawa Barat 40386";"Cikembang, Kec. Kertasari, Kabupaten Bandung";"ACEH";"40386";"Indonesia";"";"-7.2012453";"107.6822728";"https://maps.google.com/?cid=0x0:0xfc6ebbb9cea9b0bc"
"mall";"Pusat Perbelanjaan";"Bintaro Jaya Xchange Mall 2";"Jl. Lkr. Jaya No.12, Pd. Jaya, Kec. Pd. Aren, Kota Tangerang Selatan, Banten 15220";"Pd. Jaya, Kec. Pd. Aren, Kota Tangerang Selatan";"ACEH";"15220";"Indonesia";"";"-6.2857762";"106.7292823";"https://maps.google.com/?cid=0x0:0x6da7ff8662ae3675"
"mall";"mall";"Bambel";"FW43+VW8, Hutan, Kec. Bambel, Kabupaten Aceh Tenggara, Aceh 24651";"Hutan, Kec. Bambel, Kabupaten Aceh Tenggara";"ACEH";"24651";"Indonesia";"";"3.4571553";"97.90482";"https://maps.google.com/?cid=0x0:0xb1de5c0e4a55412d"
"mall";"Pusat Perbelanjaan";"Blok M Square";"Jl. Melawai 5, RT.3/RW.1, Melawai, Kec. Kby. Baru, Kota Jakarta Selatan, Daerah Khusus Ibukota Jakarta 12160";"RT.3/RW.1, Melawai, Kec. Kby. Baru, Kota Jakarta Selatan";"ACEH";"12160";"Indonesia";" 02172802000";"-6.244593";"106.800649";"https://maps.google.com/?cid=0x0:0x8f10b22d03d7c9db"
"mall";"Pusat Perbelanjaan";"Bintaro Jaya Xchange Mall";"Jl. Lkr. Jaya No.24, Pd. Jaya, Kec. Pd. Aren, Tangerang, Banten 15227";"Pd. Jaya, Kec. Pd. Aren, Tangerang";"ACEH";"15227";"Indonesia";" 02129865000";"-6.2853789";"106.7276002";"https://maps.google.com/?cid=0x0:0x7a92959c5f05e001"
"mall";"Pusat Perbelanjaan";"Summarecon Mall Bekasi";"Sentra Summarecon Bekasi, Jl. Boulevard Ahmad Yani, Marga Mulya, Kec. Bekasi Utara, Kota Bks, Jawa Barat 17142";"Jl. Boulevard Ahmad Yani, Marga Mulya, Kec. Bekasi Utara, Kota Bks";"ACEH";"17142";"Indonesia";" 02129572888";"-6.2261276";"107.0010764";"https://maps.google.com/?cid=0x0:0xd22a5d56809f070a"
"mall";"Pujasera";"Bekasi Food City (BFC)";"The Link Lobby, Summarecon Mall Bekasi, Jl. Boulevard Ahmad Yani Lt.GF, RT.006/RW.002, Marga Mulya, Kec. Bekasi Utara, Kota Bks, Jawa Barat 17142";"Summarecon Mall Bekasi, Jl. Boulevard Ahmad Yani Lt.GF, RT.006/RW.002, Marga Mulya, Kec. Bekasi Utara, Kota Bks";"ACEH";"17142";"Indonesia";"";"-6.225733";"107.002883";"https://maps.google.com/?cid=0x0:0xb2a6378a74de4236"
"mall";"mall";"Be Mall";"Jl. Naripan No.47, Kb. Pisang, Kec. Sumur Bandung, Kota Bandung, Jawa Barat 40112";"Kb. Pisang, Kec. Sumur Bandung, Kota Bandung";"ACEH";"40112";"Indonesia";"";"-6.9204545";"107.6138269";"https://maps.google.com/?cid=0x0:0xd7c25507fed828a5"
"mall";"Pusat Perbelanjaan";"Indomaret Simpang Semadam";"9WX2+R29, Jl. Kutacane, Lawe Mejile, Kec. Lawe Sigala-Gala, Kabupaten Aceh Tenggara, Aceh 24671";"Jl. Kutacane, Lawe Mejile, Kec. Lawe Sigala-Gala, Kabupaten Aceh Tenggara";"ACEH";"24671";"Indonesia";" 082299020894";"3.3995261";"97.9001084";"https://maps.google.com/?cid=0x0:0xacddaaf4438416d6"
"mall";"mall";"Aceh 24671";"Kabupaten Aceh Tenggara, Aceh";"Kabupaten Aceh Tenggara, Aceh";"ACEH";"";"Indonesia";"";"3.3974891";"97.8612767";"https://maps.google.com/?cid=0x0:0x2f1eb6944610f143"
"mall";"Minimarket";"Indomaret Lawe Alas";"CRMG+2QW, keran, Cingkam Meranggun, Kec. Lawe Alas, Kabupaten Aceh Tenggara, Aceh 24651";"keran, Cingkam Meranggun, Kec. Lawe Alas, Kabupaten Aceh Tenggara";"ACEH";"24651";"Indonesia";"";"3.4326809";"97.8258162";"https://maps.google.com/?cid=0x0:0x720abd77acb69aa2"
"mall";"Pusat Perbelanjaan";"Ud.mas Dewo";"CVGQ+F67, Lawe Dua Gab, Kec. Bukit Tusam, Kabupaten Aceh Tenggara, Aceh 24671";"Lawe Dua Gab, Kec. Bukit Tusam, Kabupaten Aceh Tenggara";"ACEH";"24671";"Indonesia";" 081264766064";"3.4261736";"97.8880557";"https://maps.google.com/?cid=0x0:0xbe914f6d81fbb5af"
"mall";"Sekolah Dasar";"Pekan Simpang Semadam";"CV2X+7GH, Simpang Semadam, Kec. Semadam, Kabupaten Aceh Tenggara, Aceh 24671";"Simpang Semadam, Kec. Semadam, Kabupaten Aceh Tenggara";"ACEH";"24671";"Indonesia";"";"3.4006769";"97.898859";"https://maps.google.com/?cid=0x0:0x9e08799fdfb29e0b"
"mall";"";"KIDZ PLAYSPACE KUTACANE";"CRWV+42H, Lembah H., Kec. Bambel, Kabupaten Aceh Tenggara, Aceh 24651";"Lembah H., Kec. Bambel, Kabupaten Aceh Tenggara";"ACEH";"24651";"Indonesia";"";"3.4456796";"97.8424187";"https://maps.google.com/?cid=0x0:0xcee6c3d9342c8d27"
"mall";"Pusat Perbelanjaan";"UD. AMEK WALI";"9RGW+F44, Rambah Sayang, Tanoh Alas, Kabupaten Aceh Tenggara, Aceh 24671";"Rambah Sayang, Tanoh Alas, Kabupaten Aceh Tenggara";"ACEH";"24671";"Indonesia";" 082266933717";"3.3761567";"97.8453702";"https://maps.google.com/?cid=0x0:0x12b783d399df7f1d"
"mall";"Toko Perlengkapan Rumah";"Toko Kelontong Widya";"CV2X+HPH, Jl. Kutacane-Tigabinanga, Simpang Semadam, Kec. Semadam, Kabupaten Aceh Tenggara, Aceh 24671";"Jl. Kutacane-Tigabinanga, Simpang Semadam, Kec. Semadam, Kabupaten Aceh Tenggara";"ACEH";"24671";"Indonesia";" 082161098252";"3.4014406";"97.8993652";"https://maps.google.com/?cid=0x0:0x3588d1d15340ae7b"
"mall";"Pusat Perbelanjaan";"UD HARIS";"CRWM+FH7, Biak Muli Baru, Kec. Bambel, Kabupaten Aceh Tenggara, Aceh 24651";"Biak Muli Baru, Kec. Bambel, Kabupaten Aceh Tenggara";"ACEH";"24651";"Indonesia";" 085270407476";"3.4461739";"97.83391";"https://maps.google.com/?cid=0x0:0xbf424d305d45653f"
"mall";"Pusat Perbelanjaan";"Pekan Lawe Sigala-gala";"9W39+4VW, Jl. Kutacane-Tigabinanga, Lawe Sigala Tim., Kec. Lawe Sigala-Gala, Kabupaten Aceh Tenggara, Aceh 24673";"Jl. Kutacane-Tigabinanga, Lawe Sigala Tim., Kec. Lawe Sigala-Gala, Kabupaten Aceh Tenggara";"ACEH";"24673";"Indonesia";"";"3.3528701";"97.9196959";"https://maps.google.com/?cid=0x0:0x9ea4caa2d2a7ee70"
"mall";"Toko umum";"UD.BELLA.MB";"CV5W+H9R, Kp. Baru, Kec. Semadam, Kabupaten Aceh Tenggara, Aceh 24671";"Kp. Baru, Kec. Semadam, Kabupaten Aceh Tenggara";"ACEH";"24671";"Indonesia";"";"3.408417";"97.8962779";"https://maps.google.com/?cid=0x0:0xb9f5dab9256e7cb3"
"mall";"Pusat Perbelanjaan";"Alfamart Simpang Semadam";"9WX2+W22, Lawe Mejile, Kec. Semadam, Kabupaten Aceh Tenggara, Aceh";"Kabupaten Aceh Tenggara, Aceh";"ACEH";"";"Indonesia";"";"3.3997735";"97.9000068";"https://maps.google.com/?cid=0x0:0x29f0209108eabcda"
"mall";"Pusat Perbelanjaan";"Ud Mukhlis Simpang Empat ,lawe Alas";"CRGJ+P9M, Cingkam Meranggun, Kec. Lawe Alas, Kabupaten Aceh Tenggara, Aceh 24651";"Cingkam Meranggun, Kec. Lawe Alas, Kabupaten Aceh Tenggara";"ACEH";"24651";"Indonesia";" 085371794711";"3.4268278";"97.8309168";"https://maps.google.com/?cid=0x0:0xe8f8c5e2a01b17f1"
"mall";"Toko bahan makanan";"UD fathir jamil";"CRHW+P8F, Terutung Payung Hilir, Kec. Bambel, Kabupaten Aceh Tenggara, Aceh 24651";"Terutung Payung Hilir, Kec. Bambel, Kabupaten Aceh Tenggara";"ACEH";"24651";"Indonesia";"";"3.4288975";"97.8452024";"https://maps.google.com/?cid=0x0:0x331a04440c96621c"
"mall";"Sekolah Dasar";"Pekan Simpang Semadam";"CV2X+7GH, Simpang Semadam, Kec. Semadam, Kabupaten Aceh Tenggara, Aceh 24671";"Simpang Semadam, Kec. Semadam, Kabupaten Aceh Tenggara";"ACEH";"24671";"Indonesia";"";"3.4006769";"97.898859";"https://maps.google.com/?cid=0x0:0x9e08799fdfb29e0b"
"mall";"Pusat Perbelanjaan";"Ud.mas Dewo";"CVGQ+F67, Lawe Dua Gab, Kec. Bukit Tusam, Kabupaten Aceh Tenggara, Aceh 24671";"Lawe Dua Gab, Kec. Bukit Tusam, Kabupaten Aceh Tenggara";"ACEH";"24671";"Indonesia";" 081264766064";"3.4261736";"97.8880557";"https://maps.google.com/?cid=0x0:0xbe914f6d81fbb5af"
"mall";"mall";"Kec. Bukit Tusam";"Kabupaten Aceh Tenggara, Aceh";"Kabupaten Aceh Tenggara, Aceh";"ACEH";"";"Indonesia";"";"3.4266977";"97.8877166";"https://maps.google.com/?cid=0x0:0xf9f3969c7ad2c2c1"
"mall";"Toko Perlengkapan Rumah";"Toko Kelontong Widya";"CV2X+HPH, Jl. Kutacane-Tigabinanga, Simpang Semadam, Kec. Semadam, Kabupaten Aceh Tenggara, Aceh 24671";"Jl. Kutacane-Tigabinanga, Simpang Semadam, Kec. Semadam, Kabupaten Aceh Tenggara";"ACEH";"24671";"Indonesia";" 082161098252";"3.4014406";"97.8993652";"https://maps.google.com/?cid=0x0:0x3588d1d15340ae7b"
"mall";"Pusat Perbelanjaan";"Indomaret Simpang Semadam";"9WX2+R29, Jl. Kutacane, Lawe Mejile, Kec. Lawe Sigala-Gala, Kabupaten Aceh Tenggara, Aceh 24671";"Jl. Kutacane, Lawe Mejile, Kec. Lawe Sigala-Gala, Kabupaten Aceh Tenggara";"ACEH";"24671";"Indonesia";" 082299020894";"3.3995261";"97.9001084";"https://maps.google.com/?cid=0x0:0xacddaaf4438416d6"
"mall";"mall";"UD.Azam jaya Lawe dua simpang rema";"CVFR+P53, Jl. Kutacane-Tigabinanga, Darussalam, Kec. Bukit Tusam, Kabupaten Aceh Tenggara, Aceh 24671";"Jl. Kutacane-Tigabinanga, Darussalam, Kec. Bukit Tusam, Kabupaten Aceh Tenggara";"ACEH";"24671";"Indonesia";"";"3.4242745";"97.8904189";"https://maps.google.com/?cid=0x0:0x992401f30d43689a"
"mall";"mall";"Lamel Shop";"CVGQ+F67, Lawe Dua Gab, Kec. Bukit Tusam, Kabupaten Aceh Tenggara, Aceh 24671";"Lawe Dua Gab, Kec. Bukit Tusam, Kabupaten Aceh Tenggara";"ACEH";"24671";"Indonesia";"";"3.4265001";"97.8880592";"https://maps.google.com/?cid=0x0:0xea6b5161acf6e51d"
"mall";"Pusat Perbelanjaan";"Alfamart Simpang Semadam";"9WX2+W22, Lawe Mejile, Kec. Semadam, Kabupaten Aceh Tenggara, Aceh";"Kabupaten Aceh Tenggara, Aceh";"ACEH";"";"Indonesia";"";"3.3997735";"97.9000068";"https://maps.google.com/?cid=0x0:0x29f0209108eabcda"
"mall";"Toko umum";"UD.BELLA.MB";"CV5W+H9R, Kp. Baru, Kec. Semadam, Kabupaten Aceh Tenggara, Aceh 24671";"Kp. Baru, Kec. Semadam, Kabupaten Aceh Tenggara";"ACEH";"24671";"Indonesia";"";"3.408417";"97.8962779";"https://maps.google.com/?cid=0x0:0xb9f5dab9256e7cb3"
"mall";"mall";"Kec. Darul Hasanah";"Hutan, Kabupaten Aceh Tenggara, Aceh";"Kabupaten Aceh Tenggara, Aceh";"ACEH";"";"Indonesia";"";"3.510025";"97.5680595";"https://maps.google.com/?cid=0x0:0x7c94df74c0ccabf5"
"mall";"Pusat Perbelanjaan";"Toko HM.idris/nisa Centong Atas";"X8WR+GQ8, centong atas ,blangkejeren, Kota Blangkejeren, Kec. Blangkejeren, Kabupaten Gayo Lues, Aceh 24653";"centong atas ,blangkejeren, Kota Blangkejeren, Kec. Blangkejeren, Kabupaten Gayo Lues";"ACEH";"24653";"Indonesia";"";"3.996295";"97.341955";"https://maps.google.com/?cid=0x0:0xdb5aba65292740e5"
"mall";"mall";"Aceh 24653";"Aceh";"Aceh";"ACEH";"";"Indonesia";"";"3.510025";"97.5680595";"https://maps.google.com/?cid=0x0:0xfbadf244defba520"
"mall";"Pasar";"Pasar Terpadu";"284P+2J4, Bustanussalam, Kec. Blangkejeren, Kabupaten Gayo Lues, Aceh 24653";"Bustanussalam, Kec. Blangkejeren, Kabupaten Gayo Lues";"ACEH";"24653";"Indonesia";" 082136611235";"4.0050032";"97.3365816";"https://maps.google.com/?cid=0x0:0xbc8b021173cd86a4"
"mall";"Kedai Kopi";"Seruput coffee";"283P+XW8, Bustanussalam, Kec. Blangkejeren, Kabupaten Gayo Lues, Aceh 24653";"Bustanussalam, Kec. Blangkejeren, Kabupaten Gayo Lues";"ACEH";"24653";"Indonesia";"";"4.0049226";"97.3373142";"https://maps.google.com/?cid=0x0:0xb091a846a646cae6"
"mall";"Studio Fotografi";"PG. DELTA PHOTO";"Jln. Panglime Linting, Bukit, Kec. Blangkejeren, Kabupaten Gayo Lues, Aceh 24653";"Bukit, Kec. Blangkejeren, Kabupaten Gayo Lues";"ACEH";"24653";"Indonesia";" 085372350274";"3.9948276";"97.3458429";"https://maps.google.com/?cid=0x0:0x9186c7592e311d5f"
"mall";"Toko Swalayan";"Suzuya Mall Banda Aceh";"Jl. Teuku Umar, Lamtemen Tim., Kec. Jaya Baru, Kota Banda Aceh, Aceh 23232";"Lamtemen Tim., Kec. Jaya Baru, Kota Banda Aceh";"ACEH";"23232";"Indonesia";" 06518011022";"5.5377324";"95.3068005";"https://maps.google.com/?cid=0x0:0xc5c56efc74442dea"
"mall";"Pusat Perbelanjaan";"Julian Sayur PC";"282V+XGW, Kuta Lintang, Kec. Blangkejeren, Kabupaten Gayo Lues, Aceh 24653";"Kuta Lintang, Kec. Blangkejeren, Kabupaten Gayo Lues";"ACEH";"24653";"Indonesia";" 082274443941";"4.0024888";"97.3438323";"https://maps.google.com/?cid=0x0:0x2f236091081192bb"
"mall";"Perhimpunan Pengembang Perumahan";"Desa mude uken";"X8XV+795, Kuta Lintang, Kec. Blangkejeren, Kabupaten Gayo Lues, Aceh 24653";"Kuta Lintang, Kec. Blangkejeren, Kabupaten Gayo Lues";"ACEH";"24653";"Indonesia";"";"3.9981264";"97.3434729";"https://maps.google.com/?cid=0x0:0x2f6291b29528dfd9"
"mall";"Toko";"UD. My Com Bkj";"X8RR+C37, Kp. Jawa, Kec. Blangkejeren, Kabupaten Gayo Lues, Aceh 24653";"Kp. Jawa, Kec. Blangkejeren, Kabupaten Gayo Lues";"ACEH";"24653";"Indonesia";"";"3.9910382";"97.3401617";"https://maps.google.com/?cid=0x0:0xa24e7e0421d10c8d"
"mall";"Toko Perlengkapan Rumah";"Toko Abu Rahmad";"X8WR+PMX, Kuta Lintang, Kec. Blangkejeren, Kabupaten Gayo Lues, Aceh 24653";"Kuta Lintang, Kec. Blangkejeren, Kabupaten Gayo Lues";"ACEH";"24653";"Indonesia";" 082258684445";"3.9968704";"97.3417458";"https://maps.google.com/?cid=0x0:0x6953ff324c8a5cf1"
"mall";"Toko Perlengkapan Rumah";"Toko Bangunan ACEH GAYO (ANCI)";"X8WR+MF2, Kota Blangkejeren, Kec. Blangkejeren, Kabupaten Gayo Lues, Aceh 24653";"Kota Blangkejeren, Kec. Blangkejeren, Kabupaten Gayo Lues";"ACEH";"24653";"Indonesia";"";"3.9966444";"97.3411511";"https://maps.google.com/?cid=0x0:0x60a3a85fe350dabd"
"mall";"Pusat Perbelanjaan";"Kios ²A";"jl badak Kios 2a, Kuta Lintang, Kec. Blangkejeren, Kabupaten Gayo Lues, Aceh 24653";"Kuta Lintang, Kec. Blangkejeren, Kabupaten Gayo Lues";"ACEH";"24653";"Indonesia";" 082216124721";"4.0023543";"97.3436211";"https://maps.google.com/?cid=0x0:0xbe204034a9263c89"
"mall";"Pusat Perbelanjaan";"Plaza Aceh";"Jl. T. Hasan Dek Jl. Teuku Iskandar No.49, Beurawe, Kec. Kuta Alam, Kota Banda Aceh, Aceh 23127";"Beurawe, Kec. Kuta Alam, Kota Banda Aceh";"ACEH";"23127";"Indonesia";" 08116899890";"5.5547881";"95.3308683";"https://maps.google.com/?cid=0x0:0x45c9eb2ec9e62a76"
"mall";"Pusat Perbelanjaan";"Ud. Naila";"GR4C+R48, Muhajirin, Kec. Deleng Pokhkisen, Kabupaten Aceh Tenggara, Aceh 24651";"Muhajirin, Kec. Deleng Pokhkisen, Kabupaten Aceh Tenggara";"ACEH";"24651";"Indonesia";" 085373101037";"3.5070435";"97.820341";"https://maps.google.com/?cid=0x0:0x3e983a9fa0142fe8"
"mall";"Toko";"UD Eky Jaya";"Kuta Ujung, Kec. Darul Hasanah, Kabupaten Aceh Tenggara, Aceh 24651";"Kec. Darul Hasanah, Kabupaten Aceh Tenggara";"ACEH";"24651";"Indonesia";"";"3.5485614";"97.7649662";"https://maps.google.com/?cid=0x0:0x48b1a7dfc00e015b"
"mall";"mall";"Aceh 24651";"Kec. Rikit Gaib, Kabupaten Aceh Tenggara, Aceh";"Kabupaten Aceh Tenggara, Aceh";"ACEH";"";"Indonesia";"";"3.4880147";"97.8068851";"https://maps.google.com/?cid=0x0:0x711f6d12884ebd87"
"mall";"Pusat Perbelanjaan";"Ud. Naila";"GR4C+R48, Muhajirin, Kec. Deleng Pokhkisen, Kabupaten Aceh Tenggara, Aceh 24651";"Muhajirin, Kec. Deleng Pokhkisen, Kabupaten Aceh Tenggara";"ACEH";"24651";"Indonesia";" 085373101037";"3.5070435";"97.820341";"https://maps.google.com/?cid=0x0:0x3e983a9fa0142fe8"
"mall";"Toko";"UD Eky Jaya";"Kuta Ujung, Kec. Darul Hasanah, Kabupaten Aceh Tenggara, Aceh 24651";"Kec. Darul Hasanah, Kabupaten Aceh Tenggara";"ACEH";"24651";"Indonesia";"";"3.5485614";"97.7649662";"https://maps.google.com/?cid=0x0:0x48b1a7dfc00e015b"
"mall";"mall";"Aceh 24652";"Kabupaten Aceh Tenggara, Aceh";"Kabupaten Aceh Tenggara, Aceh";"ACEH";"";"Indonesia";"";"3.6699926";"97.654811";"https://maps.google.com/?cid=0x0:0xf321f2dc3f3b9295"
"mall";"Tujuan Wisata";"Ketambe Trek  Orangutan Explore";"Ketambe, Kec. Ketambe, Kabupaten Aceh Tenggara, Aceh 24652";"Kec. Ketambe, Kabupaten Aceh Tenggara";"ACEH";"24652";"Indonesia";" 085373818261";"3.6793105";"97.6597187";"https://maps.google.com/?cid=0x0:0x7711333e9bbb92b7"
"mall";"Taman";"Ketambe jungle trekking";"Jl. Blangkejeren - Kutacane No.km 32, Ketambe, Kec. Ketambe, Kabupaten Aceh Tenggara, Aceh 24652";"Ketambe, Kec. Ketambe, Kabupaten Aceh Tenggara";"ACEH";"24652";"Indonesia";" 082261010009";"3.6740885";"97.6615852";"https://maps.google.com/?cid=0x0:0x58c4d92206dc8635"
"mall";"Area Mendaki";"Sumatra jungle experience (orangutan trekking)";"MMJ6+426, Ketambe, Kec. Ketambe, Kabupaten Aceh Tenggara, Aceh";"Kabupaten Aceh Tenggara, Aceh";"ACEH";"";"Indonesia";" 082260366163";"3.6803497";"97.6599853";"https://maps.google.com/?cid=0x0:0x20a9759ee76980eb"
"mall";"mall";"Leuser Guesthouse - Ketambe";"Ketambe, Kec. Ketambe, Kabupaten Aceh Tenggara, Aceh 24652";"Kec. Ketambe, Kabupaten Aceh Tenggara";"ACEH";"24652";"Indonesia";" 085360626329";"3.6859684";"97.648728";"https://maps.google.com/?cid=0x0:0xaa28e40e030a4607"
"mall";"Toko";"UD.fuji annisa.glosir barang klontong";"JP7G+5RP, Jl. Blangkejeren - Kutacane, Kuning Abadi, Kec. Ketambe, Kabupaten Aceh Tenggara, Aceh 24651";"Jl. Blangkejeren - Kutacane, Kuning Abadi, Kec. Ketambe, Kabupaten Aceh Tenggara";"ACEH";"24651";"Indonesia";" 085276486650";"3.6129749";"97.7270639";"https://maps.google.com/?cid=0x0:0xb5443a890e418a0a"
"mall";"Biro Perjalanan dan Wisata";"Rudy ketambe sumatra jungle trekking";"Jungle trekking with rudy, Ketambe, Kec. Ketambe, Kabupaten Aceh Tenggara, Aceh 24662";"Ketambe, Kec. Ketambe, Kabupaten Aceh Tenggara";"ACEH";"24662";"Indonesia";" 082299772381";"3.6735566";"97.6618718";"https://maps.google.com/?cid=0x0:0xe1c45554ab9bd06"
"mall";"mall";"Pondok Wisata Guesthouse Ketambe, Sumatra";"Jl. Blangkejeren - Kutacane No.km32, Ketambe, Kec. Ketambe, Kabupaten Aceh Tenggara, Aceh 24652";"Ketambe, Kec. Ketambe, Kabupaten Aceh Tenggara";"ACEH";"24652";"Indonesia";" 082260366163";"3.6804976";"97.6600302";"https://maps.google.com/?cid=0x0:0x3a29670964636e43"
"mall";"Toko bahan makanan";"WARUNG KELONTONG UD.KIA";"PJ8J+J2J, Rumah Bundar, Kec. Ketambe, Kabupaten Aceh Tenggara, Aceh";"Kabupaten Aceh Tenggara, Aceh";"ACEH";"";"Indonesia";" 082183966913";"3.7170412";"97.6298359";"https://maps.google.com/?cid=0x0:0x37e70a5ea5d75de8"
"mall";"Pusat Perbelanjaan";"Plaza Aceh";"Jl. T. Hasan Dek Jl. Teuku Iskandar No.49, Beurawe, Kec. Kuta Alam, Kota Banda Aceh, Aceh 23127";"Beurawe, Kec. Kuta Alam, Kota Banda Aceh";"ACEH";"23127";"Indonesia";" 08116899890";"5.5547881";"95.3308683";"https://maps.google.com/?cid=0x0:0x45c9eb2ec9e62a76"
"mall";"Toko";"UD Gayo Tani";"JP6G+WH9, Kuning Abadi, Kec. Darul Hasanah, Kabupaten Aceh Tenggara, Aceh 24651";"Kuning Abadi, Kec. Darul Hasanah, Kabupaten Aceh Tenggara";"ACEH";"24651";"Indonesia";" 085372585674";"3.6122833";"97.7264711";"https://maps.google.com/?cid=0x0:0x144367625fc1b919"
"mall";"Biro Perjalanan dan Wisata";"Jhony Jungle Trekking Sumatra Aventure";"Jl.blangkejeren-kutacane Km 32 ketambe, Ketambe, sumatra, Ketambe, Kec. Ketambe, Kabupaten Aceh Tenggara, Aceh 24653";"Ketambe, sumatra, Ketambe, Kec. Ketambe, Kabupaten Aceh Tenggara";"ACEH";"24653";"Indonesia";" 081376350472";"3.6730661";"97.6620925";"https://maps.google.com/?cid=0x0:0x84dc9fc0b2e61ff8"
"mall";"mall";"Friendship Guesthouse  Restaurant Ketambe";"Jl Ketambe-Belangkejen No.Km. 32, Ketambe, Kec. Ketambe, Kabupaten Aceh Tenggara, Aceh 24562";"Ketambe, Kec. Ketambe, Kabupaten Aceh Tenggara";"ACEH";"24562";"Indonesia";" 085359664110";"3.6792553";"97.6563177";"https://maps.google.com/?cid=0x0:0x28fccf90cee66e6"
"mall";"Pasar";"Pusat Kota Kutapanjang";"278H+P75, Dusun kota, Kerukunan Kuta Panjang, Kec. Kutapanjang, Kabupaten Gayo Lues, Aceh 24655";"Dusun kota, Kerukunan Kuta Panjang, Kec. Kutapanjang, Kabupaten Gayo Lues";"ACEH";"24655";"Indonesia";"";"4.016754";"97.2782318";"https://maps.google.com/?cid=0x0:0xc29331f2e702702"
"mall";"mall";"Kec. Lawe Alas";"Kabupaten Aceh Tenggara, Aceh";"Kabupaten Aceh Tenggara, Aceh";"ACEH";"";"Indonesia";"";"3.4262923";"97.8310337";"https://maps.google.com/?cid=0x0:0x8c79164bdcdfbd2e"
"mall";"Minimarket";"Indomaret Lawe Alas";"CRMG+2QW, keran, Cingkam Meranggun, Kec. Lawe Alas, Kabupaten Aceh Tenggara, Aceh 24651";"keran, Cingkam Meranggun, Kec. Lawe Alas, Kabupaten Aceh Tenggara";"ACEH";"24651";"Indonesia";"";"3.4326809";"97.8258162";"https://maps.google.com/?cid=0x0:0x720abd77acb69aa2"
"mall";"Pusat Perbelanjaan";"Ud Mukhlis Simpang Empat ,lawe Alas";"CRGJ+P9M, Cingkam Meranggun, Kec. Lawe Alas, Kabupaten Aceh Tenggara, Aceh 24651";"Cingkam Meranggun, Kec. Lawe Alas, Kabupaten Aceh Tenggara";"ACEH";"24651";"Indonesia";" 085371794711";"3.4268278";"97.8309168";"https://maps.google.com/?cid=0x0:0xe8f8c5e2a01b17f1"
"mall";"Toko";"Ud Kawan Setia";"Pasir Bangun, Kec. Lawe Alas, Kabupaten Aceh Tenggara, Aceh 24651";"Kec. Lawe Alas, Kabupaten Aceh Tenggara";"ACEH";"24651";"Indonesia";" 085260024489";"3.4258367";"97.8347556";"https://maps.google.com/?cid=0x0:0xa7f6945cd71f0468"
"mall";"Toko Perlengkapan Rumah";"Toko Joshua Toy's";"Jl. Pajak Pagi No. 15 - 16, Desa, Lawe Rutung, Kec. Lawe Bulan, Kabupaten Aceh Tenggara, Aceh 24651";"Desa, Lawe Rutung, Kec. Lawe Bulan, Kabupaten Aceh Tenggara";"ACEH";"24651";"Indonesia";" 082274140293";"3.4853728";"97.815059";"https://maps.google.com/?cid=0x0:0x6f36261074d5ae9c"
"mall";"Bengkel Mobil";"Bengkel Kampung";"CRRG+28X, RT.Kutacane/RW.Ngkeran, Kuta Cingkam I, Lawe Alas, Southeast Aceh, Aceh 24651";"RT.Kutacane/RW.Ngkeran, Kuta Cingkam I, Lawe Alas, Southeast Aceh";"ACEH";"24651";"Indonesia";"";"3.4401101";"97.8258666";"https://maps.google.com/?cid=0x0:0x16b85cda214862cb"
"mall";"Toko Bunga";"Azzam Florist";"FRR9+JJC, Telaga Mekar, Kec. Lawe Bulan, Kabupaten Aceh Tenggara, Aceh 24651";"Telaga Mekar, Kec. Lawe Bulan, Kabupaten Aceh Tenggara";"ACEH";"24651";"Indonesia";" 082363046868";"3.4915565";"97.8190103";"https://maps.google.com/?cid=0x0:0x5c42e23ba072b443"
"mall";"Pusat Perbelanjaan";"Pajak Pagi";"FRP8+48H, Lawe Khutung, Kec. Lawe Bulan, Kabupaten Aceh Tenggara, Aceh 24651";"Lawe Khutung, Kec. Lawe Bulan, Kabupaten Aceh Tenggara";"ACEH";"24651";"Indonesia";"";"3.4853154";"97.8158611";"https://maps.google.com/?cid=0x0:0x8449529d417be134"
"mall";"Toko Makanan";"Toko Sinar Waja";"Jl. Kutacane, Pulo Latong, Kec. Babussalam, Kabupaten Aceh Tenggara, Aceh 24651";"Pulo Latong, Kec. Babussalam, Kabupaten Aceh Tenggara";"ACEH";"24651";"Indonesia";"";"3.481999";"97.8132748";"https://maps.google.com/?cid=0x0:0xb39c063e113a8261"
"mall";"Pusat Perbelanjaan";"SYAKIRA TRATAK";"FRR9+PCV, Telaga Mekar, Kec. Lawe Bulan, Kabupaten Aceh Tenggara, Aceh 24651";"Telaga Mekar, Kec. Lawe Bulan, Kabupaten Aceh Tenggara";"ACEH";"24651";"Indonesia";" 081264100036";"3.4918596";"97.8185622";"https://maps.google.com/?cid=0x0:0xc64a9b0270e7ab85"
"mall";"Toko";"UD. Bunda Aisyah";"CRHJ+RW3, Unnamed Road, Darul Amin, Kec. Lawe Alas, Kabupaten Aceh Tenggara, Aceh 24651";"Unnamed Road, Darul Amin, Kec. Lawe Alas, Kabupaten Aceh Tenggara";"ACEH";"24651";"Indonesia";" 081370784993";"3.4295236";"97.8323049";"https://maps.google.com/?cid=0x0:0x9805d876b65fe382"
"mall";"Pasar";"TAQWA MARKET";"Jl. Cut Nyak Dhien No.50, Kota Kutacane, Kec. Babussalam, Kabupaten Aceh Tenggara, Aceh 24651";"Kota Kutacane, Kec. Babussalam, Kabupaten Aceh Tenggara";"ACEH";"24651";"Indonesia";" 085261555586";"3.4845738";"97.8115029";"https://maps.google.com/?cid=0x0:0x438a4978edbd3c44"
"mall";"Pusat Perbelanjaan";"Ferizal";"FRP8+48H UD hanifa, Jalan masuk pajak pagi, Lawe Rutung, Kec. Lawe Bulan, Kabupaten Aceh Tenggara, Aceh 24651";"Jalan masuk pajak pagi, Lawe Rutung, Kec. Lawe Bulan, Kabupaten Aceh Tenggara";"ACEH";"24651";"Indonesia";"";"3.4853154";"97.8158611";"https://maps.google.com/?cid=0x0:0xbbe786f77b5966e0"
"mall";"Pusat Perbelanjaan";"Plaza Aceh";"Jl. T. Hasan Dek Jl. Teuku Iskandar No.49, Beurawe, Kec. Kuta Alam, Kota Banda Aceh, Aceh 23127";"Beurawe, Kec. Kuta Alam, Kota Banda Aceh";"ACEH";"23127";"Indonesia";" 08116899890";"5.5547881";"95.3308683";"https://maps.google.com/?cid=0x0:0x45c9eb2ec9e62a76"
"mall";"mall";"Kec. Lawe Bulan";"Kabupaten Aceh Tenggara, Aceh";"Kabupaten Aceh Tenggara, Aceh";"ACEH";"";"Indonesia";"";"3.4844337";"97.8239129";"https://maps.google.com/?cid=0x0:0x7c500fb0a4b9b413"
"mall";"Pusat Perbelanjaan";"Pajak Pagi";"FRP8+48H, Lawe Khutung, Kec. Lawe Bulan, Kabupaten Aceh Tenggara, Aceh 24651";"Lawe Khutung, Kec. Lawe Bulan, Kabupaten Aceh Tenggara";"ACEH";"24651";"Indonesia";"";"3.4853154";"97.8158611";"https://maps.google.com/?cid=0x0:0x8449529d417be134"
"mall";"Pusat Perbelanjaan";"Indomaret Simpang Empat";"FRMC+VQW, Simpang Empat, Kec. Lawe Bulan, Kabupaten Aceh Tenggara, Aceh 24651";"Simpang Empat, Kec. Lawe Bulan, Kabupaten Aceh Tenggara";"ACEH";"24651";"Indonesia";"";"3.4847308";"97.8219614";"https://maps.google.com/?cid=0x0:0x63f341e3a705d116"
"mall";"Pusat Perbelanjaan";"SYAKIRA TRATAK";"FRR9+PCV, Telaga Mekar, Kec. Lawe Bulan, Kabupaten Aceh Tenggara, Aceh 24651";"Telaga Mekar, Kec. Lawe Bulan, Kabupaten Aceh Tenggara";"ACEH";"24651";"Indonesia";" 081264100036";"3.4918596";"97.8185622";"https://maps.google.com/?cid=0x0:0xc64a9b0270e7ab85"
"mall";"Toko Perlengkapan Rumah";"Toko Joshua Toy's";"Jl. Pajak Pagi No. 15 - 16, Desa, Lawe Rutung, Kec. Lawe Bulan, Kabupaten Aceh Tenggara, Aceh 24651";"Desa, Lawe Rutung, Kec. Lawe Bulan, Kabupaten Aceh Tenggara";"ACEH";"24651";"Indonesia";" 082274140293";"3.4853728";"97.815059";"https://maps.google.com/?cid=0x0:0x6f36261074d5ae9c"
"mall";"Toko Bunga";"Azzam Florist";"FRR9+JJC, Telaga Mekar, Kec. Lawe Bulan, Kabupaten Aceh Tenggara, Aceh 24651";"Telaga Mekar, Kec. Lawe Bulan, Kabupaten Aceh Tenggara";"ACEH";"24651";"Indonesia";" 082363046868";"3.4915565";"97.8190103";"https://maps.google.com/?cid=0x0:0x5c42e23ba072b443"
"mall";"Toko Pakaian";"Toko grosir pakaian gadis manja";"FRP8+75R, Pasir Gala, Kec. Lawe Bulan, Kabupaten Aceh Tenggara, Aceh 24651";"Pasir Gala, Kec. Lawe Bulan, Kabupaten Aceh Tenggara";"ACEH";"24651";"Indonesia";"";"3.4857373";"97.8153823";"https://maps.google.com/?cid=0x0:0x26aa37df43acf3fe"
"mall";"Toko";"Kayysa fotocopi batumbulan";"FRW3+V27, Batu Bulan Asli, Kec. Babussalam, Kabupaten Aceh Tenggara, Aceh 24651";"Batu Bulan Asli, Kec. Babussalam, Kabupaten Aceh Tenggara";"ACEH";"24651";"Indonesia";" 085275725436";"3.4971552";"97.8025462";"https://maps.google.com/?cid=0x0:0xd632c9c76adfbcf"
"mall";"Toko Pakaian";"Kios Baju Zaki Mirza";"FRP8+694, Unnamed Road, Pasir Gala, Kec. Lawe Bulan, Kabupaten Aceh Tenggara, Aceh 24651";"Unnamed Road, Pasir Gala, Kec. Lawe Bulan, Kabupaten Aceh Tenggara";"ACEH";"24651";"Indonesia";"";"3.4855165";"97.8159661";"https://maps.google.com/?cid=0x0:0xfd2b3f96c912738"
"mall";"Toko";"UD RINGO STAR";"Jl. Pajak Pagi No.24-25, Lawe Rutung, Kec. Lawe Bulan, Kabupaten Aceh Tenggara, Aceh 24665";"Lawe Rutung, Kec. Lawe Bulan, Kabupaten Aceh Tenggara";"ACEH";"24665";"Indonesia";" 082168646669";"3.4854913";"97.8151823";"https://maps.google.com/?cid=0x0:0xfb7270099ee9f3b3"
"mall";"Pusat Perbelanjaan";"Grosir beras Putra Nanggroe";"Pajak Pagi, Lawe Rutung, Kec. Lawe Bulan, Kabupaten Aceh Tenggara, Aceh 24651";"Lawe Rutung, Kec. Lawe Bulan, Kabupaten Aceh Tenggara";"ACEH";"24651";"Indonesia";" 085275413202";"3.4866669";"97.8161418";"https://maps.google.com/?cid=0x0:0x2cc70a02458e097b"
"mall";"Pusat Perbelanjaan";"Nana Underwear";"FRP8+348 Pajak impres, Pasir Gala, Kec. Lawe Bulan, Kabupaten Aceh Tenggara, Aceh 24651";"Pasir Gala, Kec. Lawe Bulan, Kabupaten Aceh Tenggara";"ACEH";"24651";"Indonesia";"";"3.4851654";"97.8153227";"https://maps.google.com/?cid=0x0:0x6e8cd71d6e0ca6f8"
"mall";"Pusat Perbelanjaan";"Ferizal";"FRP8+48H UD hanifa, Jalan masuk pajak pagi, Lawe Rutung, Kec. Lawe Bulan, Kabupaten Aceh Tenggara, Aceh 24651";"Jalan masuk pajak pagi, Lawe Rutung, Kec. Lawe Bulan, Kabupaten Aceh Tenggara";"ACEH";"24651";"Indonesia";"";"3.4853154";"97.8158611";"https://maps.google.com/?cid=0x0:0xbbe786f77b5966e0"
"mall";"Toko Pakaian";"TRIDARA SANDAL";"Jl. Iskandar Muda No.1, Kota Kutacane, Kec. Babussalam, Kabupaten Aceh Tenggara, Aceh 24651";"Kota Kutacane, Kec. Babussalam, Kabupaten Aceh Tenggara";"ACEH";"24651";"Indonesia";"";"3.4956223";"97.8081041";"https://maps.google.com/?cid=0x0:0xc10c7b97512bf970"
"mall";"Pusat Perbelanjaan";"Pekan Lawe Sigala-gala";"9W39+4VW, Jl. Kutacane-Tigabinanga, Lawe Sigala Tim., Kec. Lawe Sigala-Gala, Kabupaten Aceh Tenggara, Aceh 24673";"Jl. Kutacane-Tigabinanga, Lawe Sigala Tim., Kec. Lawe Sigala-Gala, Kabupaten Aceh Tenggara";"ACEH";"24673";"Indonesia";"";"3.3528701";"97.9196959";"https://maps.google.com/?cid=0x0:0x9ea4caa2d2a7ee70"
"mall";"mall";"Kec. Lawe Sigala-Gala";"Kabupaten Aceh Tenggara, Aceh";"Kabupaten Aceh Tenggara, Aceh";"ACEH";"";"Indonesia";"";"3.3523562";"97.920238";"https://maps.google.com/?cid=0x0:0xcb5b41d286766187"
"mall";"Pusat Perbelanjaan";"Pasar Tradisional Lawe Sigala-gala";"9W39+2RF, Lawe Sigala Bar., Kec. Lawe Sigala-Gala, Kabupaten Aceh Tenggara, Aceh 24673";"Lawe Sigala Bar., Kec. Lawe Sigala-Gala, Kabupaten Aceh Tenggara";"ACEH";"24673";"Indonesia";"";"3.3525725";"97.9195349";"https://maps.google.com/?cid=0x0:0xee37e502b4713f77"
"mall";"Pusat Perbelanjaan";"Asqi Collection366";"8X73+Q86, Jl. Kutacane, Deski Jaya, Kec. Lawe Sigala-Gala, Kabupaten Aceh Tenggara, Aceh 24673";"Jl. Kutacane, Deski Jaya, Kec. Lawe Sigala-Gala, Kabupaten Aceh Tenggara";"ACEH";"24673";"Indonesia";" 085358484844";"3.3144147";"97.953255";"https://maps.google.com/?cid=0x0:0x4be097807a6c072e"
"mall";"Pusat Perbelanjaan";"UD. NAPIT MUDA";"8X64+8F4, Jl. Kutacane-Tigabinanga, Lawe Deski Sabas, Kec. Lawe Sigala-Gala, Kabupaten Aceh Tenggara, Aceh 24673";"Jl. Kutacane-Tigabinanga, Lawe Deski Sabas, Kec. Lawe Sigala-Gala, Kabupaten Aceh Tenggara";"ACEH";"24673";"Indonesia";" 081269399664";"3.3107669";"97.9562154";"https://maps.google.com/?cid=0x0:0xa9e863cd71507b48"
"mall";"Pusat Perbelanjaan";"Indomaret Simpang Semadam";"9WX2+R29, Jl. Kutacane, Lawe Mejile, Kec. Lawe Sigala-Gala, Kabupaten Aceh Tenggara, Aceh 24671";"Jl. Kutacane, Lawe Mejile, Kec. Lawe Sigala-Gala, Kabupaten Aceh Tenggara";"ACEH";"24671";"Indonesia";" 082299020894";"3.3995261";"97.9001084";"https://maps.google.com/?cid=0x0:0xacddaaf4438416d6"
"mall";"Balai masyarakat";"Onan Lawe Desky";"8X64+G26, Lawe Deski Sabas, Kec. Babul Makmur, Kabupaten Aceh Tenggara, Aceh 24673";"Lawe Deski Sabas, Kec. Babul Makmur, Kabupaten Aceh Tenggara";"ACEH";"24673";"Indonesia";" 085310916741";"3.3112851";"97.9550153";"https://maps.google.com/?cid=0x0:0x6e40755d35b968c3"
"mall";"Pemasok filter udara";"Sofi Louser water Treatment";"8WHW+H47, Lawe Loning Aman, Kec. Lawe Sigala-Gala, Kabupaten Aceh Tenggara, Aceh 24673";"Lawe Loning Aman, Kec. Lawe Sigala-Gala, Kabupaten Aceh Tenggara";"ACEH";"24673";"Indonesia";" 082213535477";"3.328917";"97.945305";"https://maps.google.com/?cid=0x0:0xda0e6dacc88afbdc"
"mall";"Pusat Perbelanjaan";"UD. Riana Tani";"8X64+Q5G, Jl. Kutacane-Tigabinanga, Lawe Deski Sabas, Kec. Lawe Sigala-Gala, Kabupaten Aceh Tenggara, Aceh 24673";"Jl. Kutacane-Tigabinanga, Lawe Deski Sabas, Kec. Lawe Sigala-Gala, Kabupaten Aceh Tenggara";"ACEH";"24673";"Indonesia";"";"3.3119419";"97.9554459";"https://maps.google.com/?cid=0x0:0x583479b2b4feb2cf"
"mall";"mall";"UD. Riana baru";"Jl. Kutacane-Tigabinanga Jl. Kutacane, Lawe Deski Sabas, Kec. Babul Makmur, Kabupaten Aceh Tenggara, Aceh 24673";"Lawe Deski Sabas, Kec. Babul Makmur, Kabupaten Aceh Tenggara";"ACEH";"24673";"Indonesia";"";"3.3118415";"97.9554428";"https://maps.google.com/?cid=0x0:0x7b3956d21de029f0"
"mall";"Sekolah Menengah Pertama";"SMA Negeri 1 Lawe Sigala-gala";"9W2C+7WP, Lawe Pekhidinan, Kec. Lawe Sigala-Gala, Kabupaten Aceh Tenggara, Aceh 24673";"Lawe Pekhidinan, Kec. Lawe Sigala-Gala, Kabupaten Aceh Tenggara";"ACEH";"24673";"Indonesia";"";"3.350721";"97.9223284";"https://maps.google.com/?cid=0x0:0x2966c7750a4fdac2"
"mall";"Toko Pertanian";"UD.MARTIN TANI";"8X64+J4J, Lawe Deski Sabas, Kec. Babul Makmur, Kabupaten Aceh Tenggara, Aceh 24673";"Lawe Deski Sabas, Kec. Babul Makmur, Kabupaten Aceh Tenggara";"ACEH";"24673";"Indonesia";" 085270086551";"3.311586";"97.955271";"https://maps.google.com/?cid=0x0:0x8fec83c6a94b67b0"
"mall";"Pusat Perbelanjaan";"UD Timbul Ganda";"8X27+53P, Lawe Perbunga, Kec. Babul Makmur, Kabupaten Aceh Tenggara, Aceh 24673";"Lawe Perbunga, Kec. Babul Makmur, Kabupaten Aceh Tenggara";"ACEH";"24673";"Indonesia";"";"3.3004674";"97.9627182";"https://maps.google.com/?cid=0x0:0xa0a4108f9a3569fc"
"mall";"Sekolah Dasar";"Pekan Simpang Semadam";"CV2X+7GH, Simpang Semadam, Kec. Semadam, Kabupaten Aceh Tenggara, Aceh 24671";"Simpang Semadam, Kec. Semadam, Kabupaten Aceh Tenggara";"ACEH";"24671";"Indonesia";"";"3.4006769";"97.898859";"https://maps.google.com/?cid=0x0:0x9e08799fdfb29e0b"
"mall";"Binatu";"Laudry Station";"54R9+J32, JL. Medan - Banda Aceh, Cunda, Panggoi, Lhokseumawe, Kota Lhokseumawe, Aceh 24355";"JL. Medan - Banda Aceh, Cunda, Panggoi, Lhokseumawe, Kota Lhokseumawe";"ACEH";"24355";"Indonesia";" 085297334902";"5.1915241";"97.1176489";"https://maps.google.com/?cid=0x0:0x8caddbdc45616adb"
"mall";"Layanan Binatu";"Laudry شرْعِ";"35VV+W35 Sp Galon Bayu. Gampong, Jl. Medan Banda Aceh, Trieng Meudurou, Kec. Syamtalira Bayu, Kabupaten Aceh Utara, Aceh 24374";"Jl. Medan Banda Aceh, Trieng Meudurou, Kec. Syamtalira Bayu, Kabupaten Aceh Utara";"ACEH";"24374";"Indonesia";" 085244445058";"5.0947579";"97.1927234";"https://maps.google.com/?cid=0x0:0xaf47027fcaea89fd"
"mall";"mall";"Kec. Lawe Sumur";"Kabupaten Aceh Tenggara, Aceh";"Kabupaten Aceh Tenggara, Aceh";"ACEH";"";"Indonesia";"";"3.4606887";"97.8511479";"https://maps.google.com/?cid=0x0:0x21a5722196a98f1"
"mall";"Minimarket";"Indomaret Lawe Alas";"CRMG+2QW, keran, Cingkam Meranggun, Kec. Lawe Alas, Kabupaten Aceh Tenggara, Aceh 24651";"keran, Cingkam Meranggun, Kec. Lawe Alas, Kabupaten Aceh Tenggara";"ACEH";"24651";"Indonesia";"";"3.4326809";"97.8258162";"https://maps.google.com/?cid=0x0:0x720abd77acb69aa2"
"mall";"Toko Perlengkapan Rumah";"Toko Joshua Toy's";"Jl. Pajak Pagi No. 15 - 16, Desa, Lawe Rutung, Kec. Lawe Bulan, Kabupaten Aceh Tenggara, Aceh 24651";"Desa, Lawe Rutung, Kec. Lawe Bulan, Kabupaten Aceh Tenggara";"ACEH";"24651";"Indonesia";" 082274140293";"3.4853728";"97.815059";"https://maps.google.com/?cid=0x0:0x6f36261074d5ae9c"
"mall";"Pusat Perbelanjaan";"Pajak Pagi";"FRP8+48H, Lawe Khutung, Kec. Lawe Bulan, Kabupaten Aceh Tenggara, Aceh 24651";"Lawe Khutung, Kec. Lawe Bulan, Kabupaten Aceh Tenggara";"ACEH";"24651";"Indonesia";"";"3.4853154";"97.8158611";"https://maps.google.com/?cid=0x0:0x8449529d417be134"
"mall";"Toko Bunga";"Azzam Florist";"FRR9+JJC, Telaga Mekar, Kec. Lawe Bulan, Kabupaten Aceh Tenggara, Aceh 24651";"Telaga Mekar, Kec. Lawe Bulan, Kabupaten Aceh Tenggara";"ACEH";"24651";"Indonesia";" 082363046868";"3.4915565";"97.8190103";"https://maps.google.com/?cid=0x0:0x5c42e23ba072b443"
"mall";"Pusat Perbelanjaan";"SYAKIRA TRATAK";"FRR9+PCV, Telaga Mekar, Kec. Lawe Bulan, Kabupaten Aceh Tenggara, Aceh 24651";"Telaga Mekar, Kec. Lawe Bulan, Kabupaten Aceh Tenggara";"ACEH";"24651";"Indonesia";" 081264100036";"3.4918596";"97.8185622";"https://maps.google.com/?cid=0x0:0xc64a9b0270e7ab85"
"mall";"Toko";"Tuti Olshop";"Kute Seri, Kec. Bambel, Kabupaten Aceh Tenggara, Aceh 24672";"Kec. Bambel, Kabupaten Aceh Tenggara";"ACEH";"24672";"Indonesia";" 081262054117";"3.4455491";"97.8456035";"https://maps.google.com/?cid=0x0:0x25d35cd3697405ce"
"mall";"Toko bahan makanan";"UD. SAFARY";"FR47+H89, Desa, Kuta Batu II, Kec. Lawe Alas, Kabupaten Aceh Tenggara, Aceh 24651";"Desa, Kuta Batu II, Kec. Lawe Alas, Kabupaten Aceh Tenggara";"ACEH";"24651";"Indonesia";" 085276967914";"3.4564057";"97.8133657";"https://maps.google.com/?cid=0x0:0x171483bc21aac9aa"
"mall";"Pusat Perbelanjaan";"UD HARIS";"CRWM+FH7, Biak Muli Baru, Kec. Bambel, Kabupaten Aceh Tenggara, Aceh 24651";"Biak Muli Baru, Kec. Bambel, Kabupaten Aceh Tenggara";"ACEH";"24651";"Indonesia";" 085270407476";"3.4461739";"97.83391";"https://maps.google.com/?cid=0x0:0xbf424d305d45653f"
"mall";"Pusat Perbelanjaan";"Indomaret Simpang Empat";"FRMC+VQW, Simpang Empat, Kec. Lawe Bulan, Kabupaten Aceh Tenggara, Aceh 24651";"Simpang Empat, Kec. Lawe Bulan, Kabupaten Aceh Tenggara";"ACEH";"24651";"Indonesia";"";"3.4847308";"97.8219614";"https://maps.google.com/?cid=0x0:0x63f341e3a705d116"
"mall";"mall";"Luzi parfum";"FRH8+4QF, Jl. Kutacane-Tigabinanga, Perapat Titi Panjang, Kec. Babussalam, Kabupaten Aceh Tenggara, Aceh";"Kabupaten Aceh Tenggara, Aceh";"ACEH";"";"Indonesia";" 08993899238";"3.4778019";"97.8169211";"https://maps.google.com/?cid=0x0:0xe2ef8196e0a9e0c2"
"mall";"Pusat Perbelanjaan";"Ferizal";"FRP8+48H UD hanifa, Jalan masuk pajak pagi, Lawe Rutung, Kec. Lawe Bulan, Kabupaten Aceh Tenggara, Aceh 24651";"Jalan masuk pajak pagi, Lawe Rutung, Kec. Lawe Bulan, Kabupaten Aceh Tenggara";"ACEH";"24651";"Indonesia";"";"3.4853154";"97.8158611";"https://maps.google.com/?cid=0x0:0xbbe786f77b5966e0"
"mall";"mall";"Kec. Lauser";"Kabupaten Aceh Tenggara, Aceh";"Kabupaten Aceh Tenggara, Aceh";"ACEH";"";"Indonesia";"";"3.2262868";"97.9151378";"https://maps.google.com/?cid=0x0:0x3cb4ab8d5843e495"
"mall";"Layanan Transportasi";"Terminal Lawe Pakam";"7XPJ+J96, Pintu Alas, Kec. Babul Makmur, Kabupaten Aceh Tenggara, Aceh 24673";"Pintu Alas, Kec. Babul Makmur, Kabupaten Aceh Tenggara";"ACEH";"24673";"Indonesia";"";"3.2865401";"97.9808821";"https://maps.google.com/?cid=0x0:0xa926572c9f6e52e2"
"mall";"Komplek perumahan";"Maju jaya";"Bukit Bintang Indah, Kec. Lauser, Kabupaten Aceh Tenggara, Aceh";"Kabupaten Aceh Tenggara, Aceh";"ACEH";"";"Indonesia";" 081269947867";"3.1994682";"97.9157503";"https://maps.google.com/?cid=0x0:0x5eb3a8984861d2ea"
"mall";"Pusat Perbelanjaan";"UD Timbul Ganda";"8X27+53P, Lawe Perbunga, Kec. Babul Makmur, Kabupaten Aceh Tenggara, Aceh 24673";"Lawe Perbunga, Kec. Babul Makmur, Kabupaten Aceh Tenggara";"ACEH";"24673";"Indonesia";"";"3.3004674";"97.9627182";"https://maps.google.com/?cid=0x0:0xa0a4108f9a3569fc"
"mall";"Pusat Perbelanjaan";"Mall Taman Palem";"Jl. Kamal Raya Outer Ring Road, Cengkareng Tim., Kecamatan Cengkareng, Kota Jakarta Barat, Daerah Khusus Ibukota Jakarta 11730";"Cengkareng Tim., Kecamatan Cengkareng, Kota Jakarta Barat";"ACEH";"11730";"Indonesia";"";"-6.1394461";"106.7308668";"https://maps.google.com/?cid=0x0:0xb4b487d720269809"
"mall";"Pusat Perbelanjaan";"Plaza Aceh";"Jl. T. Hasan Dek Jl. Teuku Iskandar No.49, Beurawe, Kec. Kuta Alam, Kota Banda Aceh, Aceh 23127";"Beurawe, Kec. Kuta Alam, Kota Banda Aceh";"ACEH";"23127";"Indonesia";" 08116899890";"5.5547881";"95.3308683";"https://maps.google.com/?cid=0x0:0x45c9eb2ec9e62a76"
"mall";"Petugas Perbatasan";"Toko Ilham Perbatasan";"7XPJ+FC9, Jl. Kutacane-Tigabinanga, Pintu Alas, Kec. Babul Makmur, Kabupaten Aceh Tenggara, Aceh 24673";"Jl. Kutacane-Tigabinanga, Pintu Alas, Kec. Babul Makmur, Kabupaten Aceh Tenggara";"ACEH";"24673";"Indonesia";" 082221202702";"3.2861727";"97.9811004";"https://maps.google.com/?cid=0x0:0xf1ca4f765fca04c7"
"mall";"Taman";"Tribeca Jakarta @Central Park Mall";"Letjen S. Parman No.Kav. 21, RT.12/RW.6, Tj. Duren Sel., Kec. Grogol petamburan, Kota Jakarta Barat, Daerah Khusus Ibukota Jakarta 11470";"RT.12/RW.6, Tj. Duren Sel., Kec. Grogol petamburan, Kota Jakarta Barat";"ACEH";"11470";"Indonesia";"";"-6.177069";"106.7899991";"https://maps.google.com/?cid=0x0:0xfc9968cde33a5cb9"
"mall";"Pusat Perbelanjaan";"Mall Of Indonesia";"Jl. Boulevard Bar. Raya No.12, RT.18/RW.19, Klp. Gading Bar., Kec. Klp. Gading, Jkt Utara, Daerah Khusus Ibukota Jakarta 14240";"RT.18/RW.19, Klp. Gading Bar., Kec. Klp. Gading, Jkt Utara";"ACEH";"14240";"Indonesia";" 02145867888";"-6.1514549";"106.8918949";"https://maps.google.com/?cid=0x0:0x3431c7aaadd1f1b6"
"mall";"Area Mendaki";"Taman Nasional Gunung Leuser";"GF97+P97 Barisan mountain range, Aceh 24653";"Aceh";"ACEH";"";"Indonesia";"";"3.5192923";"97.4634372";"https://maps.google.com/?cid=0x0:0x3f1b67119f4d54b2"
"mall";"Pusat Perbelanjaan";"Central Park";"Jl. Letjen S. Parman No.Kav. 28, Tj. Duren Sel., Kec. Grogol petamburan, Kota Jakarta Barat, Daerah Khusus Ibukota Jakarta 11470";"Tj. Duren Sel., Kec. Grogol petamburan, Kota Jakarta Barat";"ACEH";"11470";"Indonesia";" 02156989999";"-6.1771373";"106.7909788";"https://maps.google.com/?cid=0x0:0xe816d65037c3207a"
"mall";"Pusat Perbelanjaan";"Mall Artha Gading Jakarta";"Jl. Artha Gading Sel. No.1, Klp. Gading Bar., Kec. Klp. Gading, Jkt Utara, Daerah Khusus Ibukota Jakarta 14240";"Klp. Gading Bar., Kec. Klp. Gading, Jkt Utara";"ACEH";"14240";"Indonesia";" 02145864000";"-6.1457739";"106.8919187";"https://maps.google.com/?cid=0x0:0x176166b3d087c724"
"mall";"Pusat Perbelanjaan";"Lippo Mall Puri";"Jl. Puri Indah Raya Blok U 1, RT.3/RW.2, Kembangan Sel., Kec. Kembangan, Kota Jakarta Barat, Daerah Khusus Ibukota Jakarta 11610";"RT.3/RW.2, Kembangan Sel., Kec. Kembangan, Kota Jakarta Barat";"ACEH";"11610";"Indonesia";" 02129111111";"-6.1884554";"106.7389094";"https://maps.google.com/?cid=0x0:0x41cca4768f8bf65b"
"mall";"Gedung Apartemen";"NEO SOHO Mall";"Jl. Letjen S. Parman No.28, RT.3/RW.5, Tj. Duren Sel., Kec. Grogol petamburan, Kota Jakarta Barat, Daerah Khusus Ibukota Jakarta 11470";"RT.3/RW.5, Tj. Duren Sel., Kec. Grogol petamburan, Kota Jakarta Barat";"ACEH";"11470";"Indonesia";"";"-6.174963";"106.7900134";"https://maps.google.com/?cid=0x0:0x2c4c67f4d94e8e65"
"mall";"mall";"Aceh 24678";"Kabupaten Aceh Tenggara, Aceh";"Kabupaten Aceh Tenggara, Aceh";"ACEH";"";"Indonesia";"";"3.3820045";"97.9211555";"https://maps.google.com/?cid=0x0:0x8613dd45575158fa"
"mall";"Pusat Perbelanjaan";"Indomaret Simpang Semadam";"9WX2+R29, Jl. Kutacane, Lawe Mejile, Kec. Lawe Sigala-Gala, Kabupaten Aceh Tenggara, Aceh 24671";"Jl. Kutacane, Lawe Mejile, Kec. Lawe Sigala-Gala, Kabupaten Aceh Tenggara";"ACEH";"24671";"Indonesia";" 082299020894";"3.3995261";"97.9001084";"https://maps.google.com/?cid=0x0:0xacddaaf4438416d6"
"mall";"Sekolah Dasar";"Pekan Simpang Semadam";"CV2X+7GH, Simpang Semadam, Kec. Semadam, Kabupaten Aceh Tenggara, Aceh 24671";"Simpang Semadam, Kec. Semadam, Kabupaten Aceh Tenggara";"ACEH";"24671";"Indonesia";"";"3.4006769";"97.898859";"https://maps.google.com/?cid=0x0:0x9e08799fdfb29e0b"
"mall";"Toko Perlengkapan Rumah";"Toko Kelontong Widya";"CV2X+HPH, Jl. Kutacane-Tigabinanga, Simpang Semadam, Kec. Semadam, Kabupaten Aceh Tenggara, Aceh 24671";"Jl. Kutacane-Tigabinanga, Simpang Semadam, Kec. Semadam, Kabupaten Aceh Tenggara";"ACEH";"24671";"Indonesia";" 082161098252";"3.4014406";"97.8993652";"https://maps.google.com/?cid=0x0:0x3588d1d15340ae7b"
"mall";"Pusat Perbelanjaan";"Pekan Lawe Sigala-gala";"9W39+4VW, Jl. Kutacane-Tigabinanga, Lawe Sigala Tim., Kec. Lawe Sigala-Gala, Kabupaten Aceh Tenggara, Aceh 24673";"Jl. Kutacane-Tigabinanga, Lawe Sigala Tim., Kec. Lawe Sigala-Gala, Kabupaten Aceh Tenggara";"ACEH";"24673";"Indonesia";"";"3.3528701";"97.9196959";"https://maps.google.com/?cid=0x0:0x9ea4caa2d2a7ee70"
"mall";"Pusat Perbelanjaan";"Pasar Tradisional Lawe Sigala-gala";"9W39+2RF, Lawe Sigala Bar., Kec. Lawe Sigala-Gala, Kabupaten Aceh Tenggara, Aceh 24673";"Lawe Sigala Bar., Kec. Lawe Sigala-Gala, Kabupaten Aceh Tenggara";"ACEH";"24673";"Indonesia";"";"3.3525725";"97.9195349";"https://maps.google.com/?cid=0x0:0xee37e502b4713f77"
"mall";"mall";"Aceh 24661";"Kabupaten Aceh Tenggara, Aceh";"Kabupaten Aceh Tenggara, Aceh";"ACEH";"";"Indonesia";"";"3.3088666";"97.6982272";"https://maps.google.com/?cid=0x0:0x3c66f885072251c8"
"mall";"Minimarket";"Indomaret Lawe Alas";"CRMG+2QW, keran, Cingkam Meranggun, Kec. Lawe Alas, Kabupaten Aceh Tenggara, Aceh 24651";"keran, Cingkam Meranggun, Kec. Lawe Alas, Kabupaten Aceh Tenggara";"ACEH";"24651";"Indonesia";"";"3.4326809";"97.8258162";"https://maps.google.com/?cid=0x0:0x720abd77acb69aa2"
"mall";"Layanan Transportasi";"Terminal Lawe Pakam";"7XPJ+J96, Pintu Alas, Kec. Babul Makmur, Kabupaten Aceh Tenggara, Aceh 24673";"Pintu Alas, Kec. Babul Makmur, Kabupaten Aceh Tenggara";"ACEH";"24673";"Indonesia";"";"3.2865401";"97.9808821";"https://maps.google.com/?cid=0x0:0xa926572c9f6e52e2"
"mall";"Pusat Perbelanjaan";"UD. AMEK WALI";"9RGW+F44, Rambah Sayang, Tanoh Alas, Kabupaten Aceh Tenggara, Aceh 24671";"Rambah Sayang, Tanoh Alas, Kabupaten Aceh Tenggara";"ACEH";"24671";"Indonesia";" 082266933717";"3.3761567";"97.8453702";"https://maps.google.com/?cid=0x0:0x12b783d399df7f1d"
"mall";"Pusat Perbelanjaan";"Pekan Lawe Sigala-gala";"9W39+4VW, Jl. Kutacane-Tigabinanga, Lawe Sigala Tim., Kec. Lawe Sigala-Gala, Kabupaten Aceh Tenggara, Aceh 24673";"Jl. Kutacane-Tigabinanga, Lawe Sigala Tim., Kec. Lawe Sigala-Gala, Kabupaten Aceh Tenggara";"ACEH";"24673";"Indonesia";"";"3.3528701";"97.9196959";"https://maps.google.com/?cid=0x0:0x9ea4caa2d2a7ee70"
"mall";"Toko bahan makanan";"UD. SAFARY";"FR47+H89, Desa, Kuta Batu II, Kec. Lawe Alas, Kabupaten Aceh Tenggara, Aceh 24651";"Desa, Kuta Batu II, Kec. Lawe Alas, Kabupaten Aceh Tenggara";"ACEH";"24651";"Indonesia";" 085276967914";"3.4564057";"97.8133657";"https://maps.google.com/?cid=0x0:0x171483bc21aac9aa"
"mall";"Komplek perumahan";"Maju jaya";"Bukit Bintang Indah, Kec. Lauser, Kabupaten Aceh Tenggara, Aceh";"Kabupaten Aceh Tenggara, Aceh";"ACEH";"";"Indonesia";" 081269947867";"3.1994682";"97.9157503";"https://maps.google.com/?cid=0x0:0x5eb3a8984861d2ea"
"mall";"Pusat Perbelanjaan";"Ud. Naila";"GR4C+R48, Muhajirin, Kec. Deleng Pokhkisen, Kabupaten Aceh Tenggara, Aceh 24651";"Muhajirin, Kec. Deleng Pokhkisen, Kabupaten Aceh Tenggara";"ACEH";"24651";"Indonesia";" 085373101037";"3.5070435";"97.820341";"https://maps.google.com/?cid=0x0:0x3e983a9fa0142fe8"
"mall";"Toko";"Ud Kawan Setia";"Pasir Bangun, Kec. Lawe Alas, Kabupaten Aceh Tenggara, Aceh 24651";"Kec. Lawe Alas, Kabupaten Aceh Tenggara";"ACEH";"24651";"Indonesia";" 085260024489";"3.4258367";"97.8347556";"https://maps.google.com/?cid=0x0:0xa7f6945cd71f0468"
"mall";"Toko Bunga";"Azzam Florist";"FRR9+JJC, Telaga Mekar, Kec. Lawe Bulan, Kabupaten Aceh Tenggara, Aceh 24651";"Telaga Mekar, Kec. Lawe Bulan, Kabupaten Aceh Tenggara";"ACEH";"24651";"Indonesia";" 082363046868";"3.4915565";"97.8190103";"https://maps.google.com/?cid=0x0:0x5c42e23ba072b443"
"mall";"Bengkel Mobil";"Bengkel Kampung";"CRRG+28X, RT.Kutacane/RW.Ngkeran, Kuta Cingkam I, Lawe Alas, Southeast Aceh, Aceh 24651";"RT.Kutacane/RW.Ngkeran, Kuta Cingkam I, Lawe Alas, Southeast Aceh";"ACEH";"24651";"Indonesia";"";"3.4401101";"97.8258666";"https://maps.google.com/?cid=0x0:0x16b85cda214862cb"
"mall";"Pusat Perbelanjaan";"Indomaret Simpang Semadam";"9WX2+R29, Jl. Kutacane, Lawe Mejile, Kec. Lawe Sigala-Gala, Kabupaten Aceh Tenggara, Aceh 24671";"Jl. Kutacane, Lawe Mejile, Kec. Lawe Sigala-Gala, Kabupaten Aceh Tenggara";"ACEH";"24671";"Indonesia";" 082299020894";"3.3995261";"97.9001084";"https://maps.google.com/?cid=0x0:0xacddaaf4438416d6"
"mall";"Toko Perlengkapan Rumah";"Toko Joshua Toy's";"Jl. Pajak Pagi No. 15 - 16, Desa, Lawe Rutung, Kec. Lawe Bulan, Kabupaten Aceh Tenggara, Aceh 24651";"Desa, Lawe Rutung, Kec. Lawe Bulan, Kabupaten Aceh Tenggara";"ACEH";"24651";"Indonesia";" 082274140293";"3.4853728";"97.815059";"https://maps.google.com/?cid=0x0:0x6f36261074d5ae9c"
"mall";"Balai masyarakat";"Onan Lawe Desky";"8X64+G26, Lawe Deski Sabas, Kec. Babul Makmur, Kabupaten Aceh Tenggara, Aceh 24673";"Lawe Deski Sabas, Kec. Babul Makmur, Kabupaten Aceh Tenggara";"ACEH";"24673";"Indonesia";" 085310916741";"3.3112851";"97.9550153";"https://maps.google.com/?cid=0x0:0x6e40755d35b968c3"
"mall";"mall";"Aceh 24673";"Kabupaten Aceh Tenggara, Aceh";"Kabupaten Aceh Tenggara, Aceh";"ACEH";"";"Indonesia";"";"3.0291759";"97.8286368";"https://maps.google.com/?cid=0x0:0x9e7ae9b803d7455"
"mall";"Layanan Transportasi";"Terminal Lawe Pakam";"7XPJ+J96, Pintu Alas, Kec. Babul Makmur, Kabupaten Aceh Tenggara, Aceh 24673";"Pintu Alas, Kec. Babul Makmur, Kabupaten Aceh Tenggara";"ACEH";"24673";"Indonesia";"";"3.2865401";"97.9808821";"https://maps.google.com/?cid=0x0:0xa926572c9f6e52e2"
"mall";"Balai masyarakat";"Onan Lawe Desky";"8X64+G26, Lawe Deski Sabas, Kec. Babul Makmur, Kabupaten Aceh Tenggara, Aceh 24673";"Lawe Deski Sabas, Kec. Babul Makmur, Kabupaten Aceh Tenggara";"ACEH";"24673";"Indonesia";" 085310916741";"3.3112851";"97.9550153";"https://maps.google.com/?cid=0x0:0x6e40755d35b968c3"
"mall";"Petugas Perbatasan";"Toko Ilham Perbatasan";"7XPJ+FC9, Jl. Kutacane-Tigabinanga, Pintu Alas, Kec. Babul Makmur, Kabupaten Aceh Tenggara, Aceh 24673";"Jl. Kutacane-Tigabinanga, Pintu Alas, Kec. Babul Makmur, Kabupaten Aceh Tenggara";"ACEH";"24673";"Indonesia";" 082221202702";"3.2861727";"97.9811004";"https://maps.google.com/?cid=0x0:0xf1ca4f765fca04c7"
"mall";"Pusat Perbelanjaan";"Asqi Collection366";"8X73+Q86, Jl. Kutacane, Deski Jaya, Kec. Lawe Sigala-Gala, Kabupaten Aceh Tenggara, Aceh 24673";"Jl. Kutacane, Deski Jaya, Kec. Lawe Sigala-Gala, Kabupaten Aceh Tenggara";"ACEH";"24673";"Indonesia";" 085358484844";"3.3144147";"97.953255";"https://maps.google.com/?cid=0x0:0x4be097807a6c072e"
"mall";"Pusat Perbelanjaan";"UD Timbul Ganda";"8X27+53P, Lawe Perbunga, Kec. Babul Makmur, Kabupaten Aceh Tenggara, Aceh 24673";"Lawe Perbunga, Kec. Babul Makmur, Kabupaten Aceh Tenggara";"ACEH";"24673";"Indonesia";"";"3.3004674";"97.9627182";"https://maps.google.com/?cid=0x0:0xa0a4108f9a3569fc"
"mall";"Minimarket";"Indomaret Lawe Alas";"CRMG+2QW, keran, Cingkam Meranggun, Kec. Lawe Alas, Kabupaten Aceh Tenggara, Aceh 24651";"keran, Cingkam Meranggun, Kec. Lawe Alas, Kabupaten Aceh Tenggara";"ACEH";"24651";"Indonesia";"";"3.4326809";"97.8258162";"https://maps.google.com/?cid=0x0:0x720abd77acb69aa2"
"mall";"Toko Pertanian";"UD.MARTIN TANI";"8X64+J4J, Lawe Deski Sabas, Kec. Babul Makmur, Kabupaten Aceh Tenggara, Aceh 24673";"Lawe Deski Sabas, Kec. Babul Makmur, Kabupaten Aceh Tenggara";"ACEH";"24673";"Indonesia";" 085270086551";"3.311586";"97.955271";"https://maps.google.com/?cid=0x0:0x8fec83c6a94b67b0"
"mall";"mall";"UD. Riana baru";"Jl. Kutacane-Tigabinanga Jl. Kutacane, Lawe Deski Sabas, Kec. Babul Makmur, Kabupaten Aceh Tenggara, Aceh 24673";"Lawe Deski Sabas, Kec. Babul Makmur, Kabupaten Aceh Tenggara";"ACEH";"24673";"Indonesia";"";"3.3118415";"97.9554428";"https://maps.google.com/?cid=0x0:0x7b3956d21de029f0"
"mall";"Minimarket";"Toko Iqbal";"Jl. Kutacane-Tigabinanga, Lawe Loning Aman, Kec. Lawe Sigala-Gala, Kabupaten Aceh Tenggara, Aceh 24673";"Lawe Loning Aman, Kec. Lawe Sigala-Gala, Kabupaten Aceh Tenggara";"ACEH";"24673";"Indonesia";" 082164852332";"3.3281156";"97.9441111";"https://maps.google.com/?cid=0x0:0xfd016c702cc34e01"
"mall";"Pusat Perbelanjaan";"Pasar Tradisional Lawe Sigala-gala";"9W39+2RF, Lawe Sigala Bar., Kec. Lawe Sigala-Gala, Kabupaten Aceh Tenggara, Aceh 24673";"Lawe Sigala Bar., Kec. Lawe Sigala-Gala, Kabupaten Aceh Tenggara";"ACEH";"24673";"Indonesia";"";"3.3525725";"97.9195349";"https://maps.google.com/?cid=0x0:0xee37e502b4713f77"
"mall";"Pusat Perbelanjaan";"UD. NAPIT MUDA";"8X64+8F4, Jl. Kutacane-Tigabinanga, Lawe Deski Sabas, Kec. Lawe Sigala-Gala, Kabupaten Aceh Tenggara, Aceh 24673";"Jl. Kutacane-Tigabinanga, Lawe Deski Sabas, Kec. Lawe Sigala-Gala, Kabupaten Aceh Tenggara";"ACEH";"24673";"Indonesia";" 081269399664";"3.3107669";"97.9562154";"https://maps.google.com/?cid=0x0:0xa9e863cd71507b48"
"mall";"Toko bahan makanan";"Marpaung Plastik Kutacane";"Kampung Baru, Lawe Perbunga, Kec. Babul Makmur, Kabupaten Aceh Tenggara, Aceh 24673";"Lawe Perbunga, Kec. Babul Makmur, Kabupaten Aceh Tenggara";"ACEH";"24673";"Indonesia";" 085310916741";"3.3001727";"97.9612747";"https://maps.google.com/?cid=0x0:0xd6997081c31e3e0c"
"mall";"Pusat Perbelanjaan";"Indomaret Simpang Semadam";"9WX2+R29, Jl. Kutacane, Lawe Mejile, Kec. Lawe Sigala-Gala, Kabupaten Aceh Tenggara, Aceh 24671";"Jl. Kutacane, Lawe Mejile, Kec. Lawe Sigala-Gala, Kabupaten Aceh Tenggara";"ACEH";"24671";"Indonesia";" 082299020894";"3.3995261";"97.9001084";"https://maps.google.com/?cid=0x0:0xacddaaf4438416d6"
"supermarket";"supermarket";"Kec. Babul Makmur";"Kabupaten Aceh Tenggara, Aceh";"Kabupaten Aceh Tenggara, Aceh";"ACEH";"";"Indonesia";"";"3.2886858";"97.9785032";"https://maps.google.com/?cid=0x0:0xa32290e982898875"
"supermarket";"Toko umum";"Intan Swalayan";"8X64+8FH, Lawe Deski Sabas, Kec. Babul Makmur, Kabupaten Aceh Tenggara, Aceh 24673";"Lawe Deski Sabas, Kec. Babul Makmur, Kabupaten Aceh Tenggara";"ACEH";"24673";"Indonesia";"";"3.3108075";"97.9562366";"https://maps.google.com/?cid=0x0:0x768e7236d115617"
"supermarket";"Minimarket";"Indo Mart";"8X92+M3X, Sabilussalam, Kec. Babul Makmur, Kabupaten Aceh Tenggara, Aceh 24673";"Sabilussalam, Kec. Babul Makmur, Kabupaten Aceh Tenggara";"ACEH";"24673";"Indonesia";"";"3.3192467";"97.9502352";"https://maps.google.com/?cid=0x0:0x237fcdf23c385ad8"
"supermarket";"Toko umum";"Toko Bahan Kue  Aneka Plastik - SONAKMALELA";"8X64+J6Q Sabas, Lawe Deski Sabas, Kec. Babul Makmur, Kabupaten Aceh Tenggara, Aceh 24673";"Lawe Deski Sabas, Kec. Babul Makmur, Kabupaten Aceh Tenggara";"ACEH";"24673";"Indonesia";" 085310916741";"3.3115543";"97.9557031";"https://maps.google.com/?cid=0x0:0xf38845835b98dbe9"
"supermarket";"Toko Pertanian";"Ud.Penyubur Tani";"7XX7+3Q8, Jalan Kutacane-Tigabinanga, Desa Cinta Makmur, Simpang Silangit, Babul Makmur, Lawe Perbunga, Kec. Babul Makmur, Kabupaten Aceh Tenggara, Aceh 24673";"Jalan Kutacane-Tigabinanga, Desa Cinta Makmur, Simpang Silangit, Babul Makmur, Lawe Perbunga, Kec. Babul Makmur, Kabupaten Aceh Tenggara";"ACEH";"24673";"Indonesia";" 082160034382";"3.297666";"97.9644558";"https://maps.google.com/?cid=0x0:0x64a8d0cfd3063b20"
"supermarket";"Toko";"Toko Putra Bukit";"Simpang Silangit, Jalan Kutacane-Tigabinanga Desa Cinta Makmur, Lawe Perbunga, Kec. Babul Makmur, Kabupaten Aceh Tenggara, Aceh 24673";"Jalan Kutacane-Tigabinanga Desa Cinta Makmur, Lawe Perbunga, Kec. Babul Makmur, Kabupaten Aceh Tenggara";"ACEH";"24673";"Indonesia";" 082164082551";"3.2981815";"97.9644759";"https://maps.google.com/?cid=0x0:0xdbc7a21acf76306c"
"supermarket";"Toko umum";"TOKO MB";"8X64+J5C, Lawe Deski Sabas, Kec. Babul Makmur, Kabupaten Aceh Tenggara, Aceh 24673";"Lawe Deski Sabas, Kec. Babul Makmur, Kabupaten Aceh Tenggara";"ACEH";"24673";"Indonesia";"";"3.3115686";"97.9553831";"https://maps.google.com/?cid=0x0:0xf5666eb06f58dc93"
"supermarket";"Gudang";"RUMAH TAMBARA";"8X64+R4M, Lawe Deski Sabas, Kec. Babul Makmur, Kabupaten Aceh Tenggara, Aceh 24673";"Lawe Deski Sabas, Kec. Babul Makmur, Kabupaten Aceh Tenggara";"ACEH";"24673";"Indonesia";" 081362171707";"3.3120974";"97.9552906";"https://maps.google.com/?cid=0x0:0xd91b8ba67f9e4307"
"supermarket";"Toko umum";"Feby";"8X64+3M8, Lawe Deski Sabas, Kec. Babul Makmur, Kabupaten Aceh Tenggara, Aceh 24673";"Lawe Deski Sabas, Kec. Babul Makmur, Kabupaten Aceh Tenggara";"ACEH";"24673";"Indonesia";"";"3.3101902";"97.9568387";"https://maps.google.com/?cid=0x0:0xf01f095c602ea4af"
"supermarket";"Toko Bahan Bangunan";"UD. SELLA";"Lawe Deski Sabas, Kec. Babul Makmur, Kabupaten Aceh Tenggara, Aceh 24673";"Kec. Babul Makmur, Kabupaten Aceh Tenggara";"ACEH";"24673";"Indonesia";" 085297054443";"3.3148136";"97.9529359";"https://maps.google.com/?cid=0x0:0x71759b4359f9cb4a"
"supermarket";"Pusat Perbelanjaan";"Warung Habibi siregar";"7XW8+9RJ, Jl. Kutacane, Tigabinanga, Kec. Babul Makmur, Kabupaten Aceh Tenggara, Aceh 24673";"Jl. Kutacane, Tigabinanga, Kec. Babul Makmur, Kabupaten Aceh Tenggara";"ACEH";"24673";"Indonesia";" 081260591259";"3.2959662";"97.9670236";"https://maps.google.com/?cid=0x0:0x8c7ac6977f1da6a5"
"supermarket";"Toko umum";"Kedai sayur";"7XVC+8FH, Lawe Tawakh, Kec. Babul Makmur, Kabupaten Aceh Tenggara, Aceh 24673";"Lawe Tawakh, Kec. Babul Makmur, Kabupaten Aceh Tenggara";"ACEH";"24673";"Indonesia";" 082365339682";"3.2933154";"97.9712202";"https://maps.google.com/?cid=0x0:0xc5ed8ba61674040f"
"supermarket";"Toko umum";"TOKO";"7XW8+V98, Cinta Makmur, Kec. Babul Makmur, Kabupaten Aceh Tenggara, Aceh 24673";"Cinta Makmur, Kec. Babul Makmur, Kabupaten Aceh Tenggara";"ACEH";"24673";"Indonesia";"";"3.2971549";"97.9659549";"https://maps.google.com/?cid=0x0:0xc7cb2439925358ee"
"supermarket";"Sekolah";"UD. RIDHO";"Jl. Kutacane, Tanoh Alas, Kec. Babul Makmur, Kabupaten Aceh Tenggara, Aceh 24673";"Tanoh Alas, Kec. Babul Makmur, Kabupaten Aceh Tenggara";"ACEH";"24673";"Indonesia";" 083869524663";"3.2873604";"97.9789446";"https://maps.google.com/?cid=0x0:0xaf4f4e8b5a2edcfc"
"supermarket";"Toko umum";"Intan Swalayan";"8X64+8FH, Lawe Deski Sabas, Kec. Babul Makmur, Kabupaten Aceh Tenggara, Aceh 24673";"Lawe Deski Sabas, Kec. Babul Makmur, Kabupaten Aceh Tenggara";"ACEH";"24673";"Indonesia";"";"3.3108075";"97.9562366";"https://maps.google.com/?cid=0x0:0x768e7236d115617"
"supermarket";"supermarket";"Aceh 24673";"Kabupaten Aceh Tenggara, Aceh";"Kabupaten Aceh Tenggara, Aceh";"ACEH";"";"Indonesia";"";"3.0291759";"97.8286368";"https://maps.google.com/?cid=0x0:0x9e7ae9b803d7455"
"supermarket";"Minimarket";"Indo Mart";"8X92+M3X, Sabilussalam, Kec. Babul Makmur, Kabupaten Aceh Tenggara, Aceh 24673";"Sabilussalam, Kec. Babul Makmur, Kabupaten Aceh Tenggara";"ACEH";"24673";"Indonesia";"";"3.3192467";"97.9502352";"https://maps.google.com/?cid=0x0:0x237fcdf23c385ad8"
"supermarket";"Toko umum";"Toko Bahan Kue  Aneka Plastik - SONAKMALELA";"8X64+J6Q Sabas, Lawe Deski Sabas, Kec. Babul Makmur, Kabupaten Aceh Tenggara, Aceh 24673";"Lawe Deski Sabas, Kec. Babul Makmur, Kabupaten Aceh Tenggara";"ACEH";"24673";"Indonesia";" 085310916741";"3.3115543";"97.9557031";"https://maps.google.com/?cid=0x0:0xf38845835b98dbe9"
"supermarket";"Toko bahan makanan";"Toko Sejahtera";"Jalan Tapak Tuan- Subulussalam, Ladang Rimba, Kec. Trumon Tengah, Kabupaten Aceh Selatan, Aceh 23774";"Ladang Rimba, Kec. Trumon Tengah, Kabupaten Aceh Selatan";"ACEH";"23774";"Indonesia";"";"2.8944583";"97.649455";"https://maps.google.com/?cid=0x0:0x59e4b6a4b5416c39"
"supermarket";"Toko bahan makanan";"Ud. Bang Nas";"Ladang Rimba, Kec. Trumon Tengah, Kabupaten Aceh Selatan, Aceh 23774";"Kec. Trumon Tengah, Kabupaten Aceh Selatan";"ACEH";"23774";"Indonesia";" 085270998907";"2.8933592";"97.6514391";"https://maps.google.com/?cid=0x0:0xaa547b2c7e00325a"
"supermarket";"Asosiasi/organisasi";"kede wak romi";"4WCC+33C, Bunbun Alas, Kec. Lauser, Kabupaten Aceh Tenggara, Aceh 24673";"Bunbun Alas, Kec. Lauser, Kabupaten Aceh Tenggara";"ACEH";"24673";"Indonesia";"";"3.120188";"97.9201532";"https://maps.google.com/?cid=0x0:0x40f10cbf5608199f"
"supermarket";"Toko Swalayan";"Toko alfi CS";"VPG9+3QR, Jl. Tapaktuan - Subulussalam, Pinto Rimba, Kec. Trumon Tim., Kabupaten Aceh Selatan, Aceh 23774";"Jl. Tapaktuan - Subulussalam, Pinto Rimba, Kec. Trumon Tim., Kabupaten Aceh Selatan";"ACEH";"23774";"Indonesia";"";"2.8752203";"97.7194307";"https://maps.google.com/?cid=0x0:0x260dbe30cd3bbc83"
"supermarket";"Makanan Kecil";"Kedai manullang kades";"4W3W+3Q2, Sade Ate, Kec. Lauser, Kabupaten Aceh Tenggara, Aceh 24673";"Sade Ate, Kec. Lauser, Kabupaten Aceh Tenggara";"ACEH";"24673";"Indonesia";"";"3.1026441";"97.9468849";"https://maps.google.com/?cid=0x0:0x7e7dff4c4883d5f8"
"supermarket";"Toko Perlengkapan Rumah";"UD.TIGA PUTRA";"Lorong irigasi, SP4, Jambo Dalem, Kec. Trumon Tim., Kabupaten Aceh Selatan, Aceh 23447";"SP4, Jambo Dalem, Kec. Trumon Tim., Kabupaten Aceh Selatan";"ACEH";"23447";"Indonesia";" 085767244348";"2.8776985";"97.7684774";"https://maps.google.com/?cid=0x0:0xb42c8fb7c36556d0"
"supermarket";"Minimarket";"THEA MART";"62G5+V9M, Mardingding, Kec. Mardinding, Kabupaten Karo, Sumatera Utara 22165";"Mardingding, Kec. Mardinding, Kabupaten Karo";"ACEH";"22165";"Indonesia";" 082304299991";"3.2272097";"98.0084202";"https://maps.google.com/?cid=0x0:0x34d347cc6c73a9d9"
"supermarket";"Kedai Kopi";"WARKOP MEI MEI PASARIBU";"Jalan Salim Pipit Pardomuan 2, Aceh 24673";"Kabupaten Aceh Tenggara, Aceh";"ACEH";"";"Indonesia";"";"3.2950763";"97.9324083";"https://maps.google.com/?cid=0x0:0x94bdc3f86dd01d4a"
"supermarket";"Kedai Kopi";"Op.Andre Pasaribu";"7WCC+4M4, Muara Situlen, Kec. Babul Makmur, Kabupaten Aceh Tenggara, Aceh 24673";"Muara Situlen, Kec. Babul Makmur, Kabupaten Aceh Tenggara";"ACEH";"24673";"Indonesia";"";"3.2702574";"97.9217274";"https://maps.google.com/?cid=0x0:0x1900fbec2f2dfe7"
"supermarket";"Dapur Umum";"GILINGAN BAKSO ACEH";"9W2C+W4V, Lawe Sigala Tim., Kec. Lawe Sigala-Gala, Kabupaten Aceh Tenggara, Aceh 24673";"Lawe Sigala Tim., Kec. Lawe Sigala-Gala, Kabupaten Aceh Tenggara";"ACEH";"24673";"Indonesia";"";"3.3523101";"97.9203043";"https://maps.google.com/?cid=0x0:0xb136d8cc578baa67"
"supermarket";"supermarket";"Kec. Babussalam";"Kabupaten Aceh Tenggara, Aceh";"Kabupaten Aceh Tenggara, Aceh";"ACEH";"";"Indonesia";"";"3.4831986";"97.812801";"https://maps.google.com/?cid=0x0:0x585c8bae275f9877"
"supermarket";"Toko";"Indomaret Pasar Belakang";"FRM6+3QW, Kota Kutacane, Kec. Babussalam, Kabupaten Aceh Tenggara, Aceh 24651";"Kota Kutacane, Kec. Babussalam, Kabupaten Aceh Tenggara";"ACEH";"24651";"Indonesia";"";"3.4827332";"97.8119639";"https://maps.google.com/?cid=0x0:0x735c67e9aae21ffd"
"supermarket";"Toko";"ABC MARKET";"Jl. Iskandar Muda, Kutacane Lama, Kec. Babussalam, Kabupaten Aceh Tenggara, Aceh 24651";"Kutacane Lama, Kec. Babussalam, Kabupaten Aceh Tenggara";"ACEH";"24651";"Indonesia";" 082218269411";"3.4865743";"97.8116679";"https://maps.google.com/?cid=0x0:0xc3c6405a2b0ebf76"
"supermarket";"Toko";"Toko ARZIA..GROSIR Aqua";"FRCC+QG4, Jl. Iskandar Muda, Kutacane Lama, Kec. Babussalam, Kabupaten Aceh Tenggara, Aceh 24651";"Jl. Iskandar Muda, Kutacane Lama, Kec. Babussalam, Kabupaten Aceh Tenggara";"ACEH";"24651";"Indonesia";"";"3.4718906";"97.8213181";"https://maps.google.com/?cid=0x0:0xe4ffef9df9d82e15"
"supermarket";"Toko";"Toko sinar aceh kutacane";"Jln Ahmad yani no 2,di samping BRI unit nusantara,kute kotacane Barisan sop sk /lawe alas elektronik/cafe Truenoch Atau lebih pas lagi depan sabata elektronik, Kota Kutacane, Kec. Babussalam, Kabupaten Aceh Tenggara, Aceh 24651";"Kota Kutacane, Kec. Babussalam, Kabupaten Aceh Tenggara";"ACEH";"24651";"Indonesia";" 082272060648";"3.482666";"97.8128626";"https://maps.google.com/?cid=0x0:0x431fb8aa8931e178"
"supermarket";"Toko bahan makanan";"UD. Berkah mak Pini";"FRH7+V28, Perapat Hulu, Kec. Babussalam, Kabupaten Aceh Tenggara, Aceh 24651";"Perapat Hulu, Kec. Babussalam, Kabupaten Aceh Tenggara";"ACEH";"24651";"Indonesia";"";"3.4796505";"97.8125926";"https://maps.google.com/?cid=0x0:0x11b4caa6a6759b79"
"supermarket";"Toko Elektronik";"Toko Sabata Baru Elektronic";"FRM7+37V, Jl. Iskandar Muda, Kutacane Lama, Kec. Babussalam, Kabupaten Aceh Tenggara, Aceh 24651";"Jl. Iskandar Muda, Kutacane Lama, Kec. Babussalam, Kabupaten Aceh Tenggara";"ACEH";"24651";"Indonesia";" 081397375372";"3.4827391";"97.8131819";"https://maps.google.com/?cid=0x0:0x53e1a4a849894f97"
"supermarket";"Toko Swalayan";"Ruko ABC kutacane";"FRP6+MM2, Jl. Iskandar Muda, Kota Kutacane, Kec. Babussalam, Kabupaten Aceh Tenggara, Aceh 24651";"Jl. Iskandar Muda, Kota Kutacane, Kec. Babussalam, Kabupaten Aceh Tenggara";"ACEH";"24651";"Indonesia";"";"3.486648";"97.811629";"https://maps.google.com/?cid=0x0:0x118ff6086628b933"
"supermarket";"Toko Makanan";"IKAN LAUT ADI";"FRJ6+XVR, Jl. Kutacane, Pulo Latong, Kec. Babussalam, Kabupaten Aceh Tenggara, Aceh 24651";"Jl. Kutacane, Pulo Latong, Kec. Babussalam, Kabupaten Aceh Tenggara";"ACEH";"24651";"Indonesia";" 085206069989";"3.4824758";"97.8121262";"https://maps.google.com/?cid=0x0:0x1d38f09febb247c5"
"supermarket";"Toko";"Toko Jam Sidi Jalalludin";"Pulo Sanggar, Kec. Babussalam, Kabupaten Aceh Tenggara, Aceh 24651";"Kec. Babussalam, Kabupaten Aceh Tenggara";"ACEH";"24651";"Indonesia";" 085275191388";"3.4841524";"97.8123271";"https://maps.google.com/?cid=0x0:0x395708ca0de91a2d"
"supermarket";"Pasar";"Balqis collection Aceh Tenggara";"FRH7+WR9, Perapat Hulu, Kec. Babussalam, Kabupaten Aceh Tenggara, Aceh 24651";"Perapat Hulu, Kec. Babussalam, Kabupaten Aceh Tenggara";"ACEH";"24651";"Indonesia";" 081264069945";"3.4797862";"97.8146176";"https://maps.google.com/?cid=0x0:0x9d0ccc6714c87f3c"
"supermarket";"Toko umum";"UKM JILENA";"Jl. Iskandar Muda No.28, Pulo Latong, Kec. Babussalam, Kabupaten Aceh Tenggara, Aceh 24651";"Pulo Latong, Kec. Babussalam, Kabupaten Aceh Tenggara";"ACEH";"24651";"Indonesia";" 081260904571";"3.4815069";"97.8130755";"https://maps.google.com/?cid=0x0:0x603bea9a2db45fc5"
"supermarket";"Minimarket";"ALFAMART BABUSSALAM 1";"FRCC+7W7, Jl. Iskandar Muda, Kutacane Lama, Kec. Babussalam, Kabupaten Aceh Tenggara, Aceh 24651";"Jl. Iskandar Muda, Kutacane Lama, Kec. Babussalam, Kabupaten Aceh Tenggara";"ACEH";"24651";"Indonesia";"";"3.470661";"97.8222995";"https://maps.google.com/?cid=0x0:0x91925630f20da5e3"
"supermarket";"Pusat Perbelanjaan";"CBR ESTIMASI JAYA";"Jl. Manunggal Lingkungan 3 Pajak Inpres, Kota Kutacane, Kec. Babussalam, Kabupaten Aceh Tenggara, Aceh 24651";"Kota Kutacane, Kec. Babussalam, Kabupaten Aceh Tenggara";"ACEH";"24651";"Indonesia";" 081265107905";"3.4879056";"97.8118338";"https://maps.google.com/?cid=0x0:0x6805e9d7ff820caf"
"supermarket";"supermarket";"Kec. Babussalam";"Kabupaten Aceh Tenggara, Aceh";"Kabupaten Aceh Tenggara, Aceh";"ACEH";"";"Indonesia";"";"3.4831986";"97.812801";"https://maps.google.com/?cid=0x0:0x585c8bae275f9877"
"supermarket";"Toko";"ABC MARKET";"Jl. Iskandar Muda, Kutacane Lama, Kec. Babussalam, Kabupaten Aceh Tenggara, Aceh 24651";"Kutacane Lama, Kec. Babussalam, Kabupaten Aceh Tenggara";"ACEH";"24651";"Indonesia";" 082218269411";"3.4865743";"97.8116679";"https://maps.google.com/?cid=0x0:0xc3c6405a2b0ebf76"
"supermarket";"Toko";"Indomaret Pasar Belakang";"FRM6+3QW, Kota Kutacane, Kec. Babussalam, Kabupaten Aceh Tenggara, Aceh 24651";"Kota Kutacane, Kec. Babussalam, Kabupaten Aceh Tenggara";"ACEH";"24651";"Indonesia";"";"3.4827332";"97.8119639";"https://maps.google.com/?cid=0x0:0x735c67e9aae21ffd"
"supermarket";"Toko";"Toko sinar aceh kutacane";"Jln Ahmad yani no 2,di samping BRI unit nusantara,kute kotacane Barisan sop sk /lawe alas elektronik/cafe Truenoch Atau lebih pas lagi depan sabata elektronik, Kota Kutacane, Kec. Babussalam, Kabupaten Aceh Tenggara, Aceh 24651";"Kota Kutacane, Kec. Babussalam, Kabupaten Aceh Tenggara";"ACEH";"24651";"Indonesia";" 082272060648";"3.482666";"97.8128626";"https://maps.google.com/?cid=0x0:0x431fb8aa8931e178"
"supermarket";"Toko Elektronik";"Toko Sabata Baru Elektronic";"FRM7+37V, Jl. Iskandar Muda, Kutacane Lama, Kec. Babussalam, Kabupaten Aceh Tenggara, Aceh 24651";"Jl. Iskandar Muda, Kutacane Lama, Kec. Babussalam, Kabupaten Aceh Tenggara";"ACEH";"24651";"Indonesia";" 081397375372";"3.4827391";"97.8131819";"https://maps.google.com/?cid=0x0:0x53e1a4a849894f97"
"supermarket";"Minimarket";"ALFAMART BABUSSALAM 1";"FRCC+7W7, Jl. Iskandar Muda, Kutacane Lama, Kec. Babussalam, Kabupaten Aceh Tenggara, Aceh 24651";"Jl. Iskandar Muda, Kutacane Lama, Kec. Babussalam, Kabupaten Aceh Tenggara";"ACEH";"24651";"Indonesia";"";"3.470661";"97.8222995";"https://maps.google.com/?cid=0x0:0x91925630f20da5e3"
"supermarket";"Toko";"Toko ARZIA..GROSIR Aqua";"FRCC+QG4, Jl. Iskandar Muda, Kutacane Lama, Kec. Babussalam, Kabupaten Aceh Tenggara, Aceh 24651";"Jl. Iskandar Muda, Kutacane Lama, Kec. Babussalam, Kabupaten Aceh Tenggara";"ACEH";"24651";"Indonesia";"";"3.4718906";"97.8213181";"https://maps.google.com/?cid=0x0:0xe4ffef9df9d82e15"
"supermarket";"Toko bahan makanan";"UD. Berkah mak Pini";"FRH7+V28, Perapat Hulu, Kec. Babussalam, Kabupaten Aceh Tenggara, Aceh 24651";"Perapat Hulu, Kec. Babussalam, Kabupaten Aceh Tenggara";"ACEH";"24651";"Indonesia";"";"3.4796505";"97.8125926";"https://maps.google.com/?cid=0x0:0x11b4caa6a6759b79"
"supermarket";"Toko Makanan";"IKAN LAUT ADI";"FRJ6+XVR, Jl. Kutacane, Pulo Latong, Kec. Babussalam, Kabupaten Aceh Tenggara, Aceh 24651";"Jl. Kutacane, Pulo Latong, Kec. Babussalam, Kabupaten Aceh Tenggara";"ACEH";"24651";"Indonesia";" 085206069989";"3.4824758";"97.8121262";"https://maps.google.com/?cid=0x0:0x1d38f09febb247c5"
"supermarket";"Toko bahan makanan";"Darussalam Supermarket";"Jl. Utama Rukoh No.45-C, Kopelma Darussalam, Kec. Syiah Kuala, Kota Banda Aceh, Aceh 24415";"Kopelma Darussalam, Kec. Syiah Kuala, Kota Banda Aceh";"ACEH";"24415";"Indonesia";"";"5.5727133";"95.3635091";"https://maps.google.com/?cid=0x0:0x7ec192104910528b"
"supermarket";"Toko Swalayan";"Ruko ABC kutacane";"FRP6+MM2, Jl. Iskandar Muda, Kota Kutacane, Kec. Babussalam, Kabupaten Aceh Tenggara, Aceh 24651";"Jl. Iskandar Muda, Kota Kutacane, Kec. Babussalam, Kabupaten Aceh Tenggara";"ACEH";"24651";"Indonesia";"";"3.486648";"97.811629";"https://maps.google.com/?cid=0x0:0x118ff6086628b933"
"supermarket";"Toko umum";"UKM JILENA";"Jl. Iskandar Muda No.28, Pulo Latong, Kec. Babussalam, Kabupaten Aceh Tenggara, Aceh 24651";"Pulo Latong, Kec. Babussalam, Kabupaten Aceh Tenggara";"ACEH";"24651";"Indonesia";" 081260904571";"3.4815069";"97.8130755";"https://maps.google.com/?cid=0x0:0x603bea9a2db45fc5"
"supermarket";"Toko";"Toko Jam Sidi Jalalludin";"Pulo Sanggar, Kec. Babussalam, Kabupaten Aceh Tenggara, Aceh 24651";"Kec. Babussalam, Kabupaten Aceh Tenggara";"ACEH";"24651";"Indonesia";" 085275191388";"3.4841524";"97.8123271";"https://maps.google.com/?cid=0x0:0x395708ca0de91a2d"
"supermarket";"Grosir Barang Kelontong";"Louser 1";"FRP6+HWH, Unnamed Road, Kota Kutacane, Kec. Babussalam, Kabupaten Aceh Tenggara, Aceh 24651";"Unnamed Road, Kota Kutacane, Kec. Babussalam, Kabupaten Aceh Tenggara";"ACEH";"24651";"Indonesia";"";"3.486428";"97.812349";"https://maps.google.com/?cid=0x0:0x712ef122b46c9ff8"
"supermarket";"Grosir Barang Kelontong";"HASKA GROUP";"Kumbang indah, Kec. Badar, Kabupaten Aceh Tenggara, Aceh 24652";"Kec. Badar, Kabupaten Aceh Tenggara";"ACEH";"24652";"Indonesia";" 085163161974";"3.5199178";"97.7927615";"https://maps.google.com/?cid=0x0:0x8d441f4274b3cde3"
"supermarket";"Minimarket";"UD. BARONA";"GQJM+9RJ, Jl. Lintas Kutacane Blangkejeren, Kuta Pasir, Kec. Badar, Kutacane, Aceh 24562";"Jl. Lintas Kutacane Blangkejeren, Kuta Pasir, Kec. Badar, Kutacane";"ACEH";"24562";"Indonesia";"";"3.5309634";"97.7845303";"https://maps.google.com/?cid=0x0:0xadaa1c08a18336e1"
"supermarket";"supermarket";"Aceh 24652";"Kabupaten Aceh Tenggara, Aceh";"Kabupaten Aceh Tenggara, Aceh";"ACEH";"";"Indonesia";"";"3.6699926";"97.654811";"https://maps.google.com/?cid=0x0:0xf321f2dc3f3b9295"
"supermarket";"Toko";"Kedai Wak Ateng";"depan SMA N 1, Jl.Simpang, Gulo, Kec. Badar, Kabupaten Aceh Tenggara, Aceh 24666";"Jl.Simpang, Gulo, Kec. Badar, Kabupaten Aceh Tenggara";"ACEH";"24666";"Indonesia";" 085290637007";"3.5289427";"97.7840646";"https://maps.google.com/?cid=0x0:0x2e1599c64ff2f717"
"supermarket";"Toko bahan makanan";"Ud Kumbang jaya";"GQHM+3Q8, Kumbang Jaya, Kec. Badar, Kabupaten Aceh Tenggara, Aceh";"Kabupaten Aceh Tenggara, Aceh";"ACEH";"";"Indonesia";"";"3.5276664";"97.7844607";"https://maps.google.com/?cid=0x0:0x65a8339706fb359d"
"supermarket";"Toko makanan beku";"Cahaya Frozen Kutacane";"Badar Indah, Kec. Badar, Kabupaten Aceh Tenggara, Aceh 24619";"Kec. Badar, Kabupaten Aceh Tenggara";"ACEH";"24619";"Indonesia";" 085361213134";"3.5096119";"97.804909";"https://maps.google.com/?cid=0x0:0x25e138b627619eeb"
"supermarket";"Toko bahan makanan";"BSI Link Julia Erawati";"GR73+FH5, Jl. Blangkejeren - Kutacane, Deleng Megakhe, Kec. Badar, Kabupaten Aceh Tenggara, Aceh 24651";"Jl. Blangkejeren - Kutacane, Deleng Megakhe, Kec. Badar, Kabupaten Aceh Tenggara";"ACEH";"24651";"Indonesia";"";"3.5136462";"97.8039771";"https://maps.google.com/?cid=0x0:0xf82fd5fcb59d0b3c"
"supermarket";"Toko bahan makanan";"Darussalam Supermarket";"Jl. Utama Rukoh No.45-C, Kopelma Darussalam, Kec. Syiah Kuala, Kota Banda Aceh, Aceh 24415";"Kopelma Darussalam, Kec. Syiah Kuala, Kota Banda Aceh";"ACEH";"24415";"Indonesia";"";"5.5727133";"95.3635091";"https://maps.google.com/?cid=0x0:0x7ec192104910528b"
"supermarket";"supermarket";"Kasmadi";"Purwodadi, Kec. Badar, Kabupaten Aceh Tenggara, Aceh 24652";"Kec. Badar, Kabupaten Aceh Tenggara";"ACEH";"24652";"Indonesia";" 081316725392";"3.5237725";"97.7958539";"https://maps.google.com/?cid=0x0:0x9c965c144df8a7b9"
"supermarket";"Toko Swalayan";"Warung Badar";"GVXQ+WCF, Gg. Panzer, Karanggan, Kec. Gn. Putri, Kabupaten Bogor, Jawa Barat 16960";"Gg. Panzer, Karanggan, Kec. Gn. Putri, Kabupaten Bogor";"ACEH";"16960";"Indonesia";" 087885396454";"-6.4501984";"106.8885382";"https://maps.google.com/?cid=0x0:0x63ee2be841c82aba"
"supermarket";"Toko";"badar Mart";"QCVF+854, Jl. Raya Gembong Kp. Dangadeur, Dangdeur, Kec. Jayanti, Kabupaten Tangerang, Banten 15610";"Jl. Raya Gembong Kp. Dangadeur, Dangdeur, Kec. Jayanti, Kabupaten Tangerang";"ACEH";"15610";"Indonesia";"";"-6.2067438";"106.4229445";"https://maps.google.com/?cid=0x0:0xca5ec115a756fad3"
"supermarket";"supermarket";"Bambel";"Kec. Bambel, Kabupaten Aceh Tenggara, Aceh";"Kabupaten Aceh Tenggara, Aceh";"ACEH";"";"Indonesia";"";"3.4646894";"97.8265973";"https://maps.google.com/?cid=0x0:0xe8aa4ed10491dd4b"
"supermarket";"supermarket";"Kec. Bambel";"Kabupaten Aceh Tenggara, Aceh";"Kabupaten Aceh Tenggara, Aceh";"ACEH";"";"Indonesia";"";"3.4422788";"97.8643738";"https://maps.google.com/?cid=0x0:0x59e17e7fdd3262c2"
"supermarket";"Toko umum";"ABE GROSIR 2";"RC7R+QX2, Jl. Raya Parahu, Parahu, Kec. Sukamulya, Kabupaten Tangerang, Banten 15610";"Jl. Raya Parahu, Parahu, Kec. Sukamulya, Kabupaten Tangerang";"ACEH";"15610";"Indonesia";" 085333200089";"-6.1856208";"106.4424011";"https://maps.google.com/?cid=0x0:0x2eb31fcfc3554f88"
"supermarket";"supermarket";"Aceh 24671";"Kabupaten Aceh Tenggara, Aceh";"Kabupaten Aceh Tenggara, Aceh";"ACEH";"";"Indonesia";"";"3.3974891";"97.8612767";"https://maps.google.com/?cid=0x0:0x2f1eb6944610f143"
"supermarket";"Toko bahan makanan";"UD. ALIF";"CV45+4MM, Jln. Bandara Alas Leuser Desa, Mbak Sako, Kec. Bukit Tusam, Kabupaten Aceh Tenggara, Aceh 24671";"Jln. Bandara Alas Leuser Desa, Mbak Sako, Kec. Bukit Tusam, Kabupaten Aceh Tenggara";"ACEH";"24671";"Indonesia";"";"3.4053401";"97.8591655";"https://maps.google.com/?cid=0x0:0x2a0534128e72d278"
"supermarket";"Pusat Perbelanjaan";"Toko PEJE";"CVHM+WHH, Lawe Dua Gab, Kec. Bukit Tusam, Kabupaten Aceh Tenggara, Aceh 24671";"Lawe Dua Gab, Kec. Bukit Tusam, Kabupaten Aceh Tenggara";"ACEH";"24671";"Indonesia";"";"3.4298068";"97.8839715";"https://maps.google.com/?cid=0x0:0xcf48be32da7ac671"
"supermarket";"Kedai Kopi";"UD BERTO Simanjuntak";"9VPC+843, Lawe Kinga Gab, Kec. Semadam, Kabupaten Aceh Tenggara, Aceh 24671";"Lawe Kinga Gab, Kec. Semadam, Kabupaten Aceh Tenggara";"ACEH";"24671";"Indonesia";"";"3.3857624";"97.8702842";"https://maps.google.com/?cid=0x0:0x1ee67bfccfe80307"
"supermarket";"Toko bahan makanan";"Kedai Naufal / Agen BSI Link Naufal";"CVV2+R52, Jl. Kutacane-Tigabinanga, Kuta Lang Lang Baru, Kec. Bambel, Kabupaten Aceh Tenggara, Aceh 24651";"Jl. Kutacane-Tigabinanga, Kuta Lang Lang Baru, Kec. Bambel, Kabupaten Aceh Tenggara";"ACEH";"24651";"Indonesia";" 082311255769";"3.4445056";"97.8503915";"https://maps.google.com/?cid=0x0:0x476d8164c00f323e"
"supermarket";"Toko";"ABC MARKET";"Jl. Iskandar Muda, Kutacane Lama, Kec. Babussalam, Kabupaten Aceh Tenggara, Aceh 24651";"Kutacane Lama, Kec. Babussalam, Kabupaten Aceh Tenggara";"ACEH";"24651";"Indonesia";" 082218269411";"3.4865743";"97.8116679";"https://maps.google.com/?cid=0x0:0xc3c6405a2b0ebf76"
"supermarket";"Toko umum";"UD AZHAM PONSEL";"CV3V+J8R, desa, Titi Pasir, Kec. Semadam, Kabupaten Aceh Tenggara, Aceh 24671";"desa, Titi Pasir, Kec. Semadam, Kabupaten Aceh Tenggara";"ACEH";"24671";"Indonesia";" 085262841717";"3.4041015";"97.8932512";"https://maps.google.com/?cid=0x0:0xb66b81bdbd24cfb8"
"supermarket";"Toko Perlengkapan Rumah";"Toko Putri Mutiara";"CV2X+6QQ, Simpang Semadam, Kec. Semadam, Kabupaten Aceh Tenggara, Aceh 24671";"Simpang Semadam, Kec. Semadam, Kabupaten Aceh Tenggara";"ACEH";"24671";"Indonesia";"";"3.4005807";"97.8994921";"https://maps.google.com/?cid=0x0:0xebcd93d4c33d9823"
"supermarket";"Minimarket";"Indo Mart";"8X92+M3X, Sabilussalam, Kec. Babul Makmur, Kabupaten Aceh Tenggara, Aceh 24673";"Sabilussalam, Kec. Babul Makmur, Kabupaten Aceh Tenggara";"ACEH";"24673";"Indonesia";"";"3.3192467";"97.9502352";"https://maps.google.com/?cid=0x0:0x237fcdf23c385ad8"
"supermarket";"Grosir Barang Kelontong";"RUMAH MAKAN SURIATI SELIAN";"Kutacane - Ngkeran, Kuta Cingkam I, Kec. Lawe Alas, Kabupaten Aceh Tenggara, Aceh 24651";"Kuta Cingkam I, Kec. Lawe Alas, Kabupaten Aceh Tenggara";"ACEH";"24651";"Indonesia";" 081324019866";"3.4381828";"97.8258873";"https://maps.google.com/?cid=0x0:0xf89f000dfefb37e3"
"supermarket";"Toserba";"Tiara SKD";"CV2X+9PH, Simpang Semadam, Kec. Semadam, Kabupaten Aceh Tenggara, Aceh 24671";"Simpang Semadam, Kec. Semadam, Kabupaten Aceh Tenggara";"ACEH";"24671";"Indonesia";" 085210926141";"3.4009327";"97.8993694";"https://maps.google.com/?cid=0x0:0xdac40becbb027cc0"
"supermarket";"Toko umum";"Ud.faris farras";"FR2M+6Q7, Kute Antara, Kec. Bambel, Kabupaten Aceh Tenggara, Aceh 24651";"Kute Antara, Kec. Bambel, Kabupaten Aceh Tenggara";"ACEH";"24651";"Indonesia";"";"3.4505458";"97.8344157";"https://maps.google.com/?cid=0x0:0x87c53e5340ba95b0"
"supermarket";"Toko Perlengkapan Rumah";"Bulan bintang";"CVHG+5QV, Kerukunan, RT.31, kesehatan dalam";"Kabupaten Aceh Tenggara, Aceh";"ACEH";"";"Indonesia";"";"3.4279907";"97.876922";"https://maps.google.com/?cid=0x0:0x1dba35218d9b13d4"
"supermarket";"Minimarket";"Indomaret Kuning I";"CVV6+95M, Kuning I, Kec. Bambel, Kabupaten Aceh Tenggara, Aceh 24651";"Kuning I, Kec. Bambel, Kabupaten Aceh Tenggara";"ACEH";"24651";"Indonesia";"";"3.4434513";"97.8604251";"https://maps.google.com/?cid=0x0:0xce3f3c2304fb03d6"
"supermarket";"Pusat Perbelanjaan";"Toko PEJE";"CVHM+WHH, Lawe Dua Gab, Kec. Bukit Tusam, Kabupaten Aceh Tenggara, Aceh 24671";"Lawe Dua Gab, Kec. Bukit Tusam, Kabupaten Aceh Tenggara";"ACEH";"24671";"Indonesia";"";"3.4298068";"97.8839715";"https://maps.google.com/?cid=0x0:0xcf48be32da7ac671"
"supermarket";"supermarket";"Kec. Bukit Tusam";"Kabupaten Aceh Tenggara, Aceh";"Kabupaten Aceh Tenggara, Aceh";"ACEH";"";"Indonesia";"";"3.4266977";"97.8877166";"https://maps.google.com/?cid=0x0:0xf9f3969c7ad2c2c1"
"supermarket";"Toko Perlengkapan Rumah";"TOKO NAUFAL KURMA/KEDE NAUFAL";"Jl. Kutacane-Tigabinanga, Pejuang, Kec. Bukit Tusam, Kabupaten Aceh Tenggara, Aceh 24671";"Pejuang, Kec. Bukit Tusam, Kabupaten Aceh Tenggara";"ACEH";"24671";"Indonesia";" 082273700709";"3.4250369";"97.8894421";"https://maps.google.com/?cid=0x0:0x765530af4b37871"
"supermarket";"Toko bahan makanan";"UD. ALIF";"CV45+4MM, Jln. Bandara Alas Leuser Desa, Mbak Sako, Kec. Bukit Tusam, Kabupaten Aceh Tenggara, Aceh 24671";"Jln. Bandara Alas Leuser Desa, Mbak Sako, Kec. Bukit Tusam, Kabupaten Aceh Tenggara";"ACEH";"24671";"Indonesia";"";"3.4053401";"97.8591655";"https://maps.google.com/?cid=0x0:0x2a0534128e72d278"
"supermarket";"Toko";"UD. IMAM JAYA";"Darussalam, Kec. Bukit Tusam, Kabupaten Aceh Tenggara, Aceh 24671";"Kec. Bukit Tusam, Kabupaten Aceh Tenggara";"ACEH";"24671";"Indonesia";"";"3.4256036";"97.8888655";"https://maps.google.com/?cid=0x0:0x29dcf87af85c0bb0"
"supermarket";"Percetakan Komersial";"Photo Copy Rizky";"CVMJ+3F3, Rikit Bur II, Kec. Bukit Tusam, Kabupaten Aceh Tenggara, Aceh 24671";"Rikit Bur II, Kec. Bukit Tusam, Kabupaten Aceh Tenggara";"ACEH";"24671";"Indonesia";" 082363050900";"3.4326284";"97.8811565";"https://maps.google.com/?cid=0x0:0x5586466112f015fd"
"supermarket";"Kafe";"ALFARIZI";"CVCR+7QX, Darussalam, Kec. Bukit Tusam, Kabupaten Aceh Tenggara, Aceh 24671";"Darussalam, Kec. Bukit Tusam, Kabupaten Aceh Tenggara";"ACEH";"24671";"Indonesia";"";"3.4207328";"97.8919923";"https://maps.google.com/?cid=0x0:0x73bfc70efbc6dde6"
"supermarket";"Toko";"Toko Pertanian Ulfa Tani";"CVJJ+X8X, Desa, Rikit Bur II, Kec. Bukit Tusam, Kabupaten Aceh Tenggara, Aceh 24671";"Desa, Rikit Bur II, Kec. Bukit Tusam, Kabupaten Aceh Tenggara";"ACEH";"24671";"Indonesia";" 082367679387";"3.4324842";"97.8808547";"https://maps.google.com/?cid=0x0:0x969f58357eb298ed"
"supermarket";"Toko Bahan Bangunan";"Ud. Mubarak";"Jl. Kutacane-Tigabinanga, Empat Lima, Kec. Bukit Tusam, Kabupaten Aceh Tenggara, Aceh 24671";"Empat Lima, Kec. Bukit Tusam, Kabupaten Aceh Tenggara";"ACEH";"24671";"Indonesia";" 085262195660";"3.4265624";"97.8879204";"https://maps.google.com/?cid=0x0:0xb6164203da93620"
"supermarket";"Toko Perlengkapan Rumah";"Toko Fauziah";"CVJM+82H, Jl. Kutacane-Tigabinanga, Sebudi Jaya, Kec. Bukit Tusam, Kabupaten Aceh Tenggara, Aceh 24671";"Jl. Kutacane-Tigabinanga, Sebudi Jaya, Kec. Bukit Tusam, Kabupaten Aceh Tenggara";"ACEH";"24671";"Indonesia";"";"3.4308048";"97.8826161";"https://maps.google.com/?cid=0x0:0x915da5b0725cebe9"
"supermarket";"Toko";"UD.ADAM TANI";"CVFQ+XX2, Jl. Kutacane, Empat Lima, Kec. Bukit Tusam, Kabupaten Aceh Tenggara, Aceh 24671";"Jl. Kutacane, Empat Lima, Kec. Bukit Tusam, Kabupaten Aceh Tenggara";"ACEH";"24671";"Indonesia";" 081376213738";"3.4245238";"97.8900923";"https://maps.google.com/?cid=0x0:0xb163ed108b8999c8"
"supermarket";"Toko umum";"Nasional Lubis";"CV2X+HPW, Simpang Semadam, Kec. Semadam, Kabupaten Aceh Tenggara, Aceh 24671";"Simpang Semadam, Kec. Semadam, Kabupaten Aceh Tenggara";"ACEH";"24671";"Indonesia";"";"3.4014911";"97.8993262";"https://maps.google.com/?cid=0x0:0xfe207b6143fef8d8"
"supermarket";"Toko bahan makanan";"Cv. Bintang Tenggara/m.sibarani";"CV7V+P42, Jl. Kutacane-Tigabinanga, Lawe Petanduk I, Kec. Semadam, Kabupaten Aceh Tenggara, Aceh 24671";"Jl. Kutacane-Tigabinanga, Lawe Petanduk I, Kec. Semadam, Kabupaten Aceh Tenggara";"ACEH";"24671";"Indonesia";" 081397656549";"3.4142726";"97.8927738";"https://maps.google.com/?cid=0x0:0x3311515fee164d27"
"supermarket";"Toko Perlengkapan Rumah";"Bulan bintang";"CVHG+5QV, Kerukunan, RT.31, kesehatan dalam";"Kabupaten Aceh Tenggara, Aceh";"ACEH";"";"Indonesia";"";"3.4279907";"97.876922";"https://maps.google.com/?cid=0x0:0x1dba35218d9b13d4"
"supermarket";"supermarket";"Aceh 24653";"Aceh";"Aceh";"ACEH";"";"Indonesia";"";"3.510025";"97.5680595";"https://maps.google.com/?cid=0x0:0xfbadf244defba520"
"supermarket";"Pusat Pembelajaran";"Mahmud Mart";"X8WQ+V53, Kuta Lintang, Kec. Blangkejeren, Kabupaten Gayo Lues, Aceh 24653";"Kuta Lintang, Kec. Blangkejeren, Kabupaten Gayo Lues";"ACEH";"24653";"Indonesia";" 081381117553";"3.9970839";"97.3380763";"https://maps.google.com/?cid=0x0:0x8852c61241f1977a"
"supermarket";"Toko Swalayan";"Harapan Masa Swalayan";"JW9M+3GW, Paya, Kec. Manggeng, Kabupaten Aceh Barat Daya, Aceh 23762";"Paya, Kec. Manggeng, Kabupaten Aceh Barat Daya";"ACEH";"23762";"Indonesia";"";"3.6176156";"96.9339405";"https://maps.google.com/?cid=0x0:0x67bc7ac02136d145"
"supermarket";"supermarket";"Bagehara frozen food";"Jalan. Lintas Blangkejeren Takengon, Dusun Ujung Dah Desa Bustanussalam, Blangkejeren. KAB. GAYO LUES, NANGGROE ACEH DARUSSALAM (NAD, 24653";"Dusun Ujung Dah Desa Bustanussalam, Blangkejeren. KAB. GAYO LUES";"ACEH";"24653";"Indonesia";"";"4.0055166";"97.3418715";"https://maps.google.com/?cid=0x0:0xd717e7ce317f5d5d"
"supermarket";"Toko";"NUSA FHOTOCOPY";"GQP8+9C5, Pulo Piku, Kec. Darul Hasanah, Kabupaten Aceh Tenggara, Aceh 24562";"Pulo Piku, Kec. Darul Hasanah, Kabupaten Aceh Tenggara";"ACEH";"24562";"Indonesia";" 085206837383";"3.5358889";"97.7661089";"https://maps.google.com/?cid=0x0:0x8a4cc7c2cc54ca1f"
"supermarket";"Minimarket";"Blower Mini Market";"X8XM+C3F, Sentang, Kec. Blangkejeren, Kabupaten Gayo Lues, Aceh 24653";"Sentang, Kec. Blangkejeren, Kabupaten Gayo Lues";"ACEH";"24653";"Indonesia";"";"3.9985712";"97.3326567";"https://maps.google.com/?cid=0x0:0x271a66eaebbb8f7b"
"supermarket";"Toko umum";"Kedai mek athaparis";"HQ76+F5H, Tj. Muda, Kec. Darul Hasanah, Kabupaten Aceh Tenggara, Aceh 24651";"Tj. Muda, Kec. Darul Hasanah, Kabupaten Aceh Tenggara";"ACEH";"24651";"Indonesia";"";"3.5637";"97.7604777";"https://maps.google.com/?cid=0x0:0x759496dbab29cf97"
"supermarket";"Toko bahan makanan";"Hasanah Swalayan";"66MX+MPG, Jl. Medan - Banda Aceh, Simpang III, Beurawang, Kec. Meureudu, Kabupaten Pidie Jaya, Aceh";"Kabupaten Pidie Jaya, Aceh";"ACEH";"";"Indonesia";"";"5.2341917";"96.249322";"https://maps.google.com/?cid=0x0:0xb365b416b88e3035"
"supermarket";"Toko Swalayan";"Hijrah Swalayan";"Jl. Hasan Saleh No.15A, Neusu Aceh, Kec. Baiturrahman, Kota Banda Aceh, Aceh 23116";"Neusu Aceh, Kec. Baiturrahman, Kota Banda Aceh";"ACEH";"23116";"Indonesia";" 082160005582";"5.5390676";"95.3153855";"https://maps.google.com/?cid=0x0:0xee73f70e953ded6c"
"supermarket";"Toko";"Diwa";"HPVJ+X5M, Lawe Pinis, Kec. Darul Hasanah, Kabupaten Aceh Tenggara, Aceh 24651";"Lawe Pinis, Kec. Darul Hasanah, Kabupaten Aceh Tenggara";"ACEH";"24651";"Indonesia";"";"3.5949613";"97.7304191";"https://maps.google.com/?cid=0x0:0x1733c108e7147cae"
"supermarket";"Toko Perlengkapan Rumah";"Toko Pupuk UD. AZZAM AGRO TANI";"X8MH+CH4, Porang, Kec. Blangkejeren, Kabupaten Gayo Lues, Aceh 24653";"Porang, Kec. Blangkejeren, Kabupaten Gayo Lues";"ACEH";"24653";"Indonesia";" 085373048436";"3.983504";"97.328958";"https://maps.google.com/?cid=0x0:0x22cf1eee827b5c49"
"supermarket";"Pusat Perbelanjaan";"Bengkel dan kede fajri";"Bengkel dan kede fajri, Bener Baru, Kec. Blangpegayon, Kabupaten Gayo Lues, Aceh 24653";"Bener Baru, Kec. Blangpegayon, Kabupaten Gayo Lues";"ACEH";"24653";"Indonesia";" 085277910878";"3.9659081";"97.3243308";"https://maps.google.com/?cid=0x0:0xd7d0b78203d69fee"
"supermarket";"Toko";"Warung Sembako Hakiki";"GQX7+MM5, Kuta Ujung, Kec. Darul Hasanah, Kabupaten Aceh Tenggara, Aceh 24651";"Kuta Ujung, Kec. Darul Hasanah, Kabupaten Aceh Tenggara";"ACEH";"24651";"Indonesia";" 081377135264";"3.5491333";"97.7642442";"https://maps.google.com/?cid=0x0:0x46a0bc4d0c2b0605"
"supermarket";"Toko Ponsel";"Hapizin Ponsel dan fotocopy";"Ujung Baru, Kec. Darul Hasanah, Kabupaten Aceh Tenggara, Aceh 24651";"Kec. Darul Hasanah, Kabupaten Aceh Tenggara";"ACEH";"24651";"Indonesia";" 081376090690";"3.5458543";"97.7642763";"https://maps.google.com/?cid=0x0:0x338b7f816fe90834"
"supermarket";"Pasar";"Udalasleuser";"depan masjid nurul huda, gang manggis, Lembah Alas, Kec. Deleng Pokhkisen, Kabupaten Aceh Tenggara, Aceh 24678";"gang manggis, Lembah Alas, Kec. Deleng Pokhkisen, Kabupaten Aceh Tenggara";"ACEH";"24678";"Indonesia";" 085282747984";"3.5160567";"97.823878";"https://maps.google.com/?cid=0x0:0x964e3459cbdb3cf9"
"supermarket";"supermarket";"Aceh 24651";"Kec. Rikit Gaib, Kabupaten Aceh Tenggara, Aceh";"Kabupaten Aceh Tenggara, Aceh";"ACEH";"";"Indonesia";"";"3.4880147";"97.8068851";"https://maps.google.com/?cid=0x0:0x711f6d12884ebd87"
"supermarket";"Toko bahan makanan";"UD.HENDY";"GRF8+4V3, Salang Sigotom, Kec. Deleng Pokhkisen, Kabupaten Aceh Tenggara, Aceh 24651";"Salang Sigotom, Kec. Deleng Pokhkisen, Kabupaten Aceh Tenggara";"ACEH";"24651";"Indonesia";"";"3.5227592";"97.8171689";"https://maps.google.com/?cid=0x0:0x2a9ce1aed6460795"
"supermarket";"Toko Ponsel";"Warung Rian Cell";"GR7G+H4C, Unnamed Road, Ranto Diur, Kec. Deleng Pokhkisen, Kabupaten Aceh Tenggara, Aceh 24651";"Unnamed Road, Ranto Diur, Kec. Deleng Pokhkisen, Kabupaten Aceh Tenggara";"ACEH";"24651";"Indonesia";" 081362301091";"3.5139488";"97.8252684";"https://maps.google.com/?cid=0x0:0x4f28a2b8721d241b"
"supermarket";"Toko bahan makanan";"UD ADHA DAN SUCI";"FRW9+J25, Kute Genting, Kec. Lawe Bulan, Kabupaten Aceh Tenggara, Aceh 24651";"Kute Genting, Kec. Lawe Bulan, Kabupaten Aceh Tenggara";"ACEH";"24651";"Indonesia";"";"3.4965059";"97.8176244";"https://maps.google.com/?cid=0x0:0xe1f29fe705a6609d"
"supermarket";"Pasar";"Udalasleuser";"depan masjid nurul huda, gang manggis, Lembah Alas, Kec. Deleng Pokhkisen, Kabupaten Aceh Tenggara, Aceh 24678";"gang manggis, Lembah Alas, Kec. Deleng Pokhkisen, Kabupaten Aceh Tenggara";"ACEH";"24678";"Indonesia";" 085282747984";"3.5160567";"97.823878";"https://maps.google.com/?cid=0x0:0x964e3459cbdb3cf9"
"supermarket";"supermarket";"Aceh 24652";"Kabupaten Aceh Tenggara, Aceh";"Kabupaten Aceh Tenggara, Aceh";"ACEH";"";"Indonesia";"";"3.6699926";"97.654811";"https://maps.google.com/?cid=0x0:0xf321f2dc3f3b9295"
"supermarket";"Toko bahan makanan";"UD.HENDY";"GRF8+4V3, Salang Sigotom, Kec. Deleng Pokhkisen, Kabupaten Aceh Tenggara, Aceh 24651";"Salang Sigotom, Kec. Deleng Pokhkisen, Kabupaten Aceh Tenggara";"ACEH";"24651";"Indonesia";"";"3.5227592";"97.8171689";"https://maps.google.com/?cid=0x0:0x2a9ce1aed6460795"
"supermarket";"Toko bahan makanan";"SimpangLima Grocery Store";"Jl. Tengku Angkasa H Abdullah Ujong Rimba No 20, Kp. Baru, Kec. Baiturrahman, Kota Banda Aceh, Aceh 23242";"Kp. Baru, Kec. Baiturrahman, Kota Banda Aceh";"ACEH";"23242";"Indonesia";" 0811686677";"5.5504966";"95.3167777";"https://maps.google.com/?cid=0x0:0x22361fe0a56c2da4"
"supermarket";"Minimarket";"Aneuk Galong Swalayan";"Aneuk Galong Titi, Kec. SukaMakmur, Kabupaten Aceh Besar, Aceh 23373";"Kec. SukaMakmur, Kabupaten Aceh Besar";"ACEH";"23373";"Indonesia";" 085212345678";"5.4749181";"95.3898891";"https://maps.google.com/?cid=0x0:0xe2eaabf205d97ffb"
"supermarket";"Minimarket";"MEIDINA";"Jl. Cut Nyak Dhien No.33, Ajuen, Kec. Peukan Bada, Kabupaten Aceh Besar, Aceh 23232";"Ajuen, Kec. Peukan Bada, Kabupaten Aceh Besar";"ACEH";"23232";"Indonesia";"";"5.5261498";"95.2863731";"https://maps.google.com/?cid=0x0:0x888e1d587d043e21"
"supermarket";"Toko Ponsel";"Warung Rian Cell";"GR7G+H4C, Unnamed Road, Ranto Diur, Kec. Deleng Pokhkisen, Kabupaten Aceh Tenggara, Aceh 24651";"Unnamed Road, Ranto Diur, Kec. Deleng Pokhkisen, Kabupaten Aceh Tenggara";"ACEH";"24651";"Indonesia";" 081362301091";"3.5139488";"97.8252684";"https://maps.google.com/?cid=0x0:0x4f28a2b8721d241b"
"supermarket";"supermarket";"Aceh 24652";"Kabupaten Aceh Tenggara, Aceh";"Kabupaten Aceh Tenggara, Aceh";"ACEH";"";"Indonesia";"";"3.6699926";"97.654811";"https://maps.google.com/?cid=0x0:0xf321f2dc3f3b9295"
"supermarket";"Tempat Cukur Rambut";"Ketambe pangkas cut the hair";"Jl. Blangkejeren - Kutacane No.32, Ketambe, Kec. Ketambe, Kabupaten Aceh Tenggara, Aceh 24652";"Ketambe, Kec. Ketambe, Kabupaten Aceh Tenggara";"ACEH";"24652";"Indonesia";"";"3.6793961";"97.6577554";"https://maps.google.com/?cid=0x0:0x54df7addcdb376b0"
"supermarket";"Pusat Perbelanjaan";"UD. Rahayu";"MMH5+HRG, Ketambe, Kec. Ketambe, Kabupaten Aceh Tenggara, Aceh 24652";"Ketambe, Kec. Ketambe, Kabupaten Aceh Tenggara";"ACEH";"24652";"Indonesia";" 085207224848";"3.6789414";"97.6595668";"https://maps.google.com/?cid=0x0:0xc7d374f0b1ee305c"
"supermarket";"Toko Elektronik";"UD Mak budi";"Jl. Blangkejeren - Kutacane No.32, Ketambe, Kec. Ketambe, Kabupaten Aceh Tenggara, Aceh 24652";"Ketambe, Kec. Ketambe, Kabupaten Aceh Tenggara";"ACEH";"24652";"Indonesia";"";"3.672571";"97.661387";"https://maps.google.com/?cid=0x0:0x297d57cda5328209"
"supermarket";"Toko bahan makanan";"SimpangLima Grocery Store";"Jl. Tengku Angkasa H Abdullah Ujong Rimba No 20, Kp. Baru, Kec. Baiturrahman, Kota Banda Aceh, Aceh 23242";"Kp. Baru, Kec. Baiturrahman, Kota Banda Aceh";"ACEH";"23242";"Indonesia";" 0811686677";"5.5504966";"95.3167777";"https://maps.google.com/?cid=0x0:0x22361fe0a56c2da4"
"supermarket";"Toko";"ABC MARKET";"Jl. Iskandar Muda, Kutacane Lama, Kec. Babussalam, Kabupaten Aceh Tenggara, Aceh 24651";"Kutacane Lama, Kec. Babussalam, Kabupaten Aceh Tenggara";"ACEH";"24651";"Indonesia";" 082218269411";"3.4865743";"97.8116679";"https://maps.google.com/?cid=0x0:0xc3c6405a2b0ebf76"
"supermarket";"Minimarket";"Mini Market Al-Barakah";"278G+QRQ, Kerukunan Kuta Panjang, Kec. Kutapanjang, Kabupaten Gayo Lues, Aceh 24655";"Kerukunan Kuta Panjang, Kec. Kutapanjang, Kabupaten Gayo Lues";"ACEH";"24655";"Indonesia";"";"4.0169533";"97.2771194";"https://maps.google.com/?cid=0x0:0xc6697af8d83dabfb"
"supermarket";"Toko Swalayan";"Cherry Mart";"Jl. Lintas Medan Jl. Banda Aceh, Baro Yaman, Mutiara, Kabupaten Pidie, Aceh, Indonesia, Jl. Lintas Sumatra, Baro Yaman, Kec. Mutiara, Kabupaten Pidie, Aceh 24186";"Baro Yaman, Mutiara, Kabupaten Pidie, Aceh, Indonesia, Jl. Lintas Sumatra, Baro Yaman, Kec. Mutiara, Kabupaten Pidie";"ACEH";"24186";"Indonesia";" 08126933666";"5.2782468";"95.9795015";"https://maps.google.com/?cid=0x0:0x1fb20a7e998eded9"
"supermarket";"Toko";"Indomaret Pasar Belakang";"FRM6+3QW, Kota Kutacane, Kec. Babussalam, Kabupaten Aceh Tenggara, Aceh 24651";"Kota Kutacane, Kec. Babussalam, Kabupaten Aceh Tenggara";"ACEH";"24651";"Indonesia";"";"3.4827332";"97.8119639";"https://maps.google.com/?cid=0x0:0x735c67e9aae21ffd"
"supermarket";"Toko Swalayan";"Outlet Sarah";"27CQ+CVC, Unnamed Rd, Tampeng, Kec. Kutapanjang, Kabupaten Gayo Lues, Aceh 24655";"Unnamed Rd, Tampeng, Kec. Kutapanjang, Kabupaten Gayo Lues";"ACEH";"24655";"Indonesia";"";"4.0210573";"97.2896523";"https://maps.google.com/?cid=0x0:0x998ad5c376b83866"
"supermarket";"supermarket";"RUMAH DAYRABI";"JPJ5+QMF, Jl. Blangkejeren - Kutacane, Datuk Pinding, Kec. Ketambe, Kabupaten Aceh Tenggara, Aceh 24652";"Jl. Blangkejeren - Kutacane, Datuk Pinding, Kec. Ketambe, Kabupaten Aceh Tenggara";"ACEH";"24652";"Indonesia";"";"3.6321008";"97.7085417";"https://maps.google.com/?cid=0x0:0x7c7c13758dccc2c9"
"supermarket";"Makanan Kecil";"BAKSO BAKAR";"JPCC+QG, Bener Berpapah, Kec. Ketambe, Kabupaten Aceh Tenggara, Aceh";"Kabupaten Aceh Tenggara, Aceh";"ACEH";"";"Indonesia";"";"3.6217188";"97.7219125";"https://maps.google.com/?cid=0x0:0x6bebe203020a6042"
"supermarket";"supermarket";"Kec. Lawe Alas";"Kabupaten Aceh Tenggara, Aceh";"Kabupaten Aceh Tenggara, Aceh";"ACEH";"";"Indonesia";"";"3.4262923";"97.8310337";"https://maps.google.com/?cid=0x0:0x8c79164bdcdfbd2e"
"supermarket";"Toko bahan makanan";"UD. ALIF";"CV45+4MM, Jln. Bandara Alas Leuser Desa, Mbak Sako, Kec. Bukit Tusam, Kabupaten Aceh Tenggara, Aceh 24671";"Jln. Bandara Alas Leuser Desa, Mbak Sako, Kec. Bukit Tusam, Kabupaten Aceh Tenggara";"ACEH";"24671";"Indonesia";"";"3.4053401";"97.8591655";"https://maps.google.com/?cid=0x0:0x2a0534128e72d278"
"supermarket";"Minimarket";"Indomaret Lawe Alas";"CRMG+2QW, keran, Cingkam Meranggun, Kec. Lawe Alas, Kabupaten Aceh Tenggara, Aceh 24651";"keran, Cingkam Meranggun, Kec. Lawe Alas, Kabupaten Aceh Tenggara";"ACEH";"24651";"Indonesia";"";"3.4326809";"97.8258162";"https://maps.google.com/?cid=0x0:0x720abd77acb69aa2"
"supermarket";"Toko makanan grosir";"Mak Leha keran";"Cingkam Meranggun, Kec. Lawe Alas, Kabupaten Aceh Tenggara, Aceh 24651";"Kec. Lawe Alas, Kabupaten Aceh Tenggara";"ACEH";"24651";"Indonesia";" 085359888473";"3.4291979";"97.8306583";"https://maps.google.com/?cid=0x0:0x8bf0b65e3dc63f6"
"supermarket";"Grosir Barang Kelontong";"Louser 1";"FRP6+HWH, Unnamed Road, Kota Kutacane, Kec. Babussalam, Kabupaten Aceh Tenggara, Aceh 24651";"Unnamed Road, Kota Kutacane, Kec. Babussalam, Kabupaten Aceh Tenggara";"ACEH";"24651";"Indonesia";"";"3.486428";"97.812349";"https://maps.google.com/?cid=0x0:0x712ef122b46c9ff8"
"supermarket";"Pusat Perbelanjaan";"Pajak Pagi";"FRP8+48H, Lawe Khutung, Kec. Lawe Bulan, Kabupaten Aceh Tenggara, Aceh 24651";"Lawe Khutung, Kec. Lawe Bulan, Kabupaten Aceh Tenggara";"ACEH";"24651";"Indonesia";"";"3.4853154";"97.8158611";"https://maps.google.com/?cid=0x0:0x8449529d417be134"
"supermarket";"Toko";"UD ATHALA";"FR38+MH2, Kuta Batu II, Kec. Lawe Alas, Kabupaten Aceh Tenggara, Aceh 24651";"Kuta Batu II, Kec. Lawe Alas, Kabupaten Aceh Tenggara";"ACEH";"24651";"Indonesia";"";"3.4541358";"97.8164006";"https://maps.google.com/?cid=0x0:0x7cb378342a3eac5b"
"supermarket";"Toko bahan makanan";"UD mama alfit";"Pasir Nunggul, Kec. Lawe Alas, Kabupaten Aceh Tenggara, Aceh 24651";"Kec. Lawe Alas, Kabupaten Aceh Tenggara";"ACEH";"24651";"Indonesia";"";"3.4233243";"97.8361154";"https://maps.google.com/?cid=0x0:0xa1f58d8cbfcf94a"
"supermarket";"Pasar";"UD ALAS LEUSER";"titi abri, Jl. Manunggal, desa lembah alas, Kec. Deleng Pokhkisen, Kabupaten Aceh Tenggara, Aceh 24678";"Jl. Manunggal, desa lembah alas, Kec. Deleng Pokhkisen, Kabupaten Aceh Tenggara";"ACEH";"24678";"Indonesia";" 085282747984";"3.4911606";"97.8109053";"https://maps.google.com/?cid=0x0:0xa7b71e7af82c7d89"
"supermarket";"Toko";"Toko ARZIA..GROSIR Aqua";"FRCC+QG4, Jl. Iskandar Muda, Kutacane Lama, Kec. Babussalam, Kabupaten Aceh Tenggara, Aceh 24651";"Jl. Iskandar Muda, Kutacane Lama, Kec. Babussalam, Kabupaten Aceh Tenggara";"ACEH";"24651";"Indonesia";"";"3.4718906";"97.8213181";"https://maps.google.com/?cid=0x0:0xe4ffef9df9d82e15"
"supermarket";"Toko bahan makanan";"UD. CAFU";"FRP8+MFR, Pasir Gala, Kec. Lawe Bulan, Kabupaten Aceh Tenggara, Aceh 24651";"Pasir Gala, Kec. Lawe Bulan, Kabupaten Aceh Tenggara";"ACEH";"24651";"Indonesia";" 082368942404";"3.4867322";"97.8161267";"https://maps.google.com/?cid=0x0:0xc058101a02219b6b"
"supermarket";"Toko";"ABC MARKET";"Jl. Iskandar Muda, Kutacane Lama, Kec. Babussalam, Kabupaten Aceh Tenggara, Aceh 24651";"Kutacane Lama, Kec. Babussalam, Kabupaten Aceh Tenggara";"ACEH";"24651";"Indonesia";" 082218269411";"3.4865743";"97.8116679";"https://maps.google.com/?cid=0x0:0xc3c6405a2b0ebf76"
"supermarket";"Toko Hewan Peliharaan";"ASYURA CATSHOP";"FRP9+V5F, Lawe Rutung, Kec. Lawe Bulan, Kabupaten Aceh Tenggara, Aceh";"Kabupaten Aceh Tenggara, Aceh";"ACEH";"";"Indonesia";" 085262445554";"3.4871802";"97.817925";"https://maps.google.com/?cid=0x0:0x8d15c3a94480e9a"
"supermarket";"Toko";"Indomaret Pasar Belakang";"FRM6+3QW, Kota Kutacane, Kec. Babussalam, Kabupaten Aceh Tenggara, Aceh 24651";"Kota Kutacane, Kec. Babussalam, Kabupaten Aceh Tenggara";"ACEH";"24651";"Indonesia";"";"3.4827332";"97.8119639";"https://maps.google.com/?cid=0x0:0x735c67e9aae21ffd"
"supermarket";"Toko bahan makanan";"UD. CAFU";"FRP8+MFR, Pasir Gala, Kec. Lawe Bulan, Kabupaten Aceh Tenggara, Aceh 24651";"Pasir Gala, Kec. Lawe Bulan, Kabupaten Aceh Tenggara";"ACEH";"24651";"Indonesia";" 082368942404";"3.4867322";"97.8161267";"https://maps.google.com/?cid=0x0:0xc058101a02219b6b"
"supermarket";"Pusat Perbelanjaan";"Pajak Pagi";"FRP8+48H, Lawe Khutung, Kec. Lawe Bulan, Kabupaten Aceh Tenggara, Aceh 24651";"Lawe Khutung, Kec. Lawe Bulan, Kabupaten Aceh Tenggara";"ACEH";"24651";"Indonesia";"";"3.4853154";"97.8158611";"https://maps.google.com/?cid=0x0:0x8449529d417be134"
"supermarket";"supermarket";"Kec. Lawe Bulan";"Kabupaten Aceh Tenggara, Aceh";"Kabupaten Aceh Tenggara, Aceh";"ACEH";"";"Indonesia";"";"3.4844337";"97.8239129";"https://maps.google.com/?cid=0x0:0x7c500fb0a4b9b413"
"supermarket";"Grosir Barang Kelontong";"Louser 1";"FRP6+HWH, Unnamed Road, Kota Kutacane, Kec. Babussalam, Kabupaten Aceh Tenggara, Aceh 24651";"Unnamed Road, Kota Kutacane, Kec. Babussalam, Kabupaten Aceh Tenggara";"ACEH";"24651";"Indonesia";"";"3.486428";"97.812349";"https://maps.google.com/?cid=0x0:0x712ef122b46c9ff8"
"supermarket";"Toko Perlengkapan Rumah";"Toko Bangunan Pandawa Lima";"FRMG+H5F, Simpang Empat, Kec. Lawe Bulan, Kabupaten Aceh Tenggara, Aceh 24651";"Simpang Empat, Kec. Lawe Bulan, Kabupaten Aceh Tenggara";"ACEH";"24651";"Indonesia";"";"3.4839302";"97.8254135";"https://maps.google.com/?cid=0x0:0x195639a521312653"
"supermarket";"Toko";"Toko sinar aceh kutacane";"Jln Ahmad yani no 2,di samping BRI unit nusantara,kute kotacane Barisan sop sk /lawe alas elektronik/cafe Truenoch Atau lebih pas lagi depan sabata elektronik, Kota Kutacane, Kec. Babussalam, Kabupaten Aceh Tenggara, Aceh 24651";"Kota Kutacane, Kec. Babussalam, Kabupaten Aceh Tenggara";"ACEH";"24651";"Indonesia";" 082272060648";"3.482666";"97.8128626";"https://maps.google.com/?cid=0x0:0x431fb8aa8931e178"
"supermarket";"Sekolah";"UD. AQILA";"Kutambaru, Kec. Lawe Bulan, Kabupaten Aceh Tenggara, Aceh 24651";"Kec. Lawe Bulan, Kabupaten Aceh Tenggara";"ACEH";"24651";"Indonesia";" 081397779004";"3.4829376";"97.8343526";"https://maps.google.com/?cid=0x0:0x4d5b21d95bde85d2"
"supermarket";"Grosir Barang Kelontong";"UD. AISHA JAYA";"Pajak Pagi, Lawe Rutung, Kec. Lawe Bulan, Kabupaten Aceh Tenggara, Aceh 24651";"Lawe Rutung, Kec. Lawe Bulan, Kabupaten Aceh Tenggara";"ACEH";"24651";"Indonesia";" 082229140009";"3.4868099";"97.8163629";"https://maps.google.com/?cid=0x0:0xe6edcaae32163fde"
"supermarket";"Toko umum";"AIRA FHOTO COPY";"Kuta Bantil, Kec. Lawe Bulan, Kabupaten Aceh Tenggara, Aceh 24651";"Kec. Lawe Bulan, Kabupaten Aceh Tenggara";"ACEH";"24651";"Indonesia";" 081263838383";"3.497437";"97.8208294";"https://maps.google.com/?cid=0x0:0x2ce10674e0f7fd74"
"supermarket";"Binatu";"Fauzan laundry";"FRP7+WMV, Unnamed Road, Lawe Rutung, Kec. Lawe Bulan, Kabupaten Aceh Tenggara, Aceh 24651";"Unnamed Road, Lawe Rutung, Kec. Lawe Bulan, Kabupaten Aceh Tenggara";"ACEH";"24651";"Indonesia";"";"3.4873528";"97.8141315";"https://maps.google.com/?cid=0x0:0x8132485c5fb6ac2a"
"supermarket";"Kantor Perusahaan";"Bintang Water Kutacane";"FRMF+5HJ, Simpang Empat, Kec. Lawe Bulan, Kabupaten Aceh Tenggara, Aceh 24651";"Simpang Empat, Kec. Lawe Bulan, Kabupaten Aceh Tenggara";"ACEH";"24651";"Indonesia";"";"3.4829581";"97.8238783";"https://maps.google.com/?cid=0x0:0xb22e2e4cbe1b37ec"
"supermarket";"Toko";"Indomaret Pasar Belakang";"FRM6+3QW, Kota Kutacane, Kec. Babussalam, Kabupaten Aceh Tenggara, Aceh 24651";"Kota Kutacane, Kec. Babussalam, Kabupaten Aceh Tenggara";"ACEH";"24651";"Indonesia";"";"3.4827332";"97.8119639";"https://maps.google.com/?cid=0x0:0x735c67e9aae21ffd"
"supermarket";"Toko Pakaian";"Toko Almud Store";"FRP8+M2P, Lawe Rutung, Kec. Lawe Bulan, Kabupaten Aceh Tenggara, Aceh 24651";"Lawe Rutung, Kec. Lawe Bulan, Kabupaten Aceh Tenggara";"ACEH";"24651";"Indonesia";" 082214835692";"3.4868123";"97.8149987";"https://maps.google.com/?cid=0x0:0xf27753e2e79a0802"
"supermarket";"Toko";"Pepen gas";"FRP8+P5H, Lawe Rutung, Kec. Lawe Bulan, Kabupaten Aceh Tenggara, Aceh 24651";"Lawe Rutung, Kec. Lawe Bulan, Kabupaten Aceh Tenggara";"ACEH";"24651";"Indonesia";" 081370857037";"3.486821";"97.8154924";"https://maps.google.com/?cid=0x0:0xf441da0f9a9432f5"
"supermarket";"Toko umum";"Intan Swalayan";"8X64+8FH, Lawe Deski Sabas, Kec. Babul Makmur, Kabupaten Aceh Tenggara, Aceh 24673";"Lawe Deski Sabas, Kec. Babul Makmur, Kabupaten Aceh Tenggara";"ACEH";"24673";"Indonesia";"";"3.3108075";"97.9562366";"https://maps.google.com/?cid=0x0:0x768e7236d115617"
"supermarket";"Pusat Perbelanjaan";"Pekan Lawe Sigala-gala";"9W39+4VW, Jl. Kutacane-Tigabinanga, Lawe Sigala Tim., Kec. Lawe Sigala-Gala, Kabupaten Aceh Tenggara, Aceh 24673";"Jl. Kutacane-Tigabinanga, Lawe Sigala Tim., Kec. Lawe Sigala-Gala, Kabupaten Aceh Tenggara";"ACEH";"24673";"Indonesia";"";"3.3528701";"97.9196959";"https://maps.google.com/?cid=0x0:0x9ea4caa2d2a7ee70"
"supermarket";"supermarket";"Kec. Lawe Sigala-Gala";"Kabupaten Aceh Tenggara, Aceh";"Kabupaten Aceh Tenggara, Aceh";"ACEH";"";"Indonesia";"";"3.3523562";"97.920238";"https://maps.google.com/?cid=0x0:0xcb5b41d286766187"
"supermarket";"Kedai Kopi";"Lawe sigala!!";"9W69+3F7, Jl. Kutacane, Tigabinanga, Kec. Lawe Sigala-Gala, Kabupaten Aceh Tenggara, Aceh 24673";"Jl. Kutacane, Tigabinanga, Kec. Lawe Sigala-Gala, Kabupaten Aceh Tenggara";"ACEH";"24673";"Indonesia";"";"3.3420191";"97.9303722";"https://maps.google.com/?cid=0x0:0x42669fdc8b8e846c"
"supermarket";"Toko umum";"Toko Bahan Kue  Aneka Plastik - SONAKMALELA";"8X64+J6Q Sabas, Lawe Deski Sabas, Kec. Babul Makmur, Kabupaten Aceh Tenggara, Aceh 24673";"Lawe Deski Sabas, Kec. Babul Makmur, Kabupaten Aceh Tenggara";"ACEH";"24673";"Indonesia";" 085310916741";"3.3115543";"97.9557031";"https://maps.google.com/?cid=0x0:0xf38845835b98dbe9"
"supermarket";"Pertanian";"Dusun Aman Sejahtera";"8WGR+7MC, Jl. Kutacane, Lawe Loning Aman, Kec. Lawe Sigala-Gala, Kabupaten Aceh Tenggara, Aceh 24673";"Jl. Kutacane, Lawe Loning Aman, Kec. Lawe Sigala-Gala, Kabupaten Aceh Tenggara";"ACEH";"24673";"Indonesia";"";"3.3258049";"97.9416092";"https://maps.google.com/?cid=0x0:0xa5c3ca0f0f4351d9"
"supermarket";"Toko makanan grosir";"Felix Sihombing";"Karya Indah, Kec. Lawe Sigala-Gala, Kabupaten Aceh Tenggara, Aceh 24673";"Kec. Lawe Sigala-Gala, Kabupaten Aceh Tenggara";"ACEH";"24673";"Indonesia";"";"3.3527492";"97.9095841";"https://maps.google.com/?cid=0x0:0x3552595721154ec6"
"supermarket";"Toko Perlengkapan Rumah";"Toko Putri Mutiara";"CV2X+6QQ, Simpang Semadam, Kec. Semadam, Kabupaten Aceh Tenggara, Aceh 24671";"Simpang Semadam, Kec. Semadam, Kabupaten Aceh Tenggara";"ACEH";"24671";"Indonesia";"";"3.4005807";"97.8994921";"https://maps.google.com/?cid=0x0:0xebcd93d4c33d9823"
"supermarket";"Pusat Perbelanjaan";"Shinta Jual bawang";"8WMR+5QF, Lawe Loning I, Kec. Lawe Sigala-Gala, Kabupaten Aceh Tenggara, Aceh 24673";"Lawe Loning I, Kec. Lawe Sigala-Gala, Kabupaten Aceh Tenggara";"ACEH";"24673";"Indonesia";"";"3.3323453";"97.942192";"https://maps.google.com/?cid=0x0:0x4df18571e16eb7db"
"supermarket";"Grosir Barang Kelontong";"UD. AR-RAHMAH";"9WW3+8CJ, Lawe Beringin Gayo, Kec. Semadam, Kabupaten Aceh Tenggara, Aceh";"Kabupaten Aceh Tenggara, Aceh";"ACEH";"";"Indonesia";"";"3.3958328";"97.903503";"https://maps.google.com/?cid=0x0:0xd708a6998e8cb27d"
"supermarket";"Toserba";"Tiara SKD";"CV2X+9PH, Simpang Semadam, Kec. Semadam, Kabupaten Aceh Tenggara, Aceh 24671";"Simpang Semadam, Kec. Semadam, Kabupaten Aceh Tenggara";"ACEH";"24671";"Indonesia";" 085210926141";"3.4009327";"97.8993694";"https://maps.google.com/?cid=0x0:0xdac40becbb027cc0"
"supermarket";"Dapur Umum";"GILINGAN BAKSO ACEH";"9W2C+W4V, Lawe Sigala Tim., Kec. Lawe Sigala-Gala, Kabupaten Aceh Tenggara, Aceh 24673";"Lawe Sigala Tim., Kec. Lawe Sigala-Gala, Kabupaten Aceh Tenggara";"ACEH";"24673";"Indonesia";"";"3.3523101";"97.9203043";"https://maps.google.com/?cid=0x0:0xb136d8cc578baa67"
"supermarket";"Toko";"Toko Putra Bukit";"Simpang Silangit, Jalan Kutacane-Tigabinanga Desa Cinta Makmur, Lawe Perbunga, Kec. Babul Makmur, Kabupaten Aceh Tenggara, Aceh 24673";"Jalan Kutacane-Tigabinanga Desa Cinta Makmur, Lawe Perbunga, Kec. Babul Makmur, Kabupaten Aceh Tenggara";"ACEH";"24673";"Indonesia";" 082164082551";"3.2981815";"97.9644759";"https://maps.google.com/?cid=0x0:0xdbc7a21acf76306c"
"supermarket";"supermarket";"Sandi jamur tiram";"8WGV+M22, Lawe Loning Aman, Kec. Lawe Sigala-Gala, Kabupaten Aceh Tenggara, Aceh 24673";"Lawe Loning Aman, Kec. Lawe Sigala-Gala, Kabupaten Aceh Tenggara";"ACEH";"24673";"Indonesia";"";"3.3266222";"97.9420026";"https://maps.google.com/?cid=0x0:0xac868511720a3e19"
"supermarket";"supermarket";"Warung jamli";"FV95+8H2, Buah Pala, Kec. Lawe Sumur, Kabupaten Aceh Tenggara, Aceh 24651";"Buah Pala, Kec. Lawe Sumur, Kabupaten Aceh Tenggara";"ACEH";"24651";"Indonesia";"";"3.4682739";"97.8588925";"https://maps.google.com/?cid=0x0:0xa531ad220773d02"
"supermarket";"supermarket";"Aceh 24671";"Kabupaten Aceh Tenggara, Aceh";"Kabupaten Aceh Tenggara, Aceh";"ACEH";"";"Indonesia";"";"3.3974891";"97.8612767";"https://maps.google.com/?cid=0x0:0x2f1eb6944610f143"
"supermarket";"Toko";"UD. M. RAFAIZAN IZZAM";"Lawe Sumur Baru, Kec. Lawe Sumur, Kabupaten Aceh Tenggara, Aceh 24651";"Kec. Lawe Sumur, Kabupaten Aceh Tenggara";"ACEH";"24651";"Indonesia";" 085276908000";"3.4607405";"97.8515312";"https://maps.google.com/?cid=0x0:0x96a799241436fd93"
"supermarket";"Toko Bunga";"Desa kuta bunin";"Kute Bunin, Kec. Lawe Sumur, Kabupaten Aceh Tenggara, Aceh 24671";"Kec. Lawe Sumur, Kabupaten Aceh Tenggara";"ACEH";"24671";"Indonesia";"";"3.4579123";"97.8567436";"https://maps.google.com/?cid=0x0:0xb016a0fc6e2400e7"
"supermarket";"supermarket";"LAWE HIJO METUAH";"FV35+GRF, Lawe Hijo Metuah, Kec. Lawe Sumur, Kabupaten Aceh Tenggara, Aceh 24651";"Lawe Hijo Metuah, Kec. Lawe Sumur, Kabupaten Aceh Tenggara";"ACEH";"24651";"Indonesia";"";"3.4538211";"97.8595545";"https://maps.google.com/?cid=0x0:0x723e16ace1078eba"
"supermarket";"supermarket";"WARUNG MAMA JUNIKA";"FV52+X9J, Lawe Sumur Baru, Kec. Lawe Sumur, Kabupaten Aceh Tenggara, Aceh 24651";"Lawe Sumur Baru, Kec. Lawe Sumur, Kabupaten Aceh Tenggara";"ACEH";"24651";"Indonesia";"";"3.46024";"97.85054";"https://maps.google.com/?cid=0x0:0x2d1208abad87d967"
"supermarket";"Kedai Kopi";"Warkop Lawe Buluh";"FV72+48P, Lawe Sumur, Kec. Lawe Sumur, Kabupaten Aceh Tenggara, Aceh 24651";"Lawe Sumur, Kec. Lawe Sumur, Kabupaten Aceh Tenggara";"ACEH";"24651";"Indonesia";"";"3.462829";"97.8508021";"https://maps.google.com/?cid=0x0:0x628282312f90878b"
"supermarket";"Pembangunan Perumahan";"JF Family";"FRFJ+33P, Kisam Lestari, Kec. Lawe Sumur, Kabupaten Aceh Tenggara, Aceh 24651";"Kisam Lestari, Kec. Lawe Sumur, Kabupaten Aceh Tenggara";"ACEH";"24651";"Indonesia";"";"3.4725234";"97.8301728";"https://maps.google.com/?cid=0x0:0x195c32080021b8d5"
"supermarket";"supermarket";"N/A";"";"";"ACEH";"";"Indonesia";" 085337052566";"-2.44565";"117.8888";"https://maps.google.com/?cid=0x0:0x939e3237a927485e"
"supermarket";"Toko";"Toko Putra Bukit";"Simpang Silangit, Jalan Kutacane-Tigabinanga Desa Cinta Makmur, Lawe Perbunga, Kec. Babul Makmur, Kabupaten Aceh Tenggara, Aceh 24673";"Jalan Kutacane-Tigabinanga Desa Cinta Makmur, Lawe Perbunga, Kec. Babul Makmur, Kabupaten Aceh Tenggara";"ACEH";"24673";"Indonesia";" 082164082551";"3.2981815";"97.9644759";"https://maps.google.com/?cid=0x0:0xdbc7a21acf76306c"
"supermarket";"supermarket";"Kec. Lauser";"Kabupaten Aceh Tenggara, Aceh";"Kabupaten Aceh Tenggara, Aceh";"ACEH";"";"Indonesia";"";"3.2262868";"97.9151378";"https://maps.google.com/?cid=0x0:0x3cb4ab8d5843e495"
"supermarket";"Toko Olahraga Luar Ruangan";"Leuser Adventure Shop";"Jl. Margonda No.274 B, Kemiri Muka, Kecamatan Beji, Kota Depok, Jawa Barat 16423";"Kemiri Muka, Kecamatan Beji, Kota Depok";"ACEH";"16423";"Indonesia";" 02177200222";"-6.3797148";"106.830648";"https://maps.google.com/?cid=0x0:0x1577e848ba64e3e7"
"supermarket";"Toko bahan makanan";"Iswa swalayan";"F9FQ+7Q4, Aneuk Galong Titi, Kec. SukaMakmur, Kabupaten Aceh Besar, Aceh 23373";"Aneuk Galong Titi, Kec. SukaMakmur, Kabupaten Aceh Besar";"ACEH";"23373";"Indonesia";"";"5.4731493";"95.3894514";"https://maps.google.com/?cid=0x0:0x174d56d4e0ce7c4b"
"supermarket";"Jus";"Kedai Oleh-Oleh PISANG SALE “LILI”";"7XRF+W6H, Kp. Bhakti, Kec. Babul Makmur, Kabupaten Aceh Tenggara, Aceh 24673";"Kp. Bhakti, Kec. Babul Makmur, Kabupaten Aceh Tenggara";"ACEH";"24673";"Indonesia";" 081333603357";"3.2923075";"97.9731248";"https://maps.google.com/?cid=0x0:0x1fc123888e17e88f"
"supermarket";"Minimarket";"minimarket superior";"Tambon Baroh, Kec. Dewantara, Kabupaten Aceh Utara, Aceh";"Kabupaten Aceh Utara, Aceh";"ACEH";"";"Indonesia";" 081364298787";"5.2368334";"97.0238203";"https://maps.google.com/?cid=0x0:0xb633be8496a4af8a"
"supermarket";"Pusat Perbelanjaan";"UD.AMEK FATHAN NO.12";"62F5+XXR, Jl. Kutacane, Medan Km12, Bukit Tusam, Kabupaten Aceh Tenggara, Aceh 22165";"Jl. Kutacane, Medan Km12, Bukit Tusam, Kabupaten Aceh Tenggara";"ACEH";"22165";"Indonesia";" 085360953444";"3.2249934";"98.0098765";"https://maps.google.com/?cid=0x0:0x83ac16708a64632a"
"supermarket";"supermarket";"Kelontong Ela Pinem";"Muara Situlen, Kec. Babul Makmur, Kabupaten Aceh Tenggara, Aceh";"Kabupaten Aceh Tenggara, Aceh";"ACEH";"";"Indonesia";"";"3.2679901";"97.9218824";"https://maps.google.com/?cid=0x0:0xeb133149c9808b83"
"supermarket";"supermarket";"BENIH JAGUNG PIONER 32";"Bun Bun Indah, Kec. Lauser, Kabupaten Aceh Tenggara, Aceh 24673";"Kec. Lauser, Kabupaten Aceh Tenggara";"ACEH";"24673";"Indonesia";"";"3.1131128";"97.9171682";"https://maps.google.com/?cid=0x0:0x615655ce4afa3428"
"supermarket";"Toko Swalayan";"Toko Sejahtra swalayan";"Jl. Gatot Subroto, Bale Atu, Kec. Lut Tawar, Kabupaten Aceh Tengah, Aceh 24519";"Bale Atu, Kec. Lut Tawar, Kabupaten Aceh Tengah";"ACEH";"24519";"Indonesia";"";"4.6233746";"96.8499305";"https://maps.google.com/?cid=0x0:0xf93184dd2ceafe62"
"supermarket";"Minimarket";"Indo Mart";"8X92+M3X, Sabilussalam, Kec. Babul Makmur, Kabupaten Aceh Tenggara, Aceh 24673";"Sabilussalam, Kec. Babul Makmur, Kabupaten Aceh Tenggara";"ACEH";"24673";"Indonesia";"";"3.3192467";"97.9502352";"https://maps.google.com/?cid=0x0:0x237fcdf23c385ad8"
"supermarket";"Area Mendaki";"Taman Nasional Gunung Leuser";"GF97+P97 Barisan mountain range, Aceh 24653";"Aceh";"ACEH";"";"Indonesia";"";"3.5192923";"97.4634372";"https://maps.google.com/?cid=0x0:0x3f1b67119f4d54b2"
"supermarket";"Minimarket";"INDOMARET RIKIT BAMBEL";"CVR8+FMC, Rikit, Kec. Bambel, Kabupaten Aceh Tenggara, Aceh 24651";"Rikit, Kec. Bambel, Kabupaten Aceh Tenggara";"ACEH";"24651";"Indonesia";"";"3.4411852";"97.8666501";"https://maps.google.com/?cid=0x0:0x73f783c74413f587"
"supermarket";"Pusat Perbelanjaan";"Indomaret Simpang Semadam";"9WX2+R29, Jl. Kutacane, Lawe Mejile, Kec. Lawe Sigala-Gala, Kabupaten Aceh Tenggara, Aceh 24671";"Jl. Kutacane, Lawe Mejile, Kec. Lawe Sigala-Gala, Kabupaten Aceh Tenggara";"ACEH";"24671";"Indonesia";" 082299020894";"3.3995261";"97.9001084";"https://maps.google.com/?cid=0x0:0xacddaaf4438416d6"
"supermarket";"Toko Perlengkapan Rumah";"Toko Putri Mutiara";"CV2X+6QQ, Simpang Semadam, Kec. Semadam, Kabupaten Aceh Tenggara, Aceh 24671";"Simpang Semadam, Kec. Semadam, Kabupaten Aceh Tenggara";"ACEH";"24671";"Indonesia";"";"3.4005807";"97.8994921";"https://maps.google.com/?cid=0x0:0xebcd93d4c33d9823"
"supermarket";"supermarket";"Aceh 24678";"Kabupaten Aceh Tenggara, Aceh";"Kabupaten Aceh Tenggara, Aceh";"ACEH";"";"Indonesia";"";"3.3820045";"97.9211555";"https://maps.google.com/?cid=0x0:0x8613dd45575158fa"
"supermarket";"Toko umum";"UD AZHAM PONSEL";"CV3V+J8R, desa, Titi Pasir, Kec. Semadam, Kabupaten Aceh Tenggara, Aceh 24671";"desa, Titi Pasir, Kec. Semadam, Kabupaten Aceh Tenggara";"ACEH";"24671";"Indonesia";" 085262841717";"3.4041015";"97.8932512";"https://maps.google.com/?cid=0x0:0xb66b81bdbd24cfb8"
"supermarket";"Grosir Barang Kelontong";"UD. AR-RAHMAH";"9WW3+8CJ, Lawe Beringin Gayo, Kec. Semadam, Kabupaten Aceh Tenggara, Aceh";"Kabupaten Aceh Tenggara, Aceh";"ACEH";"";"Indonesia";"";"3.3958328";"97.903503";"https://maps.google.com/?cid=0x0:0xd708a6998e8cb27d"
"supermarket";"Toko bahan makanan";"SimpangLima Grocery Store";"Jl. Tengku Angkasa H Abdullah Ujong Rimba No 20, Kp. Baru, Kec. Baiturrahman, Kota Banda Aceh, Aceh 23242";"Kp. Baru, Kec. Baiturrahman, Kota Banda Aceh";"ACEH";"23242";"Indonesia";" 0811686677";"5.5504966";"95.3167777";"https://maps.google.com/?cid=0x0:0x22361fe0a56c2da4"
"supermarket";"Toko makanan grosir";"Felix Sihombing";"Karya Indah, Kec. Lawe Sigala-Gala, Kabupaten Aceh Tenggara, Aceh 24673";"Kec. Lawe Sigala-Gala, Kabupaten Aceh Tenggara";"ACEH";"24673";"Indonesia";"";"3.3527492";"97.9095841";"https://maps.google.com/?cid=0x0:0x3552595721154ec6"
"supermarket";"supermarket";"BANG SIGIT";"9W97+VFX, Jl. Kutacane-Tigabinanga, Lawe Tua Makmur, Kec. Lawe Sigala-Gala, Kabupaten Aceh Tenggara, Aceh 24678";"Jl. Kutacane-Tigabinanga, Lawe Tua Makmur, Kec. Lawe Sigala-Gala, Kabupaten Aceh Tenggara";"ACEH";"24678";"Indonesia";"";"3.3697268";"97.913741";"https://maps.google.com/?cid=0x0:0x95af3ff91ec0c4ba"
"supermarket";"supermarket";"Warung siagian";"CW32+43C, Simpang Semadam, Kec. Semadam, Kabupaten Aceh Tenggara, Aceh 24671";"Simpang Semadam, Kec. Semadam, Kabupaten Aceh Tenggara";"ACEH";"24671";"Indonesia";"";"3.4028236";"97.9001408";"https://maps.google.com/?cid=0x0:0x1775b77875f5d43a"
"supermarket";"Toko bahan makanan";"Adam Swalayan";"Jl. Dr. Syarif Thayeb No.5, RW.6, Lambhuk, Kec. Ulee Kareng, Kota Banda Aceh, Aceh 23118";"RW.6, Lambhuk, Kec. Ulee Kareng, Kota Banda Aceh";"ACEH";"23118";"Indonesia";"";"5.5594296";"95.3396224";"https://maps.google.com/?cid=0x0:0xd8fb2e6538c63dc0"
"supermarket";"Toko bahan makanan";"Toko sempurna";"73C9+P93, Unnamed Road, Keureuseng, Kec. Samatiga, Kabupaten Aceh Barat, Aceh 23652";"Unnamed Road, Keureuseng, Kec. Samatiga, Kabupaten Aceh Barat";"ACEH";"23652";"Indonesia";"";"4.2717501";"96.0684077";"https://maps.google.com/?cid=0x0:0xced02d10c79ca8d1"
"supermarket";"Toko umum";"Intan Swalayan";"8X64+8FH, Lawe Deski Sabas, Kec. Babul Makmur, Kabupaten Aceh Tenggara, Aceh 24673";"Lawe Deski Sabas, Kec. Babul Makmur, Kabupaten Aceh Tenggara";"ACEH";"24673";"Indonesia";"";"3.3108075";"97.9562366";"https://maps.google.com/?cid=0x0:0x768e7236d115617"
"supermarket";"Toko bahan makanan";"UD. ALIF";"CV45+4MM, Jln. Bandara Alas Leuser Desa, Mbak Sako, Kec. Bukit Tusam, Kabupaten Aceh Tenggara, Aceh 24671";"Jln. Bandara Alas Leuser Desa, Mbak Sako, Kec. Bukit Tusam, Kabupaten Aceh Tenggara";"ACEH";"24671";"Indonesia";"";"3.4053401";"97.8591655";"https://maps.google.com/?cid=0x0:0x2a0534128e72d278"
"supermarket";"supermarket";"Aceh 24661";"Kabupaten Aceh Tenggara, Aceh";"Kabupaten Aceh Tenggara, Aceh";"ACEH";"";"Indonesia";"";"3.3088666";"97.6982272";"https://maps.google.com/?cid=0x0:0x3c66f885072251c8"
"supermarket";"Kedai Kopi";"UD BERTO Simanjuntak";"9VPC+843, Lawe Kinga Gab, Kec. Semadam, Kabupaten Aceh Tenggara, Aceh 24671";"Lawe Kinga Gab, Kec. Semadam, Kabupaten Aceh Tenggara";"ACEH";"24671";"Indonesia";"";"3.3857624";"97.8702842";"https://maps.google.com/?cid=0x0:0x1ee67bfccfe80307"
"supermarket";"Toko makanan grosir";"Mak Leha keran";"Cingkam Meranggun, Kec. Lawe Alas, Kabupaten Aceh Tenggara, Aceh 24651";"Kec. Lawe Alas, Kabupaten Aceh Tenggara";"ACEH";"24651";"Indonesia";" 085359888473";"3.4291979";"97.8306583";"https://maps.google.com/?cid=0x0:0x8bf0b65e3dc63f6"
"supermarket";"Pusat Perbelanjaan";"Pajak Pagi";"FRP8+48H, Lawe Khutung, Kec. Lawe Bulan, Kabupaten Aceh Tenggara, Aceh 24651";"Lawe Khutung, Kec. Lawe Bulan, Kabupaten Aceh Tenggara";"ACEH";"24651";"Indonesia";"";"3.4853154";"97.8158611";"https://maps.google.com/?cid=0x0:0x8449529d417be134"
"supermarket";"Toko";"ABC MARKET";"Jl. Iskandar Muda, Kutacane Lama, Kec. Babussalam, Kabupaten Aceh Tenggara, Aceh 24651";"Kutacane Lama, Kec. Babussalam, Kabupaten Aceh Tenggara";"ACEH";"24651";"Indonesia";" 082218269411";"3.4865743";"97.8116679";"https://maps.google.com/?cid=0x0:0xc3c6405a2b0ebf76"
"supermarket";"Toko";"NUSA FHOTOCOPY";"GQP8+9C5, Pulo Piku, Kec. Darul Hasanah, Kabupaten Aceh Tenggara, Aceh 24562";"Pulo Piku, Kec. Darul Hasanah, Kabupaten Aceh Tenggara";"ACEH";"24562";"Indonesia";" 085206837383";"3.5358889";"97.7661089";"https://maps.google.com/?cid=0x0:0x8a4cc7c2cc54ca1f"
"supermarket";"Pasar";"UD ALAS LEUSER";"titi abri, Jl. Manunggal, desa lembah alas, Kec. Deleng Pokhkisen, Kabupaten Aceh Tenggara, Aceh 24678";"Jl. Manunggal, desa lembah alas, Kec. Deleng Pokhkisen, Kabupaten Aceh Tenggara";"ACEH";"24678";"Indonesia";" 085282747984";"3.4911606";"97.8109053";"https://maps.google.com/?cid=0x0:0xa7b71e7af82c7d89"
"supermarket";"Toko";"Toko ARZIA..GROSIR Aqua";"FRCC+QG4, Jl. Iskandar Muda, Kutacane Lama, Kec. Babussalam, Kabupaten Aceh Tenggara, Aceh 24651";"Jl. Iskandar Muda, Kutacane Lama, Kec. Babussalam, Kabupaten Aceh Tenggara";"ACEH";"24651";"Indonesia";"";"3.4718906";"97.8213181";"https://maps.google.com/?cid=0x0:0xe4ffef9df9d82e15"
"supermarket";"Pusat Perbelanjaan";"Toko PEJE";"CVHM+WHH, Lawe Dua Gab, Kec. Bukit Tusam, Kabupaten Aceh Tenggara, Aceh 24671";"Lawe Dua Gab, Kec. Bukit Tusam, Kabupaten Aceh Tenggara";"ACEH";"24671";"Indonesia";"";"3.4298068";"97.8839715";"https://maps.google.com/?cid=0x0:0xcf48be32da7ac671"
"supermarket";"Toko bahan makanan";"UD.HENDY";"GRF8+4V3, Salang Sigotom, Kec. Deleng Pokhkisen, Kabupaten Aceh Tenggara, Aceh 24651";"Salang Sigotom, Kec. Deleng Pokhkisen, Kabupaten Aceh Tenggara";"ACEH";"24651";"Indonesia";"";"3.5227592";"97.8171689";"https://maps.google.com/?cid=0x0:0x2a9ce1aed6460795"
"supermarket";"Toko bahan makanan";"UD mama alfit";"Pasir Nunggul, Kec. Lawe Alas, Kabupaten Aceh Tenggara, Aceh 24651";"Kec. Lawe Alas, Kabupaten Aceh Tenggara";"ACEH";"24651";"Indonesia";"";"3.4233243";"97.8361154";"https://maps.google.com/?cid=0x0:0xa1f58d8cbfcf94a"
"supermarket";"Toko bahan makanan";"UD. CAFU";"FRP8+MFR, Pasir Gala, Kec. Lawe Bulan, Kabupaten Aceh Tenggara, Aceh 24651";"Pasir Gala, Kec. Lawe Bulan, Kabupaten Aceh Tenggara";"ACEH";"24651";"Indonesia";" 082368942404";"3.4867322";"97.8161267";"https://maps.google.com/?cid=0x0:0xc058101a02219b6b"
"supermarket";"supermarket";"Aceh 24673";"Kabupaten Aceh Tenggara, Aceh";"Kabupaten Aceh Tenggara, Aceh";"ACEH";"";"Indonesia";"";"3.0291759";"97.8286368";"https://maps.google.com/?cid=0x0:0x9e7ae9b803d7455"
"supermarket";"Toko umum";"Intan Swalayan";"8X64+8FH, Lawe Deski Sabas, Kec. Babul Makmur, Kabupaten Aceh Tenggara, Aceh 24673";"Lawe Deski Sabas, Kec. Babul Makmur, Kabupaten Aceh Tenggara";"ACEH";"24673";"Indonesia";"";"3.3108075";"97.9562366";"https://maps.google.com/?cid=0x0:0x768e7236d115617"
"supermarket";"Minimarket";"Indo Mart";"8X92+M3X, Sabilussalam, Kec. Babul Makmur, Kabupaten Aceh Tenggara, Aceh 24673";"Sabilussalam, Kec. Babul Makmur, Kabupaten Aceh Tenggara";"ACEH";"24673";"Indonesia";"";"3.3192467";"97.9502352";"https://maps.google.com/?cid=0x0:0x237fcdf23c385ad8"
"supermarket";"Toko bahan makanan";"UD. ALIF";"CV45+4MM, Jln. Bandara Alas Leuser Desa, Mbak Sako, Kec. Bukit Tusam, Kabupaten Aceh Tenggara, Aceh 24671";"Jln. Bandara Alas Leuser Desa, Mbak Sako, Kec. Bukit Tusam, Kabupaten Aceh Tenggara";"ACEH";"24671";"Indonesia";"";"3.4053401";"97.8591655";"https://maps.google.com/?cid=0x0:0x2a0534128e72d278"
"supermarket";"Toko";"Toko Putra Bukit";"Simpang Silangit, Jalan Kutacane-Tigabinanga Desa Cinta Makmur, Lawe Perbunga, Kec. Babul Makmur, Kabupaten Aceh Tenggara, Aceh 24673";"Jalan Kutacane-Tigabinanga Desa Cinta Makmur, Lawe Perbunga, Kec. Babul Makmur, Kabupaten Aceh Tenggara";"ACEH";"24673";"Indonesia";" 082164082551";"3.2981815";"97.9644759";"https://maps.google.com/?cid=0x0:0xdbc7a21acf76306c"
"supermarket";"Kedai Kopi";"UD BERTO Simanjuntak";"9VPC+843, Lawe Kinga Gab, Kec. Semadam, Kabupaten Aceh Tenggara, Aceh 24671";"Lawe Kinga Gab, Kec. Semadam, Kabupaten Aceh Tenggara";"ACEH";"24671";"Indonesia";"";"3.3857624";"97.8702842";"https://maps.google.com/?cid=0x0:0x1ee67bfccfe80307"
"supermarket";"Pertanian";"Dusun Aman Sejahtera";"8WGR+7MC, Jl. Kutacane, Lawe Loning Aman, Kec. Lawe Sigala-Gala, Kabupaten Aceh Tenggara, Aceh 24673";"Jl. Kutacane, Lawe Loning Aman, Kec. Lawe Sigala-Gala, Kabupaten Aceh Tenggara";"ACEH";"24673";"Indonesia";"";"3.3258049";"97.9416092";"https://maps.google.com/?cid=0x0:0xa5c3ca0f0f4351d9"
"supermarket";"Pusat Perbelanjaan";"Toko PEJE";"CVHM+WHH, Lawe Dua Gab, Kec. Bukit Tusam, Kabupaten Aceh Tenggara, Aceh 24671";"Lawe Dua Gab, Kec. Bukit Tusam, Kabupaten Aceh Tenggara";"ACEH";"24671";"Indonesia";"";"3.4298068";"97.8839715";"https://maps.google.com/?cid=0x0:0xcf48be32da7ac671"
"supermarket";"Toko umum";"Kedai sayur";"7XVC+8FH, Lawe Tawakh, Kec. Babul Makmur, Kabupaten Aceh Tenggara, Aceh 24673";"Lawe Tawakh, Kec. Babul Makmur, Kabupaten Aceh Tenggara";"ACEH";"24673";"Indonesia";" 082365339682";"3.2933154";"97.9712202";"https://maps.google.com/?cid=0x0:0xc5ed8ba61674040f"
"supermarket";"Jus";"Kedai Oleh-Oleh PISANG SALE “LILI”";"7XRF+W6H, Kp. Bhakti, Kec. Babul Makmur, Kabupaten Aceh Tenggara, Aceh 24673";"Kp. Bhakti, Kec. Babul Makmur, Kabupaten Aceh Tenggara";"ACEH";"24673";"Indonesia";" 081333603357";"3.2923075";"97.9731248";"https://maps.google.com/?cid=0x0:0x1fc123888e17e88f"
"supermarket";"Toko Swalayan";"Toko alfi CS";"VPG9+3QR, Jl. Tapaktuan - Subulussalam, Pinto Rimba, Kec. Trumon Tim., Kabupaten Aceh Selatan, Aceh 23774";"Jl. Tapaktuan - Subulussalam, Pinto Rimba, Kec. Trumon Tim., Kabupaten Aceh Selatan";"ACEH";"23774";"Indonesia";"";"2.8752203";"97.7194307";"https://maps.google.com/?cid=0x0:0x260dbe30cd3bbc83"
"supermarket";"Grosir Barang Kelontong";"UD. AR-RAHMAH";"9WW3+8CJ, Lawe Beringin Gayo, Kec. Semadam, Kabupaten Aceh Tenggara, Aceh";"Kabupaten Aceh Tenggara, Aceh";"ACEH";"";"Indonesia";"";"3.3958328";"97.903503";"https://maps.google.com/?cid=0x0:0xd708a6998e8cb27d"
"supermarket";"Pusat Perbelanjaan";"UD. Tani mandiri";"Lawe Loning Aman, harapan, Kabupaten Aceh Tenggara, Aceh 24619";"harapan, Kabupaten Aceh Tenggara";"ACEH";"24619";"Indonesia";" 081263622016";"3.3262315";"97.9452965";"https://maps.google.com/?cid=0x0:0x9c26fb737ecc54d1"
"supermarket";"Pasar";"UD ALAS LEUSER";"titi abri, Jl. Manunggal, desa lembah alas, Kec. Deleng Pokhkisen, Kabupaten Aceh Tenggara, Aceh 24678";"Jl. Manunggal, desa lembah alas, Kec. Deleng Pokhkisen, Kabupaten Aceh Tenggara";"ACEH";"24678";"Indonesia";" 085282747984";"3.4911606";"97.8109053";"https://maps.google.com/?cid=0x0:0xa7b71e7af82c7d89"
