Category;Real Category;Business Name;Address;City;State;Postal Code;Country;Phone;Latitude;Longitude;Map Link
"perumahan";"Komplek perumahan";"Rumah Ajhoe";"8W9X+WC3, Sabilussalam, Kec. Babul Makmur, Kabupaten Aceh Tenggara, Aceh 24673";"Sabilussalam, Kec. Babul Makmur, Kabupaten Aceh Tenggara";"ACEH";"24673";"Indonesia";"";"3.3197581";"97.94854";"https://maps.google.com/?cid=0x0:0xfab32d82c12b3b5a"
"perumahan";"Komplek perumahan";"Imel";"7WGF+3FR, Musara Setia, Kec. Babul Makmur, Kabupaten Aceh Tenggara, Aceh 24673";"Musara Setia, Kec. Babul Makmur, Kabupaten Aceh Tenggara";"ACEH";"24673";"Indonesia";"";"3.2752432";"97.923628";"https://maps.google.com/?cid=0x0:0x4d489840ce8d176e"
"perumahan";"perumahan";"Kec. Babul Makmur";"Kabupaten Aceh Tenggara, Aceh";"Kabupaten Aceh Tenggara, Aceh";"ACEH";"";"Indonesia";"";"3.2886858";"97.9785032";"https://maps.google.com/?cid=0x0:0xa32290e982898875"
"perumahan";"Komplek perumahan";"Erwin Siregar";"8W2H+J75, Gabungan Parsaoran, Kec. Babul Makmur, Kabupaten Aceh Tenggara, Aceh 24673";"Gabungan Parsaoran, Kec. Babul Makmur, Kabupaten Aceh Tenggara";"ACEH";"24673";"Indonesia";"";"3.301285";"97.928378";"https://maps.google.com/?cid=0x0:0x937115d5514112cc"
"perumahan";"Gedung Apartemen";"Op. Lindung Siregar";"8X73+7V3, Lawe Desky Tongah, Kec. Babul Makmur, Kabupaten Aceh Tenggara, Aceh 24673";"Lawe Desky Tongah, Kec. Babul Makmur, Kabupaten Aceh Tenggara";"ACEH";"24673";"Indonesia";"";"3.3136891";"97.9544234";"https://maps.google.com/?cid=0x0:0x82f990c7a0c4c4e8"
"perumahan";"perumahan";"Rumah";"8X35+5R, Lawe Mantik, Kec. Babul Makmur, Kabupaten Aceh Tenggara, Aceh 24673";"Lawe Mantik, Kec. Babul Makmur, Kabupaten Aceh Tenggara";"ACEH";"24673";"Indonesia";"";"3.301948";"97.958586";"https://maps.google.com/?cid=0x0:0x3edd2eb9207682b8"
"perumahan";"Pembangunan Perumahan";"Nababan Parkopi";"8X53+34P, Jalan muara tulen, Lawe Deski Sabas, Babul Makmur, Southeast Aceh, Aceh 24673";"Jalan muara tulen, Lawe Deski Sabas, Babul Makmur, Southeast Aceh";"ACEH";"24673";"Indonesia";"";"3.3076633";"97.9529545";"https://maps.google.com/?cid=0x0:0xa6a2acb2f2e019de"
"perumahan";"Gedung Apartemen";"Op.Kayla Simorangkir";"8X45+QJW, Jl. Kutacane-Tigabinanga, Cinta Damai, Kec. Babul Makmur, Kabupaten Aceh Tenggara, Aceh 24673";"Jl. Kutacane-Tigabinanga, Cinta Damai, Kec. Babul Makmur, Kabupaten Aceh Tenggara";"ACEH";"24673";"Indonesia";" 08561241429";"3.3069976";"97.9590905";"https://maps.google.com/?cid=0x0:0xdd141db549be88ba"
"perumahan";"Perhimpunan Pengembang Perumahan";"M. Yahya Home Family";"Lawe Pakam, Jl. Kutacane No.9, Pintu Alas, Kec. Babul Makmur, Kabupaten Aceh Tenggara, Aceh 24673";"Jl. Kutacane No.9, Pintu Alas, Kec. Babul Makmur, Kabupaten Aceh Tenggara";"ACEH";"24673";"Indonesia";" 081282505902";"3.2862632";"97.9801793";"https://maps.google.com/?cid=0x0:0x3072fb87518c4743"
"perumahan";"Pembangunan Perumahan";"Rumah alfa dila";"7XPP+533, Lawe mentebah, Pintu Alas, Kec. Babul Makmur, Kabupaten Aceh Tenggara, Aceh 24673";"Lawe mentebah, Pintu Alas, Kec. Babul Makmur, Kabupaten Aceh Tenggara";"ACEH";"24673";"Indonesia";"";"3.2853929";"97.9851724";"https://maps.google.com/?cid=0x0:0x4db63b63ec7f4438"
"perumahan";"Gudang";"RUMAH TAMBARA";"8X64+R4M, Lawe Deski Sabas, Kec. Babul Makmur, Kabupaten Aceh Tenggara, Aceh 24673";"Lawe Deski Sabas, Kec. Babul Makmur, Kabupaten Aceh Tenggara";"ACEH";"24673";"Indonesia";" 081362171707";"3.3120974";"97.9552906";"https://maps.google.com/?cid=0x0:0xd91b8ba67f9e4307"
"perumahan";"Komplek perumahan";"Jerman Simanjuntak";"8X36+WGM, Lawe Mantik, Kec. Babul Makmur, Kabupaten Aceh Tenggara, Aceh 24673";"Lawe Mantik, Kec. Babul Makmur, Kabupaten Aceh Tenggara";"ACEH";"24673";"Indonesia";"";"3.3045412";"97.9614545";"https://maps.google.com/?cid=0x0:0xdb17da885c921307"
"perumahan";"Perhimpunan Pengembang Perumahan";"Pulopeding babussalam";"Perbatasan Lawe pakam, Muara Situlen, Kec. Babul Makmur, Kabupaten Aceh Tenggara, Aceh 24673";"Muara Situlen, Kec. Babul Makmur, Kabupaten Aceh Tenggara";"ACEH";"24673";"Indonesia";"";"3.265122";"97.9197072";"https://maps.google.com/?cid=0x0:0xef407aa72ee97dcd"
"perumahan";"Pembangunan Perumahan";"haga gt home";"8X73+R6W, Lawe Deski I, Kec. Babul Makmur, Kabupaten Aceh Tenggara, Aceh 24673";"Lawe Deski I, Kec. Babul Makmur, Kabupaten Aceh Tenggara";"ACEH";"24673";"Indonesia";"";"3.3146498";"97.9530805";"https://maps.google.com/?cid=0x0:0x98a9f7958bb10fc"
"perumahan";"Komplek perumahan";"Rumah Ajhoe";"8W9X+WC3, Sabilussalam, Kec. Babul Makmur, Kabupaten Aceh Tenggara, Aceh 24673";"Sabilussalam, Kec. Babul Makmur, Kabupaten Aceh Tenggara";"ACEH";"24673";"Indonesia";"";"3.3197581";"97.94854";"https://maps.google.com/?cid=0x0:0xfab32d82c12b3b5a"
"perumahan";"Pembangunan Perumahan";"Nababan Parkopi";"8X53+34P, Jalan muara tulen, Lawe Deski Sabas, Babul Makmur, Southeast Aceh, Aceh 24673";"Jalan muara tulen, Lawe Deski Sabas, Babul Makmur, Southeast Aceh";"ACEH";"24673";"Indonesia";"";"3.3076633";"97.9529545";"https://maps.google.com/?cid=0x0:0xa6a2acb2f2e019de"
"perumahan";"perumahan";"Aceh 24673";"Kabupaten Aceh Tenggara, Aceh";"Kabupaten Aceh Tenggara, Aceh";"ACEH";"";"Indonesia";"";"3.0291759";"97.8286368";"https://maps.google.com/?cid=0x0:0x9e7ae9b803d7455"
"perumahan";"Komplek perumahan";"Babul rahmah";"FRJ6+3RX, Pulo Sanggar, Kec. Babussalam, Kabupaten Aceh Tenggara, Aceh 24651";"Pulo Sanggar, Kec. Babussalam, Kabupaten Aceh Tenggara";"ACEH";"24651";"Indonesia";"";"3.4802411";"97.8120965";"https://maps.google.com/?cid=0x0:0x9d119c82562530f4"
"perumahan";"Komplek perumahan";"Erwin Siregar";"8W2H+J75, Gabungan Parsaoran, Kec. Babul Makmur, Kabupaten Aceh Tenggara, Aceh 24673";"Gabungan Parsaoran, Kec. Babul Makmur, Kabupaten Aceh Tenggara";"ACEH";"24673";"Indonesia";"";"3.301285";"97.928378";"https://maps.google.com/?cid=0x0:0x937115d5514112cc"
"perumahan";"Pembangunan Perumahan";"Rumah alfa dila";"7XPP+533, Lawe mentebah, Pintu Alas, Kec. Babul Makmur, Kabupaten Aceh Tenggara, Aceh 24673";"Lawe mentebah, Pintu Alas, Kec. Babul Makmur, Kabupaten Aceh Tenggara";"ACEH";"24673";"Indonesia";"";"3.2853929";"97.9851724";"https://maps.google.com/?cid=0x0:0x4db63b63ec7f4438"
"perumahan";"Perhimpunan Pengembang Perumahan";"M. Yahya Home Family";"Lawe Pakam, Jl. Kutacane No.9, Pintu Alas, Kec. Babul Makmur, Kabupaten Aceh Tenggara, Aceh 24673";"Jl. Kutacane No.9, Pintu Alas, Kec. Babul Makmur, Kabupaten Aceh Tenggara";"ACEH";"24673";"Indonesia";" 081282505902";"3.2862632";"97.9801793";"https://maps.google.com/?cid=0x0:0x3072fb87518c4743"
"perumahan";"Komplek perumahan";"Rumah sayank";"8WF2+VRQ, Lawe Sumur, Kec. Babul Rahman, Kabupaten Aceh Tenggara, Aceh 24673";"Lawe Sumur, Kec. Babul Rahman, Kabupaten Aceh Tenggara";"ACEH";"24673";"Indonesia";"";"3.3247247";"97.9020977";"https://maps.google.com/?cid=0x0:0x9fcece4eb3f68a6b"
"perumahan";"Pembangunan Perumahan";"Simpang sarimpitpit...";"8X64+5GG, Jl. Kutacane, Lawe Deski Sabas, Kec. Lawe Sigala-Gala, Kabupaten Aceh Tenggara, Aceh 24673";"Jl. Kutacane, Lawe Deski Sabas, Kec. Lawe Sigala-Gala, Kabupaten Aceh Tenggara";"ACEH";"24673";"Indonesia";"";"3.3104497";"97.9563151";"https://maps.google.com/?cid=0x0:0x46b872c036396e07"
"perumahan";"Gedung Apartemen";"Op.Kayla Simorangkir";"8X45+QJW, Jl. Kutacane-Tigabinanga, Cinta Damai, Kec. Babul Makmur, Kabupaten Aceh Tenggara, Aceh 24673";"Jl. Kutacane-Tigabinanga, Cinta Damai, Kec. Babul Makmur, Kabupaten Aceh Tenggara";"ACEH";"24673";"Indonesia";" 08561241429";"3.3069976";"97.9590905";"https://maps.google.com/?cid=0x0:0xdd141db549be88ba"
"perumahan";"Komplek perumahan";"Laweperbunga atas";"7XX5+FCH, Lawe Perbunga, Kec. Babul Makmur, Kabupaten Aceh Tenggara, Aceh 24673";"Lawe Perbunga, Kec. Babul Makmur, Kabupaten Aceh Tenggara";"ACEH";"24673";"Indonesia";"";"3.2986979";"97.9586053";"https://maps.google.com/?cid=0x0:0xd848769d35155083"
"perumahan";"Perhimpunan Pengembang Perumahan";"Situmeang Br nababan";"8X73+H7F, Lawe Deski I, Kec. Babul Makmur, Kabupaten Aceh Tenggara, Aceh 24673";"Lawe Deski I, Kec. Babul Makmur, Kabupaten Aceh Tenggara";"ACEH";"24673";"Indonesia";"";"3.314095";"97.952989";"https://maps.google.com/?cid=0x0:0xac8876caad1e25a8"
"perumahan";"Pembangunan Perumahan";"haga gt home";"8X73+R6W, Lawe Deski I, Kec. Babul Makmur, Kabupaten Aceh Tenggara, Aceh 24673";"Lawe Deski I, Kec. Babul Makmur, Kabupaten Aceh Tenggara";"ACEH";"24673";"Indonesia";"";"3.3146498";"97.9530805";"https://maps.google.com/?cid=0x0:0x98a9f7958bb10fc"
"perumahan";"Perhimpunan Pengembang Perumahan";"Pulopeding babussalam";"Perbatasan Lawe pakam, Muara Situlen, Kec. Babul Makmur, Kabupaten Aceh Tenggara, Aceh 24673";"Muara Situlen, Kec. Babul Makmur, Kabupaten Aceh Tenggara";"ACEH";"24673";"Indonesia";"";"3.265122";"97.9197072";"https://maps.google.com/?cid=0x0:0xef407aa72ee97dcd"
"perumahan";"Perumahan";"Perumahan Kartika";"FRW4+H3J, Batu Bulan Asli, Kec. Babussalam, Kabupaten Aceh Tenggara, Aceh 24651";"Batu Bulan Asli, Kec. Babussalam, Kabupaten Aceh Tenggara";"ACEH";"24651";"Indonesia";"";"3.4964566";"97.8051491";"https://maps.google.com/?cid=0x0:0xeea196a809e42429"
"perumahan";"perumahan";"Kec. Babussalam";"Kabupaten Aceh Tenggara, Aceh";"Kabupaten Aceh Tenggara, Aceh";"ACEH";"";"Indonesia";"";"3.4831986";"97.812801";"https://maps.google.com/?cid=0x0:0x585c8bae275f9877"
"perumahan";"Pembangunan Perumahan";"Perumahan Alas Residence V";"FRQ3+GWM, Muara Lawe Bulan, Kec. Babussalam, Kabupaten Aceh Tenggara, Aceh 24651";"Muara Lawe Bulan, Kec. Babussalam, Kabupaten Aceh Tenggara";"ACEH";"24651";"Indonesia";" 082272307335";"3.4888447";"97.8047867";"https://maps.google.com/?cid=0x0:0xf841a87f113c7f33"
"perumahan";"perumahan";"RUMAH WAWAN DESKY";"FRP7+4RX, Pasir Gala, Kec. Lawe Bulan, Kabupaten Aceh Tenggara, Aceh 24651";"Pasir Gala, Kec. Lawe Bulan, Kabupaten Aceh Tenggara";"ACEH";"24651";"Indonesia";"";"3.4855108";"97.8143048";"https://maps.google.com/?cid=0x0:0xc120ba523a867fd5"
"perumahan";"Perumahan";"Alas residen, ban ban";"FRQ3+8V, Muara Lawe Bulan, Kec. Babussalam, Kabupaten Aceh Tenggara, Aceh 24651";"Muara Lawe Bulan, Kec. Babussalam, Kabupaten Aceh Tenggara";"ACEH";"24651";"Indonesia";"";"3.488275";"97.8047703";"https://maps.google.com/?cid=0x0:0xb52e8e027742c175"
"perumahan";"Komplek perumahan";"Tigan Noah";"FRR4+XF6 Batu mbulan, Pulonas, Kec. Babussalam, Kabupaten Aceh Tenggara, Aceh 24651";"Pulonas, Kec. Babussalam, Kabupaten Aceh Tenggara";"ACEH";"24651";"Indonesia";"";"3.4924033";"97.8061517";"https://maps.google.com/?cid=0x0:0xc2b38bf1f4c2573b"
"perumahan";"Komplek perumahan";"Rumah Anwar";"FRF7+RH6, Perapat Sepakat, Kec. Babussalam, Kabupaten Aceh Tenggara, Aceh 24651";"Perapat Sepakat, Kec. Babussalam, Kabupaten Aceh Tenggara";"ACEH";"24651";"Indonesia";"";"3.4743577";"97.8138925";"https://maps.google.com/?cid=0x0:0xcfcf44a0af4342c9"
"perumahan";"Kantor Perusahaan";"Perumahan Ichi";"FRM5+QV2, Kota Kutacane, Kec. Babussalam, Kabupaten Aceh Tenggara, Aceh 24651";"Kota Kutacane, Kec. Babussalam, Kabupaten Aceh Tenggara";"ACEH";"24651";"Indonesia";"";"3.4843934";"97.8096541";"https://maps.google.com/?cid=0x0:0x947f8b7ed60fe1e9"
"perumahan";"Pembangunan Perumahan";"tempat tinggal abot/bojes";"FRM4+W2X, Muara Lawe Bulan, Kec. Babussalam, Kabupaten Aceh Tenggara, Aceh 24651";"Muara Lawe Bulan, Kec. Babussalam, Kabupaten Aceh Tenggara";"ACEH";"24651";"Indonesia";"";"3.4848157";"97.8047649";"https://maps.google.com/?cid=0x0:0x80b52994b5f5f1ca"
"perumahan";"Komplek perumahan";"Rusli Gayo";"FRR4+6MR, Pulonas, Kec. Babussalam, Kabupaten Aceh Tenggara, Aceh 24651";"Pulonas, Kec. Babussalam, Kabupaten Aceh Tenggara";"ACEH";"24651";"Indonesia";"";"3.490603";"97.8066256";"https://maps.google.com/?cid=0x0:0xf32ef62bef77bbaa"
"perumahan";"Pembangunan Perumahan";"Alas merancar";"GR43+X9X, Alas Merancar, Kec. Babussalam, Kabupaten Aceh Tenggara, Aceh 24651";"Alas Merancar, Kec. Babussalam, Kabupaten Aceh Tenggara";"ACEH";"24651";"Indonesia";"";"3.5074761";"97.8034847";"https://maps.google.com/?cid=0x0:0x247ce409565fb5f2"
"perumahan";"Komplek perumahan";"Perumahan Graha Village Residence";"FRQ4+6Q4, Kota Kutacane, Kec. Babussalam, Kabupaten Aceh Tenggara, Aceh 24651";"Kota Kutacane, Kec. Babussalam, Kabupaten Aceh Tenggara";"ACEH";"24651";"Indonesia";"";"3.4878686";"97.8069426";"https://maps.google.com/?cid=0x0:0xc92338dbcc500c40"
"perumahan";"Komplek perumahan";"Rumah mamak epan";"Jl. Iskandar Muda No.14, Perapat Titi Panjang, Kec. Babussalam, Kabupaten Aceh Tenggara, Aceh 24651";"Perapat Titi Panjang, Kec. Babussalam, Kabupaten Aceh Tenggara";"ACEH";"24651";"Indonesia";"";"3.4775711";"97.8142143";"https://maps.google.com/?cid=0x0:0x541fca86406858a5"
"perumahan";"Taman";"Rumah datok";"FRC9+F59, jl.leuser desa kutarih, Gumpang Jaya, Kec. Babussalam, Kabupaten Aceh Tenggara, Aceh 24651";"jl.leuser desa kutarih, Gumpang Jaya, Kec. Babussalam, Kabupaten Aceh Tenggara";"ACEH";"24651";"Indonesia";"";"3.471086";"97.8181447";"https://maps.google.com/?cid=0x0:0x343ff6321823fc2c"
"perumahan";"perumahan";"Kec. Babussalam";"Kabupaten Aceh Tenggara, Aceh";"Kabupaten Aceh Tenggara, Aceh";"ACEH";"";"Indonesia";"";"3.4831986";"97.812801";"https://maps.google.com/?cid=0x0:0x585c8bae275f9877"
"perumahan";"Pembangunan Perumahan";"Perumahan Alas Residence V";"FRQ3+GWM, Muara Lawe Bulan, Kec. Babussalam, Kabupaten Aceh Tenggara, Aceh 24651";"Muara Lawe Bulan, Kec. Babussalam, Kabupaten Aceh Tenggara";"ACEH";"24651";"Indonesia";" 082272307335";"3.4888447";"97.8047867";"https://maps.google.com/?cid=0x0:0xf841a87f113c7f33"
"perumahan";"Pembangunan Perumahan";"Perumahan Bima Mas Residence III";"FRV4+8J4, Pulonas, Kec. Babussalam, Kabupaten Aceh Tenggara, Aceh 24651";"Pulonas, Kec. Babussalam, Kabupaten Aceh Tenggara";"ACEH";"24651";"Indonesia";" 085296672757";"3.4932666";"97.8065915";"https://maps.google.com/?cid=0x0:0x8c57d5f449998b26"
"perumahan";"Komplek perumahan";"Perumnas Tanah Merah";"GR92+PMM, Tanah Merah, Kec. Badar, Kabupaten Aceh Tenggara, Aceh 24651";"Tanah Merah, Kec. Badar, Kabupaten Aceh Tenggara";"ACEH";"24651";"Indonesia";"";"3.519337";"97.8016746";"https://maps.google.com/?cid=0x0:0xa238a62a4ca77aa5"
"perumahan";"Komplek perumahan";"PERUMAHAN BATUMBULAN ROYAL RESIDENCE";"GR62+8R, Deleng Megakhe, Kec. Badar, Kabupaten Aceh Tenggara, Aceh";"Kabupaten Aceh Tenggara, Aceh";"ACEH";"";"Indonesia";"";"3.5108249";"97.8021075";"https://maps.google.com/?cid=0x0:0xb4ceba63a0609706"
"perumahan";"Komplek perumahan";"M.Rifky Pratama";"FRQ4+FGH Dusun Ban-ban, Pulonas, Kec. Babussalam, Kabupaten Aceh Tenggara, Aceh 24651";"Pulonas, Kec. Babussalam, Kabupaten Aceh Tenggara";"ACEH";"24651";"Indonesia";"";"3.4886867";"97.8063617";"https://maps.google.com/?cid=0x0:0x5b05b9fa26b06c1"
"perumahan";"Komplek perumahan";"Desa Mendabe";"GQ6R+J94, Medabe, Kec. Babussalam, Kabupaten Aceh Tenggara, Aceh 24651";"Medabe, Kec. Babussalam, Kabupaten Aceh Tenggara";"ACEH";"24651";"Indonesia";"";"3.5115229";"97.79096";"https://maps.google.com/?cid=0x0:0x7e9d3134433a1a37"
"perumahan";"Perumahan";"Alas residen, ban ban";"FRQ3+8V, Muara Lawe Bulan, Kec. Babussalam, Kabupaten Aceh Tenggara, Aceh 24651";"Muara Lawe Bulan, Kec. Babussalam, Kabupaten Aceh Tenggara";"ACEH";"24651";"Indonesia";"";"3.488275";"97.8047703";"https://maps.google.com/?cid=0x0:0xb52e8e027742c175"
"perumahan";"Balai Kota";"Kotacane";"Pulo Sanggar, Kec. Babussalam, Kabupaten Aceh Tenggara, Aceh 24454";"Kec. Babussalam, Kabupaten Aceh Tenggara";"ACEH";"24454";"Indonesia";"";"3.4811332";"97.8062055";"https://maps.google.com/?cid=0x0:0x3044acae9e9d9e9e"
"perumahan";"Komplek perumahan";"Rumah Zibar";"FRP7+GFQ, Kota Kutacane, Kec. Babussalam, Kabupaten Aceh Tenggara, Aceh 24651";"Kota Kutacane, Kec. Babussalam, Kabupaten Aceh Tenggara";"ACEH";"24651";"Indonesia";"";"3.4863254";"97.8137434";"https://maps.google.com/?cid=0x0:0x41ebb5bda718bf7b"
"perumahan";"Komplek perumahan";"Rumah mamak epan";"Jl. Iskandar Muda No.14, Perapat Titi Panjang, Kec. Babussalam, Kabupaten Aceh Tenggara, Aceh 24651";"Perapat Titi Panjang, Kec. Babussalam, Kabupaten Aceh Tenggara";"ACEH";"24651";"Indonesia";"";"3.4775711";"97.8142143";"https://maps.google.com/?cid=0x0:0x541fca86406858a5"
"perumahan";"Komplek perumahan";"Perumahan Graha Village Residence";"FRQ4+6Q4, Kota Kutacane, Kec. Babussalam, Kabupaten Aceh Tenggara, Aceh 24651";"Kota Kutacane, Kec. Babussalam, Kabupaten Aceh Tenggara";"ACEH";"24651";"Indonesia";"";"3.4878686";"97.8069426";"https://maps.google.com/?cid=0x0:0xc92338dbcc500c40"
"perumahan";"Komplek perumahan";"Desa kute pulosanggar";"FRM5+87P, Unnamed Road, Kota Kutacane, Kec. Babussalam, Kabupaten Aceh Tenggara, Aceh 24651";"Unnamed Road, Kota Kutacane, Kec. Babussalam, Kabupaten Aceh Tenggara";"ACEH";"24651";"Indonesia";"";"3.4833421";"97.808202";"https://maps.google.com/?cid=0x0:0x812298a4046de9a6"
"perumahan";"perumahan";"RUMAH WAWAN DESKY";"FRP7+4RX, Pasir Gala, Kec. Lawe Bulan, Kabupaten Aceh Tenggara, Aceh 24651";"Pasir Gala, Kec. Lawe Bulan, Kabupaten Aceh Tenggara";"ACEH";"24651";"Indonesia";"";"3.4855108";"97.8143048";"https://maps.google.com/?cid=0x0:0xc120ba523a867fd5"
"perumahan";"perumahan";"Kec. Badar";"Kabupaten Aceh Tenggara, Aceh";"Kabupaten Aceh Tenggara, Aceh";"ACEH";"";"Indonesia";"";"3.5177072";"97.8029595";"https://maps.google.com/?cid=0x0:0xd42fb9bff7e8b819"
"perumahan";"Komplek perumahan";"Perumahan Grya Badar Indah";"GR74+5GF, Badar Indah, Kec. Badar, Kabupaten Aceh Tenggara, Aceh 24651";"Badar Indah, Kec. Badar, Kabupaten Aceh Tenggara";"ACEH";"24651";"Indonesia";"";"3.512927";"97.8063038";"https://maps.google.com/?cid=0x0:0xb9cd8c2f0e2277cc"
"perumahan";"Perhimpunan Pengembang Perumahan";"Komplek Perumahan Ir. Hj. Hasanuddin B";"GRC3+258, Hutan, Kec. Badar, Kabupaten Aceh Tenggara, Aceh 24651";"Hutan, Kec. Badar, Kabupaten Aceh Tenggara";"ACEH";"24651";"Indonesia";"";"3.5200357";"97.8029391";"https://maps.google.com/?cid=0x0:0xda828f7575d6dd34"
"perumahan";"perumahan";"RUMAH WAWAN DESKY";"FRP7+4RX, Pasir Gala, Kec. Lawe Bulan, Kabupaten Aceh Tenggara, Aceh 24651";"Pasir Gala, Kec. Lawe Bulan, Kabupaten Aceh Tenggara";"ACEH";"24651";"Indonesia";"";"3.4855108";"97.8143048";"https://maps.google.com/?cid=0x0:0xc120ba523a867fd5"
"perumahan";"Komplek perumahan";"rumah her";"GRC2+Q26, Tanah Merah, Kec. Badar, Kabupaten Aceh Tenggara, Aceh 24651";"Tanah Merah, Kec. Badar, Kabupaten Aceh Tenggara";"ACEH";"24651";"Indonesia";"";"3.5217922";"97.8000985";"https://maps.google.com/?cid=0x0:0x67e274f906e6b73e"
"perumahan";"Komplek perumahan";"Rumah Legendaris";"GQFQ+87, Kp. Baru, Kec. Badar, Kabupaten Aceh Tenggara, Aceh";"Kabupaten Aceh Tenggara, Aceh";"ACEH";"";"Indonesia";"";"3.523353";"97.788186";"https://maps.google.com/?cid=0x0:0x7e090a45e973432f"
"perumahan";"Komplek perumahan";"Tempat tinggal Mansur";"blok AA.10, Kumbang Indah, Kec. Badar, Kabupaten Aceh Tenggara, Aceh 24651";"Kumbang Indah, Kec. Badar, Kabupaten Aceh Tenggara";"ACEH";"24651";"Indonesia";"";"3.52055";"97.7932143";"https://maps.google.com/?cid=0x0:0x80f81cf8afad46c6"
"perumahan";"Komplek perumahan";"Perumnas Tanah Merah";"GR92+PMM, Tanah Merah, Kec. Badar, Kabupaten Aceh Tenggara, Aceh 24651";"Tanah Merah, Kec. Badar, Kabupaten Aceh Tenggara";"ACEH";"24651";"Indonesia";"";"3.519337";"97.8016746";"https://maps.google.com/?cid=0x0:0xa238a62a4ca77aa5"
"perumahan";"perumahan";"Rumah AL";"GQGR+VCR, Kp. Baru, Kec. Badar, Kabupaten Aceh Tenggara, Aceh 24651";"Kp. Baru, Kec. Badar, Kabupaten Aceh Tenggara";"ACEH";"24651";"Indonesia";"";"3.5272382";"97.7910218";"https://maps.google.com/?cid=0x0:0xf979ee012d895ffa"
"perumahan";"Komplek perumahan";"Rumah Radza";"GRC2+Q26, Tanah Merah, Kec. Badar, Kabupaten Aceh Tenggara, Aceh 24651";"Tanah Merah, Kec. Badar, Kabupaten Aceh Tenggara";"ACEH";"24651";"Indonesia";"";"3.5219186";"97.800029";"https://maps.google.com/?cid=0x0:0xccf4fd8a3ad3d9de"
"perumahan";"Perhimpunan Pengembang Perumahan";"Rumah Yulia";"GQJP+729, Kumbang Jaya, Kec. Badar, Kabupaten Aceh Tenggara, Aceh";"Kabupaten Aceh Tenggara, Aceh";"ACEH";"";"Indonesia";"";"3.5306621";"97.7851233";"https://maps.google.com/?cid=0x0:0xfea2d521f15a9529"
"perumahan";"Pembangunan Perumahan";"Rumah Amek Bulek";"GQ6Q+PVQ, Medabe, Kec. Badar, Kabupaten Aceh Tenggara, Aceh 24651";"Medabe, Kec. Badar, Kabupaten Aceh Tenggara";"ACEH";"24651";"Indonesia";"";"3.5118372";"97.7897261";"https://maps.google.com/?cid=0x0:0xa6605642c1da305e"
"perumahan";"Komplek perumahan";"Rumah Desma";"GQGJ+RRM, kumbamg jaya, Kec. Badar, Kabupaten Aceh Tenggara, Aceh 24651";"kumbamg jaya, Kec. Badar, Kabupaten Aceh Tenggara";"ACEH";"24651";"Indonesia";"";"3.5268152";"97.7819443";"https://maps.google.com/?cid=0x0:0xd11689f8cbe9709d"
"perumahan";"Pembangunan Perumahan";"Bima Mas Residence II";"GRC2+WFW, Tanah Merah, Kec. Badar, Kabupaten Aceh Tenggara, Aceh 24651";"Tanah Merah, Kec. Badar, Kabupaten Aceh Tenggara";"ACEH";"24651";"Indonesia";"";"3.5223517";"97.8012167";"https://maps.google.com/?cid=0x0:0x6f823ff1743bd86d"
"perumahan";"perumahan";"Aceh 24651";"Kec. Rikit Gaib, Kabupaten Aceh Tenggara, Aceh";"Kabupaten Aceh Tenggara, Aceh";"ACEH";"";"Indonesia";"";"3.4880147";"97.8068851";"https://maps.google.com/?cid=0x0:0x711f6d12884ebd87"
"perumahan";"Pertanian";"Deni Kuning 1 Kecamatan Bambel Kabupaten Aceh Tenggara";"CVR8+M9J, Jl. Kutacane-Tigabinanga, Kuning II, Kec. Bambel, Kabupaten Aceh Tenggara, Aceh 24671";"Jl. Kutacane-Tigabinanga, Kuning II, Kec. Bambel, Kabupaten Aceh Tenggara";"ACEH";"24671";"Indonesia";"";"3.4417053";"97.8658926";"https://maps.google.com/?cid=0x0:0xcb679bebcc45bc7e"
"perumahan";"perumahan";"Kec. Bambel";"Kabupaten Aceh Tenggara, Aceh";"Kabupaten Aceh Tenggara, Aceh";"ACEH";"";"Indonesia";"";"3.4422788";"97.8643738";"https://maps.google.com/?cid=0x0:0x59e17e7fdd3262c2"
"perumahan";"Pembangunan Perumahan";"XII PLUS D SMANSA";"Jl. Iskandar Muda No.2, Bambel, Kec. Bambel, Kabupaten Aceh Tenggara, Aceh 24651";"Bambel, Kec. Bambel, Kabupaten Aceh Tenggara";"ACEH";"24651";"Indonesia";"";"3.4664531";"97.8260688";"https://maps.google.com/?cid=0x0:0x28d1eb2f3a15ffc4"
"perumahan";"Komplek perumahan";"Aceh tenggara";"FR2M+3GH, Kute Antara, Kec. Bambel, Kabupaten Aceh Tenggara, Aceh 24651";"Kute Antara, Kec. Bambel, Kabupaten Aceh Tenggara";"ACEH";"24651";"Indonesia";"";"3.450173";"97.833866";"https://maps.google.com/?cid=0x0:0xba914d87c7a30f15"
"perumahan";"Komplek perumahan";"Ade skd";"FR4J+FJM, Bambel Gabungan, Kec. Bambel, Kabupaten Aceh Tenggara, Aceh 24651";"Bambel Gabungan, Kec. Bambel, Kabupaten Aceh Tenggara";"ACEH";"24651";"Indonesia";"";"3.4562163";"97.8315518";"https://maps.google.com/?cid=0x0:0x3d47977ecabb6c"
"perumahan";"Komplek perumahan";"Rumah wak butet";"CVV3+82, Kuta Lang Lang, Kec. Bambel, Kabupaten Aceh Tenggara, Aceh 24651";"Kuta Lang Lang, Kec. Bambel, Kabupaten Aceh Tenggara";"ACEH";"24651";"Indonesia";"";"3.4432799";"97.8525521";"https://maps.google.com/?cid=0x0:0xc259699b30a13937"
"perumahan";"Komplek perumahan";"Rumah sari";"FV29+C2, Pulo Kedondong, Kec. Bambel, Kabupaten Aceh Tenggara, Aceh 24651";"Pulo Kedondong, Kec. Bambel, Kabupaten Aceh Tenggara";"ACEH";"24651";"Indonesia";"";"3.4510574";"97.8676748";"https://maps.google.com/?cid=0x0:0x27a581928fc26194"
"perumahan";"Komplek perumahan";"Fikri";"FR4H+V89, Bambel Gabungan, Kec. Bambel, Kabupaten Aceh Tenggara, Aceh 24651";"Bambel Gabungan, Kec. Bambel, Kabupaten Aceh Tenggara";"ACEH";"24651";"Indonesia";"";"3.4580984";"97.8277419";"https://maps.google.com/?cid=0x0:0x101c184631e673d8"
"perumahan";"Komplek perumahan";"Rumah Zaka";"FR3H+P9, Bambel Gabungan, Kec. Bambel, Kabupaten Aceh Tenggara, Aceh";"Kabupaten Aceh Tenggara, Aceh";"ACEH";"";"Indonesia";"";"3.4542998";"97.8284805";"https://maps.google.com/?cid=0x0:0x3cfdf13d025767a2"
"perumahan";"Perhimpunan Pengembang Perumahan";"Rumah Pak Mus";"FR5H+QV8, Jl. Iskandar Muda, Bambel Gabungan, Kec. Bambel, Kabupaten Aceh Tenggara, Aceh 24651";"Jl. Iskandar Muda, Bambel Gabungan, Kec. Bambel, Kabupaten Aceh Tenggara";"ACEH";"24651";"Indonesia";"";"3.4594227";"97.8297101";"https://maps.google.com/?cid=0x0:0x8894e1b0804b2f53"
"perumahan";"Penjaga Rumah";"RUMAH AHLUN";"FR4V+FMV, Biak Muli Sejahtera, Kec. Bambel, Kabupaten Aceh Tenggara, Aceh 24651";"Biak Muli Sejahtera, Kec. Bambel, Kabupaten Aceh Tenggara";"ACEH";"24651";"Indonesia";" 081268996859";"3.4562464";"97.8441756";"https://maps.google.com/?cid=0x0:0x85b5a5f792c90ece"
"perumahan";"Komplek perumahan";"Rumah darwinsyah";"CVRG+FF5, Cinta Damai, Kec. Bambel, Kabupaten Aceh Tenggara, Aceh 24651";"Cinta Damai, Kec. Bambel, Kabupaten Aceh Tenggara";"ACEH";"24651";"Indonesia";"";"3.4411292";"97.8762417";"https://maps.google.com/?cid=0x0:0x9e234d24535d1407"
"perumahan";"Komplek perumahan";"Rumah bibik";"CRVQ+3V, Pedesi, Kec. Bambel, Kabupaten Aceh Tenggara, Aceh";"Kabupaten Aceh Tenggara, Aceh";"ACEH";"";"Indonesia";"";"3.4426677";"97.8397069";"https://maps.google.com/?cid=0x0:0xb11de6feaf7ea1ec"
"perumahan";"Komplek perumahan";"Rumah Mak Sulas";"9WV4+593, Suka Makmur, Kec. Semadam, Kabupaten Aceh Tenggara, Aceh 24671";"Suka Makmur, Kec. Semadam, Kabupaten Aceh Tenggara";"ACEH";"24671";"Indonesia";"";"3.3928862";"97.905922";"https://maps.google.com/?cid=0x0:0x2579ef4b1517dc98"
"perumahan";"Komplek perumahan";"Rumah darwinsyah";"CVRG+FF5, Cinta Damai, Kec. Bambel, Kabupaten Aceh Tenggara, Aceh 24651";"Cinta Damai, Kec. Bambel, Kabupaten Aceh Tenggara";"ACEH";"24651";"Indonesia";"";"3.4411292";"97.8762417";"https://maps.google.com/?cid=0x0:0x9e234d24535d1407"
"perumahan";"perumahan";"Aceh 24671";"Kabupaten Aceh Tenggara, Aceh";"Kabupaten Aceh Tenggara, Aceh";"ACEH";"";"Indonesia";"";"3.3974891";"97.8612767";"https://maps.google.com/?cid=0x0:0x2f1eb6944610f143"
"perumahan";"Komplek perumahan";"Aceh tenggara";"FR2M+3GH, Kute Antara, Kec. Bambel, Kabupaten Aceh Tenggara, Aceh 24651";"Kute Antara, Kec. Bambel, Kabupaten Aceh Tenggara";"ACEH";"24651";"Indonesia";"";"3.450173";"97.833866";"https://maps.google.com/?cid=0x0:0xba914d87c7a30f15"
"perumahan";"Komplek perumahan";"Rumah wak butet";"CVV3+82, Kuta Lang Lang, Kec. Bambel, Kabupaten Aceh Tenggara, Aceh 24651";"Kuta Lang Lang, Kec. Bambel, Kabupaten Aceh Tenggara";"ACEH";"24651";"Indonesia";"";"3.4432799";"97.8525521";"https://maps.google.com/?cid=0x0:0xc259699b30a13937"
"perumahan";"Komplek perumahan";"Sulastri pinim";"CRGX+PF, Tualang Sembilar Baru, Kec. Bambel, Kabupaten Aceh Tenggara, Aceh";"Kabupaten Aceh Tenggara, Aceh";"ACEH";"";"Indonesia";"";"3.426779";"97.848744";"https://maps.google.com/?cid=0x0:0xa19084063cb777e4"
"perumahan";"Komplek perumahan";"Rumah berkah";"CVHM+2X2, Darussalam, Kec. Bukit Tusam, Kabupaten Aceh Tenggara, Aceh 24671";"Darussalam, Kec. Bukit Tusam, Kabupaten Aceh Tenggara";"ACEH";"24671";"Indonesia";"";"3.4275046";"97.8848911";"https://maps.google.com/?cid=0x0:0xbb435b6e69c518dc"
"perumahan";"Komplek perumahan";"Rumah sari";"FV29+C2, Pulo Kedondong, Kec. Bambel, Kabupaten Aceh Tenggara, Aceh 24651";"Pulo Kedondong, Kec. Bambel, Kabupaten Aceh Tenggara";"ACEH";"24651";"Indonesia";"";"3.4510574";"97.8676748";"https://maps.google.com/?cid=0x0:0x27a581928fc26194"
"perumahan";"Komplek perumahan";"Rumah Muhammad Fikri";"CRWM+7VJ, Biak Muli Baru, Kec. Bambel, Kabupaten Aceh Tenggara, Aceh 24651";"Biak Muli Baru, Kec. Bambel, Kabupaten Aceh Tenggara";"ACEH";"24651";"Indonesia";"";"3.4463015";"97.8345456";"https://maps.google.com/?cid=0x0:0xba73941e2c91f179"
"perumahan";"Pembangunan Perumahan";"DESA KUTA GEKHAT";"CV79+F5W, Kute Gekhat, Kec. Bukit Tusam, Kabupaten Aceh Tenggara, Aceh 24671";"Kute Gekhat, Kec. Bukit Tusam, Kabupaten Aceh Tenggara";"ACEH";"24671";"Indonesia";"";"3.4137232";"97.8679229";"https://maps.google.com/?cid=0x0:0x4faf48e7f94ae459"
"perumahan";"Komplek perumahan";"Rumah Zaka";"FR3H+P9, Bambel Gabungan, Kec. Bambel, Kabupaten Aceh Tenggara, Aceh";"Kabupaten Aceh Tenggara, Aceh";"ACEH";"";"Indonesia";"";"3.4542998";"97.8284805";"https://maps.google.com/?cid=0x0:0x3cfdf13d025767a2"
"perumahan";"Pembangunan Perumahan";"Desa mutiara damai";"9V2G+G6C, Mutiara Damai, Kec. Babul Rahman, Kabupaten Aceh Tenggara, Aceh 24671";"Mutiara Damai, Kec. Babul Rahman, Kabupaten Aceh Tenggara";"ACEH";"24671";"Indonesia";"";"3.3513234";"97.8755031";"https://maps.google.com/?cid=0x0:0x597b6440a88bec61"
"perumahan";"Pembangunan Perumahan";"Mutiara damai";"8VW9+JHH, Mutiara Damai, Kec. Babul Rahman, Kabupaten Aceh Tenggara, Aceh 24671";"Mutiara Damai, Kec. Babul Rahman, Kabupaten Aceh Tenggara";"ACEH";"24671";"Indonesia";"";"3.3465563";"97.8689818";"https://maps.google.com/?cid=0x0:0x204ac0372942884e"
"perumahan";"Komplek perumahan";"Surya Swanda";"Desa Empat Lima No.69, Lawe Dua Gab, Kec. Bukit Tusam, Kabupaten Aceh Tenggara, Aceh 24671";"Lawe Dua Gab, Kec. Bukit Tusam, Kabupaten Aceh Tenggara";"ACEH";"24671";"Indonesia";"";"3.4306303";"97.8850676";"https://maps.google.com/?cid=0x0:0x261f15decb2ab3ae"
"perumahan";"perumahan";"Kec. Bukit Tusam";"Kabupaten Aceh Tenggara, Aceh";"Kabupaten Aceh Tenggara, Aceh";"ACEH";"";"Indonesia";"";"3.4266977";"97.8877166";"https://maps.google.com/?cid=0x0:0xf9f3969c7ad2c2c1"
"perumahan";"Komplek perumahan";"Surya Swanda";"Desa Empat Lima No.69, Lawe Dua Gab, Kec. Bukit Tusam, Kabupaten Aceh Tenggara, Aceh 24671";"Lawe Dua Gab, Kec. Bukit Tusam, Kabupaten Aceh Tenggara";"ACEH";"24671";"Indonesia";"";"3.4306303";"97.8850676";"https://maps.google.com/?cid=0x0:0x261f15decb2ab3ae"
"perumahan";"Pembangunan Perumahan";"DESA KUTA GEKHAT";"CV79+F5W, Kute Gekhat, Kec. Bukit Tusam, Kabupaten Aceh Tenggara, Aceh 24671";"Kute Gekhat, Kec. Bukit Tusam, Kabupaten Aceh Tenggara";"ACEH";"24671";"Indonesia";"";"3.4137232";"97.8679229";"https://maps.google.com/?cid=0x0:0x4faf48e7f94ae459"
"perumahan";"Komplek perumahan";"Rumah kecil";"CV65+F6W, Mbak Sako, Kec. Bukit Tusam, Kabupaten Aceh Tenggara, Aceh 24671";"Mbak Sako, Kec. Bukit Tusam, Kabupaten Aceh Tenggara";"ACEH";"24671";"Indonesia";"";"3.411232";"97.8580802";"https://maps.google.com/?cid=0x0:0x2ad5b38577bc197"
"perumahan";"Komplek perumahan";"Kute lengat selian";"CV84+CP2, Kuta Lengat Selian, Kec. Bukit Tusam, Kabupaten Aceh Tenggara, Aceh 24671";"Kuta Lengat Selian, Kec. Bukit Tusam, Kabupaten Aceh Tenggara";"ACEH";"24671";"Indonesia";"";"3.4160193";"97.8567769";"https://maps.google.com/?cid=0x0:0x65cfa3cd9feda224"
"perumahan";"Komplek perumahan";"Rumah tinggal";"CV99+F6G, Kuta Lingga, Kec. Bukit Tusam, Kabupaten Aceh Tenggara, Aceh 24671";"Kuta Lingga, Kec. Bukit Tusam, Kabupaten Aceh Tenggara";"ACEH";"24671";"Indonesia";"";"3.4186851";"97.8680786";"https://maps.google.com/?cid=0x0:0x35230458e05232fd"
"perumahan";"Pembangunan Perumahan";"Rumah selvi";"CVGH+5VJ, Lawe Dua Gab, Kec. Bukit Tusam, Kabupaten Aceh Tenggara, Aceh";"Kabupaten Aceh Tenggara, Aceh";"ACEH";"";"Indonesia";"";"3.4254672";"97.8796433";"https://maps.google.com/?cid=0x0:0xef7e81bbebd4e318"
"perumahan";"Komplek perumahan";"Rumah Mek Ivan";"CV99+F6G, Kuta Lingga, Kec. Bukit Tusam, Kabupaten Aceh Tenggara, Aceh 24671";"Kuta Lingga, Kec. Bukit Tusam, Kabupaten Aceh Tenggara";"ACEH";"24671";"Indonesia";"";"3.418049";"97.867579";"https://maps.google.com/?cid=0x0:0x672a05266a030a50"
"perumahan";"Komplek perumahan";"Rumah Zen";"CVPJ+FGC, Rikit Bur II, Kec. Bukit Tusam, Kabupaten Aceh Tenggara, Aceh 24651";"Rikit Bur II, Kec. Bukit Tusam, Kabupaten Aceh Tenggara";"ACEH";"24651";"Indonesia";"";"3.4362877";"97.880781";"https://maps.google.com/?cid=0x0:0x6432ecfb6fac883e"
"perumahan";"Gedung Apartemen";"Rumah wawansyah";"9VX4+M7J, Bambel Baru, Kec. Bukit Tusam, Kabupaten Aceh Tenggara, Aceh 24671";"Bambel Baru, Kec. Bukit Tusam, Kabupaten Aceh Tenggara";"ACEH";"24671";"Indonesia";"";"3.39921";"97.8556462";"https://maps.google.com/?cid=0x0:0x549d19266e45282c"
"perumahan";"Komplek perumahan";"Rumah BAYU";"CVHQ+88M, Pejuang, Kec. Bukit Tusam, Kabupaten Aceh Tenggara, Aceh";"Kabupaten Aceh Tenggara, Aceh";"ACEH";"";"Indonesia";"";"3.4283283";"97.8883084";"https://maps.google.com/?cid=0x0:0x4c3a60464a01e011"
"perumahan";"Komplek perumahan";"Toko obat Nurul Husada";"CVFR+GFC, Darussalam, Kec. Bukit Tusam, Kabupaten Aceh Tenggara, Aceh 24671";"Darussalam, Kec. Bukit Tusam, Kabupaten Aceh Tenggara";"ACEH";"24671";"Indonesia";"";"3.4239953";"97.8910191";"https://maps.google.com/?cid=0x0:0xfdad95d801679dff"
"perumahan";"Komplek perumahan";"Rumah Amel";"9VX5+22G, Alur Buluh, Kec. Bukit Tusam, Kabupaten Aceh Tenggara, Aceh 24671";"Alur Buluh, Kec. Bukit Tusam, Kabupaten Aceh Tenggara";"ACEH";"24671";"Indonesia";"";"3.3975267";"97.8574944";"https://maps.google.com/?cid=0x0:0xa455904f266e0072"
"perumahan";"Komplek perumahan";"Rumah poli";"CVHQ+CF5, Pejuang, Kec. Bukit Tusam, Kabupaten Aceh Tenggara, Aceh";"Kabupaten Aceh Tenggara, Aceh";"ACEH";"";"Indonesia";"";"3.4285052";"97.8887482";"https://maps.google.com/?cid=0x0:0xb5ae0da4ec07c22b"
"perumahan";"perumahan";"Kec. Darul Hasanah";"Hutan, Kabupaten Aceh Tenggara, Aceh";"Kabupaten Aceh Tenggara, Aceh";"ACEH";"";"Indonesia";"";"3.510025";"97.5680595";"https://maps.google.com/?cid=0x0:0x7c94df74c0ccabf5"
"perumahan";"perumahan";"Aceh 24653";"Aceh";"Aceh";"ACEH";"";"Indonesia";"";"3.510025";"97.5680595";"https://maps.google.com/?cid=0x0:0xfbadf244defba520"
"perumahan";"Komplek perumahan";"rumah nah";"GQFF+HCW, Gulo, Kec. Darul Hasanah, Kabupaten Aceh Tenggara, Aceh";"Kabupaten Aceh Tenggara, Aceh";"ACEH";"";"Indonesia";"";"3.5239975";"97.7735908";"https://maps.google.com/?cid=0x0:0x7709d7545eec193d"
"perumahan";"Komplek perumahan";"Rumah mek moli";"HPJR+63, Rambung Jaya, Kec. Darul Hasanah, Kabupaten Aceh Tenggara, Aceh";"Kabupaten Aceh Tenggara, Aceh";"ACEH";"";"Indonesia";"";"3.5804989";"97.7401734";"https://maps.google.com/?cid=0x0:0x1302dd94bb2f71b7"
"perumahan";"Komplek perumahan";"Tj Leuser";"HQ74+G97, Tj. Aman, Kec. Darul Hasanah, Kabupaten Aceh Tenggara, Aceh 24651";"Tj. Aman, Kec. Darul Hasanah, Kabupaten Aceh Tenggara";"ACEH";"24651";"Indonesia";"";"3.5636711";"97.756172";"https://maps.google.com/?cid=0x0:0x29875ff80071b123"
"perumahan";"Komplek perumahan";"Rumah Taat";"HQ56+3PV, Mamas, Kec. Darul Hasanah, Kabupaten Aceh Tenggara, Aceh";"Kabupaten Aceh Tenggara, Aceh";"ACEH";"";"Indonesia";"";"3.5577497";"97.7617908";"https://maps.google.com/?cid=0x0:0xb361ffabccab2d4f"
"perumahan";"Perhimpunan Pengembang Perumahan";"Arifin pg";"GQJC+V38, Pulo Gadung, Kec. Darul Hasanah, Kabupaten Aceh Tenggara, Aceh 24562";"Pulo Gadung, Kec. Darul Hasanah, Kabupaten Aceh Tenggara";"ACEH";"24562";"Indonesia";"";"3.5321731";"97.7701944";"https://maps.google.com/?cid=0x0:0x297a12693cca7a9f"
"perumahan";"Pembangunan Perumahan";"Jabo";"X84W+9XW, Unnamed Road, Penggalangan, Kec. Blangkejeren, Kabupaten Gayo Lues, Aceh 24653";"Unnamed Road, Penggalangan, Kec. Blangkejeren, Kabupaten Gayo Lues";"ACEH";"24653";"Indonesia";"";"3.9559775";"97.3474435";"https://maps.google.com/?cid=0x0:0xd3b8205a55d32e31"
"perumahan";"Perhimpunan Pengembang Perumahan";"Dul";"JPJ2+7W3, Buntul Kendawi, Kec. Darul Hasanah, Kabupaten Aceh Tenggara, Aceh 24652";"Buntul Kendawi, Kec. Darul Hasanah, Kabupaten Aceh Tenggara";"ACEH";"24652";"Indonesia";"";"3.6306267";"97.7022988";"https://maps.google.com/?cid=0x0:0xd57a88e18fe2f3d"
"perumahan";"Perhimpunan Pengembang Perumahan";"Drilian";"GQJC+V38, Pulo Gadung, Kec. Darul Hasanah, Kabupaten Aceh Tenggara, Aceh 24562";"Pulo Gadung, Kec. Darul Hasanah, Kabupaten Aceh Tenggara";"ACEH";"24562";"Indonesia";"";"3.5321731";"97.7701944";"https://maps.google.com/?cid=0x0:0x574e64835f5b89cd"
"perumahan";"Perhimpunan Pengembang Perumahan";"Khumah maida";"GQM6+MPQ, Unnamed Road, Pulo Piku, Kec. Darul Hasanah, Kabupaten Aceh Tenggara, Aceh 24562";"Unnamed Road, Pulo Piku, Kec. Darul Hasanah, Kabupaten Aceh Tenggara";"ACEH";"24562";"Indonesia";"";"3.5342214";"97.7618452";"https://maps.google.com/?cid=0x0:0xbf8b38c83d755ec5"
"perumahan";"Komplek perumahan";"Rumah najla";"X89W+3J5, Lempuh, Kec. Blangkejeren, Kabupaten Gayo Lues, Aceh 24653";"Lempuh, Kec. Blangkejeren, Kabupaten Gayo Lues";"ACEH";"24653";"Indonesia";"";"3.9676348";"97.3466077";"https://maps.google.com/?cid=0x0:0x769145a02be6e25"
"perumahan";"Komplek perumahan";"M. Rian Nanda";"GQV5+M9X, Hutan, Kec. Darul Hasanah, Kabupaten Aceh Tenggara, Aceh 24651";"Hutan, Kec. Darul Hasanah, Kabupaten Aceh Tenggara";"ACEH";"24651";"Indonesia";"";"3.5442448";"97.7584924";"https://maps.google.com/?cid=0x0:0x3f21d6cd0bf5a4d3"
"perumahan";"Perhimpunan Pengembang Perumahan";"Rumah Mek ndya";"GQX7+G89, Kuta Ujung, Kec. Darul Hasanah, Kabupaten Aceh Tenggara, Aceh 24651";"Kuta Ujung, Kec. Darul Hasanah, Kabupaten Aceh Tenggara";"ACEH";"24651";"Indonesia";"";"3.5487448";"97.7633382";"https://maps.google.com/?cid=0x0:0x5d9b44ca0686808d"
"perumahan";"perumahan";"RUMAH WAWAN DESKY";"FRP7+4RX, Pasir Gala, Kec. Lawe Bulan, Kabupaten Aceh Tenggara, Aceh 24651";"Pasir Gala, Kec. Lawe Bulan, Kabupaten Aceh Tenggara";"ACEH";"24651";"Indonesia";"";"3.4855108";"97.8143048";"https://maps.google.com/?cid=0x0:0xc120ba523a867fd5"
"perumahan";"perumahan";"Kec. Deleng Pokhkisen";"Kabupaten Aceh Tenggara, Aceh";"Kabupaten Aceh Tenggara, Aceh";"ACEH";"";"Indonesia";"";"3.5153217";"97.8178384";"https://maps.google.com/?cid=0x0:0xc6a755f2ab2e1b8f"
"perumahan";"Perumahan";"PERUMAHAN ALAS RESIDENCE III";"Perumahan alas residence lll, Muhajirin, Kec. Deleng Pokhkisen, Kabupaten Aceh Tenggara, Aceh 24651";"Muhajirin, Kec. Deleng Pokhkisen, Kabupaten Aceh Tenggara";"ACEH";"24651";"Indonesia";" 081363249921";"3.5059112";"97.8176247";"https://maps.google.com/?cid=0x0:0x6c86a830cb21597d"
"perumahan";"Komplek perumahan";"Rumah kamarudin";"GRGF+Q5R, Hutan, Kec. Deleng Pokhkisen, Kabupaten Aceh Tenggara, Aceh 24651";"Hutan, Kec. Deleng Pokhkisen, Kabupaten Aceh Tenggara";"ACEH";"24651";"Indonesia";"";"3.5269751";"97.8229052";"https://maps.google.com/?cid=0x0:0x7b0444e3251d910f"
"perumahan";"Komplek perumahan";"Rumah Mek Anto";"GR7F+WX4, Unnamed Road, Ranto Diur, Kec. Deleng Pokhkisen, Kabupaten Aceh Tenggara, Aceh 24651";"Unnamed Road, Ranto Diur, Kec. Deleng Pokhkisen, Kabupaten Aceh Tenggara";"ACEH";"24651";"Indonesia";"";"3.5147524";"97.8249494";"https://maps.google.com/?cid=0x0:0xb4827ff266afff9d"
"perumahan";"Pembangunan Perumahan";"Rumah anna";"GR5F+G4R, Ranto Diur, Kec. Deleng Pokhkisen, Kabupaten Aceh Tenggara, Aceh 24651";"Ranto Diur, Kec. Deleng Pokhkisen, Kabupaten Aceh Tenggara";"ACEH";"24651";"Indonesia";"";"3.508869";"97.8227633";"https://maps.google.com/?cid=0x0:0xbc7c8fc9e2cf26"
"perumahan";"Komplek perumahan";"Dorbest";"GR3J+H5F, Terutung Mbelang, Kec. Deleng Pokhkisen, Kabupaten Aceh Tenggara, Aceh 24651";"Terutung Mbelang, Kec. Deleng Pokhkisen, Kabupaten Aceh Tenggara";"ACEH";"24651";"Indonesia";"";"3.5039445";"97.8304122";"https://maps.google.com/?cid=0x0:0x755cb053a16da9a1"
"perumahan";"perumahan";"Rumah Al Baqir";"FRX6+CHQ, Tualang Lama, Kec. Deleng Pokhkisen, Kabupaten Aceh Tenggara, Aceh 24651";"Tualang Lama, Kec. Deleng Pokhkisen, Kabupaten Aceh Tenggara";"ACEH";"24651";"Indonesia";"";"3.4985107";"97.8115878";"https://maps.google.com/?cid=0x0:0xc6ef425f3f5bb774"
"perumahan";"Perhimpunan Pengembang Perumahan";"Komplek Perumahan dr. Bukhari, Desa Lawe Rutung, Kec. Lawe Bulan";"FRQC+75P, Lawe Rutung, Kec. Lawe Bulan, Kabupaten Aceh Tenggara, Aceh 24651";"Lawe Rutung, Kec. Lawe Bulan, Kabupaten Aceh Tenggara";"ACEH";"24651";"Indonesia";"";"3.4882152";"97.8204589";"https://maps.google.com/?cid=0x0:0xfb26f356be266cc8"
"perumahan";"Perumahan";"Ardi House";"FRX6+8FQ Mansur, Matu Ridi, Tualang Lama, Kec. Deleng Pokhkisen, Kabupaten Aceh Tenggara, Aceh 24651";"Matu Ridi, Tualang Lama, Kec. Deleng Pokhkisen, Kabupaten Aceh Tenggara";"ACEH";"24651";"Indonesia";"";"3.4983147";"97.8111884";"https://maps.google.com/?cid=0x0:0xada88fcb1a721ec0"
"perumahan";"Komplek perumahan";"rumah opung keysha";"GRG8+7GF, Salang, harianja, Kec. Deleng Pokhkisen, Kabupaten Aceh Tenggara, Aceh 24651";"Salang, harianja, Kec. Deleng Pokhkisen, Kabupaten Aceh Tenggara";"ACEH";"24651";"Indonesia";"";"3.5256875";"97.8162969";"https://maps.google.com/?cid=0x0:0x3d785a54a44b3ac6"
"perumahan";"Komplek perumahan";"Rumah azam";"FRXH+X9, Tenembak Lang Lang, Kec. Deleng Pokhkisen, Kabupaten Aceh Tenggara, Aceh";"Kabupaten Aceh Tenggara, Aceh";"ACEH";"";"Indonesia";"";"3.499967";"97.828416";"https://maps.google.com/?cid=0x0:0xd9c16807d2317b95"
"perumahan";"Perhimpunan Pengembang Perumahan";"Sapo bawan";"GR2H+R25, Tenembak Lang Lang, Kec. Deleng Pokhkisen, Kabupaten Aceh Tenggara, Aceh 24651";"Tenembak Lang Lang, Kec. Deleng Pokhkisen, Kabupaten Aceh Tenggara";"ACEH";"24651";"Indonesia";"";"3.5020233";"97.8276243";"https://maps.google.com/?cid=0x0:0xfa37ce2ce0217652"
"perumahan";"Komplek perumahan";"Penampaan";"GR4C+HJG, Penampaan, Kec. Deleng Pokhkisen, Kabupaten Aceh Tenggara, Aceh 24651";"Penampaan, Kec. Deleng Pokhkisen, Kabupaten Aceh Tenggara";"ACEH";"24651";"Indonesia";"";"3.5066579";"97.8214127";"https://maps.google.com/?cid=0x0:0x39cb0945faa83bb2"
"perumahan";"perumahan";"Kec. Deleng Pokhkisen";"Kabupaten Aceh Tenggara, Aceh";"Kabupaten Aceh Tenggara, Aceh";"ACEH";"";"Indonesia";"";"3.5153217";"97.8178384";"https://maps.google.com/?cid=0x0:0xc6a755f2ab2e1b8f"
"perumahan";"perumahan";"RUMAH WAWAN DESKY";"FRP7+4RX, Pasir Gala, Kec. Lawe Bulan, Kabupaten Aceh Tenggara, Aceh 24651";"Pasir Gala, Kec. Lawe Bulan, Kabupaten Aceh Tenggara";"ACEH";"24651";"Indonesia";"";"3.4855108";"97.8143048";"https://maps.google.com/?cid=0x0:0xc120ba523a867fd5"
"perumahan";"Komplek perumahan";"Rumah kamarudin";"GRGF+Q5R, Hutan, Kec. Deleng Pokhkisen, Kabupaten Aceh Tenggara, Aceh 24651";"Hutan, Kec. Deleng Pokhkisen, Kabupaten Aceh Tenggara";"ACEH";"24651";"Indonesia";"";"3.5269751";"97.8229052";"https://maps.google.com/?cid=0x0:0x7b0444e3251d910f"
"perumahan";"Perumahan";"Ardi House";"FRX6+8FQ Mansur, Matu Ridi, Tualang Lama, Kec. Deleng Pokhkisen, Kabupaten Aceh Tenggara, Aceh 24651";"Matu Ridi, Tualang Lama, Kec. Deleng Pokhkisen, Kabupaten Aceh Tenggara";"ACEH";"24651";"Indonesia";"";"3.4983147";"97.8111884";"https://maps.google.com/?cid=0x0:0xada88fcb1a721ec0"
"perumahan";"Perumahan rakyat";"Rumah mek elsa";"GR36+V8G, Gusung Batu, Kec. Deleng Pokhkisen, Kabupaten Aceh Tenggara, Aceh 24651";"Gusung Batu, Kec. Deleng Pokhkisen, Kabupaten Aceh Tenggara";"ACEH";"24651";"Indonesia";"";"3.5046784";"97.8108173";"https://maps.google.com/?cid=0x0:0x4fc4d92e27bb8026"
"perumahan";"Pembangunan Perumahan";"Rumah anna";"GR5F+G4R, Ranto Diur, Kec. Deleng Pokhkisen, Kabupaten Aceh Tenggara, Aceh 24651";"Ranto Diur, Kec. Deleng Pokhkisen, Kabupaten Aceh Tenggara";"ACEH";"24651";"Indonesia";"";"3.508869";"97.8227633";"https://maps.google.com/?cid=0x0:0xbc7c8fc9e2cf26"
"perumahan";"Komplek perumahan";"Rumah azam";"FRXH+X9, Tenembak Lang Lang, Kec. Deleng Pokhkisen, Kabupaten Aceh Tenggara, Aceh";"Kabupaten Aceh Tenggara, Aceh";"ACEH";"";"Indonesia";"";"3.499967";"97.828416";"https://maps.google.com/?cid=0x0:0xd9c16807d2317b95"
"perumahan";"Perhimpunan Pengembang Perumahan";"Komplek Perumahan dr. Bukhari, Desa Lawe Rutung, Kec. Lawe Bulan";"FRQC+75P, Lawe Rutung, Kec. Lawe Bulan, Kabupaten Aceh Tenggara, Aceh 24651";"Lawe Rutung, Kec. Lawe Bulan, Kabupaten Aceh Tenggara";"ACEH";"24651";"Indonesia";"";"3.4882152";"97.8204589";"https://maps.google.com/?cid=0x0:0xfb26f356be266cc8"
"perumahan";"Komplek perumahan";"Dorbest";"GR3J+H5F, Terutung Mbelang, Kec. Deleng Pokhkisen, Kabupaten Aceh Tenggara, Aceh 24651";"Terutung Mbelang, Kec. Deleng Pokhkisen, Kabupaten Aceh Tenggara";"ACEH";"24651";"Indonesia";"";"3.5039445";"97.8304122";"https://maps.google.com/?cid=0x0:0x755cb053a16da9a1"
"perumahan";"Komplek perumahan";"rumah opung keysha";"GRG8+7GF, Salang, harianja, Kec. Deleng Pokhkisen, Kabupaten Aceh Tenggara, Aceh 24651";"Salang, harianja, Kec. Deleng Pokhkisen, Kabupaten Aceh Tenggara";"ACEH";"24651";"Indonesia";"";"3.5256875";"97.8162969";"https://maps.google.com/?cid=0x0:0x3d785a54a44b3ac6"
"perumahan";"Komplek perumahan";"Rumah Mek Anto";"GR7F+WX4, Unnamed Road, Ranto Diur, Kec. Deleng Pokhkisen, Kabupaten Aceh Tenggara, Aceh 24651";"Unnamed Road, Ranto Diur, Kec. Deleng Pokhkisen, Kabupaten Aceh Tenggara";"ACEH";"24651";"Indonesia";"";"3.5147524";"97.8249494";"https://maps.google.com/?cid=0x0:0xb4827ff266afff9d"
"perumahan";"Komplek perumahan";"Penampaan";"FRX7+XP9, Penampaan, Kec. Deleng Pokhkisen, Kabupaten Aceh Tenggara, Aceh 24651";"Penampaan, Kec. Deleng Pokhkisen, Kabupaten Aceh Tenggara";"ACEH";"24651";"Indonesia";"";"3.4999243";"97.8143465";"https://maps.google.com/?cid=0x0:0xd7447f80497f2ac"
"perumahan";"Komplek perumahan";"Penampaan";"GR4C+HJG, Penampaan, Kec. Deleng Pokhkisen, Kabupaten Aceh Tenggara, Aceh 24651";"Penampaan, Kec. Deleng Pokhkisen, Kabupaten Aceh Tenggara";"ACEH";"24651";"Indonesia";"";"3.5066579";"97.8214127";"https://maps.google.com/?cid=0x0:0x39cb0945faa83bb2"
"perumahan";"Perhimpunan Pengembang Perumahan";"Sapo bawan";"GR2H+R25, Tenembak Lang Lang, Kec. Deleng Pokhkisen, Kabupaten Aceh Tenggara, Aceh 24651";"Tenembak Lang Lang, Kec. Deleng Pokhkisen, Kabupaten Aceh Tenggara";"ACEH";"24651";"Indonesia";"";"3.5020233";"97.8276243";"https://maps.google.com/?cid=0x0:0xfa37ce2ce0217652"
"perumahan";"perumahan";"Aceh 24652";"Kabupaten Aceh Tenggara, Aceh";"Kabupaten Aceh Tenggara, Aceh";"ACEH";"";"Indonesia";"";"3.6699926";"97.654811";"https://maps.google.com/?cid=0x0:0xf321f2dc3f3b9295"
"perumahan";"Jasa Konstruksi dan Bangunan";"Ketambeabu";"MMF6+9PR, Ketambe, Kutacane, Kabupaten Aceh Tenggara, Aceh 24652";"Ketambe, Kutacane, Kabupaten Aceh Tenggara";"ACEH";"24652";"Indonesia";"";"3.67349";"97.6617774";"https://maps.google.com/?cid=0x0:0xd224eb8da99ae98"
"perumahan";"Komplek perumahan";"Rumah ardinggo";"PJ5P+2X4, Simpur Jaya, Kec. Ketambe, Kabupaten Aceh Tenggara, Aceh 24652";"Simpur Jaya, Kec. Ketambe, Kabupaten Aceh Tenggara";"ACEH";"24652";"Indonesia";"";"3.7075015";"97.6374453";"https://maps.google.com/?cid=0x0:0xaa204f0128d7d10c"
"perumahan";"Kantor Perusahaan";"Rumah arbiansyah";"JPP2+QR, Penungkunen, Kec. Ketambe, Kabupaten Aceh Tenggara, Aceh";"Kabupaten Aceh Tenggara, Aceh";"ACEH";"";"Indonesia";"";"3.6369761";"97.7020363";"https://maps.google.com/?cid=0x0:0x61e7cdeb36328716"
"perumahan";"Komplek perumahan";"Rumah Sukma cantik";"MM3G+9G5, Lawe Aunan, Kec. Ketambe, Kabupaten Aceh Tenggara, Aceh 24652";"Lawe Aunan, Kec. Ketambe, Kabupaten Aceh Tenggara";"ACEH";"24652";"Indonesia";"";"3.6528662";"97.6758163";"https://maps.google.com/?cid=0x0:0xac85ff0fbc6e6819"
"perumahan";"perumahan";"Pondok Wisata Guesthouse Ketambe, Sumatra";"Jl. Blangkejeren - Kutacane No.km32, Ketambe, Kec. Ketambe, Kabupaten Aceh Tenggara, Aceh 24652";"Ketambe, Kec. Ketambe, Kabupaten Aceh Tenggara";"ACEH";"24652";"Indonesia";" 082260366163";"3.6804976";"97.6600302";"https://maps.google.com/?cid=0x0:0x3a29670964636e43"
"perumahan";"Perhimpunan Pengembang Perumahan";"Induk EM";"MQ67+WHC, Hutan, Kec. Ketambe, Kabupaten Aceh Tenggara, Aceh 24652";"Hutan, Kec. Ketambe, Kabupaten Aceh Tenggara";"ACEH";"24652";"Indonesia";"";"3.662324";"97.763879";"https://maps.google.com/?cid=0x0:0xde73933bca59c300"
"perumahan";"Area Mendaki";"Sumatra jungle experience (orangutan trekking)";"MMJ6+426, Ketambe, Kec. Ketambe, Kabupaten Aceh Tenggara, Aceh";"Kabupaten Aceh Tenggara, Aceh";"ACEH";"";"Indonesia";" 082260366163";"3.6803497";"97.6599853";"https://maps.google.com/?cid=0x0:0x20a9759ee76980eb"
"perumahan";"Komplek perumahan";"Rumah DIANTO";"JP7H+PMM, Jl. Blangkejeren - Kutacane, Lawe Mengkudu, Kec. Ketambe, Kabupaten Aceh Tenggara, Aceh 24651";"Jl. Blangkejeren - Kutacane, Lawe Mengkudu, Kec. Ketambe, Kabupaten Aceh Tenggara";"ACEH";"24651";"Indonesia";"";"3.6144781";"97.729778";"https://maps.google.com/?cid=0x0:0x608c4f6c360e0445"
"perumahan";"Komplek perumahan";"Rumah";"JPCF+J9Q, Bener Berpapah, Kec. Ketambe, Kabupaten Aceh Tenggara, Aceh";"Kabupaten Aceh Tenggara, Aceh";"ACEH";"";"Indonesia";"";"3.621581";"97.7234934";"https://maps.google.com/?cid=0x0:0x9c2742c6041e77b0"
"perumahan";"Komplek perumahan";"Rumah pribadi";"JP4Q+32Q, Lawe Beringin, Kec. Ketambe, Kabupaten Aceh Tenggara, Aceh 24651";"Lawe Beringin, Kec. Ketambe, Kabupaten Aceh Tenggara";"ACEH";"24651";"Indonesia";"";"3.6052089";"97.7375963";"https://maps.google.com/?cid=0x0:0xfba6592f6b2ccdb4"
"perumahan";"Pembangunan Perumahan";"DESA RUMAH BUNDAR";"PJ8J+J2J, Rumah Bundar, Kec. Ketambe, Kabupaten Aceh Tenggara, Aceh";"Kabupaten Aceh Tenggara, Aceh";"ACEH";"";"Indonesia";"";"3.7165902";"97.6300273";"https://maps.google.com/?cid=0x0:0xa650387d3a13babe"
"perumahan";"Komplek perumahan";"Rumah jeck";"JPP3+4H8, Penungkunen, Kec. Ketambe, Kabupaten Aceh Tenggara, Aceh 24652";"Penungkunen, Kec. Ketambe, Kabupaten Aceh Tenggara";"ACEH";"24652";"Indonesia";"";"3.6352875";"97.7039531";"https://maps.google.com/?cid=0x0:0x812e4366da92e3d4"
"perumahan";"Komplek perumahan";"Kebun sopiyan";"JMVW+2FW, Jambur Lak Lak, Kec. Ketambe, Kabupaten Aceh Tenggara, Aceh 24652";"Jambur Lak Lak, Kec. Ketambe, Kabupaten Aceh Tenggara";"ACEH";"24652";"Indonesia";"";"3.6426142";"97.6961914";"https://maps.google.com/?cid=0x0:0xd391b9cb94e48da7"
"perumahan";"Pembangunan Perumahan";"Jalan Lawe Alas";"FRQ2+G9V, Mbarung, Kec. Babussalam, Kabupaten Aceh Tenggara, Aceh";"Kabupaten Aceh Tenggara, Aceh";"ACEH";"";"Indonesia";"";"3.4888584";"97.8009146";"https://maps.google.com/?cid=0x0:0xdcbfe302903a6de0"
"perumahan";"Pembangunan Perumahan";"Perumahan Alas Residence V";"FRQ3+GWM, Muara Lawe Bulan, Kec. Babussalam, Kabupaten Aceh Tenggara, Aceh 24651";"Muara Lawe Bulan, Kec. Babussalam, Kabupaten Aceh Tenggara";"ACEH";"24651";"Indonesia";" 082272307335";"3.4888447";"97.8047867";"https://maps.google.com/?cid=0x0:0xf841a87f113c7f33"
"perumahan";"perumahan";"Kec. Lawe Alas";"Kabupaten Aceh Tenggara, Aceh";"Kabupaten Aceh Tenggara, Aceh";"ACEH";"";"Indonesia";"";"3.4262923";"97.8310337";"https://maps.google.com/?cid=0x0:0x8c79164bdcdfbd2e"
"perumahan";"Perumahan";"Alas residen, ban ban";"FRQ3+8V, Muara Lawe Bulan, Kec. Babussalam, Kabupaten Aceh Tenggara, Aceh 24651";"Muara Lawe Bulan, Kec. Babussalam, Kabupaten Aceh Tenggara";"ACEH";"24651";"Indonesia";"";"3.488275";"97.8047703";"https://maps.google.com/?cid=0x0:0xb52e8e027742c175"
"perumahan";"Komplek perumahan";"Kuta Batu Baru";"FR66+FHF, Kute Batu Baru, Kec. Lawe Alas, Kabupaten Aceh Tenggara, Aceh 24651";"Kute Batu Baru, Kec. Lawe Alas, Kabupaten Aceh Tenggara";"ACEH";"24651";"Indonesia";"";"3.4611981";"97.8114309";"https://maps.google.com/?cid=0x0:0x71e579479063f4f6"
"perumahan";"Bar";"Perapat batu nunggul kec.lawe alas Aceh tenggara";"FR92+VJP, RW.Perapat, Titi Panjang, Kec. Babussalam, Kabupaten Aceh Tenggara, Aceh 24651";"RW.Perapat, Titi Panjang, Kec. Babussalam, Kabupaten Aceh Tenggara";"ACEH";"24651";"Indonesia";"";"3.4689589";"97.8016321";"https://maps.google.com/?cid=0x0:0xfdfd13bb7ee09d9"
"perumahan";"perumahan";"RUMAH WAWAN DESKY";"FRP7+4RX, Pasir Gala, Kec. Lawe Bulan, Kabupaten Aceh Tenggara, Aceh 24651";"Pasir Gala, Kec. Lawe Bulan, Kabupaten Aceh Tenggara";"ACEH";"24651";"Indonesia";"";"3.4855108";"97.8143048";"https://maps.google.com/?cid=0x0:0xc120ba523a867fd5"
"perumahan";"Pembangunan Perumahan";"Perum ALAS RESIDENCE I - PT. MUNTHE MAJU JAYA";"FRW7+HG8, Kute Genting, Kec. Lawe Bulan, Kabupaten Aceh Tenggara, Aceh 24651";"Kute Genting, Kec. Lawe Bulan, Kabupaten Aceh Tenggara";"ACEH";"24651";"Indonesia";"";"3.4965033";"97.8138765";"https://maps.google.com/?cid=0x0:0x26013df3649d6c7c"
"perumahan";"Hotel";"Rumah Tinggal";"CRGM+8WJ, Pasir Bangun, Kec. Lawe Alas, Kabupaten Aceh Tenggara, Aceh 24651";"Pasir Bangun, Kec. Lawe Alas, Kabupaten Aceh Tenggara";"ACEH";"24651";"Indonesia";"";"3.4258367";"97.8347556";"https://maps.google.com/?cid=0x0:0x13e938dead0e943c"
"perumahan";"Komplek perumahan";"rumah saya";"FRM9+W99, Pasir Gala, Kec. Lawe Bulan, Kabupaten Aceh Tenggara, Aceh 24651";"Pasir Gala, Kec. Lawe Bulan, Kabupaten Aceh Tenggara";"ACEH";"24651";"Indonesia";"";"3.4847955";"97.8184971";"https://maps.google.com/?cid=0x0:0x5e80df5ca520196c"
"perumahan";"Komplek perumahan";"Mamak joyo";"CRFF+2C, Lawe Kongkir, Kec. Lawe Alas, Kabupaten Aceh Tenggara, Aceh 24651";"Lawe Kongkir, Kec. Lawe Alas, Kabupaten Aceh Tenggara";"ACEH";"24651";"Indonesia";" 082272059822";"3.42258";"97.8236051";"https://maps.google.com/?cid=0x0:0xacbe1c0bbe38bbec"
"perumahan";"Komplek perumahan";"Dusun rumah kampung";"CRFG+27, Lawe Kongkir, Kec. Lawe Alas, Kabupaten Aceh Tenggara, Aceh";"Kabupaten Aceh Tenggara, Aceh";"ACEH";"";"Indonesia";"";"3.4221764";"97.8252345";"https://maps.google.com/?cid=0x0:0x39e36fc7391a8b69"
"perumahan";"perumahan";"Rumah Kp.";"Kec. Lawe Alas, Kabupaten Aceh Tenggara, Aceh";"Kabupaten Aceh Tenggara, Aceh";"ACEH";"";"Indonesia";"";"3.403861";"97.8463149";"https://maps.google.com/?cid=0x0:0xe1c27022171fedc7"
"perumahan";"Pembangunan Perumahan";"Abadi";"CR2H+HXX, Pasir Nunang, Kec. Lawe Alas, Kabupaten Aceh Tenggara, Aceh 24671";"Pasir Nunang, Kec. Lawe Alas, Kabupaten Aceh Tenggara";"ACEH";"24671";"Indonesia";"";"3.4014941";"97.8299965";"https://maps.google.com/?cid=0x0:0xa06e18a36bd18d50"
"perumahan";"Perhimpunan Pengembang Perumahan";"Komplek Perumahan dr. Bukhari, Desa Lawe Rutung, Kec. Lawe Bulan";"FRQC+75P, Lawe Rutung, Kec. Lawe Bulan, Kabupaten Aceh Tenggara, Aceh 24651";"Lawe Rutung, Kec. Lawe Bulan, Kabupaten Aceh Tenggara";"ACEH";"24651";"Indonesia";"";"3.4882152";"97.8204589";"https://maps.google.com/?cid=0x0:0xfb26f356be266cc8"
"perumahan";"perumahan";"RUMAH WAWAN DESKY";"FRP7+4RX, Pasir Gala, Kec. Lawe Bulan, Kabupaten Aceh Tenggara, Aceh 24651";"Pasir Gala, Kec. Lawe Bulan, Kabupaten Aceh Tenggara";"ACEH";"24651";"Indonesia";"";"3.4855108";"97.8143048";"https://maps.google.com/?cid=0x0:0xc120ba523a867fd5"
"perumahan";"perumahan";"Kec. Lawe Bulan";"Kabupaten Aceh Tenggara, Aceh";"Kabupaten Aceh Tenggara, Aceh";"ACEH";"";"Indonesia";"";"3.4844337";"97.8239129";"https://maps.google.com/?cid=0x0:0x7c500fb0a4b9b413"
"perumahan";"Komplek perumahan";"rumah saya";"FRM9+W99, Pasir Gala, Kec. Lawe Bulan, Kabupaten Aceh Tenggara, Aceh 24651";"Pasir Gala, Kec. Lawe Bulan, Kabupaten Aceh Tenggara";"ACEH";"24651";"Indonesia";"";"3.4847955";"97.8184971";"https://maps.google.com/?cid=0x0:0x5e80df5ca520196c"
"perumahan";"Pembangunan Perumahan";"Perumahan Alas Residence V";"FRQ3+GWM, Muara Lawe Bulan, Kec. Babussalam, Kabupaten Aceh Tenggara, Aceh 24651";"Muara Lawe Bulan, Kec. Babussalam, Kabupaten Aceh Tenggara";"ACEH";"24651";"Indonesia";" 082272307335";"3.4888447";"97.8047867";"https://maps.google.com/?cid=0x0:0xf841a87f113c7f33"
"perumahan";"Komplek perumahan";"Rumah Manurung";"FRMF+V2X, Simpang Empat, Kec. Lawe Bulan, Kabupaten Aceh Tenggara, Aceh 24651";"Simpang Empat, Kec. Lawe Bulan, Kabupaten Aceh Tenggara";"ACEH";"24651";"Indonesia";"";"3.4847377";"97.822634";"https://maps.google.com/?cid=0x0:0x77a448c056c80249"
"perumahan";"Komplek perumahan";"Rumah arkemo";"FRP8+93P, Pasir Gala, Kec. Lawe Bulan, Kabupaten Aceh Tenggara, Aceh 24651";"Pasir Gala, Kec. Lawe Bulan, Kabupaten Aceh Tenggara";"ACEH";"24651";"Indonesia";"";"3.4858799";"97.8150132";"https://maps.google.com/?cid=0x0:0x73c7308f7b89edfd"
"perumahan";"Pembangunan Perumahan";"Desa Tenembak juhar, kctn. Lawe bulan.";"FRCV+JX, Penosan, Kec. Lawe Sumur, Kabupaten Aceh Tenggara, Aceh 24651";"Penosan, Kec. Lawe Sumur, Kabupaten Aceh Tenggara";"ACEH";"24651";"Indonesia";"";"3.4716168";"97.8449823";"https://maps.google.com/?cid=0x0:0x602229b7b70650c0"
"perumahan";"Komplek perumahan";"Desa tenembak juhar. Kcmtn lawe bulan";"FVJ3+PPR, Tenembak Juhar, Kec. Lawe Bulan, Kabupaten Aceh Tenggara, Aceh 24651";"Tenembak Juhar, Kec. Lawe Bulan, Kabupaten Aceh Tenggara";"ACEH";"24651";"Indonesia";"";"3.4818684";"97.8542798";"https://maps.google.com/?cid=0x0:0xd67bd2408baab810"
"perumahan";"Komplek perumahan";"Desa Lumban Na Jagar";"FRPX+7R7, Kp Lumban Najagar, Lawe Kinge, Kec. Lawe Bulan, Kabupaten Aceh Tenggara, Aceh 24651";"Kp Lumban Najagar, Lawe Kinge, Kec. Lawe Bulan, Kabupaten Aceh Tenggara";"ACEH";"24651";"Indonesia";"";"3.4856565";"97.8495396";"https://maps.google.com/?cid=0x0:0xb265573d693af02a"
"perumahan";"Rumah Kayu";"Rumah acara";"FRVP+JRW, Lawe Sagu Hulu, Kec. Lawe Bulan, Kabupaten Aceh Tenggara, Aceh 24651";"Lawe Sagu Hulu, Kec. Lawe Bulan, Kabupaten Aceh Tenggara";"ACEH";"24651";"Indonesia";"";"3.494123";"97.8370648";"https://maps.google.com/?cid=0x0:0x7b5dfc2688d6409c"
"perumahan";"Kafe";"desa pulonas baru";"FRR7+2JC, Lawe Rutung, Kec. Lawe Bulan, Kabupaten Aceh Tenggara, Aceh";"Kabupaten Aceh Tenggara, Aceh";"ACEH";"";"Indonesia";"";"3.4900645";"97.8140003";"https://maps.google.com/?cid=0x0:0xf59a7589264f7da6"
"perumahan";"Komplek perumahan";"Rumah Zanzibar";"FRP7+4XX, Pasir Gala, Kec. Lawe Bulan, Kabupaten Aceh Tenggara, Aceh 24651";"Pasir Gala, Kec. Lawe Bulan, Kabupaten Aceh Tenggara";"ACEH";"24651";"Indonesia";"";"3.4853587";"97.8149951";"https://maps.google.com/?cid=0x0:0x2bdf5a737c107eec"
"perumahan";"Komplek perumahan";"Lawe rutung";"FRQ9+6MP, Lawe Rutung, Kec. Lawe Bulan, Kabupaten Aceh Tenggara, Aceh 24651";"Lawe Rutung, Kec. Lawe Bulan, Kabupaten Aceh Tenggara";"ACEH";"24651";"Indonesia";"";"3.4879886";"97.8192017";"https://maps.google.com/?cid=0x0:0xa8138ef3c405d883"
"perumahan";"Komplek perumahan";"Sahabat Lama";"9W69+6F4, Lawe Sigala II, Kec. Lawe Sigala-Gala, Kabupaten Aceh Tenggara, Aceh 24673";"Lawe Sigala II, Kec. Lawe Sigala-Gala, Kabupaten Aceh Tenggara";"ACEH";"24673";"Indonesia";"";"3.3604017";"97.9186412";"https://maps.google.com/?cid=0x0:0x215fcde6b2178413"
"perumahan";"Komplek perumahan";"Lawe sigala ll";"9W69+3F7, Jl. Kutacane, Tigabinanga, Kec. Lawe Sigala-Gala, Kabupaten Aceh Tenggara, Aceh 24673";"Jl. Kutacane, Tigabinanga, Kec. Lawe Sigala-Gala, Kabupaten Aceh Tenggara";"ACEH";"24673";"Indonesia";"";"3.3601616";"97.9186566";"https://maps.google.com/?cid=0x0:0xd9d1a8c21064e968"
"perumahan";"perumahan";"Kec. Lawe Sigala-Gala";"Kabupaten Aceh Tenggara, Aceh";"Kabupaten Aceh Tenggara, Aceh";"ACEH";"";"Indonesia";"";"3.3523562";"97.920238";"https://maps.google.com/?cid=0x0:0xcb5b41d286766187"
"perumahan";"Komplek perumahan";"Rumah Pak REY";"9WH5+3MC, Lawe Kesumpat, Kec. Lawe Sigala-Gala, Kabupaten Aceh Tenggara, Aceh 24678";"Lawe Kesumpat, Kec. Lawe Sigala-Gala, Kabupaten Aceh Tenggara";"ACEH";"24678";"Indonesia";"";"3.3776958";"97.9091326";"https://maps.google.com/?cid=0x0:0xd7b89b3f0c30063d"
"perumahan";"Komplek perumahan";"Rumah Enjel siregar";"8WGW+C39, Jl. Kutacane-Tigabinanga, Lawe Loning Gab, Kec. Lawe Sigala-Gala, Kabupaten Aceh Tenggara, Aceh 24673";"Jl. Kutacane-Tigabinanga, Lawe Loning Gab, Kec. Lawe Sigala-Gala, Kabupaten Aceh Tenggara";"ACEH";"24673";"Indonesia";"";"3.3264433";"97.945425";"https://maps.google.com/?cid=0x0:0x312a44ca605aa7a8"
"perumahan";"Pembangunan Perumahan";"Tanah baru Lawe sigala";"8WVF+826, Tanah Baru, Kec. Lawe Sigala-Gala, Kabupaten Aceh Tenggara, Aceh 24673";"Tanah Baru, Kec. Lawe Sigala-Gala, Kabupaten Aceh Tenggara";"ACEH";"24673";"Indonesia";"";"3.3432811";"97.922517";"https://maps.google.com/?cid=0x0:0xad8a1a630c878155"
"perumahan";"Komplek perumahan";"Kebun Raya Sosial";"8WR9+926, Suka Jaya, Kec. Lawe Sigala-Gala, Kabupaten Aceh Tenggara, Aceh 24673";"Suka Jaya, Kec. Lawe Sigala-Gala, Kabupaten Aceh Tenggara";"ACEH";"24673";"Indonesia";"";"3.3409218";"97.9175085";"https://maps.google.com/?cid=0x0:0x3fba6eb959e8f9a8"
"perumahan";"Komplek perumahan";"Rumah Wiwi";"9W88+HJ7, Jl. Kutacane, Lawe Tua Persatuan, Kec. Lawe Sigala-Gala, Kabupaten Aceh Tenggara, Aceh 24673";"Jl. Kutacane, Lawe Tua Persatuan, Kec. Lawe Sigala-Gala, Kabupaten Aceh Tenggara";"ACEH";"24673";"Indonesia";"";"3.367441";"97.916099";"https://maps.google.com/?cid=0x0:0x69cb864672ee5c15"
"perumahan";"Perhimpunan Pengembang Perumahan";"Sebungke Aceh tenggara";"9WP5+488, Jl. Kutacane-Tigabinanga, Sebungke, Kec. Lawe Sigala-Gala, Kabupaten Aceh Tenggara, Aceh 24678";"Jl. Kutacane-Tigabinanga, Sebungke, Kec. Lawe Sigala-Gala, Kabupaten Aceh Tenggara";"ACEH";"24678";"Indonesia";"";"3.3853296";"97.9083796";"https://maps.google.com/?cid=0x0:0x4e92de70ef176852"
"perumahan";"Pembangunan Perumahan";"Simpang sarimpitpit...";"8X64+5GG, Jl. Kutacane, Lawe Deski Sabas, Kec. Lawe Sigala-Gala, Kabupaten Aceh Tenggara, Aceh 24673";"Jl. Kutacane, Lawe Deski Sabas, Kec. Lawe Sigala-Gala, Kabupaten Aceh Tenggara";"ACEH";"24673";"Indonesia";"";"3.3104497";"97.9563151";"https://maps.google.com/?cid=0x0:0x46b872c036396e07"
"perumahan";"Pembangunan Perumahan";"PERUM SUKAJAYA RESIDENCE, ACEH TENGARA";"8WX7+PVM, Suka Jaya, Kec. Lawe Sigala-Gala, Kabupaten Aceh Tenggara, Aceh 24673";"Suka Jaya, Kec. Lawe Sigala-Gala, Kabupaten Aceh Tenggara";"ACEH";"24673";"Indonesia";"";"3.3493363";"97.9146681";"https://maps.google.com/?cid=0x0:0xc9ac7f59ae8f7afb"
"perumahan";"Komplek perumahan";"Pakpahan";"8WWF+XFQ, Suka Maju, Kec. Lawe Sigala-Gala, Kabupaten Aceh Tenggara, Aceh 24673";"Suka Maju, Kec. Lawe Sigala-Gala, Kabupaten Aceh Tenggara";"ACEH";"24673";"Indonesia";"";"3.3472546";"97.9231676";"https://maps.google.com/?cid=0x0:0x4eea6970983e22f5"
"perumahan";"Perhimpunan Pengembang Perumahan";"HERMANSYAH";"8WR4+3F4, Mulie Dame, Kec. Lawe Sigala-Gala, Kabupaten Aceh Tenggara, Aceh 24673";"Mulie Dame, Kec. Lawe Sigala-Gala, Kabupaten Aceh Tenggara";"ACEH";"24673";"Indonesia";"";"3.3401269";"97.9061966";"https://maps.google.com/?cid=0x0:0x48fb599409a8ba69"
"perumahan";"Komplek perumahan";"Rumah raskita";"9W88+HJ7, Jl. Kutacane, Lawe Tua Persatuan, Kec. Lawe Sigala-Gala, Kabupaten Aceh Tenggara, Aceh 24673";"Jl. Kutacane, Lawe Tua Persatuan, Kec. Lawe Sigala-Gala, Kabupaten Aceh Tenggara";"ACEH";"24673";"Indonesia";"";"3.367417";"97.915832";"https://maps.google.com/?cid=0x0:0xf98303683f39815c"
"perumahan";"perumahan";"Aceh 24671";"Kabupaten Aceh Tenggara, Aceh";"Kabupaten Aceh Tenggara, Aceh";"ACEH";"";"Indonesia";"";"3.3974891";"97.8612767";"https://maps.google.com/?cid=0x0:0x2f1eb6944610f143"
"perumahan";"Kantor Perusahaan";"MAMAK MELATI";"FV54+Q4G, Kute Bunin, Kec. Lawe Sumur, Kabupaten Aceh Tenggara, Aceh 24651";"Kute Bunin, Kec. Lawe Sumur, Kabupaten Aceh Tenggara";"ACEH";"24651";"Indonesia";"";"3.4594426";"97.8553245";"https://maps.google.com/?cid=0x0:0x9b294c3a0870fb85"
"perumahan";"perumahan";"Kec. Lawe Sumur";"Kabupaten Aceh Tenggara, Aceh";"Kabupaten Aceh Tenggara, Aceh";"ACEH";"";"Indonesia";"";"3.4606887";"97.8511479";"https://maps.google.com/?cid=0x0:0x21a5722196a98f1"
"perumahan";"Pembangunan Perumahan";"Desa Tenembak juhar, kctn. Lawe bulan.";"FRCV+JX, Penosan, Kec. Lawe Sumur, Kabupaten Aceh Tenggara, Aceh 24651";"Penosan, Kec. Lawe Sumur, Kabupaten Aceh Tenggara";"ACEH";"24651";"Indonesia";"";"3.4716168";"97.8449823";"https://maps.google.com/?cid=0x0:0x602229b7b70650c0"
"perumahan";"Komplek perumahan";"Rumah rafifira";"FV43+GQH, Kute Bunin, Kec. Lawe Sumur, Kabupaten Aceh Tenggara, Aceh 24651";"Kute Bunin, Kec. Lawe Sumur, Kabupaten Aceh Tenggara";"ACEH";"24651";"Indonesia";"";"3.4563234";"97.8544755";"https://maps.google.com/?cid=0x0:0xbf397dd356bc3dda"
"perumahan";"Komplek perumahan";"Rizniar Family";"Jalan Kisam No.31 Desa, Kisam Gabungan, Kec. Lawe Sumur, Kabupaten Aceh Tenggara, Aceh 24651";"Kisam Gabungan, Kec. Lawe Sumur, Kabupaten Aceh Tenggara";"ACEH";"24651";"Indonesia";"";"3.4712872";"97.8268088";"https://maps.google.com/?cid=0x0:0xe86fcfb80a172d1b"
"perumahan";"Komplek perumahan";"Rumah asyraf";"FV62+5JH, Lawe Sumur Baru, Kec. Lawe Sumur, Kabupaten Aceh Tenggara, Aceh 24651";"Lawe Sumur Baru, Kec. Lawe Sumur, Kabupaten Aceh Tenggara";"ACEH";"24651";"Indonesia";"";"3.4604367";"97.8516216";"https://maps.google.com/?cid=0x0:0xf4f48f8ac52a2f8d"
"perumahan";"Komplek perumahan";"Rumah Kakek dan Tigan";"Jl. Kelapa Gading No.42, Lawe Sumur Baru, Kec. Lawe Sumur, Kabupaten Aceh Tenggara, Aceh 24651";"Lawe Sumur Baru, Kec. Lawe Sumur, Kabupaten Aceh Tenggara";"ACEH";"24651";"Indonesia";"";"3.4604846";"97.8515104";"https://maps.google.com/?cid=0x0:0xb3a8a5163310ac76"
"perumahan";"Komplek perumahan";"Rumah sayank";"8WF2+VRQ, Lawe Sumur, Kec. Babul Rahman, Kabupaten Aceh Tenggara, Aceh 24673";"Lawe Sumur, Kec. Babul Rahman, Kabupaten Aceh Tenggara";"ACEH";"24673";"Indonesia";"";"3.3247247";"97.9020977";"https://maps.google.com/?cid=0x0:0x9fcece4eb3f68a6b"
"perumahan";"Gudang";"Dhika Pinang";"FV45+M79, Kuta Lesung, Kec. Lawe Sumur, Kabupaten Aceh Tenggara, Aceh 24651";"Kuta Lesung, Kec. Lawe Sumur, Kabupaten Aceh Tenggara";"ACEH";"24651";"Indonesia";" 082262679527";"3.45697";"97.858172";"https://maps.google.com/?cid=0x0:0xb0998c4b63c143ae"
"perumahan";"Komplek perumahan";"sekedang";"FR5Q+H7J, Terutung Megare Lawe Pasaran, Kec. Lawe Sumur, Kabupaten Aceh Tenggara, Aceh";"Kabupaten Aceh Tenggara, Aceh";"ACEH";"";"Indonesia";"";"3.4589616";"97.8381552";"https://maps.google.com/?cid=0x0:0xb6987813766b103c"
"perumahan";"perumahan";"Lawe Sumur Sepakat";"Kec. Lawe Sumur, Kabupaten Aceh Tenggara, Aceh";"Kabupaten Aceh Tenggara, Aceh";"ACEH";"";"Indonesia";"";"3.4644635";"97.8537954";"https://maps.google.com/?cid=0x0:0xe33cb9ef19236400"
"perumahan";"Rumah Kayu";"Rumah m.kaisar";"FV35+XJC, Setia Baru, Kec. Lawe Sumur, Kabupaten Aceh Tenggara, Aceh";"Kabupaten Aceh Tenggara, Aceh";"ACEH";"";"Indonesia";"";"3.4544271";"97.8590377";"https://maps.google.com/?cid=0x0:0x2563d9f6339c6920"
"perumahan";"Pusat Kesehatan Masyarakat";"PKM lawe sumur";"FV62+C4C, Lawe Perlak, Kec. Lawe Sumur, Kabupaten Aceh Tenggara, Aceh 24651";"Lawe Perlak, Kec. Lawe Sumur, Kabupaten Aceh Tenggara";"ACEH";"24651";"Indonesia";" 081376018193";"3.4610646";"97.8502526";"https://maps.google.com/?cid=0x0:0x9c5e6f9dcfebc2d9"
"perumahan";"perumahan";"Kec. Lauser";"Kabupaten Aceh Tenggara, Aceh";"Kabupaten Aceh Tenggara, Aceh";"ACEH";"";"Indonesia";"";"3.2262868";"97.9151378";"https://maps.google.com/?cid=0x0:0x3cb4ab8d5843e495"
"perumahan";"Perhimpunan Pengembang Perumahan";"Lawe tawar";"6W2Q+R3, Laut Tawar, Kec. Lauser, Kabupaten Aceh Tenggara, Aceh";"Kabupaten Aceh Tenggara, Aceh";"ACEH";"";"Indonesia";"";"3.2020669";"97.9376857";"https://maps.google.com/?cid=0x0:0xad94507209c118a7"
"perumahan";"Komplek perumahan";"Desa Lawe srakut";"4WG3+V3, Hutan, Kec. Lauser, Kabupaten Aceh Tenggara, Aceh";"Kabupaten Aceh Tenggara, Aceh";"ACEH";"";"Indonesia";"";"3.1271342";"97.9026449";"https://maps.google.com/?cid=0x0:0x680e359f9a534180"
"perumahan";"Komplek perumahan";"Liangpangi, Leuser, Aceh";"4W3W+3Q2, Sade Ate, Kec. Lauser, Kabupaten Aceh Tenggara, Aceh 24673";"Sade Ate, Kec. Lauser, Kabupaten Aceh Tenggara";"ACEH";"24673";"Indonesia";"";"3.1026383";"97.9468827";"https://maps.google.com/?cid=0x0:0xf1ba64a71357e33e"
"perumahan";"Komplek perumahan";"Ladang Sinaga";"4X32+3FJ Rumah sinaga, Sade Ate, Kec. Lauser, Kabupaten Aceh Tenggara, Aceh 24673";"Sade Ate, Kec. Lauser, Kabupaten Aceh Tenggara";"ACEH";"24673";"Indonesia";"";"3.1027216";"97.9511377";"https://maps.google.com/?cid=0x0:0x64e5c57751fa2eb"
"perumahan";"Komplek perumahan";"Imel";"7WGF+3FR, Musara Setia, Kec. Babul Makmur, Kabupaten Aceh Tenggara, Aceh 24673";"Musara Setia, Kec. Babul Makmur, Kabupaten Aceh Tenggara";"ACEH";"24673";"Indonesia";"";"3.2752432";"97.923628";"https://maps.google.com/?cid=0x0:0x4d489840ce8d176e"
"perumahan";"Pembangunan Perumahan";"Elma puncak";"6WQ5+X27, Bukit Meriah, Kec. Lauser, Kabupaten Aceh Tenggara, Aceh 24673";"Bukit Meriah, Kec. Lauser, Kabupaten Aceh Tenggara";"ACEH";"24673";"Indonesia";"";"3.239901";"97.9075423";"https://maps.google.com/?cid=0x0:0xcb670d997a65407d"
"perumahan";"Komplek perumahan";"Erwin Siregar";"8W2H+J75, Gabungan Parsaoran, Kec. Babul Makmur, Kabupaten Aceh Tenggara, Aceh 24673";"Gabungan Parsaoran, Kec. Babul Makmur, Kabupaten Aceh Tenggara";"ACEH";"24673";"Indonesia";"";"3.301285";"97.928378";"https://maps.google.com/?cid=0x0:0x937115d5514112cc"
"perumahan";"Komplek perumahan";"Rumah q";"6WG8+G36, Tj. Sari, Kec. Lauser, Kabupaten Aceh Tenggara, Aceh";"Kabupaten Aceh Tenggara, Aceh";"ACEH";"";"Indonesia";"";"3.2262868";"97.9151378";"https://maps.google.com/?cid=0x0:0x7ee03eb33a0c1f5c"
"perumahan";"Pembangunan Perumahan";"Bintang alga Musara";"7W32+4R8, Bintang Alga Musara, Kec. Lauser, Kabupaten Aceh Tenggara, Aceh 24673";"Bintang Alga Musara, Kec. Lauser, Kabupaten Aceh Tenggara";"ACEH";"24673";"Indonesia";"";"3.252791";"97.9020739";"https://maps.google.com/?cid=0x0:0x46c7824d1f63d200"
"perumahan";"Perhimpunan Pengembang Perumahan";"SAMBUNG DUA-LAU PAKAM";"7W8W+R4, Hutan, Kec. Lauser, Kabupaten Aceh Tenggara, Aceh 24673";"Hutan, Kec. Lauser, Kabupaten Aceh Tenggara";"ACEH";"24673";"Indonesia";"";"3.2669062";"97.9445922";"https://maps.google.com/?cid=0x0:0x2443b2850b0eb38d"
"perumahan";"Perhimpunan Pengembang Perumahan";"Desa sepakat";"4X39+9GV, Sepakat, Kec. Lauser, Kabupaten Aceh Tenggara, Aceh 24673";"Sepakat, Kec. Lauser, Kabupaten Aceh Tenggara";"ACEH";"24673";"Indonesia";"";"3.1034796";"97.9687975";"https://maps.google.com/?cid=0x0:0xc17006e744a2bcb7"
"perumahan";"Pembangunan Perumahan";"Permata Musara";"5VFX+3QR, Permata Musara, Kec. Lauser, Kabupaten Aceh Tenggara, Aceh 24661";"Permata Musara, Kec. Lauser, Kabupaten Aceh Tenggara";"ACEH";"24661";"Indonesia";"";"3.1727439";"97.8993756";"https://maps.google.com/?cid=0x0:0xded8a59a04d742f9"
"perumahan";"perumahan";"Rumah A/I Mega Ndruru";"5WJV+8P8,Dusun II Gunung Nias, Desa, Lawe Tawar, Kec. Lauser, Kabupaten Aceh Tenggara, Aceh";"Kabupaten Aceh Tenggara, Aceh";"ACEH";"";"Indonesia";"";"3.1808443";"97.9443239";"https://maps.google.com/?cid=0x0:0x9c509366286ed6fd"
"perumahan";"perumahan";"Aceh 24678";"Kabupaten Aceh Tenggara, Aceh";"Kabupaten Aceh Tenggara, Aceh";"ACEH";"";"Indonesia";"";"3.3820045";"97.9211555";"https://maps.google.com/?cid=0x0:0x8613dd45575158fa"
"perumahan";"Komplek perumahan";"albima";"9VVJ+CMF, Semadam Asal, Kec. Semadam, Kabupaten Aceh Tenggara, Aceh";"Kabupaten Aceh Tenggara, Aceh";"ACEH";"";"Indonesia";"";"3.393573";"97.8816843";"https://maps.google.com/?cid=0x0:0x31f945fbfe5d4dce"
"perumahan";"Pembangunan Perumahan";"Simpang SEMADAM awal";"9VXV+9HX, Semadam Awal, Kec. Semadam, Kabupaten Aceh Tenggara, Aceh 24671";"Semadam Awal, Kec. Semadam, Kabupaten Aceh Tenggara";"ACEH";"24671";"Indonesia";"";"3.397888";"97.893699";"https://maps.google.com/?cid=0x0:0x425767b90a2e7c91"
"perumahan";"Komplek perumahan";"Rumah Mak Sulas";"9WV4+593, Suka Makmur, Kec. Semadam, Kabupaten Aceh Tenggara, Aceh 24671";"Suka Makmur, Kec. Semadam, Kabupaten Aceh Tenggara";"ACEH";"24671";"Indonesia";"";"3.3928862";"97.905922";"https://maps.google.com/?cid=0x0:0x2579ef4b1517dc98"
"perumahan";"Perhimpunan Pengembang Perumahan";"Sebungke Aceh tenggara";"9WP5+488, Jl. Kutacane-Tigabinanga, Sebungke, Kec. Lawe Sigala-Gala, Kabupaten Aceh Tenggara, Aceh 24678";"Jl. Kutacane-Tigabinanga, Sebungke, Kec. Lawe Sigala-Gala, Kabupaten Aceh Tenggara";"ACEH";"24678";"Indonesia";"";"3.3853296";"97.9083796";"https://maps.google.com/?cid=0x0:0x4e92de70ef176852"
"perumahan";"Komplek perumahan";"Sahabat Lama";"9W69+6F4, Lawe Sigala II, Kec. Lawe Sigala-Gala, Kabupaten Aceh Tenggara, Aceh 24673";"Lawe Sigala II, Kec. Lawe Sigala-Gala, Kabupaten Aceh Tenggara";"ACEH";"24673";"Indonesia";"";"3.3604017";"97.9186412";"https://maps.google.com/?cid=0x0:0x215fcde6b2178413"
"perumahan";"Balai Pertemuan Desa";"Jalan desa lawe kinga gabungan";"9VMH+CHP, Lawe Kinga Gab, Kec. Semadam, Kabupaten Aceh Tenggara, Aceh";"Kabupaten Aceh Tenggara, Aceh";"ACEH";"";"Indonesia";"";"3.3835987";"97.878963";"https://maps.google.com/?cid=0x0:0x7763b193439a78a"
"perumahan";"perumahan";"Rumah Ahmad Silaen";"CW32+427, Simpang Semadam, Kec. Semadam, Kabupaten Aceh Tenggara, Aceh 24671";"Simpang Semadam, Kec. Semadam, Kabupaten Aceh Tenggara";"ACEH";"24671";"Indonesia";"";"3.4027957";"97.9000561";"https://maps.google.com/?cid=0x0:0x2275384bcd20af05"
"perumahan";"Komplek perumahan";"Rumah Pak REY";"9WH5+3MC, Lawe Kesumpat, Kec. Lawe Sigala-Gala, Kabupaten Aceh Tenggara, Aceh 24678";"Lawe Kesumpat, Kec. Lawe Sigala-Gala, Kabupaten Aceh Tenggara";"ACEH";"24678";"Indonesia";"";"3.3776958";"97.9091326";"https://maps.google.com/?cid=0x0:0xd7b89b3f0c30063d"
"perumahan";"Komplek perumahan";"Kombih";"9WJ5+PF4, Enmya Batu Dua Ratus, Kec. Lawe Sigala-Gala, Kabupaten Aceh Tenggara, Aceh 24678";"Enmya Batu Dua Ratus, Kec. Lawe Sigala-Gala, Kabupaten Aceh Tenggara";"ACEH";"24678";"Indonesia";"";"3.3811359";"97.9086224";"https://maps.google.com/?cid=0x0:0xe5c6fad0c3ae457c"
"perumahan";"Perhimpunan Pengembang Perumahan";"TH house";"CV2W+FGQ, Semadam Awal, Kec. Semadam, Kabupaten Aceh Tenggara, Aceh 24671";"Semadam Awal, Kec. Semadam, Kabupaten Aceh Tenggara";"ACEH";"24671";"Indonesia";"";"3.4003251";"97.8964328";"https://maps.google.com/?cid=0x0:0x25eca078e565567a"
"perumahan";"Pembangunan Perumahan";"Desa suka makmur Aceh tenggara";"9WW3+994, Suka Makmur, Kec. Semadam, Kabupaten Aceh Tenggara, Aceh";"Kabupaten Aceh Tenggara, Aceh";"ACEH";"";"Indonesia";" 082210702244";"3.3958875";"97.9034531";"https://maps.google.com/?cid=0x0:0xee130bb3043dddcd"
"perumahan";"Pembangunan Perumahan";"Omak Bina Tamba";"9VMF+376, Lawe Kinga Gab, Kec. Semadam, Kabupaten Aceh Tenggara, Aceh";"Kabupaten Aceh Tenggara, Aceh";"ACEH";"";"Indonesia";"";"3.3826718";"97.8731492";"https://maps.google.com/?cid=0x0:0x1b630e8fc57b8342"
"perumahan";"Tukang Bangunan";"Gedung Serba Guna Desa Lawe Beringin Horas";"9VMQ+Q9G, Unnamed Road, Lawe Beringin Horas, Kec. Semadam, Kabupaten Aceh Tenggara, Aceh 24671";"Unnamed Road, Lawe Beringin Horas, Kec. Semadam, Kabupaten Aceh Tenggara";"ACEH";"24671";"Indonesia";"";"3.3844253";"97.8884518";"https://maps.google.com/?cid=0x0:0x262607ea6af2d9f8"
"perumahan";"Hotel";"Rumah Tinggal";"CRGM+8WJ, Pasir Bangun, Kec. Lawe Alas, Kabupaten Aceh Tenggara, Aceh 24651";"Pasir Bangun, Kec. Lawe Alas, Kabupaten Aceh Tenggara";"ACEH";"24651";"Indonesia";"";"3.4258367";"97.8347556";"https://maps.google.com/?cid=0x0:0x13e938dead0e943c"
"perumahan";"Komplek perumahan";"Rumah Waliyudin";"9RJW+R7C, Timang Rasa, Tanoh Alas, Kabupaten Aceh Tenggara, Aceh 24671";"Timang Rasa, Tanoh Alas, Kabupaten Aceh Tenggara";"ACEH";"24671";"Indonesia";"";"3.3820605";"97.8456523";"https://maps.google.com/?cid=0x0:0x1942a6bd20ca4ea"
"perumahan";"perumahan";"Aceh 24661";"Kabupaten Aceh Tenggara, Aceh";"Kabupaten Aceh Tenggara, Aceh";"ACEH";"";"Indonesia";"";"3.3088666";"97.6982272";"https://maps.google.com/?cid=0x0:0x3c66f885072251c8"
"perumahan";"Pembangunan Perumahan";"Jalan Lawe Alas";"FRQ2+G9V, Mbarung, Kec. Babussalam, Kabupaten Aceh Tenggara, Aceh";"Kabupaten Aceh Tenggara, Aceh";"ACEH";"";"Indonesia";"";"3.4888584";"97.8009146";"https://maps.google.com/?cid=0x0:0xdcbfe302903a6de0"
"perumahan";"Pembangunan Perumahan";"Perum ALAS RESIDENCE I - PT. MUNTHE MAJU JAYA";"FRW7+HG8, Kute Genting, Kec. Lawe Bulan, Kabupaten Aceh Tenggara, Aceh 24651";"Kute Genting, Kec. Lawe Bulan, Kabupaten Aceh Tenggara";"ACEH";"24651";"Indonesia";"";"3.4965033";"97.8138765";"https://maps.google.com/?cid=0x0:0x26013df3649d6c7c"
"perumahan";"perumahan";"RUMAH WAWAN DESKY";"FRP7+4RX, Pasir Gala, Kec. Lawe Bulan, Kabupaten Aceh Tenggara, Aceh 24651";"Pasir Gala, Kec. Lawe Bulan, Kabupaten Aceh Tenggara";"ACEH";"24651";"Indonesia";"";"3.4855108";"97.8143048";"https://maps.google.com/?cid=0x0:0xc120ba523a867fd5"
"perumahan";"Perumahan";"Alas residen, ban ban";"FRQ3+8V, Muara Lawe Bulan, Kec. Babussalam, Kabupaten Aceh Tenggara, Aceh 24651";"Muara Lawe Bulan, Kec. Babussalam, Kabupaten Aceh Tenggara";"ACEH";"24651";"Indonesia";"";"3.488275";"97.8047703";"https://maps.google.com/?cid=0x0:0xb52e8e027742c175"
"perumahan";"Komplek perumahan";"Desa Tenembak Alas";"9VC3+GW2, Tenembak Alas, Tanoh Alas, Kabupaten Aceh Tenggara, Aceh 24671";"Tenembak Alas, Tanoh Alas, Kabupaten Aceh Tenggara";"ACEH";"24671";"Indonesia";"";"3.3712521";"97.8548099";"https://maps.google.com/?cid=0x0:0xa007a66d4c5f342e"
"perumahan";"Komplek perumahan";"Rumah Selfi dan silfa";"9RGX+R6X, Rambah Sayang, Tanoh Alas, Kabupaten Aceh Tenggara, Aceh 24671";"Rambah Sayang, Tanoh Alas, Kabupaten Aceh Tenggara";"ACEH";"24671";"Indonesia";"";"3.3771077";"97.8482325";"https://maps.google.com/?cid=0x0:0x387538c0de1fb1b8"
"perumahan";"Perumahan";"Tanah Perumahan ASN";"GQ9R+J2J, Kumbang Indah, Kec. Badar, Kabupaten Aceh Tenggara, Aceh 24651";"Kumbang Indah, Kec. Badar, Kabupaten Aceh Tenggara";"ACEH";"24651";"Indonesia";"";"3.5190929";"97.7900181";"https://maps.google.com/?cid=0x0:0x19da29e0d57809a0"
"perumahan";"Balai Pertemuan Desa";"Jalan desa lawe kinga gabungan";"9VMH+CHP, Lawe Kinga Gab, Kec. Semadam, Kabupaten Aceh Tenggara, Aceh";"Kabupaten Aceh Tenggara, Aceh";"ACEH";"";"Indonesia";"";"3.3835987";"97.878963";"https://maps.google.com/?cid=0x0:0x7763b193439a78a"
"perumahan";"Perhimpunan Pengembang Perumahan";"RUMAHKU";"FRGC+3PR, Perumnas Nuansa, Alas Indah, Kec. Lawe Bulan, Kabupaten Aceh Tenggara, Aceh 24651";"Perumnas Nuansa, Alas Indah, Kec. Lawe Bulan, Kabupaten Aceh Tenggara";"ACEH";"24651";"Indonesia";"";"3.4752563";"97.8218409";"https://maps.google.com/?cid=0x0:0x1059b780c34a4ff0"
"perumahan";"Komplek perumahan";"Dusun rumah kampung";"CRFG+27, Lawe Kongkir, Kec. Lawe Alas, Kabupaten Aceh Tenggara, Aceh";"Kabupaten Aceh Tenggara, Aceh";"ACEH";"";"Indonesia";"";"3.4221764";"97.8252345";"https://maps.google.com/?cid=0x0:0x39e36fc7391a8b69"
"perumahan";"Perhimpunan Pengembang Perumahan";"Aceh Tenggara";"9V88+F4Q, Titi Mas, Kec. Babul Rahman, Kabupaten Aceh Tenggara, Aceh";"Kabupaten Aceh Tenggara, Aceh";"ACEH";"";"Indonesia";"";"3.36622";"97.8653578";"https://maps.google.com/?cid=0x0:0xa0452c63e42ba4d1"
"perumahan";"perumahan";"Aceh 24673";"Kabupaten Aceh Tenggara, Aceh";"Kabupaten Aceh Tenggara, Aceh";"ACEH";"";"Indonesia";"";"3.0291759";"97.8286368";"https://maps.google.com/?cid=0x0:0x9e7ae9b803d7455"
"perumahan";"perumahan";"Rumah";"8X35+5R, Lawe Mantik, Kec. Babul Makmur, Kabupaten Aceh Tenggara, Aceh 24673";"Lawe Mantik, Kec. Babul Makmur, Kabupaten Aceh Tenggara";"ACEH";"24673";"Indonesia";"";"3.301948";"97.958586";"https://maps.google.com/?cid=0x0:0x3edd2eb9207682b8"
"perumahan";"Pembangunan Perumahan";"Perumahan Alas Residence V";"FRQ3+GWM, Muara Lawe Bulan, Kec. Babussalam, Kabupaten Aceh Tenggara, Aceh 24651";"Muara Lawe Bulan, Kec. Babussalam, Kabupaten Aceh Tenggara";"ACEH";"24651";"Indonesia";" 082272307335";"3.4888447";"97.8047867";"https://maps.google.com/?cid=0x0:0xf841a87f113c7f33"
"perumahan";"Pembangunan Perumahan";"Naga timbul";"3XX9+XW9, Naga Timbul, Kec. Lauser, Kabupaten Aceh Tenggara, Aceh 24673";"Naga Timbul, Kec. Lauser, Kabupaten Aceh Tenggara";"ACEH";"24673";"Indonesia";"";"3.0999";"97.9698602";"https://maps.google.com/?cid=0x0:0x111f121b145b65f4"
"perumahan";"Komplek perumahan";"Ladang Sinaga";"4X32+3FJ Rumah sinaga, Sade Ate, Kec. Lauser, Kabupaten Aceh Tenggara, Aceh 24673";"Sade Ate, Kec. Lauser, Kabupaten Aceh Tenggara";"ACEH";"24673";"Indonesia";"";"3.1027216";"97.9511377";"https://maps.google.com/?cid=0x0:0x64e5c57751fa2eb"
"perumahan";"Perhimpunan Pengembang Perumahan";"M. Yahya Home Family";"Lawe Pakam, Jl. Kutacane No.9, Pintu Alas, Kec. Babul Makmur, Kabupaten Aceh Tenggara, Aceh 24673";"Jl. Kutacane No.9, Pintu Alas, Kec. Babul Makmur, Kabupaten Aceh Tenggara";"ACEH";"24673";"Indonesia";" 081282505902";"3.2862632";"97.9801793";"https://maps.google.com/?cid=0x0:0x3072fb87518c4743"
"perumahan";"perumahan";"Rumah Acik afdall";"7XQH+FFF, Jl. Kutacane-Tigabinanga, Tanoh Alas, Kec. Babul Makmur, Kabupaten Aceh Tenggara, Aceh 24673";"Jl. Kutacane-Tigabinanga, Tanoh Alas, Kec. Babul Makmur, Kabupaten Aceh Tenggara";"ACEH";"24673";"Indonesia";"";"3.288497";"97.979405";"https://maps.google.com/?cid=0x0:0xfc07ae4b201b24fa"
"perumahan";"Komplek perumahan";"Erwin Siregar";"8W2H+J75, Gabungan Parsaoran, Kec. Babul Makmur, Kabupaten Aceh Tenggara, Aceh 24673";"Gabungan Parsaoran, Kec. Babul Makmur, Kabupaten Aceh Tenggara";"ACEH";"24673";"Indonesia";"";"3.301285";"97.928378";"https://maps.google.com/?cid=0x0:0x937115d5514112cc"
"perumahan";"Komplek perumahan";"Tanah baru";"8WVH+RPP, Tanah Baru, Kec. Lawe Sigala-Gala, Kabupaten Aceh Tenggara, Aceh 24673";"Tanah Baru, Kec. Lawe Sigala-Gala, Kabupaten Aceh Tenggara";"ACEH";"24673";"Indonesia";"";"3.344578";"97.9293154";"https://maps.google.com/?cid=0x0:0x5982059fbd0b4447"
"perumahan";"Komplek perumahan";"Desa Lawe srakut";"4WG3+V3, Hutan, Kec. Lauser, Kabupaten Aceh Tenggara, Aceh";"Kabupaten Aceh Tenggara, Aceh";"ACEH";"";"Indonesia";"";"3.1271342";"97.9026449";"https://maps.google.com/?cid=0x0:0x680e359f9a534180"
"perumahan";"Pembangunan Perumahan";"Rumah alfa dila";"7XPP+533, Lawe mentebah, Pintu Alas, Kec. Babul Makmur, Kabupaten Aceh Tenggara, Aceh 24673";"Lawe mentebah, Pintu Alas, Kec. Babul Makmur, Kabupaten Aceh Tenggara";"ACEH";"24673";"Indonesia";"";"3.2853929";"97.9851724";"https://maps.google.com/?cid=0x0:0x4db63b63ec7f4438"
"perumahan";"Pembangunan Perumahan";"Simpang empat";"6XQ5+M33, Lau Pakam, Kec. Mardinding, Kabupaten Karo, Sumatera Utara 22165";"Lau Pakam, Kec. Mardinding, Kabupaten Karo";"ACEH";"22165";"Indonesia";"";"3.2391414";"97.9576689";"https://maps.google.com/?cid=0x0:0x6965bb8728bd15b8"
"perumahan";"Komplek perumahan";"Tempat tinggal";"8WVH+8PP, Tanah Baru, Kec. Lawe Sigala-Gala, Kabupaten Aceh Tenggara, Aceh 24673";"Tanah Baru, Kec. Lawe Sigala-Gala, Kabupaten Aceh Tenggara";"ACEH";"24673";"Indonesia";"";"3.0291759";"97.8286368";"https://maps.google.com/?cid=0x0:0xacfb044adae3e2a7"
"perumahan";"Pembangunan Perumahan";"Tanah baru Lawe sigala";"8WVF+826, Tanah Baru, Kec. Lawe Sigala-Gala, Kabupaten Aceh Tenggara, Aceh 24673";"Tanah Baru, Kec. Lawe Sigala-Gala, Kabupaten Aceh Tenggara";"ACEH";"24673";"Indonesia";"";"3.3432811";"97.922517";"https://maps.google.com/?cid=0x0:0xad8a1a630c878155"
"housing complex";"Komplek perumahan";"Rumah Ajhoe";"8W9X+WC3, Sabilussalam, Kec. Babul Makmur, Kabupaten Aceh Tenggara, Aceh 24673";"Sabilussalam, Kec. Babul Makmur, Kabupaten Aceh Tenggara";"ACEH";"24673";"Indonesia";"";"3.3197581";"97.94854";"https://maps.google.com/?cid=0x0:0xfab32d82c12b3b5a"
"housing complex";"Komplek perumahan";"Imel";"7WGF+3FR, Musara Setia, Kec. Babul Makmur, Kabupaten Aceh Tenggara, Aceh 24673";"Musara Setia, Kec. Babul Makmur, Kabupaten Aceh Tenggara";"ACEH";"24673";"Indonesia";"";"3.2752432";"97.923628";"https://maps.google.com/?cid=0x0:0x4d489840ce8d176e"
"housing complex";"housing complex";"Kec. Babul Makmur";"Kabupaten Aceh Tenggara, Aceh";"Kabupaten Aceh Tenggara, Aceh";"ACEH";"";"Indonesia";"";"3.2886858";"97.9785032";"https://maps.google.com/?cid=0x0:0xa32290e982898875"
"housing complex";"housing complex";"Rumah";"8X35+5R, Lawe Mantik, Kec. Babul Makmur, Kabupaten Aceh Tenggara, Aceh 24673";"Lawe Mantik, Kec. Babul Makmur, Kabupaten Aceh Tenggara";"ACEH";"24673";"Indonesia";"";"3.301948";"97.958586";"https://maps.google.com/?cid=0x0:0x3edd2eb9207682b8"
"housing complex";"Gedung Apartemen";"Op. Lindung Siregar";"8X73+7V3, Lawe Desky Tongah, Kec. Babul Makmur, Kabupaten Aceh Tenggara, Aceh 24673";"Lawe Desky Tongah, Kec. Babul Makmur, Kabupaten Aceh Tenggara";"ACEH";"24673";"Indonesia";"";"3.3136891";"97.9544234";"https://maps.google.com/?cid=0x0:0x82f990c7a0c4c4e8"
"housing complex";"Perhimpunan Pengembang Perumahan";"M. Yahya Home Family";"Lawe Pakam, Jl. Kutacane No.9, Pintu Alas, Kec. Babul Makmur, Kabupaten Aceh Tenggara, Aceh 24673";"Jl. Kutacane No.9, Pintu Alas, Kec. Babul Makmur, Kabupaten Aceh Tenggara";"ACEH";"24673";"Indonesia";" 081282505902";"3.2862632";"97.9801793";"https://maps.google.com/?cid=0x0:0x3072fb87518c4743"
"housing complex";"Komplek perumahan";"Erwin Siregar";"8W2H+J75, Gabungan Parsaoran, Kec. Babul Makmur, Kabupaten Aceh Tenggara, Aceh 24673";"Gabungan Parsaoran, Kec. Babul Makmur, Kabupaten Aceh Tenggara";"ACEH";"24673";"Indonesia";"";"3.301285";"97.928378";"https://maps.google.com/?cid=0x0:0x937115d5514112cc"
"housing complex";"Komplek perumahan";"Jerman Simanjuntak";"8X36+WGM, Lawe Mantik, Kec. Babul Makmur, Kabupaten Aceh Tenggara, Aceh 24673";"Lawe Mantik, Kec. Babul Makmur, Kabupaten Aceh Tenggara";"ACEH";"24673";"Indonesia";"";"3.3045412";"97.9614545";"https://maps.google.com/?cid=0x0:0xdb17da885c921307"
"housing complex";"Komplek perumahan";"Kampung Lubis";"7XMC+XCR, Tanoh Alas, Kec. Babul Makmur, Kabupaten Aceh Tenggara, Aceh";"Kabupaten Aceh Tenggara, Aceh";"ACEH";"";"Indonesia";"";"3.2849885";"97.9710139";"https://maps.google.com/?cid=0x0:0x1221d2d642f8b1de"
"housing complex";"Komplek perumahan";"S.siburian";"8X36+JRG, Lawe Mantik, Kec. Babul Makmur, Kabupaten Aceh Tenggara, Aceh 24673";"Lawe Mantik, Kec. Babul Makmur, Kabupaten Aceh Tenggara";"ACEH";"24673";"Indonesia";"";"3.303704";"97.961132";"https://maps.google.com/?cid=0x0:0x11e2c32cecfc579a"
"housing complex";"Komplek perumahan";"Laweperbunga atas";"7XX5+FCH, Lawe Perbunga, Kec. Babul Makmur, Kabupaten Aceh Tenggara, Aceh 24673";"Lawe Perbunga, Kec. Babul Makmur, Kabupaten Aceh Tenggara";"ACEH";"24673";"Indonesia";"";"3.2986979";"97.9586053";"https://maps.google.com/?cid=0x0:0xd848769d35155083"
"housing complex";"Balai masyarakat";"Desa Lawe Desky l Babul Makmur Aceh Tenggara Aceh";"8X73+V4J, Lawe Desky Tongah, Kec. Babul Makmur, Kabupaten Aceh Tenggara, Aceh 24673";"Lawe Desky Tongah, Kec. Babul Makmur, Kabupaten Aceh Tenggara";"ACEH";"24673";"Indonesia";"";"3.3147006";"97.9527786";"https://maps.google.com/?cid=0x0:0xfcdd82aa25913b8b"
"housing complex";"Kompleks Kolam Renang";"Intan waterbo";"7XW7+X39, Cinta Makmur, Kec. Babul Makmur, Kabupaten Aceh Tenggara, Aceh 24673";"Cinta Makmur, Kec. Babul Makmur, Kabupaten Aceh Tenggara";"ACEH";"24673";"Indonesia";"";"3.2974225";"97.9627479";"https://maps.google.com/?cid=0x0:0xd054bc5ca49c90f"
"housing complex";"Kantor Pemerintah";"Lawe mantik";"8X35+5R, Lawe Mantik, Kec. Babul Makmur, Kabupaten Aceh Tenggara, Aceh 24673";"Lawe Mantik, Kec. Babul Makmur, Kabupaten Aceh Tenggara";"ACEH";"24673";"Indonesia";"";"3.3029467";"97.9595117";"https://maps.google.com/?cid=0x0:0x8dae755396187a03"
"housing complex";"Komplek perumahan";"Rumah Ajhoe";"8W9X+WC3, Sabilussalam, Kec. Babul Makmur, Kabupaten Aceh Tenggara, Aceh 24673";"Sabilussalam, Kec. Babul Makmur, Kabupaten Aceh Tenggara";"ACEH";"24673";"Indonesia";"";"3.3197581";"97.94854";"https://maps.google.com/?cid=0x0:0xfab32d82c12b3b5a"
"housing complex";"housing complex";"Aceh 24673";"Kabupaten Aceh Tenggara, Aceh";"Kabupaten Aceh Tenggara, Aceh";"ACEH";"";"Indonesia";"";"3.0291759";"97.8286368";"https://maps.google.com/?cid=0x0:0x9e7ae9b803d7455"
"housing complex";"Perhimpunan Pengembang Perumahan";"M. Yahya Home Family";"Lawe Pakam, Jl. Kutacane No.9, Pintu Alas, Kec. Babul Makmur, Kabupaten Aceh Tenggara, Aceh 24673";"Jl. Kutacane No.9, Pintu Alas, Kec. Babul Makmur, Kabupaten Aceh Tenggara";"ACEH";"24673";"Indonesia";" 081282505902";"3.2862632";"97.9801793";"https://maps.google.com/?cid=0x0:0x3072fb87518c4743"
"housing complex";"Komplek perumahan";"Kuta Lang Lang";"8VPQ+W4F, Kuta Lang Lang, Kec. Babul Rahman, Kabupaten Aceh Tenggara, Aceh 24673";"Kuta Lang Lang, Kec. Babul Rahman, Kabupaten Aceh Tenggara";"ACEH";"24673";"Indonesia";"";"3.3373143";"97.887793";"https://maps.google.com/?cid=0x0:0x33a0648ae7f951c2"
"housing complex";"Gedung Apartemen";"Op. Lindung Siregar";"8X73+7V3, Lawe Desky Tongah, Kec. Babul Makmur, Kabupaten Aceh Tenggara, Aceh 24673";"Lawe Desky Tongah, Kec. Babul Makmur, Kabupaten Aceh Tenggara";"ACEH";"24673";"Indonesia";"";"3.3136891";"97.9544234";"https://maps.google.com/?cid=0x0:0x82f990c7a0c4c4e8"
"housing complex";"Komplek perumahan";"surbakti gajah";"7XX7+6WH, Cinta Makmur, Kec. Babul Makmur, Kabupaten Aceh Tenggara, Aceh 24673";"Cinta Makmur, Kec. Babul Makmur, Kabupaten Aceh Tenggara";"ACEH";"24673";"Indonesia";"";"3.2977022";"97.965214";"https://maps.google.com/?cid=0x0:0xf22775018a174501"
"housing complex";"housing complex";"Rumah";"8X35+5R, Lawe Mantik, Kec. Babul Makmur, Kabupaten Aceh Tenggara, Aceh 24673";"Lawe Mantik, Kec. Babul Makmur, Kabupaten Aceh Tenggara";"ACEH";"24673";"Indonesia";"";"3.301948";"97.958586";"https://maps.google.com/?cid=0x0:0x3edd2eb9207682b8"
"housing complex";"Komplek perumahan";"Erwin Siregar";"8W2H+J75, Gabungan Parsaoran, Kec. Babul Makmur, Kabupaten Aceh Tenggara, Aceh 24673";"Gabungan Parsaoran, Kec. Babul Makmur, Kabupaten Aceh Tenggara";"ACEH";"24673";"Indonesia";"";"3.301285";"97.928378";"https://maps.google.com/?cid=0x0:0x937115d5514112cc"
"housing complex";"Komplek perumahan";"Jerman Simanjuntak";"8X36+WGM, Lawe Mantik, Kec. Babul Makmur, Kabupaten Aceh Tenggara, Aceh 24673";"Lawe Mantik, Kec. Babul Makmur, Kabupaten Aceh Tenggara";"ACEH";"24673";"Indonesia";"";"3.3045412";"97.9614545";"https://maps.google.com/?cid=0x0:0xdb17da885c921307"
"housing complex";"Komplek perumahan";"Rumah sayank";"8WF2+VRQ, Lawe Sumur, Kec. Babul Rahman, Kabupaten Aceh Tenggara, Aceh 24673";"Lawe Sumur, Kec. Babul Rahman, Kabupaten Aceh Tenggara";"ACEH";"24673";"Indonesia";"";"3.3247247";"97.9020977";"https://maps.google.com/?cid=0x0:0x9fcece4eb3f68a6b"
"housing complex";"Komplek perumahan";"Laweperbunga atas";"7XX5+FCH, Lawe Perbunga, Kec. Babul Makmur, Kabupaten Aceh Tenggara, Aceh 24673";"Lawe Perbunga, Kec. Babul Makmur, Kabupaten Aceh Tenggara";"ACEH";"24673";"Indonesia";"";"3.2986979";"97.9586053";"https://maps.google.com/?cid=0x0:0xd848769d35155083"
"housing complex";"housing complex";"Komplek Tower";"62H4+8V7, Mardingding, Kec. Mardinding, Kabupaten Karo, Sumatera Utara 22165";"Mardingding, Kec. Mardinding, Kabupaten Karo";"ACEH";"22165";"Indonesia";"";"3.2282787";"98.0071791";"https://maps.google.com/?cid=0x0:0x86ed6eb3d5cb17b6"
"housing complex";"Komplek perumahan";"Kampung Lubis";"7XMC+XCR, Tanoh Alas, Kec. Babul Makmur, Kabupaten Aceh Tenggara, Aceh";"Kabupaten Aceh Tenggara, Aceh";"ACEH";"";"Indonesia";"";"3.2849885";"97.9710139";"https://maps.google.com/?cid=0x0:0x1221d2d642f8b1de"
"housing complex";"Kompleks Kondominium";"Rmh P Ridho Gt Manik";"8X73+P4R, Lawe Deski Sabas, Kec. Babul Makmur, Kabupaten Aceh Tenggara, Aceh 24673";"Lawe Deski Sabas, Kec. Babul Makmur, Kabupaten Aceh Tenggara";"ACEH";"24673";"Indonesia";"";"3.3143679";"97.9527558";"https://maps.google.com/?cid=0x0:0x8e2370e5e73b6174"
"housing complex";"housing complex";"Kec. Babussalam";"Kabupaten Aceh Tenggara, Aceh";"Kabupaten Aceh Tenggara, Aceh";"ACEH";"";"Indonesia";"";"3.4831986";"97.812801";"https://maps.google.com/?cid=0x0:0x585c8bae275f9877"
"housing complex";"Pembangunan Perumahan";"tempat tinggal abot/bojes";"FRM4+W2X, Muara Lawe Bulan, Kec. Babussalam, Kabupaten Aceh Tenggara, Aceh 24651";"Muara Lawe Bulan, Kec. Babussalam, Kabupaten Aceh Tenggara";"ACEH";"24651";"Indonesia";"";"3.4848157";"97.8047649";"https://maps.google.com/?cid=0x0:0x80b52994b5f5f1ca"
"housing complex";"Perumahan";"Perumahan Kartika";"FRW4+H3J, Batu Bulan Asli, Kec. Babussalam, Kabupaten Aceh Tenggara, Aceh 24651";"Batu Bulan Asli, Kec. Babussalam, Kabupaten Aceh Tenggara";"ACEH";"24651";"Indonesia";"";"3.4964566";"97.8051491";"https://maps.google.com/?cid=0x0:0xeea196a809e42429"
"housing complex";"Komplek perumahan";"Rumah Zibar";"FRP7+GFQ, Kota Kutacane, Kec. Babussalam, Kabupaten Aceh Tenggara, Aceh 24651";"Kota Kutacane, Kec. Babussalam, Kabupaten Aceh Tenggara";"ACEH";"24651";"Indonesia";"";"3.4863254";"97.8137434";"https://maps.google.com/?cid=0x0:0x41ebb5bda718bf7b"
"housing complex";"Komplek perumahan";"Perumahan Graha Village Residence";"FRQ4+6Q4, Kota Kutacane, Kec. Babussalam, Kabupaten Aceh Tenggara, Aceh 24651";"Kota Kutacane, Kec. Babussalam, Kabupaten Aceh Tenggara";"ACEH";"24651";"Indonesia";"";"3.4878686";"97.8069426";"https://maps.google.com/?cid=0x0:0xc92338dbcc500c40"
"housing complex";"Toko";"Sabata town house";"Unnamed Road, Muara Lawe Bulan, Kec. Babussalam, Kabupaten Aceh Tenggara, Aceh 24651";"Muara Lawe Bulan, Kec. Babussalam, Kabupaten Aceh Tenggara";"ACEH";"24651";"Indonesia";"";"3.4842298";"97.8066783";"https://maps.google.com/?cid=0x0:0x4fdd32652b3c78b"
"housing complex";"Komplek perumahan";"Kuta Batu Baru";"FR66+FHF, Kute Batu Baru, Kec. Lawe Alas, Kabupaten Aceh Tenggara, Aceh 24651";"Kute Batu Baru, Kec. Lawe Alas, Kabupaten Aceh Tenggara";"ACEH";"24651";"Indonesia";"";"3.4611981";"97.8114309";"https://maps.google.com/?cid=0x0:0x71e579479063f4f6"
"housing complex";"Komplek perumahan";"Rusli Gayo";"FRR4+6MR, Pulonas, Kec. Babussalam, Kabupaten Aceh Tenggara, Aceh 24651";"Pulonas, Kec. Babussalam, Kabupaten Aceh Tenggara";"ACEH";"24651";"Indonesia";"";"3.490603";"97.8066256";"https://maps.google.com/?cid=0x0:0xf32ef62bef77bbaa"
"housing complex";"housing complex";"RUMAH WAWAN DESKY";"FRP7+4RX, Pasir Gala, Kec. Lawe Bulan, Kabupaten Aceh Tenggara, Aceh 24651";"Pasir Gala, Kec. Lawe Bulan, Kabupaten Aceh Tenggara";"ACEH";"24651";"Indonesia";"";"3.4855108";"97.8143048";"https://maps.google.com/?cid=0x0:0xc120ba523a867fd5"
"housing complex";"Komplek perumahan";"Desa kute pulosanggar";"FRM5+87P, Unnamed Road, Kota Kutacane, Kec. Babussalam, Kabupaten Aceh Tenggara, Aceh 24651";"Unnamed Road, Kota Kutacane, Kec. Babussalam, Kabupaten Aceh Tenggara";"ACEH";"24651";"Indonesia";"";"3.4833421";"97.808202";"https://maps.google.com/?cid=0x0:0x812298a4046de9a6"
"housing complex";"Perhimpunan Pengembang Perumahan";"Area komplek";"FRJ6+3RX, Kota Kutacane, Kec. Babussalam, Kabupaten Aceh Tenggara, Aceh 24651";"Kota Kutacane, Kec. Babussalam, Kabupaten Aceh Tenggara";"ACEH";"24651";"Indonesia";"";"3.4802411";"97.8120965";"https://maps.google.com/?cid=0x0:0x9518bef2de6fe972"
"housing complex";"Taman";"Rumah datok";"FRC9+F59, jl.leuser desa kutarih, Gumpang Jaya, Kec. Babussalam, Kabupaten Aceh Tenggara, Aceh 24651";"jl.leuser desa kutarih, Gumpang Jaya, Kec. Babussalam, Kabupaten Aceh Tenggara";"ACEH";"24651";"Indonesia";"";"3.471086";"97.8181447";"https://maps.google.com/?cid=0x0:0x343ff6321823fc2c"
"housing complex";"Komplek perumahan";"Rumah mamak epan";"Jl. Iskandar Muda No.14, Perapat Titi Panjang, Kec. Babussalam, Kabupaten Aceh Tenggara, Aceh 24651";"Perapat Titi Panjang, Kec. Babussalam, Kabupaten Aceh Tenggara";"ACEH";"24651";"Indonesia";"";"3.4775711";"97.8142143";"https://maps.google.com/?cid=0x0:0x541fca86406858a5"
"housing complex";"Komplek perumahan";"Rumah arkemo";"FRP8+93P, Pasir Gala, Kec. Lawe Bulan, Kabupaten Aceh Tenggara, Aceh 24651";"Pasir Gala, Kec. Lawe Bulan, Kabupaten Aceh Tenggara";"ACEH";"24651";"Indonesia";"";"3.4858799";"97.8150132";"https://maps.google.com/?cid=0x0:0x73c7308f7b89edfd"
"housing complex";"housing complex";"Kec. Babussalam";"Kabupaten Aceh Tenggara, Aceh";"Kabupaten Aceh Tenggara, Aceh";"ACEH";"";"Indonesia";"";"3.4831986";"97.812801";"https://maps.google.com/?cid=0x0:0x585c8bae275f9877"
"housing complex";"Perumahan";"Perumahan Kartika";"FRW4+H3J, Batu Bulan Asli, Kec. Babussalam, Kabupaten Aceh Tenggara, Aceh 24651";"Batu Bulan Asli, Kec. Babussalam, Kabupaten Aceh Tenggara";"ACEH";"24651";"Indonesia";"";"3.4964566";"97.8051491";"https://maps.google.com/?cid=0x0:0xeea196a809e42429"
"housing complex";"Komplek perumahan";"Perumahan Graha Village Residence";"FRQ4+6Q4, Kota Kutacane, Kec. Babussalam, Kabupaten Aceh Tenggara, Aceh 24651";"Kota Kutacane, Kec. Babussalam, Kabupaten Aceh Tenggara";"ACEH";"24651";"Indonesia";"";"3.4878686";"97.8069426";"https://maps.google.com/?cid=0x0:0xc92338dbcc500c40"
"housing complex";"Komplek perumahan";"Rumah Zibar";"FRP7+GFQ, Kota Kutacane, Kec. Babussalam, Kabupaten Aceh Tenggara, Aceh 24651";"Kota Kutacane, Kec. Babussalam, Kabupaten Aceh Tenggara";"ACEH";"24651";"Indonesia";"";"3.4863254";"97.8137434";"https://maps.google.com/?cid=0x0:0x41ebb5bda718bf7b"
"housing complex";"Komplek perumahan";"Tigan Noah";"FRR4+XF6 Batu mbulan, Pulonas, Kec. Babussalam, Kabupaten Aceh Tenggara, Aceh 24651";"Pulonas, Kec. Babussalam, Kabupaten Aceh Tenggara";"ACEH";"24651";"Indonesia";"";"3.4924033";"97.8061517";"https://maps.google.com/?cid=0x0:0xc2b38bf1f4c2573b"
"housing complex";"Toko";"Sabata town house";"Unnamed Road, Muara Lawe Bulan, Kec. Babussalam, Kabupaten Aceh Tenggara, Aceh 24651";"Muara Lawe Bulan, Kec. Babussalam, Kabupaten Aceh Tenggara";"ACEH";"24651";"Indonesia";"";"3.4842298";"97.8066783";"https://maps.google.com/?cid=0x0:0x4fdd32652b3c78b"
"housing complex";"housing complex";"RUMAH WAWAN DESKY";"FRP7+4RX, Pasir Gala, Kec. Lawe Bulan, Kabupaten Aceh Tenggara, Aceh 24651";"Pasir Gala, Kec. Lawe Bulan, Kabupaten Aceh Tenggara";"ACEH";"24651";"Indonesia";"";"3.4855108";"97.8143048";"https://maps.google.com/?cid=0x0:0xc120ba523a867fd5"
"housing complex";"Perhimpunan Pengembang Perumahan";"Area komplek";"FRJ6+3RX, Kota Kutacane, Kec. Babussalam, Kabupaten Aceh Tenggara, Aceh 24651";"Kota Kutacane, Kec. Babussalam, Kabupaten Aceh Tenggara";"ACEH";"24651";"Indonesia";"";"3.4802411";"97.8120965";"https://maps.google.com/?cid=0x0:0x9518bef2de6fe972"
"housing complex";"Komplek perumahan";"Kuta Batu Baru";"FR66+FHF, Kute Batu Baru, Kec. Lawe Alas, Kabupaten Aceh Tenggara, Aceh 24651";"Kute Batu Baru, Kec. Lawe Alas, Kabupaten Aceh Tenggara";"ACEH";"24651";"Indonesia";"";"3.4611981";"97.8114309";"https://maps.google.com/?cid=0x0:0x71e579479063f4f6"
"housing complex";"Komplek perumahan";"PERUMAHAN BATUMBULAN ROYAL RESIDENCE";"GR62+8R, Deleng Megakhe, Kec. Badar, Kabupaten Aceh Tenggara, Aceh";"Kabupaten Aceh Tenggara, Aceh";"ACEH";"";"Indonesia";"";"3.5108249";"97.8021075";"https://maps.google.com/?cid=0x0:0xb4ceba63a0609706"
"housing complex";"Taman";"Rumah datok";"FRC9+F59, jl.leuser desa kutarih, Gumpang Jaya, Kec. Babussalam, Kabupaten Aceh Tenggara, Aceh 24651";"jl.leuser desa kutarih, Gumpang Jaya, Kec. Babussalam, Kabupaten Aceh Tenggara";"ACEH";"24651";"Indonesia";"";"3.471086";"97.8181447";"https://maps.google.com/?cid=0x0:0x343ff6321823fc2c"
"housing complex";"Komplek perumahan";"Desa kute pulosanggar";"FRM5+87P, Unnamed Road, Kota Kutacane, Kec. Babussalam, Kabupaten Aceh Tenggara, Aceh 24651";"Unnamed Road, Kota Kutacane, Kec. Babussalam, Kabupaten Aceh Tenggara";"ACEH";"24651";"Indonesia";"";"3.4833421";"97.808202";"https://maps.google.com/?cid=0x0:0x812298a4046de9a6"
"housing complex";"Komplek perumahan";"Rusli Gayo";"FRR4+6MR, Pulonas, Kec. Babussalam, Kabupaten Aceh Tenggara, Aceh 24651";"Pulonas, Kec. Babussalam, Kabupaten Aceh Tenggara";"ACEH";"24651";"Indonesia";"";"3.490603";"97.8066256";"https://maps.google.com/?cid=0x0:0xf32ef62bef77bbaa"
"housing complex";"Pembangunan Perumahan";"XII PLUS D SMANSA";"Jl. Iskandar Muda No.2, Bambel, Kec. Bambel, Kabupaten Aceh Tenggara, Aceh 24651";"Bambel, Kec. Bambel, Kabupaten Aceh Tenggara";"ACEH";"24651";"Indonesia";"";"3.4664531";"97.8260688";"https://maps.google.com/?cid=0x0:0x28d1eb2f3a15ffc4"
"housing complex";"Komplek perumahan";"rumah her";"GRC2+Q26, Tanah Merah, Kec. Badar, Kabupaten Aceh Tenggara, Aceh 24651";"Tanah Merah, Kec. Badar, Kabupaten Aceh Tenggara";"ACEH";"24651";"Indonesia";"";"3.5217922";"97.8000985";"https://maps.google.com/?cid=0x0:0x67e274f906e6b73e"
"housing complex";"Perhimpunan Pengembang Perumahan";"Komplek Perumahan Ir. Hj. Hasanuddin B";"GRC3+258, Hutan, Kec. Badar, Kabupaten Aceh Tenggara, Aceh 24651";"Hutan, Kec. Badar, Kabupaten Aceh Tenggara";"ACEH";"24651";"Indonesia";"";"3.5200357";"97.8029391";"https://maps.google.com/?cid=0x0:0xda828f7575d6dd34"
"housing complex";"housing complex";"Aceh 24652";"Kabupaten Aceh Tenggara, Aceh";"Kabupaten Aceh Tenggara, Aceh";"ACEH";"";"Indonesia";"";"3.6699926";"97.654811";"https://maps.google.com/?cid=0x0:0xf321f2dc3f3b9295"
"housing complex";"Komplek perumahan";"Tempat tinggal Mansur";"blok AA.10, Kumbang Indah, Kec. Badar, Kabupaten Aceh Tenggara, Aceh 24651";"Kumbang Indah, Kec. Badar, Kabupaten Aceh Tenggara";"ACEH";"24651";"Indonesia";"";"3.52055";"97.7932143";"https://maps.google.com/?cid=0x0:0x80f81cf8afad46c6"
"housing complex";"Komplek perumahan";"Perumahan Meta Mutiara";"GQCQ+MM, Kumbang Indah, Kec. Badar, Kabupaten Aceh Tenggara, Aceh";"Kabupaten Aceh Tenggara, Aceh";"ACEH";"";"Indonesia";" 085174369655";"3.52175";"97.7892222";"https://maps.google.com/?cid=0x0:0xf1d61e744daf3e1f"
"housing complex";"Komplek perumahan";"PERUMAHAN BATUMBULAN ROYAL RESIDENCE";"GR62+8R, Deleng Megakhe, Kec. Badar, Kabupaten Aceh Tenggara, Aceh";"Kabupaten Aceh Tenggara, Aceh";"ACEH";"";"Indonesia";"";"3.5108249";"97.8021075";"https://maps.google.com/?cid=0x0:0xb4ceba63a0609706"
"housing complex";"Komplek perumahan";"Rm";"GQXJ+G7R, Hutan, Kec. Badar, Kabupaten Aceh Tenggara, Aceh";"Kabupaten Aceh Tenggara, Aceh";"ACEH";"";"Indonesia";"";"3.5488564";"97.7806257";"https://maps.google.com/?cid=0x0:0xbe732259e98144e2"
"housing complex";"Pembangunan Perumahan";"Muhammad Nasir";"Blok B No.4, Kumbang Indah, Kec. Badar, Kabupaten Aceh Tenggara, Aceh 24651";"Kumbang Indah, Kec. Badar, Kabupaten Aceh Tenggara";"ACEH";"24651";"Indonesia";"";"3.5217634";"97.7903908";"https://maps.google.com/?cid=0x0:0xa86bd54999d8abda"
"housing complex";"housing complex";"Rumah AL";"GQGR+VCR, Kp. Baru, Kec. Badar, Kabupaten Aceh Tenggara, Aceh 24651";"Kp. Baru, Kec. Badar, Kabupaten Aceh Tenggara";"ACEH";"24651";"Indonesia";"";"3.5272382";"97.7910218";"https://maps.google.com/?cid=0x0:0xf979ee012d895ffa"
"housing complex";"Komplek perumahan";"RUMAH ALBALL";"GQHQ+F95, Kp. Baru, Kec. Badar, Kabupaten Aceh Tenggara, Aceh 24651";"Kp. Baru, Kec. Badar, Kabupaten Aceh Tenggara";"ACEH";"24651";"Indonesia";"";"3.5286431";"97.7884967";"https://maps.google.com/?cid=0x0:0x81ec3327e57dfe74"
"housing complex";"Komplek perumahan";"Rumah Radza";"GRC2+Q26, Tanah Merah, Kec. Badar, Kabupaten Aceh Tenggara, Aceh 24651";"Tanah Merah, Kec. Badar, Kabupaten Aceh Tenggara";"ACEH";"24651";"Indonesia";"";"3.5219186";"97.800029";"https://maps.google.com/?cid=0x0:0xccf4fd8a3ad3d9de"
"housing complex";"Perhimpunan Pengembang Perumahan";"Rumah Yulia";"GQJP+729, Kumbang Jaya, Kec. Badar, Kabupaten Aceh Tenggara, Aceh";"Kabupaten Aceh Tenggara, Aceh";"ACEH";"";"Indonesia";"";"3.5306621";"97.7851233";"https://maps.google.com/?cid=0x0:0xfea2d521f15a9529"
"housing complex";"Komplek perumahan";"Batu Mbekhong";"GQRM+J47, Batu Mberong, Kec. Badar, Kabupaten Aceh Tenggara, Aceh 24562";"Batu Mberong, Kec. Badar, Kabupaten Aceh Tenggara";"ACEH";"24562";"Indonesia";"";"3.5415375";"97.7827969";"https://maps.google.com/?cid=0x0:0xb9d76ea249f1f402"
"housing complex";"Developer Rumah Hunian Khusus";"Peran";"GQWJ+87P peranginan simpang pasar bengkok, Hutan, Kec. Badar, Kabupaten Aceh Tenggara, Aceh 24651";"Hutan, Kec. Badar, Kabupaten Aceh Tenggara";"ACEH";"24651";"Indonesia";"";"3.5458383";"97.7807072";"https://maps.google.com/?cid=0x0:0xe2e1030836148090"
"housing complex";"Pembangunan Perumahan";"XII PLUS D SMANSA";"Jl. Iskandar Muda No.2, Bambel, Kec. Bambel, Kabupaten Aceh Tenggara, Aceh 24651";"Bambel, Kec. Bambel, Kabupaten Aceh Tenggara";"ACEH";"24651";"Indonesia";"";"3.4664531";"97.8260688";"https://maps.google.com/?cid=0x0:0x28d1eb2f3a15ffc4"
"housing complex";"Komplek perumahan";"Fikri";"FR4H+V89, Bambel Gabungan, Kec. Bambel, Kabupaten Aceh Tenggara, Aceh 24651";"Bambel Gabungan, Kec. Bambel, Kabupaten Aceh Tenggara";"ACEH";"24651";"Indonesia";"";"3.4580984";"97.8277419";"https://maps.google.com/?cid=0x0:0x101c184631e673d8"
"housing complex";"Perhimpunan Pengembang Perumahan";"Rumah Pak Mus";"FR5H+QV8, Jl. Iskandar Muda, Bambel Gabungan, Kec. Bambel, Kabupaten Aceh Tenggara, Aceh 24651";"Jl. Iskandar Muda, Bambel Gabungan, Kec. Bambel, Kabupaten Aceh Tenggara";"ACEH";"24651";"Indonesia";"";"3.4594227";"97.8297101";"https://maps.google.com/?cid=0x0:0x8894e1b0804b2f53"
"housing complex";"Gedung Apartemen";"Rumah Kasturi";"CVPF+VWJ, Kuning III, Cinta Damai, Kec. Bambel, Kabupaten Aceh Tenggara, Aceh 24651";"Kuning III, Cinta Damai, Kec. Bambel, Kabupaten Aceh Tenggara";"ACEH";"24651";"Indonesia";"";"3.4367067";"97.8753093";"https://maps.google.com/?cid=0x0:0xa9892f6d6aa06530"
"housing complex";"Komplek perumahan";"Sulastri pinim";"CRGX+PF, Tualang Sembilar Baru, Kec. Bambel, Kabupaten Aceh Tenggara, Aceh";"Kabupaten Aceh Tenggara, Aceh";"ACEH";"";"Indonesia";"";"3.426779";"97.848744";"https://maps.google.com/?cid=0x0:0xa19084063cb777e4"
"housing complex";"housing complex";"Aceh 24671";"Kabupaten Aceh Tenggara, Aceh";"Kabupaten Aceh Tenggara, Aceh";"ACEH";"";"Indonesia";"";"3.3974891";"97.8612767";"https://maps.google.com/?cid=0x0:0x2f1eb6944610f143"
"housing complex";"Komplek perumahan";"Rumah darwinsyah";"CVRG+FF5, Cinta Damai, Kec. Bambel, Kabupaten Aceh Tenggara, Aceh 24651";"Cinta Damai, Kec. Bambel, Kabupaten Aceh Tenggara";"ACEH";"24651";"Indonesia";"";"3.4411292";"97.8762417";"https://maps.google.com/?cid=0x0:0x9e234d24535d1407"
"housing complex";"Komplek perumahan";"Rumah Mak Sulas";"9WV4+593, Suka Makmur, Kec. Semadam, Kabupaten Aceh Tenggara, Aceh 24671";"Suka Makmur, Kec. Semadam, Kabupaten Aceh Tenggara";"ACEH";"24671";"Indonesia";"";"3.3928862";"97.905922";"https://maps.google.com/?cid=0x0:0x2579ef4b1517dc98"
"housing complex";"Komplek perumahan";"Rumah Zaka";"FR3H+P9, Bambel Gabungan, Kec. Bambel, Kabupaten Aceh Tenggara, Aceh";"Kabupaten Aceh Tenggara, Aceh";"ACEH";"";"Indonesia";"";"3.4542998";"97.8284805";"https://maps.google.com/?cid=0x0:0x3cfdf13d025767a2"
"housing complex";"Komplek perumahan";"Rumah wak butet";"CVV3+82, Kuta Lang Lang, Kec. Bambel, Kabupaten Aceh Tenggara, Aceh 24651";"Kuta Lang Lang, Kec. Bambel, Kabupaten Aceh Tenggara";"ACEH";"24651";"Indonesia";"";"3.4432799";"97.8525521";"https://maps.google.com/?cid=0x0:0xc259699b30a13937"
"housing complex";"Pembangunan Perumahan";"DESA KUTA GEKHAT";"CV79+F5W, Kute Gekhat, Kec. Bukit Tusam, Kabupaten Aceh Tenggara, Aceh 24671";"Kute Gekhat, Kec. Bukit Tusam, Kabupaten Aceh Tenggara";"ACEH";"24671";"Indonesia";"";"3.4137232";"97.8679229";"https://maps.google.com/?cid=0x0:0x4faf48e7f94ae459"
"housing complex";"Komplek perumahan";"Rumah Muhammad Fikri";"CRWM+7VJ, Biak Muli Baru, Kec. Bambel, Kabupaten Aceh Tenggara, Aceh 24651";"Biak Muli Baru, Kec. Bambel, Kabupaten Aceh Tenggara";"ACEH";"24651";"Indonesia";"";"3.4463015";"97.8345456";"https://maps.google.com/?cid=0x0:0xba73941e2c91f179"
"housing complex";"Pembangunan Perumahan";"XII PLUS D SMANSA";"Jl. Iskandar Muda No.2, Bambel, Kec. Bambel, Kabupaten Aceh Tenggara, Aceh 24651";"Bambel, Kec. Bambel, Kabupaten Aceh Tenggara";"ACEH";"24651";"Indonesia";"";"3.4664531";"97.8260688";"https://maps.google.com/?cid=0x0:0x28d1eb2f3a15ffc4"
"housing complex";"Komplek perumahan";"Fikri";"FR4H+V89, Bambel Gabungan, Kec. Bambel, Kabupaten Aceh Tenggara, Aceh 24651";"Bambel Gabungan, Kec. Bambel, Kabupaten Aceh Tenggara";"ACEH";"24651";"Indonesia";"";"3.4580984";"97.8277419";"https://maps.google.com/?cid=0x0:0x101c184631e673d8"
"housing complex";"Pembangunan Perumahan";"Junaidi";"CVRG+FF5, Cinta Damai, Kec. Bambel, Kabupaten Aceh Tenggara, Aceh 24651";"Cinta Damai, Kec. Bambel, Kabupaten Aceh Tenggara";"ACEH";"24651";"Indonesia";"";"3.4411292";"97.8762417";"https://maps.google.com/?cid=0x0:0x79d71ed63c18ec1e"
"housing complex";"Komplek perumahan";"Rumah berkah";"CVHM+2X2, Darussalam, Kec. Bukit Tusam, Kabupaten Aceh Tenggara, Aceh 24671";"Darussalam, Kec. Bukit Tusam, Kabupaten Aceh Tenggara";"ACEH";"24671";"Indonesia";"";"3.4275046";"97.8848911";"https://maps.google.com/?cid=0x0:0xbb435b6e69c518dc"
"housing complex";"housing complex";"Rumah kaleng denncis";"FV4F+VHM, Hutan, Kec. Bambel, Kabupaten Aceh Tenggara, Aceh";"Kabupaten Aceh Tenggara, Aceh";"ACEH";"";"Indonesia";"";"3.457206";"97.8739348";"https://maps.google.com/?cid=0x0:0x2bede18976340014"
"housing complex";"Komplek perumahan";"Surya Swanda";"Desa Empat Lima No.69, Lawe Dua Gab, Kec. Bukit Tusam, Kabupaten Aceh Tenggara, Aceh 24671";"Lawe Dua Gab, Kec. Bukit Tusam, Kabupaten Aceh Tenggara";"ACEH";"24671";"Indonesia";"";"3.4306303";"97.8850676";"https://maps.google.com/?cid=0x0:0x261f15decb2ab3ae"
"housing complex";"Komplek perumahan";"Rumah kecil";"CV65+F6W, Mbak Sako, Kec. Bukit Tusam, Kabupaten Aceh Tenggara, Aceh 24671";"Mbak Sako, Kec. Bukit Tusam, Kabupaten Aceh Tenggara";"ACEH";"24671";"Indonesia";"";"3.411232";"97.8580802";"https://maps.google.com/?cid=0x0:0x2ad5b38577bc197"
"housing complex";"housing complex";"Kec. Bukit Tusam";"Kabupaten Aceh Tenggara, Aceh";"Kabupaten Aceh Tenggara, Aceh";"ACEH";"";"Indonesia";"";"3.4266977";"97.8877166";"https://maps.google.com/?cid=0x0:0xf9f3969c7ad2c2c1"
"housing complex";"Komplek perumahan";"Rumah berkah";"CVHM+2X2, Darussalam, Kec. Bukit Tusam, Kabupaten Aceh Tenggara, Aceh 24671";"Darussalam, Kec. Bukit Tusam, Kabupaten Aceh Tenggara";"ACEH";"24671";"Indonesia";"";"3.4275046";"97.8848911";"https://maps.google.com/?cid=0x0:0xbb435b6e69c518dc"
"housing complex";"Komplek perumahan";"Rumah Zen";"CVPJ+FGC, Rikit Bur II, Kec. Bukit Tusam, Kabupaten Aceh Tenggara, Aceh 24651";"Rikit Bur II, Kec. Bukit Tusam, Kabupaten Aceh Tenggara";"ACEH";"24651";"Indonesia";"";"3.4362877";"97.880781";"https://maps.google.com/?cid=0x0:0x6432ecfb6fac883e"
"housing complex";"housing complex";"Refan (Raudatus Mutia)";"CVJP+84H, Lawe Dua Gab, Kec. Bukit Tusam, Kabupaten Aceh Tenggara, Aceh";"Kabupaten Aceh Tenggara, Aceh";"ACEH";"";"Indonesia";"";"3.4308087";"97.8853468";"https://maps.google.com/?cid=0x0:0x5d8b3857e71f4d40"
"housing complex";"Pembangunan Perumahan";"Rumah selvi";"CVGH+5VJ, Lawe Dua Gab, Kec. Bukit Tusam, Kabupaten Aceh Tenggara, Aceh";"Kabupaten Aceh Tenggara, Aceh";"ACEH";"";"Indonesia";"";"3.4254672";"97.8796433";"https://maps.google.com/?cid=0x0:0xef7e81bbebd4e318"
"housing complex";"Komplek perumahan";"Rumah Mek Ivan";"CV99+F6G, Kuta Lingga, Kec. Bukit Tusam, Kabupaten Aceh Tenggara, Aceh 24671";"Kuta Lingga, Kec. Bukit Tusam, Kabupaten Aceh Tenggara";"ACEH";"24671";"Indonesia";"";"3.418049";"97.867579";"https://maps.google.com/?cid=0x0:0x672a05266a030a50"
"housing complex";"Komplek perumahan";"Rumah BAYU";"CVHQ+88M, Pejuang, Kec. Bukit Tusam, Kabupaten Aceh Tenggara, Aceh";"Kabupaten Aceh Tenggara, Aceh";"ACEH";"";"Indonesia";"";"3.4283283";"97.8883084";"https://maps.google.com/?cid=0x0:0x4c3a60464a01e011"
"housing complex";"Komplek perumahan";"Rumah Amel";"9VX5+22G, Alur Buluh, Kec. Bukit Tusam, Kabupaten Aceh Tenggara, Aceh 24671";"Alur Buluh, Kec. Bukit Tusam, Kabupaten Aceh Tenggara";"ACEH";"24671";"Indonesia";"";"3.3975267";"97.8574944";"https://maps.google.com/?cid=0x0:0xa455904f266e0072"
"housing complex";"Komplek perumahan";"Toko obat Nurul Husada";"CVFR+GFC, Darussalam, Kec. Bukit Tusam, Kabupaten Aceh Tenggara, Aceh 24671";"Darussalam, Kec. Bukit Tusam, Kabupaten Aceh Tenggara";"ACEH";"24671";"Indonesia";"";"3.4239953";"97.8910191";"https://maps.google.com/?cid=0x0:0xfdad95d801679dff"
"housing complex";"housing complex";"Rafly jee";"CVHM+RMW, Lawe Dua Gab, Kec. Bukit Tusam, Kabupaten Aceh Tenggara, Aceh 24651";"Lawe Dua Gab, Kec. Bukit Tusam, Kabupaten Aceh Tenggara";"ACEH";"24651";"Indonesia";"";"3.4295739";"97.8842584";"https://maps.google.com/?cid=0x0:0x4e03f1800c530ae2"
"housing complex";"Restoran";"Uda Hijrah Food";"CVMH+5W3, Jl. Kutacane-Tigabinanga, Rikit Bur II, Kec. Bukit Tusam, Kabupaten Aceh Tenggara, Aceh 24671";"Jl. Kutacane-Tigabinanga, Rikit Bur II, Kec. Bukit Tusam, Kabupaten Aceh Tenggara";"ACEH";"24671";"Indonesia";" 085261433231";"3.4328799";"97.8798093";"https://maps.google.com/?cid=0x0:0xb04b094180c83afc"
"housing complex";"Pembangunan Perumahan";"BambangBillboyz Sekedang";"9VV4+GV4, Alur Buluh, Kec. Bukit Tusam, Kabupaten Aceh Tenggara, Aceh";"Kabupaten Aceh Tenggara, Aceh";"ACEH";"";"Indonesia";"";"3.393773";"97.8571959";"https://maps.google.com/?cid=0x0:0x658e09114894343b"
"housing complex";"housing complex";"Aceh 24653";"Aceh";"Aceh";"ACEH";"";"Indonesia";"";"3.510025";"97.5680595";"https://maps.google.com/?cid=0x0:0xfbadf244defba520"
"housing complex";"Hotel";"Penginapan romi alex bulah";"283V+Q66, Kuta Lintang, Kec. Blangkejeren, Kabupaten Gayo Lues, Aceh 24653";"Kuta Lintang, Kec. Blangkejeren, Kabupaten Gayo Lues";"ACEH";"24653";"Indonesia";" 082253909917";"4.0044233";"97.3430011";"https://maps.google.com/?cid=0x0:0x653d5d519ff2d146"
"housing complex";"Pembangunan Perumahan";"Jabo";"X84W+9XW, Unnamed Road, Penggalangan, Kec. Blangkejeren, Kabupaten Gayo Lues, Aceh 24653";"Unnamed Road, Penggalangan, Kec. Blangkejeren, Kabupaten Gayo Lues";"ACEH";"24653";"Indonesia";"";"3.9559775";"97.3474435";"https://maps.google.com/?cid=0x0:0xd3b8205a55d32e31"
"housing complex";"Komplek perumahan";"Rumah mek moli";"HPJR+63, Rambung Jaya, Kec. Darul Hasanah, Kabupaten Aceh Tenggara, Aceh";"Kabupaten Aceh Tenggara, Aceh";"ACEH";"";"Indonesia";"";"3.5804989";"97.7401734";"https://maps.google.com/?cid=0x0:0x1302dd94bb2f71b7"
"housing complex";"Komplek perumahan";"Hasbi Mahda";"Dusun tamak kolak, Porang Ayu, Kec. Blangpegayon, Kabupaten Gayo Lues, Aceh 24653";"Porang Ayu, Kec. Blangpegayon, Kabupaten Gayo Lues";"ACEH";"24653";"Indonesia";"";"3.9910472";"97.3206778";"https://maps.google.com/?cid=0x0:0xdacdcee3b55d07cb"
"housing complex";"Toko Elektronik";"R2 Audio Sound System";"Jl. Blangkejeren - Kutacane No.99, Kuta Lintang, Kec. Blangkejeren, Kabupaten Gayo Lues, Aceh 24653";"Kuta Lintang, Kec. Blangkejeren, Kabupaten Gayo Lues";"ACEH";"24653";"Indonesia";" 082277223280";"3.9971274";"97.3428405";"https://maps.google.com/?cid=0x0:0x433cbbafd9fc5166"
"housing complex";"Komplek perumahan";"Desa Seri Muda";"JP2M+5M, Serimuda, Kec. Darul Hasanah, Kabupaten Aceh Tenggara, Aceh";"Kabupaten Aceh Tenggara, Aceh";"ACEH";"";"Indonesia";"";"3.6004155";"97.7341758";"https://maps.google.com/?cid=0x0:0xae302d5ce451803f"
"housing complex";"Komplek perumahan";"Kampung Bukit";"X8VW+QMX, Bukit, Dusun pintu kakap, Kabupaten Gayo Lues, Aceh 24653";"Bukit, Dusun pintu kakap, Kabupaten Gayo Lues";"ACEH";"24653";"Indonesia";"";"3.9944751";"97.346723";"https://maps.google.com/?cid=0x0:0xa0ff95d7b58a0cc2"
"housing complex";"Perhimpunan Pengembang Perumahan";"Drilian";"GQJC+V38, Pulo Gadung, Kec. Darul Hasanah, Kabupaten Aceh Tenggara, Aceh 24562";"Pulo Gadung, Kec. Darul Hasanah, Kabupaten Aceh Tenggara";"ACEH";"24562";"Indonesia";"";"3.5321731";"97.7701944";"https://maps.google.com/?cid=0x0:0x574e64835f5b89cd"
"housing complex";"Komplek perumahan";"Rumah pak faisal";"283R+2WW, Kuta Lintang, Kec. Blangkejeren, Kabupaten Gayo Lues, Aceh 24653";"Kuta Lintang, Kec. Blangkejeren, Kabupaten Gayo Lues";"ACEH";"24653";"Indonesia";"";"4.0026065";"97.3423306";"https://maps.google.com/?cid=0x0:0xd9c85a91cff5518"
"housing complex";"Komplek perumahan";"Rumah isma";"284P+HWJ, Bustanussalam, Kec. Blangkejeren, Kabupaten Gayo Lues, Aceh 24653";"Bustanussalam, Kec. Blangkejeren, Kabupaten Gayo Lues";"ACEH";"24653";"Indonesia";"";"4.0064585";"97.3372687";"https://maps.google.com/?cid=0x0:0x7b261189da72e1c9"
"housing complex";"Komplek perumahan";"Rumah Zahy";"X87X+QQV, Penggalangan, Kec. Blangkejeren, Kabupaten Gayo Lues, Aceh 24653";"Penggalangan, Kec. Blangkejeren, Kabupaten Gayo Lues";"ACEH";"24653";"Indonesia";"";"3.9638952";"97.3493127";"https://maps.google.com/?cid=0x0:0x9ed9e3b4f0b47fd0"
"housing complex";"Komplek perumahan";"Rumah Diaz";"X8RW+V95, Penampaan, Kec. Blangkejeren, Kabupaten Gayo Lues, Aceh 24653";"Penampaan, Kec. Blangkejeren, Kabupaten Gayo Lues";"ACEH";"24653";"Indonesia";"";"3.9921452";"97.3459931";"https://maps.google.com/?cid=0x0:0x4e68770b26fbd4bd"
"housing complex";"Perhimpunan Pengembang Perumahan";"Makmur jaya";"JP2G+JPJ, Makmur Jaya, Kec. Darul Hasanah, Kabupaten Aceh Tenggara, Aceh 24651";"Makmur Jaya, Kec. Darul Hasanah, Kabupaten Aceh Tenggara";"ACEH";"24651";"Indonesia";"";"3.6015943";"97.7267762";"https://maps.google.com/?cid=0x0:0xacbe92eae5218a17"
"housing complex";"Komplek perumahan";"Rumah kamarudin";"GRGF+Q5R, Hutan, Kec. Deleng Pokhkisen, Kabupaten Aceh Tenggara, Aceh 24651";"Hutan, Kec. Deleng Pokhkisen, Kabupaten Aceh Tenggara";"ACEH";"24651";"Indonesia";"";"3.5269751";"97.8229052";"https://maps.google.com/?cid=0x0:0x7b0444e3251d910f"
"housing complex";"housing complex";"Aceh 24651";"Kec. Rikit Gaib, Kabupaten Aceh Tenggara, Aceh";"Kabupaten Aceh Tenggara, Aceh";"ACEH";"";"Indonesia";"";"3.4880147";"97.8068851";"https://maps.google.com/?cid=0x0:0x711f6d12884ebd87"
"housing complex";"Komplek perumahan";"Dorbest";"GR3J+H5F, Terutung Mbelang, Kec. Deleng Pokhkisen, Kabupaten Aceh Tenggara, Aceh 24651";"Terutung Mbelang, Kec. Deleng Pokhkisen, Kabupaten Aceh Tenggara";"ACEH";"24651";"Indonesia";"";"3.5039445";"97.8304122";"https://maps.google.com/?cid=0x0:0x755cb053a16da9a1"
"housing complex";"Perumahan";"PERUMAHAN ALAS RESIDENCE III";"Perumahan alas residence lll, Muhajirin, Kec. Deleng Pokhkisen, Kabupaten Aceh Tenggara, Aceh 24651";"Muhajirin, Kec. Deleng Pokhkisen, Kabupaten Aceh Tenggara";"ACEH";"24651";"Indonesia";" 081363249921";"3.5059112";"97.8176247";"https://maps.google.com/?cid=0x0:0x6c86a830cb21597d"
"housing complex";"Perhimpunan Pengembang Perumahan";"Sapo bawan";"GR2H+R25, Tenembak Lang Lang, Kec. Deleng Pokhkisen, Kabupaten Aceh Tenggara, Aceh 24651";"Tenembak Lang Lang, Kec. Deleng Pokhkisen, Kabupaten Aceh Tenggara";"ACEH";"24651";"Indonesia";"";"3.5020233";"97.8276243";"https://maps.google.com/?cid=0x0:0xfa37ce2ce0217652"
"housing complex";"Perumahan";"Ardi House";"FRX6+8FQ Mansur, Matu Ridi, Tualang Lama, Kec. Deleng Pokhkisen, Kabupaten Aceh Tenggara, Aceh 24651";"Matu Ridi, Tualang Lama, Kec. Deleng Pokhkisen, Kabupaten Aceh Tenggara";"ACEH";"24651";"Indonesia";"";"3.4983147";"97.8111884";"https://maps.google.com/?cid=0x0:0xada88fcb1a721ec0"
"housing complex";"Komplek perumahan";"rumah opung keysha";"GRG8+7GF, Salang, harianja, Kec. Deleng Pokhkisen, Kabupaten Aceh Tenggara, Aceh 24651";"Salang, harianja, Kec. Deleng Pokhkisen, Kabupaten Aceh Tenggara";"ACEH";"24651";"Indonesia";"";"3.5256875";"97.8162969";"https://maps.google.com/?cid=0x0:0x3d785a54a44b3ac6"
"housing complex";"Pembangunan Perumahan";"Rumah anna";"GR5F+G4R, Ranto Diur, Kec. Deleng Pokhkisen, Kabupaten Aceh Tenggara, Aceh 24651";"Ranto Diur, Kec. Deleng Pokhkisen, Kabupaten Aceh Tenggara";"ACEH";"24651";"Indonesia";"";"3.508869";"97.8227633";"https://maps.google.com/?cid=0x0:0xbc7c8fc9e2cf26"
"housing complex";"Komplek perumahan";"Rumah azam";"FRXH+X9, Tenembak Lang Lang, Kec. Deleng Pokhkisen, Kabupaten Aceh Tenggara, Aceh";"Kabupaten Aceh Tenggara, Aceh";"ACEH";"";"Indonesia";"";"3.499967";"97.828416";"https://maps.google.com/?cid=0x0:0xd9c16807d2317b95"
"housing complex";"Komplek perumahan";"Penampaan";"FRX7+XP9, Penampaan, Kec. Deleng Pokhkisen, Kabupaten Aceh Tenggara, Aceh 24651";"Penampaan, Kec. Deleng Pokhkisen, Kabupaten Aceh Tenggara";"ACEH";"24651";"Indonesia";"";"3.4999243";"97.8143465";"https://maps.google.com/?cid=0x0:0xd7447f80497f2ac"
"housing complex";"Komplek perumahan";"Penampaan";"GR4C+HJG, Penampaan, Kec. Deleng Pokhkisen, Kabupaten Aceh Tenggara, Aceh 24651";"Penampaan, Kec. Deleng Pokhkisen, Kabupaten Aceh Tenggara";"ACEH";"24651";"Indonesia";"";"3.5066579";"97.8214127";"https://maps.google.com/?cid=0x0:0x39cb0945faa83bb2"
"housing complex";"housing complex";"Rumah Al Baqir";"FRX6+CHQ, Tualang Lama, Kec. Deleng Pokhkisen, Kabupaten Aceh Tenggara, Aceh 24651";"Tualang Lama, Kec. Deleng Pokhkisen, Kabupaten Aceh Tenggara";"ACEH";"24651";"Indonesia";"";"3.4985107";"97.8115878";"https://maps.google.com/?cid=0x0:0xc6ef425f3f5bb774"
"housing complex";"Komplek perumahan";"Kolam Suhaili pokdakan Minara";"GR4C+XJ5, Tading Niulihi, Kec. Deleng Pokhkisen, Kabupaten Aceh Tenggara, Aceh 24651";"Tading Niulihi, Kec. Deleng Pokhkisen, Kabupaten Aceh Tenggara";"ACEH";"24651";"Indonesia";"";"3.5074121";"97.8219025";"https://maps.google.com/?cid=0x0:0x9fe2ac1ad9d11dae"
"housing complex";"Toko umum";"Aldi M Wifi";"FRX7+JQ6, Tualang Lama, Kec. Deleng Pokhkisen, Kabupaten Aceh Tenggara, Aceh 24651";"Tualang Lama, Kec. Deleng Pokhkisen, Kabupaten Aceh Tenggara";"ACEH";"24651";"Indonesia";"";"3.4990327";"97.8143828";"https://maps.google.com/?cid=0x0:0x749f458b61cd0957"
"housing complex";"Perumahan";"Ardi House";"FRX6+8FQ Mansur, Matu Ridi, Tualang Lama, Kec. Deleng Pokhkisen, Kabupaten Aceh Tenggara, Aceh 24651";"Matu Ridi, Tualang Lama, Kec. Deleng Pokhkisen, Kabupaten Aceh Tenggara";"ACEH";"24651";"Indonesia";"";"3.4983147";"97.8111884";"https://maps.google.com/?cid=0x0:0xada88fcb1a721ec0"
"housing complex";"housing complex";"Aceh 24652";"Kabupaten Aceh Tenggara, Aceh";"Kabupaten Aceh Tenggara, Aceh";"ACEH";"";"Indonesia";"";"3.6699926";"97.654811";"https://maps.google.com/?cid=0x0:0xf321f2dc3f3b9295"
"housing complex";"Komplek perumahan";"Rumah kamarudin";"GRGF+Q5R, Hutan, Kec. Deleng Pokhkisen, Kabupaten Aceh Tenggara, Aceh 24651";"Hutan, Kec. Deleng Pokhkisen, Kabupaten Aceh Tenggara";"ACEH";"24651";"Indonesia";"";"3.5269751";"97.8229052";"https://maps.google.com/?cid=0x0:0x7b0444e3251d910f"
"housing complex";"Perumahan";"PERUMAHAN ALAS RESIDENCE III";"Perumahan alas residence lll, Muhajirin, Kec. Deleng Pokhkisen, Kabupaten Aceh Tenggara, Aceh 24651";"Muhajirin, Kec. Deleng Pokhkisen, Kabupaten Aceh Tenggara";"ACEH";"24651";"Indonesia";" 081363249921";"3.5059112";"97.8176247";"https://maps.google.com/?cid=0x0:0x6c86a830cb21597d"
"housing complex";"Komplek perumahan";"rumah opung keysha";"GRG8+7GF, Salang, harianja, Kec. Deleng Pokhkisen, Kabupaten Aceh Tenggara, Aceh 24651";"Salang, harianja, Kec. Deleng Pokhkisen, Kabupaten Aceh Tenggara";"ACEH";"24651";"Indonesia";"";"3.5256875";"97.8162969";"https://maps.google.com/?cid=0x0:0x3d785a54a44b3ac6"
"housing complex";"Perhimpunan Pengembang Perumahan";"Sapo bawan";"GR2H+R25, Tenembak Lang Lang, Kec. Deleng Pokhkisen, Kabupaten Aceh Tenggara, Aceh 24651";"Tenembak Lang Lang, Kec. Deleng Pokhkisen, Kabupaten Aceh Tenggara";"ACEH";"24651";"Indonesia";"";"3.5020233";"97.8276243";"https://maps.google.com/?cid=0x0:0xfa37ce2ce0217652"
"housing complex";"Pembangunan Perumahan";"Rumah anna";"GR5F+G4R, Ranto Diur, Kec. Deleng Pokhkisen, Kabupaten Aceh Tenggara, Aceh 24651";"Ranto Diur, Kec. Deleng Pokhkisen, Kabupaten Aceh Tenggara";"ACEH";"24651";"Indonesia";"";"3.508869";"97.8227633";"https://maps.google.com/?cid=0x0:0xbc7c8fc9e2cf26"
"housing complex";"Perumahan rakyat";"Rumah mek elsa";"GR36+V8G, Gusung Batu, Kec. Deleng Pokhkisen, Kabupaten Aceh Tenggara, Aceh 24651";"Gusung Batu, Kec. Deleng Pokhkisen, Kabupaten Aceh Tenggara";"ACEH";"24651";"Indonesia";"";"3.5046784";"97.8108173";"https://maps.google.com/?cid=0x0:0x4fc4d92e27bb8026"
"housing complex";"Komplek perumahan";"Rumah azam";"FRXH+X9, Tenembak Lang Lang, Kec. Deleng Pokhkisen, Kabupaten Aceh Tenggara, Aceh";"Kabupaten Aceh Tenggara, Aceh";"ACEH";"";"Indonesia";"";"3.499967";"97.828416";"https://maps.google.com/?cid=0x0:0xd9c16807d2317b95"
"housing complex";"Komplek perumahan";"Penampaan";"GR4C+HJG, Penampaan, Kec. Deleng Pokhkisen, Kabupaten Aceh Tenggara, Aceh 24651";"Penampaan, Kec. Deleng Pokhkisen, Kabupaten Aceh Tenggara";"ACEH";"24651";"Indonesia";"";"3.5066579";"97.8214127";"https://maps.google.com/?cid=0x0:0x39cb0945faa83bb2"
"housing complex";"Komplek perumahan";"Penampaan";"FRX7+XP9, Penampaan, Kec. Deleng Pokhkisen, Kabupaten Aceh Tenggara, Aceh 24651";"Penampaan, Kec. Deleng Pokhkisen, Kabupaten Aceh Tenggara";"ACEH";"24651";"Indonesia";"";"3.4999243";"97.8143465";"https://maps.google.com/?cid=0x0:0xd7447f80497f2ac"
"housing complex";"Komplek perumahan";"Kolam Suhaili pokdakan Minara";"GR4C+XJ5, Tading Niulihi, Kec. Deleng Pokhkisen, Kabupaten Aceh Tenggara, Aceh 24651";"Tading Niulihi, Kec. Deleng Pokhkisen, Kabupaten Aceh Tenggara";"ACEH";"24651";"Indonesia";"";"3.5074121";"97.8219025";"https://maps.google.com/?cid=0x0:0x9fe2ac1ad9d11dae"
"housing complex";"Perhimpunan Pengembang Perumahan";"Tamak bahu";"Kati Jeroh, Kec. Deleng Pokhkisen, Kabupaten Aceh Tenggara, Aceh 24652";"Kec. Deleng Pokhkisen, Kabupaten Aceh Tenggara";"ACEH";"24652";"Indonesia";" 082213500317";"3.5257534";"97.8218542";"https://maps.google.com/?cid=0x0:0x98811058800015e4"
"housing complex";"housing complex";"Rumah Al Baqir";"FRX6+CHQ, Tualang Lama, Kec. Deleng Pokhkisen, Kabupaten Aceh Tenggara, Aceh 24651";"Tualang Lama, Kec. Deleng Pokhkisen, Kabupaten Aceh Tenggara";"ACEH";"24651";"Indonesia";"";"3.4985107";"97.8115878";"https://maps.google.com/?cid=0x0:0xc6ef425f3f5bb774"
"housing complex";"housing complex";"Aceh 24652";"Kabupaten Aceh Tenggara, Aceh";"Kabupaten Aceh Tenggara, Aceh";"ACEH";"";"Indonesia";"";"3.6699926";"97.654811";"https://maps.google.com/?cid=0x0:0xf321f2dc3f3b9295"
"housing complex";"housing complex";"Leuser Guesthouse - Ketambe";"Ketambe, Kec. Ketambe, Kabupaten Aceh Tenggara, Aceh 24652";"Kec. Ketambe, Kabupaten Aceh Tenggara";"ACEH";"24652";"Indonesia";" 085360626329";"3.6859684";"97.648728";"https://maps.google.com/?cid=0x0:0xaa28e40e030a4607"
"housing complex";"Area Mendaki";"Sumatra jungle experience (orangutan trekking)";"MMJ6+426, Ketambe, Kec. Ketambe, Kabupaten Aceh Tenggara, Aceh";"Kabupaten Aceh Tenggara, Aceh";"ACEH";"";"Indonesia";" 082260366163";"3.6803497";"97.6599853";"https://maps.google.com/?cid=0x0:0x20a9759ee76980eb"
"housing complex";"Jasa Konstruksi dan Bangunan";"Ketambeabu";"MMF6+9PR, Ketambe, Kutacane, Kabupaten Aceh Tenggara, Aceh 24652";"Ketambe, Kutacane, Kabupaten Aceh Tenggara";"ACEH";"24652";"Indonesia";"";"3.67349";"97.6617774";"https://maps.google.com/?cid=0x0:0xd224eb8da99ae98"
"housing complex";"Perhimpunan Pengembang Perumahan";"komplek masjid pemotongan";"JPM3+MVX, Penungkunen, Kec. Ketambe, Kabupaten Aceh Tenggara, Aceh 24652";"Penungkunen, Kec. Ketambe, Kabupaten Aceh Tenggara";"ACEH";"24652";"Indonesia";"";"3.6342348";"97.7047232";"https://maps.google.com/?cid=0x0:0xcf2be36d920d683"
"housing complex";"housing complex";"thousand hills ketambe";"kotacane, Jl. Blangkejeren - Kutacane No.km 32, Ketambe, Kabupaten Aceh Tenggara, Aceh 24652";"Jl. Blangkejeren - Kutacane No.km 32, Ketambe, Kabupaten Aceh Tenggara";"ACEH";"24652";"Indonesia";" 081264176752";"3.6764966";"97.6625585";"https://maps.google.com/?cid=0x0:0xe72a4f0f766804f7"
"housing complex";"Kantor Perusahaan";"Rumah arbiansyah";"JPP2+QR, Penungkunen, Kec. Ketambe, Kabupaten Aceh Tenggara, Aceh";"Kabupaten Aceh Tenggara, Aceh";"ACEH";"";"Indonesia";"";"3.6369761";"97.7020363";"https://maps.google.com/?cid=0x0:0x61e7cdeb36328716"
"housing complex";"Komplek perumahan";"Rumah ardinggo";"PJ5P+2X4, Simpur Jaya, Kec. Ketambe, Kabupaten Aceh Tenggara, Aceh 24652";"Simpur Jaya, Kec. Ketambe, Kabupaten Aceh Tenggara";"ACEH";"24652";"Indonesia";"";"3.7075015";"97.6374453";"https://maps.google.com/?cid=0x0:0xaa204f0128d7d10c"
"housing complex";"housing complex";"Abigel";"HPXR+J9Q, Lawe Gekh Gekh, Kec. Ketambe, Kabupaten Aceh Tenggara, Aceh 24651";"Lawe Gekh Gekh, Kec. Ketambe, Kabupaten Aceh Tenggara";"ACEH";"24651";"Indonesia";"";"3.5990808";"97.7409911";"https://maps.google.com/?cid=0x0:0xebc289bb41381fe4"
"housing complex";"housing complex";"Pondok Wisata Guesthouse Ketambe, Sumatra";"Jl. Blangkejeren - Kutacane No.km32, Ketambe, Kec. Ketambe, Kabupaten Aceh Tenggara, Aceh 24652";"Ketambe, Kec. Ketambe, Kabupaten Aceh Tenggara";"ACEH";"24652";"Indonesia";" 082260366163";"3.6804976";"97.6600302";"https://maps.google.com/?cid=0x0:0x3a29670964636e43"
"housing complex";"Komplek perumahan";"Rumah Sukma cantik";"MM3G+9G5, Lawe Aunan, Kec. Ketambe, Kabupaten Aceh Tenggara, Aceh 24652";"Lawe Aunan, Kec. Ketambe, Kabupaten Aceh Tenggara";"ACEH";"24652";"Indonesia";"";"3.6528662";"97.6758163";"https://maps.google.com/?cid=0x0:0xac85ff0fbc6e6819"
"housing complex";"Komplek perumahan";"Rumah pribadi";"JP4Q+32Q, Lawe Beringin, Kec. Ketambe, Kabupaten Aceh Tenggara, Aceh 24651";"Lawe Beringin, Kec. Ketambe, Kabupaten Aceh Tenggara";"ACEH";"24651";"Indonesia";"";"3.6052089";"97.7375963";"https://maps.google.com/?cid=0x0:0xfba6592f6b2ccdb4"
"housing complex";"housing complex";"Rumah pak aika";"JMRX+H4, Jambur Lak Lak, Kec. Ketambe, Kabupaten Aceh Tenggara, Aceh";"Kabupaten Aceh Tenggara, Aceh";"ACEH";"";"Indonesia";"";"3.641225";"97.697729";"https://maps.google.com/?cid=0x0:0x5980a76c8699a029"
"housing complex";"Pembangunan Perumahan";"DESA RUMAH BUNDAR";"PJ8J+J2J, Rumah Bundar, Kec. Ketambe, Kabupaten Aceh Tenggara, Aceh";"Kabupaten Aceh Tenggara, Aceh";"ACEH";"";"Indonesia";"";"3.7165902";"97.6300273";"https://maps.google.com/?cid=0x0:0xa650387d3a13babe"
"housing complex";"Pembangunan Perumahan";"Jalan Lawe Alas";"FRQ2+G9V, Mbarung, Kec. Babussalam, Kabupaten Aceh Tenggara, Aceh";"Kabupaten Aceh Tenggara, Aceh";"ACEH";"";"Indonesia";"";"3.4888584";"97.8009146";"https://maps.google.com/?cid=0x0:0xdcbfe302903a6de0"
"housing complex";"housing complex";"Kec. Lawe Alas";"Kabupaten Aceh Tenggara, Aceh";"Kabupaten Aceh Tenggara, Aceh";"ACEH";"";"Indonesia";"";"3.4262923";"97.8310337";"https://maps.google.com/?cid=0x0:0x8c79164bdcdfbd2e"
"housing complex";"Pembangunan Perumahan";"Perumahan Alas Residence V";"FRQ3+GWM, Muara Lawe Bulan, Kec. Babussalam, Kabupaten Aceh Tenggara, Aceh 24651";"Muara Lawe Bulan, Kec. Babussalam, Kabupaten Aceh Tenggara";"ACEH";"24651";"Indonesia";" 082272307335";"3.4888447";"97.8047867";"https://maps.google.com/?cid=0x0:0xf841a87f113c7f33"
"housing complex";"Perhimpunan Pengembang Perumahan";"RUMAHKU";"FRGC+3PR, Perumnas Nuansa, Alas Indah, Kec. Lawe Bulan, Kabupaten Aceh Tenggara, Aceh 24651";"Perumnas Nuansa, Alas Indah, Kec. Lawe Bulan, Kabupaten Aceh Tenggara";"ACEH";"24651";"Indonesia";"";"3.4752563";"97.8218409";"https://maps.google.com/?cid=0x0:0x1059b780c34a4ff0"
"housing complex";"Hotel";"Rumah Tinggal";"CRGM+8WJ, Pasir Bangun, Kec. Lawe Alas, Kabupaten Aceh Tenggara, Aceh 24651";"Pasir Bangun, Kec. Lawe Alas, Kabupaten Aceh Tenggara";"ACEH";"24651";"Indonesia";"";"3.4258367";"97.8347556";"https://maps.google.com/?cid=0x0:0x13e938dead0e943c"
"housing complex";"Komplek perumahan";"Raju's Home";"FR93+FMJ, Prapat Batu Nunggul, Kec. Lawe Alas, Kabupaten Aceh Tenggara, Aceh 24651";"Prapat Batu Nunggul, Kec. Lawe Alas, Kabupaten Aceh Tenggara";"ACEH";"24651";"Indonesia";"";"3.4688991";"97.8045313";"https://maps.google.com/?cid=0x0:0xaf6841effc59a491"
"housing complex";"Pembangunan Perumahan";"Abadi";"CR2H+HXX, Pasir Nunang, Kec. Lawe Alas, Kabupaten Aceh Tenggara, Aceh 24671";"Pasir Nunang, Kec. Lawe Alas, Kabupaten Aceh Tenggara";"ACEH";"24671";"Indonesia";"";"3.4014941";"97.8299965";"https://maps.google.com/?cid=0x0:0xa06e18a36bd18d50"
"housing complex";"Komplek perumahan";"Kuta batu 1";"FR44+M6R, Kuta Batu I, Kec. Lawe Alas, Kabupaten Aceh Tenggara, Aceh 24651";"Kuta Batu I, Kec. Lawe Alas, Kabupaten Aceh Tenggara";"ACEH";"24651";"Indonesia";"";"3.4567285";"97.8055259";"https://maps.google.com/?cid=0x0:0xbec5a9fb712d8c25"
"housing complex";"Komplek perumahan";"Dusun rumah kampung";"CRFG+27, Lawe Kongkir, Kec. Lawe Alas, Kabupaten Aceh Tenggara, Aceh";"Kabupaten Aceh Tenggara, Aceh";"ACEH";"";"Indonesia";"";"3.4221764";"97.8252345";"https://maps.google.com/?cid=0x0:0x39e36fc7391a8b69"
"housing complex";"Komplek perumahan";"Rumah Jura ahmed";"CRFG+27, Lawe Kongkir, Kec. Lawe Alas, Kabupaten Aceh Tenggara, Aceh";"Kabupaten Aceh Tenggara, Aceh";"ACEH";"";"Indonesia";"";"3.422578";"97.825003";"https://maps.google.com/?cid=0x0:0x193c0634dc08bb87"
"housing complex";"Komplek perumahan";"Rumah harmin";"CR79+7G, Lawe Kongkir Hilir, Kec. Lawe Alas, Kabupaten Aceh Tenggara, Aceh";"Kabupaten Aceh Tenggara, Aceh";"ACEH";"";"Indonesia";"";"3.4131551";"97.8188485";"https://maps.google.com/?cid=0x0:0xdb901ca038f04f99"
"housing complex";"Komplek perumahan";"Lawe kongker hilir";"CR79+JJQ, Lawe Kongkir Hilir, Kec. Lawe Alas, Kabupaten Aceh Tenggara, Aceh";"Kabupaten Aceh Tenggara, Aceh";"ACEH";"";"Indonesia";"";"3.4140848";"97.8191196";"https://maps.google.com/?cid=0x0:0xb9042d30b814aab1"
"housing complex";"Komplek perumahan";"Desa lawe kongkir hilir";"CR7F+C2W, Lawe Kongkir Hilir, Kec. Lawe Alas, Kabupaten Aceh Tenggara, Aceh";"Kabupaten Aceh Tenggara, Aceh";"ACEH";"";"Indonesia";"";"3.4136043";"97.822567";"https://maps.google.com/?cid=0x0:0xb3acbd627525992f"
"housing complex";"Komplek perumahan";"Kita bantu ll";"FR29+H9C, Kuta Batu II, Kec. Lawe Alas, Kabupaten Aceh Tenggara, Aceh 24651";"Kuta Batu II, Kec. Lawe Alas, Kabupaten Aceh Tenggara";"ACEH";"24651";"Indonesia";"";"3.4514385";"97.818375";"https://maps.google.com/?cid=0x0:0xb60c01c2233eab1e"
"housing complex";"housing complex";"Kec. Lawe Bulan";"Kabupaten Aceh Tenggara, Aceh";"Kabupaten Aceh Tenggara, Aceh";"ACEH";"";"Indonesia";"";"3.4844337";"97.8239129";"https://maps.google.com/?cid=0x0:0x7c500fb0a4b9b413"
"housing complex";"Perhimpunan Pengembang Perumahan";"Komplek Perumahan dr. Bukhari, Desa Lawe Rutung, Kec. Lawe Bulan";"FRQC+75P, Lawe Rutung, Kec. Lawe Bulan, Kabupaten Aceh Tenggara, Aceh 24651";"Lawe Rutung, Kec. Lawe Bulan, Kabupaten Aceh Tenggara";"ACEH";"24651";"Indonesia";"";"3.4882152";"97.8204589";"https://maps.google.com/?cid=0x0:0xfb26f356be266cc8"
"housing complex";"Perhimpunan Pengembang Perumahan";"RUMAHKU";"FRGC+3PR, Perumnas Nuansa, Alas Indah, Kec. Lawe Bulan, Kabupaten Aceh Tenggara, Aceh 24651";"Perumnas Nuansa, Alas Indah, Kec. Lawe Bulan, Kabupaten Aceh Tenggara";"ACEH";"24651";"Indonesia";"";"3.4752563";"97.8218409";"https://maps.google.com/?cid=0x0:0x1059b780c34a4ff0"
"housing complex";"Komplek perumahan";"Rumah Manurung";"FRMF+V2X, Simpang Empat, Kec. Lawe Bulan, Kabupaten Aceh Tenggara, Aceh 24651";"Simpang Empat, Kec. Lawe Bulan, Kabupaten Aceh Tenggara";"ACEH";"24651";"Indonesia";"";"3.4847377";"97.822634";"https://maps.google.com/?cid=0x0:0x77a448c056c80249"
"housing complex";"housing complex";"RUMAH WAWAN DESKY";"FRP7+4RX, Pasir Gala, Kec. Lawe Bulan, Kabupaten Aceh Tenggara, Aceh 24651";"Pasir Gala, Kec. Lawe Bulan, Kabupaten Aceh Tenggara";"ACEH";"24651";"Indonesia";"";"3.4855108";"97.8143048";"https://maps.google.com/?cid=0x0:0xc120ba523a867fd5"
"housing complex";"Komplek perumahan";"Rumah arkemo";"FRP8+93P, Pasir Gala, Kec. Lawe Bulan, Kabupaten Aceh Tenggara, Aceh 24651";"Pasir Gala, Kec. Lawe Bulan, Kabupaten Aceh Tenggara";"ACEH";"24651";"Indonesia";"";"3.4858799";"97.8150132";"https://maps.google.com/?cid=0x0:0x73c7308f7b89edfd"
"housing complex";"Pembangunan Perumahan";"Desa Tenembak juhar, kctn. Lawe bulan.";"FRCV+JX, Penosan, Kec. Lawe Sumur, Kabupaten Aceh Tenggara, Aceh 24651";"Penosan, Kec. Lawe Sumur, Kabupaten Aceh Tenggara";"ACEH";"24651";"Indonesia";"";"3.4716168";"97.8449823";"https://maps.google.com/?cid=0x0:0x602229b7b70650c0"
"housing complex";"Pembangunan Perumahan";"Julaidi Selian's house";"FRPC+558, Simpang Empat, Kec. Lawe Bulan, Kabupaten Aceh Tenggara, Aceh 24651";"Simpang Empat, Kec. Lawe Bulan, Kabupaten Aceh Tenggara";"ACEH";"24651";"Indonesia";"";"3.4851668";"97.8208912";"https://maps.google.com/?cid=0x0:0x951ba7bfc096d81f"
"housing complex";"Komplek perumahan";"Desa Lumban Na Jagar";"FRPX+7R7, Kp Lumban Najagar, Lawe Kinge, Kec. Lawe Bulan, Kabupaten Aceh Tenggara, Aceh 24651";"Kp Lumban Najagar, Lawe Kinge, Kec. Lawe Bulan, Kabupaten Aceh Tenggara";"ACEH";"24651";"Indonesia";"";"3.4856565";"97.8495396";"https://maps.google.com/?cid=0x0:0xb265573d693af02a"
"housing complex";"Rumah Kayu";"Rumah acara";"FRVP+JRW, Lawe Sagu Hulu, Kec. Lawe Bulan, Kabupaten Aceh Tenggara, Aceh 24651";"Lawe Sagu Hulu, Kec. Lawe Bulan, Kabupaten Aceh Tenggara";"ACEH";"24651";"Indonesia";"";"3.494123";"97.8370648";"https://maps.google.com/?cid=0x0:0x7b5dfc2688d6409c"
"housing complex";"Komplek perumahan";"Kuta Batu Baru";"FR66+FHF, Kute Batu Baru, Kec. Lawe Alas, Kabupaten Aceh Tenggara, Aceh 24651";"Kute Batu Baru, Kec. Lawe Alas, Kabupaten Aceh Tenggara";"ACEH";"24651";"Indonesia";"";"3.4611981";"97.8114309";"https://maps.google.com/?cid=0x0:0x71e579479063f4f6"
"housing complex";"Komplek perumahan";"lw kulok";"FRQV+45G, Lawe Kulok, Kec. Lawe Bulan, Kabupaten Aceh Tenggara, Aceh 24651";"Lawe Kulok, Kec. Lawe Bulan, Kabupaten Aceh Tenggara";"ACEH";"24651";"Indonesia";"";"3.4878223";"97.8429652";"https://maps.google.com/?cid=0x0:0xaa07d13ac482173d"
"housing complex";"Kafe";"desa pulonas baru";"FRR7+2JC, Lawe Rutung, Kec. Lawe Bulan, Kabupaten Aceh Tenggara, Aceh";"Kabupaten Aceh Tenggara, Aceh";"ACEH";"";"Indonesia";"";"3.4900645";"97.8140003";"https://maps.google.com/?cid=0x0:0xf59a7589264f7da6"
"housing complex";"Komplek perumahan";"Rumah Zanzibar";"FRP7+4XX, Pasir Gala, Kec. Lawe Bulan, Kabupaten Aceh Tenggara, Aceh 24651";"Pasir Gala, Kec. Lawe Bulan, Kabupaten Aceh Tenggara";"ACEH";"24651";"Indonesia";"";"3.4853587";"97.8149951";"https://maps.google.com/?cid=0x0:0x2bdf5a737c107eec"
"housing complex";"Komplek perumahan";"Lawe sigala ll";"9W69+3F7, Jl. Kutacane, Tigabinanga, Kec. Lawe Sigala-Gala, Kabupaten Aceh Tenggara, Aceh 24673";"Jl. Kutacane, Tigabinanga, Kec. Lawe Sigala-Gala, Kabupaten Aceh Tenggara";"ACEH";"24673";"Indonesia";"";"3.3601616";"97.9186566";"https://maps.google.com/?cid=0x0:0xd9d1a8c21064e968"
"housing complex";"Komplek perumahan";"Sahabat Lama";"9W69+6F4, Lawe Sigala II, Kec. Lawe Sigala-Gala, Kabupaten Aceh Tenggara, Aceh 24673";"Lawe Sigala II, Kec. Lawe Sigala-Gala, Kabupaten Aceh Tenggara";"ACEH";"24673";"Indonesia";"";"3.3604017";"97.9186412";"https://maps.google.com/?cid=0x0:0x215fcde6b2178413"
"housing complex";"housing complex";"Kec. Lawe Sigala-Gala";"Kabupaten Aceh Tenggara, Aceh";"Kabupaten Aceh Tenggara, Aceh";"ACEH";"";"Indonesia";"";"3.3523562";"97.920238";"https://maps.google.com/?cid=0x0:0xcb5b41d286766187"
"housing complex";"Perhimpunan Pengembang Perumahan";"HERMANSYAH";"8WR4+3F4, Mulie Dame, Kec. Lawe Sigala-Gala, Kabupaten Aceh Tenggara, Aceh 24673";"Mulie Dame, Kec. Lawe Sigala-Gala, Kabupaten Aceh Tenggara";"ACEH";"24673";"Indonesia";"";"3.3401269";"97.9061966";"https://maps.google.com/?cid=0x0:0x48fb599409a8ba69"
"housing complex";"Komplek perumahan";"Rumah Pak REY";"9WH5+3MC, Lawe Kesumpat, Kec. Lawe Sigala-Gala, Kabupaten Aceh Tenggara, Aceh 24678";"Lawe Kesumpat, Kec. Lawe Sigala-Gala, Kabupaten Aceh Tenggara";"ACEH";"24678";"Indonesia";"";"3.3776958";"97.9091326";"https://maps.google.com/?cid=0x0:0xd7b89b3f0c30063d"
"housing complex";"Komplek perumahan";"Rotua sitinjak";"9W69+2GJ, Lawe Sigala II, Kec. Lawe Sigala-Gala, Kabupaten Aceh Tenggara, Aceh 24673";"Lawe Sigala II, Kec. Lawe Sigala-Gala, Kabupaten Aceh Tenggara";"ACEH";"24673";"Indonesia";"";"3.360181";"97.918869";"https://maps.google.com/?cid=0x0:0xd09b5b052f9ee1d5"
"housing complex";"Komplek perumahan";"Papa Qia";"8WGW+F97, Lawe Loning Hakhapen, Kec. Lawe Sigala-Gala, Kabupaten Aceh Tenggara, Aceh 24673";"Lawe Loning Hakhapen, Kec. Lawe Sigala-Gala, Kabupaten Aceh Tenggara";"ACEH";"24673";"Indonesia";"";"3.326169";"97.9459188";"https://maps.google.com/?cid=0x0:0x5a15dca988a5f261"
"housing complex";"Pembangunan Perumahan";"Tanah baru Lawe sigala";"8WVF+826, Tanah Baru, Kec. Lawe Sigala-Gala, Kabupaten Aceh Tenggara, Aceh 24673";"Tanah Baru, Kec. Lawe Sigala-Gala, Kabupaten Aceh Tenggara";"ACEH";"24673";"Indonesia";"";"3.3432811";"97.922517";"https://maps.google.com/?cid=0x0:0xad8a1a630c878155"
"housing complex";"Pembangunan Perumahan";"Simpang sarimpitpit...";"8X64+5GG, Jl. Kutacane, Lawe Deski Sabas, Kec. Lawe Sigala-Gala, Kabupaten Aceh Tenggara, Aceh 24673";"Jl. Kutacane, Lawe Deski Sabas, Kec. Lawe Sigala-Gala, Kabupaten Aceh Tenggara";"ACEH";"24673";"Indonesia";"";"3.3104497";"97.9563151";"https://maps.google.com/?cid=0x0:0x46b872c036396e07"
"housing complex";"Perhimpunan Pengembang Perumahan";"Sebungke Aceh tenggara";"9WP5+488, Jl. Kutacane-Tigabinanga, Sebungke, Kec. Lawe Sigala-Gala, Kabupaten Aceh Tenggara, Aceh 24678";"Jl. Kutacane-Tigabinanga, Sebungke, Kec. Lawe Sigala-Gala, Kabupaten Aceh Tenggara";"ACEH";"24678";"Indonesia";"";"3.3853296";"97.9083796";"https://maps.google.com/?cid=0x0:0x4e92de70ef176852"
"housing complex";"Pembangunan Perumahan";"Zeni Richeline";"9W78+RFQ, Lawe Tua Persatuan, Kec. Lawe Sigala-Gala, Kabupaten Aceh Tenggara, Aceh";"Kabupaten Aceh Tenggara, Aceh";"ACEH";"";"Indonesia";"";"3.3645796";"97.9162472";"https://maps.google.com/?cid=0x0:0x7ace4eef25042e41"
"housing complex";"Komplek perumahan";"Pakpahan";"8WWF+XFQ, Suka Maju, Kec. Lawe Sigala-Gala, Kabupaten Aceh Tenggara, Aceh 24673";"Suka Maju, Kec. Lawe Sigala-Gala, Kabupaten Aceh Tenggara";"ACEH";"24673";"Indonesia";"";"3.3472546";"97.9231676";"https://maps.google.com/?cid=0x0:0x4eea6970983e22f5"
"housing complex";"Komplek perumahan";"Kebun Raya Sosial";"8WR9+926, Suka Jaya, Kec. Lawe Sigala-Gala, Kabupaten Aceh Tenggara, Aceh 24673";"Suka Jaya, Kec. Lawe Sigala-Gala, Kabupaten Aceh Tenggara";"ACEH";"24673";"Indonesia";"";"3.3409218";"97.9175085";"https://maps.google.com/?cid=0x0:0x3fba6eb959e8f9a8"
"housing complex";"Pembangunan Perumahan";"PERUM SUKAJAYA RESIDENCE, ACEH TENGARA";"8WX7+PVM, Suka Jaya, Kec. Lawe Sigala-Gala, Kabupaten Aceh Tenggara, Aceh 24673";"Suka Jaya, Kec. Lawe Sigala-Gala, Kabupaten Aceh Tenggara";"ACEH";"24673";"Indonesia";"";"3.3493363";"97.9146681";"https://maps.google.com/?cid=0x0:0xc9ac7f59ae8f7afb"
"housing complex";"Pembangunan Perumahan";"Perumahan Alas Residence V";"FRQ3+GWM, Muara Lawe Bulan, Kec. Babussalam, Kabupaten Aceh Tenggara, Aceh 24651";"Muara Lawe Bulan, Kec. Babussalam, Kabupaten Aceh Tenggara";"ACEH";"24651";"Indonesia";" 082272307335";"3.4888447";"97.8047867";"https://maps.google.com/?cid=0x0:0xf841a87f113c7f33"
"housing complex";"Perumahan";"Alas residen, ban ban";"FRQ3+8V, Muara Lawe Bulan, Kec. Babussalam, Kabupaten Aceh Tenggara, Aceh 24651";"Muara Lawe Bulan, Kec. Babussalam, Kabupaten Aceh Tenggara";"ACEH";"24651";"Indonesia";"";"3.488275";"97.8047703";"https://maps.google.com/?cid=0x0:0xb52e8e027742c175"
"housing complex";"housing complex";"Aceh 24671";"Kabupaten Aceh Tenggara, Aceh";"Kabupaten Aceh Tenggara, Aceh";"ACEH";"";"Indonesia";"";"3.3974891";"97.8612767";"https://maps.google.com/?cid=0x0:0x2f1eb6944610f143"
"housing complex";"Komplek perumahan";"Rumah asyraf";"FV62+5JH, Lawe Sumur Baru, Kec. Lawe Sumur, Kabupaten Aceh Tenggara, Aceh 24651";"Lawe Sumur Baru, Kec. Lawe Sumur, Kabupaten Aceh Tenggara";"ACEH";"24651";"Indonesia";"";"3.4604367";"97.8516216";"https://maps.google.com/?cid=0x0:0xf4f48f8ac52a2f8d"
"housing complex";"Komplek perumahan";"Rumah Kakek dan Tigan";"Jl. Kelapa Gading No.42, Lawe Sumur Baru, Kec. Lawe Sumur, Kabupaten Aceh Tenggara, Aceh 24651";"Lawe Sumur Baru, Kec. Lawe Sumur, Kabupaten Aceh Tenggara";"ACEH";"24651";"Indonesia";"";"3.4604846";"97.8515104";"https://maps.google.com/?cid=0x0:0xb3a8a5163310ac76"
"housing complex";"Komplek perumahan";"Rumah sayank";"8WF2+VRQ, Lawe Sumur, Kec. Babul Rahman, Kabupaten Aceh Tenggara, Aceh 24673";"Lawe Sumur, Kec. Babul Rahman, Kabupaten Aceh Tenggara";"ACEH";"24673";"Indonesia";"";"3.3247247";"97.9020977";"https://maps.google.com/?cid=0x0:0x9fcece4eb3f68a6b"
"housing complex";"Komplek perumahan";"Rumah rafifira";"FV43+GQH, Kute Bunin, Kec. Lawe Sumur, Kabupaten Aceh Tenggara, Aceh 24651";"Kute Bunin, Kec. Lawe Sumur, Kabupaten Aceh Tenggara";"ACEH";"24651";"Indonesia";"";"3.4563234";"97.8544755";"https://maps.google.com/?cid=0x0:0xbf397dd356bc3dda"
"housing complex";"Komplek perumahan";"Ahmad Manjorang";"FV45+G4Q, gang cempaka, Kuta Lesung, Kec. Lawe Sumur, Kabupaten Aceh Tenggara, Aceh 24651";"gang cempaka, Kuta Lesung, Kec. Lawe Sumur, Kabupaten Aceh Tenggara";"ACEH";"24651";"Indonesia";"";"3.4563364";"97.8578569";"https://maps.google.com/?cid=0x0:0xceddf0e90881a729"
"housing complex";"Pembangunan Perumahan";"Dusun nasi";"FR5P+Q3, Terutung Megare Lawe Pasaran, Kec. Lawe Sumur, Kabupaten Aceh Tenggara, Aceh";"Kabupaten Aceh Tenggara, Aceh";"ACEH";"";"Indonesia";"";"3.459428";"97.835159";"https://maps.google.com/?cid=0x0:0x1ea0e8893477ae07"
"housing complex";"Komplek perumahan";"Rumahku";"FV45+95G, Kute Bunin, Kec. Lawe Sumur, Kabupaten Aceh Tenggara, Aceh 24651";"Kute Bunin, Kec. Lawe Sumur, Kabupaten Aceh Tenggara";"ACEH";"24651";"Indonesia";"";"3.4559261";"97.8579383";"https://maps.google.com/?cid=0x0:0x4809234d1ce7a86e"
"housing complex";"housing complex";"Kec. Lawe Sumur";"Kabupaten Aceh Tenggara, Aceh";"Kabupaten Aceh Tenggara, Aceh";"ACEH";"";"Indonesia";"";"3.4606887";"97.8511479";"https://maps.google.com/?cid=0x0:0x21a5722196a98f1"
"housing complex";"Perhimpunan Pengembang Perumahan";"RUMAHKU";"FRGC+3PR, Perumnas Nuansa, Alas Indah, Kec. Lawe Bulan, Kabupaten Aceh Tenggara, Aceh 24651";"Perumnas Nuansa, Alas Indah, Kec. Lawe Bulan, Kabupaten Aceh Tenggara";"ACEH";"24651";"Indonesia";"";"3.4752563";"97.8218409";"https://maps.google.com/?cid=0x0:0x1059b780c34a4ff0"
"housing complex";"Pembangunan Perumahan";"XII PLUS D SMANSA";"Jl. Iskandar Muda No.2, Bambel, Kec. Bambel, Kabupaten Aceh Tenggara, Aceh 24651";"Bambel, Kec. Bambel, Kabupaten Aceh Tenggara";"ACEH";"24651";"Indonesia";"";"3.4664531";"97.8260688";"https://maps.google.com/?cid=0x0:0x28d1eb2f3a15ffc4"
"housing complex";"Komplek perumahan";"lw kulok";"FRQV+45G, Lawe Kulok, Kec. Lawe Bulan, Kabupaten Aceh Tenggara, Aceh 24651";"Lawe Kulok, Kec. Lawe Bulan, Kabupaten Aceh Tenggara";"ACEH";"24651";"Indonesia";"";"3.4878223";"97.8429652";"https://maps.google.com/?cid=0x0:0xaa07d13ac482173d"
"housing complex";"Komplek perumahan";"Liangpangi, Leuser, Aceh";"4W3W+3Q2, Sade Ate, Kec. Lauser, Kabupaten Aceh Tenggara, Aceh 24673";"Sade Ate, Kec. Lauser, Kabupaten Aceh Tenggara";"ACEH";"24673";"Indonesia";"";"3.1026383";"97.9468827";"https://maps.google.com/?cid=0x0:0xf1ba64a71357e33e"
"housing complex";"Komplek perumahan";"Imel";"7WGF+3FR, Musara Setia, Kec. Babul Makmur, Kabupaten Aceh Tenggara, Aceh 24673";"Musara Setia, Kec. Babul Makmur, Kabupaten Aceh Tenggara";"ACEH";"24673";"Indonesia";"";"3.2752432";"97.923628";"https://maps.google.com/?cid=0x0:0x4d489840ce8d176e"
"housing complex";"housing complex";"Kec. Lauser";"Kabupaten Aceh Tenggara, Aceh";"Kabupaten Aceh Tenggara, Aceh";"ACEH";"";"Indonesia";"";"3.2262868";"97.9151378";"https://maps.google.com/?cid=0x0:0x3cb4ab8d5843e495"
"housing complex";"Pembangunan Perumahan";"Naga timbul";"3XX9+XW9, Naga Timbul, Kec. Lauser, Kabupaten Aceh Tenggara, Aceh 24673";"Naga Timbul, Kec. Lauser, Kabupaten Aceh Tenggara";"ACEH";"24673";"Indonesia";"";"3.0999";"97.9698602";"https://maps.google.com/?cid=0x0:0x111f121b145b65f4"
"housing complex";"Perhimpunan Pengembang Perumahan";"Lawe tawar";"6W2Q+R3, Laut Tawar, Kec. Lauser, Kabupaten Aceh Tenggara, Aceh";"Kabupaten Aceh Tenggara, Aceh";"ACEH";"";"Indonesia";"";"3.2020669";"97.9376857";"https://maps.google.com/?cid=0x0:0xad94507209c118a7"
"housing complex";"Komplek perumahan";"Rumah q";"6WG8+G36, Tj. Sari, Kec. Lauser, Kabupaten Aceh Tenggara, Aceh";"Kabupaten Aceh Tenggara, Aceh";"ACEH";"";"Indonesia";"";"3.2262868";"97.9151378";"https://maps.google.com/?cid=0x0:0x7ee03eb33a0c1f5c"
"housing complex";"Komplek perumahan";"Erwin Siregar";"8W2H+J75, Gabungan Parsaoran, Kec. Babul Makmur, Kabupaten Aceh Tenggara, Aceh 24673";"Gabungan Parsaoran, Kec. Babul Makmur, Kabupaten Aceh Tenggara";"ACEH";"24673";"Indonesia";"";"3.301285";"97.928378";"https://maps.google.com/?cid=0x0:0x937115d5514112cc"
"housing complex";"Masjid";"Simpang Pos Kampung Gayo";"7W42+7C4, Bintang Alga Musara, Kec. Lauser, Kabupaten Aceh Tenggara, Aceh 24673";"Bintang Alga Musara, Kec. Lauser, Kabupaten Aceh Tenggara";"ACEH";"24673";"Indonesia";"";"3.2554681";"97.9018674";"https://maps.google.com/?cid=0x0:0x1c6525593cd6ad3f"
"housing complex";"Pembangunan Perumahan";"Elma puncak";"6WQ5+X27, Bukit Meriah, Kec. Lauser, Kabupaten Aceh Tenggara, Aceh 24673";"Bukit Meriah, Kec. Lauser, Kabupaten Aceh Tenggara";"ACEH";"24673";"Indonesia";"";"3.239901";"97.9075423";"https://maps.google.com/?cid=0x0:0xcb670d997a65407d"
"housing complex";"Komplek perumahan";"Rumah Pak Eka Siagian";"6WG8+H9V, Tj. Sari, Kec. Lauser, Kabupaten Aceh Tenggara, Aceh 22165";"Tj. Sari, Kec. Lauser, Kabupaten Aceh Tenggara";"ACEH";"22165";"Indonesia";"";"3.2265012";"97.9159008";"https://maps.google.com/?cid=0x0:0xb66cd6eb06538146"
"housing complex";"Komplek perumahan";"Ladang Sinaga";"4X32+3FJ Rumah sinaga, Sade Ate, Kec. Lauser, Kabupaten Aceh Tenggara, Aceh 24673";"Sade Ate, Kec. Lauser, Kabupaten Aceh Tenggara";"ACEH";"24673";"Indonesia";"";"3.1027216";"97.9511377";"https://maps.google.com/?cid=0x0:0x64e5c57751fa2eb"
"housing complex";"Perhimpunan Pengembang Perumahan";"Desa sepakat";"4X39+9GV, Sepakat, Kec. Lauser, Kabupaten Aceh Tenggara, Aceh 24673";"Sepakat, Kec. Lauser, Kabupaten Aceh Tenggara";"ACEH";"24673";"Indonesia";"";"3.1034796";"97.9687975";"https://maps.google.com/?cid=0x0:0xc17006e744a2bcb7"
"housing complex";"housing complex";"Rumah";"8X35+5R, Lawe Mantik, Kec. Babul Makmur, Kabupaten Aceh Tenggara, Aceh 24673";"Lawe Mantik, Kec. Babul Makmur, Kabupaten Aceh Tenggara";"ACEH";"24673";"Indonesia";"";"3.301948";"97.958586";"https://maps.google.com/?cid=0x0:0x3edd2eb9207682b8"
"housing complex";"Komplek perumahan";"Desa Lawe srakut";"4WG3+V3, Hutan, Kec. Lauser, Kabupaten Aceh Tenggara, Aceh";"Kabupaten Aceh Tenggara, Aceh";"ACEH";"";"Indonesia";"";"3.1271342";"97.9026449";"https://maps.google.com/?cid=0x0:0x680e359f9a534180"
"housing complex";"Perhimpunan Pengembang Perumahan";"TH house";"CV2W+FGQ, Semadam Awal, Kec. Semadam, Kabupaten Aceh Tenggara, Aceh 24671";"Semadam Awal, Kec. Semadam, Kabupaten Aceh Tenggara";"ACEH";"24671";"Indonesia";"";"3.4003251";"97.8964328";"https://maps.google.com/?cid=0x0:0x25eca078e565567a"
"housing complex";"housing complex";"Aceh 24678";"Kabupaten Aceh Tenggara, Aceh";"Kabupaten Aceh Tenggara, Aceh";"ACEH";"";"Indonesia";"";"3.3820045";"97.9211555";"https://maps.google.com/?cid=0x0:0x8613dd45575158fa"
"housing complex";"Balai Pertemuan Desa";"Jalan desa lawe kinga gabungan";"9VMH+CHP, Lawe Kinga Gab, Kec. Semadam, Kabupaten Aceh Tenggara, Aceh";"Kabupaten Aceh Tenggara, Aceh";"ACEH";"";"Indonesia";"";"3.3835987";"97.878963";"https://maps.google.com/?cid=0x0:0x7763b193439a78a"
"housing complex";"Perhimpunan Pengembang Perumahan";"Sebungke Aceh tenggara";"9WP5+488, Jl. Kutacane-Tigabinanga, Sebungke, Kec. Lawe Sigala-Gala, Kabupaten Aceh Tenggara, Aceh 24678";"Jl. Kutacane-Tigabinanga, Sebungke, Kec. Lawe Sigala-Gala, Kabupaten Aceh Tenggara";"ACEH";"24678";"Indonesia";"";"3.3853296";"97.9083796";"https://maps.google.com/?cid=0x0:0x4e92de70ef176852"
"housing complex";"Komplek perumahan";"albima";"9VVJ+CMF, Semadam Asal, Kec. Semadam, Kabupaten Aceh Tenggara, Aceh";"Kabupaten Aceh Tenggara, Aceh";"ACEH";"";"Indonesia";"";"3.393573";"97.8816843";"https://maps.google.com/?cid=0x0:0x31f945fbfe5d4dce"
"housing complex";"Komplek perumahan";"Kombih";"9WJ5+PF4, Enmya Batu Dua Ratus, Kec. Lawe Sigala-Gala, Kabupaten Aceh Tenggara, Aceh 24678";"Enmya Batu Dua Ratus, Kec. Lawe Sigala-Gala, Kabupaten Aceh Tenggara";"ACEH";"24678";"Indonesia";"";"3.3811359";"97.9086224";"https://maps.google.com/?cid=0x0:0xe5c6fad0c3ae457c"
"housing complex";"housing complex";"Rumah Ahmad Silaen";"CW32+427, Simpang Semadam, Kec. Semadam, Kabupaten Aceh Tenggara, Aceh 24671";"Simpang Semadam, Kec. Semadam, Kabupaten Aceh Tenggara";"ACEH";"24671";"Indonesia";"";"3.4027957";"97.9000561";"https://maps.google.com/?cid=0x0:0x2275384bcd20af05"
"housing complex";"Pembangunan Perumahan";"Simpang SEMADAM awal";"9VXV+9HX, Semadam Awal, Kec. Semadam, Kabupaten Aceh Tenggara, Aceh 24671";"Semadam Awal, Kec. Semadam, Kabupaten Aceh Tenggara";"ACEH";"24671";"Indonesia";"";"3.397888";"97.893699";"https://maps.google.com/?cid=0x0:0x425767b90a2e7c91"
"housing complex";"Komplek perumahan";"Sahabat Lama";"9W69+6F4, Lawe Sigala II, Kec. Lawe Sigala-Gala, Kabupaten Aceh Tenggara, Aceh 24673";"Lawe Sigala II, Kec. Lawe Sigala-Gala, Kabupaten Aceh Tenggara";"ACEH";"24673";"Indonesia";"";"3.3604017";"97.9186412";"https://maps.google.com/?cid=0x0:0x215fcde6b2178413"
"housing complex";"Tukang Bangunan";"Gedung Serba Guna Desa Lawe Beringin Horas";"9VMQ+Q9G, Unnamed Road, Lawe Beringin Horas, Kec. Semadam, Kabupaten Aceh Tenggara, Aceh 24671";"Unnamed Road, Lawe Beringin Horas, Kec. Semadam, Kabupaten Aceh Tenggara";"ACEH";"24671";"Indonesia";"";"3.3844253";"97.8884518";"https://maps.google.com/?cid=0x0:0x262607ea6af2d9f8"
"housing complex";"Komplek perumahan";"Simpang semadam kutacane";"CW32+28V, Simpang Semadam, Kec. Semadam, Kabupaten Aceh Tenggara, Aceh 24671";"Simpang Semadam, Kec. Semadam, Kabupaten Aceh Tenggara";"ACEH";"24671";"Indonesia";"";"3.4026007";"97.9008045";"https://maps.google.com/?cid=0x0:0xe1a265a96260631d"
"housing complex";"Komplek perumahan";"Rumah Pak REY";"9WH5+3MC, Lawe Kesumpat, Kec. Lawe Sigala-Gala, Kabupaten Aceh Tenggara, Aceh 24678";"Lawe Kesumpat, Kec. Lawe Sigala-Gala, Kabupaten Aceh Tenggara";"ACEH";"24678";"Indonesia";"";"3.3776958";"97.9091326";"https://maps.google.com/?cid=0x0:0xd7b89b3f0c30063d"
"housing complex";"Pembangunan Perumahan";"Omak Bina Tamba";"9VMF+376, Lawe Kinga Gab, Kec. Semadam, Kabupaten Aceh Tenggara, Aceh";"Kabupaten Aceh Tenggara, Aceh";"ACEH";"";"Indonesia";"";"3.3826718";"97.8731492";"https://maps.google.com/?cid=0x0:0x1b630e8fc57b8342"
"housing complex";"Pembangunan Perumahan";"Zeni Richeline";"9W78+RFQ, Lawe Tua Persatuan, Kec. Lawe Sigala-Gala, Kabupaten Aceh Tenggara, Aceh";"Kabupaten Aceh Tenggara, Aceh";"ACEH";"";"Indonesia";"";"3.3645796";"97.9162472";"https://maps.google.com/?cid=0x0:0x7ace4eef25042e41"
"housing complex";"Pembangunan Perumahan";"Perumahan Alas Residence V";"FRQ3+GWM, Muara Lawe Bulan, Kec. Babussalam, Kabupaten Aceh Tenggara, Aceh 24651";"Muara Lawe Bulan, Kec. Babussalam, Kabupaten Aceh Tenggara";"ACEH";"24651";"Indonesia";" 082272307335";"3.4888447";"97.8047867";"https://maps.google.com/?cid=0x0:0xf841a87f113c7f33"
"housing complex";"housing complex";"Aceh 24661";"Kabupaten Aceh Tenggara, Aceh";"Kabupaten Aceh Tenggara, Aceh";"ACEH";"";"Indonesia";"";"3.3088666";"97.6982272";"https://maps.google.com/?cid=0x0:0x3c66f885072251c8"
"housing complex";"Komplek perumahan";"Desa Tenembak Alas";"9VC3+GW2, Tenembak Alas, Tanoh Alas, Kabupaten Aceh Tenggara, Aceh 24671";"Tenembak Alas, Tanoh Alas, Kabupaten Aceh Tenggara";"ACEH";"24671";"Indonesia";"";"3.3712521";"97.8548099";"https://maps.google.com/?cid=0x0:0xa007a66d4c5f342e"
"housing complex";"Balai Pertemuan Desa";"Jalan desa lawe kinga gabungan";"9VMH+CHP, Lawe Kinga Gab, Kec. Semadam, Kabupaten Aceh Tenggara, Aceh";"Kabupaten Aceh Tenggara, Aceh";"ACEH";"";"Indonesia";"";"3.3835987";"97.878963";"https://maps.google.com/?cid=0x0:0x7763b193439a78a"
"housing complex";"Perhimpunan Pengembang Perumahan";"RUMAHKU";"FRGC+3PR, Perumnas Nuansa, Alas Indah, Kec. Lawe Bulan, Kabupaten Aceh Tenggara, Aceh 24651";"Perumnas Nuansa, Alas Indah, Kec. Lawe Bulan, Kabupaten Aceh Tenggara";"ACEH";"24651";"Indonesia";"";"3.4752563";"97.8218409";"https://maps.google.com/?cid=0x0:0x1059b780c34a4ff0"
"housing complex";"Komplek perumahan";"Rumah Selfi dan silfa";"9RGX+R6X, Rambah Sayang, Tanoh Alas, Kabupaten Aceh Tenggara, Aceh 24671";"Rambah Sayang, Tanoh Alas, Kabupaten Aceh Tenggara";"ACEH";"24671";"Indonesia";"";"3.3771077";"97.8482325";"https://maps.google.com/?cid=0x0:0x387538c0de1fb1b8"
"housing complex";"Komplek perumahan";"WARUNG AYAH KANZA";"9VG2+8F8, Salim Pinim, Tanoh Alas, Kabupaten Aceh Tenggara, Aceh 24671";"Salim Pinim, Tanoh Alas, Kabupaten Aceh Tenggara";"ACEH";"24671";"Indonesia";"";"3.3756633";"97.8520159";"https://maps.google.com/?cid=0x0:0x81f5001e3dd3322e"
"housing complex";"Komplek perumahan";"Kuta Batu Baru";"FR66+FHF, Kute Batu Baru, Kec. Lawe Alas, Kabupaten Aceh Tenggara, Aceh 24651";"Kute Batu Baru, Kec. Lawe Alas, Kabupaten Aceh Tenggara";"ACEH";"24651";"Indonesia";"";"3.4611981";"97.8114309";"https://maps.google.com/?cid=0x0:0x71e579479063f4f6"
"housing complex";"Hotel";"Rumah Tinggal";"CRGM+8WJ, Pasir Bangun, Kec. Lawe Alas, Kabupaten Aceh Tenggara, Aceh 24651";"Pasir Bangun, Kec. Lawe Alas, Kabupaten Aceh Tenggara";"ACEH";"24651";"Indonesia";"";"3.4258367";"97.8347556";"https://maps.google.com/?cid=0x0:0x13e938dead0e943c"
"housing complex";"Pembangunan Perumahan";"Abadi";"CR2H+HXX, Pasir Nunang, Kec. Lawe Alas, Kabupaten Aceh Tenggara, Aceh 24671";"Pasir Nunang, Kec. Lawe Alas, Kabupaten Aceh Tenggara";"ACEH";"24671";"Indonesia";"";"3.4014941";"97.8299965";"https://maps.google.com/?cid=0x0:0xa06e18a36bd18d50"
"housing complex";"Komplek perumahan";"Rumah harmin";"CR79+7G, Lawe Kongkir Hilir, Kec. Lawe Alas, Kabupaten Aceh Tenggara, Aceh";"Kabupaten Aceh Tenggara, Aceh";"ACEH";"";"Indonesia";"";"3.4131551";"97.8188485";"https://maps.google.com/?cid=0x0:0xdb901ca038f04f99"
"housing complex";"Komplek perumahan";"rumah saya";"FRM9+W99, Pasir Gala, Kec. Lawe Bulan, Kabupaten Aceh Tenggara, Aceh 24651";"Pasir Gala, Kec. Lawe Bulan, Kabupaten Aceh Tenggara";"ACEH";"24651";"Indonesia";"";"3.4847955";"97.8184971";"https://maps.google.com/?cid=0x0:0x5e80df5ca520196c"
"housing complex";"Komplek perumahan";"Rumah Waliyudin";"9RJW+R7C, Timang Rasa, Tanoh Alas, Kabupaten Aceh Tenggara, Aceh 24671";"Timang Rasa, Tanoh Alas, Kabupaten Aceh Tenggara";"ACEH";"24671";"Indonesia";"";"3.3820605";"97.8456523";"https://maps.google.com/?cid=0x0:0x1942a6bd20ca4ea"
"housing complex";"Komplek perumahan";"Pacitra siregar";"8M5X+G7X, Hutan, Tanoh Alas, Kabupaten Aceh Tenggara, Aceh";"Kabupaten Aceh Tenggara, Aceh";"ACEH";"";"Indonesia";"";"3.3088666";"97.6982272";"https://maps.google.com/?cid=0x0:0xa2ac2bd0b36c1dcc"
"housing complex";"housing complex";"Aceh 24673";"Kabupaten Aceh Tenggara, Aceh";"Kabupaten Aceh Tenggara, Aceh";"ACEH";"";"Indonesia";"";"3.0291759";"97.8286368";"https://maps.google.com/?cid=0x0:0x9e7ae9b803d7455"
"housing complex";"Komplek perumahan";"Rumah Ajhoe";"8W9X+WC3, Sabilussalam, Kec. Babul Makmur, Kabupaten Aceh Tenggara, Aceh 24673";"Sabilussalam, Kec. Babul Makmur, Kabupaten Aceh Tenggara";"ACEH";"24673";"Indonesia";"";"3.3197581";"97.94854";"https://maps.google.com/?cid=0x0:0xfab32d82c12b3b5a"
"housing complex";"Gedung Apartemen";"Op. Lindung Siregar";"8X73+7V3, Lawe Desky Tongah, Kec. Babul Makmur, Kabupaten Aceh Tenggara, Aceh 24673";"Lawe Desky Tongah, Kec. Babul Makmur, Kabupaten Aceh Tenggara";"ACEH";"24673";"Indonesia";"";"3.3136891";"97.9544234";"https://maps.google.com/?cid=0x0:0x82f990c7a0c4c4e8"
"housing complex";"Komplek perumahan";"Tempat tinggal";"8WVH+8PP, Tanah Baru, Kec. Lawe Sigala-Gala, Kabupaten Aceh Tenggara, Aceh 24673";"Tanah Baru, Kec. Lawe Sigala-Gala, Kabupaten Aceh Tenggara";"ACEH";"24673";"Indonesia";"";"3.0291759";"97.8286368";"https://maps.google.com/?cid=0x0:0xacfb044adae3e2a7"
"housing complex";"Pembangunan Perumahan";"Naga timbul";"3XX9+XW9, Naga Timbul, Kec. Lauser, Kabupaten Aceh Tenggara, Aceh 24673";"Naga Timbul, Kec. Lauser, Kabupaten Aceh Tenggara";"ACEH";"24673";"Indonesia";"";"3.0999";"97.9698602";"https://maps.google.com/?cid=0x0:0x111f121b145b65f4"
"housing complex";"Komplek perumahan";"Rumah saya";"9W88+HJ7, Jl. Kutacane, Lawe Tua Persatuan, Kec. Lawe Sigala-Gala, Kabupaten Aceh Tenggara, Aceh 24673";"Jl. Kutacane, Lawe Tua Persatuan, Kec. Lawe Sigala-Gala, Kabupaten Aceh Tenggara";"ACEH";"24673";"Indonesia";"";"3.3680812";"97.9156139";"https://maps.google.com/?cid=0x0:0x452f0643b2d162ca"
"housing complex";"Komplek perumahan";"Imel";"7WGF+3FR, Musara Setia, Kec. Babul Makmur, Kabupaten Aceh Tenggara, Aceh 24673";"Musara Setia, Kec. Babul Makmur, Kabupaten Aceh Tenggara";"ACEH";"24673";"Indonesia";"";"3.2752432";"97.923628";"https://maps.google.com/?cid=0x0:0x4d489840ce8d176e"
"housing complex";"housing complex";"Komplek Tower";"62H4+8V7, Mardingding, Kec. Mardinding, Kabupaten Karo, Sumatera Utara 22165";"Mardingding, Kec. Mardinding, Kabupaten Karo";"ACEH";"22165";"Indonesia";"";"3.2282787";"98.0071791";"https://maps.google.com/?cid=0x0:0x86ed6eb3d5cb17b6"
"housing complex";"housing complex";"Rumah Acik afdall";"7XQH+FFF, Jl. Kutacane-Tigabinanga, Tanoh Alas, Kec. Babul Makmur, Kabupaten Aceh Tenggara, Aceh 24673";"Jl. Kutacane-Tigabinanga, Tanoh Alas, Kec. Babul Makmur, Kabupaten Aceh Tenggara";"ACEH";"24673";"Indonesia";"";"3.288497";"97.979405";"https://maps.google.com/?cid=0x0:0xfc07ae4b201b24fa"
"housing complex";"Komplek perumahan";"Erwin Siregar";"8W2H+J75, Gabungan Parsaoran, Kec. Babul Makmur, Kabupaten Aceh Tenggara, Aceh 24673";"Gabungan Parsaoran, Kec. Babul Makmur, Kabupaten Aceh Tenggara";"ACEH";"24673";"Indonesia";"";"3.301285";"97.928378";"https://maps.google.com/?cid=0x0:0x937115d5514112cc"
"housing complex";"Komplek perumahan";"Laweperbunga atas";"7XX5+FCH, Lawe Perbunga, Kec. Babul Makmur, Kabupaten Aceh Tenggara, Aceh 24673";"Lawe Perbunga, Kec. Babul Makmur, Kabupaten Aceh Tenggara";"ACEH";"24673";"Indonesia";"";"3.2986979";"97.9586053";"https://maps.google.com/?cid=0x0:0xd848769d35155083"
"housing complex";"housing complex";"Rumah";"8X35+5R, Lawe Mantik, Kec. Babul Makmur, Kabupaten Aceh Tenggara, Aceh 24673";"Lawe Mantik, Kec. Babul Makmur, Kabupaten Aceh Tenggara";"ACEH";"24673";"Indonesia";"";"3.301948";"97.958586";"https://maps.google.com/?cid=0x0:0x3edd2eb9207682b8"
"housing complex";"Komplek perumahan";"Rumah raskita";"9W88+HJ7, Jl. Kutacane, Lawe Tua Persatuan, Kec. Lawe Sigala-Gala, Kabupaten Aceh Tenggara, Aceh 24673";"Jl. Kutacane, Lawe Tua Persatuan, Kec. Lawe Sigala-Gala, Kabupaten Aceh Tenggara";"ACEH";"24673";"Indonesia";"";"3.367417";"97.915832";"https://maps.google.com/?cid=0x0:0xf98303683f39815c"
"housing complex";"Perhimpunan Pengembang Perumahan";"SAMBUNG DUA-LAU PAKAM";"7W8W+R4, Hutan, Kec. Lauser, Kabupaten Aceh Tenggara, Aceh 24673";"Hutan, Kec. Lauser, Kabupaten Aceh Tenggara";"ACEH";"24673";"Indonesia";"";"3.2669062";"97.9445922";"https://maps.google.com/?cid=0x0:0x2443b2850b0eb38d"
