Category,Real Category,Business Name,Address,City,State,Postal Code,Country,Phone,Email,Website,Latitude,Longitude,Map Link,Details Link
toko bangunan,toko bangunan,Kalimantan Timur 75776,"Kabupaten Kutai Barat, Kalimantan Timur","Kabupaten Kutai Barat, Kalimantan Timur",KALIMANTAN TIMUR,,Indonesia,,,,-0.1517231,115.5917918,https://maps.google.com/?cid=0x0:0xcf1c58fc5919e6cf,
toko bangunan,Pusat Perbelanjaan,Toko Pore Baru,"QM3Q+H52, Simpang Raya, Kec. Barong Tongkok, Kabupaten Kutai Barat, Kalimantan Timur 75777","Simpang Raya, Kec. Barong Tongkok, Kabupaten Kutai Barat",KALIMANTAN TIMUR,75777.0,Indonesia, 085777883592,,,-0.2461057,115.6878889,https://maps.google.com/?cid=0x0:0x45ae05fd3c255c5a,
toko bangunan,Toko Bahan Bangunan,Toko Bangunan Mas Wawan,"VM33+8PP, Linggang Amer, Kec. Linggang Bigung, Kabupaten Kutai Barat, Kalimantan Timur 75776","Linggang Amer, Kec. Linggang Bigung, Kabupaten Kutai Barat",KALIMANTAN TIMUR,75776.0,Indonesia, 083161074744,,,-0.146655,115.6543141,https://maps.google.com/?cid=0x0:0xaa686758d06014da,
toko bangunan,Toko Bahan Bangunan,Toko Material Bangunan,"QP25+GVF, Simpang Raya, Kec. Barong Tongkok, Kabupaten Kutai Barat, Kalimantan Timur 75777","Simpang Raya, Kec. Barong Tongkok, Kabupaten Kutai Barat",KALIMANTAN TIMUR,75777.0,Indonesia,,,,-0.2486797,115.7096834,https://maps.google.com/?cid=0x0:0x2a6fbd6ee65cb910,
toko bangunan,Toko Bahan Bangunan,TB Ades,"QM8H+FC, Barong Tongkok, Kec. Barong Tongkok, Kabupaten Kutai Barat, Kalimantan Timur 75777","Barong Tongkok, Kec. Barong Tongkok, Kabupaten Kutai Barat",KALIMANTAN TIMUR,75777.0,Indonesia,,,,-0.2338527,115.6787318,https://maps.google.com/?cid=0x0:0x5a53e04c783c2014,
toko bangunan,Pusat Perbelanjaan,TB Ikhlas,"PMHJ+W27, Jl. Naras Gunaq, Mencimai, Kec. Barong Tongkok, Kabupaten Kutai Barat, Kalimantan Timur 75777","Jl. Naras Gunaq, Mencimai, Kec. Barong Tongkok, Kabupaten Kutai Barat",KALIMANTAN TIMUR,75777.0,Indonesia,,,,-0.2702009,115.6800421,https://maps.google.com/?cid=0x0:0x5435af93e173dd9b,
toko bangunan,toko bangunan,TOKO RAHMAT JAYA,"PMGJ+22F, Jl. Naras Gunaq, Mencimai, Kec. Barong Tongkok, Kabupaten Kutai Barat, Kalimantan Timur 75777","Jl. Naras Gunaq, Mencimai, Kec. Barong Tongkok, Kabupaten Kutai Barat",KALIMANTAN TIMUR,75777.0,Indonesia, 085349187760,,,-0.2747835,115.6800273,https://maps.google.com/?cid=0x0:0x29450da839eb28de,
toko bangunan,Toko Perlengkapan Rumah,Toko Belawa 2,"Jl. D.I. Panjaitan No.17, Barong Tongkok, Kec. Barong Tongkok, Kabupaten Kutai Barat, Kalimantan Timur 75777","Barong Tongkok, Kec. Barong Tongkok, Kabupaten Kutai Barat",KALIMANTAN TIMUR,75777.0,Indonesia,,,,-0.2336405,115.6824762,https://maps.google.com/?cid=0x0:0x3d8ea5464183b964,
toko bangunan,Toko Bahan Bangunan,MITRA IMFA,"Jl. Gajah Mada No.10, Barong Tongkok, Kec. Barong Tongkok, Kabupaten Kutai Barat, Kalimantan Timur 75777","Barong Tongkok, Kec. Barong Tongkok, Kabupaten Kutai Barat",KALIMANTAN TIMUR,75777.0,Indonesia, 082250901255,,,-0.2257435,115.6984632,https://maps.google.com/?cid=0x0:0x77550d6d878f24bf,
toko bangunan,Toko Perlengkapan Rumah,UD. MAJU,"Jl. Sendawar Raya No.10, Barong Tongkok, Kec. Barong Tongkok, Kabupaten Kutai Barat, Kalimantan Timur 75776","Barong Tongkok, Kec. Barong Tongkok, Kabupaten Kutai Barat",KALIMANTAN TIMUR,75776.0,Indonesia,,,,-0.2187428,115.7102886,https://maps.google.com/?cid=0x0:0xbede63ae91e15162,
toko bangunan,Toko Perabot Supermarket,Toko Sahabat Jaya,"Simpang Raya, Kec. Barong Tongkok, Kabupaten Kutai Barat, Kalimantan Timur 75777","Kec. Barong Tongkok, Kabupaten Kutai Barat",KALIMANTAN TIMUR,75777.0,Indonesia, 082252215911,,,-0.2494362,115.7066741,https://maps.google.com/?cid=0x0:0x3aa304dd8e6dae29,
toko bangunan,Toko Bahan Bangunan,UD.RANGGA JAYA,"QM7J+83G, Barong Tongkok, Kec. Barong Tongkok, Kabupaten Kutai Barat, Kalimantan Timur 75777","Barong Tongkok, Kec. Barong Tongkok, Kabupaten Kutai Barat",KALIMANTAN TIMUR,75777.0,Indonesia, 082213176971,,,-0.2366808,115.6802117,https://maps.google.com/?cid=0x0:0x5fe3a4dff085eec0,
toko bangunan,Toko Bahan Bangunan,TB Nisda,"QP38+VR6, Jl. Sedap Malam, Sumber Sari, Kec. Barong Tongkok, Kabupaten Kutai Barat, Kalimantan Timur 75777","Jl. Sedap Malam, Sumber Sari, Kec. Barong Tongkok, Kabupaten Kutai Barat",KALIMANTAN TIMUR,75777.0,Indonesia,,,,-0.2453348,115.7170077,https://maps.google.com/?cid=0x0:0xaff1d421b407ee8f,
toko bangunan,Toko Bahan Bangunan,Toko Duta Keramik,"QP23+6VM, Jl. Hasanudin, Simpang Raya, Kec. Barong Tongkok, Kabupaten Kutai Barat, Kalimantan Timur 75777","Jl. Hasanudin, Simpang Raya, Kec. Barong Tongkok, Kabupaten Kutai Barat",KALIMANTAN TIMUR,75777.0,Indonesia, 087761141362,,,-0.2494196,115.7046805,https://maps.google.com/?cid=0x0:0xc9f28a0b5f389bf4,
toko bangunan,Pusat Perbelanjaan,Toko bangunan,"Jl. Awang Long Senopati No.10, Barong Tongkok, Kec. Barong Tongkok, Kabupaten Kutai Barat, Kalimantan Timur 75777","Barong Tongkok, Kec. Barong Tongkok, Kabupaten Kutai Barat",KALIMANTAN TIMUR,75777.0,Indonesia,,,,-0.2370512,115.6800885,https://maps.google.com/?cid=0x0:0xae078cd8df490ce9,
toko bangunan,Toko Bahan Bangunan,Toko Duta Keramik 2,"QM3P+3R8, Jl. Naras Gunaq, Simpang Raya, Kec. Barong Tongkok, Kabupaten Kutai Barat, Kalimantan Timur 75777","Jl. Naras Gunaq, Simpang Raya, Kec. Barong Tongkok, Kabupaten Kutai Barat",KALIMANTAN TIMUR,75777.0,Indonesia, 087761141362,,,-0.2473318,115.6870629,https://maps.google.com/?cid=0x0:0xbda5aa6cf85bf315,
toko bangunan,Toko Bahan Bangunan,Toko Belawa,"Jl. WL. Senopati, Barong Tongkok, Kec. Barong Tongkok, Kabupaten Kutai Barat, Kalimantan Timur 75777","Barong Tongkok, Kec. Barong Tongkok, Kabupaten Kutai Barat",KALIMANTAN TIMUR,75777.0,Indonesia, 082351581028,,,-0.2337527,115.6852087,https://maps.google.com/?cid=0x0:0xfb7b627970872af4,
toko bangunan,Pusat Perbelanjaan,Toko Barakati Bangunan,"PMWP+HCC, Jl. Naras Gunaq, Simpang Raya, Kec. Barong Tongkok, Kabupaten Kutai Barat, Kalimantan Timur 75777","Jl. Naras Gunaq, Simpang Raya, Kec. Barong Tongkok, Kabupaten Kutai Barat",KALIMANTAN TIMUR,75777.0,Indonesia, 085236863965,,,-0.2535529,115.6860142,https://maps.google.com/?cid=0x0:0xf5e5250ff74db9f0,
toko bangunan,Toko Bahan Bangunan,Toko Bangunan CAHAYA,"QR94+23M, Melak Ulu, Kec. Melak, Kabupaten Kutai Barat, Kalimantan Timur 75775","Melak Ulu, Kec. Melak, Kabupaten Kutai Barat",KALIMANTAN TIMUR,75775.0,Indonesia, 0816992047,,,-0.2324188,115.8051588,https://maps.google.com/?cid=0x0:0xfc0802a2f7167e4f,
toko bangunan,Pusat Perbelanjaan,Toko Bangunan Mantap,"QM4Q+8QF, Jl. Hasanudin, Simpang Raya, Kec. Barong Tongkok, Kabupaten Kutai Barat, Kalimantan Timur 75777","Jl. Hasanudin, Simpang Raya, Kec. Barong Tongkok, Kabupaten Kutai Barat",KALIMANTAN TIMUR,75777.0,Indonesia,,,,-0.2441758,115.6894372,https://maps.google.com/?cid=0x0:0x26996f4f80690f2e,
toko bangunan,Pusat Perbelanjaan,Toko Bangunan Nur Jaya Makmur,"Jalan raya,kampung royoq, Sendawar, Kec. Barong Tongkok, Kabupaten Kutai Barat, Kalimantan Timur 75775","Sendawar, Kec. Barong Tongkok, Kabupaten Kutai Barat",KALIMANTAN TIMUR,75775.0,Indonesia, 085166900649,,,-0.2189462,115.7911801,https://maps.google.com/?cid=0x0:0x4c070ad92b902a18,
toko bangunan,Toko Bahan Bangunan,TB. MITRA PAHARIN,"Jl. Diponegoro, rt2, Linggang Bigung, Kec. Linggang Bigung, Kabupaten Kutai Barat, Kalimantan Timur 75776","rt2, Linggang Bigung, Kec. Linggang Bigung, Kabupaten Kutai Barat",KALIMANTAN TIMUR,75776.0,Indonesia,,,,-0.1536046,115.6273618,https://maps.google.com/?cid=0x0:0x9a9dc5a172bce5e6,
toko bangunan,toko bangunan,Kec. Bentian Besar,"Kabupaten Kutai Barat, Kalimantan Timur","Kabupaten Kutai Barat, Kalimantan Timur",KALIMANTAN TIMUR,,Indonesia,,,,-0.7229814,115.7716158,https://maps.google.com/?cid=0x0:0x2635d28bc26bc7df,
toko bangunan,Toko Bahan Bangunan,Toko Bangunan CAHAYA,"QR94+23M, Melak Ulu, Kec. Melak, Kabupaten Kutai Barat, Kalimantan Timur 75775","Melak Ulu, Kec. Melak, Kabupaten Kutai Barat",KALIMANTAN TIMUR,75775.0,Indonesia, 0816992047,,,-0.2324188,115.8051588,https://maps.google.com/?cid=0x0:0xfc0802a2f7167e4f,
toko bangunan,Toko Bahan Bangunan,Toko Bangunan Mas Wawan,"VM33+8PP, Linggang Amer, Kec. Linggang Bigung, Kabupaten Kutai Barat, Kalimantan Timur 75776","Linggang Amer, Kec. Linggang Bigung, Kabupaten Kutai Barat",KALIMANTAN TIMUR,75776.0,Indonesia, 083161074744,,,-0.146655,115.6543141,https://maps.google.com/?cid=0x0:0xaa686758d06014da,
toko bangunan,Pusat Perbelanjaan,Toko Bangunan Mantap,"QM4Q+8QF, Jl. Hasanudin, Simpang Raya, Kec. Barong Tongkok, Kabupaten Kutai Barat, Kalimantan Timur 75777","Jl. Hasanudin, Simpang Raya, Kec. Barong Tongkok, Kabupaten Kutai Barat",KALIMANTAN TIMUR,75777.0,Indonesia,,,,-0.2441758,115.6894372,https://maps.google.com/?cid=0x0:0x26996f4f80690f2e,
toko bangunan,Toko Bahan Bangunan,TOKO BINTANG BANGUNAN,"Giri Mukti, Penajam, Kabupaten Penajam Paser Utara, Kalimantan Timur","Kabupaten Penajam Paser Utara, Kalimantan Timur",KALIMANTAN TIMUR,,Indonesia, 081350135293,,,-1.3447351,116.6804445,https://maps.google.com/?cid=0x0:0x66a390f709093190,
toko bangunan,Pusat Perbelanjaan,Toko bangunan,"Jl. Awang Long Senopati No.10, Barong Tongkok, Kec. Barong Tongkok, Kabupaten Kutai Barat, Kalimantan Timur 75777","Barong Tongkok, Kec. Barong Tongkok, Kabupaten Kutai Barat",KALIMANTAN TIMUR,75777.0,Indonesia,,,,-0.2370512,115.6800885,https://maps.google.com/?cid=0x0:0xae078cd8df490ce9,
toko bangunan,Toko Bahan Bangunan,TOKO BANGUNAN MULTI SUMBER RAYA,"Jl. Lapangan No.RT.04, Gn. Seteleng, Penajam, Kabupaten Penajam Paser Utara, Kalimantan Timur 76141","Gn. Seteleng, Penajam, Kabupaten Penajam Paser Utara",KALIMANTAN TIMUR,76141.0,Indonesia,,,,-1.2510438,116.7681878,https://maps.google.com/?cid=0x0:0x4cd71101ecb93c66,
toko bangunan,Toko,TOKO BANGUNAN SUMBER BERKAH,"Jalan poros Samarinda-melak, Lungkur, simpang 3, Muara Kedang, Kec. Bongan, Kabupaten Kutai Barat, Kalimantan Timur 75772","Lungkur, simpang 3, Muara Kedang, Kec. Bongan, Kabupaten Kutai Barat",KALIMANTAN TIMUR,75772.0,Indonesia, 082186587550,,,-0.6989264,116.2026979,https://maps.google.com/?cid=0x0:0x6811c608fa41c395,
toko bangunan,Toko Komputer,TOKO BANGUNAN GRAND CENTRAL,"Unnamed Road, Sempayau, Kec. Sangkulirang, Kabupaten Kutai Timur, Kalimantan Timur 75684","Sempayau, Kec. Sangkulirang, Kabupaten Kutai Timur",KALIMANTAN TIMUR,75684.0,Indonesia, 081231645392,,,1.1730854,117.8425292,https://maps.google.com/?cid=0x0:0xe901fded2abd3c1,
toko bangunan,Toko Perlengkapan Rumah,Toko Bangunan 31,"Loa Janan Ulu, Kec. Loa Janan, Kabupaten Kutai Kartanegara, Kalimantan Timur 75251","Kec. Loa Janan, Kabupaten Kutai Kartanegara",KALIMANTAN TIMUR,75251.0,Indonesia, 085931237784,,,-0.5962362,117.0935858,https://maps.google.com/?cid=0x0:0xa3b36a8c87175d59,
toko bangunan,Toko Bahan Bangunan,Toko Bangunan Mahakam 2,"Jl. AW. Syachrani, Batu Ampar, Kec. Balikpapan Utara, Kota Balikpapan, Kalimantan Timur 76136","Batu Ampar, Kec. Balikpapan Utara, Kota Balikpapan",KALIMANTAN TIMUR,76136.0,Indonesia, 083161072795,,,-1.218084,116.8420387,https://maps.google.com/?cid=0x0:0x1e5ad15fe5345b7d,
toko bangunan,Toko Bahan Bangunan,Toko Chi Chi Jaya jl Bung Tomo,"Jl. Bung Tomo, Sungai Keledang, Kec. Samarinda Seberang, Kota Samarinda, Kalimantan Timur 75242","Sungai Keledang, Kec. Samarinda Seberang, Kota Samarinda",KALIMANTAN TIMUR,75242.0,Indonesia, 082180040077,,,-0.5141278,117.1310053,https://maps.google.com/?cid=0x0:0x9190a4a6a3e2af47,
toko bangunan,Toko Bahan Bangunan,Toko Bangunan ALBASITHU,"Jl. Bhayangkara No.35, Pasir Panjang, Kec. Arut Sel., Kabupaten Kotawaringin Barat, Kalimantan Tengah 74181","Pasir Panjang, Kec. Arut Sel., Kabupaten Kotawaringin Barat",KALIMANTAN TIMUR,74181.0,Indonesia, 082182357020,,,-2.7343091,111.6389463,https://maps.google.com/?cid=0x0:0x55b57a034739091,
toko bangunan,Toko Bahan Bangunan,Toko Berkat Jaya,"VJ62+5V9, Jl. Lampeong, Lampeong I, Gn. Purei, Kabupaten Barito Utara, Kalimantan Tengah 73871","Jl. Lampeong, Lampeong I, Gn. Purei, Kabupaten Barito Utara",KALIMANTAN TIMUR,73871.0,Indonesia, 081287458656,,,-1.1395871,115.6022493,https://maps.google.com/?cid=0x0:0xeadb40fe34172d23,
toko bangunan,Toko Bahan Bangunan,Toko Material Bangunan,"QP25+GVF, Simpang Raya, Kec. Barong Tongkok, Kabupaten Kutai Barat, Kalimantan Timur 75777","Simpang Raya, Kec. Barong Tongkok, Kabupaten Kutai Barat",KALIMANTAN TIMUR,75777.0,Indonesia,,,,-0.2486797,115.7096834,https://maps.google.com/?cid=0x0:0x2a6fbd6ee65cb910,
toko bangunan,Toko Bahan Bangunan,toko Darli Bahan Bangunan,"GQM6+RV6, Jl. Trans Kalimantan, Muara Lawa, Kec. Muara Lawa, Kabupaten Kutai Barat, Kalimantan Timur 75775","Jl. Trans Kalimantan, Muara Lawa, Kec. Muara Lawa, Kabupaten Kutai Barat",KALIMANTAN TIMUR,75775.0,Indonesia, 081367805201,,,-0.4654556,115.7621298,https://maps.google.com/?cid=0x0:0x412b014046d9f6bb,
toko bangunan,Pusat Perbelanjaan,Toko Barakati Bangunan,"PMWP+HCC, Jl. Naras Gunaq, Simpang Raya, Kec. Barong Tongkok, Kabupaten Kutai Barat, Kalimantan Timur 75777","Jl. Naras Gunaq, Simpang Raya, Kec. Barong Tongkok, Kabupaten Kutai Barat",KALIMANTAN TIMUR,75777.0,Indonesia, 085236863965,,,-0.2535529,115.6860142,https://maps.google.com/?cid=0x0:0xf5e5250ff74db9f0,
toko bangunan,Toko Bahan Bangunan,Toko Andrian Junaidi Jual Bahan Bangunan,"QP39+QGR, Sekolaq Joleq, Kec. Sekolaq Darat, Kabupaten Kutai Barat, Kalimantan Timur 75777","Sekolaq Joleq, Kec. Sekolaq Darat, Kabupaten Kutai Barat",KALIMANTAN TIMUR,75777.0,Indonesia, 081225533972,,,-0.2455169,115.7187772,https://maps.google.com/?cid=0x0:0xdaa1dc50cbe0729a,
toko bangunan,Toko Swalayan,Toko Bangunan BISWAN,"X9H6+V78, Desa No, RT.04, Kahala, Kec. Kenohan, Kabupaten Kutai Kartanegara, Kalimantan Timur 75564","Desa No, RT.04, Kahala, Kec. Kenohan, Kabupaten Kutai Kartanegara",KALIMANTAN TIMUR,75564.0,Indonesia,,,,-0.0203362,116.3606898,https://maps.google.com/?cid=0x0:0xbd0007cb61984206,
toko bangunan,Toko Bahan Bangunan,Toko Putri Bongan,"66WW+46R, Bukit Harapan, Kec. Bongan, Kabupaten Kutai Barat, Kalimantan Timur 75772","Bukit Harapan, Kec. Bongan, Kabupaten Kutai Barat",KALIMANTAN TIMUR,75772.0,Indonesia, 081254637074,,,-0.7546271,116.2455151,https://maps.google.com/?cid=0x0:0xf465468907a05907,
toko bangunan,Toko Swalayan,toko abid kurnia jaya,"7779+3G5, Jambuk Makmur, Kec. Bongan, Kabupaten Kutai Barat, Kalimantan Timur 75772","Jambuk Makmur, Kec. Bongan, Kabupaten Kutai Barat",KALIMANTAN TIMUR,75772.0,Indonesia, 081347965641,,,-0.737351,116.2688495,https://maps.google.com/?cid=0x0:0xf9eb95fcb1cd3b1a,
toko bangunan,Toko,Toko Kania Dewi  Humaira,"C7JX+9G8, Unnamed Road, Muara Kedang, Kec. Bongan, Kabupaten Kutai Barat, Kalimantan Timur 75772","Unnamed Road, Muara Kedang, Kec. Bongan, Kabupaten Kutai Barat",KALIMANTAN TIMUR,75772.0,Indonesia,,,,-0.5690914,116.298814,https://maps.google.com/?cid=0x0:0x773f8dc26ce05934,
toko bangunan,toko bangunan,Kalimantan Timur 75772,"Kec. Bongan, Kabupaten Kutai Barat, Kalimantan Timur","Kabupaten Kutai Barat, Kalimantan Timur",KALIMANTAN TIMUR,,Indonesia,,,,-0.7433962,116.3249438,https://maps.google.com/?cid=0x0:0x39bd72d85564dcde,
toko bangunan,Toko,TOKO ABADI JAYA,"7758+76H, Jambuk Makmur, Kec. Bongan, Kabupaten Kutai Barat, Kalimantan Timur 75772","Jambuk Makmur, Kec. Bongan, Kabupaten Kutai Barat",KALIMANTAN TIMUR,75772.0,Indonesia,,,,-0.7418188,116.2656186,https://maps.google.com/?cid=0x0:0xdb61b3426f3e5842,
toko bangunan,Toko Swalayan,Toko Tani Jaya Bongan,"Jl. Lintas Kalimantan Poros Tengah, Jambuk, Kec. Bongan, Kabupaten Kutai Barat, Kalimantan Timur 75772","Jambuk, Kec. Bongan, Kabupaten Kutai Barat",KALIMANTAN TIMUR,75772.0,Indonesia, 085173234372,,,-0.7395571,116.2722544,https://maps.google.com/?cid=0x0:0xcd77349056af2be0,
toko bangunan,Toko Bahan Bangunan,Toko Bangunan Mas Wawan,"VM33+8PP, Linggang Amer, Kec. Linggang Bigung, Kabupaten Kutai Barat, Kalimantan Timur 75776","Linggang Amer, Kec. Linggang Bigung, Kabupaten Kutai Barat",KALIMANTAN TIMUR,75776.0,Indonesia, 083161074744,,,-0.146655,115.6543141,https://maps.google.com/?cid=0x0:0xaa686758d06014da,
toko bangunan,toko bangunan,Ud Rahma 2,"Jambuk, Kec. Bongan, Kabupaten Kutai Barat, Kalimantan Timur","Kabupaten Kutai Barat, Kalimantan Timur",KALIMANTAN TIMUR,,Indonesia, 082154764189,,,-0.7489636,116.2587341,https://maps.google.com/?cid=0x0:0x7c6ed0d5e29539b,
toko bangunan,Toko,Toko Lancar tezeki,"H7MV+GRG, Jantur, Kec. Muara Muntai, Kabupaten Kutai Kartanegara, Kalimantan Timur 75763","Jantur, Kec. Muara Muntai, Kabupaten Kutai Kartanegara",KALIMANTAN TIMUR,75763.0,Indonesia,,,,-0.416195,116.294585,https://maps.google.com/?cid=0x0:0xdaa9264930c6d90a,
toko bangunan,toko bangunan,TK.Putri Bongan 2,"Jl. Gusig - SP Blusuh No.2015, Jambuk, Kec. Bongan, Kabupaten Kutai Barat, Kalimantan Timur 75772","Jambuk, Kec. Bongan, Kabupaten Kutai Barat",KALIMANTAN TIMUR,75772.0,Indonesia,,,,-0.7478316,116.2595395,https://maps.google.com/?cid=0x0:0x2a1053967ab7a5b5,
toko bangunan,Toko Bahan Bangunan,TOKO HAJI BAHRI,"Jl. Poros No.13, Perian, Kec. Muara Muntai, Kabupaten Kutai Kartanegara, Kalimantan Timur 75562","Perian, Kec. Muara Muntai, Kabupaten Kutai Kartanegara",KALIMANTAN TIMUR,75562.0,Indonesia,,,,-0.5343443,116.4193927,https://maps.google.com/?cid=0x0:0xf1ca7be1a6092e20,
toko bangunan,Toko,TOKO BANGUNAN SUMBER BERKAH,"Jalan poros Samarinda-melak, Lungkur, simpang 3, Muara Kedang, Kec. Bongan, Kabupaten Kutai Barat, Kalimantan Timur 75772","Lungkur, simpang 3, Muara Kedang, Kec. Bongan, Kabupaten Kutai Barat",KALIMANTAN TIMUR,75772.0,Indonesia, 082186587550,,,-0.6989264,116.2026979,https://maps.google.com/?cid=0x0:0x6811c608fa41c395,
toko bangunan,Toko Bahan Bangunan,Toko Karya Harapan,"MP83+8V, Keay, Kec. Damai, Kabupaten Kutai Barat, Kalimantan Timur 75777","Keay, Kec. Damai, Kabupaten Kutai Barat",KALIMANTAN TIMUR,75777.0,Indonesia, 085777883592,,,-0.3341243,115.7047838,https://maps.google.com/?cid=0x0:0x2aafa1b165bd0e8,
toko bangunan,toko bangunan,Kalimantan Timur 75777,"Kabupaten Kutai Barat, Kalimantan Timur","Kabupaten Kutai Barat, Kalimantan Timur",KALIMANTAN TIMUR,,Indonesia,,,,-0.4403799,115.5207358,https://maps.google.com/?cid=0x0:0x402198de5bc5a33b,
toko bangunan,Toko,Toko Mitra jaya abadi,"JPP3+8G4, Jengan Danum, Kec. Damai, Kabupaten Kutai Barat, Kalimantan Timur","Kabupaten Kutai Barat, Kalimantan Timur",KALIMANTAN TIMUR,,Indonesia, 085269235972,,,-0.3642388,115.7038162,https://maps.google.com/?cid=0x0:0xff35f918bbd794a0,
toko bangunan,Toko Bahan Bangunan,MITRA IMFA,"Jl. Gajah Mada No.10, Barong Tongkok, Kec. Barong Tongkok, Kabupaten Kutai Barat, Kalimantan Timur 75777","Barong Tongkok, Kec. Barong Tongkok, Kabupaten Kutai Barat",KALIMANTAN TIMUR,75777.0,Indonesia, 082250901255,,,-0.2257435,115.6984632,https://maps.google.com/?cid=0x0:0x77550d6d878f24bf,
toko bangunan,Pusat Perbelanjaan,Toko Pore Baru,"QM3Q+H52, Simpang Raya, Kec. Barong Tongkok, Kabupaten Kutai Barat, Kalimantan Timur 75777","Simpang Raya, Kec. Barong Tongkok, Kabupaten Kutai Barat",KALIMANTAN TIMUR,75777.0,Indonesia, 085777883592,,,-0.2461057,115.6878889,https://maps.google.com/?cid=0x0:0x45ae05fd3c255c5a,
toko bangunan,Toko Perlengkapan Rumah,Toko Belawa 2,"Jl. D.I. Panjaitan No.17, Barong Tongkok, Kec. Barong Tongkok, Kabupaten Kutai Barat, Kalimantan Timur 75777","Barong Tongkok, Kec. Barong Tongkok, Kabupaten Kutai Barat",KALIMANTAN TIMUR,75777.0,Indonesia,,,,-0.2336405,115.6824762,https://maps.google.com/?cid=0x0:0x3d8ea5464183b964,
toko bangunan,Toko Bahan Bangunan,TB Ades,"QM8H+FC, Barong Tongkok, Kec. Barong Tongkok, Kabupaten Kutai Barat, Kalimantan Timur 75777","Barong Tongkok, Kec. Barong Tongkok, Kabupaten Kutai Barat",KALIMANTAN TIMUR,75777.0,Indonesia,,,,-0.2338527,115.6787318,https://maps.google.com/?cid=0x0:0x5a53e04c783c2014,
toko bangunan,toko bangunan,TOKO RAHMAT JAYA,"PMGJ+22F, Jl. Naras Gunaq, Mencimai, Kec. Barong Tongkok, Kabupaten Kutai Barat, Kalimantan Timur 75777","Jl. Naras Gunaq, Mencimai, Kec. Barong Tongkok, Kabupaten Kutai Barat",KALIMANTAN TIMUR,75777.0,Indonesia, 085349187760,,,-0.2747835,115.6800273,https://maps.google.com/?cid=0x0:0x29450da839eb28de,
toko bangunan,Toko Bahan Bangunan,Toko Duta Keramik 2,"QM3P+3R8, Jl. Naras Gunaq, Simpang Raya, Kec. Barong Tongkok, Kabupaten Kutai Barat, Kalimantan Timur 75777","Jl. Naras Gunaq, Simpang Raya, Kec. Barong Tongkok, Kabupaten Kutai Barat",KALIMANTAN TIMUR,75777.0,Indonesia, 087761141362,,,-0.2473318,115.6870629,https://maps.google.com/?cid=0x0:0xbda5aa6cf85bf315,
toko bangunan,Toko bahan makanan,Toko Ananda,"Srimulyo, Kec. Sekolaq Darat, Kabupaten Kutai Barat, Kalimantan Timur 75775","Kec. Sekolaq Darat, Kabupaten Kutai Barat",KALIMANTAN TIMUR,75775.0,Indonesia, 082153874606,,,-0.2809292,115.7594728,https://maps.google.com/?cid=0x0:0xc48fb0fc294b1f39,
toko bangunan,Toko Bahan Bangunan,Toko Andrian Junaidi Jual Bahan Bangunan,"QP39+QGR, Sekolaq Joleq, Kec. Sekolaq Darat, Kabupaten Kutai Barat, Kalimantan Timur 75777","Sekolaq Joleq, Kec. Sekolaq Darat, Kabupaten Kutai Barat",KALIMANTAN TIMUR,75777.0,Indonesia, 081225533972,,,-0.2455169,115.7187772,https://maps.google.com/?cid=0x0:0xdaa1dc50cbe0729a,
toko bangunan,Toko Bahan Bangunan,Batako Jaya Sendawar,"RT/RW 004, JL anggrek, Sumber Bangun, Kec. Sekolaq Darat, Kabupaten Kutai Barat, Kalimantan Timur 75777","JL anggrek, Sumber Bangun, Kec. Sekolaq Darat, Kabupaten Kutai Barat",KALIMANTAN TIMUR,75777.0,Indonesia, 085386393960,,,-0.2465992,115.7308914,https://maps.google.com/?cid=0x0:0x190758935993688d,
toko bangunan,Pusat Perbelanjaan,Toko Bangunan Mantap,"QM4Q+8QF, Jl. Hasanudin, Simpang Raya, Kec. Barong Tongkok, Kabupaten Kutai Barat, Kalimantan Timur 75777","Jl. Hasanudin, Simpang Raya, Kec. Barong Tongkok, Kabupaten Kutai Barat",KALIMANTAN TIMUR,75777.0,Indonesia,,,,-0.2441758,115.6894372,https://maps.google.com/?cid=0x0:0x26996f4f80690f2e,
toko bangunan,Toko Bahan Bangunan,Toko imfa jaya,"Jl. Sendawar Raya No.10, Ngenyan Asa, Kec. Barong Tongkok, Kabupaten Kutai Barat, Kalimantan Timur 75776","Ngenyan Asa, Kec. Barong Tongkok, Kabupaten Kutai Barat",KALIMANTAN TIMUR,75776.0,Indonesia, 082310187507,,,-0.2149897,115.736298,https://maps.google.com/?cid=0x0:0x227b60162660308,
toko bangunan,Pusat Perbelanjaan,Toko Barakati Bangunan,"PMWP+HCC, Jl. Naras Gunaq, Simpang Raya, Kec. Barong Tongkok, Kabupaten Kutai Barat, Kalimantan Timur 75777","Jl. Naras Gunaq, Simpang Raya, Kec. Barong Tongkok, Kabupaten Kutai Barat",KALIMANTAN TIMUR,75777.0,Indonesia, 085236863965,,,-0.2535529,115.6860142,https://maps.google.com/?cid=0x0:0xf5e5250ff74db9f0,
toko bangunan,Toko Bahan Bangunan,TB Nisda,"QP38+VR6, Jl. Sedap Malam, Sumber Sari, Kec. Barong Tongkok, Kabupaten Kutai Barat, Kalimantan Timur 75777","Jl. Sedap Malam, Sumber Sari, Kec. Barong Tongkok, Kabupaten Kutai Barat",KALIMANTAN TIMUR,75777.0,Indonesia,,,,-0.2453348,115.7170077,https://maps.google.com/?cid=0x0:0xaff1d421b407ee8f,
toko bangunan,Toko Bahan Bangunan,Toko Duta Keramik,"QP23+6VM, Jl. Hasanudin, Simpang Raya, Kec. Barong Tongkok, Kabupaten Kutai Barat, Kalimantan Timur 75777","Jl. Hasanudin, Simpang Raya, Kec. Barong Tongkok, Kabupaten Kutai Barat",KALIMANTAN TIMUR,75777.0,Indonesia, 087761141362,,,-0.2494196,115.7046805,https://maps.google.com/?cid=0x0:0xc9f28a0b5f389bf4,
toko bangunan,Toko Bahan Bangunan,Toko Bangunan CAHAYA,"QR94+23M, Melak Ulu, Kec. Melak, Kabupaten Kutai Barat, Kalimantan Timur 75775","Melak Ulu, Kec. Melak, Kabupaten Kutai Barat",KALIMANTAN TIMUR,75775.0,Indonesia, 0816992047,,,-0.2324188,115.8051588,https://maps.google.com/?cid=0x0:0xfc0802a2f7167e4f,
toko bangunan,Toko Bahan Bangunan,Toko Material Bangunan,"QP25+GVF, Simpang Raya, Kec. Barong Tongkok, Kabupaten Kutai Barat, Kalimantan Timur 75777","Simpang Raya, Kec. Barong Tongkok, Kabupaten Kutai Barat",KALIMANTAN TIMUR,75777.0,Indonesia,,,,-0.2486797,115.7096834,https://maps.google.com/?cid=0x0:0x2a6fbd6ee65cb910,
toko bangunan,Toko Bahan Bangunan,UD.RANGGA JAYA,"QM7J+83G, Barong Tongkok, Kec. Barong Tongkok, Kabupaten Kutai Barat, Kalimantan Timur 75777","Barong Tongkok, Kec. Barong Tongkok, Kabupaten Kutai Barat",KALIMANTAN TIMUR,75777.0,Indonesia, 082213176971,,,-0.2366808,115.6802117,https://maps.google.com/?cid=0x0:0x5fe3a4dff085eec0,
toko bangunan,Toko Bahan Bangunan,Tb. Damai Bangunan,"Pakojan, Kec. Pinang, Kota Tangerang, Banten","Kota Tangerang, Banten",KALIMANTAN TIMUR,,Indonesia,,,,-6.2117935,106.648182,https://maps.google.com/?cid=0x0:0xb7a3acce6a28a0b,
toko bangunan,Toko Bahan Bangunan,Toko sherly,"PQ92+46C, Jl. Mas Arso Joyo, Sekolaq Darat, Kec. Sekolaq Darat, Kabupaten Kutai Barat, Kalimantan Timur 75775","Jl. Mas Arso Joyo, Sekolaq Darat, Kec. Sekolaq Darat, Kabupaten Kutai Barat",KALIMANTAN TIMUR,75775.0,Indonesia, 082154139702,,,-0.2821887,115.7505168,https://maps.google.com/?cid=0x0:0x1e4de4771bc6a0ee,
toko bangunan,Toko Bahan Bangunan,Damai Bangunan,"Jl. Pangkalan Asem No.1 1, RT.1/RW.2, Cemp. Putih Bar., Kec. Cemp. Putih, Kota Jakarta Pusat, Daerah Khusus Ibukota Jakarta 10550","RT.1/RW.2, Cemp. Putih Bar., Kec. Cemp. Putih, Kota Jakarta Pusat",KALIMANTAN TIMUR,10550.0,Indonesia,,,,-6.1780281,106.8590126,https://maps.google.com/?cid=0x0:0x76a09256c9746748,
toko bangunan,Toko Bahan Bangunan,Toko Damai Jaya,"Jl. Damai Raya No.55 B 8, RT.8/RW.5, Petukangan Sel., Kec. Pesanggrahan, Kota Jakarta Selatan, Daerah Khusus Ibukota Jakarta 12270","RT.8/RW.5, Petukangan Sel., Kec. Pesanggrahan, Kota Jakarta Selatan",KALIMANTAN TIMUR,12270.0,Indonesia, 082110519435,,,-6.2447563,106.7520847,https://maps.google.com/?cid=0x0:0x8d7698532362b371,
toko bangunan,toko bangunan,Kalimantan Timur 75773,"Kabupaten Kutai Barat, Kalimantan Timur","Kabupaten Kutai Barat, Kalimantan Timur",KALIMANTAN TIMUR,,Indonesia,,,,-0.5737676,116.1832068,https://maps.google.com/?cid=0x0:0x3f6811e49b463ea8,
toko bangunan,Toko,Toko Rajawali Bangunan,"Jl. Lintas Kalimantan Poros Tengah, Pentat, Kec. Jempang, Kabupaten Kutai Barat, Kalimantan Timur 75773","Pentat, Kec. Jempang, Kabupaten Kutai Barat",KALIMANTAN TIMUR,75773.0,Indonesia, 081225533972,,,-0.573044,116.0930514,https://maps.google.com/?cid=0x0:0xb8f52ca2d1a240ca,
toko bangunan,toko bangunan,Beratus Jaya Bongan,"76FQ+F95, Gusig - Nayan, Resak, Kec. Bongan, Kabupaten Kutai Barat, Kalimantan Timur 75772","Gusig - Nayan, Resak, Kec. Bongan, Kabupaten Kutai Barat",KALIMANTAN TIMUR,75772.0,Indonesia,,,,-0.726372,116.238475,https://maps.google.com/?cid=0x0:0xcf79e028da7889d0,
toko bangunan,Toko Mebel,Toko Bangunan Berkah Indah Agung,"C28H+Q2J, Muara Tae, Kec. Jempang, Kabupaten Kutai Barat, Kalimantan Timur 75774","Muara Tae, Kec. Jempang, Kabupaten Kutai Barat",KALIMANTAN TIMUR,75774.0,Indonesia, 08161999912,,,-0.5830391,116.0275139,https://maps.google.com/?cid=0x0:0x9317f9946f3e86c8,
toko bangunan,Toko Perlengkapan Rumah,GAM BAHAN BANGUNAN,"Bumi Etam, Kec. Kaubun, Kabupaten Kutai Timur, Kalimantan Timur 75554","Kec. Kaubun, Kabupaten Kutai Timur",KALIMANTAN TIMUR,75554.0,Indonesia, 081269668881,,,1.1104126,117.8597751,https://maps.google.com/?cid=0x0:0x5ac93c7ea588f84a,
toko bangunan,Toko Bahan Bangunan,Toko Nelayan Dan Bangunan,"H7MV+M7F, Jln. Raya Sungai, RT.11, Jantur, Kec. Muara Muntai, Kabupaten Kutai Kartanegara, Kalimantan Timur","Kabupaten Kutai Kartanegara, Kalimantan Timur",KALIMANTAN TIMUR,,Indonesia,,,,-0.4158242,116.293177,https://maps.google.com/?cid=0x0:0x1e2e170777ea71d6,
toko bangunan,Toko,TOKO BANGUNAN SUMBER BERKAH,"Jalan poros Samarinda-melak, Lungkur, simpang 3, Muara Kedang, Kec. Bongan, Kabupaten Kutai Barat, Kalimantan Timur 75772","Lungkur, simpang 3, Muara Kedang, Kec. Bongan, Kabupaten Kutai Barat",KALIMANTAN TIMUR,75772.0,Indonesia, 082186587550,,,-0.6989264,116.2026979,https://maps.google.com/?cid=0x0:0x6811c608fa41c395,
toko bangunan,Toko,Toko Kania Dewi  Humaira,"C7JX+9G8, Unnamed Road, Muara Kedang, Kec. Bongan, Kabupaten Kutai Barat, Kalimantan Timur 75772","Unnamed Road, Muara Kedang, Kec. Bongan, Kabupaten Kutai Barat",KALIMANTAN TIMUR,75772.0,Indonesia,,,,-0.5690914,116.298814,https://maps.google.com/?cid=0x0:0x773f8dc26ce05934,
toko bangunan,Toko Bahan Bangunan,Toko Bangunan CAHAYA,"QR94+23M, Melak Ulu, Kec. Melak, Kabupaten Kutai Barat, Kalimantan Timur 75775","Melak Ulu, Kec. Melak, Kabupaten Kutai Barat",KALIMANTAN TIMUR,75775.0,Indonesia, 0816992047,,,-0.2324188,115.8051588,https://maps.google.com/?cid=0x0:0xfc0802a2f7167e4f,
toko bangunan,toko bangunan,Kec. Linggang Bigung,"Kabupaten Kutai Barat, Kalimantan Timur","Kabupaten Kutai Barat, Kalimantan Timur",KALIMANTAN TIMUR,,Indonesia,,,,-0.1454383,115.6250448,https://maps.google.com/?cid=0x0:0x329ef1c291ccc206,
toko bangunan,Toko Bahan Bangunan,Toko Bangunan Chacink Jaya,"Jl.sengkereaq lacaq RT 003 RJXG+9M5, Linggang Bigung, Kec. Linggang Bigung, Kabupaten Kutai Barat, Kalimantan Timur 75776, Kabupaten Kutai Barat, Kalimantan Timur 75576","Linggang Bigung, Kec. Linggang Bigung, Kabupaten Kutai Barat, Kalimantan Timur",KALIMANTAN TIMUR,75776.0,Indonesia, 082258054746,,,-0.151025,115.6270346,https://maps.google.com/?cid=0x0:0x145a06b820c123d2,
toko bangunan,Toko Bahan Bangunan,Toko Bangunan Mas Wawan,"VM33+8PP, Linggang Amer, Kec. Linggang Bigung, Kabupaten Kutai Barat, Kalimantan Timur 75776","Linggang Amer, Kec. Linggang Bigung, Kabupaten Kutai Barat",KALIMANTAN TIMUR,75776.0,Indonesia, 083161074744,,,-0.146655,115.6543141,https://maps.google.com/?cid=0x0:0xaa686758d06014da,
toko bangunan,Toko,UD Pisca Jaya,"VJ3H+3V6, Jl. Sengkereaq Dakaaq, Linggang Bigung, Kec. Linggang Bigung, Kabupaten Kutai Barat, Kalimantan Timur 75776","Jl. Sengkereaq Dakaaq, Linggang Bigung, Kec. Linggang Bigung, Kabupaten Kutai Barat",KALIMANTAN TIMUR,75776.0,Indonesia, 082254076670,,,-0.1473317,115.6296557,https://maps.google.com/?cid=0x0:0x860b957a7f4c8769,
toko bangunan,Toko Bahan Bangunan,Eva Jaya Abadi,"VJ3C+8, Jl. Sengkereaq Egas, Linggang Bigung, Kec. Linggang Bigung, Kabupaten Kutai Barat, Kalimantan Timur 75576","Jl. Sengkereaq Egas, Linggang Bigung, Kec. Linggang Bigung, Kabupaten Kutai Barat",KALIMANTAN TIMUR,75576.0,Indonesia, 087851162036,,,-0.1466603,115.6210962,https://maps.google.com/?cid=0x0:0xe0a1c12a241092d7,
toko bangunan,Tukang Kayu,Moulding CV. Bhakti Nusa Jaya,"VJ5J+WR4, Jl. Mangkujaya IV, Linggang Bigung, Kec. Linggang Bigung, Kabupaten Kutai Barat, Kalimantan Timur 75776","Jl. Mangkujaya IV, Linggang Bigung, Kec. Linggang Bigung, Kabupaten Kutai Barat",KALIMANTAN TIMUR,75776.0,Indonesia, 081254884455,,,-0.1402494,115.6320764,https://maps.google.com/?cid=0x0:0x5cdcc34279a2675c,
toko bangunan,Toko Swalayan,TOKO TUGU MAS,"VJ3G+V34, Linggang Bigung, Kec. Linggang Bigung, Kabupaten Kutai Barat, Kalimantan Timur 75776","Linggang Bigung, Kec. Linggang Bigung, Kabupaten Kutai Barat",KALIMANTAN TIMUR,75776.0,Indonesia, 082210173230,,,-0.1453614,115.6251955,https://maps.google.com/?cid=0x0:0xe0c2a2dfd6c380a3,
toko bangunan,Toko Perlengkapan Rumah,UD. Syahir Profil,"Jl. Sengkereaq Egas, Purwodadi, Kec. Linggang Bigung, Kabupaten Kutai Barat, Kalimantan Timur 75776","Purwodadi, Kec. Linggang Bigung, Kabupaten Kutai Barat",KALIMANTAN TIMUR,75776.0,Indonesia, 082157557415,,,-0.149936,115.6110966,https://maps.google.com/?cid=0x0:0xc20710ec811ec038,
toko bangunan,toko bangunan,Kalimantan Timur 75766,"Kabupaten Kutai Barat, Kalimantan Timur","Kabupaten Kutai Barat, Kalimantan Timur",KALIMANTAN TIMUR,,Indonesia,,,,0.1685888,115.6154732,https://maps.google.com/?cid=0x0:0x6485d462a417d168,
toko bangunan,Toko,Toko Marselina F2 Sparepart  Bahan Bangunan,"5G79+2W RT.08, Memahak Teboq, Kec. Long Hubung, Mahakam Ulu, Kalimantan Timur 75766","Memahak Teboq, Kec. Long Hubung, Mahakam Ulu",KALIMANTAN TIMUR,75766.0,Indonesia,,,,0.1624802,115.5198518,https://maps.google.com/?cid=0x0:0x585312e7a90333a8,
toko bangunan,Toko Bahan Bangunan,Toko Bangunan Karya Mandiri,"XJWV+97, Sukomulyo, Kec. Long Iram, Kabupaten Kutai Barat, Kalimantan Timur","Kabupaten Kutai Barat, Kalimantan Timur",KALIMANTAN TIMUR,,Indonesia,,,,-0.0040894,115.6431649,https://maps.google.com/?cid=0x0:0xcd99538beee95b6,
toko bangunan,Toko Bahan Bangunan,Toko bangunan tiga jaya,"QR92+42C, Jl. Pattimura, Melak Ulu, Kec. Melak, Kabupaten Kutai Barat, Kalimantan Timur 75775","Jl. Pattimura, Melak Ulu, Kec. Melak, Kabupaten Kutai Barat",KALIMANTAN TIMUR,75775.0,Indonesia, 083899586603,,,-0.2321888,115.8000029,https://maps.google.com/?cid=0x0:0xb79c9ed4dc58911b,
toko bangunan,Toko Bahan Bangunan,Toko Bangunan CAHAYA,"QR94+23M, Melak Ulu, Kec. Melak, Kabupaten Kutai Barat, Kalimantan Timur 75775","Melak Ulu, Kec. Melak, Kabupaten Kutai Barat",KALIMANTAN TIMUR,75775.0,Indonesia, 0816992047,,,-0.2324188,115.8051588,https://maps.google.com/?cid=0x0:0xfc0802a2f7167e4f,
toko bangunan,Toko Bahan Bangunan,Toko simpang melak,"QR9F+JHP, Unnamed Road, Melak Ulu, Kec. Melak, Kabupaten Kutai Barat, Kalimantan Timur 75775","Unnamed Road, Melak Ulu, Kec. Melak, Kabupaten Kutai Barat",KALIMANTAN TIMUR,75775.0,Indonesia,,,,-0.2309216,115.8239516,https://maps.google.com/?cid=0x0:0xa4c974c5ff24672,
toko bangunan,Toko Bahan Bangunan,TB Mulia Jaya,"QR82+XXQ, Melak Ulu, Kec. Melak, Kabupaten Kutai Barat, Kalimantan Timur 75775","Melak Ulu, Kec. Melak, Kabupaten Kutai Barat",KALIMANTAN TIMUR,75775.0,Indonesia,,,,-0.2319635,115.8022439,https://maps.google.com/?cid=0x0:0xb76bbdc8dab76373,
toko bangunan,Toko Bahan Bangunan,Toko cahaya,"QR8F+W73, Unnamed Rd, Melak Ulu, Kec. Melak, Kabupaten Kutai Barat, Kalimantan Timur 75775","Unnamed Rd, Melak Ulu, Kec. Melak, Kabupaten Kutai Barat",KALIMANTAN TIMUR,75775.0,Indonesia, 083177573221,,,-0.2327441,115.8231873,https://maps.google.com/?cid=0x0:0x154053ff165ae797,
toko bangunan,Toko Bahan Bangunan,Tenaga,"QR9F+9FG, Melak Ulu, Kec. Melak, Kabupaten Kutai Barat, Kalimantan Timur 75775","Melak Ulu, Kec. Melak, Kabupaten Kutai Barat",KALIMANTAN TIMUR,75775.0,Indonesia,,,,-0.2315615,115.8236982,https://maps.google.com/?cid=0x0:0x2de3961a8dba21d1,
toko bangunan,Toko bahan makanan,Toko Ananda,"Srimulyo, Kec. Sekolaq Darat, Kabupaten Kutai Barat, Kalimantan Timur 75775","Kec. Sekolaq Darat, Kabupaten Kutai Barat",KALIMANTAN TIMUR,75775.0,Indonesia, 082153874606,,,-0.2809292,115.7594728,https://maps.google.com/?cid=0x0:0xc48fb0fc294b1f39,
toko bangunan,Toko Bahan Bangunan,Toko alat bangunan dan listrik,"Jl. KH Dewantara No.12, Melak Ulu, Kec. Melak, Kabupaten Kutai Barat, Kalimantan Timur 75775","Melak Ulu, Kec. Melak, Kabupaten Kutai Barat",KALIMANTAN TIMUR,75775.0,Indonesia,,,,-0.2347563,115.8115076,https://maps.google.com/?cid=0x0:0xace321793e6d77e8,
toko bangunan,Pusat Perbelanjaan,Toko Bangunan Nur Jaya Makmur,"Jalan raya,kampung royoq, Sendawar, Kec. Barong Tongkok, Kabupaten Kutai Barat, Kalimantan Timur 75775","Sendawar, Kec. Barong Tongkok, Kabupaten Kutai Barat",KALIMANTAN TIMUR,75775.0,Indonesia, 085166900649,,,-0.2189462,115.7911801,https://maps.google.com/?cid=0x0:0x4c070ad92b902a18,
toko bangunan,Toko Bahan Bangunan,Toko SLM,"Jl. Mas Arso Joyo No.RT.06, Srimulyo, Kec. Sekolaq Darat, Kabupaten Kutai Barat, Kalimantan Timur 75775","Srimulyo, Kec. Sekolaq Darat, Kabupaten Kutai Barat",KALIMANTAN TIMUR,75775.0,Indonesia, 087761141363,,,-0.2720726,115.7653909,https://maps.google.com/?cid=0x0:0x84c5df3e0b7e0a77,
toko bangunan,Toko Bahan Bangunan,Toko Karya Harapan,"MP83+8V, Keay, Kec. Damai, Kabupaten Kutai Barat, Kalimantan Timur 75777","Keay, Kec. Damai, Kabupaten Kutai Barat",KALIMANTAN TIMUR,75777.0,Indonesia, 085777883592,,,-0.3341243,115.7047838,https://maps.google.com/?cid=0x0:0x2aafa1b165bd0e8,
toko bangunan,toko bangunan,TOKO RAHMAT JAYA,"PMGJ+22F, Jl. Naras Gunaq, Mencimai, Kec. Barong Tongkok, Kabupaten Kutai Barat, Kalimantan Timur 75777","Jl. Naras Gunaq, Mencimai, Kec. Barong Tongkok, Kabupaten Kutai Barat",KALIMANTAN TIMUR,75777.0,Indonesia, 085349187760,,,-0.2747835,115.6800273,https://maps.google.com/?cid=0x0:0x29450da839eb28de,
toko bangunan,Toko bahan makanan,Melak Mart Swalayan,"Melak Ulu, Kec. Melak, Kabupaten Kutai Barat, Kalimantan Timur 75775","Kec. Melak, Kabupaten Kutai Barat",KALIMANTAN TIMUR,75775.0,Indonesia, 082110115000,,,-0.2328808,115.8261641,https://maps.google.com/?cid=0x0:0x84df7c13fa2dd06a,
toko bangunan,Toko Bahan Bangunan,Toko imfa jaya,"Jl. Sendawar Raya No.10, Ngenyan Asa, Kec. Barong Tongkok, Kabupaten Kutai Barat, Kalimantan Timur 75776","Ngenyan Asa, Kec. Barong Tongkok, Kabupaten Kutai Barat",KALIMANTAN TIMUR,75776.0,Indonesia, 082310187507,,,-0.2149897,115.736298,https://maps.google.com/?cid=0x0:0x227b60162660308,
toko bangunan,Toko Bahan Bangunan,CV. DIAN ABADI,"Unnamed Road, Sekolaq Darat, West Kutai Regency, East Kalimantan 75777","Sekolaq Darat, West Kutai Regency",KALIMANTAN TIMUR,75777.0,Indonesia, 085246058783,,,-0.2744674,115.7451033,https://maps.google.com/?cid=0x0:0x3ada997c3e609acb,
toko bangunan,Toko Bahan Bangunan,Toko Material Bangunan,"QP25+GVF, Simpang Raya, Kec. Barong Tongkok, Kabupaten Kutai Barat, Kalimantan Timur 75777","Simpang Raya, Kec. Barong Tongkok, Kabupaten Kutai Barat",KALIMANTAN TIMUR,75777.0,Indonesia,,,,-0.2486797,115.7096834,https://maps.google.com/?cid=0x0:0x2a6fbd6ee65cb910,
toko bangunan,Toko Bahan Bangunan,Toko Bangunan Mas Wawan,"VM33+8PP, Linggang Amer, Kec. Linggang Bigung, Kabupaten Kutai Barat, Kalimantan Timur 75776","Linggang Amer, Kec. Linggang Bigung, Kabupaten Kutai Barat",KALIMANTAN TIMUR,75776.0,Indonesia, 083161074744,,,-0.146655,115.6543141,https://maps.google.com/?cid=0x0:0xaa686758d06014da,
toko bangunan,Toko Bahan Bangunan,Eva Jaya Abadi,"VJ3C+8, Jl. Sengkereaq Egas, Linggang Bigung, Kec. Linggang Bigung, Kabupaten Kutai Barat, Kalimantan Timur 75576","Jl. Sengkereaq Egas, Linggang Bigung, Kec. Linggang Bigung, Kabupaten Kutai Barat",KALIMANTAN TIMUR,75576.0,Indonesia, 087851162036,,,-0.1466603,115.6210962,https://maps.google.com/?cid=0x0:0xe0a1c12a241092d7,
toko bangunan,Toko Bahan Bangunan,Toko sherly,"PQ92+46C, Jl. Mas Arso Joyo, Sekolaq Darat, Kec. Sekolaq Darat, Kabupaten Kutai Barat, Kalimantan Timur 75775","Jl. Mas Arso Joyo, Sekolaq Darat, Kec. Sekolaq Darat, Kabupaten Kutai Barat",KALIMANTAN TIMUR,75775.0,Indonesia, 082154139702,,,-0.2821887,115.7505168,https://maps.google.com/?cid=0x0:0x1e4de4771bc6a0ee,
toko bangunan,toko bangunan,Kalimantan Timur 75765,"Kabupaten Kutai Barat, Kalimantan Timur","Kabupaten Kutai Barat, Kalimantan Timur",KALIMANTAN TIMUR,,Indonesia,,,,0.0335718,115.8994923,https://maps.google.com/?cid=0x0:0x2daf867b4587bd20,
toko bangunan,toko bangunan,Kalimantan Timur 75765,"Kabupaten Kutai Barat, Kalimantan Timur","Kabupaten Kutai Barat, Kalimantan Timur",KALIMANTAN TIMUR,,Indonesia,,,,0.0335718,115.8994923,https://maps.google.com/?cid=0x0:0x2daf867b4587bd20,
toko bangunan,Toko Bahan Bangunan,Toko Bangunan CAHAYA,"QR94+23M, Melak Ulu, Kec. Melak, Kabupaten Kutai Barat, Kalimantan Timur 75775","Melak Ulu, Kec. Melak, Kabupaten Kutai Barat",KALIMANTAN TIMUR,75775.0,Indonesia, 0816992047,,,-0.2324188,115.8051588,https://maps.google.com/?cid=0x0:0xfc0802a2f7167e4f,
toko bangunan,Toko Bahan Bangunan,Toko bangunan tiga jaya,"QR92+42C, Jl. Pattimura, Melak Ulu, Kec. Melak, Kabupaten Kutai Barat, Kalimantan Timur 75775","Jl. Pattimura, Melak Ulu, Kec. Melak, Kabupaten Kutai Barat",KALIMANTAN TIMUR,75775.0,Indonesia, 083899586603,,,-0.2321888,115.8000029,https://maps.google.com/?cid=0x0:0xb79c9ed4dc58911b,
toko bangunan,Toko Bahan Bangunan,Toko imfa jaya,"Jl. Sendawar Raya No.10, Ngenyan Asa, Kec. Barong Tongkok, Kabupaten Kutai Barat, Kalimantan Timur 75776","Ngenyan Asa, Kec. Barong Tongkok, Kabupaten Kutai Barat",KALIMANTAN TIMUR,75776.0,Indonesia, 082310187507,,,-0.2149897,115.736298,https://maps.google.com/?cid=0x0:0x227b60162660308,
toko bangunan,toko bangunan,Kec. Manor Bulatn,"Kabupaten Kutai Barat, Kalimantan Timur","Kabupaten Kutai Barat, Kalimantan Timur",KALIMANTAN TIMUR,,Indonesia,,,,0.0335718,115.8994923,https://maps.google.com/?cid=0x0:0x3f3b4cf26396f685,
toko bangunan,Toko Bahan Bangunan,Toko Bangunan SUMBER REJEKI,"QR86+29H, Melak Ulu, Kec. Melak, Kabupaten Kutai Barat, Kalimantan Timur 75775","Melak Ulu, Kec. Melak, Kabupaten Kutai Barat",KALIMANTAN TIMUR,75775.0,Indonesia,,,,-0.2349358,115.8109945,https://maps.google.com/?cid=0x0:0xed30ae14ebba8c,
toko bangunan,Toko Bahan Bangunan,Tenaga,"QR9F+9FG, Melak Ulu, Kec. Melak, Kabupaten Kutai Barat, Kalimantan Timur 75775","Melak Ulu, Kec. Melak, Kabupaten Kutai Barat",KALIMANTAN TIMUR,75775.0,Indonesia,,,,-0.2315615,115.8236982,https://maps.google.com/?cid=0x0:0x2de3961a8dba21d1,
toko bangunan,Toko Bahan Bangunan,Toko cahaya,"QR8F+W73, Unnamed Rd, Melak Ulu, Kec. Melak, Kabupaten Kutai Barat, Kalimantan Timur 75775","Unnamed Rd, Melak Ulu, Kec. Melak, Kabupaten Kutai Barat",KALIMANTAN TIMUR,75775.0,Indonesia, 083177573221,,,-0.2327441,115.8231873,https://maps.google.com/?cid=0x0:0x154053ff165ae797,
toko bangunan,Toko Bahan Bangunan,Toko alat bangunan dan listrik,"Jl. KH Dewantara No.12, Melak Ulu, Kec. Melak, Kabupaten Kutai Barat, Kalimantan Timur 75775","Melak Ulu, Kec. Melak, Kabupaten Kutai Barat",KALIMANTAN TIMUR,75775.0,Indonesia,,,,-0.2347563,115.8115076,https://maps.google.com/?cid=0x0:0xace321793e6d77e8,
toko bangunan,Toko Bahan Bangunan,Toko simpang melak,"QR9F+JHP, Unnamed Road, Melak Ulu, Kec. Melak, Kabupaten Kutai Barat, Kalimantan Timur 75775","Unnamed Road, Melak Ulu, Kec. Melak, Kabupaten Kutai Barat",KALIMANTAN TIMUR,75775.0,Indonesia,,,,-0.2309216,115.8239516,https://maps.google.com/?cid=0x0:0xa4c974c5ff24672,
toko bangunan,Asosiasi/organisasi,Kantor Kecamatan Mook Manaar Bulatn,"RVPJ+8VP, Gn. Rampah, Kec. Manor Bulatn, Kabupaten Kutai Barat, Kalimantan Timur 75765","Gn. Rampah, Kec. Manor Bulatn, Kabupaten Kutai Barat",KALIMANTAN TIMUR,75765.0,Indonesia,,,,-0.1641722,115.8822063,https://maps.google.com/?cid=0x0:0xb611ae04321643f,
toko bangunan,Toko Bahan Bangunan,TB Mulia Jaya,"QR82+XXQ, Melak Ulu, Kec. Melak, Kabupaten Kutai Barat, Kalimantan Timur 75775","Melak Ulu, Kec. Melak, Kabupaten Kutai Barat",KALIMANTAN TIMUR,75775.0,Indonesia,,,,-0.2319635,115.8022439,https://maps.google.com/?cid=0x0:0xb76bbdc8dab76373,
toko bangunan,Toko Bahan Bangunan,MITRA IMFA,"Jl. Gajah Mada No.10, Barong Tongkok, Kec. Barong Tongkok, Kabupaten Kutai Barat, Kalimantan Timur 75777","Barong Tongkok, Kec. Barong Tongkok, Kabupaten Kutai Barat",KALIMANTAN TIMUR,75777.0,Indonesia, 082250901255,,,-0.2257435,115.6984632,https://maps.google.com/?cid=0x0:0x77550d6d878f24bf,
toko bangunan,Tugu Pahlawan,Tugu Mook Manaar Bulatn,"QVW4+3RW, Karangan, Kec. Manor Bulatn, Kabupaten Kutai Barat, Kalimantan Timur 75775","Karangan, Kec. Manor Bulatn, Kabupaten Kutai Barat",KALIMANTAN TIMUR,75775.0,Indonesia,,,,-0.2047641,115.857079,https://maps.google.com/?cid=0x0:0xe3c72a27114e6e58,
toko bangunan,Toko Bahan Bangunan,Toko Bangunan Mas Wawan,"VM33+8PP, Linggang Amer, Kec. Linggang Bigung, Kabupaten Kutai Barat, Kalimantan Timur 75776","Linggang Amer, Kec. Linggang Bigung, Kabupaten Kutai Barat",KALIMANTAN TIMUR,75776.0,Indonesia, 083161074744,,,-0.146655,115.6543141,https://maps.google.com/?cid=0x0:0xaa686758d06014da,
toko bangunan,Toko Bahan Bangunan,Toko Andrian Junaidi Jual Bahan Bangunan,"QP39+QGR, Sekolaq Joleq, Kec. Sekolaq Darat, Kabupaten Kutai Barat, Kalimantan Timur 75777","Sekolaq Joleq, Kec. Sekolaq Darat, Kabupaten Kutai Barat",KALIMANTAN TIMUR,75777.0,Indonesia, 081225533972,,,-0.2455169,115.7187772,https://maps.google.com/?cid=0x0:0xdaa1dc50cbe0729a,
toko bangunan,Toko Bahan Bangunan,Toko Material Bangunan,"QP25+GVF, Simpang Raya, Kec. Barong Tongkok, Kabupaten Kutai Barat, Kalimantan Timur 75777","Simpang Raya, Kec. Barong Tongkok, Kabupaten Kutai Barat",KALIMANTAN TIMUR,75777.0,Indonesia,,,,-0.2486797,115.7096834,https://maps.google.com/?cid=0x0:0x2a6fbd6ee65cb910,
toko bangunan,Toko Perlengkapan Rumah,Toko Bintang Raya,"QP38+M4X, Jl. Hasanudin, Simpang Raya, Kec. Sekolaq Darat, Kabupaten Kutai Barat, Kalimantan Timur 75777","Jl. Hasanudin, Simpang Raya, Kec. Sekolaq Darat, Kabupaten Kutai Barat",KALIMANTAN TIMUR,75777.0,Indonesia,,,,-0.245772,115.7153539,https://maps.google.com/?cid=0x0:0x10db6e4a4e3eaa75,
toko bangunan,Toko Bahan Bangunan,TB Nisda,"QP38+VR6, Jl. Sedap Malam, Sumber Sari, Kec. Barong Tongkok, Kabupaten Kutai Barat, Kalimantan Timur 75777","Jl. Sedap Malam, Sumber Sari, Kec. Barong Tongkok, Kabupaten Kutai Barat",KALIMANTAN TIMUR,75777.0,Indonesia,,,,-0.2453348,115.7170077,https://maps.google.com/?cid=0x0:0xaff1d421b407ee8f,
toko bangunan,Pusat Perbelanjaan,Toko Pore Baru,"QM3Q+H52, Simpang Raya, Kec. Barong Tongkok, Kabupaten Kutai Barat, Kalimantan Timur 75777","Simpang Raya, Kec. Barong Tongkok, Kabupaten Kutai Barat",KALIMANTAN TIMUR,75777.0,Indonesia, 085777883592,,,-0.2461057,115.6878889,https://maps.google.com/?cid=0x0:0x45ae05fd3c255c5a,
toko bangunan,,Toko Silva Semoga Jaya 2,"Melak Ulu, Kec. Melak, Kabupaten Kutai Barat, Kalimantan Timur 75775","Kec. Melak, Kabupaten Kutai Barat",KALIMANTAN TIMUR,75775.0,Indonesia, 085391954086,,,-0.2328352,115.8056396,https://maps.google.com/?cid=0x0:0x7d8004d091cd2670,
toko bangunan,toko bangunan,Kalimantan Timur 75774,"Kabupaten Kutai Barat, Kalimantan Timur","Kabupaten Kutai Barat, Kalimantan Timur",KALIMANTAN TIMUR,,Indonesia,,,,-0.6090382,115.9467997,https://maps.google.com/?cid=0x0:0xafd22cb4e55c53b7,
toko bangunan,Toko Bahan Bangunan,Toko Bahan Bangunan MITRA 2021,"FQV4+FHM, Jl. Trans Kalimantan, Payang, Kec. Muara Lawa, Kabupaten Kutai Barat, Kalimantan Timur 75775","Jl. Trans Kalimantan, Payang, Kec. Muara Lawa, Kabupaten Kutai Barat",KALIMANTAN TIMUR,75775.0,Indonesia, 081367805201,,,-0.5073319,115.7567613,https://maps.google.com/?cid=0x0:0x7672f19073ed7747,
toko bangunan,Toko Bahan Bangunan,Toko Bangunan CAHAYA,"QR94+23M, Melak Ulu, Kec. Melak, Kabupaten Kutai Barat, Kalimantan Timur 75775","Melak Ulu, Kec. Melak, Kabupaten Kutai Barat",KALIMANTAN TIMUR,75775.0,Indonesia, 0816992047,,,-0.2324188,115.8051588,https://maps.google.com/?cid=0x0:0xfc0802a2f7167e4f,
toko bangunan,Toko,Toko Rajawali Bangunan,"Jl. Lintas Kalimantan Poros Tengah, Pentat, Kec. Jempang, Kabupaten Kutai Barat, Kalimantan Timur 75773","Pentat, Kec. Jempang, Kabupaten Kutai Barat",KALIMANTAN TIMUR,75773.0,Indonesia, 081225533972,,,-0.573044,116.0930514,https://maps.google.com/?cid=0x0:0xb8f52ca2d1a240ca,
toko bangunan,Toko Bahan Bangunan,toko Darli Bahan Bangunan,"GQM6+RV6, Jl. Trans Kalimantan, Muara Lawa, Kec. Muara Lawa, Kabupaten Kutai Barat, Kalimantan Timur 75775","Jl. Trans Kalimantan, Muara Lawa, Kec. Muara Lawa, Kabupaten Kutai Barat",KALIMANTAN TIMUR,75775.0,Indonesia, 081367805201,,,-0.4654556,115.7621298,https://maps.google.com/?cid=0x0:0x412b014046d9f6bb,
toko bangunan,toko bangunan,Kec. Manor Bulatn,"Kabupaten Kutai Barat, Kalimantan Timur","Kabupaten Kutai Barat, Kalimantan Timur",KALIMANTAN TIMUR,,Indonesia,,,,0.0335718,115.8994923,https://maps.google.com/?cid=0x0:0x3f3b4cf26396f685,
toko bangunan,Asosiasi/organisasi,Kantor Kecamatan Mook Manaar Bulatn,"RVPJ+8VP, Gn. Rampah, Kec. Manor Bulatn, Kabupaten Kutai Barat, Kalimantan Timur 75765","Gn. Rampah, Kec. Manor Bulatn, Kabupaten Kutai Barat",KALIMANTAN TIMUR,75765.0,Indonesia,,,,-0.1641722,115.8822063,https://maps.google.com/?cid=0x0:0xb611ae04321643f,
toko bangunan,Toko,Toko MDA,"M3F3+WFM, Unnamed Road, Tj. Laong, Kec. Muara Pahu, Kabupaten Kutai Barat, Kalimantan Timur 75774","Unnamed Road, Tj. Laong, Kec. Muara Pahu, Kabupaten Kutai Barat",KALIMANTAN TIMUR,75774.0,Indonesia, 081349989575,,,-0.3251614,116.0536762,https://maps.google.com/?cid=0x0:0xce48d8d16fece697,
toko bangunan,Toko Bahan Bangunan,TOKO LATANSA BANGUNAN,"GQG4+VXG, Jl. Trans Kalimantan, pusung, Kec. Muara Lawa, Kabupaten Kutai Barat, Kalimantan Timur 75775","Jl. Trans Kalimantan, pusung, Kec. Muara Lawa, Kabupaten Kutai Barat",KALIMANTAN TIMUR,75775.0,Indonesia, 081367805201,,,-0.4728169,115.7574576,https://maps.google.com/?cid=0x0:0x7835ab17990aea06,
toko bangunan,Tugu Pahlawan,Tugu Mook Manaar Bulatn,"QVW4+3RW, Karangan, Kec. Manor Bulatn, Kabupaten Kutai Barat, Kalimantan Timur 75775","Karangan, Kec. Manor Bulatn, Kabupaten Kutai Barat",KALIMANTAN TIMUR,75775.0,Indonesia,,,,-0.2047641,115.857079,https://maps.google.com/?cid=0x0:0xe3c72a27114e6e58,
toko bangunan,Pusat Perbelanjaan,Toko Bangunan Nur Jaya Makmur,"Jalan raya,kampung royoq, Sendawar, Kec. Barong Tongkok, Kabupaten Kutai Barat, Kalimantan Timur 75775","Sendawar, Kec. Barong Tongkok, Kabupaten Kutai Barat",KALIMANTAN TIMUR,75775.0,Indonesia, 085166900649,,,-0.2189462,115.7911801,https://maps.google.com/?cid=0x0:0x4c070ad92b902a18,
toko bangunan,Toko Bahan Bangunan,Tenaga,"QR9F+9FG, Melak Ulu, Kec. Melak, Kabupaten Kutai Barat, Kalimantan Timur 75775","Melak Ulu, Kec. Melak, Kabupaten Kutai Barat",KALIMANTAN TIMUR,75775.0,Indonesia,,,,-0.2315615,115.8236982,https://maps.google.com/?cid=0x0:0x2de3961a8dba21d1,
toko bangunan,Toko Bahan Bangunan,Toko bangunan tiga jaya,"QR92+42C, Jl. Pattimura, Melak Ulu, Kec. Melak, Kabupaten Kutai Barat, Kalimantan Timur 75775","Jl. Pattimura, Melak Ulu, Kec. Melak, Kabupaten Kutai Barat",KALIMANTAN TIMUR,75775.0,Indonesia, 083899586603,,,-0.2321888,115.8000029,https://maps.google.com/?cid=0x0:0xb79c9ed4dc58911b,
toko bangunan,Toko Bahan Bangunan,Toko imfa jaya,"Jl. Sendawar Raya No.10, Ngenyan Asa, Kec. Barong Tongkok, Kabupaten Kutai Barat, Kalimantan Timur 75776","Ngenyan Asa, Kec. Barong Tongkok, Kabupaten Kutai Barat",KALIMANTAN TIMUR,75776.0,Indonesia, 082310187507,,,-0.2149897,115.736298,https://maps.google.com/?cid=0x0:0x227b60162660308,
toko bangunan,Toko Bahan Bangunan,MITRA IMFA,"Jl. Gajah Mada No.10, Barong Tongkok, Kec. Barong Tongkok, Kabupaten Kutai Barat, Kalimantan Timur 75777","Barong Tongkok, Kec. Barong Tongkok, Kabupaten Kutai Barat",KALIMANTAN TIMUR,75777.0,Indonesia, 082250901255,,,-0.2257435,115.6984632,https://maps.google.com/?cid=0x0:0x77550d6d878f24bf,
toko bangunan,Toko Bahan Bangunan,Toko cahaya,"QR8F+W73, Unnamed Rd, Melak Ulu, Kec. Melak, Kabupaten Kutai Barat, Kalimantan Timur 75775","Unnamed Rd, Melak Ulu, Kec. Melak, Kabupaten Kutai Barat",KALIMANTAN TIMUR,75775.0,Indonesia, 083177573221,,,-0.2327441,115.8231873,https://maps.google.com/?cid=0x0:0x154053ff165ae797,
toko bangunan,Toko,TOKO BANGUNAN SUMBER BERKAH,"Jalan poros Samarinda-melak, Lungkur, simpang 3, Muara Kedang, Kec. Bongan, Kabupaten Kutai Barat, Kalimantan Timur 75772","Lungkur, simpang 3, Muara Kedang, Kec. Bongan, Kabupaten Kutai Barat",KALIMANTAN TIMUR,75772.0,Indonesia, 082186587550,,,-0.6989264,116.2026979,https://maps.google.com/?cid=0x0:0x6811c608fa41c395,
toko bangunan,Toko Bahan Bangunan,Toko alat bangunan dan listrik,"Jl. KH Dewantara No.12, Melak Ulu, Kec. Melak, Kabupaten Kutai Barat, Kalimantan Timur 75775","Melak Ulu, Kec. Melak, Kabupaten Kutai Barat",KALIMANTAN TIMUR,75775.0,Indonesia,,,,-0.2347563,115.8115076,https://maps.google.com/?cid=0x0:0xace321793e6d77e8,
toko bangunan,Minimarket,Nijme mart,"PWQC+694, Unnamed Road, Muara Jawaq, Manor Bulatn, West Kutai Regency, East Kalimantan 75774","Unnamed Road, Muara Jawaq, Manor Bulatn, West Kutai Regency",KALIMANTAN TIMUR,75774.0,Indonesia,,,,-0.2619865,115.9209548,https://maps.google.com/?cid=0x0:0xddc1e692491abf19,
toko bangunan,Kantor Pemerintah,Mook Manar bulatn,"RRGF+X2X, Kelumpang, Kec. Manor Bulatn, Kabupaten Kutai Barat, Kalimantan Timur 75765","Kelumpang, Kec. Manor Bulatn, Kabupaten Kutai Barat",KALIMANTAN TIMUR,75765.0,Indonesia,,,,-0.1725134,115.8225997,https://maps.google.com/?cid=0x0:0x34f0a980fe905dfa,
toko bangunan,Toko Bahan Bangunan,TOKO LATANSA BANGUNAN,"GQG4+VXG, Jl. Trans Kalimantan, pusung, Kec. Muara Lawa, Kabupaten Kutai Barat, Kalimantan Timur 75775","Jl. Trans Kalimantan, pusung, Kec. Muara Lawa, Kabupaten Kutai Barat",KALIMANTAN TIMUR,75775.0,Indonesia, 081367805201,,,-0.4728169,115.7574576,https://maps.google.com/?cid=0x0:0x7835ab17990aea06,
toko bangunan,Toko Bahan Bangunan,Toko Bahan Bangunan MITRA 2021,"FQV4+FHM, Jl. Trans Kalimantan, Payang, Kec. Muara Lawa, Kabupaten Kutai Barat, Kalimantan Timur 75775","Jl. Trans Kalimantan, Payang, Kec. Muara Lawa, Kabupaten Kutai Barat",KALIMANTAN TIMUR,75775.0,Indonesia, 081367805201,,,-0.5073319,115.7567613,https://maps.google.com/?cid=0x0:0x7672f19073ed7747,
toko bangunan,Toko Bahan Bangunan,toko Darli Bahan Bangunan,"GQM6+RV6, Jl. Trans Kalimantan, Muara Lawa, Kec. Muara Lawa, Kabupaten Kutai Barat, Kalimantan Timur 75775","Jl. Trans Kalimantan, Muara Lawa, Kec. Muara Lawa, Kabupaten Kutai Barat",KALIMANTAN TIMUR,75775.0,Indonesia, 081367805201,,,-0.4654556,115.7621298,https://maps.google.com/?cid=0x0:0x412b014046d9f6bb,
toko bangunan,Toko Bahan Bangunan,Toko Bangunan CAHAYA,"QR94+23M, Melak Ulu, Kec. Melak, Kabupaten Kutai Barat, Kalimantan Timur 75775","Melak Ulu, Kec. Melak, Kabupaten Kutai Barat",KALIMANTAN TIMUR,75775.0,Indonesia, 0816992047,,,-0.2324188,115.8051588,https://maps.google.com/?cid=0x0:0xfc0802a2f7167e4f,
toko bangunan,Toko Bahan Bangunan,Toko bangunan tiga jaya,"QR92+42C, Jl. Pattimura, Melak Ulu, Kec. Melak, Kabupaten Kutai Barat, Kalimantan Timur 75775","Jl. Pattimura, Melak Ulu, Kec. Melak, Kabupaten Kutai Barat",KALIMANTAN TIMUR,75775.0,Indonesia, 083899586603,,,-0.2321888,115.8000029,https://maps.google.com/?cid=0x0:0xb79c9ed4dc58911b,
toko bangunan,Toko bahan makanan,Toko Ananda,"Srimulyo, Kec. Sekolaq Darat, Kabupaten Kutai Barat, Kalimantan Timur 75775","Kec. Sekolaq Darat, Kabupaten Kutai Barat",KALIMANTAN TIMUR,75775.0,Indonesia, 082153874606,,,-0.2809292,115.7594728,https://maps.google.com/?cid=0x0:0xc48fb0fc294b1f39,
toko bangunan,Toko Bahan Bangunan,Toko Bangunan SUMBER REJEKI,"QR86+29H, Melak Ulu, Kec. Melak, Kabupaten Kutai Barat, Kalimantan Timur 75775","Melak Ulu, Kec. Melak, Kabupaten Kutai Barat",KALIMANTAN TIMUR,75775.0,Indonesia,,,,-0.2349358,115.8109945,https://maps.google.com/?cid=0x0:0xed30ae14ebba8c,
toko bangunan,Toko Bahan Bangunan,Toko imfa jaya,"Jl. Sendawar Raya No.10, Ngenyan Asa, Kec. Barong Tongkok, Kabupaten Kutai Barat, Kalimantan Timur 75776","Ngenyan Asa, Kec. Barong Tongkok, Kabupaten Kutai Barat",KALIMANTAN TIMUR,75776.0,Indonesia, 082310187507,,,-0.2149897,115.736298,https://maps.google.com/?cid=0x0:0x227b60162660308,
toko bangunan,Toko Bahan Bangunan,CV. DIAN ABADI,"Unnamed Road, Sekolaq Darat, West Kutai Regency, East Kalimantan 75777","Sekolaq Darat, West Kutai Regency",KALIMANTAN TIMUR,75777.0,Indonesia, 085246058783,,,-0.2744674,115.7451033,https://maps.google.com/?cid=0x0:0x3ada997c3e609acb,
toko bangunan,Toko Bahan Bangunan,Toko SLM,"Jl. Mas Arso Joyo No.RT.06, Srimulyo, Kec. Sekolaq Darat, Kabupaten Kutai Barat, Kalimantan Timur 75775","Srimulyo, Kec. Sekolaq Darat, Kabupaten Kutai Barat",KALIMANTAN TIMUR,75775.0,Indonesia, 087761141363,,,-0.2720726,115.7653909,https://maps.google.com/?cid=0x0:0x84c5df3e0b7e0a77,
toko bangunan,Toko Bahan Bangunan,Toko simpang melak,"QR9F+JHP, Unnamed Road, Melak Ulu, Kec. Melak, Kabupaten Kutai Barat, Kalimantan Timur 75775","Unnamed Road, Melak Ulu, Kec. Melak, Kabupaten Kutai Barat",KALIMANTAN TIMUR,75775.0,Indonesia,,,,-0.2309216,115.8239516,https://maps.google.com/?cid=0x0:0xa4c974c5ff24672,
toko bangunan,Toko Bahan Bangunan,Toko cahaya,"QR8F+W73, Unnamed Rd, Melak Ulu, Kec. Melak, Kabupaten Kutai Barat, Kalimantan Timur 75775","Unnamed Rd, Melak Ulu, Kec. Melak, Kabupaten Kutai Barat",KALIMANTAN TIMUR,75775.0,Indonesia, 083177573221,,,-0.2327441,115.8231873,https://maps.google.com/?cid=0x0:0x154053ff165ae797,
toko bangunan,Toko Bahan Bangunan,TB Mulia Jaya,"QR82+XXQ, Melak Ulu, Kec. Melak, Kabupaten Kutai Barat, Kalimantan Timur 75775","Melak Ulu, Kec. Melak, Kabupaten Kutai Barat",KALIMANTAN TIMUR,75775.0,Indonesia,,,,-0.2319635,115.8022439,https://maps.google.com/?cid=0x0:0xb76bbdc8dab76373,
toko bangunan,Pusat Perbelanjaan,Toko Bangunan Nur Jaya Makmur,"Jalan raya,kampung royoq, Sendawar, Kec. Barong Tongkok, Kabupaten Kutai Barat, Kalimantan Timur 75775","Sendawar, Kec. Barong Tongkok, Kabupaten Kutai Barat",KALIMANTAN TIMUR,75775.0,Indonesia, 085166900649,,,-0.2189462,115.7911801,https://maps.google.com/?cid=0x0:0x4c070ad92b902a18,
toko bangunan,Toko Bahan Bangunan,Toko Karya Harapan,"MP83+8V, Keay, Kec. Damai, Kabupaten Kutai Barat, Kalimantan Timur 75777","Keay, Kec. Damai, Kabupaten Kutai Barat",KALIMANTAN TIMUR,75777.0,Indonesia, 085777883592,,,-0.3341243,115.7047838,https://maps.google.com/?cid=0x0:0x2aafa1b165bd0e8,
toko bangunan,Toko Bahan Bangunan,Tenaga,"QR9F+9FG, Melak Ulu, Kec. Melak, Kabupaten Kutai Barat, Kalimantan Timur 75775","Melak Ulu, Kec. Melak, Kabupaten Kutai Barat",KALIMANTAN TIMUR,75775.0,Indonesia,,,,-0.2315615,115.8236982,https://maps.google.com/?cid=0x0:0x2de3961a8dba21d1,
toko bangunan,Toko Bahan Bangunan,Toko sherly,"PQ92+46C, Jl. Mas Arso Joyo, Sekolaq Darat, Kec. Sekolaq Darat, Kabupaten Kutai Barat, Kalimantan Timur 75775","Jl. Mas Arso Joyo, Sekolaq Darat, Kec. Sekolaq Darat, Kabupaten Kutai Barat",KALIMANTAN TIMUR,75775.0,Indonesia, 082154139702,,,-0.2821887,115.7505168,https://maps.google.com/?cid=0x0:0x1e4de4771bc6a0ee,
toko bangunan,Toko Bahan Bangunan,Toko alat bangunan dan listrik,"Jl. KH Dewantara No.12, Melak Ulu, Kec. Melak, Kabupaten Kutai Barat, Kalimantan Timur 75775","Melak Ulu, Kec. Melak, Kabupaten Kutai Barat",KALIMANTAN TIMUR,75775.0,Indonesia,,,,-0.2347563,115.8115076,https://maps.google.com/?cid=0x0:0xace321793e6d77e8,
toko bangunan,Toko Bahan Bangunan,TB Nisda,"QP38+VR6, Jl. Sedap Malam, Sumber Sari, Kec. Barong Tongkok, Kabupaten Kutai Barat, Kalimantan Timur 75777","Jl. Sedap Malam, Sumber Sari, Kec. Barong Tongkok, Kabupaten Kutai Barat",KALIMANTAN TIMUR,75777.0,Indonesia,,,,-0.2453348,115.7170077,https://maps.google.com/?cid=0x0:0xaff1d421b407ee8f,
toko bangunan,Toko Bahan Bangunan,MITRA IMFA,"Jl. Gajah Mada No.10, Barong Tongkok, Kec. Barong Tongkok, Kabupaten Kutai Barat, Kalimantan Timur 75777","Barong Tongkok, Kec. Barong Tongkok, Kabupaten Kutai Barat",KALIMANTAN TIMUR,75777.0,Indonesia, 082250901255,,,-0.2257435,115.6984632,https://maps.google.com/?cid=0x0:0x77550d6d878f24bf,
toko bangunan,toko bangunan,Kalimantan Timur 75774,"Kabupaten Kutai Barat, Kalimantan Timur","Kabupaten Kutai Barat, Kalimantan Timur",KALIMANTAN TIMUR,,Indonesia,,,,-0.6090382,115.9467997,https://maps.google.com/?cid=0x0:0xafd22cb4e55c53b7,
toko bangunan,Toko,Toko MDA,"M3F3+WFM, Unnamed Road, Tj. Laong, Kec. Muara Pahu, Kabupaten Kutai Barat, Kalimantan Timur 75774","Unnamed Road, Tj. Laong, Kec. Muara Pahu, Kabupaten Kutai Barat",KALIMANTAN TIMUR,75774.0,Indonesia, 081349989575,,,-0.3251614,116.0536762,https://maps.google.com/?cid=0x0:0xce48d8d16fece697,
toko bangunan,Toko Mebel,Toko Bangunan Berkah Indah Agung,"C28H+Q2J, Muara Tae, Kec. Jempang, Kabupaten Kutai Barat, Kalimantan Timur 75774","Muara Tae, Kec. Jempang, Kabupaten Kutai Barat",KALIMANTAN TIMUR,75774.0,Indonesia, 08161999912,,,-0.5830391,116.0275139,https://maps.google.com/?cid=0x0:0x9317f9946f3e86c8,
toko bangunan,Toko,Toko Rajawali Bangunan,"Jl. Lintas Kalimantan Poros Tengah, Pentat, Kec. Jempang, Kabupaten Kutai Barat, Kalimantan Timur 75773","Pentat, Kec. Jempang, Kabupaten Kutai Barat",KALIMANTAN TIMUR,75773.0,Indonesia, 081225533972,,,-0.573044,116.0930514,https://maps.google.com/?cid=0x0:0xb8f52ca2d1a240ca,
toko bangunan,Toko Bahan Bangunan,TOKO LATANSA BANGUNAN,"GQG4+VXG, Jl. Trans Kalimantan, pusung, Kec. Muara Lawa, Kabupaten Kutai Barat, Kalimantan Timur 75775","Jl. Trans Kalimantan, pusung, Kec. Muara Lawa, Kabupaten Kutai Barat",KALIMANTAN TIMUR,75775.0,Indonesia, 081367805201,,,-0.4728169,115.7574576,https://maps.google.com/?cid=0x0:0x7835ab17990aea06,
toko bangunan,Toko Bahan Bangunan,toko Darli Bahan Bangunan,"GQM6+RV6, Jl. Trans Kalimantan, Muara Lawa, Kec. Muara Lawa, Kabupaten Kutai Barat, Kalimantan Timur 75775","Jl. Trans Kalimantan, Muara Lawa, Kec. Muara Lawa, Kabupaten Kutai Barat",KALIMANTAN TIMUR,75775.0,Indonesia, 081367805201,,,-0.4654556,115.7621298,https://maps.google.com/?cid=0x0:0x412b014046d9f6bb,
toko bangunan,toko bangunan,Kalimantan Timur 75776,"Kabupaten Kutai Barat, Kalimantan Timur","Kabupaten Kutai Barat, Kalimantan Timur",KALIMANTAN TIMUR,,Indonesia,,,,-0.1517231,115.5917918,https://maps.google.com/?cid=0x0:0xcf1c58fc5919e6cf,
toko bangunan,Toko Bahan Bangunan,Toko Bangunan Mas Wawan,"VM33+8PP, Linggang Amer, Kec. Linggang Bigung, Kabupaten Kutai Barat, Kalimantan Timur 75776","Linggang Amer, Kec. Linggang Bigung, Kabupaten Kutai Barat",KALIMANTAN TIMUR,75776.0,Indonesia, 083161074744,,,-0.146655,115.6543141,https://maps.google.com/?cid=0x0:0xaa686758d06014da,
toko bangunan,Toko Bahan Bangunan,Toko imfa jaya,"Jl. Sendawar Raya No.10, Ngenyan Asa, Kec. Barong Tongkok, Kabupaten Kutai Barat, Kalimantan Timur 75776","Ngenyan Asa, Kec. Barong Tongkok, Kabupaten Kutai Barat",KALIMANTAN TIMUR,75776.0,Indonesia, 082310187507,,,-0.2149897,115.736298,https://maps.google.com/?cid=0x0:0x227b60162660308,
toko bangunan,Pusat Perbelanjaan,Toko Pore Baru,"QM3Q+H52, Simpang Raya, Kec. Barong Tongkok, Kabupaten Kutai Barat, Kalimantan Timur 75777","Simpang Raya, Kec. Barong Tongkok, Kabupaten Kutai Barat",KALIMANTAN TIMUR,75777.0,Indonesia, 085777883592,,,-0.2461057,115.6878889,https://maps.google.com/?cid=0x0:0x45ae05fd3c255c5a,
toko bangunan,Toko Bahan Bangunan,Toko Andrian Junaidi Jual Bahan Bangunan,"QP39+QGR, Sekolaq Joleq, Kec. Sekolaq Darat, Kabupaten Kutai Barat, Kalimantan Timur 75777","Sekolaq Joleq, Kec. Sekolaq Darat, Kabupaten Kutai Barat",KALIMANTAN TIMUR,75777.0,Indonesia, 081225533972,,,-0.2455169,115.7187772,https://maps.google.com/?cid=0x0:0xdaa1dc50cbe0729a,
toko bangunan,Toko Bahan Bangunan,TB. MITRA PAHARIN,"Jl. Diponegoro, rt2, Linggang Bigung, Kec. Linggang Bigung, Kabupaten Kutai Barat, Kalimantan Timur 75776","rt2, Linggang Bigung, Kec. Linggang Bigung, Kabupaten Kutai Barat",KALIMANTAN TIMUR,75776.0,Indonesia,,,,-0.1536046,115.6273618,https://maps.google.com/?cid=0x0:0x9a9dc5a172bce5e6,
toko bangunan,Toko Bahan Bangunan,MITRA IMFA,"Jl. Gajah Mada No.10, Barong Tongkok, Kec. Barong Tongkok, Kabupaten Kutai Barat, Kalimantan Timur 75777","Barong Tongkok, Kec. Barong Tongkok, Kabupaten Kutai Barat",KALIMANTAN TIMUR,75777.0,Indonesia, 082250901255,,,-0.2257435,115.6984632,https://maps.google.com/?cid=0x0:0x77550d6d878f24bf,
toko bangunan,toko bangunan,TOKO RAHMAT JAYA,"PMGJ+22F, Jl. Naras Gunaq, Mencimai, Kec. Barong Tongkok, Kabupaten Kutai Barat, Kalimantan Timur 75777","Jl. Naras Gunaq, Mencimai, Kec. Barong Tongkok, Kabupaten Kutai Barat",KALIMANTAN TIMUR,75777.0,Indonesia, 085349187760,,,-0.2747835,115.6800273,https://maps.google.com/?cid=0x0:0x29450da839eb28de,
toko bangunan,Toko Bahan Bangunan,Eva Jaya Abadi,"VJ3C+8, Jl. Sengkereaq Egas, Linggang Bigung, Kec. Linggang Bigung, Kabupaten Kutai Barat, Kalimantan Timur 75576","Jl. Sengkereaq Egas, Linggang Bigung, Kec. Linggang Bigung, Kabupaten Kutai Barat",KALIMANTAN TIMUR,75576.0,Indonesia, 087851162036,,,-0.1466603,115.6210962,https://maps.google.com/?cid=0x0:0xe0a1c12a241092d7,
toko bangunan,Toko Swalayan,TOKo devi 03,"WJ9V+7M6, Tering Seberang, Kec. Tering, Kabupaten Kutai Barat, Kalimantan Timur 75576","Tering Seberang, Kec. Tering, Kabupaten Kutai Barat",KALIMANTAN TIMUR,75576.0,Indonesia, 085777883592,,,-0.0818339,115.6441531,https://maps.google.com/?cid=0x0:0x3a935228f41b11b0,
toko bangunan,Toko Perlengkapan Rumah,UD. MAJU,"Jl. Sendawar Raya No.10, Barong Tongkok, Kec. Barong Tongkok, Kabupaten Kutai Barat, Kalimantan Timur 75776","Barong Tongkok, Kec. Barong Tongkok, Kabupaten Kutai Barat",KALIMANTAN TIMUR,75776.0,Indonesia,,,,-0.2187428,115.7102886,https://maps.google.com/?cid=0x0:0xbede63ae91e15162,
toko bangunan,Toko Bahan Bangunan,Toko Bangunan CAHAYA,"QR94+23M, Melak Ulu, Kec. Melak, Kabupaten Kutai Barat, Kalimantan Timur 75775","Melak Ulu, Kec. Melak, Kabupaten Kutai Barat",KALIMANTAN TIMUR,75775.0,Indonesia, 0816992047,,,-0.2324188,115.8051588,https://maps.google.com/?cid=0x0:0xfc0802a2f7167e4f,
toko bangunan,Toko,UD Pisca Jaya,"VJ3H+3V6, Jl. Sengkereaq Dakaaq, Linggang Bigung, Kec. Linggang Bigung, Kabupaten Kutai Barat, Kalimantan Timur 75776","Jl. Sengkereaq Dakaaq, Linggang Bigung, Kec. Linggang Bigung, Kabupaten Kutai Barat",KALIMANTAN TIMUR,75776.0,Indonesia, 082254076670,,,-0.1473317,115.6296557,https://maps.google.com/?cid=0x0:0x860b957a7f4c8769,
toko bangunan,Toko Bahan Bangunan,CV. DIAN ABADI,"Unnamed Road, Sekolaq Darat, West Kutai Regency, East Kalimantan 75777","Sekolaq Darat, West Kutai Regency",KALIMANTAN TIMUR,75777.0,Indonesia, 085246058783,,,-0.2744674,115.7451033,https://maps.google.com/?cid=0x0:0x3ada997c3e609acb,
toko bangunan,Toko Bahan Bangunan,Toko Duta Keramik 2,"QM3P+3R8, Jl. Naras Gunaq, Simpang Raya, Kec. Barong Tongkok, Kabupaten Kutai Barat, Kalimantan Timur 75777","Jl. Naras Gunaq, Simpang Raya, Kec. Barong Tongkok, Kabupaten Kutai Barat",KALIMANTAN TIMUR,75777.0,Indonesia, 087761141362,,,-0.2473318,115.6870629,https://maps.google.com/?cid=0x0:0xbda5aa6cf85bf315,
toko bangunan,Toko bahan makanan,UD u003d RB RIZAL BERSAUDARA SUMBAR SARI BANGUNAN,"QP25+GVV, Sumber Sari, Kec. Barong Tongkok, Kabupaten Kutai Barat, Kalimantan Timur 75777","Sumber Sari, Kec. Barong Tongkok, Kabupaten Kutai Barat",KALIMANTAN TIMUR,75777.0,Indonesia, 085349187760,,,-0.2486383,115.7096852,https://maps.google.com/?cid=0x0:0x15bf17863cfeeb75,
toko bangunan,Toko Bahan Bangunan,Toko Material Bangunan,"QP25+GVF, Simpang Raya, Kec. Barong Tongkok, Kabupaten Kutai Barat, Kalimantan Timur 75777","Simpang Raya, Kec. Barong Tongkok, Kabupaten Kutai Barat",KALIMANTAN TIMUR,75777.0,Indonesia,,,,-0.2486797,115.7096834,https://maps.google.com/?cid=0x0:0x2a6fbd6ee65cb910,
toko bangunan,Toko Bahan Bangunan,Batako Jaya Sendawar,"RT/RW 004, JL anggrek, Sumber Bangun, Kec. Sekolaq Darat, Kabupaten Kutai Barat, Kalimantan Timur 75777","JL anggrek, Sumber Bangun, Kec. Sekolaq Darat, Kabupaten Kutai Barat",KALIMANTAN TIMUR,75777.0,Indonesia, 085386393960,,,-0.2465992,115.7308914,https://maps.google.com/?cid=0x0:0x190758935993688d,
toko bangunan,Pusat Perbelanjaan,Toko Bangunan Nur Jaya Makmur,"Jalan raya,kampung royoq, Sendawar, Kec. Barong Tongkok, Kabupaten Kutai Barat, Kalimantan Timur 75775","Sendawar, Kec. Barong Tongkok, Kabupaten Kutai Barat",KALIMANTAN TIMUR,75775.0,Indonesia, 085166900649,,,-0.2189462,115.7911801,https://maps.google.com/?cid=0x0:0x4c070ad92b902a18,
toko bangunan,Toko Bahan Bangunan,TB Ades,"QM8H+FC, Barong Tongkok, Kec. Barong Tongkok, Kabupaten Kutai Barat, Kalimantan Timur 75777","Barong Tongkok, Kec. Barong Tongkok, Kabupaten Kutai Barat",KALIMANTAN TIMUR,75777.0,Indonesia,,,,-0.2338527,115.6787318,https://maps.google.com/?cid=0x0:0x5a53e04c783c2014,
toko bangunan,Toko Bahan Bangunan,Toko Bangunan Chacink Jaya,"Jl.sengkereaq lacaq RT 003 RJXG+9M5, Linggang Bigung, Kec. Linggang Bigung, Kabupaten Kutai Barat, Kalimantan Timur 75776, Kabupaten Kutai Barat, Kalimantan Timur 75576","Linggang Bigung, Kec. Linggang Bigung, Kabupaten Kutai Barat, Kalimantan Timur",KALIMANTAN TIMUR,75776.0,Indonesia, 082258054746,,,-0.151025,115.6270346,https://maps.google.com/?cid=0x0:0x145a06b820c123d2,
toko bangunan,Toko Perlengkapan Rumah,Toko Belawa 2,"Jl. D.I. Panjaitan No.17, Barong Tongkok, Kec. Barong Tongkok, Kabupaten Kutai Barat, Kalimantan Timur 75777","Barong Tongkok, Kec. Barong Tongkok, Kabupaten Kutai Barat",KALIMANTAN TIMUR,75777.0,Indonesia,,,,-0.2336405,115.6824762,https://maps.google.com/?cid=0x0:0x3d8ea5464183b964,
toko bangunan,Tukang Kayu,Moulding CV. Bhakti Nusa Jaya,"VJ5J+WR4, Jl. Mangkujaya IV, Linggang Bigung, Kec. Linggang Bigung, Kabupaten Kutai Barat, Kalimantan Timur 75776","Jl. Mangkujaya IV, Linggang Bigung, Kec. Linggang Bigung, Kabupaten Kutai Barat",KALIMANTAN TIMUR,75776.0,Indonesia, 081254884455,,,-0.1402494,115.6320764,https://maps.google.com/?cid=0x0:0x5cdcc34279a2675c,
toko bangunan,Toko Bahan Bangunan,UD.RANGGA JAYA,"QM7J+83G, Barong Tongkok, Kec. Barong Tongkok, Kabupaten Kutai Barat, Kalimantan Timur 75777","Barong Tongkok, Kec. Barong Tongkok, Kabupaten Kutai Barat",KALIMANTAN TIMUR,75777.0,Indonesia, 082213176971,,,-0.2366808,115.6802117,https://maps.google.com/?cid=0x0:0x5fe3a4dff085eec0,
toko bangunan,toko bangunan,Kalimantan Timur 75777,"Kabupaten Kutai Barat, Kalimantan Timur","Kabupaten Kutai Barat, Kalimantan Timur",KALIMANTAN TIMUR,,Indonesia,,,,-0.4403799,115.5207358,https://maps.google.com/?cid=0x0:0x402198de5bc5a33b,
toko bangunan,toko bangunan,TOKO RAHMAT JAYA,"PMGJ+22F, Jl. Naras Gunaq, Mencimai, Kec. Barong Tongkok, Kabupaten Kutai Barat, Kalimantan Timur 75777","Jl. Naras Gunaq, Mencimai, Kec. Barong Tongkok, Kabupaten Kutai Barat",KALIMANTAN TIMUR,75777.0,Indonesia, 085349187760,,,-0.2747835,115.6800273,https://maps.google.com/?cid=0x0:0x29450da839eb28de,
toko bangunan,Pusat Perbelanjaan,Toko Pore Baru,"QM3Q+H52, Simpang Raya, Kec. Barong Tongkok, Kabupaten Kutai Barat, Kalimantan Timur 75777","Simpang Raya, Kec. Barong Tongkok, Kabupaten Kutai Barat",KALIMANTAN TIMUR,75777.0,Indonesia, 085777883592,,,-0.2461057,115.6878889,https://maps.google.com/?cid=0x0:0x45ae05fd3c255c5a,
toko bangunan,Toko Bahan Bangunan,Toko Karya Harapan,"MP83+8V, Keay, Kec. Damai, Kabupaten Kutai Barat, Kalimantan Timur 75777","Keay, Kec. Damai, Kabupaten Kutai Barat",KALIMANTAN TIMUR,75777.0,Indonesia, 085777883592,,,-0.3341243,115.7047838,https://maps.google.com/?cid=0x0:0x2aafa1b165bd0e8,
toko bangunan,Toko Bahan Bangunan,CV. DIAN ABADI,"Unnamed Road, Sekolaq Darat, West Kutai Regency, East Kalimantan 75777","Sekolaq Darat, West Kutai Regency",KALIMANTAN TIMUR,75777.0,Indonesia, 085246058783,,,-0.2744674,115.7451033,https://maps.google.com/?cid=0x0:0x3ada997c3e609acb,
toko bangunan,Toko Bahan Bangunan,Toko imfa jaya,"Jl. Sendawar Raya No.10, Ngenyan Asa, Kec. Barong Tongkok, Kabupaten Kutai Barat, Kalimantan Timur 75776","Ngenyan Asa, Kec. Barong Tongkok, Kabupaten Kutai Barat",KALIMANTAN TIMUR,75776.0,Indonesia, 082310187507,,,-0.2149897,115.736298,https://maps.google.com/?cid=0x0:0x227b60162660308,
toko bangunan,Toko Bahan Bangunan,MITRA IMFA,"Jl. Gajah Mada No.10, Barong Tongkok, Kec. Barong Tongkok, Kabupaten Kutai Barat, Kalimantan Timur 75777","Barong Tongkok, Kec. Barong Tongkok, Kabupaten Kutai Barat",KALIMANTAN TIMUR,75777.0,Indonesia, 082250901255,,,-0.2257435,115.6984632,https://maps.google.com/?cid=0x0:0x77550d6d878f24bf,
toko bangunan,Toko Bahan Bangunan,Toko Andrian Junaidi Jual Bahan Bangunan,"QP39+QGR, Sekolaq Joleq, Kec. Sekolaq Darat, Kabupaten Kutai Barat, Kalimantan Timur 75777","Sekolaq Joleq, Kec. Sekolaq Darat, Kabupaten Kutai Barat",KALIMANTAN TIMUR,75777.0,Indonesia, 081225533972,,,-0.2455169,115.7187772,https://maps.google.com/?cid=0x0:0xdaa1dc50cbe0729a,
toko bangunan,Toko bahan makanan,Toko Ananda,"Srimulyo, Kec. Sekolaq Darat, Kabupaten Kutai Barat, Kalimantan Timur 75775","Kec. Sekolaq Darat, Kabupaten Kutai Barat",KALIMANTAN TIMUR,75775.0,Indonesia, 082153874606,,,-0.2809292,115.7594728,https://maps.google.com/?cid=0x0:0xc48fb0fc294b1f39,
toko bangunan,Toko bahan makanan,UD u003d RB RIZAL BERSAUDARA SUMBAR SARI BANGUNAN,"QP25+GVV, Sumber Sari, Kec. Barong Tongkok, Kabupaten Kutai Barat, Kalimantan Timur 75777","Sumber Sari, Kec. Barong Tongkok, Kabupaten Kutai Barat",KALIMANTAN TIMUR,75777.0,Indonesia, 085349187760,,,-0.2486383,115.7096852,https://maps.google.com/?cid=0x0:0x15bf17863cfeeb75,
toko bangunan,Toko Bahan Bangunan,Toko Duta Keramik 2,"QM3P+3R8, Jl. Naras Gunaq, Simpang Raya, Kec. Barong Tongkok, Kabupaten Kutai Barat, Kalimantan Timur 75777","Jl. Naras Gunaq, Simpang Raya, Kec. Barong Tongkok, Kabupaten Kutai Barat",KALIMANTAN TIMUR,75777.0,Indonesia, 087761141362,,,-0.2473318,115.6870629,https://maps.google.com/?cid=0x0:0xbda5aa6cf85bf315,
toko bangunan,Toko Perlengkapan Rumah,Toko Belawa 2,"Jl. D.I. Panjaitan No.17, Barong Tongkok, Kec. Barong Tongkok, Kabupaten Kutai Barat, Kalimantan Timur 75777","Barong Tongkok, Kec. Barong Tongkok, Kabupaten Kutai Barat",KALIMANTAN TIMUR,75777.0,Indonesia,,,,-0.2336405,115.6824762,https://maps.google.com/?cid=0x0:0x3d8ea5464183b964,
toko bangunan,Toko Bahan Bangunan,TB Ades,"QM8H+FC, Barong Tongkok, Kec. Barong Tongkok, Kabupaten Kutai Barat, Kalimantan Timur 75777","Barong Tongkok, Kec. Barong Tongkok, Kabupaten Kutai Barat",KALIMANTAN TIMUR,75777.0,Indonesia,,,,-0.2338527,115.6787318,https://maps.google.com/?cid=0x0:0x5a53e04c783c2014,
toko bangunan,Toko Bahan Bangunan,Batako Jaya Sendawar,"RT/RW 004, JL anggrek, Sumber Bangun, Kec. Sekolaq Darat, Kabupaten Kutai Barat, Kalimantan Timur 75777","JL anggrek, Sumber Bangun, Kec. Sekolaq Darat, Kabupaten Kutai Barat",KALIMANTAN TIMUR,75777.0,Indonesia, 085386393960,,,-0.2465992,115.7308914,https://maps.google.com/?cid=0x0:0x190758935993688d,
toko bangunan,Pusat Perbelanjaan,TB Ikhlas,"PMHJ+W27, Jl. Naras Gunaq, Mencimai, Kec. Barong Tongkok, Kabupaten Kutai Barat, Kalimantan Timur 75777","Jl. Naras Gunaq, Mencimai, Kec. Barong Tongkok, Kabupaten Kutai Barat",KALIMANTAN TIMUR,75777.0,Indonesia,,,,-0.2702009,115.6800421,https://maps.google.com/?cid=0x0:0x5435af93e173dd9b,
toko bangunan,Toko Bahan Bangunan,Toko Material Bangunan,"QP25+GVF, Simpang Raya, Kec. Barong Tongkok, Kabupaten Kutai Barat, Kalimantan Timur 75777","Simpang Raya, Kec. Barong Tongkok, Kabupaten Kutai Barat",KALIMANTAN TIMUR,75777.0,Indonesia,,,,-0.2486797,115.7096834,https://maps.google.com/?cid=0x0:0x2a6fbd6ee65cb910,
toko bangunan,Pusat Perbelanjaan,Toko Barakati Bangunan,"PMWP+HCC, Jl. Naras Gunaq, Simpang Raya, Kec. Barong Tongkok, Kabupaten Kutai Barat, Kalimantan Timur 75777","Jl. Naras Gunaq, Simpang Raya, Kec. Barong Tongkok, Kabupaten Kutai Barat",KALIMANTAN TIMUR,75777.0,Indonesia, 085236863965,,,-0.2535529,115.6860142,https://maps.google.com/?cid=0x0:0xf5e5250ff74db9f0,
toko bangunan,Toko Bahan Bangunan,UD.RANGGA JAYA,"QM7J+83G, Barong Tongkok, Kec. Barong Tongkok, Kabupaten Kutai Barat, Kalimantan Timur 75777","Barong Tongkok, Kec. Barong Tongkok, Kabupaten Kutai Barat",KALIMANTAN TIMUR,75777.0,Indonesia, 082213176971,,,-0.2366808,115.6802117,https://maps.google.com/?cid=0x0:0x5fe3a4dff085eec0,
toko bangunan,Toko Bahan Bangunan,Toko Duta Keramik,"QP23+6VM, Jl. Hasanudin, Simpang Raya, Kec. Barong Tongkok, Kabupaten Kutai Barat, Kalimantan Timur 75777","Jl. Hasanudin, Simpang Raya, Kec. Barong Tongkok, Kabupaten Kutai Barat",KALIMANTAN TIMUR,75777.0,Indonesia, 087761141362,,,-0.2494196,115.7046805,https://maps.google.com/?cid=0x0:0xc9f28a0b5f389bf4,
toko bangunan,Toko Perlengkapan Rumah,UD. MAJU,"Jl. Sendawar Raya No.10, Barong Tongkok, Kec. Barong Tongkok, Kabupaten Kutai Barat, Kalimantan Timur 75776","Barong Tongkok, Kec. Barong Tongkok, Kabupaten Kutai Barat",KALIMANTAN TIMUR,75776.0,Indonesia,,,,-0.2187428,115.7102886,https://maps.google.com/?cid=0x0:0xbede63ae91e15162,
toko bangunan,Pusat Perbelanjaan,Toko Bangunan Mantap,"QM4Q+8QF, Jl. Hasanudin, Simpang Raya, Kec. Barong Tongkok, Kabupaten Kutai Barat, Kalimantan Timur 75777","Jl. Hasanudin, Simpang Raya, Kec. Barong Tongkok, Kabupaten Kutai Barat",KALIMANTAN TIMUR,75777.0,Indonesia,,,,-0.2441758,115.6894372,https://maps.google.com/?cid=0x0:0x26996f4f80690f2e,
toko bangunan,Toko,Toko Mitra jaya abadi,"JPP3+8G4, Jengan Danum, Kec. Damai, Kabupaten Kutai Barat, Kalimantan Timur","Kabupaten Kutai Barat, Kalimantan Timur",KALIMANTAN TIMUR,,Indonesia, 085269235972,,,-0.3642388,115.7038162,https://maps.google.com/?cid=0x0:0xff35f918bbd794a0,
toko bangunan,toko bangunan,Kalimantan Timur 75763,Kalimantan Timur,Kalimantan Timur,KALIMANTAN TIMUR,,Indonesia,,,,-0.3023441,116.2777073,https://maps.google.com/?cid=0x0:0xe5ae71661c611545,
toko bangunan,Toko Bahan Bangunan,Rendy Toko,"PC84+CXV, Melintang, Kec. Muara Wis, Kabupaten Kutai Kartanegara, Kalimantan Timur 75763","Melintang, Kec. Muara Wis, Kabupaten Kutai Kartanegara",KALIMANTAN TIMUR,75763.0,Indonesia,,,,-0.2838756,116.4074272,https://maps.google.com/?cid=0x0:0xd4aaaf35814d399d,
toko bangunan,Toko,Toko Lancar tezeki,"H7MV+GRG, Jantur, Kec. Muara Muntai, Kabupaten Kutai Kartanegara, Kalimantan Timur 75763","Jantur, Kec. Muara Muntai, Kabupaten Kutai Kartanegara",KALIMANTAN TIMUR,75763.0,Indonesia,,,,-0.416195,116.294585,https://maps.google.com/?cid=0x0:0xdaa9264930c6d90a,
toko bangunan,Toko Bahan Bangunan,Toko Bangunan CAHAYA,"QR94+23M, Melak Ulu, Kec. Melak, Kabupaten Kutai Barat, Kalimantan Timur 75775","Melak Ulu, Kec. Melak, Kabupaten Kutai Barat",KALIMANTAN TIMUR,75775.0,Indonesia, 0816992047,,,-0.2324188,115.8051588,https://maps.google.com/?cid=0x0:0xfc0802a2f7167e4f,
toko bangunan,Toko Bahan Bangunan,Toko Nelayan Dan Bangunan,"H7MV+M7F, Jln. Raya Sungai, RT.11, Jantur, Kec. Muara Muntai, Kabupaten Kutai Kartanegara, Kalimantan Timur","Kabupaten Kutai Kartanegara, Kalimantan Timur",KALIMANTAN TIMUR,,Indonesia,,,,-0.4158242,116.293177,https://maps.google.com/?cid=0x0:0x1e2e170777ea71d6,
toko bangunan,Toko Bahan Bangunan,Toko Karya Harapan,"MP83+8V, Keay, Kec. Damai, Kabupaten Kutai Barat, Kalimantan Timur 75777","Keay, Kec. Damai, Kabupaten Kutai Barat",KALIMANTAN TIMUR,75777.0,Indonesia, 085777883592,,,-0.3341243,115.7047838,https://maps.google.com/?cid=0x0:0x2aafa1b165bd0e8,
toko bangunan,Toko Bahan Bangunan,Toko bangunan tiga jaya,"QR92+42C, Jl. Pattimura, Melak Ulu, Kec. Melak, Kabupaten Kutai Barat, Kalimantan Timur 75775","Jl. Pattimura, Melak Ulu, Kec. Melak, Kabupaten Kutai Barat",KALIMANTAN TIMUR,75775.0,Indonesia, 083899586603,,,-0.2321888,115.8000029,https://maps.google.com/?cid=0x0:0xb79c9ed4dc58911b,
toko bangunan,Toko,Toko MDA,"M3F3+WFM, Unnamed Road, Tj. Laong, Kec. Muara Pahu, Kabupaten Kutai Barat, Kalimantan Timur 75774","Unnamed Road, Tj. Laong, Kec. Muara Pahu, Kabupaten Kutai Barat",KALIMANTAN TIMUR,75774.0,Indonesia, 081349989575,,,-0.3251614,116.0536762,https://maps.google.com/?cid=0x0:0xce48d8d16fece697,
toko bangunan,Toko Bahan Bangunan,Toko Bangunan Mas Wawan,"VM33+8PP, Linggang Amer, Kec. Linggang Bigung, Kabupaten Kutai Barat, Kalimantan Timur 75776","Linggang Amer, Kec. Linggang Bigung, Kabupaten Kutai Barat",KALIMANTAN TIMUR,75776.0,Indonesia, 083161074744,,,-0.146655,115.6543141,https://maps.google.com/?cid=0x0:0xaa686758d06014da,
toko bangunan,Toko Bahan Bangunan,Toko Andrian Junaidi Jual Bahan Bangunan,"QP39+QGR, Sekolaq Joleq, Kec. Sekolaq Darat, Kabupaten Kutai Barat, Kalimantan Timur 75777","Sekolaq Joleq, Kec. Sekolaq Darat, Kabupaten Kutai Barat",KALIMANTAN TIMUR,75777.0,Indonesia, 081225533972,,,-0.2455169,115.7187772,https://maps.google.com/?cid=0x0:0xdaa1dc50cbe0729a,
toko bangunan,Toko Bahan Bangunan,TOKO ZIRIN,"J9RQ+39P, Pulau Harapan, Kec. Muara Muntai, Kabupaten Kutai Kartanegara, Kalimantan Timur","Kabupaten Kutai Kartanegara, Kalimantan Timur",KALIMANTAN TIMUR,,Indonesia,,,,-0.3597865,116.3884541,https://maps.google.com/?cid=0x0:0xa360069cae02371d,
toko bangunan,Rumah Kaca,Toko Bangunan 31 L2,"RT.16/RW.01, Manunggal Jaya, Kec. Tenggarong Seberang, Kabupaten Kutai Kartanegara, Kalimantan Timur","Kabupaten Kutai Kartanegara, Kalimantan Timur",KALIMANTAN TIMUR,,Indonesia, 087781689990,,,-0.3932904,117.1089701,https://maps.google.com/?cid=0x0:0xada7f7ae8c708f3f,
toko bangunan,toko bangunan,Kec. Penyinggahan,"Kabupaten Kutai Barat, Kalimantan Timur","Kabupaten Kutai Barat, Kalimantan Timur",KALIMANTAN TIMUR,,Indonesia,,,,-0.3862993,116.2238471,https://maps.google.com/?cid=0x0:0xe0d5f332a7d73bf3,
toko bangunan,toko bangunan,Kec. Sekolaq Darat,"Kabupaten Kutai Barat, Kalimantan Timur","Kabupaten Kutai Barat, Kalimantan Timur",KALIMANTAN TIMUR,,Indonesia,,,,-0.2775315,115.7577765,https://maps.google.com/?cid=0x0:0xe9e93ae735a4c490,
toko bangunan,Toko Bahan Bangunan,CV. DIAN ABADI,"Unnamed Road, Sekolaq Darat, West Kutai Regency, East Kalimantan 75777","Sekolaq Darat, West Kutai Regency",KALIMANTAN TIMUR,75777.0,Indonesia, 085246058783,,,-0.2744674,115.7451033,https://maps.google.com/?cid=0x0:0x3ada997c3e609acb,
toko bangunan,Toko Bahan Bangunan,Toko Bangunan CAHAYA,"QR94+23M, Melak Ulu, Kec. Melak, Kabupaten Kutai Barat, Kalimantan Timur 75775","Melak Ulu, Kec. Melak, Kabupaten Kutai Barat",KALIMANTAN TIMUR,75775.0,Indonesia, 0816992047,,,-0.2324188,115.8051588,https://maps.google.com/?cid=0x0:0xfc0802a2f7167e4f,
toko bangunan,Toko Bahan Bangunan,Toko sherly,"PQ92+46C, Jl. Mas Arso Joyo, Sekolaq Darat, Kec. Sekolaq Darat, Kabupaten Kutai Barat, Kalimantan Timur 75775","Jl. Mas Arso Joyo, Sekolaq Darat, Kec. Sekolaq Darat, Kabupaten Kutai Barat",KALIMANTAN TIMUR,75775.0,Indonesia, 082154139702,,,-0.2821887,115.7505168,https://maps.google.com/?cid=0x0:0x1e4de4771bc6a0ee,
toko bangunan,Toko bahan makanan,Toko Ananda,"Srimulyo, Kec. Sekolaq Darat, Kabupaten Kutai Barat, Kalimantan Timur 75775","Kec. Sekolaq Darat, Kabupaten Kutai Barat",KALIMANTAN TIMUR,75775.0,Indonesia, 082153874606,,,-0.2809292,115.7594728,https://maps.google.com/?cid=0x0:0xc48fb0fc294b1f39,
toko bangunan,Toko Bahan Bangunan,Toko bangunan tiga jaya,"QR92+42C, Jl. Pattimura, Melak Ulu, Kec. Melak, Kabupaten Kutai Barat, Kalimantan Timur 75775","Jl. Pattimura, Melak Ulu, Kec. Melak, Kabupaten Kutai Barat",KALIMANTAN TIMUR,75775.0,Indonesia, 083899586603,,,-0.2321888,115.8000029,https://maps.google.com/?cid=0x0:0xb79c9ed4dc58911b,
toko bangunan,Toko Bahan Bangunan,Batako Jaya Sendawar,"RT/RW 004, JL anggrek, Sumber Bangun, Kec. Sekolaq Darat, Kabupaten Kutai Barat, Kalimantan Timur 75777","JL anggrek, Sumber Bangun, Kec. Sekolaq Darat, Kabupaten Kutai Barat",KALIMANTAN TIMUR,75777.0,Indonesia, 085386393960,,,-0.2465992,115.7308914,https://maps.google.com/?cid=0x0:0x190758935993688d,
toko bangunan,Toko Bahan Bangunan,TB Nisda,"QP38+VR6, Jl. Sedap Malam, Sumber Sari, Kec. Barong Tongkok, Kabupaten Kutai Barat, Kalimantan Timur 75777","Jl. Sedap Malam, Sumber Sari, Kec. Barong Tongkok, Kabupaten Kutai Barat",KALIMANTAN TIMUR,75777.0,Indonesia,,,,-0.2453348,115.7170077,https://maps.google.com/?cid=0x0:0xaff1d421b407ee8f,
toko bangunan,Toko Bahan Bangunan,Toko Andrian Junaidi Jual Bahan Bangunan,"QP39+QGR, Sekolaq Joleq, Kec. Sekolaq Darat, Kabupaten Kutai Barat, Kalimantan Timur 75777","Sekolaq Joleq, Kec. Sekolaq Darat, Kabupaten Kutai Barat",KALIMANTAN TIMUR,75777.0,Indonesia, 081225533972,,,-0.2455169,115.7187772,https://maps.google.com/?cid=0x0:0xdaa1dc50cbe0729a,
toko bangunan,Toko Bahan Bangunan,Toko Material Bangunan,"QP25+GVF, Simpang Raya, Kec. Barong Tongkok, Kabupaten Kutai Barat, Kalimantan Timur 75777","Simpang Raya, Kec. Barong Tongkok, Kabupaten Kutai Barat",KALIMANTAN TIMUR,75777.0,Indonesia,,,,-0.2486797,115.7096834,https://maps.google.com/?cid=0x0:0x2a6fbd6ee65cb910,
toko bangunan,Toko Bahan Bangunan,Toko Karya Harapan,"MP83+8V, Keay, Kec. Damai, Kabupaten Kutai Barat, Kalimantan Timur 75777","Keay, Kec. Damai, Kabupaten Kutai Barat",KALIMANTAN TIMUR,75777.0,Indonesia, 085777883592,,,-0.3341243,115.7047838,https://maps.google.com/?cid=0x0:0x2aafa1b165bd0e8,
toko bangunan,Toko Perlengkapan Rumah,Toko Bintang Raya,"QP38+M4X, Jl. Hasanudin, Simpang Raya, Kec. Sekolaq Darat, Kabupaten Kutai Barat, Kalimantan Timur 75777","Jl. Hasanudin, Simpang Raya, Kec. Sekolaq Darat, Kabupaten Kutai Barat",KALIMANTAN TIMUR,75777.0,Indonesia,,,,-0.245772,115.7153539,https://maps.google.com/?cid=0x0:0x10db6e4a4e3eaa75,
toko bangunan,Toko bahan makanan,UD u003d RB RIZAL BERSAUDARA SUMBAR SARI BANGUNAN,"QP25+GVV, Sumber Sari, Kec. Barong Tongkok, Kabupaten Kutai Barat, Kalimantan Timur 75777","Sumber Sari, Kec. Barong Tongkok, Kabupaten Kutai Barat",KALIMANTAN TIMUR,75777.0,Indonesia, 085349187760,,,-0.2486383,115.7096852,https://maps.google.com/?cid=0x0:0x15bf17863cfeeb75,
toko bangunan,Toko Pakaian,Murah rejeki Olshop,"RT.06, Sendawar, Kec. Sekolaq Darat, Kabupaten Kutai Barat, Kalimantan Timur 75565","Sendawar, Kec. Sekolaq Darat, Kabupaten Kutai Barat",KALIMANTAN TIMUR,75565.0,Indonesia, 085390777397,,,-0.2829389,115.7478023,https://maps.google.com/?cid=0x0:0x1ca8b7b9faf6fede,
toko bangunan,Toko Bahan Bangunan,TB Mulia Jaya,"QR82+XXQ, Melak Ulu, Kec. Melak, Kabupaten Kutai Barat, Kalimantan Timur 75775","Melak Ulu, Kec. Melak, Kabupaten Kutai Barat",KALIMANTAN TIMUR,75775.0,Indonesia,,,,-0.2319635,115.8022439,https://maps.google.com/?cid=0x0:0xb76bbdc8dab76373,
toko bangunan,Toko Bahan Bangunan,Toko Duta Keramik,"QP23+6VM, Jl. Hasanudin, Simpang Raya, Kec. Barong Tongkok, Kabupaten Kutai Barat, Kalimantan Timur 75777","Jl. Hasanudin, Simpang Raya, Kec. Barong Tongkok, Kabupaten Kutai Barat",KALIMANTAN TIMUR,75777.0,Indonesia, 087761141362,,,-0.2494196,115.7046805,https://maps.google.com/?cid=0x0:0xc9f28a0b5f389bf4,
toko bangunan,toko bangunan,TOKO RAHMAT JAYA,"PMGJ+22F, Jl. Naras Gunaq, Mencimai, Kec. Barong Tongkok, Kabupaten Kutai Barat, Kalimantan Timur 75777","Jl. Naras Gunaq, Mencimai, Kec. Barong Tongkok, Kabupaten Kutai Barat",KALIMANTAN TIMUR,75777.0,Indonesia, 085349187760,,,-0.2747835,115.6800273,https://maps.google.com/?cid=0x0:0x29450da839eb28de,
toko bangunan,Pusat Perbelanjaan,Toko Bangunan Nur Jaya Makmur,"Jalan raya,kampung royoq, Sendawar, Kec. Barong Tongkok, Kabupaten Kutai Barat, Kalimantan Timur 75775","Sendawar, Kec. Barong Tongkok, Kabupaten Kutai Barat",KALIMANTAN TIMUR,75775.0,Indonesia, 085166900649,,,-0.2189462,115.7911801,https://maps.google.com/?cid=0x0:0x4c070ad92b902a18,
toko bangunan,Toko Perabot Supermarket,Toko Sahabat Jaya,"Simpang Raya, Kec. Barong Tongkok, Kabupaten Kutai Barat, Kalimantan Timur 75777","Kec. Barong Tongkok, Kabupaten Kutai Barat",KALIMANTAN TIMUR,75777.0,Indonesia, 082252215911,,,-0.2494362,115.7066741,https://maps.google.com/?cid=0x0:0x3aa304dd8e6dae29,
toko bangunan,Toko Bahan Bangunan,MITRA IMFA,"Jl. Gajah Mada No.10, Barong Tongkok, Kec. Barong Tongkok, Kabupaten Kutai Barat, Kalimantan Timur 75777","Barong Tongkok, Kec. Barong Tongkok, Kabupaten Kutai Barat",KALIMANTAN TIMUR,75777.0,Indonesia, 082250901255,,,-0.2257435,115.6984632,https://maps.google.com/?cid=0x0:0x77550d6d878f24bf,
toko bangunan,Toko Bahan Bangunan,Toko Bangunan SUMBER REJEKI,"QR86+29H, Melak Ulu, Kec. Melak, Kabupaten Kutai Barat, Kalimantan Timur 75775","Melak Ulu, Kec. Melak, Kabupaten Kutai Barat",KALIMANTAN TIMUR,75775.0,Indonesia,,,,-0.2349358,115.8109945,https://maps.google.com/?cid=0x0:0xed30ae14ebba8c,
toko bangunan,Toko Bahan Bangunan,Eva Jaya Abadi,"VJ3C+8, Jl. Sengkereaq Egas, Linggang Bigung, Kec. Linggang Bigung, Kabupaten Kutai Barat, Kalimantan Timur 75576","Jl. Sengkereaq Egas, Linggang Bigung, Kec. Linggang Bigung, Kabupaten Kutai Barat",KALIMANTAN TIMUR,75576.0,Indonesia, 087851162036,,,-0.1466603,115.6210962,https://maps.google.com/?cid=0x0:0xe0a1c12a241092d7,
toko bangunan,Toko Bahan Bangunan,Toko imfa jaya,"Jl. Sendawar Raya No.10, Ngenyan Asa, Kec. Barong Tongkok, Kabupaten Kutai Barat, Kalimantan Timur 75776","Ngenyan Asa, Kec. Barong Tongkok, Kabupaten Kutai Barat",KALIMANTAN TIMUR,75776.0,Indonesia, 082310187507,,,-0.2149897,115.736298,https://maps.google.com/?cid=0x0:0x227b60162660308,
toko bangunan,toko bangunan,Kalimantan Timur 75774,"Kabupaten Kutai Barat, Kalimantan Timur","Kabupaten Kutai Barat, Kalimantan Timur",KALIMANTAN TIMUR,,Indonesia,,,,-0.6090382,115.9467997,https://maps.google.com/?cid=0x0:0xafd22cb4e55c53b7,
toko bangunan,Toko,Toko Rajawali Bangunan,"Jl. Lintas Kalimantan Poros Tengah, Pentat, Kec. Jempang, Kabupaten Kutai Barat, Kalimantan Timur 75773","Pentat, Kec. Jempang, Kabupaten Kutai Barat",KALIMANTAN TIMUR,75773.0,Indonesia, 081225533972,,,-0.573044,116.0930514,https://maps.google.com/?cid=0x0:0xb8f52ca2d1a240ca,
toko bangunan,Toko,Toko MDA,"M3F3+WFM, Unnamed Road, Tj. Laong, Kec. Muara Pahu, Kabupaten Kutai Barat, Kalimantan Timur 75774","Unnamed Road, Tj. Laong, Kec. Muara Pahu, Kabupaten Kutai Barat",KALIMANTAN TIMUR,75774.0,Indonesia, 081349989575,,,-0.3251614,116.0536762,https://maps.google.com/?cid=0x0:0xce48d8d16fece697,
toko bangunan,Toko Bahan Bangunan,Toko Bahan Bangunan MITRA 2021,"FQV4+FHM, Jl. Trans Kalimantan, Payang, Kec. Muara Lawa, Kabupaten Kutai Barat, Kalimantan Timur 75775","Jl. Trans Kalimantan, Payang, Kec. Muara Lawa, Kabupaten Kutai Barat",KALIMANTAN TIMUR,75775.0,Indonesia, 081367805201,,,-0.5073319,115.7567613,https://maps.google.com/?cid=0x0:0x7672f19073ed7747,
toko bangunan,Toko Bahan Bangunan,TOKO LATANSA BANGUNAN,"GQG4+VXG, Jl. Trans Kalimantan, pusung, Kec. Muara Lawa, Kabupaten Kutai Barat, Kalimantan Timur 75775","Jl. Trans Kalimantan, pusung, Kec. Muara Lawa, Kabupaten Kutai Barat",KALIMANTAN TIMUR,75775.0,Indonesia, 081367805201,,,-0.4728169,115.7574576,https://maps.google.com/?cid=0x0:0x7835ab17990aea06,
toko bangunan,Toko Bahan Bangunan,toko Darli Bahan Bangunan,"GQM6+RV6, Jl. Trans Kalimantan, Muara Lawa, Kec. Muara Lawa, Kabupaten Kutai Barat, Kalimantan Timur 75775","Jl. Trans Kalimantan, Muara Lawa, Kec. Muara Lawa, Kabupaten Kutai Barat",KALIMANTAN TIMUR,75775.0,Indonesia, 081367805201,,,-0.4654556,115.7621298,https://maps.google.com/?cid=0x0:0x412b014046d9f6bb,
toko bangunan,Toko Bahan Bangunan,Toko Bangunan CAHAYA,"QR94+23M, Melak Ulu, Kec. Melak, Kabupaten Kutai Barat, Kalimantan Timur 75775","Melak Ulu, Kec. Melak, Kabupaten Kutai Barat",KALIMANTAN TIMUR,75775.0,Indonesia, 0816992047,,,-0.2324188,115.8051588,https://maps.google.com/?cid=0x0:0xfc0802a2f7167e4f,
toko bangunan,Toko Bahan Bangunan,Toko bangunan tiga jaya,"QR92+42C, Jl. Pattimura, Melak Ulu, Kec. Melak, Kabupaten Kutai Barat, Kalimantan Timur 75775","Jl. Pattimura, Melak Ulu, Kec. Melak, Kabupaten Kutai Barat",KALIMANTAN TIMUR,75775.0,Indonesia, 083899586603,,,-0.2321888,115.8000029,https://maps.google.com/?cid=0x0:0xb79c9ed4dc58911b,
toko bangunan,Toko Bahan Bangunan,Toko Bangunan SUMBER REJEKI,"QR86+29H, Melak Ulu, Kec. Melak, Kabupaten Kutai Barat, Kalimantan Timur 75775","Melak Ulu, Kec. Melak, Kabupaten Kutai Barat",KALIMANTAN TIMUR,75775.0,Indonesia,,,,-0.2349358,115.8109945,https://maps.google.com/?cid=0x0:0xed30ae14ebba8c,
toko bangunan,toko bangunan,TOKO RAHMAT JAYA,"PMGJ+22F, Jl. Naras Gunaq, Mencimai, Kec. Barong Tongkok, Kabupaten Kutai Barat, Kalimantan Timur 75777","Jl. Naras Gunaq, Mencimai, Kec. Barong Tongkok, Kabupaten Kutai Barat",KALIMANTAN TIMUR,75777.0,Indonesia, 085349187760,,,-0.2747835,115.6800273,https://maps.google.com/?cid=0x0:0x29450da839eb28de,
toko bangunan,Pusat Perbelanjaan,Toko Bangunan Nur Jaya Makmur,"Jalan raya,kampung royoq, Sendawar, Kec. Barong Tongkok, Kabupaten Kutai Barat, Kalimantan Timur 75775","Sendawar, Kec. Barong Tongkok, Kabupaten Kutai Barat",KALIMANTAN TIMUR,75775.0,Indonesia, 085166900649,,,-0.2189462,115.7911801,https://maps.google.com/?cid=0x0:0x4c070ad92b902a18,
toko bangunan,Toko Bahan Bangunan,Toko simpang melak,"QR9F+JHP, Unnamed Road, Melak Ulu, Kec. Melak, Kabupaten Kutai Barat, Kalimantan Timur 75775","Unnamed Road, Melak Ulu, Kec. Melak, Kabupaten Kutai Barat",KALIMANTAN TIMUR,75775.0,Indonesia,,,,-0.2309216,115.8239516,https://maps.google.com/?cid=0x0:0xa4c974c5ff24672,
toko bangunan,Toko Bahan Bangunan,Toko SLM,"Jl. Mas Arso Joyo No.RT.06, Srimulyo, Kec. Sekolaq Darat, Kabupaten Kutai Barat, Kalimantan Timur 75775","Srimulyo, Kec. Sekolaq Darat, Kabupaten Kutai Barat",KALIMANTAN TIMUR,75775.0,Indonesia, 087761141363,,,-0.2720726,115.7653909,https://maps.google.com/?cid=0x0:0x84c5df3e0b7e0a77,
toko bangunan,Toko bahan makanan,Toko Ananda,"Srimulyo, Kec. Sekolaq Darat, Kabupaten Kutai Barat, Kalimantan Timur 75775","Kec. Sekolaq Darat, Kabupaten Kutai Barat",KALIMANTAN TIMUR,75775.0,Indonesia, 082153874606,,,-0.2809292,115.7594728,https://maps.google.com/?cid=0x0:0xc48fb0fc294b1f39,
toko bangunan,Toko Bahan Bangunan,Toko cahaya,"QR8F+W73, Unnamed Rd, Melak Ulu, Kec. Melak, Kabupaten Kutai Barat, Kalimantan Timur 75775","Unnamed Rd, Melak Ulu, Kec. Melak, Kabupaten Kutai Barat",KALIMANTAN TIMUR,75775.0,Indonesia, 083177573221,,,-0.2327441,115.8231873,https://maps.google.com/?cid=0x0:0x154053ff165ae797,
toko bangunan,Toko Bahan Bangunan,Toko sherly,"PQ92+46C, Jl. Mas Arso Joyo, Sekolaq Darat, Kec. Sekolaq Darat, Kabupaten Kutai Barat, Kalimantan Timur 75775","Jl. Mas Arso Joyo, Sekolaq Darat, Kec. Sekolaq Darat, Kabupaten Kutai Barat",KALIMANTAN TIMUR,75775.0,Indonesia, 082154139702,,,-0.2821887,115.7505168,https://maps.google.com/?cid=0x0:0x1e4de4771bc6a0ee,
toko bangunan,Toko bahan makanan,UD u003d RB RIZAL BERSAUDARA SUMBAR SARI BANGUNAN,"QP25+GVV, Sumber Sari, Kec. Barong Tongkok, Kabupaten Kutai Barat, Kalimantan Timur 75777","Sumber Sari, Kec. Barong Tongkok, Kabupaten Kutai Barat",KALIMANTAN TIMUR,75777.0,Indonesia, 085349187760,,,-0.2486383,115.7096852,https://maps.google.com/?cid=0x0:0x15bf17863cfeeb75,
toko bangunan,Toko Bahan Bangunan,CV. DIAN ABADI,"Unnamed Road, Sekolaq Darat, West Kutai Regency, East Kalimantan 75777","Sekolaq Darat, West Kutai Regency",KALIMANTAN TIMUR,75777.0,Indonesia, 085246058783,,,-0.2744674,115.7451033,https://maps.google.com/?cid=0x0:0x3ada997c3e609acb,
toko bangunan,Toko Bahan Bangunan,Toko Karya Harapan,"MP83+8V, Keay, Kec. Damai, Kabupaten Kutai Barat, Kalimantan Timur 75777","Keay, Kec. Damai, Kabupaten Kutai Barat",KALIMANTAN TIMUR,75777.0,Indonesia, 085777883592,,,-0.3341243,115.7047838,https://maps.google.com/?cid=0x0:0x2aafa1b165bd0e8,
toko bangunan,toko bangunan,Kec. Tering,"Kabupaten Kutai Barat, Kalimantan Timur","Kabupaten Kutai Barat, Kalimantan Timur",KALIMANTAN TIMUR,,Indonesia,,,,-0.061932,115.6079488,https://maps.google.com/?cid=0x0:0x32b5206d9ce74464,
toko bangunan,Toko Swalayan,TOKo devi 03,"WJ9V+7M6, Tering Seberang, Kec. Tering, Kabupaten Kutai Barat, Kalimantan Timur 75576","Tering Seberang, Kec. Tering, Kabupaten Kutai Barat",KALIMANTAN TIMUR,75576.0,Indonesia, 085777883592,,,-0.0818339,115.6441531,https://maps.google.com/?cid=0x0:0x3a935228f41b11b0,
toko bangunan,Toko Bahan Bangunan,Tk tiara,"WJ9V+4GX, Jl. Kapten Tausin, Tering Seberang, Kec. Tering, Kabupaten Kutai Barat, Kalimantan Timur 75576","Jl. Kapten Tausin, Tering Seberang, Kec. Tering, Kabupaten Kutai Barat",KALIMANTAN TIMUR,75576.0,Indonesia,,,,-0.0821588,115.643751,https://maps.google.com/?cid=0x0:0x275f96bbe5d65b80,
toko bangunan,Toko Bahan Bangunan,Toko Bangunan Mas Wawan,"VM33+8PP, Linggang Amer, Kec. Linggang Bigung, Kabupaten Kutai Barat, Kalimantan Timur 75776","Linggang Amer, Kec. Linggang Bigung, Kabupaten Kutai Barat",KALIMANTAN TIMUR,75776.0,Indonesia, 083161074744,,,-0.146655,115.6543141,https://maps.google.com/?cid=0x0:0xaa686758d06014da,
toko bangunan,Toko Bahan Bangunan,Toko Devi,"WJGV+3PV, Tering Seberang, Kec. Tering, Kabupaten Kutai Barat, Kalimantan Timur 75576","Tering Seberang, Kec. Tering, Kabupaten Kutai Barat",KALIMANTAN TIMUR,75576.0,Indonesia,,,,-0.0747699,115.6442859,https://maps.google.com/?cid=0x0:0x46accd49980916c3,
toko bangunan,Toko Bahan Bangunan,Duta Bangunan,"No. 8 D, Jl. Pejaten Raya, RT.13/RW.2, Jati Padang, Ps. Minggu, Kota Jakarta Selatan, Daerah Khusus Ibukota Jakarta 12540","Jl. Pejaten Raya, RT.13/RW.2, Jati Padang, Ps. Minggu, Kota Jakarta Selatan",KALIMANTAN TIMUR,12540.0,Indonesia, 083160960400,,,-6.2793037,106.8332171,https://maps.google.com/?cid=0x0:0x25a5c87a6d1ec855,
toko bangunan,Toko Bahan Bangunan,Toko Sinar Bangunan II,"Jl. Cilandak Tengah Raya No.16 7, RT.7/RW.1, Cilandak Bar., Kec. Cilandak, Kota Jakarta Selatan, Daerah Khusus Ibukota Jakarta 12430","RT.7/RW.1, Cilandak Bar., Kec. Cilandak, Kota Jakarta Selatan",KALIMANTAN TIMUR,12430.0,Indonesia, 02175904448,,,-6.2872752,106.8022297,https://maps.google.com/?cid=0x0:0x385df5f51babb710,
toko bangunan,Toko Bahan Bangunan,Megah Bangunan,"Jl. Raya Pasar Minggu No.22 13, RT.13/RW.1, Pejaten Bar., Ps. Minggu, Kota Jakarta Selatan, Daerah Khusus Ibukota Jakarta 12510","RT.13/RW.1, Pejaten Bar., Ps. Minggu, Kota Jakarta Selatan",KALIMANTAN TIMUR,12510.0,Indonesia, 0217942454,,,-6.2661724,106.8444315,https://maps.google.com/?cid=0x0:0xb0569005db36e889,
toko bangunan,Toko Bahan Bangunan,Toko Bangunan Sahabat Kita,"Ruko Buana Niaga 2 Blok BB No. 11, Tembesi, Kec. Sagulung, Kota Batam, Kepulauan Riau 29472","Tembesi, Kec. Sagulung, Kota Batam",KALIMANTAN TIMUR,29472.0,Indonesia, 087786385907,,,1.0328132,104.0022667,https://maps.google.com/?cid=0x0:0x11158f0e122197e8,
toko bangunan,Toko Bahan Bangunan,TOKO BANGUNAN,"Jl. Lingkungan III No.3, RT.3/RW.9, Tegal Alur, Kec. Kalideres, Kota Jakarta Barat, Daerah Khusus Ibukota Jakarta 11820","RT.3/RW.9, Tegal Alur, Kec. Kalideres, Kota Jakarta Barat",KALIMANTAN TIMUR,11820.0,Indonesia, 087874187221,,,-6.1157712,106.7125697,https://maps.google.com/?cid=0x0:0xc2d043a7a9065aa9,
toko bangunan,Toko Bahan Bangunan,PT Aneka Duta Bangunan,"Komplek Ruko Purimas 1 Blok C.06-07, Teluk Tering, Batam Centre, Batam City, Riau Islands 29472","Teluk Tering, Batam Centre, Batam City",KALIMANTAN TIMUR,29472.0,Indonesia, 081270782922,,,1.1171656,104.0580192,https://maps.google.com/?cid=0x0:0x1df436457b9b7e2a,
toko bangunan,Toko Bahan Bangunan,Indo Bangunan 1,"Jl. Raya Sukabumi Jl. Ps. Cikereteg No.8-13, Ciderum, Kec. Caringin, Kabupaten Bogor, Jawa Barat 16730","Ciderum, Kec. Caringin, Kabupaten Bogor",KALIMANTAN TIMUR,16730.0,Indonesia, 085373031678,,,-6.6880776,106.8459461,https://maps.google.com/?cid=0x0:0x158be11fb77abebc,
hardware store,hardware store,Kalimantan Timur 75776,"Kabupaten Kutai Barat, Kalimantan Timur","Kabupaten Kutai Barat, Kalimantan Timur",KALIMANTAN TIMUR,,Indonesia,,,,-0.1517231,115.5917918,https://maps.google.com/?cid=0x0:0xcf1c58fc5919e6cf,
hardware store,Toko Elektronik,Toko Harapan Jaya Elektronik,"Jl. Sendawar Raya, Barong Tongkok, Kec. Barong Tongkok, Kabupaten Kutai Barat, Kalimantan Timur 75776","Barong Tongkok, Kec. Barong Tongkok, Kabupaten Kutai Barat",KALIMANTAN TIMUR,75776.0,Indonesia, 083113174779,,,-0.2187079,115.710975,https://maps.google.com/?cid=0x0:0xfbb779acbb6d35be,
hardware store,Pusat Perbelanjaan,Toko Pore Baru,"QM3Q+H52, Simpang Raya, Kec. Barong Tongkok, Kabupaten Kutai Barat, Kalimantan Timur 75777","Simpang Raya, Kec. Barong Tongkok, Kabupaten Kutai Barat",KALIMANTAN TIMUR,75777.0,Indonesia, 085777883592,,,-0.2461057,115.6878889,https://maps.google.com/?cid=0x0:0x45ae05fd3c255c5a,
hardware store,Toko Bahan Bangunan,TB Ades,"QM8H+FC, Barong Tongkok, Kec. Barong Tongkok, Kabupaten Kutai Barat, Kalimantan Timur 75777","Barong Tongkok, Kec. Barong Tongkok, Kabupaten Kutai Barat",KALIMANTAN TIMUR,75777.0,Indonesia,,,,-0.2338527,115.6787318,https://maps.google.com/?cid=0x0:0x5a53e04c783c2014,
hardware store,Toko Bahan Bangunan,UD.RANGGA JAYA,"QM7J+83G, Barong Tongkok, Kec. Barong Tongkok, Kabupaten Kutai Barat, Kalimantan Timur 75777","Barong Tongkok, Kec. Barong Tongkok, Kabupaten Kutai Barat",KALIMANTAN TIMUR,75777.0,Indonesia, 082213176971,,,-0.2366808,115.6802117,https://maps.google.com/?cid=0x0:0x5fe3a4dff085eec0,
hardware store,Toko Bahan Bangunan,Toko imfa jaya,"Jl. Sendawar Raya No.10, Ngenyan Asa, Kec. Barong Tongkok, Kabupaten Kutai Barat, Kalimantan Timur 75776","Ngenyan Asa, Kec. Barong Tongkok, Kabupaten Kutai Barat",KALIMANTAN TIMUR,75776.0,Indonesia, 082310187507,,,-0.2149897,115.736298,https://maps.google.com/?cid=0x0:0x227b60162660308,
hardware store,Toko Bahan Bangunan,MITRA IMFA,"Jl. Gajah Mada No.10, Barong Tongkok, Kec. Barong Tongkok, Kabupaten Kutai Barat, Kalimantan Timur 75777","Barong Tongkok, Kec. Barong Tongkok, Kabupaten Kutai Barat",KALIMANTAN TIMUR,75777.0,Indonesia, 082250901255,,,-0.2257435,115.6984632,https://maps.google.com/?cid=0x0:0x77550d6d878f24bf,
hardware store,Pusat Perbelanjaan,TB Ikhlas,"PMHJ+W27, Jl. Naras Gunaq, Mencimai, Kec. Barong Tongkok, Kabupaten Kutai Barat, Kalimantan Timur 75777","Jl. Naras Gunaq, Mencimai, Kec. Barong Tongkok, Kabupaten Kutai Barat",KALIMANTAN TIMUR,75777.0,Indonesia,,,,-0.2702009,115.6800421,https://maps.google.com/?cid=0x0:0x5435af93e173dd9b,
hardware store,Toko bahan makanan,Toko ATK  Photo Copy Christo  Christy,"QM6H+WRH, Barong Tongkok, Kec. Barong Tongkok, Kabupaten Kutai Barat, Kalimantan Timur 75777","Barong Tongkok, Kec. Barong Tongkok, Kabupaten Kutai Barat",KALIMANTAN TIMUR,75777.0,Indonesia, 081238094553,,,-0.2376875,115.6796218,https://maps.google.com/?cid=0x0:0xed2dd7774caa81ff,
hardware store,Toko bahan makanan,UDu003dRB TOKO RIZAL BERSAUDARA Barong Tongkok,"QMCQ+389, Barong Tongkok, Kec. Barong Tongkok, Kabupaten Kutai Barat, Kalimantan Timur 75777","Barong Tongkok, Kec. Barong Tongkok, Kabupaten Kutai Barat",KALIMANTAN TIMUR,75777.0,Indonesia, 081250448385,,,-0.2298261,115.6883506,https://maps.google.com/?cid=0x0:0xdae628ad5004b336,
hardware store,Restoran,Ruko Swalas Gunaaq,"QM5J+VHR, Simpang Raya, Kec. Barong Tongkok, Kabupaten Kutai Barat, Kalimantan Timur 75777","Simpang Raya, Kec. Barong Tongkok, Kabupaten Kutai Barat",KALIMANTAN TIMUR,75777.0,Indonesia,,,,-0.2402603,115.6813828,https://maps.google.com/?cid=0x0:0xce4e93d3e1d53b3b,
hardware store,Toko Bahan Bangunan,Toko Material Bangunan,"QP25+GVF, Simpang Raya, Kec. Barong Tongkok, Kabupaten Kutai Barat, Kalimantan Timur 75777","Simpang Raya, Kec. Barong Tongkok, Kabupaten Kutai Barat",KALIMANTAN TIMUR,75777.0,Indonesia,,,,-0.2486797,115.7096834,https://maps.google.com/?cid=0x0:0x2a6fbd6ee65cb910,
hardware store,Toko,Bazzar komputer kubar,"Jl. Sendawar Raya No.10, Barong Tongkok, Kec. Barong Tongkok, Kabupaten Kutai Barat, Kalimantan Timur 75776","Barong Tongkok, Kec. Barong Tongkok, Kabupaten Kutai Barat",KALIMANTAN TIMUR,75776.0,Indonesia, 081255510456,,,-0.2302657,115.6913213,https://maps.google.com/?cid=0x0:0xc3af9cfa6ca1edb6,
hardware store,Toko Komputer,MATAHARI KOMPUTER,"Jl. Gajah Mada, Barong Tongkok, Kec. Barong Tongkok, Kabupaten Kutai Barat, Kalimantan Timur 75776","Barong Tongkok, Kec. Barong Tongkok, Kabupaten Kutai Barat",KALIMANTAN TIMUR,75776.0,Indonesia, 085246460852,,,-0.2266343,115.695734,https://maps.google.com/?cid=0x0:0xabf2c9d5fcfd188d,
hardware store,Toko Alat Tulis,UD Angin Mamiri,"QM8P+PMQ, Jl. Awang Long Senopati, Barong Tongkok, Kec. Barong Tongkok, Kabupaten Kutai Barat, Kalimantan Timur 75777","Jl. Awang Long Senopati, Barong Tongkok, Kec. Barong Tongkok, Kabupaten Kutai Barat",KALIMANTAN TIMUR,75777.0,Indonesia, 081348091771,,,-0.2331574,115.6867372,https://maps.google.com/?cid=0x0:0x3d4c23ac65bcee27,
hardware store,Toko Bahan Bangunan,Fortune Store,"Simpang Raya, RT. 11, Kab, Sendawar, Kec. Barong Tongkok, Kabupaten Kutai Barat, Kalimantan Timur 75777","RT. 11, Kab, Sendawar, Kec. Barong Tongkok, Kabupaten Kutai Barat",KALIMANTAN TIMUR,75777.0,Indonesia,,,,-0.2430403,115.6865444,https://maps.google.com/?cid=0x0:0xbffa655a3e3a3cb6,
hardware store,Pusat Perbelanjaan,Toko Bangunan Nur Jaya Makmur,"Jalan raya,kampung royoq, Sendawar, Kec. Barong Tongkok, Kabupaten Kutai Barat, Kalimantan Timur 75775","Sendawar, Kec. Barong Tongkok, Kabupaten Kutai Barat",KALIMANTAN TIMUR,75775.0,Indonesia, 085166900649,,,-0.2189462,115.7911801,https://maps.google.com/?cid=0x0:0x4c070ad92b902a18,
hardware store,Toko,UD Pisca Jaya,"VJ3H+3V6, Jl. Sengkereaq Dakaaq, Linggang Bigung, Kec. Linggang Bigung, Kabupaten Kutai Barat, Kalimantan Timur 75776","Jl. Sengkereaq Dakaaq, Linggang Bigung, Kec. Linggang Bigung, Kabupaten Kutai Barat",KALIMANTAN TIMUR,75776.0,Indonesia, 082254076670,,,-0.1473317,115.6296557,https://maps.google.com/?cid=0x0:0x860b957a7f4c8769,
hardware store,Toko Elektronik,Bibie Cell,"Jl. Hasanudin, Simpang Raya, Kec. Barong Tongkok, Kabupaten Kutai Barat, Kalimantan Timur 75777","Simpang Raya, Kec. Barong Tongkok, Kabupaten Kutai Barat",KALIMANTAN TIMUR,75777.0,Indonesia, 081250333366,,,-0.2483091,115.7109315,https://maps.google.com/?cid=0x0:0x3f6e2a4453d73b5c,
hardware store,Toko Bahan Bangunan,Toko Bangunan Mas Wawan,"VM33+8PP, Linggang Amer, Kec. Linggang Bigung, Kabupaten Kutai Barat, Kalimantan Timur 75776","Linggang Amer, Kec. Linggang Bigung, Kabupaten Kutai Barat",KALIMANTAN TIMUR,75776.0,Indonesia, 083161074744,,,-0.146655,115.6543141,https://maps.google.com/?cid=0x0:0xaa686758d06014da,
hardware store,Toko Bahan Bangunan,Toko Belawa,"Jl. WL. Senopati, Barong Tongkok, Kec. Barong Tongkok, Kabupaten Kutai Barat, Kalimantan Timur 75777","Barong Tongkok, Kec. Barong Tongkok, Kabupaten Kutai Barat",KALIMANTAN TIMUR,75777.0,Indonesia, 082351581028,,,-0.2337527,115.6852087,https://maps.google.com/?cid=0x0:0xfb7b627970872af4,
hardware store,Toko Elektronik,Toko MONANISA elektro,"QMFX+VRQ, Barong Tongkok, Kec. Barong Tongkok, Kabupaten Kutai Barat, Kalimantan Timur 75777","Barong Tongkok, Kec. Barong Tongkok, Kabupaten Kutai Barat",KALIMANTAN TIMUR,75777.0,Indonesia, 085767802761,,,-0.2252912,115.6996125,https://maps.google.com/?cid=0x0:0xb122fb1fb8dbf9ce,
hardware store,Kedai Kopi,Kedai D7,"Jalan Ahmad Yani, Barong Tongkok, Kec. Barong Tongkok, Kabupaten Kutai Barat, Kalimantan Timur 75776","Barong Tongkok, Kec. Barong Tongkok, Kabupaten Kutai Barat",KALIMANTAN TIMUR,75776.0,Indonesia, 082292143482,,,-0.2270273,115.6951516,https://maps.google.com/?cid=0x0:0xb7434978985790fc,
hardware store,hardware store,Kec. Bentian Besar,"Kabupaten Kutai Barat, Kalimantan Timur","Kabupaten Kutai Barat, Kalimantan Timur",KALIMANTAN TIMUR,,Indonesia,,,,-0.7229814,115.7716158,https://maps.google.com/?cid=0x0:0x2635d28bc26bc7df,
hardware store,Toko Kayu,Bensen Timber  Hardware Trading,"98000 Miri, Sarawak, Malaysia",Miri,KALIMANTAN TIMUR,98000.0,Indonesia, +6085622892,,,4.474805,114.042993,https://maps.google.com/?cid=0x0:0x387315ca772bb88e,
hardware store,Toko Bahan Bangunan,Bensen Timber Trading,"Jalan Maigold, Desa Senadin, Sarawak, 98100 Lutong, Malaysia",Lutong,KALIMANTAN TIMUR,98100.0,Indonesia, +6085650892,,,4.480313,114.010799,https://maps.google.com/?cid=0x0:0x898a4b9ed8e550d1,
hardware store,hardware store,Kalimantan Timur 75772,"Kec. Bongan, Kabupaten Kutai Barat, Kalimantan Timur","Kabupaten Kutai Barat, Kalimantan Timur",KALIMANTAN TIMUR,,Indonesia,,,,-0.7433962,116.3249438,https://maps.google.com/?cid=0x0:0x39bd72d85564dcde,
hardware store,Toko Bahan Bangunan,Toko Putri Bongan,"66WW+46R, Bukit Harapan, Kec. Bongan, Kabupaten Kutai Barat, Kalimantan Timur 75772","Bukit Harapan, Kec. Bongan, Kabupaten Kutai Barat",KALIMANTAN TIMUR,75772.0,Indonesia, 081254637074,,,-0.7546271,116.2455151,https://maps.google.com/?cid=0x0:0xf465468907a05907,
hardware store,Toko Swalayan,Toko Tani Jaya Bongan,"Jl. Lintas Kalimantan Poros Tengah, Jambuk, Kec. Bongan, Kabupaten Kutai Barat, Kalimantan Timur 75772","Jambuk, Kec. Bongan, Kabupaten Kutai Barat",KALIMANTAN TIMUR,75772.0,Indonesia, 085173234372,,,-0.7395571,116.2722544,https://maps.google.com/?cid=0x0:0xcd77349056af2be0,
hardware store,Toko Alat Tulis Kantor,RanFiz ATK,"Jln. Inas Amin No.RT. 02, Penawai, Kec. Bongan, Kabupaten Kutai Barat, Kalimantan Timur 75772","Penawai, Kec. Bongan, Kabupaten Kutai Barat",KALIMANTAN TIMUR,75772.0,Indonesia, 085250166378,,,-0.6577911,116.2379879,https://maps.google.com/?cid=0x0:0x1840280fdc7162ce,
hardware store,Pusat Perbelanjaan,Vino Computer,"7758+GJ3, Jambuk Makmur, Kec. Bongan, Kabupaten Kutai Barat, Kalimantan Timur 75772","Jambuk Makmur, Kec. Bongan, Kabupaten Kutai Barat",KALIMANTAN TIMUR,75772.0,Indonesia, 082251165173,,,-0.7412313,116.2665557,https://maps.google.com/?cid=0x0:0x5e41cfadc9bca733,
hardware store,Toko,Toko Lancar tezeki,"H7MV+GRG, Jantur, Kec. Muara Muntai, Kabupaten Kutai Kartanegara, Kalimantan Timur 75763","Jantur, Kec. Muara Muntai, Kabupaten Kutai Kartanegara",KALIMANTAN TIMUR,75763.0,Indonesia,,,,-0.416195,116.294585,https://maps.google.com/?cid=0x0:0xdaa9264930c6d90a,
hardware store,Toko,Toko Rajawali Bangunan,"Jl. Lintas Kalimantan Poros Tengah, Pentat, Kec. Jempang, Kabupaten Kutai Barat, Kalimantan Timur 75773","Pentat, Kec. Jempang, Kabupaten Kutai Barat",KALIMANTAN TIMUR,75773.0,Indonesia, 081225533972,,,-0.573044,116.0930514,https://maps.google.com/?cid=0x0:0xb8f52ca2d1a240ca,
hardware store,Toko Bahan Bangunan,Toko Karya Harapan,"MP83+8V, Keay, Kec. Damai, Kabupaten Kutai Barat, Kalimantan Timur 75777","Keay, Kec. Damai, Kabupaten Kutai Barat",KALIMANTAN TIMUR,75777.0,Indonesia, 085777883592,,,-0.3341243,115.7047838,https://maps.google.com/?cid=0x0:0x2aafa1b165bd0e8,
hardware store,Toko Perlengkapan Rumah,Home Hardware,"Jalan Pangeran Hidayatullah No.17, Samarinda Ilir, Samarinda Kota, Karang Mumus, Kec. Samarinda Kota, Kota Samarinda, Kalimantan Timur 75112","Samarinda Ilir, Samarinda Kota, Karang Mumus, Kec. Samarinda Kota, Kota Samarinda",KALIMANTAN TIMUR,75112.0,Indonesia, 0541739162,,,-0.502641,117.1579852,https://maps.google.com/?cid=0x0:0xffaa9d77dd76c997,
hardware store,Toko Buku,Mutiara Prima Fotocopy,"RT.02, Resak, Kec. Bongan, Kabupaten Kutai Barat, Kalimantan Timur 75772","Resak, Kec. Bongan, Kabupaten Kutai Barat",KALIMANTAN TIMUR,75772.0,Indonesia,,,,-0.7024793,116.1804992,https://maps.google.com/?cid=0x0:0xa6d45ec0d3b4e915,
hardware store,Toko Bahan Bangunan,Toko Bangunan depok Alat Teknik dan Safety Citra,"Jl. Margonda No.472, Pondok Cina, Kecamatan Beji, Kota Depok, Jawa Barat 16424","Pondok Cina, Kecamatan Beji, Kota Depok",KALIMANTAN TIMUR,16424.0,Indonesia, 085710032801,,,-6.3656692,106.8336797,https://maps.google.com/?cid=0x0:0xcff3501c7ef59783,
hardware store,Toko Bahan Bangunan,Mekar Nadi Bangunan,"Jl. Anyelir, Bongan, Kauh, Kabupaten Tabanan, Bali 82112","Bongan, Kauh, Kabupaten Tabanan",KALIMANTAN TIMUR,82112.0,Indonesia, 082148465985,,,-8.5514285,115.111734,https://maps.google.com/?cid=0x0:0xdf885660751c2fc6,
hardware store,Pemasok Peralatan Industri,AZKO Balikpapan Permai,"Jl. Jendral Sudirman Blok F1 No 9-11, Kelurahan, Damai, Balikpapan Kota, Balikpapan City, East Kalimantan 76114","Kelurahan, Damai, Balikpapan Kota, Balikpapan City",KALIMANTAN TIMUR,76114.0,Indonesia, 08551500582,,,-1.271794,116.853426,https://maps.google.com/?cid=0x0:0xc9488b87f129b222,
hardware store,hardware store,Damai,"Kec. Balikpapan Kota, Kota Balikpapan, Kalimantan Timur","Kota Balikpapan, Kalimantan Timur",KALIMANTAN TIMUR,,Indonesia,,,,-1.2597917,116.8586406,https://maps.google.com/?cid=0x0:0xdf58be236b8df33,
hardware store,Toko Perlengkapan Rumah,CV. Istana Baut Kaltim,"Jl. Mayjend Sutoyo No.19, Gunung Malang, Klandasan Ilir, Kecamatan Balikpapan Selatan, Kota Balikpapan, Kalimantan Timur 76115","Gunung Malang, Klandasan Ilir, Kecamatan Balikpapan Selatan, Kota Balikpapan",KALIMANTAN TIMUR,76115.0,Indonesia, 081275002500,,,-1.2724439,116.8449895,https://maps.google.com/?cid=0x0:0xe0a55740109b179c,
hardware store,Toko Mebel,AZKO Living Plaza Balikpapan,"Jl. MT. Haryono Dalam X, Gn. Bahagia, Kecamatan Balikpapan Selatan, Kota Balikpapan, Kalimantan Timur 76114","Gn. Bahagia, Kecamatan Balikpapan Selatan, Kota Balikpapan",KALIMANTAN TIMUR,76114.0,Indonesia, 08115436333,,,-1.2421758,116.8732006,https://maps.google.com/?cid=0x0:0xe7e09782477a6cd4,
hardware store,Toko Perlengkapan Rumah,MR.DIY,"Lt. LG Unit 20, Pentacity Shopping Avenue, Jl. Jenderal Sudirman No.47, Gn. Bahagia, Kecamatan Balikpapan Selatan, Kota Balikpapan, Kalimantan Timur 76114","Pentacity Shopping Avenue, Jl. Jenderal Sudirman No.47, Gn. Bahagia, Kecamatan Balikpapan Selatan, Kota Balikpapan",KALIMANTAN TIMUR,76114.0,Indonesia, 02130022789,,,-1.2740189,116.8576553,https://maps.google.com/?cid=0x0:0x7b6f14c13457fedc,
hardware store,Pemasok Bahan Bangunan,PT. Mega Sempurna Handal Konstruksi,"PVQ7+Q35, Jl. MT Haryono, Damai, Kec. Balikpapan Kota, Kota Balikpapan, Kalimantan Timur 76114","Jl. MT Haryono, Damai, Kec. Balikpapan Kota, Kota Balikpapan",KALIMANTAN TIMUR,76114.0,Indonesia,,,,-1.2606238,116.8627301,https://maps.google.com/?cid=0x0:0x2a79437952e74a82,
hardware store,Toko Alat-Alat,Antasena Teknik,"Damai, Kecamatan Balikpapan Selatan, Kota Balikpapan, Kalimantan Timur 76114","Kecamatan Balikpapan Selatan, Kota Balikpapan",KALIMANTAN TIMUR,76114.0,Indonesia, 081906718455,,,-1.245543,116.8590189,https://maps.google.com/?cid=0x0:0xdb035b7cfbee49a8,
hardware store,Minimarket,Ud. Hidayat,"Jl. Mayjend Sutoyo No.44, Gunungsari Ulu, Kec. Balikpapan Tengah, Kota Balikpapan, Kalimantan Timur 76122","Gunungsari Ulu, Kec. Balikpapan Tengah, Kota Balikpapan",KALIMANTAN TIMUR,76122.0,Indonesia, 085107004404,,,-1.2625507,116.8464747,https://maps.google.com/?cid=0x0:0x21141daf2f433aa1,
hardware store,Pusat Perbelanjaan,Master Kunci Rafes,"ruko balikpapan baru, Jl. MT Haryono No.9 Blok D3, Damai, Balikpapan Kota, Balikpapan City, East Kalimantan 76114","Jl. MT Haryono No.9 Blok D3, Damai, Balikpapan Kota, Balikpapan City",KALIMANTAN TIMUR,76114.0,Indonesia, 087888468564,,,-1.2396639,116.8716105,https://maps.google.com/?cid=0x0:0x703c33d1767abab0,
hardware store,Toko Bahan Bangunan,Ud. Harmoni Jaya,"Jl. Moh. T. Haryono, Komp. Balikpapan Baru No.D3/14-15, Damai, Kec. Balikpapan Kota, Kota Balikpapan, Kalimantan Timur 76114","Komp. Balikpapan Baru No.D3/14-15, Damai, Kec. Balikpapan Kota, Kota Balikpapan",KALIMANTAN TIMUR,76114.0,Indonesia, 0542871158,,,-1.2396784,116.8716603,https://maps.google.com/?cid=0x0:0xa4ee36a50eeb9ad7,
hardware store,Toko Perlengkapan Rumah,Transliving Hardware Balikpapan,"Transmart Balikpapan, Jl. MT Haryono, Gn. Bahagia, Kecamatan Balikpapan Selatan, Kota Balikpapan, Kalimantan Timur 76114","Jl. MT Haryono, Gn. Bahagia, Kecamatan Balikpapan Selatan, Kota Balikpapan",KALIMANTAN TIMUR,76114.0,Indonesia, 082208255191,,,-1.238535,116.8764784,https://maps.google.com/?cid=0x0:0x63f06d34d0c2e9fb,
hardware store,Toko Bahan Bangunan,Cahaya Depo,"PVM2+M7R, Jl. Siaga, Damai, Kec. Balikpapan Kota, Kota Balikpapan, Kalimantan Timur 76114","Jl. Siaga, Damai, Kec. Balikpapan Kota, Kota Balikpapan",KALIMANTAN TIMUR,76114.0,Indonesia, 081279815029,,,-1.265768,116.8506345,https://maps.google.com/?cid=0x0:0x325fb978a884472c,
hardware store,,Berkat Megah Perkasa,"Kompleks Balikpapan Permai Blok F1.56-57, Jl.Jendral Sudirman, Kelurahan Damai, Balikpapan Selatan, Damai, Kec. Balikpapan Kota, Kota Balikpapan, Kalimantan Timur 76114","Jl.Jendral Sudirman, Kelurahan Damai, Balikpapan Selatan, Damai, Kec. Balikpapan Kota, Kota Balikpapan",KALIMANTAN TIMUR,76114.0,Indonesia, 085381066923,,,-1.2715795,116.8540587,https://maps.google.com/?cid=0x0:0xfecd9fd3499b5bf5,
hardware store,Pemasok Peralatan Industri,Kawan Lama Solution / Krisbow Balikpapan,"Lantai UG Living Plaza, Jl. MT Haryono No.86, RT.54, Gn. Bahagia, Kecamatan Balikpapan Selatan, Kota Balikpapan, Kalimantan Timur 76114","Jl. MT Haryono No.86, RT.54, Gn. Bahagia, Kecamatan Balikpapan Selatan, Kota Balikpapan",KALIMANTAN TIMUR,76114.0,Indonesia, 082122544359,,,-1.2414047,116.8734277,https://maps.google.com/?cid=0x0:0x4a067b115e888007,
hardware store,Kantor Perusahaan,Dekkson Knowledge Shop Balikpapan (DKS),"Jl. MT Haryono No.45-52, Damai, Kecamatan Balikpapan Selatan, Kota Balikpapan, Kalimantan Timur 76114","Damai, Kecamatan Balikpapan Selatan, Kota Balikpapan",KALIMANTAN TIMUR,76114.0,Indonesia, 08115330900,,,-1.2667226,116.857988,https://maps.google.com/?cid=0x0:0x575f5c4e398ea3f1,
hardware store,Pemasok Bahan Bangunan,Toko Bangunan Sinar Makmur,"Jl. Jenderal Sudirman No.7, RT.21, Damai, Kec. Balikpapan Kota, Kota Balikpapan, Kalimantan Timur 76114","RT.21, Damai, Kec. Balikpapan Kota, Kota Balikpapan",KALIMANTAN TIMUR,76114.0,Indonesia, 083161072795,,,-1.2694372,116.857085,https://maps.google.com/?cid=0x0:0x6b8e4f6e87920cdd,
hardware store,Toko,Toko Kayu dan Bahan Bangunan Balikpapan,"Jl. Mayor Pol. Zainal Arifin, RT.31/RW.No. 82A, Damai, Kec. Balikpapan Kota, Kota Balikpapan, Kalimantan Timur 76126","RT.31/RW.No. 82A, Damai, Kec. Balikpapan Kota, Kota Balikpapan",KALIMANTAN TIMUR,76126.0,Indonesia, 083165329510,,,-1.2527903,116.8560227,https://maps.google.com/?cid=0x0:0x14b1b57c5fcda388,
hardware store,Tukang Jahit,Toko Dian Bangunan,"Jl. MT Haryono No.79, Damai, Kec. Balikpapan Kota, Kota Balikpapan, Kalimantan Timur 76114","Damai, Kec. Balikpapan Kota, Kota Balikpapan",KALIMANTAN TIMUR,76114.0,Indonesia, 082121172374,,,-1.2573172,116.8676757,https://maps.google.com/?cid=0x0:0xb62d3f393aef5b9,
hardware store,Toko Bahan Bangunan,Toko Fan Jaya,"Perum, Jl. Manunggal Perum Bukit Damai Sentosa 1 Jl. Manunggal No.Rt.31, Kota Balikpapan, Kalimantan Timur 76114","Jl. Manunggal Perum Bukit Damai Sentosa 1 Jl. Manunggal No.Rt.31, Kota Balikpapan",KALIMANTAN TIMUR,76114.0,Indonesia, 087745319967,,,-1.2597814,116.8732249,https://maps.google.com/?cid=0x0:0x223b3b18ee7180d0,
hardware store,Toko Bahan Bangunan,Toko Bangunan Balikpapan Terlengkap - Mitra10 Balikpapan,"Jl. MT Haryono No.D1, Gn. Bahagia, Kecamatan Balikpapan Selatan, Kota Balikpapan, Kalimantan Timur 76114","Gn. Bahagia, Kecamatan Balikpapan Selatan, Kota Balikpapan",KALIMANTAN TIMUR,76114.0,Indonesia, 087800021010,,,-1.2425218,116.8719711,https://maps.google.com/?cid=0x0:0x756b0333951e63a4,
hardware store,hardware store,Kalimantan Timur 75777,"Kabupaten Kutai Barat, Kalimantan Timur","Kabupaten Kutai Barat, Kalimantan Timur",KALIMANTAN TIMUR,,Indonesia,,,,-0.4403799,115.5207358,https://maps.google.com/?cid=0x0:0x402198de5bc5a33b,
hardware store,Toko Bahan Bangunan,Toko Karya Harapan,"MP83+8V, Keay, Kec. Damai, Kabupaten Kutai Barat, Kalimantan Timur 75777","Keay, Kec. Damai, Kabupaten Kutai Barat",KALIMANTAN TIMUR,75777.0,Indonesia, 085777883592,,,-0.3341243,115.7047838,https://maps.google.com/?cid=0x0:0x2aafa1b165bd0e8,
hardware store,Toko Alat Tulis Kantor,Aezar Stationery,"Jalan Trans Kalimantan, RT.001/RW.Nomor 41, Keay, Kec. Damai, Kabupaten Kutai Barat, Kalimantan Timur 75777","RT.001/RW.Nomor 41, Keay, Kec. Damai, Kabupaten Kutai Barat",KALIMANTAN TIMUR,75777.0,Indonesia, 05454042585,,,-0.3332598,115.7043616,https://maps.google.com/?cid=0x0:0xa1a9e8de6d8220,
hardware store,Toko Bahan Bangunan,Weng Hardware  Electrical Trading,"8, Jln Damai Raya 3, Alam Damai, 56000 Kuala Lumpur, Federal Territory of Kuala Lumpur, Malaysia",Kuala Lumpur,KALIMANTAN TIMUR,56000.0,Indonesia, +60389587307,,,3.0638849,101.7435666,https://maps.google.com/?cid=0x0:0x9a60e9bc5dff7707,
hardware store,Grosir alat,Doliz Indonesia,"Jl. Mangga Besar 1 No.50, RT.3/RW.6, Mangga Besar, Kec. Taman Sari, Kota Jakarta Barat, Daerah Khusus Ibukota Jakarta 11180","RT.3/RW.6, Mangga Besar, Kec. Taman Sari, Kota Jakarta Barat",KALIMANTAN TIMUR,11180.0,Indonesia, 08977619525,,,-6.1471796,106.8185432,https://maps.google.com/?cid=0x0:0x358d1ec3825bf284,
hardware store,Toko Bahan Bangunan,Multi H Hardware Sdn. Bhd.,"11, Jalan Damai Perdana 1/8b, Bandar Damai Perdana, 56000 Kuala Lumpur, Wilayah Persekutuan Kuala Lumpur, Malaysia",Kuala Lumpur,KALIMANTAN TIMUR,56000.0,Indonesia, +60391055935,,,3.046929,101.7401251,https://maps.google.com/?cid=0x0:0x183654693763b209,
hardware store,hardware store,Kalimantan Timur 75773,"Kabupaten Kutai Barat, Kalimantan Timur","Kabupaten Kutai Barat, Kalimantan Timur",KALIMANTAN TIMUR,,Indonesia,,,,-0.5737676,116.1832068,https://maps.google.com/?cid=0x0:0x3f6811e49b463ea8,
hardware store,Toko,Toko Rajawali Bangunan,"Jl. Lintas Kalimantan Poros Tengah, Pentat, Kec. Jempang, Kabupaten Kutai Barat, Kalimantan Timur 75773","Pentat, Kec. Jempang, Kabupaten Kutai Barat",KALIMANTAN TIMUR,75773.0,Indonesia, 081225533972,,,-0.573044,116.0930514,https://maps.google.com/?cid=0x0:0xb8f52ca2d1a240ca,
hardware store,Toko,Toko MDA,"M3F3+WFM, Unnamed Road, Tj. Laong, Kec. Muara Pahu, Kabupaten Kutai Barat, Kalimantan Timur 75774","Unnamed Road, Tj. Laong, Kec. Muara Pahu, Kabupaten Kutai Barat",KALIMANTAN TIMUR,75774.0,Indonesia, 081349989575,,,-0.3251614,116.0536762,https://maps.google.com/?cid=0x0:0xce48d8d16fece697,
hardware store,Toko Bahan Bangunan,Bailey's Ace Hardware,"522 E Broad St, Mineola, TX 75773, Amerika Serikat","Mineola, TX",KALIMANTAN TIMUR,75773.0,Indonesia, +19035692911,,,32.661731,-95.4836584,https://maps.google.com/?cid=0x0:0x51e4ebc9c6d515aa,
hardware store,Toko,Toko Yola,"C2CX+H7H, Muara Tae, Kec. Jempang, Kabupaten Kutai Barat, Kalimantan Timur 75773","Muara Tae, Kec. Jempang, Kabupaten Kutai Barat",KALIMANTAN TIMUR,75773.0,Indonesia,,,,-0.5785567,116.0482219,https://maps.google.com/?cid=0x0:0xb753f9cabbedc00b,
hardware store,hardware store,Kec. Linggang Bigung,"Kabupaten Kutai Barat, Kalimantan Timur","Kabupaten Kutai Barat, Kalimantan Timur",KALIMANTAN TIMUR,,Indonesia,,,,-0.1454383,115.6250448,https://maps.google.com/?cid=0x0:0x329ef1c291ccc206,
hardware store,Toko,UD Pisca Jaya,"VJ3H+3V6, Jl. Sengkereaq Dakaaq, Linggang Bigung, Kec. Linggang Bigung, Kabupaten Kutai Barat, Kalimantan Timur 75776","Jl. Sengkereaq Dakaaq, Linggang Bigung, Kec. Linggang Bigung, Kabupaten Kutai Barat",KALIMANTAN TIMUR,75776.0,Indonesia, 082254076670,,,-0.1473317,115.6296557,https://maps.google.com/?cid=0x0:0x860b957a7f4c8769,
hardware store,Toko Bahan Bangunan,Toko Bangunan Chacink Jaya,"Jl.sengkereaq lacaq RT 003 RJXG+9M5, Linggang Bigung, Kec. Linggang Bigung, Kabupaten Kutai Barat, Kalimantan Timur 75776, Kabupaten Kutai Barat, Kalimantan Timur 75576","Linggang Bigung, Kec. Linggang Bigung, Kabupaten Kutai Barat, Kalimantan Timur",KALIMANTAN TIMUR,75776.0,Indonesia, 082258054746,,,-0.151025,115.6270346,https://maps.google.com/?cid=0x0:0x145a06b820c123d2,
hardware store,Toko Bahan Bangunan,Toko Bangunan Mas Wawan,"VM33+8PP, Linggang Amer, Kec. Linggang Bigung, Kabupaten Kutai Barat, Kalimantan Timur 75776","Linggang Amer, Kec. Linggang Bigung, Kabupaten Kutai Barat",KALIMANTAN TIMUR,75776.0,Indonesia, 083161074744,,,-0.146655,115.6543141,https://maps.google.com/?cid=0x0:0xaa686758d06014da,
hardware store,Toko Bahan Bangunan,TB. MITRA PAHARIN,"Jl. Diponegoro, rt2, Linggang Bigung, Kec. Linggang Bigung, Kabupaten Kutai Barat, Kalimantan Timur 75776","rt2, Linggang Bigung, Kec. Linggang Bigung, Kabupaten Kutai Barat",KALIMANTAN TIMUR,75776.0,Indonesia,,,,-0.1536046,115.6273618,https://maps.google.com/?cid=0x0:0x9a9dc5a172bce5e6,
hardware store,Toko Perlengkapan Rumah,UD. Syahir Profil,"Jl. Sengkereaq Egas, Purwodadi, Kec. Linggang Bigung, Kabupaten Kutai Barat, Kalimantan Timur 75776","Purwodadi, Kec. Linggang Bigung, Kabupaten Kutai Barat",KALIMANTAN TIMUR,75776.0,Indonesia, 082157557415,,,-0.149936,115.6110966,https://maps.google.com/?cid=0x0:0xc20710ec811ec038,
hardware store,Toko bahan makanan,INDOMARET Linggang Bigung,"Jl. Sengkereaq Lancaq, Linggang Bigung, Kec. Linggang Bigung, Kabupaten Kutai Barat, Kalimantan Timur 75776","Linggang Bigung, Kec. Linggang Bigung, Kabupaten Kutai Barat",KALIMANTAN TIMUR,75776.0,Indonesia,,,,-0.1485265,115.6248456,https://maps.google.com/?cid=0x0:0x556eca99a53ce75a,
hardware store,Toko Bahan Bangunan,Eva Jaya Abadi,"VJ3C+8, Jl. Sengkereaq Egas, Linggang Bigung, Kec. Linggang Bigung, Kabupaten Kutai Barat, Kalimantan Timur 75576","Jl. Sengkereaq Egas, Linggang Bigung, Kec. Linggang Bigung, Kabupaten Kutai Barat",KALIMANTAN TIMUR,75576.0,Indonesia, 087851162036,,,-0.1466603,115.6210962,https://maps.google.com/?cid=0x0:0xe0a1c12a241092d7,
hardware store,hardware store,Kalimantan Timur 75766,"Kabupaten Kutai Barat, Kalimantan Timur","Kabupaten Kutai Barat, Kalimantan Timur",KALIMANTAN TIMUR,,Indonesia,,,,0.1685888,115.6154732,https://maps.google.com/?cid=0x0:0x6485d462a417d168,
hardware store,Toko Elektronik,Toko Harapan Jaya Elektronik,"Jl. Sendawar Raya, Barong Tongkok, Kec. Barong Tongkok, Kabupaten Kutai Barat, Kalimantan Timur 75776","Barong Tongkok, Kec. Barong Tongkok, Kabupaten Kutai Barat",KALIMANTAN TIMUR,75776.0,Indonesia, 083113174779,,,-0.2187079,115.710975,https://maps.google.com/?cid=0x0:0xfbb779acbb6d35be,
hardware store,Toko Perlengkapan Rumah,Toko INDRA,"RT 4, Kelinjau Ilir, Kec. Muara Ancalong, Kabupaten Kutai Timur, Kalimantan Timur 75556","Kelinjau Ilir, Kec. Muara Ancalong, Kabupaten Kutai Timur",KALIMANTAN TIMUR,75556.0,Indonesia,,,,0.4288561,116.6821332,https://maps.google.com/?cid=0x0:0xeb17e72da0ac9ba9,
hardware store,hardware store,Toko FAIZ JAYA,"Danum paroy, Muara Ratah, Laham, mahulu, Kalimantan Timur 75779","Muara Ratah, Laham, mahulu",KALIMANTAN TIMUR,75779.0,Indonesia, 082159811983,,,0.3065651,115.4013507,https://maps.google.com/?cid=0x0:0x3e2a65d305434df4,
hardware store,hardware store,Kec. Long Iram,"Kabupaten Kutai Barat, Kalimantan Timur","Kabupaten Kutai Barat, Kalimantan Timur",KALIMANTAN TIMUR,,Indonesia,,,,-0.0172244,115.6265037,https://maps.google.com/?cid=0x0:0x8d72e9f78e07c448,
hardware store,hardware store,Kec. Melak,"Kabupaten Kutai Barat, Kalimantan Timur","Kabupaten Kutai Barat, Kalimantan Timur",KALIMANTAN TIMUR,,Indonesia,,,,-0.2351847,115.814218,https://maps.google.com/?cid=0x0:0x90ac662d08b7ac0,
hardware store,Toko Bahan Bangunan,Toko Bangunan CAHAYA,"QR94+23M, Melak Ulu, Kec. Melak, Kabupaten Kutai Barat, Kalimantan Timur 75775","Melak Ulu, Kec. Melak, Kabupaten Kutai Barat",KALIMANTAN TIMUR,75775.0,Indonesia, 0816992047,,,-0.2324188,115.8051588,https://maps.google.com/?cid=0x0:0xfc0802a2f7167e4f,
hardware store,Toko Bahan Bangunan,Toko cahaya,"QR8F+W73, Unnamed Rd, Melak Ulu, Kec. Melak, Kabupaten Kutai Barat, Kalimantan Timur 75775","Unnamed Rd, Melak Ulu, Kec. Melak, Kabupaten Kutai Barat",KALIMANTAN TIMUR,75775.0,Indonesia, 083177573221,,,-0.2327441,115.8231873,https://maps.google.com/?cid=0x0:0x154053ff165ae797,
hardware store,Toko Bahan Bangunan,Toko simpang melak,"QR9F+JHP, Unnamed Road, Melak Ulu, Kec. Melak, Kabupaten Kutai Barat, Kalimantan Timur 75775","Unnamed Road, Melak Ulu, Kec. Melak, Kabupaten Kutai Barat",KALIMANTAN TIMUR,75775.0,Indonesia,,,,-0.2309216,115.8239516,https://maps.google.com/?cid=0x0:0xa4c974c5ff24672,
hardware store,Toko bahan makanan,Melak Mart Swalayan,"Melak Ulu, Kec. Melak, Kabupaten Kutai Barat, Kalimantan Timur 75775","Kec. Melak, Kabupaten Kutai Barat",KALIMANTAN TIMUR,75775.0,Indonesia, 082110115000,,,-0.2328808,115.8261641,https://maps.google.com/?cid=0x0:0x84df7c13fa2dd06a,
hardware store,Toko Bahan Bangunan,Tenaga,"QR9F+9FG, Melak Ulu, Kec. Melak, Kabupaten Kutai Barat, Kalimantan Timur 75775","Melak Ulu, Kec. Melak, Kabupaten Kutai Barat",KALIMANTAN TIMUR,75775.0,Indonesia,,,,-0.2315615,115.8236982,https://maps.google.com/?cid=0x0:0x2de3961a8dba21d1,
hardware store,Toko Elektronik,Toko Azura Elektronic,"Jl. DR. Soetomo, Melak Ulu, Kec. Melak, Kabupaten Kutai Barat, Kalimantan Timur 75775","Melak Ulu, Kec. Melak, Kabupaten Kutai Barat",KALIMANTAN TIMUR,75775.0,Indonesia, 081383900132,,,-0.2352527,115.8160522,https://maps.google.com/?cid=0x0:0xbe7f16b19f537841,
hardware store,Toko Elektronik,Sumber Elektronik Melak,"Melak Ulu, Kec. Melak, Kabupaten Kutai Barat, Kalimantan Timur 75775","Kec. Melak, Kabupaten Kutai Barat",KALIMANTAN TIMUR,75775.0,Indonesia, 081350826501,,,-0.2321137,115.7968565,https://maps.google.com/?cid=0x0:0x2c9782fb7320f1d8,
hardware store,Toko bahan makanan,Toko Yoli,"QR6J+RR3, Jl. Dimbak, RT.009/RW.001, Melak Ilir, Kec. Melak, Kabupaten Kutai Barat, Kalimantan Timur 75775","Jl. Dimbak, RT.009/RW.001, Melak Ilir, Kec. Melak, Kabupaten Kutai Barat",KALIMANTAN TIMUR,75775.0,Indonesia, 085246082998,,,-0.2379951,115.8320617,https://maps.google.com/?cid=0x0:0xbe31a28e3ead3b9,
hardware store,Toko bahan makanan,Toko Ananda,"Srimulyo, Kec. Sekolaq Darat, Kabupaten Kutai Barat, Kalimantan Timur 75775","Kec. Sekolaq Darat, Kabupaten Kutai Barat",KALIMANTAN TIMUR,75775.0,Indonesia, 082153874606,,,-0.2809292,115.7594728,https://maps.google.com/?cid=0x0:0xc48fb0fc294b1f39,
hardware store,Toko Bahan Bangunan,Toko imfa jaya,"Jl. Sendawar Raya No.10, Ngenyan Asa, Kec. Barong Tongkok, Kabupaten Kutai Barat, Kalimantan Timur 75776","Ngenyan Asa, Kec. Barong Tongkok, Kabupaten Kutai Barat",KALIMANTAN TIMUR,75776.0,Indonesia, 082310187507,,,-0.2149897,115.736298,https://maps.google.com/?cid=0x0:0x227b60162660308,
hardware store,Toko Perhiasan,Toko Emas Mandiri,"QR85+4WV, Melak Ulu, Kec. Melak, Kabupaten Kutai Barat, Kalimantan Timur 75775","Melak Ulu, Kec. Melak, Kabupaten Kutai Barat",KALIMANTAN TIMUR,75775.0,Indonesia,,,,-0.2346494,115.8097846,https://maps.google.com/?cid=0x0:0x62eec750c3f9eb4e,
hardware store,Toko Bahan Bangunan,Toko Karya Harapan,"MP83+8V, Keay, Kec. Damai, Kabupaten Kutai Barat, Kalimantan Timur 75777","Keay, Kec. Damai, Kabupaten Kutai Barat",KALIMANTAN TIMUR,75777.0,Indonesia, 085777883592,,,-0.3341243,115.7047838,https://maps.google.com/?cid=0x0:0x2aafa1b165bd0e8,
hardware store,Pasar,Pasar Baru Olah Bebaya Melak,"QR9F+CXW, Melak Ulu, Kec. Melak, Kabupaten Kutai Barat, Kalimantan Timur 75775","Melak Ulu, Kec. Melak, Kabupaten Kutai Barat",KALIMANTAN TIMUR,75775.0,Indonesia,,,,-0.2313872,115.8249558,https://maps.google.com/?cid=0x0:0x390d37a0748706f1,
hardware store,Brunch,Kedai Bahari,"QR9F+8HG, Melak Ulu, Kec. Melak, Kabupaten Kutai Barat, Kalimantan Timur 75775","Melak Ulu, Kec. Melak, Kabupaten Kutai Barat",KALIMANTAN TIMUR,75775.0,Indonesia, 081254940323,,,-0.2316802,115.823944,https://maps.google.com/?cid=0x0:0xa5d405604cf49f28,
hardware store,Pusat Perbelanjaan,Toko Pore Baru,"QM3Q+H52, Simpang Raya, Kec. Barong Tongkok, Kabupaten Kutai Barat, Kalimantan Timur 75777","Simpang Raya, Kec. Barong Tongkok, Kabupaten Kutai Barat",KALIMANTAN TIMUR,75777.0,Indonesia, 085777883592,,,-0.2461057,115.6878889,https://maps.google.com/?cid=0x0:0x45ae05fd3c255c5a,
hardware store,Toko Bahan Bangunan,MITRA IMFA,"Jl. Gajah Mada No.10, Barong Tongkok, Kec. Barong Tongkok, Kabupaten Kutai Barat, Kalimantan Timur 75777","Barong Tongkok, Kec. Barong Tongkok, Kabupaten Kutai Barat",KALIMANTAN TIMUR,75777.0,Indonesia, 082250901255,,,-0.2257435,115.6984632,https://maps.google.com/?cid=0x0:0x77550d6d878f24bf,
hardware store,Toko Elektronik,Toko Harapan Jaya Elektronik,"Jl. Sendawar Raya, Barong Tongkok, Kec. Barong Tongkok, Kabupaten Kutai Barat, Kalimantan Timur 75776","Barong Tongkok, Kec. Barong Tongkok, Kabupaten Kutai Barat",KALIMANTAN TIMUR,75776.0,Indonesia, 083113174779,,,-0.2187079,115.710975,https://maps.google.com/?cid=0x0:0xfbb779acbb6d35be,
hardware store,Dealer Sepeda Motor,Dealer Suzuki Melak,"Melak Ulu, Kec. Melak, Kabupaten Kutai Barat, Kalimantan Timur 75775","Kec. Melak, Kabupaten Kutai Barat",KALIMANTAN TIMUR,75775.0,Indonesia,,,,-0.2326763,115.8032085,https://maps.google.com/?cid=0x0:0x38cd0589da639222,
hardware store,Toko Perabot Supermarket,Toko Sahabat Jaya,"Simpang Raya, Kec. Barong Tongkok, Kabupaten Kutai Barat, Kalimantan Timur 75777","Kec. Barong Tongkok, Kabupaten Kutai Barat",KALIMANTAN TIMUR,75777.0,Indonesia, 082252215911,,,-0.2494362,115.7066741,https://maps.google.com/?cid=0x0:0x3aa304dd8e6dae29,
hardware store,Toko Fotokopi,Fotocopy Mawar,"QQ9W+M5P, Melak Ilir, Kec. Melak, Kabupaten Kutai Barat, Kalimantan Timur 75775","Melak Ilir, Kec. Melak, Kabupaten Kutai Barat",KALIMANTAN TIMUR,75775.0,Indonesia,,,,-0.2307921,115.7954616,https://maps.google.com/?cid=0x0:0xdca3a658aeae7173,
hardware store,hardware store,Kalimantan Timur 75765,"Kabupaten Kutai Barat, Kalimantan Timur","Kabupaten Kutai Barat, Kalimantan Timur",KALIMANTAN TIMUR,,Indonesia,,,,0.0335718,115.8994923,https://maps.google.com/?cid=0x0:0x2daf867b4587bd20,
hardware store,hardware store,Kalimantan Timur 75765,"Kabupaten Kutai Barat, Kalimantan Timur","Kabupaten Kutai Barat, Kalimantan Timur",KALIMANTAN TIMUR,,Indonesia,,,,0.0335718,115.8994923,https://maps.google.com/?cid=0x0:0x2daf867b4587bd20,
hardware store,hardware store,Kec. Manor Bulatn,"Kabupaten Kutai Barat, Kalimantan Timur","Kabupaten Kutai Barat, Kalimantan Timur",KALIMANTAN TIMUR,,Indonesia,,,,0.0335718,115.8994923,https://maps.google.com/?cid=0x0:0x3f3b4cf26396f685,
hardware store,Toko Bahan Bangunan,Toko Bangunan CAHAYA,"QR94+23M, Melak Ulu, Kec. Melak, Kabupaten Kutai Barat, Kalimantan Timur 75775","Melak Ulu, Kec. Melak, Kabupaten Kutai Barat",KALIMANTAN TIMUR,75775.0,Indonesia, 0816992047,,,-0.2324188,115.8051588,https://maps.google.com/?cid=0x0:0xfc0802a2f7167e4f,
hardware store,Toko Bahan Bangunan,TB Mulia Jaya,"QR82+XXQ, Melak Ulu, Kec. Melak, Kabupaten Kutai Barat, Kalimantan Timur 75775","Melak Ulu, Kec. Melak, Kabupaten Kutai Barat",KALIMANTAN TIMUR,75775.0,Indonesia,,,,-0.2319635,115.8022439,https://maps.google.com/?cid=0x0:0xb76bbdc8dab76373,
hardware store,Toko Bahan Bangunan,Tenaga,"QR9F+9FG, Melak Ulu, Kec. Melak, Kabupaten Kutai Barat, Kalimantan Timur 75775","Melak Ulu, Kec. Melak, Kabupaten Kutai Barat",KALIMANTAN TIMUR,75775.0,Indonesia,,,,-0.2315615,115.8236982,https://maps.google.com/?cid=0x0:0x2de3961a8dba21d1,
hardware store,Kantor Pemerintah,Mook Manar bulatn,"RRGF+X2X, Kelumpang, Kec. Manor Bulatn, Kabupaten Kutai Barat, Kalimantan Timur 75765","Kelumpang, Kec. Manor Bulatn, Kabupaten Kutai Barat",KALIMANTAN TIMUR,75765.0,Indonesia,,,,-0.1725134,115.8225997,https://maps.google.com/?cid=0x0:0x34f0a980fe905dfa,
hardware store,Tugu Pahlawan,Tugu Mook Manaar Bulatn,"QVW4+3RW, Karangan, Kec. Manor Bulatn, Kabupaten Kutai Barat, Kalimantan Timur 75775","Karangan, Kec. Manor Bulatn, Kabupaten Kutai Barat",KALIMANTAN TIMUR,75775.0,Indonesia,,,,-0.2047641,115.857079,https://maps.google.com/?cid=0x0:0xe3c72a27114e6e58,
hardware store,hardware store,Kalimantan Timur 75774,"Kabupaten Kutai Barat, Kalimantan Timur","Kabupaten Kutai Barat, Kalimantan Timur",KALIMANTAN TIMUR,,Indonesia,,,,-0.6090382,115.9467997,https://maps.google.com/?cid=0x0:0xafd22cb4e55c53b7,
hardware store,hardware store,Kec. Manor Bulatn,"Kabupaten Kutai Barat, Kalimantan Timur","Kabupaten Kutai Barat, Kalimantan Timur",KALIMANTAN TIMUR,,Indonesia,,,,0.0335718,115.8994923,https://maps.google.com/?cid=0x0:0x3f3b4cf26396f685,
hardware store,Toko,WIN ATK,"PWRJ+246, Jl. Sampan Arsapati, RT.001, Muara Jawaq, Kec. Manor Bulatn, Kabupaten Kutai Barat, Kalimantan Timur","Kabupaten Kutai Barat, Kalimantan Timur",KALIMANTAN TIMUR,,Indonesia, 081351057867,,,-0.2599528,115.9302754,https://maps.google.com/?cid=0x0:0xd8ad068529a44606,
hardware store,Toko Bahan Bangunan,Tenaga,"QR9F+9FG, Melak Ulu, Kec. Melak, Kabupaten Kutai Barat, Kalimantan Timur 75775","Melak Ulu, Kec. Melak, Kabupaten Kutai Barat",KALIMANTAN TIMUR,75775.0,Indonesia,,,,-0.2315615,115.8236982,https://maps.google.com/?cid=0x0:0x2de3961a8dba21d1,
hardware store,Toko Bahan Bangunan,Toko Bangunan CAHAYA,"QR94+23M, Melak Ulu, Kec. Melak, Kabupaten Kutai Barat, Kalimantan Timur 75775","Melak Ulu, Kec. Melak, Kabupaten Kutai Barat",KALIMANTAN TIMUR,75775.0,Indonesia, 0816992047,,,-0.2324188,115.8051588,https://maps.google.com/?cid=0x0:0xfc0802a2f7167e4f,
hardware store,Toko Bahan Bangunan,Toko imfa jaya,"Jl. Sendawar Raya No.10, Ngenyan Asa, Kec. Barong Tongkok, Kabupaten Kutai Barat, Kalimantan Timur 75776","Ngenyan Asa, Kec. Barong Tongkok, Kabupaten Kutai Barat",KALIMANTAN TIMUR,75776.0,Indonesia, 082310187507,,,-0.2149897,115.736298,https://maps.google.com/?cid=0x0:0x227b60162660308,
hardware store,Toko,Toko Rajawali Bangunan,"Jl. Lintas Kalimantan Poros Tengah, Pentat, Kec. Jempang, Kabupaten Kutai Barat, Kalimantan Timur 75773","Pentat, Kec. Jempang, Kabupaten Kutai Barat",KALIMANTAN TIMUR,75773.0,Indonesia, 081225533972,,,-0.573044,116.0930514,https://maps.google.com/?cid=0x0:0xb8f52ca2d1a240ca,
hardware store,Toko Bahan Bangunan,Toko Karya Harapan,"MP83+8V, Keay, Kec. Damai, Kabupaten Kutai Barat, Kalimantan Timur 75777","Keay, Kec. Damai, Kabupaten Kutai Barat",KALIMANTAN TIMUR,75777.0,Indonesia, 085777883592,,,-0.3341243,115.7047838,https://maps.google.com/?cid=0x0:0x2aafa1b165bd0e8,
hardware store,Toko Bahan Bangunan,MITRA IMFA,"Jl. Gajah Mada No.10, Barong Tongkok, Kec. Barong Tongkok, Kabupaten Kutai Barat, Kalimantan Timur 75777","Barong Tongkok, Kec. Barong Tongkok, Kabupaten Kutai Barat",KALIMANTAN TIMUR,75777.0,Indonesia, 082250901255,,,-0.2257435,115.6984632,https://maps.google.com/?cid=0x0:0x77550d6d878f24bf,
hardware store,Toko Bahan Bangunan,TOKO LATANSA BANGUNAN,"GQG4+VXG, Jl. Trans Kalimantan, pusung, Kec. Muara Lawa, Kabupaten Kutai Barat, Kalimantan Timur 75775","Jl. Trans Kalimantan, pusung, Kec. Muara Lawa, Kabupaten Kutai Barat",KALIMANTAN TIMUR,75775.0,Indonesia, 081367805201,,,-0.4728169,115.7574576,https://maps.google.com/?cid=0x0:0x7835ab17990aea06,
hardware store,Kantor Pemerintah,Mook Manar bulatn,"RRGF+X2X, Kelumpang, Kec. Manor Bulatn, Kabupaten Kutai Barat, Kalimantan Timur 75765","Kelumpang, Kec. Manor Bulatn, Kabupaten Kutai Barat",KALIMANTAN TIMUR,75765.0,Indonesia,,,,-0.1725134,115.8225997,https://maps.google.com/?cid=0x0:0x34f0a980fe905dfa,
hardware store,hardware store,Muara Lawa,"Kec. Muara Lawa, Kabupaten Kutai Barat, Kalimantan Timur","Kabupaten Kutai Barat, Kalimantan Timur",KALIMANTAN TIMUR,,Indonesia,,,,-0.4714742,115.7427265,https://maps.google.com/?cid=0x0:0x8488e6003331f140,
hardware store,hardware store,Kalimantan Timur 75775,"Kabupaten Kutai Barat, Kalimantan Timur","Kabupaten Kutai Barat, Kalimantan Timur",KALIMANTAN TIMUR,,Indonesia,,,,-0.3713838,115.8048521,https://maps.google.com/?cid=0x0:0xfeb4fa71263fe866,
hardware store,Toko Bahan Bangunan,TOKO LATANSA BANGUNAN,"GQG4+VXG, Jl. Trans Kalimantan, pusung, Kec. Muara Lawa, Kabupaten Kutai Barat, Kalimantan Timur 75775","Jl. Trans Kalimantan, pusung, Kec. Muara Lawa, Kabupaten Kutai Barat",KALIMANTAN TIMUR,75775.0,Indonesia, 081367805201,,,-0.4728169,115.7574576,https://maps.google.com/?cid=0x0:0x7835ab17990aea06,
hardware store,Toko,Toko MDA,"M3F3+WFM, Unnamed Road, Tj. Laong, Kec. Muara Pahu, Kabupaten Kutai Barat, Kalimantan Timur 75774","Unnamed Road, Tj. Laong, Kec. Muara Pahu, Kabupaten Kutai Barat",KALIMANTAN TIMUR,75774.0,Indonesia, 081349989575,,,-0.3251614,116.0536762,https://maps.google.com/?cid=0x0:0xce48d8d16fece697,
hardware store,hardware store,Kalimantan Timur 75774,"Kabupaten Kutai Barat, Kalimantan Timur","Kabupaten Kutai Barat, Kalimantan Timur",KALIMANTAN TIMUR,,Indonesia,,,,-0.6090382,115.9467997,https://maps.google.com/?cid=0x0:0xafd22cb4e55c53b7,
hardware store,Toko Bahan Bangunan,TOKO LATANSA BANGUNAN,"GQG4+VXG, Jl. Trans Kalimantan, pusung, Kec. Muara Lawa, Kabupaten Kutai Barat, Kalimantan Timur 75775","Jl. Trans Kalimantan, pusung, Kec. Muara Lawa, Kabupaten Kutai Barat",KALIMANTAN TIMUR,75775.0,Indonesia, 081367805201,,,-0.4728169,115.7574576,https://maps.google.com/?cid=0x0:0x7835ab17990aea06,
hardware store,hardware store,Kalimantan Timur 75776,"Kabupaten Kutai Barat, Kalimantan Timur","Kabupaten Kutai Barat, Kalimantan Timur",KALIMANTAN TIMUR,,Indonesia,,,,-0.1517231,115.5917918,https://maps.google.com/?cid=0x0:0xcf1c58fc5919e6cf,
hardware store,Toko Perlengkapan Rumah,UD. Syahir Profil,"Jl. Sengkereaq Egas, Purwodadi, Kec. Linggang Bigung, Kabupaten Kutai Barat, Kalimantan Timur 75776","Purwodadi, Kec. Linggang Bigung, Kabupaten Kutai Barat",KALIMANTAN TIMUR,75776.0,Indonesia, 082157557415,,,-0.149936,115.6110966,https://maps.google.com/?cid=0x0:0xc20710ec811ec038,
hardware store,Toko,UD Pisca Jaya,"VJ3H+3V6, Jl. Sengkereaq Dakaaq, Linggang Bigung, Kec. Linggang Bigung, Kabupaten Kutai Barat, Kalimantan Timur 75776","Jl. Sengkereaq Dakaaq, Linggang Bigung, Kec. Linggang Bigung, Kabupaten Kutai Barat",KALIMANTAN TIMUR,75776.0,Indonesia, 082254076670,,,-0.1473317,115.6296557,https://maps.google.com/?cid=0x0:0x860b957a7f4c8769,
hardware store,Pusat Perbelanjaan,Toko Pore Baru,"QM3Q+H52, Simpang Raya, Kec. Barong Tongkok, Kabupaten Kutai Barat, Kalimantan Timur 75777","Simpang Raya, Kec. Barong Tongkok, Kabupaten Kutai Barat",KALIMANTAN TIMUR,75777.0,Indonesia, 085777883592,,,-0.2461057,115.6878889,https://maps.google.com/?cid=0x0:0x45ae05fd3c255c5a,
hardware store,Toko Bahan Bangunan,UD.RANGGA JAYA,"QM7J+83G, Barong Tongkok, Kec. Barong Tongkok, Kabupaten Kutai Barat, Kalimantan Timur 75777","Barong Tongkok, Kec. Barong Tongkok, Kabupaten Kutai Barat",KALIMANTAN TIMUR,75777.0,Indonesia, 082213176971,,,-0.2366808,115.6802117,https://maps.google.com/?cid=0x0:0x5fe3a4dff085eec0,
hardware store,Toko Elektronik,Toko Harapan Jaya Elektronik,"Jl. Sendawar Raya, Barong Tongkok, Kec. Barong Tongkok, Kabupaten Kutai Barat, Kalimantan Timur 75776","Barong Tongkok, Kec. Barong Tongkok, Kabupaten Kutai Barat",KALIMANTAN TIMUR,75776.0,Indonesia, 083113174779,,,-0.2187079,115.710975,https://maps.google.com/?cid=0x0:0xfbb779acbb6d35be,
hardware store,Toko Bahan Bangunan,TB. MITRA PAHARIN,"Jl. Diponegoro, rt2, Linggang Bigung, Kec. Linggang Bigung, Kabupaten Kutai Barat, Kalimantan Timur 75776","rt2, Linggang Bigung, Kec. Linggang Bigung, Kabupaten Kutai Barat",KALIMANTAN TIMUR,75776.0,Indonesia,,,,-0.1536046,115.6273618,https://maps.google.com/?cid=0x0:0x9a9dc5a172bce5e6,
hardware store,Toko Bahan Bangunan,Toko Bangunan Mas Wawan,"VM33+8PP, Linggang Amer, Kec. Linggang Bigung, Kabupaten Kutai Barat, Kalimantan Timur 75776","Linggang Amer, Kec. Linggang Bigung, Kabupaten Kutai Barat",KALIMANTAN TIMUR,75776.0,Indonesia, 083161074744,,,-0.146655,115.6543141,https://maps.google.com/?cid=0x0:0xaa686758d06014da,
hardware store,Toko Bahan Bangunan,Toko Bangunan Chacink Jaya,"Jl.sengkereaq lacaq RT 003 RJXG+9M5, Linggang Bigung, Kec. Linggang Bigung, Kabupaten Kutai Barat, Kalimantan Timur 75776, Kabupaten Kutai Barat, Kalimantan Timur 75576","Linggang Bigung, Kec. Linggang Bigung, Kabupaten Kutai Barat, Kalimantan Timur",KALIMANTAN TIMUR,75776.0,Indonesia, 082258054746,,,-0.151025,115.6270346,https://maps.google.com/?cid=0x0:0x145a06b820c123d2,
hardware store,Toko Bahan Bangunan,Eva Jaya Abadi,"VJ3C+8, Jl. Sengkereaq Egas, Linggang Bigung, Kec. Linggang Bigung, Kabupaten Kutai Barat, Kalimantan Timur 75576","Jl. Sengkereaq Egas, Linggang Bigung, Kec. Linggang Bigung, Kabupaten Kutai Barat",KALIMANTAN TIMUR,75576.0,Indonesia, 087851162036,,,-0.1466603,115.6210962,https://maps.google.com/?cid=0x0:0xe0a1c12a241092d7,
hardware store,Toko Alat Tulis,UD Angin Mamiri,"QM8P+PMQ, Jl. Awang Long Senopati, Barong Tongkok, Kec. Barong Tongkok, Kabupaten Kutai Barat, Kalimantan Timur 75777","Jl. Awang Long Senopati, Barong Tongkok, Kec. Barong Tongkok, Kabupaten Kutai Barat",KALIMANTAN TIMUR,75777.0,Indonesia, 081348091771,,,-0.2331574,115.6867372,https://maps.google.com/?cid=0x0:0x3d4c23ac65bcee27,
hardware store,Toko Bahan Bangunan,MITRA IMFA,"Jl. Gajah Mada No.10, Barong Tongkok, Kec. Barong Tongkok, Kabupaten Kutai Barat, Kalimantan Timur 75777","Barong Tongkok, Kec. Barong Tongkok, Kabupaten Kutai Barat",KALIMANTAN TIMUR,75777.0,Indonesia, 082250901255,,,-0.2257435,115.6984632,https://maps.google.com/?cid=0x0:0x77550d6d878f24bf,
hardware store,Toko bahan makanan,Toko ATK  Photo Copy Christo  Christy,"QM6H+WRH, Barong Tongkok, Kec. Barong Tongkok, Kabupaten Kutai Barat, Kalimantan Timur 75777","Barong Tongkok, Kec. Barong Tongkok, Kabupaten Kutai Barat",KALIMANTAN TIMUR,75777.0,Indonesia, 081238094553,,,-0.2376875,115.6796218,https://maps.google.com/?cid=0x0:0xed2dd7774caa81ff,
hardware store,Toko Bahan Bangunan,TB Ades,"QM8H+FC, Barong Tongkok, Kec. Barong Tongkok, Kabupaten Kutai Barat, Kalimantan Timur 75777","Barong Tongkok, Kec. Barong Tongkok, Kabupaten Kutai Barat",KALIMANTAN TIMUR,75777.0,Indonesia,,,,-0.2338527,115.6787318,https://maps.google.com/?cid=0x0:0x5a53e04c783c2014,
hardware store,Toko Bahan Bangunan,Toko Bangunan CAHAYA,"QR94+23M, Melak Ulu, Kec. Melak, Kabupaten Kutai Barat, Kalimantan Timur 75775","Melak Ulu, Kec. Melak, Kabupaten Kutai Barat",KALIMANTAN TIMUR,75775.0,Indonesia, 0816992047,,,-0.2324188,115.8051588,https://maps.google.com/?cid=0x0:0xfc0802a2f7167e4f,
hardware store,Toko bahan makanan,Toko Ananda,"Srimulyo, Kec. Sekolaq Darat, Kabupaten Kutai Barat, Kalimantan Timur 75775","Kec. Sekolaq Darat, Kabupaten Kutai Barat",KALIMANTAN TIMUR,75775.0,Indonesia, 082153874606,,,-0.2809292,115.7594728,https://maps.google.com/?cid=0x0:0xc48fb0fc294b1f39,
hardware store,Toko,Kenzo Fotocopy,"VJ2W+FJJ, Bangun Sari, Kec. Linggang Bigung, Kabupaten Kutai Barat, Kalimantan Timur 75776","Bangun Sari, Kec. Linggang Bigung, Kabupaten Kutai Barat",KALIMANTAN TIMUR,75776.0,Indonesia,,,,-0.1487846,115.6465302,https://maps.google.com/?cid=0x0:0xdf8cb9ad6922d07b,
hardware store,Toko Bahan Bangunan,Toko Karya Harapan,"MP83+8V, Keay, Kec. Damai, Kabupaten Kutai Barat, Kalimantan Timur 75777","Keay, Kec. Damai, Kabupaten Kutai Barat",KALIMANTAN TIMUR,75777.0,Indonesia, 085777883592,,,-0.3341243,115.7047838,https://maps.google.com/?cid=0x0:0x2aafa1b165bd0e8,
hardware store,Toko bahan makanan,UDu003dRB TOKO RIZAL BERSAUDARA Barong Tongkok,"QMCQ+389, Barong Tongkok, Kec. Barong Tongkok, Kabupaten Kutai Barat, Kalimantan Timur 75777","Barong Tongkok, Kec. Barong Tongkok, Kabupaten Kutai Barat",KALIMANTAN TIMUR,75777.0,Indonesia, 081250448385,,,-0.2298261,115.6883506,https://maps.google.com/?cid=0x0:0xdae628ad5004b336,
hardware store,Toko Fotokopi,TRISANDI FOTOCOPY,"RT.003, Muara Mujan, Kec. Tering, Kabupaten Kutai Barat, Kalimantan Timur 75566","Muara Mujan, Kec. Tering, Kabupaten Kutai Barat",KALIMANTAN TIMUR,75566.0,Indonesia, 082233116855,,,-0.0867698,115.5585564,https://maps.google.com/?cid=0x0:0xb5ce92d15c4218d7,
hardware store,hardware store,Kalimantan Timur 75777,"Kabupaten Kutai Barat, Kalimantan Timur","Kabupaten Kutai Barat, Kalimantan Timur",KALIMANTAN TIMUR,,Indonesia,,,,-0.4403799,115.5207358,https://maps.google.com/?cid=0x0:0x402198de5bc5a33b,
hardware store,Toko Bahan Bangunan,UD.RANGGA JAYA,"QM7J+83G, Barong Tongkok, Kec. Barong Tongkok, Kabupaten Kutai Barat, Kalimantan Timur 75777","Barong Tongkok, Kec. Barong Tongkok, Kabupaten Kutai Barat",KALIMANTAN TIMUR,75777.0,Indonesia, 082213176971,,,-0.2366808,115.6802117,https://maps.google.com/?cid=0x0:0x5fe3a4dff085eec0,
hardware store,Pusat Perbelanjaan,Toko Pore Baru,"QM3Q+H52, Simpang Raya, Kec. Barong Tongkok, Kabupaten Kutai Barat, Kalimantan Timur 75777","Simpang Raya, Kec. Barong Tongkok, Kabupaten Kutai Barat",KALIMANTAN TIMUR,75777.0,Indonesia, 085777883592,,,-0.2461057,115.6878889,https://maps.google.com/?cid=0x0:0x45ae05fd3c255c5a,
hardware store,Toko Alat Tulis,UD Angin Mamiri,"QM8P+PMQ, Jl. Awang Long Senopati, Barong Tongkok, Kec. Barong Tongkok, Kabupaten Kutai Barat, Kalimantan Timur 75777","Jl. Awang Long Senopati, Barong Tongkok, Kec. Barong Tongkok, Kabupaten Kutai Barat",KALIMANTAN TIMUR,75777.0,Indonesia, 081348091771,,,-0.2331574,115.6867372,https://maps.google.com/?cid=0x0:0x3d4c23ac65bcee27,
hardware store,Toko Elektronik,Toko Harapan Jaya Elektronik,"Jl. Sendawar Raya, Barong Tongkok, Kec. Barong Tongkok, Kabupaten Kutai Barat, Kalimantan Timur 75776","Barong Tongkok, Kec. Barong Tongkok, Kabupaten Kutai Barat",KALIMANTAN TIMUR,75776.0,Indonesia, 083113174779,,,-0.2187079,115.710975,https://maps.google.com/?cid=0x0:0xfbb779acbb6d35be,
hardware store,Toko Bahan Bangunan,Toko Karya Harapan,"MP83+8V, Keay, Kec. Damai, Kabupaten Kutai Barat, Kalimantan Timur 75777","Keay, Kec. Damai, Kabupaten Kutai Barat",KALIMANTAN TIMUR,75777.0,Indonesia, 085777883592,,,-0.3341243,115.7047838,https://maps.google.com/?cid=0x0:0x2aafa1b165bd0e8,
hardware store,Toko Bahan Bangunan,MITRA IMFA,"Jl. Gajah Mada No.10, Barong Tongkok, Kec. Barong Tongkok, Kabupaten Kutai Barat, Kalimantan Timur 75777","Barong Tongkok, Kec. Barong Tongkok, Kabupaten Kutai Barat",KALIMANTAN TIMUR,75777.0,Indonesia, 082250901255,,,-0.2257435,115.6984632,https://maps.google.com/?cid=0x0:0x77550d6d878f24bf,
hardware store,Toko bahan makanan,Toko Ananda,"Srimulyo, Kec. Sekolaq Darat, Kabupaten Kutai Barat, Kalimantan Timur 75775","Kec. Sekolaq Darat, Kabupaten Kutai Barat",KALIMANTAN TIMUR,75775.0,Indonesia, 082153874606,,,-0.2809292,115.7594728,https://maps.google.com/?cid=0x0:0xc48fb0fc294b1f39,
hardware store,Toko bahan makanan,Toko ATK  Photo Copy Christo  Christy,"QM6H+WRH, Barong Tongkok, Kec. Barong Tongkok, Kabupaten Kutai Barat, Kalimantan Timur 75777","Barong Tongkok, Kec. Barong Tongkok, Kabupaten Kutai Barat",KALIMANTAN TIMUR,75777.0,Indonesia, 081238094553,,,-0.2376875,115.6796218,https://maps.google.com/?cid=0x0:0xed2dd7774caa81ff,
hardware store,Toko Bahan Bangunan,TB Ades,"QM8H+FC, Barong Tongkok, Kec. Barong Tongkok, Kabupaten Kutai Barat, Kalimantan Timur 75777","Barong Tongkok, Kec. Barong Tongkok, Kabupaten Kutai Barat",KALIMANTAN TIMUR,75777.0,Indonesia,,,,-0.2338527,115.6787318,https://maps.google.com/?cid=0x0:0x5a53e04c783c2014,
hardware store,Toko bahan makanan,UDu003dRB TOKO RIZAL BERSAUDARA Barong Tongkok,"QMCQ+389, Barong Tongkok, Kec. Barong Tongkok, Kabupaten Kutai Barat, Kalimantan Timur 75777","Barong Tongkok, Kec. Barong Tongkok, Kabupaten Kutai Barat",KALIMANTAN TIMUR,75777.0,Indonesia, 081250448385,,,-0.2298261,115.6883506,https://maps.google.com/?cid=0x0:0xdae628ad5004b336,
hardware store,Toko,UD Pisca Jaya,"VJ3H+3V6, Jl. Sengkereaq Dakaaq, Linggang Bigung, Kec. Linggang Bigung, Kabupaten Kutai Barat, Kalimantan Timur 75776","Jl. Sengkereaq Dakaaq, Linggang Bigung, Kec. Linggang Bigung, Kabupaten Kutai Barat",KALIMANTAN TIMUR,75776.0,Indonesia, 082254076670,,,-0.1473317,115.6296557,https://maps.google.com/?cid=0x0:0x860b957a7f4c8769,
hardware store,Toko Perlengkapan Rumah,UD. Syahir Profil,"Jl. Sengkereaq Egas, Purwodadi, Kec. Linggang Bigung, Kabupaten Kutai Barat, Kalimantan Timur 75776","Purwodadi, Kec. Linggang Bigung, Kabupaten Kutai Barat",KALIMANTAN TIMUR,75776.0,Indonesia, 082157557415,,,-0.149936,115.6110966,https://maps.google.com/?cid=0x0:0xc20710ec811ec038,
hardware store,hardware store,Toko ATK ChristoChristy HIS,"Jl. Hasanudin, Sekolaq Joleq, Kec. Sekolaq Darat, Kec. Barong Tongkok, Kabupaten Kutai Barat, Kalimantan Timur 75777","Sekolaq Joleq, Kec. Sekolaq Darat, Kec. Barong Tongkok, Kabupaten Kutai Barat",KALIMANTAN TIMUR,75777.0,Indonesia, 082148880338,,,-0.2466443,115.714927,https://maps.google.com/?cid=0x0:0x8a5d1ec0ae9f6f0e,
hardware store,Toko Bahan Bangunan,Toko Bangunan CAHAYA,"QR94+23M, Melak Ulu, Kec. Melak, Kabupaten Kutai Barat, Kalimantan Timur 75775","Melak Ulu, Kec. Melak, Kabupaten Kutai Barat",KALIMANTAN TIMUR,75775.0,Indonesia, 0816992047,,,-0.2324188,115.8051588,https://maps.google.com/?cid=0x0:0xfc0802a2f7167e4f,
hardware store,Toko Fotokopi,TRISANDI FOTOCOPY,"RT.003, Muara Mujan, Kec. Tering, Kabupaten Kutai Barat, Kalimantan Timur 75566","Muara Mujan, Kec. Tering, Kabupaten Kutai Barat",KALIMANTAN TIMUR,75566.0,Indonesia, 082233116855,,,-0.0867698,115.5585564,https://maps.google.com/?cid=0x0:0xb5ce92d15c4218d7,
hardware store,Toko Bahan Bangunan,Toko Bangunan Mas Wawan,"VM33+8PP, Linggang Amer, Kec. Linggang Bigung, Kabupaten Kutai Barat, Kalimantan Timur 75776","Linggang Amer, Kec. Linggang Bigung, Kabupaten Kutai Barat",KALIMANTAN TIMUR,75776.0,Indonesia, 083161074744,,,-0.146655,115.6543141,https://maps.google.com/?cid=0x0:0xaa686758d06014da,
hardware store,Toko Bahan Bangunan,TB. MITRA PAHARIN,"Jl. Diponegoro, rt2, Linggang Bigung, Kec. Linggang Bigung, Kabupaten Kutai Barat, Kalimantan Timur 75776","rt2, Linggang Bigung, Kec. Linggang Bigung, Kabupaten Kutai Barat",KALIMANTAN TIMUR,75776.0,Indonesia,,,,-0.1536046,115.6273618,https://maps.google.com/?cid=0x0:0x9a9dc5a172bce5e6,
hardware store,Toko Alat Tulis Kantor,Aezar Stationery,"Jalan Trans Kalimantan, RT.001/RW.Nomor 41, Keay, Kec. Damai, Kabupaten Kutai Barat, Kalimantan Timur 75777","RT.001/RW.Nomor 41, Keay, Kec. Damai, Kabupaten Kutai Barat",KALIMANTAN TIMUR,75777.0,Indonesia, 05454042585,,,-0.3332598,115.7043616,https://maps.google.com/?cid=0x0:0xa1a9e8de6d8220,
hardware store,Toko Bahan Bangunan,Eva Jaya Abadi,"VJ3C+8, Jl. Sengkereaq Egas, Linggang Bigung, Kec. Linggang Bigung, Kabupaten Kutai Barat, Kalimantan Timur 75576","Jl. Sengkereaq Egas, Linggang Bigung, Kec. Linggang Bigung, Kabupaten Kutai Barat",KALIMANTAN TIMUR,75576.0,Indonesia, 087851162036,,,-0.1466603,115.6210962,https://maps.google.com/?cid=0x0:0xe0a1c12a241092d7,
hardware store,hardware store,Kalimantan Timur 75763,Kalimantan Timur,Kalimantan Timur,KALIMANTAN TIMUR,,Indonesia,,,,-0.3023441,116.2777073,https://maps.google.com/?cid=0x0:0xe5ae71661c611545,
hardware store,Toko,Toko Lancar tezeki,"H7MV+GRG, Jantur, Kec. Muara Muntai, Kabupaten Kutai Kartanegara, Kalimantan Timur 75763","Jantur, Kec. Muara Muntai, Kabupaten Kutai Kartanegara",KALIMANTAN TIMUR,75763.0,Indonesia,,,,-0.416195,116.294585,https://maps.google.com/?cid=0x0:0xdaa9264930c6d90a,
hardware store,Toko,Toko MDA,"M3F3+WFM, Unnamed Road, Tj. Laong, Kec. Muara Pahu, Kabupaten Kutai Barat, Kalimantan Timur 75774","Unnamed Road, Tj. Laong, Kec. Muara Pahu, Kabupaten Kutai Barat",KALIMANTAN TIMUR,75774.0,Indonesia, 081349989575,,,-0.3251614,116.0536762,https://maps.google.com/?cid=0x0:0xce48d8d16fece697,
hardware store,Toko Bahan Bangunan,Toko Bangunan depok Alat Teknik dan Safety Citra,"Jl. Margonda No.472, Pondok Cina, Kecamatan Beji, Kota Depok, Jawa Barat 16424","Pondok Cina, Kecamatan Beji, Kota Depok",KALIMANTAN TIMUR,16424.0,Indonesia, 085710032801,,,-6.3656692,106.8336797,https://maps.google.com/?cid=0x0:0xcff3501c7ef59783,
hardware store,hardware store,Kec. Penyinggahan,"Kabupaten Kutai Barat, Kalimantan Timur","Kabupaten Kutai Barat, Kalimantan Timur",KALIMANTAN TIMUR,,Indonesia,,,,-0.3862993,116.2238471,https://maps.google.com/?cid=0x0:0xe0d5f332a7d73bf3,
hardware store,Toko Bahan Bangunan,TB Berkah Fitri,"Jalan poros muara wis, depan puskesmas, rt3, Kec. Muara Wis, Kalimantan Timur 75559","depan puskesmas, rt3, Kec. Muara Wis",KALIMANTAN TIMUR,75559.0,Indonesia,,,,-0.3153714,116.4846003,https://maps.google.com/?cid=0x0:0x554163a3e5caa38c,
hardware store,hardware store,Kalimantan Timur 75765,"Kabupaten Kutai Barat, Kalimantan Timur","Kabupaten Kutai Barat, Kalimantan Timur",KALIMANTAN TIMUR,,Indonesia,,,,0.0335718,115.8994923,https://maps.google.com/?cid=0x0:0x2daf867b4587bd20,
hardware store,Toko Bahan Bangunan,Toko sherly,"PQ92+46C, Jl. Mas Arso Joyo, Sekolaq Darat, Kec. Sekolaq Darat, Kabupaten Kutai Barat, Kalimantan Timur 75775","Jl. Mas Arso Joyo, Sekolaq Darat, Kec. Sekolaq Darat, Kabupaten Kutai Barat",KALIMANTAN TIMUR,75775.0,Indonesia, 082154139702,,,-0.2821887,115.7505168,https://maps.google.com/?cid=0x0:0x1e4de4771bc6a0ee,
hardware store,Toko Pakaian,Murah rejeki Olshop,"RT.06, Sendawar, Kec. Sekolaq Darat, Kabupaten Kutai Barat, Kalimantan Timur 75565","Sendawar, Kec. Sekolaq Darat, Kabupaten Kutai Barat",KALIMANTAN TIMUR,75565.0,Indonesia, 085390777397,,,-0.2829389,115.7478023,https://maps.google.com/?cid=0x0:0x1ca8b7b9faf6fede,
hardware store,hardware store,Toko ATK ChristoChristy HIS,"Jl. Hasanudin, Sekolaq Joleq, Kec. Sekolaq Darat, Kec. Barong Tongkok, Kabupaten Kutai Barat, Kalimantan Timur 75777","Sekolaq Joleq, Kec. Sekolaq Darat, Kec. Barong Tongkok, Kabupaten Kutai Barat",KALIMANTAN TIMUR,75777.0,Indonesia, 082148880338,,,-0.2466443,115.714927,https://maps.google.com/?cid=0x0:0x8a5d1ec0ae9f6f0e,
hardware store,Toko bahan makanan,Toko Ananda,"Srimulyo, Kec. Sekolaq Darat, Kabupaten Kutai Barat, Kalimantan Timur 75775","Kec. Sekolaq Darat, Kabupaten Kutai Barat",KALIMANTAN TIMUR,75775.0,Indonesia, 082153874606,,,-0.2809292,115.7594728,https://maps.google.com/?cid=0x0:0xc48fb0fc294b1f39,
hardware store,Toko Komputer,IT - Channel Sendawar,"RT 03, Sumber Bangun, Kec. Sekolaq Darat, Kabupaten Kutai Barat, Kalimantan Timur 75777","Sumber Bangun, Kec. Sekolaq Darat, Kabupaten Kutai Barat",KALIMANTAN TIMUR,75777.0,Indonesia, 085348665826,,,-0.2493823,115.7232282,https://maps.google.com/?cid=0x0:0x168f28e315953a66,
hardware store,Toko Bahan Bangunan,Toko Karya Harapan,"MP83+8V, Keay, Kec. Damai, Kabupaten Kutai Barat, Kalimantan Timur 75777","Keay, Kec. Damai, Kabupaten Kutai Barat",KALIMANTAN TIMUR,75777.0,Indonesia, 085777883592,,,-0.3341243,115.7047838,https://maps.google.com/?cid=0x0:0x2aafa1b165bd0e8,
hardware store,Toko Bahan Bangunan,TB Mulia Jaya,"QR82+XXQ, Melak Ulu, Kec. Melak, Kabupaten Kutai Barat, Kalimantan Timur 75775","Melak Ulu, Kec. Melak, Kabupaten Kutai Barat",KALIMANTAN TIMUR,75775.0,Indonesia,,,,-0.2319635,115.8022439,https://maps.google.com/?cid=0x0:0xb76bbdc8dab76373,
hardware store,Toko bahan makanan,TB. Rohimah,"PQC4+PJM, Jl. Mas Arso Joyo, Srimulyo, Kec. Sekolaq Darat, Kabupaten Kutai Barat, Kalimantan Timur 75775","Jl. Mas Arso Joyo, Srimulyo, Kec. Sekolaq Darat, Kabupaten Kutai Barat",KALIMANTAN TIMUR,75775.0,Indonesia,,,,-0.2781738,115.7565571,https://maps.google.com/?cid=0x0:0x2b746a6ea001d489,
hardware store,Toko Bahan Bangunan,Toko imfa jaya,"Jl. Sendawar Raya No.10, Ngenyan Asa, Kec. Barong Tongkok, Kabupaten Kutai Barat, Kalimantan Timur 75776","Ngenyan Asa, Kec. Barong Tongkok, Kabupaten Kutai Barat",KALIMANTAN TIMUR,75776.0,Indonesia, 082310187507,,,-0.2149897,115.736298,https://maps.google.com/?cid=0x0:0x227b60162660308,
hardware store,Pusat Perbelanjaan,Toko Pore Baru,"QM3Q+H52, Simpang Raya, Kec. Barong Tongkok, Kabupaten Kutai Barat, Kalimantan Timur 75777","Simpang Raya, Kec. Barong Tongkok, Kabupaten Kutai Barat",KALIMANTAN TIMUR,75777.0,Indonesia, 085777883592,,,-0.2461057,115.6878889,https://maps.google.com/?cid=0x0:0x45ae05fd3c255c5a,
hardware store,Toko Bahan Bangunan,UD.RANGGA JAYA,"QM7J+83G, Barong Tongkok, Kec. Barong Tongkok, Kabupaten Kutai Barat, Kalimantan Timur 75777","Barong Tongkok, Kec. Barong Tongkok, Kabupaten Kutai Barat",KALIMANTAN TIMUR,75777.0,Indonesia, 082213176971,,,-0.2366808,115.6802117,https://maps.google.com/?cid=0x0:0x5fe3a4dff085eec0,
hardware store,Toko Bahan Bangunan,TB Ades,"QM8H+FC, Barong Tongkok, Kec. Barong Tongkok, Kabupaten Kutai Barat, Kalimantan Timur 75777","Barong Tongkok, Kec. Barong Tongkok, Kabupaten Kutai Barat",KALIMANTAN TIMUR,75777.0,Indonesia,,,,-0.2338527,115.6787318,https://maps.google.com/?cid=0x0:0x5a53e04c783c2014,
hardware store,Toko Komputer,IT Care Sendawar,"Sumber Bangun, Kec. Sekolaq Darat, Kabupaten Kutai Barat, Kalimantan Timur 75777","Kec. Sekolaq Darat, Kabupaten Kutai Barat",KALIMANTAN TIMUR,75777.0,Indonesia, 081347572987,,,-0.2465992,115.7308914,https://maps.google.com/?cid=0x0:0xad93d8b3ca9919ef,
hardware store,hardware store,Kalimantan Timur 75774,"Kabupaten Kutai Barat, Kalimantan Timur","Kabupaten Kutai Barat, Kalimantan Timur",KALIMANTAN TIMUR,,Indonesia,,,,-0.6090382,115.9467997,https://maps.google.com/?cid=0x0:0xafd22cb4e55c53b7,
hardware store,Toko,Toko MDA,"M3F3+WFM, Unnamed Road, Tj. Laong, Kec. Muara Pahu, Kabupaten Kutai Barat, Kalimantan Timur 75774","Unnamed Road, Tj. Laong, Kec. Muara Pahu, Kabupaten Kutai Barat",KALIMANTAN TIMUR,75774.0,Indonesia, 081349989575,,,-0.3251614,116.0536762,https://maps.google.com/?cid=0x0:0xce48d8d16fece697,
hardware store,Toko,Toko Rajawali Bangunan,"Jl. Lintas Kalimantan Poros Tengah, Pentat, Kec. Jempang, Kabupaten Kutai Barat, Kalimantan Timur 75773","Pentat, Kec. Jempang, Kabupaten Kutai Barat",KALIMANTAN TIMUR,75773.0,Indonesia, 081225533972,,,-0.573044,116.0930514,https://maps.google.com/?cid=0x0:0xb8f52ca2d1a240ca,
hardware store,Toko Bahan Bangunan,TOKO LATANSA BANGUNAN,"GQG4+VXG, Jl. Trans Kalimantan, pusung, Kec. Muara Lawa, Kabupaten Kutai Barat, Kalimantan Timur 75775","Jl. Trans Kalimantan, pusung, Kec. Muara Lawa, Kabupaten Kutai Barat",KALIMANTAN TIMUR,75775.0,Indonesia, 081367805201,,,-0.4728169,115.7574576,https://maps.google.com/?cid=0x0:0x7835ab17990aea06,
hardware store,hardware store,Kec. Tering,"Kabupaten Kutai Barat, Kalimantan Timur","Kabupaten Kutai Barat, Kalimantan Timur",KALIMANTAN TIMUR,,Indonesia,,,,-0.061932,115.6079488,https://maps.google.com/?cid=0x0:0x32b5206d9ce74464,
hardware store,Toko Fotokopi,TRISANDI FOTOCOPY,"RT.003, Muara Mujan, Kec. Tering, Kabupaten Kutai Barat, Kalimantan Timur 75566","Muara Mujan, Kec. Tering, Kabupaten Kutai Barat",KALIMANTAN TIMUR,75566.0,Indonesia, 082233116855,,,-0.0867698,115.5585564,https://maps.google.com/?cid=0x0:0xb5ce92d15c4218d7,
hardware store,Toko,UD Pisca Jaya,"VJ3H+3V6, Jl. Sengkereaq Dakaaq, Linggang Bigung, Kec. Linggang Bigung, Kabupaten Kutai Barat, Kalimantan Timur 75776","Jl. Sengkereaq Dakaaq, Linggang Bigung, Kec. Linggang Bigung, Kabupaten Kutai Barat",KALIMANTAN TIMUR,75776.0,Indonesia, 082254076670,,,-0.1473317,115.6296557,https://maps.google.com/?cid=0x0:0x860b957a7f4c8769,
hardware store,Toko Bahan Bangunan,Toko Bangunan Mas Wawan,"VM33+8PP, Linggang Amer, Kec. Linggang Bigung, Kabupaten Kutai Barat, Kalimantan Timur 75776","Linggang Amer, Kec. Linggang Bigung, Kabupaten Kutai Barat",KALIMANTAN TIMUR,75776.0,Indonesia, 083161074744,,,-0.146655,115.6543141,https://maps.google.com/?cid=0x0:0xaa686758d06014da,
hardware store,Toko Bahan Bangunan,TB. MITRA PAHARIN,"Jl. Diponegoro, rt2, Linggang Bigung, Kec. Linggang Bigung, Kabupaten Kutai Barat, Kalimantan Timur 75776","rt2, Linggang Bigung, Kec. Linggang Bigung, Kabupaten Kutai Barat",KALIMANTAN TIMUR,75776.0,Indonesia,,,,-0.1536046,115.6273618,https://maps.google.com/?cid=0x0:0x9a9dc5a172bce5e6,
hardware store,Toko Perlengkapan Rumah,UD. Syahir Profil,"Jl. Sengkereaq Egas, Purwodadi, Kec. Linggang Bigung, Kabupaten Kutai Barat, Kalimantan Timur 75776","Purwodadi, Kec. Linggang Bigung, Kabupaten Kutai Barat",KALIMANTAN TIMUR,75776.0,Indonesia, 082157557415,,,-0.149936,115.6110966,https://maps.google.com/?cid=0x0:0xc20710ec811ec038,
hardware store,Toko Bahan Bangunan,Toko Bangunan Chacink Jaya,"Jl.sengkereaq lacaq RT 003 RJXG+9M5, Linggang Bigung, Kec. Linggang Bigung, Kabupaten Kutai Barat, Kalimantan Timur 75776, Kabupaten Kutai Barat, Kalimantan Timur 75576","Linggang Bigung, Kec. Linggang Bigung, Kabupaten Kutai Barat, Kalimantan Timur",KALIMANTAN TIMUR,75776.0,Indonesia, 082258054746,,,-0.151025,115.6270346,https://maps.google.com/?cid=0x0:0x145a06b820c123d2,
hardware store,Toko Swalayan,Toko Hidayat Tering,"WJ5R+6FR, Jl. Sengkereaq Tadah, Purworejo, Kec. Tering, Kabupaten Kutai Barat, Kalimantan Timur 75776","Jl. Sengkereaq Tadah, Purworejo, Kec. Tering, Kabupaten Kutai Barat",KALIMANTAN TIMUR,75776.0,Indonesia,,,,-0.0918891,115.6411268,https://maps.google.com/?cid=0x0:0x59e0cb58ff72a64d,
hardware store,Toko Bahan Bangunan,Bralys Ace Hardware,"222 S Ragsdale St, Jacksonville, TX 75766, Amerika Serikat","Jacksonville, TX",KALIMANTAN TIMUR,75766.0,Indonesia, +19032842250,,,31.9635276,-95.2712609,https://maps.google.com/?cid=0x0:0x2755bd0032d52aca,
hardware store,Toko Bahan Bangunan,Heath  Heath Hardware Inc,"1411 E Rusk St, Jacksonville, TX 75766, Amerika Serikat","Jacksonville, TX",KALIMANTAN TIMUR,75766.0,Indonesia, +19035861163,,,31.9646619,-95.2537491,https://maps.google.com/?cid=0x0:0x4622291dca60ff30,
hardware store,Toko Bahan Bangunan,"Harry's Building Materials, Inc.","1062 N Jackson St, Jacksonville, TX 75766, Amerika Serikat","Jacksonville, TX",KALIMANTAN TIMUR,75766.0,Indonesia, +19035867548,,,31.9885924,-95.2732601,https://maps.google.com/?cid=0x0:0xd33a93cfe946f85e,
hardware store,Toko Bahan Bangunan,DyCo Hardware,"1000 Austin St, Jacksonville, TX 75766, Amerika Serikat","Jacksonville, TX",KALIMANTAN TIMUR,75766.0,Indonesia, +19034844210,,,31.9587189,-95.263975,https://maps.google.com/?cid=0x0:0xc845eb47af8c98c3,
hardware store,Toko Pakan Hewan,Tractor Supply Co.,"1626 S Jackson St, Jacksonville, TX 75766, Amerika Serikat","Jacksonville, TX",KALIMANTAN TIMUR,75766.0,Indonesia, +19035866343,,,31.9484723,-95.259726,https://maps.google.com/?cid=0x0:0x79795920e9ee437c,
