Category,Real Category,Business Name,Address,City,State,Postal Code,Country,Phone,Email,Website,Latitude,Longitude,Map Link,Details Link
hotel,hotel,Sulawesi Tenggara 93755,"Kabupaten Buton, Sulawesi Tenggara","Kabupaten Buton, Sulawesi Tenggara",SULAWESI TENGGARA,,Indonesia,,,,-5.2652803,122.831015,https://maps.google.com/?cid=0x0:0x698a3c90045603c1,
hotel,hotel,Calista Beach Hotel,"Jl. Yos Sudarso No.25, Wale, Kec. Wolio, Kota Bau-Bau, Sulawesi Tenggara 93711","Wale, Kec. Wolio, Kota Bau-Bau",SULAWESI TENGGARA,93711.0,Indonesia,4022823088.0,,,-5.4551628,122.6076955,https://maps.google.com/?cid=0x0:0xb6aa93333821debf,
hotel,hotel,ZENITH Premiere Hotel Baubau,"Jl. Pahlawan No.2, Batulo, Kec. Wolio, Kota Bau-Bau, Sulawesi Tenggara 93716","Batulo, Kec. Wolio, Kota Bau-Bau",SULAWESI TENGGARA,93716.0,Indonesia,4022818181.0,,,-5.4605781,122.6202256,https://maps.google.com/?cid=0x0:0x6804d2f2f593324b,
hotel,hotel,DJ Hotel,"Jl. Kantolalo Jl. By Pass Raha No.10, Kabupaten Muna, Sulawesi Tenggara 93611",Kabupaten Muna,SULAWESI TENGGARA,93611.0,Indonesia,85399838388.0,,,-4.8434231,122.7257284,https://maps.google.com/?cid=0x0:0xe5d2bc489ece3ef0,
hotel,hotel,THE GALTON HOTEL BAUBAU,"Jl. R.a. Kartini, Wale, Kec. Wolio, Kota Bau-Bau, Sulawesi Tenggara 93717","Wale, Kec. Wolio, Kota Bau-Bau",SULAWESI TENGGARA,93717.0,Indonesia,4022811272.0,,,-5.4562939,122.6078209,https://maps.google.com/?cid=0x0:0xe55e85708088710,
hotel,hotel,RedDoorz Near Lippo Plaza Buton,"Jl. Pahlawan, Kadolo, Kec. Kokalukuna, Kota Bau-Bau, Sulawesi Tenggara 93711","Kadolo, Kec. Kokalukuna, Kota Bau-Bau",SULAWESI TENGGARA,93711.0,Indonesia,895417300072.0,,,-5.4631502,122.6225948,https://maps.google.com/?cid=0x0:0x876b994274395f18,
hotel,hotel,RedDoorz @ Green Homestay Syariah Baubau,"Jl. Lakarambau, Lipu, Kec. Betoambari, Kota Bau-Bau, Sulawesi Tenggara 93724","Lipu, Kec. Betoambari, Kota Bau-Bau",SULAWESI TENGGARA,93724.0,Indonesia,895417300072.0,,,-5.4830603,122.581514,https://maps.google.com/?cid=0x0:0x416e2ec42c090538,
hotel,hotel,Hing Amimah Hotel,"Jl. Diponegoro No.16C, Batulo, Kec. Wolio, Kota Bau-Bau, Sulawesi Tenggara 93717","Batulo, Kec. Wolio, Kota Bau-Bau",SULAWESI TENGGARA,93717.0,Indonesia,895417300072.0,,,-5.460841,122.6150883,https://maps.google.com/?cid=0x0:0x207762f3208662ed,
hotel,hotel,Hotel Rosichan Bau-Bau,"Jl. Betoambari No.117, Lamangga, Kec. Murhum, Kota Bau-Bau, Sulawesi Tenggara 93713","Lamangga, Kec. Murhum, Kota Bau-Bau",SULAWESI TENGGARA,93713.0,Indonesia,895417300072.0,,,-5.465081,122.596467,https://maps.google.com/?cid=0x0:0x4b84b1a3577f7831,
hotel,hotel,Wisma Kahyangan,"Jl. Dr. Wahidin No.108, Lamangga, Kec. Murhum, Kota Bau-Bau, Sulawesi Tenggara 97000","Lamangga, Kec. Murhum, Kota Bau-Bau",SULAWESI TENGGARA,97000.0,Indonesia,81355508858.0,,,-5.4677596,122.5982659,https://maps.google.com/?cid=0x0:0x53ca2fa0026360b7,
hotel,hotel,RedDoorz @ Hotel Bravo Pantai Kamali Bau Bau,"Jl. Yos Sudarso No.19A, Wale, Kec. Wolio, Kota Bau-Bau, Sulawesi Tenggara 93717","Wale, Kec. Wolio, Kota Bau-Bau",SULAWESI TENGGARA,93717.0,Indonesia,895417300072.0,,,-5.4553279,122.6081926,https://maps.google.com/?cid=0x0:0x5149999a1bb19615,
hotel,hotel,Wisma Mulia,"Wale, Kec. Wolio, Kota Bau-Bau, Sulawesi Tenggara 93717","Kec. Wolio, Kota Bau-Bau",SULAWESI TENGGARA,93717.0,Indonesia,4022821673.0,,,-5.4557221,122.6074078,https://maps.google.com/?cid=0x0:0x6115dd3369632f34,
hotel,hotel,PENGINAPAN BINTANG TIMUR,"Jl. Kamali, Wale, Kec. Wolio, Kota Bau-Bau, Sulawesi Tenggara 93717","Wale, Kec. Wolio, Kota Bau-Bau",SULAWESI TENGGARA,93717.0,Indonesia,82294239246.0,,,-5.4562341,122.6070725,https://maps.google.com/?cid=0x0:0xdf2a93e9102410a8,
hotel,hotel,NES_inn HOTEL,"Jl. Paelangkuta, Watonea, Kec. Katobu, Kabupaten Muna, Sulawesi Tenggara 93614","Watonea, Kec. Katobu, Kabupaten Muna",SULAWESI TENGGARA,93614.0,Indonesia,82187555824.0,,,-4.8227413,122.7200858,https://maps.google.com/?cid=0x0:0x7cedade9a3c64d3f,
hotel,hotel,Lixxio Hotel,"Jl. Budi Utomo, Wangkanapi, Kec. Wolio, Kota Bau-Bau, Sulawesi Tenggara 93717","Wangkanapi, Kec. Wolio, Kota Bau-Bau",SULAWESI TENGGARA,93717.0,Indonesia,4022811575.0,,,-5.4666296,122.607907,https://maps.google.com/?cid=0x0:0xbf75eda8c5ed233d,
hotel,hotel,Hotel Galaxy Inn,"Jl. Budi Utomo No.71, Bataraguru, Kec. Wolio, Kota Bau-Bau, Sulawesi Tenggara 93717","Bataraguru, Kec. Wolio, Kota Bau-Bau",SULAWESI TENGGARA,93717.0,Indonesia,4022825003.0,,,-5.4666076,122.607875,https://maps.google.com/?cid=0x0:0x94aae5caad99a0ba,
hotel,hotel,Hotel Mira,"Jl. Mawar No.7, Sulawesi Tenggara 93716",Sulawesi Tenggara,SULAWESI TENGGARA,,Indonesia,4022822911.0,,,-5.4580111,122.6215632,https://maps.google.com/?cid=0x0:0xe1ed6673be7b57e7,
hotel,hotel,Grand Hanura Hotel,"Jl. Martadinata No.56, Batulo, Kec. Wolio, Kota Bau-Bau, Sulawesi Tenggara 93717","Batulo, Kec. Wolio, Kota Bau-Bau",SULAWESI TENGGARA,93717.0,Indonesia,4022816840.0,,,-5.4580701,122.6160526,https://maps.google.com/?cid=0x0:0xac93edfdae173f26,
hotel,hotel,Sunset Resort Hotel,"Jl. Poros Lakeba Sulaa, Katobengke, Kec. Betoambari, Kota Bau-Bau, Sulawesi Tenggara 93721","Katobengke, Kec. Betoambari, Kota Bau-Bau",SULAWESI TENGGARA,93721.0,Indonesia,2180629666.0,,,-5.4890938,122.5629603,https://maps.google.com/?cid=0x0:0x4a21a5e9622fc2e4,
hotel,hotel,Alia Hotel,"Jalan Jenderal Sudirman No.5, Raha, Katobu, Raha I, Kec. Katobu, Kabupaten Muna, Sulawesi Tenggara 93611","Raha, Katobu, Raha I, Kec. Katobu, Kabupaten Muna",SULAWESI TENGGARA,93611.0,Indonesia,4032521218.0,,,-4.8422645,122.7254741,https://maps.google.com/?cid=0x0:0x54eb0b2a130dc0b0,
hotel,hotel,THE BONTE HOTEL,"Jl. Budi Utomo No.1, Mataiwoi, Kec. Kadia, Kota Kendari, Sulawesi Tenggara","Kota Kendari, Sulawesi Tenggara",SULAWESI TENGGARA,,Indonesia,81356267213.0,,,-3.988472,122.5055925,https://maps.google.com/?cid=0x0:0x1674b5a580e0e1f9,
hotel,hotel,Hotel Qubah 9 Kendari,"Jl. Martandu No.99A, Kambu, Kec. Kambu, Kota Kendari, Sulawesi Tenggara 93231","Kambu, Kec. Kambu, Kota Kendari",SULAWESI TENGGARA,93231.0,Indonesia,4013136047.0,,,-4.0082509,122.5345007,https://maps.google.com/?cid=0x0:0x16da52124c17b9e7,
hotel,hotel,Athina Puncak Hotel  Resort,"GJMG+42J, Jl. Cendana, Kadolo, Kec. Kokalukuna, Kota Bau-Bau, Sulawesi Tenggara 93711","Jl. Cendana, Kadolo, Kec. Kokalukuna, Kota Bau-Bau",SULAWESI TENGGARA,93711.0,Indonesia,85241689034.0,,,-5.4671625,122.6250301,https://maps.google.com/?cid=0x0:0xfbecc0a711b2d55e,
hotel,hotel,Sunset Resort Hotel,"Jl. Poros Lakeba Sulaa, Katobengke, Kec. Betoambari, Kota Bau-Bau, Sulawesi Tenggara 93721","Katobengke, Kec. Betoambari, Kota Bau-Bau",SULAWESI TENGGARA,93721.0,Indonesia,2180629666.0,,,-5.4890938,122.5629603,https://maps.google.com/?cid=0x0:0x4a21a5e9622fc2e4,
hotel,Benteng,Benteng Keraton Kesultanan Buton (Negeri Khalifatul Khamis),"GJG2+4W6, Jl. Labuke, Melai, Kec. Murhum, Kota Bau-Bau, Sulawesi Tenggara 93713","Jl. Labuke, Melai, Kec. Murhum, Kota Bau-Bau",SULAWESI TENGGARA,93713.0,Indonesia,,,,-5.4747142,122.6022575,https://maps.google.com/?cid=0x0:0x8f61b1890873bf91,
hotel,Kantor Perusahaan,Bandara Betoambari Kota Bau-Bau,"Provinsi Kepulauan Buton, Katobengke, Kec. Betoambari, Kota Bau-Bau, Sulawesi Tenggara 93724","Katobengke, Kec. Betoambari, Kota Bau-Bau",SULAWESI TENGGARA,93724.0,Indonesia,,,,-5.4879963,122.5699863,https://maps.google.com/?cid=0x0:0x1ebd2b13ecd4148b,
hotel,hotel,Hotel Qubah 9 Kendari,"Jl. Martandu No.99A, Kambu, Kec. Kambu, Kota Kendari, Sulawesi Tenggara 93231","Kambu, Kec. Kambu, Kota Kendari",SULAWESI TENGGARA,93231.0,Indonesia,4013136047.0,,,-4.0082509,122.5345007,https://maps.google.com/?cid=0x0:0x16da52124c17b9e7,
hotel,hotel,Hotel Mulia Kendari,"Jl. Saranani No.95, Korumba, Kec. Mandonga, Kota Kendari, Sulawesi Tenggara 93461","Korumba, Kec. Mandonga, Kota Kendari",SULAWESI TENGGARA,93461.0,Indonesia,895417300072.0,,,-3.97062,122.5201697,https://maps.google.com/?cid=0x0:0x969a857d0b649ea9,
hotel,hotel,Hotel Debora,"JL. RA. Kartini No.15, Wale, Kec. Wolio, Kota Bau-Bau, Sulawesi Tenggara 93717","Wale, Kec. Wolio, Kota Bau-Bau",SULAWESI TENGGARA,93717.0,Indonesia,4022821203.0,,,-5.456677,122.6076848,https://maps.google.com/?cid=0x0:0xf9e8feba6879d2f3,
hotel,hotel,Hotel Fitriah,"Tomba, Kec. Wolio, Kota Bau-Bau, Sulawesi Tenggara 93717","Kec. Wolio, Kota Bau-Bau",SULAWESI TENGGARA,93717.0,Indonesia,82128006576.0,,,-5.4570398,122.6083308,https://maps.google.com/?cid=0x0:0x9607262ba1d2733,
hotel,hotel,Hotel Mutiara,"5PCG+QX3, Jl. Wamponiki 1, Butung-Butung, Kec. Katobu, Kabupaten Muna, Sulawesi Tenggara 93611","Jl. Wamponiki 1, Butung-Butung, Kec. Katobu, Kabupaten Muna",SULAWESI TENGGARA,93611.0,Indonesia,85255942333.0,,,-4.8281009,122.7274264,https://maps.google.com/?cid=0x0:0x802393a5ea8c1b3,
hotel,hotel,Mulya Wisma,"Jl. Tangkalawa No. 13, Lakudo Buton Tengah, Wongko Lakudo, Baubau, Kabupaten Buton, Sulawesi Tenggara 93763","Lakudo Buton Tengah, Wongko Lakudo, Baubau, Kabupaten Buton",SULAWESI TENGGARA,93763.0,Indonesia,81242713781.0,,,-5.3189168,122.5313996,https://maps.google.com/?cid=0x0:0x24cd137af11e95cf,
hotel,hotel,Wisma Mulia,"Wale, Kec. Wolio, Kota Bau-Bau, Sulawesi Tenggara 93717","Kec. Wolio, Kota Bau-Bau",SULAWESI TENGGARA,93717.0,Indonesia,4022821673.0,,,-5.4557221,122.6074078,https://maps.google.com/?cid=0x0:0x6115dd3369632f34,
hotel,hotel,Hotel Lakamali,"Jl. Betoambari, Lipu, Kec. Betoambari, Kota Bau-Bau, Sulawesi Tenggara 93724","Lipu, Kec. Betoambari, Kota Bau-Bau",SULAWESI TENGGARA,93724.0,Indonesia,4022825372.0,,,-5.4780945,122.5820218,https://maps.google.com/?cid=0x0:0xe2c9a292cf1a0c7f,
hotel,hotel,Kec. Lasalimu Sel.,"Kabupaten Buton, Sulawesi Tenggara","Kabupaten Buton, Sulawesi Tenggara",SULAWESI TENGGARA,,Indonesia,,,,-5.2517585,123.1595225,https://maps.google.com/?cid=0x0:0x43dc32910467e706,
hotel,Hotel bintang 3,Hotel Wakatobi,"M5H9+M6J, Jl. Irian, Ambuau Indah, Kec. Lasalimu Sel., Kabupaten Buton, Sulawesi Tenggara 93756","Jl. Irian, Ambuau Indah, Kec. Lasalimu Sel., Kabupaten Buton",SULAWESI TENGGARA,93756.0,Indonesia,,,,-5.3207807,123.1680109,https://maps.google.com/?cid=0x0:0x800ffe778347425d,
hotel,Rumah wisata,rumah ulfa,"M5P8+574, Ambuau Indah, Kec. Lasalimu Sel., Kabupaten Buton, Sulawesi Tenggara 93756","Ambuau Indah, Kec. Lasalimu Sel., Kabupaten Buton",SULAWESI TENGGARA,93756.0,Indonesia,,,,-5.3146108,123.1657178,https://maps.google.com/?cid=0x0:0x2ac653614a430ecd,
hotel,hotel,Mulya Wisma,"Jl. Tangkalawa No. 13, Lakudo Buton Tengah, Wongko Lakudo, Baubau, Kabupaten Buton, Sulawesi Tenggara 93763","Lakudo Buton Tengah, Wongko Lakudo, Baubau, Kabupaten Buton",SULAWESI TENGGARA,93763.0,Indonesia,81242713781.0,,,-5.3189168,122.5313996,https://maps.google.com/?cid=0x0:0x24cd137af11e95cf,
hotel,hotel,Kec. Ps. Wajo,"Kabupaten Buton, Sulawesi Tenggara","Kabupaten Buton, Sulawesi Tenggara",SULAWESI TENGGARA,,Indonesia,,,,-5.5143888,122.8408508,https://maps.google.com/?cid=0x0:0xd8cb6cdd80295dce,
hotel,hotel,Calista Beach Hotel,"Jl. Yos Sudarso No.25, Wale, Kec. Wolio, Kota Bau-Bau, Sulawesi Tenggara 93711","Wale, Kec. Wolio, Kota Bau-Bau",SULAWESI TENGGARA,93711.0,Indonesia,4022823088.0,,,-5.4551628,122.6076955,https://maps.google.com/?cid=0x0:0xb6aa93333821debf,
hotel,hotel,Kadena Glamping Dive Resort - Muna Island,"Jl. Poros Lombe No.Desa, RW.Kamama, Wakea Kea, Kec. Gu, Buton Tengah, Sulawesi Tenggara","Buton Tengah, Sulawesi Tenggara",SULAWESI TENGGARA,,Indonesia,81222777348.0,,,-5.3155071,122.6334774,https://maps.google.com/?cid=0x0:0xcdbf16bccf2ffd6a,
hotel,hotel,THE GALTON HOTEL BAUBAU,"Jl. R.a. Kartini, Wale, Kec. Wolio, Kota Bau-Bau, Sulawesi Tenggara 93717","Wale, Kec. Wolio, Kota Bau-Bau",SULAWESI TENGGARA,93717.0,Indonesia,4022811272.0,,,-5.4562939,122.6078209,https://maps.google.com/?cid=0x0:0xe55e85708088710,
hotel,hotel,Hing Amimah Hotel,"Jl. Diponegoro No.16C, Batulo, Kec. Wolio, Kota Bau-Bau, Sulawesi Tenggara 93717","Batulo, Kec. Wolio, Kota Bau-Bau",SULAWESI TENGGARA,93717.0,Indonesia,895417300072.0,,,-5.460841,122.6150883,https://maps.google.com/?cid=0x0:0x207762f3208662ed,
hotel,hotel,RedDoorz Near Lippo Plaza Buton,"Jl. Pahlawan, Kadolo, Kec. Kokalukuna, Kota Bau-Bau, Sulawesi Tenggara 93711","Kadolo, Kec. Kokalukuna, Kota Bau-Bau",SULAWESI TENGGARA,93711.0,Indonesia,895417300072.0,,,-5.4631502,122.6225948,https://maps.google.com/?cid=0x0:0x876b994274395f18,
hotel,hotel,Wisma Kahyangan,"Jl. Dr. Wahidin No.108, Lamangga, Kec. Murhum, Kota Bau-Bau, Sulawesi Tenggara 97000","Lamangga, Kec. Murhum, Kota Bau-Bau",SULAWESI TENGGARA,97000.0,Indonesia,81355508858.0,,,-5.4677596,122.5982659,https://maps.google.com/?cid=0x0:0x53ca2fa0026360b7,
hotel,hotel,PENGINAPAN BINTANG TIMUR,"Jl. Kamali, Wale, Kec. Wolio, Kota Bau-Bau, Sulawesi Tenggara 93717","Wale, Kec. Wolio, Kota Bau-Bau",SULAWESI TENGGARA,93717.0,Indonesia,82294239246.0,,,-5.4562341,122.6070725,https://maps.google.com/?cid=0x0:0xdf2a93e9102410a8,
hotel,hotel,Hotel Rosichan Bau-Bau,"Jl. Betoambari No.117, Lamangga, Kec. Murhum, Kota Bau-Bau, Sulawesi Tenggara 93713","Lamangga, Kec. Murhum, Kota Bau-Bau",SULAWESI TENGGARA,93713.0,Indonesia,895417300072.0,,,-5.465081,122.596467,https://maps.google.com/?cid=0x0:0x4b84b1a3577f7831,
hotel,hotel,RedDoorz @ Hotel Bravo Pantai Kamali Bau Bau,"Jl. Yos Sudarso No.19A, Wale, Kec. Wolio, Kota Bau-Bau, Sulawesi Tenggara 93717","Wale, Kec. Wolio, Kota Bau-Bau",SULAWESI TENGGARA,93717.0,Indonesia,895417300072.0,,,-5.4553279,122.6081926,https://maps.google.com/?cid=0x0:0x5149999a1bb19615,
hotel,hotel,Wisma Mulia,"Wale, Kec. Wolio, Kota Bau-Bau, Sulawesi Tenggara 93717","Kec. Wolio, Kota Bau-Bau",SULAWESI TENGGARA,93717.0,Indonesia,4022821673.0,,,-5.4557221,122.6074078,https://maps.google.com/?cid=0x0:0x6115dd3369632f34,
hotel,hotel,Lixxio Hotel,"Jl. Budi Utomo, Wangkanapi, Kec. Wolio, Kota Bau-Bau, Sulawesi Tenggara 93717","Wangkanapi, Kec. Wolio, Kota Bau-Bau",SULAWESI TENGGARA,93717.0,Indonesia,4022811575.0,,,-5.4666296,122.607907,https://maps.google.com/?cid=0x0:0xbf75eda8c5ed233d,
hotel,hotel,Athina Puncak Hotel  Resort,"GJMG+42J, Jl. Cendana, Kadolo, Kec. Kokalukuna, Kota Bau-Bau, Sulawesi Tenggara 93711","Jl. Cendana, Kadolo, Kec. Kokalukuna, Kota Bau-Bau",SULAWESI TENGGARA,93711.0,Indonesia,85241689034.0,,,-5.4671625,122.6250301,https://maps.google.com/?cid=0x0:0xfbecc0a711b2d55e,
hotel,hotel,RedDoorz near Pelabuhan Fery Bau Bau,"Jl. Martadinata No.56, Batulo, Kec. Wolio, Kota Bau-Bau, Sulawesi Tenggara 93717","Batulo, Kec. Wolio, Kota Bau-Bau",SULAWESI TENGGARA,93717.0,Indonesia,2180629666.0,,,-5.4580245,122.6159676,https://maps.google.com/?cid=0x0:0x56ebc374bc14a991,
hotel,hotel,Hotel Debora,"JL. RA. Kartini No.15, Wale, Kec. Wolio, Kota Bau-Bau, Sulawesi Tenggara 93717","Wale, Kec. Wolio, Kota Bau-Bau",SULAWESI TENGGARA,93717.0,Indonesia,4022821203.0,,,-5.456677,122.6076848,https://maps.google.com/?cid=0x0:0xf9e8feba6879d2f3,
hotel,hotel,Hotel Mira,"Jl. Mawar No.7, Sulawesi Tenggara 93716",Sulawesi Tenggara,SULAWESI TENGGARA,,Indonesia,4022822911.0,,,-5.4580111,122.6215632,https://maps.google.com/?cid=0x0:0xe1ed6673be7b57e7,
hotel,hotel,Grand Hanura Hotel,"Jl. Martadinata No.56, Batulo, Kec. Wolio, Kota Bau-Bau, Sulawesi Tenggara 93717","Batulo, Kec. Wolio, Kota Bau-Bau",SULAWESI TENGGARA,93717.0,Indonesia,4022816840.0,,,-5.4580701,122.6160526,https://maps.google.com/?cid=0x0:0xac93edfdae173f26,
hotel,hotel,Hotel Galaxy Inn,"Jl. Budi Utomo No.71, Bataraguru, Kec. Wolio, Kota Bau-Bau, Sulawesi Tenggara 93717","Bataraguru, Kec. Wolio, Kota Bau-Bau",SULAWESI TENGGARA,93717.0,Indonesia,4022825003.0,,,-5.4666076,122.607875,https://maps.google.com/?cid=0x0:0x94aae5caad99a0ba,
hotel,hotel,Villa The View (0821-6409-4926),"Kadolo, Kec. Kokalukuna, Kota Bau-Bau, Sulawesi Tenggara 93716","Kec. Kokalukuna, Kota Bau-Bau",SULAWESI TENGGARA,93716.0,Indonesia,82164094926.0,,,-5.4636652,122.6191307,https://maps.google.com/?cid=0x0:0x3fc9dbd16a4d85a8,
hotel,hotel,BRAVO Hotel,"Jl. Yos Sudarso No.19 A, Wale, Kec. Wolio, Kota Bau-Bau, Sulawesi Tenggara 93711","Wale, Kec. Wolio, Kota Bau-Bau",SULAWESI TENGGARA,93711.0,Indonesia,82393512288.0,,,-5.455327,122.608185,https://maps.google.com/?cid=0x0:0x1121e149f74e5d6,
hotel,hotel,Hotel Ratu Rajawali,"Jl. Sultan Hasanuddin No.69, Batulo, Kec. Wolio, Kota Bau-Bau, Sulawesi Tenggara 93716","Batulo, Kec. Wolio, Kota Bau-Bau",SULAWESI TENGGARA,93716.0,Indonesia,82279281359.0,,,-5.4600121,122.6200294,https://maps.google.com/?cid=0x0:0x5639f99b686f2adb,
hotel,hotel,Calista Beach Hotel,"Jl. Yos Sudarso No.25, Wale, Kec. Wolio, Kota Bau-Bau, Sulawesi Tenggara 93711","Wale, Kec. Wolio, Kota Bau-Bau",SULAWESI TENGGARA,93711.0,Indonesia,4022823088.0,,,-5.4551628,122.6076955,https://maps.google.com/?cid=0x0:0xb6aa93333821debf,
hotel,hotel,ZENITH Premiere Hotel Baubau,"Jl. Pahlawan No.2, Batulo, Kec. Wolio, Kota Bau-Bau, Sulawesi Tenggara 93716","Batulo, Kec. Wolio, Kota Bau-Bau",SULAWESI TENGGARA,93716.0,Indonesia,4022818181.0,,,-5.4605781,122.6202256,https://maps.google.com/?cid=0x0:0x6804d2f2f593324b,
hotel,hotel,RedDoorz @ Green Homestay Syariah Baubau,"Jl. Lakarambau, Lipu, Kec. Betoambari, Kota Bau-Bau, Sulawesi Tenggara 93724","Lipu, Kec. Betoambari, Kota Bau-Bau",SULAWESI TENGGARA,93724.0,Indonesia,895417300072.0,,,-5.4830603,122.581514,https://maps.google.com/?cid=0x0:0x416e2ec42c090538,
hotel,hotel,BRAVO Hotel,"Jl. Yos Sudarso No.19 A, Wale, Kec. Wolio, Kota Bau-Bau, Sulawesi Tenggara 93711","Wale, Kec. Wolio, Kota Bau-Bau",SULAWESI TENGGARA,93711.0,Indonesia,82393512288.0,,,-5.455327,122.608185,https://maps.google.com/?cid=0x0:0x1121e149f74e5d6,
hotel,Benteng,Benteng Keraton Kesultanan Buton (Negeri Khalifatul Khamis),"GJG2+4W6, Jl. Labuke, Melai, Kec. Murhum, Kota Bau-Bau, Sulawesi Tenggara 93713","Jl. Labuke, Melai, Kec. Murhum, Kota Bau-Bau",SULAWESI TENGGARA,93713.0,Indonesia,,,,-5.4747142,122.6022575,https://maps.google.com/?cid=0x0:0x8f61b1890873bf91,
hotel,Hotel,Findi Hotel,"MGGQ+JJ9, Jl. Gersamata, Lakudo, Kec. Lakudo, Kabupaten Buton, Sulawesi Tenggara 93763","Jl. Gersamata, Lakudo, Kec. Lakudo, Kabupaten Buton",SULAWESI TENGGARA,93763.0,Indonesia,,,,-5.3234694,122.5391201,https://maps.google.com/?cid=0x0:0x9046350efa4256c0,
hotel,Hotel,Hotel Gulado Resort - Lakudo,"MGJM+JW2, Wongko Lakudo, Kec. Lakudo, Kabupaten Buton, Sulawesi Tenggara 93763","Wongko Lakudo, Kec. Lakudo, Kabupaten Buton",SULAWESI TENGGARA,93763.0,Indonesia,,,,-5.3184816,122.534774,https://maps.google.com/?cid=0x0:0xd37b4e5eb624f0cc,
hotel,hotel,Siontapina,"Kec. Lasalimu Sel., Kabupaten Buton, Sulawesi Tenggara","Kabupaten Buton, Sulawesi Tenggara",SULAWESI TENGGARA,,Indonesia,,,,-5.3242312,123.1182806,https://maps.google.com/?cid=0x0:0x7d394a4da9627623,
hotel,hotel,PT Fadlan Mulia jaya,"HXW7+M35, Jalan Tambang Morosi, Puuruy, Matawia, Kec. Wolowa, Kabupaten Konawe, Sulawesi Tenggara 93754","Jalan Tambang Morosi, Puuruy, Matawia, Kec. Wolowa, Kabupaten Konawe",SULAWESI TENGGARA,93754.0,Indonesia,,,,-5.4033664,122.9627274,https://maps.google.com/?cid=0x0:0x546d29a033d07fc,
hotel,hotel,Kec. Wolowa,"Kabupaten Buton, Sulawesi Tenggara","Kabupaten Buton, Sulawesi Tenggara",SULAWESI TENGGARA,,Indonesia,,,,-5.4247226,122.9313886,https://maps.google.com/?cid=0x0:0xa030da8146f922b1,
hotel,hotel,Hotel Mulia Kendari,"Jl. Saranani No.95, Korumba, Kec. Mandonga, Kota Kendari, Sulawesi Tenggara 93461","Korumba, Kec. Mandonga, Kota Kendari",SULAWESI TENGGARA,93461.0,Indonesia,895417300072.0,,,-3.97062,122.5201697,https://maps.google.com/?cid=0x0:0x969a857d0b649ea9,
hotel,hotel,Hotel Dewa Bintang 2,"Jl. Tebaonunggu No.17, Mandonga, Kec. Kendari, Kota Kendari, Sulawesi Tenggara 93111","Mandonga, Kec. Kendari, Kota Kendari",SULAWESI TENGGARA,93111.0,Indonesia,4013126799.0,,,-3.9651662,122.517495,https://maps.google.com/?cid=0x0:0x6a608f24d97621c5,
hotel,hotel,Hotel Viranza,"Jl. Made Sabara, Korumba, Kec. Mandonga, Kota Kendari, Sulawesi Tenggara 93111","Korumba, Kec. Mandonga, Kota Kendari",SULAWESI TENGGARA,93111.0,Indonesia,,,,-3.9745281,122.519844,https://maps.google.com/?cid=0x0:0xee5821e616c83bbf,
hotel,hotel,Nugraha Hotel,"Jl. Inowa No. 57, Puunaaha, Unaaha, Tumpas, Kec. Konawe, Kabupaten Konawe, Sulawesi Tenggara 93415","Puunaaha, Unaaha, Tumpas, Kec. Konawe, Kabupaten Konawe",SULAWESI TENGGARA,93415.0,Indonesia,4082424545.0,,,-3.8632878,122.0419516,https://maps.google.com/?cid=0x0:0x51ee32fb330f7eae,
hotel,hotel,Hotel Wahyu JS,"XG93+5WV, Lepo-Lepo, Kec. Baruga, Kota Kendari, Sulawesi Tenggara 93116","Lepo-Lepo, Kec. Baruga, Kota Kendari",SULAWESI TENGGARA,93116.0,Indonesia,81217006785.0,,,-4.0320082,122.5048076,https://maps.google.com/?cid=0x0:0x73602cbabc86b744,
hotel,hotel,Mulya Wisma,"Jl. Tangkalawa No. 13, Lakudo Buton Tengah, Wongko Lakudo, Baubau, Kabupaten Buton, Sulawesi Tenggara 93763","Lakudo Buton Tengah, Wongko Lakudo, Baubau, Kabupaten Buton",SULAWESI TENGGARA,93763.0,Indonesia,81242713781.0,,,-5.3189168,122.5313996,https://maps.google.com/?cid=0x0:0x24cd137af11e95cf,
hotel,hotel,Hotel Mutiara,"5PCG+QX3, Jl. Wamponiki 1, Butung-Butung, Kec. Katobu, Kabupaten Muna, Sulawesi Tenggara 93611","Jl. Wamponiki 1, Butung-Butung, Kec. Katobu, Kabupaten Muna",SULAWESI TENGGARA,93611.0,Indonesia,85255942333.0,,,-4.8281009,122.7274264,https://maps.google.com/?cid=0x0:0x802393a5ea8c1b3,
hotel,hotel,Sulawesi Tenggara 93754,"Kabupaten Buton, Sulawesi Tenggara","Kabupaten Buton, Sulawesi Tenggara",SULAWESI TENGGARA,,Indonesia,,,,-5.4060758,122.8761309,https://maps.google.com/?cid=0x0:0x59c5abb5b91bda19,
hotel,hotel,ZENITH Premiere Hotel Baubau,"Jl. Pahlawan No.2, Batulo, Kec. Wolio, Kota Bau-Bau, Sulawesi Tenggara 93716","Batulo, Kec. Wolio, Kota Bau-Bau",SULAWESI TENGGARA,93716.0,Indonesia,4022818181.0,,,-5.4605781,122.6202256,https://maps.google.com/?cid=0x0:0x6804d2f2f593324b,
hotel,hotel,Calista Beach Hotel,"Jl. Yos Sudarso No.25, Wale, Kec. Wolio, Kota Bau-Bau, Sulawesi Tenggara 93711","Wale, Kec. Wolio, Kota Bau-Bau",SULAWESI TENGGARA,93711.0,Indonesia,4022823088.0,,,-5.4551628,122.6076955,https://maps.google.com/?cid=0x0:0xb6aa93333821debf,
hotel,hotel,THE GALTON HOTEL BAUBAU,"Jl. R.a. Kartini, Wale, Kec. Wolio, Kota Bau-Bau, Sulawesi Tenggara 93717","Wale, Kec. Wolio, Kota Bau-Bau",SULAWESI TENGGARA,93717.0,Indonesia,4022811272.0,,,-5.4562939,122.6078209,https://maps.google.com/?cid=0x0:0xe55e85708088710,
hotel,hotel,RedDoorz @ Green Homestay Syariah Baubau,"Jl. Lakarambau, Lipu, Kec. Betoambari, Kota Bau-Bau, Sulawesi Tenggara 93724","Lipu, Kec. Betoambari, Kota Bau-Bau",SULAWESI TENGGARA,93724.0,Indonesia,895417300072.0,,,-5.4830603,122.581514,https://maps.google.com/?cid=0x0:0x416e2ec42c090538,
hotel,hotel,RedDoorz Near Lippo Plaza Buton,"Jl. Pahlawan, Kadolo, Kec. Kokalukuna, Kota Bau-Bau, Sulawesi Tenggara 93711","Kadolo, Kec. Kokalukuna, Kota Bau-Bau",SULAWESI TENGGARA,93711.0,Indonesia,895417300072.0,,,-5.4631502,122.6225948,https://maps.google.com/?cid=0x0:0x876b994274395f18,
hotel,hotel,Wisma Mulia,"Wale, Kec. Wolio, Kota Bau-Bau, Sulawesi Tenggara 93717","Kec. Wolio, Kota Bau-Bau",SULAWESI TENGGARA,93717.0,Indonesia,4022821673.0,,,-5.4557221,122.6074078,https://maps.google.com/?cid=0x0:0x6115dd3369632f34,
hotel,hotel,RedDoorz @ Hotel Bravo Pantai Kamali Bau Bau,"Jl. Yos Sudarso No.19A, Wale, Kec. Wolio, Kota Bau-Bau, Sulawesi Tenggara 93717","Wale, Kec. Wolio, Kota Bau-Bau",SULAWESI TENGGARA,93717.0,Indonesia,895417300072.0,,,-5.4553279,122.6081926,https://maps.google.com/?cid=0x0:0x5149999a1bb19615,
hotel,hotel,PENGINAPAN BINTANG TIMUR,"Jl. Kamali, Wale, Kec. Wolio, Kota Bau-Bau, Sulawesi Tenggara 93717","Wale, Kec. Wolio, Kota Bau-Bau",SULAWESI TENGGARA,93717.0,Indonesia,82294239246.0,,,-5.4562341,122.6070725,https://maps.google.com/?cid=0x0:0xdf2a93e9102410a8,
hotel,hotel,Wisma Kahyangan,"Jl. Dr. Wahidin No.108, Lamangga, Kec. Murhum, Kota Bau-Bau, Sulawesi Tenggara 97000","Lamangga, Kec. Murhum, Kota Bau-Bau",SULAWESI TENGGARA,97000.0,Indonesia,81355508858.0,,,-5.4677596,122.5982659,https://maps.google.com/?cid=0x0:0x53ca2fa0026360b7,
hotel,hotel,Hing Amimah Hotel,"Jl. Diponegoro No.16C, Batulo, Kec. Wolio, Kota Bau-Bau, Sulawesi Tenggara 93717","Batulo, Kec. Wolio, Kota Bau-Bau",SULAWESI TENGGARA,93717.0,Indonesia,895417300072.0,,,-5.460841,122.6150883,https://maps.google.com/?cid=0x0:0x207762f3208662ed,
hotel,hotel,Lixxio Hotel,"Jl. Budi Utomo, Wangkanapi, Kec. Wolio, Kota Bau-Bau, Sulawesi Tenggara 93717","Wangkanapi, Kec. Wolio, Kota Bau-Bau",SULAWESI TENGGARA,93717.0,Indonesia,4022811575.0,,,-5.4666296,122.607907,https://maps.google.com/?cid=0x0:0xbf75eda8c5ed233d,
hotel,hotel,Hotel Rosichan Bau-Bau,"Jl. Betoambari No.117, Lamangga, Kec. Murhum, Kota Bau-Bau, Sulawesi Tenggara 93713","Lamangga, Kec. Murhum, Kota Bau-Bau",SULAWESI TENGGARA,93713.0,Indonesia,895417300072.0,,,-5.465081,122.596467,https://maps.google.com/?cid=0x0:0x4b84b1a3577f7831,
hotel,hotel,Hotel Galaxy Inn,"Jl. Budi Utomo No.71, Bataraguru, Kec. Wolio, Kota Bau-Bau, Sulawesi Tenggara 93717","Bataraguru, Kec. Wolio, Kota Bau-Bau",SULAWESI TENGGARA,93717.0,Indonesia,4022825003.0,,,-5.4666076,122.607875,https://maps.google.com/?cid=0x0:0x94aae5caad99a0ba,
hotel,hotel,Nirwana Buton Villa,"Jalan Dayanu Ikhsanuddin, Sulla - Betoambari, Sulaa, Kec. Betoambari, Kota Bau-Bau, Sulawesi Tenggara","Kota Bau-Bau, Sulawesi Tenggara",SULAWESI TENGGARA,,Indonesia,82395399962.0,,,-5.521921,122.565666,https://maps.google.com/?cid=0x0:0x9b537d4c9b6ad161,
hotel,hotel,Sunset Resort Hotel,"Jl. Poros Lakeba Sulaa, Katobengke, Kec. Betoambari, Kota Bau-Bau, Sulawesi Tenggara 93721","Katobengke, Kec. Betoambari, Kota Bau-Bau",SULAWESI TENGGARA,93721.0,Indonesia,2180629666.0,,,-5.4890938,122.5629603,https://maps.google.com/?cid=0x0:0x4a21a5e9622fc2e4,
hotel,hotel,Hotel Mira,"Jl. Mawar No.7, Sulawesi Tenggara 93716",Sulawesi Tenggara,SULAWESI TENGGARA,,Indonesia,4022822911.0,,,-5.4580111,122.6215632,https://maps.google.com/?cid=0x0:0xe1ed6673be7b57e7,
hotel,hotel,BRAVO Hotel,"Jl. Yos Sudarso No.19 A, Wale, Kec. Wolio, Kota Bau-Bau, Sulawesi Tenggara 93711","Wale, Kec. Wolio, Kota Bau-Bau",SULAWESI TENGGARA,93711.0,Indonesia,82393512288.0,,,-5.455327,122.608185,https://maps.google.com/?cid=0x0:0x1121e149f74e5d6,
hotel,hotel,Athina Puncak Hotel  Resort,"GJMG+42J, Jl. Cendana, Kadolo, Kec. Kokalukuna, Kota Bau-Bau, Sulawesi Tenggara 93711","Jl. Cendana, Kadolo, Kec. Kokalukuna, Kota Bau-Bau",SULAWESI TENGGARA,93711.0,Indonesia,85241689034.0,,,-5.4671625,122.6250301,https://maps.google.com/?cid=0x0:0xfbecc0a711b2d55e,
hotel,hotel,Hotel Lakamali,"Jl. Betoambari, Lipu, Kec. Betoambari, Kota Bau-Bau, Sulawesi Tenggara 93724","Lipu, Kec. Betoambari, Kota Bau-Bau",SULAWESI TENGGARA,93724.0,Indonesia,4022825372.0,,,-5.4780945,122.5820218,https://maps.google.com/?cid=0x0:0xe2c9a292cf1a0c7f,
hotel,hotel,Kec. Wabula,"Kabupaten Buton, Sulawesi Tenggara","Kabupaten Buton, Sulawesi Tenggara",SULAWESI TENGGARA,,Indonesia,,,,-5.6077445,122.8594298,https://maps.google.com/?cid=0x0:0x7bb47d4b468e4d89,
hotel,hotel,THE BONTE HOTEL,"Jl. Budi Utomo No.1, Mataiwoi, Kec. Kadia, Kota Kendari, Sulawesi Tenggara","Kota Kendari, Sulawesi Tenggara",SULAWESI TENGGARA,,Indonesia,81356267213.0,,,-3.988472,122.5055925,https://maps.google.com/?cid=0x0:0x1674b5a580e0e1f9,
hotel,hotel,Hotel Qubah 9 Kendari,"Jl. Martandu No.99A, Kambu, Kec. Kambu, Kota Kendari, Sulawesi Tenggara 93231","Kambu, Kec. Kambu, Kota Kendari",SULAWESI TENGGARA,93231.0,Indonesia,4013136047.0,,,-4.0082509,122.5345007,https://maps.google.com/?cid=0x0:0x16da52124c17b9e7,
hotel,hotel,Hotel Mulia Kendari,"Jl. Saranani No.95, Korumba, Kec. Mandonga, Kota Kendari, Sulawesi Tenggara 93461","Korumba, Kec. Mandonga, Kota Kendari",SULAWESI TENGGARA,93461.0,Indonesia,895417300072.0,,,-3.97062,122.5201697,https://maps.google.com/?cid=0x0:0x969a857d0b649ea9,
hotel,hotel,Hotel Wixel,"Jl. Edi Sabara, Lahundape, Kec. Kendari Bar., Kota Kendari, Sulawesi Tenggara 93121","Lahundape, Kec. Kendari Bar., Kota Kendari",SULAWESI TENGGARA,93121.0,Indonesia,4013367789.0,,,-3.9683395,122.5311781,https://maps.google.com/?cid=0x0:0x44afc4fbdf6300cb,
hotel,hotel,Hotel Dewa Bintang 2,"Jl. Tebaonunggu No.17, Mandonga, Kec. Kendari, Kota Kendari, Sulawesi Tenggara 93111","Mandonga, Kec. Kendari, Kota Kendari",SULAWESI TENGGARA,93111.0,Indonesia,4013126799.0,,,-3.9651662,122.517495,https://maps.google.com/?cid=0x0:0x6a608f24d97621c5,
hotel,hotel,Ar'Rafif Hotel,"Jl. Wa Opu Lessa No. 26 Pongo I, Mandati II, Kec. Wangi-Wangi, Kabupaten Wakatobi, Sulawesi Tenggara 93791","Mandati II, Kec. Wangi-Wangi, Kabupaten Wakatobi",SULAWESI TENGGARA,93791.0,Indonesia,85299345749.0,,,-5.3260519,123.5383135,https://maps.google.com/?cid=0x0:0x971a767b2d407a2d,
hotel,hotel,Hotel Viranza,"Jl. Made Sabara, Korumba, Kec. Mandonga, Kota Kendari, Sulawesi Tenggara 93111","Korumba, Kec. Mandonga, Kota Kendari",SULAWESI TENGGARA,93111.0,Indonesia,,,,-3.9745281,122.519844,https://maps.google.com/?cid=0x0:0xee5821e616c83bbf,
hotel,hotel,Hotel Cempaka,"Jl. Bunga Tj. No.101, Watu-Watu, Kec. Kendari Bar., Kota Kendari, Sulawesi Tenggara 93873","Watu-Watu, Kec. Kendari Bar., Kota Kendari",SULAWESI TENGGARA,93873.0,Indonesia,,,,-3.9642101,122.542674,https://maps.google.com/?cid=0x0:0xca7fe20f7976380c,
hotel,hotel,Hotel Debora,"JL. RA. Kartini No.15, Wale, Kec. Wolio, Kota Bau-Bau, Sulawesi Tenggara 93717","Wale, Kec. Wolio, Kota Bau-Bau",SULAWESI TENGGARA,93717.0,Indonesia,4022821203.0,,,-5.456677,122.6076848,https://maps.google.com/?cid=0x0:0xf9e8feba6879d2f3,
hotel,hotel,Hotel Mutiara,"5PCG+QX3, Jl. Wamponiki 1, Butung-Butung, Kec. Katobu, Kabupaten Muna, Sulawesi Tenggara 93611","Jl. Wamponiki 1, Butung-Butung, Kec. Katobu, Kabupaten Muna",SULAWESI TENGGARA,93611.0,Indonesia,85255942333.0,,,-4.8281009,122.7274264,https://maps.google.com/?cid=0x0:0x802393a5ea8c1b3,
hotel,Rumah wisata,Khumairah Home Stay,"9RFR+8JR, Wasuemba, Kec. Wabula, Kabupaten Buton, Sulawesi Tenggara","Kabupaten Buton, Sulawesi Tenggara",SULAWESI TENGGARA,,Indonesia,,,,-5.6265656,122.8424186,https://maps.google.com/?cid=0x0:0xda5adfbf1166b8e6,
hotel,Hotel,Hotel Buton raya,"FRQR+PJX, Banabungi, Kec. Ps. Wajo, Kabupaten Buton, Sulawesi Tenggara 93754","Banabungi, Kec. Ps. Wajo, Kabupaten Buton",SULAWESI TENGGARA,93754.0,Indonesia,,,,-5.5106461,122.8416016,https://maps.google.com/?cid=0x0:0x98c160734a3b8ed9,
hotel,Hotel,Hotel HANY,"Banabungi, Kec. Ps. Wajo, Kabupaten Buton, Sulawesi Tenggara 93754","Kec. Ps. Wajo, Kabupaten Buton",SULAWESI TENGGARA,93754.0,Indonesia,81354448020.0,,,-5.5095481,122.8416974,https://maps.google.com/?cid=0x0:0x5e99bcf110a0a92d,
hotel,Rumah wisata,Rumah Radit,"9RGV+FW, Wasuemba, Kec. Wabula, Kabupaten Buton, Sulawesi Tenggara","Kabupaten Buton, Sulawesi Tenggara",SULAWESI TENGGARA,,Indonesia,,,,-5.6230615,122.8451531,https://maps.google.com/?cid=0x0:0xcc0e90956efbd3ea,
hotel,Hotel,Hotel Asa Atas,"FRQR+RPX, Banabungi, Kec. Ps. Wajo, Kabupaten Buton, Sulawesi Tenggara 93754","Banabungi, Kec. Ps. Wajo, Kabupaten Buton",SULAWESI TENGGARA,93754.0,Indonesia,,,,-5.5103798,122.8418548,https://maps.google.com/?cid=0x0:0xecd6002cd6c20c4a,
restaurant,restaurant,Sulawesi Tenggara 93755,"Kabupaten Buton, Sulawesi Tenggara","Kabupaten Buton, Sulawesi Tenggara",SULAWESI TENGGARA,,Indonesia,,,,-5.2652803,122.831015,https://maps.google.com/?cid=0x0:0x698a3c90045603c1,
restaurant,Restoran,Rumah Makan Liangkamoi,"QRWQ+WFJ, Wakangka, Kec. Kapontori, Kabupaten Buton, Sulawesi Tenggara 93755","Wakangka, Kec. Kapontori, Kabupaten Buton",SULAWESI TENGGARA,93755.0,Indonesia,,,,-5.2026502,122.8386494,https://maps.google.com/?cid=0x0:0x97bfffd00e6eafc4,
restaurant,Rumah Makan,Rumah Makan Gunung Wawompu,"QRWR+XPR, Jl. Inaoce, Wakangka, Kec. Kapontori, Kabupaten Buton, Sulawesi Tenggara 93755","Jl. Inaoce, Wakangka, Kec. Kapontori, Kabupaten Buton",SULAWESI TENGGARA,93755.0,Indonesia,,,,-5.2025058,122.8417658,https://maps.google.com/?cid=0x0:0x2880388475f3e6af,
restaurant,Area Mendaki,Kedai Puncak 53,"RR2Q+C24, Wakangka, Kec. Kapontori, Kabupaten Buton, Sulawesi Tenggara 93755","Wakangka, Kec. Kapontori, Kabupaten Buton",SULAWESI TENGGARA,93755.0,Indonesia,85241518293.0,,,-5.1989787,122.8375859,https://maps.google.com/?cid=0x0:0xd458a89eae6db064,
restaurant,Titik Pemandangan,Rest Area Tumada,"VQQP+9WP, Jalan, Bataraguru, Liwumetingki, Muna Regency, South East Sulawesi 93755","Jalan, Bataraguru, Liwumetingki, Muna Regency",SULAWESI TENGGARA,93755.0,Indonesia,,,,-5.1115452,122.7873172,https://maps.google.com/?cid=0x0:0xec2829bcf643346,
restaurant,Restoran,Warung Makan Nanda,"PPG5+9XG, Barangka, Kec. Kapontori, Kabupaten Buton, Sulawesi Tenggara 93755","Barangka, Kec. Kapontori, Kabupaten Buton",SULAWESI TENGGARA,93755.0,Indonesia,,,,-5.2740685,122.7099442,https://maps.google.com/?cid=0x0:0x34234f0003ac6b3c,
restaurant,Restoran,Rumah Makan Mama Yanti,"QRWP+J5C, Jl. Inaoce, Wakangka, Kec. Kapontori, Kabupaten Buton, Sulawesi Tenggara 93755","Jl. Inaoce, Wakangka, Kec. Kapontori, Kabupaten Buton",SULAWESI TENGGARA,93755.0,Indonesia,,,,-5.2034302,122.8353905,https://maps.google.com/?cid=0x0:0xc0a40fd1362f879b,
restaurant,Restoran,Rm. Safana,"PPG5+MX8, Jl. Anoa, Mabulugo, Kec. Kapontori, Kabupaten Buton, Sulawesi Tenggara 93755","Jl. Anoa, Mabulugo, Kec. Kapontori, Kabupaten Buton",SULAWESI TENGGARA,93755.0,Indonesia,,,,-5.2733451,122.7099394,https://maps.google.com/?cid=0x0:0x92b66e83eccecb97,
restaurant,Rumah Makan,Rumah Makan Barokah,"PPRR+HPG, Boneatiro, Kec. Kapontori, Kabupaten Buton, Sulawesi Tenggara 93755","Boneatiro, Kec. Kapontori, Kabupaten Buton",SULAWESI TENGGARA,93755.0,Indonesia,,,,-5.2585593,122.7418411,https://maps.google.com/?cid=0x0:0x347d656d9181e1fc,
restaurant,Makanan Kecil,Kios Mita,"PPF5+GPV, Jl. Anoa, Barangka, Kec. Kapontori, Kabupaten Buton, Sulawesi Tenggara 93755","Jl. Anoa, Barangka, Kec. Kapontori, Kabupaten Buton",SULAWESI TENGGARA,93755.0,Indonesia,,,,-5.2761404,122.7092936,https://maps.google.com/?cid=0x0:0x18a15de881100b17,
restaurant,Rumah Makan,Rumah Makan Sederhana Wakangka,"QRVJ+R75, Jl. Poros Kapontori, Wakangka, Kec. Kapontori, Kabupaten Buton, Sulawesi Tenggara 93755","Jl. Poros Kapontori, Wakangka, Kec. Kapontori, Kabupaten Buton",SULAWESI TENGGARA,93755.0,Indonesia,,,,-5.2054897,122.8307326,https://maps.google.com/?cid=0x0:0x5bd2cdab6a695c4c,
restaurant,Restoran,Rumah Makan MAMA WARDA,"QRJC+R8P, Jl. Poros Kapontori, Watumotobe, Kec. Kapontori, Kabupaten Buton, Sulawesi Tenggara 93755","Jl. Poros Kapontori, Watumotobe, Kec. Kapontori, Kabupaten Buton",SULAWESI TENGGARA,93755.0,Indonesia,,,,-5.2179183,122.8208276,https://maps.google.com/?cid=0x0:0xd62c853a567e6e10,
restaurant,Restoran,Rumah Makan Dua Putri Puncak Tumada,"VQQP+7WG, Tumada, Kec. Kapontori, Kabupaten Buton, Sulawesi Tenggara 93755","Tumada, Kec. Kapontori, Kabupaten Buton",SULAWESI TENGGARA,93755.0,Indonesia,82248888746.0,,,-5.1117501,122.7873183,https://maps.google.com/?cid=0x0:0x287311234f165156,
restaurant,Restoran,Warung Makan Mama Ikke,"QRVJ+X94, Jl. Inaoce, Wakangka, Kec. Kapontori, Kabupaten Buton, Sulawesi Tenggara 93755","Jl. Inaoce, Wakangka, Kec. Kapontori, Kabupaten Buton",SULAWESI TENGGARA,93755.0,Indonesia,,,,-5.2051014,122.8309587,https://maps.google.com/?cid=0x0:0x4bb2a809e3c99815,
restaurant,Restoran,RM. WANGI-WANGI BUTON,"GR7W+PRM, Saragi, Kec. Ps. Wajo, Kabupaten Buton, Sulawesi Tenggara","Kabupaten Buton, Sulawesi Tenggara",SULAWESI TENGGARA,,Indonesia,85394502156.0,,,-5.4856673,122.8470444,https://maps.google.com/?cid=0x0:0xa14e35b8964e0505,
restaurant,Restoran,Rumah Makan Wisata,"FRVV+FXC, Jl, Pasar Wajo, Buton Regency, South East Sulawesi","Kabupaten Buton, Sulawesi Tenggara",SULAWESI TENGGARA,,Indonesia,82259056019.0,,,-5.5063153,122.8449037,https://maps.google.com/?cid=0x0:0x1bd1be14bb2de7f0,
restaurant,Rumah Makan,Bakso boneatiro,"QP4W+V7H, Boneatiro, Kec. Kapontori, Kabupaten Buton, Sulawesi Tenggara","Kabupaten Buton, Sulawesi Tenggara",SULAWESI TENGGARA,,Indonesia,,,,-5.2428231,122.745734,https://maps.google.com/?cid=0x0:0xad630e0be55e99c6,
restaurant,Restoran,Rumah Makan Berkah,"Jl. Kihajar Dewantara No.115, Kambula Mbulana, Kec. Ps. Wajo, Kabupaten Buton, Sulawesi Tenggara 93754","Kambula Mbulana, Kec. Ps. Wajo, Kabupaten Buton",SULAWESI TENGGARA,93754.0,Indonesia,85244696214.0,,,-5.4958221,122.8438869,https://maps.google.com/?cid=0x0:0x364d6a33d5f10291,
restaurant,Restoran,Warung bakso Dian wakuli,"VRFV+2CJ, Unnamed Road, Bukit Asri, Kec. Kapontori, Kabupaten Buton, Sulawesi Tenggara 93755","Unnamed Road, Bukit Asri, Kec. Kapontori, Kabupaten Buton",SULAWESI TENGGARA,93755.0,Indonesia,82287279060.0,,,-5.127404,122.843509,https://maps.google.com/?cid=0x0:0x544021ed6ee6169a,
restaurant,Padang,"Coto Makassar Cabang Jeneberang Raha Di Lombe,buton Tengah","PHV8+FX6, Walando, Kec. Gu, Kabupaten Buton, Sulawesi Tenggara 93761","Walando, Kec. Gu, Kabupaten Buton",SULAWESI TENGGARA,93761.0,Indonesia,82291442757.0,,,-5.2563395,122.5673792,https://maps.google.com/?cid=0x0:0xe6b1af1a83117c1,
restaurant,Restoran,Kedai Eko,"RV69+QH6, Jl. Inaoce, Wambulu, Kec. Kapontori, Kabupaten Buton, Sulawesi Tenggara 93755","Jl. Inaoce, Wambulu, Kec. Kapontori, Kabupaten Buton",SULAWESI TENGGARA,93755.0,Indonesia,82393272445.0,,,-5.1880551,122.8688638,https://maps.google.com/?cid=0x0:0x660de75e899f01e5,
restaurant,Kedai Kopi,Shaq coffee,"Jl.bendungan No.1, Watumotobe, Kec. Kapontori, Kabupaten Buton, Sulawesi Tenggara 93755","Watumotobe, Kec. Kapontori, Kabupaten Buton",SULAWESI TENGGARA,93755.0,Indonesia,,,,-5.2598047,122.8479358,https://maps.google.com/?cid=0x0:0xee64980903fe2fa7,
restaurant,Restoran,Cafe Pondok Bambu,"GVC2+6RW, Saragi, Kec. Ps. Wajo, Kabupaten Buton, Sulawesi Tenggara","Kabupaten Buton, Sulawesi Tenggara",SULAWESI TENGGARA,,Indonesia,,,,-5.4793958,122.8520776,https://maps.google.com/?cid=0x0:0x572436ae055986dc,
restaurant,Tujuan Wisata,Karamba Resto Gerak Makmur,"9P3W+QM3, Gerak Makmur, Kec. Sampolawa, Kabupaten Buton",Kabupaten Buton,SULAWESI TENGGARA,,Indonesia,,,,-5.645617,122.7466597,https://maps.google.com/?cid=0x0:0x1813fb2db1a0651a,
restaurant,Servis Komputer,syafi hostpot,"Wakangka, Kec. Kapontori, Kabupaten Buton, Sulawesi Tenggara 93755","Kec. Kapontori, Kabupaten Buton",SULAWESI TENGGARA,93755.0,Indonesia,,,,-5.2050335,122.8366617,https://maps.google.com/?cid=0x0:0xdd852b7a7deb634a,
restaurant,restaurant,Lasalimu,"Wasuamba, Kec. Lasalimu, Kabupaten Buton, Sulawesi Tenggara","Kabupaten Buton, Sulawesi Tenggara",SULAWESI TENGGARA,,Indonesia,,,,-5.224197,123.127403,https://maps.google.com/?cid=0x0:0xb739d9e9697eebf9,
restaurant,Dapur Umum,RM.KALITA,"Desa, sumber agung, Kec. Lasalimu Sel., Kabupaten Buton, Sulawesi Tenggara 93756","sumber agung, Kec. Lasalimu Sel., Kabupaten Buton",SULAWESI TENGGARA,93756.0,Indonesia,81346514145.0,,,-5.2822801,123.1134832,https://maps.google.com/?cid=0x0:0x2944e82672fc5549,
restaurant,Nasi,Warung Makan Pelipur Lapar,"M5H8+M7V, Ambuau Indah, Kec. Lasalimu Sel., Kabupaten Buton, Sulawesi Tenggara 93756","Ambuau Indah, Kec. Lasalimu Sel., Kabupaten Buton",SULAWESI TENGGARA,93756.0,Indonesia,,,,-5.3207551,123.1656752,https://maps.google.com/?cid=0x0:0x62275ffee4c47b54,
restaurant,restaurant,RM MAKAN,"Q527+6R4, Lasalimu, Kec. Lasalimu Sel., Kabupaten Buton, Sulawesi Tenggara 93756","Lasalimu, Kec. Lasalimu Sel., Kabupaten Buton",SULAWESI TENGGARA,93756.0,Indonesia,,,,-5.24949,123.164565,https://maps.google.com/?cid=0x0:0x68088772ee384cd0,
restaurant,Kedai Kopi,KEDAI SA,"P487+86R, Mulya Jaya, Kec. Lasalimu Sel., Kabupaten Buton, Sulawesi Tenggara 93756","Mulya Jaya, Kec. Lasalimu Sel., Kabupaten Buton",SULAWESI TENGGARA,93756.0,Indonesia,82264849774.0,,,-5.2841313,123.1130213,https://maps.google.com/?cid=0x0:0x3a936427b0857765,
restaurant,Kedai Kopi,Kedai Tani,"P5V3+MP9, Jl. poros Lasalimu, Lasalimu, Kec. Lasalimu Sel., Kabupaten Buton, Sulawesi Tenggara 93756","Jl. poros Lasalimu, Lasalimu, Kec. Lasalimu Sel., Kabupaten Buton",SULAWESI TENGGARA,93756.0,Indonesia,,,,-5.2558436,123.1543491,https://maps.google.com/?cid=0x0:0x4a48e4190fe191f6,
restaurant,restaurant,Kec. Lasalimu Sel.,"Kabupaten Buton, Sulawesi Tenggara","Kabupaten Buton, Sulawesi Tenggara",SULAWESI TENGGARA,,Indonesia,,,,-5.2517585,123.1595225,https://maps.google.com/?cid=0x0:0x43dc32910467e706,
restaurant,Rumah Makan,Rumah Makan Pangandaran,"Jl. Jend Sudirman No.45, Wajah Jaya, Kec. Lasalimu Sel., Kabupaten Buton, Sulawesi Tenggara 93756","Wajah Jaya, Kec. Lasalimu Sel., Kabupaten Buton",SULAWESI TENGGARA,93756.0,Indonesia,82291126779.0,,,-5.2855094,123.1432634,https://maps.google.com/?cid=0x0:0xf33dc7b27c977641,
restaurant,Restoran,Warung pecel,"M4RQ+V33, Siomanuru, Kec. Lasalimu Sel., Kabupaten Buton, Sulawesi Tenggara 93756","Siomanuru, Kec. Lasalimu Sel., Kabupaten Buton",SULAWESI TENGGARA,93756.0,Indonesia,81359481526.0,,,-5.3083567,123.137647,https://maps.google.com/?cid=0x0:0xe9a706512dd23485,
restaurant,Dapur Umum,RM.KALITA,"Desa, sumber agung, Kec. Lasalimu Sel., Kabupaten Buton, Sulawesi Tenggara 93756","sumber agung, Kec. Lasalimu Sel., Kabupaten Buton",SULAWESI TENGGARA,93756.0,Indonesia,81346514145.0,,,-5.2822801,123.1134832,https://maps.google.com/?cid=0x0:0x2944e82672fc5549,
restaurant,Rumah Makan,WARUNG MAKAN MBAK CEMPLUK,"M5V5+936, Kinapani Makmur, Kec. Lasalimu Sel., Kabupaten Buton, Sulawesi Tenggara 93756","Kinapani Makmur, Kec. Lasalimu Sel., Kabupaten Buton",SULAWESI TENGGARA,93756.0,Indonesia,82192059585.0,,,-5.306597,123.1576429,https://maps.google.com/?cid=0x0:0xb8e5014a834a9323,
restaurant,Rumah Makan,Warung Makan Coto Makasar,"M5Q6+P3J, Kinapani Makmur, Kec. Lasalimu Sel., Kabupaten Buton, Sulawesi Tenggara 93756","Kinapani Makmur, Kec. Lasalimu Sel., Kabupaten Buton",SULAWESI TENGGARA,93756.0,Indonesia,,,,-5.3106542,123.1601547,https://maps.google.com/?cid=0x0:0x85374a23c4268647,
restaurant,Restoran,Warung Makan Mbak Soni,"M5P5+RR5, Desa, Kinapani Makmur, Kec. Lasalimu Sel., Kabupaten Buton, Sulawesi Tenggara 93756","Desa, Kinapani Makmur, Kec. Lasalimu Sel., Kabupaten Buton",SULAWESI TENGGARA,93756.0,Indonesia,,,,-5.3129791,123.1596227,https://maps.google.com/?cid=0x0:0xebc08dba24aa7b41,
restaurant,Brunch,Rumah Makan Rahmad,"M5C6+C6X, Togo, Kec. Lasalimu Sel., Kabupaten Buton, Sulawesi Tenggara 93756","Togo, Kec. Lasalimu Sel., Kabupaten Buton",SULAWESI TENGGARA,93756.0,Indonesia,,,,-5.3289799,123.1603482,https://maps.google.com/?cid=0x0:0xb55e2f104d09978,
restaurant,Indonesia,KEDAI MAZ CANDRA (MIE AYAM BAKSO),"M5J7+MJ6, Unnamed Road, Ambuau Indah, Kec. Lasalimu Sel., Kabupaten Buton, Sulawesi Tenggara 93756","Unnamed Road, Ambuau Indah, Kec. Lasalimu Sel., Kabupaten Buton",SULAWESI TENGGARA,93756.0,Indonesia,85241993912.0,,,-5.3183436,123.1640076,https://maps.google.com/?cid=0x0:0xd65eef049c4de2e2,
restaurant,Kedai Kopi,KEDAI KPR,"Jalan poros Baubau lasalimu Simpang Tiga, Pasar, Ambuau Indah, Kabupaten Buton, Sulawesi Tenggara 93756","Pasar, Ambuau Indah, Kabupaten Buton",SULAWESI TENGGARA,93756.0,Indonesia,85242765291.0,,,-5.3187445,123.1617693,https://maps.google.com/?cid=0x0:0xc069377e5aa2d469,
restaurant,Kedai Kopi,Kedai Tani,"P5V3+MP9, Jl. poros Lasalimu, Lasalimu, Kec. Lasalimu Sel., Kabupaten Buton, Sulawesi Tenggara 93756","Jl. poros Lasalimu, Lasalimu, Kec. Lasalimu Sel., Kabupaten Buton",SULAWESI TENGGARA,93756.0,Indonesia,,,,-5.2558436,123.1543491,https://maps.google.com/?cid=0x0:0x4a48e4190fe191f6,
restaurant,Kedai Kopi,KEDAI SA,"P487+86R, Mulya Jaya, Kec. Lasalimu Sel., Kabupaten Buton, Sulawesi Tenggara 93756","Mulya Jaya, Kec. Lasalimu Sel., Kabupaten Buton",SULAWESI TENGGARA,93756.0,Indonesia,82264849774.0,,,-5.2841313,123.1130213,https://maps.google.com/?cid=0x0:0x3a936427b0857765,
restaurant,Tujuan Wisata,Karamba Resto Gerak Makmur,"9P3W+QM3, Gerak Makmur, Kec. Sampolawa, Kabupaten Buton",Kabupaten Buton,SULAWESI TENGGARA,,Indonesia,,,,-5.645617,122.7466597,https://maps.google.com/?cid=0x0:0x1813fb2db1a0651a,
restaurant,Restoran,WM. Ayam Geprek Mbak Cempluk,"P54F+7Q9, Kinapani Makmur, Kec. Lasalimu Sel., Kabupaten Buton, Sulawesi Tenggara 93756","Kinapani Makmur, Kec. Lasalimu Sel., Kabupaten Buton",SULAWESI TENGGARA,93756.0,Indonesia,82192059585.0,,,-5.294349,123.1744938,https://maps.google.com/?cid=0x0:0xf20b788d5e29befb,
restaurant,Brunch,Lesehan mangga dua,"Q3G9+632, Lasembangi, Kec. Lasalimu, Kabupaten Buton, Sulawesi Tenggara 93756","Lasembangi, Kec. Lasalimu, Kabupaten Buton",SULAWESI TENGGARA,93756.0,Indonesia,,,,-5.2244891,123.0676469,https://maps.google.com/?cid=0x0:0xdfd0a4545657a40f,
restaurant,Dapur Umum,Rumah Makan Mama Dimas,"Q3G9+632, Lasembangi, Kec. Lasalimu, Kabupaten Buton, Sulawesi Tenggara 93756","Lasembangi, Kec. Lasalimu, Kabupaten Buton",SULAWESI TENGGARA,93756.0,Indonesia,,,,-5.2244891,123.0676469,https://maps.google.com/?cid=0x0:0xa336b66721a6a510,
restaurant,Kedai Kopi,Kay Cafe,"M5G8+P3X, Ambuau Indah, Kec. Lasalimu Sel., Kabupaten Buton, Sulawesi Tenggara 93756","Ambuau Indah, Kec. Lasalimu Sel., Kabupaten Buton",SULAWESI TENGGARA,93756.0,Indonesia,,,,-5.3231289,123.1652325,https://maps.google.com/?cid=0x0:0x62fbb24caeb5526f,
restaurant,Toko Perlengkapan Rumah,Toko Plastik Mama Fajar,"M5J7+M77, Desa, Ambuau Indah, Kec. Lasalimu Sel., Kabupaten Buton, Sulawesi Tenggara 93756","Desa, Ambuau Indah, Kec. Lasalimu Sel., Kabupaten Buton",SULAWESI TENGGARA,93756.0,Indonesia,,,,-5.318329,123.1631595,https://maps.google.com/?cid=0x0:0xea0602f55fb176ee,
restaurant,Rumah Makan,Cafe Triple S,"M969+GXW, Lakorua, Kec. Mawasangka Tengah, Kabupaten Buton, Sulawesi Tenggara 93762","Lakorua, Kec. Mawasangka Tengah, Kabupaten Buton",SULAWESI TENGGARA,93762.0,Indonesia,,,,-5.3397677,122.37032,https://maps.google.com/?cid=0x0:0xb725b4a05c639c51,
restaurant,Restoran,Warung makan maspul,"MFWF+W2R, Punggaluku, Kec. Laeya, Kabupaten Konawe Selatan, Sulawesi Tenggara 93395","Punggaluku, Kec. Laeya, Kabupaten Konawe Selatan",SULAWESI TENGGARA,93395.0,Indonesia,,,,-4.3026451,122.4725012,https://maps.google.com/?cid=0x0:0x8c9b2d2a8528210f,
restaurant,Restoran,Karamba Resto Lande,"8PXR+FPQ Des, Gerak Makmur, Kec. Sampolawa",,SULAWESI TENGGARA,,Indonesia,82211822157.0,,,-5.651285,122.741855,https://maps.google.com/?cid=0x0:0xc8fa7db431646446,
restaurant,Rumah Makan,Rumah Makan Lambusango,"QRG5+F8H, Watumotobe, Kec. Kapontori, Kabupaten Buton, Sulawesi Tenggara 93755","Watumotobe, Kec. Kapontori, Kabupaten Buton",SULAWESI TENGGARA,93755.0,Indonesia,,,,-5.2238188,122.8083503,https://maps.google.com/?cid=0x0:0x50610edf6883623e,
restaurant,Kedai Kopi,Kedai Es Pisang Ijo Bu Asriani,"Jl. poros Lasalimu No.4444, Lasalimu, Kec. Lasalimu Sel., Kabupaten Buton, Sulawesi Tenggara 93756","Lasalimu, Kec. Lasalimu Sel., Kabupaten Buton",SULAWESI TENGGARA,93756.0,Indonesia,82193598977.0,,,-5.2558512,123.1547953,https://maps.google.com/?cid=0x0:0x6ec46fc04eff584a,
restaurant,restaurant,RM MAKAN,"Q527+6R4, Lasalimu, Kec. Lasalimu Sel., Kabupaten Buton, Sulawesi Tenggara 93756","Lasalimu, Kec. Lasalimu Sel., Kabupaten Buton",SULAWESI TENGGARA,93756.0,Indonesia,,,,-5.24949,123.164565,https://maps.google.com/?cid=0x0:0x68088772ee384cd0,
restaurant,restaurant,Kec. Ps. Wajo,"Kabupaten Buton, Sulawesi Tenggara","Kabupaten Buton, Sulawesi Tenggara",SULAWESI TENGGARA,,Indonesia,,,,-5.5143888,122.8408508,https://maps.google.com/?cid=0x0:0xd8cb6cdd80295dce,
restaurant,Restoran,Rumah Makan Wisata,"FRVV+FXC, Jl, Pasar Wajo, Buton Regency, South East Sulawesi","Kabupaten Buton, Sulawesi Tenggara",SULAWESI TENGGARA,,Indonesia,82259056019.0,,,-5.5063153,122.8449037,https://maps.google.com/?cid=0x0:0x1bd1be14bb2de7f0,
restaurant,Restoran,Warung Makan Barokah,"Pasar Wajo, Ps. Wajo, Kec. Ps. Wajo, Kabupaten Buton, Sulawesi Tenggara","Kabupaten Buton, Sulawesi Tenggara",SULAWESI TENGGARA,,Indonesia,,,,-5.5037055,122.8453057,https://maps.google.com/?cid=0x0:0x9365b37618b145fd,
restaurant,Restoran,Warung Makan Paseba,"FRMV+PPP, Unnamed Road, Banabungi, Kec. Ps. Wajo, Kabupaten Buton, Sulawesi Tenggara 93754","Unnamed Road, Banabungi, Kec. Ps. Wajo, Kabupaten Buton",SULAWESI TENGGARA,93754.0,Indonesia,81276350086.0,,,-5.5156717,122.8443267,https://maps.google.com/?cid=0x0:0x7b584289c0902137,
restaurant,Brunch,Warung makan dimas,"GVH4+VXF, Wasaga, Kec. Ps. Wajo, Kabupaten Buton, Sulawesi Tenggara 93754","Wasaga, Kec. Ps. Wajo, Kabupaten Buton",SULAWESI TENGGARA,93754.0,Indonesia,,,,-5.4703025,122.8574141,https://maps.google.com/?cid=0x0:0x240b6f9630dfc7a0,
restaurant,Rumah Makan,RM. PERLIPUR LAPAR,"GVF3+RWH, Wasaga, Kec. Ps. Wajo, Kabupaten Buton, Sulawesi Tenggara","Kabupaten Buton, Sulawesi Tenggara",SULAWESI TENGGARA,,Indonesia,,,,-5.4754462,122.8548479,https://maps.google.com/?cid=0x0:0xb1b33b7e3ec70eeb,
restaurant,Restoran,RM. BLAMBANGAN,"FRVV+8VV, Jl. Protokol, Kec. Ps. Wajo, Kabupaten Buton, Sulawesi Tenggara","Kabupaten Buton, Sulawesi Tenggara",SULAWESI TENGGARA,,Indonesia,81245913811.0,,,-5.5066313,122.8446619,https://maps.google.com/?cid=0x0:0xa1dceb0fffd69d59,
restaurant,Restoran,RM. WANGI-WANGI BUTON,"GR7W+PRM, Saragi, Kec. Ps. Wajo, Kabupaten Buton, Sulawesi Tenggara","Kabupaten Buton, Sulawesi Tenggara",SULAWESI TENGGARA,,Indonesia,85394502156.0,,,-5.4856673,122.8470444,https://maps.google.com/?cid=0x0:0xa14e35b8964e0505,
restaurant,Restoran,Rumah Makan Kulinerku,"FRHR+XX7, Jl. Jend. Sudirman, Banabungi, Kec. Ps. Wajo, Kabupaten Buton, Sulawesi Tenggara 93754","Jl. Jend. Sudirman, Banabungi, Kec. Ps. Wajo, Kabupaten Buton",SULAWESI TENGGARA,93754.0,Indonesia,82292300698.0,,,-5.5200745,122.8424344,https://maps.google.com/?cid=0x0:0xe26d200c62c69de,
restaurant,Rumah Makan,Dapoer Mamatha,"FRCW+M3R, Awainulu, Kec. Ps. Wajo, Kabupaten Buton, Sulawesi Tenggara","Kabupaten Buton, Sulawesi Tenggara",SULAWESI TENGGARA,,Indonesia,,,,-5.5282664,122.8451461,https://maps.google.com/?cid=0x0:0x64812d95d88a31d6,
restaurant,Restoran,Rumah Makan Berkah,"Jl. Kihajar Dewantara No.115, Kambula Mbulana, Kec. Ps. Wajo, Kabupaten Buton, Sulawesi Tenggara 93754","Kambula Mbulana, Kec. Ps. Wajo, Kabupaten Buton",SULAWESI TENGGARA,93754.0,Indonesia,85244696214.0,,,-5.4958221,122.8438869,https://maps.google.com/?cid=0x0:0x364d6a33d5f10291,
restaurant,Toko bahan makanan,Depot Air Simpangan,"Wasaga, Kec. Ps. Wajo, Kabupaten Buton, Sulawesi Tenggara 93754","Kec. Ps. Wajo, Kabupaten Buton",SULAWESI TENGGARA,93754.0,Indonesia,82191565630.0,,,-5.4704855,122.857185,https://maps.google.com/?cid=0x0:0xb104c39545290d24,
restaurant,Rumah Makan,Rumah makan kita,"GVH3+X5R, Jl. Balai Kota, Wasaga, Kec. Ps. Wajo, Kabupaten Buton, Sulawesi Tenggara 93754","Jl. Balai Kota, Wasaga, Kec. Ps. Wajo, Kabupaten Buton",SULAWESI TENGGARA,93754.0,Indonesia,81242326705.0,,,-5.4700187,122.8528942,https://maps.google.com/?cid=0x0:0xc5c06298d15288cf,
restaurant,Toko,Depot Elsa,"FR9V+3R6, Kombeli, Kec. Ps. Wajo, Kabupaten Buton, Sulawesi Tenggara 93754","Kombeli, Kec. Ps. Wajo, Kabupaten Buton",SULAWESI TENGGARA,93754.0,Indonesia,,,,-5.532339,122.8445043,https://maps.google.com/?cid=0x0:0x94b4d857f7958cc3,
restaurant,Kedai Kopi,Leter buton pasarwajo,"GR6W+XCV, Kambula Mbulana, Kec. Ps. Wajo, Kabupaten Buton, Sulawesi Tenggara 93752","Kambula Mbulana, Kec. Ps. Wajo, Kabupaten Buton",SULAWESI TENGGARA,93752.0,Indonesia,,,,-5.4875006,122.846054,https://maps.google.com/?cid=0x0:0x13a7704613da350c,
restaurant,Kedai Kopi,Monsieur Cara Cafe,"FRMR+XMP, Jl. Pangeran Limboro, Banabungi, Kec. Ps. Wajo, Kabupaten Buton, Sulawesi Tenggara 93754","Jl. Pangeran Limboro, Banabungi, Kec. Ps. Wajo, Kabupaten Buton",SULAWESI TENGGARA,93754.0,Indonesia,,,,-5.5150273,122.8417002,https://maps.google.com/?cid=0x0:0x92bbf11f419824bb,
restaurant,Masakan Asia,Rumah Makan Tunas Kapau 2,"GVG4+WJW, Jalan, Siotampina, Wasaga, Kec. Ps. Wajo, Kabupaten Buton, Sulawesi Tenggara 93754","Jalan, Siotampina, Wasaga, Kec. Ps. Wajo, Kabupaten Buton",SULAWESI TENGGARA,93754.0,Indonesia,,,,-5.4725633,122.8566095,https://maps.google.com/?cid=0x0:0x9892261d920a6e53,
restaurant,restaurant,RUMAH MAKAN 99,"GVG3+CPQ, Wasaga, Kec. Ps. Wajo, Kabupaten Buton, Sulawesi Tenggara","Kabupaten Buton, Sulawesi Tenggara",SULAWESI TENGGARA,,Indonesia,81367671493.0,,,-5.4739015,122.8543475,https://maps.google.com/?cid=0x0:0xc2be869881f7f618,
restaurant,Brunch,Warung Mama Tiwi,"FRMR+F6P, Banabungi, Kec. Ps. Wajo, Kabupaten Buton, Sulawesi Tenggara 93754","Banabungi, Kec. Ps. Wajo, Kabupaten Buton",SULAWESI TENGGARA,93754.0,Indonesia,81355222689.0,,,-5.5162976,122.8405795,https://maps.google.com/?cid=0x0:0xe64127c7ae625636,
restaurant,Rumah Makan,Rumah Makan Ceria,"HV7W+6W3, Kancinaa, Kec. Ps. Wajo, Kabupaten Buton, Sulawesi Tenggara 93754","Kancinaa, Kec. Ps. Wajo, Kabupaten Buton",SULAWESI TENGGARA,93754.0,Indonesia,,,,-5.436925,122.897247,https://maps.google.com/?cid=0x0:0x7701e43058142e12,
restaurant,Rumah Makan,Tunas Kapau,"FRQV+F4G, Jl. Protokol, Banabungi, Kec. Ps. Wajo, Kabupaten Buton, Sulawesi Tenggara 93754","Jl. Protokol, Banabungi, Kec. Ps. Wajo, Kabupaten Buton",SULAWESI TENGGARA,93754.0,Indonesia,,,,-5.5113036,122.842839,https://maps.google.com/?cid=0x0:0xe120aa5d23c34dd9,
restaurant,Padang,RM. Surya Masakan Padang,"FRXW+F7J, Ps. Wajo, Kec. Ps. Wajo, Kabupaten Buton, Sulawesi Tenggara","Kabupaten Buton, Sulawesi Tenggara",SULAWESI TENGGARA,,Indonesia,,,,-5.5012776,122.845645,https://maps.google.com/?cid=0x0:0xf7926e6913df095a,
restaurant,Ayam,Ayam Goreng Silvana Pasarwajo,"Jl. Protokol No.48, Kambula Mbulana, Kec. Ps. Wajo, Kabupaten Buton, Sulawesi Tenggara 93754","Kambula Mbulana, Kec. Ps. Wajo, Kabupaten Buton",SULAWESI TENGGARA,93754.0,Indonesia,82344024740.0,,,-5.4915336,122.8458958,https://maps.google.com/?cid=0x0:0xb57ba7fc2ae602e1,
restaurant,Rumah Makan,Warung JAWA,"GVH4+VXF, Wasaga, Kec. Ps. Wajo, Kabupaten Buton, Sulawesi Tenggara 93754","Wasaga, Kec. Ps. Wajo, Kabupaten Buton",SULAWESI TENGGARA,93754.0,Indonesia,,,,-5.4699948,122.8573002,https://maps.google.com/?cid=0x0:0x774e7723c413b8d5,
restaurant,Restoran,Ayam Crispy Lapangan Pasarwajo,"FRWW+J3F, Jl. Protokol, Kambula Mbulana, Kec. Ps. Wajo, Kabupaten Buton, Sulawesi Tenggara","Kabupaten Buton, Sulawesi Tenggara",SULAWESI TENGGARA,,Indonesia,85275566663.0,,,-5.5034423,122.8451735,https://maps.google.com/?cid=0x0:0x8809a57ddcd60116,
restaurant,Restoran,"Warung makan lamongan, Pasarwajo","GR5R+GMX, Jl. Balai Kota, Kambula Mbulana, Kec. Ps. Wajo, Kabupaten Buton, Sulawesi Tenggara 93754","Jl. Balai Kota, Kambula Mbulana, Kec. Ps. Wajo, Kabupaten Buton",SULAWESI TENGGARA,93754.0,Indonesia,,,,-5.4911479,122.8417403,https://maps.google.com/?cid=0x0:0x32be7a8c60cbc00f,
restaurant,restaurant,Siontapina,"Kec. Lasalimu Sel., Kabupaten Buton, Sulawesi Tenggara","Kabupaten Buton, Sulawesi Tenggara",SULAWESI TENGGARA,,Indonesia,,,,-5.3242312,123.1182806,https://maps.google.com/?cid=0x0:0x7d394a4da9627623,
restaurant,Rumah Makan,Rumah Makan Pangandaran,"Jl. Jend Sudirman No.45, Wajah Jaya, Kec. Lasalimu Sel., Kabupaten Buton, Sulawesi Tenggara 93756","Wajah Jaya, Kec. Lasalimu Sel., Kabupaten Buton",SULAWESI TENGGARA,93756.0,Indonesia,82291126779.0,,,-5.2855094,123.1432634,https://maps.google.com/?cid=0x0:0xf33dc7b27c977641,
restaurant,restaurant,Kec. Siontapina,"Kabupaten Buton, Sulawesi Tenggara","Kabupaten Buton, Sulawesi Tenggara",SULAWESI TENGGARA,,Indonesia,,,,-5.4035862,123.1036419,https://maps.google.com/?cid=0x0:0x53f852a50e303b3e,
restaurant,Restoran,Warung pecel,"M4RQ+V33, Siomanuru, Kec. Lasalimu Sel., Kabupaten Buton, Sulawesi Tenggara 93756","Siomanuru, Kec. Lasalimu Sel., Kabupaten Buton",SULAWESI TENGGARA,93756.0,Indonesia,81359481526.0,,,-5.3083567,123.137647,https://maps.google.com/?cid=0x0:0xe9a706512dd23485,
restaurant,restaurant,Kec. Wolowa,"Kabupaten Buton, Sulawesi Tenggara","Kabupaten Buton, Sulawesi Tenggara",SULAWESI TENGGARA,,Indonesia,,,,-5.4247226,122.9313886,https://maps.google.com/?cid=0x0:0xa030da8146f922b1,
restaurant,Kios,Warung makan IFA,"Jl. Poros Lasalimu No.46, Wolowa Baru, Kec. Wolowa, Kabupaten Buton, Sulawesi Tenggara 93754","Wolowa Baru, Kec. Wolowa, Kabupaten Buton",SULAWESI TENGGARA,93754.0,Indonesia,81216812161.0,,,-5.3938651,122.9768623,https://maps.google.com/?cid=0x0:0x691fef0cd5cd7213,
restaurant,Rumah Makan,Warung bakso mama ati,"HWPX+V58, Matawia, Kec. Wolowa, Kabupaten Buton, Sulawesi Tenggara","Kabupaten Buton, Sulawesi Tenggara",SULAWESI TENGGARA,,Indonesia,,,,-5.4110684,122.9488942,https://maps.google.com/?cid=0x0:0x2a90b29249d3d02e,
restaurant,Dapur Umum,ambuau,"JX4M+JJP, Jl. Poros Lasalimu, Walompo, Kec. Wolowa, Kabupaten Buton, Sulawesi Tenggara","Kabupaten Buton, Sulawesi Tenggara",SULAWESI TENGGARA,,Indonesia,,,,-5.3934096,122.9840807,https://maps.google.com/?cid=0x0:0xd5f99df72441b7a5,
restaurant,Korea,WooBo,"Jl. Wolter Monginsidi No.6, Melawai, Kec. Kby. Baru, Jakarta, Daerah Khusus Ibukota Jakarta 12160","Melawai, Kec. Kby. Baru, Jakarta",SULAWESI TENGGARA,12160.0,Indonesia,81805255789.0,,,-6.23997,106.8053004,https://maps.google.com/?cid=0x0:0xd8de81586aa27e53,
restaurant,Kedai Kopi,Blau Eatery  Coffee,"Jl. Pelepah Elok I No.QA2/7, Klp. Gading Bar., Kec. Klp. Gading, Jakarta, Daerah Khusus Ibukota Jakarta 14240","Klp. Gading Bar., Kec. Klp. Gading, Jakarta",SULAWESI TENGGARA,14240.0,Indonesia,81999718181.0,,,-6.1533715,106.9087043,https://maps.google.com/?cid=0x0:0x2f84dddabb8afd2c,
restaurant,Indonesia,Tide  Table  Restaurant,"Jl. Iskandarsyah I No.9, Melawai, Kec. Kby. Baru, Kota Jakarta Selatan, Daerah Khusus Ibukota Jakarta 12160","Melawai, Kec. Kby. Baru, Kota Jakarta Selatan",SULAWESI TENGGARA,12160.0,Indonesia,85693104541.0,,,-6.2433904,106.8041722,https://maps.google.com/?cid=0x0:0x3b7f3c1e07358244,
restaurant,restaurant,Wow,Polandia,"Wow, Polandia",SULAWESI TENGGARA,,Indonesia,,,,51.3364277,16.6441164,https://maps.google.com/?cid=0x0:0xf1bdf2d271ed48f,
restaurant,Pujasera,DapoerDenina,"Jl. Birah II, RT.6/RW.6, Rw. Bar., Kec. Kby. Baru, Kota Jakarta Selatan, Daerah Khusus Ibukota Jakarta 12180","RT.6/RW.6, Rw. Bar., Kec. Kby. Baru, Kota Jakarta Selatan",SULAWESI TENGGARA,12180.0,Indonesia,82298888076.0,,,-6.2371499,106.8149502,https://maps.google.com/?cid=0x0:0xb6ee6869fc83957d,
restaurant,Dapur Umum,OTW Food Street,"Jl. Raya Klp. Kopyor No.1 Blok BA 2, RT.2/RW.9, Klp. Gading Tim., Kec. Klp. Gading, Jkt Utara, Daerah Khusus Ibukota Jakarta 14240","RT.2/RW.9, Klp. Gading Tim., Kec. Klp. Gading, Jkt Utara",SULAWESI TENGGARA,14240.0,Indonesia,85716292142.0,,,-6.1702327,106.9035364,https://maps.google.com/?cid=0x0:0xfc71c6a981b9c901,
restaurant,Restoran,ORASA'S Ashta District 8,"Jl Jend. Sudirman kav52-53 RT.8/RW.3 Ground Floor- unit 11-12, RT.8/RW.3, Senayan, Kec. Kby. Baru, Kota Jakarta Selatan, Daerah Khusus Ibukota Jakarta 12190","RT.8/RW.3, Senayan, Kec. Kby. Baru, Kota Jakarta Selatan",SULAWESI TENGGARA,12190.0,Indonesia,87888303125.0,,,-6.2299787,106.8071966,https://maps.google.com/?cid=0x0:0xb15a460d894498f7,
restaurant,Steak,Chanb Private Room Grill PIK,"Ruko Crown Golf Blok D nomor 21-23 Jakarta, Daerah Khusus Ibukota Jakarta 14470","Jkt Utara, Daerah Khusus Ibukota Jakarta",SULAWESI TENGGARA,,Indonesia,82111197898.0,,,-6.1118585,106.7381518,https://maps.google.com/?cid=0x0:0x844ff8d61e1fae,
restaurant,restaurant,Woowa,Polandia,"Woowa, Polandia",SULAWESI TENGGARA,,Indonesia,,,,52.565514,19.9656673,https://maps.google.com/?cid=0x0:0xa37c823cd29df51e,
restaurant,Korea,JinJoo,"Jl. Wolter Monginsidi No.6, RT.2/RW.2, Melawai, Kec. Kby. Baru, Jakarta, Daerah Khusus Ibukota Jakarta 12160","RT.2/RW.2, Melawai, Kec. Kby. Baru, Jakarta",SULAWESI TENGGARA,12160.0,Indonesia,81912000123.0,,,-6.23997,106.8053004,https://maps.google.com/?cid=0x0:0xb9eccd08e62184f2,
restaurant,,Yaoyao Sauerkraut Fish - GAFOY Kelapa Gading,"Jl. Boulevard Bar. Raya No.M, RT.18/RW.8, Klp. Gading Bar., Kec. Klp. Gading, Jkt Utara, Daerah Khusus Ibukota Jakarta","Jkt Utara, Daerah Khusus Ibukota Jakarta",SULAWESI TENGGARA,,Indonesia,8179388880.0,,,-6.1592429,106.9067986,https://maps.google.com/?cid=0x0:0xe93ac5360172b75b,
restaurant,Kafe,Milky Way Cafe Lippo Mall Puri,"LIPPO MALL PURI U1 - GF62, Jl. Puri Indah Raya, RT.3/RW.2, Kembangan Sel., Daerah Khusus Ibukota Jakarta 11610","Jl. Puri Indah Raya, RT.3/RW.2, Kembangan Sel.",SULAWESI TENGGARA,11610.0,Indonesia,,,,-6.1901924,106.7385112,https://maps.google.com/?cid=0x0:0x5bdf7e4d10691876,
restaurant,,OTW - Cempaka Putih,"Jl. Cempaka Putih Tengah XXVIID No.20b, RT.7/RW.8, Cemp. Putih Tim., Kec. Cemp. Putih, Kota Jakarta Pusat, Daerah Khusus Ibukota Jakarta 10510","RT.7/RW.8, Cemp. Putih Tim., Kec. Cemp. Putih, Kota Jakarta Pusat",SULAWESI TENGGARA,10510.0,Indonesia,85716292142.0,,,-6.1760809,106.870411,https://maps.google.com/?cid=0x0:0x82d64ccec63b03c0,
restaurant,Ayam,Ikan Bakar Cianjur - Alam Sutera,"Jl. Alam Sutera Boulevard Utama No.Kav. 20, Pakulonan, Kec. Serpong, Kota Tangerang Selatan, Banten 15325","Pakulonan, Kec. Serpong, Kota Tangerang Selatan",SULAWESI TENGGARA,15325.0,Indonesia,2129211600.0,,,-6.2407114,106.6529894,https://maps.google.com/?cid=0x0:0xc16bc83d08416f94,
restaurant,Thailand,ORASA'S GAFOY Kelapa Gading,"Klp. GADING, Orasa's, Gafoy, Unit G-2  G-3, Jl. Boulevard Raya Blok M, Jkt Utara, Daerah Khusus Ibukota Jakarta 14240","Orasa's, Gafoy, Unit G-2  G-3, Jl. Boulevard Raya Blok M, Jkt Utara",SULAWESI TENGGARA,14240.0,Indonesia,87857457908.0,,,-6.1574268,106.9081703,https://maps.google.com/?cid=0x0:0xe260142f0c0a97a4,
restaurant,Restoran,Chanb Private Room Grill MKG,"Mall Klp. Gading, GAFOY Unit 1F, Jl. Boulevard Raya No.01 Blok M, Klp. Gading Tim., Jakarta, Daerah Khusus Ibukota Jakarta 14240","GAFOY Unit 1F, Jl. Boulevard Raya No.01 Blok M, Klp. Gading Tim., Jakarta",SULAWESI TENGGARA,14240.0,Indonesia,82258880062.0,,,-6.1596167,106.906564,https://maps.google.com/?cid=0x0:0x40f1030163b4b18f,
restaurant,restaurant,Wow,"26-120, Polandia","Wow, Polandia",SULAWESI TENGGARA,,Indonesia,,,,51.0933769,20.7973406,https://maps.google.com/?cid=0x0:0x1219035e69688fd9,
restaurant,Steak,Wolfgang's Steakhouse Jakarta,"ELYSEE SCBD Jakarta, Level 6 Rooftop, Lot 21 SCBD RT.7/RW.1, Senayan, Kec. Kby. Baru, Kota Jakarta Selatan, RT.7/RW.1, Senayan, Kec. Kby. Baru, Jakarta, Daerah Khusus Ibukota Jakarta 12190","Level 6 Rooftop, Lot 21 SCBD RT.7/RW.1, Senayan, Kec. Kby. Baru, Kota Jakarta Selatan, RT.7/RW.1, Senayan, Kec. Kby. Baru, Jakarta",SULAWESI TENGGARA,12190.0,Indonesia,2150110955.0,,,-6.2256472,106.8131685,https://maps.google.com/?cid=0x0:0xb9a1a3ab20c00e52,
restaurant,Jepang,Ikkudo Ichi Alam Sutera,"The Flavor Bliss, Jl. Alam Sutera Boulevard Kav 2, Pakulonan, Kec. Serpong Utara, Kota Tangerang Selatan, Banten 15325","Jl. Alam Sutera Boulevard Kav 2, Pakulonan, Kec. Serpong Utara, Kota Tangerang Selatan",SULAWESI TENGGARA,15325.0,Indonesia,2129005060.0,,,-6.2427681,106.6517327,https://maps.google.com/?cid=0x0:0x2a945b0969276a9a,
restaurant,Hamburger,Five Monkeys Burger - Sunter,"Food Centrum, Jl. Griya Utama No.18 Lt. Dasar, RT.2/RW.5, Sunter Agung, Kec. Tj. Priok, Jkt Utara, Daerah Khusus Ibukota Jakarta 14350","Jl. Griya Utama No.18 Lt. Dasar, RT.2/RW.5, Sunter Agung, Kec. Tj. Priok, Jkt Utara",SULAWESI TENGGARA,14350.0,Indonesia,2129689886.0,,,-6.1412059,106.8545034,https://maps.google.com/?cid=0x0:0x2921a459281404f,
restaurant,restaurant,Sulawesi Tenggara 93754,"Kabupaten Buton, Sulawesi Tenggara","Kabupaten Buton, Sulawesi Tenggara",SULAWESI TENGGARA,,Indonesia,,,,-5.4060758,122.8761309,https://maps.google.com/?cid=0x0:0x59c5abb5b91bda19,
restaurant,Bakso,RM. Warung Bakso Mombaka Bunda Lia.,"Jl. Ama Hatibi, Laburunci, Kec. Ps. Wajo, Kabupaten Buton, Sulawesi Tenggara 93754","Laburunci, Kec. Ps. Wajo, Kabupaten Buton",SULAWESI TENGGARA,93754.0,Indonesia,81346340930.0,,,-5.5211059,122.8400949,https://maps.google.com/?cid=0x0:0x554fe4716e11f1e2,
restaurant,Restoran,KEDAI SARAS MAYA,"Dusun bente Depan lapangan futsal No.1, Wabula, Kec. Wabula, Kabupaten Buton, Sulawesi Tenggara 93753","Wabula, Kec. Wabula, Kabupaten Buton",SULAWESI TENGGARA,93753.0,Indonesia,82271477416.0,,,-5.612915,122.8569155,https://maps.google.com/?cid=0x0:0x7b5e6a60880a58a9,
restaurant,Rumah Makan,Lakaliba,"8QRJ+43H, Gaya Baru, desa lakaliba, Kec. Lapandewa, Kabupaten Buton, Sulawesi Tenggara 93753","Gaya Baru, desa lakaliba, Kec. Lapandewa, Kabupaten Buton",SULAWESI TENGGARA,93753.0,Indonesia,82293417301.0,,,-5.6605754,122.765172,https://maps.google.com/?cid=0x0:0x49e3e2efb0caa31b,
restaurant,Kafe,Cobek Buton Sky Lounge,"GJPH+3V4, Kadolo, Kec. Kokalukuna, Kota Bau-Bau, Sulawesi Tenggara 93716","Kadolo, Kec. Kokalukuna, Kota Bau-Bau",SULAWESI TENGGARA,93716.0,Indonesia,,,,-5.4647486,122.6296976,https://maps.google.com/?cid=0x0:0x5a622e9c9b640397,
restaurant,Indonesia,WS Indonesian And Arabian Food,"Jl. Jend. AH. Nasution, Kambu, Kec. Kambu, Kota Kendari, Sulawesi Tenggara 93231","Kambu, Kec. Kambu, Kota Kendari",SULAWESI TENGGARA,93231.0,Indonesia,8114001932.0,,,-4.0002587,122.5273302,https://maps.google.com/?cid=0x0:0xa81ccc024cd7f53d,
restaurant,Restoran,Lavanya Cafe,"2G89+WV6, Bende, Kec. Kadia, Kota Kendari, Sulawesi Tenggara","Kota Kendari, Sulawesi Tenggara",SULAWESI TENGGARA,,Indonesia,,,,-3.9825766,122.5195527,https://maps.google.com/?cid=0x0:0x771d813cfebc4fe0,
restaurant,Rumah Makan,Rumah Makan Lambusango,"QRG5+F8H, Watumotobe, Kec. Kapontori, Kabupaten Buton, Sulawesi Tenggara 93755","Watumotobe, Kec. Kapontori, Kabupaten Buton",SULAWESI TENGGARA,93755.0,Indonesia,,,,-5.2238188,122.8083503,https://maps.google.com/?cid=0x0:0x50610edf6883623e,
restaurant,restaurant,Wasabinua Hotel  Dive Resort,"Jl. A.H Nasution No.5, Wandoka Utara, Kec. Wangi-Wangi, Kabupaten Wakatobi, Sulawesi Tenggara 93791","Wandoka Utara, Kec. Wangi-Wangi, Kabupaten Wakatobi",SULAWESI TENGGARA,93791.0,Indonesia,82112618744.0,,,-5.2818363,123.5244352,https://maps.google.com/?cid=0x0:0xd2e98108ec835682,
restaurant,restaurant,Hotel Wisata Beach Wakatobi,"Jl. Jenderal Sudirman, Mandati II, Wangi-Wangi Sel., Kabupaten Wakatobi, Sulawesi Tenggara 93795","Mandati II, Wangi-Wangi Sel., Kabupaten Wakatobi",SULAWESI TENGGARA,93795.0,Indonesia,81245639300.0,,,-5.3305212,123.5379881,https://maps.google.com/?cid=0x0:0x4aa633eee4b45351,
restaurant,restaurant,Ar'Rafif Hotel,"Jl. Wa Opu Lessa No. 26 Pongo I, Mandati II, Kec. Wangi-Wangi, Kabupaten Wakatobi, Sulawesi Tenggara 93791","Mandati II, Kec. Wangi-Wangi, Kabupaten Wakatobi",SULAWESI TENGGARA,93791.0,Indonesia,85299345749.0,,,-5.3260519,123.5383135,https://maps.google.com/?cid=0x0:0x971a767b2d407a2d,
restaurant,restaurant,Villa Nadila,"Jalan jendral Sudirman manugela, desa pada raya makmur, Kabupaten Wakatobi, Sulawesi Tenggara 93791","desa pada raya makmur, Kabupaten Wakatobi",SULAWESI TENGGARA,93791.0,Indonesia,,,,-5.3120381,123.5355614,https://maps.google.com/?cid=0x0:0xadf69721fc13a34b,
restaurant,restaurant,RedDoorz @ Wangi-Wangi Island Wakatobi,"Jl KH As'ary No.3, Numana, Wangi-Wangi Sel., Kabupaten Wakatobi, Sulawesi Tenggara 93791","Numana, Wangi-Wangi Sel., Kabupaten Wakatobi",SULAWESI TENGGARA,93791.0,Indonesia,895417300072.0,,,-5.3556714,123.5573989,https://maps.google.com/?cid=0x0:0xaaf0b479fca01ed9,
restaurant,Tujuan Wisata,Goa Air Kontamale,"MGJM+QW2, Jl. Poros Wandoka Lingk. Teekosapi, Pongo, Kec. Wangi-Wangi, Kabupaten Wakatobi, Sulawesi Tenggara 93791","Jl. Poros Wandoka Lingk. Teekosapi, Pongo, Kec. Wangi-Wangi, Kabupaten Wakatobi",SULAWESI TENGGARA,93791.0,Indonesia,,,,-5.318101,123.5347544,https://maps.google.com/?cid=0x0:0x6927d9dc22ca9645,
restaurant,Restoran,Warung Jawa Lombe,"PHXG+FRF, Watulea, Kec. Gu, Kabupaten Buton, Sulawesi Tenggara 93761","Watulea, Kec. Gu, Kabupaten Buton",SULAWESI TENGGARA,93761.0,Indonesia,,,,-5.2513139,122.5770541,https://maps.google.com/?cid=0x0:0x2171d9be010c1a4d,
restaurant,Restoran,Warung Makan D'Bantea,"Mandati I, Wangi-Wangi Sel., Kabupaten Wakatobi, Sulawesi Tenggara 93795","Wangi-Wangi Sel., Kabupaten Wakatobi",SULAWESI TENGGARA,93795.0,Indonesia,82343137084.0,,,-5.3349534,123.5391265,https://maps.google.com/?cid=0x0:0xeff866a038bc5f20,
restaurant,Bakso,Mie Ayam Bakso Cendrawasi - By:Rj,"FVF5+RCP, Jl. Poros Pasarwajo Wabula, Wagola, Kec. Ps. Wajo, Kabupaten Buton, Sulawesi Tenggara","Kabupaten Buton, Sulawesi Tenggara",SULAWESI TENGGARA,,Indonesia,81242951933.0,,,-5.5254143,122.8585645,https://maps.google.com/?cid=0x0:0xd6cf5cd8f7d5658b,
restaurant,Tujuan Wisata,Karamba,"9Q54+PHR, Lande, Kec. Lapandewa, Kabupaten Buton, Sulawesi Tenggara","Kabupaten Buton, Sulawesi Tenggara",SULAWESI TENGGARA,,Indonesia,,,,-5.6406362,122.7563959,https://maps.google.com/?cid=0x0:0x3f847b6035dcc3a4,
restaurant,restaurant,Sulawesi,,,SULAWESI TENGGARA,,Indonesia,,,,-1.8479,120.5279,https://maps.google.com/?cid=0x0:0xbc9a51d168f47742,
restaurant,Restoran,Rumah Makan Berkah,"Jl. Kihajar Dewantara No.115, Kambula Mbulana, Kec. Ps. Wajo, Kabupaten Buton, Sulawesi Tenggara 93754","Kambula Mbulana, Kec. Ps. Wajo, Kabupaten Buton",SULAWESI TENGGARA,93754.0,Indonesia,85244696214.0,,,-5.4958221,122.8438869,https://maps.google.com/?cid=0x0:0x364d6a33d5f10291,
restaurant,restaurant,Kec. Wabula,"Kabupaten Buton, Sulawesi Tenggara","Kabupaten Buton, Sulawesi Tenggara",SULAWESI TENGGARA,,Indonesia,,,,-5.6077445,122.8594298,https://maps.google.com/?cid=0x0:0x7bb47d4b468e4d89,
restaurant,Restoran,Warung Makan Paseba,"FRMV+PPP, Unnamed Road, Banabungi, Kec. Ps. Wajo, Kabupaten Buton, Sulawesi Tenggara 93754","Unnamed Road, Banabungi, Kec. Ps. Wajo, Kabupaten Buton",SULAWESI TENGGARA,93754.0,Indonesia,81276350086.0,,,-5.5156717,122.8443267,https://maps.google.com/?cid=0x0:0x7b584289c0902137,
restaurant,Restoran,RM. BLAMBANGAN,"FRVV+8VV, Jl. Protokol, Kec. Ps. Wajo, Kabupaten Buton, Sulawesi Tenggara","Kabupaten Buton, Sulawesi Tenggara",SULAWESI TENGGARA,,Indonesia,81245913811.0,,,-5.5066313,122.8446619,https://maps.google.com/?cid=0x0:0xa1dceb0fffd69d59,
restaurant,Rumah Makan,Kedai Family,"CVMV+56W, jalan poros, Holimombo, Kec. Wabula",,SULAWESI TENGGARA,,Indonesia,82296322045.0,,,-5.5670202,122.8930889,https://maps.google.com/?cid=0x0:0x4aa1a032d7cfc0c5,
restaurant,Restoran,Rumah Makan Wisata,"FRVV+FXC, Jl, Pasar Wajo, Buton Regency, South East Sulawesi","Kabupaten Buton, Sulawesi Tenggara",SULAWESI TENGGARA,,Indonesia,82259056019.0,,,-5.5063153,122.8449037,https://maps.google.com/?cid=0x0:0x1bd1be14bb2de7f0,
restaurant,Restoran,Warung Makan Idola,"GR2W+98V, Kambula Mbulana, Kec. Ps. Wajo, Kabupaten Buton, Sulawesi Tenggara","Kabupaten Buton, Sulawesi Tenggara",SULAWESI TENGGARA,,Indonesia,82301764804.0,,,-5.4990089,122.8457833,https://maps.google.com/?cid=0x0:0x3e8e2a4b1fe2fa4b,
restaurant,Rumah wisata,Villa SUHARDIN ENGKO,"9R6M+69H, Wasuemba, Kec. Wabula, Kabupaten Buton, Sulawesi Tenggara","Kabupaten Buton, Sulawesi Tenggara",SULAWESI TENGGARA,,Indonesia,81340506931.0,,,-5.6394375,122.8334711,https://maps.google.com/?cid=0x0:0xa6a6970f8407b1c7,
restaurant,Toko,Depot Elsa,"FR9V+3R6, Kombeli, Kec. Ps. Wajo, Kabupaten Buton, Sulawesi Tenggara 93754","Kombeli, Kec. Ps. Wajo, Kabupaten Buton",SULAWESI TENGGARA,93754.0,Indonesia,,,,-5.532339,122.8445043,https://maps.google.com/?cid=0x0:0x94b4d857f7958cc3,
restaurant,Restoran,Rumah Makan Kulinerku,"FRHR+XX7, Jl. Jend. Sudirman, Banabungi, Kec. Ps. Wajo, Kabupaten Buton, Sulawesi Tenggara 93754","Jl. Jend. Sudirman, Banabungi, Kec. Ps. Wajo, Kabupaten Buton",SULAWESI TENGGARA,93754.0,Indonesia,82292300698.0,,,-5.5200745,122.8424344,https://maps.google.com/?cid=0x0:0xe26d200c62c69de,
cafe,cafe,Sulawesi Tenggara 93755,"Kabupaten Buton, Sulawesi Tenggara","Kabupaten Buton, Sulawesi Tenggara",SULAWESI TENGGARA,,Indonesia,,,,-5.2652803,122.831015,https://maps.google.com/?cid=0x0:0x698a3c90045603c1,
cafe,Area Mendaki,Kedai Puncak 53,"RR2Q+C24, Wakangka, Kec. Kapontori, Kabupaten Buton, Sulawesi Tenggara 93755","Wakangka, Kec. Kapontori, Kabupaten Buton",SULAWESI TENGGARA,93755.0,Indonesia,85241518293.0,,,-5.1989787,122.8375859,https://maps.google.com/?cid=0x0:0xd458a89eae6db064,
cafe,Restoran,Rumah Makan Liangkamoi,"QRWQ+WFJ, Wakangka, Kec. Kapontori, Kabupaten Buton, Sulawesi Tenggara 93755","Wakangka, Kec. Kapontori, Kabupaten Buton",SULAWESI TENGGARA,93755.0,Indonesia,,,,-5.2026502,122.8386494,https://maps.google.com/?cid=0x0:0x97bfffd00e6eafc4,
cafe,Kedai Kopi,Shaq coffee,"Jl.bendungan No.1, Watumotobe, Kec. Kapontori, Kabupaten Buton, Sulawesi Tenggara 93755","Watumotobe, Kec. Kapontori, Kabupaten Buton",SULAWESI TENGGARA,93755.0,Indonesia,,,,-5.2598047,122.8479358,https://maps.google.com/?cid=0x0:0xee64980903fe2fa7,
cafe,Rumah Makan,Rumah Makan Gunung Wawompu,"QRWR+XPR, Jl. Inaoce, Wakangka, Kec. Kapontori, Kabupaten Buton, Sulawesi Tenggara 93755","Jl. Inaoce, Wakangka, Kec. Kapontori, Kabupaten Buton",SULAWESI TENGGARA,93755.0,Indonesia,,,,-5.2025058,122.8417658,https://maps.google.com/?cid=0x0:0x2880388475f3e6af,
cafe,Makanan Kecil,Kios Mita,"PPF5+GPV, Jl. Anoa, Barangka, Kec. Kapontori, Kabupaten Buton, Sulawesi Tenggara 93755","Jl. Anoa, Barangka, Kec. Kapontori, Kabupaten Buton",SULAWESI TENGGARA,93755.0,Indonesia,,,,-5.2761404,122.7092936,https://maps.google.com/?cid=0x0:0x18a15de881100b17,
cafe,Titik Pemandangan,Rest Area Tumada,"VQQP+9WP, Jalan, Bataraguru, Liwumetingki, Muna Regency, South East Sulawesi 93755","Jalan, Bataraguru, Liwumetingki, Muna Regency",SULAWESI TENGGARA,93755.0,Indonesia,,,,-5.1115452,122.7873172,https://maps.google.com/?cid=0x0:0xec2829bcf643346,
cafe,Restoran,Warung Makan Nanda,"PPG5+9XG, Barangka, Kec. Kapontori, Kabupaten Buton, Sulawesi Tenggara 93755","Barangka, Kec. Kapontori, Kabupaten Buton",SULAWESI TENGGARA,93755.0,Indonesia,,,,-5.2740685,122.7099442,https://maps.google.com/?cid=0x0:0x34234f0003ac6b3c,
cafe,Kedai Kopi,Kedai FLUO COFFEE  eatery,"GRCW+X25, Saragi, Kec. Ps. Wajo, Kabupaten Buton, Sulawesi Tenggara","Kabupaten Buton, Sulawesi Tenggara",SULAWESI TENGGARA,,Indonesia,82143254069.0,,,-5.4776162,122.8451159,https://maps.google.com/?cid=0x0:0x25a313ef11b51d09,
cafe,Rumah Makan,Rumah Makan Lambusango,"QRG5+F8H, Watumotobe, Kec. Kapontori, Kabupaten Buton, Sulawesi Tenggara 93755","Watumotobe, Kec. Kapontori, Kabupaten Buton",SULAWESI TENGGARA,93755.0,Indonesia,,,,-5.2238188,122.8083503,https://maps.google.com/?cid=0x0:0x50610edf6883623e,
cafe,Restoran,Rm. Safana,"PPG5+MX8, Jl. Anoa, Mabulugo, Kec. Kapontori, Kabupaten Buton, Sulawesi Tenggara 93755","Jl. Anoa, Mabulugo, Kec. Kapontori, Kabupaten Buton",SULAWESI TENGGARA,93755.0,Indonesia,,,,-5.2733451,122.7099394,https://maps.google.com/?cid=0x0:0x92b66e83eccecb97,
cafe,Restoran,Rumah Makan Mama Yanti,"QRWP+J5C, Jl. Inaoce, Wakangka, Kec. Kapontori, Kabupaten Buton, Sulawesi Tenggara 93755","Jl. Inaoce, Wakangka, Kec. Kapontori, Kabupaten Buton",SULAWESI TENGGARA,93755.0,Indonesia,,,,-5.2034302,122.8353905,https://maps.google.com/?cid=0x0:0xc0a40fd1362f879b,
cafe,Kedai Kopi,Monsieur Cara Cafe,"FRMR+XMP, Jl. Pangeran Limboro, Banabungi, Kec. Ps. Wajo, Kabupaten Buton, Sulawesi Tenggara 93754","Jl. Pangeran Limboro, Banabungi, Kec. Ps. Wajo, Kabupaten Buton",SULAWESI TENGGARA,93754.0,Indonesia,,,,-5.5150273,122.8417002,https://maps.google.com/?cid=0x0:0x92bbf11f419824bb,
cafe,Kafe,MR.JOSH COFFEE  EATERY,"FRVV+FXC, Jl, Kec. Ps. Wajo, Kabupaten Buton, Sulawesi Tenggara","Kabupaten Buton, Sulawesi Tenggara",SULAWESI TENGGARA,,Indonesia,,,,-5.5064479,122.845016,https://maps.google.com/?cid=0x0:0x703ed6265604d61c,
cafe,Rumah Makan,Rumah Makan Barokah,"PPRR+HPG, Boneatiro, Kec. Kapontori, Kabupaten Buton, Sulawesi Tenggara 93755","Boneatiro, Kec. Kapontori, Kabupaten Buton",SULAWESI TENGGARA,93755.0,Indonesia,,,,-5.2585593,122.7418411,https://maps.google.com/?cid=0x0:0x347d656d9181e1fc,
cafe,Restoran,K-KEDAI COFFEE,"Ps. Wajo, Kec. Ps. Wajo, Kabupaten Buton, Sulawesi Tenggara","Kabupaten Buton, Sulawesi Tenggara",SULAWESI TENGGARA,,Indonesia,81241419060.0,,,-5.5007987,122.8457589,https://maps.google.com/?cid=0x0:0xfe027529b480f499,
cafe,Kedai Kopi,FLUO SPACE,"GV92+CC7, Jl. Protokol, Saragi, Kec. Ps. Wajo, Kabupaten Buton, Sulawesi Tenggara","Kabupaten Buton, Sulawesi Tenggara",SULAWESI TENGGARA,,Indonesia,81392156857.0,,,-5.4814605,122.8510591,https://maps.google.com/?cid=0x0:0x5ef8e3ff4c0b469d,
cafe,Kedai Kopi,MABES COMMUNITY (PUNCAK MANDAR),"QH4C+72P, Watulea, Kec. Gu, Kabupaten Buton, Sulawesi Tenggara","Kabupaten Buton, Sulawesi Tenggara",SULAWESI TENGGARA,,Indonesia,,,,-5.2442802,122.5700802,https://maps.google.com/?cid=0x0:0x3f1f0a22a6d07911,
cafe,Kafe,Internet Cafe 777,"JMQQ+X9Q, Jl. Arjuna, Ngkari-Ngkari, Kec. Bungi, Kota Bau-Bau, Sulawesi Tenggara 93758","Jl. Arjuna, Ngkari-Ngkari, Kec. Bungi, Kota Bau-Bau",SULAWESI TENGGARA,93758.0,Indonesia,82146841266.0,,,-5.360036,122.6884806,https://maps.google.com/?cid=0x0:0xd6e17ce561e218f8,
cafe,Dapur Umum,Nasi Kuning Mama Nining,"PPC5+WCC, Jl. Anoa, Mabulugo, Kec. Kapontori, Kabupaten Buton, Sulawesi Tenggara 93755","Jl. Anoa, Mabulugo, Kec. Kapontori, Kabupaten Buton",SULAWESI TENGGARA,93755.0,Indonesia,,,,-5.2777474,122.7087112,https://maps.google.com/?cid=0x0:0x33bcaf4015dc2edc,
cafe,Servis Komputer,syafi hostpot,"Wakangka, Kec. Kapontori, Kabupaten Buton, Sulawesi Tenggara 93755","Kec. Kapontori, Kabupaten Buton",SULAWESI TENGGARA,93755.0,Indonesia,,,,-5.2050335,122.8366617,https://maps.google.com/?cid=0x0:0xdd852b7a7deb634a,
cafe,Restoran,Kedai Eko,"RV69+QH6, Jl. Inaoce, Wambulu, Kec. Kapontori, Kabupaten Buton, Sulawesi Tenggara 93755","Jl. Inaoce, Wambulu, Kec. Kapontori, Kabupaten Buton",SULAWESI TENGGARA,93755.0,Indonesia,82393272445.0,,,-5.1880551,122.8688638,https://maps.google.com/?cid=0x0:0x660de75e899f01e5,
cafe,Restoran,Cafe Pondok Bambu,"GVC2+6RW, Saragi, Kec. Ps. Wajo, Kabupaten Buton, Sulawesi Tenggara","Kabupaten Buton, Sulawesi Tenggara",SULAWESI TENGGARA,,Indonesia,,,,-5.4793958,122.8520776,https://maps.google.com/?cid=0x0:0x572436ae055986dc,
cafe,Restoran,Rumah Makan Dua Putri Puncak Tumada,"VQQP+7WG, Tumada, Kec. Kapontori, Kabupaten Buton, Sulawesi Tenggara 93755","Tumada, Kec. Kapontori, Kabupaten Buton",SULAWESI TENGGARA,93755.0,Indonesia,82248888746.0,,,-5.1117501,122.7873183,https://maps.google.com/?cid=0x0:0x287311234f165156,
cafe,cafe,Titikkoma caffe,"GR8X+55J, Jl. Protokol, Saragi, Kec. Ps. Wajo, Kabupaten Buton, Sulawesi Tenggara","Kabupaten Buton, Sulawesi Tenggara",SULAWESI TENGGARA,,Indonesia,81350360083.0,,,-5.4851738,122.8475413,https://maps.google.com/?cid=0x0:0x4a9fbb40bb1f25ae,
cafe,Kedai Kopi,BOOBA PHINAMIPO,"Jl. Ra. Kartini, Kambula Mbulana, Kec. Ps. Wajo, Kabupaten Buton, Sulawesi Tenggara 93754","Kambula Mbulana, Kec. Ps. Wajo, Kabupaten Buton",SULAWESI TENGGARA,93754.0,Indonesia,82215847230.0,,,-5.4971116,122.8452346,https://maps.google.com/?cid=0x0:0x65788419ea4259fc,
cafe,Kedai Kopi,KLASIX Cafe  Hills,"Jl. Poros RSUD Buton Tengah, Bombonawulu, Kec. Gu, Lombe, Sulawesi Tenggara 97361","Bombonawulu, Kec. Gu, Lombe",SULAWESI TENGGARA,97361.0,Indonesia,85757233128.0,,,-5.2605921,122.5791671,https://maps.google.com/?cid=0x0:0x5a4f173f2cadb5c4,
cafe,Pasar,Anes Coffee Kaongkeongkea,"GQH3+9RJ, Wakaokili, Kec. Ps. Wajo, Kabupaten Buton, Sulawesi Tenggara 93757","Wakaokili, Kec. Ps. Wajo, Kabupaten Buton",SULAWESI TENGGARA,93757.0,Indonesia,85240063003.0,,,-5.4715304,122.7545013,https://maps.google.com/?cid=0x0:0x844a7e8f54e1caac,
cafe,Kafe,KEPO CAFFE LOMBE,"Lombe, Walando, Kec. Gu, Kabupaten Buton tengah, Sulawesi Tenggara 93761","Walando, Kec. Gu, Kabupaten Buton tengah",SULAWESI TENGGARA,93761.0,Indonesia,82349151119.0,,,-5.2544948,122.573102,https://maps.google.com/?cid=0x0:0xe560261b3494fe5e,
cafe,cafe,Lasalimu,"Wasuamba, Kec. Lasalimu, Kabupaten Buton, Sulawesi Tenggara","Kabupaten Buton, Sulawesi Tenggara",SULAWESI TENGGARA,,Indonesia,,,,-5.224197,123.127403,https://maps.google.com/?cid=0x0:0xb739d9e9697eebf9,
cafe,Kedai Kopi,KEDAI SA,"P487+86R, Mulya Jaya, Kec. Lasalimu Sel., Kabupaten Buton, Sulawesi Tenggara 93756","Mulya Jaya, Kec. Lasalimu Sel., Kabupaten Buton",SULAWESI TENGGARA,93756.0,Indonesia,82264849774.0,,,-5.2841313,123.1130213,https://maps.google.com/?cid=0x0:0x3a936427b0857765,
cafe,Kedai Kopi,Kedai Tani,"P5V3+MP9, Jl. poros Lasalimu, Lasalimu, Kec. Lasalimu Sel., Kabupaten Buton, Sulawesi Tenggara 93756","Jl. poros Lasalimu, Lasalimu, Kec. Lasalimu Sel., Kabupaten Buton",SULAWESI TENGGARA,93756.0,Indonesia,,,,-5.2558436,123.1543491,https://maps.google.com/?cid=0x0:0x4a48e4190fe191f6,
cafe,Komplek perumahan,Molona Cafe  Resto,"8F6G+6RP, Molona, Kec. Siompu Bar., Kabupaten Buton, Sulawesi Tenggara","Kabupaten Buton, Sulawesi Tenggara",SULAWESI TENGGARA,,Indonesia,,,,-5.6894138,122.4770867,https://maps.google.com/?cid=0x0:0x3fe15be8a9eebf81,
cafe,Dapur Umum,ambuau,"JX4M+JJP, Jl. Poros Lasalimu, Walompo, Kec. Wolowa, Kabupaten Buton, Sulawesi Tenggara","Kabupaten Buton, Sulawesi Tenggara",SULAWESI TENGGARA,,Indonesia,,,,-5.3934096,122.9840807,https://maps.google.com/?cid=0x0:0xd5f99df72441b7a5,
cafe,Kedai Kopi,KLASIX Cafe  Hills,"Jl. Poros RSUD Buton Tengah, Bombonawulu, Kec. Gu, Lombe, Sulawesi Tenggara 97361","Bombonawulu, Kec. Gu, Lombe",SULAWESI TENGGARA,97361.0,Indonesia,85757233128.0,,,-5.2605921,122.5791671,https://maps.google.com/?cid=0x0:0x5a4f173f2cadb5c4,
cafe,Kedai Kopi,L. CLASICC COFFIE,"9Q73+HP8, Gerak Makmur, Kec. Sampolawa, Kabupaten Buton, Sulawesi Tenggara 93753","Gerak Makmur, Kec. Sampolawa, Kabupaten Buton",SULAWESI TENGGARA,93753.0,Indonesia,81349316058.0,,,-5.6367555,122.7543945,https://maps.google.com/?cid=0x0:0x61bd8d012794c04b,
cafe,Rumah Makan,Cafe Triple S,"M969+GXW, Lakorua, Kec. Mawasangka Tengah, Kabupaten Buton, Sulawesi Tenggara 93762","Lakorua, Kec. Mawasangka Tengah, Kabupaten Buton",SULAWESI TENGGARA,93762.0,Indonesia,,,,-5.3397677,122.37032,https://maps.google.com/?cid=0x0:0xb725b4a05c639c51,
cafe,Kedai Kopi,Banyuwanggi,"QXVG+9CV, Suandala, Kec. Lasalimu, Kabupaten Buton, Sulawesi Tenggara","Kabupaten Buton, Sulawesi Tenggara",SULAWESI TENGGARA,,Indonesia,,,,-5.206522,122.976058,https://maps.google.com/?cid=0x0:0x93b183adaa986516,
cafe,Toko bahan makanan,RUMAH FAIKHAL JR,"R3FH+438, Desa, Talaga Baru, Bonelalo, Kec. Lasalimu, Kabupaten Buton, Sulawesi Tenggara 93756","Desa, Talaga Baru, Bonelalo, Kec. Lasalimu, Kabupaten Buton",SULAWESI TENGGARA,93756.0,Indonesia,,,,-5.177443,123.077123,https://maps.google.com/?cid=0x0:0xa5424d107b7de41a,
cafe,cafe,KEDAI ALASTENG,"Q527+376, Lasalimu, Kec. Lasalimu Sel., Kabupaten Buton, Sulawesi Tenggara 93756","Lasalimu, Kec. Lasalimu Sel., Kabupaten Buton",SULAWESI TENGGARA,93756.0,Indonesia,,,,-5.2498419,123.1631518,https://maps.google.com/?cid=0x0:0x7ee542b12baac65e,
cafe,Kedai Kopi,KEDAI KPR,"Jalan poros Baubau lasalimu Simpang Tiga, Pasar, Ambuau Indah, Kabupaten Buton, Sulawesi Tenggara 93756","Pasar, Ambuau Indah, Kabupaten Buton",SULAWESI TENGGARA,93756.0,Indonesia,85242765291.0,,,-5.3187445,123.1617693,https://maps.google.com/?cid=0x0:0xc069377e5aa2d469,
cafe,Kafe,LONGLAST CAFE,"Jl. Erlangga, Tarafu, Batupoara, Kota Bau-Bau, Sulawesi Tenggara 93721","Tarafu, Batupoara, Kota Bau-Bau",SULAWESI TENGGARA,93721.0,Indonesia,81354071380.0,,,-5.4625647,122.5953957,https://maps.google.com/?cid=0x0:0x9a25fb1b19815469,
cafe,Restoran,Warung makan mama yanti,"PW7J+GXX, Lawele, Kec. Lasalimu, Kabupaten Buton, Sulawesi Tenggara 93756","Lawele, Kec. Lasalimu, Kabupaten Buton",SULAWESI TENGGARA,93756.0,Indonesia,,,,-5.2861381,122.9324972,https://maps.google.com/?cid=0x0:0x854889d165c19e9,
cafe,cafe,Kec. Lasalimu Sel.,"Kabupaten Buton, Sulawesi Tenggara","Kabupaten Buton, Sulawesi Tenggara",SULAWESI TENGGARA,,Indonesia,,,,-5.2517585,123.1595225,https://maps.google.com/?cid=0x0:0x43dc32910467e706,
cafe,Kedai Kopi,KEDAI KPR,"Jalan poros Baubau lasalimu Simpang Tiga, Pasar, Ambuau Indah, Kabupaten Buton, Sulawesi Tenggara 93756","Pasar, Ambuau Indah, Kabupaten Buton",SULAWESI TENGGARA,93756.0,Indonesia,85242765291.0,,,-5.3187445,123.1617693,https://maps.google.com/?cid=0x0:0xc069377e5aa2d469,
cafe,Kedai Kopi,KEDAI SA,"P487+86R, Mulya Jaya, Kec. Lasalimu Sel., Kabupaten Buton, Sulawesi Tenggara 93756","Mulya Jaya, Kec. Lasalimu Sel., Kabupaten Buton",SULAWESI TENGGARA,93756.0,Indonesia,82264849774.0,,,-5.2841313,123.1130213,https://maps.google.com/?cid=0x0:0x3a936427b0857765,
cafe,Restoran,Warung pecel,"M4RQ+V33, Siomanuru, Kec. Lasalimu Sel., Kabupaten Buton, Sulawesi Tenggara 93756","Siomanuru, Kec. Lasalimu Sel., Kabupaten Buton",SULAWESI TENGGARA,93756.0,Indonesia,81359481526.0,,,-5.3083567,123.137647,https://maps.google.com/?cid=0x0:0xe9a706512dd23485,
cafe,Kedai Kopi,Kay Cafe,"M5G8+P3X, Ambuau Indah, Kec. Lasalimu Sel., Kabupaten Buton, Sulawesi Tenggara 93756","Ambuau Indah, Kec. Lasalimu Sel., Kabupaten Buton",SULAWESI TENGGARA,93756.0,Indonesia,,,,-5.3231289,123.1652325,https://maps.google.com/?cid=0x0:0x62fbb24caeb5526f,
cafe,Nasi,Warung Makan Pelipur Lapar,"M5H8+M7V, Ambuau Indah, Kec. Lasalimu Sel., Kabupaten Buton, Sulawesi Tenggara 93756","Ambuau Indah, Kec. Lasalimu Sel., Kabupaten Buton",SULAWESI TENGGARA,93756.0,Indonesia,,,,-5.3207551,123.1656752,https://maps.google.com/?cid=0x0:0x62275ffee4c47b54,
cafe,Rumah Makan,Rumah Makan Pangandaran,"Jl. Jend Sudirman No.45, Wajah Jaya, Kec. Lasalimu Sel., Kabupaten Buton, Sulawesi Tenggara 93756","Wajah Jaya, Kec. Lasalimu Sel., Kabupaten Buton",SULAWESI TENGGARA,93756.0,Indonesia,82291126779.0,,,-5.2855094,123.1432634,https://maps.google.com/?cid=0x0:0xf33dc7b27c977641,
cafe,Dapur Umum,RM.KALITA,"Desa, sumber agung, Kec. Lasalimu Sel., Kabupaten Buton, Sulawesi Tenggara 93756","sumber agung, Kec. Lasalimu Sel., Kabupaten Buton",SULAWESI TENGGARA,93756.0,Indonesia,81346514145.0,,,-5.2822801,123.1134832,https://maps.google.com/?cid=0x0:0x2944e82672fc5549,
cafe,Rumah Makan,WARUNG MAKAN MBAK CEMPLUK,"M5V5+936, Kinapani Makmur, Kec. Lasalimu Sel., Kabupaten Buton, Sulawesi Tenggara 93756","Kinapani Makmur, Kec. Lasalimu Sel., Kabupaten Buton",SULAWESI TENGGARA,93756.0,Indonesia,82192059585.0,,,-5.306597,123.1576429,https://maps.google.com/?cid=0x0:0xb8e5014a834a9323,
cafe,Rumah Makan,Warung Makan Coto Makasar,"M5Q6+P3J, Kinapani Makmur, Kec. Lasalimu Sel., Kabupaten Buton, Sulawesi Tenggara 93756","Kinapani Makmur, Kec. Lasalimu Sel., Kabupaten Buton",SULAWESI TENGGARA,93756.0,Indonesia,,,,-5.3106542,123.1601547,https://maps.google.com/?cid=0x0:0x85374a23c4268647,
cafe,Restoran,Warung Makan Mbak Soni,"M5P5+RR5, Desa, Kinapani Makmur, Kec. Lasalimu Sel., Kabupaten Buton, Sulawesi Tenggara 93756","Desa, Kinapani Makmur, Kec. Lasalimu Sel., Kabupaten Buton",SULAWESI TENGGARA,93756.0,Indonesia,,,,-5.3129791,123.1596227,https://maps.google.com/?cid=0x0:0xebc08dba24aa7b41,
cafe,Brunch,Rumah Makan Rahmad,"M5C6+C6X, Togo, Kec. Lasalimu Sel., Kabupaten Buton, Sulawesi Tenggara 93756","Togo, Kec. Lasalimu Sel., Kabupaten Buton",SULAWESI TENGGARA,93756.0,Indonesia,,,,-5.3289799,123.1603482,https://maps.google.com/?cid=0x0:0xb55e2f104d09978,
cafe,Dapur Umum,ambuau,"JX4M+JJP, Jl. Poros Lasalimu, Walompo, Kec. Wolowa, Kabupaten Buton, Sulawesi Tenggara","Kabupaten Buton, Sulawesi Tenggara",SULAWESI TENGGARA,,Indonesia,,,,-5.3934096,122.9840807,https://maps.google.com/?cid=0x0:0xd5f99df72441b7a5,
cafe,Rumah Makan,Cafe Triple S,"M969+GXW, Lakorua, Kec. Mawasangka Tengah, Kabupaten Buton, Sulawesi Tenggara 93762","Lakorua, Kec. Mawasangka Tengah, Kabupaten Buton",SULAWESI TENGGARA,93762.0,Indonesia,,,,-5.3397677,122.37032,https://maps.google.com/?cid=0x0:0xb725b4a05c639c51,
cafe,Indonesia,KEDAI MAZ CANDRA (MIE AYAM BAKSO),"M5J7+MJ6, Unnamed Road, Ambuau Indah, Kec. Lasalimu Sel., Kabupaten Buton, Sulawesi Tenggara 93756","Unnamed Road, Ambuau Indah, Kec. Lasalimu Sel., Kabupaten Buton",SULAWESI TENGGARA,93756.0,Indonesia,85241993912.0,,,-5.3183436,123.1640076,https://maps.google.com/?cid=0x0:0xd65eef049c4de2e2,
cafe,Brunch,Lesehan mangga dua,"Q3G9+632, Lasembangi, Kec. Lasalimu, Kabupaten Buton, Sulawesi Tenggara 93756","Lasembangi, Kec. Lasalimu, Kabupaten Buton",SULAWESI TENGGARA,93756.0,Indonesia,,,,-5.2244891,123.0676469,https://maps.google.com/?cid=0x0:0xdfd0a4545657a40f,
cafe,Restoran,WM. Ayam Geprek Mbak Cempluk,"P54F+7Q9, Kinapani Makmur, Kec. Lasalimu Sel., Kabupaten Buton, Sulawesi Tenggara 93756","Kinapani Makmur, Kec. Lasalimu Sel., Kabupaten Buton",SULAWESI TENGGARA,93756.0,Indonesia,82192059585.0,,,-5.294349,123.1744938,https://maps.google.com/?cid=0x0:0xf20b788d5e29befb,
cafe,Kedai Kopi,Kedai Es Pisang Ijo Bu Asriani,"Jl. poros Lasalimu No.4444, Lasalimu, Kec. Lasalimu Sel., Kabupaten Buton, Sulawesi Tenggara 93756","Lasalimu, Kec. Lasalimu Sel., Kabupaten Buton",SULAWESI TENGGARA,93756.0,Indonesia,82193598977.0,,,-5.2558512,123.1547953,https://maps.google.com/?cid=0x0:0x6ec46fc04eff584a,
cafe,Restoran,cafe Grand Lampusui,"62HW+PC7, Jl. Yos Sudarso Rumbia, Lampopala, Kec. Rumbia, Kabupaten Bombana, Sulawesi Tenggara 93771","Jl. Yos Sudarso Rumbia, Lampopala, Kec. Rumbia, Kabupaten Bombana",SULAWESI TENGGARA,93771.0,Indonesia,,,,-4.7707182,122.0460557,https://maps.google.com/?cid=0x0:0xcb34b3baecc790bf,
cafe,Pusat Perbelanjaan,Lawang Pitu CoffeeShop,"3GV3+GHW, Bumi Indah, Kec. Lalonggasumeeto, Kabupaten Konawe, Sulawesi Tenggara 93351","Bumi Indah, Kec. Lalonggasumeeto, Kabupaten Konawe",SULAWESI TENGGARA,93351.0,Indonesia,81222207810.0,,,-3.9061377,122.5039392,https://maps.google.com/?cid=0x0:0x495c584a97a1a4ad,
cafe,Kedai Kopi,L. CLASICC COFFIE,"9Q73+HP8, Gerak Makmur, Kec. Sampolawa, Kabupaten Buton, Sulawesi Tenggara 93753","Gerak Makmur, Kec. Sampolawa, Kabupaten Buton",SULAWESI TENGGARA,93753.0,Indonesia,81349316058.0,,,-5.6367555,122.7543945,https://maps.google.com/?cid=0x0:0x61bd8d012794c04b,
cafe,Toko bahan makanan,RUMAH FAIKHAL JR,"R3FH+438, Desa, Talaga Baru, Bonelalo, Kec. Lasalimu, Kabupaten Buton, Sulawesi Tenggara 93756","Desa, Talaga Baru, Bonelalo, Kec. Lasalimu, Kabupaten Buton",SULAWESI TENGGARA,93756.0,Indonesia,,,,-5.177443,123.077123,https://maps.google.com/?cid=0x0:0xa5424d107b7de41a,
cafe,Komplek perumahan,PANDE CELL,"Upt. Lapokamata, Jl. Patimura No.8, Rejosari, Kec. Lasalimu Sel., Kabupaten Buton, Sulawesi Tenggara 93756","Jl. Patimura No.8, Rejosari, Kec. Lasalimu Sel., Kabupaten Buton",SULAWESI TENGGARA,93756.0,Indonesia,81321777377.0,,,-5.321178,123.106232,https://maps.google.com/?cid=0x0:0x9ffcaf5d4d902acb,
cafe,Kios,Rumah mama Tia,"M56F+GR6, Mega Bahari, Kec. Lasalimu Sel., Kabupaten Buton, Sulawesi Tenggara","Kabupaten Buton, Sulawesi Tenggara",SULAWESI TENGGARA,,Indonesia,,,,-5.3387171,123.1745097,https://maps.google.com/?cid=0x0:0xba270d2494e23ec5,
cafe,cafe,KEDAI ALASTENG,"Q527+376, Lasalimu, Kec. Lasalimu Sel., Kabupaten Buton, Sulawesi Tenggara 93756","Lasalimu, Kec. Lasalimu Sel., Kabupaten Buton",SULAWESI TENGGARA,93756.0,Indonesia,,,,-5.2498419,123.1631518,https://maps.google.com/?cid=0x0:0x7ee542b12baac65e,
cafe,cafe,Warung Kopi,"M5J7+MC7, Desa, Ambuau Indah, Kec. Lasalimu Sel., Kabupaten Buton, Sulawesi Tenggara 93756","Desa, Ambuau Indah, Kec. Lasalimu Sel., Kabupaten Buton",SULAWESI TENGGARA,93756.0,Indonesia,,,,-5.3183497,123.1635392,https://maps.google.com/?cid=0x0:0x90951bdee8bdcf7b,
cafe,cafe,Kec. Ps. Wajo,"Kabupaten Buton, Sulawesi Tenggara","Kabupaten Buton, Sulawesi Tenggara",SULAWESI TENGGARA,,Indonesia,,,,-5.5143888,122.8408508,https://maps.google.com/?cid=0x0:0xd8cb6cdd80295dce,
cafe,Kedai Kopi,Monsieur Cara Cafe,"FRMR+XMP, Jl. Pangeran Limboro, Banabungi, Kec. Ps. Wajo, Kabupaten Buton, Sulawesi Tenggara 93754","Jl. Pangeran Limboro, Banabungi, Kec. Ps. Wajo, Kabupaten Buton",SULAWESI TENGGARA,93754.0,Indonesia,,,,-5.5150273,122.8417002,https://maps.google.com/?cid=0x0:0x92bbf11f419824bb,
cafe,Kedai Kopi,Leter buton pasarwajo,"GR6W+XCV, Kambula Mbulana, Kec. Ps. Wajo, Kabupaten Buton, Sulawesi Tenggara 93752","Kambula Mbulana, Kec. Ps. Wajo, Kabupaten Buton",SULAWESI TENGGARA,93752.0,Indonesia,,,,-5.4875006,122.846054,https://maps.google.com/?cid=0x0:0x13a7704613da350c,
cafe,Kafe,MR.JOSH COFFEE  EATERY,"FRVV+FXC, Jl, Kec. Ps. Wajo, Kabupaten Buton, Sulawesi Tenggara","Kabupaten Buton, Sulawesi Tenggara",SULAWESI TENGGARA,,Indonesia,,,,-5.5064479,122.845016,https://maps.google.com/?cid=0x0:0x703ed6265604d61c,
cafe,Restoran,K-KEDAI COFFEE,"Ps. Wajo, Kec. Ps. Wajo, Kabupaten Buton, Sulawesi Tenggara","Kabupaten Buton, Sulawesi Tenggara",SULAWESI TENGGARA,,Indonesia,81241419060.0,,,-5.5007987,122.8457589,https://maps.google.com/?cid=0x0:0xfe027529b480f499,
cafe,Kedai Kopi,BOOBA PHINAMIPO,"Jl. Ra. Kartini, Kambula Mbulana, Kec. Ps. Wajo, Kabupaten Buton, Sulawesi Tenggara 93754","Kambula Mbulana, Kec. Ps. Wajo, Kabupaten Buton",SULAWESI TENGGARA,93754.0,Indonesia,82215847230.0,,,-5.4971116,122.8452346,https://maps.google.com/?cid=0x0:0x65788419ea4259fc,
cafe,Kedai Kopi,Kedai FLUO COFFEE  eatery,"GRCW+X25, Saragi, Kec. Ps. Wajo, Kabupaten Buton, Sulawesi Tenggara","Kabupaten Buton, Sulawesi Tenggara",SULAWESI TENGGARA,,Indonesia,82143254069.0,,,-5.4776162,122.8451159,https://maps.google.com/?cid=0x0:0x25a313ef11b51d09,
cafe,Restoran,Rumah Makan Wisata,"FRVV+FXC, Jl, Pasar Wajo, Buton Regency, South East Sulawesi","Kabupaten Buton, Sulawesi Tenggara",SULAWESI TENGGARA,,Indonesia,82259056019.0,,,-5.5063153,122.8449037,https://maps.google.com/?cid=0x0:0x1bd1be14bb2de7f0,
cafe,Pasar,Anes Coffee Kaongkeongkea,"GQH3+9RJ, Wakaokili, Kec. Ps. Wajo, Kabupaten Buton, Sulawesi Tenggara 93757","Wakaokili, Kec. Ps. Wajo, Kabupaten Buton",SULAWESI TENGGARA,93757.0,Indonesia,85240063003.0,,,-5.4715304,122.7545013,https://maps.google.com/?cid=0x0:0x844a7e8f54e1caac,
cafe,Kedai Kopi,FLUO SPACE,"GV92+CC7, Jl. Protokol, Saragi, Kec. Ps. Wajo, Kabupaten Buton, Sulawesi Tenggara","Kabupaten Buton, Sulawesi Tenggara",SULAWESI TENGGARA,,Indonesia,81392156857.0,,,-5.4814605,122.8510591,https://maps.google.com/?cid=0x0:0x5ef8e3ff4c0b469d,
cafe,cafe,Titikkoma caffe,"GR8X+55J, Jl. Protokol, Saragi, Kec. Ps. Wajo, Kabupaten Buton, Sulawesi Tenggara","Kabupaten Buton, Sulawesi Tenggara",SULAWESI TENGGARA,,Indonesia,81350360083.0,,,-5.4851738,122.8475413,https://maps.google.com/?cid=0x0:0x4a9fbb40bb1f25ae,
cafe,Restoran,Warung Makan Paseba,"FRMV+PPP, Unnamed Road, Banabungi, Kec. Ps. Wajo, Kabupaten Buton, Sulawesi Tenggara 93754","Unnamed Road, Banabungi, Kec. Ps. Wajo, Kabupaten Buton",SULAWESI TENGGARA,93754.0,Indonesia,81276350086.0,,,-5.5156717,122.8443267,https://maps.google.com/?cid=0x0:0x7b584289c0902137,
cafe,Rumah Kayu,Angkringan Pasarwajo Kota,"GR6W+P88, Kambula Mbulana, Kec. Ps. Wajo, Kabupaten Buton, Sulawesi Tenggara 93752","Kambula Mbulana, Kec. Ps. Wajo, Kabupaten Buton",SULAWESI TENGGARA,93752.0,Indonesia,,,,-5.4879589,122.8458344,https://maps.google.com/?cid=0x0:0xf21d491da469fc7a,
cafe,Rumah Makan,Rm Idola Pasar Wajo Buton,"Jl. Protokol No.59, Kambula Mbulana, Kec. Ps. Wajo, Kabupaten Buton, Sulawesi Tenggara 93754","Kambula Mbulana, Kec. Ps. Wajo, Kabupaten Buton",SULAWESI TENGGARA,93754.0,Indonesia,,,,-5.4916185,122.8457157,https://maps.google.com/?cid=0x0:0xc26fbd8dbd3e7f89,
cafe,Kedai Kopi,Kios dua putra,"FRPR+8PR, Banabungi, Kec. Ps. Wajo, Kabupaten Buton, Sulawesi Tenggara","Kabupaten Buton, Sulawesi Tenggara",SULAWESI TENGGARA,,Indonesia,,,,-5.5141292,122.8417638,https://maps.google.com/?cid=0x0:0x2a96b6f1e3171a08,
cafe,Tempat Cukur Rambut,Mamberamo Barber  coffe Shop,"Kambula Mbulana, Kec. Ps. Wajo, Kabupaten Buton, Sulawesi Tenggara 93754","Kec. Ps. Wajo, Kabupaten Buton",SULAWESI TENGGARA,93754.0,Indonesia,81247451392.0,,,-5.4924287,122.8420376,https://maps.google.com/?cid=0x0:0x3b28372d992f15d6,
cafe,Kedai Kopi,Kedai Koja Koja leter buton,"GR7W+3HJ, Kambula Mbulana, Kec. Ps. Wajo, Leter Buton, Sulawesi Tenggara","Leter Buton, Sulawesi Tenggara",SULAWESI TENGGARA,,Indonesia,82395663337.0,,,-5.4872875,122.8463906,https://maps.google.com/?cid=0x0:0xa40760803311c504,
cafe,Kedai Kopi,D'Traz Coffe,"FRQV+R7Q, Jl. Protokol, Banabungi, Kec. Ps. Wajo, Kabupaten Buton, Sulawesi Tenggara 93754","Jl. Protokol, Banabungi, Kec. Ps. Wajo, Kabupaten Buton",SULAWESI TENGGARA,93754.0,Indonesia,,,,-5.5104235,122.8432206,https://maps.google.com/?cid=0x0:0x15c81f6b5bec1520,
cafe,Restoran,Warung Makan Barokah,"Pasar Wajo, Ps. Wajo, Kec. Ps. Wajo, Kabupaten Buton, Sulawesi Tenggara","Kabupaten Buton, Sulawesi Tenggara",SULAWESI TENGGARA,,Indonesia,,,,-5.5037055,122.8453057,https://maps.google.com/?cid=0x0:0x9365b37618b145fd,
cafe,Rumah Makan,Dapoer Mamatha,"FRCW+M3R, Awainulu, Kec. Ps. Wajo, Kabupaten Buton, Sulawesi Tenggara","Kabupaten Buton, Sulawesi Tenggara",SULAWESI TENGGARA,,Indonesia,,,,-5.5282664,122.8451461,https://maps.google.com/?cid=0x0:0x64812d95d88a31d6,
cafe,Kedai Kopi,Kedai Keen@nAura,"Jl. Poros Pasarwajo, Kancinaa, Kec. Ps. Wajo, Kabupaten Buton, Sulawesi Tenggara 93754","Kancinaa, Kec. Ps. Wajo, Kabupaten Buton",SULAWESI TENGGARA,93754.0,Indonesia,82187292865.0,,,-5.4442808,122.8850828,https://maps.google.com/?cid=0x0:0x6b7eae3c695871d9,
cafe,Kedai Kopi,DIP BUTIK,"Depan kampus B Universitas Muhammadiyah, Kel.wakoko, Kabupaten Buton, Sulawesi Tenggara 93754","Kel.wakoko, Kabupaten Buton",SULAWESI TENGGARA,93754.0,Indonesia,81355570930.0,,,-5.4647106,122.8607193,https://maps.google.com/?cid=0x0:0x2268e9f3d4da02a9,
cafe,Rumah Makan,KEDAIKU,"Jl. Kihajar Dewantara, Kambulabulana, Kec. Ps. Wajo, Kabupaten Buton, Sulawesi Tenggara 93754","Kambulabulana, Kec. Ps. Wajo, Kabupaten Buton",SULAWESI TENGGARA,93754.0,Indonesia,85241764748.0,,,-5.4994786,122.8426567,https://maps.google.com/?cid=0x0:0xe7b72752b4144069,
cafe,Kedai Kopi,Rano Garden,"FRRQ+FH, Banabungi, Kec. Ps. Wajo, Kabupaten Buton, Sulawesi Tenggara 93754","Banabungi, Kec. Ps. Wajo, Kabupaten Buton",SULAWESI TENGGARA,93754.0,Indonesia,,,,-5.5087559,122.8389166,https://maps.google.com/?cid=0x0:0xe148511be19cee9d,
cafe,Restoran,wakoko Rumah Tiga,"GVG3+GFJ, Wasaga, Kec. Ps. Wajo, Kabupaten Buton, Sulawesi Tenggara 93754","Wasaga, Kec. Ps. Wajo, Kabupaten Buton",SULAWESI TENGGARA,93754.0,Indonesia,,,,-5.4736727,122.8536547,https://maps.google.com/?cid=0x0:0x322a79fb4b34bf8d,
cafe,Restoran,HAPPY CHICKEN,"FRQV+R96, Banabungi, Kec. Ps. Wajo, Kabupaten Buton, Sulawesi Tenggara 93754","Banabungi, Kec. Ps. Wajo, Kabupaten Buton",SULAWESI TENGGARA,93754.0,Indonesia,85338374283.0,,,-5.5104551,122.8433805,https://maps.google.com/?cid=0x0:0x89c8cd3199936421,
cafe,Rumah Makan,Warung JAWA,"GVH4+VXF, Wasaga, Kec. Ps. Wajo, Kabupaten Buton, Sulawesi Tenggara 93754","Wasaga, Kec. Ps. Wajo, Kabupaten Buton",SULAWESI TENGGARA,93754.0,Indonesia,,,,-5.4699948,122.8573002,https://maps.google.com/?cid=0x0:0x774e7723c413b8d5,
cafe,cafe,Siontapina,"Kec. Lasalimu Sel., Kabupaten Buton, Sulawesi Tenggara","Kabupaten Buton, Sulawesi Tenggara",SULAWESI TENGGARA,,Indonesia,,,,-5.3242312,123.1182806,https://maps.google.com/?cid=0x0:0x7d394a4da9627623,
cafe,Kedai Kopi,Keday suban,"H3JF+Q2, Manuru, Kec. Siontapina, Kabupaten Buton, Sulawesi Tenggara","Kabupaten Buton, Sulawesi Tenggara",SULAWESI TENGGARA,,Indonesia,81344111316.0,,,-5.418039,123.072595,https://maps.google.com/?cid=0x0:0x474839ebedf75457,
cafe,Rumah Makan,Rumah Makan Pangandaran,"Jl. Jend Sudirman No.45, Wajah Jaya, Kec. Lasalimu Sel., Kabupaten Buton, Sulawesi Tenggara 93756","Wajah Jaya, Kec. Lasalimu Sel., Kabupaten Buton",SULAWESI TENGGARA,93756.0,Indonesia,82291126779.0,,,-5.2855094,123.1432634,https://maps.google.com/?cid=0x0:0xf33dc7b27c977641,
cafe,Kafe,Kopi Pastea.id - MOLONA Siompu Barat,"Jl. Poros, Molona, Kec. Siompu Bar., Kabupaten Buton, Sulawesi Tenggara 93722","Molona, Kec. Siompu Bar., Kabupaten Buton",SULAWESI TENGGARA,93722.0,Indonesia,85292222721.0,,,-5.6906497,122.479685,https://maps.google.com/?cid=0x0:0x5d40e5392daa8280,
cafe,Komplek perumahan,PANDE CELL,"Upt. Lapokamata, Jl. Patimura No.8, Rejosari, Kec. Lasalimu Sel., Kabupaten Buton, Sulawesi Tenggara 93756","Jl. Patimura No.8, Rejosari, Kec. Lasalimu Sel., Kabupaten Buton",SULAWESI TENGGARA,93756.0,Indonesia,81321777377.0,,,-5.321178,123.106232,https://maps.google.com/?cid=0x0:0x9ffcaf5d4d902acb,
cafe,cafe,RUMAH MEGA,"M434+QMV, Sumber Sari, Kec. Siontapina, Kabupaten Buton, Sulawesi Tenggara","Kabupaten Buton, Sulawesi Tenggara",SULAWESI TENGGARA,,Indonesia,,,,-5.3455171,123.1066842,https://maps.google.com/?cid=0x0:0xf258c46061ef605b,
cafe,cafe,kios adam,"M425+MGV, Sumber Sari, Kec. Siontapina, Kabupaten Buton, Sulawesi Tenggara 93756","Sumber Sari, Kec. Siontapina, Kabupaten Buton",SULAWESI TENGGARA,93756.0,Indonesia,82292259241.0,,,-5.34827,123.108806,https://maps.google.com/?cid=0x0:0x339e29cf68f61f6f,
cafe,cafe,Kios hafis,"M4RP+W6M, Siomanuru, Kec. Lasalimu Sel., Kabupaten Buton, Sulawesi Tenggara 93756","Siomanuru, Kec. Lasalimu Sel., Kabupaten Buton",SULAWESI TENGGARA,93756.0,Indonesia,,,,-5.3076686,123.1355458,https://maps.google.com/?cid=0x0:0x2df8add2da51041e,
cafe,Kios,Kedai GORENGAN Mama Hazim,"H2GF+RV3, Jl. Poros Lasalimu, Kuraa, Kec. Siontapina, Kabupaten Buton, Sulawesi Tenggara 93756","Jl. Poros Lasalimu, Kuraa, Kec. Siontapina, Kabupaten Buton",SULAWESI TENGGARA,93756.0,Indonesia,85312602095.0,,,-5.422983,123.0246703,https://maps.google.com/?cid=0x0:0x3927fa0025fe2d9c,
cafe,cafe,Kec. Wolowa,"Kabupaten Buton, Sulawesi Tenggara","Kabupaten Buton, Sulawesi Tenggara",SULAWESI TENGGARA,,Indonesia,,,,-5.4247226,122.9313886,https://maps.google.com/?cid=0x0:0xa030da8146f922b1,
cafe,Kios,Warung makan IFA,"Jl. Poros Lasalimu No.46, Wolowa Baru, Kec. Wolowa, Kabupaten Buton, Sulawesi Tenggara 93754","Wolowa Baru, Kec. Wolowa, Kabupaten Buton",SULAWESI TENGGARA,93754.0,Indonesia,81216812161.0,,,-5.3938651,122.9768623,https://maps.google.com/?cid=0x0:0x691fef0cd5cd7213,
cafe,Kafe,TWENTY FOUR _ Coffee^Eatery,"WHRX+CJ7, Lamokato, Kec. Kolaka, Kabupaten Kolaka, Sulawesi Tenggara","Kabupaten Kolaka, Sulawesi Tenggara",SULAWESI TENGGARA,,Indonesia,81243204012.0,,,-4.0589734,121.5990454,https://maps.google.com/?cid=0x0:0x777ac407e5044923,
cafe,Kedai Kopi,WK5 pujaseracafe,"2GH9+JCV, Jl. Malik Raya I, Korumba, Kec. Mandonga, Kota Kendari, Sulawesi Tenggara 93111","Jl. Malik Raya I, Korumba, Kec. Mandonga, Kota Kendari",SULAWESI TENGGARA,93111.0,Indonesia,82333941886.0,,,-3.9708836,122.5185464,https://maps.google.com/?cid=0x0:0x595684279ada80ad,
cafe,Kafe,Kopi daerah cafe,"Lasusua, Kec. Lasusua, Kabupaten Kolaka Utara, Sulawesi Tenggara 93914","Kec. Lasusua, Kabupaten Kolaka Utara",SULAWESI TENGGARA,93914.0,Indonesia,8114053553.0,,,-3.5072341,120.8881014,https://maps.google.com/?cid=0x0:0xea0cef50091568c4,
cafe,Rumah Makan,Warung bakso mama ati,"HWPX+V58, Matawia, Kec. Wolowa, Kabupaten Buton, Sulawesi Tenggara","Kabupaten Buton, Sulawesi Tenggara",SULAWESI TENGGARA,,Indonesia,,,,-5.4110684,122.9488942,https://maps.google.com/?cid=0x0:0x2a90b29249d3d02e,
cafe,Kedai Kopi,Wotish Coffee  Eatery,"Komplek Bulog I, Jl. Raya Pos Pengumben No.4, South Sukabumi, Kebonjeruk, West Jakarta City, Jakarta 11560","Jl. Raya Pos Pengumben No.4, South Sukabumi, Kebonjeruk, West Jakarta City",SULAWESI TENGGARA,11560.0,Indonesia,85176910007.0,,,-6.2166774,106.7711903,https://maps.google.com/?cid=0x0:0xeb15445cf73fc8d3,
cafe,Kafe,OTSU Cafe,"Jl. Puri Indah Raya No.C8, Kembangan Sel., Kec. Kembangan, Kota Jakarta Barat, Daerah Khusus Ibukota Jakarta 11610","Kembangan Sel., Kec. Kembangan, Kota Jakarta Barat",SULAWESI TENGGARA,11610.0,Indonesia,82245336337.0,,,-6.1862041,106.7494106,https://maps.google.com/?cid=0x0:0x9a93d559fb0d0af7,
cafe,Kedai Kopi,Wanobar Coffee,"RT.004/RW.007, Jatimelati, Kec. Pd. Melati, Kota Bks, Jawa Barat 17415","Jatimelati, Kec. Pd. Melati, Kota Bks",SULAWESI TENGGARA,17415.0,Indonesia,,,,-6.3157877,106.9404677,https://maps.google.com/?cid=0x0:0xc7105a9d4f99dd61,
cafe,Kedai Kopi,Kuwa Kuwi Cafe,"Jl. Pahlawan No.27, Rempoa, Kec. Ciputat Tim., Kota Tangerang Selatan, Banten 15412","Rempoa, Kec. Ciputat Tim., Kota Tangerang Selatan",SULAWESI TENGGARA,15412.0,Indonesia,82114048484.0,,,-6.2866673,106.7601417,https://maps.google.com/?cid=0x0:0x6636ae210118623f,
cafe,Kedai Kopi,Vlks Coffee Lakeside | Specialty Coffee,"Ruko Vanya Lakeside G2-2, Vanya Park, BSD City, Kabupaten Tangerang, Banten 15336","Vanya Park, BSD City, Kabupaten Tangerang",SULAWESI TENGGARA,15336.0,Indonesia,81130880989.0,,,-6.294392,106.6201759,https://maps.google.com/?cid=0x0:0xbbcbf1c7c8fb00af,
cafe,Kafe,CAFE de'BAR,"Jl. Puri Gading Utara Raya Blk. SGB No.97, RT.004/RW.007, Jatimelati, Kec. Pd. Melati, Kota Bks, Jawa Barat 17415","RT.004/RW.007, Jatimelati, Kec. Pd. Melati, Kota Bks",SULAWESI TENGGARA,17415.0,Indonesia,82320817372.0,,,-6.3155444,106.9401308,https://maps.google.com/?cid=0x0:0xa32116e5a9474e2f,
cafe,Kedai Kopi,Woolloomooloo,"I-News Tower, Jl. Kebon Sirih No.17-19, RT.15/RW.7, Kb. Sirih, Kec. Menteng, Kota Jakarta Pusat, Daerah Khusus Ibukota Jakarta 10340","Jl. Kebon Sirih No.17-19, RT.15/RW.7, Kb. Sirih, Kec. Menteng, Kota Jakarta Pusat",SULAWESI TENGGARA,10340.0,Indonesia,2121392530.0,,,-6.1851364,106.8319216,https://maps.google.com/?cid=0x0:0x6543c59414902ea2,
cafe,Kedai Kopi,Blau Eatery  Coffee,"Jl. Pelepah Elok I No.QA2/7, Klp. Gading Bar., Kec. Klp. Gading, Jakarta, Daerah Khusus Ibukota Jakarta 14240","Klp. Gading Bar., Kec. Klp. Gading, Jakarta",SULAWESI TENGGARA,14240.0,Indonesia,81999718181.0,,,-6.1533715,106.9087043,https://maps.google.com/?cid=0x0:0x2f84dddabb8afd2c,
cafe,Kafe,Canaleaf Coffee  Eatery,"Jl. Bang Pitung, RT.1/RW.1, Sukabumi Utara, Kec. Kb. Jeruk, Kota Jakarta Barat, Daerah Khusus Ibukota Jakarta 11540","RT.1/RW.1, Sukabumi Utara, Kec. Kb. Jeruk, Kota Jakarta Barat",SULAWESI TENGGARA,11540.0,Indonesia,81933961110.0,,,-6.2111855,106.7835093,https://maps.google.com/?cid=0x0:0xfa6caf3f9bf961e6,
cafe,Kafe,Yonka Coffee,"Mampang Prpt., Kec. Mampang Prpt., Kota Jakarta Selatan, Daerah Khusus Ibukota Jakarta 12790","Kec. Mampang Prpt., Kota Jakarta Selatan",SULAWESI TENGGARA,12790.0,Indonesia,,,,-6.24472,106.8306446,https://maps.google.com/?cid=0x0:0x3d5f50bfe949dd6c,
cafe,Kafe,Milky Way Cafe Lippo Mall Puri,"LIPPO MALL PURI U1 - GF62, Jl. Puri Indah Raya, RT.3/RW.2, Kembangan Sel., Daerah Khusus Ibukota Jakarta 11610","Jl. Puri Indah Raya, RT.3/RW.2, Kembangan Sel.",SULAWESI TENGGARA,11610.0,Indonesia,,,,-6.1901924,106.7385112,https://maps.google.com/?cid=0x0:0x5bdf7e4d10691876,
cafe,Rumah Makan,Kopi Kebun,"Jl. Cendrawasih 1 No.59, Sawah Baru, Kec. Ciputat, Tangerang, Banten 15415","Sawah Baru, Kec. Ciputat, Tangerang",SULAWESI TENGGARA,15415.0,Indonesia,8161375268.0,,,-6.2987754,106.7218031,https://maps.google.com/?cid=0x0:0x22a61f5299527ffb,
cafe,Kedai Kopi,Kedai Otw,"Joglo, Kec. Kembangan, Kota Jakarta Barat, Daerah Khusus Ibukota Jakarta","Kota Jakarta Barat, Daerah Khusus Ibukota Jakarta",SULAWESI TENGGARA,,Indonesia,,,,-6.222692,106.7209133,https://maps.google.com/?cid=0x0:0x5c4039b250d49dbc,
cafe,Kedai Kopi,Malar Coffee,"Jl. Tebet Barat IV No.11, Tebet Bar., Kec. Tebet, Kota Jakarta Selatan, Daerah Khusus Ibukota Jakarta 12810","Tebet Bar., Kec. Tebet, Kota Jakarta Selatan",SULAWESI TENGGARA,12810.0,Indonesia,85959115792.0,,,-6.2340894,106.8493429,https://maps.google.com/?cid=0x0:0x1f8121e0cc73ff8b,
cafe,Kafe,Woles coffee,"WCC2+2MM, Jl. Raya Desa Kapur, Kapur, Kec. Sungai Raya, Kabupaten Kubu Raya, Kalimantan Barat 78132","Jl. Raya Desa Kapur, Kapur, Kec. Sungai Raya, Kabupaten Kubu Raya",SULAWESI TENGGARA,78132.0,Indonesia,,,,-0.0799087,109.4016721,https://maps.google.com/?cid=0x0:0x9cd60b9f2f3f7e4b,
cafe,Dapur Umum,OTW Food Street,"Jl. Raya Klp. Kopyor No.1 Blok BA 2, RT.2/RW.9, Klp. Gading Tim., Kec. Klp. Gading, Jkt Utara, Daerah Khusus Ibukota Jakarta 14240","RT.2/RW.9, Klp. Gading Tim., Kec. Klp. Gading, Jkt Utara",SULAWESI TENGGARA,14240.0,Indonesia,85716292142.0,,,-6.1702327,106.9035364,https://maps.google.com/?cid=0x0:0xfc71c6a981b9c901,
cafe,Kedai Kopi,Common Grounds Coffee Roaster Menteng,"Jl. Teuku Cik Ditiro No.10, RT.10/RW.5, Menteng, Kec. Menteng, Kota Jakarta Pusat, Daerah Khusus Ibukota Jakarta 10310","RT.10/RW.5, Menteng, Kec. Menteng, Kota Jakarta Pusat",SULAWESI TENGGARA,10310.0,Indonesia,81933697697.0,,,-6.1995782,106.8371027,https://maps.google.com/?cid=0x0:0x40636b200cbc6254,
cafe,,OTW - Cempaka Putih,"Jl. Cempaka Putih Tengah XXVIID No.20b, RT.7/RW.8, Cemp. Putih Tim., Kec. Cemp. Putih, Kota Jakarta Pusat, Daerah Khusus Ibukota Jakarta 10510","RT.7/RW.8, Cemp. Putih Tim., Kec. Cemp. Putih, Kota Jakarta Pusat",SULAWESI TENGGARA,10510.0,Indonesia,85716292142.0,,,-6.1760809,106.870411,https://maps.google.com/?cid=0x0:0x82d64ccec63b03c0,
cafe,Kafe,WORA Cafe,"252 .  3  Nong Khaem, Bangkok 10160, Thailand",Bangkok,SULAWESI TENGGARA,10160.0,Indonesia,66932641922.0,,,13.6756366,100.3851528,https://maps.google.com/?cid=0x0:0x1512d440d810edf6,
cafe,cafe,Sulawesi Tenggara 93754,"Kabupaten Buton, Sulawesi Tenggara","Kabupaten Buton, Sulawesi Tenggara",SULAWESI TENGGARA,,Indonesia,,,,-5.4060758,122.8761309,https://maps.google.com/?cid=0x0:0x59c5abb5b91bda19,
cafe,Kedai Kopi,BOOBA PHINAMIPO,"Jl. Ra. Kartini, Kambula Mbulana, Kec. Ps. Wajo, Kabupaten Buton, Sulawesi Tenggara 93754","Kambula Mbulana, Kec. Ps. Wajo, Kabupaten Buton",SULAWESI TENGGARA,93754.0,Indonesia,82215847230.0,,,-5.4971116,122.8452346,https://maps.google.com/?cid=0x0:0x65788419ea4259fc,
cafe,Hidangan Laut,Warsab Banua,"Jl. Raya Bajo, Bangkudu, Kabupaten Buton Utara, Sulawesi Tenggara 93672","Bangkudu, Kabupaten Buton Utara",SULAWESI TENGGARA,93672.0,Indonesia,82259493923.0,,,-4.7859417,123.1681599,https://maps.google.com/?cid=0x0:0x1fcc3216ffd0ff6d,
cafe,Area Wi-Fi,Sabangka kopi (free Wi-Fi),"PF4Q+7F5, Lolibu, Kec. Lakudo, Kabupaten Buton, Sulawesi Tenggara","Kabupaten Buton, Sulawesi Tenggara",SULAWESI TENGGARA,,Indonesia,82197210456.0,,,-5.2943581,122.4887223,https://maps.google.com/?cid=0x0:0x2815c2927f52b28e,
cafe,Kedai Kopi,lokasi usaha ebitbalano,"GQGV+JJ5 teletabis, Warinta, Kec. Ps. Wajo, Kabupaten Buton, Sulawesi Tenggara","Kabupaten Buton, Sulawesi Tenggara",SULAWESI TENGGARA,,Indonesia,,,,-5.4734858,122.794119,https://maps.google.com/?cid=0x0:0xca5cc06a24170523,
cafe,Kafe,Warkop LORPAS Wandaka,"Bangkudu, Kec. Kulisusu, Kabupaten Buton Utara, Sulawesi Tenggara 93672","Kec. Kulisusu, Kabupaten Buton Utara",SULAWESI TENGGARA,93672.0,Indonesia,,,,-4.7792173,123.1735613,https://maps.google.com/?cid=0x0:0x70aac68eec44d0de,
cafe,Kedai Kopi,FLUO SPACE,"GV92+CC7, Jl. Protokol, Saragi, Kec. Ps. Wajo, Kabupaten Buton, Sulawesi Tenggara","Kabupaten Buton, Sulawesi Tenggara",SULAWESI TENGGARA,,Indonesia,81392156857.0,,,-5.4814605,122.8510591,https://maps.google.com/?cid=0x0:0x5ef8e3ff4c0b469d,
cafe,Restoran,KEDAI SARAS MAYA,"Dusun bente Depan lapangan futsal No.1, Wabula, Kec. Wabula, Kabupaten Buton, Sulawesi Tenggara 93753","Wabula, Kec. Wabula, Kabupaten Buton",SULAWESI TENGGARA,93753.0,Indonesia,82271477416.0,,,-5.612915,122.8569155,https://maps.google.com/?cid=0x0:0x7b5e6a60880a58a9,
cafe,Dapur Umum,ambuau,"JX4M+JJP, Jl. Poros Lasalimu, Walompo, Kec. Wolowa, Kabupaten Buton, Sulawesi Tenggara","Kabupaten Buton, Sulawesi Tenggara",SULAWESI TENGGARA,,Indonesia,,,,-5.3934096,122.9840807,https://maps.google.com/?cid=0x0:0xd5f99df72441b7a5,
cafe,Toko umum,WARUNG BAGADANG 24JAM,"GR3V+685, Kambula Mbulana, Kec. Ps. Wajo, Kabupaten Buton, Sulawesi Tenggara 93754","Kambula Mbulana, Kec. Ps. Wajo, Kabupaten Buton",SULAWESI TENGGARA,93754.0,Indonesia,85223227857.0,,,-5.4976833,122.8433907,https://maps.google.com/?cid=0x0:0x54271f8a52ef18fe,
cafe,Kedai Kopi,kedai abu dawud,"65JH+72F, Loji, Kec. Kulisusu, Kabupaten Buton Utara, Sulawesi Tenggara","Kabupaten Buton Utara, Sulawesi Tenggara",SULAWESI TENGGARA,,Indonesia,82233882650.0,,,-4.7693147,123.1775453,https://maps.google.com/?cid=0x0:0x50b4d47a6accb6b6,
cafe,cafe,Sulawesi,,,SULAWESI TENGGARA,,Indonesia,,,,-1.8479,120.5279,https://maps.google.com/?cid=0x0:0xbc9a51d168f47742,
cafe,Kafe,TWENTY FOUR _ Coffee^Eatery,"WHRX+CJ7, Lamokato, Kec. Kolaka, Kabupaten Kolaka, Sulawesi Tenggara","Kabupaten Kolaka, Sulawesi Tenggara",SULAWESI TENGGARA,,Indonesia,81243204012.0,,,-4.0589734,121.5990454,https://maps.google.com/?cid=0x0:0x777ac407e5044923,
cafe,Kedai Kopi,Bapocha kopi kendari,"Jl. Bunga Teratai, Watu-Watu, Kec. Kendari Bar., Kota Kendari, Sulawesi Tenggara 93121","Watu-Watu, Kec. Kendari Bar., Kota Kendari",SULAWESI TENGGARA,93121.0,Indonesia,85342020760.0,,,-3.9640613,122.537828,https://maps.google.com/?cid=0x0:0xdaa545b4c88455c4,
cafe,Rumah wisata,Villa SUHARDIN ENGKO,"9R6M+69H, Wasuemba, Kec. Wabula, Kabupaten Buton, Sulawesi Tenggara","Kabupaten Buton, Sulawesi Tenggara",SULAWESI TENGGARA,,Indonesia,81340506931.0,,,-5.6394375,122.8334711,https://maps.google.com/?cid=0x0:0xa6a6970f8407b1c7,
cafe,Kafe,Wamagote,"JJXR+QC5, Selat Buton, Sulawesi Tenggara",Sulawesi Tenggara,SULAWESI TENGGARA,,Indonesia,82193167252.0,,,-5.350616,122.6411176,https://maps.google.com/?cid=0x0:0x8dbba0fc6f266967,
cafe,Kedai Kopi,UNIVERSAL WASH  CAFE,"Jl. Ir. H. Alala No.22, Watu-Watu, Kec. Kendari Bar., Kota Kendari, Sulawesi Tenggara 93121","Watu-Watu, Kec. Kendari Bar., Kota Kendari",SULAWESI TENGGARA,93121.0,Indonesia,83140275823.0,,,-3.9658975,122.5403392,https://maps.google.com/?cid=0x0:0xd7d7e7f8a784b58,
cafe,Bar,BAWE CAFE  BAR,"J2J4+2G2, Unnamed Road, Sumber Jaya, Lalembuu, Kabupaten Konawe Selatan, Sulawesi Tenggara 93885","Unnamed Road, Sumber Jaya, Lalembuu, Kabupaten Konawe Selatan",SULAWESI TENGGARA,93885.0,Indonesia,,,,-4.3699846,122.006255,https://maps.google.com/?cid=0x0:0x51749783f27a1511,
cafe,cafe,Kec. Wabula,"Kabupaten Buton, Sulawesi Tenggara","Kabupaten Buton, Sulawesi Tenggara",SULAWESI TENGGARA,,Indonesia,,,,-5.6077445,122.8594298,https://maps.google.com/?cid=0x0:0x7bb47d4b468e4d89,
cafe,Kedai Kopi,Monsieur Cara Cafe,"FRMR+XMP, Jl. Pangeran Limboro, Banabungi, Kec. Ps. Wajo, Kabupaten Buton, Sulawesi Tenggara 93754","Jl. Pangeran Limboro, Banabungi, Kec. Ps. Wajo, Kabupaten Buton",SULAWESI TENGGARA,93754.0,Indonesia,,,,-5.5150273,122.8417002,https://maps.google.com/?cid=0x0:0x92bbf11f419824bb,
cafe,Restoran,Warung Makan Paseba,"FRMV+PPP, Unnamed Road, Banabungi, Kec. Ps. Wajo, Kabupaten Buton, Sulawesi Tenggara 93754","Unnamed Road, Banabungi, Kec. Ps. Wajo, Kabupaten Buton",SULAWESI TENGGARA,93754.0,Indonesia,81276350086.0,,,-5.5156717,122.8443267,https://maps.google.com/?cid=0x0:0x7b584289c0902137,
cafe,Kedai Kopi,Teras Rumah coffe,"9Q5M+G6R, Lapandewa Kaindea, Kec. Lapandewa, Kabupaten Buton, Sulawesi Tenggara 93753","Lapandewa Kaindea, Kec. Lapandewa, Kabupaten Buton",SULAWESI TENGGARA,93753.0,Indonesia,82346546209.0,,,-5.6411468,122.7830271,https://maps.google.com/?cid=0x0:0xa13386ab08c52e1f,
cafe,Rumah Makan,Kedai Family,"CVMV+56W, jalan poros, Holimombo, Kec. Wabula",,SULAWESI TENGGARA,,Indonesia,82296322045.0,,,-5.5670202,122.8930889,https://maps.google.com/?cid=0x0:0x4aa1a032d7cfc0c5,
cafe,Kedai Kopi,Tina,"CVJR+VJW, Holimombo, Kec. Wabula, Kabupaten Buton, Sulawesi Tenggara","Kabupaten Buton, Sulawesi Tenggara",SULAWESI TENGGARA,,Indonesia,,,,-5.56771,122.891459,https://maps.google.com/?cid=0x0:0xc6cb5dfae7fd53ed,
cafe,Toko,Depot Elsa,"FR9V+3R6, Kombeli, Kec. Ps. Wajo, Kabupaten Buton, Sulawesi Tenggara 93754","Kombeli, Kec. Ps. Wajo, Kabupaten Buton",SULAWESI TENGGARA,93754.0,Indonesia,,,,-5.532339,122.8445043,https://maps.google.com/?cid=0x0:0x94b4d857f7958cc3,
cafe,Kedai Kopi,KIM BOBA Pasarwajo,"FR9X+JRC, Jl. Jend. Sudirman, Takimpo, Kec. Ps. Wajo, Kabupaten Buton, Sulawesi Tenggara 93754","Jl. Jend. Sudirman, Takimpo, Kec. Ps. Wajo, Kabupaten Buton",SULAWESI TENGGARA,93754.0,Indonesia,85210189469.0,,,-5.5309373,122.8495274,https://maps.google.com/?cid=0x0:0xddca6818b91f92b0,
cafe,Kafe,MR.JOSH COFFEE  EATERY,"FRVV+FXC, Jl, Kec. Ps. Wajo, Kabupaten Buton, Sulawesi Tenggara","Kabupaten Buton, Sulawesi Tenggara",SULAWESI TENGGARA,,Indonesia,,,,-5.5064479,122.845016,https://maps.google.com/?cid=0x0:0x703ed6265604d61c,
cafe,Restoran,K-KEDAI COFFEE,"Ps. Wajo, Kec. Ps. Wajo, Kabupaten Buton, Sulawesi Tenggara","Kabupaten Buton, Sulawesi Tenggara",SULAWESI TENGGARA,,Indonesia,81241419060.0,,,-5.5007987,122.8457589,https://maps.google.com/?cid=0x0:0xfe027529b480f499,
cafe,Restoran,RM. BLAMBANGAN,"FRVV+8VV, Jl. Protokol, Kec. Ps. Wajo, Kabupaten Buton, Sulawesi Tenggara","Kabupaten Buton, Sulawesi Tenggara",SULAWESI TENGGARA,,Indonesia,81245913811.0,,,-5.5066313,122.8446619,https://maps.google.com/?cid=0x0:0xa1dceb0fffd69d59,
