Category,Real Category,Business Name,Address,City,State,Postal Code,Country,Phone,Email,Website,Latitude,Longitude,Map Link,Details Link
building materials,building materials,Sulawesi Tenggara 93755,"Kabupaten Buton, Sulawesi Tenggara","Kabupaten Buton, Sulawesi Tenggara",SULAWESI TENGGARA,,Indonesia,,,,-5.2652803,122.831015,https://maps.google.com/?cid=0x0:0x698a3c90045603c1,
building materials,Toko Bahan Bangunan,Toko Bangunan Mama Mpou,"RV69+WG, Wambulu, Kec. Kapontori, Kabupaten Buton, Sulawesi Tenggara 93755","Wambulu, Kec. Kapontori, Kabupaten Buton",SULAWESI TENGGARA,93755.0,Indonesia,82213276297.0,,,-5.1868821,122.8691116,https://maps.google.com/?cid=0x0:0x19a6c4072fea81ed,
building materials,building materials,Toko Tumada Jaya,"VQMM+C4J, Tumada, Kec. Kapontori, Kabupaten Buton, Sulawesi Tenggara","Kabupaten Buton, Sulawesi Tenggara",SULAWESI TENGGARA,,Indonesia,82291191105.0,,,-5.1164004,122.7827699,https://maps.google.com/?cid=0x0:0x1b9515b00d10e46e,
building materials,Toko Bahan Bangunan,BATU BATA MERAH TODANGA,"Dusun Bakaha , Desa Todanga Jalan Poros, Jl. Bataraguru, Dusun Bakaha, Tuangila, Kec. Kapontori, Kabupaten Buton, Sulawesi Tenggara 93755","Desa Todanga Jalan Poros, Jl. Bataraguru, Dusun Bakaha, Tuangila, Kec. Kapontori, Kabupaten Buton",SULAWESI TENGGARA,93755.0,Indonesia,81292066059.0,,,-5.0998381,122.7978131,https://maps.google.com/?cid=0x0:0x9c690ec0c6f6bfe8,
building materials,Toko Batu,Batu Bata Mas Joko Todanga,"Desa, Todanga, Kec. Kapontori, Kabupaten Buton, Sulawesi Tenggara 93755","Todanga, Kec. Kapontori, Kabupaten Buton",SULAWESI TENGGARA,93755.0,Indonesia,82193111191.0,,,-5.1010451,122.7951472,https://maps.google.com/?cid=0x0:0x9f942c763ff9e45,
building materials,Toko Bahan Bangunan,Toko Bangunan Mukhlis,"M5J7+J49, jalan Sulawesi Desa, Ambuau Indah, Lasalimu Selatan, Buton Regency, South East Sulawesi 93756","jalan Sulawesi Desa, Ambuau Indah, Lasalimu Selatan, Buton Regency",SULAWESI TENGGARA,93756.0,Indonesia,,,,-5.3184709,123.1628725,https://maps.google.com/?cid=0x0:0xf58ed61e19c8e691,
building materials,Kios,Toko Azril,"Q4R6+R93, Wasuamba, Kec. Lasalimu, Kabupaten Buton, Sulawesi Tenggara 93756","Wasuamba, Kec. Lasalimu, Kabupaten Buton",SULAWESI TENGGARA,93756.0,Indonesia,,,,-5.208424,123.110375,https://maps.google.com/?cid=0x0:0x60fa748321b6e58e,
building materials,Toko Bahan Bangunan,Toko. SM banguna,"M5M8+425, Jl. Bali, Ambuau Indah, Kec. Lasalimu Sel., Kabupaten Buton, Sulawesi Tenggara 93756","Jl. Bali, Ambuau Indah, Kec. Lasalimu Sel., Kabupaten Buton",SULAWESI TENGGARA,93756.0,Indonesia,,,,-5.3172202,123.1651354,https://maps.google.com/?cid=0x0:0x711eb771c6dc2f3c,
building materials,Toko Bahan Bangunan,Jual Batako/Semen (Lailio),"PHXF+R52, Watulea, Kec. Gu, Kabupaten Buton, Sulawesi Tenggara 93761","Watulea, Kec. Gu, Kabupaten Buton",SULAWESI TENGGARA,93761.0,Indonesia,81354000464.0,,,-5.2504853,122.572876,https://maps.google.com/?cid=0x0:0x2bf9cbe58b0cc54e,
building materials,Toko Perlengkapan Rumah,"Toko Alat Pancing, Pertanian, Listrik  Tukang Nada Lasalimu","Desa, Ambuau Indah, Kec. Lasalimu Sel., Kabupaten Buton, Sulawesi Tenggara 93756","Ambuau Indah, Kec. Lasalimu Sel., Kabupaten Buton",SULAWESI TENGGARA,93756.0,Indonesia,82360612010.0,,,-5.3184711,123.1621532,https://maps.google.com/?cid=0x0:0xd4b48adfcd1f77bc,
building materials,building materials,Toko bangunan,"Q525+383, Jl. dermaga Lasalimu, Lasalimu, Kec. Lasalimu Sel., Kabupaten Buton, Sulawesi Tenggara 93756","Jl. dermaga Lasalimu, Lasalimu, Kec. Lasalimu Sel., Kabupaten Buton",SULAWESI TENGGARA,93756.0,Indonesia,,,,-5.2498738,123.1583054,https://maps.google.com/?cid=0x0:0xe39888d0b16b41a7,
building materials,building materials,Gudang Semen,"P5W5+Q4, Lasalimu, Kec. Lasalimu, Kabupaten Buton, Sulawesi Tenggara","Kabupaten Buton, Sulawesi Tenggara",SULAWESI TENGGARA,,Indonesia,,,,-5.2529994,123.1577618,https://maps.google.com/?cid=0x0:0x9f28cd1b650bce22,
building materials,building materials,Sulawesi,,,SULAWESI TENGGARA,,Indonesia,,,,-1.8479,120.5279,https://maps.google.com/?cid=0x0:0xbc9a51d168f47742,
building materials,Toko Bahan Bangunan,TOKO BAHAN APLIKASI BANGUNAN,"GV5J+36H, Ponggiha, Kec. Lasusua, Kabupaten Kolaka Utara, Sulawesi Tenggara 93914","Ponggiha, Kec. Lasusua, Kabupaten Kolaka Utara",SULAWESI TENGGARA,93914.0,Indonesia,8114206900.0,,,-3.4924433,120.8804003,https://maps.google.com/?cid=0x0:0xf23c073d64879223,
building materials,Toko Bahan Bangunan,Toko Nafis Bangunan,"Jl. Poros Lasusua - Ranteangin, Tojabi, Kec. Lasusua, Kabupaten Kolaka Utara, Sulawesi Tenggara 93913","Tojabi, Kec. Lasusua, Kabupaten Kolaka Utara",SULAWESI TENGGARA,93913.0,Indonesia,85215533644.0,,,-3.5063634,120.8962923,https://maps.google.com/?cid=0x0:0x502394c19276f82b,
building materials,building materials,Kec. Lasalimu,"Kabupaten Buton, Sulawesi Tenggara","Kabupaten Buton, Sulawesi Tenggara",SULAWESI TENGGARA,,Indonesia,,,,-5.1765847,123.0625716,https://maps.google.com/?cid=0x0:0xb91fed4937d73bc6,
building materials,Toko Bahan Bangunan,UD KAMARU JAYA,"R3M7+242, Kamaru, Kec. Lasalimu, Kabupaten Buton, Sulawesi Tenggara 93756","Kamaru, Kec. Lasalimu, Kabupaten Buton",SULAWESI TENGGARA,93756.0,Indonesia,81379094275.0,,,-5.1674831,123.0627768,https://maps.google.com/?cid=0x0:0x37712c6e64680482,
building materials,Toko Bahan Bangunan,Toko bangunan ocha kamaru,"R3R7+JCH, Kamaru, Kec. Lasalimu, Kabupaten Buton, Sulawesi Tenggara","Kabupaten Buton, Sulawesi Tenggara",SULAWESI TENGGARA,,Indonesia,,,,-5.158434,123.063599,https://maps.google.com/?cid=0x0:0x4bf0d7f027ec609f,
building materials,Komplek perumahan,Bengkel Las Ishak,"Q4V5+443, Wasuamba, Kec. Lasalimu, Kabupaten Buton, Sulawesi Tenggara 93756","Wasuamba, Kec. Lasalimu, Kabupaten Buton",SULAWESI TENGGARA,93756.0,Indonesia,81245557710.0,,,-5.2072362,123.1077825,https://maps.google.com/?cid=0x0:0x6b09a5bd32c5ede9,
building materials,Toko Bahan Bangunan,Toko Bangunan Mama Mpou,"RV69+WG, Wambulu, Kec. Kapontori, Kabupaten Buton, Sulawesi Tenggara 93755","Wambulu, Kec. Kapontori, Kabupaten Buton",SULAWESI TENGGARA,93755.0,Indonesia,82213276297.0,,,-5.1868821,122.8691116,https://maps.google.com/?cid=0x0:0x19a6c4072fea81ed,
building materials,building materials,Kec. Lasalimu Sel.,"Kabupaten Buton, Sulawesi Tenggara","Kabupaten Buton, Sulawesi Tenggara",SULAWESI TENGGARA,,Indonesia,,,,-5.2517585,123.1595225,https://maps.google.com/?cid=0x0:0x43dc32910467e706,
building materials,Toko Bahan Bangunan,Toko Bangunan Mukhlis,"M5J7+J49, jalan Sulawesi Desa, Ambuau Indah, Lasalimu Selatan, Buton Regency, South East Sulawesi 93756","jalan Sulawesi Desa, Ambuau Indah, Lasalimu Selatan, Buton Regency",SULAWESI TENGGARA,93756.0,Indonesia,,,,-5.3184709,123.1628725,https://maps.google.com/?cid=0x0:0xf58ed61e19c8e691,
building materials,Toko Perlengkapan Rumah,"Toko Alat Pancing, Pertanian, Listrik  Tukang Nada Lasalimu","Desa, Ambuau Indah, Kec. Lasalimu Sel., Kabupaten Buton, Sulawesi Tenggara 93756","Ambuau Indah, Kec. Lasalimu Sel., Kabupaten Buton",SULAWESI TENGGARA,93756.0,Indonesia,82360612010.0,,,-5.3184711,123.1621532,https://maps.google.com/?cid=0x0:0xd4b48adfcd1f77bc,
building materials,building materials,Toko bangunan,"Q525+383, Jl. dermaga Lasalimu, Lasalimu, Kec. Lasalimu Sel., Kabupaten Buton, Sulawesi Tenggara 93756","Jl. dermaga Lasalimu, Lasalimu, Kec. Lasalimu Sel., Kabupaten Buton",SULAWESI TENGGARA,93756.0,Indonesia,,,,-5.2498738,123.1583054,https://maps.google.com/?cid=0x0:0xe39888d0b16b41a7,
building materials,building materials,Gudang Semen,"P5W5+Q4, Lasalimu, Kec. Lasalimu, Kabupaten Buton, Sulawesi Tenggara","Kabupaten Buton, Sulawesi Tenggara",SULAWESI TENGGARA,,Indonesia,,,,-5.2529994,123.1577618,https://maps.google.com/?cid=0x0:0x9f28cd1b650bce22,
building materials,building materials,Toko peralatan mesin,"Jl. poros Lasalimu No.4444, Lasalimu, Kec. Lasalimu Sel., Kabupaten Buton, Sulawesi Tenggara 93757","Lasalimu, Kec. Lasalimu Sel., Kabupaten Buton",SULAWESI TENGGARA,93757.0,Indonesia,,,,-5.255857,123.1547802,https://maps.google.com/?cid=0x0:0x981538501c67e8e5,
building materials,building materials,Kec. Ps. Wajo,"Kabupaten Buton, Sulawesi Tenggara","Kabupaten Buton, Sulawesi Tenggara",SULAWESI TENGGARA,,Indonesia,,,,-5.5143888,122.8408508,https://maps.google.com/?cid=0x0:0xd8cb6cdd80295dce,
building materials,Toko Bahan Bangunan,Toko Sumber Rezeki,"Jl. Pangeran Limboro, Banabungi, Kec. Ps. Wajo, Kabupaten Buton, Sulawesi Tenggara 93754","Banabungi, Kec. Ps. Wajo, Kabupaten Buton",SULAWESI TENGGARA,93754.0,Indonesia,85241637184.0,,,-5.5110635,122.8429251,https://maps.google.com/?cid=0x0:0x502705c8e2f51436,
building materials,Toko Bahan Bangunan,Toko Aza bahan bangunan,"HV3J+CC4, Kahulungaya, Kec. Ps. Wajo, Kabupaten Buton, Sulawesi Tenggara","Kabupaten Buton, Sulawesi Tenggara",SULAWESI TENGGARA,,Indonesia,,,,-5.4464894,122.8810813,https://maps.google.com/?cid=0x0:0x218c2ca5248cf2e7,
building materials,Pusat Perbelanjaan,Toko bangunan Melati,"FVF5+WPR, Wagola, Kec. Ps. Wajo, Kabupaten Buton, Sulawesi Tenggara 93754","Wagola, Kec. Ps. Wajo, Kabupaten Buton",SULAWESI TENGGARA,93754.0,Indonesia,,,,-5.5251448,122.8592612,https://maps.google.com/?cid=0x0:0xeba8ba6f03670240,
building materials,building materials,Batako Cakto,"M4G9+882, Jalan kerinci, Siontapina, Kec. Lasalimu Sel., Kabupaten Buton, Sulawesi Tenggara 93756","Jalan kerinci, Siontapina, Kec. Lasalimu Sel., Kabupaten Buton",SULAWESI TENGGARA,93756.0,Indonesia,,,,-5.3242312,123.1182806,https://maps.google.com/?cid=0x0:0x95162f46fc69e709,
building materials,Pusat Perbelanjaan,Toko Al Desa Wolowa,"HWFJ+R6H, Wolowa, Kec. Wolowa, Kabupaten Buton, Sulawesi Tenggara 93754","Wolowa, Kec. Wolowa, Kabupaten Buton",SULAWESI TENGGARA,93754.0,Indonesia,85241575161.0,,,-5.4254282,122.9306093,https://maps.google.com/?cid=0x0:0x257f3848d5f68cbf,
building materials,Pusat Perbelanjaan,kios dena,"HWFH+24H SDN 1, Wolowa, Kec. Wolowa, Kabupaten Buton, Sulawesi Tenggara 93754","Wolowa, Kec. Wolowa, Kabupaten Buton",SULAWESI TENGGARA,93754.0,Indonesia,81245276462.0,,,-5.4274325,122.9278475,https://maps.google.com/?cid=0x0:0x80512ec0683ade25,
building materials,building materials,Sulawesi Tenggara 93754,"Kabupaten Buton, Sulawesi Tenggara","Kabupaten Buton, Sulawesi Tenggara",SULAWESI TENGGARA,,Indonesia,,,,-5.4060758,122.8761309,https://maps.google.com/?cid=0x0:0x59c5abb5b91bda19,
building materials,Toko bahan makanan,TOKO DK KACA WABULA,"9VR6+P39, Wabula, Kec. Wabula, Kabupaten Buton, Sulawesi Tenggara 93754","Wabula, Kec. Wabula, Kabupaten Buton",SULAWESI TENGGARA,93754.0,Indonesia,,,,-5.6082172,122.8602388,https://maps.google.com/?cid=0x0:0x1bcb81d5fa4218d8,
building materials,Pasar bahan bangunan,Intan Building Center,"Jl. Budi Utomo No.90, Bataraguru, Kec. Wolio, Kota Bau-Bau, Sulawesi Tenggara 93717","Bataraguru, Kec. Wolio, Kota Bau-Bau",SULAWESI TENGGARA,93717.0,Indonesia,82292888886.0,,,-5.4658703,122.607269,https://maps.google.com/?cid=0x0:0xdd0e5cfd517f12e5,
building materials,building materials,,,,SULAWESI TENGGARA,,Indonesia,82293486588.0,,,-2.44565,117.8888,https://maps.google.com/?cid=0x0:0xde387e986ecf8e6c,
building materials,building materials,Sulawesi,,,SULAWESI TENGGARA,,Indonesia,,,,-1.8479,120.5279,https://maps.google.com/?cid=0x0:0xbc9a51d168f47742,
building materials,Toko Bahan Bangunan,Tb.Cahaya Bulu Kumba,"2GP5+Q54, Jl. Suprapto, Tobuuha, Kec. Puuwatu, Kota Kendari, Sulawesi Tenggara 93111","Jl. Suprapto, Tobuuha, Kec. Puuwatu, Kota Kendari",SULAWESI TENGGARA,93111.0,Indonesia,,,,-3.9631174,122.5079655,https://maps.google.com/?cid=0x0:0xb9a7205bc7df797a,
building materials,Toko Bahan Bangunan,Tb.Dewata,"V36Q+HJX, Jl. Poros Batuputih - Olooloho, Latali, Kec. Pakue Tengah, Kabupaten Kolaka Utara, Sulawesi Tenggara 93954","Jl. Poros Batuputih - Olooloho, Latali, Kec. Pakue Tengah, Kabupaten Kolaka Utara",SULAWESI TENGGARA,93954.0,Indonesia,895130809372.0,,,-3.138512,121.0891049,https://maps.google.com/?cid=0x0:0xe4af17b738ab7364,
building materials,Toko bahan makanan,Kios Cahaya Alwi,"Unnamed Road, depan gerbang BTN Maleo No.1, Kota Bangun, Kec. Ranomeeto, Kabupaten Konawe Selatan, Sulawesi Tenggara 93870","depan gerbang BTN Maleo No.1, Kota Bangun, Kec. Ranomeeto, Kabupaten Konawe Selatan",SULAWESI TENGGARA,93870.0,Indonesia,,,,-4.048462,122.467878,https://maps.google.com/?cid=0x0:0xcc818ac1184737c5,
building materials,Kios,Toko Cahaya Bone Pomalaa,"JL. Poros Pomalaa-Tanggetada. Kel. Dawi-dawi Kec. Pomalaa, Kec. Kolaka, Kabupaten Kolaka, Sulawesi Tenggara","Kabupaten Kolaka, Sulawesi Tenggara",SULAWESI TENGGARA,,Indonesia,82187298647.0,,,-4.1784193,121.6124513,https://maps.google.com/?cid=0x0:0xebc365d57fdeead8,
building materials,Toko Bahan Bangunan,Toko Nurul Vadya Bangunan,"XH3J+Q76, Jl. Abadi, Kolakaasi, Kec. Latambaga, Kabupaten Kolaka, Sulawesi Tenggara 93511","Jl. Abadi, Kolakaasi, Kec. Latambaga, Kabupaten Kolaka",SULAWESI TENGGARA,93511.0,Indonesia,81341729995.0,,,-4.0455873,121.5806317,https://maps.google.com/?cid=0x0:0xecb17a48f641eda5,
building materials,Toko Bahan Bangunan,Toko Enam Saudara Lombe,"PHXH+439, kompleks pasar lombe, Bombonawulu, Kec. Gu, Kabupaten Buton, Sulawesi Tenggara 93761","kompleks pasar lombe, Bombonawulu, Kec. Gu, Kabupaten Buton",SULAWESI TENGGARA,93761.0,Indonesia,85299578579.0,,,-5.2522026,122.5777204,https://maps.google.com/?cid=0x0:0x278b5a28c6ed5919,
building materials,Toko Bahan Bangunan,Toko Nafis Bangunan,"Jl. Poros Lasusua - Ranteangin, Tojabi, Kec. Lasusua, Kabupaten Kolaka Utara, Sulawesi Tenggara 93913","Tojabi, Kec. Lasusua, Kabupaten Kolaka Utara",SULAWESI TENGGARA,93913.0,Indonesia,85215533644.0,,,-3.5063634,120.8962923,https://maps.google.com/?cid=0x0:0x502394c19276f82b,
building materials,Pusat Perbelanjaan,Toko bangunan Melati,"FVF5+WPR, Wagola, Kec. Ps. Wajo, Kabupaten Buton, Sulawesi Tenggara 93754","Wagola, Kec. Ps. Wajo, Kabupaten Buton",SULAWESI TENGGARA,93754.0,Indonesia,,,,-5.5251448,122.8592612,https://maps.google.com/?cid=0x0:0xeba8ba6f03670240,
building materials,Toko Bahan Bangunan,TOKO BAHAN APLIKASI BANGUNAN,"GV5J+36H, Ponggiha, Kec. Lasusua, Kabupaten Kolaka Utara, Sulawesi Tenggara 93914","Ponggiha, Kec. Lasusua, Kabupaten Kolaka Utara",SULAWESI TENGGARA,93914.0,Indonesia,8114206900.0,,,-3.4924433,120.8804003,https://maps.google.com/?cid=0x0:0xf23c073d64879223,
building materials,Toko Bahan Bangunan,Toko Bangunan Rajawali,"Jl. Jend. Sudirman Lombe Buton Tengah No.7, Bombonawulu, Kec. Gu, Kabupaten Buton, Sulawesi Tenggara 93761","Bombonawulu, Kec. Gu, Kabupaten Buton",SULAWESI TENGGARA,93761.0,Indonesia,85241808922.0,,,-5.2526042,122.5763954,https://maps.google.com/?cid=0x0:0xf2f6cd42a4098c43,
building materials,Toko Bahan Bangunan,Toko Bangunan Mukhlis,"M5J7+J49, jalan Sulawesi Desa, Ambuau Indah, Lasalimu Selatan, Buton Regency, South East Sulawesi 93756","jalan Sulawesi Desa, Ambuau Indah, Lasalimu Selatan, Buton Regency",SULAWESI TENGGARA,93756.0,Indonesia,,,,-5.3184709,123.1628725,https://maps.google.com/?cid=0x0:0xf58ed61e19c8e691,
building materials,Toko Bahan Bangunan,TB. MUTIARA,"Jln trans sulawesi, Meeto, Kec. Kodeoha, Kabupaten Kolaka Utara, Sulawesi Tenggara 93957","Meeto, Kec. Kodeoha, Kabupaten Kolaka Utara",SULAWESI TENGGARA,93957.0,Indonesia,82385728794.0,,,-3.3510496,120.9453282,https://maps.google.com/?cid=0x0:0x67daeac4a4fcf9b,
building materials,Toko Bahan Bangunan,Toko irsan jaya,"HVVW+MM2, Simbula, Kec. Katoi, Kabupaten Kolaka Utara, Sulawesi Tenggara 93957","Simbula, Kec. Katoi, Kabupaten Kolaka Utara",SULAWESI TENGGARA,93957.0,Indonesia,85341333555.0,,,-3.4058606,120.8966552,https://maps.google.com/?cid=0x0:0xc81b1ab7f29dc31f,
building materials,Toko Bahan Bangunan,Toko bangunan,"33CQ+H8H, Jl. Poros Malili - Batuputih, Tolala, Kec. Batu Putih, Kabupaten Kolaka Utara, Sulawesi Tenggara 93955","Jl. Poros Malili - Batuputih, Tolala, Kec. Batu Putih, Kabupaten Kolaka Utara",SULAWESI TENGGARA,93955.0,Indonesia,,,,-2.9289798,121.0880135,https://maps.google.com/?cid=0x0:0x2110d44706c9284b,
building materials,building materials,Kec. Wabula,"Kabupaten Buton, Sulawesi Tenggara","Kabupaten Buton, Sulawesi Tenggara",SULAWESI TENGGARA,,Indonesia,,,,-5.6077445,122.8594298,https://maps.google.com/?cid=0x0:0x7bb47d4b468e4d89,
building materials,Pom bensin/SPBU,Minyak tanah,"CVWR+FHC, desa koholimombono, Kec. Ps. Wajo, Kabupaten Buton, Sulawesi Tenggara 93754","desa koholimombono, Kec. Ps. Wajo, Kabupaten Buton",SULAWESI TENGGARA,93754.0,Indonesia,,,,-5.5538878,122.8924877,https://maps.google.com/?cid=0x0:0xa7ba9485578de871,
building materials,Toko Bahan Bangunan,Toko Sumber Rezeki,"Jl. Pangeran Limboro, Banabungi, Kec. Ps. Wajo, Kabupaten Buton, Sulawesi Tenggara 93754","Banabungi, Kec. Ps. Wajo, Kabupaten Buton",SULAWESI TENGGARA,93754.0,Indonesia,85241637184.0,,,-5.5110635,122.8429251,https://maps.google.com/?cid=0x0:0x502705c8e2f51436,
toko bangunan,toko bangunan,Sulawesi Tenggara 93755,"Kabupaten Buton, Sulawesi Tenggara","Kabupaten Buton, Sulawesi Tenggara",SULAWESI TENGGARA,,Indonesia,,,,-5.2652803,122.831015,https://maps.google.com/?cid=0x0:0x698a3c90045603c1,
toko bangunan,Toko Bahan Bangunan,Toko Bangunan Mama Mpou,"RV69+WG, Wambulu, Kec. Kapontori, Kabupaten Buton, Sulawesi Tenggara 93755","Wambulu, Kec. Kapontori, Kabupaten Buton",SULAWESI TENGGARA,93755.0,Indonesia,82213276297.0,,,-5.1868821,122.8691116,https://maps.google.com/?cid=0x0:0x19a6c4072fea81ed,
toko bangunan,toko bangunan,Toko Tumada Jaya,"VQMM+C4J, Tumada, Kec. Kapontori, Kabupaten Buton, Sulawesi Tenggara","Kabupaten Buton, Sulawesi Tenggara",SULAWESI TENGGARA,,Indonesia,82291191105.0,,,-5.1164004,122.7827699,https://maps.google.com/?cid=0x0:0x1b9515b00d10e46e,
toko bangunan,Toko Batu,Batu Bata Mas Joko Todanga,"Desa, Todanga, Kec. Kapontori, Kabupaten Buton, Sulawesi Tenggara 93755","Todanga, Kec. Kapontori, Kabupaten Buton",SULAWESI TENGGARA,93755.0,Indonesia,82193111191.0,,,-5.1010451,122.7951472,https://maps.google.com/?cid=0x0:0x9f942c763ff9e45,
toko bangunan,Toko Bahan Bangunan,BATU BATA MERAH TODANGA,"Dusun Bakaha , Desa Todanga Jalan Poros, Jl. Bataraguru, Dusun Bakaha, Tuangila, Kec. Kapontori, Kabupaten Buton, Sulawesi Tenggara 93755","Desa Todanga Jalan Poros, Jl. Bataraguru, Dusun Bakaha, Tuangila, Kec. Kapontori, Kabupaten Buton",SULAWESI TENGGARA,93755.0,Indonesia,81292066059.0,,,-5.0998381,122.7978131,https://maps.google.com/?cid=0x0:0x9c690ec0c6f6bfe8,
toko bangunan,toko bangunan,Lasalimu,"Wasuamba, Kec. Lasalimu, Kabupaten Buton, Sulawesi Tenggara","Kabupaten Buton, Sulawesi Tenggara",SULAWESI TENGGARA,,Indonesia,,,,-5.224197,123.127403,https://maps.google.com/?cid=0x0:0xb739d9e9697eebf9,
toko bangunan,Toko Bahan Bangunan,Toko Bangunan Mukhlis,"M5J7+J49, jalan Sulawesi Desa, Ambuau Indah, Lasalimu Selatan, Buton Regency, South East Sulawesi 93756","jalan Sulawesi Desa, Ambuau Indah, Lasalimu Selatan, Buton Regency",SULAWESI TENGGARA,93756.0,Indonesia,,,,-5.3184709,123.1628725,https://maps.google.com/?cid=0x0:0xf58ed61e19c8e691,
toko bangunan,Kios,Toko Azril,"Q4R6+R93, Wasuamba, Kec. Lasalimu, Kabupaten Buton, Sulawesi Tenggara 93756","Wasuamba, Kec. Lasalimu, Kabupaten Buton",SULAWESI TENGGARA,93756.0,Indonesia,,,,-5.208424,123.110375,https://maps.google.com/?cid=0x0:0x60fa748321b6e58e,
toko bangunan,Toko Bahan Bangunan,Toko Bangunan Len-lin,"658F+7M2, Bangkudu, Kec. Kulisusu, Kabupaten Buton Utara, Sulawesi Tenggara 93672","Bangkudu, Kec. Kulisusu, Kabupaten Buton Utara",SULAWESI TENGGARA,93672.0,Indonesia,,,,-4.7843589,123.1741537,https://maps.google.com/?cid=0x0:0xa8db02c25b613413,
toko bangunan,Toko Bahan Bangunan,Toko bangunan ocha kamaru,"R3R7+JCH, Kamaru, Kec. Lasalimu, Kabupaten Buton, Sulawesi Tenggara","Kabupaten Buton, Sulawesi Tenggara",SULAWESI TENGGARA,,Indonesia,,,,-5.158434,123.063599,https://maps.google.com/?cid=0x0:0x4bf0d7f027ec609f,
toko bangunan,Toko Bahan Bangunan,Toko. SM banguna,"M5M8+425, Jl. Bali, Ambuau Indah, Kec. Lasalimu Sel., Kabupaten Buton, Sulawesi Tenggara 93756","Jl. Bali, Ambuau Indah, Kec. Lasalimu Sel., Kabupaten Buton",SULAWESI TENGGARA,93756.0,Indonesia,,,,-5.3172202,123.1651354,https://maps.google.com/?cid=0x0:0x711eb771c6dc2f3c,
toko bangunan,toko bangunan,Toko bangunan,"Q525+383, Jl. dermaga Lasalimu, Lasalimu, Kec. Lasalimu Sel., Kabupaten Buton, Sulawesi Tenggara 93756","Jl. dermaga Lasalimu, Lasalimu, Kec. Lasalimu Sel., Kabupaten Buton",SULAWESI TENGGARA,93756.0,Indonesia,,,,-5.2498738,123.1583054,https://maps.google.com/?cid=0x0:0xe39888d0b16b41a7,
toko bangunan,toko bangunan,Toko peralatan mesin,"Jl. poros Lasalimu No.4444, Lasalimu, Kec. Lasalimu Sel., Kabupaten Buton, Sulawesi Tenggara 93757","Lasalimu, Kec. Lasalimu Sel., Kabupaten Buton",SULAWESI TENGGARA,93757.0,Indonesia,,,,-5.255857,123.1547802,https://maps.google.com/?cid=0x0:0x981538501c67e8e5,
toko bangunan,Toko Perlengkapan Rumah,"Toko Alat Pancing, Pertanian, Listrik  Tukang Nada Lasalimu","Desa, Ambuau Indah, Kec. Lasalimu Sel., Kabupaten Buton, Sulawesi Tenggara 93756","Ambuau Indah, Kec. Lasalimu Sel., Kabupaten Buton",SULAWESI TENGGARA,93756.0,Indonesia,82360612010.0,,,-5.3184711,123.1621532,https://maps.google.com/?cid=0x0:0xd4b48adfcd1f77bc,
toko bangunan,toko bangunan,Kec. Lasalimu Sel.,"Kabupaten Buton, Sulawesi Tenggara","Kabupaten Buton, Sulawesi Tenggara",SULAWESI TENGGARA,,Indonesia,,,,-5.2517585,123.1595225,https://maps.google.com/?cid=0x0:0x43dc32910467e706,
toko bangunan,Toko Bahan Bangunan,Toko Bangunan Mukhlis,"M5J7+J49, jalan Sulawesi Desa, Ambuau Indah, Lasalimu Selatan, Buton Regency, South East Sulawesi 93756","jalan Sulawesi Desa, Ambuau Indah, Lasalimu Selatan, Buton Regency",SULAWESI TENGGARA,93756.0,Indonesia,,,,-5.3184709,123.1628725,https://maps.google.com/?cid=0x0:0xf58ed61e19c8e691,
toko bangunan,Kios,Toko Azril,"Q4R6+R93, Wasuamba, Kec. Lasalimu, Kabupaten Buton, Sulawesi Tenggara 93756","Wasuamba, Kec. Lasalimu, Kabupaten Buton",SULAWESI TENGGARA,93756.0,Indonesia,,,,-5.208424,123.110375,https://maps.google.com/?cid=0x0:0x60fa748321b6e58e,
toko bangunan,Toko Perlengkapan Rumah,"Toko Alat Pancing, Pertanian, Listrik  Tukang Nada Lasalimu","Desa, Ambuau Indah, Kec. Lasalimu Sel., Kabupaten Buton, Sulawesi Tenggara 93756","Ambuau Indah, Kec. Lasalimu Sel., Kabupaten Buton",SULAWESI TENGGARA,93756.0,Indonesia,82360612010.0,,,-5.3184711,123.1621532,https://maps.google.com/?cid=0x0:0xd4b48adfcd1f77bc,
toko bangunan,toko bangunan,Toko bangunan,"Q525+383, Jl. dermaga Lasalimu, Lasalimu, Kec. Lasalimu Sel., Kabupaten Buton, Sulawesi Tenggara 93756","Jl. dermaga Lasalimu, Lasalimu, Kec. Lasalimu Sel., Kabupaten Buton",SULAWESI TENGGARA,93756.0,Indonesia,,,,-5.2498738,123.1583054,https://maps.google.com/?cid=0x0:0xe39888d0b16b41a7,
toko bangunan,Toko Bahan Bangunan,Toko Enam Saudara Lombe,"PHXH+439, kompleks pasar lombe, Bombonawulu, Kec. Gu, Kabupaten Buton, Sulawesi Tenggara 93761","kompleks pasar lombe, Bombonawulu, Kec. Gu, Kabupaten Buton",SULAWESI TENGGARA,93761.0,Indonesia,85299578579.0,,,-5.2522026,122.5777204,https://maps.google.com/?cid=0x0:0x278b5a28c6ed5919,
toko bangunan,toko bangunan,Kec. Ps. Wajo,"Kabupaten Buton, Sulawesi Tenggara","Kabupaten Buton, Sulawesi Tenggara",SULAWESI TENGGARA,,Indonesia,,,,-5.5143888,122.8408508,https://maps.google.com/?cid=0x0:0xd8cb6cdd80295dce,
toko bangunan,Toko Bahan Bangunan,Toko Aza bahan bangunan,"HV3J+CC4, Kahulungaya, Kec. Ps. Wajo, Kabupaten Buton, Sulawesi Tenggara","Kabupaten Buton, Sulawesi Tenggara",SULAWESI TENGGARA,,Indonesia,,,,-5.4464894,122.8810813,https://maps.google.com/?cid=0x0:0x218c2ca5248cf2e7,
toko bangunan,Pusat Perbelanjaan,Toko bangunan Melati,"FVF5+WPR, Wagola, Kec. Ps. Wajo, Kabupaten Buton, Sulawesi Tenggara 93754","Wagola, Kec. Ps. Wajo, Kabupaten Buton",SULAWESI TENGGARA,93754.0,Indonesia,,,,-5.5251448,122.8592612,https://maps.google.com/?cid=0x0:0xeba8ba6f03670240,
toko bangunan,Pom bensin/SPBU,Minyak tanah,"CVWR+FHC, desa koholimombono, Kec. Ps. Wajo, Kabupaten Buton, Sulawesi Tenggara 93754","desa koholimombono, Kec. Ps. Wajo, Kabupaten Buton",SULAWESI TENGGARA,93754.0,Indonesia,,,,-5.5538878,122.8924877,https://maps.google.com/?cid=0x0:0xa7ba9485578de871,
toko bangunan,Pusat Perbelanjaan,Toko Al Desa Wolowa,"HWFJ+R6H, Wolowa, Kec. Wolowa, Kabupaten Buton, Sulawesi Tenggara 93754","Wolowa, Kec. Wolowa, Kabupaten Buton",SULAWESI TENGGARA,93754.0,Indonesia,85241575161.0,,,-5.4254282,122.9306093,https://maps.google.com/?cid=0x0:0x257f3848d5f68cbf,
toko bangunan,Toko bahan makanan,Toko Indah Laburunci,"FRHR+3QH, Laburunci, Kec. Ps. Wajo, Kabupaten Buton, Sulawesi Tenggara","Kabupaten Buton, Sulawesi Tenggara",SULAWESI TENGGARA,,Indonesia,,,,-5.5223201,122.8419811,https://maps.google.com/?cid=0x0:0x906be0ab6a3db3cc,
toko bangunan,Toko bahan makanan,Toko Bangunan Sinar Wajo,"MXX6+986, Namaelo, Kec. Kota Masohi, Kabupaten Maluku Tengah, Maluku","Kabupaten Maluku Tengah, Maluku",SULAWESI TENGGARA,,Indonesia,,,,-3.3015852,128.9607569,https://maps.google.com/?cid=0x0:0xee8368ef93b442cb,
toko bangunan,toko bangunan,Toko Bangunan,"GVC3+J87, Saragi, Kec. Ps. Wajo, Kabupaten Buton, Sulawesi Tenggara","Kabupaten Buton, Sulawesi Tenggara",SULAWESI TENGGARA,,Indonesia,,,,-5.4784724,122.8533093,https://maps.google.com/?cid=0x0:0xb310076b7a163c19,
toko bangunan,Toko,Kios Mambulu (Barokah) Jaya Utama,"Jl. Poros Batauga, Dusun Laporoworu, Gn. Sejuk, Kec. Sampolawa, Kabupaten Buton, Sulawesi Tenggara 93753","Dusun Laporoworu, Gn. Sejuk, Kec. Sampolawa, Kabupaten Buton",SULAWESI TENGGARA,93753.0,Indonesia,,,,-5.5819375,122.7381875,https://maps.google.com/?cid=0x0:0xc02d319280ee6290,
toko bangunan,Pasar tradisional,Pasar Kaloko,"FVC3+7QC, Takimpo, Kec. Ps. Wajo, Kabupaten Buton, Sulawesi Tenggara 93754","Takimpo, Kec. Ps. Wajo, Kabupaten Buton",SULAWESI TENGGARA,93754.0,Indonesia,82243386183.0,,,-5.5293007,122.8544051,https://maps.google.com/?cid=0x0:0xa9425318cf17703f,
toko bangunan,toko bangunan,Kec. Siontapina,"Kabupaten Buton, Sulawesi Tenggara","Kabupaten Buton, Sulawesi Tenggara",SULAWESI TENGGARA,,Indonesia,,,,-5.4035862,123.1036419,https://maps.google.com/?cid=0x0:0x53f852a50e303b3e,
toko bangunan,Toko Bahan Bangunan,Toko Bangunan Mukhlis,"M5J7+J49, jalan Sulawesi Desa, Ambuau Indah, Lasalimu Selatan, Buton Regency, South East Sulawesi 93756","jalan Sulawesi Desa, Ambuau Indah, Lasalimu Selatan, Buton Regency",SULAWESI TENGGARA,93756.0,Indonesia,,,,-5.3184709,123.1628725,https://maps.google.com/?cid=0x0:0xf58ed61e19c8e691,
toko bangunan,Pasar bahan bangunan,Intan Building Center,"Jl. Budi Utomo No.90, Bataraguru, Kec. Wolio, Kota Bau-Bau, Sulawesi Tenggara 93717","Bataraguru, Kec. Wolio, Kota Bau-Bau",SULAWESI TENGGARA,93717.0,Indonesia,82292888886.0,,,-5.4658703,122.607269,https://maps.google.com/?cid=0x0:0xdd0e5cfd517f12e5,
toko bangunan,Toko Bahan Bangunan,Toko Bangunan Iswan,"G6W4+XX3, Asingi, Kec. Tinanggea, Kabupaten Konawe Selatan, Sulawesi Tenggara 93885","Asingi, Kec. Tinanggea, Kabupaten Konawe Selatan",SULAWESI TENGGARA,93885.0,Indonesia,,,,-4.4526036,122.2074163,https://maps.google.com/?cid=0x0:0xac4f803932d5aa50,
toko bangunan,Toko Bahan Bangunan,Toko. SM banguna,"M5M8+425, Jl. Bali, Ambuau Indah, Kec. Lasalimu Sel., Kabupaten Buton, Sulawesi Tenggara 93756","Jl. Bali, Ambuau Indah, Kec. Lasalimu Sel., Kabupaten Buton",SULAWESI TENGGARA,93756.0,Indonesia,,,,-5.3172202,123.1651354,https://maps.google.com/?cid=0x0:0x711eb771c6dc2f3c,
toko bangunan,Pemasok Bahan Bangunan,TOKO BANGUNAN 88 DANDIZA,"GJJH+6HH, Jl. Pahlawan, Bukit Wolio Indah, Kec. Wolio, Kota Bau-Bau, Sulawesi Tenggara 93711","Jl. Pahlawan, Bukit Wolio Indah, Kec. Wolio, Kota Bau-Bau",SULAWESI TENGGARA,93711.0,Indonesia,85381242891.0,,,-5.4694446,122.6289906,https://maps.google.com/?cid=0x0:0x4d015acbc312e669,
toko bangunan,Toko Bahan Bangunan,Toko Intan BauBau,"Jl. Brigjen Katamso No.3A, Wale, Kec. Wolio, Kota Bau-Bau, Sulawesi Tenggara 93717","Wale, Kec. Wolio, Kota Bau-Bau",SULAWESI TENGGARA,93717.0,Indonesia,4022821009.0,,,-5.456583,122.6049064,https://maps.google.com/?cid=0x0:0xc82b2fb063975784,
toko bangunan,Pusat Perbelanjaan,Toko Al Desa Wolowa,"HWFJ+R6H, Wolowa, Kec. Wolowa, Kabupaten Buton, Sulawesi Tenggara 93754","Wolowa, Kec. Wolowa, Kabupaten Buton",SULAWESI TENGGARA,93754.0,Indonesia,85241575161.0,,,-5.4254282,122.9306093,https://maps.google.com/?cid=0x0:0x257f3848d5f68cbf,
toko bangunan,toko bangunan,Batako Cakto,"M4G9+882, Jalan kerinci, Siontapina, Kec. Lasalimu Sel., Kabupaten Buton, Sulawesi Tenggara 93756","Jalan kerinci, Siontapina, Kec. Lasalimu Sel., Kabupaten Buton",SULAWESI TENGGARA,93756.0,Indonesia,,,,-5.3242312,123.1182806,https://maps.google.com/?cid=0x0:0x95162f46fc69e709,
toko bangunan,toko bangunan,Toko bangunan,"Q525+383, Jl. dermaga Lasalimu, Lasalimu, Kec. Lasalimu Sel., Kabupaten Buton, Sulawesi Tenggara 93756","Jl. dermaga Lasalimu, Lasalimu, Kec. Lasalimu Sel., Kabupaten Buton",SULAWESI TENGGARA,93756.0,Indonesia,,,,-5.2498738,123.1583054,https://maps.google.com/?cid=0x0:0xe39888d0b16b41a7,
toko bangunan,Toko Perlengkapan Rumah,Toko Sinar Bangunan Pagimana,"Jl.12 februari No.69, Pagimana, Kabupaten Banggai, Sulawesi Tengah","Kabupaten Banggai, Sulawesi Tengah",SULAWESI TENGGARA,,Indonesia,85241212000.0,,,-0.793028,122.6531115,https://maps.google.com/?cid=0x0:0x89898eb8c3350ca1,
toko bangunan,Toko Bahan Bangunan,Toko Setia Bangunan,"Jl. Ir. Soekarno Desa No.354, Lantula Jaya, Kec. Wita Ponda, Kabupaten Morowali, Sulawesi Tengah 94976","Lantula Jaya, Kec. Wita Ponda, Kabupaten Morowali",SULAWESI TENGGARA,94976.0,Indonesia,,,,-2.2273256,121.6246776,https://maps.google.com/?cid=0x0:0xfa04b8a638333599,
toko bangunan,Toko Bahan Bangunan,Toko Sinar Surya,"Jl. RA. Kartini No.37, Wale, Kec. Wolio, Kota Bau-Bau, Sulawesi Tenggara 93717","Wale, Kec. Wolio, Kota Bau-Bau",SULAWESI TENGGARA,93717.0,Indonesia,4022821608.0,,,-5.4561494,122.6047287,https://maps.google.com/?cid=0x0:0xf9e53df0c463e05e,
toko bangunan,Toko Bahan Bangunan,Toko Supardin,"Q89F+CW7, Unnamed Road, Tanailandu, Kec. Mawasangka, Kabupaten Buton, Sulawesi Tenggara 93762","Unnamed Road, Tanailandu, Kec. Mawasangka, Kabupaten Buton",SULAWESI TENGGARA,93762.0,Indonesia,82344297099.0,,,-5.2314659,122.3248031,https://maps.google.com/?cid=0x0:0xe7f4fd98a3dc15c9,
toko bangunan,Toko Bahan Bangunan,Intan Building Center 2,"Jl. R.a. Kartini No.68, Wale, Kec. Wolio, Kota Bau-Bau, Sulawesi Tenggara 93717","Wale, Kec. Wolio, Kota Bau-Bau",SULAWESI TENGGARA,93717.0,Indonesia,82292888886.0,,,-5.4565292,122.6051852,https://maps.google.com/?cid=0x0:0x4743d2cd70649910,
toko bangunan,Toko Perlengkapan Rumah,"Toko Alat Pancing, Pertanian, Listrik  Tukang Nada Lasalimu","Desa, Ambuau Indah, Kec. Lasalimu Sel., Kabupaten Buton, Sulawesi Tenggara 93756","Ambuau Indah, Kec. Lasalimu Sel., Kabupaten Buton",SULAWESI TENGGARA,93756.0,Indonesia,82360612010.0,,,-5.3184711,123.1621532,https://maps.google.com/?cid=0x0:0xd4b48adfcd1f77bc,
toko bangunan,Pusat Perbelanjaan,Toko MUTIARA BANGUNAN,"GJJ7+H4V, Jl. Gatot Subroto, Bukit Wolio Indah, Kec. Wolio, Kota Bau-Bau, Sulawesi Tenggara 93717","Jl. Gatot Subroto, Bukit Wolio Indah, Kec. Wolio, Kota Bau-Bau",SULAWESI TENGGARA,93717.0,Indonesia,,,,-5.4685039,122.6128014,https://maps.google.com/?cid=0x0:0x19ffc296d630dd50,
toko bangunan,Toko Bahan Bangunan,Toko Bahan Bangunan Batauga Jaya,"Jl. Poros, pasar, Masiri, Batauga, Kabupaten Buton, Sulawesi Tenggara 93752","pasar, Masiri, Batauga, Kabupaten Buton",SULAWESI TENGGARA,93752.0,Indonesia,81242299192.0,,,-5.6058423,122.5966813,https://maps.google.com/?cid=0x0:0xa23110e6ef30e0e6,
toko bangunan,Toko Bahan Bangunan,Sinar Berlian,"Jl. Brigjen Katamso No.3 A, Wale, Kec. Wolio, Kota Bau-Bau, Sulawesi Tenggara 93717","Wale, Kec. Wolio, Kota Bau-Bau",SULAWESI TENGGARA,93717.0,Indonesia,4022821413.0,,,-5.4564908,122.6048778,https://maps.google.com/?cid=0x0:0xa0c883fa27494e61,
toko bangunan,Toko Bahan Bangunan,CAHAYA TOMPIRA,"W9HW+Q7X, Jl. Trans Sulawesi, Tompira, Kec. Petasia Timur, Kabupaten Morowali Utara, Sulawesi Tengah 94971","Jl. Trans Sulawesi, Tompira, Kec. Petasia Timur, Kabupaten Morowali Utara",SULAWESI TENGGARA,94971.0,Indonesia,82253383199.0,,,-2.0705071,121.3957212,https://maps.google.com/?cid=0x0:0x6e05fc2aa56de9fc,
toko bangunan,toko bangunan,Siontapina,"Kec. Lasalimu Sel., Kabupaten Buton, Sulawesi Tenggara","Kabupaten Buton, Sulawesi Tenggara",SULAWESI TENGGARA,,Indonesia,,,,-5.3242312,123.1182806,https://maps.google.com/?cid=0x0:0x7d394a4da9627623,
toko bangunan,toko bangunan,Sulawesi Tenggara 93756,"Kabupaten Buton, Sulawesi Tenggara","Kabupaten Buton, Sulawesi Tenggara",SULAWESI TENGGARA,,Indonesia,,,,-5.2711643,123.0338767,https://maps.google.com/?cid=0x0:0xc929eb64401583f6,
toko bangunan,Pusat Perbelanjaan,Toko Al Desa Wolowa,"HWFJ+R6H, Wolowa, Kec. Wolowa, Kabupaten Buton, Sulawesi Tenggara 93754","Wolowa, Kec. Wolowa, Kabupaten Buton",SULAWESI TENGGARA,93754.0,Indonesia,85241575161.0,,,-5.4254282,122.9306093,https://maps.google.com/?cid=0x0:0x257f3848d5f68cbf,
toko bangunan,Pusat Perbelanjaan,kios dena,"HWFH+24H SDN 1, Wolowa, Kec. Wolowa, Kabupaten Buton, Sulawesi Tenggara 93754","Wolowa, Kec. Wolowa, Kabupaten Buton",SULAWESI TENGGARA,93754.0,Indonesia,81245276462.0,,,-5.4274325,122.9278475,https://maps.google.com/?cid=0x0:0x80512ec0683ade25,
toko bangunan,toko bangunan,Sulawesi Tenggara 93754,"Kabupaten Buton, Sulawesi Tenggara","Kabupaten Buton, Sulawesi Tenggara",SULAWESI TENGGARA,,Indonesia,,,,-5.4060758,122.8761309,https://maps.google.com/?cid=0x0:0x59c5abb5b91bda19,
toko bangunan,Toko bahan makanan,TOKO DK KACA WABULA,"9VR6+P39, Wabula, Kec. Wabula, Kabupaten Buton, Sulawesi Tenggara 93754","Wabula, Kec. Wabula, Kabupaten Buton",SULAWESI TENGGARA,93754.0,Indonesia,,,,-5.6082172,122.8602388,https://maps.google.com/?cid=0x0:0x1bcb81d5fa4218d8,
toko bangunan,Pusat Perbelanjaan,Toko bangunan Melati,"FVF5+WPR, Wagola, Kec. Ps. Wajo, Kabupaten Buton, Sulawesi Tenggara 93754","Wagola, Kec. Ps. Wajo, Kabupaten Buton",SULAWESI TENGGARA,93754.0,Indonesia,,,,-5.5251448,122.8592612,https://maps.google.com/?cid=0x0:0xeba8ba6f03670240,
toko bangunan,Toko Bahan Bangunan,Toko Aza bahan bangunan,"HV3J+CC4, Kahulungaya, Kec. Ps. Wajo, Kabupaten Buton, Sulawesi Tenggara","Kabupaten Buton, Sulawesi Tenggara",SULAWESI TENGGARA,,Indonesia,,,,-5.4464894,122.8810813,https://maps.google.com/?cid=0x0:0x218c2ca5248cf2e7,
toko bangunan,Toko Bahan Bangunan,Toko Sumber Rezeki,"Jl. Pangeran Limboro, Banabungi, Kec. Ps. Wajo, Kabupaten Buton, Sulawesi Tenggara 93754","Banabungi, Kec. Ps. Wajo, Kabupaten Buton",SULAWESI TENGGARA,93754.0,Indonesia,85241637184.0,,,-5.5110635,122.8429251,https://maps.google.com/?cid=0x0:0x502705c8e2f51436,
toko bangunan,Pemasok Bahan Bangunan,TOKO BANGUNAN 88 DANDIZA,"GJJH+6HH, Jl. Pahlawan, Bukit Wolio Indah, Kec. Wolio, Kota Bau-Bau, Sulawesi Tenggara 93711","Jl. Pahlawan, Bukit Wolio Indah, Kec. Wolio, Kota Bau-Bau",SULAWESI TENGGARA,93711.0,Indonesia,85381242891.0,,,-5.4694446,122.6289906,https://maps.google.com/?cid=0x0:0x4d015acbc312e669,
toko bangunan,Toko Bahan Bangunan,UD. BERKAH ABADI,"656F+QHM, Lipu, Kec. Kulisusu, Kabupaten Buton Utara, Sulawesi Tenggara","Kabupaten Buton Utara, Sulawesi Tenggara",SULAWESI TENGGARA,,Indonesia,,,,-4.7880442,123.1739101,https://maps.google.com/?cid=0x0:0xf4ae845421c6e5d3,
toko bangunan,Pasar bahan bangunan,Intan Building Center,"Jl. Budi Utomo No.90, Bataraguru, Kec. Wolio, Kota Bau-Bau, Sulawesi Tenggara 93717","Bataraguru, Kec. Wolio, Kota Bau-Bau",SULAWESI TENGGARA,93717.0,Indonesia,82292888886.0,,,-5.4658703,122.607269,https://maps.google.com/?cid=0x0:0xdd0e5cfd517f12e5,
toko bangunan,Pusat Perbelanjaan,Toko MUTIARA BANGUNAN,"GJJ7+H4V, Jl. Gatot Subroto, Bukit Wolio Indah, Kec. Wolio, Kota Bau-Bau, Sulawesi Tenggara 93717","Jl. Gatot Subroto, Bukit Wolio Indah, Kec. Wolio, Kota Bau-Bau",SULAWESI TENGGARA,93717.0,Indonesia,,,,-5.4685039,122.6128014,https://maps.google.com/?cid=0x0:0x19ffc296d630dd50,
toko bangunan,toko bangunan,Kec. Wabula,"Kabupaten Buton, Sulawesi Tenggara","Kabupaten Buton, Sulawesi Tenggara",SULAWESI TENGGARA,,Indonesia,,,,-5.6077445,122.8594298,https://maps.google.com/?cid=0x0:0x7bb47d4b468e4d89,
toko bangunan,Tujuan Wisata,Wabula Satu,"9VQ5+G85, Satu, Wabula, Kec. Wabula, Kabupaten Buton, Sulawesi Tenggara","Kabupaten Buton, Sulawesi Tenggara",SULAWESI TENGGARA,,Indonesia,,,,-5.6112391,122.858358,https://maps.google.com/?cid=0x0:0x747f049d478cf9d7,
toko bangunan,Toko Bahan Bangunan,Toko Sumber Bangunan,"M3X6+GM8, Jl. Poros Basala-Benua, Lipu Masagena, Kec. Basala, Kabupaten Konawe Selatan, Sulawesi Tenggara 93875","Jl. Poros Basala-Benua, Lipu Masagena, Kec. Basala, Kabupaten Konawe Selatan",SULAWESI TENGGARA,93875.0,Indonesia,82112427393.0,,,-4.3012196,122.0617042,https://maps.google.com/?cid=0x0:0xfe3b3a09c506810e,
toko bangunan,Rumah Kayu,Toko(WDR) Tolandona,"JJMC+7C2, Tolandona Matanaeo, Kec. Sangia Wambulu, Kabupaten Buton, Sulawesi Tenggara 93761","Tolandona Matanaeo, Kec. Sangia Wambulu, Kabupaten Buton",SULAWESI TENGGARA,93761.0,Indonesia,,,,-5.3668257,122.6208758,https://maps.google.com/?cid=0x0:0x613247cb39b5b94b,
toko bangunan,Toko Bahan Bangunan,Toko Sinar Surya,"Jl. RA. Kartini No.37, Wale, Kec. Wolio, Kota Bau-Bau, Sulawesi Tenggara 93717","Wale, Kec. Wolio, Kota Bau-Bau",SULAWESI TENGGARA,93717.0,Indonesia,4022821608.0,,,-5.4561494,122.6047287,https://maps.google.com/?cid=0x0:0xf9e53df0c463e05e,
toko bangunan,Toko Bahan Bangunan,Toko Enam Saudara Lombe,"PHXH+439, kompleks pasar lombe, Bombonawulu, Kec. Gu, Kabupaten Buton, Sulawesi Tenggara 93761","kompleks pasar lombe, Bombonawulu, Kec. Gu, Kabupaten Buton",SULAWESI TENGGARA,93761.0,Indonesia,85299578579.0,,,-5.2522026,122.5777204,https://maps.google.com/?cid=0x0:0x278b5a28c6ed5919,
toko bangunan,Toko Bahan Bangunan,Toko Duta Bangunan,"GHHM+2PM, Katobengke, Kec. Betoambari, Kota Bau-Bau, Sulawesi Tenggara","Kota Bau-Bau, Sulawesi Tenggara",SULAWESI TENGGARA,,Indonesia,82290671686.0,,,-5.4724224,122.5842948,https://maps.google.com/?cid=0x0:0xc4880143503a419d,
toko bangunan,Toko Bahan Bangunan,Tb.Dewata,"V36Q+HJX, Jl. Poros Batuputih - Olooloho, Latali, Kec. Pakue Tengah, Kabupaten Kolaka Utara, Sulawesi Tenggara 93954","Jl. Poros Batuputih - Olooloho, Latali, Kec. Pakue Tengah, Kabupaten Kolaka Utara",SULAWESI TENGGARA,93954.0,Indonesia,895130809372.0,,,-3.138512,121.0891049,https://maps.google.com/?cid=0x0:0xe4af17b738ab7364,
toko bangunan,Toko Bahan Bangunan,Toko Intan BauBau,"Jl. Brigjen Katamso No.3A, Wale, Kec. Wolio, Kota Bau-Bau, Sulawesi Tenggara 93717","Wale, Kec. Wolio, Kota Bau-Bau",SULAWESI TENGGARA,93717.0,Indonesia,4022821009.0,,,-5.456583,122.6049064,https://maps.google.com/?cid=0x0:0xc82b2fb063975784,
toko bangunan,Toko bahan makanan,Agen Toko Usaha Baru,"659C+G9C, Bangkudu, Kec. Kulisusu, Kabupaten Buton Utara, Sulawesi Tenggara 93672","Bangkudu, Kec. Kulisusu, Kabupaten Buton Utara",SULAWESI TENGGARA,93672.0,Indonesia,,,,-4.7811906,123.1708892,https://maps.google.com/?cid=0x0:0xc1e0ab114ef3e2d4,
toko bangunan,Toko Bahan Bangunan,Jual Bahan Bangunan,"Jl. Pahlawan Lorong Perumahan Bukitsari, Kadolo Katapi, Kec. Wolio, Kota Bau-Bau, Sulawesi Tenggara","Kota Bau-Bau, Sulawesi Tenggara",SULAWESI TENGGARA,,Indonesia,81341938700.0,,,-5.4687118,122.6346344,https://maps.google.com/?cid=0x0:0x5132938d11933fa2,
toko bangunan,Pusat Perbelanjaan,Toko Al Desa Wolowa,"HWFJ+R6H, Wolowa, Kec. Wolowa, Kabupaten Buton, Sulawesi Tenggara 93754","Wolowa, Kec. Wolowa, Kabupaten Buton",SULAWESI TENGGARA,93754.0,Indonesia,85241575161.0,,,-5.4254282,122.9306093,https://maps.google.com/?cid=0x0:0x257f3848d5f68cbf,
hardware store,hardware store,Sulawesi Tenggara 93755,"Kabupaten Buton, Sulawesi Tenggara","Kabupaten Buton, Sulawesi Tenggara",SULAWESI TENGGARA,,Indonesia,,,,-5.2652803,122.831015,https://maps.google.com/?cid=0x0:0x698a3c90045603c1,
hardware store,Toko Batu,Batu Bata Mas Joko Todanga,"Desa, Todanga, Kec. Kapontori, Kabupaten Buton, Sulawesi Tenggara 93755","Todanga, Kec. Kapontori, Kabupaten Buton",SULAWESI TENGGARA,93755.0,Indonesia,82193111191.0,,,-5.1010451,122.7951472,https://maps.google.com/?cid=0x0:0x9f942c763ff9e45,
hardware store,Toko Batu,mabulugo bata merah ok,"Mabulugo, Kec. Kapontori, Kabupaten Buton, Sulawesi Tenggara 93755","Kec. Kapontori, Kabupaten Buton",SULAWESI TENGGARA,93755.0,Indonesia,82399583835.0,,,-5.2655865,122.7154158,https://maps.google.com/?cid=0x0:0x9d0823238dbe9550,
hardware store,hardware store,Toko Tumada Jaya,"VQMM+C4J, Tumada, Kec. Kapontori, Kabupaten Buton, Sulawesi Tenggara","Kabupaten Buton, Sulawesi Tenggara",SULAWESI TENGGARA,,Indonesia,82291191105.0,,,-5.1164004,122.7827699,https://maps.google.com/?cid=0x0:0x1b9515b00d10e46e,
hardware store,Toko Bahan Bangunan,Toko Bangunan Mukhlis,"M5J7+J49, jalan Sulawesi Desa, Ambuau Indah, Lasalimu Selatan, Buton Regency, South East Sulawesi 93756","jalan Sulawesi Desa, Ambuau Indah, Lasalimu Selatan, Buton Regency",SULAWESI TENGGARA,93756.0,Indonesia,,,,-5.3184709,123.1628725,https://maps.google.com/?cid=0x0:0xf58ed61e19c8e691,
hardware store,hardware store,Toko bangunan,"Q525+383, Jl. dermaga Lasalimu, Lasalimu, Kec. Lasalimu Sel., Kabupaten Buton, Sulawesi Tenggara 93756","Jl. dermaga Lasalimu, Lasalimu, Kec. Lasalimu Sel., Kabupaten Buton",SULAWESI TENGGARA,93756.0,Indonesia,,,,-5.2498738,123.1583054,https://maps.google.com/?cid=0x0:0xe39888d0b16b41a7,
hardware store,hardware store,Toko peralatan mesin,"Jl. poros Lasalimu No.4444, Lasalimu, Kec. Lasalimu Sel., Kabupaten Buton, Sulawesi Tenggara 93757","Lasalimu, Kec. Lasalimu Sel., Kabupaten Buton",SULAWESI TENGGARA,93757.0,Indonesia,,,,-5.255857,123.1547802,https://maps.google.com/?cid=0x0:0x981538501c67e8e5,
hardware store,Kios,Toko Azril,"Q4R6+R93, Wasuamba, Kec. Lasalimu, Kabupaten Buton, Sulawesi Tenggara 93756","Wasuamba, Kec. Lasalimu, Kabupaten Buton",SULAWESI TENGGARA,93756.0,Indonesia,,,,-5.208424,123.110375,https://maps.google.com/?cid=0x0:0x60fa748321b6e58e,
hardware store,Toko Perlengkapan Rumah,"Toko Alat Pancing, Pertanian, Listrik  Tukang Nada Lasalimu","Desa, Ambuau Indah, Kec. Lasalimu Sel., Kabupaten Buton, Sulawesi Tenggara 93756","Ambuau Indah, Kec. Lasalimu Sel., Kabupaten Buton",SULAWESI TENGGARA,93756.0,Indonesia,82360612010.0,,,-5.3184711,123.1621532,https://maps.google.com/?cid=0x0:0xd4b48adfcd1f77bc,
hardware store,hardware store,Kec. Lasalimu Sel.,"Kabupaten Buton, Sulawesi Tenggara","Kabupaten Buton, Sulawesi Tenggara",SULAWESI TENGGARA,,Indonesia,,,,-5.2517585,123.1595225,https://maps.google.com/?cid=0x0:0x43dc32910467e706,
hardware store,Toko Bahan Bangunan,Toko Bangunan Mukhlis,"M5J7+J49, jalan Sulawesi Desa, Ambuau Indah, Lasalimu Selatan, Buton Regency, South East Sulawesi 93756","jalan Sulawesi Desa, Ambuau Indah, Lasalimu Selatan, Buton Regency",SULAWESI TENGGARA,93756.0,Indonesia,,,,-5.3184709,123.1628725,https://maps.google.com/?cid=0x0:0xf58ed61e19c8e691,
hardware store,Toko Perlengkapan Rumah,"Toko Alat Pancing, Pertanian, Listrik  Tukang Nada Lasalimu","Desa, Ambuau Indah, Kec. Lasalimu Sel., Kabupaten Buton, Sulawesi Tenggara 93756","Ambuau Indah, Kec. Lasalimu Sel., Kabupaten Buton",SULAWESI TENGGARA,93756.0,Indonesia,82360612010.0,,,-5.3184711,123.1621532,https://maps.google.com/?cid=0x0:0xd4b48adfcd1f77bc,
hardware store,hardware store,Toko bangunan,"Q525+383, Jl. dermaga Lasalimu, Lasalimu, Kec. Lasalimu Sel., Kabupaten Buton, Sulawesi Tenggara 93756","Jl. dermaga Lasalimu, Lasalimu, Kec. Lasalimu Sel., Kabupaten Buton",SULAWESI TENGGARA,93756.0,Indonesia,,,,-5.2498738,123.1583054,https://maps.google.com/?cid=0x0:0xe39888d0b16b41a7,
hardware store,hardware store,Toko Ambuau Indah,"M5J6+JWG, Desa, Ambuau Indah, Kec. Lasalimu Sel., Kabupaten Buton, Sulawesi Tenggara 93756","Desa, Ambuau Indah, Kec. Lasalimu Sel., Kabupaten Buton",SULAWESI TENGGARA,93756.0,Indonesia,,,,-5.3184455,123.1623343,https://maps.google.com/?cid=0x0:0x8e9b58e4077820a5,
hardware store,hardware store,Kec. Ps. Wajo,"Kabupaten Buton, Sulawesi Tenggara","Kabupaten Buton, Sulawesi Tenggara",SULAWESI TENGGARA,,Indonesia,,,,-5.5143888,122.8408508,https://maps.google.com/?cid=0x0:0xd8cb6cdd80295dce,
hardware store,Toko Bahan Bangunan,Toko Sumber Rezeki,"Jl. Pangeran Limboro, Banabungi, Kec. Ps. Wajo, Kabupaten Buton, Sulawesi Tenggara 93754","Banabungi, Kec. Ps. Wajo, Kabupaten Buton",SULAWESI TENGGARA,93754.0,Indonesia,85241637184.0,,,-5.5110635,122.8429251,https://maps.google.com/?cid=0x0:0x502705c8e2f51436,
hardware store,Toko Bahan Bangunan,Toko Aza bahan bangunan,"HV3J+CC4, Kahulungaya, Kec. Ps. Wajo, Kabupaten Buton, Sulawesi Tenggara","Kabupaten Buton, Sulawesi Tenggara",SULAWESI TENGGARA,,Indonesia,,,,-5.4464894,122.8810813,https://maps.google.com/?cid=0x0:0x218c2ca5248cf2e7,
hardware store,Pusat Perbelanjaan,Toko bangunan Melati,"FVF5+WPR, Wagola, Kec. Ps. Wajo, Kabupaten Buton, Sulawesi Tenggara 93754","Wagola, Kec. Ps. Wajo, Kabupaten Buton",SULAWESI TENGGARA,93754.0,Indonesia,,,,-5.5251448,122.8592612,https://maps.google.com/?cid=0x0:0xeba8ba6f03670240,
hardware store,Pusat Perbelanjaan,Family Shop (FS),"GR4R+MJQ, Jl. Balai Kota, Kambula Mbulana, Kec. Ps. Wajo, Kabupaten Buton, Sulawesi Tenggara 93754","Jl. Balai Kota, Kambula Mbulana, Kec. Ps. Wajo, Kabupaten Buton",SULAWESI TENGGARA,93754.0,Indonesia,85216308391.0,,,-5.4932857,122.8416226,https://maps.google.com/?cid=0x0:0xbbfe474e91febead,
hardware store,Toko,Kios Mambulu (Barokah) Jaya Utama,"Jl. Poros Batauga, Dusun Laporoworu, Gn. Sejuk, Kec. Sampolawa, Kabupaten Buton, Sulawesi Tenggara 93753","Dusun Laporoworu, Gn. Sejuk, Kec. Sampolawa, Kabupaten Buton",SULAWESI TENGGARA,93753.0,Indonesia,,,,-5.5819375,122.7381875,https://maps.google.com/?cid=0x0:0xc02d319280ee6290,
hardware store,Pusat Perbelanjaan,Toko Al Desa Wolowa,"HWFJ+R6H, Wolowa, Kec. Wolowa, Kabupaten Buton, Sulawesi Tenggara 93754","Wolowa, Kec. Wolowa, Kabupaten Buton",SULAWESI TENGGARA,93754.0,Indonesia,85241575161.0,,,-5.4254282,122.9306093,https://maps.google.com/?cid=0x0:0x257f3848d5f68cbf,
hardware store,Toko,Kios Eka Jaya ATK,"Jl. Protokol No.035, Kel. Kambulabulana, Kec. Ps. Wajo, Kabupaten Buton, Sulawesi Tenggara 94754","Kel. Kambulabulana, Kec. Ps. Wajo, Kabupaten Buton",SULAWESI TENGGARA,94754.0,Indonesia,85255044885.0,,,-5.4916975,122.8458765,https://maps.google.com/?cid=0x0:0x66cae8f49a28434e,
hardware store,Toko Fotokopi,Ghian fotocopy,"FRCX+35Q, Jl. Ps. Ompu, Takimpo, Kec. Ps. Wajo, Kabupaten Buton, Sulawesi Tenggara 93754","Jl. Ps. Ompu, Takimpo, Kec. Ps. Wajo, Kabupaten Buton",SULAWESI TENGGARA,93754.0,Indonesia,,,,-5.5294845,122.8479744,https://maps.google.com/?cid=0x0:0xe18fea9a8fe9877,
hardware store,Toko Alat Tulis Kantor,WANDONGA-NDONGA TOKO,"GVF3+265, Wakoko, Kec. Ps. Wajo, Kabupaten Buton, Sulawesi Tenggara","Kabupaten Buton, Sulawesi Tenggara",SULAWESI TENGGARA,,Indonesia,81356729321.0,,,-5.4774957,122.8531141,https://maps.google.com/?cid=0x0:0x4042047df399e050,
hardware store,Toko Bahan Bangunan,Toko Supardin,"Q89F+CW7, Unnamed Road, Tanailandu, Kec. Mawasangka, Kabupaten Buton, Sulawesi Tenggara 93762","Unnamed Road, Tanailandu, Kec. Mawasangka, Kabupaten Buton",SULAWESI TENGGARA,93762.0,Indonesia,82344297099.0,,,-5.2314659,122.3248031,https://maps.google.com/?cid=0x0:0xe7f4fd98a3dc15c9,
hardware store,Toko Bahan Bangunan,Sinar Auddy,"M9FG+H6V, Lanto, Kec. Mawasangka Tengah, Kabupaten Buton, Sulawesi Tenggara","Kabupaten Buton, Sulawesi Tenggara",SULAWESI TENGGARA,,Indonesia,,,,-5.3260116,122.3755396,https://maps.google.com/?cid=0x0:0x66642e7bdfa26c8,
hardware store,hardware store,Siontapina,"Kec. Lasalimu Sel., Kabupaten Buton, Sulawesi Tenggara","Kabupaten Buton, Sulawesi Tenggara",SULAWESI TENGGARA,,Indonesia,,,,-5.3242312,123.1182806,https://maps.google.com/?cid=0x0:0x7d394a4da9627623,
hardware store,Pusat Perbelanjaan,Toko Al Desa Wolowa,"HWFJ+R6H, Wolowa, Kec. Wolowa, Kabupaten Buton, Sulawesi Tenggara 93754","Wolowa, Kec. Wolowa, Kabupaten Buton",SULAWESI TENGGARA,93754.0,Indonesia,85241575161.0,,,-5.4254282,122.9306093,https://maps.google.com/?cid=0x0:0x257f3848d5f68cbf,
hardware store,Pusat Perbelanjaan,kios dena,"HWFH+24H SDN 1, Wolowa, Kec. Wolowa, Kabupaten Buton, Sulawesi Tenggara 93754","Wolowa, Kec. Wolowa, Kabupaten Buton",SULAWESI TENGGARA,93754.0,Indonesia,81245276462.0,,,-5.4274325,122.9278475,https://maps.google.com/?cid=0x0:0x80512ec0683ade25,
hardware store,Toko bahan makanan,TOKO DK KACA WABULA,"9VR6+P39, Wabula, Kec. Wabula, Kabupaten Buton, Sulawesi Tenggara 93754","Wabula, Kec. Wabula, Kabupaten Buton",SULAWESI TENGGARA,93754.0,Indonesia,,,,-5.6082172,122.8602388,https://maps.google.com/?cid=0x0:0x1bcb81d5fa4218d8,
hardware store,Toko bahan makanan,KIOS DELVI,"GR3V+FGV, Jl. Kihajar Dewantara, Kambula Mbulana, Kec. Ps. Wajo, Kabupaten Buton, Sulawesi Tenggara 93754","Jl. Kihajar Dewantara, Kambula Mbulana, Kec. Ps. Wajo, Kabupaten Buton",SULAWESI TENGGARA,93754.0,Indonesia,,,,-5.4962681,122.843798,https://maps.google.com/?cid=0x0:0xbe9ed37259e5fd4e,
hardware store,hardware store,Sulawesi Tenggara 93754,"Kabupaten Buton, Sulawesi Tenggara","Kabupaten Buton, Sulawesi Tenggara",SULAWESI TENGGARA,,Indonesia,,,,-5.4060758,122.8761309,https://maps.google.com/?cid=0x0:0x59c5abb5b91bda19,
hardware store,hardware store,Kec. Wabula,"Kabupaten Buton, Sulawesi Tenggara","Kabupaten Buton, Sulawesi Tenggara",SULAWESI TENGGARA,,Indonesia,,,,-5.6077445,122.8594298,https://maps.google.com/?cid=0x0:0x7bb47d4b468e4d89,
hardware store,Pusat Perbelanjaan,Toko bangunan Melati,"FVF5+WPR, Wagola, Kec. Ps. Wajo, Kabupaten Buton, Sulawesi Tenggara 93754","Wagola, Kec. Ps. Wajo, Kabupaten Buton",SULAWESI TENGGARA,93754.0,Indonesia,,,,-5.5251448,122.8592612,https://maps.google.com/?cid=0x0:0xeba8ba6f03670240,
home improvement,home improvement,Sulawesi Tenggara 93755,"Kabupaten Buton, Sulawesi Tenggara","Kabupaten Buton, Sulawesi Tenggara",SULAWESI TENGGARA,,Indonesia,,,,-5.2652803,122.831015,https://maps.google.com/?cid=0x0:0x698a3c90045603c1,
home improvement,home improvement,Ranu variasi,"VR8Q+W7M, Jl. Arwana, Wakuli, Kec. Kapontori, Kabupaten Buton, Sulawesi Tenggara 93755","Jl. Arwana, Wakuli, Kec. Kapontori, Kabupaten Buton",SULAWESI TENGGARA,93755.0,Indonesia,,,,-5.1326713,122.8381811,https://maps.google.com/?cid=0x0:0x1fddfb506d1dfc5e,
home improvement,Pemasok Pintu,Rayhan Kos  Furniture,"FRRV+P8Q, Batumatongka kel, Kambula Mbulana, Kec. Ps. Wajo, Kabupaten Buton, Sulawesi Tenggara 93754","Batumatongka kel, Kambula Mbulana, Kec. Ps. Wajo, Kabupaten Buton",SULAWESI TENGGARA,93754.0,Indonesia,82291557555.0,,,-5.5081559,122.843353,https://maps.google.com/?cid=0x0:0x3468231c437867eb,
home improvement,Akuntan sewaan,Mr D.I.Y,"5P6G+744, Jl. Ahmad Yani, Kabupaten Muna, Sulawesi Tenggara 93611","Jl. Ahmad Yani, Kabupaten Muna",SULAWESI TENGGARA,93611.0,Indonesia,,,,-4.8394031,122.7252278,https://maps.google.com/?cid=0x0:0x2dbeeba2ef5f3086,
home improvement,home improvement,Kebun Susiyono,"JW4J+GXH, Wolowa, Kec. Wolowa, Kabupaten Buton, Sulawesi Tenggara 93754","Wolowa, Kec. Wolowa, Kabupaten Buton",SULAWESI TENGGARA,93754.0,Indonesia,81346233000.0,,,-5.3936833,122.9324972,https://maps.google.com/?cid=0x0:0xa2f309527367fa6e,
home improvement,Toko Bahan Bangunan,TOKO BAHAN BANGUNAN,"5MQ2+JGP, Jl. Poros Raha-Kusambi, Dana, Kec. Watopute, Kabupaten Muna, Sulawesi Tenggara 93658","Jl. Poros Raha-Kusambi, Dana, Kec. Watopute, Kabupaten Muna",SULAWESI TENGGARA,93658.0,Indonesia,,,,-4.8109195,122.6513408,https://maps.google.com/?cid=0x0:0x9804f5f170a038e5,
home improvement,home improvement,Kec. Lasalimu,"Kabupaten Buton, Sulawesi Tenggara","Kabupaten Buton, Sulawesi Tenggara",SULAWESI TENGGARA,,Indonesia,,,,-5.1765847,123.0625716,https://maps.google.com/?cid=0x0:0xb91fed4937d73bc6,
home improvement,home improvement,Sulawesi,,,SULAWESI TENGGARA,,Indonesia,,,,-1.8479,120.5279,https://maps.google.com/?cid=0x0:0xbc9a51d168f47742,
home improvement,Tempat Ibadah,Kilala home LS,"Jl. Belitung No.4, Ambuau Indah, Kec. Lasalimu Sel., Kabupaten Buton, Sulawesi Tenggara 93756","Ambuau Indah, Kec. Lasalimu Sel., Kabupaten Buton",SULAWESI TENGGARA,93756.0,Indonesia,,,,-5.322077,123.1624219,https://maps.google.com/?cid=0x0:0x53851dd96be12516,
home improvement,Toko,Toko tyas,"M4RM+5PV, jln pisang, Siomanuru, Kec. Lasalimu Sel., Kabupaten Buton, Sulawesi Tenggara 93756","jln pisang, Siomanuru, Kec. Lasalimu Sel., Kabupaten Buton",SULAWESI TENGGARA,93756.0,Indonesia,85397030008.0,,,-5.3095181,123.1342922,https://maps.google.com/?cid=0x0:0xed1953559fef2f27,
home improvement,Toko Mebel,INDI FURNITURE,"M5J6+FPH, Jl. Poros Lasalimu, Ambuau Indah, Kec. Lasalimu Sel., Kabupaten Buton, Sulawesi Tenggara 93756","Jl. Poros Lasalimu, Ambuau Indah, Kec. Lasalimu Sel., Kabupaten Buton",SULAWESI TENGGARA,93756.0,Indonesia,,,,-5.3188025,123.1618653,https://maps.google.com/?cid=0x0:0x141ef045546b4c5b,
home improvement,Toko Mebel,BILAL MEUBEL WABULA (BMW),"R3Q5+VFX, Kamaru, Kec. Lasalimu, Kabupaten Buton, Sulawesi Tenggara 93756","Kamaru, Kec. Lasalimu, Kabupaten Buton",SULAWESI TENGGARA,93756.0,Indonesia,82261950733.0,,,-5.1603068,123.0586312,https://maps.google.com/?cid=0x0:0xb25ce16c960a10be,
home improvement,Toko Perlengkapan Rumah,"Toko Alat Pancing, Pertanian, Listrik  Tukang Nada Lasalimu","Desa, Ambuau Indah, Kec. Lasalimu Sel., Kabupaten Buton, Sulawesi Tenggara 93756","Ambuau Indah, Kec. Lasalimu Sel., Kabupaten Buton",SULAWESI TENGGARA,93756.0,Indonesia,82360612010.0,,,-5.3184711,123.1621532,https://maps.google.com/?cid=0x0:0xd4b48adfcd1f77bc,
home improvement,Kios,IKMAL HOME,"Q5Q7+87, Sinaulu Jaya, Kec. Wawonii Tenggara, Konawe Kepulauan, Sulawesi Tenggara","Konawe Kepulauan, Sulawesi Tenggara",SULAWESI TENGGARA,,Indonesia,,,,-4.211683,123.163191,https://maps.google.com/?cid=0x0:0xef1c1adb2172ad22,
home improvement,Toko Perlengkapan Rumah,FS muebel furnicur,"P5V4+G2R, Lasalimu, Kec. Lasalimu Sel., Kabupaten Buton, Sulawesi Tenggara 93756","Lasalimu, Kec. Lasalimu Sel., Kabupaten Buton",SULAWESI TENGGARA,93756.0,Indonesia,,,,-5.2561366,123.1550053,https://maps.google.com/?cid=0x0:0x38bdd49dc8deb405,
home improvement,,TK. AMALI ELEKTRONIK  FURNITURE,"43HP+RRP, Lalosabila, Kec. Wawotobi, Kabupaten Konawe, Sulawesi Tenggara 93461","Lalosabila, Kec. Wawotobi, Kabupaten Konawe",SULAWESI TENGGARA,93461.0,Indonesia,81341986777.0,,,-3.8704039,122.0870638,https://maps.google.com/?cid=0x0:0xade95c2c05ce461d,
home improvement,Rumah Kaca,Rumah Hayon Dawud (Toko Umam Jaya),"PHVH+FPJ, Bombonawulu, Kec. Gu, Kabupaten Buton, Sulawesi Tenggara 93761","Bombonawulu, Kec. Gu, Kabupaten Buton",SULAWESI TENGGARA,93761.0,Indonesia,,,,-5.2562997,122.5792519,https://maps.google.com/?cid=0x0:0xd972436319c3b8db,
home improvement,Komplek perumahan,Home Jumino,"M3W4+348, Blok i, Basala, Kec. Basala, Kabupaten Konawe Selatan, Sulawesi Tenggara 93875","Blok i, Basala, Kec. Basala, Kabupaten Konawe Selatan",SULAWESI TENGGARA,93875.0,Indonesia,,,,-4.3048255,122.055319,https://maps.google.com/?cid=0x0:0x549e03f2465f258d,
home improvement,Rumah Kayu,my home,"VJ2Q+29P, Tambosupa, Kec. Moramo, Kabupaten Konawe Selatan, Sulawesi Tenggara 93891","Tambosupa, Kec. Moramo, Kabupaten Konawe Selatan",SULAWESI TENGGARA,93891.0,Indonesia,,,,-4.1496973,122.6386326,https://maps.google.com/?cid=0x0:0x9fd6f94185d8c646,
home improvement,Komplek perumahan,Mebell furnitur,"Q3G9+632, Lasembangi, Kec. Lasalimu, Kabupaten Buton, Sulawesi Tenggara 93756","Lasembangi, Kec. Lasalimu, Kabupaten Buton",SULAWESI TENGGARA,93756.0,Indonesia,,,,-5.2244891,123.0676469,https://maps.google.com/?cid=0x0:0xe2d86a5fdf3d9869,
home improvement,home improvement,Lasalimu,"Wasuamba, Kec. Lasalimu, Kabupaten Buton, Sulawesi Tenggara","Kabupaten Buton, Sulawesi Tenggara",SULAWESI TENGGARA,,Indonesia,,,,-5.224197,123.127403,https://maps.google.com/?cid=0x0:0xb739d9e9697eebf9,
home improvement,Komplek perumahan,Bengkel Las Ishak,"Q4V5+443, Wasuamba, Kec. Lasalimu, Kabupaten Buton, Sulawesi Tenggara 93756","Wasuamba, Kec. Lasalimu, Kabupaten Buton",SULAWESI TENGGARA,93756.0,Indonesia,81245557710.0,,,-5.2072362,123.1077825,https://maps.google.com/?cid=0x0:0x6b09a5bd32c5ede9,
home improvement,home improvement,Yafiq Almunium,"R3F7+928 desa togomangura dusun landema, Kamaru, Kec. Lasalimu, Kabupaten Buton, Sulawesi Tenggara 93756","Kamaru, Kec. Lasalimu, Kabupaten Buton",SULAWESI TENGGARA,93756.0,Indonesia,,,,-5.1765847,123.0625716,https://maps.google.com/?cid=0x0:0xb0c295167bbc1023,
home improvement,home improvement,Kec. Lasalimu Sel.,"Kabupaten Buton, Sulawesi Tenggara","Kabupaten Buton, Sulawesi Tenggara",SULAWESI TENGGARA,,Indonesia,,,,-5.2517585,123.1595225,https://maps.google.com/?cid=0x0:0x43dc32910467e706,
home improvement,Produsen,Mebel Rizkha,"Umalaoge, Kec. Lasalimu Sel., Kabupaten Buton, Sulawesi Tenggara 93756","Kec. Lasalimu Sel., Kabupaten Buton",SULAWESI TENGGARA,93756.0,Indonesia,,,,-5.2747386,123.1938311,https://maps.google.com/?cid=0x0:0xc4099c5d7ae728e8,
home improvement,Tempat Ibadah,Kilala home LS,"Jl. Belitung No.4, Ambuau Indah, Kec. Lasalimu Sel., Kabupaten Buton, Sulawesi Tenggara 93756","Ambuau Indah, Kec. Lasalimu Sel., Kabupaten Buton",SULAWESI TENGGARA,93756.0,Indonesia,,,,-5.322077,123.1624219,https://maps.google.com/?cid=0x0:0x53851dd96be12516,
home improvement,Toko Mebel,INDI FURNITURE,"M5J6+FPH, Jl. Poros Lasalimu, Ambuau Indah, Kec. Lasalimu Sel., Kabupaten Buton, Sulawesi Tenggara 93756","Jl. Poros Lasalimu, Ambuau Indah, Kec. Lasalimu Sel., Kabupaten Buton",SULAWESI TENGGARA,93756.0,Indonesia,,,,-5.3188025,123.1618653,https://maps.google.com/?cid=0x0:0x141ef045546b4c5b,
home improvement,Developer Rumah Hunian Khusus,5-M SAKINA ASYIFA,"M4RQ+X7G, Siomanuru, Kec. Lasalimu Sel., Kabupaten Buton, Sulawesi Tenggara 93756","Siomanuru, Kec. Lasalimu Sel., Kabupaten Buton",SULAWESI TENGGARA,93756.0,Indonesia,,,,-5.3075639,123.1381974,https://maps.google.com/?cid=0x0:0x22bffb60fc01d173,
home improvement,Toko,Toko tyas,"M4RM+5PV, jln pisang, Siomanuru, Kec. Lasalimu Sel., Kabupaten Buton, Sulawesi Tenggara 93756","jln pisang, Siomanuru, Kec. Lasalimu Sel., Kabupaten Buton",SULAWESI TENGGARA,93756.0,Indonesia,85397030008.0,,,-5.3095181,123.1342922,https://maps.google.com/?cid=0x0:0xed1953559fef2f27,
home improvement,Komplek perumahan,Bengkel Las Ishak,"Q4V5+443, Wasuamba, Kec. Lasalimu, Kabupaten Buton, Sulawesi Tenggara 93756","Wasuamba, Kec. Lasalimu, Kabupaten Buton",SULAWESI TENGGARA,93756.0,Indonesia,81245557710.0,,,-5.2072362,123.1077825,https://maps.google.com/?cid=0x0:0x6b09a5bd32c5ede9,
home improvement,Toko Perlengkapan Rumah,FS muebel furnicur,"P5V4+G2R, Lasalimu, Kec. Lasalimu Sel., Kabupaten Buton, Sulawesi Tenggara 93756","Lasalimu, Kec. Lasalimu Sel., Kabupaten Buton",SULAWESI TENGGARA,93756.0,Indonesia,,,,-5.2561366,123.1550053,https://maps.google.com/?cid=0x0:0x38bdd49dc8deb405,
home improvement,Sekolah pendidikan umum,My Home aslim,"Pasar Wajo, Ps. Wajo, Kec. Ps. Wajo, Kabupaten Buton, Sulawesi Tenggara 93754","Ps. Wajo, Kec. Ps. Wajo, Kabupaten Buton",SULAWESI TENGGARA,93754.0,Indonesia,,,,-5.5009169,122.8435317,https://maps.google.com/?cid=0x0:0x9e4ccfba3cff9ae7,
home improvement,Toko Perlengkapan Rumah,"Toko Alat Pancing, Pertanian, Listrik  Tukang Nada Lasalimu","Desa, Ambuau Indah, Kec. Lasalimu Sel., Kabupaten Buton, Sulawesi Tenggara 93756","Ambuau Indah, Kec. Lasalimu Sel., Kabupaten Buton",SULAWESI TENGGARA,93756.0,Indonesia,82360612010.0,,,-5.3184711,123.1621532,https://maps.google.com/?cid=0x0:0xd4b48adfcd1f77bc,
home improvement,Komplek perumahan,Mebell furnitur,"Q3G9+632, Lasembangi, Kec. Lasalimu, Kabupaten Buton, Sulawesi Tenggara 93756","Lasembangi, Kec. Lasalimu, Kabupaten Buton",SULAWESI TENGGARA,93756.0,Indonesia,,,,-5.2244891,123.0676469,https://maps.google.com/?cid=0x0:0xe2d86a5fdf3d9869,
home improvement,Toko Bahan Bangunan,Toko Bangunan Mukhlis,"M5J7+J49, jalan Sulawesi Desa, Ambuau Indah, Lasalimu Selatan, Buton Regency, South East Sulawesi 93756","jalan Sulawesi Desa, Ambuau Indah, Lasalimu Selatan, Buton Regency",SULAWESI TENGGARA,93756.0,Indonesia,,,,-5.3184709,123.1628725,https://maps.google.com/?cid=0x0:0xf58ed61e19c8e691,
home improvement,home improvement,Kec. Ps. Wajo,"Kabupaten Buton, Sulawesi Tenggara","Kabupaten Buton, Sulawesi Tenggara",SULAWESI TENGGARA,,Indonesia,,,,-5.5143888,122.8408508,https://maps.google.com/?cid=0x0:0xd8cb6cdd80295dce,
home improvement,,home industri,"Banabungi, Kec. Ps. Wajo, Kabupaten Buton, Sulawesi Tenggara 93754","Kec. Ps. Wajo, Kabupaten Buton",SULAWESI TENGGARA,93754.0,Indonesia,81242922650.0,,,-5.5198611,122.8418303,https://maps.google.com/?cid=0x0:0xc4814472808dc153,
home improvement,Taman bermain,HOME VANO,"GR2W+4F6, Ps. Wajo, Kec. Ps. Wajo, Kabupaten Buton, Sulawesi Tenggara","Kabupaten Buton, Sulawesi Tenggara",SULAWESI TENGGARA,,Indonesia,,,,-5.4997248,122.8461371,https://maps.google.com/?cid=0x0:0x654423f4bf4f41dc,
home improvement,Pemasok Pintu,Rayhan Kos  Furniture,"FRRV+P8Q, Batumatongka kel, Kambula Mbulana, Kec. Ps. Wajo, Kabupaten Buton, Sulawesi Tenggara 93754","Batumatongka kel, Kambula Mbulana, Kec. Ps. Wajo, Kabupaten Buton",SULAWESI TENGGARA,93754.0,Indonesia,82291557555.0,,,-5.5081559,122.843353,https://maps.google.com/?cid=0x0:0x3468231c437867eb,
home improvement,Perusahaan Konstruksi,cv citra mekar jaya,"GQM8+HQP, Waangu-Angu, Kec. Ps. Wajo, Kabupaten Buton, Sulawesi Tenggara","Kabupaten Buton, Sulawesi Tenggara",SULAWESI TENGGARA,,Indonesia,82398709375.0,,,-5.4660328,122.7669546,https://maps.google.com/?cid=0x0:0x3a10147a38670f6c,
home improvement,Kantor Perusahaan,Mini Extraction Plant PT WIKA BITUMEN,"HVRJ+MRF, Winning, Kec. Ps. Wajo, Kabupaten Buton, Sulawesi Tenggara 93754","Winning, Kec. Ps. Wajo, Kabupaten Buton",SULAWESI TENGGARA,93754.0,Indonesia,,,,-5.4083077,122.8820478,https://maps.google.com/?cid=0x0:0x562a2325023393cd,
home improvement,Toko Perlengkapan Rumah,Activ Furniture,"FVRF+QRV, Kondowa, Kec. Ps. Wajo, Kabupaten Buton, Sulawesi Tenggara 93754","Kondowa, Kec. Ps. Wajo, Kabupaten Buton",SULAWESI TENGGARA,93754.0,Indonesia,,,,-5.5080079,122.8745507,https://maps.google.com/?cid=0x0:0xed08e95eea942eaf,
home improvement,Perusahaan Konstruksi,CV.DUA CIKOOLS BERSAUDARA,"Jl. Laode Ana, Ps. Wajo, Kec. Ps. Wajo, Kabupaten Buton, Sulawesi Tenggara 93754","Ps. Wajo, Kec. Ps. Wajo, Kabupaten Buton",SULAWESI TENGGARA,93754.0,Indonesia,82191918008.0,,,-5.4971335,122.8457164,https://maps.google.com/?cid=0x0:0x2f52c4b8bd59672,
home improvement,Perajin furnitur,MEBEL AMALIA MARWA,"HV2H+G3, Kahulungaya, Kec. Ps. Wajo, Kabupaten Buton, Sulawesi Tenggara 93754","Kahulungaya, Kec. Ps. Wajo, Kabupaten Buton",SULAWESI TENGGARA,93754.0,Indonesia,81229653490.0,,,-5.4486738,122.8777218,https://maps.google.com/?cid=0x0:0xdf1035949315d10e,
home improvement,Toko Perlengkapan Rumah,MR.DIY Wajo,"Ruko, Jl. Andi Paggaru No.3, Teddaopu, Kec. Tempe, Kabupaten Wajo, Sulawesi Selatan 90912","Jl. Andi Paggaru No.3, Teddaopu, Kec. Tempe, Kabupaten Wajo",SULAWESI TENGGARA,90912.0,Indonesia,2130022789.0,,,-4.1289239,120.0272655,https://maps.google.com/?cid=0x0:0xc3e51284304940d9,
home improvement,Kantor Perusahaan,UD WAANGUANGU JAYA,"GQJ9+F63, Waangu-Angu, Kec. Ps. Wajo, Kabupaten Buton, Sulawesi Tenggara","Kabupaten Buton, Sulawesi Tenggara",SULAWESI TENGGARA,,Indonesia,81247222593.0,,,-5.468857,122.7680424,https://maps.google.com/?cid=0x0:0xd7199bf87f59ba,
home improvement,Toko Perlengkapan Rumah,AQILA BOX SPEAKER,"GQCM+HF, Waangu-Angu, Kec. Ps. Wajo, Kabupaten Buton, Sulawesi Tenggara","Kabupaten Buton, Sulawesi Tenggara",SULAWESI TENGGARA,,Indonesia,85145812456.0,,,-5.4785143,122.7836752,https://maps.google.com/?cid=0x0:0x5f83a946d5c2deff,
home improvement,Perusahaan Konstruksi,PT KONAWE MULTI USAHA,"GQM9+CCV, Waangu-Angu, Kec. Ps. Wajo, Kabupaten Buton, Sulawesi Tenggara 93757","Waangu-Angu, Kec. Ps. Wajo, Kabupaten Buton",SULAWESI TENGGARA,93757.0,Indonesia,,,,-5.4663769,122.7685583,https://maps.google.com/?cid=0x0:0xdebe3a877cf48897,
home improvement,Perajin furnitur,MEUBEL UKIR JEPARA,"GVH3+RGC, Jl. Baubau-Pasarwajo, Wasaga, Kec. Ps. Wajo, Kabupaten Buton, Sulawesi Tenggara 93754","Jl. Baubau-Pasarwajo, Wasaga, Kec. Ps. Wajo, Kabupaten Buton",SULAWESI TENGGARA,93754.0,Indonesia,,,,-5.4704339,122.853759,https://maps.google.com/?cid=0x0:0x84d1d8e62bf2d13d,
home improvement,home improvement,Siontapina,"Kec. Lasalimu Sel., Kabupaten Buton, Sulawesi Tenggara","Kabupaten Buton, Sulawesi Tenggara",SULAWESI TENGGARA,,Indonesia,,,,-5.3242312,123.1182806,https://maps.google.com/?cid=0x0:0x7d394a4da9627623,
home improvement,home improvement,Sulawesi Tenggara 93756,"Kabupaten Buton, Sulawesi Tenggara","Kabupaten Buton, Sulawesi Tenggara",SULAWESI TENGGARA,,Indonesia,,,,-5.2711643,123.0338767,https://maps.google.com/?cid=0x0:0xc929eb64401583f6,
home improvement,home improvement,Kebun Susiyono,"JW4J+GXH, Wolowa, Kec. Wolowa, Kabupaten Buton, Sulawesi Tenggara 93754","Wolowa, Kec. Wolowa, Kabupaten Buton",SULAWESI TENGGARA,93754.0,Indonesia,81346233000.0,,,-5.3936833,122.9324972,https://maps.google.com/?cid=0x0:0xa2f309527367fa6e,
home improvement,home improvement,Sulawesi Tenggara 93754,"Kabupaten Buton, Sulawesi Tenggara","Kabupaten Buton, Sulawesi Tenggara",SULAWESI TENGGARA,,Indonesia,,,,-5.4060758,122.8761309,https://maps.google.com/?cid=0x0:0x59c5abb5b91bda19,
home improvement,home improvement,Sulawesi Tenggara 93754,"Kabupaten Buton, Sulawesi Tenggara","Kabupaten Buton, Sulawesi Tenggara",SULAWESI TENGGARA,,Indonesia,,,,-5.4060758,122.8761309,https://maps.google.com/?cid=0x0:0x59c5abb5b91bda19,
home improvement,Rumah Kayu,Aswil Home Stay,"M9JQ+HFR, Lalibo, Kec. Mawasangka Tengah, Kabupaten Buton, Sulawesi Tenggara","Kabupaten Buton, Sulawesi Tenggara",SULAWESI TENGGARA,,Indonesia,82153841209.0,,,-5.3185224,122.3886354,https://maps.google.com/?cid=0x0:0x313ba60e92f37a6d,
home improvement,home improvement,,,,SULAWESI TENGGARA,,Indonesia,82293486588.0,,,-2.44565,117.8888,https://maps.google.com/?cid=0x0:0xde387e986ecf8e6c,
home improvement,Rumah Kayu,Home,"HJCX+7F8, By Pass, Waruruma, Kec. Kokalukuna, Kota Bau-Bau, Sulawesi Tenggara","Kota Bau-Bau, Sulawesi Tenggara",SULAWESI TENGGARA,,Indonesia,,,,-5.429721,122.648686,https://maps.google.com/?cid=0x0:0x19c864503b01e14d,
home improvement,Toko bahan makanan,TOKO DK KACA WABULA,"9VR6+P39, Wabula, Kec. Wabula, Kabupaten Buton, Sulawesi Tenggara 93754","Wabula, Kec. Wabula, Kabupaten Buton",SULAWESI TENGGARA,93754.0,Indonesia,,,,-5.6082172,122.8602388,https://maps.google.com/?cid=0x0:0x1bcb81d5fa4218d8,
home improvement,home improvement,,,,SULAWESI TENGGARA,,Indonesia,81341230406.0,,,-5.4710754,122.6063884,https://maps.google.com/?cid=0x0:0x69ac12b56ca37d37,
home improvement,home improvement,Kec. Wabula,"Kabupaten Buton, Sulawesi Tenggara","Kabupaten Buton, Sulawesi Tenggara",SULAWESI TENGGARA,,Indonesia,,,,-5.6077445,122.8594298,https://maps.google.com/?cid=0x0:0x7bb47d4b468e4d89,
