Category,Real Category,Business Name,Address,City,State,Postal Code,Country,Phone,Email,Website,Latitude,Longitude,Map Link,Details Link
mall,mall,Sulawesi Tenggara 93755,"Kabupaten Buton, Sulawesi Tenggara","Kabupaten Buton, Sulawesi Tenggara",SULAWESI TENGGARA,,Indonesia,,,,-5.2652803,122.831015,https://maps.google.com/?cid=0x0:0x698a3c90045603c1,
mall,Pembangunan Perumahan,Pasar Todanga,"VQXV+44R, Tuangila, Kec. Kapontori, Kabupaten Buton, Sulawesi Tenggara 93755","Tuangila, Kec. Kapontori, Kabupaten Buton",SULAWESI TENGGARA,93755.0,Indonesia,,,,-5.1021275,122.7927518,https://maps.google.com/?cid=0x0:0x96dfce8ff762c611,
mall,Toko umum,Toko widari,"PPMG+GJC, Boneatiro, Kec. Kapontori, Kabupaten Buton, Sulawesi Tenggara 93755","Boneatiro, Kec. Kapontori, Kabupaten Buton",SULAWESI TENGGARA,93755.0,Indonesia,,,,-5.2661965,122.7265136,https://maps.google.com/?cid=0x0:0x56b1242f4812a16d,
mall,Toko,Kios kiki,"WQ2X+RW3, Jl. Bataraguru, Tuangila, Kec. Kapontori, Kabupaten Buton, Sulawesi Tenggara 93755","Jl. Bataraguru, Tuangila, Kec. Kapontori, Kabupaten Buton",SULAWESI TENGGARA,93755.0,Indonesia,,,,-5.0979955,122.7997926,https://maps.google.com/?cid=0x0:0xde4401592cfd96d9,
mall,Pusat Perbelanjaan,Kios Mama Inal,"Jl. Bataraguru, Wakuli, Kec. Kapontori, Kabupaten Buton, Sulawesi Tenggara 93755","Wakuli, Kec. Kapontori, Kabupaten Buton",SULAWESI TENGGARA,93755.0,Indonesia,82269878365.0,,,-5.128546,122.8228131,https://maps.google.com/?cid=0x0:0x57aca7d9d4597d13,
mall,Pusat Perbelanjaan,Lippo Plaza Baubau,"GJQ9+JR2, Batulo, Kec. Wolio, Kota Bau-Bau, Sulawesi Tenggara 93716","Batulo, Kec. Wolio, Kota Bau-Bau",SULAWESI TENGGARA,93716.0,Indonesia,,,,-5.4609875,122.6195156,https://maps.google.com/?cid=0x0:0xa36840a3dba9c932,
mall,Toko Pakaian,Pasar Lombe,"PHXG+3X9, Pasar Lombe, Bombonawulu, Kec. Gu, Kabupaten Buton, Sulawesi Tenggara 93761","Pasar Lombe, Bombonawulu, Kec. Gu, Kabupaten Buton",SULAWESI TENGGARA,93761.0,Indonesia,,,,-5.252328,122.5774717,https://maps.google.com/?cid=0x0:0x8908c50e37c5e64c,
mall,Pusat Perbelanjaan,elzar store,"4GVR+W2Q, Latugho, Kec. Lawa, Kabupaten Muna, Sulawesi Tenggara","Kabupaten Muna, Sulawesi Tenggara",SULAWESI TENGGARA,,Indonesia,82189266403.0,,,-4.8551566,122.5401025,https://maps.google.com/?cid=0x0:0xd1cd109fc957044,
mall,Balai masyarakat,Mall Laino,"5PJM+XFP, Unnamed Road, Kabupaten Muna, Sulawesi Tenggara 93614","Unnamed Road, Kabupaten Muna",SULAWESI TENGGARA,93614.0,Indonesia,,,,-4.8175492,122.7336999,https://maps.google.com/?cid=0x0:0x86f0fbac6694e081,
mall,Toko,Pasar Sabo,"GVC3+Q46, Saragi, Kec. Ps. Wajo, Kabupaten Buton, Sulawesi Tenggara","Kabupaten Buton, Sulawesi Tenggara",SULAWESI TENGGARA,,Indonesia,,,,-5.4780855,122.8527641,https://maps.google.com/?cid=0x0:0xcc2c71af1bb2bb6b,
mall,Toko Pakaian,La Bone Sp. BangkaLi SuLtra,"5MHC+C2H, Bangkali, Kec. Watopute, Kabupaten Muna, Sulawesi Tenggara 93656","Bangkali, Kec. Watopute, Kabupaten Muna",SULAWESI TENGGARA,93656.0,Indonesia,85399445724.0,,,-4.8214432,122.6700954,https://maps.google.com/?cid=0x0:0x93e83bb423e6ae2c,
mall,Toko,Toko sufiati,"FR9W+QGC, Kombeli, Kec. Ps. Wajo, Kabupaten Buton, Sulawesi Tenggara 93754","Kombeli, Kec. Ps. Wajo, Kabupaten Buton",SULAWESI TENGGARA,93754.0,Indonesia,,,,-5.5305697,122.8462714,https://maps.google.com/?cid=0x0:0xd695326763740fc5,
mall,Pasar tradisional,Pasar Kaloko,"FVC3+7QC, Takimpo, Kec. Ps. Wajo, Kabupaten Buton, Sulawesi Tenggara 93754","Takimpo, Kec. Ps. Wajo, Kabupaten Buton",SULAWESI TENGGARA,93754.0,Indonesia,82243386183.0,,,-5.5293007,122.8544051,https://maps.google.com/?cid=0x0:0xa9425318cf17703f,
mall,Minimarket,Koos All,"XR27+F43, Liwumetingki, Kec. Pasir Putih, Kabupaten Muna, Sulawesi Tenggara 93674","Liwumetingki, Kec. Pasir Putih, Kabupaten Muna",SULAWESI TENGGARA,93674.0,Indonesia,,,,-5.048863,122.81281,https://maps.google.com/?cid=0x0:0x536af7bd52a712e2,
mall,Tujuan Wisata,Pasar Kaongkeongkea,"GQJ3+FH6, Wakaokili, Kec. Ps. Wajo, Kabupaten Buton, Sulawesi Tenggara 93757","Wakaokili, Kec. Ps. Wajo, Kabupaten Buton",SULAWESI TENGGARA,93757.0,Indonesia,,,,-5.468845,122.753894,https://maps.google.com/?cid=0x0:0x111b54574764d67b,
mall,Toko bahan makanan,Kios Vano Kamaru,"R3F7+H9W, Kamaru, Kec. Lasalimu, Kabupaten Buton, Sulawesi Tenggara 93756","Kamaru, Kec. Lasalimu, Kabupaten Buton",SULAWESI TENGGARA,93756.0,Indonesia,82198928007.0,,,-5.1760064,123.0634383,https://maps.google.com/?cid=0x0:0x5252cd771a3fafcf,
mall,Masjid,Mesjid Haqqul yakin,"MJVR+2P6, dusun uncume,desa, Rahia, Kec. Gu, kab.buton tengah, Sulawesi Tenggara","kab.buton tengah, Sulawesi Tenggara",SULAWESI TENGGARA,,Indonesia,81344477499.0,,,-5.3074685,122.641762,https://maps.google.com/?cid=0x0:0x87db45ef264c8831,
mall,Toko,KIOS LISNA,"QXRF+MW4, Suandala, Kec. Lasalimu, Kabupaten Buton, Sulawesi Tenggara","Kabupaten Buton, Sulawesi Tenggara",SULAWESI TENGGARA,,Indonesia,,,,-5.2083692,122.9748377,https://maps.google.com/?cid=0x0:0xe38e0eca6def6237,
mall,Pasar tradisional,Pasar Sore Ompu,"FVF5+45C, Jl. Poros Pasarwajo Wabula, Wagola, Kec. Ps. Wajo, Kabupaten Buton, Sulawesi Tenggara 93754","Jl. Poros Pasarwajo Wabula, Wagola, Kec. Ps. Wajo, Kabupaten Buton",SULAWESI TENGGARA,93754.0,Indonesia,,,,-5.5271857,122.8579033,https://maps.google.com/?cid=0x0:0xb954c6ac5a0a31c3,
mall,Pusat Perbelanjaan,MGM Raha,"5PGF+C47, Jl. Gatot Subroto, Wamponiki, Kec. Katobu, Kabupaten Muna, Sulawesi Tenggara 93614","Jl. Gatot Subroto, Wamponiki, Kec. Katobu, Kabupaten Muna",SULAWESI TENGGARA,93614.0,Indonesia,,,,-4.8239647,122.7227958,https://maps.google.com/?cid=0x0:0x8cf2917e2f109298,
mall,Minimarket,Indomaret Kapontori Buton,"QRJ8+CV9, Jl. Poros Kapontori, Watumotobe, Kec. Kapontori, Kabupaten Buton, Sulawesi Tenggara 93755","Jl. Poros Kapontori, Watumotobe, Kec. Kapontori, Kabupaten Buton",SULAWESI TENGGARA,93755.0,Indonesia,,,,-5.2186362,122.8171649,https://maps.google.com/?cid=0x0:0x98c51f411f5f4674,
mall,mall,Lasalimu,"Wasuamba, Kec. Lasalimu, Kabupaten Buton, Sulawesi Tenggara","Kabupaten Buton, Sulawesi Tenggara",SULAWESI TENGGARA,,Indonesia,,,,-5.224197,123.127403,https://maps.google.com/?cid=0x0:0xb739d9e9697eebf9,
mall,Kios,Depot Air Minum,"M5G8+M47, Desa, Ambuau Indah, Kec. Lasalimu Sel., Kabupaten Buton, Sulawesi Tenggara 93756","Desa, Ambuau Indah, Kec. Lasalimu Sel., Kabupaten Buton",SULAWESI TENGGARA,93756.0,Indonesia,,,,-5.3233402,123.1652835,https://maps.google.com/?cid=0x0:0xde1a66a59c7216ff,
mall,mall,Kios Fadil,"M5J6+HMX, Jl. Poros Lasalimu, Ambuau Indah, Kec. Lasalimu Sel., Kabupaten Buton, Sulawesi Tenggara 93756","Jl. Poros Lasalimu, Ambuau Indah, Kec. Lasalimu Sel., Kabupaten Buton",SULAWESI TENGGARA,93756.0,Indonesia,,,,-5.3185133,123.1617271,https://maps.google.com/?cid=0x0:0xa31e4ba9c1957a35,
mall,Kios,Kios Adit,"M5J7+H2V, Jl. Poros Lasalimu, Ambuau Indah, Kec. Lasalimu Sel., Kabupaten Buton, Sulawesi Tenggara 93756","Jl. Poros Lasalimu, Ambuau Indah, Kec. Lasalimu Sel., Kabupaten Buton",SULAWESI TENGGARA,93756.0,Indonesia,,,,-5.3185085,123.1625503,https://maps.google.com/?cid=0x0:0x52585d5a0f4a669e,
mall,Pusat Perbelanjaan,Toko Rahayu Bali,"M5H9+VJG, Jl. Irian, Ambuau Indah, Kec. Lasalimu Sel., Kabupaten Buton, Sulawesi Tenggara 93756","Jl. Irian, Ambuau Indah, Kec. Lasalimu Sel., Kabupaten Buton",SULAWESI TENGGARA,93756.0,Indonesia,85299434817.0,,,-5.3203083,123.1690922,https://maps.google.com/?cid=0x0:0xcf7014322d24df93,
mall,Toko Kosmetik,Kios Kosmetik Iqbal,"M5J7+G9M, Jl. Sulawesi Kompleks pasar, Ambuau Indah, Kec. Lasalimu Sel., Kabupaten Buton, Sulawesi Tenggara 93756","Jl. Sulawesi Kompleks pasar, Ambuau Indah, Kec. Lasalimu Sel., Kabupaten Buton",SULAWESI TENGGARA,93756.0,Indonesia,85299434817.0,,,-5.3186699,123.1634136,https://maps.google.com/?cid=0x0:0x6e029a9288faa7c4,
mall,Toko bahan makanan,Toko Martono,"M5J7+H7P, Desa, Ambuau Indah, Kec. Lasalimu Sel., Kabupaten Buton, Sulawesi Tenggara 93756","Desa, Ambuau Indah, Kec. Lasalimu Sel., Kabupaten Buton",SULAWESI TENGGARA,93756.0,Indonesia,,,,-5.3185281,123.1631967,https://maps.google.com/?cid=0x0:0xb484e138b875e082,
mall,Kantor Perusahaan,DESA LASALIMU,"Q526+3XH, Lasalimu, Kec. Lasalimu Sel., Kabupaten Buton, Sulawesi Tenggara 93756","Lasalimu, Kec. Lasalimu Sel., Kabupaten Buton",SULAWESI TENGGARA,93756.0,Indonesia,,,,-5.2498203,123.1624749,https://maps.google.com/?cid=0x0:0xcfea27c77fee14f3,
mall,mall,Fadil Cell,"M5J6+HMX, Jl. Sulawesi, Ambuau Indah, Kec. Lasalimu Sel., Kabupaten Buton, Sulawesi Tenggara 93756","Jl. Sulawesi, Ambuau Indah, Kec. Lasalimu Sel., Kabupaten Buton",SULAWESI TENGGARA,93756.0,Indonesia,,,,-5.3185106,123.1617199,https://maps.google.com/?cid=0x0:0x67b54db30b53202,
mall,mall,Kec. Lasalimu Sel.,"Kabupaten Buton, Sulawesi Tenggara","Kabupaten Buton, Sulawesi Tenggara",SULAWESI TENGGARA,,Indonesia,,,,-5.2517585,123.1595225,https://maps.google.com/?cid=0x0:0x43dc32910467e706,
mall,Kios,Kios Adit,"M5J7+H2V, Jl. Poros Lasalimu, Ambuau Indah, Kec. Lasalimu Sel., Kabupaten Buton, Sulawesi Tenggara 93756","Jl. Poros Lasalimu, Ambuau Indah, Kec. Lasalimu Sel., Kabupaten Buton",SULAWESI TENGGARA,93756.0,Indonesia,,,,-5.3185085,123.1625503,https://maps.google.com/?cid=0x0:0x52585d5a0f4a669e,
mall,Pusat Perbelanjaan,Toko Pakaian Saban,"M5J7+PF6, Desa, Ambuau Indah, Kec. Lasalimu Sel., Kabupaten Buton, Sulawesi Tenggara 93756","Desa, Ambuau Indah, Kec. Lasalimu Sel., Kabupaten Buton",SULAWESI TENGGARA,93756.0,Indonesia,,,,-5.3182248,123.1636438,https://maps.google.com/?cid=0x0:0xaa2852ae7e913e0e,
mall,Toko Kosmetik,Kios Kosmetik Iqbal,"M5J7+G9M, Jl. Sulawesi Kompleks pasar, Ambuau Indah, Kec. Lasalimu Sel., Kabupaten Buton, Sulawesi Tenggara 93756","Jl. Sulawesi Kompleks pasar, Ambuau Indah, Kec. Lasalimu Sel., Kabupaten Buton",SULAWESI TENGGARA,93756.0,Indonesia,85299434817.0,,,-5.3186699,123.1634136,https://maps.google.com/?cid=0x0:0x6e029a9288faa7c4,
mall,Kios,UD Lembo Jaya,"M5J6+JWH, Desa, Ambuau Indah, Kec. Lasalimu Sel., Kabupaten Buton, Sulawesi Tenggara 93756","Desa, Ambuau Indah, Kec. Lasalimu Sel., Kabupaten Buton",SULAWESI TENGGARA,93756.0,Indonesia,,,,-5.3184478,123.1623739,https://maps.google.com/?cid=0x0:0xebdfb369f0f18def,
mall,Pusat Perbelanjaan,Toko Rahayu Bali,"M5H9+VJG, Jl. Irian, Ambuau Indah, Kec. Lasalimu Sel., Kabupaten Buton, Sulawesi Tenggara 93756","Jl. Irian, Ambuau Indah, Kec. Lasalimu Sel., Kabupaten Buton",SULAWESI TENGGARA,93756.0,Indonesia,85299434817.0,,,-5.3203083,123.1690922,https://maps.google.com/?cid=0x0:0xcf7014322d24df93,
mall,mall,Indomaret Lasalimu Selatan,"M5H6+XXG, Jl. Poros Lasalimu, Ambuau Indah, Kec. Lasalimu Sel., Kabupaten Buton, Sulawesi Tenggara 93756","Jl. Poros Lasalimu, Ambuau Indah, Kec. Lasalimu Sel., Kabupaten Buton",SULAWESI TENGGARA,93756.0,Indonesia,,,,-5.3200739,123.1624546,https://maps.google.com/?cid=0x0:0xb44454614e4306d2,
mall,Pusat Perbelanjaan,Foto Copy Rezky,"Jl. poros Lasalimu No.4444, Lasalimu, Kec. Lasalimu Sel., Kabupaten Buton, Sulawesi Tenggara 93756","Lasalimu, Kec. Lasalimu Sel., Kabupaten Buton",SULAWESI TENGGARA,93756.0,Indonesia,,,,-5.2545338,123.1563712,https://maps.google.com/?cid=0x0:0x8467eafc4adc028e,
mall,Toko bahan makanan,Toko Martono,"M5J7+H7P, Desa, Ambuau Indah, Kec. Lasalimu Sel., Kabupaten Buton, Sulawesi Tenggara 93756","Desa, Ambuau Indah, Kec. Lasalimu Sel., Kabupaten Buton",SULAWESI TENGGARA,93756.0,Indonesia,,,,-5.3185281,123.1631967,https://maps.google.com/?cid=0x0:0xb484e138b875e082,
mall,Studio Foto,Fery Fotocopy,"M5J9+J56, Jl. Sulawesi, Ambuau Indah, Kec. Lasalimu Sel., Kabupaten Buton, Sulawesi Tenggara 93756","Jl. Sulawesi, Ambuau Indah, Kec. Lasalimu Sel., Kabupaten Buton",SULAWESI TENGGARA,93756.0,Indonesia,85299434817.0,,,-5.3184568,123.167896,https://maps.google.com/?cid=0x0:0x786b49c98869c648,
mall,Toko umum,Kios Elfin,"J5X2+GVW, Karya Jaya, Kec. Siontapina, Kabupaten Buton, Sulawesi Tenggara 93756","Karya Jaya, Kec. Siontapina, Kabupaten Buton",SULAWESI TENGGARA,93756.0,Indonesia,,,,-5.3511266,123.152203,https://maps.google.com/?cid=0x0:0x7f588e9948af4a89,
mall,Kantor Perusahaan,DESA LASALIMU,"Q526+3XH, Lasalimu, Kec. Lasalimu Sel., Kabupaten Buton, Sulawesi Tenggara 93756","Lasalimu, Kec. Lasalimu Sel., Kabupaten Buton",SULAWESI TENGGARA,93756.0,Indonesia,,,,-5.2498203,123.1624749,https://maps.google.com/?cid=0x0:0xcfea27c77fee14f3,
mall,Sekolah Agama,MAS LASALIMU,"Lasalimu, Kec. Lasalimu Sel., Kabupaten Buton, Sulawesi Tenggara 93756","Kec. Lasalimu Sel., Kabupaten Buton",SULAWESI TENGGARA,93756.0,Indonesia,,,,-5.2597705,123.154286,https://maps.google.com/?cid=0x0:0x1ecb9acef982512e,
mall,mall,Kec. Ps. Wajo,"Kabupaten Buton, Sulawesi Tenggara","Kabupaten Buton, Sulawesi Tenggara",SULAWESI TENGGARA,,Indonesia,,,,-5.5143888,122.8408508,https://maps.google.com/?cid=0x0:0xd8cb6cdd80295dce,
mall,Toko,Pasar Sabo,"GVC3+Q46, Saragi, Kec. Ps. Wajo, Kabupaten Buton, Sulawesi Tenggara","Kabupaten Buton, Sulawesi Tenggara",SULAWESI TENGGARA,,Indonesia,,,,-5.4780855,122.8527641,https://maps.google.com/?cid=0x0:0xcc2c71af1bb2bb6b,
mall,Pasar tradisional,Pasar Sore Ompu,"FVF5+45C, Jl. Poros Pasarwajo Wabula, Wagola, Kec. Ps. Wajo, Kabupaten Buton, Sulawesi Tenggara 93754","Jl. Poros Pasarwajo Wabula, Wagola, Kec. Ps. Wajo, Kabupaten Buton",SULAWESI TENGGARA,93754.0,Indonesia,,,,-5.5271857,122.8579033,https://maps.google.com/?cid=0x0:0xb954c6ac5a0a31c3,
mall,Tujuan Wisata,Pasar Kaongkeongkea,"GQJ3+FH6, Wakaokili, Kec. Ps. Wajo, Kabupaten Buton, Sulawesi Tenggara 93757","Wakaokili, Kec. Ps. Wajo, Kabupaten Buton",SULAWESI TENGGARA,93757.0,Indonesia,,,,-5.468845,122.753894,https://maps.google.com/?cid=0x0:0x111b54574764d67b,
mall,Pusat Perbelanjaan,KIOS ABDUL 2,"GVF3+FQJ, Jl. Protokol, Wasaga, Kec. Ps. Wajo, Kabupaten Buton, Sulawesi Tenggara","Kabupaten Buton, Sulawesi Tenggara",SULAWESI TENGGARA,,Indonesia,82396078845.0,,,-5.4762791,122.854392,https://maps.google.com/?cid=0x0:0x3c6bb7ae8fb73c28,
mall,,Toko Isman,"Kombeli, Kec. Ps. Wajo, Kabupaten Buton, Sulawesi Tenggara 93754","Kec. Ps. Wajo, Kabupaten Buton",SULAWESI TENGGARA,93754.0,Indonesia,82187461298.0,,,-5.5303629,122.8464172,https://maps.google.com/?cid=0x0:0x619c9c9e2caac703,
mall,Pasar tradisional,Pasar Kaloko,"FVC3+7QC, Takimpo, Kec. Ps. Wajo, Kabupaten Buton, Sulawesi Tenggara 93754","Takimpo, Kec. Ps. Wajo, Kabupaten Buton",SULAWESI TENGGARA,93754.0,Indonesia,82243386183.0,,,-5.5293007,122.8544051,https://maps.google.com/?cid=0x0:0xa9425318cf17703f,
mall,Pusat Perbelanjaan,Kios Desti,"Jl. Baubau-Pasarwajo, Warinta, Kec. Ps. Wajo, Kabupaten Buton, Sulawesi Tenggara 93754","Warinta, Kec. Ps. Wajo, Kabupaten Buton",SULAWESI TENGGARA,93754.0,Indonesia,85397006171.0,,,-5.4711831,122.8226561,https://maps.google.com/?cid=0x0:0x4a0f23cabb559bc4,
mall,Pusat Perbelanjaan,KIOS ABDUL 1,"GVG4+MF2, Wasaga, Kec. Ps. Wajo, Kabupaten Buton, Sulawesi Tenggara","Kabupaten Buton, Sulawesi Tenggara",SULAWESI TENGGARA,,Indonesia,,,,-5.4733627,122.8561254,https://maps.google.com/?cid=0x0:0xaeef4121dc1e6896,
mall,Kantor Administrasi Kota,TAKAWA,"FVMF+H85, Dongkala, Kec. Ps. Wajo, Kabupaten Buton, Sulawesi Tenggara 93754","Dongkala, Kec. Ps. Wajo, Kabupaten Buton",SULAWESI TENGGARA,93754.0,Indonesia,402283357.0,,,-5.5161065,122.8733667,https://maps.google.com/?cid=0x0:0xcc8d1c71e9d6a974,
mall,Kios,TuanMuda.Cell,"FRGR+GGM, Jln Lampodo, Kel. Awarapia, Laburunci, Kec. Ps. Wajo, Kabupaten Buton, Sulawesi Tenggara 93754","Jln Lampodo, Kel. Awarapia, Laburunci, Kec. Ps. Wajo, Kabupaten Buton",SULAWESI TENGGARA,93754.0,Indonesia,,,,-5.5236549,122.8412813,https://maps.google.com/?cid=0x0:0x62c4aa245e28dd51,
mall,Kantor Administrasi Kota,Batako pres afrilia,"FVRH+R96, Kondowa, Kec. Ps. Wajo, Kabupaten Buton, Sulawesi Tenggara","Kabupaten Buton, Sulawesi Tenggara",SULAWESI TENGGARA,,Indonesia,82187802695.0,,,-5.5079711,122.8783953,https://maps.google.com/?cid=0x0:0x10286b3e76e61426,
mall,Toko bahan makanan,TOKO TAURUS,"GR3W+5C2, Kambula Mbulana, Kec. Ps. Wajo, Kabupaten Buton, Sulawesi Tenggara","Kabupaten Buton, Sulawesi Tenggara",SULAWESI TENGGARA,,Indonesia,,,,-5.4971224,122.8460282,https://maps.google.com/?cid=0x0:0x17af985db4dd3cdd,
mall,Toko bahan makanan,Kios Melati,"GR2W+GC5, Kambula Mbulana, Kec. Ps. Wajo, Kabupaten Buton, Sulawesi Tenggara","Kabupaten Buton, Sulawesi Tenggara",SULAWESI TENGGARA,,Indonesia,,,,-5.4987346,122.8461003,https://maps.google.com/?cid=0x0:0x356dd8437f2d3c9d,
mall,Pembangunan Perumahan,Raden Fattah Minimarket,"Banabungi, Kec. Ps. Wajo, Kabupaten Buton, Sulawesi Tenggara 93754","Kec. Ps. Wajo, Kabupaten Buton",SULAWESI TENGGARA,93754.0,Indonesia,,,,-5.5139849,122.8418509,https://maps.google.com/?cid=0x0:0x9ce42961883cd6f5,
mall,Dapur Umum,Pasar Rakyat SIONTAPINA,"H4R2+MCX, Unnamed Road, Kec. Siontapina, Kabupaten Buton, Sulawesi Tenggara 93756","Unnamed Road, Kec. Siontapina, Kabupaten Buton",SULAWESI TENGGARA,93756.0,Indonesia,,,,-5.4082713,123.101124,https://maps.google.com/?cid=0x0:0x86bff8e153fa7118,
mall,Pusat Perbelanjaan,Pasar sore kanawa,"H4W3+742, Kumbewaha, Kec. Siontapina, Kabupaten Buton, Sulawesi Tenggara 93756","Kumbewaha, Kec. Siontapina, Kabupaten Buton",SULAWESI TENGGARA,93756.0,Indonesia,,,,-5.4043518,123.1027519,https://maps.google.com/?cid=0x0:0x1f18036432366d4c,
mall,mall,Kec. Siontapina,"Kabupaten Buton, Sulawesi Tenggara","Kabupaten Buton, Sulawesi Tenggara",SULAWESI TENGGARA,,Indonesia,,,,-5.4035862,123.1036419,https://maps.google.com/?cid=0x0:0x53f852a50e303b3e,
mall,Pusat Perbelanjaan,kios dena,"HWFH+24H SDN 1, Wolowa, Kec. Wolowa, Kabupaten Buton, Sulawesi Tenggara 93754","Wolowa, Kec. Wolowa, Kabupaten Buton",SULAWESI TENGGARA,93754.0,Indonesia,81245276462.0,,,-5.4274325,122.9278475,https://maps.google.com/?cid=0x0:0x80512ec0683ade25,
mall,Pusat Perbelanjaan,KIOS ABDUL 1,"GVG4+MF2, Wasaga, Kec. Ps. Wajo, Kabupaten Buton, Sulawesi Tenggara","Kabupaten Buton, Sulawesi Tenggara",SULAWESI TENGGARA,,Indonesia,,,,-5.4733627,122.8561254,https://maps.google.com/?cid=0x0:0xaeef4121dc1e6896,
mall,Pusat Perbelanjaan,Mall Of Indonesia,"Jl. Boulevard Bar. Raya No.12, RT.18/RW.19, Klp. Gading Bar., Kec. Klp. Gading, Jkt Utara, Daerah Khusus Ibukota Jakarta 14240","RT.18/RW.19, Klp. Gading Bar., Kec. Klp. Gading, Jkt Utara",SULAWESI TENGGARA,14240.0,Indonesia,2145867888.0,,,-6.1514549,106.8918949,https://maps.google.com/?cid=0x0:0x3431c7aaadd1f1b6,
mall,Pusat Perbelanjaan,MKG 1,"Jalan Nasional 13 No.13, RT.13/RW.18, Klp. Gading Tim., Kec. Klp. Gading, Jkt Utara, Daerah Khusus Ibukota Jakarta 14240","RT.13/RW.18, Klp. Gading Tim., Kec. Klp. Gading, Jkt Utara",SULAWESI TENGGARA,14240.0,Indonesia,214531101.0,,,-6.1591032,106.9068567,https://maps.google.com/?cid=0x0:0xbe697cd5c2d78e45,
mall,Pusat Perbelanjaan,Mall Artha Gading Jakarta,"Jl. Artha Gading Sel. No.1, Klp. Gading Bar., Kec. Klp. Gading, Jkt Utara, Daerah Khusus Ibukota Jakarta 14240","Klp. Gading Bar., Kec. Klp. Gading, Jkt Utara",SULAWESI TENGGARA,14240.0,Indonesia,2145864000.0,,,-6.1457739,106.8919187,https://maps.google.com/?cid=0x0:0x176166b3d087c724,
mall,Mal outlet,Gading Walk,"Jl. Mandiri Tengah No.RT.13, RT.13/RW.18, Klp. Gading Tim., Kec. Klp. Gading, Jkt Utara, Daerah Khusus Ibukota Jakarta 14240","RT.13/RW.18, Klp. Gading Tim., Kec. Klp. Gading, Jkt Utara",SULAWESI TENGGARA,14240.0,Indonesia,,,,-6.1588269,106.9082924,https://maps.google.com/?cid=0x0:0xb6a60943b7610572,
mall,Pusat Perbelanjaan,La Piazza,"Jl. Boulevard Raya Blok . M, RT.13/RW.18, Klp. Gading Tim., Kec. Klp. Gading, Jkt Utara, Daerah Khusus Ibukota Jakarta 14240","RT.13/RW.18, Klp. Gading Tim., Kec. Klp. Gading, Jkt Utara",SULAWESI TENGGARA,14240.0,Indonesia,214531101.0,,,-6.1592374,106.9071621,https://maps.google.com/?cid=0x0:0xa6a4a343bacb1fbe,
mall,Pusat Perbelanjaan,Summarecon Mall Bekasi,"Sentra Summarecon Bekasi, Jl. Boulevard Ahmad Yani, Marga Mulya, Kec. Bekasi Utara, Kota Bks, Jawa Barat 17142","Jl. Boulevard Ahmad Yani, Marga Mulya, Kec. Bekasi Utara, Kota Bks",SULAWESI TENGGARA,17142.0,Indonesia,2129572888.0,,,-6.2261276,107.0010764,https://maps.google.com/?cid=0x0:0xd22a5d56809f070a,
mall,Pusat Perbelanjaan,Gafoy,"Mall Klp. Gading, Jl. Boulevard Raya, RT.13/RW.18, Klp. Gading Tim., Kec. Klp. Gading, Jkt Utara, Daerah Khusus Ibukota Jakarta 14240","Jl. Boulevard Raya, RT.13/RW.18, Klp. Gading Tim., Kec. Klp. Gading, Jkt Utara",SULAWESI TENGGARA,14240.0,Indonesia,,,,-6.1595728,106.9071263,https://maps.google.com/?cid=0x0:0x78e1975168386a62,
mall,mall,Sulawesi Tenggara 93754,"Kabupaten Buton, Sulawesi Tenggara","Kabupaten Buton, Sulawesi Tenggara",SULAWESI TENGGARA,,Indonesia,,,,-5.4060758,122.8761309,https://maps.google.com/?cid=0x0:0x59c5abb5b91bda19,
mall,Tujuan Wisata,Wabula Satu,"9VQ5+G85, Satu, Wabula, Kec. Wabula, Kabupaten Buton, Sulawesi Tenggara","Kabupaten Buton, Sulawesi Tenggara",SULAWESI TENGGARA,,Indonesia,,,,-5.6112391,122.858358,https://maps.google.com/?cid=0x0:0x747f049d478cf9d7,
mall,Pusat Perbelanjaan,Lippo Plaza Baubau,"GJQ9+JR2, Batulo, Kec. Wolio, Kota Bau-Bau, Sulawesi Tenggara 93716","Batulo, Kec. Wolio, Kota Bau-Bau",SULAWESI TENGGARA,93716.0,Indonesia,,,,-5.4609875,122.6195156,https://maps.google.com/?cid=0x0:0xa36840a3dba9c932,
mall,Toko,Waldan All Shop,"86VR+X43, Tinobu, Kec. Lasolo, Kabupaten Konawe Utara, Sulawesi Tenggara 93352","Tinobu, Kec. Lasolo, Kabupaten Konawe Utara",SULAWESI TENGGARA,93352.0,Indonesia,82292567007.0,,,-3.6551132,122.2403032,https://maps.google.com/?cid=0x0:0xd5907a63746b1164,
mall,mall,Kec. Wabula,"Kabupaten Buton, Sulawesi Tenggara","Kabupaten Buton, Sulawesi Tenggara",SULAWESI TENGGARA,,Indonesia,,,,-5.6077445,122.8594298,https://maps.google.com/?cid=0x0:0x7bb47d4b468e4d89,
mall,Pasar tradisional,Pasar Sore Ompu,"FVF5+45C, Jl. Poros Pasarwajo Wabula, Wagola, Kec. Ps. Wajo, Kabupaten Buton, Sulawesi Tenggara 93754","Jl. Poros Pasarwajo Wabula, Wagola, Kec. Ps. Wajo, Kabupaten Buton",SULAWESI TENGGARA,93754.0,Indonesia,,,,-5.5271857,122.8579033,https://maps.google.com/?cid=0x0:0xb954c6ac5a0a31c3,
mall,Komplek perumahan,Pasar Watorumbe,"J9GH+R95, Watorumbe, Kec. Mawasangka Tengah, kabupaten buton tengah, Sulawesi Tenggara","kabupaten buton tengah, Sulawesi Tenggara",SULAWESI TENGGARA,,Indonesia,,,,-5.3729894,122.3785,https://maps.google.com/?cid=0x0:0x865ec41afc911638,
mall,Pusat Perbelanjaan,UMNA WOLIO PLAZA,"GJV3+VQ4, umna wolio plaza, Sulawesi Tenggara 93711",umna wolio plaza,SULAWESI TENGGARA,93711.0,Indonesia,,,,-5.4553515,122.6044539,https://maps.google.com/?cid=0x0:0xf416e74b3da1f66b,
mall,Toko,KJB ãKendari Jual-Beliã,"Perumnas Poasia Blok C No 159, Anduonohu, Rahandouna, Kec. Poasia, Kota Kendari, Sulawesi Tenggara 93232","Anduonohu, Rahandouna, Kec. Poasia, Kota Kendari",SULAWESI TENGGARA,93232.0,Indonesia,86316547777.0,,,-4.0064469,122.5474273,https://maps.google.com/?cid=0x0:0x2c4a0510c22076d6,
mall,Pusat Perbelanjaan,KIOS AUFAR,"543J+3MH, Jl. Poros Belalo/Lasolo-Wawotobi, Analahumbuti, Kec. Wawotobi, Kabupaten Konawe, Sulawesi Tenggara 93461","Jl. Poros Belalo/Lasolo-Wawotobi, Analahumbuti, Kec. Wawotobi, Kabupaten Konawe",SULAWESI TENGGARA,93461.0,Indonesia,,,,-3.8473131,122.1317448,https://maps.google.com/?cid=0x0:0x2f6f803311290908,
supermarket,supermarket,Sulawesi Tenggara 93755,"Kabupaten Buton, Sulawesi Tenggara","Kabupaten Buton, Sulawesi Tenggara",SULAWESI TENGGARA,,Indonesia,,,,-5.2652803,122.831015,https://maps.google.com/?cid=0x0:0x698a3c90045603c1,
supermarket,Toko Swalayan,Kios Nurul Atk,"PPM8+RV6, Jl. Poros Kapontori, Mabulugo, Kec. Kapontori, Kabupaten Buton, Sulawesi Tenggara 93755","Jl. Poros Kapontori, Mabulugo, Kec. Kapontori, Kabupaten Buton",SULAWESI TENGGARA,93755.0,Indonesia,82290715768.0,,,-5.2654616,122.7171268,https://maps.google.com/?cid=0x0:0xc892a43e6d3bdcd8,
supermarket,Toko bahan makanan,TOKO KHAYCHAN,"VQJH+MM, Tumada, Kec. Kapontori, Kabupaten Buton, Sulawesi Tenggara 93755","Tumada, Kec. Kapontori, Kabupaten Buton",SULAWESI TENGGARA,93755.0,Indonesia,85226233011.0,,,-5.1179461,122.7797374,https://maps.google.com/?cid=0x0:0x7e5a91d5b9754f9,
supermarket,Minimarket,Indomaret Kapontori Buton,"QRJ8+CV9, Jl. Poros Kapontori, Watumotobe, Kec. Kapontori, Kabupaten Buton, Sulawesi Tenggara 93755","Jl. Poros Kapontori, Watumotobe, Kec. Kapontori, Kabupaten Buton",SULAWESI TENGGARA,93755.0,Indonesia,,,,-5.2186362,122.8171649,https://maps.google.com/?cid=0x0:0x98c51f411f5f4674,
supermarket,Kios,Kios Mama munik,"PPPF+FQ2, Mabulugo, Kec. Kapontori, Kabupaten Buton, Sulawesi Tenggara 93755","Mabulugo, Kec. Kapontori, Kabupaten Buton",SULAWESI TENGGARA,93755.0,Indonesia,82211523585.0,,,-5.2636119,122.7248981,https://maps.google.com/?cid=0x0:0xd35b32b8350381b9,
supermarket,Kios,Kios Al Amin,"QRJ8+9CF, Jalan Poros, Watumotobe, Kapontori, Buton Regency, South East Sulawesi 93755","Jalan Poros, Watumotobe, Kapontori, Buton Regency",SULAWESI TENGGARA,93755.0,Indonesia,85256625614.0,,,-5.2190503,122.8160585,https://maps.google.com/?cid=0x0:0x382a2c95f21a0b6e,
supermarket,Pasar,PASAR MABULUGO,"PPP7+28H, Mabulugo, Kec. Kapontori, Kabupaten Buton, Sulawesi Tenggara 93755","Mabulugo, Kec. Kapontori, Kabupaten Buton",SULAWESI TENGGARA,93755.0,Indonesia,,,,-5.2649369,122.7133554,https://maps.google.com/?cid=0x0:0x4a694fbc36af1f7d,
supermarket,Toko umum,Toko Watro Maulana,"PPVR+8WX, Boneatiro, Kec. Kapontori, Kabupaten Buton, Sulawesi Tenggara 93755","Boneatiro, Kec. Kapontori, Kabupaten Buton",SULAWESI TENGGARA,93755.0,Indonesia,82137937172.0,,,-5.2566403,122.7423515,https://maps.google.com/?cid=0x0:0xc5d19ba69f5e0df9,
supermarket,Toko bahan makanan,Toko Barokah,"Wakuli, Kec. Kapontori, Kabupaten Buton, Sulawesi Tenggara","Kabupaten Buton, Sulawesi Tenggara",SULAWESI TENGGARA,,Indonesia,85933349365.0,,,-5.1320006,122.8383954,https://maps.google.com/?cid=0x0:0x51a82aa6f8c0462a,
supermarket,Toko bahan makanan,KIOS AL BARIKAH,"Jl. Arwana No.01/75, Wakuli, Kec. Kapontori, Kabupaten Buton, Sulawesi Tenggara 93755","Wakuli, Kec. Kapontori, Kabupaten Buton",SULAWESI TENGGARA,93755.0,Indonesia,,,,-5.1326713,122.8381811,https://maps.google.com/?cid=0x0:0x7261a99ff46eab63,
supermarket,Kios,LAMBUSAMGO,"QQ3M+XH8, Lambusango, Kec. Kapontori, Kabupaten Buton, Sulawesi Tenggara 93755","Lambusango, Kec. Kapontori, Kabupaten Buton",SULAWESI TENGGARA,93755.0,Indonesia,,,,-5.2450951,122.7839612,https://maps.google.com/?cid=0x0:0x5588ec0346655399,
supermarket,Toko bahan makanan,Warung RAJAB,"QQ3M+JRW, Lambusango, Kec. Kapontori, Kabupaten Buton, Sulawesi Tenggara 93755","Lambusango, Kec. Kapontori, Kabupaten Buton",SULAWESI TENGGARA,93755.0,Indonesia,,,,-5.2458934,122.7845684,https://maps.google.com/?cid=0x0:0xad4c26011e9a143f,
supermarket,supermarket,KIOS HANUM S,"PPF5+6GJ, Jl. Anoa, Barangka, Kec. Kapontori, Kabupaten Buton, Sulawesi Tenggara 93755","Jl. Anoa, Barangka, Kec. Kapontori, Kabupaten Buton",SULAWESI TENGGARA,93755.0,Indonesia,,,,-5.2769047,122.7087735,https://maps.google.com/?cid=0x0:0x4141578f2542eb9d,
supermarket,Toko bahan makanan,warung mbak dadong,"QQ3M+FJ6, restubuana, Kec. Kapontori, Kabupaten Buton, Sulawesi Tenggara","Kabupaten Buton, Sulawesi Tenggara",SULAWESI TENGGARA,,Indonesia,,,,-5.2463356,122.7840066,https://maps.google.com/?cid=0x0:0xbf84ddbf3fad6385,
supermarket,supermarket,Lasalimu,"Wasuamba, Kec. Lasalimu, Kabupaten Buton, Sulawesi Tenggara","Kabupaten Buton, Sulawesi Tenggara",SULAWESI TENGGARA,,Indonesia,,,,-5.224197,123.127403,https://maps.google.com/?cid=0x0:0xb739d9e9697eebf9,
supermarket,Toko,Toko Rico Cell,"Q528+57W, Lasalimu, Kec. Lasalimu Sel., Kabupaten Buton, Sulawesi Tenggara 93756","Lasalimu, Kec. Lasalimu Sel., Kabupaten Buton",SULAWESI TENGGARA,93756.0,Indonesia,82262031335.0,,,-5.2495236,123.1656985,https://maps.google.com/?cid=0x0:0x3b9dd1984cf3d674,
supermarket,Pasar,Pasar Desa Wasuamba ( PPS 1 ),"Q4V5+445, Wasuamba, Kec. Lasalimu, Kabupaten Buton, Sulawesi Tenggara 93756","Wasuamba, Kec. Lasalimu, Kabupaten Buton",SULAWESI TENGGARA,93756.0,Indonesia,,,,-5.207233,123.107873,https://maps.google.com/?cid=0x0:0x2e81ae257cc90bfc,
supermarket,Pasar,Pasar Ambuau,"M5J7+M97, Ambuau Indah, Kec. Lasalimu Sel., Kabupaten Buton, Sulawesi Tenggara 93756","Ambuau Indah, Kec. Lasalimu Sel., Kabupaten Buton",SULAWESI TENGGARA,93756.0,Indonesia,,,,-5.3183485,123.1634187,https://maps.google.com/?cid=0x0:0x269866755a09ce92,
supermarket,Toko,Minimarket ANDA Nambo,"QXV8+47W, Nambo, Lasalimu, Suandala, Kec. Lasalimu, Kabupaten Buton, Sulawesi Tenggara 93756","Nambo, Lasalimu, Suandala, Kec. Lasalimu, Kabupaten Buton",SULAWESI TENGGARA,93756.0,Indonesia,,,,-5.2071281,122.9657171,https://maps.google.com/?cid=0x0:0xe8f145c58ce83ef6,
supermarket,Kios,KIOS AKBAR,"Depan SMPN 2 BUTON. Desa Benteng, Wagari, Kec. Lasalimu, Kabupaten Buton, Sulawesi Tenggara 93756","Wagari, Kec. Lasalimu, Kabupaten Buton",SULAWESI TENGGARA,93756.0,Indonesia,82347992269.0,,,-5.2238712,122.9373482,https://maps.google.com/?cid=0x0:0x6a78df40a5067c90,
supermarket,supermarket,Kios Ical Lasalimu,"Q527+369, Lasalimu, Kec. Lasalimu Sel., Kabupaten Buton, Sulawesi Tenggara 93756","Lasalimu, Kec. Lasalimu Sel., Kabupaten Buton",SULAWESI TENGGARA,93756.0,Indonesia,,,,-5.2498429,123.163125,https://maps.google.com/?cid=0x0:0x914f99f7428aa9e7,
supermarket,supermarket,Kec. Lasalimu Sel.,"Kabupaten Buton, Sulawesi Tenggara","Kabupaten Buton, Sulawesi Tenggara",SULAWESI TENGGARA,,Indonesia,,,,-5.2517585,123.1595225,https://maps.google.com/?cid=0x0:0x43dc32910467e706,
supermarket,supermarket,Indomaret Lasalimu Selatan,"M5H6+XXG, Jl. Poros Lasalimu, Ambuau Indah, Kec. Lasalimu Sel., Kabupaten Buton, Sulawesi Tenggara 93756","Jl. Poros Lasalimu, Ambuau Indah, Kec. Lasalimu Sel., Kabupaten Buton",SULAWESI TENGGARA,93756.0,Indonesia,,,,-5.3200739,123.1624546,https://maps.google.com/?cid=0x0:0xb44454614e4306d2,
supermarket,Toko,Toko Rico Cell,"Q528+57W, Lasalimu, Kec. Lasalimu Sel., Kabupaten Buton, Sulawesi Tenggara 93756","Lasalimu, Kec. Lasalimu Sel., Kabupaten Buton",SULAWESI TENGGARA,93756.0,Indonesia,82262031335.0,,,-5.2495236,123.1656985,https://maps.google.com/?cid=0x0:0x3b9dd1984cf3d674,
supermarket,Toko,Warung wawan,"P44M+R7X, Wajah Jaya, Kec. Lasalimu Sel., Kabupaten Buton, Sulawesi Tenggara","Kabupaten Buton, Sulawesi Tenggara",SULAWESI TENGGARA,,Indonesia,85225002419.0,,,-5.2928754,123.133228,https://maps.google.com/?cid=0x0:0xf4ea6a2dedda2860,
supermarket,Toko,KIOS NUFA,"Lasalimu, Kec. Lasalimu Sel., Kabupaten Buton, Sulawesi Tenggara 93756","Kec. Lasalimu Sel., Kabupaten Buton",SULAWESI TENGGARA,93756.0,Indonesia,,,,-5.2473661,123.1591298,https://maps.google.com/?cid=0x0:0xffd145602f9f8a94,
supermarket,Pasar,Pasar Ambuau,"M5J7+M97, Ambuau Indah, Kec. Lasalimu Sel., Kabupaten Buton, Sulawesi Tenggara 93756","Ambuau Indah, Kec. Lasalimu Sel., Kabupaten Buton",SULAWESI TENGGARA,93756.0,Indonesia,,,,-5.3183485,123.1634187,https://maps.google.com/?cid=0x0:0x269866755a09ce92,
supermarket,Toko,UD. MAHESPRABU,"M4QQ+X3C, Unnamed Road, Siomanuru, Kec. Lasalimu Sel., Kabupaten Buton, Sulawesi Tenggara 93756","Unnamed Road, Siomanuru, Kec. Lasalimu Sel., Kabupaten Buton",SULAWESI TENGGARA,93756.0,Indonesia,82313931393.0,,,-5.3100721,123.1376433,https://maps.google.com/?cid=0x0:0x232d2b2343142571,
supermarket,Toko,Toko Rizal,"Jl. Sulawesi Desa No.1, Ambuau Indah, Kec. Lasalimu Sel., Kabupaten Buton, Sulawesi Tenggara 93756","Ambuau Indah, Kec. Lasalimu Sel., Kabupaten Buton",SULAWESI TENGGARA,93756.0,Indonesia,81242902775.0,,,-5.3186066,123.1616119,https://maps.google.com/?cid=0x0:0xb2a5c723256e74ca,
supermarket,Komplek perumahan,Toko buah Darjat efendi,"P45M+J82, Sumber Agung, Kec. Lasalimu Sel., Kabupaten Buton, Sulawesi Tenggara 93756","Sumber Agung, Kec. Lasalimu Sel., Kabupaten Buton",SULAWESI TENGGARA,93756.0,Indonesia,,,,-5.2902067,123.1328244,https://maps.google.com/?cid=0x0:0xa31a0c12c2dd65ae,
supermarket,Toko umum,Kios Maret,"simpangan ke wasuala, Jalan poros lasalimu Jl.Garuda, Kinapani Makmur, pasarwajo, Kabupaten Buton, Sulawesi Tenggara 93757","Jalan poros lasalimu Jl.Garuda, Kinapani Makmur, pasarwajo, Kabupaten Buton",SULAWESI TENGGARA,93757.0,Indonesia,,,,-5.2937959,123.1650266,https://maps.google.com/?cid=0x0:0xc6a322486fc971de,
supermarket,Toko,Beli copra aripin,"M4VM+GWG, Siomanuru, Kec. Lasalimu Sel., Kabupaten Buton, Sulawesi Tenggara 93756","Siomanuru, Kec. Lasalimu Sel., Kabupaten Buton",SULAWESI TENGGARA,93756.0,Indonesia,,,,-5.3055071,123.1348357,https://maps.google.com/?cid=0x0:0x81b44f4150f05b3d,
supermarket,Pasar,Pasar Sore Ambuau Togo,"M5C6+C6X, Ambuau, Togo, Kec. Lasalimu Sel., Kabupaten Buton, Sulawesi Tenggara 93756","Ambuau, Togo, Kec. Lasalimu Sel., Kabupaten Buton",SULAWESI TENGGARA,93756.0,Indonesia,85299433956.0,,,-5.3288782,123.1606036,https://maps.google.com/?cid=0x0:0xcb0a718fc6ce2aeb,
supermarket,Kios,Kios wandi,"P45J+MM, Sumber Agung, Kec. Lasalimu Sel., Kabupaten Buton, Sulawesi Tenggara","Kabupaten Buton, Sulawesi Tenggara",SULAWESI TENGGARA,,Indonesia,,,,-5.2904507,123.1308744,https://maps.google.com/?cid=0x0:0xea79b52493178713,
supermarket,supermarket,warung sembako mba nah,"M445+5G2, Sumber Sari, Kec. Siontapina, Kabupaten Buton, Sulawesi Tenggara 93756","Sumber Sari, Kec. Siontapina, Kabupaten Buton",SULAWESI TENGGARA,93756.0,Indonesia,,,,-5.3435921,123.1090168,https://maps.google.com/?cid=0x0:0xc892781b567ff8a1,
supermarket,Kios,KIOS AKBAR,"Depan SMPN 2 BUTON. Desa Benteng, Wagari, Kec. Lasalimu, Kabupaten Buton, Sulawesi Tenggara 93756","Wagari, Kec. Lasalimu, Kabupaten Buton",SULAWESI TENGGARA,93756.0,Indonesia,82347992269.0,,,-5.2238712,122.9373482,https://maps.google.com/?cid=0x0:0x6a78df40a5067c90,
supermarket,supermarket,Pabrik Tahu Mekar,"P45M+H2X, Sumber Agung, Kec. Lasalimu Sel., Kabupaten Buton, Sulawesi Tenggara 93756","Sumber Agung, Kec. Lasalimu Sel., Kabupaten Buton",SULAWESI TENGGARA,93756.0,Indonesia,,,,-5.2910052,123.1326018,https://maps.google.com/?cid=0x0:0x2c7c56e722f22755,
supermarket,supermarket,Kios Ays,"MXRQ+4GW, Kumbewaha, Kec. Siontapina, Kabupaten Buton, Sulawesi Tenggara","Kabupaten Buton, Sulawesi Tenggara",SULAWESI TENGGARA,,Indonesia,,,,-5.3096355,122.9888319,https://maps.google.com/?cid=0x0:0x83a316611181b0a9,
supermarket,Toko sembako pemerintah,Warung Aqila,"M445+5G2, Sumber Sari, Kec. Siontapina, Kabupaten Buton, Sulawesi Tenggara 93756","Sumber Sari, Kec. Siontapina, Kabupaten Buton",SULAWESI TENGGARA,93756.0,Indonesia,,,,-5.3446138,123.1087613,https://maps.google.com/?cid=0x0:0x520bd2ee5e25fa55,
supermarket,supermarket,Kios Ical Lasalimu,"Q527+369, Lasalimu, Kec. Lasalimu Sel., Kabupaten Buton, Sulawesi Tenggara 93756","Lasalimu, Kec. Lasalimu Sel., Kabupaten Buton",SULAWESI TENGGARA,93756.0,Indonesia,,,,-5.2498429,123.163125,https://maps.google.com/?cid=0x0:0x914f99f7428aa9e7,
supermarket,supermarket,Kec. Ps. Wajo,"Kabupaten Buton, Sulawesi Tenggara","Kabupaten Buton, Sulawesi Tenggara",SULAWESI TENGGARA,,Indonesia,,,,-5.5143888,122.8408508,https://maps.google.com/?cid=0x0:0xd8cb6cdd80295dce,
supermarket,Toko bahan makanan,Kios Amey,"FRXR+GWX, Ps. Wajo, Kec. Ps. Wajo, Kabupaten Buton, Sulawesi Tenggara 93754","Ps. Wajo, Kec. Ps. Wajo, Kabupaten Buton",SULAWESI TENGGARA,93754.0,Indonesia,,,,-5.5011332,122.8423674,https://maps.google.com/?cid=0x0:0x60d6c97c11779a68,
supermarket,Toko Swalayan,Kios Nerli,"Takimpo, Kec. Ps. Wajo, Kabupaten Buton, Sulawesi Tenggara 93754","Kec. Ps. Wajo, Kabupaten Buton",SULAWESI TENGGARA,93754.0,Indonesia,85242617661.0,,,-5.5301389,122.8542511,https://maps.google.com/?cid=0x0:0xaf38237ff0004e74,
supermarket,Toko Kesehatan dan Kecantikan,HALLAL MART HPAI,"GR4W+G25, Kambula Mbulana, Kec. Ps. Wajo, Kabupaten Buton, Sulawesi Tenggara 93754","Kambula Mbulana, Kec. Ps. Wajo, Kabupaten Buton",SULAWESI TENGGARA,93754.0,Indonesia,85282286672.0,,,-5.4937465,122.8451024,https://maps.google.com/?cid=0x0:0x894655403dff78d,
supermarket,Toko bahan makanan,toko asrifa dan hadija,"jalan bantea, Ps. Wajo, 93754, Dongkala, Kec. Ps. Wajo, Kabupaten Buton, Sulawesi Tenggara 93754","Ps. Wajo,",SULAWESI TENGGARA,93754.0,Indonesia,,,,-5.5098701,122.872513,https://maps.google.com/?cid=0x0:0xa90a703f3a231b86,
supermarket,Pusat Perbelanjaan,UD. Limbo Jaya,"FR9W+97Q, Jl. Poros Kel. Kombeli, Kec., Lapodi, Kec. Ps. Wajo, Kabupaten Buton, Sulawesi Tenggara 93754","Jl. Poros Kel. Kombeli, Kec., Lapodi, Kec. Ps. Wajo, Kabupaten Buton",SULAWESI TENGGARA,93754.0,Indonesia,82250172903.0,,,-5.531525,122.8457268,https://maps.google.com/?cid=0x0:0xe5927a4d05604011,
supermarket,Toko,Kios Mama Basri,"Takimpo, Kec. Ps. Wajo, Kabupaten Buton, Sulawesi Tenggara","Kabupaten Buton, Sulawesi Tenggara",SULAWESI TENGGARA,,Indonesia,85340601070.0,,,-5.5292017,122.8466565,https://maps.google.com/?cid=0x0:0x9a2fec94c8eab09d,
supermarket,Toko bahan makanan,AsStore Pasarwajo,"GR7G+Q4H Lorong Hallas, Jalan Yossudarso, RT.Lingkungan Bente/RW.02, Kambula Mbulana, Kec. Ps. Wajo, Kabupaten Buton, Sulawesi Tenggara","Kabupaten Buton, Sulawesi Tenggara",SULAWESI TENGGARA,,Indonesia,,,,-5.485575,122.8253741,https://maps.google.com/?cid=0x0:0xedc59b382169e6bb,
supermarket,supermarket,Kios wahid,"FR9X+M5V, Takimpo, Kec. Ps. Wajo, Kabupaten Buton, Sulawesi Tenggara 93754","Takimpo, Kec. Ps. Wajo, Kabupaten Buton",SULAWESI TENGGARA,93754.0,Indonesia,,,,-5.5307698,122.8479125,https://maps.google.com/?cid=0x0:0x4ad1d1313b689d15,
supermarket,Masjid,Toko Buku Pasar Wajo,"Jalan Poros Pasar Wajo RT 4 RW 4 Kal. Saragi Kec. Pasar Wajo, Kab.Buton, Sulteng, Saragi, Kec. Ps. Wajo, Kabupaten Buton, Sulawesi Tenggara 93752","Kab.Buton, Sulteng, Saragi, Kec. Ps. Wajo, Kabupaten Buton",SULAWESI TENGGARA,93752.0,Indonesia,85242449013.0,,,-5.4776162,122.8451159,https://maps.google.com/?cid=0x0:0x31f0fe2fca20067d,
supermarket,Toko,Kios NANA CELL,"MXRQ+4GW, Kumbewaha, Kec. Siontapina, Kabupaten Buton, Sulawesi Tenggara","Kabupaten Buton, Sulawesi Tenggara",SULAWESI TENGGARA,,Indonesia,81355478725.0,,,-5.3096355,122.9888319,https://maps.google.com/?cid=0x0:0xec9ef83ff66b16a2,
supermarket,Pusat Perbelanjaan,Kios Nana,"QWHP+429, Wagari, Kec. Lasalimu, Kabupaten Buton, Sulawesi Tenggara 93756","Wagari, Kec. Lasalimu, Kabupaten Buton",SULAWESI TENGGARA,93756.0,Indonesia,,,,-5.2221627,122.9349913,https://maps.google.com/?cid=0x0:0x36f642efa00bf14b,
supermarket,supermarket,Siontapina,"Kec. Lasalimu Sel., Kabupaten Buton, Sulawesi Tenggara","Kabupaten Buton, Sulawesi Tenggara",SULAWESI TENGGARA,,Indonesia,,,,-5.3242312,123.1182806,https://maps.google.com/?cid=0x0:0x7d394a4da9627623,
supermarket,Toko sembako pemerintah,Warung Aqila,"M445+5G2, Sumber Sari, Kec. Siontapina, Kabupaten Buton, Sulawesi Tenggara 93756","Sumber Sari, Kec. Siontapina, Kabupaten Buton",SULAWESI TENGGARA,93756.0,Indonesia,,,,-5.3446138,123.1087613,https://maps.google.com/?cid=0x0:0x520bd2ee5e25fa55,
supermarket,Toko umum,Kios Intan,"M399+73R, Sumber Sari, Kec. Siontapina, Kabupaten Buton, Sulawesi Tenggara 93756","Sumber Sari, Kec. Siontapina, Kabupaten Buton",SULAWESI TENGGARA,93756.0,Indonesia,,,,-5.331755,123.0676469,https://maps.google.com/?cid=0x0:0x2b9e67d29993811a,
supermarket,supermarket,Kec. Wolowa,"Kabupaten Buton, Sulawesi Tenggara","Kabupaten Buton, Sulawesi Tenggara",SULAWESI TENGGARA,,Indonesia,,,,-5.4247226,122.9313886,https://maps.google.com/?cid=0x0:0xa030da8146f922b1,
supermarket,Komplek perumahan,Dusun lakisi desa matawia,"HXV4+4Q7, Jl poros bau bau, Matawia, Kec. Lasalimu, Kabupaten Buton, Sulawesi Tenggara 93756","Jl poros bau bau, Matawia, Kec. Lasalimu, Kabupaten Buton",SULAWESI TENGGARA,93756.0,Indonesia,81341104268.0,,,-5.4072089,122.9569363,https://maps.google.com/?cid=0x0:0xe946631f817536de,
supermarket,Toko Swalayan,Super Indo Daan Mogot,"Jl. Daan Mogot No.61, Tj. Duren Utara, Kecamatan Cengkareng, Kota Jakarta Barat, Daerah Khusus Ibukota Jakarta 11520","Tj. Duren Utara, Kecamatan Cengkareng, Kota Jakarta Barat",SULAWESI TENGGARA,11520.0,Indonesia,215660436.0,,,-6.165783,106.781983,https://maps.google.com/?cid=0x0:0x99d904a8251a68ad,
supermarket,Pasar,Pasar Desa Wasuamba ( PPS 1 ),"Q4V5+445, Wasuamba, Kec. Lasalimu, Kabupaten Buton, Sulawesi Tenggara 93756","Wasuamba, Kec. Lasalimu, Kabupaten Buton",SULAWESI TENGGARA,93756.0,Indonesia,,,,-5.207233,123.107873,https://maps.google.com/?cid=0x0:0x2e81ae257cc90bfc,
supermarket,Bank,ATM BCA,"No. 61, Superindo, Jl. Daan Mogot 1, RT.5/RW.1, Tj. Duren Utara, Kec. Grogol petamburan, Kota Jakarta Barat, Daerah Khusus Ibukota Jakarta 11470","Superindo, Jl. Daan Mogot 1, RT.5/RW.1, Tj. Duren Utara, Kec. Grogol petamburan, Kota Jakarta Barat",SULAWESI TENGGARA,11470.0,Indonesia,,,,-6.1656856,106.7819752,https://maps.google.com/?cid=0x0:0x9ace751f253ad72d,
supermarket,Toko Swalayan,Super Indo Plaza Slipi Jaya,"Plaza Slipi Jaya, m Jl. Letjen S. Parman No.46 Lt. Basement, RT.14/RW.1, Kemanggisan, Kec. Palmerah, Kota Jakarta Barat, Daerah Khusus Ibukota Jakarta 11480","m Jl. Letjen S. Parman No.46 Lt. Basement, RT.14/RW.1, Kemanggisan, Kec. Palmerah, Kota Jakarta Barat",SULAWESI TENGGARA,11480.0,Indonesia,,,,-6.1892704,106.7965048,https://maps.google.com/?cid=0x0:0x8971fcf53b969c32,
supermarket,supermarket,Sulawesi Tenggara 93754,"Kabupaten Buton, Sulawesi Tenggara","Kabupaten Buton, Sulawesi Tenggara",SULAWESI TENGGARA,,Indonesia,,,,-5.4060758,122.8761309,https://maps.google.com/?cid=0x0:0x59c5abb5b91bda19,
supermarket,Minimarket,Wau Mart,"Jl. Protokol, Dusun Labala, Wasampela, Kec. Wabula, Kabupaten Buton, Sulawesi Tenggara 93754","Dusun Labala, Wasampela, Kec. Wabula, Kabupaten Buton",SULAWESI TENGGARA,93754.0,Indonesia,85242008251.0,,,-5.5826832,122.8768512,https://maps.google.com/?cid=0x0:0xae4c059113a0146f,
supermarket,Tujuan Wisata,Wabula Satu,"9VQ5+G85, Satu, Wabula, Kec. Wabula, Kabupaten Buton, Sulawesi Tenggara","Kabupaten Buton, Sulawesi Tenggara",SULAWESI TENGGARA,,Indonesia,,,,-5.6112391,122.858358,https://maps.google.com/?cid=0x0:0x747f049d478cf9d7,
supermarket,supermarket,Sulawesi,,,SULAWESI TENGGARA,,Indonesia,,,,-1.8479,120.5279,https://maps.google.com/?cid=0x0:0xbc9a51d168f47742,
supermarket,Toko Swalayan,Swalayan Bosowa Utama,"P222+W7V, Beringin, Kec. Ngapa, Kabupaten Kolaka Utara, Sulawesi Tenggara 93958","Beringin, Kec. Ngapa, Kabupaten Kolaka Utara",SULAWESI TENGGARA,93958.0,Indonesia,811402294.0,,,-3.2976279,121.000658,https://maps.google.com/?cid=0x0:0x9252ca1d1f619702,
supermarket,Toko umum,Konter Ilal,"Wabula, Kec. Wabula, Kabupaten Buton, Sulawesi Tenggara 93754","Kec. Wabula, Kabupaten Buton",SULAWESI TENGGARA,93754.0,Indonesia,85342196470.0,,,-5.611635,122.8578989,https://maps.google.com/?cid=0x0:0xb9cf615efdedb82e,
supermarket,Minimarket,ALFAMIDI WAWOTOBI,"44F8+72X, Jl. Poros Kendari - Pohara, Wawotobi, Kec. Wawotobi, Kabupaten Konawe, Sulawesi Tenggara 93461","Jl. Poros Kendari - Pohara, Wawotobi, Kec. Wawotobi, Kabupaten Konawe",SULAWESI TENGGARA,93461.0,Indonesia,,,,-3.8767587,122.1151058,https://maps.google.com/?cid=0x0:0xc64b70a61fa17205,
supermarket,Toko Kesehatan dan Kecantikan,HALLAL MART HPAI,"GR4W+G25, Kambula Mbulana, Kec. Ps. Wajo, Kabupaten Buton, Sulawesi Tenggara 93754","Kambula Mbulana, Kec. Ps. Wajo, Kabupaten Buton",SULAWESI TENGGARA,93754.0,Indonesia,85282286672.0,,,-5.4937465,122.8451024,https://maps.google.com/?cid=0x0:0x894655403dff78d,
supermarket,Pusat Perbelanjaan,Andaba Star Mart,"PHQ5+WG, Walando, Kec. Gu, Kabupaten Buton, Sulawesi Tenggara 93761","Walando, Kec. Gu, Kabupaten Buton",SULAWESI TENGGARA,93761.0,Indonesia,,,,-5.2601541,122.559203,https://maps.google.com/?cid=0x0:0x93f55e311fb6d9e9,
supermarket,Toko bahan makanan,kios wasuha,"XHRH+898, Jl. Pgri, Benuanirae, Kec. Abeli, Kota Kendari, Sulawesi Tenggara 93883","Jl. Pgri, Benuanirae, Kec. Abeli, Kota Kendari",SULAWESI TENGGARA,93883.0,Indonesia,,,,-4.0092048,122.5784636,https://maps.google.com/?cid=0x0:0xda074faec6e3263f,
supermarket,Kios,Rusus nelayan holimombo buton,"CVPQ+JH2, Holimombo, Kec. Wabula, Kabupaten Buton, Sulawesi Tenggara 93754","Holimombo, Kec. Wabula, Kabupaten Buton",SULAWESI TENGGARA,93754.0,Indonesia,,,,-5.563493,122.8888842,https://maps.google.com/?cid=0x0:0x299093344bedbe0c,
supermarket,Toko,Swalayan surya mart,"XFWX+8JH, Bonggoeya, Kec. Wua-Wua, Kota Kendari, Sulawesi Tenggara 93117","Bonggoeya, Kec. Wua-Wua, Kota Kendari",SULAWESI TENGGARA,93117.0,Indonesia,,,,-4.0041977,122.499102,https://maps.google.com/?cid=0x0:0x8155bb99db7f370a,
supermarket,supermarket,Kec. Wabula,"Kabupaten Buton, Sulawesi Tenggara","Kabupaten Buton, Sulawesi Tenggara",SULAWESI TENGGARA,,Indonesia,,,,-5.6077445,122.8594298,https://maps.google.com/?cid=0x0:0x7bb47d4b468e4d89,
supermarket,Pusat Perbelanjaan,UD. Limbo Jaya,"FR9W+97Q, Jl. Poros Kel. Kombeli, Kec., Lapodi, Kec. Ps. Wajo, Kabupaten Buton, Sulawesi Tenggara 93754","Jl. Poros Kel. Kombeli, Kec., Lapodi, Kec. Ps. Wajo, Kabupaten Buton",SULAWESI TENGGARA,93754.0,Indonesia,82250172903.0,,,-5.531525,122.8457268,https://maps.google.com/?cid=0x0:0xe5927a4d05604011,
supermarket,Toko Swalayan,Kios Nerli,"Takimpo, Kec. Ps. Wajo, Kabupaten Buton, Sulawesi Tenggara 93754","Kec. Ps. Wajo, Kabupaten Buton",SULAWESI TENGGARA,93754.0,Indonesia,85242617661.0,,,-5.5301389,122.8542511,https://maps.google.com/?cid=0x0:0xaf38237ff0004e74,
supermarket,supermarket,PASAR WABULA,"9VJ2+V78, SELATAN, Kec. Wabula, Kabupaten Buton, Sulawesi Tenggara","Kabupaten Buton, Sulawesi Tenggara",SULAWESI TENGGARA,,Indonesia,,,,-5.6178343,122.8506981,https://maps.google.com/?cid=0x0:0x8381a2dbe0b13a06,
