Category,Real Category,Business Name,Address,City,State,Postal Code,Country,Phone,Email,Website,Latitude,Longitude,Map Link,Details Link
komplek housing,komplek housing,Sulawesi Tenggara 93755,"Kabupaten Buton, Sulawesi Tenggara","Kabupaten Buton, Sulawesi Tenggara",SULAWESI TENGGARA,,Indonesia,,,,-5.2652803,122.831015,https://maps.google.com/?cid=0x0:0x698a3c90045603c1,
komplek housing,Komplek perumahan,lakasopi,"PPQM+WPW, Wakalambe, Kec. Kapontori, Kabupaten Buton, Sulawesi Tenggara","Kabupaten Buton, Sulawesi Tenggara",SULAWESI TENGGARA,,Indonesia,,,,-5.2601435,122.7343244,https://maps.google.com/?cid=0x0:0xdb03698124777771,
komplek housing,Komplek perumahan,Rumah adit,"QQ4M+7MG, Lambusango, Kec. Kapontori, Kabupaten Buton, Sulawesi Tenggara 93755","Lambusango, Kec. Kapontori, Kabupaten Buton",SULAWESI TENGGARA,93755.0,Indonesia,,,,-5.2441002,122.7850066,https://maps.google.com/?cid=0x0:0xcc85d36de6b3e98a,
komplek housing,Komplek perumahan,Di rumah,"PPH5+39M, Lorong Pendidikan, Barangka, Kec. Kapontori, Kabupaten Buton, Sulawesi Tenggara 93755","Lorong Pendidikan, Barangka, Kec. Kapontori, Kabupaten Buton",SULAWESI TENGGARA,93755.0,Indonesia,,,,-5.2722441,122.7084107,https://maps.google.com/?cid=0x0:0xeaca953e9fae8403,
komplek housing,Komplek perumahan,POSKO KKN- T DESA TUMADA,"VQJG+6F5, Tumada, Kec. Kapontori, Kabupaten Buton, Sulawesi Tenggara 93755","Tumada, Kec. Kapontori, Kabupaten Buton",SULAWESI TENGGARA,93755.0,Indonesia,,,,-5.1198469,122.7765016,https://maps.google.com/?cid=0x0:0x2ce08e46c143c499,
komplek housing,Komplek perumahan,Desa tumada,"VQJJ+X9, Jl. Bataraguru, Tumada, Kec. Kapontori, Kabupaten Buton, Sulawesi Tenggara 93755","Jl. Bataraguru, Tumada, Kec. Kapontori, Kabupaten Buton",SULAWESI TENGGARA,93755.0,Indonesia,,,,-5.1172703,122.7814636,https://maps.google.com/?cid=0x0:0xefd7fc68a603b36c,
komplek housing,Pembangunan Perumahan,Desa saya,"PPP7+473, Mabulugo, Kec. Kapontori, Kabupaten Buton, Sulawesi Tenggara 93755","Mabulugo, Kec. Kapontori, Kabupaten Buton",SULAWESI TENGGARA,93755.0,Indonesia,,,,-5.2646628,122.7132451,https://maps.google.com/?cid=0x0:0xc2fe35e71646b73d,
komplek housing,Komplek perumahan,Rumah Febri/Farhan,"QQ3M+4MX, Jl. Minagasi, Lambusango, Kec. Kapontori, Kabupaten Buton, Sulawesi Tenggara 93755","Jl. Minagasi, Lambusango, Kec. Kapontori, Kabupaten Buton",SULAWESI TENGGARA,93755.0,Indonesia,,,,-5.2470657,122.7844638,https://maps.google.com/?cid=0x0:0xde0f68978bd6b8d6,
komplek housing,Komplek perumahan,Rumah fizar,"Balai desa kapontori, Lambusango, Kec. Kapontori, Kabupaten Buton, Sulawesi Tenggara","Kabupaten Buton, Sulawesi Tenggara",SULAWESI TENGGARA,,Indonesia,,,,-5.2463356,122.7840066,https://maps.google.com/?cid=0x0:0xb1453334d0e4ca0d,
komplek housing,Komplek perumahan,DAYYAN Family Home,"PQFW+GV3, Lambusango, Kec. Kapontori, Kabupaten Buton, Sulawesi Tenggara 93755","Lambusango, Kec. Kapontori, Kabupaten Buton",SULAWESI TENGGARA,93755.0,Indonesia,,,,-5.2762368,122.7971649,https://maps.google.com/?cid=0x0:0x8f76c91985641ffe,
komplek housing,Komplek perumahan,POSKO KKN-T X WAKALAMBE,"PPRP+9H, Boneatiro, Kec. Kapontori, Kabupaten Buton, Sulawesi Tenggara","Kabupaten Buton, Sulawesi Tenggara",SULAWESI TENGGARA,,Indonesia,,,,-5.2595288,122.7363407,https://maps.google.com/?cid=0x0:0x602735b2693a0094,
komplek housing,Komplek perumahan,Rumah Hafizah,"QRVJ+HQV, Jl. Labaria, Wakangka, Kec. Kapontori, Kabupaten Buton, Sulawesi Tenggara 93755","Jl. Labaria, Wakangka, Kec. Kapontori, Kabupaten Buton",SULAWESI TENGGARA,93755.0,Indonesia,,,,-5.2072192,122.8317711,https://maps.google.com/?cid=0x0:0xab910f629c99194d,
komplek housing,Komplek perumahan,Kasman,"PPH5+MW5 dusun ngkaiu niu, Barangka, Kec. Kapontori, Kabupaten Buton, Sulawesi Tenggara","Kabupaten Buton, Sulawesi Tenggara",SULAWESI TENGGARA,,Indonesia,,,,-5.2708593,122.7098656,https://maps.google.com/?cid=0x0:0xb4cd8352dedb0c7f,
komplek housing,Komplek perumahan,Posko KKN.T angkatan X,"PPRP+9H, Boneatiro, Kec. Kapontori, Kabupaten Buton, Sulawesi Tenggara","Kabupaten Buton, Sulawesi Tenggara",SULAWESI TENGGARA,,Indonesia,,,,-5.2590743,122.7364543,https://maps.google.com/?cid=0x0:0xe64329926034e47,
komplek housing,komplek housing,Rumah Andri Pendos,"pasarwajo desa lapodi, Jl. Poros Kapontori, Boneatiro, Kec. Kapontori, Kabupaten Buton, Sulawesi Tenggara 93755","Jl. Poros Kapontori, Boneatiro, Kec. Kapontori, Kabupaten Buton",SULAWESI TENGGARA,93755.0,Indonesia,,,,-5.2649096,122.7232429,https://maps.google.com/?cid=0x0:0xa3f71a13f0339042,
komplek housing,Taman,Watambo,"QRG5+F8H, Watumotobe, Kec. Kapontori, Kabupaten Buton, Sulawesi Tenggara 93755","Watumotobe, Kec. Kapontori, Kabupaten Buton",SULAWESI TENGGARA,93755.0,Indonesia,,,,-5.2238125,122.8083594,https://maps.google.com/?cid=0x0:0x49a4baeb684915d6,
komplek housing,Gedung Apartemen,Embara,"VR9C+48, Wakuli, Kec. Kapontori, Kabupaten Buton, Sulawesi Tenggara","Kabupaten Buton, Sulawesi Tenggara",SULAWESI TENGGARA,,Indonesia,,,,-5.1321875,122.8208125,https://maps.google.com/?cid=0x0:0x2cbb4147b7af8fee,
komplek housing,Komplek perumahan,rumah fandi,"PR7X+85F, Lambusango Tim., Kec. Kapontori, Kabupaten Buton, Sulawesi Tenggara 93755","Lambusango Tim., Kec. Kapontori, Kabupaten Buton",SULAWESI TENGGARA,93755.0,Indonesia,,,,-5.286677,122.8479358,https://maps.google.com/?cid=0x0:0xd111851f12e89640,
komplek housing,Kantor Pemerintah,Rumah Kades Boneatiro Barat,"QP4R+GV3, Boneatiro, Kec. Kapontori, Kabupaten Buton, Sulawesi Tenggara","Kabupaten Buton, Sulawesi Tenggara",SULAWESI TENGGARA,,Indonesia,,,,-5.243749,122.7421861,https://maps.google.com/?cid=0x0:0xc1c8a6d7080e0c46,
komplek housing,Komplek perumahan,Rumah arda,"QQ4M+7F9, Lambusango, Kec. Kapontori, Kabupaten Buton, Sulawesi Tenggara","Kabupaten Buton, Sulawesi Tenggara",SULAWESI TENGGARA,,Indonesia,,,,-5.2443375,122.7837344,https://maps.google.com/?cid=0x0:0xf5a033b0ff738eca,
komplek housing,Komplek perumahan,Rumah Adan,"QQ4M+7MG, Lambusango, Kec. Kapontori, Kabupaten Buton, Sulawesi Tenggara 93755","Lambusango, Kec. Kapontori, Kabupaten Buton",SULAWESI TENGGARA,93755.0,Indonesia,,,,-5.2443232,122.7841955,https://maps.google.com/?cid=0x0:0xa8f4aed0257cd555,
komplek housing,komplek housing,Kec. Kapontori,"Kabupaten Buton, Sulawesi Tenggara","Kabupaten Buton, Sulawesi Tenggara",SULAWESI TENGGARA,,Indonesia,,,,-5.2463978,122.7840104,https://maps.google.com/?cid=0x0:0x4030bfbcaf78300,
komplek housing,Komplek perumahan,Ryan,"QRJ7+HH3, Watumotobe, Kec. Kapontori, Kabupaten Buton, Sulawesi Tenggara 93755","Watumotobe, Kec. Kapontori, Kabupaten Buton",SULAWESI TENGGARA,93755.0,Indonesia,,,,-5.2186108,122.8139282,https://maps.google.com/?cid=0x0:0x8ec6ab235cd82a79,
komplek housing,Komplek perumahan,Paman batuani,"QQ4M+458, Lambusango, Kec. Kapontori, Kabupaten Buton, Sulawesi Tenggara 93755","Lambusango, Kec. Kapontori, Kabupaten Buton",SULAWESI TENGGARA,93755.0,Indonesia,,,,-5.2447125,122.7829531,https://maps.google.com/?cid=0x0:0x98f2fe029f230831,
komplek housing,Komplek perumahan,BUKIT ASRI SEJAHTERA,"Bukit asri sejahtera blok c no 4, Bukit Asri, Kec. Kapontori, Kabupaten Buton, Sulawesi Tenggara 93755","Bukit Asri, Kec. Kapontori, Kabupaten Buton",SULAWESI TENGGARA,93755.0,Indonesia,,,,-5.1250168,122.8592148,https://maps.google.com/?cid=0x0:0x20394c49af7e0ff3,
komplek housing,Perkebunan Pohon,bapak rasty,"VVF5+XMW, Bukit Asri, Kec. Kapontori, Kabupaten Buton, Sulawesi Tenggara 93755","Bukit Asri, Kec. Kapontori, Kabupaten Buton",SULAWESI TENGGARA,93755.0,Indonesia,,,,-5.1250168,122.8592148,https://maps.google.com/?cid=0x0:0xcaf179b2d8ac942f,
komplek housing,komplek housing,Lasalimu,"Wasuamba, Kec. Lasalimu, Kabupaten Buton, Sulawesi Tenggara","Kabupaten Buton, Sulawesi Tenggara",SULAWESI TENGGARA,,Indonesia,,,,-5.224197,123.127403,https://maps.google.com/?cid=0x0:0xb739d9e9697eebf9,
komplek housing,Perumahan,Asria,"Q4GG+8XC, Lasalimu - Kamaru, Wasuamba, Kec. Lasalimu, Kabupaten Buton, Sulawesi Tenggara 93756","Lasalimu - Kamaru, Wasuamba, Kec. Lasalimu, Kabupaten Buton",SULAWESI TENGGARA,93756.0,Indonesia,,,,-5.224197,123.127403,https://maps.google.com/?cid=0x0:0x285f630fa123e151,
komplek housing,Komplek perumahan,Rt 5 Desa Lasalimu,"Q43M+5JF, Jl. Wapeu, Lasalimu, Kec. Lasalimu Sel., Kabupaten Buton, Sulawesi Tenggara 93757","Jl. Wapeu, Lasalimu, Kec. Lasalimu Sel., Kabupaten Buton",SULAWESI TENGGARA,93757.0,Indonesia,,,,-5.2477013,123.134375,https://maps.google.com/?cid=0x0:0xf64bb1adbd077a92,
komplek housing,Kantor Perusahaan,DESA LASALIMU,"Q526+3XH, Lasalimu, Kec. Lasalimu Sel., Kabupaten Buton, Sulawesi Tenggara 93756","Lasalimu, Kec. Lasalimu Sel., Kabupaten Buton",SULAWESI TENGGARA,93756.0,Indonesia,,,,-5.2498203,123.1624749,https://maps.google.com/?cid=0x0:0xcfea27c77fee14f3,
komplek housing,Komplek perumahan,Lasalimu desa wasuamba,"Q4H7+736, Wasuamba, Kec. Lasalimu, Kabupaten Buton, Sulawesi Tenggara","Kabupaten Buton, Sulawesi Tenggara",SULAWESI TENGGARA,,Indonesia,,,,-5.2218301,123.1126559,https://maps.google.com/?cid=0x0:0x11b83c54789ee0b8,
komplek housing,komplek housing,Kec. Lasalimu Sel.,"Kabupaten Buton, Sulawesi Tenggara","Kabupaten Buton, Sulawesi Tenggara",SULAWESI TENGGARA,,Indonesia,,,,-5.2517585,123.1595225,https://maps.google.com/?cid=0x0:0x43dc32910467e706,
komplek housing,Kantor Perusahaan,DESA LASALIMU,"Q526+3XH, Lasalimu, Kec. Lasalimu Sel., Kabupaten Buton, Sulawesi Tenggara 93756","Lasalimu, Kec. Lasalimu Sel., Kabupaten Buton",SULAWESI TENGGARA,93756.0,Indonesia,,,,-5.2498203,123.1624749,https://maps.google.com/?cid=0x0:0xcfea27c77fee14f3,
komplek housing,Komplek perumahan,Rt 5 Desa Lasalimu,"Q43M+5JF, Jl. Wapeu, Lasalimu, Kec. Lasalimu Sel., Kabupaten Buton, Sulawesi Tenggara 93757","Jl. Wapeu, Lasalimu, Kec. Lasalimu Sel., Kabupaten Buton",SULAWESI TENGGARA,93757.0,Indonesia,,,,-5.2477013,123.134375,https://maps.google.com/?cid=0x0:0xf64bb1adbd077a92,
komplek housing,komplek housing,Rumah Lendi,"Q527+9CG, Lasalimu, Kec. Lasalimu Sel., Kabupaten Buton, Sulawesi Tenggara 93756","Lasalimu, Kec. Lasalimu Sel., Kabupaten Buton",SULAWESI TENGGARA,93756.0,Indonesia,,,,-5.2490504,123.1635843,https://maps.google.com/?cid=0x0:0x802aa6a484ccb22b,
komplek housing,Pembangunan Perumahan,Lorong perintis,"P5R3+FV2, Matanauwe - Lasalimu, Lasalimu, Kec. Lasalimu Sel., Kabupaten Buton, Sulawesi Tenggara 93756","Matanauwe - Lasalimu, Lasalimu, Kec. Lasalimu Sel., Kabupaten Buton",SULAWESI TENGGARA,93756.0,Indonesia,,,,-5.2588539,123.1546381,https://maps.google.com/?cid=0x0:0xefde3278cf095361,
komplek housing,Perhimpunan Pengembang Perumahan,Villa Putih Bahagia,"M5J7+H4C, Ambuau Indah, Kec. Lasalimu Sel., Kabupaten Buton, Sulawesi Tenggara 93756","Ambuau Indah, Kec. Lasalimu Sel., Kabupaten Buton",SULAWESI TENGGARA,93756.0,Indonesia,,,,-5.3185584,123.1627505,https://maps.google.com/?cid=0x0:0x11852f5f536e861f,
komplek housing,Gedung Apartemen,ANNA CELL,"P45P+PMW, Wajah Jaya, Kec. Lasalimu Sel., Kabupaten Buton, Sulawesi Tenggara 93756","Wajah Jaya, Kec. Lasalimu Sel., Kabupaten Buton",SULAWESI TENGGARA,93756.0,Indonesia,,,,-5.2911461,123.1377449,https://maps.google.com/?cid=0x0:0xb1a390605809a417,
komplek housing,Komplek perumahan,Aiko Home,"M4VP+H6P, Siomanuru, Kec. Lasalimu Sel., Kabupaten Buton, Sulawesi Tenggara 93756","Siomanuru, Kec. Lasalimu Sel., Kabupaten Buton",SULAWESI TENGGARA,93756.0,Indonesia,,,,-5.3060335,123.1355871,https://maps.google.com/?cid=0x0:0xb4cd8fc1134b9ccc,
komplek housing,Komplek perumahan,Rumah ino,"P5X5+HMW, Jl. dermaga Lasalimu, Lasalimu, Kec. Lasalimu Sel., Kabupaten Buton, Sulawesi Tenggara 93756","Jl. dermaga Lasalimu, Lasalimu, Kec. Lasalimu Sel., Kabupaten Buton",SULAWESI TENGGARA,93756.0,Indonesia,,,,-5.2510597,123.1593283,https://maps.google.com/?cid=0x0:0xb3a19504d253ac99,
komplek housing,Komplek perumahan,rumah desi,"P5QQ+6MW, Umalaoge, Kec. Lasalimu Sel., Kabupaten Buton, Sulawesi Tenggara 93756","Umalaoge, Kec. Lasalimu Sel., Kabupaten Buton",SULAWESI TENGGARA,93756.0,Indonesia,,,,-5.2622863,123.1905898,https://maps.google.com/?cid=0x0:0x8006a1d42ee1c9e,
komplek housing,Perhimpunan Pengembang Perumahan,Eko lucky home,"M5H7+935, Ambuau Indah, Kec. Lasalimu Sel., Kabupaten Buton, Sulawesi Tenggara 93756","Ambuau Indah, Kec. Lasalimu Sel., Kabupaten Buton",SULAWESI TENGGARA,93756.0,Indonesia,,,,-5.3216612,123.1627214,https://maps.google.com/?cid=0x0:0x574f358743d903c,
komplek housing,Komplek perumahan,Rumah Fildin,"Siontapina, Kec. Lasalimu Sel., Kabupaten Buton, Sulawesi Tenggara 93756","Kec. Lasalimu Sel., Kabupaten Buton",SULAWESI TENGGARA,93756.0,Indonesia,82118710494.0,,,-5.3224109,123.1051758,https://maps.google.com/?cid=0x0:0x91d291f7154c4ae6,
komplek housing,Komplek perumahan,Rumah Babinsa Serma La Dikini,"M5G7+G52, Jl. Poros Lasalimu, Ambuau Indah, Kec. Lasalimu Sel., Kabupaten Buton, Sulawesi Tenggara 93756","Jl. Poros Lasalimu, Ambuau Indah, Kec. Lasalimu Sel., Kabupaten Buton",SULAWESI TENGGARA,93756.0,Indonesia,,,,-5.3238209,123.1631089,https://maps.google.com/?cid=0x0:0x49c81e79820054cf,
komplek housing,Komplek perumahan,Rumah sheptian,"P5C2+XRR, Wajah Jaya, Kec. Lasalimu Sel., Kabupaten Buton, Sulawesi Tenggara 93756","Wajah Jaya, Kec. Lasalimu Sel., Kabupaten Buton",SULAWESI TENGGARA,93756.0,Indonesia,,,,-5.2775202,123.1520219,https://maps.google.com/?cid=0x0:0xd0e5c1fa272609c7,
komplek housing,Komplek perumahan,RUMAH IZA,"P5QQ+6MW, Umalaoge, Kec. Lasalimu Sel., Kabupaten Buton, Sulawesi Tenggara 93756","Umalaoge, Kec. Lasalimu Sel., Kabupaten Buton",SULAWESI TENGGARA,93756.0,Indonesia,,,,-5.2622686,123.1906156,https://maps.google.com/?cid=0x0:0x66f6258971dc932f,
komplek housing,Komplek perumahan,Kandang Mas Guru,"Jl. Tekukur No.4, Mulya Jaya, Kec. Lasalimu Sel., Kabupaten Buton, Sulawesi Tenggara 93756","Mulya Jaya, Kec. Lasalimu Sel., Kabupaten Buton",SULAWESI TENGGARA,93756.0,Indonesia,,,,-5.2774875,123.1066725,https://maps.google.com/?cid=0x0:0x5e4ad7196cf8e05d,
komplek housing,Komplek perumahan,RA,"M54C+JJ5, Mega Bahari, Kec. Lasalimu Sel., Kabupaten Buton, Sulawesi Tenggara","Kabupaten Buton, Sulawesi Tenggara",SULAWESI TENGGARA,,Indonesia,,,,-5.3434782,123.1715967,https://maps.google.com/?cid=0x0:0xe23f191c270dbea1,
komplek housing,Pembangunan Perumahan,Rmh Mei,"P47J+RWW, Sumber Agung, Kec. Lasalimu Sel., Kabupaten Buton, Sulawesi Tenggara 93756","Sumber Agung, Kec. Lasalimu Sel., Kabupaten Buton",SULAWESI TENGGARA,93756.0,Indonesia,,,,-5.2853976,123.1323409,https://maps.google.com/?cid=0x0:0x1a49e31c0b776121,
komplek housing,Komplek perumahan,Rumah Salim,"P5JQ+GCV, Umalaoge, Kec. Lasalimu Sel., Kabupaten Buton, Sulawesi Tenggara 93756","Umalaoge, Kec. Lasalimu Sel., Kabupaten Buton",SULAWESI TENGGARA,93756.0,Indonesia,,,,-5.2686379,123.188562,https://maps.google.com/?cid=0x0:0x9712a33532e60038,
komplek housing,Komplek perumahan,Sabrina home,"Q3FR+VJF, Jalan Poros, Kamaru, Lasalimu, Buton Regency, South East Sulawesi 93756","Jalan Poros, Kamaru, Lasalimu, Buton Regency",SULAWESI TENGGARA,93756.0,Indonesia,,,,-5.2253161,123.0915613,https://maps.google.com/?cid=0x0:0x45be9ad894b8185f,
komplek housing,Komplek perumahan,Rumah Panggung,"P5W4+9MP, Jl. poros Lasalimu, Siontapina, Kec. Lasalimu Sel., Kabupaten Buton, Sulawesi Tenggara 93756","Jl. poros Lasalimu, Siontapina, Kec. Lasalimu Sel., Kabupaten Buton",SULAWESI TENGGARA,93756.0,Indonesia,,,,-5.2540364,123.1567129,https://maps.google.com/?cid=0x0:0x5e347df270b5f13e,
komplek housing,Perhimpunan Pengembang Perumahan,rumah gaul,"M5J6+PW5, Unnamed Road, Ambuau Indah, Kec. Lasalimu Sel., Kabupaten Buton, Sulawesi Tenggara 93756","Unnamed Road, Ambuau Indah, Kec. Lasalimu Sel., Kabupaten Buton",SULAWESI TENGGARA,93756.0,Indonesia,,,,-5.3182449,123.1623747,https://maps.google.com/?cid=0x0:0x4c5861c25043dac5,
komplek housing,Perhimpunan Pengembang Perumahan,MES HIMAS ELNUSA,"M5J7+MJ6, Ambuau Indah, Kec. Lasalimu Sel., Kabupaten Buton, Sulawesi Tenggara 93756","Ambuau Indah, Kec. Lasalimu Sel., Kabupaten Buton",SULAWESI TENGGARA,93756.0,Indonesia,,,,-5.3183867,123.1639962,https://maps.google.com/?cid=0x0:0x7610a5b1342a99bd,
komplek housing,Komplek perumahan,Kompleks perumahan Da,"GQGX+GQ, Warinta, Kec. Ps. Wajo, Kabupaten Buton, Sulawesi Tenggara","Kabupaten Buton, Sulawesi Tenggara",SULAWESI TENGGARA,,Indonesia,,,,-5.473626,122.799397,https://maps.google.com/?cid=0x0:0xb50303c5e1febad1,
komplek housing,Pembangkit Listrik,Mess perumahan PLTM Winning,"HVQP+W5R, Winning, Kec. Ps. Wajo, Kabupaten Buton, Sulawesi Tenggara 93754","Winning, Kec. Ps. Wajo, Kabupaten Buton",SULAWESI TENGGARA,93754.0,Indonesia,,,,-5.4101473,122.885389,https://maps.google.com/?cid=0x0:0xa1be665b02355915,
komplek housing,komplek housing,Kec. Ps. Wajo,"Kabupaten Buton, Sulawesi Tenggara","Kabupaten Buton, Sulawesi Tenggara",SULAWESI TENGGARA,,Indonesia,,,,-5.5143888,122.8408508,https://maps.google.com/?cid=0x0:0xd8cb6cdd80295dce,
komplek housing,Perhimpunan Pengembang Perumahan,Kompleks ama Katjina,"FRRV+M7R, Lingkungan batumatongka, Kambulabulana, Kec. Ps. Wajo, Kabupaten Buton, Sulawesi Tenggara","Kabupaten Buton, Sulawesi Tenggara",SULAWESI TENGGARA,,Indonesia,,,,-5.5082601,122.8431359,https://maps.google.com/?cid=0x0:0x28011c957c140119,
komplek housing,komplek housing,Home Mm Ika,"FV52+V8R, Jln. Wangkarabi, Takimpo, Kec. Ps. Wajo, Kabupaten Buton, Sulawesi Tenggara 93754","Jln. Wangkarabi, Takimpo, Kec. Ps. Wajo, Kabupaten Buton",SULAWESI TENGGARA,93754.0,Indonesia,,,,-5.5402698,122.8507557,https://maps.google.com/?cid=0x0:0x4d62559a56decb0f,
komplek housing,Komplek perumahan,Rumah bang fiqih,"GRHP+2JP, Lapodi, Kec. Ps. Wajo, Kabupaten Buton, Sulawesi Tenggara","Kabupaten Buton, Sulawesi Tenggara",SULAWESI TENGGARA,,Indonesia,,,,-5.473318,122.836787,https://maps.google.com/?cid=0x0:0xb2d48220fa1339f,
komplek housing,Komplek perumahan,Rumah reta,"GQJ3+FH6, Wakaokili, Kec. Ps. Wajo, Kabupaten Buton, Sulawesi Tenggara 93757","Wakaokili, Kec. Ps. Wajo, Kabupaten Buton",SULAWESI TENGGARA,93757.0,Indonesia,,,,-5.468769,122.7539397,https://maps.google.com/?cid=0x0:0x20dce9753e08ec40,
komplek housing,Komplek perumahan,Gege,"FVRF+JPX, Kondowa, Kec. Ps. Wajo, Kabupaten Buton, Sulawesi Tenggara 93754","Kondowa, Kec. Ps. Wajo, Kabupaten Buton",SULAWESI TENGGARA,93754.0,Indonesia,,,,-5.5083911,122.8744009,https://maps.google.com/?cid=0x0:0xca5eb7bdc7bb2be0,
komplek housing,Komplek perumahan,LA BINTA,"FR9V+8RR, Kombeli, Kec. Ps. Wajo, Kabupaten Buton, Sulawesi Tenggara 93754","Kombeli, Kec. Ps. Wajo, Kabupaten Buton",SULAWESI TENGGARA,93754.0,Indonesia,85243977979.0,,,-5.5314045,122.8447447,https://maps.google.com/?cid=0x0:0x2c20a0f3eed3627,
komplek housing,Toko,Evi'home,"FVRF+4W7, Dongkala, Kec. Ps. Wajo, Kabupaten Buton, Sulawesi Tenggara 93754","Dongkala, Kec. Ps. Wajo, Kabupaten Buton",SULAWESI TENGGARA,93754.0,Indonesia,,,,-5.5097125,122.8747969,https://maps.google.com/?cid=0x0:0x6cb5ee2e82f0e092,
komplek housing,komplek housing,Lorong Hoga,"GRCW+X25, Saragi, Kec. Ps. Wajo, Kabupaten Buton, Sulawesi Tenggara","Kabupaten Buton, Sulawesi Tenggara",SULAWESI TENGGARA,,Indonesia,,,,-5.4776162,122.8451159,https://maps.google.com/?cid=0x0:0xfea749017a96ca42,
komplek housing,Komplek perumahan,Zahwa,"FRVR+GHR, Jl. Panjaitan, Ps. Wajo, Kec. Ps. Wajo, Kabupaten Buton, Sulawesi Tenggara 93754","Jl. Panjaitan, Ps. Wajo, Kec. Ps. Wajo, Kabupaten Buton",SULAWESI TENGGARA,93754.0,Indonesia,,,,-5.5061421,122.8413903,https://maps.google.com/?cid=0x0:0xa9cd02f3026a7b2c,
komplek housing,Pembangunan Perumahan,LINGKUNGAN LAPAN 2,"FRF8+Q6C, Awainulu, Kec. Ps. Wajo, Kabupaten Buton, Sulawesi Tenggara","Kabupaten Buton, Sulawesi Tenggara",SULAWESI TENGGARA,,Indonesia,,,,-5.525567,122.8155018,https://maps.google.com/?cid=0x0:0x4531621443f33950,
komplek housing,Otoritas Perumahan,Lorong Halas,"FRXW+F76, Jl. Protokol, Ps. Wajo, Kec. Ps. Wajo, Kabupaten Buton, Sulawesi Tenggara","Kabupaten Buton, Sulawesi Tenggara",SULAWESI TENGGARA,,Indonesia,,,,-5.5013323,122.8456532,https://maps.google.com/?cid=0x0:0xdef0a30384952b1d,
komplek housing,Perias,Citraning Makeup,"HV7W+445, Kancinaa, Kec. Ps. Wajo, Kabupaten Buton, Sulawesi Tenggara 93754","Kancinaa, Kec. Ps. Wajo, Kabupaten Buton",SULAWESI TENGGARA,93754.0,Indonesia,,,,-5.4372441,122.8953728,https://maps.google.com/?cid=0x0:0x52bcdedbe6b63826,
komplek housing,Komplek perumahan,Rumah Farhad Masiri,"FRJQ+VV7, Dusun Kompleks, Banabungi, Kec. Ps. Wajo, Kabupaten Buton, Sulawesi Tenggara","Kabupaten Buton, Sulawesi Tenggara",SULAWESI TENGGARA,,Indonesia,,,,-5.5178338,122.839675,https://maps.google.com/?cid=0x0:0xa73314c327fb123f,
komplek housing,komplek housing,Rumah Afizah,"FRJQ+7RH, Jl. K. S. Tubun, Banabungi, Kec. Ps. Wajo, Kabupaten Buton, Sulawesi Tenggara 93754","Jl. K. S. Tubun, Banabungi, Kec. Ps. Wajo, Kabupaten Buton",SULAWESI TENGGARA,93754.0,Indonesia,,,,-5.5193179,122.8396244,https://maps.google.com/?cid=0x0:0x9048a10841e4a1a5,
komplek housing,,Rumah Choky,"FR9W+5CW, Kombeli, Kec. Ps. Wajo, Kabupaten Buton, Sulawesi Tenggara 93754","Kombeli, Kec. Ps. Wajo, Kabupaten Buton",SULAWESI TENGGARA,93754.0,Indonesia,,,,-5.5321266,122.845963,https://maps.google.com/?cid=0x0:0x2d90eb979d6c14be,
komplek housing,Komplek perumahan,MANUNTU FAMILY,"FRHR+VW7, Laburunci, Kec. Ps. Wajo, Kabupaten Buton, Sulawesi Tenggara 93754","Laburunci, Kec. Ps. Wajo, Kabupaten Buton",SULAWESI TENGGARA,93754.0,Indonesia,,,,-5.5203276,122.8423307,https://maps.google.com/?cid=0x0:0x16ba0b0f5552550d,
komplek housing,Komplek perumahan,Rumah Uni,"GRJ6+36, Warinta, Kec. Ps. Wajo, Kabupaten Buton, Sulawesi Tenggara","Kabupaten Buton, Sulawesi Tenggara",SULAWESI TENGGARA,,Indonesia,,,,-5.4698221,122.8105774,https://maps.google.com/?cid=0x0:0x18756b5d509fa1a4,
komplek housing,Perumahan,GODE GODE ANAK PERUMAHAN LAPODI,"GR5Q+V26, Kambula Mbulana, Kec. Ps. Wajo, Kabupaten Buton, Sulawesi Tenggara","Kabupaten Buton, Sulawesi Tenggara",SULAWESI TENGGARA,,Indonesia,,,,-5.4902749,122.8376645,https://maps.google.com/?cid=0x0:0x6165a431f344cd3d,
komplek housing,Komplek perumahan,H. Bodhy Sanusi,"Jl. Lorong Bambu Kampung Baru, Takimpo, Kec. Ps. Wajo, Kabupaten Buton, Sulawesi Tenggara 93754","Takimpo, Kec. Ps. Wajo, Kabupaten Buton",SULAWESI TENGGARA,93754.0,Indonesia,,,,-5.5315563,122.8517617,https://maps.google.com/?cid=0x0:0x41a3b374343822e6,
komplek housing,Komplek perumahan,Rumah Bella Hartoyo,"GR5W+V5X, Kambula Mbulana, Kec. Ps. Wajo, Kabupaten Buton, Sulawesi Tenggara 93754","Kambula Mbulana, Kec. Ps. Wajo, Kabupaten Buton",SULAWESI TENGGARA,93754.0,Indonesia,,,,-5.4905774,122.8446049,https://maps.google.com/?cid=0x0:0x386a5626d2710d98,
komplek housing,Komplek perumahan,Rany Home,"FVRG+HPH, Jalan Poros, Wabula, Kondowa, Kec. Ps. Wajo, Kabupaten Buton, Sulawesi Tenggara 93754","Jalan Poros, Wabula, Kondowa, Kec. Ps. Wajo, Kabupaten Buton",SULAWESI TENGGARA,93754.0,Indonesia,,,,-5.5082876,122.8761732,https://maps.google.com/?cid=0x0:0x3ee1a0310aa5a20a,
komplek housing,Perhimpunan Pengembang Perumahan,puppy house,"FRMR+F6P, Banabungi, Kec. Ps. Wajo, Kabupaten Buton, Sulawesi Tenggara 93754","Banabungi, Kec. Ps. Wajo, Kabupaten Buton",SULAWESI TENGGARA,93754.0,Indonesia,,,,-5.5165854,122.840999,https://maps.google.com/?cid=0x0:0xf7a7d254ef6b62c2,
komplek housing,Pembangunan Perumahan,Desa kancinaa,"HV5R+W8M, Kancinaa, Kec. Ps. Wajo, Kabupaten Buton, Sulawesi Tenggara 93754","Kancinaa, Kec. Ps. Wajo, Kabupaten Buton",SULAWESI TENGGARA,93754.0,Indonesia,,,,-5.4401569,122.8907848,https://maps.google.com/?cid=0x0:0x2cd44eb113f0dd17,
komplek housing,Komplek perumahan,Rumah Mama Iwan,"GR3V+59C, Jl. Kihajar Dewantara, Kambula Mbulana, Kec. Ps. Wajo, Kabupaten Buton, Sulawesi Tenggara 93754","Jl. Kihajar Dewantara, Kambula Mbulana, Kec. Ps. Wajo, Kabupaten Buton",SULAWESI TENGGARA,93754.0,Indonesia,,,,-5.497244,122.843547,https://maps.google.com/?cid=0x0:0xa54681e5f53c8cd,
komplek housing,Komplek perumahan,ALFARABIL HOME,"Dongkala, Kec. Ps. Wajo, Kabupaten Buton, Sulawesi Tenggara 93754","Kec. Ps. Wajo, Kabupaten Buton",SULAWESI TENGGARA,93754.0,Indonesia,,,,-5.5129817,122.8709241,https://maps.google.com/?cid=0x0:0xbc3b8eb6fe880518,
komplek housing,Komplek perumahan,Labahawa1,"GRGQ+GMW, Lapodi, Kec. Ps. Wajo, Kabupaten Buton, Sulawesi Tenggara 93754","Lapodi, Kec. Ps. Wajo, Kabupaten Buton",SULAWESI TENGGARA,93754.0,Indonesia,,,,-5.473646,122.8392059,https://maps.google.com/?cid=0x0:0x47164c1525dc8fc7,
komplek housing,komplek housing,Siontapina,"Kec. Lasalimu Sel., Kabupaten Buton, Sulawesi Tenggara","Kabupaten Buton, Sulawesi Tenggara",SULAWESI TENGGARA,,Indonesia,,,,-5.3242312,123.1182806,https://maps.google.com/?cid=0x0:0x7d394a4da9627623,
komplek housing,Balai Pertemuan Desa,Desa Siontapina,"M4RG+WF, Siontapina, Kec. Siontapina, Kabupaten Buton, Sulawesi Tenggara 93756","Siontapina, Kec. Siontapina, Kabupaten Buton",SULAWESI TENGGARA,93756.0,Indonesia,,,,-5.3077558,123.126177,https://maps.google.com/?cid=0x0:0xe79eb8deb15e12b7,
komplek housing,Komplek perumahan,Rumah Wahyu,"M4VF+QX, Siontapina, Kec. Siontapina, Kabupaten Buton, Sulawesi Tenggara","Kabupaten Buton, Sulawesi Tenggara",SULAWESI TENGGARA,,Indonesia,,,,-5.3055518,123.1248522,https://maps.google.com/?cid=0x0:0xa9ebadb4307be15b,
komplek housing,Pembangunan Perumahan,Desita,"M4WP+69Q Taman Mini Siomanuru, Siomanuru, Kec. Lasalimu Sel., Kabupaten Buton, Sulawesi Tenggara 93756","Siomanuru, Kec. Lasalimu Sel., Kabupaten Buton",SULAWESI TENGGARA,93756.0,Indonesia,,,,-5.304555,123.135699,https://maps.google.com/?cid=0x0:0x9bb91ad83700db8c,
komplek housing,Komplek perumahan,Kebun pande,"M3FX+W9C, Sumber Sari, Kec. Siontapina, Kabupaten Buton, Sulawesi Tenggara 93756","Sumber Sari, Kec. Siontapina, Kabupaten Buton",SULAWESI TENGGARA,93756.0,Indonesia,,,,-5.32518,123.0983766,https://maps.google.com/?cid=0x0:0xccf7738871afb011,
komplek housing,Komplek perumahan,Aiko Home,"M4VP+H6P, Siomanuru, Kec. Lasalimu Sel., Kabupaten Buton, Sulawesi Tenggara 93756","Siomanuru, Kec. Lasalimu Sel., Kabupaten Buton",SULAWESI TENGGARA,93756.0,Indonesia,,,,-5.3060335,123.1355871,https://maps.google.com/?cid=0x0:0xb4cd8fc1134b9ccc,
komplek housing,Gedung Apartemen,ANNA CELL,"P45P+PMW, Wajah Jaya, Kec. Lasalimu Sel., Kabupaten Buton, Sulawesi Tenggara 93756","Wajah Jaya, Kec. Lasalimu Sel., Kabupaten Buton",SULAWESI TENGGARA,93756.0,Indonesia,,,,-5.2911461,123.1377449,https://maps.google.com/?cid=0x0:0xb1a390605809a417,
komplek housing,Pembangunan Perumahan,Rumah wayan,"UPT Lapokamata, Jalan Wirabuana, Desa Rejo Sari, Kec. Lasalimu Sel., Kabupaten Buton, Sulawesi Tenggara 93756","Jalan Wirabuana, Desa Rejo Sari, Kec. Lasalimu Sel., Kabupaten Buton",SULAWESI TENGGARA,93756.0,Indonesia,,,,-5.3223487,123.1093138,https://maps.google.com/?cid=0x0:0xd5b767104c69b591,
komplek housing,komplek housing,Kec. Wolowa,"Kabupaten Buton, Sulawesi Tenggara","Kabupaten Buton, Sulawesi Tenggara",SULAWESI TENGGARA,,Indonesia,,,,-5.4247226,122.9313886,https://maps.google.com/?cid=0x0:0xa030da8146f922b1,
komplek housing,komplek housing,Rumah nadin,"HWHM+4R7, Jl. Poros Lasalimu, Wolowa, Kec. Wolowa, Kabupaten Buton, Sulawesi Tenggara 93754","Jl. Poros Lasalimu, Wolowa, Kec. Wolowa, Kabupaten Buton",SULAWESI TENGGARA,93754.0,Indonesia,,,,-5.422144,122.935065,https://maps.google.com/?cid=0x0:0x68be4bf3c7b13682,
komplek housing,Pembangunan Perumahan,Kecamatan Wolowa,"HWCG+HW3, Wolowa, Kec. Wolowa, Kabupaten Buton, Sulawesi Tenggara","Kabupaten Buton, Sulawesi Tenggara",SULAWESI TENGGARA,,Indonesia,,,,-5.428609,122.9273016,https://maps.google.com/?cid=0x0:0xbbed49a8c3f5b85b,
komplek housing,Perhimpunan Pengembang Perumahan,Rumah ayu,"HXW6+Q9R, Jl. Poros Lasalimu, Matawia, Kec. Wolowa, Kabupaten Buton, Sulawesi Tenggara 93754","Jl. Poros Lasalimu, Matawia, Kec. Wolowa, Kabupaten Buton",SULAWESI TENGGARA,93754.0,Indonesia,,,,-5.4030104,122.9608865,https://maps.google.com/?cid=0x0:0xf2ddddd5a2f683c9,
komplek housing,Komplek perumahan,Rumah uzan,"HWHM+4R7, Jl. Poros Lasalimu, Wolowa, Kec. Wolowa, Kabupaten Buton, Sulawesi Tenggara 93754","Jl. Poros Lasalimu, Wolowa, Kec. Wolowa, Kabupaten Buton",SULAWESI TENGGARA,93754.0,Indonesia,,,,-5.422749,122.9345106,https://maps.google.com/?cid=0x0:0x4de4f3c121617862,
komplek housing,Pembangunan Perumahan,Wolowa baru,"JX3Q+RCR Jembatan Walompo, Jl. Poros Pasarwajo, Wolowa Baru, Kec. Wolowa, Kabupaten Buton, Sulawesi Tenggara 93756","Jl. Poros Pasarwajo, Wolowa Baru, Kec. Wolowa, Kabupaten Buton",SULAWESI TENGGARA,93756.0,Indonesia,,,,-5.3947621,122.9882844,https://maps.google.com/?cid=0x0:0xd9139a2ccf2c589f,
komplek housing,Pembangunan Perumahan,Sukamaju,"JX97+Q99, Suka Maju, Kec. Wolowa, Kabupaten Buton, Sulawesi Tenggara 93754","Suka Maju, Kec. Wolowa, Kabupaten Buton",SULAWESI TENGGARA,93754.0,Indonesia,,,,-5.3805944,122.9634852,https://maps.google.com/?cid=0x0:0x2b88cbdf7c48f207,
komplek housing,Komplek perumahan,Mama haji,"HWFH+8CX, Wolowa, Kec. Wolowa, Kabupaten Buton, Sulawesi Tenggara","Kabupaten Buton, Sulawesi Tenggara",SULAWESI TENGGARA,,Indonesia,,,,-5.426647,122.9286191,https://maps.google.com/?cid=0x0:0xe26bceb07ecb541c,
komplek housing,komplek housing,Rumahku,"HXW6+Q9R, Jl. Poros Lasalimu, Matawia, Kec. Wolowa, Kabupaten Buton, Sulawesi Tenggara 93754","Jl. Poros Lasalimu, Matawia, Kec. Wolowa, Kabupaten Buton",SULAWESI TENGGARA,93754.0,Indonesia,,,,-5.4034919,122.9614974,https://maps.google.com/?cid=0x0:0x8423cdd5afd2d6e2,
komplek housing,Kantor Hubungan Masyarakat,Desa Galanti,"HW88+CWC, Galanti, Kec. Wolowa, Kabupaten Buton, Sulawesi Tenggara 93754","Galanti, Kec. Wolowa, Kabupaten Buton",SULAWESI TENGGARA,93754.0,Indonesia,,,,-5.4339338,122.9172604,https://maps.google.com/?cid=0x0:0x6605326f783229cf,
komplek housing,Perhimpunan Pengembang Perumahan,Dusun lahaji,"HXR3+57J, Matawia, Kec. Wolowa, Kabupaten Buton, Sulawesi Tenggara","Kabupaten Buton, Sulawesi Tenggara",SULAWESI TENGGARA,,Indonesia,,,,-5.4092921,122.9523764,https://maps.google.com/?cid=0x0:0xc3ca4d8a96601917,
komplek housing,komplek housing,Rumah mama nobu,"HW88+6F6, Galanti, Kec. Wolowa, Kabupaten Buton, Sulawesi Tenggara","Kabupaten Buton, Sulawesi Tenggara",SULAWESI TENGGARA,,Indonesia,,,,-5.43443,122.916035,https://maps.google.com/?cid=0x0:0xa3664240375f0313,
komplek housing,Komplek perumahan,Rumah Rahmat,"JX4H+HWQ, Wolowa Baru, Kec. Wolowa, Kabupaten Buton, Sulawesi Tenggara","Kabupaten Buton, Sulawesi Tenggara",SULAWESI TENGGARA,,Indonesia,,,,-5.393534,122.979852,https://maps.google.com/?cid=0x0:0xb8b3c15bf08a77c3,
komplek housing,Komplek perumahan,Rumah Karjiman Rahim,"HWHP+QP, Wolowa, Kec. Wolowa, Kabupaten Buton, Sulawesi Tenggara","Kabupaten Buton, Sulawesi Tenggara",SULAWESI TENGGARA,,Indonesia,,,,-5.4205954,122.9368034,https://maps.google.com/?cid=0x0:0xf7265fa8a7ec4345,
komplek housing,Komplek perumahan,rumah uzan,"JWCQ+27R, Wolowa, Kec. Wolowa, Kabupaten Buton, Sulawesi Tenggara","Kabupaten Buton, Sulawesi Tenggara",SULAWESI TENGGARA,,Indonesia,,,,-5.3798866,122.9381321,https://maps.google.com/?cid=0x0:0x9dc05c6eb30d8296,
komplek housing,Kantor Pemerintah,Desa kabawakole,"HW73+QGF, Desa, kabawalakole, Pasar Wajo, Buton Regency, South East Sulawesi","Kabupaten Buton, Sulawesi Tenggara",SULAWESI TENGGARA,,Indonesia,,,,-5.4355552,122.9038053,https://maps.google.com/?cid=0x0:0xad0b459bfdaa3ed2,
komplek housing,Komplek perumahan,Batas desa,"H2W4+GMQ, Jl. Poros Lasalimu, Matanauwe, Kec. Siontapina, Kabupaten Buton, Sulawesi Tenggara 93756","Jl. Poros Lasalimu, Matanauwe, Kec. Siontapina, Kabupaten Buton",SULAWESI TENGGARA,93756.0,Indonesia,,,,-5.4036347,123.006748,https://maps.google.com/?cid=0x0:0x2da60189948f1d57,
komplek housing,Komplek perumahan,Batas mtw,"H2Q6+6FQ, Matanauwe, Kec. Siontapina, Kabupaten Buton, Sulawesi Tenggara 93756","Matanauwe, Kec. Siontapina, Kabupaten Buton",SULAWESI TENGGARA,93756.0,Indonesia,,,,-5.4119197,123.0112429,https://maps.google.com/?cid=0x0:0x8929150346ca904,
komplek housing,Komplek perumahan,Shiva Housing,"Perumahan Wahana Pondok Gede, K3/20, RT.018/RW.007, Jatiranggon, Jatisampurna, Bekasi, West Java 17431","K3/20, RT.018/RW.007, Jatiranggon, Jatisampurna, Bekasi",SULAWESI TENGGARA,17431.0,Indonesia,,,,-6.3395969,106.9387521,https://maps.google.com/?cid=0x0:0xeff80149be4a471,
komplek housing,Komplek perumahan,Green Permata Residence,"Jayasampurna, Kec. Serang Baru, Kabupaten Bekasi, Jawa Barat 17330","Kec. Serang Baru, Kabupaten Bekasi",SULAWESI TENGGARA,17330.0,Indonesia,,,,-6.3712501,107.0858766,https://maps.google.com/?cid=0x0:0xe64ce93d357bf5d4,
komplek housing,Dapur Umum,Mutiara Pratidina,"Jl. Pratidina No.63 58, RW.5, Harjamukti, Cimanggis, Depok City, West Java 16454","RW.5, Harjamukti, Cimanggis, Depok City",SULAWESI TENGGARA,16454.0,Indonesia,81282287210.0,,,-6.3724266,106.8892583,https://maps.google.com/?cid=0x0:0x32126dcca738f5ef,
komplek housing,komplek housing,Komplek Housing,"Blok Bojong Nangka I, Jl. Ring Rudal Blok Bojong Nangka I No.68, RT.001/RW.007, Jatirahayu, Kec. Pd. Melati, Kota Bks, Jawa Barat 17414","Jl. Ring Rudal Blok Bojong Nangka I No.68, RT.001/RW.007, Jatirahayu, Kec. Pd. Melati, Kota Bks",SULAWESI TENGGARA,17414.0,Indonesia,,,,-6.293724,106.9165114,https://maps.google.com/?cid=0x0:0x9c50464976dee674,
perumahan,perumahan,Sulawesi Tenggara 93755,"Kabupaten Buton, Sulawesi Tenggara","Kabupaten Buton, Sulawesi Tenggara",SULAWESI TENGGARA,,Indonesia,,,,-5.2652803,122.831015,https://maps.google.com/?cid=0x0:0x698a3c90045603c1,
perumahan,Pembangunan Perumahan,Una,"PPG5+852, Mabulugo, Kec. Kapontori, Kabupaten Buton, Sulawesi Tenggara 93755","Mabulugo, Kec. Kapontori, Kabupaten Buton",SULAWESI TENGGARA,93755.0,Indonesia,,,,-5.2737267,122.7082622,https://maps.google.com/?cid=0x0:0x320633bd33f199ff,
perumahan,Komplek perumahan,Rumah adit,"QQ4M+7MG, Lambusango, Kec. Kapontori, Kabupaten Buton, Sulawesi Tenggara 93755","Lambusango, Kec. Kapontori, Kabupaten Buton",SULAWESI TENGGARA,93755.0,Indonesia,,,,-5.2441002,122.7850066,https://maps.google.com/?cid=0x0:0xcc85d36de6b3e98a,
perumahan,Komplek perumahan,Di rumah,"PPH5+39M, Lorong Pendidikan, Barangka, Kec. Kapontori, Kabupaten Buton, Sulawesi Tenggara 93755","Lorong Pendidikan, Barangka, Kec. Kapontori, Kabupaten Buton",SULAWESI TENGGARA,93755.0,Indonesia,,,,-5.2722441,122.7084107,https://maps.google.com/?cid=0x0:0xeaca953e9fae8403,
perumahan,perumahan,Rumah Andri Pendos,"pasarwajo desa lapodi, Jl. Poros Kapontori, Boneatiro, Kec. Kapontori, Kabupaten Buton, Sulawesi Tenggara 93755","Jl. Poros Kapontori, Boneatiro, Kec. Kapontori, Kabupaten Buton",SULAWESI TENGGARA,93755.0,Indonesia,,,,-5.2649096,122.7232429,https://maps.google.com/?cid=0x0:0xa3f71a13f0339042,
perumahan,Komplek perumahan,Rumah fizar,"Balai desa kapontori, Lambusango, Kec. Kapontori, Kabupaten Buton, Sulawesi Tenggara","Kabupaten Buton, Sulawesi Tenggara",SULAWESI TENGGARA,,Indonesia,,,,-5.2463356,122.7840066,https://maps.google.com/?cid=0x0:0xb1453334d0e4ca0d,
perumahan,Komplek perumahan,lakasopi,"PPQM+WPW, Wakalambe, Kec. Kapontori, Kabupaten Buton, Sulawesi Tenggara","Kabupaten Buton, Sulawesi Tenggara",SULAWESI TENGGARA,,Indonesia,,,,-5.2601435,122.7343244,https://maps.google.com/?cid=0x0:0xdb03698124777771,
perumahan,,Kios IBUKU / Sarman Saimu,"PQR4+2J5, Wakalambe, Kec. Kapontori, Kabupaten Buton, Sulawesi Tenggara","Kabupaten Buton, Sulawesi Tenggara",SULAWESI TENGGARA,,Indonesia,,,,-5.259981,122.756599,https://maps.google.com/?cid=0x0:0x98a1c30ff1a43c20,
perumahan,Komplek perumahan,Rumah Febri/Farhan,"QQ3M+4MX, Jl. Minagasi, Lambusango, Kec. Kapontori, Kabupaten Buton, Sulawesi Tenggara 93755","Jl. Minagasi, Lambusango, Kec. Kapontori, Kabupaten Buton",SULAWESI TENGGARA,93755.0,Indonesia,,,,-5.2470657,122.7844638,https://maps.google.com/?cid=0x0:0xde0f68978bd6b8d6,
perumahan,Komplek perumahan,Ryan,"QRJ7+HH3, Watumotobe, Kec. Kapontori, Kabupaten Buton, Sulawesi Tenggara 93755","Watumotobe, Kec. Kapontori, Kabupaten Buton",SULAWESI TENGGARA,93755.0,Indonesia,,,,-5.2186108,122.8139282,https://maps.google.com/?cid=0x0:0x8ec6ab235cd82a79,
perumahan,Kantor Pemerintah,Rumah Kades Boneatiro Barat,"QP4R+GV3, Boneatiro, Kec. Kapontori, Kabupaten Buton, Sulawesi Tenggara","Kabupaten Buton, Sulawesi Tenggara",SULAWESI TENGGARA,,Indonesia,,,,-5.243749,122.7421861,https://maps.google.com/?cid=0x0:0xc1c8a6d7080e0c46,
perumahan,Tujuan Wisata,Rumah KAKOLO Films,"QRJ9+J8V, Watumotobe, Kec. Kapontori, Kabupaten Buton, Sulawesi Tenggara 93755","Watumotobe, Kec. Kapontori, Kabupaten Buton",SULAWESI TENGGARA,93755.0,Indonesia,85232902526.0,,,-5.2183851,122.8183032,https://maps.google.com/?cid=0x0:0xafcf4bedeb3cc1a3,
perumahan,Komplek perumahan,La Saili,"RV43+V5, Wakangka, Kec. Kapontori, Kabupaten Buton, Sulawesi Tenggara","Kabupaten Buton, Sulawesi Tenggara",SULAWESI TENGGARA,,Indonesia,,,,-5.192785,122.8529922,https://maps.google.com/?cid=0x0:0xf135c98dbdbe3bd0,
perumahan,Toko bahan makanan,Kelurahan Kaisabu Baru,"pasarwajo km14, Jl. Poros Kapontori, Boneatiro, Kec. Kapontori, Kabupaten Buton, Sulawesi Tenggara 93755","Jl. Poros Kapontori, Boneatiro, Kec. Kapontori, Kabupaten Buton",SULAWESI TENGGARA,93755.0,Indonesia,,,,-5.2649096,122.7232429,https://maps.google.com/?cid=0x0:0x56a15f3efbaee6f5,
perumahan,Komplek perumahan,rumah fandi,"PR7X+85F, Lambusango Tim., Kec. Kapontori, Kabupaten Buton, Sulawesi Tenggara 93755","Lambusango Tim., Kec. Kapontori, Kabupaten Buton",SULAWESI TENGGARA,93755.0,Indonesia,,,,-5.286677,122.8479358,https://maps.google.com/?cid=0x0:0xd111851f12e89640,
perumahan,Komplek perumahan,POSKO KKN- T DESA TUMADA,"VQJG+6F5, Tumada, Kec. Kapontori, Kabupaten Buton, Sulawesi Tenggara 93755","Tumada, Kec. Kapontori, Kabupaten Buton",SULAWESI TENGGARA,93755.0,Indonesia,,,,-5.1198469,122.7765016,https://maps.google.com/?cid=0x0:0x2ce08e46c143c499,
perumahan,Perkebunan Pohon,bapak rasty,"VVF5+XMW, Bukit Asri, Kec. Kapontori, Kabupaten Buton, Sulawesi Tenggara 93755","Bukit Asri, Kec. Kapontori, Kabupaten Buton",SULAWESI TENGGARA,93755.0,Indonesia,,,,-5.1250168,122.8592148,https://maps.google.com/?cid=0x0:0xcaf179b2d8ac942f,
perumahan,Komplek perumahan,BUKIT ASRI SEJAHTERA,"Bukit asri sejahtera blok c no 4, Bukit Asri, Kec. Kapontori, Kabupaten Buton, Sulawesi Tenggara 93755","Bukit Asri, Kec. Kapontori, Kabupaten Buton",SULAWESI TENGGARA,93755.0,Indonesia,,,,-5.1250168,122.8592148,https://maps.google.com/?cid=0x0:0x20394c49af7e0ff3,
perumahan,Pembangunan Perumahan,Desa saya,"PPP7+473, Mabulugo, Kec. Kapontori, Kabupaten Buton, Sulawesi Tenggara 93755","Mabulugo, Kec. Kapontori, Kabupaten Buton",SULAWESI TENGGARA,93755.0,Indonesia,,,,-5.2646628,122.7132451,https://maps.google.com/?cid=0x0:0xc2fe35e71646b73d,
perumahan,Restoran,Rumah Makan Liangkamoi,"QRWQ+WFJ, Wakangka, Kec. Kapontori, Kabupaten Buton, Sulawesi Tenggara 93755","Wakangka, Kec. Kapontori, Kabupaten Buton",SULAWESI TENGGARA,93755.0,Indonesia,,,,-5.2026502,122.8386494,https://maps.google.com/?cid=0x0:0x97bfffd00e6eafc4,
perumahan,Komplek perumahan,Desa tumada,"VQJJ+X9, Jl. Bataraguru, Tumada, Kec. Kapontori, Kabupaten Buton, Sulawesi Tenggara 93755","Jl. Bataraguru, Tumada, Kec. Kapontori, Kabupaten Buton",SULAWESI TENGGARA,93755.0,Indonesia,,,,-5.1172703,122.7814636,https://maps.google.com/?cid=0x0:0xefd7fc68a603b36c,
perumahan,Taman,Watambo,"QRG5+F8H, Watumotobe, Kec. Kapontori, Kabupaten Buton, Sulawesi Tenggara 93755","Watumotobe, Kec. Kapontori, Kabupaten Buton",SULAWESI TENGGARA,93755.0,Indonesia,,,,-5.2238125,122.8083594,https://maps.google.com/?cid=0x0:0x49a4baeb684915d6,
perumahan,Komplek perumahan,Rumah arda,"QQ4M+7F9, Lambusango, Kec. Kapontori, Kabupaten Buton, Sulawesi Tenggara","Kabupaten Buton, Sulawesi Tenggara",SULAWESI TENGGARA,,Indonesia,,,,-5.2443375,122.7837344,https://maps.google.com/?cid=0x0:0xf5a033b0ff738eca,
perumahan,Komplek perumahan,Rumah Hafizah,"QRVJ+HQV, Jl. Labaria, Wakangka, Kec. Kapontori, Kabupaten Buton, Sulawesi Tenggara 93755","Jl. Labaria, Wakangka, Kec. Kapontori, Kabupaten Buton",SULAWESI TENGGARA,93755.0,Indonesia,,,,-5.2072192,122.8317711,https://maps.google.com/?cid=0x0:0xab910f629c99194d,
perumahan,Komplek perumahan,Rumah Adan,"QQ4M+7MG, Lambusango, Kec. Kapontori, Kabupaten Buton, Sulawesi Tenggara 93755","Lambusango, Kec. Kapontori, Kabupaten Buton",SULAWESI TENGGARA,93755.0,Indonesia,,,,-5.2443232,122.7841955,https://maps.google.com/?cid=0x0:0xa8f4aed0257cd555,
perumahan,perumahan,Lasalimu,"Wasuamba, Kec. Lasalimu, Kabupaten Buton, Sulawesi Tenggara","Kabupaten Buton, Sulawesi Tenggara",SULAWESI TENGGARA,,Indonesia,,,,-5.224197,123.127403,https://maps.google.com/?cid=0x0:0xb739d9e9697eebf9,
perumahan,Komplek perumahan,Rt 5 Desa Lasalimu,"Q43M+5JF, Jl. Wapeu, Lasalimu, Kec. Lasalimu Sel., Kabupaten Buton, Sulawesi Tenggara 93757","Jl. Wapeu, Lasalimu, Kec. Lasalimu Sel., Kabupaten Buton",SULAWESI TENGGARA,93757.0,Indonesia,,,,-5.2477013,123.134375,https://maps.google.com/?cid=0x0:0xf64bb1adbd077a92,
perumahan,Perumahan,Asria,"Q4GG+8XC, Lasalimu - Kamaru, Wasuamba, Kec. Lasalimu, Kabupaten Buton, Sulawesi Tenggara 93756","Lasalimu - Kamaru, Wasuamba, Kec. Lasalimu, Kabupaten Buton",SULAWESI TENGGARA,93756.0,Indonesia,,,,-5.224197,123.127403,https://maps.google.com/?cid=0x0:0x285f630fa123e151,
perumahan,Agen Pemasaran,Sultana Residences,"Jl. Kp. Pulau Bambu, Karangsentosa, Kec. Karangbahagia, Kabupaten Bekasi, Jawa Barat 17530","Karangsentosa, Kec. Karangbahagia, Kabupaten Bekasi",SULAWESI TENGGARA,17530.0,Indonesia,895702236715.0,,,-6.196011,107.1867982,https://maps.google.com/?cid=0x0:0xac1ec34249f7b324,
perumahan,perumahan,Kec. Lasalimu Sel.,"Kabupaten Buton, Sulawesi Tenggara","Kabupaten Buton, Sulawesi Tenggara",SULAWESI TENGGARA,,Indonesia,,,,-5.2517585,123.1595225,https://maps.google.com/?cid=0x0:0x43dc32910467e706,
perumahan,Perumahan,Simpang Tiga Lasalimu - Wasuamba - Pasarwajo,"P5V3+MP9, Jl. poros Lasalimu, Lasalimu, Kec. Lasalimu Sel., Kabupaten Buton, Sulawesi Tenggara 93756","Jl. poros Lasalimu, Lasalimu, Kec. Lasalimu Sel., Kabupaten Buton",SULAWESI TENGGARA,93756.0,Indonesia,,,,-5.2564801,123.1539226,https://maps.google.com/?cid=0x0:0x3e583f9513731ac0,
perumahan,Komplek perumahan,Rt 5 Desa Lasalimu,"Q43M+5JF, Jl. Wapeu, Lasalimu, Kec. Lasalimu Sel., Kabupaten Buton, Sulawesi Tenggara 93757","Jl. Wapeu, Lasalimu, Kec. Lasalimu Sel., Kabupaten Buton",SULAWESI TENGGARA,93757.0,Indonesia,,,,-5.2477013,123.134375,https://maps.google.com/?cid=0x0:0xf64bb1adbd077a92,
perumahan,Komplek perumahan,Pondok indah,"M3HW+CPP, Siontapina, Kec. Lasalimu Sel., Kabupaten Buton, Sulawesi Tenggara 93756","Siontapina, Kec. Lasalimu Sel., Kabupaten Buton",SULAWESI TENGGARA,93756.0,Indonesia,,,,-5.3214149,123.0968309,https://maps.google.com/?cid=0x0:0xe6e66d5bc2f5f30,
perumahan,Pembangunan Perumahan,Lorong perintis,"P5R3+FV2, Matanauwe - Lasalimu, Lasalimu, Kec. Lasalimu Sel., Kabupaten Buton, Sulawesi Tenggara 93756","Matanauwe - Lasalimu, Lasalimu, Kec. Lasalimu Sel., Kabupaten Buton",SULAWESI TENGGARA,93756.0,Indonesia,,,,-5.2588539,123.1546381,https://maps.google.com/?cid=0x0:0xefde3278cf095361,
perumahan,Pembangunan Perumahan,Rumah Ahmad sugeng,"P44P+6F, Sumber Agung, Kec. Lasalimu Sel., Kabupaten Buton, Sulawesi Tenggara 93756","Sumber Agung, Kec. Lasalimu Sel., Kabupaten Buton",SULAWESI TENGGARA,93756.0,Indonesia,,,,-5.2944685,123.1362429,https://maps.google.com/?cid=0x0:0xa2b538a39f09d235,
perumahan,perumahan,Rumah Lendi,"Q527+9CG, Lasalimu, Kec. Lasalimu Sel., Kabupaten Buton, Sulawesi Tenggara 93756","Lasalimu, Kec. Lasalimu Sel., Kabupaten Buton",SULAWESI TENGGARA,93756.0,Indonesia,,,,-5.2490504,123.1635843,https://maps.google.com/?cid=0x0:0x802aa6a484ccb22b,
perumahan,perumahan,Rumah atiana,"P5PV+G93, Umalaoge, Kec. Lasalimu Sel., Kabupaten Buton, Sulawesi Tenggara 93756","Umalaoge, Kec. Lasalimu Sel., Kabupaten Buton",SULAWESI TENGGARA,93756.0,Indonesia,,,,-5.2639276,123.1937565,https://maps.google.com/?cid=0x0:0x9984fd648b759b17,
perumahan,Pembangunan Perumahan,Ambuau indah,"M5H7+98W, Ambuau Indah, Kec. Lasalimu Sel., Kabupaten Buton, Sulawesi Tenggara 93756","Ambuau Indah, Kec. Lasalimu Sel., Kabupaten Buton",SULAWESI TENGGARA,93756.0,Indonesia,,,,-5.3215074,123.1633155,https://maps.google.com/?cid=0x0:0xc322adda907ffd1a,
perumahan,Komplek perumahan,Rumah Salim,"P5JQ+GCV, Umalaoge, Kec. Lasalimu Sel., Kabupaten Buton, Sulawesi Tenggara 93756","Umalaoge, Kec. Lasalimu Sel., Kabupaten Buton",SULAWESI TENGGARA,93756.0,Indonesia,,,,-5.2686379,123.188562,https://maps.google.com/?cid=0x0:0x9712a33532e60038,
perumahan,Pembangunan Perumahan,lokasi kaiv,"M595+5PX, Jl. Poros Lasalimu, Ambuau Indah, Kec. Lasalimu Sel., Kabupaten Buton, Sulawesi Tenggara 93756","Jl. Poros Lasalimu, Ambuau Indah, Kec. Lasalimu Sel., Kabupaten Buton",SULAWESI TENGGARA,93756.0,Indonesia,,,,-5.3320673,123.159343,https://maps.google.com/?cid=0x0:0x864c40714bf9b9d5,
perumahan,Komplek perumahan,Rumah ino,"P5X5+HMW, Jl. dermaga Lasalimu, Lasalimu, Kec. Lasalimu Sel., Kabupaten Buton, Sulawesi Tenggara 93756","Jl. dermaga Lasalimu, Lasalimu, Kec. Lasalimu Sel., Kabupaten Buton",SULAWESI TENGGARA,93756.0,Indonesia,,,,-5.2510597,123.1593283,https://maps.google.com/?cid=0x0:0xb3a19504d253ac99,
perumahan,Gedung Apartemen,ANNA CELL,"P45P+PMW, Wajah Jaya, Kec. Lasalimu Sel., Kabupaten Buton, Sulawesi Tenggara 93756","Wajah Jaya, Kec. Lasalimu Sel., Kabupaten Buton",SULAWESI TENGGARA,93756.0,Indonesia,,,,-5.2911461,123.1377449,https://maps.google.com/?cid=0x0:0xb1a390605809a417,
perumahan,Perhimpunan Pengembang Perumahan,Villa Putih Bahagia,"M5J7+H4C, Ambuau Indah, Kec. Lasalimu Sel., Kabupaten Buton, Sulawesi Tenggara 93756","Ambuau Indah, Kec. Lasalimu Sel., Kabupaten Buton",SULAWESI TENGGARA,93756.0,Indonesia,,,,-5.3185584,123.1627505,https://maps.google.com/?cid=0x0:0x11852f5f536e861f,
perumahan,Komplek perumahan,Rumah Babinsa Serma La Dikini,"M5G7+G52, Jl. Poros Lasalimu, Ambuau Indah, Kec. Lasalimu Sel., Kabupaten Buton, Sulawesi Tenggara 93756","Jl. Poros Lasalimu, Ambuau Indah, Kec. Lasalimu Sel., Kabupaten Buton",SULAWESI TENGGARA,93756.0,Indonesia,,,,-5.3238209,123.1631089,https://maps.google.com/?cid=0x0:0x49c81e79820054cf,
perumahan,Komplek perumahan,Rumah Fildin,"Siontapina, Kec. Lasalimu Sel., Kabupaten Buton, Sulawesi Tenggara 93756","Kec. Lasalimu Sel., Kabupaten Buton",SULAWESI TENGGARA,93756.0,Indonesia,82118710494.0,,,-5.3224109,123.1051758,https://maps.google.com/?cid=0x0:0x91d291f7154c4ae6,
perumahan,Komplek perumahan,RUMAH IZA,"P5QQ+6MW, Umalaoge, Kec. Lasalimu Sel., Kabupaten Buton, Sulawesi Tenggara 93756","Umalaoge, Kec. Lasalimu Sel., Kabupaten Buton",SULAWESI TENGGARA,93756.0,Indonesia,,,,-5.2622686,123.1906156,https://maps.google.com/?cid=0x0:0x66f6258971dc932f,
perumahan,Komplek perumahan,Rumah Panggung,"P5W4+9MP, Jl. poros Lasalimu, Siontapina, Kec. Lasalimu Sel., Kabupaten Buton, Sulawesi Tenggara 93756","Jl. poros Lasalimu, Siontapina, Kec. Lasalimu Sel., Kabupaten Buton",SULAWESI TENGGARA,93756.0,Indonesia,,,,-5.2540364,123.1567129,https://maps.google.com/?cid=0x0:0x5e347df270b5f13e,
perumahan,Komplek perumahan,Perumahan bajo lasalimu,93756,,SULAWESI TENGGARA,,Indonesia,,,,-5.247908,123.1589493,https://maps.google.com/?cid=0x0:0xbcea11d3c12d966f,
perumahan,Komplek perumahan,Kandang Mas Guru,"Jl. Tekukur No.4, Mulya Jaya, Kec. Lasalimu Sel., Kabupaten Buton, Sulawesi Tenggara 93756","Mulya Jaya, Kec. Lasalimu Sel., Kabupaten Buton",SULAWESI TENGGARA,93756.0,Indonesia,,,,-5.2774875,123.1066725,https://maps.google.com/?cid=0x0:0x5e4ad7196cf8e05d,
perumahan,Komplek perumahan,Rumah Elsa,"Q527+4VP, Jl. Umalaoge, Lasalimu, Kec. Lasalimu Sel., Kabupaten Buton, Sulawesi Tenggara 93756","Jl. Umalaoge, Lasalimu, Kec. Lasalimu Sel., Kabupaten Buton",SULAWESI TENGGARA,93756.0,Indonesia,,,,-5.2497193,123.1648174,https://maps.google.com/?cid=0x0:0x291e5945b206e637,
perumahan,Komplek perumahan,agus,"Q526+V3M, Jl. dermaga Lasalimu, Lasalimu, Kec. Lasalimu Sel., Kabupaten Buton, Sulawesi Tenggara 93756","Jl. dermaga Lasalimu, Lasalimu, Kec. Lasalimu Sel., Kabupaten Buton",SULAWESI TENGGARA,93756.0,Indonesia,,,,-5.2477895,123.1601712,https://maps.google.com/?cid=0x0:0x9ab4b732b411aeba,
perumahan,perumahan,Kec. Ps. Wajo,"Kabupaten Buton, Sulawesi Tenggara","Kabupaten Buton, Sulawesi Tenggara",SULAWESI TENGGARA,,Indonesia,,,,-5.5143888,122.8408508,https://maps.google.com/?cid=0x0:0xd8cb6cdd80295dce,
perumahan,perumahan,Perumahan PLNT Pasarwajo,"GR4R+XMJ, Kambula Mbulana, Kec. Ps. Wajo, Kabupaten Buton, Sulawesi Tenggara 93754","Kambula Mbulana, Kec. Ps. Wajo, Kabupaten Buton",SULAWESI TENGGARA,93754.0,Indonesia,,,,-5.4920098,122.8417266,https://maps.google.com/?cid=0x0:0x3d9eb8eb879f826,
perumahan,perumahan,KOST INAYAH,"FVF4+JPG Kaloko, Jl. Poros Takimpo, Wagola, Kec. Ps. Wajo, Kabupaten Buton, Sulawesi Tenggara","Kabupaten Buton, Sulawesi Tenggara",SULAWESI TENGGARA,,Indonesia,85341209879.0,,,-5.5259442,122.8568284,https://maps.google.com/?cid=0x0:0xffe64c6019314cf5,
perumahan,Komplek perumahan,Gege,"FVRF+JPX, Kondowa, Kec. Ps. Wajo, Kabupaten Buton, Sulawesi Tenggara 93754","Kondowa, Kec. Ps. Wajo, Kabupaten Buton",SULAWESI TENGGARA,93754.0,Indonesia,,,,-5.5083911,122.8744009,https://maps.google.com/?cid=0x0:0xca5eb7bdc7bb2be0,
perumahan,Komplek perumahan,Kompleks perumahan Da,"GQGX+GQ, Warinta, Kec. Ps. Wajo, Kabupaten Buton, Sulawesi Tenggara","Kabupaten Buton, Sulawesi Tenggara",SULAWESI TENGGARA,,Indonesia,,,,-5.473626,122.799397,https://maps.google.com/?cid=0x0:0xb50303c5e1febad1,
perumahan,Komplek perumahan,Lorong Bintara,"FRRR+JPJ, Unnamed Road, Ps. Wajo, Banabungi, Kec. Ps. Wajo, Kabupaten Buton, Sulawesi Tenggara 93754","Unnamed Road, Ps. Wajo, Banabungi, Kec. Ps. Wajo, Kabupaten Buton",SULAWESI TENGGARA,93754.0,Indonesia,82233332429.0,,,-5.5084078,122.8417672,https://maps.google.com/?cid=0x0:0x743db996cd826cc2,
perumahan,Komplek perumahan,LA BINTA,"FR9V+8RR, Kombeli, Kec. Ps. Wajo, Kabupaten Buton, Sulawesi Tenggara 93754","Kombeli, Kec. Ps. Wajo, Kabupaten Buton",SULAWESI TENGGARA,93754.0,Indonesia,85243977979.0,,,-5.5314045,122.8447447,https://maps.google.com/?cid=0x0:0x2c20a0f3eed3627,
perumahan,Komplek perumahan,Rumah Farhad Masiri,"FRJQ+VV7, Dusun Kompleks, Banabungi, Kec. Ps. Wajo, Kabupaten Buton, Sulawesi Tenggara","Kabupaten Buton, Sulawesi Tenggara",SULAWESI TENGGARA,,Indonesia,,,,-5.5178338,122.839675,https://maps.google.com/?cid=0x0:0xa73314c327fb123f,
perumahan,Taman,Tugu Selamat Datang Kota Pasarwajo,"GR5W+F6V, Jl. Kihajar Dewantara, Kambula Mbulana, Kec. Ps. Wajo, Kabupaten Buton, Sulawesi Tenggara 93754","Jl. Kihajar Dewantara, Kambula Mbulana, Kec. Ps. Wajo, Kabupaten Buton",SULAWESI TENGGARA,93754.0,Indonesia,,,,-5.4912543,122.8455458,https://maps.google.com/?cid=0x0:0x4b932fef03c63f5d,
perumahan,Komplek perumahan,Rumah bang fiqih,"GRHP+2JP, Lapodi, Kec. Ps. Wajo, Kabupaten Buton, Sulawesi Tenggara","Kabupaten Buton, Sulawesi Tenggara",SULAWESI TENGGARA,,Indonesia,,,,-5.473318,122.836787,https://maps.google.com/?cid=0x0:0xb2d48220fa1339f,
perumahan,Komplek perumahan,BTN Perumahan Griya Bukit Lapodi,"GR6Q+G35, Ps. Wajo, 93752, Kambula Mbulana, Pasar Wajo, Kambula Mbulana, Kec. Ps. Wajo, Kabupaten Buton, Sulawesi Tenggara 93752","Ps. Wajo,",SULAWESI TENGGARA,93752.0,Indonesia,,,,-5.4902822,122.8380238,https://maps.google.com/?cid=0x0:0xa910e40bd0cdd593,
perumahan,Kantor Perusahaan,Perumahan Dinas,"GR5R+GWF, Kambula Mbulana, Kec. Ps. Wajo, Kabupaten Buton, Sulawesi Tenggara 93754","Kambula Mbulana, Kec. Ps. Wajo, Kabupaten Buton",SULAWESI TENGGARA,93754.0,Indonesia,,,,-5.4911768,122.8423039,https://maps.google.com/?cid=0x0:0x647b30b6edb8fb44,
perumahan,Perhimpunan Pengembang Perumahan,Kompleks ama Katjina,"FRRV+M7R, Lingkungan batumatongka, Kambulabulana, Kec. Ps. Wajo, Kabupaten Buton, Sulawesi Tenggara","Kabupaten Buton, Sulawesi Tenggara",SULAWESI TENGGARA,,Indonesia,,,,-5.5082601,122.8431359,https://maps.google.com/?cid=0x0:0x28011c957c140119,
perumahan,perumahan,Home Mm Ika,"FRCX+85Q, Takimpo, Kec. Ps. Wajo, Kabupaten Buton, Sulawesi Tenggara 93754","Takimpo, Kec. Ps. Wajo, Kabupaten Buton",SULAWESI TENGGARA,93754.0,Indonesia,,,,-5.5291267,122.8479801,https://maps.google.com/?cid=0x0:0x600e8958fb6f7dd2,
perumahan,Komplek perumahan,Zahwa,"FRVR+GHR, Jl. Panjaitan, Ps. Wajo, Kec. Ps. Wajo, Kabupaten Buton, Sulawesi Tenggara 93754","Jl. Panjaitan, Ps. Wajo, Kec. Ps. Wajo, Kabupaten Buton",SULAWESI TENGGARA,93754.0,Indonesia,,,,-5.5061421,122.8413903,https://maps.google.com/?cid=0x0:0xa9cd02f3026a7b2c,
perumahan,,Rumah Choky,"FR9W+5CW, Kombeli, Kec. Ps. Wajo, Kabupaten Buton, Sulawesi Tenggara 93754","Kombeli, Kec. Ps. Wajo, Kabupaten Buton",SULAWESI TENGGARA,93754.0,Indonesia,,,,-5.5321266,122.845963,https://maps.google.com/?cid=0x0:0x2d90eb979d6c14be,
perumahan,Komplek perumahan,Rumah Uni,"GRJ6+36, Warinta, Kec. Ps. Wajo, Kabupaten Buton, Sulawesi Tenggara","Kabupaten Buton, Sulawesi Tenggara",SULAWESI TENGGARA,,Indonesia,,,,-5.4698221,122.8105774,https://maps.google.com/?cid=0x0:0x18756b5d509fa1a4,
perumahan,Komplek perumahan,Rumah Bella Hartoyo,"GR5W+V5X, Kambula Mbulana, Kec. Ps. Wajo, Kabupaten Buton, Sulawesi Tenggara 93754","Kambula Mbulana, Kec. Ps. Wajo, Kabupaten Buton",SULAWESI TENGGARA,93754.0,Indonesia,,,,-5.4905774,122.8446049,https://maps.google.com/?cid=0x0:0x386a5626d2710d98,
perumahan,Komplek perumahan,MANUNTU FAMILY,"FRHR+VW7, Laburunci, Kec. Ps. Wajo, Kabupaten Buton, Sulawesi Tenggara 93754","Laburunci, Kec. Ps. Wajo, Kabupaten Buton",SULAWESI TENGGARA,93754.0,Indonesia,,,,-5.5203276,122.8423307,https://maps.google.com/?cid=0x0:0x16ba0b0f5552550d,
perumahan,Komplek perumahan,Rumah Arya Guntur Prasetya,"GR3V+59C, Jl. Kihajar Dewantara, Kambula Mbulana, Kec. Ps. Wajo, Kabupaten Buton, Sulawesi Tenggara 93754","Jl. Kihajar Dewantara, Kambula Mbulana, Kec. Ps. Wajo, Kabupaten Buton",SULAWESI TENGGARA,93754.0,Indonesia,,,,-5.4970719,122.8433812,https://maps.google.com/?cid=0x0:0x41745ba2082bb01d,
perumahan,Komplek perumahan,Rumah bella ni,"FV8C+659, Wagola, Kec. Ps. Wajo, Kabupaten Buton, Sulawesi Tenggara","Kabupaten Buton, Sulawesi Tenggara",SULAWESI TENGGARA,,Indonesia,,,,-5.53446,122.870499,https://maps.google.com/?cid=0x0:0x8276d1e97a160bdc,
perumahan,Otoritas Perumahan,Lorong Halas,"FRXW+F76, Jl. Protokol, Ps. Wajo, Kec. Ps. Wajo, Kabupaten Buton, Sulawesi Tenggara","Kabupaten Buton, Sulawesi Tenggara",SULAWESI TENGGARA,,Indonesia,,,,-5.5013323,122.8456532,https://maps.google.com/?cid=0x0:0xdef0a30384952b1d,
perumahan,Komplek perumahan,Rumah Mama Iwan,"GR3V+59C, Jl. Kihajar Dewantara, Kambula Mbulana, Kec. Ps. Wajo, Kabupaten Buton, Sulawesi Tenggara 93754","Jl. Kihajar Dewantara, Kambula Mbulana, Kec. Ps. Wajo, Kabupaten Buton",SULAWESI TENGGARA,93754.0,Indonesia,,,,-5.497244,122.843547,https://maps.google.com/?cid=0x0:0xa54681e5f53c8cd,
perumahan,perumahan,Siontapina,"Kec. Lasalimu Sel., Kabupaten Buton, Sulawesi Tenggara","Kabupaten Buton, Sulawesi Tenggara",SULAWESI TENGGARA,,Indonesia,,,,-5.3242312,123.1182806,https://maps.google.com/?cid=0x0:0x7d394a4da9627623,
perumahan,Balai Pertemuan Desa,Desa Siontapina,"M4RG+WF, Siontapina, Kec. Siontapina, Kabupaten Buton, Sulawesi Tenggara 93756","Siontapina, Kec. Siontapina, Kabupaten Buton",SULAWESI TENGGARA,93756.0,Indonesia,,,,-5.3077558,123.126177,https://maps.google.com/?cid=0x0:0xe79eb8deb15e12b7,
perumahan,Komplek perumahan,Pondok indah,"M3HW+CPP, Siontapina, Kec. Lasalimu Sel., Kabupaten Buton, Sulawesi Tenggara 93756","Siontapina, Kec. Lasalimu Sel., Kabupaten Buton",SULAWESI TENGGARA,93756.0,Indonesia,,,,-5.3214149,123.0968309,https://maps.google.com/?cid=0x0:0xe6e66d5bc2f5f30,
perumahan,Komplek perumahan,Rumah Wahyu,"M4VF+QX, Siontapina, Kec. Siontapina, Kabupaten Buton, Sulawesi Tenggara","Kabupaten Buton, Sulawesi Tenggara",SULAWESI TENGGARA,,Indonesia,,,,-5.3055518,123.1248522,https://maps.google.com/?cid=0x0:0xa9ebadb4307be15b,
perumahan,Komplek perumahan,Rumah Fildin,"Siontapina, Kec. Lasalimu Sel., Kabupaten Buton, Sulawesi Tenggara 93756","Kec. Lasalimu Sel., Kabupaten Buton",SULAWESI TENGGARA,93756.0,Indonesia,82118710494.0,,,-5.3224109,123.1051758,https://maps.google.com/?cid=0x0:0x91d291f7154c4ae6,
perumahan,Pertanian,Penampungan sayur sayuran,"M4H4+HG, Rejo sari, Kec. Siontapina, Kabupaten Buton, Sulawesi Tenggara 93756","Rejo sari, Kec. Siontapina, Kabupaten Buton",SULAWESI TENGGARA,93756.0,Indonesia,,,,-5.3196618,123.1061433,https://maps.google.com/?cid=0x0:0x262590c9bc5dc01a,
perumahan,perumahan,Rumah mama ifa,"M4VF+4Q, Siontapina, Kec. Siontapina, Kabupaten Buton, Sulawesi Tenggara","Kabupaten Buton, Sulawesi Tenggara",SULAWESI TENGGARA,,Indonesia,,,,-5.3071402,123.1244978,https://maps.google.com/?cid=0x0:0x1dfaf117f3f380ab,
perumahan,Komplek perumahan,rumah la oni,"M4V9+P6, Siontapina, Kec. Siontapina, Kabupaten Buton, Sulawesi Tenggara","Kabupaten Buton, Sulawesi Tenggara",SULAWESI TENGGARA,,Indonesia,,,,-5.305705,123.118066,https://maps.google.com/?cid=0x0:0x75285008bc50e3ea,
perumahan,Pembangunan Perumahan,Desita,"M4WP+69Q Taman Mini Siomanuru, Siomanuru, Kec. Lasalimu Sel., Kabupaten Buton, Sulawesi Tenggara 93756","Siomanuru, Kec. Lasalimu Sel., Kabupaten Buton",SULAWESI TENGGARA,93756.0,Indonesia,,,,-5.304555,123.135699,https://maps.google.com/?cid=0x0:0x9bb91ad83700db8c,
perumahan,Komplek perumahan,Nabil,"M434+QMV, Sumber Sari, Kec. Siontapina, Kabupaten Buton, Sulawesi Tenggara","Kabupaten Buton, Sulawesi Tenggara",SULAWESI TENGGARA,,Indonesia,,,,-5.3445297,123.1061133,https://maps.google.com/?cid=0x0:0x9ae937c46d3fbdd3,
perumahan,Gudang,Gudang serbaguna,"M4H5+333, Siontapina, Kec. Lasalimu Sel., Kabupaten Buton, Sulawesi Tenggara","Kabupaten Buton, Sulawesi Tenggara",SULAWESI TENGGARA,,Indonesia,,,,-5.3223621,123.1076649,https://maps.google.com/?cid=0x0:0xff8e5c6c3eefc35b,
perumahan,Komplek perumahan,Irawan,"M4RF+P57, Siontapina, Kec. Lasalimu Sel., Kabupaten Buton, Sulawesi Tenggara 93756","Siontapina, Kec. Lasalimu Sel., Kabupaten Buton",SULAWESI TENGGARA,93756.0,Indonesia,,,,-5.3082112,123.1229116,https://maps.google.com/?cid=0x0:0xf8b930f4973ecad6,
perumahan,Komplek perumahan,Rumah Ridwan Thufail,"M452+6W6, Sumber Sari, Kec. Siontapina, Kabupaten Buton, Sulawesi Tenggara 93756","Sumber Sari, Kec. Siontapina, Kabupaten Buton",SULAWESI TENGGARA,93756.0,Indonesia,,,,-5.3419683,123.1022811,https://maps.google.com/?cid=0x0:0x968517d98a674098,
perumahan,Pembangunan Perumahan,Rumah Ahmad sugeng,"P44P+6F, Sumber Agung, Kec. Lasalimu Sel., Kabupaten Buton, Sulawesi Tenggara 93756","Sumber Agung, Kec. Lasalimu Sel., Kabupaten Buton",SULAWESI TENGGARA,93756.0,Indonesia,,,,-5.2944685,123.1362429,https://maps.google.com/?cid=0x0:0xa2b538a39f09d235,
perumahan,Komplek perumahan,Kebun la ama,"M4P8+7J, Siontapina, Kec. Siontapina, Kabupaten Buton, Sulawesi Tenggara","Kabupaten Buton, Sulawesi Tenggara",SULAWESI TENGGARA,,Indonesia,,,,-5.3142519,123.1165434,https://maps.google.com/?cid=0x0:0x969f27320f8be6a9,
perumahan,Rumah Kayu,Labuandiri,"M43H+7GC, Labuandiri, Kec. Siontapina, Kabupaten Buton, Sulawesi Tenggara 93756","Labuandiri, Kec. Siontapina, Kabupaten Buton",SULAWESI TENGGARA,93756.0,Indonesia,81269969863.0,,,-5.3467706,123.12948,https://maps.google.com/?cid=0x0:0x6b6839bdd6756550,
perumahan,Komplek perumahan,Mas Nurdian,"M4C8+PJR, Siontapina, Kec. Lasalimu Sel., Kabupaten Buton, Sulawesi Tenggara 93756","Siontapina, Kec. Lasalimu Sel., Kabupaten Buton",SULAWESI TENGGARA,93756.0,Indonesia,,,,-5.3252743,123.114442,https://maps.google.com/?cid=0x0:0x4621f65b0bde5089,
perumahan,Komplek perumahan,Rumah jufrin,"M4RG+MJR, Siontapina, Kec. Lasalimu Sel., Kabupaten Buton, Sulawesi Tenggara","Kabupaten Buton, Sulawesi Tenggara",SULAWESI TENGGARA,,Indonesia,,,,-5.3082524,123.126524,https://maps.google.com/?cid=0x0:0xee2189646c9aa101,
perumahan,Komplek perumahan,Rumah mama siti,"J4X6+XM, Labuandiri, Kec. Siontapina, Kabupaten Buton, Sulawesi Tenggara","Kabupaten Buton, Sulawesi Tenggara",SULAWESI TENGGARA,,Indonesia,,,,-5.3499268,123.1122978,https://maps.google.com/?cid=0x0:0xa5849db30452c578,
perumahan,Komplek perumahan,Kebun pande,"M3FX+W9C, Sumber Sari, Kec. Siontapina, Kabupaten Buton, Sulawesi Tenggara 93756","Sumber Sari, Kec. Siontapina, Kabupaten Buton",SULAWESI TENGGARA,93756.0,Indonesia,,,,-5.32518,123.0983766,https://maps.google.com/?cid=0x0:0xccf7738871afb011,
perumahan,Komplek perumahan,Ulum house,"M4G4+5R, Siontapina, Kec. Siontapina, Kabupaten Buton, Sulawesi Tenggara","Kabupaten Buton, Sulawesi Tenggara",SULAWESI TENGGARA,,Indonesia,,,,-5.324533,123.107107,https://maps.google.com/?cid=0x0:0xafcdc23e9a5fe986,
perumahan,perumahan,Kec. Wolowa,"Kabupaten Buton, Sulawesi Tenggara","Kabupaten Buton, Sulawesi Tenggara",SULAWESI TENGGARA,,Indonesia,,,,-5.4247226,122.9313886,https://maps.google.com/?cid=0x0:0xa030da8146f922b1,
perumahan,Komplek perumahan,Wolowa,"JX59+PFH, Wolowa Baru, Kec. Wolowa, Kabupaten Buton, Sulawesi Tenggara","Kabupaten Buton, Sulawesi Tenggara",SULAWESI TENGGARA,,Indonesia,,,,-5.390691,122.9687309,https://maps.google.com/?cid=0x0:0xa4980bd0cf9611,
perumahan,Pembangunan Perumahan,Kecamatan Wolowa,"HWCG+HW3, Wolowa, Kec. Wolowa, Kabupaten Buton, Sulawesi Tenggara","Kabupaten Buton, Sulawesi Tenggara",SULAWESI TENGGARA,,Indonesia,,,,-5.428609,122.9273016,https://maps.google.com/?cid=0x0:0xbbed49a8c3f5b85b,
perumahan,perumahan,Rumah nadin,"HWHM+4R7, Jl. Poros Lasalimu, Wolowa, Kec. Wolowa, Kabupaten Buton, Sulawesi Tenggara 93754","Jl. Poros Lasalimu, Wolowa, Kec. Wolowa, Kabupaten Buton",SULAWESI TENGGARA,93754.0,Indonesia,,,,-5.422144,122.935065,https://maps.google.com/?cid=0x0:0x68be4bf3c7b13682,
perumahan,Komplek perumahan,Rumah uzan,"HWHM+4R7, Jl. Poros Lasalimu, Wolowa, Kec. Wolowa, Kabupaten Buton, Sulawesi Tenggara 93754","Jl. Poros Lasalimu, Wolowa, Kec. Wolowa, Kabupaten Buton",SULAWESI TENGGARA,93754.0,Indonesia,,,,-5.422749,122.9345106,https://maps.google.com/?cid=0x0:0x4de4f3c121617862,
perumahan,Pembangunan Perumahan,Wolowa baru,"JX3Q+RCR Jembatan Walompo, Jl. Poros Pasarwajo, Wolowa Baru, Kec. Wolowa, Kabupaten Buton, Sulawesi Tenggara 93756","Jl. Poros Pasarwajo, Wolowa Baru, Kec. Wolowa, Kabupaten Buton",SULAWESI TENGGARA,93756.0,Indonesia,,,,-5.3947621,122.9882844,https://maps.google.com/?cid=0x0:0xd9139a2ccf2c589f,
perumahan,Pembangunan Perumahan,Sukamaju,"JX97+Q99, Suka Maju, Kec. Wolowa, Kabupaten Buton, Sulawesi Tenggara 93754","Suka Maju, Kec. Wolowa, Kabupaten Buton",SULAWESI TENGGARA,93754.0,Indonesia,,,,-5.3805944,122.9634852,https://maps.google.com/?cid=0x0:0x2b88cbdf7c48f207,
perumahan,Kantor Pemerintah Distrik,Desa kaumbu,"JWWG+GPQ, Kaumbu, Kec. Wolowa, Kabupaten Buton, Sulawesi Tenggara","Kabupaten Buton, Sulawesi Tenggara",SULAWESI TENGGARA,,Indonesia,,,,-5.3536654,122.926862,https://maps.google.com/?cid=0x0:0x5e2f3ab76dbbf28a,
perumahan,perumahan,Rumah ocha,"HXW6+JH9, Matawia, Kec. Wolowa, Kabupaten Buton, Sulawesi Tenggara","Kabupaten Buton, Sulawesi Tenggara",SULAWESI TENGGARA,,Indonesia,,,,-5.4034688,122.9614862,https://maps.google.com/?cid=0x0:0xa9bda22458993718,
perumahan,Perhimpunan Pengembang Perumahan,La jungin,"HXR4+Q36, Jl. Poros Lasalimu, Matawia, Kec. Wolowa, Kabupaten Buton, Sulawesi Tenggara 93754","Jl. Poros Lasalimu, Matawia, Kec. Wolowa, Kabupaten Buton",SULAWESI TENGGARA,93754.0,Indonesia,,,,-5.4080919,122.9551319,https://maps.google.com/?cid=0x0:0x80d289bbdc0c683e,
perumahan,Kantor Hubungan Masyarakat,Desa Galanti,"HW88+CWC, Galanti, Kec. Wolowa, Kabupaten Buton, Sulawesi Tenggara 93754","Galanti, Kec. Wolowa, Kabupaten Buton",SULAWESI TENGGARA,93754.0,Indonesia,,,,-5.4339338,122.9172604,https://maps.google.com/?cid=0x0:0x6605326f783229cf,
perumahan,Komplek perumahan,Mama haji,"HWFH+8CX, Wolowa, Kec. Wolowa, Kabupaten Buton, Sulawesi Tenggara","Kabupaten Buton, Sulawesi Tenggara",SULAWESI TENGGARA,,Indonesia,,,,-5.426647,122.9286191,https://maps.google.com/?cid=0x0:0xe26bceb07ecb541c,
perumahan,perumahan,Rumah mama nobu,"HW88+6F6, Galanti, Kec. Wolowa, Kabupaten Buton, Sulawesi Tenggara","Kabupaten Buton, Sulawesi Tenggara",SULAWESI TENGGARA,,Indonesia,,,,-5.43443,122.916035,https://maps.google.com/?cid=0x0:0xa3664240375f0313,
perumahan,Pemasok minyak tanah,LASTRI CELLULER,"HWJQ+5RX, Wolowa, Kec. Wolowa, Kabupaten Buton, Sulawesi Tenggara","Kabupaten Buton, Sulawesi Tenggara",SULAWESI TENGGARA,,Indonesia,,,,-5.4195014,122.9396172,https://maps.google.com/?cid=0x0:0x23ab3e664904d844,
perumahan,Komplek perumahan,Rumah Karjiman Rahim,"HWHP+QP, Wolowa, Kec. Wolowa, Kabupaten Buton, Sulawesi Tenggara","Kabupaten Buton, Sulawesi Tenggara",SULAWESI TENGGARA,,Indonesia,,,,-5.4205954,122.9368034,https://maps.google.com/?cid=0x0:0xf7265fa8a7ec4345,
perumahan,Perhimpunan Pengembang Perumahan,Lahan 1,"HXX3+78, Matawia, Kec. Wolowa, Kabupaten Buton, Sulawesi Tenggara","Kabupaten Buton, Sulawesi Tenggara",SULAWESI TENGGARA,,Indonesia,,,,-5.4018096,122.9533128,https://maps.google.com/?cid=0x0:0x96ad6aa736a20baf,
perumahan,perumahan,Rumahku,"HXW6+Q9R, Jl. Poros Lasalimu, Matawia, Kec. Wolowa, Kabupaten Buton, Sulawesi Tenggara 93754","Jl. Poros Lasalimu, Matawia, Kec. Wolowa, Kabupaten Buton",SULAWESI TENGGARA,93754.0,Indonesia,,,,-5.4034919,122.9614974,https://maps.google.com/?cid=0x0:0x8423cdd5afd2d6e2,
perumahan,Komplek perumahan,Polindes Desa Bungi,"HXQ2+M4, Matawia, Kec. Wolowa, Kabupaten Buton, Sulawesi Tenggara","Kabupaten Buton, Sulawesi Tenggara",SULAWESI TENGGARA,,Indonesia,,,,-5.4107259,122.9503134,https://maps.google.com/?cid=0x0:0xf68a65abe9018200,
perumahan,Komplek perumahan,Rumah Rahmat,"JX4H+HWQ, Wolowa Baru, Kec. Wolowa, Kabupaten Buton, Sulawesi Tenggara","Kabupaten Buton, Sulawesi Tenggara",SULAWESI TENGGARA,,Indonesia,,,,-5.393534,122.979852,https://maps.google.com/?cid=0x0:0xb8b3c15bf08a77c3,
perumahan,Komplek perumahan,rumah uzan,"JWCQ+27R, Wolowa, Kec. Wolowa, Kabupaten Buton, Sulawesi Tenggara","Kabupaten Buton, Sulawesi Tenggara",SULAWESI TENGGARA,,Indonesia,,,,-5.3798866,122.9381321,https://maps.google.com/?cid=0x0:0x9dc05c6eb30d8296,
perumahan,perumahan,Sulawesi Tenggara 93754,"Kabupaten Buton, Sulawesi Tenggara","Kabupaten Buton, Sulawesi Tenggara",SULAWESI TENGGARA,,Indonesia,,,,-5.4060758,122.8761309,https://maps.google.com/?cid=0x0:0x59c5abb5b91bda19,
perumahan,perumahan,Kec. Wabula,"Kabupaten Buton, Sulawesi Tenggara","Kabupaten Buton, Sulawesi Tenggara",SULAWESI TENGGARA,,Indonesia,,,,-5.6077445,122.8594298,https://maps.google.com/?cid=0x0:0x7bb47d4b468e4d89,
perumahan,Komplek perumahan,BTN MEDY BRATA,"Jl. Elang.Km5 Blok D No 1, Bukit Wolio Indah, Kec. Wolio, Kota Bau-Bau, Sulawesi Tenggara 93711","Bukit Wolio Indah, Kec. Wolio, Kota Bau-Bau",SULAWESI TENGGARA,93711.0,Indonesia,,,,-5.4730218,122.6191481,https://maps.google.com/?cid=0x0:0x2d1941116c6846f8,
perumahan,Pembangunan Perumahan,Pekerjaan jalan poros wainda wula,"8F6J+CW9, Katampe, Kec. Siompu Bar., Kabupaten Buton, Sulawesi Tenggara 93752","Katampe, Kec. Siompu Bar., Kabupaten Buton",SULAWESI TENGGARA,93752.0,Indonesia,,,,-5.688374,122.4834552,https://maps.google.com/?cid=0x0:0x14c8324f6250d996,
perumahan,Komplek perumahan,Endang's House,"9VR4+8QR, Wabula, Kec. Wabula, Kabupaten Buton, Sulawesi Tenggara","Kabupaten Buton, Sulawesi Tenggara",SULAWESI TENGGARA,,Indonesia,,,,-5.6091436,122.8568894,https://maps.google.com/?cid=0x0:0x3a5e86bda4e88bfe,
perumahan,Sekolah,Kampung Pelangi Bajo Bahari Buton,"CVPW+Q3R, Holimombo, Kec. Wabula, Kabupaten Buton, Sulawesi Tenggara 93754","Holimombo, Kec. Wabula, Kabupaten Buton",SULAWESI TENGGARA,93754.0,Indonesia,82114850069.0,,,-5.5630007,122.8951309,https://maps.google.com/?cid=0x0:0x544646e143996bbb,
perumahan,perumahan,Mobil bayu,"9VP4+P95, Wabula, Kec. Wabula, Kabupaten Buton, Sulawesi Tenggara 93754","Wabula, Kec. Wabula, Kabupaten Buton",SULAWESI TENGGARA,93754.0,Indonesia,,,,-5.6132364,122.8559879,https://maps.google.com/?cid=0x0:0xe095c21d2318d315,
perumahan,perumahan,Rumah Alim di Wabula,"9VQ4+FX2, Jl. Poros, RT.06/RW.02, Burangasi, Kec. Wabula, Kabupaten Buton, Sulawesi Tenggara","Kabupaten Buton, Sulawesi Tenggara",SULAWESI TENGGARA,,Indonesia,,,,-5.6122751,122.8576921,https://maps.google.com/?cid=0x0:0x49f93f310653505a,
perumahan,Kantor Perusahaan,KAMPOENG LAMA AWAINOELOE,"CRMC+JM, Wabula, Kec. Wabula, Kabupaten Buton, Sulawesi Tenggara","Kabupaten Buton, Sulawesi Tenggara",SULAWESI TENGGARA,,Indonesia,,,,-5.5659463,122.8217099,https://maps.google.com/?cid=0x0:0xd985077df1e056ca,
perumahan,Komplek perumahan,Desa Wasampela,"CVP6+24H, Wasampela, Kec. Wabula, Kabupaten Buton, Sulawesi Tenggara 93754","Wasampela, Kec. Wabula, Kabupaten Buton",SULAWESI TENGGARA,93754.0,Indonesia,,,,-5.5649426,122.8603572,https://maps.google.com/?cid=0x0:0x62080ab4e453b4b,
perumahan,Komplek perumahan,Elisa Home,"9VV6+FFW, Wabula, Kec. Wabula, Kabupaten Buton, Sulawesi Tenggara 93754","Wabula, Kec. Wabula, Kabupaten Buton",SULAWESI TENGGARA,93754.0,Indonesia,,,,-5.6061886,122.8617104,https://maps.google.com/?cid=0x0:0xc3d6d8a56997d108,
perumahan,Tujuan Wisata,Desa Wasuemba,"9RQG+849, Wasuemba, Kec. Wabula, Kabupaten Buton, Sulawesi Tenggara","Kabupaten Buton, Sulawesi Tenggara",SULAWESI TENGGARA,,Indonesia,,,,-5.6117059,122.8253741,https://maps.google.com/?cid=0x0:0x7800197da68a48b2,
perumahan,Komplek perumahan,Rumah Arnis_Jhy,"9VV6+FFW, Wabula, Kec. Wabula, Kabupaten Buton, Sulawesi Tenggara 93754","Wabula, Kec. Wabula, Kabupaten Buton",SULAWESI TENGGARA,93754.0,Indonesia,,,,-5.6060858,122.8610683,https://maps.google.com/?cid=0x0:0xbcc8ef666ff22c8,
perumahan,Komplek perumahan,Willy house,"9VR5+JHW, Wabula, Kec. Wabula, Kabupaten Buton, Sulawesi Tenggara 93754","Wabula, Kec. Wabula, Kabupaten Buton",SULAWESI TENGGARA,93754.0,Indonesia,,,,-5.6083927,122.8589554,https://maps.google.com/?cid=0x0:0xddedadfa81249c3,
perumahan,Komplek perumahan,Sarlin home,"9VR5+JHW, Wabula, Kec. Wabula, Kabupaten Buton, Sulawesi Tenggara 93754","Wabula, Kec. Wabula, Kabupaten Buton",SULAWESI TENGGARA,93754.0,Indonesia,,,,-5.6084756,122.8587868,https://maps.google.com/?cid=0x0:0x739480d52e186d47,
perumahan,Komplek perumahan,Iswan house,"9VR5+CX2, Wabula, Kec. Wabula, Kabupaten Buton, Sulawesi Tenggara 93754","Wabula, Kec. Wabula, Kabupaten Buton",SULAWESI TENGGARA,93754.0,Indonesia,,,,-5.6089875,122.8598906,https://maps.google.com/?cid=0x0:0x19c15af0f5505d36,
perumahan,Komplek perumahan,Bpk Indra House,"9VV6+G3Q, Wabula, Kec. Wabula, Kabupaten Buton, Sulawesi Tenggara","Kabupaten Buton, Sulawesi Tenggara",SULAWESI TENGGARA,,Indonesia,,,,-5.6061579,122.8602197,https://maps.google.com/?cid=0x0:0x5016bb87171f8db2,
perumahan,Perumahan,Rumahnya Naci,"CVMV+732, Kec. Wabula, Kabupaten Buton, Sulawesi Tenggara 93754","Kec. Wabula, Kabupaten Buton",SULAWESI TENGGARA,93754.0,Indonesia,,,,-5.5668617,122.892654,https://maps.google.com/?cid=0x0:0x2c58efdda0ef7dc9,
perumahan,Komplek perumahan,Yayan Home,"CVMV+732, Holimombo, Kec. Wabula, Kabupaten Buton, Sulawesi Tenggara 93754","Holimombo, Kec. Wabula, Kabupaten Buton",SULAWESI TENGGARA,93754.0,Indonesia,,,,-5.5668158,122.8923999,https://maps.google.com/?cid=0x0:0x2eda414ac720d8e1,
perumahan,Komplek perumahan,Alma Fitri,"9VR5+5PQ, Wabula, Kec. Wabula, Kabupaten Buton, Sulawesi Tenggara 93754","Wabula, Kec. Wabula, Kabupaten Buton",SULAWESI TENGGARA,93754.0,Indonesia,,,,-5.6095433,122.8593577,https://maps.google.com/?cid=0x0:0x8130e4f4fc90b88a,
perumahan,Perhimpunan Pengembang Perumahan,"Desa Wasampela,","CV8G+C7H, Wasampela, Kec. Wabula, Kabupaten Buton, Sulawesi Tenggara","Kabupaten Buton, Sulawesi Tenggara",SULAWESI TENGGARA,,Indonesia,,,,-5.5839375,122.8757344,https://maps.google.com/?cid=0x0:0xe3279ed7a4f4328a,
perumahan,Pembangunan Perumahan,Rumah La malu,"9VP4+RPF, Wabula, Kec. Wabula, Kabupaten Buton, Sulawesi Tenggara","Kabupaten Buton, Sulawesi Tenggara",SULAWESI TENGGARA,,Indonesia,,,,-5.6129336,122.8568045,https://maps.google.com/?cid=0x0:0x82c9faf0dbf86adc,
perumahan,perumahan,Keluarga wabula,"H2FJ+R8J, Kuraa, Kec. Siontapina, Kabupaten Buton, Sulawesi Tenggara 93756","Kuraa, Kec. Siontapina, Kabupaten Buton",SULAWESI TENGGARA,93756.0,Indonesia,,,,-5.4256632,123.0306423,https://maps.google.com/?cid=0x0:0xcc0e6a1b60eacb14,
