Category,Real Category,Business Name,Address,City,State,Postal Code,Country,Phone,Email,Website,Latitude,Longitude,Map Link,Details Link
building materials,building materials,Kec. Malaka Tengah,"Kab. Malaka, Nusa Tenggara Tim.","Kab. Malaka, Nusa Tenggara Tim.",NUSA TENGGARA TIMUR,,Indonesia,,,,-95.674.014,1.249.052.173,https://maps.google.com/?cid=0x0:0xf28c5a63eda791ec,
building materials,Pusat Perbelanjaan,Kreasi Bangunan(betun),"CWH3+CJ5, Umakatahan, Kec. Malaka Tengah, Kabupaten Belu, Nusa Tenggara Tim.","Kabupaten Belu, Nusa Tenggara Tim.",NUSA TENGGARA TIMUR,,Indonesia,87773968995.0,,,-95.714.822,1.249.041.151,https://maps.google.com/?cid=0x0:0x62d977b6c8c66ac6,
building materials,Toko Bahan Bangunan,UD. SUMBER BANGUNAN,"Kamanasa, Kec. Malaka Tengah, Kabupaten Belu, Nusa Tenggara Tim.","Kabupaten Belu, Nusa Tenggara Tim.",NUSA TENGGARA TIMUR,,Indonesia,3892515055.0,,,-95.458.806,1.249.146.504,https://maps.google.com/?cid=0x0:0xd4c11746586268a3,
building materials,Toko,Mentari Bangunan,"CV9P+MW4, Jl. Ahmad Yani, Bakiruk, Kec. Malaka Tengah, Kab. Malaka, Nusa Tenggara Tim.","Kab. Malaka, Nusa Tenggara Tim.",NUSA TENGGARA TIMUR,,Indonesia,82122228701.0,,,-95.808.626,1.248.873.316,https://maps.google.com/?cid=0x0:0x8a1f4b8b027c49cd,
building materials,Toko Perlengkapan Rumah,MR.DIY,"Jl. Ahmad Yani, Wehali, Kec. Malaka Tengah, Kab. Malaka, Nusa Tenggara Tim. 85762","Wehali, Kec. Malaka Tengah, Kab. Malaka",NUSA TENGGARA TIMUR,85762.0,Indonesia,,,,-95.688.964,1.249.047.255,https://maps.google.com/?cid=0x0:0x16dded741ee7a7c4,
building materials,Jasa Konstruksi dan Bangunan,Batako Asia bagus,"CWX6+7F3, Jl. Ahmad Yani, Wehali, Kec. Malaka Tengah, Kab. Malaka, Nusa Tenggara Tim.","Kab. Malaka, Nusa Tenggara Tim.",NUSA TENGGARA TIMUR,,Indonesia,82114185498.0,,,-95.518.557,1.249.111.623,https://maps.google.com/?cid=0x0:0x911dbf12f8f126de,
building materials,Kontraktor Lantai,Jual Cat Epoxy Lantai - Jasa Cat Epoxy Lantai (DKK Floor),"Jl. H. Rain I No.47, RT.O6/RW.03, Ketapang, Kec. Cipondoh, Kota Tangerang, Banten 15148","RT.O6/RW.03, Ketapang, Kec. Cipondoh, Kota Tangerang",NUSA TENGGARA TIMUR,15148.0,Indonesia,81381750744.0,,,-61.829.051,1.066.971.934,https://maps.google.com/?cid=0x0:0xe676b6228e97ec2e,
building materials,building materials,UD.Malaka Jaya,"CWP4+FGW, Jl. Ahmad Yani, Wehali, Kec. Malaka Tengah, Kab. Malaka, Nusa Tenggara Tim.","Kab. Malaka, Nusa Tenggara Tim.",NUSA TENGGARA TIMUR,,Indonesia,,,,-95.637.669,1.249.063.436,https://maps.google.com/?cid=0x0:0xb918bdaa6bd91e74,
building materials,building materials,Star Bangunan,"9W37+585, Jln.maroeray, Besikama, Kec. Malaka Bar., Kab. Malaka, Nusa Tenggara Tim.","Kab. Malaka, Nusa Tenggara Tim.",NUSA TENGGARA TIMUR,,Indonesia,,,,-96.471.186,1.249.133.551,https://maps.google.com/?cid=0x0:0x78e796e78f09825f,
building materials,building materials,Kec. Malaka Bar.,"Kab. Malaka, Nusa Tenggara Tim.","Kab. Malaka, Nusa Tenggara Tim.",NUSA TENGGARA TIMUR,,Indonesia,,,,-9.650.892,1.249.204.033,https://maps.google.com/?cid=0x0:0x6667d744a7fa8e14,
building materials,Pusat Perbelanjaan,Kreasi Bangunan(betun),"CWH3+CJ5, Umakatahan, Kec. Malaka Tengah, Kabupaten Belu, Nusa Tenggara Tim.","Kabupaten Belu, Nusa Tenggara Tim.",NUSA TENGGARA TIMUR,,Indonesia,87773968995.0,,,-95.714.822,1.249.041.151,https://maps.google.com/?cid=0x0:0x62d977b6c8c66ac6,
building materials,Toko,Mentari Bangunan,"CV9P+MW4, Jl. Ahmad Yani, Bakiruk, Kec. Malaka Tengah, Kab. Malaka, Nusa Tenggara Tim.","Kab. Malaka, Nusa Tenggara Tim.",NUSA TENGGARA TIMUR,,Indonesia,82122228701.0,,,-95.808.626,1.248.873.316,https://maps.google.com/?cid=0x0:0x8a1f4b8b027c49cd,
building materials,Pusat Perbelanjaan,Flora Bangunan,"CWJ3+VXC, Jl. Betun Kota, Wehali, Kec. Malaka Tengah, Kab. Malaka, Nusa Tenggara Tim.","Kab. Malaka, Nusa Tenggara Tim.",NUSA TENGGARA TIMUR,,Indonesia,,,,-95.678.027,1.249.048.879,https://maps.google.com/?cid=0x0:0x8214973f3833f431,
building materials,building materials,Wekbet,"8R4H+63W, Jl. Ahmad Yani, Lorotolus, Kec. Wewiku, Kab. Malaka, Nusa Tenggara Tim.","Kab. Malaka, Nusa Tenggara Tim.",NUSA TENGGARA TIMUR,,Indonesia,,,,-96.939.728,1.248.288.466,https://maps.google.com/?cid=0x0:0x493b960d5f746378,
building materials,building materials,Kec. Wewiku,"Kab. Malaka, Nusa Tenggara Tim.","Kab. Malaka, Nusa Tenggara Tim.",NUSA TENGGARA TIMUR,,Indonesia,,,,-97.286.834,1.248.229.217,https://maps.google.com/?cid=0x0:0xb73802d134ae7e15,
building materials,Pusat Perbelanjaan,Kreasi Bangunan(betun),"CWH3+CJ5, Umakatahan, Kec. Malaka Tengah, Kabupaten Belu, Nusa Tenggara Tim.","Kabupaten Belu, Nusa Tenggara Tim.",NUSA TENGGARA TIMUR,,Indonesia,87773968995.0,,,-95.714.822,1.249.041.151,https://maps.google.com/?cid=0x0:0x62d977b6c8c66ac6,
building materials,Pembangunan Perumahan,Weakar,"6RV9+FJW, Jl. Lintas Selatan Timor, Lamea, Kec. Wewiku, Kab. Malaka, Nusa Tenggara Tim.","Kab. Malaka, Nusa Tenggara Tim.",NUSA TENGGARA TIMUR,,Indonesia,,,,-97.583.013,1.248.165.388,https://maps.google.com/?cid=0x0:0x1bdbf1d29d6def67,
building materials,Pembangunan Perumahan,Weoe,"8R5V+66H, Weoe, Kec. Wewiku, Kab. Malaka, Nusa Tenggara Tim.","Kab. Malaka, Nusa Tenggara Tim.",NUSA TENGGARA TIMUR,,Indonesia,,,,-96.919.285,1.248.431.006,https://maps.google.com/?cid=0x0:0x2174930bded4eaf5,
building materials,Toko Bahan Bangunan,engku bouk,"Kc, Laleten, Kec. Weliman, Kab. Malaka, Nusa Tenggara Tim. 85768","Laleten, Kec. Weliman, Kab. Malaka",NUSA TENGGARA TIMUR,85768.0,Indonesia,,,,-9.632.766,1.248.644.404,https://maps.google.com/?cid=0x0:0x1168da9966a6072c,
building materials,Jasa Konstruksi dan Bangunan,KARYA USAHA BETON,"CWW6+32C, Wehali, Kec. Malaka Tengah, Kab. Malaka, Nusa Tenggara Tim.","Kab. Malaka, Nusa Tenggara Tim.",NUSA TENGGARA TIMUR,,Indonesia,82322347444.0,,,-95.548.118,1.249.100.196,https://maps.google.com/?cid=0x0:0x543ba406924371f9,
building materials,Komplek perumahan,Haliboho,"8R7Q+64P, Weoe, Kec. Wewiku, Kab. Malaka, Nusa Tenggara Tim.","Kab. Malaka, Nusa Tenggara Tim.",NUSA TENGGARA TIMUR,,Indonesia,,,,-96.869.125,1.248.378.426,https://maps.google.com/?cid=0x0:0xc822bb02359216c5,
building materials,building materials,UD. VJ SKINU,"6QJX+3M, Lamea, Kec. Wewiku, Kab. Malaka, Nusa Tenggara Tim.","Kab. Malaka, Nusa Tenggara Tim.",NUSA TENGGARA TIMUR,,Indonesia,,,,-97.698.125,1.247.991.875,https://maps.google.com/?cid=0x0:0x3d038182252d2f79,
building materials,Jasa Konstruksi dan Bangunan,BATAKO NAGA MAS,"8V86+9J, Rabasa Biris, Kec. Wewiku, Kab. Malaka, Nusa Tenggara Tim.","Kab. Malaka, Nusa Tenggara Tim.",NUSA TENGGARA TIMUR,,Indonesia,81283135710.0,,,-96.841.219,1.248.615.286,https://maps.google.com/?cid=0x0:0xe716be7504bb8f88,
building materials,building materials,Kec. Weliman,"Kab. Malaka, Nusa Tenggara Tim.","Kab. Malaka, Nusa Tenggara Tim.",NUSA TENGGARA TIMUR,,Indonesia,,,,-96.037.062,1.248.631.665,https://maps.google.com/?cid=0x0:0xf0e75d6e55d21832,
building materials,Pusat Perbelanjaan,Kreasi Bangunan(betun),"CWH3+CJ5, Umakatahan, Kec. Malaka Tengah, Kabupaten Belu, Nusa Tenggara Tim.","Kabupaten Belu, Nusa Tenggara Tim.",NUSA TENGGARA TIMUR,,Indonesia,87773968995.0,,,-95.714.822,1.249.041.151,https://maps.google.com/?cid=0x0:0x62d977b6c8c66ac6,
building materials,Toko Bahan Bangunan,engku bouk,"Kc, Laleten, Kec. Weliman, Kab. Malaka, Nusa Tenggara Tim. 85768","Laleten, Kec. Weliman, Kab. Malaka",NUSA TENGGARA TIMUR,85768.0,Indonesia,,,,-9.632.766,1.248.644.404,https://maps.google.com/?cid=0x0:0x1168da9966a6072c,
building materials,Toko bahan makanan,UD.CAHAYA BENENAI,"9VV9+6P2, Unnamed Road, Haitimuk, Kec. Weliman, Kab. Malaka, Nusa Tenggara Tim.","Kab. Malaka, Nusa Tenggara Tim.",NUSA TENGGARA TIMUR,,Indonesia,,,,-96.069.818,1.248.692.586,https://maps.google.com/?cid=0x0:0x89371f5b2b869172,
building materials,Toko,Mentari Bangunan,"CV9P+MW4, Jl. Ahmad Yani, Bakiruk, Kec. Malaka Tengah, Kab. Malaka, Nusa Tenggara Tim.","Kab. Malaka, Nusa Tenggara Tim.",NUSA TENGGARA TIMUR,,Indonesia,82122228701.0,,,-95.808.626,1.248.873.316,https://maps.google.com/?cid=0x0:0x8a1f4b8b027c49cd,
building materials,Jasa Konstruksi dan Bangunan,BATAKO NAGA MAS,"8V86+9J, Rabasa Biris, Kec. Wewiku, Kab. Malaka, Nusa Tenggara Tim.","Kab. Malaka, Nusa Tenggara Tim.",NUSA TENGGARA TIMUR,,Indonesia,81283135710.0,,,-96.841.219,1.248.615.286,https://maps.google.com/?cid=0x0:0xe716be7504bb8f88,
building materials,Toko Perlengkapan Rumah,MR.DIY,"Jl. Ahmad Yani, Wehali, Kec. Malaka Tengah, Kab. Malaka, Nusa Tenggara Tim. 85762","Wehali, Kec. Malaka Tengah, Kab. Malaka",NUSA TENGGARA TIMUR,85762.0,Indonesia,,,,-95.688.964,1.249.047.255,https://maps.google.com/?cid=0x0:0x16dded741ee7a7c4,
building materials,building materials,Kec. Rinhat,"Kab. Malaka, Nusa Tenggara Tim.","Kab. Malaka, Nusa Tenggara Tim.",NUSA TENGGARA TIMUR,,Indonesia,,,,-96.068.737,1.247.395.444,https://maps.google.com/?cid=0x0:0x4329fb6fb0abac97,
building materials,building materials,Kec. Io Kufeu,"Kab. Malaka, Nusa Tenggara Tim.","Kab. Malaka, Nusa Tenggara Tim.",NUSA TENGGARA TIMUR,,Indonesia,,,,-94.886.212,1.247.776.663,https://maps.google.com/?cid=0x0:0x475fb1ea053baee0,
building materials,Kantor Perusahaan,PT. Mutuniaga Harmoni Harmoni Internasional,"Jl. Raya Bogor KM. 33,5 No. 19, Curug, Kec. Cimanggis, Kota Depok, Jawa Barat 16453","Curug, Kec. Cimanggis, Kota Depok",NUSA TENGGARA TIMUR,16453.0,Indonesia,8111111030.0,,,-63.923.935,1.068.656.029,https://maps.google.com/?cid=0x0:0xbf66a0bcb1bfd0d3,
building materials,Pemasok Energi Hijau,PT Mutuagung Lestari Tbk,"Jl. Raya Bogor KM 33 No.5 No.19, Curug, Kec. Cimanggis, Kota Depok, Jawa Barat 16453","Curug, Kec. Cimanggis, Kota Depok",NUSA TENGGARA TIMUR,16453.0,Indonesia,218740202.0,,,-63.928.498,1.068.654.107,https://maps.google.com/?cid=0x0:0x5da65424d839e711,
building materials,building materials,KAPUTU,"GV44+7HX, Manulea, Kec. Sasitamean, Kab. Malaka, Nusa Tenggara Tim.","Kab. Malaka, Nusa Tenggara Tim.",NUSA TENGGARA TIMUR,,Indonesia,,,,-9.494.261,1.248.564.893,https://maps.google.com/?cid=0x0:0x335686edd51108f6,
building materials,building materials,Kec. Sasitamean,"Kab. Malaka, Nusa Tenggara Tim.","Kab. Malaka, Nusa Tenggara Tim.",NUSA TENGGARA TIMUR,,Indonesia,,,,-94.937.986,1.248.545.297,https://maps.google.com/?cid=0x0:0x2c183c1f923eca0,
building materials,Sekolah Menengah Pertama,SDK Kaputu,"GV44+F3X, Manulea, Kec. Sasitamean, Kabupaten Belu, Nusa Tenggara Tim.","Kabupaten Belu, Nusa Tenggara Tim.",NUSA TENGGARA TIMUR,,Indonesia,,,,-94.937.519,1.248.552.215,https://maps.google.com/?cid=0x0:0x8aaa44ac272b2a6a,
building materials,building materials,Toko Fajar Indah,"CWM4+Q6F, Wehali, Kec. Malaka Tengah, Kabupaten Belu, Nusa Tenggara Tim.","Kabupaten Belu, Nusa Tenggara Tim.",NUSA TENGGARA TIMUR,,Indonesia,,,,-95.654.432,1.249.056.467,https://maps.google.com/?cid=0x0:0x19b812a08ea7cb14,
building materials,building materials,UD.Malaka Jaya,"CWP4+FGW, Jl. Ahmad Yani, Wehali, Kec. Malaka Tengah, Kab. Malaka, Nusa Tenggara Tim.","Kab. Malaka, Nusa Tenggara Tim.",NUSA TENGGARA TIMUR,,Indonesia,,,,-95.637.669,1.249.063.436,https://maps.google.com/?cid=0x0:0xb918bdaa6bd91e74,
building materials,Rumah Kaca,Laen manen,"HRFC+2VJ, Tniumanu, Kecamatan Laenmanen, Kab. Malaka, Nusa Tenggara Tim.","Kab. Malaka, Nusa Tenggara Tim.",NUSA TENGGARA TIMUR,,Indonesia,,,,-94.274.126,1.248.221.321,https://maps.google.com/?cid=0x0:0x6fb3c7395d7acb8a,
building materials,building materials,Kecamatan Laenmanen,"Kab. Malaka, Nusa Tenggara Tim.","Kab. Malaka, Nusa Tenggara Tim.",NUSA TENGGARA TIMUR,,Indonesia,,,,-93.585.949,1.248.167.028,https://maps.google.com/?cid=0x0:0xd9203262a8d01476,
building materials,Rumah Kaca,Nularan,"9V4X+H7, Kleseleon, Kec. Malaka Bar., Kab. Malaka, Nusa Tenggara Tim.","Kab. Malaka, Nusa Tenggara Tim.",NUSA TENGGARA TIMUR,,Indonesia,,,,-96.435.884,1.248.982.014,https://maps.google.com/?cid=0x0:0x6903c2dc962036cb,
building materials,building materials,Kec. Malaka Tim.,"Kab. Malaka, Nusa Tenggara Tim.","Kab. Malaka, Nusa Tenggara Tim.",NUSA TENGGARA TIMUR,,Indonesia,,,,-94.366.847,1.249.254.099,https://maps.google.com/?cid=0x0:0x781cbef4bfda23bf,
building materials,Toko Bahan Bangunan,UD. SUMBER BANGUNAN,"Kamanasa, Kec. Malaka Tengah, Kabupaten Belu, Nusa Tenggara Tim.","Kabupaten Belu, Nusa Tenggara Tim.",NUSA TENGGARA TIMUR,,Indonesia,3892515055.0,,,-95.458.806,1.249.146.504,https://maps.google.com/?cid=0x0:0xd4c11746586268a3,
building materials,Toko,Mentari Bangunan,"CV9P+MW4, Jl. Ahmad Yani, Bakiruk, Kec. Malaka Tengah, Kab. Malaka, Nusa Tenggara Tim.","Kab. Malaka, Nusa Tenggara Tim.",NUSA TENGGARA TIMUR,,Indonesia,82122228701.0,,,-95.808.626,1.248.873.316,https://maps.google.com/?cid=0x0:0x8a1f4b8b027c49cd,
building materials,Kantor Pemerintah,Boas Malaka Timur,"HW9C+8RV Boas, Dirma, Malaka Timur, Malaka Regency, East Nusa Tenggara","Kab. Malaka, Nusa Tenggara Tim.",NUSA TENGGARA TIMUR,,Indonesia,,,,-94.316.358,1.249.220.576,https://maps.google.com/?cid=0x0:0xbd17d34a0790a504,
building materials,Balai Pertemuan Desa,BPP BOAS,"HW8G+3H7, Dirma, Kec. Malaka Tim., Kab. Malaka, Nusa Tenggara Tim.","Kab. Malaka, Nusa Tenggara Tim.",NUSA TENGGARA TIMUR,,Indonesia,,,,-94.348.386,1.249.264.236,https://maps.google.com/?cid=0x0:0x2ef97eaae2db0776,
building materials,Komplek perumahan,Rumah Dani,"HW9C+QCG, Atambua, Kec. Malaka Tim., Kabupaten Belu, Nusa Tenggara Tim.","Kabupaten Belu, Nusa Tenggara Tim.",NUSA TENGGARA TIMUR,,Indonesia,,,,-9.430.996,1.249.205.811,https://maps.google.com/?cid=0x0:0xe2d6c1b365f0803c,
building materials,Tempat Ibadah,Laktutus,"PXCF+RRG, Naitimu, Kec. Tasifeto Bar., Kabupaten Belu, Nusa Tenggara Tim.","Kabupaten Belu, Nusa Tenggara Tim.",NUSA TENGGARA TIMUR,,Indonesia,,,,-92.779.493,1.249.745.904,https://maps.google.com/?cid=0x0:0x8a4d6386c488719b,
building materials,building materials,Kobalima Tim.,"Kab. Malaka, Nusa Tenggara Tim.","Kab. Malaka, Nusa Tenggara Tim.",NUSA TENGGARA TIMUR,,Indonesia,,,,-93.944.517,1.250.278.022,https://maps.google.com/?cid=0x0:0xb5225abdbad49017,
building materials,Gereja Katolik,Paroki Laktutus,"PXGH+GCX, Fohoeka, Kec. Nanaet Dubesi, Kabupaten Belu, Nusa Tenggara Tim.","Kabupaten Belu, Nusa Tenggara Tim.",NUSA TENGGARA TIMUR,,Indonesia,,,,-92.736.441,1.249.785.959,https://maps.google.com/?cid=0x0:0x9715fd5165ec83b9,
building materials,building materials,Kec. Kobalima,"Kab. Malaka, Nusa Tenggara Tim.","Kab. Malaka, Nusa Tenggara Tim.",NUSA TENGGARA TIMUR,,Indonesia,,,,-95.154.735,124.955.412,https://maps.google.com/?cid=0x0:0xcc4d01a8016289d6,
building materials,Toko,Webua,"FW9H+P7, Lakekun Bar., Kec. Kobalima, Kab. Malaka, Nusa Tenggara Tim.","Kab. Malaka, Nusa Tenggara Tim.",NUSA TENGGARA TIMUR,,Indonesia,82144961535.0,,,-9.530.678,124.928.179,https://maps.google.com/?cid=0x0:0x33aa86780d72174b,
building materials,Sekolah Dasar,SMPK SULAMA KADA,"FXP3+6QM, Lakekun Bar., Kec. Kobalima, Kabupaten Belu, Nusa Tenggara Tim.","Kabupaten Belu, Nusa Tenggara Tim.",NUSA TENGGARA TIMUR,,Indonesia,,,,-95.144.112,1.249.544.119,https://maps.google.com/?cid=0x0:0xbd9caec6498c985d,
building materials,Sekolah Dasar,SDK Namfalus,"G3C3+P99, Rainawe, Kec. Kobalima, Kabupaten Belu, Nusa Tenggara Tim.","Kabupaten Belu, Nusa Tenggara Tim.",NUSA TENGGARA TIMUR,,Indonesia,,,,-94.782.193,1.250.534.835,https://maps.google.com/?cid=0x0:0xfd2d3528f12b7ab,
building materials,Toko Perlengkapan Rumah,Saudara Bangunan,"9C43+5CV, Wee Karou, Kec. Loli, Kabupaten Sumba Barat, Nusa Tenggara Tim.","Kabupaten Sumba Barat, Nusa Tenggara Tim.",NUSA TENGGARA TIMUR,,Indonesia,,,,-96.445.021,119.403.561,https://maps.google.com/?cid=0x0:0xbd0bec82e2e0b21f,
building materials,Sekolah menengah,SMK NEGERI KOBALIMA,"G26R+4FW, Rainawe, Kec. Kobalima, Kabupaten Belu, Nusa Tenggara Tim.","Kabupaten Belu, Nusa Tenggara Tim.",NUSA TENGGARA TIMUR,,Indonesia,,,,-9.489.698,125.041.149,https://maps.google.com/?cid=0x0:0xc023b0418e59b71e,
building materials,Toko Bahan Bangunan,Toko Duta Bangunan,"CH3M+GQ8, Wai Rasa, Kec. Umbu Ratu Nggay Bar., Kabupaten Sumba Tengah, Nusa Tenggara Tim.","Kabupaten Sumba Tengah, Nusa Tenggara Tim.",NUSA TENGGARA TIMUR,,Indonesia,,,,-95.962.137,1.195.844.623,https://maps.google.com/?cid=0x0:0x7e609489f14c4fbb,
building materials,Sekolah,SD HALIBOT,"G2H6+R6, Sisi, Kec. Kobalima, Kabupaten Belu, Nusa Tenggara Tim.","Kabupaten Belu, Nusa Tenggara Tim.",NUSA TENGGARA TIMUR,,Indonesia,,,,-94.704.375,1.250.105.625,https://maps.google.com/?cid=0x0:0x239917ba9c54ad3e,
building materials,Toko Bahan Bangunan,UD. SUMBER BANGUNAN,"Kamanasa, Kec. Malaka Tengah, Kabupaten Belu, Nusa Tenggara Tim.","Kabupaten Belu, Nusa Tenggara Tim.",NUSA TENGGARA TIMUR,,Indonesia,3892515055.0,,,-95.458.806,1.249.146.504,https://maps.google.com/?cid=0x0:0xd4c11746586268a3,
building materials,Toko Bahan Bangunan,UD. D' KINGS,"Dirma, Kec. Malaka Tim., Kabupaten Belu, Nusa Tenggara Tim.","Kabupaten Belu, Nusa Tenggara Tim.",NUSA TENGGARA TIMUR,,Indonesia,,,,-94.328.687,1.249.220.469,https://maps.google.com/?cid=0x0:0xaa2ee8446609cc5,
building materials,building materials,Kec. Botin Leobele,"Kab. Malaka, Nusa Tenggara Tim.","Kab. Malaka, Nusa Tenggara Tim.",NUSA TENGGARA TIMUR,,Indonesia,,,,-948.414,124.917.243,https://maps.google.com/?cid=0x0:0xcf34bd10d5bf40cf,
building materials,Kantor Pemerintah,Desa babotin Selatan,"GV2C+674, Fatunesuk, Babotin Sel., Kec. Botin Leobele, Kab. Malaka","Kab. Malaka, Nusa Tenggara Tim.",NUSA TENGGARA TIMUR,,Indonesia,,,,-94.994.992,1.248.706.935,https://maps.google.com/?cid=0x0:0x6cf6b005ec417eb0,
building materials,building materials,Bene Bene,"GVFM+J5, Babotin Maemina, Kec. Botin Leobele, Kab. Malaka, Nusa Tenggara Tim.","Kab. Malaka, Nusa Tenggara Tim.",NUSA TENGGARA TIMUR,,Indonesia,,,,-94.760.286,1.248.829.587,https://maps.google.com/?cid=0x0:0xcd9263ec38e1cc64,
building materials,Pemasok Bahan Bangunan,Padang Sba Supermarket Bangunan Abadi,"Jl. Dr. Setia Budi No.43, RW.005, Pd. Kacang Tim., Kec. Pd. Aren, Kota Tangerang Selatan, Banten 15226","RW.005, Pd. Kacang Tim., Kec. Pd. Aren, Kota Tangerang Selatan",NUSA TENGGARA TIMUR,15226.0,Indonesia,,,,-62.517.547,1.066.957.343,https://maps.google.com/?cid=0x0:0xaf799aed97243379,
building materials,Toko Bahan Bangunan,AMERICAN STANDARD,"Jl. Pd. Kacang No.88B, Pd. Kacang Bar., Kec. Pd. Aren, Kota Tangerang Selatan, Banten 15226","Pd. Kacang Bar., Kec. Pd. Aren, Kota Tangerang Selatan",NUSA TENGGARA TIMUR,15226.0,Indonesia,81915009111.0,,,-62.545.614,1.066.882.218,https://maps.google.com/?cid=0x0:0x27029320050d6bb6,
building improvement,building improvement,Kec. Malaka Tengah,"Kab. Malaka, Nusa Tenggara Tim.","Kab. Malaka, Nusa Tenggara Tim.",NUSA TENGGARA TIMUR,,Indonesia,,,,-95.674.014,1.249.052.173,https://maps.google.com/?cid=0x0:0xf28c5a63eda791ec,
building improvement,Toko Perlengkapan Rumah,MR.DIY,"Jl. Ahmad Yani, Wehali, Kec. Malaka Tengah, Kab. Malaka, Nusa Tenggara Tim. 85762","Wehali, Kec. Malaka Tengah, Kab. Malaka",NUSA TENGGARA TIMUR,85762.0,Indonesia,,,,-95.688.964,1.249.047.255,https://maps.google.com/?cid=0x0:0x16dded741ee7a7c4,
building improvement,Pembangunan Perumahan,Kelas Malam,"FW57+PWH, Kamanasa, Kec. Malaka Tengah, Kab. Malaka, Nusa Tenggara Tim.","Kab. Malaka, Nusa Tenggara Tim.",NUSA TENGGARA TIMUR,,Indonesia,85327906262.0,,,-95.406.785,1.249.152.857,https://maps.google.com/?cid=0x0:0x291add58b8001a9f,
building improvement,building improvement,Kec. Malaka Bar.,"Kab. Malaka, Nusa Tenggara Tim.","Kab. Malaka, Nusa Tenggara Tim.",NUSA TENGGARA TIMUR,,Indonesia,,,,-9.650.892,1.249.204.033,https://maps.google.com/?cid=0x0:0x6667d744a7fa8e14,
building improvement,building improvement,Kec. Wewiku,"Kab. Malaka, Nusa Tenggara Tim.","Kab. Malaka, Nusa Tenggara Tim.",NUSA TENGGARA TIMUR,,Indonesia,,,,-97.286.834,1.248.229.217,https://maps.google.com/?cid=0x0:0xb73802d134ae7e15,
building improvement,Rumah Sakit,RUMAH SAKIT PRATAMA WEWIKU,"6RVF+V6, Lamea, Kec. Wewiku, Kab. Malaka, Nusa Tenggara Tim.","Kab. Malaka, Nusa Tenggara Tim.",NUSA TENGGARA TIMUR,,Indonesia,,,,-97.553.734,1.248.231.022,https://maps.google.com/?cid=0x0:0x574cbfd3a54e7bb,
building improvement,Jasa Konstruksi dan Bangunan,KARYA USAHA BETON,"CWW6+32C, Wehali, Kec. Malaka Tengah, Kab. Malaka, Nusa Tenggara Tim.","Kab. Malaka, Nusa Tenggara Tim.",NUSA TENGGARA TIMUR,,Indonesia,82322347444.0,,,-95.548.118,1.249.100.196,https://maps.google.com/?cid=0x0:0x543ba406924371f9,
building improvement,Pembangunan Perumahan,Weakar,"6RV9+FJW, Jl. Lintas Selatan Timor, Lamea, Kec. Wewiku, Kab. Malaka, Nusa Tenggara Tim.","Kab. Malaka, Nusa Tenggara Tim.",NUSA TENGGARA TIMUR,,Indonesia,,,,-97.583.013,1.248.165.388,https://maps.google.com/?cid=0x0:0x1bdbf1d29d6def67,
building improvement,Komplek perumahan,Umasukaer,"CV8C+PX6, Bakiruk, Kec. Malaka Tengah, Kab. Malaka, Nusa Tenggara Tim.","Kab. Malaka, Nusa Tenggara Tim.",NUSA TENGGARA TIMUR,,Indonesia,,,,-95.832.066,1.248.723.844,https://maps.google.com/?cid=0x0:0x4915a8bbc75b5943,
building improvement,Kantor Pemerintah,Lembaga Kebijakan Pengadaan Barang/Jasa Pemerintah,"Kompleks Rasuna Epicentrum, Jalan Epicentrum Tengah Lot 11 B, RT.2/RW.5, Karet Kuningan, Kecamatan Setiabudi, Kota Jakarta Selatan, Daerah Khusus Ibukota Jakarta 12940","Jalan Epicentrum Tengah Lot 11 B, RT.2/RW.5, Karet Kuningan, Kecamatan Setiabudi, Kota Jakarta Selatan",NUSA TENGGARA TIMUR,12940.0,Indonesia,2129935577.0,,,-62.167.542,1.068.333.046,https://maps.google.com/?cid=0x0:0x7567dbac7e5450ee,
building improvement,building improvement,Wisma Victory,"CWR5+J7R, Wehali, Kec. Malaka Tengah, Kab. Malaka, Nusa Tenggara Tim.","Kab. Malaka, Nusa Tenggara Tim.",NUSA TENGGARA TIMUR,,Indonesia,81252319775.0,,,-95.583.875,1.249.081.406,https://maps.google.com/?cid=0x0:0xb1353eb6bddca762,
building improvement,Komplek perumahan,Nurobo,"JRWF+M2X, Jl. Nesam - Halilulik, Meotroy, Kecamatan Laenmanen, Kab. Malaka, Nusa Tenggara Tim.","Kab. Malaka, Nusa Tenggara Tim.",NUSA TENGGARA TIMUR,,Indonesia,,,,-93.532.572,1.248.226.213,https://maps.google.com/?cid=0x0:0x4d653e6065ead99b,
building improvement,Perusahaan Media,Pulbaket,"Jl. Letjen M.T. Haryono No.6, RT.6/RW.12, Bidara Cina, Kecamatan Jatinegara, Jakarta, Daerah Khusus Ibukota Jakarta 13330","RT.6/RW.12, Bidara Cina, Kecamatan Jatinegara, Jakarta",NUSA TENGGARA TIMUR,13330.0,Indonesia,81574404040.0,,,-62.463.513,1.068.704.794,https://maps.google.com/?cid=0x0:0x490cd6c0a897b845,
building improvement,building improvement,CV. MALAKA ELECTRICATAMA,"Town House Malaka Asri No.12A, RT.001/009, Telajung, Kec. Cikarang Bar., Kabupaten Bekasi, Jawa Barat 17530","RT.001/009, Telajung, Kec. Cikarang Bar., Kabupaten Bekasi",NUSA TENGGARA TIMUR,17530.0,Indonesia,2182592911.0,,,-63.188.169,1.070.640.134,https://maps.google.com/?cid=0x0:0xee3b63dd365deba5,
building improvement,Pusat Kesehatan Masyarakat,Puskesmas Weliman,"9V97+9RJ, Unnamed Road, Laleten, Kec. Weliman, Kab. Malaka, Nusa Tenggara Tim.","Kab. Malaka, Nusa Tenggara Tim.",NUSA TENGGARA TIMUR,,Indonesia,,,,-96.315.296,1.248.645.094,https://maps.google.com/?cid=0x0:0x195fe14175fdb9ef,
building improvement,Rumah Sakit,Puskesmas Betun,"Wehali, Kec. Malaka Tengah, Kab. Malaka, Nusa Tenggara Tim.","Kab. Malaka, Nusa Tenggara Tim.",NUSA TENGGARA TIMUR,,Indonesia,,,,-95.676.166,1.249.035.852,https://maps.google.com/?cid=0x0:0x206b06f49dcf9a48,
building improvement,building improvement,Kec. Weliman,"Kab. Malaka, Nusa Tenggara Tim.","Kab. Malaka, Nusa Tenggara Tim.",NUSA TENGGARA TIMUR,,Indonesia,,,,-96.037.062,1.248.631.665,https://maps.google.com/?cid=0x0:0xf0e75d6e55d21832,
building improvement,building improvement,Kec. Rinhat,"Kab. Malaka, Nusa Tenggara Tim.","Kab. Malaka, Nusa Tenggara Tim.",NUSA TENGGARA TIMUR,,Indonesia,,,,-96.068.737,1.247.395.444,https://maps.google.com/?cid=0x0:0x4329fb6fb0abac97,
building improvement,building improvement,Kec. Io Kufeu,"Kab. Malaka, Nusa Tenggara Tim.","Kab. Malaka, Nusa Tenggara Tim.",NUSA TENGGARA TIMUR,,Indonesia,,,,-94.886.212,1.247.776.663,https://maps.google.com/?cid=0x0:0x475fb1ea053baee0,
building improvement,building improvement,Kec. Sasitamean,"Kab. Malaka, Nusa Tenggara Tim.","Kab. Malaka, Nusa Tenggara Tim.",NUSA TENGGARA TIMUR,,Indonesia,,,,-94.937.986,1.248.545.297,https://maps.google.com/?cid=0x0:0x2c183c1f923eca0,
building improvement,Komplek perumahan,Mas Usman,"M24F+796, Alas Utara, Kobalima Tim., Kab. Malaka, Nusa Tenggara Tim.","Kab. Malaka, Nusa Tenggara Tim.",NUSA TENGGARA TIMUR,,Indonesia,,,,-93.441.244,1.250.239.323,https://maps.google.com/?cid=0x0:0xa8198b1a922640be,
building improvement,Komplek perumahan,Uma Klusin Manehat Maneikun,"H2RW+3C3, Alas Sel., Kobalima Tim., Kab. Malaka, Nusa Tenggara Tim.","Kab. Malaka, Nusa Tenggara Tim.",NUSA TENGGARA TIMUR,,Indonesia,,,,-94.099.966,1.250.475.027,https://maps.google.com/?cid=0x0:0x27fabfa7f72389d1,
building improvement,building improvement,Kecamatan Laenmanen,"Kab. Malaka, Nusa Tenggara Tim.","Kab. Malaka, Nusa Tenggara Tim.",NUSA TENGGARA TIMUR,,Indonesia,,,,-93.585.949,1.248.167.028,https://maps.google.com/?cid=0x0:0xd9203262a8d01476,
building improvement,Rumah Kaca,Laen manen,"HRFC+2VJ, Tniumanu, Kecamatan Laenmanen, Kab. Malaka, Nusa Tenggara Tim.","Kab. Malaka, Nusa Tenggara Tim.",NUSA TENGGARA TIMUR,,Indonesia,,,,-94.274.126,1.248.221.321,https://maps.google.com/?cid=0x0:0x6fb3c7395d7acb8a,
building improvement,Komplek perumahan,Nurobo,"JRWF+M2X, Jl. Nesam - Halilulik, Meotroy, Kecamatan Laenmanen, Kab. Malaka, Nusa Tenggara Tim.","Kab. Malaka, Nusa Tenggara Tim.",NUSA TENGGARA TIMUR,,Indonesia,,,,-93.532.572,1.248.226.213,https://maps.google.com/?cid=0x0:0x4d653e6065ead99b,
building improvement,Sekolah,Desa tesa,"JRGF+2GC, Tesa, Kecamatan Laenmanen, Kabupaten Belu, Nusa Tenggara Tim.","Kabupaten Belu, Nusa Tenggara Tim.",NUSA TENGGARA TIMUR,,Indonesia,,,,-93.749.447,1.248.237.803,https://maps.google.com/?cid=0x0:0xb0672330a054d043,
building improvement,Kantor Pemerintah,Desa tesa,"JRJ8+9JR, Tesa, Kecamatan Laenmanen, Kab. Malaka, Nusa Tenggara Tim.","Kab. Malaka, Nusa Tenggara Tim.",NUSA TENGGARA TIMUR,,Indonesia,,,,-93.690.244,1.248.165.147,https://maps.google.com/?cid=0x0:0xf5e73dd6cb20e10d,
building improvement,Sekolah,SDI WEHAE,"HRVC+G9H, Kapitanmeo, Kecamatan Laenmanen, Kabupaten Belu, Nusa Tenggara Tim.","Kabupaten Belu, Nusa Tenggara Tim.",NUSA TENGGARA TIMUR,,Indonesia,,,,-94.061.896,1.248.209.782,https://maps.google.com/?cid=0x0:0x8ebf3ddb03a7f19,
building improvement,building improvement,Rumah Pak Yan Manek,"HVQW+4MF, Kusa, Kec. Malaka Tim., Kab. Malaka, Nusa Tenggara Tim.","Kab. Malaka, Nusa Tenggara Tim.",NUSA TENGGARA TIMUR,,Indonesia,,,,-94.121.805,1.248.966.718,https://maps.google.com/?cid=0x0:0x1ba4d3d2df90355,
building improvement,Pembangunan Perumahan,Kelas Malam,"FW57+PWH, Kamanasa, Kec. Malaka Tengah, Kab. Malaka, Nusa Tenggara Tim.","Kab. Malaka, Nusa Tenggara Tim.",NUSA TENGGARA TIMUR,,Indonesia,85327906262.0,,,-95.406.785,1.249.152.857,https://maps.google.com/?cid=0x0:0x291add58b8001a9f,
building improvement,building improvement,Kec. Malaka Tim.,"Kab. Malaka, Nusa Tenggara Tim.","Kab. Malaka, Nusa Tenggara Tim.",NUSA TENGGARA TIMUR,,Indonesia,,,,-94.366.847,1.249.254.099,https://maps.google.com/?cid=0x0:0x781cbef4bfda23bf,
building improvement,building improvement,Kec. Kobalima,"Kab. Malaka, Nusa Tenggara Tim.","Kab. Malaka, Nusa Tenggara Tim.",NUSA TENGGARA TIMUR,,Indonesia,,,,-95.154.735,124.955.412,https://maps.google.com/?cid=0x0:0xcc4d01a8016289d6,
building improvement,Sekolah,SD INPRES LALEBUN,"G3R4+QC4, Alas Sel., Kobalima Tim., Kab. Malaka, Nusa Tenggara Tim.","Kab. Malaka, Nusa Tenggara Tim.",NUSA TENGGARA TIMUR,,Indonesia,,,,-94.581.097,1.250.560.728,https://maps.google.com/?cid=0x0:0xfcacccb2cac82850,
building improvement,Sekolah Menengah Umum,SMKN Kobalima,"FXV9+97C, Jl. Lintas Batas Timor, Rainawe, Kec. Kobalima, Kab. Malaka, Nusa Tenggara Tim.","Kab. Malaka, Nusa Tenggara Tim.",NUSA TENGGARA TIMUR,,Indonesia,,,,-95.065.726,1.249.681.396,https://maps.google.com/?cid=0x0:0x80cb92175a72ca9,
building improvement,Sekolah,SDK RAISIKUN,"Alas Sel., Kobalima Tim., Kabupaten Belu, Nusa Tenggara Tim.","Kabupaten Belu, Nusa Tenggara Tim.",NUSA TENGGARA TIMUR,,Indonesia,,,,-94.151.904,1.250.457.504,https://maps.google.com/?cid=0x0:0xff73bf9f9a5033b0,
building improvement,Sekolah Dasar,SMPK SULAMA KADA,"FXP3+6QM, Lakekun Bar., Kec. Kobalima, Kabupaten Belu, Nusa Tenggara Tim.","Kabupaten Belu, Nusa Tenggara Tim.",NUSA TENGGARA TIMUR,,Indonesia,,,,-95.144.112,1.249.544.119,https://maps.google.com/?cid=0x0:0xbd9caec6498c985d,
building improvement,Sekolah Dasar,SD inpres Forek,"J2H9+H8M, Kotabiru, Kobalima Tim., Kabupaten Belu, Nusa Tenggara Tim.","Kabupaten Belu, Nusa Tenggara Tim.",NUSA TENGGARA TIMUR,,Indonesia,,,,-93.710.311,1.250.182.851,https://maps.google.com/?cid=0x0:0x947ebe104ed93be1,
building improvement,Sekolah menengah,SMK NEGERI KOBALIMA,"G26R+4FW, Rainawe, Kec. Kobalima, Kabupaten Belu, Nusa Tenggara Tim.","Kabupaten Belu, Nusa Tenggara Tim.",NUSA TENGGARA TIMUR,,Indonesia,,,,-9.489.698,125.041.149,https://maps.google.com/?cid=0x0:0xc023b0418e59b71e,
building improvement,Kantor Pemerintah,Desa babotin Selatan,"GV2C+674, Fatunesuk, Babotin Sel., Kec. Botin Leobele, Kab. Malaka","Kab. Malaka, Nusa Tenggara Tim.",NUSA TENGGARA TIMUR,,Indonesia,,,,-94.994.992,1.248.706.935,https://maps.google.com/?cid=0x0:0x6cf6b005ec417eb0,
building improvement,Kantor Pemerintah,Kantor Desa Babotin Selatan,"FVWC+RR4, Babotin Sel., Kec. Botin Leobele, Kab. Malaka, Nusa Tenggara Tim.","Kab. Malaka, Nusa Tenggara Tim.",NUSA TENGGARA TIMUR,,Indonesia,,,,-95.029.802,1.248.720.764,https://maps.google.com/?cid=0x0:0x3124d09653672f6d,
building improvement,building improvement,Kec. Botin Leobele,"Kab. Malaka, Nusa Tenggara Tim.","Kab. Malaka, Nusa Tenggara Tim.",NUSA TENGGARA TIMUR,,Indonesia,,,,-948.414,124.917.243,https://maps.google.com/?cid=0x0:0xcf34bd10d5bf40cf,
hardware store,hardware store,Kec. Malaka Tengah,"Kab. Malaka, Nusa Tenggara Tim.","Kab. Malaka, Nusa Tenggara Tim.",NUSA TENGGARA TIMUR,,Indonesia,,,,-95.674.014,1.249.052.173,https://maps.google.com/?cid=0x0:0xf28c5a63eda791ec,
hardware store,Toko Perlengkapan Rumah,MR.DIY,"Jl. Ahmad Yani, Wehali, Kec. Malaka Tengah, Kab. Malaka, Nusa Tenggara Tim. 85762","Wehali, Kec. Malaka Tengah, Kab. Malaka",NUSA TENGGARA TIMUR,85762.0,Indonesia,,,,-95.688.964,1.249.047.255,https://maps.google.com/?cid=0x0:0x16dded741ee7a7c4,
hardware store,Pusat Perbelanjaan,Kreasi Bangunan(betun),"CWH3+CJ5, Umakatahan, Kec. Malaka Tengah, Kabupaten Belu, Nusa Tenggara Tim.","Kabupaten Belu, Nusa Tenggara Tim.",NUSA TENGGARA TIMUR,,Indonesia,87773968995.0,,,-95.714.822,1.249.041.151,https://maps.google.com/?cid=0x0:0x62d977b6c8c66ac6,
hardware store,hardware store,Kec. Malaka Bar.,"Kab. Malaka, Nusa Tenggara Tim.","Kab. Malaka, Nusa Tenggara Tim.",NUSA TENGGARA TIMUR,,Indonesia,,,,-9.650.892,1.249.204.033,https://maps.google.com/?cid=0x0:0x6667d744a7fa8e14,
hardware store,Pusat Perbelanjaan,Kreasi Bangunan(betun),"CWH3+CJ5, Umakatahan, Kec. Malaka Tengah, Kabupaten Belu, Nusa Tenggara Tim.","Kabupaten Belu, Nusa Tenggara Tim.",NUSA TENGGARA TIMUR,,Indonesia,87773968995.0,,,-95.714.822,1.249.041.151,https://maps.google.com/?cid=0x0:0x62d977b6c8c66ac6,
hardware store,Toko Perlengkapan Rumah,MR.DIY,"Jl. Ahmad Yani, Wehali, Kec. Malaka Tengah, Kab. Malaka, Nusa Tenggara Tim. 85762","Wehali, Kec. Malaka Tengah, Kab. Malaka",NUSA TENGGARA TIMUR,85762.0,Indonesia,,,,-95.688.964,1.249.047.255,https://maps.google.com/?cid=0x0:0x16dded741ee7a7c4,
hardware store,Toko,UD.ARAVA,"Rabasa, Kec. Malaka Bar., Kab. Malaka, Nusa Tenggara Tim. 85763","Kec. Malaka Bar., Kab. Malaka",NUSA TENGGARA TIMUR,85763.0,Indonesia,81316912703.0,,,-96.714.945,1.248.889.744,https://maps.google.com/?cid=0x0:0x4b01f48befc52bc0,
hardware store,Toko Elektronik,Thonbers Computer Malaka,"CWR5+M8P, Jl. Ahmad Yani, Wehali, Kec. Malaka Tengah, Kab. Malaka, Nusa Tenggara Tim.","Kab. Malaka, Nusa Tenggara Tim.",NUSA TENGGARA TIMUR,,Indonesia,81238320004.0,,,-95.581.449,1.249.083.564,https://maps.google.com/?cid=0x0:0x4cb2148b77bb503c,
hardware store,hardware store,Kec. Wewiku,"Kab. Malaka, Nusa Tenggara Tim.","Kab. Malaka, Nusa Tenggara Tim.",NUSA TENGGARA TIMUR,,Indonesia,,,,-97.286.834,1.248.229.217,https://maps.google.com/?cid=0x0:0xb73802d134ae7e15,
hardware store,Kelompok Bermain,Paud Webadaen,"7RXX+WMH, Weoe, Kec. Wewiku, Kab. Malaka, Nusa Tenggara Tim.","Kab. Malaka, Nusa Tenggara Tim.",NUSA TENGGARA TIMUR,,Indonesia,,,,-97.001.926,1.248.492.457,https://maps.google.com/?cid=0x0:0xd14103bdd167b2d3,
hardware store,Kios,Halibasar,"8V89+V6, Halibasar, Kec. Wewiku, Kabupaten Belu, Nusa Tenggara Tim.","Kabupaten Belu, Nusa Tenggara Tim.",NUSA TENGGARA TIMUR,,Indonesia,81237280802.0,,,-96.799.028,1.248.651.757,https://maps.google.com/?cid=0x0:0xbb8b35e163f74d2e,
hardware store,Toko Elektronik,Toko Amanda Karya,"CWH2+X32, Jl. Ahmad Yani, Wehali, Kec. Malaka Tengah, Kab. Malaka, Nusa Tenggara Tim.","Kab. Malaka, Nusa Tenggara Tim.",NUSA TENGGARA TIMUR,,Indonesia,,,,-95.701.082,1.249.001.489,https://maps.google.com/?cid=0x0:0x439644570851c99b,
hardware store,Komplek perumahan,Haliboho,"8R7Q+64P, Weoe, Kec. Wewiku, Kab. Malaka, Nusa Tenggara Tim.","Kab. Malaka, Nusa Tenggara Tim.",NUSA TENGGARA TIMUR,,Indonesia,,,,-96.869.125,1.248.378.426,https://maps.google.com/?cid=0x0:0xc822bb02359216c5,
hardware store,Toko Komputer,Ribersa Komputer,"Weoe, Kec. Wewiku, Kab. Malaka, Nusa Tenggara Tim. 85763","Kec. Wewiku, Kab. Malaka",NUSA TENGGARA TIMUR,85763.0,Indonesia,8123753898.0,,,-96.901.845,1.248.372.505,https://maps.google.com/?cid=0x0:0xb0327e31060249d9,
hardware store,Pembangunan Perumahan,Weakar,"6RV9+FJW, Jl. Lintas Selatan Timor, Lamea, Kec. Wewiku, Kab. Malaka, Nusa Tenggara Tim.","Kab. Malaka, Nusa Tenggara Tim.",NUSA TENGGARA TIMUR,,Indonesia,,,,-97.583.013,1.248.165.388,https://maps.google.com/?cid=0x0:0x1bdbf1d29d6def67,
hardware store,Toko Elektronik,Thonbers Computer Malaka,"CWR5+M8P, Jl. Ahmad Yani, Wehali, Kec. Malaka Tengah, Kab. Malaka, Nusa Tenggara Tim.","Kab. Malaka, Nusa Tenggara Tim.",NUSA TENGGARA TIMUR,,Indonesia,81238320004.0,,,-95.581.449,1.249.083.564,https://maps.google.com/?cid=0x0:0x4cb2148b77bb503c,
hardware store,hardware store,Kec. Weliman,"Kab. Malaka, Nusa Tenggara Tim.","Kab. Malaka, Nusa Tenggara Tim.",NUSA TENGGARA TIMUR,,Indonesia,,,,-96.037.062,1.248.631.665,https://maps.google.com/?cid=0x0:0xf0e75d6e55d21832,
hardware store,Pusat Perbelanjaan,Kreasi Bangunan(betun),"CWH3+CJ5, Umakatahan, Kec. Malaka Tengah, Kabupaten Belu, Nusa Tenggara Tim.","Kabupaten Belu, Nusa Tenggara Tim.",NUSA TENGGARA TIMUR,,Indonesia,87773968995.0,,,-95.714.822,1.249.041.151,https://maps.google.com/?cid=0x0:0x62d977b6c8c66ac6,
hardware store,Toko Perlengkapan Rumah,MR.DIY,"Jl. Ahmad Yani, Wehali, Kec. Malaka Tengah, Kab. Malaka, Nusa Tenggara Tim. 85762","Wehali, Kec. Malaka Tengah, Kab. Malaka",NUSA TENGGARA TIMUR,85762.0,Indonesia,,,,-95.688.964,1.249.047.255,https://maps.google.com/?cid=0x0:0x16dded741ee7a7c4,
hardware store,Toko,UD.ARAVA,"Rabasa, Kec. Malaka Bar., Kab. Malaka, Nusa Tenggara Tim. 85763","Kec. Malaka Bar., Kab. Malaka",NUSA TENGGARA TIMUR,85763.0,Indonesia,81316912703.0,,,-96.714.945,1.248.889.744,https://maps.google.com/?cid=0x0:0x4b01f48befc52bc0,
hardware store,hardware store,Kec. Rinhat,"Kab. Malaka, Nusa Tenggara Tim.","Kab. Malaka, Nusa Tenggara Tim.",NUSA TENGGARA TIMUR,,Indonesia,,,,-96.068.737,1.247.395.444,https://maps.google.com/?cid=0x0:0x4329fb6fb0abac97,
hardware store,Toko Bahan Bangunan,Grand Hardware  Enterprise Sdn Bhd,"Malaysia, Malacca, MelakaTaman Cheng Mutiara, Bertam Malim Jalan Cm 2, 邮政编码: 75250","Malacca, MelakaTaman Cheng Mutiara, Bertam Malim Jalan Cm 2",NUSA TENGGARA TIMUR,75250.0,Indonesia,6063351853.0,,,2.245.924,1.022.240.592,https://maps.google.com/?cid=0x0:0x8284f41d5614786a,
hardware store,Toko Bahan Bangunan,Top Grand Sanitaryware Sdn Bhd,"No. 6, 6-1, 6-2 Jalan Kpks 1, Kompleks Perniagaan kota Syahbandar, 75200 Malacca, Malaysia",Malacca,NUSA TENGGARA TIMUR,75200.0,Indonesia,6062880184.0,,,21.980.613,1.022.308.983,https://maps.google.com/?cid=0x0:0xc769ca425416a31d,
hardware store,hardware store,Kec. Io Kufeu,"Kab. Malaka, Nusa Tenggara Tim.","Kab. Malaka, Nusa Tenggara Tim.",NUSA TENGGARA TIMUR,,Indonesia,,,,-94.886.212,1.247.776.663,https://maps.google.com/?cid=0x0:0x475fb1ea053baee0,
hardware store,Toko Bahan Bangunan,Grand Hardware  Enterprise Sdn Bhd,"Malaysia, Malacca, MelakaTaman Cheng Mutiara, Bertam Malim Jalan Cm 2, 邮政编码: 75250","Malacca, MelakaTaman Cheng Mutiara, Bertam Malim Jalan Cm 2",NUSA TENGGARA TIMUR,75250.0,Indonesia,6063351853.0,,,2.245.924,1.022.240.592,https://maps.google.com/?cid=0x0:0x8284f41d5614786a,
hardware store,Toko Bahan Bangunan,Top Grand Sanitaryware Sdn Bhd,"No. 6, 6-1, 6-2 Jalan Kpks 1, Kompleks Perniagaan kota Syahbandar, 75200 Malacca, Malaysia",Malacca,NUSA TENGGARA TIMUR,75200.0,Indonesia,6062880184.0,,,21.980.613,1.022.308.983,https://maps.google.com/?cid=0x0:0xc769ca425416a31d,
hardware store,hardware store,Kec. Sasitamean,"Kab. Malaka, Nusa Tenggara Tim.","Kab. Malaka, Nusa Tenggara Tim.",NUSA TENGGARA TIMUR,,Indonesia,,,,-94.937.986,1.248.545.297,https://maps.google.com/?cid=0x0:0x2c183c1f923eca0,
hardware store,Sekolah Menengah Pertama,SDK Kaputu,"GV44+F3X, Manulea, Kec. Sasitamean, Kabupaten Belu, Nusa Tenggara Tim.","Kabupaten Belu, Nusa Tenggara Tim.",NUSA TENGGARA TIMUR,,Indonesia,,,,-94.937.519,1.248.552.215,https://maps.google.com/?cid=0x0:0x8aaa44ac272b2a6a,
hardware store,hardware store,KAPUTU,"GV44+7HX, Manulea, Kec. Sasitamean, Kab. Malaka, Nusa Tenggara Tim.","Kab. Malaka, Nusa Tenggara Tim.",NUSA TENGGARA TIMUR,,Indonesia,,,,-9.494.261,1.248.564.893,https://maps.google.com/?cid=0x0:0x335686edd51108f6,
hardware store,Komplek perumahan,arama,"GV36+F4X, Manulea, Kec. Sasitamean, Kab. Malaka, Nusa Tenggara Tim.","Kab. Malaka, Nusa Tenggara Tim.",NUSA TENGGARA TIMUR,,Indonesia,,,,-94.962.683,1.248.603.638,https://maps.google.com/?cid=0x0:0x415979f4cba28ecc,
hardware store,Toko Bahan Bangunan,UD. D' KINGS,"Dirma, Kec. Malaka Tim., Kabupaten Belu, Nusa Tenggara Tim.","Kabupaten Belu, Nusa Tenggara Tim.",NUSA TENGGARA TIMUR,,Indonesia,,,,-94.328.687,1.249.220.469,https://maps.google.com/?cid=0x0:0xaa2ee8446609cc5,
hardware store,Toko Bahan Bangunan,UD. SUMBER BANGUNAN,"Kamanasa, Kec. Malaka Tengah, Kabupaten Belu, Nusa Tenggara Tim.","Kabupaten Belu, Nusa Tenggara Tim.",NUSA TENGGARA TIMUR,,Indonesia,3892515055.0,,,-95.458.806,1.249.146.504,https://maps.google.com/?cid=0x0:0xd4c11746586268a3,
hardware store,Toko Bahan Bangunan,UD. D' KINGS,"Dirma, Kec. Malaka Tim., Kabupaten Belu, Nusa Tenggara Tim.","Kabupaten Belu, Nusa Tenggara Tim.",NUSA TENGGARA TIMUR,,Indonesia,,,,-94.328.687,1.249.220.469,https://maps.google.com/?cid=0x0:0xaa2ee8446609cc5,
hardware store,Toko Bahan Bangunan,UD. SUMBER BANGUNAN,"Kamanasa, Kec. Malaka Tengah, Kabupaten Belu, Nusa Tenggara Tim.","Kabupaten Belu, Nusa Tenggara Tim.",NUSA TENGGARA TIMUR,,Indonesia,3892515055.0,,,-95.458.806,1.249.146.504,https://maps.google.com/?cid=0x0:0xd4c11746586268a3,
hardware store,Toko Elektronik,Thonbers Computer Malaka,"CWR5+M8P, Jl. Ahmad Yani, Wehali, Kec. Malaka Tengah, Kab. Malaka, Nusa Tenggara Tim.","Kab. Malaka, Nusa Tenggara Tim.",NUSA TENGGARA TIMUR,,Indonesia,81238320004.0,,,-95.581.449,1.249.083.564,https://maps.google.com/?cid=0x0:0x4cb2148b77bb503c,
hardware store,Toko Alat Tulis Kantor,Tunbes Komputer,"CVGX+WMM, Wehali, Kec. Malaka Tengah, Kabupaten Belu, Nusa Tenggara Tim.","Kabupaten Belu, Nusa Tenggara Tim.",NUSA TENGGARA TIMUR,,Indonesia,82146408179.0,,,-95.726.669,1.248.991.678,https://maps.google.com/?cid=0x0:0x3e955f17a3237911,
hardware store,Sekolah Dasar,SDK Namfalus,"G3C3+P99, Rainawe, Kec. Kobalima, Kabupaten Belu, Nusa Tenggara Tim.","Kabupaten Belu, Nusa Tenggara Tim.",NUSA TENGGARA TIMUR,,Indonesia,,,,-94.782.193,1.250.534.835,https://maps.google.com/?cid=0x0:0xfd2d3528f12b7ab,
hardware store,hardware store,Kobalima Tim.,"Kab. Malaka, Nusa Tenggara Tim.","Kab. Malaka, Nusa Tenggara Tim.",NUSA TENGGARA TIMUR,,Indonesia,,,,-93.944.517,1.250.278.022,https://maps.google.com/?cid=0x0:0xb5225abdbad49017,
hardware store,hardware store,Kec. Kobalima,"Kab. Malaka, Nusa Tenggara Tim.","Kab. Malaka, Nusa Tenggara Tim.",NUSA TENGGARA TIMUR,,Indonesia,,,,-95.154.735,124.955.412,https://maps.google.com/?cid=0x0:0xcc4d01a8016289d6,
hardware store,Toko,Webua,"FW9H+P7, Lakekun Bar., Kec. Kobalima, Kab. Malaka, Nusa Tenggara Tim.","Kab. Malaka, Nusa Tenggara Tim.",NUSA TENGGARA TIMUR,,Indonesia,82144961535.0,,,-9.530.678,124.928.179,https://maps.google.com/?cid=0x0:0x33aa86780d72174b,
hardware store,Sekolah Dasar,SMPK SULAMA KADA,"FXP3+6QM, Lakekun Bar., Kec. Kobalima, Kabupaten Belu, Nusa Tenggara Tim.","Kabupaten Belu, Nusa Tenggara Tim.",NUSA TENGGARA TIMUR,,Indonesia,,,,-95.144.112,1.249.544.119,https://maps.google.com/?cid=0x0:0xbd9caec6498c985d,
hardware store,Sekolah Dasar,SDK Namfalus,"G3C3+P99, Rainawe, Kec. Kobalima, Kabupaten Belu, Nusa Tenggara Tim.","Kabupaten Belu, Nusa Tenggara Tim.",NUSA TENGGARA TIMUR,,Indonesia,,,,-94.782.193,1.250.534.835,https://maps.google.com/?cid=0x0:0xfd2d3528f12b7ab,
hardware store,Sekolah menengah,SMK NEGERI KOBALIMA,"G26R+4FW, Rainawe, Kec. Kobalima, Kabupaten Belu, Nusa Tenggara Tim.","Kabupaten Belu, Nusa Tenggara Tim.",NUSA TENGGARA TIMUR,,Indonesia,,,,-9.489.698,125.041.149,https://maps.google.com/?cid=0x0:0xc023b0418e59b71e,
hardware store,Sekolah,SD HALIBOT,"G2H6+R6, Sisi, Kec. Kobalima, Kabupaten Belu, Nusa Tenggara Tim.","Kabupaten Belu, Nusa Tenggara Tim.",NUSA TENGGARA TIMUR,,Indonesia,,,,-94.704.375,1.250.105.625,https://maps.google.com/?cid=0x0:0x239917ba9c54ad3e,
hardware store,Toko Suku Cadang Mobil,Toko MATADOR,"Jalan pasar baru no 1, depan polsek, Wehali, Kec. Malaka Tengah, Kab. Malaka, Nusa Tenggara Tim. 85762","depan polsek, Wehali, Kec. Malaka Tengah, Kab. Malaka",NUSA TENGGARA TIMUR,85762.0,Indonesia,85239326999.0,,,-95.647.973,1.249.061.031,https://maps.google.com/?cid=0x0:0x389574caf1b0be58,
hardware store,Toko Bahan Bangunan,UD. D' KINGS,"Dirma, Kec. Malaka Tim., Kabupaten Belu, Nusa Tenggara Tim.","Kabupaten Belu, Nusa Tenggara Tim.",NUSA TENGGARA TIMUR,,Indonesia,,,,-94.328.687,1.249.220.469,https://maps.google.com/?cid=0x0:0xaa2ee8446609cc5,
hardware store,Kantor Pemerintah,Desa Rainawe,"G3F3+VHJ, Rainawe, Kec. Kobalima, Kab. Malaka, Nusa Tenggara Tim.","Kab. Malaka, Nusa Tenggara Tim.",NUSA TENGGARA TIMUR,,Indonesia,,,,-94.752.919,125.053.906,https://maps.google.com/?cid=0x0:0x2f77b7e64e278c1a,
hardware store,Toko Bahan Bangunan,UD. SUMBER BANGUNAN,"Kamanasa, Kec. Malaka Tengah, Kabupaten Belu, Nusa Tenggara Tim.","Kabupaten Belu, Nusa Tenggara Tim.",NUSA TENGGARA TIMUR,,Indonesia,3892515055.0,,,-95.458.806,1.249.146.504,https://maps.google.com/?cid=0x0:0xd4c11746586268a3,
hardware store,Sekolah Dasar,SDK Looneke,"GVG9+C5M, Babotin, Botin Leobele, Babotin, Belu, Kab. Malaka, Nusa Tenggara Tim.","Kab. Malaka, Nusa Tenggara Tim.",NUSA TENGGARA TIMUR,,Indonesia,,,,-94.739.154,124.867.929,https://maps.google.com/?cid=0x0:0xdf05d943fca06aee,
hardware store,Sekolah,SDK Masik,"GWP7+4G3, Numponi, Kec. Malaka Tim., Kabupaten Belu, Nusa Tenggara Tim.","Kabupaten Belu, Nusa Tenggara Tim.",NUSA TENGGARA TIMUR,,Indonesia,,,,-9.464.748,1.249.137.884,https://maps.google.com/?cid=0x0:0x40496b9fb8f91d52,
hardware store,Pabrik Plastik,LION STAR PLASTICS RETAIL  WHOLESALE OUTLET,"4 Jl. K.H. Moch Mansyur No.71 B-C RW.8 Jembatan Lima, RT.2/RW.2, Krendang, Kec. Tambora, Kota Jakarta Barat, Daerah Khusus Ibukota Jakarta 11260","RT.2/RW.2, Krendang, Kec. Tambora, Kota Jakarta Barat",NUSA TENGGARA TIMUR,11260.0,Indonesia,2122634929.0,,,-61.480.541,1.068.072.032,https://maps.google.com/?cid=0x0:0x5de44acc00fe4acb,
toko bangunan,toko bangunan,Kec. Malaka Tengah,"Kab. Malaka, Nusa Tenggara Tim.","Kab. Malaka, Nusa Tenggara Tim.",NUSA TENGGARA TIMUR,,Indonesia,,,,-95.674.014,1.249.052.173,https://maps.google.com/?cid=0x0:0xf28c5a63eda791ec,
toko bangunan,Pusat Perbelanjaan,Flora Bangunan,"CWJ3+VXC, Jl. Betun Kota, Wehali, Kec. Malaka Tengah, Kab. Malaka, Nusa Tenggara Tim.","Kab. Malaka, Nusa Tenggara Tim.",NUSA TENGGARA TIMUR,,Indonesia,,,,-95.678.027,1.249.048.879,https://maps.google.com/?cid=0x0:0x8214973f3833f431,
toko bangunan,Toko Bahan Bangunan,UD. SUMBER BANGUNAN,"Kamanasa, Kec. Malaka Tengah, Kabupaten Belu, Nusa Tenggara Tim.","Kabupaten Belu, Nusa Tenggara Tim.",NUSA TENGGARA TIMUR,,Indonesia,3892515055.0,,,-95.458.806,1.249.146.504,https://maps.google.com/?cid=0x0:0xd4c11746586268a3,
toko bangunan,Pusat Perbelanjaan,Kreasi Bangunan(betun),"CWH3+CJ5, Umakatahan, Kec. Malaka Tengah, Kabupaten Belu, Nusa Tenggara Tim.","Kabupaten Belu, Nusa Tenggara Tim.",NUSA TENGGARA TIMUR,,Indonesia,87773968995.0,,,-95.714.822,1.249.041.151,https://maps.google.com/?cid=0x0:0x62d977b6c8c66ac6,
toko bangunan,Toko,Mentari Bangunan,"CV9P+MW4, Jl. Ahmad Yani, Bakiruk, Kec. Malaka Tengah, Kab. Malaka, Nusa Tenggara Tim.","Kab. Malaka, Nusa Tenggara Tim.",NUSA TENGGARA TIMUR,,Indonesia,82122228701.0,,,-95.808.626,1.248.873.316,https://maps.google.com/?cid=0x0:0x8a1f4b8b027c49cd,
toko bangunan,Toko bahan makanan,Toko Malaka Jaya,"Jl. Ahmad Yani, Wehali, Kec. Malaka Tengah, Kab. Malaka, Nusa Tenggara Tim.","Kab. Malaka, Nusa Tenggara Tim.",NUSA TENGGARA TIMUR,,Indonesia,,,,-95.693.696,1.249.031.312,https://maps.google.com/?cid=0x0:0x49dfa78a6c8288f2,
toko bangunan,Toko Suku Cadang Mobil,Toko MATADOR,"Jalan pasar baru no 1, depan polsek, Wehali, Kec. Malaka Tengah, Kab. Malaka, Nusa Tenggara Tim. 85762","depan polsek, Wehali, Kec. Malaka Tengah, Kab. Malaka",NUSA TENGGARA TIMUR,85762.0,Indonesia,85239326999.0,,,-95.647.973,1.249.061.031,https://maps.google.com/?cid=0x0:0x389574caf1b0be58,
toko bangunan,toko bangunan,Star Bangunan,"9W37+585, Jln.maroeray, Besikama, Kec. Malaka Bar., Kab. Malaka, Nusa Tenggara Tim.","Kab. Malaka, Nusa Tenggara Tim.",NUSA TENGGARA TIMUR,,Indonesia,,,,-96.471.186,1.249.133.551,https://maps.google.com/?cid=0x0:0x78e796e78f09825f,
toko bangunan,toko bangunan,Kec. Malaka Bar.,"Kab. Malaka, Nusa Tenggara Tim.","Kab. Malaka, Nusa Tenggara Tim.",NUSA TENGGARA TIMUR,,Indonesia,,,,-9.650.892,1.249.204.033,https://maps.google.com/?cid=0x0:0x6667d744a7fa8e14,
toko bangunan,Pusat Perbelanjaan,Cinta Damai Bangunan,"Jl. Ahmad Yani, Wehali, Kec. Malaka Tengah, Kab. Malaka, Nusa Tenggara Tim.","Kab. Malaka, Nusa Tenggara Tim.",NUSA TENGGARA TIMUR,,Indonesia,82147755855.0,,,-9.578.864,1.248.902.741,https://maps.google.com/?cid=0x0:0xc6bf1192eb23799d,
toko bangunan,Pusat Perbelanjaan,Kreasi Bangunan(betun),"CWH3+CJ5, Umakatahan, Kec. Malaka Tengah, Kabupaten Belu, Nusa Tenggara Tim.","Kabupaten Belu, Nusa Tenggara Tim.",NUSA TENGGARA TIMUR,,Indonesia,87773968995.0,,,-95.714.822,1.249.041.151,https://maps.google.com/?cid=0x0:0x62d977b6c8c66ac6,
toko bangunan,Pusat Perbelanjaan,Flora Bangunan,"CWJ3+VXC, Jl. Betun Kota, Wehali, Kec. Malaka Tengah, Kab. Malaka, Nusa Tenggara Tim.","Kab. Malaka, Nusa Tenggara Tim.",NUSA TENGGARA TIMUR,,Indonesia,,,,-95.678.027,1.249.048.879,https://maps.google.com/?cid=0x0:0x8214973f3833f431,
toko bangunan,Jasa Konstruksi dan Bangunan,BATAKO NAGA MAS,"8V86+9J, Rabasa Biris, Kec. Wewiku, Kab. Malaka, Nusa Tenggara Tim.","Kab. Malaka, Nusa Tenggara Tim.",NUSA TENGGARA TIMUR,,Indonesia,81283135710.0,,,-96.841.219,1.248.615.286,https://maps.google.com/?cid=0x0:0xe716be7504bb8f88,
toko bangunan,Toko Bahan Bangunan,UD. SUMBER BANGUNAN,"Kamanasa, Kec. Malaka Tengah, Kabupaten Belu, Nusa Tenggara Tim.","Kabupaten Belu, Nusa Tenggara Tim.",NUSA TENGGARA TIMUR,,Indonesia,3892515055.0,,,-95.458.806,1.249.146.504,https://maps.google.com/?cid=0x0:0xd4c11746586268a3,
toko bangunan,Toko bahan makanan,UD.CAHAYA BENENAI,"9VV9+6P2, Unnamed Road, Haitimuk, Kec. Weliman, Kab. Malaka, Nusa Tenggara Tim.","Kab. Malaka, Nusa Tenggara Tim.",NUSA TENGGARA TIMUR,,Indonesia,,,,-96.069.818,1.248.692.586,https://maps.google.com/?cid=0x0:0x89371f5b2b869172,
toko bangunan,Toko Bahan Bangunan,engku bouk,"Kc, Laleten, Kec. Weliman, Kab. Malaka, Nusa Tenggara Tim. 85768","Laleten, Kec. Weliman, Kab. Malaka",NUSA TENGGARA TIMUR,85768.0,Indonesia,,,,-9.632.766,1.248.644.404,https://maps.google.com/?cid=0x0:0x1168da9966a6072c,
toko bangunan,Toko Bahan Bangunan,TB. BERKAT MAKMUR,"Jl. Masjid Abidin No.24, RT.8/RW.6, Pd. Bambu, Kec. Duren Sawit, Kota Jakarta Timur, Daerah Khusus Ibukota Jakarta 13430","RT.8/RW.6, Pd. Bambu, Kec. Duren Sawit, Kota Jakarta Timur",NUSA TENGGARA TIMUR,13430.0,Indonesia,,,,-62.290.933,1.069.029.323,https://maps.google.com/?cid=0x0:0xa0e6cebea53b5c2a,
toko bangunan,Toko bahan makanan,Toko Malaka Jaya,"Jl. Ahmad Yani, Wehali, Kec. Malaka Tengah, Kab. Malaka, Nusa Tenggara Tim.","Kab. Malaka, Nusa Tenggara Tim.",NUSA TENGGARA TIMUR,,Indonesia,,,,-95.693.696,1.249.031.312,https://maps.google.com/?cid=0x0:0x49dfa78a6c8288f2,
toko bangunan,toko bangunan,Wekbet,"8R4H+63W, Jl. Ahmad Yani, Lorotolus, Kec. Wewiku, Kab. Malaka, Nusa Tenggara Tim.","Kab. Malaka, Nusa Tenggara Tim.",NUSA TENGGARA TIMUR,,Indonesia,,,,-96.939.728,1.248.288.466,https://maps.google.com/?cid=0x0:0x493b960d5f746378,
toko bangunan,toko bangunan,Kec. Wewiku,"Kab. Malaka, Nusa Tenggara Tim.","Kab. Malaka, Nusa Tenggara Tim.",NUSA TENGGARA TIMUR,,Indonesia,,,,-97.286.834,1.248.229.217,https://maps.google.com/?cid=0x0:0xb73802d134ae7e15,
toko bangunan,Jasa Konstruksi dan Bangunan,BATAKO NAGA MAS,"8V86+9J, Rabasa Biris, Kec. Wewiku, Kab. Malaka, Nusa Tenggara Tim.","Kab. Malaka, Nusa Tenggara Tim.",NUSA TENGGARA TIMUR,,Indonesia,81283135710.0,,,-96.841.219,1.248.615.286,https://maps.google.com/?cid=0x0:0xe716be7504bb8f88,
toko bangunan,Pemasok Pipa,Toko Buana Bangunan,"Lasiana, Kec. Klp. Lima, Kota Kupang, Nusa Tenggara Tim.","Kota Kupang, Nusa Tenggara Tim.",NUSA TENGGARA TIMUR,,Indonesia,82244376888.0,,,-101.373.266,1.236.764.484,https://maps.google.com/?cid=0x0:0x9fc6cad7dda4e71a,
toko bangunan,Toko Bahan Bangunan,Toko bangunan,"VM4C+R79, Lasiana, Kec. Klp. Lima, Kota Kupang, Nusa Tenggara Tim.","Kota Kupang, Nusa Tenggara Tim.",NUSA TENGGARA TIMUR,,Indonesia,,,,-10.142.954,1.236.707.233,https://maps.google.com/?cid=0x0:0xb111458939496520,
toko bangunan,toko bangunan,Kec. Weliman,"Kab. Malaka, Nusa Tenggara Tim.","Kab. Malaka, Nusa Tenggara Tim.",NUSA TENGGARA TIMUR,,Indonesia,,,,-96.037.062,1.248.631.665,https://maps.google.com/?cid=0x0:0xf0e75d6e55d21832,
toko bangunan,Toko,Mentari Bangunan,"CV9P+MW4, Jl. Ahmad Yani, Bakiruk, Kec. Malaka Tengah, Kab. Malaka, Nusa Tenggara Tim.","Kab. Malaka, Nusa Tenggara Tim.",NUSA TENGGARA TIMUR,,Indonesia,82122228701.0,,,-95.808.626,1.248.873.316,https://maps.google.com/?cid=0x0:0x8a1f4b8b027c49cd,
toko bangunan,Toko bahan makanan,UD.CAHAYA BENENAI,"9VV9+6P2, Unnamed Road, Haitimuk, Kec. Weliman, Kab. Malaka, Nusa Tenggara Tim.","Kab. Malaka, Nusa Tenggara Tim.",NUSA TENGGARA TIMUR,,Indonesia,,,,-96.069.818,1.248.692.586,https://maps.google.com/?cid=0x0:0x89371f5b2b869172,
toko bangunan,Pusat Perbelanjaan,Kreasi Bangunan(betun),"CWH3+CJ5, Umakatahan, Kec. Malaka Tengah, Kabupaten Belu, Nusa Tenggara Tim.","Kabupaten Belu, Nusa Tenggara Tim.",NUSA TENGGARA TIMUR,,Indonesia,87773968995.0,,,-95.714.822,1.249.041.151,https://maps.google.com/?cid=0x0:0x62d977b6c8c66ac6,
toko bangunan,Toko Bahan Bangunan,engku bouk,"Kc, Laleten, Kec. Weliman, Kab. Malaka, Nusa Tenggara Tim. 85768","Laleten, Kec. Weliman, Kab. Malaka",NUSA TENGGARA TIMUR,85768.0,Indonesia,,,,-9.632.766,1.248.644.404,https://maps.google.com/?cid=0x0:0x1168da9966a6072c,
toko bangunan,Jasa Konstruksi dan Bangunan,BATAKO NAGA MAS,"8V86+9J, Rabasa Biris, Kec. Wewiku, Kab. Malaka, Nusa Tenggara Tim.","Kab. Malaka, Nusa Tenggara Tim.",NUSA TENGGARA TIMUR,,Indonesia,81283135710.0,,,-96.841.219,1.248.615.286,https://maps.google.com/?cid=0x0:0xe716be7504bb8f88,
toko bangunan,Toko Bahan Bangunan,Toko Duta Bangunan,"GFMJ+896, Benpasi, Kec. Kota Kefamenanu, Kabupaten Timor Tengah Utara, Nusa Tenggara Tim.","Kabupaten Timor Tengah Utara, Nusa Tenggara Tim.",NUSA TENGGARA TIMUR,,Indonesia,8113827627.0,,,-94.667.226,1.244.808.961,https://maps.google.com/?cid=0x0:0x7bd4b59644a2a0bd,
toko bangunan,Toko Bahan Bangunan,KCS Bangunan Kefamenanu,"Jl. Eltari No.77, RT.046/RW.005, Kefamenanu Sel., Kec. Kota Kefamenanu, Kabupaten Timor Tengah Utara, Nusa Tenggara Tim. 85613","RT.046/RW.005, Kefamenanu Sel., Kec. Kota Kefamenanu, Kabupaten Timor Tengah Utara",NUSA TENGGARA TIMUR,85613.0,Indonesia,,,,-94.686.983,12.448.161,https://maps.google.com/?cid=0x0:0x589174c712c394ca,
toko bangunan,Pemasok Pipa,Toko Buana Bangunan,"Lasiana, Kec. Klp. Lima, Kota Kupang, Nusa Tenggara Tim.","Kota Kupang, Nusa Tenggara Tim.",NUSA TENGGARA TIMUR,,Indonesia,82244376888.0,,,-101.373.266,1.236.764.484,https://maps.google.com/?cid=0x0:0x9fc6cad7dda4e71a,
toko bangunan,Pemasok Pipa,CERIA BANGUNAN,"VM7G+C8X, Lasiana, Kec. Klp. Lima, Kota Kupang, Nusa Tenggara Tim.","Kota Kupang, Nusa Tenggara Tim.",NUSA TENGGARA TIMUR,,Indonesia,82144952239.0,,,-101.363.903,1.236.758.528,https://maps.google.com/?cid=0x0:0xfe4ad65fc4695b0c,
toko bangunan,Pemasok Pipa,Toko Bangunan Kim 5,"VM68+QFC, Jl. Terusan Timor Raya, Lasiana, Kec. Klp. Lima, Kota Kupang, Nusa Tenggara Tim.","Kota Kupang, Nusa Tenggara Tim.",NUSA TENGGARA TIMUR,,Indonesia,,,,-101.380.642,1.236.661.317,https://maps.google.com/?cid=0x0:0x57d9219b49c66921,
toko bangunan,Toko Bahan Bangunan,Toko bangunan,"VM4C+R79, Lasiana, Kec. Klp. Lima, Kota Kupang, Nusa Tenggara Tim.","Kota Kupang, Nusa Tenggara Tim.",NUSA TENGGARA TIMUR,,Indonesia,,,,-10.142.954,1.236.707.233,https://maps.google.com/?cid=0x0:0xb111458939496520,
toko bangunan,Toko Bahan Bangunan,PT. Makmur Abadi Bangunan,"Jl. Terusan Timor Raya No.Km 9, Oesapa, Kec. Klp. Lima, Kota Kupang, Nusa Tenggara Tim. 85228","Oesapa, Kec. Klp. Lima, Kota Kupang",NUSA TENGGARA TIMUR,85228.0,Indonesia,81367756504.0,,,-101.446.954,1.236.559.765,https://maps.google.com/?cid=0x0:0x7abc85a224f4ba37,
toko bangunan,toko bangunan,Kec. Sasitamean,"Kab. Malaka, Nusa Tenggara Tim.","Kab. Malaka, Nusa Tenggara Tim.",NUSA TENGGARA TIMUR,,Indonesia,,,,-94.937.986,1.248.545.297,https://maps.google.com/?cid=0x0:0x2c183c1f923eca0,
toko bangunan,Toko Bahan Bangunan,Toko Nuansa Bangunan Dan Tehnik,"9C75+HG9, Wailiang, Kec. Kota Waikabubak, Kabupaten Sumba Barat, Nusa Tenggara Tim.","Kabupaten Sumba Barat, Nusa Tenggara Tim.",NUSA TENGGARA TIMUR,,Indonesia,81339419509.0,,,-96.360.822,1.194.088.515,https://maps.google.com/?cid=0x0:0xa546d9dc5012925e,
toko bangunan,Toko Perlengkapan Rumah,Saudara Bangunan,"9C43+5CV, Wee Karou, Kec. Loli, Kabupaten Sumba Barat, Nusa Tenggara Tim.","Kabupaten Sumba Barat, Nusa Tenggara Tim.",NUSA TENGGARA TIMUR,,Indonesia,,,,-96.445.021,119.403.561,https://maps.google.com/?cid=0x0:0xbd0bec82e2e0b21f,
toko bangunan,Toko Bahan Bangunan,Toko Duta Bangunan,"CH3M+GQ8, Wai Rasa, Kec. Umbu Ratu Nggay Bar., Kabupaten Sumba Tengah, Nusa Tenggara Tim.","Kabupaten Sumba Tengah, Nusa Tenggara Tim.",NUSA TENGGARA TIMUR,,Indonesia,,,,-95.962.137,1.195.844.623,https://maps.google.com/?cid=0x0:0x7e609489f14c4fbb,
toko bangunan,Pemasok Pipa,Toko Bangunan Kim 5,"VM68+QFC, Jl. Terusan Timor Raya, Lasiana, Kec. Klp. Lima, Kota Kupang, Nusa Tenggara Tim.","Kota Kupang, Nusa Tenggara Tim.",NUSA TENGGARA TIMUR,,Indonesia,,,,-101.380.642,1.236.661.317,https://maps.google.com/?cid=0x0:0x57d9219b49c66921,
toko bangunan,Toko Bahan Bangunan,CV. Tujuh Jaya,"723W+C6P, Unnamed Rd, Mokdale, Kec. Lobalain, Kabupaten Rote Ndao, Nusa Tenggara Tim.","Kabupaten Rote Ndao, Nusa Tenggara Tim.",NUSA TENGGARA TIMUR,,Indonesia,,,,-107.464.098,12.304.558,https://maps.google.com/?cid=0x0:0x575a85c650ddf9e4,
toko bangunan,Pemasok Pipa,Toko Buana Bangunan,"Lasiana, Kec. Klp. Lima, Kota Kupang, Nusa Tenggara Tim.","Kota Kupang, Nusa Tenggara Tim.",NUSA TENGGARA TIMUR,,Indonesia,82244376888.0,,,-101.373.266,1.236.764.484,https://maps.google.com/?cid=0x0:0x9fc6cad7dda4e71a,
toko bangunan,Toko Bahan Bangunan,Sinar Bangunan Building Center,"Jl. Bund. PU No.12, Tuak Daun Merah, Kec. Oebobo, Kota Kupang, Nusa Tenggara Tim. 85228","Tuak Daun Merah, Kec. Oebobo, Kota Kupang",NUSA TENGGARA TIMUR,85228.0,Indonesia,81236648694.0,,,-101.675.355,1.236.289.538,https://maps.google.com/?cid=0x0:0x8b34913a09e207d2,
toko bangunan,Toko Bahan Bangunan,Toko bangunan,"VM4C+R79, Lasiana, Kec. Klp. Lima, Kota Kupang, Nusa Tenggara Tim.","Kota Kupang, Nusa Tenggara Tim.",NUSA TENGGARA TIMUR,,Indonesia,,,,-10.142.954,1.236.707.233,https://maps.google.com/?cid=0x0:0xb111458939496520,
toko bangunan,Toko Bahan Bangunan,Toko Graha Bangunan,"Gedung Graha Ariadi, Oesapa Bar., Kec. Klp. Lima, Kota Kupang, Nusa Tenggara Tim. 85228","Oesapa Bar., Kec. Klp. Lima, Kota Kupang",NUSA TENGGARA TIMUR,85228.0,Indonesia,81312893723.0,,,-101.468.703,123.631.267,https://maps.google.com/?cid=0x0:0x4167d73ee95fc845,
toko bangunan,Toko Bahan Bangunan,Toko Metro Bangunan,"Jl. Pulau Indah, Oesapa Bar., Kec. Klp. Lima, Kota Kupang, Nusa Tenggara Tim. 85228","Oesapa Bar., Kec. Klp. Lima, Kota Kupang",NUSA TENGGARA TIMUR,85228.0,Indonesia,82164218639.0,,,-101.488.046,1.236.344.972,https://maps.google.com/?cid=0x0:0x4afb0da23e208afb,
toko bangunan,Toko Bahan Bangunan,Toko Duta Bangunan,"GFMJ+896, Benpasi, Kec. Kota Kefamenanu, Kabupaten Timor Tengah Utara, Nusa Tenggara Tim.","Kabupaten Timor Tengah Utara, Nusa Tenggara Tim.",NUSA TENGGARA TIMUR,,Indonesia,8113827627.0,,,-94.667.226,1.244.808.961,https://maps.google.com/?cid=0x0:0x7bd4b59644a2a0bd,
toko bangunan,Toko Bahan Bangunan,Toko Bangunan Jaya,"Jl. Terusan Timor Raya No.9u KM. 6, Oesapa Bar., Kec. Klp. Lima, Kota Kupang, Nusa Tenggara Tim.","Kota Kupang, Nusa Tenggara Tim.",NUSA TENGGARA TIMUR,,Indonesia,81338567839.0,,,-1.014.441,1.236.254.719,https://maps.google.com/?cid=0x0:0x4a94c89160bbe62c,
toko bangunan,Pemasok Pipa,Toko Bangunan,"Manulai II, Kec. Alak, Kota Kupang, Nusa Tenggara Tim.","Kota Kupang, Nusa Tenggara Tim.",NUSA TENGGARA TIMUR,,Indonesia,85123255522.0,,,-10.213.815,1.235.749.527,https://maps.google.com/?cid=0x0:0x5559349e9e4fc36f,
toko bangunan,Toko Perlengkapan Rumah,Toko Karya Bangunan,"RJQV+H9Q, Jl. Bumi I, Oesapa Sel., Kec. Klp. Lima, Kota Kupang, Nusa Tenggara Tim.","Kota Kupang, Nusa Tenggara Tim.",NUSA TENGGARA TIMUR,,Indonesia,,,,-101.610.333,1.236.434.727,https://maps.google.com/?cid=0x0:0x480107de15c2a6cf,
toko bangunan,Toko Bahan Bangunan,Toko Bintang Bangunan,"Jl. Terusan Timor Raya No.KM9, Oesapa, Kec. Klp. Lima, Kota Kupang, Nusa Tenggara Tim. 85228","Oesapa, Kec. Klp. Lima, Kota Kupang",NUSA TENGGARA TIMUR,85228.0,Indonesia,81339755019.0,,,-101.470.557,1.236.523.983,https://maps.google.com/?cid=0x0:0x783a8e4ca1444de,
toko bangunan,Toko Swalayan,Toko Bangunan Raya,"Jl. Raya Sapit, Sapit, Kec. Suela, Kabupaten Lombok Timur, Nusa Tenggara Bar. 83653","Sapit, Kec. Suela, Kabupaten Lombok Timur",NUSA TENGGARA TIMUR,83653.0,Indonesia,82279651810.0,,,-84.918.319,1.165.510.951,https://maps.google.com/?cid=0x0:0xe22961d84817480a,
toko bangunan,Toko Bahan Bangunan,PT. Makmur Abadi Bangunan,"Jl. Terusan Timor Raya No.Km 9, Oesapa, Kec. Klp. Lima, Kota Kupang, Nusa Tenggara Tim. 85228","Oesapa, Kec. Klp. Lima, Kota Kupang",NUSA TENGGARA TIMUR,85228.0,Indonesia,81367756504.0,,,-101.446.954,1.236.559.765,https://maps.google.com/?cid=0x0:0x7abc85a224f4ba37,
toko bangunan,Toko Bahan Bangunan,UD TUJUH JAYA BANGUNAN I,"72GX+8M5, Metina, Kec. Lobalain, Kabupaten Rote Ndao, Nusa Tenggara Tim.","Kabupaten Rote Ndao, Nusa Tenggara Tim.",NUSA TENGGARA TIMUR,,Indonesia,,,,-107.242.448,1.230.492.313,https://maps.google.com/?cid=0x0:0xca85d779b23c1d9d,
toko bangunan,Minimarket,toko hebron,"725V+CW9, Unnamed Rd, Mokdale, Kec. Lobalain, Kabupaten Rote Ndao, Nusa Tenggara Tim.","Kabupaten Rote Ndao, Nusa Tenggara Tim.",NUSA TENGGARA TIMUR,,Indonesia,,,,-107.414.723,1.230.448.675,https://maps.google.com/?cid=0x0:0x699558aa9d2e663a,
toko bangunan,toko bangunan,UD.Malaka Jaya,"CWP4+FGW, Jl. Ahmad Yani, Wehali, Kec. Malaka Tengah, Kab. Malaka, Nusa Tenggara Tim.","Kab. Malaka, Nusa Tenggara Tim.",NUSA TENGGARA TIMUR,,Indonesia,,,,-95.637.669,1.249.063.436,https://maps.google.com/?cid=0x0:0xb918bdaa6bd91e74,
toko bangunan,toko bangunan,Kecamatan Laenmanen,"Kab. Malaka, Nusa Tenggara Tim.","Kab. Malaka, Nusa Tenggara Tim.",NUSA TENGGARA TIMUR,,Indonesia,,,,-93.585.949,1.248.167.028,https://maps.google.com/?cid=0x0:0xd9203262a8d01476,
toko bangunan,Rumah Kaca,Laen manen,"HRFC+2VJ, Tniumanu, Kecamatan Laenmanen, Kab. Malaka, Nusa Tenggara Tim.","Kab. Malaka, Nusa Tenggara Tim.",NUSA TENGGARA TIMUR,,Indonesia,,,,-94.274.126,1.248.221.321,https://maps.google.com/?cid=0x0:0x6fb3c7395d7acb8a,
toko bangunan,Pemasok Pipa,Toko Buana Bangunan,"Lasiana, Kec. Klp. Lima, Kota Kupang, Nusa Tenggara Tim.","Kota Kupang, Nusa Tenggara Tim.",NUSA TENGGARA TIMUR,,Indonesia,82244376888.0,,,-101.373.266,1.236.764.484,https://maps.google.com/?cid=0x0:0x9fc6cad7dda4e71a,
toko bangunan,Toko Bahan Bangunan,Toko Bangunan Jaya,"Jl. Terusan Timor Raya No.9u KM. 6, Oesapa Bar., Kec. Klp. Lima, Kota Kupang, Nusa Tenggara Tim.","Kota Kupang, Nusa Tenggara Tim.",NUSA TENGGARA TIMUR,,Indonesia,81338567839.0,,,-1.014.441,1.236.254.719,https://maps.google.com/?cid=0x0:0x4a94c89160bbe62c,
toko bangunan,Toko,Toko lancar bangunan,"QHQ6+CPH, Welai Tim., Kec. Tlk. Mutiara, Kabupaten Alor, Nusa Tenggara Tim.","Kabupaten Alor, Nusa Tenggara Tim.",NUSA TENGGARA TIMUR,,Indonesia,,,,-82.114.421,1.245.618.588,https://maps.google.com/?cid=0x0:0x423f09fbf0e1baf7,
toko bangunan,Toko Bahan Bangunan,Toko Graha Bangunan,"Gedung Graha Ariadi, Oesapa Bar., Kec. Klp. Lima, Kota Kupang, Nusa Tenggara Tim. 85228","Oesapa Bar., Kec. Klp. Lima, Kota Kupang",NUSA TENGGARA TIMUR,85228.0,Indonesia,81312893723.0,,,-101.468.703,123.631.267,https://maps.google.com/?cid=0x0:0x4167d73ee95fc845,
toko bangunan,Toko Bahan Bangunan,TOKO BANGUNAN,"962F+FR3, Lkr. Luar Maumere, Kota Baru, Kec. Alok Tim., Kabupaten Sikka, Nusa Tenggara Tim.","Kabupaten Sikka, Nusa Tenggara Tim.",NUSA TENGGARA TIMUR,,Indonesia,81228455504.0,,,-8.648.865,1.222.245.369,https://maps.google.com/?cid=0x0:0xfcda8409dfe7e722,
toko bangunan,Toko Bahan Bangunan,Toko Cipta Bangunan,"Wolomarang, Kec. Alok Bar., Kabupaten Sikka, Nusa Tenggara Tim.","Kabupaten Sikka, Nusa Tenggara Tim.",NUSA TENGGARA TIMUR,,Indonesia,81231842348.0,,,-86.105.049,1.221.996.912,https://maps.google.com/?cid=0x0:0x1d786c0067a3953f,
toko bangunan,Toko Swalayan,Toko Bangunan Raya,"Jl. Raya Sapit, Sapit, Kec. Suela, Kabupaten Lombok Timur, Nusa Tenggara Bar. 83653","Sapit, Kec. Suela, Kabupaten Lombok Timur",NUSA TENGGARA TIMUR,83653.0,Indonesia,82279651810.0,,,-84.918.319,1.165.510.951,https://maps.google.com/?cid=0x0:0xe22961d84817480a,
toko bangunan,Toko Bahan Bangunan,Toko Bangunan MURAH JAYA,"95JX+CH8, Napunglangir, Wolomarang, Kec. Alok Bar., Kabupaten Sikka, Nusa Tenggara Tim.","Kabupaten Sikka, Nusa Tenggara Tim.",NUSA TENGGARA TIMUR,,Indonesia,,,,-86.189.565,1.221.989.646,https://maps.google.com/?cid=0x0:0x1aef23c4093a936f,
toko bangunan,Pasar bahan bangunan,Toko Sentral Bangunan,"Jl. A. Yani No.31, Oeba, Kec. Kota Lama, Kota Kupang, Nusa Tenggara Tim.","Kota Kupang, Nusa Tenggara Tim.",NUSA TENGGARA TIMUR,,Indonesia,,,,-101.589.841,1.235.906.754,https://maps.google.com/?cid=0x0:0x86beb21036599681,
toko bangunan,Toko Bahan Bangunan,Kristal Bangunan Toko,"RMW8+GPH, Lasiana, Kec. Klp. Lima, Kota Kupang, Nusa Tenggara Tim.","Kota Kupang, Nusa Tenggara Tim.",NUSA TENGGARA TIMUR,,Indonesia,380831119.0,,,-101.536.844,1.236.668.448,https://maps.google.com/?cid=0x0:0xbb6f0b9276476640,
toko bangunan,Sekolah Dasar,SMP Negeri Rafau,"GVWR+586, Bonibais, Kecamatan Laenmanen, Kab. Malaka, Nusa Tenggara Tim.","Kab. Malaka, Nusa Tenggara Tim.",NUSA TENGGARA TIMUR,,Indonesia,,,,-94.545.829,1.248.907.629,https://maps.google.com/?cid=0x0:0xd34856ec49686a57,
toko bangunan,Sekolah menengah,SMPN Laen Manen,"Tniumanu, Kecamatan Laenmanen, Kab. Malaka, Nusa Tenggara Tim.","Kab. Malaka, Nusa Tenggara Tim.",NUSA TENGGARA TIMUR,,Indonesia,,,,-94.305.066,1.248.208.384,https://maps.google.com/?cid=0x0:0x7d2a8733802b2888,
toko bangunan,Toko Bahan Bangunan,UD. D' KINGS,"Dirma, Kec. Malaka Tim., Kabupaten Belu, Nusa Tenggara Tim.","Kabupaten Belu, Nusa Tenggara Tim.",NUSA TENGGARA TIMUR,,Indonesia,,,,-94.328.687,1.249.220.469,https://maps.google.com/?cid=0x0:0xaa2ee8446609cc5,
toko bangunan,Jasa Konstruksi dan Bangunan,Batako press,"JV6J+4XM, Teun, Kec. Rai Manuk, Kabupaten Belu, Nusa Tenggara Tim.","Kabupaten Belu, Nusa Tenggara Tim.",NUSA TENGGARA TIMUR,,Indonesia,,,,-93.888.719,1.248.822.037,https://maps.google.com/?cid=0x0:0x16509674bc5ace94,
toko bangunan,Sekolah Dasar,SDK Looneke,"GVG9+C5M, Babotin, Botin Leobele, Babotin, Belu, Kab. Malaka, Nusa Tenggara Tim.","Kab. Malaka, Nusa Tenggara Tim.",NUSA TENGGARA TIMUR,,Indonesia,,,,-94.739.154,124.867.929,https://maps.google.com/?cid=0x0:0xdf05d943fca06aee,
toko bangunan,Sekolah,SD GMIT Kakuun,"HVFW+GGW, Naekekusa, Kecamatan Laenmanen, Kabupaten Belu, Nusa Tenggara Tim.","Kabupaten Belu, Nusa Tenggara Tim.",NUSA TENGGARA TIMUR,,Indonesia,,,,-94.261.366,124.896.331,https://maps.google.com/?cid=0x0:0x4e23637bff5b8909,
toko bangunan,Toko Perlengkapan Rumah,UD COUNTRY- BOAS,"HW7G+927, Dirma, Kec. Malaka Tim., Kabupaten Belu, Nusa Tenggara Tim.","Kabupaten Belu, Nusa Tenggara Tim.",NUSA TENGGARA TIMUR,,Indonesia,85239743906.0,,,-94.365.768,1.249.250.382,https://maps.google.com/?cid=0x0:0x7d80a43fbad3c9eb,
toko bangunan,Perhimpunan Pengembang Perumahan,Manek Taolin,"Jl. Nasional Trans Timor No.25, Nunmafo, Kec. Insana, Kabupaten Timor Tengah Utara, Nusa Tenggara Tim. 85671","Nunmafo, Kec. Insana, Kabupaten Timor Tengah Utara",NUSA TENGGARA TIMUR,85671.0,Indonesia,81339235547.0,,,-94.426.399,1.247.073.822,https://maps.google.com/?cid=0x0:0x391faf01fffce355,
toko bangunan,Rumah Sakit,Puskesmas Rafau,"GVVQ+8QM, Bonibais, Kecamatan Laenmanen, Kabupaten Belu, Nusa Tenggara Tim.","Kabupaten Belu, Nusa Tenggara Tim.",NUSA TENGGARA TIMUR,,Indonesia,,,,-94.566.595,1.248.894.339,https://maps.google.com/?cid=0x0:0x79d5edf89cce86a7,
toko bangunan,toko bangunan,UD. BERLIAN,"HW9C+FFH, Jl. Raya Halilulik-Betun, Dirma, Kec. Malaka Tim., Kab. Malaka, Nusa Tenggara Tim.","Kab. Malaka, Nusa Tenggara Tim.",NUSA TENGGARA TIMUR,,Indonesia,,,,-94.313.215,1.249.212.409,https://maps.google.com/?cid=0x0:0x813e432b53e31cf9,
toko bangunan,toko bangunan,Kec. Malaka Tim.,"Kab. Malaka, Nusa Tenggara Tim.","Kab. Malaka, Nusa Tenggara Tim.",NUSA TENGGARA TIMUR,,Indonesia,,,,-94.366.847,1.249.254.099,https://maps.google.com/?cid=0x0:0x781cbef4bfda23bf,
toko bangunan,Toko Bahan Bangunan,UD. D' KINGS,"Dirma, Kec. Malaka Tim., Kabupaten Belu, Nusa Tenggara Tim.","Kabupaten Belu, Nusa Tenggara Tim.",NUSA TENGGARA TIMUR,,Indonesia,,,,-94.328.687,1.249.220.469,https://maps.google.com/?cid=0x0:0xaa2ee8446609cc5,
toko bangunan,Jasa Konstruksi dan Bangunan,Batako press,"JV6J+4XM, Teun, Kec. Rai Manuk, Kabupaten Belu, Nusa Tenggara Tim.","Kabupaten Belu, Nusa Tenggara Tim.",NUSA TENGGARA TIMUR,,Indonesia,,,,-93.888.719,1.248.822.037,https://maps.google.com/?cid=0x0:0x16509674bc5ace94,
toko bangunan,toko bangunan,Kobalima Tim.,"Kab. Malaka, Nusa Tenggara Tim.","Kab. Malaka, Nusa Tenggara Tim.",NUSA TENGGARA TIMUR,,Indonesia,,,,-93.944.517,1.250.278.022,https://maps.google.com/?cid=0x0:0xb5225abdbad49017,
toko bangunan,Pemasok Pipa,Toko Bangunan Kim 5,"VM68+QFC, Jl. Terusan Timor Raya, Lasiana, Kec. Klp. Lima, Kota Kupang, Nusa Tenggara Tim.","Kota Kupang, Nusa Tenggara Tim.",NUSA TENGGARA TIMUR,,Indonesia,,,,-101.380.642,1.236.661.317,https://maps.google.com/?cid=0x0:0x57d9219b49c66921,
toko bangunan,Toko Bahan Bangunan,Toko bangunan,"VM4C+R79, Lasiana, Kec. Klp. Lima, Kota Kupang, Nusa Tenggara Tim.","Kota Kupang, Nusa Tenggara Tim.",NUSA TENGGARA TIMUR,,Indonesia,,,,-10.142.954,1.236.707.233,https://maps.google.com/?cid=0x0:0xb111458939496520,
toko bangunan,Toko Bahan Bangunan,UD. D' KINGS,"Dirma, Kec. Malaka Tim., Kabupaten Belu, Nusa Tenggara Tim.","Kabupaten Belu, Nusa Tenggara Tim.",NUSA TENGGARA TIMUR,,Indonesia,,,,-94.328.687,1.249.220.469,https://maps.google.com/?cid=0x0:0xaa2ee8446609cc5,
toko bangunan,toko bangunan,Kec. Kobalima,"Kab. Malaka, Nusa Tenggara Tim.","Kab. Malaka, Nusa Tenggara Tim.",NUSA TENGGARA TIMUR,,Indonesia,,,,-95.154.735,124.955.412,https://maps.google.com/?cid=0x0:0xcc4d01a8016289d6,
toko bangunan,Pemasok Pipa,Toko Buana Bangunan,"Lasiana, Kec. Klp. Lima, Kota Kupang, Nusa Tenggara Tim.","Kota Kupang, Nusa Tenggara Tim.",NUSA TENGGARA TIMUR,,Indonesia,82244376888.0,,,-101.373.266,1.236.764.484,https://maps.google.com/?cid=0x0:0x9fc6cad7dda4e71a,
toko bangunan,Toko,Webua,"FW9H+P7, Lakekun Bar., Kec. Kobalima, Kab. Malaka, Nusa Tenggara Tim.","Kab. Malaka, Nusa Tenggara Tim.",NUSA TENGGARA TIMUR,,Indonesia,82144961535.0,,,-9.530.678,124.928.179,https://maps.google.com/?cid=0x0:0x33aa86780d72174b,
toko bangunan,Pusat Perbelanjaan,Flora Bangunan,"CWJ3+VXC, Jl. Betun Kota, Wehali, Kec. Malaka Tengah, Kab. Malaka, Nusa Tenggara Tim.","Kab. Malaka, Nusa Tenggara Tim.",NUSA TENGGARA TIMUR,,Indonesia,,,,-95.678.027,1.249.048.879,https://maps.google.com/?cid=0x0:0x8214973f3833f431,
toko bangunan,Toko Bahan Bangunan,UD. D' KINGS,"Dirma, Kec. Malaka Tim., Kabupaten Belu, Nusa Tenggara Tim.","Kabupaten Belu, Nusa Tenggara Tim.",NUSA TENGGARA TIMUR,,Indonesia,,,,-94.328.687,1.249.220.469,https://maps.google.com/?cid=0x0:0xaa2ee8446609cc5,
toko bangunan,toko bangunan,Kec. Botin Leobele,"Kab. Malaka, Nusa Tenggara Tim.","Kab. Malaka, Nusa Tenggara Tim.",NUSA TENGGARA TIMUR,,Indonesia,,,,-948.414,124.917.243,https://maps.google.com/?cid=0x0:0xcf34bd10d5bf40cf,
toko bangunan,Minimarket,toko hebron,"725V+CW9, Unnamed Rd, Mokdale, Kec. Lobalain, Kabupaten Rote Ndao, Nusa Tenggara Tim.","Kabupaten Rote Ndao, Nusa Tenggara Tim.",NUSA TENGGARA TIMUR,,Indonesia,,,,-107.414.723,1.230.448.675,https://maps.google.com/?cid=0x0:0x699558aa9d2e663a,
toko bangunan,toko bangunan,Bene Bene,"GVFM+J5, Babotin Maemina, Kec. Botin Leobele, Kab. Malaka, Nusa Tenggara Tim.","Kab. Malaka, Nusa Tenggara Tim.",NUSA TENGGARA TIMUR,,Indonesia,,,,-94.760.286,1.248.829.587,https://maps.google.com/?cid=0x0:0xcd9263ec38e1cc64,
toko bangunan,Pusat Perbelanjaan,Flora Bangunan,"CWJ3+VXC, Jl. Betun Kota, Wehali, Kec. Malaka Tengah, Kab. Malaka, Nusa Tenggara Tim.","Kab. Malaka, Nusa Tenggara Tim.",NUSA TENGGARA TIMUR,,Indonesia,,,,-95.678.027,1.249.048.879,https://maps.google.com/?cid=0x0:0x8214973f3833f431,
toko bangunan,Toko Bahan Bangunan,UD. D' KINGS,"Dirma, Kec. Malaka Tim., Kabupaten Belu, Nusa Tenggara Tim.","Kabupaten Belu, Nusa Tenggara Tim.",NUSA TENGGARA TIMUR,,Indonesia,,,,-94.328.687,1.249.220.469,https://maps.google.com/?cid=0x0:0xaa2ee8446609cc5,
