Category,Real Category,Business Name,Address,City,State,Postal Code,Country,Phone,Email,Website,Latitude,Longitude,Map Link,Details Link
mall,mall,Kec. Atadei,"Kabupaten Lembata, Nusa Tenggara Tim.","Kabupaten Lembata, Nusa Tenggara Tim.",NUSA TENGGARA TIMUR,,Indonesia,,,,-8.4349536,123.4678297,https://maps.google.com/?cid=0x0:0xfbbff0f263a15426,
mall,Komplek perumahan,Pasar Lamahora,"JCGV+M7J, Lamahora, Lewoleba Tim., Kec. Nubatukan, Kabupaten Lembata, Nusa Tenggara Tim.","Kabupaten Lembata, Nusa Tenggara Tim.",NUSA TENGGARA TIMUR,,Indonesia,,,,-8.3732801,123.443127,https://maps.google.com/?cid=0x0:0xdf5fae1cec0aa9b4,
mall,Toko,ASYIFA AKCESORIES,"JCGH+QWJ, Lewoleba Tengah, Kec. Nubatukan, Kabupaten Lembata, Nusa Tenggara Tim.","Kabupaten Lembata, Nusa Tenggara Tim.",NUSA TENGGARA TIMUR,,Indonesia,82237313333.0,,,-8.3730309,123.4297805,https://maps.google.com/?cid=0x0:0x81f356a457679dbd,
mall,Perhimpunan Pengembang Perumahan,Blok M Lembata,"JCG7+QR2, Kelurahan, Central Lewoleba, Nubatukan, Lembata Regency, East Nusa Tenggara","Kabupaten Lembata, Nusa Tenggara Tim.",NUSA TENGGARA TIMUR,,Indonesia,,,,-8.3731066,123.4145247,https://maps.google.com/?cid=0x0:0x1e10b07e14f89c93,
mall,Komplek perumahan,Pasar Barter Wulandoni,"FC8X+68F, Pantai Harapan, Kec. Wulandoni, Kabupaten Lembata, Nusa Tenggara Tim.","Kabupaten Lembata, Nusa Tenggara Tim.",NUSA TENGGARA TIMUR,,Indonesia,81393878656.0,,,-8.5344281,123.4483115,https://maps.google.com/?cid=0x0:0x1f93fe5576a0b26f,
mall,Kantor Perusahaan,Toko : Sulawesi Jaya,"Lewoleba Tengah, Kec. Nubatukan, Kabupaten Lembata, Nusa Tenggara Tim. 86615","Kec. Nubatukan, Kabupaten Lembata",NUSA TENGGARA TIMUR,86615.0,Indonesia,82145190306.0,,,-8.3758606,123.4145813,https://maps.google.com/?cid=0x0:0xc552b4fddee6862f,
mall,Pusat Perbelanjaan,Toko Daeng,"Jl. Trans Lembata, Lewoleba Tengah, Kec. Nubatukan, Kabupaten Lembata, Nusa Tenggara Tim.","Kabupaten Lembata, Nusa Tenggara Tim.",NUSA TENGGARA TIMUR,,Indonesia,85242520363.0,,,-8.3717043,123.4156226,https://maps.google.com/?cid=0x0:0x5623c9d905603b58,
mall,Toko Suvenir,Mariosca Craft Lembata (Produk and Galery),"Depan SDN Wangatoa, Lewoleba Tengah, Kec. Nubatukan, Kabupaten Lembata, Nusa Tenggara Tim.","Kabupaten Lembata, Nusa Tenggara Tim.",NUSA TENGGARA TIMUR,,Indonesia,82235366973.0,,,-8.3755143,123.4295648,https://maps.google.com/?cid=0x0:0xff8ba2eac6c276ec,
mall,Toko Swalayan,Naga mas toko,"JCH8+72Q, Jl. Trans Lembata, Lewoleba Tengah, Kec. Nubatukan, Kabupaten Lembata, Nusa Tenggara Tim.","Kabupaten Lembata, Nusa Tenggara Tim.",NUSA TENGGARA TIMUR,,Indonesia,,,,-8.3716984,123.4152617,https://maps.google.com/?cid=0x0:0x35fabdb10cb9e4bd,
mall,Toko Komputer,Atirah servis,"Lewoleba Tengah, Kec. Nubatukan, Kabupaten Lembata, Nusa Tenggara Tim.","Kabupaten Lembata, Nusa Tenggara Tim.",NUSA TENGGARA TIMUR,,Indonesia,81339864123.0,,,-8.3727133,123.4161339,https://maps.google.com/?cid=0x0:0xa17ddcf088ba2bd5,
mall,Pusat Perbelanjaan,Daeng Shoes Lembata,"Jl. Trans Lembata, Lewoleba Tengah, Kec. Nubatukan, Kabupaten Lembata, Nusa Tenggara Tim. 86682","Lewoleba Tengah, Kec. Nubatukan, Kabupaten Lembata",NUSA TENGGARA TIMUR,86682.0,Indonesia,85242520363.0,,,-8.3727654,123.4277939,https://maps.google.com/?cid=0x0:0x6b16150b1d5de2ee,
mall,Toko bahan makanan,Kios RA MANDAR JAYA,"JCF8+P27, Jl. Berdikari, Lewoleba Tengah, Kec. Nubatukan, Kabupaten Lembata, Nusa Tenggara Tim.","Kabupaten Lembata, Nusa Tenggara Tim.",NUSA TENGGARA TIMUR,,Indonesia,81339063133.0,,,-8.3757033,123.4150529,https://maps.google.com/?cid=0x0:0xc196719e266f2a4a,
mall,Komplek perumahan,Kios Acho ask,"JCJC+9PG, Lewoleba Tengah, Kec. Nubatukan, Kabupaten Lembata, Nusa Tenggara Tim.","Kabupaten Lembata, Nusa Tenggara Tim.",NUSA TENGGARA TIMUR,,Indonesia,,,,-8.3690689,123.4218225,https://maps.google.com/?cid=0x0:0xb76b5062a21a0173,
mall,Perusahaan air mineral,Water Life Depot Air Minum,"Jalan Eugene Zmith, RT.20/RW.8, Lewoleba Tengah, Kec. Nubatukan, Kabupaten Lembata, Nusa Tenggara Tim.","Kabupaten Lembata, Nusa Tenggara Tim.",NUSA TENGGARA TIMUR,,Indonesia,85239183000.0,,,-8.3737964,123.4263365,https://maps.google.com/?cid=0x0:0xf0376f3fd188b0bc,
mall,Toko Tahu,TAHU TEMPE ENGGAL JAYA,"J9HW+XHV, Lewoleba Utara, Kec. Nubatukan, Kabupaten Lembata, Nusa Tenggara Tim.","Kabupaten Lembata, Nusa Tenggara Tim.",NUSA TENGGARA TIMUR,,Indonesia,,,,-8.3700186,123.3964111,https://maps.google.com/?cid=0x0:0x360b3826384c46ae,
mall,Hipermarket,Lippo Plaza Kupang,"Jl. Veteran, Fatululi, Kec. Oebobo, Kota Kupang, Nusa Tenggara Tim.","Kota Kupang, Nusa Tenggara Tim.",NUSA TENGGARA TIMUR,,Indonesia,,,,-10.158877,123.6112188,https://maps.google.com/?cid=0x0:0x2d473260f9494ae7,
mall,Kantor Pemerintah,Ombudsman Republik Indonesia,"Jl. H. R. Rasuna Said No.Kav. C-19, Kuningan Tim., Kecamatan Setiabudi, Kota Jakarta Selatan, Daerah Khusus Ibukota Jakarta 12920","Kuningan Tim., Kecamatan Setiabudi, Kota Jakarta Selatan",NUSA TENGGARA TIMUR,12920.0,Indonesia,2122513737.0,,,-6.2192397,106.8319531,https://maps.google.com/?cid=0x0:0x5fade298b9b828f,
mall,mall,VOLCANO,"JCMV+FCX, Jl. Trans Lembata, Selandoro, Kec. Nubatukan, Kabupaten Lembata, Nusa Tenggara Tim.","Kabupaten Lembata, Nusa Tenggara Tim.",NUSA TENGGARA TIMUR,,Indonesia,,,,-8.3662551,123.4435808,https://maps.google.com/?cid=0x0:0x78297d02ef4c1e61,
mall,mall,Kec. Buyasari,"Kabupaten Lembata, Nusa Tenggara Tim.","Kabupaten Lembata, Nusa Tenggara Tim.",NUSA TENGGARA TIMUR,,Indonesia,,,,-8.2341393,123.7965376,https://maps.google.com/?cid=0x0:0x634360f4156fb87d,
mall,Toko,Toko HASMART,"Bean, Kec. Buyasari, Kabupaten Lembata, Nusa Tenggara Tim.","Kabupaten Lembata, Nusa Tenggara Tim.",NUSA TENGGARA TIMUR,,Indonesia,,,,-8.2691925,123.8187236,https://maps.google.com/?cid=0x0:0x24aea777c3ac44a3,
mall,Pusat Perbelanjaan,Kuluwalla Lamaleleq,"QRV9+J8H, Kaohua, Kec. Buyasari, Kabupaten Lembata, Nusa Tenggara Tim.","Kabupaten Lembata, Nusa Tenggara Tim.",NUSA TENGGARA TIMUR,,Indonesia,,,,-8.2059353,123.8183695,https://maps.google.com/?cid=0x0:0x4b2838584d11bbbc,
mall,Kios,KIOS BUNDA RESTA,"QQ49+822, Leudanung, Kec. Omesuri, Kabupaten Lembata, Nusa Tenggara Tim.","Kabupaten Lembata, Nusa Tenggara Tim.",NUSA TENGGARA TIMUR,,Indonesia,81236653972.0,,,-8.2444067,123.7675527,https://maps.google.com/?cid=0x0:0x40e9ce685f43ff30,
mall,Ahli tembakau,Agen tembakau (halte bako),"RQGF+R73, Unnamed Road, Bareng, Kec. Buyasari, Kabupaten Lembata, Nusa Tenggara Tim.","Kabupaten Lembata, Nusa Tenggara Tim.",NUSA TENGGARA TIMUR,,Indonesia,81314711314.0,,,-8.1729884,123.7731719,https://maps.google.com/?cid=0x0:0xa0faf337c75e10c,
mall,mall,Kec. Ile Ape,"Kabupaten Lembata, Nusa Tenggara Tim.","Kabupaten Lembata, Nusa Tenggara Tim.",NUSA TENGGARA TIMUR,,Indonesia,,,,-8.2710158,123.4600712,https://maps.google.com/?cid=0x0:0x326d060bf93304cb,
mall,Pasar tradisional,Letto market,"PFP9+45C, Lewotolok, Kec. Ile Ape, Kabupaten Lembata, Nusa Tenggara Tim.","Kabupaten Lembata, Nusa Tenggara Tim.",NUSA TENGGARA TIMUR,,Indonesia,,,,-8.2646948,123.4678845,https://maps.google.com/?cid=0x0:0x76f36b3a5f27e085,
mall,Komplek perumahan,Pasar Lamahora,"JCGV+M7J, Lamahora, Lewoleba Tim., Kec. Nubatukan, Kabupaten Lembata, Nusa Tenggara Tim.","Kabupaten Lembata, Nusa Tenggara Tim.",NUSA TENGGARA TIMUR,,Indonesia,,,,-8.3732801,123.443127,https://maps.google.com/?cid=0x0:0xdf5fae1cec0aa9b4,
mall,mall,Kec. Ile Ape Tim.,"Kabupaten Lembata, Nusa Tenggara Tim.","Kabupaten Lembata, Nusa Tenggara Tim.",NUSA TENGGARA TIMUR,,Indonesia,,,,-8.258433,123.5466807,https://maps.google.com/?cid=0x0:0x77a0f208453323a,
mall,Toko,Rabbit Conforti,"JFQ3+FVQ, Lewoleba Tim., Kec. Nubatukan, Kabupaten Lembata, Nusa Tenggara Tim.","Kabupaten Lembata, Nusa Tenggara Tim.",NUSA TENGGARA TIMUR,,Indonesia,,,,-8.3612954,123.4547324,https://maps.google.com/?cid=0x0:0x799ea955bb52f1dd,
mall,Kios,Kios bot 24,"P9GV+J5Q, Dulitukan, Beling, Kabupaten Lembata, Nusa Tenggara Tim.","Kabupaten Lembata, Nusa Tenggara Tim.",NUSA TENGGARA TIMUR,,Indonesia,81246656564.0,,,-8.2737354,123.3930721,https://maps.google.com/?cid=0x0:0x9de0d7b88dfb15bb,
mall,mall,Kec. Ile Ape Tim.,"Kabupaten Lembata, Nusa Tenggara Tim.","Kabupaten Lembata, Nusa Tenggara Tim.",NUSA TENGGARA TIMUR,,Indonesia,,,,-8.258433,123.5466807,https://maps.google.com/?cid=0x0:0x77a0f208453323a,
mall,Pasar tradisional,Letto market,"PFP9+45C, Lewotolok, Kec. Ile Ape, Kabupaten Lembata, Nusa Tenggara Tim.","Kabupaten Lembata, Nusa Tenggara Tim.",NUSA TENGGARA TIMUR,,Indonesia,,,,-8.2646948,123.4678845,https://maps.google.com/?cid=0x0:0x76f36b3a5f27e085,
mall,Komplek perumahan,CrisnaQueen Universal,"QG6J+89P, Jl. Ring Ileape, Lamaau, Kec. Ile Ape Tim., Kabupaten Lembata, Nusa Tenggara Tim.","Kabupaten Lembata, Nusa Tenggara Tim.",NUSA TENGGARA TIMUR,,Indonesia,81246428288.0,,,-8.239153,123.5309654,https://maps.google.com/?cid=0x0:0xada681638d65d75c,
mall,mall,Kec. Lebatukan,"Kabupaten Lembata, Nusa Tenggara Tim.","Kabupaten Lembata, Nusa Tenggara Tim.",NUSA TENGGARA TIMUR,,Indonesia,,,,-8.3697073,123.54609,https://maps.google.com/?cid=0x0:0xa62ae0579a3a3f13,
mall,Komplek perumahan,Pasar Lamahora,"JCGV+M7J, Lamahora, Lewoleba Tim., Kec. Nubatukan, Kabupaten Lembata, Nusa Tenggara Tim.","Kabupaten Lembata, Nusa Tenggara Tim.",NUSA TENGGARA TIMUR,,Indonesia,,,,-8.3732801,123.443127,https://maps.google.com/?cid=0x0:0xdf5fae1cec0aa9b4,
mall,Toko bahan makanan,Toko Ceria Raya,"JFV8+CJR, Jl. Trans Lembata, Lewoleba Tim., Kec. Nubatukan, Kabupaten Lembata, Nusa Tenggara Tim.","Kabupaten Lembata, Nusa Tenggara Tim.",NUSA TENGGARA TIMUR,,Indonesia,82236839939.0,,,-8.3563937,123.4665007,https://maps.google.com/?cid=0x0:0xd1734a3d78d6e9a4,
mall,Kantor Pemerintah,Kab.Lembata Dolulolong,"QPQG+2FF, Dolulolong, Kec. Omesuri, Kabupaten Lembata, Nusa Tenggara Tim.","Kabupaten Lembata, Nusa Tenggara Tim.",NUSA TENGGARA TIMUR,,Indonesia,,,,-8.21246,123.72538,https://maps.google.com/?cid=0x0:0xf2cabf1fdfadbeef,
mall,Toko,ASYIFA AKCESORIES,"JCGH+QWJ, Lewoleba Tengah, Kec. Nubatukan, Kabupaten Lembata, Nusa Tenggara Tim.","Kabupaten Lembata, Nusa Tenggara Tim.",NUSA TENGGARA TIMUR,,Indonesia,82237313333.0,,,-8.3730309,123.4297805,https://maps.google.com/?cid=0x0:0x81f356a457679dbd,
mall,Toko,Rabbit Conforti,"JFQ3+FVQ, Lewoleba Tim., Kec. Nubatukan, Kabupaten Lembata, Nusa Tenggara Tim.","Kabupaten Lembata, Nusa Tenggara Tim.",NUSA TENGGARA TIMUR,,Indonesia,,,,-8.3612954,123.4547324,https://maps.google.com/?cid=0x0:0x799ea955bb52f1dd,
mall,mall,VOLCANO,"JCMV+FCX, Jl. Trans Lembata, Selandoro, Kec. Nubatukan, Kabupaten Lembata, Nusa Tenggara Tim.","Kabupaten Lembata, Nusa Tenggara Tim.",NUSA TENGGARA TIMUR,,Indonesia,,,,-8.3662551,123.4435808,https://maps.google.com/?cid=0x0:0x78297d02ef4c1e61,
mall,Pasar tradisional,Letto market,"PFP9+45C, Lewotolok, Kec. Ile Ape, Kabupaten Lembata, Nusa Tenggara Tim.","Kabupaten Lembata, Nusa Tenggara Tim.",NUSA TENGGARA TIMUR,,Indonesia,,,,-8.2646948,123.4678845,https://maps.google.com/?cid=0x0:0x76f36b3a5f27e085,
mall,Kantor Perusahaan,Leuwayan,"Leuwayang, Kec. Omesuri, Kabupaten Lembata, Nusa Tenggara Tim.","Kabupaten Lembata, Nusa Tenggara Tim.",NUSA TENGGARA TIMUR,,Indonesia,,,,-8.2285121,123.7433907,https://maps.google.com/?cid=0x0:0x3878a1904a634d56,
mall,mall,Kec. Naga Wutung,"Kabupaten Lembata, Nusa Tenggara Tim.","Kabupaten Lembata, Nusa Tenggara Tim.",NUSA TENGGARA TIMUR,,Indonesia,,,,-8.4696349,123.2820337,https://maps.google.com/?cid=0x0:0x3bb0d340f794ad8b,
mall,Pusat Perbelanjaan,Wandy CENTRAL,"F74M+HR7, Lolong, Kec. Naga Wutung, Kabupaten Lembata, Nusa Tenggara Tim.","Kabupaten Lembata, Nusa Tenggara Tim.",NUSA TENGGARA TIMUR,,Indonesia,82340695146.0,,,-8.5435762,123.2845522,https://maps.google.com/?cid=0x0:0xec7cacd818236eb5,
mall,Komplek perumahan,Pasar Loang,"G7MP+H46, Duawutun, Kec. Naga Wutung, Kabupaten Lembata, Nusa Tenggara Tim.","Kabupaten Lembata, Nusa Tenggara Tim.",NUSA TENGGARA TIMUR,,Indonesia,,,,-8.4656673,123.2841814,https://maps.google.com/?cid=0x0:0x3e10efcaa002a6a3,
mall,Toko Swalayan,Naga mas toko,"JCH8+72Q, Jl. Trans Lembata, Lewoleba Tengah, Kec. Nubatukan, Kabupaten Lembata, Nusa Tenggara Tim.","Kabupaten Lembata, Nusa Tenggara Tim.",NUSA TENGGARA TIMUR,,Indonesia,,,,-8.3716984,123.4152617,https://maps.google.com/?cid=0x0:0x35fabdb10cb9e4bd,
mall,Komplek perumahan,Loang nagawutung,"G7HP+87, Duawutun, Kec. Naga Wutung, Kabupaten Lembata, Nusa Tenggara Tim.","Kabupaten Lembata, Nusa Tenggara Tim.",NUSA TENGGARA TIMUR,,Indonesia,,,,-8.4716533,123.2856691,https://maps.google.com/?cid=0x0:0xd254f70678af0bc9,
mall,Minimarket,Kios Haji Tuan,"G7JJ+4RX, Duawutun, Kec. Naga Wutung, Kabupaten Lembata, Nusa Tenggara Tim.","Kabupaten Lembata, Nusa Tenggara Tim.",NUSA TENGGARA TIMUR,,Indonesia,,,,-8.4694193,123.2825778,https://maps.google.com/?cid=0x0:0x213e76c563ddb339,
mall,Pusat Perbelanjaan,Naga Mas Mart,"Lewoleba Tengah, Kec. Nubatukan, Kabupaten Lembata, Nusa Tenggara Tim.","Kabupaten Lembata, Nusa Tenggara Tim.",NUSA TENGGARA TIMUR,,Indonesia,81339182762.0,,,-8.374624,123.417966,https://maps.google.com/?cid=0x0:0xeef61b4d29b4f2c7,
mall,mall,Kec. Nubatukan,"Kabupaten Lembata, Nusa Tenggara Tim.","Kabupaten Lembata, Nusa Tenggara Tim.",NUSA TENGGARA TIMUR,,Indonesia,,,,-8.3731739,123.4288459,https://maps.google.com/?cid=0x0:0x5937ac1360822cb3,
mall,Komplek perumahan,Pasar Lamahora,"JCGV+M7J, Lamahora, Lewoleba Tim., Kec. Nubatukan, Kabupaten Lembata, Nusa Tenggara Tim.","Kabupaten Lembata, Nusa Tenggara Tim.",NUSA TENGGARA TIMUR,,Indonesia,,,,-8.3732801,123.443127,https://maps.google.com/?cid=0x0:0xdf5fae1cec0aa9b4,
mall,Perhimpunan Pengembang Perumahan,Blok M Lembata,"JCG7+QR2, Kelurahan, Central Lewoleba, Nubatukan, Lembata Regency, East Nusa Tenggara","Kabupaten Lembata, Nusa Tenggara Tim.",NUSA TENGGARA TIMUR,,Indonesia,,,,-8.3731066,123.4145247,https://maps.google.com/?cid=0x0:0x1e10b07e14f89c93,
mall,Toko Swalayan,Naga mas toko,"JCH8+72Q, Jl. Trans Lembata, Lewoleba Tengah, Kec. Nubatukan, Kabupaten Lembata, Nusa Tenggara Tim.","Kabupaten Lembata, Nusa Tenggara Tim.",NUSA TENGGARA TIMUR,,Indonesia,,,,-8.3716984,123.4152617,https://maps.google.com/?cid=0x0:0x35fabdb10cb9e4bd,
mall,Toko bahan makanan,Toko Ceria Raya,"JFV8+CJR, Jl. Trans Lembata, Lewoleba Tim., Kec. Nubatukan, Kabupaten Lembata, Nusa Tenggara Tim.","Kabupaten Lembata, Nusa Tenggara Tim.",NUSA TENGGARA TIMUR,,Indonesia,82236839939.0,,,-8.3563937,123.4665007,https://maps.google.com/?cid=0x0:0xd1734a3d78d6e9a4,
mall,Toko,ASYIFA AKCESORIES,"JCGH+QWJ, Lewoleba Tengah, Kec. Nubatukan, Kabupaten Lembata, Nusa Tenggara Tim.","Kabupaten Lembata, Nusa Tenggara Tim.",NUSA TENGGARA TIMUR,,Indonesia,82237313333.0,,,-8.3730309,123.4297805,https://maps.google.com/?cid=0x0:0x81f356a457679dbd,
mall,Pusat Perbelanjaan,Toko Daeng,"Jl. Trans Lembata, Lewoleba Tengah, Kec. Nubatukan, Kabupaten Lembata, Nusa Tenggara Tim.","Kabupaten Lembata, Nusa Tenggara Tim.",NUSA TENGGARA TIMUR,,Indonesia,85242520363.0,,,-8.3717043,123.4156226,https://maps.google.com/?cid=0x0:0x5623c9d905603b58,
mall,Toko,Rabbit Conforti,"JFQ3+FVQ, Lewoleba Tim., Kec. Nubatukan, Kabupaten Lembata, Nusa Tenggara Tim.","Kabupaten Lembata, Nusa Tenggara Tim.",NUSA TENGGARA TIMUR,,Indonesia,,,,-8.3612954,123.4547324,https://maps.google.com/?cid=0x0:0x799ea955bb52f1dd,
mall,Toko Suvenir,Mariosca Craft Lembata (Produk and Galery),"Depan SDN Wangatoa, Lewoleba Tengah, Kec. Nubatukan, Kabupaten Lembata, Nusa Tenggara Tim.","Kabupaten Lembata, Nusa Tenggara Tim.",NUSA TENGGARA TIMUR,,Indonesia,82235366973.0,,,-8.3755143,123.4295648,https://maps.google.com/?cid=0x0:0xff8ba2eac6c276ec,
mall,Komplek perumahan,Kios Acho ask,"JCJC+9PG, Lewoleba Tengah, Kec. Nubatukan, Kabupaten Lembata, Nusa Tenggara Tim.","Kabupaten Lembata, Nusa Tenggara Tim.",NUSA TENGGARA TIMUR,,Indonesia,,,,-8.3690689,123.4218225,https://maps.google.com/?cid=0x0:0xb76b5062a21a0173,
mall,Toko bahan makanan,Kios RA MANDAR JAYA,"JCF8+P27, Jl. Berdikari, Lewoleba Tengah, Kec. Nubatukan, Kabupaten Lembata, Nusa Tenggara Tim.","Kabupaten Lembata, Nusa Tenggara Tim.",NUSA TENGGARA TIMUR,,Indonesia,81339063133.0,,,-8.3757033,123.4150529,https://maps.google.com/?cid=0x0:0xc196719e266f2a4a,
mall,Pasar tradisional,PASAR PADA,"J99W+C3W, Pasar pada, Lewoleba, Nusa Tenggara Tim.","Kabupaten Lembata, Nusa Tenggara Tim.",NUSA TENGGARA TIMUR,,Indonesia,82235366914.0,,,-8.381382,123.3952034,https://maps.google.com/?cid=0x0:0xfbaef16a98d7c308,
mall,Toko Komputer,Atirah servis,"Lewoleba Tengah, Kec. Nubatukan, Kabupaten Lembata, Nusa Tenggara Tim.","Kabupaten Lembata, Nusa Tenggara Tim.",NUSA TENGGARA TIMUR,,Indonesia,81339864123.0,,,-8.3727133,123.4161339,https://maps.google.com/?cid=0x0:0xa17ddcf088ba2bd5,
mall,Pusat Perbelanjaan,Daeng Shoes Lembata,"Jl. Trans Lembata, Lewoleba Tengah, Kec. Nubatukan, Kabupaten Lembata, Nusa Tenggara Tim. 86682","Lewoleba Tengah, Kec. Nubatukan, Kabupaten Lembata",NUSA TENGGARA TIMUR,86682.0,Indonesia,85242520363.0,,,-8.3727654,123.4277939,https://maps.google.com/?cid=0x0:0x6b16150b1d5de2ee,
mall,Toko Tahu,TAHU TEMPE ENGGAL JAYA,"J9HW+XHV, Lewoleba Utara, Kec. Nubatukan, Kabupaten Lembata, Nusa Tenggara Tim.","Kabupaten Lembata, Nusa Tenggara Tim.",NUSA TENGGARA TIMUR,,Indonesia,,,,-8.3700186,123.3964111,https://maps.google.com/?cid=0x0:0x360b3826384c46ae,
mall,Perusahaan air mineral,Water Life Depot Air Minum,"Jalan Eugene Zmith, RT.20/RW.8, Lewoleba Tengah, Kec. Nubatukan, Kabupaten Lembata, Nusa Tenggara Tim.","Kabupaten Lembata, Nusa Tenggara Tim.",NUSA TENGGARA TIMUR,,Indonesia,85239183000.0,,,-8.3737964,123.4263365,https://maps.google.com/?cid=0x0:0xf0376f3fd188b0bc,
mall,mall,VOLCANO,"JCMV+FCX, Jl. Trans Lembata, Selandoro, Kec. Nubatukan, Kabupaten Lembata, Nusa Tenggara Tim.","Kabupaten Lembata, Nusa Tenggara Tim.",NUSA TENGGARA TIMUR,,Indonesia,,,,-8.3662551,123.4435808,https://maps.google.com/?cid=0x0:0x78297d02ef4c1e61,
mall,Toko Swalayan,AEON Mall Deltamas - Cikarang Bekasi,"Jl. Ganesha Boulevard, Kota Deltamas, Kec. Cikarang Pusat, Kabupaten Bekasi, Jawa Barat 17530","Kota Deltamas, Kec. Cikarang Pusat, Kabupaten Bekasi",NUSA TENGGARA TIMUR,17530.0,Indonesia,2138733333.0,,,-6.3519407,107.1954494,https://maps.google.com/?cid=0x0:0xa692ce22e7339115,
mall,mall,Kec. Nubatukan,"Kabupaten Lembata, Nusa Tenggara Tim.","Kabupaten Lembata, Nusa Tenggara Tim.",NUSA TENGGARA TIMUR,,Indonesia,,,,-8.3731739,123.4288459,https://maps.google.com/?cid=0x0:0x5937ac1360822cb3,
mall,Komplek perumahan,Pasar Lamahora,"JCGV+M7J, Lamahora, Lewoleba Tim., Kec. Nubatukan, Kabupaten Lembata, Nusa Tenggara Tim.","Kabupaten Lembata, Nusa Tenggara Tim.",NUSA TENGGARA TIMUR,,Indonesia,,,,-8.3732801,123.443127,https://maps.google.com/?cid=0x0:0xdf5fae1cec0aa9b4,
mall,Perhimpunan Pengembang Perumahan,Blok M Lembata,"JCG7+QR2, Kelurahan, Central Lewoleba, Nubatukan, Lembata Regency, East Nusa Tenggara","Kabupaten Lembata, Nusa Tenggara Tim.",NUSA TENGGARA TIMUR,,Indonesia,,,,-8.3731066,123.4145247,https://maps.google.com/?cid=0x0:0x1e10b07e14f89c93,
mall,Pusat Perbelanjaan,Toko Daeng,"Jl. Trans Lembata, Lewoleba Tengah, Kec. Nubatukan, Kabupaten Lembata, Nusa Tenggara Tim.","Kabupaten Lembata, Nusa Tenggara Tim.",NUSA TENGGARA TIMUR,,Indonesia,85242520363.0,,,-8.3717043,123.4156226,https://maps.google.com/?cid=0x0:0x5623c9d905603b58,
mall,Toko Swalayan,Naga mas toko,"JCH8+72Q, Jl. Trans Lembata, Lewoleba Tengah, Kec. Nubatukan, Kabupaten Lembata, Nusa Tenggara Tim.","Kabupaten Lembata, Nusa Tenggara Tim.",NUSA TENGGARA TIMUR,,Indonesia,,,,-8.3716984,123.4152617,https://maps.google.com/?cid=0x0:0x35fabdb10cb9e4bd,
mall,Toko,Rabbit Conforti,"JFQ3+FVQ, Lewoleba Tim., Kec. Nubatukan, Kabupaten Lembata, Nusa Tenggara Tim.","Kabupaten Lembata, Nusa Tenggara Tim.",NUSA TENGGARA TIMUR,,Indonesia,,,,-8.3612954,123.4547324,https://maps.google.com/?cid=0x0:0x799ea955bb52f1dd,
mall,Toko bahan makanan,Toko Ceria Raya,"JFV8+CJR, Jl. Trans Lembata, Lewoleba Tim., Kec. Nubatukan, Kabupaten Lembata, Nusa Tenggara Tim.","Kabupaten Lembata, Nusa Tenggara Tim.",NUSA TENGGARA TIMUR,,Indonesia,82236839939.0,,,-8.3563937,123.4665007,https://maps.google.com/?cid=0x0:0xd1734a3d78d6e9a4,
mall,Toko,ASYIFA AKCESORIES,"JCGH+QWJ, Lewoleba Tengah, Kec. Nubatukan, Kabupaten Lembata, Nusa Tenggara Tim.","Kabupaten Lembata, Nusa Tenggara Tim.",NUSA TENGGARA TIMUR,,Indonesia,82237313333.0,,,-8.3730309,123.4297805,https://maps.google.com/?cid=0x0:0x81f356a457679dbd,
mall,Toko Suvenir,Mariosca Craft Lembata (Produk and Galery),"Depan SDN Wangatoa, Lewoleba Tengah, Kec. Nubatukan, Kabupaten Lembata, Nusa Tenggara Tim.","Kabupaten Lembata, Nusa Tenggara Tim.",NUSA TENGGARA TIMUR,,Indonesia,82235366973.0,,,-8.3755143,123.4295648,https://maps.google.com/?cid=0x0:0xff8ba2eac6c276ec,
mall,Komplek perumahan,Kios Acho ask,"JCJC+9PG, Lewoleba Tengah, Kec. Nubatukan, Kabupaten Lembata, Nusa Tenggara Tim.","Kabupaten Lembata, Nusa Tenggara Tim.",NUSA TENGGARA TIMUR,,Indonesia,,,,-8.3690689,123.4218225,https://maps.google.com/?cid=0x0:0xb76b5062a21a0173,
mall,Toko bahan makanan,Kios RA MANDAR JAYA,"JCF8+P27, Jl. Berdikari, Lewoleba Tengah, Kec. Nubatukan, Kabupaten Lembata, Nusa Tenggara Tim.","Kabupaten Lembata, Nusa Tenggara Tim.",NUSA TENGGARA TIMUR,,Indonesia,81339063133.0,,,-8.3757033,123.4150529,https://maps.google.com/?cid=0x0:0xc196719e266f2a4a,
mall,Pusat Perbelanjaan,Daeng Shoes Lembata,"Jl. Trans Lembata, Lewoleba Tengah, Kec. Nubatukan, Kabupaten Lembata, Nusa Tenggara Tim. 86682","Lewoleba Tengah, Kec. Nubatukan, Kabupaten Lembata",NUSA TENGGARA TIMUR,86682.0,Indonesia,85242520363.0,,,-8.3727654,123.4277939,https://maps.google.com/?cid=0x0:0x6b16150b1d5de2ee,
mall,Toko Komputer,Atirah servis,"Lewoleba Tengah, Kec. Nubatukan, Kabupaten Lembata, Nusa Tenggara Tim.","Kabupaten Lembata, Nusa Tenggara Tim.",NUSA TENGGARA TIMUR,,Indonesia,81339864123.0,,,-8.3727133,123.4161339,https://maps.google.com/?cid=0x0:0xa17ddcf088ba2bd5,
mall,Perusahaan air mineral,Water Life Depot Air Minum,"Jalan Eugene Zmith, RT.20/RW.8, Lewoleba Tengah, Kec. Nubatukan, Kabupaten Lembata, Nusa Tenggara Tim.","Kabupaten Lembata, Nusa Tenggara Tim.",NUSA TENGGARA TIMUR,,Indonesia,85239183000.0,,,-8.3737964,123.4263365,https://maps.google.com/?cid=0x0:0xf0376f3fd188b0bc,
mall,Toko Tahu,TAHU TEMPE ENGGAL JAYA,"J9HW+XHV, Lewoleba Utara, Kec. Nubatukan, Kabupaten Lembata, Nusa Tenggara Tim.","Kabupaten Lembata, Nusa Tenggara Tim.",NUSA TENGGARA TIMUR,,Indonesia,,,,-8.3700186,123.3964111,https://maps.google.com/?cid=0x0:0x360b3826384c46ae,
mall,Komplek perumahan,Kota baru,"JCCC+F54, Kota baru timur, Lewoleba Sel., Kec. Nubatukan, Kabupaten Lembata, Nusa Tenggara Tim.","Kabupaten Lembata, Nusa Tenggara Tim.",NUSA TENGGARA TIMUR,,Indonesia,82290828776.0,,,-8.3788542,123.420448,https://maps.google.com/?cid=0x0:0x1cc3b31fa379bd30,
mall,Kantor Pemerintah Distrik,Kantor Lurah Lewoleba Selatan,"JC9C+X5J, Lewoleba Sel., Kec. Nubatukan, Kabupaten Lembata, Nusa Tenggara Tim.","Kabupaten Lembata, Nusa Tenggara Tim.",NUSA TENGGARA TIMUR,,Indonesia,85239375764.0,,,-8.380034,123.4203998,https://maps.google.com/?cid=0x0:0xacf6bff2c5e7203b,
mall,Pos layanan mandiri kesehatan,Desa Paubokol,"H98V+FG4, Jalur Tengah, Baolangu, Kec. Nubatukan, Kabupaten Lembata, Nusa Tenggara Tim.","Kabupaten Lembata, Nusa Tenggara Tim.",NUSA TENGGARA TIMUR,,Indonesia,82339457239.0,,,-8.4338697,123.3938357,https://maps.google.com/?cid=0x0:0x410a989469d7521b,
mall,Sekolah Dasar,SDN Kota Baru,"JCFF+F9X, Lewoleba Tengah, Kec. Nubatukan, Kabupaten Lembata, Nusa Tenggara Tim.","Kabupaten Lembata, Nusa Tenggara Tim.",NUSA TENGGARA TIMUR,,Indonesia,,,,-8.3762683,123.4234912,https://maps.google.com/?cid=0x0:0x15ba6a96311d356c,
mall,Tempat Cukur Rambut,Pangkas Rambut Nusantara,"JCG8+QGJ, Lewoleba Tengah, Kec. Nubatukan, Kabupaten Lembata, Nusa Tenggara Tim.","Kabupaten Lembata, Nusa Tenggara Tim.",NUSA TENGGARA TIMUR,,Indonesia,,,,-8.3730439,123.4162669,https://maps.google.com/?cid=0x0:0xa59ff3bd7c590b88,
mall,mall,VOLCANO,"JCMV+FCX, Jl. Trans Lembata, Selandoro, Kec. Nubatukan, Kabupaten Lembata, Nusa Tenggara Tim.","Kabupaten Lembata, Nusa Tenggara Tim.",NUSA TENGGARA TIMUR,,Indonesia,,,,-8.3662551,123.4435808,https://maps.google.com/?cid=0x0:0x78297d02ef4c1e61,
mall,mall,Kec. Nubatukan,"Kabupaten Lembata, Nusa Tenggara Tim.","Kabupaten Lembata, Nusa Tenggara Tim.",NUSA TENGGARA TIMUR,,Indonesia,,,,-8.3731739,123.4288459,https://maps.google.com/?cid=0x0:0x5937ac1360822cb3,
mall,Komplek perumahan,Pasar Lamahora,"JCGV+M7J, Lamahora, Lewoleba Tim., Kec. Nubatukan, Kabupaten Lembata, Nusa Tenggara Tim.","Kabupaten Lembata, Nusa Tenggara Tim.",NUSA TENGGARA TIMUR,,Indonesia,,,,-8.3732801,123.443127,https://maps.google.com/?cid=0x0:0xdf5fae1cec0aa9b4,
mall,Perhimpunan Pengembang Perumahan,Blok M Lembata,"JCG7+QR2, Kelurahan, Central Lewoleba, Nubatukan, Lembata Regency, East Nusa Tenggara","Kabupaten Lembata, Nusa Tenggara Tim.",NUSA TENGGARA TIMUR,,Indonesia,,,,-8.3731066,123.4145247,https://maps.google.com/?cid=0x0:0x1e10b07e14f89c93,
mall,Toko Swalayan,Naga mas toko,"JCH8+72Q, Jl. Trans Lembata, Lewoleba Tengah, Kec. Nubatukan, Kabupaten Lembata, Nusa Tenggara Tim.","Kabupaten Lembata, Nusa Tenggara Tim.",NUSA TENGGARA TIMUR,,Indonesia,,,,-8.3716984,123.4152617,https://maps.google.com/?cid=0x0:0x35fabdb10cb9e4bd,
mall,Toko,Rabbit Conforti,"JFQ3+FVQ, Lewoleba Tim., Kec. Nubatukan, Kabupaten Lembata, Nusa Tenggara Tim.","Kabupaten Lembata, Nusa Tenggara Tim.",NUSA TENGGARA TIMUR,,Indonesia,,,,-8.3612954,123.4547324,https://maps.google.com/?cid=0x0:0x799ea955bb52f1dd,
mall,Toko Suvenir,Mariosca Craft Lembata (Produk and Galery),"Depan SDN Wangatoa, Lewoleba Tengah, Kec. Nubatukan, Kabupaten Lembata, Nusa Tenggara Tim.","Kabupaten Lembata, Nusa Tenggara Tim.",NUSA TENGGARA TIMUR,,Indonesia,82235366973.0,,,-8.3755143,123.4295648,https://maps.google.com/?cid=0x0:0xff8ba2eac6c276ec,
mall,Toko bahan makanan,Toko Ceria Raya,"JFV8+CJR, Jl. Trans Lembata, Lewoleba Tim., Kec. Nubatukan, Kabupaten Lembata, Nusa Tenggara Tim.","Kabupaten Lembata, Nusa Tenggara Tim.",NUSA TENGGARA TIMUR,,Indonesia,82236839939.0,,,-8.3563937,123.4665007,https://maps.google.com/?cid=0x0:0xd1734a3d78d6e9a4,
mall,Pusat Perbelanjaan,Toko Daeng,"Jl. Trans Lembata, Lewoleba Tengah, Kec. Nubatukan, Kabupaten Lembata, Nusa Tenggara Tim.","Kabupaten Lembata, Nusa Tenggara Tim.",NUSA TENGGARA TIMUR,,Indonesia,85242520363.0,,,-8.3717043,123.4156226,https://maps.google.com/?cid=0x0:0x5623c9d905603b58,
mall,Toko,ASYIFA AKCESORIES,"JCGH+QWJ, Lewoleba Tengah, Kec. Nubatukan, Kabupaten Lembata, Nusa Tenggara Tim.","Kabupaten Lembata, Nusa Tenggara Tim.",NUSA TENGGARA TIMUR,,Indonesia,82237313333.0,,,-8.3730309,123.4297805,https://maps.google.com/?cid=0x0:0x81f356a457679dbd,
mall,Toko bahan makanan,Kios RA MANDAR JAYA,"JCF8+P27, Jl. Berdikari, Lewoleba Tengah, Kec. Nubatukan, Kabupaten Lembata, Nusa Tenggara Tim.","Kabupaten Lembata, Nusa Tenggara Tim.",NUSA TENGGARA TIMUR,,Indonesia,81339063133.0,,,-8.3757033,123.4150529,https://maps.google.com/?cid=0x0:0xc196719e266f2a4a,
mall,Komplek perumahan,Kios Acho ask,"JCJC+9PG, Lewoleba Tengah, Kec. Nubatukan, Kabupaten Lembata, Nusa Tenggara Tim.","Kabupaten Lembata, Nusa Tenggara Tim.",NUSA TENGGARA TIMUR,,Indonesia,,,,-8.3690689,123.4218225,https://maps.google.com/?cid=0x0:0xb76b5062a21a0173,
mall,Pusat Perbelanjaan,Daeng Shoes Lembata,"Jl. Trans Lembata, Lewoleba Tengah, Kec. Nubatukan, Kabupaten Lembata, Nusa Tenggara Tim. 86682","Lewoleba Tengah, Kec. Nubatukan, Kabupaten Lembata",NUSA TENGGARA TIMUR,86682.0,Indonesia,85242520363.0,,,-8.3727654,123.4277939,https://maps.google.com/?cid=0x0:0x6b16150b1d5de2ee,
mall,Toko Komputer,Atirah servis,"Lewoleba Tengah, Kec. Nubatukan, Kabupaten Lembata, Nusa Tenggara Tim.","Kabupaten Lembata, Nusa Tenggara Tim.",NUSA TENGGARA TIMUR,,Indonesia,81339864123.0,,,-8.3727133,123.4161339,https://maps.google.com/?cid=0x0:0xa17ddcf088ba2bd5,
mall,Toko Tahu,TAHU TEMPE ENGGAL JAYA,"J9HW+XHV, Lewoleba Utara, Kec. Nubatukan, Kabupaten Lembata, Nusa Tenggara Tim.","Kabupaten Lembata, Nusa Tenggara Tim.",NUSA TENGGARA TIMUR,,Indonesia,,,,-8.3700186,123.3964111,https://maps.google.com/?cid=0x0:0x360b3826384c46ae,
mall,Perusahaan air mineral,Water Life Depot Air Minum,"Jalan Eugene Zmith, RT.20/RW.8, Lewoleba Tengah, Kec. Nubatukan, Kabupaten Lembata, Nusa Tenggara Tim.","Kabupaten Lembata, Nusa Tenggara Tim.",NUSA TENGGARA TIMUR,,Indonesia,85239183000.0,,,-8.3737964,123.4263365,https://maps.google.com/?cid=0x0:0xf0376f3fd188b0bc,
mall,mall,VOLCANO,"JCMV+FCX, Jl. Trans Lembata, Selandoro, Kec. Nubatukan, Kabupaten Lembata, Nusa Tenggara Tim.","Kabupaten Lembata, Nusa Tenggara Tim.",NUSA TENGGARA TIMUR,,Indonesia,,,,-8.3662551,123.4435808,https://maps.google.com/?cid=0x0:0x78297d02ef4c1e61,
mall,mall,Kec. Nubatukan,"Kabupaten Lembata, Nusa Tenggara Tim.","Kabupaten Lembata, Nusa Tenggara Tim.",NUSA TENGGARA TIMUR,,Indonesia,,,,-8.3731739,123.4288459,https://maps.google.com/?cid=0x0:0x5937ac1360822cb3,
mall,Komplek perumahan,Pasar Lamahora,"JCGV+M7J, Lamahora, Lewoleba Tim., Kec. Nubatukan, Kabupaten Lembata, Nusa Tenggara Tim.","Kabupaten Lembata, Nusa Tenggara Tim.",NUSA TENGGARA TIMUR,,Indonesia,,,,-8.3732801,123.443127,https://maps.google.com/?cid=0x0:0xdf5fae1cec0aa9b4,
mall,Perhimpunan Pengembang Perumahan,Blok M Lembata,"JCG7+QR2, Kelurahan, Central Lewoleba, Nubatukan, Lembata Regency, East Nusa Tenggara","Kabupaten Lembata, Nusa Tenggara Tim.",NUSA TENGGARA TIMUR,,Indonesia,,,,-8.3731066,123.4145247,https://maps.google.com/?cid=0x0:0x1e10b07e14f89c93,
mall,mall,VOLCANO,"JCMV+FCX, Jl. Trans Lembata, Selandoro, Kec. Nubatukan, Kabupaten Lembata, Nusa Tenggara Tim.","Kabupaten Lembata, Nusa Tenggara Tim.",NUSA TENGGARA TIMUR,,Indonesia,,,,-8.3662551,123.4435808,https://maps.google.com/?cid=0x0:0x78297d02ef4c1e61,
mall,Kantor Perusahaan,Toko : Sulawesi Jaya,"Lewoleba Tengah, Kec. Nubatukan, Kabupaten Lembata, Nusa Tenggara Tim. 86615","Kec. Nubatukan, Kabupaten Lembata",NUSA TENGGARA TIMUR,86615.0,Indonesia,82145190306.0,,,-8.3758606,123.4145813,https://maps.google.com/?cid=0x0:0xc552b4fddee6862f,
mall,Toko Swalayan,Naga mas toko,"JCH8+72Q, Jl. Trans Lembata, Lewoleba Tengah, Kec. Nubatukan, Kabupaten Lembata, Nusa Tenggara Tim.","Kabupaten Lembata, Nusa Tenggara Tim.",NUSA TENGGARA TIMUR,,Indonesia,,,,-8.3716984,123.4152617,https://maps.google.com/?cid=0x0:0x35fabdb10cb9e4bd,
mall,Toko bahan makanan,Toko Ceria Raya,"JFV8+CJR, Jl. Trans Lembata, Lewoleba Tim., Kec. Nubatukan, Kabupaten Lembata, Nusa Tenggara Tim.","Kabupaten Lembata, Nusa Tenggara Tim.",NUSA TENGGARA TIMUR,,Indonesia,82236839939.0,,,-8.3563937,123.4665007,https://maps.google.com/?cid=0x0:0xd1734a3d78d6e9a4,
mall,Pusat Perbelanjaan,Toko Daeng,"Jl. Trans Lembata, Lewoleba Tengah, Kec. Nubatukan, Kabupaten Lembata, Nusa Tenggara Tim.","Kabupaten Lembata, Nusa Tenggara Tim.",NUSA TENGGARA TIMUR,,Indonesia,85242520363.0,,,-8.3717043,123.4156226,https://maps.google.com/?cid=0x0:0x5623c9d905603b58,
mall,Toko,Rabbit Conforti,"JFQ3+FVQ, Lewoleba Tim., Kec. Nubatukan, Kabupaten Lembata, Nusa Tenggara Tim.","Kabupaten Lembata, Nusa Tenggara Tim.",NUSA TENGGARA TIMUR,,Indonesia,,,,-8.3612954,123.4547324,https://maps.google.com/?cid=0x0:0x799ea955bb52f1dd,
mall,Toko Suvenir,Mariosca Craft Lembata (Produk and Galery),"Depan SDN Wangatoa, Lewoleba Tengah, Kec. Nubatukan, Kabupaten Lembata, Nusa Tenggara Tim.","Kabupaten Lembata, Nusa Tenggara Tim.",NUSA TENGGARA TIMUR,,Indonesia,82235366973.0,,,-8.3755143,123.4295648,https://maps.google.com/?cid=0x0:0xff8ba2eac6c276ec,
mall,Komplek perumahan,Kios Acho ask,"JCJC+9PG, Lewoleba Tengah, Kec. Nubatukan, Kabupaten Lembata, Nusa Tenggara Tim.","Kabupaten Lembata, Nusa Tenggara Tim.",NUSA TENGGARA TIMUR,,Indonesia,,,,-8.3690689,123.4218225,https://maps.google.com/?cid=0x0:0xb76b5062a21a0173,
mall,Toko bahan makanan,Kios RA MANDAR JAYA,"JCF8+P27, Jl. Berdikari, Lewoleba Tengah, Kec. Nubatukan, Kabupaten Lembata, Nusa Tenggara Tim.","Kabupaten Lembata, Nusa Tenggara Tim.",NUSA TENGGARA TIMUR,,Indonesia,81339063133.0,,,-8.3757033,123.4150529,https://maps.google.com/?cid=0x0:0xc196719e266f2a4a,
mall,Pusat Perbelanjaan,Daeng Shoes Lembata,"Jl. Trans Lembata, Lewoleba Tengah, Kec. Nubatukan, Kabupaten Lembata, Nusa Tenggara Tim. 86682","Lewoleba Tengah, Kec. Nubatukan, Kabupaten Lembata",NUSA TENGGARA TIMUR,86682.0,Indonesia,85242520363.0,,,-8.3727654,123.4277939,https://maps.google.com/?cid=0x0:0x6b16150b1d5de2ee,
mall,Toko Komputer,Atirah servis,"Lewoleba Tengah, Kec. Nubatukan, Kabupaten Lembata, Nusa Tenggara Tim.","Kabupaten Lembata, Nusa Tenggara Tim.",NUSA TENGGARA TIMUR,,Indonesia,81339864123.0,,,-8.3727133,123.4161339,https://maps.google.com/?cid=0x0:0xa17ddcf088ba2bd5,
mall,Toko Tahu,TAHU TEMPE ENGGAL JAYA,"J9HW+XHV, Lewoleba Utara, Kec. Nubatukan, Kabupaten Lembata, Nusa Tenggara Tim.","Kabupaten Lembata, Nusa Tenggara Tim.",NUSA TENGGARA TIMUR,,Indonesia,,,,-8.3700186,123.3964111,https://maps.google.com/?cid=0x0:0x360b3826384c46ae,
mall,Perusahaan air mineral,Water Life Depot Air Minum,"Jalan Eugene Zmith, RT.20/RW.8, Lewoleba Tengah, Kec. Nubatukan, Kabupaten Lembata, Nusa Tenggara Tim.","Kabupaten Lembata, Nusa Tenggara Tim.",NUSA TENGGARA TIMUR,,Indonesia,85239183000.0,,,-8.3737964,123.4263365,https://maps.google.com/?cid=0x0:0xf0376f3fd188b0bc,
mall,mall,Kec. Nubatukan,"Kabupaten Lembata, Nusa Tenggara Tim.","Kabupaten Lembata, Nusa Tenggara Tim.",NUSA TENGGARA TIMUR,,Indonesia,,,,-8.3731739,123.4288459,https://maps.google.com/?cid=0x0:0x5937ac1360822cb3,
mall,Komplek perumahan,Pasar Lamahora,"JCGV+M7J, Lamahora, Lewoleba Tim., Kec. Nubatukan, Kabupaten Lembata, Nusa Tenggara Tim.","Kabupaten Lembata, Nusa Tenggara Tim.",NUSA TENGGARA TIMUR,,Indonesia,,,,-8.3732801,123.443127,https://maps.google.com/?cid=0x0:0xdf5fae1cec0aa9b4,
mall,Perhimpunan Pengembang Perumahan,Blok M Lembata,"JCG7+QR2, Kelurahan, Central Lewoleba, Nubatukan, Lembata Regency, East Nusa Tenggara","Kabupaten Lembata, Nusa Tenggara Tim.",NUSA TENGGARA TIMUR,,Indonesia,,,,-8.3731066,123.4145247,https://maps.google.com/?cid=0x0:0x1e10b07e14f89c93,
mall,mall,VOLCANO,"JCMV+FCX, Jl. Trans Lembata, Selandoro, Kec. Nubatukan, Kabupaten Lembata, Nusa Tenggara Tim.","Kabupaten Lembata, Nusa Tenggara Tim.",NUSA TENGGARA TIMUR,,Indonesia,,,,-8.3662551,123.4435808,https://maps.google.com/?cid=0x0:0x78297d02ef4c1e61,
mall,Kantor Perusahaan,Toko : Sulawesi Jaya,"Lewoleba Tengah, Kec. Nubatukan, Kabupaten Lembata, Nusa Tenggara Tim. 86615","Kec. Nubatukan, Kabupaten Lembata",NUSA TENGGARA TIMUR,86615.0,Indonesia,82145190306.0,,,-8.3758606,123.4145813,https://maps.google.com/?cid=0x0:0xc552b4fddee6862f,
mall,Toko Swalayan,Naga mas toko,"JCH8+72Q, Jl. Trans Lembata, Lewoleba Tengah, Kec. Nubatukan, Kabupaten Lembata, Nusa Tenggara Tim.","Kabupaten Lembata, Nusa Tenggara Tim.",NUSA TENGGARA TIMUR,,Indonesia,,,,-8.3716984,123.4152617,https://maps.google.com/?cid=0x0:0x35fabdb10cb9e4bd,
mall,Pusat Perbelanjaan,Toko Daeng,"Jl. Trans Lembata, Lewoleba Tengah, Kec. Nubatukan, Kabupaten Lembata, Nusa Tenggara Tim.","Kabupaten Lembata, Nusa Tenggara Tim.",NUSA TENGGARA TIMUR,,Indonesia,85242520363.0,,,-8.3717043,123.4156226,https://maps.google.com/?cid=0x0:0x5623c9d905603b58,
mall,Toko,Rabbit Conforti,"JFQ3+FVQ, Lewoleba Tim., Kec. Nubatukan, Kabupaten Lembata, Nusa Tenggara Tim.","Kabupaten Lembata, Nusa Tenggara Tim.",NUSA TENGGARA TIMUR,,Indonesia,,,,-8.3612954,123.4547324,https://maps.google.com/?cid=0x0:0x799ea955bb52f1dd,
mall,Toko bahan makanan,Toko Ceria Raya,"JFV8+CJR, Jl. Trans Lembata, Lewoleba Tim., Kec. Nubatukan, Kabupaten Lembata, Nusa Tenggara Tim.","Kabupaten Lembata, Nusa Tenggara Tim.",NUSA TENGGARA TIMUR,,Indonesia,82236839939.0,,,-8.3563937,123.4665007,https://maps.google.com/?cid=0x0:0xd1734a3d78d6e9a4,
mall,Toko Suvenir,Mariosca Craft Lembata (Produk and Galery),"Depan SDN Wangatoa, Lewoleba Tengah, Kec. Nubatukan, Kabupaten Lembata, Nusa Tenggara Tim.","Kabupaten Lembata, Nusa Tenggara Tim.",NUSA TENGGARA TIMUR,,Indonesia,82235366973.0,,,-8.3755143,123.4295648,https://maps.google.com/?cid=0x0:0xff8ba2eac6c276ec,
mall,Komplek perumahan,Kios Acho ask,"JCJC+9PG, Lewoleba Tengah, Kec. Nubatukan, Kabupaten Lembata, Nusa Tenggara Tim.","Kabupaten Lembata, Nusa Tenggara Tim.",NUSA TENGGARA TIMUR,,Indonesia,,,,-8.3690689,123.4218225,https://maps.google.com/?cid=0x0:0xb76b5062a21a0173,
mall,Pusat Perbelanjaan,Daeng Shoes Lembata,"Jl. Trans Lembata, Lewoleba Tengah, Kec. Nubatukan, Kabupaten Lembata, Nusa Tenggara Tim. 86682","Lewoleba Tengah, Kec. Nubatukan, Kabupaten Lembata",NUSA TENGGARA TIMUR,86682.0,Indonesia,85242520363.0,,,-8.3727654,123.4277939,https://maps.google.com/?cid=0x0:0x6b16150b1d5de2ee,
mall,Toko bahan makanan,Kios RA MANDAR JAYA,"JCF8+P27, Jl. Berdikari, Lewoleba Tengah, Kec. Nubatukan, Kabupaten Lembata, Nusa Tenggara Tim.","Kabupaten Lembata, Nusa Tenggara Tim.",NUSA TENGGARA TIMUR,,Indonesia,81339063133.0,,,-8.3757033,123.4150529,https://maps.google.com/?cid=0x0:0xc196719e266f2a4a,
mall,Toko Komputer,Atirah servis,"Lewoleba Tengah, Kec. Nubatukan, Kabupaten Lembata, Nusa Tenggara Tim.","Kabupaten Lembata, Nusa Tenggara Tim.",NUSA TENGGARA TIMUR,,Indonesia,81339864123.0,,,-8.3727133,123.4161339,https://maps.google.com/?cid=0x0:0xa17ddcf088ba2bd5,
mall,Toko Tahu,TAHU TEMPE ENGGAL JAYA,"J9HW+XHV, Lewoleba Utara, Kec. Nubatukan, Kabupaten Lembata, Nusa Tenggara Tim.","Kabupaten Lembata, Nusa Tenggara Tim.",NUSA TENGGARA TIMUR,,Indonesia,,,,-8.3700186,123.3964111,https://maps.google.com/?cid=0x0:0x360b3826384c46ae,
mall,Perusahaan air mineral,Water Life Depot Air Minum,"Jalan Eugene Zmith, RT.20/RW.8, Lewoleba Tengah, Kec. Nubatukan, Kabupaten Lembata, Nusa Tenggara Tim.","Kabupaten Lembata, Nusa Tenggara Tim.",NUSA TENGGARA TIMUR,,Indonesia,85239183000.0,,,-8.3737964,123.4263365,https://maps.google.com/?cid=0x0:0xf0376f3fd188b0bc,
mall,mall,Kec. Nubatukan,"Kabupaten Lembata, Nusa Tenggara Tim.","Kabupaten Lembata, Nusa Tenggara Tim.",NUSA TENGGARA TIMUR,,Indonesia,,,,-8.3731739,123.4288459,https://maps.google.com/?cid=0x0:0x5937ac1360822cb3,
mall,Komplek perumahan,Pasar Lamahora,"JCGV+M7J, Lamahora, Lewoleba Tim., Kec. Nubatukan, Kabupaten Lembata, Nusa Tenggara Tim.","Kabupaten Lembata, Nusa Tenggara Tim.",NUSA TENGGARA TIMUR,,Indonesia,,,,-8.3732801,123.443127,https://maps.google.com/?cid=0x0:0xdf5fae1cec0aa9b4,
mall,Perhimpunan Pengembang Perumahan,Blok M Lembata,"JCG7+QR2, Kelurahan, Central Lewoleba, Nubatukan, Lembata Regency, East Nusa Tenggara","Kabupaten Lembata, Nusa Tenggara Tim.",NUSA TENGGARA TIMUR,,Indonesia,,,,-8.3731066,123.4145247,https://maps.google.com/?cid=0x0:0x1e10b07e14f89c93,
mall,Toko Swalayan,Naga mas toko,"JCH8+72Q, Jl. Trans Lembata, Lewoleba Tengah, Kec. Nubatukan, Kabupaten Lembata, Nusa Tenggara Tim.","Kabupaten Lembata, Nusa Tenggara Tim.",NUSA TENGGARA TIMUR,,Indonesia,,,,-8.3716984,123.4152617,https://maps.google.com/?cid=0x0:0x35fabdb10cb9e4bd,
mall,Pusat Perbelanjaan,Toko Daeng,"Jl. Trans Lembata, Lewoleba Tengah, Kec. Nubatukan, Kabupaten Lembata, Nusa Tenggara Tim.","Kabupaten Lembata, Nusa Tenggara Tim.",NUSA TENGGARA TIMUR,,Indonesia,85242520363.0,,,-8.3717043,123.4156226,https://maps.google.com/?cid=0x0:0x5623c9d905603b58,
mall,Toko bahan makanan,Toko Ceria Raya,"JFV8+CJR, Jl. Trans Lembata, Lewoleba Tim., Kec. Nubatukan, Kabupaten Lembata, Nusa Tenggara Tim.","Kabupaten Lembata, Nusa Tenggara Tim.",NUSA TENGGARA TIMUR,,Indonesia,82236839939.0,,,-8.3563937,123.4665007,https://maps.google.com/?cid=0x0:0xd1734a3d78d6e9a4,
mall,Toko Suvenir,Mariosca Craft Lembata (Produk and Galery),"Depan SDN Wangatoa, Lewoleba Tengah, Kec. Nubatukan, Kabupaten Lembata, Nusa Tenggara Tim.","Kabupaten Lembata, Nusa Tenggara Tim.",NUSA TENGGARA TIMUR,,Indonesia,82235366973.0,,,-8.3755143,123.4295648,https://maps.google.com/?cid=0x0:0xff8ba2eac6c276ec,
mall,Toko,Rabbit Conforti,"JFQ3+FVQ, Lewoleba Tim., Kec. Nubatukan, Kabupaten Lembata, Nusa Tenggara Tim.","Kabupaten Lembata, Nusa Tenggara Tim.",NUSA TENGGARA TIMUR,,Indonesia,,,,-8.3612954,123.4547324,https://maps.google.com/?cid=0x0:0x799ea955bb52f1dd,
mall,Pusat Perbelanjaan,Daeng Shoes Lembata,"Jl. Trans Lembata, Lewoleba Tengah, Kec. Nubatukan, Kabupaten Lembata, Nusa Tenggara Tim. 86682","Lewoleba Tengah, Kec. Nubatukan, Kabupaten Lembata",NUSA TENGGARA TIMUR,86682.0,Indonesia,85242520363.0,,,-8.3727654,123.4277939,https://maps.google.com/?cid=0x0:0x6b16150b1d5de2ee,
mall,Toko,ASYIFA AKCESORIES,"JCGH+QWJ, Lewoleba Tengah, Kec. Nubatukan, Kabupaten Lembata, Nusa Tenggara Tim.","Kabupaten Lembata, Nusa Tenggara Tim.",NUSA TENGGARA TIMUR,,Indonesia,82237313333.0,,,-8.3730309,123.4297805,https://maps.google.com/?cid=0x0:0x81f356a457679dbd,
mall,Komplek perumahan,Kios Acho ask,"JCJC+9PG, Lewoleba Tengah, Kec. Nubatukan, Kabupaten Lembata, Nusa Tenggara Tim.","Kabupaten Lembata, Nusa Tenggara Tim.",NUSA TENGGARA TIMUR,,Indonesia,,,,-8.3690689,123.4218225,https://maps.google.com/?cid=0x0:0xb76b5062a21a0173,
mall,Toko bahan makanan,Kios RA MANDAR JAYA,"JCF8+P27, Jl. Berdikari, Lewoleba Tengah, Kec. Nubatukan, Kabupaten Lembata, Nusa Tenggara Tim.","Kabupaten Lembata, Nusa Tenggara Tim.",NUSA TENGGARA TIMUR,,Indonesia,81339063133.0,,,-8.3757033,123.4150529,https://maps.google.com/?cid=0x0:0xc196719e266f2a4a,
mall,Perusahaan air mineral,Water Life Depot Air Minum,"Jalan Eugene Zmith, RT.20/RW.8, Lewoleba Tengah, Kec. Nubatukan, Kabupaten Lembata, Nusa Tenggara Tim.","Kabupaten Lembata, Nusa Tenggara Tim.",NUSA TENGGARA TIMUR,,Indonesia,85239183000.0,,,-8.3737964,123.4263365,https://maps.google.com/?cid=0x0:0xf0376f3fd188b0bc,
mall,Toko Tahu,TAHU TEMPE ENGGAL JAYA,"J9HW+XHV, Lewoleba Utara, Kec. Nubatukan, Kabupaten Lembata, Nusa Tenggara Tim.","Kabupaten Lembata, Nusa Tenggara Tim.",NUSA TENGGARA TIMUR,,Indonesia,,,,-8.3700186,123.3964111,https://maps.google.com/?cid=0x0:0x360b3826384c46ae,
mall,Toko Komputer,Atirah servis,"Lewoleba Tengah, Kec. Nubatukan, Kabupaten Lembata, Nusa Tenggara Tim.","Kabupaten Lembata, Nusa Tenggara Tim.",NUSA TENGGARA TIMUR,,Indonesia,81339864123.0,,,-8.3727133,123.4161339,https://maps.google.com/?cid=0x0:0xa17ddcf088ba2bd5,
mall,Tempat Cukur Rambut,Pangkas Rambut Nusantara,"JCG8+QGJ, Lewoleba Tengah, Kec. Nubatukan, Kabupaten Lembata, Nusa Tenggara Tim.","Kabupaten Lembata, Nusa Tenggara Tim.",NUSA TENGGARA TIMUR,,Indonesia,,,,-8.3730439,123.4162669,https://maps.google.com/?cid=0x0:0xa59ff3bd7c590b88,
mall,Kantor Pemerintah Distrik,Kantor Lurah Lewoleba Selatan,"JC9C+X5J, Lewoleba Sel., Kec. Nubatukan, Kabupaten Lembata, Nusa Tenggara Tim.","Kabupaten Lembata, Nusa Tenggara Tim.",NUSA TENGGARA TIMUR,,Indonesia,85239375764.0,,,-8.380034,123.4203998,https://maps.google.com/?cid=0x0:0xacf6bff2c5e7203b,
mall,Komplek perumahan,Kota baru,"JCCC+F54, Kota baru timur, Lewoleba Sel., Kec. Nubatukan, Kabupaten Lembata, Nusa Tenggara Tim.","Kabupaten Lembata, Nusa Tenggara Tim.",NUSA TENGGARA TIMUR,,Indonesia,82290828776.0,,,-8.3788542,123.420448,https://maps.google.com/?cid=0x0:0x1cc3b31fa379bd30,
mall,Pos layanan mandiri kesehatan,Desa Paubokol,"H98V+FG4, Jalur Tengah, Baolangu, Kec. Nubatukan, Kabupaten Lembata, Nusa Tenggara Tim.","Kabupaten Lembata, Nusa Tenggara Tim.",NUSA TENGGARA TIMUR,,Indonesia,82339457239.0,,,-8.4338697,123.3938357,https://maps.google.com/?cid=0x0:0x410a989469d7521b,
mall,Kantor Polisi,Polsek Nubatukan,"JC57+53Q, Lewoleba Sel., Kec. Nubatukan, Kabupaten Lembata, Nusa Tenggara Tim.","Kabupaten Lembata, Nusa Tenggara Tim.",NUSA TENGGARA TIMUR,,Indonesia,,,,-8.392032,123.412719,https://maps.google.com/?cid=0x0:0x310946ff37d7d7b4,
mall,Toko Pakaian,Matahari Toko,"Jl. Trans Lembata No.9, Lewoleba Utara, Kec. Nubatukan, Kabupaten Lembata, Nusa Tenggara Tim.","Kabupaten Lembata, Nusa Tenggara Tim.",NUSA TENGGARA TIMUR,,Indonesia,38341103.0,,,-8.3732908,123.4003445,https://maps.google.com/?cid=0x0:0x14d0325996d62d01,
mall,Toko bahan makanan,Kios Walangnapo,"Jl. Trans Lembata, Lewoleba Tengah, Kec. Nubatukan, Kabupaten Lembata, Nusa Tenggara Tim.","Kabupaten Lembata, Nusa Tenggara Tim.",NUSA TENGGARA TIMUR,,Indonesia,81237346737.0,,,-8.3711487,123.435263,https://maps.google.com/?cid=0x0:0xb05aa52a77101aac,
mall,Kios,Ruko 3 Lou  Leba,"JCGH+V2J Wangatoa, Jln. Trans Lembata, Simpang Lima, Selandoro, Kec. Nubatukan, Kabupaten Lembata","Kabupaten Lembata, Nusa Tenggara Tim.",NUSA TENGGARA TIMUR,,Indonesia,,,,-8.3727801,123.4275177,https://maps.google.com/?cid=0x0:0x4c24d1b9f7a95c2b,
mall,mall,VOLCANO,"JCMV+FCX, Jl. Trans Lembata, Selandoro, Kec. Nubatukan, Kabupaten Lembata, Nusa Tenggara Tim.","Kabupaten Lembata, Nusa Tenggara Tim.",NUSA TENGGARA TIMUR,,Indonesia,,,,-8.3662551,123.4435808,https://maps.google.com/?cid=0x0:0x78297d02ef4c1e61,
mall,mall,FC. BHAKTI LEMBATA,"JCG8+2VC, Lewoleba Tengah, Kec. Nubatukan, Kabupaten Lembata, Nusa Tenggara Tim.","Kabupaten Lembata, Nusa Tenggara Tim.",NUSA TENGGARA TIMUR,,Indonesia,,,,-8.3749398,123.417156,https://maps.google.com/?cid=0x0:0x1966bfb70e34c03f,
mall,mall,Kios MARANATHA,"JCGM+J56, Wangatoa, Lewoleba Tengah, Kec. Nubatukan, Kabupaten Lembata, Nusa Tenggara Tim.","Kabupaten Lembata, Nusa Tenggara Tim.",NUSA TENGGARA TIMUR,,Indonesia,,,,-8.3734627,123.4328754,https://maps.google.com/?cid=0x0:0xdbfa1c0d352496c8,
mall,mall,Kec. Omesuri,"Kabupaten Lembata, Nusa Tenggara Tim.","Kabupaten Lembata, Nusa Tenggara Tim.",NUSA TENGGARA TIMUR,,Indonesia,,,,-8.2457063,123.7524523,https://maps.google.com/?cid=0x0:0x63a024d49fdb39f4,
mall,Kantor Pemerintah,Kab.Lembata Dolulolong,"QPQG+2FF, Dolulolong, Kec. Omesuri, Kabupaten Lembata, Nusa Tenggara Tim.","Kabupaten Lembata, Nusa Tenggara Tim.",NUSA TENGGARA TIMUR,,Indonesia,,,,-8.21246,123.72538,https://maps.google.com/?cid=0x0:0xf2cabf1fdfadbeef,
mall,Pasar,Pasar Impres Balauring,"QP74+VH4, Jl. Trans Lembata Lingkar, Balauring, Kec. Omesuri, Kabupaten Lembata, Nusa Tenggara Tim.","Kabupaten Lembata, Nusa Tenggara Tim.",NUSA TENGGARA TIMUR,,Indonesia,,,,-8.2347081,123.7065861,https://maps.google.com/?cid=0x0:0xe4dc89b039c10b60,
mall,Komplek perumahan,Pasar Lamahora,"JCGV+M7J, Lamahora, Lewoleba Tim., Kec. Nubatukan, Kabupaten Lembata, Nusa Tenggara Tim.","Kabupaten Lembata, Nusa Tenggara Tim.",NUSA TENGGARA TIMUR,,Indonesia,,,,-8.3732801,123.443127,https://maps.google.com/?cid=0x0:0xdf5fae1cec0aa9b4,
mall,Pusat Perbelanjaan,Kuluwalla Lamaleleq,"QRV9+J8H, Kaohua, Kec. Buyasari, Kabupaten Lembata, Nusa Tenggara Tim.","Kabupaten Lembata, Nusa Tenggara Tim.",NUSA TENGGARA TIMUR,,Indonesia,,,,-8.2059353,123.8183695,https://maps.google.com/?cid=0x0:0x4b2838584d11bbbc,
mall,Kantor Perusahaan,Leuwayan,"Leuwayang, Kec. Omesuri, Kabupaten Lembata, Nusa Tenggara Tim.","Kabupaten Lembata, Nusa Tenggara Tim.",NUSA TENGGARA TIMUR,,Indonesia,,,,-8.2285121,123.7433907,https://maps.google.com/?cid=0x0:0x3878a1904a634d56,
mall,Toko bahan makanan,Toko Ceria Raya,"JFV8+CJR, Jl. Trans Lembata, Lewoleba Tim., Kec. Nubatukan, Kabupaten Lembata, Nusa Tenggara Tim.","Kabupaten Lembata, Nusa Tenggara Tim.",NUSA TENGGARA TIMUR,,Indonesia,82236839939.0,,,-8.3563937,123.4665007,https://maps.google.com/?cid=0x0:0xd1734a3d78d6e9a4,
mall,Hipermarket,Lippo Plaza Kupang,"Jl. Veteran, Fatululi, Kec. Oebobo, Kota Kupang, Nusa Tenggara Tim.","Kota Kupang, Nusa Tenggara Tim.",NUSA TENGGARA TIMUR,,Indonesia,,,,-10.158877,123.6112188,https://maps.google.com/?cid=0x0:0x2d473260f9494ae7,
mall,Toko,Toko HASMART,"Bean, Kec. Buyasari, Kabupaten Lembata, Nusa Tenggara Tim.","Kabupaten Lembata, Nusa Tenggara Tim.",NUSA TENGGARA TIMUR,,Indonesia,,,,-8.2691925,123.8187236,https://maps.google.com/?cid=0x0:0x24aea777c3ac44a3,
mall,mall,Kantor BPD,"PMRQ+7H3, Balauring, Kec. Omesuri, Kabupaten Lembata, Nusa Tenggara Tim.","Kabupaten Lembata, Nusa Tenggara Tim.",NUSA TENGGARA TIMUR,,Indonesia,,,,-8.2593645,123.6889117,https://maps.google.com/?cid=0x0:0x494e470d1c99e809,
mall,mall,kios amara berkah,"PMRQ+PW9, Balauring, Kec. Omesuri, Kabupaten Lembata, Nusa Tenggara Tim.","Kabupaten Lembata, Nusa Tenggara Tim.",NUSA TENGGARA TIMUR,,Indonesia,,,,-8.2585579,123.6892741,https://maps.google.com/?cid=0x0:0x3da0a881344e534,
mall,Ahli tembakau,Agen tembakau (halte bako),"RQGF+R73, Unnamed Road, Bareng, Kec. Buyasari, Kabupaten Lembata, Nusa Tenggara Tim.","Kabupaten Lembata, Nusa Tenggara Tim.",NUSA TENGGARA TIMUR,,Indonesia,81314711314.0,,,-8.1729884,123.7731719,https://maps.google.com/?cid=0x0:0xa0faf337c75e10c,
mall,mall,Nusa Tenggara Tim.,,Nusa Tenggara Tim.,NUSA TENGGARA TIMUR,,Indonesia,,,,-8.6573819,121.0793705,https://maps.google.com/?cid=0x0:0x1030bfbcaf71ae0,
mall,Komplek perumahan,Pasar Barter Wulandoni,"FC8X+68F, Pantai Harapan, Kec. Wulandoni, Kabupaten Lembata, Nusa Tenggara Tim.","Kabupaten Lembata, Nusa Tenggara Tim.",NUSA TENGGARA TIMUR,,Indonesia,81393878656.0,,,-8.5344281,123.4483115,https://maps.google.com/?cid=0x0:0x1f93fe5576a0b26f,
mall,Galangan Kapal,Pelabuhan Wulandoni,"Pelabuhan, Kec. Wulandoni, Kabupaten Lembata, Nusa Tenggara Tim.","Kabupaten Lembata, Nusa Tenggara Tim.",NUSA TENGGARA TIMUR,,Indonesia,,,,-8.5356363,123.4484671,https://maps.google.com/?cid=0x0:0xf9ef78a43b0b6039,
mall,Komplek perumahan,Rumah Taufik lamabelawa,"FF93+Q5W, Pantai Harapan, Kec. Wulandoni, Kabupaten Lembata, Nusa Tenggara Tim.","Kabupaten Lembata, Nusa Tenggara Tim.",NUSA TENGGARA TIMUR,,Indonesia,,,,-8.5305004,123.4529608,https://maps.google.com/?cid=0x0:0xa7d20ae40ea987b0,
mall,Toko Swalayan,AEON Mall BSD City,"Jl. BSD Raya Utama, Pagedangan, Kec. Pagedangan, Kabupaten Tangerang, Banten 15339","Pagedangan, Kec. Pagedangan, Kabupaten Tangerang",NUSA TENGGARA TIMUR,15339.0,Indonesia,2129168585.0,,,-6.3052093,106.6432014,https://maps.google.com/?cid=0x0:0xf96b8f0f880ed863,
mall,Pusat Perbelanjaan,AEON Store BSD City,"Jl. BSD Raya Utama, Pagedangan, Kec. Pagedangan, Kabupaten Tangerang, Banten 15339","Pagedangan, Kec. Pagedangan, Kabupaten Tangerang",NUSA TENGGARA TIMUR,15339.0,Indonesia,2129168300.0,,,-6.3050114,106.6427107,https://maps.google.com/?cid=0x0:0xceab537610bcc910,
mall,Pengembang Realestat,Bsd Central Business District,"Jl. BSD Raya Utama No.22, Pagedangan, Kec. Pagedangan, Kabupaten Tangerang, Banten 15339","Pagedangan, Kec. Pagedangan, Kabupaten Tangerang",NUSA TENGGARA TIMUR,15339.0,Indonesia,85156510019.0,,,-6.3004279,106.6433561,https://maps.google.com/?cid=0x0:0xa821ece45c882e06,
mall,China,Kwetiaw 28 AHO,"AEON Mall BSD, Jl. BSD Raya Utama, Pagedangan, Kec. Pagedangan, Kabupaten Tangerang, Banten 15345","Jl. BSD Raya Utama, Pagedangan, Kec. Pagedangan, Kabupaten Tangerang",NUSA TENGGARA TIMUR,15345.0,Indonesia,,,,-6.3046616,106.6437012,https://maps.google.com/?cid=0x0:0x7bc50aa5b6d1d6ea,
mall,Taman Rekreasi Air,Sakura Park - AEON Mall BSD,"MJWV+H36, Jl. BSD Raya Utama, Pagedangan, Kec. Pagedangan, Kabupaten Tangerang, Banten 15339","Jl. BSD Raya Utama, Pagedangan, Kec. Pagedangan, Kabupaten Tangerang",NUSA TENGGARA TIMUR,15339.0,Indonesia,2129168585.0,,,-6.3035911,106.6426556,https://maps.google.com/?cid=0x0:0xe2250076b161c3d0,
mall,Steak,Pepper Lunch Express - ON Mall BSD City,"ON Mall BSD City, Jl. BSD Raya Utama Lantai 3 Unit 38, Pagedangan, Kec. Pagedangan, Kabupaten Tangerang, Banten 15339","Jl. BSD Raya Utama Lantai 3 Unit 38, Pagedangan, Kec. Pagedangan, Kabupaten Tangerang",NUSA TENGGARA TIMUR,15339.0,Indonesia,2129513890.0,,,-6.3052056,106.6432545,https://maps.google.com/?cid=0x0:0x16b3a8f8960f8433,
mall,Ramen,Ichiro Ramen Aeon Mall,"AEON Mall BSD City, Jl. BSD Raya Utama, Pagedangan, Kec. Pagedangan, Kabupaten Tangerang, Banten 15345","Jl. BSD Raya Utama, Pagedangan, Kec. Pagedangan, Kabupaten Tangerang",NUSA TENGGARA TIMUR,15345.0,Indonesia,88213694721.0,,,-6.305249,106.6430895,https://maps.google.com/?cid=0x0:0xe810f66eb3776de5,
mall,Jepang,Zenbu - ON Mall BSD City,"Jl. BSD Raya Utama, Pagedangan, Kec. Pagedangan, Kabupaten Tangerang, Banten 15339","Pagedangan, Kec. Pagedangan, Kabupaten Tangerang",NUSA TENGGARA TIMUR,15339.0,Indonesia,85717255720.0,,,-6.3039066,106.6442724,https://maps.google.com/?cid=0x0:0x3ef0999c49af1206,
supermarket,supermarket,Kec. Atadei,"Kabupaten Lembata, Nusa Tenggara Tim.","Kabupaten Lembata, Nusa Tenggara Tim.",NUSA TENGGARA TIMUR,,Indonesia,,,,-8.4349536,123.4678297,https://maps.google.com/?cid=0x0:0xfbbff0f263a15426,
supermarket,supermarket,TOMI KIOS,"HF89+R8C, Jl. Paradiso, Katakeja, Kec. Atadei, Kabupaten Lembata, Nusa Tenggara Tim.","Kabupaten Lembata, Nusa Tenggara Tim.",NUSA TENGGARA TIMUR,,Indonesia,,,,-8.4329347,123.4682726,https://maps.google.com/?cid=0x0:0xa8e8448d8e50bc0d,
supermarket,Toko Swalayan,Supermarket Olympic,"JCF7+RW5, Lewoleba Tengah, Kec. Nubatukan, Kabupaten Lembata, Nusa Tenggara Tim.","Kabupaten Lembata, Nusa Tenggara Tim.",NUSA TENGGARA TIMUR,,Indonesia,,,,-8.3754997,123.4148483,https://maps.google.com/?cid=0x0:0xf5cd5ab5f36fdf17,
supermarket,Pusat Perbelanjaan,Naga Mas Mart,"Lewoleba Tengah, Kec. Nubatukan, Kabupaten Lembata, Nusa Tenggara Tim.","Kabupaten Lembata, Nusa Tenggara Tim.",NUSA TENGGARA TIMUR,,Indonesia,81339182762.0,,,-8.374624,123.417966,https://maps.google.com/?cid=0x0:0xeef61b4d29b4f2c7,
supermarket,Bar,Kalikassa,"HF88+57H, Katakeja, Kec. Atadei, Kabupaten Lembata, Nusa Tenggara Tim.","Kabupaten Lembata, Nusa Tenggara Tim.",NUSA TENGGARA TIMUR,,Indonesia,,,,-8.4345715,123.465719,https://maps.google.com/?cid=0x0:0xeb8b2aae53b83931,
supermarket,Toko Pakaian,KIOS INDAH AZZAM,"GFHM+67P, Dori Pewut, Kec. Atadei, Kabupaten Lembata, Nusa Tenggara Tim.","Kabupaten Lembata, Nusa Tenggara Tim.",NUSA TENGGARA TIMUR,,Indonesia,,,,-8.4719075,123.4831906,https://maps.google.com/?cid=0x0:0x9629b598c2fbe0d6,
supermarket,Minimarket,Central Mart,"JCGC+9X9, Lewoleba Tengah, Kec. Nubatukan, Kabupaten Lembata, Nusa Tenggara Tim.","Kabupaten Lembata, Nusa Tenggara Tim.",NUSA TENGGARA TIMUR,,Indonesia,,,,-8.374087,123.4224802,https://maps.google.com/?cid=0x0:0x2b925a5f4c8b2d83,
supermarket,Toko,Kios 3 putry,"GFHM+67P, Dori Pewut, Kec. Atadei, Kabupaten Lembata, Nusa Tenggara Tim.","Kabupaten Lembata, Nusa Tenggara Tim.",NUSA TENGGARA TIMUR,,Indonesia,,,,-8.4719075,123.4831906,https://maps.google.com/?cid=0x0:0x12fbb7e1cbf75c9a,
supermarket,Toko,Kios aura salam waijarang,"GFHM+67P, Dori Pewut, Kec. Atadei, Kabupaten Lembata, Nusa Tenggara Tim.","Kabupaten Lembata, Nusa Tenggara Tim.",NUSA TENGGARA TIMUR,,Indonesia,,,,-8.4719075,123.4831906,https://maps.google.com/?cid=0x0:0x28b9b3183fe09547,
supermarket,Pemasok mebel sesuai pesanan,Mebel Ata Tolok,"GFHM+67P, Kompleks kejaksaan, Dori Pewut, Kec. Atadei, Kabupaten Lembata, Nusa Tenggara Tim.","Kabupaten Lembata, Nusa Tenggara Tim.",NUSA TENGGARA TIMUR,,Indonesia,,,,-8.4719075,123.4831906,https://maps.google.com/?cid=0x0:0x3da701d1cc1ba2bd,
supermarket,Toko bahan makanan,Outlet Zam,"JCH8+P5J Rayuan City, Lewoleba, Kec. Nubatukan, Kabupaten Lembata, Nusa Tenggara Tim.","Kabupaten Lembata, Nusa Tenggara Tim.",NUSA TENGGARA TIMUR,,Indonesia,82341632012.0,,,-8.370668,123.4153984,https://maps.google.com/?cid=0x0:0x81dbb5f373d7cf84,
supermarket,Toko,KIOS POPIN,"HF3C+GFH, Tubuk Rajan, Kec. Atadei, Kabupaten Lembata, Nusa Tenggara Tim.","Kabupaten Lembata, Nusa Tenggara Tim.",NUSA TENGGARA TIMUR,,Indonesia,81258860297.0,,,-8.4461939,123.4712223,https://maps.google.com/?cid=0x0:0x6237c0463352913d,
supermarket,Toko bahan makanan,Rizky Barokah Mart,"JCCC+FJF, Lewoleba Tengah, Kec. Nubatukan, Kabupaten Lembata, Nusa Tenggara Tim.","Kabupaten Lembata, Nusa Tenggara Tim.",NUSA TENGGARA TIMUR,,Indonesia,3834277.0,,,-8.3788005,123.4215375,https://maps.google.com/?cid=0x0:0xb74668201edf0f9a,
supermarket,Toko Swalayan,Tujuh Roda Depo,"JCPW+GQX, Jl. Trans Lembata, Selandoro, Kec. Nubatukan, Kabupaten Lembata, Nusa Tenggara Tim.","Kabupaten Lembata, Nusa Tenggara Tim.",NUSA TENGGARA TIMUR,,Indonesia,,,,-8.3636374,123.4469718,https://maps.google.com/?cid=0x0:0xbd5fdedc60a0b685,
supermarket,Pemasok mebel sesuai pesanan,perabot bambu,"GFHM+67P, Dori Pewut, kalikasa, Kabupaten Lembata, Nusa Tenggara Tim. 41426","Dori Pewut, kalikasa, Kabupaten Lembata",NUSA TENGGARA TIMUR,41426.0,Indonesia,81382268113.0,,,-8.4719075,123.4831906,https://maps.google.com/?cid=0x0:0x86f3d50d2ad8fb26,
supermarket,Kios,Kios Ekarynansya,"HCHF+MH3, Nuba Mado, Kec. Nubatukan, Kabupaten Lembata, Nusa Tenggara Tim.","Kabupaten Lembata, Nusa Tenggara Tim.",NUSA TENGGARA TIMUR,,Indonesia,85237235202.0,,,-8.4214048,123.4246936,https://maps.google.com/?cid=0x0:0xaa1c41ba35e353e,
supermarket,Kios,Kios Gen Sembilan,"HG25+C8P, Karangora, Kec. Atadei, Kabupaten Lembata, Nusa Tenggara Tim.","Kabupaten Lembata, Nusa Tenggara Tim.",NUSA TENGGARA TIMUR,,Indonesia,,,,-8.448904,123.5083239,https://maps.google.com/?cid=0x0:0x8e44fd2a525c8290,
supermarket,Komplek perumahan,UD Nogo Karang,"HG35+456 Karangora, RT.01/RW.03, Ile Kimok, Kec. Atadei, Kabupaten Lembata, Nusa Tenggara Tim.","Kabupaten Lembata, Nusa Tenggara Tim.",NUSA TENGGARA TIMUR,,Indonesia,82255375071.0,,,-8.4472223,123.5078968,https://maps.google.com/?cid=0x0:0x905de281e17ad908,
supermarket,Toko umum,"Kios Jenaka,Jl.SPENSA.Desa Katakeja","Unnamed Road, Katakeja, Kec. Atadei, Kabupaten Lembata, Nusa Tenggara Tim.","Kabupaten Lembata, Nusa Tenggara Tim.",NUSA TENGGARA TIMUR,,Indonesia,81343822014.0,,,-8.4355228,123.4666031,https://maps.google.com/?cid=0x0:0xb9428f0827890529,
supermarket,Toko,PT. MADINA LEMBATA JAYA,"Jl. Trans Lembata, Selandoro, Kec. Nubatukan, Kabupaten Lembata, Nusa Tenggara Tim.","Kabupaten Lembata, Nusa Tenggara Tim.",NUSA TENGGARA TIMUR,,Indonesia,81246779949.0,,,-8.3660196,123.4439916,https://maps.google.com/?cid=0x0:0x47f3a136448d5c9c,
supermarket,Pemasok mebel sesuai pesanan,Meubel Marces,"HF3C+P5R, Tubuk Rajan, Kec. Atadei, Kabupaten Lembata, Nusa Tenggara Tim.","Kabupaten Lembata, Nusa Tenggara Tim.",NUSA TENGGARA TIMUR,,Indonesia,,,,-8.4456467,123.4703852,https://maps.google.com/?cid=0x0:0x8e0583fe68c4967d,
supermarket,Toko Swalayan,Dwi Karya,"JCGV+X7C pasar lamahora, Lewoleba Tim., Kec. Nubatukan, Kabupaten Lembata, Nusa Tenggara Tim.","Kabupaten Lembata, Nusa Tenggara Tim.",NUSA TENGGARA TIMUR,,Indonesia,82139223031.0,,,-8.3725597,123.4431427,https://maps.google.com/?cid=0x0:0xeffd634c953a5f23,
supermarket,Toko bahan makanan,Taman Bunga,"JCF8+Q89, Unnamed Road, Lewoleba Tengah, Kec. Nubatukan, Kabupaten Lembata, Nusa Tenggara Tim.","Kabupaten Lembata, Nusa Tenggara Tim.",NUSA TENGGARA TIMUR,,Indonesia,,,,-8.3755851,123.4158674,https://maps.google.com/?cid=0x0:0xcc3ebf0f531fbb68,
supermarket,Minimarket,Heku Suka Mart,"JCPW+CV7, Jl. Trans Lembata, Lamahora, Titmur, Kabupaten Lembata, Nusa Tenggara Tim.","Kabupaten Lembata, Nusa Tenggara Tim.",NUSA TENGGARA TIMUR,,Indonesia,,,,-8.3639593,123.4471592,https://maps.google.com/?cid=0x0:0xbf2f707baf84df6c,
supermarket,Toko Perbaikan Ponsel,Aldi Cell 2,"JCHH+228, Jl. Trans Lembata, Lewoleba Tengah, Kec. Nubatukan, Kabupaten Lembata, Nusa Tenggara Tim.","Kabupaten Lembata, Nusa Tenggara Tim.",NUSA TENGGARA TIMUR,,Indonesia,,,,-8.3724539,123.4275893,https://maps.google.com/?cid=0x0:0x4986832f93f315e,
supermarket,Toko bahan makanan,Kios Walangnapo,"Jl. Trans Lembata, Lewoleba Tengah, Kec. Nubatukan, Kabupaten Lembata, Nusa Tenggara Tim.","Kabupaten Lembata, Nusa Tenggara Tim.",NUSA TENGGARA TIMUR,,Indonesia,81237346737.0,,,-8.3711487,123.435263,https://maps.google.com/?cid=0x0:0xb05aa52a77101aac,
supermarket,Toko bahan makanan,Toko Sumber Rejeki,"JCF7+HPV, Lewoleba Tengah, Kec. Nubatukan, Kabupaten Lembata, Nusa Tenggara Tim.","Kabupaten Lembata, Nusa Tenggara Tim.",NUSA TENGGARA TIMUR,,Indonesia,38341691.0,,,-8.376012,123.4142998,https://maps.google.com/?cid=0x0:0xa22db9310b0451f3,
supermarket,Toko,Depot Air Minum Ro Mudakarya,"JCGM+G6P, Selandoro, Lewoleba Tengah, Kec. Nubatukan, Kabupaten Lembata, Nusa Tenggara Tim.","Kabupaten Lembata, Nusa Tenggara Tim.",NUSA TENGGARA TIMUR,,Indonesia,82144627834.0,,,-8.3736542,123.4330728,https://maps.google.com/?cid=0x0:0xfb149fd712390287,
supermarket,Toko bahan makanan,An'Nur Sejahtera,"JCC7+R34, Lewoleba Tengah, Kec. Nubatukan, Kabupaten Lembata, Nusa Tenggara Tim.","Kabupaten Lembata, Nusa Tenggara Tim.",NUSA TENGGARA TIMUR,,Indonesia,85342249866.0,,,-8.3780629,123.4127087,https://maps.google.com/?cid=0x0:0x45ed153d26bffa36,
supermarket,supermarket,Kec. Buyasari,"Kabupaten Lembata, Nusa Tenggara Tim.","Kabupaten Lembata, Nusa Tenggara Tim.",NUSA TENGGARA TIMUR,,Indonesia,,,,-8.2341393,123.7965376,https://maps.google.com/?cid=0x0:0x634360f4156fb87d,
supermarket,Seafood,Pasar Wairiang,"Umaleu, Kec. Buyasari, Kabupaten Lembata, Nusa Tenggara Tim.","Kabupaten Lembata, Nusa Tenggara Tim.",NUSA TENGGARA TIMUR,,Indonesia,,,,-8.1924941,123.82036,https://maps.google.com/?cid=0x0:0x1469d2c9118e1831,
supermarket,supermarket,Keuwohun,"RQCJ+RX5, Leuwohung, Kec. Buyasari, Kabupaten Lembata, Nusa Tenggara Tim.","Kabupaten Lembata, Nusa Tenggara Tim.",NUSA TENGGARA TIMUR,,Indonesia,,,,-8.1779988,123.7824983,https://maps.google.com/?cid=0x0:0xc2761370b0766c20,
supermarket,supermarket,Sarah,"RR76+3V6 Kios Sarah, Jl. Trans Lembata, Buriwutung, Kec. Buyasari, Kabupaten Lembata, Nusa Tenggara Tim.","Kabupaten Lembata, Nusa Tenggara Tim.",NUSA TENGGARA TIMUR,,Indonesia,,,,-8.1873264,123.812133,https://maps.google.com/?cid=0x0:0xae591b22f9246389,
supermarket,Perumahan,Meuble dua putri,"RR49+4R7, Umaleu, Kec. Buyasari, Kabupaten Lembata, Nusa Tenggara Tim.","Kabupaten Lembata, Nusa Tenggara Tim.",NUSA TENGGARA TIMUR,,Indonesia,82146601513.0,,,-8.1947119,123.8195623,https://maps.google.com/?cid=0x0:0x5929887f90a497af,
supermarket,supermarket,CV. RAFARDAN,"RQGC+RXV, Retulaleng Kompleks, Bareng, Kec. Buyasari, Kabupaten Lembata, Nusa Tenggara Tim.","Kabupaten Lembata, Nusa Tenggara Tim.",NUSA TENGGARA TIMUR,,Indonesia,,,,-8.1722329,123.7719134,https://maps.google.com/?cid=0x0:0xdaf616b54ac85204,
supermarket,Toko,Deiolshoopkupang02,"QQ6V+P47, Benihading, Kec. Buyasari, Kabupaten Lembata, Nusa Tenggara Tim.","Kabupaten Lembata, Nusa Tenggara Tim.",NUSA TENGGARA TIMUR,,Indonesia,,,,-8.2382099,123.7928035,https://maps.google.com/?cid=0x0:0xa13c0137a07e6301,
supermarket,Pasar,Pasar Walangsawa,"QQ48+9F6, Walangsawah, Kec. Omesuri, Kabupaten Lembata, Nusa Tenggara Tim.","Kabupaten Lembata, Nusa Tenggara Tim.",NUSA TENGGARA TIMUR,,Indonesia,81239216868.0,,,-8.2440755,123.7661332,https://maps.google.com/?cid=0x0:0x5e1570c745254b86,
supermarket,Komplek perumahan,Paokuma Store,"RQGG+V6J, Bareng, Kec. Buyasari, Kabupaten Lembata, Nusa Tenggara Tim.","Kabupaten Lembata, Nusa Tenggara Tim.",NUSA TENGGARA TIMUR,,Indonesia,,,,-8.1727816,123.7755262,https://maps.google.com/?cid=0x0:0x390c545333d572f5,
supermarket,Toko,Kios KASIH,"RT.03/RW.02, Desa Tubungwalang, Kec. Buyasari, Kabupaten Lembata, Nusa Tenggara Tim. 86692","Desa Tubungwalang, Kec. Buyasari, Kabupaten Lembata",NUSA TENGGARA TIMUR,86692.0,Indonesia,82154515632.0,,,-8.2273058,123.8093059,https://maps.google.com/?cid=0x0:0x5915418c75ad62ac,
supermarket,Toko bahan makanan,Kios Viviana,"PRP7+6MV, Bean, Kec. Buyasari, Kabupaten Lembata, Nusa Tenggara Tim.","Kabupaten Lembata, Nusa Tenggara Tim.",NUSA TENGGARA TIMUR,,Indonesia,81239134380.0,,,-8.2643787,123.8141814,https://maps.google.com/?cid=0x0:0x8fea626f86ce3ba6,
supermarket,Komplek perumahan,Rumah Cesik(Paokuma Store),"Dusun Lorong Belawaeng Mangu No.1, RT.002/RW.001, Bareng, Kec. Buyasari, Kabupaten Lembata, Nusa Tenggara Tim.","Kabupaten Lembata, Nusa Tenggara Tim.",NUSA TENGGARA TIMUR,,Indonesia,,,,-8.2341393,123.7965376,https://maps.google.com/?cid=0x0:0x68f7947167f09e73,
supermarket,Toko,Kios 3 putri Lelanguneq,"QRF6+79M, Unnamed Road, Tubungwalang, Kec. Buyasari, Kabupaten Lembata, Nusa Tenggara Tim.","Kabupaten Lembata, Nusa Tenggara Tim.",NUSA TENGGARA TIMUR,,Indonesia,,,,-8.2267772,123.8109112,https://maps.google.com/?cid=0x0:0x650e33dcf7b15ef0,
supermarket,Toko Komputer,Arsenal Komputer,"RQGF+R85, Jl. Pantura, Bareng, Kec. Buyasari, Kabupaten Lembata, Nusa Tenggara Tim.","Kabupaten Lembata, Nusa Tenggara Tim.",NUSA TENGGARA TIMUR,,Indonesia,,,,-8.1729922,123.7733624,https://maps.google.com/?cid=0x0:0x94228857003be8e8,
supermarket,Peternakan Ayam,AYAH KIOS,"QRM7+2XP Aimiteng, RT.001, Leuburi, Kedang, Kabupaten Lembata, Nusa Tenggara Tim.","Kabupaten Lembata, Nusa Tenggara Tim.",NUSA TENGGARA TIMUR,,Indonesia,,,,-8.217419,123.8149381,https://maps.google.com/?cid=0x0:0x444ca9a64d6821f5,
supermarket,Kios,Kios IBNU SINA,"RT.003/RW.002, Wa'urung, Kalikur, Kec. Buyasari, Kabupaten Lembata, Nusa Tenggara Tim. 86692","Wa'urung, Kalikur, Kec. Buyasari, Kabupaten Lembata",NUSA TENGGARA TIMUR,86692.0,Indonesia,,,,-8.1788334,123.7626961,https://maps.google.com/?cid=0x0:0x61706c0d7d1bf6a,
supermarket,supermarket,Desa mahal,"QQ4H+38M, Normal I, Kec. Omesuri, Kabupaten Lembata, Nusa Tenggara Tim.","Kabupaten Lembata, Nusa Tenggara Tim.",NUSA TENGGARA TIMUR,,Indonesia,,,,-8.2447963,123.7783103,https://maps.google.com/?cid=0x0:0xc893cb7b0337e203,
supermarket,Toko Elektronik,Kiosline Uyelewun Peumole,"QQ8W+59R, Benihading, Kec. Buyasari, Kabupaten Lembata, Nusa Tenggara Tim.","Kabupaten Lembata, Nusa Tenggara Tim.",NUSA TENGGARA TIMUR,,Indonesia,81252800793.0,,,-8.2345116,123.795902,https://maps.google.com/?cid=0x0:0xb6c2031a54cd3ea9,
supermarket,Minimarket,Kios udin,"QRC4+6CG, Atu Walupang, Kec. Buyasari, Kabupaten Lembata, Nusa Tenggara Tim.","Kabupaten Lembata, Nusa Tenggara Tim.",NUSA TENGGARA TIMUR,,Indonesia,,,,-8.2294287,123.8060687,https://maps.google.com/?cid=0x0:0xf103f4b14893845c,
supermarket,Toko Pakaian,PUTRI KEMBAR Fashion,"QR82+X7G, Atu Walupang, Kec. Buyasari, Kabupaten Lembata, Nusa Tenggara Tim.","Kabupaten Lembata, Nusa Tenggara Tim.",NUSA TENGGARA TIMUR,,Indonesia,81380533973.0,,,-8.2325685,123.8007182,https://maps.google.com/?cid=0x0:0xd31009cda7c5b934,
supermarket,supermarket,Minimarket Sakinah / Penginapan,"RR49+WX5, Umaleu, Kec. Buyasari, Kabupaten Lembata, Nusa Tenggara Tim.","Kabupaten Lembata, Nusa Tenggara Tim.",NUSA TENGGARA TIMUR,,Indonesia,,,,-8.1927363,123.8199708,https://maps.google.com/?cid=0x0:0x548dfb91ad73e453,
supermarket,supermarket,Kios jlt lorong tengah,"QR94+VP6, Atu Walupang, Kec. Buyasari, Kabupaten Lembata, Nusa Tenggara Tim.","Kabupaten Lembata, Nusa Tenggara Tim.",NUSA TENGGARA TIMUR,,Indonesia,,,,-8.2306696,123.8076964,https://maps.google.com/?cid=0x0:0x83c432d57a06bc53,
supermarket,supermarket,likuwatan aman meker,"QRQ8+X85, Leuburi, Kec. Buyasari, Kabupaten Lembata, Nusa Tenggara Tim.","Kabupaten Lembata, Nusa Tenggara Tim.",NUSA TENGGARA TIMUR,,Indonesia,,,,-8.2091604,123.8159418,https://maps.google.com/?cid=0x0:0x3b96f4dab1a69fc4,
supermarket,supermarket,Kios Sera Dien-Senggol Panama,"QQ4Q+9QH, Panama, Kec. Buyasari, Kabupaten Lembata, Nusa Tenggara Tim.","Kabupaten Lembata, Nusa Tenggara Tim.",NUSA TENGGARA TIMUR,,Indonesia,,,,-8.2440521,123.78948,https://maps.google.com/?cid=0x0:0x99045992b964c200,
supermarket,supermarket,Kec. Ile Ape,"Kabupaten Lembata, Nusa Tenggara Tim.","Kabupaten Lembata, Nusa Tenggara Tim.",NUSA TENGGARA TIMUR,,Indonesia,,,,-8.2710158,123.4600712,https://maps.google.com/?cid=0x0:0x326d060bf93304cb,
supermarket,Toko Swalayan,Supermarket Olympic,"JCF7+RW5, Lewoleba Tengah, Kec. Nubatukan, Kabupaten Lembata, Nusa Tenggara Tim.","Kabupaten Lembata, Nusa Tenggara Tim.",NUSA TENGGARA TIMUR,,Indonesia,,,,-8.3754997,123.4148483,https://maps.google.com/?cid=0x0:0xf5cd5ab5f36fdf17,
supermarket,supermarket,Tiara mart,"JFV9+P5G, Lewoleba Tim., Kec. Nubatukan, Kabupaten Lembata, Nusa Tenggara Tim.","Kabupaten Lembata, Nusa Tenggara Tim.",NUSA TENGGARA TIMUR,,Indonesia,,,,-8.3550187,123.4683701,https://maps.google.com/?cid=0x0:0xc5ea23912300603c,
supermarket,Minimarket,Heku Suka Mart,"JCPW+CV7, Jl. Trans Lembata, Lamahora, Titmur, Kabupaten Lembata, Nusa Tenggara Tim.","Kabupaten Lembata, Nusa Tenggara Tim.",NUSA TENGGARA TIMUR,,Indonesia,,,,-8.3639593,123.4471592,https://maps.google.com/?cid=0x0:0xbf2f707baf84df6c,
supermarket,Toko Swalayan,Tujuh Roda Depo,"JCPW+GQX, Jl. Trans Lembata, Selandoro, Kec. Nubatukan, Kabupaten Lembata, Nusa Tenggara Tim.","Kabupaten Lembata, Nusa Tenggara Tim.",NUSA TENGGARA TIMUR,,Indonesia,,,,-8.3636374,123.4469718,https://maps.google.com/?cid=0x0:0xbd5fdedc60a0b685,
supermarket,Toko,PT. MADINA LEMBATA JAYA,"Jl. Trans Lembata, Selandoro, Kec. Nubatukan, Kabupaten Lembata, Nusa Tenggara Tim.","Kabupaten Lembata, Nusa Tenggara Tim.",NUSA TENGGARA TIMUR,,Indonesia,81246779949.0,,,-8.3660196,123.4439916,https://maps.google.com/?cid=0x0:0x47f3a136448d5c9c,
supermarket,Toko Swalayan,Kios Wuno Pito,"JCPX+R93, Jl. Trans Lembata, RT.038/RW.08, Lewoleba Tim., Kec. Nubatukan, Kabupaten Lembata, Nusa Tenggara Tim.","Kabupaten Lembata, Nusa Tenggara Tim.",NUSA TENGGARA TIMUR,,Indonesia,85205675269.0,,,-8.3629821,123.4484072,https://maps.google.com/?cid=0x0:0xf7dfcad8c2f8f3e4,
supermarket,Toko Swalayan,Dwi Karya,"JCGV+X7C pasar lamahora, Lewoleba Tim., Kec. Nubatukan, Kabupaten Lembata, Nusa Tenggara Tim.","Kabupaten Lembata, Nusa Tenggara Tim.",NUSA TENGGARA TIMUR,,Indonesia,82139223031.0,,,-8.3725597,123.4431427,https://maps.google.com/?cid=0x0:0xeffd634c953a5f23,
supermarket,Toko Swalayan,Ican langobelen,"PC5P+QQ9, Waowala, Kec. Ile Ape, Kabupaten Lembata, Nusa Tenggara Tim.","Kabupaten Lembata, Nusa Tenggara Tim.",NUSA TENGGARA TIMUR,,Indonesia,,,,-8.2905875,123.4369844,https://maps.google.com/?cid=0x0:0x395a92d64aeeb18c,
supermarket,Toko Makanan,Oleole lembata- my Tagawiti,"RT./rw/RW.004/002, Tagawiti, Kec. Ile Ape, Kabupaten Lembata, Nusa Tenggara Tim. 86683","Tagawiti, Kec. Ile Ape, Kabupaten Lembata",NUSA TENGGARA TIMUR,86683.0,Indonesia,81338547262.0,,,-8.2773825,123.4243369,https://maps.google.com/?cid=0x0:0x165c40bc4c952ed3,
supermarket,Minimarket,Putri Langoday Arak Atulangun,"PF37+4C8, Petuntawa, Kec. Ile Ape, Kabupaten Lembata, Nusa Tenggara Tim.","Kabupaten Lembata, Nusa Tenggara Tim.",NUSA TENGGARA TIMUR,,Indonesia,,,,-8.2972,123.4635768,https://maps.google.com/?cid=0x0:0x251024a7737fa355,
supermarket,Toko Makanan,OLA EHIN Kuliner khasLembata,"Kolontobo, Kec. Ile Ape, Kabupaten Lembata, Nusa Tenggara Tim. 86683","Kec. Ile Ape, Kabupaten Lembata",NUSA TENGGARA TIMUR,86683.0,Indonesia,82144548839.0,,,-8.3100423,123.4558431,https://maps.google.com/?cid=0x0:0x8aeff1cd0d9ae9aa,
supermarket,Minimarket,Kios Narabeto,"RT.007/RW.003, Kolontobo, Kec. Ile Ape, Kabupaten Lembata, Nusa Tenggara Tim.","Kabupaten Lembata, Nusa Tenggara Tim.",NUSA TENGGARA TIMUR,,Indonesia,81338652280.0,,,-8.3102499,123.4747852,https://maps.google.com/?cid=0x0:0x458acbd0aaba831b,
supermarket,Toko umum,Kios Filin Star Laranwutun,"Desa Laranwutun Kecamatan Ile Ape Kabupaten Lembata Provinsi NTT, Kolontobo, Kec. Ile Ape, Kabupaten Lembata, Nusa Tenggara Tim. 86683","Kolontobo, Kec. Ile Ape, Kabupaten Lembata",NUSA TENGGARA TIMUR,86683.0,Indonesia,81246110967.0,,,-8.3223242,123.4645107,https://maps.google.com/?cid=0x0:0xc90b0cfa572e2399,
supermarket,supermarket,Kios Keday 88,"Sebelum SPBU Tanah Merah, Muruona, Kec. Ile Ape, Kabupaten Lembata, Nusa Tenggara Tim. 86683","Muruona, Kec. Ile Ape, Kabupaten Lembata",NUSA TENGGARA TIMUR,86683.0,Indonesia,82237945859.0,,,-8.3515936,123.4756359,https://maps.google.com/?cid=0x0:0x7f74425467641d83,
supermarket,Toko bahan makanan,BerniCell,"JFQ4+R2H, Lewoleba Tim., Kec. Nubatukan, Kabupaten Lembata, Nusa Tenggara Tim.","Kabupaten Lembata, Nusa Tenggara Tim.",NUSA TENGGARA TIMUR,,Indonesia,,,,-8.3604381,123.455118,https://maps.google.com/?cid=0x0:0x844c647374b4d4d8,
supermarket,Kafe,Pedan Baran Tawa,"Petuntawa, Kec. Ile Ape, Kabupaten Lembata, Nusa Tenggara Tim. 86615","Kec. Ile Ape, Kabupaten Lembata",NUSA TENGGARA TIMUR,86615.0,Indonesia,82216747563.0,,,-8.2918724,123.4600381,https://maps.google.com/?cid=0x0:0x98a141808612ea30,
supermarket,Kedai Kopi,Aloma komplex,"PFXG+3H5, Jalan, Ring, Kec. Ile Ape, Kabupaten Lembata, Nusa Tenggara Tim.","Kabupaten Lembata, Nusa Tenggara Tim.",NUSA TENGGARA TIMUR,,Indonesia,,,,-8.2528596,123.4763728,https://maps.google.com/?cid=0x0:0xca5f325edc29705a,
supermarket,Toko umum,CREVA STORE LEMBATA,"Selandoro, Kec. Nubatukan, Kabupaten Lembata, Nusa Tenggara Tim.","Kabupaten Lembata, Nusa Tenggara Tim.",NUSA TENGGARA TIMUR,,Indonesia,82299474800.0,,,-8.3642015,123.4515939,https://maps.google.com/?cid=0x0:0xeeb44545b78b175b,
supermarket,Toko Pakaian,ERBE BASKOT LEWOLEBA,"JFQ4+X56, Jl. Trans Lembata, Lewoleba Tim., Kec. Nubatukan, Kabupaten Lembata, Nusa Tenggara Tim.","Kabupaten Lembata, Nusa Tenggara Tim.",NUSA TENGGARA TIMUR,,Indonesia,85205374019.0,,,-8.3600941,123.455398,https://maps.google.com/?cid=0x0:0xccc2f7a4ecf3f7ff,
supermarket,Kios,GORTA MURUONA KIOS,"Muruona, Kec. Ile Ape, Kabupaten Lembata, Nusa Tenggara Tim. 86683","Kec. Ile Ape, Kabupaten Lembata",NUSA TENGGARA TIMUR,86683.0,Indonesia,81331751167.0,,,-8.3296387,123.4740292,https://maps.google.com/?cid=0x0:0x68949b38ef97a15,
supermarket,supermarket,Kios Sembako Challista Langoday,"MFX2+GG8, Petuntawa, Kec. Ile Ape, Kabupaten Lembata, Nusa Tenggara Tim.","Kabupaten Lembata, Nusa Tenggara Tim.",NUSA TENGGARA TIMUR,,Indonesia,,,,-8.3012465,123.4513739,https://maps.google.com/?cid=0x0:0x29fa57a5474ce9e8,
supermarket,Toko Perlengkapan Rumah,Foto coppy waipukang,"MFG8+G8Q, Laranwuntun, Kec. Ile Ape, Kabupaten Lembata, Nusa Tenggara Tim.","Kabupaten Lembata, Nusa Tenggara Tim.",NUSA TENGGARA TIMUR,,Indonesia,,,,-8.3236902,123.4657865,https://maps.google.com/?cid=0x0:0x44b627785aa3d743,
supermarket,supermarket,Kec. Ile Ape Tim.,"Kabupaten Lembata, Nusa Tenggara Tim.","Kabupaten Lembata, Nusa Tenggara Tim.",NUSA TENGGARA TIMUR,,Indonesia,,,,-8.258433,123.5466807,https://maps.google.com/?cid=0x0:0x77a0f208453323a,
supermarket,Toko Swalayan,Supermarket Olympic,"JCF7+RW5, Lewoleba Tengah, Kec. Nubatukan, Kabupaten Lembata, Nusa Tenggara Tim.","Kabupaten Lembata, Nusa Tenggara Tim.",NUSA TENGGARA TIMUR,,Indonesia,,,,-8.3754997,123.4148483,https://maps.google.com/?cid=0x0:0xf5cd5ab5f36fdf17,
supermarket,Toko Makanan,Oleh2 Lembata,"DESA:RIANG BOA, TRANS:ILE APE, KECAMATAN:ILE APE, RT./RW:001/RW.OO1, Nusa Tenggara Tim. 86683","TRANS:ILE APE, KECAMATAN:ILE APE, RT./RW:001/RW.OO1",NUSA TENGGARA TIMUR,86683.0,Indonesia,81246768738.0,,,-8.3062609,123.4531915,https://maps.google.com/?cid=0x0:0xdebbfa97fda34fa0,
supermarket,Toko Roti,Risti shop,"RT.05, Lamatokan, Kec. Ile Ape Tim., Kabupaten Lembata, Nusa Tenggara Tim. 86687","Lamatokan, Kec. Ile Ape Tim., Kabupaten Lembata",NUSA TENGGARA TIMUR,86687.0,Indonesia,82145097158.0,,,-8.2620032,123.5417544,https://maps.google.com/?cid=0x0:0xb7323232affb2f25,
supermarket,Toko umum,Kios Filin Star Laranwutun,"Desa Laranwutun Kecamatan Ile Ape Kabupaten Lembata Provinsi NTT, Kolontobo, Kec. Ile Ape, Kabupaten Lembata, Nusa Tenggara Tim. 86683","Kolontobo, Kec. Ile Ape, Kabupaten Lembata",NUSA TENGGARA TIMUR,86683.0,Indonesia,81246110967.0,,,-8.3223242,123.4645107,https://maps.google.com/?cid=0x0:0xc90b0cfa572e2399,
supermarket,Minimarket,Kios Narabeto,"RT.007/RW.003, Kolontobo, Kec. Ile Ape, Kabupaten Lembata, Nusa Tenggara Tim.","Kabupaten Lembata, Nusa Tenggara Tim.",NUSA TENGGARA TIMUR,,Indonesia,81338652280.0,,,-8.3102499,123.4747852,https://maps.google.com/?cid=0x0:0x458acbd0aaba831b,
supermarket,Toko Makanan,OLA EHIN Kuliner khasLembata,"Kolontobo, Kec. Ile Ape, Kabupaten Lembata, Nusa Tenggara Tim. 86683","Kec. Ile Ape, Kabupaten Lembata",NUSA TENGGARA TIMUR,86683.0,Indonesia,82144548839.0,,,-8.3100423,123.4558431,https://maps.google.com/?cid=0x0:0x8aeff1cd0d9ae9aa,
supermarket,supermarket,Gn. Lewotolo,"Lamagute, Kec. Ile Ape Tim., Kabupaten Lembata, Nusa Tenggara Tim.","Kabupaten Lembata, Nusa Tenggara Tim.",NUSA TENGGARA TIMUR,,Indonesia,,,,-8.272,123.505,https://maps.google.com/?cid=0x0:0xaef1f71656e37f3f,
supermarket,Kios,GORTA MURUONA KIOS,"Muruona, Kec. Ile Ape, Kabupaten Lembata, Nusa Tenggara Tim. 86683","Kec. Ile Ape, Kabupaten Lembata",NUSA TENGGARA TIMUR,86683.0,Indonesia,81331751167.0,,,-8.3296387,123.4740292,https://maps.google.com/?cid=0x0:0x68949b38ef97a15,
supermarket,Minimarket,Putri Langoday Arak Atulangun,"PF37+4C8, Petuntawa, Kec. Ile Ape, Kabupaten Lembata, Nusa Tenggara Tim.","Kabupaten Lembata, Nusa Tenggara Tim.",NUSA TENGGARA TIMUR,,Indonesia,,,,-8.2972,123.4635768,https://maps.google.com/?cid=0x0:0x251024a7737fa355,
supermarket,Pasar,Tokojaeng,"PGQW+WH9, Tokojaeng-Lamatokan, Lamatokan, Kec. Ile Ape Tim., Kabupaten Lembata, Nusa Tenggara Tim.","Kabupaten Lembata, Nusa Tenggara Tim.",NUSA TENGGARA TIMUR,,Indonesia,,,,-8.2602007,123.5464769,https://maps.google.com/?cid=0x0:0x3edb6940c186d772,
supermarket,Kedai Kopi,R. Linus Boli Lemau,"PGWP+WH3, Lamaau, Kec. Ile Ape Tim., Kabupaten Lembata, Nusa Tenggara Tim.","Kabupaten Lembata, Nusa Tenggara Tim.",NUSA TENGGARA TIMUR,,Indonesia,,,,-8.2527393,123.536408,https://maps.google.com/?cid=0x0:0x35d4dd24d0c20168,
supermarket,Kedai Kopi,Aloma komplex,"PFXG+3H5, Jalan, Ring, Kec. Ile Ape, Kabupaten Lembata, Nusa Tenggara Tim.","Kabupaten Lembata, Nusa Tenggara Tim.",NUSA TENGGARA TIMUR,,Indonesia,,,,-8.2528596,123.4763728,https://maps.google.com/?cid=0x0:0xca5f325edc29705a,
supermarket,Dapur Umum,Fais lamaau,"PGWP+WH3, Lamaau, Kec. Ile Ape Tim., Kabupaten Lembata, Nusa Tenggara Tim.","Kabupaten Lembata, Nusa Tenggara Tim.",NUSA TENGGARA TIMUR,,Indonesia,,,,-8.2527393,123.536408,https://maps.google.com/?cid=0x0:0xf21dddeef56ba691,
supermarket,supermarket,Kec. Lebatukan,"Kabupaten Lembata, Nusa Tenggara Tim.","Kabupaten Lembata, Nusa Tenggara Tim.",NUSA TENGGARA TIMUR,,Indonesia,,,,-8.3697073,123.54609,https://maps.google.com/?cid=0x0:0xa62ae0579a3a3f13,
supermarket,Toko Swalayan,Supermarket Olympic,"JCF7+RW5, Lewoleba Tengah, Kec. Nubatukan, Kabupaten Lembata, Nusa Tenggara Tim.","Kabupaten Lembata, Nusa Tenggara Tim.",NUSA TENGGARA TIMUR,,Indonesia,,,,-8.3754997,123.4148483,https://maps.google.com/?cid=0x0:0xf5cd5ab5f36fdf17,
supermarket,Minimarket,Heku Suka Mart,"JCPW+CV7, Jl. Trans Lembata, Lamahora, Titmur, Kabupaten Lembata, Nusa Tenggara Tim.","Kabupaten Lembata, Nusa Tenggara Tim.",NUSA TENGGARA TIMUR,,Indonesia,,,,-8.3639593,123.4471592,https://maps.google.com/?cid=0x0:0xbf2f707baf84df6c,
supermarket,Toko Swalayan,Tujuh Roda Depo,"JCPW+GQX, Jl. Trans Lembata, Selandoro, Kec. Nubatukan, Kabupaten Lembata, Nusa Tenggara Tim.","Kabupaten Lembata, Nusa Tenggara Tim.",NUSA TENGGARA TIMUR,,Indonesia,,,,-8.3636374,123.4469718,https://maps.google.com/?cid=0x0:0xbd5fdedc60a0b685,
supermarket,Minimarket,Central Mart,"JCGC+9X9, Lewoleba Tengah, Kec. Nubatukan, Kabupaten Lembata, Nusa Tenggara Tim.","Kabupaten Lembata, Nusa Tenggara Tim.",NUSA TENGGARA TIMUR,,Indonesia,,,,-8.374087,123.4224802,https://maps.google.com/?cid=0x0:0x2b925a5f4c8b2d83,
supermarket,Toko bahan makanan,Outlet Zam,"JCH8+P5J Rayuan City, Lewoleba, Kec. Nubatukan, Kabupaten Lembata, Nusa Tenggara Tim.","Kabupaten Lembata, Nusa Tenggara Tim.",NUSA TENGGARA TIMUR,,Indonesia,82341632012.0,,,-8.370668,123.4153984,https://maps.google.com/?cid=0x0:0x81dbb5f373d7cf84,
supermarket,Toko,PT. MADINA LEMBATA JAYA,"Jl. Trans Lembata, Selandoro, Kec. Nubatukan, Kabupaten Lembata, Nusa Tenggara Tim.","Kabupaten Lembata, Nusa Tenggara Tim.",NUSA TENGGARA TIMUR,,Indonesia,81246779949.0,,,-8.3660196,123.4439916,https://maps.google.com/?cid=0x0:0x47f3a136448d5c9c,
supermarket,supermarket,Tiara mart,"JFV9+P5G, Lewoleba Tim., Kec. Nubatukan, Kabupaten Lembata, Nusa Tenggara Tim.","Kabupaten Lembata, Nusa Tenggara Tim.",NUSA TENGGARA TIMUR,,Indonesia,,,,-8.3550187,123.4683701,https://maps.google.com/?cid=0x0:0xc5ea23912300603c,
supermarket,Toko Swalayan,Kios Wuno Pito,"JCPX+R93, Jl. Trans Lembata, RT.038/RW.08, Lewoleba Tim., Kec. Nubatukan, Kabupaten Lembata, Nusa Tenggara Tim.","Kabupaten Lembata, Nusa Tenggara Tim.",NUSA TENGGARA TIMUR,,Indonesia,85205675269.0,,,-8.3629821,123.4484072,https://maps.google.com/?cid=0x0:0xf7dfcad8c2f8f3e4,
supermarket,Toko bahan makanan,BerniCell,"JFQ4+R2H, Lewoleba Tim., Kec. Nubatukan, Kabupaten Lembata, Nusa Tenggara Tim.","Kabupaten Lembata, Nusa Tenggara Tim.",NUSA TENGGARA TIMUR,,Indonesia,,,,-8.3604381,123.455118,https://maps.google.com/?cid=0x0:0x844c647374b4d4d8,
supermarket,Kios,Kios Ina Noes,"JJ79+JX5, Lamalela, Kec. Lebatukan, Kabupaten Lembata, Nusa Tenggara Tim.","Kabupaten Lembata, Nusa Tenggara Tim.",NUSA TENGGARA TIMUR,,Indonesia,,,,-8.3859804,123.6199785,https://maps.google.com/?cid=0x0:0x7f2e67de8a1f7e0b,
supermarket,Kios,Kios Berkah Tuan,"JHJ2+595, Hadakewa, Kec. Lebatukan, Kabupaten Lembata, Nusa Tenggara Tim.","Kabupaten Lembata, Nusa Tenggara Tim.",NUSA TENGGARA TIMUR,,Indonesia,,,,-8.3696209,123.5509806,https://maps.google.com/?cid=0x0:0xad7bcad1da44d325,
supermarket,Toko Pakaian,Om Kumis JBR,"Lerahinga, Kec. Lebatukan, Kabupaten Lembata, Nusa Tenggara Tim.","Kabupaten Lembata, Nusa Tenggara Tim.",NUSA TENGGARA TIMUR,,Indonesia,,,,-8.3685217,123.5570982,https://maps.google.com/?cid=0x0:0x384629c14deb4488,
supermarket,Toko Ponsel,DeFa Store,"JFPW+JQC, Lamatuka, Kec. Lebatukan, Kabupaten Lembata, Nusa Tenggara Tim.","Kabupaten Lembata, Nusa Tenggara Tim.",NUSA TENGGARA TIMUR,,Indonesia,81239760419.0,,,-8.363439,123.4968887,https://maps.google.com/?cid=0x0:0x8b5c8afeeae3f79,
supermarket,supermarket,Kios Tater Artomoro,"JGH6+VFG, Baopana, Kec. Lebatukan, Kabupaten Lembata, Nusa Tenggara Tim. rt11","Kabupaten Lembata, Nusa Tenggara Tim.",NUSA TENGGARA TIMUR,,Indonesia,,,,-8.3703032,123.5112035,https://maps.google.com/?cid=0x0:0xc9a60fd76da5777,
supermarket,Toko umum,BERNICELL,"akelohe, lamahora Kel. Kok Jl. Trans Lembata, RT.041/RW.008, East Lewoleba, Lebatukan, Lembata Regency, East Nusa Tenggara","Kabupaten Lembata, Nusa Tenggara Tim.",NUSA TENGGARA TIMUR,,Indonesia,,,,-8.3225692,123.6014054,https://maps.google.com/?cid=0x0:0xaada4b28e4f25c43,
supermarket,Toko Perlengkapan Rumah,Toko Bintang Mas,"JCJQ+CMG, Lamahora, Lewoleba Tim., Kec. Nubatukan, Kabupaten Lembata, Nusa Tenggara Tim.","Kabupaten Lembata, Nusa Tenggara Tim.",NUSA TENGGARA TIMUR,,Indonesia,,,,-8.36895,123.4391911,https://maps.google.com/?cid=0x0:0x891036b736c40b65,
supermarket,supermarket,TOMI KIOS,"HF89+R8C, Jl. Paradiso, Katakeja, Kec. Atadei, Kabupaten Lembata, Nusa Tenggara Tim.","Kabupaten Lembata, Nusa Tenggara Tim.",NUSA TENGGARA TIMUR,,Indonesia,,,,-8.4329347,123.4682726,https://maps.google.com/?cid=0x0:0xa8e8448d8e50bc0d,
supermarket,Pusat Perbelanjaan,Saputra 1512 Fastpay,"JGJW+3MP, Jl. Trans Lembata, Hadakewa, Kec. Lebatukan, Kabupaten Lembata, Nusa Tenggara Tim.","Kabupaten Lembata, Nusa Tenggara Tim.",NUSA TENGGARA TIMUR,,Indonesia,81353797111.0,,,-8.369786,123.5467151,https://maps.google.com/?cid=0x0:0x8e6c6bb346220095,
supermarket,Toko Pakaian,Oleh-oleh Lembata-BMB Baopana,"004, RT./RW/RW.: 013, Baopana, Kec. Lebatukan, Kabupaten Lembata, Nusa Tenggara Tim. 86681","RT./RW/RW.: 013, Baopana, Kec. Lebatukan, Kabupaten Lembata",NUSA TENGGARA TIMUR,86681.0,Indonesia,81238626310.0,,,-8.3592684,123.4991406,https://maps.google.com/?cid=0x0:0x2e72f7d4382d4ef2,
supermarket,Pusat Perbelanjaan,Naga Mas Mart,"Lewoleba Tengah, Kec. Nubatukan, Kabupaten Lembata, Nusa Tenggara Tim.","Kabupaten Lembata, Nusa Tenggara Tim.",NUSA TENGGARA TIMUR,,Indonesia,81339182762.0,,,-8.374624,123.417966,https://maps.google.com/?cid=0x0:0xeef61b4d29b4f2c7,
supermarket,Toko Swalayan,Mel Mart,"PVRC+425, Jl. Mayjen Sutoyo, RT.6/RW.8, Cililitan, Kec. Kramat jati, Kota Jakarta Timur, Daerah Khusus Ibukota Jakarta 12021","Jl. Mayjen Sutoyo, RT.6/RW.8, Cililitan, Kec. Kramat jati, Kota Jakarta Timur",NUSA TENGGARA TIMUR,12021.0,Indonesia,895803430090.0,,,-6.259735,106.8701147,https://maps.google.com/?cid=0x0:0x233887119b1ff8e8,
supermarket,Pusat Perbelanjaan,Center Rakitan,"Sebrang barak kerja, Jl. Pik Penggilingan, Penggilingan, Kec. Cakung, Kota Jakarta Timur, Daerah Khusus Ibukota Jakarta 13470","Jl. Pik Penggilingan, Penggilingan, Kec. Cakung, Kota Jakarta Timur",NUSA TENGGARA TIMUR,13470.0,Indonesia,87788999226.0,,,-6.2031867,106.9279703,https://maps.google.com/?cid=0x0:0xa6da2e849b4a00c,
supermarket,Minimarket,Daily Supermarket - Tebet Sarana Square,"Jl. Tebet Barat IV No.20, RT.8/RW.2, Tebet Bar., Kec. Tebet, Jakarta, Daerah Khusus Ibukota Jakarta 12810","RT.8/RW.2, Tebet Bar., Kec. Tebet, Jakarta",NUSA TENGGARA TIMUR,12810.0,Indonesia,,,,-6.2337357,106.8476898,https://maps.google.com/?cid=0x0:0x2f4be933ad972dbf,
supermarket,Supermarket Industri,Daily Supermarket - Bumi Serpong Damai,"Blok B2 No.10, Blk. B2 No.10, Pagedangan, Kec. Pagedangan, Kabupaten Tangerang, Banten 15339","Blk. B2 No.10, Pagedangan, Kec. Pagedangan, Kabupaten Tangerang",NUSA TENGGARA TIMUR,15339.0,Indonesia,8179077272.0,,,-6.293191,106.634071,https://maps.google.com/?cid=0x0:0x35a19498f12fc900,
supermarket,Pusat Perbelanjaan,Lulu Hypermarket  Department Store - Plaza Taman,"Plaza Taman Modern, Jl. Raya Bekasi No.24, Ujung Menteng, Kec. Cakung, Kota Jakarta Timur, Daerah Khusus Ibukota Jakarta 13960","Jl. Raya Bekasi No.24, Ujung Menteng, Kec. Cakung, Kota Jakarta Timur",NUSA TENGGARA TIMUR,13960.0,Indonesia,2129844000.0,,,-6.1866528,106.949145,https://maps.google.com/?cid=0x0:0x417a62ca795ee0b8,
supermarket,Toko Swalayan,Alfamidi Super Ciracas,"Jl. Tanjung No.6 5, RT.5/RW.5, Ciracas, Kec. Ciracas, Kota Jakarta Timur, Daerah Khusus Ibukota Jakarta 13740","RT.5/RW.5, Ciracas, Kec. Ciracas, Kota Jakarta Timur",NUSA TENGGARA TIMUR,13740.0,Indonesia,2187721636.0,,,-6.3294144,106.8753592,https://maps.google.com/?cid=0x0:0x8c315c5f3e221825,
supermarket,Pusat Perbelanjaan,IKENNA SHOP,"RWW9+56C, Gading Nias Apartemen tower emerald lobby T, Jl. Pegangsaan Dua, RT.13/RW.3, Pegangsaan Dua, Kec. Klp. Gading, Jkt Utara, Daerah Khusus Ibukota Jakarta 14250","Gading Nias Apartemen tower emerald lobby T, Jl. Pegangsaan Dua, RT.13/RW.3, Pegangsaan Dua, Kec. Klp. Gading, Jkt Utara",NUSA TENGGARA TIMUR,14250.0,Indonesia,895333217721.0,,,-6.1545572,106.9180112,https://maps.google.com/?cid=0x0:0xa9967c9000a8535e,
supermarket,Pusat Perbelanjaan,Daily Supermarket Puri Mansion,"Ruko Puri Mansion Blok C 2, RT.2/RW.1, Kembangan Sel., Kec. Kembangan, Kota Jakarta Barat, Daerah Khusus Ibukota Jakarta 11610","RT.2/RW.1, Kembangan Sel., Kec. Kembangan, Kota Jakarta Barat",NUSA TENGGARA TIMUR,11610.0,Indonesia,81944117272.0,,,-6.1782717,106.727934,https://maps.google.com/?cid=0x0:0xb5555bd3bf987072,
supermarket,supermarket,Kec. Naga Wutung,"Kabupaten Lembata, Nusa Tenggara Tim.","Kabupaten Lembata, Nusa Tenggara Tim.",NUSA TENGGARA TIMUR,,Indonesia,,,,-8.4696349,123.2820337,https://maps.google.com/?cid=0x0:0x3bb0d340f794ad8b,
supermarket,Pusat Perbelanjaan,Naga Mas Mart,"Lewoleba Tengah, Kec. Nubatukan, Kabupaten Lembata, Nusa Tenggara Tim.","Kabupaten Lembata, Nusa Tenggara Tim.",NUSA TENGGARA TIMUR,,Indonesia,81339182762.0,,,-8.374624,123.417966,https://maps.google.com/?cid=0x0:0xeef61b4d29b4f2c7,
supermarket,Toko umum,Kios Permata Chazy,"F872+8QR, Tewaowutung, Kec. Naga Wutung, Kabupaten Lembata, Nusa Tenggara Tim.","Kabupaten Lembata, Nusa Tenggara Tim.",NUSA TENGGARA TIMUR,,Indonesia,,,,-8.5366297,123.3019014,https://maps.google.com/?cid=0x0:0x473e2fbea033f041,
supermarket,supermarket,UD. Karya Anda,"G7JQ+JQR, Wuakerong, Kec. Naga Wutung, Kabupaten Lembata, Nusa Tenggara Tim.","Kabupaten Lembata, Nusa Tenggara Tim.",NUSA TENGGARA TIMUR,,Indonesia,82147279276.0,,,-8.4683909,123.289401,https://maps.google.com/?cid=0x0:0xa45cfb7ef3be0fbb,
supermarket,Minimarket,GRACIANO MART,"boto, Kec. Naga Wutung, Kabupaten Lembata, Nusa Tenggara Tim. 86684","Kec. Naga Wutung, Kabupaten Lembata",NUSA TENGGARA TIMUR,86684.0,Indonesia,,,,-8.5102203,123.3778905,https://maps.google.com/?cid=0x0:0xfaa16f4e6ea9ddde,
supermarket,Kios,Witin leuweru,"Kabupaten Lembata kecamatan nagawutung desa tewaowutung, RT.06/RW.01, Kampung baru, Kabupaten Lembata, Nusa Tenggara Tim. 86684","RT.06/RW.01, Kampung baru, Kabupaten Lembata",NUSA TENGGARA TIMUR,86684.0,Indonesia,81244429224.0,,,-8.5369996,123.30066,https://maps.google.com/?cid=0x0:0xb6dd5a9cb9898715,
supermarket,Minimarket,Kios Tarumata,"F749+QWW, Pasir Putih, Kec. Naga Wutung, Kabupaten Lembata, Nusa Tenggara Tim.","Kabupaten Lembata, Nusa Tenggara Tim.",NUSA TENGGARA TIMUR,,Indonesia,82214401540.0,,,-8.5430158,123.2698229,https://maps.google.com/?cid=0x0:0x4bfe3eb93d03af6f,
supermarket,Pemasok minyak tanah,Pangkalan minyak Tanah Dahlia Mansyur,"G7JQ+QVX, Wuakerong, Kec. Naga Wutung, Kabupaten Lembata, Nusa Tenggara Tim.","Kabupaten Lembata, Nusa Tenggara Tim.",NUSA TENGGARA TIMUR,,Indonesia,81325388007.0,,,-8.4680307,123.289685,https://maps.google.com/?cid=0x0:0x34cd75a09929144a,
supermarket,Komplek perumahan,Loang nagawutung,"G7HP+87, Duawutun, Kec. Naga Wutung, Kabupaten Lembata, Nusa Tenggara Tim.","Kabupaten Lembata, Nusa Tenggara Tim.",NUSA TENGGARA TIMUR,,Indonesia,,,,-8.4716533,123.2856691,https://maps.google.com/?cid=0x0:0xd254f70678af0bc9,
supermarket,Pemasok mebel sesuai pesanan,meubeler mandiri,"G7MQ+JHG, Wuakerong, Kec. Naga Wutung, Kabupaten Lembata, Nusa Tenggara Tim.","Kabupaten Lembata, Nusa Tenggara Tim.",NUSA TENGGARA TIMUR,,Indonesia,,,,-8.4659256,123.2889608,https://maps.google.com/?cid=0x0:0xb3bcfac46c8b9aac,
supermarket,Toko umum,KIOS STEVANIA RBC,"Pasir Putih, Kec. Naga Wutung, Kabupaten Lembata, Nusa Tenggara Tim.","Kabupaten Lembata, Nusa Tenggara Tim.",NUSA TENGGARA TIMUR,,Indonesia,82116325551.0,,,-8.5438472,123.2650066,https://maps.google.com/?cid=0x0:0x9c85413be86c95dc,
supermarket,supermarket,Kios Firdaus,"F9RJ+27F, Belabaja, Kec. Wulandoni, Kabupaten Lembata, Nusa Tenggara Tim.","Kabupaten Lembata, Nusa Tenggara Tim.",NUSA TENGGARA TIMUR,,Indonesia,,,,-8.5099427,123.3806726,https://maps.google.com/?cid=0x0:0xd890fb497693ad70,
supermarket,Komplek perumahan,Lewopenutung,"C9Q3+2HR, Lusiduawutun, Kec. Naga Wutung, Kabupaten Lembata, Nusa Tenggara Tim.","Kabupaten Lembata, Nusa Tenggara Tim.",NUSA TENGGARA TIMUR,,Indonesia,,,,-8.5623792,123.353903,https://maps.google.com/?cid=0x0:0x6235d21211141ad9,
supermarket,Toko,Boto Labalimut,"F9RG+R2Q, Unnamed Road, Puor, Wulandoni, Lembata Regency, East Nusa Tenggara","Kabupaten Lembata, Nusa Tenggara Tim.",NUSA TENGGARA TIMUR,,Indonesia,,,,-8.507907,123.3751017,https://maps.google.com/?cid=0x0:0xbd090019c9e46541,
supermarket,Toko Swalayan,WahangMART,"Jl. Praktek dr. Geriil Gang Tower 4G, Lewoleba Sel., Kec. Nubatukan, Kabupaten Lembata, Nusa Tenggara Tim. 86682","Lewoleba Sel., Kec. Nubatukan, Kabupaten Lembata",NUSA TENGGARA TIMUR,86682.0,Indonesia,81239828189.0,,,-8.3791533,123.4248794,https://maps.google.com/?cid=0x0:0xaca7410a646f3a8c,
supermarket,Kafe,Cafe Baoviga,"Pasir Putih, Kec. Naga Wutung, Kabupaten Lembata, Nusa Tenggara Tim.","Kabupaten Lembata, Nusa Tenggara Tim.",NUSA TENGGARA TIMUR,,Indonesia,82214401540.0,,,-8.5444866,123.2686535,https://maps.google.com/?cid=0x0:0x222d926bfdf67267,
supermarket,Kedai Kopi,Bakso dan Gorengan,"G7JM+HJQ, Duawutun, Kec. Naga Wutung, Kabupaten Lembata, Nusa Tenggara Tim.","Kabupaten Lembata, Nusa Tenggara Tim.",NUSA TENGGARA TIMUR,,Indonesia,,,,-8.4685497,123.2840986,https://maps.google.com/?cid=0x0:0xd9cf76d3d942b769,
supermarket,supermarket,Bogan he,"G85J+GPC, Atawai, Kec. Naga Wutung, Kabupaten Lembata, Nusa Tenggara Tim.","Kabupaten Lembata, Nusa Tenggara Tim.",NUSA TENGGARA TIMUR,,Indonesia,,,,-8.4911946,123.3317795,https://maps.google.com/?cid=0x0:0xf2eeab7465589aca,
supermarket,Komplek perumahan,Pasar Loang,"G7MP+H46, Duawutun, Kec. Naga Wutung, Kabupaten Lembata, Nusa Tenggara Tim.","Kabupaten Lembata, Nusa Tenggara Tim.",NUSA TENGGARA TIMUR,,Indonesia,,,,-8.4656673,123.2841814,https://maps.google.com/?cid=0x0:0x3e10efcaa002a6a3,
supermarket,Toko bahan makanan,Kios Walangnapo,"Jl. Trans Lembata, Lewoleba Tengah, Kec. Nubatukan, Kabupaten Lembata, Nusa Tenggara Tim.","Kabupaten Lembata, Nusa Tenggara Tim.",NUSA TENGGARA TIMUR,,Indonesia,81237346737.0,,,-8.3711487,123.435263,https://maps.google.com/?cid=0x0:0xb05aa52a77101aac,
supermarket,supermarket,Kec. Nubatukan,"Kabupaten Lembata, Nusa Tenggara Tim.","Kabupaten Lembata, Nusa Tenggara Tim.",NUSA TENGGARA TIMUR,,Indonesia,,,,-8.3731739,123.4288459,https://maps.google.com/?cid=0x0:0x5937ac1360822cb3,
supermarket,Toko bahan makanan,SUNRISE MART,"JCG9+774, Lewoleba Tengah, Kec. Nubatukan, Kabupaten Lembata, Nusa Tenggara Tim.","Kabupaten Lembata, Nusa Tenggara Tim.",NUSA TENGGARA TIMUR,,Indonesia,,,,-8.3743533,123.4181942,https://maps.google.com/?cid=0x0:0xbf961d35faaaa145,
supermarket,Pusat Perbelanjaan,Naga Mas Mart,"Lewoleba Tengah, Kec. Nubatukan, Kabupaten Lembata, Nusa Tenggara Tim.","Kabupaten Lembata, Nusa Tenggara Tim.",NUSA TENGGARA TIMUR,,Indonesia,81339182762.0,,,-8.374624,123.417966,https://maps.google.com/?cid=0x0:0xeef61b4d29b4f2c7,
supermarket,Toko bahan makanan,Outlet Zam,"JCH8+P5J Rayuan City, Lewoleba, Kec. Nubatukan, Kabupaten Lembata, Nusa Tenggara Tim.","Kabupaten Lembata, Nusa Tenggara Tim.",NUSA TENGGARA TIMUR,,Indonesia,82341632012.0,,,-8.370668,123.4153984,https://maps.google.com/?cid=0x0:0x81dbb5f373d7cf84,
supermarket,Toko Swalayan,Toko Jannah,"Jl. Anton Enga Tifaona Lingkungan Kota Baru Timur, RT.001/RW.001, Lewoleba Sel., Kec. Nubatukan, Kabupaten Lembata, Nusa Tenggara Tim. 86682","RT.001/RW.001, Lewoleba Sel., Kec. Nubatukan, Kabupaten Lembata",NUSA TENGGARA TIMUR,86682.0,Indonesia,81239270302.0,,,-8.3738924,123.4234961,https://maps.google.com/?cid=0x0:0x115db81caae5dbfd,
supermarket,Toko bahan makanan,Kios Walangnapo,"Jl. Trans Lembata, Lewoleba Tengah, Kec. Nubatukan, Kabupaten Lembata, Nusa Tenggara Tim.","Kabupaten Lembata, Nusa Tenggara Tim.",NUSA TENGGARA TIMUR,,Indonesia,81237346737.0,,,-8.3711487,123.435263,https://maps.google.com/?cid=0x0:0xb05aa52a77101aac,
supermarket,Toko Swalayan,Dwi Karya,"JCGV+X7C pasar lamahora, Lewoleba Tim., Kec. Nubatukan, Kabupaten Lembata, Nusa Tenggara Tim.","Kabupaten Lembata, Nusa Tenggara Tim.",NUSA TENGGARA TIMUR,,Indonesia,82139223031.0,,,-8.3725597,123.4431427,https://maps.google.com/?cid=0x0:0xeffd634c953a5f23,
supermarket,Toko Swalayan,Kios Wuno Pito,"JCPX+R93, Jl. Trans Lembata, RT.038/RW.08, Lewoleba Tim., Kec. Nubatukan, Kabupaten Lembata, Nusa Tenggara Tim.","Kabupaten Lembata, Nusa Tenggara Tim.",NUSA TENGGARA TIMUR,,Indonesia,85205675269.0,,,-8.3629821,123.4484072,https://maps.google.com/?cid=0x0:0xf7dfcad8c2f8f3e4,
supermarket,Toko Swalayan,WahangMART,"Jl. Praktek dr. Geriil Gang Tower 4G, Lewoleba Sel., Kec. Nubatukan, Kabupaten Lembata, Nusa Tenggara Tim. 86682","Lewoleba Sel., Kec. Nubatukan, Kabupaten Lembata",NUSA TENGGARA TIMUR,86682.0,Indonesia,81239828189.0,,,-8.3791533,123.4248794,https://maps.google.com/?cid=0x0:0xaca7410a646f3a8c,
supermarket,Komplek perumahan,Pasar Lamahora,"JCGV+M7J, Lamahora, Lewoleba Tim., Kec. Nubatukan, Kabupaten Lembata, Nusa Tenggara Tim.","Kabupaten Lembata, Nusa Tenggara Tim.",NUSA TENGGARA TIMUR,,Indonesia,,,,-8.3732801,123.443127,https://maps.google.com/?cid=0x0:0xdf5fae1cec0aa9b4,
supermarket,Kantor Perusahaan,Dpn SDimreswaikomo 1,"JC96+4CV, Lewoleba Tengah, Kec. Nubatukan, Kabupaten Lembata, Nusa Tenggara Tim.","Kabupaten Lembata, Nusa Tenggara Tim.",NUSA TENGGARA TIMUR,,Indonesia,,,,-8.3821393,123.4110342,https://maps.google.com/?cid=0x0:0xaa004c083a01e624,
supermarket,Kafe,Omah Bu'e Lembata,"Kandang Rusa - Lamahora, Jl. Trans Lembata, Lewoleba, Kec. Nubatukan, Kabupaten Lembata, Nusa Tenggara Tim. 86616","Jl. Trans Lembata, Lewoleba, Kec. Nubatukan, Kabupaten Lembata",NUSA TENGGARA TIMUR,86616.0,Indonesia,81338965654.0,,,-8.367236,123.4423162,https://maps.google.com/?cid=0x0:0x9e3075c4cd0b6cac,
supermarket,Toko bahan makanan,Rizky Barokah Mart,"JCCC+FJF, Lewoleba Tengah, Kec. Nubatukan, Kabupaten Lembata, Nusa Tenggara Tim.","Kabupaten Lembata, Nusa Tenggara Tim.",NUSA TENGGARA TIMUR,,Indonesia,3834277.0,,,-8.3788005,123.4215375,https://maps.google.com/?cid=0x0:0xb74668201edf0f9a,
supermarket,Toko Swalayan,Supermarket Olympic,"JCF7+RW5, Lewoleba Tengah, Kec. Nubatukan, Kabupaten Lembata, Nusa Tenggara Tim.","Kabupaten Lembata, Nusa Tenggara Tim.",NUSA TENGGARA TIMUR,,Indonesia,,,,-8.3754997,123.4148483,https://maps.google.com/?cid=0x0:0xf5cd5ab5f36fdf17,
supermarket,Toko umum,Toko Omega Baru,"JCG7+7X4, Lewoleba Tengah, Kec. Nubatukan, Kabupaten Lembata, Nusa Tenggara Tim.","Kabupaten Lembata, Nusa Tenggara Tim.",NUSA TENGGARA TIMUR,,Indonesia,81237340411.0,,,-8.374372,123.4149653,https://maps.google.com/?cid=0x0:0xd9591d5a1b8a6045,
supermarket,Toko bahan makanan,An'Nur Sejahtera,"JCC7+R34, Lewoleba Tengah, Kec. Nubatukan, Kabupaten Lembata, Nusa Tenggara Tim.","Kabupaten Lembata, Nusa Tenggara Tim.",NUSA TENGGARA TIMUR,,Indonesia,85342249866.0,,,-8.3780629,123.4127087,https://maps.google.com/?cid=0x0:0x45ed153d26bffa36,
supermarket,Toko bahan makanan,Taman Bunga,"JCF8+Q89, Unnamed Road, Lewoleba Tengah, Kec. Nubatukan, Kabupaten Lembata, Nusa Tenggara Tim.","Kabupaten Lembata, Nusa Tenggara Tim.",NUSA TENGGARA TIMUR,,Indonesia,,,,-8.3755851,123.4158674,https://maps.google.com/?cid=0x0:0xcc3ebf0f531fbb68,
supermarket,Toko Swalayan,Tujuh Roda Depo,"JCPW+GQX, Jl. Trans Lembata, Selandoro, Kec. Nubatukan, Kabupaten Lembata, Nusa Tenggara Tim.","Kabupaten Lembata, Nusa Tenggara Tim.",NUSA TENGGARA TIMUR,,Indonesia,,,,-8.3636374,123.4469718,https://maps.google.com/?cid=0x0:0xbd5fdedc60a0b685,
supermarket,Toko bahan makanan,MINI MARKET RIZKIH BAROKAH,"JCGH+VMC, Jl. Trans Lembata, Lewoleba Tengah, Kec. Nubatukan, Kabupaten Lembata, Nusa Tenggara Tim.","Kabupaten Lembata, Nusa Tenggara Tim.",NUSA TENGGARA TIMUR,,Indonesia,,,,-8.3728189,123.4291386,https://maps.google.com/?cid=0x0:0x6641d1d83e22710f,
supermarket,Bank,Agen Brilink Nusa Amanta,"JCGH+VRG, Lewoleba Tengah, Kec. Nubatukan, Kabupaten Lembata, Nusa Tenggara Tim.","Kabupaten Lembata, Nusa Tenggara Tim.",NUSA TENGGARA TIMUR,,Indonesia,,,,-8.3728173,123.4295674,https://maps.google.com/?cid=0x0:0xb29e2c795dc8d881,
supermarket,Toko Bahan Bangunan,Toko Sumber Surya 1,"JCGG+8C5, Lewoleba Tengah, Kec. Nubatukan, Kabupaten Lembata, Nusa Tenggara Tim.","Kabupaten Lembata, Nusa Tenggara Tim.",NUSA TENGGARA TIMUR,,Indonesia,,,,-8.3742275,123.4261231,https://maps.google.com/?cid=0x0:0x350e0025ffe40fd2,
supermarket,Toko bahan makanan,SERBA SERBI Mart,"JCGH+W6J, Lewoleba Tengah, Kec. Nubatukan, Kabupaten Lembata, Nusa Tenggara Tim.","Kabupaten Lembata, Nusa Tenggara Tim.",NUSA TENGGARA TIMUR,,Indonesia,,,,-8.3728889,123.4280067,https://maps.google.com/?cid=0x0:0x7d23dfec3a695f74,
supermarket,Minimarket,PRIMASEL,"JCGH+QQ8, Lewoleba Tengah, Kec. Nubatukan, Kabupaten Lembata, Nusa Tenggara Tim.","Kabupaten Lembata, Nusa Tenggara Tim.",NUSA TENGGARA TIMUR,,Indonesia,81237020192.0,,,-8.3730965,123.4294412,https://maps.google.com/?cid=0x0:0x11e006ba109e4157,
supermarket,Toko bahan makanan,Mahkota,"JCGG+XHH, Lewoleba Tengah, Kec. Nubatukan, Kabupaten Lembata, Nusa Tenggara Tim.","Kabupaten Lembata, Nusa Tenggara Tim.",NUSA TENGGARA TIMUR,,Indonesia,,,,-8.3725749,123.4264998,https://maps.google.com/?cid=0x0:0x575250ef41749489,
supermarket,Toko Elektronik,Kios dan cell serentia,"JCFG+M67, Lewoleba Tengah, Kec. Nubatukan, Kabupaten Lembata, Nusa Tenggara Tim.","Kabupaten Lembata, Nusa Tenggara Tim.",NUSA TENGGARA TIMUR,,Indonesia,82236107172.0,,,-8.3759876,123.4255491,https://maps.google.com/?cid=0x0:0x2e604b65c5f55de6,
supermarket,Toko bahan makanan,Toko Sumber Rejeki,"JCF7+HPV, Lewoleba Tengah, Kec. Nubatukan, Kabupaten Lembata, Nusa Tenggara Tim.","Kabupaten Lembata, Nusa Tenggara Tim.",NUSA TENGGARA TIMUR,,Indonesia,38341691.0,,,-8.376012,123.4142998,https://maps.google.com/?cid=0x0:0xa22db9310b0451f3,
supermarket,Kantor Perusahaan,Toko : Sulawesi Jaya,"Lewoleba Tengah, Kec. Nubatukan, Kabupaten Lembata, Nusa Tenggara Tim. 86615","Kec. Nubatukan, Kabupaten Lembata",NUSA TENGGARA TIMUR,86615.0,Indonesia,82145190306.0,,,-8.3758606,123.4145813,https://maps.google.com/?cid=0x0:0xc552b4fddee6862f,
supermarket,Toko Perbaikan Ponsel,Aldi Cell 2,"JCHH+228, Jl. Trans Lembata, Lewoleba Tengah, Kec. Nubatukan, Kabupaten Lembata, Nusa Tenggara Tim.","Kabupaten Lembata, Nusa Tenggara Tim.",NUSA TENGGARA TIMUR,,Indonesia,,,,-8.3724539,123.4275893,https://maps.google.com/?cid=0x0:0x4986832f93f315e,
supermarket,supermarket,Kec. Nubatukan,"Kabupaten Lembata, Nusa Tenggara Tim.","Kabupaten Lembata, Nusa Tenggara Tim.",NUSA TENGGARA TIMUR,,Indonesia,,,,-8.3731739,123.4288459,https://maps.google.com/?cid=0x0:0x5937ac1360822cb3,
supermarket,Toko Swalayan,Supermarket Olympic,"JCF7+RW5, Lewoleba Tengah, Kec. Nubatukan, Kabupaten Lembata, Nusa Tenggara Tim.","Kabupaten Lembata, Nusa Tenggara Tim.",NUSA TENGGARA TIMUR,,Indonesia,,,,-8.3754997,123.4148483,https://maps.google.com/?cid=0x0:0xf5cd5ab5f36fdf17,
supermarket,Toko bahan makanan,SUNRISE MART,"JCG9+774, Lewoleba Tengah, Kec. Nubatukan, Kabupaten Lembata, Nusa Tenggara Tim.","Kabupaten Lembata, Nusa Tenggara Tim.",NUSA TENGGARA TIMUR,,Indonesia,,,,-8.3743533,123.4181942,https://maps.google.com/?cid=0x0:0xbf961d35faaaa145,
supermarket,Minimarket,Central Mart,"JCGC+9X9, Lewoleba Tengah, Kec. Nubatukan, Kabupaten Lembata, Nusa Tenggara Tim.","Kabupaten Lembata, Nusa Tenggara Tim.",NUSA TENGGARA TIMUR,,Indonesia,,,,-8.374087,123.4224802,https://maps.google.com/?cid=0x0:0x2b925a5f4c8b2d83,
supermarket,Toko bahan makanan,Rizky Barokah Mart,"JCCC+FJF, Lewoleba Tengah, Kec. Nubatukan, Kabupaten Lembata, Nusa Tenggara Tim.","Kabupaten Lembata, Nusa Tenggara Tim.",NUSA TENGGARA TIMUR,,Indonesia,3834277.0,,,-8.3788005,123.4215375,https://maps.google.com/?cid=0x0:0xb74668201edf0f9a,
supermarket,Toko bahan makanan,An'Nur Sejahtera,"JCC7+R34, Lewoleba Tengah, Kec. Nubatukan, Kabupaten Lembata, Nusa Tenggara Tim.","Kabupaten Lembata, Nusa Tenggara Tim.",NUSA TENGGARA TIMUR,,Indonesia,85342249866.0,,,-8.3780629,123.4127087,https://maps.google.com/?cid=0x0:0x45ed153d26bffa36,
supermarket,Toko Swalayan,Toko Jannah,"Jl. Anton Enga Tifaona Lingkungan Kota Baru Timur, RT.001/RW.001, Lewoleba Sel., Kec. Nubatukan, Kabupaten Lembata, Nusa Tenggara Tim. 86682","RT.001/RW.001, Lewoleba Sel., Kec. Nubatukan, Kabupaten Lembata",NUSA TENGGARA TIMUR,86682.0,Indonesia,81239270302.0,,,-8.3738924,123.4234961,https://maps.google.com/?cid=0x0:0x115db81caae5dbfd,
supermarket,Toko umum,Toko Omega Baru,"JCG7+7X4, Lewoleba Tengah, Kec. Nubatukan, Kabupaten Lembata, Nusa Tenggara Tim.","Kabupaten Lembata, Nusa Tenggara Tim.",NUSA TENGGARA TIMUR,,Indonesia,81237340411.0,,,-8.374372,123.4149653,https://maps.google.com/?cid=0x0:0xd9591d5a1b8a6045,
supermarket,Toko bahan makanan,Kios Walangnapo,"Jl. Trans Lembata, Lewoleba Tengah, Kec. Nubatukan, Kabupaten Lembata, Nusa Tenggara Tim.","Kabupaten Lembata, Nusa Tenggara Tim.",NUSA TENGGARA TIMUR,,Indonesia,81237346737.0,,,-8.3711487,123.435263,https://maps.google.com/?cid=0x0:0xb05aa52a77101aac,
supermarket,Toko bahan makanan,Outlet Zam,"JCH8+P5J Rayuan City, Lewoleba, Kec. Nubatukan, Kabupaten Lembata, Nusa Tenggara Tim.","Kabupaten Lembata, Nusa Tenggara Tim.",NUSA TENGGARA TIMUR,,Indonesia,82341632012.0,,,-8.370668,123.4153984,https://maps.google.com/?cid=0x0:0x81dbb5f373d7cf84,
supermarket,Bank,Agen Brilink Nusa Amanta,"JCGH+VRG, Lewoleba Tengah, Kec. Nubatukan, Kabupaten Lembata, Nusa Tenggara Tim.","Kabupaten Lembata, Nusa Tenggara Tim.",NUSA TENGGARA TIMUR,,Indonesia,,,,-8.3728173,123.4295674,https://maps.google.com/?cid=0x0:0xb29e2c795dc8d881,
supermarket,Toko bahan makanan,Taman Bunga,"JCF8+Q89, Unnamed Road, Lewoleba Tengah, Kec. Nubatukan, Kabupaten Lembata, Nusa Tenggara Tim.","Kabupaten Lembata, Nusa Tenggara Tim.",NUSA TENGGARA TIMUR,,Indonesia,,,,-8.3755851,123.4158674,https://maps.google.com/?cid=0x0:0xcc3ebf0f531fbb68,
supermarket,Toko Swalayan,Tujuh Roda Depo,"JCPW+GQX, Jl. Trans Lembata, Selandoro, Kec. Nubatukan, Kabupaten Lembata, Nusa Tenggara Tim.","Kabupaten Lembata, Nusa Tenggara Tim.",NUSA TENGGARA TIMUR,,Indonesia,,,,-8.3636374,123.4469718,https://maps.google.com/?cid=0x0:0xbd5fdedc60a0b685,
supermarket,Toko Swalayan,Dwi Karya,"JCGV+X7C pasar lamahora, Lewoleba Tim., Kec. Nubatukan, Kabupaten Lembata, Nusa Tenggara Tim.","Kabupaten Lembata, Nusa Tenggara Tim.",NUSA TENGGARA TIMUR,,Indonesia,82139223031.0,,,-8.3725597,123.4431427,https://maps.google.com/?cid=0x0:0xeffd634c953a5f23,
supermarket,Toko bahan makanan,MINI MARKET RIZKIH BAROKAH,"JCGH+VMC, Jl. Trans Lembata, Lewoleba Tengah, Kec. Nubatukan, Kabupaten Lembata, Nusa Tenggara Tim.","Kabupaten Lembata, Nusa Tenggara Tim.",NUSA TENGGARA TIMUR,,Indonesia,,,,-8.3728189,123.4291386,https://maps.google.com/?cid=0x0:0x6641d1d83e22710f,
supermarket,Toko bahan makanan,SERBA SERBI Mart,"JCGH+W6J, Lewoleba Tengah, Kec. Nubatukan, Kabupaten Lembata, Nusa Tenggara Tim.","Kabupaten Lembata, Nusa Tenggara Tim.",NUSA TENGGARA TIMUR,,Indonesia,,,,-8.3728889,123.4280067,https://maps.google.com/?cid=0x0:0x7d23dfec3a695f74,
supermarket,Toko Swalayan,WahangMART,"Jl. Praktek dr. Geriil Gang Tower 4G, Lewoleba Sel., Kec. Nubatukan, Kabupaten Lembata, Nusa Tenggara Tim. 86682","Lewoleba Sel., Kec. Nubatukan, Kabupaten Lembata",NUSA TENGGARA TIMUR,86682.0,Indonesia,81239828189.0,,,-8.3791533,123.4248794,https://maps.google.com/?cid=0x0:0xaca7410a646f3a8c,
supermarket,Toko bahan makanan,Mahkota,"JCGG+XHH, Lewoleba Tengah, Kec. Nubatukan, Kabupaten Lembata, Nusa Tenggara Tim.","Kabupaten Lembata, Nusa Tenggara Tim.",NUSA TENGGARA TIMUR,,Indonesia,,,,-8.3725749,123.4264998,https://maps.google.com/?cid=0x0:0x575250ef41749489,
supermarket,Toko Swalayan,Kios Wuno Pito,"JCPX+R93, Jl. Trans Lembata, RT.038/RW.08, Lewoleba Tim., Kec. Nubatukan, Kabupaten Lembata, Nusa Tenggara Tim.","Kabupaten Lembata, Nusa Tenggara Tim.",NUSA TENGGARA TIMUR,,Indonesia,85205675269.0,,,-8.3629821,123.4484072,https://maps.google.com/?cid=0x0:0xf7dfcad8c2f8f3e4,
supermarket,Kios,Kios R  k,"JCJH+4XH, Lewoleba Tengah, Kec. Nubatukan, Kabupaten Lembata, Nusa Tenggara Tim.","Kabupaten Lembata, Nusa Tenggara Tim.",NUSA TENGGARA TIMUR,,Indonesia,,,,-8.3696793,123.4299981,https://maps.google.com/?cid=0x0:0x20548e274926b6a9,
supermarket,Toko bahan makanan,Toko Sumber Rejeki,"JCF7+HPV, Lewoleba Tengah, Kec. Nubatukan, Kabupaten Lembata, Nusa Tenggara Tim.","Kabupaten Lembata, Nusa Tenggara Tim.",NUSA TENGGARA TIMUR,,Indonesia,38341691.0,,,-8.376012,123.4142998,https://maps.google.com/?cid=0x0:0xa22db9310b0451f3,
supermarket,Minimarket,PRIMASEL,"JCGH+QQ8, Lewoleba Tengah, Kec. Nubatukan, Kabupaten Lembata, Nusa Tenggara Tim.","Kabupaten Lembata, Nusa Tenggara Tim.",NUSA TENGGARA TIMUR,,Indonesia,81237020192.0,,,-8.3730965,123.4294412,https://maps.google.com/?cid=0x0:0x11e006ba109e4157,
supermarket,Toko Perbaikan Ponsel,Aldi Cell 2,"JCHH+228, Jl. Trans Lembata, Lewoleba Tengah, Kec. Nubatukan, Kabupaten Lembata, Nusa Tenggara Tim.","Kabupaten Lembata, Nusa Tenggara Tim.",NUSA TENGGARA TIMUR,,Indonesia,,,,-8.3724539,123.4275893,https://maps.google.com/?cid=0x0:0x4986832f93f315e,
supermarket,Toko Elektronik,Kios dan cell serentia,"JCFG+M67, Lewoleba Tengah, Kec. Nubatukan, Kabupaten Lembata, Nusa Tenggara Tim.","Kabupaten Lembata, Nusa Tenggara Tim.",NUSA TENGGARA TIMUR,,Indonesia,82236107172.0,,,-8.3759876,123.4255491,https://maps.google.com/?cid=0x0:0x2e604b65c5f55de6,
supermarket,Toko,Depot Air Minum Ro Mudakarya,"JCGM+G6P, Selandoro, Lewoleba Tengah, Kec. Nubatukan, Kabupaten Lembata, Nusa Tenggara Tim.","Kabupaten Lembata, Nusa Tenggara Tim.",NUSA TENGGARA TIMUR,,Indonesia,82144627834.0,,,-8.3736542,123.4330728,https://maps.google.com/?cid=0x0:0xfb149fd712390287,
supermarket,Kantor Perusahaan,Toko : Sulawesi Jaya,"Lewoleba Tengah, Kec. Nubatukan, Kabupaten Lembata, Nusa Tenggara Tim. 86615","Kec. Nubatukan, Kabupaten Lembata",NUSA TENGGARA TIMUR,86615.0,Indonesia,82145190306.0,,,-8.3758606,123.4145813,https://maps.google.com/?cid=0x0:0xc552b4fddee6862f,
supermarket,supermarket,Kec. Nubatukan,"Kabupaten Lembata, Nusa Tenggara Tim.","Kabupaten Lembata, Nusa Tenggara Tim.",NUSA TENGGARA TIMUR,,Indonesia,,,,-8.3731739,123.4288459,https://maps.google.com/?cid=0x0:0x5937ac1360822cb3,
supermarket,Toko Swalayan,Supermarket Olympic,"JCF7+RW5, Lewoleba Tengah, Kec. Nubatukan, Kabupaten Lembata, Nusa Tenggara Tim.","Kabupaten Lembata, Nusa Tenggara Tim.",NUSA TENGGARA TIMUR,,Indonesia,,,,-8.3754997,123.4148483,https://maps.google.com/?cid=0x0:0xf5cd5ab5f36fdf17,
supermarket,Minimarket,Central Mart,"JCGC+9X9, Lewoleba Tengah, Kec. Nubatukan, Kabupaten Lembata, Nusa Tenggara Tim.","Kabupaten Lembata, Nusa Tenggara Tim.",NUSA TENGGARA TIMUR,,Indonesia,,,,-8.374087,123.4224802,https://maps.google.com/?cid=0x0:0x2b925a5f4c8b2d83,
supermarket,Toko bahan makanan,Rizky Barokah Mart,"JCCC+FJF, Lewoleba Tengah, Kec. Nubatukan, Kabupaten Lembata, Nusa Tenggara Tim.","Kabupaten Lembata, Nusa Tenggara Tim.",NUSA TENGGARA TIMUR,,Indonesia,3834277.0,,,-8.3788005,123.4215375,https://maps.google.com/?cid=0x0:0xb74668201edf0f9a,
supermarket,Toko bahan makanan,SUNRISE MART,"JCG9+774, Lewoleba Tengah, Kec. Nubatukan, Kabupaten Lembata, Nusa Tenggara Tim.","Kabupaten Lembata, Nusa Tenggara Tim.",NUSA TENGGARA TIMUR,,Indonesia,,,,-8.3743533,123.4181942,https://maps.google.com/?cid=0x0:0xbf961d35faaaa145,
supermarket,Toko bahan makanan,An'Nur Sejahtera,"JCC7+R34, Lewoleba Tengah, Kec. Nubatukan, Kabupaten Lembata, Nusa Tenggara Tim.","Kabupaten Lembata, Nusa Tenggara Tim.",NUSA TENGGARA TIMUR,,Indonesia,85342249866.0,,,-8.3780629,123.4127087,https://maps.google.com/?cid=0x0:0x45ed153d26bffa36,
supermarket,Toko umum,Toko Omega Baru,"JCG7+7X4, Lewoleba Tengah, Kec. Nubatukan, Kabupaten Lembata, Nusa Tenggara Tim.","Kabupaten Lembata, Nusa Tenggara Tim.",NUSA TENGGARA TIMUR,,Indonesia,81237340411.0,,,-8.374372,123.4149653,https://maps.google.com/?cid=0x0:0xd9591d5a1b8a6045,
supermarket,Toko Swalayan,Toko Jannah,"Jl. Anton Enga Tifaona Lingkungan Kota Baru Timur, RT.001/RW.001, Lewoleba Sel., Kec. Nubatukan, Kabupaten Lembata, Nusa Tenggara Tim. 86682","RT.001/RW.001, Lewoleba Sel., Kec. Nubatukan, Kabupaten Lembata",NUSA TENGGARA TIMUR,86682.0,Indonesia,81239270302.0,,,-8.3738924,123.4234961,https://maps.google.com/?cid=0x0:0x115db81caae5dbfd,
supermarket,Toko bahan makanan,Taman Bunga,"JCF8+Q89, Unnamed Road, Lewoleba Tengah, Kec. Nubatukan, Kabupaten Lembata, Nusa Tenggara Tim.","Kabupaten Lembata, Nusa Tenggara Tim.",NUSA TENGGARA TIMUR,,Indonesia,,,,-8.3755851,123.4158674,https://maps.google.com/?cid=0x0:0xcc3ebf0f531fbb68,
supermarket,Toko bahan makanan,Outlet Zam,"JCH8+P5J Rayuan City, Lewoleba, Kec. Nubatukan, Kabupaten Lembata, Nusa Tenggara Tim.","Kabupaten Lembata, Nusa Tenggara Tim.",NUSA TENGGARA TIMUR,,Indonesia,82341632012.0,,,-8.370668,123.4153984,https://maps.google.com/?cid=0x0:0x81dbb5f373d7cf84,
supermarket,Toko bahan makanan,Kios Walangnapo,"Jl. Trans Lembata, Lewoleba Tengah, Kec. Nubatukan, Kabupaten Lembata, Nusa Tenggara Tim.","Kabupaten Lembata, Nusa Tenggara Tim.",NUSA TENGGARA TIMUR,,Indonesia,81237346737.0,,,-8.3711487,123.435263,https://maps.google.com/?cid=0x0:0xb05aa52a77101aac,
supermarket,Toko Swalayan,Tujuh Roda Depo,"JCPW+GQX, Jl. Trans Lembata, Selandoro, Kec. Nubatukan, Kabupaten Lembata, Nusa Tenggara Tim.","Kabupaten Lembata, Nusa Tenggara Tim.",NUSA TENGGARA TIMUR,,Indonesia,,,,-8.3636374,123.4469718,https://maps.google.com/?cid=0x0:0xbd5fdedc60a0b685,
supermarket,Toko bahan makanan,Toko Sumber Rejeki,"JCF7+HPV, Lewoleba Tengah, Kec. Nubatukan, Kabupaten Lembata, Nusa Tenggara Tim.","Kabupaten Lembata, Nusa Tenggara Tim.",NUSA TENGGARA TIMUR,,Indonesia,38341691.0,,,-8.376012,123.4142998,https://maps.google.com/?cid=0x0:0xa22db9310b0451f3,
supermarket,Bank,Agen Brilink Nusa Amanta,"JCGH+VRG, Lewoleba Tengah, Kec. Nubatukan, Kabupaten Lembata, Nusa Tenggara Tim.","Kabupaten Lembata, Nusa Tenggara Tim.",NUSA TENGGARA TIMUR,,Indonesia,,,,-8.3728173,123.4295674,https://maps.google.com/?cid=0x0:0xb29e2c795dc8d881,
supermarket,Toko Swalayan,Dwi Karya,"JCGV+X7C pasar lamahora, Lewoleba Tim., Kec. Nubatukan, Kabupaten Lembata, Nusa Tenggara Tim.","Kabupaten Lembata, Nusa Tenggara Tim.",NUSA TENGGARA TIMUR,,Indonesia,82139223031.0,,,-8.3725597,123.4431427,https://maps.google.com/?cid=0x0:0xeffd634c953a5f23,
supermarket,Toko bahan makanan,MINI MARKET RIZKIH BAROKAH,"JCGH+VMC, Jl. Trans Lembata, Lewoleba Tengah, Kec. Nubatukan, Kabupaten Lembata, Nusa Tenggara Tim.","Kabupaten Lembata, Nusa Tenggara Tim.",NUSA TENGGARA TIMUR,,Indonesia,,,,-8.3728189,123.4291386,https://maps.google.com/?cid=0x0:0x6641d1d83e22710f,
supermarket,Toko bahan makanan,SERBA SERBI Mart,"JCGH+W6J, Lewoleba Tengah, Kec. Nubatukan, Kabupaten Lembata, Nusa Tenggara Tim.","Kabupaten Lembata, Nusa Tenggara Tim.",NUSA TENGGARA TIMUR,,Indonesia,,,,-8.3728889,123.4280067,https://maps.google.com/?cid=0x0:0x7d23dfec3a695f74,
supermarket,Toko bahan makanan,Mahkota,"JCGG+XHH, Lewoleba Tengah, Kec. Nubatukan, Kabupaten Lembata, Nusa Tenggara Tim.","Kabupaten Lembata, Nusa Tenggara Tim.",NUSA TENGGARA TIMUR,,Indonesia,,,,-8.3725749,123.4264998,https://maps.google.com/?cid=0x0:0x575250ef41749489,
supermarket,Minimarket,PRIMASEL,"JCGH+QQ8, Lewoleba Tengah, Kec. Nubatukan, Kabupaten Lembata, Nusa Tenggara Tim.","Kabupaten Lembata, Nusa Tenggara Tim.",NUSA TENGGARA TIMUR,,Indonesia,81237020192.0,,,-8.3730965,123.4294412,https://maps.google.com/?cid=0x0:0x11e006ba109e4157,
supermarket,Toko Bahan Bangunan,Toko Sumber Surya 1,"JCGG+8C5, Lewoleba Tengah, Kec. Nubatukan, Kabupaten Lembata, Nusa Tenggara Tim.","Kabupaten Lembata, Nusa Tenggara Tim.",NUSA TENGGARA TIMUR,,Indonesia,,,,-8.3742275,123.4261231,https://maps.google.com/?cid=0x0:0x350e0025ffe40fd2,
supermarket,Toko Aksesori Pakaian,Tk.Taruna Jaya,"JCH8+7RX, Jl. Trans Lembata, Selandoro, Kec. Nubatukan, Kabupaten Lembata, Nusa Tenggara Tim.","Kabupaten Lembata, Nusa Tenggara Tim.",NUSA TENGGARA TIMUR,,Indonesia,,,,-8.3717548,123.4170983,https://maps.google.com/?cid=0x0:0x2c958e8a45daf7aa,
supermarket,Kios,Kios R  k,"JCJH+4XH, Lewoleba Tengah, Kec. Nubatukan, Kabupaten Lembata, Nusa Tenggara Tim.","Kabupaten Lembata, Nusa Tenggara Tim.",NUSA TENGGARA TIMUR,,Indonesia,,,,-8.3696793,123.4299981,https://maps.google.com/?cid=0x0:0x20548e274926b6a9,
supermarket,Kantor Perusahaan,Toko : Sulawesi Jaya,"Lewoleba Tengah, Kec. Nubatukan, Kabupaten Lembata, Nusa Tenggara Tim. 86615","Kec. Nubatukan, Kabupaten Lembata",NUSA TENGGARA TIMUR,86615.0,Indonesia,82145190306.0,,,-8.3758606,123.4145813,https://maps.google.com/?cid=0x0:0xc552b4fddee6862f,
supermarket,Toko Perbaikan Ponsel,Aldi Cell 2,"JCHH+228, Jl. Trans Lembata, Lewoleba Tengah, Kec. Nubatukan, Kabupaten Lembata, Nusa Tenggara Tim.","Kabupaten Lembata, Nusa Tenggara Tim.",NUSA TENGGARA TIMUR,,Indonesia,,,,-8.3724539,123.4275893,https://maps.google.com/?cid=0x0:0x4986832f93f315e,
supermarket,Toko Elektronik,Kios dan cell serentia,"JCFG+M67, Lewoleba Tengah, Kec. Nubatukan, Kabupaten Lembata, Nusa Tenggara Tim.","Kabupaten Lembata, Nusa Tenggara Tim.",NUSA TENGGARA TIMUR,,Indonesia,82236107172.0,,,-8.3759876,123.4255491,https://maps.google.com/?cid=0x0:0x2e604b65c5f55de6,
supermarket,supermarket,Kec. Nubatukan,"Kabupaten Lembata, Nusa Tenggara Tim.","Kabupaten Lembata, Nusa Tenggara Tim.",NUSA TENGGARA TIMUR,,Indonesia,,,,-8.3731739,123.4288459,https://maps.google.com/?cid=0x0:0x5937ac1360822cb3,
supermarket,Toko bahan makanan,SUNRISE MART,"JCG9+774, Lewoleba Tengah, Kec. Nubatukan, Kabupaten Lembata, Nusa Tenggara Tim.","Kabupaten Lembata, Nusa Tenggara Tim.",NUSA TENGGARA TIMUR,,Indonesia,,,,-8.3743533,123.4181942,https://maps.google.com/?cid=0x0:0xbf961d35faaaa145,
supermarket,Pusat Perbelanjaan,Naga Mas Mart,"Lewoleba Tengah, Kec. Nubatukan, Kabupaten Lembata, Nusa Tenggara Tim.","Kabupaten Lembata, Nusa Tenggara Tim.",NUSA TENGGARA TIMUR,,Indonesia,81339182762.0,,,-8.374624,123.417966,https://maps.google.com/?cid=0x0:0xeef61b4d29b4f2c7,
supermarket,Toko Swalayan,Toko Jannah,"Jl. Anton Enga Tifaona Lingkungan Kota Baru Timur, RT.001/RW.001, Lewoleba Sel., Kec. Nubatukan, Kabupaten Lembata, Nusa Tenggara Tim. 86682","RT.001/RW.001, Lewoleba Sel., Kec. Nubatukan, Kabupaten Lembata",NUSA TENGGARA TIMUR,86682.0,Indonesia,81239270302.0,,,-8.3738924,123.4234961,https://maps.google.com/?cid=0x0:0x115db81caae5dbfd,
supermarket,Toko bahan makanan,An'Nur Sejahtera,"JCC7+R34, Lewoleba Tengah, Kec. Nubatukan, Kabupaten Lembata, Nusa Tenggara Tim.","Kabupaten Lembata, Nusa Tenggara Tim.",NUSA TENGGARA TIMUR,,Indonesia,85342249866.0,,,-8.3780629,123.4127087,https://maps.google.com/?cid=0x0:0x45ed153d26bffa36,
supermarket,Toko bahan makanan,Kios Walangnapo,"Jl. Trans Lembata, Lewoleba Tengah, Kec. Nubatukan, Kabupaten Lembata, Nusa Tenggara Tim.","Kabupaten Lembata, Nusa Tenggara Tim.",NUSA TENGGARA TIMUR,,Indonesia,81237346737.0,,,-8.3711487,123.435263,https://maps.google.com/?cid=0x0:0xb05aa52a77101aac,
supermarket,Toko bahan makanan,Taman Bunga,"JCF8+Q89, Unnamed Road, Lewoleba Tengah, Kec. Nubatukan, Kabupaten Lembata, Nusa Tenggara Tim.","Kabupaten Lembata, Nusa Tenggara Tim.",NUSA TENGGARA TIMUR,,Indonesia,,,,-8.3755851,123.4158674,https://maps.google.com/?cid=0x0:0xcc3ebf0f531fbb68,
supermarket,Toko bahan makanan,Outlet Zam,"JCH8+P5J Rayuan City, Lewoleba, Kec. Nubatukan, Kabupaten Lembata, Nusa Tenggara Tim.","Kabupaten Lembata, Nusa Tenggara Tim.",NUSA TENGGARA TIMUR,,Indonesia,82341632012.0,,,-8.370668,123.4153984,https://maps.google.com/?cid=0x0:0x81dbb5f373d7cf84,
supermarket,Toko Swalayan,Dwi Karya,"JCGV+X7C pasar lamahora, Lewoleba Tim., Kec. Nubatukan, Kabupaten Lembata, Nusa Tenggara Tim.","Kabupaten Lembata, Nusa Tenggara Tim.",NUSA TENGGARA TIMUR,,Indonesia,82139223031.0,,,-8.3725597,123.4431427,https://maps.google.com/?cid=0x0:0xeffd634c953a5f23,
supermarket,Toko Pakaian,Matahari Toko,"Jl. Trans Lembata No.9, Lewoleba Utara, Kec. Nubatukan, Kabupaten Lembata, Nusa Tenggara Tim.","Kabupaten Lembata, Nusa Tenggara Tim.",NUSA TENGGARA TIMUR,,Indonesia,38341103.0,,,-8.3732908,123.4003445,https://maps.google.com/?cid=0x0:0x14d0325996d62d01,
supermarket,Toko Swalayan,WahangMART,"Jl. Praktek dr. Geriil Gang Tower 4G, Lewoleba Sel., Kec. Nubatukan, Kabupaten Lembata, Nusa Tenggara Tim. 86682","Lewoleba Sel., Kec. Nubatukan, Kabupaten Lembata",NUSA TENGGARA TIMUR,86682.0,Indonesia,81239828189.0,,,-8.3791533,123.4248794,https://maps.google.com/?cid=0x0:0xaca7410a646f3a8c,
supermarket,Toko Swalayan,Serojabunga,"JCH8+Q9R, Jl. Rayuan Klp., Lewoleba Tengah, Kec. Nubatukan, Kabupaten Lembata, Nusa Tenggara Tim.","Kabupaten Lembata, Nusa Tenggara Tim.",NUSA TENGGARA TIMUR,,Indonesia,,,,-8.3704654,123.4158182,https://maps.google.com/?cid=0x0:0x8ab9437b71d83ebc,
supermarket,Komplek perumahan,Pasar Lamahora,"JCGV+M7J, Lamahora, Lewoleba Tim., Kec. Nubatukan, Kabupaten Lembata, Nusa Tenggara Tim.","Kabupaten Lembata, Nusa Tenggara Tim.",NUSA TENGGARA TIMUR,,Indonesia,,,,-8.3732801,123.443127,https://maps.google.com/?cid=0x0:0xdf5fae1cec0aa9b4,
supermarket,Komplek perumahan,Kel selandoro,"JCHG+JHX Wangatoa Atas, Lewoleba Tengah, Kec. Nubatukan, Kabupaten Lembata, Nusa Tenggara Tim.","Kabupaten Lembata, Nusa Tenggara Tim.",NUSA TENGGARA TIMUR,,Indonesia,,,,-8.3708872,123.4264984,https://maps.google.com/?cid=0x0:0xb9e84703c96b5ed0,
supermarket,Toko Swalayan,Supermarket Olympic,"JCF7+RW5, Lewoleba Tengah, Kec. Nubatukan, Kabupaten Lembata, Nusa Tenggara Tim.","Kabupaten Lembata, Nusa Tenggara Tim.",NUSA TENGGARA TIMUR,,Indonesia,,,,-8.3754997,123.4148483,https://maps.google.com/?cid=0x0:0xf5cd5ab5f36fdf17,
supermarket,Toko bahan makanan,Rizky Barokah Mart,"JCCC+FJF, Lewoleba Tengah, Kec. Nubatukan, Kabupaten Lembata, Nusa Tenggara Tim.","Kabupaten Lembata, Nusa Tenggara Tim.",NUSA TENGGARA TIMUR,,Indonesia,3834277.0,,,-8.3788005,123.4215375,https://maps.google.com/?cid=0x0:0xb74668201edf0f9a,
supermarket,Toko umum,Toko Omega Baru,"JCG7+7X4, Lewoleba Tengah, Kec. Nubatukan, Kabupaten Lembata, Nusa Tenggara Tim.","Kabupaten Lembata, Nusa Tenggara Tim.",NUSA TENGGARA TIMUR,,Indonesia,81237340411.0,,,-8.374372,123.4149653,https://maps.google.com/?cid=0x0:0xd9591d5a1b8a6045,
supermarket,Bank,Agen Brilink Nusa Amanta,"JCGH+VRG, Lewoleba Tengah, Kec. Nubatukan, Kabupaten Lembata, Nusa Tenggara Tim.","Kabupaten Lembata, Nusa Tenggara Tim.",NUSA TENGGARA TIMUR,,Indonesia,,,,-8.3728173,123.4295674,https://maps.google.com/?cid=0x0:0xb29e2c795dc8d881,
supermarket,Toko Swalayan,Tujuh Roda Depo,"JCPW+GQX, Jl. Trans Lembata, Selandoro, Kec. Nubatukan, Kabupaten Lembata, Nusa Tenggara Tim.","Kabupaten Lembata, Nusa Tenggara Tim.",NUSA TENGGARA TIMUR,,Indonesia,,,,-8.3636374,123.4469718,https://maps.google.com/?cid=0x0:0xbd5fdedc60a0b685,
supermarket,Toko bahan makanan,MINI MARKET RIZKIH BAROKAH,"JCGH+VMC, Jl. Trans Lembata, Lewoleba Tengah, Kec. Nubatukan, Kabupaten Lembata, Nusa Tenggara Tim.","Kabupaten Lembata, Nusa Tenggara Tim.",NUSA TENGGARA TIMUR,,Indonesia,,,,-8.3728189,123.4291386,https://maps.google.com/?cid=0x0:0x6641d1d83e22710f,
supermarket,Toko Perlengkapan Rumah,Sumber Bangunan,"Jl. Tujuh Maret, Lewoleba, Kec. Nubatukan, Kabupaten Lembata, Nusa Tenggara Tim. 86615","Lewoleba, Kec. Nubatukan, Kabupaten Lembata",NUSA TENGGARA TIMUR,86615.0,Indonesia,82145517227.0,,,-8.3745939,123.4174446,https://maps.google.com/?cid=0x0:0xb9e16abe09a00188,
supermarket,Toko bahan makanan,SERBA SERBI Mart,"JCGH+W6J, Lewoleba Tengah, Kec. Nubatukan, Kabupaten Lembata, Nusa Tenggara Tim.","Kabupaten Lembata, Nusa Tenggara Tim.",NUSA TENGGARA TIMUR,,Indonesia,,,,-8.3728889,123.4280067,https://maps.google.com/?cid=0x0:0x7d23dfec3a695f74,
supermarket,Minimarket,PRIMASEL,"JCGH+QQ8, Lewoleba Tengah, Kec. Nubatukan, Kabupaten Lembata, Nusa Tenggara Tim.","Kabupaten Lembata, Nusa Tenggara Tim.",NUSA TENGGARA TIMUR,,Indonesia,81237020192.0,,,-8.3730965,123.4294412,https://maps.google.com/?cid=0x0:0x11e006ba109e4157,
supermarket,Toko Bahan Bangunan,Toko Sumber Surya 1,"JCGG+8C5, Lewoleba Tengah, Kec. Nubatukan, Kabupaten Lembata, Nusa Tenggara Tim.","Kabupaten Lembata, Nusa Tenggara Tim.",NUSA TENGGARA TIMUR,,Indonesia,,,,-8.3742275,123.4261231,https://maps.google.com/?cid=0x0:0x350e0025ffe40fd2,
supermarket,Toko Swalayan,Kios Wuno Pito,"JCPX+R93, Jl. Trans Lembata, RT.038/RW.08, Lewoleba Tim., Kec. Nubatukan, Kabupaten Lembata, Nusa Tenggara Tim.","Kabupaten Lembata, Nusa Tenggara Tim.",NUSA TENGGARA TIMUR,,Indonesia,85205675269.0,,,-8.3629821,123.4484072,https://maps.google.com/?cid=0x0:0xf7dfcad8c2f8f3e4,
supermarket,Toko bahan makanan,Toko Sumber Rejeki,"JCF7+HPV, Lewoleba Tengah, Kec. Nubatukan, Kabupaten Lembata, Nusa Tenggara Tim.","Kabupaten Lembata, Nusa Tenggara Tim.",NUSA TENGGARA TIMUR,,Indonesia,38341691.0,,,-8.376012,123.4142998,https://maps.google.com/?cid=0x0:0xa22db9310b0451f3,
supermarket,Kantor Perusahaan,Toko : Sulawesi Jaya,"Lewoleba Tengah, Kec. Nubatukan, Kabupaten Lembata, Nusa Tenggara Tim. 86615","Kec. Nubatukan, Kabupaten Lembata",NUSA TENGGARA TIMUR,86615.0,Indonesia,82145190306.0,,,-8.3758606,123.4145813,https://maps.google.com/?cid=0x0:0xc552b4fddee6862f,
supermarket,Toko Elektronik,Kios dan cell serentia,"JCFG+M67, Lewoleba Tengah, Kec. Nubatukan, Kabupaten Lembata, Nusa Tenggara Tim.","Kabupaten Lembata, Nusa Tenggara Tim.",NUSA TENGGARA TIMUR,,Indonesia,82236107172.0,,,-8.3759876,123.4255491,https://maps.google.com/?cid=0x0:0x2e604b65c5f55de6,
supermarket,Toko Perbaikan Ponsel,Aldi Cell 2,"JCHH+228, Jl. Trans Lembata, Lewoleba Tengah, Kec. Nubatukan, Kabupaten Lembata, Nusa Tenggara Tim.","Kabupaten Lembata, Nusa Tenggara Tim.",NUSA TENGGARA TIMUR,,Indonesia,,,,-8.3724539,123.4275893,https://maps.google.com/?cid=0x0:0x4986832f93f315e,
supermarket,supermarket,Kec. Nubatukan,"Kabupaten Lembata, Nusa Tenggara Tim.","Kabupaten Lembata, Nusa Tenggara Tim.",NUSA TENGGARA TIMUR,,Indonesia,,,,-8.3731739,123.4288459,https://maps.google.com/?cid=0x0:0x5937ac1360822cb3,
supermarket,Toko Swalayan,Supermarket Olympic,"JCF7+RW5, Lewoleba Tengah, Kec. Nubatukan, Kabupaten Lembata, Nusa Tenggara Tim.","Kabupaten Lembata, Nusa Tenggara Tim.",NUSA TENGGARA TIMUR,,Indonesia,,,,-8.3754997,123.4148483,https://maps.google.com/?cid=0x0:0xf5cd5ab5f36fdf17,
supermarket,Toko bahan makanan,SUNRISE MART,"JCG9+774, Lewoleba Tengah, Kec. Nubatukan, Kabupaten Lembata, Nusa Tenggara Tim.","Kabupaten Lembata, Nusa Tenggara Tim.",NUSA TENGGARA TIMUR,,Indonesia,,,,-8.3743533,123.4181942,https://maps.google.com/?cid=0x0:0xbf961d35faaaa145,
supermarket,Minimarket,Central Mart,"JCGC+9X9, Lewoleba Tengah, Kec. Nubatukan, Kabupaten Lembata, Nusa Tenggara Tim.","Kabupaten Lembata, Nusa Tenggara Tim.",NUSA TENGGARA TIMUR,,Indonesia,,,,-8.374087,123.4224802,https://maps.google.com/?cid=0x0:0x2b925a5f4c8b2d83,
supermarket,Toko bahan makanan,Rizky Barokah Mart,"JCCC+FJF, Lewoleba Tengah, Kec. Nubatukan, Kabupaten Lembata, Nusa Tenggara Tim.","Kabupaten Lembata, Nusa Tenggara Tim.",NUSA TENGGARA TIMUR,,Indonesia,3834277.0,,,-8.3788005,123.4215375,https://maps.google.com/?cid=0x0:0xb74668201edf0f9a,
supermarket,Toko bahan makanan,An'Nur Sejahtera,"JCC7+R34, Lewoleba Tengah, Kec. Nubatukan, Kabupaten Lembata, Nusa Tenggara Tim.","Kabupaten Lembata, Nusa Tenggara Tim.",NUSA TENGGARA TIMUR,,Indonesia,85342249866.0,,,-8.3780629,123.4127087,https://maps.google.com/?cid=0x0:0x45ed153d26bffa36,
supermarket,Toko umum,Toko Omega Baru,"JCG7+7X4, Lewoleba Tengah, Kec. Nubatukan, Kabupaten Lembata, Nusa Tenggara Tim.","Kabupaten Lembata, Nusa Tenggara Tim.",NUSA TENGGARA TIMUR,,Indonesia,81237340411.0,,,-8.374372,123.4149653,https://maps.google.com/?cid=0x0:0xd9591d5a1b8a6045,
supermarket,Toko Swalayan,Toko Jannah,"Jl. Anton Enga Tifaona Lingkungan Kota Baru Timur, RT.001/RW.001, Lewoleba Sel., Kec. Nubatukan, Kabupaten Lembata, Nusa Tenggara Tim. 86682","RT.001/RW.001, Lewoleba Sel., Kec. Nubatukan, Kabupaten Lembata",NUSA TENGGARA TIMUR,86682.0,Indonesia,81239270302.0,,,-8.3738924,123.4234961,https://maps.google.com/?cid=0x0:0x115db81caae5dbfd,
supermarket,Toko bahan makanan,Outlet Zam,"JCH8+P5J Rayuan City, Lewoleba, Kec. Nubatukan, Kabupaten Lembata, Nusa Tenggara Tim.","Kabupaten Lembata, Nusa Tenggara Tim.",NUSA TENGGARA TIMUR,,Indonesia,82341632012.0,,,-8.370668,123.4153984,https://maps.google.com/?cid=0x0:0x81dbb5f373d7cf84,
supermarket,Toko bahan makanan,Kios Walangnapo,"Jl. Trans Lembata, Lewoleba Tengah, Kec. Nubatukan, Kabupaten Lembata, Nusa Tenggara Tim.","Kabupaten Lembata, Nusa Tenggara Tim.",NUSA TENGGARA TIMUR,,Indonesia,81237346737.0,,,-8.3711487,123.435263,https://maps.google.com/?cid=0x0:0xb05aa52a77101aac,
supermarket,Toko bahan makanan,Toko Sumber Rejeki,"JCF7+HPV, Lewoleba Tengah, Kec. Nubatukan, Kabupaten Lembata, Nusa Tenggara Tim.","Kabupaten Lembata, Nusa Tenggara Tim.",NUSA TENGGARA TIMUR,,Indonesia,38341691.0,,,-8.376012,123.4142998,https://maps.google.com/?cid=0x0:0xa22db9310b0451f3,
supermarket,Toko bahan makanan,Taman Bunga,"JCF8+Q89, Unnamed Road, Lewoleba Tengah, Kec. Nubatukan, Kabupaten Lembata, Nusa Tenggara Tim.","Kabupaten Lembata, Nusa Tenggara Tim.",NUSA TENGGARA TIMUR,,Indonesia,,,,-8.3755851,123.4158674,https://maps.google.com/?cid=0x0:0xcc3ebf0f531fbb68,
supermarket,Toko Swalayan,Tujuh Roda Depo,"JCPW+GQX, Jl. Trans Lembata, Selandoro, Kec. Nubatukan, Kabupaten Lembata, Nusa Tenggara Tim.","Kabupaten Lembata, Nusa Tenggara Tim.",NUSA TENGGARA TIMUR,,Indonesia,,,,-8.3636374,123.4469718,https://maps.google.com/?cid=0x0:0xbd5fdedc60a0b685,
supermarket,Bank,Agen Brilink Nusa Amanta,"JCGH+VRG, Lewoleba Tengah, Kec. Nubatukan, Kabupaten Lembata, Nusa Tenggara Tim.","Kabupaten Lembata, Nusa Tenggara Tim.",NUSA TENGGARA TIMUR,,Indonesia,,,,-8.3728173,123.4295674,https://maps.google.com/?cid=0x0:0xb29e2c795dc8d881,
supermarket,Toko Swalayan,Dwi Karya,"JCGV+X7C pasar lamahora, Lewoleba Tim., Kec. Nubatukan, Kabupaten Lembata, Nusa Tenggara Tim.","Kabupaten Lembata, Nusa Tenggara Tim.",NUSA TENGGARA TIMUR,,Indonesia,82139223031.0,,,-8.3725597,123.4431427,https://maps.google.com/?cid=0x0:0xeffd634c953a5f23,
supermarket,Toko bahan makanan,MINI MARKET RIZKIH BAROKAH,"JCGH+VMC, Jl. Trans Lembata, Lewoleba Tengah, Kec. Nubatukan, Kabupaten Lembata, Nusa Tenggara Tim.","Kabupaten Lembata, Nusa Tenggara Tim.",NUSA TENGGARA TIMUR,,Indonesia,,,,-8.3728189,123.4291386,https://maps.google.com/?cid=0x0:0x6641d1d83e22710f,
supermarket,Toko bahan makanan,SERBA SERBI Mart,"JCGH+W6J, Lewoleba Tengah, Kec. Nubatukan, Kabupaten Lembata, Nusa Tenggara Tim.","Kabupaten Lembata, Nusa Tenggara Tim.",NUSA TENGGARA TIMUR,,Indonesia,,,,-8.3728889,123.4280067,https://maps.google.com/?cid=0x0:0x7d23dfec3a695f74,
supermarket,Minimarket,PRIMASEL,"JCGH+QQ8, Lewoleba Tengah, Kec. Nubatukan, Kabupaten Lembata, Nusa Tenggara Tim.","Kabupaten Lembata, Nusa Tenggara Tim.",NUSA TENGGARA TIMUR,,Indonesia,81237020192.0,,,-8.3730965,123.4294412,https://maps.google.com/?cid=0x0:0x11e006ba109e4157,
supermarket,Toko bahan makanan,Mahkota,"JCGG+XHH, Lewoleba Tengah, Kec. Nubatukan, Kabupaten Lembata, Nusa Tenggara Tim.","Kabupaten Lembata, Nusa Tenggara Tim.",NUSA TENGGARA TIMUR,,Indonesia,,,,-8.3725749,123.4264998,https://maps.google.com/?cid=0x0:0x575250ef41749489,
supermarket,Kios,Kios R  k,"JCJH+4XH, Lewoleba Tengah, Kec. Nubatukan, Kabupaten Lembata, Nusa Tenggara Tim.","Kabupaten Lembata, Nusa Tenggara Tim.",NUSA TENGGARA TIMUR,,Indonesia,,,,-8.3696793,123.4299981,https://maps.google.com/?cid=0x0:0x20548e274926b6a9,
supermarket,Toko Bahan Bangunan,Toko Sumber Surya 1,"JCGG+8C5, Lewoleba Tengah, Kec. Nubatukan, Kabupaten Lembata, Nusa Tenggara Tim.","Kabupaten Lembata, Nusa Tenggara Tim.",NUSA TENGGARA TIMUR,,Indonesia,,,,-8.3742275,123.4261231,https://maps.google.com/?cid=0x0:0x350e0025ffe40fd2,
supermarket,Toko Aksesori Pakaian,Tk.Taruna Jaya,"JCH8+7RX, Jl. Trans Lembata, Selandoro, Kec. Nubatukan, Kabupaten Lembata, Nusa Tenggara Tim.","Kabupaten Lembata, Nusa Tenggara Tim.",NUSA TENGGARA TIMUR,,Indonesia,,,,-8.3717548,123.4170983,https://maps.google.com/?cid=0x0:0x2c958e8a45daf7aa,
supermarket,Toko Elektronik,Kios dan cell serentia,"JCFG+M67, Lewoleba Tengah, Kec. Nubatukan, Kabupaten Lembata, Nusa Tenggara Tim.","Kabupaten Lembata, Nusa Tenggara Tim.",NUSA TENGGARA TIMUR,,Indonesia,82236107172.0,,,-8.3759876,123.4255491,https://maps.google.com/?cid=0x0:0x2e604b65c5f55de6,
supermarket,Kantor Perusahaan,Toko : Sulawesi Jaya,"Lewoleba Tengah, Kec. Nubatukan, Kabupaten Lembata, Nusa Tenggara Tim. 86615","Kec. Nubatukan, Kabupaten Lembata",NUSA TENGGARA TIMUR,86615.0,Indonesia,82145190306.0,,,-8.3758606,123.4145813,https://maps.google.com/?cid=0x0:0xc552b4fddee6862f,
supermarket,Toko Perbaikan Ponsel,Aldi Cell 2,"JCHH+228, Jl. Trans Lembata, Lewoleba Tengah, Kec. Nubatukan, Kabupaten Lembata, Nusa Tenggara Tim.","Kabupaten Lembata, Nusa Tenggara Tim.",NUSA TENGGARA TIMUR,,Indonesia,,,,-8.3724539,123.4275893,https://maps.google.com/?cid=0x0:0x4986832f93f315e,
supermarket,supermarket,Kec. Nubatukan,"Kabupaten Lembata, Nusa Tenggara Tim.","Kabupaten Lembata, Nusa Tenggara Tim.",NUSA TENGGARA TIMUR,,Indonesia,,,,-8.3731739,123.4288459,https://maps.google.com/?cid=0x0:0x5937ac1360822cb3,
supermarket,Toko Swalayan,Supermarket Olympic,"JCF7+RW5, Lewoleba Tengah, Kec. Nubatukan, Kabupaten Lembata, Nusa Tenggara Tim.","Kabupaten Lembata, Nusa Tenggara Tim.",NUSA TENGGARA TIMUR,,Indonesia,,,,-8.3754997,123.4148483,https://maps.google.com/?cid=0x0:0xf5cd5ab5f36fdf17,
supermarket,Toko bahan makanan,SUNRISE MART,"JCG9+774, Lewoleba Tengah, Kec. Nubatukan, Kabupaten Lembata, Nusa Tenggara Tim.","Kabupaten Lembata, Nusa Tenggara Tim.",NUSA TENGGARA TIMUR,,Indonesia,,,,-8.3743533,123.4181942,https://maps.google.com/?cid=0x0:0xbf961d35faaaa145,
supermarket,Toko bahan makanan,Rizky Barokah Mart,"JCCC+FJF, Lewoleba Tengah, Kec. Nubatukan, Kabupaten Lembata, Nusa Tenggara Tim.","Kabupaten Lembata, Nusa Tenggara Tim.",NUSA TENGGARA TIMUR,,Indonesia,3834277.0,,,-8.3788005,123.4215375,https://maps.google.com/?cid=0x0:0xb74668201edf0f9a,
supermarket,Minimarket,Central Mart,"JCGC+9X9, Lewoleba Tengah, Kec. Nubatukan, Kabupaten Lembata, Nusa Tenggara Tim.","Kabupaten Lembata, Nusa Tenggara Tim.",NUSA TENGGARA TIMUR,,Indonesia,,,,-8.374087,123.4224802,https://maps.google.com/?cid=0x0:0x2b925a5f4c8b2d83,
supermarket,Toko umum,Toko Omega Baru,"JCG7+7X4, Lewoleba Tengah, Kec. Nubatukan, Kabupaten Lembata, Nusa Tenggara Tim.","Kabupaten Lembata, Nusa Tenggara Tim.",NUSA TENGGARA TIMUR,,Indonesia,81237340411.0,,,-8.374372,123.4149653,https://maps.google.com/?cid=0x0:0xd9591d5a1b8a6045,
supermarket,Toko Swalayan,Toko Jannah,"Jl. Anton Enga Tifaona Lingkungan Kota Baru Timur, RT.001/RW.001, Lewoleba Sel., Kec. Nubatukan, Kabupaten Lembata, Nusa Tenggara Tim. 86682","RT.001/RW.001, Lewoleba Sel., Kec. Nubatukan, Kabupaten Lembata",NUSA TENGGARA TIMUR,86682.0,Indonesia,81239270302.0,,,-8.3738924,123.4234961,https://maps.google.com/?cid=0x0:0x115db81caae5dbfd,
supermarket,Toko bahan makanan,An'Nur Sejahtera,"JCC7+R34, Lewoleba Tengah, Kec. Nubatukan, Kabupaten Lembata, Nusa Tenggara Tim.","Kabupaten Lembata, Nusa Tenggara Tim.",NUSA TENGGARA TIMUR,,Indonesia,85342249866.0,,,-8.3780629,123.4127087,https://maps.google.com/?cid=0x0:0x45ed153d26bffa36,
supermarket,Toko bahan makanan,Toko Sumber Rejeki,"JCF7+HPV, Lewoleba Tengah, Kec. Nubatukan, Kabupaten Lembata, Nusa Tenggara Tim.","Kabupaten Lembata, Nusa Tenggara Tim.",NUSA TENGGARA TIMUR,,Indonesia,38341691.0,,,-8.376012,123.4142998,https://maps.google.com/?cid=0x0:0xa22db9310b0451f3,
supermarket,Toko bahan makanan,Outlet Zam,"JCH8+P5J Rayuan City, Lewoleba, Kec. Nubatukan, Kabupaten Lembata, Nusa Tenggara Tim.","Kabupaten Lembata, Nusa Tenggara Tim.",NUSA TENGGARA TIMUR,,Indonesia,82341632012.0,,,-8.370668,123.4153984,https://maps.google.com/?cid=0x0:0x81dbb5f373d7cf84,
supermarket,Toko bahan makanan,Kios Walangnapo,"Jl. Trans Lembata, Lewoleba Tengah, Kec. Nubatukan, Kabupaten Lembata, Nusa Tenggara Tim.","Kabupaten Lembata, Nusa Tenggara Tim.",NUSA TENGGARA TIMUR,,Indonesia,81237346737.0,,,-8.3711487,123.435263,https://maps.google.com/?cid=0x0:0xb05aa52a77101aac,
supermarket,Toko bahan makanan,Taman Bunga,"JCF8+Q89, Unnamed Road, Lewoleba Tengah, Kec. Nubatukan, Kabupaten Lembata, Nusa Tenggara Tim.","Kabupaten Lembata, Nusa Tenggara Tim.",NUSA TENGGARA TIMUR,,Indonesia,,,,-8.3755851,123.4158674,https://maps.google.com/?cid=0x0:0xcc3ebf0f531fbb68,
supermarket,Toko Swalayan,Tujuh Roda Depo,"JCPW+GQX, Jl. Trans Lembata, Selandoro, Kec. Nubatukan, Kabupaten Lembata, Nusa Tenggara Tim.","Kabupaten Lembata, Nusa Tenggara Tim.",NUSA TENGGARA TIMUR,,Indonesia,,,,-8.3636374,123.4469718,https://maps.google.com/?cid=0x0:0xbd5fdedc60a0b685,
supermarket,Bank,Agen Brilink Nusa Amanta,"JCGH+VRG, Lewoleba Tengah, Kec. Nubatukan, Kabupaten Lembata, Nusa Tenggara Tim.","Kabupaten Lembata, Nusa Tenggara Tim.",NUSA TENGGARA TIMUR,,Indonesia,,,,-8.3728173,123.4295674,https://maps.google.com/?cid=0x0:0xb29e2c795dc8d881,
supermarket,Toko bahan makanan,SERBA SERBI Mart,"JCGH+W6J, Lewoleba Tengah, Kec. Nubatukan, Kabupaten Lembata, Nusa Tenggara Tim.","Kabupaten Lembata, Nusa Tenggara Tim.",NUSA TENGGARA TIMUR,,Indonesia,,,,-8.3728889,123.4280067,https://maps.google.com/?cid=0x0:0x7d23dfec3a695f74,
supermarket,Toko bahan makanan,MINI MARKET RIZKIH BAROKAH,"JCGH+VMC, Jl. Trans Lembata, Lewoleba Tengah, Kec. Nubatukan, Kabupaten Lembata, Nusa Tenggara Tim.","Kabupaten Lembata, Nusa Tenggara Tim.",NUSA TENGGARA TIMUR,,Indonesia,,,,-8.3728189,123.4291386,https://maps.google.com/?cid=0x0:0x6641d1d83e22710f,
supermarket,Toko Swalayan,Dwi Karya,"JCGV+X7C pasar lamahora, Lewoleba Tim., Kec. Nubatukan, Kabupaten Lembata, Nusa Tenggara Tim.","Kabupaten Lembata, Nusa Tenggara Tim.",NUSA TENGGARA TIMUR,,Indonesia,82139223031.0,,,-8.3725597,123.4431427,https://maps.google.com/?cid=0x0:0xeffd634c953a5f23,
supermarket,Toko Swalayan,WahangMART,"Jl. Praktek dr. Geriil Gang Tower 4G, Lewoleba Sel., Kec. Nubatukan, Kabupaten Lembata, Nusa Tenggara Tim. 86682","Lewoleba Sel., Kec. Nubatukan, Kabupaten Lembata",NUSA TENGGARA TIMUR,86682.0,Indonesia,81239828189.0,,,-8.3791533,123.4248794,https://maps.google.com/?cid=0x0:0xaca7410a646f3a8c,
supermarket,Toko Bahan Bangunan,Toko Sumber Surya 1,"JCGG+8C5, Lewoleba Tengah, Kec. Nubatukan, Kabupaten Lembata, Nusa Tenggara Tim.","Kabupaten Lembata, Nusa Tenggara Tim.",NUSA TENGGARA TIMUR,,Indonesia,,,,-8.3742275,123.4261231,https://maps.google.com/?cid=0x0:0x350e0025ffe40fd2,
supermarket,Minimarket,PRIMASEL,"JCGH+QQ8, Lewoleba Tengah, Kec. Nubatukan, Kabupaten Lembata, Nusa Tenggara Tim.","Kabupaten Lembata, Nusa Tenggara Tim.",NUSA TENGGARA TIMUR,,Indonesia,81237020192.0,,,-8.3730965,123.4294412,https://maps.google.com/?cid=0x0:0x11e006ba109e4157,
supermarket,Toko Aksesori Pakaian,Tk.Taruna Jaya,"JCH8+7RX, Jl. Trans Lembata, Selandoro, Kec. Nubatukan, Kabupaten Lembata, Nusa Tenggara Tim.","Kabupaten Lembata, Nusa Tenggara Tim.",NUSA TENGGARA TIMUR,,Indonesia,,,,-8.3717548,123.4170983,https://maps.google.com/?cid=0x0:0x2c958e8a45daf7aa,
supermarket,Toko Swalayan,Kios Wuno Pito,"JCPX+R93, Jl. Trans Lembata, RT.038/RW.08, Lewoleba Tim., Kec. Nubatukan, Kabupaten Lembata, Nusa Tenggara Tim.","Kabupaten Lembata, Nusa Tenggara Tim.",NUSA TENGGARA TIMUR,,Indonesia,85205675269.0,,,-8.3629821,123.4484072,https://maps.google.com/?cid=0x0:0xf7dfcad8c2f8f3e4,
supermarket,Toko Elektronik,Kios dan cell serentia,"JCFG+M67, Lewoleba Tengah, Kec. Nubatukan, Kabupaten Lembata, Nusa Tenggara Tim.","Kabupaten Lembata, Nusa Tenggara Tim.",NUSA TENGGARA TIMUR,,Indonesia,82236107172.0,,,-8.3759876,123.4255491,https://maps.google.com/?cid=0x0:0x2e604b65c5f55de6,
supermarket,Kantor Perusahaan,Toko : Sulawesi Jaya,"Lewoleba Tengah, Kec. Nubatukan, Kabupaten Lembata, Nusa Tenggara Tim. 86615","Kec. Nubatukan, Kabupaten Lembata",NUSA TENGGARA TIMUR,86615.0,Indonesia,82145190306.0,,,-8.3758606,123.4145813,https://maps.google.com/?cid=0x0:0xc552b4fddee6862f,
supermarket,supermarket,Kec. Omesuri,"Kabupaten Lembata, Nusa Tenggara Tim.","Kabupaten Lembata, Nusa Tenggara Tim.",NUSA TENGGARA TIMUR,,Indonesia,,,,-8.2457063,123.7524523,https://maps.google.com/?cid=0x0:0x63a024d49fdb39f4,
supermarket,Pasar,Pasar Walangsawa,"QQ48+9F6, Walangsawah, Kec. Omesuri, Kabupaten Lembata, Nusa Tenggara Tim.","Kabupaten Lembata, Nusa Tenggara Tim.",NUSA TENGGARA TIMUR,,Indonesia,81239216868.0,,,-8.2440755,123.7661332,https://maps.google.com/?cid=0x0:0x5e1570c745254b86,
supermarket,supermarket,Toko surya pagi,"Kompleks dermaga barat, Hoelea II, Kec. Omesuri, Kabupaten Lembata, Nusa Tenggara Tim. 86691","Hoelea II, Kec. Omesuri, Kabupaten Lembata",NUSA TENGGARA TIMUR,86691.0,Indonesia,81325365355.0,,,-8.23517,123.7063541,https://maps.google.com/?cid=0x0:0x47dd58cdb6048f7e,
supermarket,Toko,Kios iva,"QPCQ+5PJ, Leuwayang, Kec. Omesuri, Kabupaten Lembata, Nusa Tenggara Tim.","Kabupaten Lembata, Nusa Tenggara Tim.",NUSA TENGGARA TIMUR,,Indonesia,,,,-8.229533,123.7392521,https://maps.google.com/?cid=0x0:0xcb23656626a53fe2,
supermarket,supermarket,Desa mahal,"QQ4H+38M, Normal I, Kec. Omesuri, Kabupaten Lembata, Nusa Tenggara Tim.","Kabupaten Lembata, Nusa Tenggara Tim.",NUSA TENGGARA TIMUR,,Indonesia,,,,-8.2447963,123.7783103,https://maps.google.com/?cid=0x0:0xc893cb7b0337e203,
supermarket,Toko,UD. Fadjar Baru,"QP85+7VF, Jl. Trans Lembata, Hoelea II, Kec. Omesuri, Kabupaten Lembata, Nusa Tenggara Tim.","Kabupaten Lembata, Nusa Tenggara Tim.",NUSA TENGGARA TIMUR,,Indonesia,,,,-8.234314,123.7096813,https://maps.google.com/?cid=0x0:0x639e44a866fc3589,
supermarket,Toko,KIOS FADILAH,"QP74+VH4, Jl. Trans Lembata Lingkar, Balauring, Kec. Omesuri, Kabupaten Lembata, Nusa Tenggara Tim.","Kabupaten Lembata, Nusa Tenggara Tim.",NUSA TENGGARA TIMUR,,Indonesia,,,,-8.2353272,123.7065774,https://maps.google.com/?cid=0x0:0x78da742158d53895,
supermarket,Toko Pakaian,Kiosline Uyelewun Leuwalang,"QQ37+JG7, Walangsawah, Kec. Omesuri, Kabupaten Lembata, Nusa Tenggara Tim.","Kabupaten Lembata, Nusa Tenggara Tim.",NUSA TENGGARA TIMUR,,Indonesia,81239216868.0,,,-8.2459576,123.7637979,https://maps.google.com/?cid=0x0:0xf7cf9b3e8963af3b,
supermarket,Toko umum,Kios Nusantara,"MP43+3PC, Wowong, Kec. Omesuri, Kabupaten Lembata, Nusa Tenggara Tim.","Kabupaten Lembata, Nusa Tenggara Tim.",NUSA TENGGARA TIMUR,,Indonesia,,,,-8.3448005,123.7042668,https://maps.google.com/?cid=0x0:0x44eb3a953fd14be,
supermarket,Toko,KIOS AYAM HASANAH,"Leuwayang, Kec. Omesuri, Kabupaten Lembata, Nusa Tenggara Tim.","Kabupaten Lembata, Nusa Tenggara Tim.",NUSA TENGGARA TIMUR,,Indonesia,81243290732.0,,,-8.2446811,123.7517991,https://maps.google.com/?cid=0x0:0x1aa6f2b6a0edd32a,
supermarket,supermarket,KIOS.RAHYUNI,"QP97+PGX, Hoelea II, Kec. Omesuri, Kabupaten Lembata, Nusa Tenggara Tim.","Kabupaten Lembata, Nusa Tenggara Tim.",NUSA TENGGARA TIMUR,,Indonesia,,,,-8.2306539,123.7145348,https://maps.google.com/?cid=0x0:0x875e8e99a2fad85a,
supermarket,Toko,Kios Sulfis Az-Zahra,"Wateng, Lebewala, Kec. Omesuri, Kabupaten Lembata, Nusa Tenggara Tim. 86691","Lebewala, Kec. Omesuri, Kabupaten Lembata",NUSA TENGGARA TIMUR,86691.0,Indonesia,85238540882.0,,,-8.2601139,123.6897595,https://maps.google.com/?cid=0x0:0x1943d040d4035c40,
supermarket,Toko,Kios sabar setia,"PPPG+RMJ, Hingalamamengi, Kec. Omesuri, Kabupaten Lembata, Nusa Tenggara Tim.","Kabupaten Lembata, Nusa Tenggara Tim.",NUSA TENGGARA TIMUR,,Indonesia,,,,-8.2629073,123.7266253,https://maps.google.com/?cid=0x0:0xba8ebbbf1d3ea2dd,
supermarket,supermarket,Kios Virgi,"QQ32+CRV, Aramengi, Kec. Omesuri, Kabupaten Lembata, Nusa Tenggara Tim.","Kabupaten Lembata, Nusa Tenggara Tim.",NUSA TENGGARA TIMUR,,Indonesia,,,,-8.2463816,123.7520613,https://maps.google.com/?cid=0x0:0x9a457246f2c1d04f,
supermarket,Sekolah pendidikan umum,SD INPRES PEUUMA,"QP9R+4GF, Leuwayang, Kec. Omesuri, Kabupaten Lembata, Nusa Tenggara Tim.","Kabupaten Lembata, Nusa Tenggara Tim.",NUSA TENGGARA TIMUR,,Indonesia,,,,-8.2321847,123.7412825,https://maps.google.com/?cid=0x0:0x2e36c1ea6e21923f,
supermarket,Toko Swalayan,Supermarket Olympic,"JCF7+RW5, Lewoleba Tengah, Kec. Nubatukan, Kabupaten Lembata, Nusa Tenggara Tim.","Kabupaten Lembata, Nusa Tenggara Tim.",NUSA TENGGARA TIMUR,,Indonesia,,,,-8.3754997,123.4148483,https://maps.google.com/?cid=0x0:0xf5cd5ab5f36fdf17,
supermarket,Toko,KIOS DANDI DESA HOELEA II,"QPPR+5XX, Hoelea II, Kec. Omesuri, Kabupaten Lembata, Nusa Tenggara Tim.","Kabupaten Lembata, Nusa Tenggara Tim.",NUSA TENGGARA TIMUR,,Indonesia,,,,-8.214501,123.7424774,https://maps.google.com/?cid=0x0:0x7e3ec877a900deb7,
supermarket,Minimarket,UD. RAJAM BAROKAH,"PMQQ+QQ5, Balauring, Kec. Omesuri, Kabupaten Lembata, Nusa Tenggara Tim.","Kabupaten Lembata, Nusa Tenggara Tim.",NUSA TENGGARA TIMUR,,Indonesia,,,,-8.2606157,123.689493,https://maps.google.com/?cid=0x0:0x303a9a0d9a45c93e,
supermarket,Toko bahan makanan,Mutafa tolang,"PM4F+FCR, Lebewala, Kec. Omesuri, Kabupaten Lembata, Nusa Tenggara Tim.","Kabupaten Lembata, Nusa Tenggara Tim.",NUSA TENGGARA TIMUR,,Indonesia,,,,-8.2937524,123.6735151,https://maps.google.com/?cid=0x0:0x7ec399e6d8989c82,
supermarket,Taman bermain,ARSO ATR,"Komplek Masjid Jihadul Akbar Atarodang, Normal, Kec. Omesuri, Kabupaten Lembata, Nusa Tenggara Tim. 86691","Normal, Kec. Omesuri, Kabupaten Lembata",NUSA TENGGARA TIMUR,86691.0,Indonesia,81237001373.0,,,-8.1841762,123.7562295,https://maps.google.com/?cid=0x0:0x6500f96f64d935b7,
supermarket,Toko Swalayan,Jualan batu bunga,"QQ33+8P8, Leuwayang, Aramengi, Kabupaten Lembata, Nusa Tenggara Tim.","Kabupaten Lembata, Nusa Tenggara Tim.",NUSA TENGGARA TIMUR,,Indonesia,81239741382.0,,,-8.2467037,123.7543359,https://maps.google.com/?cid=0x0:0x4b969ef8fbd8bf4c,
supermarket,Toko Elektronik,IAN ACC,"Jln. Trans, Kabupaten Lembata, Nusa Tenggara Tim. 86691",Kabupaten Lembata,NUSA TENGGARA TIMUR,86691.0,Indonesia,81239779681.0,,,-8.2349601,123.7077146,https://maps.google.com/?cid=0x0:0x8ec794f3eb6d7059,
supermarket,Komplek perumahan,Pasar Barter Wulandoni,"FC8X+68F, Pantai Harapan, Kec. Wulandoni, Kabupaten Lembata, Nusa Tenggara Tim.","Kabupaten Lembata, Nusa Tenggara Tim.",NUSA TENGGARA TIMUR,,Indonesia,81393878656.0,,,-8.5344281,123.4483115,https://maps.google.com/?cid=0x0:0x1f93fe5576a0b26f,
supermarket,Komplek perumahan,Wulandoni,"FC8X+G8C, Pantai Harapan, Kec. Wulandoni, Kabupaten Lembata, Nusa Tenggara Tim.","Kabupaten Lembata, Nusa Tenggara Tim.",NUSA TENGGARA TIMUR,,Indonesia,,,,-8.5336963,123.4482763,https://maps.google.com/?cid=0x0:0x5f7dcd43ff96886f,
supermarket,supermarket,Wulandoni,"Kec. Wulandoni, Kabupaten Lembata, Nusa Tenggara Tim.","Kabupaten Lembata, Nusa Tenggara Tim.",NUSA TENGGARA TIMUR,,Indonesia,,,,-8.5502005,123.4299436,https://maps.google.com/?cid=0x0:0x190edee7019a3217,
supermarket,Toko,toko,"FC75+HPW, Jalan Trans Wulandoni,Desa Puor B, Belobao, Kec. Wulandoni, Kabupaten Lembata, Nusa Tenggara Tim.","Kabupaten Lembata, Nusa Tenggara Tim.",NUSA TENGGARA TIMUR,,Indonesia,,,,-8.536267,123.410589,https://maps.google.com/?cid=0x0:0x249523d99a0c87a4,
supermarket,supermarket,Toko sembako,"Jln, Lamalera B, Kec. Wulandoni, Kabupaten Lembata, Nusa Tenggara Tim. 88686","Lamalera B, Kec. Wulandoni, Kabupaten Lembata",NUSA TENGGARA TIMUR,88686.0,Indonesia,836521478985.0,,,-8.5535313,123.4176769,https://maps.google.com/?cid=0x0:0x2776ef36ea4f3b58,
supermarket,Toko Makanan Sehat,Primo Supermarket Citos,"Town Square, Jl. TB Simatupang No.KAV.17 Lantai Dasar, West Cilandak, Cilandak, South Jakarta City, Jakarta 12430","Jl. TB Simatupang No.KAV.17 Lantai Dasar, West Cilandak, Cilandak, South Jakarta City",NUSA TENGGARA TIMUR,12430.0,Indonesia,2175920390.0,,,-6.2914315,106.7992178,https://maps.google.com/?cid=0x0:0x110a936a8d153b27,
