Category,Real Category,Business Name,Address,City,State,Postal Code,Country,Phone,Email,Website,Latitude,Longitude,Map Link,Details Link
perumahan,perumahan,Nusa Tenggara Bar. 83112,"Kec. Ampenan, Kota Mataram, Nusa Tenggara Bar.","Kota Mataram, Nusa Tenggara Bar.",NUSA TENGGARA BARAT,,Indonesia,,,,-85.796.376,1.160.812.832,https://maps.google.com/?cid=0x0:0x1c00c5eb6016c380,
perumahan,Komplek perumahan,Griya Bhayangkara Asri,"C38F+5VF, Bar, Ampenan Sel., Kec. Ampenan, Kota Mataram, Nusa Tenggara Bar. 83112","Bar, Ampenan Sel., Kec. Ampenan, Kota Mataram",NUSA TENGGARA BARAT,83112.0,Indonesia,,,,-85.843.915,1.160.741.348,https://maps.google.com/?cid=0x0:0xdb9b73eb52ea95b6,
perumahan,Perumahan,Perum Kota Mataram Asri,"C37G+4FJ, Jl. Arya Banjar Getas, Ampenan Sel., Kec. Ampenan, Kota Mataram, Nusa Tenggara Bar. 83112","Jl. Arya Banjar Getas, Ampenan Sel., Kec. Ampenan, Kota Mataram",NUSA TENGGARA BARAT,83112.0,Indonesia,,,,-85.871.683,1.160.761.474,https://maps.google.com/?cid=0x0:0x591181ac223edaa7,
perumahan,Komplek perumahan,Graha Mutiara,"ABG, Jl Perum Graha Mutiara No.4, Ampenan Sel., Kec. Ampenan, Kota Mataram, Nusa Tenggara Bar. 83114","Jl Perum Graha Mutiara No.4, Ampenan Sel., Kec. Ampenan, Kota Mataram",NUSA TENGGARA BARAT,83114.0,Indonesia,,,,-85.873.231,1.160.769.944,https://maps.google.com/?cid=0x0:0x4e2a615a05188f8c,
perumahan,Pembangunan Perumahan,Jl tereng petung pejeruk ampenan kota,"C3GQ+767, Gg. Jeruk 6, Pejeruk, Kec. Ampenan, Kota Mataram, Nusa Tenggara Bar. 83112","Gg. Jeruk 6, Pejeruk, Kec. Ampenan, Kota Mataram",NUSA TENGGARA BARAT,83112.0,Indonesia,,,,-85.743.441,1.160.880.432,https://maps.google.com/?cid=0x0:0x9d9ec9bc01814672,
perumahan,Komplek perumahan,Rumah Echa,"C3FF+2FW, Jl. Layur, Ampenan Sel., Kec. Ampenan, Kota Mataram, Nusa Tenggara Bar.","Kota Mataram, Nusa Tenggara Bar.",NUSA TENGGARA BARAT,,Indonesia,,,,-85.773.778,1.160.736.952,https://maps.google.com/?cid=0x0:0x37720093117b21a4,
perumahan,Taman,Taman kapitan,"Jl. Segara Anak No.03, Taman Sari, Kec. Ampenan, Kota Mataram, Nusa Tenggara Bar. 83112","Taman Sari, Kec. Ampenan, Kota Mataram",NUSA TENGGARA BARAT,83112.0,Indonesia,,,,-85.808.937,1.160.796.017,https://maps.google.com/?cid=0x0:0xcc84e96d413e158d,
perumahan,Komplek perumahan,Rumah,"C3CH+C8P, Jl. Linggarjati, Ampenan Sel., Kec. Ampenan, Kota Mataram, Nusa Tenggara Bar. 83112","Jl. Linggarjati, Ampenan Sel., Kec. Ampenan, Kota Mataram",NUSA TENGGARA BARAT,83112.0,Indonesia,,,,-85.789.202,1.160.783.282,https://maps.google.com/?cid=0x0:0xbcb50e4479a28e4b,
perumahan,Perumahan,Perum Putra AR Mataram Asri,"C38G+5VC, Jl. Arya Banjar Getas, Ampenan Sel., Kec. Ampenan, Kota Mataram, Nusa Tenggara Bar. 83114","Jl. Arya Banjar Getas, Ampenan Sel., Kec. Ampenan, Kota Mataram",NUSA TENGGARA BARAT,83114.0,Indonesia,,,,-85.845.645,1.160.771.341,https://maps.google.com/?cid=0x0:0xa28f860f5324af67,
perumahan,Pembangunan Perumahan,Perum Puri Satria,"C37F+QRF, Jl. Industri, Ampenan Sel., Kec. Ampenan, Kota Mataram, Nusa Tenggara Bar. 83112","Jl. Industri, Ampenan Sel., Kec. Ampenan, Kota Mataram",NUSA TENGGARA BARAT,83112.0,Indonesia,,,,-85.855.523,1.160.745.346,https://maps.google.com/?cid=0x0:0x7046894d31e9c424,
perumahan,Komplek perumahan,Perumahan NHM PENGHULU AGUNG,"BTN Puri Penghulu Agung Blk. B, Ampenan Sel., Kec. Ampenan, Kota Mataram, Nusa Tenggara Bar. 83112","Ampenan Sel., Kec. Ampenan, Kota Mataram",NUSA TENGGARA BARAT,83112.0,Indonesia,,,,-85.836.449,1.160.741.937,https://maps.google.com/?cid=0x0:0x71d22a7c79632da8,
perumahan,Komplek perumahan,Rumah dinas bank indonesia,"Jl. Industri No.2 2J, Ampenan Sel., Kec. Ampenan, Kota Mataram, Nusa Tenggara Bar. 83112","Ampenan Sel., Kec. Ampenan, Kota Mataram",NUSA TENGGARA BARAT,83112.0,Indonesia,,,,-85.775.638,1.160.789.983,https://maps.google.com/?cid=0x0:0xb859cd440b5c871b,
perumahan,Komplek perumahan,"Jalan lestari,gang Bakri,kelurahan pejarakan karya,ampenan","C3JV+7RC, Jl. Lestari, Pejarakan Karya, Kec. Ampenan, Kota Mataram, Nusa Tenggara Bar. 83511","Jl. Lestari, Pejarakan Karya, Kec. Ampenan, Kota Mataram",NUSA TENGGARA BARAT,83511.0,Indonesia,,,,-85.693.213,116.094.523,https://maps.google.com/?cid=0x0:0x3be2f5f374011de3,
perumahan,Komplek perumahan,RHouse,"Jl. Energi No.53, Ampenan Sel., Kec. Ampenan, Kota Mataram, Nusa Tenggara Bar. 83112","Ampenan Sel., Kec. Ampenan, Kota Mataram",NUSA TENGGARA BARAT,83112.0,Indonesia,,,,-85.782.552,1.160.761.549,https://maps.google.com/?cid=0x0:0xea88f3fd76cc9113,
perumahan,Kelompok Bermain,Lingkungan Tangsi Kebon,"Jl. Linggarjati No.10, Ampenan Sel., Kec. Ampenan, Kota Mataram, Nusa Tenggara Bar. 83112","Ampenan Sel., Kec. Ampenan, Kota Mataram",NUSA TENGGARA BARAT,83112.0,Indonesia,,,,-85.789.765,116.077.948,https://maps.google.com/?cid=0x0:0xdec5e62a1bdd29a8,
perumahan,Komplek perumahan,Rumah Mamiq Masrur/Nia,"Perluasan, Jl. Semangka Gg. Belimbing Jl. Sukaraja Barat No.8, Ampenan Tengah, Kec. Ampenan, Kota Mataram, Nusa Tenggara Bar. 83112","Jl. Semangka Gg. Belimbing Jl. Sukaraja Barat No.8, Ampenan Tengah, Kec. Ampenan, Kota Mataram",NUSA TENGGARA BARAT,83112.0,Indonesia,,,,-85.721.018,1.160.790.967,https://maps.google.com/?cid=0x0:0xf96d00b8c2468c9a,
perumahan,Kantor SAMSAT,Komplek perumahan polda,"C3CP+44F, Taman Sari, Kec. Ampenan, Kota Mataram, Nusa Tenggara Bar. 83112","Taman Sari, Kec. Ampenan, Kota Mataram",NUSA TENGGARA BARAT,83112.0,Indonesia,,,,-85.796.868,1.160.853.105,https://maps.google.com/?cid=0x0:0xd929486222564ab2,
perumahan,Komplek perumahan,Galih Andika,"C3CF+F2M, Jl. Energi, Ampenan Sel., Kec. Ampenan, Kota Mataram, Nusa Tenggara Bar. 83112","Jl. Energi, Ampenan Sel., Kec. Ampenan, Kota Mataram",NUSA TENGGARA BARAT,83112.0,Indonesia,,,,-8.578.798,1.160.725.338,https://maps.google.com/?cid=0x0:0xc460b1eb74e58d96,
perumahan,Grosir,Kios Bu Minah,"Jl. Segara Anak No.14, Taman Sari, Kec. Ampenan, Kota Mataram, Nusa Tenggara Bar. 83112","Taman Sari, Kec. Ampenan, Kota Mataram",NUSA TENGGARA BARAT,83112.0,Indonesia,,,,-85.812.215,116.079.781,https://maps.google.com/?cid=0x0:0xa8b79576479d2bde,
perumahan,Otoritas Perumahan,Kompleks Lumba - Lumba 2,"Komplek Lumba - Lumba 2, No. 45, Gatep, Ampenan, Taman Sari, Mataram, Kota Mataram, Nusa Tenggara Bar. 83114","No. 45, Gatep, Ampenan, Taman Sari, Mataram, Kota Mataram",NUSA TENGGARA BARAT,83114.0,Indonesia,,,,-8.589.028,1.160.801.191,https://maps.google.com/?cid=0x0:0xe3d7caa0195e72cd,
perumahan,,Istana zaka,"C3FP+MQ8, Jl. Bambu Runcing, Pejeruk, Kec. Ampenan, Kota Mataram, Nusa Tenggara Bar. 83112","Jl. Bambu Runcing, Pejeruk, Kec. Ampenan, Kota Mataram",NUSA TENGGARA BARAT,83112.0,Indonesia,,,,-85.758.164,116.086.938,https://maps.google.com/?cid=0x0:0x818fe423c331a9a0,
perumahan,Komplek perumahan,Orian View,"Jl. Arya Banjar Getas Perum. Orian View, Ampenan Sel., Kec. Ampenan, Kota Mataram, Nusa Tenggara Bar. 83115","Ampenan Sel., Kec. Ampenan, Kota Mataram",NUSA TENGGARA BARAT,83115.0,Indonesia,,,,-85.860.197,1.160.769.139,https://maps.google.com/?cid=0x0:0x73fb942fcb715733,
perumahan,Komplek perumahan,GRAHA INARA,"C39G+M53, Taman Sari, Kec. Ampenan, Kota Mataram, Nusa Tenggara Bar. 83112","Taman Sari, Kec. Ampenan, Kota Mataram",NUSA TENGGARA BARAT,83112.0,Indonesia,81917135919,,,-85.808.573,1.160.754.329,https://maps.google.com/?cid=0x0:0x9254a116d60d4b2f,
perumahan,Apartemen sewa liburan,BJM KOS,"C38G+79M, Jl. Skip, Ampenan Sel., Kec. Ampenan, Kota Mataram, Nusa Tenggara Bar. 83112","Jl. Skip, Ampenan Sel., Kec. Ampenan, Kota Mataram",NUSA TENGGARA BARAT,83112.0,Indonesia,,,,-85.842.886,1.160.759.255,https://maps.google.com/?cid=0x0:0x245ee597a6be64dd,
perumahan,perumahan,Nusa Tenggara Bar. 83113,"Kec. Ampenan, Kota Mataram, Nusa Tenggara Bar.","Kota Mataram, Nusa Tenggara Bar.",NUSA TENGGARA BARAT,,Indonesia,,,,-85.737.631,1.160.931.026,https://maps.google.com/?cid=0x0:0x1c00c5eb6016c3d0,
perumahan,perumahan,Rumah Emy/Ojik,"C3FW+VQV, Kb. Sari, Kec. Ampenan, Kota Mataram, Nusa Tenggara Bar.","Kota Mataram, Nusa Tenggara Bar.",NUSA TENGGARA BARAT,,Indonesia,89656071168,,,-85.752.566,1.160.969.063,https://maps.google.com/?cid=0x0:0x567a15d8494e9c17,
perumahan,Perumahan,Perumahan Pinang Raya Asri,"C3MV+8G7, Jl. Pinang Raya, Pejarakan Karya, Kec. Ampenan, Kota Mataram, Nusa Tenggara Bar. 83511","Jl. Pinang Raya, Pejarakan Karya, Kec. Ampenan, Kota Mataram",NUSA TENGGARA BARAT,83511.0,Indonesia,,,,-85.667.129,1.160.937.946,https://maps.google.com/?cid=0x0:0x2ebebd1d0c24d5f0,
perumahan,Perhimpunan Pengembang Perumahan,Graha Pratama,"M 1, Jl. Hidayatullah, Kb. Sari, Kec. Ampenan, Kota Mataram, Nusa Tenggara Bar. 83113","Jl. Hidayatullah, Kb. Sari, Kec. Ampenan, Kota Mataram",NUSA TENGGARA BARAT,83113.0,Indonesia,,,,-85.731.937,1.160.979.274,https://maps.google.com/?cid=0x0:0x5f735eff5ef28912,
perumahan,Perumahan,Perumahan Moncok Regency,"C3JV+PC4, Jl. Pinang Raya, Pejarakan Karya, Kec. Ampenan, Kota Mataram, Nusa Tenggara Bar. 83511","Jl. Pinang Raya, Pejarakan Karya, Kec. Ampenan, Kota Mataram",NUSA TENGGARA BARAT,83511.0,Indonesia,,,,-85.682.283,1.160.935.908,https://maps.google.com/?cid=0x0:0xa101817727a85d42,
perumahan,Komplek perumahan,Fadli's house,"C3HV+VV7, Pejarakan Karya, Kec. Ampenan, Kota Mataram, Nusa Tenggara Bar. 83113","Pejarakan Karya, Kec. Ampenan, Kota Mataram",NUSA TENGGARA BARAT,83113.0,Indonesia,,,,-8.570.344,116.094.667,https://maps.google.com/?cid=0x0:0xada5c26a4ea9d9e0,
perumahan,Perumahan,PERUMAHAN GRAHA PERMATA,"C4F2+W88, Jl. KH Mansyur I, Kb. Sari, Kec. Ampenan, Kota Mataram, Nusa Tenggara Bar. 83125","Jl. KH Mansyur I, Kb. Sari, Kec. Ampenan, Kota Mataram",NUSA TENGGARA BARAT,83125.0,Indonesia,,,,-85.752.247,1.161.008.152,https://maps.google.com/?cid=0x0:0x24dc195915b8cde2,
perumahan,Pembangunan Perumahan,Perumahan Danim,"C3MW+639, Gg. Danim, Ampenan Utara, Kec. Ampenan, Kota Mataram, Nusa Tenggara Bar. 83511","Gg. Danim, Ampenan Utara, Kec. Ampenan, Kota Mataram",NUSA TENGGARA BARAT,83511.0,Indonesia,,,,-8.566.975,1.160.952.276,https://maps.google.com/?cid=0x0:0x2e4a083ede1438f7,
perumahan,Komplek perumahan,Rumah Pejeruk,"C3GV+CFC, Pejarakan Karya, Kec. Ampenan, Kota Mataram, Nusa Tenggara Bar. 83113","Pejarakan Karya, Kec. Ampenan, Kota Mataram",NUSA TENGGARA BARAT,83113.0,Indonesia,,,,-85.739.307,1.160.936.532,https://maps.google.com/?cid=0x0:0xe73f255a692a9fd1,
perumahan,Komplek perumahan,"Jalan lestari,gang Bakri,kelurahan pejarakan karya,ampenan","C3JV+7RC, Jl. Lestari, Pejarakan Karya, Kec. Ampenan, Kota Mataram, Nusa Tenggara Bar. 83511","Jl. Lestari, Pejarakan Karya, Kec. Ampenan, Kota Mataram",NUSA TENGGARA BARAT,83511.0,Indonesia,,,,-85.693.213,116.094.523,https://maps.google.com/?cid=0x0:0x3be2f5f374011de3,
perumahan,Komplek perumahan,Gang manalagi IX,"C3GR+W87, Jl. Lestari, Pejeruk, Kec. Ampenan, Kota Mataram, Nusa Tenggara Bar. 83113","Jl. Lestari, Pejeruk, Kec. Ampenan, Kota Mataram",NUSA TENGGARA BARAT,83113.0,Indonesia,,,,-8.572.715,1.160.907.951,https://maps.google.com/?cid=0x0:0x20ff1142c78e7d4a,
perumahan,Pembangunan Perumahan,Kos gerbang biru,"C3HW+XR2 Kos gerbang biru, Jl. Lestari, Pejarakan Karya, Kec. Ampenan, Kota Mataram, Nusa Tenggara Bar. 83113","Jl. Lestari, Pejarakan Karya, Kec. Ampenan, Kota Mataram",NUSA TENGGARA BARAT,83113.0,Indonesia,,,,-857.011,1.160.970.282,https://maps.google.com/?cid=0x0:0x25749a6c99503eff,
perumahan,Pembangunan Perumahan,GSM (Griya Sentosa Moncok),"Jl. Lestari, Pejarakan Karya, Kec. Ampenan, Kota Mataram, Nusa Tenggara Bar. 83113","Pejarakan Karya, Kec. Ampenan, Kota Mataram",NUSA TENGGARA BARAT,83113.0,Indonesia,,,,-85.698.624,116.096.549,https://maps.google.com/?cid=0x0:0x68098454ea8bf7c2,
perumahan,Komplek perumahan,Rumah Nasya,"Jl.Lestari, Gg.Cheri Moncok Karya No.1, Pejarakan Karya, Ampenan, Mataram City, West Nusa Tenggara 83113","Gg.Cheri Moncok Karya No.1, Pejarakan Karya, Ampenan, Mataram City",NUSA TENGGARA BARAT,83113.0,Indonesia,,,,-85.700.191,1.160.954.143,https://maps.google.com/?cid=0x0:0x11715bc8ed22ad18,
perumahan,Pembangunan Perumahan,TSVII3,"C3JQ+9VM, Pejeruk, Kec. Ampenan, Kota Mataram, Nusa Tenggara Bar.","Kota Mataram, Nusa Tenggara Bar.",NUSA TENGGARA BARAT,,Indonesia,,,,-85.690.268,1.160.896.802,https://maps.google.com/?cid=0x0:0xa62f97f57e3d7ac,
perumahan,Komplek perumahan,MS House Mataram,"Gg. Danim No.11, Ampenan Utara, Kec. Ampenan, Kota Mataram, Nusa Tenggara Bar. 83122","Ampenan Utara, Kec. Ampenan, Kota Mataram",NUSA TENGGARA BARAT,83122.0,Indonesia,81917350020,,,-85.660.791,1.160.950.912,https://maps.google.com/?cid=0x0:0xbbb4453168b7f219,
perumahan,Perhimpunan Pengembang Perumahan,Khaliqul Wafiq,"Jl. Cemp. No.3, Pejarakan Karya, Kec. Ampenan, Kota Mataram, Nusa Tenggara Bar. 83113","Pejarakan Karya, Kec. Ampenan, Kota Mataram",NUSA TENGGARA BARAT,83113.0,Indonesia,,,,-85.730.595,1.160.926.871,https://maps.google.com/?cid=0x0:0x6a1d9369948f3ca7,
perumahan,perumahan,rumah acep,"Gg. Dahlia IX No.19, kebun, bawak tengah, Kec. Ampenan, Kota Mataram, Nusa Tenggara Bar. 83113","kebun, bawak tengah, Kec. Ampenan, Kota Mataram",NUSA TENGGARA BARAT,83113.0,Indonesia,,,,-85.728.834,1.160.922.673,https://maps.google.com/?cid=0x0:0x8b8297c026a841be,
perumahan,Komplek perumahan,Rumah novi,"C3FR+9XQ, Pejarakan Karya, Kec. Ampenan, Kota Mataram, Nusa Tenggara Bar. 83113","Pejarakan Karya, Kec. Ampenan, Kota Mataram",NUSA TENGGARA BARAT,83113.0,Indonesia,,,,-8.576.417,1.160.925.219,https://maps.google.com/?cid=0x0:0xc6c7bfd0c95ca8e7,
perumahan,Komplek perumahan,Sandio Kurdi Family,"Jl. Taman Istana Angkasa No.34, Ampenan Utara, Kec. Ampenan, Kota Mataram, Nusa Tenggara Bar. 83111","Ampenan Utara, Kec. Ampenan, Kota Mataram",NUSA TENGGARA BARAT,83111.0,Indonesia,81803692602,,,-85.674.335,116.095.733,https://maps.google.com/?cid=0x0:0x38344d6444d3f6a,
perumahan,perumahan,rumah,"Jl. Gn. Baru No.38a, Dasan Agung, Kec. Selaparang, Kota Mataram, Nusa Tenggara Bar. 83125","Dasan Agung, Kec. Selaparang, Kota Mataram",NUSA TENGGARA BARAT,83125.0,Indonesia,,,,-85.790.569,1.160.959.722,https://maps.google.com/?cid=0x0:0x61ae77d0e520170c,
perumahan,Pembangunan Perumahan,PERUMAHAN GRIYA PESONA RINJANI G12,"Perumahan, Ruko Griya Pesona Rinjani, Jl. Adi Sucipto G12, North Ampenan, Ampenan, Mataram City, West Nusa Tenggara 83123","Ruko Griya Pesona Rinjani, Jl. Adi Sucipto G12, North Ampenan, Ampenan, Mataram City",NUSA TENGGARA BARAT,83123.0,Indonesia,,,,-8.565.736,1.160.968.572,https://maps.google.com/?cid=0x0:0xaa25d0a3012fddbf,
perumahan,Perumahan,Rumah Gadis,"C3FV+QRQ, Kb. Sari, Kec. Ampenan, Kota Mataram, Nusa Tenggara Bar. 83113","Kb. Sari, Kec. Ampenan, Kota Mataram",NUSA TENGGARA BARAT,83113.0,Indonesia,,,,-85.755.271,1.160.946.197,https://maps.google.com/?cid=0x0:0x55f0ebd7d7b74bc,
perumahan,Pembangunan Perumahan,Rumah Anis,"Jl. Gotong Royong Gg. Swakarya No. 22 Karang Baru, Kebon Sari, Ampenan, Mataram City, West Nusa Tenggara 83113","Kebon Sari, Ampenan, Mataram City",NUSA TENGGARA BARAT,83113.0,Indonesia,,,,-85.729.562,1.160.944.216,https://maps.google.com/?cid=0x0:0xc4a35bdf4ae0c90b,
perumahan,perumahan,RONY GUNAWAN,"Perum Taman Istana Angkasa No.55, Ampenan Utara, Kec. Ampenan, Kota Mataram, Nusa Tenggara Bar. 83511","Ampenan Utara, Kec. Ampenan, Kota Mataram",NUSA TENGGARA BARAT,83511.0,Indonesia,,,,-85.676.709,1.160.953.765,https://maps.google.com/?cid=0x0:0x56d398533fbb5a67,
perumahan,Pembangunan Perumahan,Bale Black 1717,"C3HV+6C8, Jl. Lestari, Pejarakan Karya, Kec. Ampenan, Kota Mataram, Nusa Tenggara Bar. 83113","Jl. Lestari, Pejarakan Karya, Kec. Ampenan, Kota Mataram",NUSA TENGGARA BARAT,83113.0,Indonesia,,,,-85.719.512,1.160.935.867,https://maps.google.com/?cid=0x0:0x6ec53542541dd103,
perumahan,Perumahan,Perum Putra AR Mataram Asri,"C38G+5VC, Jl. Arya Banjar Getas, Ampenan Sel., Kec. Ampenan, Kota Mataram, Nusa Tenggara Bar. 83114","Jl. Arya Banjar Getas, Ampenan Sel., Kec. Ampenan, Kota Mataram",NUSA TENGGARA BARAT,83114.0,Indonesia,,,,-85.845.645,1.160.771.341,https://maps.google.com/?cid=0x0:0xa28f860f5324af67,
perumahan,perumahan,Nusa Tenggara Bar. 83114,"Kota Mataram, Nusa Tenggara Bar.","Kota Mataram, Nusa Tenggara Bar.",NUSA TENGGARA BARAT,,Indonesia,,,,-85.855.946,1.160.857.155,https://maps.google.com/?cid=0x0:0x1c00c5eb6016c410,
perumahan,Komplek perumahan,Graha Mutiara,"ABG, Jl Perum Graha Mutiara No.4, Ampenan Sel., Kec. Ampenan, Kota Mataram, Nusa Tenggara Bar. 83114","Jl Perum Graha Mutiara No.4, Ampenan Sel., Kec. Ampenan, Kota Mataram",NUSA TENGGARA BARAT,83114.0,Indonesia,,,,-85.873.231,1.160.769.944,https://maps.google.com/?cid=0x0:0x4e2a615a05188f8c,
perumahan,Komplek perumahan,Perumahan Pearl Garden (PG),"Jl. Swakarsa, Kekalek Gerisak, Kota Mataram, Nusa Tenggara Barat, Kode Pos:, Taman Sari, Kec. Ampenan, Kota Mataram, Nusa Tenggara Bar. 83126","Kekalek Gerisak, Kota Mataram, Nusa Tenggara Barat, Kode Pos:, Taman Sari, Kec. Ampenan, Kota Mataram",NUSA TENGGARA BARAT,83126.0,Indonesia,,,,-85.865.909,1.160.817.675,https://maps.google.com/?cid=0x0:0x907a3fd784f8fc7b,
perumahan,Komplek perumahan,Rumah Pak H. Anwar,"C37M+Q7J, Gg. IV No.40, Taman Sari, Kec. Ampenan, Kota Mataram, Nusa Tenggara Bar. 83114","Gg. IV No.40, Taman Sari, Kec. Ampenan, Kota Mataram",NUSA TENGGARA BARAT,83114.0,Indonesia,,,,-8.585.659,1.160.832.406,https://maps.google.com/?cid=0x0:0xe7fc14f753b5606c,
perumahan,Komplek perumahan,Perumahan Muara Mataram,"C35H+C8X, Gg. Udang, Tj. Karang Permai, Kec. Sekarbela, Kota Mataram, Nusa Tenggara Bar. 83114","Gg. Udang, Tj. Karang Permai, Kec. Sekarbela, Kota Mataram",NUSA TENGGARA BARAT,83114.0,Indonesia,,,,-85.913.918,1.160.783.468,https://maps.google.com/?cid=0x0:0x9a5bdd4f5c313e9d,
perumahan,Pembangunan Perumahan,My home,"Jl. Irigasi V No.14 Blok.A, Taman Sari, Ampenan, Mataram City, West Nusa Tenggara 83114","Taman Sari, Ampenan, Mataram City",NUSA TENGGARA BARAT,83114.0,Indonesia,,,,-85.876.739,1.160.830.971,https://maps.google.com/?cid=0x0:0x6bf6f47775dbbc2a,
perumahan,Otoritas Perumahan,Griya Seruni B 65,"Blk. B No.65, Taman Sari, Kec. Ampenan, Kota Mataram, Nusa Tenggara Bar. 83114","Taman Sari, Kec. Ampenan, Kota Mataram",NUSA TENGGARA BARAT,83114.0,Indonesia,,,,-85.835.837,1.160.819.623,https://maps.google.com/?cid=0x0:0xf8bd19ea7d9e9d5c,
perumahan,Komplek perumahan,Perumahan,"C36M+JQ7, Jl. Irigasi, Taman Sari, Kec. Ampenan, Kota Mataram, Nusa Tenggara Bar. 83114","Jl. Irigasi, Taman Sari, Kec. Ampenan, Kota Mataram",NUSA TENGGARA BARAT,83114.0,Indonesia,,,,-85.883.667,1.160.843.734,https://maps.google.com/?cid=0x0:0x2ab698727edaf53,
perumahan,Otoritas Perumahan,Kompleks Lumba - Lumba 2,"Komplek Lumba - Lumba 2, No. 45, Gatep, Ampenan, Taman Sari, Mataram, Kota Mataram, Nusa Tenggara Bar. 83114","No. 45, Gatep, Ampenan, Taman Sari, Mataram, Kota Mataram",NUSA TENGGARA BARAT,83114.0,Indonesia,,,,-8.589.028,1.160.801.191,https://maps.google.com/?cid=0x0:0xe3d7caa0195e72cd,
perumahan,Penginapan,Ralistyo,"Jl. ABG Perum Permata Anggrek Blok C.104, Taman Sari, Kec. Ampenan, Kota Mataram, Nusa Tenggara Bar. 83114","Taman Sari, Kec. Ampenan, Kota Mataram",NUSA TENGGARA BARAT,83114.0,Indonesia,,,,-85.891.113,116.079.011,https://maps.google.com/?cid=0x0:0x51451d906591dbd2,
perumahan,Pembangunan Perumahan,Kost Najwa no. 2A Ampenan,"Gg. Remora No.2, Taman Sari, Kec. Ampenan, Kota Mataram, Nusa Tenggara Bar. 83114","Taman Sari, Kec. Ampenan, Kota Mataram",NUSA TENGGARA BARAT,83114.0,Indonesia,87860111192,,,-85.882.167,1.160.777.128,https://maps.google.com/?cid=0x0:0xbb218c5e6302f413,
perumahan,Perumahan,Putra ar 1,"Perumahan kota mataram asri PUTRA No.AR 1, Ampenan Sel., Kec. Ampenan, Kota Mataram, Nusa Tenggara Bar. 83114","Ampenan Sel., Kec. Ampenan, Kota Mataram",NUSA TENGGARA BARAT,83114.0,Indonesia,,,,-85.870.874,1.160.771.187,https://maps.google.com/?cid=0x0:0x46950f93aec2991d,
perumahan,Perumahan,Perumahan Green Royale Residence,"C35J+8C6, Jl. Swakarsa, Kekalik Jaya, Kec. Sekarbela, Kota Mataram, Nusa Tenggara Bar. 83114","Jl. Swakarsa, Kekalik Jaya, Kec. Sekarbela, Kota Mataram",NUSA TENGGARA BARAT,83114.0,Indonesia,,,,-85.917.203,1.160.810.283,https://maps.google.com/?cid=0x0:0xabbcc836fedc3ae3,
perumahan,Komplek perumahan,Adit House,"Gg. Baracuda No.6, Ampenan Sel., Kec. Ampenan, Kota Mataram, Nusa Tenggara Bar. 83114","Ampenan Sel., Kec. Ampenan, Kota Mataram",NUSA TENGGARA BARAT,83114.0,Indonesia,,,,-85.856.225,1.160.766.079,https://maps.google.com/?cid=0x0:0xe1254c1a7fce9eda,
perumahan,Komplek perumahan,Block E No.1 Pearl Garden Residence,"C37J+4GC, Taman Sari, Kec. Ampenan, Kota Mataram, Nusa Tenggara Bar. 83114","Taman Sari, Kec. Ampenan, Kota Mataram",NUSA TENGGARA BARAT,83114.0,Indonesia,,,,-8.587.938,1.160.818.719,https://maps.google.com/?cid=0x0:0xafdc44b271c2443d,
perumahan,Pembangunan Perumahan,Jl tereng petung pejeruk ampenan kota,"C3GQ+767, Gg. Jeruk 6, Pejeruk, Kec. Ampenan, Kota Mataram, Nusa Tenggara Bar. 83112","Gg. Jeruk 6, Pejeruk, Kec. Ampenan, Kota Mataram",NUSA TENGGARA BARAT,83112.0,Indonesia,,,,-85.743.441,1.160.880.432,https://maps.google.com/?cid=0x0:0x9d9ec9bc01814672,
perumahan,Jasa Konstruksi dan Bangunan,Rumah Joglo 69,"Jl. Arya Banjar Getas Gg. Sinar No.9, Ampenan Sel., Kec. Ampenan, Kota Mataram, Nusa Tenggara Bar. 83114","Ampenan Sel., Kec. Ampenan, Kota Mataram",NUSA TENGGARA BARAT,83114.0,Indonesia,,,,-85.882.308,1.160.764.991,https://maps.google.com/?cid=0x0:0xc015d3ac78c365f7,
perumahan,Komplek perumahan,Orian View,"Jl. Arya Banjar Getas Perum. Orian View, Ampenan Sel., Kec. Ampenan, Kota Mataram, Nusa Tenggara Bar. 83115","Ampenan Sel., Kec. Ampenan, Kota Mataram",NUSA TENGGARA BARAT,83115.0,Indonesia,,,,-85.860.197,1.160.769.139,https://maps.google.com/?cid=0x0:0x73fb942fcb715733,
perumahan,Hotel,Louie,"Gg. Pogot Jl. Energi No.100, Ampenan Sel., Kec. Ampenan, Kota Mataram, Nusa Tenggara Bar. 83114","Ampenan Sel., Kec. Ampenan, Kota Mataram",NUSA TENGGARA BARAT,83114.0,Indonesia,,,,-85.784.095,1.160.726.934,https://maps.google.com/?cid=0x0:0x2b8ca588375ff0ec,
perumahan,perumahan,Dinda house,"C35M+96Q, Kekalik Jaya, Kec. Sekarbela, Kota Mataram, Nusa Tenggara Bar.","Kota Mataram, Nusa Tenggara Bar.",NUSA TENGGARA BARAT,,Indonesia,,,,-85.915.723,1.160.830.655,https://maps.google.com/?cid=0x0:0x24b463da028dae14,
perumahan,Komplek perumahan,Duta House,"C37G+5P2, Ampenan Sel., Kec. Ampenan, Kota Mataram, Nusa Tenggara Bar. 83114","Ampenan Sel., Kec. Ampenan, Kota Mataram",NUSA TENGGARA BARAT,83114.0,Indonesia,,,,-85.871.124,1.160.767.612,https://maps.google.com/?cid=0x0:0x8ef06fb454642175,
perumahan,Komplek perumahan,RUMAH GILANG,"C3FR+XV5, Pejeruk, Kec. Ampenan, Kota Mataram, Nusa Tenggara Bar. 83113","Pejeruk, Kec. Ampenan, Kota Mataram",NUSA TENGGARA BARAT,83113.0,Indonesia,,,,-85.751.464,116.092.255,https://maps.google.com/?cid=0x0:0xe607463d855f7308,
perumahan,perumahan,Nusa Tenggara Bar. 83118,"Kb. Sari, Kec. Ampenan, Kota Mataram, Nusa Tenggara Bar.","Kota Mataram, Nusa Tenggara Bar.",NUSA TENGGARA BARAT,,Indonesia,,,,-85.764.571,1.160.939.736,https://maps.google.com/?cid=0x0:0xafeceea236fd7d18,
perumahan,Komplek perumahan,Rumah novi,"C3FR+9XQ, Pejarakan Karya, Kec. Ampenan, Kota Mataram, Nusa Tenggara Bar. 83113","Pejarakan Karya, Kec. Ampenan, Kota Mataram",NUSA TENGGARA BARAT,83113.0,Indonesia,,,,-8.576.417,1.160.925.219,https://maps.google.com/?cid=0x0:0xc6c7bfd0c95ca8e7,
perumahan,Komplek perumahan,Mr. Jay home,"Jl. Pacu No.12, Kb. Sari, Kec. Ampenan, Kota Mataram, Nusa Tenggara Bar. 83113","Kb. Sari, Kec. Ampenan, Kota Mataram",NUSA TENGGARA BARAT,83113.0,Indonesia,,,,-85.758.784,1.160.933.889,https://maps.google.com/?cid=0x0:0xc942ee44a89d264b,
perumahan,Komplek perumahan,Kos Pak Rusli,"Jl. Pacu No.8, Kb. Sari, Kec. Ampenan, Kota Mataram, Nusa Tenggara Bar. 83113","Kb. Sari, Kec. Ampenan, Kota Mataram",NUSA TENGGARA BARAT,83113.0,Indonesia,,,,-85.753.715,1.160.935.065,https://maps.google.com/?cid=0x0:0xee102eb1411c48f3,
perumahan,Pembangunan Perumahan,LOKASI SERAH TERIMA RLH KOLABORASI PT. SMF,"C3FV+JJQ, Kb. Sari, Kec. Ampenan, Kota Mataram, Nusa Tenggara Bar.","Kota Mataram, Nusa Tenggara Bar.",NUSA TENGGARA BARAT,,Indonesia,,,,-85.759.167,1.160.940.988,https://maps.google.com/?cid=0x0:0xfb0c4b94a01772c9,
perumahan,Komplek perumahan,Rumah miq iful,"Jl. G. Merafi merdeka pelita DS. Agung baru No.10, Dasan Agung Baru, Kec. Selaparang, Kota Mataram, Nusa Tenggara Bar.","Kota Mataram, Nusa Tenggara Bar.",NUSA TENGGARA BARAT,,Indonesia,,,,-85.774.804,1.160.919.884,https://maps.google.com/?cid=0x0:0xfe06ea87edd96341,
perumahan,Toko,lokasi,"C4G5+RW2, Monjok, Kec. Selaparang, Kota Mataram, Nusa Tenggara Bar. 83122","Monjok, Kec. Selaparang, Kota Mataram",NUSA TENGGARA BARAT,83122.0,Indonesia,,,,-85.729.979,1.161.097.512,https://maps.google.com/?cid=0x0:0x23aff54915e7891f,
perumahan,Pembangunan Perumahan,Graha Jatialam,"Jati Sela, Kec. Gunungsari, Kabupaten Lombok Barat, Nusa Tenggara Bar.","Kabupaten Lombok Barat, Nusa Tenggara Bar.",NUSA TENGGARA BARAT,,Indonesia,87762206209,,,-85.526.047,1.160.812.442,https://maps.google.com/?cid=0x0:0x273645f38609714f,
perumahan,Developer Rumah Hunian Khusus,Rumah Subsidi,"C442+5JC, Jl. Sriwijaya, Punia, Kec. Mataram, Kota Mataram, Nusa Tenggara Bar. 83237","Jl. Sriwijaya, Punia, Kec. Mataram, Kota Mataram",NUSA TENGGARA BARAT,83237.0,Indonesia,,,,-85.945.545,1.161.015.219,https://maps.google.com/?cid=0x0:0x29076be954507016,
perumahan,Komplek perumahan,Lalu Alan,"Jl. G. Merafi, Gg. Merdeka pelita No.10 no 175, Dasan Agung Baru, Kota Mataram","Kota Mataram, Nusa Tenggara Bar.",NUSA TENGGARA BARAT,,Indonesia,,,,-85.773.787,1.160.918.985,https://maps.google.com/?cid=0x0:0xe9c3536112d4551e,
perumahan,Bed >>u0026 Breakfast,Alcadeco,"Jl. Gotong Royong No.168, Pejarakan Karya, Kec. Ampenan, Kota Mataram, Nusa Tenggara Bar. 83113","Pejarakan Karya, Kec. Ampenan, Kota Mataram",NUSA TENGGARA BARAT,83113.0,Indonesia,8175772264,,,-85.750.574,1.160.941.205,https://maps.google.com/?cid=0x0:0x3bb115a7879ef94b,
perumahan,Komplek perumahan,BTN Kekalik,"C33R+MWP, Jl. Dodokan Raya, Karang Pule, Kec. Sekarbela, Kota Mataram, Nusa Tenggara Bar. 83115","Jl. Dodokan Raya, Karang Pule, Kec. Sekarbela, Kota Mataram",NUSA TENGGARA BARAT,83115.0,Indonesia,,,,-85.957.913,1.160.923.267,https://maps.google.com/?cid=0x0:0x9bd6505a3d859329,
perumahan,Kantor Perusahaan,Phoenix Residence,"Unnamed Road, Mandalika, Kec. Sandubaya, Kota Mataram, Nusa Tenggara Bar. 83233","Mandalika, Kec. Sandubaya, Kota Mataram",NUSA TENGGARA BARAT,83233.0,Indonesia,85333433775,,,-85.973.402,1.161.535.159,https://maps.google.com/?cid=0x0:0x1763521c37929096,
perumahan,perumahan,dasan agung pelita,"C3FV+5G5, Dasan Agung Baru, Kec. Selaparang, Kota Mataram, Nusa Tenggara Bar.","Kota Mataram, Nusa Tenggara Bar.",NUSA TENGGARA BARAT,,Indonesia,,,,-85.771.241,116.093.852,https://maps.google.com/?cid=0x0:0x16dd63203158d1c9,
perumahan,Rumah wisata,Bale Usamah,"C3FV+MCF, Jl. Pacu, Kb. Sari, Kec. Ampenan, Kota Mataram, Nusa Tenggara Bar. 83113","Jl. Pacu, Kb. Sari, Kec. Ampenan, Kota Mataram",NUSA TENGGARA BARAT,83113.0,Indonesia,,,,-8.575.817,1.160.935.418,https://maps.google.com/?cid=0x0:0x61a34f6536891f98,
perumahan,Perumahan,Perum Kota Mataram Asri,"C37G+4FJ, Jl. Arya Banjar Getas, Ampenan Sel., Kec. Ampenan, Kota Mataram, Nusa Tenggara Bar. 83112","Jl. Arya Banjar Getas, Ampenan Sel., Kec. Ampenan, Kota Mataram",NUSA TENGGARA BARAT,83112.0,Indonesia,,,,-85.871.683,1.160.761.474,https://maps.google.com/?cid=0x0:0x591181ac223edaa7,
perumahan,Komplek perumahan,Rumah dan Kios,"Jln alokasia blok A1/A3, Kekalik Jaya, Kec. Sekarbela, Kota Mataram, Nusa Tenggara Bar. 83115","Kekalik Jaya, Kec. Sekarbela, Kota Mataram",NUSA TENGGARA BARAT,83115.0,Indonesia,,,,-85.921.413,1.160.822.275,https://maps.google.com/?cid=0x0:0x2c74805e591ebb99,
perumahan,Pembangunan Perumahan,NYAMAN,"C3PM+8QH, Ampenan Utara, Kec. Ampenan, Kota Mataram, Nusa Tenggara Bar.","Kota Mataram, Nusa Tenggara Bar.",NUSA TENGGARA BARAT,,Indonesia,,,,-8.564.181,1.160.844.707,https://maps.google.com/?cid=0x0:0x82eb8d8203aabb3f,
perumahan,Rumah berlibur bebas rokok,Ary Dekorasi,"Kb. Sari, Kec. Ampenan, Kota Mataram, Nusa Tenggara Bar. 83113","Kec. Ampenan, Kota Mataram",NUSA TENGGARA BARAT,83113.0,Indonesia,,,,-85.756.693,1.160.941.872,https://maps.google.com/?cid=0x0:0xd10c49abbdb52ed0,
perumahan,Komplek perumahan,PERUMAHAN MAHKOTA BERTAIS,"C559+PJC, Bertais, Kec. Sandubaya, Kota Mataram, Nusa Tenggara Bar. 83371","Bertais, Kec. Sandubaya, Kota Mataram",NUSA TENGGARA BARAT,83371.0,Indonesia,81238961168,,,-85.906.916,1.161.690.145,https://maps.google.com/?cid=0x0:0x70f5d2e7eff0115,
perumahan,Pembangunan Perumahan,Perum Puri Satria,"C37F+QRF, Jl. Industri, Ampenan Sel., Kec. Ampenan, Kota Mataram, Nusa Tenggara Bar. 83112","Jl. Industri, Ampenan Sel., Kec. Ampenan, Kota Mataram",NUSA TENGGARA BARAT,83112.0,Indonesia,,,,-85.855.523,1.160.745.346,https://maps.google.com/?cid=0x0:0x7046894d31e9c424,
perumahan,perumahan,Kec. Ampenan,"Kota Mataram, Nusa Tenggara Bar.","Kota Mataram, Nusa Tenggara Bar.",NUSA TENGGARA BARAT,,Indonesia,,,,-85.659.258,1.160.763.813,https://maps.google.com/?cid=0x0:0xc861ca25c0b94697,
perumahan,Komplek perumahan,Komplek Asri,"C3JG+PJ4, Jl. Saleh Sungkar, Dayan Peken, Kec. Ampenan, Kota Mataram, Nusa Tenggara Bar. 83511","Jl. Saleh Sungkar, Dayan Peken, Kec. Ampenan, Kota Mataram",NUSA TENGGARA BARAT,83511.0,Indonesia,,,,-85.682.471,1.160.765.671,https://maps.google.com/?cid=0x0:0x5b3c868b65d97b09,
perumahan,Pembangunan Perumahan,Perumahan Danim,"C3MW+639, Gg. Danim, Ampenan Utara, Kec. Ampenan, Kota Mataram, Nusa Tenggara Bar. 83511","Gg. Danim, Ampenan Utara, Kec. Ampenan, Kota Mataram",NUSA TENGGARA BARAT,83511.0,Indonesia,,,,-8.566.975,1.160.952.276,https://maps.google.com/?cid=0x0:0x2e4a083ede1438f7,
perumahan,Komplek perumahan,Rumah Ungu,"Jl. Bina Sejahtera I No.6a 1, RW.no, Pejeruk, Kec. Ampenan, Kota Mataram, Nusa Tenggara Bar. 83511","RW.no, Pejeruk, Kec. Ampenan, Kota Mataram",NUSA TENGGARA BARAT,83511.0,Indonesia,,,,-85.693.848,1.160.870.696,https://maps.google.com/?cid=0x0:0x19cb227017b591b6,
perumahan,Komplek perumahan,Taman Bumi Asri Residence,"Jl. Koperasi perumahan taman bumi asri residence No.33, Pejeruk, Kec. Ampenan, Kota Mataram, Nusa Tenggara Bar. 83511","Pejeruk, Kec. Ampenan, Kota Mataram",NUSA TENGGARA BARAT,83511.0,Indonesia,,,,-85.690.809,1.160.848.619,https://maps.google.com/?cid=0x0:0xa9ab6522ef104e9b,
perumahan,Perhimpunan Pengembang Perumahan,Rumah,"Jl. Adi Sucipto GG. Kamboja No.1, Lingkungan Pelembak, Dayan Peken, Kec. Ampenan, Kota Mataram, Nusa Tenggara Bar. 83511","Lingkungan Pelembak, Dayan Peken, Kec. Ampenan, Kota Mataram",NUSA TENGGARA BARAT,83511.0,Indonesia,,,,-85.665.268,1.160.866.999,https://maps.google.com/?cid=0x0:0x23a64c3dadc77708,
perumahan,Perumahan,Perumahan Pinang Raya Asri,"C3MV+8G7, Jl. Pinang Raya, Pejarakan Karya, Kec. Ampenan, Kota Mataram, Nusa Tenggara Bar. 83511","Jl. Pinang Raya, Pejarakan Karya, Kec. Ampenan, Kota Mataram",NUSA TENGGARA BARAT,83511.0,Indonesia,,,,-85.667.129,1.160.937.946,https://maps.google.com/?cid=0x0:0x2ebebd1d0c24d5f0,
perumahan,Komplek perumahan,Kampung Timor,"C3FG+JXF, Ampenan Sel., Kec. Ampenan, Kota Mataram, Nusa Tenggara Bar. 83511","Ampenan Sel., Kec. Ampenan, Kota Mataram",NUSA TENGGARA BARAT,83511.0,Indonesia,,,,-85.759.361,1.160.774.111,https://maps.google.com/?cid=0x0:0x9259e0083f542fcf,
perumahan,Perumahan,Perumahan Moncok Regency,"C3JV+PC4, Jl. Pinang Raya, Pejarakan Karya, Kec. Ampenan, Kota Mataram, Nusa Tenggara Bar. 83511","Jl. Pinang Raya, Pejarakan Karya, Kec. Ampenan, Kota Mataram",NUSA TENGGARA BARAT,83511.0,Indonesia,,,,-85.682.283,1.160.935.908,https://maps.google.com/?cid=0x0:0xa101817727a85d42,
perumahan,Gedung Apartemen,Rumahku,"Jl. Bina Sejahtera 2 No.42, Pejeruk, Kec. Ampenan, Kota Mataram, Nusa Tenggara Bar. 83511","Pejeruk, Kec. Ampenan, Kota Mataram",NUSA TENGGARA BARAT,83511.0,Indonesia,,,,-85.709.273,1.160.861.492,https://maps.google.com/?cid=0x0:0x839dadc57f67aed5,
perumahan,Komplek perumahan,"Jalan lestari,gang Bakri,kelurahan pejarakan karya,ampenan","C3JV+7RC, Jl. Lestari, Pejarakan Karya, Kec. Ampenan, Kota Mataram, Nusa Tenggara Bar. 83511","Jl. Lestari, Pejarakan Karya, Kec. Ampenan, Kota Mataram",NUSA TENGGARA BARAT,83511.0,Indonesia,,,,-85.693.213,116.094.523,https://maps.google.com/?cid=0x0:0x3be2f5f374011de3,
perumahan,Komplek perumahan,RumahAsril,"C3CF+P8G, Jl. Energi, Banjar, Kec. Ampenan, Kota Mataram, Nusa Tenggara Bar. 83511","Jl. Energi, Banjar, Kec. Ampenan, Kota Mataram",NUSA TENGGARA BARAT,83511.0,Indonesia,8113852360,,,-85.782.013,1.160.731.604,https://maps.google.com/?cid=0x0:0xdce25cf0dd928af1,
perumahan,Komplek perumahan,Griya pesona rinjani,"C3MW+CPQ, Ampenan Utara, Kec. Ampenan, Kota Mataram, Nusa Tenggara Bar. 83511","Ampenan Utara, Kec. Ampenan, Kota Mataram",NUSA TENGGARA BARAT,83511.0,Indonesia,,,,-85.664.235,1.160.968.453,https://maps.google.com/?cid=0x0:0x27ba112779dc1949,
perumahan,Komplek perumahan,Rumah abdurrahman alm/mariah alm,"C3HG+WWX, Gg. Tampi, Dayan Peken, Kec. Ampenan, Kota Mataram, Nusa Tenggara Bar. 83511","Gg. Tampi, Dayan Peken, Kec. Ampenan, Kota Mataram",NUSA TENGGARA BARAT,83511.0,Indonesia,,,,-85.701.313,1.160.773.712,https://maps.google.com/?cid=0x0:0xbf9b05922b5e9f52,
perumahan,Komplek perumahan,Perumahan Pearl Garden (PG),"Jl. Swakarsa, Kekalek Gerisak, Kota Mataram, Nusa Tenggara Barat, Kode Pos:, Taman Sari, Kec. Ampenan, Kota Mataram, Nusa Tenggara Bar. 83126","Kekalek Gerisak, Kota Mataram, Nusa Tenggara Barat, Kode Pos:, Taman Sari, Kec. Ampenan, Kota Mataram",NUSA TENGGARA BARAT,83126.0,Indonesia,,,,-85.865.909,1.160.817.675,https://maps.google.com/?cid=0x0:0x907a3fd784f8fc7b,
perumahan,Agen Properti Komersial,Attorikost,"Ampenan Utara, Kec. Ampenan, Kota Mataram, Nusa Tenggara Bar. 83511","Kec. Ampenan, Kota Mataram",NUSA TENGGARA BARAT,83511.0,Indonesia,87762517682,,,-85.647.505,116.078.558,https://maps.google.com/?cid=0x0:0x8c7e6f81f88e5f8d,
perumahan,Komplek perumahan,Perumahan SDN 39 Ampenan (Otak Desa Utara),"C3MJ+CX4 Otak Desa Utara, Jl. Adi Sucipto Gg.Pembaharuan, Ampenan Utara, Kec. Ampenan, Kota Mataram, Nusa Tenggara Bar. 83511","Jl. Adi Sucipto Gg.Pembaharuan, Ampenan Utara, Kec. Ampenan, Kota Mataram",NUSA TENGGARA BARAT,83511.0,Indonesia,,,,-85.664.927,116.082.466,https://maps.google.com/?cid=0x0:0xcf292b14c6311b29,
perumahan,Pembangunan Perumahan,Bale Umam,"C3PF+WWJ, Jl. Saleh Sungkar, Ampenan Utara, Kec. Ampenan, Kota Mataram, Nusa Tenggara Bar. 83511","Jl. Saleh Sungkar, Ampenan Utara, Kec. Ampenan, Kota Mataram",NUSA TENGGARA BARAT,83511.0,Indonesia,,,,-85.626.594,1.160.747.634,https://maps.google.com/?cid=0x0:0x96722e352abc1b0b,
perumahan,Hostel,YUSUF HOUSE (KOS PUTRI),"C3PM+75C, Ampenan Utara, Kec. Ampenan, Kota Mataram, Nusa Tenggara Bar. 83511","Ampenan Utara, Kec. Ampenan, Kota Mataram",NUSA TENGGARA BARAT,83511.0,Indonesia,,,,-85.643.237,1.160.828.925,https://maps.google.com/?cid=0x0:0x93bcb57a82db1707,
perumahan,Komplek perumahan,Rumah Sahrull,"C3JV+966, Pejarakan Karya, Kec. Ampenan, Kota Mataram, Nusa Tenggara Bar. 83511","Pejarakan Karya, Kec. Ampenan, Kota Mataram",NUSA TENGGARA BARAT,83511.0,Indonesia,,,,-85.690.971,1.160.930.242,https://maps.google.com/?cid=0x0:0xde9ddf7cfe8d357a,
perumahan,Kantor Perusahaan,Adi Sucipto Residence H7,"C3PJ+8C7, Ampenan Utara, Kec. Ampenan, Kota Mataram, Nusa Tenggara Bar. 83511","Ampenan Utara, Kec. Ampenan, Kota Mataram",NUSA TENGGARA BARAT,83511.0,Indonesia,,,,-85.641.297,1.160.810.853,https://maps.google.com/?cid=0x0:0x2e56d02cd9886094,
perumahan,Perhimpunan Pengembang Perumahan,Perumahan Taman Istana Angkasa,"Ampenan Utara, Kec. Ampenan, Kota Mataram, Nusa Tenggara Bar. 83511","Kec. Ampenan, Kota Mataram",NUSA TENGGARA BARAT,83511.0,Indonesia,,,,-85.675.962,1.160.955.869,https://maps.google.com/?cid=0x0:0xb0e11c76252c1a95,
perumahan,Komplek perumahan,Orian View,"Jl. Arya Banjar Getas Perum. Orian View, Ampenan Sel., Kec. Ampenan, Kota Mataram, Nusa Tenggara Bar. 83115","Ampenan Sel., Kec. Ampenan, Kota Mataram",NUSA TENGGARA BARAT,83115.0,Indonesia,,,,-85.860.197,1.160.769.139,https://maps.google.com/?cid=0x0:0x73fb942fcb715733,
perumahan,Komplek perumahan,RieL Pondok Indah,"C3MJ+CXH, Gg. Pembaharuan I, Dayan Peken, Kec. Ampenan, Kota Mataram, Nusa Tenggara Bar. 83511","Gg. Pembaharuan I, Dayan Peken, Kec. Ampenan, Kota Mataram",NUSA TENGGARA BARAT,83511.0,Indonesia,,,,-85.664.313,1.160.824.881,https://maps.google.com/?cid=0x0:0xaffada6ba96c644e,
perumahan,Komplek perumahan,Rumah Intan Oktaviani,"C3MM+2XX, Gg. Memet, Dayan Peken, Kec. Ampenan, Kota Mataram, Nusa Tenggara Bar. 83511","Gg. Memet, Dayan Peken, Kec. Ampenan, Kota Mataram",NUSA TENGGARA BARAT,83511.0,Indonesia,,,,-8.567.399,1.160.849.742,https://maps.google.com/?cid=0x0:0x9c96da97cc719da6,
perumahan,Komplek perumahan,EMR House,"Jl. Adi Sucipto Gg. Perumahan Mini Golf No.4, Ampenan Utara, Kec. Ampenan, Kota Mataram, Nusa Tenggara Bar. 83511","Ampenan Utara, Kec. Ampenan, Kota Mataram",NUSA TENGGARA BARAT,83511.0,Indonesia,,,,-85.647.753,116.085.398,https://maps.google.com/?cid=0x0:0xf97b36c5f2c2508b,
perumahan,perumahan,Nusa Tenggara Bar. 83238,"Karang Taliwang, Kec. Cakranegara, Kota Mataram, Nusa Tenggara Bar.","Kota Mataram, Nusa Tenggara Bar.",NUSA TENGGARA BARAT,,Indonesia,,,,-85.819.886,1.161.296.392,https://maps.google.com/?cid=0x0:0xacf4f0e4bb180c0a,
perumahan,Komplek perumahan,Perumahan Tohpati Indah,"Perumahan tohpati indah Jl. Imam Bonjol No.29, Karang Taliwang, Cakranegara, Mataram City, West Nusa Tenggara 83239","Karang Taliwang, Cakranegara, Mataram City",NUSA TENGGARA BARAT,83239.0,Indonesia,,,,-85.801.292,1.161.299.882,https://maps.google.com/?cid=0x0:0x6d7a50328d2f8c6,
perumahan,Komplek perumahan,Rumah GS,"Jl. Sarikaya Gang 2 No.1, Karang Taliwang, Kec. Cakranegara, Kota Mataram, Nusa Tenggara Bar. 83239","Karang Taliwang, Kec. Cakranegara, Kota Mataram",NUSA TENGGARA BARAT,83239.0,Indonesia,,,,-85.802.044,1.161.285.499,https://maps.google.com/?cid=0x0:0x38a9e468f5b5f63b,
perumahan,Komplek perumahan,Karang Jero,"C49H+Q72, Karang Taliwang, Kec. Cakranegara, Kota Mataram, Nusa Tenggara Bar. 83239","Karang Taliwang, Kec. Cakranegara, Kota Mataram",NUSA TENGGARA BARAT,83239.0,Indonesia,,,,-85.806.057,1.161.281.324,https://maps.google.com/?cid=0x0:0x5a21a90477e56d64,
perumahan,Toko,lokasi,"C4G5+RW2, Monjok, Kec. Selaparang, Kota Mataram, Nusa Tenggara Bar. 83122","Monjok, Kec. Selaparang, Kota Mataram",NUSA TENGGARA BARAT,83122.0,Indonesia,,,,-85.729.979,1.161.097.512,https://maps.google.com/?cid=0x0:0x23aff54915e7891f,
perumahan,Developer Rumah Hunian Khusus,Rumah Subsidi,"C442+5JC, Jl. Sriwijaya, Punia, Kec. Mataram, Kota Mataram, Nusa Tenggara Bar. 83237","Jl. Sriwijaya, Punia, Kec. Mataram, Kota Mataram",NUSA TENGGARA BARAT,83237.0,Indonesia,,,,-85.945.545,1.161.015.219,https://maps.google.com/?cid=0x0:0x29076be954507016,
perumahan,Komplek perumahan,Rumah dan Kios,"Jln alokasia blok A1/A3, Kekalik Jaya, Kec. Sekarbela, Kota Mataram, Nusa Tenggara Bar. 83115","Kekalik Jaya, Kec. Sekarbela, Kota Mataram",NUSA TENGGARA BARAT,83115.0,Indonesia,,,,-85.921.413,1.160.822.275,https://maps.google.com/?cid=0x0:0x2c74805e591ebb99,
perumahan,Pembangunan Perumahan,Graha Jatialam,"Jati Sela, Kec. Gunungsari, Kabupaten Lombok Barat, Nusa Tenggara Bar.","Kabupaten Lombok Barat, Nusa Tenggara Bar.",NUSA TENGGARA BARAT,,Indonesia,87762206209,,,-85.526.047,1.160.812.442,https://maps.google.com/?cid=0x0:0x273645f38609714f,
perumahan,Komplek perumahan,PERUMAHAN MAHKOTA BERTAIS,"C559+PJC, Bertais, Kec. Sandubaya, Kota Mataram, Nusa Tenggara Bar. 83371","Bertais, Kec. Sandubaya, Kota Mataram",NUSA TENGGARA BARAT,83371.0,Indonesia,81238961168,,,-85.906.916,1.161.690.145,https://maps.google.com/?cid=0x0:0x70f5d2e7eff0115,
perumahan,Pembangunan Perumahan,kavlingan,"C4H7+2VF, Jl. Sunan Sudar, Monjok, Kec. Selaparang, Kota Mataram, Nusa Tenggara Bar.","Kota Mataram, Nusa Tenggara Bar.",NUSA TENGGARA BARAT,,Indonesia,,,,-85.724.752,1.161.147.775,https://maps.google.com/?cid=0x0:0x935e7cb296492585,
perumahan,Pembangunan Perumahan,MENTARI Residence,"Jl. Mentari No.C12, Kapitan, Perampuan, Labuapi, West Lombok Regency, West Nusa Tenggara 83361","Kapitan, Perampuan, Labuapi, West Lombok Regency",NUSA TENGGARA BARAT,83361.0,Indonesia,81997788877,,,-86.321.344,1.160.928.384,https://maps.google.com/?cid=0x0:0x26795f4e05cc0707,
perumahan,Pusat Perbelanjaan,Pasar Sindu Cakranegara,"Jl. Sultan Hasanuddin Lingk. Karang Jero No.115, Karang Taliwang, Kec. Cakranegara, Kota Mataram, Nusa Tenggara Bar. 83239","Karang Taliwang, Kec. Cakranegara, Kota Mataram",NUSA TENGGARA BARAT,83239.0,Indonesia,,,,-85.819.596,1.161.296.826,https://maps.google.com/?cid=0x0:0x577870f30f23604,
perumahan,Pembangunan Perumahan,NYAMAN,"C3PM+8QH, Ampenan Utara, Kec. Ampenan, Kota Mataram, Nusa Tenggara Bar.","Kota Mataram, Nusa Tenggara Bar.",NUSA TENGGARA BARAT,,Indonesia,,,,-8.564.181,1.160.844.707,https://maps.google.com/?cid=0x0:0x82eb8d8203aabb3f,
perumahan,perumahan,Nusa Tenggara Bar. 83239,"Karang Taliwang, Kec. Cakranegara, Kota Mataram, Nusa Tenggara Bar.","Kota Mataram, Nusa Tenggara Bar.",NUSA TENGGARA BARAT,,Indonesia,,,,-8.577.583,1.161.270.801,https://maps.google.com/?cid=0x0:0x1c00c5eb6016c930,
perumahan,Otoritas Perumahan,BLOC A,"C4HH+QXM, Jl. Kerajinan I, Sayang Sayang, Kec. Cakranegara, Kota Mataram, Nusa Tenggara Bar. 83239","Jl. Kerajinan I, Sayang Sayang, Kec. Cakranegara, Kota Mataram",NUSA TENGGARA BARAT,83239.0,Indonesia,81916060638,,,-85.705.401,1.161.299.295,https://maps.google.com/?cid=0x0:0xdc711998b08a4e9b,
perumahan,Perhimpunan Pengembang Perumahan,Pt. Lambang Sejati,"Jl. A. A Gede Ngurah No.128, Cakranegara Sel. Baru, Kec. Cakranegara, Kota Mataram, Nusa Tenggara Bar. 83239","Cakranegara Sel. Baru, Kec. Cakranegara, Kota Mataram",NUSA TENGGARA BARAT,83239.0,Indonesia,370633182,,,-85.979.845,1.161.294.507,https://maps.google.com/?cid=0x0:0xcdcf96d1351d9581,
perumahan,Komplek perumahan,Perumahan Green Hill Cakranegara Utara,"C4GJ+HFW, Cakranegara Utara, Kec. Cakranegara, Kota Mataram, Nusa Tenggara Bar. 83239","Cakranegara Utara, Kec. Cakranegara, Kota Mataram",NUSA TENGGARA BARAT,83239.0,Indonesia,,,,-85.735.159,1.161.312.155,https://maps.google.com/?cid=0x0:0x3ac21a648e4df274,
perumahan,Pembangunan Perumahan,Karang kemong cakra barat kota mataram,"C48F+98V, Jl. Kebudayaan, Cakranegara Bar., Kec. Cakranegara, Kota Mataram, Nusa Tenggara Bar. 83239","Jl. Kebudayaan, Cakranegara Bar., Kec. Cakranegara, Kota Mataram",NUSA TENGGARA BARAT,83239.0,Indonesia,,,,-85.834.036,1.161.222.606,https://maps.google.com/?cid=0x0:0x3a132c890e41b9f,
perumahan,Pembangunan Perumahan,KRS777,"Bagirati, Jl. Ki Hajar Dewantara Gang Kenanga 1 No.4, Kec. Cakranegara, Kota Mataram, Nusa Tenggara Bar. 83239","Jl. Ki Hajar Dewantara Gang Kenanga 1 No.4, Kec. Cakranegara, Kota Mataram",NUSA TENGGARA BARAT,83239.0,Indonesia,,,,-85.720.899,1.161.290.891,https://maps.google.com/?cid=0x0:0xa5fc2a2adba9e31e,
perumahan,Komplek perumahan,Rumah,"C49F+M27, Pejanggik, Kec. Mataram, Kota Mataram, Nusa Tenggara Bar. 83239","Pejanggik, Kec. Mataram, Kota Mataram",NUSA TENGGARA BARAT,83239.0,Indonesia,,,,-85.797.199,1.161.225.792,https://maps.google.com/?cid=0x0:0x175792921ba2c740,
perumahan,Taman,Clothes GA,"Gg. Anggur No.4, Cakranegara Utara, Kec. Cakranegara, Kota Mataram, Nusa Tenggara Bar. 83239","Cakranegara Utara, Kec. Cakranegara, Kota Mataram",NUSA TENGGARA BARAT,83239.0,Indonesia,83122351377,,,-85.825.297,116.131.095,https://maps.google.com/?cid=0x0:0xbccd9cdfa20d3ff7,
perumahan,Komplek perumahan,Rumah Ratna,"C46H+QCG, Jl. Banjaran Sari, Cilinaya, Kec. Cakranegara, Kota Mataram, Nusa Tenggara Bar. 83239","Jl. Banjaran Sari, Cilinaya, Kec. Cakranegara, Kota Mataram",NUSA TENGGARA BARAT,83239.0,Indonesia,,,,-85.880.705,1.161.285.855,https://maps.google.com/?cid=0x0:0x8a99809d3dcf14a6,
perumahan,Pembangunan Perumahan,Mahkota Cipta Indonesia,"Jl. Cilinaya No.03, Cilinaya, Kec. Cakranegara, Kota Mataram, Nusa Tenggara Bar. 83239","Cilinaya, Kec. Cakranegara, Kota Mataram",NUSA TENGGARA BARAT,83239.0,Indonesia,81917776999,,,-85.889.648,1.161.191.825,https://maps.google.com/?cid=0x0:0x247beb955270416b,
perumahan,Perhimpunan Pengembang Perumahan,Putrawansyah,"Gg. Unggas 2 No.22, Karang Taliwang, Kec. Cakranegara, Kota Mataram, Nusa Tenggara Bar. 83239","Karang Taliwang, Kec. Cakranegara, Kota Mataram",NUSA TENGGARA BARAT,83239.0,Indonesia,,,,-85.749.526,1.161.282.398,https://maps.google.com/?cid=0x0:0xdee5f73c394f451a,
perumahan,Rumah berlibur,Rumah OgiQ Oyoss,"C4GM+37F, Gg. Nangka 4, Cakranegara Utara, Kec. Cakranegara, Kota Mataram, Nusa Tenggara Bar. 83239","Gg. Nangka 4, Cakranegara Utara, Kec. Cakranegara, Kota Mataram",NUSA TENGGARA BARAT,83239.0,Indonesia,,,,-85.753.511,1.161.335.648,https://maps.google.com/?cid=0x0:0xaef2000f2d927d02,
perumahan,Pembangunan Perumahan,Rumah BAWEL,"C4HG+Q5W, Jl. Kerajinan, Sayang Sayang, Kec. Cakranegara, Kota Mataram, Nusa Tenggara Bar. 83239","Jl. Kerajinan, Sayang Sayang, Kec. Cakranegara, Kota Mataram",NUSA TENGGARA BARAT,83239.0,Indonesia,,,,-85.705.062,1.161.254.605,https://maps.google.com/?cid=0x0:0x326469c103e888fe,
perumahan,Komplek perumahan,Komplek akasia 1 kr jangkong,"C489+PXX, Cakranegara Bar., Kec. Cakranegara, Kota Mataram, Nusa Tenggara Bar. 83239","Cakranegara Bar., Kec. Cakranegara, Kota Mataram",NUSA TENGGARA BARAT,83239.0,Indonesia,,,,-85.831.413,1.161.199.997,https://maps.google.com/?cid=0x0:0xa24b5d7133dcd521,
perumahan,perumahan,Rumah,"C4FH+64R, Karang Taliwang, Kec. Cakranegara, Kota Mataram, Nusa Tenggara Bar. 83239","Karang Taliwang, Kec. Cakranegara, Kota Mataram",NUSA TENGGARA BARAT,83239.0,Indonesia,,,,-85.768.981,1.161.277.802,https://maps.google.com/?cid=0x0:0xebd3303b1636a04,
perumahan,Gedung Apartemen,Roemah Ayip,"C48F+H66, Jl. Beo, Cakranegara Bar., Kec. Cakranegara, Kota Mataram, Nusa Tenggara Bar. 83239","Jl. Beo, Cakranegara Bar., Kec. Cakranegara, Kota Mataram",NUSA TENGGARA BARAT,83239.0,Indonesia,,,,-8.583.587,1.161.230.253,https://maps.google.com/?cid=0x0:0xa02cb284b2534c41,
perumahan,Komplek perumahan,Puri Pandansalas,"Jl. Hasanudin Gg. Jaya 2 No.3, cakra timur, Kec. Cakranegara, Kota Mataram, Nusa Tenggara Bar. 83239","cakra timur, Kec. Cakranegara, Kota Mataram",NUSA TENGGARA BARAT,83239.0,Indonesia,,,,-85.784.551,1.161.304.969,https://maps.google.com/?cid=0x0:0x8d5e890d27e75a1c,
perumahan,Komplek perumahan,Perumahan Green Hill No 9A,"Jl. Imam Bonjol PERUMAHAN GREEN HILL No.9A, Cakranegara Utara, Kec. Cakranegara, Kota Mataram, Nusa Tenggara Bar. 83239","Cakranegara Utara, Kec. Cakranegara, Kota Mataram",NUSA TENGGARA BARAT,83239.0,Indonesia,,,,-8.573.206,116.130.984,https://maps.google.com/?cid=0x0:0x5b66cfeab32fb077,
perumahan,Komplek perumahan,BTN Green Hill No.39,"Cakranegara Utara, Kec. Cakranegara, Kota Mataram, Nusa Tenggara Bar. 83239","Kec. Cakranegara, Kota Mataram",NUSA TENGGARA BARAT,83239.0,Indonesia,,,,-85.738.163,1.161.313.069,https://maps.google.com/?cid=0x0:0x4e9ce789ca076d0a,
perumahan,Komplek perumahan,Bege Tinggal Disini,"Jl. Kebudayaan No.2, Cakranegara Bar., Kec. Cakranegara, Kota Mataram, Nusa Tenggara Bar. 83239","Cakranegara Bar., Kec. Cakranegara, Kota Mataram",NUSA TENGGARA BARAT,83239.0,Indonesia,,,,-85.840.207,1.161.198.357,https://maps.google.com/?cid=0x0:0x31018cae8c3de55b,
perumahan,Toko bahan makanan,Perumahan GIS,"C4PJ+J75, Jl. Cendrawasih, Kekeri, Kec. Gunungsari, Kabupaten Lombok Barat, Nusa Tenggara Bar. 83239","Jl. Cendrawasih, Kekeri, Kec. Gunungsari, Kabupaten Lombok Barat",NUSA TENGGARA BARAT,83239.0,Indonesia,,,,-85.634.937,1.161.307.266,https://maps.google.com/?cid=0x0:0xee6be40f229d62be,
perumahan,Komplek perumahan,Rumah MiMi Ate,"Jl. Indra Giri No.21 blok B3, Cakranegara Sel., Kec. Cakranegara, Kota Mataram, Nusa Tenggara Bar. 83239","Cakranegara Sel., Kec. Cakranegara, Kota Mataram",NUSA TENGGARA BARAT,83239.0,Indonesia,,,,-85.933.242,1.161.317.979,https://maps.google.com/?cid=0x0:0xfc31dc147201932e,
perumahan,Perhimpunan Pengembang Perumahan,BTN Green Hill No. 28,"Green Hill 28, North Cakranegara, Cakranegara, Mataram City, West Nusa Tenggara 83239","North Cakranegara, Cakranegara, Mataram City",NUSA TENGGARA BARAT,83239.0,Indonesia,,,,-85.739.915,1.161.310.986,https://maps.google.com/?cid=0x0:0xab7cb1f8ea0a9aa5,
perumahan,Pembangunan Perumahan,"Jl. Pisang No.88, Mayura, Kec. Cakranegara, Kota Mataram, Nusa Tenggara Bar. 83239","Jl. Pisang No.88, Mayura, Kec. Cakranegara, Kota Mataram, Nusa Tenggara Bar. 83239","Mayura, Kec. Cakranegara, Kota Mataram",NUSA TENGGARA BARAT,83239.0,Indonesia,,,,-85.849.001,1.161.347.912,https://maps.google.com/?cid=0x0:0x73ec30cb850df06b,
perumahan,Perumahan,PERUMAHAN GRIYA PESONA ALAM,"C4MQ+WF9, Blk. ED, Dasan Geria, Kec. Lingsar, Kabupaten Lombok Barat, Nusa Tenggara Bar. 83239","Blk. ED, Dasan Geria, Kec. Lingsar, Kabupaten Lombok Barat",NUSA TENGGARA BARAT,83239.0,Indonesia,87865887215,,,-85.652.241,11.613.874,https://maps.google.com/?cid=0x0:0xfa8054909e711ea9,
perumahan,Komplek perumahan,BTN Tohpati Indah,"C4FH+XVP, Karang Taliwang, Kec. Cakranegara, Kota Mataram, Nusa Tenggara Bar. 83239","Karang Taliwang, Kec. Cakranegara, Kota Mataram",NUSA TENGGARA BARAT,83239.0,Indonesia,,,,-85.750.457,1.161.297.051,https://maps.google.com/?cid=0x0:0xde68bb286c7cec0a,
perumahan,Komplek perumahan,Zahra house,"Jl. Nangka No.17, Cakranegara Utara, Kec. Cakranegara, Kota Mataram, Nusa Tenggara Bar. 83239","Cakranegara Utara, Kec. Cakranegara, Kota Mataram",NUSA TENGGARA BARAT,83239.0,Indonesia,,,,-85.777.932,1.161.316.704,https://maps.google.com/?cid=0x0:0xc6060a10c21382ff,
perumahan,Pembangunan Perumahan,I Wayan Puspa Wijaya Kusuma,"Jl. Ki Hajar Dewantara Gang Anyelir No.6, Karang Taliwang, Kec. Cakranegara, Kota Mataram, Nusa Tenggara Bar. 83239","Karang Taliwang, Kec. Cakranegara, Kota Mataram",NUSA TENGGARA BARAT,83239.0,Indonesia,,,,-85.743.163,1.161.263.379,https://maps.google.com/?cid=0x0:0xf1fad2d2da7f2105,
perumahan,perumahan,Nusa Tenggara Bar. 83117,"Kec. Mataram, Kota Mataram, Nusa Tenggara Bar.","Kota Mataram, Nusa Tenggara Bar.",NUSA TENGGARA BARAT,,Indonesia,,,,-86.080.603,1.161.049.214,https://maps.google.com/?cid=0x0:0x1c00c5eb6016c4f0,
perumahan,Otoritas Perumahan,Pagutan Residence,"94R5+82M, Jl. Batu Bolong, Pagutan Bar., Kec. Mataram, Kota Mataram, Nusa Tenggara Bar. 83117","Jl. Batu Bolong, Pagutan Bar., Kec. Mataram, Kota Mataram",NUSA TENGGARA BARAT,83117.0,Indonesia,,,,-86.091.711,1.161.075.423,https://maps.google.com/?cid=0x0:0x191ab1930446d6c1,
perumahan,Perhimpunan Pengembang Perumahan,Pagutan Regency,"94R5+8WQ, Jl. Batu Bolong, Pagutan Bar., Kec. Mataram, Kota Mataram, Nusa Tenggara Bar. 83117","Jl. Batu Bolong, Pagutan Bar., Kec. Mataram, Kota Mataram",NUSA TENGGARA BARAT,83117.0,Indonesia,,,,-86.091.535,1.161.098.443,https://maps.google.com/?cid=0x0:0xad3d7760b5383a33,
perumahan,Komplek perumahan,PERMATA PAGUTAN,"94P5+8F6, Jl. Bhanda Sraya, Pagutan Bar., Kec. Mataram, Kota Mataram, Nusa Tenggara Bar. 83127","Jl. Bhanda Sraya, Pagutan Bar., Kec. Mataram, Kota Mataram",NUSA TENGGARA BARAT,83127.0,Indonesia,,,,-86.142.241,1.161.086.457,https://maps.google.com/?cid=0x0:0xe2c901c8e1df7bd1,
perumahan,Kantor Perusahaan,Aura Mutiara,"94R4+VRW, Perum Aura mutiara I sd III, Jl. Batu Bolong, RT.015/RW.96, Pagutan Bar., Kec. Mataram, Kota Mataram, Nusa Tenggara Bar. 83117","Perum Aura mutiara I sd III, Jl. Batu Bolong, RT.015/RW.96, Pagutan Bar., Kec. Mataram, Kota Mataram",NUSA TENGGARA BARAT,83117.0,Indonesia,,,,-86.077.514,1.161.070.864,https://maps.google.com/?cid=0x0:0xc9b64498d87fa8a2,
perumahan,Pembangunan Perumahan,Lingkar Pratama,"Lingkar Pratama, Jl. Flamboyan Jl. Lingkar Selatan No.2 blok X, Pagutan, Kec. Mataram, Kota Mataram, Nusa Tenggara Bar. 83117","Jl. Flamboyan Jl. Lingkar Selatan No.2 blok X, Pagutan, Kec. Mataram, Kota Mataram",NUSA TENGGARA BARAT,83117.0,Indonesia,,,,-8.615.073,116.106.354,https://maps.google.com/?cid=0x0:0xc9fbfa2ab3678107,
perumahan,Pembangunan Perumahan,RiCaRi TransLombok,"Jl. Danau Matana No.16, Pagutan Bar., Kec. Mataram, Kota Mataram, Nusa Tenggara Bar. 83117","Pagutan Bar., Kec. Mataram, Kota Mataram",NUSA TENGGARA BARAT,83117.0,Indonesia,,,,-86.067.571,1.161.094.379,https://maps.google.com/?cid=0x0:0xb65b74405eff66ca,
perumahan,Komplek perumahan,Rumahku,"Jl. Pantai Nipah No.55, Pagutan Bar., Kec. Mataram, Kota Mataram, Nusa Tenggara Bar. 83117","Pagutan Bar., Kec. Mataram, Kota Mataram",NUSA TENGGARA BARAT,83117.0,Indonesia,,,,-86.109.373,1.161.056.208,https://maps.google.com/?cid=0x0:0x227a942aab69d26d,
perumahan,Komplek perumahan,Rumah Oramahi,"Jl. Asoka No.SB-06, Pagutan, Kec. Mataram, Kota Mataram, Nusa Tenggara Bar. 83117","Pagutan, Kec. Mataram, Kota Mataram",NUSA TENGGARA BARAT,83117.0,Indonesia,,,,-86.148.148,1.161.063.993,https://maps.google.com/?cid=0x0:0xa5d0e33fef62c90c,
perumahan,Komplek perumahan,Citra Mutiara,"Jl. Banda Seraya, Pagutan Bar., Kec. Mataram, Kota Mataram, Nusa Tenggara Bar. 83116","Pagutan Bar., Kec. Mataram, Kota Mataram",NUSA TENGGARA BARAT,83116.0,Indonesia,,,,-86.152.733,1.161.041.886,https://maps.google.com/?cid=0x0:0x2b7a17f80b9713aa,
perumahan,perumahan,Rumah Tinggal Aba Yadi,"Jl. Sunan Bonang No.20, Jempong Baru, Kec. Sekarbela, Kota Mataram, Nusa Tenggara Bar. 83116","Jempong Baru, Kec. Sekarbela, Kota Mataram",NUSA TENGGARA BARAT,83116.0,Indonesia,,,,-8.612.668,116.097.884,https://maps.google.com/?cid=0x0:0xa15dd0e981acbe36,
perumahan,Perhimpunan Pengembang Perumahan,Griya Pagutan Indah,"Jl. Pantai Melayu No.7, Pagutan Bar., Kec. Mataram, Kota Mataram, Nusa Tenggara Bar. 83127","Pagutan Bar., Kec. Mataram, Kota Mataram",NUSA TENGGARA BARAT,83127.0,Indonesia,,,,-86.120.919,116.105.091,https://maps.google.com/?cid=0x0:0xdd3fab98b514abd5,
perumahan,Perhimpunan Pengembang Perumahan,Rumah saya,"94Q5+PQW, Kebon daya indah, Pagutan Bar., Kec. Mataram, Kota Mataram, Nusa Tenggara Bar. 83117","Kebon daya indah, Pagutan Bar., Kec. Mataram, Kota Mataram",NUSA TENGGARA BARAT,83117.0,Indonesia,85934705869,,,-86.106.305,1.161.094.603,https://maps.google.com/?cid=0x0:0xc0569444528c5bdf,
perumahan,Komplek perumahan,A10,"94R3+HPF, Pagutan Bar., Kec. Mataram, Kota Mataram, Nusa Tenggara Bar. 83117","Pagutan Bar., Kec. Mataram, Kota Mataram",NUSA TENGGARA BARAT,83117.0,Indonesia,,,,-86.085.708,1.161.042.888,https://maps.google.com/?cid=0x0:0xbbc99049ec956d15,
perumahan,Asosiasi Penduduk,Perumahan Mekar Permai,"Perumahan Mekar Permai Jl. Guru Bangkol No.E74, Pagesangan Tim., Kec. Mataram, Kota Mataram, Nusa Tenggara Bar. 83127","Pagesangan Tim., Kec. Mataram, Kota Mataram",NUSA TENGGARA BARAT,83127.0,Indonesia,,,,-85.993.361,1.161.121.111,https://maps.google.com/?cid=0x0:0xf833b7c9aca34615,
perumahan,Penginapan,Perumahan Pagutan Asri No.18,"94Q6+9P8, Pagutan Bar., Kec. Mataram, Kota Mataram, Nusa Tenggara Bar. 83127","Pagutan Bar., Kec. Mataram, Kota Mataram",NUSA TENGGARA BARAT,83127.0,Indonesia,,,,-86.115.769,1.161.118.403,https://maps.google.com/?cid=0x0:0x7b21311e27e93084,
perumahan,Komplek perumahan,Citra Pagutan Indah,"94Q5+JC8, Pagutan Bar., Kec. Mataram, Kota Mataram, Nusa Tenggara Bar. 83117","Pagutan Bar., Kec. Mataram, Kota Mataram",NUSA TENGGARA BARAT,83117.0,Indonesia,81803642081,,,-86.109.523,1.161.085.657,https://maps.google.com/?cid=0x0:0xaf7c492eff0f9928,
perumahan,Komplek perumahan,Blok U-5,"94M3+WMH Citra Mutiara, Jl. Banda Seraya, Pagutan, Kec. Mataram, Kota Mataram, Nusa Tenggara Bar. 83117","Jl. Banda Seraya, Pagutan, Kec. Mataram, Kota Mataram",NUSA TENGGARA BARAT,83117.0,Indonesia,,,,-86.151.752,1.161.042.418,https://maps.google.com/?cid=0x0:0x83e988dfff806848,
perumahan,Komplek perumahan,Rumah Qiamry,"Jl. Sunan Bonang II No.25 Blok G, Jempong Baru, Kec. Sekarbela, Kota Mataram, Nusa Tenggara Bar. 83116","Jempong Baru, Kec. Sekarbela, Kota Mataram",NUSA TENGGARA BARAT,83116.0,Indonesia,,,,-86.122.136,1.160.988.573,https://maps.google.com/?cid=0x0:0x3aaeb0d7d7e540d7,
perumahan,Otoritas Perumahan,Perumahan puri mutiara resident,"Perum puri mutiara resident, Jl. Gajah Mada Gg. Wonogiri No.19 blok A, Pagesangan, Kec. Mataram, Kota Mataram, Nusa Tenggara Bar. 83127","Jl. Gajah Mada Gg. Wonogiri No.19 blok A, Pagesangan, Kec. Mataram, Kota Mataram",NUSA TENGGARA BARAT,83127.0,Indonesia,82340492576,,,-85.984.475,1.161.014.545,https://maps.google.com/?cid=0x0:0xa845aa7640e11970,
perumahan,Komplek perumahan,Komplek Perumahan Aura Safir,"94R4+9H9, Pagutan Bar., Kec. Mataram, Kota Mataram, Nusa Tenggara Bar. 83117","Pagutan Bar., Kec. Mataram, Kota Mataram",NUSA TENGGARA BARAT,83117.0,Indonesia,,,,-86.090.813,1.161.064.858,https://maps.google.com/?cid=0x0:0xab42901e9730efb0,
perumahan,Komplek perumahan,Rumah Kenzie Kayana,"Perumahan Citra Mutiara Blok T 05, Pagutan Bar., Kec. Mataram, Kota Mataram, Nusa Tenggara Bar. 83117","Pagutan Bar., Kec. Mataram, Kota Mataram",NUSA TENGGARA BARAT,83117.0,Indonesia,,,,-86.152.796,1.161.044.826,https://maps.google.com/?cid=0x0:0x7b23ccafd80cab10,
perumahan,Komplek perumahan,Perumahan Pagutan Asri,"94Q5+25C, Jl. Banda Seraya, Pagutan Bar., Kec. Mataram, Kota Mataram, Nusa Tenggara Bar. 83127","Jl. Banda Seraya, Pagutan Bar., Kec. Mataram, Kota Mataram",NUSA TENGGARA BARAT,83127.0,Indonesia,,,,-86.124.277,1.161.078.957,https://maps.google.com/?cid=0x0:0xcfaae83a53a07ae9,
perumahan,Komplek perumahan,Dagang,"Jl. Danau Tondano No.21, Pagutan Bar., Kec. Mataram, Kota Mataram, Nusa Tenggara Bar. 83117","Pagutan Bar., Kec. Mataram, Kota Mataram",NUSA TENGGARA BARAT,83117.0,Indonesia,,,,-86.075.223,1.161.088.895,https://maps.google.com/?cid=0x0:0xc425666f27cf01d5,
perumahan,Pembangunan Perumahan,Janur ichwanullah,"94P6+V4G, Gg. Seruni, Pagutan Bar., Kec. Mataram, Kota Mataram, Nusa Tenggara Bar. 83117","Gg. Seruni, Pagutan Bar., Kec. Mataram, Kota Mataram",NUSA TENGGARA BARAT,83117.0,Indonesia,85333144991,,,-86.128.205,1.161.103.387,https://maps.google.com/?cid=0x0:0xc9d809e54259883a,
perumahan,perumahan,Nusa Tenggara Bar. 83121,"Mataram Tim., Kec. Mataram, Kota Mataram, Nusa Tenggara Bar.","Kota Mataram, Nusa Tenggara Bar.",NUSA TENGGARA BARAT,,Indonesia,,,,-85.878.591,1.161.114.668,https://maps.google.com/?cid=0x0:0xc247960b7e3e7023,
perumahan,Komplek perumahan,Primagara,"C466+VH4, Mataram Tim., Kec. Mataram, Kota Mataram, Nusa Tenggara Bar. 83121","Mataram Tim., Kec. Mataram, Kota Mataram",NUSA TENGGARA BARAT,83121.0,Indonesia,817363181,,,-85.878.591,1.161.114.668,https://maps.google.com/?cid=0x0:0x9e64505a652ddb84,
perumahan,Komplek perumahan,Rumah saya,"Jl. Gendang Beleq No.4, Mataram Tim., Kec. Mataram, Kota Mataram, Nusa Tenggara Bar. 83127","Mataram Tim., Kec. Mataram, Kota Mataram",NUSA TENGGARA BARAT,83127.0,Indonesia,,,,-85.884.695,1.161.114.429,https://maps.google.com/?cid=0x0:0xb862e04368d5d654,
perumahan,Komplek perumahan,Abah Zaki,"Jl. Amir Hamzah No.24, Karang Sukun, Mataram Tim., Kec. Mataram, Kota Mataram, Nusa Tenggara Bar. 83121","Karang Sukun, Mataram Tim., Kec. Mataram, Kota Mataram",NUSA TENGGARA BARAT,83121.0,Indonesia,,,,-8.588.103,1.161.101.908,https://maps.google.com/?cid=0x0:0x2bf031aa35dfad98,
perumahan,Perhimpunan Pengembang Perumahan,Gg harimau,"C476+3MW, Jl. Amir Hamzah, Mataram Tim., Kec. Mataram, Kota Mataram, Nusa Tenggara Bar.","Kota Mataram, Nusa Tenggara Bar.",NUSA TENGGARA BARAT,,Indonesia,,,,-85.872.571,1.161.117.046,https://maps.google.com/?cid=0x0:0xe843dc35fbe9c403,
perumahan,Komplek perumahan,Rumah ku,"Jl. Kali Brantas No.A1, Kr, Sukun, Kota Mataram, Nusa Tenggara Bar.","Kota Mataram, Nusa Tenggara Bar.",NUSA TENGGARA BARAT,,Indonesia,,,,-85.873.678,1.161.122.045,https://maps.google.com/?cid=0x0:0x540b318f75081612,
perumahan,Komplek perumahan,Gde zuma karsun,"Jl. Gendang Beleq No.4, Mataram Tim., Kec. Mataram, Kota Mataram, Nusa Tenggara Bar. 83127","Mataram Tim., Kec. Mataram, Kota Mataram",NUSA TENGGARA BARAT,83127.0,Indonesia,87864871301,,,-85.884.294,1.161.115.338,https://maps.google.com/?cid=0x0:0x811bba839a2b053,
perumahan,perumahan,Rumah zainuddin,"Jl. Amir Hamzah No.88, Mataram Tim., Kec. Mataram, Kota Mataram, Nusa Tenggara Bar. 83127","Mataram Tim., Kec. Mataram, Kota Mataram",NUSA TENGGARA BARAT,83127.0,Indonesia,,,,-85.877.568,1.161.108.903,https://maps.google.com/?cid=0x0:0x332613e3ee23b1ca,
perumahan,Developer Rumah Hunian Khusus,Rumah Subsidi,"C442+5JC, Jl. Sriwijaya, Punia, Kec. Mataram, Kota Mataram, Nusa Tenggara Bar. 83237","Jl. Sriwijaya, Punia, Kec. Mataram, Kota Mataram",NUSA TENGGARA BARAT,83237.0,Indonesia,,,,-85.945.545,1.161.015.219,https://maps.google.com/?cid=0x0:0x29076be954507016,
perumahan,Komplek perumahan,Gg Actor Kr Sukun Mataram,"C476+335, Mataram Bar., Kec. Selaparang, Kota Mataram, Nusa Tenggara Bar. 83122","Mataram Bar., Kec. Selaparang, Kota Mataram",NUSA TENGGARA BARAT,83122.0,Indonesia,,,,-85.873.864,1.161.100.783,https://maps.google.com/?cid=0x0:0x4293b544422d27dd,
perumahan,Penginapan,Perumahan elite Mataram,"93JM+H85, Jempong Baru, Kec. Sekarbela, Kota Mataram, Nusa Tenggara Bar. 83361","Jempong Baru, Kec. Sekarbela, Kota Mataram",NUSA TENGGARA BARAT,83361.0,Indonesia,,,,-86.142.877,1.160.856.552,https://maps.google.com/?cid=0x0:0x765ad1205443eaaa,
perumahan,Komplek perumahan,Rumah dan Kios,"Jln alokasia blok A1/A3, Kekalik Jaya, Kec. Sekarbela, Kota Mataram, Nusa Tenggara Bar. 83115","Kekalik Jaya, Kec. Sekarbela, Kota Mataram",NUSA TENGGARA BARAT,83115.0,Indonesia,,,,-85.921.413,1.160.822.275,https://maps.google.com/?cid=0x0:0x2c74805e591ebb99,
perumahan,Perumahan,PERUMAHAN GRIYA PESONA ALAM,"C4MQ+WF9, Blk. ED, Dasan Geria, Kec. Lingsar, Kabupaten Lombok Barat, Nusa Tenggara Bar. 83239","Blk. ED, Dasan Geria, Kec. Lingsar, Kabupaten Lombok Barat",NUSA TENGGARA BARAT,83239.0,Indonesia,87865887215,,,-85.652.241,11.613.874,https://maps.google.com/?cid=0x0:0xfa8054909e711ea9,
perumahan,Perhimpunan Pengembang Perumahan,Pt. Lambang Sejati,"Jl. A. A Gede Ngurah No.128, Cakranegara Sel. Baru, Kec. Cakranegara, Kota Mataram, Nusa Tenggara Bar. 83239","Cakranegara Sel. Baru, Kec. Cakranegara, Kota Mataram",NUSA TENGGARA BARAT,83239.0,Indonesia,370633182,,,-85.979.845,1.161.294.507,https://maps.google.com/?cid=0x0:0xcdcf96d1351d9581,
perumahan,perumahan,Gajah Mada Residence,"Gg. Teratai, Jempong Baru, Kec. Sekarbela, Kota Mataram, Nusa Tenggara Bar. 83116","Jempong Baru, Kec. Sekarbela, Kota Mataram",NUSA TENGGARA BARAT,83116.0,Indonesia,2129707601,,,-86.155.533,1.160.925.237,https://maps.google.com/?cid=0x0:0xace7456aabc72bef,
perumahan,perumahan,Hotel UIN Mataram,"Jempong Baru, Kec. Sekarbela, Kota Mataram, Nusa Tenggara Bar. 83116","Kec. Sekarbela, Kota Mataram",NUSA TENGGARA BARAT,83116.0,Indonesia,2129707601,,,-86.090.625,1.161.016.875,https://maps.google.com/?cid=0x0:0x86ab28629f917325,
perumahan,perumahan,RedDoorz near Siloam Hospital Mataram,"Jl. Ancar I No.14, Pagesangan Bar., Kec. Mataram, Kota Mataram, Nusa Tenggara Bar. 83125","Pagesangan Bar., Kec. Mataram, Kota Mataram",NUSA TENGGARA BARAT,83125.0,Indonesia,"8,95417E+11",,,-85.968.993,1.160.982.431,https://maps.google.com/?cid=0x0:0x2ea195a247aa16b9,
perumahan,perumahan,RedDoorz @ Tienery Guest House,"Jl. Swasembada No.40 C, Kekalik Jaya, Kec. Sekarbela, Kota Mataram, Nusa Tenggara Bar. 83115","Kekalik Jaya, Kec. Sekarbela, Kota Mataram",NUSA TENGGARA BARAT,83115.0,Indonesia,"8,95417E+11",,,-85.940.023,1.160.891.336,https://maps.google.com/?cid=0x0:0xe3d2ced2a0f58f0f,
perumahan,perumahan,OYO 90820 Madania Guesthouse,"6, Jalan Jepara, Komplek Rumah Dinas Polda NTB, Kel. Punia, Mataram. Kec Mataram, Nusa Tenggara Barat, 83133, Lombok, Blok Lombok, Nusa Tenggara Bar. 83000","Jalan Jepara, Komplek Rumah Dinas Polda NTB, Kel. Punia, Mataram. Kec Mataram, Nusa Tenggara Barat,",NUSA TENGGARA BARAT,83133.0,Indonesia,2129707601,,,-85.938.749,1.161.025.406,https://maps.google.com/?cid=0x0:0x95e8bb7c30749370,
perumahan,perumahan,Pantai Senggigi,Nusa Tenggara Bar.,Nusa Tenggara Bar.,NUSA TENGGARA BARAT,,Indonesia,,,,-84.787.343,1.160.376.085,https://maps.google.com/?cid=0x0:0xcc02a56300f22ec9,
perumahan,Bandara Regional,Bandar Udara Internasional Lombok,"Jl. Bypass BIL - Mandalika, Tanak Awu, Kec. Pujut, Kabupaten Lombok Tengah, Nusa Tenggara Bar. 83573","Tanak Awu, Kec. Pujut, Kabupaten Lombok Tengah",NUSA TENGGARA BARAT,83573.0,Indonesia,82185041272,,,-87.607.069,1.162.754.775,https://maps.google.com/?cid=0x0:0xc3c7d00a4024ad3c,
perumahan,Komplek perumahan,Mandalika Harmony,"Selagalas, Kec. Sandubaya, Kota Mataram, Nusa Tenggara Bar.","Kota Mataram, Nusa Tenggara Bar.",NUSA TENGGARA BARAT,,Indonesia,370633182,,,-85.905.568,1.161.547.884,https://maps.google.com/?cid=0x0:0x7df80c02c5a2bded,
perumahan,perumahan,Nusa Tenggara Bar. 83127,"Kec. Mataram, Kota Mataram, Nusa Tenggara Bar.","Kota Mataram, Nusa Tenggara Bar.",NUSA TENGGARA BARAT,,Indonesia,,,,-85.985.216,1.161.152.624,https://maps.google.com/?cid=0x0:0x1c00c5eb6016c6c0,
perumahan,Komplek perumahan,Perumahan Sriwijaya Permai,"C447+JV4, Jl. Sriwijaya, Cilinaya, Permai, Kota Mataram, Nusa Tenggara Bar. 83127","Jl. Sriwijaya, Cilinaya, Permai, Kota Mataram",NUSA TENGGARA BARAT,83127.0,Indonesia,,,,-85.934.932,1.161.147.117,https://maps.google.com/?cid=0x0:0x4c9fb1c5da8fe020,
perumahan,Komplek perumahan,Perumahan Gebang Satria Permai,"94X9+6X8, Jl. I Gusti Jelantik Gosa, Pagesangan Tim., Kec. Mataram, Kota Mataram, Nusa Tenggara Bar. 83121","Jl. I Gusti Jelantik Gosa, Pagesangan Tim., Kec. Mataram, Kota Mataram",NUSA TENGGARA BARAT,83121.0,Indonesia,,,,-86.019.505,1.161.199.531,https://maps.google.com/?cid=0x0:0x767b0e26fcb6714d,
perumahan,Pembangunan Perumahan,CRYSTAL REGENCY,"C456+8M3, Jl. Bung Karno, Mataram Tim., Kec. Mataram, Kota Mataram, Nusa Tenggara Bar. 83127","Jl. Bung Karno, Mataram Tim., Kec. Mataram, Kota Mataram",NUSA TENGGARA BARAT,83127.0,Indonesia,81905016888,,,-85.917.435,1.161.116.809,https://maps.google.com/?cid=0x0:0xb14ce7e0f4126809,
perumahan,perumahan,Taman Mutiara Jl.Lobster No.48,"Jl. Lobster No.48, Pagutan Bar., Kec. Mataram, Kota Mataram, Nusa Tenggara Bar. 83127","Pagutan Bar., Kec. Mataram, Kota Mataram",NUSA TENGGARA BARAT,83127.0,Indonesia,,,,-86.053.015,1.161.111.974,https://maps.google.com/?cid=0x0:0xfa797f5610cae20,
perumahan,perumahan,TUDEK_KOST,"Belatung, Jl. Bung Karno Gg. Tunjung No.VII, Pagutan Bar., Kec. Mataram, Kota Mataram, Nusa Tenggara Bar. 83127","Jl. Bung Karno Gg. Tunjung No.VII, Pagutan Bar., Kec. Mataram, Kota Mataram",NUSA TENGGARA BARAT,83127.0,Indonesia,,,,-86.100.284,1.161.114.506,https://maps.google.com/?cid=0x0:0xd738143330f25452,
perumahan,Pembangunan Perumahan,RiCaRi TransLombok,"Jl. Danau Matana No.16, Pagutan Bar., Kec. Mataram, Kota Mataram, Nusa Tenggara Bar. 83117","Pagutan Bar., Kec. Mataram, Kota Mataram",NUSA TENGGARA BARAT,83117.0,Indonesia,,,,-86.067.571,1.161.094.379,https://maps.google.com/?cid=0x0:0xb65b74405eff66ca,
perumahan,Komplek perumahan,Rumah saya,"Jl. Gendang Beleq No.4, Mataram Tim., Kec. Mataram, Kota Mataram, Nusa Tenggara Bar. 83127","Mataram Tim., Kec. Mataram, Kota Mataram",NUSA TENGGARA BARAT,83127.0,Indonesia,,,,-85.884.695,1.161.114.429,https://maps.google.com/?cid=0x0:0xb862e04368d5d654,
perumahan,Perhimpunan Pengembang Perumahan,Griya Pagutan Indah,"Jl. Pantai Melayu No.7, Pagutan Bar., Kec. Mataram, Kota Mataram, Nusa Tenggara Bar. 83127","Pagutan Bar., Kec. Mataram, Kota Mataram",NUSA TENGGARA BARAT,83127.0,Indonesia,,,,-86.120.919,116.105.091,https://maps.google.com/?cid=0x0:0xdd3fab98b514abd5,
perumahan,Komplek perumahan,Perumahan Pondok Sriwijaya,"C458+393, Jl. Sriwijaya, Cilinaya, Kec. Cakranegara, Kota Mataram, Nusa Tenggara Bar. 83127","Jl. Sriwijaya, Cilinaya, Kec. Cakranegara, Kota Mataram",NUSA TENGGARA BARAT,83127.0,Indonesia,,,,-85.923.633,1.161.159.235,https://maps.google.com/?cid=0x0:0x9f94e4e08e0f9d51,
perumahan,Komplek perumahan,PERMATA PAGUTAN,"94P5+8F6, Jl. Bhanda Sraya, Pagutan Bar., Kec. Mataram, Kota Mataram, Nusa Tenggara Bar. 83127","Jl. Bhanda Sraya, Pagutan Bar., Kec. Mataram, Kota Mataram",NUSA TENGGARA BARAT,83127.0,Indonesia,,,,-86.142.241,1.161.086.457,https://maps.google.com/?cid=0x0:0xe2c901c8e1df7bd1,
perumahan,Komplek perumahan,Rumah Gebang,"C428+68V, Jl. Merpati, Pagesangan Tim., Kec. Mataram, Kota Mataram, Nusa Tenggara Bar. 83127","Jl. Merpati, Pagesangan Tim., Kec. Mataram, Kota Mataram",NUSA TENGGARA BARAT,83127.0,Indonesia,,,,-85.993.962,1.161.158.038,https://maps.google.com/?cid=0x0:0x100e9029910985de,
perumahan,Penginapan,Perumahan Pagutan Asri No.18,"94Q6+9P8, Pagutan Bar., Kec. Mataram, Kota Mataram, Nusa Tenggara Bar. 83127","Pagutan Bar., Kec. Mataram, Kota Mataram",NUSA TENGGARA BARAT,83127.0,Indonesia,,,,-86.115.769,1.161.118.403,https://maps.google.com/?cid=0x0:0x7b21311e27e93084,
perumahan,Otoritas Perumahan,BTN Taman Mutiara,"Rumah Sakit Biomedika, Jl. Bung Karno No.143, Pagutan Bar., Kec. Mataram, Kota Mataram, Nusa Tenggara Bar. 83127","Jl. Bung Karno No.143, Pagutan Bar., Kec. Mataram, Kota Mataram",NUSA TENGGARA BARAT,83127.0,Indonesia,,,,-86.054.533,1.161.122.488,https://maps.google.com/?cid=0x0:0xa039438eea737b10,
perumahan,Kantor Perusahaan,PT. Salva Inti Property,"Jl. Bung Karno No.46, Pagutan Bar., Kec. Mataram, Kota Mataram, Nusa Tenggara Bar. 83127","Pagutan Bar., Kec. Mataram, Kota Mataram",NUSA TENGGARA BARAT,83127.0,Indonesia,87865044003,,,-86.097.607,1.161.144.776,https://maps.google.com/?cid=0x0:0x771039dc3202361e,
perumahan,Komplek perumahan,Rumah piyo,"Pagutan Tim., Kec. Mataram, Kota Mataram, Nusa Tenggara Bar. 83127","Kec. Mataram, Kota Mataram",NUSA TENGGARA BARAT,83127.0,Indonesia,,,,-86.057.878,1.161.152.577,https://maps.google.com/?cid=0x0:0x4937f351420dbca0,
perumahan,Komplek perumahan,Rumah Miq Jaya,"Jl. Kulintang IV No.10, Mataram Tim., Kec. Mataram, Kota Mataram, Nusa Tenggara Bar. 83127","Mataram Tim., Kec. Mataram, Kota Mataram",NUSA TENGGARA BARAT,83127.0,Indonesia,,,,-85.931.908,1.161.102.895,https://maps.google.com/?cid=0x0:0x146c605cffe41a47,
perumahan,Otoritas Perumahan,Perumahan puri mutiara resident,"Perum puri mutiara resident, Jl. Gajah Mada Gg. Wonogiri No.19 blok A, Pagesangan, Kec. Mataram, Kota Mataram, Nusa Tenggara Bar. 83127","Jl. Gajah Mada Gg. Wonogiri No.19 blok A, Pagesangan, Kec. Mataram, Kota Mataram",NUSA TENGGARA BARAT,83127.0,Indonesia,82340492576,,,-85.984.475,1.161.014.545,https://maps.google.com/?cid=0x0:0xa845aa7640e11970,
perumahan,Otoritas Perumahan,Pagutan Residence,"94R5+82M, Jl. Batu Bolong, Pagutan Bar., Kec. Mataram, Kota Mataram, Nusa Tenggara Bar. 83117","Jl. Batu Bolong, Pagutan Bar., Kec. Mataram, Kota Mataram",NUSA TENGGARA BARAT,83117.0,Indonesia,,,,-86.091.711,1.161.075.423,https://maps.google.com/?cid=0x0:0x191ab1930446d6c1,
perumahan,Komplek perumahan,Rumah Riyo,"C428+47H, Jl. Merpati Gang angsa, Pagesangan Tim., Kec. Mataram, Kota Mataram, Nusa Tenggara Bar. 83127","Jl. Merpati Gang angsa, Pagesangan Tim., Kec. Mataram, Kota Mataram",NUSA TENGGARA BARAT,83127.0,Indonesia,,,,-85.996.802,1.161.157.445,https://maps.google.com/?cid=0x0:0x3376583ad30695a8,
perumahan,Perumahan,Villa Pagutan Madani,"94P5+W6H, Pagutan Bar., Kec. Mataram, Kota Mataram, Nusa Tenggara Bar. 83127","Pagutan Bar., Kec. Mataram, Kota Mataram",NUSA TENGGARA BARAT,83127.0,Indonesia,87844223699,,,-8.612.683,1.161.081.033,https://maps.google.com/?cid=0x0:0xe7434ede8085ce8c,
perumahan,Perhimpunan Pengembang Perumahan,Pagutan Asri Residence,"Jl. Raden Mas Panji Anom, Pagutan Tim., Kec. Mataram, Kota Mataram, Nusa Tenggara Bar. 83127","Pagutan Tim., Kec. Mataram, Kota Mataram",NUSA TENGGARA BARAT,83127.0,Indonesia,,,,-86.072.038,1.161.227.227,https://maps.google.com/?cid=0x0:0x6a79ee87934698f1,
perumahan,Komplek perumahan,Rumah Juliyasa,"94Q7+W5J, Pagutan Bar., Kec. Mataram, Kota Mataram, Nusa Tenggara Bar. 83127","Pagutan Bar., Kec. Mataram, Kota Mataram",NUSA TENGGARA BARAT,83127.0,Indonesia,,,,-86.096.893,1.161.124.635,https://maps.google.com/?cid=0x0:0xb23fb9d6a89151e4,
perumahan,Komplek perumahan,Rumah Bayu Setia,"Jl. Telex II No.1, Mataram Tim., Kec. Mataram, Kota Mataram, Nusa Tenggara Bar. 83127","Mataram Tim., Kec. Mataram, Kota Mataram",NUSA TENGGARA BARAT,83127.0,Indonesia,,,,-85.905.766,1.161.087.731,https://maps.google.com/?cid=0x0:0x729f78e27f35b2b6,
perumahan,Pembangunan Perumahan,Perumahan Sandubaya Rayya,"C588+6W6, Jl. Gontoran, Lingsar, Kec. Lingsar, Kabupaten Lombok Barat, Nusa Tenggara Bar. 83371","Jl. Gontoran, Lingsar, Kec. Lingsar, Kabupaten Lombok Barat",NUSA TENGGARA BARAT,83371.0,Indonesia,,,,-85.847.044,1.161.671.527,https://maps.google.com/?cid=0x0:0x4adfc682b49c57e9,
perumahan,Komplek perumahan,Griya Mandara,"Dasan Geria, Kec. Lingsar, Kabupaten Lombok Barat, Nusa Tenggara Bar.","Kabupaten Lombok Barat, Nusa Tenggara Bar.",NUSA TENGGARA BARAT,,Indonesia,87744770261,,,-85.629.152,1.161.380.094,https://maps.google.com/?cid=0x0:0xa310540b1e283500,
perumahan,Komplek perumahan,Ilona House,"C588+4M9, Jl. Gontoran, Lingsar, Kec. Lingsar, Kabupaten Lombok Barat, Nusa Tenggara Bar. 83371","Jl. Gontoran, Lingsar, Kec. Lingsar, Kabupaten Lombok Barat",NUSA TENGGARA BARAT,83371.0,Indonesia,,,,-85.859.927,1.161.667.356,https://maps.google.com/?cid=0x0:0x38ebf2d6555c9a29,
perumahan,Pembangunan Perumahan,Perumahan Sandubaya Rayya,"C588+6W6, Jl. Gontoran, Lingsar, Kec. Lingsar, Kabupaten Lombok Barat, Nusa Tenggara Bar. 83371","Jl. Gontoran, Lingsar, Kec. Lingsar, Kabupaten Lombok Barat",NUSA TENGGARA BARAT,83371.0,Indonesia,,,,-85.847.044,1.161.671.527,https://maps.google.com/?cid=0x0:0x4adfc682b49c57e9,
perumahan,Komplek perumahan,Griya Mandara,"Dasan Geria, Kec. Lingsar, Kabupaten Lombok Barat, Nusa Tenggara Bar.","Kabupaten Lombok Barat, Nusa Tenggara Bar.",NUSA TENGGARA BARAT,,Indonesia,87744770261,,,-85.629.152,1.161.380.094,https://maps.google.com/?cid=0x0:0xa310540b1e283500,
perumahan,Komplek perumahan,Ilona House,"C588+4M9, Jl. Gontoran, Lingsar, Kec. Lingsar, Kabupaten Lombok Barat, Nusa Tenggara Bar. 83371","Jl. Gontoran, Lingsar, Kec. Lingsar, Kabupaten Lombok Barat",NUSA TENGGARA BARAT,83371.0,Indonesia,,,,-85.859.927,1.161.667.356,https://maps.google.com/?cid=0x0:0x38ebf2d6555c9a29,
perumahan,Pembangunan Perumahan,Perumahan Sandubaya Rayya,"C588+6W6, Jl. Gontoran, Lingsar, Kec. Lingsar, Kabupaten Lombok Barat, Nusa Tenggara Bar. 83371","Jl. Gontoran, Lingsar, Kec. Lingsar, Kabupaten Lombok Barat",NUSA TENGGARA BARAT,83371.0,Indonesia,,,,-85.847.044,1.161.671.527,https://maps.google.com/?cid=0x0:0x4adfc682b49c57e9,
perumahan,Komplek perumahan,Griya Mandara,"Dasan Geria, Kec. Lingsar, Kabupaten Lombok Barat, Nusa Tenggara Bar.","Kabupaten Lombok Barat, Nusa Tenggara Bar.",NUSA TENGGARA BARAT,,Indonesia,87744770261,,,-85.629.152,1.161.380.094,https://maps.google.com/?cid=0x0:0xa310540b1e283500,
perumahan,Komplek perumahan,Ilona House,"C588+4M9, Jl. Gontoran, Lingsar, Kec. Lingsar, Kabupaten Lombok Barat, Nusa Tenggara Bar. 83371","Jl. Gontoran, Lingsar, Kec. Lingsar, Kabupaten Lombok Barat",NUSA TENGGARA BARAT,83371.0,Indonesia,,,,-85.859.927,1.161.667.356,https://maps.google.com/?cid=0x0:0x38ebf2d6555c9a29,
perumahan,Toko Pakaian Wanita,Jaya Raya,"Pertokoan Mandalika, Blok Y No. 3 Komplek, Jl. Ps. Bertais, Bertais, Kec. Sandubaya, Kota Mataram, Nusa Tenggara Bar. 83236","Blok Y No. 3 Komplek, Jl. Ps. Bertais, Bertais, Kec. Sandubaya, Kota Mataram",NUSA TENGGARA BARAT,83236.0,Indonesia,,,,-85.962.453,1.161.579.243,https://maps.google.com/?cid=0x0:0x6976aaccf66b30f9,
perumahan,Komplek perumahan,Perumahan Telaga Ananta,"Kebun Sudak, Telaga Waru, Labuapi, West Lombok Regency, West Nusa Tenggara 83361","Telaga Waru, Labuapi, West Lombok Regency",NUSA TENGGARA BARAT,83361.0,Indonesia,87860001116,,,-86.349.172,1.161.102.933,https://maps.google.com/?cid=0x0:0xff307f002e46de1b,
perumahan,Pembangunan Perumahan,Perumahan Sandubaya Rayya,"C588+6W6, Jl. Gontoran, Lingsar, Kec. Lingsar, Kabupaten Lombok Barat, Nusa Tenggara Bar. 83371","Jl. Gontoran, Lingsar, Kec. Lingsar, Kabupaten Lombok Barat",NUSA TENGGARA BARAT,83371.0,Indonesia,,,,-85.847.044,1.161.671.527,https://maps.google.com/?cid=0x0:0x4adfc682b49c57e9,
perumahan,Komplek perumahan,Griya Mandara,"Dasan Geria, Kec. Lingsar, Kabupaten Lombok Barat, Nusa Tenggara Bar.","Kabupaten Lombok Barat, Nusa Tenggara Bar.",NUSA TENGGARA BARAT,,Indonesia,87744770261,,,-85.629.152,1.161.380.094,https://maps.google.com/?cid=0x0:0xa310540b1e283500,
perumahan,Komplek perumahan,Ilona House,"C588+4M9, Jl. Gontoran, Lingsar, Kec. Lingsar, Kabupaten Lombok Barat, Nusa Tenggara Bar. 83371","Jl. Gontoran, Lingsar, Kec. Lingsar, Kabupaten Lombok Barat",NUSA TENGGARA BARAT,83371.0,Indonesia,,,,-85.859.927,1.161.667.356,https://maps.google.com/?cid=0x0:0x38ebf2d6555c9a29,
perumahan,perumahan,Nusa Tenggara Bar. 83115,"Kec. Sekarbela, Kota Mataram, Nusa Tenggara Bar.","Kota Mataram, Nusa Tenggara Bar.",NUSA TENGGARA BARAT,,Indonesia,,,,-85.917.653,116.087.193,https://maps.google.com/?cid=0x0:0x1c00c5eb6016c460,
perumahan,Komplek perumahan,jln.sultan kaharudin sekarbela karang pule mataram,"Jl. Sultan Kaharudin, Karang Pule, Kec. Sekarbela, Kota Mataram, Nusa Tenggara Bar. 83116","Karang Pule, Kec. Sekarbela, Kota Mataram",NUSA TENGGARA BARAT,83116.0,Indonesia,81907291281,,,-86.004.207,1.160.894.245,https://maps.google.com/?cid=0x0:0x3ce937327e4c5ae7,
perumahan,Komplek perumahan,rumah,"C32R+H7Q, Karang Pule, Kec. Sekarbela, Kota Mataram, Nusa Tenggara Bar. 83115","Karang Pule, Kec. Sekarbela, Kota Mataram",NUSA TENGGARA BARAT,83115.0,Indonesia,,,,-85.987.036,1.160.911.892,https://maps.google.com/?cid=0x0:0x771ee40bea79b939,
perumahan,Komplek perumahan,Graha Satelit,"93WJ+Q5G, Jl. Sultan Salahudin, Tj. Karang, Kec. Sekarbela, Kota Mataram, Nusa Tenggara Bar. 83115","Jl. Sultan Salahudin, Tj. Karang, Kec. Sekarbela, Kota Mataram",NUSA TENGGARA BARAT,83115.0,Indonesia,,,,-86.030.612,116.080.449,https://maps.google.com/?cid=0x0:0xa79ee9bc80858b9,
perumahan,Perumahan,Perumahan Green Royale Residence,"C35J+8C6, Jl. Swakarsa, Kekalik Jaya, Kec. Sekarbela, Kota Mataram, Nusa Tenggara Bar. 83114","Jl. Swakarsa, Kekalik Jaya, Kec. Sekarbela, Kota Mataram",NUSA TENGGARA BARAT,83114.0,Indonesia,,,,-85.917.203,1.160.810.283,https://maps.google.com/?cid=0x0:0xabbcc836fedc3ae3,
perumahan,Komplek perumahan,Perumahan srigati,"Jl. Airlangga Punia No.28, Kekalik Jaya, Kec. Sekarbela, Kota Mataram, Nusa Tenggara Bar. 83115","Kekalik Jaya, Kec. Sekarbela, Kota Mataram",NUSA TENGGARA BARAT,83115.0,Indonesia,,,,-85.908.207,1.160.997.393,https://maps.google.com/?cid=0x0:0xd8031513026a971b,
perumahan,Pembangunan Perumahan,Perumahan Parpostel Bumi Asri,"93XH+PX2, Jl. Sultan Salahudin, Tj. Karang, Kec. Sekarbela, Kota Mataram, Nusa Tenggara Bar. 83115","Jl. Sultan Salahudin, Tj. Karang, Kec. Sekarbela, Kota Mataram",NUSA TENGGARA BARAT,83115.0,Indonesia,,,,-8.600.742,116.079.903,https://maps.google.com/?cid=0x0:0x5528edd98cbfefff,
perumahan,Perumahan,Puri Citra Panjitilar,"C35M+G8P, Jl. Swakarsa 3, Kekalik Jaya, Kec. Sekarbela, Kota Mataram, Nusa Tenggara Bar. 83115","Jl. Swakarsa 3, Kekalik Jaya, Kec. Sekarbela, Kota Mataram",NUSA TENGGARA BARAT,83115.0,Indonesia,,,,-85.911.524,1.160.833.203,https://maps.google.com/?cid=0x0:0x1fc6097441a6c6bf,
perumahan,Komplek perumahan,Rumah Ghozali,"Gg. 2 Blk. B No.39, Kekalik Jaya, Kec. Sekarbela, Kota Mataram, Nusa Tenggara Bar. 83115","Kekalik Jaya, Kec. Sekarbela, Kota Mataram",NUSA TENGGARA BARAT,83115.0,Indonesia,,,,-85.928.421,1.160.813.309,https://maps.google.com/?cid=0x0:0xef26bcb5c8dd33aa,
perumahan,Komplek perumahan,Rumah Feli_Faren,"Gg. 1 No.10, Kekalik Jaya, Kec. Sekarbela, Kota Mataram, Nusa Tenggara Bar. 83115","Kekalik Jaya, Kec. Sekarbela, Kota Mataram",NUSA TENGGARA BARAT,83115.0,Indonesia,,,,-8.593.215,1.160.833.149,https://maps.google.com/?cid=0x0:0x19a8e8d8cfec9ecf,
perumahan,Komplek perumahan,Perumahan Bumi Mataram Asri,"C35P+44F, Jl. Panji Tilar Negara, Kekalik Jaya, Kec. Sekarbela, Kota Mataram, Nusa Tenggara Bar. 83115","Jl. Panji Tilar Negara, Kekalik Jaya, Kec. Sekarbela, Kota Mataram",NUSA TENGGARA BARAT,83115.0,Indonesia,,,,-85.921.856,1.160.852.921,https://maps.google.com/?cid=0x0:0x945cf5cfd8a53997,
perumahan,Komplek perumahan,Rumah Keluarga SATRIA,"C33V+43W, Jl. Jatiluhur III, Karang Pule, Kec. Sekarbela, Kota Mataram, Nusa Tenggara Bar. 83115","Jl. Jatiluhur III, Karang Pule, Kec. Sekarbela, Kota Mataram",NUSA TENGGARA BARAT,83115.0,Indonesia,,,,-85.971.349,1.160.926.981,https://maps.google.com/?cid=0x0:0x84c027d8412c9eec,
perumahan,Komplek perumahan,Perumahan Arya Banjar Getas Residence,"C33G+VJH residence, Jl. Arya Banjar Getas, Tanjung Karang Permai, Sekarbela, Mataram City, West Nusa Tenggara 83115","Jl. Arya Banjar Getas, Tanjung Karang Permai, Sekarbela, Mataram City",NUSA TENGGARA BARAT,83115.0,Indonesia,3706173338,,,-85.955.092,1.160.777.158,https://maps.google.com/?cid=0x0:0x2cd6fa8bc423b62a,
perumahan,Komplek perumahan,Kekalik gerisak,"C35J+CMW, Jl. Swakarsa VIII, Kekalik Jaya, Kec. Sekarbela, Kota Mataram, Nusa Tenggara Bar. 83115","Jl. Swakarsa VIII, Kekalik Jaya, Kec. Sekarbela, Kota Mataram",NUSA TENGGARA BARAT,83115.0,Indonesia,81938468418,,,-85.913.952,1.160.817.769,https://maps.google.com/?cid=0x0:0xb2181d71186d3a5b,
perumahan,Komplek perumahan,BTN Impian Sejahtera,"93VP+R7W, Jl. Merdeka Raya, Jempong Baru, Kec. Sekarbela, Kota Mataram, Nusa Tenggara Bar. 83116","Jl. Merdeka Raya, Jempong Baru, Kec. Sekarbela, Kota Mataram",NUSA TENGGARA BARAT,83116.0,Indonesia,,,,-86.053.834,1.160.856.991,https://maps.google.com/?cid=0x0:0xab76a96d80d8a8fe,
perumahan,Komplek perumahan,Rumah pribadi,"Jl. Sembada Indah III No.17, Kekalik Jaya, Kec. Sekarbela, Kota Mataram, Nusa Tenggara Bar. 83115","Kekalik Jaya, Kec. Sekarbela, Kota Mataram",NUSA TENGGARA BARAT,83115.0,Indonesia,,,,-8.595.046,1.160.910.658,https://maps.google.com/?cid=0x0:0x3150107e30010b79,
perumahan,Komplek perumahan,Rumah Kel Lalu Srigede,"Jl. Panji Tilar Negara No.109, Kekalik Jaya, Kec. Sekarbela, Kota Mataram, Nusa Tenggara Bar. 83115","Kekalik Jaya, Kec. Sekarbela, Kota Mataram",NUSA TENGGARA BARAT,83115.0,Indonesia,,,,-85.954.362,1.160.853.546,https://maps.google.com/?cid=0x0:0x3e24a3d53c56e45a,
perumahan,Komplek perumahan,Rumah Ahmadhitya,"C34P+9RH, Kekalik Jaya, Kec. Sekarbela, Kota Mataram, Nusa Tenggara Bar. 83115","Kekalik Jaya, Kec. Sekarbela, Kota Mataram",NUSA TENGGARA BARAT,83115.0,Indonesia,,,,-85.940.638,1.160.871.042,https://maps.google.com/?cid=0x0:0x33d778c2c8013713,
perumahan,Perhimpunan Pengembang Perumahan,Rumah Jiddi Najib Baraja,"Jl. Swasembada Gg. 4A No.5B, Kekalik Jaya, Kec. Sekarbela, Kota Mataram, Nusa Tenggara Bar. 83115","Kekalik Jaya, Kec. Sekarbela, Kota Mataram",NUSA TENGGARA BARAT,83115.0,Indonesia,,,,-85.919.311,1.160.901.807,https://maps.google.com/?cid=0x0:0xb7108dc824159891,
perumahan,Komplek perumahan,Perumahan Palem Indah,"C32P+QCF, Kekalik Jaya, Kec. Sekarbela, Kota Mataram, Nusa Tenggara Bar. 83115","Kekalik Jaya, Kec. Sekarbela, Kota Mataram",NUSA TENGGARA BARAT,83115.0,Indonesia,,,,-85.980.688,1.160.860.527,https://maps.google.com/?cid=0x0:0x98dc0c061761595b,
perumahan,Kantor Perusahaan,Perumahan Bumi Kodya Asri,"93QW+R4J, Jl. Gajah Mada, Jempong Baru, Kec. Sekarbela, Kota Mataram, Nusa Tenggara Bar. 83115","Jl. Gajah Mada, Jempong Baru, Kec. Sekarbela, Kota Mataram",NUSA TENGGARA BARAT,83115.0,Indonesia,,,,-86.104.122,1.160.952.799,https://maps.google.com/?cid=0x0:0x25d2039577ec00a3,
perumahan,Perumahan,Bumi Asri Bendega,"Jl. Sultan Salahudin No.1A, Tj. Karang, Kec. Sekarbela, Kota Mataram, Nusa Tenggara Bar. 83115","Tj. Karang, Kec. Sekarbela, Kota Mataram",NUSA TENGGARA BARAT,83115.0,Indonesia,,,,-86.007.969,1.160.798.534,https://maps.google.com/?cid=0x0:0x39ee676913d5e8ea,
perumahan,Penginapan,Perumnas,"Jl. Kesra VIII Perumnas No.99, Tj. Karang Permai, Kec. Sekarbela, Kota Mataram, Nusa Tenggara Bar. 83115","Tj. Karang Permai, Kec. Sekarbela, Kota Mataram",NUSA TENGGARA BARAT,83115.0,Indonesia,,,,-85.974.842,1.160.809.055,https://maps.google.com/?cid=0x0:0x868f675f52802c59,
perumahan,Komplek perumahan,68 kesra raya perumnas,"C33J+463, Jl. Kesra Raya, Tj. Karang Permai, Kec. Sekarbela, Kota Mataram, Nusa Tenggara Bar. 83115","Jl. Kesra Raya, Tj. Karang Permai, Kec. Sekarbela, Kota Mataram",NUSA TENGGARA BARAT,83115.0,Indonesia,,,,-85.972.434,1.160.805.478,https://maps.google.com/?cid=0x0:0xb3058f8ddca51bd4,
perumahan,Komplek perumahan,Rumah Nandar,"Jl. Arya Banjar Getas No.C-10, Tj. Karang Permai, Kec. Sekarbela, Kota Mataram, Nusa Tenggara Bar. 83115","Tj. Karang Permai, Kec. Sekarbela, Kota Mataram",NUSA TENGGARA BARAT,83115.0,Indonesia,,,,-8.595.498,116.077.036,https://maps.google.com/?cid=0x0:0x633d3734fe2d80da,
perumahan,Housing,Blok E No 9 (Perumahan Panji Pesona),"C32M+9Q2, Tj. Karang, Kec. Sekarbela, Kota Mataram, Nusa Tenggara Bar. 83115","Tj. Karang, Kec. Sekarbela, Kota Mataram",NUSA TENGGARA BARAT,83115.0,Indonesia,,,,-85.991.707,1.160.841.652,https://maps.google.com/?cid=0x0:0x2b20aba8f7456121,
perumahan,Perumahan,Panjitilar Regency,"C33P+84M, Jl. Panji Tilar Regency, Kekalik Jaya, Kec. Sekarbela, Kota Mataram, Nusa Tenggara Bar. 83115","Jl. Panji Tilar Regency, Kekalik Jaya, Kec. Sekarbela, Kota Mataram",NUSA TENGGARA BARAT,83115.0,Indonesia,,,,-85.966.612,1.160.853.125,https://maps.google.com/?cid=0x0:0xf107373e0e6ce80c,
perumahan,Komplek perumahan,FW Olshop,"C34M+C6Q, Jl. Kelapa Tiga, Kekalik Jaya, Kec. Sekarbela, Kota Mataram, Nusa Tenggara Bar. 83115","Jl. Kelapa Tiga, Kekalik Jaya, Kec. Sekarbela, Kota Mataram",NUSA TENGGARA BARAT,83115.0,Indonesia,87865663066,,,-85.939.226,1.160.831.017,https://maps.google.com/?cid=0x0:0xe36d6bc4dd11e68,
perumahan,perumahan,Nusa Tenggara Bar. 83116,"Kec. Sekarbela, Kota Mataram, Nusa Tenggara Bar.","Kota Mataram, Nusa Tenggara Bar.",NUSA TENGGARA BARAT,,Indonesia,,,,-86.025.313,1.160.945.799,https://maps.google.com/?cid=0x0:0x1c00c5eb6016c4b0,
perumahan,Komplek perumahan,jln.sultan kaharudin sekarbela karang pule mataram,"Jl. Sultan Kaharudin, Karang Pule, Kec. Sekarbela, Kota Mataram, Nusa Tenggara Bar. 83116","Karang Pule, Kec. Sekarbela, Kota Mataram",NUSA TENGGARA BARAT,83116.0,Indonesia,81907291281,,,-86.004.207,1.160.894.245,https://maps.google.com/?cid=0x0:0x3ce937327e4c5ae7,
perumahan,Komplek perumahan,Rumah Tinggal,"C32R+H7Q, Karang Pule, Kec. Sekarbela, Kota Mataram, Nusa Tenggara Bar. 83115","Karang Pule, Kec. Sekarbela, Kota Mataram",NUSA TENGGARA BARAT,83115.0,Indonesia,,,,-85.985.305,1.160.907.433,https://maps.google.com/?cid=0x0:0xfa5f038adb089dff,
perumahan,Komplek perumahan,BTN Griya Cempaka Asri Blok J/11,"Jl. Merdeka Raya, Jempong Baru, Kec. Sekarbela, Kota Mataram, Nusa Tenggara Bar. 83116","Jempong Baru, Kec. Sekarbela, Kota Mataram",NUSA TENGGARA BARAT,83116.0,Indonesia,,,,-8.608.236,1.160.922.336,https://maps.google.com/?cid=0x0:0xc25fd402bb62bc50,
perumahan,Komplek perumahan,Perumahan Cahaya Permata,"93RX+XJG, Jl. Gajah Mada, Jempong Baru, Sekarbela, Pagesangan Bar., Kec. Mataram, Kota Mataram, Nusa Tenggara Bar. 83116","Jl. Gajah Mada, Jempong Baru, Sekarbela, Pagesangan Bar., Kec. Mataram, Kota Mataram",NUSA TENGGARA BARAT,83116.0,Indonesia,,,,-8.607.557,1.160.990.846,https://maps.google.com/?cid=0x0:0x39cdc5fc9b97c86c,
perumahan,perumahan,Btn Taman Nirwana,"Jl. Merdeka Raya No.150, Karang Pule, Kec. Sekarbela, Kota Mataram, Nusa Tenggara Bar. 83116","Karang Pule, Kec. Sekarbela, Kota Mataram",NUSA TENGGARA BARAT,83116.0,Indonesia,,,,-86.052.895,1.160.909.145,https://maps.google.com/?cid=0x0:0x1ff1c63213d6ec8c,
perumahan,Komplek perumahan,rumah,"C32R+H7Q, Karang Pule, Kec. Sekarbela, Kota Mataram, Nusa Tenggara Bar. 83115","Karang Pule, Kec. Sekarbela, Kota Mataram",NUSA TENGGARA BARAT,83115.0,Indonesia,,,,-85.987.036,1.160.911.892,https://maps.google.com/?cid=0x0:0x771ee40bea79b939,
perumahan,Komplek perumahan,Perum Kehutanan Baturinggit Selatan,"Jl. Komp. Kehutanan Taman Harapan Indah No.17, Jempong Baru, Kec. Sekarbela, Kota Mataram, Nusa Tenggara Bar. 83116","Jempong Baru, Kec. Sekarbela, Kota Mataram",NUSA TENGGARA BARAT,83116.0,Indonesia,,,,-86.073.249,1.160.843.231,https://maps.google.com/?cid=0x0:0xaadfb8a57243f4,
perumahan,perumahan,Rumah Tinggal Aba Yadi,"Jl. Sunan Bonang No.20, Jempong Baru, Kec. Sekarbela, Kota Mataram, Nusa Tenggara Bar. 83116","Jempong Baru, Kec. Sekarbela, Kota Mataram",NUSA TENGGARA BARAT,83116.0,Indonesia,,,,-8.612.668,116.097.884,https://maps.google.com/?cid=0x0:0xa15dd0e981acbe36,
perumahan,Komplek perumahan,Perumahan  Pertokoan Karang Pule,"93WP+28R, Karang Pule, Kec. Sekarbela, Kota Mataram, Nusa Tenggara Bar. 83116","Karang Pule, Kec. Sekarbela, Kota Mataram",NUSA TENGGARA BARAT,83116.0,Indonesia,,,,-86.048.801,1.160.857.753,https://maps.google.com/?cid=0x0:0x630da8ef21153c98,
perumahan,Pembangunan Perumahan,Perumahan Karang Pule Asri No. 1,"Jl. Merdeka Raya, Karang Pule, Kec. Sekarbela, Kota Mataram, Nusa Tenggara Bar. 83116","Karang Pule, Kec. Sekarbela, Kota Mataram",NUSA TENGGARA BARAT,83116.0,Indonesia,,,,-86.048.895,1.160.855.016,https://maps.google.com/?cid=0x0:0x3dfd1585063c906a,
perumahan,Perumahan,Perumahan as-sami,"BTN Perumahan As-sami Blok J No 8, Jl. Sultan Kaharudin No.129, Karang Pule, Sekarbela, Mataram City, West Nusa Tenggara 83116","Jl. Sultan Kaharudin No.129, Karang Pule, Sekarbela, Mataram City",NUSA TENGGARA BARAT,83116.0,Indonesia,,,,-86.079.774,1.160.871.488,https://maps.google.com/?cid=0x0:0x3ad75434262698e2,
perumahan,Komplek perumahan,Kota Mataram,"C33V+P5J, Jl. Serayu I, Karang Pule, Kec. Sekarbela, Kota Mataram, Nusa Tenggara Bar. 83116","Jl. Serayu I, Karang Pule, Kec. Sekarbela, Kota Mataram",NUSA TENGGARA BARAT,83116.0,Indonesia,82114144123,,,-85.956.554,1.160.928.817,https://maps.google.com/?cid=0x0:0xb1cfaf9e01190fe6,
perumahan,Pembangunan Perumahan,Perumahan Taman Alamanda 1,"93VP+MQW, Jl. Taman Alamanda 1, Karang Pule, Sekarbela, Mataram City, West Nusa Tenggara 83116","Jl. Taman Alamanda 1, Karang Pule, Sekarbela, Mataram City",NUSA TENGGARA BARAT,83116.0,Indonesia,,,,-86.048.789,1.160.870.233,https://maps.google.com/?cid=0x0:0xe34fec4fd7855131,
perumahan,Komplek perumahan,BTN Kekalik,"C33R+MWP, Jl. Dodokan Raya, Karang Pule, Kec. Sekarbela, Kota Mataram, Nusa Tenggara Bar. 83115","Jl. Dodokan Raya, Karang Pule, Kec. Sekarbela, Kota Mataram",NUSA TENGGARA BARAT,83115.0,Indonesia,,,,-85.957.913,1.160.923.267,https://maps.google.com/?cid=0x0:0x9bd6505a3d859329,
perumahan,Komplek perumahan,Rumah,"93PV+82R, Jempong Baru, Kec. Sekarbela, Kota Mataram, Nusa Tenggara Bar. 83116","Jempong Baru, Kec. Sekarbela, Kota Mataram",NUSA TENGGARA BARAT,83116.0,Indonesia,,,,-86.135.426,1.160.922.624,https://maps.google.com/?cid=0x0:0x51c00685138287f0,
perumahan,Penginapan,BTN Royal kenari,"93WQ+VX2, Jl. Tgh. Moh. Rafil Hamdani, Karang Pule, Kec. Sekarbela, Kota Mataram, Nusa Tenggara Bar. 83116","Jl. Tgh. Moh. Rafil Hamdani, Karang Pule, Kec. Sekarbela, Kota Mataram",NUSA TENGGARA BARAT,83116.0,Indonesia,,,,-86.028.666,1.160.898.806,https://maps.google.com/?cid=0x0:0xbfdf1d00581d3eab,
perumahan,Komplek perumahan,fanick house,"93RQ+R77, Jempong Baru, Kec. Sekarbela, Kota Mataram, Nusa Tenggara Bar. 83116","Jempong Baru, Kec. Sekarbela, Kota Mataram",NUSA TENGGARA BARAT,83116.0,Indonesia,,,,-86.080.082,1.160.882.198,https://maps.google.com/?cid=0x0:0xbb9123877d42b487,
perumahan,Komplek perumahan,Perumahan Lingkar Permai,"93QH+WM9, Tj. Karang, Kec. Sekarbela, Kota Mataram, Nusa Tenggara Bar. 83116","Tj. Karang, Kec. Sekarbela, Kota Mataram",NUSA TENGGARA BARAT,83116.0,Indonesia,,,,-86.102.153,1.160.792.376,https://maps.google.com/?cid=0x0:0x8595c9c4f1a9b6c5,
perumahan,Pembangunan Perumahan,Pesinggahan,"93XR+XV7, Jl. Sultan Kaharudin, Karang Pule, Kec. Sekarbela, Kota Mataram, Nusa Tenggara Bar.","Kota Mataram, Nusa Tenggara Bar.",NUSA TENGGARA BARAT,,Indonesia,,,,-86.000.828,1.160.921.646,https://maps.google.com/?cid=0x0:0x71afd862410bd037,
perumahan,Perumahan,BTN Royal Mataram,"Blk. H No.5, Jempong Baru, Kec. Sekarbela, Kota Mataram, Nusa Tenggara Bar. 83115","Jempong Baru, Kec. Sekarbela, Kota Mataram",NUSA TENGGARA BARAT,83115.0,Indonesia,,,,-86.163.887,1.160.824.935,https://maps.google.com/?cid=0x0:0x508435043512adbc,
perumahan,Komplek perumahan,Perumahan Hamaya Graha,"Perumahan hamaya graha, Blk. G No.3 Loang, RW.baloq, Tj. Karang, Kec. Sekarbela, Kota Mataram, Nusa Tenggara Bar. 83115","Blk. G No.3 Loang, RW.baloq, Tj. Karang, Kec. Sekarbela, Kota Mataram",NUSA TENGGARA BARAT,83115.0,Indonesia,,,,-86.091.562,1.160.776.259,https://maps.google.com/?cid=0x0:0xc345e1e29ea1322d,
perumahan,Komplek perumahan,Rumah DidinAti Family,"Blk. A No.7, Tj. Karang, Kec. Sekarbela, Kota Mataram, Nusa Tenggara Bar. 83116","Tj. Karang, Kec. Sekarbela, Kota Mataram",NUSA TENGGARA BARAT,83116.0,Indonesia,,,,-86.096.936,1.160.775.918,https://maps.google.com/?cid=0x0:0x2662a59876ca586f,
perumahan,Komplek perumahan,BTN Graha Cendana F7,"93WH+PJ5, Gg. Manggis, Tj. Karang, Kec. Sekarbela, Kota Mataram, Nusa Tenggara Bar. 83116","Gg. Manggis, Tj. Karang, Kec. Sekarbela, Kota Mataram",NUSA TENGGARA BARAT,83116.0,Indonesia,,,,-86.032.484,1.160.791.017,https://maps.google.com/?cid=0x0:0x4be076f87f043b6b,
perumahan,Komplek perumahan,Perumahan taman inara blok a3,"93VR+6PQ, Karang Pule, Kec. Sekarbela, Kota Mataram, Nusa Tenggara Bar. 83116","Karang Pule, Kec. Sekarbela, Kota Mataram",NUSA TENGGARA BARAT,83116.0,Indonesia,,,,-86.069.241,1.160.918.608,https://maps.google.com/?cid=0x0:0x375c3ee999e10682,
perumahan,perumahan,RYAN HOUSE,"93RR+VXP, Perum Griya Cemp. Asri, Jempong Baru, Kec. Sekarbela, Kota Mataram, Nusa Tenggara Bar. 83116","Perum Griya Cemp. Asri, Jempong Baru, Kec. Sekarbela, Kota Mataram",NUSA TENGGARA BARAT,83116.0,Indonesia,,,,-86.078.363,1.160.926.169,https://maps.google.com/?cid=0x0:0xf28dcbebe4581bc7,
perumahan,Rumah Pondokan,Komplek Griya Swasembada Asri,"C32R+V5J, Jl. Swasembada XI, Griya, Jl. Swasembada Asri, Karang Pule, Kec. Sekarbela, Kota Mataram, Nusa Tenggara Bar. 83116","Jl. Swasembada XI, Griya, Jl. Swasembada Asri, Karang Pule, Kec. Sekarbela, Kota Mataram",NUSA TENGGARA BARAT,83116.0,Indonesia,,,,-85.977.905,1.160.903.973,https://maps.google.com/?cid=0x0:0xe7fb263fec21af92,
perumahan,Komplek perumahan,Mutiara_3Fa,"93VQ+F39, Unnamed Road, Jempong Baru, Kec. Sekarbela, Kota Mataram, Nusa Tenggara Bar. 83116","Unnamed Road, Jempong Baru, Kec. Sekarbela, Kota Mataram",NUSA TENGGARA BARAT,83116.0,Indonesia,,,,-86.063.349,1.160.877.216,https://maps.google.com/?cid=0x0:0xa59771b7179b0bb7,
perumahan,Komplek perumahan,Rizky Agus Prabowo,"Blok D5, Jl. Sunan Kudus I, Jempong Baru, Sekarbela, Mataram City, West Nusa Tenggara 83116","Jl. Sunan Kudus I, Jempong Baru, Sekarbela, Mataram City",NUSA TENGGARA BARAT,83116.0,Indonesia,,,,-86.108.897,1.160.983.081,https://maps.google.com/?cid=0x0:0xc6585e1f3fe22f0e,
perumahan,perumahan,Nusa Tenggara Bar. 83122,"Kec. Selaparang, Kota Mataram, Nusa Tenggara Bar.","Kota Mataram, Nusa Tenggara Bar.",NUSA TENGGARA BARAT,,Indonesia,,,,-85.738.445,1.161.093.533,https://maps.google.com/?cid=0x0:0x1c00c5eb6016c570,
perumahan,Komplek perumahan,Perumahan Bumi Selaparang Asri,"C4W8+WG4, Jl. Dr. Wahidin, Midang, Kec. Selaparang, Kota Mataram, Nusa Tenggara Bar. 83351","Jl. Dr. Wahidin, Midang, Kec. Selaparang, Kota Mataram",NUSA TENGGARA BARAT,83351.0,Indonesia,85219999998,,,-85.527.369,1.161.163.369,https://maps.google.com/?cid=0x0:0x82261498250b7f77,
perumahan,Toko,lokasi,"C4G5+RW2, Monjok, Kec. Selaparang, Kota Mataram, Nusa Tenggara Bar. 83122","Monjok, Kec. Selaparang, Kota Mataram",NUSA TENGGARA BARAT,83122.0,Indonesia,,,,-85.729.979,1.161.097.512,https://maps.google.com/?cid=0x0:0x23aff54915e7891f,
perumahan,Asosiasi Penduduk,Perumahan Griya Gegutu Selaparang,"C4PC+V7F, Rembiga, Kec. Selaparang, Kota Mataram, Nusa Tenggara Bar. 83124","Rembiga, Kec. Selaparang, Kota Mataram",NUSA TENGGARA BARAT,83124.0,Indonesia,87864431317,,,-85.628.119,1.161.206.782,https://maps.google.com/?cid=0x0:0xa7712b446cc1546b,
perumahan,Komplek perumahan,Griya Selaparang,"Jl. Krakatau No.15, Midang, Kec. Gunungsari, Kabupaten Lombok Barat, Nusa Tenggara Bar. 83351","Midang, Kec. Gunungsari, Kabupaten Lombok Barat",NUSA TENGGARA BARAT,83351.0,Indonesia,,,,-85.666.022,1.160.961.877,https://maps.google.com/?cid=0x0:0x9d6dad5311482edc,
perumahan,Perumahan,Perumahan Monjok Asri,"Monjok, Kec. Selaparang, Kota Mataram, Nusa Tenggara Bar. 83122","Kec. Selaparang, Kota Mataram",NUSA TENGGARA BARAT,83122.0,Indonesia,370639206,,,-85.764.114,1.161.187.547,https://maps.google.com/?cid=0x0:0xaa17350867c140fc,
perumahan,Panti sosial,Perumahan Griya Semanggi,"C4F3+3J8, Jl. Semanggi, Monjok Bar., Kec. Selaparang, Kota Mataram, Nusa Tenggara Bar. 83111","Jl. Semanggi, Monjok Bar., Kec. Selaparang, Kota Mataram",NUSA TENGGARA BARAT,83111.0,Indonesia,,,,-85.773.361,1.161.040.692,https://maps.google.com/?cid=0x0:0xbd48aec9d35c96d8,
perumahan,Kantor Perusahaan,Perumahan,"Graha Adi sucipto Jl. Adi Sucipto, Rembiga, Kec. Selaparang, Kota Mataram, Nusa Tenggara Bar.","Kota Mataram, Nusa Tenggara Bar.",NUSA TENGGARA BARAT,,Indonesia,,,,-85.641.105,1.161.018.409,https://maps.google.com/?cid=0x0:0x48870a0a69fc1ced,
perumahan,Perumahan,Btn Monjok Pemamoran,"C4F9+MC4, Monjok, Kec. Selaparang, Kota Mataram, Nusa Tenggara Bar. 83122","Monjok, Kec. Selaparang, Kota Mataram",NUSA TENGGARA BARAT,83122.0,Indonesia,,,,-85.758.673,1.161.185.638,https://maps.google.com/?cid=0x0:0x430b6c704fe78469,
perumahan,Komplek perumahan,Rumah Cemare,"C4F6+Q28, Monjok Bar., Kec. Selaparang, Kota Mataram, Nusa Tenggara Bar. 83122","Monjok Bar., Kec. Selaparang, Kota Mataram",NUSA TENGGARA BARAT,83122.0,Indonesia,,,,-8.575.556,116.110.069,https://maps.google.com/?cid=0x0:0xac74589855118cbc,
perumahan,Komplek perumahan,Rumah Setiawan,"C4F7+Q2M, Gg. Komodo 1, Monjok, Kec. Selaparang, Kota Mataram, Nusa Tenggara Bar. 83122","Gg. Komodo 1, Monjok, Kec. Selaparang, Kota Mataram",NUSA TENGGARA BARAT,83122.0,Indonesia,85904361644,,,-85.755.251,1.161.125.604,https://maps.google.com/?cid=0x0:0x45fd137c715d0d94,
perumahan,Perhimpunan Pengembang Perumahan,wawa,"C4G4+6MW, Monjok Bar., Kec. Selaparang, Kota Mataram, Nusa Tenggara Bar. 83122","Monjok Bar., Kec. Selaparang, Kota Mataram",NUSA TENGGARA BARAT,83122.0,Indonesia,,,,-85.743.771,1.161.067.006,https://maps.google.com/?cid=0x0:0xc389c8868b436d2d,
perumahan,Perhimpunan Pengembang Perumahan,Rumah mala,"C4G4+W5F, Gg. Masjid Al Istiqomah, Karang Baru, Kec. Selaparang, Kota Mataram, Nusa Tenggara Bar. 83122","Gg. Masjid Al Istiqomah, Karang Baru, Kec. Selaparang, Kota Mataram",NUSA TENGGARA BARAT,83122.0,Indonesia,,,,-85.726.782,1.161.054.107,https://maps.google.com/?cid=0x0:0x27b54bfcea7995f6,
perumahan,Komplek perumahan,RUMAH GATERA,"Jl. Komodo No.13, Monjok Tim., Kec. Selaparang, Kota Mataram, Nusa Tenggara Bar. 83122","Monjok Tim., Kec. Selaparang, Kota Mataram",NUSA TENGGARA BARAT,83122.0,Indonesia,,,,-85.807.234,1.161.116.526,https://maps.google.com/?cid=0x0:0xba4dc4c8a16695be,
perumahan,,Eka Jaya Asri,"Jl. Ekajaya No.1, Monjok Bar., Kec. Selaparang, Kota Mataram, Nusa Tenggara Bar. 83122","Monjok Bar., Kec. Selaparang, Kota Mataram",NUSA TENGGARA BARAT,83122.0,Indonesia,,,,-8.575.093,1.161.032.625,https://maps.google.com/?cid=0x0:0xa5dd0861a47f4f49,
perumahan,Komplek perumahan,RUMAH CELLO  V,"Kel, RT 003 Link, Kamasan, Monjok, Kec. Selaparang, Kota Mataram, Nusa Tenggara Bar. 83122","RT 003 Link, Kamasan, Monjok, Kec. Selaparang, Kota Mataram",NUSA TENGGARA BARAT,83122.0,Indonesia,,,,-85.729.495,1.161.121.352,https://maps.google.com/?cid=0x0:0xecb4de3fff308d6a,
perumahan,Komplek perumahan,Eca,"C4H8+4F, Monjok, Kec. Selaparang, Kota Mataram, Nusa Tenggara Bar. 83122","Monjok, Kec. Selaparang, Kota Mataram",NUSA TENGGARA BARAT,83122.0,Indonesia,87823242405,,,-85.724.658,1.161.166.001,https://maps.google.com/?cid=0x0:0xba12b8a2519f0db3,
perumahan,Komplek perumahan,Rumah Okan,"Jl. Semanggi IV No.6, Monjok Bar., Kec. Selaparang, Kota Mataram, Nusa Tenggara Bar. 83122","Monjok Bar., Kec. Selaparang, Kota Mataram",NUSA TENGGARA BARAT,83122.0,Indonesia,,,,-85.761.422,1.161.047.991,https://maps.google.com/?cid=0x0:0x3f5096bbd4ce4712,
perumahan,Komplek perumahan,"Rumah Pak Wayan Surata, SIP","Gg. Komodo 1 griya No.5, Monjok, Kec. Selaparang, Kota Mataram, Nusa Tenggara Bar. 83122","Monjok, Kec. Selaparang, Kota Mataram",NUSA TENGGARA BARAT,83122.0,Indonesia,,,,-85.769.612,1.161.129.286,https://maps.google.com/?cid=0x0:0xf9eeef5c25a8ce98,
perumahan,perumahan,Cungkeng,"Jl. Hos Cokroaminoto Gg. Mawar, Monjok Bar., Kec. Selaparang, Kota Mataram, Nusa Tenggara Bar. 83122","Monjok Bar., Kec. Selaparang, Kota Mataram",NUSA TENGGARA BARAT,83122.0,Indonesia,,,,-85.740.958,11.610.885,https://maps.google.com/?cid=0x0:0xe72968b2d4d78649,
perumahan,Pembangunan Perumahan,Kos,"C4C4+XQ7, Terong Tawah, Kec. Selaparang, Kabupaten Lombok Barat, Nusa Tenggara Bar.","Kabupaten Lombok Barat, Nusa Tenggara Bar.",NUSA TENGGARA BARAT,,Indonesia,,,,-85.775.768,1.161.069.145,https://maps.google.com/?cid=0x0:0xd7ee82ece7b52e81,
perumahan,Pembangunan Perumahan,Rumah wannss,"C4G6+XH7, Jl. Gili Meno, Karang Baru, Kec. Selaparang, Kota Mataram, Nusa Tenggara Bar. 83122","Jl. Gili Meno, Karang Baru, Kec. Selaparang, Kota Mataram",NUSA TENGGARA BARAT,83122.0,Indonesia,,,,-85.725.831,1.161.114.234,https://maps.google.com/?cid=0x0:0x3e504f102d815227,
perumahan,Rumah Kayu,GRAHA PERMATA KOTA,"Perumahan graha permata kota, Selagalas, Kec. Lingsar, Kota Mataram, Nusa Tenggara Bar. 83112","Selagalas, Kec. Lingsar, Kota Mataram",NUSA TENGGARA BARAT,83112.0,Indonesia,,,,-85.786.773,1.161.519.292,https://maps.google.com/?cid=0x0:0x431f7a4a9f6dee6d,
perumahan,Komplek perumahan,Taman selaprang,"Jl. Panorama 4 Blk. M No.1, Sesela, Kec. Gunungsari, Kabupaten Lombok Barat, Nusa Tenggara Bar. 83124","Sesela, Kec. Gunungsari, Kabupaten Lombok Barat",NUSA TENGGARA BARAT,83124.0,Indonesia,,,,-85.528.645,1.160.951.308,https://maps.google.com/?cid=0x0:0x66d95f768f5bd2fc,
perumahan,Komplek perumahan,Rumah,"C3JW+7M7, Jl. Lestari, Pejarakan Karya, Kec. Ampenan, Kota Mataram, Nusa Tenggara Bar. 83113","Jl. Lestari, Pejarakan Karya, Kec. Ampenan, Kota Mataram",NUSA TENGGARA BARAT,83113.0,Indonesia,,,,-85.693.024,1.160.965.248,https://maps.google.com/?cid=0x0:0xb979fe90ee98824e,
perumahan,perumahan,Rumah Lombok,"C4H4+Q2Q, Karang Baru, Kec. Selaparang, Kota Mataram, Nusa Tenggara Bar. 83123","Karang Baru, Kec. Selaparang, Kota Mataram",NUSA TENGGARA BARAT,83123.0,Indonesia,,,,-85.702.177,1.161.046.194,https://maps.google.com/?cid=0x0:0x3a224635b2e56a63,
perumahan,Komplek perumahan,Rumah dan Kios,"Jln alokasia blok A1/A3, Kekalik Jaya, Kec. Sekarbela, Kota Mataram, Nusa Tenggara Bar. 83115","Kekalik Jaya, Kec. Sekarbela, Kota Mataram",NUSA TENGGARA BARAT,83115.0,Indonesia,,,,-85.921.413,1.160.822.275,https://maps.google.com/?cid=0x0:0x2c74805e591ebb99,
perumahan,Perumahan,PERUMAHAN GRIYA PESONA ALAM,"C4MQ+WF9, Blk. ED, Dasan Geria, Kec. Lingsar, Kabupaten Lombok Barat, Nusa Tenggara Bar. 83239","Blk. ED, Dasan Geria, Kec. Lingsar, Kabupaten Lombok Barat",NUSA TENGGARA BARAT,83239.0,Indonesia,87865887215,,,-85.652.241,11.613.874,https://maps.google.com/?cid=0x0:0xfa8054909e711ea9,
perumahan,Komplek perumahan,Rumah,"Jl. Dr. Wahidin Gg. Tanimbar No.15, Rembiga, Kec. Selaparang, Kota Mataram, Nusa Tenggara Bar. 83124","Rembiga, Kec. Selaparang, Kota Mataram",NUSA TENGGARA BARAT,83124.0,Indonesia,,,,-85.592.203,1.161.117.031,https://maps.google.com/?cid=0x0:0xaac5bf8745ded94b,
perumahan,perumahan,Nusa Tenggara Bar. 83123,"Kec. Selaparang, Kota Mataram, Nusa Tenggara Bar.","Kota Mataram, Nusa Tenggara Bar.",NUSA TENGGARA BARAT,,Indonesia,,,,-85.676.763,116.107.876,https://maps.google.com/?cid=0x0:0x1c00c5eb6016c5b0,
perumahan,Komplek perumahan,Perumahan Bumi Selaparang Asri,"C4W8+WG4, Jl. Dr. Wahidin, Midang, Kec. Selaparang, Kota Mataram, Nusa Tenggara Bar. 83351","Jl. Dr. Wahidin, Midang, Kec. Selaparang, Kota Mataram",NUSA TENGGARA BARAT,83351.0,Indonesia,85219999998,,,-85.527.369,1.161.163.369,https://maps.google.com/?cid=0x0:0x82261498250b7f77,
perumahan,Komplek perumahan,Griya Selaparang,"Jl. Krakatau No.15, Midang, Kec. Gunungsari, Kabupaten Lombok Barat, Nusa Tenggara Bar. 83351","Midang, Kec. Gunungsari, Kabupaten Lombok Barat",NUSA TENGGARA BARAT,83351.0,Indonesia,,,,-85.666.022,1.160.961.877,https://maps.google.com/?cid=0x0:0x9d6dad5311482edc,
perumahan,Kantor Perusahaan,Perumahan,"Graha Adi sucipto Jl. Adi Sucipto, Rembiga, Kec. Selaparang, Kota Mataram, Nusa Tenggara Bar.","Kota Mataram, Nusa Tenggara Bar.",NUSA TENGGARA BARAT,,Indonesia,,,,-85.641.105,1.161.018.409,https://maps.google.com/?cid=0x0:0x48870a0a69fc1ced,
perumahan,Komplek perumahan,"Karang Baru, Kec. Selaparang","Jl. Gili Terawangan No.35, Karang Baru, Kec. Selaparang, Kota Mataram, Nusa Tenggara Bar. 83122","Karang Baru, Kec. Selaparang, Kota Mataram",NUSA TENGGARA BARAT,83122.0,Indonesia,,,,-85.721.352,1.161.045.209,https://maps.google.com/?cid=0x0:0xec25fe8922250d0a,
perumahan,Vila,Perumahan Griya Udayana II (Dua),"C4P3+5HJ, Karang Baru, Kec. Selaparang, Kota Mataram, Nusa Tenggara Bar. 83123","Karang Baru, Kec. Selaparang, Kota Mataram",NUSA TENGGARA BARAT,83123.0,Indonesia,,,,-85.645.482,1.161.038.953,https://maps.google.com/?cid=0x0:0x785bdcfaf39a2675,
perumahan,Perhimpunan Pengembang Perumahan,Rumah saya,"Gg. IX No.20, Karang Baru, Kec. Selaparang, Kota Mataram, Nusa Tenggara Bar. 83123","Karang Baru, Kec. Selaparang, Kota Mataram",NUSA TENGGARA BARAT,83123.0,Indonesia,,,,-85.666.649,1.161.060.522,https://maps.google.com/?cid=0x0:0xd3e290ffba92a0c6,
perumahan,Restoran,GRAND NATURA,"C4M7+3FP, Karang Baru, Kec. Selaparang, Kota Mataram, Nusa Tenggara Bar. 83123","Karang Baru, Kec. Selaparang, Kota Mataram",NUSA TENGGARA BARAT,83123.0,Indonesia,3707509777,,,-8.567.296,1.161.136.932,https://maps.google.com/?cid=0x0:0xb35cafd29d6fb531,
perumahan,Pembangunan Perumahan,Perumahan Taman Rinjani permai,"Jl. Dr. Soetomo Perumahan Taman Rinjani permai, Karang Baru, Kec. Selaparang, Kota Mataram, Nusa Tenggara Bar. 83123","Karang Baru, Kec. Selaparang, Kota Mataram",NUSA TENGGARA BARAT,83123.0,Indonesia,,,,-85.704.415,1.161.074.728,https://maps.google.com/?cid=0x0:0x289dc66c33c6e109,
perumahan,Perumahan,Perumahan Pinang Raya Asri,"C3MV+8G7, Jl. Pinang Raya, Pejarakan Karya, Kec. Ampenan, Kota Mataram, Nusa Tenggara Bar. 83511","Jl. Pinang Raya, Pejarakan Karya, Kec. Ampenan, Kota Mataram",NUSA TENGGARA BARAT,83511.0,Indonesia,,,,-85.667.129,1.160.937.946,https://maps.google.com/?cid=0x0:0x2ebebd1d0c24d5f0,
perumahan,Kompleks Townhouse,Rumah,"Griya Udayana III Blk. B No.18, Karang Baru, Kec. Selaparang, Kota Mataram, Nusa Tenggara Bar. 83123","Karang Baru, Kec. Selaparang, Kota Mataram",NUSA TENGGARA BARAT,83123.0,Indonesia,,,,-85.646.933,1.161.060.981,https://maps.google.com/?cid=0x0:0x18430ed30368a653,
perumahan,Pembangunan Perumahan,Karang Baru mataram,"C4J6+P6W, Gg. Setia Kawan, Karang Baru, Kec. Selaparang, Kota Mataram, Nusa Tenggara Bar. 83123","Gg. Setia Kawan, Karang Baru, Kec. Selaparang, Kota Mataram",NUSA TENGGARA BARAT,83123.0,Indonesia,,,,-85.681.493,1.161.105.829,https://maps.google.com/?cid=0x0:0xee371ab4c44f2cc2,
perumahan,Perhimpunan Pengembang Perumahan,Rumah mala,"C4G4+W5F, Gg. Masjid Al Istiqomah, Karang Baru, Kec. Selaparang, Kota Mataram, Nusa Tenggara Bar. 83122","Gg. Masjid Al Istiqomah, Karang Baru, Kec. Selaparang, Kota Mataram",NUSA TENGGARA BARAT,83122.0,Indonesia,,,,-85.726.782,1.161.054.107,https://maps.google.com/?cid=0x0:0x27b54bfcea7995f6,
perumahan,Pembangunan Perumahan,Rumah wannss,"C4G6+XH7, Jl. Gili Meno, Karang Baru, Kec. Selaparang, Kota Mataram, Nusa Tenggara Bar. 83122","Jl. Gili Meno, Karang Baru, Kec. Selaparang, Kota Mataram",NUSA TENGGARA BARAT,83122.0,Indonesia,,,,-85.725.831,1.161.114.234,https://maps.google.com/?cid=0x0:0x3e504f102d815227,
perumahan,Pembangunan Perumahan,amiras house,"Jl. Udayana No.17X, Karang Baru, Kec. Selaparang, Kota Mataram, Nusa Tenggara Bar. 83123","Karang Baru, Kec. Selaparang, Kota Mataram",NUSA TENGGARA BARAT,83123.0,Indonesia,,,,-85.664.959,1.161.042.663,https://maps.google.com/?cid=0x0:0x5b53170a7d84a282,
perumahan,Pembangunan Perumahan,kavlingan,"C4H7+2VF, Jl. Sunan Sudar, Monjok, Kec. Selaparang, Kota Mataram, Nusa Tenggara Bar.","Kota Mataram, Nusa Tenggara Bar.",NUSA TENGGARA BARAT,,Indonesia,,,,-85.724.752,1.161.147.775,https://maps.google.com/?cid=0x0:0x935e7cb296492585,
perumahan,Kantor Perusahaan,Rumah Rayadinata,"Jl. Gili Asahan Perumahan Griya Udayana II No.mor 20, Karang Baru, Kec. Selaparang, Kota Mataram, Nusa Tenggara Bar. 83123","Karang Baru, Kec. Selaparang, Kota Mataram",NUSA TENGGARA BARAT,83123.0,Indonesia,,,,-85.662.784,1.161.042.713,https://maps.google.com/?cid=0x0:0x3b306868dbfe3c83,
perumahan,Komplek perumahan,Rumah,"Gg. Gilianyar IV Blk. K No.2 no. 4, Karang Baru, Kec. Selaparang, Kota Mataram, Nusa Tenggara Bar. 83123","Karang Baru, Kec. Selaparang, Kota Mataram",NUSA TENGGARA BARAT,83123.0,Indonesia,,,,-85.644.202,1.161.121.745,https://maps.google.com/?cid=0x0:0x43cff3334e854fb9,
perumahan,Toko,lokasi,"C4G5+RW2, Monjok, Kec. Selaparang, Kota Mataram, Nusa Tenggara Bar. 83122","Monjok, Kec. Selaparang, Kota Mataram",NUSA TENGGARA BARAT,83122.0,Indonesia,,,,-85.729.979,1.161.097.512,https://maps.google.com/?cid=0x0:0x23aff54915e7891f,
perumahan,perumahan,RUMAH BAIQ INDAH MULTAZIATI,"C4M4+WFM, Blk. C, Karang Baru, Kec. Selaparang, Kota Mataram, Nusa Tenggara Bar. 83123","Blk. C, Karang Baru, Kec. Selaparang, Kota Mataram",NUSA TENGGARA BARAT,83123.0,Indonesia,,,,-85.651.646,1.161.061.855,https://maps.google.com/?cid=0x0:0xed3efb10751e1ca1,
perumahan,Komplek perumahan,Pondok Trisna Putra  Irma,"C4P6+4HW, Blk. J, Karang Baru, Kec. Selaparang, Kota Mataram, Nusa Tenggara Bar. 83123","Blk. J, Karang Baru, Kec. Selaparang, Kota Mataram",NUSA TENGGARA BARAT,83123.0,Indonesia,,,,-85.646.347,116.111.457,https://maps.google.com/?cid=0x0:0x8088f85a13656e79,
perumahan,Komplek perumahan,Taman selaprang,"Jl. Panorama 4 Blk. M No.1, Sesela, Kec. Gunungsari, Kabupaten Lombok Barat, Nusa Tenggara Bar. 83124","Sesela, Kec. Gunungsari, Kabupaten Lombok Barat",NUSA TENGGARA BARAT,83124.0,Indonesia,,,,-85.528.645,1.160.951.308,https://maps.google.com/?cid=0x0:0x66d95f768f5bd2fc,
perumahan,Pembangunan Perumahan,PERUMAHAN GRIYA PESONA RINJANI G12,"Perumahan, Ruko Griya Pesona Rinjani, Jl. Adi Sucipto G12, North Ampenan, Ampenan, Mataram City, West Nusa Tenggara 83123","Ruko Griya Pesona Rinjani, Jl. Adi Sucipto G12, North Ampenan, Ampenan, Mataram City",NUSA TENGGARA BARAT,83123.0,Indonesia,,,,-8.565.736,1.160.968.572,https://maps.google.com/?cid=0x0:0xaa25d0a3012fddbf,
perumahan,perumahan,Rumah Lombok,"C4H4+Q2Q, Karang Baru, Kec. Selaparang, Kota Mataram, Nusa Tenggara Bar. 83123","Karang Baru, Kec. Selaparang, Kota Mataram",NUSA TENGGARA BARAT,83123.0,Indonesia,,,,-85.702.177,1.161.046.194,https://maps.google.com/?cid=0x0:0x3a224635b2e56a63,
perumahan,Komplek perumahan,Rumah dan Kios,"Jln alokasia blok A1/A3, Kekalik Jaya, Kec. Sekarbela, Kota Mataram, Nusa Tenggara Bar. 83115","Kekalik Jaya, Kec. Sekarbela, Kota Mataram",NUSA TENGGARA BARAT,83115.0,Indonesia,,,,-85.921.413,1.160.822.275,https://maps.google.com/?cid=0x0:0x2c74805e591ebb99,
perumahan,perumahan,Bintang KhanidaSyari'ah,"Gg. Panda IV No.28, Monjok, Kec. Selaparang, Lombok, Nusa Tenggara Bar. 83239","Monjok, Kec. Selaparang, Lombok",NUSA TENGGARA BARAT,83239.0,Indonesia,2129707601,,,-85.750.501,1.161.226.633,https://maps.google.com/?cid=0x0:0xe9293fa13d728e56,
perumahan,perumahan,Guest House Rumah Lombok,"Timur, Jl. Jend. Sudirman No.20, Rembiga, Timur, Kota Mataram, Nusa Tenggara Bar. 83124","Jl. Jend. Sudirman No.20, Rembiga, Timur, Kota Mataram",NUSA TENGGARA BARAT,83124.0,Indonesia,87770277415,,,-8.562.763,1.161.148.626,https://maps.google.com/?cid=0x0:0xbdb67170584f387b,
perumahan,perumahan,Pandora Hotel,"Jl. Catur Warga No.55, Pejanggik, Kec. Mataram, Kota Mataram, Nusa Tenggara Bar. 83122","Pejanggik, Kec. Mataram, Kota Mataram",NUSA TENGGARA BARAT,83122.0,Indonesia,370623979,,,-85.849.402,1.161.098.675,https://maps.google.com/?cid=0x0:0x90bbee58919c104b,
perumahan,perumahan,Lombok Guest House,"Jl. Pariwisata Majeluk No.82, Monjok Tim., Kec. Selaparang, Kota Mataram, Nusa Tenggara Bar. 83121","Monjok Tim., Kec. Selaparang, Kota Mataram",NUSA TENGGARA BARAT,83121.0,Indonesia,81936736754,,,-85.798.273,1.161.182.342,https://maps.google.com/?cid=0x0:0xe30f34669ef009df,
perumahan,perumahan,Nusa Tenggara Bar. 83124,"Rembiga, Kec. Selaparang, Kota Mataram, Nusa Tenggara Bar.","Kota Mataram, Nusa Tenggara Bar.",NUSA TENGGARA BARAT,,Indonesia,,,,-85.603.602,1.161.049.214,https://maps.google.com/?cid=0x0:0x1c00c5eb6016c5f0,
perumahan,Komplek perumahan,Perumahan Bumi Selaparang Asri,"C4W8+WG4, Jl. Dr. Wahidin, Midang, Kec. Selaparang, Kota Mataram, Nusa Tenggara Bar. 83351","Jl. Dr. Wahidin, Midang, Kec. Selaparang, Kota Mataram",NUSA TENGGARA BARAT,83351.0,Indonesia,85219999998,,,-85.527.369,1.161.163.369,https://maps.google.com/?cid=0x0:0x82261498250b7f77,
perumahan,Komplek perumahan,Griya Selaparang,"Jl. Krakatau No.15, Midang, Kec. Gunungsari, Kabupaten Lombok Barat, Nusa Tenggara Bar. 83351","Midang, Kec. Gunungsari, Kabupaten Lombok Barat",NUSA TENGGARA BARAT,83351.0,Indonesia,,,,-85.666.022,1.160.961.877,https://maps.google.com/?cid=0x0:0x9d6dad5311482edc,
perumahan,perumahan,Pinggir sungai,"C4R9+44R, Rembiga, Kec. Selaparang, Kota Mataram, Nusa Tenggara Bar. 83124","Rembiga, Kec. Selaparang, Kota Mataram",NUSA TENGGARA BARAT,83124.0,Indonesia,,,,-85.596.165,116.117.783,https://maps.google.com/?cid=0x0:0xdd9486342aa1133d,
perumahan,Kantor Perusahaan,Perumahan,"Graha Adi sucipto Jl. Adi Sucipto, Rembiga, Kec. Selaparang, Kota Mataram, Nusa Tenggara Bar.","Kota Mataram, Nusa Tenggara Bar.",NUSA TENGGARA BARAT,,Indonesia,,,,-85.641.105,1.161.018.409,https://maps.google.com/?cid=0x0:0x48870a0a69fc1ced,
perumahan,Perhimpunan Pengembang Perumahan,Rumah saya,"Gg. IX No.20, Karang Baru, Kec. Selaparang, Kota Mataram, Nusa Tenggara Bar. 83123","Karang Baru, Kec. Selaparang, Kota Mataram",NUSA TENGGARA BARAT,83123.0,Indonesia,,,,-85.666.649,1.161.060.522,https://maps.google.com/?cid=0x0:0xd3e290ffba92a0c6,
perumahan,Komplek perumahan,Rumah Solichun,"Gg. IV B, Rembiga, Kec. Selaparang, Kota Mataram, Nusa Tenggara Bar.","Kota Mataram, Nusa Tenggara Bar.",NUSA TENGGARA BARAT,,Indonesia,,,,-8.558.229,1.161.152.791,https://maps.google.com/?cid=0x0:0x889009038f6ba9dd,
perumahan,Komplek perumahan,"BUMI SELAPARANG ASRI, jl. Berlianvraya","Jl. Ruby Raya No.BB 11, Midang, Kec. Gunungsari, Kabupaten Lombok Barat, Nusa Tenggara Bar. 83351","Midang, Kec. Gunungsari, Kabupaten Lombok Barat",NUSA TENGGARA BARAT,83351.0,Indonesia,,,,-85.537.213,116.113.255,https://maps.google.com/?cid=0x0:0x88dc648479b8cca8,
perumahan,Komplek perumahan,Bale yuki,"C4Q8+RQG, Jl. Halmahera, Rembiga, Kec. Selaparang, Kota Mataram, Nusa Tenggara Bar. 83124","Jl. Halmahera, Rembiga, Kec. Selaparang, Kota Mataram",NUSA TENGGARA BARAT,83124.0,Indonesia,,,,-85.603.682,1.161.169.569,https://maps.google.com/?cid=0x0:0x25ae83bc5282ac1e,
perumahan,Toko,lokasi,"C4G5+RW2, Monjok, Kec. Selaparang, Kota Mataram, Nusa Tenggara Bar. 83122","Monjok, Kec. Selaparang, Kota Mataram",NUSA TENGGARA BARAT,83122.0,Indonesia,,,,-85.729.979,1.161.097.512,https://maps.google.com/?cid=0x0:0x23aff54915e7891f,
perumahan,Komplek perumahan,"Karang Baru, Kec. Selaparang","Jl. Gili Terawangan No.35, Karang Baru, Kec. Selaparang, Kota Mataram, Nusa Tenggara Bar. 83122","Karang Baru, Kec. Selaparang, Kota Mataram",NUSA TENGGARA BARAT,83122.0,Indonesia,,,,-85.721.352,1.161.045.209,https://maps.google.com/?cid=0x0:0xec25fe8922250d0a,
perumahan,Vila,Perumahan Griya Udayana II (Dua),"C4P3+5HJ, Karang Baru, Kec. Selaparang, Kota Mataram, Nusa Tenggara Bar. 83123","Karang Baru, Kec. Selaparang, Kota Mataram",NUSA TENGGARA BARAT,83123.0,Indonesia,,,,-85.645.482,1.161.038.953,https://maps.google.com/?cid=0x0:0x785bdcfaf39a2675,
perumahan,perumahan,Rumah albi,"C4Q9+V5M, Rembiga, Kec. Selaparang, Kota Mataram, Nusa Tenggara Bar. 83124","Rembiga, Kec. Selaparang, Kota Mataram",NUSA TENGGARA BARAT,83124.0,Indonesia,,,,-85.602.862,1.161.179.321,https://maps.google.com/?cid=0x0:0xebe96740f9d82f08,
perumahan,Komplek perumahan,Perumahan Permata Rembiga,"C4R7+3QX Perumahan Permata Rembiga. 7 (bukan, Jl. Halmahera Raya Gg. 7, RT.11/RW.233, Rembiga, Kec. Selaparang, Kota Mataram, Nusa Tenggara Bar. 83351","Jl. Halmahera Raya Gg. 7, RT.11/RW.233, Rembiga, Kec. Selaparang, Kota Mataram",NUSA TENGGARA BARAT,83351.0,Indonesia,,,,-85.597.561,1.161.144.795,https://maps.google.com/?cid=0x0:0xb49f39a728c9d208,
perumahan,Perumahan,Perumahan Javana Riverside,"C4V6+CJP, Jl. Melati Raya, Rembiga, Kec. Selaparang, Kota Mataram, Nusa Tenggara Bar. 83351","Jl. Melati Raya, Rembiga, Kec. Selaparang, Kota Mataram",NUSA TENGGARA BARAT,83351.0,Indonesia,,,,-85.564.143,1.161.115.776,https://maps.google.com/?cid=0x0:0x3baba322b8c29f55,
perumahan,Komplek perumahan,Taman selaprang,"Jl. Panorama 4 Blk. M No.1, Sesela, Kec. Gunungsari, Kabupaten Lombok Barat, Nusa Tenggara Bar. 83124","Sesela, Kec. Gunungsari, Kabupaten Lombok Barat",NUSA TENGGARA BARAT,83124.0,Indonesia,,,,-85.528.645,1.160.951.308,https://maps.google.com/?cid=0x0:0x66d95f768f5bd2fc,
perumahan,perumahan,sari Home,"Gg. Nusa Dua No.2, Rembiga, Kec. Selaparang, Kota Mataram, Nusa Tenggara Bar. 83124","Rembiga, Kec. Selaparang, Kota Mataram",NUSA TENGGARA BARAT,83124.0,Indonesia,,,,-85.619.541,116.111.449,https://maps.google.com/?cid=0x0:0xdb1c509b22f5101d,
perumahan,Komplek perumahan,Graha Selaparang Sesela,"C3XW+436, Sesela, Kec. Gunungsari, Kabupaten Lombok Barat, Nusa Tenggara Bar. 83351","Sesela, Kec. Gunungsari, Kabupaten Lombok Barat",NUSA TENGGARA BARAT,83351.0,Indonesia,,,,-85.522.131,1.160.951.499,https://maps.google.com/?cid=0x0:0xaee227401fa21c7f,
perumahan,Komplek perumahan,Rumah Irul,"C4R6+QFC, Rembiga, Kec. Selaparang, Kota Mataram, Nusa Tenggara Bar.","Kota Mataram, Nusa Tenggara Bar.",NUSA TENGGARA BARAT,,Indonesia,,,,-85.580.616,1.161.111.258,https://maps.google.com/?cid=0x0:0x5a3493a380244d6f,
perumahan,Komplek perumahan,BTN REMBIGA MATARAM,"C4R7+X66 BTN, Jl. Melati Raya, Rembiga, Selaparang, Mataram City, West Nusa Tenggara 83351","Jl. Melati Raya, Rembiga, Selaparang, Mataram City",NUSA TENGGARA BARAT,83351.0,Indonesia,,,,-85.575.861,1.161.130.153,https://maps.google.com/?cid=0x0:0x6453d5015c8f5ad0,
perumahan,Pembangunan Perumahan,Perumahan Green Sejahtera Jati Sela,"C3XQ+3MR, Jalan Nurul Falah, Jati Sela, Kec. Gunungsari, Kabupaten Lombok Barat, Nusa Tenggara Bar. 83124","Jalan Nurul Falah, Jati Sela, Kec. Gunungsari, Kabupaten Lombok Barat",NUSA TENGGARA BARAT,83124.0,Indonesia,,,,-85.522.595,1.160.891.395,https://maps.google.com/?cid=0x0:0x3570e258c77f4f51,
perumahan,Komplek perumahan,rumah uti,"C4Q6+72M, Rembiga, Kec. Selaparang, Kota Mataram, Nusa Tenggara Bar. 83124","Rembiga, Kec. Selaparang, Kota Mataram",NUSA TENGGARA BARAT,83124.0,Indonesia,,,,-85.617.801,1.161.100.374,https://maps.google.com/?cid=0x0:0xc77c59a169b545a5,
perumahan,Rumah Kayu,GRAHA PERMATA KOTA,"Perumahan graha permata kota, Selagalas, Kec. Lingsar, Kota Mataram, Nusa Tenggara Bar. 83112","Selagalas, Kec. Lingsar, Kota Mataram",NUSA TENGGARA BARAT,83112.0,Indonesia,,,,-85.786.773,1.161.519.292,https://maps.google.com/?cid=0x0:0x431f7a4a9f6dee6d,
perumahan,perumahan,Kec. Selaparang,"Kota Mataram, Nusa Tenggara Bar.","Kota Mataram, Nusa Tenggara Bar.",NUSA TENGGARA BARAT,,Indonesia,,,,-85.684.481,1.161.078.889,https://maps.google.com/?cid=0x0:0x7d525957c24a7220,
perumahan,Komplek perumahan,Rumah,"Jl. Dr. Wahidin Gg. Tanimbar No.15, Rembiga, Kec. Selaparang, Kota Mataram, Nusa Tenggara Bar. 83124","Rembiga, Kec. Selaparang, Kota Mataram",NUSA TENGGARA BARAT,83124.0,Indonesia,,,,-85.592.203,1.161.117.031,https://maps.google.com/?cid=0x0:0xaac5bf8745ded94b,
perumahan,Komplek perumahan,Rumah,"C3JW+7M7, Jl. Lestari, Pejarakan Karya, Kec. Ampenan, Kota Mataram, Nusa Tenggara Bar. 83113","Jl. Lestari, Pejarakan Karya, Kec. Ampenan, Kota Mataram",NUSA TENGGARA BARAT,83113.0,Indonesia,,,,-85.693.024,1.160.965.248,https://maps.google.com/?cid=0x0:0xb979fe90ee98824e,
perumahan,perumahan,Guest House Rumah Lombok,"Timur, Jl. Jend. Sudirman No.20, Rembiga, Timur, Kota Mataram, Nusa Tenggara Bar. 83124","Jl. Jend. Sudirman No.20, Rembiga, Timur, Kota Mataram",NUSA TENGGARA BARAT,83124.0,Indonesia,87770277415,,,-8.562.763,1.161.148.626,https://maps.google.com/?cid=0x0:0xbdb67170584f387b,
perumahan,perumahan,Pandora Hotel,"Jl. Catur Warga No.55, Pejanggik, Kec. Mataram, Kota Mataram, Nusa Tenggara Bar. 83122","Pejanggik, Kec. Mataram, Kota Mataram",NUSA TENGGARA BARAT,83122.0,Indonesia,370623979,,,-85.849.402,1.161.098.675,https://maps.google.com/?cid=0x0:0x90bbee58919c104b,
perumahan,perumahan,Lombok Guest House,"Jl. Pariwisata Majeluk No.82, Monjok Tim., Kec. Selaparang, Kota Mataram, Nusa Tenggara Bar. 83121","Monjok Tim., Kec. Selaparang, Kota Mataram",NUSA TENGGARA BARAT,83121.0,Indonesia,81936736754,,,-85.798.273,1.161.182.342,https://maps.google.com/?cid=0x0:0xe30f34669ef009df,
perumahan,perumahan,Nusa Tenggara Bar. 83125,"Kec. Selaparang, Kota Mataram, Nusa Tenggara Bar.","Kota Mataram, Nusa Tenggara Bar.",NUSA TENGGARA BARAT,,Indonesia,,,,-8.578.357,116.099.012,https://maps.google.com/?cid=0x0:0x1c00c5eb6016c620,
perumahan,Komplek perumahan,Perumahan Bumi Selaparang Asri,"C4W8+WG4, Jl. Dr. Wahidin, Midang, Kec. Selaparang, Kota Mataram, Nusa Tenggara Bar. 83351","Jl. Dr. Wahidin, Midang, Kec. Selaparang, Kota Mataram",NUSA TENGGARA BARAT,83351.0,Indonesia,85219999998,,,-85.527.369,1.161.163.369,https://maps.google.com/?cid=0x0:0x82261498250b7f77,
perumahan,Komplek perumahan,Griya Selaparang,"Jl. Krakatau No.15, Midang, Kec. Gunungsari, Kabupaten Lombok Barat, Nusa Tenggara Bar. 83351","Midang, Kec. Gunungsari, Kabupaten Lombok Barat",NUSA TENGGARA BARAT,83351.0,Indonesia,,,,-85.666.022,1.160.961.877,https://maps.google.com/?cid=0x0:0x9d6dad5311482edc,
perumahan,perumahan,rumah,"Jl. Gn. Baru No.38a, Dasan Agung, Kec. Selaparang, Kota Mataram, Nusa Tenggara Bar. 83125","Dasan Agung, Kec. Selaparang, Kota Mataram",NUSA TENGGARA BARAT,83125.0,Indonesia,,,,-85.790.569,1.160.959.722,https://maps.google.com/?cid=0x0:0x61ae77d0e520170c,
perumahan,perumahan,rumah,"Jl. Sakura IV No.6, Gomong, Kec. Selaparang, Kota Mataram, Nusa Tenggara Bar. 83115","Gomong, Kec. Selaparang, Kota Mataram",NUSA TENGGARA BARAT,83115.0,Indonesia,,,,-85.852.235,1.160.960.216,https://maps.google.com/?cid=0x0:0xd5272bacf3f8a39f,
perumahan,Komplek perumahan,LOLA,"C38X+RX2, Jl. Pendidikan, Gomong, Kec. Selaparang, Kota Mataram, Nusa Tenggara Bar. 83125","Jl. Pendidikan, Gomong, Kec. Selaparang, Kota Mataram",NUSA TENGGARA BARAT,83125.0,Indonesia,,,,-85.829.852,1.160.998.765,https://maps.google.com/?cid=0x0:0x72d5049148846015,
perumahan,Panti sosial,Perumahan Griya Semanggi,"C4F3+3J8, Jl. Semanggi, Monjok Bar., Kec. Selaparang, Kota Mataram, Nusa Tenggara Bar. 83111","Jl. Semanggi, Monjok Bar., Kec. Selaparang, Kota Mataram",NUSA TENGGARA BARAT,83111.0,Indonesia,,,,-85.773.361,1.161.040.692,https://maps.google.com/?cid=0x0:0xbd48aec9d35c96d8,
perumahan,Perhimpunan Pengembang Perumahan,Rumah mala,"C4G4+W5F, Gg. Masjid Al Istiqomah, Karang Baru, Kec. Selaparang, Kota Mataram, Nusa Tenggara Bar. 83122","Gg. Masjid Al Istiqomah, Karang Baru, Kec. Selaparang, Kota Mataram",NUSA TENGGARA BARAT,83122.0,Indonesia,,,,-85.726.782,1.161.054.107,https://maps.google.com/?cid=0x0:0x27b54bfcea7995f6,
perumahan,Komplek perumahan,Dasan Agung Pejeruk,"C3CW+VP3, Dasan Agung, Kec. Selaparang, Kota Mataram, Nusa Tenggara Bar. 83125","Dasan Agung, Kec. Selaparang, Kota Mataram",NUSA TENGGARA BARAT,83125.0,Indonesia,,,,-8.577.856,1.160.968.096,https://maps.google.com/?cid=0x0:0xbb6558f30db7f36b,
perumahan,Pengembang Realestat,Bale Riya,"Dasan Agung, Kec. Selaparang, Kota Mataram, Nusa Tenggara Bar.","Kota Mataram, Nusa Tenggara Bar.",NUSA TENGGARA BARAT,,Indonesia,82340806403,,,-8.576.992,1.161.004.523,https://maps.google.com/?cid=0x0:0xc2782630a20b5b7,
perumahan,Toko,lokasi,"C4G5+RW2, Monjok, Kec. Selaparang, Kota Mataram, Nusa Tenggara Bar. 83122","Monjok, Kec. Selaparang, Kota Mataram",NUSA TENGGARA BARAT,83122.0,Indonesia,,,,-85.729.979,1.161.097.512,https://maps.google.com/?cid=0x0:0x23aff54915e7891f,
perumahan,Kantor Perusahaan,Perumahan,"Graha Adi sucipto Jl. Adi Sucipto, Rembiga, Kec. Selaparang, Kota Mataram, Nusa Tenggara Bar.","Kota Mataram, Nusa Tenggara Bar.",NUSA TENGGARA BARAT,,Indonesia,,,,-85.641.105,1.161.018.409,https://maps.google.com/?cid=0x0:0x48870a0a69fc1ced,
perumahan,,Eka Jaya Asri,"Jl. Ekajaya No.1, Monjok Bar., Kec. Selaparang, Kota Mataram, Nusa Tenggara Bar. 83122","Monjok Bar., Kec. Selaparang, Kota Mataram",NUSA TENGGARA BARAT,83122.0,Indonesia,,,,-8.575.093,1.161.032.625,https://maps.google.com/?cid=0x0:0xa5dd0861a47f4f49,
perumahan,Perhimpunan Pengembang Perumahan,Dasan agung arong arong barat,"C3CV+8WG, Jl. Langko, Dasan Agung, Kec. Selaparang, Kota Mataram, Nusa Tenggara Bar. 83125","Jl. Langko, Dasan Agung, Kec. Selaparang, Kota Mataram",NUSA TENGGARA BARAT,83125.0,Indonesia,,,,-85.791.803,1.160.948.417,https://maps.google.com/?cid=0x0:0xafd2d7f029224afc,
perumahan,Perhimpunan Pengembang Perumahan,Kos,"Jl. Gn. Merapi No.257, Dasan Agung Baru, Kec. Selaparang, Kota Mataram, Nusa Tenggara Bar. 83113","Dasan Agung Baru, Kec. Selaparang, Kota Mataram",NUSA TENGGARA BARAT,83113.0,Indonesia,8385804664,,,-85.775.926,1.160.937.876,https://maps.google.com/?cid=0x0:0x239c6273bb42c2a9,
perumahan,perumahan,Rumah Emy/Ojik,"C3FW+VQV, Kb. Sari, Kec. Ampenan, Kota Mataram, Nusa Tenggara Bar.","Kota Mataram, Nusa Tenggara Bar.",NUSA TENGGARA BARAT,,Indonesia,89656071168,,,-85.752.566,1.160.969.063,https://maps.google.com/?cid=0x0:0x567a15d8494e9c17,
perumahan,Komplek perumahan,Rakhmat zaini,"Jl. Leli No.24, Mataram Bar., Kec. Selaparang, Kota Mataram, Nusa Tenggara Bar. 83126","Mataram Bar., Kec. Selaparang, Kota Mataram",NUSA TENGGARA BARAT,83126.0,Indonesia,81907962742,,,-85.794.204,1.161.061.414,https://maps.google.com/?cid=0x0:0x663acfb9955dcf88,
perumahan,Komplek perumahan,Rumah ngember,"C3FW+2J7, Jl. Gn. Pengsong, Dasan Agung, Kec. Selaparang, Kota Mataram, Nusa Tenggara Bar. 83125","Jl. Gn. Pengsong, Dasan Agung, Kec. Selaparang, Kota Mataram",NUSA TENGGARA BARAT,83125.0,Indonesia,,,,-8.577.461,1.160.965.372,https://maps.google.com/?cid=0x0:0x35bb21fe7466d288,
perumahan,Komplek perumahan,Rumah Kiki,"Jl. Semanggi III No.22, Monjok Bar., Kec. Selaparang, Kota Mataram, Nusa Tenggara Bar. 83122","Monjok Bar., Kec. Selaparang, Kota Mataram",NUSA TENGGARA BARAT,83122.0,Indonesia,,,,-85.762.226,1.161.032.797,https://maps.google.com/?cid=0x0:0xdad5731062cb897,
perumahan,perumahan,Rumah,"Jl. Gn. Merapi Gg. Merdeka No.VII, Dasan Agung Baru, Kec. Selaparang, Kota Mataram, Nusa Tenggara Bar.","Kota Mataram, Nusa Tenggara Bar.",NUSA TENGGARA BARAT,,Indonesia,,,,-85.775.445,1.160.908.113,https://maps.google.com/?cid=0x0:0x8e5360a59a04063e,
perumahan,Asosiasi Penduduk,Perumahan Griya Gegutu Selaparang,"C4PC+V7F, Rembiga, Kec. Selaparang, Kota Mataram, Nusa Tenggara Bar. 83124","Rembiga, Kec. Selaparang, Kota Mataram",NUSA TENGGARA BARAT,83124.0,Indonesia,87864431317,,,-85.628.119,1.161.206.782,https://maps.google.com/?cid=0x0:0xa7712b446cc1546b,
perumahan,Komplek perumahan,Rumah Cemare,"C4F6+Q28, Monjok Bar., Kec. Selaparang, Kota Mataram, Nusa Tenggara Bar. 83122","Monjok Bar., Kec. Selaparang, Kota Mataram",NUSA TENGGARA BARAT,83122.0,Indonesia,,,,-8.575.556,116.110.069,https://maps.google.com/?cid=0x0:0xac74589855118cbc,
perumahan,Pembangunan Perumahan,Kos,"C4C4+XQ7, Terong Tawah, Kec. Selaparang, Kabupaten Lombok Barat, Nusa Tenggara Bar.","Kabupaten Lombok Barat, Nusa Tenggara Bar.",NUSA TENGGARA BARAT,,Indonesia,,,,-85.775.768,1.161.069.145,https://maps.google.com/?cid=0x0:0xd7ee82ece7b52e81,
perumahan,Pembangunan Perumahan,LINGKUNGAN GOMONG LAMA MATARAM,"Jl. Bunga Matahari No.1, Gomong, Kec. Selaparang, Kota Mataram, Nusa Tenggara Bar. 83125","Gomong, Kec. Selaparang, Kota Mataram",NUSA TENGGARA BARAT,83125.0,Indonesia,,,,-85.845.751,1.160.993.613,https://maps.google.com/?cid=0x0:0xe7225d2728e3f6e8,
perumahan,Pembangunan Perumahan,kavlingan,"C4H7+2VF, Jl. Sunan Sudar, Monjok, Kec. Selaparang, Kota Mataram, Nusa Tenggara Bar.","Kota Mataram, Nusa Tenggara Bar.",NUSA TENGGARA BARAT,,Indonesia,,,,-85.724.752,1.161.147.775,https://maps.google.com/?cid=0x0:0x935e7cb296492585,
perumahan,perumahan,Rumah Lombok,"C4H4+Q2Q, Karang Baru, Kec. Selaparang, Kota Mataram, Nusa Tenggara Bar. 83123","Karang Baru, Kec. Selaparang, Kota Mataram",NUSA TENGGARA BARAT,83123.0,Indonesia,,,,-85.702.177,1.161.046.194,https://maps.google.com/?cid=0x0:0x3a224635b2e56a63,
perumahan,Komplek perumahan,BTN Kekalik,"C33R+MWP, Jl. Dodokan Raya, Karang Pule, Kec. Sekarbela, Kota Mataram, Nusa Tenggara Bar. 83115","Jl. Dodokan Raya, Karang Pule, Kec. Sekarbela, Kota Mataram",NUSA TENGGARA BARAT,83115.0,Indonesia,,,,-85.957.913,1.160.923.267,https://maps.google.com/?cid=0x0:0x9bd6505a3d859329,
perumahan,perumahan,Mataram Bar.,"Kec. Selaparang, Kota Mataram, Nusa Tenggara Bar.","Kota Mataram, Nusa Tenggara Bar.",NUSA TENGGARA BARAT,,Indonesia,,,,-85.829.508,1.161.049.214,https://maps.google.com/?cid=0x0:0xb0fce1861a938750,
perumahan,Developer Rumah Hunian Khusus,Rumah Subsidi,"C442+5JC, Jl. Sriwijaya, Punia, Kec. Mataram, Kota Mataram, Nusa Tenggara Bar. 83237","Jl. Sriwijaya, Punia, Kec. Mataram, Kota Mataram",NUSA TENGGARA BARAT,83237.0,Indonesia,,,,-85.945.545,1.161.015.219,https://maps.google.com/?cid=0x0:0x29076be954507016,
perumahan,perumahan,Jl. Selaparang,"Mayura, Kec. Cakranegara, Kota Mataram, Nusa Tenggara Bar.","Kota Mataram, Nusa Tenggara Bar.",NUSA TENGGARA BARAT,,Indonesia,,,,-8.587.736,116.138.451,https://maps.google.com/?cid=0x0:0x3dfa2b65347be5cc,
perumahan,Komplek perumahan,Perumahan Bumi Selaparang Asri,"C4W8+WG4, Jl. Dr. Wahidin, Midang, Kec. Selaparang, Kota Mataram, Nusa Tenggara Bar. 83351","Jl. Dr. Wahidin, Midang, Kec. Selaparang, Kota Mataram",NUSA TENGGARA BARAT,83351.0,Indonesia,85219999998,,,-85.527.369,1.161.163.369,https://maps.google.com/?cid=0x0:0x82261498250b7f77,
perumahan,Asosiasi Penduduk,Perumahan Griya Gegutu Selaparang,"C4PC+V7F, Rembiga, Kec. Selaparang, Kota Mataram, Nusa Tenggara Bar. 83124","Rembiga, Kec. Selaparang, Kota Mataram",NUSA TENGGARA BARAT,83124.0,Indonesia,87864431317,,,-85.628.119,1.161.206.782,https://maps.google.com/?cid=0x0:0xa7712b446cc1546b,
perumahan,Kantor Perusahaan,Perumahan,"Graha Adi sucipto Jl. Adi Sucipto, Rembiga, Kec. Selaparang, Kota Mataram, Nusa Tenggara Bar.","Kota Mataram, Nusa Tenggara Bar.",NUSA TENGGARA BARAT,,Indonesia,,,,-85.641.105,1.161.018.409,https://maps.google.com/?cid=0x0:0x48870a0a69fc1ced,
perumahan,Komplek perumahan,LOLA,"C38X+RX2, Jl. Pendidikan, Gomong, Kec. Selaparang, Kota Mataram, Nusa Tenggara Bar. 83125","Jl. Pendidikan, Gomong, Kec. Selaparang, Kota Mataram",NUSA TENGGARA BARAT,83125.0,Indonesia,,,,-85.829.852,1.160.998.765,https://maps.google.com/?cid=0x0:0x72d5049148846015,
perumahan,perumahan,rumah i made suparta adnyana,"C4C3+JR2, Monjok Bar., Kec. Selaparang, Kota Mataram, Nusa Tenggara Bar.","Kota Mataram, Nusa Tenggara Bar.",NUSA TENGGARA BARAT,,Indonesia,,,,-8.578.489,1.161.045.021,https://maps.google.com/?cid=0x0:0xeb98ae0c1c6f1901,
perumahan,Toko,lokasi,"C4G5+RW2, Monjok, Kec. Selaparang, Kota Mataram, Nusa Tenggara Bar. 83122","Monjok, Kec. Selaparang, Kota Mataram",NUSA TENGGARA BARAT,83122.0,Indonesia,,,,-85.729.979,1.161.097.512,https://maps.google.com/?cid=0x0:0x23aff54915e7891f,
perumahan,Komplek perumahan,Griya Selaparang,"Jl. Krakatau No.15, Midang, Kec. Gunungsari, Kabupaten Lombok Barat, Nusa Tenggara Bar. 83351","Midang, Kec. Gunungsari, Kabupaten Lombok Barat",NUSA TENGGARA BARAT,83351.0,Indonesia,,,,-85.666.022,1.160.961.877,https://maps.google.com/?cid=0x0:0x9d6dad5311482edc,
perumahan,Komplek perumahan,Rumah Diki,"C37X+J83, Jl. Kecubung, Gomong, Kec. Selaparang, Kota Mataram, Nusa Tenggara Bar. 83126","Jl. Kecubung, Gomong, Kec. Selaparang, Kota Mataram",NUSA TENGGARA BARAT,83126.0,Indonesia,,,,-85.859.954,1.160.983.006,https://maps.google.com/?cid=0x0:0x66a7092f76139558,
perumahan,Komplek perumahan,Made Abeng,"Jl. Selaparang GG kepundung II No.13 A, negarasakah Utara, Kec. Cakranegara, Kota Mataram, Nusa Tenggara Bar.","Kota Mataram, Nusa Tenggara Bar.",NUSA TENGGARA BARAT,,Indonesia,,,,-8.587.653,116.139.356,https://maps.google.com/?cid=0x0:0x92dee5319b573a83,
perumahan,Komplek perumahan,Kod,"Jalan. W.R. Supratman NO 08 II Karang Medain Barat Kelurahan Barat, Mataram Bar., Kec. Selaparang, Kota Mataram, Nusa Tenggara Bar. 83126","Mataram Bar., Kec. Selaparang, Kota Mataram",NUSA TENGGARA BARAT,83126.0,Indonesia,,,,-85.860.989,1.161.063.665,https://maps.google.com/?cid=0x0:0x3fe1626fb48714d1,
perumahan,Komplek perumahan,Rumah Airlangga dan Syailendra,"Jl. Pramuka No.7b, Mataram Bar., Kec. Selaparang, Kota Mataram, Nusa Tenggara Bar. 83126","Mataram Bar., Kec. Selaparang, Kota Mataram",NUSA TENGGARA BARAT,83126.0,Indonesia,,,,-85.859.768,1.161.038.465,https://maps.google.com/?cid=0x0:0xd3c3479709b3ef2f,
perumahan,Komplek perumahan,Rakhmat zaini,"Jl. Leli No.24, Mataram Bar., Kec. Selaparang, Kota Mataram, Nusa Tenggara Bar. 83126","Mataram Bar., Kec. Selaparang, Kota Mataram",NUSA TENGGARA BARAT,83126.0,Indonesia,81907962742,,,-85.794.204,1.161.061.414,https://maps.google.com/?cid=0x0:0x663acfb9955dcf88,
perumahan,Komplek perumahan,Rumah desi cantik,"Jl. Catur Warga No.29A, Mataram Bar., Kec. Selaparang, Kota Mataram, Nusa Tenggara Bar. 83126","Mataram Bar., Kec. Selaparang, Kota Mataram",NUSA TENGGARA BARAT,83126.0,Indonesia,,,,-85.850.471,1.161.059.656,https://maps.google.com/?cid=0x0:0x5f3bef47e3a5ebb5,
perumahan,Perhimpunan Pengembang Perumahan,Rumah mala,"C4G4+W5F, Gg. Masjid Al Istiqomah, Karang Baru, Kec. Selaparang, Kota Mataram, Nusa Tenggara Bar. 83122","Gg. Masjid Al Istiqomah, Karang Baru, Kec. Selaparang, Kota Mataram",NUSA TENGGARA BARAT,83122.0,Indonesia,,,,-85.726.782,1.161.054.107,https://maps.google.com/?cid=0x0:0x27b54bfcea7995f6,
perumahan,perumahan,Perumahan Permata Indah,"Jl. Mirah Menjangan No.2, Selagalas, Kec. Sandubaya, Kota Mataram, Nusa Tenggara Bar. 83236","Selagalas, Kec. Sandubaya, Kota Mataram",NUSA TENGGARA BARAT,83236.0,Indonesia,,,,-85.859.116,1.161.459.712,https://maps.google.com/?cid=0x0:0xde830505cb311ba,
perumahan,perumahan,Atharfamily,"C47R+5HF, Jl. Peternakan, Selagalas, Kec. Sandubaya, Kota Mataram, Nusa Tenggara Bar. 83237","Jl. Peternakan, Selagalas, Kec. Sandubaya, Kota Mataram",NUSA TENGGARA BARAT,83237.0,Indonesia,,,,-85.869.465,1.161.414.116,https://maps.google.com/?cid=0x0:0x668ab4d88571d3a4,
perumahan,Komplek perumahan,Rumah Pak Regep (Alm),"C473+WXX, Jl. Karang Medain Utara, Mataram Bar., Kec. Selaparang, Kota Mataram, Nusa Tenggara Bar. 83126","Jl. Karang Medain Utara, Mataram Bar., Kec. Selaparang, Kota Mataram",NUSA TENGGARA BARAT,83126.0,Indonesia,,,,-85.851.489,1.161.049.707,https://maps.google.com/?cid=0x0:0xb99dcdb0007953d3,
perumahan,Komplek perumahan,"Karang Baru, Kec. Selaparang","Jl. Gili Terawangan No.35, Karang Baru, Kec. Selaparang, Kota Mataram, Nusa Tenggara Bar. 83122","Karang Baru, Kec. Selaparang, Kota Mataram",NUSA TENGGARA BARAT,83122.0,Indonesia,,,,-85.721.352,1.161.045.209,https://maps.google.com/?cid=0x0:0xec25fe8922250d0a,
perumahan,Komplek perumahan,Rumah H.M Said Samiun,"Muhajirin, Jl. Aneka Jl. Cemp. No.1, RT.04/RW.10, Dasan Agung, Kec. Selaparang, Kota Mataram, Nusa Tenggara Bar.","Kota Mataram, Nusa Tenggara Bar.",NUSA TENGGARA BARAT,,Indonesia,,,,-85.776.378,1.160.999.624,https://maps.google.com/?cid=0x0:0xafd2f0764bde33a9,
perumahan,perumahan,Nusa Tenggara Bar. 83126,"Kec. Selaparang, Kota Mataram, Nusa Tenggara Bar.","Kota Mataram, Nusa Tenggara Bar.",NUSA TENGGARA BARAT,,Indonesia,,,,-85.854.614,1.161.049.214,https://maps.google.com/?cid=0x0:0x1c00c5eb6016c660,
perumahan,perumahan,rumah,"Jl. Sakura IV No.6, Gomong, Kec. Selaparang, Kota Mataram, Nusa Tenggara Bar. 83115","Gomong, Kec. Selaparang, Kota Mataram",NUSA TENGGARA BARAT,83115.0,Indonesia,,,,-85.852.235,1.160.960.216,https://maps.google.com/?cid=0x0:0xd5272bacf3f8a39f,
perumahan,Komplek perumahan,Kompleks Rumah Dinas Ditjen Perbendaharaan,"C4C5+3GG, Monjok Bar., Kec. Selaparang, Kota Mataram, Nusa Tenggara Bar. 83126","Monjok Bar., Kec. Selaparang, Kota Mataram",NUSA TENGGARA BARAT,83126.0,Indonesia,,,,-85.798.057,1.161.088.127,https://maps.google.com/?cid=0x0:0x2f6e84c36d0b04bb,
perumahan,,Pariwisata 2,"Jl. Pariwisata No.2, Monjok Bar., Kec. Selaparang, Kota Mataram, Nusa Tenggara Bar. 83126","Monjok Bar., Kec. Selaparang, Kota Mataram",NUSA TENGGARA BARAT,83126.0,Indonesia,,,,-85.807.188,1.161.100.227,https://maps.google.com/?cid=0x0:0x65a51e81a66877d9,
perumahan,Panti sosial,Perumahan Griya Semanggi,"C4F3+3J8, Jl. Semanggi, Monjok Bar., Kec. Selaparang, Kota Mataram, Nusa Tenggara Bar. 83111","Jl. Semanggi, Monjok Bar., Kec. Selaparang, Kota Mataram",NUSA TENGGARA BARAT,83111.0,Indonesia,,,,-85.773.361,1.161.040.692,https://maps.google.com/?cid=0x0:0xbd48aec9d35c96d8,
perumahan,Komplek perumahan,RUMAH GATERA,"Jl. Komodo No.13, Monjok Tim., Kec. Selaparang, Kota Mataram, Nusa Tenggara Bar. 83122","Monjok Tim., Kec. Selaparang, Kota Mataram",NUSA TENGGARA BARAT,83122.0,Indonesia,,,,-85.807.234,1.161.116.526,https://maps.google.com/?cid=0x0:0xba4dc4c8a16695be,
perumahan,Komplek perumahan,Rumah Okan,"Jl. Semanggi IV No.6, Monjok Bar., Kec. Selaparang, Kota Mataram, Nusa Tenggara Bar. 83122","Monjok Bar., Kec. Selaparang, Kota Mataram",NUSA TENGGARA BARAT,83122.0,Indonesia,,,,-85.761.422,1.161.047.991,https://maps.google.com/?cid=0x0:0x3f5096bbd4ce4712,
perumahan,Pembangunan Perumahan,Kos,"C4C4+XQ7, Terong Tawah, Kec. Selaparang, Kabupaten Lombok Barat, Nusa Tenggara Bar.","Kabupaten Lombok Barat, Nusa Tenggara Bar.",NUSA TENGGARA BARAT,,Indonesia,,,,-85.775.768,1.161.069.145,https://maps.google.com/?cid=0x0:0xd7ee82ece7b52e81,
perumahan,Rumah Kayu,GRAHA PERMATA KOTA,"Perumahan graha permata kota, Selagalas, Kec. Lingsar, Kota Mataram, Nusa Tenggara Bar. 83112","Selagalas, Kec. Lingsar, Kota Mataram",NUSA TENGGARA BARAT,83112.0,Indonesia,,,,-85.786.773,1.161.519.292,https://maps.google.com/?cid=0x0:0x431f7a4a9f6dee6d,
