Category,Real Category,Business Name,Address,City,State,Postal Code,Country,Phone,Email,Website,Latitude,Longitude,Map Link,Details Link
perumahan,perumahan,Banjar,"Dencarik, Kec. Banjar, Kabupaten Buleleng, Bali","Kabupaten Buleleng, Bali",BALI,,Indonesia,,,,-8.197.203,114.967.102,https://maps.google.com/?cid=0x0:0xa7e9487a89a6b594,
perumahan,Pembangunan Perumahan,Triangle House,"RX38+4VV, Banjar, Kec. Banjar, Kabupaten Buleleng, Bali 81152","Banjar, Kec. Banjar, Kabupaten Buleleng",BALI,81152.0,Indonesia,,,,-81.971.438,1.149.671.724,https://maps.google.com/?cid=0x0:0xab27becee9f2eefd,
perumahan,Perumahan,Perumahan Griya Merta Asri,"RX8H+3M3, Dencarik, Kec. Banjar, Kabupaten Buleleng, Bali","Kabupaten Buleleng, Bali",BALI,,Indonesia,,,,-81.840.178,1.149.798.377,https://maps.google.com/?cid=0x0:0x4fee2f226de25cbc,
perumahan,Rumah Kayu,Rumah loli,"RX38+3WX, Dencarik, Kec. Banjar, Kabupaten Buleleng, Bali","Kabupaten Buleleng, Bali",BALI,,Indonesia,,,,-81.973.547,1.149.673.111,https://maps.google.com/?cid=0x0:0x123e9163226bc155,
perumahan,perumahan,Perumahan taman dencarik blok II no 4,"RX38+4VV, Dencarik, Kec. Banjar, Kabupaten Buleleng, Bali 81152","Dencarik, Kec. Banjar, Kabupaten Buleleng",BALI,81152.0,Indonesia,87762560722,,,-81.971.438,1.149.671.724,https://maps.google.com/?cid=0x0:0x9ab185bf408bf796,
perumahan,Kompleks Townhouse,Perumahan Bali View jln Tampaksiring,"no. 8, Ruko Baliview, Jl. Raya Cirendeu Jl. Tampak Siring, Pisangan, Ciputat Timur, South Tangerang City, Banten 15419","Ruko Baliview, Jl. Raya Cirendeu Jl. Tampak Siring, Pisangan, Ciputat Timur, South Tangerang City",BALI,15419.0,Indonesia,,,,-63.205.704,1.067.676.717,https://maps.google.com/?cid=0x0:0x60c69748e9d6a1c8,
perumahan,perumahan,Banjar,"Kec. Banjar, Kota Banjar, Jawa Barat","Kota Banjar, Jawa Barat",BALI,,Indonesia,,,,-73.706.874,1.085.342.487,https://maps.google.com/?cid=0x0:0x401e8f1fc28e140,
perumahan,Komplek perumahan,Bali View Kemayu/Batavia,"Jl. Tampak Siring, Pisangan, Kec. Ciputat Tim., Kota Tangerang Selatan, Banten 15419","Pisangan, Kec. Ciputat Tim., Kota Tangerang Selatan",BALI,15419.0,Indonesia,,,,-63.189.046,1.067.611.208,https://maps.google.com/?cid=0x0:0xdc8e1fbdd2e5ac9d,
perumahan,Komplek perumahan,Komplek Empang Sari Banjar,"J4Q4+6QF, Unnamed Road, Banjar, Kec. Banjar, Kabupaten Pandeglang, Banten 42252","Unnamed Road, Banjar, Kec. Banjar, Kabupaten Pandeglang",BALI,42252.0,Indonesia,,,,-63.635.037,1.061.082.064,https://maps.google.com/?cid=0x0:0x948594169375038b,
perumahan,Komplek perumahan,Perum Grand Sakinah,"JGFM+63W, Jl. Gotong Royong, Lingk. Sukarame, Mekarsari, Banjar, Banjar City, West Java 46321","Jl. Gotong Royong, Lingk. Sukarame, Mekarsari, Banjar, Banjar City",BALI,46321.0,Indonesia,,,,-7.376.896,108.532.692,https://maps.google.com/?cid=0x0:0x53379539d77c6b26,
perumahan,Komplek perumahan,Rumah pojok kidul,"J3HX+9Q7, RW.Kadujapan, Citalahab, Kec. Banjar, Kabupaten Pandeglang, Banten 42252","RW.Kadujapan, Citalahab, Kec. Banjar, Kabupaten Pandeglang",BALI,42252.0,Indonesia,,,,-6.371.525,1.060.994.052,https://maps.google.com/?cid=0x0:0x7b7efc82cd688e25,
perumahan,Rumah berlibur,Banjar,"J3WW+XJG, Banjar, Kec. Banjar, Kabupaten Pandeglang, Banten 42252","Banjar, Kec. Banjar, Kabupaten Pandeglang",BALI,42252.0,Indonesia,,,,-63.526.836,1.060.955.085,https://maps.google.com/?cid=0x0:0xc9537ee63ba39eb5,
perumahan,Pembangunan Perumahan,Kp. Warnasari,"Kp Warnasari RT 004/003, Banjar, Kec. Banjar, Kabupaten Pandeglang, 42252","Banjar, Kec. Banjar",BALI,42252.0,Indonesia,,,,-63.525.051,1.060.968.057,https://maps.google.com/?cid=0x0:0xce91cd21e2ce978e,
perumahan,Komplek perumahan,Rumah Faris,"J3RP+662, Gunungputri, Kec. Banjar, Kabupaten Pandeglang, Banten 42252","Gunungputri, Kec. Banjar, Kabupaten Pandeglang",BALI,42252.0,Indonesia,,,,-63.587.054,1.060.857.674,https://maps.google.com/?cid=0x0:0x993d625e0132d361,
perumahan,Komplek perumahan,Banjar Town House New,"Jl. Dr. Husein Kartasasmita, Pintu, Singa, Kec. Banjar, Kota Banjar, Jawa Barat 46311","Pintu, Singa, Kec. Banjar, Kota Banjar",BALI,46311.0,Indonesia,83832575573,,,-73.726.675,1.085.228.462,https://maps.google.com/?cid=0x0:0x3bdb3bd008a53511,
perumahan,Komplek perumahan,Banjar Residence,"JGJP+MC5, Banjar, Kec. Banjar, Kota Banjar, Jawa Barat 46311","Banjar, Kec. Banjar, Kota Banjar",BALI,46311.0,Indonesia,,,,-73.683.697,1.085.361.116,https://maps.google.com/?cid=0x0:0x9a19e75d0520c370,
perumahan,Pembangunan Perumahan,Zahwa Residence,"Jl. Tentara Pelajar, Mekarsari, Kec. Banjar, Kota Banjar, Jawa Barat 46321","Mekarsari, Kec. Banjar, Kota Banjar",BALI,46321.0,Indonesia,,,,-73.825.897,1.085.354.816,https://maps.google.com/?cid=0x0:0xecd4f58dbedbcbb6,
perumahan,Komplek perumahan,Rumah Ustad Hilmi Banjar,"JG7R+GHR, Jl. Pelita, Hegarsari, Kec. Pataruman, Kota Banjar, Jawa Barat 46322","Jl. Pelita, Hegarsari, Kec. Pataruman, Kota Banjar",BALI,46322.0,Indonesia,,,,-73.854.867,1.085.415.467,https://maps.google.com/?cid=0x0:0x9b37980e4e935ce2,
perumahan,Komplek perumahan,Kampoeng Duren Tinggi,"J4W3+8MR, Jl. Kadu Jangkung, Banjar, Kec. Banjar, Kabupaten Pandeglang, Banten 42252","Jl. Kadu Jangkung, Banjar, Kec. Banjar, Kabupaten Pandeglang",BALI,42252.0,Indonesia,82175725033,,,-63.541.384,1.061.041.446,https://maps.google.com/?cid=0x0:0x4588c96410e1678d,
perumahan,Perhimpunan Pengembang Perumahan,Rumah Bu Hj Wati,"Jl. Maja Cibiuk No.16, Cibodas, Kec. Banjar, Kabupaten Pandeglang, Banten 42252","Cibodas, Kec. Banjar, Kabupaten Pandeglang",BALI,42252.0,Indonesia,,,,-63.621.645,1.060.981.582,https://maps.google.com/?cid=0x0:0x7889359866de9135,
perumahan,Komplek perumahan,Balokang Indah Permai,"Jl. Peta No.121, Balokang, Kec. Banjar, Kota Banjar, Jawa Barat 46312","Balokang, Kec. Banjar, Kota Banjar",BALI,46312.0,Indonesia,82117638766,,,-73.698.202,1.085.047.384,https://maps.google.com/?cid=0x0:0x370ecba4d75989c,
perumahan,Komplek perumahan,HOME MAS REZA,"J4Q4+326, Banjar, Kec. Banjar, Kabupaten Pandeglang, Banten 42252","Banjar, Kec. Banjar, Kabupaten Pandeglang",BALI,42252.0,Indonesia,,,,-63.624.199,106.104.957,https://maps.google.com/?cid=0x0:0xa312b72d622d219,
perumahan,Pembangunan Perumahan,Perum Griya Asri,"JHJH+G59, Sinartanjung, Kec. Pataruman, Kota Banjar, Jawa Barat 46335","Sinartanjung, Kec. Pataruman, Kota Banjar",BALI,46335.0,Indonesia,85223312160,,,-73.687.201,1.085.779.842,https://maps.google.com/?cid=0x0:0xbfe705eaac10cc7a,
perumahan,Pembangunan Perumahan,Dehy Angga,"Banjar Kuda,Desa sekaan, Banjar, Kec. Banjar, Kota Banjar, Jawa Barat","Kota Banjar, Jawa Barat",BALI,,Indonesia,87755455711,,,-73.706.855,1.085.342.311,https://maps.google.com/?cid=0x0:0x87ae7f48afdbe02e,
perumahan,Kafe,Shelter GI banjar,"Mekarsari, Kec. Banjar, Kota Banjar, Jawa Barat 46321","Kec. Banjar, Kota Banjar",BALI,46321.0,Indonesia,82317242159,,,-7.377.805,1.085.378.167,https://maps.google.com/?cid=0x0:0x833b7bbf42ccd3d1,
perumahan,Komplek perumahan,Darla Effendi,"J4Q4+3R4, Banjar, Kec. Banjar, Kabupaten Pandeglang, Banten 42252","Banjar, Kec. Banjar, Kabupaten Pandeglang",BALI,42252.0,Indonesia,,,,-63.623.706,1.061.070.799,https://maps.google.com/?cid=0x0:0xae807f8af973d277,
perumahan,Komplek perumahan,Haurmukti,"JGHM+PMH, Banjar, Kec. Banjar, Kota Banjar, Jawa Barat","Kota Banjar, Jawa Barat",BALI,,Indonesia,,,,-73.706.855,1.085.342.311,https://maps.google.com/?cid=0x0:0x8715d8a0d7e20e1a,
perumahan,Rumah berlibur,Rumah Ninda,"J3VX+PF5Jl. Maja, CibiukBanjar, Kec. Banjar, Kabupaten Pandeglang, Banten 42252","CibiukBanjar, Kec. Banjar, Kabupaten Pandeglang",BALI,42252.0,Indonesia,,,,-63.552.786,106.098.778,https://maps.google.com/?cid=0x0:0x8286ea4427b419ec,
perumahan,perumahan,Kec. Banjar,"Kabupaten Buleleng, Bali","Kabupaten Buleleng, Bali",BALI,,Indonesia,,,,-81.875.908,1.149.736.445,https://maps.google.com/?cid=0x0:0xedaa855c24d6ef02,
perumahan,Perumahan rakyat,Perum Lakah,"QXRQ+X5, Sidetapa, Kec. Banjar, Kabupaten Buleleng, Bali","Kabupaten Buleleng, Bali",BALI,,Indonesia,,,,-8.207.579,114.987.956,https://maps.google.com/?cid=0x0:0xccc16e23e4dcbd8f,
perumahan,Vila,Grya Adi Banjar,"RX59+CQV, Dencarik, Kec. Banjar, Kabupaten Buleleng, Bali 81152","Dencarik, Kec. Banjar, Kabupaten Buleleng",BALI,81152.0,Indonesia,87864525025,,,-81.913.847,1.149.694.314,https://maps.google.com/?cid=0x0:0x906cccdcfe8508b5,
perumahan,Komplek perumahan,Rumah saya,"Jl. Raya Tegeha, Banjar Tegeha, Kec. Banjar, Kabupaten Buleleng, Bali 81152","Banjar Tegeha, Kec. Banjar, Kabupaten Buleleng",BALI,81152.0,Indonesia,,,,-82.049.172,1.149.706.059,https://maps.google.com/?cid=0x0:0xcf02e3401c50cd98,
perumahan,Pembangunan Perumahan,Perumahan Krisna Graha Banjar,"QXV9+Q2P, Dencarik, Kec. Banjar, Kabupaten Buleleng, Bali 81152","Dencarik, Kec. Banjar, Kabupaten Buleleng",BALI,81152.0,Indonesia,,,,-82.056.131,1.149.673.155,https://maps.google.com/?cid=0x0:0x28ea45d0c7d1f6ec,
perumahan,perumahan,Rumah peradana,"RX69+88F, Banjar, Kec. Banjar, Kabupaten Buleleng, Bali","Kabupaten Buleleng, Bali",BALI,,Indonesia,,,,-81.891.786,1.149.682.954,https://maps.google.com/?cid=0x0:0x22db8ca24a398f87,
perumahan,Komplek perumahan,Rumah tut peri,"QXX7+M9H, Banjar, Kec. Banjar, Kabupaten Buleleng, Bali 81152","Banjar, Kec. Banjar, Kabupaten Buleleng",BALI,81152.0,Indonesia,,,,-82.005.063,1.149.640.951,https://maps.google.com/?cid=0x0:0xcd8e0fbc0faeff33,
perumahan,perumahan,rumah banjar,"QXX9+C3V, Jl. Raya Tegeha, Banjar Tegeha, Kec. Banjar, Kabupaten Buleleng, Bali 81152","Jl. Raya Tegeha, Banjar Tegeha, Kec. Banjar, Kabupaten Buleleng",BALI,81152.0,Indonesia,,,,-82.014.204,1.149.677.061,https://maps.google.com/?cid=0x0:0xfb937c38aa3f7a7b,
perumahan,Komplek perumahan,Rumah Blur Family,"RX8P+CHH, Temukus, Kec. Banjar, Kabupaten Buleleng, Bali 81152","Temukus, Kec. Banjar, Kabupaten Buleleng",BALI,81152.0,Indonesia,,,,-81.839.452,1.149.864.916,https://maps.google.com/?cid=0x0:0xedab958ee1412b69,
perumahan,Perumahan,Blok B15,"RX59+C9M Perumahan Grya Adi Banjar, Jl. Seririt- Singaraja, Banjar, Kec. Banjar, Kabupaten Buleleng, Bali 81153","Jl. Seririt- Singaraja, Banjar, Kec. Banjar, Kabupaten Buleleng",BALI,81153.0,Indonesia,,,,-81.914.149,1.149.684.098,https://maps.google.com/?cid=0x0:0xabe429eebcdb7ba7,
perumahan,Komplek perumahan,Rumah Angga,"RX4C+C6J, Dencarik, Kec. Banjar, Kabupaten Buleleng, Bali 81152","Dencarik, Kec. Banjar, Kabupaten Buleleng",BALI,81152.0,Indonesia,,,,-81.939.144,1.149.705.086,https://maps.google.com/?cid=0x0:0x26059ae1b551f00a,
perumahan,Komplek perumahan,Rumah dadong nyoman,"RX8Q+6P4, Jl. Seririt- Singaraja, Temukus, Kec. Banjar, Kabupaten Buleleng, Bali","Kabupaten Buleleng, Bali",BALI,,Indonesia,,,,-81.844.961,1.149.893.397,https://maps.google.com/?cid=0x0:0xc958fbe24b927d3b,
perumahan,Komplek perumahan,Rumah Ondo,"RX29+7QX, Banjar Tegeha, Kec. Banjar, Kabupaten Buleleng, Bali 81152","Banjar Tegeha, Kec. Banjar, Kabupaten Buleleng",BALI,81152.0,Indonesia,87762836181,,,-81.992.894,1.149.698.163,https://maps.google.com/?cid=0x0:0xc4c9fe3fc0c86a52,
perumahan,Perumahan,Perumahan Griya Merta Asri,"RX8H+3M3, Dencarik, Kec. Banjar, Kabupaten Buleleng, Bali","Kabupaten Buleleng, Bali",BALI,,Indonesia,,,,-81.840.178,1.149.798.377,https://maps.google.com/?cid=0x0:0x4fee2f226de25cbc,
perumahan,Komplek perumahan,Rumah KP,"RX8Q+4MC, Banjar Dinas Tengah, Temukus, Kec. Banjar, Kabupaten Buleleng, Bali 81152","Banjar Dinas Tengah, Temukus, Kec. Banjar, Kabupaten Buleleng",BALI,81152.0,Indonesia,,,,-8.184.695,1.149.891.547,https://maps.google.com/?cid=0x0:0x8a20dfedb02f2785,
perumahan,Komplek perumahan,"Perumahan Lestari Graha Temukus Blok C, No 7","dsn, Desa Temukus, pengerangan, Kec. Banjar, Kabupaten Buleleng, Bali 81152","Desa Temukus, pengerangan, Kec. Banjar, Kabupaten Buleleng",BALI,81152.0,Indonesia,,,,-81.847.837,1.149.866.143,https://maps.google.com/?cid=0x0:0x3a9b58ba770d73b3,
perumahan,Pembangunan Perumahan,Rumah kd panca,"RX2W+P9R, Cempaga, Kec. Banjar, Kabupaten Buleleng, Bali 81152","Cempaga, Kec. Banjar, Kabupaten Buleleng",BALI,81152.0,Indonesia,,,,-81.981.492,1.149.958.817,https://maps.google.com/?cid=0x0:0xf42a44caef881a39,
perumahan,Komplek perumahan,"Banjar, Kec.Banjar, Buleleng,Bali","QXR6+J4F, Banjar, Kec. Banjar, Kabupaten Buleleng, Bali 81152","Banjar, Kec. Banjar, Kabupaten Buleleng",BALI,81152.0,Indonesia,,,,-82.084.464,114.960.291,https://maps.google.com/?cid=0x0:0x5364d2d3f7e15ca4,
perumahan,Komplek perumahan,Rumah Roy,"RX28+RP5, Jl. Raya Bajangan, Banjar, Kec. Banjar, Kabupaten Buleleng, Bali 81152","Jl. Raya Bajangan, Banjar, Kec. Banjar, Kabupaten Buleleng",BALI,81152.0,Indonesia,,,,-81.979.855,1.149.668.469,https://maps.google.com/?cid=0x0:0x294c2f8d458a9972,
perumahan,perumahan,Bali,,Bali,BALI,,Indonesia,,,,-84.095.178,115.188.916,https://maps.google.com/?cid=0x0:0x24910fb14b24e690,
perumahan,Perumahan,Grya Alit Kemenuh Banjar,"QXX7+7MX, Banjar, Kec. Banjar, Kabupaten Buleleng, Bali 81152","Banjar, Kec. Banjar, Kabupaten Buleleng",BALI,81152.0,Indonesia,,,,-82.017.677,1.149.642.407,https://maps.google.com/?cid=0x0:0x1966ad49a5d31313,
perumahan,Komplek perumahan,Banjar Bedugul,"HPXP+WPX, Jl. Boulevard Puri Bali, Curug, Kec. Bojongsari, Kota Depok, Jawa Barat 16517","Jl. Boulevard Puri Bali, Curug, Kec. Bojongsari, Kota Depok",BALI,16517.0,Indonesia,,,,-64.001.295,1.067.368.723,https://maps.google.com/?cid=0x0:0x2fa06dcaadec9f5c,
perumahan,perumahan,Jawa Barat 46311,"Kec. Banjar, Kota Banjar, Jawa Barat","Kota Banjar, Jawa Barat",BALI,,Indonesia,,,,-73.682.358,108.525.539,https://maps.google.com/?cid=0x0:0x1c00c5eb568ee970,
perumahan,Komplek perumahan,Perum Pepabri bumi asri Banjar kolot,"Banjar, Kec. Banjar, Kota Banjar, Jawa Barat 46311","Kec. Banjar, Kota Banjar",BALI,46311.0,Indonesia,,,,-73.649.025,1.085.211.816,https://maps.google.com/?cid=0x0:0x9aad0b612ed6ef71,
perumahan,Perumahan,Perumahan Pintusinga Regency,"JGGC+JFC, Ling Pintusinga Regency, RT.06/RW.18, Banjar, Kec. Banjar, Kota Banjar, Jawa Barat 46311","Ling Pintusinga Regency, RT.06/RW.18, Banjar, Kec. Banjar, Kota Banjar",BALI,46311.0,Indonesia,,,,-73.734.331,1.085.211.317,https://maps.google.com/?cid=0x0:0x779b0a9c9cdc7555,
perumahan,Komplek perumahan,Banjar Town House New,"Jl. Dr. Husein Kartasasmita, Pintu, Singa, Kec. Banjar, Kota Banjar, Jawa Barat 46311","Pintu, Singa, Kec. Banjar, Kota Banjar",BALI,46311.0,Indonesia,83832575573,,,-73.726.675,1.085.228.462,https://maps.google.com/?cid=0x0:0x3bdb3bd008a53511,
perumahan,Komplek perumahan,Banjar Residence,"JGJP+MC5, Banjar, Kec. Banjar, Kota Banjar, Jawa Barat 46311","Banjar, Kec. Banjar, Kota Banjar",BALI,46311.0,Indonesia,,,,-73.683.697,1.085.361.116,https://maps.google.com/?cid=0x0:0x9a19e75d0520c370,
perumahan,Komplek perumahan,Perum Grand Sakinah,"JGFM+63W, Jl. Gotong Royong, Lingk. Sukarame, Mekarsari, Banjar, Banjar City, West Java 46321","Jl. Gotong Royong, Lingk. Sukarame, Mekarsari, Banjar, Banjar City",BALI,46321.0,Indonesia,,,,-7.376.896,108.532.692,https://maps.google.com/?cid=0x0:0x53379539d77c6b26,
perumahan,Perumahan,Perum Pepabri B.109,"JGPC+GRJ, Banjar, Kec. Banjar, Kota Banjar, Jawa Barat 46311","Banjar, Kec. Banjar, Kota Banjar",BALI,46311.0,Indonesia,,,,-73.636.014,1.085.219.146,https://maps.google.com/?cid=0x0:0xd6de30635c9bc382,
perumahan,perumahan,Kec. Banjar,"Kabupaten Buleleng, Bali","Kabupaten Buleleng, Bali",BALI,,Indonesia,,,,-81.875.908,1.149.736.445,https://maps.google.com/?cid=0x0:0xedaa855c24d6ef02,
perumahan,Komplek perumahan,Rumah Ondo,"RX29+7QX, Banjar Tegeha, Kec. Banjar, Kabupaten Buleleng, Bali 81152","Banjar Tegeha, Kec. Banjar, Kabupaten Buleleng",BALI,81152.0,Indonesia,87762836181,,,-81.992.894,1.149.698.163,https://maps.google.com/?cid=0x0:0xc4c9fe3fc0c86a52,
perumahan,Komplek perumahan,Rumah tut peri,"QXX7+M9H, Banjar, Kec. Banjar, Kabupaten Buleleng, Bali 81152","Banjar, Kec. Banjar, Kabupaten Buleleng",BALI,81152.0,Indonesia,,,,-82.005.063,1.149.640.951,https://maps.google.com/?cid=0x0:0xcd8e0fbc0faeff33,
perumahan,Perumahan,RUMAH KELVIN SUARJAYA,"QXX9+G4M, Banjar Tegeha, Kec. Banjar, Kabupaten Buleleng, Bali 81152","Banjar Tegeha, Kec. Banjar, Kabupaten Buleleng",BALI,81152.0,Indonesia,,,,-82.010.967,1.149.678.184,https://maps.google.com/?cid=0x0:0xbe1bbd063f1529ba,
perumahan,Perumahan rakyat,Perum Lakah,"QXRQ+X5, Sidetapa, Kec. Banjar, Kabupaten Buleleng, Bali","Kabupaten Buleleng, Bali",BALI,,Indonesia,,,,-8.207.579,114.987.956,https://maps.google.com/?cid=0x0:0xccc16e23e4dcbd8f,
perumahan,Komplek perumahan,Rumah Nova pariatna,"RX8Q+R3F, Temukus, Kec. Banjar, Kabupaten Buleleng, Bali 81152","Temukus, Kec. Banjar, Kabupaten Buleleng",BALI,81152.0,Indonesia,,,,-81.829.372,1.149.876.835,https://maps.google.com/?cid=0x0:0xd9339de803c4f710,
perumahan,Komplek perumahan,"Banjar, Kec.Banjar, Buleleng,Bali","QXR6+J4F, Banjar, Kec. Banjar, Kabupaten Buleleng, Bali 81152","Banjar, Kec. Banjar, Kabupaten Buleleng",BALI,81152.0,Indonesia,,,,-82.084.464,114.960.291,https://maps.google.com/?cid=0x0:0x5364d2d3f7e15ca4,
perumahan,Perumahan,Perumahan Griya Merta Asri,"RX8H+3M3, Dencarik, Kec. Banjar, Kabupaten Buleleng, Bali","Kabupaten Buleleng, Bali",BALI,,Indonesia,,,,-81.840.178,1.149.798.377,https://maps.google.com/?cid=0x0:0x4fee2f226de25cbc,
perumahan,Komplek perumahan,Rumah Bapak Putu Suardana,"QXX7+W6V, Banjar, Kec. Banjar, Kabupaten Buleleng, Bali 81152","Banjar, Kec. Banjar, Kabupaten Buleleng",BALI,81152.0,Indonesia,,,,-82.001.263,1.149.630.541,https://maps.google.com/?cid=0x0:0x33f79f79df1ac315,
perumahan,Komplek perumahan,Rumah KP,"RX8Q+4MC, Banjar Dinas Tengah, Temukus, Kec. Banjar, Kabupaten Buleleng, Bali 81152","Banjar Dinas Tengah, Temukus, Kec. Banjar, Kabupaten Buleleng",BALI,81152.0,Indonesia,,,,-8.184.695,1.149.891.547,https://maps.google.com/?cid=0x0:0x8a20dfedb02f2785,
perumahan,perumahan,rumah banjar,"QXX9+C3V, Jl. Raya Tegeha, Banjar Tegeha, Kec. Banjar, Kabupaten Buleleng, Bali 81152","Jl. Raya Tegeha, Banjar Tegeha, Kec. Banjar, Kabupaten Buleleng",BALI,81152.0,Indonesia,,,,-82.014.204,1.149.677.061,https://maps.google.com/?cid=0x0:0xfb937c38aa3f7a7b,
perumahan,Komplek perumahan,Rumah Angga,"RX4C+C6J, Dencarik, Kec. Banjar, Kabupaten Buleleng, Bali 81152","Dencarik, Kec. Banjar, Kabupaten Buleleng",BALI,81152.0,Indonesia,,,,-81.939.144,1.149.705.086,https://maps.google.com/?cid=0x0:0x26059ae1b551f00a,
perumahan,Komplek perumahan,ARIK AJA,"RX3C+GJP, Dencarik, Kec. Banjar, Kabupaten Buleleng, Bali","Kabupaten Buleleng, Bali",BALI,,Indonesia,,,,-81.961.743,1.149.715.658,https://maps.google.com/?cid=0x0:0xf5cd8ed634a6a71a,
perumahan,Komplek perumahan,Perumahan pesona tampekan bersinar,"RX2F+PV9, Tampekan, Kec. Banjar, Kabupaten Buleleng, Bali 81152","Tampekan, Kec. Banjar, Kabupaten Buleleng",BALI,81152.0,Indonesia,,,,-81.982.016,1.149.747.227,https://maps.google.com/?cid=0x0:0xabc41aaf270c344c,
perumahan,Vila,Grya Adi Banjar,"RX59+CQV, Dencarik, Kec. Banjar, Kabupaten Buleleng, Bali 81152","Dencarik, Kec. Banjar, Kabupaten Buleleng",BALI,81152.0,Indonesia,87864525025,,,-81.913.847,1.149.694.314,https://maps.google.com/?cid=0x0:0x906cccdcfe8508b5,
perumahan,Komplek perumahan,Rumah dadong nyoman,"RX8Q+6P4, Jl. Seririt- Singaraja, Temukus, Kec. Banjar, Kabupaten Buleleng, Bali","Kabupaten Buleleng, Bali",BALI,,Indonesia,,,,-81.844.961,1.149.893.397,https://maps.google.com/?cid=0x0:0xc958fbe24b927d3b,
perumahan,Komplek perumahan,Perumahan Graha Pudak,"Jl. Raya Bajangan No.Br, Lebah, Dencarik, Kec. Banjar, Kabupaten Buleleng, Bali 81152","Lebah, Dencarik, Kec. Banjar, Kabupaten Buleleng",BALI,81152.0,Indonesia,,,,-81.937.522,1.149.688.265,https://maps.google.com/?cid=0x0:0x3a78cfa532a916c,
perumahan,Pembangunan Perumahan,Perumahan Astina Rahayu 2,"QXWG+94F, Tampekan, Kec. Banjar, Kabupaten Buleleng, Bali 81152","Tampekan, Kec. Banjar, Kabupaten Buleleng",BALI,81152.0,Indonesia,,,,-82.037.767,1.149.752.919,https://maps.google.com/?cid=0x0:0x171f6cc3600c19be,
perumahan,Komplek perumahan,Kubu sudita,"QXR9+QVC, Dencarik, Kec. Banjar, Kabupaten Buleleng, Bali 81152","Dencarik, Kec. Banjar, Kabupaten Buleleng",BALI,81152.0,Indonesia,,,,-820.935,114.970.132,https://maps.google.com/?cid=0x0:0x60116699aa392c32,
perumahan,Komplek perumahan,Arya Home2,"RX8J+FWR, Temukus, Kec. Banjar, Kabupaten Buleleng, Bali 81152","Temukus, Kec. Banjar, Kabupaten Buleleng",BALI,81152.0,Indonesia,,,,-81.837.609,1.149.822.758,https://maps.google.com/?cid=0x0:0x32cc18d02549596a,
perumahan,Perumahan,Perum Balokang Permai,"JGP4+5Q3, Jl. Wijaya Kusuma, Balokang, Kec. Banjar, Kota Banjar, Jawa Barat 46312","Jl. Wijaya Kusuma, Balokang, Kec. Banjar, Kota Banjar",BALI,46312.0,Indonesia,,,,-73.646.034,1.085.069.263,https://maps.google.com/?cid=0x0:0xca7243e83def79f8,
perumahan,Komplek perumahan,Perum Banjar Indah Karangtengah,"JGQ8+W92, Balokang, Kec. Banjar, Kota Banjar, Jawa Barat 46312","Balokang, Kec. Banjar, Kota Banjar",BALI,46312.0,Indonesia,,,,-73.601.845,1.085.160.828,https://maps.google.com/?cid=0x0:0x764187f13bf29716,
perumahan,Pembangunan Perumahan,Perum Mutiara Regency 1  2,"JGJ5+G64, Perum Mutiara Regency, Blok O4, Balokang, Kec. Banjar, Kota Banjar, Jawa Barat 46312","Perum Mutiara Regency, Blok O4, Balokang, Kec. Banjar, Kota Banjar",BALI,46312.0,Indonesia,,,,-7.369.024,1.085.068.189,https://maps.google.com/?cid=0x0:0x62f7d789f4579da6,
perumahan,Perumahan,Bumi Nata Endah Banjar,"JGG5+3RM, Balokang, Kec. Banjar, Kota Banjar, Jawa Barat 46312","Balokang, Kec. Banjar, Kota Banjar",BALI,46312.0,Indonesia,,,,-73.747.916,1.085.095.355,https://maps.google.com/?cid=0x0:0x67b35317b15f733d,
perumahan,Otoritas Perumahan,Perum Balokang,"JGP3+WJ9, Perum Balokang Permai Blok D, Balokang, Kec. Banjar, Kota Banjar, Jawa Barat 46312","Perum Balokang Permai Blok D, Balokang, Kec. Banjar, Kota Banjar",BALI,46312.0,Indonesia,,,,-73.627.153,1.085.041.114,https://maps.google.com/?cid=0x0:0x65862f6f54dac987,
perumahan,Komplek perumahan,Elih House,"Jl. Peta No.74, Balokang, Kec. Banjar, Kota Banjar, Jawa Barat 46312","Balokang, Kec. Banjar, Kota Banjar",BALI,46312.0,Indonesia,,,,-73.719.269,1.085.091.065,https://maps.google.com/?cid=0x0:0xd301d0a8f8ecd847,
perumahan,Komplek perumahan,Perum Griya Permata,"Jl. Karang Tengah, Balokang, Kec. Banjar, Kota Banjar, Jawa Barat 46312","Balokang, Kec. Banjar, Kota Banjar",BALI,46312.0,Indonesia,,,,-73.609.796,1.085.116.979,https://maps.google.com/?cid=0x0:0xb95132b763b85568,
perumahan,Komplek perumahan,Perum Citra Pesona,"JGP6+23F, Jl. Parung, Balokang, Kec. Banjar, Kota Banjar, Jawa Barat 46312","Jl. Parung, Balokang, Kec. Banjar, Kota Banjar",BALI,46312.0,Indonesia,,,,-73.649.292,1.085.101.591,https://maps.google.com/?cid=0x0:0x1e40b639bdcbeced,
perumahan,perumahan,Rumahku,"JGP4+MF6, Jl. Soka II, Balokang, Kec. Banjar, Kota Banjar, Jawa Barat 46312","Jl. Soka II, Balokang, Kec. Banjar, Kota Banjar",BALI,46312.0,Indonesia,,,,-73.633.134,1.085.061.521,https://maps.google.com/?cid=0x0:0x2b0acf67a30f995a,
perumahan,perumahan,Banjar,"Dencarik, Kec. Banjar, Kabupaten Buleleng, Bali","Kabupaten Buleleng, Bali",BALI,,Indonesia,,,,-8.197.203,114.967.102,https://maps.google.com/?cid=0x0:0xa7e9487a89a6b594,
perumahan,Pembangunan Perumahan,Perumahan Krisna Graha Banjar,"QXV9+Q2P, Dencarik, Kec. Banjar, Kabupaten Buleleng, Bali 81152","Dencarik, Kec. Banjar, Kabupaten Buleleng",BALI,81152.0,Indonesia,,,,-82.056.131,1.149.673.155,https://maps.google.com/?cid=0x0:0x28ea45d0c7d1f6ec,
perumahan,Komplek perumahan,Banjar Bedugul,"HPXP+WPX, Jl. Boulevard Puri Bali, Curug, Kec. Bojongsari, Kota Depok, Jawa Barat 16517","Jl. Boulevard Puri Bali, Curug, Kec. Bojongsari, Kota Depok",BALI,16517.0,Indonesia,,,,-64.001.295,1.067.368.723,https://maps.google.com/?cid=0x0:0x2fa06dcaadec9f5c,
perumahan,Pembangunan Perumahan,Banjar Kintamani Blok I3 No.6 Perumahan Tamansari Puri Bali,"JP5Q+73F, Curug, Kec. Bojongsari, Kota Depok, Jawa Barat 16517","Curug, Kec. Bojongsari, Kota Depok",BALI,16517.0,Indonesia,,,,-63.918.024,1.067.376.738,https://maps.google.com/?cid=0x0:0xb22184ea8aeb615a,
perumahan,Perumahan,Gerya Baler Dalem,"RX38+3WX, Dencarik, Kec. Banjar, Kabupaten Buleleng, Bali 81152","Dencarik, Kec. Banjar, Kabupaten Buleleng",BALI,81152.0,Indonesia,,,,-81.972.687,1.149.673.502,https://maps.google.com/?cid=0x0:0xf1b6fdeeb4caf20a,
perumahan,Rumah Kayu,Rumah loli,"RX38+3WX, Dencarik, Kec. Banjar, Kabupaten Buleleng, Bali","Kabupaten Buleleng, Bali",BALI,,Indonesia,,,,-81.973.547,1.149.673.111,https://maps.google.com/?cid=0x0:0x123e9163226bc155,
perumahan,Komplek perumahan,Tamansari puribali banjar tabanan blok D1,"Jl. Boulevard Puri Bali No.22, Curug, Kec. Bojongsari, Kota Depok, Jawa Barat 16517","Curug, Kec. Bojongsari, Kota Depok",BALI,16517.0,Indonesia,,,,-63.964.299,1.067.360.411,https://maps.google.com/?cid=0x0:0xb76c827436b92e95,
perumahan,perumahan,Kec. Banjar,"Kabupaten Buleleng, Bali","Kabupaten Buleleng, Bali",BALI,,Indonesia,,,,-81.875.908,1.149.736.445,https://maps.google.com/?cid=0x0:0xedaa855c24d6ef02,
perumahan,perumahan,Jawa Barat 46313,"Kec. Banjar, Kota Banjar, Jawa Barat","Kota Banjar, Jawa Barat",BALI,,Indonesia,,,,-73.645.896,1.084.899.234,https://maps.google.com/?cid=0x0:0x1c00c5eb568ee990,
perumahan,Komplek perumahan,Perum Pepabri bumi asri Banjar kolot,"Banjar, Kec. Banjar, Kota Banjar, Jawa Barat 46311","Kec. Banjar, Kota Banjar",BALI,46311.0,Indonesia,,,,-73.649.025,1.085.211.816,https://maps.google.com/?cid=0x0:0x9aad0b612ed6ef71,
perumahan,Pembangunan Perumahan,Saung Asmarandana,"Jl. Pejuang No.131, RT.17/RW.04, Jajawar, Kec. Banjar, Kota Banjar, Jawa Barat 46313","RT.17/RW.04, Jajawar, Kec. Banjar, Kota Banjar",BALI,46313.0,Indonesia,,,,-73.527.625,1.084.917.139,https://maps.google.com/?cid=0x0:0x32707dae5204c164,
perumahan,Komplek perumahan,Perum Alfar Regency,"JGP4+V2R, Jl. Pejuang, Balokang, Kec. Banjar, Kota Banjar, Jawa Barat 46312","Jl. Pejuang, Balokang, Kec. Banjar, Kota Banjar",BALI,46312.0,Indonesia,,,,-73.627.583,1.085.050.147,https://maps.google.com/?cid=0x0:0xf7bfdac40ef48801,
perumahan,Komplek perumahan,Wiwasta_House,"JFXV+2W5, Jajawar, Kec. Banjar, Kota Banjar, Jawa Barat 46313","Jajawar, Kec. Banjar, Kota Banjar",BALI,46313.0,Indonesia,,,,-7.352.405,108.494.538,https://maps.google.com/?cid=0x0:0xc4c7a073e85825d1,
perumahan,Otoritas Perumahan,Perum Balokang,"JGP3+WJ9, Perum Balokang Permai Blok D, Balokang, Kec. Banjar, Kota Banjar, Jawa Barat 46312","Perum Balokang Permai Blok D, Balokang, Kec. Banjar, Kota Banjar",BALI,46312.0,Indonesia,,,,-73.627.153,1.085.041.114,https://maps.google.com/?cid=0x0:0x65862f6f54dac987,
perumahan,Perumahan,Perumahan Pintusinga Regency,"JGGC+JFC, Ling Pintusinga Regency, RT.06/RW.18, Banjar, Kec. Banjar, Kota Banjar, Jawa Barat 46311","Ling Pintusinga Regency, RT.06/RW.18, Banjar, Kec. Banjar, Kota Banjar",BALI,46311.0,Indonesia,,,,-73.734.331,1.085.211.317,https://maps.google.com/?cid=0x0:0x779b0a9c9cdc7555,
perumahan,Perhimpunan Pengembang Perumahan,rumah gecko,"JFMG+V55, Cibeureum, Kec. Banjar, Kota Banjar, Jawa Barat","Kota Banjar, Jawa Barat",BALI,,Indonesia,,,,-73.653.471,1.084.757.182,https://maps.google.com/?cid=0x0:0xa8521c7e25ca6344,
perumahan,Komplek perumahan,Bumi Neng Ismi,"JFVQ+38M, Jl. Wirasantana, Jajawar, Kec. Banjar, Kota Banjar, Jawa Barat 46313","Jl. Wirasantana, Jajawar, Kec. Banjar, Kota Banjar",BALI,46313.0,Indonesia,85323714703,,,-73.572.755,1.084.882.894,https://maps.google.com/?cid=0x0:0x7bc34633d74b3970,
perumahan,Komplek perumahan,Rumah fjri,"JFMF+48F, Cibeureum, Kec. Banjar, Kota Banjar, Jawa Barat 46313","Cibeureum, Kec. Banjar, Kota Banjar",BALI,46313.0,Indonesia,,,,-73.676.547,1.084.732.724,https://maps.google.com/?cid=0x0:0xe0633abe1b3a8dce,
perumahan,Komplek perumahan,Perum Banjar Indah Karangtengah,"JGQ8+W92, Balokang, Kec. Banjar, Kota Banjar, Jawa Barat 46312","Balokang, Kec. Banjar, Kota Banjar",BALI,46312.0,Indonesia,,,,-73.601.845,1.085.160.828,https://maps.google.com/?cid=0x0:0x764187f13bf29716,
perumahan,Perumahan,Bumi Nata Endah Banjar,"JGG5+3RM, Balokang, Kec. Banjar, Kota Banjar, Jawa Barat 46312","Balokang, Kec. Banjar, Kota Banjar",BALI,46312.0,Indonesia,,,,-73.747.916,1.085.095.355,https://maps.google.com/?cid=0x0:0x67b35317b15f733d,
perumahan,Perumahan,Perum Pepabri B.109,"JGPC+GRJ, Banjar, Kec. Banjar, Kota Banjar, Jawa Barat 46311","Banjar, Kec. Banjar, Kota Banjar",BALI,46311.0,Indonesia,,,,-73.636.014,1.085.219.146,https://maps.google.com/?cid=0x0:0xd6de30635c9bc382,
perumahan,Perumahan,PERUM BUMI NEGLASARI ENDAH,"JG84+94C ENDAH, PERUM BUMI, Neglasari, Kec. Banjar, Kota Banjar, Jawa Barat 46315","PERUM BUMI, Neglasari, Kec. Banjar, Kota Banjar",BALI,46315.0,Indonesia,81220202160,,,-73.840.741,1.085.052.788,https://maps.google.com/?cid=0x0:0xb57d33bf66a254d9,
perumahan,Pembangunan Perumahan,Bojong,"Jl. Wirasantana No.243, Jajawar, Kec. Banjar, Kota Banjar, Jawa Barat 46313","Jajawar, Kec. Banjar, Kota Banjar",BALI,46313.0,Indonesia,,,,-73.613.445,1.084.946.302,https://maps.google.com/?cid=0x0:0x4e0fdadeb80ba3c7,
perumahan,Pembangunan Perumahan,Perum Mutiara Regency 1  2,"JGJ5+G64, Perum Mutiara Regency, Blok O4, Balokang, Kec. Banjar, Kota Banjar, Jawa Barat 46312","Perum Mutiara Regency, Blok O4, Balokang, Kec. Banjar, Kota Banjar",BALI,46312.0,Indonesia,,,,-7.369.024,1.085.068.189,https://maps.google.com/?cid=0x0:0x62f7d789f4579da6,
perumahan,Inspektur Tempat Tinggal,Dilla disini,"JFVW+763, Jajawar, Kec. Banjar, Kota Banjar, Jawa Barat 46313","Jajawar, Kec. Banjar, Kota Banjar",BALI,46313.0,Indonesia,,,,-7.357.102,108.495.516,https://maps.google.com/?cid=0x0:0xfd440947dc82ff0c,
perumahan,Pembangunan Perumahan,Mety,"JFVJ+666, Jajawar, Kec. Banjar, Kota Banjar, Jawa Barat 46313","Jajawar, Kec. Banjar, Kota Banjar",BALI,46313.0,Indonesia,,,,-73.569.588,1.084.805.157,https://maps.google.com/?cid=0x0:0x172c0d6b54291e5,
perumahan,Komplek perumahan,RUMAH II RIDWAN,"JGC3+3P7, jl sukamulya, RT.24/RW.12, Neglasari, Kec. Banjar, Kota Banjar, Jawa Barat","Kota Banjar, Jawa Barat",BALI,,Indonesia,,,,-73.798.473,1.085.042.861,https://maps.google.com/?cid=0x0:0x725060c7794196c,
perumahan,Pembangunan Perumahan,PERUM ROYAL BANJAR MANSION,"JG8M+JJV, Jl. Tentara Pelajar, Mekarsari, Kec. Banjar, Kota Banjar, Jawa Barat 46321","Jl. Tentara Pelajar, Mekarsari, Kec. Banjar, Kota Banjar",BALI,46321.0,Indonesia,81585693245,,,-73.833.952,1.085.340.501,https://maps.google.com/?cid=0x0:0x5e805a3f180634d4,
perumahan,Jasa Bordir,Rumah fathir bordir,"JGQ5+H64, Balokang, Kec. Banjar, Kota Banjar, Jawa Barat 46312","Balokang, Kec. Banjar, Kota Banjar",BALI,46312.0,Indonesia,,,,-73.610.808,1.085.080.675,https://maps.google.com/?cid=0x0:0x755b9cccb37d7dc0,
perumahan,perumahan,Banjar,"Dencarik, Kec. Banjar, Kabupaten Buleleng, Bali","Kabupaten Buleleng, Bali",BALI,,Indonesia,,,,-8.197.203,114.967.102,https://maps.google.com/?cid=0x0:0xa7e9487a89a6b594,
perumahan,Perumahan,Gerya Baler Dalem,"RX38+3WX, Dencarik, Kec. Banjar, Kabupaten Buleleng, Bali 81152","Dencarik, Kec. Banjar, Kabupaten Buleleng",BALI,81152.0,Indonesia,,,,-81.972.687,1.149.673.502,https://maps.google.com/?cid=0x0:0xf1b6fdeeb4caf20a,
perumahan,Pembangunan Perumahan,Perumahan Krisna Graha Banjar,"QXV9+Q2P, Dencarik, Kec. Banjar, Kabupaten Buleleng, Bali 81152","Dencarik, Kec. Banjar, Kabupaten Buleleng",BALI,81152.0,Indonesia,,,,-82.056.131,1.149.673.155,https://maps.google.com/?cid=0x0:0x28ea45d0c7d1f6ec,
perumahan,Komplek perumahan,Banjar Bedugul,"HPXP+WPX, Jl. Boulevard Puri Bali, Curug, Kec. Bojongsari, Kota Depok, Jawa Barat 16517","Jl. Boulevard Puri Bali, Curug, Kec. Bojongsari, Kota Depok",BALI,16517.0,Indonesia,,,,-64.001.295,1.067.368.723,https://maps.google.com/?cid=0x0:0x2fa06dcaadec9f5c,
perumahan,Rumah Kayu,Rumah loli,"RX38+3WX, Dencarik, Kec. Banjar, Kabupaten Buleleng, Bali","Kabupaten Buleleng, Bali",BALI,,Indonesia,,,,-81.973.547,1.149.673.111,https://maps.google.com/?cid=0x0:0x123e9163226bc155,
perumahan,Komplek perumahan,"Tamansari Puri Bali, Banjar Tabanan, Blok D5/4, Sawangan","Tamansari Puri Bali, Boulevard Tabanan D5/4, Jl. Raya Sawangan Jl. Raya Parung - Ciputat No.KM, RW.1, Curug, Bojongsari, Depok City, West Java 16517","Boulevard Tabanan D5/4, Jl. Raya Sawangan Jl. Raya Parung - Ciputat No.KM, RW.1, Curug, Bojongsari, Depok City",BALI,16517.0,Indonesia,,,,-63.960.092,1.067.359.784,https://maps.google.com/?cid=0x0:0x47c9a831b7b1cc05,
perumahan,perumahan,Jawa Barat 46314,"Situbatu, Kec. Banjar, Kota Banjar, Jawa Barat","Kota Banjar, Jawa Barat",BALI,,Indonesia,,,,-73.803.318,1.084.839.878,https://maps.google.com/?cid=0x0:0x1c00c5eb568ee9a0,
perumahan,Pembangunan Perumahan,Banjar Kintamani Blok I3 No.6 Perumahan Tamansari Puri Bali,"JP5Q+73F, Curug, Kec. Bojongsari, Kota Depok, Jawa Barat 16517","Curug, Kec. Bojongsari, Kota Depok",BALI,16517.0,Indonesia,,,,-63.918.024,1.067.376.738,https://maps.google.com/?cid=0x0:0xb22184ea8aeb615a,
perumahan,Rumah wisata,Kostan Ibu Ina Situbatu,"JF7V+RG, Situbatu, Kec. Banjar, Kota Banjar, Jawa Barat 46314","Situbatu, Kec. Banjar, Kota Banjar",BALI,46314.0,Indonesia,81572465609,,,-73.854.156,1.084.937.998,https://maps.google.com/?cid=0x0:0xd94dc25b3f4af901,
perumahan,Komplek perumahan,Tamansari puribali banjar tabanan blok D1,"Jl. Boulevard Puri Bali No.22, Curug, Kec. Bojongsari, Kota Depok, Jawa Barat 16517","Curug, Kec. Bojongsari, Kota Depok",BALI,16517.0,Indonesia,,,,-63.964.299,1.067.360.411,https://maps.google.com/?cid=0x0:0xb76c827436b92e95,
perumahan,Pembangunan Perumahan,Vensya Land Situbatu,"Unnamed Road, Situbatu, Banjar, Banjar City, West Java 46314","Situbatu, Banjar, Banjar City",BALI,46314.0,Indonesia,81220118601,,,-73.808.586,1.084.893.246,https://maps.google.com/?cid=0x0:0xf1ec5043b48a2534,
perumahan,Komplek perumahan,Rumah Yuliani,"JF8Q+7XP, RT.005/RW.002, Situbatu, Kec. Banjar, Kota Banjar, Jawa Barat","Kota Banjar, Jawa Barat",BALI,,Indonesia,,,,-73.842.851,1.084.899.634,https://maps.google.com/?cid=0x0:0x3a7245ab8af1717c,
perumahan,Perumahan,Perumahan Pintusinga Regency,"JGGC+JFC, Ling Pintusinga Regency, RT.06/RW.18, Banjar, Kec. Banjar, Kota Banjar, Jawa Barat 46311","Ling Pintusinga Regency, RT.06/RW.18, Banjar, Kec. Banjar, Kota Banjar",BALI,46311.0,Indonesia,,,,-73.734.331,1.085.211.317,https://maps.google.com/?cid=0x0:0x779b0a9c9cdc7555,
perumahan,Pembangunan Perumahan,PERUM ROYAL BANJAR MANSION,"JG8M+JJV, Jl. Tentara Pelajar, Mekarsari, Kec. Banjar, Kota Banjar, Jawa Barat 46321","Jl. Tentara Pelajar, Mekarsari, Kec. Banjar, Kota Banjar",BALI,46321.0,Indonesia,81585693245,,,-73.833.952,1.085.340.501,https://maps.google.com/?cid=0x0:0x5e805a3f180634d4,
perumahan,Komplek perumahan,Perum Pepabri bumi asri Banjar kolot,"Banjar, Kec. Banjar, Kota Banjar, Jawa Barat 46311","Kec. Banjar, Kota Banjar",BALI,46311.0,Indonesia,,,,-73.649.025,1.085.211.816,https://maps.google.com/?cid=0x0:0x9aad0b612ed6ef71,
perumahan,Komplek perumahan,Kosan Daffa,"JFGG+XR2, Jl. Jawara, Situbatu, Kec. Banjar, Kota Banjar, Jawa Barat 46314","Jl. Jawara, Situbatu, Kec. Banjar, Kota Banjar",BALI,46314.0,Indonesia,,,,-7.373.668,1.084.770.749,https://maps.google.com/?cid=0x0:0x9933e927ba1643f6,
perumahan,Komplek perumahan,Banjar Town House New,"Jl. Dr. Husein Kartasasmita, Pintu, Singa, Kec. Banjar, Kota Banjar, Jawa Barat 46311","Pintu, Singa, Kec. Banjar, Kota Banjar",BALI,46311.0,Indonesia,83832575573,,,-73.726.675,1.085.228.462,https://maps.google.com/?cid=0x0:0x3bdb3bd008a53511,
perumahan,Komplek perumahan,RUMAH II RIDWAN,"JGC3+3P7, jl sukamulya, RT.24/RW.12, Neglasari, Kec. Banjar, Kota Banjar, Jawa Barat","Kota Banjar, Jawa Barat",BALI,,Indonesia,,,,-73.798.473,1.085.042.861,https://maps.google.com/?cid=0x0:0x725060c7794196c,
perumahan,Perhimpunan Pengembang Perumahan,rumah gecko,"JFMG+V55, Cibeureum, Kec. Banjar, Kota Banjar, Jawa Barat","Kota Banjar, Jawa Barat",BALI,,Indonesia,,,,-73.653.471,1.084.757.182,https://maps.google.com/?cid=0x0:0xa8521c7e25ca6344,
perumahan,Komplek perumahan,Leni Nurlaela Fajriah,"JF9V+P9J, Situbatu, Kec. Banjar, Kota Banjar, Jawa Barat 46314","Situbatu, Kec. Banjar, Kota Banjar",BALI,46314.0,Indonesia,,,,-73.803.919,1.084.930.761,https://maps.google.com/?cid=0x0:0xb18bcf565f8c909e,
perumahan,Komplek perumahan,Agung House,"JFCR+M4P, Situbatu, Kec. Banjar, Kota Banjar, Jawa Barat 46314","Situbatu, Kec. Banjar, Kota Banjar",BALI,46314.0,Indonesia,,,,-73.778.087,1.084.905.354,https://maps.google.com/?cid=0x0:0x6e9bf07cac35dc25,
perumahan,Komplek perumahan,irfan smth,"Jl. Dr. Husein Kartasasmita No.43, Situbatu, Kec. Banjar, Kota Banjar, Jawa Barat 46314","Situbatu, Kec. Banjar, Kota Banjar",BALI,46314.0,Indonesia,,,,-73.843.615,1.084.897.427,https://maps.google.com/?cid=0x0:0xb7a2c7c65ba85db8,
perumahan,Komplek perumahan,juni,"Cibeureum, Kec. Banjar, Kota Banjar, Jawa Barat","Kota Banjar, Jawa Barat",BALI,,Indonesia,,,,-73.668.481,1.084.843.834,https://maps.google.com/?cid=0x0:0x716c169f110e3747,
perumahan,Komplek perumahan,Rumah Mila Apriliani,"Jalan Lapang Mira, RT/RW 14/05, Dusun Parung, Balokang, Kec. Banjar, Kota Banjar, Jawa Barat","Kota Banjar, Jawa Barat",BALI,,Indonesia,,,,-73.699.516,1.085.125.416,https://maps.google.com/?cid=0x0:0x656430844f4d59fa,
perumahan,Komplek perumahan,Perum Banjar Indah Karangtengah,"JGQ8+W92, Balokang, Kec. Banjar, Kota Banjar, Jawa Barat 46312","Balokang, Kec. Banjar, Kota Banjar",BALI,46312.0,Indonesia,,,,-73.601.845,1.085.160.828,https://maps.google.com/?cid=0x0:0x764187f13bf29716,
perumahan,Komplek perumahan,Rumah,"JGPF+29V, Jl. Dipati Ukur, Banjar, Kec. Banjar, Kota Banjar, Jawa Barat 46311","Jl. Dipati Ukur, Banjar, Kec. Banjar, Kota Banjar",BALI,46311.0,Indonesia,,,,-73.647.421,1.085.234.259,https://maps.google.com/?cid=0x0:0xe72eeb4b4cb98e39,
perumahan,Komplek perumahan,Perum Alfar Regency,"JGP4+V2R, Jl. Pejuang, Balokang, Kec. Banjar, Kota Banjar, Jawa Barat 46312","Jl. Pejuang, Balokang, Kec. Banjar, Kota Banjar",BALI,46312.0,Indonesia,,,,-73.627.583,1.085.050.147,https://maps.google.com/?cid=0x0:0xf7bfdac40ef48801,
perumahan,Perumahan,PERUM BUMI NEGLASARI ENDAH,"JG84+94C ENDAH, PERUM BUMI, Neglasari, Kec. Banjar, Kota Banjar, Jawa Barat 46315","PERUM BUMI, Neglasari, Kec. Banjar, Kota Banjar",BALI,46315.0,Indonesia,81220202160,,,-73.840.741,1.085.052.788,https://maps.google.com/?cid=0x0:0xb57d33bf66a254d9,
perumahan,perumahan,Rumah Tiara indah a,"JF7V+CXC, Situbatu, Kec. Banjar, Kota Banjar, Jawa Barat","Kota Banjar, Jawa Barat",BALI,,Indonesia,,,,-73.864.433,1.084.948.886,https://maps.google.com/?cid=0x0:0xf195500755fa99b9,
perumahan,Pembangunan Perumahan,Perumahan Krisna Graha Banjar,"QXV9+Q2P, Dencarik, Kec. Banjar, Kabupaten Buleleng, Bali 81152","Dencarik, Kec. Banjar, Kabupaten Buleleng",BALI,81152.0,Indonesia,,,,-82.056.131,1.149.673.155,https://maps.google.com/?cid=0x0:0x28ea45d0c7d1f6ec,
perumahan,perumahan,Banjar,"Dencarik, Kec. Banjar, Kabupaten Buleleng, Bali","Kabupaten Buleleng, Bali",BALI,,Indonesia,,,,-8.197.203,114.967.102,https://maps.google.com/?cid=0x0:0xa7e9487a89a6b594,
perumahan,Pembangunan Perumahan,Triangle House,"RX38+4VV, Banjar, Kec. Banjar, Kabupaten Buleleng, Bali 81152","Banjar, Kec. Banjar, Kabupaten Buleleng",BALI,81152.0,Indonesia,,,,-81.971.438,1.149.671.724,https://maps.google.com/?cid=0x0:0xab27becee9f2eefd,
perumahan,Rumah Kayu,Rumah loli,"RX38+3WX, Dencarik, Kec. Banjar, Kabupaten Buleleng, Bali","Kabupaten Buleleng, Bali",BALI,,Indonesia,,,,-81.973.547,1.149.673.111,https://maps.google.com/?cid=0x0:0x123e9163226bc155,
perumahan,Komplek perumahan,"Tamansari Puri Bali, Banjar Tabanan, Blok D5/4, Sawangan","Tamansari Puri Bali, Boulevard Tabanan D5/4, Jl. Raya Sawangan Jl. Raya Parung - Ciputat No.KM, RW.1, Curug, Bojongsari, Depok City, West Java 16517","Boulevard Tabanan D5/4, Jl. Raya Sawangan Jl. Raya Parung - Ciputat No.KM, RW.1, Curug, Bojongsari, Depok City",BALI,16517.0,Indonesia,,,,-63.960.092,1.067.359.784,https://maps.google.com/?cid=0x0:0x47c9a831b7b1cc05,
perumahan,Komplek perumahan,Tamansari puribali banjar tabanan blok D1,"Jl. Boulevard Puri Bali No.22, Curug, Kec. Bojongsari, Kota Depok, Jawa Barat 16517","Curug, Kec. Bojongsari, Kota Depok",BALI,16517.0,Indonesia,,,,-63.964.299,1.067.360.411,https://maps.google.com/?cid=0x0:0xb76c827436b92e95,
perumahan,perumahan,Jawa Barat 46315,"Neglasari, Kec. Banjar, Kota Banjar, Jawa Barat","Kota Banjar, Jawa Barat",BALI,,Indonesia,,,,-73.847.367,1.085.017.948,https://maps.google.com/?cid=0x0:0x1c00c5eb568ee9b0,
perumahan,Perumahan,PERUM BUMI NEGLASARI ENDAH,"JG84+94C ENDAH, PERUM BUMI, Neglasari, Kec. Banjar, Kota Banjar, Jawa Barat 46315","PERUM BUMI, Neglasari, Kec. Banjar, Kota Banjar",BALI,46315.0,Indonesia,81220202160,,,-73.840.741,1.085.052.788,https://maps.google.com/?cid=0x0:0xb57d33bf66a254d9,
perumahan,Komplek perumahan,Perum Pepabri bumi asri Banjar kolot,"Banjar, Kec. Banjar, Kota Banjar, Jawa Barat 46311","Kec. Banjar, Kota Banjar",BALI,46311.0,Indonesia,,,,-73.649.025,1.085.211.816,https://maps.google.com/?cid=0x0:0x9aad0b612ed6ef71,
perumahan,Perumahan,Perumahan serambi indah neglasari,"JG85+CGV, Neglasari, Kec. Banjar, Kota Banjar, Jawa Barat 46315","Neglasari, Kec. Banjar, Kota Banjar",BALI,46315.0,Indonesia,,,,-73.838.986,1.085.087.991,https://maps.google.com/?cid=0x0:0xb45e6f1ec5eec49f,
perumahan,Komplek perumahan,Perum Banjar Indah Karangtengah,"JGQ8+W92, Balokang, Kec. Banjar, Kota Banjar, Jawa Barat 46312","Balokang, Kec. Banjar, Kota Banjar",BALI,46312.0,Indonesia,,,,-73.601.845,1.085.160.828,https://maps.google.com/?cid=0x0:0x764187f13bf29716,
perumahan,Komplek perumahan,Arini alfa khoirot,"JG84+RQC, Neglasari, Kec. Banjar, Kota Banjar, Jawa Barat 46315","Neglasari, Kec. Banjar, Kota Banjar",BALI,46315.0,Indonesia,,,,-73.823.636,1.085.058.605,https://maps.google.com/?cid=0x0:0x8a9219e481140a46,
perumahan,Perumahan,Perumahan Pintusinga Regency,"JGGC+JFC, Ling Pintusinga Regency, RT.06/RW.18, Banjar, Kec. Banjar, Kota Banjar, Jawa Barat 46311","Ling Pintusinga Regency, RT.06/RW.18, Banjar, Kec. Banjar, Kota Banjar",BALI,46311.0,Indonesia,,,,-73.734.331,1.085.211.317,https://maps.google.com/?cid=0x0:0x779b0a9c9cdc7555,
perumahan,Komplek perumahan,Rumah Mila Apriliani,"Jalan Lapang Mira, RT/RW 14/05, Dusun Parung, Balokang, Kec. Banjar, Kota Banjar, Jawa Barat","Kota Banjar, Jawa Barat",BALI,,Indonesia,,,,-73.699.516,1.085.125.416,https://maps.google.com/?cid=0x0:0x656430844f4d59fa,
perumahan,Pembangunan Perumahan,Pangrereban Sukmawening,"JF9W+P22, Neglasari, Kec. Banjar, Kota Banjar, Jawa Barat 46315","Neglasari, Kec. Banjar, Kota Banjar",BALI,46315.0,Indonesia,,,,-73.807.264,1.084.950.251,https://maps.google.com/?cid=0x0:0xb92b5a0df148f5b1,
perumahan,Perumahan,Bumi Nata Endah Banjar,"JGG5+3RM, Balokang, Kec. Banjar, Kota Banjar, Jawa Barat 46312","Balokang, Kec. Banjar, Kota Banjar",BALI,46312.0,Indonesia,,,,-73.747.916,1.085.095.355,https://maps.google.com/?cid=0x0:0x67b35317b15f733d,
perumahan,Pembangunan Perumahan,Perum BPI (Bumi Pangrereban Indah),"JGH4+PQR, Jl. Peta, Balokang, Kec. Banjar, Kota Banjar, Jawa Barat","Kota Banjar, Jawa Barat",BALI,,Indonesia,,,,-73.706.438,1.085.068.874,https://maps.google.com/?cid=0x0:0x94916fed079d6ad1,
perumahan,Pembangunan Perumahan,Perum Mutiara Regency 1  2,"JGJ5+G64, Perum Mutiara Regency, Blok O4, Balokang, Kec. Banjar, Kota Banjar, Jawa Barat 46312","Perum Mutiara Regency, Blok O4, Balokang, Kec. Banjar, Kota Banjar",BALI,46312.0,Indonesia,,,,-7.369.024,1.085.068.189,https://maps.google.com/?cid=0x0:0x62f7d789f4579da6,
perumahan,Komplek perumahan,RUMAH II RIDWAN,"JGC3+3P7, jl sukamulya, RT.24/RW.12, Neglasari, Kec. Banjar, Kota Banjar, Jawa Barat","Kota Banjar, Jawa Barat",BALI,,Indonesia,,,,-73.798.473,1.085.042.861,https://maps.google.com/?cid=0x0:0x725060c7794196c,
perumahan,Komplek perumahan,Banjar Town House New,"Jl. Dr. Husein Kartasasmita, Pintu, Singa, Kec. Banjar, Kota Banjar, Jawa Barat 46311","Pintu, Singa, Kec. Banjar, Kota Banjar",BALI,46311.0,Indonesia,83832575573,,,-73.726.675,1.085.228.462,https://maps.google.com/?cid=0x0:0x3bdb3bd008a53511,
perumahan,Komplek perumahan,Elih House,"Jl. Peta No.74, Balokang, Kec. Banjar, Kota Banjar, Jawa Barat 46312","Balokang, Kec. Banjar, Kota Banjar",BALI,46312.0,Indonesia,,,,-73.719.269,1.085.091.065,https://maps.google.com/?cid=0x0:0xd301d0a8f8ecd847,
perumahan,Perhimpunan Pengembang Perumahan,Rumah Riska,"Cilengkong rt10 rw 05 dusun cilengkong, Neglasari, Kec. Banjar, Kota Banjar, Jawa Barat 46315","Neglasari, Kec. Banjar, Kota Banjar",BALI,46315.0,Indonesia,,,,-73.883.941,1.085.046.287,https://maps.google.com/?cid=0x0:0xa045b2d7e5a3a80c,
perumahan,Pembangunan Perumahan,PERUM ROYAL BANJAR MANSION,"JG8M+JJV, Jl. Tentara Pelajar, Mekarsari, Kec. Banjar, Kota Banjar, Jawa Barat 46321","Jl. Tentara Pelajar, Mekarsari, Kec. Banjar, Kota Banjar",BALI,46321.0,Indonesia,81585693245,,,-73.833.952,1.085.340.501,https://maps.google.com/?cid=0x0:0x5e805a3f180634d4,
perumahan,Komplek perumahan,Balokang Indah Permai,"Jl. Peta No.121, Balokang, Kec. Banjar, Kota Banjar, Jawa Barat 46312","Balokang, Kec. Banjar, Kota Banjar",BALI,46312.0,Indonesia,82117638766,,,-73.698.202,1.085.047.384,https://maps.google.com/?cid=0x0:0x370ecba4d75989c,
perumahan,Komplek perumahan,Rumah Agil,"JG83+C9F, Neglasari, Kec. Banjar, Kota Banjar, Jawa Barat","Kota Banjar, Jawa Barat",BALI,,Indonesia,,,,-73.839.449,1.085.034.261,https://maps.google.com/?cid=0x0:0x93a4f7e8c663f5c0,
perumahan,Komplek perumahan,Perum Green Sukapura,"Jl. Tentara Pelajar, Binangun, Kec. Pataruman, Kota Banjar, Jawa Barat 46316","Binangun, Kec. Pataruman, Kota Banjar",BALI,46316.0,Indonesia,,,,-7.389.758,108.528.895,https://maps.google.com/?cid=0x0:0x5be639f59030c4e0,
perumahan,Rumah wisata,Kostan Ibu Ina Situbatu,"JF7V+RG, Situbatu, Kec. Banjar, Kota Banjar, Jawa Barat 46314","Situbatu, Kec. Banjar, Kota Banjar",BALI,46314.0,Indonesia,81572465609,,,-73.854.156,1.084.937.998,https://maps.google.com/?cid=0x0:0xd94dc25b3f4af901,
perumahan,perumahan,Banjar,"Dencarik, Kec. Banjar, Kabupaten Buleleng, Bali","Kabupaten Buleleng, Bali",BALI,,Indonesia,,,,-8.197.203,114.967.102,https://maps.google.com/?cid=0x0:0xa7e9487a89a6b594,
perumahan,Perumahan,Gerya Baler Dalem,"RX38+3WX, Dencarik, Kec. Banjar, Kabupaten Buleleng, Bali 81152","Dencarik, Kec. Banjar, Kabupaten Buleleng",BALI,81152.0,Indonesia,,,,-81.972.687,1.149.673.502,https://maps.google.com/?cid=0x0:0xf1b6fdeeb4caf20a,
perumahan,Pembangunan Perumahan,Triangle House,"RX38+4VV, Banjar, Kec. Banjar, Kabupaten Buleleng, Bali 81152","Banjar, Kec. Banjar, Kabupaten Buleleng",BALI,81152.0,Indonesia,,,,-81.971.438,1.149.671.724,https://maps.google.com/?cid=0x0:0xab27becee9f2eefd,
perumahan,Komplek perumahan,Green House D3,"RX28+3H8, Banjar Tegeha, Kec. Banjar, Kabupaten Buleleng, Bali 81152","Banjar Tegeha, Kec. Banjar, Kabupaten Buleleng",BALI,81152.0,Indonesia,,,,-8.199.826,114.966.439,https://maps.google.com/?cid=0x0:0x5354a869d9df5ded,
perumahan,Perumahan,Perumahan Pintusinga Regency,"JGGC+JFC, Ling Pintusinga Regency, RT.06/RW.18, Banjar, Kec. Banjar, Kota Banjar, Jawa Barat 46311","Ling Pintusinga Regency, RT.06/RW.18, Banjar, Kec. Banjar, Kota Banjar",BALI,46311.0,Indonesia,,,,-73.734.331,1.085.211.317,https://maps.google.com/?cid=0x0:0x779b0a9c9cdc7555,
perumahan,perumahan,Banjar,"Kec. Banjar, Kota Banjar, Jawa Barat","Kota Banjar, Jawa Barat",BALI,,Indonesia,,,,-73.706.874,1.085.342.487,https://maps.google.com/?cid=0x0:0x401e8f1fc28e140,
perumahan,Komplek perumahan,Perum Pepabri bumi asri Banjar kolot,"Banjar, Kec. Banjar, Kota Banjar, Jawa Barat 46311","Kec. Banjar, Kota Banjar",BALI,46311.0,Indonesia,,,,-73.649.025,1.085.211.816,https://maps.google.com/?cid=0x0:0x9aad0b612ed6ef71,
perumahan,Pembangunan Perumahan,Zahwa Residence,"Jl. Tentara Pelajar, Mekarsari, Kec. Banjar, Kota Banjar, Jawa Barat 46321","Mekarsari, Kec. Banjar, Kota Banjar",BALI,46321.0,Indonesia,,,,-73.825.897,1.085.354.816,https://maps.google.com/?cid=0x0:0xecd4f58dbedbcbb6,
perumahan,Komplek perumahan,Perum Grand Sakinah,"JGFM+63W, Jl. Gotong Royong, Lingk. Sukarame, Mekarsari, Banjar, Banjar City, West Java 46321","Jl. Gotong Royong, Lingk. Sukarame, Mekarsari, Banjar, Banjar City",BALI,46321.0,Indonesia,,,,-7.376.896,108.532.692,https://maps.google.com/?cid=0x0:0x53379539d77c6b26,
perumahan,Komplek perumahan,Banjar Town House New,"Jl. Dr. Husein Kartasasmita, Pintu, Singa, Kec. Banjar, Kota Banjar, Jawa Barat 46311","Pintu, Singa, Kec. Banjar, Kota Banjar",BALI,46311.0,Indonesia,83832575573,,,-73.726.675,1.085.228.462,https://maps.google.com/?cid=0x0:0x3bdb3bd008a53511,
perumahan,Komplek perumahan,Banjar Residence,"JGJP+MC5, Banjar, Kec. Banjar, Kota Banjar, Jawa Barat 46311","Banjar, Kec. Banjar, Kota Banjar",BALI,46311.0,Indonesia,,,,-73.683.697,1.085.361.116,https://maps.google.com/?cid=0x0:0x9a19e75d0520c370,
perumahan,Komplek perumahan,Perum Banjar Indah Karangtengah,"JGQ8+W92, Balokang, Kec. Banjar, Kota Banjar, Jawa Barat 46312","Balokang, Kec. Banjar, Kota Banjar",BALI,46312.0,Indonesia,,,,-73.601.845,1.085.160.828,https://maps.google.com/?cid=0x0:0x764187f13bf29716,
perumahan,Komplek perumahan,Rumah Ustad Hilmi Banjar,"JG7R+GHR, Jl. Pelita, Hegarsari, Kec. Pataruman, Kota Banjar, Jawa Barat 46322","Jl. Pelita, Hegarsari, Kec. Pataruman, Kota Banjar",BALI,46322.0,Indonesia,,,,-73.854.867,1.085.415.467,https://maps.google.com/?cid=0x0:0x9b37980e4e935ce2,
perumahan,Komplek perumahan,Haurmukti,"JGHM+PMH, Banjar, Kec. Banjar, Kota Banjar, Jawa Barat","Kota Banjar, Jawa Barat",BALI,,Indonesia,,,,-73.706.855,1.085.342.311,https://maps.google.com/?cid=0x0:0x8715d8a0d7e20e1a,
perumahan,Toko,Matahari Regency Banjar,"Jl. Dipati Ukur No.57, Banjar, Kec. Banjar, Kota Banjar, Jawa Barat 46311","Banjar, Kec. Banjar, Kota Banjar",BALI,46311.0,Indonesia,82657481048,,,-73.660.952,1.085.257.059,https://maps.google.com/?cid=0x0:0x1ef2c4c510031f17,
perumahan,Komplek perumahan,Rumah Aceng,"JGHM+PMH, Nyeromot, Banjar, Kec. Banjar, Kota Banjar, Jawa Barat","Kota Banjar, Jawa Barat",BALI,,Indonesia,,,,-73.706.855,1.085.342.311,https://maps.google.com/?cid=0x0:0xc53cbfcebb371b90,
perumahan,,Perum Taman Sari Indah,"Kolot, Banjar, Kec. Banjar, Kota Banjar, Jawa Barat 46323","Banjar, Kec. Banjar, Kota Banjar",BALI,46323.0,Indonesia,,,,-73.694.375,1.085.214.375,https://maps.google.com/?cid=0x0:0x425c5bf313b0feeb,
perumahan,Komplek perumahan,Yayasan Minhajul Karomah,"Jl. Pelita, Sukamanah, Kec. Pataruman, Kota Banjar, Jawa Barat 46323","Sukamanah, Kec. Pataruman, Kota Banjar",BALI,46323.0,Indonesia,,,,-73.796.519,1.085.596.252,https://maps.google.com/?cid=0x0:0x3ec53963610d30d8,
perumahan,Komplek perumahan,Rumah Banjar,"JGJM+GJJ, Banjar, Kec. Banjar, Kota Banjar, Jawa Barat","Kota Banjar, Jawa Barat",BALI,,Indonesia,,,,-73.686.747,1.085.340.261,https://maps.google.com/?cid=0x0:0x9b143bc307cfc22,
perumahan,Komplek perumahan,Perum Bumi Tropika Cimenyan,"JGHP+2V2, Jl. Jend. Pol. Hoegeng Iman Santoso, Mekarsari, Kec. Banjar, Kota Banjar, Jawa Barat 46321","Jl. Jend. Pol. Hoegeng Iman Santoso, Mekarsari, Kec. Banjar, Kota Banjar",BALI,46321.0,Indonesia,82240381453,,,-73.724.883,1.085.371.276,https://maps.google.com/?cid=0x0:0xcd0a4dac6f181d80,
perumahan,Perumahan,Perum Pepabri B.109,"JGPC+GRJ, Banjar, Kec. Banjar, Kota Banjar, Jawa Barat 46311","Banjar, Kec. Banjar, Kota Banjar",BALI,46311.0,Indonesia,,,,-73.636.014,1.085.219.146,https://maps.google.com/?cid=0x0:0xd6de30635c9bc382,
perumahan,Komplek perumahan,Balokang Indah Permai,"Jl. Peta No.121, Balokang, Kec. Banjar, Kota Banjar, Jawa Barat 46312","Balokang, Kec. Banjar, Kota Banjar",BALI,46312.0,Indonesia,82117638766,,,-73.698.202,1.085.047.384,https://maps.google.com/?cid=0x0:0x370ecba4d75989c,
perumahan,Komplek perumahan,rumah Husna Aulia Hafizha,"JGFJ+8RM, Mekarsari, Kec. Banjar, Kota Banjar, Jawa Barat 46321","Mekarsari, Kec. Banjar, Kota Banjar",BALI,46321.0,Indonesia,,,,-73.766.662,1.085.320.479,https://maps.google.com/?cid=0x0:0xe62a8dd0003db368,
perumahan,Kafe,Shelter GI banjar,"Mekarsari, Kec. Banjar, Kota Banjar, Jawa Barat 46321","Kec. Banjar, Kota Banjar",BALI,46321.0,Indonesia,82317242159,,,-7.377.805,1.085.378.167,https://maps.google.com/?cid=0x0:0x833b7bbf42ccd3d1,
perumahan,Komplek perumahan,Saphire Regency Banjar Patroman,"JGFJ+7QX, Mekarsari, Kec. Banjar, Kota Banjar, Jawa Barat 46321","Mekarsari, Kec. Banjar, Kota Banjar",BALI,46321.0,Indonesia,,,,-73.767.642,1.085.319.856,https://maps.google.com/?cid=0x0:0xa501ddc3e5d16fdd,
perumahan,perumahan,Kec. Banjar,"Kabupaten Buleleng, Bali","Kabupaten Buleleng, Bali",BALI,,Indonesia,,,,-81.875.908,1.149.736.445,https://maps.google.com/?cid=0x0:0xedaa855c24d6ef02,
perumahan,perumahan,rumah banjar,"QXX9+C3V, Jl. Raya Tegeha, Banjar Tegeha, Kec. Banjar, Kabupaten Buleleng, Bali 81152","Jl. Raya Tegeha, Banjar Tegeha, Kec. Banjar, Kabupaten Buleleng",BALI,81152.0,Indonesia,,,,-82.014.204,1.149.677.061,https://maps.google.com/?cid=0x0:0xfb937c38aa3f7a7b,
perumahan,Perumahan rakyat,Perum Lakah,"QXRQ+X5, Sidetapa, Kec. Banjar, Kabupaten Buleleng, Bali","Kabupaten Buleleng, Bali",BALI,,Indonesia,,,,-8.207.579,114.987.956,https://maps.google.com/?cid=0x0:0xccc16e23e4dcbd8f,
perumahan,Komplek perumahan,Perumahan Naratama Banjar Residence,"Jl. Banteng No.Desa, Banjar Tegeha, Kec. Banjar, Kabupaten Buleleng, Bali 81152","Banjar Tegeha, Kec. Banjar, Kabupaten Buleleng",BALI,81152.0,Indonesia,,,,-8.199.869,114.966.234,https://maps.google.com/?cid=0x0:0x41edf33c5842734e,
perumahan,Komplek perumahan,Rumah Ondo,"RX29+7QX, Banjar Tegeha, Kec. Banjar, Kabupaten Buleleng, Bali 81152","Banjar Tegeha, Kec. Banjar, Kabupaten Buleleng",BALI,81152.0,Indonesia,87762836181,,,-81.992.894,1.149.698.163,https://maps.google.com/?cid=0x0:0xc4c9fe3fc0c86a52,
perumahan,Komplek perumahan,Rumah saya,"Jl. Raya Tegeha, Banjar Tegeha, Kec. Banjar, Kabupaten Buleleng, Bali 81152","Banjar Tegeha, Kec. Banjar, Kabupaten Buleleng",BALI,81152.0,Indonesia,,,,-82.049.172,1.149.706.059,https://maps.google.com/?cid=0x0:0xcf02e3401c50cd98,
perumahan,Pembangunan Perumahan,Perumahan Krisna Graha Banjar,"QXV9+Q2P, Dencarik, Kec. Banjar, Kabupaten Buleleng, Bali 81152","Dencarik, Kec. Banjar, Kabupaten Buleleng",BALI,81152.0,Indonesia,,,,-82.056.131,1.149.673.155,https://maps.google.com/?cid=0x0:0x28ea45d0c7d1f6ec,
perumahan,Gedung Apartemen,Tempat Ngopay.,"RX2H+R7, Sidetapa, Kec. Banjar, Kabupaten Buleleng, Bali","Kabupaten Buleleng, Bali",BALI,,Indonesia,,,,-8.197.921,114.978.246,https://maps.google.com/?cid=0x0:0x8e28f8ad97cfdff6,
perumahan,Komplek perumahan,"Banjar, Kec.Banjar, Buleleng,Bali","QXR6+J4F, Banjar, Kec. Banjar, Kabupaten Buleleng, Bali 81152","Banjar, Kec. Banjar, Kabupaten Buleleng",BALI,81152.0,Indonesia,,,,-82.084.464,114.960.291,https://maps.google.com/?cid=0x0:0x5364d2d3f7e15ca4,
perumahan,Komplek perumahan,Rumah tut peri,"QXX7+M9H, Banjar, Kec. Banjar, Kabupaten Buleleng, Bali 81152","Banjar, Kec. Banjar, Kabupaten Buleleng",BALI,81152.0,Indonesia,,,,-82.005.063,1.149.640.951,https://maps.google.com/?cid=0x0:0xcd8e0fbc0faeff33,
perumahan,Komplek perumahan,Rumah Blur Family,"RX8P+CHH, Temukus, Kec. Banjar, Kabupaten Buleleng, Bali 81152","Temukus, Kec. Banjar, Kabupaten Buleleng",BALI,81152.0,Indonesia,,,,-81.839.452,1.149.864.916,https://maps.google.com/?cid=0x0:0xedab958ee1412b69,
perumahan,Perumahan,Perumahan Griya Merta Asri,"RX8H+3M3, Dencarik, Kec. Banjar, Kabupaten Buleleng, Bali","Kabupaten Buleleng, Bali",BALI,,Indonesia,,,,-81.840.178,1.149.798.377,https://maps.google.com/?cid=0x0:0x4fee2f226de25cbc,
perumahan,perumahan,Rumah peradana,"RX69+88F, Banjar, Kec. Banjar, Kabupaten Buleleng, Bali","Kabupaten Buleleng, Bali",BALI,,Indonesia,,,,-81.891.786,1.149.682.954,https://maps.google.com/?cid=0x0:0x22db8ca24a398f87,
perumahan,Komplek perumahan,Rumah dadong nyoman,"RX8Q+6P4, Jl. Seririt- Singaraja, Temukus, Kec. Banjar, Kabupaten Buleleng, Bali","Kabupaten Buleleng, Bali",BALI,,Indonesia,,,,-81.844.961,1.149.893.397,https://maps.google.com/?cid=0x0:0xc958fbe24b927d3b,
perumahan,Perumahan,Blok B15,"RX59+C9M Perumahan Grya Adi Banjar, Jl. Seririt- Singaraja, Banjar, Kec. Banjar, Kabupaten Buleleng, Bali 81153","Jl. Seririt- Singaraja, Banjar, Kec. Banjar, Kabupaten Buleleng",BALI,81153.0,Indonesia,,,,-81.914.149,1.149.684.098,https://maps.google.com/?cid=0x0:0xabe429eebcdb7ba7,
perumahan,Perhimpunan Pengembang Perumahan,lanang,"RX2C+W2W, Dencarik, Kec. Banjar, Kabupaten Buleleng, Bali 81152","Dencarik, Kec. Banjar, Kabupaten Buleleng",BALI,81152.0,Indonesia,,,,-81.967.351,1.149.704.906,https://maps.google.com/?cid=0x0:0xff275142acc294fb,
perumahan,Vila,Grya Adi Banjar,"RX59+CQV, Dencarik, Kec. Banjar, Kabupaten Buleleng, Bali 81152","Dencarik, Kec. Banjar, Kabupaten Buleleng",BALI,81152.0,Indonesia,87864525025,,,-81.913.847,1.149.694.314,https://maps.google.com/?cid=0x0:0x906cccdcfe8508b5,
perumahan,Komplek perumahan,Rumah Angga,"RX4C+C6J, Dencarik, Kec. Banjar, Kabupaten Buleleng, Bali 81152","Dencarik, Kec. Banjar, Kabupaten Buleleng",BALI,81152.0,Indonesia,,,,-81.939.144,1.149.705.086,https://maps.google.com/?cid=0x0:0x26059ae1b551f00a,
perumahan,Komplek perumahan,Perumahan pesona tampekan bersinar,"RX2F+PV9, Tampekan, Kec. Banjar, Kabupaten Buleleng, Bali 81152","Tampekan, Kec. Banjar, Kabupaten Buleleng",BALI,81152.0,Indonesia,,,,-81.982.016,1.149.747.227,https://maps.google.com/?cid=0x0:0xabc41aaf270c344c,
perumahan,Komplek perumahan,Rumah Nova pariatna,"RX8Q+R3F, Temukus, Kec. Banjar, Kabupaten Buleleng, Bali 81152","Temukus, Kec. Banjar, Kabupaten Buleleng",BALI,81152.0,Indonesia,,,,-81.829.372,1.149.876.835,https://maps.google.com/?cid=0x0:0xd9339de803c4f710,
perumahan,perumahan,Jawa Barat 46321,"Kec. Banjar, Kota Banjar, Jawa Barat","Kota Banjar, Jawa Barat",BALI,,Indonesia,,,,-7.378.307,1.085.314.753,https://maps.google.com/?cid=0x0:0x1c00c5eb568ee9d0,
perumahan,Pembangunan Perumahan,PERUM ROYAL BANJAR MANSION,"JG8M+JJV, Jl. Tentara Pelajar, Mekarsari, Kec. Banjar, Kota Banjar, Jawa Barat 46321","Jl. Tentara Pelajar, Mekarsari, Kec. Banjar, Kota Banjar",BALI,46321.0,Indonesia,81585693245,,,-73.833.952,1.085.340.501,https://maps.google.com/?cid=0x0:0x5e805a3f180634d4,
perumahan,Otoritas Perumahan,Perum. Krisna Graha Tukadmungga 2,"V324+M76, Tukadmungga, Kec. Buleleng, Kabupaten Buleleng, Bali 81119","Tukadmungga, Kec. Buleleng, Kabupaten Buleleng",BALI,81119.0,Indonesia,,,,-81.483.385,1.150.556.415,https://maps.google.com/?cid=0x0:0xd73f57364381d8fd,
perumahan,Pembangunan Perumahan,Zahwa Residence,"Jl. Tentara Pelajar, Mekarsari, Kec. Banjar, Kota Banjar, Jawa Barat 46321","Mekarsari, Kec. Banjar, Kota Banjar",BALI,46321.0,Indonesia,,,,-73.825.897,1.085.354.816,https://maps.google.com/?cid=0x0:0xecd4f58dbedbcbb6,
perumahan,Komplek perumahan,Perum Grand Sakinah,"JGFM+63W, Jl. Gotong Royong, Lingk. Sukarame, Mekarsari, Banjar, Banjar City, West Java 46321","Jl. Gotong Royong, Lingk. Sukarame, Mekarsari, Banjar, Banjar City",BALI,46321.0,Indonesia,,,,-7.376.896,108.532.692,https://maps.google.com/?cid=0x0:0x53379539d77c6b26,
perumahan,Komplek perumahan,KFhouse.id Banjar,"JG9J+655, Mekarsari, Kec. Banjar, Kota Banjar, Jawa Barat","Kota Banjar, Jawa Barat",BALI,,Indonesia,,,,-73.827.192,1.085.307.782,https://maps.google.com/?cid=0x0:0xd893e9a63467abb3,
perumahan,Pembangunan Perumahan,Griya Nabila Banjar,"Jl. Tentara Pelajar No.42, Mekarsari, Kec. Banjar, Kota Banjar, Jawa Barat 46321","Mekarsari, Kec. Banjar, Kota Banjar",BALI,46321.0,Indonesia,82316684322,,,-73.802.711,1.085.376.695,https://maps.google.com/?cid=0x0:0x2102a8d8db6d81e6,
perumahan,Perumahan,Perumahan Pintusinga Regency,"JGGC+JFC, Ling Pintusinga Regency, RT.06/RW.18, Banjar, Kec. Banjar, Kota Banjar, Jawa Barat 46311","Ling Pintusinga Regency, RT.06/RW.18, Banjar, Kec. Banjar, Kota Banjar",BALI,46311.0,Indonesia,,,,-73.734.331,1.085.211.317,https://maps.google.com/?cid=0x0:0x779b0a9c9cdc7555,
perumahan,Komplek perumahan,Banjar Town House New,"Jl. Dr. Husein Kartasasmita, Pintu, Singa, Kec. Banjar, Kota Banjar, Jawa Barat 46311","Pintu, Singa, Kec. Banjar, Kota Banjar",BALI,46311.0,Indonesia,83832575573,,,-73.726.675,1.085.228.462,https://maps.google.com/?cid=0x0:0x3bdb3bd008a53511,
perumahan,perumahan,Banjar,"Dencarik, Kec. Banjar, Kabupaten Buleleng, Bali","Kabupaten Buleleng, Bali",BALI,,Indonesia,,,,-8.197.203,114.967.102,https://maps.google.com/?cid=0x0:0xa7e9487a89a6b594,
perumahan,Pembangunan Perumahan,Perumahan Krisna Graha Banjar,"QXV9+Q2P, Dencarik, Kec. Banjar, Kabupaten Buleleng, Bali 81152","Dencarik, Kec. Banjar, Kabupaten Buleleng",BALI,81152.0,Indonesia,,,,-82.056.131,1.149.673.155,https://maps.google.com/?cid=0x0:0x28ea45d0c7d1f6ec,
perumahan,Perumahan,Perumahan Griya Merta Asri,"RX8H+3M3, Dencarik, Kec. Banjar, Kabupaten Buleleng, Bali","Kabupaten Buleleng, Bali",BALI,,Indonesia,,,,-81.840.178,1.149.798.377,https://maps.google.com/?cid=0x0:0x4fee2f226de25cbc,
perumahan,Perumahan,Gerya Baler Dalem,"RX38+3WX, Dencarik, Kec. Banjar, Kabupaten Buleleng, Bali 81152","Dencarik, Kec. Banjar, Kabupaten Buleleng",BALI,81152.0,Indonesia,,,,-81.972.687,1.149.673.502,https://maps.google.com/?cid=0x0:0xf1b6fdeeb4caf20a,
perumahan,perumahan,Bali 81111,"Banyuning, Kec. Buleleng, Kabupaten Buleleng, Bali","Kabupaten Buleleng, Bali",BALI,,Indonesia,,,,-81.220.952,1.151.044.229,https://maps.google.com/?cid=0x0:0x1c00c5eb6016c0d0,
perumahan,Perumahan,Perumahan Banyuning Lestari,"Jl. Srimadya No.81119, Banyuning, Kec. Buleleng, Kabupaten Buleleng, Bali 81111","Banyuning, Kec. Buleleng, Kabupaten Buleleng",BALI,81111.0,Indonesia,81999031515,,,-81.175.556,115.103.001,https://maps.google.com/?cid=0x0:0xb47a93b7d1014222,
perumahan,Komplek perumahan,Perumahan Banyuning Indah,"V4M5+C3P, Banyuning, Kec. Buleleng, Kabupaten Buleleng, Bali 81119","Banyuning, Kec. Buleleng, Kabupaten Buleleng",BALI,81119.0,Indonesia,,,,-81.164.025,1.151.076.966,https://maps.google.com/?cid=0x0:0x2f24683ae57dae69,
perumahan,Komplek perumahan,Rumah Suganda,"V4J3+7R9, Jl. Srimadya, Banyuning, Kec. Buleleng, Kabupaten Buleleng, Bali","Kabupaten Buleleng, Bali",BALI,,Indonesia,,,,-8.119.333,1.151.046.194,https://maps.google.com/?cid=0x0:0x99e9f61d3ca3b033,
perumahan,Perumahan,Perumahan Graha Menjangan,"V4H5+WCW, Unnamed Road, Banyuning, Kec. Buleleng, Kabupaten Buleleng, Bali 81119","Unnamed Road, Banyuning, Kec. Buleleng, Kabupaten Buleleng",BALI,81119.0,Indonesia,,,,-81.201.283,1.151.085.733,https://maps.google.com/?cid=0x0:0xba71dad97ab84661,
perumahan,Perumahan,Perumahan 99 Banyuning,"V4J2+8GJ, Jl. Pulau Timor Gg. Tekukur, Banyuning, Barat, Kabupaten Buleleng, Bali 81112","Jl. Pulau Timor Gg. Tekukur, Banyuning, Barat, Kabupaten Buleleng",BALI,81112.0,Indonesia,89697250784,,,-81.191.538,1.151.012.811,https://maps.google.com/?cid=0x0:0xc10899396e2fa468,
perumahan,Pembangunan Perumahan,Wajib coba,"V4G3+GRJ, Banyuning, Kec. Buleleng, Kabupaten Buleleng, Bali","Kabupaten Buleleng, Bali",BALI,,Indonesia,,,,-81.236.682,1.151.045.054,https://maps.google.com/?cid=0x0:0x7346d253bcf8912c,
perumahan,perumahan,Rumah,"Blk. H No.14, Banyuning, Kec. Buleleng, Kabupaten Buleleng, Bali 81119","Banyuning, Kec. Buleleng, Kabupaten Buleleng",BALI,81119.0,Indonesia,,,,-81.164.744,1.151.059.264,https://maps.google.com/?cid=0x0:0x58a5e49eeb0170a,
perumahan,Pembangunan Perumahan,KT WIJA banyuning,"V4G4+H35, Banyuning, Kec. Buleleng, Kabupaten Buleleng, Bali 81111","Banyuning, Kec. Buleleng, Kabupaten Buleleng",BALI,81111.0,Indonesia,,,,-8.124.382,1.151.051.774,https://maps.google.com/?cid=0x0:0x8a4d5834afba92d,
perumahan,Pembangunan Perumahan,Gede esa,"V4M3+J5P, Banyuning, Kec. Buleleng, Kabupaten Buleleng, Bali","Kabupaten Buleleng, Bali",BALI,,Indonesia,,,,-8.115.814,115.103.406,https://maps.google.com/?cid=0x0:0x6dedc2cac23dbd01,
perumahan,Komplek perumahan,Rumah Dita Ari,"V4J3+WV5, Banyuning, Kec. Buleleng, Kabupaten Buleleng, Bali 81119","Banyuning, Kec. Buleleng, Kabupaten Buleleng",BALI,81119.0,Indonesia,87844341894,,,-81.177.283,1.151.047.417,https://maps.google.com/?cid=0x0:0xb53f4d329931d1d9,
perumahan,Komplek perumahan,Eka juju,"Blok D1, Banyuning, Kec. Buleleng, Kabupaten Buleleng, Bali 81111","Banyuning, Kec. Buleleng, Kabupaten Buleleng",BALI,81111.0,Indonesia,,,,-81.186.274,1.151.036.471,https://maps.google.com/?cid=0x0:0xe2440d0ebb9ca074,
perumahan,Komplek perumahan,Rumah Dety,"V4G5+JFR, Jl. Pulau Timor, Banyuning, Kec. Buleleng, Kabupaten Buleleng, Bali 81119","Jl. Pulau Timor, Banyuning, Kec. Buleleng, Kabupaten Buleleng",BALI,81119.0,Indonesia,,,,-81.235.858,1.151.084.157,https://maps.google.com/?cid=0x0:0xbaa487800e939c71,
perumahan,Komplek perumahan,Oppa House,"Gg. Walet No.18 A, Banyuning, Barat, Kabupaten Buleleng, Bali 81119","Banyuning, Barat, Kabupaten Buleleng",BALI,81119.0,Indonesia,,,,-81.139.313,1.151.020.964,https://maps.google.com/?cid=0x0:0x77053cbfc974fd42,
perumahan,perumahan,Rumah,"V4M4+CVR, Singaraja, Banyuning, Kec. Buleleng, Kabupaten Buleleng, Bali 81119","Singaraja, Banyuning, Kec. Buleleng, Kabupaten Buleleng",BALI,81119.0,Indonesia,,,,-81.163.979,1.151.071.269,https://maps.google.com/?cid=0x0:0x8705be6001d3840a,
perumahan,Komplek perumahan,Singaraja,"V4M3+J5P, Banyuning, timur, Kabupaten Buleleng, Bali","Kabupaten Buleleng, Bali",BALI,,Indonesia,,,,-81.159.153,1.151.029.403,https://maps.google.com/?cid=0x0:0xab45b5425c9e93c4,
perumahan,Komplek perumahan,Perumahan Danau Lestari Padangkeling,"V4H3+38W, Jl. Pulau Timor, Banyuning, Kec. Buleleng, Kabupaten Buleleng, Bali","Kabupaten Buleleng, Bali",BALI,,Indonesia,,,,-81.222.609,1.151.033.421,https://maps.google.com/?cid=0x0:0xe870aedc5be07059,
perumahan,Perumahan,Perumahan Graha Adi Terrace,"V4J5+832, Unnamed Road, Banyuning, Buleleng, Buleleng Regency, Bali 81119","Unnamed Road, Banyuning, Buleleng, Buleleng Regency",BALI,81119.0,Indonesia,,,,-81.192.349,1.151.076.446,https://maps.google.com/?cid=0x0:0x23392cc26d81608,
perumahan,perumahan,Rumah Jovan,"Blk. Masula Masuli No.23, Banyuning, Kec. Buleleng, Kabupaten Buleleng, Bali 81119","Banyuning, Kec. Buleleng, Kabupaten Buleleng",BALI,81119.0,Indonesia,,,,-81.158.145,1.151.053.772,https://maps.google.com/?cid=0x0:0xe645021d69aa469a,
perumahan,Pembangunan Perumahan,Nyoman Sudiarta,"V4M2+PGM, Banyuning, Kec. Buleleng, Kabupaten Buleleng, Bali 81112","Banyuning, Kec. Buleleng, Kabupaten Buleleng",BALI,81112.0,Indonesia,,,,-81.152.961,1.151.016.534,https://maps.google.com/?cid=0x0:0x5e32938c6bd35e86,
perumahan,Komplek perumahan,RADIT HOUSE,"Blok D1 No 11A, Banyuning, Kec. Buleleng, Kabupaten Buleleng, Bali 81111","Banyuning, Kec. Buleleng, Kabupaten Buleleng",BALI,81111.0,Indonesia,,,,-81.181.834,1.151.035.005,https://maps.google.com/?cid=0x0:0x9f00c898e1eef139,
perumahan,Komplek perumahan,Rumah,"Jl. Srimadya No.81119, Banyuning, Kec. Buleleng, Kabupaten Buleleng, Bali 81111","Banyuning, Kec. Buleleng, Kabupaten Buleleng",BALI,81111.0,Indonesia,,,,-81.175.135,115.102.993,https://maps.google.com/?cid=0x0:0xa331e529f61df63d,
perumahan,Komplek perumahan,Rumah Astra,"Jl. Gempol Gg. Darmawangsa No.4, Banyuning, Tengah, Kabupaten Buleleng, Bali 81119","Banyuning, Tengah, Kabupaten Buleleng",BALI,81119.0,Indonesia,36223055,,,-8.113.296,1.151.048.059,https://maps.google.com/?cid=0x0:0xb60c2f5c40b6dcf4,
perumahan,Komplek perumahan,POSKO SLBV,"Blok F1 no 8, Banyuning, Kec. Buleleng, Kabupaten Buleleng, Bali 81111","Banyuning, Kec. Buleleng, Kabupaten Buleleng",BALI,81111.0,Indonesia,,,,-8.122.049,1.151.043.863,https://maps.google.com/?cid=0x0:0x54a7dbf1e406df03,
perumahan,Komplek perumahan,BTN Banyuning Indah Blok H31,"V4M4+MCJ, Banyuning, Kec. Buleleng, Kabupaten Buleleng, Bali 81119","Banyuning, Kec. Buleleng, Kabupaten Buleleng",BALI,81119.0,Indonesia,,,,-8.115.799,115.106.013,https://maps.google.com/?cid=0x0:0xf89f3fbb35f0d6e1,
perumahan,perumahan,Rumah Kost Gumitish Banyuning Singaraja Buleleng,"Banyuning, Kec. Buleleng, Kabupaten Buleleng, Bali 81119","Kec. Buleleng, Kabupaten Buleleng",BALI,81119.0,Indonesia,87752317302,,,-81.170.857,115.104.461,https://maps.google.com/?cid=0x0:0xb1776ba1bb6531ff,
perumahan,perumahan,Hotel Sentral,"Jl. A. Yani No.48, Kaliuntu, Kec. Buleleng, Kabupaten Buleleng, Bali 81114","Kaliuntu, Kec. Buleleng, Kabupaten Buleleng",BALI,81114.0,Indonesia,36221896,,,-81.105.277,1.150.875.303,https://maps.google.com/?cid=0x0:0x8d6a688f8bf0952e,
perumahan,perumahan,RedDoorz near Buleleng Harbour 2,"Gg. Mangga, Penarukan, Kec. Buleleng, Kabupaten Buleleng, Bali 81119","Penarukan, Kec. Buleleng, Kabupaten Buleleng",BALI,81119.0,Indonesia,"8,95417E+11",,,-81.045.495,1.151.052.869,https://maps.google.com/?cid=0x0:0x3e665481a45d0f22,
perumahan,perumahan,Singaraja Hotel,"Jl. Surapati No.12 14, Kp. Baru, Kec. Buleleng, Kabupaten Buleleng, Bali 81113","Kp. Baru, Kec. Buleleng, Kabupaten Buleleng",BALI,81113.0,Indonesia,3623301500,,,-81.028.871,1.150.904.947,https://maps.google.com/?cid=0x0:0x4c8a96b0068f4772,
perumahan,Perumahan,Perumahan Banyuning Lestari,"Jl. Srimadya No.81119, Banyuning, Kec. Buleleng, Kabupaten Buleleng, Bali 81111","Banyuning, Kec. Buleleng, Kabupaten Buleleng",BALI,81111.0,Indonesia,81999031515,,,-81.175.556,115.103.001,https://maps.google.com/?cid=0x0:0xb47a93b7d1014222,
perumahan,Komplek perumahan,Perumahan Graha Punglor 2 Blok B5,"V3QX+538, Gg. Punglor, Banyuning, Kec. Buleleng, Kabupaten Buleleng, Bali 81112","Gg. Punglor, Banyuning, Kec. Buleleng, Kabupaten Buleleng",BALI,81112.0,Indonesia,85737116674,,,-81.120.531,1.150.975.205,https://maps.google.com/?cid=0x0:0x10ee064a682ef3ca,
perumahan,perumahan,Bali 81112,"Kec. Buleleng, Kabupaten Buleleng, Bali","Kabupaten Buleleng, Bali",BALI,,Indonesia,,,,-81.163.035,1.150.970.101,https://maps.google.com/?cid=0x0:0x1c00c5eb6016c0e0,
perumahan,perumahan,Sweet Celagi,"Jl. Bayusuta V No.6, Astina, Kec. Buleleng, Kabupaten Buleleng, Bali 81112","Astina, Kec. Buleleng, Kabupaten Buleleng",BALI,81112.0,Indonesia,,,,-81.151.866,1.150.962.481,https://maps.google.com/?cid=0x0:0xb6d0b688143ecdc,
perumahan,Komplek perumahan,Perumahan Graha Punglor 2 Blok A8,"Perumahan Graha, Gg. Punglor Jl. Pulau Batam No.2 Blok A8, Bali 81119",Gg. Punglor Jl. Pulau Batam No.2 Blok A8,BALI,81119.0,Indonesia,,,,-81.119.906,1.150.976.901,https://maps.google.com/?cid=0x0:0x55a1135db1e428ca,
perumahan,Komplek perumahan,Rumah Jangan Loepa,"Rumah Jangan Lupa, Jl. Bayusuta, Banjar Jawa, Kec. Buleleng, Kabupaten Buleleng, Bali 81112","Jl. Bayusuta, Banjar Jawa, Kec. Buleleng, Kabupaten Buleleng",BALI,81112.0,Indonesia,81331630123,,,-81.142.992,1.150.954.939,https://maps.google.com/?cid=0x0:0xb4e7fe9089ac3adb,
perumahan,Komplek perumahan,R.Nym Raka,"Jl. Pulau Timor No.22, Banyuning, Kec. Buleleng, Kabupaten Buleleng, Bali 81112","Banyuning, Kec. Buleleng, Kabupaten Buleleng",BALI,81112.0,Indonesia,,,,-81.188.766,1.150.987.836,https://maps.google.com/?cid=0x0:0xabf494c80a7509f0,
perumahan,Komplek perumahan,Perumahan Graha Punglor 2 Blok A6,"Banyuning, Kec. Buleleng, Kabupaten Buleleng, Bali 81112","Kec. Buleleng, Kabupaten Buleleng",BALI,81112.0,Indonesia,,,,-81.119.569,1.150.975.689,https://maps.google.com/?cid=0x0:0x3dc9f8130daa2351,
perumahan,Perancang Situs Web,Perumahan Graha Punglor 2 Blok B8,"V3QX+538, Gg. Punglor, Banyuning, Kec. Buleleng, Kabupaten Buleleng, Bali 81112","Gg. Punglor, Banyuning, Kec. Buleleng, Kabupaten Buleleng",BALI,81112.0,Indonesia,,,,-81.121.653,1.150.975.307,https://maps.google.com/?cid=0x0:0xf33f972c7eecef33,
perumahan,Komplek perumahan,Perumahan Sangket 2,"Sukasada, Kec. Sukasada, Kabupaten Buleleng, Bali","Kabupaten Buleleng, Bali",BALI,,Indonesia,,,,-8.146.333,1.151.067.818,https://maps.google.com/?cid=0x0:0x4821a29395ad9d1b,
perumahan,Pembangunan Perumahan,Nyoman Sudiarta,"V4M2+PGM, Banyuning, Kec. Buleleng, Kabupaten Buleleng, Bali 81112","Banyuning, Kec. Buleleng, Kabupaten Buleleng",BALI,81112.0,Indonesia,,,,-81.152.961,1.151.016.534,https://maps.google.com/?cid=0x0:0x5e32938c6bd35e86,
perumahan,Pembangunan Perumahan,Graha Punglor PT. Griya Viswakarma Properti,"V3QX+824, Banyuning, Kec. Buleleng, Kabupaten Buleleng, Bali 81112","Banyuning, Kec. Buleleng, Kabupaten Buleleng",BALI,81112.0,Indonesia,,,,-81.117.489,1.150.975.774,https://maps.google.com/?cid=0x0:0x968ffd21fea99666,
perumahan,Pembangunan Perumahan,Gede esa,"V4M3+J5P, Banyuning, Kec. Buleleng, Kabupaten Buleleng, Bali","Kabupaten Buleleng, Bali",BALI,,Indonesia,,,,-8.115.814,115.103.406,https://maps.google.com/?cid=0x0:0x6dedc2cac23dbd01,
perumahan,Komplek perumahan,Perumahan Graha Punglor 2 Blok C1,"V3QW+5W6, Banyuning, Kec. Buleleng, Kabupaten Buleleng, Bali 81112","Banyuning, Kec. Buleleng, Kabupaten Buleleng",BALI,81112.0,Indonesia,,,,-81.120.895,1.150.972.793,https://maps.google.com/?cid=0x0:0xbe500a8696282e38,
perumahan,Perumahan,Perum Graha Batam Blok B - No.17,"Perum Graha Batam No.17 Blok B, Banyuning, Kec. Buleleng, Kabupaten Buleleng, Bali 81112","Banyuning, Kec. Buleleng, Kabupaten Buleleng",BALI,81112.0,Indonesia,,,,-81.100.266,1.150.964.402,https://maps.google.com/?cid=0x0:0x865e57a1ab3e8c6,
perumahan,Komplek perumahan,Rumah Dany,"V3PW+GM5, Jl. Bayusuta V, Astina, Kec. Buleleng, Kabupaten Buleleng, Bali 81112","Jl. Bayusuta V, Astina, Kec. Buleleng, Kabupaten Buleleng",BALI,81112.0,Indonesia,,,,-81.137.492,1.150.967.327,https://maps.google.com/?cid=0x0:0x7433b572f16172f8,
perumahan,Perhimpunan Pengembang Perumahan,Home melon,"Jl. Yudistira Utara No.18, Astina, Kec. Buleleng, Kabupaten Buleleng, Bali 81112","Astina, Kec. Buleleng, Kabupaten Buleleng",BALI,81112.0,Indonesia,,,,-8.118.562,115.094.682,https://maps.google.com/?cid=0x0:0x78bb266244f51da9,
perumahan,Komplek perumahan,Krisna Graha Sangket,"Unnamed Road, Sukasada, Buleleng, Buleleng Regency, Bali 81161","Sukasada, Buleleng, Buleleng Regency",BALI,81161.0,Indonesia,,,,-81.529.137,1.151.114.113,https://maps.google.com/?cid=0x0:0x898d2bd41728d0e1,
perumahan,Perumahan,Perumahan 99 Banyuning,"V4J2+8GJ, Jl. Pulau Timor Gg. Tekukur, Banyuning, Barat, Kabupaten Buleleng, Bali 81112","Jl. Pulau Timor Gg. Tekukur, Banyuning, Barat, Kabupaten Buleleng",BALI,81112.0,Indonesia,89697250784,,,-81.191.538,1.151.012.811,https://maps.google.com/?cid=0x0:0xc10899396e2fa468,
perumahan,Perhimpunan Pengembang Perumahan,Ketut Mahendra n fam,"Gg. Jalak Bali No.22, Banyuning, Kec. Buleleng, Kabupaten Buleleng, Bali 81119","Banyuning, Kec. Buleleng, Kabupaten Buleleng",BALI,81119.0,Indonesia,,,,-81.104.993,1.151.000.125,https://maps.google.com/?cid=0x0:0xb97eead7a0f5868a,
perumahan,Perumahan,Perum Graha Batam B5,"Jl. Pulau Batam Gg. Punglor No.1, Banyuning, Kec. Buleleng, Kabupaten Buleleng, Bali 81112","Banyuning, Kec. Buleleng, Kabupaten Buleleng",BALI,81112.0,Indonesia,,,,-81.110.122,1.150.967.082,https://maps.google.com/?cid=0x0:0xea476bfdd99641da,
perumahan,Komplek perumahan,"Rumah Gusti Ayu Dewi Aswin, S.Sos","Jl. Parikesit II No.19, Banjar Tegal, Kec. Buleleng, Kabupaten Buleleng, Bali 81117","Banjar Tegal, Kec. Buleleng, Kabupaten Buleleng",BALI,81117.0,Indonesia,,,,-81.236.146,115.088.873,https://maps.google.com/?cid=0x0:0xaf594224dad8742c,
perumahan,Komplek perumahan,Singaraja,"V4M3+J5P, Banyuning, timur, Kabupaten Buleleng, Bali","Kabupaten Buleleng, Bali",BALI,,Indonesia,,,,-81.159.153,1.151.029.403,https://maps.google.com/?cid=0x0:0xab45b5425c9e93c4,
perumahan,Perumahan,Perumahan Banyuning Lestari,"Jl. Srimadya No.81119, Banyuning, Kec. Buleleng, Kabupaten Buleleng, Bali 81111","Banyuning, Kec. Buleleng, Kabupaten Buleleng",BALI,81111.0,Indonesia,81999031515,,,-81.175.556,115.103.001,https://maps.google.com/?cid=0x0:0xb47a93b7d1014222,
perumahan,Pembangunan Perumahan,Perumahan Beo Permai,"V3MX+9XR, Jl. Gempol Gg. Beo, Banyuning, Kec. Buleleng, Kabupaten Buleleng, Bali 81112","Jl. Gempol Gg. Beo, Banyuning, Kec. Buleleng, Kabupaten Buleleng",BALI,81112.0,Indonesia,,,,-8.116.523,1.150.998.997,https://maps.google.com/?cid=0x0:0x6b0717a3d18bb40f,
perumahan,perumahan,Bali 81113,"Kec. Buleleng, Kabupaten Buleleng, Bali","Kabupaten Buleleng, Bali",BALI,,Indonesia,,,,-81.103.177,1.150.925.624,https://maps.google.com/?cid=0x0:0x1c00c5eb6016c0f0,
perumahan,Komplek perumahan,Rumah Dewa Tajog,"Jl. Gajah Mada No.152, Banjar Bali, Kec. Buleleng, Kabupaten Buleleng, Bali 81113","Banjar Bali, Kec. Buleleng, Kabupaten Buleleng",BALI,81113.0,Indonesia,,,,-810.909,1.150.915.175,https://maps.google.com/?cid=0x0:0x97d430af09d114b7,
perumahan,perumahan,Sweet Celagi,"Jl. Bayusuta V No.6, Astina, Kec. Buleleng, Kabupaten Buleleng, Bali 81112","Astina, Kec. Buleleng, Kabupaten Buleleng",BALI,81112.0,Indonesia,,,,-81.151.866,1.150.962.481,https://maps.google.com/?cid=0x0:0xb6d0b688143ecdc,
perumahan,Perumahan,Perum Graha Batam Blok B - No.17,"Perum Graha Batam No.17 Blok B, Banyuning, Kec. Buleleng, Kabupaten Buleleng, Bali 81112","Banyuning, Kec. Buleleng, Kabupaten Buleleng",BALI,81112.0,Indonesia,,,,-81.100.266,1.150.964.402,https://maps.google.com/?cid=0x0:0x865e57a1ab3e8c6,
perumahan,Komplek perumahan,Perumahan Graha Punglor 2 Blok A8,"Perumahan Graha, Gg. Punglor Jl. Pulau Batam No.2 Blok A8, Bali 81119",Gg. Punglor Jl. Pulau Batam No.2 Blok A8,BALI,81119.0,Indonesia,,,,-81.119.906,1.150.976.901,https://maps.google.com/?cid=0x0:0x55a1135db1e428ca,
perumahan,Komplek perumahan,Rumah,"Jl. P. Lombok Gang B No.5, Banyuning, Kec. Buleleng, Kabupaten Buleleng, Bali 81114","Banyuning, Kec. Buleleng, Kabupaten Buleleng",BALI,81114.0,Indonesia,,,,-81.027.763,1.150.986.713,https://maps.google.com/?cid=0x0:0x1054c0441d57189f,
perumahan,Komplek perumahan,Rumah Mangku Wayan Wenten,"V3RV+C8H, Jl. Wibisana, Banjar Bali, Singaraja, Kabupaten Buleleng, Bali 81113","Jl. Wibisana, Banjar Bali, Singaraja, Kabupaten Buleleng",BALI,81113.0,Indonesia,,,,-81.089.312,115.093.367,https://maps.google.com/?cid=0x0:0xd7b07819db72e8de,
perumahan,Komplek perumahan,Rumahku Sederhana,"Gg. Mutiara VI No.2, Banjar Tegal, Kec. Buleleng, Kabupaten Buleleng, Bali 81113","Banjar Tegal, Kec. Buleleng, Kabupaten Buleleng",BALI,81113.0,Indonesia,,,,-81.194.008,1.150.901.767,https://maps.google.com/?cid=0x0:0x75daf733607db457,
perumahan,Perhimpunan Pengembang Perumahan,Home melon,"Jl. Yudistira Utara No.18, Astina, Kec. Buleleng, Kabupaten Buleleng, Bali 81112","Astina, Kec. Buleleng, Kabupaten Buleleng",BALI,81112.0,Indonesia,,,,-8.118.562,115.094.682,https://maps.google.com/?cid=0x0:0x78bb266244f51da9,
perumahan,Komplek perumahan,Rumah Jangan Loepa,"Rumah Jangan Lupa, Jl. Bayusuta, Banjar Jawa, Kec. Buleleng, Kabupaten Buleleng, Bali 81112","Jl. Bayusuta, Banjar Jawa, Kec. Buleleng, Kabupaten Buleleng",BALI,81112.0,Indonesia,81331630123,,,-81.142.992,1.150.954.939,https://maps.google.com/?cid=0x0:0xb4e7fe9089ac3adb,
perumahan,Komplek perumahan,RUMAH SONY  TINA,"V3VX+95W, Banyuning, Kec. Buleleng, Kabupaten Buleleng, Bali","Kabupaten Buleleng, Bali",BALI,,Indonesia,,,,-81.065.138,1.150.979.561,https://maps.google.com/?cid=0x0:0x90717964d648adae,
perumahan,perumahan,Meme,"V3VR+5V8, Kp. Kajanan, Kec. Buleleng, Kabupaten Buleleng, Bali","Kabupaten Buleleng, Bali",BALI,,Indonesia,,,,-81.071.003,1.150.921.839,https://maps.google.com/?cid=0x0:0x3b9925680dfa03e8,
perumahan,Pembangunan Perumahan,Graha Punglor PT. Griya Viswakarma Properti,"V3QX+824, Banyuning, Kec. Buleleng, Kabupaten Buleleng, Bali 81112","Banyuning, Kec. Buleleng, Kabupaten Buleleng",BALI,81112.0,Indonesia,,,,-81.117.489,1.150.975.774,https://maps.google.com/?cid=0x0:0x968ffd21fea99666,
perumahan,Komplek perumahan,Jero Rama,"Jl. Rama No.7, Banjar Jawa, Kec. Buleleng, Kabupaten Buleleng, Bali 81113","Banjar Jawa, Kec. Buleleng, Kabupaten Buleleng",BALI,81113.0,Indonesia,,,,-81.131.175,115.092.348,https://maps.google.com/?cid=0x0:0xca720fd330a9a684,
perumahan,Rumah Pondokan,Kos Pulau Bali,"Jl. Pulau Bali No.16, Kp. Baru, Kec. Buleleng, Kabupaten Buleleng, Bali 81114","Kp. Baru, Kec. Buleleng, Kabupaten Buleleng",BALI,81114.0,Indonesia,,,,-81.042.011,1.150.956.133,https://maps.google.com/?cid=0x0:0xfcc55004e9fd640d,
perumahan,Perancang Situs Web,Perumahan Graha Punglor 2 Blok B8,"V3QX+538, Gg. Punglor, Banyuning, Kec. Buleleng, Kabupaten Buleleng, Bali 81112","Gg. Punglor, Banyuning, Kec. Buleleng, Kabupaten Buleleng",BALI,81112.0,Indonesia,,,,-81.121.653,1.150.975.307,https://maps.google.com/?cid=0x0:0xf33f972c7eecef33,
perumahan,Komplek perumahan,"Rumah Gusti Ayu Dewi Aswin, S.Sos","Jl. Parikesit II No.19, Banjar Tegal, Kec. Buleleng, Kabupaten Buleleng, Bali 81117","Banjar Tegal, Kec. Buleleng, Kabupaten Buleleng",BALI,81117.0,Indonesia,,,,-81.236.146,115.088.873,https://maps.google.com/?cid=0x0:0xaf594224dad8742c,
perumahan,Komplek perumahan,Rumah Dekyud,"Jl. Pulau Bali, Kp. Baru, Kec. Buleleng, Kabupaten Buleleng, Bali 81114","Kp. Baru, Kec. Buleleng, Kabupaten Buleleng",BALI,81114.0,Indonesia,,,,-81.038.453,1.150.955.397,https://maps.google.com/?cid=0x0:0xd515ecf56e26ef8a,
perumahan,Komplek perumahan,Perumahan Permai Lestari,"V3QX+MQV, Gg. Jalak Bali, Banyuning, Kec. Buleleng, Kabupaten Buleleng, Bali","Kabupaten Buleleng, Bali",BALI,,Indonesia,,,,-81.107.533,1.150.994.176,https://maps.google.com/?cid=0x0:0xad19f5804d26ab61,
perumahan,Komplek perumahan,Rumah Kadek Pastika Wijaya Ronaldo,"Gg. III No.10, Kp. Baru, Kec. Buleleng, Kabupaten Buleleng, Bali 81113","Kp. Baru, Kec. Buleleng, Kabupaten Buleleng",BALI,81113.0,Indonesia,,,,-81.061.043,1.150.930.168,https://maps.google.com/?cid=0x0:0xef8633852b3acb2d,
perumahan,Komplek perumahan,Rumah Dany,"V3PW+GM5, Jl. Bayusuta V, Astina, Kec. Buleleng, Kabupaten Buleleng, Bali 81112","Jl. Bayusuta V, Astina, Kec. Buleleng, Kabupaten Buleleng",BALI,81112.0,Indonesia,,,,-81.137.492,1.150.967.327,https://maps.google.com/?cid=0x0:0x7433b572f16172f8,
perumahan,Komplek perumahan,Rumah HA,"V3XV+2CX, Jl. P. Sulawesi, Kp. Baru, Kec. Buleleng, Kabupaten Buleleng, Bali 81113","Jl. P. Sulawesi, Kp. Baru, Kec. Buleleng, Kabupaten Buleleng",BALI,81113.0,Indonesia,,,,-81.023.944,115.093.621,https://maps.google.com/?cid=0x0:0x7c6e2f3153827509,
perumahan,Komplek perumahan,Rumah angga,"Gg. Subali GG peper No.10, pancasari, Kec. Buleleng, Kabupaten Buleleng, Bali 81113","pancasari, Kec. Buleleng, Kabupaten Buleleng",BALI,81113.0,Indonesia,,,,-81.155.732,1.150.927.737,https://maps.google.com/?cid=0x0:0x87ca53a6d4ca705e,
perumahan,Komplek perumahan,Rumah pan esa pangjaya,"Jl. Wibisana Rt kalibaru 2 No.12e, Banjar Jawa, Kec. Buleleng, Kabupaten Buleleng, Bali 81113","Banjar Jawa, Kec. Buleleng, Kabupaten Buleleng",BALI,81113.0,Indonesia,,,,-81.100.023,1.150.930.004,https://maps.google.com/?cid=0x0:0x422c5c0a2122db55,
perumahan,Perumahan,Perumahan Cahaya Residence Sambangan,"Gg. Cahaya, Sambangan, Kec. Sukasada, Kabupaten Buleleng, Bali 81161","Sambangan, Kec. Sukasada, Kabupaten Buleleng",BALI,81161.0,Indonesia,82147253119,,,-81.468.253,1.150.970.448,https://maps.google.com/?cid=0x0:0x216fd165987e354b,
perumahan,Komplek perumahan,Bali Graha Residence,"V4X2+JMH, Jl. Pulau Komodo, Banyuning, Kec. Buleleng, Kabupaten Buleleng, Bali 81119","Jl. Pulau Komodo, Banyuning, Kec. Buleleng, Kabupaten Buleleng",BALI,81119.0,Indonesia,,,,-81.009.299,1.151.017.253,https://maps.google.com/?cid=0x0:0x31445183a7ed7b48,
perumahan,Komplek perumahan,GRIYA MANCELEBES,"Jl. Pulau Komodo Gg. Kedondong No.4, Banyuning, Kec. Buleleng, Kabupaten Buleleng, Bali 81119","Banyuning, Kec. Buleleng, Kabupaten Buleleng",BALI,81119.0,Indonesia,,,,-81.067.295,1.151.025.971,https://maps.google.com/?cid=0x0:0x7bb1b0148e6fa15f,
perumahan,Pembangunan Perumahan,BTN perumahan permai lestari blok B4 banyuning timur Buleleng bali,"V4P6+6Q2, Banyuning, Kec. Buleleng, Kabupaten Buleleng, Bali 81119","Banyuning, Kec. Buleleng, Kabupaten Buleleng",BALI,81119.0,Indonesia,,,,-81.144.971,1.151.118.784,https://maps.google.com/?cid=0x0:0xf59527a1c2198028,
perumahan,perumahan,Bali 81114,"Kec. Buleleng, Kabupaten Buleleng, Bali","Kabupaten Buleleng, Bali",BALI,,Indonesia,,,,-8.100.082,1.150.955.276,https://maps.google.com/?cid=0x0:0x1c00c5eb6016c100,
perumahan,Perumahan,Perumahan Cahaya Residence Sambangan,"Gg. Cahaya, Sambangan, Kec. Sukasada, Kabupaten Buleleng, Bali 81161","Sambangan, Kec. Sukasada, Kabupaten Buleleng",BALI,81161.0,Indonesia,82147253119,,,-81.468.253,1.150.970.448,https://maps.google.com/?cid=0x0:0x216fd165987e354b,
perumahan,Komplek perumahan,Perumahan Banyuning Indah,"V4M5+C3P, Banyuning, Kec. Buleleng, Kabupaten Buleleng, Bali 81119","Banyuning, Kec. Buleleng, Kabupaten Buleleng",BALI,81119.0,Indonesia,,,,-81.164.025,1.151.076.966,https://maps.google.com/?cid=0x0:0x2f24683ae57dae69,
perumahan,Perumahan,Perumahan Banyuning Lestari,"Jl. Srimadya No.81119, Banyuning, Kec. Buleleng, Kabupaten Buleleng, Bali 81111","Banyuning, Kec. Buleleng, Kabupaten Buleleng",BALI,81111.0,Indonesia,81999031515,,,-81.175.556,115.103.001,https://maps.google.com/?cid=0x0:0xb47a93b7d1014222,
perumahan,Komplek perumahan,Perumahan Graha Punglor 2 Blok B5,"V3QX+538, Gg. Punglor, Banyuning, Kec. Buleleng, Kabupaten Buleleng, Bali 81112","Gg. Punglor, Banyuning, Kec. Buleleng, Kabupaten Buleleng",BALI,81112.0,Indonesia,85737116674,,,-81.120.531,1.150.975.205,https://maps.google.com/?cid=0x0:0x10ee064a682ef3ca,
perumahan,Komplek perumahan,Perumahan banyuning permai,"V4M5+CMG, Banyuning, Kec. Buleleng, Kabupaten Buleleng, Bali 81119","Banyuning, Kec. Buleleng, Kabupaten Buleleng",BALI,81119.0,Indonesia,,,,-81.164.383,11.510.921,https://maps.google.com/?cid=0x0:0x1e61de4b20d72d9f,
perumahan,Perhimpunan Pengembang Perumahan,Ketut Mahendra n fam,"Gg. Jalak Bali No.22, Banyuning, Kec. Buleleng, Kabupaten Buleleng, Bali 81119","Banyuning, Kec. Buleleng, Kabupaten Buleleng",BALI,81119.0,Indonesia,,,,-81.104.993,1.151.000.125,https://maps.google.com/?cid=0x0:0xb97eead7a0f5868a,
perumahan,Perumahan,Perumahan Graha Menjangan,"V4H5+WCW, Unnamed Road, Banyuning, Kec. Buleleng, Kabupaten Buleleng, Bali 81119","Unnamed Road, Banyuning, Kec. Buleleng, Kabupaten Buleleng",BALI,81119.0,Indonesia,,,,-81.201.283,1.151.085.733,https://maps.google.com/?cid=0x0:0xba71dad97ab84661,
perumahan,Otoritas Perumahan,Aspol Kampung Tinggi Singaraja,"V3XW+9JQ, Jl. Pulau Selayar Jl. Taman Sari, Kp. Baru, Kec. Buleleng, Kabupaten Buleleng, Bali 81114","Jl. Pulau Selayar Jl. Taman Sari, Kp. Baru, Kec. Buleleng, Kabupaten Buleleng",BALI,81114.0,Indonesia,,,,-81.015.373,115.096.611,https://maps.google.com/?cid=0x0:0x24df38efb2b82f4c,
perumahan,Komplek perumahan,Rumah Dekyud,"Jl. Pulau Bali, Kp. Baru, Kec. Buleleng, Kabupaten Buleleng, Bali 81114","Kp. Baru, Kec. Buleleng, Kabupaten Buleleng",BALI,81114.0,Indonesia,,,,-81.038.453,1.150.955.397,https://maps.google.com/?cid=0x0:0xd515ecf56e26ef8a,
perumahan,Rumah Pondokan,Kos Pulau Bali,"Jl. Pulau Bali No.16, Kp. Baru, Kec. Buleleng, Kabupaten Buleleng, Bali 81114","Kp. Baru, Kec. Buleleng, Kabupaten Buleleng",BALI,81114.0,Indonesia,,,,-81.042.011,1.150.956.133,https://maps.google.com/?cid=0x0:0xfcc55004e9fd640d,
perumahan,Rumah Kayu,UmahBudiKubujati,"W33X+4QF, Jl. Pulau Buton, Banyuning, Kec. Buleleng, Kabupaten Buleleng, Bali 81119","Jl. Pulau Buton, Banyuning, Kec. Buleleng, Kabupaten Buleleng",BALI,81119.0,Indonesia,,,,-8.097.186,1.150.994.163,https://maps.google.com/?cid=0x0:0xeedbf3cf05088a0d,
perumahan,Kompleks Kondominium,Perumahan Taman Segara Wangi,"Jl. Pulau Buton-Singaraja, Banyuning, Kec. Buleleng, Kabupaten Buleleng, Bali 81119","Banyuning, Kec. Buleleng, Kabupaten Buleleng",BALI,81119.0,Indonesia,,,,-80.965.431,1.151.009.318,https://maps.google.com/?cid=0x0:0x22df85d148c19074,
perumahan,Pembangunan Perumahan,Perumahan Teras Komodo,"V4R4+5G2, Jl. Pulau Komodo, Banyuning, Kec. Buleleng, Kabupaten Buleleng, Bali 81119","Jl. Pulau Komodo, Banyuning, Kec. Buleleng, Kabupaten Buleleng",BALI,81119.0,Indonesia,81236599484,,,-81.096.021,1.151.062.774,https://maps.google.com/?cid=0x0:0xf92de59d3871fed7,
perumahan,Komplek perumahan,Rumah Cugeg,"V4X6+34X, Penarukan, Kec. Buleleng, Kabupaten Buleleng, Bali 81119","Penarukan, Kec. Buleleng, Kabupaten Buleleng",BALI,81119.0,Indonesia,,,,-81.022.519,1.151.103.496,https://maps.google.com/?cid=0x0:0x83d81d4bdeea6afc,
perumahan,Komplek perumahan,Krisna Graha Sangket,"Unnamed Road, Sukasada, Buleleng, Buleleng Regency, Bali 81161","Sukasada, Buleleng, Buleleng Regency",BALI,81161.0,Indonesia,,,,-81.529.137,1.151.114.113,https://maps.google.com/?cid=0x0:0x898d2bd41728d0e1,
perumahan,Vila,Perumahan Graha Sinar Rahayu,"Banyuning, Kec. Buleleng, Kabupaten Buleleng, Bali 81119","Kec. Buleleng, Kabupaten Buleleng",BALI,81119.0,Indonesia,,,,-81.219.676,1.151.085.629,https://maps.google.com/?cid=0x0:0x215cd436bee7e05a,
perumahan,Pembangunan Perumahan,wayan sudiksa,"Gg. Mangga No.5, dusun kajanan, desa penglatan, Kabupaten Buleleng, Bali 81119","dusun kajanan, desa penglatan, Kabupaten Buleleng",BALI,81119.0,Indonesia,,,,-81.019.375,1.151.023.544,https://maps.google.com/?cid=0x0:0x709eafad3968863f,
perumahan,Komplek perumahan,Yandek,"V3XX+7H2, Jl. P. Lombok, Banyuning, Kec. Buleleng, Kabupaten Buleleng, Bali 81114","Jl. P. Lombok, Banyuning, Kec. Buleleng, Kabupaten Buleleng",BALI,81114.0,Indonesia,,,,-81.018.677,1.150.988.813,https://maps.google.com/?cid=0x0:0x499c76a9bcded8e,
perumahan,Pembangunan Perumahan,Subandi Miamoto,"Gg. II No.6, Kp. Baru, Kec. Buleleng, Kabupaten Buleleng, Bali 81114","Kp. Baru, Kec. Buleleng, Kabupaten Buleleng",BALI,81114.0,Indonesia,,,,-81.042.303,11.509.684,https://maps.google.com/?cid=0x0:0xd20236715ac342f1,
perumahan,Komplek perumahan,Rumah Jangan Loepa,"Rumah Jangan Lupa, Jl. Bayusuta, Banjar Jawa, Kec. Buleleng, Kabupaten Buleleng, Bali 81112","Jl. Bayusuta, Banjar Jawa, Kec. Buleleng, Kabupaten Buleleng",BALI,81112.0,Indonesia,81331630123,,,-81.142.992,1.150.954.939,https://maps.google.com/?cid=0x0:0xb4e7fe9089ac3adb,
perumahan,Perhimpunan Pengembang Perumahan,Jln Erlangga,"Jl. Erlangga No.24, Kp. Bugis, Kec. Buleleng, Kabupaten Buleleng, Bali 81114","Kp. Bugis, Kec. Buleleng, Kabupaten Buleleng",BALI,81114.0,Indonesia,81232265967,,,-8.104.475,1.150.893.772,https://maps.google.com/?cid=0x0:0x6e25f0b63cbb5f0a,
perumahan,Komplek perumahan,NARA Kost,"Jl. Pulau Bali Blok B1, Kampung Baru, Buleleng, Buleleng Regency, Bali 81114","Kampung Baru, Buleleng, Buleleng Regency",BALI,81114.0,Indonesia,81339333123,,,-81.051.709,1.150.949.916,https://maps.google.com/?cid=0x0:0xf11225ab948321a1,
perumahan,Komplek perumahan,RUMAH SAHONG!,"V4X3+HRQ, Penarukan, Kec. Buleleng, Kabupaten Buleleng, Bali 81119","Penarukan, Kec. Buleleng, Kabupaten Buleleng",BALI,81119.0,Indonesia,,,,-81.010.411,115.104.614,https://maps.google.com/?cid=0x0:0xb8cf96d2b67bd90f,
perumahan,Perhimpunan Pengembang Perumahan,Saleh hajri,"Jl. Merak GG Fery 2 No.19, Kp. Bugis, Kec. Buleleng, Kabupaten Buleleng, Bali 81115","Kp. Bugis, Kec. Buleleng, Kabupaten Buleleng",BALI,81115.0,Indonesia,,,,-81.059.681,1.150.855.019,https://maps.google.com/?cid=0x0:0x658270c4bc72a4ad,
perumahan,perumahan,Bali 81115,"Kec. Buleleng, Kabupaten Buleleng, Bali","Kabupaten Buleleng, Bali",BALI,,Indonesia,,,,-81.008.567,1.150.836.668,https://maps.google.com/?cid=0x0:0x1c00c5eb6016c110,
perumahan,Komplek perumahan,Rumah kampung bugis,"Jl. Pisang No.9, Kp. Bugis, Kec. Buleleng, Kabupaten Buleleng, Bali 81115","Kp. Bugis, Kec. Buleleng, Kabupaten Buleleng",BALI,81115.0,Indonesia,,,,-81.041.913,1.150.871.119,https://maps.google.com/?cid=0x0:0xaa1a74c148017f65,
perumahan,Pembangunan Perumahan,Rumah Subsidi Buleleng ( Graha Kita Abadi ),"Jl. Wijaya Kusuma Jl. Sudirman Gg. 3 No.8, Banyuasri, Kec. Buleleng, Kabupaten Buleleng, Bali 81117","Banyuasri, Kec. Buleleng, Kabupaten Buleleng",BALI,81117.0,Indonesia,87860990770,,,-8.121.043,1.150.842.459,https://maps.google.com/?cid=0x0:0xe4640e63876b0e11,
perumahan,Pembangunan Perumahan,Rumah Said Halim Family,"Jl. Pisang No.12, Kp. Bugis, Kec. Buleleng, Kabupaten Buleleng, Bali 81115","Kp. Bugis, Kec. Buleleng, Kabupaten Buleleng",BALI,81115.0,Indonesia,,,,-81.046.512,1.150.856.972,https://maps.google.com/?cid=0x0:0x5bbb37db0aa047b0,
perumahan,perumahan,RUMAH ISAD,"V3RM+WP5, Jln.Pematang Baru, Kp. Anyar, Kec.Astambul, Kabupaten Buleleng, Bali","Kabupaten Buleleng, Bali",BALI,,Indonesia,,,,-81.077.253,1.150.843.701,https://maps.google.com/?cid=0x0:0x5a8bb2dea0d6ecc7,
perumahan,Komplek perumahan,Rumah Mangku Wayan Wenten,"V3RV+C8H, Jl. Wibisana, Banjar Bali, Singaraja, Kabupaten Buleleng, Bali 81113","Jl. Wibisana, Banjar Bali, Singaraja, Kabupaten Buleleng",BALI,81113.0,Indonesia,,,,-81.089.312,115.093.367,https://maps.google.com/?cid=0x0:0xd7b07819db72e8de,
perumahan,Komplek perumahan,Eka Sri Wahyudiati House,"Jl. Kaswari No.3a, Kp. Anyar, Kec. Buleleng, Kabupaten Buleleng, Bali 81116","Kp. Anyar, Kec. Buleleng, Kabupaten Buleleng",BALI,81116.0,Indonesia,,,,-81.083.422,1.150.819.661,https://maps.google.com/?cid=0x0:0x2097a63eba62f3c0,
perumahan,Komplek perumahan,debbi fahmi home's,"V3VP+P8C, Kp. Bugis, Kec. Buleleng, Kabupaten Buleleng, Bali 81115","Kp. Bugis, Kec. Buleleng, Kabupaten Buleleng",BALI,81115.0,Indonesia,,,,-81.058.046,115.085.733,https://maps.google.com/?cid=0x0:0xcc4a13a6e687b410,
perumahan,Komplek perumahan,Rumah,"Jl. P. Maluku Lingkungan Widya Sari gg x No.44, Kp. Baru, Kec. Buleleng, Kabupaten Buleleng, Bali 81113","Kp. Baru, Kec. Buleleng, Kabupaten Buleleng",BALI,81113.0,Indonesia,,,,-8.104.373,1.150.923.237,https://maps.google.com/?cid=0x0:0x79c25c62280e4604,
perumahan,Komplek perumahan,Nama tempat tinggal,"V3WV+88M, Lingkunga:Widya sari Jl. P. Sumatra, Kp. Baru, Kec. Buleleng, Kabupaten Buleleng, Bali 81114","Lingkunga:Widya sari Jl. P. Sumatra, Kp. Baru, Kec. Buleleng, Kabupaten Buleleng",BALI,81114.0,Indonesia,,,,-81.041.614,1.150.932.934,https://maps.google.com/?cid=0x0:0x113013701b22bde5,
perumahan,Komplek perumahan,Rumah HA,"V3XV+2CX, Jl. P. Sulawesi, Kp. Baru, Kec. Buleleng, Kabupaten Buleleng, Bali 81113","Jl. P. Sulawesi, Kp. Baru, Kec. Buleleng, Kabupaten Buleleng",BALI,81113.0,Indonesia,,,,-81.023.944,115.093.621,https://maps.google.com/?cid=0x0:0x7c6e2f3153827509,
perumahan,Komplek perumahan,Rumah ku,"V3RM+PGP, Gg. Nuri, Kp. Anyar, Kec. Buleleng, Kabupaten Buleleng, Bali 81116","Gg. Nuri, Kp. Anyar, Kec. Buleleng, Kabupaten Buleleng",BALI,81116.0,Indonesia,,,,-81.081.145,1.150.837.424,https://maps.google.com/?cid=0x0:0x3bca0095939255a2,
perumahan,Komplek perumahan,Elok House,"Jl. Merak gang remaja No.4, Kota. Singaraja, Kec. Buleleng, Kabupaten Buleleng, Bali 81116","Kota. Singaraja, Kec. Buleleng, Kabupaten Buleleng",BALI,81116.0,Indonesia,,,,-81.072.787,1.150.849.063,https://maps.google.com/?cid=0x0:0x6dc3ad9f34c7fe78,
perumahan,Komplek perumahan,Said fadilah,"Jl. Hasanudin No.57, Kp. Kajanan, Kec. Buleleng, Kabupaten Buleleng, Bali 81113","Kp. Kajanan, Kec. Buleleng, Kabupaten Buleleng",BALI,81113.0,Indonesia,,,,-81.057.166,1.150.905.532,https://maps.google.com/?cid=0x0:0x627e0fb9a3684a4a,
perumahan,Perhimpunan Pengembang Perumahan,Jln Erlangga,"Jl. Erlangga No.24, Kp. Bugis, Kec. Buleleng, Kabupaten Buleleng, Bali 81114","Kp. Bugis, Kec. Buleleng, Kabupaten Buleleng",BALI,81114.0,Indonesia,81232265967,,,-8.104.475,1.150.893.772,https://maps.google.com/?cid=0x0:0x6e25f0b63cbb5f0a,
perumahan,Komplek perumahan,Gang kemudi,"V3VP+CPV, Kp. Bugis, Kec. Buleleng, Kabupaten Buleleng, Bali 81114","Kp. Bugis, Kec. Buleleng, Kabupaten Buleleng",BALI,81114.0,Indonesia,,,,-8.106.385,1.150.867.747,https://maps.google.com/?cid=0x0:0x5c5c8ce8cc7a73fb,
perumahan,Komplek perumahan,Rumah Dewa Tajog,"Jl. Gajah Mada No.152, Banjar Bali, Kec. Buleleng, Kabupaten Buleleng, Bali 81113","Banjar Bali, Kec. Buleleng, Kabupaten Buleleng",BALI,81113.0,Indonesia,,,,-810.909,1.150.915.175,https://maps.google.com/?cid=0x0:0x97d430af09d114b7,
perumahan,Komplek perumahan,Sugiartana home .,"V3RP+78X, parkir mobil RS KERTA USADHA, depan KANTOR LURAH KALIUNTU, Kaliuntu, Kec. Buleleng, Kabupaten Buleleng, Bali 81116","parkir mobil RS KERTA USADHA, depan KANTOR LURAH KALIUNTU, Kaliuntu, Kec. Buleleng, Kabupaten Buleleng",BALI,81116.0,Indonesia,,,,-81.092.719,115.085.847,https://maps.google.com/?cid=0x0:0xe5b89fbfd50516d5,
perumahan,Komplek perumahan,Eks kantoran,"Jl. Merak No.12, Kp. Anyar, Kec. Buleleng, Kabupaten Buleleng, Bali 81116","Kp. Anyar, Kec. Buleleng, Kabupaten Buleleng",BALI,81116.0,Indonesia,,,,-81.075.558,1.150.852.457,https://maps.google.com/?cid=0x0:0x60bc435427ca8a29,
perumahan,Perhimpunan Pengembang Perumahan,lorong orang kaya pangka merah,"V3WP+2W8 batu 1, Kp. Bugis, Kec. Buleleng, Kabupaten Buleleng, Bali","Kabupaten Buleleng, Bali",BALI,,Indonesia,,,,-81.049.526,1.150.873.434,https://maps.google.com/?cid=0x0:0x68d48ee93efb32e,
perumahan,Perhimpunan Pengembang Perumahan,Icank Lido Home,"V3XV+9F2, Kp. Baru, Kec. Buleleng, Kabupaten Buleleng, Bali","Kabupaten Buleleng, Bali",BALI,,Indonesia,,,,-8.101.604,1.150.936.428,https://maps.google.com/?cid=0x0:0xcc1db432e877206b,
perumahan,Komplek perumahan,Rumah Della,"Jl. Patimura No.47, Kp. Anyar, Kec. Buleleng, Kabupaten Buleleng, Bali 81114","Kp. Anyar, Kec. Buleleng, Kabupaten Buleleng",BALI,81114.0,Indonesia,,,,-81.080.226,1.150.874.301,https://maps.google.com/?cid=0x0:0xd6ca079eba9ac9b4,
perumahan,Perhimpunan Pengembang Perumahan,Rumah Arin n dara,"Jl. Patimura No.108A, Kp. Bugis, singaraja, Kabupaten Buleleng, Bali 81115","Kp. Bugis, singaraja, Kabupaten Buleleng",BALI,81115.0,Indonesia,,,,-81.052.746,1.150.860.264,https://maps.google.com/?cid=0x0:0x3fdca4fd25247858,
perumahan,perumahan,Bali 81116,"Kec. Buleleng, Kabupaten Buleleng, Bali","Kabupaten Buleleng, Bali",BALI,,Indonesia,,,,-81.124.456,1.150.792.189,https://maps.google.com/?cid=0x0:0x1c00c5eb6016c120,
perumahan,Komplek perumahan,home,"Jl. A. Yani Gg. Wibisana No.9, Banyuasri, Kec. Buleleng, Kabupaten Buleleng, Bali 81116","Banyuasri, Kec. Buleleng, Kabupaten Buleleng",BALI,81116.0,Indonesia,,,,-81.191.515,1.150.758.705,https://maps.google.com/?cid=0x0:0x6e81cf76982c7791,
perumahan,Perumahan,Perumahan Banyuning Lestari,"Jl. Srimadya No.81119, Banyuning, Kec. Buleleng, Kabupaten Buleleng, Bali 81111","Banyuning, Kec. Buleleng, Kabupaten Buleleng",BALI,81111.0,Indonesia,81999031515,,,-81.175.556,115.103.001,https://maps.google.com/?cid=0x0:0xb47a93b7d1014222,
perumahan,Komplek perumahan,Perumahan Kompi A singaraja,"Jl. Skip No.26xx, Kaliuntu, Kec. Buleleng, Kabupaten Buleleng, Bali 81116","Kaliuntu, Kec. Buleleng, Kabupaten Buleleng",BALI,81116.0,Indonesia,,,,-81.103.433,1.150.788.957,https://maps.google.com/?cid=0x0:0x3312d518673c7670,
perumahan,Komplek perumahan,Perumahan Jalak Putih Permai,"Atas Blok B 12, Jalak Putih V","Kabupaten Buleleng, Bali",BALI,,Indonesia,,,,-81.208.436,1.150.787.411,https://maps.google.com/?cid=0x0:0xc33bfc8f8ed81332,
perumahan,Pembangunan Perumahan,"Perumahan Krisna Graha, Kerobokan","Krisna Graha, Blk. A No.3, Kerobokan, Kec. Sawan, Kabupaten Buleleng, Bali 81119","Blk. A No.3, Kerobokan, Kec. Sawan, Kabupaten Buleleng",BALI,81119.0,Indonesia,,,,-81.249.708,1.150.662.856,https://maps.google.com/?cid=0x0:0x32e1e63ba4289030,
perumahan,perumahan,Rumah Carnikayasa,"V3HH+C7V, Banyuasri, Kec. Buleleng, Kabupaten Buleleng, Bali","Kabupaten Buleleng, Bali",BALI,,Indonesia,,,,-81.213.758,1.150.781.804,https://maps.google.com/?cid=0x0:0x9d5534e31eea86b3,
perumahan,Komplek perumahan,Mz Jalak Putih,"V3HG+398, Baktiseraga, Kec. Buleleng, Kabupaten Buleleng, Bali 81119","Baktiseraga, Kec. Buleleng, Kabupaten Buleleng",BALI,81119.0,Indonesia,,,,-81.223.402,115.075.954,https://maps.google.com/?cid=0x0:0x53629cb864e89738,
perumahan,Perumahan,Perumahan,"Jl. Lingga No.7C, Banyuasri, Kec. Buleleng, Kabupaten Buleleng, Bali 81119","Banyuasri, Kec. Buleleng, Kabupaten Buleleng",BALI,81119.0,Indonesia,,,,-81.146.423,1.150.757.502,https://maps.google.com/?cid=0x0:0x840543e317ae7357,
perumahan,Komplek perumahan,Perumahan griya maha,"Perumahan Griya Maha, 4, No B3, Jl. Jalak Putih, Banyuasri, Buleleng, Buleleng Regency, Bali 81116","4, No B3, Jl. Jalak Putih, Banyuasri, Buleleng, Buleleng Regency",BALI,81116.0,Indonesia,,,,-81.220.355,1.150.762.768,https://maps.google.com/?cid=0x0:0xe0651ad841851c9c,
perumahan,Komplek perumahan,Rumah dodik,"Jl. Jatayu No.28, Kaliuntu, Kec. Buleleng, Kabupaten Buleleng, Bali 81116","Kaliuntu, Kec. Buleleng, Kabupaten Buleleng",BALI,81116.0,Indonesia,,,,-8.110.022,1.150.795.989,https://maps.google.com/?cid=0x0:0x75084d9dca9cbe6f,
perumahan,perumahan, ,"V3HH+C7V, Banyuasri, Kec. Buleleng, Kabupaten Buleleng, Bali","Kabupaten Buleleng, Bali",BALI,,Indonesia,,,,-81.213.758,1.150.781.804,https://maps.google.com/?cid=0x0:0xccc52176b7b3c7f9,
perumahan,Komplek perumahan,Lewa Karma Balo,"Jl. Jalak Putih No.Timur, Banyuasri, Kec. Buleleng, Kabupaten Buleleng, Bali 81119","Banyuasri, Kec. Buleleng, Kabupaten Buleleng",BALI,81119.0,Indonesia,,,,-81.201.327,1.150.773.235,https://maps.google.com/?cid=0x0:0x1a947bc085538068,
perumahan,Komplek perumahan,Rumah Ketut Sudirka,"Jl. Sudirman Jl. Sudirman Gg. 3 No.16 D, Banyuasri, Kec. Buleleng, Kabupaten Buleleng, Bali 81116","Banyuasri, Kec. Buleleng, Kabupaten Buleleng",BALI,81116.0,Indonesia,,,,-81.214.198,1.150.832.348,https://maps.google.com/?cid=0x0:0xf45c0cb858532144,
perumahan,Komplek perumahan,Jalan jalak putih,"V3HG+WCW, Jl. Jalak Putih 1, Banyuasri, Kec. Buleleng, Kabupaten Buleleng, Bali 81119","Jl. Jalak Putih 1, Banyuasri, Kec. Buleleng, Kabupaten Buleleng",BALI,81119.0,Indonesia,,,,-81.201.264,1.150.760.718,https://maps.google.com/?cid=0x0:0x6af245e28e527eb0,
perumahan,Komplek perumahan,Perumahan Graha Penimbangan,"Masuk Lewat Graha Penimbangan Residence, Jl. Pura Segara Penimbangan, Baktiseraga, Kec. Buleleng, Kabupaten Buleleng, Bali 81119","Jl. Pura Segara Penimbangan, Baktiseraga, Kec. Buleleng, Kabupaten Buleleng",BALI,81119.0,Indonesia,,,,-81.233.893,1.150.683.553,https://maps.google.com/?cid=0x0:0x94f56b8066ba8e9c,
perumahan,Komplek perumahan,Ketut liun home,"Jl. Jatayu No.25, Kaliuntu, Kec. Buleleng, Kabupaten Buleleng, Bali 81116","Kaliuntu, Kec. Buleleng, Kabupaten Buleleng",BALI,81116.0,Indonesia,,,,-81.101.242,1.150.799.009,https://maps.google.com/?cid=0x0:0xbcc3fff38a3fab1c,
perumahan,Perhimpunan Pengembang Perumahan,Saleh hajri,"Jl. Merak GG Fery 2 No.19, Kp. Bugis, Kec. Buleleng, Kabupaten Buleleng, Bali 81115","Kp. Bugis, Kec. Buleleng, Kabupaten Buleleng",BALI,81115.0,Indonesia,,,,-81.059.681,1.150.855.019,https://maps.google.com/?cid=0x0:0x658270c4bc72a4ad,
perumahan,Kantor Perusahaan,Pt Griya Panji Asri,"Jl. Dewi Sartika No.49, Kaliuntu, Kec. Buleleng, Kabupaten Buleleng, Bali 81116","Kaliuntu, Kec. Buleleng, Kabupaten Buleleng",BALI,81116.0,Indonesia,36222963,,,-81.101.607,1.150.840.183,https://maps.google.com/?cid=0x0:0x1cebf2ea9b59ffa6,
perumahan,Komplek perumahan,Rumah Ivan,"Jl. Sudirman Gg. 3 A No.4, Banyuasri, Kec. Buleleng, Kabupaten Buleleng, Bali 81116","Banyuasri, Kec. Buleleng, Kabupaten Buleleng",BALI,81116.0,Indonesia,,,,-81.209.372,1.150.846.571,https://maps.google.com/?cid=0x0:0xdb44811776c3f43b,
perumahan,Komplek perumahan,"Perumahan Graha Asri LC 8 Timur, A4","V3GG+FHJ, Baktiseraga, Kec. Buleleng, Kabupaten Buleleng, Bali 81116","Baktiseraga, Kec. Buleleng, Kabupaten Buleleng",BALI,81116.0,Indonesia,,,,-81.237.894,1.150.763.782,https://maps.google.com/?cid=0x0:0xdbe4dfa524e9158,
perumahan,Komplek perumahan,Sugiartana home .,"V3RP+78X, parkir mobil RS KERTA USADHA, depan KANTOR LURAH KALIUNTU, Kaliuntu, Kec. Buleleng, Kabupaten Buleleng, Bali 81116","parkir mobil RS KERTA USADHA, depan KANTOR LURAH KALIUNTU, Kaliuntu, Kec. Buleleng, Kabupaten Buleleng",BALI,81116.0,Indonesia,,,,-81.092.719,115.085.847,https://maps.google.com/?cid=0x0:0xe5b89fbfd50516d5,
perumahan,Komplek perumahan,Elok House,"Jl. Merak gang remaja No.4, Kota. Singaraja, Kec. Buleleng, Kabupaten Buleleng, Bali 81116","Kota. Singaraja, Kec. Buleleng, Kabupaten Buleleng",BALI,81116.0,Indonesia,,,,-81.072.787,1.150.849.063,https://maps.google.com/?cid=0x0:0x6dc3ad9f34c7fe78,
perumahan,Pembangunan Perumahan,Villa Merah Chaca,"V3JM+382, Gg. VI, Banyuasri, Kec. Buleleng, Kabupaten Buleleng, Bali 81116","Gg. VI, Banyuasri, Kec. Buleleng, Kabupaten Buleleng",BALI,81116.0,Indonesia,81210105721,,,-81.198.627,1.150.832.747,https://maps.google.com/?cid=0x0:0xa405550033eb5772,
perumahan,Pembangunan Perumahan,Perumahan Liligundi Permai,"Perumahan Liligundi Permai, jl. Gunung Tambora III, Liligundi, Kec. Buleleng, Kabupaten Buleleng, Bali 81117","jl. Gunung Tambora III, Liligundi, Kec. Buleleng, Kabupaten Buleleng",BALI,81117.0,Indonesia,,,,-81.301.842,1.150.962.181,https://maps.google.com/?cid=0x0:0xf52db718521796fc,
perumahan,perumahan,Bali 81117,"Kec. Buleleng, Kabupaten Buleleng, Bali","Kabupaten Buleleng, Bali",BALI,,Indonesia,,,,-81.253.835,1.150.925.624,https://maps.google.com/?cid=0x0:0x1c00c5eb6016c130,
perumahan,Departemen Rumah Sakit,Perumahan kresna property,"Gg. III No.17, Paket Agung, Kec. Buleleng, Kabupaten Buleleng, Bali 81117","Paket Agung, Kec. Buleleng, Kabupaten Buleleng",BALI,81117.0,Indonesia,87762675999,,,-81.290.421,1.150.951.834,https://maps.google.com/?cid=0x0:0x83d100146e152ebc,
perumahan,Komplek perumahan,"Rumah Gusti Ayu Dewi Aswin, S.Sos","Jl. Parikesit II No.19, Banjar Tegal, Kec. Buleleng, Kabupaten Buleleng, Bali 81117","Banjar Tegal, Kec. Buleleng, Kabupaten Buleleng",BALI,81117.0,Indonesia,,,,-81.236.146,115.088.873,https://maps.google.com/?cid=0x0:0xaf594224dad8742c,
perumahan,Perhimpunan Pengembang Perumahan,Rujab Kepala KPPN Singaraja,"V3GV+HG8, Jl. Kresna, Kendran, Kec. Buleleng, Kabupaten Buleleng, Bali 81117","Jl. Kresna, Kendran, Kec. Buleleng, Kabupaten Buleleng",BALI,81117.0,Indonesia,,,,-81.235.955,1.150.938.356,https://maps.google.com/?cid=0x0:0x9a83157cc508f57,
perumahan,Penginapan,Perumahan Taman Wira Bhakti,"V39M+9CW, Baktiseraga, Kec. Sukasada, Kabupaten Buleleng, Bali 81119","Baktiseraga, Kec. Sukasada, Kabupaten Buleleng",BALI,81119.0,Indonesia,,,,-81.315.065,1.150.835.882,https://maps.google.com/?cid=0x0:0x4cde56b0110bec72,
perumahan,Komplek perumahan,Ananda residence,"Jl. Pahlawan Gg. IV No.1, Banjar Tegal, Kec. Buleleng, Kabupaten Buleleng, Bali 81117","Banjar Tegal, Kec. Buleleng, Kabupaten Buleleng",BALI,81117.0,Indonesia,,,,-81.250.041,1.150.910.199,https://maps.google.com/?cid=0x0:0x1aa7613cfe330b3a,
perumahan,Pembangunan Perumahan,Perumahan Puri Srikandi Indah,"V39M+FHJ Perumahan Puri Srikandi Indah, Gg. Durian, Sambangan, Kec. Sukasada, Kabupaten Buleleng, Bali 81119","Gg. Durian, Sambangan, Kec. Sukasada, Kabupaten Buleleng",BALI,81119.0,Indonesia,,,,-81.312.785,1.150.838.973,https://maps.google.com/?cid=0x0:0x8005b2d40668a39d,
perumahan,Perumahan,Perumahan,"Jl. Lingga No.7C, Banyuasri, Kec. Buleleng, Kabupaten Buleleng, Bali 81119","Banyuasri, Kec. Buleleng, Kabupaten Buleleng",BALI,81119.0,Indonesia,,,,-81.146.423,1.150.757.502,https://maps.google.com/?cid=0x0:0x840543e317ae7357,
perumahan,Komplek perumahan,Rumahku Sederhana,"Gg. Mutiara VI No.2, Banjar Tegal, Kec. Buleleng, Kabupaten Buleleng, Bali 81113","Banjar Tegal, Kec. Buleleng, Kabupaten Buleleng",BALI,81113.0,Indonesia,,,,-81.194.008,1.150.901.767,https://maps.google.com/?cid=0x0:0x75daf733607db457,
perumahan,Perumahan,WISMA LESTARI PAKET AGUNG,"V3CV+HP9, Paket Agung, Kec. Buleleng, Kabupaten Buleleng, Bali 81117","Paket Agung, Kec. Buleleng, Kabupaten Buleleng",BALI,81117.0,Indonesia,,,,-81.293.375,1.150.944.481,https://maps.google.com/?cid=0x0:0x542dcf261ed137aa,
perumahan,Pembangunan Perumahan,Perumahan Puri Taman No 10,"Jl. Gn. Agung Perumahan Puri Taman No.10, Paket Agung, Kec. Buleleng, Kabupaten Buleleng, Bali 81117","Paket Agung, Kec. Buleleng, Kabupaten Buleleng",BALI,81117.0,Indonesia,,,,-81.261.508,1.150.941.598,https://maps.google.com/?cid=0x0:0x1be829cdc5fed993,
perumahan,Pembangunan Perumahan,Kubu devandra,"V3CV+HP9, Paket Agung, Kec. Buleleng, Kabupaten Buleleng, Bali 81117","Paket Agung, Kec. Buleleng, Kabupaten Buleleng",BALI,81117.0,Indonesia,,,,-81.293.345,1.150.944.424,https://maps.google.com/?cid=0x0:0x6a24053ed79e4af4,
perumahan,Komplek perumahan,Rumah Gus Raja,"V3CW+3RH, Liligundi, Kec. Buleleng, Kabupaten Buleleng, Bali 81117","Liligundi, Kec. Buleleng, Kabupaten Buleleng",BALI,81117.0,Indonesia,,,,-81.298.247,1.150.971.118,https://maps.google.com/?cid=0x0:0xb39a5042a22c1088,
perumahan,Pembangunan Perumahan,Rumah Subsidi Buleleng ( Graha Kita Abadi ),"Jl. Wijaya Kusuma Jl. Sudirman Gg. 3 No.8, Banyuasri, Kec. Buleleng, Kabupaten Buleleng, Bali 81117","Banyuasri, Kec. Buleleng, Kabupaten Buleleng",BALI,81117.0,Indonesia,87860990770,,,-8.121.043,1.150.842.459,https://maps.google.com/?cid=0x0:0xe4640e63876b0e11,
perumahan,Komplek perumahan,Rumah Ivan,"Jl. Sudirman Gg. 3 A No.4, Banyuasri, Kec. Buleleng, Kabupaten Buleleng, Bali 81116","Banyuasri, Kec. Buleleng, Kabupaten Buleleng",BALI,81116.0,Indonesia,,,,-81.209.372,1.150.846.571,https://maps.google.com/?cid=0x0:0xdb44811776c3f43b,
perumahan,perumahan,Rumah Tegal Sari,"Jl. Gn. Rinjani No.Timur, Banjar Tegal, Kec. Buleleng, Kabupaten Buleleng, Bali 81117","Banjar Tegal, Kec. Buleleng, Kabupaten Buleleng",BALI,81117.0,Indonesia,,,,-81.280.989,1.150.913.475,https://maps.google.com/?cid=0x0:0xf3b8c2cf401854c3,
perumahan,Gedung Apartemen,Drs. Made Sujana,"Jl. Parikesit II No.11, Banjar Tegal, Kec. Buleleng, Kabupaten Buleleng, Bali 81117","Banjar Tegal, Kec. Buleleng, Kabupaten Buleleng",BALI,81117.0,Indonesia,,,,-81.236.247,1.150.889.298,https://maps.google.com/?cid=0x0:0x51ff922aa407ce45,
perumahan,Komplek perumahan,Krisna Graha Sangket,"Unnamed Road, Sukasada, Buleleng, Buleleng Regency, Bali 81161","Sukasada, Buleleng, Buleleng Regency",BALI,81161.0,Indonesia,,,,-81.529.137,1.151.114.113,https://maps.google.com/?cid=0x0:0x898d2bd41728d0e1,
perumahan,Komplek perumahan,Ananda,"Perumahan Liligundi Permai, jl. Gunung Tambora III no 14, Liligundi, Kec. Buleleng, Kabupaten Buleleng, Bali 81117","jl. Gunung Tambora III no 14, Liligundi, Kec. Buleleng, Kabupaten Buleleng",BALI,81117.0,Indonesia,,,,-81.304.005,1.150.961.709,https://maps.google.com/?cid=0x0:0x33771bf5a3f05e2d,
perumahan,Perumahan,Buleleng,"V39M+Q7X, Gg. Durian 1, Baktiseraga, Kec. Buleleng, Kabupaten Buleleng, Bali 81119","Gg. Durian 1, Baktiseraga, Kec. Buleleng, Kabupaten Buleleng",BALI,81119.0,Indonesia,,,,-81.305.081,1.150.832.492,https://maps.google.com/?cid=0x0:0xa47f15744094c6c6,
perumahan,Komplek perumahan,Singaraja Buleleng Bali,"Jl. Ngurah Rai, Kp. Singaraja, Kec. Buleleng, Kabupaten Buleleng, Bali 81117","Kp. Singaraja, Kec. Buleleng, Kabupaten Buleleng",BALI,81117.0,Indonesia,,,,-81.246.861,1.150.928.083,https://maps.google.com/?cid=0x0:0x5d55d0adbe2e4908,
perumahan,Komplek perumahan,Kost Xonkslet rinjani23,"V3CR+MH6, Jl. Gn. Rinjani, Paket Agung, Kec. Buleleng, Kabupaten Buleleng, Bali 81117","Jl. Gn. Rinjani, Paket Agung, Kec. Buleleng, Kabupaten Buleleng",BALI,81117.0,Indonesia,81936366958,,,-81.283.185,1.150.911.366,https://maps.google.com/?cid=0x0:0xbfd25ac0ff019278,
perumahan,Perumahan,GRYA ADI BUBUNAN 2,"Grya Adi Bubunan 2 Blok E 1 BD Tegal Wangi DS. Bubunan, Banjar Tegal, Kec. Seririt, Kabupaten Buleleng, Bali 81117","Banjar Tegal, Kec. Seririt, Kabupaten Buleleng",BALI,81117.0,Indonesia,,,,-8.122.034,115.090.968,https://maps.google.com/?cid=0x0:0x6e7e2e7e08357015,
perumahan,Komplek perumahan,BLI AGUS Leo Home,"V3CV+HP9, Paket Agung, Kec. Buleleng, Kabupaten Buleleng, Bali 81117","Paket Agung, Kec. Buleleng, Kabupaten Buleleng",BALI,81117.0,Indonesia,,,,-81.293.579,1.150.945.782,https://maps.google.com/?cid=0x0:0xb1f1363010c3195b,
perumahan,Pembangunan Perumahan,Rumah Subsidi Buleleng ( Graha Kita Abadi ),"Jl. Wijaya Kusuma Jl. Sudirman Gg. 3 No.8, Banyuasri, Kec. Buleleng, Kabupaten Buleleng, Bali 81117","Banyuasri, Kec. Buleleng, Kabupaten Buleleng",BALI,81117.0,Indonesia,87860990770,,,-8.121.043,1.150.842.459,https://maps.google.com/?cid=0x0:0xe4640e63876b0e11,
perumahan,perumahan,Bali 81118,"Kec. Buleleng, Kabupaten Buleleng, Bali","Kabupaten Buleleng, Bali",BALI,,Indonesia,,,,-81.243.185,115.099.234,https://maps.google.com/?cid=0x0:0x8a3c0299dc06b393,
perumahan,Komplek perumahan,Perumahan Giri Emas Real Estate,"W43X+HPR, Giri Emas, Kec. Sawan, Kabupaten Buleleng, Bali 81171","Giri Emas, Kec. Sawan, Kabupaten Buleleng",BALI,81171.0,Indonesia,,,,-8.095.326,115.148.758,https://maps.google.com/?cid=0x0:0x9609de23f6d76378,
perumahan,Pembangunan Perumahan,satya darma house,"V4F2+M3R, Jl. Gn. Batukaru, Liligundi, Kec. Buleleng, Kabupaten Buleleng, Bali 81118","Jl. Gn. Batukaru, Liligundi, Kec. Buleleng, Kabupaten Buleleng",BALI,81118.0,Indonesia,81246522121,,,-81.257.509,1.151.001.469,https://maps.google.com/?cid=0x0:0xfc9a0682634c7b77,
perumahan,Komplek perumahan,Rumah subsidi Anturan,"Pin dipasang, Anturan, Kec. Buleleng, Kabupaten Buleleng, Bali 81119","Anturan, Kec. Buleleng, Kabupaten Buleleng",BALI,81119.0,Indonesia,81999555854,,,-81.549.737,115.045.854,https://maps.google.com/?cid=0x0:0xf47802b5936fde16,
perumahan,Komplek perumahan,PT. PACUNG PERMAI LESTARI,"V4J7+3P5, Jalan Pulau Kangean, Perum Karyawan Kanaya, Banjar Dinas Dauh Tukad, Penglatan, Kec. Buleleng, Kabupaten Buleleng, Bali 81119","Jalan Pulau Kangean, Perum Karyawan Kanaya, Banjar Dinas Dauh Tukad, Penglatan, Kec. Buleleng, Kabupaten Buleleng",BALI,81119.0,Indonesia,83115814061,,,-81.198.645,1.151.143.575,https://maps.google.com/?cid=0x0:0xb947aebbbc893f27,
perumahan,Kastel,Puri Agung Singaraja,"Jl. Mayor Metra No.12, Paket Agung, Kec. Buleleng, Kabupaten Buleleng, Bali 81118","Paket Agung, Kec. Buleleng, Kabupaten Buleleng",BALI,81118.0,Indonesia,36222974,,,-81.260.158,1.150.969.255,https://maps.google.com/?cid=0x0:0xf3eac4a5cbbb9cb3,
perumahan,Rumah Makan,Warung Lalapan Mbak Fifi,"V3FW+XW7, Kp. Singaraja, Kec. Buleleng, Kabupaten Buleleng, Bali 81118","Kp. Singaraja, Kec. Buleleng, Kabupaten Buleleng",BALI,81118.0,Indonesia,85333600198,,,-81.250.876,1.150.973.003,https://maps.google.com/?cid=0x0:0xc65543e4342eb64e,
perumahan,Organisasi Pelayanan Sosial,Dinas Sosial Kabupaten Buleleng,"Jl. Veteran No.7, Paket Agung, Kec. Buleleng, Kabupaten Buleleng, Bali 81118","Paket Agung, Kec. Buleleng, Kabupaten Buleleng",BALI,81118.0,Indonesia,36221248,,,-81.244.657,1.150.949.712,https://maps.google.com/?cid=0x0:0x8081f847775dbf56,
perumahan,Monumen,Museum Buleleng (  ),"Jl. Veteran No.23, Paket Agung, Kec. Buleleng, Kabupaten Buleleng, Bali 81118","Paket Agung, Kec. Buleleng, Kabupaten Buleleng",BALI,81118.0,Indonesia,3623303368,,,-81.247.106,1.150.965.648,https://maps.google.com/?cid=0x0:0xb0095e35423e1766,
perumahan,Pembangunan Perumahan,Rumah Bhavanii,"Jl. Mayor Metra No.19, Kp. Singaraja, Kec. Buleleng, Kabupaten Buleleng, Bali 81118","Kp. Singaraja, Kec. Buleleng, Kabupaten Buleleng",BALI,81118.0,Indonesia,,,,-81.259.052,1.150.975.635,https://maps.google.com/?cid=0x0:0x4a87141fed3c3c72,
perumahan,Perumahan,Perumahan Cahaya Residence Sambangan,"Gg. Cahaya, Sambangan, Kec. Sukasada, Kabupaten Buleleng, Bali 81161","Sambangan, Kec. Sukasada, Kabupaten Buleleng",BALI,81161.0,Indonesia,82147253119,,,-81.468.253,1.150.970.448,https://maps.google.com/?cid=0x0:0x216fd165987e354b,
perumahan,Pembangunan Perumahan,WANINGFISH,"Jl. Gn. Semeru No.24, Kp. Singaraja, Kec. Buleleng, Kabupaten Buleleng, Bali 81118","Kp. Singaraja, Kec. Buleleng, Kabupaten Buleleng",BALI,81118.0,Indonesia,,,,-81.243.226,1.150.981.377,https://maps.google.com/?cid=0x0:0xa1cba212e0f2aea8,
perumahan,Komplek perumahan,RUMAH AIDIL,"V3GX+7GP, Jl. Gn. Semeru, Kp. Singaraja, Kec. Buleleng, Kabupaten Buleleng, Bali 81118","Jl. Gn. Semeru, Kp. Singaraja, Kec. Buleleng, Kabupaten Buleleng",BALI,81118.0,Indonesia,,,,-81.242.941,1.150.988.185,https://maps.google.com/?cid=0x0:0x147aede1d8f5e3ba,
perumahan,Komplek perumahan,D' Djendria,"Jl. Gn. Batukaru No.5, Liligundi, Kec. Buleleng, Kabupaten Buleleng, Bali 81118","Liligundi, Kec. Buleleng, Kabupaten Buleleng",BALI,81118.0,Indonesia,,,,-81.265.819,1.150.981.625,https://maps.google.com/?cid=0x0:0xd2d2c4cb976c29a6,
perumahan,Pembangunan Perumahan,Azemin,"V3GX+6MF, Singaraja, Kp. Singaraja, Kec. Buleleng, Kabupaten Buleleng, Bali 81118","Singaraja, Kp. Singaraja, Kec. Buleleng, Kabupaten Buleleng",BALI,81118.0,Indonesia,,,,-81.244.326,1.150.991.749,https://maps.google.com/?cid=0x0:0x6ada81f9a989c8f0,
perumahan,Komplek perumahan,Gerya Tohpati,"Jl. Mayor Metra Gg. 4, Liligundi, Kec. Buleleng, Kabupaten Buleleng, Bali 81118","Liligundi, Kec. Buleleng, Kabupaten Buleleng",BALI,81118.0,Indonesia,,,,-81.282.983,1.150.983.307,https://maps.google.com/?cid=0x0:0x8fcec76dd839c5c1,
perumahan,Komplek perumahan,rumah ija,"Jl. Gn. Semeru No.9, Singaraja, Kp. Singaraja, Kec. Buleleng, Kabupaten Buleleng, Bali 81118","Singaraja, Kp. Singaraja, Kec. Buleleng, Kabupaten Buleleng",BALI,81118.0,Indonesia,,,,-81.237.837,1.150.991.521,https://maps.google.com/?cid=0x0:0x6c2c9e6913704bb3,
perumahan,Pembangunan Perumahan,DESTA PRTM HOME,"V3CV+MQM, Paket Agung, Kec. Buleleng, Kabupaten Buleleng, Bali 81118","Paket Agung, Kec. Buleleng, Kabupaten Buleleng",BALI,81118.0,Indonesia,,,,-81.243.185,115.099.234,https://maps.google.com/?cid=0x0:0x4540798ea6b8777f,
perumahan,Komplek perumahan,Krisna Graha Sangket,"Unnamed Road, Sukasada, Buleleng, Buleleng Regency, Bali 81161","Sukasada, Buleleng, Buleleng Regency",BALI,81161.0,Indonesia,,,,-81.529.137,1.151.114.113,https://maps.google.com/?cid=0x0:0x898d2bd41728d0e1,
perumahan,Komplek perumahan,perum,"V4P3+QJ7, Jl. Gempol, Banyuning, Kec. Buleleng, Kabupaten Buleleng, Bali 81119","Jl. Gempol, Banyuning, Kec. Buleleng, Kabupaten Buleleng",BALI,81119.0,Indonesia,,,,-81.130.837,115.104.096,https://maps.google.com/?cid=0x0:0xb2496fca628607ba,
perumahan,Pembangunan Perumahan,"Perumahan Krisna Graha, Kerobokan","Krisna Graha, Blk. A No.3, Kerobokan, Kec. Sawan, Kabupaten Buleleng, Bali 81119","Blk. A No.3, Kerobokan, Kec. Sawan, Kabupaten Buleleng",BALI,81119.0,Indonesia,,,,-81.249.708,1.150.662.856,https://maps.google.com/?cid=0x0:0x32e1e63ba4289030,
perumahan,Perias,Bymira.a,"Perumahan panji Harmoni blok B no 6, Kp. Singaraja, Kec. Buleleng, Kabupaten Buleleng, Bali 81118","Kp. Singaraja, Kec. Buleleng, Kabupaten Buleleng",BALI,81118.0,Indonesia,85829167014,,,-81.249.597,1.150.998.049,https://maps.google.com/?cid=0x0:0x25e4f59ecf6e3ff8,
perumahan,Otoritas Perumahan,Kantor Krisna Agung Property,"Singaraja, Banyuasri, Kec. Buleleng, Kabupaten Buleleng, Bali 81116","Banyuasri, Kec. Buleleng, Kabupaten Buleleng",BALI,81116.0,Indonesia,81915617575,,,-81.183.496,1.150.826.349,https://maps.google.com/?cid=0x0:0x9ab91bd77d20da7b,
perumahan,perumahan,Bali 81119,"Kec. Buleleng, Kabupaten Buleleng, Bali","Kabupaten Buleleng, Bali",BALI,,Indonesia,,,,-81.216.981,1.151.296.249,https://maps.google.com/?cid=0x0:0x1c00c5eb6016c140,
perumahan,Komplek perumahan,Perumahan Banyuning Indah,"V4M5+C3P, Banyuning, Kec. Buleleng, Kabupaten Buleleng, Bali 81119","Banyuning, Kec. Buleleng, Kabupaten Buleleng",BALI,81119.0,Indonesia,,,,-81.164.025,1.151.076.966,https://maps.google.com/?cid=0x0:0x2f24683ae57dae69,
perumahan,Perumahan,Perumahan Banyuning Lestari,"Jl. Srimadya No.81119, Banyuning, Kec. Buleleng, Kabupaten Buleleng, Bali 81111","Banyuning, Kec. Buleleng, Kabupaten Buleleng",BALI,81111.0,Indonesia,81999031515,,,-81.175.556,115.103.001,https://maps.google.com/?cid=0x0:0xb47a93b7d1014222,
perumahan,perumahan,Gerokgak,"Gerokgak, Kec. Gerokgak, Kabupaten Buleleng, Bali","Kabupaten Buleleng, Bali",BALI,,Indonesia,,,,-8.191.287,114.790.497,https://maps.google.com/?cid=0x0:0xf78f5a1707a45884,
perumahan,Komplek perumahan,Tempat Kediaman Tn. Bisri Abdullah,"RQ5R+F6J, Gerokgak, Kec. Gerokgak, Kabupaten Buleleng, Bali 81155","Gerokgak, Kec. Gerokgak, Kabupaten Buleleng",BALI,81155.0,Indonesia,,,,-81.912.924,1.147.905.111,https://maps.google.com/?cid=0x0:0x19eefa4d18706534,
perumahan,Pembangunan Perumahan,Musmulyadi,"RQ5R+F6J, Gerokgak, Kec. Gerokgak, Kabupaten Buleleng, Bali","Kabupaten Buleleng, Bali",BALI,,Indonesia,,,,-81.912.924,1.147.905.112,https://maps.google.com/?cid=0x0:0x8d44d95f8326cdcd,
perumahan,Rumah Kayu,Putu ariawan,"RQ5R+F6J, Gerokgak, Kec. Gerokgak, Kabupaten Buleleng, Bali","Kabupaten Buleleng, Bali",BALI,,Indonesia,,,,-81.912.924,1.147.905.112,https://maps.google.com/?cid=0x0:0x6e6ab026c2f02b9b,
perumahan,Komplek perumahan,Komang Edy Homesweet,"RQ5R+F6J, Gerokgak, Kec. Gerokgak, Kabupaten Buleleng, Bali 81155","Gerokgak, Kec. Gerokgak, Kabupaten Buleleng",BALI,81155.0,Indonesia,,,,-81.912.924,1.147.905.111,https://maps.google.com/?cid=0x0:0xf95e2ac74ce50353,
perumahan,perumahan,Bali 81154,"Kabupaten Buleleng, Bali","Kabupaten Buleleng, Bali",BALI,,Indonesia,,,,-82.967.833,114.916.088,https://maps.google.com/?cid=0x0:0x1c00c5eb6016c170,
perumahan,Komplek perumahan,Busungbiu,"Jl. Kiskinda No.23, Busungbiu, Kec. Busung Biu, Kabupaten Buleleng, Bali 81154","Busungbiu, Kec. Busung Biu, Kabupaten Buleleng",BALI,81154.0,Indonesia,,,,-82.556.721,1.149.664.998,https://maps.google.com/?cid=0x0:0x19adfb9c3f91da3c,
perumahan,Komplek perumahan,Rumah Warna,"PXW6+3JR, Jl. Parta, Busungbiu, Kec. Busung Biu, Kabupaten Buleleng, Bali 81154","Jl. Parta, Busungbiu, Kec. Busung Biu, Kabupaten Buleleng",BALI,81154.0,Indonesia,,,,-82.547.574,1.149.615.284,https://maps.google.com/?cid=0x0:0x8609faaf832839ca,
perumahan,Komplek perumahan,Perumahan ktua kelompok megona,"MWP5+2CC, Sepang, Kec. Busung Biu, Kabupaten Buleleng, Bali","Kabupaten Buleleng, Bali",BALI,,Indonesia,,,,-83.149.298,1.149.085.161,https://maps.google.com/?cid=0x0:0x1ba923efa9bf2c35,
perumahan,Komplek perumahan,Rumah Tinggal,"PXM4+CR9, Titab, Kec. Busung Biu, Kabupaten Buleleng, Bali 81154","Titab, Kec. Busung Biu, Kabupaten Buleleng",BALI,81154.0,Indonesia,,,,-82.658.913,1.149.568.286,https://maps.google.com/?cid=0x0:0x8df9b6b2f95c82f,
perumahan,Pembangunan Perumahan,Kenik Bali House,"MW86+9WG, Asah badung, Sepang Kelod, Kec. Busung Biu, Kabupaten Buleleng, Bali 81154","Asah badung, Sepang Kelod, Kec. Busung Biu, Kabupaten Buleleng",BALI,81154.0,Indonesia,,,,-83.340.728,1.149.123.365,https://maps.google.com/?cid=0x0:0xacab4f66753c7d79,
perumahan,Komplek perumahan,Dogler Home,"MVGQ+JHF, Sepang Kelod, Kec. Busung Biu, Kabupaten Buleleng, Bali 81154","Sepang Kelod, Kec. Busung Biu, Kabupaten Buleleng",BALI,81154.0,Indonesia,,,,-8.323.277,114.888.644,https://maps.google.com/?cid=0x0:0x6d1d75a3c676ef3,
perumahan,Pembangunan Perumahan,Rumah dwaji darma (kopi bubuk),"MW7M+PGV, Jl. Pekutatan, Sepang, Kec. Busung Biu, Kabupaten Buleleng, Bali 81154","Jl. Pekutatan, Sepang, Kec. Busung Biu, Kabupaten Buleleng",BALI,81154.0,Indonesia,85858278826,,,-83.356.475,1.149.338.043,https://maps.google.com/?cid=0x0:0x6be60411d735c83d,
perumahan,Pembangunan Perumahan,Kubu Pak Teo Titab,"PXM4+CR9, Titab, Kec. Busung Biu, Kabupaten Buleleng, Bali 81154","Titab, Kec. Busung Biu, Kabupaten Buleleng",BALI,81154.0,Indonesia,,,,-82.658.906,1.149.568.257,https://maps.google.com/?cid=0x0:0xb57581ac081497d2,
perumahan,Pembangunan Perumahan,Rumah Pak Konten,"MWGP+GFG, Jl. Pekutatan, Sepang, Kec. Busung Biu, Kabupaten Buleleng, Bali 81154","Jl. Pekutatan, Sepang, Kec. Busung Biu, Kabupaten Buleleng",BALI,81154.0,Indonesia,,,,-83.236.867,1.149.362.082,https://maps.google.com/?cid=0x0:0x866308372d8726fd,
perumahan,Komplek perumahan,Rumah Putri Rian Bintang,"MW82+46W, Sepang Kelod, Kec. Busung Biu, Kabupaten Buleleng, Bali 81154","Sepang Kelod, Kec. Busung Biu, Kabupaten Buleleng",BALI,81154.0,Indonesia,87840869317,,,-83.346.397,1.149.005.888,https://maps.google.com/?cid=0x0:0x18502fc405ac13d0,
perumahan,Pembangunan Perumahan,Guru Gede Arsa,"MW82+8V, Sepang Kelod, Kec. Busung Biu, Kabupaten Buleleng, Bali 81154","Sepang Kelod, Kec. Busung Biu, Kabupaten Buleleng",BALI,81154.0,Indonesia,,,,-83.341.882,1.149.021.887,https://maps.google.com/?cid=0x0:0xf1a97cbcb7cdd95f,
perumahan,Pembangunan Perumahan,Yan yogik,"PXH6+H98, Jl. Raya Titab, Titab, Kec. Busung Biu, Kabupaten Buleleng, Bali 81154","Jl. Raya Titab, Titab, Kec. Busung Biu, Kabupaten Buleleng",BALI,81154.0,Indonesia,,,,-82.710.779,1.149.609.468,https://maps.google.com/?cid=0x0:0x7c49670933632e4c,
perumahan,Komplek perumahan,Darmika house,"PXM4+CR9, Titab, Kec. Busung Biu, Kabupaten Buleleng, Bali 81154","Titab, Kec. Busung Biu, Kabupaten Buleleng",BALI,81154.0,Indonesia,,,,-82.664.074,1.149.570.867,https://maps.google.com/?cid=0x0:0x7c9263960239359d,
perumahan,Komplek perumahan,Kubu Mang Net,"PXM4+CR9, Titab, Kec. Busung Biu, Kabupaten Buleleng, Bali 81154","Titab, Kec. Busung Biu, Kabupaten Buleleng",BALI,81154.0,Indonesia,,,,-82.669.768,1.149.579.562,https://maps.google.com/?cid=0x0:0x6120aa2c169046c2,
perumahan,Komplek perumahan,Rumah Agus Budiarta,"PW5G+VVM, Banjar Belulang, Sepang, Kec. Busung Biu, Kabupaten Buleleng, Bali","Kabupaten Buleleng, Bali",BALI,,Indonesia,,,,-82.902.954,1.149.271.565,https://maps.google.com/?cid=0x0:0xa11893054e5abc0,
perumahan,perumahan,Pondok VJP Busungbiu,"Jl. Amerta No.XX, Busungbiu, Kec. Busung Biu, Kabupaten Buleleng, Bali 81154","Busungbiu, Kec. Busung Biu, Kabupaten Buleleng",BALI,81154.0,Indonesia,,,,-82.546.097,1.149.635.295,https://maps.google.com/?cid=0x0:0x93ed200997c2148c,
perumahan,Komplek perumahan,Pondok goceeng,"MWRV+72G, Jl. Puncak Sari, Pucaksari, Kec. Busung Biu, Kabupaten Buleleng, Bali 81154","Jl. Puncak Sari, Pucaksari, Kec. Busung Biu, Kabupaten Buleleng",BALI,81154.0,Indonesia,81999885575,,,-83.093.069,1.149.425.789,https://maps.google.com/?cid=0x0:0x8958e8daa9f65092,
perumahan,Komplek perumahan,Ngurah arianto moyo,"MV7X+VP4, Sepang Kelod, Kec. Busung Biu, Kabupaten Buleleng, Bali 81154","Sepang Kelod, Kec. Busung Biu, Kabupaten Buleleng",BALI,81154.0,Indonesia,,,,-83.353.742,1.148.993.245,https://maps.google.com/?cid=0x0:0x3be46c5ca95c3cbb,
perumahan,Komplek perumahan,Oke,"MWGH+7MC, Sepang, Kec. Busung Biu, Kabupaten Buleleng, Bali 81154","Sepang, Kec. Busung Biu, Kabupaten Buleleng",BALI,81154.0,Indonesia,,,,-8.324.506,1.149.299.238,https://maps.google.com/?cid=0x0:0x5e08dcf93c85d397,
perumahan,Komplek perumahan,Kubu Kapoor,"PXP4+56, Titab, Kec. Busung Biu, Kabupaten Buleleng, Bali","Kabupaten Buleleng, Bali",BALI,,Indonesia,,,,-82.645.624,1.149.555.754,https://maps.google.com/?cid=0x0:0x3b5a0331ce9f29f4,
perumahan,perumahan,Rumah sumber,"sebelah kantor pos, Jl. Amerta gang apokat No.2, Busungbiu, Busung Biu, Buleleng Regency, Bali 81154","Jl. Amerta gang apokat No.2, Busungbiu, Busung Biu, Buleleng Regency",BALI,81154.0,Indonesia,,,,-82.526.943,1.149.626.387,https://maps.google.com/?cid=0x0:0xfc9b65702f2d6873,
perumahan,Pembangunan Perumahan,Pondok ira,"PW2M+X5X, Sepang, Kec. Busung Biu, Kabupaten Buleleng, Bali 81154","Sepang, Kec. Busung Biu, Kabupaten Buleleng",BALI,81154.0,Indonesia,,,,-82.975.036,1.149.329.817,https://maps.google.com/?cid=0x0:0xe5a0b5e551aae156,
perumahan,Komplek perumahan,Pudaksari Busungbiu,"PXV8+V6R, Busungbiu, Kec. Busung Biu, Kabupaten Buleleng, Bali 81154","Busungbiu, Kec. Busung Biu, Kabupaten Buleleng",BALI,81154.0,Indonesia,,,,-82.551.979,1.149.654.952,https://maps.google.com/?cid=0x0:0xfa1b80254e95175,
perumahan,Komplek perumahan,Dedy,"PXJ5+CV, Titab, Kec. Busung Biu, Kabupaten Buleleng, Bali 81154","Titab, Kec. Busung Biu, Kabupaten Buleleng",BALI,81154.0,Indonesia,,,,-82.689.104,114.959.724,https://maps.google.com/?cid=0x0:0x9ed30e22a4a13f8,
perumahan,Komplek perumahan,Rumah subsidi Anturan,"Pin dipasang, Anturan, Kec. Buleleng, Kabupaten Buleleng, Bali 81119","Anturan, Kec. Buleleng, Kabupaten Buleleng",BALI,81119.0,Indonesia,81999555854,,,-81.549.737,115.045.854,https://maps.google.com/?cid=0x0:0xf47802b5936fde16,
perumahan,Layanan administrasi properti,BTN SUBSIDI TEMUKUS PEGAYAMAN,"RX8J+6W4, Jl. Seririt- Singaraja, Dencarik, Kec. Banjar, Kabupaten Buleleng, Bali 81152","Jl. Seririt- Singaraja, Dencarik, Kec. Banjar, Kabupaten Buleleng",BALI,81152.0,Indonesia,,,,-81.835.528,1.149.822.064,https://maps.google.com/?cid=0x0:0xa7bda3f5519cc0aa,
perumahan,Pembangunan Perumahan,perumahan graha asri kubutambahan,"W56G+PQR, jl semara tungga br dinas pasek, Kubutambahan, Kec. Kubutambahan, Kabupaten Buleleng, Bali 81171","jl semara tungga br dinas pasek, Kubutambahan, Kec. Kubutambahan, Kabupaten Buleleng",BALI,81171.0,Indonesia,,,,-80.881.496,1.151.768.794,https://maps.google.com/?cid=0x0:0x70aee5158beeb416,
perumahan,perumahan,Bali 81172,"Kec. Kubutambahan, Kabupaten Buleleng, Bali","Kabupaten Buleleng, Bali",BALI,,Indonesia,,,,-81.062.097,1.152.126.293,https://maps.google.com/?cid=0x0:0x1c00c5eb6016c1b0,
perumahan,Pembangunan Perumahan,Kubu Ngurah Juruh,"W6G2+PWH, Gg. Ampel, Kubutambahan, Kec. Kubutambahan, Kabupaten Buleleng, Bali 81172","Gg. Ampel, Kubutambahan, Kec. Kubutambahan, Kabupaten Buleleng",BALI,81172.0,Indonesia,,,,-8.073.181,1.152.023.707,https://maps.google.com/?cid=0x0:0x3d2936da56d26289,
perumahan,perumahan,Rumah I MADE PURNA ARIAWAN,"V6GH+3Q4, Depeha, Kec. Kubutambahan, Kabupaten Buleleng, Bali 81172","Depeha, Kec. Kubutambahan, Kabupaten Buleleng",BALI,81172.0,Indonesia,,,,-81.248.625,1.152.294.531,https://maps.google.com/?cid=0x0:0x6382659a58351639,
perumahan,Komplek perumahan,Pondok KaisarBali,"W65Q+37J, Jl. Raya Singaraja, karangasem, Bukti, Kec. Kubutambahan, Kabupaten Buleleng, Bali 81172","Jl. Raya Singaraja, karangasem, Bukti, Kec. Kubutambahan, Kabupaten Buleleng",BALI,81172.0,Indonesia,8113865880,,,-8.092.287,1.152.381.495,https://maps.google.com/?cid=0x0:0xc5e78b88c8110acc,
perumahan,Pembangunan Perumahan,Kubu anak singkong.,"W625+7WR, Bulian, Kec. Kubutambahan, Kabupaten Buleleng, Bali 81172","Bulian, Kec. Kubutambahan, Kabupaten Buleleng",BALI,81172.0,Indonesia,,,,-81.004.738,1.152.098.636,https://maps.google.com/?cid=0x0:0x30b65ac2f80bf5a1,
perumahan,Perhimpunan Pengembang Perumahan,Made port home,"V5FV+77G, Jl. Gn. Batur, Bila, Kec. Kubutambahan, Kabupaten Buleleng, Bali 81172","Jl. Gn. Batur, Bila, Kec. Kubutambahan, Kabupaten Buleleng",BALI,81172.0,Indonesia,,,,-81.268.117,115.193.198,https://maps.google.com/?cid=0x0:0x8e329248722fde41,
perumahan,Komplek perumahan,K+ Family Home,"Banjar dinas seganti, Depeha, Kubutambahan, Buleleng Regency, Bali 81172","Depeha, Kubutambahan, Buleleng Regency",BALI,81172.0,Indonesia,,,,-81.148.879,1.152.300.301,https://maps.google.com/?cid=0x0:0xee1de8b396353f0e,
perumahan,Perumahan,NPT House,"W626+22P, Bulian, Kec. Kubutambahan, Kabupaten Buleleng, Bali 81172","Bulian, Kec. Kubutambahan, Kabupaten Buleleng",BALI,81172.0,Indonesia,,,,-80.999.218,1.152.100.923,https://maps.google.com/?cid=0x0:0xf00b14fd1ef0ad9e,
perumahan,Komplek perumahan,Rumah Pak JK,"V5HV+MX, Tamblang, Kec. Kubutambahan, Kabupaten Buleleng, Bali 81172","Tamblang, Kec. Kubutambahan, Kabupaten Buleleng",BALI,81172.0,Indonesia,,,,-81.208.125,1.151.949.375,https://maps.google.com/?cid=0x0:0xa2984a0f25d2df52,
perumahan,Gedung Apartemen,Rumah Edy and Dewi,"V652+54C, Bontihing, Kec. Kubutambahan, Kabupaten Buleleng, Bali 81172","Bontihing, Kec. Kubutambahan, Kabupaten Buleleng",BALI,81172.0,Indonesia,,,,-81.422.724,115.200.216,https://maps.google.com/?cid=0x0:0x6e3fad60315dc258,
perumahan,Komplek perumahan,house ajik wangsa,"W6G3+575, Jl. Raya Air Sanih, Kubutambahan, Kec. Kubutambahan, Kabupaten Buleleng, Bali 81172","Jl. Raya Air Sanih, Kubutambahan, Kec. Kubutambahan, Kabupaten Buleleng",BALI,81172.0,Indonesia,,,,-80.745.057,1.152.030.806,https://maps.google.com/?cid=0x0:0x1776438acc3fd1fa,
perumahan,Pembangunan Perumahan,Hudaya Home,"V5GQ+5QW, Bila, Kec. Kubutambahan, Kabupaten Buleleng, Bali 81172","Bila, Kec. Kubutambahan, Kabupaten Buleleng",BALI,81172.0,Indonesia,,,,-81.244.811,1.151.894.592,https://maps.google.com/?cid=0x0:0xf8f157450d61c700,
perumahan,Gedung Apartemen,Beliggiding Indah,"V6H9+6FM, Depeha, Kec. Kubutambahan, Kabupaten Buleleng, Bali 81172","Depeha, Kec. Kubutambahan, Kabupaten Buleleng",BALI,81172.0,Indonesia,,,,-8.122.311,1.152.180.564,https://maps.google.com/?cid=0x0:0xde857ddf3e211e1d,
perumahan,Komplek perumahan,Jero Bila,"V5HQ+2G6, Jl. Gn. Batur, Bila, Kec. Kubutambahan, Kabupaten Buleleng, Bali 81172","Jl. Gn. Batur, Bila, Kec. Kubutambahan, Kabupaten Buleleng",BALI,81172.0,Indonesia,,,,-81.224.664,115.188.766,https://maps.google.com/?cid=0x0:0xcdc962cbb8f9e9fb,
perumahan,Komplek perumahan,Damuh kumpi jempiring,"W635+9X7, Bulian, Kec. Kubutambahan, Kabupaten Buleleng, Bali 81172","Bulian, Kec. Kubutambahan, Kabupaten Buleleng",BALI,81172.0,Indonesia,,,,-80.965.965,1.152.099.347,https://maps.google.com/?cid=0x0:0xd16f701426345d39,
perumahan,Komplek perumahan,Rumah wayan mugi darma,"V5MV+5CF, Bila, Kec. Kubutambahan, Kabupaten Buleleng, Bali 81172","Bila, Kec. Kubutambahan, Kabupaten Buleleng",BALI,81172.0,Indonesia,,,,-8.117.392,115.193.967,https://maps.google.com/?cid=0x0:0xa9306d0a8d580032,
perumahan,Rumah Kayu,Pondok Putra Ceregah,"Jalan mangku Par, Banjar seganti, Depeha, Kec. Kubutambahan, Kabupaten Buleleng, Bali 81172","Banjar seganti, Depeha, Kec. Kubutambahan, Kabupaten Buleleng",BALI,81172.0,Indonesia,,,,-81.157.483,1.152.316.928,https://maps.google.com/?cid=0x0:0x9bc94076a40260fd,
perumahan,Komplek perumahan,Perumahan Anugraha Tama Bulian,"V5XR+GQX, Bulian, Kec. Kubutambahan, Kabupaten Buleleng, Bali 81172","Bulian, Kec. Kubutambahan, Kabupaten Buleleng",BALI,81172.0,Indonesia,,,,-81.011.415,1.151.919.749,https://maps.google.com/?cid=0x0:0xdd27eb52f7160169,
perumahan,Komplek perumahan,Gubuk Ku Tibu Goa,"V5WX+HC, Bulian, Kec. Kubutambahan, Kabupaten Buleleng, Bali 81172","Bulian, Kec. Kubutambahan, Kabupaten Buleleng",BALI,81172.0,Indonesia,,,,-81.035.562,1.151.986.408,https://maps.google.com/?cid=0x0:0xb5f3c7df87acf7a5,
perumahan,Komplek perumahan,Desa kubutambahan,"W6C5+WVV, Kubutambahan, Kec. Kubutambahan, Kabupaten Buleleng, Bali 81172","Kubutambahan, Kec. Kubutambahan, Kabupaten Buleleng",BALI,81172.0,Indonesia,,,,-80.776.327,1.152.096.565,https://maps.google.com/?cid=0x0:0x781b0621794185a3,
perumahan,perumahan,Sawan,"Menyali, Kec. Sawan, Kabupaten Buleleng, Bali","Kabupaten Buleleng, Bali",BALI,,Indonesia,,,,-813.291,115.172.699,https://maps.google.com/?cid=0x0:0xd196fde2291fdb0e,
perumahan,Kantor Perusahaan,Perumahan Bali erfina,"Bungkulan, Kec. Sawan, Kabupaten Buleleng, Bali 81171","Kec. Sawan, Kabupaten Buleleng",BALI,81171.0,Indonesia,,,,-80.830.386,115.147.868,https://maps.google.com/?cid=0x0:0xb8ef9fbe028023fe,
perumahan,Komplek perumahan,G.g Banjar Biji,"V59C+4M6, Menyali, Kec. Sawan, Kabupaten Buleleng, Bali 81171","Menyali, Kec. Sawan, Kabupaten Buleleng",BALI,81171.0,Indonesia,,,,-81.322.244,1.151.716.512,https://maps.google.com/?cid=0x0:0xc213bd8547f6f2fb,
perumahan,Komplek perumahan,Umah ne Pakmang,"V59C+3R3, Menyali, Kec. Sawan, Kabupaten Buleleng, Bali 81171","Menyali, Kec. Sawan, Kabupaten Buleleng",BALI,81171.0,Indonesia,,,,-81.323.739,1.151.720.461,https://maps.google.com/?cid=0x0:0x74d5568e7d0af705,
perumahan,Komplek perumahan,Grha Uttara,"V59F+25H, Desa Tegal, Menyali, Kec. Sawan, Kabupaten Buleleng, Bali 81171","Desa Tegal, Menyali, Kec. Sawan, Kabupaten Buleleng",BALI,81171.0,Indonesia,,,,-813.243,115.172.995,https://maps.google.com/?cid=0x0:0x5de7b421cdba650a,
perumahan,Pembangunan Perumahan,Pancanaka Bali Erfina,"W48X+C3Q, Jl. Raya Jagaraga, Bungkulan, Kec. Sawan, Kabupaten Buleleng, Bali 81171","Jl. Raya Jagaraga, Bungkulan, Kec. Sawan, Kabupaten Buleleng",BALI,81171.0,Indonesia,3623435999,,,-80.839.094,1.151.477.374,https://maps.google.com/?cid=0x0:0xa25fff799d3526ae,
perumahan,Pondok,"Villa Bingin,kubuanyar,Menyali,Buleleng bali","V59F+6F8, Sawan, Kec. Sawan, Kabupaten Buleleng, Bali 81171","Sawan, Kec. Sawan, Kabupaten Buleleng",BALI,81171.0,Indonesia,,,,-81.319.537,1.151.737.035,https://maps.google.com/?cid=0x0:0x2b1f8121d32c23c4,
perumahan,Komplek perumahan,BALI SERPONG RESIDENCE Cluster,"Jl. H. Jamat Gg. Rais, Buaran, Kec. Serpong, Kota Tangerang Selatan, Banten 15310","Buaran, Kec. Serpong, Kota Tangerang Selatan",BALI,15310.0,Indonesia,,,,-63.438.179,1.067.069.495,https://maps.google.com/?cid=0x0:0x40f09c9fcfc1f4e8,
perumahan,Komplek perumahan,E-Lagoon Townhouse,"Jl. Bukit Indah, Serua Indah, Kec. Ciputat, Kota Tangerang Selatan, Banten 15414","Serua Indah, Kec. Ciputat, Kota Tangerang Selatan",BALI,15414.0,Indonesia,,,,-63.172.689,106.722.123,https://maps.google.com/?cid=0x0:0x5feff6b111a39797,
perumahan,Taman,Made Sawan,"V55C+8G9, Sawan, Kec. Sawan, Kabupaten Buleleng, Bali 81171","Sawan, Kec. Sawan, Kabupaten Buleleng",BALI,81171.0,Indonesia,,,,-81.417.028,1.151.713.589,https://maps.google.com/?cid=0x0:0x45400ea1bb3c1fbd,
perumahan,perumahan,Bali 81171,"Kabupaten Buleleng, Bali","Kabupaten Buleleng, Bali",BALI,,Indonesia,,,,-81.587.483,1.151.770.586,https://maps.google.com/?cid=0x0:0x1c00c5eb6016c1a0,
perumahan,Komplek perumahan,Geria Sawan Kemenuh,"V55F+FJ5 Banjar, Dusun Brahmana, Sawan, Buleleng Regency, Bali","Kabupaten Buleleng, Bali",BALI,,Indonesia,81236501173,,,-81.413.686,1.151.740.942,https://maps.google.com/?cid=0x0:0x3cea4713279c9371,
perumahan,Perhimpunan Pengembang Perumahan,Puri Batan Sabo,"V52P+3V2, Bebetin, Kec. Sawan, Kabupaten Buleleng, Bali 81171","Bebetin, Kec. Sawan, Kabupaten Buleleng",BALI,81171.0,Indonesia,87860706888,,,-81.498.719,1.151.871.323,https://maps.google.com/?cid=0x0:0x74385fc4111d7874,
perumahan,Komplek perumahan,Rumah Guru Budi,"R5RG+6RP, Bebetin, Kec. Sawan, Kabupaten Buleleng, Bali 81171","Bebetin, Kec. Sawan, Kabupaten Buleleng",BALI,81171.0,Indonesia,,,,-81.602.056,1.151.759.724,https://maps.google.com/?cid=0x0:0xa200a95cd6ca5076,
perumahan,Komplek perumahan,Rumah purnami,"R5QV+W6J, Jl. Lebah, Sekumpul, Kec. Sawan, Kabupaten Buleleng, Bali 81171","Jl. Lebah, Sekumpul, Kec. Sawan, Kabupaten Buleleng",BALI,81171.0,Indonesia,,,,-81.600.022,1.151.921.785,https://maps.google.com/?cid=0x0:0x548d6b4eac53cd1a,
perumahan,Pembangunan Perumahan,Surya,"R5QH+HFV, Sudaji, Kec. Sawan, Kabupaten Buleleng, Bali 81171","Sudaji, Kec. Sawan, Kabupaten Buleleng",BALI,81171.0,Indonesia,,,,-8.161.017,1.151.786.686,https://maps.google.com/?cid=0x0:0x88c70a55b630ec5d,
perumahan,Komplek perumahan,Rumah pan kembar dauh tukad sawan,"V55C+F42, Sawan, Kec. Sawan, Kabupaten Buleleng, Bali 81171","Sawan, Kec. Sawan, Kabupaten Buleleng",BALI,81171.0,Indonesia,,,,-81.413.605,1.151.702.559,https://maps.google.com/?cid=0x0:0x71a6ff372b614c27,
perumahan,Pembangunan Perumahan,Risa's home,"V54G+W9M, Sawan, Kec. Sawan, Kabupaten Buleleng, Bali 81171","Sawan, Kec. Sawan, Kabupaten Buleleng",BALI,81171.0,Indonesia,,,,-8.142.659,1.151.759.149,https://maps.google.com/?cid=0x0:0xee46b3dcb90ba49,
perumahan,Pembangunan Perumahan,Asta's House,"Unnamed Road, Suwug, Kec. Sawan, Kabupaten Buleleng, Bali 81171","Suwug, Kec. Sawan, Kabupaten Buleleng",BALI,81171.0,Indonesia,,,,-81.231.492,1.151.595.603,https://maps.google.com/?cid=0x0:0x333238068765748b,
perumahan,Pembangunan Perumahan,I Cening Merta,"R5QG+5G9, Sudaji, Kec. Sawan, Kabupaten Buleleng, Bali 81171","Sudaji, Kec. Sawan, Kabupaten Buleleng",BALI,81171.0,Indonesia,,,,-81.620.765,1.151.763.494,https://maps.google.com/?cid=0x0:0x915ca2821decf328,
perumahan,Komplek perumahan,Rumah Putu Toya,"R5XM+3C8, Bebetin, Kec. Sawan, Kabupaten Buleleng, Bali 81171","Bebetin, Kec. Sawan, Kabupaten Buleleng",BALI,81171.0,Indonesia,,,,-81.523.304,1.151.835.808,https://maps.google.com/?cid=0x0:0x702c55310c8754,
perumahan,Komplek perumahan,Rumah arik kabol,"V55H+5XR Banjar dinas brahmana, Sawan, Kec. Sawan, Kabupaten Buleleng, Bali 81171","Sawan, Kec. Sawan, Kabupaten Buleleng",BALI,81171.0,Indonesia,,,,-81.420.127,1.151.798.884,https://maps.google.com/?cid=0x0:0x1f628861c504d0e4,
perumahan,Komplek perumahan,Dek mas,"Q5WM+WXQ, Lemukih, Kec. Sawan, Kabupaten Buleleng, Bali 81171","Lemukih, Kec. Sawan, Kabupaten Buleleng",BALI,81171.0,Indonesia,,,,-82.026.197,1.151.850.473,https://maps.google.com/?cid=0x0:0xe59e3589230b85e4,
perumahan,Komplek perumahan,Rumah Arista Bp,"R52M+4RG, Jl. bajar nangka, Lemukih, Kec. Sawan, Kabupaten Buleleng, Bali 81171","Jl. bajar nangka, Lemukih, Kec. Sawan, Kabupaten Buleleng",BALI,81171.0,Indonesia,,,,-8.199.634,1.151.846.253,https://maps.google.com/?cid=0x0:0xa1a5ed20456a4e26,
perumahan,Perhimpunan Pengembang Perumahan,Batan Wani,"R5M7+94, Sudaji, Kec. Sawan, Kabupaten Buleleng, Bali","Kabupaten Buleleng, Bali",BALI,,Indonesia,,,,-81.665.581,1.151.628.029,https://maps.google.com/?cid=0x0:0x5d759ad3704a60bb,
perumahan,Komplek perumahan,Rumah irwan,"V5Q7+3JF, Jagaraga, Kec. Sawan, Kabupaten Buleleng, Bali 81171","Jagaraga, Kec. Sawan, Kabupaten Buleleng",BALI,81171.0,Indonesia,,,,-811.231,1.151.640.326,https://maps.google.com/?cid=0x0:0x5bbafe071a95349f,
perumahan,Perhimpunan Pengembang Perumahan,Rumah Fdhl,"V57G+RXW, Sawan, Kec. Sawan, Kabupaten Buleleng, Bali 81171","Sawan, Kec. Sawan, Kabupaten Buleleng",BALI,81171.0,Indonesia,82339338226,,,-81.353.183,1.151.774.367,https://maps.google.com/?cid=0x0:0x92dbb7c27524427d,
perumahan,,Sangkumpi Crew,"Sudaji, Kec. Sawan, Kabupaten Buleleng, Bali 81171","Kec. Sawan, Kabupaten Buleleng",BALI,81171.0,Indonesia,,,,-81.531.744,1.151.647.467,https://maps.google.com/?cid=0x0:0x41549ab71a24fc7b,
perumahan,Komplek perumahan,A+D Wedding Location,"R59W+7R9, Galungan, Kec. Sawan, Kabupaten Buleleng, Bali 81171","Galungan, Kec. Sawan, Kabupaten Buleleng",BALI,81171.0,Indonesia,,,,-81.820.231,1.151.957.345,https://maps.google.com/?cid=0x0:0xb9f1b4cd40f650bf,
perumahan,perumahan,Bali 81153,"Kec. Seririt, Kabupaten Buleleng, Bali","Kabupaten Buleleng, Bali",BALI,,Indonesia,,,,-82.363.132,114.916.088,https://maps.google.com/?cid=0x0:0x1c00c5eb6016c160,
perumahan,Komplek perumahan,Perumahan Griya Intaran Indah,"RW36+GJW, Umeanyar, Kec. Seririt, Kabupaten Buleleng, Bali 81153","Umeanyar, Kec. Seririt, Kabupaten Buleleng",BALI,81153.0,Indonesia,,,,-8.195.665,1.149.109.133,https://maps.google.com/?cid=0x0:0xdb79764a72622cb,
perumahan,Pembangunan Perumahan,PERUMAHAN GRIA ADI 1,"QWVQ+HC3, Bubunan, Kec. Seririt, Kabupaten Buleleng, Bali 81153","Bubunan, Kec. Seririt, Kabupaten Buleleng",BALI,81153.0,Indonesia,,,,-82.061.009,1.149.385.318,https://maps.google.com/?cid=0x0:0x381f0ea11f401048,
perumahan,Pembangunan Perumahan,Perumahan Talang Permai,"QVRP+8X, Banjar Asem, Kec. Seririt, Kabupaten Buleleng, Bali 81153","Banjar Asem, Kec. Seririt, Kabupaten Buleleng",BALI,81153.0,Indonesia,"8,87433E+11",,,-82.091.666,1.148.875.511,https://maps.google.com/?cid=0x0:0x59414ff066f72d42,
perumahan,Komplek perumahan,Graha Surya Residence Seririt,"RW5Q+9HX, Jl. Wisnu, Seririt, Kec. Seririt, Kabupaten Buleleng, Bali 81153","Jl. Wisnu, Seririt, Kec. Seririt, Kabupaten Buleleng",BALI,81153.0,Indonesia,85237243857,,,-81.915.246,1.149.389.958,https://maps.google.com/?cid=0x0:0x56f7d3659a6c1092,
perumahan,Komplek perumahan,Kompleks perumahan,"QWHC+MRC, Lokapaksa, Kec. Seririt, Kabupaten Buleleng, Bali 81153","Lokapaksa, Kec. Seririt, Kabupaten Buleleng",BALI,81153.0,Indonesia,,,,-82.208.141,1.149.220.214,https://maps.google.com/?cid=0x0:0xc1560cb920b3b941,
perumahan,Pembangunan Perumahan,Banjar dinas apit yeh desa Patemon kecamatan Seririt kabupaten Buleleng,"RW2J+92F Banjar dinas, Jl. Apit Yeh, Patemon, Kec. Seririt, Kabupaten Buleleng, Bali 81153","Jl. Apit Yeh, Patemon, Kec. Seririt, Kabupaten Buleleng",BALI,81153.0,Indonesia,,,,-82.008.823,1.149.273.779,https://maps.google.com/?cid=0x0:0x436732c6912183e6,
perumahan,Penginapan,near homestay,"QWRQ+5JC, Jl. Pemuda, Bubunan, Kec. Seririt, Kabupaten Buleleng, Bali 81153","Jl. Pemuda, Bubunan, Kec. Seririt, Kabupaten Buleleng",BALI,81153.0,Indonesia,,,,-82.095.591,1.149.390.004,https://maps.google.com/?cid=0x0:0xab80700bfaa57b64,
perumahan,Pembangunan Perumahan,Perumahan satya pemaroan asri,"QWPM+PVM, Jl. Ringdikit, Patemon, Kec. Seririt, Kabupaten Buleleng, Bali 81153","Jl. Ringdikit, Patemon, Kec. Seririt, Kabupaten Buleleng",BALI,81153.0,Indonesia,,,,-82.131.615,1.149.346.679,https://maps.google.com/?cid=0x0:0xcd5f7c622e417141,
perumahan,Perumahan,Rumah ketut subawa,"QW76+QWM, Dusun sorga mekar, Lokapaksa, Kec. Seririt, Kabupaten Buleleng, Bali 81153","Dusun sorga mekar, Lokapaksa, Kec. Seririt, Kabupaten Buleleng",BALI,81153.0,Indonesia,,,,-82.355.403,1.149.123.033,https://maps.google.com/?cid=0x0:0xf513236eeb9e929d,
perumahan,Pembangunan Perumahan,Perumahan griya adi 2 bubunan,"RW2Q+FQV, Perumahan griya adi 2, Bubunan, Kec. Seririt, Kabupaten Buleleng, Bali 81153","Perumahan griya adi 2, Bubunan, Kec. Seririt, Kabupaten Buleleng",BALI,81153.0,Indonesia,,,,-81.987.614,1.149.394.366,https://maps.google.com/?cid=0x0:0x52a95d389f416636,
perumahan,Vila,Rumah Gede Gargita,"QVHW+XV, Pangkungparuk, Kec. Seririt, Kabupaten Buleleng, Bali","Kabupaten Buleleng, Bali",BALI,,Indonesia,83193991413,,,-82.200.069,1.148.971.342,https://maps.google.com/?cid=0x0:0xbd92b66e25158d98,
perumahan,Komplek perumahan,Rumah tude,"QW7M+MGQ, Ularan, Kec. Seririt, Kabupaten Buleleng, Bali 81153","Ularan, Kec. Seririt, Kabupaten Buleleng",BALI,81153.0,Indonesia,,,,-82.357.403,1.149.338.852,https://maps.google.com/?cid=0x0:0x7c21acd4ed012f11,
perumahan,Komplek perumahan,Rumah Anom,"QWG8+MM5, Jl. Labak timbul, Lokapaksa, Kec. Seririt, Kabupaten Buleleng, Bali 81153","Jl. Labak timbul, Lokapaksa, Kec. Seririt, Kabupaten Buleleng",BALI,81153.0,Indonesia,,,,-82.233.743,1.149.167.391,https://maps.google.com/?cid=0x0:0x51b72280a9c28820,
perumahan,Komplek perumahan,Rumah Kadek yudiarta,"QW77+47J, Jalan, Lokapaksa, Seririt, Buleleng Regency, Bali","Kabupaten Buleleng, Bali",BALI,,Indonesia,87860336828,,,-82.371.639,1.149.131.523,https://maps.google.com/?cid=0x0:0xabd55ffb58f6c386,
perumahan,Komplek perumahan,Perumahan Anakan sari,"RW42+6G2, Banjar Asem, Kec. Seririt, Kabupaten Buleleng, Bali 81153","Banjar Asem, Kec. Seririt, Kabupaten Buleleng",BALI,81153.0,Indonesia,,,,-81.944.849,114.901.254,https://maps.google.com/?cid=0x0:0x45ee9783c7284319,
perumahan,Komplek perumahan,Perumahan,"PWXJ+PR8, Unggahan, Kec. Seririt, Kabupaten Buleleng, Bali","Kabupaten Buleleng, Bali",BALI,,Indonesia,,,,-82.507.153,1.149.320.754,https://maps.google.com/?cid=0x0:0x79aafd062b28c7d5,
perumahan,Komplek perumahan,Rumah azizco,"RW4P+2GH, Seririt, Kec. Seririt, Kabupaten Buleleng, Bali 81153","Seririt, Kec. Seririt, Kabupaten Buleleng",BALI,81153.0,Indonesia,,,,-81.949.392,1.149.363.564,https://maps.google.com/?cid=0x0:0x9f5112dbffdd2b81,
perumahan,Perumahan,LUH WIDIARTINI,"QWF9+XGV dinas sorge, Desa lokapaksa, Banjar, Lokapaksa, Kec. Seririt, Kabupaten Buleleng, Bali 81153","Desa lokapaksa, Banjar, Lokapaksa, Kec. Seririt, Kabupaten Buleleng",BALI,81153.0,Indonesia,88703377369,,,-82.250.229,1.149.187.882,https://maps.google.com/?cid=0x0:0x11448a112031e67a,
perumahan,Komplek perumahan,Nyoman Supartika1,"QV5W+46Q, Unnamed Road, Pangkungparuk, Kec. Seririt, Kabupaten Buleleng, Bali 81153","Unnamed Road, Pangkungparuk, Kec. Seririt, Kabupaten Buleleng",BALI,81153.0,Indonesia,85238906339,,,-82.421.607,1.148.956.207,https://maps.google.com/?cid=0x0:0x68f509eaa098c127,
perumahan,Komplek perumahan,Rumah Pusaka RIMUDA,"QX72+HHG, Jl. Seririt-Pupuan, Rangdu, Kec. Seririt, Kabupaten Buleleng, Bali 81153","Jl. Seririt-Pupuan, Rangdu, Kec. Seririt, Kabupaten Buleleng",BALI,81153.0,Indonesia,,,,-82.360.507,1.149.514.493,https://maps.google.com/?cid=0x0:0xa5e931bb9d83cfd6,
perumahan,Komplek perumahan,RUMAH IBU LUH MUSTARI,"QWXH+JVM, DUSUN UMA, Patemon, Kec. Seririt, Kabupaten Buleleng, Bali 81153","DUSUN UMA, Patemon, Kec. Seririt, Kabupaten Buleleng",BALI,81153.0,Indonesia,,,,-82.009.224,1.149.296.649,https://maps.google.com/?cid=0x0:0xb7378fc0d06c2e16,
perumahan,Komplek perumahan,Rumah Keluarga Dalem Sukawati,"QWWP+J9X, Jl. Pemuda, Bubunan, Kec. Seririt, Kabupaten Buleleng, Bali 81153","Jl. Pemuda, Bubunan, Kec. Seririt, Kabupaten Buleleng",BALI,81153.0,Indonesia,,,,-8.203.155,1.149.359,https://maps.google.com/?cid=0x0:0x6ccb5575b068087,
perumahan,Perumahan,PERUM BABAKAN HILL,"QWRC+RF8, Lokapaksa, Kec. Seririt, Kabupaten Buleleng, Bali 81153","Lokapaksa, Kec. Seririt, Kabupaten Buleleng",BALI,81153.0,Indonesia,,,,-82.079.595,1.149.212.157,https://maps.google.com/?cid=0x0:0x64cec7328482f0fd,
perumahan,Pertanian,dekputra sorga,"QWC9+49G, Lokapaksa, Kec. Seririt, Kabupaten Buleleng, Bali 81153","Lokapaksa, Kec. Seririt, Kabupaten Buleleng",BALI,81153.0,Indonesia,,,,-82.296.929,1.149.184.516,https://maps.google.com/?cid=0x0:0xb8b31bb8124b06a8,
perumahan,Komplek perumahan,Perumahan Gang Lestari Desa Ringdikit Sebelah UD. Mutiara,"QWFV+M96, Ringdikit, Kec. Seririt, Kabupaten Buleleng, Bali 81153","Ringdikit, Kec. Seririt, Kabupaten Buleleng",BALI,81153.0,Indonesia,,,,-82.258.264,1.149.434.011,https://maps.google.com/?cid=0x0:0x2ef7bb20636e93c8,
perumahan,perumahan,Bali 81161,"Kec. Sukasada, Kabupaten Buleleng, Bali","Kabupaten Buleleng, Bali",BALI,,Indonesia,,,,-81.928.129,1.151.177.654,https://maps.google.com/?cid=0x0:0x1c00c5eb6016c190,
perumahan,Pembangunan Perumahan,Perumahan Puri Sukasada,"Jl. Jelantik Gingsir No.27, Sukasada, Kec. Sukasada, Kabupaten Buleleng, Bali 81161","Sukasada, Kec. Sukasada, Kabupaten Buleleng",BALI,81161.0,Indonesia,,,,-81.376.556,1.151.003.889,https://maps.google.com/?cid=0x0:0xe099e8dbdfdfbe54,
perumahan,Perumahan,Perumahan Cahaya Residence Sambangan,"Gg. Cahaya, Sambangan, Kec. Sukasada, Kabupaten Buleleng, Bali 81161","Sambangan, Kec. Sukasada, Kabupaten Buleleng",BALI,81161.0,Indonesia,82147253119,,,-81.468.253,1.150.970.448,https://maps.google.com/?cid=0x0:0x216fd165987e354b,
perumahan,Komplek perumahan,Perumahan Sukasada Harmony Residence,"V434+478, Jl. Jelantik Gingsir, Sukasada, Kec. Sukasada, Kabupaten Buleleng, Bali 81161","Jl. Jelantik Gingsir, Sukasada, Kec. Sukasada, Kabupaten Buleleng",BALI,81161.0,Indonesia,81338662299,,,-81.472.228,1.151.057.037,https://maps.google.com/?cid=0x0:0x1c3e6815c71ecaa9,
perumahan,Komplek perumahan,Rumah Lk,"V32P+WC6, Jl. Nakula, Panji, Kec. Sukasada, Kabupaten Buleleng, Bali 81161","Jl. Nakula, Panji, Kec. Sukasada, Kabupaten Buleleng",BALI,81161.0,Indonesia,,,,-81.477.114,1.150.860.125,https://maps.google.com/?cid=0x0:0x9131b569cab81470,
perumahan,Komplek perumahan,Perumahan Taman Asri,"Perumahan taman asri, Panji, Kec. Sukasada, Kabupaten Buleleng, Bali 81161","Panji, Kec. Sukasada, Kabupaten Buleleng",BALI,81161.0,Indonesia,81338506766,,,-8.149.653,1.150.894.462,https://maps.google.com/?cid=0x0:0xb397fb0e5a90d39b,
perumahan,Komplek perumahan,PERUMAHAN SUNARI 2,"V33P+XQF, Panji, Kec. Sukasada, Kabupaten Buleleng, Bali 81161","Panji, Kec. Sukasada, Kabupaten Buleleng",BALI,81161.0,Indonesia,,,,-81.450.745,1.150.869.342,https://maps.google.com/?cid=0x0:0xc87c53637fbd7db7,
perumahan,Kompleks Kondominium,Perumahan Geriya Adi Sangket,"V435+3RC Perumahan Geriya Adi Sangket, Jl. Sangket - Sukasada, Sambangan, Kec. Sukasada, Kabupaten Buleleng, Bali 81161","Jl. Sangket - Sukasada, Sambangan, Kec. Sukasada, Kabupaten Buleleng",BALI,81161.0,Indonesia,,,,-81.473.011,1.151.095.149,https://maps.google.com/?cid=0x0:0x110a7a7fa68e60de,
perumahan,Perumahan,"Puri Mas Taman Kerti, blok D/1 Desa Panji","R3XR+XPW, Panji, Kec. Sukasada, Kabupaten Buleleng, Bali 81161","Panji, Kec. Sukasada, Kabupaten Buleleng",BALI,81161.0,Indonesia,,,,-81.497.751,1.150.914.541,https://maps.google.com/?cid=0x0:0xf8ddd6199b257377,
perumahan,Komplek perumahan,Perumahan Baruna Sangket,"R4W6+P9Q, Unnamed Road, Sukasada, Kec. Sukasada, Kabupaten Buleleng, Bali 81161","Unnamed Road, Sukasada, Kec. Sukasada, Kabupaten Buleleng",BALI,81161.0,Indonesia,,,,-81.531.581,1.151.109.844,https://maps.google.com/?cid=0x0:0xf48335f18b43765c,
perumahan,Gedung Apartemen,weda's lounge,"R4V4+XW6, Jl. Sangket - Sukasada, Sambangan, Kec. Sukasada, Kabupaten Buleleng, Bali 81161","Jl. Sangket - Sukasada, Sambangan, Kec. Sukasada, Kabupaten Buleleng",BALI,81161.0,Indonesia,85857717472,,,-81.550.832,1.151.072.564,https://maps.google.com/?cid=0x0:0x8917b0f0737212c0,
perumahan,Perhimpunan Pengembang Perumahan,rumah mr.janu,"R4W4+3X6, Jl. Pratu Subrata, Sukasada, Kec. Sukasada, Kabupaten Buleleng, Bali 81161","Jl. Pratu Subrata, Sukasada, Kec. Sukasada, Kabupaten Buleleng",BALI,81161.0,Indonesia,,,,-81.548.318,1.151.073.932,https://maps.google.com/?cid=0x0:0xef5b9e65198bd62b,
perumahan,Komplek perumahan,Rumah JM I GEDE REBES,"R4QH+RCG, Padangbulia, Kec. Sukasada, Kabupaten Buleleng, Bali 81161","Padangbulia, Kec. Sukasada, Kabupaten Buleleng",BALI,81161.0,Indonesia,,,,-81.609.451,1.151.272.703,https://maps.google.com/?cid=0x0:0xd8f7a7d8619a051c,
perumahan,Pembangunan Perumahan,Puri Anyar Sukasada,"V462+RR6, Sukasada, Kec. Sukasada, Kabupaten Buleleng, Bali 81161","Sukasada, Kec. Sukasada, Kabupaten Buleleng",BALI,81161.0,Indonesia,,,,-81.379.613,1.151.020.112,https://maps.google.com/?cid=0x0:0xb2f6e13400bf75a4,
perumahan,Kompleks Apartemen,Perumahan Lumbung Padi permai,"R4W4+P4R, Jl. Jelantik Gingsir, Sukasada, Kec. Sukasada, Kabupaten Buleleng, Bali 81161","Jl. Jelantik Gingsir, Sukasada, Kec. Sukasada, Kabupaten Buleleng",BALI,81161.0,Indonesia,36225056,,,-81.531.393,1.151.052.773,https://maps.google.com/?cid=0x0:0x115a6a7ad85de1d6,
perumahan,Komplek perumahan,rumah arya,"R4CG+RFF, Ambengan, Kec. Sukasada, Kabupaten Buleleng, Bali 81161","Ambengan, Kec. Sukasada, Kabupaten Buleleng",BALI,81161.0,Indonesia,,,,-81.779.357,1.151.261.706,https://maps.google.com/?cid=0x0:0x6aad7c13ba25d6c9,
perumahan,Otoritas Perumahan,Perumahan Singaraja Umah Melah Panji II,"V35H+WHW, Dusun Babakan, Panji, Kec. Sukasada, Kabupaten Buleleng, Bali 81161","Dusun Babakan, Panji, Kec. Sukasada, Kabupaten Buleleng",BALI,81161.0,Indonesia,,,,-8.140.148,1.150.789.569,https://maps.google.com/?cid=0x0:0xd6b2bb744a19494f,
perumahan,Komplek perumahan,Rumah kajeng febriyani,"R3WQ+RCC, Panji, Kec. Sukasada, Kabupaten Buleleng, Bali 81161","Panji, Kec. Sukasada, Kabupaten Buleleng",BALI,81161.0,Indonesia,,,,-81.529.279,1.150.885.247,https://maps.google.com/?cid=0x0:0x12093f116add0e5a,
perumahan,Komplek perumahan,MUNGILNATION,"Jl. Jelantik Gingsir No.48, Sukasada, Kec. Sukasada, Kabupaten Buleleng, Bali 81161","Sukasada, Kec. Sukasada, Kabupaten Buleleng",BALI,81161.0,Indonesia,,,,-81.378.817,1.151.007.986,https://maps.google.com/?cid=0x0:0xa79862343d5b5bed,
perumahan,Komplek perumahan,Rumah Ketut Suarsa,"200 meter sebelahTimur LPD desa Adat, Dusun Jl. Raya Pumahan No.200, Jl. Raya Pumahan, Gitgit, Kec. Sukasada, Kabupaten Buleleng, Bali 81161","Dusun Jl. Raya Pumahan No.200, Jl. Raya Pumahan, Gitgit, Kec. Sukasada, Kabupaten Buleleng",BALI,81161.0,Indonesia,,,,-81.779.191,1.151.331.517,https://maps.google.com/?cid=0x0:0xb29112898a672810,
perumahan,Komplek perumahan,Nadyah Residence,"V34X+7C2, Gg. Nyuh Gading, Sambangan, Kec. Sukasada, Kabupaten Buleleng, Bali 81161","Gg. Nyuh Gading, Sambangan, Kec. Sukasada, Kabupaten Buleleng",BALI,81161.0,Indonesia,8873025689,,,-81.443.703,1.150.985.217,https://maps.google.com/?cid=0x0:0xc5bdcdb7f1ace386,
perumahan,Vila,Ferdy House,"R4X3+XMQ, Sukasada, Kec. Sukasada, Kabupaten Buleleng, Bali 81161","Sukasada, Kec. Sukasada, Kabupaten Buleleng",BALI,81161.0,Indonesia,,,,-81.496.457,1.151.031.844,https://maps.google.com/?cid=0x0:0x9f0cd2a919d5ede3,
perumahan,Komplek perumahan,Rumah Yiyi,"R4HP+4CH, Pegayaman, Kec. Sukasada, Kabupaten Buleleng, Bali 81161","Pegayaman, Kec. Sukasada, Kabupaten Buleleng",BALI,81161.0,Indonesia,,,,-81.721.285,1.151.360.979,https://maps.google.com/?cid=0x0:0x3ed3ab65a5492f16,
perumahan,Komplek perumahan,Silayasa D'Kubu,"Q4QJ+4R, Wanagiri, Kec. Sukasada, Kabupaten Buleleng, Bali 81161","Wanagiri, Kec. Sukasada, Kabupaten Buleleng",BALI,81161.0,Indonesia,,,,-82.121.895,1.151.318.529,https://maps.google.com/?cid=0x0:0xefbb23153677323,
perumahan,Pembangunan Perumahan,Gede sangging,"Jl. Raya Tumanggal, Ambengan, Kec. Sukasada, Kabupaten Buleleng, Bali 81161","Ambengan, Kec. Sukasada, Kabupaten Buleleng",BALI,81161.0,Indonesia,87715842385,,,-8.170.476,11.511.967,https://maps.google.com/?cid=0x0:0x258a33ded51194f3,
perumahan,Komplek perumahan,Rumah Pak Muhram Tha'if,"R3JJ+JRW, Tegal Linggah, Kec. Sukasada, Kabupaten Buleleng, Bali 81161","Tegal Linggah, Kec. Sukasada, Kabupaten Buleleng",BALI,81161.0,Indonesia,,,,-8.168.444,1.150.821.128,https://maps.google.com/?cid=0x0:0xa6bb12fd0a506f00,
perumahan,Komplek perumahan,Yuli R,"R4CF+359, Ambengan, Kec. Sukasada, Kabupaten Buleleng, Bali 81161","Ambengan, Kec. Sukasada, Kabupaten Buleleng",BALI,81161.0,Indonesia,,,,-81.803.088,115.122.622,https://maps.google.com/?cid=0x0:0xa95645a34a500456,
perumahan,Perhimpunan Pengembang Perumahan,Rumah Ajik jana,"R46C+4G, Ambengan, Kec. Sukasada, Kabupaten Buleleng, Bali 81161","Ambengan, Kec. Sukasada, Kabupaten Buleleng",BALI,81161.0,Indonesia,,,,-81.896.879,1.151.212.974,https://maps.google.com/?cid=0x0:0x9cb347238ea06f37,
perumahan,Perhimpunan Pengembang Perumahan,Home Dendi,"R42R+F3, Gitgit, Kec. Sukasada, Kabupaten Buleleng, Bali 81161","Gitgit, Kec. Sukasada, Kabupaten Buleleng",BALI,81161.0,Indonesia,,,,-81.986.795,1.151.397.386,https://maps.google.com/?cid=0x0:0x8ccadf23ccc68910,
perumahan,perumahan,Bali 81173,"Kec. Tejakula, Kabupaten Buleleng, Bali","Kabupaten Buleleng, Bali",BALI,,Indonesia,,,,-81.308.355,1.152.956.118,https://maps.google.com/?cid=0x0:0x1c00c5eb6016c1c0,
perumahan,Pembangunan Perumahan,Perumahan Tejakula,"V984+VQC, Jl. Raya Singaraja - Amlapura, Tejakula, Kec. Tejakula, Kabupaten Buleleng, Bali 81173","Jl. Raya Singaraja - Amlapura, Tejakula, Kec. Tejakula, Kabupaten Buleleng",BALI,81173.0,Indonesia,,,,-81.313.827,1.153.580.939,https://maps.google.com/?cid=0x0:0xa28d816b64139b34,
perumahan,Komplek perumahan,Perumahan Pesona utama tejakula 2,"V8GH+3GJ, Jl. Tejakula - Satra, Bondalem, Kec. Tejakula, Kabupaten Buleleng, Bali 81173","Jl. Tejakula - Satra, Bondalem, Kec. Tejakula, Kabupaten Buleleng",BALI,81173.0,Indonesia,,,,-81.249.789,1.153.289.376,https://maps.google.com/?cid=0x0:0xaf1b0343354b8261,
perumahan,Komplek perumahan,Perumahan Pesona utama tejakula 1,"V8GJ+VRF, Tejakula, Kec. Tejakula, Kabupaten Buleleng, Bali 81173","Tejakula, Kec. Tejakula, Kabupaten Buleleng",BALI,81173.0,Indonesia,,,,-81.228.065,1.153.320.429,https://maps.google.com/?cid=0x0:0xc7e13e925b7f7893,
perumahan,Pembangunan Perumahan,Perumahan Surya kencana tejakula 3,"Jl. Bembeng, Tejakula, Kec. Tejakula, Kabupaten Buleleng, Bali 81173","Tejakula, Kec. Tejakula, Kabupaten Buleleng",BALI,81173.0,Indonesia,,,,-81.181.723,1.153.337.126,https://maps.google.com/?cid=0x0:0x72938cb070f93483,
perumahan,Komplek perumahan,Perumahan Pesona utama tejakula 3,"V8JM+PHC, Jl. Bembeng, Tejakula, Kec. Tejakula, Kabupaten Buleleng, Bali 81173","Jl. Bembeng, Tejakula, Kec. Tejakula, Kabupaten Buleleng",BALI,81173.0,Indonesia,,,,-81.181.786,1.153.338.779,https://maps.google.com/?cid=0x0:0xb8bdac491b1f4625,
perumahan,Pembangunan Perumahan,PERUMAHAN PERMAI LESTARI TEJAKULA,"V985+H92, Jl. Tejakula - Tianyar, Tejakula, Kec. Tejakula, Kabupaten Buleleng, Bali 81173","Jl. Tejakula - Tianyar, Tejakula, Kec. Tejakula, Kabupaten Buleleng",BALI,81173.0,Indonesia,,,,-81.342.401,115.358.182,https://maps.google.com/?cid=0x0:0xb51b6bf9b06e5b83,
perumahan,Perhimpunan Pengembang Perumahan,rumah tepi alpukat,"V778+RRV, Sembiran, Kec. Tejakula, Kabupaten Buleleng, Bali 81173","Sembiran, Kec. Tejakula, Kabupaten Buleleng",BALI,81173.0,Indonesia,,,,-81.353.737,1.152.661.648,https://maps.google.com/?cid=0x0:0x9ec0ecdf2836e72c,
perumahan,Perumahan,Wismayati Residence,"V8P8+8JM, Jl. Pura Dalem Desa Bondalem, Bondalem, Kec. Tejakula, Kabupaten Buleleng, Bali 81173","Jl. Pura Dalem Desa Bondalem, Bondalem, Kec. Tejakula, Kabupaten Buleleng",BALI,81173.0,Indonesia,,,,-81.141.715,1.153.165.477,https://maps.google.com/?cid=0x0:0x451cfeaf38f5b830,
perumahan,Komplek perumahan,Rumah Made MertaYasa,"V8CW+Q9P, Jl. Raya Singaraja - Amlapura, Tejakula, Kec. Tejakula, Kabupaten Buleleng, Bali 81173","Jl. Raya Singaraja - Amlapura, Tejakula, Kec. Tejakula, Kabupaten Buleleng",BALI,81173.0,Indonesia,,,,-812.804,1.153.459.606,https://maps.google.com/?cid=0x0:0x43d96ac6f63cac5b,
perumahan,Perhimpunan Pengembang Perumahan,Rumah Tole,"W73C+2VV, Pacung, Kec. Tejakula, Kabupaten Buleleng, Bali 81173","Pacung, Kec. Tejakula, Kabupaten Buleleng",BALI,81173.0,Indonesia,,,,-80.973.947,1.152.721.831,https://maps.google.com/?cid=0x0:0xf72d2979ba25e465,
perumahan,Komplek perumahan,Paras garden,"V8H7+HQG, Bondalem, Kec. Tejakula, Kabupaten Buleleng, Bali 81173","Bondalem, Kec. Tejakula, Kabupaten Buleleng",BALI,81173.0,Indonesia,81992558666,,,-81.210.119,1.153.145.219,https://maps.google.com/?cid=0x0:0xe191d2c5fbbd9b74,
perumahan,Komplek perumahan,Bunteh City,"V8GW+XC2, Tejakula, Kec. Tejakula, Kabupaten Buleleng, Bali 81173","Tejakula, Kec. Tejakula, Kabupaten Buleleng",BALI,81173.0,Indonesia,,,,-8.122.605,115.346.029,https://maps.google.com/?cid=0x0:0x6bcea0853403e5c6,
perumahan,Komplek perumahan,PUTRI RAJA,"V8HH+CVQ, Tejakula, Kec. Tejakula, Kabupaten Buleleng, Bali","Kabupaten Buleleng, Bali",BALI,,Indonesia,,,,-81.214.065,1.153.297.238,https://maps.google.com/?cid=0x0:0x7d217dd1b964d463,
perumahan,Komplek perumahan,Rumah keluarga subrati,"V8P2+7FM, Jl. Empelan, Julah, Kec. Tejakula, Kabupaten Buleleng, Bali 81173","Jl. Empelan, Julah, Kec. Tejakula, Kabupaten Buleleng",BALI,81173.0,Indonesia,,,,-8.114.282,1.153.011.595,https://maps.google.com/?cid=0x0:0x748ec2444701a0ab,
perumahan,Pembangunan Perumahan,Pondok surya,"V8Q5+FWW, Bondalem, Kec. Tejakula, Kabupaten Buleleng, Bali 81173","Bondalem, Kec. Tejakula, Kabupaten Buleleng",BALI,81173.0,Indonesia,81270249344,,,-81.112.655,1.153.098.302,https://maps.google.com/?cid=0x0:0xa00ccae37e833922,
perumahan,Komplek perumahan,Darmawans House,"Jl. Airsanih - Tejakula Gang Mangga Buntu No.8, Bondalem, Kec. Tejakula, Kabupaten Buleleng, Bali 81173","Bondalem, Kec. Tejakula, Kabupaten Buleleng",BALI,81173.0,Indonesia,,,,-81.181.936,1.153.172.807,https://maps.google.com/?cid=0x0:0x7e5246a5024f2ba1,
perumahan,Komplek perumahan,Sembiran beten poh,"V7VQ+RFQ, Jalan Airsanih, Sembiran, Tejakula, Buleleng Regency, Bali 81173","Jalan Airsanih, Sembiran, Tejakula, Buleleng Regency",BALI,81173.0,Indonesia,,,,-81.054.031,1.152.887.413,https://maps.google.com/?cid=0x0:0x960ac6839c5c25c4,
perumahan,Penginapan,Selaung Garden,"V8GC+3C8, Bondalem, Kec. Tejakula, Kabupaten Buleleng, Bali 81173","Bondalem, Kec. Tejakula, Kabupaten Buleleng",BALI,81173.0,Indonesia,,,,-81.248.435,1.153.210.645,https://maps.google.com/?cid=0x0:0x177921ccfe9d3463,
perumahan,Komplek perumahan,Perumahan Permai Lestari Bondalem,"Jl. Pura Bingin No.99, Bondalem, Kec. Tejakula, Kabupaten Buleleng, Bali 81173","Bondalem, Kec. Tejakula, Kabupaten Buleleng",BALI,81173.0,Indonesia,81238724254,,,-81.162.456,115.322.782,https://maps.google.com/?cid=0x0:0xcd0b54fc93ed5a40,
perumahan,Komplek perumahan,Rumah comar,"V76V+PCP, Julah, Kec. Tejakula, Kabupaten Buleleng, Bali 81173","Julah, Kec. Tejakula, Kabupaten Buleleng",BALI,81173.0,Indonesia,,,,-81.381.289,1.152.934.561,https://maps.google.com/?cid=0x0:0x308d46fa1a5fb896,
perumahan,Komplek perumahan,Kandang ADGF Bali,"V8CW+GHF, Tejakula, Kec. Tejakula, Kabupaten Buleleng, Bali 81173","Tejakula, Kec. Tejakula, Kabupaten Buleleng",BALI,81173.0,Indonesia,85792621864,,,-81.286.963,1.153.464.185,https://maps.google.com/?cid=0x0:0x6e6df7ab9652c8fe,
perumahan,Komplek perumahan,BU DIAH HOUSE,"V7GM+VC5, Sembiran, Kec. Tejakula, Kabupaten Buleleng, Bali 81173","Sembiran, Kec. Tejakula, Kabupaten Buleleng",BALI,81173.0,Indonesia,,,,-81.229.006,115.283.753,https://maps.google.com/?cid=0x0:0x4e0aaeccee86eb8e,
perumahan,Komplek perumahan,Rumah Ayu riskiyani,"V8M5+R9F, Bondalem, Kec. Tejakula, Kabupaten Buleleng, Bali 81173","Bondalem, Kec. Tejakula, Kabupaten Buleleng",BALI,81173.0,Indonesia,,,,-81.160.763,1.153.079.781,https://maps.google.com/?cid=0x0:0x6563ec63fd611d38,
perumahan,Komplek perumahan,Dadong Gaul,"V846+PCX, Jl. Tejakula - Satra, Madenan, Kec. Tejakula, Kabupaten Buleleng, Bali 81173","Jl. Tejakula - Satra, Madenan, Kec. Tejakula, Kabupaten Buleleng",BALI,81173.0,Indonesia,,,,-81.431.415,1.153.111.245,https://maps.google.com/?cid=0x0:0xd100be64ae910e21,
