Category;Real Category;Business Name;Address;City;State;Postal Code;Country;Phone;Email;Website;Latitude;Longitude;Map Link;Details Link
"building materials";"building materials";"Papua 99871";"Kabupaten Mappi, Papua";"Kabupaten Mappi, Papua";"PAPUA";"";"Indonesia";"";"";"";"-6.3989856";"139.4466005";"https://maps.google.com/?cid=0x0:0xc5ece3ae73b47f90";""
"building materials";"building materials";"Putra Mandiri SAWMILL";"C7H6+PMM, Jl. Irian Kepi, Kepi, Kec. Obaa, Kabupaten Mappi, Papua 99881";"Jl. Irian Kepi, Kepi, Kec. Obaa, Kabupaten Mappi";"PAPUA";"99881";"Indonesia";" 082399005557";"";"";"-6.5706553";"139.2616702";"https://maps.google.com/?cid=0x0:0x28c13668c092d2f5";""
"building materials";"Toko";"Toko Pratiwi";"F842+FWC, Obaa, Kec. Obaa, Kabupaten Mappi, Papua 99881";"Obaa, Kec. Obaa, Kabupaten Mappi";"PAPUA";"99881";"Indonesia";"";"";"";"-6.5438187";"139.3022593";"https://maps.google.com/?cid=0x0:0xf692adb797283f91";""
"building materials";"Toko Perlengkapan Rumah";"PT. Mudita Jaya";"F899+4P2, Jl. Irian Kepi, Obaa, Kec. Obaa, Kabupaten Mappi, Papua 99881";"Jl. Irian Kepi, Obaa, Kec. Obaa, Kabupaten Mappi";"PAPUA";"99881";"Indonesia";"";"";"";"-6.5322385";"139.3192611";"https://maps.google.com/?cid=0x0:0x2bbdd75588e442cb";""
"building materials";"Toko Perlengkapan Rumah";"PT MUDITA KILO 3";"F832+5V5, Kepi, Kec. Obaa, Kabupaten Mappi, Papua 99881";"Kepi, Kec. Obaa, Kabupaten Mappi";"PAPUA";"99881";"Indonesia";"";"";"";"-6.5471197";"139.3022265";"https://maps.google.com/?cid=0x0:0xe581b67cb097c470";""
"building materials";"building materials";"Kec. Obaa";"Kabupaten Mappi, Papua";"Kabupaten Mappi, Papua";"PAPUA";"";"Indonesia";"";"";"";"-6.5336517";"139.4466005";"https://maps.google.com/?cid=0x0:0x3055588e2dbb9ea4";""
"building materials";"Toko";"PT. UNGGUL JAYA TIMBER";"PERUMAHAN ARAFAH RESIDENCE Blok B No.21, RT.001/RW.009, Srimahi, Kec. Tambun Utara, Kabupaten Bekasi, Jawa Barat 17510";"RT.001/RW.009, Srimahi, Kec. Tambun Utara, Kabupaten Bekasi";"PAPUA";"17510";"Indonesia";" 085780000302";"";"";"-6.1754973";"107.0886316";"https://maps.google.com/?cid=0x0:0x48c9a73a2cfed63f";""
"building materials";"Toko Bahan Bangunan";"Obaja Truss";"Jl. Raya Babelan, Kebalen, Kec. Babelan, Kabupaten Bekasi, Jawa Barat 17610";"Kebalen, Kec. Babelan, Kabupaten Bekasi";"PAPUA";"17610";"Indonesia";"";"";"";"-6.1837116";"107.0395858";"https://maps.google.com/?cid=0x0:0x48c50966d454756b";""
"building materials";"building materials";"Citakmitak";"Kabupaten Mappi, Papua";"Kabupaten Mappi, Papua";"PAPUA";"";"Indonesia";"";"";"";"-5.8202155";"139.3247147";"https://maps.google.com/?cid=0x0:0xa6f0a4c02cdb66dc";""
"building materials";"Toko Bahan Bangunan";"Tiptore Building Material";"Jl. Poros Kuda Mati, Klp. Lima, Kec. Merauke, Kabupaten Merauke, Papua 99616";"Klp. Lima, Kec. Merauke, Kabupaten Merauke";"PAPUA";"99616";"Indonesia";" 082293657714";"";"";"-8.5061763";"140.4257632";"https://maps.google.com/?cid=0x0:0xbf132c61e5517b30";""
"building materials";"Toko bahan makanan";"Toko Inti Pembangunan";"Sawar, Kec. Sarmi, Kabupaten Sarmi, Papua 99373";"Kec. Sarmi, Kabupaten Sarmi";"PAPUA";"99373";"Indonesia";" 081286929260";"";"";"-1.8888753";"138.7523781";"https://maps.google.com/?cid=0x0:0xc62de493673b96c9";""
"building materials";"Toko Bahan Bangunan";"Optima";"FCR2+RPJ, Jl. Raya Mandala, Mandala, Kec. Merauke, Kabupaten Merauke, Papua 99615";"Jl. Raya Mandala, Mandala, Kec. Merauke, Kabupaten Merauke";"PAPUA";"99615";"Indonesia";"";"";"";"-8.5079058";"140.4017668";"https://maps.google.com/?cid=0x0:0x1f6ecf2372c263ce";""
"building materials";"building materials";"Papua 99853";"Kabupaten Mappi, Papua";"Kabupaten Mappi, Papua";"PAPUA";"";"Indonesia";"";"";"";"-7.1527149";"139.5279996";"https://maps.google.com/?cid=0x0:0x8030f37c187cbb11";""
"building materials";"building materials";"Papua 99881";"Kabupaten Mappi, Papua";"Kabupaten Mappi, Papua";"PAPUA";"";"Indonesia";"";"";"";"-6.2344696";"139.1221414";"https://maps.google.com/?cid=0x0:0x16d53cf515d4db1d";""
"building materials";"building materials";"Putra Mandiri SAWMILL";"C7H6+PMM, Jl. Irian Kepi, Kepi, Kec. Obaa, Kabupaten Mappi, Papua 99881";"Jl. Irian Kepi, Kepi, Kec. Obaa, Kabupaten Mappi";"PAPUA";"99881";"Indonesia";" 082399005557";"";"";"-6.5706553";"139.2616702";"https://maps.google.com/?cid=0x0:0x28c13668c092d2f5";""
"building materials";"Toko Perlengkapan Rumah";"PT. Mudita Jaya";"F899+4P2, Jl. Irian Kepi, Obaa, Kec. Obaa, Kabupaten Mappi, Papua 99881";"Jl. Irian Kepi, Obaa, Kec. Obaa, Kabupaten Mappi";"PAPUA";"99881";"Indonesia";"";"";"";"-6.5322385";"139.3192611";"https://maps.google.com/?cid=0x0:0x2bbdd75588e442cb";""
"building materials";"Toko Perlengkapan Rumah";"Batu bata kilo 8";"C7J9+FHC, Jl. Irian Kepi, Kepi, Kec. Obaa, Kabupaten Mappi, Papua 99881";"Jl. Irian Kepi, Kepi, Kec. Obaa, Kabupaten Mappi";"PAPUA";"99881";"Indonesia";"";"";"";"-6.5681291";"139.2685456";"https://maps.google.com/?cid=0x0:0x8c512660faed3c63";""
"building materials";"Toko";"Toko Pratiwi";"F842+FWC, Obaa, Kec. Obaa, Kabupaten Mappi, Papua 99881";"Obaa, Kec. Obaa, Kabupaten Mappi";"PAPUA";"99881";"Indonesia";"";"";"";"-6.5438187";"139.3022593";"https://maps.google.com/?cid=0x0:0xf692adb797283f91";""
"building materials";"building materials";"Kec. Haju";"Kabupaten Mappi, Papua";"Kabupaten Mappi, Papua";"PAPUA";"";"Indonesia";"";"";"";"-6.2564518";"139.0009403";"https://maps.google.com/?cid=0x0:0x13ee01b9b298781a";""
"building materials";"Kantor Perusahaan";"PT Haju Medical Indonesia";"Tifa Arum Realty, Jl. Kuningan Bar. 1 No.26 Lt 8, RT.6/RW.1, Kuningan Bar., Kec. Mampang Prpt., Kota Jakarta Selatan, Daerah Khusus Ibukota Jakarta 12760";"Jl. Kuningan Bar. 1 No.26 Lt 8, RT.6/RW.1, Kuningan Bar., Kec. Mampang Prpt., Kota Jakarta Selatan";"PAPUA";"12760";"Indonesia";" 02127088686";"";"";"-6.2350036";"106.8204266";"https://maps.google.com/?cid=0x0:0x69ec7651bcfe2002";""
"building materials";"Kantor Perusahaan";"Huayou Indonesia HeadQuarter";"Jl. Mega Kuningan Barat III No.Kav. 10 No.1 - 6, RT.3/RW.3, Kuningan, Kuningan Tim., Kecamatan Setiabudi, Kota Jakarta Selatan, Daerah Khusus Ibukota Jakarta 12950";"RT.3/RW.3, Kuningan, Kuningan Tim., Kecamatan Setiabudi, Kota Jakarta Selatan";"PAPUA";"12950";"Indonesia";"";"";"";"-6.2305603";"106.8238147";"https://maps.google.com/?cid=0x0:0x2148c30dded08c70";""
"building materials";"building materials";"Papua 99874";"Kabupaten Mappi, Papua";"Kabupaten Mappi, Papua";"PAPUA";"";"Indonesia";"";"";"";"-5.8215295";"138.9605972";"https://maps.google.com/?cid=0x0:0xac074e8d0ff33f49";""
"building materials";"Toko Perlengkapan Rumah";"ARTHA JAYA Building Material ,Technic and Sparepart Supplier";"8QM8+766, Jl. Lettu Idrus, Kaimana Kota, Kec. Kaimana, Kabupaten Kaimana, Papua Bar. 98654";"Jl. Lettu Idrus, Kaimana Kota, Kec. Kaimana, Kabupaten Kaimana";"PAPUA";"98654";"Indonesia";" 08113337737";"";"";"-3.6668263";"133.7655059";"https://maps.google.com/?cid=0x0:0x771b5c8624f4315b";""
"building materials";"Toko Bahan Bangunan";"Papua Bangunan, CV PAPUA ABADI";"Jl. Basuki Rahmat No.780, Klawuyuk, Distrik Sorong Timur, Kota Sorong, Papua Bar. 98416";"Klawuyuk, Distrik Sorong Timur, Kota Sorong";"PAPUA";"98416";"Indonesia";" 081332017550";"";"";"-0.8954087";"131.3186922";"https://maps.google.com/?cid=0x0:0x851804bc3aa7f033";""
"building materials";"Toko";"Jaya Bangun Utama";"6GH9+VPV, Unnamed Road, Iriati, Distrik Wasior, Kabupaten Teluk Wondama, Papua Bar. 98362";"Unnamed Road, Iriati, Distrik Wasior, Kabupaten Teluk Wondama";"PAPUA";"98362";"Indonesia";" 085298357980";"";"";"-2.7702528";"134.5193086";"https://maps.google.com/?cid=0x0:0x7b7706dc36edb6d8";""
"building materials";"Toko Bahan Bangunan";"NASYA BANGUNAN";"X8M9+469, Jl. Nusa Indah, Mariyai, Distrik Mariat, Kabupaten Sorong, Papua Bar. 98415";"Jl. Nusa Indah, Mariyai, Distrik Mariat, Kabupaten Sorong";"PAPUA";"98415";"Indonesia";"";"";"";"-1.0172176";"131.3181156";"https://maps.google.com/?cid=0x0:0x19e47aadec85996d";""
"building materials";"Toko Bahan Bangunan";"PAPUA BANGUNAN";"42GX+945, Wosi, Kec. Manokwari Bar., Kabupaten Manokwari, Papua Bar. 98312";"Wosi, Kec. Manokwari Bar., Kabupaten Manokwari";"PAPUA";"98312";"Indonesia";" 082198055550";"";"";"-0.874101";"134.0478473";"https://maps.google.com/?cid=0x0:0x2c3683b193d9430f";""
"building materials";"Toko Bahan Bangunan";"Toko Bangunan Tetus Papua";"CVFF+528, Jl. Budi Utomo, Nawaripi, Kec. Mimika Baru, Kabupaten Mimika, Papua";"Kabupaten Mimika, Papua";"PAPUA";"";"Indonesia";" 081344834492";"";"";"-4.577093";"136.8725648";"https://maps.google.com/?cid=0x0:0x70179859b1a22306";""
"building materials";"Toko bahan makanan";"DEPO MESIN N28  DEPO BANGUNAN";"Bunyom, Distrik Nimbokrang, Kabupaten Jayapura, Papua 99361";"Distrik Nimbokrang, Kabupaten Jayapura";"PAPUA";"99361";"Indonesia";" 085247266989";"";"";"-2.5571645";"140.1086582";"https://maps.google.com/?cid=0x0:0xf97268af26927065";""
"building materials";"Toko";"Toko ajb";"Jln inpres urfas, Kemon Jaya Sp V, Kec. Urei Faisei, Kabupaten Waropen, Papua 98663";"Kemon Jaya Sp V, Kec. Urei Faisei, Kabupaten Waropen";"PAPUA";"98663";"Indonesia";" 082399530919";"";"";"-2.209432";"136.415572";"https://maps.google.com/?cid=0x0:0x9d727fa236c3e1d6";""
"building materials";"Toko Bahan Bangunan";"CV.Duta Jaya Papua";"CVPG+33Q, Jl. Irigasi, Nawaripi, Kec. Mimika Baru, Kabupaten Mimika, Papua";"Kabupaten Mimika, Papua";"PAPUA";"";"Indonesia";" 085244161812";"";"";"-4.5647898";"136.875246";"https://maps.google.com/?cid=0x0:0x9c0dbb5cfd9f8988";""
"building materials";"Toko Bahan Bangunan";"CV. XA TRIO JAYA";"Jl. Cendrawasih Sp2, Simpang Lima, Kec. Mimika Baru, Kabupaten Mimika, Papua";"Kabupaten Mimika, Papua";"PAPUA";"";"Indonesia";" 085244282610";"";"";"-4.5154756";"136.8496527";"https://maps.google.com/?cid=0x0:0x49e9d0a78fcf7509";""
"building materials";"Toko Bahan Bangunan";"Bahan Bangunan  Sparepart DIPAJAYA";"Jl. Perintis, Bumi Wonorejo, Distrik Nabire, Kabupaten Nabire, Papua 98813";"Bumi Wonorejo, Distrik Nabire, Kabupaten Nabire";"PAPUA";"98813";"Indonesia";" 085242353535";"";"";"-3.3901568";"135.4882999";"https://maps.google.com/?cid=0x0:0x2e1f4e55f23f8c6f";""
"building materials";"building materials";"Toko Artajaya Bangunan (AJB)";"Jl Protokol, Koya Bar., Kec. Muara Tami, Kota Jayapura, Papua";"Kota Jayapura, Papua";"PAPUA";"";"Indonesia";"";"";"";"-2.6598126";"140.8048505";"https://maps.google.com/?cid=0x0:0xbfefccb7ae22a578";""
"building materials";"Toko Bahan Bangunan";"Tiptore Building Material";"Jl. Poros Kuda Mati, Klp. Lima, Kec. Merauke, Kabupaten Merauke, Papua 99616";"Klp. Lima, Kec. Merauke, Kabupaten Merauke";"PAPUA";"99616";"Indonesia";" 082293657714";"";"";"-8.5061763";"140.4257632";"https://maps.google.com/?cid=0x0:0xbf132c61e5517b30";""
"building materials";"Toko Bahan Bangunan";"Royal Bangunan (PT. Papua Jaya Bangunan)";"43P8+87R, Jl. Percetakan Negara, Sanggeng, Kec. Manokwari Bar., Kabupaten Manokwari, Papua Bar. 98312";"Jl. Percetakan Negara, Sanggeng, Kec. Manokwari Bar., Kabupaten Manokwari";"PAPUA";"98312";"Indonesia";" 087784554955";"";"";"-0.8641385";"134.0656252";"https://maps.google.com/?cid=0x0:0x99b3b4ac0bad58a";""
"building materials";"Toko";"Toko Dua Sahabat/Jotun";"Jln. Trans Papua kilo 2, Kabupaten Boven Digoel";"Kabupaten Boven Digoel, Papua";"PAPUA";"";"Indonesia";"";"";"";"-6.0959217";"140.3245587";"https://maps.google.com/?cid=0x0:0xe788284fb59d6345";""
"building materials";"building materials";"Waropen";"QC54+M74, Nonomi, Kec. Waropen Bawah, Kabupaten Waropen, Papua 98261";"Nonomi, Kec. Waropen Bawah, Kabupaten Waropen";"PAPUA";"98261";"Indonesia";"";"";"";"-2.2408669";"136.4057026";"https://maps.google.com/?cid=0x0:0x939ec7ca3f88c5d2";""
"building materials";"building materials";"KANTOR CABANG PT AMS";"JL khemon jaya, jalur III barat , SP 5, Nonomi, Kec. Waropen Bawah, Kabupaten Waropen, Papua 98261";"jalur III barat , SP 5, Nonomi, Kec. Waropen Bawah, Kabupaten Waropen";"PAPUA";"98261";"Indonesia";" 081344735007";"";"";"-2.233097";"136.4168266";"https://maps.google.com/?cid=0x0:0x16061b7c8188a082";""
"building materials";"Toko Bahan Bangunan";"Depo APA";"4858+C3H, Jl. Basuki Rahmat, Remu Sel, Distrik Sorong Timur, Kota Sorong, Papua Bar. 98416";"Jl. Basuki Rahmat, Remu Sel, Distrik Sorong Timur, Kota Sorong";"PAPUA";"98416";"Indonesia";"";"";"";"-0.8914384";"131.3152376";"https://maps.google.com/?cid=0x0:0x1a5d0b39362b1c03";""
"building materials";"Toko Bahan Bangunan";"Toko Arso Bangunan";"Jl. Garuda No.17, D, Yuwanain, Kec. Arso, Kabupaten Keerom, Papua 99468";"D, Yuwanain, Kec. Arso, Kabupaten Keerom";"PAPUA";"99468";"Indonesia";" 082199906967";"";"";"-2.9009028";"140.7566149";"https://maps.google.com/?cid=0x0:0xd6c7fd0a6c50c3ab";""
"building materials";"building materials";"Kec. Assue";"Kabupaten Mappi, Papua";"Kabupaten Mappi, Papua";"PAPUA";"";"Indonesia";"";"";"";"-5.9386763";"139.1625989";"https://maps.google.com/?cid=0x0:0x59165bc210ecd15e";""
"building materials";"Toko Perlengkapan Rumah";"Oase - Building  Matrials";"Jl. Serua, RT./RW/RW.003/05, Serua, Kec. Bojongsari, Kota Depok, Jawa Barat 16511";"RT./RW/RW.003/05, Serua, Kec. Bojongsari, Kota Depok";"PAPUA";"16511";"Indonesia";" 082323631717";"";"";"-6.3679351";"106.7343147";"https://maps.google.com/?cid=0x0:0x29648412af2e032c";""
"building materials";"Toko Bahan Bangunan";"Matrial Karya Cipta Abadi";"Jl. Kasiba Lasiba, RT.3/RW.2, Duren Seribu, Kec. Bojongsari, Kota Depok, Jawa Barat 16518";"RT.3/RW.2, Duren Seribu, Kec. Bojongsari, Kota Depok";"PAPUA";"16518";"Indonesia";" 085312186070";"";"";"-6.4251828";"106.7432573";"https://maps.google.com/?cid=0x0:0x9f63f5afcc3cb5c7";""
"building materials";"Toko Bahan Bangunan";"Papua Bangunan, CV PAPUA ABADI";"Jl. Basuki Rahmat No.780, Klawuyuk, Distrik Sorong Timur, Kota Sorong, Papua Bar. 98416";"Klawuyuk, Distrik Sorong Timur, Kota Sorong";"PAPUA";"98416";"Indonesia";" 081332017550";"";"";"-0.8954087";"131.3186922";"https://maps.google.com/?cid=0x0:0x851804bc3aa7f033";""
"building materials";"Toko Bahan Bangunan";"Toko Bangunan Abadi";"4862+H2G, Malaingkedi, Kec. Sorong Utara, Kota Sorong, Papua Bar. 98412";"Malaingkedi, Kec. Sorong Utara, Kota Sorong";"PAPUA";"98412";"Indonesia";" 081248762864";"";"";"-0.8885625";"131.3000781";"https://maps.google.com/?cid=0x0:0xa4c5e3d6e0f0bf2b";""
"building materials";"building materials";"Papua 99871";"Kabupaten Mappi, Papua";"Kabupaten Mappi, Papua";"PAPUA";"";"Indonesia";"";"";"";"-6.3989856";"139.4466005";"https://maps.google.com/?cid=0x0:0xc5ece3ae73b47f90";""
"building materials";"building materials";"Putra Mandiri SAWMILL";"C7H6+PMM, Jl. Irian Kepi, Kepi, Kec. Obaa, Kabupaten Mappi, Papua 99881";"Jl. Irian Kepi, Kepi, Kec. Obaa, Kabupaten Mappi";"PAPUA";"99881";"Indonesia";" 082399005557";"";"";"-6.5706553";"139.2616702";"https://maps.google.com/?cid=0x0:0x28c13668c092d2f5";""
"building materials";"Toko";"Toko Pratiwi";"F842+FWC, Obaa, Kec. Obaa, Kabupaten Mappi, Papua 99881";"Obaa, Kec. Obaa, Kabupaten Mappi";"PAPUA";"99881";"Indonesia";"";"";"";"-6.5438187";"139.3022593";"https://maps.google.com/?cid=0x0:0xf692adb797283f91";""
"building materials";"Toko Perlengkapan Rumah";"PT. Mudita Jaya";"F899+4P2, Jl. Irian Kepi, Obaa, Kec. Obaa, Kabupaten Mappi, Papua 99881";"Jl. Irian Kepi, Obaa, Kec. Obaa, Kabupaten Mappi";"PAPUA";"99881";"Indonesia";"";"";"";"-6.5322385";"139.3192611";"https://maps.google.com/?cid=0x0:0x2bbdd75588e442cb";""
"building materials";"Toko Bahan Bangunan";"Papua Bangunan, CV PAPUA ABADI";"Jl. Basuki Rahmat No.780, Klawuyuk, Distrik Sorong Timur, Kota Sorong, Papua Bar. 98416";"Klawuyuk, Distrik Sorong Timur, Kota Sorong";"PAPUA";"98416";"Indonesia";" 081332017550";"";"";"-0.8954087";"131.3186922";"https://maps.google.com/?cid=0x0:0x851804bc3aa7f033";""
"building materials";"Toko Perlengkapan Rumah";"PT MUDITA KILO 3";"F832+5V5, Kepi, Kec. Obaa, Kabupaten Mappi, Papua 99881";"Kepi, Kec. Obaa, Kabupaten Mappi";"PAPUA";"99881";"Indonesia";"";"";"";"-6.5471197";"139.3022265";"https://maps.google.com/?cid=0x0:0xe581b67cb097c470";""
"building materials";"Toko Bahan Bangunan";"Toko Bangunan Abadi";"4862+H2G, Malaingkedi, Kec. Sorong Utara, Kota Sorong, Papua Bar. 98412";"Malaingkedi, Kec. Sorong Utara, Kota Sorong";"PAPUA";"98412";"Indonesia";" 081248762864";"";"";"-0.8885625";"131.3000781";"https://maps.google.com/?cid=0x0:0xa4c5e3d6e0f0bf2b";""
"building materials";"Toko Perlengkapan Rumah";"PT Profitto Inovasi Kreatif";"Komp. Pergudangan T8, Jl. Sutera Niaga III No.3E, Pakulonan, Kec. Serpong Utara, Kota Tangerang Selatan, Banten 15325";"Jl. Sutera Niaga III No.3E, Pakulonan, Kec. Serpong Utara, Kota Tangerang Selatan";"PAPUA";"15325";"Indonesia";" 087858988881";"";"";"-6.2392855";"106.649986";"https://maps.google.com/?cid=0x0:0x9f367731f119e9d";""
"building materials";"Produsen";"Workshop Inovasi";"Gudang Klp. Tua, Jl. Pd. Jagung No.72, Pd. Jagung Tim., Kec. Serpong Utara, Kota Tangerang Selatan, Banten 15326";"Jl. Pd. Jagung No.72, Pd. Jagung Tim., Kec. Serpong Utara, Kota Tangerang Selatan";"PAPUA";"15326";"Indonesia";"";"";"";"-6.2468241";"106.6689851";"https://maps.google.com/?cid=0x0:0x3ba7b76a8e11d3d4";""
"building materials";"Toko Bahan Bangunan";"Depo Bangunan Mbanyu Mili";"3VQM+2GP depan balai kampung sp 2, Prafi Mulia, Distrik Prafi, Kabupaten Manokwari, Papua Bar. 98356";"Prafi Mulia, Distrik Prafi, Kabupaten Manokwari";"PAPUA";"98356";"Indonesia";" 085254126242";"";"";"-0.9124191";"133.8838245";"https://maps.google.com/?cid=0x0:0x72bb281db456c91a";""
"building materials";"Toserba";"TOKO MAJU MAKMUR";"4R8F+95V, Udapi Hilir, Distrik Prafi, Kabupaten Manokwari, Papua Bar. 98356";"Udapi Hilir, Distrik Prafi, Kabupaten Manokwari";"PAPUA";"98356";"Indonesia";"";"";"";"-0.884108";"133.8229369";"https://maps.google.com/?cid=0x0:0x5dd0e3c69ab93bdc";""
"building materials";"building materials";"Papua 99853";"Kabupaten Mappi, Papua";"Kabupaten Mappi, Papua";"PAPUA";"";"Indonesia";"";"";"";"-7.1527149";"139.5279996";"https://maps.google.com/?cid=0x0:0x8030f37c187cbb11";""
"building materials";"building materials";"Putra Mandiri SAWMILL";"C7H6+PMM, Jl. Irian Kepi, Kepi, Kec. Obaa, Kabupaten Mappi, Papua 99881";"Jl. Irian Kepi, Kepi, Kec. Obaa, Kabupaten Mappi";"PAPUA";"99881";"Indonesia";" 082399005557";"";"";"-6.5706553";"139.2616702";"https://maps.google.com/?cid=0x0:0x28c13668c092d2f5";""
"building materials";"Toko";"Jaya Bangun Utama";"6GH9+VPV, Unnamed Road, Iriati, Distrik Wasior, Kabupaten Teluk Wondama, Papua Bar. 98362";"Unnamed Road, Iriati, Distrik Wasior, Kabupaten Teluk Wondama";"PAPUA";"98362";"Indonesia";" 085298357980";"";"";"-2.7702528";"134.5193086";"https://maps.google.com/?cid=0x0:0x7b7706dc36edb6d8";""
"building materials";"Toko Perlengkapan Rumah";"Batu bata kilo 8";"C7J9+FHC, Jl. Irian Kepi, Kepi, Kec. Obaa, Kabupaten Mappi, Papua 99881";"Jl. Irian Kepi, Kepi, Kec. Obaa, Kabupaten Mappi";"PAPUA";"99881";"Indonesia";"";"";"";"-6.5681291";"139.2685456";"https://maps.google.com/?cid=0x0:0x8c512660faed3c63";""
"building materials";"Toko";"Toko Pratiwi";"F842+FWC, Obaa, Kec. Obaa, Kabupaten Mappi, Papua 99881";"Obaa, Kec. Obaa, Kabupaten Mappi";"PAPUA";"99881";"Indonesia";"";"";"";"-6.5438187";"139.3022593";"https://maps.google.com/?cid=0x0:0xf692adb797283f91";""
"building materials";"Toko Kayu";"TPK MUNA WARAH";"485G+WHG, Matalamagi, Distrik Sorong, Kota Sorong, Papua Bar.";"Kota Sorong, Papua Bar.";"PAPUA";"";"Indonesia";"";"";"";"-0.8901826";"131.326454";"https://maps.google.com/?cid=0x0:0x83fc0ea61de01648";""
"building materials";"Toko Perlengkapan Rumah";"PT MUDITA KILO 3";"F832+5V5, Kepi, Kec. Obaa, Kabupaten Mappi, Papua 99881";"Kepi, Kec. Obaa, Kabupaten Mappi";"PAPUA";"99881";"Indonesia";"";"";"";"-6.5471197";"139.3022265";"https://maps.google.com/?cid=0x0:0xe581b67cb097c470";""
"building materials";"building materials";"Venaha";"Kabupaten Mappi, Papua";"Kabupaten Mappi, Papua";"PAPUA";"";"Indonesia";"";"";"";"-6.7168056";"139.9366899";"https://maps.google.com/?cid=0x0:0xddadbc1f3a828d9c";""
"building materials";"Toko Bahan Bangunan";"Toko Zelika (Pusat Bahan Bangunan)";"9P4X+2JG, Kroy, Kec. Kaimana, Kabupaten Kaimana, Papua Bar. 98654";"Kroy, Kec. Kaimana, Kabupaten Kaimana";"PAPUA";"98654";"Indonesia";" 0816992047";"";"";"-3.6449419";"133.749072";"https://maps.google.com/?cid=0x0:0x530e23896ce4df54";""
"building materials";"Toko Perlengkapan Rumah";"ARTHA JAYA Building Material ,Technic and Sparepart Supplier";"8QM8+766, Jl. Lettu Idrus, Kaimana Kota, Kec. Kaimana, Kabupaten Kaimana, Papua Bar. 98654";"Jl. Lettu Idrus, Kaimana Kota, Kec. Kaimana, Kabupaten Kaimana";"PAPUA";"98654";"Indonesia";" 08113337737";"";"";"-3.6668263";"133.7655059";"https://maps.google.com/?cid=0x0:0x771b5c8624f4315b";""
"building materials";"Pemasok Bahan Bangunan";"toko bangun nusantara";"CVJP+PHG, Nawaripi, Kec. Mimika Baru, Kabupaten Mimika, Papua 99971";"Nawaripi, Kec. Mimika Baru, Kabupaten Mimika";"PAPUA";"99971";"Indonesia";" 081230986888";"";"";"-4.5681877";"136.886467";"https://maps.google.com/?cid=0x0:0xf98d3361fd0298e0";""
"building materials";"Toko Bahan Bangunan";"TOKO BANGUN NUSANTARA JAYA 2";"JL Yos Sudarso, Sempan, Timika (200 meter setelah SMAN 1, Papua 99971";"Sempan, Timika (200 meter setelah SMAN 1";"PAPUA";"99971";"Indonesia";" 081334703021";"";"";"-4.5705016";"136.8853477";"https://maps.google.com/?cid=0x0:0x439ec6c0e9985b9b";""
"building materials";"Toko Bahan Bangunan";"Depo Bangunan Mbanyu Mili";"3VQM+2GP depan balai kampung sp 2, Prafi Mulia, Distrik Prafi, Kabupaten Manokwari, Papua Bar. 98356";"Prafi Mulia, Distrik Prafi, Kabupaten Manokwari";"PAPUA";"98356";"Indonesia";" 085254126242";"";"";"-0.9124191";"133.8838245";"https://maps.google.com/?cid=0x0:0x72bb281db456c91a";""
"building materials";"Toko Bahan Bangunan";"Binaan Jaya Hardware (Perniagaan Bahan-Bahan Binaan Jaya)";"Lot 6931, Batu 24, Jalan Bangi Lama, Kajang, 43000 Bangi, Selangor, Malaysia";"Bangi";"PAPUA";"43000";"Indonesia";" +60123129806";"";"";"2.9016258";"101.7782589";"https://maps.google.com/?cid=0x0:0xe964a9d1537458d8";""
"building materials";"Toko Bahan Bangunan";"URBAN HARDWARE SDN BHD-BRANCH TAMAN AWANI BANGI";"TAMAN AWANI, 3A-G, Jalan Awani Bangi 1/1, TAMAN AWANI BANGI, 43000 Bangi, Selangor, Malaysia";"Bangi";"PAPUA";"43000";"Indonesia";" +60176263318";"";"";"2.8978392";"101.7775873";"https://maps.google.com/?cid=0x0:0xf250f14006340327";""
"building materials";"building materials";"Distrik Syahcame";"Kabupaten Mappi, Papua";"Kabupaten Mappi, Papua";"PAPUA";"";"Indonesia";"";"";"";"-6.92665";"139.6493658";"https://maps.google.com/?cid=0x0:0x731f2b6c588c36e1";""
"building materials";"Toko Bahan Bangunan";"Depo Bangunan Mbanyu Mili";"3VQM+2GP depan balai kampung sp 2, Prafi Mulia, Distrik Prafi, Kabupaten Manokwari, Papua Bar. 98356";"Prafi Mulia, Distrik Prafi, Kabupaten Manokwari";"PAPUA";"98356";"Indonesia";" 085254126242";"";"";"-0.9124191";"133.8838245";"https://maps.google.com/?cid=0x0:0x72bb281db456c91a";""
"building materials";"Toko Bahan Bangunan";"kios enny nur cemenes";"Jl. Dermaga Baru, Bis Agats, Distrik Agats, Kabupaten Asmat, Papua 99777";"Bis Agats, Distrik Agats, Kabupaten Asmat";"PAPUA";"99777";"Indonesia";" 081343209941";"";"";"-5.5305575";"138.1406968";"https://maps.google.com/?cid=0x0:0xf058fc25a2aab75";""
"building materials";"Toko Bahan Bangunan";"NASYA BANGUNAN";"X8M9+469, Jl. Nusa Indah, Mariyai, Distrik Mariat, Kabupaten Sorong, Papua Bar. 98415";"Jl. Nusa Indah, Mariyai, Distrik Mariat, Kabupaten Sorong";"PAPUA";"98415";"Indonesia";"";"";"";"-1.0172176";"131.3181156";"https://maps.google.com/?cid=0x0:0x19e47aadec85996d";""
"building materials";"Kontraktor Penebangan Kayu";"TOKO CAHAYA BONE AGATS";"Jl. Dermaga Baru, Bis Agats, Distrik Agats, Kabupaten Asmat, Papua 99777";"Bis Agats, Distrik Agats, Kabupaten Asmat";"PAPUA";"99777";"Indonesia";"";"";"";"-5.5261749";"138.139991";"https://maps.google.com/?cid=0x0:0xdcf195d2090d9d79";""
"building materials";"Pemotongan Kayu";"Kantor kaca PT.SWPI";"Tim, Awunawai, Distrik Yapen Timur, Kabupaten Kepulauan Yapen, Papua 98252";"Awunawai, Distrik Yapen Timur, Kabupaten Kepulauan Yapen";"PAPUA";"98252";"Indonesia";"";"";"";"-1.8226475";"136.7595672";"https://maps.google.com/?cid=0x0:0xce8e51c2e764af51";""
"building materials";"building materials";"SYAHMIE CENTER";"MGCX+R38, RT.11/RW.08, Swakarya, Kec. Surade, Kabupaten Sukabumi, Jawa Barat 43179";"RT.11/RW.08, Swakarya, Kec. Surade, Kabupaten Sukabumi";"PAPUA";"43179";"Indonesia";"";"";"";"-7.3279625";"106.5477031";"https://maps.google.com/?cid=0x0:0x6eb841d1ddaa82c0";""
"building materials";"Toko Bahan Bangunan";"Mega Jaya Barokah ( Jual Triplek, Mdf, Hmr, Blockmin, HPL, Lem Kuning, Hardware Interior )";"Depan RSI Aminah, Ruko No.E-01, Watutulis Utara, Watutulis, Kec. Prambon, Kabupaten Sidoarjo, Jawa Timur 61264";"Ruko No.E-01, Watutulis Utara, Watutulis, Kec. Prambon, Kabupaten Sidoarjo";"PAPUA";"61264";"Indonesia";" 08566661000";"";"";"-7.4405207";"112.5722891";"https://maps.google.com/?cid=0x0:0xac40a6d9f0abf32a";""
"building materials";"Perhimpunan Pengembang Perumahan";"Distrik Passue Bawah";"WGP7+RWC, Keta, Passue Bawah, Kabupaten Mappi, Papua";"Kabupaten Mappi, Papua";"PAPUA";"";"Indonesia";"";"";"";"-6.062941";"139.514775";"https://maps.google.com/?cid=0x0:0x7fb25b4eb0e7694b";""
"building materials";"Komplek perumahan";"Busiri";"W9RQ+38, Busiri, Passue Bawah, Kabupaten Mappi, Papua";"Kabupaten Mappi, Papua";"PAPUA";"";"Indonesia";"";"";"";"-6.05979";"139.3883524";"https://maps.google.com/?cid=0x0:0x5bc2e4893a64a3e6";""
"building materials";"Toko Bahan Bangunan";"Building Material Products";"Jl. Palem Raya No.43-44, Perumnas 1, Kec. Karawaci, Kota Tangerang, Banten 15138";"Perumnas 1, Kec. Karawaci, Kota Tangerang";"PAPUA";"15138";"Indonesia";" 082114914664";"";"";"-6.2092197";"106.6087661";"https://maps.google.com/?cid=0x0:0x6268f8ae07bf7725";""
"building materials";"Toko Bahan Bangunan";"Tiptore Building Material";"Jl. Poros Kuda Mati, Klp. Lima, Kec. Merauke, Kabupaten Merauke, Papua 99616";"Klp. Lima, Kec. Merauke, Kabupaten Merauke";"PAPUA";"99616";"Indonesia";" 082293657714";"";"";"-8.5061763";"140.4257632";"https://maps.google.com/?cid=0x0:0xbf132c61e5517b30";""
"building materials";"Toko Bahan Bangunan";"Optima";"FCR2+RPJ, Jl. Raya Mandala, Mandala, Kec. Merauke, Kabupaten Merauke, Papua 99615";"Jl. Raya Mandala, Mandala, Kec. Merauke, Kabupaten Merauke";"PAPUA";"99615";"Indonesia";"";"";"";"-8.5079058";"140.4017668";"https://maps.google.com/?cid=0x0:0x1f6ecf2372c263ce";""
"building materials";"Toko Bahan Bangunan";"Zain jaya gibsum";"Zain jaya gubsum, Jl. Poltangan Raya No.4, RT.2/RW.04, Pejaten Timur, Ps. Minggu, Daerah Khusus Ibukota Jakarta 12520";"Jl. Poltangan Raya No.4, RT.2/RW.04, Pejaten Timur, Ps. Minggu";"PAPUA";"12520";"Indonesia";" 087721778444";"";"";"-6.2954173";"106.8421625";"https://maps.google.com/?cid=0x0:0xad685aa308b222cf";""
"toko bangunan";"toko bangunan";"Papua 99871";"Kabupaten Mappi, Papua";"Kabupaten Mappi, Papua";"PAPUA";"";"Indonesia";"";"";"";"-6.3989856";"139.4466005";"https://maps.google.com/?cid=0x0:0xc5ece3ae73b47f90";""
"toko bangunan";"Toko";"Toko Pratiwi";"F842+FWC, Obaa, Kec. Obaa, Kabupaten Mappi, Papua 99881";"Obaa, Kec. Obaa, Kabupaten Mappi";"PAPUA";"99881";"Indonesia";"";"";"";"-6.5438187";"139.3022593";"https://maps.google.com/?cid=0x0:0xf692adb797283f91";""
"toko bangunan";"Toko Perlengkapan Rumah";"Batu bata kilo 8";"C7J9+FHC, Jl. Irian Kepi, Kepi, Kec. Obaa, Kabupaten Mappi, Papua 99881";"Jl. Irian Kepi, Kepi, Kec. Obaa, Kabupaten Mappi";"PAPUA";"99881";"Indonesia";"";"";"";"-6.5681291";"139.2685456";"https://maps.google.com/?cid=0x0:0x8c512660faed3c63";""
"toko bangunan";"Toko bahan makanan";"TOKO USAHA BARU";"Jl. Irian Kepi, Obaa, Kec. Obaa, Kabupaten Mappi, Papua 99881";"Obaa, Kec. Obaa, Kabupaten Mappi";"PAPUA";"99881";"Indonesia";"";"";"";"-6.5391306";"139.306755";"https://maps.google.com/?cid=0x0:0x70a5d264b88f1aed";""
"toko bangunan";"toko bangunan";"Citakmitak";"Kabupaten Mappi, Papua";"Kabupaten Mappi, Papua";"PAPUA";"";"Indonesia";"";"";"";"-5.8202155";"139.3247147";"https://maps.google.com/?cid=0x0:0xa6f0a4c02cdb66dc";""
"toko bangunan";"toko bangunan";"Papua 99875";"Kabupaten Mappi, Papua";"Kabupaten Mappi, Papua";"PAPUA";"";"Indonesia";"";"";"";"-5.8045486";"139.5279996";"https://maps.google.com/?cid=0x0:0x3c002283937ac804";""
"toko bangunan";"Toko Bahan Bangunan";"Toko Bangunan Mitra Kita (kapuk)";"13, Jl. Kapuk Kayu Besar No.35 A, RT.13/RW.11, Cengkareng Tim., Kecamatan Cengkareng, Kota Jakarta Barat, Daerah Khusus Ibukota Jakarta 11730";"Jl. Kapuk Kayu Besar No.35 A, RT.13/RW.11, Cengkareng Tim., Kecamatan Cengkareng, Kota Jakarta Barat";"PAPUA";"11730";"Indonesia";" 081803878788";"";"";"-6.1229512";"106.7329576";"https://maps.google.com/?cid=0x0:0x6dd4da837c3adf4d";""
"toko bangunan";"toko bangunan";"Papua 99853";"Kabupaten Mappi, Papua";"Kabupaten Mappi, Papua";"PAPUA";"";"Indonesia";"";"";"";"-7.1527149";"139.5279996";"https://maps.google.com/?cid=0x0:0x8030f37c187cbb11";""
"toko bangunan";"Toko";"Toko Pratiwi";"F842+FWC, Obaa, Kec. Obaa, Kabupaten Mappi, Papua 99881";"Obaa, Kec. Obaa, Kabupaten Mappi";"PAPUA";"99881";"Indonesia";"";"";"";"-6.5438187";"139.3022593";"https://maps.google.com/?cid=0x0:0xf692adb797283f91";""
"toko bangunan";"toko bangunan";"Papua 99881";"Kabupaten Mappi, Papua";"Kabupaten Mappi, Papua";"PAPUA";"";"Indonesia";"";"";"";"-6.2344696";"139.1221414";"https://maps.google.com/?cid=0x0:0x16d53cf515d4db1d";""
"toko bangunan";"Toko Perlengkapan Rumah";"Batu bata kilo 8";"C7J9+FHC, Jl. Irian Kepi, Kepi, Kec. Obaa, Kabupaten Mappi, Papua 99881";"Jl. Irian Kepi, Kepi, Kec. Obaa, Kabupaten Mappi";"PAPUA";"99881";"Indonesia";"";"";"";"-6.5681291";"139.2685456";"https://maps.google.com/?cid=0x0:0x8c512660faed3c63";""
"toko bangunan";"Toko Bahan Bangunan";"Horukie Toko Bangunan";"R38J+883 Wa Toko ΘႨႨ-89Θ3-Θ541 kami, Fandoi, Kec. Biak Kota, Kabupaten Biak Numfor, Papua 98111";"Fandoi, Kec. Biak Kota, Kabupaten Biak Numfor";"PAPUA";"98111";"Indonesia";" 081344944374";"";"";"-1.1842375";"136.0807969";"https://maps.google.com/?cid=0x0:0x9ef95c0249a63970";""
"toko bangunan";"toko bangunan";"Putra Mandiri SAWMILL";"C7H6+PMM, Jl. Irian Kepi, Kepi, Kec. Obaa, Kabupaten Mappi, Papua 99881";"Jl. Irian Kepi, Kepi, Kec. Obaa, Kabupaten Mappi";"PAPUA";"99881";"Indonesia";" 082399005557";"";"";"-6.5706553";"139.2616702";"https://maps.google.com/?cid=0x0:0x28c13668c092d2f5";""
"toko bangunan";"Toko Bahan Bangunan";"Horukie Bahan Bangunan";"R3X4+FF2, Sorido, Kec. Biak Kota, Kabupaten Biak Numfor, Papua 98113";"Sorido, Kec. Biak Kota, Kabupaten Biak Numfor";"PAPUA";"98113";"Indonesia";" 082297956693";"";"";"-1.1505193";"136.0562465";"https://maps.google.com/?cid=0x0:0xd178c83f4a8bd72";""
"toko bangunan";"Toko Bahan Bangunan";"Toko Jaya Utama (Tanah Hitam)";"Yobe, Kec. Abepura, Kota Jayapura, Papua 99351";"Kec. Abepura, Kota Jayapura";"PAPUA";"99351";"Indonesia";" 0967582935";"";"";"-2.6144887";"140.672";"https://maps.google.com/?cid=0x0:0x3d3c44f571222740";""
"toko bangunan";"Toko Perlengkapan Rumah";"PT MUDITA KILO 3";"F832+5V5, Kepi, Kec. Obaa, Kabupaten Mappi, Papua 99881";"Kepi, Kec. Obaa, Kabupaten Mappi";"PAPUA";"99881";"Indonesia";"";"";"";"-6.5471197";"139.3022265";"https://maps.google.com/?cid=0x0:0xe581b67cb097c470";""
"toko bangunan";"toko bangunan";"Bangun";"Kec. Sepauk, Kabupaten Sintang, Kalimantan Barat";"Kabupaten Sintang, Kalimantan Barat";"PAPUA";"";"Indonesia";"";"";"";"-0.2180552";"111.1771918";"https://maps.google.com/?cid=0x0:0x44157ff85719c73";""
"toko bangunan";"Toko bahan makanan";"Toko Bangun";"Madrasah Samping, Jl. Pekayon Gg. Rembani III No.1 14, RT.3/RW.1, Pekayon, Kec. Ps. Rebo, Kota Jakarta Timur, Daerah Khusus Ibukota Jakarta 13710";"Jl. Pekayon Gg. Rembani III No.1 14, RT.3/RW.1, Pekayon, Kec. Ps. Rebo, Kota Jakarta Timur";"PAPUA";"13710";"Indonesia";" 087887721999";"";"";"-6.342149";"106.8631025";"https://maps.google.com/?cid=0x0:0x546468b340d49270";""
"toko bangunan";"toko bangunan";"Papua";"";"Papua";"PAPUA";"";"Indonesia";"";"";"";"-4.269928";"138.0803529";"https://maps.google.com/?cid=0x0:0xeba94e9c5eefe673";""
"toko bangunan";"Toko bahan makanan";"Toko Hasibuan";"Jl. Telaga No.13, RT.13/RW.9, Pekayon, Kec. Ps. Rebo, Kota Jakarta Timur, Daerah Khusus Ibukota Jakarta 13710";"RT.13/RW.9, Pekayon, Kec. Ps. Rebo, Kota Jakarta Timur";"PAPUA";"13710";"Indonesia";" 081378326362";"";"";"-6.3467525";"106.8577681";"https://maps.google.com/?cid=0x0:0x1b744c578981f30d";""
"toko bangunan";"toko bangunan";"Kec. Assue";"Kabupaten Mappi, Papua";"Kabupaten Mappi, Papua";"PAPUA";"";"Indonesia";"";"";"";"-5.9386763";"139.1625989";"https://maps.google.com/?cid=0x0:0x59165bc210ecd15e";""
"toko bangunan";"toko bangunan";"Papua 99874";"Kabupaten Mappi, Papua";"Kabupaten Mappi, Papua";"PAPUA";"";"Indonesia";"";"";"";"-5.8215295";"138.9605972";"https://maps.google.com/?cid=0x0:0xac074e8d0ff33f49";""
"toko bangunan";"Toko Bahan Bangunan";"Toko Bangunan Suka Jaya Official";"Jl. Lautze No.162a, Kartini, Kecamatan Sawah Besar, Kota Jakarta Pusat, Daerah Khusus Ibukota Jakarta 10750";"Kartini, Kecamatan Sawah Besar, Kota Jakarta Pusat";"PAPUA";"10750";"Indonesia";" 085100088193";"";"";"-6.1583384";"106.8317326";"https://maps.google.com/?cid=0x0:0xb6636cfb9ac2deb3";""
"toko bangunan";"toko bangunan";"Papua 99875";"Kabupaten Mappi, Papua";"Kabupaten Mappi, Papua";"PAPUA";"";"Indonesia";"";"";"";"-5.8045486";"139.5279996";"https://maps.google.com/?cid=0x0:0x3c002283937ac804";""
"toko bangunan";"toko bangunan";"Kaibar";"Kabupaten Mappi, Papua";"Kabupaten Mappi, Papua";"PAPUA";"";"Indonesia";"";"";"";"-5.648821";"139.6503106";"https://maps.google.com/?cid=0x0:0x2abae84f57ef7c51";""
"toko bangunan";"Pasar bahan bangunan";"Karya Baru";"No 30 Cirendeu Ciputat Timur, Jl. Gn. Raya, Cireundeu, Kec. Ciputat Tim., Kota Tangerang Selatan, Banten 15419";"Jl. Gn. Raya, Cireundeu, Kec. Ciputat Tim., Kota Tangerang Selatan";"PAPUA";"15419";"Indonesia";" 0217423437";"";"";"-6.3106131";"106.7679631";"https://maps.google.com/?cid=0x0:0x3bcfb4ed47b9c90c";""
"toko bangunan";"toko bangunan";"Papua 99871";"Kabupaten Mappi, Papua";"Kabupaten Mappi, Papua";"PAPUA";"";"Indonesia";"";"";"";"-6.3989856";"139.4466005";"https://maps.google.com/?cid=0x0:0xc5ece3ae73b47f90";""
"toko bangunan";"Toko";"Toko Pratiwi";"F842+FWC, Obaa, Kec. Obaa, Kabupaten Mappi, Papua 99881";"Obaa, Kec. Obaa, Kabupaten Mappi";"PAPUA";"99881";"Indonesia";"";"";"";"-6.5438187";"139.3022593";"https://maps.google.com/?cid=0x0:0xf692adb797283f91";""
"toko bangunan";"toko bangunan";"Putra Mandiri SAWMILL";"C7H6+PMM, Jl. Irian Kepi, Kepi, Kec. Obaa, Kabupaten Mappi, Papua 99881";"Jl. Irian Kepi, Kepi, Kec. Obaa, Kabupaten Mappi";"PAPUA";"99881";"Indonesia";" 082399005557";"";"";"-6.5706553";"139.2616702";"https://maps.google.com/?cid=0x0:0x28c13668c092d2f5";""
"toko bangunan";"toko bangunan";"Kec. Passue";"Kabupaten Mappi, Papua";"Kabupaten Mappi, Papua";"PAPUA";"";"Indonesia";"";"";"";"-6.3845424";"139.6503106";"https://maps.google.com/?cid=0x0:0x72dcf77146b3adf7";""
"toko bangunan";"toko bangunan";"Distrik Minyamur";"Kabupaten Mappi, Papua";"Kabupaten Mappi, Papua";"PAPUA";"";"Indonesia";"";"";"";"-6.5749178";"138.8397403";"https://maps.google.com/?cid=0x0:0xaf9d6fba8ca5978b";""
"toko bangunan";"Toko Bahan Bangunan";"Toko Bangunan "Mamur"";"Sukaraja, Kec. Tambelang, Kabupaten Bekasi, Jawa Barat";"Kabupaten Bekasi, Jawa Barat";"PAPUA";"";"Indonesia";"";"";"";"-6.2036557";"107.1162174";"https://maps.google.com/?cid=0x0:0xc0fc48779036676a";""
"toko bangunan";"Pemasok Bahan Bangunan";"Toko Bangunan Anugrah Mandiri - 3";"Kedungwaringin, Kec. Kedungwaringin, Kabupaten Bekasi, Jawa Barat";"Kabupaten Bekasi, Jawa Barat";"PAPUA";"";"Indonesia";"";"";"";"-6.2570132";"107.2633713";"https://maps.google.com/?cid=0x0:0xe42b095747bccea5";""
"toko bangunan";"toko bangunan";"Venaha";"Kabupaten Mappi, Papua";"Kabupaten Mappi, Papua";"PAPUA";"";"Indonesia";"";"";"";"-6.7168056";"139.9366899";"https://maps.google.com/?cid=0x0:0xddadbc1f3a828d9c";""
"toko bangunan";"toko bangunan";"Papua 99853";"Kabupaten Mappi, Papua";"Kabupaten Mappi, Papua";"PAPUA";"";"Indonesia";"";"";"";"-7.1527149";"139.5279996";"https://maps.google.com/?cid=0x0:0x8030f37c187cbb11";""
"toko bangunan";"Toko";"Toko Pratiwi";"F842+FWC, Obaa, Kec. Obaa, Kabupaten Mappi, Papua 99881";"Obaa, Kec. Obaa, Kabupaten Mappi";"PAPUA";"99881";"Indonesia";"";"";"";"-6.5438187";"139.3022593";"https://maps.google.com/?cid=0x0:0xf692adb797283f91";""
"toko bangunan";"Toko Bahan Bangunan";"Bahan Bangunan  Sparepart DIPAJAYA";"Jl. Perintis, Bumi Wonorejo, Distrik Nabire, Kabupaten Nabire, Papua 98813";"Bumi Wonorejo, Distrik Nabire, Kabupaten Nabire";"PAPUA";"98813";"Indonesia";" 085242353535";"";"";"-3.3901568";"135.4882999";"https://maps.google.com/?cid=0x0:0x2e1f4e55f23f8c6f";""
"toko bangunan";"toko bangunan";"Putra Mandiri SAWMILL";"C7H6+PMM, Jl. Irian Kepi, Kepi, Kec. Obaa, Kabupaten Mappi, Papua 99881";"Jl. Irian Kepi, Kepi, Kec. Obaa, Kabupaten Mappi";"PAPUA";"99881";"Indonesia";" 082399005557";"";"";"-6.5706553";"139.2616702";"https://maps.google.com/?cid=0x0:0x28c13668c092d2f5";""
"toko bangunan";"Toko Perlengkapan Rumah";"PT. Mudita Jaya";"F899+4P2, Jl. Irian Kepi, Obaa, Kec. Obaa, Kabupaten Mappi, Papua 99881";"Jl. Irian Kepi, Obaa, Kec. Obaa, Kabupaten Mappi";"PAPUA";"99881";"Indonesia";"";"";"";"-6.5322385";"139.3192611";"https://maps.google.com/?cid=0x0:0x2bbdd75588e442cb";""
"toko bangunan";"Toko Perlengkapan Rumah";"Batu bata kilo 8";"C7J9+FHC, Jl. Irian Kepi, Kepi, Kec. Obaa, Kabupaten Mappi, Papua 99881";"Jl. Irian Kepi, Kepi, Kec. Obaa, Kabupaten Mappi";"PAPUA";"99881";"Indonesia";"";"";"";"-6.5681291";"139.2685456";"https://maps.google.com/?cid=0x0:0x8c512660faed3c63";""
"toko bangunan";"toko bangunan";"Papua 99853";"Kabupaten Mappi, Papua";"Kabupaten Mappi, Papua";"PAPUA";"";"Indonesia";"";"";"";"-7.1527149";"139.5279996";"https://maps.google.com/?cid=0x0:0x8030f37c187cbb11";""
"toko bangunan";"Toko Bahan Bangunan";"TB Kurnia Abadi";"Jl. Raya Kp. Sawah, RT.003/RW.002, Jatimurni, Kec. Pd. Melati, Kota Bks, Jawa Barat 17431";"RT.003/RW.002, Jatimurni, Kec. Pd. Melati, Kota Bks";"PAPUA";"17431";"Indonesia";" 0218448919";"";"";"-6.3264015";"106.9368254";"https://maps.google.com/?cid=0x0:0x30080f79937aeb13";""
"toko bangunan";"Toko Bahan Bangunan";"TB. Jaya Mas";"Jl. Raya Kp. Sawah, RT.004/RW.002, Jatimelati, Kec. Pd. Melati, Kota Bks, Jawa Barat 17415";"RT.004/RW.002, Jatimelati, Kec. Pd. Melati, Kota Bks";"PAPUA";"17415";"Indonesia";" 081329758889";"";"";"-6.3282374";"106.9362722";"https://maps.google.com/?cid=0x0:0x76acb15532d988ee";""
"toko bangunan";"toko bangunan";"Distrik Bamgi";"Kabupaten Mappi, Papua";"Kabupaten Mappi, Papua";"PAPUA";"";"Indonesia";"";"";"";"-6.9040338";"139.5081534";"https://maps.google.com/?cid=0x0:0xf07d873e100723e1";""
"toko bangunan";"Toko Bahan Bangunan";"TB. Bangi";"Jl. Parangtritis No.8, Dadapan, Timbulharjo, Kec. Sewon, Kabupaten Bantul, Daerah Istimewa Yogyakarta 55188";"Dadapan, Timbulharjo, Kec. Sewon, Kabupaten Bantul";"PAPUA";"55188";"Indonesia";"";"";"";"-7.8655519";"110.3522436";"https://maps.google.com/?cid=0x0:0xeaf91c21728994a3";""
"toko bangunan";"Toko Bahan Bangunan";"TB Sendang Mulyo";"Jl. Parangtritis No.7, Cabean, Panggungharjo, Kec. Sewon, Kabupaten Bantul, Daerah Istimewa Yogyakarta 55188";"Cabean, Panggungharjo, Kec. Sewon, Kabupaten Bantul";"PAPUA";"55188";"Indonesia";"";"";"";"-7.859816";"110.354365";"https://maps.google.com/?cid=0x0:0xd57c1beda2267c35";""
"toko bangunan";"toko bangunan";"Distrik Syahcame";"Kabupaten Mappi, Papua";"Kabupaten Mappi, Papua";"PAPUA";"";"Indonesia";"";"";"";"-6.92665";"139.6493658";"https://maps.google.com/?cid=0x0:0x731f2b6c588c36e1";""
"toko bangunan";"Toko Bahan Bangunan";"Tb Bangunan Sepuluh";"Jl. Palmerah Utara III No.11 4, RT.6/RW.6, Palmerah, Kec. Palmerah, Kota Jakarta Barat, Daerah Khusus Ibukota Jakarta 11480";"RT.6/RW.6, Palmerah, Kec. Palmerah, Kota Jakarta Barat";"PAPUA";"11480";"Indonesia";" 0215480111";"";"";"-6.2041505";"106.7937941";"https://maps.google.com/?cid=0x0:0x837ee0867a1730ba";""
"toko bangunan";"toko bangunan";"Toko Setia Jaya";"Jalur 1 Pemukiman, Massi, Dekai, Yahukimo regency, Papua 99571";"Massi, Dekai, Yahukimo regency";"PAPUA";"99571";"Indonesia";"";"";"";"-4.868089";"139.4804649";"https://maps.google.com/?cid=0x0:0x51d179f2b2120307";""
"toko bangunan";"toko bangunan";"Papua 99875";"Kabupaten Mappi, Papua";"Kabupaten Mappi, Papua";"PAPUA";"";"Indonesia";"";"";"";"-5.8045486";"139.5279996";"https://maps.google.com/?cid=0x0:0x3c002283937ac804";""
"toko bangunan";"Toko Bahan Bangunan";"Toko Multi Bangunan";"Q97H+9V2, Sarafambai, Kec. Waropen Bawah, Kabupaten Waropen, Papua 98261";"Sarafambai, Kec. Waropen Bawah, Kabupaten Waropen";"PAPUA";"98261";"Indonesia";"";"";"";"-2.2366153";"136.3796343";"https://maps.google.com/?cid=0x0:0x8fe10ca526096f47";""
"toko bangunan";"Toko Perlengkapan Rumah";"Toko Bangunan URI";"Q93M+R2X, Uri, Kec. Waropen Bawah, Kabupaten Waropen, Papua 98261";"Uri, Kec. Waropen Bawah, Kabupaten Waropen";"PAPUA";"98261";"Indonesia";"";"";"";"-2.24502";"136.382778";"https://maps.google.com/?cid=0x0:0xedc722ce6d2e6662";""
"toko bangunan";"toko bangunan";"Distrik Ti Zain";"Kabupaten Mappi, Papua";"Kabupaten Mappi, Papua";"PAPUA";"";"Indonesia";"";"";"";"-5.4019657";"139.7132729";"https://maps.google.com/?cid=0x0:0xd1cf1b07f8359ef9";""
"toko bangunan";"Toko Bahan Bangunan";"Zain jaya gibsum";"Zain jaya gubsum, Jl. Poltangan Raya No.4, RT.2/RW.04, Pejaten Timur, Ps. Minggu, Daerah Khusus Ibukota Jakarta 12520";"Jl. Poltangan Raya No.4, RT.2/RW.04, Pejaten Timur, Ps. Minggu";"PAPUA";"12520";"Indonesia";" 087721778444";"";"";"-6.2954173";"106.8421625";"https://maps.google.com/?cid=0x0:0xad685aa308b222cf";""
"toko bangunan";"Toko Perlengkapan Rumah";"TB.H.M.Zaini";"Jl. Raya Tj. Barat No.108 3, RT.3/RW.4, Tj. Bar., Kec. Jagakarsa, Kota Jakarta Selatan, Daerah Khusus Ibukota Jakarta 12530";"RT.3/RW.4, Tj. Bar., Kec. Jagakarsa, Kota Jakarta Selatan";"PAPUA";"12530";"Indonesia";" 0217890106";"";"";"-6.299965";"106.8407519";"https://maps.google.com/?cid=0x0:0xfea84bcc6d3acf";""
"hardware store";"hardware store";"Papua 99871";"Kabupaten Mappi, Papua";"Kabupaten Mappi, Papua";"PAPUA";"";"Indonesia";"";"";"";"-6.3989856";"139.4466005";"https://maps.google.com/?cid=0x0:0xc5ece3ae73b47f90";""
"hardware store";"Toko";"Toko Pratiwi";"F842+FWC, Obaa, Kec. Obaa, Kabupaten Mappi, Papua 99881";"Obaa, Kec. Obaa, Kabupaten Mappi";"PAPUA";"99881";"Indonesia";"";"";"";"-6.5438187";"139.3022593";"https://maps.google.com/?cid=0x0:0xf692adb797283f91";""
"hardware store";"Kios";"Toko mapindah";"C7QW+329, Jl. Irian Kepi, Kepi, Kec. Obaa, Kabupaten Mappi, Papua 99881";"Jl. Irian Kepi, Kepi, Kec. Obaa, Kabupaten Mappi";"PAPUA";"99881";"Indonesia";" 085244628500";"";"";"-6.5623408";"139.2951182";"https://maps.google.com/?cid=0x0:0x20ee14a060041558";""
"hardware store";"Toko";"AZKO BOGOR- Warung Jambu";"Jl. Raya Pajajaran No.19 A-E, Bantarjati, Kec. Bogor Utara, Kota Bogor, Jawa Barat 16153";"Bantarjati, Kec. Bogor Utara, Kota Bogor";"PAPUA";"16153";"Indonesia";" 085280681001";"";"";"-6.5709747";"106.8090147";"https://maps.google.com/?cid=0x0:0x9ff14f50d8a48c72";""
"hardware store";"Toko Swalayan";"Warung wa ace";"Jl. Rangga Mekar Kp.Patas No.45, RT.01/RW.08, Ranggamekar, Kec. Bogor Sel., Kota Bogor, Jawa Barat 16136";"RT.01/RW.08, Ranggamekar, Kec. Bogor Sel., Kota Bogor";"PAPUA";"16136";"Indonesia";"";"";"";"-6.6222472";"106.8004473";"https://maps.google.com/?cid=0x0:0x4dd0ba1f6cb13910";""
"hardware store";"hardware store";"Papua 99875";"Kabupaten Mappi, Papua";"Kabupaten Mappi, Papua";"PAPUA";"";"Indonesia";"";"";"";"-5.8045486";"139.5279996";"https://maps.google.com/?cid=0x0:0x3c002283937ac804";""
"hardware store";"Toko Bahan Bangunan";"CitiHardware Bulua";"GJ3C+8GC, Mother of Pepertual Help Ave, Cagayan De Oro City, 8000 Misamis Oriental, Filipina";"Cagayan De Oro City, Misamis Oriental, Filipina";"PAPUA";"";"Indonesia";" +63888581846";"";"";"8.5033148";"124.6212652";"https://maps.google.com/?cid=0x0:0x9e37a28011dc8324";""
"hardware store";"Toko Bahan Bangunan";"CDO Hardware  Electrical Supply";"FMQ3+RVX, Osmena Ext, Cagayan De Oro City, 9000 Misamis Oriental, Filipina";"Cagayan De Oro City, Misamis Oriental, Filipina";"PAPUA";"";"Indonesia";" +63888572534";"";"";"8.4896017";"124.6547406";"https://maps.google.com/?cid=0x0:0x7ecf61271c060696";""
"hardware store";"hardware store";"Citakmitak";"Kabupaten Mappi, Papua";"Kabupaten Mappi, Papua";"PAPUA";"";"Indonesia";"";"";"";"-5.8202155";"139.3247147";"https://maps.google.com/?cid=0x0:0xa6f0a4c02cdb66dc";""
"hardware store";"hardware store";"Papua 99853";"Kabupaten Mappi, Papua";"Kabupaten Mappi, Papua";"PAPUA";"";"Indonesia";"";"";"";"-7.1527149";"139.5279996";"https://maps.google.com/?cid=0x0:0x8030f37c187cbb11";""
"hardware store";"Toko";"Toko Pratiwi";"F842+FWC, Obaa, Kec. Obaa, Kabupaten Mappi, Papua 99881";"Obaa, Kec. Obaa, Kabupaten Mappi";"PAPUA";"99881";"Indonesia";"";"";"";"-6.5438187";"139.3022593";"https://maps.google.com/?cid=0x0:0xf692adb797283f91";""
"hardware store";"hardware store";"Papua 99881";"Kabupaten Mappi, Papua";"Kabupaten Mappi, Papua";"PAPUA";"";"Indonesia";"";"";"";"-6.2344696";"139.1221414";"https://maps.google.com/?cid=0x0:0x16d53cf515d4db1d";""
"hardware store";"Kios";"Toko mapindah";"C7QW+329, Jl. Irian Kepi, Kepi, Kec. Obaa, Kabupaten Mappi, Papua 99881";"Jl. Irian Kepi, Kepi, Kec. Obaa, Kabupaten Mappi";"PAPUA";"99881";"Indonesia";" 085244628500";"";"";"-6.5623408";"139.2951182";"https://maps.google.com/?cid=0x0:0x20ee14a060041558";""
"hardware store";"Kantor Perusahaan";"PT Haju Medical Indonesia";"Tifa Arum Realty, Jl. Kuningan Bar. 1 No.26 Lt 8, RT.6/RW.1, Kuningan Bar., Kec. Mampang Prpt., Kota Jakarta Selatan, Daerah Khusus Ibukota Jakarta 12760";"Jl. Kuningan Bar. 1 No.26 Lt 8, RT.6/RW.1, Kuningan Bar., Kec. Mampang Prpt., Kota Jakarta Selatan";"PAPUA";"12760";"Indonesia";" 02127088686";"";"";"-6.2350036";"106.8204266";"https://maps.google.com/?cid=0x0:0x69ec7651bcfe2002";""
"hardware store";"hardware store";"Hardware";"Jl. Warung Jati Barat No.39 1, RT.1/RW.5, Jati Padang, Ps. Minggu, Kota Jakarta Selatan, Daerah Khusus Ibukota Jakarta 12550";"RT.1/RW.5, Jati Padang, Ps. Minggu, Kota Jakarta Selatan";"PAPUA";"12550";"Indonesia";"";"";"";"-6.280644";"106.8289849";"https://maps.google.com/?cid=0x0:0x4fce0f9d6b04072d";""
"hardware store";"Toko Perlengkapan Rumah";"Azko Radio Dalam";"Jl. Radio Dalam Raya No.17B 10, RT.10/RW.1, Gandaria Utara, Kec. Kby. Baru, Kota Jakarta Selatan, Daerah Khusus Ibukota Jakarta 12140";"RT.10/RW.1, Gandaria Utara, Kec. Kby. Baru, Kota Jakarta Selatan";"PAPUA";"12140";"Indonesia";" 081584851025";"";"";"-6.251579";"106.791724";"https://maps.google.com/?cid=0x0:0x923642051933a42b";""
"hardware store";"Toko Perlengkapan Rumah";"Azko Panglima Polim";"PQXX+M28, Jl. Panglima Polim No.73 1, Melawai, Kec. Kby. Baru, Kota Jakarta Selatan, Daerah Khusus Ibukota Jakarta 12160";"Jl. Panglima Polim No.73 1, Melawai, Kec. Kby. Baru, Kota Jakarta Selatan";"PAPUA";"12160";"Indonesia";" 085215450928";"";"";"-6.2507589";"106.7976592";"https://maps.google.com/?cid=0x0:0x58721b3df20e0768";""
"hardware store";"hardware store";"Kec. Assue";"Kabupaten Mappi, Papua";"Kabupaten Mappi, Papua";"PAPUA";"";"Indonesia";"";"";"";"-5.9386763";"139.1625989";"https://maps.google.com/?cid=0x0:0x59165bc210ecd15e";""
"hardware store";"Grosir alat";"Mesin HL Power Tools, JAKARTA";"Jl. Pesing Poglar No.18, Kedaung Kali Angke, Kecamatan Cengkareng, Kota Jakarta Barat, Daerah Khusus Ibukota Jakarta 11710";"Kedaung Kali Angke, Kecamatan Cengkareng, Kota Jakarta Barat";"PAPUA";"11710";"Indonesia";" 081350007220";"";"";"-6.1539883";"106.7695081";"https://maps.google.com/?cid=0x0:0xb8c2f7e9f0bc9d34";""
"hardware store";"hardware store";"Papua 99875";"Kabupaten Mappi, Papua";"Kabupaten Mappi, Papua";"PAPUA";"";"Indonesia";"";"";"";"-5.8045486";"139.5279996";"https://maps.google.com/?cid=0x0:0x3c002283937ac804";""
"hardware store";"hardware store";"Kaibar";"Kabupaten Mappi, Papua";"Kabupaten Mappi, Papua";"PAPUA";"";"Indonesia";"";"";"";"-5.648821";"139.6503106";"https://maps.google.com/?cid=0x0:0x2abae84f57ef7c51";""
"hardware store";"Toko Perlengkapan Rumah";"AZKO Kalibata City";"Jl. Raya Kalibata No.1 Unit AN.Q2, RT.9/RW.4, Rawajati, Kec. Pancoran, Kota Jakarta Selatan, Daerah Khusus Ibukota Jakarta 12750";"RT.9/RW.4, Rawajati, Kec. Pancoran, Kota Jakarta Selatan";"PAPUA";"12750";"Indonesia";" 0895365442106";"";"";"-6.2570137";"106.8533033";"https://maps.google.com/?cid=0x0:0xc74d49c8ad649013";""
"hardware store";"Pusat Perbelanjaan";"Kalibata city square";"Jl. Raya Kalibata No.1, Rawajati, Kec. Pancoran, Kota Jakarta Selatan, Daerah Khusus Ibukota Jakarta 12750";"Rawajati, Kec. Pancoran, Kota Jakarta Selatan";"PAPUA";"12750";"Indonesia";"";"";"";"-6.2562715";"106.8521776";"https://maps.google.com/?cid=0x0:0x59db28d93506d0e6";""
"hardware store";"hardware store";"Papua 99871";"Kabupaten Mappi, Papua";"Kabupaten Mappi, Papua";"PAPUA";"";"Indonesia";"";"";"";"-6.3989856";"139.4466005";"https://maps.google.com/?cid=0x0:0xc5ece3ae73b47f90";""
"hardware store";"Toko";"Toko Pratiwi";"F842+FWC, Obaa, Kec. Obaa, Kabupaten Mappi, Papua 99881";"Obaa, Kec. Obaa, Kabupaten Mappi";"PAPUA";"99881";"Indonesia";"";"";"";"-6.5438187";"139.3022593";"https://maps.google.com/?cid=0x0:0xf692adb797283f91";""
"hardware store";"Kios";"Toko mapindah";"C7QW+329, Jl. Irian Kepi, Kepi, Kec. Obaa, Kabupaten Mappi, Papua 99881";"Jl. Irian Kepi, Kepi, Kec. Obaa, Kabupaten Mappi";"PAPUA";"99881";"Indonesia";" 085244628500";"";"";"-6.5623408";"139.2951182";"https://maps.google.com/?cid=0x0:0x20ee14a060041558";""
"hardware store";"Toko Bahan Bangunan";"IDEAL Hardware Erima";"H663+G96, Hubert Murray Hwy, Port Moresby National Capital District, Papua Nugini";"Port Moresby, Papua Nugini";"PAPUA";"";"Indonesia";"";"";"";"-9.4387057";"147.2033947";"https://maps.google.com/?cid=0x0:0xb0747cd07f864f3";""
"hardware store";"Toko Perkakas";"Perkakas Jakarta";"Jln.Pesanggrahan 6 Rt 07, Kel No.11 12, RT.6/RW.6, Pademangan Tim., Kec. Pademangan, Jkt Utara, Daerah Khusus Ibukota Jakarta 14410";"Kel No.11 12, RT.6/RW.6, Pademangan Tim., Kec. Pademangan, Jkt Utara";"PAPUA";"14410";"Indonesia";" 08988371124";"";"";"-6.1307825";"106.8481676";"https://maps.google.com/?cid=0x0:0x241d77b9ca3c4798";""
"hardware store";"Toko Perkakas";"Perkakas Kita";"Jl. Raya Cilincing No.2, RT.14/RW.16, Semper Bar., Kec. Cilincing, Jkt Utara, Daerah Khusus Ibukota Jakarta 14270";"RT.14/RW.16, Semper Bar., Kec. Cilincing, Jkt Utara";"PAPUA";"14270";"Indonesia";" 02162304044";"";"";"-6.1085613";"106.9172528";"https://maps.google.com/?cid=0x0:0x445ca3c302dba075";""
"hardware store";"Toko Bahan Bangunan";"BNBM Hardware Josey Branch";"7XMX+QXJ, Lae Morobe Province, Papua Nugini";"Lae, Papua Nugini";"PAPUA";"";"Indonesia";" +6754726966";"";"";"-6.7155252";"146.999905";"https://maps.google.com/?cid=0x0:0x4f7bc859955e86dc";""
"hardware store";"Toko Bahan Bangunan";"BNBM HARDWARE MALAITA BRANCH";"7X9Q+CXG, Lae 411 Morobe Province, Papua Nugini";"Lae, Papua Nugini";"PAPUA";"";"Indonesia";" +6754726155";"";"";"-6.7314343";"146.9899444";"https://maps.google.com/?cid=0x0:0xfea39eacef5b698e";""
"hardware store";"hardware store";"Distrik Minyamur";"Kabupaten Mappi, Papua";"Kabupaten Mappi, Papua";"PAPUA";"";"Indonesia";"";"";"";"-6.5749178";"138.8397403";"https://maps.google.com/?cid=0x0:0xaf9d6fba8ca5978b";""
"hardware store";"hardware store";"Venaha";"Kabupaten Mappi, Papua";"Kabupaten Mappi, Papua";"PAPUA";"";"Indonesia";"";"";"";"-6.7168056";"139.9366899";"https://maps.google.com/?cid=0x0:0xddadbc1f3a828d9c";""
"hardware store";"Toko";"Toko Pratiwi";"F842+FWC, Obaa, Kec. Obaa, Kabupaten Mappi, Papua 99881";"Obaa, Kec. Obaa, Kabupaten Mappi";"PAPUA";"99881";"Indonesia";"";"";"";"-6.5438187";"139.3022593";"https://maps.google.com/?cid=0x0:0xf692adb797283f91";""
"hardware store";"Toko bahan makanan";"TOKO USAHA BARU";"Jl. Irian Kepi, Obaa, Kec. Obaa, Kabupaten Mappi, Papua 99881";"Obaa, Kec. Obaa, Kabupaten Mappi";"PAPUA";"99881";"Indonesia";"";"";"";"-6.5391306";"139.306755";"https://maps.google.com/?cid=0x0:0x70a5d264b88f1aed";""
"hardware store";"Toko Bahan Bangunan";"Viva Hardware Kemaman- Supermarket Bahan Bangunan";"Batu 2, Jalan Air Putih, Kampung Jaya, 24000 Chukai, Terengganu, Malaysia";"Chukai";"PAPUA";"24000";"Indonesia";" +601115453353";"";"";"4.239267";"103.3991514";"https://maps.google.com/?cid=0x0:0x48a2db3707f12a82";""
"hardware store";"hardware store";"Papua 99853";"Kabupaten Mappi, Papua";"Kabupaten Mappi, Papua";"PAPUA";"";"Indonesia";"";"";"";"-7.1527149";"139.5279996";"https://maps.google.com/?cid=0x0:0x8030f37c187cbb11";""
"hardware store";"hardware store";"Yakomi";"Kabupaten Mappi, Papua";"Kabupaten Mappi, Papua";"PAPUA";"";"Indonesia";"";"";"";"-7.0968657";"139.9777136";"https://maps.google.com/?cid=0x0:0x53b07922dc974e00";""
"hardware store";"Toko Alat-Alat";"JP HARDWARE - CV.Juara Perkakas Handal";"Jl. Jambon No.30B, Biru, Trihanggo, Kec. Gamping, Kabupaten Sleman, Daerah Istimewa Yogyakarta 55291";"Biru, Trihanggo, Kec. Gamping, Kabupaten Sleman";"PAPUA";"55291";"Indonesia";" 081226261512";"";"";"-7.7629259";"110.3472355";"https://maps.google.com/?cid=0x0:0xc928dc971f8d2edd";""
"hardware store";"Toko Bahan Bangunan";"Binaan Jaya Hardware (Perniagaan Bahan-Bahan Binaan Jaya)";"Lot 6931, Batu 24, Jalan Bangi Lama, Kajang, 43000 Bangi, Selangor, Malaysia";"Bangi";"PAPUA";"43000";"Indonesia";" +60123129806";"";"";"2.9016258";"101.7782589";"https://maps.google.com/?cid=0x0:0xe964a9d1537458d8";""
"hardware store";"Toko Bahan Bangunan";"URBAN HARDWARE SDN BHD-BRANCH TAMAN AWANI BANGI";"TAMAN AWANI, 3A-G, Jalan Awani Bangi 1/1, TAMAN AWANI BANGI, 43000 Bangi, Selangor, Malaysia";"Bangi";"PAPUA";"43000";"Indonesia";" +60176263318";"";"";"2.8978392";"101.7775873";"https://maps.google.com/?cid=0x0:0xf250f14006340327";""
"hardware store";"Toko Bahan Bangunan";"THE ONE HARDWARAE(Seksyen 3) Hardware Sdn. Bhd.";"31A, Jalan 3/69, Seksyen 3 Bandar Baru Bangi, 43650 Bandar Baru Bangi, Selangor, Malaysia";"Bandar Baru Bangi";"PAPUA";"43650";"Indonesia";" +60124136691";"";"";"2.9378274";"101.774265";"https://maps.google.com/?cid=0x0:0x5919e011cfd2be1e";""
"hardware store";"Toko Bahan Bangunan";"Keris Hardware Supply";"No.26, Jalan 7/7b, Seksyen 7, 43650 Bandar Baru Bangi, Selangor, Malaysia";"Bandar Baru Bangi";"PAPUA";"43650";"Indonesia";" +60389208471";"";"";"2.9698635";"101.7733127";"https://maps.google.com/?cid=0x0:0x41534ac35bf06381";""
"hardware store";"Toko Reparasi Mandiri";"TUKANG Hardware";"Jalan 7/1b, Seksyen 7 Bandar Baru Bangi, 43650 Bandar Baru Bangi, Selangor, Malaysia";"Bandar Baru Bangi";"PAPUA";"43650";"Indonesia";" +60122749200";"";"";"2.9672666";"101.7753509";"https://maps.google.com/?cid=0x0:0x30bc208a1e4ee0e8";""
"hardware store";"Toko Bahan Bangunan";"Kentat Hardware Trading";"103-G, Jalan 8/1, Seksyen 8, Bandar Baru Bangi, Bangi, 43650 Bandar Baru Bangi, Selangor, Malaysia";"Bandar Baru Bangi";"PAPUA";"43650";"Indonesia";" +60389221322";"";"";"2.964003";"101.755063";"https://maps.google.com/?cid=0x0:0x319894b3b744d1f8";""
"hardware store";"Toko Bahan Bangunan";"Sing Chiew Hardware Trading Sdn Bhd";"LOT 779 BATU 18 3/4 JALAN REKO 43000 KAJANG, 43000 Bangi, Selangor, Malaysia";"KAJANG";"PAPUA";"43000";"Indonesia";" +60162332061";"";"";"2.9431739";"101.78522";"https://maps.google.com/?cid=0x0:0xf6f194cf9811c9f7";""
"hardware store";"Toko Bahan Bangunan";"Kentat Hardware Enterprise";"10, Jalan 15/1b, Seksyen 15, 43650 Bandar Baru Bangi, Selangor, Malaysia";"Bandar Baru Bangi";"PAPUA";"43650";"Indonesia";" +60389267322";"";"";"2.9337178";"101.7681802";"https://maps.google.com/?cid=0x0:0x678de070809f3879";""
"hardware store";"Toko Bahan Bangunan";"M  T Trading";"NO.9, Jalan 12/1, Seksyen 12, 43650 Bandar Baru Bangi, Selangor, Malaysia";"Bandar Baru Bangi";"PAPUA";"43650";"Indonesia";" +60389262713";"";"";"2.941987";"101.7508404";"https://maps.google.com/?cid=0x0:0x1059055e052c28c7";""
"hardware store";"Toko Bahan Bangunan";"United Hardware Trading";"13, Jalan 12/1, Seksyen 12, 43650 Bandar Baru Bangi, Selangor, Malaysia";"Bandar Baru Bangi";"PAPUA";"43650";"Indonesia";" +60189029391";"";"";"2.9419193";"101.7507724";"https://maps.google.com/?cid=0x0:0x3d7b3b91b715ca9e";""
"hardware store";"Toko Bahan Bangunan";"Vindech Hardware(Bangi) Sdn Bhd";"11, Jalan Seri Putra 1/4, Bandar Seri Putra Bangi, Bandar Seri Putra, 43000 Kajang, Selangor, Malaysia";"Kajang";"PAPUA";"43000";"Indonesia";" +60125241336";"";"";"2.8853412";"101.7908268";"https://maps.google.com/?cid=0x0:0x16643d8523131528";""
"hardware store";"Toko Bahan Bangunan";"Kumpulan Hardware Sdn Bhd.- Malaysia Hardware Store";"1A, MKH Avenue Sales Gallery, A-0-5, Jalan J-avenue, Bandar Kajang, 43000 Kajang, Selangor, Malaysia";"Kajang";"PAPUA";"43000";"Indonesia";" +60387366616";"";"";"2.9924106";"101.7920847";"https://maps.google.com/?cid=0x0:0x903c7ca87b2ec2ae";""
"hardware store";"Toko Bahan Bangunan";"FS Home Hardware";"13-AG, Jalan Hentian 1A, Pusat Hentian Kajang, Jalan Reko, Bandar Kajang, 43000 Kajang, Selangor, Malaysia";"Kajang";"PAPUA";"43000";"Indonesia";" +60126207855";"";"";"2.9565072";"101.7917633";"https://maps.google.com/?cid=0x0:0x8080553906ea111";""
"hardware store";"Toko Bahan Bangunan";"paku hardware HQ";"19, Jalan Seri Putra 3/12, Bandar Seri Putra, 43000 Kajang, Selangor, Malaysia";"Kajang";"PAPUA";"43000";"Indonesia";" +60389209272";"";"";"2.8877883";"101.7799206";"https://maps.google.com/?cid=0x0:0xa5db14705f4c75";""
"hardware store";"Toko Bahan Bangunan";"Casa Hardware";"575Q+7GR, Mount Hagen Western Highlands Province, Papua Nugini";"Mount Hagen, Papua Nugini";"PAPUA";"";"Indonesia";"";"";"";"-5.8417722";"144.288756";"https://maps.google.com/?cid=0x0:0x5572b0cd99723bb6";""
"hardware store";"Toko Perlengkapan Rumah";"Hardware Haus";"46PG+8P9, Highlands Hwy, Mount Hagen Western Highlands Province, Papua Nugini";"Mount Hagen, Papua Nugini";"PAPUA";"";"Indonesia";" +67573880325";"";"";"-5.8642066";"144.2268657";"https://maps.google.com/?cid=0x0:0x76e2d5c7034f0bfa";""
"hardware store";"Toko Alat-Alat";"Jo's Hardware";"QQXM+J7G, Jl. Kyai H. Syahdan, RT.7/RW.12, Palmerah, Kec. Palmerah, Kota Jakarta Barat, Daerah Khusus Ibukota Jakarta 11480";"Jl. Kyai H. Syahdan, RT.7/RW.12, Palmerah, Kec. Palmerah, Kota Jakarta Barat";"PAPUA";"11480";"Indonesia";"";"";"";"-6.2009431";"106.783196";"https://maps.google.com/?cid=0x0:0x70730d8244b2492";""
"hardware store";"Toko Perlengkapan Rumah";"Azko Radio Dalam";"Jl. Radio Dalam Raya No.17B 10, RT.10/RW.1, Gandaria Utara, Kec. Kby. Baru, Kota Jakarta Selatan, Daerah Khusus Ibukota Jakarta 12140";"RT.10/RW.1, Gandaria Utara, Kec. Kby. Baru, Kota Jakarta Selatan";"PAPUA";"12140";"Indonesia";" 081584851025";"";"";"-6.251579";"106.791724";"https://maps.google.com/?cid=0x0:0x923642051933a42b";""
"hardware store";"Toko Perlengkapan Rumah";"Azko Panglima Polim";"PQXX+M28, Jl. Panglima Polim No.73 1, Melawai, Kec. Kby. Baru, Kota Jakarta Selatan, Daerah Khusus Ibukota Jakarta 12160";"Jl. Panglima Polim No.73 1, Melawai, Kec. Kby. Baru, Kota Jakarta Selatan";"PAPUA";"12160";"Indonesia";" 085215450928";"";"";"-6.2507589";"106.7976592";"https://maps.google.com/?cid=0x0:0x58721b3df20e0768";""
"hardware store";"Toko Bahan Bangunan";"Ela Hardware  Stationery";"Kasagten Rd, Madang Madang Province, Papua Nugini";"Madang, Papua Nugini";"PAPUA";"";"Indonesia";" +67579206758";"";"";"-5.2107556";"145.8041402";"https://maps.google.com/?cid=0x0:0x1e01ee3b98cb0ba1";""
"hardware store";"Toko";"Adfexindo Multisakti";"RQPF+G4H, RT.3/RW.5, Kedoya Utara, Kec. Kb. Jeruk, Kota Jakarta Barat, Daerah Khusus Ibukota Jakarta 11520";"RT.3/RW.5, Kedoya Utara, Kec. Kb. Jeruk, Kota Jakarta Barat";"PAPUA";"11520";"Indonesia";" 02156940182";"";"";"-6.1636759";"106.7728624";"https://maps.google.com/?cid=0x0:0x5274bfcf80e76ed3";""
"hardware store";"Toko";"Toko Felix Jaya";"pintu air, 4, Jl. Adhi Karya Gg. H. Arifin No.14, RW.2, Kedoya Sel., Daerah Khusus Ibukota Jakarta 11520";"4, Jl. Adhi Karya Gg. H. Arifin No.14, RW.2, Kedoya Sel.";"PAPUA";"11520";"Indonesia";"";"";"";"-6.1780697";"106.7549248";"https://maps.google.com/?cid=0x0:0x4ca66bbea4e548c0";""
"hardware store";"hardware store";"Distrik Ti Zain";"Kabupaten Mappi, Papua";"Kabupaten Mappi, Papua";"PAPUA";"";"Indonesia";"";"";"";"-5.4019657";"139.7132729";"https://maps.google.com/?cid=0x0:0xd1cf1b07f8359ef9";""
"hardware store";"Toko Bahan Bangunan";"Zain jaya gibsum";"Damping TIKI, Jl. Poltangan Raya No.RT 01, RW.10, Pejaten Timur, Ps. Minggu, Daerah Khusus Ibukota Jakarta 12530";"Jl. Poltangan Raya No.RT 01, RW.10, Pejaten Timur, Ps. Minggu";"PAPUA";"12530";"Indonesia";" 087721778444";"";"";"-6.297287";"106.846039";"https://maps.google.com/?cid=0x0:0xe7d57fd076bf7279";""
"hardware store";"Toko Perlengkapan Rumah";"TB.H.M.Zaini";"Jl. Raya Tj. Barat No.108 3, RT.3/RW.4, Tj. Bar., Kec. Jagakarsa, Kota Jakarta Selatan, Daerah Khusus Ibukota Jakarta 12530";"RT.3/RW.4, Tj. Bar., Kec. Jagakarsa, Kota Jakarta Selatan";"PAPUA";"12530";"Indonesia";" 0217890106";"";"";"-6.299965";"106.8407519";"https://maps.google.com/?cid=0x0:0xfea84bcc6d3acf";""
"home improvement";"home improvement";"Papua 99871";"Kabupaten Mappi, Papua";"Kabupaten Mappi, Papua";"PAPUA";"";"Indonesia";"";"";"";"-6.3989856";"139.4466005";"https://maps.google.com/?cid=0x0:0xc5ece3ae73b47f90";""
"home improvement";"Toko";"Toko Pratiwi";"F842+FWC, Obaa, Kec. Obaa, Kabupaten Mappi, Papua 99881";"Obaa, Kec. Obaa, Kabupaten Mappi";"PAPUA";"99881";"Indonesia";"";"";"";"-6.5438187";"139.3022593";"https://maps.google.com/?cid=0x0:0xf692adb797283f91";""
"home improvement";"Komplek perumahan";"Azhera home";"F823+237, Kepi, Kec. Obaa, Kabupaten Mappi, Papua 99881";"Kepi, Kec. Obaa, Kabupaten Mappi";"PAPUA";"99881";"Indonesia";"";"";"";"-6.5500917";"139.3038";"https://maps.google.com/?cid=0x0:0x8e17977c535faad8";""
"home improvement";"Toko bahan makanan";"TOKO USAHA BARU";"Jl. Irian Kepi, Obaa, Kec. Obaa, Kabupaten Mappi, Papua 99881";"Obaa, Kec. Obaa, Kabupaten Mappi";"PAPUA";"99881";"Indonesia";"";"";"";"-6.5391306";"139.306755";"https://maps.google.com/?cid=0x0:0x70a5d264b88f1aed";""
"home improvement";"home improvement";"Papua 99875";"Kabupaten Mappi, Papua";"Kabupaten Mappi, Papua";"PAPUA";"";"Indonesia";"";"";"";"-5.8045486";"139.5279996";"https://maps.google.com/?cid=0x0:0x3c002283937ac804";""
"home improvement";"home improvement";"Citakmitak";"Kabupaten Mappi, Papua";"Kabupaten Mappi, Papua";"PAPUA";"";"Indonesia";"";"";"";"-5.8202155";"139.3247147";"https://maps.google.com/?cid=0x0:0xa6f0a4c02cdb66dc";""
"home improvement";"home improvement";"Papua 99853";"Kabupaten Mappi, Papua";"Kabupaten Mappi, Papua";"PAPUA";"";"Indonesia";"";"";"";"-7.1527149";"139.5279996";"https://maps.google.com/?cid=0x0:0x8030f37c187cbb11";""
"home improvement";"home improvement";"Papua 99881";"Kabupaten Mappi, Papua";"Kabupaten Mappi, Papua";"PAPUA";"";"Indonesia";"";"";"";"-6.2344696";"139.1221414";"https://maps.google.com/?cid=0x0:0x16d53cf515d4db1d";""
"home improvement";"Kantor Perusahaan";"PT Haju Medical Indonesia";"Tifa Arum Realty, Jl. Kuningan Bar. 1 No.26 Lt 8, RT.6/RW.1, Kuningan Bar., Kec. Mampang Prpt., Kota Jakarta Selatan, Daerah Khusus Ibukota Jakarta 12760";"Jl. Kuningan Bar. 1 No.26 Lt 8, RT.6/RW.1, Kuningan Bar., Kec. Mampang Prpt., Kota Jakarta Selatan";"PAPUA";"12760";"Indonesia";" 02127088686";"";"";"-6.2350036";"106.8204266";"https://maps.google.com/?cid=0x0:0x69ec7651bcfe2002";""
"home improvement";"Kantor Perusahaan";"Huayou Indonesia HeadQuarter";"Jl. Mega Kuningan Barat III No.Kav. 10 No.1 - 6, RT.3/RW.3, Kuningan, Kuningan Tim., Kecamatan Setiabudi, Kota Jakarta Selatan, Daerah Khusus Ibukota Jakarta 12950";"RT.3/RW.3, Kuningan, Kuningan Tim., Kecamatan Setiabudi, Kota Jakarta Selatan";"PAPUA";"12950";"Indonesia";"";"";"";"-6.2305603";"106.8238147";"https://maps.google.com/?cid=0x0:0x2148c30dded08c70";""
"home improvement";"home improvement";"Kec. Assue";"Kabupaten Mappi, Papua";"Kabupaten Mappi, Papua";"PAPUA";"";"Indonesia";"";"";"";"-5.9386763";"139.1625989";"https://maps.google.com/?cid=0x0:0x59165bc210ecd15e";""
"home improvement";"home improvement";"Papua 99874";"Kabupaten Mappi, Papua";"Kabupaten Mappi, Papua";"PAPUA";"";"Indonesia";"";"";"";"-5.8215295";"138.9605972";"https://maps.google.com/?cid=0x0:0xac074e8d0ff33f49";""
"home improvement";"home improvement";"Papua 99875";"Kabupaten Mappi, Papua";"Kabupaten Mappi, Papua";"PAPUA";"";"Indonesia";"";"";"";"-5.8045486";"139.5279996";"https://maps.google.com/?cid=0x0:0x3c002283937ac804";""
"home improvement";"home improvement";"Kaibar";"Kabupaten Mappi, Papua";"Kabupaten Mappi, Papua";"PAPUA";"";"Indonesia";"";"";"";"-5.648821";"139.6503106";"https://maps.google.com/?cid=0x0:0x2abae84f57ef7c51";""
"home improvement";"home improvement";"Kec. Passue";"Kabupaten Mappi, Papua";"Kabupaten Mappi, Papua";"PAPUA";"";"Indonesia";"";"";"";"-6.3845424";"139.6503106";"https://maps.google.com/?cid=0x0:0x72dcf77146b3adf7";""
"home improvement";"home improvement";"pAVlaLmKEoff1sQP4t-okAg"-,null,null,1,null,"https://www.google.com/maps/preview/place/Perseroan+Komanditer/@-6.1535839,140.3222164,3967a,13.1y/datau003d!4m2!3m1!1s0x4acaf4688c077fcb:0xc5e9033945c4c184";"";"";"PAPUA";"";"Indonesia";" 082217613109";"";"";"-6.1535839";"140.3222164";"https://maps.google.com/?cid=0x0:0xc5e9033945c4c184";""
"home improvement";"Toko Mebel";"PA HOME Showroom  Marketing Center";"Ebony island, Soho Ebony Boulevard Jl. Laksamana Yos Sudarso No.19 Blok A, Kamal Muara, Kec. Penjaringan, Jakarta, Daerah Khusus Ibukota Jakarta 14470";"Soho Ebony Boulevard Jl. Laksamana Yos Sudarso No.19 Blok A, Kamal Muara, Kec. Penjaringan, Jakarta";"PAPUA";"14470";"Indonesia";" 081387487139";"";"";"-6.0863539";"106.733511";"https://maps.google.com/?cid=0x0:0x9ff30f92499be71c";""
"home improvement";"home improvement";"Distrik Minyamur";"Kabupaten Mappi, Papua";"Kabupaten Mappi, Papua";"PAPUA";"";"Indonesia";"";"";"";"-6.5749178";"138.8397403";"https://maps.google.com/?cid=0x0:0xaf9d6fba8ca5978b";""
"home improvement";"home improvement";"Venaha";"Kabupaten Mappi, Papua";"Kabupaten Mappi, Papua";"PAPUA";"";"Indonesia";"";"";"";"-6.7168056";"139.9366899";"https://maps.google.com/?cid=0x0:0xddadbc1f3a828d9c";""
"home improvement";"home improvement";"IQZlaJ_3DJvI1sQPstra4Q8"-,null,null,1,null,"https://www.google.com/maps/preview/place/Perseroan+Komanditer/@-6.1535839,140.3222164,3967a,13.1y/datau003d!4m2!3m1!1s0x4acaf4688c077fcb:0xc5e9033945c4c184";"";"";"PAPUA";"";"Indonesia";" 082217613109";"";"";"-6.1535839";"140.3222164";"https://maps.google.com/?cid=0x0:0xc5e9033945c4c184";""
"home improvement";"home improvement";"Papua 99853";"Kabupaten Mappi, Papua";"Kabupaten Mappi, Papua";"PAPUA";"";"Indonesia";"";"";"";"-7.1527149";"139.5279996";"https://maps.google.com/?cid=0x0:0x8030f37c187cbb11";""
"home improvement";"Toko Bahan Bangunan";"URBAN HARDWARE SDN BHD-BRANCH TAMAN AWANI BANGI";"TAMAN AWANI, 3A-G, Jalan Awani Bangi 1/1, TAMAN AWANI BANGI, 43000 Bangi, Selangor, Malaysia";"Bangi";"PAPUA";"43000";"Indonesia";" +60176263318";"";"";"2.8978392";"101.7775873";"https://maps.google.com/?cid=0x0:0xf250f14006340327";""
"home improvement";"home improvement";"Distrik Bamgi";"Kabupaten Mappi, Papua";"Kabupaten Mappi, Papua";"PAPUA";"";"Indonesia";"";"";"";"-6.9040338";"139.5081534";"https://maps.google.com/?cid=0x0:0xf07d873e100723e1";""
"home improvement";"home improvement";"MR Home Improvement Sdn. Bhd.";"No. 402G, Kompleks Diamond, Bangi Business Park, Jalan Medan Bangi, Bandar Baru Bangi, 43650, Bandar Baru Bangi, Selangor, 43650, Malaysia";"Kompleks Diamond, Bangi Business Park, Jalan Medan Bangi, Bandar Baru Bangi,";"PAPUA";"43650";"Indonesia";" +60389201803";"";"";"2.952755";"101.756736";"https://maps.google.com/?cid=0x0:0xdd55579bb17c60d1";""
"home improvement";"home improvement";"Distrik Syahcame";"Kabupaten Mappi, Papua";"Kabupaten Mappi, Papua";"PAPUA";"";"Indonesia";"";"";"";"-6.92665";"139.6493658";"https://maps.google.com/?cid=0x0:0x731f2b6c588c36e1";""
"home improvement";"home improvement";"Passue Bawah";"Kabupaten Mappi, Papua";"Kabupaten Mappi, Papua";"PAPUA";"";"Indonesia";"";"";"";"-5.9971952";"139.4466005";"https://maps.google.com/?cid=0x0:0xb9529682c70eee4a";""
"home improvement";"home improvement";"Papua 99875";"Kabupaten Mappi, Papua";"Kabupaten Mappi, Papua";"PAPUA";"";"Indonesia";"";"";"";"-5.8045486";"139.5279996";"https://maps.google.com/?cid=0x0:0x3c002283937ac804";""
"home improvement";"Toko Mebel";"PA HOME Showroom  Marketing Center";"Ebony island, Soho Ebony Boulevard Jl. Laksamana Yos Sudarso No.19 Blok A, Kamal Muara, Kec. Penjaringan, Jakarta, Daerah Khusus Ibukota Jakarta 14470";"Soho Ebony Boulevard Jl. Laksamana Yos Sudarso No.19 Blok A, Kamal Muara, Kec. Penjaringan, Jakarta";"PAPUA";"14470";"Indonesia";" 081387487139";"";"";"-6.0863539";"106.733511";"https://maps.google.com/?cid=0x0:0x9ff30f92499be71c";""
"home improvement";"home improvement";"Distrik Ti Zain";"Kabupaten Mappi, Papua";"Kabupaten Mappi, Papua";"PAPUA";"";"Indonesia";"";"";"";"-5.4019657";"139.7132729";"https://maps.google.com/?cid=0x0:0xd1cf1b07f8359ef9";""
"home improvement";"Desainer interior";"Zain Interior Design";"JP7P+3M3, Curug, Kec. Gn. Sindur, Kabupaten Bogor, Jawa Barat 16517";"Curug, Kec. Gn. Sindur, Kabupaten Bogor";"PAPUA";"16517";"Indonesia";" 087736698434";"";"";"-6.3872844";"106.7366835";"https://maps.google.com/?cid=0x0:0x672d1535748dbe9a";""
"home improvement";"Toko Bahan Bangunan";"Zain jaya gibsum";"Damping TIKI, Jl. Poltangan Raya No.RT 01, RW.10, Pejaten Timur, Ps. Minggu, Daerah Khusus Ibukota Jakarta 12530";"Jl. Poltangan Raya No.RT 01, RW.10, Pejaten Timur, Ps. Minggu";"PAPUA";"12530";"Indonesia";" 087721778444";"";"";"-6.297287";"106.846039";"https://maps.google.com/?cid=0x0:0xe7d57fd076bf7279";""
