Category;Real Category;Business Name;Address;City;State;Postal Code;Country;Phone;Email;Website;Latitude;Longitude;Map Link;Details Link
"komplek housing";"komplek housing";"Papua 99871";"Kabupaten Mappi, Papua";"Kabupaten Mappi, Papua";"PAPUA";"";"Indonesia";"";"";"";"-6.3989856";"139.4466005";"https://maps.google.com/?cid=0x0:0xc5ece3ae73b47f90";""
"komplek housing";"Pembangunan Perumahan";"Khazanah home";"F8M8+3RC, Obaa, Kec. Obaa, Kabupaten Mappi, Papua 99871";"Obaa, Kec. Obaa, Kabupaten Mappi";"PAPUA";"99871";"Indonesia";"";"";"";"-6.517324";"139.3170231";"https://maps.google.com/?cid=0x0:0x1a6a18739ed8526d";""
"komplek housing";"Komplek perumahan";"Depus Area";"F8FC+G8G, Kompleks kesehatan, Obaa, Kec. Obaa, Kabupaten Mappi, Papua 99871";"Kompleks kesehatan, Obaa, Kec. Obaa, Kabupaten Mappi";"PAPUA";"99871";"Indonesia";"";"";"";"-6.5261967";"139.3208363";"https://maps.google.com/?cid=0x0:0x551633df51f91572";""
"komplek housing";"Komplek perumahan";"Tampang home";"C8X4+29J, Jl. Kak, Kepi, Kec. Obaa, Kabupaten Mappi, Papua 99881";"Jl. Kak, Kepi, Kec. Obaa, Kabupaten Mappi";"PAPUA";"99881";"Indonesia";"";"";"";"-6.5524079";"139.3058933";"https://maps.google.com/?cid=0x0:0x1125d86d34a540b5";""
"komplek housing";"Komplek perumahan";"Rumah Pong Deo";"C8W3+RR5, Jl. Irian Kepi, Obaa, Kec. Obaa, Kabupaten Mappi, Papua 99881";"Jl. Irian Kepi, Obaa, Kec. Obaa, Kabupaten Mappi";"PAPUA";"99881";"Indonesia";"";"";"";"-6.55298";"139.3046062";"https://maps.google.com/?cid=0x0:0x67872c9b784d3111";""
"komplek housing";"Komplek perumahan";"Perumahan pegawai";"Jl. Saham Kepi, Kepi, Kec. Obaa, Kabupaten Mappi, Papua 99881";"Kepi, Kec. Obaa, Kabupaten Mappi";"PAPUA";"99881";"Indonesia";"";"";"";"-6.552419";"139.2917462";"https://maps.google.com/?cid=0x0:0x13f60f8f5e2c398a";""
"komplek housing";"Komplek perumahan";"jln tanjung kodok kepi";"F898+MM, Obaa, Kec. Obaa, Kabupaten Mappi, Papua";"Kabupaten Mappi, Papua";"PAPUA";"";"Indonesia";"";"";"";"-6.5307538";"139.3166749";"https://maps.google.com/?cid=0x0:0x9d0baf3f6e534521";""
"komplek housing";"Komplek perumahan";"Elmas Home";"C7VW+CXH, Jl. Saham Kepi, Kepi, Kec. Obaa, Kabupaten Mappi, Papua 99881";"Jl. Saham Kepi, Kepi, Kec. Obaa, Kabupaten Mappi";"PAPUA";"99881";"Indonesia";"";"";"";"-6.5564283";"139.2974797";"https://maps.google.com/?cid=0x0:0x5b9f7718cceb6b4c";""
"komplek housing";"Perumahan";"Home Letsoin Family";"C7MW+9H, Kepi, Kec. Obaa, Kabupaten Mappi, Papua";"Kabupaten Mappi, Papua";"PAPUA";"";"Indonesia";"";"";"";"-6.5665282";"139.2964201";"https://maps.google.com/?cid=0x0:0x69f2c2e9cac8397c";""
"komplek housing";"Pembangunan Perumahan";"Perumahan Guru Ki Hadjar Dewantara Gang Sereh";"C8J3+85, Kepi, Kec. Obaa, Kabupaten Mappi, Papua";"Kabupaten Mappi, Papua";"PAPUA";"";"Indonesia";"";"";"";"-6.5691785";"139.3029818";"https://maps.google.com/?cid=0x0:0x3023110f7c5ea59b";""
"komplek housing";"komplek housing";"Gista Home";"F8JH+PWV, Jl.Kaks, Obaa, Kec. Obaa, Kabupaten Mappi, Papua 99881";"Jl.Kaks, Obaa, Kec. Obaa, Kabupaten Mappi";"PAPUA";"99881";"Indonesia";"";"";"";"-6.5181315";"139.3297882";"https://maps.google.com/?cid=0x0:0x68c73e344d54bfd6";""
"komplek housing";"Komplek perumahan";"Rumah";"C7QP+MM5, Jl. Irian Kepi, Kepi, Kec. Obaa, Kabupaten Mappi, Papua 99881";"Jl. Irian Kepi, Kepi, Kec. Obaa, Kabupaten Mappi";"PAPUA";"99881";"Indonesia";" 082191754441";"";"";"-6.5608648";"139.2867347";"https://maps.google.com/?cid=0x0:0xe67a5786c761c9f7";""
"komplek housing";"Pembangunan Perumahan";"Home Jamlean Family";"Gereja GKO Betlehem, Jl. Poros Agham Belakang No.Km. 05, Kepi, Kec. Obaa, Kabupaten Mappi, Papua";"Kabupaten Mappi, Papua";"PAPUA";"";"Indonesia";"";"";"";"-6.5642371";"139.2977534";"https://maps.google.com/?cid=0x0:0xbfac1aead42e8dee";""
"komplek housing";"Komplek perumahan";"Rumah Petrus Wameyob (YE9XAC, YG9XAQ, YG9XAS)";"Jl. Irian No.km. 03, RT.006/RW.001, Kepi, Kec. Obaa, Kabupaten Mappi, Papua";"Kabupaten Mappi, Papua";"PAPUA";"";"Indonesia";"";"";"";"-6.5458021";"139.3044607";"https://maps.google.com/?cid=0x0:0x4503101340a95c42";""
"komplek housing";"Komplek perumahan";"Perumahan Pemda Mappi";"C7VW+X6W, Jl. Saham Kepi, Kepi, Kec. Obaa, Kabupaten Mappi, Papua 99881";"Jl. Saham Kepi, Kepi, Kec. Obaa, Kabupaten Mappi";"PAPUA";"99881";"Indonesia";"";"";"";"-6.5550093";"139.2955735";"https://maps.google.com/?cid=0x0:0xe4845fe803afb2ad";""
"komplek housing";"komplek housing";"Rumah Saleh";"C8W4+P6J, Jl. Irian Kepi, Obaa, Kec. Obaa, Kabupaten Mappi, Papua 99881";"Jl. Irian Kepi, Obaa, Kec. Obaa, Kabupaten Mappi";"PAPUA";"99881";"Indonesia";"";"";"";"-6.5531598";"139.3055234";"https://maps.google.com/?cid=0x0:0x582293d286c67fe3";""
"komplek housing";"Komplek perumahan";"Kepi obaa";"F8M8+5RG, Obaa, Kec. Obaa, Kabupaten Mappi, Papua";"Kabupaten Mappi, Papua";"PAPUA";"";"Indonesia";"";"";"";"-6.517057";"139.317093";"https://maps.google.com/?cid=0x0:0x44948a3285116592";""
"komplek housing";"Komplek perumahan";"UCHY Home";"F822+QGP, Jl. Irian Kepi, Kepi, Kec. Obaa, Kabupaten Mappi, Papua 99881";"Jl. Irian Kepi, Kepi, Kec. Obaa, Kabupaten Mappi";"PAPUA";"99881";"Indonesia";"";"";"";"-6.5480261";"139.3013426";"https://maps.google.com/?cid=0x0:0x6d4f67576d46fb7";""
"komplek housing";"Komplek perumahan";"Waprim kompleks";"C7QP+MM5, Jl. Irian Kepi, Kepi, Kec. Obaa, Kabupaten Mappi, Papua 99881";"Jl. Irian Kepi, Kepi, Kec. Obaa, Kabupaten Mappi";"PAPUA";"99881";"Indonesia";"";"";"";"-6.5608648";"139.2867347";"https://maps.google.com/?cid=0x0:0x7339748399ea8d08";""
"komplek housing";"komplek housing";"Rumah aurah";"C7PQ+4X, Kepi, Kec. Obaa, Kabupaten Mappi, Papua";"Kabupaten Mappi, Papua";"PAPUA";"";"Indonesia";"";"";"";"-6.5528159";"139.3054819";"https://maps.google.com/?cid=0x0:0x4ce1672ac752b8d4";""
"komplek housing";"komplek housing";"Kec. Obaa";"Kabupaten Mappi, Papua";"Kabupaten Mappi, Papua";"PAPUA";"";"Indonesia";"";"";"";"-6.5336517";"139.4466005";"https://maps.google.com/?cid=0x0:0x3055588e2dbb9ea4";""
"komplek housing";"Komplek perumahan";"Rumah Bukit";"F89G+G3, Obaa, Kec. Obaa, Kabupaten Mappi, Papua 99871";"Obaa, Kec. Obaa, Kabupaten Mappi";"PAPUA";"99871";"Indonesia";"";"";"";"-6.530214";"139.325063";"https://maps.google.com/?cid=0x0:0x958b9fce68ac609";""
"komplek housing";"Komplek perumahan";"Keluarga F. Arawok";"F8CF+6MH, Obaa, Kec. Obaa, Kabupaten Mappi, Papua 99871";"Obaa, Kec. Obaa, Kabupaten Mappi";"PAPUA";"99871";"Indonesia";"";"";"";"-6.5291";"139.3245776";"https://maps.google.com/?cid=0x0:0x17c6a5da3560193f";""
"komplek housing";"Sekolah";"Kampung Enem";"F94X+7W7, Enem, Kec. Obaa, Kabupaten Mappi, Papua 99871";"Enem, Kec. Obaa, Kabupaten Mappi";"PAPUA";"99871";"Indonesia";"";"";"";"-6.544371";"139.3997888";"https://maps.google.com/?cid=0x0:0xad71213df0f5c483";""
"komplek housing";"Komplek perumahan";"Pondok Gede Housing 1";"Jl. Cipta Raya No.45-3, RT.001/RW.003, Jatirahayu, Kec. Pd. Melati, Kota Bks, Jawa Barat 17414";"RT.001/RW.003, Jatirahayu, Kec. Pd. Melati, Kota Bks";"PAPUA";"17414";"Indonesia";"";"";"";"-6.2852504";"106.9163397";"https://maps.google.com/?cid=0x0:0x3132afedbf38cd61";""
"komplek housing";"Komplek perumahan";"Pondok gede housing";"PW69+G7J, Jl. Teratai, RT.005/RW.003, Jatirahayu, Kec. Pd. Melati, Kota Bks, Jawa Barat 17414";"Jl. Teratai, RT.005/RW.003, Jatirahayu, Kec. Pd. Melati, Kota Bks";"PAPUA";"17414";"Indonesia";"";"";"";"-6.2886631";"106.9181392";"https://maps.google.com/?cid=0x0:0xe09247830c5049e9";""
"komplek housing";"Komplek perumahan";"Komplek Raya Housing Blok O";"PWC5+FRJ, RT.005/RW.011, Jatiwaringin, Kec. Pd. Gede, Kota Bks, Jawa Barat 17411";"RT.005/RW.011, Jatiwaringin, Kec. Pd. Gede, Kota Bks";"PAPUA";"17411";"Indonesia";"";"";"";"-6.278778";"106.9095098";"https://maps.google.com/?cid=0x0:0xb8ccec3d47633fb4";""
"komplek housing";"komplek housing";"Citakmitak";"Kabupaten Mappi, Papua";"Kabupaten Mappi, Papua";"PAPUA";"";"Indonesia";"";"";"";"-5.8202155";"139.3247147";"https://maps.google.com/?cid=0x0:0xa6f0a4c02cdb66dc";""
"komplek housing";"Pembangunan Perumahan";"Vakam Distrik Joutu Kab. Asmat";"FCV6+XC8, Imembi, Kaibar, Kabupaten Mappi, Papua 99875";"Imembi, Kaibar, Kabupaten Mappi";"PAPUA";"99875";"Indonesia";"";"";"";"-5.505088";"139.411064";"https://maps.google.com/?cid=0x0:0x7cf00b17ac9a10bd";""
"komplek housing";"Komplek perumahan";"Kampung Bidnew";"58HF+WV8, Bidnew, Citakmitak, Kabupaten Mappi, Papua";"Kabupaten Mappi, Papua";"PAPUA";"";"Indonesia";"";"";"";"-5.8202155";"139.3247147";"https://maps.google.com/?cid=0x0:0xa0c4652b54a6fe48";""
"komplek housing";"Taman";"Kampung Womin";"5HFQ+CJH, Womin, Citakmitak, Kabupaten Mappi, Papua";"Kabupaten Mappi, Papua";"PAPUA";"";"Indonesia";"";"";"";"-5.8264318";"139.5891233";"https://maps.google.com/?cid=0x0:0xd3fd82cce8b196eb";""
"komplek housing";"komplek housing";"Keluarga Emenu";"886X+MJ, Senggo, Citakmitak, Kabupaten Mappi, Papua";"Kabupaten Mappi, Papua";"PAPUA";"";"Indonesia";"";"";"";"-5.6883236";"139.3490028";"https://maps.google.com/?cid=0x0:0xcfcf1865c2873b4d";""
"komplek housing";"Komplek perumahan";"Kampung Tiau dan Tayau";"9H5M+G97, Amasu, Kaibar, Kabupaten Mappi, Papua 99875";"Amasu, Kaibar, Kabupaten Mappi";"PAPUA";"99875";"Indonesia";"";"";"";"-5.6412212";"139.5834074";"https://maps.google.com/?cid=0x0:0xa4bf833ad23ce017";""
"komplek housing";"komplek housing";"Alfons'Home";"MJ4R+9G, Fomu, Distrik Ti Zain, Kabupaten Mappi, Papua";"Kabupaten Mappi, Papua";"PAPUA";"";"Indonesia";"";"";"";"-5.3429513";"139.6406956";"https://maps.google.com/?cid=0x0:0x8eb628a50efbb59d";""
"komplek housing";"komplek housing";"Zidan Al-farisqi";"3567+G2H, Khanami, Kec. Assue, Kabupaten Mappi, Papua";"Kabupaten Mappi, Papua";"PAPUA";"";"Indonesia";"";"";"";"-5.9386763";"139.1625989";"https://maps.google.com/?cid=0x0:0xdf78e9bd7dedc696";""
"komplek housing";"Perhimpunan Pengembang Perumahan";"Pirabanak";"VF38+F2, Dekamer, Suator, Kabupaten Asmat, Papua";"Kabupaten Asmat, Papua";"PAPUA";"";"Indonesia";"";"";"";"-5.1463116";"139.4651075";"https://maps.google.com/?cid=0x0:0x15ef68d70fd0d9ee";""
"komplek housing";"Gedung Apartemen";"Capitol Park Residence";"Jl. Salemba Raya No.16, Kenari, Kec. Senen, Kota Jakarta Pusat, Daerah Khusus Ibukota Jakarta 10430";"Kenari, Kec. Senen, Kota Jakarta Pusat";"PAPUA";"10430";"Indonesia";" 0213928777";"";"";"-6.197115";"106.849951";"https://maps.google.com/?cid=0x0:0xf69642806ba37731";""
"komplek housing";"Pembangunan Perumahan";"Perumahan Villa Mutiara";"Jl. Mirah Raya Blk. W-AW No.4, Sawah Baru, Kec. Ciputat, Kota Tangerang Selatan, Banten 15413";"Sawah Baru, Kec. Ciputat, Kota Tangerang Selatan";"PAPUA";"15413";"Indonesia";"";"";"";"-6.2972435";"106.7210888";"https://maps.google.com/?cid=0x0:0x9c97803849419901";""
"komplek housing";"Gedung Apartemen";"Green Pramuka City";"Marketing Gallery Green Pramuka City, Jl.Jend.A.Yani No.Kav.49, Rawasari, Kec. Cemp. Putih, Kota Jakarta Pusat, Daerah Khusus Ibukota Jakarta 10570";"Jl.Jend.A.Yani No.Kav.49, Rawasari, Kec. Cemp. Putih, Kota Jakarta Pusat";"PAPUA";"10570";"Indonesia";" 0214208989";"";"";"-6.1884732";"106.8747368";"https://maps.google.com/?cid=0x0:0xe02105c172125ad4";""
"komplek housing";"komplek housing";"Papua 99853";"Kabupaten Mappi, Papua";"Kabupaten Mappi, Papua";"PAPUA";"";"Indonesia";"";"";"";"-7.1527149";"139.5279996";"https://maps.google.com/?cid=0x0:0x8030f37c187cbb11";""
"komplek housing";"komplek housing";"Papua";"";"Papua";"PAPUA";"";"Indonesia";"";"";"";"-4.269928";"138.0803529";"https://maps.google.com/?cid=0x0:0xeba94e9c5eefe673";""
"komplek housing";"Komplek perumahan";"Daeva Permai Tenjo";"MFH4+GR5, Tenjo, Kec. Tenjo, Kabupaten Bogor, Jawa Barat 16370";"Tenjo, Kec. Tenjo, Kabupaten Bogor";"PAPUA";"16370";"Indonesia";"";"";"";"-6.3212251";"106.457109";"https://maps.google.com/?cid=0x0:0xdfec9d24bbaf3f0e";""
"komplek housing";"Rumah singgah";"De Green Balaraja";"VC2V+FRV, Benda, Kec. Sukamulya, Kabupaten Tangerang, Banten 15610";"Benda, Kec. Sukamulya, Kabupaten Tangerang";"PAPUA";"15610";"Indonesia";"";"";"";"-6.1486302";"106.4446718";"https://maps.google.com/?cid=0x0:0xf632cf7347d365f6";""
"komplek housing";"Komplek perumahan";"Alga premiere pulomas";"Cluster Alga Premier, Jl. Pulo Mas Bar. Daya No.7, RT.9/RW.09Kayu, Putih, Pulo Gadung, East Jakarta City, Jakarta 13210";"Jl. Pulo Mas Bar. Daya No.7, RT.9/RW.09Kayu, Putih, Pulo Gadung, East Jakarta City";"PAPUA";"13210";"Indonesia";" 085775523057";"";"";"-6.1821185";"106.8789596";"https://maps.google.com/?cid=0x0:0xb2fe586a148dfccb";""
"komplek housing";"Perusahaan Media";"Sukamanah Residence";"Jalan Sukamanah, Sukamanah, Kec. Sukatani, Kabupaten Bekasi, Jawa Barat 17630";"Sukamanah, Kec. Sukatani, Kabupaten Bekasi";"PAPUA";"17630";"Indonesia";"";"";"";"-6.1880961";"107.1659131";"https://maps.google.com/?cid=0x0:0x101a15a49d09cb73";""
"komplek housing";"Pembangunan Perumahan";"Alga 5 residence";"MXJ9+RX6, Bojong Kulur, Kec. Gn. Putri, Kabupaten Bogor, Jawa Barat 16969";"Bojong Kulur, Kec. Gn. Putri, Kabupaten Bogor";"PAPUA";"16969";"Indonesia";"";"";"";"-6.3179585";"106.9699059";"https://maps.google.com/?cid=0x0:0xb07703aed3a4e021";""
"komplek housing";"Komplek perumahan";"Blok Edelweiss Grand Depok Residence";"Jl. Edelweiss GDR No.RT 09/12, Tanah Baru, Beji, Depok City, West Java 16426";"Tanah Baru, Beji, Depok City";"PAPUA";"16426";"Indonesia";"";"";"";"-6.3786877";"106.7982194";"https://maps.google.com/?cid=0x0:0x112a1560f5b780d5";""
"komplek housing";"Komplek perumahan";"KRANGGAN JATISAMPURNA";"Jl. Raya Kranggan No.1, RT.001/RW.4, Jatisampurna, Kec. Jatisampurna, Kota Bks, Jawa Barat 17433";"RT.001/RW.4, Jatisampurna, Kec. Jatisampurna, Kota Bks";"PAPUA";"17433";"Indonesia";"";"";"";"-6.3643192";"106.9232365";"https://maps.google.com/?cid=0x0:0xa46fa29ea905a517";""
"komplek housing";"Kompleks Townhouse";"Cluster Edelweis Residence I";"Gg. H. Riman, Pd. Rajeg, Kec. Cibinong, Kabupaten Bogor, Jawa Barat 16413";"Pd. Rajeg, Kec. Cibinong, Kabupaten Bogor";"PAPUA";"16413";"Indonesia";"";"";"";"-6.4585028";"106.8219364";"https://maps.google.com/?cid=0x0:0x2c3e7ca6708ef261";""
"komplek housing";"Penginapan";"Perumahan alam pesona";"Perumahan alam pesona No.p43a 14, Wanasari, Kec. Cibitung, Kabupaten Bekasi, Jawa Barat";"Kabupaten Bekasi, Jawa Barat";"PAPUA";"";"Indonesia";"";"";"";"-6.2404528";"107.1017721";"https://maps.google.com/?cid=0x0:0xa63c3bf441c39c13";""
"komplek housing";"Komplek perumahan";"Cluster Delima Residence Sumberjaya";"Jl. Pesona Raya, Sumberjaya, Kec. Tambun Sel., Kabupaten Bekasi, Jawa Barat 17510";"Sumberjaya, Kec. Tambun Sel., Kabupaten Bekasi";"PAPUA";"17510";"Indonesia";" 081288840090";"";"";"-6.2189044";"107.074914";"https://maps.google.com/?cid=0x0:0xe61d39cecc818202";""
"komplek housing";"Pembangunan Perumahan";"griya mahakarya residence";"R52C+9QP, Sukamanah, Kec. Sukatani, Kabupaten Bekasi, Jawa Barat 17630";"Sukamanah, Kec. Sukatani, Kabupaten Bekasi";"PAPUA";"17630";"Indonesia";" 081385641503";"";"";"-6.1990263";"107.1719394";"https://maps.google.com/?cid=0x0:0xf3bde049f5f360b2";""
"komplek housing";"komplek housing";"Komplek Housing";"Blok Bojong Nangka I, Jl. Ring Rudal Blok Bojong Nangka I No.68, RT.001/RW.007, Jatirahayu, Kec. Pd. Melati, Kota Bks, Jawa Barat 17414";"Jl. Ring Rudal Blok Bojong Nangka I No.68, RT.001/RW.007, Jatirahayu, Kec. Pd. Melati, Kota Bks";"PAPUA";"17414";"Indonesia";"";"";"";"-6.293724";"106.9165114";"https://maps.google.com/?cid=0x0:0x9c50464976dee674";""
"komplek housing";"komplek housing";"Papua 99881";"Kabupaten Mappi, Papua";"Kabupaten Mappi, Papua";"PAPUA";"";"Indonesia";"";"";"";"-6.2344696";"139.1221414";"https://maps.google.com/?cid=0x0:0x16d53cf515d4db1d";""
"komplek housing";"Pembangunan Perumahan";"𝑹𝒖𝒎𝒂𝒉 𝒔𝒊𝒓𝒉𝒂𝒏 Alhamid";"F823+237, Kepi, Kec. Obaa, Kabupaten Mappi, Papua 99881";"Kepi, Kec. Obaa, Kabupaten Mappi";"PAPUA";"99881";"Indonesia";"";"";"";"-6.5499396";"139.3049642";"https://maps.google.com/?cid=0x0:0x1101e737f20ba4ff";""
"komplek housing";"Komplek perumahan";"Mappi";"Jl. Irian Kepi, Kepi, Kec. Obaa, Kabupaten Mappi, Papua 99881";"Kepi, Kec. Obaa, Kabupaten Mappi";"PAPUA";"99881";"Indonesia";"";"";"";"-6.5608648";"139.2867347";"https://maps.google.com/?cid=0x0:0x3fcf2f573baee07";""
"komplek housing";"komplek housing";"Gereja St Theresia Gaibugir";"PX66+569, Gairipim, Kec. Haju, Kabupaten Mappi, Papua 99881";"Gairipim, Kec. Haju, Kabupaten Mappi";"PAPUA";"99881";"Indonesia";"";"";"";"-6.289579";"138.9606122";"https://maps.google.com/?cid=0x0:0xf6ed139b95f53aa5";""
"komplek housing";"Komplek perumahan";"Hendrikus Dua";"C7QX+79, Kepi, Kec. Obaa, Kabupaten Mappi, Papua";"Kabupaten Mappi, Papua";"PAPUA";"";"Indonesia";"";"";"";"-6.5618585";"139.2983588";"https://maps.google.com/?cid=0x0:0x293b8eb9eea27206";""
"komplek housing";"Komplek perumahan";"Tampang home";"C8X4+29J, Jl. Kak, Kepi, Kec. Obaa, Kabupaten Mappi, Papua 99881";"Jl. Kak, Kepi, Kec. Obaa, Kabupaten Mappi";"PAPUA";"99881";"Indonesia";"";"";"";"-6.5524079";"139.3058933";"https://maps.google.com/?cid=0x0:0x1125d86d34a540b5";""
"komplek housing";"Pembangunan Perumahan";"Kampung Gairipim";"PX56+C37, Gairipim, Kec. Haju, Kabupaten Mappi, Papua 99881";"Gairipim, Kec. Haju, Kabupaten Mappi";"PAPUA";"99881";"Indonesia";"";"";"";"-6.2914539";"138.9601636";"https://maps.google.com/?cid=0x0:0x2c9ebac89c07d9d1";""
"komplek housing";"Perhimpunan Pengembang Perumahan";"Simpang 3 Saham";"C7VX+9M7, Jl. Saham Kepi, Kepi, Kec. Obaa, Kabupaten Mappi, Papua 99881";"Jl. Saham Kepi, Kepi, Kec. Obaa, Kabupaten Mappi";"PAPUA";"99881";"Indonesia";"";"";"";"-6.5570601";"139.2995301";"https://maps.google.com/?cid=0x0:0xf7aa01911e278cf7";""
"komplek housing";"Komplek perumahan";"Perumahan pegawai";"Jl. Saham Kepi, Kepi, Kec. Obaa, Kabupaten Mappi, Papua 99881";"Kepi, Kec. Obaa, Kabupaten Mappi";"PAPUA";"99881";"Indonesia";"";"";"";"-6.552419";"139.2917462";"https://maps.google.com/?cid=0x0:0x13f60f8f5e2c398a";""
"komplek housing";"Pembangunan Perumahan";"Amenda";"R2J9+6X, Amenda, Kec. Haju, Kabupaten Mappi, Papua";"Kabupaten Mappi, Papua";"PAPUA";"";"Indonesia";"";"";"";"-6.1694293";"139.0199738";"https://maps.google.com/?cid=0x0:0xd92f6d667cda08b2";""
"komplek housing";"Komplek perumahan";"Elmas Home";"C7VW+CXH, Jl. Saham Kepi, Kepi, Kec. Obaa, Kabupaten Mappi, Papua 99881";"Jl. Saham Kepi, Kepi, Kec. Obaa, Kabupaten Mappi";"PAPUA";"99881";"Indonesia";"";"";"";"-6.5564283";"139.2974797";"https://maps.google.com/?cid=0x0:0x5b9f7718cceb6b4c";""
"komplek housing";"Pembangunan Perumahan";"Perumahan Guru Ki Hadjar Dewantara Gang Sereh";"C8J3+85, Kepi, Kec. Obaa, Kabupaten Mappi, Papua";"Kabupaten Mappi, Papua";"PAPUA";"";"Indonesia";"";"";"";"-6.5691785";"139.3029818";"https://maps.google.com/?cid=0x0:0x3023110f7c5ea59b";""
"komplek housing";"Pembangunan Perumahan";"Home Jamlean Family";"Gereja GKO Betlehem, Jl. Poros Agham Belakang No.Km. 05, Kepi, Kec. Obaa, Kabupaten Mappi, Papua";"Kabupaten Mappi, Papua";"PAPUA";"";"Indonesia";"";"";"";"-6.5642371";"139.2977534";"https://maps.google.com/?cid=0x0:0xbfac1aead42e8dee";""
"komplek housing";"Komplek perumahan";"Rumah Pong Deo";"C8W3+RR5, Jl. Irian Kepi, Obaa, Kec. Obaa, Kabupaten Mappi, Papua 99881";"Jl. Irian Kepi, Obaa, Kec. Obaa, Kabupaten Mappi";"PAPUA";"99881";"Indonesia";"";"";"";"-6.55298";"139.3046062";"https://maps.google.com/?cid=0x0:0x67872c9b784d3111";""
"komplek housing";"Pembangunan Perumahan";"Khazanah home";"F8M8+3RC, Obaa, Kec. Obaa, Kabupaten Mappi, Papua 99871";"Obaa, Kec. Obaa, Kabupaten Mappi";"PAPUA";"99871";"Indonesia";"";"";"";"-6.517324";"139.3170231";"https://maps.google.com/?cid=0x0:0x1a6a18739ed8526d";""
"komplek housing";"Komplek perumahan";"Waprim kompleks";"C7QP+MM5, Jl. Irian Kepi, Kepi, Kec. Obaa, Kabupaten Mappi, Papua 99881";"Jl. Irian Kepi, Kepi, Kec. Obaa, Kabupaten Mappi";"PAPUA";"99881";"Indonesia";"";"";"";"-6.5608648";"139.2867347";"https://maps.google.com/?cid=0x0:0x7339748399ea8d08";""
"komplek housing";"Komplek perumahan";"Rumah Petrus Wameyob (YE9XAC, YG9XAQ, YG9XAS)";"Jl. Irian No.km. 03, RT.006/RW.001, Kepi, Kec. Obaa, Kabupaten Mappi, Papua";"Kabupaten Mappi, Papua";"PAPUA";"";"Indonesia";"";"";"";"-6.5458021";"139.3044607";"https://maps.google.com/?cid=0x0:0x4503101340a95c42";""
"komplek housing";"Komplek perumahan";"Depus Area";"F8FC+G8G, Kompleks kesehatan, Obaa, Kec. Obaa, Kabupaten Mappi, Papua 99871";"Kompleks kesehatan, Obaa, Kec. Obaa, Kabupaten Mappi";"PAPUA";"99871";"Indonesia";"";"";"";"-6.5261967";"139.3208363";"https://maps.google.com/?cid=0x0:0x551633df51f91572";""
"komplek housing";"Komplek perumahan";"jln tanjung kodok kepi";"F898+MM, Obaa, Kec. Obaa, Kabupaten Mappi, Papua";"Kabupaten Mappi, Papua";"PAPUA";"";"Indonesia";"";"";"";"-6.5307538";"139.3166749";"https://maps.google.com/?cid=0x0:0x9d0baf3f6e534521";""
"komplek housing";"Perumahan";"Home Letsoin Family";"C7MW+9H, Kepi, Kec. Obaa, Kabupaten Mappi, Papua";"Kabupaten Mappi, Papua";"PAPUA";"";"Indonesia";"";"";"";"-6.5665282";"139.2964201";"https://maps.google.com/?cid=0x0:0x69f2c2e9cac8397c";""
"komplek housing";"komplek housing";"Kec. Haju";"Kabupaten Mappi, Papua";"Kabupaten Mappi, Papua";"PAPUA";"";"Indonesia";"";"";"";"-6.2564518";"139.0009403";"https://maps.google.com/?cid=0x0:0x13ee01b9b298781a";""
"komplek housing";"Komplek perumahan";"Rumah";"C7QP+MM5, Jl. Irian Kepi, Kepi, Kec. Obaa, Kabupaten Mappi, Papua 99881";"Jl. Irian Kepi, Kepi, Kec. Obaa, Kabupaten Mappi";"PAPUA";"99881";"Indonesia";" 082191754441";"";"";"-6.5608648";"139.2867347";"https://maps.google.com/?cid=0x0:0xe67a5786c761c9f7";""
"komplek housing";"komplek housing";"Rumah Saleh";"C8W4+P6J, Jl. Irian Kepi, Obaa, Kec. Obaa, Kabupaten Mappi, Papua 99881";"Jl. Irian Kepi, Obaa, Kec. Obaa, Kabupaten Mappi";"PAPUA";"99881";"Indonesia";"";"";"";"-6.5531598";"139.3055234";"https://maps.google.com/?cid=0x0:0x582293d286c67fe3";""
"komplek housing";"Komplek perumahan";"RUMAH IBU GENOVEVA KAIMU";"C7XR+2MQ, Jl. Saham Kepi, Kepi, Kec. Obaa, Kabupaten Mappi, Papua 99881";"Jl. Saham Kepi, Kepi, Kec. Obaa, Kabupaten Mappi";"PAPUA";"99881";"Indonesia";"";"";"";"-6.552419";"139.2917462";"https://maps.google.com/?cid=0x0:0x616dbab608fc4b35";""
"komplek housing";"Perumahan";"Rumah mantri Yohanis Tolanlayuk";"C7QQ+557 Kilo 6 belakang RSUD, Kepi, Kec. Obaa, Kabupaten Mappi, Papua 99881";"Kepi, Kec. Obaa, Kabupaten Mappi";"PAPUA";"99881";"Indonesia";"";"";"";"-6.5620873";"139.2879299";"https://maps.google.com/?cid=0x0:0x2d1be9fe27c6aa8";""
"komplek housing";"Perhimpunan Pengembang Perumahan";"Bursa cakar";"C7QV+H7V, Jl. Irian Kepi gang arjuna, Kepi, Kec. Obaa, Kabupaten Mappi, Papua 99881";"Jl. Irian Kepi gang arjuna, Kepi, Kec. Obaa, Kabupaten Mappi";"PAPUA";"99881";"Indonesia";" 081344191730";"";"";"-6.5610155";"139.2931635";"https://maps.google.com/?cid=0x0:0x1c618174c725ac0c";""
"komplek housing";"Komplek perumahan";"Rumah emhyLee";"C7PV+XXH, Jl. Irian Kepi, Obaa, Kec. Obaa, Kabupaten Mappi, Papua 99881";"Jl. Irian Kepi, Obaa, Kec. Obaa, Kabupaten Mappi";"PAPUA";"99881";"Indonesia";"";"";"";"-6.5625512";"139.294985";"https://maps.google.com/?cid=0x0:0x8b7620c3825dc742";""
"komplek housing";"Komplek perumahan";"Perumahan Pemda Mappi";"C7VW+X6W, Jl. Saham Kepi, Kepi, Kec. Obaa, Kabupaten Mappi, Papua 99881";"Jl. Saham Kepi, Kepi, Kec. Obaa, Kabupaten Mappi";"PAPUA";"99881";"Indonesia";"";"";"";"-6.5550093";"139.2955735";"https://maps.google.com/?cid=0x0:0xe4845fe803afb2ad";""
"komplek housing";"komplek housing";"Rumah Tok Dalang";"C7PW+X5F, Jl. Irian Kepi, Obaa, Kec. Obaa, Kabupaten Mappi, Papua 99881";"Jl. Irian Kepi, Obaa, Kec. Obaa, Kabupaten Mappi";"PAPUA";"99881";"Indonesia";"";"";"";"-6.5625589";"139.2954092";"https://maps.google.com/?cid=0x0:0x6fcc417e1f10740a";""
"komplek housing";"komplek housing";"Papua 99874";"Kabupaten Mappi, Papua";"Kabupaten Mappi, Papua";"PAPUA";"";"Indonesia";"";"";"";"-5.8215295";"138.9605972";"https://maps.google.com/?cid=0x0:0xac074e8d0ff33f49";""
"komplek housing";"komplek housing";"Zidan Al-farisqi";"3567+G2H, Khanami, Kec. Assue, Kabupaten Mappi, Papua";"Kabupaten Mappi, Papua";"PAPUA";"";"Indonesia";"";"";"";"-5.9386763";"139.1625989";"https://maps.google.com/?cid=0x0:0xdf78e9bd7dedc696";""
"komplek housing";"Pembangunan Perumahan";"Amenda";"R2J9+6X, Amenda, Kec. Haju, Kabupaten Mappi, Papua";"Kabupaten Mappi, Papua";"PAPUA";"";"Indonesia";"";"";"";"-6.1694293";"139.0199738";"https://maps.google.com/?cid=0x0:0xd92f6d667cda08b2";""
"komplek housing";"Perhimpunan Pengembang Perumahan";"Kampung jinak";"F3W7+9GJ, Jinak, Suator, Kabupaten Asmat, Papua 99776";"Jinak, Suator, Kabupaten Asmat";"PAPUA";"99776";"Indonesia";"";"";"";"-5.5040413";"139.063772";"https://maps.google.com/?cid=0x0:0x4829476b6af69f42";""
"komplek housing";"Komplek perumahan";"Kampung Bidnew";"58HF+WV8, Bidnew, Citakmitak, Kabupaten Mappi, Papua";"Kabupaten Mappi, Papua";"PAPUA";"";"Indonesia";"";"";"";"-5.8202155";"139.3247147";"https://maps.google.com/?cid=0x0:0xa0c4652b54a6fe48";""
"komplek housing";"Sekolah Dasar";"Rumah Dinas Guru SMP Aboge";"W7P6+65M, Aboge, Kec. Assue, Kabupaten Mappi, Papua";"Kabupaten Mappi, Papua";"PAPUA";"";"Indonesia";"";"";"";"-6.0644223";"139.2604295";"https://maps.google.com/?cid=0x0:0x17333d48d4342e2d";""
"komplek housing";"komplek housing";"Keluarga Emenu";"886X+MJ, Senggo, Citakmitak, Kabupaten Mappi, Papua";"Kabupaten Mappi, Papua";"PAPUA";"";"Indonesia";"";"";"";"-5.6883236";"139.3490028";"https://maps.google.com/?cid=0x0:0xcfcf1865c2873b4d";""
"komplek housing";"komplek housing";"Kec. Assue";"Kabupaten Mappi, Papua";"Kabupaten Mappi, Papua";"PAPUA";"";"Indonesia";"";"";"";"-5.9386763";"139.1625989";"https://maps.google.com/?cid=0x0:0x59165bc210ecd15e";""
"komplek housing";"Komplek perumahan";"Pondok gede housing";"PW69+G7J, Jl. Teratai, RT.005/RW.003, Jatirahayu, Kec. Pd. Melati, Kota Bks, Jawa Barat 17414";"Jl. Teratai, RT.005/RW.003, Jatirahayu, Kec. Pd. Melati, Kota Bks";"PAPUA";"17414";"Indonesia";"";"";"";"-6.2886631";"106.9181392";"https://maps.google.com/?cid=0x0:0xe09247830c5049e9";""
"komplek housing";"Establishment";"Ahzavi Residence Pondok Gede";"PW4J+JHQ, Jl. Celepuk I Ujung, RT.012/RW.014, Jatirahayu, Kec. Pd. Melati, Kota Bks, Jawa Barat 17414";"Jl. Celepuk I Ujung, RT.012/RW.014, Jatirahayu, Kec. Pd. Melati, Kota Bks";"PAPUA";"17414";"Indonesia";"";"";"";"-6.2934194";"106.9314803";"https://maps.google.com/?cid=0x0:0x7b24a580738077da";""
"komplek housing";"Komplek perumahan";"Pondok Gede Housing II";"Housing II, Jl. Raya Hankam, RT.001/RW.004, Jatirahayu, Pondok Gede, Bekasi, West Java";"Kota Bks, Jawa Barat";"PAPUA";"";"Indonesia";"";"";"";"-6.2876701";"106.9147674";"https://maps.google.com/?cid=0x0:0x2a52e601c20d18f2";""
"komplek housing";"Vila";"Komplek Auri";"PWFM+WF6, Jl. Kemang Sari IV C Jl. Kemang Sari 4 No.7, RT.001/RW.011, Jatimakmur, Kec. Pd. Gede, Kota Bks, Jawa Barat 17413";"Jl. Kemang Sari IV C Jl. Kemang Sari 4 No.7, RT.001/RW.011, Jatimakmur, Kec. Pd. Gede, Kota Bks";"PAPUA";"17413";"Indonesia";"";"";"";"-6.2739259";"106.9336676";"https://maps.google.com/?cid=0x0:0x4e1b3f595d275f90";""
"komplek housing";"komplek housing";"Papua 99875";"Kabupaten Mappi, Papua";"Kabupaten Mappi, Papua";"PAPUA";"";"Indonesia";"";"";"";"-5.8045486";"139.5279996";"https://maps.google.com/?cid=0x0:0x3c002283937ac804";""
"komplek housing";"Pembangunan Perumahan";"Vakam Distrik Joutu Kab. Asmat";"FCV6+XC8, Imembi, Kaibar, Kabupaten Mappi, Papua 99875";"Imembi, Kaibar, Kabupaten Mappi";"PAPUA";"99875";"Indonesia";"";"";"";"-5.505088";"139.411064";"https://maps.google.com/?cid=0x0:0x7cf00b17ac9a10bd";""
"komplek housing";"Komplek perumahan";"Kampung Tiau dan Tayau";"9H5M+G97, Amasu, Kaibar, Kabupaten Mappi, Papua 99875";"Amasu, Kaibar, Kabupaten Mappi";"PAPUA";"99875";"Indonesia";"";"";"";"-5.6412212";"139.5834074";"https://maps.google.com/?cid=0x0:0xa4bf833ad23ce017";""
"komplek housing";"komplek housing";"Komplek Housing";"Blok Bojong Nangka I, Jl. Ring Rudal Blok Bojong Nangka I No.68, RT.001/RW.007, Jatirahayu, Kec. Pd. Melati, Kota Bks, Jawa Barat 17414";"Jl. Ring Rudal Blok Bojong Nangka I No.68, RT.001/RW.007, Jatirahayu, Kec. Pd. Melati, Kota Bks";"PAPUA";"17414";"Indonesia";"";"";"";"-6.293724";"106.9165114";"https://maps.google.com/?cid=0x0:0x9c50464976dee674";""
"komplek housing";"komplek housing";"Papua 99871";"Kabupaten Mappi, Papua";"Kabupaten Mappi, Papua";"PAPUA";"";"Indonesia";"";"";"";"-6.3989856";"139.4466005";"https://maps.google.com/?cid=0x0:0xc5ece3ae73b47f90";""
"komplek housing";"Komplek perumahan";"Depus Area";"F8FC+G8G, Kompleks kesehatan, Obaa, Kec. Obaa, Kabupaten Mappi, Papua 99871";"Kompleks kesehatan, Obaa, Kec. Obaa, Kabupaten Mappi";"PAPUA";"99871";"Indonesia";"";"";"";"-6.5261967";"139.3208363";"https://maps.google.com/?cid=0x0:0x551633df51f91572";""
"komplek housing";"Pembangunan Perumahan";"Khazanah home";"F8M8+3RC, Obaa, Kec. Obaa, Kabupaten Mappi, Papua 99871";"Obaa, Kec. Obaa, Kabupaten Mappi";"PAPUA";"99871";"Indonesia";"";"";"";"-6.517324";"139.3170231";"https://maps.google.com/?cid=0x0:0x1a6a18739ed8526d";""
"komplek housing";"Komplek perumahan";"Perumahan pegawai";"Jl. Saham Kepi, Kepi, Kec. Obaa, Kabupaten Mappi, Papua 99881";"Kepi, Kec. Obaa, Kabupaten Mappi";"PAPUA";"99881";"Indonesia";"";"";"";"-6.552419";"139.2917462";"https://maps.google.com/?cid=0x0:0x13f60f8f5e2c398a";""
"komplek housing";"Perhimpunan Pengembang Perumahan";"Distrik Passue Bawah";"WGP7+RWC, Keta, Passue Bawah, Kabupaten Mappi, Papua";"Kabupaten Mappi, Papua";"PAPUA";"";"Indonesia";"";"";"";"-6.062941";"139.514775";"https://maps.google.com/?cid=0x0:0x7fb25b4eb0e7694b";""
"komplek housing";"Komplek perumahan";"Rumah Petrus Wameyob (YE9XAC, YG9XAQ, YG9XAS)";"Jl. Irian No.km. 03, RT.006/RW.001, Kepi, Kec. Obaa, Kabupaten Mappi, Papua";"Kabupaten Mappi, Papua";"PAPUA";"";"Indonesia";"";"";"";"-6.5458021";"139.3044607";"https://maps.google.com/?cid=0x0:0x4503101340a95c42";""
"komplek housing";"Pembangunan Perumahan";"Perumahan Guru Ki Hadjar Dewantara Gang Sereh";"C8J3+85, Kepi, Kec. Obaa, Kabupaten Mappi, Papua";"Kabupaten Mappi, Papua";"PAPUA";"";"Indonesia";"";"";"";"-6.5691785";"139.3029818";"https://maps.google.com/?cid=0x0:0x3023110f7c5ea59b";""
"komplek housing";"Komplek perumahan";"Elmas Home";"C7VW+CXH, Jl. Saham Kepi, Kepi, Kec. Obaa, Kabupaten Mappi, Papua 99881";"Jl. Saham Kepi, Kepi, Kec. Obaa, Kabupaten Mappi";"PAPUA";"99881";"Indonesia";"";"";"";"-6.5564283";"139.2974797";"https://maps.google.com/?cid=0x0:0x5b9f7718cceb6b4c";""
"komplek housing";"Komplek perumahan";"Tampang home";"C8X4+29J, Jl. Kak, Kepi, Kec. Obaa, Kabupaten Mappi, Papua 99881";"Jl. Kak, Kepi, Kec. Obaa, Kabupaten Mappi";"PAPUA";"99881";"Indonesia";"";"";"";"-6.5524079";"139.3058933";"https://maps.google.com/?cid=0x0:0x1125d86d34a540b5";""
"komplek housing";"Komplek perumahan";"Waprim kompleks";"C7QP+MM5, Jl. Irian Kepi, Kepi, Kec. Obaa, Kabupaten Mappi, Papua 99881";"Jl. Irian Kepi, Kepi, Kec. Obaa, Kabupaten Mappi";"PAPUA";"99881";"Indonesia";"";"";"";"-6.5608648";"139.2867347";"https://maps.google.com/?cid=0x0:0x7339748399ea8d08";""
"komplek housing";"Komplek perumahan";"Mappi";"Jl. Irian Kepi, Kepi, Kec. Obaa, Kabupaten Mappi, Papua 99881";"Kepi, Kec. Obaa, Kabupaten Mappi";"PAPUA";"99881";"Indonesia";"";"";"";"-6.5608648";"139.2867347";"https://maps.google.com/?cid=0x0:0x3fcf2f573baee07";""
"komplek housing";"komplek housing";"Tanah Azhka Siregar";"C7PQ+QF3, Kepi, Kec. Obaa, Kabupaten Mappi, Papua";"Kabupaten Mappi, Papua";"PAPUA";"";"Indonesia";"";"";"";"-6.564387";"139.288543";"https://maps.google.com/?cid=0x0:0xb542887ef44d2b37";""
"komplek housing";"Komplek perumahan";"Hendrikus Dua";"C7QX+79, Kepi, Kec. Obaa, Kabupaten Mappi, Papua";"Kabupaten Mappi, Papua";"PAPUA";"";"Indonesia";"";"";"";"-6.5618585";"139.2983588";"https://maps.google.com/?cid=0x0:0x293b8eb9eea27206";""
"komplek housing";"Komplek perumahan";"Paparisa";"F889+RX, Obaa, Kec. Obaa, Kabupaten Mappi, Papua 99881";"Obaa, Kec. Obaa, Kabupaten Mappi";"PAPUA";"99881";"Indonesia";"";"";"";"-6.5328787";"139.3199286";"https://maps.google.com/?cid=0x0:0x3140d7bfe5d249b";""
"komplek housing";"Pembangunan Perumahan";"Home Jamlean Family";"Gereja GKO Betlehem, Jl. Poros Agham Belakang No.Km. 05, Kepi, Kec. Obaa, Kabupaten Mappi, Papua";"Kabupaten Mappi, Papua";"PAPUA";"";"Indonesia";"";"";"";"-6.5642371";"139.2977534";"https://maps.google.com/?cid=0x0:0xbfac1aead42e8dee";""
"komplek housing";"Perumahan";"Home Letsoin Family";"C7MW+9H, Kepi, Kec. Obaa, Kabupaten Mappi, Papua";"Kabupaten Mappi, Papua";"PAPUA";"";"Indonesia";"";"";"";"-6.5665282";"139.2964201";"https://maps.google.com/?cid=0x0:0x69f2c2e9cac8397c";""
"komplek housing";"Komplek perumahan";"Rumah";"C7QP+MM5, Jl. Irian Kepi, Kepi, Kec. Obaa, Kabupaten Mappi, Papua 99881";"Jl. Irian Kepi, Kepi, Kec. Obaa, Kabupaten Mappi";"PAPUA";"99881";"Indonesia";" 082191754441";"";"";"-6.5608648";"139.2867347";"https://maps.google.com/?cid=0x0:0xe67a5786c761c9f7";""
"komplek housing";"Sekolah";"Kampung Enem";"F94X+7W7, Enem, Kec. Obaa, Kabupaten Mappi, Papua 99871";"Enem, Kec. Obaa, Kabupaten Mappi";"PAPUA";"99871";"Indonesia";"";"";"";"-6.544371";"139.3997888";"https://maps.google.com/?cid=0x0:0xad71213df0f5c483";""
"komplek housing";"Komplek perumahan";"Perumahan Pemda Mappi";"C7VW+X6W, Jl. Saham Kepi, Kepi, Kec. Obaa, Kabupaten Mappi, Papua 99881";"Jl. Saham Kepi, Kepi, Kec. Obaa, Kabupaten Mappi";"PAPUA";"99881";"Indonesia";"";"";"";"-6.5550093";"139.2955735";"https://maps.google.com/?cid=0x0:0xe4845fe803afb2ad";""
"komplek housing";"Sekolah";"ENEM";"F95X+8PR, Enem, Kec. Obaa, Kabupaten Mappi, Papua 99871";"Enem, Kec. Obaa, Kabupaten Mappi";"PAPUA";"99871";"Indonesia";"";"";"";"-6.5416429";"139.3992782";"https://maps.google.com/?cid=0x0:0xa58c61884b4e5969";""
"komplek housing";"Komplek perumahan";"UCHY Home";"F822+QGP, Jl. Irian Kepi, Kepi, Kec. Obaa, Kabupaten Mappi, Papua 99881";"Jl. Irian Kepi, Kepi, Kec. Obaa, Kabupaten Mappi";"PAPUA";"99881";"Indonesia";"";"";"";"-6.5480261";"139.3013426";"https://maps.google.com/?cid=0x0:0x6d4f67576d46fb7";""
"komplek housing";"Komplek perumahan";"Pondok Gede Housing 1";"Jl. Cipta Raya No.45-3, RT.001/RW.003, Jatirahayu, Kec. Pd. Melati, Kota Bks, Jawa Barat 17414";"RT.001/RW.003, Jatirahayu, Kec. Pd. Melati, Kota Bks";"PAPUA";"17414";"Indonesia";"";"";"";"-6.2852504";"106.9163397";"https://maps.google.com/?cid=0x0:0x3132afedbf38cd61";""
"komplek housing";"Komplek perumahan";"Pondok Gede Housing II";"Housing II, Jl. Raya Hankam, RT.001/RW.004, Jatirahayu, Pondok Gede, Bekasi, West Java";"Kota Bks, Jawa Barat";"PAPUA";"";"Indonesia";"";"";"";"-6.2876701";"106.9147674";"https://maps.google.com/?cid=0x0:0x2a52e601c20d18f2";""
"komplek housing";"Rumah Makan";"Warung nasi MPO endah";"Jl. Teratai No.22, RT.005/RW.003, Jatirahayu, Kec. Pd. Melati, Kota Bks, Jawa Barat 17414";"RT.005/RW.003, Jatirahayu, Kec. Pd. Melati, Kota Bks";"PAPUA";"17414";"Indonesia";" 08978659011";"";"";"-6.2871852";"106.9177055";"https://maps.google.com/?cid=0x0:0x24a530c8f839acea";""
"komplek housing";"komplek housing";"Distrik Minyamur";"Kabupaten Mappi, Papua";"Kabupaten Mappi, Papua";"PAPUA";"";"Indonesia";"";"";"";"-6.5749178";"138.8397403";"https://maps.google.com/?cid=0x0:0xaf9d6fba8ca5978b";""
"komplek housing";"komplek housing";"Kampung Kofar";"FP94+567, Kofar, Distrik Minyamur, Kabupaten Mappi, Papua";"Kabupaten Mappi, Papua";"PAPUA";"";"Indonesia";"";"";"";"-6.5320932";"138.7055395";"https://maps.google.com/?cid=0x0:0x702d0e15a072ecf2";""
"komplek housing";"Komplek perumahan";"Tereyemu";"G4R6+7RV, Tereyemu, Kec. Mambioman Bapai, Kabupaten Mappi, Papua";"Kabupaten Mappi, Papua";"PAPUA";"";"Indonesia";"";"";"";"-6.4592585";"139.1120314";"https://maps.google.com/?cid=0x0:0x7886c6b035ba842d";""
"komplek housing";"komplek housing";"Papua 99853";"Kabupaten Mappi, Papua";"Kabupaten Mappi, Papua";"PAPUA";"";"Indonesia";"";"";"";"-7.1527149";"139.5279996";"https://maps.google.com/?cid=0x0:0x8030f37c187cbb11";""
"komplek housing";"Kantor Perusahaan";"Div. 2 PT. Dongin Prabawa";"MP8F+84, Banamepe, Edera, Kabupaten Mappi, Papua";"Kabupaten Mappi, Papua";"PAPUA";"";"Indonesia";"";"";"";"-7.3342291";"139.7228175";"https://maps.google.com/?cid=0x0:0x1ccb84847c69398";""
"komplek housing";"Kantor Perusahaan";"Divisi 3";"MQ54+VP, Banamepe, Edera, Kabupaten Mappi, Papua";"Kabupaten Mappi, Papua";"PAPUA";"";"Indonesia";"";"";"";"-7.34031";"139.7567761";"https://maps.google.com/?cid=0x0:0x101e8ca27fb89f1b";""
"komplek housing";"Perumahan guru";"Janjaan Watuar";"VH7P+3V, Mememu, Edera, Kabupaten Mappi, Papua";"Kabupaten Mappi, Papua";"PAPUA";"";"Indonesia";"";"";"";"-7.1379974";"139.5871604";"https://maps.google.com/?cid=0x0:0xe22bed2a1b4247fe";""
"komplek housing";"Pembangunan Perumahan";"Kampung chasto";"VCM5+9C, Isyaman, Edera, Kabupaten Mappi, Papua";"Kabupaten Mappi, Papua";"PAPUA";"";"Indonesia";"";"";"";"-7.1165483";"139.4085233";"https://maps.google.com/?cid=0x0:0x6681501163f4bbe6";""
"komplek housing";"Kantor Pemerintah";"Kampung Bade";"RHPV+GX, Bade, Edera, Kabupaten Mappi, Papua";"Kabupaten Mappi, Papua";"PAPUA";"";"Indonesia";"";"";"";"-7.1634372";"139.5942311";"https://maps.google.com/?cid=0x0:0x29ec5a48d3c8d622";""
"komplek housing";"komplek housing";"Kontrakan mas pur";"Bade, Edera, Kabupaten Mappi, Papua";"Kabupaten Mappi, Papua";"PAPUA";"";"Indonesia";" 085259809593";"";"";"-7.1564709";"139.5801508";"https://maps.google.com/?cid=0x0:0x1fe8903938d3e35";""
"komplek housing";"Toko umum";"Kios ACHO";"VH9P+7V, Mememu, Edera, Kabupaten Mappi, Papua";"Kabupaten Mappi, Papua";"PAPUA";"";"Indonesia";"";"";"";"-7.1327008";"139.5867796";"https://maps.google.com/?cid=0x0:0xe42c04b146a6398b";""
"komplek housing";"Pembangunan Perumahan";"Triple J";"6MQR+PFR, Sibi, Edera, Kabupaten Mappi, Papua";"Kabupaten Mappi, Papua";"PAPUA";"";"Indonesia";"";"";"";"-6.7606468";"139.6911374";"https://maps.google.com/?cid=0x0:0xcc3a56b6acc52f62";""
"komplek housing";"Perumahan guru";"Rumah Mutiara";"RHPQ+3W, Bade, Edera, Kabupaten Mappi, Papua";"Kabupaten Mappi, Papua";"PAPUA";"";"Indonesia";"";"";"";"-7.1648557";"139.590942";"https://maps.google.com/?cid=0x0:0x1b3002a44b81b803";""
"komplek housing";"komplek housing";"Rumah radiografer";"6MQR+PFR, Sibi, Edera, Kabupaten Mappi, Papua";"Kabupaten Mappi, Papua";"PAPUA";"";"Indonesia";"";"";"";"-6.7606468";"139.6911374";"https://maps.google.com/?cid=0x0:0xb0aadcbfa3d22b98";""
"komplek housing";"Komplek perumahan";"Rumah Petrus Wameyob (YE9XAC, YG9XAQ, YG9XAS)";"Jl. Irian No.km. 03, RT.006/RW.001, Kepi, Kec. Obaa, Kabupaten Mappi, Papua";"Kabupaten Mappi, Papua";"PAPUA";"";"Indonesia";"";"";"";"-6.5458021";"139.3044607";"https://maps.google.com/?cid=0x0:0x4503101340a95c42";""
"komplek housing";"Balai masyarakat";"Kampung Mur";"4664+3M7, Mur, Kec. Mambioman Bapai, Kabupaten Mappi, Papua";"Kabupaten Mappi, Papua";"PAPUA";"";"Indonesia";"";"";"";"-6.8898397";"139.206684";"https://maps.google.com/?cid=0x0:0x34022a509476e650";""
"komplek housing";"Komplek perumahan";"Rumah Bpk. Yusmadi Dalan";"36VF+587, Mur, Kec. Mambioman Bapai, Kabupaten Mappi, Papua";"Kabupaten Mappi, Papua";"PAPUA";"";"Indonesia";"";"";"";"-6.9070934";"139.2232819";"https://maps.google.com/?cid=0x0:0x68af5503f5d71433";""
"komplek housing";"Pembangunan Perumahan";"Khazanah home";"F8M8+3RC, Obaa, Kec. Obaa, Kabupaten Mappi, Papua 99871";"Obaa, Kec. Obaa, Kabupaten Mappi";"PAPUA";"99871";"Indonesia";"";"";"";"-6.517324";"139.3170231";"https://maps.google.com/?cid=0x0:0x1a6a18739ed8526d";""
"komplek housing";"Kantor Perusahaan";"Mess Putri PT.DP";"JP56+9X4 Lapangan VOLI PT.DP, Banamepe, Edera, Mappi Regency, Papua 99654";"Banamepe, Edera, Mappi Regency";"PAPUA";"99654";"Indonesia";"";"";"";"-7.3929347";"139.7122955";"https://maps.google.com/?cid=0x0:0xdbd1d5145627b3d3";""
"komplek housing";"komplek housing";"Divisi 9";"HQRG+8J, Banamepe, Edera, Kabupaten Mappi, Papua";"Kabupaten Mappi, Papua";"PAPUA";"";"Indonesia";"";"";"";"-7.4091594";"139.7765719";"https://maps.google.com/?cid=0x0:0x6d182033945ba8b1";""
"komplek housing";"Komplek perumahan";"Depus Area";"F8FC+G8G, Kompleks kesehatan, Obaa, Kec. Obaa, Kabupaten Mappi, Papua 99871";"Kompleks kesehatan, Obaa, Kec. Obaa, Kabupaten Mappi";"PAPUA";"99871";"Indonesia";"";"";"";"-6.5261967";"139.3208363";"https://maps.google.com/?cid=0x0:0x551633df51f91572";""
"komplek housing";"Pembangunan Perumahan";"Perumahan Guru Ki Hadjar Dewantara Gang Sereh";"C8J3+85, Kepi, Kec. Obaa, Kabupaten Mappi, Papua";"Kabupaten Mappi, Papua";"PAPUA";"";"Indonesia";"";"";"";"-6.5691785";"139.3029818";"https://maps.google.com/?cid=0x0:0x3023110f7c5ea59b";""
"komplek housing";"Komplek perumahan";"Elmas Home";"C7VW+CXH, Jl. Saham Kepi, Kepi, Kec. Obaa, Kabupaten Mappi, Papua 99881";"Jl. Saham Kepi, Kepi, Kec. Obaa, Kabupaten Mappi";"PAPUA";"99881";"Indonesia";"";"";"";"-6.5564283";"139.2974797";"https://maps.google.com/?cid=0x0:0x5b9f7718cceb6b4c";""
"komplek housing";"komplek housing";"Venaha";"Kabupaten Mappi, Papua";"Kabupaten Mappi, Papua";"PAPUA";"";"Indonesia";"";"";"";"-6.7168056";"139.9366899";"https://maps.google.com/?cid=0x0:0xddadbc1f3a828d9c";""
"komplek housing";"komplek housing";"Divisi 9";"HQRG+8J, Banamepe, Edera, Kabupaten Mappi, Papua";"Kabupaten Mappi, Papua";"PAPUA";"";"Indonesia";"";"";"";"-7.4091594";"139.7765719";"https://maps.google.com/?cid=0x0:0x6d182033945ba8b1";""
"komplek housing";"komplek housing";"Yakomi";"Kabupaten Mappi, Papua";"Kabupaten Mappi, Papua";"PAPUA";"";"Indonesia";"";"";"";"-7.0968657";"139.9777136";"https://maps.google.com/?cid=0x0:0x53b07922dc974e00";""
"komplek housing";"komplek housing";"Distrik Bamgi";"Kabupaten Mappi, Papua";"Kabupaten Mappi, Papua";"PAPUA";"";"Indonesia";"";"";"";"-6.9040338";"139.5081534";"https://maps.google.com/?cid=0x0:0xf07d873e100723e1";""
"komplek housing";"Balai masyarakat";"Kampung Mur";"4664+3M7, Mur, Kec. Mambioman Bapai, Kabupaten Mappi, Papua";"Kabupaten Mappi, Papua";"PAPUA";"";"Indonesia";"";"";"";"-6.8898397";"139.206684";"https://maps.google.com/?cid=0x0:0x34022a509476e650";""
"komplek housing";"Komplek perumahan";"Rumah Bpk. Yusmadi Dalan";"36VF+587, Mur, Kec. Mambioman Bapai, Kabupaten Mappi, Papua";"Kabupaten Mappi, Papua";"PAPUA";"";"Indonesia";"";"";"";"-6.9070934";"139.2232819";"https://maps.google.com/?cid=0x0:0x68af5503f5d71433";""
"komplek housing";"Pembangunan Perumahan";"Kampung chasto";"VCM5+9C, Isyaman, Edera, Kabupaten Mappi, Papua";"Kabupaten Mappi, Papua";"PAPUA";"";"Indonesia";"";"";"";"-7.1165483";"139.4085233";"https://maps.google.com/?cid=0x0:0x6681501163f4bbe6";""
"komplek housing";"komplek housing";"Rumah radiografer";"6MQR+PFR, Sibi, Edera, Kabupaten Mappi, Papua";"Kabupaten Mappi, Papua";"PAPUA";"";"Indonesia";"";"";"";"-6.7606468";"139.6911374";"https://maps.google.com/?cid=0x0:0xb0aadcbfa3d22b98";""
"komplek housing";"komplek housing";"Distrik Syahcame";"Kabupaten Mappi, Papua";"Kabupaten Mappi, Papua";"PAPUA";"";"Indonesia";"";"";"";"-6.92665";"139.6493658";"https://maps.google.com/?cid=0x0:0x731f2b6c588c36e1";""
"komplek housing";"Pembangunan Perumahan";"Triple J";"6MQR+PFR, Sibi, Edera, Kabupaten Mappi, Papua";"Kabupaten Mappi, Papua";"PAPUA";"";"Indonesia";"";"";"";"-6.7606468";"139.6911374";"https://maps.google.com/?cid=0x0:0xcc3a56b6acc52f62";""
"komplek housing";"komplek housing";"Home stay Emson";"VH7P+3V, Mememu, Edera, Kabupaten Mappi, Papua";"Kabupaten Mappi, Papua";"PAPUA";"";"Indonesia";"";"";"";"-7.1373034";"139.5871883";"https://maps.google.com/?cid=0x0:0xb975fb95d4b3df63";""
"komplek housing";"Pembangunan Perumahan";"Kampung chasto";"VCM5+9C, Isyaman, Edera, Kabupaten Mappi, Papua";"Kabupaten Mappi, Papua";"PAPUA";"";"Indonesia";"";"";"";"-7.1165483";"139.4085233";"https://maps.google.com/?cid=0x0:0x6681501163f4bbe6";""
"komplek housing";"komplek housing";"Rumah radiografer";"6MQR+PFR, Sibi, Edera, Kabupaten Mappi, Papua";"Kabupaten Mappi, Papua";"PAPUA";"";"Indonesia";"";"";"";"-6.7606468";"139.6911374";"https://maps.google.com/?cid=0x0:0xb0aadcbfa3d22b98";""
"komplek housing";"Perumahan guru";"Janjaan Watuar";"VH7P+3V, Mememu, Edera, Kabupaten Mappi, Papua";"Kabupaten Mappi, Papua";"PAPUA";"";"Indonesia";"";"";"";"-7.1379974";"139.5871604";"https://maps.google.com/?cid=0x0:0xe22bed2a1b4247fe";""
"komplek housing";"komplek housing";"Kontrakan mas pur";"Bade, Edera, Kabupaten Mappi, Papua";"Kabupaten Mappi, Papua";"PAPUA";"";"Indonesia";" 085259809593";"";"";"-7.1564709";"139.5801508";"https://maps.google.com/?cid=0x0:0x1fe8903938d3e35";""
"komplek housing";"komplek housing";"Papua 99875";"Kabupaten Mappi, Papua";"Kabupaten Mappi, Papua";"PAPUA";"";"Indonesia";"";"";"";"-5.8045486";"139.5279996";"https://maps.google.com/?cid=0x0:0x3c002283937ac804";""
"komplek housing";"Perhimpunan Pengembang Perumahan";"Distrik Passue Bawah";"WGP7+RWC, Keta, Passue Bawah, Kabupaten Mappi, Papua";"Kabupaten Mappi, Papua";"PAPUA";"";"Indonesia";"";"";"";"-6.062941";"139.514775";"https://maps.google.com/?cid=0x0:0x7fb25b4eb0e7694b";""
"komplek housing";"Komplek perumahan";"BASMAN";"FJWH+29, Basman, Distrik Ti Zain, Kabupaten Mappi, Papua";"Kabupaten Mappi, Papua";"PAPUA";"";"Indonesia";"";"";"";"-5.5049375";"139.6284375";"https://maps.google.com/?cid=0x0:0xbac2e9621f6ea5b0";""
"komplek housing";"Pembangunan Perumahan";"Vakam Distrik Joutu Kab. Asmat";"FCV6+XC8, Imembi, Kaibar, Kabupaten Mappi, Papua 99875";"Imembi, Kaibar, Kabupaten Mappi";"PAPUA";"99875";"Indonesia";"";"";"";"-5.505088";"139.411064";"https://maps.google.com/?cid=0x0:0x7cf00b17ac9a10bd";""
"komplek housing";"Komplek perumahan";"Kampung Bidnew";"58HF+WV8, Bidnew, Citakmitak, Kabupaten Mappi, Papua";"Kabupaten Mappi, Papua";"PAPUA";"";"Indonesia";"";"";"";"-5.8202155";"139.3247147";"https://maps.google.com/?cid=0x0:0xa0c4652b54a6fe48";""
"komplek housing";"Komplek perumahan";"Kampung Tiau dan Tayau";"9H5M+G97, Amasu, Kaibar, Kabupaten Mappi, Papua 99875";"Amasu, Kaibar, Kabupaten Mappi";"PAPUA";"99875";"Indonesia";"";"";"";"-5.6412212";"139.5834074";"https://maps.google.com/?cid=0x0:0xa4bf833ad23ce017";""
"komplek housing";"komplek housing";"Alfons'Home";"MJ4R+9G, Fomu, Distrik Ti Zain, Kabupaten Mappi, Papua";"Kabupaten Mappi, Papua";"PAPUA";"";"Indonesia";"";"";"";"-5.3429513";"139.6406956";"https://maps.google.com/?cid=0x0:0x8eb628a50efbb59d";""
"komplek housing";"Komplek perumahan";"Busiri";"W9RQ+38, Busiri, Passue Bawah, Kabupaten Mappi, Papua";"Kabupaten Mappi, Papua";"PAPUA";"";"Indonesia";"";"";"";"-6.05979";"139.3883524";"https://maps.google.com/?cid=0x0:0x5bc2e4893a64a3e6";""
"komplek housing";"komplek housing";"Distrik Ti Zain";"Kabupaten Mappi, Papua";"Kabupaten Mappi, Papua";"PAPUA";"";"Indonesia";"";"";"";"-5.4019657";"139.7132729";"https://maps.google.com/?cid=0x0:0xd1cf1b07f8359ef9";""
"komplek housing";"Komplek perumahan";"BASMAN";"FJWH+29, Basman, Distrik Ti Zain, Kabupaten Mappi, Papua";"Kabupaten Mappi, Papua";"PAPUA";"";"Indonesia";"";"";"";"-5.5049375";"139.6284375";"https://maps.google.com/?cid=0x0:0xbac2e9621f6ea5b0";""
"komplek housing";"komplek housing";"Alfons'Home";"MJ4R+9G, Fomu, Distrik Ti Zain, Kabupaten Mappi, Papua";"Kabupaten Mappi, Papua";"PAPUA";"";"Indonesia";"";"";"";"-5.3429513";"139.6406956";"https://maps.google.com/?cid=0x0:0x8eb628a50efbb59d";""
"komplek housing";"komplek housing";"Rumah Yance";"MF4H+QR8 Binamzain, Kabupaten Asmat, Selatan, Imembi, Kaibar, Kabupaten Mappi, Papua";"Kabupaten Mappi, Papua";"PAPUA";"";"Indonesia";" 082197972792";"";"";"-5.3458463";"139.4788552";"https://maps.google.com/?cid=0x0:0xec40509bc8bdedaa";""
"komplek housing";"Pembangunan Perumahan";"Vakam Distrik Joutu Kab. Asmat";"FCV6+XC8, Imembi, Kaibar, Kabupaten Mappi, Papua 99875";"Imembi, Kaibar, Kabupaten Mappi";"PAPUA";"99875";"Indonesia";"";"";"";"-5.505088";"139.411064";"https://maps.google.com/?cid=0x0:0x7cf00b17ac9a10bd";""
"komplek housing";"Komplek perumahan";"Kampung Tiau dan Tayau";"9H5M+G97, Amasu, Kaibar, Kabupaten Mappi, Papua 99875";"Amasu, Kaibar, Kabupaten Mappi";"PAPUA";"99875";"Indonesia";"";"";"";"-5.6412212";"139.5834074";"https://maps.google.com/?cid=0x0:0xa4bf833ad23ce017";""
"perumahan";"perumahan";"Papua 99871";"Kabupaten Mappi, Papua";"Kabupaten Mappi, Papua";"PAPUA";"";"Indonesia";"";"";"";"-6.3989856";"139.4466005";"https://maps.google.com/?cid=0x0:0xc5ece3ae73b47f90";""
"perumahan";"Balai Pertemuan Desa";"Wanggate";"FGJ5+Q6X, Wanggate, Kec. Obaa, Kabupaten Mappi, Papua 99871";"Wanggate, Kec. Obaa, Kabupaten Mappi";"PAPUA";"99871";"Indonesia";"";"";"";"-6.518022";"139.508102";"https://maps.google.com/?cid=0x0:0x983a24cf60bde13c";""
"perumahan";"Komplek perumahan";"Depus Area";"F8FC+G8G, Kompleks kesehatan, Obaa, Kec. Obaa, Kabupaten Mappi, Papua 99871";"Kompleks kesehatan, Obaa, Kec. Obaa, Kabupaten Mappi";"PAPUA";"99871";"Indonesia";"";"";"";"-6.5261967";"139.3208363";"https://maps.google.com/?cid=0x0:0x551633df51f91572";""
"perumahan";"Komplek perumahan";"Goba";"C7FF+MJC, Kepi, Kec. Obaa, Kabupaten Mappi, Papua";"Kabupaten Mappi, Papua";"PAPUA";"";"Indonesia";"";"";"";"-6.5758084";"139.2740045";"https://maps.google.com/?cid=0x0:0x432923abf73b7f1b";""
"perumahan";"Komplek perumahan";"Mappi";"Jl. Irian Kepi, Kepi, Kec. Obaa, Kabupaten Mappi, Papua 99881";"Kepi, Kec. Obaa, Kabupaten Mappi";"PAPUA";"99881";"Indonesia";"";"";"";"-6.5608648";"139.2867347";"https://maps.google.com/?cid=0x0:0x3fcf2f573baee07";""
"perumahan";"Komplek perumahan";"Perumahan pegawai";"Jl. Saham Kepi, Kepi, Kec. Obaa, Kabupaten Mappi, Papua 99881";"Kepi, Kec. Obaa, Kabupaten Mappi";"PAPUA";"99881";"Indonesia";"";"";"";"-6.552419";"139.2917462";"https://maps.google.com/?cid=0x0:0x13f60f8f5e2c398a";""
"perumahan";"Komplek perumahan";"Rumah Pong Deo";"C8W3+RR5, Jl. Irian Kepi, Obaa, Kec. Obaa, Kabupaten Mappi, Papua 99881";"Jl. Irian Kepi, Obaa, Kec. Obaa, Kabupaten Mappi";"PAPUA";"99881";"Indonesia";"";"";"";"-6.55298";"139.3046062";"https://maps.google.com/?cid=0x0:0x67872c9b784d3111";""
"perumahan";"Komplek perumahan";"Rumah";"C7QP+MM5, Jl. Irian Kepi, Kepi, Kec. Obaa, Kabupaten Mappi, Papua 99881";"Jl. Irian Kepi, Kepi, Kec. Obaa, Kabupaten Mappi";"PAPUA";"99881";"Indonesia";" 082191754441";"";"";"-6.5608648";"139.2867347";"https://maps.google.com/?cid=0x0:0xe67a5786c761c9f7";""
"perumahan";"Komplek perumahan";"KAMPUNG PAEDAM";"FC8W+GJQ, PAEDAM, Kec. Obaa, Kabupaten Mappi, Papua";"Kabupaten Mappi, Papua";"PAPUA";"";"Indonesia";"";"";"";"-6.5336517";"139.4466005";"https://maps.google.com/?cid=0x0:0xa783377b011a1f7c";""
"perumahan";"Pembangunan Perumahan";"Perumahan Guru Ki Hadjar Dewantara Gang Sereh";"C8J3+85, Kepi, Kec. Obaa, Kabupaten Mappi, Papua";"Kabupaten Mappi, Papua";"PAPUA";"";"Indonesia";"";"";"";"-6.5691785";"139.3029818";"https://maps.google.com/?cid=0x0:0x3023110f7c5ea59b";""
"perumahan";"Komplek perumahan";"Rumah Bukit";"F89G+G3, Obaa, Kec. Obaa, Kabupaten Mappi, Papua 99871";"Obaa, Kec. Obaa, Kabupaten Mappi";"PAPUA";"99871";"Indonesia";"";"";"";"-6.530214";"139.325063";"https://maps.google.com/?cid=0x0:0x958b9fce68ac609";""
"perumahan";"Komplek perumahan";"jln tanjung kodok kepi";"F898+MM, Obaa, Kec. Obaa, Kabupaten Mappi, Papua";"Kabupaten Mappi, Papua";"PAPUA";"";"Indonesia";"";"";"";"-6.5307538";"139.3166749";"https://maps.google.com/?cid=0x0:0x9d0baf3f6e534521";""
"perumahan";"Komplek perumahan";"Perumahan Pemda Mappi";"C7VW+X6W, Jl. Saham Kepi, Kepi, Kec. Obaa, Kabupaten Mappi, Papua 99881";"Jl. Saham Kepi, Kepi, Kec. Obaa, Kabupaten Mappi";"PAPUA";"99881";"Indonesia";"";"";"";"-6.5550093";"139.2955735";"https://maps.google.com/?cid=0x0:0xe4845fe803afb2ad";""
"perumahan";"Komplek perumahan";"Hendrikus Dua";"F8GF+96W, Unnamed Road, Obaa, Kec. Obaa, Kabupaten Mappi, Papua 99871";"Unnamed Road, Obaa, Kec. Obaa, Kabupaten Mappi";"PAPUA";"99871";"Indonesia";" 085370702788";"";"";"-6.5240095";"139.3230632";"https://maps.google.com/?cid=0x0:0xcca0097c822ce731";""
"perumahan";"Komplek perumahan";"Rumah Keluarga Tuamely Letsoin";"F877+2J, Obaa, Kec. Obaa, Kabupaten Mappi, Papua 99881";"Obaa, Kec. Obaa, Kabupaten Mappi";"PAPUA";"99881";"Indonesia";" 081247776550";"";"";"-6.5374428";"139.3140207";"https://maps.google.com/?cid=0x0:0xa1436a2cfa71f4b4";""
"perumahan";"Komplek perumahan";"Rumah Petrus Wameyob (YE9XAC, YG9XAQ, YG9XAS)";"Jl. Irian No.km. 03, RT.006/RW.001, Kepi, Kec. Obaa, Kabupaten Mappi, Papua";"Kabupaten Mappi, Papua";"PAPUA";"";"Indonesia";"";"";"";"-6.5458021";"139.3044607";"https://maps.google.com/?cid=0x0:0x4503101340a95c42";""
"perumahan";"Perusahaan Operasi Pelabuhan";"Pelabuhan kayu";"F89G+G3, Obaa, Kec. Obaa, Kabupaten Mappi, Papua 99871";"Obaa, Kec. Obaa, Kabupaten Mappi";"PAPUA";"99871";"Indonesia";"";"";"";"-6.5311366";"139.325182";"https://maps.google.com/?cid=0x0:0x462471878741bb94";""
"perumahan";"perumahan";"Rumah Saleh";"C8W4+P6J, Jl. Irian Kepi, Obaa, Kec. Obaa, Kabupaten Mappi, Papua 99881";"Jl. Irian Kepi, Obaa, Kec. Obaa, Kabupaten Mappi";"PAPUA";"99881";"Indonesia";"";"";"";"-6.5531598";"139.3055234";"https://maps.google.com/?cid=0x0:0x582293d286c67fe3";""
"perumahan";"Pembangunan Perumahan";"Khazanah home";"F8M8+3RC, Obaa, Kec. Obaa, Kabupaten Mappi, Papua 99871";"Obaa, Kec. Obaa, Kabupaten Mappi";"PAPUA";"99871";"Indonesia";"";"";"";"-6.517324";"139.3170231";"https://maps.google.com/?cid=0x0:0x1a6a18739ed8526d";""
"perumahan";"Komplek perumahan";"Tampang home";"C8X4+29J, Jl. Kak, Kepi, Kec. Obaa, Kabupaten Mappi, Papua 99881";"Jl. Kak, Kepi, Kec. Obaa, Kabupaten Mappi";"PAPUA";"99881";"Indonesia";"";"";"";"-6.5524079";"139.3058933";"https://maps.google.com/?cid=0x0:0x1125d86d34a540b5";""
"perumahan";"perumahan";"Kec. Obaa";"Kabupaten Mappi, Papua";"Kabupaten Mappi, Papua";"PAPUA";"";"Indonesia";"";"";"";"-6.5336517";"139.4466005";"https://maps.google.com/?cid=0x0:0x3055588e2dbb9ea4";""
"perumahan";"Komplek perumahan";"Keluarga F. Arawok";"F8CF+6MH, Obaa, Kec. Obaa, Kabupaten Mappi, Papua 99871";"Obaa, Kec. Obaa, Kabupaten Mappi";"PAPUA";"99871";"Indonesia";"";"";"";"-6.5291";"139.3245776";"https://maps.google.com/?cid=0x0:0x17c6a5da3560193f";""
"perumahan";"Sekolah";"Kampung Enem";"F94X+7W7, Enem, Kec. Obaa, Kabupaten Mappi, Papua 99871";"Enem, Kec. Obaa, Kabupaten Mappi";"PAPUA";"99871";"Indonesia";"";"";"";"-6.544371";"139.3997888";"https://maps.google.com/?cid=0x0:0xad71213df0f5c483";""
"perumahan";"Motel";"kost Rumah wasilisa";"Jl. Kaman, Kepi, Kec. Obaa, Kabupaten Mappi, Papua 99871";"Kepi, Kec. Obaa, Kabupaten Mappi";"PAPUA";"99871";"Indonesia";" 081248534380";"";"";"-6.5414714";"139.3165942";"https://maps.google.com/?cid=0x0:0xa6f822974aab3cef";""
"perumahan";"perumahan";"Kampung Baru";"F8GF+X2X, Wamom, Kec. Obaa, Kabupaten Mappi, Papua 99871";"Wamom, Kec. Obaa, Kabupaten Mappi";"PAPUA";"99871";"Indonesia";" 085244000235";"";"";"-6.5226156";"139.3225495";"https://maps.google.com/?cid=0x0:0xfe6c38c910d9773e";""
"perumahan";"Komplek perumahan";"Rumah sewah";"F8M8+5RG, Obaa, Kec. Obaa, Kabupaten Mappi, Papua";"Kabupaten Mappi, Papua";"PAPUA";"";"Indonesia";"";"";"";"-6.517057";"139.317093";"https://maps.google.com/?cid=0x0:0x64e3c995af36c14e";""
"perumahan";"Perumahan";"Rumah Keluarga Pak Victor Mendila";"Jalan Poros Agham No.km 6, Kepi, Kec. Obaa, Kabupaten Mappi, Papua";"Kabupaten Mappi, Papua";"PAPUA";"";"Indonesia";" 085244714143";"";"";"-6.5617739";"139.2879673";"https://maps.google.com/?cid=0x0:0x2f7326ef05d711ac";""
"perumahan";"perumahan";"Citakmitak";"Kabupaten Mappi, Papua";"Kabupaten Mappi, Papua";"PAPUA";"";"Indonesia";"";"";"";"-5.8202155";"139.3247147";"https://maps.google.com/?cid=0x0:0xa6f0a4c02cdb66dc";""
"perumahan";"Komplek perumahan";"Perumahan Dinas ibu Ella";"8962+6H9, Senggo, Citakmitak, Kabupaten Mappi, Papua 99875";"Senggo, Citakmitak, Kabupaten Mappi";"PAPUA";"99875";"Indonesia";"";"";"";"-5.6894643";"139.3514922";"https://maps.google.com/?cid=0x0:0x4e6813d2a2c84610";""
"perumahan";"Pembangunan Perumahan";"Vakam Distrik Joutu Kab. Asmat";"FCV6+XC8, Imembi, Kaibar, Kabupaten Mappi, Papua 99875";"Imembi, Kaibar, Kabupaten Mappi";"PAPUA";"99875";"Indonesia";"";"";"";"-5.505088";"139.411064";"https://maps.google.com/?cid=0x0:0x7cf00b17ac9a10bd";""
"perumahan";"Komplek perumahan";"BASMAN";"FJWH+29, Basman, Distrik Ti Zain, Kabupaten Mappi, Papua";"Kabupaten Mappi, Papua";"PAPUA";"";"Indonesia";"";"";"";"-5.5049375";"139.6284375";"https://maps.google.com/?cid=0x0:0xbac2e9621f6ea5b0";""
"perumahan";"Taman";"Kampung Womin";"5HFQ+CJH, Womin, Citakmitak, Kabupaten Mappi, Papua";"Kabupaten Mappi, Papua";"PAPUA";"";"Indonesia";"";"";"";"-5.8264318";"139.5891233";"https://maps.google.com/?cid=0x0:0xd3fd82cce8b196eb";""
"perumahan";"perumahan";"Keluarga Emenu";"886X+MJ, Senggo, Citakmitak, Kabupaten Mappi, Papua";"Kabupaten Mappi, Papua";"PAPUA";"";"Indonesia";"";"";"";"-5.6883236";"139.3490028";"https://maps.google.com/?cid=0x0:0xcfcf1865c2873b4d";""
"perumahan";"perumahan";"Papua 99853";"Kabupaten Mappi, Papua";"Kabupaten Mappi, Papua";"PAPUA";"";"Indonesia";"";"";"";"-7.1527149";"139.5279996";"https://maps.google.com/?cid=0x0:0x8030f37c187cbb11";""
"perumahan";"Pembangunan Perumahan";"KAMPUNG YODOM";"PFX8+28W, Yodom, Edera, Kabupaten Mappi, Papua 99853";"Yodom, Edera, Kabupaten Mappi";"PAPUA";"99853";"Indonesia";"";"";"";"-7.2523985";"139.4658411";"https://maps.google.com/?cid=0x0:0x14d3cc1d1a34a6f8";""
"perumahan";"perumahan";"Rumah radiografer";"6MQR+PFR, Sibi, Edera, Kabupaten Mappi, Papua";"Kabupaten Mappi, Papua";"PAPUA";"";"Indonesia";"";"";"";"-6.7606468";"139.6911374";"https://maps.google.com/?cid=0x0:0xb0aadcbfa3d22b98";""
"perumahan";"Komplek perumahan";"Perumahan guru (Emzon)";"VH7P+3V, Mememu, Edera, Kabupaten Mappi, Papua";"Kabupaten Mappi, Papua";"PAPUA";"";"Indonesia";" 082272222316";"";"";"-7.1372788";"139.5871548";"https://maps.google.com/?cid=0x0:0x2ae733fcdf177312";""
"perumahan";"Perumahan guru";"Rumah Mutiara";"RHPQ+3W, Bade, Edera, Kabupaten Mappi, Papua";"Kabupaten Mappi, Papua";"PAPUA";"";"Indonesia";"";"";"";"-7.1648557";"139.590942";"https://maps.google.com/?cid=0x0:0x1b3002a44b81b803";""
"perumahan";"Komplek perumahan";"KAMPUNG KONEBI";"XFG8+J3G, Konebi, Edera, Kabupaten Mappi, Papua 99853";"Konebi, Edera, Kabupaten Mappi";"PAPUA";"99853";"Indonesia";"";"";"";"-7.0234392";"139.4652095";"https://maps.google.com/?cid=0x0:0x519f5dbff94b7137";""
"perumahan";"Kantor Perusahaan";"BANAM EPE";"PH73+FGR, Banamepe, Edera, Kabupaten Mappi, Papua 99853";"Banamepe, Edera, Kabupaten Mappi";"PAPUA";"99853";"Indonesia";"";"";"";"-7.2862573";"139.5537663";"https://maps.google.com/?cid=0x0:0x6219feb1ccb2c8bf";""
"perumahan";"Pembangunan Perumahan";"Triple J";"6MQR+PFR, Sibi, Edera, Kabupaten Mappi, Papua";"Kabupaten Mappi, Papua";"PAPUA";"";"Indonesia";"";"";"";"-6.7606468";"139.6911374";"https://maps.google.com/?cid=0x0:0xcc3a56b6acc52f62";""
"perumahan";"perumahan";"Kontrakan mas pur";"Bade, Edera, Kabupaten Mappi, Papua";"Kabupaten Mappi, Papua";"PAPUA";"";"Indonesia";" 085259809593";"";"";"-7.1564709";"139.5801508";"https://maps.google.com/?cid=0x0:0x1fe8903938d3e35";""
"perumahan";"Kantor Perusahaan";"Divisi 3";"MQ54+VP, Banamepe, Edera, Kabupaten Mappi, Papua";"Kabupaten Mappi, Papua";"PAPUA";"";"Indonesia";"";"";"";"-7.34031";"139.7567761";"https://maps.google.com/?cid=0x0:0x101e8ca27fb89f1b";""
"perumahan";"Kantor Pemerintah";"Kampung Bade";"RHPV+GX, Bade, Edera, Kabupaten Mappi, Papua";"Kabupaten Mappi, Papua";"PAPUA";"";"Indonesia";"";"";"";"-7.1634372";"139.5942311";"https://maps.google.com/?cid=0x0:0x29ec5a48d3c8d622";""
"perumahan";"Perumahan guru";"Janjaan Watuar";"VH7P+3V, Mememu, Edera, Kabupaten Mappi, Papua";"Kabupaten Mappi, Papua";"PAPUA";"";"Indonesia";"";"";"";"-7.1379974";"139.5871604";"https://maps.google.com/?cid=0x0:0xe22bed2a1b4247fe";""
"perumahan";"perumahan";"kampu";"WM9C+475, Gimikia, Edera, Kabupaten Mappi, Papua 99853";"Gimikia, Edera, Kabupaten Mappi";"PAPUA";"99853";"Indonesia";"";"";"";"-7.0822391";"139.6707205";"https://maps.google.com/?cid=0x0:0x9c6258ad28ea77f7";""
"perumahan";"Toko umum";"Kios ACHO";"VH9P+7V, Mememu, Edera, Kabupaten Mappi, Papua";"Kabupaten Mappi, Papua";"PAPUA";"";"Indonesia";"";"";"";"-7.1327008";"139.5867796";"https://maps.google.com/?cid=0x0:0xe42c04b146a6398b";""
"perumahan";"Pembangunan Perumahan";"Kampung chasto";"VCM5+9C, Isyaman, Edera, Kabupaten Mappi, Papua";"Kabupaten Mappi, Papua";"PAPUA";"";"Indonesia";"";"";"";"-7.1165483";"139.4085233";"https://maps.google.com/?cid=0x0:0x6681501163f4bbe6";""
"perumahan";"Kantor Perusahaan";"Div. 2 PT. Dongin Prabawa";"MP8F+84, Banamepe, Edera, Kabupaten Mappi, Papua";"Kabupaten Mappi, Papua";"PAPUA";"";"Indonesia";"";"";"";"-7.3342291";"139.7228175";"https://maps.google.com/?cid=0x0:0x1ccb84847c69398";""
"perumahan";"perumahan";"Home stay Emson";"VH7P+3V, Mememu, Edera, Kabupaten Mappi, Papua";"Kabupaten Mappi, Papua";"PAPUA";"";"Indonesia";"";"";"";"-7.1373034";"139.5871883";"https://maps.google.com/?cid=0x0:0xb975fb95d4b3df63";""
"perumahan";"Pusat Kesehatan Masyarakat";"PKM Sahapikiya";"4VPP+R99, Unnamed Road, Sahapikia, Venaha, Kabupaten Mappi, Papua 99853";"Unnamed Road, Sahapikia, Venaha, Kabupaten Mappi";"PAPUA";"99853";"Indonesia";"";"";"";"-6.8629607";"139.8859941";"https://maps.google.com/?cid=0x0:0xfbaad3b8aded8b3b";""
"perumahan";"perumahan";"Papua 99881";"Kabupaten Mappi, Papua";"Kabupaten Mappi, Papua";"PAPUA";"";"Indonesia";"";"";"";"-6.2344696";"139.1221414";"https://maps.google.com/?cid=0x0:0x16d53cf515d4db1d";""
"perumahan";"Komplek perumahan";"Tokhom";"Q86M+58, Kerke, Kec. Haju, Kabupaten Mappi, Papua";"Kabupaten Mappi, Papua";"PAPUA";"";"Indonesia";"";"";"";"-6.2395196";"139.3332703";"https://maps.google.com/?cid=0x0:0xdd9e67e70ffe7091";""
"perumahan";"Pembangunan Perumahan";"𝑹𝒖𝒎𝒂𝒉 𝒔𝒊𝒓𝒉𝒂𝒏 Alhamid";"F823+237, Kepi, Kec. Obaa, Kabupaten Mappi, Papua 99881";"Kepi, Kec. Obaa, Kabupaten Mappi";"PAPUA";"99881";"Indonesia";"";"";"";"-6.5499396";"139.3049642";"https://maps.google.com/?cid=0x0:0x1101e737f20ba4ff";""
"perumahan";"Pembangunan Perumahan";"Miaro";"R225+J9P, Kaibu, Kec. Haju, Kabupaten Mappi, Papua 99881";"Kaibu, Kec. Haju, Kabupaten Mappi";"PAPUA";"99881";"Indonesia";"";"";"";"-6.198416";"139.0084435";"https://maps.google.com/?cid=0x0:0xa76628124fa46f4e";""
"perumahan";"Komplek perumahan";"Hendrikus Dua";"F8GF+96W, Unnamed Road, Obaa, Kec. Obaa, Kabupaten Mappi, Papua 99871";"Unnamed Road, Obaa, Kec. Obaa, Kabupaten Mappi";"PAPUA";"99871";"Indonesia";" 085370702788";"";"";"-6.5240095";"139.3230632";"https://maps.google.com/?cid=0x0:0xcca0097c822ce731";""
"perumahan";"Komplek perumahan";"Kampung Warogom";"PX76+9M4, Warogom, Kec. Haju, Kabupaten Mappi, Papua 99881";"Warogom, Kec. Haju, Kabupaten Mappi";"PAPUA";"99881";"Indonesia";"";"";"";"-6.2866143";"138.9617035";"https://maps.google.com/?cid=0x0:0xd1e190127c4a30c2";""
"perumahan";"Pembangunan Perumahan";"Kampung agham";"C6J4+2M, Agham, Kec. Mambioman Bapai, Kabupaten Mappi, Papua 99881";"Agham, Kec. Mambioman Bapai, Kabupaten Mappi";"PAPUA";"99881";"Indonesia";"";"";"";"-6.5698566";"139.2055592";"https://maps.google.com/?cid=0x0:0xec2ed3dbabc4f565";""
"perumahan";"Komplek perumahan";"Mappi";"Jl. Irian Kepi, Kepi, Kec. Obaa, Kabupaten Mappi, Papua 99881";"Kepi, Kec. Obaa, Kabupaten Mappi";"PAPUA";"99881";"Indonesia";"";"";"";"-6.5608648";"139.2867347";"https://maps.google.com/?cid=0x0:0x3fcf2f573baee07";""
"perumahan";"Perhimpunan Pengembang Perumahan";"Simpang 3 Saham";"C7VX+9M7, Jl. Saham Kepi, Kepi, Kec. Obaa, Kabupaten Mappi, Papua 99881";"Jl. Saham Kepi, Kepi, Kec. Obaa, Kabupaten Mappi";"PAPUA";"99881";"Indonesia";"";"";"";"-6.5570601";"139.2995301";"https://maps.google.com/?cid=0x0:0xf7aa01911e278cf7";""
"perumahan";"Perhimpunan Pengembang Perumahan";"Kampung Masin";"Mappi Bawah, Kec. Obaa, Kabupaten Mappi, Papua";"Kabupaten Mappi, Papua";"PAPUA";"";"Indonesia";"";"";"";"-6.2745642";"139.3503784";"https://maps.google.com/?cid=0x0:0xff6883b17a235fca";""
"perumahan";"Komplek perumahan";"Rumah Keluarga Tuamely Letsoin";"F877+2J, Obaa, Kec. Obaa, Kabupaten Mappi, Papua 99881";"Obaa, Kec. Obaa, Kabupaten Mappi";"PAPUA";"99881";"Indonesia";" 081247776550";"";"";"-6.5374428";"139.3140207";"https://maps.google.com/?cid=0x0:0xa1436a2cfa71f4b4";""
"perumahan";"Pembangunan Perumahan";"Perumahan Guru Ki Hadjar Dewantara Gang Sereh";"C8J3+85, Kepi, Kec. Obaa, Kabupaten Mappi, Papua";"Kabupaten Mappi, Papua";"PAPUA";"";"Indonesia";"";"";"";"-6.5691785";"139.3029818";"https://maps.google.com/?cid=0x0:0x3023110f7c5ea59b";""
"perumahan";"Pembangunan Perumahan";"Kampung Gairipim";"PX56+C37, Gairipim, Kec. Haju, Kabupaten Mappi, Papua 99881";"Gairipim, Kec. Haju, Kabupaten Mappi";"PAPUA";"99881";"Indonesia";"";"";"";"-6.2914539";"138.9601636";"https://maps.google.com/?cid=0x0:0x2c9ebac89c07d9d1";""
"perumahan";"Pembangunan Perumahan";"Amenda";"R2J9+6X, Amenda, Kec. Haju, Kabupaten Mappi, Papua";"Kabupaten Mappi, Papua";"PAPUA";"";"Indonesia";"";"";"";"-6.1694293";"139.0199738";"https://maps.google.com/?cid=0x0:0xd92f6d667cda08b2";""
"perumahan";"Komplek perumahan";"Rumah Petrus Wameyob (YE9XAC, YG9XAQ, YG9XAS)";"Jl. Irian No.km. 03, RT.006/RW.001, Kepi, Kec. Obaa, Kabupaten Mappi, Papua";"Kabupaten Mappi, Papua";"PAPUA";"";"Indonesia";"";"";"";"-6.5458021";"139.3044607";"https://maps.google.com/?cid=0x0:0x4503101340a95c42";""
"perumahan";"perumahan";"Gereja St Theresia Gaibugir";"PX66+569, Gairipim, Kec. Haju, Kabupaten Mappi, Papua 99881";"Gairipim, Kec. Haju, Kabupaten Mappi";"PAPUA";"99881";"Indonesia";"";"";"";"-6.289579";"138.9606122";"https://maps.google.com/?cid=0x0:0xf6ed139b95f53aa5";""
"perumahan";"Komplek perumahan";"Perumahan pegawai";"Jl. Saham Kepi, Kepi, Kec. Obaa, Kabupaten Mappi, Papua 99881";"Kepi, Kec. Obaa, Kabupaten Mappi";"PAPUA";"99881";"Indonesia";"";"";"";"-6.552419";"139.2917462";"https://maps.google.com/?cid=0x0:0x13f60f8f5e2c398a";""
"perumahan";"Komplek perumahan";"Rumah Pong Deo";"C8W3+RR5, Jl. Irian Kepi, Obaa, Kec. Obaa, Kabupaten Mappi, Papua 99881";"Jl. Irian Kepi, Obaa, Kec. Obaa, Kabupaten Mappi";"PAPUA";"99881";"Indonesia";"";"";"";"-6.55298";"139.3046062";"https://maps.google.com/?cid=0x0:0x67872c9b784d3111";""
"perumahan";"Komplek perumahan";"Tampang home";"C8X4+29J, Jl. Kak, Kepi, Kec. Obaa, Kabupaten Mappi, Papua 99881";"Jl. Kak, Kepi, Kec. Obaa, Kabupaten Mappi";"PAPUA";"99881";"Indonesia";"";"";"";"-6.5524079";"139.3058933";"https://maps.google.com/?cid=0x0:0x1125d86d34a540b5";""
"perumahan";"Komplek perumahan";"Rumah";"C7QP+MM5, Jl. Irian Kepi, Kepi, Kec. Obaa, Kabupaten Mappi, Papua 99881";"Jl. Irian Kepi, Kepi, Kec. Obaa, Kabupaten Mappi";"PAPUA";"99881";"Indonesia";" 082191754441";"";"";"-6.5608648";"139.2867347";"https://maps.google.com/?cid=0x0:0xe67a5786c761c9f7";""
"perumahan";"perumahan";"Kec. Haju";"Kabupaten Mappi, Papua";"Kabupaten Mappi, Papua";"PAPUA";"";"Indonesia";"";"";"";"-6.2564518";"139.0009403";"https://maps.google.com/?cid=0x0:0x13ee01b9b298781a";""
"perumahan";"Pusat Kesehatan Masyarakat";"Puskesmas Haju";"Yagatsu, Kec. Haju, Kabupaten Mappi, Papua 99881";"Kec. Haju, Kabupaten Mappi";"PAPUA";"99881";"Indonesia";"";"";"";"-6.2704893";"139.0561649";"https://maps.google.com/?cid=0x0:0xce8e1eb9280e01b";""
"perumahan";"Komplek perumahan";"Elmas Home";"C7VW+CXH, Jl. Saham Kepi, Kepi, Kec. Obaa, Kabupaten Mappi, Papua 99881";"Jl. Saham Kepi, Kepi, Kec. Obaa, Kabupaten Mappi";"PAPUA";"99881";"Indonesia";"";"";"";"-6.5564283";"139.2974797";"https://maps.google.com/?cid=0x0:0x5b9f7718cceb6b4c";""
"perumahan";"perumahan";"Papua 99874";"Kabupaten Mappi, Papua";"Kabupaten Mappi, Papua";"PAPUA";"";"Indonesia";"";"";"";"-5.8215295";"138.9605972";"https://maps.google.com/?cid=0x0:0xac074e8d0ff33f49";""
"perumahan";"Pembangunan Perumahan";"Kampung Meda";"8423+P43, Chanani, Kec. Assue, Kabupaten Mappi, Papua";"Kabupaten Mappi, Papua";"PAPUA";"";"Indonesia";"";"";"";"-5.6982405";"139.1028045";"https://maps.google.com/?cid=0x0:0xd9ee41415432aa7c";""
"perumahan";"Pembangunan Perumahan";"Kampung Keru";"4XH8+GX6, Keru, Kec. Assue, Kabupaten Mappi, Papua";"Kabupaten Mappi, Papua";"PAPUA";"";"Indonesia";"";"";"";"-5.8712219";"138.9673838";"https://maps.google.com/?cid=0x0:0x6f8e78aed826e5b4";""
"perumahan";"Pembangunan Perumahan";"Amenda";"R2J9+6X, Amenda, Kec. Haju, Kabupaten Mappi, Papua";"Kabupaten Mappi, Papua";"PAPUA";"";"Indonesia";"";"";"";"-6.1694293";"139.0199738";"https://maps.google.com/?cid=0x0:0xd92f6d667cda08b2";""
"perumahan";"Perhimpunan Pengembang Perumahan";"Kampung Wowi";"F689+7P, Wowi, Suator, Kabupaten Asmat, Papua";"Kabupaten Asmat, Papua";"PAPUA";"";"Indonesia";"";"";"";"-5.5343065";"139.2193176";"https://maps.google.com/?cid=0x0:0x7f8af7fbce722bb3";""
"perumahan";"Kantor Perusahaan";"Perumahan Asisten Sekda Provinsi Papua";"FPJ5+PCW, Angkasapura, Kec. Jayapura Utara, Kota Jayapura, Papua 99114";"Angkasapura, Kec. Jayapura Utara, Kota Jayapura";"PAPUA";"99114";"Indonesia";"";"";"";"-2.5181372";"140.7085688";"https://maps.google.com/?cid=0x0:0x735af2def5609d2c";""
"perumahan";"Komplek perumahan";"Perairan kondo";"V5G2+26, Eci, Kec. Assue, Kabupaten Mappi, Papua";"Kabupaten Mappi, Papua";"PAPUA";"";"Indonesia";"";"";"";"-6.1248873";"139.1505349";"https://maps.google.com/?cid=0x0:0xb15ab97492669d1a";""
"perumahan";"Pembangunan Perumahan";"Rumdis SD ABOGE";"W6PW+R8M, Kopi, Kec. Assue, Kabupaten Mappi, Papua";"Kabupaten Mappi, Papua";"PAPUA";"";"Indonesia";"";"";"";"-6.062902";"139.2457863";"https://maps.google.com/?cid=0x0:0xc826f9f89fe6f6f3";""
"perumahan";"Perhimpunan Pengembang Perumahan";"Kampung jinak";"F3W7+9GJ, Jinak, Suator, Kabupaten Asmat, Papua 99776";"Jinak, Suator, Kabupaten Asmat";"PAPUA";"99776";"Indonesia";"";"";"";"-5.5040413";"139.063772";"https://maps.google.com/?cid=0x0:0x4829476b6af69f42";""
"perumahan";"Perhimpunan Pengembang Perumahan";"Kampung Masin";"Mappi Bawah, Kec. Obaa, Kabupaten Mappi, Papua";"Kabupaten Mappi, Papua";"PAPUA";"";"Indonesia";"";"";"";"-6.2745642";"139.3503784";"https://maps.google.com/?cid=0x0:0xff6883b17a235fca";""
"perumahan";"Komplek perumahan";"Kampung Bidnew";"58HF+WV8, Bidnew, Citakmitak, Kabupaten Mappi, Papua";"Kabupaten Mappi, Papua";"PAPUA";"";"Indonesia";"";"";"";"-5.8202155";"139.3247147";"https://maps.google.com/?cid=0x0:0xa0c4652b54a6fe48";""
"perumahan";"Sekolah Dasar";"Rumah Dinas Guru SMP Aboge";"W7P6+65M, Aboge, Kec. Assue, Kabupaten Mappi, Papua";"Kabupaten Mappi, Papua";"PAPUA";"";"Indonesia";"";"";"";"-6.0644223";"139.2604295";"https://maps.google.com/?cid=0x0:0x17333d48d4342e2d";""
"perumahan";"Pembangunan Perumahan";"Perumahan Apernas";"9R45+X97, Jl. Poros, Koya Bar., Kec. Muara Tami, Kota Jayapura, Papua 99351";"Jl. Poros, Koya Bar., Kec. Muara Tami, Kota Jayapura";"PAPUA";"99351";"Indonesia";"";"";"";"-2.6425777";"140.8084287";"https://maps.google.com/?cid=0x0:0xe22864b00f179a44";""
"perumahan";"Komplek perumahan";"Kampung binei";"8Q32+7M, Bine, Atsy, Kabupaten Asmat, Papua";"Kabupaten Asmat, Papua";"PAPUA";"";"Indonesia";"";"";"";"-5.696814";"138.7516581";"https://maps.google.com/?cid=0x0:0xa30ac6d8379e0a0e";""
"perumahan";"perumahan";"Keluarga Emenu";"886X+MJ, Senggo, Citakmitak, Kabupaten Mappi, Papua";"Kabupaten Mappi, Papua";"PAPUA";"";"Indonesia";"";"";"";"-5.6883236";"139.3490028";"https://maps.google.com/?cid=0x0:0xcfcf1865c2873b4d";""
"perumahan";"perumahan";"Papua 99875";"Kabupaten Mappi, Papua";"Kabupaten Mappi, Papua";"PAPUA";"";"Indonesia";"";"";"";"-5.8045486";"139.5279996";"https://maps.google.com/?cid=0x0:0x3c002283937ac804";""
"perumahan";"Komplek perumahan";"Kampung Tiau dan Tayau";"9H5M+G97, Amasu, Kaibar, Kabupaten Mappi, Papua 99875";"Amasu, Kaibar, Kabupaten Mappi";"PAPUA";"99875";"Indonesia";"";"";"";"-5.6412212";"139.5834074";"https://maps.google.com/?cid=0x0:0xa4bf833ad23ce017";""
"perumahan";"Pembangunan Perumahan";"Vakam Distrik Joutu Kab. Asmat";"FCV6+XC8, Imembi, Kaibar, Kabupaten Mappi, Papua 99875";"Imembi, Kaibar, Kabupaten Mappi";"PAPUA";"99875";"Indonesia";"";"";"";"-5.505088";"139.411064";"https://maps.google.com/?cid=0x0:0x7cf00b17ac9a10bd";""
"perumahan";"Komplek perumahan";"Kampung Bidnew";"58HF+WV8, Bidnew, Citakmitak, Kabupaten Mappi, Papua";"Kabupaten Mappi, Papua";"PAPUA";"";"Indonesia";"";"";"";"-5.8202155";"139.3247147";"https://maps.google.com/?cid=0x0:0xa0c4652b54a6fe48";""
"perumahan";"Komplek perumahan";"BASMAN";"FJWH+29, Basman, Distrik Ti Zain, Kabupaten Mappi, Papua";"Kabupaten Mappi, Papua";"PAPUA";"";"Indonesia";"";"";"";"-5.5049375";"139.6284375";"https://maps.google.com/?cid=0x0:0xbac2e9621f6ea5b0";""
"perumahan";"Perhimpunan Pengembang Perumahan";"Distrik Passue Bawah";"WGP7+RWC, Keta, Passue Bawah, Kabupaten Mappi, Papua";"Kabupaten Mappi, Papua";"PAPUA";"";"Indonesia";"";"";"";"-6.062941";"139.514775";"https://maps.google.com/?cid=0x0:0x7fb25b4eb0e7694b";""
"perumahan";"Perhimpunan Pengembang Perumahan";"Kampung Wowi";"F689+7P, Wowi, Suator, Kabupaten Asmat, Papua";"Kabupaten Asmat, Papua";"PAPUA";"";"Indonesia";"";"";"";"-5.5343065";"139.2193176";"https://maps.google.com/?cid=0x0:0x7f8af7fbce722bb3";""
"perumahan";"Komplek perumahan";"Busiri";"W9RQ+38, Busiri, Passue Bawah, Kabupaten Mappi, Papua";"Kabupaten Mappi, Papua";"PAPUA";"";"Indonesia";"";"";"";"-6.05979";"139.3883524";"https://maps.google.com/?cid=0x0:0x5bc2e4893a64a3e6";""
"perumahan";"Balai masyarakat";"KAMPUNG AIFA";"7PQV+83X, Aifo, Distrik Bomakia, Kabupaten Boven Digoel, Papua";"Kabupaten Boven Digoel, Papua";"PAPUA";"";"Indonesia";"";"";"";"-5.7116281";"139.742726";"https://maps.google.com/?cid=0x0:0xe376516d868bb160";""
"perumahan";"Komplek perumahan";"Kampung Bivo";"VGX5+PPM, Keta, Passue Bawah, Kabupaten Mappi, Papua";"Kabupaten Mappi, Papua";"PAPUA";"";"Indonesia";"";"";"";"-6.100664";"139.509308";"https://maps.google.com/?cid=0x0:0xc8066b15610df4b5";""
"perumahan";"perumahan";"Kaibar";"Kabupaten Mappi, Papua";"Kabupaten Mappi, Papua";"PAPUA";"";"Indonesia";"";"";"";"-5.648821";"139.6503106";"https://maps.google.com/?cid=0x0:0x2abae84f57ef7c51";""
"perumahan";"Taman";"Kampung Womin";"5HFQ+CJH, Womin, Citakmitak, Kabupaten Mappi, Papua";"Kabupaten Mappi, Papua";"PAPUA";"";"Indonesia";"";"";"";"-5.8264318";"139.5891233";"https://maps.google.com/?cid=0x0:0xd3fd82cce8b196eb";""
"perumahan";"Pondok pedesaan";"Mabul distrik buluanop";"PP7W+6J, Yaniruma, Kabupaten Boven Digoel, Papua";"Kabupaten Boven Digoel, Papua";"PAPUA";"";"Indonesia";"";"";"";"-5.2870591";"139.7474962";"https://maps.google.com/?cid=0x0:0xf6a76dbd26e793b2";""
"perumahan";"perumahan";"Keluarga Emenu";"886X+MJ, Senggo, Citakmitak, Kabupaten Mappi, Papua";"Kabupaten Mappi, Papua";"PAPUA";"";"Indonesia";"";"";"";"-5.6883236";"139.3490028";"https://maps.google.com/?cid=0x0:0xcfcf1865c2873b4d";""
"perumahan";"perumahan";"Papua 99871";"Kabupaten Mappi, Papua";"Kabupaten Mappi, Papua";"PAPUA";"";"Indonesia";"";"";"";"-6.3989856";"139.4466005";"https://maps.google.com/?cid=0x0:0xc5ece3ae73b47f90";""
"perumahan";"Komplek perumahan";"Depus Area";"F8FC+G8G, Kompleks kesehatan, Obaa, Kec. Obaa, Kabupaten Mappi, Papua 99871";"Kompleks kesehatan, Obaa, Kec. Obaa, Kabupaten Mappi";"PAPUA";"99871";"Indonesia";"";"";"";"-6.5261967";"139.3208363";"https://maps.google.com/?cid=0x0:0x551633df51f91572";""
"perumahan";"Balai Pertemuan Desa";"Wanggate";"FGJ5+Q6X, Wanggate, Kec. Obaa, Kabupaten Mappi, Papua 99871";"Wanggate, Kec. Obaa, Kabupaten Mappi";"PAPUA";"99871";"Indonesia";"";"";"";"-6.518022";"139.508102";"https://maps.google.com/?cid=0x0:0x983a24cf60bde13c";""
"perumahan";"Komplek perumahan";"KAMPUNG PAEDAM";"FC8W+GJQ, PAEDAM, Kec. Obaa, Kabupaten Mappi, Papua";"Kabupaten Mappi, Papua";"PAPUA";"";"Indonesia";"";"";"";"-6.5336517";"139.4466005";"https://maps.google.com/?cid=0x0:0xa783377b011a1f7c";""
"perumahan";"Perhimpunan Pengembang Perumahan";"Distrik Passue Bawah";"WGP7+RWC, Keta, Passue Bawah, Kabupaten Mappi, Papua";"Kabupaten Mappi, Papua";"PAPUA";"";"Indonesia";"";"";"";"-6.062941";"139.514775";"https://maps.google.com/?cid=0x0:0x7fb25b4eb0e7694b";""
"perumahan";"Komplek perumahan";"Hendrikus Dua";"F8GF+96W, Unnamed Road, Obaa, Kec. Obaa, Kabupaten Mappi, Papua 99871";"Unnamed Road, Obaa, Kec. Obaa, Kabupaten Mappi";"PAPUA";"99871";"Indonesia";" 085370702788";"";"";"-6.5240095";"139.3230632";"https://maps.google.com/?cid=0x0:0xcca0097c822ce731";""
"perumahan";"Komplek perumahan";"Rumah Pong Deo";"C8W3+RR5, Jl. Irian Kepi, Obaa, Kec. Obaa, Kabupaten Mappi, Papua 99881";"Jl. Irian Kepi, Obaa, Kec. Obaa, Kabupaten Mappi";"PAPUA";"99881";"Indonesia";"";"";"";"-6.55298";"139.3046062";"https://maps.google.com/?cid=0x0:0x67872c9b784d3111";""
"perumahan";"Pembangunan Perumahan";"Perumahan Guru Ki Hadjar Dewantara Gang Sereh";"C8J3+85, Kepi, Kec. Obaa, Kabupaten Mappi, Papua";"Kabupaten Mappi, Papua";"PAPUA";"";"Indonesia";"";"";"";"-6.5691785";"139.3029818";"https://maps.google.com/?cid=0x0:0x3023110f7c5ea59b";""
"perumahan";"Komplek perumahan";"Rumah Petrus Wameyob (YE9XAC, YG9XAQ, YG9XAS)";"Jl. Irian No.km. 03, RT.006/RW.001, Kepi, Kec. Obaa, Kabupaten Mappi, Papua";"Kabupaten Mappi, Papua";"PAPUA";"";"Indonesia";"";"";"";"-6.5458021";"139.3044607";"https://maps.google.com/?cid=0x0:0x4503101340a95c42";""
"perumahan";"Komplek perumahan";"Perumahan pegawai";"Jl. Saham Kepi, Kepi, Kec. Obaa, Kabupaten Mappi, Papua 99881";"Kepi, Kec. Obaa, Kabupaten Mappi";"PAPUA";"99881";"Indonesia";"";"";"";"-6.552419";"139.2917462";"https://maps.google.com/?cid=0x0:0x13f60f8f5e2c398a";""
"perumahan";"Komplek perumahan";"Paparisa";"F889+RX, Obaa, Kec. Obaa, Kabupaten Mappi, Papua 99881";"Obaa, Kec. Obaa, Kabupaten Mappi";"PAPUA";"99881";"Indonesia";"";"";"";"-6.5328787";"139.3199286";"https://maps.google.com/?cid=0x0:0x3140d7bfe5d249b";""
"perumahan";"Komplek perumahan";"Desa Suwio";"MRH9+F7 Taim, Taim/Pasue, Kec. Passue, Kabupaten Mappi, Papua";"Kabupaten Mappi, Papua";"PAPUA";"";"Indonesia";"";"";"";"-6.32128";"139.818147";"https://maps.google.com/?cid=0x0:0x2889fd0791f13c49";""
"perumahan";"Komplek perumahan";"Perumahan Pemda Mappi";"C7VW+X6W, Jl. Saham Kepi, Kepi, Kec. Obaa, Kabupaten Mappi, Papua 99881";"Jl. Saham Kepi, Kepi, Kec. Obaa, Kabupaten Mappi";"PAPUA";"99881";"Indonesia";"";"";"";"-6.5550093";"139.2955735";"https://maps.google.com/?cid=0x0:0xe4845fe803afb2ad";""
"perumahan";"Komplek perumahan";"Mappi";"Jl. Irian Kepi, Kepi, Kec. Obaa, Kabupaten Mappi, Papua 99881";"Kepi, Kec. Obaa, Kabupaten Mappi";"PAPUA";"99881";"Indonesia";"";"";"";"-6.5608648";"139.2867347";"https://maps.google.com/?cid=0x0:0x3fcf2f573baee07";""
"perumahan";"Komplek perumahan";"Rumah";"C7QP+MM5, Jl. Irian Kepi, Kepi, Kec. Obaa, Kabupaten Mappi, Papua 99881";"Jl. Irian Kepi, Kepi, Kec. Obaa, Kabupaten Mappi";"PAPUA";"99881";"Indonesia";" 082191754441";"";"";"-6.5608648";"139.2867347";"https://maps.google.com/?cid=0x0:0xe67a5786c761c9f7";""
"perumahan";"Komplek perumahan";"Rumah Keluarga Tuamely Letsoin";"F877+2J, Obaa, Kec. Obaa, Kabupaten Mappi, Papua 99881";"Obaa, Kec. Obaa, Kabupaten Mappi";"PAPUA";"99881";"Indonesia";" 081247776550";"";"";"-6.5374428";"139.3140207";"https://maps.google.com/?cid=0x0:0xa1436a2cfa71f4b4";""
"perumahan";"Komplek perumahan";"Tampang home";"C8X4+29J, Jl. Kak, Kepi, Kec. Obaa, Kabupaten Mappi, Papua 99881";"Jl. Kak, Kepi, Kec. Obaa, Kabupaten Mappi";"PAPUA";"99881";"Indonesia";"";"";"";"-6.5524079";"139.3058933";"https://maps.google.com/?cid=0x0:0x1125d86d34a540b5";""
"perumahan";"perumahan";"Tanah Azhka Siregar";"C7PQ+QF3, Kepi, Kec. Obaa, Kabupaten Mappi, Papua";"Kabupaten Mappi, Papua";"PAPUA";"";"Indonesia";"";"";"";"-6.564387";"139.288543";"https://maps.google.com/?cid=0x0:0xb542887ef44d2b37";""
"perumahan";"Perhimpunan Pengembang Perumahan";"Simpang 3 Saham";"C7VX+9M7, Jl. Saham Kepi, Kepi, Kec. Obaa, Kabupaten Mappi, Papua 99881";"Jl. Saham Kepi, Kepi, Kec. Obaa, Kabupaten Mappi";"PAPUA";"99881";"Indonesia";"";"";"";"-6.5570601";"139.2995301";"https://maps.google.com/?cid=0x0:0xf7aa01911e278cf7";""
"perumahan";"Komplek perumahan";"Elmas Home";"C7VW+CXH, Jl. Saham Kepi, Kepi, Kec. Obaa, Kabupaten Mappi, Papua 99881";"Jl. Saham Kepi, Kepi, Kec. Obaa, Kabupaten Mappi";"PAPUA";"99881";"Indonesia";"";"";"";"-6.5564283";"139.2974797";"https://maps.google.com/?cid=0x0:0x5b9f7718cceb6b4c";""
"perumahan";"perumahan";"Kec. Passue";"Kabupaten Mappi, Papua";"Kabupaten Mappi, Papua";"PAPUA";"";"Indonesia";"";"";"";"-6.3845424";"139.6503106";"https://maps.google.com/?cid=0x0:0x72dcf77146b3adf7";""
"perumahan";"Pembangunan Perumahan";"Cabang 3";"HHW5+JQF, Nohon, Kec. Passue, Kabupaten Mappi, Papua 99871";"Nohon, Kec. Passue, Kabupaten Mappi";"PAPUA";"99871";"Indonesia";"";"";"";"-6.4034317";"139.5594157";"https://maps.google.com/?cid=0x0:0x73a684054156303e";""
"perumahan";"perumahan";"Rumah Saleh";"C8W4+P6J, Jl. Irian Kepi, Obaa, Kec. Obaa, Kabupaten Mappi, Papua 99881";"Jl. Irian Kepi, Obaa, Kec. Obaa, Kabupaten Mappi";"PAPUA";"99881";"Indonesia";"";"";"";"-6.5531598";"139.3055234";"https://maps.google.com/?cid=0x0:0x582293d286c67fe3";""
"perumahan";"Komplek perumahan";"Rumah sewah";"F8M8+5RG, Obaa, Kec. Obaa, Kabupaten Mappi, Papua";"Kabupaten Mappi, Papua";"PAPUA";"";"Indonesia";"";"";"";"-6.517057";"139.317093";"https://maps.google.com/?cid=0x0:0x64e3c995af36c14e";""
"perumahan";"perumahan";"Distrik Minyamur";"Kabupaten Mappi, Papua";"Kabupaten Mappi, Papua";"PAPUA";"";"Indonesia";"";"";"";"-6.5749178";"138.8397403";"https://maps.google.com/?cid=0x0:0xaf9d6fba8ca5978b";""
"perumahan";"Perhimpunan Pengembang Perumahan";"Pemukiman warga";"CRGQ+2VQ, Taragae, Distrik Minyamur, Kabupaten Mappi, Papua";"Kabupaten Mappi, Papua";"PAPUA";"";"Indonesia";"";"";"";"-6.5749178";"138.8397403";"https://maps.google.com/?cid=0x0:0x687b73d171c6e062";""
"perumahan";"perumahan";"Kampung Kofar";"FP94+567, Kofar, Distrik Minyamur, Kabupaten Mappi, Papua";"Kabupaten Mappi, Papua";"PAPUA";"";"Indonesia";"";"";"";"-6.5320932";"138.7055395";"https://maps.google.com/?cid=0x0:0x702d0e15a072ecf2";""
"perumahan";"Perhimpunan Pengembang Perumahan";"Koba, kabupaten MAPPI, Papua-Indonesia";"928F+WQP, Khaumi, Kec. Mambioman Bapai, Kabupaten Mappi, Papua";"Kabupaten Mappi, Papua";"PAPUA";"";"Indonesia";"";"";"";"-6.6326585";"139.0244685";"https://maps.google.com/?cid=0x0:0x633d419d7764079";""
"perumahan";"perumahan";"Papua 99853";"Kabupaten Mappi, Papua";"Kabupaten Mappi, Papua";"PAPUA";"";"Indonesia";"";"";"";"-7.1527149";"139.5279996";"https://maps.google.com/?cid=0x0:0x8030f37c187cbb11";""
"perumahan";"Pembangunan Perumahan";"Kampung harapan";"5WF7+X5, Harapan, Venaha, Kabupaten Mappi, Papua";"Kabupaten Mappi, Papua";"PAPUA";"";"Indonesia";"";"";"";"-6.8250462";"139.9129838";"https://maps.google.com/?cid=0x0:0x3ef65292a4c275c3";""
"perumahan";"Pusat Kesehatan Masyarakat";"PKM Sahapikiya";"4VPP+R99, Unnamed Road, Sahapikia, Venaha, Kabupaten Mappi, Papua 99853";"Unnamed Road, Sahapikia, Venaha, Kabupaten Mappi";"PAPUA";"99853";"Indonesia";"";"";"";"-6.8629607";"139.8859941";"https://maps.google.com/?cid=0x0:0xfbaad3b8aded8b3b";""
"perumahan";"Pembangunan Perumahan";"KAMPUNG YODOM";"PFX8+28W, Yodom, Edera, Kabupaten Mappi, Papua 99853";"Yodom, Edera, Kabupaten Mappi";"PAPUA";"99853";"Indonesia";"";"";"";"-7.2523985";"139.4658411";"https://maps.google.com/?cid=0x0:0x14d3cc1d1a34a6f8";""
"perumahan";"Komplek perumahan";"KAMPUNG KONEBI";"XFG8+J3G, Konebi, Edera, Kabupaten Mappi, Papua 99853";"Konebi, Edera, Kabupaten Mappi";"PAPUA";"99853";"Indonesia";"";"";"";"-7.0234392";"139.4652095";"https://maps.google.com/?cid=0x0:0x519f5dbff94b7137";""
"perumahan";"Pembangunan Perumahan";"Kampung yibin";"5VQV+2H, Yibin, Venaha, Kabupaten Mappi, Papua";"Kabupaten Mappi, Papua";"PAPUA";"";"Indonesia";"";"";"";"-6.8124228";"139.8938815";"https://maps.google.com/?cid=0x0:0x68f14e4601529a55";""
"perumahan";"Komplek perumahan";"Perumahan guru (Emzon)";"VH7P+3V, Mememu, Edera, Kabupaten Mappi, Papua";"Kabupaten Mappi, Papua";"PAPUA";"";"Indonesia";" 082272222316";"";"";"-7.1372788";"139.5871548";"https://maps.google.com/?cid=0x0:0x2ae733fcdf177312";""
"perumahan";"Kantor Perusahaan";"Divisi 3";"MQ54+VP, Banamepe, Edera, Kabupaten Mappi, Papua";"Kabupaten Mappi, Papua";"PAPUA";"";"Indonesia";"";"";"";"-7.34031";"139.7567761";"https://maps.google.com/?cid=0x0:0x101e8ca27fb89f1b";""
"perumahan";"perumahan";"Rumah radiografer";"6MQR+PFR, Sibi, Edera, Kabupaten Mappi, Papua";"Kabupaten Mappi, Papua";"PAPUA";"";"Indonesia";"";"";"";"-6.7606468";"139.6911374";"https://maps.google.com/?cid=0x0:0xb0aadcbfa3d22b98";""
"perumahan";"Perumahan guru";"Rumah Mutiara";"RHPQ+3W, Bade, Edera, Kabupaten Mappi, Papua";"Kabupaten Mappi, Papua";"PAPUA";"";"Indonesia";"";"";"";"-7.1648557";"139.590942";"https://maps.google.com/?cid=0x0:0x1b3002a44b81b803";""
"perumahan";"Perumahan guru";"Janjaan Watuar";"VH7P+3V, Mememu, Edera, Kabupaten Mappi, Papua";"Kabupaten Mappi, Papua";"PAPUA";"";"Indonesia";"";"";"";"-7.1379974";"139.5871604";"https://maps.google.com/?cid=0x0:0xe22bed2a1b4247fe";""
"perumahan";"perumahan";"Kampung yare/afu";"JR7G+F3, Hello, Distrik Fofi, Kabupaten Boven Digoel, Papua";"Kabupaten Boven Digoel, Papua";"PAPUA";"";"Indonesia";"";"";"";"-6.3862598";"139.825179";"https://maps.google.com/?cid=0x0:0x47eef3653f336eba";""
"perumahan";"perumahan";"Kontrakan mas pur";"Bade, Edera, Kabupaten Mappi, Papua";"Kabupaten Mappi, Papua";"PAPUA";"";"Indonesia";" 085259809593";"";"";"-7.1564709";"139.5801508";"https://maps.google.com/?cid=0x0:0x1fe8903938d3e35";""
"perumahan";"perumahan";"kampu";"WM9C+475, Gimikia, Edera, Kabupaten Mappi, Papua 99853";"Gimikia, Edera, Kabupaten Mappi";"PAPUA";"99853";"Indonesia";"";"";"";"-7.0822391";"139.6707205";"https://maps.google.com/?cid=0x0:0x9c6258ad28ea77f7";""
"perumahan";"Pembangunan Perumahan";"Faiq Home";"6MQR+PFR, Jl.bahtera, Sibi, km5Kepi, Kabupaten Mappi, Papua";"Kabupaten Mappi, Papua";"PAPUA";"";"Indonesia";"";"";"";"-6.7606468";"139.6911374";"https://maps.google.com/?cid=0x0:0xd4126290a6050833";""
"perumahan";"Pembangunan Perumahan";"Kampung chasto";"VCM5+9C, Isyaman, Edera, Kabupaten Mappi, Papua";"Kabupaten Mappi, Papua";"PAPUA";"";"Indonesia";"";"";"";"-7.1165483";"139.4085233";"https://maps.google.com/?cid=0x0:0x6681501163f4bbe6";""
"perumahan";"Kantor Perusahaan";"Div. 2 PT. Dongin Prabawa";"MP8F+84, Banamepe, Edera, Kabupaten Mappi, Papua";"Kabupaten Mappi, Papua";"PAPUA";"";"Indonesia";"";"";"";"-7.3342291";"139.7228175";"https://maps.google.com/?cid=0x0:0x1ccb84847c69398";""
"perumahan";"Kantor Pemerintah";"Kampung Bade";"RHPV+GX, Bade, Edera, Kabupaten Mappi, Papua";"Kabupaten Mappi, Papua";"PAPUA";"";"Indonesia";"";"";"";"-7.1634372";"139.5942311";"https://maps.google.com/?cid=0x0:0x29ec5a48d3c8d622";""
"perumahan";"Pembangunan Perumahan";"Triple J";"6MQR+PFR, Sibi, Edera, Kabupaten Mappi, Papua";"Kabupaten Mappi, Papua";"PAPUA";"";"Indonesia";"";"";"";"-6.7606468";"139.6911374";"https://maps.google.com/?cid=0x0:0xcc3a56b6acc52f62";""
"perumahan";"Balai Pertemuan Desa";"Wanggate";"FGJ5+Q6X, Wanggate, Kec. Obaa, Kabupaten Mappi, Papua 99871";"Wanggate, Kec. Obaa, Kabupaten Mappi";"PAPUA";"99871";"Indonesia";"";"";"";"-6.518022";"139.508102";"https://maps.google.com/?cid=0x0:0x983a24cf60bde13c";""
"perumahan";"Komplek perumahan";"Rumah Bpk. Yusmadi Dalan";"36VF+587, Mur, Kec. Mambioman Bapai, Kabupaten Mappi, Papua";"Kabupaten Mappi, Papua";"PAPUA";"";"Indonesia";"";"";"";"-6.9070934";"139.2232819";"https://maps.google.com/?cid=0x0:0x68af5503f5d71433";""
"perumahan";"perumahan";"Yakomi";"Kabupaten Mappi, Papua";"Kabupaten Mappi, Papua";"PAPUA";"";"Indonesia";"";"";"";"-7.0968657";"139.9777136";"https://maps.google.com/?cid=0x0:0x53b07922dc974e00";""
"perumahan";"Kantor Pemerintah";"Kampung Muya";"WX3H+734, Yame, Yakomi, Kabupaten Mappi, Papua";"Kabupaten Mappi, Papua";"PAPUA";"";"Indonesia";"";"";"";"-7.0968657";"139.9777136";"https://maps.google.com/?cid=0x0:0x4a1b9afc62a04db2";""
"perumahan";"Pusat Kesehatan Masyarakat";"PKM Sahapikiya";"4VPP+R99, Unnamed Road, Sahapikia, Venaha, Kabupaten Mappi, Papua 99853";"Unnamed Road, Sahapikia, Venaha, Kabupaten Mappi";"PAPUA";"99853";"Indonesia";"";"";"";"-6.8629607";"139.8859941";"https://maps.google.com/?cid=0x0:0xfbaad3b8aded8b3b";""
"perumahan";"perumahan";"kampu";"WM9C+475, Gimikia, Edera, Kabupaten Mappi, Papua 99853";"Gimikia, Edera, Kabupaten Mappi";"PAPUA";"99853";"Indonesia";"";"";"";"-7.0822391";"139.6707205";"https://maps.google.com/?cid=0x0:0x9c6258ad28ea77f7";""
"perumahan";"perumahan";"Distrik Bamgi";"Kabupaten Mappi, Papua";"Kabupaten Mappi, Papua";"PAPUA";"";"Indonesia";"";"";"";"-6.9040338";"139.5081534";"https://maps.google.com/?cid=0x0:0xf07d873e100723e1";""
"perumahan";"Komplek perumahan";"KAMPUNG KONEBI";"XFG8+J3G, Konebi, Edera, Kabupaten Mappi, Papua 99853";"Konebi, Edera, Kabupaten Mappi";"PAPUA";"99853";"Indonesia";"";"";"";"-7.0234392";"139.4652095";"https://maps.google.com/?cid=0x0:0x519f5dbff94b7137";""
"perumahan";"Balai masyarakat";"Kampung Mur";"4664+3M7, Mur, Kec. Mambioman Bapai, Kabupaten Mappi, Papua";"Kabupaten Mappi, Papua";"PAPUA";"";"Indonesia";"";"";"";"-6.8898397";"139.206684";"https://maps.google.com/?cid=0x0:0x34022a509476e650";""
"perumahan";"Balai masyarakat";"BeLdis Area(Belakang Distrik)";"36W9+27H, Mur, Kec. Mambioman Bapai, Kabupaten Mappi, Papua 99872";"Mur, Kec. Mambioman Bapai, Kabupaten Mappi";"PAPUA";"99872";"Indonesia";"";"";"";"-6.9051739";"139.2191205";"https://maps.google.com/?cid=0x0:0x4ce19bcf966bc6db";""
"perumahan";"Kantor Pemerintah";"Kampung Bade";"RHPV+GX, Bade, Edera, Kabupaten Mappi, Papua";"Kabupaten Mappi, Papua";"PAPUA";"";"Indonesia";"";"";"";"-7.1634372";"139.5942311";"https://maps.google.com/?cid=0x0:0x29ec5a48d3c8d622";""
"perumahan";"perumahan";"Distrik Syahcame";"Kabupaten Mappi, Papua";"Kabupaten Mappi, Papua";"PAPUA";"";"Indonesia";"";"";"";"-6.92665";"139.6493658";"https://maps.google.com/?cid=0x0:0x731f2b6c588c36e1";""
"perumahan";"perumahan";"kampu";"WM9C+475, Gimikia, Edera, Kabupaten Mappi, Papua 99853";"Gimikia, Edera, Kabupaten Mappi";"PAPUA";"99853";"Indonesia";"";"";"";"-7.0822391";"139.6707205";"https://maps.google.com/?cid=0x0:0x9c6258ad28ea77f7";""
"perumahan";"Pembangunan Perumahan";"Triple J";"6MQR+PFR, Sibi, Edera, Kabupaten Mappi, Papua";"Kabupaten Mappi, Papua";"PAPUA";"";"Indonesia";"";"";"";"-6.7606468";"139.6911374";"https://maps.google.com/?cid=0x0:0xcc3a56b6acc52f62";""
"perumahan";"Komplek perumahan";"Perumahan guru (Emzon)";"VH7P+3V, Mememu, Edera, Kabupaten Mappi, Papua";"Kabupaten Mappi, Papua";"PAPUA";"";"Indonesia";" 082272222316";"";"";"-7.1372788";"139.5871548";"https://maps.google.com/?cid=0x0:0x2ae733fcdf177312";""
"perumahan";"perumahan";"Rumah radiografer";"6MQR+PFR, Sibi, Edera, Kabupaten Mappi, Papua";"Kabupaten Mappi, Papua";"PAPUA";"";"Indonesia";"";"";"";"-6.7606468";"139.6911374";"https://maps.google.com/?cid=0x0:0xb0aadcbfa3d22b98";""
"perumahan";"Pembangunan Perumahan";"Faiq Home";"6MQR+PFR, Jl.bahtera, Sibi, km5Kepi, Kabupaten Mappi, Papua";"Kabupaten Mappi, Papua";"PAPUA";"";"Indonesia";"";"";"";"-6.7606468";"139.6911374";"https://maps.google.com/?cid=0x0:0xd4126290a6050833";""
"perumahan";"Komplek perumahan";"PERUM SMADER";"RHVH+95, Bade, Edera, Kabupaten Mappi, Papua";"Kabupaten Mappi, Papua";"PAPUA";"";"Indonesia";"";"";"";"-7.1564283";"139.5776007";"https://maps.google.com/?cid=0x0:0xbcc0a82d5036c69f";""
"perumahan";"Perumahan guru";"Janjaan Watuar";"VH7P+3V, Mememu, Edera, Kabupaten Mappi, Papua";"Kabupaten Mappi, Papua";"PAPUA";"";"Indonesia";"";"";"";"-7.1379974";"139.5871604";"https://maps.google.com/?cid=0x0:0xe22bed2a1b4247fe";""
"perumahan";"Toko umum";"Kios ACHO";"VH9P+7V, Mememu, Edera, Kabupaten Mappi, Papua";"Kabupaten Mappi, Papua";"PAPUA";"";"Indonesia";"";"";"";"-7.1327008";"139.5867796";"https://maps.google.com/?cid=0x0:0xe42c04b146a6398b";""
"perumahan";"perumahan";"Papua 99875";"Kabupaten Mappi, Papua";"Kabupaten Mappi, Papua";"PAPUA";"";"Indonesia";"";"";"";"-5.8045486";"139.5279996";"https://maps.google.com/?cid=0x0:0x3c002283937ac804";""
"perumahan";"Perhimpunan Pengembang Perumahan";"Distrik Passue Bawah";"WGP7+RWC, Keta, Passue Bawah, Kabupaten Mappi, Papua";"Kabupaten Mappi, Papua";"PAPUA";"";"Indonesia";"";"";"";"-6.062941";"139.514775";"https://maps.google.com/?cid=0x0:0x7fb25b4eb0e7694b";""
"perumahan";"Komplek perumahan";"Busiri";"W9RQ+38, Busiri, Passue Bawah, Kabupaten Mappi, Papua";"Kabupaten Mappi, Papua";"PAPUA";"";"Indonesia";"";"";"";"-6.05979";"139.3883524";"https://maps.google.com/?cid=0x0:0x5bc2e4893a64a3e6";""
"perumahan";"Komplek perumahan";"Perumahan Dinas ibu Ella";"8962+6H9, Senggo, Citakmitak, Kabupaten Mappi, Papua 99875";"Senggo, Citakmitak, Kabupaten Mappi";"PAPUA";"99875";"Indonesia";"";"";"";"-5.6894643";"139.3514922";"https://maps.google.com/?cid=0x0:0x4e6813d2a2c84610";""
"perumahan";"Komplek perumahan";"Kampung Bivo";"VGX5+PPM, Keta, Passue Bawah, Kabupaten Mappi, Papua";"Kabupaten Mappi, Papua";"PAPUA";"";"Indonesia";"";"";"";"-6.100664";"139.509308";"https://maps.google.com/?cid=0x0:0xc8066b15610df4b5";""
"perumahan";"Komplek perumahan";"Kampung Tiau dan Tayau";"9H5M+G97, Amasu, Kaibar, Kabupaten Mappi, Papua 99875";"Amasu, Kaibar, Kabupaten Mappi";"PAPUA";"99875";"Indonesia";"";"";"";"-5.6412212";"139.5834074";"https://maps.google.com/?cid=0x0:0xa4bf833ad23ce017";""
"perumahan";"Perhimpunan Pengembang Perumahan";"Kampung Wowi";"F689+7P, Wowi, Suator, Kabupaten Asmat, Papua";"Kabupaten Asmat, Papua";"PAPUA";"";"Indonesia";"";"";"";"-5.5343065";"139.2193176";"https://maps.google.com/?cid=0x0:0x7f8af7fbce722bb3";""
"perumahan";"Pembangunan Perumahan";"Vakam Distrik Joutu Kab. Asmat";"FCV6+XC8, Imembi, Kaibar, Kabupaten Mappi, Papua 99875";"Imembi, Kaibar, Kabupaten Mappi";"PAPUA";"99875";"Indonesia";"";"";"";"-5.505088";"139.411064";"https://maps.google.com/?cid=0x0:0x7cf00b17ac9a10bd";""
"perumahan";"Komplek perumahan";"Kampung Bidnew";"58HF+WV8, Bidnew, Citakmitak, Kabupaten Mappi, Papua";"Kabupaten Mappi, Papua";"PAPUA";"";"Indonesia";"";"";"";"-5.8202155";"139.3247147";"https://maps.google.com/?cid=0x0:0xa0c4652b54a6fe48";""
"perumahan";"perumahan";"Passue Bawah";"Kabupaten Mappi, Papua";"Kabupaten Mappi, Papua";"PAPUA";"";"Indonesia";"";"";"";"-5.9971952";"139.4466005";"https://maps.google.com/?cid=0x0:0xb9529682c70eee4a";""
"perumahan";"Taman";"Kampung Womin";"5HFQ+CJH, Womin, Citakmitak, Kabupaten Mappi, Papua";"Kabupaten Mappi, Papua";"PAPUA";"";"Indonesia";"";"";"";"-5.8264318";"139.5891233";"https://maps.google.com/?cid=0x0:0xd3fd82cce8b196eb";""
"perumahan";"perumahan";"Keluarga Emenu";"886X+MJ, Senggo, Citakmitak, Kabupaten Mappi, Papua";"Kabupaten Mappi, Papua";"PAPUA";"";"Indonesia";"";"";"";"-5.6883236";"139.3490028";"https://maps.google.com/?cid=0x0:0xcfcf1865c2873b4d";""
"perumahan";"perumahan";"Distrik Ti Zain";"Kabupaten Mappi, Papua";"Kabupaten Mappi, Papua";"PAPUA";"";"Indonesia";"";"";"";"-5.4019657";"139.7132729";"https://maps.google.com/?cid=0x0:0xd1cf1b07f8359ef9";""
"perumahan";"Komplek perumahan";"BASMAN";"FJWH+29, Basman, Distrik Ti Zain, Kabupaten Mappi, Papua";"Kabupaten Mappi, Papua";"PAPUA";"";"Indonesia";"";"";"";"-5.5049375";"139.6284375";"https://maps.google.com/?cid=0x0:0xbac2e9621f6ea5b0";""
"perumahan";"perumahan";"Alfons'Home";"MJ4R+9G, Fomu, Distrik Ti Zain, Kabupaten Mappi, Papua";"Kabupaten Mappi, Papua";"PAPUA";"";"Indonesia";"";"";"";"-5.3429513";"139.6406956";"https://maps.google.com/?cid=0x0:0x8eb628a50efbb59d";""
"perumahan";"Komplek perumahan";"Zain house Papua";"Jl. H. Saenan No.16, RT.2/RW.9, Bedahan, Kec. Sawangan, Kota Depok, Jawa Barat 16519";"RT.2/RW.9, Bedahan, Kec. Sawangan, Kota Depok";"PAPUA";"16519";"Indonesia";"";"";"";"-6.4232107";"106.7610643";"https://maps.google.com/?cid=0x0:0x23ba8aad60645e09";""
"perumahan";"Komplek perumahan";"Kampung Tiau dan Tayau";"9H5M+G97, Amasu, Kaibar, Kabupaten Mappi, Papua 99875";"Amasu, Kaibar, Kabupaten Mappi";"PAPUA";"99875";"Indonesia";"";"";"";"-5.6412212";"139.5834074";"https://maps.google.com/?cid=0x0:0xa4bf833ad23ce017";""
"perumahan";"Balai masyarakat";"KAMPUNG AIFA";"7PQV+83X, Aifo, Distrik Bomakia, Kabupaten Boven Digoel, Papua";"Kabupaten Boven Digoel, Papua";"PAPUA";"";"Indonesia";"";"";"";"-5.7116281";"139.742726";"https://maps.google.com/?cid=0x0:0xe376516d868bb160";""
