Category,Real Category,Business Name,Address,City,State,Postal Code,Country,Phone,Email,Website,Latitude,Longitude,Map Link,Details Link
hotel,hotel,Kec. Barangka,"Kabupaten Muna, Sulawesi Tenggara","Kabupaten Muna, Sulawesi Tenggara",SULAWESI TENGGARA,,Indonesia,,,,-4.8448994,122.5483448,https://maps.google.com/?cid=0x0:0x22374dea68597f27,
hotel,hotel,DJ Hotel,"Jl. Kantolalo Jl. By Pass Raha No.10, Kabupaten Muna, Sulawesi Tenggara 93611",Kabupaten Muna,SULAWESI TENGGARA,93611.0,Indonesia, 085399838388,,,-4.8434231,122.7257284,https://maps.google.com/?cid=0x0:0xe5d2bc489ece3ef0,
hotel,hotel,Hotel Qubah 9 Kendari,"Jl. Martandu No.99A, Kambu, Kec. Kambu, Kota Kendari, Sulawesi Tenggara 93231","Kambu, Kec. Kambu, Kota Kendari",SULAWESI TENGGARA,93231.0,Indonesia, 04013136047,,,-4.0082509,122.5345007,https://maps.google.com/?cid=0x0:0x16da52124c17b9e7,
hotel,hotel,Alia Hotel,"Jalan Jenderal Sudirman No.5, Raha, Katobu, Raha I, Kec. Katobu, Kabupaten Muna, Sulawesi Tenggara 93611","Raha, Katobu, Raha I, Kec. Katobu, Kabupaten Muna",SULAWESI TENGGARA,93611.0,Indonesia, 04032521218,,,-4.8422645,122.7254741,https://maps.google.com/?cid=0x0:0x54eb0b2a130dc0b0,
hotel,hotel,Hotel Mutiara,"5PCG+QX3, Jl. Wamponiki 1, Butung-Butung, Kec. Katobu, Kabupaten Muna, Sulawesi Tenggara 93611","Jl. Wamponiki 1, Butung-Butung, Kec. Katobu, Kabupaten Muna",SULAWESI TENGGARA,93611.0,Indonesia, 085255942333,,,-4.8281009,122.7274264,https://maps.google.com/?cid=0x0:0x802393a5ea8c1b3,
hotel,hotel,Hotel Dewa Bintang 2,"Jl. Tebaonunggu No.17, Mandonga, Kec. Kendari, Kota Kendari, Sulawesi Tenggara 93111","Mandonga, Kec. Kendari, Kota Kendari",SULAWESI TENGGARA,93111.0,Indonesia, 04013126799,,,-3.9651662,122.517495,https://maps.google.com/?cid=0x0:0x6a608f24d97621c5,
hotel,hotel,Liras Hotel Syariah,"Jl. Bunggasi No.19, Anduonohu, Kec. Poasia, Kota Kendari, Sulawesi Tenggara 93231","Anduonohu, Kec. Poasia, Kota Kendari",SULAWESI TENGGARA,93231.0,Indonesia, 082128973735,,,-4.0006459,122.5400904,https://maps.google.com/?cid=0x0:0xd94d318730514ad6,
hotel,hotel,Hotel Indah Kendari,"Jl. Made Sabara, Korumba, Kec. Mandonga, Kota Kendari, Sulawesi Tenggara 93111","Korumba, Kec. Mandonga, Kota Kendari",SULAWESI TENGGARA,93111.0,Indonesia, 04013125979,,,-3.9726126,122.5161707,https://maps.google.com/?cid=0x0:0xd14df6a0d76372f3,
hotel,hotel,Kendari Hotel,"Jl. Bung Tomo No.88, Punggaloba, Kec. Kendari Bar., Kota Kendari, Sulawesi Tenggara 93123","Punggaloba, Kec. Kendari Bar., Kota Kendari",SULAWESI TENGGARA,93123.0,Indonesia, 0895417300072,,,-3.9681663,122.5627102,https://maps.google.com/?cid=0x0:0xacd1026d7e3c8b85,
hotel,hotel,Hotel Anawai Baruga,"XF2J+86M, Baruga, Kec. Baruga, Kota Kendari, Sulawesi Tenggara 93870","Baruga, Kec. Baruga, Kota Kendari",SULAWESI TENGGARA,93870.0,Indonesia,,,,-4.049768,122.4813139,https://maps.google.com/?cid=0x0:0xe577126f84756c02,
hotel,hotel,Hotel Viranza,"Jl. Made Sabara, Korumba, Kec. Mandonga, Kota Kendari, Sulawesi Tenggara 93111","Korumba, Kec. Mandonga, Kota Kendari",SULAWESI TENGGARA,93111.0,Indonesia,,,,-3.9745281,122.519844,https://maps.google.com/?cid=0x0:0xee5821e616c83bbf,
hotel,hotel,Hotel Wahyu JS,"XG93+5WV, Lepo-Lepo, Kec. Baruga, Kota Kendari, Sulawesi Tenggara 93116","Lepo-Lepo, Kec. Baruga, Kota Kendari",SULAWESI TENGGARA,93116.0,Indonesia, 081217006785,,,-4.0320082,122.5048076,https://maps.google.com/?cid=0x0:0x73602cbabc86b744,
hotel,hotel,Kahianga Residence,"Jalan Sao Sao No.200, Bende, Kadia, Bende, Kec. Kadia, Kota Kendari, Sulawesi Tenggara 93117","Bende, Kadia, Bende, Kec. Kadia, Kota Kendari",SULAWESI TENGGARA,93117.0,Indonesia, 04013196357,,,-3.9845885,122.5151443,https://maps.google.com/?cid=0x0:0xa9ce4b0bbb74c482,
hotel,hotel,Hotel Debora,"JL. RA. Kartini No.15, Wale, Kec. Wolio, Kota Bau-Bau, Sulawesi Tenggara 93717","Wale, Kec. Wolio, Kota Bau-Bau",SULAWESI TENGGARA,93717.0,Indonesia, 04022821203,,,-5.456677,122.6076848,https://maps.google.com/?cid=0x0:0xf9e8feba6879d2f3,
hotel,hotel,Kahianga Residence,"Jl. Damai No.12, Bende, Kec. Kadia, Kota Kendari, Sulawesi Tenggara 93117","Bende, Kec. Kadia, Kota Kendari",SULAWESI TENGGARA,93117.0,Indonesia,,,,-3.9847321,122.5162638,https://maps.google.com/?cid=0x0:0x2dc4b2acb26593f7,
hotel,hotel,Barangka,"Marikina City, Metro Manila, Filipina","Marikina City, Metro Manila, Filipina",SULAWESI TENGGARA,,Indonesia,,,,14.6382755,121.0836691,https://maps.google.com/?cid=0x0:0xb06d0bc6c0ed719,
hotel,hotel,,,,SULAWESI TENGGARA,,Indonesia,,,,,,https://maps.google.com/?cid=0x0:0x9b587fa75183b97d%7C/g/1tdwbgd7%7Cen-ID,
hotel,hotel,The Oracle Hotel and Residences,"Unit 3A, 317 Katipunan Ave, Quezon City, 1108 Metro Manila, Filipina","Quezon City, Metro Manila, Filipina",SULAWESI TENGGARA,,Indonesia, +63289267777,,,14.6391514,121.0742221,https://maps.google.com/?cid=0x0:0x9b587fa75183b97d,
hotel,hotel,Studio 87,"87 Xavierville Ave, Quezon City, Metro Manila, Filipina","Quezon City, Metro Manila, Filipina",SULAWESI TENGGARA,,Indonesia,,,,14.6345442,121.0720108,https://maps.google.com/?cid=0x0:0xf132305729e9342c,
hotel,hotel,,,,SULAWESI TENGGARA,,Indonesia,,,,,,https://maps.google.com/?cid=0x0:0x4078e6cde4aa145f%7C/g/11fmz_5s1s%7Cen-ID,
hotel,hotel,OYO 809 Crowne One Condo,"Ronas Garden Neighbourood Association, Crowne One Condo, SariSari, Esteban Abada, Hardin ng Rosas, 3rd District, Quezon City, 1108 Metro Manila, Filipina","Quezon City, Metro Manila, Filipina",SULAWESI TENGGARA,,Indonesia, +63285488234,,,14.6399728,121.07343,https://maps.google.com/?cid=0x0:0x4078e6cde4aa145f,
hotel,hotel,Luna's Haven Staycation,"Xavierville Ave, Quezon City, Metro Manila, Filipina","Quezon City, Metro Manila, Filipina",SULAWESI TENGGARA,,Indonesia, +639761951054,,,14.6341317,121.0734108,https://maps.google.com/?cid=0x0:0x27eab93e9d0f8562,
hotel,hotel,,,,SULAWESI TENGGARA,,Indonesia,,,,,,https://maps.google.com/?cid=0x0:0x10822613f1ea3113%7C/g/1pzxy0q84%7Cen-ID,
hotel,hotel,OYO 400 La Trinidad Pension House,"3 1801 V. Gomez St, Marikina City, 1800 Metro Manila, Filipina","Marikina City, Metro Manila, Filipina",SULAWESI TENGGARA,,Indonesia, +63285488234,,,14.6302724,121.0970289,https://maps.google.com/?cid=0x0:0x10822613f1ea3113,
hotel,hotel,Silong: The Modern Bahay Kubo,"47 Esteban Abada St, Quezon City, 1810 Metro Manila, Filipina","Quezon City, Metro Manila, Filipina",SULAWESI TENGGARA,,Indonesia, +639209064280,,,14.6371119,121.0729792,https://maps.google.com/?cid=0x0:0xe2a509d6891b7574,
hotel,hotel,Santorini Hotel,"3 Dama de Noche St, Pasig City, 1900 Metro Manila, Filipina","Pasig City, Metro Manila, Filipina",SULAWESI TENGGARA,,Indonesia, +639175973367,,,14.6167948,121.0993006,https://maps.google.com/?cid=0x0:0x25bd7a7ca3e9cc28,
hotel,hotel,,,,SULAWESI TENGGARA,,Indonesia,,,,,,https://maps.google.com/?cid=0x0:0x25bd7a7ca3e9cc28%7C/g/11gxw0kkbf%7Cen-ID,
hotel,hotel,,,,SULAWESI TENGGARA,,Indonesia,,,,,,https://maps.google.com/?cid=0x0:0xc98640b943ba5e9a%7C/g/1hc7z2pky%7Cen-ID,
hotel,hotel,Hotel Sogo - Santolan,"DoÃ±a Juana Subd, Marikina-Infanta Hwy, Pasig City, 1610 Metro Manila, Filipina","Pasig City, Metro Manila, Filipina",SULAWESI TENGGARA,,Indonesia, +63286619069,,,14.6195029,121.089898,https://maps.google.com/?cid=0x0:0xc98640b943ba5e9a,
hotel,hotel,Sulawesi Tenggara 93655,"Kabupaten Muna, Sulawesi Tenggara","Kabupaten Muna, Sulawesi Tenggara",SULAWESI TENGGARA,,Indonesia,,,,-4.7167048,122.593828,https://maps.google.com/?cid=0x0:0x2099dcc445aba1a5,
hotel,hotel,DJ Hotel,"Jl. Kantolalo Jl. By Pass Raha No.10, Kabupaten Muna, Sulawesi Tenggara 93611",Kabupaten Muna,SULAWESI TENGGARA,93611.0,Indonesia, 085399838388,,,-4.8434231,122.7257284,https://maps.google.com/?cid=0x0:0xe5d2bc489ece3ef0,
hotel,hotel,Hotel Qubah 9 Kendari,"Jl. Martandu No.99A, Kambu, Kec. Kambu, Kota Kendari, Sulawesi Tenggara 93231","Kambu, Kec. Kambu, Kota Kendari",SULAWESI TENGGARA,93231.0,Indonesia, 04013136047,,,-4.0082509,122.5345007,https://maps.google.com/?cid=0x0:0x16da52124c17b9e7,
hotel,hotel,Alia Hotel,"Jalan Jenderal Sudirman No.5, Raha, Katobu, Raha I, Kec. Katobu, Kabupaten Muna, Sulawesi Tenggara 93611","Raha, Katobu, Raha I, Kec. Katobu, Kabupaten Muna",SULAWESI TENGGARA,93611.0,Indonesia, 04032521218,,,-4.8422645,122.7254741,https://maps.google.com/?cid=0x0:0x54eb0b2a130dc0b0,
hotel,hotel,Hotel Persada Bombana,"Jl. Gereja (Depan Gedung DPRD Bombana), Kasipute, Rumbia, Kasipute, Kec. Rumbia, Kabupaten Bombana, Sulawesi Tenggara 93771","Kasipute, Rumbia, Kasipute, Kec. Rumbia, Kabupaten Bombana",SULAWESI TENGGARA,93771.0,Indonesia, 082292429890,,,-4.7752777,122.0496436,https://maps.google.com/?cid=0x0:0x198ce2fda171dad1,
hotel,hotel,Hotel Mutiara,"5PCG+QX3, Jl. Wamponiki 1, Butung-Butung, Kec. Katobu, Kabupaten Muna, Sulawesi Tenggara 93611","Jl. Wamponiki 1, Butung-Butung, Kec. Katobu, Kabupaten Muna",SULAWESI TENGGARA,93611.0,Indonesia, 085255942333,,,-4.8281009,122.7274264,https://maps.google.com/?cid=0x0:0x802393a5ea8c1b3,
hotel,hotel,Hotel Mulia Kendari,"Jl. Saranani No.95, Korumba, Kec. Mandonga, Kota Kendari, Sulawesi Tenggara 93461","Korumba, Kec. Mandonga, Kota Kendari",SULAWESI TENGGARA,93461.0,Indonesia, 0895417300072,,,-3.97062,122.5201697,https://maps.google.com/?cid=0x0:0x969a857d0b649ea9,
hotel,hotel,Hotel Baruga Mas (Syariah),"Jalan Protokol Pomalaa - Kolaka Desa Pelambua, Kec. Pomalaa, Kab. Kolaka Sulawesi Tenggara Kolaka, Pelambua, Kec. Pomalaa, Sulawesi Tenggara, 93562","Kec. Pomalaa, Kab. Kolaka Sulawesi Tenggara Kolaka, Pelambua, Kec. Pomalaa",SULAWESI TENGGARA,93562.0,Indonesia, 08114004814,,,-4.1771404,121.6221697,https://maps.google.com/?cid=0x0:0x13ec3dcf5dca37ef,
hotel,hotel,Kahianga Residence,"Jl. Damai No.12, Bende, Kec. Kadia, Kota Kendari, Sulawesi Tenggara 93117","Bende, Kec. Kadia, Kota Kendari",SULAWESI TENGGARA,93117.0,Indonesia,,,,-3.9847321,122.5162638,https://maps.google.com/?cid=0x0:0x2dc4b2acb26593f7,
hotel,hotel,Amira Guesthouse  Restaurant,"V29H+49R, Jl. Andi Malingkaan, Teddaopu, Kec. Tempe, Kabupaten Wajo, Sulawesi Selatan 90912","Jl. Andi Malingkaan, Teddaopu, Kec. Tempe, Kabupaten Wajo",SULAWESI TENGGARA,90912.0,Indonesia, 085298343824,,,-4.1321343,120.0284004,https://maps.google.com/?cid=0x0:0x866b52cbd366d4b4,
hotel,hotel,Sulawesi Tenggara 93652,"Kabupaten Muna, Sulawesi Tenggara","Kabupaten Muna, Sulawesi Tenggara",SULAWESI TENGGARA,,Indonesia,,,,-4.8874972,122.5598994,https://maps.google.com/?cid=0x0:0x34e12d7c7d7a4631,
hotel,hotel,DJ Hotel,"Jl. Kantolalo Jl. By Pass Raha No.10, Kabupaten Muna, Sulawesi Tenggara 93611",Kabupaten Muna,SULAWESI TENGGARA,93611.0,Indonesia, 085399838388,,,-4.8434231,122.7257284,https://maps.google.com/?cid=0x0:0xe5d2bc489ece3ef0,
hotel,hotel,Hotel Qubah 9 Kendari,"Jl. Martandu No.99A, Kambu, Kec. Kambu, Kota Kendari, Sulawesi Tenggara 93231","Kambu, Kec. Kambu, Kota Kendari",SULAWESI TENGGARA,93231.0,Indonesia, 04013136047,,,-4.0082509,122.5345007,https://maps.google.com/?cid=0x0:0x16da52124c17b9e7,
hotel,hotel,NES_inn HOTEL,"Jl. Paelangkuta, Watonea, Kec. Katobu, Kabupaten Muna, Sulawesi Tenggara 93614","Watonea, Kec. Katobu, Kabupaten Muna",SULAWESI TENGGARA,93614.0,Indonesia, 082187555824,,,-4.8227413,122.7200858,https://maps.google.com/?cid=0x0:0x7cedade9a3c64d3f,
hotel,hotel,Alia Hotel,"Jalan Jenderal Sudirman No.5, Raha, Katobu, Raha I, Kec. Katobu, Kabupaten Muna, Sulawesi Tenggara 93611","Raha, Katobu, Raha I, Kec. Katobu, Kabupaten Muna",SULAWESI TENGGARA,93611.0,Indonesia, 04032521218,,,-4.8422645,122.7254741,https://maps.google.com/?cid=0x0:0x54eb0b2a130dc0b0,
hotel,hotel,Hotel Mutiara,"5PCG+QX3, Jl. Wamponiki 1, Butung-Butung, Kec. Katobu, Kabupaten Muna, Sulawesi Tenggara 93611","Jl. Wamponiki 1, Butung-Butung, Kec. Katobu, Kabupaten Muna",SULAWESI TENGGARA,93611.0,Indonesia, 085255942333,,,-4.8281009,122.7274264,https://maps.google.com/?cid=0x0:0x802393a5ea8c1b3,
hotel,hotel,Hotel Dewa Bintang 2,"Jl. Tebaonunggu No.17, Mandonga, Kec. Kendari, Kota Kendari, Sulawesi Tenggara 93111","Mandonga, Kec. Kendari, Kota Kendari",SULAWESI TENGGARA,93111.0,Indonesia, 04013126799,,,-3.9651662,122.517495,https://maps.google.com/?cid=0x0:0x6a608f24d97621c5,
hotel,hotel,Kahianga Residence,"Jl. Damai No.12, Bende, Kec. Kadia, Kota Kendari, Sulawesi Tenggara 93117","Bende, Kec. Kadia, Kota Kendari",SULAWESI TENGGARA,93117.0,Indonesia,,,,-3.9847321,122.5162638,https://maps.google.com/?cid=0x0:0x2dc4b2acb26593f7,
hotel,hotel,Hotel Viranza,"Jl. Made Sabara, Korumba, Kec. Mandonga, Kota Kendari, Sulawesi Tenggara 93111","Korumba, Kec. Mandonga, Kota Kendari",SULAWESI TENGGARA,93111.0,Indonesia,,,,-3.9745281,122.519844,https://maps.google.com/?cid=0x0:0xee5821e616c83bbf,
hotel,hotel,Sans Hotel Tajur Bogor,"Tajur, Kec. Bogor Tim., Kota Bogor, Jawa Barat","Kota Bogor, Jawa Barat",SULAWESI TENGGARA,,Indonesia, 0895417300072,,,-6.6269706,106.8225279,https://maps.google.com/?cid=0x0:0x2d762525609177a3,
hotel,hotel,Aquina House,"Jl. Perum Taman Pajajaran No.9 - 10 Blok B5, RT.03/RW.11, Mekarwangi, Bogor Timur, Bogor City, West Java 16144","RT.03/RW.11, Mekarwangi, Bogor Timur, Bogor City",SULAWESI TENGGARA,16144.0,Indonesia, 08111095910,,,-6.6160012,106.8227978,https://maps.google.com/?cid=0x0:0xe10364ed2d982a16,
hotel,hotel,Green Forest Bogor,"Jl. RE. Soemantadiredja No.99, RT.03/RW.12, Pamoyanan, Kec. Bogor Sel., Kota Bogor, Jawa Barat 16136","RT.03/RW.12, Pamoyanan, Kec. Bogor Sel., Kota Bogor",SULAWESI TENGGARA,16136.0,Indonesia, 02518212225,,,-6.6495046,106.8061132,https://maps.google.com/?cid=0x0:0x70889815f5e23386,
hotel,hotel,,,,SULAWESI TENGGARA,,Indonesia,,,,,,https://maps.google.com/?cid=0x0:0x70889815f5e23386%7C/g/11byfllgr0%7Cen-ID,
hotel,hotel,Swiss-Belinn Bogor,"Jl. Pajajaran Indah V, RT.01/RW.14, Baranangsiang, Kec. Bogor Tim., Kota Bogor, Jawa Barat 16143","RT.01/RW.14, Baranangsiang, Kec. Bogor Tim., Kota Bogor",SULAWESI TENGGARA,16143.0,Indonesia, 02518306666,,,-6.6104095,106.8144012,https://maps.google.com/?cid=0x0:0xf0140abb97c5413a,
hotel,hotel,,,,SULAWESI TENGGARA,,Indonesia,,,,,,https://maps.google.com/?cid=0x0:0xf0140abb97c5413a%7C/g/11jvms8wqv%7Cen-ID,
hotel,hotel,RB Room di Bogorienze Resort BNR Bogor,"Jl. Bogor Nirwana Residence, Sukamantri, Kec. Tamansari, Kabupaten Bogor, Jawa Barat 16610","Sukamantri, Kec. Tamansari, Kabupaten Bogor",SULAWESI TENGGARA,16610.0,Indonesia, 082267892521,,,-6.6387868,106.783831,https://maps.google.com/?cid=0x0:0x7c12cdcd5f50f3c8,
hotel,hotel,,,,SULAWESI TENGGARA,,Indonesia,,,,,,https://maps.google.com/?cid=0x0:0x2cf240866cd634a%7C/g/11c60ktgv6%7Cen-ID,
hotel,hotel,Hotel Onih Bogor,"Jl. Paledang No.50 - 52, RT.01/RW.07, Paledang, Kecamatan Bogor Tengah, Kota Bogor, Jawa Barat 16122","RT.01/RW.07, Paledang, Kecamatan Bogor Tengah, Kota Bogor",SULAWESI TENGGARA,16122.0,Indonesia, 02518315008,,,-6.6018776,106.7943527,https://maps.google.com/?cid=0x0:0x2cf240866cd634a,
hotel,hotel,Citrus House,"Jl. Kol. Ahmad Syam, RT.03/RW.14, Baranangsiang, Kec. Bogor Tim., Kota Bogor, Jawa Barat 16143","RT.03/RW.14, Baranangsiang, Kec. Bogor Tim., Kota Bogor",SULAWESI TENGGARA,16143.0,Indonesia, 02518313098,,,-6.6080751,106.818911,https://maps.google.com/?cid=0x0:0xddbc381dda15faa2,
hotel,hotel,,,,SULAWESI TENGGARA,,Indonesia,,,,,,https://maps.google.com/?cid=0x0:0xddbc381dda15faa2%7C/g/1pt_n7syy%7Cen-ID,
hotel,hotel,RedDoorz Plus @ Pakuan Residence Tajur,"Jl. Wijaya Kusuma No.5, Pakuan, Kec. Bogor Sel., Kota Bogor, Jawa Barat 16134","Pakuan, Kec. Bogor Sel., Kota Bogor",SULAWESI TENGGARA,16134.0,Indonesia, 0895417300072,,,-6.6246997,106.8186135,https://maps.google.com/?cid=0x0:0x8cec9af10f779416,
hotel,hotel,,,,SULAWESI TENGGARA,,Indonesia,,,,,,https://maps.google.com/?cid=0x0:0x8cec9af10f779416%7C/g/11rj3ms2lk%7Cen-ID,
hotel,hotel,,,,SULAWESI TENGGARA,,Indonesia,,,,,,https://maps.google.com/?cid=0x0:0xe00061240df57cda%7C/g/11b8t71b8b%7Cen-ID,
hotel,hotel,Agria Hotel Bogor,"Jl. Raya Tajur No.612, RT.02/RW.05, Muarasari, Kec. Bogor Sel., Kota Bogor, Jawa Barat 16145","RT.02/RW.05, Muarasari, Kec. Bogor Sel., Kota Bogor",SULAWESI TENGGARA,16145.0,Indonesia, 02517550700,,,-6.6380172,106.8320141,https://maps.google.com/?cid=0x0:0xe00061240df57cda,
hotel,hotel,Salak Boutique Hotel Managed by Salak Hospitality,"Jl. Raya Pajajaran No.6A, Babakan, Kecamatan Bogor Tengah, Kota Bogor, Jawa Barat 16128","Babakan, Kecamatan Bogor Tengah, Kota Bogor",SULAWESI TENGGARA,16128.0,Indonesia, 081119203033,,,-6.5889017,106.8046791,https://maps.google.com/?cid=0x0:0x4d3154ca538b0bff,
hotel,hotel,Paris Santika,"Jl. Komp. Perumda II No.25, RT.01/RW.02, Cipaku, Kec. Bogor Sel., Kota Bogor, Jawa Barat 16133","RT.01/RW.02, Cipaku, Kec. Bogor Sel., Kota Bogor",SULAWESI TENGGARA,16133.0,Indonesia, 08999995088,,,-6.6317193,106.812519,https://maps.google.com/?cid=0x0:0x37c1356a6652396e,
hotel,hotel,Luminor Hotel Padjadjaran Bogor,"Jl. Cidangiang No.9, RT.004/RW.05, Tegallega, Kecamatan Bogor Tengah, Kota Bogor, Jawa Barat 16127","RT.004/RW.05, Tegallega, Kecamatan Bogor Tengah, Kota Bogor",SULAWESI TENGGARA,16127.0,Indonesia, 02518203888,,,-6.602423,106.8077919,https://maps.google.com/?cid=0x0:0x1a6c2f087d090539,
hotel,hotel,IZI HOTEL,"Jl. Ciheuleut No.25, RT.04/RW.11, Baranangsiang, Kec. Bogor Tim., Kota Bogor, Jawa Barat 16143","RT.04/RW.11, Baranangsiang, Kec. Bogor Tim., Kota Bogor",SULAWESI TENGGARA,16143.0,Indonesia, 02518384121,,,-6.6051975,106.8127606,https://maps.google.com/?cid=0x0:0x8d7eedb12a3ddb0,
hotel,hotel,,,,SULAWESI TENGGARA,,Indonesia,,,,,,https://maps.google.com/?cid=0x0:0x8d7eedb12a3ddb0%7C/g/11h71gt_vx%7Cen-ID,
hotel,hotel,Kec. Maginti,"Kabupaten Muna, Sulawesi Tenggara","Kabupaten Muna, Sulawesi Tenggara",SULAWESI TENGGARA,,Indonesia,,,,-4.8523016,122.3273334,https://maps.google.com/?cid=0x0:0x827d1cf3623f4296,
hotel,Hotel,"Hotel Dina, Kabupaten Muna Barat, Kecamatan Tiworo Tengah","Mekar Jaya, Tiworo Tengah, Kabupaten Muna, Sulawesi Tenggara 93653","Tiworo Tengah, Kabupaten Muna",SULAWESI TENGGARA,93653.0,Indonesia, 082296778747,,,-4.8184902,122.4010422,https://maps.google.com/?cid=0x0:0x8abbadb2cf6c59d6,
hotel,Rumah wisata,Rumah Husni Mubarak,"557W+M9M, Maginti, Kec. Maginti, Kabupaten Muna, Sulawesi Tenggara","Kabupaten Muna, Sulawesi Tenggara",SULAWESI TENGGARA,,Indonesia,,,,-4.836237,122.195887,https://maps.google.com/?cid=0x0:0x651dd11f33827a6c,
hotel,Rumah wisata,Hotel Karisma Anggrek Jingga,"597R+579, Mekar Jaya, Tiworo Tengah, Kabupaten Muna, Sulawesi Tenggara","Kabupaten Muna, Sulawesi Tenggara",SULAWESI TENGGARA,,Indonesia,,,,-4.8370915,122.3907243,https://maps.google.com/?cid=0x0:0x371cd220668cff23,
hotel,hotel,Hotel Persada Bombana,"Jl. Gereja (Depan Gedung DPRD Bombana), Kasipute, Rumbia, Kasipute, Kec. Rumbia, Kabupaten Bombana, Sulawesi Tenggara 93771","Kasipute, Rumbia, Kasipute, Kec. Rumbia, Kabupaten Bombana",SULAWESI TENGGARA,93771.0,Indonesia, 082292429890,,,-4.7752777,122.0496436,https://maps.google.com/?cid=0x0:0x198ce2fda171dad1,
hotel,hotel,Hotel Mitra,"Tobuuha, Kec. Puuwatu, Kota Kendari, Sulawesi Tenggara 93111","Kec. Puuwatu, Kota Kendari",SULAWESI TENGGARA,93111.0,Indonesia, 085243086339,,,-3.964796,122.5087144,https://maps.google.com/?cid=0x0:0xe0407d886f56a126,
hotel,hotel,Hotel Dewa Bintang 2,"Jl. Tebaonunggu No.17, Mandonga, Kec. Kendari, Kota Kendari, Sulawesi Tenggara 93111","Mandonga, Kec. Kendari, Kota Kendari",SULAWESI TENGGARA,93111.0,Indonesia, 04013126799,,,-3.9651662,122.517495,https://maps.google.com/?cid=0x0:0x6a608f24d97621c5,
hotel,hotel,Hotel Mutiara,"5PCG+QX3, Jl. Wamponiki 1, Butung-Butung, Kec. Katobu, Kabupaten Muna, Sulawesi Tenggara 93611","Jl. Wamponiki 1, Butung-Butung, Kec. Katobu, Kabupaten Muna",SULAWESI TENGGARA,93611.0,Indonesia, 085255942333,,,-4.8281009,122.7274264,https://maps.google.com/?cid=0x0:0x802393a5ea8c1b3,
hotel,hotel,Sulawesi Tenggara 93655,"Kabupaten Muna, Sulawesi Tenggara","Kabupaten Muna, Sulawesi Tenggara",SULAWESI TENGGARA,,Indonesia,,,,-4.7167048,122.593828,https://maps.google.com/?cid=0x0:0x2099dcc445aba1a5,
hotel,hotel,DJ Hotel,"Jl. Kantolalo Jl. By Pass Raha No.10, Kabupaten Muna, Sulawesi Tenggara 93611",Kabupaten Muna,SULAWESI TENGGARA,93611.0,Indonesia, 085399838388,,,-4.8434231,122.7257284,https://maps.google.com/?cid=0x0:0xe5d2bc489ece3ef0,
hotel,hotel,NES_inn HOTEL,"Jl. Paelangkuta, Watonea, Kec. Katobu, Kabupaten Muna, Sulawesi Tenggara 93614","Watonea, Kec. Katobu, Kabupaten Muna",SULAWESI TENGGARA,93614.0,Indonesia, 082187555824,,,-4.8227413,122.7200858,https://maps.google.com/?cid=0x0:0x7cedade9a3c64d3f,
hotel,hotel,Hotel Persada Bombana,"Jl. Gereja (Depan Gedung DPRD Bombana), Kasipute, Rumbia, Kasipute, Kec. Rumbia, Kabupaten Bombana, Sulawesi Tenggara 93771","Kasipute, Rumbia, Kasipute, Kec. Rumbia, Kabupaten Bombana",SULAWESI TENGGARA,93771.0,Indonesia, 082292429890,,,-4.7752777,122.0496436,https://maps.google.com/?cid=0x0:0x198ce2fda171dad1,
hotel,hotel,Hotel Mutiara,"5PCG+QX3, Jl. Wamponiki 1, Butung-Butung, Kec. Katobu, Kabupaten Muna, Sulawesi Tenggara 93611","Jl. Wamponiki 1, Butung-Butung, Kec. Katobu, Kabupaten Muna",SULAWESI TENGGARA,93611.0,Indonesia, 085255942333,,,-4.8281009,122.7274264,https://maps.google.com/?cid=0x0:0x802393a5ea8c1b3,
hotel,hotel,Hotel Wonua Monapa,"WCWW+88X, Jl. Poros Bandara Haluoleo, Ranooha, Kec. Ranomeeto, Kabupaten Konawe Selatan, Sulawesi Tenggara 93871","Jl. Poros Bandara Haluoleo, Ranooha, Kec. Ranomeeto, Kabupaten Konawe Selatan",SULAWESI TENGGARA,93871.0,Indonesia, 04013196900,,,-4.05582,122.446666,https://maps.google.com/?cid=0x0:0x55056e76d27f6ff9,
hotel,hotel,Hotel Qubah 9 Kendari,"Jl. Martandu No.99A, Kambu, Kec. Kambu, Kota Kendari, Sulawesi Tenggara 93231","Kambu, Kec. Kambu, Kota Kendari",SULAWESI TENGGARA,93231.0,Indonesia, 04013136047,,,-4.0082509,122.5345007,https://maps.google.com/?cid=0x0:0x16da52124c17b9e7,
hotel,hotel,Kec. Sawerigadi,"Kabupaten Muna, Sulawesi Tenggara","Kabupaten Muna, Sulawesi Tenggara",SULAWESI TENGGARA,,Indonesia,,,,-4.7903102,122.491523,https://maps.google.com/?cid=0x0:0xc0b7ac172b281750,
hotel,hotel,Kec. Tiworo Kepulauan,"Kabupaten Muna, Sulawesi Tenggara","Kabupaten Muna, Sulawesi Tenggara",SULAWESI TENGGARA,,Indonesia,,,,-4.7783688,122.4353995,https://maps.google.com/?cid=0x0:0xb9b9310dc3cd9cb5,
hotel,Hotel,"Hotel Dina, Kabupaten Muna Barat, Kecamatan Tiworo Tengah","Mekar Jaya, Tiworo Tengah, Kabupaten Muna, Sulawesi Tenggara 93653","Tiworo Tengah, Kabupaten Muna",SULAWESI TENGGARA,93653.0,Indonesia, 082296778747,,,-4.8184902,122.4010422,https://maps.google.com/?cid=0x0:0x8abbadb2cf6c59d6,
hotel,Pondok,Tiworo,"6C3P+292, Jl. Poros, Tiworo, Kec. Tiworo Kepulauan, Kabupaten Muna, Sulawesi Tenggara 93653","Jl. Poros, Tiworo, Kec. Tiworo Kepulauan, Kabupaten Muna",SULAWESI TENGGARA,93653.0,Indonesia,,,,-4.797942,122.436684,https://maps.google.com/?cid=0x0:0xa80e7dd0e9032ecf,
hotel,hotel,Tiworo Sel.,"Kabupaten Muna, Sulawesi Tenggara","Kabupaten Muna, Sulawesi Tenggara",SULAWESI TENGGARA,,Indonesia,,,,-4.8877531,122.3900901,https://maps.google.com/?cid=0x0:0xb8fa848ebeff23ff,
hotel,Hotel,"Hotel Dina, Kabupaten Muna Barat, Kecamatan Tiworo Tengah","Mekar Jaya, Tiworo Tengah, Kabupaten Muna, Sulawesi Tenggara 93653","Tiworo Tengah, Kabupaten Muna",SULAWESI TENGGARA,93653.0,Indonesia, 082296778747,,,-4.8184902,122.4010422,https://maps.google.com/?cid=0x0:0x8abbadb2cf6c59d6,
hotel,Rumah wisata,Hotel Karisma Anggrek Jingga,"597R+579, Mekar Jaya, Tiworo Tengah, Kabupaten Muna, Sulawesi Tenggara","Kabupaten Muna, Sulawesi Tenggara",SULAWESI TENGGARA,,Indonesia,,,,-4.8370915,122.3907243,https://maps.google.com/?cid=0x0:0x371cd220668cff23,
hotel,hotel,SAWA BEACH RESORT,"Ds, RW.Pekarooa, Matanggonawe, Kec. Sawa, Kabupaten Konawe Utara, Sulawesi Tenggara 93352","RW.Pekarooa, Matanggonawe, Kec. Sawa, Kabupaten Konawe Utara",SULAWESI TENGGARA,93352.0,Indonesia, 08114056864,,,-3.783229,122.4511684,https://maps.google.com/?cid=0x0:0x21bbabf4006bce95,
hotel,hotel,Hotel Mutiara,"5PCG+QX3, Jl. Wamponiki 1, Butung-Butung, Kec. Katobu, Kabupaten Muna, Sulawesi Tenggara 93611","Jl. Wamponiki 1, Butung-Butung, Kec. Katobu, Kabupaten Muna",SULAWESI TENGGARA,93611.0,Indonesia, 085255942333,,,-4.8281009,122.7274264,https://maps.google.com/?cid=0x0:0x802393a5ea8c1b3,
hotel,Rumah wisata,Kost Nursyabillah,"Desa, Suka Damai, Tiworo Tengah, muna barat, Sulawesi Tenggara 93653","Suka Damai, Tiworo Tengah, muna barat",SULAWESI TENGGARA,93653.0,Indonesia, 085283216487,,,-4.8085322,122.4040186,https://maps.google.com/?cid=0x0:0xc9ee507432b0a4fe,
hotel,Pusat Kesehatan Masyarakat,PUSKESMAS TIWORO SELATAN,"499P+F53, Jln labu 1 desa, Kasimpa Jaya, Tiworo Sel., Kabupaten Muna, Sulawesi Tenggara 93664","Jln labu 1 desa, Kasimpa Jaya, Tiworo Sel., Kabupaten Muna",SULAWESI TENGGARA,93664.0,Indonesia,,,,-4.8813505,122.3854326,https://maps.google.com/?cid=0x0:0x1a84839105caf8db,
hotel,hotel,Tiworo Tengah,"Kabupaten Muna, Sulawesi Tenggara","Kabupaten Muna, Sulawesi Tenggara",SULAWESI TENGGARA,,Indonesia,,,,-4.7902626,122.3787597,https://maps.google.com/?cid=0x0:0x185569b801f89ceb,
hotel,Hotel,"Hotel Dina, Kabupaten Muna Barat, Kecamatan Tiworo Tengah","Mekar Jaya, Tiworo Tengah, Kabupaten Muna, Sulawesi Tenggara 93653","Tiworo Tengah, Kabupaten Muna",SULAWESI TENGGARA,93653.0,Indonesia, 082296778747,,,-4.8184902,122.4010422,https://maps.google.com/?cid=0x0:0x8abbadb2cf6c59d6,
hotel,Pondok,Tiworo,"6C3P+292, Jl. Poros, Tiworo, Kec. Tiworo Kepulauan, Kabupaten Muna, Sulawesi Tenggara 93653","Jl. Poros, Tiworo, Kec. Tiworo Kepulauan, Kabupaten Muna",SULAWESI TENGGARA,93653.0,Indonesia,,,,-4.797942,122.436684,https://maps.google.com/?cid=0x0:0xa80e7dd0e9032ecf,
hotel,Hotel,RH HOTEL,"5CV3+M6Q, Jl. Ade Irma Nasution, Suka Damai, Tiworo Tengah, Kabupaten Muna, Sulawesi Tenggara 93653","Jl. Ade Irma Nasution, Suka Damai, Tiworo Tengah, Kabupaten Muna",SULAWESI TENGGARA,93653.0,Indonesia,,,,-4.806012,122.4042371,https://maps.google.com/?cid=0x0:0x384776a3b417be4f,
hotel,Hotel,HOTEL AMALYAH Muna Barat,"Barat, Kec. Tiworo Kepulauan, Kabupaten Muna, Sulawesi Tenggara 93653","Kec. Tiworo Kepulauan, Kabupaten Muna",SULAWESI TENGGARA,93653.0,Indonesia, 085255657987,,,-4.7928125,122.4316875,https://maps.google.com/?cid=0x0:0x1d4281c2f02ccf47,
hotel,Hotel,RH GROUP,"Suka Damai, Tiworo Tengah, Laworo, Sulawesi Tenggara 93654","Tiworo Tengah, Laworo",SULAWESI TENGGARA,93654.0,Indonesia, 082261398053,,,-4.8066761,122.4035335,https://maps.google.com/?cid=0x0:0xbdd3b427d329a317,
hotel,Rumah wisata,Rumah Kost ANGGUN,"Desa, Wapae Jaya, Tiworo Tengah, Kabupaten Muna, Sulawesi Tenggara 93653","Wapae Jaya, Tiworo Tengah, Kabupaten Muna",SULAWESI TENGGARA,93653.0,Indonesia,,,,-4.7902626,122.3787597,https://maps.google.com/?cid=0x0:0x54f81617977940e7,
hotel,Hotel,DIAN HOTEL,"6C5M+X88, Jalan Ring Road Kambara - Guali, Tiworo, Kecamatan TIKEP","Kabupaten Muna, Sulawesi Tenggara",SULAWESI TENGGARA,,Indonesia,,,,-4.79008,122.4333254,https://maps.google.com/?cid=0x0:0x8eaaf835c076c747,
hotel,Rumah wisata,Kost Nursyabillah,"Desa, Suka Damai, Tiworo Tengah, muna barat, Sulawesi Tenggara 93653","Suka Damai, Tiworo Tengah, muna barat",SULAWESI TENGGARA,93653.0,Indonesia, 085283216487,,,-4.8085322,122.4040186,https://maps.google.com/?cid=0x0:0xc9ee507432b0a4fe,
hotel,Rumah wisata,Hotel Karisma Anggrek Jingga,"597R+579, Mekar Jaya, Tiworo Tengah, Kabupaten Muna, Sulawesi Tenggara","Kabupaten Muna, Sulawesi Tenggara",SULAWESI TENGGARA,,Indonesia,,,,-4.8370915,122.3907243,https://maps.google.com/?cid=0x0:0x371cd220668cff23,
hotel,hotel,Tiworo Utara,"Kabupaten Muna, Sulawesi Tenggara","Kabupaten Muna, Sulawesi Tenggara",SULAWESI TENGGARA,,Indonesia,,,,-4.6704353,122.373094,https://maps.google.com/?cid=0x0:0xacd624ac1fc2f9d6,
hotel,Hotel,"Hotel Dina, Kabupaten Muna Barat, Kecamatan Tiworo Tengah","Mekar Jaya, Tiworo Tengah, Kabupaten Muna, Sulawesi Tenggara 93653","Tiworo Tengah, Kabupaten Muna",SULAWESI TENGGARA,93653.0,Indonesia, 082296778747,,,-4.8184902,122.4010422,https://maps.google.com/?cid=0x0:0x8abbadb2cf6c59d6,
hotel,Hotel,Penginapan dan rm aroma tiworo,"69XF+C8G, Tondasi, Tiworo Utara, Kabupaten Muna, Sulawesi Tenggara 93653","Tondasi, Tiworo Utara, Kabupaten Muna",SULAWESI TENGGARA,93653.0,Indonesia,,,,-4.7514381,122.3733436,https://maps.google.com/?cid=0x0:0x7076e5b12f603d5b,
hotel,hotel,Horison Hotel Kendari,"Jl. Jend. Ahmad Yani No.3, Bende, Kec. Kadia, Kota Kendari, Sulawesi Tenggara 93117","Bende, Kec. Kadia, Kota Kendari",SULAWESI TENGGARA,93117.0,Indonesia, 04013127999,,,-3.9778936,122.5125375,https://maps.google.com/?cid=0x0:0xd26cbc730b3c5ecd,
hotel,hotel,Tropical Point Hotel Syariah,"Jl. Syech Yusuf No.31, Korumba, Kec. Mandonga, Kota Kendari, Sulawesi Tenggara 93111","Korumba, Kec. Mandonga, Kota Kendari",SULAWESI TENGGARA,93111.0,Indonesia, 085333687211,,,-3.9692378,122.5217392,https://maps.google.com/?cid=0x0:0xc3b0f4dc0a1b90e7,
hotel,hotel,Hotel Wixel,"Jl. Edi Sabara, Lahundape, Kec. Kendari Bar., Kota Kendari, Sulawesi Tenggara 93121","Lahundape, Kec. Kendari Bar., Kota Kendari",SULAWESI TENGGARA,93121.0,Indonesia, 04013367789,,,-3.9683395,122.5311781,https://maps.google.com/?cid=0x0:0x44afc4fbdf6300cb,
hotel,hotel,Hotel Dewa Bintang 2,"Jl. Tebaonunggu No.17, Mandonga, Kec. Kendari, Kota Kendari, Sulawesi Tenggara 93111","Mandonga, Kec. Kendari, Kota Kendari",SULAWESI TENGGARA,93111.0,Indonesia, 04013126799,,,-3.9651662,122.517495,https://maps.google.com/?cid=0x0:0x6a608f24d97621c5,
hotel,hotel,Hotel Mutiara,"5PCG+QX3, Jl. Wamponiki 1, Butung-Butung, Kec. Katobu, Kabupaten Muna, Sulawesi Tenggara 93611","Jl. Wamponiki 1, Butung-Butung, Kec. Katobu, Kabupaten Muna",SULAWESI TENGGARA,93611.0,Indonesia, 085255942333,,,-4.8281009,122.7274264,https://maps.google.com/?cid=0x0:0x802393a5ea8c1b3,
hotel,hotel,Kec. Wadaga,"Kabupaten Muna, Sulawesi Tenggara","Kabupaten Muna, Sulawesi Tenggara",SULAWESI TENGGARA,,Indonesia,,,,-4.9157067,122.5304167,https://maps.google.com/?cid=0x0:0xb09250edddcd2e35,
hotel,hotel,DJ Hotel,"Jl. Kantolalo Jl. By Pass Raha No.10, Kabupaten Muna, Sulawesi Tenggara 93611",Kabupaten Muna,SULAWESI TENGGARA,93611.0,Indonesia, 085399838388,,,-4.8434231,122.7257284,https://maps.google.com/?cid=0x0:0xe5d2bc489ece3ef0,
hotel,hotel,Hotel Qubah 9 Kendari,"Jl. Martandu No.99A, Kambu, Kec. Kambu, Kota Kendari, Sulawesi Tenggara 93231","Kambu, Kec. Kambu, Kota Kendari",SULAWESI TENGGARA,93231.0,Indonesia, 04013136047,,,-4.0082509,122.5345007,https://maps.google.com/?cid=0x0:0x16da52124c17b9e7,
hotel,hotel,Alia Hotel,"Jalan Jenderal Sudirman No.5, Raha, Katobu, Raha I, Kec. Katobu, Kabupaten Muna, Sulawesi Tenggara 93611","Raha, Katobu, Raha I, Kec. Katobu, Kabupaten Muna",SULAWESI TENGGARA,93611.0,Indonesia, 04032521218,,,-4.8422645,122.7254741,https://maps.google.com/?cid=0x0:0x54eb0b2a130dc0b0,
hotel,hotel,Hotel Mutiara,"5PCG+QX3, Jl. Wamponiki 1, Butung-Butung, Kec. Katobu, Kabupaten Muna, Sulawesi Tenggara 93611","Jl. Wamponiki 1, Butung-Butung, Kec. Katobu, Kabupaten Muna",SULAWESI TENGGARA,93611.0,Indonesia, 085255942333,,,-4.8281009,122.7274264,https://maps.google.com/?cid=0x0:0x802393a5ea8c1b3,
hotel,hotel,Hotel Dewa Bintang 2,"Jl. Tebaonunggu No.17, Mandonga, Kec. Kendari, Kota Kendari, Sulawesi Tenggara 93111","Mandonga, Kec. Kendari, Kota Kendari",SULAWESI TENGGARA,93111.0,Indonesia, 04013126799,,,-3.9651662,122.517495,https://maps.google.com/?cid=0x0:0x6a608f24d97621c5,
hotel,hotel,Kahianga Residence,"Jl. Damai No.12, Bende, Kec. Kadia, Kota Kendari, Sulawesi Tenggara 93117","Bende, Kec. Kadia, Kota Kendari",SULAWESI TENGGARA,93117.0,Indonesia,,,,-3.9847321,122.5162638,https://maps.google.com/?cid=0x0:0x2dc4b2acb26593f7,
hotel,hotel,Hotel Indah Kendari,"Jl. Made Sabara, Korumba, Kec. Mandonga, Kota Kendari, Sulawesi Tenggara 93111","Korumba, Kec. Mandonga, Kota Kendari",SULAWESI TENGGARA,93111.0,Indonesia, 04013125979,,,-3.9726126,122.5161707,https://maps.google.com/?cid=0x0:0xd14df6a0d76372f3,
hotel,hotel,SAWA BEACH RESORT,"Ds, RW.Pekarooa, Matanggonawe, Kec. Sawa, Kabupaten Konawe Utara, Sulawesi Tenggara 93352","RW.Pekarooa, Matanggonawe, Kec. Sawa, Kabupaten Konawe Utara",SULAWESI TENGGARA,93352.0,Indonesia, 08114056864,,,-3.783229,122.4511684,https://maps.google.com/?cid=0x0:0x21bbabf4006bce95,
hotel,hotel,Kahianga Residence,"Jalan Sao Sao No.200, Bende, Kadia, Bende, Kec. Kadia, Kota Kendari, Sulawesi Tenggara 93117","Bende, Kadia, Bende, Kec. Kadia, Kota Kendari",SULAWESI TENGGARA,93117.0,Indonesia, 04013196357,,,-3.9845885,122.5151443,https://maps.google.com/?cid=0x0:0xa9ce4b0bbb74c482,
restaurant,restaurant,Kec. Barangka,"Kabupaten Muna, Sulawesi Tenggara","Kabupaten Muna, Sulawesi Tenggara",SULAWESI TENGGARA,,Indonesia,,,,-4.8448994,122.5483448,https://maps.google.com/?cid=0x0:0x22374dea68597f27,
restaurant,Kedai Kopi,Cafe Double A,"5GQ9+QG2, Lafinde, Kec. Barangka, Kabupaten Muna, Sulawesi Tenggara","Kabupaten Muna, Sulawesi Tenggara",SULAWESI TENGGARA,,Indonesia,,,,-4.810609,122.5187532,https://maps.google.com/?cid=0x0:0x3f197f7819251da5,
restaurant,Restoran,ZZ Resto Cafe  Pemancingan,"Matakidi, Kec. Lawa, Muna Barat, Sulawesi Tenggara","Muna Barat, Sulawesi Tenggara",SULAWESI TENGGARA,,Indonesia, 081260616680,,,-4.8539069,122.5448737,https://maps.google.com/?cid=0x0:0xc186539c722fe6ac,
restaurant,Kedai Kopi,KEDAI MUBAR BERSATU,"5H38+R5W, Jl. Poros Raha-Tondasi, Sawerigadi, Kec. Barangka, Kabupaten Muna, Sulawesi Tenggara 93652","Jl. Poros Raha-Tondasi, Sawerigadi, Kec. Barangka, Kabupaten Muna",SULAWESI TENGGARA,93652.0,Indonesia,,,,-4.8453848,122.5654534,https://maps.google.com/?cid=0x0:0xa5a73f82e92fb850,
restaurant,Kedai Kopi,Rumah,"5GJC+F7W, Wuna, Kec. Barangka, Kabupaten Muna, Sulawesi Tenggara 93657","Wuna, Kec. Barangka, Kabupaten Muna",SULAWESI TENGGARA,93657.0,Indonesia,,,,-4.8187733,122.52069,https://maps.google.com/?cid=0x0:0x3ea56220b42480f,
restaurant,Kedai Kopi,Karaoke,"5G2W+WR2, Jalan, Lawa, Barangka, Muna Regency, South East Sulawesi 93652","Jalan, Lawa, Barangka, Muna Regency",SULAWESI TENGGARA,93652.0,Indonesia, 085241660077,,,-4.8477317,122.5470083,https://maps.google.com/?cid=0x0:0xb8b12f1e1f0b6f97,
restaurant,Rumah Makan,Rumah Makan FehuLai,"4HWW+287, Desa Sawerigadi, Barat, Kabupaten Muna","Kabupaten Muna, Sulawesi Tenggara",SULAWESI TENGGARA,,Indonesia, 082239328245,,,-4.8549594,122.5958088,https://maps.google.com/?cid=0x0:0x9464eb583cf956c5,
restaurant,Restoran,Lavanya Cafe,"2G89+WV6, Bende, Kec. Kadia, Kota Kendari, Sulawesi Tenggara","Kota Kendari, Sulawesi Tenggara",SULAWESI TENGGARA,,Indonesia,,,,-3.9825766,122.5195527,https://maps.google.com/?cid=0x0:0x771d813cfebc4fe0,
restaurant,Kedai Kopi,Warung ida fadhillah,"5H6G+XP9, Sawerigadi, Kec. Barangka, Kabupaten Muna, Sulawesi Tenggara","Kabupaten Muna, Sulawesi Tenggara",SULAWESI TENGGARA,,Indonesia,,,,-4.8375989,122.5768651,https://maps.google.com/?cid=0x0:0xf801a2facd7b6180,
restaurant,Kedai Kopi,Warkop kulbang'dpro,"5G8F+GW2, Waulai, Kec. Barangka, Kabupaten Muna, Sulawesi Tenggara 93657","Waulai, Kec. Barangka, Kabupaten Muna",SULAWESI TENGGARA,93657.0,Indonesia, 082178881442,,,-4.8337288,122.5247628,https://maps.google.com/?cid=0x0:0xb4f4d09a33ab88d9,
restaurant,Restoran,Family Cafe PIER 29,"Kompleks Pier No.29, Bende, Kec. Kadia, Kota Kendari, Sulawesi Tenggara 93111","Bende, Kec. Kadia, Kota Kendari",SULAWESI TENGGARA,93111.0,Indonesia, 04013127515,,,-3.9799588,122.511108,https://maps.google.com/?cid=0x0:0x763e05b375481c0f,
restaurant,restaurant,Warung makan pelangi,"5H92+3HM, Lapolea, Kec. Barangka, Kabupaten Muna, Sulawesi Tenggara","Kabupaten Muna, Sulawesi Tenggara",SULAWESI TENGGARA,,Indonesia,,,,-4.832288,122.5514155,https://maps.google.com/?cid=0x0:0x76f43c2dab74b4ea,
restaurant,restaurant,Barangka,"Marikina City, Metro Manila, Filipina","Marikina City, Metro Manila, Filipina",SULAWESI TENGGARA,,Indonesia,,,,14.6382755,121.0836691,https://maps.google.com/?cid=0x0:0xb06d0bc6c0ed719,
restaurant,Restoran,Mr. BBQ Barangka Branch,"85 A. Bonifacio Ave, Marikina City, 1803 Metro Manila, Filipina","Marikina City, Metro Manila, Filipina",SULAWESI TENGGARA,,Indonesia,,,,14.6324899,121.0816731,https://maps.google.com/?cid=0x0:0xde453eb3d6c807f4,
restaurant,Makanan Siap Saji,Dolora's Hauz Of Pancit Malabon (Barangka Branch),"130 A. Bonifacio Ave, Marikina City, 1800 Metro Manila, Filipina","Marikina City, Metro Manila, Filipina",SULAWESI TENGGARA,,Indonesia, +63289976084,,,14.6328659,121.0832393,https://maps.google.com/?cid=0x0:0xf49cf7c2e9f80ec6,
restaurant,Ayam,Andok's,"96 A A. Bonifacio Ave, Marikina City, 1803 Metro Manila, Filipina","Marikina City, Metro Manila, Filipina",SULAWESI TENGGARA,,Indonesia,,,,14.632476,121.081891,https://maps.google.com/?cid=0x0:0x39c1067f5c574a4d,
restaurant,Pesan-Bawa,Turks Barangka Marikina,"65, 1803 A. Bonifacio Ave, Marikina City, 1800 Metro Manila, Filipina","Marikina City, Metro Manila, Filipina",SULAWESI TENGGARA,,Indonesia, +639164216555,,,14.6327474,121.0818642,https://maps.google.com/?cid=0x0:0xa4f209ebcb1572ef,
restaurant,Makanan Siap Saji,Greenwich,"RIVERBANKS CENTER, A. Bonifacio Ave, BARANGKA, Marikina City, 1804 Metro Manila, Filipina","Marikina City, Metro Manila, Filipina",SULAWESI TENGGARA,,Indonesia,,,,14.6323854,121.0831906,https://maps.google.com/?cid=0x0:0x84254e02487616eb,
restaurant,Pesan-Bawa,Sisig Hooray! - Riverbanks,"J3JJ+8PR, Marikina City, 1800 Metro Manila, Filipina","Marikina City, Metro Manila, Filipina",SULAWESI TENGGARA,,Indonesia,,,,14.6308598,121.0817522,https://maps.google.com/?cid=0x0:0x6ab6e58f5558db1b,
restaurant,Makanan Siap Saji,Tropical Hut Hamburger Riverbanks Marikina Branch,"J3JM+W53 Riverbanks, A. Bonifacio Ave, Marikina City, Filipina","Marikina City, Metro Manila, Filipina",SULAWESI TENGGARA,,Indonesia,,,,14.6322599,121.0829233,https://maps.google.com/?cid=0x0:0x59bc07a5baea73b6,
restaurant,Makanan Siap Saji,Jollibee,"Riverbanks Center, 84 A. Bonifacio Ave, Marikina City, Metro Manila, Filipina","Marikina City, Metro Manila, Filipina",SULAWESI TENGGARA,,Indonesia, +63289489983,,,14.6317825,121.0828521,https://maps.google.com/?cid=0x0:0x831beef6e53a7c12,
restaurant,Makanan Siap Saji,Jollibee Riverbanks North Triangle,"J3JM+XFJ, Marikina City, 1800 Metro Manila, Filipina","Marikina City, Metro Manila, Filipina",SULAWESI TENGGARA,,Indonesia, +63287277242,,,14.6324636,121.0836341,https://maps.google.com/?cid=0x0:0xfe96679feb9ef96b,
restaurant,Makanan Siap Saji,CK Marikina Riverbanks 2,"LEVEL 1, RIVERBANKS CENTER, A. Bonifacio Ave, Marikina City, 1803 Metro Manila, Filipina","Marikina City, Metro Manila, Filipina",SULAWESI TENGGARA,,Indonesia, +639296758820,,,14.6312227,121.0826713,https://maps.google.com/?cid=0x0:0x410e4c4a54085af7,
restaurant,Restoran,Lan's Chowfan,"162, 1800 A. Bonifacio Ave, Marikina City, Metro Manila, Filipina","Marikina City, Metro Manila, Filipina",SULAWESI TENGGARA,,Indonesia, +63286619523,,,14.63326,121.0847848,https://maps.google.com/?cid=0x0:0x80c57d692c693e28,
restaurant,Restoran,SUTUKIL RESTAURANT HINAHON,"403 Barangka Dr., Mandaluyong City, 1550 Kalakhang Maynila, Filipina","Mandaluyong City, Metro Manila, Filipina",SULAWESI TENGGARA,,Indonesia, +63287062207,,,14.5730475,121.0390171,https://maps.google.com/?cid=0x0:0xacf293214155c3c,
restaurant,Restoran,Yham's Eatery,"32 D A. Bonifacio Ave, Marikina City, 1803 Metro Manila, Filipina","Marikina City, Metro Manila, Filipina",SULAWESI TENGGARA,,Indonesia,,,,14.6319855,121.0795545,https://maps.google.com/?cid=0x0:0x75ba16b0bdcdb885,
restaurant,Sesuai untuk keluarga,Bagnet Centrale,"J3JM+G7Q, A. Bonifacio Ave. Riverbanks Mall, Marikina City, 1800 Metro Manila, Filipina","Marikina City, Metro Manila, Filipina",SULAWESI TENGGARA,,Indonesia,,,,14.6314871,121.0835262,https://maps.google.com/?cid=0x0:0x216dfb4b9d3a472b,
restaurant,Makanan Kecil,Bacheng's BBQ  Grill,"8 Sto. Nino St Dela Costa Homes, Marikina City, 1803 Metro Manila, Filipina","Marikina City, Metro Manila, Filipina",SULAWESI TENGGARA,,Indonesia, +639156170293,,,14.6372867,121.0820903,https://maps.google.com/?cid=0x0:0x5485864d87c77776,
restaurant,Restoran,Elma's Kitchen,"95, 1800 St Joseph Ave, Marikina City, 1800 Metro Manila, Filipina","Marikina City, Metro Manila, Filipina",SULAWESI TENGGARA,,Indonesia,,,,14.6364941,121.0821597,https://maps.google.com/?cid=0x0:0x641e7de1ec4c779a,
restaurant,restaurant,Sulawesi Tenggara 93655,"Kabupaten Muna, Sulawesi Tenggara","Kabupaten Muna, Sulawesi Tenggara",SULAWESI TENGGARA,,Indonesia,,,,-4.7167048,122.593828,https://maps.google.com/?cid=0x0:0x2099dcc445aba1a5,
restaurant,Dapur Umum,RM.KURNIA,"Jl. Sugi Manuru, Kusambi, Kec. Kusambi, Kabupaten Muna, Sulawesi Tenggara 93657","Kusambi, Kec. Kusambi, Kabupaten Muna",SULAWESI TENGGARA,93657.0,Indonesia, 085342050541,,,-4.7560488,122.5700041,https://maps.google.com/?cid=0x0:0x2ba2f4409c09830,
restaurant,Rumah Makan,Nongky House,"7GXJ+2VP, Desa, Tj. Pinang, Kec. Kusambi, Kab. Muna Barat",Kab. Muna Barat,SULAWESI TENGGARA,,Indonesia,,,,-4.7024079,122.5322168,https://maps.google.com/?cid=0x0:0x44536a6f3c715b00,
restaurant,Restoran,Rumah Makan Kharisma + karaoke,"7G2Q+4RQ, Unnamed Road, Guali, Kec. Kusambi, Kabupaten Muna, Sulawesi Tenggara 93653","Unnamed Road, Guali, Kec. Kusambi, Kabupaten Muna",SULAWESI TENGGARA,93653.0,Indonesia, 082343906801,,,-4.7496689,122.5395965,https://maps.google.com/?cid=0x0:0x9c0bfd1e7246f930,
restaurant,Mi,Rumah Makan Mie Pangsit Janoko 2,"6HWG+526, Jl. Sugi Manuru, Kusambi, Kec. Kusambi, Kabupaten Muna, Sulawesi Tenggara 93657","Jl. Sugi Manuru, Kusambi, Kec. Kusambi, Kabupaten Muna",SULAWESI TENGGARA,93657.0,Indonesia,,,,-4.7545832,122.575007,https://maps.google.com/?cid=0x0:0xc217f95a36ba5398,
restaurant,Restoran,RM. New Roxy Raha,"Jl. Jend. Sudirman No.43, Bone Balano, Kec. Duruka, Kabupaten Muna, Sulawesi Tenggara 93611","Bone Balano, Kec. Duruka, Kabupaten Muna",SULAWESI TENGGARA,93611.0,Indonesia, 082188981997,,,-4.8441679,122.725091,https://maps.google.com/?cid=0x0:0x6dcb0bc62090b6a8,
restaurant,Rumah Makan,SUN KULINER,"Jalan Dermaga Nelayan Tanjung Pinang Kusambi, Barat, Kabupaten Muna, Sulawesi Tenggara 93655","Barat, Kabupaten Muna",SULAWESI TENGGARA,93655.0,Indonesia, 082293629048,,,-4.7019375,122.5316694,https://maps.google.com/?cid=0x0:0xd08fba8575691480,
restaurant,Makanan Kecil,Warung Dzakiyah,"7G4P+949, Unnamed Road, Lapokainse, Kec. Kusambi, Kabupaten Muna, Sulawesi Tenggara 93653","Unnamed Road, Lapokainse, Kec. Kusambi, Kabupaten Muna",SULAWESI TENGGARA,93653.0,Indonesia, 085342995806,,,-4.7440947,122.5353589,https://maps.google.com/?cid=0x0:0xac9679f1bce080dc,
restaurant,Prasmanan,Rumah makan Mila sari,"7G3Q+F9V, Lapokainse, Kec. Kusambi, Kabupaten Muna, Sulawesi Tenggara 93653","Lapokainse, Kec. Kusambi, Kabupaten Muna",SULAWESI TENGGARA,93653.0,Indonesia,,,,-4.746259,122.538411,https://maps.google.com/?cid=0x0:0x3489849d9a0d85dd,
restaurant,Padang,Warung makan sea food Tampo,"9PF5+MCM, Unnamed Road, Napabalano, Muna Regency, South East Sulawesi 93654","Unnamed Road, Napabalano, Muna Regency",SULAWESI TENGGARA,93654.0,Indonesia,,,,-4.6257944,122.7085585,https://maps.google.com/?cid=0x0:0x94c857283bb229f5,
restaurant,Toko,Warung Mama Dila,"8H4J+JP3, Lahaji, Kec. Napano Kusambi, Barat, Kabupaten Muna, Sulawesi Tenggara","Kabupaten Muna, Sulawesi Tenggara",SULAWESI TENGGARA,,Indonesia,,,,-4.6934957,122.5817847,https://maps.google.com/?cid=0x0:0xa28131d2302a7a9,
restaurant,Hidangan Laut,RUMAH MAKAN CITRA KABAWO,"9PF5+J99, Jl. Pelabuhan Tampo, Napabalano, Kec. Napabalano, Kabupaten Muna, Sulawesi Tenggara 93654","Jl. Pelabuhan Tampo, Napabalano, Kec. Napabalano, Kabupaten Muna",SULAWESI TENGGARA,93654.0,Indonesia,,,,-4.6259724,122.7084696,https://maps.google.com/?cid=0x0:0xe261d547b6c34c13,
restaurant,restaurant,Kios Wa Nande,"8MM7+QF2, Langkumapo, Kec. Napabalano, Kabupaten Muna, Sulawesi Tenggara","Kabupaten Muna, Sulawesi Tenggara",SULAWESI TENGGARA,,Indonesia,,,,-4.6656082,122.6636336,https://maps.google.com/?cid=0x0:0x65f84f545b5230da,
restaurant,Kedai Kopi,Gubuk KafeWuleha,"5PH8+9QG, Lrg. Mekar, Raha III, Kec. Katobu, Kabupaten Muna, Sulawesi Tenggara 93614","Lrg. Mekar, Raha III, Kec. Katobu, Kabupaten Muna",SULAWESI TENGGARA,93614.0,Indonesia, 085859077280,,,-4.8215563,122.7169616,https://maps.google.com/?cid=0x0:0xd72a01a8da448e54,
restaurant,Restoran,Mini RESTO DEGO,"6GRJ+J4Q, Barat, Guali, Kec. Kusambi, Kabupaten Muna, Sulawesi Tenggara 93653","Barat, Guali, Kec. Kusambi, Kabupaten Muna",SULAWESI TENGGARA,93653.0,Indonesia, 081241166116,,,-4.7584011,122.5303542,https://maps.google.com/?cid=0x0:0x5ac7d8f0aad5a591,
restaurant,Brunch,Warung makan cahaya,"5MGC+PXX, Jl. Poros Raha-Kusambi, Bangkali, Kec. Watopute, Kabupaten Muna, Sulawesi Tenggara 93656","Jl. Poros Raha-Kusambi, Bangkali, Kec. Watopute, Kabupaten Muna",SULAWESI TENGGARA,93656.0,Indonesia, 082218342349,,,-4.8231555,122.6724899,https://maps.google.com/?cid=0x0:0xb3824bc0c2ad6b23,
restaurant,Rumah Makan,Rumah Makan Puty,"9PF5+VG6, Napabalano, Kec. Napabalano, Kabupaten Muna, Sulawesi Tenggara 93654","Napabalano, Kec. Napabalano, Kabupaten Muna",SULAWESI TENGGARA,93654.0,Indonesia, 085241837778,,,-4.625325,122.7087529,https://maps.google.com/?cid=0x0:0x88e3ad234725a37,
restaurant,Hidangan Laut,Warung makan avan,"9PF5+VFG Pelabuhan feri, Tampo, Kec. Napabalano, Kabupaten Muna, Sulawesi Tenggara 93654","Tampo, Kec. Napabalano, Kabupaten Muna",SULAWESI TENGGARA,93654.0,Indonesia, 082346754292,,,-4.6253221,122.7087178,https://maps.google.com/?cid=0x0:0x4e553b5d557a2d28,
restaurant,Rumah Makan,Rumah makan azzahrah,"6GRH+CWW, Maperaha, Kec. Sawerigadi, Kabupaten Muna, Sulawesi Tenggara","Kabupaten Muna, Sulawesi Tenggara",SULAWESI TENGGARA,,Indonesia, 081355463378,,,-4.7588923,122.529843,https://maps.google.com/?cid=0x0:0xf3136e7954b0b376,
restaurant,Hidangan Laut,KEDAI MURA TAMPO,"Tampo, Napabalano Jln. Laganapu/kapulu-pulu, Lingkungan 6, Tampo, Kabupaten Muna, Sulawesi Tenggara 93654","Napabalano Jln. Laganapu/kapulu-pulu, Lingkungan 6, Tampo, Kabupaten Muna",SULAWESI TENGGARA,93654.0,Indonesia,,,,-4.6195478,122.6979558,https://maps.google.com/?cid=0x0:0x4e294171529bf45c,
restaurant,restaurant,Sulawesi Tenggara 93652,"Kabupaten Muna, Sulawesi Tenggara","Kabupaten Muna, Sulawesi Tenggara",SULAWESI TENGGARA,,Indonesia,,,,-4.8874972,122.5598994,https://maps.google.com/?cid=0x0:0x34e12d7c7d7a4631,
restaurant,Restoran,ZZ Resto Cafe  Pemancingan,"Matakidi, Kec. Lawa, Muna Barat, Sulawesi Tenggara","Muna Barat, Sulawesi Tenggara",SULAWESI TENGGARA,,Indonesia, 081260616680,,,-4.8539069,122.5448737,https://maps.google.com/?cid=0x0:0xc186539c722fe6ac,
restaurant,Restoran,RM. A'in Rionald,"Lapadaku, Kec. Lawa, Kabupaten Muna, Sulawesi Tenggara 93652","Kec. Lawa, Kabupaten Muna",SULAWESI TENGGARA,93652.0,Indonesia, 085346854243,,,-4.8790341,122.5617362,https://maps.google.com/?cid=0x0:0x36ab76b7e6e2dd85,
restaurant,Restoran,RM. New Roxy Raha,"Jl. Jend. Sudirman No.43, Bone Balano, Kec. Duruka, Kabupaten Muna, Sulawesi Tenggara 93611","Bone Balano, Kec. Duruka, Kabupaten Muna",SULAWESI TENGGARA,93611.0,Indonesia, 082188981997,,,-4.8441679,122.725091,https://maps.google.com/?cid=0x0:0x6dcb0bc62090b6a8,
restaurant,Rumah Makan,Rumah Makan FehuLai,"4HWW+287, Desa Sawerigadi, Barat, Kabupaten Muna","Kabupaten Muna, Sulawesi Tenggara",SULAWESI TENGGARA,,Indonesia, 082239328245,,,-4.8549594,122.5958088,https://maps.google.com/?cid=0x0:0x9464eb583cf956c5,
restaurant,Ayam,Rumah Makan Lia Leon,"Labaha, Kec. Watopute, Kabupaten Muna, Sulawesi Tenggara 93656","Kec. Watopute, Kabupaten Muna",SULAWESI TENGGARA,93656.0,Indonesia,,,,-4.8401423,122.6872038,https://maps.google.com/?cid=0x0:0xc5b8343892c35582,
restaurant,Rumah Makan,Depot Rina,"2CWP+35F, Wakobulu Agung, Kec. Kabangka, Kabupaten Muna, Sulawesi Tenggara 93652","Wakobulu Agung, Kec. Kabangka, Kabupaten Muna",SULAWESI TENGGARA,93652.0,Indonesia, 085340553997,,,-4.9548248,122.4354178,https://maps.google.com/?cid=0x0:0xaa668d9ee01a5b3,
restaurant,Soto,Rumah makan Cahaya Pangkep Konro Coto,"5P4G+P33, Jl. Jend. Sudirman, Raha I, Kec. Katobu, Kabupaten Muna, Sulawesi Tenggara 93611","Jl. Jend. Sudirman, Raha I, Kec. Katobu, Kabupaten Muna",SULAWESI TENGGARA,93611.0,Indonesia,,,,-4.8432476,122.7251866,https://maps.google.com/?cid=0x0:0x91051a30be3788c,
restaurant,Kedai Kopi,FOUR_Q RESTO  CAFE,"6C29+577, Waumere, Kec. Tiworo Kepulauan, Kabupaten Muna, Sulawesi Tenggara 93653","Waumere, Kec. Tiworo Kepulauan, Kabupaten Muna",SULAWESI TENGGARA,93653.0,Indonesia,,,,-4.7995815,122.4181658,https://maps.google.com/?cid=0x0:0x25d79af222d44770,
restaurant,Kafe,Cafe Langit-Langit Tugu Jati Raha,"Pulau, Kabupaten Muna, Sulawesi Tenggara 93611",Kabupaten Muna,SULAWESI TENGGARA,93611.0,Indonesia, 082290732788,,,-4.8407065,122.7261308,https://maps.google.com/?cid=0x0:0xdd61b366be370229,
restaurant,Restoran,Warung Makan Mbak Lia,"Jl. Sukowati, Raha I, Kec. Katobu, Kabupaten Muna, Sulawesi Tenggara 93611","Raha I, Kec. Katobu, Kabupaten Muna",SULAWESI TENGGARA,93611.0,Indonesia,,,,-4.8379162,122.7234047,https://maps.google.com/?cid=0x0:0x93d0a8d2ca6e3ff5,
restaurant,Rumah Makan,Bu Sri Cafe  Resto,"5PGF+648, Jl. Gatot Subroto, Wamponiki, Kec. Katobu, Kabupaten Muna, Sulawesi Tenggara 93614","Jl. Gatot Subroto, Wamponiki, Kec. Katobu, Kabupaten Muna",SULAWESI TENGGARA,93614.0,Indonesia, 082271381940,,,-4.8244691,122.722827,https://maps.google.com/?cid=0x0:0x8e02569bb536f4c9,
restaurant,Rumah Makan,Rumah Makan Jene Berang,"Jl. Jens Jl. Ahmad Yani No.65, Pulau, Kec. Katobu, Kabupaten Muna, Sulawesi Tenggara 93614","Pulau, Kec. Katobu, Kabupaten Muna",SULAWESI TENGGARA,93614.0,Indonesia, 085241961400,,,-4.8349457,122.7248669,https://maps.google.com/?cid=0x0:0xcc7304e9b8e495c4,
restaurant,Indonesia,Rm Mawar,"2CRH+J98, desa Jl. Mawar, Wakobulu Agung, Kec. Kabangka, Kabupaten Muna, Sulawesi Tenggara 93664","desa Jl. Mawar, Wakobulu Agung, Kec. Kabangka, Kabupaten Muna",SULAWESI TENGGARA,93664.0,Indonesia, 082292259350,,,-4.958461,122.4284421,https://maps.google.com/?cid=0x0:0xebf410a5d32185a5,
restaurant,Rumah Makan,"Rumah Makan MAWAR, ATK dan Fotocopy","Guali Kusambi, Barat, Kabupaten Muna, Sulawesi Tenggara 93653","Barat, Kabupaten Muna",SULAWESI TENGGARA,93653.0,Indonesia, 085240999950,,,-4.7497645,122.5437293,https://maps.google.com/?cid=0x0:0x98daf1cf5a1b583d,
restaurant,Rumah Makan,RUMAH MAKAN FADILAH,"XGV2+W69, Lamaeo, Kec. Kabawo, Kabupaten Muna, Sulawesi Tenggara 93661","Lamaeo, Kec. Kabawo, Kabupaten Muna",SULAWESI TENGGARA,93661.0,Indonesia,,,,-5.0052041,122.5006078,https://maps.google.com/?cid=0x0:0x50a487acd6423c9,
restaurant,Rumah Makan,RM. Mbak Elva,"59FX+22G, Mekar Jaya, Tiworo Tengah, Kabupaten Muna, Sulawesi Tenggara","Kabupaten Muna, Sulawesi Tenggara",SULAWESI TENGGARA,,Indonesia,,,,-4.8274465,122.3975803,https://maps.google.com/?cid=0x0:0x356e9856c68d63f0,
restaurant,Brunch,"RM. AINUL (Bakso, Coto Ayam, Nasi Goreng, Lalapan, Kondro)","3GMJ+82W, Lailangga, Kec. Wadaga, Kabupaten Muna, Sulawesi Tenggara 93652","Lailangga, Kec. Wadaga, Kabupaten Muna",SULAWESI TENGGARA,93652.0,Indonesia, 085299045549,,,-4.9166348,122.5300716,https://maps.google.com/?cid=0x0:0x1150fb9d68fe48ed,
restaurant,Rumah Makan,Podomoro,"2CVC+GRR, Wakobulu Agung, Kec. Kabangka, Kabupaten Muna, Sulawesi Tenggara 93664","Wakobulu Agung, Kec. Kabangka, Kabupaten Muna",SULAWESI TENGGARA,93664.0,Indonesia, 085234859750,,,-4.9561363,122.4220277,https://maps.google.com/?cid=0x0:0x5cf248acd356fb98,
restaurant,restaurant,Kebun nya la atho,"4M6V+92, Kondongia, Kec. Lohia, Kabupaten Muna, Sulawesi Tenggara","Kabupaten Muna, Sulawesi Tenggara",SULAWESI TENGGARA,,Indonesia,,,,-4.8885249,122.6912942,https://maps.google.com/?cid=0x0:0xfbda66d80147cc8,
restaurant,Pujasera,Lawa Bistro,"GHHW+9VR, Jl. Dr. HOS. Cokroaminoto, Lamangga, Kec. Murhum, Kota Bau-Bau, Sulawesi Tenggara 93713","Jl. Dr. HOS. Cokroaminoto, Lamangga, Kec. Murhum, Kota Bau-Bau",SULAWESI TENGGARA,93713.0,Indonesia, 085351423976,,,-5.47152,122.5971451,https://maps.google.com/?cid=0x0:0x106fa94facf16856,
restaurant,Restoran,RM.BUNDA,"49GV+M8J, Jln. Poros desa, Kasimpa Jaya, Tiworo Sel., Kabupaten Muna, Sulawesi Tenggara","Kabupaten Muna, Sulawesi Tenggara",SULAWESI TENGGARA,,Indonesia,,,,-4.8732959,122.3932694,https://maps.google.com/?cid=0x0:0x22df433f3039fed2,
restaurant,Restoran,The Lawu Park Resto,"85PG+59H, Gondosuli Kidul, Gondosuli, Kec. Tawangmangu, Kabupaten Karanganyar, Jawa Tengah 57792","Gondosuli Kidul, Gondosuli, Kec. Tawangmangu, Kabupaten Karanganyar",SULAWESI TENGGARA,57792.0,Indonesia, 081238923626,,,-7.6645252,111.1759759,https://maps.google.com/?cid=0x0:0x3052d75b84953827,
restaurant,Restoran,PA.SO.LA Restaurant,"Sudirman Central Business District (SCBD, Jl. Jend. Sudirman kav 52-53, RT.5/RW.3, Senayan, Kec. Kby. Baru, Kota Jakarta Selatan, Daerah Khusus Ibukota Jakarta 12190","Jl. Jend. Sudirman kav 52-53, RT.5/RW.3, Senayan, Kec. Kby. Baru, Kota Jakarta Selatan",SULAWESI TENGGARA,12190.0,Indonesia, 02125501993,,,-6.2235233,106.8097302,https://maps.google.com/?cid=0x0:0x6f8a97dabcb7d15f,
restaurant,Restoran,Alaishaa's Kitchen,"Jl. Buaran Sakti I No.14 Blok A1, RT.2/RW.12, Klender, Durensawit, East Jakarta City, Jakarta 13470","RT.2/RW.12, Klender, Durensawit, East Jakarta City",SULAWESI TENGGARA,13470.0,Indonesia, 08111161889,,,-6.2196414,106.9182261,https://maps.google.com/?cid=0x0:0x71a831c54ea83524,
restaurant,restaurant,,,,SULAWESI TENGGARA,,Indonesia,,,,,,https://maps.google.com/?cid=0x0:0x8326e31e66968696%7C/g/11y6cgv6p%7Cen-ID,
restaurant,restaurant,The Ritz-Carlton Jakarta Pacific Place,"Jl. Jend. Sudirman kav 52-53, SCBD, Jakarta, Kota Jakarta Selatan, Jawa Barat 12190","SCBD, Jakarta, Kota Jakarta Selatan",SULAWESI TENGGARA,12190.0,Indonesia, 02125501888,,,-6.2236809,106.8099208,https://maps.google.com/?cid=0x0:0x8326e31e66968696,
restaurant,restaurant,Alila SCBD Jakarta,"SCBD Lot Jl. Jend. Sudirman kav 52-53 No.11, Senayan, Kec. Kby. Baru, Jakarta, Daerah Khusus Ibukota Jakarta 12190","Senayan, Kec. Kby. Baru, Jakarta",SULAWESI TENGGARA,12190.0,Indonesia, 02150808777,,,-6.2254669,106.8087839,https://maps.google.com/?cid=0x0:0xe04ba29d6fc9b76e,
restaurant,restaurant,"The Langham, Jakarta","Sudirman Central Business District 8 Lot.28, Senayan, Kec. Kby. Baru, Kota Jakarta Selatan, Daerah Khusus Ibukota Jakarta 12190","Senayan, Kec. Kby. Baru, Kota Jakarta Selatan",SULAWESI TENGGARA,12190.0,Indonesia, 02127087888,,,-6.2273812,106.8067669,https://maps.google.com/?cid=0x0:0xd36ec787c1cbe0a8,
restaurant,restaurant,Kec. Maginti,"Kabupaten Muna, Sulawesi Tenggara","Kabupaten Muna, Sulawesi Tenggara",SULAWESI TENGGARA,,Indonesia,,,,-4.8523016,122.3273334,https://maps.google.com/?cid=0x0:0x827d1cf3623f4296,
restaurant,Rumah Makan,RM. Angin Mammiri Mubar,"49XP+W95, Abadi Jaya, Kec. Maginti, Kabupaten Muna, Sulawesi Tenggara","Kabupaten Muna, Sulawesi Tenggara",SULAWESI TENGGARA,,Indonesia, 082257712902,,,-4.8502331,122.3859768,https://maps.google.com/?cid=0x0:0x3212dbb7c28b2f45,
restaurant,Restoran,Rm.mi3 Bude mitri,"Jl. Poros No.desa, Kasimpa Jaya, Tiworo Sel., Kabupaten Muna, Sulawesi Tenggara 93664","Kasimpa Jaya, Tiworo Sel., Kabupaten Muna",SULAWESI TENGGARA,93664.0,Indonesia, 082216146108,,,-4.880639,122.384752,https://maps.google.com/?cid=0x0:0x1a8fa12652bbc047,
restaurant,Kafe,Cafe AM:PM 23,"582H+Q3P, Jl.La Tohue, Pajala, Kec. Maginti, Kabupaten Muna, Sulawesi Tenggara 93664","Jl.La Tohue, Pajala, Kec. Maginti, Kabupaten Muna",SULAWESI TENGGARA,93664.0,Indonesia,,,,-4.8480407,122.3277168,https://maps.google.com/?cid=0x0:0x87d64a2953f1c76e,
restaurant,Rumah Makan,RM. Mbak Elva,"59FX+22G, Mekar Jaya, Tiworo Tengah, Kabupaten Muna, Sulawesi Tenggara","Kabupaten Muna, Sulawesi Tenggara",SULAWESI TENGGARA,,Indonesia,,,,-4.8274465,122.3975803,https://maps.google.com/?cid=0x0:0x356e9856c68d63f0,
restaurant,Bakso,RM. Mas Bambang,"Jl. Poros No.2, Mekar Jaya, Tiworo Tengah, Kabupaten Muna, Sulawesi Tenggara 93648","Mekar Jaya, Tiworo Tengah, Kabupaten Muna",SULAWESI TENGGARA,93648.0,Indonesia,,,,-4.8241483,122.3987769,https://maps.google.com/?cid=0x0:0x7266b936fdc07088,
restaurant,Restoran,RM Dapoer Nanda,"depan pura sp 1, Jl. Poros, Wapae Jaya, Tiworo Tengah, Kabupaten Muna, Sulawesi Tenggara 93653","Jl. Poros, Wapae Jaya, Tiworo Tengah, Kabupaten Muna",SULAWESI TENGGARA,93653.0,Indonesia, 085243858687,,,-4.8216307,122.3999437,https://maps.google.com/?cid=0x0:0x94c0a1d62c76ff03,
restaurant,Kedai Kopi,FOUR_Q RESTO  CAFE,"6C29+577, Waumere, Kec. Tiworo Kepulauan, Kabupaten Muna, Sulawesi Tenggara 93653","Waumere, Kec. Tiworo Kepulauan, Kabupaten Muna",SULAWESI TENGGARA,93653.0,Indonesia,,,,-4.7995815,122.4181658,https://maps.google.com/?cid=0x0:0x25d79af222d44770,
restaurant,Padang,RM. AL-BAGHDADI BANDUNG JABAR (MUBAR),"5CQ3+GMG, Wapae Jaya, Tiworo Tengah, Kabupaten Muna, Sulawesi Tenggara 93653","Wapae Jaya, Tiworo Tengah, Kabupaten Muna",SULAWESI TENGGARA,93653.0,Indonesia, 082187018444,,,-4.8111995,122.404215,https://maps.google.com/?cid=0x0:0xd39f97a1ff0ee162,
restaurant,Brunch,Warung Bakso Padamuru,"Mekar Jaya, Tiworo Tengah, Kabupaten Muna, Sulawesi Tenggara","Kabupaten Muna, Sulawesi Tenggara",SULAWESI TENGGARA,,Indonesia, 082271007634,,,-4.8315347,122.395538,https://maps.google.com/?cid=0x0:0xeafb7a9d06400acb,
restaurant,Brunch,KEDAI ARFI,"Jl. Poros Raha 001, RT./RW/RW.: 001, Matano Oe, wamingkoli, Kabupaten Muna, Sulawesi Tenggara 93662","RT./RW/RW.: 001, Matano Oe, wamingkoli, Kabupaten Muna",SULAWESI TENGGARA,93662.0,Indonesia, 085242028679,,,-4.8234046,122.3991912,https://maps.google.com/?cid=0x0:0xfea0bb1450ff6c98,
restaurant,Indonesia,BINAIYA CAFE,"2CV9+M69, DESA, Wakobulu Agung, Kec. Kabangka, Kabupaten Muna, Sulawesi Tenggara 93664","DESA, Wakobulu Agung, Kec. Kabangka, Kabupaten Muna",SULAWESI TENGGARA,93664.0,Indonesia, 082349598024,,,-4.9558278,122.4181013,https://maps.google.com/?cid=0x0:0xfa833ad16c3e1811,
restaurant,Indonesia,Rm Mawar,"2CRH+J98, desa Jl. Mawar, Wakobulu Agung, Kec. Kabangka, Kabupaten Muna, Sulawesi Tenggara 93664","desa Jl. Mawar, Wakobulu Agung, Kec. Kabangka, Kabupaten Muna",SULAWESI TENGGARA,93664.0,Indonesia, 082292259350,,,-4.958461,122.4284421,https://maps.google.com/?cid=0x0:0xebf410a5d32185a5,
restaurant,Restoran,Rumah Makan Fista,"5CP3+RGR, Wapae Jaya, Tiworo Tengah, Kabupaten Muna, Sulawesi Tenggara 93653","Wapae Jaya, Tiworo Tengah, Kabupaten Muna",SULAWESI TENGGARA,93653.0,Indonesia,,,,-4.812876,122.4037605,https://maps.google.com/?cid=0x0:0x7e6f854e71a67cf5,
restaurant,Kafe,Cafe Langit-Langit Tugu Jati Raha,"Pulau, Kabupaten Muna, Sulawesi Tenggara 93611",Kabupaten Muna,SULAWESI TENGGARA,93611.0,Indonesia, 082290732788,,,-4.8407065,122.7261308,https://maps.google.com/?cid=0x0:0xdd61b366be370229,
restaurant,Rumah Makan,Podomoro,"2CVC+GRR, Wakobulu Agung, Kec. Kabangka, Kabupaten Muna, Sulawesi Tenggara 93664","Wakobulu Agung, Kec. Kabangka, Kabupaten Muna",SULAWESI TENGGARA,93664.0,Indonesia, 085234859750,,,-4.9561363,122.4220277,https://maps.google.com/?cid=0x0:0x5cf248acd356fb98,
restaurant,Restoran,Rumah makan KAMBOI,"5CXQ+3M7, tiworo, Kec. Tikep, Barat, Kabupaten Muna, Sulawesi Tenggara 93653","tiworo, Kec. Tikep, Barat, Kabupaten Muna",SULAWESI TENGGARA,93653.0,Indonesia, 085256580357,,,-4.8024126,122.4390849,https://maps.google.com/?cid=0x0:0x3016ddf851026f5a,
restaurant,Rumah Makan,Kedai Altha (Rumah Makan Dan Gorengan) Kambara,"6C5M+34M, Unnamed Road, Tiworo, Kec. Tiworo Kepulauan, Kabupaten Muna, Sulawesi Tenggara 93653","Unnamed Road, Tiworo, Kec. Tiworo Kepulauan, Kabupaten Muna",SULAWESI TENGGARA,93653.0,Indonesia, 081340560708,,,-4.7922784,122.4327919,https://maps.google.com/?cid=0x0:0x753208f7ae99810,
restaurant,Restoran,KEDAI GBM,"Wapae Jaya, Tiworo Tengah, Kabupaten Muna, Sulawesi Tenggara","Kabupaten Muna, Sulawesi Tenggara",SULAWESI TENGGARA,,Indonesia,,,,-4.8174651,122.4015095,https://maps.google.com/?cid=0x0:0x13ee249644419315,
restaurant,Restoran,RUMAH MAKAN PARAIKATTE,"5CQ3+MVC, Jl. Poros, Wapae Jaya, Tiworo Tengah, Kabupaten Muna, Sulawesi Tenggara 93653","Jl. Poros, Wapae Jaya, Tiworo Tengah, Kabupaten Muna",SULAWESI TENGGARA,93653.0,Indonesia,,,,-4.810804,122.4046295,https://maps.google.com/?cid=0x0:0x707309880af24c67,
restaurant,Rumah Makan,Kedai Bukit Ganarum,"5CQ3+VM5, Wapae Jaya, Tiworo Tengah, Kabupaten Muna, Sulawesi Tenggara 93653","Wapae Jaya, Tiworo Tengah, Kabupaten Muna",SULAWESI TENGGARA,93653.0,Indonesia,,,,-4.8103644,122.4042437,https://maps.google.com/?cid=0x0:0x918db8a066026427,
restaurant,restaurant,Pulau Maginti,"Maginti, Kec. Maginti, Kabupaten Muna, Sulawesi Tenggara","Kabupaten Muna, Sulawesi Tenggara",SULAWESI TENGGARA,,Indonesia,,,,-4.8372222,122.1919444,https://maps.google.com/?cid=0x0:0xb50bb25473617676,
restaurant,restaurant,Sulawesi Tenggara 93655,"Kabupaten Muna, Sulawesi Tenggara","Kabupaten Muna, Sulawesi Tenggara",SULAWESI TENGGARA,,Indonesia,,,,-4.7167048,122.593828,https://maps.google.com/?cid=0x0:0x2099dcc445aba1a5,
restaurant,Padang,Warung makan sea food Tampo,"9PF5+MCM, Unnamed Road, Napabalano, Muna Regency, South East Sulawesi 93654","Unnamed Road, Napabalano, Muna Regency",SULAWESI TENGGARA,93654.0,Indonesia,,,,-4.6257944,122.7085585,https://maps.google.com/?cid=0x0:0x94c857283bb229f5,
restaurant,Rumah Makan,Nongky House,"7GXJ+2VP, Desa, Tj. Pinang, Kec. Kusambi, Kab. Muna Barat",Kab. Muna Barat,SULAWESI TENGGARA,,Indonesia,,,,-4.7024079,122.5322168,https://maps.google.com/?cid=0x0:0x44536a6f3c715b00,
restaurant,Jembatan,Pelabuhan tampo,"9PF5+J99, Jl. Pelabuhan Tampo, Napabalano, Kec. Napabalano, Kabupaten Muna, Sulawesi Tenggara 93654","Jl. Pelabuhan Tampo, Napabalano, Kec. Napabalano, Kabupaten Muna",SULAWESI TENGGARA,93654.0,Indonesia,,,,-4.6256351,122.7078658,https://maps.google.com/?cid=0x0:0xe87e85c930ae1e11,
restaurant,Rumah Makan,"Rumah Makan MAWAR, ATK dan Fotocopy","Guali Kusambi, Barat, Kabupaten Muna, Sulawesi Tenggara 93653","Barat, Kabupaten Muna",SULAWESI TENGGARA,93653.0,Indonesia, 085240999950,,,-4.7497645,122.5437293,https://maps.google.com/?cid=0x0:0x98daf1cf5a1b583d,
restaurant,Hidangan Laut,RUMAH MAKAN CITRA KABAWO,"9PF5+J99, Jl. Pelabuhan Tampo, Napabalano, Kec. Napabalano, Kabupaten Muna, Sulawesi Tenggara 93654","Jl. Pelabuhan Tampo, Napabalano, Kec. Napabalano, Kabupaten Muna",SULAWESI TENGGARA,93654.0,Indonesia,,,,-4.6259724,122.7084696,https://maps.google.com/?cid=0x0:0xe261d547b6c34c13,
restaurant,Dapur Umum,RM.KURNIA,"Jl. Sugi Manuru, Kusambi, Kec. Kusambi, Kabupaten Muna, Sulawesi Tenggara 93657","Kusambi, Kec. Kusambi, Kabupaten Muna",SULAWESI TENGGARA,93657.0,Indonesia, 085342050541,,,-4.7560488,122.5700041,https://maps.google.com/?cid=0x0:0x2ba2f4409c09830,
restaurant,Hidangan Laut,Warung makan avan,"9PF5+VFG Pelabuhan feri, Tampo, Kec. Napabalano, Kabupaten Muna, Sulawesi Tenggara 93654","Tampo, Kec. Napabalano, Kabupaten Muna",SULAWESI TENGGARA,93654.0,Indonesia, 082346754292,,,-4.6253221,122.7087178,https://maps.google.com/?cid=0x0:0x4e553b5d557a2d28,
restaurant,Kedai Kopi,My The Cafe,"Jl. Yos Sudarso, Napabalano, Kec. Napabalano, Kabupaten Muna",Kabupaten Muna,SULAWESI TENGGARA,,Indonesia, 082262701472,,,-4.6269075,122.712837,https://maps.google.com/?cid=0x0:0x62657535307edd86,
restaurant,Hidangan Laut,KEDAI MURA TAMPO,"Tampo, Napabalano Jln. Laganapu/kapulu-pulu, Lingkungan 6, Tampo, Kabupaten Muna, Sulawesi Tenggara 93654","Napabalano Jln. Laganapu/kapulu-pulu, Lingkungan 6, Tampo, Kabupaten Muna",SULAWESI TENGGARA,93654.0,Indonesia,,,,-4.6195478,122.6979558,https://maps.google.com/?cid=0x0:0x4e294171529bf45c,
restaurant,Rumah Makan,Rumah Makan Puty,"9PF5+VG6, Napabalano, Kec. Napabalano, Kabupaten Muna, Sulawesi Tenggara 93654","Napabalano, Kec. Napabalano, Kabupaten Muna",SULAWESI TENGGARA,93654.0,Indonesia, 085241837778,,,-4.625325,122.7087529,https://maps.google.com/?cid=0x0:0x88e3ad234725a37,
restaurant,Rumah Makan,SUN KULINER,"Jalan Dermaga Nelayan Tanjung Pinang Kusambi, Barat, Kabupaten Muna, Sulawesi Tenggara 93655","Barat, Kabupaten Muna",SULAWESI TENGGARA,93655.0,Indonesia, 082293629048,,,-4.7019375,122.5316694,https://maps.google.com/?cid=0x0:0xd08fba8575691480,
restaurant,Kedai Kopi,Gubuk KafeWuleha,"5PH8+9QG, Lrg. Mekar, Raha III, Kec. Katobu, Kabupaten Muna, Sulawesi Tenggara 93614","Lrg. Mekar, Raha III, Kec. Katobu, Kabupaten Muna",SULAWESI TENGGARA,93614.0,Indonesia, 085859077280,,,-4.8215563,122.7169616,https://maps.google.com/?cid=0x0:0xd72a01a8da448e54,
restaurant,Hidangan Laut,Rumah Makan Transit Pelabuhan Tampo,"9PG5+292, Pelabuhan Ferry Tampo, Langkumapo, Napabalano, Kabupaten Muna, Sulawesi Tenggara 93654","Pelabuhan Ferry Tampo, Langkumapo, Napabalano, Kabupaten Muna",SULAWESI TENGGARA,93654.0,Indonesia, 081342340264,,,-4.6249827,122.708402,https://maps.google.com/?cid=0x0:0xd4ef2081975bea9c,
restaurant,restaurant,Kios Wa Nande,"8MM7+QF2, Langkumapo, Kec. Napabalano, Kabupaten Muna, Sulawesi Tenggara","Kabupaten Muna, Sulawesi Tenggara",SULAWESI TENGGARA,,Indonesia,,,,-4.6656082,122.6636336,https://maps.google.com/?cid=0x0:0x65f84f545b5230da,
restaurant,Rumah Makan,Warkop Kedai Tampo,"9PF3+CMH, Napabalano, Kec. Napabalano, Kabupaten Muna, Sulawesi Tenggara 93654","Napabalano, Kec. Napabalano, Kabupaten Muna",SULAWESI TENGGARA,93654.0,Indonesia,,,,-4.626431,122.7042225,https://maps.google.com/?cid=0x0:0x8784ee897d0d3555,
restaurant,Mi,Rumah Makan Mie Pangsit Janoko 2,"6HWG+526, Jl. Sugi Manuru, Kusambi, Kec. Kusambi, Kabupaten Muna, Sulawesi Tenggara 93657","Jl. Sugi Manuru, Kusambi, Kec. Kusambi, Kabupaten Muna",SULAWESI TENGGARA,93657.0,Indonesia,,,,-4.7545832,122.575007,https://maps.google.com/?cid=0x0:0xc217f95a36ba5398,
restaurant,Brunch,Warung makan cahaya,"5MGC+PXX, Jl. Poros Raha-Kusambi, Bangkali, Kec. Watopute, Kabupaten Muna, Sulawesi Tenggara 93656","Jl. Poros Raha-Kusambi, Bangkali, Kec. Watopute, Kabupaten Muna",SULAWESI TENGGARA,93656.0,Indonesia, 082218342349,,,-4.8231555,122.6724899,https://maps.google.com/?cid=0x0:0xb3824bc0c2ad6b23,
restaurant,Sarapan,Warung Rumambano,"5PR3+QQ6, Wawesa, Kec. Batalaiworu, Kabupaten Muna, Sulawesi Tenggara 93614","Wawesa, Kec. Batalaiworu, Kabupaten Muna",SULAWESI TENGGARA,93614.0,Indonesia,,,,-4.8074091,122.7039975,https://maps.google.com/?cid=0x0:0xf8369b87a5c21cbc,
restaurant,Makanan Kecil,Warung Dzakiyah,"7G4P+949, Unnamed Road, Lapokainse, Kec. Kusambi, Kabupaten Muna, Sulawesi Tenggara 93653","Unnamed Road, Lapokainse, Kec. Kusambi, Kabupaten Muna",SULAWESI TENGGARA,93653.0,Indonesia, 085342995806,,,-4.7440947,122.5353589,https://maps.google.com/?cid=0x0:0xac9679f1bce080dc,
restaurant,Toko,Warung Mama Dila,"8H4J+JP3, Lahaji, Kec. Napano Kusambi, Barat, Kabupaten Muna, Sulawesi Tenggara","Kabupaten Muna, Sulawesi Tenggara",SULAWESI TENGGARA,,Indonesia,,,,-4.6934957,122.5817847,https://maps.google.com/?cid=0x0:0xa28131d2302a7a9,
restaurant,Prasmanan,Rumah makan Mila sari,"7G3Q+F9V, Lapokainse, Kec. Kusambi, Kabupaten Muna, Sulawesi Tenggara 93653","Lapokainse, Kec. Kusambi, Kabupaten Muna",SULAWESI TENGGARA,93653.0,Indonesia,,,,-4.746259,122.538411,https://maps.google.com/?cid=0x0:0x3489849d9a0d85dd,
restaurant,Restoran,Mini RESTO DEGO,"6GRJ+J4Q, Barat, Guali, Kec. Kusambi, Kabupaten Muna, Sulawesi Tenggara 93653","Barat, Guali, Kec. Kusambi, Kabupaten Muna",SULAWESI TENGGARA,93653.0,Indonesia, 081241166116,,,-4.7584011,122.5303542,https://maps.google.com/?cid=0x0:0x5ac7d8f0aad5a591,
restaurant,Kantor Pemerintahan Regional,KUA CAFE,"6J7Q+VJ3, Wakapodo, Kec. Watopute, Kabupaten Muna, Sulawesi Tenggara 93656","Wakapodo, Kec. Watopute, Kabupaten Muna",SULAWESI TENGGARA,93656.0,Indonesia, 082342136577,,,-4.7853627,122.6390489,https://maps.google.com/?cid=0x0:0x791dd1d08fe1a767,
restaurant,restaurant,Sulawesi Tenggara 93657,"Kabupaten Muna, Sulawesi Tenggara","Kabupaten Muna, Sulawesi Tenggara",SULAWESI TENGGARA,,Indonesia,,,,-4.8269737,122.5259596,https://maps.google.com/?cid=0x0:0x6227f17791af231c,
restaurant,Rumah Makan,Rumah Makan FehuLai,"4HWW+287, Desa Sawerigadi, Barat, Kabupaten Muna","Kabupaten Muna, Sulawesi Tenggara",SULAWESI TENGGARA,,Indonesia, 082239328245,,,-4.8549594,122.5958088,https://maps.google.com/?cid=0x0:0x9464eb583cf956c5,
restaurant,restaurant,Kec. Sawerigadi,"Kabupaten Muna, Sulawesi Tenggara","Kabupaten Muna, Sulawesi Tenggara",SULAWESI TENGGARA,,Indonesia,,,,-4.7903102,122.491523,https://maps.google.com/?cid=0x0:0xc0b7ac172b281750,
restaurant,Padang,Jl sawerigading restoran aloha,"Jl. Sawerigading, Raha I, Kec. Katobu, Kabupaten Muna, Sulawesi Tenggara 93611","Raha I, Kec. Katobu, Kabupaten Muna",SULAWESI TENGGARA,93611.0,Indonesia,,,,-4.8389114,122.7241995,https://maps.google.com/?cid=0x0:0x85a3eccbf5d386fa,
restaurant,Rumah Makan,Rumah makan azzahrah,"6GRH+CWW, Maperaha, Kec. Sawerigadi, Kabupaten Muna, Sulawesi Tenggara","Kabupaten Muna, Sulawesi Tenggara",SULAWESI TENGGARA,,Indonesia, 081355463378,,,-4.7588923,122.529843,https://maps.google.com/?cid=0x0:0xf3136e7954b0b376,
restaurant,Soto,Warung Makan Hidangan Coto Makassar,"5F6Q+H9G, Marobea, Kec. Sawerigadi, Kabupaten Muna, Sulawesi Tenggara 93657","Marobea, Kec. Sawerigadi, Kabupaten Muna",SULAWESI TENGGARA,93657.0,Indonesia,,,,-4.8385599,122.4884649,https://maps.google.com/?cid=0x0:0x78023ebdfdb5cdc,
restaurant,restaurant,Sawerigadi,"Kec. Barangka, Kabupaten Muna, Sulawesi Tenggara","Kabupaten Muna, Sulawesi Tenggara",SULAWESI TENGGARA,,Indonesia,,,,-4.8375989,122.5768651,https://maps.google.com/?cid=0x0:0x46ba7bd54d3ea671,
restaurant,restaurant,Kec. Tiworo Kepulauan,"Kabupaten Muna, Sulawesi Tenggara","Kabupaten Muna, Sulawesi Tenggara",SULAWESI TENGGARA,,Indonesia,,,,-4.7783688,122.4353995,https://maps.google.com/?cid=0x0:0xb9b9310dc3cd9cb5,
restaurant,Kedai Kopi,FOUR_Q RESTO  CAFE,"6C29+577, Waumere, Kec. Tiworo Kepulauan, Kabupaten Muna, Sulawesi Tenggara 93653","Waumere, Kec. Tiworo Kepulauan, Kabupaten Muna",SULAWESI TENGGARA,93653.0,Indonesia,,,,-4.7995815,122.4181658,https://maps.google.com/?cid=0x0:0x25d79af222d44770,
restaurant,Restoran,RM.SUMBER REJEKI,"Wapae Jaya, Tiworo Tengah, Kabupaten Muna, Sulawesi Tenggara 93653","Tiworo Tengah, Kabupaten Muna",SULAWESI TENGGARA,93653.0,Indonesia, 082394473566,,,-4.8100989,122.4033162,https://maps.google.com/?cid=0x0:0x7b7aef22698f365b,
restaurant,Rumah Makan,RM. Mbak Elva,"59FX+22G, Mekar Jaya, Tiworo Tengah, Kabupaten Muna, Sulawesi Tenggara","Kabupaten Muna, Sulawesi Tenggara",SULAWESI TENGGARA,,Indonesia,,,,-4.8274465,122.3975803,https://maps.google.com/?cid=0x0:0x356e9856c68d63f0,
restaurant,Bakso,RM BAKSO YULIA,"5CV3+M6Q, Jl. Ade Irma Nasution, Suka Damai, Tiworo Tengah, Kabupaten Muna, Sulawesi Tenggara 93653","Jl. Ade Irma Nasution, Suka Damai, Tiworo Tengah, Kabupaten Muna",SULAWESI TENGGARA,93653.0,Indonesia, 082190874630,,,-4.8057958,122.403112,https://maps.google.com/?cid=0x0:0xe2eeb43fb52119e7,
restaurant,Restoran,Rumah makan KAMBOI,"5CXQ+3M7, tiworo, Kec. Tikep, Barat, Kabupaten Muna, Sulawesi Tenggara 93653","tiworo, Kec. Tikep, Barat, Kabupaten Muna",SULAWESI TENGGARA,93653.0,Indonesia, 085256580357,,,-4.8024126,122.4390849,https://maps.google.com/?cid=0x0:0x3016ddf851026f5a,
restaurant,Bakso,RM. Mas Bambang,"Jl. Poros No.2, Mekar Jaya, Tiworo Tengah, Kabupaten Muna, Sulawesi Tenggara 93648","Mekar Jaya, Tiworo Tengah, Kabupaten Muna",SULAWESI TENGGARA,93648.0,Indonesia,,,,-4.8241483,122.3987769,https://maps.google.com/?cid=0x0:0x7266b936fdc07088,
restaurant,Rumah Makan,Kedai Altha (Rumah Makan Dan Gorengan) Kambara,"6C5M+34M, Unnamed Road, Tiworo, Kec. Tiworo Kepulauan, Kabupaten Muna, Sulawesi Tenggara 93653","Unnamed Road, Tiworo, Kec. Tiworo Kepulauan, Kabupaten Muna",SULAWESI TENGGARA,93653.0,Indonesia, 081340560708,,,-4.7922784,122.4327919,https://maps.google.com/?cid=0x0:0x753208f7ae99810,
restaurant,Restoran,Rumah Makan Fista,"5CP3+RGR, Wapae Jaya, Tiworo Tengah, Kabupaten Muna, Sulawesi Tenggara 93653","Wapae Jaya, Tiworo Tengah, Kabupaten Muna",SULAWESI TENGGARA,93653.0,Indonesia,,,,-4.812876,122.4037605,https://maps.google.com/?cid=0x0:0x7e6f854e71a67cf5,
restaurant,Restoran,R.M ZAHRANI,"6C3M+VJ9, Jl. Poros, Tiworo, Kec. Tiworo Kepulauan, Kabupaten Muna, Sulawesi Tenggara 93653","Jl. Poros, Tiworo, Kec. Tiworo Kepulauan, Kabupaten Muna",SULAWESI TENGGARA,93653.0,Indonesia, 082194449927,,,-4.7953428,122.4340987,https://maps.google.com/?cid=0x0:0xa1a8b62c65e59c59,
restaurant,Hotel,"Hotel Dina, Kabupaten Muna Barat, Kecamatan Tiworo Tengah","Mekar Jaya, Tiworo Tengah, Kabupaten Muna, Sulawesi Tenggara 93653","Tiworo Tengah, Kabupaten Muna",SULAWESI TENGGARA,93653.0,Indonesia, 082296778747,,,-4.8184902,122.4010422,https://maps.google.com/?cid=0x0:0x8abbadb2cf6c59d6,
restaurant,Brunch,Warung Bakso Padamuru,"Mekar Jaya, Tiworo Tengah, Kabupaten Muna, Sulawesi Tenggara","Kabupaten Muna, Sulawesi Tenggara",SULAWESI TENGGARA,,Indonesia, 082271007634,,,-4.8315347,122.395538,https://maps.google.com/?cid=0x0:0xeafb7a9d06400acb,
restaurant,Rumah Makan,Kedai Bukit Ganarum,"5CQ3+VM5, Wapae Jaya, Tiworo Tengah, Kabupaten Muna, Sulawesi Tenggara 93653","Wapae Jaya, Tiworo Tengah, Kabupaten Muna",SULAWESI TENGGARA,93653.0,Indonesia,,,,-4.8103644,122.4042437,https://maps.google.com/?cid=0x0:0x918db8a066026427,
restaurant,Restoran,RUMAH MAKAN PARAIKATTE,"5CQ3+MVC, Jl. Poros, Wapae Jaya, Tiworo Tengah, Kabupaten Muna, Sulawesi Tenggara 93653","Jl. Poros, Wapae Jaya, Tiworo Tengah, Kabupaten Muna",SULAWESI TENGGARA,93653.0,Indonesia,,,,-4.810804,122.4046295,https://maps.google.com/?cid=0x0:0x707309880af24c67,
restaurant,Restoran,RM.BUNDA,"49GV+M8J, Jln. Poros desa, Kasimpa Jaya, Tiworo Sel., Kabupaten Muna, Sulawesi Tenggara","Kabupaten Muna, Sulawesi Tenggara",SULAWESI TENGGARA,,Indonesia,,,,-4.8732959,122.3932694,https://maps.google.com/?cid=0x0:0x22df433f3039fed2,
restaurant,Restoran,Rm.Makan Barakati,"5CR5+JJG, Jl. Morundu, Wapae Jaya, Tiworo Tengah, Kabupaten Muna, Sulawesi Tenggara 93653","Jl. Morundu, Wapae Jaya, Tiworo Tengah, Kabupaten Muna",SULAWESI TENGGARA,93653.0,Indonesia,,,,-4.808432,122.4090888,https://maps.google.com/?cid=0x0:0xa971f7348faeed34,
restaurant,Padang,RM. AL-BAGHDADI BANDUNG JABAR (MUBAR),"5CQ3+GMG, Wapae Jaya, Tiworo Tengah, Kabupaten Muna, Sulawesi Tenggara 93653","Wapae Jaya, Tiworo Tengah, Kabupaten Muna",SULAWESI TENGGARA,93653.0,Indonesia, 082187018444,,,-4.8111995,122.404215,https://maps.google.com/?cid=0x0:0xd39f97a1ff0ee162,
restaurant,Restoran,KEDAI GBM,"Wapae Jaya, Tiworo Tengah, Kabupaten Muna, Sulawesi Tenggara","Kabupaten Muna, Sulawesi Tenggara",SULAWESI TENGGARA,,Indonesia,,,,-4.8174651,122.4015095,https://maps.google.com/?cid=0x0:0x13ee249644419315,
restaurant,Rumah Makan,Warung Begadang Metro,"Wapae Jaya, Tiworo Tengah, Kabupaten Muna, Sulawesi Tenggara 93653","Tiworo Tengah, Kabupaten Muna",SULAWESI TENGGARA,93653.0,Indonesia, 085255000027,,,-4.8102857,122.4041631,https://maps.google.com/?cid=0x0:0x3edc35c034829d23,
restaurant,Restoran,Rm.mi3 Bude mitri,"Jl. Poros No.desa, Kasimpa Jaya, Tiworo Sel., Kabupaten Muna, Sulawesi Tenggara 93664","Kasimpa Jaya, Tiworo Sel., Kabupaten Muna",SULAWESI TENGGARA,93664.0,Indonesia, 082216146108,,,-4.880639,122.384752,https://maps.google.com/?cid=0x0:0x1a8fa12652bbc047,
restaurant,Restoran,LAPAK REZEKI,"693X+5VR, Suka Damai, Tiworo Tengah, Kabupaten Muna, Sulawesi Tenggara 93653","Suka Damai, Tiworo Tengah, Kabupaten Muna",SULAWESI TENGGARA,93653.0,Indonesia, 085241941345,,,-4.7970071,122.3996325,https://maps.google.com/?cid=0x0:0x6e1a4c0223da5a44,
restaurant,Restoran,Rumah Makan Karoma,"5F8M+H45, Marobea, Kec. Sawerigadi, Kabupaten Muna, Sulawesi Tenggara","Kabupaten Muna, Sulawesi Tenggara",SULAWESI TENGGARA,,Indonesia, 081243604822,,,-4.8336078,122.4828705,https://maps.google.com/?cid=0x0:0xc0719b0ce9575904,
restaurant,Rumah Makan,RM. Angin Mammiri Mubar,"49XP+W95, Abadi Jaya, Kec. Maginti, Kabupaten Muna, Sulawesi Tenggara","Kabupaten Muna, Sulawesi Tenggara",SULAWESI TENGGARA,,Indonesia, 082257712902,,,-4.8502331,122.3859768,https://maps.google.com/?cid=0x0:0x3212dbb7c28b2f45,
restaurant,Restoran,RM. LAA MONIU (NASI KUNING MAMA ASMIN),"Kambara-Raha, Jl. Poros, Tiworo, Kec. Tiworo Kepulauan, Kabupaten Muna, Sulawesi Tenggara 93653","Jl. Poros, Tiworo, Kec. Tiworo Kepulauan, Kabupaten Muna",SULAWESI TENGGARA,93653.0,Indonesia, 085341086797,,,-4.7955422,122.4334478,https://maps.google.com/?cid=0x0:0x53e12c761028e70a,
restaurant,Rumah Makan,Nongky House,"7GXJ+2VP, Desa, Tj. Pinang, Kec. Kusambi, Kab. Muna Barat",Kab. Muna Barat,SULAWESI TENGGARA,,Indonesia,,,,-4.7024079,122.5322168,https://maps.google.com/?cid=0x0:0x44536a6f3c715b00,
restaurant,restaurant,Tiworo Sel.,"Kabupaten Muna, Sulawesi Tenggara","Kabupaten Muna, Sulawesi Tenggara",SULAWESI TENGGARA,,Indonesia,,,,-4.8877531,122.3900901,https://maps.google.com/?cid=0x0:0xb8fa848ebeff23ff,
restaurant,Restoran,Rm.mi3 Bude mitri,"Jl. Poros No.desa, Kasimpa Jaya, Tiworo Sel., Kabupaten Muna, Sulawesi Tenggara 93664","Kasimpa Jaya, Tiworo Sel., Kabupaten Muna",SULAWESI TENGGARA,93664.0,Indonesia, 082216146108,,,-4.880639,122.384752,https://maps.google.com/?cid=0x0:0x1a8fa12652bbc047,
restaurant,Rumah Makan,RM. Mbak Elva,"59FX+22G, Mekar Jaya, Tiworo Tengah, Kabupaten Muna, Sulawesi Tenggara","Kabupaten Muna, Sulawesi Tenggara",SULAWESI TENGGARA,,Indonesia,,,,-4.8274465,122.3975803,https://maps.google.com/?cid=0x0:0x356e9856c68d63f0,
restaurant,Restoran,RM Dapoer Nanda,"depan pura sp 1, Jl. Poros, Wapae Jaya, Tiworo Tengah, Kabupaten Muna, Sulawesi Tenggara 93653","Jl. Poros, Wapae Jaya, Tiworo Tengah, Kabupaten Muna",SULAWESI TENGGARA,93653.0,Indonesia, 085243858687,,,-4.8216307,122.3999437,https://maps.google.com/?cid=0x0:0x94c0a1d62c76ff03,
restaurant,Restoran,RM.SUMBER REJEKI,"Wapae Jaya, Tiworo Tengah, Kabupaten Muna, Sulawesi Tenggara 93653","Tiworo Tengah, Kabupaten Muna",SULAWESI TENGGARA,93653.0,Indonesia, 082394473566,,,-4.8100989,122.4033162,https://maps.google.com/?cid=0x0:0x7b7aef22698f365b,
restaurant,Bakso,RM. Mas Bambang,"Jl. Poros No.2, Mekar Jaya, Tiworo Tengah, Kabupaten Muna, Sulawesi Tenggara 93648","Mekar Jaya, Tiworo Tengah, Kabupaten Muna",SULAWESI TENGGARA,93648.0,Indonesia,,,,-4.8241483,122.3987769,https://maps.google.com/?cid=0x0:0x7266b936fdc07088,
restaurant,Brunch,Warung Bakso Padamuru,"Mekar Jaya, Tiworo Tengah, Kabupaten Muna, Sulawesi Tenggara","Kabupaten Muna, Sulawesi Tenggara",SULAWESI TENGGARA,,Indonesia, 082271007634,,,-4.8315347,122.395538,https://maps.google.com/?cid=0x0:0xeafb7a9d06400acb,
restaurant,Rumah Makan,RM. Angin Mammiri Mubar,"49XP+W95, Abadi Jaya, Kec. Maginti, Kabupaten Muna, Sulawesi Tenggara","Kabupaten Muna, Sulawesi Tenggara",SULAWESI TENGGARA,,Indonesia, 082257712902,,,-4.8502331,122.3859768,https://maps.google.com/?cid=0x0:0x3212dbb7c28b2f45,
restaurant,Restoran,Rumah Makan Fista,"5CP3+RGR, Wapae Jaya, Tiworo Tengah, Kabupaten Muna, Sulawesi Tenggara 93653","Wapae Jaya, Tiworo Tengah, Kabupaten Muna",SULAWESI TENGGARA,93653.0,Indonesia,,,,-4.812876,122.4037605,https://maps.google.com/?cid=0x0:0x7e6f854e71a67cf5,
restaurant,Hotel,"Hotel Dina, Kabupaten Muna Barat, Kecamatan Tiworo Tengah","Mekar Jaya, Tiworo Tengah, Kabupaten Muna, Sulawesi Tenggara 93653","Tiworo Tengah, Kabupaten Muna",SULAWESI TENGGARA,93653.0,Indonesia, 082296778747,,,-4.8184902,122.4010422,https://maps.google.com/?cid=0x0:0x8abbadb2cf6c59d6,
restaurant,Restoran,KEDAI GBM,"Wapae Jaya, Tiworo Tengah, Kabupaten Muna, Sulawesi Tenggara","Kabupaten Muna, Sulawesi Tenggara",SULAWESI TENGGARA,,Indonesia,,,,-4.8174651,122.4015095,https://maps.google.com/?cid=0x0:0x13ee249644419315,
restaurant,Rumah Makan,Kedai Bukit Ganarum,"5CQ3+VM5, Wapae Jaya, Tiworo Tengah, Kabupaten Muna, Sulawesi Tenggara 93653","Wapae Jaya, Tiworo Tengah, Kabupaten Muna",SULAWESI TENGGARA,93653.0,Indonesia,,,,-4.8103644,122.4042437,https://maps.google.com/?cid=0x0:0x918db8a066026427,
restaurant,Restoran,RUMAH MAKAN PARAIKATTE,"5CQ3+MVC, Jl. Poros, Wapae Jaya, Tiworo Tengah, Kabupaten Muna, Sulawesi Tenggara 93653","Jl. Poros, Wapae Jaya, Tiworo Tengah, Kabupaten Muna",SULAWESI TENGGARA,93653.0,Indonesia,,,,-4.810804,122.4046295,https://maps.google.com/?cid=0x0:0x707309880af24c67,
restaurant,restaurant,Warung Bakso Jawa Barat,"5C4V+FMP, Lawada Jaya, Kec. Sawerigadi, Kabupaten Muna, Sulawesi Tenggara 93653","Lawada Jaya, Kec. Sawerigadi, Kabupaten Muna",SULAWESI TENGGARA,93653.0,Indonesia,,,,-4.8448032,122.442409,https://maps.google.com/?cid=0x0:0xe68f5355a6be8901,
restaurant,Padang,RM. AL-BAGHDADI BANDUNG JABAR (MUBAR),"5CQ3+GMG, Wapae Jaya, Tiworo Tengah, Kabupaten Muna, Sulawesi Tenggara 93653","Wapae Jaya, Tiworo Tengah, Kabupaten Muna",SULAWESI TENGGARA,93653.0,Indonesia, 082187018444,,,-4.8111995,122.404215,https://maps.google.com/?cid=0x0:0xd39f97a1ff0ee162,
restaurant,Restoran,Rm.Makan Barakati,"5CR5+JJG, Jl. Morundu, Wapae Jaya, Tiworo Tengah, Kabupaten Muna, Sulawesi Tenggara 93653","Jl. Morundu, Wapae Jaya, Tiworo Tengah, Kabupaten Muna",SULAWESI TENGGARA,93653.0,Indonesia,,,,-4.808432,122.4090888,https://maps.google.com/?cid=0x0:0xa971f7348faeed34,
restaurant,Kafe,Kedai.Logika,"49XX+3QC, Parura Jaya, Tiworo Sel., Kabupaten Muna, Sulawesi Tenggara","Kabupaten Muna, Sulawesi Tenggara",SULAWESI TENGGARA,,Indonesia, 085878292709,,,-4.8522707,122.399381,https://maps.google.com/?cid=0x0:0x13a321e0facc111e,
restaurant,restaurant,RM.RAHMA,"499M+35R, Jln poros desa, Kasimpa Jaya, Tiworo Sel., Kabupaten Muna, Sulawesi Tenggara 93664","Jln poros desa, Kasimpa Jaya, Tiworo Sel., Kabupaten Muna",SULAWESI TENGGARA,93664.0,Indonesia,,,,-4.8822664,122.3828969,https://maps.google.com/?cid=0x0:0xfcad36b9573f17fa,
restaurant,restaurant,RM. Katulistiwa,"499M+FH4, Jl. Poros, Kasimpa Jaya, Tiworo Sel., Kabupaten Muna, Sulawesi Tenggara 93664","Jl. Poros, Kasimpa Jaya, Tiworo Sel., Kabupaten Muna",SULAWESI TENGGARA,93664.0,Indonesia,,,,-4.8813585,122.3839561,https://maps.google.com/?cid=0x0:0x82db30f01703eace,
restaurant,restaurant,Rumah Makan Teratai,"597R+HV7, Mekar Jaya, Tiworo Tengah, Kabupaten Muna, Sulawesi Tenggara","Kabupaten Muna, Sulawesi Tenggara",SULAWESI TENGGARA,,Indonesia,,,,-4.8360997,122.3921833,https://maps.google.com/?cid=0x0:0x76c04a2524a11448,
restaurant,restaurant,Tiworo Tengah,"Kabupaten Muna, Sulawesi Tenggara","Kabupaten Muna, Sulawesi Tenggara",SULAWESI TENGGARA,,Indonesia,,,,-4.7902626,122.3787597,https://maps.google.com/?cid=0x0:0x185569b801f89ceb,
restaurant,Kedai Kopi,FOUR_Q RESTO  CAFE,"6C29+577, Waumere, Kec. Tiworo Kepulauan, Kabupaten Muna, Sulawesi Tenggara 93653","Waumere, Kec. Tiworo Kepulauan, Kabupaten Muna",SULAWESI TENGGARA,93653.0,Indonesia,,,,-4.7995815,122.4181658,https://maps.google.com/?cid=0x0:0x25d79af222d44770,
restaurant,Restoran,RM.SUMBER REJEKI,"Wapae Jaya, Tiworo Tengah, Kabupaten Muna, Sulawesi Tenggara 93653","Tiworo Tengah, Kabupaten Muna",SULAWESI TENGGARA,93653.0,Indonesia, 082394473566,,,-4.8100989,122.4033162,https://maps.google.com/?cid=0x0:0x7b7aef22698f365b,
restaurant,Restoran,RM Dapoer Nanda,"depan pura sp 1, Jl. Poros, Wapae Jaya, Tiworo Tengah, Kabupaten Muna, Sulawesi Tenggara 93653","Jl. Poros, Wapae Jaya, Tiworo Tengah, Kabupaten Muna",SULAWESI TENGGARA,93653.0,Indonesia, 085243858687,,,-4.8216307,122.3999437,https://maps.google.com/?cid=0x0:0x94c0a1d62c76ff03,
restaurant,Bakso,RM. Mas Bambang,"Jl. Poros No.2, Mekar Jaya, Tiworo Tengah, Kabupaten Muna, Sulawesi Tenggara 93648","Mekar Jaya, Tiworo Tengah, Kabupaten Muna",SULAWESI TENGGARA,93648.0,Indonesia,,,,-4.8241483,122.3987769,https://maps.google.com/?cid=0x0:0x7266b936fdc07088,
restaurant,Bakso,RM BAKSO YULIA,"5CV3+M6Q, Jl. Ade Irma Nasution, Suka Damai, Tiworo Tengah, Kabupaten Muna, Sulawesi Tenggara 93653","Jl. Ade Irma Nasution, Suka Damai, Tiworo Tengah, Kabupaten Muna",SULAWESI TENGGARA,93653.0,Indonesia, 082190874630,,,-4.8057958,122.403112,https://maps.google.com/?cid=0x0:0xe2eeb43fb52119e7,
restaurant,Restoran,Rumah Makan Fista,"5CP3+RGR, Wapae Jaya, Tiworo Tengah, Kabupaten Muna, Sulawesi Tenggara 93653","Wapae Jaya, Tiworo Tengah, Kabupaten Muna",SULAWESI TENGGARA,93653.0,Indonesia,,,,-4.812876,122.4037605,https://maps.google.com/?cid=0x0:0x7e6f854e71a67cf5,
restaurant,Brunch,Warung Bakso Padamuru,"Mekar Jaya, Tiworo Tengah, Kabupaten Muna, Sulawesi Tenggara","Kabupaten Muna, Sulawesi Tenggara",SULAWESI TENGGARA,,Indonesia, 082271007634,,,-4.8315347,122.395538,https://maps.google.com/?cid=0x0:0xeafb7a9d06400acb,
restaurant,Hotel,"Hotel Dina, Kabupaten Muna Barat, Kecamatan Tiworo Tengah","Mekar Jaya, Tiworo Tengah, Kabupaten Muna, Sulawesi Tenggara 93653","Tiworo Tengah, Kabupaten Muna",SULAWESI TENGGARA,93653.0,Indonesia, 082296778747,,,-4.8184902,122.4010422,https://maps.google.com/?cid=0x0:0x8abbadb2cf6c59d6,
restaurant,Padang,RM. AL-BAGHDADI BANDUNG JABAR (MUBAR),"5CQ3+GMG, Wapae Jaya, Tiworo Tengah, Kabupaten Muna, Sulawesi Tenggara 93653","Wapae Jaya, Tiworo Tengah, Kabupaten Muna",SULAWESI TENGGARA,93653.0,Indonesia, 082187018444,,,-4.8111995,122.404215,https://maps.google.com/?cid=0x0:0xd39f97a1ff0ee162,
restaurant,Rumah Makan,Kedai Bukit Ganarum,"5CQ3+VM5, Wapae Jaya, Tiworo Tengah, Kabupaten Muna, Sulawesi Tenggara 93653","Wapae Jaya, Tiworo Tengah, Kabupaten Muna",SULAWESI TENGGARA,93653.0,Indonesia,,,,-4.8103644,122.4042437,https://maps.google.com/?cid=0x0:0x918db8a066026427,
restaurant,Restoran,RUMAH MAKAN PARAIKATTE,"5CQ3+MVC, Jl. Poros, Wapae Jaya, Tiworo Tengah, Kabupaten Muna, Sulawesi Tenggara 93653","Jl. Poros, Wapae Jaya, Tiworo Tengah, Kabupaten Muna",SULAWESI TENGGARA,93653.0,Indonesia,,,,-4.810804,122.4046295,https://maps.google.com/?cid=0x0:0x707309880af24c67,
restaurant,Restoran,Rm.Makan Barakati,"5CR5+JJG, Jl. Morundu, Wapae Jaya, Tiworo Tengah, Kabupaten Muna, Sulawesi Tenggara 93653","Jl. Morundu, Wapae Jaya, Tiworo Tengah, Kabupaten Muna",SULAWESI TENGGARA,93653.0,Indonesia,,,,-4.808432,122.4090888,https://maps.google.com/?cid=0x0:0xa971f7348faeed34,
restaurant,Restoran,KEDAI GBM,"Wapae Jaya, Tiworo Tengah, Kabupaten Muna, Sulawesi Tenggara","Kabupaten Muna, Sulawesi Tenggara",SULAWESI TENGGARA,,Indonesia,,,,-4.8174651,122.4015095,https://maps.google.com/?cid=0x0:0x13ee249644419315,
restaurant,Rumah Makan,Warung Begadang Metro,"Wapae Jaya, Tiworo Tengah, Kabupaten Muna, Sulawesi Tenggara 93653","Tiworo Tengah, Kabupaten Muna",SULAWESI TENGGARA,93653.0,Indonesia, 085255000027,,,-4.8102857,122.4041631,https://maps.google.com/?cid=0x0:0x3edc35c034829d23,
restaurant,Restoran,LAPAK REZEKI,"693X+5VR, Suka Damai, Tiworo Tengah, Kabupaten Muna, Sulawesi Tenggara 93653","Suka Damai, Tiworo Tengah, Kabupaten Muna",SULAWESI TENGGARA,93653.0,Indonesia, 085241941345,,,-4.7970071,122.3996325,https://maps.google.com/?cid=0x0:0x6e1a4c0223da5a44,
restaurant,Rumah Makan,Kedai Altha (Rumah Makan Dan Gorengan) Kambara,"6C5M+34M, Unnamed Road, Tiworo, Kec. Tiworo Kepulauan, Kabupaten Muna, Sulawesi Tenggara 93653","Unnamed Road, Tiworo, Kec. Tiworo Kepulauan, Kabupaten Muna",SULAWESI TENGGARA,93653.0,Indonesia, 081340560708,,,-4.7922784,122.4327919,https://maps.google.com/?cid=0x0:0x753208f7ae99810,
restaurant,Restoran,Rumah makan KAMBOI,"5CXQ+3M7, tiworo, Kec. Tikep, Barat, Kabupaten Muna, Sulawesi Tenggara 93653","tiworo, Kec. Tikep, Barat, Kabupaten Muna",SULAWESI TENGGARA,93653.0,Indonesia, 085256580357,,,-4.8024126,122.4390849,https://maps.google.com/?cid=0x0:0x3016ddf851026f5a,
restaurant,Restoran,RM.BUNDA,"49GV+M8J, Jln. Poros desa, Kasimpa Jaya, Tiworo Sel., Kabupaten Muna, Sulawesi Tenggara","Kabupaten Muna, Sulawesi Tenggara",SULAWESI TENGGARA,,Indonesia,,,,-4.8732959,122.3932694,https://maps.google.com/?cid=0x0:0x22df433f3039fed2,
restaurant,Restoran,R.M ZAHRANI,"6C3M+VJ9, Jl. Poros, Tiworo, Kec. Tiworo Kepulauan, Kabupaten Muna, Sulawesi Tenggara 93653","Jl. Poros, Tiworo, Kec. Tiworo Kepulauan, Kabupaten Muna",SULAWESI TENGGARA,93653.0,Indonesia, 082194449927,,,-4.7953428,122.4340987,https://maps.google.com/?cid=0x0:0xa1a8b62c65e59c59,
restaurant,Kedai Kopi,Bang Kopi Munar,"5CJ2+JH9, Mekar Jaya, Tiworo Tengah, Kabupaten Muna, Sulawesi Tenggara 93653","Mekar Jaya, Tiworo Tengah, Kabupaten Muna",SULAWESI TENGGARA,93653.0,Indonesia,,,,-4.8184547,122.4014926,https://maps.google.com/?cid=0x0:0xdaa69da658a362d3,
restaurant,restaurant,Tiworo Utara,"Kabupaten Muna, Sulawesi Tenggara","Kabupaten Muna, Sulawesi Tenggara",SULAWESI TENGGARA,,Indonesia,,,,-4.6704353,122.373094,https://maps.google.com/?cid=0x0:0xacd624ac1fc2f9d6,
restaurant,Kedai Kopi,FOUR_Q RESTO  CAFE,"6C29+577, Waumere, Kec. Tiworo Kepulauan, Kabupaten Muna, Sulawesi Tenggara 93653","Waumere, Kec. Tiworo Kepulauan, Kabupaten Muna",SULAWESI TENGGARA,93653.0,Indonesia,,,,-4.7995815,122.4181658,https://maps.google.com/?cid=0x0:0x25d79af222d44770,
restaurant,Restoran,RM Dapoer Nanda,"depan pura sp 1, Jl. Poros, Wapae Jaya, Tiworo Tengah, Kabupaten Muna, Sulawesi Tenggara 93653","Jl. Poros, Wapae Jaya, Tiworo Tengah, Kabupaten Muna",SULAWESI TENGGARA,93653.0,Indonesia, 085243858687,,,-4.8216307,122.3999437,https://maps.google.com/?cid=0x0:0x94c0a1d62c76ff03,
restaurant,Bakso,RM BAKSO YULIA,"5CV3+M6Q, Jl. Ade Irma Nasution, Suka Damai, Tiworo Tengah, Kabupaten Muna, Sulawesi Tenggara 93653","Jl. Ade Irma Nasution, Suka Damai, Tiworo Tengah, Kabupaten Muna",SULAWESI TENGGARA,93653.0,Indonesia, 082190874630,,,-4.8057958,122.403112,https://maps.google.com/?cid=0x0:0xe2eeb43fb52119e7,
restaurant,Rumah Makan,RM. Mbak Elva,"59FX+22G, Mekar Jaya, Tiworo Tengah, Kabupaten Muna, Sulawesi Tenggara","Kabupaten Muna, Sulawesi Tenggara",SULAWESI TENGGARA,,Indonesia,,,,-4.8274465,122.3975803,https://maps.google.com/?cid=0x0:0x356e9856c68d63f0,
restaurant,Rumah Makan,Kedai Altha (Rumah Makan Dan Gorengan) Kambara,"6C5M+34M, Unnamed Road, Tiworo, Kec. Tiworo Kepulauan, Kabupaten Muna, Sulawesi Tenggara 93653","Unnamed Road, Tiworo, Kec. Tiworo Kepulauan, Kabupaten Muna",SULAWESI TENGGARA,93653.0,Indonesia, 081340560708,,,-4.7922784,122.4327919,https://maps.google.com/?cid=0x0:0x753208f7ae99810,
restaurant,Restoran,Rumah Makan Fista,"5CP3+RGR, Wapae Jaya, Tiworo Tengah, Kabupaten Muna, Sulawesi Tenggara 93653","Wapae Jaya, Tiworo Tengah, Kabupaten Muna",SULAWESI TENGGARA,93653.0,Indonesia,,,,-4.812876,122.4037605,https://maps.google.com/?cid=0x0:0x7e6f854e71a67cf5,
restaurant,Bakso,RM. Mas Bambang,"Jl. Poros No.2, Mekar Jaya, Tiworo Tengah, Kabupaten Muna, Sulawesi Tenggara 93648","Mekar Jaya, Tiworo Tengah, Kabupaten Muna",SULAWESI TENGGARA,93648.0,Indonesia,,,,-4.8241483,122.3987769,https://maps.google.com/?cid=0x0:0x7266b936fdc07088,
restaurant,Restoran,Rumah makan KAMBOI,"5CXQ+3M7, tiworo, Kec. Tikep, Barat, Kabupaten Muna, Sulawesi Tenggara 93653","tiworo, Kec. Tikep, Barat, Kabupaten Muna",SULAWESI TENGGARA,93653.0,Indonesia, 085256580357,,,-4.8024126,122.4390849,https://maps.google.com/?cid=0x0:0x3016ddf851026f5a,
restaurant,Hotel,"Hotel Dina, Kabupaten Muna Barat, Kecamatan Tiworo Tengah","Mekar Jaya, Tiworo Tengah, Kabupaten Muna, Sulawesi Tenggara 93653","Tiworo Tengah, Kabupaten Muna",SULAWESI TENGGARA,93653.0,Indonesia, 082296778747,,,-4.8184902,122.4010422,https://maps.google.com/?cid=0x0:0x8abbadb2cf6c59d6,
restaurant,Brunch,Warung Bakso Padamuru,"Mekar Jaya, Tiworo Tengah, Kabupaten Muna, Sulawesi Tenggara","Kabupaten Muna, Sulawesi Tenggara",SULAWESI TENGGARA,,Indonesia, 082271007634,,,-4.8315347,122.395538,https://maps.google.com/?cid=0x0:0xeafb7a9d06400acb,
restaurant,Restoran,R.M ZAHRANI,"6C3M+VJ9, Jl. Poros, Tiworo, Kec. Tiworo Kepulauan, Kabupaten Muna, Sulawesi Tenggara 93653","Jl. Poros, Tiworo, Kec. Tiworo Kepulauan, Kabupaten Muna",SULAWESI TENGGARA,93653.0,Indonesia, 082194449927,,,-4.7953428,122.4340987,https://maps.google.com/?cid=0x0:0xa1a8b62c65e59c59,
restaurant,Rumah Makan,Kedai Bukit Ganarum,"5CQ3+VM5, Wapae Jaya, Tiworo Tengah, Kabupaten Muna, Sulawesi Tenggara 93653","Wapae Jaya, Tiworo Tengah, Kabupaten Muna",SULAWESI TENGGARA,93653.0,Indonesia,,,,-4.8103644,122.4042437,https://maps.google.com/?cid=0x0:0x918db8a066026427,
restaurant,Restoran,RUMAH MAKAN PARAIKATTE,"5CQ3+MVC, Jl. Poros, Wapae Jaya, Tiworo Tengah, Kabupaten Muna, Sulawesi Tenggara 93653","Jl. Poros, Wapae Jaya, Tiworo Tengah, Kabupaten Muna",SULAWESI TENGGARA,93653.0,Indonesia,,,,-4.810804,122.4046295,https://maps.google.com/?cid=0x0:0x707309880af24c67,
restaurant,Restoran,Rm.Makan Barakati,"5CR5+JJG, Jl. Morundu, Wapae Jaya, Tiworo Tengah, Kabupaten Muna, Sulawesi Tenggara 93653","Jl. Morundu, Wapae Jaya, Tiworo Tengah, Kabupaten Muna",SULAWESI TENGGARA,93653.0,Indonesia,,,,-4.808432,122.4090888,https://maps.google.com/?cid=0x0:0xa971f7348faeed34,
restaurant,Padang,RM. AL-BAGHDADI BANDUNG JABAR (MUBAR),"5CQ3+GMG, Wapae Jaya, Tiworo Tengah, Kabupaten Muna, Sulawesi Tenggara 93653","Wapae Jaya, Tiworo Tengah, Kabupaten Muna",SULAWESI TENGGARA,93653.0,Indonesia, 082187018444,,,-4.8111995,122.404215,https://maps.google.com/?cid=0x0:0xd39f97a1ff0ee162,
restaurant,Restoran,LAPAK REZEKI,"693X+5VR, Suka Damai, Tiworo Tengah, Kabupaten Muna, Sulawesi Tenggara 93653","Suka Damai, Tiworo Tengah, Kabupaten Muna",SULAWESI TENGGARA,93653.0,Indonesia, 085241941345,,,-4.7970071,122.3996325,https://maps.google.com/?cid=0x0:0x6e1a4c0223da5a44,
restaurant,Restoran,KEDAI GBM,"Wapae Jaya, Tiworo Tengah, Kabupaten Muna, Sulawesi Tenggara","Kabupaten Muna, Sulawesi Tenggara",SULAWESI TENGGARA,,Indonesia,,,,-4.8174651,122.4015095,https://maps.google.com/?cid=0x0:0x13ee249644419315,
restaurant,Rumah Makan,Warung Begadang Metro,"Wapae Jaya, Tiworo Tengah, Kabupaten Muna, Sulawesi Tenggara 93653","Tiworo Tengah, Kabupaten Muna",SULAWESI TENGGARA,93653.0,Indonesia, 085255000027,,,-4.8102857,122.4041631,https://maps.google.com/?cid=0x0:0x3edc35c034829d23,
restaurant,Kafe,Cafe Langit-Langit Tugu Jati Raha,"Pulau, Kabupaten Muna, Sulawesi Tenggara 93611",Kabupaten Muna,SULAWESI TENGGARA,93611.0,Indonesia, 082290732788,,,-4.8407065,122.7261308,https://maps.google.com/?cid=0x0:0xdd61b366be370229,
restaurant,Sulawesi Selatan,Rumah Makan Maitora,"Laende, Kec. Katobu, Kabupaten Muna, Sulawesi Tenggara 93613","Kec. Katobu, Kabupaten Muna",SULAWESI TENGGARA,93613.0,Indonesia,,,,-4.8395177,122.7200472,https://maps.google.com/?cid=0x0:0x8c3285c978dbd051,
restaurant,restaurant,Kec. Wadaga,"Kabupaten Muna, Sulawesi Tenggara","Kabupaten Muna, Sulawesi Tenggara",SULAWESI TENGGARA,,Indonesia,,,,-4.9157067,122.5304167,https://maps.google.com/?cid=0x0:0xb09250edddcd2e35,
restaurant,Padang,RM. Pada Suka,"Wowawanggu, Kec. Kadia, Kota Kendari, Sulawesi Tenggara 93117","Kec. Kadia, Kota Kendari",SULAWESI TENGGARA,93117.0,Indonesia, 082193504030,,,-3.9971701,122.5046495,https://maps.google.com/?cid=0x0:0x3b4acfd1bb184fdc,
restaurant,Restoran,RM. A'in Rionald,"Lapadaku, Kec. Lawa, Kabupaten Muna, Sulawesi Tenggara 93652","Kec. Lawa, Kabupaten Muna",SULAWESI TENGGARA,93652.0,Indonesia, 085346854243,,,-4.8790341,122.5617362,https://maps.google.com/?cid=0x0:0x36ab76b7e6e2dd85,
restaurant,Restoran,RM.BUNDA,"49GV+M8J, Jln. Poros desa, Kasimpa Jaya, Tiworo Sel., Kabupaten Muna, Sulawesi Tenggara","Kabupaten Muna, Sulawesi Tenggara",SULAWESI TENGGARA,,Indonesia,,,,-4.8732959,122.3932694,https://maps.google.com/?cid=0x0:0x22df433f3039fed2,
restaurant,Hidangan Laut,Rumah Makan Sumber Aroma,"Jl. Ir. H. Alala No.76, Tipulu, Kec. Kendari Bar., Kota Kendari, Sulawesi Tenggara","Kota Kendari, Sulawesi Tenggara",SULAWESI TENGGARA,,Indonesia, 082187589168,,,-3.9662199,122.5471904,https://maps.google.com/?cid=0x0:0x93f5ffb3598d2958,
restaurant,Restoran,ZZ Resto Cafe  Pemancingan,"Matakidi, Kec. Lawa, Muna Barat, Sulawesi Tenggara","Muna Barat, Sulawesi Tenggara",SULAWESI TENGGARA,,Indonesia, 081260616680,,,-4.8539069,122.5448737,https://maps.google.com/?cid=0x0:0xc186539c722fe6ac,
restaurant,Indonesia,WS Indonesian And Arabian Food,"Jl. Jend. AH. Nasution, Kambu, Kec. Kambu, Kota Kendari, Sulawesi Tenggara 93231","Kambu, Kec. Kambu, Kota Kendari",SULAWESI TENGGARA,93231.0,Indonesia, 08114001932,,,-4.0002587,122.5273302,https://maps.google.com/?cid=0x0:0xa81ccc024cd7f53d,
restaurant,Indonesia,Rumah Makan SALUAN 27,"95PX+9MW, Jl. Poros Bungku Sel. - Kendari, Bandaeha, Kec. Molawe, Kabupaten Konawe Utara, Sulawesi Tenggara 93353","Jl. Poros Bungku Sel. - Kendari, Bandaeha, Kec. Molawe, Kabupaten Konawe Utara",SULAWESI TENGGARA,93353.0,Indonesia, 081243062515,,,-3.6140108,122.1992074,https://maps.google.com/?cid=0x0:0xc970a4e6a753e48c,
restaurant,Rumah Makan,Rumah Makan FehuLai,"4HWW+287, Desa Sawerigadi, Barat, Kabupaten Muna","Kabupaten Muna, Sulawesi Tenggara",SULAWESI TENGGARA,,Indonesia, 082239328245,,,-4.8549594,122.5958088,https://maps.google.com/?cid=0x0:0x9464eb583cf956c5,
restaurant,Kafe,RM. Kampung Bakau,"Anduonohu, Kec. Poasia, Kota Kendari, Sulawesi Tenggara 93231","Kec. Poasia, Kota Kendari",SULAWESI TENGGARA,93231.0,Indonesia,,,,-3.9838826,122.5369442,https://maps.google.com/?cid=0x0:0x57ec23b9771920f1,
restaurant,Restoran,Rumah Makan ABG Jln Saosao,"2G97+QWX, Bende, Kec. Kadia, Kota Kendari, Sulawesi Tenggara 93111","Bende, Kec. Kadia, Kota Kendari",SULAWESI TENGGARA,93111.0,Indonesia,,,,-3.9805215,122.5148613,https://maps.google.com/?cid=0x0:0xbaa3d31faf875f0,
restaurant,Restoran,WARUNG MAKAN SEDERHANA,"Anaiwoi, Kec. Kadia, Kota Kendari, Sulawesi Tenggara 93117","Kec. Kadia, Kota Kendari",SULAWESI TENGGARA,93117.0,Indonesia, 081259187890,,,-3.9982529,122.5040357,https://maps.google.com/?cid=0x0:0xd756d82a68344063,
restaurant,Kedai Kopi,WK5 pujaseracafe,"2GH9+JCV, Jl. Malik Raya I, Korumba, Kec. Mandonga, Kota Kendari, Sulawesi Tenggara 93111","Jl. Malik Raya I, Korumba, Kec. Mandonga, Kota Kendari",SULAWESI TENGGARA,93111.0,Indonesia, 082333941886,,,-3.9708836,122.5185464,https://maps.google.com/?cid=0x0:0x595684279ada80ad,
restaurant,Nasi Goreng,Rumah Makan Sukaria,"2GQP+5PP, Jl. Mayjend. S. Parman, Watu-Watu, Kec. Kendari Bar., Kota Kendari, Sulawesi Tenggara 93121","Jl. Mayjend. S. Parman, Watu-Watu, Kec. Kendari Bar., Kota Kendari",SULAWESI TENGGARA,93121.0,Indonesia,,,,-3.9620495,122.5368191,https://maps.google.com/?cid=0x0:0x8ee44ee9e8abe760,
restaurant,Toko bahan makanan,Padi Padi Restoran Kendari,"Jl. Edi Sabara, Korumba, Kec. Mandonga, Kota Kendari, Sulawesi Tenggara 93111","Korumba, Kec. Mandonga, Kota Kendari",SULAWESI TENGGARA,93111.0,Indonesia, 082290702218,,,-3.9717129,122.5261623,https://maps.google.com/?cid=0x0:0x7a1fd57760fa5c97,
restaurant,Restoran,RM. Aroma Sulawesi 2,"Jl. Brigjen M. Yoenoes, Bende, Kec. Kadia, Kota Kendari, Sulawesi Tenggara 93561","Bende, Kec. Kadia, Kota Kendari",SULAWESI TENGGARA,93561.0,Indonesia, 085299366010,,,-3.9892531,122.5177072,https://maps.google.com/?cid=0x0:0xea1bfdbc4e30e3d1,
restaurant,Rumah Makan,RM. Anggadola,"2G44+9FX, Unnamed Road, Wowawanggu, Kec. Kadia, Kota Kendari, Sulawesi Tenggara 93117","Unnamed Road, Wowawanggu, Kec. Kadia, Kota Kendari",SULAWESI TENGGARA,93117.0,Indonesia,,,,-3.9940186,122.5062401,https://maps.google.com/?cid=0x0:0x1c243ae5fa14593b,
restaurant,Brunch,"RM. AINUL (Bakso, Coto Ayam, Nasi Goreng, Lalapan, Kondro)","3GMJ+82W, Lailangga, Kec. Wadaga, Kabupaten Muna, Sulawesi Tenggara 93652","Lailangga, Kec. Wadaga, Kabupaten Muna",SULAWESI TENGGARA,93652.0,Indonesia, 085299045549,,,-4.9166348,122.5300716,https://maps.google.com/?cid=0x0:0x1150fb9d68fe48ed,
restaurant,Rumah Makan,RM.ALMIRA terimah pesanan nasi dos dll,"Jln.poros Kendari kolaka, Kec. Lambuya, Kabupaten Konawe, Sulawesi Tenggara 93464","Kec. Lambuya, Kabupaten Konawe",SULAWESI TENGGARA,93464.0,Indonesia, 082116987746,,,-3.9522275,122.0707958,https://maps.google.com/?cid=0x0:0xc39b9a70a6da0eae,
restaurant,Taman bermain,GALU RESTO,"44F8+292, Wawotobi, Kec. Wawotobi, Kabupaten Konawe, Sulawesi Tenggara","Kabupaten Konawe, Sulawesi Tenggara",SULAWESI TENGGARA,,Indonesia,,,,-3.8774857,122.1158906,https://maps.google.com/?cid=0x0:0x43e422e211505102,
restaurant,Prasmanan,Rumah Makan Ibu Dina,"2GFG+5FG, Jl. Buburanda, Korumba, Lepo-Lepo, Kec. Mandonga, Kota Kendari, Sulawesi Tenggara 93231","Jl. Buburanda, Korumba, Lepo-Lepo, Kec. Mandonga, Kota Kendari",SULAWESI TENGGARA,93231.0,Indonesia, 085241788278,,,-3.9770749,122.5261902,https://maps.google.com/?cid=0x0:0xf740444865374dd,
restaurant,Restoran,Faith Kitchen Cafe and BBQ,"Jalan Tomangera, Patowonua, Kec. Lasusua, Kabupaten Kolaka Utara, Sulawesi Tenggara 93911","Patowonua, Kec. Lasusua, Kabupaten Kolaka Utara",SULAWESI TENGGARA,93911.0,Indonesia, 082195819030,,,-3.5058955,120.8853449,https://maps.google.com/?cid=0x0:0xbf63445af3ec07aa,
restaurant,Restoran,RM.YASSIN (bakso Kajol),"3GMJ+M7P Markas Faiz niger, Jl. Poros, Lailangga, Kec. Wadaga, Kabupaten Muna, Sulawesi Tenggara 93652","Jl. Poros, Lailangga, Kec. Wadaga, Kabupaten Muna",SULAWESI TENGGARA,93652.0,Indonesia,,,,-4.9162567,122.5313538,https://maps.google.com/?cid=0x0:0x5ae9685df058802f,
restaurant,Rumah Makan,Warung Makan Sederhana Ala Kampung,"2GF2+8MC, Jl. Wayong, Kadia, Kec. Kadia, Kota Kendari, Sulawesi Tenggara 93115","Jl. Wayong, Kadia, Kec. Kadia, Kota Kendari",SULAWESI TENGGARA,93115.0,Indonesia,,,,-3.9766786,122.5016279,https://maps.google.com/?cid=0x0:0x17432e4f28afedc2,
restaurant,restaurant,Warung Bakso Jawa Barat,"5C4V+FMP, Lawada Jaya, Kec. Sawerigadi, Kabupaten Muna, Sulawesi Tenggara 93653","Lawada Jaya, Kec. Sawerigadi, Kabupaten Muna",SULAWESI TENGGARA,93653.0,Indonesia,,,,-4.8448032,122.442409,https://maps.google.com/?cid=0x0:0xe68f5355a6be8901,
restaurant,Restoran,DAGADANG RESTO AND CAFE,"Jl. Dipati Ukur No.45, Lebakgede, Kecamatan Coblong, Kota Bandung, Jawa Barat 40132","Lebakgede, Kecamatan Coblong, Kota Bandung",SULAWESI TENGGARA,40132.0,Indonesia,,,,-6.8913297,107.6171156,https://maps.google.com/?cid=0x0:0xb6eacaae50f1bcb1,
restaurant,restaurant,BUMDes RESTO,"3GG6+824, Lindo, Kec. Wadaga, Kabupaten Muna, Sulawesi Tenggara 93652","Lindo, Kec. Wadaga, Kabupaten Muna",SULAWESI TENGGARA,93652.0,Indonesia,,,,-4.9242401,122.5100907,https://maps.google.com/?cid=0x0:0x8b358feb2486d135,
cafe,cafe,Kec. Barangka,"Kabupaten Muna, Sulawesi Tenggara","Kabupaten Muna, Sulawesi Tenggara",SULAWESI TENGGARA,,Indonesia,,,,-4.8448994,122.5483448,https://maps.google.com/?cid=0x0:0x22374dea68597f27,
cafe,Kedai Kopi,Cafe Double A,"5GQ9+QG2, Lafinde, Kec. Barangka, Kabupaten Muna, Sulawesi Tenggara","Kabupaten Muna, Sulawesi Tenggara",SULAWESI TENGGARA,,Indonesia,,,,-4.810609,122.5187532,https://maps.google.com/?cid=0x0:0x3f197f7819251da5,
cafe,Kedai Kopi,KEDAI MUBAR BERSATU,"5H38+R5W, Jl. Poros Raha-Tondasi, Sawerigadi, Kec. Barangka, Kabupaten Muna, Sulawesi Tenggara 93652","Jl. Poros Raha-Tondasi, Sawerigadi, Kec. Barangka, Kabupaten Muna",SULAWESI TENGGARA,93652.0,Indonesia,,,,-4.8453848,122.5654534,https://maps.google.com/?cid=0x0:0xa5a73f82e92fb850,
cafe,Kedai Kopi,Warkop kulbang'dpro,"5G8F+GW2, Waulai, Kec. Barangka, Kabupaten Muna, Sulawesi Tenggara 93657","Waulai, Kec. Barangka, Kabupaten Muna",SULAWESI TENGGARA,93657.0,Indonesia, 082178881442,,,-4.8337288,122.5247628,https://maps.google.com/?cid=0x0:0xb4f4d09a33ab88d9,
cafe,Restoran,ZZ Resto Cafe  Pemancingan,"Matakidi, Kec. Lawa, Muna Barat, Sulawesi Tenggara","Muna Barat, Sulawesi Tenggara",SULAWESI TENGGARA,,Indonesia, 081260616680,,,-4.8539069,122.5448737,https://maps.google.com/?cid=0x0:0xc186539c722fe6ac,
cafe,Kedai Kopi,Barangka nongkrong cafe,"J3QM+95C, Majapahit, Kec. Pasimarannu, Kab. Kepulauan Selayar, Sulawesi Selatan","Kab. Kepulauan Selayar, Sulawesi Selatan",SULAWESI TENGGARA,,Indonesia,,,,-7.3617081,121.0825498,https://maps.google.com/?cid=0x0:0xb4f587921b1457d,
cafe,Kedai Kopi,Warung ida fadhillah,"5H6G+XP9, Sawerigadi, Kec. Barangka, Kabupaten Muna, Sulawesi Tenggara","Kabupaten Muna, Sulawesi Tenggara",SULAWESI TENGGARA,,Indonesia,,,,-4.8375989,122.5768651,https://maps.google.com/?cid=0x0:0xf801a2facd7b6180,
cafe,Kedai Kopi,Karaoke,"5G2W+WR2, Jalan, Lawa, Barangka, Muna Regency, South East Sulawesi 93652","Jalan, Lawa, Barangka, Muna Regency",SULAWESI TENGGARA,93652.0,Indonesia, 085241660077,,,-4.8477317,122.5470083,https://maps.google.com/?cid=0x0:0xb8b12f1e1f0b6f97,
cafe,cafe,Barangka,"Marikina City, Metro Manila, Filipina","Marikina City, Metro Manila, Filipina",SULAWESI TENGGARA,,Indonesia,,,,14.6382755,121.0836691,https://maps.google.com/?cid=0x0:0xb06d0bc6c0ed719,
cafe,Stan Kopi,Do GÃ¼d Cafe,"9 E. Rodriguez St, Corner Lakandula, Marikina City, 1708 Metro Manila, Filipina","Marikina City, Metro Manila, Filipina",SULAWESI TENGGARA,,Indonesia, +639173162122,,,14.6596743,121.1107825,https://maps.google.com/?cid=0x0:0x635765ebea3d6c98,
cafe,Kedai Kopi,Big Brew Barangka Marikina,"86 A. Bonifacio Ave, Marikina City, 1800 Metro Manila, Filipina","Marikina City, Metro Manila, Filipina",SULAWESI TENGGARA,,Indonesia,,,,14.6325518,121.0819222,https://maps.google.com/?cid=0x0:0x6523935844e7a75,
cafe,Kedai Kopi,Dark Drift Coffee,"340 Barangka Dr., Mandaluyong City, 1550 Kalakhang Maynila, Filipina","Mandaluyong City, Metro Manila, Filipina",SULAWESI TENGGARA,,Indonesia, +639569316868,,,14.5713589,121.0376779,https://maps.google.com/?cid=0x0:0x692a657b98725255,
cafe,Kafe,Pegfuffin's Cafe,"210 A. Bonifacio Ave, Marikina City, 1803 Metro Manila, Filipina","Marikina City, Metro Manila, Filipina",SULAWESI TENGGARA,,Indonesia,,,,14.6346449,121.0875461,https://maps.google.com/?cid=0x0:0x4afca3ed17be79c2,
cafe,Kedai Kopi,CafÃ© Nathalie  Co.,"162 Gen. Julian, Marikina City, 1803 Metro Manila, Filipina","Marikina City, Metro Manila, Filipina",SULAWESI TENGGARA,,Indonesia, +639771234169,,,14.6368467,121.0833609,https://maps.google.com/?cid=0x0:0x66778944514cf9f7,
cafe,Kedai Kopi,Franken Coffee Bar + Roastery,"132 J. P. Rizal St, Marikina City, 1801 Metro Manila, Filipina","Marikina City, Metro Manila, Filipina",SULAWESI TENGGARA,,Indonesia, +639089137542,,,14.6248859,121.0959197,https://maps.google.com/?cid=0x0:0x67307cc09090fcd4,
cafe,Kedai Kopi,The Venti Cafe,"MRP Building, 463 Barangka Dr., Mandaluyong, Mandaluyong City, 1550 Metro Manila, Filipina","Mandaluyong City, Metro Manila, Filipina",SULAWESI TENGGARA,,Indonesia, +639624952366,,,14.5770782,121.0419072,https://maps.google.com/?cid=0x0:0xab9f9c665812f62b,
cafe,Kedai Kopi,DYC Coffee Shop Marikina,"Provident Village, 6 Riverside Dr, Marikina City, 1803 Metro Manila, Filipina","Marikina City, Metro Manila, Filipina",SULAWESI TENGGARA,,Indonesia,,,,14.6325207,121.0874961,https://maps.google.com/?cid=0x0:0x330ffdec31d0f9f2,
cafe,Kafe,Beanhi Coffee House,"83 M. H. del Pilar St, Marikina City, 1800 Metro Manila, Filipina","Marikina City, Metro Manila, Filipina",SULAWESI TENGGARA,,Indonesia, +639278556477,,,14.6220569,121.0932042,https://maps.google.com/?cid=0x0:0x428845390fc59fc8,
cafe,Brunch,Sundays Cafe and Restaurant,"J. P. Rizal St, Marikina City, 1801 Metro Manila, Filipina","Marikina City, Metro Manila, Filipina",SULAWESI TENGGARA,,Indonesia, +639171572634,,,14.6296322,121.096078,https://maps.google.com/?cid=0x0:0x130effcf95b02b4d,
cafe,Kedai Kopi,THE EASTSIDE CAFE AND BARBERS,"121 Lopez Jaena St, Marikina City, 1800 Metro Manila, Filipina","Marikina City, Metro Manila, Filipina",SULAWESI TENGGARA,,Indonesia,,,,14.6367009,121.0900797,https://maps.google.com/?cid=0x0:0x6cefed4d88c498fd,
cafe,Studio seni,Cafe Siriusdan,"492 Halcon, Extension, Mandaluyong City, 1550 Kalakhang Maynila, Filipina","Mandaluyong City, Metro Manila, Filipina",SULAWESI TENGGARA,,Indonesia, +639088995137,,,14.5748165,121.0414514,https://maps.google.com/?cid=0x0:0x1853559d67bea24f,
cafe,cafe,MIKAFFEE,"Unit 14F, provident village, St Agnes, Marikina City, 1800 Metro Manila, Filipina","Marikina City, Metro Manila, Filipina",SULAWESI TENGGARA,,Indonesia, +639673223619,,,14.6313448,121.0855105,https://maps.google.com/?cid=0x0:0xc5b32d20b5b367c3,
cafe,Kedai Kopi,Brewin Bros CafÃ©,"J3JJ+FQ9, Riverbanks Mall, A. Bonifacio Avenue, Barangka, Marikina City, 1803 Metro Manila, Filipina","Marikina City, Metro Manila, Filipina",SULAWESI TENGGARA,,Indonesia, +63279440024,,,14.631154,121.081992,https://maps.google.com/?cid=0x0:0x9487a88ee408d9f8,
cafe,Kafe,Don Facundo Cafe,"Pound St UBB, Marikina City, 1803 Metro Manila, Filipina","Marikina City, Metro Manila, Filipina",SULAWESI TENGGARA,,Indonesia, +639153822288,,,14.6303319,121.0796081,https://maps.google.com/?cid=0x0:0x35ea1e4be8a829d5,
cafe,Kedai Kopi,Black scoop cafe,"3f Riverbanks Ave, Marikina City, 1800 Metro Manila, Filipina","Marikina City, Metro Manila, Filipina",SULAWESI TENGGARA,,Indonesia,,,,14.6261458,121.0841582,https://maps.google.com/?cid=0x0:0xb768808e55689a89,
cafe,Kedai Kopi,Extend Coffee Co.,"Unit 1 Austin Street, cor St Mary Ave, Provident Villages, Marikina City, 1804 Metro Manila, Filipina","Marikina City, Metro Manila, Filipina",SULAWESI TENGGARA,,Indonesia,,,,14.6347397,121.0891043,https://maps.google.com/?cid=0x0:0xa7d9e30b4b2992cd,
cafe,Kedai Kopi,Caffera Photo + CafÃ©,"480 Boni Ave, Mandaluyong City, Metro Manila, Filipina","Mandaluyong City, Metro Manila, Filipina",SULAWESI TENGGARA,,Indonesia, +63 9978368,,,14.5817336,121.0288198,https://maps.google.com/?cid=0x0:0x56e6c3be2c0aad87,
cafe,Toko kopi,PICKUP COFFEE - Marikina Riverbanks,"1800 Riverbanks Ave, Marikina City, 1800 Metro Manila, Filipina","Marikina City, Metro Manila, Filipina",SULAWESI TENGGARA,,Indonesia,,,,14.6291636,121.081878,https://maps.google.com/?cid=0x0:0x46747b0a6cfcaaa9,
cafe,Kedai Kopi,Mirra CafÃ©,"66 St Mary Ave, provident village, Marikina City, 1804 Metro Manila, Filipina","Marikina City, Metro Manila, Filipina",SULAWESI TENGGARA,,Indonesia, +63272192021,,,14.6294448,121.0892469,https://maps.google.com/?cid=0x0:0x75f960f8768171c7,
cafe,cafe,Sulawesi Tenggara 93655,"Kabupaten Muna, Sulawesi Tenggara","Kabupaten Muna, Sulawesi Tenggara",SULAWESI TENGGARA,,Indonesia,,,,-4.7167048,122.593828,https://maps.google.com/?cid=0x0:0x2099dcc445aba1a5,
cafe,Rumah Makan,Nongky House,"7GXJ+2VP, Desa, Tj. Pinang, Kec. Kusambi, Kab. Muna Barat",Kab. Muna Barat,SULAWESI TENGGARA,,Indonesia,,,,-4.7024079,122.5322168,https://maps.google.com/?cid=0x0:0x44536a6f3c715b00,
cafe,Kedai Kopi,Gubuk KafeWuleha,"5PH8+9QG, Lrg. Mekar, Raha III, Kec. Katobu, Kabupaten Muna, Sulawesi Tenggara 93614","Lrg. Mekar, Raha III, Kec. Katobu, Kabupaten Muna",SULAWESI TENGGARA,93614.0,Indonesia, 085859077280,,,-4.8215563,122.7169616,https://maps.google.com/?cid=0x0:0xd72a01a8da448e54,
cafe,Dapur Umum,RM.KURNIA,"Jl. Sugi Manuru, Kusambi, Kec. Kusambi, Kabupaten Muna, Sulawesi Tenggara 93657","Kusambi, Kec. Kusambi, Kabupaten Muna",SULAWESI TENGGARA,93657.0,Indonesia, 085342050541,,,-4.7560488,122.5700041,https://maps.google.com/?cid=0x0:0x2ba2f4409c09830,
cafe,Kedai Kopi,My The Cafe,"Jl. Yos Sudarso, Napabalano, Kec. Napabalano, Kabupaten Muna",Kabupaten Muna,SULAWESI TENGGARA,,Indonesia, 082262701472,,,-4.6269075,122.712837,https://maps.google.com/?cid=0x0:0x62657535307edd86,
cafe,Kedai Kopi,Pondok Cafe Oluha,"7G3C+9P4, Unnamed Road, Kasakamu, Kec. Kusambi, Kabupaten Muna, Sulawesi Tenggara 93653","Unnamed Road, Kasakamu, Kec. Kusambi, Kabupaten Muna",SULAWESI TENGGARA,93653.0,Indonesia,,,,-4.7466102,122.5218299,https://maps.google.com/?cid=0x0:0x1e129ac140f6345a,
cafe,Rumah Makan,"Rumah Makan MAWAR, ATK dan Fotocopy","Guali Kusambi, Barat, Kabupaten Muna, Sulawesi Tenggara 93653","Barat, Kabupaten Muna",SULAWESI TENGGARA,93653.0,Indonesia, 085240999950,,,-4.7497645,122.5437293,https://maps.google.com/?cid=0x0:0x98daf1cf5a1b583d,
cafe,Kantor Pemerintahan Regional,KUA CAFE,"6J7Q+VJ3, Wakapodo, Kec. Watopute, Kabupaten Muna, Sulawesi Tenggara 93656","Wakapodo, Kec. Watopute, Kabupaten Muna",SULAWESI TENGGARA,93656.0,Indonesia, 082342136577,,,-4.7853627,122.6390489,https://maps.google.com/?cid=0x0:0x791dd1d08fe1a767,
cafe,Rumah Makan,SUN KULINER,"Jalan Dermaga Nelayan Tanjung Pinang Kusambi, Barat, Kabupaten Muna, Sulawesi Tenggara 93655","Barat, Kabupaten Muna",SULAWESI TENGGARA,93655.0,Indonesia, 082293629048,,,-4.7019375,122.5316694,https://maps.google.com/?cid=0x0:0xd08fba8575691480,
cafe,Kedai Kopi,Cafe Double A,"5GQ9+QG2, Lafinde, Kec. Barangka, Kabupaten Muna, Sulawesi Tenggara","Kabupaten Muna, Sulawesi Tenggara",SULAWESI TENGGARA,,Indonesia,,,,-4.810609,122.5187532,https://maps.google.com/?cid=0x0:0x3f197f7819251da5,
cafe,Kedai Kopi,BERSUA KEMBALI,"Taman Tugu Jati, Jl. By Pass Raha, Kabupaten Muna, Sulawesi Tenggara 93611","Jl. By Pass Raha, Kabupaten Muna",SULAWESI TENGGARA,93611.0,Indonesia, 081240458739,,,-4.8411928,122.7261338,https://maps.google.com/?cid=0x0:0x2893a909cea87f20,
cafe,Es Krim,Erl,"6HXG+G5, Kusambi, Kec. Kusambi, Kabupaten Muna, Sulawesi Tenggara","Kabupaten Muna, Sulawesi Tenggara",SULAWESI TENGGARA,,Indonesia,,,,-4.7512106,122.5754569,https://maps.google.com/?cid=0x0:0xf205bc167f9045f6,
cafe,Mi,Rumah Makan Mie Pangsit Janoko 2,"6HWG+526, Jl. Sugi Manuru, Kusambi, Kec. Kusambi, Kabupaten Muna, Sulawesi Tenggara 93657","Jl. Sugi Manuru, Kusambi, Kec. Kusambi, Kabupaten Muna",SULAWESI TENGGARA,93657.0,Indonesia,,,,-4.7545832,122.575007,https://maps.google.com/?cid=0x0:0xc217f95a36ba5398,
cafe,Kafe,SYAHIR CAFE,"6J7Q+VJ3, Wakapodo, Kec. Watopute, Kabupaten Muna, Sulawesi Tenggara 93656","Wakapodo, Kec. Watopute, Kabupaten Muna",SULAWESI TENGGARA,93656.0,Indonesia, 082292711805,,,-4.7853627,122.6390489,https://maps.google.com/?cid=0x0:0xc3023ae67716ab9b,
cafe,Kedai Kopi,Empat Lentera Timur,"Jl. Poros Raha-Kusambi No.16, Bangkali, Kec. Watopute, Kabupaten Muna, Sulawesi Tenggara 93656","Bangkali, Kec. Watopute, Kabupaten Muna",SULAWESI TENGGARA,93656.0,Indonesia, 085286541908,,,-4.8200652,122.6683348,https://maps.google.com/?cid=0x0:0xff52ba4432597614,
cafe,cafe,Kios Wa Nande,"8MM7+QF2, Langkumapo, Kec. Napabalano, Kabupaten Muna, Sulawesi Tenggara","Kabupaten Muna, Sulawesi Tenggara",SULAWESI TENGGARA,,Indonesia,,,,-4.6656082,122.6636336,https://maps.google.com/?cid=0x0:0x65f84f545b5230da,
cafe,Otoritas Pelabuhan,Pelabuhan Tanjung Pinang Muna Barat,"7GXJ+6Q9, Bakeramba",,SULAWESI TENGGARA,,Indonesia,,,,-4.7019544,122.5319978,https://maps.google.com/?cid=0x0:0xdda60d49b3918f05,
cafe,Makanan Kecil,Warung Dzakiyah,"7G4P+949, Unnamed Road, Lapokainse, Kec. Kusambi, Kabupaten Muna, Sulawesi Tenggara 93653","Unnamed Road, Lapokainse, Kec. Kusambi, Kabupaten Muna",SULAWESI TENGGARA,93653.0,Indonesia, 085342995806,,,-4.7440947,122.5353589,https://maps.google.com/?cid=0x0:0xac9679f1bce080dc,
cafe,Restoran,Mini RESTO DEGO,"6GRJ+J4Q, Barat, Guali, Kec. Kusambi, Kabupaten Muna, Sulawesi Tenggara 93653","Barat, Guali, Kec. Kusambi, Kabupaten Muna",SULAWESI TENGGARA,93653.0,Indonesia, 081241166116,,,-4.7584011,122.5303542,https://maps.google.com/?cid=0x0:0x5ac7d8f0aad5a591,
cafe,Toko,Warung Mama Dila,"8H4J+JP3, Lahaji, Kec. Napano Kusambi, Barat, Kabupaten Muna, Sulawesi Tenggara","Kabupaten Muna, Sulawesi Tenggara",SULAWESI TENGGARA,,Indonesia,,,,-4.6934957,122.5817847,https://maps.google.com/?cid=0x0:0xa28131d2302a7a9,
cafe,Kedai Kopi,Smmau Coffee,"Jalan Kolonel Masturi, Kp Barukai Timur No.003, RT.002/RW.13, Jambudipa, Kec. Cisarua, Kabupaten Bandung Barat, Jawa Barat 40551","Kp Barukai Timur No.003, RT.002/RW.13, Jambudipa, Kec. Cisarua, Kabupaten Bandung Barat",SULAWESI TENGGARA,40551.0,Indonesia, 082126027947,,,-6.8110133,107.5608042,https://maps.google.com/?cid=0x0:0xe593cdec55fc6645,
cafe,Kedai Kopi,Koo Coffee and Resto,"Jl. Leuwisari III No.5, Kb. Lega, Kec. Bojongloa Kidul, Kota Bandung, Jawa Barat 40235","Kb. Lega, Kec. Bojongloa Kidul, Kota Bandung",SULAWESI TENGGARA,40235.0,Indonesia, 089515297770,,,-6.9435505,107.5973575,https://maps.google.com/?cid=0x0:0xca8163574ab5083a,
cafe,Kedai Kopi,Lupba Cafe by CUPBA Coffee,"Surapati Core, Jl. Khp Hasan Mustopa No.39 Bok J-23, Pasirlayung, Kec. Cibeunying Kidul, Kota Bandung, Jawa Barat 40129","Jl. Khp Hasan Mustopa No.39 Bok J-23, Pasirlayung, Kec. Cibeunying Kidul, Kota Bandung",SULAWESI TENGGARA,40129.0,Indonesia, 082119004525,,,-6.9000687,107.6530093,https://maps.google.com/?cid=0x0:0xa699bf8a940b1cc8,
cafe,Kedai Kopi,150 Coffee and Garden,"Jl. Sulaksana No.50, Cicaheum, Kec. Kiaracondong, Kota Bandung, Jawa Barat 40282","Cicaheum, Kec. Kiaracondong, Kota Bandung",SULAWESI TENGGARA,40282.0,Indonesia, 081222809995,,,-6.9087945,107.6495286,https://maps.google.com/?cid=0x0:0x1bce438fe7ce32b7,
cafe,Kedai Kopi,Kopi Kyomi,"Jl. Ir. H. Juanda No.130, Dago, Kecamatan Coblong, Kota Bandung, Jawa Barat 40135","Dago, Kecamatan Coblong, Kota Bandung",SULAWESI TENGGARA,40135.0,Indonesia, 081779281576,,,-6.8893073,107.6139503,https://maps.google.com/?cid=0x0:0xc48120de8d5b64f,
cafe,cafe,Sulawesi Tenggara 93652,"Kabupaten Muna, Sulawesi Tenggara","Kabupaten Muna, Sulawesi Tenggara",SULAWESI TENGGARA,,Indonesia,,,,-4.8874972,122.5598994,https://maps.google.com/?cid=0x0:0x34e12d7c7d7a4631,
cafe,Restoran,ZZ Resto Cafe  Pemancingan,"Matakidi, Kec. Lawa, Muna Barat, Sulawesi Tenggara","Muna Barat, Sulawesi Tenggara",SULAWESI TENGGARA,,Indonesia, 081260616680,,,-4.8539069,122.5448737,https://maps.google.com/?cid=0x0:0xc186539c722fe6ac,
cafe,cafe,Kedai Putri,"4H94+796, Lalemba, Kec. Lawa, Kabupaten Muna, Sulawesi Tenggara","Kabupaten Muna, Sulawesi Tenggara",SULAWESI TENGGARA,,Indonesia,,,,-4.8818488,122.5558863,https://maps.google.com/?cid=0x0:0x232d32ca04e1ea64,
cafe,Kedai Kopi,Salju Cafe,"Jl. La Ode Abdul Kudus, Laende, Kec. Katobu, Kabupaten Muna, Sulawesi Tenggara 93613","Laende, Kec. Katobu, Kabupaten Muna",SULAWESI TENGGARA,93613.0,Indonesia, 082193038489,,,-4.8370254,122.7201001,https://maps.google.com/?cid=0x0:0xd9d03d5ab1b9fe12,
cafe,Kedai Kopi,Warkop Mabes Polsek Lawa,"4HC6+8J6, Lapadaku, Barat, Kabupaten Muna, Sulawesi Tenggara 93652","Lapadaku, Barat, Kabupaten Muna",SULAWESI TENGGARA,93652.0,Indonesia,,,,-4.879201,122.5615178,https://maps.google.com/?cid=0x0:0x78eba13b9db4ccf9,
cafe,Kedai Kopi,Cafe Double A,"5GQ9+QG2, Lafinde, Kec. Barangka, Kabupaten Muna, Sulawesi Tenggara","Kabupaten Muna, Sulawesi Tenggara",SULAWESI TENGGARA,,Indonesia,,,,-4.810609,122.5187532,https://maps.google.com/?cid=0x0:0x3f197f7819251da5,
cafe,Restoran,RM. A'in Rionald,"Lapadaku, Kec. Lawa, Kabupaten Muna, Sulawesi Tenggara 93652","Kec. Lawa, Kabupaten Muna",SULAWESI TENGGARA,93652.0,Indonesia, 085346854243,,,-4.8790341,122.5617362,https://maps.google.com/?cid=0x0:0x36ab76b7e6e2dd85,
cafe,Kafe,WARKOP NURYONO,"4HC6+7CF, Lapadaku, Kec. Lawa, Kabupaten Muna, Sulawesi Tenggara 93652","Lapadaku, Kec. Lawa, Kabupaten Muna",SULAWESI TENGGARA,93652.0,Indonesia,,,,-4.8793098,122.5610615,https://maps.google.com/?cid=0x0:0x56a56f11df5da5d,
cafe,Kafe,Cafe Langit-Langit Tugu Jati Raha,"Pulau, Kabupaten Muna, Sulawesi Tenggara 93611",Kabupaten Muna,SULAWESI TENGGARA,93611.0,Indonesia, 082290732788,,,-4.8407065,122.7261308,https://maps.google.com/?cid=0x0:0xdd61b366be370229,
cafe,Indonesia,BINAIYA CAFE,"2CV9+M69, DESA, Wakobulu Agung, Kec. Kabangka, Kabupaten Muna, Sulawesi Tenggara 93664","DESA, Wakobulu Agung, Kec. Kabangka, Kabupaten Muna",SULAWESI TENGGARA,93664.0,Indonesia, 082349598024,,,-4.9558278,122.4181013,https://maps.google.com/?cid=0x0:0xfa833ad16c3e1811,
cafe,Toko umum,Its Coffee Time,"4HC4+37F its coffee time, Lapadaku, Kec. Lawa, Kabupaten Muna, Sulawesi Tenggara 93652","Lapadaku, Kec. Lawa, Kabupaten Muna",SULAWESI TENGGARA,93652.0,Indonesia, 082292728706,,,-4.8798066,122.555663,https://maps.google.com/?cid=0x0:0x80fc4523651ccba3,
cafe,Kedai Kopi,Kiva Hawa (Coffee  Barbershop),"2FMH+QRP, Lakandito, Kec. Kabangka, Kabupaten Muna, Sulawesi Tenggara 93652","Lakandito, Kec. Kabangka, Kabupaten Muna",SULAWESI TENGGARA,93652.0,Indonesia, 085343725373,,,-4.965536,122.4795912,https://maps.google.com/?cid=0x0:0x6cc165fc749e98db,
cafe,Toko Kue,Toko Aneka Kue BiRO,"4HC3+J78, Jl. Pendidikan, Wamelai(Lambubalano), Kec. Lawa, Kabupaten Muna, Sulawesi Tenggara 93652","Jl. Pendidikan, Wamelai(Lambubalano), Kec. Lawa, Kabupaten Muna",SULAWESI TENGGARA,93652.0,Indonesia, 082193795826,,,-4.8784721,122.5531915,https://maps.google.com/?cid=0x0:0x62a22b696446fe81,
cafe,cafe,Kios Onche Cell,"4JQH+M2V, Lagadi, Kec. Lawa, Kabupaten Muna, Sulawesi Tenggara 93658","Lagadi, Kec. Lawa, Kabupaten Muna",SULAWESI TENGGARA,93658.0,Indonesia,,,,-4.8607509,122.6275542,https://maps.google.com/?cid=0x0:0x28fe0c4bf5b44fa4,
cafe,Kedai Kopi,Wakaburu Lele Coffe,"4P83+X63, Kondongia, Kec. Lohia, Kabupaten Muna, Sulawesi Tenggara 93659","Kondongia, Kec. Lohia, Kabupaten Muna",SULAWESI TENGGARA,93659.0,Indonesia, 082271906543,,,-4.8826199,122.7030356,https://maps.google.com/?cid=0x0:0x74b2bdcf29b504c8,
cafe,Kedai Kopi,Warkop Artah Raiq,"4H72+J56, Unnamed Road, Lalemba, Kec. Lawa, Kabupaten Muna, Sulawesi Tenggara 93652","Unnamed Road, Lalemba, Kec. Lawa, Kabupaten Muna",SULAWESI TENGGARA,93652.0,Indonesia, 085340011776,,,-4.8859579,122.5503992,https://maps.google.com/?cid=0x0:0x3e44267937522ddd,
cafe,Kafe,Asuan cafe deliza,"4MFV+8FR, Jl. Poros Waara, Kondongia, Kec. Lohia, Kabupaten Muna, Sulawesi Tenggara 93658","Jl. Poros Waara, Kondongia, Kec. Lohia, Kabupaten Muna",SULAWESI TENGGARA,93658.0,Indonesia,,,,-4.8766381,122.693628,https://maps.google.com/?cid=0x0:0x75b5e77207d66013,
cafe,,Cafe Munaria,"Unnamed Road, Kabupaten Muna, Sulawesi Tenggara","Kabupaten Muna, Sulawesi Tenggara",SULAWESI TENGGARA,,Indonesia, 085201774051,,,-4.83302,122.731078,https://maps.google.com/?cid=0x0:0x7c5a94af2d9eab02,
cafe,Kedai Kopi,Overdose Coffee Lab,"Jl. Basuki Rahmat, Laende, Kec. Katobu, Kabupaten Muna, Sulawesi Tenggara 93612","Laende, Kec. Katobu, Kabupaten Muna",SULAWESI TENGGARA,93612.0,Indonesia,,,,-4.843033,122.7203603,https://maps.google.com/?cid=0x0:0x514d2184c7bf7e9,
cafe,cafe,Warung Bang Oneng Bagadang,"3JXH+83X, Madampi, Kec. Lawa, Kabupaten Muna, Sulawesi Tenggara","Kabupaten Muna, Sulawesi Tenggara",SULAWESI TENGGARA,,Indonesia,,,,-4.901629,122.6277455,https://maps.google.com/?cid=0x0:0x1a7fe86912915949,
cafe,Kedai Kopi,WM Saraba  Coffee,"Jl. By Pass Raha, Muna, Sulawesi Tenggara 93611",Muna,SULAWESI TENGGARA,93611.0,Indonesia, 082257239269,,,-4.8414595,122.7286487,https://maps.google.com/?cid=0x0:0x8d4cd3a6c7d57044,
cafe,Kedai Kopi,Kaghonuha coffee,"2FQR+569, Lakandito, Kec. Kabangka, Kabupaten Muna, Sulawesi Tenggara 93652","Lakandito, Kec. Kabangka, Kabupaten Muna",SULAWESI TENGGARA,93652.0,Indonesia, 082393240265,,,-4.9620951,122.4906016,https://maps.google.com/?cid=0x0:0x4fcd7fed76a8947b,
cafe,Kafe,1001 COFFEE SHOP,"Jl. Gatot Subroto, Wamponiki, Kec. Katobu, Kabupaten Muna, Sulawesi Tenggara 93611","Wamponiki, Kec. Katobu, Kabupaten Muna",SULAWESI TENGGARA,93611.0,Indonesia,,,,-4.8275975,122.7252053,https://maps.google.com/?cid=0x0:0x2e2d18faf5f4b379,
cafe,Kafe,Teras Caffe 86,"4MP6+QQW, Mabodo, Kec. Kontunaga, Kabupaten Muna, Sulawesi Tenggara 93658","Mabodo, Kec. Kontunaga, Kabupaten Muna",SULAWESI TENGGARA,93658.0,Indonesia,,,,-4.8630101,122.6619588,https://maps.google.com/?cid=0x0:0x7b7fb334fce8e093,
cafe,Kedai Kopi,Law.coffe,"MG4X+M5F pintu air 03/08, Cibunar, Kec. Parung Panjang, Kabupaten Bogor, Jawa Barat 16360","Cibunar, Kec. Parung Panjang, Kabupaten Bogor",SULAWESI TENGGARA,16360.0,Indonesia, 081410348264,,,-6.3433161,106.5479348,https://maps.google.com/?cid=0x0:0xf3cad003b3fa82fd,
cafe,Kafe,LUASA Cafe  Eatery @Sawangan,"Sawangan Lama, Kec. Sawangan, Kota Depok, Jawa Barat 16511","Kec. Sawangan, Kota Depok",SULAWESI TENGGARA,16511.0,Indonesia, 08179786808,,,-6.4056875,106.7504375,https://maps.google.com/?cid=0x0:0xe54230f26b980d6f,
cafe,Kafe,Lawe caffe tangerang,"Jalan Pasilian lama depan toko H bono, Kabupaten Tangerang, Banten 15550",Kabupaten Tangerang,SULAWESI TENGGARA,15550.0,Indonesia, 081225734436,,,-6.0651898,106.423143,https://maps.google.com/?cid=0x0:0xe25fca4c6acb3089,
cafe,Kafe,Lawe Caffe Bandung,"Sukamanah Neglasari, Puncaksari, Kec. Sindangkerta, Kabupaten Bandung Barat, Jawa Barat 40563","Puncaksari, Kec. Sindangkerta, Kabupaten Bandung Barat",SULAWESI TENGGARA,40563.0,Indonesia, 081225734436,,,-6.9900598,107.3954421,https://maps.google.com/?cid=0x0:0xe90f60f6ea90bceb,
cafe,Kafe,law coffee,"4H9G+CMC, Jl. Perintis, Sarijadi, Kec. Sukasari, Kota Bandung, Jawa Barat 40151","Jl. Perintis, Sarijadi, Kec. Sukasari, Kota Bandung",SULAWESI TENGGARA,40151.0,Indonesia, 081809395891,,,-6.8814273,107.5766514,https://maps.google.com/?cid=0x0:0x8ac89e1a0fdfa42e,
cafe,cafe,Kec. Maginti,"Kabupaten Muna, Sulawesi Tenggara","Kabupaten Muna, Sulawesi Tenggara",SULAWESI TENGGARA,,Indonesia,,,,-4.8523016,122.3273334,https://maps.google.com/?cid=0x0:0x827d1cf3623f4296,
cafe,Kafe,Cafe AM:PM 23,"582H+Q3P, Jl.La Tohue, Pajala, Kec. Maginti, Kabupaten Muna, Sulawesi Tenggara 93664","Jl.La Tohue, Pajala, Kec. Maginti, Kabupaten Muna",SULAWESI TENGGARA,93664.0,Indonesia,,,,-4.8480407,122.3277168,https://maps.google.com/?cid=0x0:0x87d64a2953f1c76e,
cafe,Rumah Makan,RM. Angin Mammiri Mubar,"49XP+W95, Abadi Jaya, Kec. Maginti, Kabupaten Muna, Sulawesi Tenggara","Kabupaten Muna, Sulawesi Tenggara",SULAWESI TENGGARA,,Indonesia, 082257712902,,,-4.8502331,122.3859768,https://maps.google.com/?cid=0x0:0x3212dbb7c28b2f45,
cafe,Kedai Kopi,Kedai DâLapan 5,"Jl. Poros, Mekar Jaya, Tiworo Tengah, Muna Barat, Sulawesi Tenggara","Muna Barat, Sulawesi Tenggara",SULAWESI TENGGARA,,Indonesia, 081313102485,,,-4.8244174,122.3986712,https://maps.google.com/?cid=0x0:0xc5822acca499da4d,
cafe,Restoran,Rm.mi3 Bude mitri,"Jl. Poros No.desa, Kasimpa Jaya, Tiworo Sel., Kabupaten Muna, Sulawesi Tenggara 93664","Kasimpa Jaya, Tiworo Sel., Kabupaten Muna",SULAWESI TENGGARA,93664.0,Indonesia, 082216146108,,,-4.880639,122.384752,https://maps.google.com/?cid=0x0:0x1a8fa12652bbc047,
cafe,Kedai Kopi,FOUR_Q RESTO  CAFE,"6C29+577, Waumere, Kec. Tiworo Kepulauan, Kabupaten Muna, Sulawesi Tenggara 93653","Waumere, Kec. Tiworo Kepulauan, Kabupaten Muna",SULAWESI TENGGARA,93653.0,Indonesia,,,,-4.7995815,122.4181658,https://maps.google.com/?cid=0x0:0x25d79af222d44770,
cafe,Kafe,Cafe Langit-Langit Tugu Jati Raha,"Pulau, Kabupaten Muna, Sulawesi Tenggara 93611",Kabupaten Muna,SULAWESI TENGGARA,93611.0,Indonesia, 082290732788,,,-4.8407065,122.7261308,https://maps.google.com/?cid=0x0:0xdd61b366be370229,
cafe,Kafe,Kedai.Logika,"49XX+3QC, Parura Jaya, Tiworo Sel., Kabupaten Muna, Sulawesi Tenggara","Kabupaten Muna, Sulawesi Tenggara",SULAWESI TENGGARA,,Indonesia, 085878292709,,,-4.8522707,122.399381,https://maps.google.com/?cid=0x0:0x13a321e0facc111e,
cafe,Restoran,RM.BUNDA,"49GV+M8J, Jln. Poros desa, Kasimpa Jaya, Tiworo Sel., Kabupaten Muna, Sulawesi Tenggara","Kabupaten Muna, Sulawesi Tenggara",SULAWESI TENGGARA,,Indonesia,,,,-4.8732959,122.3932694,https://maps.google.com/?cid=0x0:0x22df433f3039fed2,
cafe,cafe,Pulau Maginti,"Maginti, Kec. Maginti, Kabupaten Muna, Sulawesi Tenggara","Kabupaten Muna, Sulawesi Tenggara",SULAWESI TENGGARA,,Indonesia,,,,-4.8372222,122.1919444,https://maps.google.com/?cid=0x0:0xb50bb25473617676,
cafe,cafe,Sulawesi Tenggara 93655,"Kabupaten Muna, Sulawesi Tenggara","Kabupaten Muna, Sulawesi Tenggara",SULAWESI TENGGARA,,Indonesia,,,,-4.7167048,122.593828,https://maps.google.com/?cid=0x0:0x2099dcc445aba1a5,
cafe,Kedai Kopi,My The Cafe,"Jl. Yos Sudarso, Napabalano, Kec. Napabalano, Kabupaten Muna",Kabupaten Muna,SULAWESI TENGGARA,,Indonesia, 082262701472,,,-4.6269075,122.712837,https://maps.google.com/?cid=0x0:0x62657535307edd86,
cafe,Rumah Makan,Nongky House,"7GXJ+2VP, Desa, Tj. Pinang, Kec. Kusambi, Kab. Muna Barat",Kab. Muna Barat,SULAWESI TENGGARA,,Indonesia,,,,-4.7024079,122.5322168,https://maps.google.com/?cid=0x0:0x44536a6f3c715b00,
cafe,cafe,Kios Wa Nande,"8MM7+QF2, Langkumapo, Kec. Napabalano, Kabupaten Muna, Sulawesi Tenggara","Kabupaten Muna, Sulawesi Tenggara",SULAWESI TENGGARA,,Indonesia,,,,-4.6656082,122.6636336,https://maps.google.com/?cid=0x0:0x65f84f545b5230da,
cafe,Kedai Kopi,Pondok Cafe Oluha,"7G3C+9P4, Unnamed Road, Kasakamu, Kec. Kusambi, Kabupaten Muna, Sulawesi Tenggara 93653","Unnamed Road, Kasakamu, Kec. Kusambi, Kabupaten Muna",SULAWESI TENGGARA,93653.0,Indonesia,,,,-4.7466102,122.5218299,https://maps.google.com/?cid=0x0:0x1e129ac140f6345a,
cafe,Dapur Umum,RM.KURNIA,"Jl. Sugi Manuru, Kusambi, Kec. Kusambi, Kabupaten Muna, Sulawesi Tenggara 93657","Kusambi, Kec. Kusambi, Kabupaten Muna",SULAWESI TENGGARA,93657.0,Indonesia, 085342050541,,,-4.7560488,122.5700041,https://maps.google.com/?cid=0x0:0x2ba2f4409c09830,
cafe,Kantor Pemerintahan Regional,KUA CAFE,"6J7Q+VJ3, Wakapodo, Kec. Watopute, Kabupaten Muna, Sulawesi Tenggara 93656","Wakapodo, Kec. Watopute, Kabupaten Muna",SULAWESI TENGGARA,93656.0,Indonesia, 082342136577,,,-4.7853627,122.6390489,https://maps.google.com/?cid=0x0:0x791dd1d08fe1a767,
cafe,Restoran,Rumah Makan Kharisma + karaoke,"7G2Q+4RQ, Unnamed Road, Guali, Kec. Kusambi, Kabupaten Muna, Sulawesi Tenggara 93653","Unnamed Road, Guali, Kec. Kusambi, Kabupaten Muna",SULAWESI TENGGARA,93653.0,Indonesia, 082343906801,,,-4.7496689,122.5395965,https://maps.google.com/?cid=0x0:0x9c0bfd1e7246f930,
cafe,Rumah Makan,SUN KULINER,"Jalan Dermaga Nelayan Tanjung Pinang Kusambi, Barat, Kabupaten Muna, Sulawesi Tenggara 93655","Barat, Kabupaten Muna",SULAWESI TENGGARA,93655.0,Indonesia, 082293629048,,,-4.7019375,122.5316694,https://maps.google.com/?cid=0x0:0xd08fba8575691480,
cafe,cafe,Kedai Rafa,"9PC4+VVH, Jl. Paelangkuta, Napabalano, Kec. Napabalano, Kabupaten Muna, Sulawesi Tenggara 93654","Jl. Paelangkuta, Napabalano, Kec. Napabalano, Kabupaten Muna",SULAWESI TENGGARA,93654.0,Indonesia,,,,-4.6278081,122.7072372,https://maps.google.com/?cid=0x0:0x36a8a069517698ad,
cafe,Kedai Kopi,Empat Lentera Timur,"Jl. Poros Raha-Kusambi No.16, Bangkali, Kec. Watopute, Kabupaten Muna, Sulawesi Tenggara 93656","Bangkali, Kec. Watopute, Kabupaten Muna",SULAWESI TENGGARA,93656.0,Indonesia, 085286541908,,,-4.8200652,122.6683348,https://maps.google.com/?cid=0x0:0xff52ba4432597614,
cafe,Mi,Rumah Makan Mie Pangsit Janoko 2,"6HWG+526, Jl. Sugi Manuru, Kusambi, Kec. Kusambi, Kabupaten Muna, Sulawesi Tenggara 93657","Jl. Sugi Manuru, Kusambi, Kec. Kusambi, Kabupaten Muna",SULAWESI TENGGARA,93657.0,Indonesia,,,,-4.7545832,122.575007,https://maps.google.com/?cid=0x0:0xc217f95a36ba5398,
cafe,Kedai Kopi,Cafe Double A,"5GQ9+QG2, Lafinde, Kec. Barangka, Kabupaten Muna, Sulawesi Tenggara","Kabupaten Muna, Sulawesi Tenggara",SULAWESI TENGGARA,,Indonesia,,,,-4.810609,122.5187532,https://maps.google.com/?cid=0x0:0x3f197f7819251da5,
cafe,Rumah Makan,Warkop Kedai Tampo,"9PF3+CMH, Napabalano, Kec. Napabalano, Kabupaten Muna, Sulawesi Tenggara 93654","Napabalano, Kec. Napabalano, Kabupaten Muna",SULAWESI TENGGARA,93654.0,Indonesia,,,,-4.626431,122.7042225,https://maps.google.com/?cid=0x0:0x8784ee897d0d3555,
cafe,Otoritas Pelabuhan,Pelabuhan Tanjung Pinang Muna Barat,"7GXJ+6Q9, Bakeramba",,SULAWESI TENGGARA,,Indonesia,,,,-4.7019544,122.5319978,https://maps.google.com/?cid=0x0:0xdda60d49b3918f05,
cafe,Padang,Warung makan sea food Tampo,"9PF5+MCM, Unnamed Road, Napabalano, Muna Regency, South East Sulawesi 93654","Unnamed Road, Napabalano, Muna Regency",SULAWESI TENGGARA,93654.0,Indonesia,,,,-4.6257944,122.7085585,https://maps.google.com/?cid=0x0:0x94c857283bb229f5,
cafe,Rumah Makan,"Rumah Makan MAWAR, ATK dan Fotocopy","Guali Kusambi, Barat, Kabupaten Muna, Sulawesi Tenggara 93653","Barat, Kabupaten Muna",SULAWESI TENGGARA,93653.0,Indonesia, 085240999950,,,-4.7497645,122.5437293,https://maps.google.com/?cid=0x0:0x98daf1cf5a1b583d,
cafe,Jembatan,Pelabuhan tampo,"9PF5+J99, Jl. Pelabuhan Tampo, Napabalano, Kec. Napabalano, Kabupaten Muna, Sulawesi Tenggara 93654","Jl. Pelabuhan Tampo, Napabalano, Kec. Napabalano, Kabupaten Muna",SULAWESI TENGGARA,93654.0,Indonesia,,,,-4.6256351,122.7078658,https://maps.google.com/?cid=0x0:0xe87e85c930ae1e11,
cafe,Toko,Warung Mama Dila,"8H4J+JP3, Lahaji, Kec. Napano Kusambi, Barat, Kabupaten Muna, Sulawesi Tenggara","Kabupaten Muna, Sulawesi Tenggara",SULAWESI TENGGARA,,Indonesia,,,,-4.6934957,122.5817847,https://maps.google.com/?cid=0x0:0xa28131d2302a7a9,
cafe,Es Krim,Erl,"6HXG+G5, Kusambi, Kec. Kusambi, Kabupaten Muna, Sulawesi Tenggara","Kabupaten Muna, Sulawesi Tenggara",SULAWESI TENGGARA,,Indonesia,,,,-4.7512106,122.5754569,https://maps.google.com/?cid=0x0:0xf205bc167f9045f6,
cafe,Kafe,Black Coffee Paste,"Lamondowo, Kec. Andowia, Kabupaten Konawe Utara, Sulawesi Tenggara 93353","Kec. Andowia, Kabupaten Konawe Utara",SULAWESI TENGGARA,93353.0,Indonesia, 082333528520,,,-3.5352039,122.1380135,https://maps.google.com/?cid=0x0:0xb6a99c801e000c23,
cafe,Hidangan Laut,KEDAI MURA TAMPO,"Tampo, Napabalano Jln. Laganapu/kapulu-pulu, Lingkungan 6, Tampo, Kabupaten Muna, Sulawesi Tenggara 93654","Napabalano Jln. Laganapu/kapulu-pulu, Lingkungan 6, Tampo, Kabupaten Muna",SULAWESI TENGGARA,93654.0,Indonesia,,,,-4.6195478,122.6979558,https://maps.google.com/?cid=0x0:0x4e294171529bf45c,
cafe,Hidangan Laut,Warung makan avan,"9PF5+VFG Pelabuhan feri, Tampo, Kec. Napabalano, Kabupaten Muna, Sulawesi Tenggara 93654","Tampo, Kec. Napabalano, Kabupaten Muna",SULAWESI TENGGARA,93654.0,Indonesia, 082346754292,,,-4.6253221,122.7087178,https://maps.google.com/?cid=0x0:0x4e553b5d557a2d28,
cafe,Hidangan Laut,RUMAH MAKAN CITRA KABAWO,"9PF5+J99, Jl. Pelabuhan Tampo, Napabalano, Kec. Napabalano, Kabupaten Muna, Sulawesi Tenggara 93654","Jl. Pelabuhan Tampo, Napabalano, Kec. Napabalano, Kabupaten Muna",SULAWESI TENGGARA,93654.0,Indonesia,,,,-4.6259724,122.7084696,https://maps.google.com/?cid=0x0:0xe261d547b6c34c13,
cafe,Kafe,SYAHIR CAFE,"6J7Q+VJ3, Wakapodo, Kec. Watopute, Kabupaten Muna, Sulawesi Tenggara 93656","Wakapodo, Kec. Watopute, Kabupaten Muna",SULAWESI TENGGARA,93656.0,Indonesia, 082292711805,,,-4.7853627,122.6390489,https://maps.google.com/?cid=0x0:0xc3023ae67716ab9b,
cafe,Toko umum,Fatiyah foodiess!,"9J43+PPW, Latawe, Kec. Napano Kusambi, Kabupaten Muna, Sulawesi Tenggara","Kabupaten Muna, Sulawesi Tenggara",SULAWESI TENGGARA,,Indonesia,,,,-4.6431339,122.604337,https://maps.google.com/?cid=0x0:0xf6c3100d5c869aa1,
cafe,cafe,Sulawesi Tenggara 93657,"Kabupaten Muna, Sulawesi Tenggara","Kabupaten Muna, Sulawesi Tenggara",SULAWESI TENGGARA,,Indonesia,,,,-4.8269737,122.5259596,https://maps.google.com/?cid=0x0:0x6227f17791af231c,
cafe,cafe,Kec. Sawerigadi,"Kabupaten Muna, Sulawesi Tenggara","Kabupaten Muna, Sulawesi Tenggara",SULAWESI TENGGARA,,Indonesia,,,,-4.7903102,122.491523,https://maps.google.com/?cid=0x0:0xc0b7ac172b281750,
cafe,Kedai Kopi,SIMPANG TIGA COFFEE,"Jl. Gatot Subroto, Raha II, Kec. Katobu, Kabupaten Muna, Sulawesi Tenggara 93614","Raha II, Kec. Katobu, Kabupaten Muna",SULAWESI TENGGARA,93614.0,Indonesia, 082259491963,,,-4.8256706,122.724067,https://maps.google.com/?cid=0x0:0xa8ffe874e3c24a99,
cafe,cafe,Kedai Satry,"4G59+Q37, Wakontu, Kec. Wadaga, Kabupaten Muna, Sulawesi Tenggara","Kabupaten Muna, Sulawesi Tenggara",SULAWESI TENGGARA,,Indonesia,,,,-4.8905755,122.5176768,https://maps.google.com/?cid=0x0:0xa86abf57fa016985,
cafe,cafe,Kec. Tiworo Kepulauan,"Kabupaten Muna, Sulawesi Tenggara","Kabupaten Muna, Sulawesi Tenggara",SULAWESI TENGGARA,,Indonesia,,,,-4.7783688,122.4353995,https://maps.google.com/?cid=0x0:0xb9b9310dc3cd9cb5,
cafe,Kedai Kopi,FOUR_Q RESTO  CAFE,"6C29+577, Waumere, Kec. Tiworo Kepulauan, Kabupaten Muna, Sulawesi Tenggara 93653","Waumere, Kec. Tiworo Kepulauan, Kabupaten Muna",SULAWESI TENGGARA,93653.0,Indonesia,,,,-4.7995815,122.4181658,https://maps.google.com/?cid=0x0:0x25d79af222d44770,
cafe,Restoran,LAPAK REZEKI,"693X+5VR, Suka Damai, Tiworo Tengah, Kabupaten Muna, Sulawesi Tenggara 93653","Suka Damai, Tiworo Tengah, Kabupaten Muna",SULAWESI TENGGARA,93653.0,Indonesia, 085241941345,,,-4.7970071,122.3996325,https://maps.google.com/?cid=0x0:0x6e1a4c0223da5a44,
cafe,Restoran,RM.SUMBER REJEKI,"Wapae Jaya, Tiworo Tengah, Kabupaten Muna, Sulawesi Tenggara 93653","Tiworo Tengah, Kabupaten Muna",SULAWESI TENGGARA,93653.0,Indonesia, 082394473566,,,-4.8100989,122.4033162,https://maps.google.com/?cid=0x0:0x7b7aef22698f365b,
cafe,Kedai Kopi,Warung mamet,"5CW8+VFW, Waumere, Kec. Tiworo Kepulauan, Kabupaten Muna, Sulawesi Tenggara 93653","Waumere, Kec. Tiworo Kepulauan, Kabupaten Muna",SULAWESI TENGGARA,93653.0,Indonesia,,,,-4.8029014,122.4171138,https://maps.google.com/?cid=0x0:0xf5d4ca9322721ebb,
cafe,Rumah Makan,Kedai Bukit Ganarum,"5CQ3+VM5, Wapae Jaya, Tiworo Tengah, Kabupaten Muna, Sulawesi Tenggara 93653","Wapae Jaya, Tiworo Tengah, Kabupaten Muna",SULAWESI TENGGARA,93653.0,Indonesia,,,,-4.8103644,122.4042437,https://maps.google.com/?cid=0x0:0x918db8a066026427,
cafe,Restoran,RM Dapoer Nanda,"depan pura sp 1, Jl. Poros, Wapae Jaya, Tiworo Tengah, Kabupaten Muna, Sulawesi Tenggara 93653","Jl. Poros, Wapae Jaya, Tiworo Tengah, Kabupaten Muna",SULAWESI TENGGARA,93653.0,Indonesia, 085243858687,,,-4.8216307,122.3999437,https://maps.google.com/?cid=0x0:0x94c0a1d62c76ff03,
cafe,Kedai Kopi,Kedai DâLapan 5,"Jl. Poros, Mekar Jaya, Tiworo Tengah, Muna Barat, Sulawesi Tenggara","Muna Barat, Sulawesi Tenggara",SULAWESI TENGGARA,,Indonesia, 081313102485,,,-4.8244174,122.3986712,https://maps.google.com/?cid=0x0:0xc5822acca499da4d,
cafe,Rumah Makan,Kedai Altha (Rumah Makan Dan Gorengan) Kambara,"6C5M+34M, Unnamed Road, Tiworo, Kec. Tiworo Kepulauan, Kabupaten Muna, Sulawesi Tenggara 93653","Unnamed Road, Tiworo, Kec. Tiworo Kepulauan, Kabupaten Muna",SULAWESI TENGGARA,93653.0,Indonesia, 081340560708,,,-4.7922784,122.4327919,https://maps.google.com/?cid=0x0:0x753208f7ae99810,
cafe,Restoran,Rumah makan KAMBOI,"5CXQ+3M7, tiworo, Kec. Tikep, Barat, Kabupaten Muna, Sulawesi Tenggara 93653","tiworo, Kec. Tikep, Barat, Kabupaten Muna",SULAWESI TENGGARA,93653.0,Indonesia, 085256580357,,,-4.8024126,122.4390849,https://maps.google.com/?cid=0x0:0x3016ddf851026f5a,
cafe,Bakso,RM BAKSO YULIA,"5CV3+M6Q, Jl. Ade Irma Nasution, Suka Damai, Tiworo Tengah, Kabupaten Muna, Sulawesi Tenggara 93653","Jl. Ade Irma Nasution, Suka Damai, Tiworo Tengah, Kabupaten Muna",SULAWESI TENGGARA,93653.0,Indonesia, 082190874630,,,-4.8057958,122.403112,https://maps.google.com/?cid=0x0:0xe2eeb43fb52119e7,
cafe,Kedai Kopi,Cafe Double A,"5GQ9+QG2, Lafinde, Kec. Barangka, Kabupaten Muna, Sulawesi Tenggara","Kabupaten Muna, Sulawesi Tenggara",SULAWESI TENGGARA,,Indonesia,,,,-4.810609,122.5187532,https://maps.google.com/?cid=0x0:0x3f197f7819251da5,
cafe,Restoran,R.M ZAHRANI,"6C3M+VJ9, Jl. Poros, Tiworo, Kec. Tiworo Kepulauan, Kabupaten Muna, Sulawesi Tenggara 93653","Jl. Poros, Tiworo, Kec. Tiworo Kepulauan, Kabupaten Muna",SULAWESI TENGGARA,93653.0,Indonesia, 082194449927,,,-4.7953428,122.4340987,https://maps.google.com/?cid=0x0:0xa1a8b62c65e59c59,
cafe,Rumah Makan,RM. Mbak Elva,"59FX+22G, Mekar Jaya, Tiworo Tengah, Kabupaten Muna, Sulawesi Tenggara","Kabupaten Muna, Sulawesi Tenggara",SULAWESI TENGGARA,,Indonesia,,,,-4.8274465,122.3975803,https://maps.google.com/?cid=0x0:0x356e9856c68d63f0,
cafe,Kedai Kopi,SIMPANG TIGA COFFEE,"Jl. Gatot Subroto, Raha II, Kec. Katobu, Kabupaten Muna, Sulawesi Tenggara 93614","Raha II, Kec. Katobu, Kabupaten Muna",SULAWESI TENGGARA,93614.0,Indonesia, 082259491963,,,-4.8256706,122.724067,https://maps.google.com/?cid=0x0:0xa8ffe874e3c24a99,
cafe,Restoran,RUMAH MAKAN PARAIKATTE,"5CQ3+MVC, Jl. Poros, Wapae Jaya, Tiworo Tengah, Kabupaten Muna, Sulawesi Tenggara 93653","Jl. Poros, Wapae Jaya, Tiworo Tengah, Kabupaten Muna",SULAWESI TENGGARA,93653.0,Indonesia,,,,-4.810804,122.4046295,https://maps.google.com/?cid=0x0:0x707309880af24c67,
cafe,Restoran,Rumah Makan Fista,"5CP3+RGR, Wapae Jaya, Tiworo Tengah, Kabupaten Muna, Sulawesi Tenggara 93653","Wapae Jaya, Tiworo Tengah, Kabupaten Muna",SULAWESI TENGGARA,93653.0,Indonesia,,,,-4.812876,122.4037605,https://maps.google.com/?cid=0x0:0x7e6f854e71a67cf5,
cafe,Kafe,Kedai.Logika,"49XX+3QC, Parura Jaya, Tiworo Sel., Kabupaten Muna, Sulawesi Tenggara","Kabupaten Muna, Sulawesi Tenggara",SULAWESI TENGGARA,,Indonesia, 085878292709,,,-4.8522707,122.399381,https://maps.google.com/?cid=0x0:0x13a321e0facc111e,
cafe,Restoran,KEDAI GBM,"Wapae Jaya, Tiworo Tengah, Kabupaten Muna, Sulawesi Tenggara","Kabupaten Muna, Sulawesi Tenggara",SULAWESI TENGGARA,,Indonesia,,,,-4.8174651,122.4015095,https://maps.google.com/?cid=0x0:0x13ee249644419315,
cafe,Restoran,Rm.Makan Barakati,"5CR5+JJG, Jl. Morundu, Wapae Jaya, Tiworo Tengah, Kabupaten Muna, Sulawesi Tenggara 93653","Jl. Morundu, Wapae Jaya, Tiworo Tengah, Kabupaten Muna",SULAWESI TENGGARA,93653.0,Indonesia,,,,-4.808432,122.4090888,https://maps.google.com/?cid=0x0:0xa971f7348faeed34,
cafe,Rumah Makan,Warung Begadang Metro,"Wapae Jaya, Tiworo Tengah, Kabupaten Muna, Sulawesi Tenggara 93653","Tiworo Tengah, Kabupaten Muna",SULAWESI TENGGARA,93653.0,Indonesia, 085255000027,,,-4.8102857,122.4041631,https://maps.google.com/?cid=0x0:0x3edc35c034829d23,
cafe,Padang,RM. AL-BAGHDADI BANDUNG JABAR (MUBAR),"5CQ3+GMG, Wapae Jaya, Tiworo Tengah, Kabupaten Muna, Sulawesi Tenggara 93653","Wapae Jaya, Tiworo Tengah, Kabupaten Muna",SULAWESI TENGGARA,93653.0,Indonesia, 082187018444,,,-4.8111995,122.404215,https://maps.google.com/?cid=0x0:0xd39f97a1ff0ee162,
cafe,cafe,Tiworo Sel.,"Kabupaten Muna, Sulawesi Tenggara","Kabupaten Muna, Sulawesi Tenggara",SULAWESI TENGGARA,,Indonesia,,,,-4.8877531,122.3900901,https://maps.google.com/?cid=0x0:0xb8fa848ebeff23ff,
cafe,Restoran,Rm.mi3 Bude mitri,"Jl. Poros No.desa, Kasimpa Jaya, Tiworo Sel., Kabupaten Muna, Sulawesi Tenggara 93664","Kasimpa Jaya, Tiworo Sel., Kabupaten Muna",SULAWESI TENGGARA,93664.0,Indonesia, 082216146108,,,-4.880639,122.384752,https://maps.google.com/?cid=0x0:0x1a8fa12652bbc047,
cafe,Kafe,Kedai.Logika,"49XX+3QC, Parura Jaya, Tiworo Sel., Kabupaten Muna, Sulawesi Tenggara","Kabupaten Muna, Sulawesi Tenggara",SULAWESI TENGGARA,,Indonesia, 085878292709,,,-4.8522707,122.399381,https://maps.google.com/?cid=0x0:0x13a321e0facc111e,
cafe,Rumah Makan,RM. Mbak Elva,"59FX+22G, Mekar Jaya, Tiworo Tengah, Kabupaten Muna, Sulawesi Tenggara","Kabupaten Muna, Sulawesi Tenggara",SULAWESI TENGGARA,,Indonesia,,,,-4.8274465,122.3975803,https://maps.google.com/?cid=0x0:0x356e9856c68d63f0,
cafe,Restoran,RM.BUNDA,"49GV+M8J, Jln. Poros desa, Kasimpa Jaya, Tiworo Sel., Kabupaten Muna, Sulawesi Tenggara","Kabupaten Muna, Sulawesi Tenggara",SULAWESI TENGGARA,,Indonesia,,,,-4.8732959,122.3932694,https://maps.google.com/?cid=0x0:0x22df433f3039fed2,
cafe,Kedai Kopi,Cafe Ta Coffee Tarigan,"V6XF+P7H, Jl. Poros Kendari - Motaha, Mataiwoi, Kec. Mowila, Kabupaten Konawe Selatan, Sulawesi Tenggara","Kabupaten Konawe Selatan, Sulawesi Tenggara",SULAWESI TENGGARA,,Indonesia, 081362361612,,,-4.1006875,122.2232397,https://maps.google.com/?cid=0x0:0xf6df996a1b0c4ac5,
cafe,Kedai Kopi,Bang Kopi Munar,"5CJ2+JH9, Mekar Jaya, Tiworo Tengah, Kabupaten Muna, Sulawesi Tenggara 93653","Mekar Jaya, Tiworo Tengah, Kabupaten Muna",SULAWESI TENGGARA,93653.0,Indonesia,,,,-4.8184547,122.4014926,https://maps.google.com/?cid=0x0:0xdaa69da658a362d3,
cafe,Restoran,RM.SUMBER REJEKI,"Wapae Jaya, Tiworo Tengah, Kabupaten Muna, Sulawesi Tenggara 93653","Tiworo Tengah, Kabupaten Muna",SULAWESI TENGGARA,93653.0,Indonesia, 082394473566,,,-4.8100989,122.4033162,https://maps.google.com/?cid=0x0:0x7b7aef22698f365b,
cafe,Restoran,RM Dapoer Nanda,"depan pura sp 1, Jl. Poros, Wapae Jaya, Tiworo Tengah, Kabupaten Muna, Sulawesi Tenggara 93653","Jl. Poros, Wapae Jaya, Tiworo Tengah, Kabupaten Muna",SULAWESI TENGGARA,93653.0,Indonesia, 085243858687,,,-4.8216307,122.3999437,https://maps.google.com/?cid=0x0:0x94c0a1d62c76ff03,
cafe,Kafe,Cafe AM:PM 23,"582H+Q3P, Jl.La Tohue, Pajala, Kec. Maginti, Kabupaten Muna, Sulawesi Tenggara 93664","Jl.La Tohue, Pajala, Kec. Maginti, Kabupaten Muna",SULAWESI TENGGARA,93664.0,Indonesia,,,,-4.8480407,122.3277168,https://maps.google.com/?cid=0x0:0x87d64a2953f1c76e,
cafe,Rumah Makan,Kedai Bukit Ganarum,"5CQ3+VM5, Wapae Jaya, Tiworo Tengah, Kabupaten Muna, Sulawesi Tenggara 93653","Wapae Jaya, Tiworo Tengah, Kabupaten Muna",SULAWESI TENGGARA,93653.0,Indonesia,,,,-4.8103644,122.4042437,https://maps.google.com/?cid=0x0:0x918db8a066026427,
cafe,Bakso,RM. Mas Bambang,"Jl. Poros No.2, Mekar Jaya, Tiworo Tengah, Kabupaten Muna, Sulawesi Tenggara 93648","Mekar Jaya, Tiworo Tengah, Kabupaten Muna",SULAWESI TENGGARA,93648.0,Indonesia,,,,-4.8241483,122.3987769,https://maps.google.com/?cid=0x0:0x7266b936fdc07088,
cafe,Brunch,Warung Bakso Padamuru,"Mekar Jaya, Tiworo Tengah, Kabupaten Muna, Sulawesi Tenggara","Kabupaten Muna, Sulawesi Tenggara",SULAWESI TENGGARA,,Indonesia, 082271007634,,,-4.8315347,122.395538,https://maps.google.com/?cid=0x0:0xeafb7a9d06400acb,
cafe,Restoran,KEDAI GBM,"Wapae Jaya, Tiworo Tengah, Kabupaten Muna, Sulawesi Tenggara","Kabupaten Muna, Sulawesi Tenggara",SULAWESI TENGGARA,,Indonesia,,,,-4.8174651,122.4015095,https://maps.google.com/?cid=0x0:0x13ee249644419315,
cafe,Rumah Makan,RM. Angin Mammiri Mubar,"49XP+W95, Abadi Jaya, Kec. Maginti, Kabupaten Muna, Sulawesi Tenggara","Kabupaten Muna, Sulawesi Tenggara",SULAWESI TENGGARA,,Indonesia, 082257712902,,,-4.8502331,122.3859768,https://maps.google.com/?cid=0x0:0x3212dbb7c28b2f45,
cafe,Restoran,Rumah Makan Fista,"5CP3+RGR, Wapae Jaya, Tiworo Tengah, Kabupaten Muna, Sulawesi Tenggara 93653","Wapae Jaya, Tiworo Tengah, Kabupaten Muna",SULAWESI TENGGARA,93653.0,Indonesia,,,,-4.812876,122.4037605,https://maps.google.com/?cid=0x0:0x7e6f854e71a67cf5,
cafe,Restoran,RUMAH MAKAN PARAIKATTE,"5CQ3+MVC, Jl. Poros, Wapae Jaya, Tiworo Tengah, Kabupaten Muna, Sulawesi Tenggara 93653","Jl. Poros, Wapae Jaya, Tiworo Tengah, Kabupaten Muna",SULAWESI TENGGARA,93653.0,Indonesia,,,,-4.810804,122.4046295,https://maps.google.com/?cid=0x0:0x707309880af24c67,
cafe,cafe,Warung Bakso Jawa Barat,"5C4V+FMP, Lawada Jaya, Kec. Sawerigadi, Kabupaten Muna, Sulawesi Tenggara 93653","Lawada Jaya, Kec. Sawerigadi, Kabupaten Muna",SULAWESI TENGGARA,93653.0,Indonesia,,,,-4.8448032,122.442409,https://maps.google.com/?cid=0x0:0xe68f5355a6be8901,
cafe,cafe,Rumah Makan Teratai,"597R+HV7, Mekar Jaya, Tiworo Tengah, Kabupaten Muna, Sulawesi Tenggara","Kabupaten Muna, Sulawesi Tenggara",SULAWESI TENGGARA,,Indonesia,,,,-4.8360997,122.3921833,https://maps.google.com/?cid=0x0:0x76c04a2524a11448,
cafe,cafe,RM. Katulistiwa,"499M+FH4, Jl. Poros, Kasimpa Jaya, Tiworo Sel., Kabupaten Muna, Sulawesi Tenggara 93664","Jl. Poros, Kasimpa Jaya, Tiworo Sel., Kabupaten Muna",SULAWESI TENGGARA,93664.0,Indonesia,,,,-4.8813585,122.3839561,https://maps.google.com/?cid=0x0:0x82db30f01703eace,
cafe,cafe,Tiworo Tengah,"Kabupaten Muna, Sulawesi Tenggara","Kabupaten Muna, Sulawesi Tenggara",SULAWESI TENGGARA,,Indonesia,,,,-4.7902626,122.3787597,https://maps.google.com/?cid=0x0:0x185569b801f89ceb,
cafe,Kedai Kopi,FOUR_Q RESTO  CAFE,"6C29+577, Waumere, Kec. Tiworo Kepulauan, Kabupaten Muna, Sulawesi Tenggara 93653","Waumere, Kec. Tiworo Kepulauan, Kabupaten Muna",SULAWESI TENGGARA,93653.0,Indonesia,,,,-4.7995815,122.4181658,https://maps.google.com/?cid=0x0:0x25d79af222d44770,
cafe,Restoran,LAPAK REZEKI,"693X+5VR, Suka Damai, Tiworo Tengah, Kabupaten Muna, Sulawesi Tenggara 93653","Suka Damai, Tiworo Tengah, Kabupaten Muna",SULAWESI TENGGARA,93653.0,Indonesia, 085241941345,,,-4.7970071,122.3996325,https://maps.google.com/?cid=0x0:0x6e1a4c0223da5a44,
cafe,Restoran,RM.SUMBER REJEKI,"Wapae Jaya, Tiworo Tengah, Kabupaten Muna, Sulawesi Tenggara 93653","Tiworo Tengah, Kabupaten Muna",SULAWESI TENGGARA,93653.0,Indonesia, 082394473566,,,-4.8100989,122.4033162,https://maps.google.com/?cid=0x0:0x7b7aef22698f365b,
cafe,Rumah Makan,Kedai Bukit Ganarum,"5CQ3+VM5, Wapae Jaya, Tiworo Tengah, Kabupaten Muna, Sulawesi Tenggara 93653","Wapae Jaya, Tiworo Tengah, Kabupaten Muna",SULAWESI TENGGARA,93653.0,Indonesia,,,,-4.8103644,122.4042437,https://maps.google.com/?cid=0x0:0x918db8a066026427,
cafe,Restoran,RM Dapoer Nanda,"depan pura sp 1, Jl. Poros, Wapae Jaya, Tiworo Tengah, Kabupaten Muna, Sulawesi Tenggara 93653","Jl. Poros, Wapae Jaya, Tiworo Tengah, Kabupaten Muna",SULAWESI TENGGARA,93653.0,Indonesia, 085243858687,,,-4.8216307,122.3999437,https://maps.google.com/?cid=0x0:0x94c0a1d62c76ff03,
cafe,Rumah Makan,RM. Mbak Elva,"59FX+22G, Mekar Jaya, Tiworo Tengah, Kabupaten Muna, Sulawesi Tenggara","Kabupaten Muna, Sulawesi Tenggara",SULAWESI TENGGARA,,Indonesia,,,,-4.8274465,122.3975803,https://maps.google.com/?cid=0x0:0x356e9856c68d63f0,
cafe,Kedai Kopi,Kedai DâLapan 5,"Jl. Poros, Mekar Jaya, Tiworo Tengah, Muna Barat, Sulawesi Tenggara","Muna Barat, Sulawesi Tenggara",SULAWESI TENGGARA,,Indonesia, 081313102485,,,-4.8244174,122.3986712,https://maps.google.com/?cid=0x0:0xc5822acca499da4d,
cafe,Kedai Kopi,Warung mamet,"5CW8+VFW, Waumere, Kec. Tiworo Kepulauan, Kabupaten Muna, Sulawesi Tenggara 93653","Waumere, Kec. Tiworo Kepulauan, Kabupaten Muna",SULAWESI TENGGARA,93653.0,Indonesia,,,,-4.8029014,122.4171138,https://maps.google.com/?cid=0x0:0xf5d4ca9322721ebb,
cafe,Bakso,RM BAKSO YULIA,"5CV3+M6Q, Jl. Ade Irma Nasution, Suka Damai, Tiworo Tengah, Kabupaten Muna, Sulawesi Tenggara 93653","Jl. Ade Irma Nasution, Suka Damai, Tiworo Tengah, Kabupaten Muna",SULAWESI TENGGARA,93653.0,Indonesia, 082190874630,,,-4.8057958,122.403112,https://maps.google.com/?cid=0x0:0xe2eeb43fb52119e7,
cafe,Brunch,Warung Bakso Padamuru,"Mekar Jaya, Tiworo Tengah, Kabupaten Muna, Sulawesi Tenggara","Kabupaten Muna, Sulawesi Tenggara",SULAWESI TENGGARA,,Indonesia, 082271007634,,,-4.8315347,122.395538,https://maps.google.com/?cid=0x0:0xeafb7a9d06400acb,
cafe,Restoran,Rumah Makan Fista,"5CP3+RGR, Wapae Jaya, Tiworo Tengah, Kabupaten Muna, Sulawesi Tenggara 93653","Wapae Jaya, Tiworo Tengah, Kabupaten Muna",SULAWESI TENGGARA,93653.0,Indonesia,,,,-4.812876,122.4037605,https://maps.google.com/?cid=0x0:0x7e6f854e71a67cf5,
cafe,Restoran,RUMAH MAKAN PARAIKATTE,"5CQ3+MVC, Jl. Poros, Wapae Jaya, Tiworo Tengah, Kabupaten Muna, Sulawesi Tenggara 93653","Jl. Poros, Wapae Jaya, Tiworo Tengah, Kabupaten Muna",SULAWESI TENGGARA,93653.0,Indonesia,,,,-4.810804,122.4046295,https://maps.google.com/?cid=0x0:0x707309880af24c67,
cafe,Restoran,KEDAI GBM,"Wapae Jaya, Tiworo Tengah, Kabupaten Muna, Sulawesi Tenggara","Kabupaten Muna, Sulawesi Tenggara",SULAWESI TENGGARA,,Indonesia,,,,-4.8174651,122.4015095,https://maps.google.com/?cid=0x0:0x13ee249644419315,
cafe,Bakso,RM. Mas Bambang,"Jl. Poros No.2, Mekar Jaya, Tiworo Tengah, Kabupaten Muna, Sulawesi Tenggara 93648","Mekar Jaya, Tiworo Tengah, Kabupaten Muna",SULAWESI TENGGARA,93648.0,Indonesia,,,,-4.8241483,122.3987769,https://maps.google.com/?cid=0x0:0x7266b936fdc07088,
cafe,Rumah Makan,Warung Begadang Metro,"Wapae Jaya, Tiworo Tengah, Kabupaten Muna, Sulawesi Tenggara 93653","Tiworo Tengah, Kabupaten Muna",SULAWESI TENGGARA,93653.0,Indonesia, 085255000027,,,-4.8102857,122.4041631,https://maps.google.com/?cid=0x0:0x3edc35c034829d23,
cafe,Kafe,Kedai.Logika,"49XX+3QC, Parura Jaya, Tiworo Sel., Kabupaten Muna, Sulawesi Tenggara","Kabupaten Muna, Sulawesi Tenggara",SULAWESI TENGGARA,,Indonesia, 085878292709,,,-4.8522707,122.399381,https://maps.google.com/?cid=0x0:0x13a321e0facc111e,
cafe,Kafe,Cafe AM:PM 23,"582H+Q3P, Jl.La Tohue, Pajala, Kec. Maginti, Kabupaten Muna, Sulawesi Tenggara 93664","Jl.La Tohue, Pajala, Kec. Maginti, Kabupaten Muna",SULAWESI TENGGARA,93664.0,Indonesia,,,,-4.8480407,122.3277168,https://maps.google.com/?cid=0x0:0x87d64a2953f1c76e,
cafe,Restoran,Rm.Makan Barakati,"5CR5+JJG, Jl. Morundu, Wapae Jaya, Tiworo Tengah, Kabupaten Muna, Sulawesi Tenggara 93653","Jl. Morundu, Wapae Jaya, Tiworo Tengah, Kabupaten Muna",SULAWESI TENGGARA,93653.0,Indonesia,,,,-4.808432,122.4090888,https://maps.google.com/?cid=0x0:0xa971f7348faeed34,
cafe,Padang,RM. AL-BAGHDADI BANDUNG JABAR (MUBAR),"5CQ3+GMG, Wapae Jaya, Tiworo Tengah, Kabupaten Muna, Sulawesi Tenggara 93653","Wapae Jaya, Tiworo Tengah, Kabupaten Muna",SULAWESI TENGGARA,93653.0,Indonesia, 082187018444,,,-4.8111995,122.404215,https://maps.google.com/?cid=0x0:0xd39f97a1ff0ee162,
cafe,cafe,Tiworo Utara,"Kabupaten Muna, Sulawesi Tenggara","Kabupaten Muna, Sulawesi Tenggara",SULAWESI TENGGARA,,Indonesia,,,,-4.6704353,122.373094,https://maps.google.com/?cid=0x0:0xacd624ac1fc2f9d6,
cafe,Kedai Kopi,FOUR_Q RESTO  CAFE,"6C29+577, Waumere, Kec. Tiworo Kepulauan, Kabupaten Muna, Sulawesi Tenggara 93653","Waumere, Kec. Tiworo Kepulauan, Kabupaten Muna",SULAWESI TENGGARA,93653.0,Indonesia,,,,-4.7995815,122.4181658,https://maps.google.com/?cid=0x0:0x25d79af222d44770,
cafe,Restoran,LAPAK REZEKI,"693X+5VR, Suka Damai, Tiworo Tengah, Kabupaten Muna, Sulawesi Tenggara 93653","Suka Damai, Tiworo Tengah, Kabupaten Muna",SULAWESI TENGGARA,93653.0,Indonesia, 085241941345,,,-4.7970071,122.3996325,https://maps.google.com/?cid=0x0:0x6e1a4c0223da5a44,
cafe,Rumah Makan,Kedai Bukit Ganarum,"5CQ3+VM5, Wapae Jaya, Tiworo Tengah, Kabupaten Muna, Sulawesi Tenggara 93653","Wapae Jaya, Tiworo Tengah, Kabupaten Muna",SULAWESI TENGGARA,93653.0,Indonesia,,,,-4.8103644,122.4042437,https://maps.google.com/?cid=0x0:0x918db8a066026427,
cafe,Restoran,RM.SUMBER REJEKI,"Wapae Jaya, Tiworo Tengah, Kabupaten Muna, Sulawesi Tenggara 93653","Tiworo Tengah, Kabupaten Muna",SULAWESI TENGGARA,93653.0,Indonesia, 082394473566,,,-4.8100989,122.4033162,https://maps.google.com/?cid=0x0:0x7b7aef22698f365b,
cafe,Kedai Kopi,SIMPANG TIGA COFFEE,"Jl. Gatot Subroto, Raha II, Kec. Katobu, Kabupaten Muna, Sulawesi Tenggara 93614","Raha II, Kec. Katobu, Kabupaten Muna",SULAWESI TENGGARA,93614.0,Indonesia, 082259491963,,,-4.8256706,122.724067,https://maps.google.com/?cid=0x0:0xa8ffe874e3c24a99,
cafe,Kedai Kopi,Warung mamet,"5CW8+VFW, Waumere, Kec. Tiworo Kepulauan, Kabupaten Muna, Sulawesi Tenggara 93653","Waumere, Kec. Tiworo Kepulauan, Kabupaten Muna",SULAWESI TENGGARA,93653.0,Indonesia,,,,-4.8029014,122.4171138,https://maps.google.com/?cid=0x0:0xf5d4ca9322721ebb,
cafe,cafe,"Suka Damai, Tiworo Tengah, Kabupaten Muna, Sulawesi Tenggara","6C32+23X, Suka Damai, Tiworo Tengah, Kabupaten Muna, Sulawesi Tenggara 93653","Suka Damai, Tiworo Tengah, Kabupaten Muna",SULAWESI TENGGARA,93653.0,Indonesia,,,,-4.7973784,122.4002373,https://maps.google.com/?cid=0x0:0xcc83946b6f85afc0,
cafe,cafe,Kios Wahdah,"8C8M+R2P, Tiga, Tiworo Utara, Kabupaten Muna, Sulawesi Tenggara","Kabupaten Muna, Sulawesi Tenggara",SULAWESI TENGGARA,,Indonesia,,,,-4.6829174,122.4325682,https://maps.google.com/?cid=0x0:0xdaa3710ec403b8d4,
cafe,Restoran,RM Dapoer Nanda,"depan pura sp 1, Jl. Poros, Wapae Jaya, Tiworo Tengah, Kabupaten Muna, Sulawesi Tenggara 93653","Jl. Poros, Wapae Jaya, Tiworo Tengah, Kabupaten Muna",SULAWESI TENGGARA,93653.0,Indonesia, 085243858687,,,-4.8216307,122.3999437,https://maps.google.com/?cid=0x0:0x94c0a1d62c76ff03,
cafe,Rumah Makan,Kedai Altha (Rumah Makan Dan Gorengan) Kambara,"6C5M+34M, Unnamed Road, Tiworo, Kec. Tiworo Kepulauan, Kabupaten Muna, Sulawesi Tenggara 93653","Unnamed Road, Tiworo, Kec. Tiworo Kepulauan, Kabupaten Muna",SULAWESI TENGGARA,93653.0,Indonesia, 081340560708,,,-4.7922784,122.4327919,https://maps.google.com/?cid=0x0:0x753208f7ae99810,
cafe,cafe,Kec. Wadaga,"Kabupaten Muna, Sulawesi Tenggara","Kabupaten Muna, Sulawesi Tenggara",SULAWESI TENGGARA,,Indonesia,,,,-4.9157067,122.5304167,https://maps.google.com/?cid=0x0:0xb09250edddcd2e35,
cafe,Kedai Kopi,Daw Alsayr Cafe,"2GV4+4QP, Jl. Dr. Soetomo, Tobuuha, Kec. Puuwatu, Kota Kendari, Sulawesi Tenggara 93112","Jl. Dr. Soetomo, Tobuuha, Kec. Puuwatu, Kota Kendari",SULAWESI TENGGARA,93112.0,Indonesia, 085333652685,,,-3.9571746,122.5069604,https://maps.google.com/?cid=0x0:0xef68c1b609313b9,
cafe,Kafe,Delight Cafe,"Jl. Made Sabara No.6, Korumba, Kec. Mandonga, Kota Kendari, Sulawesi Tenggara 93111","Korumba, Kec. Mandonga, Kota Kendari",SULAWESI TENGGARA,93111.0,Indonesia, 05341607226,,,-3.9735309,122.5173781,https://maps.google.com/?cid=0x0:0x577c88d56df8a4dd,
cafe,Bar Kopi Espresso,D'BATAS KOTA CAFE,"XF7F+72J, Jl. Poros Bandara Haluoleo, Kota Bangun, Kec. Baruga, Kabupaten Konawe Selatan, Sulawesi Tenggara 93870","Jl. Poros Bandara Haluoleo, Kota Bangun, Kec. Baruga, Kabupaten Konawe Selatan",SULAWESI TENGGARA,93870.0,Indonesia,,,,-4.036759,122.4724806,https://maps.google.com/?cid=0x0:0xb4c0d7de994d519,
cafe,Hidangan Laut,Cafe Bakau Kendari,"2G8P+7MC, Kec. Kendari, Kota Kendari, Sulawesi Tenggara","Kota Kendari, Sulawesi Tenggara",SULAWESI TENGGARA,,Indonesia, 082293649710,,,-3.9843064,122.536638,https://maps.google.com/?cid=0x0:0x4bdbc9f6862af8e8,
cafe,Kedai Kopi,KANDA Coffee and Choc,"Bonggoeya, Kec. Wua-Wua, Kota Kendari, Sulawesi Tenggara 93117","Kec. Wua-Wua, Kota Kendari",SULAWESI TENGGARA,93117.0,Indonesia, 08114052102,,,-4.0019918,122.5009553,https://maps.google.com/?cid=0x0:0x8693322f64475ba,
cafe,Kedai Kopi,GOOLLA DE NARANG,"Jl. Made Sabara, Korumba, Kec. Mandonga, Kota Kendari, Sulawesi Tenggara 93461","Korumba, Kec. Mandonga, Kota Kendari",SULAWESI TENGGARA,93461.0,Indonesia,,,,-3.9741545,122.5197486,https://maps.google.com/?cid=0x0:0x13ad051e9be51ce0,
cafe,Kafe,Banggona Coffee,"Jl. Poros Bungku Sel. - Kendari No.1, Wanggudu, Kec. Asera, Kabupaten Konawe Utara, Sulawesi Tenggara 93353","Wanggudu, Kec. Asera, Kabupaten Konawe Utara",SULAWESI TENGGARA,93353.0,Indonesia,,,,-3.5171497,122.1113591,https://maps.google.com/?cid=0x0:0xf833f394b723675,
cafe,Kedai Kopi,Warisan Ayah Coffee,"Jl. Jend. Ahmad Yani, Anaiwoi, Kec. Wua-Wua, Kota Kendari, Sulawesi Tenggara 93117","Anaiwoi, Kec. Wua-Wua, Kota Kendari",SULAWESI TENGGARA,93117.0,Indonesia, 082221755122,,,-3.99129,122.5033973,https://maps.google.com/?cid=0x0:0xac9e8aff7d915e68,
cafe,Kafe,Re Order Cafe,"Jl. Orinunggu No.13, Kambu, Kec. Kambu, Kota Kendari, Sulawesi Tenggara 93231","Kambu, Kec. Kambu, Kota Kendari",SULAWESI TENGGARA,93231.0,Indonesia, 085241730322,,,-4.0165974,122.5278401,https://maps.google.com/?cid=0x0:0x6d2ad574a1f59424,
cafe,Kedai Kopi,Pang5 Kopi,"2G69+G62, Jl. Brigjen M. Yoenoes, Bende, Kec. Kadia, Kota Kendari, Sulawesi Tenggara 93561","Jl. Brigjen M. Yoenoes, Bende, Kec. Kadia, Kota Kendari",SULAWESI TENGGARA,93561.0,Indonesia,,,,-3.9887363,122.5180255,https://maps.google.com/?cid=0x0:0x99e50af5f6be367e,
cafe,Kafe,Warkop Kopi Daeng,"Jl. Ir. H Alala By Pass, Korumba, Kec. Kendari, Kota Kendari, Sulawesi Tenggara 93231","Korumba, Kec. Kendari, Kota Kendari",SULAWESI TENGGARA,93231.0,Indonesia,,,,-3.9710966,122.5267447,https://maps.google.com/?cid=0x0:0xd5f0c38045ed4137,
cafe,Kedai Kopi,D'Terrace 46 Cafe Kendari,"Jl. Budi Utomo Simpang 3 THR No.16, Mataiwoi, Kec. Wua-Wua, Kota Kendari, Sulawesi Tenggara 93115","Mataiwoi, Kec. Wua-Wua, Kota Kendari",SULAWESI TENGGARA,93115.0,Indonesia, 081248010634,,,-3.9855305,122.4956981,https://maps.google.com/?cid=0x0:0xc69d104a7d8e7139,
cafe,Pusat Perbelanjaan,Diploma kafe,"XGP8+WJW, Jl. HEA Mokodompit, Kambu, Kec. Kambu, Kota Kendari, Sulawesi Tenggara 93561","Jl. HEA Mokodompit, Kambu, Kec. Kambu, Kota Kendari",SULAWESI TENGGARA,93561.0,Indonesia,,,,-4.0126392,122.5165862,https://maps.google.com/?cid=0x0:0xaf185cae75431056,
cafe,Kedai Kopi,Kiva Hawa (Coffee  Barbershop),"2FMH+QRP, Lakandito, Kec. Kabangka, Kabupaten Muna, Sulawesi Tenggara 93652","Lakandito, Kec. Kabangka, Kabupaten Muna",SULAWESI TENGGARA,93652.0,Indonesia, 085343725373,,,-4.965536,122.4795912,https://maps.google.com/?cid=0x0:0x6cc165fc749e98db,
cafe,Kedai Kopi,ARA ARA COFFEE EXPERIENCE,"Jl. Abunawas, Bende, Kec. Kadia, Kota Kendari, Sulawesi Tenggara","Kota Kendari, Sulawesi Tenggara",SULAWESI TENGGARA,,Indonesia, 08114703444,,,-3.9758755,122.5152318,https://maps.google.com/?cid=0x0:0x12adf5b2224d3c84,
cafe,Restoran,Cafe and resto MANDALA,"2G2C+VF3, Lrg. Sepakat, Lalolara, Kec. Kambu, Kota Kendari, Sulawesi Tenggara 93561","Lrg. Sepakat, Lalolara, Kec. Kambu, Kota Kendari",SULAWESI TENGGARA,93561.0,Indonesia, 081216124168,,,-3.997875,122.5211586,https://maps.google.com/?cid=0x0:0x94f7548324f2cae8,
cafe,Kedai Kopi,Warkop DK MTQ,"2GF9+PG2, warkop dk sekitar tugu mtq (di seberang kantor lurah, Korumba, Kec. Mandonga, Kota Kendari, Sulawesi Tenggara 93461","warkop dk sekitar tugu mtq (di seberang kantor lurah, Korumba, Kec. Mandonga, Kota Kendari",SULAWESI TENGGARA,93461.0,Indonesia,,,,-3.9757266,122.5187645,https://maps.google.com/?cid=0x0:0xc59b441b6a365d26,
cafe,Kafe,Warkop 10.2,"2G89+79J, Jl. Kol. H. Abd. Hamid, Bende, Kec. Kadia, Kota Kendari, Sulawesi Tenggara 93561","Jl. Kol. H. Abd. Hamid, Bende, Kec. Kadia, Kota Kendari",SULAWESI TENGGARA,93561.0,Indonesia, 082374747377,,,-3.9842928,122.5183915,https://maps.google.com/?cid=0x0:0x44bd7358897ad3ac,
cafe,Kafe,Kopi daerah cafe,"Lasusua, Kec. Lasusua, Kabupaten Kolaka Utara, Sulawesi Tenggara 93914","Kec. Lasusua, Kabupaten Kolaka Utara",SULAWESI TENGGARA,93914.0,Indonesia, 08114053553,,,-3.5072341,120.8881014,https://maps.google.com/?cid=0x0:0xea0cef50091568c4,
cafe,Kedai Kopi,WK5 pujaseracafe,"2GH9+JCV, Jl. Malik Raya I, Korumba, Kec. Mandonga, Kota Kendari, Sulawesi Tenggara 93111","Jl. Malik Raya I, Korumba, Kec. Mandonga, Kota Kendari",SULAWESI TENGGARA,93111.0,Indonesia, 082333941886,,,-3.9708836,122.5185464,https://maps.google.com/?cid=0x0:0x595684279ada80ad,
cafe,Kedai Kopi,Dua Sinar,"Jl. H. Supu Yusuf No.20S, Bende, Kec. Kadia, Kota Kendari, Sulawesi Tenggara","Kota Kendari, Sulawesi Tenggara",SULAWESI TENGGARA,,Indonesia, 082136312820,,,-3.9796695,122.5197782,https://maps.google.com/?cid=0x0:0x94266b48aaeb8069,
cafe,Kedai Kopi,Punala Coffee  Eatery,"Jl. Syech Yusuf No.18, Korumba, Kec. Mandonga, Kota Kendari, Sulawesi Tenggara 93111","Korumba, Kec. Mandonga, Kota Kendari",SULAWESI TENGGARA,93111.0,Indonesia, 082260539473,,,-3.9711863,122.5259364,https://maps.google.com/?cid=0x0:0xe24f433714cc6327,
cafe,Restoran,ZZ Resto Cafe  Pemancingan,"Matakidi, Kec. Lawa, Muna Barat, Sulawesi Tenggara","Muna Barat, Sulawesi Tenggara",SULAWESI TENGGARA,,Indonesia, 081260616680,,,-4.8539069,122.5448737,https://maps.google.com/?cid=0x0:0xc186539c722fe6ac,
cafe,Kafe,Warkop Lathuwo Caffe,"2GMR+M75, Watu-Watu, Kec. Kendari Bar., Kota Kendari, Sulawesi Tenggara 93873","Watu-Watu, Kec. Kendari Bar., Kota Kendari",SULAWESI TENGGARA,93873.0,Indonesia, 081245167046,,,-3.9658608,122.5407367,https://maps.google.com/?cid=0x0:0x514700db6df8422d,
cafe,cafe,LAIKA Cafe,"Jl. By Pass No.33, Korumba, Kec. Mandonga, Kota Kendari, Sulawesi Tenggara 93461","Korumba, Kec. Mandonga, Kota Kendari",SULAWESI TENGGARA,93461.0,Indonesia,,,,-3.9717535,122.5205123,https://maps.google.com/?cid=0x0:0xa556e6509b8b0322,
cafe,Restoran,DAGADANG RESTO AND CAFE,"Jl. Dipati Ukur No.45, Lebakgede, Kecamatan Coblong, Kota Bandung, Jawa Barat 40132","Lebakgede, Kecamatan Coblong, Kota Bandung",SULAWESI TENGGARA,40132.0,Indonesia,,,,-6.8913297,107.6171156,https://maps.google.com/?cid=0x0:0xb6eacaae50f1bcb1,
cafe,Kedai Kopi,Warung kopi daga,"WRQQ+8F7, Mekarlaksana, Kec. Cikancung, Kabupaten Bandung, Jawa Barat 40396","Mekarlaksana, Kec. Cikancung, Kabupaten Bandung",SULAWESI TENGGARA,40396.0,Indonesia,,,,-7.0623289,107.8375553,https://maps.google.com/?cid=0x0:0xc1873f0063d18f49,
cafe,Kafe,cafe dede Rafa,"G8RX+2G6, seliyg indramayu, RT.06/RW.01, Sliyeg, Kec. Sliyeg, Kabupaten Indramayu, Jawa Barat 45281","seliyg indramayu, RT.06/RW.01, Sliyeg, Kec. Sliyeg, Kabupaten Indramayu",SULAWESI TENGGARA,45281.0,Indonesia, 089615523583,,,-6.4599564,108.348776,https://maps.google.com/?cid=0x0:0xd79075488db1855,
