Category,Real Category,Business Name,Address,City,State,Postal Code,Country,Phone,Email,Website,Latitude,Longitude,Map Link,Details Link
building materials,building materials,Sulawesi Tenggara 93652,"Kabupaten Muna, Sulawesi Tenggara","Kabupaten Muna, Sulawesi Tenggara",SULAWESI TENGGARA,,Indonesia,,,,-4.8874972,122.5598994,https://maps.google.com/?cid=0x0:0x34e12d7c7d7a4631,
building materials,Toko Bahan Bangunan,TK Sinar Mandar,"Jl. Jend. Ahmad Yani No.88 G, Mataiwoi, Kec. Wua-Wua, Kota Kendari, Sulawesi Tenggara 93117","Mataiwoi, Kec. Wua-Wua, Kota Kendari",SULAWESI TENGGARA,93117.0,Indonesia, 085342409309,,,-3.9887697,122.5056932,https://maps.google.com/?cid=0x0:0x64648d2b4a2e3c60,
building materials,Toko Bahan Bangunan,Tb.Cahaya Bulu Kumba,"2GP5+Q54, Jl. Suprapto, Tobuuha, Kec. Puuwatu, Kota Kendari, Sulawesi Tenggara 93111","Jl. Suprapto, Tobuuha, Kec. Puuwatu, Kota Kendari",SULAWESI TENGGARA,93111.0,Indonesia,,,,-3.9631174,122.5079655,https://maps.google.com/?cid=0x0:0xb9a7205bc7df797a,
building materials,Toko Bahan Bangunan,UD Lambubalano Jaya / Sentral Keramik,"5G8C+489, Desa Wuna, Jalan poros Lagadi, Tondasi, Kec. Barangka, Muna Barat, Sulawesi Tenggara 93657","Desa Wuna, Jalan poros Lagadi, Tondasi, Kec. Barangka, Muna Barat",SULAWESI TENGGARA,93657.0,Indonesia, 082292835450,,,-4.834703,122.5208635,https://maps.google.com/?cid=0x0:0x8a1ad4343897ed21,
building materials,building materials,g3hBaLubK_nr1e8P_ozViA4,,,SULAWESI TENGGARA,,Indonesia, 081271109313,,,-4.8369366,122.5891495,https://maps.google.com/?cid=0x0:0x1ac683bcbcada761,
building materials,building materials,Barangka,"Marikina City, Metro Manila, Filipina","Marikina City, Metro Manila, Filipina",SULAWESI TENGGARA,,Indonesia,,,,14.6382755,121.0836691,https://maps.google.com/?cid=0x0:0xb06d0bc6c0ed719,
building materials,Toko Bahan Bangunan,A. BONIFACIO HARDWARE AND CONSTRUCTION SUPPLY,"177 A. Bonifacio Ave, Marikina City, 1800 Metro Manila, Filipina","Marikina City, Metro Manila, Filipina",SULAWESI TENGGARA,,Indonesia, +639176371878,,,14.6343854,121.0864993,https://maps.google.com/?cid=0x0:0x548466b352a4514d,
building materials,Toko Bahan Bangunan,NMS Construction Supply Showroom,"J3MQ+R84, St Bernadette, Marikina City, 1800 Metro Manila, Filipina","Marikina City, Metro Manila, Filipina",SULAWESI TENGGARA,,Indonesia,,,,14.634509,121.0883252,https://maps.google.com/?cid=0x0:0xeae66d9b7aa47de8,
building materials,Toko Bahan Bangunan,Abb Industrial Paint  Construction Supply,"167 A. Bonifacio Ave, Marikina City, 1803 Metro Manila, Filipina","Marikina City, Metro Manila, Filipina",SULAWESI TENGGARA,,Indonesia, +63289413942,,,14.6346901,121.0871121,https://maps.google.com/?cid=0x0:0xaec16af705e8cea4,
building materials,Toko Bahan Bangunan,Metalframes Supply Corporation,"107 Lopez Jaena St, Marikina City, 1800 Metro Manila, Filipina","Marikina City, Metro Manila, Filipina",SULAWESI TENGGARA,,Indonesia, +63288997325,,,14.6362115,121.0892422,https://maps.google.com/?cid=0x0:0xde9535d0d9e2fe06,
building materials,Toko Bahan Bangunan,NEW JSL-A Hardware,"78 A. Bonifacio Ave, Marikina City, 1803 Metro Manila, Filipina","Marikina City, Metro Manila, Filipina",SULAWESI TENGGARA,,Indonesia,,,,14.6323916,121.08148,https://maps.google.com/?cid=0x0:0x14baf557b420a9eb,
building materials,Trading company,Barangka Construction Supply,"690 Boni Ave, Mavamil, Mandaluyong City, 1550 Metro Manila, Filipina","Mandaluyong City, Metro Manila, Filipina",SULAWESI TENGGARA,,Indonesia, +63285340278,,,14.5758709,121.0407056,https://maps.google.com/?cid=0x0:0x5525c062b5e85318,
building materials,Toko Kaca >>u0026 Cermin,Almark Glass  Aluminum Supply,"85 A. Bonifacio Avenue, Barangka, Marikina City, Metro Manila, Filipina","Marikina City, Metro Manila, Filipina",SULAWESI TENGGARA,,Indonesia, +63289417434,,,14.6330983,121.0831448,https://maps.google.com/?cid=0x0:0x729bc12a346564ea,
building materials,Toko Bahan Bangunan,New JSLA Hardware,"97 A. Bonifacio Ave, Barangka, Marikina City, 1803 Metro Manila, Filipina","Marikina City, Metro Manila, Filipina",SULAWESI TENGGARA,,Indonesia, +63234665731,,,14.632589,121.0811281,https://maps.google.com/?cid=0x0:0x485ae2f68021139a,
building materials,Toko Bahan Bangunan,Buencasa Construction Supply Inc.,"743 Boni Ave, Mandaluyong City, 1550 Metro Manila, Filipina","Mandaluyong City, Metro Manila, Filipina",SULAWESI TENGGARA,,Indonesia, +63285324332,,,14.574196,121.0436929,https://maps.google.com/?cid=0x0:0xc035cb9eca0d8605,
building materials,Toko Bahan Bangunan,New Topbest Lumber and Construction Supply,"282 Epifanio de los Santos Ave, Mandaluyong City, 1550 Metro Manila, Filipina","Mandaluyong City, Metro Manila, Filipina",SULAWESI TENGGARA,,Indonesia, +639985686258,,,14.5795974,121.0519409,https://maps.google.com/?cid=0x0:0xd4a40c5dd4191f16,
building materials,Toko Bahan Bangunan,Robinsons Handyman Incorporated,"Riverbanks Mall, 84A Bonifacio Avenue, Barangka, Marikina City, 1803 Metro Manila, Filipina","Marikina City, Metro Manila, Filipina",SULAWESI TENGGARA,,Indonesia, +63273695079,,,14.6318022,121.0826216,https://maps.google.com/?cid=0x0:0x477d6abeea3f1f08,
building materials,Toko Bahan Bangunan,Jv Hardware Construction Supply,"INDUSTRIAL VALLEY COMPLEX, 3 Cattleya St, Marikina City, 1802 Metro Manila, Filipina","Marikina City, Metro Manila, Filipina",SULAWESI TENGGARA,,Indonesia, +639762107077,,,14.6224751,121.0809494,https://maps.google.com/?cid=0x0:0x7bd5f12a9598fa59,
building materials,Kontraktor Marmer,Gemzon Marble Contractor,"107 A. Bonifacio Ave, Marikina City, 1800 Metro Manila, Filipina","Marikina City, Metro Manila, Filipina",SULAWESI TENGGARA,,Indonesia, +63289972682,,,14.6333193,121.0839057,https://maps.google.com/?cid=0x0:0x8581e3d69837ef63,
building materials,Toko Bahan Bangunan,AML Hardware  Construction Supplies,"barangay, 488 Barangka Dr., Mandaluyong City, 1550 Metro Manila, Filipina","Mandaluyong City, Metro Manila, Filipina",SULAWESI TENGGARA,,Indonesia, +639613986900,,,14.578167,121.042992,https://maps.google.com/?cid=0x0:0x350f56007831a36b,
building materials,,CNR 8910 INDUSTRIAL INC,"BLDG. 3C, MBSMI COMPD, 107 Lopez Jaena St, Marikina City, 1803 Metro Manila, Filipina","Marikina City, Metro Manila, Filipina",SULAWESI TENGGARA,,Indonesia, +639999906259,,,14.6362508,121.0891899,https://maps.google.com/?cid=0x0:0xb091b3dca1e79c3f,
building materials,Toko Bahan Bangunan,ONE AMAS Construction Supplies Trading,"Mira Verde Homes Columbia st. blk 7 lot 61 Barangay, Antipolo City, Rizal, Filipina","Antipolo City, Metro Manila, Filipina",SULAWESI TENGGARA,,Indonesia, +639164779761,,,14.6478885,121.0902959,https://maps.google.com/?cid=0x0:0xdbc9a7a349150d2d,
building materials,Toko Bahan Bangunan,ACE Hardware SM City Marikina,"Ground Floor, SM City Marikina, Lansangang Marikina-Infanta, Marikina City, 1801 Kalakhang Maynila, Filipina","Marikina City, Metro Manila, Filipina",SULAWESI TENGGARA,,Indonesia, +63284771669,,,14.6268407,121.0846895,https://maps.google.com/?cid=0x0:0x87b8024505bdc37e,
building materials,Toko Bahan Bangunan,Big (J) Trading and Construction Supply Incorporated,"189, Katipunan Avenue, Quezon City, 1100 Metro Manila, Filipina","Quezon City, Metro Manila, Filipina",SULAWESI TENGGARA,,Indonesia, +63289125662,,,14.6434137,121.0743106,https://maps.google.com/?cid=0x0:0x6889aff7d239ec15,
building materials,Toko Bahan Bangunan,Jayme Hardware and Construction Supplies,"371 Katipunan Ave, Quezon City, 1800 Metro Manila, Filipina","Quezon City, Metro Manila, Filipina",SULAWESI TENGGARA,,Indonesia, +639956620271,,,14.647338,121.0741148,https://maps.google.com/?cid=0x0:0x23ae97e1fb01e403,
building materials,Toko Bahan Bangunan,Handyman Do it Best Riverbanks Center,"G/F Riverbanks Center, Shoe Ave, Marikina City, 1800 Metro Manila, Filipina","Marikina City, Metro Manila, Filipina",SULAWESI TENGGARA,,Indonesia, +639174642639,,,14.6311598,121.0821643,https://maps.google.com/?cid=0x0:0x8b078f044db12bc8,
building materials,building materials,Sulawesi Tenggara 93655,"Kabupaten Muna, Sulawesi Tenggara","Kabupaten Muna, Sulawesi Tenggara",SULAWESI TENGGARA,,Indonesia,,,,-4.7167048,122.593828,https://maps.google.com/?cid=0x0:0x2099dcc445aba1a5,
building materials,Toko Bahan Bangunan,SINAR HILMI,"7H87+5X7, Desa, Sidamangura, Kec. Kusambi, Kabupaten Muna, Sulawesi Tenggara","Kabupaten Muna, Sulawesi Tenggara",SULAWESI TENGGARA,,Indonesia, 085240603780,,,-4.7345873,122.5649162,https://maps.google.com/?cid=0x0:0x52146e0532940778,
building materials,Toko Bahan Bangunan,UD.Dian Masara,"7HPF+25Q, Unnamed Road, Masara, Kec. Napano Kusambi, Kabupaten Muna, Sulawesi Tenggara 93655","Unnamed Road, Masara, Kec. Napano Kusambi, Kabupaten Muna",SULAWESI TENGGARA,93655.0,Indonesia,,,,-4.7149002,122.5729924,https://maps.google.com/?cid=0x0:0xcd58ef99a4f88c75,
building materials,Toko Bahan Bangunan,"Kalimbua, UD","JL. Poros Raha-Tampo, Dusun 2 Napabalano, Muna, Pentiro, Kendari, Kabupaten Muna, Sulawesi Tenggara 93654","Dusun 2 Napabalano, Muna, Pentiro, Kendari, Kabupaten Muna",SULAWESI TENGGARA,93654.0,Indonesia, 085241893195,,,-4.655475,122.689419,https://maps.google.com/?cid=0x0:0xfa1e81e8bd8da164,
building materials,Toko Bahan Bangunan,Pengambilan Material LD Jaya,"7HFC+26G, Sidamangura, Kec. Kusambi, Kabupaten Muna, Sulawesi Tenggara 93655","Sidamangura, Kec. Kusambi, Kabupaten Muna",SULAWESI TENGGARA,93655.0,Indonesia,,,,-4.7274387,122.5705663,https://maps.google.com/?cid=0x0:0x122d6579085bd67a,
building materials,Toko Bahan Bangunan,TOKO ARENDA JAYA,"5MP4+CQ4, Jl. Poros Raha-Kusambi, Lakauduma, Kec. Watopute, Kabupaten Muna, Sulawesi Tenggara 93656","Jl. Poros Raha-Kusambi, Lakauduma, Kec. Watopute, Kabupaten Muna",SULAWESI TENGGARA,93656.0,Indonesia, 083165813565,,,-4.8139561,122.6569326,https://maps.google.com/?cid=0x0:0xdb67bbacc5800b3e,
building materials,Toko,UD AFIFA GUALI,"7G2R+95R, Guali, Kec. Kusambi, Kabupaten Muna, Sulawesi Tenggara 93653","Guali, Kec. Kusambi, Kabupaten Muna",SULAWESI TENGGARA,93653.0,Indonesia,,,,-4.7490209,122.5403948,https://maps.google.com/?cid=0x0:0x546f4915f9a4f411,
building materials,Toko Bahan Bangunan,UD.TOKO SINAR TAMPO,"9PF5+748, Jl. Pelabuhan Tampo, Napabalano, Kec. Napabalano, Kabupaten Muna, Sulawesi Tenggara 93654","Jl. Pelabuhan Tampo, Napabalano, Kec. Napabalano, Kabupaten Muna",SULAWESI TENGGARA,93654.0,Indonesia,,,,-4.6268457,122.7078149,https://maps.google.com/?cid=0x0:0x2e60cbca8e402cd6,
building materials,Toko Bahan Bangunan,Baja,"5PJ8+H4F, Lrg. Pendidikan, Raha III, Kec. Katobu, Kabupaten Muna, Sulawesi Tenggara 93614","Lrg. Pendidikan, Raha III, Kec. Katobu, Kabupaten Muna",SULAWESI TENGGARA,93614.0,Indonesia,,,,-4.8185601,122.7153067,https://maps.google.com/?cid=0x0:0x83db7f63c91a0dc8,
building materials,Toko Bahan Bangunan,UD. SINAR MAPERAHA,"6GHJ+P88, Maperaha, Kec. Sawerigadi, Kabupaten Muna, Sulawesi Tenggara 93653","Maperaha, Kec. Sawerigadi, Kabupaten Muna",SULAWESI TENGGARA,93653.0,Indonesia, 085281323528,,,-4.770698,122.5308095,https://maps.google.com/?cid=0x0:0xdc74a3c7fc297d25,
building materials,Perhimpunan Pengembang Perumahan,Lorong matakalampa,"7HP7+CHG, Sidamangura, Kec. Kusambi, Kabupaten Muna, Sulawesi Tenggara 93655","Sidamangura, Kec. Kusambi, Kabupaten Muna",SULAWESI TENGGARA,93655.0,Indonesia,,,,-4.7139312,122.5639671,https://maps.google.com/?cid=0x0:0x9f1096264d59590d,
building materials,building materials,Sulawesi Tenggara 93652,"Kabupaten Muna, Sulawesi Tenggara","Kabupaten Muna, Sulawesi Tenggara",SULAWESI TENGGARA,,Indonesia,,,,-4.8874972,122.5598994,https://maps.google.com/?cid=0x0:0x34e12d7c7d7a4631,
building materials,Toko Bahan Bangunan,TAMA LANREA,"JH6Q+732, Jl. Poros Kendari - Kolono, Kaindi, Kec. Lainea, Kabupaten Konawe Selatan, Sulawesi Tenggara 93881","Jl. Poros Kendari - Kolono, Kaindi, Kec. Lainea, Kabupaten Konawe Selatan",SULAWESI TENGGARA,93881.0,Indonesia,,,,-4.3893538,122.5876345,https://maps.google.com/?cid=0x0:0xc9d2b05d386c6bb7,
building materials,Toko Bahan Bangunan,Pengambilan Material LD Jaya,"7HFC+26G, Sidamangura, Kec. Kusambi, Kabupaten Muna, Sulawesi Tenggara 93655","Sidamangura, Kec. Kusambi, Kabupaten Muna",SULAWESI TENGGARA,93655.0,Indonesia,,,,-4.7274387,122.5705663,https://maps.google.com/?cid=0x0:0x122d6579085bd67a,
building materials,Toko Bahan Bangunan,Tb.Cahaya Bulu Kumba,"2GP5+Q54, Jl. Suprapto, Tobuuha, Kec. Puuwatu, Kota Kendari, Sulawesi Tenggara 93111","Jl. Suprapto, Tobuuha, Kec. Puuwatu, Kota Kendari",SULAWESI TENGGARA,93111.0,Indonesia,,,,-3.9631174,122.5079655,https://maps.google.com/?cid=0x0:0xb9a7205bc7df797a,
building materials,Toko bahan makanan,Kios Cahaya Alwi,"Unnamed Road, depan gerbang BTN Maleo No.1, Kota Bangun, Kec. Ranomeeto, Kabupaten Konawe Selatan, Sulawesi Tenggara 93870","depan gerbang BTN Maleo No.1, Kota Bangun, Kec. Ranomeeto, Kabupaten Konawe Selatan",SULAWESI TENGGARA,93870.0,Indonesia,,,,-4.048462,122.467878,https://maps.google.com/?cid=0x0:0xcc818ac1184737c5,
building materials,,Alif Jaya Bangunan,"95PX+QJC, Jl. Poros Bungku Sel. - Kendari, Molawe, Kec. Molawe, Kabupaten Konawe Utara, Sulawesi Tenggara 93352","Jl. Poros Bungku Sel. - Kendari, Molawe, Kec. Molawe, Kabupaten Konawe Utara",SULAWESI TENGGARA,93352.0,Indonesia,,,,-3.6130516,122.1990159,https://maps.google.com/?cid=0x0:0xaf198e1a83dc454f,
building materials,Toko Bahan Bangunan,TK Sinar Mandar,"Jl. Jend. Ahmad Yani No.88 G, Mataiwoi, Kec. Wua-Wua, Kota Kendari, Sulawesi Tenggara 93117","Mataiwoi, Kec. Wua-Wua, Kota Kendari",SULAWESI TENGGARA,93117.0,Indonesia, 085342409309,,,-3.9887697,122.5056932,https://maps.google.com/?cid=0x0:0x64648d2b4a2e3c60,
building materials,Toko Bahan Bangunan,Toko Retail Bangunan,"2GQ6+G64, Jl. Suprapto, Tobuuha, Kec. Puuwatu, Kota Kendari, Sulawesi Tenggara 93112","Jl. Suprapto, Tobuuha, Kec. Puuwatu, Kota Kendari",SULAWESI TENGGARA,93112.0,Indonesia,,,,-3.961245,122.5105894,https://maps.google.com/?cid=0x0:0xc73f24764e3955e2,
building materials,Toko Bahan Bangunan,Jual Batako/Semen (Lailio),"PHXF+R52, Watulea, Kec. Gu, Kabupaten Buton, Sulawesi Tenggara 93761","Watulea, Kec. Gu, Kabupaten Buton",SULAWESI TENGGARA,93761.0,Indonesia, 081354000464,,,-5.2504853,122.572876,https://maps.google.com/?cid=0x0:0x2bf9cbe58b0cc54e,
building materials,Toko Bahan Bangunan,Tb. Rahmat,"MCQR+JCF, Jl. Poros Kendari - Andoolo, Rambu Rambu, Kec. Laeya, Kabupaten Konawe Selatan, Sulawesi Tenggara 93881","Jl. Poros Kendari - Andoolo, Rambu Rambu, Kec. Laeya, Kabupaten Konawe Selatan",SULAWESI TENGGARA,93881.0,Indonesia,,,,-4.3109407,122.4410564,https://maps.google.com/?cid=0x0:0xbc8adad1e422058b,
building materials,Toko Bahan Bangunan,Toko Bangunan UD.Luthfi Lawama,"RG8F+849, Jl. Jend. Ahmad Yani, Labasa, Kec. Tongkuno Sel., Kabupaten Muna, Sulawesi Tenggara 93662","Jl. Jend. Ahmad Yani, Labasa, Kec. Tongkuno Sel., Kabupaten Muna",SULAWESI TENGGARA,93662.0,Indonesia, 085241515218,,,-5.1842093,122.5228712,https://maps.google.com/?cid=0x0:0xc701a5d054c6feba,
building materials,Toko Bahan Bangunan,Toko Lambu Balano Jaya (LBJ),"XGCF+448, Jl. Terong, Padaleu, Kec. Kambu, Kota Kendari, Sulawesi Tenggara 93118","Jl. Terong, Padaleu, Kec. Kambu, Kota Kendari",SULAWESI TENGGARA,93118.0,Indonesia,,,,-4.0297142,122.5228277,https://maps.google.com/?cid=0x0:0xe8b114314cbe0b74,
building materials,building materials,Kec. Lawa,"Kabupaten Muna, Sulawesi Tenggara","Kabupaten Muna, Sulawesi Tenggara",SULAWESI TENGGARA,,Indonesia,,,,-4.881425,122.5563334,https://maps.google.com/?cid=0x0:0xa2f463cababb71b9,
building materials,Toko Bahan Bangunan,UD. MAITORA,"3GMJ+X43, Lailangga, Kec. Wadaga, Kabupaten Muna, Sulawesi Tenggara 93652","Lailangga, Kec. Wadaga, Kabupaten Muna",SULAWESI TENGGARA,93652.0,Indonesia, 081341913104,,,-4.9151237,122.5302863,https://maps.google.com/?cid=0x0:0xe7bc0ce234f87a54,
building materials,Toko Bahan Bangunan,UD Lambubalano Jaya / Sentral Keramik,"5G8C+489, Desa Wuna, Jalan poros Lagadi, Tondasi, Kec. Barangka, Muna Barat, Sulawesi Tenggara 93657","Desa Wuna, Jalan poros Lagadi, Tondasi, Kec. Barangka, Muna Barat",SULAWESI TENGGARA,93657.0,Indonesia, 082292835450,,,-4.834703,122.5208635,https://maps.google.com/?cid=0x0:0x8a1ad4343897ed21,
building materials,,UD. Mitra Bangunan raha,"5PMM+64M, Jl. Lumba-Lumba, Laiworu, Kec. Batalaiworu, Kabupaten Muna, Sulawesi Tenggara 93614","Jl. Lumba-Lumba, Laiworu, Kec. Batalaiworu, Kabupaten Muna",SULAWESI TENGGARA,93614.0,Indonesia,,,,-4.8169218,122.7328068,https://maps.google.com/?cid=0x0:0xcb0c30522e00e004,
building materials,Toko Bahan Bangunan,Toko Warda jaya2,"5P5F+G2F, Jl. Sukowati, Raha I, Kec. Katobu, Kabupaten Muna, Sulawesi Tenggara 93611","Jl. Sukowati, Raha I, Kec. Katobu, Kabupaten Muna",SULAWESI TENGGARA,93611.0,Indonesia,,,,-4.8411862,122.7225543,https://maps.google.com/?cid=0x0:0x2c653e7ac0c1bf47,
building materials,building materials,3nhBaIiSJbKQseMP98bFyAk,,,SULAWESI TENGGARA,,Indonesia, 081271109313,,,-4.8369366,122.5891495,https://maps.google.com/?cid=0x0:0x1ac683bcbcada761,
building materials,building materials,Ude Ade,"4GGR+R29, Barat, Wamelai(Lambubalano), Kec. Lawa, Kabupaten Muna, Sulawesi Tenggara 93652","Barat, Wamelai(Lambubalano), Kec. Lawa, Kabupaten Muna",SULAWESI TENGGARA,93652.0,Indonesia,,,,-4.8729742,122.5401025,https://maps.google.com/?cid=0x0:0x27ccb5e084dcf50d,
building materials,building materials,Toko Bahan Bangunan Al-Sains,"3GXF+C8P, Jl. Poros, Lasosodo, Kec. Wadaga, Kabupaten Muna, Sulawesi Tenggara 93652","Jl. Poros, Lasosodo, Kec. Wadaga, Kabupaten Muna",SULAWESI TENGGARA,93652.0,Indonesia,,,,-4.9014083,122.5233319,https://maps.google.com/?cid=0x0:0x56edf5faa70c2c87,
building materials,building materials,Kec. Maginti,"Kabupaten Muna, Sulawesi Tenggara","Kabupaten Muna, Sulawesi Tenggara",SULAWESI TENGGARA,,Indonesia,,,,-4.8523016,122.3273334,https://maps.google.com/?cid=0x0:0x827d1cf3623f4296,
building materials,Toko Bahan Bangunan,UD Sinar Buana Bangunan 02,"498H+2V2, desa kasimpa jaya, kecamatan tiworo selatan, Kasimpa Jaya, barat, Kabupaten Muna, Sulawesi Tenggara 93664","desa kasimpa jaya, kecamatan tiworo selatan, Kasimpa Jaya, barat, Kabupaten Muna",SULAWESI TENGGARA,93664.0,Indonesia, 081341066455,,,-4.8849852,122.3796289,https://maps.google.com/?cid=0x0:0xcafff15f6b6eecec,
building materials,Toko Bahan Bangunan,BM JAYA MANDIRI,"jln buncis No.01, Kasimpa Jaya, Tiworo Sel., Muna Barat, Sulawesi Tenggara","Muna Barat, Sulawesi Tenggara",SULAWESI TENGGARA,,Indonesia, 081367781032,,,-4.8745068,122.3922714,https://maps.google.com/?cid=0x0:0x17287a8b3aea5cf5,
building materials,Toko Bahan Bangunan,Batu Merah(Bang Pariman),"499H+M2Q, Kasimpa Jaya, Tiworo Sel., Kabupaten Muna, Sulawesi Tenggara 93664","Kasimpa Jaya, Tiworo Sel., Kabupaten Muna",SULAWESI TENGGARA,93664.0,Indonesia, 085342435291,,,-4.8807854,122.3776156,https://maps.google.com/?cid=0x0:0xa39a4c745dd69485,
building materials,Toko Bahan Bangunan,Tb Berkah Ilahi,"5CP3+RCP, Jl. Poros, barat, Wapae Jaya, Tiworo Tengah, Kabupaten Muna, Sulawesi Tenggara","Kabupaten Muna, Sulawesi Tenggara",SULAWESI TENGGARA,,Indonesia, 082293224969,,,-4.8129136,122.4035644,https://maps.google.com/?cid=0x0:0xe2dd79e4878d7c06,
building materials,Toko Bahan Bangunan,Sinar Karunia,"Jl. Poros No.2, Wapae Jaya, Tiworo Tengah, Kabupaten Muna, Sulawesi Tenggara 93648","Wapae Jaya, Tiworo Tengah, Kabupaten Muna",SULAWESI TENGGARA,93648.0,Indonesia, 081242222245,,,-4.8167409,122.4020923,https://maps.google.com/?cid=0x0:0x4e38fd0b930d486a,
building materials,Toko Bahan Bangunan,UD.SINAR BUANA,"49FQ+8PG, Jln poros desa, Kasimpa Jaya, Tiworo Sel., Kabupaten Muna, Sulawesi Tenggara","Kabupaten Muna, Sulawesi Tenggara",SULAWESI TENGGARA,,Indonesia,,,,-4.8766926,122.389321,https://maps.google.com/?cid=0x0:0xb3b88436a20a0c,
building materials,Toko Bahan Bangunan,TOKO MITRA UTAMA ( Bahan bangunan ),"Wapae Jaya, Tiworo Tengah, Kabupaten Muna, Sulawesi Tenggara 93653","Tiworo Tengah, Kabupaten Muna",SULAWESI TENGGARA,93653.0,Indonesia, 081340991110,,,-4.8098747,122.4048474,https://maps.google.com/?cid=0x0:0x86bbde18d8f05086,
building materials,Toko Bahan Bangunan,USAHA-KAYU PARTIMAN,"498M+XCP, Jln wortel 1, Kasimpa Jaya, Tiworo Sel., Kabupaten Muna, Sulawesi Tenggara 93664","Jln wortel 1, Kasimpa Jaya, Tiworo Sel., Kabupaten Muna",SULAWESI TENGGARA,93664.0,Indonesia, 082291861755,,,-4.8825389,122.383588,https://maps.google.com/?cid=0x0:0x1bab81d9aaf7b9ec,
building materials,Toko Bahan Bangunan,UD.PANDAN ARUM,"4CW3+CWG, Jl.slametriyadi, Parura Jaya, Tiworo Sel., Muna barat, Sulawesi Tenggara 93644","Jl.slametriyadi, Parura Jaya, Tiworo Sel., Muna barat",SULAWESI TENGGARA,93644.0,Indonesia, 081243387973,,,-4.8539421,122.4048335,https://maps.google.com/?cid=0x0:0x9416535e64517831,
building materials,Toko Bahan Bangunan,Klik Bangunan Tanah Sereal,"Jl. Sholeh Iskandar, RT.01/RW.04, Cibadak, Kec. Tanah Sereal, Kota Bogor, Jawa Barat 16168","RT.01/RW.04, Cibadak, Kec. Tanah Sereal, Kota Bogor",SULAWESI TENGGARA,16168.0,Indonesia, 081112300198,,,-6.5465421,106.773674,https://maps.google.com/?cid=0x0:0x95c0f3480eeb194a,
building materials,Toko Bahan Bangunan,Toko Bangunan PD Karya Muda,"Jl. Sholeh Iskandar No.93, RT.04/RW.04, Cibadak, Kec. Tanah Sereal, Kota Bogor, Jawa Barat 16166","RT.04/RW.04, Cibadak, Kec. Tanah Sereal, Kota Bogor",SULAWESI TENGGARA,16166.0,Indonesia, 087776593530,,,-6.549167,106.774592,https://maps.google.com/?cid=0x0:0x224f3cf59830352c,
building materials,Toko Bahan Bangunan,UD.Dian Masara,"7HPF+25Q, Unnamed Road, Masara, Kec. Napano Kusambi, Kabupaten Muna, Sulawesi Tenggara 93655","Unnamed Road, Masara, Kec. Napano Kusambi, Kabupaten Muna",SULAWESI TENGGARA,93655.0,Indonesia,,,,-4.7149002,122.5729924,https://maps.google.com/?cid=0x0:0xcd58ef99a4f88c75,
building materials,building materials,Sulawesi Tenggara 93655,"Kabupaten Muna, Sulawesi Tenggara","Kabupaten Muna, Sulawesi Tenggara",SULAWESI TENGGARA,,Indonesia,,,,-4.7167048,122.593828,https://maps.google.com/?cid=0x0:0x2099dcc445aba1a5,
building materials,Toko Bahan Bangunan,Pengambilan Material LD Jaya,"7HFC+26G, Sidamangura, Kec. Kusambi, Kabupaten Muna, Sulawesi Tenggara 93655","Sidamangura, Kec. Kusambi, Kabupaten Muna",SULAWESI TENGGARA,93655.0,Indonesia,,,,-4.7274387,122.5705663,https://maps.google.com/?cid=0x0:0x122d6579085bd67a,
building materials,Toko Bahan Bangunan,SINAR HILMI,"7H87+5X7, Desa, Sidamangura, Kec. Kusambi, Kabupaten Muna, Sulawesi Tenggara","Kabupaten Muna, Sulawesi Tenggara",SULAWESI TENGGARA,,Indonesia, 085240603780,,,-4.7345873,122.5649162,https://maps.google.com/?cid=0x0:0x52146e0532940778,
building materials,Toko Bahan Bangunan,UD.TOKO SINAR TAMPO,"9PF5+748, Jl. Pelabuhan Tampo, Napabalano, Kec. Napabalano, Kabupaten Muna, Sulawesi Tenggara 93654","Jl. Pelabuhan Tampo, Napabalano, Kec. Napabalano, Kabupaten Muna",SULAWESI TENGGARA,93654.0,Indonesia,,,,-4.6268457,122.7078149,https://maps.google.com/?cid=0x0:0x2e60cbca8e402cd6,
building materials,Toko Bahan Bangunan,"Kalimbua, UD","JL. Poros Raha-Tampo, Dusun 2 Napabalano, Muna, Pentiro, Kendari, Kabupaten Muna, Sulawesi Tenggara 93654","Dusun 2 Napabalano, Muna, Pentiro, Kendari, Kabupaten Muna",SULAWESI TENGGARA,93654.0,Indonesia, 085241893195,,,-4.655475,122.689419,https://maps.google.com/?cid=0x0:0xfa1e81e8bd8da164,
building materials,Toko Bahan Bangunan,TOKO ARENDA JAYA,"5MP4+CQ4, Jl. Poros Raha-Kusambi, Lakauduma, Kec. Watopute, Kabupaten Muna, Sulawesi Tenggara 93656","Jl. Poros Raha-Kusambi, Lakauduma, Kec. Watopute, Kabupaten Muna",SULAWESI TENGGARA,93656.0,Indonesia, 083165813565,,,-4.8139561,122.6569326,https://maps.google.com/?cid=0x0:0xdb67bbacc5800b3e,
building materials,Toko Perlengkapan Rumah,Percetakan Batu Bata,"8MX9+WR8 Dana Bhalano, Napalakura, Kec. Napabalano, Kabupaten Muna, Sulawesi Tenggara 93654","Napalakura, Kec. Napabalano, Kabupaten Muna",SULAWESI TENGGARA,93654.0,Indonesia, 082393233292,,,-4.6502121,122.6695757,https://maps.google.com/?cid=0x0:0x4b7cb68ec082d981,
building materials,Toko Bahan Bangunan,UD. SINAR MAPERAHA,"6GHJ+P88, Maperaha, Kec. Sawerigadi, Kabupaten Muna, Sulawesi Tenggara 93653","Maperaha, Kec. Sawerigadi, Kabupaten Muna",SULAWESI TENGGARA,93653.0,Indonesia, 085281323528,,,-4.770698,122.5308095,https://maps.google.com/?cid=0x0:0xdc74a3c7fc297d25,
building materials,Toko Bahan Bangunan,Toko Niat jaya,"6MJP+H3J, Bangun Sari, Kec. Lasalepa, Kabupaten Muna, Sulawesi Tenggara 93654","Bangun Sari, Kec. Lasalepa, Kabupaten Muna",SULAWESI TENGGARA,93654.0,Indonesia,,,,-4.7684887,122.6854782,https://maps.google.com/?cid=0x0:0xdd482e24534ca0ff,
building materials,Toko Bahan Bangunan,Baja,"5PJ8+H4F, Lrg. Pendidikan, Raha III, Kec. Katobu, Kabupaten Muna, Sulawesi Tenggara 93614","Lrg. Pendidikan, Raha III, Kec. Katobu, Kabupaten Muna",SULAWESI TENGGARA,93614.0,Indonesia,,,,-4.8185601,122.7153067,https://maps.google.com/?cid=0x0:0x83db7f63c91a0dc8,
building materials,Toko,UD AFIFA GUALI,"7G2R+95R, Guali, Kec. Kusambi, Kabupaten Muna, Sulawesi Tenggara 93653","Guali, Kec. Kusambi, Kabupaten Muna",SULAWESI TENGGARA,93653.0,Indonesia,,,,-4.7490209,122.5403948,https://maps.google.com/?cid=0x0:0x546f4915f9a4f411,
building materials,Toko Perlengkapan Rumah,Aneka Diesel,"9PH3+56X, Tampo, Kec. Napabalano, Kabupaten Muna, Sulawesi Tenggara 93654","Tampo, Kec. Napabalano, Kabupaten Muna",SULAWESI TENGGARA,93654.0,Indonesia,,,,-4.6220029,122.7031084,https://maps.google.com/?cid=0x0:0x2a6c1dd41d29e2a4,
building materials,building materials,OHlBaOfwHZ-gseMP4pWgkQk,,,SULAWESI TENGGARA,,Indonesia, 081271109313,,,-4.8369366,122.5891495,https://maps.google.com/?cid=0x0:0x1ac683bcbcada761,
building materials,Toko Bahan Bangunan,UD. SINAR MAPERAHA,"6GHJ+P88, Maperaha, Kec. Sawerigadi, Kabupaten Muna, Sulawesi Tenggara 93653","Maperaha, Kec. Sawerigadi, Kabupaten Muna",SULAWESI TENGGARA,93653.0,Indonesia, 085281323528,,,-4.770698,122.5308095,https://maps.google.com/?cid=0x0:0xdc74a3c7fc297d25,
building materials,Toko Bahan Bangunan,UD.Dian Masara,"7HPF+25Q, Unnamed Road, Masara, Kec. Napano Kusambi, Kabupaten Muna, Sulawesi Tenggara 93655","Unnamed Road, Masara, Kec. Napano Kusambi, Kabupaten Muna",SULAWESI TENGGARA,93655.0,Indonesia,,,,-4.7149002,122.5729924,https://maps.google.com/?cid=0x0:0xcd58ef99a4f88c75,
building materials,Kantor Perusahaan,Ud. Sawerigading,"V29Q+QMJ, Pattirosompe, Kec. Tempe, Kabupaten Wajo, Sulawesi Selatan 90913","Pattirosompe, Kec. Tempe, Kabupaten Wajo",SULAWESI TENGGARA,90913.0,Indonesia,,,,-4.1305324,120.0391379,https://maps.google.com/?cid=0x0:0x24be2ccdc595ed4c,
building materials,building materials,Kec. Tiworo Kepulauan,"Kabupaten Muna, Sulawesi Tenggara","Kabupaten Muna, Sulawesi Tenggara",SULAWESI TENGGARA,,Indonesia,,,,-4.7783688,122.4353995,https://maps.google.com/?cid=0x0:0xb9b9310dc3cd9cb5,
building materials,Toko Bahan Bangunan,Tb Berkah Ilahi,"5CP3+RCP, Jl. Poros, barat, Wapae Jaya, Tiworo Tengah, Kabupaten Muna, Sulawesi Tenggara","Kabupaten Muna, Sulawesi Tenggara",SULAWESI TENGGARA,,Indonesia, 082293224969,,,-4.8129136,122.4035644,https://maps.google.com/?cid=0x0:0xe2dd79e4878d7c06,
building materials,Toko Bahan Bangunan,TOKO MITRA UTAMA ( Bahan bangunan ),"Wapae Jaya, Tiworo Tengah, Kabupaten Muna, Sulawesi Tenggara 93653","Tiworo Tengah, Kabupaten Muna",SULAWESI TENGGARA,93653.0,Indonesia, 081340991110,,,-4.8098747,122.4048474,https://maps.google.com/?cid=0x0:0x86bbde18d8f05086,
building materials,Toko Bahan Bangunan,BM JAYA MANDIRI,"jln buncis No.01, Kasimpa Jaya, Tiworo Sel., Muna Barat, Sulawesi Tenggara","Muna Barat, Sulawesi Tenggara",SULAWESI TENGGARA,,Indonesia, 081367781032,,,-4.8745068,122.3922714,https://maps.google.com/?cid=0x0:0x17287a8b3aea5cf5,
building materials,Toko Bahan Bangunan,UD Sinar Buana Bangunan 02,"498H+2V2, desa kasimpa jaya, kecamatan tiworo selatan, Kasimpa Jaya, barat, Kabupaten Muna, Sulawesi Tenggara 93664","desa kasimpa jaya, kecamatan tiworo selatan, Kasimpa Jaya, barat, Kabupaten Muna",SULAWESI TENGGARA,93664.0,Indonesia, 081341066455,,,-4.8849852,122.3796289,https://maps.google.com/?cid=0x0:0xcafff15f6b6eecec,
building materials,Toko Bahan Bangunan,UD.PANDAN ARUM,"4CW3+CWG, Jl.slametriyadi, Parura Jaya, Tiworo Sel., Muna barat, Sulawesi Tenggara 93644","Jl.slametriyadi, Parura Jaya, Tiworo Sel., Muna barat",SULAWESI TENGGARA,93644.0,Indonesia, 081243387973,,,-4.8539421,122.4048335,https://maps.google.com/?cid=0x0:0x9416535e64517831,
building materials,Toko Bahan Bangunan,UD. AMAL JAYA,"49CQ+X7M, Jln Poros, Kasimpa Jaya, South Tiworo, Muna Regency, South East Sulawesi","Kabupaten Muna, Sulawesi Tenggara",SULAWESI TENGGARA,,Indonesia, 085241645999,,,-4.8777067,122.3884577,https://maps.google.com/?cid=0x0:0xe0d02570382e2948,
building materials,Pemasok Bahan Bangunan,Penjual Batu Merah,"7G7J+VW2, Lapokainse, Kec. Kusambi, Kabupaten Muna, Sulawesi Tenggara","Kabupaten Muna, Sulawesi Tenggara",SULAWESI TENGGARA,,Indonesia, 085338172790,,,-4.7353634,122.5322506,https://maps.google.com/?cid=0x0:0xcf8080b6093528e4,
building materials,Toko Bahan Bangunan,UD. SINAR MAPERAHA,"6GHJ+P88, Maperaha, Kec. Sawerigadi, Kabupaten Muna, Sulawesi Tenggara 93653","Maperaha, Kec. Sawerigadi, Kabupaten Muna",SULAWESI TENGGARA,93653.0,Indonesia, 085281323528,,,-4.770698,122.5308095,https://maps.google.com/?cid=0x0:0xdc74a3c7fc297d25,
building materials,Toko Bahan Bangunan,Batu Merah(Bang Pariman),"499H+M2Q, Kasimpa Jaya, Tiworo Sel., Kabupaten Muna, Sulawesi Tenggara 93664","Kasimpa Jaya, Tiworo Sel., Kabupaten Muna",SULAWESI TENGGARA,93664.0,Indonesia, 085342435291,,,-4.8807854,122.3776156,https://maps.google.com/?cid=0x0:0xa39a4c745dd69485,
building materials,Toko Bahan Bangunan,UD.SINAR BUANA,"49FQ+8PG, Jln poros desa, Kasimpa Jaya, Tiworo Sel., Kabupaten Muna, Sulawesi Tenggara","Kabupaten Muna, Sulawesi Tenggara",SULAWESI TENGGARA,,Indonesia,,,,-4.8766926,122.389321,https://maps.google.com/?cid=0x0:0xb3b88436a20a0c,
building materials,Toko Bahan Bangunan,UD.SIMPANG TIGA,"Jalan poros kasimpa jaya, Parura Jaya, Kambara, Sulawesi Tenggara","Kambara, Sulawesi Tenggara",SULAWESI TENGGARA,,Indonesia,,,,-4.8705404,122.395916,https://maps.google.com/?cid=0x0:0x7d6c85696b04b389,
building materials,Toko Bahan Bangunan,UD Lambubalano Jaya / Sentral Keramik,"5G8C+489, Desa Wuna, Jalan poros Lagadi, Tondasi, Kec. Barangka, Muna Barat, Sulawesi Tenggara 93657","Desa Wuna, Jalan poros Lagadi, Tondasi, Kec. Barangka, Muna Barat",SULAWESI TENGGARA,93657.0,Indonesia, 082292835450,,,-4.834703,122.5208635,https://maps.google.com/?cid=0x0:0x8a1ad4343897ed21,
building materials,Toko Bahan Bangunan,Toko Nanda Makmur Jaya,"5CW2+WJ3, Jl. Poros, Suka Damai, barat, Kabupaten Muna, Sulawesi Tenggara","Kabupaten Muna, Sulawesi Tenggara",SULAWESI TENGGARA,,Indonesia,,,,-4.8027474,122.4015573,https://maps.google.com/?cid=0x0:0x51fdef2fcee53280,
building materials,Toko Bahan Bangunan,CAHAYA TOMPIRA,"W9HW+Q7X, Jl. Trans Sulawesi, Tompira, Kec. Petasia Timur, Kabupaten Morowali Utara, Sulawesi Tengah 94971","Jl. Trans Sulawesi, Tompira, Kec. Petasia Timur, Kabupaten Morowali Utara",SULAWESI TENGGARA,94971.0,Indonesia, 082253383199,,,-2.0705071,121.3957212,https://maps.google.com/?cid=0x0:0x6e05fc2aa56de9fc,
building materials,Pusat Perbelanjaan,Toko Mesran Motor,"5CM3+V2C, Jl. Poros, Wapae Jaya, Tiworo Tengah, Kabupaten Muna, Sulawesi Tenggara 93653","Jl. Poros, Wapae Jaya, Tiworo Tengah, Kabupaten Muna",SULAWESI TENGGARA,93653.0,Indonesia,,,,-4.8153212,122.4025066,https://maps.google.com/?cid=0x0:0xb43153a03b20ed01,
building materials,Toko Bahan Bangunan,USAHA-KAYU PARTIMAN,"498M+XCP, Jln wortel 1, Kasimpa Jaya, Tiworo Sel., Kabupaten Muna, Sulawesi Tenggara 93664","Jln wortel 1, Kasimpa Jaya, Tiworo Sel., Kabupaten Muna",SULAWESI TENGGARA,93664.0,Indonesia, 082291861755,,,-4.8825389,122.383588,https://maps.google.com/?cid=0x0:0x1bab81d9aaf7b9ec,
building materials,Toko Bahan Bangunan,TAMA LANREA,"JH6Q+732, Jl. Poros Kendari - Kolono, Kaindi, Kec. Lainea, Kabupaten Konawe Selatan, Sulawesi Tenggara 93881","Jl. Poros Kendari - Kolono, Kaindi, Kec. Lainea, Kabupaten Konawe Selatan",SULAWESI TENGGARA,93881.0,Indonesia,,,,-4.3893538,122.5876345,https://maps.google.com/?cid=0x0:0xc9d2b05d386c6bb7,
building materials,building materials,UD RAFLY,"5CGH+CPX, Wulanga Jaya, Kec. Tiworo Kepulauan, Muna Barat, Sulawesi Tenggara 93653","Wulanga Jaya, Kec. Tiworo Kepulauan, Muna Barat",SULAWESI TENGGARA,93653.0,Indonesia, 081248828802,,,-4.8238812,122.4293635,https://maps.google.com/?cid=0x0:0x2b86c2084b3bbdd5,
building materials,building materials,Tiworo Sel.,"Kabupaten Muna, Sulawesi Tenggara","Kabupaten Muna, Sulawesi Tenggara",SULAWESI TENGGARA,,Indonesia,,,,-4.8877531,122.3900901,https://maps.google.com/?cid=0x0:0xb8fa848ebeff23ff,
building materials,Toko Bahan Bangunan,UD Sinar Buana Bangunan 02,"498H+2V2, desa kasimpa jaya, kecamatan tiworo selatan, Kasimpa Jaya, barat, Kabupaten Muna, Sulawesi Tenggara 93664","desa kasimpa jaya, kecamatan tiworo selatan, Kasimpa Jaya, barat, Kabupaten Muna",SULAWESI TENGGARA,93664.0,Indonesia, 081341066455,,,-4.8849852,122.3796289,https://maps.google.com/?cid=0x0:0xcafff15f6b6eecec,
building materials,Toko Bahan Bangunan,BM JAYA MANDIRI,"jln buncis No.01, Kasimpa Jaya, Tiworo Sel., Muna Barat, Sulawesi Tenggara","Muna Barat, Sulawesi Tenggara",SULAWESI TENGGARA,,Indonesia, 081367781032,,,-4.8745068,122.3922714,https://maps.google.com/?cid=0x0:0x17287a8b3aea5cf5,
building materials,Toko Bahan Bangunan,UD. AMAL JAYA,"49CQ+X7M, Jln Poros, Kasimpa Jaya, South Tiworo, Muna Regency, South East Sulawesi","Kabupaten Muna, Sulawesi Tenggara",SULAWESI TENGGARA,,Indonesia, 085241645999,,,-4.8777067,122.3884577,https://maps.google.com/?cid=0x0:0xe0d02570382e2948,
building materials,Toko Bahan Bangunan,Tb Berkah Ilahi,"5CP3+RCP, Jl. Poros, barat, Wapae Jaya, Tiworo Tengah, Kabupaten Muna, Sulawesi Tenggara","Kabupaten Muna, Sulawesi Tenggara",SULAWESI TENGGARA,,Indonesia, 082293224969,,,-4.8129136,122.4035644,https://maps.google.com/?cid=0x0:0xe2dd79e4878d7c06,
building materials,Toko Bahan Bangunan,Batu Merah(Bang Pariman),"499H+M2Q, Kasimpa Jaya, Tiworo Sel., Kabupaten Muna, Sulawesi Tenggara 93664","Kasimpa Jaya, Tiworo Sel., Kabupaten Muna",SULAWESI TENGGARA,93664.0,Indonesia, 085342435291,,,-4.8807854,122.3776156,https://maps.google.com/?cid=0x0:0xa39a4c745dd69485,
building materials,Toko Bahan Bangunan,TOKO MITRA UTAMA ( Bahan bangunan ),"Wapae Jaya, Tiworo Tengah, Kabupaten Muna, Sulawesi Tenggara 93653","Tiworo Tengah, Kabupaten Muna",SULAWESI TENGGARA,93653.0,Indonesia, 081340991110,,,-4.8098747,122.4048474,https://maps.google.com/?cid=0x0:0x86bbde18d8f05086,
building materials,Toko Bahan Bangunan,UD.SINAR BUANA,"49FQ+8PG, Jln poros desa, Kasimpa Jaya, Tiworo Sel., Kabupaten Muna, Sulawesi Tenggara","Kabupaten Muna, Sulawesi Tenggara",SULAWESI TENGGARA,,Indonesia,,,,-4.8766926,122.389321,https://maps.google.com/?cid=0x0:0xb3b88436a20a0c,
building materials,Toko Bahan Bangunan,UD.PANDAN ARUM,"4CW3+CWG, Jl.slametriyadi, Parura Jaya, Tiworo Sel., Muna barat, Sulawesi Tenggara 93644","Jl.slametriyadi, Parura Jaya, Tiworo Sel., Muna barat",SULAWESI TENGGARA,93644.0,Indonesia, 081243387973,,,-4.8539421,122.4048335,https://maps.google.com/?cid=0x0:0x9416535e64517831,
building materials,Toko Bahan Bangunan,USAHA-KAYU PARTIMAN,"498M+XCP, Jln wortel 1, Kasimpa Jaya, Tiworo Sel., Kabupaten Muna, Sulawesi Tenggara 93664","Jln wortel 1, Kasimpa Jaya, Tiworo Sel., Kabupaten Muna",SULAWESI TENGGARA,93664.0,Indonesia, 082291861755,,,-4.8825389,122.383588,https://maps.google.com/?cid=0x0:0x1bab81d9aaf7b9ec,
building materials,Toko Bahan Bangunan,UD.SIMPANG TIGA,"Jalan poros kasimpa jaya, Parura Jaya, Kambara, Sulawesi Tenggara","Kambara, Sulawesi Tenggara",SULAWESI TENGGARA,,Indonesia,,,,-4.8705404,122.395916,https://maps.google.com/?cid=0x0:0x7d6c85696b04b389,
building materials,building materials,Tiworo Tengah,"Kabupaten Muna, Sulawesi Tenggara","Kabupaten Muna, Sulawesi Tenggara",SULAWESI TENGGARA,,Indonesia,,,,-4.7902626,122.3787597,https://maps.google.com/?cid=0x0:0x185569b801f89ceb,
building materials,Toko Bahan Bangunan,Sinar Karunia,"Jl. Poros No.2, Wapae Jaya, Tiworo Tengah, Kabupaten Muna, Sulawesi Tenggara 93648","Wapae Jaya, Tiworo Tengah, Kabupaten Muna",SULAWESI TENGGARA,93648.0,Indonesia, 081242222245,,,-4.8167409,122.4020923,https://maps.google.com/?cid=0x0:0x4e38fd0b930d486a,
building materials,Toko Bahan Bangunan,TOKO MITRA UTAMA ( Bahan bangunan ),"Wapae Jaya, Tiworo Tengah, Kabupaten Muna, Sulawesi Tenggara 93653","Tiworo Tengah, Kabupaten Muna",SULAWESI TENGGARA,93653.0,Indonesia, 081340991110,,,-4.8098747,122.4048474,https://maps.google.com/?cid=0x0:0x86bbde18d8f05086,
building materials,Toko Bahan Bangunan,UD.PANDAN ARUM,"4CW3+CWG, Jl.slametriyadi, Parura Jaya, Tiworo Sel., Muna barat, Sulawesi Tenggara 93644","Jl.slametriyadi, Parura Jaya, Tiworo Sel., Muna barat",SULAWESI TENGGARA,93644.0,Indonesia, 081243387973,,,-4.8539421,122.4048335,https://maps.google.com/?cid=0x0:0x9416535e64517831,
building materials,Toko Bahan Bangunan,UD Sinar Buana Bangunan 02,"498H+2V2, desa kasimpa jaya, kecamatan tiworo selatan, Kasimpa Jaya, barat, Kabupaten Muna, Sulawesi Tenggara 93664","desa kasimpa jaya, kecamatan tiworo selatan, Kasimpa Jaya, barat, Kabupaten Muna",SULAWESI TENGGARA,93664.0,Indonesia, 081341066455,,,-4.8849852,122.3796289,https://maps.google.com/?cid=0x0:0xcafff15f6b6eecec,
building materials,Toko Bahan Bangunan,UD. AMAL JAYA,"49CQ+X7M, Jln Poros, Kasimpa Jaya, South Tiworo, Muna Regency, South East Sulawesi","Kabupaten Muna, Sulawesi Tenggara",SULAWESI TENGGARA,,Indonesia, 085241645999,,,-4.8777067,122.3884577,https://maps.google.com/?cid=0x0:0xe0d02570382e2948,
building materials,Toko Bahan Bangunan,BM JAYA MANDIRI,"jln buncis No.01, Kasimpa Jaya, Tiworo Sel., Muna Barat, Sulawesi Tenggara","Muna Barat, Sulawesi Tenggara",SULAWESI TENGGARA,,Indonesia, 081367781032,,,-4.8745068,122.3922714,https://maps.google.com/?cid=0x0:0x17287a8b3aea5cf5,
building materials,Pusat Perbelanjaan,Toko Mesran Motor,"5CM3+V2C, Jl. Poros, Wapae Jaya, Tiworo Tengah, Kabupaten Muna, Sulawesi Tenggara 93653","Jl. Poros, Wapae Jaya, Tiworo Tengah, Kabupaten Muna",SULAWESI TENGGARA,93653.0,Indonesia,,,,-4.8153212,122.4025066,https://maps.google.com/?cid=0x0:0xb43153a03b20ed01,
building materials,building materials,Tiworo Utara,"Kabupaten Muna, Sulawesi Tenggara","Kabupaten Muna, Sulawesi Tenggara",SULAWESI TENGGARA,,Indonesia,,,,-4.6704353,122.373094,https://maps.google.com/?cid=0x0:0xacd624ac1fc2f9d6,
building materials,Toko Bahan Bangunan,TOKO MITRA UTAMA ( Bahan bangunan ),"Wapae Jaya, Tiworo Tengah, Kabupaten Muna, Sulawesi Tenggara 93653","Tiworo Tengah, Kabupaten Muna",SULAWESI TENGGARA,93653.0,Indonesia, 081340991110,,,-4.8098747,122.4048474,https://maps.google.com/?cid=0x0:0x86bbde18d8f05086,
building materials,Toko Bahan Bangunan,Tb Berkah Ilahi,"5CP3+RCP, Jl. Poros, barat, Wapae Jaya, Tiworo Tengah, Kabupaten Muna, Sulawesi Tenggara","Kabupaten Muna, Sulawesi Tenggara",SULAWESI TENGGARA,,Indonesia, 082293224969,,,-4.8129136,122.4035644,https://maps.google.com/?cid=0x0:0xe2dd79e4878d7c06,
building materials,Toko Bahan Bangunan,Toko Nanda Makmur Jaya,"5CW2+WJ3, Jl. Poros, Suka Damai, barat, Kabupaten Muna, Sulawesi Tenggara","Kabupaten Muna, Sulawesi Tenggara",SULAWESI TENGGARA,,Indonesia,,,,-4.8027474,122.4015573,https://maps.google.com/?cid=0x0:0x51fdef2fcee53280,
building materials,building materials,Kec. Wadaga,"Kabupaten Muna, Sulawesi Tenggara","Kabupaten Muna, Sulawesi Tenggara",SULAWESI TENGGARA,,Indonesia,,,,-4.9157067,122.5304167,https://maps.google.com/?cid=0x0:0xb09250edddcd2e35,
building materials,Toko Bahan Bangunan,UD. MAITORA,"3GMJ+X43, Lailangga, Kec. Wadaga, Kabupaten Muna, Sulawesi Tenggara 93652","Lailangga, Kec. Wadaga, Kabupaten Muna",SULAWESI TENGGARA,93652.0,Indonesia, 081341913104,,,-4.9151237,122.5302863,https://maps.google.com/?cid=0x0:0xe7bc0ce234f87a54,
building materials,Toko Bahan Bangunan,UD Sinar Buana Bangunan 02,"498H+2V2, desa kasimpa jaya, kecamatan tiworo selatan, Kasimpa Jaya, barat, Kabupaten Muna, Sulawesi Tenggara 93664","desa kasimpa jaya, kecamatan tiworo selatan, Kasimpa Jaya, barat, Kabupaten Muna",SULAWESI TENGGARA,93664.0,Indonesia, 081341066455,,,-4.8849852,122.3796289,https://maps.google.com/?cid=0x0:0xcafff15f6b6eecec,
building materials,Toko Bahan Bangunan,Dafis bangunan,"2GV2+VF2, Jl. Dr. Soetomo, Punggolaka, Kec. Puuwatu, Kota Kendari, Sulawesi Tenggara 93112","Jl. Dr. Soetomo, Punggolaka, Kec. Puuwatu, Kota Kendari",SULAWESI TENGGARA,93112.0,Indonesia,,,,-3.9556846,122.5012743,https://maps.google.com/?cid=0x0:0x5c7eb306ac061727,
building materials,Toko Bahan Bangunan,Anggoeya,"2H34+XV6, Jl. H. Banawula Sin Apoy, Anggoeya, Kec. Poasia, Kota Kendari, Sulawesi Tenggara","Kota Kendari, Sulawesi Tenggara",SULAWESI TENGGARA,,Indonesia,,,,-3.9950986,122.5571258,https://maps.google.com/?cid=0x0:0x51cfc181cde07e2d,
building materials,Toko Bahan Bangunan,UD.SINAR BUANA,"49FQ+8PG, Jln poros desa, Kasimpa Jaya, Tiworo Sel., Kabupaten Muna, Sulawesi Tenggara","Kabupaten Muna, Sulawesi Tenggara",SULAWESI TENGGARA,,Indonesia,,,,-4.8766926,122.389321,https://maps.google.com/?cid=0x0:0xb3b88436a20a0c,
building materials,Toko Bahan Bangunan,TK Sinar Mandar,"Jl. Jend. Ahmad Yani No.88 G, Mataiwoi, Kec. Wua-Wua, Kota Kendari, Sulawesi Tenggara 93117","Mataiwoi, Kec. Wua-Wua, Kota Kendari",SULAWESI TENGGARA,93117.0,Indonesia, 085342409309,,,-3.9887697,122.5056932,https://maps.google.com/?cid=0x0:0x64648d2b4a2e3c60,
building materials,Toko Bahan Bangunan,BM JAYA MANDIRI,"jln buncis No.01, Kasimpa Jaya, Tiworo Sel., Muna Barat, Sulawesi Tenggara","Muna Barat, Sulawesi Tenggara",SULAWESI TENGGARA,,Indonesia, 081367781032,,,-4.8745068,122.3922714,https://maps.google.com/?cid=0x0:0x17287a8b3aea5cf5,
building materials,Toko Bahan Bangunan,UD. BEA BERKAH BANGUNAN,"2FFX+WR, Bea, Kec. Kabawo, Kabupaten Muna, Sulawesi Tenggara","Kabupaten Muna, Sulawesi Tenggara",SULAWESI TENGGARA,,Indonesia,,,,-4.9751984,122.4995188,https://maps.google.com/?cid=0x0:0xd9d6416b1dedfb3d,
building materials,Toko Bahan Bangunan,UD.SIMPANG TIGA,"Jalan poros kasimpa jaya, Parura Jaya, Kambara, Sulawesi Tenggara","Kambara, Sulawesi Tenggara",SULAWESI TENGGARA,,Indonesia,,,,-4.8705404,122.395916,https://maps.google.com/?cid=0x0:0x7d6c85696b04b389,
building materials,Toko Bahan Bangunan,UD.MAHMUD,"XFQX+F9X, Kontumere, Kec. Kabawo, Kabupaten Muna, Sulawesi Tenggara","Kabupaten Muna, Sulawesi Tenggara",SULAWESI TENGGARA,,Indonesia, 085212270675,,,-5.0112606,122.4984948,https://maps.google.com/?cid=0x0:0xdf82f63e1378029d,
building materials,Kantor Perusahaan,Batako Anggoeya,"J.l Sakulawu, Kota Kendari, Sulawesi Tenggara 93231",Kota Kendari,SULAWESI TENGGARA,93231.0,Indonesia, 081913533832,,,-3.9963897,122.5704565,https://maps.google.com/?cid=0x0:0x17c06d8d86a5500c,
building materials,Toko Bahan Bangunan,SA,"Jl. Laode Hadi No.88, Bonggoeya, Kec. Wua-Wua, Kota Kendari, Sulawesi Tenggara 93561","Bonggoeya, Kec. Wua-Wua, Kota Kendari",SULAWESI TENGGARA,93561.0,Indonesia, 082393005353,,,-4.0055574,122.5086807,https://maps.google.com/?cid=0x0:0xeb1f5eb237e53b96,
building materials,Pusat Perbelanjaan,DEPO SM,"2H45+WVX, Jl. H. Banawula Sin Apoy, Puday, Kec. Abeli, Kota Kendari, Sulawesi Tenggara 93231","Jl. H. Banawula Sin Apoy, Puday, Kec. Abeli, Kota Kendari",SULAWESI TENGGARA,93231.0,Indonesia, 085333379607,,,-3.9926265,122.5597487,https://maps.google.com/?cid=0x0:0x54303337dbcc033e,
building materials,Toko Bahan Bangunan,Toko Mega Bangunan,"Jln Mayjend katamso samping toko Mega jaya, Kota Kendari, Sulawesi Tenggara 93116",Kota Kendari,SULAWESI TENGGARA,93116.0,Indonesia, 081341540000,,,-4.0372912,122.4958651,https://maps.google.com/?cid=0x0:0x70d15ddc67db30f2,
building materials,Toko Bahan Bangunan,UD.PANDAN ARUM,"4CW3+CWG, Jl.slametriyadi, Parura Jaya, Tiworo Sel., Muna barat, Sulawesi Tenggara 93644","Jl.slametriyadi, Parura Jaya, Tiworo Sel., Muna barat",SULAWESI TENGGARA,93644.0,Indonesia, 081243387973,,,-4.8539421,122.4048335,https://maps.google.com/?cid=0x0:0x9416535e64517831,
building materials,Toko Bahan Bangunan,UD. SINAR MAPERAHA,"6GHJ+P88, Maperaha, Kec. Sawerigadi, Kabupaten Muna, Sulawesi Tenggara 93653","Maperaha, Kec. Sawerigadi, Kabupaten Muna",SULAWESI TENGGARA,93653.0,Indonesia, 085281323528,,,-4.770698,122.5308095,https://maps.google.com/?cid=0x0:0xdc74a3c7fc297d25,
toko bangunan,toko bangunan,Kec. Barangka,"Kabupaten Muna, Sulawesi Tenggara","Kabupaten Muna, Sulawesi Tenggara",SULAWESI TENGGARA,,Indonesia,,,,-4.8448994,122.5483448,https://maps.google.com/?cid=0x0:0x22374dea68597f27,
toko bangunan,Toko Bahan Bangunan,UD Lambubalano Jaya / Sentral Keramik,"5G8C+489, Desa Wuna, Jalan poros Lagadi, Tondasi, Kec. Barangka, Muna Barat, Sulawesi Tenggara 93657","Desa Wuna, Jalan poros Lagadi, Tondasi, Kec. Barangka, Muna Barat",SULAWESI TENGGARA,93657.0,Indonesia, 082292835450,,,-4.834703,122.5208635,https://maps.google.com/?cid=0x0:0x8a1ad4343897ed21,
toko bangunan,Toko,Toko Tiga Bangunan,"WGX4+WGM, Jl. KS Tubun, Baruga, Kec. Baruga, Kota Kendari, Sulawesi Tenggara 93116","Jl. KS Tubun, Baruga, Kec. Baruga, Kota Kendari",SULAWESI TENGGARA,93116.0,Indonesia, 085220057233,,,-4.0500293,122.5061488,https://maps.google.com/?cid=0x0:0x12ddecf29ea5f1ab,
toko bangunan,Toko Bahan Bangunan,TOKO MITRA UTAMA ( Bahan bangunan ),"Wapae Jaya, Tiworo Tengah, Kabupaten Muna, Sulawesi Tenggara 93653","Tiworo Tengah, Kabupaten Muna",SULAWESI TENGGARA,93653.0,Indonesia, 081340991110,,,-4.8098747,122.4048474,https://maps.google.com/?cid=0x0:0x86bbde18d8f05086,
toko bangunan,Toko Bahan Bangunan,TOKO BANGUNAN ARHAM JAYA,"XGW9+H66, Jl. HEA Mokodompit, Kambu, Kec. Kambu, Kota Kendari, Sulawesi Tenggara 93561","Jl. HEA Mokodompit, Kambu, Kec. Kambu, Kota Kendari",SULAWESI TENGGARA,93561.0,Indonesia, 00000000000,,,-4.0035868,122.5180148,https://maps.google.com/?cid=0x0:0x4d251b2e272a4a96,
toko bangunan,Toko Bahan Bangunan,TOKO BANGUNAN MAJESTY,"2H56+PFQ, Unnamed Road, Anggoeya, Kec. Poasia, Kota Kendari, Sulawesi Tenggara 93231","Unnamed Road, Anggoeya, Kec. Poasia, Kota Kendari",SULAWESI TENGGARA,93231.0,Indonesia, 08114038009,,,-3.9906542,122.561224,https://maps.google.com/?cid=0x0:0x783f1075052d1ac5,
toko bangunan,Toko Bahan Bangunan,Toko Mega Bangunan,"Jln Mayjend katamso samping toko Mega jaya, Kota Kendari, Sulawesi Tenggara 93116",Kota Kendari,SULAWESI TENGGARA,93116.0,Indonesia, 081341540000,,,-4.0372912,122.4958651,https://maps.google.com/?cid=0x0:0x70d15ddc67db30f2,
toko bangunan,toko bangunan,vHpBaLzrHJiP4-EPlJnG4AQ,,,SULAWESI TENGGARA,,Indonesia, 081271109313,,,-4.8369366,122.5891495,https://maps.google.com/?cid=0x0:0x1ac683bcbcada761,
toko bangunan,Toko Bahan Bangunan,Toko Sentral Murah Bangunan  Alat Listrik,"Jl. Suprapto No.41 C, Mandonga, Kec. Mandonga, Kota Kendari, Sulawesi Tenggara 93112","Mandonga, Kec. Mandonga, Kota Kendari",SULAWESI TENGGARA,93112.0,Indonesia, 08114044442,,,-3.9606833,122.5156274,https://maps.google.com/?cid=0x0:0x89907be4fe7f9e25,
toko bangunan,Minimarket,TOKO Boni,"7P3J+5MQ, Bonea, Kec. Lasalepa, Kabupaten Muna, Sulawesi Tenggara 93654","Bonea, Kec. Lasalepa, Kabupaten Muna",SULAWESI TENGGARA,93654.0,Indonesia,,,,-4.7470486,122.7317384,https://maps.google.com/?cid=0x0:0xea9b7687406ba51,
toko bangunan,Toko Bahan Bangunan,Toko Citra Bangunan,"2GJC+F7H, Jl. Syech Yusuf, Korumba, Kec. Mandonga, Kota Kendari, Sulawesi Tenggara 93111","Jl. Syech Yusuf, Korumba, Kec. Mandonga, Kota Kendari",SULAWESI TENGGARA,93111.0,Indonesia,,,,-3.9688105,122.5207248,https://maps.google.com/?cid=0x0:0x8e61a77e7cde98cd,
toko bangunan,Toko Bahan Bangunan,Toko Sinar Samuli,"RGMC+PCV, Jl Poros Raha Wamengkoli, Watondo, Kec. Tongkuno Sel., Kabupaten Muna, Sulawesi Tenggara 93662","Jl Poros Raha Wamengkoli, Watondo, Kec. Tongkuno Sel., Kabupaten Muna",SULAWESI TENGGARA,93662.0,Indonesia, 082271218088,,,-5.1656396,122.5210432,https://maps.google.com/?cid=0x0:0x409de9a2896c31b3,
toko bangunan,Toko Bahan Bangunan,"MAXCELL DEPO TEKNIK  BANGUNAN | Toko Listrik, Elektronik, Furniture Kendari","Ex, Jl. Laode Hadi Jl. Brigjen M. Yoenoes No.149-159, Bende, Kadia, Kendari City, South East Sulawesi 93118","Jl. Laode Hadi Jl. Brigjen M. Yoenoes No.149-159, Bende, Kadia, Kendari City",SULAWESI TENGGARA,93118.0,Indonesia, 04013192000,,,-3.992658,122.5139203,https://maps.google.com/?cid=0x0:0x8135d7de339a4cf7,
toko bangunan,Toko Bahan Bangunan,UD. SINAR MAPERAHA,"6GHJ+P88, Maperaha, Kec. Sawerigadi, Kabupaten Muna, Sulawesi Tenggara 93653","Maperaha, Kec. Sawerigadi, Kabupaten Muna",SULAWESI TENGGARA,93653.0,Indonesia, 085281323528,,,-4.770698,122.5308095,https://maps.google.com/?cid=0x0:0xdc74a3c7fc297d25,
toko bangunan,toko bangunan,UD ALIF JAYA,"5GM9+2J4, Wuna, Kec. Barangka, Kabupaten Muna, Sulawesi Tenggara 93657","Wuna, Kec. Barangka, Kabupaten Muna",SULAWESI TENGGARA,93657.0,Indonesia,,,,-4.817471,122.519063,https://maps.google.com/?cid=0x0:0x57cb29c10becf01,
toko bangunan,Toko Bahan Bangunan,TOKO HARAPAN BARU,"Laghontoghe, Kec. Tongkuno, Kabupaten Muna, Sulawesi Tenggara 93662","Kec. Tongkuno, Kabupaten Muna",SULAWESI TENGGARA,93662.0,Indonesia,,,,-5.1503963,122.5196356,https://maps.google.com/?cid=0x0:0x4fb1e0f301a6a020,
toko bangunan,Toko Bahan Bangunan,Toko Bangunan Len-lin,"658F+7M2, Bangkudu, Kec. Kulisusu, Kabupaten Buton Utara, Sulawesi Tenggara 93672","Bangkudu, Kec. Kulisusu, Kabupaten Buton Utara",SULAWESI TENGGARA,93672.0,Indonesia,,,,-4.7843589,123.1741537,https://maps.google.com/?cid=0x0:0xa8db02c25b613413,
toko bangunan,toko bangunan,Sulawesi Tenggara 93655,"Kabupaten Muna, Sulawesi Tenggara","Kabupaten Muna, Sulawesi Tenggara",SULAWESI TENGGARA,,Indonesia,,,,-4.7167048,122.593828,https://maps.google.com/?cid=0x0:0x2099dcc445aba1a5,
toko bangunan,Toko Bahan Bangunan,UD.Dian Masara,"7HPF+25Q, Unnamed Road, Masara, Kec. Napano Kusambi, Kabupaten Muna, Sulawesi Tenggara 93655","Unnamed Road, Masara, Kec. Napano Kusambi, Kabupaten Muna",SULAWESI TENGGARA,93655.0,Indonesia,,,,-4.7149002,122.5729924,https://maps.google.com/?cid=0x0:0xcd58ef99a4f88c75,
toko bangunan,Toko Bahan Bangunan,SINAR HILMI,"7H87+5X7, Desa, Sidamangura, Kec. Kusambi, Kabupaten Muna, Sulawesi Tenggara","Kabupaten Muna, Sulawesi Tenggara",SULAWESI TENGGARA,,Indonesia, 085240603780,,,-4.7345873,122.5649162,https://maps.google.com/?cid=0x0:0x52146e0532940778,
toko bangunan,Toko Bahan Bangunan,TOKO BANGUNAN ARHAM JAYA,"XGW9+H66, Jl. HEA Mokodompit, Kambu, Kec. Kambu, Kota Kendari, Sulawesi Tenggara 93561","Jl. HEA Mokodompit, Kambu, Kec. Kambu, Kota Kendari",SULAWESI TENGGARA,93561.0,Indonesia, 00000000000,,,-4.0035868,122.5180148,https://maps.google.com/?cid=0x0:0x4d251b2e272a4a96,
toko bangunan,Toko Bahan Bangunan,Toko Bahan Bangunan Raya Makmur,"Jl. Jend. AH. Nasution, Kambu, Kec. Kambu, Kota Kendari, Sulawesi Tenggara 93231","Kambu, Kec. Kambu, Kota Kendari",SULAWESI TENGGARA,93231.0,Indonesia,,,,-3.9992002,122.5190588,https://maps.google.com/?cid=0x0:0x36e6e727ae1dee2d,
toko bangunan,Toko Bahan Bangunan,TOKO MITRA UTAMA ( Bahan bangunan ),"Wapae Jaya, Tiworo Tengah, Kabupaten Muna, Sulawesi Tenggara 93653","Tiworo Tengah, Kabupaten Muna",SULAWESI TENGGARA,93653.0,Indonesia, 081340991110,,,-4.8098747,122.4048474,https://maps.google.com/?cid=0x0:0x86bbde18d8f05086,
toko bangunan,Toko Bahan Bangunan,Toko Sinar Samuli,"RGMC+PCV, Jl Poros Raha Wamengkoli, Watondo, Kec. Tongkuno Sel., Kabupaten Muna, Sulawesi Tenggara 93662","Jl Poros Raha Wamengkoli, Watondo, Kec. Tongkuno Sel., Kabupaten Muna",SULAWESI TENGGARA,93662.0,Indonesia, 082271218088,,,-5.1656396,122.5210432,https://maps.google.com/?cid=0x0:0x409de9a2896c31b3,
toko bangunan,Toko Bahan Bangunan,TOKO BAHAN BANGUNAN,"5MQ2+JGP, Jl. Poros Raha-Kusambi, Dana, Kec. Watopute, Kabupaten Muna, Sulawesi Tenggara 93658","Jl. Poros Raha-Kusambi, Dana, Kec. Watopute, Kabupaten Muna",SULAWESI TENGGARA,93658.0,Indonesia,,,,-4.8109195,122.6513408,https://maps.google.com/?cid=0x0:0x9804f5f170a038e5,
toko bangunan,Toko Bahan Bangunan,UD.TOKO SINAR TAMPO,"9PF5+748, Jl. Pelabuhan Tampo, Napabalano, Kec. Napabalano, Kabupaten Muna, Sulawesi Tenggara 93654","Jl. Pelabuhan Tampo, Napabalano, Kec. Napabalano, Kabupaten Muna",SULAWESI TENGGARA,93654.0,Indonesia,,,,-4.6268457,122.7078149,https://maps.google.com/?cid=0x0:0x2e60cbca8e402cd6,
toko bangunan,Toko Bahan Bangunan,TOKO ARENDA JAYA,"5MP4+CQ4, Jl. Poros Raha-Kusambi, Lakauduma, Kec. Watopute, Kabupaten Muna, Sulawesi Tenggara 93656","Jl. Poros Raha-Kusambi, Lakauduma, Kec. Watopute, Kabupaten Muna",SULAWESI TENGGARA,93656.0,Indonesia, 083165813565,,,-4.8139561,122.6569326,https://maps.google.com/?cid=0x0:0xdb67bbacc5800b3e,
toko bangunan,Toko Bahan Bangunan,TOKO HARAPAN BARU,"Laghontoghe, Kec. Tongkuno, Kabupaten Muna, Sulawesi Tenggara 93662","Kec. Tongkuno, Kabupaten Muna",SULAWESI TENGGARA,93662.0,Indonesia,,,,-5.1503963,122.5196356,https://maps.google.com/?cid=0x0:0x4fb1e0f301a6a020,
toko bangunan,toko bangunan,53pBaMjnELDLseMPz7e94Q0,,,SULAWESI TENGGARA,,Indonesia, 081271109313,,,-4.8369366,122.5891495,https://maps.google.com/?cid=0x0:0x1ac683bcbcada761,
toko bangunan,Toko Bahan Bangunan,TOKO BANGUNAN MAJESTY,"2H56+PFQ, Unnamed Road, Anggoeya, Kec. Poasia, Kota Kendari, Sulawesi Tenggara 93231","Unnamed Road, Anggoeya, Kec. Poasia, Kota Kendari",SULAWESI TENGGARA,93231.0,Indonesia, 08114038009,,,-3.9906542,122.561224,https://maps.google.com/?cid=0x0:0x783f1075052d1ac5,
toko bangunan,toko bangunan,Toko Bangunan Moderno,"Jl. Jend. Ahmad Yani No.188, Bonggoeya, Kec. Wua-Wua, Kota Kendari, Sulawesi Tenggara 93117","Bonggoeya, Kec. Wua-Wua, Kota Kendari",SULAWESI TENGGARA,93117.0,Indonesia,,,,-4.007016,122.4986186,https://maps.google.com/?cid=0x0:0xe1001fa059157e27,
toko bangunan,Toko Bahan Bangunan,"Kalimbua, UD","JL. Poros Raha-Tampo, Dusun 2 Napabalano, Muna, Pentiro, Kendari, Kabupaten Muna, Sulawesi Tenggara 93654","Dusun 2 Napabalano, Muna, Pentiro, Kendari, Kabupaten Muna",SULAWESI TENGGARA,93654.0,Indonesia, 085241893195,,,-4.655475,122.689419,https://maps.google.com/?cid=0x0:0xfa1e81e8bd8da164,
toko bangunan,Toko Bahan Bangunan,BM JAYA MANDIRI,"jln buncis No.01, Kasimpa Jaya, Tiworo Sel., Muna Barat, Sulawesi Tenggara","Muna Barat, Sulawesi Tenggara",SULAWESI TENGGARA,,Indonesia, 081367781032,,,-4.8745068,122.3922714,https://maps.google.com/?cid=0x0:0x17287a8b3aea5cf5,
toko bangunan,Minimarket,TOKO Boni,"7P3J+5MQ, Bonea, Kec. Lasalepa, Kabupaten Muna, Sulawesi Tenggara 93654","Bonea, Kec. Lasalepa, Kabupaten Muna",SULAWESI TENGGARA,93654.0,Indonesia,,,,-4.7470486,122.7317384,https://maps.google.com/?cid=0x0:0xea9b7687406ba51,
toko bangunan,Toko Bahan Bangunan,Toko Bangunan Indah jaya Kendari,"Jl. Jend. Ahmad Yani No.90, Anaiwoi, Kec. Kadia, Kota Kendari, Sulawesi Tenggara 93117","Anaiwoi, Kec. Kadia, Kota Kendari",SULAWESI TENGGARA,93117.0,Indonesia, 081343569978,,,-3.9889427,122.5056916,https://maps.google.com/?cid=0x0:0x11e2e112d79b0eca,
toko bangunan,Toko Bahan Bangunan,UD Lambubalano Jaya / Sentral Keramik,"5G8C+489, Desa Wuna, Jalan poros Lagadi, Tondasi, Kec. Barangka, Muna Barat, Sulawesi Tenggara 93657","Desa Wuna, Jalan poros Lagadi, Tondasi, Kec. Barangka, Muna Barat",SULAWESI TENGGARA,93657.0,Indonesia, 082292835450,,,-4.834703,122.5208635,https://maps.google.com/?cid=0x0:0x8a1ad4343897ed21,
toko bangunan,Toko,UD AFIFA GUALI,"7G2R+95R, Guali, Kec. Kusambi, Kabupaten Muna, Sulawesi Tenggara 93653","Guali, Kec. Kusambi, Kabupaten Muna",SULAWESI TENGGARA,93653.0,Indonesia,,,,-4.7490209,122.5403948,https://maps.google.com/?cid=0x0:0x546f4915f9a4f411,
toko bangunan,Toko Bahan Bangunan,Toko Niat jaya,"6MJP+H3J, Bangun Sari, Kec. Lasalepa, Kabupaten Muna, Sulawesi Tenggara 93654","Bangun Sari, Kec. Lasalepa, Kabupaten Muna",SULAWESI TENGGARA,93654.0,Indonesia,,,,-4.7684887,122.6854782,https://maps.google.com/?cid=0x0:0xdd482e24534ca0ff,
toko bangunan,toko bangunan,TOKO ENDY BANGUNAN,"Matarawa, Kec. Watopute, Kabupaten Muna, Sulawesi Tenggara","Kabupaten Muna, Sulawesi Tenggara",SULAWESI TENGGARA,,Indonesia,,,,-4.7716051,122.6001971,https://maps.google.com/?cid=0x0:0xeed929ede7a96e3f,
toko bangunan,toko bangunan,Sulawesi Tenggara 93652,"Kabupaten Muna, Sulawesi Tenggara","Kabupaten Muna, Sulawesi Tenggara",SULAWESI TENGGARA,,Indonesia,,,,-4.8874972,122.5598994,https://maps.google.com/?cid=0x0:0x34e12d7c7d7a4631,
toko bangunan,Toko Bahan Bangunan,UD. MAITORA,"3GMJ+X43, Lailangga, Kec. Wadaga, Kabupaten Muna, Sulawesi Tenggara 93652","Lailangga, Kec. Wadaga, Kabupaten Muna",SULAWESI TENGGARA,93652.0,Indonesia, 081341913104,,,-4.9151237,122.5302863,https://maps.google.com/?cid=0x0:0xe7bc0ce234f87a54,
toko bangunan,Toko Bahan Bangunan,UD Sinar Buana Bangunan 02,"498H+2V2, desa kasimpa jaya, kecamatan tiworo selatan, Kasimpa Jaya, barat, Kabupaten Muna, Sulawesi Tenggara 93664","desa kasimpa jaya, kecamatan tiworo selatan, Kasimpa Jaya, barat, Kabupaten Muna",SULAWESI TENGGARA,93664.0,Indonesia, 081341066455,,,-4.8849852,122.3796289,https://maps.google.com/?cid=0x0:0xcafff15f6b6eecec,
toko bangunan,Toko Bahan Bangunan,Toko Bangunan UD.Luthfi Lawama,"RG8F+849, Jl. Jend. Ahmad Yani, Labasa, Kec. Tongkuno Sel., Kabupaten Muna, Sulawesi Tenggara 93662","Jl. Jend. Ahmad Yani, Labasa, Kec. Tongkuno Sel., Kabupaten Muna",SULAWESI TENGGARA,93662.0,Indonesia, 085241515218,,,-5.1842093,122.5228712,https://maps.google.com/?cid=0x0:0xc701a5d054c6feba,
toko bangunan,Pusat Bisnis,Toko Tani Dan Bangunan,"2CV5+WVG, Sarimulyo, Kec. Kabangka, Kabupaten Muna, Sulawesi Tenggara 93664","Sarimulyo, Kec. Kabangka, Kabupaten Muna",SULAWESI TENGGARA,93664.0,Indonesia, 085242401689,,,-4.9551811,122.4097016,https://maps.google.com/?cid=0x0:0x22b230c3f68d6ba8,
toko bangunan,Toko Bahan Bangunan,UD. BEA BERKAH BANGUNAN,"2FFX+WR, Bea, Kec. Kabawo, Kabupaten Muna, Sulawesi Tenggara","Kabupaten Muna, Sulawesi Tenggara",SULAWESI TENGGARA,,Indonesia,,,,-4.9751984,122.4995188,https://maps.google.com/?cid=0x0:0xd9d6416b1dedfb3d,
toko bangunan,Jasa Konstruksi dan Bangunan,Laliga Gemilang,"4JPM+6QF, Liabalano, Kec. Kontunaga, Kabupaten Muna, Sulawesi Tenggara 93658","Liabalano, Kec. Kontunaga, Kabupaten Muna",SULAWESI TENGGARA,93658.0,Indonesia,,,,-4.8635173,122.6333193,https://maps.google.com/?cid=0x0:0x4e5e46b592357a4f,
toko bangunan,Toko Bahan Bangunan,UD Lambubalano Jaya / Sentral Keramik,"5G8C+489, Desa Wuna, Jalan poros Lagadi, Tondasi, Kec. Barangka, Muna Barat, Sulawesi Tenggara 93657","Desa Wuna, Jalan poros Lagadi, Tondasi, Kec. Barangka, Muna Barat",SULAWESI TENGGARA,93657.0,Indonesia, 082292835450,,,-4.834703,122.5208635,https://maps.google.com/?cid=0x0:0x8a1ad4343897ed21,
toko bangunan,Toko Bahan Bangunan,TOKO MITRA UTAMA ( Bahan bangunan ),"Wapae Jaya, Tiworo Tengah, Kabupaten Muna, Sulawesi Tenggara 93653","Tiworo Tengah, Kabupaten Muna",SULAWESI TENGGARA,93653.0,Indonesia, 081340991110,,,-4.8098747,122.4048474,https://maps.google.com/?cid=0x0:0x86bbde18d8f05086,
toko bangunan,Toko Bahan Bangunan,TOKO ARENDA JAYA,"5MP4+CQ4, Jl. Poros Raha-Kusambi, Lakauduma, Kec. Watopute, Kabupaten Muna, Sulawesi Tenggara 93656","Jl. Poros Raha-Kusambi, Lakauduma, Kec. Watopute, Kabupaten Muna",SULAWESI TENGGARA,93656.0,Indonesia, 083165813565,,,-4.8139561,122.6569326,https://maps.google.com/?cid=0x0:0xdb67bbacc5800b3e,
toko bangunan,Toko Bahan Bangunan,Toko Niat jaya,"6MJP+H3J, Bangun Sari, Kec. Lasalepa, Kabupaten Muna, Sulawesi Tenggara 93654","Bangun Sari, Kec. Lasalepa, Kabupaten Muna",SULAWESI TENGGARA,93654.0,Indonesia,,,,-4.7684887,122.6854782,https://maps.google.com/?cid=0x0:0xdd482e24534ca0ff,
toko bangunan,Toko,Tokoh Fulan,"Desa, maabholu, Lohia, Muna Regency, South East Sulawesi","Kabupaten Muna, Sulawesi Tenggara",SULAWESI TENGGARA,,Indonesia,,,,-4.8751219,122.6903291,https://maps.google.com/?cid=0x0:0xe388ffebe38ffc87,
toko bangunan,Toko,Toko Pakaian  Bangunan Nesya,"SD N1, Jl. Lorong Napabale, Lohia, Kec. Lohia, Kabupaten Muna, Sulawesi Tenggara 93658","Jl. Lorong Napabale, Lohia, Kec. Lohia, Kabupaten Muna",SULAWESI TENGGARA,93658.0,Indonesia,,,,-4.9071251,122.7379533,https://maps.google.com/?cid=0x0:0xb5e8d06e17ea5874,
toko bangunan,Toko Bahan Bangunan,Merkusi Karya Pratama. PT,"5P9C+J65, Desa Maperaha, Lawa Raha, Raha II, Kec. Katobu, Kabupaten Muna, Sulawesi Tenggara 93611","Desa Maperaha, Lawa Raha, Raha II, Kec. Katobu, Kabupaten Muna",SULAWESI TENGGARA,93611.0,Indonesia, 040321039,,,-4.830997,122.720618,https://maps.google.com/?cid=0x0:0x989f34a5339dae31,
toko bangunan,Toko Perlengkapan Rumah,Toko bangunan Sinar Jaya Raha,"Jl. Jend. Sudirman, Raha I, Kec. Katobu, Kabupaten Muna, Sulawesi Tenggara","Kabupaten Muna, Sulawesi Tenggara",SULAWESI TENGGARA,,Indonesia, 081297776310,,,-4.8437193,122.7249394,https://maps.google.com/?cid=0x0:0xea69be720d849e4a,
toko bangunan,Toko Bahan Bangunan,TOKO BAHAN BANGUNAN,"5MQ2+JGP, Jl. Poros Raha-Kusambi, Dana, Kec. Watopute, Kabupaten Muna, Sulawesi Tenggara 93658","Jl. Poros Raha-Kusambi, Dana, Kec. Watopute, Kabupaten Muna",SULAWESI TENGGARA,93658.0,Indonesia,,,,-4.8109195,122.6513408,https://maps.google.com/?cid=0x0:0x9804f5f170a038e5,
toko bangunan,Pusat Perbelanjaan,Gerai Bangunan 555,"4PQC+MGJ, Unnamed Road, Wapunto, Kec. Duruka, Kabupaten Muna, Sulawesi Tenggara 93611","Unnamed Road, Wapunto, Kec. Duruka, Kabupaten Muna",SULAWESI TENGGARA,93611.0,Indonesia,,,,-4.8607799,122.7212786,https://maps.google.com/?cid=0x0:0xfbdb5419a478ff00,
toko bangunan,Toko Bahan Bangunan,UD RESTU IBU,"XF8V+MPP, Wantiworo, Kec. Kabawo, Kabupaten Muna, Sulawesi Tenggara 93661","Wantiworo, Kec. Kabawo, Kabupaten Muna",SULAWESI TENGGARA,93661.0,Indonesia, 081248341266,,,-5.0332996,122.4943218,https://maps.google.com/?cid=0x0:0x289839cbc6792d5a,
toko bangunan,Toko Bahan Bangunan,Toko Harapan Bangunan,"5PMM+74G, Jl. Lumba-Lumba, Laiworu, Kec. Batalaiworu, Kabupaten Muna, Sulawesi Tenggara 93614","Jl. Lumba-Lumba, Laiworu, Kec. Batalaiworu, Kabupaten Muna",SULAWESI TENGGARA,93614.0,Indonesia,,,,-4.8168059,122.732831,https://maps.google.com/?cid=0x0:0x25ffca479507cc9a,
toko bangunan,Toko Bahan Bangunan,BM JAYA MANDIRI,"jln buncis No.01, Kasimpa Jaya, Tiworo Sel., Muna Barat, Sulawesi Tenggara","Muna Barat, Sulawesi Tenggara",SULAWESI TENGGARA,,Indonesia, 081367781032,,,-4.8745068,122.3922714,https://maps.google.com/?cid=0x0:0x17287a8b3aea5cf5,
toko bangunan,Toko Bahan Bangunan,Toko Bahan Bangunan RAFA,"HF72+H9, Torobulu, Kec. Laeya, Kabupaten Konawe Selatan, Sulawesi Tenggara","Kabupaten Konawe Selatan, Sulawesi Tenggara",SULAWESI TENGGARA,,Indonesia, 085399043230,,,-4.4360891,122.4509813,https://maps.google.com/?cid=0x0:0x535c71538fa95735,
toko bangunan,Toko Bahan Bangunan,Sinar Karunia,"Jl. Poros No.2, Wapae Jaya, Tiworo Tengah, Kabupaten Muna, Sulawesi Tenggara 93648","Wapae Jaya, Tiworo Tengah, Kabupaten Muna",SULAWESI TENGGARA,93648.0,Indonesia, 081242222245,,,-4.8167409,122.4020923,https://maps.google.com/?cid=0x0:0x4e38fd0b930d486a,
toko bangunan,Toko Bahan Bangunan,UD.Dian Masara,"7HPF+25Q, Unnamed Road, Masara, Kec. Napano Kusambi, Kabupaten Muna, Sulawesi Tenggara 93655","Unnamed Road, Masara, Kec. Napano Kusambi, Kabupaten Muna",SULAWESI TENGGARA,93655.0,Indonesia,,,,-4.7149002,122.5729924,https://maps.google.com/?cid=0x0:0xcd58ef99a4f88c75,
toko bangunan,Toko Bahan Bangunan,UD. AMAL JAYA,"49CQ+X7M, Jln Poros, Kasimpa Jaya, South Tiworo, Muna Regency, South East Sulawesi","Kabupaten Muna, Sulawesi Tenggara",SULAWESI TENGGARA,,Indonesia, 085241645999,,,-4.8777067,122.3884577,https://maps.google.com/?cid=0x0:0xe0d02570382e2948,
toko bangunan,toko bangunan,GXtBaNTSLNudseMPpci1iQ0,,,SULAWESI TENGGARA,,Indonesia, 081271109313,,,-4.8369366,122.5891495,https://maps.google.com/?cid=0x0:0x1ac683bcbcada761,
toko bangunan,toko bangunan,Kec. Maginti,"Kabupaten Muna, Sulawesi Tenggara","Kabupaten Muna, Sulawesi Tenggara",SULAWESI TENGGARA,,Indonesia,,,,-4.8523016,122.3273334,https://maps.google.com/?cid=0x0:0x827d1cf3623f4296,
toko bangunan,Toko Bahan Bangunan,UD Sinar Buana Bangunan 02,"498H+2V2, desa kasimpa jaya, kecamatan tiworo selatan, Kasimpa Jaya, barat, Kabupaten Muna, Sulawesi Tenggara 93664","desa kasimpa jaya, kecamatan tiworo selatan, Kasimpa Jaya, barat, Kabupaten Muna",SULAWESI TENGGARA,93664.0,Indonesia, 081341066455,,,-4.8849852,122.3796289,https://maps.google.com/?cid=0x0:0xcafff15f6b6eecec,
toko bangunan,Toko Bahan Bangunan,UD. AMAL JAYA,"49CQ+X7M, Jln Poros, Kasimpa Jaya, South Tiworo, Muna Regency, South East Sulawesi","Kabupaten Muna, Sulawesi Tenggara",SULAWESI TENGGARA,,Indonesia, 085241645999,,,-4.8777067,122.3884577,https://maps.google.com/?cid=0x0:0xe0d02570382e2948,
toko bangunan,Toko Bahan Bangunan,Tb Berkah Ilahi,"5CP3+RCP, Jl. Poros, barat, Wapae Jaya, Tiworo Tengah, Kabupaten Muna, Sulawesi Tenggara","Kabupaten Muna, Sulawesi Tenggara",SULAWESI TENGGARA,,Indonesia, 082293224969,,,-4.8129136,122.4035644,https://maps.google.com/?cid=0x0:0xe2dd79e4878d7c06,
toko bangunan,Toko Bahan Bangunan,BM JAYA MANDIRI,"jln buncis No.01, Kasimpa Jaya, Tiworo Sel., Muna Barat, Sulawesi Tenggara","Muna Barat, Sulawesi Tenggara",SULAWESI TENGGARA,,Indonesia, 081367781032,,,-4.8745068,122.3922714,https://maps.google.com/?cid=0x0:0x17287a8b3aea5cf5,
toko bangunan,Toko Bahan Bangunan,Sinar Karunia,"Jl. Poros No.2, Wapae Jaya, Tiworo Tengah, Kabupaten Muna, Sulawesi Tenggara 93648","Wapae Jaya, Tiworo Tengah, Kabupaten Muna",SULAWESI TENGGARA,93648.0,Indonesia, 081242222245,,,-4.8167409,122.4020923,https://maps.google.com/?cid=0x0:0x4e38fd0b930d486a,
toko bangunan,Toko Bahan Bangunan,Batu Merah(Bang Pariman),"499H+M2Q, Kasimpa Jaya, Tiworo Sel., Kabupaten Muna, Sulawesi Tenggara 93664","Kasimpa Jaya, Tiworo Sel., Kabupaten Muna",SULAWESI TENGGARA,93664.0,Indonesia, 085342435291,,,-4.8807854,122.3776156,https://maps.google.com/?cid=0x0:0xa39a4c745dd69485,
toko bangunan,toko bangunan,Toko bangunan perkasa,"47HC+FCM, Jl. DI Panjaitan, Lepo-Lepo, Baruga, Kota Kendari, Sulawesi Tenggara","Kota Kendari, Sulawesi Tenggara",SULAWESI TENGGARA,,Indonesia, 081240271996,,,-4.8712913,122.2710525,https://maps.google.com/?cid=0x0:0x5e7ae50f16b52013,
toko bangunan,Toko Bahan Bangunan,UD.SINAR BUANA,"49FQ+8PG, Jln poros desa, Kasimpa Jaya, Tiworo Sel., Kabupaten Muna, Sulawesi Tenggara","Kabupaten Muna, Sulawesi Tenggara",SULAWESI TENGGARA,,Indonesia,,,,-4.8766926,122.389321,https://maps.google.com/?cid=0x0:0xb3b88436a20a0c,
toko bangunan,Pusat Bisnis,Toko Tani Dan Bangunan,"2CV5+WVG, Sarimulyo, Kec. Kabangka, Kabupaten Muna, Sulawesi Tenggara 93664","Sarimulyo, Kec. Kabangka, Kabupaten Muna",SULAWESI TENGGARA,93664.0,Indonesia, 085242401689,,,-4.9551811,122.4097016,https://maps.google.com/?cid=0x0:0x22b230c3f68d6ba8,
toko bangunan,Toko Bahan Bangunan,Toko Niat jaya,"6MJP+H3J, Bangun Sari, Kec. Lasalepa, Kabupaten Muna, Sulawesi Tenggara 93654","Bangun Sari, Kec. Lasalepa, Kabupaten Muna",SULAWESI TENGGARA,93654.0,Indonesia,,,,-4.7684887,122.6854782,https://maps.google.com/?cid=0x0:0xdd482e24534ca0ff,
toko bangunan,Toko Bahan Bangunan,Toko Sinar Samuli,"RGMC+PCV, Jl Poros Raha Wamengkoli, Watondo, Kec. Tongkuno Sel., Kabupaten Muna, Sulawesi Tenggara 93662","Jl Poros Raha Wamengkoli, Watondo, Kec. Tongkuno Sel., Kabupaten Muna",SULAWESI TENGGARA,93662.0,Indonesia, 082271218088,,,-5.1656396,122.5210432,https://maps.google.com/?cid=0x0:0x409de9a2896c31b3,
toko bangunan,toko bangunan,TOKO BANGUNAN BERKAH ILLAHI 2,"Abadi Jaya, Kec. Maginti, Kabupaten Muna, Sulawesi Tenggara","Kabupaten Muna, Sulawesi Tenggara",SULAWESI TENGGARA,,Indonesia,,,,-4.8493676,122.3694161,https://maps.google.com/?cid=0x0:0x903838940f1d21c0,
toko bangunan,Toko,Toko Tiga Bangunan,"WGX4+WGM, Jl. KS Tubun, Baruga, Kec. Baruga, Kota Kendari, Sulawesi Tenggara 93116","Jl. KS Tubun, Baruga, Kec. Baruga, Kota Kendari",SULAWESI TENGGARA,93116.0,Indonesia, 085220057233,,,-4.0500293,122.5061488,https://maps.google.com/?cid=0x0:0x12ddecf29ea5f1ab,
toko bangunan,Toko Bahan Bangunan,TOKO JAYA MITRA BANGUNAN,"RGQC+84J, Laghontoghe, Kec. Tongkuno, Kabupaten Muna, Sulawesi Tenggara 93662","Laghontoghe, Kec. Tongkuno, Kabupaten Muna",SULAWESI TENGGARA,93662.0,Indonesia,,,,-5.1616594,122.5202575,https://maps.google.com/?cid=0x0:0xbbde20e1ab05b46a,
toko bangunan,Toko Bahan Bangunan,TOKO HARAPAN BARU,"Laghontoghe, Kec. Tongkuno, Kabupaten Muna, Sulawesi Tenggara 93662","Kec. Tongkuno, Kabupaten Muna",SULAWESI TENGGARA,93662.0,Indonesia,,,,-5.1503963,122.5196356,https://maps.google.com/?cid=0x0:0x4fb1e0f301a6a020,
toko bangunan,Minimarket,TOKO Boni,"7P3J+5MQ, Bonea, Kec. Lasalepa, Kabupaten Muna, Sulawesi Tenggara 93654","Bonea, Kec. Lasalepa, Kabupaten Muna",SULAWESI TENGGARA,93654.0,Indonesia,,,,-4.7470486,122.7317384,https://maps.google.com/?cid=0x0:0xea9b7687406ba51,
toko bangunan,Toko Bahan Bangunan,UD.SIMPANG TIGA,"Jalan poros kasimpa jaya, Parura Jaya, Kambara, Sulawesi Tenggara","Kambara, Sulawesi Tenggara",SULAWESI TENGGARA,,Indonesia,,,,-4.8705404,122.395916,https://maps.google.com/?cid=0x0:0x7d6c85696b04b389,
toko bangunan,Toko Bahan Bangunan,UD.PANDAN ARUM,"4CW3+CWG, Jl.slametriyadi, Parura Jaya, Tiworo Sel., Muna barat, Sulawesi Tenggara 93644","Jl.slametriyadi, Parura Jaya, Tiworo Sel., Muna barat",SULAWESI TENGGARA,93644.0,Indonesia, 081243387973,,,-4.8539421,122.4048335,https://maps.google.com/?cid=0x0:0x9416535e64517831,
toko bangunan,Toko Bahan Bangunan,Toko Nanda Makmur Jaya,"5CW2+WJ3, Jl. Poros, Suka Damai, barat, Kabupaten Muna, Sulawesi Tenggara","Kabupaten Muna, Sulawesi Tenggara",SULAWESI TENGGARA,,Indonesia,,,,-4.8027474,122.4015573,https://maps.google.com/?cid=0x0:0x51fdef2fcee53280,
toko bangunan,Toko Bahan Bangunan,USAHA-KAYU PARTIMAN,"498M+XCP, Jln wortel 1, Kasimpa Jaya, Tiworo Sel., Kabupaten Muna, Sulawesi Tenggara 93664","Jln wortel 1, Kasimpa Jaya, Tiworo Sel., Kabupaten Muna",SULAWESI TENGGARA,93664.0,Indonesia, 082291861755,,,-4.8825389,122.383588,https://maps.google.com/?cid=0x0:0x1bab81d9aaf7b9ec,
toko bangunan,Toko Bahan Bangunan,UD Lambubalano Jaya / Sentral Keramik,"5G8C+489, Desa Wuna, Jalan poros Lagadi, Tondasi, Kec. Barangka, Muna Barat, Sulawesi Tenggara 93657","Desa Wuna, Jalan poros Lagadi, Tondasi, Kec. Barangka, Muna Barat",SULAWESI TENGGARA,93657.0,Indonesia, 082292835450,,,-4.834703,122.5208635,https://maps.google.com/?cid=0x0:0x8a1ad4343897ed21,
toko bangunan,toko bangunan,Sulawesi Tenggara 93655,"Kabupaten Muna, Sulawesi Tenggara","Kabupaten Muna, Sulawesi Tenggara",SULAWESI TENGGARA,,Indonesia,,,,-4.7167048,122.593828,https://maps.google.com/?cid=0x0:0x2099dcc445aba1a5,
toko bangunan,Toko Bahan Bangunan,UD.Dian Masara,"7HPF+25Q, Unnamed Road, Masara, Kec. Napano Kusambi, Kabupaten Muna, Sulawesi Tenggara 93655","Unnamed Road, Masara, Kec. Napano Kusambi, Kabupaten Muna",SULAWESI TENGGARA,93655.0,Indonesia,,,,-4.7149002,122.5729924,https://maps.google.com/?cid=0x0:0xcd58ef99a4f88c75,
toko bangunan,Toko Bahan Bangunan,SINAR HILMI,"7H87+5X7, Desa, Sidamangura, Kec. Kusambi, Kabupaten Muna, Sulawesi Tenggara","Kabupaten Muna, Sulawesi Tenggara",SULAWESI TENGGARA,,Indonesia, 085240603780,,,-4.7345873,122.5649162,https://maps.google.com/?cid=0x0:0x52146e0532940778,
toko bangunan,Toko Bahan Bangunan,UD.TOKO SINAR TAMPO,"9PF5+748, Jl. Pelabuhan Tampo, Napabalano, Kec. Napabalano, Kabupaten Muna, Sulawesi Tenggara 93654","Jl. Pelabuhan Tampo, Napabalano, Kec. Napabalano, Kabupaten Muna",SULAWESI TENGGARA,93654.0,Indonesia,,,,-4.6268457,122.7078149,https://maps.google.com/?cid=0x0:0x2e60cbca8e402cd6,
toko bangunan,Toko Bahan Bangunan,TOKO ARENDA JAYA,"5MP4+CQ4, Jl. Poros Raha-Kusambi, Lakauduma, Kec. Watopute, Kabupaten Muna, Sulawesi Tenggara 93656","Jl. Poros Raha-Kusambi, Lakauduma, Kec. Watopute, Kabupaten Muna",SULAWESI TENGGARA,93656.0,Indonesia, 083165813565,,,-4.8139561,122.6569326,https://maps.google.com/?cid=0x0:0xdb67bbacc5800b3e,
toko bangunan,Toko Bahan Bangunan,TOKO BAHAN BANGUNAN,"5MQ2+JGP, Jl. Poros Raha-Kusambi, Dana, Kec. Watopute, Kabupaten Muna, Sulawesi Tenggara 93658","Jl. Poros Raha-Kusambi, Dana, Kec. Watopute, Kabupaten Muna",SULAWESI TENGGARA,93658.0,Indonesia,,,,-4.8109195,122.6513408,https://maps.google.com/?cid=0x0:0x9804f5f170a038e5,
toko bangunan,Toko Bahan Bangunan,Toko Niat jaya,"6MJP+H3J, Bangun Sari, Kec. Lasalepa, Kabupaten Muna, Sulawesi Tenggara 93654","Bangun Sari, Kec. Lasalepa, Kabupaten Muna",SULAWESI TENGGARA,93654.0,Indonesia,,,,-4.7684887,122.6854782,https://maps.google.com/?cid=0x0:0xdd482e24534ca0ff,
toko bangunan,Toko Bahan Bangunan,TOKO HARAPAN BARU,"Laghontoghe, Kec. Tongkuno, Kabupaten Muna, Sulawesi Tenggara 93662","Kec. Tongkuno, Kabupaten Muna",SULAWESI TENGGARA,93662.0,Indonesia,,,,-5.1503963,122.5196356,https://maps.google.com/?cid=0x0:0x4fb1e0f301a6a020,
toko bangunan,Toko Bahan Bangunan,Muna Al-Barokah Bangunan  Tani,"9PH3+64Q, Tampo, Kec. Napabalano, Kabupaten Muna, Sulawesi Tenggara 93654","Tampo, Kec. Napabalano, Kabupaten Muna",SULAWESI TENGGARA,93654.0,Indonesia, 081346677272,,,-4.6219053,122.7028468,https://maps.google.com/?cid=0x0:0x36d3df95a804400b,
toko bangunan,Toko Bahan Bangunan,"Kalimbua, UD","JL. Poros Raha-Tampo, Dusun 2 Napabalano, Muna, Pentiro, Kendari, Kabupaten Muna, Sulawesi Tenggara 93654","Dusun 2 Napabalano, Muna, Pentiro, Kendari, Kabupaten Muna",SULAWESI TENGGARA,93654.0,Indonesia, 085241893195,,,-4.655475,122.689419,https://maps.google.com/?cid=0x0:0xfa1e81e8bd8da164,
toko bangunan,Toko Bahan Bangunan,Toko Sinar Samuli,"RGMC+PCV, Jl Poros Raha Wamengkoli, Watondo, Kec. Tongkuno Sel., Kabupaten Muna, Sulawesi Tenggara 93662","Jl Poros Raha Wamengkoli, Watondo, Kec. Tongkuno Sel., Kabupaten Muna",SULAWESI TENGGARA,93662.0,Indonesia, 082271218088,,,-5.1656396,122.5210432,https://maps.google.com/?cid=0x0:0x409de9a2896c31b3,
toko bangunan,Minimarket,TOKO Boni,"7P3J+5MQ, Bonea, Kec. Lasalepa, Kabupaten Muna, Sulawesi Tenggara 93654","Bonea, Kec. Lasalepa, Kabupaten Muna",SULAWESI TENGGARA,93654.0,Indonesia,,,,-4.7470486,122.7317384,https://maps.google.com/?cid=0x0:0xea9b7687406ba51,
toko bangunan,Toko Bahan Bangunan,TOKO MITRA UTAMA ( Bahan bangunan ),"Wapae Jaya, Tiworo Tengah, Kabupaten Muna, Sulawesi Tenggara 93653","Tiworo Tengah, Kabupaten Muna",SULAWESI TENGGARA,93653.0,Indonesia, 081340991110,,,-4.8098747,122.4048474,https://maps.google.com/?cid=0x0:0x86bbde18d8f05086,
toko bangunan,toko bangunan,bHtBaKz4AfiUseMP_-rg2Qs,,,SULAWESI TENGGARA,,Indonesia, 081271109313,,,-4.8369366,122.5891495,https://maps.google.com/?cid=0x0:0x1ac683bcbcada761,
toko bangunan,Toko Bahan Bangunan,TOKO BANGUNAN MAJESTY,"2H56+PFQ, Unnamed Road, Anggoeya, Kec. Poasia, Kota Kendari, Sulawesi Tenggara 93231","Unnamed Road, Anggoeya, Kec. Poasia, Kota Kendari",SULAWESI TENGGARA,93231.0,Indonesia, 08114038009,,,-3.9906542,122.561224,https://maps.google.com/?cid=0x0:0x783f1075052d1ac5,
toko bangunan,Toko,UD AFIFA GUALI,"7G2R+95R, Guali, Kec. Kusambi, Kabupaten Muna, Sulawesi Tenggara 93653","Guali, Kec. Kusambi, Kabupaten Muna",SULAWESI TENGGARA,93653.0,Indonesia,,,,-4.7490209,122.5403948,https://maps.google.com/?cid=0x0:0x546f4915f9a4f411,
toko bangunan,toko bangunan,Toko Bangunan Moderno,"Jl. Jend. Ahmad Yani No.188, Bonggoeya, Kec. Wua-Wua, Kota Kendari, Sulawesi Tenggara 93117","Bonggoeya, Kec. Wua-Wua, Kota Kendari",SULAWESI TENGGARA,93117.0,Indonesia,,,,-4.007016,122.4986186,https://maps.google.com/?cid=0x0:0xe1001fa059157e27,
toko bangunan,Toko Bahan Bangunan,Toko Bangunan Indah jaya Kendari,"Jl. Jend. Ahmad Yani No.90, Anaiwoi, Kec. Kadia, Kota Kendari, Sulawesi Tenggara 93117","Anaiwoi, Kec. Kadia, Kota Kendari",SULAWESI TENGGARA,93117.0,Indonesia, 081343569978,,,-3.9889427,122.5056916,https://maps.google.com/?cid=0x0:0x11e2e112d79b0eca,
toko bangunan,Toko Bahan Bangunan,UD. SINAR MAPERAHA,"6GHJ+P88, Maperaha, Kec. Sawerigadi, Kabupaten Muna, Sulawesi Tenggara 93653","Maperaha, Kec. Sawerigadi, Kabupaten Muna",SULAWESI TENGGARA,93653.0,Indonesia, 085281323528,,,-4.770698,122.5308095,https://maps.google.com/?cid=0x0:0xdc74a3c7fc297d25,
toko bangunan,Toko Perlengkapan Rumah,Aneka Diesel,"9PH3+56X, Tampo, Kec. Napabalano, Kabupaten Muna, Sulawesi Tenggara 93654","Tampo, Kec. Napabalano, Kabupaten Muna",SULAWESI TENGGARA,93654.0,Indonesia,,,,-4.6220029,122.7031084,https://maps.google.com/?cid=0x0:0x2a6c1dd41d29e2a4,
toko bangunan,Toko Bahan Bangunan,TOKO BANGUNAN ARHAM JAYA,"XGW9+H66, Jl. HEA Mokodompit, Kambu, Kec. Kambu, Kota Kendari, Sulawesi Tenggara 93561","Jl. HEA Mokodompit, Kambu, Kec. Kambu, Kota Kendari",SULAWESI TENGGARA,93561.0,Indonesia, 00000000000,,,-4.0035868,122.5180148,https://maps.google.com/?cid=0x0:0x4d251b2e272a4a96,
toko bangunan,Toko Perlengkapan Rumah,Percetakan Batu Bata,"8MX9+WR8 Dana Bhalano, Napalakura, Kec. Napabalano, Kabupaten Muna, Sulawesi Tenggara 93654","Napalakura, Kec. Napabalano, Kabupaten Muna",SULAWESI TENGGARA,93654.0,Indonesia, 082393233292,,,-4.6502121,122.6695757,https://maps.google.com/?cid=0x0:0x4b7cb68ec082d981,
toko bangunan,Toko Bahan Bangunan,UD. SINAR MAPERAHA,"6GHJ+P88, Maperaha, Kec. Sawerigadi, Kabupaten Muna, Sulawesi Tenggara 93653","Maperaha, Kec. Sawerigadi, Kabupaten Muna",SULAWESI TENGGARA,93653.0,Indonesia, 085281323528,,,-4.770698,122.5308095,https://maps.google.com/?cid=0x0:0xdc74a3c7fc297d25,
toko bangunan,Toko Bahan Bangunan,UD.Dian Masara,"7HPF+25Q, Unnamed Road, Masara, Kec. Napano Kusambi, Kabupaten Muna, Sulawesi Tenggara 93655","Unnamed Road, Masara, Kec. Napano Kusambi, Kabupaten Muna",SULAWESI TENGGARA,93655.0,Indonesia,,,,-4.7149002,122.5729924,https://maps.google.com/?cid=0x0:0xcd58ef99a4f88c75,
toko bangunan,Toko Bahan Bangunan,Toko Bangunan Sawerigading,"XMP5+C8J, Jl. Lkr., Lompoe, Kec. Bacukiki, Kota Parepare, Sulawesi Selatan","Kota Parepare, Sulawesi Selatan",SULAWESI TENGGARA,,Indonesia,,,,-4.0139095,119.6582579,https://maps.google.com/?cid=0x0:0x62b93b5210855715,
toko bangunan,toko bangunan,Kec. Tiworo Kepulauan,"Kabupaten Muna, Sulawesi Tenggara","Kabupaten Muna, Sulawesi Tenggara",SULAWESI TENGGARA,,Indonesia,,,,-4.7783688,122.4353995,https://maps.google.com/?cid=0x0:0xb9b9310dc3cd9cb5,
toko bangunan,Toko Bahan Bangunan,TOKO MITRA UTAMA ( Bahan bangunan ),"Wapae Jaya, Tiworo Tengah, Kabupaten Muna, Sulawesi Tenggara 93653","Tiworo Tengah, Kabupaten Muna",SULAWESI TENGGARA,93653.0,Indonesia, 081340991110,,,-4.8098747,122.4048474,https://maps.google.com/?cid=0x0:0x86bbde18d8f05086,
toko bangunan,Toko Bahan Bangunan,Tb Berkah Ilahi,"5CP3+RCP, Jl. Poros, barat, Wapae Jaya, Tiworo Tengah, Kabupaten Muna, Sulawesi Tenggara","Kabupaten Muna, Sulawesi Tenggara",SULAWESI TENGGARA,,Indonesia, 082293224969,,,-4.8129136,122.4035644,https://maps.google.com/?cid=0x0:0xe2dd79e4878d7c06,
toko bangunan,Toko Bahan Bangunan,UD Sinar Buana Bangunan 02,"498H+2V2, desa kasimpa jaya, kecamatan tiworo selatan, Kasimpa Jaya, barat, Kabupaten Muna, Sulawesi Tenggara 93664","desa kasimpa jaya, kecamatan tiworo selatan, Kasimpa Jaya, barat, Kabupaten Muna",SULAWESI TENGGARA,93664.0,Indonesia, 081341066455,,,-4.8849852,122.3796289,https://maps.google.com/?cid=0x0:0xcafff15f6b6eecec,
toko bangunan,Toko,Toko Tiga Bangunan,"WGX4+WGM, Jl. KS Tubun, Baruga, Kec. Baruga, Kota Kendari, Sulawesi Tenggara 93116","Jl. KS Tubun, Baruga, Kec. Baruga, Kota Kendari",SULAWESI TENGGARA,93116.0,Indonesia, 085220057233,,,-4.0500293,122.5061488,https://maps.google.com/?cid=0x0:0x12ddecf29ea5f1ab,
toko bangunan,Toko Bahan Bangunan,TOKO JAYA MITRA BANGUNAN,"RGQC+84J, Laghontoghe, Kec. Tongkuno, Kabupaten Muna, Sulawesi Tenggara 93662","Laghontoghe, Kec. Tongkuno, Kabupaten Muna",SULAWESI TENGGARA,93662.0,Indonesia,,,,-5.1616594,122.5202575,https://maps.google.com/?cid=0x0:0xbbde20e1ab05b46a,
toko bangunan,Toko Bahan Bangunan,BM JAYA MANDIRI,"jln buncis No.01, Kasimpa Jaya, Tiworo Sel., Muna Barat, Sulawesi Tenggara","Muna Barat, Sulawesi Tenggara",SULAWESI TENGGARA,,Indonesia, 081367781032,,,-4.8745068,122.3922714,https://maps.google.com/?cid=0x0:0x17287a8b3aea5cf5,
toko bangunan,Pemasok Bahan Bangunan,Penjual Batu Merah,"7G7J+VW2, Lapokainse, Kec. Kusambi, Kabupaten Muna, Sulawesi Tenggara","Kabupaten Muna, Sulawesi Tenggara",SULAWESI TENGGARA,,Indonesia, 085338172790,,,-4.7353634,122.5322506,https://maps.google.com/?cid=0x0:0xcf8080b6093528e4,
toko bangunan,Toko Bahan Bangunan,UD.PANDAN ARUM,"4CW3+CWG, Jl.slametriyadi, Parura Jaya, Tiworo Sel., Muna barat, Sulawesi Tenggara 93644","Jl.slametriyadi, Parura Jaya, Tiworo Sel., Muna barat",SULAWESI TENGGARA,93644.0,Indonesia, 081243387973,,,-4.8539421,122.4048335,https://maps.google.com/?cid=0x0:0x9416535e64517831,
toko bangunan,Toko Bahan Bangunan,UD. AMAL JAYA,"49CQ+X7M, Jln Poros, Kasimpa Jaya, South Tiworo, Muna Regency, South East Sulawesi","Kabupaten Muna, Sulawesi Tenggara",SULAWESI TENGGARA,,Indonesia, 085241645999,,,-4.8777067,122.3884577,https://maps.google.com/?cid=0x0:0xe0d02570382e2948,
toko bangunan,Toko Bahan Bangunan,Toko Retail Bangunan,"2GQ6+G64, Jl. Suprapto, Tobuuha, Kec. Puuwatu, Kota Kendari, Sulawesi Tenggara 93112","Jl. Suprapto, Tobuuha, Kec. Puuwatu, Kota Kendari",SULAWESI TENGGARA,93112.0,Indonesia,,,,-3.961245,122.5105894,https://maps.google.com/?cid=0x0:0xc73f24764e3955e2,
toko bangunan,Toko Perlengkapan Rumah,Toko bangunan Sinar Jaya Raha,"Jl. Jend. Sudirman, Raha I, Kec. Katobu, Kabupaten Muna, Sulawesi Tenggara","Kabupaten Muna, Sulawesi Tenggara",SULAWESI TENGGARA,,Indonesia, 081297776310,,,-4.8437193,122.7249394,https://maps.google.com/?cid=0x0:0xea69be720d849e4a,
toko bangunan,Toko Bahan Bangunan,Toko Nanda Makmur Jaya,"5CW2+WJ3, Jl. Poros, Suka Damai, barat, Kabupaten Muna, Sulawesi Tenggara","Kabupaten Muna, Sulawesi Tenggara",SULAWESI TENGGARA,,Indonesia,,,,-4.8027474,122.4015573,https://maps.google.com/?cid=0x0:0x51fdef2fcee53280,
toko bangunan,toko bangunan,uHtBaMDSAZGSseMPsbuQuQQ,,,SULAWESI TENGGARA,,Indonesia, 081271109313,,,-4.8369366,122.5891495,https://maps.google.com/?cid=0x0:0x1ac683bcbcada761,
toko bangunan,Toko Bahan Bangunan,UD Lambubalano Jaya / Sentral Keramik,"5G8C+489, Desa Wuna, Jalan poros Lagadi, Tondasi, Kec. Barangka, Muna Barat, Sulawesi Tenggara 93657","Desa Wuna, Jalan poros Lagadi, Tondasi, Kec. Barangka, Muna Barat",SULAWESI TENGGARA,93657.0,Indonesia, 082292835450,,,-4.834703,122.5208635,https://maps.google.com/?cid=0x0:0x8a1ad4343897ed21,
toko bangunan,Pusat Perbelanjaan,Toko Mesran Motor,"5CM3+V2C, Jl. Poros, Wapae Jaya, Tiworo Tengah, Kabupaten Muna, Sulawesi Tenggara 93653","Jl. Poros, Wapae Jaya, Tiworo Tengah, Kabupaten Muna",SULAWESI TENGGARA,93653.0,Indonesia,,,,-4.8153212,122.4025066,https://maps.google.com/?cid=0x0:0xb43153a03b20ed01,
toko bangunan,toko bangunan,Tiworo Sel.,"Kabupaten Muna, Sulawesi Tenggara","Kabupaten Muna, Sulawesi Tenggara",SULAWESI TENGGARA,,Indonesia,,,,-4.8877531,122.3900901,https://maps.google.com/?cid=0x0:0xb8fa848ebeff23ff,
toko bangunan,Toko Bahan Bangunan,UD Sinar Buana Bangunan 02,"498H+2V2, desa kasimpa jaya, kecamatan tiworo selatan, Kasimpa Jaya, barat, Kabupaten Muna, Sulawesi Tenggara 93664","desa kasimpa jaya, kecamatan tiworo selatan, Kasimpa Jaya, barat, Kabupaten Muna",SULAWESI TENGGARA,93664.0,Indonesia, 081341066455,,,-4.8849852,122.3796289,https://maps.google.com/?cid=0x0:0xcafff15f6b6eecec,
toko bangunan,Toko Bahan Bangunan,TOKO MITRA UTAMA ( Bahan bangunan ),"Wapae Jaya, Tiworo Tengah, Kabupaten Muna, Sulawesi Tenggara 93653","Tiworo Tengah, Kabupaten Muna",SULAWESI TENGGARA,93653.0,Indonesia, 081340991110,,,-4.8098747,122.4048474,https://maps.google.com/?cid=0x0:0x86bbde18d8f05086,
toko bangunan,Toko Bahan Bangunan,Tb Berkah Ilahi,"5CP3+RCP, Jl. Poros, barat, Wapae Jaya, Tiworo Tengah, Kabupaten Muna, Sulawesi Tenggara","Kabupaten Muna, Sulawesi Tenggara",SULAWESI TENGGARA,,Indonesia, 082293224969,,,-4.8129136,122.4035644,https://maps.google.com/?cid=0x0:0xe2dd79e4878d7c06,
toko bangunan,Toko Bahan Bangunan,Sinar Karunia,"Jl. Poros No.2, Wapae Jaya, Tiworo Tengah, Kabupaten Muna, Sulawesi Tenggara 93648","Wapae Jaya, Tiworo Tengah, Kabupaten Muna",SULAWESI TENGGARA,93648.0,Indonesia, 081242222245,,,-4.8167409,122.4020923,https://maps.google.com/?cid=0x0:0x4e38fd0b930d486a,
toko bangunan,Toko Bahan Bangunan,UD. AMAL JAYA,"49CQ+X7M, Jln Poros, Kasimpa Jaya, South Tiworo, Muna Regency, South East Sulawesi","Kabupaten Muna, Sulawesi Tenggara",SULAWESI TENGGARA,,Indonesia, 085241645999,,,-4.8777067,122.3884577,https://maps.google.com/?cid=0x0:0xe0d02570382e2948,
toko bangunan,Toko Bahan Bangunan,Batu Merah(Bang Pariman),"499H+M2Q, Kasimpa Jaya, Tiworo Sel., Kabupaten Muna, Sulawesi Tenggara 93664","Kasimpa Jaya, Tiworo Sel., Kabupaten Muna",SULAWESI TENGGARA,93664.0,Indonesia, 085342435291,,,-4.8807854,122.3776156,https://maps.google.com/?cid=0x0:0xa39a4c745dd69485,
toko bangunan,Toko Bahan Bangunan,UD.PANDAN ARUM,"4CW3+CWG, Jl.slametriyadi, Parura Jaya, Tiworo Sel., Muna barat, Sulawesi Tenggara 93644","Jl.slametriyadi, Parura Jaya, Tiworo Sel., Muna barat",SULAWESI TENGGARA,93644.0,Indonesia, 081243387973,,,-4.8539421,122.4048335,https://maps.google.com/?cid=0x0:0x9416535e64517831,
toko bangunan,Toko Bahan Bangunan,UD.SINAR BUANA,"49FQ+8PG, Jln poros desa, Kasimpa Jaya, Tiworo Sel., Kabupaten Muna, Sulawesi Tenggara","Kabupaten Muna, Sulawesi Tenggara",SULAWESI TENGGARA,,Indonesia,,,,-4.8766926,122.389321,https://maps.google.com/?cid=0x0:0xb3b88436a20a0c,
toko bangunan,Toko Bahan Bangunan,UD.SIMPANG TIGA,"Jalan poros kasimpa jaya, Parura Jaya, Kambara, Sulawesi Tenggara","Kambara, Sulawesi Tenggara",SULAWESI TENGGARA,,Indonesia,,,,-4.8705404,122.395916,https://maps.google.com/?cid=0x0:0x7d6c85696b04b389,
toko bangunan,Toko Bahan Bangunan,TOKO HARAPAN BARU,"Laghontoghe, Kec. Tongkuno, Kabupaten Muna, Sulawesi Tenggara 93662","Kec. Tongkuno, Kabupaten Muna",SULAWESI TENGGARA,93662.0,Indonesia,,,,-5.1503963,122.5196356,https://maps.google.com/?cid=0x0:0x4fb1e0f301a6a020,
toko bangunan,Toko Bahan Bangunan,Toko Sinar Samuli,"RGMC+PCV, Jl Poros Raha Wamengkoli, Watondo, Kec. Tongkuno Sel., Kabupaten Muna, Sulawesi Tenggara 93662","Jl Poros Raha Wamengkoli, Watondo, Kec. Tongkuno Sel., Kabupaten Muna",SULAWESI TENGGARA,93662.0,Indonesia, 082271218088,,,-5.1656396,122.5210432,https://maps.google.com/?cid=0x0:0x409de9a2896c31b3,
toko bangunan,Toko,Toko Tiga Bangunan,"WGX4+WGM, Jl. KS Tubun, Baruga, Kec. Baruga, Kota Kendari, Sulawesi Tenggara 93116","Jl. KS Tubun, Baruga, Kec. Baruga, Kota Kendari",SULAWESI TENGGARA,93116.0,Indonesia, 085220057233,,,-4.0500293,122.5061488,https://maps.google.com/?cid=0x0:0x12ddecf29ea5f1ab,
toko bangunan,Toko Bahan Bangunan,USAHA-KAYU PARTIMAN,"498M+XCP, Jln wortel 1, Kasimpa Jaya, Tiworo Sel., Kabupaten Muna, Sulawesi Tenggara 93664","Jln wortel 1, Kasimpa Jaya, Tiworo Sel., Kabupaten Muna",SULAWESI TENGGARA,93664.0,Indonesia, 082291861755,,,-4.8825389,122.383588,https://maps.google.com/?cid=0x0:0x1bab81d9aaf7b9ec,
toko bangunan,toko bangunan,UD.MITRA QALBY JAYA,"596R+WJX, Unnamed Road, Mekar Jaya, Tiworo Tengah, Kabupaten Muna, Sulawesi Tenggara","Kabupaten Muna, Sulawesi Tenggara",SULAWESI TENGGARA,,Indonesia,,,,-4.8376272,122.3916207,https://maps.google.com/?cid=0x0:0x7f8c78b0ab73616e,
toko bangunan,toko bangunan,Tiworo Tengah,"Kabupaten Muna, Sulawesi Tenggara","Kabupaten Muna, Sulawesi Tenggara",SULAWESI TENGGARA,,Indonesia,,,,-4.7902626,122.3787597,https://maps.google.com/?cid=0x0:0x185569b801f89ceb,
toko bangunan,Toko Bahan Bangunan,TOKO MITRA UTAMA ( Bahan bangunan ),"Wapae Jaya, Tiworo Tengah, Kabupaten Muna, Sulawesi Tenggara 93653","Tiworo Tengah, Kabupaten Muna",SULAWESI TENGGARA,93653.0,Indonesia, 081340991110,,,-4.8098747,122.4048474,https://maps.google.com/?cid=0x0:0x86bbde18d8f05086,
toko bangunan,Toko Bahan Bangunan,Tb Berkah Ilahi,"5CP3+RCP, Jl. Poros, barat, Wapae Jaya, Tiworo Tengah, Kabupaten Muna, Sulawesi Tenggara","Kabupaten Muna, Sulawesi Tenggara",SULAWESI TENGGARA,,Indonesia, 082293224969,,,-4.8129136,122.4035644,https://maps.google.com/?cid=0x0:0xe2dd79e4878d7c06,
toko bangunan,Toko Bahan Bangunan,UD.PANDAN ARUM,"4CW3+CWG, Jl.slametriyadi, Parura Jaya, Tiworo Sel., Muna barat, Sulawesi Tenggara 93644","Jl.slametriyadi, Parura Jaya, Tiworo Sel., Muna barat",SULAWESI TENGGARA,93644.0,Indonesia, 081243387973,,,-4.8539421,122.4048335,https://maps.google.com/?cid=0x0:0x9416535e64517831,
toko bangunan,Pusat Perbelanjaan,Toko Mesran Motor,"5CM3+V2C, Jl. Poros, Wapae Jaya, Tiworo Tengah, Kabupaten Muna, Sulawesi Tenggara 93653","Jl. Poros, Wapae Jaya, Tiworo Tengah, Kabupaten Muna",SULAWESI TENGGARA,93653.0,Indonesia,,,,-4.8153212,122.4025066,https://maps.google.com/?cid=0x0:0xb43153a03b20ed01,
toko bangunan,toko bangunan,Tiworo Utara,"Kabupaten Muna, Sulawesi Tenggara","Kabupaten Muna, Sulawesi Tenggara",SULAWESI TENGGARA,,Indonesia,,,,-4.6704353,122.373094,https://maps.google.com/?cid=0x0:0xacd624ac1fc2f9d6,
toko bangunan,Toko Bahan Bangunan,TOKO MITRA UTAMA ( Bahan bangunan ),"Wapae Jaya, Tiworo Tengah, Kabupaten Muna, Sulawesi Tenggara 93653","Tiworo Tengah, Kabupaten Muna",SULAWESI TENGGARA,93653.0,Indonesia, 081340991110,,,-4.8098747,122.4048474,https://maps.google.com/?cid=0x0:0x86bbde18d8f05086,
toko bangunan,Toko Bahan Bangunan,Tb Berkah Ilahi,"5CP3+RCP, Jl. Poros, barat, Wapae Jaya, Tiworo Tengah, Kabupaten Muna, Sulawesi Tenggara","Kabupaten Muna, Sulawesi Tenggara",SULAWESI TENGGARA,,Indonesia, 082293224969,,,-4.8129136,122.4035644,https://maps.google.com/?cid=0x0:0xe2dd79e4878d7c06,
toko bangunan,toko bangunan,Kec. Wadaga,"Kabupaten Muna, Sulawesi Tenggara","Kabupaten Muna, Sulawesi Tenggara",SULAWESI TENGGARA,,Indonesia,,,,-4.9157067,122.5304167,https://maps.google.com/?cid=0x0:0xb09250edddcd2e35,
toko bangunan,Toko Bahan Bangunan,UD. MAITORA,"3GMJ+X43, Lailangga, Kec. Wadaga, Kabupaten Muna, Sulawesi Tenggara 93652","Lailangga, Kec. Wadaga, Kabupaten Muna",SULAWESI TENGGARA,93652.0,Indonesia, 081341913104,,,-4.9151237,122.5302863,https://maps.google.com/?cid=0x0:0xe7bc0ce234f87a54,
toko bangunan,Toko Bahan Bangunan,UD Sinar Buana Bangunan 02,"498H+2V2, desa kasimpa jaya, kecamatan tiworo selatan, Kasimpa Jaya, barat, Kabupaten Muna, Sulawesi Tenggara 93664","desa kasimpa jaya, kecamatan tiworo selatan, Kasimpa Jaya, barat, Kabupaten Muna",SULAWESI TENGGARA,93664.0,Indonesia, 081341066455,,,-4.8849852,122.3796289,https://maps.google.com/?cid=0x0:0xcafff15f6b6eecec,
toko bangunan,Toko Bahan Bangunan,TOKO MITRA UTAMA ( Bahan bangunan ),"Wapae Jaya, Tiworo Tengah, Kabupaten Muna, Sulawesi Tenggara 93653","Tiworo Tengah, Kabupaten Muna",SULAWESI TENGGARA,93653.0,Indonesia, 081340991110,,,-4.8098747,122.4048474,https://maps.google.com/?cid=0x0:0x86bbde18d8f05086,
toko bangunan,Toko Bahan Bangunan,UD. AMAL JAYA,"49CQ+X7M, Jln Poros, Kasimpa Jaya, South Tiworo, Muna Regency, South East Sulawesi","Kabupaten Muna, Sulawesi Tenggara",SULAWESI TENGGARA,,Indonesia, 085241645999,,,-4.8777067,122.3884577,https://maps.google.com/?cid=0x0:0xe0d02570382e2948,
toko bangunan,Toko,Toko Tiga Bangunan,"WGX4+WGM, Jl. KS Tubun, Baruga, Kec. Baruga, Kota Kendari, Sulawesi Tenggara 93116","Jl. KS Tubun, Baruga, Kec. Baruga, Kota Kendari",SULAWESI TENGGARA,93116.0,Indonesia, 085220057233,,,-4.0500293,122.5061488,https://maps.google.com/?cid=0x0:0x12ddecf29ea5f1ab,
toko bangunan,Toko Bahan Bangunan,UD. BEA BERKAH BANGUNAN,"2FFX+WR, Bea, Kec. Kabawo, Kabupaten Muna, Sulawesi Tenggara","Kabupaten Muna, Sulawesi Tenggara",SULAWESI TENGGARA,,Indonesia,,,,-4.9751984,122.4995188,https://maps.google.com/?cid=0x0:0xd9d6416b1dedfb3d,
hardware store,Toko Bahan Bangunan,Depo Tehnik Dan Bangunan,"2G36+WX5, JL. Laode Hadi By Pass, Wowawanggu, Kec. Kendari, Kota Kendari, Sulawesi Tenggara 93117","JL. Laode Hadi By Pass, Wowawanggu, Kec. Kendari, Kota Kendari",SULAWESI TENGGARA,93117.0,Indonesia, 085176999928,,,-3.9952274,122.512494,https://maps.google.com/?cid=0x0:0xabd0a7bc87ed2500,
hardware store,Toko Bahan Bangunan,"MAXCELL DEPO TEKNIK  BANGUNAN | Toko Listrik, Elektronik, Furniture Kendari","Ex, Jl. Laode Hadi Jl. Brigjen M. Yoenoes No.149-159, Bende, Kadia, Kendari City, South East Sulawesi 93118","Jl. Laode Hadi Jl. Brigjen M. Yoenoes No.149-159, Bende, Kadia, Kendari City",SULAWESI TENGGARA,93118.0,Indonesia, 04013192000,,,-3.992658,122.5139203,https://maps.google.com/?cid=0x0:0x8135d7de339a4cf7,
hardware store,hardware store,Sulawesi Tenggara 93652,"Kabupaten Muna, Sulawesi Tenggara","Kabupaten Muna, Sulawesi Tenggara",SULAWESI TENGGARA,,Indonesia,,,,-4.8874972,122.5598994,https://maps.google.com/?cid=0x0:0x34e12d7c7d7a4631,
hardware store,hardware store,Barangka,"Marikina City, Metro Manila, Filipina","Marikina City, Metro Manila, Filipina",SULAWESI TENGGARA,,Indonesia,,,,14.6382755,121.0836691,https://maps.google.com/?cid=0x0:0xb06d0bc6c0ed719,
hardware store,hardware store,a3xBaPDID-WQ1sQP8oG9uQk,,,SULAWESI TENGGARA,,Indonesia, 081271109313,,,-4.8369366,122.5891495,https://maps.google.com/?cid=0x0:0x1ac683bcbcada761,
hardware store,Toko Bahan Bangunan,A. BONIFACIO HARDWARE AND CONSTRUCTION SUPPLY,"177 A. Bonifacio Ave, Marikina City, 1800 Metro Manila, Filipina","Marikina City, Metro Manila, Filipina",SULAWESI TENGGARA,,Indonesia, +639176371878,,,14.6343854,121.0864993,https://maps.google.com/?cid=0x0:0x548466b352a4514d,
hardware store,Toko Bahan Bangunan,NEW JSL-A Hardware,"78 A. Bonifacio Ave, Marikina City, 1803 Metro Manila, Filipina","Marikina City, Metro Manila, Filipina",SULAWESI TENGGARA,,Indonesia,,,,14.6323916,121.08148,https://maps.google.com/?cid=0x0:0x14baf557b420a9eb,
hardware store,Toko Bahan Bangunan,ACE Hardware SM City Marikina,"Ground Floor, SM City Marikina, Lansangang Marikina-Infanta, Marikina City, 1801 Kalakhang Maynila, Filipina","Marikina City, Metro Manila, Filipina",SULAWESI TENGGARA,,Indonesia, +63284771669,,,14.6268407,121.0846895,https://maps.google.com/?cid=0x0:0x87b8024505bdc37e,
hardware store,Toko Bahan Bangunan,New JSLA Hardware,"97 A. Bonifacio Ave, Barangka, Marikina City, 1803 Metro Manila, Filipina","Marikina City, Metro Manila, Filipina",SULAWESI TENGGARA,,Indonesia, +63234665731,,,14.632589,121.0811281,https://maps.google.com/?cid=0x0:0x485ae2f68021139a,
hardware store,Toko,MR.DIY,"Riverbanks Mall, A. Bonifacio Ave, Marikina City, 1800 Metro Manila, Filipina","Marikina City, Metro Manila, Filipina",SULAWESI TENGGARA,,Indonesia, +63284630855,,,14.629954,121.0821616,https://maps.google.com/?cid=0x0:0x9d619e632b9d61bd,
hardware store,Toko Bahan Bangunan,Industrial Valley Hardware,"E. Abello Cor. O De Guzman, Marikina City, 1802 Metro Manila, Filipina","Marikina City, Metro Manila, Filipina",SULAWESI TENGGARA,,Indonesia, +639171305601,,,14.6232083,121.0798933,https://maps.google.com/?cid=0x0:0xc9f2bd942cb88c39,
hardware store,Toko Bahan Bangunan,Robinsons Handyman Incorporated,"Riverbanks Mall, 84A Bonifacio Avenue, Barangka, Marikina City, 1803 Metro Manila, Filipina","Marikina City, Metro Manila, Filipina",SULAWESI TENGGARA,,Indonesia, +63273695079,,,14.6318022,121.0826216,https://maps.google.com/?cid=0x0:0x477d6abeea3f1f08,
hardware store,Toko Bahan Bangunan,Grand Jade Home Depot,"495-633 J. P. Rizal St, Marikina City, 1800 Metro Manila, Filipina","Marikina City, Metro Manila, Filipina",SULAWESI TENGGARA,,Indonesia, +63289416689,,,14.6443623,121.0960586,https://maps.google.com/?cid=0x0:0xdfdce3fcc33e4fb8,
hardware store,Toko Bahan Bangunan,Rubicon Hardware,"107 Xavierville Ave, Quezon City, Metro Manila, Filipina","Quezon City, Metro Manila, Filipina",SULAWESI TENGGARA,,Indonesia, +639456804822,,,14.6339838,121.0739801,https://maps.google.com/?cid=0x0:0xb1973d65f99c5a0d,
hardware store,Toko Bahan Bangunan,Carpio Hardware,"7 O. de Guzman, Marikina City, 1800 Metro Manila, Filipina","Marikina City, Metro Manila, Filipina",SULAWESI TENGGARA,,Indonesia, +639179646953,,,14.6230146,121.0801581,https://maps.google.com/?cid=0x0:0x1d286e13152e2116,
hardware store,Toko Bahan Bangunan,Kalumpang Hardware,"13 J. P. Rizal Street, Barangay Calumpang, Marikina City, 1800 Metro Manila, Filipina","Marikina City, Metro Manila, Filipina",SULAWESI TENGGARA,,Indonesia, +63286478734,,,14.6234049,121.0937515,https://maps.google.com/?cid=0x0:0x2223bb5ef14d2409,
hardware store,Toko Bahan Bangunan,JIA XING LONG Hardware and Construction Supplies,"788 J. P. Rizal St, Marikina City, 1800 Metro Manila, Filipina","Marikina City, Metro Manila, Filipina",SULAWESI TENGGARA,,Indonesia, +639985710699,,,14.6597558,121.1048678,https://maps.google.com/?cid=0x0:0x44f071e714c1cd78,
hardware store,Toko Bahan Bangunan,Handyman Do it Best Riverbanks Center,"G/F Riverbanks Center, Shoe Ave, Marikina City, 1800 Metro Manila, Filipina","Marikina City, Metro Manila, Filipina",SULAWESI TENGGARA,,Indonesia, +639174642639,,,14.6311598,121.0821643,https://maps.google.com/?cid=0x0:0x8b078f044db12bc8,
hardware store,,Smartrio,"Acasia 7, Marikina City, 1800 Metro Manila, Filipina","Marikina City, Metro Manila, Filipina",SULAWESI TENGGARA,,Indonesia,,,,14.6492663,121.0907164,https://maps.google.com/?cid=0x0:0xd5fb55910ef532e6,
hardware store,hardware store,BARANGKA HARDWARE  CONSTRUCTION SUPPLY,"Marikina City, 1800 Metro Manila, Filipina","Marikina City, Metro Manila, Filipina",SULAWESI TENGGARA,,Indonesia,,,,14.6321751,121.0801342,https://maps.google.com/?cid=0x0:0xb75404f5fc06d4e3,
hardware store,hardware store,Sulawesi Tenggara 93655,"Kabupaten Muna, Sulawesi Tenggara","Kabupaten Muna, Sulawesi Tenggara",SULAWESI TENGGARA,,Indonesia,,,,-4.7167048,122.593828,https://maps.google.com/?cid=0x0:0x2099dcc445aba1a5,
hardware store,Toko Alat Tulis Kantor,OKE SHOP,"Jl. Poros Raha, Sidamangura, Kec. Kusambi, Kabupaten Muna, Sulawesi Tenggara","Kabupaten Muna, Sulawesi Tenggara",SULAWESI TENGGARA,,Indonesia, 081298746761,,,-4.7323522,122.5635523,https://maps.google.com/?cid=0x0:0x6bfa8f574b39c5e0,
hardware store,hardware store,lnxBaI2-EJyeseMP9cHcgQg,,,SULAWESI TENGGARA,,Indonesia, 081271109313,,,-4.8369366,122.5891495,https://maps.google.com/?cid=0x0:0x1ac683bcbcada761,
hardware store,hardware store,Sulawesi Tenggara 93652,"Kabupaten Muna, Sulawesi Tenggara","Kabupaten Muna, Sulawesi Tenggara",SULAWESI TENGGARA,,Indonesia,,,,-4.8874972,122.5598994,https://maps.google.com/?cid=0x0:0x34e12d7c7d7a4631,
hardware store,Toko Bahan Bangunan,"MAXCELL DEPO TEKNIK  BANGUNAN | Toko Listrik, Elektronik, Furniture Kendari","Ex, Jl. Laode Hadi Jl. Brigjen M. Yoenoes No.149-159, Bende, Kadia, Kendari City, South East Sulawesi 93118","Jl. Laode Hadi Jl. Brigjen M. Yoenoes No.149-159, Bende, Kadia, Kendari City",SULAWESI TENGGARA,93118.0,Indonesia, 04013192000,,,-3.992658,122.5139203,https://maps.google.com/?cid=0x0:0x8135d7de339a4cf7,
hardware store,hardware store,Kios Barokah Lawata,"KIOS BAROKAH, Jl. Taman Suropati No.41e, Mandonga, Kec. Mandonga, Kota Kendari, Sulawesi Tenggara 93111","Jl. Taman Suropati No.41e, Mandonga, Kec. Mandonga, Kota Kendari",SULAWESI TENGGARA,93111.0,Indonesia,,,,-3.9648007,122.5148673,https://maps.google.com/?cid=0x0:0xd89cf95495a9882,
hardware store,Toko Bahan Bangunan,BM JAYA MANDIRI,"jln buncis No.01, Kasimpa Jaya, Tiworo Sel., Muna Barat, Sulawesi Tenggara","Muna Barat, Sulawesi Tenggara",SULAWESI TENGGARA,,Indonesia, 081367781032,,,-4.8745068,122.3922714,https://maps.google.com/?cid=0x0:0x17287a8b3aea5cf5,
hardware store,Toko Alat Tulis Kantor,Aish Fotocopy,"3G52+2MM, Kafoo-Foo, Kec. Kontu Kowuna, Kabupaten Muna, Sulawesi Tenggara 93652","Kafoo-Foo, Kec. Kontu Kowuna, Kabupaten Muna",SULAWESI TENGGARA,93652.0,Indonesia, 085232526229,,,-4.9424019,122.5016637,https://maps.google.com/?cid=0x0:0xb9879e28d833f1b4,
hardware store,hardware store,unxBaM3YF6zZ1sQPlMe2yAE,,,SULAWESI TENGGARA,,Indonesia, 081271109313,,,-4.8369366,122.5891495,https://maps.google.com/?cid=0x0:0x1ac683bcbcada761,
hardware store,Toko Bahan Bangunan,UD. MAITORA,"3GMJ+X43, Lailangga, Kec. Wadaga, Kabupaten Muna, Sulawesi Tenggara 93652","Lailangga, Kec. Wadaga, Kabupaten Muna",SULAWESI TENGGARA,93652.0,Indonesia, 081341913104,,,-4.9151237,122.5302863,https://maps.google.com/?cid=0x0:0xe7bc0ce234f87a54,
hardware store,Toko,Tokoh Fulan,"Desa, maabholu, Lohia, Muna Regency, South East Sulawesi","Kabupaten Muna, Sulawesi Tenggara",SULAWESI TENGGARA,,Indonesia,,,,-4.8751219,122.6903291,https://maps.google.com/?cid=0x0:0xe388ffebe38ffc87,
hardware store,Toko Bahan Bangunan,Tb Berkah Ilahi,"5CP3+RCP, Jl. Poros, barat, Wapae Jaya, Tiworo Tengah, Kabupaten Muna, Sulawesi Tenggara","Kabupaten Muna, Sulawesi Tenggara",SULAWESI TENGGARA,,Indonesia, 082293224969,,,-4.8129136,122.4035644,https://maps.google.com/?cid=0x0:0xe2dd79e4878d7c06,
hardware store,Toko Bahan Bangunan,TOKO MITRA UTAMA ( Bahan bangunan ),"Wapae Jaya, Tiworo Tengah, Kabupaten Muna, Sulawesi Tenggara 93653","Tiworo Tengah, Kabupaten Muna",SULAWESI TENGGARA,93653.0,Indonesia, 081340991110,,,-4.8098747,122.4048474,https://maps.google.com/?cid=0x0:0x86bbde18d8f05086,
hardware store,Toko Perlengkapan Rumah,Toko bangunan Sinar Jaya Raha,"Jl. Jend. Sudirman, Raha I, Kec. Katobu, Kabupaten Muna, Sulawesi Tenggara","Kabupaten Muna, Sulawesi Tenggara",SULAWESI TENGGARA,,Indonesia, 081297776310,,,-4.8437193,122.7249394,https://maps.google.com/?cid=0x0:0xea69be720d849e4a,
hardware store,Toko Bahan Bangunan,UD Sinar Buana Bangunan 02,"498H+2V2, desa kasimpa jaya, kecamatan tiworo selatan, Kasimpa Jaya, barat, Kabupaten Muna, Sulawesi Tenggara 93664","desa kasimpa jaya, kecamatan tiworo selatan, Kasimpa Jaya, barat, Kabupaten Muna",SULAWESI TENGGARA,93664.0,Indonesia, 081341066455,,,-4.8849852,122.3796289,https://maps.google.com/?cid=0x0:0xcafff15f6b6eecec,
hardware store,Toko Bahan Bangunan,Sinar Karunia,"Jl. Poros No.2, Wapae Jaya, Tiworo Tengah, Kabupaten Muna, Sulawesi Tenggara 93648","Wapae Jaya, Tiworo Tengah, Kabupaten Muna",SULAWESI TENGGARA,93648.0,Indonesia, 081242222245,,,-4.8167409,122.4020923,https://maps.google.com/?cid=0x0:0x4e38fd0b930d486a,
hardware store,Akuntan sewaan,Mr D.I.Y,"5P6G+744, Jl. Ahmad Yani, Kabupaten Muna, Sulawesi Tenggara 93611","Jl. Ahmad Yani, Kabupaten Muna",SULAWESI TENGGARA,93611.0,Indonesia,,,,-4.8394031,122.7252278,https://maps.google.com/?cid=0x0:0x2dbeeba2ef5f3086,
hardware store,Toko Perlengkapan Rumah,KIOS 25 SANDHI,"Jl. Lumba-Lumba, Wamponiki, Kec. Katobu, Kabupaten Muna, Sulawesi Tenggara 93614","Wamponiki, Kec. Katobu, Kabupaten Muna",SULAWESI TENGGARA,93614.0,Indonesia, 082348007500,,,-4.8181523,122.7332285,https://maps.google.com/?cid=0x0:0xe960260fe3eb6f2,
hardware store,Toko Bahan Bangunan,UD. BEA BERKAH BANGUNAN,"2FFX+WR, Bea, Kec. Kabawo, Kabupaten Muna, Sulawesi Tenggara","Kabupaten Muna, Sulawesi Tenggara",SULAWESI TENGGARA,,Indonesia,,,,-4.9751984,122.4995188,https://maps.google.com/?cid=0x0:0xd9d6416b1dedfb3d,
hardware store,Toko Bahan Bangunan,AQkilla mart korihi,"Korihi, Kec. Lohia, Kabupaten Muna, Sulawesi Tenggara","Kabupaten Muna, Sulawesi Tenggara",SULAWESI TENGGARA,,Indonesia, 083897267786,,,-4.9119516,122.7268074,https://maps.google.com/?cid=0x0:0x97fab8dbcad6435f,
hardware store,Toko Alat Tulis Kantor,ud. Aish lembo,"3G58+HX9, Lembo, Kec. Kontu Kowuna, Kabupaten Muna, Sulawesi Tenggara 93652","Lembo, Kec. Kontu Kowuna, Kabupaten Muna",SULAWESI TENGGARA,93652.0,Indonesia,,,,-4.9410877,122.5174729,https://maps.google.com/?cid=0x0:0x2ea531315985ea2,
hardware store,Toko Bahan Bangunan,TOKO HARUN JAYA/BRILink Harun Jaya,"4MCX+855, Kondongia, Kec. Lohia, Kabupaten Muna, Sulawesi Tenggara 93659","Kondongia, Kec. Lohia, Kabupaten Muna",SULAWESI TENGGARA,93659.0,Indonesia,,,,-4.8785129,122.6972131,https://maps.google.com/?cid=0x0:0x774b8b4018e7aed3,
hardware store,Toko Elektronik,UD. 4m4nk Computer,"Jl. Kenanga, Wakobulu Agung, Raha, Kabupaten Muna, Sulawesi Tenggara 93664","Wakobulu Agung, Raha, Kabupaten Muna",SULAWESI TENGGARA,93664.0,Indonesia, 081245772247,,,-4.9583583,122.4246848,https://maps.google.com/?cid=0x0:0xfce60e682713f358,
hardware store,Kontraktor Umum,UD Wamelai Star,"Jl. DR. Soetomo No.18, Raha I, Kec. Katobu, Kabupaten Muna, Sulawesi Tenggara 93611","Raha I, Kec. Katobu, Kabupaten Muna",SULAWESI TENGGARA,93611.0,Indonesia,,,,-4.8441945,122.7233324,https://maps.google.com/?cid=0x0:0xa1fc94c7637937ed,
hardware store,Toko Alat Tulis Kantor,OKE SHOP,"Jl. Poros Raha, Sidamangura, Kec. Kusambi, Kabupaten Muna, Sulawesi Tenggara","Kabupaten Muna, Sulawesi Tenggara",SULAWESI TENGGARA,,Indonesia, 081298746761,,,-4.7323522,122.5635523,https://maps.google.com/?cid=0x0:0x6bfa8f574b39c5e0,
hardware store,Toko Bahan Bangunan,Lawan Hardware,"Nairobi, Kenya","Nairobi, Kenya",SULAWESI TENGGARA,,Indonesia,,,,-1.2634191,36.719508,https://maps.google.com/?cid=0x0:0x7dc5199d33b79ac4,
hardware store,Toko Bahan Bangunan,Naleen Hardware,"Nairobi, Kenya","Nairobi, Kenya",SULAWESI TENGGARA,,Indonesia,,,,-1.2632807,36.7184996,https://maps.google.com/?cid=0x0:0xe97c9d86bec0865c,
hardware store,hardware store,Kec. Maginti,"Kabupaten Muna, Sulawesi Tenggara","Kabupaten Muna, Sulawesi Tenggara",SULAWESI TENGGARA,,Indonesia,,,,-4.8523016,122.3273334,https://maps.google.com/?cid=0x0:0x827d1cf3623f4296,
hardware store,Toko Bahan Bangunan,UD.SIMPANG TIGA,"Jalan poros kasimpa jaya, Parura Jaya, Kambara, Sulawesi Tenggara","Kambara, Sulawesi Tenggara",SULAWESI TENGGARA,,Indonesia,,,,-4.8705404,122.395916,https://maps.google.com/?cid=0x0:0x7d6c85696b04b389,
hardware store,Toko Bahan Bangunan,BM JAYA MANDIRI,"jln buncis No.01, Kasimpa Jaya, Tiworo Sel., Muna Barat, Sulawesi Tenggara","Muna Barat, Sulawesi Tenggara",SULAWESI TENGGARA,,Indonesia, 081367781032,,,-4.8745068,122.3922714,https://maps.google.com/?cid=0x0:0x17287a8b3aea5cf5,
hardware store,Toko Bahan Bangunan,UD Sinar Buana Bangunan 02,"498H+2V2, desa kasimpa jaya, kecamatan tiworo selatan, Kasimpa Jaya, barat, Kabupaten Muna, Sulawesi Tenggara 93664","desa kasimpa jaya, kecamatan tiworo selatan, Kasimpa Jaya, barat, Kabupaten Muna",SULAWESI TENGGARA,93664.0,Indonesia, 081341066455,,,-4.8849852,122.3796289,https://maps.google.com/?cid=0x0:0xcafff15f6b6eecec,
hardware store,hardware store,Pulau Maginti,"Maginti, Kec. Maginti, Kabupaten Muna, Sulawesi Tenggara","Kabupaten Muna, Sulawesi Tenggara",SULAWESI TENGGARA,,Indonesia,,,,-4.8372222,122.1919444,https://maps.google.com/?cid=0x0:0xb50bb25473617676,
hardware store,hardware store,Gn1BaNGQA52x4-EPxL_c2QY,,,SULAWESI TENGGARA,,Indonesia, 081271109313,,,-4.8369366,122.5891495,https://maps.google.com/?cid=0x0:0x1ac683bcbcada761,
hardware store,Toko Alat Tulis Kantor,OKE SHOP,"Jl. Poros Raha, Sidamangura, Kec. Kusambi, Kabupaten Muna, Sulawesi Tenggara","Kabupaten Muna, Sulawesi Tenggara",SULAWESI TENGGARA,,Indonesia, 081298746761,,,-4.7323522,122.5635523,https://maps.google.com/?cid=0x0:0x6bfa8f574b39c5e0,
hardware store,hardware store,Sulawesi Tenggara 93655,"Kabupaten Muna, Sulawesi Tenggara","Kabupaten Muna, Sulawesi Tenggara",SULAWESI TENGGARA,,Indonesia,,,,-4.7167048,122.593828,https://maps.google.com/?cid=0x0:0x2099dcc445aba1a5,
hardware store,hardware store,Sawerigading,"Kec. Ujung Pandang, Kota Makassar, Sulawesi Selatan","Kota Makassar, Sulawesi Selatan",SULAWESI TENGGARA,,Indonesia,,,,-5.1405135,119.4146041,https://maps.google.com/?cid=0x0:0xd660dde0f3eb73d9,
hardware store,hardware store,Sulawesi Tenggara 93657,"Kabupaten Muna, Sulawesi Tenggara","Kabupaten Muna, Sulawesi Tenggara",SULAWESI TENGGARA,,Indonesia,,,,-4.8269737,122.5259596,https://maps.google.com/?cid=0x0:0x6227f17791af231c,
hardware store,hardware store,Kamarku By Haza,"Jl. Delima, Bukuan, Kec. Palaran, Kota Samarinda, Kalimantan Timur 75256","Bukuan, Kec. Palaran, Kota Samarinda",SULAWESI TENGGARA,75256.0,Indonesia, 082191561524,,,-0.5783767,117.1935281,https://maps.google.com/?cid=0x0:0xac8c62a416568352,
hardware store,hardware store,Kec. Tiworo Kepulauan,"Kabupaten Muna, Sulawesi Tenggara","Kabupaten Muna, Sulawesi Tenggara",SULAWESI TENGGARA,,Indonesia,,,,-4.7783688,122.4353995,https://maps.google.com/?cid=0x0:0xb9b9310dc3cd9cb5,
hardware store,Toko Bahan Bangunan,TOKO MITRA UTAMA ( Bahan bangunan ),"Wapae Jaya, Tiworo Tengah, Kabupaten Muna, Sulawesi Tenggara 93653","Tiworo Tengah, Kabupaten Muna",SULAWESI TENGGARA,93653.0,Indonesia, 081340991110,,,-4.8098747,122.4048474,https://maps.google.com/?cid=0x0:0x86bbde18d8f05086,
hardware store,Toko Bahan Bangunan,BM JAYA MANDIRI,"jln buncis No.01, Kasimpa Jaya, Tiworo Sel., Muna Barat, Sulawesi Tenggara","Muna Barat, Sulawesi Tenggara",SULAWESI TENGGARA,,Indonesia, 081367781032,,,-4.8745068,122.3922714,https://maps.google.com/?cid=0x0:0x17287a8b3aea5cf5,
hardware store,Toko Bahan Bangunan,Tb Berkah Ilahi,"5CP3+RCP, Jl. Poros, barat, Wapae Jaya, Tiworo Tengah, Kabupaten Muna, Sulawesi Tenggara","Kabupaten Muna, Sulawesi Tenggara",SULAWESI TENGGARA,,Indonesia, 082293224969,,,-4.8129136,122.4035644,https://maps.google.com/?cid=0x0:0xe2dd79e4878d7c06,
hardware store,hardware store,f31BaLTvLLOqseMPpM-k4AI,,,SULAWESI TENGGARA,,Indonesia, 081271109313,,,-4.8369366,122.5891495,https://maps.google.com/?cid=0x0:0x1ac683bcbcada761,
hardware store,Toko Alat Tulis,Lutfi Star,"jln Poros Sp3-Sp1, Sido Makmur, Kec. Tiworo Kepulauan, Muna Barat Regency, Sulawesi Tenggara 93653","Sido Makmur, Kec. Tiworo Kepulauan, Muna Barat Regency",SULAWESI TENGGARA,93653.0,Indonesia, 082187367777,,,-4.8229138,122.4282364,https://maps.google.com/?cid=0x0:0x29aa187585d16488,
hardware store,Toko Bahan Bangunan,UD Sinar Buana Bangunan 02,"498H+2V2, desa kasimpa jaya, kecamatan tiworo selatan, Kasimpa Jaya, barat, Kabupaten Muna, Sulawesi Tenggara 93664","desa kasimpa jaya, kecamatan tiworo selatan, Kasimpa Jaya, barat, Kabupaten Muna",SULAWESI TENGGARA,93664.0,Indonesia, 081341066455,,,-4.8849852,122.3796289,https://maps.google.com/?cid=0x0:0xcafff15f6b6eecec,
hardware store,Toko Bahan Bangunan,UD.SIMPANG TIGA,"Jalan poros kasimpa jaya, Parura Jaya, Kambara, Sulawesi Tenggara","Kambara, Sulawesi Tenggara",SULAWESI TENGGARA,,Indonesia,,,,-4.8705404,122.395916,https://maps.google.com/?cid=0x0:0x7d6c85696b04b389,
hardware store,Toko Bahan Bangunan,UD. AMAL JAYA,"49CQ+X7M, Jln Poros, Kasimpa Jaya, South Tiworo, Muna Regency, South East Sulawesi","Kabupaten Muna, Sulawesi Tenggara",SULAWESI TENGGARA,,Indonesia, 085241645999,,,-4.8777067,122.3884577,https://maps.google.com/?cid=0x0:0xe0d02570382e2948,
hardware store,Toko Bahan Bangunan,Toko Nanda Makmur Jaya,"5CW2+WJ3, Jl. Poros, Suka Damai, barat, Kabupaten Muna, Sulawesi Tenggara","Kabupaten Muna, Sulawesi Tenggara",SULAWESI TENGGARA,,Indonesia,,,,-4.8027474,122.4015573,https://maps.google.com/?cid=0x0:0x51fdef2fcee53280,
hardware store,hardware store,Tiworo Sel.,"Kabupaten Muna, Sulawesi Tenggara","Kabupaten Muna, Sulawesi Tenggara",SULAWESI TENGGARA,,Indonesia,,,,-4.8877531,122.3900901,https://maps.google.com/?cid=0x0:0xb8fa848ebeff23ff,
hardware store,Toko Bahan Bangunan,Tb Berkah Ilahi,"5CP3+RCP, Jl. Poros, barat, Wapae Jaya, Tiworo Tengah, Kabupaten Muna, Sulawesi Tenggara","Kabupaten Muna, Sulawesi Tenggara",SULAWESI TENGGARA,,Indonesia, 082293224969,,,-4.8129136,122.4035644,https://maps.google.com/?cid=0x0:0xe2dd79e4878d7c06,
hardware store,Toko Bahan Bangunan,BM JAYA MANDIRI,"jln buncis No.01, Kasimpa Jaya, Tiworo Sel., Muna Barat, Sulawesi Tenggara","Muna Barat, Sulawesi Tenggara",SULAWESI TENGGARA,,Indonesia, 081367781032,,,-4.8745068,122.3922714,https://maps.google.com/?cid=0x0:0x17287a8b3aea5cf5,
hardware store,Toko Bahan Bangunan,UD Sinar Buana Bangunan 02,"498H+2V2, desa kasimpa jaya, kecamatan tiworo selatan, Kasimpa Jaya, barat, Kabupaten Muna, Sulawesi Tenggara 93664","desa kasimpa jaya, kecamatan tiworo selatan, Kasimpa Jaya, barat, Kabupaten Muna",SULAWESI TENGGARA,93664.0,Indonesia, 081341066455,,,-4.8849852,122.3796289,https://maps.google.com/?cid=0x0:0xcafff15f6b6eecec,
hardware store,Toko Bahan Bangunan,TOKO MITRA UTAMA ( Bahan bangunan ),"Wapae Jaya, Tiworo Tengah, Kabupaten Muna, Sulawesi Tenggara 93653","Tiworo Tengah, Kabupaten Muna",SULAWESI TENGGARA,93653.0,Indonesia, 081340991110,,,-4.8098747,122.4048474,https://maps.google.com/?cid=0x0:0x86bbde18d8f05086,
hardware store,Pusat Kesehatan Masyarakat,PUSKESMAS TIWORO SELATAN,"499P+F53, Jln labu 1 desa, Kasimpa Jaya, Tiworo Sel., Kabupaten Muna, Sulawesi Tenggara 93664","Jln labu 1 desa, Kasimpa Jaya, Tiworo Sel., Kabupaten Muna",SULAWESI TENGGARA,93664.0,Indonesia,,,,-4.8813505,122.3854326,https://maps.google.com/?cid=0x0:0x1a84839105caf8db,
hardware store,Toko Bahan Bangunan,UD.SIMPANG TIGA,"Jalan poros kasimpa jaya, Parura Jaya, Kambara, Sulawesi Tenggara","Kambara, Sulawesi Tenggara",SULAWESI TENGGARA,,Indonesia,,,,-4.8705404,122.395916,https://maps.google.com/?cid=0x0:0x7d6c85696b04b389,
hardware store,hardware store,Tiworo Tengah,"Kabupaten Muna, Sulawesi Tenggara","Kabupaten Muna, Sulawesi Tenggara",SULAWESI TENGGARA,,Indonesia,,,,-4.7902626,122.3787597,https://maps.google.com/?cid=0x0:0x185569b801f89ceb,
hardware store,Toko Bahan Bangunan,TOKO MITRA UTAMA ( Bahan bangunan ),"Wapae Jaya, Tiworo Tengah, Kabupaten Muna, Sulawesi Tenggara 93653","Tiworo Tengah, Kabupaten Muna",SULAWESI TENGGARA,93653.0,Indonesia, 081340991110,,,-4.8098747,122.4048474,https://maps.google.com/?cid=0x0:0x86bbde18d8f05086,
hardware store,Toko Bahan Bangunan,Tb Berkah Ilahi,"5CP3+RCP, Jl. Poros, barat, Wapae Jaya, Tiworo Tengah, Kabupaten Muna, Sulawesi Tenggara","Kabupaten Muna, Sulawesi Tenggara",SULAWESI TENGGARA,,Indonesia, 082293224969,,,-4.8129136,122.4035644,https://maps.google.com/?cid=0x0:0xe2dd79e4878d7c06,
hardware store,Toko Bahan Bangunan,BM JAYA MANDIRI,"jln buncis No.01, Kasimpa Jaya, Tiworo Sel., Muna Barat, Sulawesi Tenggara","Muna Barat, Sulawesi Tenggara",SULAWESI TENGGARA,,Indonesia, 081367781032,,,-4.8745068,122.3922714,https://maps.google.com/?cid=0x0:0x17287a8b3aea5cf5,
hardware store,Toko Bahan Bangunan,UD.SIMPANG TIGA,"Jalan poros kasimpa jaya, Parura Jaya, Kambara, Sulawesi Tenggara","Kambara, Sulawesi Tenggara",SULAWESI TENGGARA,,Indonesia,,,,-4.8705404,122.395916,https://maps.google.com/?cid=0x0:0x7d6c85696b04b389,
hardware store,hardware store,Tiworo Utara,"Kabupaten Muna, Sulawesi Tenggara","Kabupaten Muna, Sulawesi Tenggara",SULAWESI TENGGARA,,Indonesia,,,,-4.6704353,122.373094,https://maps.google.com/?cid=0x0:0xacd624ac1fc2f9d6,
hardware store,Toko Bahan Bangunan,Tb Berkah Ilahi,"5CP3+RCP, Jl. Poros, barat, Wapae Jaya, Tiworo Tengah, Kabupaten Muna, Sulawesi Tenggara","Kabupaten Muna, Sulawesi Tenggara",SULAWESI TENGGARA,,Indonesia, 082293224969,,,-4.8129136,122.4035644,https://maps.google.com/?cid=0x0:0xe2dd79e4878d7c06,
hardware store,Toko Bahan Bangunan,TOKO MITRA UTAMA ( Bahan bangunan ),"Wapae Jaya, Tiworo Tengah, Kabupaten Muna, Sulawesi Tenggara 93653","Tiworo Tengah, Kabupaten Muna",SULAWESI TENGGARA,93653.0,Indonesia, 081340991110,,,-4.8098747,122.4048474,https://maps.google.com/?cid=0x0:0x86bbde18d8f05086,
hardware store,Toko Alat Tulis,Lutfi Star,"jln Poros Sp3-Sp1, Sido Makmur, Kec. Tiworo Kepulauan, Muna Barat Regency, Sulawesi Tenggara 93653","Sido Makmur, Kec. Tiworo Kepulauan, Muna Barat Regency",SULAWESI TENGGARA,93653.0,Indonesia, 082187367777,,,-4.8229138,122.4282364,https://maps.google.com/?cid=0x0:0x29aa187585d16488,
hardware store,hardware store,Kec. Wadaga,"Kabupaten Muna, Sulawesi Tenggara","Kabupaten Muna, Sulawesi Tenggara",SULAWESI TENGGARA,,Indonesia,,,,-4.9157067,122.5304167,https://maps.google.com/?cid=0x0:0xb09250edddcd2e35,
hardware store,Toko Bahan Bangunan,"MAXCELL DEPO TEKNIK  BANGUNAN | Toko Listrik, Elektronik, Furniture Kendari","Ex, Jl. Laode Hadi Jl. Brigjen M. Yoenoes No.149-159, Bende, Kadia, Kendari City, South East Sulawesi 93118","Jl. Laode Hadi Jl. Brigjen M. Yoenoes No.149-159, Bende, Kadia, Kendari City",SULAWESI TENGGARA,93118.0,Indonesia, 04013192000,,,-3.992658,122.5139203,https://maps.google.com/?cid=0x0:0x8135d7de339a4cf7,
hardware store,Toko Bahan Bangunan,UD. MAITORA,"3GMJ+X43, Lailangga, Kec. Wadaga, Kabupaten Muna, Sulawesi Tenggara 93652","Lailangga, Kec. Wadaga, Kabupaten Muna",SULAWESI TENGGARA,93652.0,Indonesia, 081341913104,,,-4.9151237,122.5302863,https://maps.google.com/?cid=0x0:0xe7bc0ce234f87a54,
hardware store,Toko Bahan Bangunan,UD Sinar Buana Bangunan 02,"498H+2V2, desa kasimpa jaya, kecamatan tiworo selatan, Kasimpa Jaya, barat, Kabupaten Muna, Sulawesi Tenggara 93664","desa kasimpa jaya, kecamatan tiworo selatan, Kasimpa Jaya, barat, Kabupaten Muna",SULAWESI TENGGARA,93664.0,Indonesia, 081341066455,,,-4.8849852,122.3796289,https://maps.google.com/?cid=0x0:0xcafff15f6b6eecec,
hardware store,Toko Alat Tulis Kantor,Aish Fotocopy,"3G52+2MM, Kafoo-Foo, Kec. Kontu Kowuna, Kabupaten Muna, Sulawesi Tenggara 93652","Kafoo-Foo, Kec. Kontu Kowuna, Kabupaten Muna",SULAWESI TENGGARA,93652.0,Indonesia, 085232526229,,,-4.9424019,122.5016637,https://maps.google.com/?cid=0x0:0xb9879e28d833f1b4,
hardware store,Lapangan Futsal,HBM kendari,"2G2V+4G4, Jl. Bunggasi, Anduonohu, Kec. Poasia, Kota Kendari, Sulawesi Tenggara 93232","Jl. Bunggasi, Anduonohu, Kec. Poasia, Kota Kendari",SULAWESI TENGGARA,93232.0,Indonesia, 082348947129,,,-3.9997338,122.5438287,https://maps.google.com/?cid=0x0:0xe5e9cb9b2a35c0a,
hardware store,Toko Bahan Bangunan,"MAXCELL DEPO TEKNIK  BANGUNAN (KOLAKA) | Toko Listrik, Elektronik, Furniture Kolaka","Jl. Pramuka, Lamokato, Kec. Kolaka, Kabupaten Kolaka, Sulawesi Tenggara 93511","Lamokato, Kec. Kolaka, Kabupaten Kolaka",SULAWESI TENGGARA,93511.0,Indonesia, 082166638222,,,-4.056492,121.5995077,https://maps.google.com/?cid=0x0:0xd15a51807812dfe,
hardware store,Toko Bahan Bangunan,UD.SIMPANG TIGA,"Jalan poros kasimpa jaya, Parura Jaya, Kambara, Sulawesi Tenggara","Kambara, Sulawesi Tenggara",SULAWESI TENGGARA,,Indonesia,,,,-4.8705404,122.395916,https://maps.google.com/?cid=0x0:0x7d6c85696b04b389,
hardware store,Toko Bahan Bangunan,BM JAYA MANDIRI,"jln buncis No.01, Kasimpa Jaya, Tiworo Sel., Muna Barat, Sulawesi Tenggara","Muna Barat, Sulawesi Tenggara",SULAWESI TENGGARA,,Indonesia, 081367781032,,,-4.8745068,122.3922714,https://maps.google.com/?cid=0x0:0x17287a8b3aea5cf5,
hardware store,Toko Bahan Bangunan,Fajar Mas Bangunan,"Jl. Poros Bandara Haluoleo No.47, Ranomeeto, Kec. Ranomeeto, Kota Kendari, Sulawesi Tenggara 93870","Ranomeeto, Kec. Ranomeeto, Kota Kendari",SULAWESI TENGGARA,93870.0,Indonesia,,,,-4.0368119,122.4811487,https://maps.google.com/?cid=0x0:0x87e8a859f2499ff9,
hardware store,Toko Bahan Bangunan,UD. BEA BERKAH BANGUNAN,"2FFX+WR, Bea, Kec. Kabawo, Kabupaten Muna, Sulawesi Tenggara","Kabupaten Muna, Sulawesi Tenggara",SULAWESI TENGGARA,,Indonesia,,,,-4.9751984,122.4995188,https://maps.google.com/?cid=0x0:0xd9d6416b1dedfb3d,
hardware store,Toko Alat Tulis Kantor,ud. Aish lembo,"3G58+HX9, Lembo, Kec. Kontu Kowuna, Kabupaten Muna, Sulawesi Tenggara 93652","Lembo, Kec. Kontu Kowuna, Kabupaten Muna",SULAWESI TENGGARA,93652.0,Indonesia,,,,-4.9410877,122.5174729,https://maps.google.com/?cid=0x0:0x2ea531315985ea2,
hardware store,Toko Bahan Bangunan,Anggoeya,"2H34+XV6, Jl. H. Banawula Sin Apoy, Anggoeya, Kec. Poasia, Kota Kendari, Sulawesi Tenggara","Kota Kendari, Sulawesi Tenggara",SULAWESI TENGGARA,,Indonesia,,,,-3.9950986,122.5571258,https://maps.google.com/?cid=0x0:0x51cfc181cde07e2d,
hardware store,Pemasok Pengikat,toko baut hss04,"Jl. Jend. Ahmad Yani No.125, Mataiwoi, Kec. Wua-Wua, Kota Kendari, Sulawesi Tenggara 93117","Mataiwoi, Kec. Wua-Wua, Kota Kendari",SULAWESI TENGGARA,93117.0,Indonesia, 082189951111,,,-3.9934143,122.5022163,https://maps.google.com/?cid=0x0:0x20ba121cb8dde4f7,
hardware store,Kantor Pos,Kantor Pos Lemah Abang,"Jl. Jend. Urip Sumoharjo No.17, Waluya, Kec. Cikarang Utara, Kabupaten Bekasi, Jawa Barat 17530","Waluya, Kec. Cikarang Utara, Kabupaten Bekasi",SULAWESI TENGGARA,17530.0,Indonesia, 087722953310,,,-6.266543,107.1776219,https://maps.google.com/?cid=0x0:0x98f81d83c994fda6,
hardware store,Kantor Pos,Kantor Pos Cikarang Baru,AYAM PENYET SUPER PEDAS >>,"Kabupaten Bekasi, Jawa Barat",SULAWESI TENGGARA,,Indonesia, 087780457797,,,-6.2780981,107.1775393,https://maps.google.com/?cid=0x0:0xf7a2260582ae2df9,
home improvement,home improvement,Barangka,"Marikina City, Metro Manila, Filipina","Marikina City, Metro Manila, Filipina",SULAWESI TENGGARA,,Indonesia,,,,14.6382755,121.0836691,https://maps.google.com/?cid=0x0:0xb06d0bc6c0ed719,
home improvement,Toko Bahan Bangunan,AML Hardware  Construction Supplies,"barangay, 488 Barangka Dr., Mandaluyong City, 1550 Metro Manila, Filipina","Mandaluyong City, Metro Manila, Filipina",SULAWESI TENGGARA,,Indonesia, +639613986900,,,14.578167,121.042992,https://maps.google.com/?cid=0x0:0x350f56007831a36b,
home improvement,home improvement,Recen Home Improvements,"H2FQ+JPH, Barangay Malamig, Mandaluyong City, 1550 Metro Manila, Filipina","Mandaluyong City, Metro Manila, Filipina",SULAWESI TENGGARA,,Indonesia, +639212285194,,,14.5740552,121.0393669,https://maps.google.com/?cid=0x0:0x3b1d36c9a2635878,
home improvement,home improvement,Sulawesi Tenggara 93655,"Kabupaten Muna, Sulawesi Tenggara","Kabupaten Muna, Sulawesi Tenggara",SULAWESI TENGGARA,,Indonesia,,,,-4.7167048,122.593828,https://maps.google.com/?cid=0x0:0x2099dcc445aba1a5,
home improvement,Toko Mebel,Aidil store Sidamangura,"Jalan Poros Masara-Latawe, Sidamangura, Sulawesi Tenggara 93655",Sidamangura,SULAWESI TENGGARA,93655.0,Indonesia, 082399101348,,,-4.7269771,122.5617751,https://maps.google.com/?cid=0x0:0x1c861d9125faed3b,
home improvement,Tukang Kayu,Karwin Carpenter,"Bangun Sari, Kec. Lasalepa, Kabupaten Muna, Sulawesi Tenggara","Kabupaten Muna, Sulawesi Tenggara",SULAWESI TENGGARA,,Indonesia, 082297085017,,,-4.7688256,122.6864636,https://maps.google.com/?cid=0x0:0x77824a0861cf8ea9,
home improvement,Kantor Perusahaan,ATHARAUF GAISHAN MEBEL,"6J2M+FQR, Wakadia, Kec. Watopute, Kabupaten Muna, Sulawesi Tenggara 93656","Wakadia, Kec. Watopute, Kabupaten Muna",SULAWESI TENGGARA,93656.0,Indonesia, 082260793863,,,-4.7987562,122.6343962,https://maps.google.com/?cid=0x0:0xb16024374b028cf5,
home improvement,Komplek perumahan,Home's Egi,"5PFG+V77, Jl. Gatot Subroto, Wamponiki, Kec. Katobu, Kabupaten Muna, Sulawesi Tenggara 93614","Jl. Gatot Subroto, Wamponiki, Kec. Katobu, Kabupaten Muna",SULAWESI TENGGARA,93614.0,Indonesia, 082349915646,,,-4.8253341,122.7256826,https://maps.google.com/?cid=0x0:0x293e95b016a98c09,
home improvement,Kedai Kopi,Second home,"Jl. Gatot Subroto, Butung-Butung, Kec. Katobu, Kabupaten Muna, Sulawesi Tenggara 93616","Butung-Butung, Kec. Katobu, Kabupaten Muna",SULAWESI TENGGARA,93616.0,Indonesia, 082345665599,,,-4.8278677,122.7254747,https://maps.google.com/?cid=0x0:0x8834128dab6d2f5a,
home improvement,Toko Mebel,UD. ABAD JAYA FURNITURE,"6MMM+5QJ, Bangun Sari, Kec. Lasalepa, Kabupaten Muna, Sulawesi Tenggara 93654","Bangun Sari, Kec. Lasalepa, Kabupaten Muna",SULAWESI TENGGARA,93654.0,Indonesia,,,,-4.7673678,122.6838263,https://maps.google.com/?cid=0x0:0x477f36202723b634,
home improvement,Toko Mebel,UD. KARUNIA,"6MMJ+8W, Bangun Sari, Kec. Lasalepa, Kabupaten Muna, Sulawesi Tenggara 93654","Bangun Sari, Kec. Lasalepa, Kabupaten Muna",SULAWESI TENGGARA,93654.0,Indonesia,,,,-4.7666949,122.6822709,https://maps.google.com/?cid=0x0:0x8c8cdad985cf3979,
home improvement,Pemasok aksesori mebel,UD. Madi Mebel,"6MMM+5QJ, Bangun Sari, Kec. Lasalepa, Kabupaten Muna, Sulawesi Tenggara 93654","Bangun Sari, Kec. Lasalepa, Kabupaten Muna",SULAWESI TENGGARA,93654.0,Indonesia,,,,-4.7666855,122.6840415,https://maps.google.com/?cid=0x0:0xa84e15fb4bd01b7e,
home improvement,home improvement,Sulawesi Tenggara 93652,"Kabupaten Muna, Sulawesi Tenggara","Kabupaten Muna, Sulawesi Tenggara",SULAWESI TENGGARA,,Indonesia,,,,-4.8874972,122.5598994,https://maps.google.com/?cid=0x0:0x34e12d7c7d7a4631,
home improvement,Rumah Kayu,Alif,"4GRV+6FJ, Latugho, Kec. Lawa, Kabupaten Muna, Sulawesi Tenggara 93652","Latugho, Kec. Lawa, Kabupaten Muna",SULAWESI TENGGARA,93652.0,Indonesia,,,,-4.8594186,122.5436477,https://maps.google.com/?cid=0x0:0x73133692df30f77,
home improvement,,"WAKADIA SAHUR RENTAL EXCAVATOR, TRONTON, DUMP TRUK","6J3M+R29, Wakadia, Kec. Watopute, Kabupaten Muna, Sulawesi Tenggara","Kabupaten Muna, Sulawesi Tenggara",SULAWESI TENGGARA,,Indonesia, 085280007661,,,-4.795454,122.6326216,https://maps.google.com/?cid=0x0:0xb8237cfbb6afd696,
home improvement,home improvement,Kebun WaIfana,"4M6W+7X5, Kondongia, Kec. Lohia, Kabupaten Muna, Sulawesi Tenggara","Kabupaten Muna, Sulawesi Tenggara",SULAWESI TENGGARA,,Indonesia,,,,-4.8883382,122.6975967,https://maps.google.com/?cid=0x0:0xdf2b55419ee168b1,
home improvement,Developer Rumah Hunian Khusus,UD. RARA SINAR SEDERHANA,"4P76+FV8, Waara, Kec. Lohia, Kabupaten Muna, Sulawesi Tenggara 93659","Waara, Kec. Lohia, Kabupaten Muna",SULAWESI TENGGARA,93659.0,Indonesia, 085257882334,,,-4.8863398,122.7122012,https://maps.google.com/?cid=0x0:0xad5d0970ee967c42,
home improvement,Kafe,Wakila Sultra. PT,"JL. Lorong 1, Banggai, Raha II, Kec. Katobu, Kabupaten Muna, Sulawesi Tenggara 93516","Banggai, Raha II, Kec. Katobu, Kabupaten Muna",SULAWESI TENGGARA,93516.0,Indonesia, 04032521635,,,-4.8316876,122.7214242,https://maps.google.com/?cid=0x0:0xcdf98c1609c5c851,
home improvement,home improvement,La Inta,"3MJX+5RH, Mantobua, Kec. Lohia, Kabupaten Muna, Sulawesi Tenggara","Kabupaten Muna, Sulawesi Tenggara",SULAWESI TENGGARA,,Indonesia,,,,-4.9195567,122.6996174,https://maps.google.com/?cid=0x0:0x71a999da31369fde,
home improvement,Pembangunan Perumahan,NAINAWA RESIDENCE,"6G7F+HP, Poros Nihi Sawerigadi, Nihi, Barat, Kabupaten Muna, Sulawesi Tenggara 93657","Poros Nihi Sawerigadi, Nihi, Barat, Kabupaten Muna",SULAWESI TENGGARA,93657.0,Indonesia, 081383401175,,,-4.7856051,122.5237939,https://maps.google.com/?cid=0x0:0xc7f79e33acbdece4,
home improvement,Akuntan sewaan,Mr D.I.Y,"5P6G+744, Jl. Ahmad Yani, Kabupaten Muna, Sulawesi Tenggara 93611","Jl. Ahmad Yani, Kabupaten Muna",SULAWESI TENGGARA,93611.0,Indonesia,,,,-4.8394031,122.7252278,https://maps.google.com/?cid=0x0:0x2dbeeba2ef5f3086,
home improvement,Perusahaan Konstruksi,Alfiah mebel dan box speaker,"Jl. Balanak Utara, Sarimulyo, Kec. Kabangka, Kabupaten Muna, Sulawesi Tenggara 93664","Sarimulyo, Kec. Kabangka, Kabupaten Muna",SULAWESI TENGGARA,93664.0,Indonesia,,,,-4.9543379,122.4024477,https://maps.google.com/?cid=0x0:0x860133f85a9c9307,
home improvement,Kontraktor Umum,Umega Jaya. CV,"3JXC+6FV, Madampi, Kec. Lawa, Kabupaten Muna, Sulawesi Tenggara 93652","Madampi, Kec. Lawa, Kabupaten Muna",SULAWESI TENGGARA,93652.0,Indonesia, 085255137744,,,-4.901883,122.62117,https://maps.google.com/?cid=0x0:0x708c23119fc01905,
home improvement,home improvement,Lamuru,"XGV2+M6V, Lamaeo, Kec. Kabawo, Kabupaten Muna, Sulawesi Tenggara","Kabupaten Muna, Sulawesi Tenggara",SULAWESI TENGGARA,,Indonesia,,,,-5.005754,122.500557,https://maps.google.com/?cid=0x0:0x35f8028ab3434566,
home improvement,Komplek perumahan,Lorong potlot,"4P36+J5V, 4MCX+H2MJl. Poros, Waara, Kec. Lohia, Kabupaten Muna, Sulawesi Tenggara 93659","4MCX+H2MJl. Poros, Waara, Kec. Lohia, Kabupaten Muna",SULAWESI TENGGARA,93659.0,Indonesia,,,,-4.8958823,122.7104197,https://maps.google.com/?cid=0x0:0xd17521ad187b047d,
home improvement,Toko Perlengkapan Rumah,TOKO IMAM,"5CCJ+F76, Sido Makmur, Kec. Tiworo Kepulauan, Kabupaten Muna, Sulawesi Tenggara","Kabupaten Muna, Sulawesi Tenggara",SULAWESI TENGGARA,,Indonesia,,,,-4.8288373,122.4306412,https://maps.google.com/?cid=0x0:0xde5828a37bbbb87d,
home improvement,home improvement,Kec. Maginti,"Kabupaten Muna, Sulawesi Tenggara","Kabupaten Muna, Sulawesi Tenggara",SULAWESI TENGGARA,,Indonesia,,,,-4.8523016,122.3273334,https://maps.google.com/?cid=0x0:0x827d1cf3623f4296,
home improvement,home improvement,Pulau Maginti,"Maginti, Kec. Maginti, Kabupaten Muna, Sulawesi Tenggara","Kabupaten Muna, Sulawesi Tenggara",SULAWESI TENGGARA,,Indonesia,,,,-4.8372222,122.1919444,https://maps.google.com/?cid=0x0:0xb50bb25473617676,
home improvement,Toko Bahan Bangunan,UD Sinar Buana Bangunan 02,"498H+2V2, desa kasimpa jaya, kecamatan tiworo selatan, Kasimpa Jaya, barat, Kabupaten Muna, Sulawesi Tenggara 93664","desa kasimpa jaya, kecamatan tiworo selatan, Kasimpa Jaya, barat, Kabupaten Muna",SULAWESI TENGGARA,93664.0,Indonesia, 081341066455,,,-4.8849852,122.3796289,https://maps.google.com/?cid=0x0:0xcafff15f6b6eecec,
home improvement,Toko Perlengkapan Rumah,TOKO IMAM,"5CCJ+F76, Sido Makmur, Kec. Tiworo Kepulauan, Kabupaten Muna, Sulawesi Tenggara","Kabupaten Muna, Sulawesi Tenggara",SULAWESI TENGGARA,,Indonesia,,,,-4.8288373,122.4306412,https://maps.google.com/?cid=0x0:0xde5828a37bbbb87d,
home improvement,Pusat Perbelanjaan,Mebel jati sukoy,"Dekat SMP negeri, Simpan 3jokowi, Jalan poros desa, Parura jaya, Laworuku, Sulawesi Tenggara 93635","Simpan 3jokowi, Jalan poros desa, Parura jaya, Laworuku",SULAWESI TENGGARA,93635.0,Indonesia, 085299827785,,,-4.8550187,122.3834413,https://maps.google.com/?cid=0x0:0xc562389c768f7647,
home improvement,home improvement,Sulawesi Tenggara 93655,"Kabupaten Muna, Sulawesi Tenggara","Kabupaten Muna, Sulawesi Tenggara",SULAWESI TENGGARA,,Indonesia,,,,-4.7167048,122.593828,https://maps.google.com/?cid=0x0:0x2099dcc445aba1a5,
home improvement,Tukang Kayu,Karwin Carpenter,"Bangun Sari, Kec. Lasalepa, Kabupaten Muna, Sulawesi Tenggara","Kabupaten Muna, Sulawesi Tenggara",SULAWESI TENGGARA,,Indonesia, 082297085017,,,-4.7688256,122.6864636,https://maps.google.com/?cid=0x0:0x77824a0861cf8ea9,
home improvement,Toko Mebel,Aidil store Sidamangura,"Jalan Poros Masara-Latawe, Sidamangura, Sulawesi Tenggara 93655",Sidamangura,SULAWESI TENGGARA,93655.0,Indonesia, 082399101348,,,-4.7269771,122.5617751,https://maps.google.com/?cid=0x0:0x1c861d9125faed3b,
home improvement,Kantor Perusahaan,ATHARAUF GAISHAN MEBEL,"6J2M+FQR, Wakadia, Kec. Watopute, Kabupaten Muna, Sulawesi Tenggara 93656","Wakadia, Kec. Watopute, Kabupaten Muna",SULAWESI TENGGARA,93656.0,Indonesia, 082260793863,,,-4.7987562,122.6343962,https://maps.google.com/?cid=0x0:0xb16024374b028cf5,
home improvement,Toko Mebel,UD. KARUNIA,"6MMJ+8W, Bangun Sari, Kec. Lasalepa, Kabupaten Muna, Sulawesi Tenggara 93654","Bangun Sari, Kec. Lasalepa, Kabupaten Muna",SULAWESI TENGGARA,93654.0,Indonesia,,,,-4.7666949,122.6822709,https://maps.google.com/?cid=0x0:0x8c8cdad985cf3979,
home improvement,Toko Bahan Bangunan,TOKO BAHAN BANGUNAN,"5MQ2+JGP, Jl. Poros Raha-Kusambi, Dana, Kec. Watopute, Kabupaten Muna, Sulawesi Tenggara 93658","Jl. Poros Raha-Kusambi, Dana, Kec. Watopute, Kabupaten Muna",SULAWESI TENGGARA,93658.0,Indonesia,,,,-4.8109195,122.6513408,https://maps.google.com/?cid=0x0:0x9804f5f170a038e5,
home improvement,Toko Mebel,UD. ABAD JAYA FURNITURE,"6MMM+5QJ, Bangun Sari, Kec. Lasalepa, Kabupaten Muna, Sulawesi Tenggara 93654","Bangun Sari, Kec. Lasalepa, Kabupaten Muna",SULAWESI TENGGARA,93654.0,Indonesia,,,,-4.7673678,122.6838263,https://maps.google.com/?cid=0x0:0x477f36202723b634,
home improvement,Pengrajin Lemari,Hendra Mebel jati bangunsari,"Bangun Sari, Kec. Lasalepa, Kabupaten Muna, Sulawesi Tenggara","Kabupaten Muna, Sulawesi Tenggara",SULAWESI TENGGARA,,Indonesia, 082348584653,,,-4.7648333,122.6963227,https://maps.google.com/?cid=0x0:0x243a8974655a8d8c,
home improvement,Toko,Home ivan,"7P9F+45J, Bonea, Kec. Lasalepa, Kabupaten Muna, Sulawesi Tenggara","Kabupaten Muna, Sulawesi Tenggara",SULAWESI TENGGARA,,Indonesia,,,,-4.73216,122.7229,https://maps.google.com/?cid=0x0:0x893685926714314b,
home improvement,Pemasok aksesori mebel,UD. Madi Mebel,"6MMM+5QJ, Bangun Sari, Kec. Lasalepa, Kabupaten Muna, Sulawesi Tenggara 93654","Bangun Sari, Kec. Lasalepa, Kabupaten Muna",SULAWESI TENGGARA,93654.0,Indonesia,,,,-4.7666855,122.6840415,https://maps.google.com/?cid=0x0:0xa84e15fb4bd01b7e,
home improvement,Perhimpunan Pengembang Perumahan,Rumah Andy,"6P35+M5, Wakorambu, Kec. Batalaiworu, Kabupaten Muna, Sulawesi Tenggara","Kabupaten Muna, Sulawesi Tenggara",SULAWESI TENGGARA,,Indonesia,,,,-4.795794,122.707983,https://maps.google.com/?cid=0x0:0x24618b7d7bd01ad7,
home improvement,Toko Mebel,Unggul mebel,"6MMJ+PH9, Bangun Sari, Kec. Lasalepa, Kabupaten Muna, Sulawesi Tenggara","Kabupaten Muna, Sulawesi Tenggara",SULAWESI TENGGARA,,Indonesia, 081344874027,,,-4.7652094,122.6820564,https://maps.google.com/?cid=0x0:0x2a3a44978003c71b,
home improvement,home improvement,Sulawesi Tenggara 93657,"Kabupaten Muna, Sulawesi Tenggara","Kabupaten Muna, Sulawesi Tenggara",SULAWESI TENGGARA,,Indonesia,,,,-4.8269737,122.5259596,https://maps.google.com/?cid=0x0:0x6227f17791af231c,
home improvement,Komplek perumahan,Home's Egi,"5PFG+V77, Jl. Gatot Subroto, Wamponiki, Kec. Katobu, Kabupaten Muna, Sulawesi Tenggara 93614","Jl. Gatot Subroto, Wamponiki, Kec. Katobu, Kabupaten Muna",SULAWESI TENGGARA,93614.0,Indonesia, 082349915646,,,-4.8253341,122.7256826,https://maps.google.com/?cid=0x0:0x293e95b016a98c09,
home improvement,Kedai Kopi,Second home,"Jl. Gatot Subroto, Butung-Butung, Kec. Katobu, Kabupaten Muna, Sulawesi Tenggara 93616","Butung-Butung, Kec. Katobu, Kabupaten Muna",SULAWESI TENGGARA,93616.0,Indonesia, 082345665599,,,-4.8278677,122.7254747,https://maps.google.com/?cid=0x0:0x8834128dab6d2f5a,
home improvement,Toko Mebel,Aidil store Sidamangura,"Jalan Poros Masara-Latawe, Sidamangura, Sulawesi Tenggara 93655",Sidamangura,SULAWESI TENGGARA,93655.0,Indonesia, 082399101348,,,-4.7269771,122.5617751,https://maps.google.com/?cid=0x0:0x1c861d9125faed3b,
home improvement,Toko Mebel,Sahabat interior,"Mekar Jaya, Tiworo Tengah, Muna barat, Sulawesi Tenggara 93653","Tiworo Tengah, Muna barat",SULAWESI TENGGARA,93653.0,Indonesia, 081245622670,,,-4.8273354,122.3976463,https://maps.google.com/?cid=0x0:0x88eb2b555dabf551,
home improvement,home improvement,Kec. Sawerigadi,"Kabupaten Muna, Sulawesi Tenggara","Kabupaten Muna, Sulawesi Tenggara",SULAWESI TENGGARA,,Indonesia,,,,-4.7903102,122.491523,https://maps.google.com/?cid=0x0:0xc0b7ac172b281750,
home improvement,home improvement,Kec. Tiworo Kepulauan,"Kabupaten Muna, Sulawesi Tenggara","Kabupaten Muna, Sulawesi Tenggara",SULAWESI TENGGARA,,Indonesia,,,,-4.7783688,122.4353995,https://maps.google.com/?cid=0x0:0xb9b9310dc3cd9cb5,
home improvement,Toko Perlengkapan Rumah,TOKO IMAM,"5CCJ+F76, Sido Makmur, Kec. Tiworo Kepulauan, Kabupaten Muna, Sulawesi Tenggara","Kabupaten Muna, Sulawesi Tenggara",SULAWESI TENGGARA,,Indonesia,,,,-4.8288373,122.4306412,https://maps.google.com/?cid=0x0:0xde5828a37bbbb87d,
home improvement,Pusat Perbelanjaan,Cahaya perkasa,"5CM3+V3G, Jl. Poros, Wapae Jaya, Tiworo Tengah, Kabupaten Muna, Sulawesi Tenggara","Kabupaten Muna, Sulawesi Tenggara",SULAWESI TENGGARA,,Indonesia, 082291803126,,,-4.8153136,122.4026891,https://maps.google.com/?cid=0x0:0xaec23edefcd2ff4a,
home improvement,Toko Lemari,Tondasi,"69WC+FRF, Tondasi, Tiworo Utara, Kabupaten Muna, Sulawesi Tenggara","Kabupaten Muna, Sulawesi Tenggara",SULAWESI TENGGARA,,Indonesia,,,,-4.7538095,122.3720313,https://maps.google.com/?cid=0x0:0xadcd9f7513c51047,
home improvement,Pusat Perbelanjaan,Mebel Surabaya,"5CRV+VWF, Jl. Poros, Wandoke, Kec. Tiworo Kepulauan, Kabupaten Muna, Sulawesi Tenggara 93653","Jl. Poros, Wandoke, Kec. Tiworo Kepulauan, Kabupaten Muna",SULAWESI TENGGARA,93653.0,Indonesia, 081220412959,,,-4.8078033,122.4448094,https://maps.google.com/?cid=0x0:0xc4dab378b1d3b12a,
home improvement,Perajin furnitur,Pendowo mebel,"59FW+57, Mekar Jaya, Tiworo Tengah, Kabupaten Muna, Sulawesi Tenggara","Kabupaten Muna, Sulawesi Tenggara",SULAWESI TENGGARA,,Indonesia,,,,-4.827022,122.3956377,https://maps.google.com/?cid=0x0:0xa70c1268f54ea3e6,
home improvement,Akuntan sewaan,Mr D.I.Y,"5P6G+744, Jl. Ahmad Yani, Kabupaten Muna, Sulawesi Tenggara 93611","Jl. Ahmad Yani, Kabupaten Muna",SULAWESI TENGGARA,93611.0,Indonesia,,,,-4.8394031,122.7252278,https://maps.google.com/?cid=0x0:0x2dbeeba2ef5f3086,
home improvement,Komplek perumahan,Rumah debby,"48WH+745, Pajala, Kec. Maginti, Kabupaten Muna, Sulawesi Tenggara","Kabupaten Muna, Sulawesi Tenggara",SULAWESI TENGGARA,,Indonesia,,,,-4.8543467,122.3278944,https://maps.google.com/?cid=0x0:0xa3548d9a361f7d50,
home improvement,Toko Bahan Bangunan,UD Sinar Buana Bangunan 02,"498H+2V2, desa kasimpa jaya, kecamatan tiworo selatan, Kasimpa Jaya, barat, Kabupaten Muna, Sulawesi Tenggara 93664","desa kasimpa jaya, kecamatan tiworo selatan, Kasimpa Jaya, barat, Kabupaten Muna",SULAWESI TENGGARA,93664.0,Indonesia, 081341066455,,,-4.8849852,122.3796289,https://maps.google.com/?cid=0x0:0xcafff15f6b6eecec,
home improvement,Toko Lemari,Jual lemari,"jln poros pelabuhan very depan lorong puskesmas, Tondasi, Raha, Kabupaten Muna, Sulawesi Tenggara 93653","Tondasi, Raha, Kabupaten Muna",SULAWESI TENGGARA,93653.0,Indonesia, 081333996657,,,-4.7538055,122.372033,https://maps.google.com/?cid=0x0:0xfdc7266bbe7c2e30,
home improvement,Pembangunan Perumahan,NAINAWA RESIDENCE,"6G7F+HP, Poros Nihi Sawerigadi, Nihi, Barat, Kabupaten Muna, Sulawesi Tenggara 93657","Poros Nihi Sawerigadi, Nihi, Barat, Kabupaten Muna",SULAWESI TENGGARA,93657.0,Indonesia, 081383401175,,,-4.7856051,122.5237939,https://maps.google.com/?cid=0x0:0xc7f79e33acbdece4,
home improvement,Toko,Janury Service HP,"Jalan Cut mutiah No.12, Wulanga Jaya, Kec. Tiworo Kepulauan, Muna Barat, Sulawesi Tenggara 93653","Wulanga Jaya, Kec. Tiworo Kepulauan, Muna Barat",SULAWESI TENGGARA,93653.0,Indonesia, 082290654759,,,-4.8231748,122.4320696,https://maps.google.com/?cid=0x0:0xe358ca4b7fbcf5a9,
home improvement,home improvement,Tiworo Sel.,"Kabupaten Muna, Sulawesi Tenggara","Kabupaten Muna, Sulawesi Tenggara",SULAWESI TENGGARA,,Indonesia,,,,-4.8877531,122.3900901,https://maps.google.com/?cid=0x0:0xb8fa848ebeff23ff,
home improvement,Toko Bahan Bangunan,UD Sinar Buana Bangunan 02,"498H+2V2, desa kasimpa jaya, kecamatan tiworo selatan, Kasimpa Jaya, barat, Kabupaten Muna, Sulawesi Tenggara 93664","desa kasimpa jaya, kecamatan tiworo selatan, Kasimpa Jaya, barat, Kabupaten Muna",SULAWESI TENGGARA,93664.0,Indonesia, 081341066455,,,-4.8849852,122.3796289,https://maps.google.com/?cid=0x0:0xcafff15f6b6eecec,
home improvement,Pusat Perbelanjaan,Cahaya perkasa,"5CM3+V3G, Jl. Poros, Wapae Jaya, Tiworo Tengah, Kabupaten Muna, Sulawesi Tenggara","Kabupaten Muna, Sulawesi Tenggara",SULAWESI TENGGARA,,Indonesia, 082291803126,,,-4.8153136,122.4026891,https://maps.google.com/?cid=0x0:0xaec23edefcd2ff4a,
home improvement,Perajin furnitur,Pendowo mebel,"59FW+57, Mekar Jaya, Tiworo Tengah, Kabupaten Muna, Sulawesi Tenggara","Kabupaten Muna, Sulawesi Tenggara",SULAWESI TENGGARA,,Indonesia,,,,-4.827022,122.3956377,https://maps.google.com/?cid=0x0:0xa70c1268f54ea3e6,
home improvement,Komplek perumahan,Rumah debby,"48WH+745, Pajala, Kec. Maginti, Kabupaten Muna, Sulawesi Tenggara","Kabupaten Muna, Sulawesi Tenggara",SULAWESI TENGGARA,,Indonesia,,,,-4.8543467,122.3278944,https://maps.google.com/?cid=0x0:0xa3548d9a361f7d50,
home improvement,Pusat Perbelanjaan,Mebel jati sukoy,"Dekat SMP negeri, Simpan 3jokowi, Jalan poros desa, Parura jaya, Laworuku, Sulawesi Tenggara 93635","Simpan 3jokowi, Jalan poros desa, Parura jaya, Laworuku",SULAWESI TENGGARA,93635.0,Indonesia, 085299827785,,,-4.8550187,122.3834413,https://maps.google.com/?cid=0x0:0xc562389c768f7647,
home improvement,Pembangunan Perumahan,Home Wandira,"VCXR+MW8, Morome, Kec. Konda, Kabupaten Konawe Selatan, Sulawesi Tenggara","Kabupaten Konawe Selatan, Sulawesi Tenggara",SULAWESI TENGGARA,,Indonesia,,,,-4.100827,122.442411,https://maps.google.com/?cid=0x0:0xfee42de6662c84eb,
home improvement,home improvement,TOKO LASTRI,"5CCH+V8P, Sido Makmur, Kec. Tiworo Kepulauan, Kabupaten Muna, Sulawesi Tenggara","Kabupaten Muna, Sulawesi Tenggara",SULAWESI TENGGARA,,Indonesia,,,,-4.8277991,122.4283389,https://maps.google.com/?cid=0x0:0x2a177f9ea4824594,
home improvement,home improvement,Tiworo Tengah,"Kabupaten Muna, Sulawesi Tenggara","Kabupaten Muna, Sulawesi Tenggara",SULAWESI TENGGARA,,Indonesia,,,,-4.7902626,122.3787597,https://maps.google.com/?cid=0x0:0x185569b801f89ceb,
home improvement,Pusat Perbelanjaan,Cahaya perkasa,"5CM3+V3G, Jl. Poros, Wapae Jaya, Tiworo Tengah, Kabupaten Muna, Sulawesi Tenggara","Kabupaten Muna, Sulawesi Tenggara",SULAWESI TENGGARA,,Indonesia, 082291803126,,,-4.8153136,122.4026891,https://maps.google.com/?cid=0x0:0xaec23edefcd2ff4a,
home improvement,Toko Mebel,Sahabat interior,"Mekar Jaya, Tiworo Tengah, Muna barat, Sulawesi Tenggara 93653","Tiworo Tengah, Muna barat",SULAWESI TENGGARA,93653.0,Indonesia, 081245622670,,,-4.8273354,122.3976463,https://maps.google.com/?cid=0x0:0x88eb2b555dabf551,
home improvement,Toko Perlengkapan Rumah,TOKO IMAM,"5CCJ+F76, Sido Makmur, Kec. Tiworo Kepulauan, Kabupaten Muna, Sulawesi Tenggara","Kabupaten Muna, Sulawesi Tenggara",SULAWESI TENGGARA,,Indonesia,,,,-4.8288373,122.4306412,https://maps.google.com/?cid=0x0:0xde5828a37bbbb87d,
home improvement,Perajin furnitur,Pendowo mebel,"59FW+57, Mekar Jaya, Tiworo Tengah, Kabupaten Muna, Sulawesi Tenggara","Kabupaten Muna, Sulawesi Tenggara",SULAWESI TENGGARA,,Indonesia,,,,-4.827022,122.3956377,https://maps.google.com/?cid=0x0:0xa70c1268f54ea3e6,
home improvement,Komplek perumahan,Rumah debby,"48WH+745, Pajala, Kec. Maginti, Kabupaten Muna, Sulawesi Tenggara","Kabupaten Muna, Sulawesi Tenggara",SULAWESI TENGGARA,,Indonesia,,,,-4.8543467,122.3278944,https://maps.google.com/?cid=0x0:0xa3548d9a361f7d50,
home improvement,Pusat Perbelanjaan,Mebel Surabaya,"5CRV+VWF, Jl. Poros, Wandoke, Kec. Tiworo Kepulauan, Kabupaten Muna, Sulawesi Tenggara 93653","Jl. Poros, Wandoke, Kec. Tiworo Kepulauan, Kabupaten Muna",SULAWESI TENGGARA,93653.0,Indonesia, 081220412959,,,-4.8078033,122.4448094,https://maps.google.com/?cid=0x0:0xc4dab378b1d3b12a,
home improvement,Jasa Konstruksi dan Bangunan,JASA USAHA BENGKEL LAS ILONG MANDIRI,"Tondasi, Tiworo Utara, Kabupaten Muna, Sulawesi Tenggara","Kabupaten Muna, Sulawesi Tenggara",SULAWESI TENGGARA,,Indonesia,,,,-4.7547103,122.3711649,https://maps.google.com/?cid=0x0:0xb00f6e44891b9875,
home improvement,Servis Komputer,Bengkel HP,"Jl. Pattimura No.02, RT.02/RW.01, Mekar Jaya, Tiworo Tengah, Muna Barat, Sulawesi Tenggara 93653","RT.02/RW.01, Mekar Jaya, Tiworo Tengah, Muna Barat",SULAWESI TENGGARA,93653.0,Indonesia, 085156683346,,,-4.8261563,122.3981403,https://maps.google.com/?cid=0x0:0xf51485fd4e43a769,
home improvement,home improvement,Tiworo Utara,"Kabupaten Muna, Sulawesi Tenggara","Kabupaten Muna, Sulawesi Tenggara",SULAWESI TENGGARA,,Indonesia,,,,-4.6704353,122.373094,https://maps.google.com/?cid=0x0:0xacd624ac1fc2f9d6,
home improvement,Toko Lemari,Tondasi,"69WC+FRF, Tondasi, Tiworo Utara, Kabupaten Muna, Sulawesi Tenggara","Kabupaten Muna, Sulawesi Tenggara",SULAWESI TENGGARA,,Indonesia,,,,-4.7538095,122.3720313,https://maps.google.com/?cid=0x0:0xadcd9f7513c51047,
home improvement,Toko Perlengkapan Rumah,TOKO IMAM,"5CCJ+F76, Sido Makmur, Kec. Tiworo Kepulauan, Kabupaten Muna, Sulawesi Tenggara","Kabupaten Muna, Sulawesi Tenggara",SULAWESI TENGGARA,,Indonesia,,,,-4.8288373,122.4306412,https://maps.google.com/?cid=0x0:0xde5828a37bbbb87d,
home improvement,Toko Mebel,Sahabat interior,"Mekar Jaya, Tiworo Tengah, Muna barat, Sulawesi Tenggara 93653","Tiworo Tengah, Muna barat",SULAWESI TENGGARA,93653.0,Indonesia, 081245622670,,,-4.8273354,122.3976463,https://maps.google.com/?cid=0x0:0x88eb2b555dabf551,
home improvement,Perajin furnitur,Pendowo mebel,"59FW+57, Mekar Jaya, Tiworo Tengah, Kabupaten Muna, Sulawesi Tenggara","Kabupaten Muna, Sulawesi Tenggara",SULAWESI TENGGARA,,Indonesia,,,,-4.827022,122.3956377,https://maps.google.com/?cid=0x0:0xa70c1268f54ea3e6,
home improvement,Toko Lemari,Jual lemari,"jln poros pelabuhan very depan lorong puskesmas, Tondasi, Raha, Kabupaten Muna, Sulawesi Tenggara 93653","Tondasi, Raha, Kabupaten Muna",SULAWESI TENGGARA,93653.0,Indonesia, 081333996657,,,-4.7538055,122.372033,https://maps.google.com/?cid=0x0:0xfdc7266bbe7c2e30,
home improvement,Toko Bahan Bangunan,UD Sinar Buana Bangunan 02,"498H+2V2, desa kasimpa jaya, kecamatan tiworo selatan, Kasimpa Jaya, barat, Kabupaten Muna, Sulawesi Tenggara 93664","desa kasimpa jaya, kecamatan tiworo selatan, Kasimpa Jaya, barat, Kabupaten Muna",SULAWESI TENGGARA,93664.0,Indonesia, 081341066455,,,-4.8849852,122.3796289,https://maps.google.com/?cid=0x0:0xcafff15f6b6eecec,
home improvement,Toko Bahan Bangunan,Sinar Karunia,"Jl. Poros No.2, Wapae Jaya, Tiworo Tengah, Kabupaten Muna, Sulawesi Tenggara 93648","Wapae Jaya, Tiworo Tengah, Kabupaten Muna",SULAWESI TENGGARA,93648.0,Indonesia, 081242222245,,,-4.8167409,122.4020923,https://maps.google.com/?cid=0x0:0x4e38fd0b930d486a,
home improvement,home improvement,Kec. Wadaga,"Kabupaten Muna, Sulawesi Tenggara","Kabupaten Muna, Sulawesi Tenggara",SULAWESI TENGGARA,,Indonesia,,,,-4.9157067,122.5304167,https://maps.google.com/?cid=0x0:0xb09250edddcd2e35,
