Category,Real Category,Business Name,Address,City,State,Postal Code,Country,Phone,Email,Website,Latitude,Longitude,Map Link,Details Link
mall,mall,Kec. Barangka,"Kabupaten Muna, Sulawesi Tenggara","Kabupaten Muna, Sulawesi Tenggara",SULAWESI TENGGARA,,Indonesia,,,,-4.8448994,122.5483448,https://maps.google.com/?cid=0x0:0x22374dea68597f27,
mall,Biro Perjalanan dan Wisata,Adrian Sulis Travel Mubar,"5G8F+M97, Wuna, Kec. Barangka, Kabupaten Muna, Sulawesi Tenggara 93657","Wuna, Kec. Barangka, Kabupaten Muna",SULAWESI TENGGARA,93657.0,Indonesia,,,,-4.8333482,122.5234164,https://maps.google.com/?cid=0x0:0x801ab65c274aabf5,
mall,Pusat Perbelanjaan,elzar store,"4GVR+W2Q, Latugho, Kec. Lawa, Kabupaten Muna, Sulawesi Tenggara","Kabupaten Muna, Sulawesi Tenggara",SULAWESI TENGGARA,,Indonesia, 082189266403,,,-4.8551566,122.5401025,https://maps.google.com/?cid=0x0:0xd1cd109fc957044,
mall,Komplek perumahan,Kantor Desa Barangka,"PPH6+26F, Barangka, Kec. Kapontori, Kabupaten Buton, Sulawesi Tenggara 93755","Barangka, Kec. Kapontori, Kabupaten Buton",SULAWESI TENGGARA,93755.0,Indonesia,,,,-5.2724339,122.7105488,https://maps.google.com/?cid=0x0:0x1a19aa405c58eb03,
mall,Komplek perumahan,Desa Walelei,"Lorong 1, Desa Walelei, Kec. Barangka, Barangka, Barat, Kabupaten Muna, Sulawesi Tenggara 93652","Desa Walelei, Kec. Barangka, Barangka, Barat, Kabupaten Muna",SULAWESI TENGGARA,93652.0,Indonesia,,,,-4.8471384,122.5423575,https://maps.google.com/?cid=0x0:0xfcc9da5d9989cad,
mall,mall,Olive Lafinde Utara,"5GQ7+GQ2, Wuna, Kec. Barangka, Kabupaten Muna, Sulawesi Tenggara 93657","Wuna, Kec. Barangka, Kabupaten Muna",SULAWESI TENGGARA,93657.0,Indonesia,,,,-4.8112275,122.5143771,https://maps.google.com/?cid=0x0:0x61cbec74b0ebaccf,
mall,mall,Apot fadil shoop,"5H4C+33, Sawerigadi, Kec. Sawerigadi, Kabupaten Muna, Sulawesi Tenggara 93652","Sawerigadi, Kec. Sawerigadi, Kabupaten Muna",SULAWESI TENGGARA,93652.0,Indonesia,,,,-4.8448673,122.5701291,https://maps.google.com/?cid=0x0:0x641bc7f88fa046d9,
mall,mall,Barangka,"Marikina City, Metro Manila, Filipina","Marikina City, Metro Manila, Filipina",SULAWESI TENGGARA,,Indonesia,,,,14.6382755,121.0836691,https://maps.google.com/?cid=0x0:0xb06d0bc6c0ed719,
mall,Taman,Riverbanks Mall,"84 A. Bonifacio Ave, Marikina City, 1803 Metro Manila, Filipina","Marikina City, Metro Manila, Filipina",SULAWESI TENGGARA,,Indonesia, +63285700701,,,14.6311855,121.0821348,https://maps.google.com/?cid=0x0:0xe494a63e40a6dd27,
mall,Toserba,SM City Marikina,"Marikina City, 1800 Metro Manila, Filipina","Marikina City, Metro Manila, Filipina",SULAWESI TENGGARA,,Indonesia,,,,14.6260118,121.0837907,https://maps.google.com/?cid=0x0:0x45e3362dac0fc52a,
mall,Taman,Riverbanks Center,"1800 Riverbanks Ave, Marikina City, 1800 Metro Manila, Filipina","Marikina City, Metro Manila, Filipina",SULAWESI TENGGARA,,Indonesia, +63285700701,,,14.6291951,121.0816099,https://maps.google.com/?cid=0x0:0xfab5c28802893b59,
mall,Mal outlet,Riverbanks Arcade,"84 A. Bonifacio Ave, Marikina City, 1803 Metro Manila, Filipina","Marikina City, Metro Manila, Filipina",SULAWESI TENGGARA,,Indonesia,,,,14.6325908,121.0828581,https://maps.google.com/?cid=0x0:0x20c036f3a93419e2,
mall,Pusat Bisnis,Blue Wave Mall,"Sumulong Hwy, Marikina City, 1800 Metro Manila, Filipina","Marikina City, Metro Manila, Filipina",SULAWESI TENGGARA,,Indonesia, +639190762521,,,14.6358083,121.1010349,https://maps.google.com/?cid=0x0:0xcb95e4b5524a3f31,
mall,Kompleks Kondominium,SMDC Light Mall,"H2FX+PMH, Madison, Mandaluyong City, 1560 Metro Manila, Filipina","Mandaluyong City, Metro Manila, Filipina",SULAWESI TENGGARA,,Indonesia,,,,14.5743146,121.0492401,https://maps.google.com/?cid=0x0:0xce3d8811d74bedff,
mall,Toko Pakaian,RRJ and Mr. Lee Factory Outlet,"Ground Floor Store no.151 Riverbanks Mall, A. Bonifacio Road, Marikina City, 1803 Metro Manila, Filipina","Marikina City, Metro Manila, Filipina",SULAWESI TENGGARA,,Indonesia, +63285700701,,,14.631024,121.082376,https://maps.google.com/?cid=0x0:0x928b7fe25a1ba3b,
mall,Toko bahan makanan,Savemore Market Marikina Riverbanks Mall,"Riverbank Mall, 84a Boni Ave, Marikina City, 1803 Metro Manila, Filipina","Marikina City, Metro Manila, Filipina",SULAWESI TENGGARA,,Indonesia, +63289413617,,,14.6315546,121.0816455,https://maps.google.com/?cid=0x0:0x1893f02f43ec4093,
mall,,Epic Center Mall Incorporated,"84 A. Bonifacio Avenue, Barangka, Marikina, 1802, Metro Manila, Filipina","Marikina City, Metro Manila, Filipina",SULAWESI TENGGARA,,Indonesia, +63289489759,,,14.6322099,121.0793336,https://maps.google.com/?cid=0x0:0x550c987836306cc7,
mall,Pusat Perbelanjaan,Attitudes,"Ground Floor Store no. 120 Riverbanks Mall, A. Bonifacio Road, Marikina City, 1803 Metro Manila, Filipina","Marikina City, Metro Manila, Filipina",SULAWESI TENGGARA,,Indonesia, +63285700701,,,14.631024,121.082376,https://maps.google.com/?cid=0x0:0xa70ac3a699f04c20,
mall,Pusat Perbelanjaan,Riverbanks Development Corporation,"1800 Riverbanks Ave, Marikina City, 1800 Metro Manila, Filipina","Marikina City, Metro Manila, Filipina",SULAWESI TENGGARA,,Indonesia, +63285700701,,,14.6295217,121.0808567,https://maps.google.com/?cid=0x0:0xc30bc0d2aa52b49f,
mall,Pusat Perbelanjaan,Al-Inshirah,"2nd Floor Store no. 153 Riverbanks Mall, A. Bonifacio Road, Marikina City, 1803 Metro Manila, Filipina","Marikina City, Metro Manila, Filipina",SULAWESI TENGGARA,,Indonesia, +63285700701,,,14.631024,121.082376,https://maps.google.com/?cid=0x0:0xb9b437572e04438d,
mall,Pusat Hiburan,Timezone Riverbanks Mall,"Ivy Lane, Riverbanks Mall, 84 A. Bonifacio Ave, Marikina City, 1803 Metro Manila, Filipina","Marikina City, Metro Manila, Filipina",SULAWESI TENGGARA,,Indonesia, +63286555739,,,14.6303355,121.0814092,https://maps.google.com/?cid=0x0:0x74af38c9816b2170,
mall,Toserba,NOVO Department Store - Marikina,"J3JM+XGF, Marikina City, 1800 Metro Manila, Filipina","Marikina City, Metro Manila, Filipina",SULAWESI TENGGARA,,Indonesia,,,,14.6320339,121.0835179,https://maps.google.com/?cid=0x0:0xbc7219ab05cde1c4,
mall,mall,Riverbanks Mall Covered Parking Area Entrance,"J3JJ+CH5, Riverbanks Ave, Marikina City, 1800 Metro Manila, Filipina","Marikina City, Metro Manila, Filipina",SULAWESI TENGGARA,,Indonesia,,,,14.63108,121.0813388,https://maps.google.com/?cid=0x0:0x23f860b8b892eb98,
mall,Pusat Perbelanjaan,Mjk,"1800 Riverbanks Ave, Marikina City, 1800 Metro Manila, Filipina","Marikina City, Metro Manila, Filipina",SULAWESI TENGGARA,,Indonesia,,,,14.6307999,121.0818258,https://maps.google.com/?cid=0x0:0xac416b23dabfb6ac,
mall,Toko Pakaian,Vaierns Apparel Shop,"Unit FG-56, Riverbanks Mall, A. Bonifacio Avenue, Barangka, Marikina City, 1803 Metro Manila, Filipina","Marikina City, Metro Manila, Filipina",SULAWESI TENGGARA,,Indonesia, +63284753039,,,14.6314144,121.0820065,https://maps.google.com/?cid=0x0:0xdeb49017956b96c4,
mall,Mal outlet,Riverbanks Center ICT Building I,"J3JM+Q57, A. Bonifacio Ave, Marikina City, 1803 Metro Manila, Filipina","Marikina City, Metro Manila, Filipina",SULAWESI TENGGARA,,Indonesia, +63289489793,,,14.6319233,121.082935,https://maps.google.com/?cid=0x0:0xa63239504180480,
mall,Toko Sepatu,SOLE Depot - Riverbanks Mall,"Unit 3061 Building, C Riverbanks Mall, Riverbanks Ave, Marikina City, 1806, Filipina","Marikina City, Metro Manila, Filipina",SULAWESI TENGGARA,,Indonesia,,,,14.6301581,121.0816379,https://maps.google.com/?cid=0x0:0xc52e729dfd582061,
mall,Pusat Perbelanjaan,Shopping Center Management Corporation,"3rd Floor, SM Marikina, Marcos Highway, Marikina City, Metro Manila, Filipina","Marikina City, Metro Manila, Filipina",SULAWESI TENGGARA,,Indonesia,,,,14.6260651,121.0839781,https://maps.google.com/?cid=0x0:0xdc8db2b84c3dde2c,
mall,mall,Sulawesi Tenggara 93655,"Kabupaten Muna, Sulawesi Tenggara","Kabupaten Muna, Sulawesi Tenggara",SULAWESI TENGGARA,,Indonesia,,,,-4.7167048,122.593828,https://maps.google.com/?cid=0x0:0x2099dcc445aba1a5,
mall,Taman,Tugu Pesawat Kusambi,"6HWH+C28, Unnamed Road, Kusambi, Kec. Kusambi, Kabupaten Muna, Sulawesi Tenggara 93657","Unnamed Road, Kusambi, Kec. Kusambi, Kabupaten Muna",SULAWESI TENGGARA,93657.0,Indonesia,,,,-4.7539542,122.577586,https://maps.google.com/?cid=0x0:0x9118f97735a3e505,
mall,Bengkel Ganti Oli,BENKEL ISHAB JAYA,"7G6M+3QG, Lapokainse, Kec. Kusambi, Kabupaten Muna, Sulawesi Tenggara 93653","Lapokainse, Kec. Kusambi, Kabupaten Muna",SULAWESI TENGGARA,93653.0,Indonesia, 082349964985,,,-4.7398028,122.5344456,https://maps.google.com/?cid=0x0:0xa8d201f6f769efce,
mall,Pasar,Pasar Lakapodo,"6J4J+PC2, Wakadia, Kec. Watopute, Kabupaten Muna, Sulawesi Tenggara 93656","Wakadia, Kec. Watopute, Kabupaten Muna",SULAWESI TENGGARA,93656.0,Indonesia,,,,-4.7932312,122.6310164,https://maps.google.com/?cid=0x0:0x3862ea96ad30028f,
mall,Tempat acara,Pasar Central Guali,"7G3Q+8V4, Guali, Kec. Kusambi, Kabupaten Muna, Sulawesi Tenggara 93653","Guali, Kec. Kusambi, Kabupaten Muna",SULAWESI TENGGARA,93653.0,Indonesia,,,,-4.7467472,122.5397144,https://maps.google.com/?cid=0x0:0xfe3451a6f37f826c,
mall,Toko Pakaian,La Bone Sp. BangkaLi SuLtra,"5MHC+C2H, Bangkali, Kec. Watopute, Kabupaten Muna, Sulawesi Tenggara 93656","Bangkali, Kec. Watopute, Kabupaten Muna",SULAWESI TENGGARA,93656.0,Indonesia, 085399445724,,,-4.8214432,122.6700954,https://maps.google.com/?cid=0x0:0x93e83bb423e6ae2c,
mall,Toko Mainan,Asma Toys Guali,"6GXP+6PM, Guali, Kec. Kusambi, Kabupaten Muna, Sulawesi Tenggara 93653","Guali, Kec. Kusambi, Kabupaten Muna",SULAWESI TENGGARA,93653.0,Indonesia, 082113044342,,,-4.7519121,122.5367933,https://maps.google.com/?cid=0x0:0xa2cd2b6e39500784,
mall,Toko,Kios cici,"9MJW+7P8, Tampo, Kec. Napabalano, Kabupaten Muna, Sulawesi Tenggara 93654","Tampo, Kec. Napabalano, Kabupaten Muna",SULAWESI TENGGARA,93654.0,Indonesia,,,,-4.6193358,122.696841,https://maps.google.com/?cid=0x0:0x3705ddaf929012f,
mall,Kios,Kios RUDI CELL,"6GVR+5R4, Unnamed Road, Guali, Kec. Kusambi, Kabupaten Muna, Sulawesi Tenggara 93653","Unnamed Road, Guali, Kec. Kusambi, Kabupaten Muna",SULAWESI TENGGARA,93653.0,Indonesia, 082188976335,,,-4.7571237,122.5420873,https://maps.google.com/?cid=0x0:0xd266d61c7c73a813,
mall,Pusat Perbelanjaan,Lippo Plaza Kendari,"Jl. Jenderal M.t. Haryono No.61 - 63, Bende, Kec. Kadia, Kota Kendari, Sulawesi Tenggara 93117","Bende, Kec. Kadia, Kota Kendari",SULAWESI TENGGARA,93117.0,Indonesia, 04013196500,,,-3.9921675,122.5122065,https://maps.google.com/?cid=0x0:0x3216add04ddfc0d3,
mall,Minimarket,kios owen,"9PF3+H5M, Napabalano, Kec. Napabalano, Kabupaten Muna, Sulawesi Tenggara 93654","Napabalano, Kec. Napabalano, Kabupaten Muna",SULAWESI TENGGARA,93654.0,Indonesia, 085240421031,,,-4.6260476,122.7029313,https://maps.google.com/?cid=0x0:0x4fe2845fa25d8f57,
mall,Toko,Usaha Kaca Bilal,"5MM5+VP9, Desa dana Timur, Lakauduma, Kec. Watopute, Kabupaten Muna, Sulawesi Tenggara 93656","Desa dana Timur, Lakauduma, Kec. Watopute, Kabupaten Muna",SULAWESI TENGGARA,93656.0,Indonesia,,,,-4.8153449,122.6593743,https://maps.google.com/?cid=0x0:0x1da346956cc79191,
mall,Minimarket,Toko Esya 1,"9PH3+629, Jl. Baso Indah, Tampo, Kec. Napabalano, Kabupaten Muna, Sulawesi Tenggara","Kabupaten Muna, Sulawesi Tenggara",SULAWESI TENGGARA,,Indonesia,,,,-4.6219521,122.7025961,https://maps.google.com/?cid=0x0:0x4d07fd348fe168e6,
mall,mall,Sulawesi Tenggara 93652,"Kabupaten Muna, Sulawesi Tenggara","Kabupaten Muna, Sulawesi Tenggara",SULAWESI TENGGARA,,Indonesia,,,,-4.8874972,122.5598994,https://maps.google.com/?cid=0x0:0x34e12d7c7d7a4631,
mall,Pasar,Pasar Tradisional Lambubhalano,"4HF3+C8H, Wamelai(Lambubalano), Kec. Lawa, Kabupaten Muna, Sulawesi Tenggara 93652","Wamelai(Lambubalano), Kec. Lawa, Kabupaten Muna",SULAWESI TENGGARA,93652.0,Indonesia,,,,-4.8764268,122.553356,https://maps.google.com/?cid=0x0:0xfd596511b6d8e9c8,
mall,Balai masyarakat,Mall Laino,"5PJM+XFP, Unnamed Road, Kabupaten Muna, Sulawesi Tenggara 93614","Unnamed Road, Kabupaten Muna",SULAWESI TENGGARA,93614.0,Indonesia,,,,-4.8175492,122.7336999,https://maps.google.com/?cid=0x0:0x86f0fbac6694e081,
mall,Kios,Pasar Tongkoea,"3GMJ+M32, Lailangga, Kec. Wadaga, Kabupaten Muna, Sulawesi Tenggara 93652","Lailangga, Kec. Wadaga, Kabupaten Muna",SULAWESI TENGGARA,93652.0,Indonesia,,,,-4.9158503,122.5301349,https://maps.google.com/?cid=0x0:0xf462b98def423f56,
mall,Pasar,Pasar Lakapodo,"6J4J+PC2, Wakadia, Kec. Watopute, Kabupaten Muna, Sulawesi Tenggara 93656","Wakadia, Kec. Watopute, Kabupaten Muna",SULAWESI TENGGARA,93656.0,Indonesia,,,,-4.7932312,122.6310164,https://maps.google.com/?cid=0x0:0x3862ea96ad30028f,
mall,Pasar,Pasar Desa,"4P66+PFJ, Waara, Kec. Lohia, Kabupaten Muna, Sulawesi Tenggara 93659","Waara, Kec. Lohia, Kabupaten Muna",SULAWESI TENGGARA,93659.0,Indonesia,,,,-4.8881574,122.7111263,https://maps.google.com/?cid=0x0:0x892ea9909cb36207,
mall,Pasar,Pasar Sore Simpang Tiga Kampani,"3GG5+4XP, Lindo, Kec. Wadaga, Kabupaten Muna, Sulawesi Tenggara 93652","Lindo, Kec. Wadaga, Kabupaten Muna",SULAWESI TENGGARA,93652.0,Indonesia, 081242060093,,,-4.9246653,122.5099572,https://maps.google.com/?cid=0x0:0xfd4ffa0ca484d35d,
mall,Pusat Perbelanjaan,MGM Raha,"5PGF+C47, Jl. Gatot Subroto, Wamponiki, Kec. Katobu, Kabupaten Muna, Sulawesi Tenggara 93614","Jl. Gatot Subroto, Wamponiki, Kec. Katobu, Kabupaten Muna",SULAWESI TENGGARA,93614.0,Indonesia,,,,-4.8239647,122.7227958,https://maps.google.com/?cid=0x0:0x8cf2917e2f109298,
mall,Jus,Pop Ice AR,"4H72+H47, Wamelai(Lambubalano), Kec. Lawa, Kabupaten Muna, Sulawesi Tenggara 93652","Wamelai(Lambubalano), Kec. Lawa, Kabupaten Muna",SULAWESI TENGGARA,93652.0,Indonesia, 085340011776,,,-4.886088,122.5502838,https://maps.google.com/?cid=0x0:0xa61d287f73545487,
mall,Toko Swalayan,UD. DUA BINTANG,"Jl. FLAMBOYAN No.Ds, Wakobulu Agung, Kec. Kabangka, Kabupaten Muna, Sulawesi Tenggara 93664","Wakobulu Agung, Kec. Kabangka, Kabupaten Muna",SULAWESI TENGGARA,93664.0,Indonesia, 082343076265,,,-4.9559394,122.4191888,https://maps.google.com/?cid=0x0:0x1164b18b8712e9ce,
mall,Pertanian,Pemancar Lahorio,"2FRX+VMC, Lahorio, Kec. Kontu Kowuna, Kabupaten Muna, Sulawesi Tenggara 93661","Lahorio, Kec. Kontu Kowuna, Kabupaten Muna",SULAWESI TENGGARA,93661.0,Indonesia, 085342858809,,,-4.9578028,122.4991419,https://maps.google.com/?cid=0x0:0x63a9774a11bc29c0,
mall,Toko Pakaian,La Bone Sp. BangkaLi SuLtra,"5MHC+C2H, Bangkali, Kec. Watopute, Kabupaten Muna, Sulawesi Tenggara 93656","Bangkali, Kec. Watopute, Kabupaten Muna",SULAWESI TENGGARA,93656.0,Indonesia, 085399445724,,,-4.8214432,122.6700954,https://maps.google.com/?cid=0x0:0x93e83bb423e6ae2c,
mall,Bengkel Sepeda Motor,Bengkel Shamad Motor. La Puli,"4H94+FHQ, Lalemba, Kec. Lawa, Kabupaten Muna, Sulawesi Tenggara 93652","Lalemba, Kec. Lawa, Kabupaten Muna",SULAWESI TENGGARA,93652.0,Indonesia, 082190551234,,,-4.8812964,122.5564711,https://maps.google.com/?cid=0x0:0xab7d485b145cb99c,
mall,Tempat acara,Pasar Central Guali,"7G3Q+8V4, Guali, Kec. Kusambi, Kabupaten Muna, Sulawesi Tenggara 93653","Guali, Kec. Kusambi, Kabupaten Muna",SULAWESI TENGGARA,93653.0,Indonesia,,,,-4.7467472,122.5397144,https://maps.google.com/?cid=0x0:0xfe3451a6f37f826c,
mall,Kantor Perusahaan,Desa bente kecamatan kabawo kabuputen muna sulawesi tenggara,"2F6M+37X, Bente, Kec. Kabawo, Kabupaten Muna, Sulawesi Tenggara 93661","Bente, Kec. Kabawo, Kabupaten Muna",SULAWESI TENGGARA,93661.0,Indonesia,,,,-4.990189,122.483564,https://maps.google.com/?cid=0x0:0xfe667aefd9bc6452,
mall,Toko,Pasar Raya Kontunaga,"4MM2+MH4, Kontunaga, Kec. Kontunaga, Kabupaten Muna, Sulawesi Tenggara 93658","Kontunaga, Kec. Kontunaga, Kabupaten Muna",SULAWESI TENGGARA,93658.0,Indonesia,,,,-4.8658728,122.6514549,https://maps.google.com/?cid=0x0:0x341e9408d32235a5,
mall,Pusat Perbelanjaan,Kios Ojonk,"3GMH+8W4, Jl. Poros, Lailangga, Kec. Wadaga, Kabupaten Muna, Sulawesi Tenggara 93652","Jl. Poros, Lailangga, Kec. Wadaga, Kabupaten Muna",SULAWESI TENGGARA,93652.0,Indonesia,,,,-4.9167326,122.5298314,https://maps.google.com/?cid=0x0:0x1f8fc6d7f67985bb,
mall,Pasar,pasar desa LABUNTI,"6PVG+33M, desa, Labunti, Kec. Lasalepa, Kabupaten Muna, Sulawesi Tenggara 93654","desa, Labunti, Kec. Lasalepa, Kabupaten Muna",SULAWESI TENGGARA,93654.0,Indonesia,,,,-4.7572898,122.7251776,https://maps.google.com/?cid=0x0:0x4764618074911c5c,
mall,Pasar,UD.HASZAN ANEKA LASEHAO,"2G2V+257, Laimpi, Kec. Kabawo, Kabupaten Muna, Sulawesi Tenggara","Kabupaten Muna, Sulawesi Tenggara",SULAWESI TENGGARA,,Indonesia, 085241985442,,,-4.9999605,122.5429309,https://maps.google.com/?cid=0x0:0x2cbb4beafaa24788,
mall,Toko,Kios Nurul Lakalamba,"5FFC+6RJ, Lakalamba, Kec. Sawerigadi, Kabupaten Muna, Sulawesi Tenggara 93653","Lakalamba, Kec. Sawerigadi, Kabupaten Muna",SULAWESI TENGGARA,93653.0,Indonesia,,,,-4.8269045,122.4720265,https://maps.google.com/?cid=0x0:0x1617dbb62899413b,
mall,mall,"Kel.Wamelai, Kec.Lawa, Kab.Muna Barat","4H94+52R, Unnamed Road, Lalemba, Kec. Lawa, Kabupaten Muna, Sulawesi Tenggara 93652","Unnamed Road, Lalemba, Kec. Lawa, Kabupaten Muna",SULAWESI TENGGARA,93652.0,Indonesia,,,,-4.882023,122.555011,https://maps.google.com/?cid=0x0:0x5a068b1638383e71,
mall,mall,Kios Ningsih,"4G6X+F5X, Unnamed Road, Latompe, Lawa, Muna Regency, South East Sulawesi 93652","Unnamed Road, Latompe, Lawa, Muna Regency",SULAWESI TENGGARA,93652.0,Indonesia,,,,-4.8887584,122.5479915,https://maps.google.com/?cid=0x0:0x4be3d9b7555a5f42,
mall,Pusat Perbelanjaan,Mall Senayan City,"Jl. Asia Afrika No.Lot 19, Gelora, Kecamatan Tanah Abang, Kota Jakarta Pusat, Daerah Khusus Ibukota Jakarta 10270","Gelora, Kecamatan Tanah Abang, Kota Jakarta Pusat",SULAWESI TENGGARA,10270.0,Indonesia, 02172781000,,,-6.2271953,106.7970117,https://maps.google.com/?cid=0x0:0x300c043104acc004,
mall,Pusat Perbelanjaan,Mall Plaza Senayan,"Jl. Asia Afrika No.8, RT.1/RW.3, Gelora, Kecamatan Tanah Abang, Kota Jakarta Pusat, Daerah Khusus Ibukota Jakarta 10270","RT.1/RW.3, Gelora, Kecamatan Tanah Abang, Kota Jakarta Pusat",SULAWESI TENGGARA,10270.0,Indonesia, 0215725555,,,-6.2255918,106.7993027,https://maps.google.com/?cid=0x0:0x788e3a1eef75ac94,
mall,Taman,Senayan Park,"Jl. Gerbang Pemuda No.3, RT.1/RW.3, Gelora, Kecamatan Tanah Abang, Kota Jakarta Pusat, Daerah Khusus Ibukota Jakarta 10270","RT.1/RW.3, Gelora, Kecamatan Tanah Abang, Kota Jakarta Pusat",SULAWESI TENGGARA,10270.0,Indonesia, 0212512030,,,-6.2128077,106.8036757,https://maps.google.com/?cid=0x0:0xc0ea4d9a9d1b2936,
mall,Pusat Perbelanjaan,Thamrin City,"Jl. Thamrin Boulevard, Kb. Melati, Kecamatan Tanah Abang, Kota Jakarta Pusat, Daerah Khusus Ibukota Jakarta 10230","Kb. Melati, Kecamatan Tanah Abang, Kota Jakarta Pusat",SULAWESI TENGGARA,10230.0,Indonesia, 02131990988,,,-6.1939374,106.8161005,https://maps.google.com/?cid=0x0:0x1b60abd2e0b3d6d1,
mall,Pizza,Pizza Marzano,"Senayan City Lower Ground, Jl. Asia Afrika Lot 19, Daerah Khusus Ibukota Jakarta 12210",Jl. Asia Afrika Lot 19,SULAWESI TENGGARA,12210.0,Indonesia, 02172781065,,,-6.2268064,106.7970378,https://maps.google.com/?cid=0x0:0xb570f44544859923,
mall,Masakan Jepang Autentik,Sushi Hiro Senayan City,"Senayan City, Mall, Jl. Asia Afrika LT 5, RT.1/RW.3, Gelora, Kecamatan Tanah Abang, Kota Jakarta Pusat, Daerah Khusus Ibukota Jakarta 10270","Mall, Jl. Asia Afrika LT 5, RT.1/RW.3, Gelora, Kecamatan Tanah Abang, Kota Jakarta Pusat",SULAWESI TENGGARA,10270.0,Indonesia, 02172782250,,,-6.2269324,106.7969276,https://maps.google.com/?cid=0x0:0x4b8f42e9ec1e6d3c,
mall,Bioskop,Cinema XXI. Senayan City,"Jl. Asia Afrika No.3, RT.1/RW.3, Gelora, Kecamatan Tanah Abang, Kota Jakarta Pusat, Daerah Khusus Ibukota Jakarta 10270","RT.1/RW.3, Gelora, Kecamatan Tanah Abang, Kota Jakarta Pusat",SULAWESI TENGGARA,10270.0,Indonesia, 02172781221,,,-6.2268822,106.7976424,https://maps.google.com/?cid=0x0:0x9cb47d55493750ee,
mall,mall,Kec. Maginti,"Kabupaten Muna, Sulawesi Tenggara","Kabupaten Muna, Sulawesi Tenggara",SULAWESI TENGGARA,,Indonesia,,,,-4.8523016,122.3273334,https://maps.google.com/?cid=0x0:0x827d1cf3623f4296,
mall,Pusat Perbelanjaan,GRAND CENTRAL MUBAR,"49XC+32, Abadi Jaya, Kec. Maginti, Kabupaten Muna, Sulawesi Tenggara","Kabupaten Muna, Sulawesi Tenggara",SULAWESI TENGGARA,,Indonesia,,,,-4.8523693,122.3700796,https://maps.google.com/?cid=0x0:0x48ba23dff5d55b80,
mall,Pasar,Pasar Sentral Mekar Jaya,"59GX+VWX, Barat Jl. Poros, Mekar Jaya, Tiworo Tengah, Kabupaten Muna, Sulawesi Tenggara 93648","Barat Jl. Poros, Mekar Jaya, Tiworo Tengah, Kabupaten Muna",SULAWESI TENGGARA,93648.0,Indonesia,,,,-4.8227617,122.3998598,https://maps.google.com/?cid=0x0:0x9ff6fc60e482d348,
mall,Toko bahan makanan,Toko udang barakkah,"39Q5+H3, Kembar Maminasa, Kec. Maginti, Kabupaten Muna, Sulawesi Tenggara","Kabupaten Muna, Sulawesi Tenggara",SULAWESI TENGGARA,,Indonesia,,,,-4.9110713,122.3576138,https://maps.google.com/?cid=0x0:0xe1a5d16e9c1d7261,
mall,Komplek perumahan,Pasar Rakyat Tiworo Desa Kasimpa Jaya,"498J+HGC, Jln poros, Kasimpa Jaya, Tiworo Sel., Kabupaten Muna, Sulawesi Tenggara 93664","Jln poros, Kasimpa Jaya, Tiworo Sel., Kabupaten Muna",SULAWESI TENGGARA,93664.0,Indonesia,,,,-4.8815414,122.3848766,https://maps.google.com/?cid=0x0:0xb75b1784f95770ff,
mall,Toko Alat Tulis Kantor,TOKO ATK ADI MUKTI DESA KATANGANA,"4CW3+99G, Parura Jaya, Tiworo Sel., Kabupaten Muna, Sulawesi Tenggara","Kabupaten Muna, Sulawesi Tenggara",SULAWESI TENGGARA,,Indonesia, 082254945232,,,-4.8540691,122.4034487,https://maps.google.com/?cid=0x0:0x6ca2de47050b53a9,
mall,Toko Swalayan,UD. DUA BINTANG,"Jl. FLAMBOYAN No.Ds, Wakobulu Agung, Kec. Kabangka, Kabupaten Muna, Sulawesi Tenggara 93664","Wakobulu Agung, Kec. Kabangka, Kabupaten Muna",SULAWESI TENGGARA,93664.0,Indonesia, 082343076265,,,-4.9559394,122.4191888,https://maps.google.com/?cid=0x0:0x1164b18b8712e9ce,
mall,Pusat Perbelanjaan,Nanda Cell,"5CH2+R4Q, Jl. Poros, Mekar Jaya, Tiworo Tengah, Kabupaten Muna, Sulawesi Tenggara 93653","Jl. Poros, Mekar Jaya, Tiworo Tengah, Kabupaten Muna",SULAWESI TENGGARA,93653.0,Indonesia, 085299373336,,,-4.8204079,122.4003504,https://maps.google.com/?cid=0x0:0xfd0b985c563dd967,
mall,Pusat Perbelanjaan,Mall Mandonga,"JL. Abdullah Silondae, Korumba, Kec. Mandonga, Kota Kendari, Sulawesi Tenggara 93111","Korumba, Kec. Mandonga, Kota Kendari",SULAWESI TENGGARA,93111.0,Indonesia,,,,-3.9642856,122.5189989,https://maps.google.com/?cid=0x0:0x96320466b7420e2b,
mall,Sekolah Dasar,SDN 2 MAGINTI,"48XG+HVM, Jl.La Tohue, Pajala, Kec. Maginti, Kabupaten Muna, Sulawesi Tenggara","Kabupaten Muna, Sulawesi Tenggara",SULAWESI TENGGARA,,Indonesia,,,,-4.8510297,122.3271766,https://maps.google.com/?cid=0x0:0x68ed9c0516be1186,
mall,mall,Pulau Maginti,"Maginti, Kec. Maginti, Kabupaten Muna, Sulawesi Tenggara","Kabupaten Muna, Sulawesi Tenggara",SULAWESI TENGGARA,,Indonesia,,,,-4.8372222,122.1919444,https://maps.google.com/?cid=0x0:0xb50bb25473617676,
mall,mall,Sulawesi Tenggara 93655,"Kabupaten Muna, Sulawesi Tenggara","Kabupaten Muna, Sulawesi Tenggara",SULAWESI TENGGARA,,Indonesia,,,,-4.7167048,122.593828,https://maps.google.com/?cid=0x0:0x2099dcc445aba1a5,
mall,Kantor Perusahaan,Unggas jeep,"7GJX+483, Unnamed Road, Sidamangura, Kec. Kusambi, Kabupaten Muna, Sulawesi Tenggara 93655","Unnamed Road, Sidamangura, Kec. Kusambi, Kabupaten Muna",SULAWESI TENGGARA,93655.0,Indonesia, 082259957588,,,-4.7197332,122.5483006,https://maps.google.com/?cid=0x0:0x18abdad4bc1b6d3,
mall,Bengkel Ganti Oli,BENKEL ISHAB JAYA,"7G6M+3QG, Lapokainse, Kec. Kusambi, Kabupaten Muna, Sulawesi Tenggara 93653","Lapokainse, Kec. Kusambi, Kabupaten Muna",SULAWESI TENGGARA,93653.0,Indonesia, 082349964985,,,-4.7398028,122.5344456,https://maps.google.com/?cid=0x0:0xa8d201f6f769efce,
mall,Toko Pakaian,La Bone Sp. BangkaLi SuLtra,"5MHC+C2H, Bangkali, Kec. Watopute, Kabupaten Muna, Sulawesi Tenggara 93656","Bangkali, Kec. Watopute, Kabupaten Muna",SULAWESI TENGGARA,93656.0,Indonesia, 085399445724,,,-4.8214432,122.6700954,https://maps.google.com/?cid=0x0:0x93e83bb423e6ae2c,
mall,Tempat acara,Pasar Central Guali,"7G3Q+8V4, Guali, Kec. Kusambi, Kabupaten Muna, Sulawesi Tenggara 93653","Guali, Kec. Kusambi, Kabupaten Muna",SULAWESI TENGGARA,93653.0,Indonesia,,,,-4.7467472,122.5397144,https://maps.google.com/?cid=0x0:0xfe3451a6f37f826c,
mall,Minimarket,kios owen,"9PF3+H5M, Napabalano, Kec. Napabalano, Kabupaten Muna, Sulawesi Tenggara 93654","Napabalano, Kec. Napabalano, Kabupaten Muna",SULAWESI TENGGARA,93654.0,Indonesia, 085240421031,,,-4.6260476,122.7029313,https://maps.google.com/?cid=0x0:0x4fe2845fa25d8f57,
mall,Toko,Kios cici,"9MJW+7P8, Tampo, Kec. Napabalano, Kabupaten Muna, Sulawesi Tenggara 93654","Tampo, Kec. Napabalano, Kabupaten Muna",SULAWESI TENGGARA,93654.0,Indonesia,,,,-4.6193358,122.696841,https://maps.google.com/?cid=0x0:0x3705ddaf929012f,
mall,Pusat Perbelanjaan,Mall Mandonga,"JL. Abdullah Silondae, Korumba, Kec. Mandonga, Kota Kendari, Sulawesi Tenggara 93111","Korumba, Kec. Mandonga, Kota Kendari",SULAWESI TENGGARA,93111.0,Indonesia,,,,-3.9642856,122.5189989,https://maps.google.com/?cid=0x0:0x96320466b7420e2b,
mall,Minimarket,Toko Esya 1,"9PH3+629, Jl. Baso Indah, Tampo, Kec. Napabalano, Kabupaten Muna, Sulawesi Tenggara","Kabupaten Muna, Sulawesi Tenggara",SULAWESI TENGGARA,,Indonesia,,,,-4.6219521,122.7025961,https://maps.google.com/?cid=0x0:0x4d07fd348fe168e6,
mall,Toko Mainan,Asma Toys Guali,"6GXP+6PM, Guali, Kec. Kusambi, Kabupaten Muna, Sulawesi Tenggara 93653","Guali, Kec. Kusambi, Kabupaten Muna",SULAWESI TENGGARA,93653.0,Indonesia, 082113044342,,,-4.7519121,122.5367933,https://maps.google.com/?cid=0x0:0xa2cd2b6e39500784,
mall,Kios,Kios RUDI CELL,"6GVR+5R4, Unnamed Road, Guali, Kec. Kusambi, Kabupaten Muna, Sulawesi Tenggara 93653","Unnamed Road, Guali, Kec. Kusambi, Kabupaten Muna",SULAWESI TENGGARA,93653.0,Indonesia, 082188976335,,,-4.7571237,122.5420873,https://maps.google.com/?cid=0x0:0xd266d61c7c73a813,
mall,Pusat Perbelanjaan,Lippo Plaza Kendari,"Jl. Jenderal M.t. Haryono No.61 - 63, Bende, Kec. Kadia, Kota Kendari, Sulawesi Tenggara 93117","Bende, Kec. Kadia, Kota Kendari",SULAWESI TENGGARA,93117.0,Indonesia, 04013196500,,,-3.9921675,122.5122065,https://maps.google.com/?cid=0x0:0x3216add04ddfc0d3,
mall,Toko,Usaha Kaca Bilal,"5MM5+VP9, Desa dana Timur, Lakauduma, Kec. Watopute, Kabupaten Muna, Sulawesi Tenggara 93656","Desa dana Timur, Lakauduma, Kec. Watopute, Kabupaten Muna",SULAWESI TENGGARA,93656.0,Indonesia,,,,-4.8153449,122.6593743,https://maps.google.com/?cid=0x0:0x1da346956cc79191,
mall,mall,Sulawesi Tenggara 93657,"Kabupaten Muna, Sulawesi Tenggara","Kabupaten Muna, Sulawesi Tenggara",SULAWESI TENGGARA,,Indonesia,,,,-4.8269737,122.5259596,https://maps.google.com/?cid=0x0:0x6227f17791af231c,
mall,mall,Sawerigading,"Kec. Ujung Pandang, Kota Makassar, Sulawesi Selatan","Kota Makassar, Sulawesi Selatan",SULAWESI TENGGARA,,Indonesia,,,,-5.1405135,119.4146041,https://maps.google.com/?cid=0x0:0xd660dde0f3eb73d9,
mall,mall,Kec. Sawerigadi,"Kabupaten Muna, Sulawesi Tenggara","Kabupaten Muna, Sulawesi Tenggara",SULAWESI TENGGARA,,Indonesia,,,,-4.7903102,122.491523,https://maps.google.com/?cid=0x0:0xc0b7ac172b281750,
mall,mall,Kec. Tiworo Kepulauan,"Kabupaten Muna, Sulawesi Tenggara","Kabupaten Muna, Sulawesi Tenggara",SULAWESI TENGGARA,,Indonesia,,,,-4.7783688,122.4353995,https://maps.google.com/?cid=0x0:0xb9b9310dc3cd9cb5,
mall,,CAHAYA,"Jl. Poros No.2, Mekar Jaya, Tiworo Tengah, Kabupaten Muna, Sulawesi Tenggara 93648","Mekar Jaya, Tiworo Tengah, Kabupaten Muna",SULAWESI TENGGARA,93648.0,Indonesia, 085340278027,,,-4.8234929,122.3993011,https://maps.google.com/?cid=0x0:0xc8c3e03f54a9bd7e,
mall,Pasar,Pasar Sentral Mekar Jaya,"59GX+VWX, Barat Jl. Poros, Mekar Jaya, Tiworo Tengah, Kabupaten Muna, Sulawesi Tenggara 93648","Barat Jl. Poros, Mekar Jaya, Tiworo Tengah, Kabupaten Muna",SULAWESI TENGGARA,93648.0,Indonesia,,,,-4.8227617,122.3998598,https://maps.google.com/?cid=0x0:0x9ff6fc60e482d348,
mall,Toko Mebel,Mebel Suranaya,"5CRW+8G4, Wandoke, Kec. Tiworo Kepulauan, Kabupaten Muna, Sulawesi Tenggara 93653","Wandoke, Kec. Tiworo Kepulauan, Kabupaten Muna",SULAWESI TENGGARA,93653.0,Indonesia, 081220412959,,,-4.8092489,122.446316,https://maps.google.com/?cid=0x0:0xa6b83a693d4e216c,
mall,Toko,UD.PUTRA TANI,"5CR4+552, Jl. Poros, Mekar Jaya, Tiworo Tengah, Kabupaten Muna, Sulawesi Tenggara 93653","Jl. Poros, Mekar Jaya, Tiworo Tengah, Kabupaten Muna",SULAWESI TENGGARA,93653.0,Indonesia, 085342236932,,,-4.8096094,122.4053944,https://maps.google.com/?cid=0x0:0x3ec532a2811800ad,
mall,Pusat Perbelanjaan,Nanda Cell,"5CH2+R4Q, Jl. Poros, Mekar Jaya, Tiworo Tengah, Kabupaten Muna, Sulawesi Tenggara 93653","Jl. Poros, Mekar Jaya, Tiworo Tengah, Kabupaten Muna",SULAWESI TENGGARA,93653.0,Indonesia, 085299373336,,,-4.8204079,122.4003504,https://maps.google.com/?cid=0x0:0xfd0b985c563dd967,
mall,Toserba,UD Motor Tani,"Wapae Jaya, Tiworo Tengah, Kabupaten Muna, Sulawesi Tenggara 93653","Tiworo Tengah, Kabupaten Muna",SULAWESI TENGGARA,93653.0,Indonesia, 085241827691,,,-4.8104438,122.404801,https://maps.google.com/?cid=0x0:0x5eece1f02005a41a,
mall,Komplek perumahan,Pasar Rakyat Tiworo Desa Kasimpa Jaya,"498J+HGC, Jln poros, Kasimpa Jaya, Tiworo Sel., Kabupaten Muna, Sulawesi Tenggara 93664","Jln poros, Kasimpa Jaya, Tiworo Sel., Kabupaten Muna",SULAWESI TENGGARA,93664.0,Indonesia,,,,-4.8815414,122.3848766,https://maps.google.com/?cid=0x0:0xb75b1784f95770ff,
mall,Pusat Perbelanjaan,GRAND CENTRAL MUBAR,"49XC+32, Abadi Jaya, Kec. Maginti, Kabupaten Muna, Sulawesi Tenggara","Kabupaten Muna, Sulawesi Tenggara",SULAWESI TENGGARA,,Indonesia,,,,-4.8523693,122.3700796,https://maps.google.com/?cid=0x0:0x48ba23dff5d55b80,
mall,Pusat Perbelanjaan,TPI TEMPAT PELELANGAN IKAN (DERMAGA),"793C+28X, Tondasi, Tiworo Utara, Kabupaten Muna, Sulawesi Tenggara","Kabupaten Muna, Sulawesi Tenggara",SULAWESI TENGGARA,,Indonesia,,,,-4.747386,122.37085,https://maps.google.com/?cid=0x0:0xb3338960cd732780,
mall,Toko,Kios Nurul Lakalamba,"5FFC+6RJ, Lakalamba, Kec. Sawerigadi, Kabupaten Muna, Sulawesi Tenggara 93653","Lakalamba, Kec. Sawerigadi, Kabupaten Muna",SULAWESI TENGGARA,93653.0,Indonesia,,,,-4.8269045,122.4720265,https://maps.google.com/?cid=0x0:0x1617dbb62899413b,
mall,mall,Tiworo Sel.,"Kabupaten Muna, Sulawesi Tenggara","Kabupaten Muna, Sulawesi Tenggara",SULAWESI TENGGARA,,Indonesia,,,,-4.8877531,122.3900901,https://maps.google.com/?cid=0x0:0xb8fa848ebeff23ff,
mall,,CAHAYA,"Jl. Poros No.2, Mekar Jaya, Tiworo Tengah, Kabupaten Muna, Sulawesi Tenggara 93648","Mekar Jaya, Tiworo Tengah, Kabupaten Muna",SULAWESI TENGGARA,93648.0,Indonesia, 085340278027,,,-4.8234929,122.3993011,https://maps.google.com/?cid=0x0:0xc8c3e03f54a9bd7e,
mall,Komplek perumahan,Pasar Rakyat Tiworo Desa Kasimpa Jaya,"498J+HGC, Jln poros, Kasimpa Jaya, Tiworo Sel., Kabupaten Muna, Sulawesi Tenggara 93664","Jln poros, Kasimpa Jaya, Tiworo Sel., Kabupaten Muna",SULAWESI TENGGARA,93664.0,Indonesia,,,,-4.8815414,122.3848766,https://maps.google.com/?cid=0x0:0xb75b1784f95770ff,
mall,Toko Alat Tulis Kantor,TOKO ATK ADI MUKTI DESA KATANGANA,"4CW3+99G, Parura Jaya, Tiworo Sel., Kabupaten Muna, Sulawesi Tenggara","Kabupaten Muna, Sulawesi Tenggara",SULAWESI TENGGARA,,Indonesia, 082254945232,,,-4.8540691,122.4034487,https://maps.google.com/?cid=0x0:0x6ca2de47050b53a9,
mall,Kantor Pos,Posisi Pengiriman Paket Pos Kilat,"4CV4+W8H, Parura Jaya, Tiworo Sel., Kabupaten Muna, Sulawesi Tenggara","Kabupaten Muna, Sulawesi Tenggara",SULAWESI TENGGARA,,Indonesia,,,,-4.8551778,122.4058623,https://maps.google.com/?cid=0x0:0x2308d85e1feb4cc9,
mall,Pusat Perbelanjaan,Nanda Cell,"5CH2+R4Q, Jl. Poros, Mekar Jaya, Tiworo Tengah, Kabupaten Muna, Sulawesi Tenggara 93653","Jl. Poros, Mekar Jaya, Tiworo Tengah, Kabupaten Muna",SULAWESI TENGGARA,93653.0,Indonesia, 085299373336,,,-4.8204079,122.4003504,https://maps.google.com/?cid=0x0:0xfd0b985c563dd967,
mall,mall,kios Devy,"498J+JHV, Jln poros desa, Kasimpa Jaya, Tiworo Sel., Kabupaten Muna, Sulawesi Tenggara 93664","Jln poros desa, Kasimpa Jaya, Tiworo Sel., Kabupaten Muna",SULAWESI TENGGARA,93664.0,Indonesia,,,,-4.8833919,122.3814118,https://maps.google.com/?cid=0x0:0xd5ffb2f9febc19f0,
mall,Minimarket,Indomaret Tiworo Selatan Muna Barat,"49CP+JQX, jalan poros, Kasimpa Jaya, Tiworo Sel., Kabupaten Muna, Sulawesi Tenggara 93664","jalan poros, Kasimpa Jaya, Tiworo Sel., Kabupaten Muna",SULAWESI TENGGARA,93664.0,Indonesia,,,,-4.8783338,122.3874952,https://maps.google.com/?cid=0x0:0x9496ad48e3d73caa,
mall,Pusat Perbelanjaan,GRAND CENTRAL MUBAR,"49XC+32, Abadi Jaya, Kec. Maginti, Kabupaten Muna, Sulawesi Tenggara","Kabupaten Muna, Sulawesi Tenggara",SULAWESI TENGGARA,,Indonesia,,,,-4.8523693,122.3700796,https://maps.google.com/?cid=0x0:0x48ba23dff5d55b80,
mall,Pusat Kesehatan Masyarakat,PUSKESMAS TIWORO SELATAN,"499P+F53, Jln labu 1 desa, Kasimpa Jaya, Tiworo Sel., Kabupaten Muna, Sulawesi Tenggara 93664","Jln labu 1 desa, Kasimpa Jaya, Tiworo Sel., Kabupaten Muna",SULAWESI TENGGARA,93664.0,Indonesia,,,,-4.8813505,122.3854326,https://maps.google.com/?cid=0x0:0x1a84839105caf8db,
mall,Toko Mebel,Mebel Suranaya,"5CRW+8G4, Wandoke, Kec. Tiworo Kepulauan, Kabupaten Muna, Sulawesi Tenggara 93653","Wandoke, Kec. Tiworo Kepulauan, Kabupaten Muna",SULAWESI TENGGARA,93653.0,Indonesia, 081220412959,,,-4.8092489,122.446316,https://maps.google.com/?cid=0x0:0xa6b83a693d4e216c,
mall,Toko,UD.PUTRA TANI,"5CR4+552, Jl. Poros, Mekar Jaya, Tiworo Tengah, Kabupaten Muna, Sulawesi Tenggara 93653","Jl. Poros, Mekar Jaya, Tiworo Tengah, Kabupaten Muna",SULAWESI TENGGARA,93653.0,Indonesia, 085342236932,,,-4.8096094,122.4053944,https://maps.google.com/?cid=0x0:0x3ec532a2811800ad,
mall,Sekolah Dasar,SDN 4 TIWORO SELATAN,"4C23+G5V, Sangia Tiworo, Tiworo Sel., Kabupaten Muna, Sulawesi Tenggara 93664","Sangia Tiworo, Tiworo Sel., Kabupaten Muna",SULAWESI TENGGARA,93664.0,Indonesia,,,,-4.8986383,122.4029135,https://maps.google.com/?cid=0x0:0xc1382629b1f2fc5a,
mall,Toserba,UD Motor Tani,"Wapae Jaya, Tiworo Tengah, Kabupaten Muna, Sulawesi Tenggara 93653","Tiworo Tengah, Kabupaten Muna",SULAWESI TENGGARA,93653.0,Indonesia, 085241827691,,,-4.8104438,122.404801,https://maps.google.com/?cid=0x0:0x5eece1f02005a41a,
mall,Sekolah,SDN 5 TIWORO SELATAN,"498M+HQ7, Kasimpa Jaya, Tiworo Sel., Kabupaten Muna, Sulawesi Tenggara","Kabupaten Muna, Sulawesi Tenggara",SULAWESI TENGGARA,,Indonesia,,,,-4.8835949,122.384425,https://maps.google.com/?cid=0x0:0x3d06dd2d8bab95e2,
mall,Toko bahan makanan,Toko udang barakkah,"39Q5+H3, Kembar Maminasa, Kec. Maginti, Kabupaten Muna, Sulawesi Tenggara","Kabupaten Muna, Sulawesi Tenggara",SULAWESI TENGGARA,,Indonesia,,,,-4.9110713,122.3576138,https://maps.google.com/?cid=0x0:0xe1a5d16e9c1d7261,
mall,mall,Tiworo Tengah,"Kabupaten Muna, Sulawesi Tenggara","Kabupaten Muna, Sulawesi Tenggara",SULAWESI TENGGARA,,Indonesia,,,,-4.7902626,122.3787597,https://maps.google.com/?cid=0x0:0x185569b801f89ceb,
mall,,CAHAYA,"Jl. Poros No.2, Mekar Jaya, Tiworo Tengah, Kabupaten Muna, Sulawesi Tenggara 93648","Mekar Jaya, Tiworo Tengah, Kabupaten Muna",SULAWESI TENGGARA,93648.0,Indonesia, 085340278027,,,-4.8234929,122.3993011,https://maps.google.com/?cid=0x0:0xc8c3e03f54a9bd7e,
mall,Toko,Toko Mulia Sari Atau rumah Komang adrian,"5CW2+RRX, Unnamed Road, Suka Damai, Tiworo Tengah, Kabupaten Muna, Sulawesi Tenggara 93653","Unnamed Road, Suka Damai, Tiworo Tengah, Kabupaten Muna",SULAWESI TENGGARA,93653.0,Indonesia,,,,-4.8028796,122.4020951,https://maps.google.com/?cid=0x0:0xb4a6d6d2bc8cb27e,
mall,Pusat Perbelanjaan,Nanda Cell,"5CH2+R4Q, Jl. Poros, Mekar Jaya, Tiworo Tengah, Kabupaten Muna, Sulawesi Tenggara 93653","Jl. Poros, Mekar Jaya, Tiworo Tengah, Kabupaten Muna",SULAWESI TENGGARA,93653.0,Indonesia, 085299373336,,,-4.8204079,122.4003504,https://maps.google.com/?cid=0x0:0xfd0b985c563dd967,
mall,Toserba,UD Motor Tani,"Wapae Jaya, Tiworo Tengah, Kabupaten Muna, Sulawesi Tenggara 93653","Tiworo Tengah, Kabupaten Muna",SULAWESI TENGGARA,93653.0,Indonesia, 085241827691,,,-4.8104438,122.404801,https://maps.google.com/?cid=0x0:0x5eece1f02005a41a,
mall,Pasar,Pasar Sentral Mekar Jaya,"59GX+VWX, Barat Jl. Poros, Mekar Jaya, Tiworo Tengah, Kabupaten Muna, Sulawesi Tenggara 93648","Barat Jl. Poros, Mekar Jaya, Tiworo Tengah, Kabupaten Muna",SULAWESI TENGGARA,93648.0,Indonesia,,,,-4.8227617,122.3998598,https://maps.google.com/?cid=0x0:0x9ff6fc60e482d348,
mall,Minimarket,Indomaret tiworo tengah,"5CR4+425, Wapae Jaya, Tiworo Tengah, Kabupaten Muna, Sulawesi Tenggara 93653","Wapae Jaya, Tiworo Tengah, Kabupaten Muna",SULAWESI TENGGARA,93653.0,Indonesia,,,,-4.8098073,122.4049604,https://maps.google.com/?cid=0x0:0xc808f7acc7ef553,
mall,Toko Mebel,Mebel Suranaya,"5CRW+8G4, Wandoke, Kec. Tiworo Kepulauan, Kabupaten Muna, Sulawesi Tenggara 93653","Wandoke, Kec. Tiworo Kepulauan, Kabupaten Muna",SULAWESI TENGGARA,93653.0,Indonesia, 081220412959,,,-4.8092489,122.446316,https://maps.google.com/?cid=0x0:0xa6b83a693d4e216c,
mall,Toko Alat Tulis Kantor,TOKO ATK ADI MUKTI DESA KATANGANA,"4CW3+99G, Parura Jaya, Tiworo Sel., Kabupaten Muna, Sulawesi Tenggara","Kabupaten Muna, Sulawesi Tenggara",SULAWESI TENGGARA,,Indonesia, 082254945232,,,-4.8540691,122.4034487,https://maps.google.com/?cid=0x0:0x6ca2de47050b53a9,
mall,Pusat Perbelanjaan,GRAND CENTRAL MUBAR,"49XC+32, Abadi Jaya, Kec. Maginti, Kabupaten Muna, Sulawesi Tenggara","Kabupaten Muna, Sulawesi Tenggara",SULAWESI TENGGARA,,Indonesia,,,,-4.8523693,122.3700796,https://maps.google.com/?cid=0x0:0x48ba23dff5d55b80,
mall,Pusat Perbelanjaan,TPI TEMPAT PELELANGAN IKAN (DERMAGA),"793C+28X, Tondasi, Tiworo Utara, Kabupaten Muna, Sulawesi Tenggara","Kabupaten Muna, Sulawesi Tenggara",SULAWESI TENGGARA,,Indonesia,,,,-4.747386,122.37085,https://maps.google.com/?cid=0x0:0xb3338960cd732780,
mall,Toko,UD.PUTRA TANI,"5CR4+552, Jl. Poros, Mekar Jaya, Tiworo Tengah, Kabupaten Muna, Sulawesi Tenggara 93653","Jl. Poros, Mekar Jaya, Tiworo Tengah, Kabupaten Muna",SULAWESI TENGGARA,93653.0,Indonesia, 085342236932,,,-4.8096094,122.4053944,https://maps.google.com/?cid=0x0:0x3ec532a2811800ad,
mall,,Kios Aneka Tani,"5CP3+G9J, Jl. Poros, Wapae Jaya, Tiworo Tengah, Kabupaten Muna, Sulawesi Tenggara 93653","Jl. Poros, Wapae Jaya, Tiworo Tengah, Kabupaten Muna",SULAWESI TENGGARA,93653.0,Indonesia,,,,-4.8136742,122.4033974,https://maps.google.com/?cid=0x0:0x75e06f737178eb8d,
mall,mall,Tiworo Utara,"Kabupaten Muna, Sulawesi Tenggara","Kabupaten Muna, Sulawesi Tenggara",SULAWESI TENGGARA,,Indonesia,,,,-4.6704353,122.373094,https://maps.google.com/?cid=0x0:0xacd624ac1fc2f9d6,
mall,Pusat Perbelanjaan,TPI TEMPAT PELELANGAN IKAN (DERMAGA),"793C+28X, Tondasi, Tiworo Utara, Kabupaten Muna, Sulawesi Tenggara","Kabupaten Muna, Sulawesi Tenggara",SULAWESI TENGGARA,,Indonesia,,,,-4.747386,122.37085,https://maps.google.com/?cid=0x0:0xb3338960cd732780,
mall,Toko,Toko Mulia Sari Atau rumah Komang adrian,"5CW2+RRX, Unnamed Road, Suka Damai, Tiworo Tengah, Kabupaten Muna, Sulawesi Tenggara 93653","Unnamed Road, Suka Damai, Tiworo Tengah, Kabupaten Muna",SULAWESI TENGGARA,93653.0,Indonesia,,,,-4.8028796,122.4020951,https://maps.google.com/?cid=0x0:0xb4a6d6d2bc8cb27e,
mall,Toko Mebel,Mebel Suranaya,"5CRW+8G4, Wandoke, Kec. Tiworo Kepulauan, Kabupaten Muna, Sulawesi Tenggara 93653","Wandoke, Kec. Tiworo Kepulauan, Kabupaten Muna",SULAWESI TENGGARA,93653.0,Indonesia, 081220412959,,,-4.8092489,122.446316,https://maps.google.com/?cid=0x0:0xa6b83a693d4e216c,
mall,Pusat Perbelanjaan,Nanda Cell,"5CH2+R4Q, Jl. Poros, Mekar Jaya, Tiworo Tengah, Kabupaten Muna, Sulawesi Tenggara 93653","Jl. Poros, Mekar Jaya, Tiworo Tengah, Kabupaten Muna",SULAWESI TENGGARA,93653.0,Indonesia, 085299373336,,,-4.8204079,122.4003504,https://maps.google.com/?cid=0x0:0xfd0b985c563dd967,
mall,Pasar,Pasar Sentral Mekar Jaya,"59GX+VWX, Barat Jl. Poros, Mekar Jaya, Tiworo Tengah, Kabupaten Muna, Sulawesi Tenggara 93648","Barat Jl. Poros, Mekar Jaya, Tiworo Tengah, Kabupaten Muna",SULAWESI TENGGARA,93648.0,Indonesia,,,,-4.8227617,122.3998598,https://maps.google.com/?cid=0x0:0x9ff6fc60e482d348,
mall,Toserba,UD Motor Tani,"Wapae Jaya, Tiworo Tengah, Kabupaten Muna, Sulawesi Tenggara 93653","Tiworo Tengah, Kabupaten Muna",SULAWESI TENGGARA,93653.0,Indonesia, 085241827691,,,-4.8104438,122.404801,https://maps.google.com/?cid=0x0:0x5eece1f02005a41a,
mall,mall,Kec. Wadaga,"Kabupaten Muna, Sulawesi Tenggara","Kabupaten Muna, Sulawesi Tenggara",SULAWESI TENGGARA,,Indonesia,,,,-4.9157067,122.5304167,https://maps.google.com/?cid=0x0:0xb09250edddcd2e35,
mall,Kios,Pasar Tongkoea,"3GMJ+M32, Lailangga, Kec. Wadaga, Kabupaten Muna, Sulawesi Tenggara 93652","Lailangga, Kec. Wadaga, Kabupaten Muna",SULAWESI TENGGARA,93652.0,Indonesia,,,,-4.9158503,122.5301349,https://maps.google.com/?cid=0x0:0xf462b98def423f56,
mall,Pusat Perbelanjaan,Mall Mandonga,"JL. Abdullah Silondae, Korumba, Kec. Mandonga, Kota Kendari, Sulawesi Tenggara 93111","Korumba, Kec. Mandonga, Kota Kendari",SULAWESI TENGGARA,93111.0,Indonesia,,,,-3.9642856,122.5189989,https://maps.google.com/?cid=0x0:0x96320466b7420e2b,
mall,Pusat Perbelanjaan,Kios Ojonk,"3GMH+8W4, Jl. Poros, Lailangga, Kec. Wadaga, Kabupaten Muna, Sulawesi Tenggara 93652","Jl. Poros, Lailangga, Kec. Wadaga, Kabupaten Muna",SULAWESI TENGGARA,93652.0,Indonesia,,,,-4.9167326,122.5298314,https://maps.google.com/?cid=0x0:0x1f8fc6d7f67985bb,
mall,Pasar,Pasar Tradisional Lambubhalano,"4HF3+C8H, Wamelai(Lambubalano), Kec. Lawa, Kabupaten Muna, Sulawesi Tenggara 93652","Wamelai(Lambubalano), Kec. Lawa, Kabupaten Muna",SULAWESI TENGGARA,93652.0,Indonesia,,,,-4.8764268,122.553356,https://maps.google.com/?cid=0x0:0xfd596511b6d8e9c8,
mall,Kios,Kios Ardin,"3GMH+9VH, Lailangga, Kec. Wadaga, Kabupaten Muna, Sulawesi Tenggara","Kabupaten Muna, Sulawesi Tenggara",SULAWESI TENGGARA,,Indonesia,,,,-4.9165567,122.5297334,https://maps.google.com/?cid=0x0:0xc32afdd7c4c32a1b,
mall,Pusat Perbelanjaan,elzar store,"4GVR+W2Q, Latugho, Kec. Lawa, Kabupaten Muna, Sulawesi Tenggara","Kabupaten Muna, Sulawesi Tenggara",SULAWESI TENGGARA,,Indonesia, 082189266403,,,-4.8551566,122.5401025,https://maps.google.com/?cid=0x0:0xd1cd109fc957044,
mall,Toko Swalayan,UD. DUA BINTANG,"Jl. FLAMBOYAN No.Ds, Wakobulu Agung, Kec. Kabangka, Kabupaten Muna, Sulawesi Tenggara 93664","Wakobulu Agung, Kec. Kabangka, Kabupaten Muna",SULAWESI TENGGARA,93664.0,Indonesia, 082343076265,,,-4.9559394,122.4191888,https://maps.google.com/?cid=0x0:0x1164b18b8712e9ce,
mall,Toko Pakaian,Manda Gallerys,"Jl. Made Sabara No.1, Korumba, Kec. Mandonga, Kota Kendari, Sulawesi Tenggara 93461","Korumba, Kec. Mandonga, Kota Kendari",SULAWESI TENGGARA,93461.0,Indonesia, 0822914769643,,,-3.9785939,122.5233413,https://maps.google.com/?cid=0x0:0x6c2c0ce33cb23b53,
mall,Pertanian,Pemancar Lahorio,"2FRX+VMC, Lahorio, Kec. Kontu Kowuna, Kabupaten Muna, Sulawesi Tenggara 93661","Lahorio, Kec. Kontu Kowuna, Kabupaten Muna",SULAWESI TENGGARA,93661.0,Indonesia, 085342858809,,,-4.9578028,122.4991419,https://maps.google.com/?cid=0x0:0x63a9774a11bc29c0,
mall,Pusat Perbelanjaan,GRAND CENTRAL MUBAR,"49XC+32, Abadi Jaya, Kec. Maginti, Kabupaten Muna, Sulawesi Tenggara","Kabupaten Muna, Sulawesi Tenggara",SULAWESI TENGGARA,,Indonesia,,,,-4.8523693,122.3700796,https://maps.google.com/?cid=0x0:0x48ba23dff5d55b80,
mall,Jus,Pop Ice AR,"4H72+H47, Wamelai(Lambubalano), Kec. Lawa, Kabupaten Muna, Sulawesi Tenggara 93652","Wamelai(Lambubalano), Kec. Lawa, Kabupaten Muna",SULAWESI TENGGARA,93652.0,Indonesia, 085340011776,,,-4.886088,122.5502838,https://maps.google.com/?cid=0x0:0xa61d287f73545487,
supermarket,supermarket,Kec. Barangka,"Kabupaten Muna, Sulawesi Tenggara","Kabupaten Muna, Sulawesi Tenggara",SULAWESI TENGGARA,,Indonesia,,,,-4.8448994,122.5483448,https://maps.google.com/?cid=0x0:0x22374dea68597f27,
supermarket,Minimarket,Kios Abdillah Cell,"Sawerigadi, Kec. Barangka, muna barat, Sulawesi Tenggara 93652","Kec. Barangka, muna barat",SULAWESI TENGGARA,93652.0,Indonesia, 085255048414,,,-4.8455145,122.5621618,https://maps.google.com/?cid=0x0:0x2660caae661d1ffe,
supermarket,Pasar,Pasar wuna,"5GJ9+FW6, Unnamed Road, Wuna, Kec. Barangka, Kabupaten Muna, Sulawesi Tenggara 93657","Unnamed Road, Wuna, Kec. Barangka, Kabupaten Muna",SULAWESI TENGGARA,93657.0,Indonesia,,,,-4.8188311,122.5197759,https://maps.google.com/?cid=0x0:0xa7c0ec283de50469,
supermarket,Toko bahan makanan,Savemore Market Marikina Riverbanks Mall,"Riverbank Mall, 84a Boni Ave, Marikina City, 1803 Metro Manila, Filipina","Marikina City, Metro Manila, Filipina",SULAWESI TENGGARA,,Indonesia, +63289413617,,,14.6315546,121.0816455,https://maps.google.com/?cid=0x0:0x1893f02f43ec4093,
supermarket,Toko Swalayan,SM Supermarket Marikina,"Marikina-Infanta Hwy, Marikina City, 1801 Metro Manila, Filipina","Marikina City, Metro Manila, Filipina",SULAWESI TENGGARA,,Indonesia, +63284771721,,,14.6266,121.0845,https://maps.google.com/?cid=0x0:0x6f890ba3d814caf5,
supermarket,Toko bahan makanan,Minimart by Puregold,"324 Barangka Dr., Mandaluyong City, 1550 Kalakhang Maynila, Filipina","Mandaluyong City, Metro Manila, Filipina",SULAWESI TENGGARA,,Indonesia,,,,14.5707586,121.037154,https://maps.google.com/?cid=0x0:0xdde660c4cc635092,
supermarket,Toko bahan makanan,Savemore Market - SMDC Light Mall,"Edsa Cor. Madison St Brgy, Barangka Dr., Mandaluyong City, 1550, Filipina","Mandaluyong City, Metro Manila, Filipina",SULAWESI TENGGARA,,Indonesia, +63286613957,,,14.573675,121.049339,https://maps.google.com/?cid=0x0:0xd51c622234f1e8f2,
supermarket,Toko Swalayan,Triple 999 Micah Store,"Marcos Highway, Block 7, Lot 16, Urban Bliss, Barangka, Marikina City, 1803 Metro Manila, Filipina","Marikina City, Metro Manila, Filipina",SULAWESI TENGGARA,,Indonesia, +63279438952,,,14.6295367,121.0802963,https://maps.google.com/?cid=0x0:0x7d91e943e0ed39ad,
supermarket,Toko bahan makanan,Melia's Store,"HDLC Homes, 120 St Joseph Ave, Marikina City, 1803 Metro Manila, Filipina","Marikina City, Metro Manila, Filipina",SULAWESI TENGGARA,,Indonesia, +63279349612,,,14.6361063,121.0822553,https://maps.google.com/?cid=0x0:0x7cd9e252e800e334,
supermarket,Toko Swalayan,Kathy's Store,"10 St. Joseph Avenue, 1803, Marikina City, Metro Manila, Filipina","Marikina City, Metro Manila, Filipina",SULAWESI TENGGARA,,Indonesia, +63279438082,,,14.6354198,121.0823428,https://maps.google.com/?cid=0x0:0xc49a16fdd210547d,
supermarket,Toko bahan makanan,Pacita Store,"85 Hon B. Soliven Avenue II, Marikina City, 1803 Metro Manila, Filipina","Marikina City, Metro Manila, Filipina",SULAWESI TENGGARA,,Indonesia, +63289485669,,,14.6403753,121.0826256,https://maps.google.com/?cid=0x0:0xa5a72223eb0bc3a5,
supermarket,Toko Swalayan,Flor's Store,"9 Gen. Julian Cruz Street, 1803, Marikina City, Metro Manila, Filipina","Marikina City, Metro Manila, Filipina",SULAWESI TENGGARA,,Indonesia, +63289488458,,,14.6352722,121.0827933,https://maps.google.com/?cid=0x0:0x9d6263f55af9db6f,
supermarket,Toko bahan makanan,Estrella Store,"J3MJ+32M, Marikina City, 1800 Metro Manila, Filipina","Marikina City, Metro Manila, Filipina",SULAWESI TENGGARA,,Indonesia,,,,14.6327147,121.0800614,https://maps.google.com/?cid=0x0:0xada9adc839c1b549,
supermarket,Toko Buah dan Sayuran,The Murang Gulay Shop- barangka,"42 St Joseph Ave, Marikina City, 1800 Metro Manila, Filipina","Marikina City, Metro Manila, Filipina",SULAWESI TENGGARA,,Indonesia, +639059691837,,,14.6338577,121.0820588,https://maps.google.com/?cid=0x0:0xc4987e90db781994,
supermarket,Toko Swalayan,Maica Mini Store,"123 Chorillo Street, Barangka, Marikina City, 1803 Metro Manila, Filipina","Marikina City, Metro Manila, Filipina",SULAWESI TENGGARA,,Indonesia, +63282445156,,,14.632545,121.082253,https://maps.google.com/?cid=0x0:0x50468c5a4c54440e,
supermarket,Toko Swalayan,Emy's Mini Store,"Block 3, Lot 14, Marcos Highway, Urban Bliss, Barangka, Marikina City, 1803 Metro Manila, Filipina","Marikina City, Metro Manila, Filipina",SULAWESI TENGGARA,,Indonesia, +63284761070,,,14.6279359,121.0814595,https://maps.google.com/?cid=0x0:0xbb85ea2e802ab76e,
supermarket,Toko bahan makanan,DALI Everyday Grocery - Barangka Itaas Mandaluyong City,"904 E.Pantaleon, Mandaluyong City, 1550 Kalakhang Maynila, Filipina","Mandaluyong City, Metro Manila, Filipina",SULAWESI TENGGARA,,Indonesia,,,,14.5695543,121.0419455,https://maps.google.com/?cid=0x0:0xfdc2eb21acedf87a,
supermarket,Toko Swalayan,Topway Supermarket,"688 Boni Ave, Mandaluyong City, 1550 Metro Manila, Filipina","Mandaluyong City, Metro Manila, Filipina",SULAWESI TENGGARA,,Indonesia,,,,14.575863,121.040525,https://maps.google.com/?cid=0x0:0x384ca13ebd409ba2,
supermarket,Toko bahan makanan,Tope Store,"37 General Julian Street, Marikina City, 1800 Metro Manila, Filipina","Marikina City, Metro Manila, Filipina",SULAWESI TENGGARA,,Indonesia, +639282483408,,,14.6343213,121.0825706,https://maps.google.com/?cid=0x0:0xe84015e9e55231ec,
supermarket,Toko Swalayan,Rosie's Sari-Sari Store,"129 Magnolia Street, Marikina City, 1800 Metro Manila, Filipina","Marikina City, Metro Manila, Filipina",SULAWESI TENGGARA,,Indonesia, +63279404298,,,14.6383785,121.0832218,https://maps.google.com/?cid=0x0:0x8ae6d2bd161a512f,
supermarket,Toko kopi,Bean Box Coffee,"Marikina City, 1800 Metro Manila, Filipina","Marikina City, Metro Manila, Filipina",SULAWESI TENGGARA,,Indonesia, +63279341985,,,14.636238,121.0827664,https://maps.google.com/?cid=0x0:0x3089cbc34fd4e03a,
supermarket,Minimarket,Big Budget Store,"First Level, Riverbanks Mall, 84, A. Bonifacio Avenue, Barangka, Marikina City, 1800 Metro Manila, Filipina","Marikina City, Metro Manila, Filipina",SULAWESI TENGGARA,,Indonesia, +63285467750,,,14.6315705,121.0827118,https://maps.google.com/?cid=0x0:0x6f70a7293039aa00,
supermarket,,Teng's Store,"76, Don Gonzalo Puyat Street, Barangka, Marikina City, 1803 Metro Manila, Filipina","Marikina City, Metro Manila, Filipina",SULAWESI TENGGARA,,Indonesia, +63289488449,,,14.6364846,121.083624,https://maps.google.com/?cid=0x0:0x149a464d3e2ef541,
supermarket,supermarket,Sulawesi Tenggara 93655,"Kabupaten Muna, Sulawesi Tenggara","Kabupaten Muna, Sulawesi Tenggara",SULAWESI TENGGARA,,Indonesia,,,,-4.7167048,122.593828,https://maps.google.com/?cid=0x0:0x2099dcc445aba1a5,
supermarket,Toko Mebel,Aidil store Sidamangura,"Jalan Poros Masara-Latawe, Sidamangura, Sulawesi Tenggara 93655",Sidamangura,SULAWESI TENGGARA,93655.0,Indonesia, 082399101348,,,-4.7269771,122.5617751,https://maps.google.com/?cid=0x0:0x1c861d9125faed3b,
supermarket,Taman,Tugu Pesawat Kusambi,"6HWH+C28, Unnamed Road, Kusambi, Kec. Kusambi, Kabupaten Muna, Sulawesi Tenggara 93657","Unnamed Road, Kusambi, Kec. Kusambi, Kabupaten Muna",SULAWESI TENGGARA,93657.0,Indonesia,,,,-4.7539542,122.577586,https://maps.google.com/?cid=0x0:0x9118f97735a3e505,
supermarket,Toko,TOKO DUA BINTANG,"Jl. Poros Raha-Kusambi No.16, Bangkali, Kec. Watopute, Kabupaten Muna, Sulawesi Tenggara 93656","Bangkali, Kec. Watopute, Kabupaten Muna",SULAWESI TENGGARA,93656.0,Indonesia,,,,-4.820472,122.6689967,https://maps.google.com/?cid=0x0:0x7dc93aab9aafc062,
supermarket,Toko umum,Toko Aldy Sheby,"5MHC+C2H, Bangkali, Kec. Watopute, Kabupaten Muna, Sulawesi Tenggara 93656","Bangkali, Kec. Watopute, Kabupaten Muna",SULAWESI TENGGARA,93656.0,Indonesia, 081354232031,,,-4.8214432,122.6700954,https://maps.google.com/?cid=0x0:0x6b116870740e3393,
supermarket,Toko umum,Kios Farzan Adlan,"5MHC+3H2, Bangkali, Kec. Watopute, Kabupaten Muna, Sulawesi Tenggara 93656","Bangkali, Kec. Watopute, Kabupaten Muna",SULAWESI TENGGARA,93656.0,Indonesia, 085222221912,,,-4.822374,122.6714026,https://maps.google.com/?cid=0x0:0xdec427f03909fd6c,
supermarket,Apotek,Toko Aqilah dan Apotek Aqhimzar,"9PC4+QRG, Unnamed Road, Napabalano, Kec. Napabalano, Kabupaten Muna, Sulawesi Tenggara 93654","Unnamed Road, Napabalano, Kec. Napabalano, Kabupaten Muna",SULAWESI TENGGARA,93654.0,Indonesia, 082348848449,,,-4.6280711,122.7070801,https://maps.google.com/?cid=0x0:0xcf0dd084291363e9,
supermarket,supermarket,KIOS ASIFAH,"5MHC+4GX, Jl. Poros Raha-Kusambi, Bangkali, Kec. Watopute, Kabupaten Muna, Sulawesi Tenggara 93656","Jl. Poros Raha-Kusambi, Bangkali, Kec. Watopute, Kabupaten Muna",SULAWESI TENGGARA,93656.0,Indonesia,,,,-4.8221258,122.6713465,https://maps.google.com/?cid=0x0:0x59b4792bb07d4ce,
supermarket,Toko bahan makanan,Sabil MART,"5CR6+Q3J, Wapae Jaya, Tiworo Tengah, Kabupaten Muna, Sulawesi Tenggara 93653","Wapae Jaya, Tiworo Tengah, Kabupaten Muna",SULAWESI TENGGARA,93653.0,Indonesia,,,,-4.8080445,122.4101517,https://maps.google.com/?cid=0x0:0x18f85335a145d038,
supermarket,Pasar,Pasar Sidamangura,"7HC6+78R, Sidamangura, Kec. Kusambi, Kabupaten Muna, Sulawesi Tenggara 93655","Sidamangura, Kec. Kusambi, Kabupaten Muna",SULAWESI TENGGARA,93655.0,Indonesia,,,,-4.729271,122.5607741,https://maps.google.com/?cid=0x0:0x9e7f815ea04dc129,
supermarket,Minimarket,kios safira,"7H4F+2PH, Konawe, Kec. Kusambi, Kabupaten Muna, Sulawesi Tenggara 93657","Konawe, Kec. Kusambi, Kabupaten Muna",SULAWESI TENGGARA,93657.0,Indonesia, 085340337898,,,-4.744944,122.5743661,https://maps.google.com/?cid=0x0:0x3d7c0415982638e9,
supermarket,Toko,Brilin Yayan Syah Sidamangura,"7HG7+FVV, Sidamangura, Kec. Kusambi, Kabupaten Muna, Sulawesi Tenggara 93655","Sidamangura, Kec. Kusambi, Kabupaten Muna",SULAWESI TENGGARA,93655.0,Indonesia, 085241537672,,,-4.7237671,122.5646575,https://maps.google.com/?cid=0x0:0xbaa0b58b85a08bda,
supermarket,Toko umum,Warung Asyifa Fredela Ulani,"7HG3+64P, Sidamangura, Kec. Kusambi, Kabupaten Muna, Sulawesi Tenggara 93655","Sidamangura, Kec. Kusambi, Kabupaten Muna",SULAWESI TENGGARA,93655.0,Indonesia,,,,-4.7247125,122.5534297,https://maps.google.com/?cid=0x0:0x13ef4b8e6b85245e,
supermarket,Toko bahan makanan,ZAIMARKWAN,"5MJ8+G77, Jl. Poros Raha-Kusambi, Bangkali, Kec. Watopute, Kabupaten Muna, Sulawesi Tenggara 93656","Jl. Poros Raha-Kusambi, Bangkali, Kec. Watopute, Kabupaten Muna",SULAWESI TENGGARA,93656.0,Indonesia, 085399335539,,,-4.8187061,122.6656677,https://maps.google.com/?cid=0x0:0x784dc1aa509101b2,
supermarket,supermarket,Sulawesi Tenggara 93652,"Kabupaten Muna, Sulawesi Tenggara","Kabupaten Muna, Sulawesi Tenggara",SULAWESI TENGGARA,,Indonesia,,,,-4.8874972,122.5598994,https://maps.google.com/?cid=0x0:0x34e12d7c7d7a4631,
supermarket,Toko umum,Warung lNA,"5M2M+VM5, Labaha, Kec. Watopute, Kabupaten Muna, Sulawesi Tenggara 93656","Labaha, Kec. Watopute, Kabupaten Muna",SULAWESI TENGGARA,93656.0,Indonesia, 081386279103,,,-4.8478616,122.6842318,https://maps.google.com/?cid=0x0:0x7061f951f62fc447,
supermarket,Minimarket,Kios Abdillah Cell,"Sawerigadi, Kec. Barangka, muna barat, Sulawesi Tenggara 93652","Kec. Barangka, muna barat",SULAWESI TENGGARA,93652.0,Indonesia, 085255048414,,,-4.8455145,122.5621618,https://maps.google.com/?cid=0x0:0x2660caae661d1ffe,
supermarket,Kios,Toko Merlin,"5PCG+M99, Butung-Butung, Kec. Katobu, Kabupaten Muna, Sulawesi Tenggara 93611","Butung-Butung, Kec. Katobu, Kabupaten Muna",SULAWESI TENGGARA,93611.0,Indonesia,,,,-4.8283331,122.7259724,https://maps.google.com/?cid=0x0:0xd6c67ab3e93e95ab,
supermarket,Toko umum,Kios Farzan Adlan,"5MHC+3H2, Bangkali, Kec. Watopute, Kabupaten Muna, Sulawesi Tenggara 93656","Bangkali, Kec. Watopute, Kabupaten Muna",SULAWESI TENGGARA,93656.0,Indonesia, 085222221912,,,-4.822374,122.6714026,https://maps.google.com/?cid=0x0:0xdec427f03909fd6c,
supermarket,Toko bahan makanan,toko dewi,"498J+HM2, Jln poros desa, Kasimpa Jaya, Tiworo Sel., Kabupaten Muna, Sulawesi Tenggara 93664","Jln poros desa, Kasimpa Jaya, Tiworo Sel., Kabupaten Muna",SULAWESI TENGGARA,93664.0,Indonesia, 082396256531,,,-4.8836033,122.3816481,https://maps.google.com/?cid=0x0:0x6ed945d692f59c75,
supermarket,Toko bahan makanan,kios ahya,"4PPJ+VQX, Bone Balano, Kec. Duruka, Kabupaten Muna, Sulawesi Tenggara 93659","Bone Balano, Kec. Duruka, Kabupaten Muna",SULAWESI TENGGARA,93659.0,Indonesia,,,,-4.8627617,122.7319727,https://maps.google.com/?cid=0x0:0x3a30296c732608ef,
supermarket,supermarket,KIOS SARBIA ( SARBIA CELL),"4HF8+2QX Kan, Barat, Madampi, Lawa, Muna Regency, South East Sulawesi 93652","Barat, Madampi, Lawa, Muna Regency",SULAWESI TENGGARA,93652.0,Indonesia, 081245210029,,,-4.8773974,122.566998,https://maps.google.com/?cid=0x0:0x891456e3ab7645ef,
supermarket,Toko Perlengkapan Rumah,Sapu Lawa,"Ruko Fortune, Jl. Boulevard Graha Raya Blok FB D12, Paku Jaya, Kec. Serpong Utara, Kota Tangerang Selatan, Banten 15220","Jl. Boulevard Graha Raya Blok FB D12, Paku Jaya, Kec. Serpong Utara, Kota Tangerang Selatan",SULAWESI TENGGARA,15220.0,Indonesia, 08129524148,,,-6.2307768,106.6860368,https://maps.google.com/?cid=0x0:0x55893549e54fa4fd,
supermarket,Toko Perlengkapan Rumah,Toko TA310 PERABOT SAPU PEL2AN,"Jl. Prof. Dr. Hamka No.2, RT.003/RW.003, Larangan Utara, Kec. Larangan, Kota Tangerang, Banten 15154","RT.003/RW.003, Larangan Utara, Kec. Larangan, Kota Tangerang",SULAWESI TENGGARA,15154.0,Indonesia, 081283468474,,,-6.2344119,106.7296663,https://maps.google.com/?cid=0x0:0x6835b322254b41be,
supermarket,supermarket,Kec. Maginti,"Kabupaten Muna, Sulawesi Tenggara","Kabupaten Muna, Sulawesi Tenggara",SULAWESI TENGGARA,,Indonesia,,,,-4.8523016,122.3273334,https://maps.google.com/?cid=0x0:0x827d1cf3623f4296,
supermarket,Toko bahan makanan,toko dewi,"498J+HM2, Jln poros desa, Kasimpa Jaya, Tiworo Sel., Kabupaten Muna, Sulawesi Tenggara 93664","Jln poros desa, Kasimpa Jaya, Tiworo Sel., Kabupaten Muna",SULAWESI TENGGARA,93664.0,Indonesia, 082396256531,,,-4.8836033,122.3816481,https://maps.google.com/?cid=0x0:0x6ed945d692f59c75,
supermarket,Toko bahan makanan,Sabil MART,"5CR6+Q3J, Wapae Jaya, Tiworo Tengah, Kabupaten Muna, Sulawesi Tenggara 93653","Wapae Jaya, Tiworo Tengah, Kabupaten Muna",SULAWESI TENGGARA,93653.0,Indonesia,,,,-4.8080445,122.4101517,https://maps.google.com/?cid=0x0:0x18f85335a145d038,
supermarket,Toko Swalayan,Toko Meidina,"XGQJ+29V, tarima, jl.prof .dr Jl. Prof. Dr. Abdurrauf Tarimana, Kec. Kambu, Kota Kendari, Sulawesi Tenggara 93231","tarima, jl.prof .dr Jl. Prof. Dr. Abdurrauf Tarimana, Kec. Kambu, Kota Kendari",SULAWESI TENGGARA,93231.0,Indonesia,,,,-4.0123922,122.5309184,https://maps.google.com/?cid=0x0:0x6da6b74beef5bee7,
supermarket,Tempat Penggilingan Beras,UD. Hikmah 2 Agen Beras Bola Dunia,"59FX+MJQ, Mekar Jaya, Tiworo Tengah, Kabupaten Muna, Sulawesi Tenggara","Kabupaten Muna, Sulawesi Tenggara",SULAWESI TENGGARA,,Indonesia, 081258191733,,,-4.8257989,122.3991225,https://maps.google.com/?cid=0x0:0x463cd200611ea982,
supermarket,Pusat Perbelanjaan,Toko Chici,"5CQ3+XQX, Wapae Jaya, Tiworo Tengah, Kabupaten Muna, Sulawesi Tenggara","Kabupaten Muna, Sulawesi Tenggara",SULAWESI TENGGARA,,Indonesia,,,,-4.8100194,122.4044957,https://maps.google.com/?cid=0x0:0xc29572d74ea57366,
supermarket,Toko Swalayan,Toko ARD Tunggala,"Wua-Wua, Kec. Wua-Wua, Kota Kendari, Sulawesi Tenggara 93117","Kec. Wua-Wua, Kota Kendari",SULAWESI TENGGARA,93117.0,Indonesia, 0852419805552,,,-4.0012436,122.4895567,https://maps.google.com/?cid=0x0:0xcc04af36a42ff1b3,
supermarket,Toko bahan makanan,Rumah Ketut teguh Suarthama,"6C22+43H, Suka Damai, Tiworo Tengah, Kabupaten Muna, Sulawesi Tenggara 93653","Suka Damai, Tiworo Tengah, Kabupaten Muna",SULAWESI TENGGARA,93653.0,Indonesia,,,,-4.8013408,122.3997265,https://maps.google.com/?cid=0x0:0xfa4fdb59bb849f20,
supermarket,supermarket,Toko Buyung (UD DAENG PITUE),"499M+CGP, Jln poros desa, Kasimpa Jaya, Tiworo Sel., Kabupaten Muna, Sulawesi Tenggara 93664","Jln poros desa, Kasimpa Jaya, Tiworo Sel., Kabupaten Muna",SULAWESI TENGGARA,93664.0,Indonesia,,,,-4.8814133,122.3838259,https://maps.google.com/?cid=0x0:0x9fb9c3722799d863,
supermarket,supermarket,Toko Kurnia,"49GR+8WX, Jln poros desa, Kasimpa Jaya, Tiworo Sel., Kabupaten Muna, Sulawesi Tenggara","Kabupaten Muna, Sulawesi Tenggara",SULAWESI TENGGARA,,Indonesia, 085252316071,,,-4.8741397,122.392349,https://maps.google.com/?cid=0x0:0x8491c8237ffc6eba,
supermarket,supermarket,joko dermawan,"5976+P67, Unnamed Road, Abadi Jaya, Kec. Maginti, Kabupaten Muna, Sulawesi Tenggara 93653","Unnamed Road, Abadi Jaya, Kec. Maginti, Kabupaten Muna",SULAWESI TENGGARA,93653.0,Indonesia,,,,-4.8357209,122.3605436,https://maps.google.com/?cid=0x0:0x509bb1e9bad721aa,
supermarket,supermarket,Sulawesi Tenggara 93655,"Kabupaten Muna, Sulawesi Tenggara","Kabupaten Muna, Sulawesi Tenggara",SULAWESI TENGGARA,,Indonesia,,,,-4.7167048,122.593828,https://maps.google.com/?cid=0x0:0x2099dcc445aba1a5,
supermarket,Minimarket,Kios Dilan,"8M7Q+GQX, Lambiku, Kec. Napabalano, Kabupaten Muna, Sulawesi Tenggara 93654","Lambiku, Kec. Napabalano, Kabupaten Muna",SULAWESI TENGGARA,93654.0,Indonesia,,,,-4.6861484,122.6894865,https://maps.google.com/?cid=0x0:0x752cad7fcbb439f,
supermarket,Toko Mebel,Aidil store Sidamangura,"Jalan Poros Masara-Latawe, Sidamangura, Sulawesi Tenggara 93655",Sidamangura,SULAWESI TENGGARA,93655.0,Indonesia, 082399101348,,,-4.7269771,122.5617751,https://maps.google.com/?cid=0x0:0x1c861d9125faed3b,
supermarket,Toko,TOKO DUA BINTANG,"Jl. Poros Raha-Kusambi No.16, Bangkali, Kec. Watopute, Kabupaten Muna, Sulawesi Tenggara 93656","Bangkali, Kec. Watopute, Kabupaten Muna",SULAWESI TENGGARA,93656.0,Indonesia,,,,-4.820472,122.6689967,https://maps.google.com/?cid=0x0:0x7dc93aab9aafc062,
supermarket,Apotek,Toko Aqilah dan Apotek Aqhimzar,"9PC4+QRG, Unnamed Road, Napabalano, Kec. Napabalano, Kabupaten Muna, Sulawesi Tenggara 93654","Unnamed Road, Napabalano, Kec. Napabalano, Kabupaten Muna",SULAWESI TENGGARA,93654.0,Indonesia, 082348848449,,,-4.6280711,122.7070801,https://maps.google.com/?cid=0x0:0xcf0dd084291363e9,
supermarket,Toko umum,Toko Aldy Sheby,"5MHC+C2H, Bangkali, Kec. Watopute, Kabupaten Muna, Sulawesi Tenggara 93656","Bangkali, Kec. Watopute, Kabupaten Muna",SULAWESI TENGGARA,93656.0,Indonesia, 081354232031,,,-4.8214432,122.6700954,https://maps.google.com/?cid=0x0:0x6b116870740e3393,
supermarket,Minimarket,kios safira,"7H4F+2PH, Konawe, Kec. Kusambi, Kabupaten Muna, Sulawesi Tenggara 93657","Konawe, Kec. Kusambi, Kabupaten Muna",SULAWESI TENGGARA,93657.0,Indonesia, 085340337898,,,-4.744944,122.5743661,https://maps.google.com/?cid=0x0:0x3d7c0415982638e9,
supermarket,Pasar,Pasar Sidamangura,"7HC6+78R, Sidamangura, Kec. Kusambi, Kabupaten Muna, Sulawesi Tenggara 93655","Sidamangura, Kec. Kusambi, Kabupaten Muna",SULAWESI TENGGARA,93655.0,Indonesia,,,,-4.729271,122.5607741,https://maps.google.com/?cid=0x0:0x9e7f815ea04dc129,
supermarket,Toko,Brilin Yayan Syah Sidamangura,"7HG7+FVV, Sidamangura, Kec. Kusambi, Kabupaten Muna, Sulawesi Tenggara 93655","Sidamangura, Kec. Kusambi, Kabupaten Muna",SULAWESI TENGGARA,93655.0,Indonesia, 085241537672,,,-4.7237671,122.5646575,https://maps.google.com/?cid=0x0:0xbaa0b58b85a08bda,
supermarket,Toko bahan makanan,Toko Syifa Tampo,"Jalan Paelan Kuta 2, RT.2/RW.3, Napabalano, Kec. Napabalano, Kabupaten Muna, Sulawesi Tenggara 93654","RT.2/RW.3, Napabalano, Kec. Napabalano, Kabupaten Muna",SULAWESI TENGGARA,93654.0,Indonesia, 081999764871,,,-4.6281084,122.7076977,https://maps.google.com/?cid=0x0:0x5425084cb0fc4dd0,
supermarket,Toko umum,Warung Asyifa Fredela Ulani,"7HG3+64P, Sidamangura, Kec. Kusambi, Kabupaten Muna, Sulawesi Tenggara 93655","Sidamangura, Kec. Kusambi, Kabupaten Muna",SULAWESI TENGGARA,93655.0,Indonesia,,,,-4.7247125,122.5534297,https://maps.google.com/?cid=0x0:0x13ef4b8e6b85245e,
supermarket,Toko bahan makanan,ZAIMARKWAN,"5MJ8+G77, Jl. Poros Raha-Kusambi, Bangkali, Kec. Watopute, Kabupaten Muna, Sulawesi Tenggara 93656","Jl. Poros Raha-Kusambi, Bangkali, Kec. Watopute, Kabupaten Muna",SULAWESI TENGGARA,93656.0,Indonesia, 085399335539,,,-4.8187061,122.6656677,https://maps.google.com/?cid=0x0:0x784dc1aa509101b2,
supermarket,Brunch,PASAR TAMPO,"9PH3+269, Langkumapo, Kec. Napabalano, Kabupaten Muna, Sulawesi Tenggara 93654","Langkumapo, Kec. Napabalano, Kabupaten Muna",SULAWESI TENGGARA,93654.0,Indonesia, 082291224462,,,-4.6224631,122.7031147,https://maps.google.com/?cid=0x0:0x7d01d4aa196a35a8,
supermarket,Toko,Kios Faris 650-6064,"9MHX+6V9, Jl. La Al Muna, Tampo, Kec. Napabalano, Kabupaten Muna, Sulawesi Tenggara 93654","Jl. La Al Muna, Tampo, Kec. Napabalano, Kabupaten Muna",SULAWESI TENGGARA,93654.0,Indonesia,,,,-4.6219545,122.6997408,https://maps.google.com/?cid=0x0:0x8fe85e47e5f8ae59,
supermarket,Toko bahan makanan,Kedai Rafifah,"9PF5+G9V, Unnamed Road, Napabalano, Muna Regency, South East Sulawesi 93654","Unnamed Road, Napabalano, Muna Regency",SULAWESI TENGGARA,93654.0,Indonesia, 082320687544,,,-4.6261362,122.7084194,https://maps.google.com/?cid=0x0:0x1170e814ae3ce9b8,
supermarket,,Kius biru,"kius bir, Jl. Paelangkuta No.1 Blok G, RW5, Napabalano, Kec. Napabalano, Kabupaten Muna, Sulawesi Tenggara 93654","Jl. Paelangkuta No.1 Blok G, RW5, Napabalano, Kec. Napabalano, Kabupaten Muna",SULAWESI TENGGARA,93654.0,Indonesia,,,,-4.6258108,122.7025841,https://maps.google.com/?cid=0x0:0xcf949f2cf149d481,
supermarket,Toko,KIOS AJEJE,"5MJ8+F4X, Jl. Poros Raha-Kusambi, Bangkali, Kec. Watopute, Kabupaten Muna, Sulawesi Tenggara","Kabupaten Muna, Sulawesi Tenggara",SULAWESI TENGGARA,,Indonesia,,,,-4.8187514,122.6653655,https://maps.google.com/?cid=0x0:0x109c6981fec7812a,
supermarket,Toko bahan makanan,TOKO IBRAHIM,"9P96+2M2, Jl. Paelangkuta, Napabalano, Kec. Napabalano, Kabupaten Muna, Sulawesi Tenggara 93654","Jl. Paelangkuta, Napabalano, Kec. Napabalano, Kabupaten Muna",SULAWESI TENGGARA,93654.0,Indonesia,,,,-4.6324953,122.7116344,https://maps.google.com/?cid=0x0:0x6c708c8e0faa4cc1,
supermarket,supermarket,Kios kobar,"7HJC+Q89, Masara, Kec. Napano Kusambi, Kabupaten Muna, Sulawesi Tenggara 93655","Masara, Kec. Napano Kusambi, Kabupaten Muna",SULAWESI TENGGARA,93655.0,Indonesia, 081318651585,,,-4.7180767,122.57086,https://maps.google.com/?cid=0x0:0x8b50f5cffdbdc41,
supermarket,supermarket,Sawerigading,"Kec. Ujung Pandang, Kota Makassar, Sulawesi Selatan","Kota Makassar, Sulawesi Selatan",SULAWESI TENGGARA,,Indonesia,,,,-5.1405135,119.4146041,https://maps.google.com/?cid=0x0:0xd660dde0f3eb73d9,
supermarket,supermarket,Sulawesi Tenggara 93657,"Kabupaten Muna, Sulawesi Tenggara","Kabupaten Muna, Sulawesi Tenggara",SULAWESI TENGGARA,,Indonesia,,,,-4.8269737,122.5259596,https://maps.google.com/?cid=0x0:0x6227f17791af231c,
supermarket,supermarket,Kec. Tiworo Kepulauan,"Kabupaten Muna, Sulawesi Tenggara","Kabupaten Muna, Sulawesi Tenggara",SULAWESI TENGGARA,,Indonesia,,,,-4.7783688,122.4353995,https://maps.google.com/?cid=0x0:0xb9b9310dc3cd9cb5,
supermarket,Toko bahan makanan,Sabil MART,"5CR6+Q3J, Wapae Jaya, Tiworo Tengah, Kabupaten Muna, Sulawesi Tenggara 93653","Wapae Jaya, Tiworo Tengah, Kabupaten Muna",SULAWESI TENGGARA,93653.0,Indonesia,,,,-4.8080445,122.4101517,https://maps.google.com/?cid=0x0:0x18f85335a145d038,
supermarket,Toko bahan makanan,Rumah Ketut teguh Suarthama,"6C22+43H, Suka Damai, Tiworo Tengah, Kabupaten Muna, Sulawesi Tenggara 93653","Suka Damai, Tiworo Tengah, Kabupaten Muna",SULAWESI TENGGARA,93653.0,Indonesia,,,,-4.8013408,122.3997265,https://maps.google.com/?cid=0x0:0xfa4fdb59bb849f20,
supermarket,Pusat Perbelanjaan,Toko Chici,"5CQ3+XQX, Wapae Jaya, Tiworo Tengah, Kabupaten Muna, Sulawesi Tenggara","Kabupaten Muna, Sulawesi Tenggara",SULAWESI TENGGARA,,Indonesia,,,,-4.8100194,122.4044957,https://maps.google.com/?cid=0x0:0xc29572d74ea57366,
supermarket,Toko bahan makanan,toko dewi,"498J+HM2, Jln poros desa, Kasimpa Jaya, Tiworo Sel., Kabupaten Muna, Sulawesi Tenggara 93664","Jln poros desa, Kasimpa Jaya, Tiworo Sel., Kabupaten Muna",SULAWESI TENGGARA,93664.0,Indonesia, 082396256531,,,-4.8836033,122.3816481,https://maps.google.com/?cid=0x0:0x6ed945d692f59c75,
supermarket,Toko Mebel,Mebel Anugrah Center,"5CF2+4GV, Mekar Jaya, Tiworo Tengah, Kabupaten Muna, Sulawesi Tenggara","Kabupaten Muna, Sulawesi Tenggara",SULAWESI TENGGARA,,Indonesia,,,,-4.8271409,122.4013048,https://maps.google.com/?cid=0x0:0x9634743de144b224,
supermarket,Minimarket,Indomaret Tiworo Selatan Muna Barat,"49CP+JQX, jalan poros, Kasimpa Jaya, Tiworo Sel., Kabupaten Muna, Sulawesi Tenggara 93664","jalan poros, Kasimpa Jaya, Tiworo Sel., Kabupaten Muna",SULAWESI TENGGARA,93664.0,Indonesia,,,,-4.8783338,122.3874952,https://maps.google.com/?cid=0x0:0x9496ad48e3d73caa,
supermarket,Hotel,HOTEL AMALYAH Muna Barat,"Barat, Kec. Tiworo Kepulauan, Kabupaten Muna, Sulawesi Tenggara 93653","Kec. Tiworo Kepulauan, Kabupaten Muna",SULAWESI TENGGARA,93653.0,Indonesia, 085255657987,,,-4.7928125,122.4316875,https://maps.google.com/?cid=0x0:0x1d4281c2f02ccf47,
supermarket,Toko,Kios Sparepart Diesel,"98HM+7PF, Tasipi, Tiworo Utara, Kabupaten Muna, Sulawesi Tenggara","Kabupaten Muna, Sulawesi Tenggara",SULAWESI TENGGARA,,Indonesia,,,,-4.6218219,122.3342969,https://maps.google.com/?cid=0x0:0x321ee7d31a4e8892,
supermarket,Tempat Penggilingan Beras,UD. Hikmah 2 Agen Beras Bola Dunia,"59FX+MJQ, Mekar Jaya, Tiworo Tengah, Kabupaten Muna, Sulawesi Tenggara","Kabupaten Muna, Sulawesi Tenggara",SULAWESI TENGGARA,,Indonesia, 081258191733,,,-4.8257989,122.3991225,https://maps.google.com/?cid=0x0:0x463cd200611ea982,
supermarket,supermarket,Tiworo Sel.,"Kabupaten Muna, Sulawesi Tenggara","Kabupaten Muna, Sulawesi Tenggara",SULAWESI TENGGARA,,Indonesia,,,,-4.8877531,122.3900901,https://maps.google.com/?cid=0x0:0xb8fa848ebeff23ff,
supermarket,Toko bahan makanan,toko dewi,"498J+HM2, Jln poros desa, Kasimpa Jaya, Tiworo Sel., Kabupaten Muna, Sulawesi Tenggara 93664","Jln poros desa, Kasimpa Jaya, Tiworo Sel., Kabupaten Muna",SULAWESI TENGGARA,93664.0,Indonesia, 082396256531,,,-4.8836033,122.3816481,https://maps.google.com/?cid=0x0:0x6ed945d692f59c75,
supermarket,Toko bahan makanan,Sabil MART,"5CR6+Q3J, Wapae Jaya, Tiworo Tengah, Kabupaten Muna, Sulawesi Tenggara 93653","Wapae Jaya, Tiworo Tengah, Kabupaten Muna",SULAWESI TENGGARA,93653.0,Indonesia,,,,-4.8080445,122.4101517,https://maps.google.com/?cid=0x0:0x18f85335a145d038,
supermarket,Pusat Perbelanjaan,Toko Chici,"5CQ3+XQX, Wapae Jaya, Tiworo Tengah, Kabupaten Muna, Sulawesi Tenggara","Kabupaten Muna, Sulawesi Tenggara",SULAWESI TENGGARA,,Indonesia,,,,-4.8100194,122.4044957,https://maps.google.com/?cid=0x0:0xc29572d74ea57366,
supermarket,Toko Mebel,Mebel Anugrah Center,"5CF2+4GV, Mekar Jaya, Tiworo Tengah, Kabupaten Muna, Sulawesi Tenggara","Kabupaten Muna, Sulawesi Tenggara",SULAWESI TENGGARA,,Indonesia,,,,-4.8271409,122.4013048,https://maps.google.com/?cid=0x0:0x9634743de144b224,
supermarket,Toko umum,Kios izar,"396C+6V2, Tj. Batu, Tanjung Batu, Kabupaten Muna, Sulawesi Tenggara","Kabupaten Muna, Sulawesi Tenggara",SULAWESI TENGGARA,,Indonesia, 081239441006,,,-4.9394953,122.3721559,https://maps.google.com/?cid=0x0:0x6940ebf987d36e62,
supermarket,Toko Alat Berkebun,Darmada Tani,"Sido Makmur, Kec. Tiworo Kepulauan, Kabupaten Muna, Sulawesi Tenggara 93653","Kec. Tiworo Kepulauan, Kabupaten Muna",SULAWESI TENGGARA,93653.0,Indonesia, 085241878828,,,-4.8195059,122.4287084,https://maps.google.com/?cid=0x0:0x2795e948ba2c13d0,
supermarket,Pusat Perbelanjaan,Pasar SP 3,"5CFH+RXG, Wulanga Jaya, Kec. Tiworo Kepulauan, Kabupaten Muna, Sulawesi Tenggara","Kabupaten Muna, Sulawesi Tenggara",SULAWESI TENGGARA,,Indonesia,,,,-4.8254284,122.4299399,https://maps.google.com/?cid=0x0:0x392f228e5a335fd1,
supermarket,Toko Elektronik,VALIN MART,"5CP3+75J, Jl. Poros, Wapae Jaya, Tiworo Tengah, Kabupaten Muna, Sulawesi Tenggara 93653","Jl. Poros, Wapae Jaya, Tiworo Tengah, Kabupaten Muna",SULAWESI TENGGARA,93653.0,Indonesia,,,,-4.8142971,122.402906,https://maps.google.com/?cid=0x0:0xbbd0e8e1a4fc4baa,
supermarket,Toko,Kios Suka Senyum,"5CR4+233, Wapae Jaya, Tiworo Tengah, Kabupaten Muna, Sulawesi Tenggara","Kabupaten Muna, Sulawesi Tenggara",SULAWESI TENGGARA,,Indonesia,,,,-4.8099789,122.4051584,https://maps.google.com/?cid=0x0:0x9b368af7d2a019c6,
supermarket,Tempat Penggilingan Beras,UD. Hikmah 2 Agen Beras Bola Dunia,"59FX+MJQ, Mekar Jaya, Tiworo Tengah, Kabupaten Muna, Sulawesi Tenggara","Kabupaten Muna, Sulawesi Tenggara",SULAWESI TENGGARA,,Indonesia, 081258191733,,,-4.8257989,122.3991225,https://maps.google.com/?cid=0x0:0x463cd200611ea982,
supermarket,Bangunan Bersejarah,Benteng TIWORO,"6C3J+4Q3, Waumere Tiworo kepulauan, Waumere, Barat, Kabupaten Muna, Sulawesi Tenggara 93653","Waumere Tiworo kepulauan, Waumere, Barat, Kabupaten Muna",SULAWESI TENGGARA,93653.0,Indonesia,,,,-4.7972251,122.431931,https://maps.google.com/?cid=0x0:0x680768c9cbd561bf,
supermarket,Toko Swalayan,DAFA Mart,"5CV6+8MV, Desa, Wapae Jaya, Tiworo Tengah, Kabupaten Muna, Sulawesi Tenggara 93653","Desa, Wapae Jaya, Tiworo Tengah, Kabupaten Muna",SULAWESI TENGGARA,93653.0,Indonesia,,,,-4.8066497,122.4116812,https://maps.google.com/?cid=0x0:0x353a5bbda81cfb4e,
supermarket,supermarket,Tiworo Tengah,"Kabupaten Muna, Sulawesi Tenggara","Kabupaten Muna, Sulawesi Tenggara",SULAWESI TENGGARA,,Indonesia,,,,-4.7902626,122.3787597,https://maps.google.com/?cid=0x0:0x185569b801f89ceb,
supermarket,Toko bahan makanan,Sabil MART,"5CR6+Q3J, Wapae Jaya, Tiworo Tengah, Kabupaten Muna, Sulawesi Tenggara 93653","Wapae Jaya, Tiworo Tengah, Kabupaten Muna",SULAWESI TENGGARA,93653.0,Indonesia,,,,-4.8080445,122.4101517,https://maps.google.com/?cid=0x0:0x18f85335a145d038,
supermarket,Minimarket,Indomaret tiworo tengah,"5CR4+425, Wapae Jaya, Tiworo Tengah, Kabupaten Muna, Sulawesi Tenggara 93653","Wapae Jaya, Tiworo Tengah, Kabupaten Muna",SULAWESI TENGGARA,93653.0,Indonesia,,,,-4.8098073,122.4049604,https://maps.google.com/?cid=0x0:0xc808f7acc7ef553,
supermarket,Pusat Perbelanjaan,Toko Chici,"5CQ3+XQX, Wapae Jaya, Tiworo Tengah, Kabupaten Muna, Sulawesi Tenggara","Kabupaten Muna, Sulawesi Tenggara",SULAWESI TENGGARA,,Indonesia,,,,-4.8100194,122.4044957,https://maps.google.com/?cid=0x0:0xc29572d74ea57366,
supermarket,Toko Mebel,Mebel Anugrah Center,"5CF2+4GV, Mekar Jaya, Tiworo Tengah, Kabupaten Muna, Sulawesi Tenggara","Kabupaten Muna, Sulawesi Tenggara",SULAWESI TENGGARA,,Indonesia,,,,-4.8271409,122.4013048,https://maps.google.com/?cid=0x0:0x9634743de144b224,
supermarket,Toko bahan makanan,toko dewi,"498J+HM2, Jln poros desa, Kasimpa Jaya, Tiworo Sel., Kabupaten Muna, Sulawesi Tenggara 93664","Jln poros desa, Kasimpa Jaya, Tiworo Sel., Kabupaten Muna",SULAWESI TENGGARA,93664.0,Indonesia, 082396256531,,,-4.8836033,122.3816481,https://maps.google.com/?cid=0x0:0x6ed945d692f59c75,
supermarket,Tempat Penggilingan Beras,UD. Hikmah 2 Agen Beras Bola Dunia,"59FX+MJQ, Mekar Jaya, Tiworo Tengah, Kabupaten Muna, Sulawesi Tenggara","Kabupaten Muna, Sulawesi Tenggara",SULAWESI TENGGARA,,Indonesia, 081258191733,,,-4.8257989,122.3991225,https://maps.google.com/?cid=0x0:0x463cd200611ea982,
supermarket,Toko Swalayan,DAFA Mart,"5CV6+8MV, Desa, Wapae Jaya, Tiworo Tengah, Kabupaten Muna, Sulawesi Tenggara 93653","Desa, Wapae Jaya, Tiworo Tengah, Kabupaten Muna",SULAWESI TENGGARA,93653.0,Indonesia,,,,-4.8066497,122.4116812,https://maps.google.com/?cid=0x0:0x353a5bbda81cfb4e,
supermarket,Toko Elektronik,VALIN MART,"5CP3+75J, Jl. Poros, Wapae Jaya, Tiworo Tengah, Kabupaten Muna, Sulawesi Tenggara 93653","Jl. Poros, Wapae Jaya, Tiworo Tengah, Kabupaten Muna",SULAWESI TENGGARA,93653.0,Indonesia,,,,-4.8142971,122.402906,https://maps.google.com/?cid=0x0:0xbbd0e8e1a4fc4baa,
supermarket,Toko,Kios Suka Senyum,"5CR4+233, Wapae Jaya, Tiworo Tengah, Kabupaten Muna, Sulawesi Tenggara","Kabupaten Muna, Sulawesi Tenggara",SULAWESI TENGGARA,,Indonesia,,,,-4.8099789,122.4051584,https://maps.google.com/?cid=0x0:0x9b368af7d2a019c6,
supermarket,Toko,Toko Singgih Jaya,"696X+F7, Labukolo, Tiworo Tengah, Kabupaten Muna, Sulawesi Tenggara","Kabupaten Muna, Sulawesi Tenggara",SULAWESI TENGGARA,,Indonesia,,,,-4.7888124,122.3982324,https://maps.google.com/?cid=0x0:0x3b1daa920ee8887e,
supermarket,Toko Alat Berkebun,Darmada Tani,"Sido Makmur, Kec. Tiworo Kepulauan, Kabupaten Muna, Sulawesi Tenggara 93653","Kec. Tiworo Kepulauan, Kabupaten Muna",SULAWESI TENGGARA,93653.0,Indonesia, 085241878828,,,-4.8195059,122.4287084,https://maps.google.com/?cid=0x0:0x2795e948ba2c13d0,
supermarket,supermarket,TOSERBA WULAN MART,"5CQ3+X84, Jl. Poros, Wapae Jaya, Tiworo Tengah, Kabupaten Muna, Sulawesi Tenggara 93653","Jl. Poros, Wapae Jaya, Tiworo Tengah, Kabupaten Muna",SULAWESI TENGGARA,93653.0,Indonesia,,,,-4.8101239,122.4033398,https://maps.google.com/?cid=0x0:0xd4feed122e962550,
supermarket,supermarket,Tiworo Utara,"Kabupaten Muna, Sulawesi Tenggara","Kabupaten Muna, Sulawesi Tenggara",SULAWESI TENGGARA,,Indonesia,,,,-4.6704353,122.373094,https://maps.google.com/?cid=0x0:0xacd624ac1fc2f9d6,
supermarket,Toko bahan makanan,Sabil MART,"5CR6+Q3J, Wapae Jaya, Tiworo Tengah, Kabupaten Muna, Sulawesi Tenggara 93653","Wapae Jaya, Tiworo Tengah, Kabupaten Muna",SULAWESI TENGGARA,93653.0,Indonesia,,,,-4.8080445,122.4101517,https://maps.google.com/?cid=0x0:0x18f85335a145d038,
supermarket,Toko bahan makanan,Rumah Ketut teguh Suarthama,"6C22+43H, Suka Damai, Tiworo Tengah, Kabupaten Muna, Sulawesi Tenggara 93653","Suka Damai, Tiworo Tengah, Kabupaten Muna",SULAWESI TENGGARA,93653.0,Indonesia,,,,-4.8013408,122.3997265,https://maps.google.com/?cid=0x0:0xfa4fdb59bb849f20,
supermarket,Toko Elektronik,VALIN MART,"5CP3+75J, Jl. Poros, Wapae Jaya, Tiworo Tengah, Kabupaten Muna, Sulawesi Tenggara 93653","Jl. Poros, Wapae Jaya, Tiworo Tengah, Kabupaten Muna",SULAWESI TENGGARA,93653.0,Indonesia,,,,-4.8142971,122.402906,https://maps.google.com/?cid=0x0:0xbbd0e8e1a4fc4baa,
supermarket,Toko Swalayan,DAFA Mart,"5CV6+8MV, Desa, Wapae Jaya, Tiworo Tengah, Kabupaten Muna, Sulawesi Tenggara 93653","Desa, Wapae Jaya, Tiworo Tengah, Kabupaten Muna",SULAWESI TENGGARA,93653.0,Indonesia,,,,-4.8066497,122.4116812,https://maps.google.com/?cid=0x0:0x353a5bbda81cfb4e,
supermarket,Toko Alat Berkebun,Darmada Tani,"Sido Makmur, Kec. Tiworo Kepulauan, Kabupaten Muna, Sulawesi Tenggara 93653","Kec. Tiworo Kepulauan, Kabupaten Muna",SULAWESI TENGGARA,93653.0,Indonesia, 085241878828,,,-4.8195059,122.4287084,https://maps.google.com/?cid=0x0:0x2795e948ba2c13d0,
supermarket,Pusat Perbelanjaan,Toko Chici,"5CQ3+XQX, Wapae Jaya, Tiworo Tengah, Kabupaten Muna, Sulawesi Tenggara","Kabupaten Muna, Sulawesi Tenggara",SULAWESI TENGGARA,,Indonesia,,,,-4.8100194,122.4044957,https://maps.google.com/?cid=0x0:0xc29572d74ea57366,
supermarket,Bangunan Bersejarah,Benteng TIWORO,"6C3J+4Q3, Waumere Tiworo kepulauan, Waumere, Barat, Kabupaten Muna, Sulawesi Tenggara 93653","Waumere Tiworo kepulauan, Waumere, Barat, Kabupaten Muna",SULAWESI TENGGARA,93653.0,Indonesia,,,,-4.7972251,122.431931,https://maps.google.com/?cid=0x0:0x680768c9cbd561bf,
supermarket,Toko Mebel,Mebel Anugrah Center,"5CF2+4GV, Mekar Jaya, Tiworo Tengah, Kabupaten Muna, Sulawesi Tenggara","Kabupaten Muna, Sulawesi Tenggara",SULAWESI TENGGARA,,Indonesia,,,,-4.8271409,122.4013048,https://maps.google.com/?cid=0x0:0x9634743de144b224,
supermarket,Toko,Kios Suka Senyum,"5CR4+233, Wapae Jaya, Tiworo Tengah, Kabupaten Muna, Sulawesi Tenggara","Kabupaten Muna, Sulawesi Tenggara",SULAWESI TENGGARA,,Indonesia,,,,-4.8099789,122.4051584,https://maps.google.com/?cid=0x0:0x9b368af7d2a019c6,
supermarket,Pusat Perbelanjaan,Pasar SP 3,"5CFH+RXG, Wulanga Jaya, Kec. Tiworo Kepulauan, Kabupaten Muna, Sulawesi Tenggara","Kabupaten Muna, Sulawesi Tenggara",SULAWESI TENGGARA,,Indonesia,,,,-4.8254284,122.4299399,https://maps.google.com/?cid=0x0:0x392f228e5a335fd1,
supermarket,Toko,Toko Singgih Jaya,"696X+F7, Labukolo, Tiworo Tengah, Kabupaten Muna, Sulawesi Tenggara","Kabupaten Muna, Sulawesi Tenggara",SULAWESI TENGGARA,,Indonesia,,,,-4.7888124,122.3982324,https://maps.google.com/?cid=0x0:0x3b1daa920ee8887e,
supermarket,Hotel,HOTEL AMALYAH Muna Barat,"Barat, Kec. Tiworo Kepulauan, Kabupaten Muna, Sulawesi Tenggara 93653","Kec. Tiworo Kepulauan, Kabupaten Muna",SULAWESI TENGGARA,93653.0,Indonesia, 085255657987,,,-4.7928125,122.4316875,https://maps.google.com/?cid=0x0:0x1d4281c2f02ccf47,
supermarket,Tempat Penggilingan Beras,UD. Hikmah 2 Agen Beras Bola Dunia,"59FX+MJQ, Mekar Jaya, Tiworo Tengah, Kabupaten Muna, Sulawesi Tenggara","Kabupaten Muna, Sulawesi Tenggara",SULAWESI TENGGARA,,Indonesia, 081258191733,,,-4.8257989,122.3991225,https://maps.google.com/?cid=0x0:0x463cd200611ea982,
supermarket,supermarket,Toko Rahmatia,"69RC+XF7, Tondasi, Tiworo Utara, Kabupaten Muna, Sulawesi Tenggara 93653","Tondasi, Tiworo Utara, Kabupaten Muna",SULAWESI TENGGARA,93653.0,Indonesia,,,,-4.7575774,122.3711709,https://maps.google.com/?cid=0x0:0x33f3e5bc757e31eb,
supermarket,supermarket,Kec. Wadaga,"Kabupaten Muna, Sulawesi Tenggara","Kabupaten Muna, Sulawesi Tenggara",SULAWESI TENGGARA,,Indonesia,,,,-4.9157067,122.5304167,https://maps.google.com/?cid=0x0:0xb09250edddcd2e35,
supermarket,Toko Swalayan,Wilda Mart,"Jl. Jend. Ahmad Yani, Wua-Wua, Kec. Wua-Wua, Kota Kendari, Sulawesi Tenggara 93117","Wua-Wua, Kec. Wua-Wua, Kota Kendari",SULAWESI TENGGARA,93117.0,Indonesia, 082293821211,,,-3.9967905,122.4992517,https://maps.google.com/?cid=0x0:0xbd445063685f954f,
supermarket,Toko Swalayan,Marina Swalayan,"Jl. Bunggasi No.9, Anduonohu, Kec. Poasia, Kota Kendari, Sulawesi Tenggara 93231","Anduonohu, Kec. Poasia, Kota Kendari",SULAWESI TENGGARA,93231.0,Indonesia, 04013136567,,,-4.0012756,122.536431,https://maps.google.com/?cid=0x0:0x2510d9cee63c40ac,
supermarket,Minimarket,Ade Swalayan,"Jl. Jenderal M.t. Haryono, Wowawanggu, Kec. Kadia, Kota Kendari, Sulawesi Tenggara 93117","Wowawanggu, Kec. Kadia, Kota Kendari",SULAWESI TENGGARA,93117.0,Indonesia, 04013190888,,,-3.9912288,122.5088802,https://maps.google.com/?cid=0x0:0x97b25e422926c769,
supermarket,Toko,AFIKA JAYA,"3GQM+M99, Lailangga, Kec. Wadaga, Kabupaten Muna, Sulawesi Tenggara","Kabupaten Muna, Sulawesi Tenggara",SULAWESI TENGGARA,,Indonesia,,,,-4.9108385,122.5334864,https://maps.google.com/?cid=0x0:0x21ccb48bb2d80d19,
supermarket,Toko bahan makanan,toko dewi,"498J+HM2, Jln poros desa, Kasimpa Jaya, Tiworo Sel., Kabupaten Muna, Sulawesi Tenggara 93664","Jln poros desa, Kasimpa Jaya, Tiworo Sel., Kabupaten Muna",SULAWESI TENGGARA,93664.0,Indonesia, 082396256531,,,-4.8836033,122.3816481,https://maps.google.com/?cid=0x0:0x6ed945d692f59c75,
supermarket,Toko bahan makanan,TOKO FERI BAHUTARA,"3F4X+W5X, Bahutara, Kec. Kabangka, Kabupaten Muna, Sulawesi Tenggara 93652","Bahutara, Kec. Kabangka, Kabupaten Muna",SULAWESI TENGGARA,93652.0,Indonesia, 081341901866,,,-4.9426397,122.4979888,https://maps.google.com/?cid=0x0:0x5532bd51be39fcad,
supermarket,Toko bahan makanan,Fresh MART,"Jl. Brigjen M. Yoenoes, Wowawanggu, Kec. Kadia, Kota Kendari, Sulawesi Tenggara 93117","Wowawanggu, Kec. Kadia, Kota Kendari",SULAWESI TENGGARA,93117.0,Indonesia, 085241040004,,,-3.9997558,122.5105347,https://maps.google.com/?cid=0x0:0x9e970982552dba7b,
supermarket,Toko bahan makanan,Swalayan Surya,"Jl. Dr. Sam Ratulangi No.87, Korumba, Kec. Mandonga, Kota Kendari, Sulawesi Tenggara 93112","Korumba, Kec. Mandonga, Kota Kendari",SULAWESI TENGGARA,93112.0,Indonesia,,,,-3.9616949,122.5211427,https://maps.google.com/?cid=0x0:0x8f5d13a406f4c805,
supermarket,,MGM Swalayan,"XF7V+M5F, Baruga, Kec. Baruga, Kota Kendari, Sulawesi Tenggara 93116","Baruga, Kec. Baruga, Kota Kendari",SULAWESI TENGGARA,93116.0,Indonesia,,,,-4.035811,122.492925,https://maps.google.com/?cid=0x0:0xe6c9bedbee7779fe,
supermarket,Toko Swalayan,Swalayan Senyum 5000,"Jl. Laode Hadi, Anaiwoi, Kec. Kadia, Kota Kendari, Sulawesi Tenggara 93117","Anaiwoi, Kec. Kadia, Kota Kendari",SULAWESI TENGGARA,93117.0,Indonesia, 081394625321,,,-4.0011687,122.5094767,https://maps.google.com/?cid=0x0:0xce340c37187a1990,
supermarket,Minimarket,Kios Abdillah Cell,"Sawerigadi, Kec. Barangka, muna barat, Sulawesi Tenggara 93652","Kec. Barangka, muna barat",SULAWESI TENGGARA,93652.0,Indonesia, 085255048414,,,-4.8455145,122.5621618,https://maps.google.com/?cid=0x0:0x2660caae661d1ffe,
supermarket,Toko,Swalayan surya mart,"XFWX+8JH, Bonggoeya, Kec. Wua-Wua, Kota Kendari, Sulawesi Tenggara 93117","Bonggoeya, Kec. Wua-Wua, Kota Kendari",SULAWESI TENGGARA,93117.0,Indonesia,,,,-4.0041977,122.499102,https://maps.google.com/?cid=0x0:0x8155bb99db7f370a,
supermarket,Toko,Kios icit,"4HG2+JQM, Watumela, Kec. Lawa, Kabupaten Muna, Sulawesi Tenggara 93652","Watumela, Kec. Lawa, Kabupaten Muna",SULAWESI TENGGARA,93652.0,Indonesia,,,,-4.8734205,122.5519244,https://maps.google.com/?cid=0x0:0x6cb8e3fa68109c2c,
supermarket,Penjaga Rumah,Penjual Ayam potong,"3GPJ+RJR, Lailangga, Kec. Wadaga, Kabupaten Muna, Sulawesi Tenggara","Kabupaten Muna, Sulawesi Tenggara",SULAWESI TENGGARA,,Indonesia,,,,-4.9128752,122.5315258,https://maps.google.com/?cid=0x0:0x9fca705742122160,
supermarket,Toko bahan makanan,ONDOS,"selamat belanja, Indomaret, Selamat datang di, Wua-Wua, Kec. Wua-Wua, Kota Kendari, Sulawesi Tenggara 93117","Indomaret, Selamat datang di, Wua-Wua, Kec. Wua-Wua, Kota Kendari",SULAWESI TENGGARA,93117.0,Indonesia,,,,-4.0030207,122.4969808,https://maps.google.com/?cid=0x0:0x369d61f52706b16c,
supermarket,Rumah Kaca,Usman Maju Bersaudara,"4HF2+5FC, Jl. Pendidikan, Lalemba, Kec. Lawa, Kabupaten Muna, Sulawesi Tenggara 93652","Jl. Pendidikan, Lalemba, Kec. Lawa, Kabupaten Muna",SULAWESI TENGGARA,93652.0,Indonesia,,,,-4.8770596,122.5511447,https://maps.google.com/?cid=0x0:0xb1c8a818a7b0352f,
supermarket,Toko,ALUN JAYA,"4H94+62P, Wamelai(Lambubalano), Kec. Lawa, Kabupaten Muna, Sulawesi Tenggara 93652","Wamelai(Lambubalano), Kec. Lawa, Kabupaten Muna",SULAWESI TENGGARA,93652.0,Indonesia, 082231236137,,,-4.8819106,122.5550906,https://maps.google.com/?cid=0x0:0x6b6ab04c0c3941dc,
supermarket,Minimarket,Kios Abil,"5G3W+JJ6, Lapolea, Kec. Barangka, Kabupaten Muna, Sulawesi Tenggara 93755","Lapolea, Kec. Barangka, Kabupaten Muna",SULAWESI TENGGARA,93755.0,Indonesia, 081242044708,,,-4.8459748,122.5465099,https://maps.google.com/?cid=0x0:0x7a6a9facde3c7af4,
supermarket,Toko,Toko UD. 08,"XGXP+9WM, Jl. Bunggasi, Anduonohu, Kec. Poasia, Kota Kendari, Sulawesi Tenggara 93231","Jl. Bunggasi, Anduonohu, Kec. Poasia, Kota Kendari",SULAWESI TENGGARA,93231.0,Indonesia, 04013094181,,,-4.001545,122.5373,https://maps.google.com/?cid=0x0:0xdf67c42490631c34,
supermarket,Toko Swalayan,Azlan mart,"2FM9+XQQ, Puuwatu, Kec. Puuwatu, Kota Kendari, Sulawesi Tenggara 93114","Puuwatu, Kec. Puuwatu, Kota Kendari",SULAWESI TENGGARA,93114.0,Indonesia,,,,-3.9650315,122.4694934,https://maps.google.com/?cid=0x0:0xfb930c70b5b4c86,
supermarket,Toko Minuman Keras,Ud.88,"Jl. Sorumba No.51, Wowawanggu, Kec. Kadia, Kota Kendari, Sulawesi Tenggara 93117","Wowawanggu, Kec. Kadia, Kota Kendari",SULAWESI TENGGARA,93117.0,Indonesia, 085366948673,,,-3.9956671,122.5049348,https://maps.google.com/?cid=0x0:0xcc60c761e2f80bed,
supermarket,Toko Minuman Keras,UD. DDO,"Jl. Sao Sao No.214, Bende, Kec. Kadia, Kota Kendari, Sulawesi Tenggara 93117","Bende, Kec. Kadia, Kota Kendari",SULAWESI TENGGARA,93117.0,Indonesia, 082214553508,,,-3.9846168,122.5138081,https://maps.google.com/?cid=0x0:0x41596cec8a18a3b0,
supermarket,supermarket,ALDI,"Kasimpa Jaya, Tiworo Sel., Kabupaten Muna, Sulawesi Tenggara","Kabupaten Muna, Sulawesi Tenggara",SULAWESI TENGGARA,,Indonesia,,,,-4.8822723,122.3831589,https://maps.google.com/?cid=0x0:0x4f985e340b01fbeb,
