Category,Real Category,Business Name,Address,City,State,Postal Code,Country,Phone,Email,Website,Latitude,Longitude,Map Link,Details Link
komplek housing,komplek housing,Kec. Barangka,"Kabupaten Muna, Sulawesi Tenggara","Kabupaten Muna, Sulawesi Tenggara",SULAWESI TENGGARA,,Indonesia,,,,-4.8448994,122.5483448,https://maps.google.com/?cid=0x0:0x22374dea68597f27,
komplek housing,Komplek perumahan,Rumah Akbar La ode,"5G2V+PR9, Barangka, Kec. Barangka, Kabupaten Muna, Sulawesi Tenggara 93652","Barangka, Kec. Barangka, Kabupaten Muna",SULAWESI TENGGARA,93652.0,Indonesia,,,,-4.8485121,122.5432648,https://maps.google.com/?cid=0x0:0x1bedaa95555b9516,
komplek housing,Komplek perumahan,Ibo cantik,"5H32+PGX, Barangka, Kec. Barangka, Kabupaten Muna, Sulawesi Tenggara","Kabupaten Muna, Sulawesi Tenggara",SULAWESI TENGGARA,,Indonesia,,,,-4.8456493,122.5513588,https://maps.google.com/?cid=0x0:0x3a5be0bb7d98dfa5,
komplek housing,Komplek perumahan,Rumah Umarrji,"5G2W+JP4, Jl. Barangka-Lawa, Barangka, Kec. Barangka, Kabupaten Muna, Sulawesi Tenggara 93652","Jl. Barangka-Lawa, Barangka, Kec. Barangka, Kabupaten Muna",SULAWESI TENGGARA,93652.0,Indonesia,,,,-4.848483,122.546813,https://maps.google.com/?cid=0x0:0x673c1792cb2047f5,
komplek housing,Komplek perumahan,Home Fatma,"5GV9+8C, Lafinde, Kec. Barangka, Kabupaten Muna, Sulawesi Tenggara","Kabupaten Muna, Sulawesi Tenggara",SULAWESI TENGGARA,,Indonesia,,,,-4.8066867,122.5185981,https://maps.google.com/?cid=0x0:0x6777ecd76c6de41f,
komplek housing,Komplek perumahan,Rumah wulan,"5G4W+MP6, Barangka, Kec. Barangka, Kabupaten Muna, Sulawesi Tenggara","Kabupaten Muna, Sulawesi Tenggara",SULAWESI TENGGARA,,Indonesia,,,,-4.8433449,122.5467728,https://maps.google.com/?cid=0x0:0x2691eff0421d0e39,
komplek housing,Komplek perumahan,Lorong gusi,"5H32+PGX, Barangka, barat, Kabupaten Muna, Sulawesi Tenggara","Kabupaten Muna, Sulawesi Tenggara",SULAWESI TENGGARA,,Indonesia,,,,-4.8456493,122.5513588,https://maps.google.com/?cid=0x0:0xa8b1ab18e722242,
komplek housing,Komplek perumahan,Riski's Home,"5H92+3HM, Lapolea, Kec. Barangka, Kabupaten Muna, Sulawesi Tenggara","Kabupaten Muna, Sulawesi Tenggara",SULAWESI TENGGARA,,Indonesia,,,,-4.832288,122.5514155,https://maps.google.com/?cid=0x0:0xacd3d399789f79ff,
komplek housing,Komplek perumahan,Maral,"5G2W+3J6, Barangka, Kec. Barangka, Kabupaten Muna, Sulawesi Tenggara","Kabupaten Muna, Sulawesi Tenggara",SULAWESI TENGGARA,,Indonesia,,,,-4.850597,122.546658,https://maps.google.com/?cid=0x0:0x21539b83be7fc42c,
komplek housing,komplek housing,RUMAH ASHILLAH AFIQA DAN AKMAL,"6G28+JX5, Lafinde, Kec. Barangka, Kabupaten Muna, Sulawesi Tenggara","Kabupaten Muna, Sulawesi Tenggara",SULAWESI TENGGARA,,Indonesia,,,,-4.7984987,122.5174729,https://maps.google.com/?cid=0x0:0x57be204443004fb1,
komplek housing,Komplek perumahan,Rumah Oman,"5H32+53P, Barangka, Kec. Barangka, Kabupaten Muna, Sulawesi Tenggara","Kabupaten Muna, Sulawesi Tenggara",SULAWESI TENGGARA,,Indonesia,,,,-4.8470301,122.5501943,https://maps.google.com/?cid=0x0:0x1cb7e90934f1f139,
komplek housing,Komplek perumahan,Rumah maman,"Rumah maman Desa Walelei, barat, Kec. Barangka, Kabupaten Muna, Sulawesi Tenggara","Kabupaten Muna, Sulawesi Tenggara",SULAWESI TENGGARA,,Indonesia,,,,-4.8480554,122.5431665,https://maps.google.com/?cid=0x0:0x7f6562eede53807e,
komplek housing,Perumahan,GM Homestay,"4GXW+PFH, Jl. Barangka-Lawa, Latugho, Kec. Lawa, Kabupaten Muna, Sulawesi Tenggara 93652","Jl. Barangka-Lawa, Latugho, Kec. Lawa, Kabupaten Muna",SULAWESI TENGGARA,93652.0,Indonesia,,,,-4.8506836,122.5462404,https://maps.google.com/?cid=0x0:0x6c5fe993be2714a8,
komplek housing,Komplek perumahan,M. KELANA MARAKERMA,"5G2W+3J6, Barangka, Kec. Barangka, Kabupaten Muna, Sulawesi Tenggara","Kabupaten Muna, Sulawesi Tenggara",SULAWESI TENGGARA,,Indonesia,,,,-4.849829,122.5465002,https://maps.google.com/?cid=0x0:0xc5c5b118a12635c7,
komplek housing,Komplek perumahan,Rumah pribadi,"5GPC+C4M, Wuna, Kec. Barangka, Kabupaten Muna, Sulawesi Tenggara 93657","Wuna, Kec. Barangka, Kabupaten Muna",SULAWESI TENGGARA,93657.0,Indonesia,,,,-4.8139227,122.5203019,https://maps.google.com/?cid=0x0:0xa0fb4256504430a1,
komplek housing,komplek housing,Rumah pak karimin,"5H37+P4M, Sawerigadi, Kec. Barangka, Kabupaten Muna, Sulawesi Tenggara","Kabupaten Muna, Sulawesi Tenggara",SULAWESI TENGGARA,,Indonesia,,,,-4.8456658,122.5627993,https://maps.google.com/?cid=0x0:0x3ebeb9f726078a,
komplek housing,komplek housing,Rumah afhad,"4GXW+GCJ, Jl. Barangka-Lawa, Latugho, Kec. Lawa, Kabupaten Muna, Sulawesi Tenggara 93652","Jl. Barangka-Lawa, Latugho, Kec. Lawa, Kabupaten Muna",SULAWESI TENGGARA,93652.0,Indonesia,,,,-4.8509295,122.5457207,https://maps.google.com/?cid=0x0:0x8ee6267854fd8ef7,
komplek housing,Komplek perumahan,Desa Walelei,"Lorong 1, Desa Walelei, Kec. Barangka, Barangka, Barat, Kabupaten Muna, Sulawesi Tenggara 93652","Desa Walelei, Kec. Barangka, Barangka, Barat, Kabupaten Muna",SULAWESI TENGGARA,93652.0,Indonesia,,,,-4.8471384,122.5423575,https://maps.google.com/?cid=0x0:0xfcc9da5d9989cad,
komplek housing,Komplek perumahan,La ute,"5GCW+55W, Bungkolo, Kec. Barangka, Kabupaten Muna, Sulawesi Tenggara","Kabupaten Muna, Sulawesi Tenggara",SULAWESI TENGGARA,,Indonesia,,,,-4.8295129,122.5454615,https://maps.google.com/?cid=0x0:0xd2c75616a1499957,
komplek housing,komplek housing,Rumahnya ustadz La Olo Abdul,"5GCM+MJP, Waulai, Kec. Barangka, Kabupaten Muna, Sulawesi Tenggara 93657","Waulai, Kec. Barangka, Kabupaten Muna",SULAWESI TENGGARA,93657.0,Indonesia,,,,-4.8280954,122.534499,https://maps.google.com/?cid=0x0:0x60cef9b3611f63f2,
komplek housing,Komplek perumahan,RUMAH KECANDUAN ROKOK (JUDI),"6G44+RJ, Kampobalano, Kec. Sawerigadi, Kabupaten Muna, Sulawesi Tenggara","Kabupaten Muna, Sulawesi Tenggara",SULAWESI TENGGARA,,Indonesia,,,,-4.7929609,122.5065883,https://maps.google.com/?cid=0x0:0x1b4477f0d5a004f4,
komplek housing,komplek housing,Barangka,"Marikina City, Metro Manila, Filipina","Marikina City, Metro Manila, Filipina",SULAWESI TENGGARA,,Indonesia,,,,14.6382755,121.0836691,https://maps.google.com/?cid=0x0:0xb06d0bc6c0ed719,
komplek housing,komplek housing,Studio 87,"87 Xavierville Ave, Quezon City, Metro Manila, Filipina","Quezon City, Metro Manila, Filipina",SULAWESI TENGGARA,,Indonesia,,,,14.6345442,121.0720108,https://maps.google.com/?cid=0x0:0xf132305729e9342c,
komplek housing,komplek housing,Sulawesi Tenggara 93655,"Kabupaten Muna, Sulawesi Tenggara","Kabupaten Muna, Sulawesi Tenggara",SULAWESI TENGGARA,,Indonesia,,,,-4.7167048,122.593828,https://maps.google.com/?cid=0x0:0x2099dcc445aba1a5,
komplek housing,Komplek perumahan,Rumah Sahur,"7H69+F84, Konawe, Kec. Kusambi, Kabupaten Muna, Sulawesi Tenggara 93657","Konawe, Kec. Kusambi, Kabupaten Muna",SULAWESI TENGGARA,93657.0,Indonesia,,,,-4.7380114,122.5675351,https://maps.google.com/?cid=0x0:0xed66fc0010899e04,
komplek housing,Komplek perumahan,Rumah limas,"7HC6+F79, Konawe, Kec. Kusambi, Kabupaten Muna, Sulawesi Tenggara","Kabupaten Muna, Sulawesi Tenggara",SULAWESI TENGGARA,,Indonesia,,,,-4.7288398,122.5607314,https://maps.google.com/?cid=0x0:0x9f7bb9feec36dfca,
komplek housing,komplek housing,Home HPK,"7H4C+5R2, Konawe, Kec. Kusambi, Kabupaten Muna, Sulawesi Tenggara 93657","Konawe, Kec. Kusambi, Kabupaten Muna",SULAWESI TENGGARA,93657.0,Indonesia,,,,-4.7446125,122.5720156,https://maps.google.com/?cid=0x0:0xf1aad5263a9e7c40,
komplek housing,Komplek perumahan,Fika home,"6HV4+572, Guali, Kec. Kusambi, Kabupaten Muna, Sulawesi Tenggara","Kabupaten Muna, Sulawesi Tenggara",SULAWESI TENGGARA,,Indonesia,,,,-4.7571232,122.555643,https://maps.google.com/?cid=0x0:0x386e7dfc220755f,
komplek housing,komplek housing,W ise,"7HM4+CRP, Sidamangura, Kec. Kusambi, Kabupaten Muna, Sulawesi Tenggara 93655","Sidamangura, Kec. Kusambi, Kabupaten Muna",SULAWESI TENGGARA,93655.0,Indonesia,,,,-4.7164099,122.5570715,https://maps.google.com/?cid=0x0:0xad33c01c56235ceb,
komplek housing,komplek housing,Rumah Linda,"7H79+24W, Konawe, Kec. Kusambi, Kabupaten Muna, Sulawesi Tenggara","Kabupaten Muna, Sulawesi Tenggara",SULAWESI TENGGARA,,Indonesia,,,,-4.7373998,122.5678129,https://maps.google.com/?cid=0x0:0x6915105e32e73ec0,
komplek housing,Komplek perumahan,TEMPAT PULANG,"6HVH+HPH, Kusambi, Kec. Kusambi, Kabupaten Muna, Sulawesi Tenggara","Kabupaten Muna, Sulawesi Tenggara",SULAWESI TENGGARA,,Indonesia,,,,-4.755847,122.579166,https://maps.google.com/?cid=0x0:0x59c35b90b5fc425f,
komplek housing,Pembangunan Perumahan,Rmh MNIS,"7H87+8RV, Sidamangura, Kec. Kusambi, Kabupaten Muna, Sulawesi Tenggara","Kabupaten Muna, Sulawesi Tenggara",SULAWESI TENGGARA,,Indonesia,,,,-4.7341411,122.5645337,https://maps.google.com/?cid=0x0:0x4ab8e3cd14cf7467,
komplek housing,Kantor distrik,Kelurahan konawe,"7H89+H96, Konawe, Kec. Kusambi, Kabupaten Muna, Sulawesi Tenggara","Kabupaten Muna, Sulawesi Tenggara",SULAWESI TENGGARA,,Indonesia,,,,-4.7335781,122.5683826,https://maps.google.com/?cid=0x0:0x8a3c74ca2cf199f9,
komplek housing,Komplek perumahan,Akbar Cel,"8JP5+258, Kombikuno, Kec. Napano Kusambi, Kabupaten Muna, Sulawesi Tenggara","Kabupaten Muna, Sulawesi Tenggara",SULAWESI TENGGARA,,Indonesia,,,,-4.664961,122.6079616,https://maps.google.com/?cid=0x0:0x90570a37fd8c0a1d,
komplek housing,Komplek perumahan,Rumahnya triya dewi,"7HM4+CRP, Sidamangura, Kec. Kusambi, Kabupaten Muna, Sulawesi Tenggara 93655","Sidamangura, Kec. Kusambi, Kabupaten Muna",SULAWESI TENGGARA,93655.0,Indonesia,,,,-4.7164099,122.5570715,https://maps.google.com/?cid=0x0:0x6dbe654245436fdc,
komplek housing,Perhimpunan Pengembang Perumahan,Lahaji serba ada,"7HXM+HM, Masara, Kec. Napano Kusambi, Kabupaten Muna, Sulawesi Tenggara","Kabupaten Muna, Sulawesi Tenggara",SULAWESI TENGGARA,,Indonesia,,,,-4.701024,122.584231,https://maps.google.com/?cid=0x0:0xd9cda39dcf3e142c,
komplek housing,Komplek perumahan,Muna bwrat,"7H23+3M5, Guali, Kec. Kusambi, Kabupaten Muna, Sulawesi Tenggara","Kabupaten Muna, Sulawesi Tenggara",SULAWESI TENGGARA,,Indonesia,,,,-4.7498688,122.5542435,https://maps.google.com/?cid=0x0:0x83c451b97820b66,
komplek housing,Perhimpunan Pengembang Perumahan,Tangkumaho RATA,"8JFF+2XV, Tangkumaho, Kec. Napano Kusambi, Kabupaten Muna, Sulawesi Tenggara","Kabupaten Muna, Sulawesi Tenggara",SULAWESI TENGGARA,,Indonesia, 082261590085,,,-4.6773787,122.6249195,https://maps.google.com/?cid=0x0:0x20ea861a66549c4a,
komplek housing,Komplek perumahan,Arlisdarlis,"7H2G+X8Q, Konawe, Kec. Kusambi, Kabupaten Muna, Sulawesi Tenggara 93657","Konawe, Kec. Kusambi, Kabupaten Muna",SULAWESI TENGGARA,93657.0,Indonesia,,,,-4.7475316,122.5758618,https://maps.google.com/?cid=0x0:0x9e81d758d229d72a,
komplek housing,Kantor Perusahaan,"Asar, ST","7HF6+6HG, Konawe, Kec. Kusambi, Kabupaten Muna, Sulawesi Tenggara","Kabupaten Muna, Sulawesi Tenggara",SULAWESI TENGGARA,,Indonesia,,,,-4.7269435,122.5614659,https://maps.google.com/?cid=0x0:0x755138c9f4f418aa,
komplek housing,Tempat acara,Gui,"7G3R+2MM, Jl. Lohodu, Guali, Kec. Kusambi, Kabupaten Muna, Sulawesi Tenggara 93653","Jl. Lohodu, Guali, Kec. Kusambi, Kabupaten Muna",SULAWESI TENGGARA,93653.0,Indonesia,,,,-4.7474029,122.5416825,https://maps.google.com/?cid=0x0:0xa4c959c79a0b552,
komplek housing,Komplek perumahan,Muhamad Ikbar,"6J7R+47F, Wakadia, Kec. Watopute, Kabupaten Muna, Sulawesi Tenggara 93656","Wakadia, Kec. Watopute, Kabupaten Muna",SULAWESI TENGGARA,93656.0,Indonesia,,,,-4.787538,122.642677,https://maps.google.com/?cid=0x0:0x6bc092c49188b72,
komplek housing,Komplek perumahan,Rumah iman,"6GX8+GR, Kasakamu, Kec. Kusambi, Kabupaten Muna, Sulawesi Tenggara","Kabupaten Muna, Sulawesi Tenggara",SULAWESI TENGGARA,,Indonesia,,,,-4.7512601,122.5170241,https://maps.google.com/?cid=0x0:0xabd5fd45ef9da543,
komplek housing,komplek housing,Sulawesi,,,SULAWESI TENGGARA,,Indonesia,,,,-1.8479,120.5279,https://maps.google.com/?cid=0x0:0xbc9a51d168f47742,
komplek housing,Komplek perumahan,Pesantren,"8JQ7+7JX, Tangkumaho, Kec. Napano Kusambi, Kabupaten Muna, Sulawesi Tenggara 93654","Tangkumaho, Kec. Napano Kusambi, Kabupaten Muna",SULAWESI TENGGARA,93654.0,Indonesia,,,,-4.6617577,122.6141155,https://maps.google.com/?cid=0x0:0x838442650907ce1c,
komplek housing,Komplek perumahan,DAMLAN GROUP ENTITAS,"7F6Q+WM3, Lemoambo, Kec. Kusambi, Kabupaten Muna, Sulawesi Tenggara 93655","Lemoambo, Kec. Kusambi, Kabupaten Muna",SULAWESI TENGGARA,93655.0,Indonesia,,,,-4.7377343,122.4891791,https://maps.google.com/?cid=0x0:0xc67074d850a724e8,
komplek housing,Perhimpunan Pengembang Perumahan,Rumah Linda,"7H79+248, Sidamangura, Kec. Kusambi, Kabupaten Muna, Sulawesi Tenggara 93655","Sidamangura, Kec. Kusambi, Kabupaten Muna",SULAWESI TENGGARA,93655.0,Indonesia,,,,-4.7374634,122.5678258,https://maps.google.com/?cid=0x0:0x2883f5f2c6c4c9b7,
komplek housing,komplek housing,Kec. Kusambi,"Kabupaten Muna, Sulawesi Tenggara","Kabupaten Muna, Sulawesi Tenggara",SULAWESI TENGGARA,,Indonesia,,,,-4.7288398,122.5607314,https://maps.google.com/?cid=0x0:0xac730f1cf7af000,
komplek housing,Establishment,Ahzavi Residence Pondok Gede,"PW4J+JHQ, Jl. Celepuk I Ujung, RT.012/RW.014, Jatirahayu, Kec. Pd. Melati, Kota Bks, Jawa Barat 17414","Jl. Celepuk I Ujung, RT.012/RW.014, Jatirahayu, Kec. Pd. Melati, Kota Bks",SULAWESI TENGGARA,17414.0,Indonesia,,,,-6.2934194,106.9314803,https://maps.google.com/?cid=0x0:0x7b24a580738077da,
komplek housing,komplek housing,Sulawesi Tenggara 93652,"Kabupaten Muna, Sulawesi Tenggara","Kabupaten Muna, Sulawesi Tenggara",SULAWESI TENGGARA,,Indonesia,,,,-4.8874972,122.5598994,https://maps.google.com/?cid=0x0:0x34e12d7c7d7a4631,
komplek housing,komplek housing,Kec. Lawa,"Kabupaten Muna, Sulawesi Tenggara","Kabupaten Muna, Sulawesi Tenggara",SULAWESI TENGGARA,,Indonesia,,,,-4.881425,122.5563334,https://maps.google.com/?cid=0x0:0xa2f463cababb71b9,
komplek housing,Pembangunan Perumahan,Kalogha Residence,"4H82+83X, Wamelai(Lambubalano), Kec. Lawa, Kabupaten Muna, Sulawesi Tenggara 93652","Wamelai(Lambubalano), Kec. Lawa, Kabupaten Muna",SULAWESI TENGGARA,93652.0,Indonesia,,,,-4.884127,122.5502224,https://maps.google.com/?cid=0x0:0x1fcfe67b64795fe1,
komplek housing,Komplek perumahan,Rumah Rizal,"4HF3+R56, Watumela, Kec. Lawa, Kabupaten Muna, Sulawesi Tenggara 93652","Watumela, Kec. Lawa, Kabupaten Muna",SULAWESI TENGGARA,93652.0,Indonesia,,,,-4.8760007,122.5518676,https://maps.google.com/?cid=0x0:0x596c2a161db72e93,
komplek housing,Komplek perumahan,Rumah Kadir,"4GCX+XR2, Jl. Pendidikan, RT.001/RW.001, Watumela, Kec. Lawa, Kabupaten Muna, Sulawesi Tenggara 93652","Jl. Pendidikan, RT.001/RW.001, Watumela, Kec. Lawa, Kabupaten Muna",SULAWESI TENGGARA,93652.0,Indonesia,,,,-4.8776229,122.5495066,https://maps.google.com/?cid=0x0:0x85dec7a087e51e86,
komplek housing,Komplek perumahan,Rumah irul lambubalano,"4G7X+8Q5, Wamelai(Lambubalano), Kec. Lawa, Kabupaten Muna, Sulawesi Tenggara 93652","Wamelai(Lambubalano), Kec. Lawa, Kabupaten Muna",SULAWESI TENGGARA,93652.0,Indonesia,,,,-4.8867367,122.5494811,https://maps.google.com/?cid=0x0:0x6a6204f0eceb291d,
komplek housing,Perumahan,KIOS FAMILY,"4H95+3CX, Lapadaku, Kec. Lawa, Kabupaten Muna, Sulawesi Tenggara 93652","Lapadaku, Kec. Lawa, Kabupaten Muna",SULAWESI TENGGARA,93652.0,Indonesia,,,,-4.88227,122.5586063,https://maps.google.com/?cid=0x0:0xde9c1975b4edf087,
komplek housing,Perhimpunan Pengembang Perumahan,Rumahnya Atma (Yulia Fatmawati),"4HC3+3HV, Jl. Barangka-Lawa, Lalemba, Kec. Lawa, Kabupaten Muna, Sulawesi Tenggara 93652","Jl. Barangka-Lawa, Lalemba, Kec. Lawa, Kabupaten Muna",SULAWESI TENGGARA,93652.0,Indonesia,,,,-4.879376,122.5543661,https://maps.google.com/?cid=0x0:0x26c0981999d3eb10,
komplek housing,Perhimpunan Pengembang Perumahan,Rumah Ansar,"Waulai, Laworo, Kabupaten Muna, Sulawesi Tenggara 93652","Laworo, Kabupaten Muna",SULAWESI TENGGARA,93652.0,Indonesia,,,,-4.8365744,122.5369014,https://maps.google.com/?cid=0x0:0x1e8446cb2efe5fb5,
komplek housing,Komplek perumahan,Rumah Mitra,"3GVG+4J2, Lasosodo, Kec. Wadaga, Kabupaten Muna, Sulawesi Tenggara 93652","Lasosodo, Kec. Wadaga, Kabupaten Muna",SULAWESI TENGGARA,93652.0,Indonesia,,,,-4.9072311,122.5265157,https://maps.google.com/?cid=0x0:0xf9da9acd1c7a416d,
komplek housing,Komplek perumahan,Rumah Akbar La ode,"5G2V+PR9, Barangka, Kec. Barangka, Kabupaten Muna, Sulawesi Tenggara 93652","Barangka, Kec. Barangka, Kabupaten Muna",SULAWESI TENGGARA,93652.0,Indonesia,,,,-4.8485121,122.5432648,https://maps.google.com/?cid=0x0:0x1bedaa95555b9516,
komplek housing,Komplek perumahan,Rumah Iwan,"4HF4+89G, Lalemba, Kec. Lawa, Kabupaten Muna, Sulawesi Tenggara 93652","Lalemba, Kec. Lawa, Kabupaten Muna",SULAWESI TENGGARA,93652.0,Indonesia,,,,-4.8766939,122.5559637,https://maps.google.com/?cid=0x0:0x1d63ea2402f039eb,
komplek housing,komplek housing,Rumah inak,"3GWF+7V5, 3GWF+7VLasosodoKec, Kec. Wadaga, Kabupaten Muna, Sulawesi Tenggara 93652","3GWF+7VLasosodoKec, Kec. Wadaga, Kabupaten Muna",SULAWESI TENGGARA,93652.0,Indonesia,,,,-4.9043737,122.5247267,https://maps.google.com/?cid=0x0:0x606335ddb1a0a953,
komplek housing,Perumahan,GM Homestay,"4GXW+PFH, Jl. Barangka-Lawa, Latugho, Kec. Lawa, Kabupaten Muna, Sulawesi Tenggara 93652","Jl. Barangka-Lawa, Latugho, Kec. Lawa, Kabupaten Muna",SULAWESI TENGGARA,93652.0,Indonesia,,,,-4.8506836,122.5462404,https://maps.google.com/?cid=0x0:0x6c5fe993be2714a8,
komplek housing,komplek housing,Rumah afhad,"4GXW+GCJ, Jl. Barangka-Lawa, Latugho, Kec. Lawa, Kabupaten Muna, Sulawesi Tenggara 93652","Jl. Barangka-Lawa, Latugho, Kec. Lawa, Kabupaten Muna",SULAWESI TENGGARA,93652.0,Indonesia,,,,-4.8509295,122.5457207,https://maps.google.com/?cid=0x0:0x8ee6267854fd8ef7,
komplek housing,Komplek perumahan,Rumah Kasim,"4HC3+3HV, Jl. Pendidikan, Kel. Wamelai, Kec. Lawa, Barat, Kabupaten Muna, Sulawesi Tenggara 93652","Jl. Pendidikan, Kel. Wamelai, Kec. Lawa, Barat, Kabupaten Muna",SULAWESI TENGGARA,93652.0,Indonesia,,,,-4.8769794,122.5511148,https://maps.google.com/?cid=0x0:0x332f02cc5048e26d,
komplek housing,Komplek perumahan,Rumah La Hakimin,"3GJC+7MV, Lailangga, Kec. Wadaga, Kabupaten Muna, Sulawesi Tenggara 93652","Lailangga, Kec. Wadaga, Kabupaten Muna",SULAWESI TENGGARA,93652.0,Indonesia, 082261594649,,,-4.9188599,122.5218222,https://maps.google.com/?cid=0x0:0x627d7d12cbd98278,
komplek housing,komplek housing,MUHAMMAD RAZAK,"2FXX+RVJ, Lahorio, Kec. Kontu Kowuna, Kabupaten Muna, Sulawesi Tenggara 93652","Lahorio, Kec. Kontu Kowuna, Kabupaten Muna",SULAWESI TENGGARA,93652.0,Indonesia,,,,-4.9504194,122.4996259,https://maps.google.com/?cid=0x0:0x102c32a719d3b355,
komplek housing,Komplek perumahan,Desa Walelei,"Lorong 1, Desa Walelei, Kec. Barangka, Barangka, Barat, Kabupaten Muna, Sulawesi Tenggara 93652","Desa Walelei, Kec. Barangka, Barangka, Barat, Kabupaten Muna",SULAWESI TENGGARA,93652.0,Indonesia,,,,-4.8471384,122.5423575,https://maps.google.com/?cid=0x0:0xfcc9da5d9989cad,
komplek housing,Komplek perumahan,Home'S Farrel Di Sinii,"4HF3+R56, Watumela, Kec. Lawa, Kabupaten Muna, Sulawesi Tenggara 93652","Watumela, Kec. Lawa, Kabupaten Muna",SULAWESI TENGGARA,93652.0,Indonesia,,,,-4.8754608,122.5529003,https://maps.google.com/?cid=0x0:0x7bf824af18ec339,
komplek housing,Komplek perumahan,Pondok Gede Housing II,"Housing II, Jl. Raya Hankam, RT.001/RW.004, Jatirahayu, Pondok Gede, Bekasi, West Java","Kota Bks, Jawa Barat",SULAWESI TENGGARA,,Indonesia,,,,-6.2876701,106.9147674,https://maps.google.com/?cid=0x0:0x2a52e601c20d18f2,
komplek housing,Komplek perumahan,Perumahan housing 2,"Jl. Raya Hankam No.12 Blok U, RT.005/RW.002, Jatirahayu, Kec. Pd. Melati, Kota Bks, Jawa Barat 17414","RT.005/RW.002, Jatirahayu, Kec. Pd. Melati, Kota Bks",SULAWESI TENGGARA,17414.0,Indonesia,,,,-6.287153,106.9155932,https://maps.google.com/?cid=0x0:0x60205f6f07650dd6,
komplek housing,komplek housing,Kec. Maginti,"Kabupaten Muna, Sulawesi Tenggara","Kabupaten Muna, Sulawesi Tenggara",SULAWESI TENGGARA,,Indonesia,,,,-4.8523016,122.3273334,https://maps.google.com/?cid=0x0:0x827d1cf3623f4296,
komplek housing,Komplek perumahan,Rumah Pak TERANG,"49M8+9VM, Abadi Jaya, Kec. Maginti, Kabupaten Muna, Sulawesi Tenggara","Kabupaten Muna, Sulawesi Tenggara",SULAWESI TENGGARA,,Indonesia,,,,-4.8665396,122.3671855,https://maps.google.com/?cid=0x0:0x12c3b1d42cf5664f,
komplek housing,Taman,Dusun masoga,"49G8+MHR, Kembar Maminasa, Kec. Maginti, Kabupaten Muna, Sulawesi Tenggara","Kabupaten Muna, Sulawesi Tenggara",SULAWESI TENGGARA,,Indonesia,,,,-4.8732567,122.3663956,https://maps.google.com/?cid=0x0:0x7637db2881bbad31,
komplek housing,Gedung Apartemen,Rumahnya kahar AK allvlog,"5937+R45, Abadi Jaya, Kec. Maginti, Kabupaten Muna, Sulawesi Tenggara","Kabupaten Muna, Sulawesi Tenggara",SULAWESI TENGGARA,,Indonesia,,,,-4.8449462,122.3635581,https://maps.google.com/?cid=0x0:0xe946dcc7d9ed8b44,
komplek housing,Komplek perumahan,Pangkalan anak muda(pak sunar),"5938+C3, Abadi Jaya, Kec. Maginti, Kabupaten Muna, Sulawesi Tenggara 93653","Abadi Jaya, Kec. Maginti, Kabupaten Muna",SULAWESI TENGGARA,93653.0,Indonesia,,,,-4.8464336,122.3651657,https://maps.google.com/?cid=0x0:0x6113650bdb0a6965,
komplek housing,Komplek perumahan,Ali muzaidi,"5928+C9R, Abadi Jaya, Kec. Maginti, Kabupaten Muna, Sulawesi Tenggara","Kabupaten Muna, Sulawesi Tenggara",SULAWESI TENGGARA,,Indonesia,,,,-4.8488897,122.3658843,https://maps.google.com/?cid=0x0:0xfeda282f406af5a1,
komplek housing,Komplek perumahan,Rumah Risma,"49G2+RG6, Kembar Maminasa, Kec. Maginti, Kabupaten Muna, Sulawesi Tenggara","Kabupaten Muna, Sulawesi Tenggara",SULAWESI TENGGARA,,Indonesia,,,,-4.8729554,122.3512719,https://maps.google.com/?cid=0x0:0x6a20b1f89497a2b5,
komplek housing,Komplek perumahan,Depan rumah pak desa kangkunawe,"556P+V39, Kangkunawe, Kec. Maginti, Kabupaten Muna, Sulawesi Tenggara","Kabupaten Muna, Sulawesi Tenggara",SULAWESI TENGGARA,,Indonesia,,,,-4.8378462,122.1852477,https://maps.google.com/?cid=0x0:0xa58186863fec878c,
komplek housing,komplek housing,Rumah re,"3948+7X9, Komba-Komba, Kec. Kabangka, Kabupaten Muna, Sulawesi Tenggara","Kabupaten Muna, Sulawesi Tenggara",SULAWESI TENGGARA,,Indonesia,,,,-4.9454207,122.3678292,https://maps.google.com/?cid=0x0:0x859498381b6991a,
komplek housing,Komplek perumahan,Rumah Pak Abdul Salam,"597R+579, Mekar Jaya, Tiworo Tengah, Kabupaten Muna, Sulawesi Tenggara","Kabupaten Muna, Sulawesi Tenggara",SULAWESI TENGGARA,,Indonesia,,,,-4.8375613,122.3916913,https://maps.google.com/?cid=0x0:0x9eab124eed51e6c2,
komplek housing,Komplek perumahan,"Rumah Ema, Raha","5CC2+8G, Mekar Jaya, Tiworo Tengah, Kabupaten Muna, Sulawesi Tenggara","Kabupaten Muna, Sulawesi Tenggara",SULAWESI TENGGARA,,Indonesia,,,,-4.8291848,122.4013602,https://maps.google.com/?cid=0x0:0x6371988e9a51d97c,
komplek housing,Komplek perumahan,Rumah keluarga Kadek hita,"49FJ+PM, Kasimpa Jaya, Tiworo Sel., Kabupaten Muna, Sulawesi Tenggara","Kabupaten Muna, Sulawesi Tenggara",SULAWESI TENGGARA,,Indonesia,,,,-4.8757325,122.381694,https://maps.google.com/?cid=0x0:0x44b46bccdf1485d,
komplek housing,Pembangunan Perumahan,Adhy sudiro,"59CW+686, Mekar Jaya, Tiworo Tengah, Kabupaten Muna, Sulawesi Tenggara","Kabupaten Muna, Sulawesi Tenggara",SULAWESI TENGGARA,,Indonesia,,,,-4.8294657,122.3957548,https://maps.google.com/?cid=0x0:0xa35337348eaccebc,
komplek housing,Komplek perumahan,Ferdinandus Ari Saputra,"5986+6W7, Momuntu, Tiworo Tengah, Kabupaten Muna, Sulawesi Tenggara 93653","Momuntu, Tiworo Tengah, Kabupaten Muna",SULAWESI TENGGARA,93653.0,Indonesia,,,,-4.8343952,122.3622757,https://maps.google.com/?cid=0x0:0xbb57a46f8c6123c7,
komplek housing,Komplek perumahan,Rumah Mahmud,"Jalan Poros Desa Abadi Jaya, Lorong 2, RT 2/RW 1, Kecamatan Maginti, Barat, Kabupaten Muna, Sulawesi Tenggara","Kabupaten Muna, Sulawesi Tenggara",SULAWESI TENGGARA,,Indonesia, 082392167036,,,-4.8077478,122.4038239,https://maps.google.com/?cid=0x0:0x75f95b649e2ccad5,
komplek housing,Pembangunan Perumahan,yordan,"5974+4XR, Momuntu, Tiworo Tengah, Kabupaten Muna, Sulawesi Tenggara","Kabupaten Muna, Sulawesi Tenggara",SULAWESI TENGGARA,,Indonesia,,,,-4.8371454,122.3573837,https://maps.google.com/?cid=0x0:0x25e898a1937c038d,
komplek housing,Rumah Kaca,"Made Erna, Gede Silayana","695X+45Q, Jl. Poros, Suka Damai, Tiworo Tengah, Kabupaten Muna, Sulawesi Tenggara 93653","Jl. Poros, Suka Damai, Tiworo Tengah, Kabupaten Muna",SULAWESI TENGGARA,93653.0,Indonesia,,,,-4.7916288,122.3984687,https://maps.google.com/?cid=0x0:0xb814f1ad94fc544b,
komplek housing,Pembangunan Perumahan,Rumah,"4CWW+G7, Lakanaha, Kec. Wadaga, Kabupaten Muna, Sulawesi Tenggara","Kabupaten Muna, Sulawesi Tenggara",SULAWESI TENGGARA,,Indonesia,,,,-4.853666,122.445651,https://maps.google.com/?cid=0x0:0x5b6780e0ffa68e0d,
komplek housing,Komplek perumahan,Rumah Uni,"3948+7X9, Komba-Komba, Kec. Kabangka, Kabupaten Muna, Sulawesi Tenggara","Kabupaten Muna, Sulawesi Tenggara",SULAWESI TENGGARA,,Indonesia,,,,-4.9451394,122.3680289,https://maps.google.com/?cid=0x0:0x3fda9f3e3ec8ef55,
komplek housing,komplek housing,Amd mahapatih home,"6C3J+52X, Waumere, Kec. Tiworo Kepulauan, Kabupaten Muna, Sulawesi Tenggara 93653","Waumere, Kec. Tiworo Kepulauan, Kabupaten Muna",SULAWESI TENGGARA,93653.0,Indonesia,,,,-4.7969781,122.4300499,https://maps.google.com/?cid=0x0:0x4b603821e72e9255,
komplek housing,Komplek perumahan,Rh. jaya,"499Q+96H, Kasimpa Jaya, Tiworo Sel., Kabupaten Muna, Sulawesi Tenggara 93664","Kasimpa Jaya, Tiworo Sel., Kabupaten Muna",SULAWESI TENGGARA,93664.0,Indonesia,,,,-4.881569,122.3881129,https://maps.google.com/?cid=0x0:0x2d06c6332bef06cd,
komplek housing,Komplek perumahan,Desa Kasimpa Jaya,"49GQ+3M6, Unnamed Road, Kasimpa Jaya, Tiworo Sel., Kabupaten Muna, Sulawesi Tenggara","Kabupaten Muna, Sulawesi Tenggara",SULAWESI TENGGARA,,Indonesia,,,,-4.874833,122.389135,https://maps.google.com/?cid=0x0:0x3a8d9348af1a9234,
komplek housing,Komplek perumahan,Rukan Yayat Nurcholid,"2CV2+GW7, Sarimulyo, Kec. Kabangka, Kabupaten Muna, Sulawesi Tenggara 93664","Sarimulyo, Kec. Kabangka, Kabupaten Muna",SULAWESI TENGGARA,93664.0,Indonesia,,,,-4.95622,122.4022992,https://maps.google.com/?cid=0x0:0x10ba636529f47511,
komplek housing,Komplek perumahan,RD BPS1107,"Jln. Gajah Mada Lorong Unta No.7, Sarimulyo, Kec. Kabangka, Kabupaten Muna, Sulawesi Tenggara 93664","Sarimulyo, Kec. Kabangka, Kabupaten Muna",SULAWESI TENGGARA,93664.0,Indonesia,,,,-4.954098,122.4045659,https://maps.google.com/?cid=0x0:0xda8a14c1972bc4aa,
komplek housing,komplek housing,Sulawesi Tenggara 93655,"Kabupaten Muna, Sulawesi Tenggara","Kabupaten Muna, Sulawesi Tenggara",SULAWESI TENGGARA,,Indonesia,,,,-4.7167048,122.593828,https://maps.google.com/?cid=0x0:0x2099dcc445aba1a5,
komplek housing,Komplek perumahan,Rumah Sahur,"7H69+F84, Konawe, Kec. Kusambi, Kabupaten Muna, Sulawesi Tenggara 93657","Konawe, Kec. Kusambi, Kabupaten Muna",SULAWESI TENGGARA,93657.0,Indonesia,,,,-4.7380114,122.5675351,https://maps.google.com/?cid=0x0:0xed66fc0010899e04,
komplek housing,komplek housing,Home HPK,"7H4C+5R2, Konawe, Kec. Kusambi, Kabupaten Muna, Sulawesi Tenggara 93657","Konawe, Kec. Kusambi, Kabupaten Muna",SULAWESI TENGGARA,93657.0,Indonesia,,,,-4.7446125,122.5720156,https://maps.google.com/?cid=0x0:0xf1aad5263a9e7c40,
komplek housing,Komplek perumahan,Rumah limas,"7HC6+F79, Konawe, Kec. Kusambi, Kabupaten Muna, Sulawesi Tenggara","Kabupaten Muna, Sulawesi Tenggara",SULAWESI TENGGARA,,Indonesia,,,,-4.7288398,122.5607314,https://maps.google.com/?cid=0x0:0x9f7bb9feec36dfca,
komplek housing,Komplek perumahan,Rumah Limas,"6HVH+HPH, Kusambi, Kec. Kusambi, Kabupaten Muna, Sulawesi Tenggara","Kabupaten Muna, Sulawesi Tenggara",SULAWESI TENGGARA,,Indonesia,,,,-4.7560579,122.5793448,https://maps.google.com/?cid=0x0:0x8807973ae42f12c,
komplek housing,komplek housing,W ise,"7HM4+CRP, Sidamangura, Kec. Kusambi, Kabupaten Muna, Sulawesi Tenggara 93655","Sidamangura, Kec. Kusambi, Kabupaten Muna",SULAWESI TENGGARA,93655.0,Indonesia,,,,-4.7164099,122.5570715,https://maps.google.com/?cid=0x0:0xad33c01c56235ceb,
komplek housing,Perhimpunan Pengembang Perumahan,Tangkumaho RATA,"8JFF+2XV, Tangkumaho, Kec. Napano Kusambi, Kabupaten Muna, Sulawesi Tenggara","Kabupaten Muna, Sulawesi Tenggara",SULAWESI TENGGARA,,Indonesia, 082261590085,,,-4.6773787,122.6249195,https://maps.google.com/?cid=0x0:0x20ea861a66549c4a,
komplek housing,komplek housing,Rumah Linda,"7H79+24W, Konawe, Kec. Kusambi, Kabupaten Muna, Sulawesi Tenggara","Kabupaten Muna, Sulawesi Tenggara",SULAWESI TENGGARA,,Indonesia,,,,-4.7373998,122.5678129,https://maps.google.com/?cid=0x0:0x6915105e32e73ec0,
komplek housing,Komplek perumahan,Fika home,"6HV4+572, Guali, Kec. Kusambi, Kabupaten Muna, Sulawesi Tenggara","Kabupaten Muna, Sulawesi Tenggara",SULAWESI TENGGARA,,Indonesia,,,,-4.7571232,122.555643,https://maps.google.com/?cid=0x0:0x386e7dfc220755f,
komplek housing,Komplek perumahan,TEMPAT PULANG,"6HVH+HPH, Kusambi, Kec. Kusambi, Kabupaten Muna, Sulawesi Tenggara","Kabupaten Muna, Sulawesi Tenggara",SULAWESI TENGGARA,,Indonesia,,,,-4.755847,122.579166,https://maps.google.com/?cid=0x0:0x59c35b90b5fc425f,
komplek housing,Perhimpunan Pengembang Perumahan,Lahaji serba ada,"7HXM+HM, Masara, Kec. Napano Kusambi, Kabupaten Muna, Sulawesi Tenggara","Kabupaten Muna, Sulawesi Tenggara",SULAWESI TENGGARA,,Indonesia,,,,-4.701024,122.584231,https://maps.google.com/?cid=0x0:0xd9cda39dcf3e142c,
komplek housing,Kantor distrik,Kelurahan konawe,"7H89+H96, Konawe, Kec. Kusambi, Kabupaten Muna, Sulawesi Tenggara","Kabupaten Muna, Sulawesi Tenggara",SULAWESI TENGGARA,,Indonesia,,,,-4.7335781,122.5683826,https://maps.google.com/?cid=0x0:0x8a3c74ca2cf199f9,
komplek housing,Pembangunan Perumahan,Rmh MNIS,"7H87+8RV, Sidamangura, Kec. Kusambi, Kabupaten Muna, Sulawesi Tenggara","Kabupaten Muna, Sulawesi Tenggara",SULAWESI TENGGARA,,Indonesia,,,,-4.7341411,122.5645337,https://maps.google.com/?cid=0x0:0x4ab8e3cd14cf7467,
komplek housing,Komplek perumahan,Rumahnya triya dewi,"7HM4+CRP, Sidamangura, Kec. Kusambi, Kabupaten Muna, Sulawesi Tenggara 93655","Sidamangura, Kec. Kusambi, Kabupaten Muna",SULAWESI TENGGARA,93655.0,Indonesia,,,,-4.7164099,122.5570715,https://maps.google.com/?cid=0x0:0x6dbe654245436fdc,
komplek housing,Komplek perumahan,Rumah kamelia,"8MJ7+WMP, Langkumapo, Kec. Napabalano, Kabupaten Muna, Sulawesi Tenggara","Kabupaten Muna, Sulawesi Tenggara",SULAWESI TENGGARA,,Indonesia,,,,-4.6676663,122.6641915,https://maps.google.com/?cid=0x0:0x4c900abd100b822e,
komplek housing,Perhimpunan Pengembang Perumahan,Rumah Asnur,"8MP5+5Q, Langkumapo, Kec. Napabalano, Kabupaten Muna, Sulawesi Tenggara","Kabupaten Muna, Sulawesi Tenggara",SULAWESI TENGGARA,,Indonesia,,,,-4.6645172,122.6594085,https://maps.google.com/?cid=0x0:0xc571963982d740ca,
komplek housing,Komplek perumahan,Rumah isak latawe,"9J43+HG7, Latawe, Kec. Napano Kusambi, Kabupaten Muna, Sulawesi Tenggara 93654","Latawe, Kec. Napano Kusambi, Kabupaten Muna",SULAWESI TENGGARA,93654.0,Indonesia,,,,-4.6434965,122.603878,https://maps.google.com/?cid=0x0:0x828b3b9e5ca8575f,
komplek housing,Kantor Perusahaan,"Asar, ST","7HF6+6HG, Konawe, Kec. Kusambi, Kabupaten Muna, Sulawesi Tenggara","Kabupaten Muna, Sulawesi Tenggara",SULAWESI TENGGARA,,Indonesia,,,,-4.7269435,122.5614659,https://maps.google.com/?cid=0x0:0x755138c9f4f418aa,
komplek housing,Komplek perumahan,Home angga,"8MP6+9W7, Langkumapo, Kec. Napabalano, Kabupaten Muna, Sulawesi Tenggara 93654","Langkumapo, Kec. Napabalano, Kabupaten Muna",SULAWESI TENGGARA,93654.0,Indonesia,,,,-4.6640791,122.6622935,https://maps.google.com/?cid=0x0:0x799419c76261f289,
komplek housing,Komplek perumahan,Arlisdarlis,"7H2G+X8Q, Konawe, Kec. Kusambi, Kabupaten Muna, Sulawesi Tenggara 93657","Konawe, Kec. Kusambi, Kabupaten Muna",SULAWESI TENGGARA,93657.0,Indonesia,,,,-4.7475316,122.5758618,https://maps.google.com/?cid=0x0:0x9e81d758d229d72a,
komplek housing,komplek housing,Kec. Napano Kusambi,"Kabupaten Muna, Sulawesi Tenggara","Kabupaten Muna, Sulawesi Tenggara",SULAWESI TENGGARA,,Indonesia,,,,-4.6433553,122.6042369,https://maps.google.com/?cid=0x0:0xdb7657c54fbd1ae3,
komplek housing,Komplek perumahan,Pesantren,"8JQ7+7JX, Tangkumaho, Kec. Napano Kusambi, Kabupaten Muna, Sulawesi Tenggara 93654","Tangkumaho, Kec. Napano Kusambi, Kabupaten Muna",SULAWESI TENGGARA,93654.0,Indonesia,,,,-4.6617577,122.6141155,https://maps.google.com/?cid=0x0:0x838442650907ce1c,
komplek housing,Perhimpunan Pengembang Perumahan,Rumah Linda,"7H79+248, Sidamangura, Kec. Kusambi, Kabupaten Muna, Sulawesi Tenggara 93655","Sidamangura, Kec. Kusambi, Kabupaten Muna",SULAWESI TENGGARA,93655.0,Indonesia,,,,-4.7374634,122.5678258,https://maps.google.com/?cid=0x0:0x2883f5f2c6c4c9b7,
komplek housing,komplek housing,Alim,"8JQ7+W3Q, Unnamed Road, Tangkumaho, Napano Kusambi, Kombikuno, Barat, Kabupaten Muna, Sulawesi Tenggara 93654","Unnamed Road, Tangkumaho, Napano Kusambi, Kombikuno, Barat, Kabupaten Muna",SULAWESI TENGGARA,93654.0,Indonesia,,,,-4.6601606,122.6127323,https://maps.google.com/?cid=0x0:0x3e4272b55a1cb289,
komplek housing,komplek housing,Sulawesi Tenggara 93657,"Kabupaten Muna, Sulawesi Tenggara","Kabupaten Muna, Sulawesi Tenggara",SULAWESI TENGGARA,,Indonesia,,,,-4.8269737,122.5259596,https://maps.google.com/?cid=0x0:0x6227f17791af231c,
komplek housing,komplek housing,Sawerigading,"Kec. Ujung Pandang, Kota Makassar, Sulawesi Selatan","Kota Makassar, Sulawesi Selatan",SULAWESI TENGGARA,,Indonesia,,,,-5.1405135,119.4146041,https://maps.google.com/?cid=0x0:0xd660dde0f3eb73d9,
komplek housing,komplek housing,Kec. Sawerigadi,"Kabupaten Muna, Sulawesi Tenggara","Kabupaten Muna, Sulawesi Tenggara",SULAWESI TENGGARA,,Indonesia,,,,-4.7903102,122.491523,https://maps.google.com/?cid=0x0:0xc0b7ac172b281750,
komplek housing,komplek housing,Kec. Tiworo Kepulauan,"Kabupaten Muna, Sulawesi Tenggara","Kabupaten Muna, Sulawesi Tenggara",SULAWESI TENGGARA,,Indonesia,,,,-4.7783688,122.4353995,https://maps.google.com/?cid=0x0:0xb9b9310dc3cd9cb5,
komplek housing,Pembangunan Perumahan,Rumah Ø¹Ø¨Ø¯Ø§ÙÙÙ,"595Q+9PM, Mekar Jaya, Tiworo Tengah, Kabupaten Muna, Sulawesi Tenggara","Kabupaten Muna, Sulawesi Tenggara",SULAWESI TENGGARA,,Indonesia,,,,-4.8415462,122.389309,https://maps.google.com/?cid=0x0:0x9a17bd25a7466f16,
komplek housing,Komplek perumahan,Perumahan Bumi Laworo Permai,"6FCJ+CQ, Lombu Jaya, Kec. Sawerigadi, Kabupaten Muna, Sulawesi Tenggara","Kabupaten Muna, Sulawesi Tenggara",SULAWESI TENGGARA,,Indonesia, 082194442202,,,-4.7789575,122.4819713,https://maps.google.com/?cid=0x0:0x13cd7d3395f743f9,
komplek housing,komplek housing,Syarif,"6F38+282, Laworo, Kec. Tiworo Kepulauan, Kabupaten Muna, Sulawesi Tenggara 93653","Laworo, Kec. Tiworo Kepulauan, Kabupaten Muna",SULAWESI TENGGARA,93653.0,Indonesia,,,,-4.7974773,122.4657734,https://maps.google.com/?cid=0x0:0x3ea8ae0d4770d5f3,
komplek housing,Perumahan rakyat,Rumah kepala Muhammadiyah muna barat,"6C3J+52X, Waumere, Kec. Tiworo Kepulauan, Kabupaten Muna, Sulawesi Tenggara 93653","Waumere, Kec. Tiworo Kepulauan, Kabupaten Muna",SULAWESI TENGGARA,93653.0,Indonesia,,,,-4.797058,122.4296397,https://maps.google.com/?cid=0x0:0xfff6bafe8f7a828a,
komplek housing,komplek housing,Haikal,"6C89+G97, Waumere, Kec. Tiworo Kepulauan, Kabupaten Muna, Sulawesi Tenggara 93653","Waumere, Kec. Tiworo Kepulauan, Kabupaten Muna",SULAWESI TENGGARA,93653.0,Indonesia,,,,-4.7837168,122.4184108,https://maps.google.com/?cid=0x0:0x528e630e87455be0,
komplek housing,Pembangunan Perumahan,Rumah Laode Suhardin,"6C3P+292, Jl. Poros, Tiworo, Kec. Tiworo Kepulauan, Kabupaten Muna, Sulawesi Tenggara 93653","Jl. Poros, Tiworo, Kec. Tiworo Kepulauan, Kabupaten Muna",SULAWESI TENGGARA,93653.0,Indonesia,,,,-4.798563,122.4370182,https://maps.google.com/?cid=0x0:0x61479bfe2db163bb,
komplek housing,,Wedding Puji  Yusro,"5C9J+RW7, Jl. Karaeng Galesong, Sido Makmur, Kec. Tiworo Kepulauan, Kabupaten Muna, Sulawesi Tenggara","Kabupaten Muna, Sulawesi Tenggara",SULAWESI TENGGARA,,Indonesia,,,,-4.8304716,122.4323002,https://maps.google.com/?cid=0x0:0x3af1584a0eaf50a9,
komplek housing,Gedung Apartemen,RUMAH WIJAYA,"5CRW+97J, Wandoke, Kec. Tiworo Kepulauan, Kabupaten Muna, Sulawesi Tenggara 93653","Wandoke, Kec. Tiworo Kepulauan, Kabupaten Muna",SULAWESI TENGGARA,93653.0,Indonesia,,,,-4.8090261,122.4456347,https://maps.google.com/?cid=0x0:0xa8a3d389d98a18b5,
komplek housing,komplek housing,Amd mahapatih home,"6C3J+52X, Waumere, Kec. Tiworo Kepulauan, Kabupaten Muna, Sulawesi Tenggara 93653","Waumere, Kec. Tiworo Kepulauan, Kabupaten Muna",SULAWESI TENGGARA,93653.0,Indonesia,,,,-4.7969781,122.4300499,https://maps.google.com/?cid=0x0:0x4b603821e72e9255,
komplek housing,Dinas Kesehatan,Desa Waturempe,"6C9W+8C, Waturempe, Kec. Tiworo Kepulauan, Kabupaten Muna, Sulawesi Tenggara","Kabupaten Muna, Sulawesi Tenggara",SULAWESI TENGGARA,,Indonesia,,,,-4.7816996,122.4460444,https://maps.google.com/?cid=0x0:0xd192850fc86c065a,
komplek housing,Komplek perumahan,Rumah Rahman Baido,"5FX6+RX, Laworo, Kec. Tiworo Kepulauan, Kabupaten Muna, Sulawesi Tenggara","Kabupaten Muna, Sulawesi Tenggara",SULAWESI TENGGARA,,Indonesia,,,,-4.8004147,122.4624059,https://maps.google.com/?cid=0x0:0xad0735fd3a3a7542,
komplek housing,Komplek perumahan,Rumah MILA,"5FM2+H99, Wandoke, Kec. Tiworo Kepulauan, Kabupaten Muna, Sulawesi Tenggara 93653","Wandoke, Kec. Tiworo Kepulauan, Kabupaten Muna",SULAWESI TENGGARA,93653.0,Indonesia,,,,-4.816076,122.4509999,https://maps.google.com/?cid=0x0:0xc80f855233ca9f9c,
komplek housing,Rumah Kaca,Rumah Putu Sartika,"5CGM+Q6J, Wulanga Jaya, Kec. Tiworo Kepulauan, Kabupaten Muna, Sulawesi Tenggara 93653","Wulanga Jaya, Kec. Tiworo Kepulauan, Kabupaten Muna",SULAWESI TENGGARA,93653.0,Indonesia,,,,-4.8230286,122.4330055,https://maps.google.com/?cid=0x0:0x8aaae58cf767ec0,
komplek housing,Komplek perumahan,Rumah Abenk,"6C4J+VPC, Tiworo, Kec. Tiworo Kepulauan, Kabupaten Muna, Sulawesi Tenggara","Kabupaten Muna, Sulawesi Tenggara",SULAWESI TENGGARA,,Indonesia,,,,-4.792899,122.43198,https://maps.google.com/?cid=0x0:0x5e29b2b679ba6865,
komplek housing,Komplek perumahan,rumah SILOSARI,"69PQ+52V, Tondasi, Tiworo Tengah, Kabupaten Muna, Sulawesi Tenggara","Kabupaten Muna, Sulawesi Tenggara",SULAWESI TENGGARA,,Indonesia,,,,-4.7645224,122.3875384,https://maps.google.com/?cid=0x0:0xb2992d61f84d5ff7,
komplek housing,Komplek perumahan,Rumah aci,"5CQX+2CF, Wandoke, Kec. Tiworo Kepulauan, Kabupaten Muna, Sulawesi Tenggara 93653","Wandoke, Kec. Tiworo Kepulauan, Kabupaten Muna",SULAWESI TENGGARA,93653.0,Indonesia,,,,-4.8124259,122.4485355,https://maps.google.com/?cid=0x0:0xdf80301515e31648,
komplek housing,Kios,Bayu cell,"6CHW+7X, Waturempe, Kec. Tiworo Kepulauan, Kabupaten Muna, Sulawesi Tenggara","Kabupaten Muna, Sulawesi Tenggara",SULAWESI TENGGARA,,Indonesia, 082348163856,,,-4.771752,122.44742,https://maps.google.com/?cid=0x0:0x1427ffec0465ac96,
komplek housing,Komplek perumahan,Rumah Komang mujana,"5CW3+8P3, Suka Damai, Tiworo Tengah, Kabupaten Muna, Sulawesi Tenggara 93653","Suka Damai, Tiworo Tengah, Kabupaten Muna",SULAWESI TENGGARA,93653.0,Indonesia,,,,-4.804228,122.4042859,https://maps.google.com/?cid=0x0:0x82ad40d6af8b8fc2,
komplek housing,komplek housing,Rumah papss,"6F49+G2, Laworo, Kec. Tiworo Kepulauan, Kabupaten Muna, Sulawesi Tenggara","Kabupaten Muna, Sulawesi Tenggara",SULAWESI TENGGARA,,Indonesia,,,,-4.7936115,122.467574,https://maps.google.com/?cid=0x0:0x91e63f1b8213d823,
komplek housing,Pembangunan Perumahan,Perbatasan wandoke sama lakalamba,"5CVV+7H2, Wandoke, Kec. Tiworo Kepulauan, Kabupaten Muna, Sulawesi Tenggara 93653","Wandoke, Kec. Tiworo Kepulauan, Kabupaten Muna",SULAWESI TENGGARA,93653.0,Indonesia,,,,-4.8068578,122.4438929,https://maps.google.com/?cid=0x0:0x11c39ec86257ac70,
komplek housing,Komplek perumahan,Rumah Mom's,"6F2F+XJM, Laworo, Kec. Sawerigadi, Kabupaten Muna, Sulawesi Tenggara 93653","Laworo, Kec. Sawerigadi, Kabupaten Muna",SULAWESI TENGGARA,93653.0,Indonesia,,,,-4.797549,122.4740462,https://maps.google.com/?cid=0x0:0x1d33d64e42f2cf5e,
komplek housing,Komplek perumahan,La Ode Hudia,"59RW+8RV, Wapae Jaya, Tiworo Tengah, Kabupaten Muna, Sulawesi Tenggara 93653","Wapae Jaya, Tiworo Tengah, Kabupaten Muna",SULAWESI TENGGARA,93653.0,Indonesia,,,,-4.8084137,122.3972892,https://maps.google.com/?cid=0x0:0x453b76692e3a433,
komplek housing,Komplek perumahan,RUMAH BARA,"6F2F+XJM, Laworo, Kec. Sawerigadi, Kabupaten Muna, Sulawesi Tenggara 93653","Laworo, Kec. Sawerigadi, Kabupaten Muna",SULAWESI TENGGARA,93653.0,Indonesia,,,,-4.7970998,122.473552,https://maps.google.com/?cid=0x0:0x2cc7d7a37444d1d3,
komplek housing,,Warondo,"6F2W+9QP, Kampobalano, Kec. Sawerigadi, Kabupaten Muna, Sulawesi Tenggara 93653","Kampobalano, Kec. Sawerigadi, Kabupaten Muna",SULAWESI TENGGARA,93653.0,Indonesia,,,,-4.7990321,122.4969606,https://maps.google.com/?cid=0x0:0x2e1cf97a38f1209,
komplek housing,Komplek perumahan,Rumah Taufan,"5FM7+6F8, Lakalamba, Kec. Sawerigadi, Kabupaten Muna, Sulawesi Tenggara 93653","Lakalamba, Kec. Sawerigadi, Kabupaten Muna",SULAWESI TENGGARA,93653.0,Indonesia,,,,-4.8169655,122.463697,https://maps.google.com/?cid=0x0:0xff69a5784f75d267,
komplek housing,komplek housing,Pak dusun,"69FW+H8R, Labukolo, Tiworo Tengah, Kabupaten Muna, Sulawesi Tenggara 93653","Labukolo, Tiworo Tengah, Kabupaten Muna",SULAWESI TENGGARA,93653.0,Indonesia,,,,-4.7760064,122.3957548,https://maps.google.com/?cid=0x0:0x57488a2fd47b49ba,
komplek housing,Komplek perumahan,Rumah Okta,"59PF+V69, Langku-Langku, Tiworo Tengah, Kabupaten Muna, Sulawesi Tenggara 93653","Langku-Langku, Tiworo Tengah, Kabupaten Muna",SULAWESI TENGGARA,93653.0,Indonesia,,,,-4.8128407,122.373094,https://maps.google.com/?cid=0x0:0xb23ea3c5c1ce4be3,
komplek housing,Komplek perumahan,Rumah pak makmur,"5C4V+FMP, Lawada Jaya, Kec. Sawerigadi, Kabupaten Muna, Sulawesi Tenggara 93653","Lawada Jaya, Kec. Sawerigadi, Kabupaten Muna",SULAWESI TENGGARA,93653.0,Indonesia,,,,-4.8444258,122.443684,https://maps.google.com/?cid=0x0:0x8357c147fcc5cdb3,
komplek housing,komplek housing,Tiworo Sel.,"Kabupaten Muna, Sulawesi Tenggara","Kabupaten Muna, Sulawesi Tenggara",SULAWESI TENGGARA,,Indonesia,,,,-4.8877531,122.3900901,https://maps.google.com/?cid=0x0:0xb8fa848ebeff23ff,
komplek housing,Komplek perumahan,Rumah Pak Abdul Salam,"597R+579, Mekar Jaya, Tiworo Tengah, Kabupaten Muna, Sulawesi Tenggara","Kabupaten Muna, Sulawesi Tenggara",SULAWESI TENGGARA,,Indonesia,,,,-4.8375613,122.3916913,https://maps.google.com/?cid=0x0:0x9eab124eed51e6c2,
komplek housing,Pembangunan Perumahan,Rumah Ø¹Ø¨Ø¯Ø§ÙÙÙ,"595Q+9PM, Mekar Jaya, Tiworo Tengah, Kabupaten Muna, Sulawesi Tenggara","Kabupaten Muna, Sulawesi Tenggara",SULAWESI TENGGARA,,Indonesia,,,,-4.8415462,122.389309,https://maps.google.com/?cid=0x0:0x9a17bd25a7466f16,
komplek housing,Komplek perumahan,Rumah keluarga Kadek hita,"49FJ+PM, Kasimpa Jaya, Tiworo Sel., Kabupaten Muna, Sulawesi Tenggara","Kabupaten Muna, Sulawesi Tenggara",SULAWESI TENGGARA,,Indonesia,,,,-4.8757325,122.381694,https://maps.google.com/?cid=0x0:0x44b46bccdf1485d,
komplek housing,Pembangunan Perumahan,Rumah,"4CWW+G7, Lakanaha, Kec. Wadaga, Kabupaten Muna, Sulawesi Tenggara","Kabupaten Muna, Sulawesi Tenggara",SULAWESI TENGGARA,,Indonesia,,,,-4.853666,122.445651,https://maps.google.com/?cid=0x0:0x5b6780e0ffa68e0d,
komplek housing,Komplek perumahan,Kasimpa jaya,"498M+HQ7, Poros, Kasimpa Jaya, Tiworo Sel., Kabupaten Muna, Sulawesi Tenggara","Kabupaten Muna, Sulawesi Tenggara",SULAWESI TENGGARA,,Indonesia,,,,-4.8835949,122.384425,https://maps.google.com/?cid=0x0:0x499670baaedd688,
komplek housing,Komplek perumahan,Rumah Ari,"498J+GCP, Kasimpa Jaya, Tiworo Sel., Kabupaten Muna, Sulawesi Tenggara","Kabupaten Muna, Sulawesi Tenggara",SULAWESI TENGGARA,,Indonesia,,,,-4.8836503,122.3810776,https://maps.google.com/?cid=0x0:0x3a81302400bf0616,
komplek housing,Komplek perumahan,"Rumah Ema, Raha","5CC2+8G, Mekar Jaya, Tiworo Tengah, Kabupaten Muna, Sulawesi Tenggara","Kabupaten Muna, Sulawesi Tenggara",SULAWESI TENGGARA,,Indonesia,,,,-4.8291848,122.4013602,https://maps.google.com/?cid=0x0:0x6371988e9a51d97c,
komplek housing,Komplek perumahan,Desa Kasimpa Jaya,"49GQ+3M6, Unnamed Road, Kasimpa Jaya, Tiworo Sel., Kabupaten Muna, Sulawesi Tenggara","Kabupaten Muna, Sulawesi Tenggara",SULAWESI TENGGARA,,Indonesia,,,,-4.874833,122.389135,https://maps.google.com/?cid=0x0:0x3a8d9348af1a9234,
komplek housing,Komplek perumahan,Rumah Pak TERANG,"49M8+9VM, Abadi Jaya, Kec. Maginti, Kabupaten Muna, Sulawesi Tenggara","Kabupaten Muna, Sulawesi Tenggara",SULAWESI TENGGARA,,Indonesia,,,,-4.8665396,122.3671855,https://maps.google.com/?cid=0x0:0x12c3b1d42cf5664f,
komplek housing,komplek housing,Rumah Datok Masrudin Said,"4CWW+H85, Lawada Jaya, Kec. Wadaga, Kabupaten Muna, Sulawesi Tenggara","Kabupaten Muna, Sulawesi Tenggara",SULAWESI TENGGARA,,Indonesia,,,,-4.8536158,122.445859,https://maps.google.com/?cid=0x0:0x7c9001559ca93e1c,
komplek housing,komplek housing,Rumah re,"3948+7X9, Komba-Komba, Kec. Kabangka, Kabupaten Muna, Sulawesi Tenggara","Kabupaten Muna, Sulawesi Tenggara",SULAWESI TENGGARA,,Indonesia,,,,-4.9454207,122.3678292,https://maps.google.com/?cid=0x0:0x859498381b6991a,
komplek housing,Komplek perumahan,Eaak eaakkk,"4CX3+68X, Parura Jaya, Tiworo Sel., Kabupaten Muna, Sulawesi Tenggara","Kabupaten Muna, Sulawesi Tenggara",SULAWESI TENGGARA,,Indonesia,,,,-4.8518844,122.403359,https://maps.google.com/?cid=0x0:0x332c00d429c07f1b,
komplek housing,Pembangunan Perumahan,Adhy sudiro,"59CW+686, Mekar Jaya, Tiworo Tengah, Kabupaten Muna, Sulawesi Tenggara","Kabupaten Muna, Sulawesi Tenggara",SULAWESI TENGGARA,,Indonesia,,,,-4.8294657,122.3957548,https://maps.google.com/?cid=0x0:0xa35337348eaccebc,
komplek housing,Taman,Dusun masoga,"49G8+MHR, Kembar Maminasa, Kec. Maginti, Kabupaten Muna, Sulawesi Tenggara","Kabupaten Muna, Sulawesi Tenggara",SULAWESI TENGGARA,,Indonesia,,,,-4.8732567,122.3663956,https://maps.google.com/?cid=0x0:0x7637db2881bbad31,
komplek housing,Gedung Apartemen,RUMAH WIJAYA,"5CRW+97J, Wandoke, Kec. Tiworo Kepulauan, Kabupaten Muna, Sulawesi Tenggara 93653","Wandoke, Kec. Tiworo Kepulauan, Kabupaten Muna",SULAWESI TENGGARA,93653.0,Indonesia,,,,-4.8090261,122.4456347,https://maps.google.com/?cid=0x0:0xa8a3d389d98a18b5,
komplek housing,Komplek perumahan,Rumah Okta,"59PF+V69, Langku-Langku, Tiworo Tengah, Kabupaten Muna, Sulawesi Tenggara 93653","Langku-Langku, Tiworo Tengah, Kabupaten Muna",SULAWESI TENGGARA,93653.0,Indonesia,,,,-4.8128407,122.373094,https://maps.google.com/?cid=0x0:0xb23ea3c5c1ce4be3,
komplek housing,Pembangunan Perumahan,yordan,"5974+4XR, Momuntu, Tiworo Tengah, Kabupaten Muna, Sulawesi Tenggara","Kabupaten Muna, Sulawesi Tenggara",SULAWESI TENGGARA,,Indonesia,,,,-4.8371454,122.3573837,https://maps.google.com/?cid=0x0:0x25e898a1937c038d,
komplek housing,,Wedding Puji  Yusro,"5C9J+RW7, Jl. Karaeng Galesong, Sido Makmur, Kec. Tiworo Kepulauan, Kabupaten Muna, Sulawesi Tenggara","Kabupaten Muna, Sulawesi Tenggara",SULAWESI TENGGARA,,Indonesia,,,,-4.8304716,122.4323002,https://maps.google.com/?cid=0x0:0x3af1584a0eaf50a9,
komplek housing,Komplek perumahan,La Ode Hudia,"59RW+8RV, Wapae Jaya, Tiworo Tengah, Kabupaten Muna, Sulawesi Tenggara 93653","Wapae Jaya, Tiworo Tengah, Kabupaten Muna",SULAWESI TENGGARA,93653.0,Indonesia,,,,-4.8084137,122.3972892,https://maps.google.com/?cid=0x0:0x453b76692e3a433,
komplek housing,komplek housing,Tiworo Tengah,"Kabupaten Muna, Sulawesi Tenggara","Kabupaten Muna, Sulawesi Tenggara",SULAWESI TENGGARA,,Indonesia,,,,-4.7902626,122.3787597,https://maps.google.com/?cid=0x0:0x185569b801f89ceb,
komplek housing,Pembangunan Perumahan,Rumah Ø¹Ø¨Ø¯Ø§ÙÙÙ,"595Q+9PM, Mekar Jaya, Tiworo Tengah, Kabupaten Muna, Sulawesi Tenggara","Kabupaten Muna, Sulawesi Tenggara",SULAWESI TENGGARA,,Indonesia,,,,-4.8415462,122.389309,https://maps.google.com/?cid=0x0:0x9a17bd25a7466f16,
komplek housing,Rumah Kaca,"Made Erna, Gede Silayana","695X+45Q, Jl. Poros, Suka Damai, Tiworo Tengah, Kabupaten Muna, Sulawesi Tenggara 93653","Jl. Poros, Suka Damai, Tiworo Tengah, Kabupaten Muna",SULAWESI TENGGARA,93653.0,Indonesia,,,,-4.7916288,122.3984687,https://maps.google.com/?cid=0x0:0xb814f1ad94fc544b,
komplek housing,Komplek perumahan,rumah SILOSARI,"69PQ+52V, Tondasi, Tiworo Tengah, Kabupaten Muna, Sulawesi Tenggara","Kabupaten Muna, Sulawesi Tenggara",SULAWESI TENGGARA,,Indonesia,,,,-4.7645224,122.3875384,https://maps.google.com/?cid=0x0:0xb2992d61f84d5ff7,
komplek housing,Komplek perumahan,Rumah Okta,"59PF+V69, Langku-Langku, Tiworo Tengah, Kabupaten Muna, Sulawesi Tenggara 93653","Langku-Langku, Tiworo Tengah, Kabupaten Muna",SULAWESI TENGGARA,93653.0,Indonesia,,,,-4.8128407,122.373094,https://maps.google.com/?cid=0x0:0xb23ea3c5c1ce4be3,
komplek housing,komplek housing,Pak dusun,"69FW+H8R, Labukolo, Tiworo Tengah, Kabupaten Muna, Sulawesi Tenggara 93653","Labukolo, Tiworo Tengah, Kabupaten Muna",SULAWESI TENGGARA,93653.0,Indonesia,,,,-4.7760064,122.3957548,https://maps.google.com/?cid=0x0:0x57488a2fd47b49ba,
komplek housing,Pembangunan Perumahan,yordan,"5974+4XR, Momuntu, Tiworo Tengah, Kabupaten Muna, Sulawesi Tenggara","Kabupaten Muna, Sulawesi Tenggara",SULAWESI TENGGARA,,Indonesia,,,,-4.8371454,122.3573837,https://maps.google.com/?cid=0x0:0x25e898a1937c038d,
komplek housing,Pembangunan Perumahan,Adhy sudiro,"59CW+686, Mekar Jaya, Tiworo Tengah, Kabupaten Muna, Sulawesi Tenggara","Kabupaten Muna, Sulawesi Tenggara",SULAWESI TENGGARA,,Indonesia,,,,-4.8294657,122.3957548,https://maps.google.com/?cid=0x0:0xa35337348eaccebc,
komplek housing,Komplek perumahan,Rumah Komang mujana,"5CW3+8P3, Suka Damai, Tiworo Tengah, Kabupaten Muna, Sulawesi Tenggara 93653","Suka Damai, Tiworo Tengah, Kabupaten Muna",SULAWESI TENGGARA,93653.0,Indonesia,,,,-4.804228,122.4042859,https://maps.google.com/?cid=0x0:0x82ad40d6af8b8fc2,
komplek housing,Komplek perumahan,La Ode Hudia,"59RW+8RV, Wapae Jaya, Tiworo Tengah, Kabupaten Muna, Sulawesi Tenggara 93653","Wapae Jaya, Tiworo Tengah, Kabupaten Muna",SULAWESI TENGGARA,93653.0,Indonesia,,,,-4.8084137,122.3972892,https://maps.google.com/?cid=0x0:0x453b76692e3a433,
komplek housing,komplek housing,Rumah Bidan Nunun,"5CM3+HGC, Jl Diponegoro Timur, Wapae Jaya, Tiworo Tengah, Kabupaten Muna, Sulawesi Tenggara","Kabupaten Muna, Sulawesi Tenggara",SULAWESI TENGGARA,,Indonesia,,,,-4.8160728,122.4037527,https://maps.google.com/?cid=0x0:0xbc6dcebeac800853,
komplek housing,Komplek perumahan,Ferdinandus Ari Saputra,"5986+6W7, Momuntu, Tiworo Tengah, Kabupaten Muna, Sulawesi Tenggara 93653","Momuntu, Tiworo Tengah, Kabupaten Muna",SULAWESI TENGGARA,93653.0,Indonesia,,,,-4.8343952,122.3622757,https://maps.google.com/?cid=0x0:0xbb57a46f8c6123c7,
komplek housing,komplek housing,Haikal,"6C89+G97, Waumere, Kec. Tiworo Kepulauan, Kabupaten Muna, Sulawesi Tenggara 93653","Waumere, Kec. Tiworo Kepulauan, Kabupaten Muna",SULAWESI TENGGARA,93653.0,Indonesia,,,,-4.7837168,122.4184108,https://maps.google.com/?cid=0x0:0x528e630e87455be0,
komplek housing,Perumahan rakyat,Rumah kepala Muhammadiyah muna barat,"6C3J+52X, Waumere, Kec. Tiworo Kepulauan, Kabupaten Muna, Sulawesi Tenggara 93653","Waumere, Kec. Tiworo Kepulauan, Kabupaten Muna",SULAWESI TENGGARA,93653.0,Indonesia,,,,-4.797058,122.4296397,https://maps.google.com/?cid=0x0:0xfff6bafe8f7a828a,
komplek housing,Komplek perumahan,"Rumah Ema, Raha","5CC2+8G, Mekar Jaya, Tiworo Tengah, Kabupaten Muna, Sulawesi Tenggara","Kabupaten Muna, Sulawesi Tenggara",SULAWESI TENGGARA,,Indonesia,,,,-4.8291848,122.4013602,https://maps.google.com/?cid=0x0:0x6371988e9a51d97c,
komplek housing,Balai Pertemuan Desa,Desa langku-langku,"59RX+CMJ, Wapae Jaya, Tiworo Tengah, Kabupaten Muna, Sulawesi Tenggara","Kabupaten Muna, Sulawesi Tenggara",SULAWESI TENGGARA,,Indonesia,,,,-4.8088361,122.3981578,https://maps.google.com/?cid=0x0:0x337abce897a5dfaf,
komplek housing,Komplek perumahan,RM.NANDA TRI ATMA NEGARA,"694V+59, Labukolo, Tiworo Tengah, Kabupaten Muna, Sulawesi Tenggara","Kabupaten Muna, Sulawesi Tenggara",SULAWESI TENGGARA,,Indonesia,,,,-4.7945625,122.3934375,https://maps.google.com/?cid=0x0:0x4be7097dddc81687,
komplek housing,Komplek perumahan,LA ODE A.H MARZUKI,"59RW+FRV, Langku-Langku, Tiworo Tengah, Barat, Kabupaten Muna, Sulawesi Tenggara","Kabupaten Muna, Sulawesi Tenggara",SULAWESI TENGGARA,,Indonesia,,,,-4.8087729,122.3970462,https://maps.google.com/?cid=0x0:0x435f2ebdd89745ef,
komplek housing,komplek housing,Amd mahapatih home,"6C3J+52X, Waumere, Kec. Tiworo Kepulauan, Kabupaten Muna, Sulawesi Tenggara 93653","Waumere, Kec. Tiworo Kepulauan, Kabupaten Muna",SULAWESI TENGGARA,93653.0,Indonesia,,,,-4.7969781,122.4300499,https://maps.google.com/?cid=0x0:0x4b603821e72e9255,
komplek housing,Pembangunan Perumahan,Rumah Laode Suhardin,"6C3P+292, Jl. Poros, Tiworo, Kec. Tiworo Kepulauan, Kabupaten Muna, Sulawesi Tenggara 93653","Jl. Poros, Tiworo, Kec. Tiworo Kepulauan, Kabupaten Muna",SULAWESI TENGGARA,93653.0,Indonesia,,,,-4.798563,122.4370182,https://maps.google.com/?cid=0x0:0x61479bfe2db163bb,
komplek housing,Rumah Kaca,Rumah Putu Sartika,"5CGM+Q6J, Wulanga Jaya, Kec. Tiworo Kepulauan, Kabupaten Muna, Sulawesi Tenggara 93653","Wulanga Jaya, Kec. Tiworo Kepulauan, Kabupaten Muna",SULAWESI TENGGARA,93653.0,Indonesia,,,,-4.8230286,122.4330055,https://maps.google.com/?cid=0x0:0x8aaae58cf767ec0,
komplek housing,Komplek perumahan,Pangkalan anak muda(pak sunar),"5938+C3, Abadi Jaya, Kec. Maginti, Kabupaten Muna, Sulawesi Tenggara 93653","Abadi Jaya, Kec. Maginti, Kabupaten Muna",SULAWESI TENGGARA,93653.0,Indonesia,,,,-4.8464336,122.3651657,https://maps.google.com/?cid=0x0:0x6113650bdb0a6965,
komplek housing,Gedung Apartemen,RUMAH WIJAYA,"5CRW+97J, Wandoke, Kec. Tiworo Kepulauan, Kabupaten Muna, Sulawesi Tenggara 93653","Wandoke, Kec. Tiworo Kepulauan, Kabupaten Muna",SULAWESI TENGGARA,93653.0,Indonesia,,,,-4.8090261,122.4456347,https://maps.google.com/?cid=0x0:0xa8a3d389d98a18b5,
komplek housing,komplek housing,Tiworo Utara,"Kabupaten Muna, Sulawesi Tenggara","Kabupaten Muna, Sulawesi Tenggara",SULAWESI TENGGARA,,Indonesia,,,,-4.6704353,122.373094,https://maps.google.com/?cid=0x0:0xacd624ac1fc2f9d6,
komplek housing,Pembangunan Perumahan,Rumah Ø¹Ø¨Ø¯Ø§ÙÙÙ,"595Q+9PM, Mekar Jaya, Tiworo Tengah, Kabupaten Muna, Sulawesi Tenggara","Kabupaten Muna, Sulawesi Tenggara",SULAWESI TENGGARA,,Indonesia,,,,-4.8415462,122.389309,https://maps.google.com/?cid=0x0:0x9a17bd25a7466f16,
komplek housing,Komplek perumahan,Adil anak lorong,"98HM+GJ9, Tasipi, Tiworo Utara, Kabupaten Muna, Sulawesi Tenggara","Kabupaten Muna, Sulawesi Tenggara",SULAWESI TENGGARA,,Indonesia,,,,-4.621216,122.3341051,https://maps.google.com/?cid=0x0:0x2f9f9263eec27ecb,
komplek housing,Rumah Kaca,"Made Erna, Gede Silayana","695X+45Q, Jl. Poros, Suka Damai, Tiworo Tengah, Kabupaten Muna, Sulawesi Tenggara 93653","Jl. Poros, Suka Damai, Tiworo Tengah, Kabupaten Muna",SULAWESI TENGGARA,93653.0,Indonesia,,,,-4.7916288,122.3984687,https://maps.google.com/?cid=0x0:0xb814f1ad94fc544b,
komplek housing,Komplek perumahan,rumah SILOSARI,"69PQ+52V, Tondasi, Tiworo Tengah, Kabupaten Muna, Sulawesi Tenggara","Kabupaten Muna, Sulawesi Tenggara",SULAWESI TENGGARA,,Indonesia,,,,-4.7645224,122.3875384,https://maps.google.com/?cid=0x0:0xb2992d61f84d5ff7,
komplek housing,Perumahan,Tondasi,"69XJ+3JW, Tondasi, Tiworo Utara, Kabupaten Muna, Sulawesi Tenggara","Kabupaten Muna, Sulawesi Tenggara",SULAWESI TENGGARA,,Indonesia,,,,-4.7522661,122.3815924,https://maps.google.com/?cid=0x0:0xc5ddbce6d636dd3a,
komplek housing,komplek housing,Haikal,"6C89+G97, Waumere, Kec. Tiworo Kepulauan, Kabupaten Muna, Sulawesi Tenggara 93653","Waumere, Kec. Tiworo Kepulauan, Kabupaten Muna",SULAWESI TENGGARA,93653.0,Indonesia,,,,-4.7837168,122.4184108,https://maps.google.com/?cid=0x0:0x528e630e87455be0,
komplek housing,komplek housing,Pak dusun,"69FW+H8R, Labukolo, Tiworo Tengah, Kabupaten Muna, Sulawesi Tenggara 93653","Labukolo, Tiworo Tengah, Kabupaten Muna",SULAWESI TENGGARA,93653.0,Indonesia,,,,-4.7760064,122.3957548,https://maps.google.com/?cid=0x0:0x57488a2fd47b49ba,
komplek housing,Komplek perumahan,Rumah Pak Abdul Salam,"597R+579, Mekar Jaya, Tiworo Tengah, Kabupaten Muna, Sulawesi Tenggara","Kabupaten Muna, Sulawesi Tenggara",SULAWESI TENGGARA,,Indonesia,,,,-4.8375613,122.3916913,https://maps.google.com/?cid=0x0:0x9eab124eed51e6c2,
komplek housing,Komplek perumahan,Rumah Okta,"59PF+V69, Langku-Langku, Tiworo Tengah, Kabupaten Muna, Sulawesi Tenggara 93653","Langku-Langku, Tiworo Tengah, Kabupaten Muna",SULAWESI TENGGARA,93653.0,Indonesia,,,,-4.8128407,122.373094,https://maps.google.com/?cid=0x0:0xb23ea3c5c1ce4be3,
komplek housing,Perumahan rakyat,Rumah kepala Muhammadiyah muna barat,"6C3J+52X, Waumere, Kec. Tiworo Kepulauan, Kabupaten Muna, Sulawesi Tenggara 93653","Waumere, Kec. Tiworo Kepulauan, Kabupaten Muna",SULAWESI TENGGARA,93653.0,Indonesia,,,,-4.797058,122.4296397,https://maps.google.com/?cid=0x0:0xfff6bafe8f7a828a,
komplek housing,Pembangunan Perumahan,Rumah Laode Suhardin,"6C3P+292, Jl. Poros, Tiworo, Kec. Tiworo Kepulauan, Kabupaten Muna, Sulawesi Tenggara 93653","Jl. Poros, Tiworo, Kec. Tiworo Kepulauan, Kabupaten Muna",SULAWESI TENGGARA,93653.0,Indonesia,,,,-4.798563,122.4370182,https://maps.google.com/?cid=0x0:0x61479bfe2db163bb,
komplek housing,komplek housing,Amd mahapatih home,"6C3J+52X, Waumere, Kec. Tiworo Kepulauan, Kabupaten Muna, Sulawesi Tenggara 93653","Waumere, Kec. Tiworo Kepulauan, Kabupaten Muna",SULAWESI TENGGARA,93653.0,Indonesia,,,,-4.7969781,122.4300499,https://maps.google.com/?cid=0x0:0x4b603821e72e9255,
komplek housing,Komplek perumahan,ihsan,"8CP3+C6, Santiri, Kabupaten Muna, Sulawesi Tenggara","Kabupaten Muna, Sulawesi Tenggara",SULAWESI TENGGARA,,Indonesia,,,,-4.6639491,122.4030261,https://maps.google.com/?cid=0x0:0x64154b493f1497cd,
komplek housing,Gedung Apartemen,RUMAH WIJAYA,"5CRW+97J, Wandoke, Kec. Tiworo Kepulauan, Kabupaten Muna, Sulawesi Tenggara 93653","Wandoke, Kec. Tiworo Kepulauan, Kabupaten Muna",SULAWESI TENGGARA,93653.0,Indonesia,,,,-4.8090261,122.4456347,https://maps.google.com/?cid=0x0:0xa8a3d389d98a18b5,
komplek housing,Komplek perumahan,Rumah Komang mujana,"5CW3+8P3, Suka Damai, Tiworo Tengah, Kabupaten Muna, Sulawesi Tenggara 93653","Suka Damai, Tiworo Tengah, Kabupaten Muna",SULAWESI TENGGARA,93653.0,Indonesia,,,,-4.804228,122.4042859,https://maps.google.com/?cid=0x0:0x82ad40d6af8b8fc2,
komplek housing,Komplek perumahan,La Ode Hudia,"59RW+8RV, Wapae Jaya, Tiworo Tengah, Kabupaten Muna, Sulawesi Tenggara 93653","Wapae Jaya, Tiworo Tengah, Kabupaten Muna",SULAWESI TENGGARA,93653.0,Indonesia,,,,-4.8084137,122.3972892,https://maps.google.com/?cid=0x0:0x453b76692e3a433,
komplek housing,Komplek perumahan,As'ad,"8CP3+6J8, Pulau Mandike, Desa Tiga, Barat, Kabupaten Muna, Sulawesi Tenggara","Kabupaten Muna, Sulawesi Tenggara",SULAWESI TENGGARA,,Indonesia,,,,-4.664461,122.4040803,https://maps.google.com/?cid=0x0:0x4a90dd4f8fef973e,
komplek housing,Rumah Kaca,Rumah Putu Sartika,"5CGM+Q6J, Wulanga Jaya, Kec. Tiworo Kepulauan, Kabupaten Muna, Sulawesi Tenggara 93653","Wulanga Jaya, Kec. Tiworo Kepulauan, Kabupaten Muna",SULAWESI TENGGARA,93653.0,Indonesia,,,,-4.8230286,122.4330055,https://maps.google.com/?cid=0x0:0x8aaae58cf767ec0,
komplek housing,Komplek perumahan,Ferdinandus Ari Saputra,"5986+6W7, Momuntu, Tiworo Tengah, Kabupaten Muna, Sulawesi Tenggara 93653","Momuntu, Tiworo Tengah, Kabupaten Muna",SULAWESI TENGGARA,93653.0,Indonesia,,,,-4.8343952,122.3622757,https://maps.google.com/?cid=0x0:0xbb57a46f8c6123c7,
komplek housing,komplek housing,Kec. Wadaga,"Kabupaten Muna, Sulawesi Tenggara","Kabupaten Muna, Sulawesi Tenggara",SULAWESI TENGGARA,,Indonesia,,,,-4.9157067,122.5304167,https://maps.google.com/?cid=0x0:0xb09250edddcd2e35,
komplek housing,Pembangunan Perumahan,Rumah,"4CWW+G7, Lakanaha, Kec. Wadaga, Kabupaten Muna, Sulawesi Tenggara","Kabupaten Muna, Sulawesi Tenggara",SULAWESI TENGGARA,,Indonesia,,,,-4.853666,122.445651,https://maps.google.com/?cid=0x0:0x5b6780e0ffa68e0d,
komplek housing,Kantor Pemerintah,Desa lailangga,"3GMJ+P53, Lailangga, Kec. Wadaga, Kabupaten Muna, Sulawesi Tenggara 93652","Lailangga, Kec. Wadaga, Kabupaten Muna",SULAWESI TENGGARA,93652.0,Indonesia,,,,-4.9157406,122.5304317,https://maps.google.com/?cid=0x0:0x42f5fedb6d11e797,
komplek housing,komplek housing,Rumah inak,"3GWF+7V5, 3GWF+7VLasosodoKec, Kec. Wadaga, Kabupaten Muna, Sulawesi Tenggara 93652","3GWF+7VLasosodoKec, Kec. Wadaga, Kabupaten Muna",SULAWESI TENGGARA,93652.0,Indonesia,,,,-4.9043737,122.5247267,https://maps.google.com/?cid=0x0:0x606335ddb1a0a953,
komplek housing,Komplek perumahan,Lorong asri,"3GQG+4J, Lailangga, Kec. Wadaga, Kabupaten Muna, Sulawesi Tenggara","Kabupaten Muna, Sulawesi Tenggara",SULAWESI TENGGARA,,Indonesia,,,,-4.9121739,122.5265633,https://maps.google.com/?cid=0x0:0xc964d6f1b3b3e764,
komplek housing,Pembangunan Perumahan,Kalogha Residence,"4H82+83X, Wamelai(Lambubalano), Kec. Lawa, Kabupaten Muna, Sulawesi Tenggara 93652","Wamelai(Lambubalano), Kec. Lawa, Kabupaten Muna",SULAWESI TENGGARA,93652.0,Indonesia,,,,-4.884127,122.5502224,https://maps.google.com/?cid=0x0:0x1fcfe67b64795fe1,
komplek housing,Komplek perumahan,Rumah Asra,"3G58+HX9, Lembo, Kec. Kontu Kowuna, Kabupaten Muna, Sulawesi Tenggara 93652","Lembo, Kec. Kontu Kowuna, Kabupaten Muna",SULAWESI TENGGARA,93652.0,Indonesia,,,,-4.9410877,122.5174729,https://maps.google.com/?cid=0x0:0x874a96c9f6da8462,
komplek housing,komplek housing,Rumah Datok Masrudin Said,"4CWW+H85, Lawada Jaya, Kec. Wadaga, Kabupaten Muna, Sulawesi Tenggara","Kabupaten Muna, Sulawesi Tenggara",SULAWESI TENGGARA,,Indonesia,,,,-4.8536158,122.445859,https://maps.google.com/?cid=0x0:0x7c9001559ca93e1c,
komplek housing,Komplek perumahan,Rumah wa haeno,"3G52+GRP, Lembo, Kec. Kontu Kowuna, Kabupaten Muna, Sulawesi Tenggara 93652","Lembo, Kec. Kontu Kowuna, Kabupaten Muna",SULAWESI TENGGARA,93652.0,Indonesia,,,,-4.9411671,122.5020855,https://maps.google.com/?cid=0x0:0xb7fbed588ed3a74b,
komplek housing,Komplek perumahan,Waadje,"5G3V+WM, Barangka, Kec. Barangka, Kabupaten Muna, Sulawesi Tenggara","Kabupaten Muna, Sulawesi Tenggara",SULAWESI TENGGARA,,Indonesia,,,,-4.845157,122.544229,https://maps.google.com/?cid=0x0:0x465fa9754b661e82,
komplek housing,komplek housing,HOME ADI,"2FWX+CH6, Lahorio, Kec. Kontu Kowuna, Kabupaten Muna, Sulawesi Tenggara 93652","Lahorio, Kec. Kontu Kowuna, Kabupaten Muna",SULAWESI TENGGARA,93652.0,Indonesia,,,,-4.9538809,122.4984518,https://maps.google.com/?cid=0x0:0xcb54ad4485a78f1,
komplek housing,Komplek perumahan,Rumah Mitra,"3GVG+4J2, Lasosodo, Kec. Wadaga, Kabupaten Muna, Sulawesi Tenggara 93652","Lasosodo, Kec. Wadaga, Kabupaten Muna",SULAWESI TENGGARA,93652.0,Indonesia,,,,-4.9072311,122.5265157,https://maps.google.com/?cid=0x0:0xf9da9acd1c7a416d,
komplek housing,Komplek perumahan,Rumah la setia,"3FV7+HF8, Kampani, Kec. Wadaga, Kabupaten Muna, Sulawesi Tenggara 93652","Kampani, Kec. Wadaga, Kabupaten Muna",SULAWESI TENGGARA,93652.0,Indonesia,,,,-4.9060875,122.463708,https://maps.google.com/?cid=0x0:0x49c3eec88a2b296a,
komplek housing,Masjid,muna barat,"4GGR+R29, Wamelai(Lambubalano), Kec. Lawa, Kabupaten Muna, Sulawesi Tenggara 93652","Wamelai(Lambubalano), Kec. Lawa, Kabupaten Muna",SULAWESI TENGGARA,93652.0,Indonesia,,,,-4.8729742,122.5401025,https://maps.google.com/?cid=0x0:0x335994cbe76c0858,
komplek housing,Komplek perumahan,Rumah ALAF,"3GJG+P3, Lailangga, Kec. Wadaga, Kabupaten Muna, Sulawesi Tenggara","Kabupaten Muna, Sulawesi Tenggara",SULAWESI TENGGARA,,Indonesia,,,,-4.9181855,122.525181,https://maps.google.com/?cid=0x0:0xcee968df3302b02,
komplek housing,komplek housing,HABIBI,"2FXX+HQF, Lahorio, Kec. Kontu Kowuna, Kabupaten Muna, Sulawesi Tenggara 93652","Lahorio, Kec. Kontu Kowuna, Kabupaten Muna",SULAWESI TENGGARA,93652.0,Indonesia,,,,-4.9504134,122.4996437,https://maps.google.com/?cid=0x0:0xe6964d50544b120f,
komplek housing,Komplek perumahan,Hasna,"3F3X+Q89, Bahutara, Kec. Kontu Kowuna, Kabupaten Muna, Sulawesi Tenggara 93652","Bahutara, Kec. Kontu Kowuna, Kabupaten Muna",SULAWESI TENGGARA,93652.0,Indonesia,,,,-4.945937,122.498964,https://maps.google.com/?cid=0x0:0xaaf84c87b231bef8,
komplek housing,Komplek perumahan,Rumah Fadil,"3G63+VRJ, Lembo, Kec. Kontu Kowuna, Kabupaten Muna, Sulawesi Tenggara 93652","Lembo, Kec. Kontu Kowuna, Kabupaten Muna",SULAWESI TENGGARA,93652.0,Indonesia,,,,-4.9377973,122.5045307,https://maps.google.com/?cid=0x0:0xe484b90d95faff24,
komplek housing,Komplek perumahan,Rumah Akbar La ode,"5G2V+PR9, Barangka, Kec. Barangka, Kabupaten Muna, Sulawesi Tenggara 93652","Barangka, Kec. Barangka, Kabupaten Muna",SULAWESI TENGGARA,93652.0,Indonesia,,,,-4.8485121,122.5432648,https://maps.google.com/?cid=0x0:0x1bedaa95555b9516,
komplek housing,Komplek perumahan,Rumah Nurdianjia,"4F4H+84Q, Katobu, Kec. Wadaga, Kabupaten Muna, Sulawesi Tenggara","Kabupaten Muna, Sulawesi Tenggara",SULAWESI TENGGARA,,Indonesia,,,,-4.8941691,122.4778593,https://maps.google.com/?cid=0x0:0xfe76d102c63063bf,
komplek housing,Komplek perumahan,Rumah andi ajih,"3G63+G6, Kafoo-Foo, Kec. Kontu Kowuna, Kabupaten Muna, Sulawesi Tenggara","Kabupaten Muna, Sulawesi Tenggara",SULAWESI TENGGARA,,Indonesia,,,,-4.9386452,122.5031035,https://maps.google.com/?cid=0x0:0x2f3e4bad57fc871d,
komplek housing,komplek housing,MUHAMMAD RAZAK,"2FXX+RVJ, Lahorio, Kec. Kontu Kowuna, Kabupaten Muna, Sulawesi Tenggara 93652","Lahorio, Kec. Kontu Kowuna, Kabupaten Muna",SULAWESI TENGGARA,93652.0,Indonesia,,,,-4.9504194,122.4996259,https://maps.google.com/?cid=0x0:0x102c32a719d3b355,
perumahan,perumahan,Kec. Barangka,"Kabupaten Muna, Sulawesi Tenggara","Kabupaten Muna, Sulawesi Tenggara",SULAWESI TENGGARA,,Indonesia,,,,-4.8448994,122.5483448,https://maps.google.com/?cid=0x0:0x22374dea68597f27,
perumahan,Komplek perumahan,Rumah Akbar La ode,"5G2V+PR9, Barangka, Kec. Barangka, Kabupaten Muna, Sulawesi Tenggara 93652","Barangka, Kec. Barangka, Kabupaten Muna",SULAWESI TENGGARA,93652.0,Indonesia,,,,-4.8485121,122.5432648,https://maps.google.com/?cid=0x0:0x1bedaa95555b9516,
perumahan,Komplek perumahan,Lorong 3 Desa Lapolea,"5G2W+4FW, Jalan, Barangka, Lawa, Muna Regency, South East Sulawesi 93652","Jalan, Barangka, Lawa, Muna Regency",SULAWESI TENGGARA,93652.0,Indonesia,,,,-4.8496259,122.5462082,https://maps.google.com/?cid=0x0:0x6e7d1cdf78c55631,
perumahan,Komplek perumahan,Waadje,"5G3V+WM, Barangka, Kec. Barangka, Kabupaten Muna, Sulawesi Tenggara","Kabupaten Muna, Sulawesi Tenggara",SULAWESI TENGGARA,,Indonesia,,,,-4.845157,122.544229,https://maps.google.com/?cid=0x0:0x465fa9754b661e82,
perumahan,Komplek perumahan,Malili Kowala,"5G3X+WC4, Barangka, Kec. Barangka, Kabupaten Muna, Sulawesi Tenggara 93755","Barangka, Kec. Barangka, Kabupaten Muna",SULAWESI TENGGARA,93755.0,Indonesia,,,,-4.8452697,122.54865,https://maps.google.com/?cid=0x0:0x2bcb615a1b6fc06b,
perumahan,Komplek perumahan,Rumah wulan,"5G4W+MP6, Barangka, Kec. Barangka, Kabupaten Muna, Sulawesi Tenggara","Kabupaten Muna, Sulawesi Tenggara",SULAWESI TENGGARA,,Indonesia,,,,-4.8433449,122.5467728,https://maps.google.com/?cid=0x0:0x2691eff0421d0e39,
perumahan,Komplek perumahan,Rumah maman,"Rumah maman Desa Walelei, barat, Kec. Barangka, Kabupaten Muna, Sulawesi Tenggara","Kabupaten Muna, Sulawesi Tenggara",SULAWESI TENGGARA,,Indonesia,,,,-4.8480554,122.5431665,https://maps.google.com/?cid=0x0:0x7f6562eede53807e,
perumahan,Komplek perumahan,GM Home Stay,"Jl. Barangka-Lawa, Latugho, Kec. Lawa, Kabupaten Muna, Sulawesi Tenggara 93652","Latugho, Kec. Lawa, Kabupaten Muna",SULAWESI TENGGARA,93652.0,Indonesia, 085396233117,,,-4.8506836,122.5462404,https://maps.google.com/?cid=0x0:0xb6383bb4c903d933,
perumahan,Komplek perumahan,Ibo cantik,"5H32+PGX, Barangka, Kec. Barangka, Kabupaten Muna, Sulawesi Tenggara","Kabupaten Muna, Sulawesi Tenggara",SULAWESI TENGGARA,,Indonesia,,,,-4.8456493,122.5513588,https://maps.google.com/?cid=0x0:0x3a5be0bb7d98dfa5,
perumahan,Komplek perumahan,Rumah Oman,"5H32+53P, Barangka, Kec. Barangka, Kabupaten Muna, Sulawesi Tenggara","Kabupaten Muna, Sulawesi Tenggara",SULAWESI TENGGARA,,Indonesia,,,,-4.8470301,122.5501943,https://maps.google.com/?cid=0x0:0x1cb7e90934f1f139,
perumahan,Komplek perumahan,Rumah pribadi,"5GPC+C4M, Wuna, Kec. Barangka, Kabupaten Muna, Sulawesi Tenggara 93657","Wuna, Kec. Barangka, Kabupaten Muna",SULAWESI TENGGARA,93657.0,Indonesia,,,,-4.8139227,122.5203019,https://maps.google.com/?cid=0x0:0xa0fb4256504430a1,
perumahan,Komplek perumahan,Maral,"5G2W+3J6, Barangka, Kec. Barangka, Kabupaten Muna, Sulawesi Tenggara","Kabupaten Muna, Sulawesi Tenggara",SULAWESI TENGGARA,,Indonesia,,,,-4.850597,122.546658,https://maps.google.com/?cid=0x0:0x21539b83be7fc42c,
perumahan,Komplek perumahan,RAMADAN MUNA BARAT FARM,"5GFV+85R, Bungkolo, Kec. Barangka, Kabupaten Muna, Sulawesi Tenggara","Kabupaten Muna, Sulawesi Tenggara",SULAWESI TENGGARA,,Indonesia,,,,-4.8266418,122.5428916,https://maps.google.com/?cid=0x0:0x4e0beec9f67f5324,
perumahan,Komplek perumahan,Lorong gusi,"5H32+PGX, Barangka, barat, Kabupaten Muna, Sulawesi Tenggara","Kabupaten Muna, Sulawesi Tenggara",SULAWESI TENGGARA,,Indonesia,,,,-4.8456493,122.5513588,https://maps.google.com/?cid=0x0:0xa8b1ab18e722242,
perumahan,Komplek perumahan,Wa Riino,"5GCM+MJP, Waulai, Kec. Barangka, Kabupaten Muna, Sulawesi Tenggara 93657","Waulai, Kec. Barangka, Kabupaten Muna",SULAWESI TENGGARA,93657.0,Indonesia,,,,-4.8282797,122.5340882,https://maps.google.com/?cid=0x0:0x62dc4af8d0f49a6a,
perumahan,Komplek perumahan,Rumah Kami_ZiraTahir,"5GJ9+3HH, Wuna, Kec. Barangka, Kabupaten Muna, Sulawesi Tenggara 93657","Wuna, Kec. Barangka, Kabupaten Muna",SULAWESI TENGGARA,93657.0,Indonesia,,,,-4.8197414,122.5190416,https://maps.google.com/?cid=0x0:0xafe7a57221e3ccd8,
perumahan,perumahan,RUMAH ASHILLAH AFIQA DAN AKMAL,"6G28+JX5, Lafinde, Kec. Barangka, Kabupaten Muna, Sulawesi Tenggara","Kabupaten Muna, Sulawesi Tenggara",SULAWESI TENGGARA,,Indonesia,,,,-4.7984987,122.5174729,https://maps.google.com/?cid=0x0:0x57be204443004fb1,
perumahan,Komplek perumahan,Desa Walelei,"Lorong 1, Desa Walelei, Kec. Barangka, Barangka, Barat, Kabupaten Muna, Sulawesi Tenggara 93652","Desa Walelei, Kec. Barangka, Barangka, Barat, Kabupaten Muna",SULAWESI TENGGARA,93652.0,Indonesia,,,,-4.8471384,122.5423575,https://maps.google.com/?cid=0x0:0xfcc9da5d9989cad,
perumahan,perumahan,Rumah pak karimin,"5H37+P4M, Sawerigadi, Kec. Barangka, Kabupaten Muna, Sulawesi Tenggara","Kabupaten Muna, Sulawesi Tenggara",SULAWESI TENGGARA,,Indonesia,,,,-4.8456658,122.5627993,https://maps.google.com/?cid=0x0:0x3ebeb9f726078a,
perumahan,Komplek perumahan,Riski's Home,"5H92+3HM, Lapolea, Kec. Barangka, Kabupaten Muna, Sulawesi Tenggara","Kabupaten Muna, Sulawesi Tenggara",SULAWESI TENGGARA,,Indonesia,,,,-4.832288,122.5514155,https://maps.google.com/?cid=0x0:0xacd3d399789f79ff,
perumahan,Rumah singgah,"Lorong Asran,Maulid dan Anas","5G6V+59P, Walelei, Kec. Barangka, Kabupaten Muna, Sulawesi Tenggara","Kabupaten Muna, Sulawesi Tenggara",SULAWESI TENGGARA,,Indonesia, 085298014238,,,-4.839539,122.5434447,https://maps.google.com/?cid=0x0:0x1ed042956fcdf777,
perumahan,Pembangunan Perumahan,Desa pakanaha,"5GPC+C4M, Wuna, Kec. Barangka, Kabupaten Muna, Sulawesi Tenggara 93657","Wuna, Kec. Barangka, Kabupaten Muna",SULAWESI TENGGARA,93657.0,Indonesia,,,,-4.8139227,122.5203019,https://maps.google.com/?cid=0x0:0xc7292c568dca6ab,
perumahan,Komplek perumahan,Pondok Mertua Infah (PMI),"5G2W+Q68, Barangka, Kec. Barangka, Kabupaten Muna, Sulawesi Tenggara 93652","Barangka, Kec. Barangka, Kabupaten Muna",SULAWESI TENGGARA,93652.0,Indonesia, 082196136833,,,-4.8480915,122.5455919,https://maps.google.com/?cid=0x0:0x27b0b47e19d71b3b,
perumahan,perumahan,Sulawesi Tenggara 93655,"Kabupaten Muna, Sulawesi Tenggara","Kabupaten Muna, Sulawesi Tenggara",SULAWESI TENGGARA,,Indonesia,,,,-4.7167048,122.593828,https://maps.google.com/?cid=0x0:0x2099dcc445aba1a5,
perumahan,Perumahan,Perumahan Puri Permata Hijau,"6HV9+F79, Bandar Udara Sugimanuru Muna Barat, Pulau Muna, Tiworo Kepulauan, Muna Barat, Kusambi, Kec. Kusambi, Kabupaten Muna, Sulawesi Tenggara 93655","Bandar Udara Sugimanuru Muna Barat, Pulau Muna, Tiworo Kepulauan, Muna Barat, Kusambi, Kec. Kusambi, Kabupaten Muna",SULAWESI TENGGARA,93655.0,Indonesia, 082249896152,,,-4.7563258,122.5682355,https://maps.google.com/?cid=0x0:0xceba7257d0c48408,
perumahan,Komplek perumahan,Rumah Sahur,"7H69+F84, Konawe, Kec. Kusambi, Kabupaten Muna, Sulawesi Tenggara 93657","Konawe, Kec. Kusambi, Kabupaten Muna",SULAWESI TENGGARA,93657.0,Indonesia,,,,-4.7380114,122.5675351,https://maps.google.com/?cid=0x0:0xed66fc0010899e04,
perumahan,Komplek perumahan,Rumah limas,"7HC6+F79, Konawe, Kec. Kusambi, Kabupaten Muna, Sulawesi Tenggara","Kabupaten Muna, Sulawesi Tenggara",SULAWESI TENGGARA,,Indonesia,,,,-4.7288398,122.5607314,https://maps.google.com/?cid=0x0:0x9f7bb9feec36dfca,
perumahan,perumahan,W ise,"7HM4+CRP, Sidamangura, Kec. Kusambi, Kabupaten Muna, Sulawesi Tenggara 93655","Sidamangura, Kec. Kusambi, Kabupaten Muna",SULAWESI TENGGARA,93655.0,Indonesia,,,,-4.7164099,122.5570715,https://maps.google.com/?cid=0x0:0xad33c01c56235ceb,
perumahan,perumahan,Rumah Linda,"7H79+24W, Konawe, Kec. Kusambi, Kabupaten Muna, Sulawesi Tenggara","Kabupaten Muna, Sulawesi Tenggara",SULAWESI TENGGARA,,Indonesia,,,,-4.7373998,122.5678129,https://maps.google.com/?cid=0x0:0x6915105e32e73ec0,
perumahan,Komplek perumahan,Pesantren,"8JQ7+7JX, Tangkumaho, Kec. Napano Kusambi, Kabupaten Muna, Sulawesi Tenggara 93654","Tangkumaho, Kec. Napano Kusambi, Kabupaten Muna",SULAWESI TENGGARA,93654.0,Indonesia,,,,-4.6617577,122.6141155,https://maps.google.com/?cid=0x0:0x838442650907ce1c,
perumahan,Perhimpunan Pengembang Perumahan,Desa kombikuno,"8HCX+PM, Umba, Kec. Napano Kusambi, Kabupaten Muna, Sulawesi Tenggara 93655","Umba, Kec. Napano Kusambi, Kabupaten Muna",SULAWESI TENGGARA,93655.0,Indonesia,,,,-4.6781369,122.5992169,https://maps.google.com/?cid=0x0:0xc39ea1e96841f0ed,
perumahan,Komplek perumahan,TEMPAT PULANG,"6HVH+HPH, Kusambi, Kec. Kusambi, Kabupaten Muna, Sulawesi Tenggara","Kabupaten Muna, Sulawesi Tenggara",SULAWESI TENGGARA,,Indonesia,,,,-4.755847,122.579166,https://maps.google.com/?cid=0x0:0x59c35b90b5fc425f,
perumahan,Pembangunan Perumahan,nopii,"7H4F+2PH, Konawe, Kec. Kusambi, Kabupaten Muna, Sulawesi Tenggara 93657","Konawe, Kec. Kusambi, Kabupaten Muna",SULAWESI TENGGARA,93657.0,Indonesia,,,,-4.7460806,122.5751519,https://maps.google.com/?cid=0x0:0x1e555933f7e868cd,
perumahan,Komplek perumahan,Muna bwrat,"7H23+3M5, Guali, Kec. Kusambi, Kabupaten Muna, Sulawesi Tenggara","Kabupaten Muna, Sulawesi Tenggara",SULAWESI TENGGARA,,Indonesia,,,,-4.7498688,122.5542435,https://maps.google.com/?cid=0x0:0x83c451b97820b66,
perumahan,Komplek perumahan,Rumahnya triya dewi,"7HM4+CRP, Sidamangura, Kec. Kusambi, Kabupaten Muna, Sulawesi Tenggara 93655","Sidamangura, Kec. Kusambi, Kabupaten Muna",SULAWESI TENGGARA,93655.0,Indonesia,,,,-4.7164099,122.5570715,https://maps.google.com/?cid=0x0:0x6dbe654245436fdc,
perumahan,Komplek perumahan,Lrg Kulahi,"6HRC+FF9, Kusambi, Kec. Kusambi, Kabupaten Muna, Sulawesi Tenggara","Kabupaten Muna, Sulawesi Tenggara",SULAWESI TENGGARA,,Indonesia,,,,-4.7588474,122.5712271,https://maps.google.com/?cid=0x0:0xc152b8a86a63a2ba,
perumahan,Pembangunan Perumahan,Rmh MNIS,"7H87+8RV, Sidamangura, Kec. Kusambi, Kabupaten Muna, Sulawesi Tenggara","Kabupaten Muna, Sulawesi Tenggara",SULAWESI TENGGARA,,Indonesia,,,,-4.7341411,122.5645337,https://maps.google.com/?cid=0x0:0x4ab8e3cd14cf7467,
perumahan,Kantor distrik,Kelurahan konawe,"7H89+H96, Konawe, Kec. Kusambi, Kabupaten Muna, Sulawesi Tenggara","Kabupaten Muna, Sulawesi Tenggara",SULAWESI TENGGARA,,Indonesia,,,,-4.7335781,122.5683826,https://maps.google.com/?cid=0x0:0x8a3c74ca2cf199f9,
perumahan,Pembangunan Perumahan,Desa Bakeramba Rumah Wa Ati,"7GMJ+QJX, Bakeramba, Kec. Kusambi, Kabupaten Muna, Sulawesi Tenggara 93653","Bakeramba, Kec. Kusambi, Kabupaten Muna",SULAWESI TENGGARA,93653.0,Indonesia,,,,-4.7155207,122.531617,https://maps.google.com/?cid=0x0:0x494799da5cfd280d,
perumahan,Tukang Kebun,Lorong matakalmpa,"7HG7+V2Q, Sidamangura, Kec. Kusambi, Kabupaten Muna, Sulawesi Tenggara","Kabupaten Muna, Sulawesi Tenggara",SULAWESI TENGGARA,,Indonesia,,,,-4.722795,122.562599,https://maps.google.com/?cid=0x0:0xd4bb39746b789e12,
perumahan,Komplek perumahan,Akbar Cel,"8JP5+258, Kombikuno, Kec. Napano Kusambi, Kabupaten Muna, Sulawesi Tenggara","Kabupaten Muna, Sulawesi Tenggara",SULAWESI TENGGARA,,Indonesia,,,,-4.664961,122.6079616,https://maps.google.com/?cid=0x0:0x90570a37fd8c0a1d,
perumahan,perumahan,Home HPK,"7H4C+5R2, Konawe, Kec. Kusambi, Kabupaten Muna, Sulawesi Tenggara 93657","Konawe, Kec. Kusambi, Kabupaten Muna",SULAWESI TENGGARA,93657.0,Indonesia,,,,-4.7446125,122.5720156,https://maps.google.com/?cid=0x0:0xf1aad5263a9e7c40,
perumahan,Komplek perumahan,Fika home,"6HV4+572, Guali, Kec. Kusambi, Kabupaten Muna, Sulawesi Tenggara","Kabupaten Muna, Sulawesi Tenggara",SULAWESI TENGGARA,,Indonesia,,,,-4.7571232,122.555643,https://maps.google.com/?cid=0x0:0x386e7dfc220755f,
perumahan,Rumah Kayu,Desa lahaji,"7JH6+V8V, Lahaji, Kec. Napano Kusambi, Kabupaten Muna, Sulawesi Tenggara","Kabupaten Muna, Sulawesi Tenggara",SULAWESI TENGGARA,,Indonesia,,,,-4.7202535,122.6107881,https://maps.google.com/?cid=0x0:0xb7c0a8d45d883b6c,
perumahan,Perhimpunan Pengembang Perumahan,Tangkumaho RATA,"8JFF+2XV, Tangkumaho, Kec. Napano Kusambi, Kabupaten Muna, Sulawesi Tenggara","Kabupaten Muna, Sulawesi Tenggara",SULAWESI TENGGARA,,Indonesia, 082261590085,,,-4.6773787,122.6249195,https://maps.google.com/?cid=0x0:0x20ea861a66549c4a,
perumahan,Komplek perumahan,Arlisdarlis,"7H2G+X8Q, Konawe, Kec. Kusambi, Kabupaten Muna, Sulawesi Tenggara 93657","Konawe, Kec. Kusambi, Kabupaten Muna",SULAWESI TENGGARA,93657.0,Indonesia,,,,-4.7475316,122.5758618,https://maps.google.com/?cid=0x0:0x9e81d758d229d72a,
perumahan,perumahan,Sulawesi Tenggara 93652,"Kabupaten Muna, Sulawesi Tenggara","Kabupaten Muna, Sulawesi Tenggara",SULAWESI TENGGARA,,Indonesia,,,,-4.8874972,122.5598994,https://maps.google.com/?cid=0x0:0x34e12d7c7d7a4631,
perumahan,Masjid,muna barat,"4GGR+R29, Wamelai(Lambubalano), Kec. Lawa, Kabupaten Muna, Sulawesi Tenggara 93652","Wamelai(Lambubalano), Kec. Lawa, Kabupaten Muna",SULAWESI TENGGARA,93652.0,Indonesia,,,,-4.8729742,122.5401025,https://maps.google.com/?cid=0x0:0x335994cbe76c0858,
perumahan,Komplek perumahan,Lorong 3 Desa Lapolea,"5G2W+4FW, Jalan, Barangka, Lawa, Muna Regency, South East Sulawesi 93652","Jalan, Barangka, Lawa, Muna Regency",SULAWESI TENGGARA,93652.0,Indonesia,,,,-4.8496259,122.5462082,https://maps.google.com/?cid=0x0:0x6e7d1cdf78c55631,
perumahan,Komplek perumahan,GM Home Stay,"Jl. Barangka-Lawa, Latugho, Kec. Lawa, Kabupaten Muna, Sulawesi Tenggara 93652","Latugho, Kec. Lawa, Kabupaten Muna",SULAWESI TENGGARA,93652.0,Indonesia, 085396233117,,,-4.8506836,122.5462404,https://maps.google.com/?cid=0x0:0xb6383bb4c903d933,
perumahan,Pembangunan Perumahan,Kalogha Residence,"4H82+83X, Wamelai(Lambubalano), Kec. Lawa, Kabupaten Muna, Sulawesi Tenggara 93652","Wamelai(Lambubalano), Kec. Lawa, Kabupaten Muna",SULAWESI TENGGARA,93652.0,Indonesia,,,,-4.884127,122.5502224,https://maps.google.com/?cid=0x0:0x1fcfe67b64795fe1,
perumahan,perumahan,lakapodo,"4J2J+V9, Madampi, Kec. Lawa, Kabupaten Muna, Sulawesi Tenggara","Kabupaten Muna, Sulawesi Tenggara",SULAWESI TENGGARA,,Indonesia,,,,-4.8978125,122.6309375,https://maps.google.com/?cid=0x0:0xd47ebef7c64dce6e,
perumahan,Komplek perumahan,Rumah irul lambubalano,"4G7X+8Q5, Wamelai(Lambubalano), Kec. Lawa, Kabupaten Muna, Sulawesi Tenggara 93652","Wamelai(Lambubalano), Kec. Lawa, Kabupaten Muna",SULAWESI TENGGARA,93652.0,Indonesia,,,,-4.8867367,122.5494811,https://maps.google.com/?cid=0x0:0x6a6204f0eceb291d,
perumahan,Perhimpunan Pengembang Perumahan,Rumah nene,"4HG9+939, Lapadaku, Kec. Lawa, Kabupaten Muna, Sulawesi Tenggara 93652","Lapadaku, Kec. Lawa, Kabupaten Muna",SULAWESI TENGGARA,93652.0,Indonesia,,,,-4.8740882,122.5677245,https://maps.google.com/?cid=0x0:0x76a0f5d76e654c56,
perumahan,Komplek perumahan,Lorong pasar,"3JXH+83X, Madampi, Kec. Lawa, Kabupaten Muna, Sulawesi Tenggara","Kabupaten Muna, Sulawesi Tenggara",SULAWESI TENGGARA,,Indonesia,,,,-4.901629,122.6277455,https://maps.google.com/?cid=0x0:0x8656a775a3a1872d,
perumahan,Perhimpunan Pengembang Perumahan,Rumahnya Atma (Yulia Fatmawati),"4HC3+3HV, Jl. Barangka-Lawa, Lalemba, Kec. Lawa, Kabupaten Muna, Sulawesi Tenggara 93652","Jl. Barangka-Lawa, Lalemba, Kec. Lawa, Kabupaten Muna",SULAWESI TENGGARA,93652.0,Indonesia,,,,-4.879376,122.5543661,https://maps.google.com/?cid=0x0:0x26c0981999d3eb10,
perumahan,Komplek perumahan,Rumah jamil,"4G7X+5XC, Latompe, Kec. Lawa, Kabupaten Muna, Sulawesi Tenggara","Kabupaten Muna, Sulawesi Tenggara",SULAWESI TENGGARA,,Indonesia,,,,-4.8870714,122.5498925,https://maps.google.com/?cid=0x0:0x87b0154c948339a2,
perumahan,perumahan,MUHAMMAD RAZAK,"2FXX+RVJ, Lahorio, Kec. Kontu Kowuna, Kabupaten Muna, Sulawesi Tenggara 93652","Lahorio, Kec. Kontu Kowuna, Kabupaten Muna",SULAWESI TENGGARA,93652.0,Indonesia,,,,-4.9504194,122.4996259,https://maps.google.com/?cid=0x0:0x102c32a719d3b355,
perumahan,Rumah singgah,Rumah annisa,"4HR2+VJG, Latugho, Kec. Lawa, Kabupaten Muna, Sulawesi Tenggara","Kabupaten Muna, Sulawesi Tenggara",SULAWESI TENGGARA,,Indonesia,,,,-4.8578161,122.5515629,https://maps.google.com/?cid=0x0:0x3235479dbdfb06d3,
perumahan,Lapangan Sepak Bola,lapadaku,"4H94+CGG, Lalemba, Kec. Lawa, Kabupaten Muna, Sulawesi Tenggara","Kabupaten Muna, Sulawesi Tenggara",SULAWESI TENGGARA,,Indonesia,,,,-4.881425,122.5563334,https://maps.google.com/?cid=0x0:0xb4fdc411ea81551c,
perumahan,Pembangunan Perumahan,RUMAH WA RII,"4HQM+MHV, Lagadi, Kec. Lawa, Kabupaten Muna, Sulawesi Tenggara","Kabupaten Muna, Sulawesi Tenggara",SULAWESI TENGGARA,,Indonesia,,,,-4.8607602,122.5839113,https://maps.google.com/?cid=0x0:0x404468974e293792,
perumahan,perumahan,Lorong bendungan,"2FMR+49H, Lakandito, Kec. Kabawo, Kabupaten Muna, Sulawesi Tenggara 93652","Lakandito, Kec. Kabawo, Kabupaten Muna",SULAWESI TENGGARA,93652.0,Indonesia,,,,-4.9671752,122.4909915,https://maps.google.com/?cid=0x0:0x3f40ce9b060beca4,
perumahan,Komplek perumahan,Rumah Kadir,"4GCX+XR2, Jl. Pendidikan, RT.001/RW.001, Watumela, Kec. Lawa, Kabupaten Muna, Sulawesi Tenggara 93652","Jl. Pendidikan, RT.001/RW.001, Watumela, Kec. Lawa, Kabupaten Muna",SULAWESI TENGGARA,93652.0,Indonesia,,,,-4.8776229,122.5495066,https://maps.google.com/?cid=0x0:0x85dec7a087e51e86,
perumahan,Kantor Pemerintah,Desa lailangga,"3GMJ+P53, Lailangga, Kec. Wadaga, Kabupaten Muna, Sulawesi Tenggara 93652","Lailangga, Kec. Wadaga, Kabupaten Muna",SULAWESI TENGGARA,93652.0,Indonesia,,,,-4.9157406,122.5304317,https://maps.google.com/?cid=0x0:0x42f5fedb6d11e797,
perumahan,perumahan,Chayang,"4GRR+G9, Latugho, Kec. Lawa, Kabupaten Muna, Sulawesi Tenggara","Kabupaten Muna, Sulawesi Tenggara",SULAWESI TENGGARA,,Indonesia,,,,-4.8586993,122.5409075,https://maps.google.com/?cid=0x0:0x907ffd129a0d4634,
perumahan,Perhimpunan Pengembang Perumahan,Rumah Ansar,"Waulai, Laworo, Kabupaten Muna, Sulawesi Tenggara 93652","Laworo, Kabupaten Muna",SULAWESI TENGGARA,93652.0,Indonesia,,,,-4.8365744,122.5369014,https://maps.google.com/?cid=0x0:0x1e8446cb2efe5fb5,
perumahan,Pembangunan Perumahan,Desa sawerigadi,"4HR4+XG, Latugho, Kec. Lawa, Kabupaten Muna, Sulawesi Tenggara","Kabupaten Muna, Sulawesi Tenggara",SULAWESI TENGGARA,,Indonesia,,,,-4.8575849,122.5563924,https://maps.google.com/?cid=0x0:0x1303ada27909c11,
perumahan,Pembangunan Perumahan,Rumah,"4CWW+G7, Lakanaha, Kec. Wadaga, Kabupaten Muna, Sulawesi Tenggara","Kabupaten Muna, Sulawesi Tenggara",SULAWESI TENGGARA,,Indonesia,,,,-4.853666,122.445651,https://maps.google.com/?cid=0x0:0x5b6780e0ffa68e0d,
perumahan,Komplek perumahan,TERRA SALUNA,"Jl. Tanggul Jembatan Serong No.2, Segarajaya, Kec. Tarumajaya, Kabupaten Bekasi, Jawa Barat 17212","Segarajaya, Kec. Tarumajaya, Kabupaten Bekasi",SULAWESI TENGGARA,17212.0,Indonesia, 085706002685,,,-6.1110851,106.9992917,https://maps.google.com/?cid=0x0:0x857949d9b9b2a490,
perumahan,Perumahan,Terra Saluna Residence,"Pantai Makmur, Kec. Tarumajaya, Kabupaten Bekasi, Jawa Barat","Kabupaten Bekasi, Jawa Barat",SULAWESI TENGGARA,,Indonesia,,,,-6.1143097,106.9987973,https://maps.google.com/?cid=0x0:0xaec9335484ec76c7,
perumahan,Perhimpunan Pengembang Perumahan,SupplyâR interiormu.id,"Terra saluna residence , Blok SB No.03, Pantai Makmur, Kec. Tarumajaya, Kabupaten Bekasi, Jawa Barat 17212","Blok SB No.03, Pantai Makmur, Kec. Tarumajaya, Kabupaten Bekasi",SULAWESI TENGGARA,17212.0,Indonesia, 083870817990,,,-6.1141781,106.9988764,https://maps.google.com/?cid=0x0:0x6edfc2ebdb9604dc,
perumahan,perumahan,Kec. Maginti,"Kabupaten Muna, Sulawesi Tenggara","Kabupaten Muna, Sulawesi Tenggara",SULAWESI TENGGARA,,Indonesia,,,,-4.8523016,122.3273334,https://maps.google.com/?cid=0x0:0x827d1cf3623f4296,
perumahan,Kantor Pemerintah,Pulau Maginti,"557R+7J5, Maginti, Kec. Maginti, Kabupaten Muna, Sulawesi Tenggara","Kabupaten Muna, Sulawesi Tenggara",SULAWESI TENGGARA,,Indonesia, 085282486234,,,-4.8374297,122.1920966,https://maps.google.com/?cid=0x0:0xdb6d548a25980673,
perumahan,Rumah Sakit,Perumahan puskesmas maginti,"557V+FM, Maginti, Kec. Maginti, Kabupaten Muna, Sulawesi Tenggara","Kabupaten Muna, Sulawesi Tenggara",SULAWESI TENGGARA,,Indonesia,,,,-4.8363669,122.1941663,https://maps.google.com/?cid=0x0:0x19207f0a6c47b0be,
perumahan,Komplek perumahan,Rumah Pak TERANG,"49M8+9VM, Abadi Jaya, Kec. Maginti, Kabupaten Muna, Sulawesi Tenggara","Kabupaten Muna, Sulawesi Tenggara",SULAWESI TENGGARA,,Indonesia,,,,-4.8665396,122.3671855,https://maps.google.com/?cid=0x0:0x12c3b1d42cf5664f,
perumahan,perumahan,Rumah re,"3948+7X9, Komba-Komba, Kec. Kabangka, Kabupaten Muna, Sulawesi Tenggara","Kabupaten Muna, Sulawesi Tenggara",SULAWESI TENGGARA,,Indonesia,,,,-4.9454207,122.3678292,https://maps.google.com/?cid=0x0:0x859498381b6991a,
perumahan,Komplek perumahan,ASWIL,"557V+3RM, Maginti, Kec. Maginti, Kabupaten Muna, Sulawesi Tenggara","Kabupaten Muna, Sulawesi Tenggara",SULAWESI TENGGARA,,Indonesia,,,,-4.8372314,122.1945109,https://maps.google.com/?cid=0x0:0x3736421d700b5387,
perumahan,Taman,Dusun masoga,"49G8+MHR, Kembar Maminasa, Kec. Maginti, Kabupaten Muna, Sulawesi Tenggara","Kabupaten Muna, Sulawesi Tenggara",SULAWESI TENGGARA,,Indonesia,,,,-4.8732567,122.3663956,https://maps.google.com/?cid=0x0:0x7637db2881bbad31,
perumahan,Komplek perumahan,Rumah Risma,"49G2+RG6, Kembar Maminasa, Kec. Maginti, Kabupaten Muna, Sulawesi Tenggara","Kabupaten Muna, Sulawesi Tenggara",SULAWESI TENGGARA,,Indonesia,,,,-4.8729554,122.3512719,https://maps.google.com/?cid=0x0:0x6a20b1f89497a2b5,
perumahan,Pembangunan Perumahan,Rumah Ø¹Ø¨Ø¯Ø§ÙÙÙ,"595Q+9PM, Mekar Jaya, Tiworo Tengah, Kabupaten Muna, Sulawesi Tenggara","Kabupaten Muna, Sulawesi Tenggara",SULAWESI TENGGARA,,Indonesia,,,,-4.8415462,122.389309,https://maps.google.com/?cid=0x0:0x9a17bd25a7466f16,
perumahan,Komplek perumahan,Depan rumah pak desa kangkunawe,"556P+V39, Kangkunawe, Kec. Maginti, Kabupaten Muna, Sulawesi Tenggara","Kabupaten Muna, Sulawesi Tenggara",SULAWESI TENGGARA,,Indonesia,,,,-4.8378462,122.1852477,https://maps.google.com/?cid=0x0:0xa58186863fec878c,
perumahan,Komplek perumahan,Perumahan Alam Muliadira Muna Barat,"5CX8+WJ8, Jalan Poros Raha Tondasi (Depan Kantor PLN Kambara Kel. Waumere, Tiworo, Kepulaua, Muna barat, Sulawesi Tenggara 93653","Jalan Poros Raha Tondasi (Depan Kantor PLN Kambara Kel. Waumere, Tiworo, Kepulaua, Muna barat",SULAWESI TENGGARA,93653.0,Indonesia, 082251666695,,,-4.8002153,122.4165834,https://maps.google.com/?cid=0x0:0x537ca4bd08f51a2a,
perumahan,perumahan,Dian eka safitri,"5928+J6H, Abadi Jaya, Kec. Maginti, Kabupaten Muna, Sulawesi Tenggara","Kabupaten Muna, Sulawesi Tenggara",SULAWESI TENGGARA,,Indonesia,,,,-4.8484311,122.3656143,https://maps.google.com/?cid=0x0:0x576e292d638818e,
perumahan,Komplek perumahan,Ali muzaidi,"5928+C9R, Abadi Jaya, Kec. Maginti, Kabupaten Muna, Sulawesi Tenggara","Kabupaten Muna, Sulawesi Tenggara",SULAWESI TENGGARA,,Indonesia,,,,-4.8488897,122.3658843,https://maps.google.com/?cid=0x0:0xfeda282f406af5a1,
perumahan,Komplek perumahan,Pangkalan anak muda(pak sunar),"5938+C3, Abadi Jaya, Kec. Maginti, Kabupaten Muna, Sulawesi Tenggara 93653","Abadi Jaya, Kec. Maginti, Kabupaten Muna",SULAWESI TENGGARA,93653.0,Indonesia,,,,-4.8464336,122.3651657,https://maps.google.com/?cid=0x0:0x6113650bdb0a6965,
perumahan,Gedung Apartemen,Rumahnya kahar AK allvlog,"5937+R45, Abadi Jaya, Kec. Maginti, Kabupaten Muna, Sulawesi Tenggara","Kabupaten Muna, Sulawesi Tenggara",SULAWESI TENGGARA,,Indonesia,,,,-4.8449462,122.3635581,https://maps.google.com/?cid=0x0:0xe946dcc7d9ed8b44,
perumahan,Komplek perumahan,Rumah Mahmud,"Jalan Poros Desa Abadi Jaya, Lorong 2, RT 2/RW 1, Kecamatan Maginti, Barat, Kabupaten Muna, Sulawesi Tenggara","Kabupaten Muna, Sulawesi Tenggara",SULAWESI TENGGARA,,Indonesia, 082392167036,,,-4.8077478,122.4038239,https://maps.google.com/?cid=0x0:0x75f95b649e2ccad5,
perumahan,Komplek perumahan,Rumah Kahar,"5937+FJ6, Abadi Jaya, Kec. Maginti, Kabupaten Muna, Sulawesi Tenggara","Kabupaten Muna, Sulawesi Tenggara",SULAWESI TENGGARA,,Indonesia,,,,-4.8456972,122.362823,https://maps.google.com/?cid=0x0:0x58c11aad26eb81f0,
perumahan,Komplek perumahan,Rumah Pak Abdul Salam,"597R+579, Mekar Jaya, Tiworo Tengah, Kabupaten Muna, Sulawesi Tenggara","Kabupaten Muna, Sulawesi Tenggara",SULAWESI TENGGARA,,Indonesia,,,,-4.8375613,122.3916913,https://maps.google.com/?cid=0x0:0x9eab124eed51e6c2,
perumahan,Perusahaan Operasi Pelabuhan,Pulau bangko,"38HQ+7JW, Bangko, Kec. Maginti, Kabupaten Muna, Sulawesi Tenggara","Kabupaten Muna, Sulawesi Tenggara",SULAWESI TENGGARA,,Indonesia,,,,-4.9217674,122.3390936,https://maps.google.com/?cid=0x0:0xb6567be7ead9253d,
perumahan,Komplek perumahan,mekar jaya jalan Hasanudin munabarat,"59CW+686, Mekar Jaya, Tiworo Tengah, Kabupaten Muna, Sulawesi Tenggara","Kabupaten Muna, Sulawesi Tenggara",SULAWESI TENGGARA,,Indonesia, 085240541839,,,-4.8294657,122.3957548,https://maps.google.com/?cid=0x0:0xdb0a7a72eb35aa6e,
perumahan,Komplek perumahan,Laode paedi,"5942+HP, Pajala, Kec. Maginti, Kabupaten Muna, Sulawesi Tenggara","Kabupaten Muna, Sulawesi Tenggara",SULAWESI TENGGARA,,Indonesia,,,,-4.843347,122.3525595,https://maps.google.com/?cid=0x0:0xb05779dafcc414a7,
perumahan,Masjid,RUMAH MENGAJI DESA PAJALA,"Jl.La Tohue No.20, Pajala, Kec. Maginti, Kabupaten Muna, Sulawesi Tenggara 93664","Pajala, Kec. Maginti, Kabupaten Muna",SULAWESI TENGGARA,93664.0,Indonesia,,,,-4.8495741,122.3288222,https://maps.google.com/?cid=0x0:0x4d4dee098f0b05d5,
perumahan,perumahan,Sulawesi Tenggara 93655,"Kabupaten Muna, Sulawesi Tenggara","Kabupaten Muna, Sulawesi Tenggara",SULAWESI TENGGARA,,Indonesia,,,,-4.7167048,122.593828,https://maps.google.com/?cid=0x0:0x2099dcc445aba1a5,
perumahan,Perumahan,Perumahan Puri Permata Hijau,"6HV9+F79, Bandar Udara Sugimanuru Muna Barat, Pulau Muna, Tiworo Kepulauan, Muna Barat, Kusambi, Kec. Kusambi, Kabupaten Muna, Sulawesi Tenggara 93655","Bandar Udara Sugimanuru Muna Barat, Pulau Muna, Tiworo Kepulauan, Muna Barat, Kusambi, Kec. Kusambi, Kabupaten Muna",SULAWESI TENGGARA,93655.0,Indonesia, 082249896152,,,-4.7563258,122.5682355,https://maps.google.com/?cid=0x0:0xceba7257d0c48408,
perumahan,Komplek perumahan,Rumah Sahur,"7H69+F84, Konawe, Kec. Kusambi, Kabupaten Muna, Sulawesi Tenggara 93657","Konawe, Kec. Kusambi, Kabupaten Muna",SULAWESI TENGGARA,93657.0,Indonesia,,,,-4.7380114,122.5675351,https://maps.google.com/?cid=0x0:0xed66fc0010899e04,
perumahan,Perhimpunan Pengembang Perumahan,Desa kombikuno,"8HCX+PM, Umba, Kec. Napano Kusambi, Kabupaten Muna, Sulawesi Tenggara 93655","Umba, Kec. Napano Kusambi, Kabupaten Muna",SULAWESI TENGGARA,93655.0,Indonesia,,,,-4.6781369,122.5992169,https://maps.google.com/?cid=0x0:0xc39ea1e96841f0ed,
perumahan,Komplek perumahan,Rumah limas,"7HC6+F79, Konawe, Kec. Kusambi, Kabupaten Muna, Sulawesi Tenggara","Kabupaten Muna, Sulawesi Tenggara",SULAWESI TENGGARA,,Indonesia,,,,-4.7288398,122.5607314,https://maps.google.com/?cid=0x0:0x9f7bb9feec36dfca,
perumahan,Komplek perumahan,Rumah Limas,"6HVH+HPH, Kusambi, Kec. Kusambi, Kabupaten Muna, Sulawesi Tenggara","Kabupaten Muna, Sulawesi Tenggara",SULAWESI TENGGARA,,Indonesia,,,,-4.7560579,122.5793448,https://maps.google.com/?cid=0x0:0x8807973ae42f12c,
perumahan,Pembangunan Perumahan,nopii,"7H4F+2PH, Konawe, Kec. Kusambi, Kabupaten Muna, Sulawesi Tenggara 93657","Konawe, Kec. Kusambi, Kabupaten Muna",SULAWESI TENGGARA,93657.0,Indonesia,,,,-4.7460806,122.5751519,https://maps.google.com/?cid=0x0:0x1e555933f7e868cd,
perumahan,Komplek perumahan,TEMPAT PULANG,"6HVH+HPH, Kusambi, Kec. Kusambi, Kabupaten Muna, Sulawesi Tenggara","Kabupaten Muna, Sulawesi Tenggara",SULAWESI TENGGARA,,Indonesia,,,,-4.755847,122.579166,https://maps.google.com/?cid=0x0:0x59c35b90b5fc425f,
perumahan,Komplek perumahan,Akbar Cel,"8JP5+258, Kombikuno, Kec. Napano Kusambi, Kabupaten Muna, Sulawesi Tenggara","Kabupaten Muna, Sulawesi Tenggara",SULAWESI TENGGARA,,Indonesia,,,,-4.664961,122.6079616,https://maps.google.com/?cid=0x0:0x90570a37fd8c0a1d,
perumahan,perumahan,Rumah Linda,"7H79+24W, Konawe, Kec. Kusambi, Kabupaten Muna, Sulawesi Tenggara","Kabupaten Muna, Sulawesi Tenggara",SULAWESI TENGGARA,,Indonesia,,,,-4.7373998,122.5678129,https://maps.google.com/?cid=0x0:0x6915105e32e73ec0,
perumahan,Perhimpunan Pengembang Perumahan,Tangkumaho RATA,"8JFF+2XV, Tangkumaho, Kec. Napano Kusambi, Kabupaten Muna, Sulawesi Tenggara","Kabupaten Muna, Sulawesi Tenggara",SULAWESI TENGGARA,,Indonesia, 082261590085,,,-4.6773787,122.6249195,https://maps.google.com/?cid=0x0:0x20ea861a66549c4a,
perumahan,Kantor distrik,Kelurahan konawe,"7H89+H96, Konawe, Kec. Kusambi, Kabupaten Muna, Sulawesi Tenggara","Kabupaten Muna, Sulawesi Tenggara",SULAWESI TENGGARA,,Indonesia,,,,-4.7335781,122.5683826,https://maps.google.com/?cid=0x0:0x8a3c74ca2cf199f9,
perumahan,Perhimpunan Pengembang Perumahan,Rumah Asnur,"8MP5+5Q, Langkumapo, Kec. Napabalano, Kabupaten Muna, Sulawesi Tenggara","Kabupaten Muna, Sulawesi Tenggara",SULAWESI TENGGARA,,Indonesia,,,,-4.6645172,122.6594085,https://maps.google.com/?cid=0x0:0xc571963982d740ca,
perumahan,Rumah Kayu,Desa lahaji,"7JH6+V8V, Lahaji, Kec. Napano Kusambi, Kabupaten Muna, Sulawesi Tenggara","Kabupaten Muna, Sulawesi Tenggara",SULAWESI TENGGARA,,Indonesia,,,,-4.7202535,122.6107881,https://maps.google.com/?cid=0x0:0xb7c0a8d45d883b6c,
perumahan,Komplek perumahan,Rumah kamelia,"8MJ7+WMP, Langkumapo, Kec. Napabalano, Kabupaten Muna, Sulawesi Tenggara","Kabupaten Muna, Sulawesi Tenggara",SULAWESI TENGGARA,,Indonesia,,,,-4.6676663,122.6641915,https://maps.google.com/?cid=0x0:0x4c900abd100b822e,
perumahan,Komplek perumahan,Rumah iman,"6GX8+GR, Kasakamu, Kec. Kusambi, Kabupaten Muna, Sulawesi Tenggara","Kabupaten Muna, Sulawesi Tenggara",SULAWESI TENGGARA,,Indonesia,,,,-4.7512601,122.5170241,https://maps.google.com/?cid=0x0:0xabd5fd45ef9da543,
perumahan,Pembangunan Perumahan,Rmh MNIS,"7H87+8RV, Sidamangura, Kec. Kusambi, Kabupaten Muna, Sulawesi Tenggara","Kabupaten Muna, Sulawesi Tenggara",SULAWESI TENGGARA,,Indonesia,,,,-4.7341411,122.5645337,https://maps.google.com/?cid=0x0:0x4ab8e3cd14cf7467,
perumahan,Komplek perumahan,Rumahnya triya dewi,"7HM4+CRP, Sidamangura, Kec. Kusambi, Kabupaten Muna, Sulawesi Tenggara 93655","Sidamangura, Kec. Kusambi, Kabupaten Muna",SULAWESI TENGGARA,93655.0,Indonesia,,,,-4.7164099,122.5570715,https://maps.google.com/?cid=0x0:0x6dbe654245436fdc,
perumahan,Tempat Ibadah,Desa umba,"7JXC+6RP, Umba, Kec. Napano Kusambi, Kabupaten Muna, Sulawesi Tenggara","Kabupaten Muna, Sulawesi Tenggara",SULAWESI TENGGARA,,Indonesia,,,,-4.7019148,122.6220934,https://maps.google.com/?cid=0x0:0x4fee100f3d288ff2,
perumahan,Perhimpunan Pengembang Perumahan,Lahaji serba ada,"7HXM+HM, Masara, Kec. Napano Kusambi, Kabupaten Muna, Sulawesi Tenggara","Kabupaten Muna, Sulawesi Tenggara",SULAWESI TENGGARA,,Indonesia,,,,-4.701024,122.584231,https://maps.google.com/?cid=0x0:0xd9cda39dcf3e142c,
perumahan,perumahan,W ise,"7HM4+CRP, Sidamangura, Kec. Kusambi, Kabupaten Muna, Sulawesi Tenggara 93655","Sidamangura, Kec. Kusambi, Kabupaten Muna",SULAWESI TENGGARA,93655.0,Indonesia,,,,-4.7164099,122.5570715,https://maps.google.com/?cid=0x0:0xad33c01c56235ceb,
perumahan,Perhimpunan Pengembang Perumahan,Tapal Batas Desa Lahaji dan Masara,"7HXC+PMP, Masara, Kec. Napano Kusambi, Kabupaten Muna, Sulawesi Tenggara","Kabupaten Muna, Sulawesi Tenggara",SULAWESI TENGGARA,,Indonesia,,,,-4.7006702,122.5717043,https://maps.google.com/?cid=0x0:0x398dc2f2f64bfee,
perumahan,perumahan,Sulawesi Tenggara 93657,"Kabupaten Muna, Sulawesi Tenggara","Kabupaten Muna, Sulawesi Tenggara",SULAWESI TENGGARA,,Indonesia,,,,-4.8269737,122.5259596,https://maps.google.com/?cid=0x0:0x6227f17791af231c,
perumahan,perumahan,Sawerigading,"Kec. Ujung Pandang, Kota Makassar, Sulawesi Selatan","Kota Makassar, Sulawesi Selatan",SULAWESI TENGGARA,,Indonesia,,,,-5.1405135,119.4146041,https://maps.google.com/?cid=0x0:0xd660dde0f3eb73d9,
perumahan,perumahan,Kec. Sawerigadi,"Kabupaten Muna, Sulawesi Tenggara","Kabupaten Muna, Sulawesi Tenggara",SULAWESI TENGGARA,,Indonesia,,,,-4.7903102,122.491523,https://maps.google.com/?cid=0x0:0xc0b7ac172b281750,
perumahan,perumahan,Kec. Tiworo Kepulauan,"Kabupaten Muna, Sulawesi Tenggara","Kabupaten Muna, Sulawesi Tenggara",SULAWESI TENGGARA,,Indonesia,,,,-4.7783688,122.4353995,https://maps.google.com/?cid=0x0:0xb9b9310dc3cd9cb5,
perumahan,Komplek perumahan,Perumahan Alam Muliadira Muna Barat,"5CX8+WJ8, Jalan Poros Raha Tondasi (Depan Kantor PLN Kambara Kel. Waumere, Tiworo, Kepulaua, Muna barat, Sulawesi Tenggara 93653","Jalan Poros Raha Tondasi (Depan Kantor PLN Kambara Kel. Waumere, Tiworo, Kepulaua, Muna barat",SULAWESI TENGGARA,93653.0,Indonesia, 082251666695,,,-4.8002153,122.4165834,https://maps.google.com/?cid=0x0:0x537ca4bd08f51a2a,
perumahan,Komplek perumahan,Perumahan Bumi Laworo Permai,"6FCJ+CQ, Lombu Jaya, Kec. Sawerigadi, Kabupaten Muna, Sulawesi Tenggara","Kabupaten Muna, Sulawesi Tenggara",SULAWESI TENGGARA,,Indonesia, 082194442202,,,-4.7789575,122.4819713,https://maps.google.com/?cid=0x0:0x13cd7d3395f743f9,
perumahan,Perumahan rakyat,Rujab Sementara Bupati Muna Barat,"5CV7+VFF, Jembatan Mourundu, Unnamed Rd, Wulanga Jaya, Tiworo Tengah, Kabupaten Muna, Sulawesi Tenggara 93653","Jembatan Mourundu, Unnamed Rd, Wulanga Jaya, Tiworo Tengah, Kabupaten Muna",SULAWESI TENGGARA,93653.0,Indonesia,,,,-4.8039275,122.4136055,https://maps.google.com/?cid=0x0:0xb322f01c102411bd,
perumahan,Rumah Kaca,Rumah Putu Sartika,"5CGM+Q6J, Wulanga Jaya, Kec. Tiworo Kepulauan, Kabupaten Muna, Sulawesi Tenggara 93653","Wulanga Jaya, Kec. Tiworo Kepulauan, Kabupaten Muna",SULAWESI TENGGARA,93653.0,Indonesia,,,,-4.8230286,122.4330055,https://maps.google.com/?cid=0x0:0x8aaae58cf767ec0,
perumahan,Gedung Apartemen,RUMAH WIJAYA,"5CRW+97J, Wandoke, Kec. Tiworo Kepulauan, Kabupaten Muna, Sulawesi Tenggara 93653","Wandoke, Kec. Tiworo Kepulauan, Kabupaten Muna",SULAWESI TENGGARA,93653.0,Indonesia,,,,-4.8090261,122.4456347,https://maps.google.com/?cid=0x0:0xa8a3d389d98a18b5,
perumahan,perumahan,ALONG CELL,"694V+59, Suka Damai, Tiworo Tengah, Kabupaten Muna, Sulawesi Tenggara","Kabupaten Muna, Sulawesi Tenggara",SULAWESI TENGGARA,,Indonesia, 082293120638,,,-4.7939549,122.3931378,https://maps.google.com/?cid=0x0:0x31e15dfe3f3ce9ef,
perumahan,perumahan,Syarif,"6F38+282, Laworo, Kec. Tiworo Kepulauan, Kabupaten Muna, Sulawesi Tenggara 93653","Laworo, Kec. Tiworo Kepulauan, Kabupaten Muna",SULAWESI TENGGARA,93653.0,Indonesia,,,,-4.7974773,122.4657734,https://maps.google.com/?cid=0x0:0x3ea8ae0d4770d5f3,
perumahan,Perumahan rakyat,Rumah kepala Muhammadiyah muna barat,"6C3J+52X, Waumere, Kec. Tiworo Kepulauan, Kabupaten Muna, Sulawesi Tenggara 93653","Waumere, Kec. Tiworo Kepulauan, Kabupaten Muna",SULAWESI TENGGARA,93653.0,Indonesia,,,,-4.797058,122.4296397,https://maps.google.com/?cid=0x0:0xfff6bafe8f7a828a,
perumahan,,Wedding Puji  Yusro,"5C9J+RW7, Jl. Karaeng Galesong, Sido Makmur, Kec. Tiworo Kepulauan, Kabupaten Muna, Sulawesi Tenggara","Kabupaten Muna, Sulawesi Tenggara",SULAWESI TENGGARA,,Indonesia,,,,-4.8304716,122.4323002,https://maps.google.com/?cid=0x0:0x3af1584a0eaf50a9,
perumahan,Komplek perumahan,Rumah MILA,"5FM2+H99, Wandoke, Kec. Tiworo Kepulauan, Kabupaten Muna, Sulawesi Tenggara 93653","Wandoke, Kec. Tiworo Kepulauan, Kabupaten Muna",SULAWESI TENGGARA,93653.0,Indonesia,,,,-4.816076,122.4509999,https://maps.google.com/?cid=0x0:0xc80f855233ca9f9c,
perumahan,Komplek perumahan,rumah SILOSARI,"69PQ+52V, Tondasi, Tiworo Tengah, Kabupaten Muna, Sulawesi Tenggara","Kabupaten Muna, Sulawesi Tenggara",SULAWESI TENGGARA,,Indonesia,,,,-4.7645224,122.3875384,https://maps.google.com/?cid=0x0:0xb2992d61f84d5ff7,
perumahan,Pembangunan Perumahan,Rujab Bupati Muna Barat,"Kambara, MunBar, Waumere, Kec. Tiworo Kepulauan, Kabupaten Muna, Sulawesi Tenggara 93653","MunBar, Waumere, Kec. Tiworo Kepulauan, Kabupaten Muna",SULAWESI TENGGARA,93653.0,Indonesia,,,,-4.797921,122.4200937,https://maps.google.com/?cid=0x0:0x3e9c3e1c8704fab3,
perumahan,Komplek perumahan,Rumah Mom's,"6F2F+XJM, Laworo, Kec. Sawerigadi, Kabupaten Muna, Sulawesi Tenggara 93653","Laworo, Kec. Sawerigadi, Kabupaten Muna",SULAWESI TENGGARA,93653.0,Indonesia,,,,-4.797549,122.4740462,https://maps.google.com/?cid=0x0:0x1d33d64e42f2cf5e,
perumahan,Rumah Kaca,"Made Erna, Gede Silayana","695X+45Q, Jl. Poros, Suka Damai, Tiworo Tengah, Kabupaten Muna, Sulawesi Tenggara 93653","Jl. Poros, Suka Damai, Tiworo Tengah, Kabupaten Muna",SULAWESI TENGGARA,93653.0,Indonesia,,,,-4.7916288,122.3984687,https://maps.google.com/?cid=0x0:0xb814f1ad94fc544b,
perumahan,Pembangunan Perumahan,Rumah Laode Suhardin,"6C3P+292, Jl. Poros, Tiworo, Kec. Tiworo Kepulauan, Kabupaten Muna, Sulawesi Tenggara 93653","Jl. Poros, Tiworo, Kec. Tiworo Kepulauan, Kabupaten Muna",SULAWESI TENGGARA,93653.0,Indonesia,,,,-4.798563,122.4370182,https://maps.google.com/?cid=0x0:0x61479bfe2db163bb,
perumahan,Pembangunan Perumahan,Tempat kerja,"59MW+WX, Wapae Jaya, Tiworo Tengah, Kabupaten Muna, Sulawesi Tenggara 93653","Wapae Jaya, Tiworo Tengah, Kabupaten Muna",SULAWESI TENGGARA,93653.0,Indonesia,,,,-4.8152089,122.397401,https://maps.google.com/?cid=0x0:0x7a30da1dcd1a3dd9,
perumahan,Komplek perumahan,Kebun Keluarga La Ode Hailo,"6C4G+RW9, Waumere, Kec. Tiworo Kepulauan, Kabupaten Muna, Sulawesi Tenggara","Kabupaten Muna, Sulawesi Tenggara",SULAWESI TENGGARA,,Indonesia,,,,-4.7929649,122.4273514,https://maps.google.com/?cid=0x0:0x7f0949ecaa8da8a8,
perumahan,Komplek perumahan,Rumah Abenk,"6C4J+VPC, Tiworo, Kec. Tiworo Kepulauan, Kabupaten Muna, Sulawesi Tenggara","Kabupaten Muna, Sulawesi Tenggara",SULAWESI TENGGARA,,Indonesia,,,,-4.792899,122.43198,https://maps.google.com/?cid=0x0:0x5e29b2b679ba6865,
perumahan,Komplek perumahan,Rumah aci,"5CQX+2CF, Wandoke, Kec. Tiworo Kepulauan, Kabupaten Muna, Sulawesi Tenggara 93653","Wandoke, Kec. Tiworo Kepulauan, Kabupaten Muna",SULAWESI TENGGARA,93653.0,Indonesia,,,,-4.8124259,122.4485355,https://maps.google.com/?cid=0x0:0xdf80301515e31648,
perumahan,perumahan,Rumah papss,"6F49+G2, Laworo, Kec. Tiworo Kepulauan, Kabupaten Muna, Sulawesi Tenggara","Kabupaten Muna, Sulawesi Tenggara",SULAWESI TENGGARA,,Indonesia,,,,-4.7936115,122.467574,https://maps.google.com/?cid=0x0:0x91e63f1b8213d823,
perumahan,Komplek perumahan,Rumah Rahman Baido,"5FX6+RX, Laworo, Kec. Tiworo Kepulauan, Kabupaten Muna, Sulawesi Tenggara","Kabupaten Muna, Sulawesi Tenggara",SULAWESI TENGGARA,,Indonesia,,,,-4.8004147,122.4624059,https://maps.google.com/?cid=0x0:0xad0735fd3a3a7542,
perumahan,perumahan,Tiworo Sel.,"Kabupaten Muna, Sulawesi Tenggara","Kabupaten Muna, Sulawesi Tenggara",SULAWESI TENGGARA,,Indonesia,,,,-4.8877531,122.3900901,https://maps.google.com/?cid=0x0:0xb8fa848ebeff23ff,
perumahan,Pembangunan Perumahan,Rumah Ø¹Ø¨Ø¯Ø§ÙÙÙ,"595Q+9PM, Mekar Jaya, Tiworo Tengah, Kabupaten Muna, Sulawesi Tenggara","Kabupaten Muna, Sulawesi Tenggara",SULAWESI TENGGARA,,Indonesia,,,,-4.8415462,122.389309,https://maps.google.com/?cid=0x0:0x9a17bd25a7466f16,
perumahan,Komplek perumahan,Rumah Pak Abdul Salam,"597R+579, Mekar Jaya, Tiworo Tengah, Kabupaten Muna, Sulawesi Tenggara","Kabupaten Muna, Sulawesi Tenggara",SULAWESI TENGGARA,,Indonesia,,,,-4.8375613,122.3916913,https://maps.google.com/?cid=0x0:0x9eab124eed51e6c2,
perumahan,perumahan,Rumah re,"3948+7X9, Komba-Komba, Kec. Kabangka, Kabupaten Muna, Sulawesi Tenggara","Kabupaten Muna, Sulawesi Tenggara",SULAWESI TENGGARA,,Indonesia,,,,-4.9454207,122.3678292,https://maps.google.com/?cid=0x0:0x859498381b6991a,
perumahan,Pusat Kesehatan Masyarakat,PUSKESMAS TIWORO SELATAN,"499P+F53, Jln labu 1 desa, Kasimpa Jaya, Tiworo Sel., Kabupaten Muna, Sulawesi Tenggara 93664","Jln labu 1 desa, Kasimpa Jaya, Tiworo Sel., Kabupaten Muna",SULAWESI TENGGARA,93664.0,Indonesia,,,,-4.8813505,122.3854326,https://maps.google.com/?cid=0x0:0x1a84839105caf8db,
perumahan,Komplek perumahan,Kasimpa jaya,"498M+HQ7, Poros, Kasimpa Jaya, Tiworo Sel., Kabupaten Muna, Sulawesi Tenggara","Kabupaten Muna, Sulawesi Tenggara",SULAWESI TENGGARA,,Indonesia,,,,-4.8835949,122.384425,https://maps.google.com/?cid=0x0:0x499670baaedd688,
perumahan,Komplek perumahan,Rumah Ari,"498J+GCP, Kasimpa Jaya, Tiworo Sel., Kabupaten Muna, Sulawesi Tenggara","Kabupaten Muna, Sulawesi Tenggara",SULAWESI TENGGARA,,Indonesia,,,,-4.8836503,122.3810776,https://maps.google.com/?cid=0x0:0x3a81302400bf0616,
perumahan,Pembangunan Perumahan,Rumah,"4CWW+G7, Lakanaha, Kec. Wadaga, Kabupaten Muna, Sulawesi Tenggara","Kabupaten Muna, Sulawesi Tenggara",SULAWESI TENGGARA,,Indonesia,,,,-4.853666,122.445651,https://maps.google.com/?cid=0x0:0x5b6780e0ffa68e0d,
perumahan,Pembangunan Perumahan,Pustu irma,"4CW3+6CV, Parura Jaya, Tiworo Sel., Kabupaten Muna, Sulawesi Tenggara","Kabupaten Muna, Sulawesi Tenggara",SULAWESI TENGGARA,,Indonesia,,,,-4.8543921,122.4035455,https://maps.google.com/?cid=0x0:0x80aed9a7f196545b,
perumahan,perumahan,Rumah Eghað¤,"498J+57W, Kasimpa Jaya, Tiworo Sel., Kabupaten Muna, Sulawesi Tenggara 93664","Kasimpa Jaya, Tiworo Sel., Kabupaten Muna",SULAWESI TENGGARA,93664.0,Indonesia,,,,-4.8847504,122.3804611,https://maps.google.com/?cid=0x0:0xb912f2e6b40ebe29,
perumahan,Komplek perumahan,"Rumah Ema, Raha","5CC2+8G, Mekar Jaya, Tiworo Tengah, Kabupaten Muna, Sulawesi Tenggara","Kabupaten Muna, Sulawesi Tenggara",SULAWESI TENGGARA,,Indonesia,,,,-4.8291848,122.4013602,https://maps.google.com/?cid=0x0:0x6371988e9a51d97c,
perumahan,Komplek perumahan,Rumah Pak TERANG,"49M8+9VM, Abadi Jaya, Kec. Maginti, Kabupaten Muna, Sulawesi Tenggara","Kabupaten Muna, Sulawesi Tenggara",SULAWESI TENGGARA,,Indonesia,,,,-4.8665396,122.3671855,https://maps.google.com/?cid=0x0:0x12c3b1d42cf5664f,
perumahan,Bengkel Mobil,fiky servis motor,"592X+9P9, Unnamed Road, Parura Jaya, Tiworo Sel., Kabupaten Muna, Sulawesi Tenggara","Kabupaten Muna, Sulawesi Tenggara",SULAWESI TENGGARA,,Indonesia,,,,-4.8490918,122.399367,https://maps.google.com/?cid=0x0:0x97c186a73daef503,
perumahan,Komplek perumahan,Desa Kasimpa Jaya,"49GQ+3M6, Unnamed Road, Kasimpa Jaya, Tiworo Sel., Kabupaten Muna, Sulawesi Tenggara","Kabupaten Muna, Sulawesi Tenggara",SULAWESI TENGGARA,,Indonesia,,,,-4.874833,122.389135,https://maps.google.com/?cid=0x0:0x3a8d9348af1a9234,
perumahan,Komplek perumahan,Rumah keluarga Kadek hita,"49FJ+PM, Kasimpa Jaya, Tiworo Sel., Kabupaten Muna, Sulawesi Tenggara","Kabupaten Muna, Sulawesi Tenggara",SULAWESI TENGGARA,,Indonesia,,,,-4.8757325,122.381694,https://maps.google.com/?cid=0x0:0x44b46bccdf1485d,
perumahan,Pembangunan Perumahan,Tempat kerja,"59MW+WX, Wapae Jaya, Tiworo Tengah, Kabupaten Muna, Sulawesi Tenggara 93653","Wapae Jaya, Tiworo Tengah, Kabupaten Muna",SULAWESI TENGGARA,93653.0,Indonesia,,,,-4.8152089,122.397401,https://maps.google.com/?cid=0x0:0x7a30da1dcd1a3dd9,
perumahan,Gedung Apartemen,RUMAH WIJAYA,"5CRW+97J, Wandoke, Kec. Tiworo Kepulauan, Kabupaten Muna, Sulawesi Tenggara 93653","Wandoke, Kec. Tiworo Kepulauan, Kabupaten Muna",SULAWESI TENGGARA,93653.0,Indonesia,,,,-4.8090261,122.4456347,https://maps.google.com/?cid=0x0:0xa8a3d389d98a18b5,
perumahan,Komplek perumahan,mekar jaya jalan Hasanudin munabarat,"59CW+686, Mekar Jaya, Tiworo Tengah, Kabupaten Muna, Sulawesi Tenggara","Kabupaten Muna, Sulawesi Tenggara",SULAWESI TENGGARA,,Indonesia, 085240541839,,,-4.8294657,122.3957548,https://maps.google.com/?cid=0x0:0xdb0a7a72eb35aa6e,
perumahan,Rumah Kayu,Rumah fajar,"4C45+FHP, Sangia Tiworo, Tiworo Sel., Kabupaten Muna, Sulawesi Tenggara 93664","Sangia Tiworo, Tiworo Sel., Kabupaten Muna",SULAWESI TENGGARA,93664.0,Indonesia,,,,-4.893795,122.4089511,https://maps.google.com/?cid=0x0:0x10ebed8ac2d130e2,
perumahan,Komplek perumahan,Eaak eaakkk,"4CX3+68X, Parura Jaya, Tiworo Sel., Kabupaten Muna, Sulawesi Tenggara","Kabupaten Muna, Sulawesi Tenggara",SULAWESI TENGGARA,,Indonesia,,,,-4.8518844,122.403359,https://maps.google.com/?cid=0x0:0x332c00d429c07f1b,
perumahan,Taman,Dusun masoga,"49G8+MHR, Kembar Maminasa, Kec. Maginti, Kabupaten Muna, Sulawesi Tenggara","Kabupaten Muna, Sulawesi Tenggara",SULAWESI TENGGARA,,Indonesia,,,,-4.8732567,122.3663956,https://maps.google.com/?cid=0x0:0x7637db2881bbad31,
perumahan,Rumah Kayu,Sry,"39VJ+XCH, Sangia Tiworo, Tiworo Sel., Kabupaten Muna, Sulawesi Tenggara 93664","Sangia Tiworo, Tiworo Sel., Kabupaten Muna",SULAWESI TENGGARA,93664.0,Indonesia,,,,-4.9050648,122.3810977,https://maps.google.com/?cid=0x0:0xef6a5cbb30838c30,
perumahan,Produsen,Rumah Walet AK 1,"5C3M+26Q, Katangana, Tiworo Sel., Kabupaten Muna, Sulawesi Tenggara","Kabupaten Muna, Sulawesi Tenggara",SULAWESI TENGGARA,,Indonesia,,,,-4.8474217,122.4331122,https://maps.google.com/?cid=0x0:0xffd430409f9b438,
perumahan,perumahan,Rumah Kost Anggun,,,SULAWESI TENGGARA,,Indonesia, 085240341838,,,-4.810851,122.402419,https://maps.google.com/?cid=0x0:0x4c78f95e2a40e7f9,
perumahan,Perusahaan Operasi Pelabuhan,Pulau bangko,"38HQ+7JW, Bangko, Kec. Maginti, Kabupaten Muna, Sulawesi Tenggara","Kabupaten Muna, Sulawesi Tenggara",SULAWESI TENGGARA,,Indonesia,,,,-4.9217674,122.3390936,https://maps.google.com/?cid=0x0:0xb6567be7ead9253d,
perumahan,Danau untuk Berenang,Danau Gempol,"4CQ3+M75, Katangana, Tiworo Sel., Kabupaten Muna, Sulawesi Tenggara","Kabupaten Muna, Sulawesi Tenggara",SULAWESI TENGGARA,,Indonesia,,,,-4.8608554,122.403237,https://maps.google.com/?cid=0x0:0xcbe49993bee963e5,
perumahan,Komplek perumahan,Rumah faisal,"49CQ+X7M, Jln Poros, Kasimpa Jaya, South Tiworo, Muna Regency, South East Sulawesi","Kabupaten Muna, Sulawesi Tenggara",SULAWESI TENGGARA,,Indonesia,,,,-4.8775372,122.3881681,https://maps.google.com/?cid=0x0:0xa0514ca4e4d6ef67,
perumahan,perumahan,Tiworo Tengah,"Kabupaten Muna, Sulawesi Tenggara","Kabupaten Muna, Sulawesi Tenggara",SULAWESI TENGGARA,,Indonesia,,,,-4.7902626,122.3787597,https://maps.google.com/?cid=0x0:0x185569b801f89ceb,
perumahan,Pembangunan Perumahan,Rumah Ø¹Ø¨Ø¯Ø§ÙÙÙ,"595Q+9PM, Mekar Jaya, Tiworo Tengah, Kabupaten Muna, Sulawesi Tenggara","Kabupaten Muna, Sulawesi Tenggara",SULAWESI TENGGARA,,Indonesia,,,,-4.8415462,122.389309,https://maps.google.com/?cid=0x0:0x9a17bd25a7466f16,
perumahan,Komplek perumahan,Perumahan Alam Muliadira Muna Barat,"5CX8+WJ8, Jalan Poros Raha Tondasi (Depan Kantor PLN Kambara Kel. Waumere, Tiworo, Kepulaua, Muna barat, Sulawesi Tenggara 93653","Jalan Poros Raha Tondasi (Depan Kantor PLN Kambara Kel. Waumere, Tiworo, Kepulaua, Muna barat",SULAWESI TENGGARA,93653.0,Indonesia, 082251666695,,,-4.8002153,122.4165834,https://maps.google.com/?cid=0x0:0x537ca4bd08f51a2a,
perumahan,Perumahan rakyat,Rujab Sementara Bupati Muna Barat,"5CV7+VFF, Jembatan Mourundu, Unnamed Rd, Wulanga Jaya, Tiworo Tengah, Kabupaten Muna, Sulawesi Tenggara 93653","Jembatan Mourundu, Unnamed Rd, Wulanga Jaya, Tiworo Tengah, Kabupaten Muna",SULAWESI TENGGARA,93653.0,Indonesia,,,,-4.8039275,122.4136055,https://maps.google.com/?cid=0x0:0xb322f01c102411bd,
perumahan,Rumah Kaca,"Made Erna, Gede Silayana","695X+45Q, Jl. Poros, Suka Damai, Tiworo Tengah, Kabupaten Muna, Sulawesi Tenggara 93653","Jl. Poros, Suka Damai, Tiworo Tengah, Kabupaten Muna",SULAWESI TENGGARA,93653.0,Indonesia,,,,-4.7916288,122.3984687,https://maps.google.com/?cid=0x0:0xb814f1ad94fc544b,
perumahan,Komplek perumahan,Rumah Pak Abdul Salam,"597R+579, Mekar Jaya, Tiworo Tengah, Kabupaten Muna, Sulawesi Tenggara","Kabupaten Muna, Sulawesi Tenggara",SULAWESI TENGGARA,,Indonesia,,,,-4.8375613,122.3916913,https://maps.google.com/?cid=0x0:0x9eab124eed51e6c2,
perumahan,Komplek perumahan,rumah SILOSARI,"69PQ+52V, Tondasi, Tiworo Tengah, Kabupaten Muna, Sulawesi Tenggara","Kabupaten Muna, Sulawesi Tenggara",SULAWESI TENGGARA,,Indonesia,,,,-4.7645224,122.3875384,https://maps.google.com/?cid=0x0:0xb2992d61f84d5ff7,
perumahan,Komplek perumahan,Rumah Okta,"59PF+V69, Langku-Langku, Tiworo Tengah, Kabupaten Muna, Sulawesi Tenggara 93653","Langku-Langku, Tiworo Tengah, Kabupaten Muna",SULAWESI TENGGARA,93653.0,Indonesia,,,,-4.8128407,122.373094,https://maps.google.com/?cid=0x0:0xb23ea3c5c1ce4be3,
perumahan,Pembangunan Perumahan,Tempat kerja,"59MW+WX, Wapae Jaya, Tiworo Tengah, Kabupaten Muna, Sulawesi Tenggara 93653","Wapae Jaya, Tiworo Tengah, Kabupaten Muna",SULAWESI TENGGARA,93653.0,Indonesia,,,,-4.8152089,122.397401,https://maps.google.com/?cid=0x0:0x7a30da1dcd1a3dd9,
perumahan,Komplek perumahan,Rumah Komang mujana,"5CW3+8P3, Suka Damai, Tiworo Tengah, Kabupaten Muna, Sulawesi Tenggara 93653","Suka Damai, Tiworo Tengah, Kabupaten Muna",SULAWESI TENGGARA,93653.0,Indonesia,,,,-4.804228,122.4042859,https://maps.google.com/?cid=0x0:0x82ad40d6af8b8fc2,
perumahan,Pembangunan Perumahan,yordan,"5974+4XR, Momuntu, Tiworo Tengah, Kabupaten Muna, Sulawesi Tenggara","Kabupaten Muna, Sulawesi Tenggara",SULAWESI TENGGARA,,Indonesia,,,,-4.8371454,122.3573837,https://maps.google.com/?cid=0x0:0x25e898a1937c038d,
perumahan,perumahan,Rumah Bidan Nunun,"5CM3+HGC, Jl Diponegoro Timur, Wapae Jaya, Tiworo Tengah, Kabupaten Muna, Sulawesi Tenggara","Kabupaten Muna, Sulawesi Tenggara",SULAWESI TENGGARA,,Indonesia,,,,-4.8160728,122.4037527,https://maps.google.com/?cid=0x0:0xbc6dcebeac800853,
perumahan,perumahan,Pak dusun,"69FW+H8R, Labukolo, Tiworo Tengah, Kabupaten Muna, Sulawesi Tenggara 93653","Labukolo, Tiworo Tengah, Kabupaten Muna",SULAWESI TENGGARA,93653.0,Indonesia,,,,-4.7760064,122.3957548,https://maps.google.com/?cid=0x0:0x57488a2fd47b49ba,
perumahan,Pembangunan Perumahan,Runahku,"Jl. Poros No.2, Mekar Jaya, Tiworo Tengah, Kabupaten Muna, Sulawesi Tenggara 93648","Mekar Jaya, Tiworo Tengah, Kabupaten Muna",SULAWESI TENGGARA,93648.0,Indonesia,,,,-4.817781,122.402473,https://maps.google.com/?cid=0x0:0xd68a018362545d10,
perumahan,Rumah Kaca,Rumah Putu Sartika,"5CGM+Q6J, Wulanga Jaya, Kec. Tiworo Kepulauan, Kabupaten Muna, Sulawesi Tenggara 93653","Wulanga Jaya, Kec. Tiworo Kepulauan, Kabupaten Muna",SULAWESI TENGGARA,93653.0,Indonesia,,,,-4.8230286,122.4330055,https://maps.google.com/?cid=0x0:0x8aaae58cf767ec0,
perumahan,Komplek perumahan,mekar jaya jalan Hasanudin munabarat,"59CW+686, Mekar Jaya, Tiworo Tengah, Kabupaten Muna, Sulawesi Tenggara","Kabupaten Muna, Sulawesi Tenggara",SULAWESI TENGGARA,,Indonesia, 085240541839,,,-4.8294657,122.3957548,https://maps.google.com/?cid=0x0:0xdb0a7a72eb35aa6e,
perumahan,Pembangunan Perumahan,Linda,"5CR3+5QR, Jl. Ade Irma Nasution, Suka Damai, Tiworo Tengah, Kabupaten Muna, Sulawesi Tenggara 93653","Jl. Ade Irma Nasution, Suka Damai, Tiworo Tengah, Kabupaten Muna",SULAWESI TENGGARA,93653.0,Indonesia,,,,-4.8095096,122.404393,https://maps.google.com/?cid=0x0:0x346539e580d768f0,
perumahan,Pembangunan Perumahan,Rujab Bupati Muna Barat,"Kambara, MunBar, Waumere, Kec. Tiworo Kepulauan, Kabupaten Muna, Sulawesi Tenggara 93653","MunBar, Waumere, Kec. Tiworo Kepulauan, Kabupaten Muna",SULAWESI TENGGARA,93653.0,Indonesia,,,,-4.797921,122.4200937,https://maps.google.com/?cid=0x0:0x3e9c3e1c8704fab3,
perumahan,Komplek perumahan,Ferdinandus Ari Saputra,"5986+6W7, Momuntu, Tiworo Tengah, Kabupaten Muna, Sulawesi Tenggara 93653","Momuntu, Tiworo Tengah, Kabupaten Muna",SULAWESI TENGGARA,93653.0,Indonesia,,,,-4.8343952,122.3622757,https://maps.google.com/?cid=0x0:0xbb57a46f8c6123c7,
perumahan,Komplek perumahan,Hamdan,"5963+PX, Momuntu, Tiworo Tengah, Kabupaten Muna, Sulawesi Tenggara","Kabupaten Muna, Sulawesi Tenggara",SULAWESI TENGGARA,,Indonesia,,,,-4.838175,122.354901,https://maps.google.com/?cid=0x0:0x7b7610fe01e1e3b2,
perumahan,Komplek perumahan,Rumah mbh kadin,"69FW+H8R, Labukolo, Tiworo Tengah, Kabupaten Muna, Sulawesi Tenggara 93653","Labukolo, Tiworo Tengah, Kabupaten Muna",SULAWESI TENGGARA,93653.0,Indonesia,,,,-4.7760064,122.3957548,https://maps.google.com/?cid=0x0:0x96f5d01ea85797d4,
perumahan,perumahan,Tiworo Utara,"Kabupaten Muna, Sulawesi Tenggara","Kabupaten Muna, Sulawesi Tenggara",SULAWESI TENGGARA,,Indonesia,,,,-4.6704353,122.373094,https://maps.google.com/?cid=0x0:0xacd624ac1fc2f9d6,
perumahan,Perhimpunan Pengembang Perumahan,buka 2000 hari,"78X4+Q24, Santiri, Tiworo Utara, Kabupaten Muna, Sulawesi Tenggara 93653","Santiri, Tiworo Utara, Kabupaten Muna",SULAWESI TENGGARA,93653.0,Indonesia, 08110577953,,,-4.7006191,122.3050823,https://maps.google.com/?cid=0x0:0x8c2291d69e415192,
perumahan,Komplek perumahan,Perumahan Alam Muliadira Muna Barat,"5CX8+WJ8, Jalan Poros Raha Tondasi (Depan Kantor PLN Kambara Kel. Waumere, Tiworo, Kepulaua, Muna barat, Sulawesi Tenggara 93653","Jalan Poros Raha Tondasi (Depan Kantor PLN Kambara Kel. Waumere, Tiworo, Kepulaua, Muna barat",SULAWESI TENGGARA,93653.0,Indonesia, 082251666695,,,-4.8002153,122.4165834,https://maps.google.com/?cid=0x0:0x537ca4bd08f51a2a,
perumahan,Komplek perumahan,Adil anak lorong,"98HM+GJ9, Tasipi, Tiworo Utara, Kabupaten Muna, Sulawesi Tenggara","Kabupaten Muna, Sulawesi Tenggara",SULAWESI TENGGARA,,Indonesia,,,,-4.621216,122.3341051,https://maps.google.com/?cid=0x0:0x2f9f9263eec27ecb,
perumahan,Komplek perumahan,Trans tondasi,"69XJ+3JW Trans, Tondasi, Tiworo Utara, Kabupaten Muna, Sulawesi Tenggara","Kabupaten Muna, Sulawesi Tenggara",SULAWESI TENGGARA,,Indonesia,,,,-4.7522661,122.3815924,https://maps.google.com/?cid=0x0:0xddf5c4705df354a7,
perumahan,perumahan,ALONG CELL,"694V+59, Suka Damai, Tiworo Tengah, Kabupaten Muna, Sulawesi Tenggara","Kabupaten Muna, Sulawesi Tenggara",SULAWESI TENGGARA,,Indonesia, 082293120638,,,-4.7939549,122.3931378,https://maps.google.com/?cid=0x0:0x31e15dfe3f3ce9ef,
perumahan,Pembangunan Perumahan,Rumah Ø¹Ø¨Ø¯Ø§ÙÙÙ,"595Q+9PM, Mekar Jaya, Tiworo Tengah, Kabupaten Muna, Sulawesi Tenggara","Kabupaten Muna, Sulawesi Tenggara",SULAWESI TENGGARA,,Indonesia,,,,-4.8415462,122.389309,https://maps.google.com/?cid=0x0:0x9a17bd25a7466f16,
perumahan,Pembangunan Perumahan,Al athar,"98HM+5XR, Tasipi, Tiworo Utara, Kabupaten Muna, Sulawesi Tenggara","Kabupaten Muna, Sulawesi Tenggara",SULAWESI TENGGARA,,Indonesia,,,,-4.622018,122.3349001,https://maps.google.com/?cid=0x0:0xd0cf4d6ce7591181,
perumahan,Komplek perumahan,Nazira Shafa,"98JF+8PQ, Tasipi, Tiworo Utara, Kabupaten Muna, Sulawesi Tenggara","Kabupaten Muna, Sulawesi Tenggara",SULAWESI TENGGARA,,Indonesia,,,,-4.619164,122.3243454,https://maps.google.com/?cid=0x0:0xd738de0fdd10018d,
perumahan,Perumahan rakyat,Rujab Sementara Bupati Muna Barat,"5CV7+VFF, Jembatan Mourundu, Unnamed Rd, Wulanga Jaya, Tiworo Tengah, Kabupaten Muna, Sulawesi Tenggara 93653","Jembatan Mourundu, Unnamed Rd, Wulanga Jaya, Tiworo Tengah, Kabupaten Muna",SULAWESI TENGGARA,93653.0,Indonesia,,,,-4.8039275,122.4136055,https://maps.google.com/?cid=0x0:0xb322f01c102411bd,
perumahan,Komplek perumahan,Ruma si Yaldi,"69VC+RV3, Tondasi, Tiworo Utara, Kabupaten Muna, Sulawesi Tenggara 93653","Tondasi, Tiworo Utara, Kabupaten Muna",SULAWESI TENGGARA,93653.0,Indonesia,,,,-4.7554758,122.3721717,https://maps.google.com/?cid=0x0:0xd54565b14fa642bc,
perumahan,Rumah Kaca,Rumah Putu Sartika,"5CGM+Q6J, Wulanga Jaya, Kec. Tiworo Kepulauan, Kabupaten Muna, Sulawesi Tenggara 93653","Wulanga Jaya, Kec. Tiworo Kepulauan, Kabupaten Muna",SULAWESI TENGGARA,93653.0,Indonesia,,,,-4.8230286,122.4330055,https://maps.google.com/?cid=0x0:0x8aaae58cf767ec0,
perumahan,Perumahan,Tondasi,"69XJ+3JW, Tondasi, Tiworo Utara, Kabupaten Muna, Sulawesi Tenggara","Kabupaten Muna, Sulawesi Tenggara",SULAWESI TENGGARA,,Indonesia,,,,-4.7522661,122.3815924,https://maps.google.com/?cid=0x0:0xc5ddbce6d636dd3a,
perumahan,Rumah Kaca,"Made Erna, Gede Silayana","695X+45Q, Jl. Poros, Suka Damai, Tiworo Tengah, Kabupaten Muna, Sulawesi Tenggara 93653","Jl. Poros, Suka Damai, Tiworo Tengah, Kabupaten Muna",SULAWESI TENGGARA,93653.0,Indonesia,,,,-4.7916288,122.3984687,https://maps.google.com/?cid=0x0:0xb814f1ad94fc544b,
perumahan,Pembangunan Perumahan,Tempat kerja,"59MW+WX, Wapae Jaya, Tiworo Tengah, Kabupaten Muna, Sulawesi Tenggara 93653","Wapae Jaya, Tiworo Tengah, Kabupaten Muna",SULAWESI TENGGARA,93653.0,Indonesia,,,,-4.8152089,122.397401,https://maps.google.com/?cid=0x0:0x7a30da1dcd1a3dd9,
perumahan,Komplek perumahan,Rumah Okta,"59PF+V69, Langku-Langku, Tiworo Tengah, Kabupaten Muna, Sulawesi Tenggara 93653","Langku-Langku, Tiworo Tengah, Kabupaten Muna",SULAWESI TENGGARA,93653.0,Indonesia,,,,-4.8128407,122.373094,https://maps.google.com/?cid=0x0:0xb23ea3c5c1ce4be3,
perumahan,Gedung Apartemen,RUMAH WIJAYA,"5CRW+97J, Wandoke, Kec. Tiworo Kepulauan, Kabupaten Muna, Sulawesi Tenggara 93653","Wandoke, Kec. Tiworo Kepulauan, Kabupaten Muna",SULAWESI TENGGARA,93653.0,Indonesia,,,,-4.8090261,122.4456347,https://maps.google.com/?cid=0x0:0xa8a3d389d98a18b5,
perumahan,Komplek perumahan,Rumah Pak Abdul Salam,"597R+579, Mekar Jaya, Tiworo Tengah, Kabupaten Muna, Sulawesi Tenggara","Kabupaten Muna, Sulawesi Tenggara",SULAWESI TENGGARA,,Indonesia,,,,-4.8375613,122.3916913,https://maps.google.com/?cid=0x0:0x9eab124eed51e6c2,
perumahan,Komplek perumahan,Rumah Komang mujana,"5CW3+8P3, Suka Damai, Tiworo Tengah, Kabupaten Muna, Sulawesi Tenggara 93653","Suka Damai, Tiworo Tengah, Kabupaten Muna",SULAWESI TENGGARA,93653.0,Indonesia,,,,-4.804228,122.4042859,https://maps.google.com/?cid=0x0:0x82ad40d6af8b8fc2,
perumahan,perumahan,Rumah Bidan Nunun,"5CM3+HGC, Jl Diponegoro Timur, Wapae Jaya, Tiworo Tengah, Kabupaten Muna, Sulawesi Tenggara","Kabupaten Muna, Sulawesi Tenggara",SULAWESI TENGGARA,,Indonesia,,,,-4.8160728,122.4037527,https://maps.google.com/?cid=0x0:0xbc6dcebeac800853,
perumahan,Perumahan rakyat,Rumah kepala Muhammadiyah muna barat,"6C3J+52X, Waumere, Kec. Tiworo Kepulauan, Kabupaten Muna, Sulawesi Tenggara 93653","Waumere, Kec. Tiworo Kepulauan, Kabupaten Muna",SULAWESI TENGGARA,93653.0,Indonesia,,,,-4.797058,122.4296397,https://maps.google.com/?cid=0x0:0xfff6bafe8f7a828a,
perumahan,perumahan,Pak dusun,"69FW+H8R, Labukolo, Tiworo Tengah, Kabupaten Muna, Sulawesi Tenggara 93653","Labukolo, Tiworo Tengah, Kabupaten Muna",SULAWESI TENGGARA,93653.0,Indonesia,,,,-4.7760064,122.3957548,https://maps.google.com/?cid=0x0:0x57488a2fd47b49ba,
perumahan,Komplek perumahan,Kebun Keluarga La Ode Hailo,"6C4G+RW9, Waumere, Kec. Tiworo Kepulauan, Kabupaten Muna, Sulawesi Tenggara","Kabupaten Muna, Sulawesi Tenggara",SULAWESI TENGGARA,,Indonesia,,,,-4.7929649,122.4273514,https://maps.google.com/?cid=0x0:0x7f0949ecaa8da8a8,
perumahan,Pembangunan Perumahan,Rumah Laode Suhardin,"6C3P+292, Jl. Poros, Tiworo, Kec. Tiworo Kepulauan, Kabupaten Muna, Sulawesi Tenggara 93653","Jl. Poros, Tiworo, Kec. Tiworo Kepulauan, Kabupaten Muna",SULAWESI TENGGARA,93653.0,Indonesia,,,,-4.798563,122.4370182,https://maps.google.com/?cid=0x0:0x61479bfe2db163bb,
perumahan,perumahan,Kec. Wadaga,"Kabupaten Muna, Sulawesi Tenggara","Kabupaten Muna, Sulawesi Tenggara",SULAWESI TENGGARA,,Indonesia,,,,-4.9157067,122.5304167,https://maps.google.com/?cid=0x0:0xb09250edddcd2e35,
perumahan,Pembangunan Perumahan,Rumah,"4CWW+G7, Lakanaha, Kec. Wadaga, Kabupaten Muna, Sulawesi Tenggara","Kabupaten Muna, Sulawesi Tenggara",SULAWESI TENGGARA,,Indonesia,,,,-4.853666,122.445651,https://maps.google.com/?cid=0x0:0x5b6780e0ffa68e0d,
perumahan,Kantor Pemerintah,Desa lailangga,"3GMJ+P53, Lailangga, Kec. Wadaga, Kabupaten Muna, Sulawesi Tenggara 93652","Lailangga, Kec. Wadaga, Kabupaten Muna",SULAWESI TENGGARA,93652.0,Indonesia,,,,-4.9157406,122.5304317,https://maps.google.com/?cid=0x0:0x42f5fedb6d11e797,
perumahan,Masjid,muna barat,"4GGR+R29, Wamelai(Lambubalano), Kec. Lawa, Kabupaten Muna, Sulawesi Tenggara 93652","Wamelai(Lambubalano), Kec. Lawa, Kabupaten Muna",SULAWESI TENGGARA,93652.0,Indonesia,,,,-4.8729742,122.5401025,https://maps.google.com/?cid=0x0:0x335994cbe76c0858,
perumahan,Komplek perumahan,Rumah La Hakimin,"3GJC+7MV, Lailangga, Kec. Wadaga, Kabupaten Muna, Sulawesi Tenggara 93652","Lailangga, Kec. Wadaga, Kabupaten Muna",SULAWESI TENGGARA,93652.0,Indonesia, 082261594649,,,-4.9188599,122.5218222,https://maps.google.com/?cid=0x0:0x627d7d12cbd98278,
perumahan,Komplek perumahan,Lorong asri,"3GQG+4J, Lailangga, Kec. Wadaga, Kabupaten Muna, Sulawesi Tenggara","Kabupaten Muna, Sulawesi Tenggara",SULAWESI TENGGARA,,Indonesia,,,,-4.9121739,122.5265633,https://maps.google.com/?cid=0x0:0xc964d6f1b3b3e764,
perumahan,Komplek perumahan,Rumah Mitra,"3GVG+4J2, Lasosodo, Kec. Wadaga, Kabupaten Muna, Sulawesi Tenggara 93652","Lasosodo, Kec. Wadaga, Kabupaten Muna",SULAWESI TENGGARA,93652.0,Indonesia,,,,-4.9072311,122.5265157,https://maps.google.com/?cid=0x0:0xf9da9acd1c7a416d,
perumahan,Pembangunan Perumahan,Lawada jaya,"4CWW+G7, Lakanaha, Kec. Wadaga, Kabupaten Muna, Sulawesi Tenggara","Kabupaten Muna, Sulawesi Tenggara",SULAWESI TENGGARA,,Indonesia,,,,-4.853666,122.445651,https://maps.google.com/?cid=0x0:0x4471aaea39559849,
perumahan,Komplek perumahan,Rumah Asra,"3G58+HX9, Lembo, Kec. Kontu Kowuna, Kabupaten Muna, Sulawesi Tenggara 93652","Lembo, Kec. Kontu Kowuna, Kabupaten Muna",SULAWESI TENGGARA,93652.0,Indonesia,,,,-4.9410877,122.5174729,https://maps.google.com/?cid=0x0:0x874a96c9f6da8462,
perumahan,Komplek perumahan,Rumah ocha,"3GJ6+8G, Lindo, Kec. Wadaga, Kabupaten Muna, Sulawesi Tenggara","Kabupaten Muna, Sulawesi Tenggara",SULAWESI TENGGARA,,Indonesia,,,,-4.919247,122.511284,https://maps.google.com/?cid=0x0:0x4940b1eb5dcdc706,
perumahan,Komplek perumahan,Rumah la setia,"3FV7+HF8, Kampani, Kec. Wadaga, Kabupaten Muna, Sulawesi Tenggara 93652","Kampani, Kec. Wadaga, Kabupaten Muna",SULAWESI TENGGARA,93652.0,Indonesia,,,,-4.9060875,122.463708,https://maps.google.com/?cid=0x0:0x49c3eec88a2b296a,
perumahan,Komplek perumahan,Rumah wa haeno,"3G52+GRP, Lembo, Kec. Kontu Kowuna, Kabupaten Muna, Sulawesi Tenggara 93652","Lembo, Kec. Kontu Kowuna, Kabupaten Muna",SULAWESI TENGGARA,93652.0,Indonesia,,,,-4.9411671,122.5020855,https://maps.google.com/?cid=0x0:0xb7fbed588ed3a74b,
perumahan,Komplek perumahan,Waadje,"5G3V+WM, Barangka, Kec. Barangka, Kabupaten Muna, Sulawesi Tenggara","Kabupaten Muna, Sulawesi Tenggara",SULAWESI TENGGARA,,Indonesia,,,,-4.845157,122.544229,https://maps.google.com/?cid=0x0:0x465fa9754b661e82,
perumahan,perumahan,Rumah Datok Masrudin Said,"4CWW+H85, Lawada Jaya, Kec. Wadaga, Kabupaten Muna, Sulawesi Tenggara","Kabupaten Muna, Sulawesi Tenggara",SULAWESI TENGGARA,,Indonesia,,,,-4.8536158,122.445859,https://maps.google.com/?cid=0x0:0x7c9001559ca93e1c,
perumahan,Kantor Pemerintah,Desa lakanaha,"RT/RW:002/002,desa lakanaha kecamatan wadaga, barat, Kabupaten Muna, Sulawesi Tenggara","Kabupaten Muna, Sulawesi Tenggara",SULAWESI TENGGARA,,Indonesia,,,,-4.8779847,122.4977081,https://maps.google.com/?cid=0x0:0x216a0699e1e8a668,
perumahan,Komplek perumahan,Rumah ALAF,"3GJG+P3, Lailangga, Kec. Wadaga, Kabupaten Muna, Sulawesi Tenggara","Kabupaten Muna, Sulawesi Tenggara",SULAWESI TENGGARA,,Indonesia,,,,-4.9181855,122.525181,https://maps.google.com/?cid=0x0:0xcee968df3302b02,
perumahan,Komplek perumahan,GM Home Stay,"Jl. Barangka-Lawa, Latugho, Kec. Lawa, Kabupaten Muna, Sulawesi Tenggara 93652","Latugho, Kec. Lawa, Kabupaten Muna",SULAWESI TENGGARA,93652.0,Indonesia, 085396233117,,,-4.8506836,122.5462404,https://maps.google.com/?cid=0x0:0xb6383bb4c903d933,
perumahan,Komplek perumahan,Rumah Nurdianjia,"4F4H+84Q, Katobu, Kec. Wadaga, Kabupaten Muna, Sulawesi Tenggara","Kabupaten Muna, Sulawesi Tenggara",SULAWESI TENGGARA,,Indonesia,,,,-4.8941691,122.4778593,https://maps.google.com/?cid=0x0:0xfe76d102c63063bf,
perumahan,Komplek perumahan,Nurni Narni,"3GJC+589, Jl. Poros, Lailangga, Kec. Wadaga, Kabupaten Muna, Sulawesi Tenggara 93652","Jl. Poros, Lailangga, Kec. Wadaga, Kabupaten Muna",SULAWESI TENGGARA,93652.0,Indonesia,,,,-4.9195953,122.5208564,https://maps.google.com/?cid=0x0:0x9f71eee9f0902b0e,
perumahan,Pembangunan Perumahan,Desa sawerigadi,"4HR4+XG, Latugho, Kec. Lawa, Kabupaten Muna, Sulawesi Tenggara","Kabupaten Muna, Sulawesi Tenggara",SULAWESI TENGGARA,,Indonesia,,,,-4.8575849,122.5563924,https://maps.google.com/?cid=0x0:0x1303ada27909c11,
perumahan,Komplek perumahan,Rumah Fadil,"3G63+VRJ, Lembo, Kec. Kontu Kowuna, Kabupaten Muna, Sulawesi Tenggara 93652","Lembo, Kec. Kontu Kowuna, Kabupaten Muna",SULAWESI TENGGARA,93652.0,Indonesia,,,,-4.9377973,122.5045307,https://maps.google.com/?cid=0x0:0xe484b90d95faff24,
perumahan,Komplek perumahan,Rumah andi ajih,"3G63+G6, Kafoo-Foo, Kec. Kontu Kowuna, Kabupaten Muna, Sulawesi Tenggara","Kabupaten Muna, Sulawesi Tenggara",SULAWESI TENGGARA,,Indonesia,,,,-4.9386452,122.5031035,https://maps.google.com/?cid=0x0:0x2f3e4bad57fc871d,
