Category,Real Category,Business Name,Address,City,State,Postal Code,Country,Phone,Latitude,Longitude,Map Link
cafe,cafe,Distrik Aifat,"Kabupaten Maybrat, Papua Bar.","Kabupaten Maybrat, Papua Bar.",PAPUA BARAT,,Indonesia,,-1.2568532,132.5001338,https://maps.google.com/?cid=0x0:0xcc3d52ba3ddd33de
cafe,Dapur Umum,KIOS AIFAT JAYA DAN WARUNG AIFAT JAYA,"PFVX+24P, Eisyo, Distrik Aifat, Kabupaten Maybrat, Papua Bar. 98463","Eisyo, Distrik Aifat, Kabupaten Maybrat",PAPUA BARAT,98463.0,Indonesia,,-1.2582207,132.4977964,https://maps.google.com/?cid=0x0:0x6896cde496ab319b
cafe,cafe,RM. SINGGAH DOLO,"PGV2+732, Eisyo, Distrik Aifat, Kabupaten Maybrat, Papua Bar. 98463","Eisyo, Distrik Aifat, Kabupaten Maybrat",PAPUA BARAT,98463.0,Indonesia,,-1.2568978,132.5001312,https://maps.google.com/?cid=0x0:0x5820a47ebba15398
cafe,Nasi,Kios Aifat jaya,"PFQ9+82V, Kumurkek, Distrik Aifat, Kabupaten Maybrat, Papua Bar. 98463","Kumurkek, Distrik Aifat, Kabupaten Maybrat",PAPUA BARAT,98463.0,Indonesia,,-1.2616392,132.4675475,https://maps.google.com/?cid=0x0:0x3275eb5a1d4dcdfe
cafe,Dapur Umum,Warung Makan Sederhana MAS ANDY Kumurkek,"PFWX+RP4, Fait Mayaf, Distrik Aifat, Kabupaten Maybrat, Papua Bar. 98463","Fait Mayaf, Distrik Aifat, Kabupaten Maybrat",PAPUA BARAT,98463.0,Indonesia,,-1.252981,132.4993399,https://maps.google.com/?cid=0x0:0xd77688734fd6dc09
cafe,Toko bahan makanan,RM Berkat Balantak,"RF77+C36, Ayawasi, Distrik Aifat Utara, Kabupaten Maybrat, Papua Bar. 98463","Ayawasi, Distrik Aifat Utara, Kabupaten Maybrat",PAPUA BARAT,98463.0,Indonesia,82397745687.0,-1.186464,132.4626367,https://maps.google.com/?cid=0x0:0x5a6aa2403713d07c
cafe,Kedai Kopi,Warung Double M,"PGV2+732, Eisyo, Distrik Aifat, Kabupaten Maybrat, Papua Bar.","Kabupaten Maybrat, Papua Bar.",PAPUA BARAT,,Indonesia,,-1.2568532,132.5001338,https://maps.google.com/?cid=0x0:0xe1f773d6e0e119c2
cafe,Komplek perumahan,Ayamaru kota,"P838+529, Jitmau, Kec. Aitinyo Utara, Kabupaten Maybrat, Papua Bar.","Kabupaten Maybrat, Papua Bar.",PAPUA BARAT,,Indonesia,,-1.2970979,132.3150993,https://maps.google.com/?cid=0x0:0x5c83c06a31cb7d76
cafe,Kedai Kopi,Warung Doble M,"MFMH+M5, Futon, Distrik Aifat, Kabupaten Maybrat, Papua Bar.","Kabupaten Maybrat, Papua Bar.",PAPUA BARAT,,Indonesia,,-1.3157867,132.47753,https://maps.google.com/?cid=0x0:0xb9d7dbcaffffaae3
cafe,cafe,Distrik Aifat,"Kabupaten Maybrat, Papua Bar.","Kabupaten Maybrat, Papua Bar.",PAPUA BARAT,,Indonesia,,-1.2568532,132.5001338,https://maps.google.com/?cid=0x0:0xcc3d52ba3ddd33de
cafe,Dapur Umum,KIOS AIFAT JAYA DAN WARUNG AIFAT JAYA,"PFVX+24P, Eisyo, Distrik Aifat, Kabupaten Maybrat, Papua Bar. 98463","Eisyo, Distrik Aifat, Kabupaten Maybrat",PAPUA BARAT,98463.0,Indonesia,,-1.2582207,132.4977964,https://maps.google.com/?cid=0x0:0x6896cde496ab319b
cafe,Nasi,KIOS IZA,"PGV2+F2F, Kumurkek, Distrik Aifat, Kabupaten Maybrat, Papua Bar. 98463","Kumurkek, Distrik Aifat, Kabupaten Maybrat",PAPUA BARAT,98463.0,Indonesia,,-1.2563194,132.5000327,https://maps.google.com/?cid=0x0:0xf0d45acb7d3276cb
cafe,Dapur Umum,Warung Makan Sederhana MAS ANDY Kumurkek,"PFWX+RP4, Fait Mayaf, Distrik Aifat, Kabupaten Maybrat, Papua Bar. 98463","Fait Mayaf, Distrik Aifat, Kabupaten Maybrat",PAPUA BARAT,98463.0,Indonesia,,-1.252981,132.4993399,https://maps.google.com/?cid=0x0:0xd77688734fd6dc09
cafe,Kedai Kopi,Warung Double M,"PGV2+732, Eisyo, Distrik Aifat, Kabupaten Maybrat, Papua Bar.","Kabupaten Maybrat, Papua Bar.",PAPUA BARAT,,Indonesia,,-1.2568532,132.5001338,https://maps.google.com/?cid=0x0:0xe1f773d6e0e119c2
cafe,Kedai Kopi,Warung Doble M,"MFMH+M5, Futon, Distrik Aifat, Kabupaten Maybrat, Papua Bar.","Kabupaten Maybrat, Papua Bar.",PAPUA BARAT,,Indonesia,,-1.3157867,132.47753,https://maps.google.com/?cid=0x0:0xb9d7dbcaffffaae3
cafe,Komplek perumahan,Ayamaru kota,"P838+529, Jitmau, Kec. Aitinyo Utara, Kabupaten Maybrat, Papua Bar.","Kabupaten Maybrat, Papua Bar.",PAPUA BARAT,,Indonesia,,-1.2970979,132.3150993,https://maps.google.com/?cid=0x0:0x5c83c06a31cb7d76
cafe,Toko bahan makanan,RM Berkat Balantak,"RF77+C36, Ayawasi, Distrik Aifat Utara, Kabupaten Maybrat, Papua Bar. 98463","Ayawasi, Distrik Aifat Utara, Kabupaten Maybrat",PAPUA BARAT,98463.0,Indonesia,82397745687.0,-1.186464,132.4626367,https://maps.google.com/?cid=0x0:0x5a6aa2403713d07c
cafe,cafe,RUMAH MAKAN SONANA KUMURKEK,"PFWX+XR9, Kumurkek, Distrik Aifat, Kabupaten Maybrat, Papua Bar. 98463","Kumurkek, Distrik Aifat, Kabupaten Maybrat",PAPUA BARAT,98463.0,Indonesia,,-1.2517511,132.4991496,https://maps.google.com/?cid=0x0:0x1e04692d2f36dd22
cafe,Kafe,Coffee Brothers,"Maniwak, Manggurai PEMDA, Iriati, Distrik Wasior, Kabupaten Teluk Wondama, Papua Bar. 98362","Manggurai PEMDA, Iriati, Distrik Wasior, Kabupaten Teluk Wondama",PAPUA BARAT,98362.0,Indonesia,85244343890.0,-2.761305,134.5119245,https://maps.google.com/?cid=0x0:0x40dcc2c8a660e005
cafe,Indonesia,Aghina Cafe and Restaurant,"478F+G45, Malabutor, Kecamatan Sorong Manoi, Kota Sorong, Papua Bar. 98412","Malabutor, Kecamatan Sorong Manoi, Kota Sorong",PAPUA BARAT,98412.0,Indonesia,81344840839.0,-0.8837374,131.2728509,https://maps.google.com/?cid=0x0:0x57d56fb0e9f3b322
cafe,Kedai Kopi,Warung Domble M,"MFWM+WC3, Jalan poros Susumuk - Kumurkeh, Futon, Distrik Aifat, Kabupaten Maybrat, Papua Bar. 98463","Jalan poros Susumuk - Kumurkeh, Futon, Distrik Aifat, Kabupaten Maybrat",PAPUA BARAT,98463.0,Indonesia,,-1.3027393,132.4835325,https://maps.google.com/?cid=0x0:0x1e0e301901f524e1
cafe,cafe,Daerah istimewa Ayawasi,"VF69+323, Susai, Distrik Aifat Utara, Kabupaten Maybrat, Papua Bar. 98463","Susai, Distrik Aifat Utara, Kabupaten Maybrat",PAPUA BARAT,98463.0,Indonesia,,-1.139867,132.4675475,https://maps.google.com/?cid=0x0:0x90c812023eb30af2
cafe,cafe,NAA FRAK AYAMATO,"RFM7+39P, Unnamed Road, Ayawasi, Distrik Aifat Utara, Kabupaten Maybrat, Papua Bar. 98463","Unnamed Road, Ayawasi, Distrik Aifat Utara, Kabupaten Maybrat",PAPUA BARAT,98463.0,Indonesia,,-1.167287,132.4634597,https://maps.google.com/?cid=0x0:0x5f6956964feea05
cafe,cafe,distrik Batanta Selatan,"Kabupaten Raja Ampat, Papua Bar.","Kabupaten Raja Ampat, Papua Bar.",PAPUA BARAT,,Indonesia,,-0.8447219,130.8171615,https://maps.google.com/?cid=0x0:0xc5c0f28bd225b23c
cafe,Hotel Resor,View Cafe The Raja Resort,"Pulau Batanta, Amduy, distrik Batanta Selatan, Kabupaten Raja Ampat, Papua Bar. 98484","Amduy, distrik Batanta Selatan, Kabupaten Raja Ampat",PAPUA BARAT,98484.0,Indonesia,,-0.7533927,130.8035345,https://maps.google.com/?cid=0x0:0xb21b29346d7594f6
cafe,Restoran,Cafe'in Raja Ampat,"HRHF+79G, Jl. Kofiau, Waisai, Distrik Kota Waisai, Kabupaten Raja Ampat, Papua Bar. 98482","Jl. Kofiau, Waisai, Distrik Kota Waisai, Kabupaten Raja Ampat",PAPUA BARAT,98482.0,Indonesia,,-0.4218118,130.8234512,https://maps.google.com/?cid=0x0:0x7573487f38bb2d47
cafe,Kafe,D Honey Coffe 99,"HRFC+X79, Kota Bar., Waisai, Kec. Waigeo Sel., Kabupaten Raja Ampat, Papua Bar. 98482","Kota Bar., Waisai, Kec. Waigeo Sel., Kabupaten Raja Ampat",PAPUA BARAT,98482.0,Indonesia,85244008804.0,-0.425094,130.8207432,https://maps.google.com/?cid=0x0:0x93c6de7b04f84503
cafe,Warnet,Konter ARLINCHE CELL,"5V6V+J2H, Yenanas, Selat Sagawin, Kabupaten Raja Ampat, Papua Bar. 98484","Yenanas, Selat Sagawin, Kabupaten Raja Ampat",PAPUA BARAT,98484.0,Indonesia,,-0.8384375,130.8926094,https://maps.google.com/?cid=0x0:0xd2463698f120e500
cafe,Warnet,ALIN CELL,"5V6V+J2H, Yenanas, Selat Sagawin, Kabupaten Raja Ampat, Papua Bar. 98484","Yenanas, Selat Sagawin, Kabupaten Raja Ampat",PAPUA BARAT,98484.0,Indonesia,,-0.8391747,130.8919883,https://maps.google.com/?cid=0x0:0x5aa80ce6054e1f11
cafe,Kafe,ENGINEERING COFFEE,"Jalan Yan Mamoribo, Waisai, Raja Ampat Regency, West Papua 98482","Waisai, Raja Ampat Regency",PAPUA BARAT,98482.0,Indonesia,81344646139.0,-0.4202967,130.8233997,https://maps.google.com/?cid=0x0:0x4e96e98c59f8d9a
cafe,Kafe,Cafe Engineering Raja Ampat,"HRGC+49R, Waisai, Distrik Kota Waisai, Kabupaten Raja Ampat, Papua Bar. 98482","Waisai, Distrik Kota Waisai, Kabupaten Raja Ampat",PAPUA BARAT,98482.0,Indonesia,,-0.4246476,130.8208985,https://maps.google.com/?cid=0x0:0xcadbf54da017f851
cafe,cafe,Papua Bar. 98484,"Kabupaten Raja Ampat, Papua Bar.","Kabupaten Raja Ampat, Papua Bar.",PAPUA BARAT,,Indonesia,,-1.0915151,130.8778586,https://maps.google.com/?cid=0x0:0x726f68366bca44d0
cafe,Restoran,Cafe'in Raja Ampat,"HRHF+79G, Jl. Kofiau, Waisai, Distrik Kota Waisai, Kabupaten Raja Ampat, Papua Bar. 98482","Jl. Kofiau, Waisai, Distrik Kota Waisai, Kabupaten Raja Ampat",PAPUA BARAT,98482.0,Indonesia,,-0.4218118,130.8234512,https://maps.google.com/?cid=0x0:0x7573487f38bb2d47
cafe,Ikan Bakar,Cafe dava,"pantai wtc, Waisai, Distrik Kota Waisai, Kabupaten Raja Ampat, Papua Bar. 98482","Waisai, Distrik Kota Waisai, Kabupaten Raja Ampat",PAPUA BARAT,98482.0,Indonesia,8114852011.0,-0.4272783,130.8214338,https://maps.google.com/?cid=0x0:0x320f1aab782ecce2
cafe,cafe,,,,PAPUA BARAT,,Indonesia,,,,https://maps.google.com/?cid=0x0:0x7573487f38bb2d47u0026onu003dKopi+Nusatarau0026midu003d/g/11p9mqdvxn
cafe,cafe,,,,PAPUA BARAT,,Indonesia,,,,https://maps.google.com/?cid=0x0:0x7573487f38bb2d47u0026onu0026midu003d/g/11p9mqdvxn
cafe,cafe,Papua Bar. 98481,"Kabupaten Raja Ampat, Papua Bar.","Kabupaten Raja Ampat, Papua Bar.",PAPUA BARAT,,Indonesia,,-0.0847884,130.8374011,https://maps.google.com/?cid=0x0:0xabdb6fd88155f082
cafe,Restoran,Cafe'in Raja Ampat,"HRHF+79G, Jl. Kofiau, Waisai, Distrik Kota Waisai, Kabupaten Raja Ampat, Papua Bar. 98482","Jl. Kofiau, Waisai, Distrik Kota Waisai, Kabupaten Raja Ampat",PAPUA BARAT,98482.0,Indonesia,,-0.4218118,130.8234512,https://maps.google.com/?cid=0x0:0x7573487f38bb2d47
cafe,cafe,Uniq Papua and Restoran,"HRC5+PC9, Waisai, Kec. Waigeo Sel., Kabupaten Raja Ampat, Papua Bar. 98482","Waisai, Kec. Waigeo Sel., Kabupaten Raja Ampat",PAPUA BARAT,98482.0,Indonesia,,-0.4283073,130.8085698,https://maps.google.com/?cid=0x0:0xff4f83482d050cc5
cafe,Kafe,D Honey Coffe 99,"HRFC+X79, Kota Bar., Waisai, Kec. Waigeo Sel., Kabupaten Raja Ampat, Papua Bar. 98482","Kota Bar., Waisai, Kec. Waigeo Sel., Kabupaten Raja Ampat",PAPUA BARAT,98482.0,Indonesia,85244008804.0,-0.425094,130.8207432,https://maps.google.com/?cid=0x0:0x93c6de7b04f84503
cafe,cafe,Pulau Kofiau,"Mikiran, Kofiau, Kabupaten Raja Ampat, Papua Bar.","Kabupaten Raja Ampat, Papua Bar.",PAPUA BARAT,,Indonesia,,-1.1833333,129.8333333,https://maps.google.com/?cid=0x0:0x22393f628dc41dcc
cafe,cafe,Distrik Kota Waisai,"Waisai, Kabupaten Raja Ampat, Papua Bar.","Kabupaten Raja Ampat, Papua Bar.",PAPUA BARAT,,Indonesia,,-0.4248841,130.8208792,https://maps.google.com/?cid=0x0:0x50ee7a1504609bf5
cafe,Restoran,Cafe'in Raja Ampat,"HRHF+79G, Jl. Kofiau, Waisai, Distrik Kota Waisai, Kabupaten Raja Ampat, Papua Bar. 98482","Jl. Kofiau, Waisai, Distrik Kota Waisai, Kabupaten Raja Ampat",PAPUA BARAT,98482.0,Indonesia,,-0.4218118,130.8234512,https://maps.google.com/?cid=0x0:0x7573487f38bb2d47
cafe,Guest house,Logbond Cozy Resto  Bakery Waisai,"Marinda Road, Waisai, Distrik Kota Waisai, Kabupaten Raja Ampat, Papua Bar. 98482","Waisai, Distrik Kota Waisai, Kabupaten Raja Ampat",PAPUA BARAT,98482.0,Indonesia,82397025299.0,-0.4288534,130.8034909,https://maps.google.com/?cid=0x0:0x5d186281f60039c6
cafe,Kafe,Waiwo Cafe,"HQ8F+7QX, Waisai, Distrik Kota Waisai, Kabupaten Raja Ampat, Papua Bar. 98482","Waisai, Distrik Kota Waisai, Kabupaten Raja Ampat",PAPUA BARAT,98482.0,Indonesia,,-0.4342562,130.77449,https://maps.google.com/?cid=0x0:0x54f5a6cbb7807d3a
cafe,Kedai Kopi,CS Cafe,"HRHC+46V, Waisai, Kec. Waigeo Sel., Kabupaten Raja Ampat, Papua Bar. 98482","Waisai, Kec. Waigeo Sel., Kabupaten Raja Ampat",PAPUA BARAT,98482.0,Indonesia,81149443322.0,-0.4221346,130.820546,https://maps.google.com/?cid=0x0:0xb3ad18d7aab50233
cafe,Kafe,Warkop TO MARU 2,"HRC3+MF9, Unnamed Road, Waisai, Distrik Kota Waisai, Kabupaten Raja Ampat, Papua Bar. 98482","Unnamed Road, Waisai, Distrik Kota Waisai, Kabupaten Raja Ampat",PAPUA BARAT,98482.0,Indonesia,81344202379.0,-0.4283261,130.8037285,https://maps.google.com/?cid=0x0:0xad8a9a3fbe3d159
cafe,Restoran,Kedai Kopi BK,"Unnamed Road, Waisai, Distrik Kota Waisai, Kabupaten Raja Ampat, Papua Bar. 98482","Waisai, Distrik Kota Waisai, Kabupaten Raja Ampat",PAPUA BARAT,98482.0,Indonesia,81248182522.0,-0.4274024,130.8212994,https://maps.google.com/?cid=0x0:0xbac997303918e472
cafe,Hidangan Laut,Rumah Makan Jakarta,"HRFC+PGW, Waisai, Distrik Kota Waisai, Kabupaten Raja Ampat, Papua Bar. 98482","Waisai, Distrik Kota Waisai, Kabupaten Raja Ampat",PAPUA BARAT,98482.0,Indonesia,81247950488.0,-0.4256257,130.8213411,https://maps.google.com/?cid=0x0:0x54eb2c60687e8533
cafe,Restoran,Pojok Cafe,"HRFC+RC3, Jl. Fundar Sakela, Waisai, Kec. Waigeo Sel., Kabupaten Raja Ampat, Papua Bar. 98482","Jl. Fundar Sakela, Waisai, Kec. Waigeo Sel., Kabupaten Raja Ampat",PAPUA BARAT,98482.0,Indonesia,85298262220.0,-0.4254897,130.8210507,https://maps.google.com/?cid=0x0:0x79fb4a2bce6eda18
cafe,Kafe,Cafe Engineering Raja Ampat,"HRGC+49R, Waisai, Distrik Kota Waisai, Kabupaten Raja Ampat, Papua Bar. 98482","Waisai, Distrik Kota Waisai, Kabupaten Raja Ampat",PAPUA BARAT,98482.0,Indonesia,,-0.4246476,130.8208985,https://maps.google.com/?cid=0x0:0xcadbf54da017f851
cafe,Bar,"EKON Bar,Cafe Dan Karoke","HRHF+VGV, Waisai, Distrik Kota Waisai, Kabupaten Raja Ampat, Papua Bar. 98482","Waisai, Distrik Kota Waisai, Kabupaten Raja Ampat",PAPUA BARAT,98482.0,Indonesia,,-0.4202588,130.8237858,https://maps.google.com/?cid=0x0:0x669465e206c8387
cafe,Restoran,Rumah Makan Sederhana,"HRGC+78W, Kota Bar., Waisai, Kec. Waigeo Sel., Kabupaten Raja Ampat, Papua Bar. 98482","Kota Bar., Waisai, Kec. Waigeo Sel., Kabupaten Raja Ampat",PAPUA BARAT,98482.0,Indonesia,85243008088.0,-0.4242691,130.8208371,https://maps.google.com/?cid=0x0:0xe8a6e7312eb22ec8
cafe,Restoran,Warung Cahaya Bone Waisai Raja Ampat,"HRF9+PRM, Jl. Salawati, Waisai, Waigeo Selatan, Waisai, Distrik Kota Waisai, Kabupaten Raja Ampat, Papua Bar. 98482","Jl. Salawati, Waisai, Waigeo Selatan, Waisai, Distrik Kota Waisai, Kabupaten Raja Ampat",PAPUA BARAT,98482.0,Indonesia,82147416237.0,-0.425672,130.8195551,https://maps.google.com/?cid=0x0:0x21f947d718ca4449
cafe,Kafe,Caffe frustasi,"HRC9+Q93 samping raja futsal, Jalan Frans kaisepo, Waisai, Distrik Kota Waisai, Kabupaten Raja Ampat, Papua Bar. 98482","Jalan Frans kaisepo, Waisai, Distrik Kota Waisai, Kabupaten Raja Ampat",PAPUA BARAT,98482.0,Indonesia,82199859728.0,-0.4281201,130.8184353,https://maps.google.com/?cid=0x0:0x5a3b8e91d5bd1f91
cafe,cafe,Meos Mansar,"Kabupaten Raja Ampat, Papua Bar.","Kabupaten Raja Ampat, Papua Bar.",PAPUA BARAT,,Indonesia,,-0.4496057,130.583895,https://maps.google.com/?cid=0x0:0xe58d24898307b204
cafe,Kafe,Raja Ampat Paradise Juice,"Sawinggrai, Waisai, Kabupaten Raja Ampat, Papua Bar. 98482","Waisai, Kabupaten Raja Ampat",PAPUA BARAT,98482.0,Indonesia,,-0.5345422,130.577466,https://maps.google.com/?cid=0x0:0x21858138c046994c
cafe,Kafe,Waiwo Cafe,"HQ8F+7QX, Waisai, Distrik Kota Waisai, Kabupaten Raja Ampat, Papua Bar. 98482","Waisai, Distrik Kota Waisai, Kabupaten Raja Ampat",PAPUA BARAT,98482.0,Indonesia,,-0.4342562,130.77449,https://maps.google.com/?cid=0x0:0x54f5a6cbb7807d3a
cafe,cafe,Agusta Eco Resort,"Agusta Island, Sauandarek, Meos Mansar, Kabupaten Raja Ampat, Papua Bar.","Kabupaten Raja Ampat, Papua Bar.",PAPUA BARAT,,Indonesia,81222494732.0,-0.6500322,130.5757884,https://maps.google.com/?cid=0x0:0xa19c31b5fa8927e7
cafe,cafe,Selat Dampier,,,PAPUA BARAT,,Indonesia,,-0.6,130.6,https://maps.google.com/?cid=0x0:0xde264c036b41028c
cafe,cafe,Beser Bay Homestay,"Pulau Gam, Raja Ampat, Sawinggrai, Meos Mansar, West Papua 98482","Raja Ampat, Sawinggrai, Meos Mansar",PAPUA BARAT,98482.0,Indonesia,,-0.5197558,130.5693589,https://maps.google.com/?cid=0x0:0xb087ce3ef49e1981
cafe,cafe,Kri,"Yenbuba, Meos Mansar, Kabupaten Raja Ampat, Papua Bar.","Kabupaten Raja Ampat, Papua Bar.",PAPUA BARAT,,Indonesia,,-0.5613911,130.6765536,https://maps.google.com/?cid=0x0:0x3f854db56422f420
cafe,cafe,Raja4Divers,"Pulau Pef, Kampung Kabui, Distrik Meos Mansar, Raja Ampat, Kapisawar Meos Mansar Kapisawar Meos Mansar Kapisawar Meos Mansar, Kapisawar, Meos Mansar, Kabupaten Raja Ampat, Papua Bar. 98482","Kampung Kabui, Distrik Meos Mansar, Raja Ampat, Kapisawar Meos Mansar Kapisawar Meos Mansar Kapisawar Meos Mansar, Kapisawar, Meos Mansar, Kabupaten Raja Ampat",PAPUA BARAT,98482.0,Indonesia,8114857711.0,-0.440709,130.4403583,https://maps.google.com/?cid=0x0:0x615bf0dab83bdfa7
cafe,cafe,Yeben,"Arborek, Meos Mansar, Kabupaten Raja Ampat, Papua Bar.","Kabupaten Raja Ampat, Papua Bar.",PAPUA BARAT,,Indonesia,,-0.4855556,130.3483333,https://maps.google.com/?cid=0x0:0x870e58ed9b11895
cafe,Bandara,Bandar Udara Domine Eduard Osok (SOQ),"Dominique eduard osok, Remu Sel., Kecamatan Sorong Manoi, Kota Sorong, Papua Bar. 98416","Remu Sel., Kecamatan Sorong Manoi, Kota Sorong",PAPUA BARAT,98416.0,Indonesia,,-0.8908276,131.2910514,https://maps.google.com/?cid=0x0:0x93633104c320d952
cafe,Rumah wisata,Dorey Homestay,"Mansuar Island, Meos Mansar, Kabupaten Raja Ampat, Papua Bar. 98472","Meos Mansar, Kabupaten Raja Ampat",PAPUA BARAT,98472.0,Indonesia,82199293152.0,-0.5685574,130.6505566,https://maps.google.com/?cid=0x0:0xcabae3058513a4e9
cafe,cafe,Sawinggrai,"Meos Mansar, Kabupaten Raja Ampat, Papua Bar.","Kabupaten Raja Ampat, Papua Bar.",PAPUA BARAT,,Indonesia,,-0.4637086,130.6245306,https://maps.google.com/?cid=0x0:0xa40966e3cee7cab
cafe,cafe,Nyande Raja Ampat  Dive Shop,"Pulau Mansuar, Kurkapa, Meos Mansar, Raja Ampat Regency, West Papua","Kabupaten Raja Ampat, Papua Bar.",PAPUA BARAT,,Indonesia,82239444532.0,-0.5779207,130.6076202,https://maps.google.com/?cid=0x0:0xb7948f2d19b4b077
cafe,Hotel Resor,Pantai Putras,"HP5X+6VV, Saprokren, Kec. Waigeo Sel., Kabupaten Raja Ampat, Papua Bar. 98482","Saprokren, Kec. Waigeo Sel., Kabupaten Raja Ampat",PAPUA BARAT,98482.0,Indonesia,,-0.4418815,130.749666,https://maps.google.com/?cid=0x0:0x8128498fcad5b215
cafe,cafe,Fun cafe,"874X+5F, Lenmalas, Distrik Misool Timur, Kabupaten Raja Ampat, Papua Bar.","Kabupaten Raja Ampat, Papua Bar.",PAPUA BARAT,,Indonesia,,-1.6945184,130.2987421,https://maps.google.com/?cid=0x0:0x3f1ed4b41162bc88
cafe,cafe,Distrik Misool,"Kabupaten Raja Ampat, Papua Bar.","Kabupaten Raja Ampat, Papua Bar.",PAPUA BARAT,,Indonesia,,-1.7294753,130.076264,https://maps.google.com/?cid=0x0:0xe3dfedd20bce543c
cafe,cafe,Warung Amanda,"WCV6+3QM, Yellu, Misool Sel., Kabupaten Raja Ampat, Papua Bar. 98483","Yellu, Misool Sel., Kabupaten Raja Ampat",PAPUA BARAT,98483.0,Indonesia,,-2.0572356,130.4119107,https://maps.google.com/?cid=0x0:0x2af929f3115aa8e9
cafe,cafe,Misool Sel.,"Kabupaten Raja Ampat, Papua Bar.","Kabupaten Raja Ampat, Papua Bar.",PAPUA BARAT,,Indonesia,,-1.959546,130.3190719,https://maps.google.com/?cid=0x0:0x772018b3157aa95b
cafe,cafe,Warung Amanda,"WCV6+3QM, Yellu, Misool Sel., Kabupaten Raja Ampat, Papua Bar. 98483","Yellu, Misool Sel., Kabupaten Raja Ampat",PAPUA BARAT,98483.0,Indonesia,,-2.0572356,130.4119107,https://maps.google.com/?cid=0x0:0x2af929f3115aa8e9
cafe,Toko,Kios fitri jr,"WCR7+Q78, Yellu, Misool Sel., Kabupaten Raja Ampat, Papua Bar.","Kabupaten Raja Ampat, Papua Bar.",PAPUA BARAT,,Indonesia,81343042043.0,-2.0580766,130.413215,https://maps.google.com/?cid=0x0:0xa5f2bc95b690b7d7
cafe,cafe,Fun cafe,"874X+5F, Lenmalas, Distrik Misool Timur, Kabupaten Raja Ampat, Papua Bar.","Kabupaten Raja Ampat, Papua Bar.",PAPUA BARAT,,Indonesia,,-1.6945184,130.2987421,https://maps.google.com/?cid=0x0:0x3f1ed4b41162bc88
cafe,cafe,Distrik Salawati Barat,"Kabupaten Raja Ampat, Papua Bar.","Kabupaten Raja Ampat, Papua Bar.",PAPUA BARAT,,Indonesia,,-1.0980561,130.7040528,https://maps.google.com/?cid=0x0:0x6c8554c61c1a5f51
cafe,cafe,Salawati Tengah,"Kabupaten Raja Ampat, Papua Bar.","Kabupaten Raja Ampat, Papua Bar.",PAPUA BARAT,,Indonesia,,-1.0547794,131.0589536,https://maps.google.com/?cid=0x0:0x9e15ae7888c4541f
cafe,Kafe,Pesona Rasa,"V6FG+3J8, Katinim, Kec. Salawati, Kabupaten Sorong, Papua Bar. 98451","Katinim, Kec. Salawati, Kabupaten Sorong",PAPUA BARAT,98451.0,Indonesia,,-1.1267344,131.2263438,https://maps.google.com/?cid=0x0:0xeee392129ff0540d
cafe,Nasi,Artikulasi Resto  Cafe,"V778+6M8, Majaran, Kec. Salawati, Kabupaten Sorong, Papua Bar. 98451","Majaran, Kec. Salawati, Kabupaten Sorong",PAPUA BARAT,98451.0,Indonesia,,-1.1372737,131.2659227,https://maps.google.com/?cid=0x0:0x1d92cc3ea92a6e6c
cafe,Restoran,Warung TERANG BULAN SATRIO,"V7C9+VXF, Majaran, Kec. Salawati, Kabupaten Sorong, Papua Bar. 98451","Majaran, Kec. Salawati, Kabupaten Sorong",PAPUA BARAT,98451.0,Indonesia,85244702232.0,-1.1278105,131.2699283,https://maps.google.com/?cid=0x0:0x5c08d40721038f53
cafe,Restoran,Warung Budhe,"V799+PC7, Unnamed Road, Majaran, Kec. Salawati, Kabupaten Sorong, Papua Bar. 98451","Unnamed Road, Majaran, Kec. Salawati, Kabupaten Sorong",PAPUA BARAT,98451.0,Indonesia,,-1.1307155,131.2685434,https://maps.google.com/?cid=0x0:0xa5a6e8eb16e8ecf9
cafe,Dapur Umum,Sebaris Kata Caffe/Rumah Makan,"Jl. Majener, Majaran, Kec. Salawati, Kabupaten Sorong, Papua Bar. 98451","Majaran, Kec. Salawati, Kabupaten Sorong",PAPUA BARAT,98451.0,Indonesia,81248953991.0,-1.1307233,131.2685017,https://maps.google.com/?cid=0x0:0x9bfe78ba71953684
cafe,cafe,Warung Kopi Rejo,"Waibo, Kec. Salawati Utara, Kabupaten Raja Ampat, Papua Bar. 98484","Kec. Salawati Utara, Kabupaten Raja Ampat",PAPUA BARAT,98484.0,Indonesia,,-1.0545961,131.0593877,https://maps.google.com/?cid=0x0:0x94667f7641d33450
cafe,cafe,SALAWATI CAFE AND RESORT,"Jl. Nusantara Katapop II, Majaran, Kec. Salawati, Kabupaten Sorong, Papua Bar. 98451","Majaran, Kec. Salawati, Kabupaten Sorong",PAPUA BARAT,98451.0,Indonesia,81333377736.0,-1.1313125,131.2735954,https://maps.google.com/?cid=0x0:0x1b317589bebaf11f
cafe,Kedai Kopi,Lyla.coffeeeatery,"4874+3FQ, Klasabi, Kecamatan Sorong Manoi, Kota Sorong, Papua Bar. 98412","Klasabi, Kecamatan Sorong Manoi, Kota Sorong",PAPUA BARAT,98412.0,Indonesia,,-0.8872589,131.3062762,https://maps.google.com/?cid=0x0:0x19cd5d4f1eefb5b2
cafe,Kedai Kopi,Sorong Cafe,"Sawagumu, Kec. Sorong Utara, Kota Sorong, Papua Bar.","Kota Sorong, Papua Bar.",PAPUA BARAT,,Indonesia,81248201730.0,-0.8893784,131.3128926,https://maps.google.com/?cid=0x0:0x7962c1d0ce1b0528
cafe,Restoran,Lesehan Kembang Lintang,"V799+J3J, Unnamed Road, Majaran, Kec. Salawati, Kabupaten Sorong, Papua Bar. 98451","Unnamed Road, Majaran, Kec. Salawati, Kabupaten Sorong",PAPUA BARAT,98451.0,Indonesia,,-1.1309003,131.2676251,https://maps.google.com/?cid=0x0:0x4fbd4c1dd0bf328a
cafe,Restoran,Kios Lilis,"V7FF+8V8, Majaran, Kec. Salawati, Kabupaten Sorong, Papua Bar. 98451","Majaran, Kec. Salawati, Kabupaten Sorong",PAPUA BARAT,98451.0,Indonesia,,-1.1267905,131.2749276,https://maps.google.com/?cid=0x0:0x90fef149bb725629
cafe,Minimarket,Kios la hasim,"W3XG+845, Sakabu, Salawati Tengah, Kabupaten Raja Ampat, Papua Bar. 98484","Sakabu, Salawati Tengah, Kabupaten Raja Ampat",PAPUA BARAT,98484.0,Indonesia,,-1.05173,131.0753522,https://maps.google.com/?cid=0x0:0xc7ed8a82aa34597a
cafe,Restoran,Cafe'in Raja Ampat,"HRHF+79G, Jl. Kofiau, Waisai, Distrik Kota Waisai, Kabupaten Raja Ampat, Papua Bar. 98482","Jl. Kofiau, Waisai, Distrik Kota Waisai, Kabupaten Raja Ampat",PAPUA BARAT,98482.0,Indonesia,,-0.4218118,130.8234512,https://maps.google.com/?cid=0x0:0x7573487f38bb2d47
cafe,cafe,,,,PAPUA BARAT,,Indonesia,,,,https://maps.google.com/?cid=0x0:0x7573487f38bb2d47u0026onu003dKopi+Nusatarau0026midu003d/g/11p9mqdvxn
cafe,Ikan Bakar,Cafe dava,"pantai wtc, Waisai, Distrik Kota Waisai, Kabupaten Raja Ampat, Papua Bar. 98482","Waisai, Distrik Kota Waisai, Kabupaten Raja Ampat",PAPUA BARAT,98482.0,Indonesia,8114852011.0,-0.4272783,130.8214338,https://maps.google.com/?cid=0x0:0x320f1aab782ecce2
cafe,cafe,,,,PAPUA BARAT,,Indonesia,,,,https://maps.google.com/?cid=0x0:0x7573487f38bb2d47u0026onu0026midu003d/g/11p9mqdvxn
cafe,cafe,Pulau Salawati,"Kapatlap, Kec. Salawati Utara, Kabupaten Raja Ampat, Papua Bar.","Kabupaten Raja Ampat, Papua Bar.",PAPUA BARAT,,Indonesia,,-1.1166667,130.8666667,https://maps.google.com/?cid=0x0:0x3403a680ccd12b11
cafe,cafe,Kec. Salawati Utara,"Kabupaten Raja Ampat, Papua Bar.","Kabupaten Raja Ampat, Papua Bar.",PAPUA BARAT,,Indonesia,,-0.9331378,131.0507976,https://maps.google.com/?cid=0x0:0xb2f63efc0009064f
cafe,Kafe,RESISTANCE CAFE (24 JAM),"Ruko, Jl. Pacific Permai, belakang kantor, KADIN, Papua",Papua,PAPUA BARAT,,Indonesia,,-2.5376957,140.7086088,https://maps.google.com/?cid=0x0:0x633297421a426da1
cafe,Kafe,Distrik 24,"CJ4R+X9F, Yabansai, Kec. Heram, Kota Jayapura, Papua 99225","Yabansai, Kec. Heram, Kota Jayapura",PAPUA BARAT,99225.0,Indonesia,,-2.5926127,140.6409436,https://maps.google.com/?cid=0x0:0x668273c36d8732ed
cafe,cafe,,,,PAPUA BARAT,,Indonesia,,,,https://maps.google.com/?cid=0x0:0x633297421a426da1u0026onu003dAyam+Gepreu0026midu003d/g/11ght1tcg_
cafe,cafe,,,,PAPUA BARAT,,Indonesia,,,,https://maps.google.com/?cid=0x0:0x633297421a426da1u0026onu003dIce+Teau0026midu003d/g/11ght1tcg_
cafe,cafe,,,,PAPUA BARAT,,Indonesia,,,,https://maps.google.com/?cid=0x0:0x633297421a426da1u0026onu003dCappuccinou0026midu003d/g/11ght1tcg_
cafe,cafe,,,,PAPUA BARAT,,Indonesia,,,,https://maps.google.com/?cid=0x0:0x633297421a426da1u0026onu0026midu003d/g/11ght1tcg_
cafe,cafe,Supnin,"Kabupaten Raja Ampat, Papua Bar.","Kabupaten Raja Ampat, Papua Bar.",PAPUA BARAT,,Indonesia,,-0.0707044,130.7766611,https://maps.google.com/?cid=0x0:0x460c1dbebeaa6e11
cafe,Restoran,Cafe'in Raja Ampat,"HRHF+79G, Jl. Kofiau, Waisai, Distrik Kota Waisai, Kabupaten Raja Ampat, Papua Bar. 98482","Jl. Kofiau, Waisai, Distrik Kota Waisai, Kabupaten Raja Ampat",PAPUA BARAT,98482.0,Indonesia,,-0.4218118,130.8234512,https://maps.google.com/?cid=0x0:0x7573487f38bb2d47
cafe,Kedai Kopi,wabisabicoffee,"Kp. Baru, Distrik Sorong, Kota Sorong, Papua Bar. 98411","Distrik Sorong, Kota Sorong",PAPUA BARAT,98411.0,Indonesia,82137563208.0,-0.8704999,131.253128,https://maps.google.com/?cid=0x0:0xd4029d1b24ccb3b3
cafe,Kafe,D Honey Coffe 99,"HRFC+X79, Kota Bar., Waisai, Kec. Waigeo Sel., Kabupaten Raja Ampat, Papua Bar. 98482","Kota Bar., Waisai, Kec. Waigeo Sel., Kabupaten Raja Ampat",PAPUA BARAT,98482.0,Indonesia,85244008804.0,-0.425094,130.8207432,https://maps.google.com/?cid=0x0:0x93c6de7b04f84503
cafe,Kafe,MAKOI CAFE,"Waisai, Distrik Kota Waisai, Kabupaten Raja Ampat, Papua Bar. 98482","Distrik Kota Waisai, Kabupaten Raja Ampat",PAPUA BARAT,98482.0,Indonesia,82198841111.0,-0.4340105,130.8088253,https://maps.google.com/?cid=0x0:0xf732095b0d51e2cd
cafe,cafe,Uniq Papua and Restoran,"HRC5+PC9, Waisai, Kec. Waigeo Sel., Kabupaten Raja Ampat, Papua Bar. 98482","Waisai, Kec. Waigeo Sel., Kabupaten Raja Ampat",PAPUA BARAT,98482.0,Indonesia,,-0.4283073,130.8085698,https://maps.google.com/?cid=0x0:0xff4f83482d050cc5
cafe,Kedai Kopi,REPUBLIC KEDAI,"HRJF+88C, Jl. Lukas Dailon, Waisai, Kec. Waigeo Sel., Kabupaten Raja Ampat, Papua Bar. 98482","Jl. Lukas Dailon, Waisai, Kec. Waigeo Sel., Kabupaten Raja Ampat",PAPUA BARAT,98482.0,Indonesia,85337393335.0,-0.4191936,130.8232649,https://maps.google.com/?cid=0x0:0xa84f1db6a70e2d84
cafe,cafe,Kec. Tlk. Mayalibit,"Kabupaten Raja Ampat, Papua Bar.","Kabupaten Raja Ampat, Papua Bar.",PAPUA BARAT,,Indonesia,,-0.2689344,130.9384914,https://maps.google.com/?cid=0x0:0xae388a762cdfd0ec
cafe,Ikan Bakar,Cafe dava,"pantai wtc, Waisai, Distrik Kota Waisai, Kabupaten Raja Ampat, Papua Bar. 98482","Waisai, Distrik Kota Waisai, Kabupaten Raja Ampat",PAPUA BARAT,98482.0,Indonesia,8114852011.0,-0.4272783,130.8214338,https://maps.google.com/?cid=0x0:0x320f1aab782ecce2
cafe,Guest house,Logbond Cozy Resto  Bakery Waisai,"Marinda Road, Waisai, Distrik Kota Waisai, Kabupaten Raja Ampat, Papua Bar. 98482","Waisai, Distrik Kota Waisai, Kabupaten Raja Ampat",PAPUA BARAT,98482.0,Indonesia,82397025299.0,-0.4288534,130.8034909,https://maps.google.com/?cid=0x0:0x5d186281f60039c6
cafe,Kafe,Waiwo Cafe,"HQ8F+7QX, Waisai, Distrik Kota Waisai, Kabupaten Raja Ampat, Papua Bar. 98482","Waisai, Distrik Kota Waisai, Kabupaten Raja Ampat",PAPUA BARAT,98482.0,Indonesia,,-0.4342562,130.77449,https://maps.google.com/?cid=0x0:0x54f5a6cbb7807d3a
cafe,Kafe,MAKOI CAFE,"Waisai, Distrik Kota Waisai, Kabupaten Raja Ampat, Papua Bar. 98482","Distrik Kota Waisai, Kabupaten Raja Ampat",PAPUA BARAT,98482.0,Indonesia,82198841111.0,-0.4340105,130.8088253,https://maps.google.com/?cid=0x0:0xf732095b0d51e2cd
cafe,Kafe,Warkop TO MARU 2,"HRC3+MF9, Unnamed Road, Waisai, Distrik Kota Waisai, Kabupaten Raja Ampat, Papua Bar. 98482","Unnamed Road, Waisai, Distrik Kota Waisai, Kabupaten Raja Ampat",PAPUA BARAT,98482.0,Indonesia,81344202379.0,-0.4283261,130.8037285,https://maps.google.com/?cid=0x0:0xad8a9a3fbe3d159
cafe,Kedai Kopi,CS Cafe,"HRHC+46V, Waisai, Kec. Waigeo Sel., Kabupaten Raja Ampat, Papua Bar. 98482","Waisai, Kec. Waigeo Sel., Kabupaten Raja Ampat",PAPUA BARAT,98482.0,Indonesia,81149443322.0,-0.4221346,130.820546,https://maps.google.com/?cid=0x0:0xb3ad18d7aab50233
cafe,cafe,"The Jeti Mangrove - Kalibiru/Blue River, Ecolodge, Restaurant  Cottage","MWHC+4GF, Warsamdim, Distrik Kota Waisai, Kabupaten Raja Ampat, Papua Bar. 98482","Warsamdim, Distrik Kota Waisai, Kabupaten Raja Ampat",PAPUA BARAT,98482.0,Indonesia,,-0.3221776,130.9212987,https://maps.google.com/?cid=0x0:0x1fcf34299d7a509d
cafe,Restoran,Kedai Kopi BK,"Unnamed Road, Waisai, Distrik Kota Waisai, Kabupaten Raja Ampat, Papua Bar. 98482","Waisai, Distrik Kota Waisai, Kabupaten Raja Ampat",PAPUA BARAT,98482.0,Indonesia,81248182522.0,-0.4274024,130.8212994,https://maps.google.com/?cid=0x0:0xbac997303918e472
cafe,Restoran,Pojok Cafe,"HRFC+RC3, Jl. Fundar Sakela, Waisai, Kec. Waigeo Sel., Kabupaten Raja Ampat, Papua Bar. 98482","Jl. Fundar Sakela, Waisai, Kec. Waigeo Sel., Kabupaten Raja Ampat",PAPUA BARAT,98482.0,Indonesia,85298262220.0,-0.4254897,130.8210507,https://maps.google.com/?cid=0x0:0x79fb4a2bce6eda18
cafe,Kafe,Cafe Engineering Raja Ampat,"HRGC+49R, Waisai, Distrik Kota Waisai, Kabupaten Raja Ampat, Papua Bar. 98482","Waisai, Distrik Kota Waisai, Kabupaten Raja Ampat",PAPUA BARAT,98482.0,Indonesia,,-0.4246476,130.8208985,https://maps.google.com/?cid=0x0:0xcadbf54da017f851
cafe,Tujuan Wisata,Kalibiru (Blue River) - Raja Ampat,"MWXM+6MW, Warsamdim, Kec. Tlk. Mayalibit, Kabupaten Raja Ampat, Papua Bar. 98482","Warsamdim, Kec. Tlk. Mayalibit, Kabupaten Raja Ampat",PAPUA BARAT,98482.0,Indonesia,,-0.3018819,130.9342084,https://maps.google.com/?cid=0x0:0xde8037d6519a03c7
cafe,Restoran,Dapoer A5KA Pantai Wtc,"HRFC+4M6, Waisai, Distrik Kota Waisai, Kabupaten Raja Ampat, Papua Bar. 98482","Waisai, Distrik Kota Waisai, Kabupaten Raja Ampat",PAPUA BARAT,98482.0,Indonesia,8124894164.0,-0.4272122,130.8216516,https://maps.google.com/?cid=0x0:0x1beb719a579de414
cafe,Kafe,Warkop Yoii,"HRGC+6QQ, Waisai, Kec. Waigeo Sel., Kabupaten Raja Ampat, Papua Bar. 98482","Waisai, Kec. Waigeo Sel., Kabupaten Raja Ampat",PAPUA BARAT,98482.0,Indonesia,81344174917.0,-0.4244167,130.8219867,https://maps.google.com/?cid=0x0:0xea282f4fc88af4d4
cafe,cafe,Distrik Tiplol Mayalibit,"Kabupaten Raja Ampat, Papua Bar.","Kabupaten Raja Ampat, Papua Bar.",PAPUA BARAT,,Indonesia,,-0.078691,130.6642772,https://maps.google.com/?cid=0x0:0xd2fca4629b110358
cafe,Restoran,Cafe'in Raja Ampat,"HRHF+79G, Jl. Kofiau, Waisai, Distrik Kota Waisai, Kabupaten Raja Ampat, Papua Bar. 98482","Jl. Kofiau, Waisai, Distrik Kota Waisai, Kabupaten Raja Ampat",PAPUA BARAT,98482.0,Indonesia,,-0.4218118,130.8234512,https://maps.google.com/?cid=0x0:0x7573487f38bb2d47
cafe,Ikan Bakar,Cafe dava,"pantai wtc, Waisai, Distrik Kota Waisai, Kabupaten Raja Ampat, Papua Bar. 98482","Waisai, Distrik Kota Waisai, Kabupaten Raja Ampat",PAPUA BARAT,98482.0,Indonesia,8114852011.0,-0.4272783,130.8214338,https://maps.google.com/?cid=0x0:0x320f1aab782ecce2
cafe,cafe,,,,PAPUA BARAT,,Indonesia,,,,https://maps.google.com/?cid=0x0:0x7573487f38bb2d47u0026onu003dManual+Brewu0026midu003d/g/11p9mqdvxn
cafe,cafe,,,,PAPUA BARAT,,Indonesia,,,,https://maps.google.com/?cid=0x0:0x7573487f38bb2d47u0026onu0026midu003d/g/11p9mqdvxn
cafe,cafe,Kec. Waigeo Bar.,"Kabupaten Raja Ampat, Papua Bar.","Kabupaten Raja Ampat, Papua Bar.",PAPUA BARAT,,Indonesia,,-0.1565367,130.4516329,https://maps.google.com/?cid=0x0:0xa968725bc286475b
cafe,Kafe,Waiwo Cafe,"HQ8F+7QX, Waisai, Distrik Kota Waisai, Kabupaten Raja Ampat, Papua Bar. 98482","Waisai, Distrik Kota Waisai, Kabupaten Raja Ampat",PAPUA BARAT,98482.0,Indonesia,,-0.4342562,130.77449,https://maps.google.com/?cid=0x0:0x54f5a6cbb7807d3a
cafe,Restoran,Cafe'in Raja Ampat,"HRHF+79G, Jl. Kofiau, Waisai, Distrik Kota Waisai, Kabupaten Raja Ampat, Papua Bar. 98482","Jl. Kofiau, Waisai, Distrik Kota Waisai, Kabupaten Raja Ampat",PAPUA BARAT,98482.0,Indonesia,,-0.4218118,130.8234512,https://maps.google.com/?cid=0x0:0x7573487f38bb2d47
cafe,cafe,Warung makan Sido mampir,"HV3H+59Q, Jln.raya pulau, Gag, Distrik Waigeo Barat Kepulauan, Kabupaten Raja Ampat, Papua Bar. 98481","Jln.raya pulau, Gag, Distrik Waigeo Barat Kepulauan, Kabupaten Raja Ampat",PAPUA BARAT,98481.0,Indonesia,,-0.4470478,129.8784831,https://maps.google.com/?cid=0x0:0xf8d6c89cc6f2ca21
cafe,Kedai Kopi,wabisabicoffee,"Kp. Baru, Distrik Sorong, Kota Sorong, Papua Bar. 98411","Distrik Sorong, Kota Sorong",PAPUA BARAT,98411.0,Indonesia,82137563208.0,-0.8704999,131.253128,https://maps.google.com/?cid=0x0:0xd4029d1b24ccb3b3
cafe,Kedai Kopi,Sorong Cafe,"Sawagumu, Kec. Sorong Utara, Kota Sorong, Papua Bar.","Kota Sorong, Papua Bar.",PAPUA BARAT,,Indonesia,81248201730.0,-0.8893784,131.3128926,https://maps.google.com/?cid=0x0:0x7962c1d0ce1b0528
cafe,cafe,Uniq Papua and Restoran,"HRC5+PC9, Waisai, Kec. Waigeo Sel., Kabupaten Raja Ampat, Papua Bar. 98482","Waisai, Kec. Waigeo Sel., Kabupaten Raja Ampat",PAPUA BARAT,98482.0,Indonesia,,-0.4283073,130.8085698,https://maps.google.com/?cid=0x0:0xff4f83482d050cc5
cafe,Kafe,MAKOI CAFE,"Waisai, Distrik Kota Waisai, Kabupaten Raja Ampat, Papua Bar. 98482","Distrik Kota Waisai, Kabupaten Raja Ampat",PAPUA BARAT,98482.0,Indonesia,82198841111.0,-0.4340105,130.8088253,https://maps.google.com/?cid=0x0:0xf732095b0d51e2cd
cafe,Kafe,D Honey Coffe 99,"HRFC+X79, Kota Bar., Waisai, Kec. Waigeo Sel., Kabupaten Raja Ampat, Papua Bar. 98482","Kota Bar., Waisai, Kec. Waigeo Sel., Kabupaten Raja Ampat",PAPUA BARAT,98482.0,Indonesia,85244008804.0,-0.425094,130.8207432,https://maps.google.com/?cid=0x0:0x93c6de7b04f84503
cafe,cafe,Distrik Waigeo Barat Kepulauan,"Kabupaten Raja Ampat, Papua Bar.","Kabupaten Raja Ampat, Papua Bar.",PAPUA BARAT,,Indonesia,,-0.3990489,129.8878154,https://maps.google.com/?cid=0x0:0x2f9f2f03d60aa281
cafe,cafe,Warung Sido mampir,"HW63+V7V, Gag, Distrik Waigeo Barat Kepulauan, Kabupaten Raja Ampat, Papua Bar. 98481","Gag, Distrik Waigeo Barat Kepulauan, Kabupaten Raja Ampat",PAPUA BARAT,98481.0,Indonesia,,-0.4384144,129.9034355,https://maps.google.com/?cid=0x0:0x6e59d1c91a296123
cafe,Kafe,Waiwo Cafe,"HQ8F+7QX, Waisai, Distrik Kota Waisai, Kabupaten Raja Ampat, Papua Bar. 98482","Waisai, Distrik Kota Waisai, Kabupaten Raja Ampat",PAPUA BARAT,98482.0,Indonesia,,-0.4342562,130.77449,https://maps.google.com/?cid=0x0:0x54f5a6cbb7807d3a
cafe,cafe,WARUNG MAKAN BARU WANGI,"HW63+MM, Gag, Distrik Waigeo Barat Kepulauan, Kabupaten Raja Ampat, Papua Bar.","Kabupaten Raja Ampat, Papua Bar.",PAPUA BARAT,,Indonesia,82332959051.0,-0.438322,129.9041506,https://maps.google.com/?cid=0x0:0x8dd197db0c41df50
cafe,cafe,KoPilih,"HW63+H7Q, Pulau, Gag, Distrik Waigeo Barat Kepulauan, Kabupaten Raja Ampat, Papua Bar. 98481","Pulau, Gag, Distrik Waigeo Barat Kepulauan, Kabupaten Raja Ampat",PAPUA BARAT,98481.0,Indonesia,,-0.4385382,129.9032394,https://maps.google.com/?cid=0x0:0xeb986da1929cd51a
cafe,cafe,Kec. Waigeo Sel.,"Kabupaten Raja Ampat, Papua Bar.","Kabupaten Raja Ampat, Papua Bar.",PAPUA BARAT,,Indonesia,,-0.3840807,130.7361322,https://maps.google.com/?cid=0x0:0x2c9db46da776b4
cafe,Kafe,Waiwo Cafe,"HQ8F+7QX, Waisai, Distrik Kota Waisai, Kabupaten Raja Ampat, Papua Bar. 98482","Waisai, Distrik Kota Waisai, Kabupaten Raja Ampat",PAPUA BARAT,98482.0,Indonesia,,-0.4342562,130.77449,https://maps.google.com/?cid=0x0:0x54f5a6cbb7807d3a
cafe,Kedai Kopi,CS Cafe,"HRHC+46V, Waisai, Kec. Waigeo Sel., Kabupaten Raja Ampat, Papua Bar. 98482","Waisai, Kec. Waigeo Sel., Kabupaten Raja Ampat",PAPUA BARAT,98482.0,Indonesia,81149443322.0,-0.4221346,130.820546,https://maps.google.com/?cid=0x0:0xb3ad18d7aab50233
cafe,Restoran,Cafe'in Raja Ampat,"HRHF+79G, Jl. Kofiau, Waisai, Distrik Kota Waisai, Kabupaten Raja Ampat, Papua Bar. 98482","Jl. Kofiau, Waisai, Distrik Kota Waisai, Kabupaten Raja Ampat",PAPUA BARAT,98482.0,Indonesia,,-0.4218118,130.8234512,https://maps.google.com/?cid=0x0:0x7573487f38bb2d47
cafe,Restoran,Pojok Cafe,"HRFC+RC3, Jl. Fundar Sakela, Waisai, Kec. Waigeo Sel., Kabupaten Raja Ampat, Papua Bar. 98482","Jl. Fundar Sakela, Waisai, Kec. Waigeo Sel., Kabupaten Raja Ampat",PAPUA BARAT,98482.0,Indonesia,85298262220.0,-0.4254897,130.8210507,https://maps.google.com/?cid=0x0:0x79fb4a2bce6eda18
cafe,Ikan Bakar,Cafe dava,"pantai wtc, Waisai, Distrik Kota Waisai, Kabupaten Raja Ampat, Papua Bar. 98482","Waisai, Distrik Kota Waisai, Kabupaten Raja Ampat",PAPUA BARAT,98482.0,Indonesia,8114852011.0,-0.4272783,130.8214338,https://maps.google.com/?cid=0x0:0x320f1aab782ecce2
cafe,Kafe,Young Coffee,"HRF9+936, Unnamed Road, Waisai, Kec. Waigeo Sel., Kabupaten Raja Ampat, Papua Bar. 98482","Unnamed Road, Waisai, Kec. Waigeo Sel., Kabupaten Raja Ampat",PAPUA BARAT,98482.0,Indonesia,82239597969.0,-0.4265923,130.8176395,https://maps.google.com/?cid=0x0:0x1e741d8f44ab2f9d
cafe,Kafe,Warkop TO MARU 2,"HRC3+MF9, Unnamed Road, Waisai, Distrik Kota Waisai, Kabupaten Raja Ampat, Papua Bar. 98482","Unnamed Road, Waisai, Distrik Kota Waisai, Kabupaten Raja Ampat",PAPUA BARAT,98482.0,Indonesia,81344202379.0,-0.4283261,130.8037285,https://maps.google.com/?cid=0x0:0xad8a9a3fbe3d159
cafe,Kafe,Warkop Yoii,"HRGC+6QQ, Waisai, Kec. Waigeo Sel., Kabupaten Raja Ampat, Papua Bar. 98482","Waisai, Kec. Waigeo Sel., Kabupaten Raja Ampat",PAPUA BARAT,98482.0,Indonesia,81344174917.0,-0.4244167,130.8219867,https://maps.google.com/?cid=0x0:0xea282f4fc88af4d4
cafe,Kafe,Cafe Engineering Raja Ampat,"HRGC+49R, Waisai, Distrik Kota Waisai, Kabupaten Raja Ampat, Papua Bar. 98482","Waisai, Distrik Kota Waisai, Kabupaten Raja Ampat",PAPUA BARAT,98482.0,Indonesia,,-0.4246476,130.8208985,https://maps.google.com/?cid=0x0:0xcadbf54da017f851
cafe,Kafe,D Honey Coffe 99,"HRFC+X79, Kota Bar., Waisai, Kec. Waigeo Sel., Kabupaten Raja Ampat, Papua Bar. 98482","Kota Bar., Waisai, Kec. Waigeo Sel., Kabupaten Raja Ampat",PAPUA BARAT,98482.0,Indonesia,85244008804.0,-0.425094,130.8207432,https://maps.google.com/?cid=0x0:0x93c6de7b04f84503
cafe,Kafe,Warkop FC Barcelona,"HRFC+4JV, Waisai, Kec. Waigeo Sel., Kabupaten Raja Ampat, Papua Bar. 98482","Waisai, Kec. Waigeo Sel., Kabupaten Raja Ampat",PAPUA BARAT,98482.0,Indonesia,,-0.4271385,130.8215599,https://maps.google.com/?cid=0x0:0xef390518a6c8b2fc
cafe,Restoran,Kedai Kopi BK,"Unnamed Road, Waisai, Distrik Kota Waisai, Kabupaten Raja Ampat, Papua Bar. 98482","Waisai, Distrik Kota Waisai, Kabupaten Raja Ampat",PAPUA BARAT,98482.0,Indonesia,81248182522.0,-0.4274024,130.8212994,https://maps.google.com/?cid=0x0:0xbac997303918e472
cafe,cafe,Uniq Papua and Restoran,"HRC5+PC9, Waisai, Kec. Waigeo Sel., Kabupaten Raja Ampat, Papua Bar. 98482","Waisai, Kec. Waigeo Sel., Kabupaten Raja Ampat",PAPUA BARAT,98482.0,Indonesia,,-0.4283073,130.8085698,https://maps.google.com/?cid=0x0:0xff4f83482d050cc5
cafe,cafe,Distrik Waigeo Timur,"Kabupaten Raja Ampat, Papua Bar.","Kabupaten Raja Ampat, Papua Bar.",PAPUA BARAT,,Indonesia,,-0.3761806,131.2503597,https://maps.google.com/?cid=0x0:0x9ea83c531b1daa8e
cafe,Kafe,Waiwo Cafe,"HQ8F+7QX, Waisai, Distrik Kota Waisai, Kabupaten Raja Ampat, Papua Bar. 98482","Waisai, Distrik Kota Waisai, Kabupaten Raja Ampat",PAPUA BARAT,98482.0,Indonesia,,-0.4342562,130.77449,https://maps.google.com/?cid=0x0:0x54f5a6cbb7807d3a
cafe,Ikan Bakar,Cafe dava,"pantai wtc, Waisai, Distrik Kota Waisai, Kabupaten Raja Ampat, Papua Bar. 98482","Waisai, Distrik Kota Waisai, Kabupaten Raja Ampat",PAPUA BARAT,98482.0,Indonesia,8114852011.0,-0.4272783,130.8214338,https://maps.google.com/?cid=0x0:0x320f1aab782ecce2
cafe,Restoran,Cafe'in Raja Ampat,"HRHF+79G, Jl. Kofiau, Waisai, Distrik Kota Waisai, Kabupaten Raja Ampat, Papua Bar. 98482","Jl. Kofiau, Waisai, Distrik Kota Waisai, Kabupaten Raja Ampat",PAPUA BARAT,98482.0,Indonesia,,-0.4218118,130.8234512,https://maps.google.com/?cid=0x0:0x7573487f38bb2d47
cafe,Kafe,Warkop Yoii,"HRGC+6QQ, Waisai, Kec. Waigeo Sel., Kabupaten Raja Ampat, Papua Bar. 98482","Waisai, Kec. Waigeo Sel., Kabupaten Raja Ampat",PAPUA BARAT,98482.0,Indonesia,81344174917.0,-0.4244167,130.8219867,https://maps.google.com/?cid=0x0:0xea282f4fc88af4d4
cafe,cafe,Uniq Papua and Restoran,"HRC5+PC9, Waisai, Kec. Waigeo Sel., Kabupaten Raja Ampat, Papua Bar. 98482","Waisai, Kec. Waigeo Sel., Kabupaten Raja Ampat",PAPUA BARAT,98482.0,Indonesia,,-0.4283073,130.8085698,https://maps.google.com/?cid=0x0:0xff4f83482d050cc5
cafe,Kafe,D Honey Coffe 99,"HRFC+X79, Kota Bar., Waisai, Kec. Waigeo Sel., Kabupaten Raja Ampat, Papua Bar. 98482","Kota Bar., Waisai, Kec. Waigeo Sel., Kabupaten Raja Ampat",PAPUA BARAT,98482.0,Indonesia,85244008804.0,-0.425094,130.8207432,https://maps.google.com/?cid=0x0:0x93c6de7b04f84503
cafe,Kafe,Warkop TO MARU 2,"HRC3+MF9, Unnamed Road, Waisai, Distrik Kota Waisai, Kabupaten Raja Ampat, Papua Bar. 98482","Unnamed Road, Waisai, Distrik Kota Waisai, Kabupaten Raja Ampat",PAPUA BARAT,98482.0,Indonesia,81344202379.0,-0.4283261,130.8037285,https://maps.google.com/?cid=0x0:0xad8a9a3fbe3d159
cafe,Restoran,Warung Gea,"HRG9+278, Kota Waisai, Waisai, Kec. Waigeo Sel., Kabupaten Raja Ampat, Papua Bar. 98482","Kota Waisai, Waisai, Kec. Waigeo Sel., Kabupaten Raja Ampat",PAPUA BARAT,98482.0,Indonesia,,-0.4249541,130.8182152,https://maps.google.com/?cid=0x0:0x6a863d07e9a4a949
cafe,Kafe,MAKOI CAFE,"Waisai, Distrik Kota Waisai, Kabupaten Raja Ampat, Papua Bar. 98482","Distrik Kota Waisai, Kabupaten Raja Ampat",PAPUA BARAT,98482.0,Indonesia,82198841111.0,-0.4340105,130.8088253,https://maps.google.com/?cid=0x0:0xf732095b0d51e2cd
cafe,Kantor Pemerintah Distrik,Raja ampat,"WXRP+PGG, Kabare, Distrik Waigeo Utara, Kabupaten Raja Ampat, Papua Bar. 98481","Kabare, Distrik Waigeo Utara, Kabupaten Raja Ampat",PAPUA BARAT,98481.0,Indonesia,,-0.0600483,130.9870083,https://maps.google.com/?cid=0x0:0x148bf7227e8acf9d
cafe,Kedai Kopi,Sorong Cafe,"Sawagumu, Kec. Sorong Utara, Kota Sorong, Papua Bar.","Kota Sorong, Papua Bar.",PAPUA BARAT,,Indonesia,81248201730.0,-0.8893784,131.3128926,https://maps.google.com/?cid=0x0:0x7962c1d0ce1b0528
cafe,Kedai Kopi,Kedai Mehak,"HRHF+P98, Waisai, Kec. Waigeo Sel., Kabupaten Raja Ampat, Papua Bar.","Kabupaten Raja Ampat, Papua Bar.",PAPUA BARAT,,Indonesia,85254308618.0,-0.4207247,130.8234429,https://maps.google.com/?cid=0x0:0x7e675905b7a480ad
cafe,Kedai Kopi,SAKANI Coffee  Eatery,"Jl. Taruna Jaya, RT.1/RW.5, Cibubur, Kec. Ciracas, Kota Jakarta Timur, Daerah Khusus Ibukota Jakarta 13720","RT.1/RW.5, Cibubur, Kec. Ciracas, Kota Jakarta Timur",PAPUA BARAT,13720.0,Indonesia,87782286409.0,-6.3564402,106.8801142,https://maps.google.com/?cid=0x0:0x4900be0cb142d740
cafe,Kantor Pemerintah Distrik,Raja ampat,"WXRP+PGG, Kabare, Distrik Waigeo Utara, Kabupaten Raja Ampat, Papua Bar. 98481","Kabare, Distrik Waigeo Utara, Kabupaten Raja Ampat",PAPUA BARAT,98481.0,Indonesia,,-0.0600483,130.9870083,https://maps.google.com/?cid=0x0:0x148bf7227e8acf9d
cafe,Otoritas Pelabuhan,Kantor Distrik Kabare Waigeo Utara,"WXVP+84H, Bonsayor, Distrik Waigeo Utara, Kabupaten Raja Ampat, Papua Bar. 98481","Bonsayor, Distrik Waigeo Utara, Kabupaten Raja Ampat",PAPUA BARAT,98481.0,Indonesia,,-0.0566848,130.9853731,https://maps.google.com/?cid=0x0:0x25ae72283f1bd32d
cafe,cafe,Papua Bar.,,Papua Bar.,PAPUA BARAT,,Indonesia,,-1.3361154,133.1747162,https://maps.google.com/?cid=0x0:0x5349c1f8c5c7cb62
cafe,Kedai Kopi,KOPIkir Sendiri Cafe,"425R+QWW Kantor bupati, Sowi, Distrik Manokwari, Kabupaten Manokwari, Papua Bar.","Kabupaten Manokwari, Papua Bar.",PAPUA BARAT,,Indonesia,81354179269.0,-0.8905188,134.0423211,https://maps.google.com/?cid=0x0:0xe18448fb10dff5fd
cafe,Kedai Kopi,Z COFFEE,"42HX+V6C, Jl. Trikora Rendani, Wosi, Kec. Manokwari Bar., Kabupaten Manokwari, Papua Bar. 98312","Jl. Trikora Rendani, Wosi, Kec. Manokwari Bar., Kabupaten Manokwari",PAPUA BARAT,98312.0,Indonesia,81247192526.0,-0.8703133,134.0480103,https://maps.google.com/?cid=0x0:0x52fc52684fc7839c
cafe,Kedai Kopi,Garasi Ipok (Kopi),"Wosi, Kec. Manokwari Bar., Kabupaten Manokwari, Papua Bar. 98312","Kec. Manokwari Bar., Kabupaten Manokwari",PAPUA BARAT,98312.0,Indonesia,,-0.8752236,134.0501855,https://maps.google.com/?cid=0x0:0x12e09be1a67f324f
cafe,Kedai Kopi,Sorong Cafe,"Sawagumu, Kec. Sorong Utara, Kota Sorong, Papua Bar.","Kota Sorong, Papua Bar.",PAPUA BARAT,,Indonesia,81248201730.0,-0.8893784,131.3128926,https://maps.google.com/?cid=0x0:0x7962c1d0ce1b0528
cafe,cafe,Warkopin aja,"3222+RWH, Anday, Distrik Manokwari, Kabupaten Manokwari, Papua Bar. 98315","Anday, Distrik Manokwari, Kabupaten Manokwari",PAPUA BARAT,98315.0,Indonesia,,-0.948599,134.0016671,https://maps.google.com/?cid=0x0:0x534abc6a41bb787d
cafe,Kafe,Wilchof Cafe,"Manokwari Tim., Kec. Manokwari Bar., Kabupaten Manokwari, Papua Bar. 98312","Kec. Manokwari Bar., Kabupaten Manokwari",PAPUA BARAT,98312.0,Indonesia,8124801913.0,-0.8418764,134.0699628,https://maps.google.com/?cid=0x0:0xdf7fa1241fcb9fab
cafe,Kafe,Rumah Kopi  Rental Mobil Mkw,"Jl. Trikora Wosi Ruko H, Bauw, Kec. Manokwari Bar., Kabupaten Manokwari, Papua Bar. 98312","Bauw, Kec. Manokwari Bar., Kabupaten Manokwari",PAPUA BARAT,98312.0,Indonesia,85254555156.0,-0.862748,134.052755,https://maps.google.com/?cid=0x0:0xc92b86925ce6a582
cafe,Kafe,Coffee rumi,"42HW+FHQ, Jl. Drs Esau Sesa, Wosi, Kec. Manokwari Bar., Kabupaten Manokwari, Papua Bar.","Kabupaten Manokwari, Papua Bar.",PAPUA BARAT,,Indonesia,,-0.871278,134.0464904,https://maps.google.com/?cid=0x0:0xb6cda96910d01983
cafe,Kafe,Coffee Brothers,"Maniwak, Manggurai PEMDA, Iriati, Distrik Wasior, Kabupaten Teluk Wondama, Papua Bar. 98362","Manggurai PEMDA, Iriati, Distrik Wasior, Kabupaten Teluk Wondama",PAPUA BARAT,98362.0,Indonesia,85244343890.0,-2.761305,134.5119245,https://maps.google.com/?cid=0x0:0x40dcc2c8a660e005
cafe,Kedai Kopi,Kandera Cafe,"Jalan Reremi Permai No.50, Manokwari Bar., Kec. Manokwari Bar., Kabupaten Manokwari, Papua Bar. 98312","Manokwari Bar., Kec. Manokwari Bar., Kabupaten Manokwari",PAPUA BARAT,98312.0,Indonesia,85244067676.0,-0.8614531,134.0620421,https://maps.google.com/?cid=0x0:0x3df0d0628479781f
cafe,Kedai Kopi,Pondok Kopi Matoa,"Jl. Gn. Salju, Amban, Kec. Manokwari Bar., Kabupaten Manokwari, Papua Bar. 98314","Amban, Kec. Manokwari Bar., Kabupaten Manokwari",PAPUA BARAT,98314.0,Indonesia,8114860000.0,-0.8369567,134.0586793,https://maps.google.com/?cid=0x0:0xc2d60275e273b8e2
cafe,Kafe,BATAS KOFFIE,"Gg. Gorong-Gorong, Wosi, Kec. Manokwari Bar., Kabupaten Manokwari, Papua Bar. 98312","Wosi, Kec. Manokwari Bar., Kabupaten Manokwari",PAPUA BARAT,98312.0,Indonesia,82111181802.0,-0.8604385,134.0479228,https://maps.google.com/?cid=0x0:0xf1837bea92b6d291
cafe,Kafe,HONAI KOPI,"Jl. Angkasa Mulyono, Amban, Kec. Manokwari Bar., Kabupaten Manokwari, Papua Bar. 98312","Amban, Kec. Manokwari Bar., Kabupaten Manokwari",PAPUA BARAT,98312.0,Indonesia,82198853071.0,-0.8440426,134.0548234,https://maps.google.com/?cid=0x0:0xc2bdbdcd3365a4df
hotel,hotel,Distrik Aifat,"Kabupaten Maybrat, Papua Bar.","Kabupaten Maybrat, Papua Bar.",PAPUA BARAT,,Indonesia,,-1.2568532,132.5001338,https://maps.google.com/?cid=0x0:0xcc3d52ba3ddd33de
hotel,hotel,Aimas Hotel And Convention Center,"Klamasen, Distrik Mariat, Kabupaten Sorong, Papua Bar. 98416","Distrik Mariat, Kabupaten Sorong",PAPUA BARAT,98416.0,Indonesia,8114887778.0,-0.9780957,131.3535192,https://maps.google.com/?cid=0x0:0x622ceae2f7c756cf
hotel,hotel,Hotel Mariat,"479F+3XR, Jl. Ahmad Yani No.1, Klademak, Distrik Sorong, Kota Sorong, Papua Bar. 98412","Jl. Ahmad Yani No.1, Klademak, Distrik Sorong, Kota Sorong",PAPUA BARAT,98412.0,Indonesia,951323535.0,-0.8822653,131.2745998,https://maps.google.com/?cid=0x0:0xbf6ecabef3414744
hotel,hotel,Aston Sorong Hotel  Conference Center,"476V+J9X, Jl. Basuki Rahmat, Malaingkedi, Kec. Sorong Utara, Kota Sorong, Papua Bar. 98412","Jl. Basuki Rahmat, Malaingkedi, Kec. Sorong Utara, Kota Sorong",PAPUA BARAT,98412.0,Indonesia,81148500888.0,-0.8887467,131.2931592,https://maps.google.com/?cid=0x0:0x110a6a5f0a67a7f7
hotel,hotel,M Hotel Sorong,"Jl. Sungai Maruni, Klawuyuk, Kec. Sorong Utara, Kota Sorong, Papua Bar. 98416","Klawuyuk, Kec. Sorong Utara, Kota Sorong",PAPUA BARAT,98416.0,Indonesia,8114863111.0,-0.8858638,131.3227746,https://maps.google.com/?cid=0x0:0x9b9160ef43d35fd5
hotel,hotel,,,,PAPUA BARAT,,Indonesia,,,,https://maps.google.com/?cid=0x0:0x9b9160ef43d35fd5%7C/g/11clwlw14h%7Cid-ID
hotel,hotel,,,,PAPUA BARAT,,Indonesia,,,,https://maps.google.com/?cid=0x0:0x56f2eb1c250a17fa%7C/g/11g8bwyjxb%7Cid-ID
hotel,hotel,favehotel Sorong,"Klabulu, Jl. Basuki Rahmat Malaimsimsa, RT.001/RW.005, Kecamatan Malaimsimsa, Kota Sorong, Papua Bar. 98419","Jl. Basuki Rahmat Malaimsimsa, RT.001/RW.005, Kecamatan Malaimsimsa, Kota Sorong",PAPUA BARAT,98419.0,Indonesia,9513173888.0,-0.8892152,131.2985379,https://maps.google.com/?cid=0x0:0x56f2eb1c250a17fa
hotel,hotel,Hotel Raja Ampat,"Jl. Fundar Sakela No.1, Waisai, City, Kabupaten Raja Ampat, Papua Bar. 98482","Waisai, City, Kabupaten Raja Ampat",PAPUA BARAT,98482.0,Indonesia,81298260747.0,-0.4224417,130.8199523,https://maps.google.com/?cid=0x0:0x3bda491b055b084
hotel,hotel,Raja Ampat Family Guest House,"HRFJ+567, Jalan Mambrasar Swaimbon, Pantai, Waisai, Distrik Kota Waisai, Kabupaten Raja Ampat, Papua Bar. 98482","Jalan Mambrasar Swaimbon, Pantai, Waisai, Distrik Kota Waisai, Kabupaten Raja Ampat",PAPUA BARAT,98482.0,Indonesia,82393112027.0,-0.4270989,130.8305315,https://maps.google.com/?cid=0x0:0x1ff71509f66af495
hotel,hotel,Penginapan Kofiyau,"46MX+QV7, Unnamed Road, Klasuur, Distrik Sorong, Kota Sorong, Papua Bar. 98411","Unnamed Road, Klasuur, Distrik Sorong, Kota Sorong",PAPUA BARAT,98411.0,Indonesia,82398017326.0,-0.86559,131.2496721,https://maps.google.com/?cid=0x0:0xfc32a1234a9c5c47
hotel,hotel,tempat penginapan,"46GX+7Q4, Kp. Baru, Distrik Sorong, Kota Sorong, Papua Bar.","Kota Sorong, Papua Bar.",PAPUA BARAT,,Indonesia,,-0.8743674,131.249452,https://maps.google.com/?cid=0x0:0x5a527f95bc78be48
hotel,hotel,Hotel Mratuwa Sesna,"G39P+JXC, Keyen, Kec. Teminabuan, Kabupaten Sorong Selatan, Papua Bar. 98454","Keyen, Kec. Teminabuan, Kabupaten Sorong Selatan",PAPUA BARAT,98454.0,Indonesia,81344070037.0,-1.4809318,132.0873892,https://maps.google.com/?cid=0x0:0xa5b0539434328bee
hotel,hotel,35 Inn,"476C+RFX, Jl. Ferry, Malawei, Distrik Sorong, Kota Sorong, Papua Bar. 98412","Jl. Ferry, Malawei, Distrik Sorong, Kota Sorong",PAPUA BARAT,98412.0,Indonesia,,-0.8878893,131.271243,https://maps.google.com/?cid=0x0:0xb276478752dcd2b2
hotel,hotel,Distrik Aifat,"Kabupaten Maybrat, Papua Bar.","Kabupaten Maybrat, Papua Bar.",PAPUA BARAT,,Indonesia,,-1.2568532,132.5001338,https://maps.google.com/?cid=0x0:0xcc3d52ba3ddd33de
hotel,hotel,Aimas Hotel And Convention Center,"Klamasen, Distrik Mariat, Kabupaten Sorong, Papua Bar. 98416","Distrik Mariat, Kabupaten Sorong",PAPUA BARAT,98416.0,Indonesia,8114887778.0,-0.9780957,131.3535192,https://maps.google.com/?cid=0x0:0x622ceae2f7c756cf
hotel,hotel,VEGA PRIME Hotel  Convention,"Jl. Frans Kaisiepo, Malaingkedi, Kec. Sorong Utara, Kota Sorong, Papua Bar. 98412","Malaingkedi, Kec. Sorong Utara, Kota Sorong",PAPUA BARAT,98412.0,Indonesia,81148501658.0,-0.8863935,131.2926608,https://maps.google.com/?cid=0x0:0x9490ccc0d9334885
hotel,hotel,,,,PAPUA BARAT,,Indonesia,,,,https://maps.google.com/?cid=0x0:0xbf6ecabef3414744%7C/g/12hnlthc5%7Cid-ID
hotel,hotel,Aston Sorong Hotel  Conference Center,"476V+J9X, Jl. Basuki Rahmat, Malaingkedi, Kec. Sorong Utara, Kota Sorong, Papua Bar. 98412","Jl. Basuki Rahmat, Malaingkedi, Kec. Sorong Utara, Kota Sorong",PAPUA BARAT,98412.0,Indonesia,81148500888.0,-0.8887467,131.2931592,https://maps.google.com/?cid=0x0:0x110a6a5f0a67a7f7
hotel,hotel,The ignislo sorong hotel,"Basuki Rahmat Street KM 7 Sorong, Malaingkedi, Sorong Utara, Sorong City, West Papua 98412","Malaingkedi, Sorong Utara, Sorong City",PAPUA BARAT,98412.0,Indonesia,,-0.8885403,131.2925628,https://maps.google.com/?cid=0x0:0x9992b24f2542a546
hotel,hotel,InnBox Hostel,"Jl. Sam Ratulangi No.91, Klasuur, Distrik Sorong, Kota Sorong, Papua Bar. 98413","Klasuur, Distrik Sorong, Kota Sorong",PAPUA BARAT,98413.0,Indonesia,81268888355.0,-0.8669219,131.2528048,https://maps.google.com/?cid=0x0:0x3be781e9731e888a
hotel,hotel,Hotel Belagri Sorong,"Jl. Merapi No.8, Klabala, Distrik Sorong Barat, Kota Sorong, Papua Bar. 98411","Klabala, Distrik Sorong Barat, Kota Sorong",PAPUA BARAT,98411.0,Indonesia,951323888.0,-0.8730356,131.2547729,https://maps.google.com/?cid=0x0:0x84dae6f8c4b2e8ad
hotel,hotel,,,,PAPUA BARAT,,Indonesia,,,,https://maps.google.com/?cid=0x0:0x9b9160ef43d35fd5%7C/g/11clwlw14h%7Cid-ID
hotel,hotel,M Hotel Sorong,"Jl. Sungai Maruni, Klawuyuk, Kec. Sorong Utara, Kota Sorong, Papua Bar. 98416","Klawuyuk, Kec. Sorong Utara, Kota Sorong",PAPUA BARAT,98416.0,Indonesia,8114863111.0,-0.8858638,131.3227746,https://maps.google.com/?cid=0x0:0x9b9160ef43d35fd5
hotel,hotel,,,,PAPUA BARAT,,Indonesia,,,,https://maps.google.com/?cid=0x0:0x56f2eb1c250a17fa%7C/g/11g8bwyjxb%7Cid-ID
hotel,hotel,favehotel Sorong,"Klabulu, Jl. Basuki Rahmat Malaimsimsa, RT.001/RW.005, Kecamatan Malaimsimsa, Kota Sorong, Papua Bar. 98419","Jl. Basuki Rahmat Malaimsimsa, RT.001/RW.005, Kecamatan Malaimsimsa, Kota Sorong",PAPUA BARAT,98419.0,Indonesia,9513173888.0,-0.8892152,131.2985379,https://maps.google.com/?cid=0x0:0x56f2eb1c250a17fa
hotel,Rumah wisata,Penginapan Kofiyau,"46MX+QV7, Unnamed Road, Klasuur, Distrik Sorong, Kota Sorong, Papua Bar. 98411","Unnamed Road, Klasuur, Distrik Sorong, Kota Sorong",PAPUA BARAT,98411.0,Indonesia,82398017326.0,-0.86559,131.2496721,https://maps.google.com/?cid=0x0:0xfc32a1234a9c5c47
hotel,hotel,tempat penginapan,"46GX+7Q4, Kp. Baru, Distrik Sorong, Kota Sorong, Papua Bar.","Kota Sorong, Papua Bar.",PAPUA BARAT,,Indonesia,,-0.8743674,131.249452,https://maps.google.com/?cid=0x0:0x5a527f95bc78be48
hotel,hotel,distrik Batanta Selatan,"Kabupaten Raja Ampat, Papua Bar.","Kabupaten Raja Ampat, Papua Bar.",PAPUA BARAT,,Indonesia,,-0.8447219,130.8171615,https://maps.google.com/?cid=0x0:0xc5c0f28bd225b23c
hotel,hotel,Raja 4 Nature Lodge,"Pulau Birie, Batanta, Arefi, Distrik Kota Waisai, Kabupaten Raja Ampat, Papua Bar. 98492","Batanta, Arefi, Distrik Kota Waisai, Kabupaten Raja Ampat",PAPUA BARAT,98492.0,Indonesia,81244607880.0,-0.7778955,130.7395796,https://maps.google.com/?cid=0x0:0x4dc34ebbc9339c1
hotel,hotel,Biryei Homestay,"Pulau Birie, Batanta, Arefi, Selat Sagawin, Raja Ampat Regency, West Papua 98484","Batanta, Arefi, Selat Sagawin, Raja Ampat Regency",PAPUA BARAT,98484.0,Indonesia,,-0.778498,130.738084,https://maps.google.com/?cid=0x0:0xfa8f701e12ed95d4
hotel,hotel,Yenaduak Homestay,"Pulau Birie, Batanta, Raja Ampat, Arefi, Selat Sagawin, West Papua 98484","Batanta, Raja Ampat, Arefi, Selat Sagawin",PAPUA BARAT,98484.0,Indonesia,,-0.77334,130.729144,https://maps.google.com/?cid=0x0:0x835127f330f88dfe
hotel,hotel,Wai Resort - Raja Ampat,"Pulau Wai, Arefi, Kabupaten Raja Ampat, Papua Bar.","Kabupaten Raja Ampat, Papua Bar.",PAPUA BARAT,,Indonesia,8174712308.0,-0.7020426,130.7087398,https://maps.google.com/?cid=0x0:0xd65a5923f78990f8
hotel,hotel,Yenkarom Homestay,"Pulau Birie, Batanta, Raja Ampat, Arefi, Selat Sagawin, West Papua 98484","Batanta, Raja Ampat, Arefi, Selat Sagawin",PAPUA BARAT,98484.0,Indonesia,,-0.773206,130.71948,https://maps.google.com/?cid=0x0:0x751e688cf56a3e94
hotel,hotel,Marwes Homestay,"Yensawai, Selat Sagawin, Kabupaten Raja Ampat, Papua Bar. 98484","Selat Sagawin, Kabupaten Raja Ampat",PAPUA BARAT,98484.0,Indonesia,81269948337.0,-0.800081,130.5773944,https://maps.google.com/?cid=0x0:0x54785288c63d99ef
hotel,hotel,Papua Paradise Eco Resort,"Arefi Birie Island, Arefi, Selat Sagawin, Kabupaten Raja Ampat, Papua Bar. 98484","Arefi, Selat Sagawin, Kabupaten Raja Ampat",PAPUA BARAT,98484.0,Indonesia,81339292008.0,-0.7700501,130.7458591,https://maps.google.com/?cid=0x0:0xa1eb8804131ff434
hotel,hotel,,,,PAPUA BARAT,,Indonesia,,,,https://maps.google.com/?cid=0x0:0xa1eb8804131ff434%7C/g/11cfb8fcs%7Cid-ID
hotel,hotel,Rissen Homestay,"6H49+998, Yensawai, Selat Sagawin, Kabupaten Raja Ampat, Papua Bar. 98484","Yensawai, Selat Sagawin, Kabupaten Raja Ampat",PAPUA BARAT,98484.0,Indonesia,,-0.7940969,130.5684623,https://maps.google.com/?cid=0x0:0xdeb6372e536587a4
hotel,hotel,Iboryouh Homestay,"6PGG+942, Arefi, Selat Sagawin, Kabupaten Raja Ampat, Papua Bar. 98484","Arefi, Selat Sagawin, Kabupaten Raja Ampat",PAPUA BARAT,98484.0,Indonesia,,-0.7741059,130.7252609,https://maps.google.com/?cid=0x0:0xaa0d4dcd489b5e32
hotel,hotel,Andau Dive Resort Raja Ampat,"Andau Mkun, Pam Islands, Pam, Waigeo Barat, Raja Ampat Regency, West Papua 98481","Pam Islands, Pam, Waigeo Barat, Raja Ampat Regency",PAPUA BARAT,98481.0,Indonesia,81316776671.0,-0.6727684,130.2569425,https://maps.google.com/?cid=0x0:0xafa9f72bb4ba8b84
hotel,hotel,Yenaiwon Homestay,"6PC5+3W, Arefi, Kabupaten Raja Ampat, Papua Bar.","Kabupaten Raja Ampat, Papua Bar.",PAPUA BARAT,,Indonesia,,-0.7798711,130.7097842,https://maps.google.com/?cid=0x0:0xa26d9c8521beea88
hotel,hotel,Mamere Homestay Raja Ampat,"Fam, Papua Bar. 98481","Fam, Papua Bar.",PAPUA BARAT,,Indonesia,82199025688.0,-0.6477637,130.3137578,https://maps.google.com/?cid=0x0:0x991f62887df0dafe
hotel,hotel,Pulau Batanta,"Wailebet, distrik Batanta Selatan, Kabupaten Raja Ampat, Papua Bar.","Kabupaten Raja Ampat, Papua Bar.",PAPUA BARAT,,Indonesia,,-0.8647222,130.6494444,https://maps.google.com/?cid=0x0:0x622f6c920ed64eb5
hotel,hotel,Papua Paradise Eco Resort,"Arefi Birie Island, Arefi, Selat Sagawin, Kabupaten Raja Ampat, Papua Bar. 98484","Arefi, Selat Sagawin, Kabupaten Raja Ampat",PAPUA BARAT,98484.0,Indonesia,81339292008.0,-0.7700501,130.7458591,https://maps.google.com/?cid=0x0:0xa1eb8804131ff434
hotel,hotel,,,,PAPUA BARAT,,Indonesia,,,,https://maps.google.com/?cid=0x0:0xa1eb8804131ff434%7C/g/11cfb8fcs%7Cid-ID
hotel,hotel,MahaRaja Eco Dive Lodge,"Dokri Island, Batanta Utara, Kabupaten Raja Ampat, Papua Bar. 94884","Batanta Utara, Kabupaten Raja Ampat",PAPUA BARAT,94884.0,Indonesia,81344670712.0,-0.759204,130.7539003,https://maps.google.com/?cid=0x0:0xcb900011705eaee5
hotel,hotel,Marwes Homestay,"Yensawai, Selat Sagawin, Kabupaten Raja Ampat, Papua Bar. 98484","Selat Sagawin, Kabupaten Raja Ampat",PAPUA BARAT,98484.0,Indonesia,81269948337.0,-0.800081,130.5773944,https://maps.google.com/?cid=0x0:0x54785288c63d99ef
hotel,hotel,Raja 4 Nature Lodge,"Pulau Birie, Batanta, Arefi, Distrik Kota Waisai, Kabupaten Raja Ampat, Papua Bar. 98492","Batanta, Arefi, Distrik Kota Waisai, Kabupaten Raja Ampat",PAPUA BARAT,98492.0,Indonesia,81244607880.0,-0.7778955,130.7395796,https://maps.google.com/?cid=0x0:0x4dc34ebbc9339c1
hotel,hotel,Yenaduak Homestay,"Pulau Birie, Batanta, Raja Ampat, Arefi, Selat Sagawin, West Papua 98484","Batanta, Raja Ampat, Arefi, Selat Sagawin",PAPUA BARAT,98484.0,Indonesia,,-0.77334,130.729144,https://maps.google.com/?cid=0x0:0x835127f330f88dfe
hotel,hotel,Yenkarom Homestay,"Pulau Birie, Batanta, Raja Ampat, Arefi, Selat Sagawin, West Papua 98484","Batanta, Raja Ampat, Arefi, Selat Sagawin",PAPUA BARAT,98484.0,Indonesia,,-0.773206,130.71948,https://maps.google.com/?cid=0x0:0x751e688cf56a3e94
hotel,hotel,Biryei Homestay,"Pulau Birie, Batanta, Arefi, Selat Sagawin, Raja Ampat Regency, West Papua 98484","Batanta, Arefi, Selat Sagawin, Raja Ampat Regency",PAPUA BARAT,98484.0,Indonesia,,-0.778498,130.738084,https://maps.google.com/?cid=0x0:0xfa8f701e12ed95d4
hotel,hotel,Rissen Homestay,"6H49+998, Yensawai, Selat Sagawin, Kabupaten Raja Ampat, Papua Bar. 98484","Yensawai, Selat Sagawin, Kabupaten Raja Ampat",PAPUA BARAT,98484.0,Indonesia,,-0.7940969,130.5684623,https://maps.google.com/?cid=0x0:0xdeb6372e536587a4
hotel,hotel,Iboryouh Homestay,"6PGG+942, Arefi, Selat Sagawin, Kabupaten Raja Ampat, Papua Bar. 98484","Arefi, Selat Sagawin, Kabupaten Raja Ampat",PAPUA BARAT,98484.0,Indonesia,,-0.7741059,130.7252609,https://maps.google.com/?cid=0x0:0xaa0d4dcd489b5e32
hotel,hotel,Yenaiwon Homestay,"6PC5+3W, Arefi, Kabupaten Raja Ampat, Papua Bar.","Kabupaten Raja Ampat, Papua Bar.",PAPUA BARAT,,Indonesia,,-0.7798711,130.7097842,https://maps.google.com/?cid=0x0:0xa26d9c8521beea88
hotel,hotel,Yenbeyar Homestay,"Yensawai, Batanta, Raja Ampat, West Papua",Papua Bar.,PAPUA BARAT,,Indonesia,,-0.801111,130.677222,https://maps.google.com/?cid=0x0:0x3db25d5c758a30b5
hotel,hotel,Sareni Raja Ampat,"6PFJ+5X7, Arefi, Birie Island, Kabupaten Raja Ampat, Papua Bar. 98484","Arefi, Birie Island, Kabupaten Raja Ampat",PAPUA BARAT,98484.0,Indonesia,81533483777.0,-0.7770966,130.732417,https://maps.google.com/?cid=0x0:0x4574fbddd35b5f65
hotel,hotel,Kepulauan Sembilan,"Kabupaten Raja Ampat, Papua Bar.","Kabupaten Raja Ampat, Papua Bar.",PAPUA BARAT,,Indonesia,,-1.4692971,130.2424588,https://maps.google.com/?cid=0x0:0x364ea5a3f0657fa
hotel,hotel,Penginapan Kofiyau,"46MX+QV7, Unnamed Road, Klasuur, Distrik Sorong, Kota Sorong, Papua Bar. 98411","Unnamed Road, Klasuur, Distrik Sorong, Kota Sorong",PAPUA BARAT,98411.0,Indonesia,82398017326.0,-0.86559,131.2496721,https://maps.google.com/?cid=0x0:0xfc32a1234a9c5c47
hotel,hotel,Frances Homestay,"CJF8+H7, Kurkapa, Kabupaten Raja Ampat, Papua Bar.","Kabupaten Raja Ampat, Papua Bar.",PAPUA BARAT,,Indonesia,,-0.5737089,130.6207701,https://maps.google.com/?cid=0x0:0x2da7e8e00eb3b56a
hotel,hotel,Snonbepur homestay,"Yensawai, Selat Sagawin, Kabupaten Raja Ampat, Papua Bar.","Kabupaten Raja Ampat, Papua Bar.",PAPUA BARAT,,Indonesia,81354108052.0,-0.7917941,130.5017129,https://maps.google.com/?cid=0x0:0x931bf3bedf17d
hotel,hotel,Penginapan Andi Riona,"sebelum jembatan, Jl. Lukas Dailon, Waisai, Distrik Kota Waisai, Kabupaten Raja Ampat, Papua Bar. 98482","Jl. Lukas Dailon, Waisai, Distrik Kota Waisai, Kabupaten Raja Ampat",PAPUA BARAT,98482.0,Indonesia,82343625890.0,-0.4166334,130.8223743,https://maps.google.com/?cid=0x0:0x22162f9d5c4740b1
hotel,hotel,Hotel Batanta,"46GW+RMC, Kp. Baru, Distrik Sorong, Kota Sorong, Papua Bar. 98411","Kp. Baru, Distrik Sorong, Kota Sorong",PAPUA BARAT,98411.0,Indonesia,,-0.8729338,131.246629,https://maps.google.com/?cid=0x0:0xd18e7775760a134a
hotel,hotel,O,"Jl. Jend. A. Yani No.27, Malabutor, Kecamatan Sorong Manoi, Kota Sorong, Papua Bar. 98412","Malabutor, Kecamatan Sorong Manoi, Kota Sorong",PAPUA BARAT,98412.0,Indonesia,,-0.8827427,131.2828186,https://maps.google.com/?cid=0x0:0x9aebba5ddda67893
hotel,hotel,Mamatua N. Saleo Villa,"HQ55+7HG, Waisai, Distrik Kota Waisai, Kabupaten Raja Ampat, Papua Bar. 98482","Waisai, Distrik Kota Waisai, Kabupaten Raja Ampat",PAPUA BARAT,98482.0,Indonesia,852446534444.0,-0.4418225,130.7589419,https://maps.google.com/?cid=0x0:0x1e1a84f97a5042aa
hotel,hotel,selayar turtle bay resort,"pantai pinang, Lowa, Bontosikuyu, Kab. Kepulauan Selayar, Sulawesi Selatan","Kab. Kepulauan Selayar, Sulawesi Selatan",PAPUA BARAT,,Indonesia,33662291373.0,-6.4347532,120.5020778,https://maps.google.com/?cid=0x0:0xf3b579212ba30451
hotel,hotel,Papua Bar. 98481,"Kabupaten Raja Ampat, Papua Bar.","Kabupaten Raja Ampat, Papua Bar.",PAPUA BARAT,,Indonesia,,-0.0847884,130.8374011,https://maps.google.com/?cid=0x0:0xabdb6fd88155f082
hotel,hotel,Waisai Beach Hotel (WBH),"Waisai, Kec. Waigeo Sel., Kabupaten Raja Ampat, Papua Bar. 98482","Kec. Waigeo Sel., Kabupaten Raja Ampat",PAPUA BARAT,98482.0,Indonesia,81247553799.0,-0.4281731,130.8199415,https://maps.google.com/?cid=0x0:0x87348b8c39be5af1
hotel,hotel,Pantai Saleo,"Waisai, Distrik Kota Waisai, Kabupaten Raja Ampat, Papua Bar. 98482","Distrik Kota Waisai, Kabupaten Raja Ampat",PAPUA BARAT,98482.0,Indonesia,,-0.4411768,130.7875287,https://maps.google.com/?cid=0x0:0x848c26d0dfb12814
hotel,hotel,Wai Resort - Raja Ampat,"Pulau Wai, Arefi, Kabupaten Raja Ampat, Papua Bar.","Kabupaten Raja Ampat, Papua Bar.",PAPUA BARAT,,Indonesia,8174712308.0,-0.7020426,130.7087398,https://maps.google.com/?cid=0x0:0xd65a5923f78990f8
hotel,hotel,Kri,"Yenbuba, Meos Mansar, Kabupaten Raja Ampat, Papua Bar.","Kabupaten Raja Ampat, Papua Bar.",PAPUA BARAT,,Indonesia,,-0.5613911,130.6765536,https://maps.google.com/?cid=0x0:0x3f854db56422f420
hotel,hotel,Amoryg resort,"Yendirap, sawendarak, Kabupaten Raja Ampat, Papua Bar.","Kabupaten Raja Ampat, Papua Bar.",PAPUA BARAT,,Indonesia,82340182481.0,-0.612278,130.5646907,https://maps.google.com/?cid=0x0:0xc823d7af2ac05194
hotel,hotel,Selat Dampier,,,PAPUA BARAT,,Indonesia,,-0.6,130.6,https://maps.google.com/?cid=0x0:0xde264c036b41028c
hotel,hotel,Cove Eco Resort,"Kabupaten Raja Ampat, Papua Bar.","Kabupaten Raja Ampat, Papua Bar.",PAPUA BARAT,,Indonesia,82110008548.0,-0.48347,130.35574,https://maps.google.com/?cid=0x0:0x72b52447b0f10043
hotel,Guest house,Piaynemo Raja Ampat,"C7PC+888, Groot Fam, Saukabu, Kepulauan Raja Ampat, Waigeo Barat Kepulau, Saukabu, Distrik Waigeo Barat Kepulauan, Kabupaten Raja Ampat, Papua Bar. 98481","Groot Fam, Saukabu, Kepulauan Raja Ampat, Waigeo Barat Kepulau, Saukabu, Distrik Waigeo Barat Kepulauan, Kabupaten Raja Ampat",PAPUA BARAT,98481.0,Indonesia,,-0.5642076,130.2708139,https://maps.google.com/?cid=0x0:0xb98db4c6e60649fb
hotel,hotel,Korpak Villa and Resort,"HQ6M+RGH, Unnamed Road, Waisai, Distrik Kota Waisai, Kabupaten Raja Ampat, Papua Bar. 98482","Unnamed Road, Waisai, Distrik Kota Waisai, Kabupaten Raja Ampat",PAPUA BARAT,98482.0,Indonesia,,-0.4379467,130.7838521,https://maps.google.com/?cid=0x0:0x7d6048504236c32d
hotel,Layanan Transportasi,Waisai,,,PAPUA BARAT,,Indonesia,,-0.43245,130.80278,https://maps.google.com/?cid=0x0:0xefa3cc42d8fe7cd0
hotel,hotel,Raja Ampat Dive Lodge,"Pulau Mansuar, Desa Kurkapa, Pulau Mansuar, Meos Mansar, Kabupaten Raja Ampat, Papua Bar.","Kabupaten Raja Ampat, Papua Bar.",PAPUA BARAT,,Indonesia,81326034826.0,-0.5764212,130.6141204,https://maps.google.com/?cid=0x0:0x78a44763763e9ed7
hotel,hotel,Vogelkopf Resort,"Waisai, Distrik Kota Waisai, Kabupaten Raja Ampat, Papua Bar. 98482","Distrik Kota Waisai, Kabupaten Raja Ampat",PAPUA BARAT,98482.0,Indonesia,81360001088.0,-0.4385338,130.785262,https://maps.google.com/?cid=0x0:0x132e94aff8281150
hotel,hotel,Hotel Raja Ampat,"Jl. Fundar Sakela No.1, Waisai, City, Kabupaten Raja Ampat, Papua Bar. 98482","Waisai, City, Kabupaten Raja Ampat",PAPUA BARAT,98482.0,Indonesia,81298260747.0,-0.4224417,130.8199523,https://maps.google.com/?cid=0x0:0x3bda491b055b084
hotel,hotel,Pulau Kofiau,"Mikiran, Kofiau, Kabupaten Raja Ampat, Papua Bar.","Kabupaten Raja Ampat, Papua Bar.",PAPUA BARAT,,Indonesia,,-1.1833333,129.8333333,https://maps.google.com/?cid=0x0:0x22393f628dc41dcc
hotel,hotel,Coriana Dive Resort,"Distrik Kota Waisai, Kabupaten Raja Ampat, Papua Bar. 98482",Kabupaten Raja Ampat,PAPUA BARAT,98482.0,Indonesia,82136412108.0,-0.4382191,130.7830897,https://maps.google.com/?cid=0x0:0x6cdb2ad85060dc40
hotel,hotel,Frances Homestay,"CJF8+H7, Kurkapa, Kabupaten Raja Ampat, Papua Bar.","Kabupaten Raja Ampat, Papua Bar.",PAPUA BARAT,,Indonesia,,-0.5737089,130.6207701,https://maps.google.com/?cid=0x0:0x2da7e8e00eb3b56a
hotel,hotel,Penginapan Kofiyau,"46MX+QV7, Unnamed Road, Klasuur, Distrik Sorong, Kota Sorong, Papua Bar. 98411","Unnamed Road, Klasuur, Distrik Sorong, Kota Sorong",PAPUA BARAT,98411.0,Indonesia,82398017326.0,-0.86559,131.2496721,https://maps.google.com/?cid=0x0:0xfc32a1234a9c5c47
hotel,hotel,Hotel Batanta,"46GW+RMC, Kp. Baru, Distrik Sorong, Kota Sorong, Papua Bar. 98411","Kp. Baru, Distrik Sorong, Kota Sorong",PAPUA BARAT,98411.0,Indonesia,,-0.8729338,131.246629,https://maps.google.com/?cid=0x0:0xd18e7775760a134a
hotel,hotel,Penginapan Andi Riona,"sebelum jembatan, Jl. Lukas Dailon, Waisai, Distrik Kota Waisai, Kabupaten Raja Ampat, Papua Bar. 98482","Jl. Lukas Dailon, Waisai, Distrik Kota Waisai, Kabupaten Raja Ampat",PAPUA BARAT,98482.0,Indonesia,82343625890.0,-0.4166334,130.8223743,https://maps.google.com/?cid=0x0:0x22162f9d5c4740b1
hotel,hotel,O,"Jl. Jend. A. Yani No.27, Malabutor, Kecamatan Sorong Manoi, Kota Sorong, Papua Bar. 98412","Malabutor, Kecamatan Sorong Manoi, Kota Sorong",PAPUA BARAT,98412.0,Indonesia,,-0.8827427,131.2828186,https://maps.google.com/?cid=0x0:0x9aebba5ddda67893
hotel,hotel,Distrik Kota Waisai,"Waisai, Kabupaten Raja Ampat, Papua Bar.","Kabupaten Raja Ampat, Papua Bar.",PAPUA BARAT,,Indonesia,,-0.4248841,130.8208792,https://maps.google.com/?cid=0x0:0x50ee7a1504609bf5
hotel,hotel,Waisai Beach Hotel (WBH),"Waisai, Kec. Waigeo Sel., Kabupaten Raja Ampat, Papua Bar. 98482","Kec. Waigeo Sel., Kabupaten Raja Ampat",PAPUA BARAT,98482.0,Indonesia,81247553799.0,-0.4281731,130.8199415,https://maps.google.com/?cid=0x0:0x87348b8c39be5af1
hotel,hotel,Hotel Raja Ampat,"Jl. Fundar Sakela No.1, Waisai, City, Kabupaten Raja Ampat, Papua Bar. 98482","Waisai, City, Kabupaten Raja Ampat",PAPUA BARAT,98482.0,Indonesia,81298260747.0,-0.4224417,130.8199523,https://maps.google.com/?cid=0x0:0x3bda491b055b084
hotel,hotel,Meridian Adventure Marina Club  Resort Waisai,"Waisai, Distrik Kota Waisai, Kabupaten Raja Ampat, Papua Bar. 98482","Distrik Kota Waisai, Kabupaten Raja Ampat",PAPUA BARAT,98482.0,Indonesia,82248540774.0,-0.4341882,130.8081566,https://maps.google.com/?cid=0x0:0x9355b383d6822caa
hotel,hotel,Raja Ampat Family Guest House,"HRFJ+567, Jalan Mambrasar Swaimbon, Pantai, Waisai, Distrik Kota Waisai, Kabupaten Raja Ampat, Papua Bar. 98482","Jalan Mambrasar Swaimbon, Pantai, Waisai, Distrik Kota Waisai, Kabupaten Raja Ampat",PAPUA BARAT,98482.0,Indonesia,82393112027.0,-0.4270989,130.8305315,https://maps.google.com/?cid=0x0:0x1ff71509f66af495
hotel,hotel,Rara guest house,"Jalan Yosudarso, Waisai, Distrik Kota Waisai, Kabupaten Raja Ampat, Papua Bar. 98483","Waisai, Distrik Kota Waisai, Kabupaten Raja Ampat",PAPUA BARAT,98483.0,Indonesia,85251403900.0,-0.4337012,130.8088814,https://maps.google.com/?cid=0x0:0xb58659c95a6686df
hotel,hotel,Penginapan Najwa Indah,"HRHF+298, Waisai, Kec. Waigeo Sel., Kabupaten Raja Ampat, Papua Bar. 98482","Waisai, Kec. Waigeo Sel., Kabupaten Raja Ampat",PAPUA BARAT,98482.0,Indonesia,,-0.4224746,130.8234508,https://maps.google.com/?cid=0x0:0x34aabd52344d0c97
hotel,hotel,Sandy Guesthouse,"HRJC+MWP, Jl. Lukas Dailon, Waisai, Distrik Kota Waisai, Kabupaten Raja Ampat, Papua Bar. 98482","Jl. Lukas Dailon, Waisai, Distrik Kota Waisai, Kabupaten Raja Ampat",PAPUA BARAT,98482.0,Indonesia,85254550411.0,-0.4182911,130.8223244,https://maps.google.com/?cid=0x0:0xcfdf232f9d574804
hotel,hotel,Penginapan Novalin Raja Ampat,"Waisai, Distrik Kota Waisai, Kabupaten Raja Ampat, Papua Bar. 98482","Distrik Kota Waisai, Kabupaten Raja Ampat",PAPUA BARAT,98482.0,Indonesia,81354153203.0,-0.4358638,130.8103146,https://maps.google.com/?cid=0x0:0x1d454349c1bdcfa6
hotel,hotel,Rifalda Cottage (Raja Ampat),"Waisai, Kec. Waigeo Sel., Kabupaten Raja Ampat, Papua Bar. 98482","Kec. Waigeo Sel., Kabupaten Raja Ampat",PAPUA BARAT,98482.0,Indonesia,,-0.4358519,130.8124731,https://maps.google.com/?cid=0x0:0x8ffeedbd34be837e
hotel,hotel,Vogelkopf Resort,"Waisai, Distrik Kota Waisai, Kabupaten Raja Ampat, Papua Bar. 98482","Distrik Kota Waisai, Kabupaten Raja Ampat",PAPUA BARAT,98482.0,Indonesia,81360001088.0,-0.4385338,130.785262,https://maps.google.com/?cid=0x0:0x132e94aff8281150
hotel,hotel,Coriana Dive Resort,"Distrik Kota Waisai, Kabupaten Raja Ampat, Papua Bar. 98482",Kabupaten Raja Ampat,PAPUA BARAT,98482.0,Indonesia,82136412108.0,-0.4382191,130.7830897,https://maps.google.com/?cid=0x0:0x6cdb2ad85060dc40
hotel,hotel,Korpak Villa and Resort,"HQ6M+RGH, Unnamed Road, Waisai, Distrik Kota Waisai, Kabupaten Raja Ampat, Papua Bar. 98482","Unnamed Road, Waisai, Distrik Kota Waisai, Kabupaten Raja Ampat",PAPUA BARAT,98482.0,Indonesia,,-0.4379467,130.7838521,https://maps.google.com/?cid=0x0:0x7d6048504236c32d
hotel,hotel,Hotel Raja Ampat City,"Waisai, Distrik Kota Waisai, Kabupaten Raja Ampat, Papua Bar. 98482","Distrik Kota Waisai, Kabupaten Raja Ampat",PAPUA BARAT,98482.0,Indonesia,81344077377.0,-0.4181859,130.8234502,https://maps.google.com/?cid=0x0:0x340788df84d8dcb8
hotel,hotel,Meos Mansar,"Kabupaten Raja Ampat, Papua Bar.","Kabupaten Raja Ampat, Papua Bar.",PAPUA BARAT,,Indonesia,,-0.4496057,130.583895,https://maps.google.com/?cid=0x0:0xe58d24898307b204
hotel,hotel,Raja Ampat Biodiversity Nature Resort,"Pantai Yenanas, Yenbeser, Kec. Waigeo Sel., Kabupaten Raja Ampat, Papua Bar. 98482","Yenbeser, Kec. Waigeo Sel., Kabupaten Raja Ampat",PAPUA BARAT,98482.0,Indonesia,81248813677.0,-0.4504898,130.6921427,https://maps.google.com/?cid=0x0:0xcbf275f407edce9c
hotel,hotel,Pesona Papua Homestay,"Sawinggrai, Kabupaten Raja Ampat, Papua Bar. 98482",Kabupaten Raja Ampat,PAPUA BARAT,98482.0,Indonesia,82115558264.0,-0.5341166,130.5765139,https://maps.google.com/?cid=0x0:0x254474aecb299fd0
hotel,hotel,Raja Ampat Dive Lodge,"Pulau Mansuar, Desa Kurkapa, Pulau Mansuar, Meos Mansar, Kabupaten Raja Ampat, Papua Bar.","Kabupaten Raja Ampat, Papua Bar.",PAPUA BARAT,,Indonesia,81326034826.0,-0.5764212,130.6141204,https://maps.google.com/?cid=0x0:0x78a44763763e9ed7
hotel,hotel,Frances Homestay,"CJF8+H7, Kurkapa, Kabupaten Raja Ampat, Papua Bar.","Kabupaten Raja Ampat, Papua Bar.",PAPUA BARAT,,Indonesia,,-0.5737089,130.6207701,https://maps.google.com/?cid=0x0:0x2da7e8e00eb3b56a
hotel,hotel,Gam Bay Bungalow's,"Kapisawar, Meos Mansar, Kabupaten Raja Ampat, Papua Bar. 98482","Meos Mansar, Kabupaten Raja Ampat",PAPUA BARAT,98482.0,Indonesia,81297976658.0,-0.5188904,130.5690527,https://maps.google.com/?cid=0x0:0x5fdcdb155bcf30ff
hotel,hotel,Beser Bay Homestay,"Pulau Gam, Raja Ampat, Sawinggrai, Meos Mansar, West Papua 98482","Raja Ampat, Sawinggrai, Meos Mansar",PAPUA BARAT,98482.0,Indonesia,,-0.5197558,130.5693589,https://maps.google.com/?cid=0x0:0xb087ce3ef49e1981
hotel,hotel,Korbekwan Homestay,"Pulau Gam, Raja Ampat, Arborek, Meos Mansar, West Papua 98482","Raja Ampat, Arborek, Meos Mansar",PAPUA BARAT,98482.0,Indonesia,,-0.508872,130.508017,https://maps.google.com/?cid=0x0:0xe22477a655ff7cea
hotel,hotel,Daroyen Village Raja Ampat,"Kri island, Meos Mansar, Kabupaten Raja Ampat, Papua Bar. 98482","Meos Mansar, Kabupaten Raja Ampat",PAPUA BARAT,98482.0,Indonesia,,-0.5572745,130.6755968,https://maps.google.com/?cid=0x0:0xe0ed2e2e9ad6c100
hotel,hotel,Nyanse Homestay,"Kapisawar, Pulau Gam, Raja Ampat, Sawinggrai, Meos Mansar, West Papua 98482","Pulau Gam, Raja Ampat, Sawinggrai, Meos Mansar",PAPUA BARAT,98482.0,Indonesia,,-0.533553,130.57617,https://maps.google.com/?cid=0x0:0xe444b3b2686970d4
hotel,hotel,Nyandetor Homestay,"Pulau Friwen, Raja Ampat, West Papua 98482",Raja Ampat,PAPUA BARAT,98482.0,Indonesia,,-0.471228,130.692833,https://maps.google.com/?cid=0x0:0xfeb652f62701b3d6
hotel,hotel,Tapor Aikos Homestay,"Kapisawar, Pulau Gam, Raja Ampat, Sawinggrai, Meos Mansar, West Papua 98482","Pulau Gam, Raja Ampat, Sawinggrai, Meos Mansar",PAPUA BARAT,98482.0,Indonesia,,-0.532448,130.575162,https://maps.google.com/?cid=0x0:0xbfa8426a71179812
hotel,hotel,Terimakasih Homestay,"CJC3+89, Kurkapa, Kabupaten Raja Ampat, Papua Bar.","Kabupaten Raja Ampat, Papua Bar.",PAPUA BARAT,,Indonesia,8114847333.0,-0.5791322,130.6034582,https://maps.google.com/?cid=0x0:0x6ff879fae7255c73
hotel,hotel,Gibran Homestay,"CMP9+M56, Lumba Lumba Raja Ampat guesthouse, Meos Mansuar Waisai Papua, Yenbuba, Meos Mansar, Kabupaten Raja Ampat, Papua Bar.","Kabupaten Raja Ampat, Papua Bar.",PAPUA BARAT,,Indonesia,,-0.5633406,130.6678891,https://maps.google.com/?cid=0x0:0xf939874d1a32a42c
hotel,hotel,Distrik Misool,"Kabupaten Raja Ampat, Papua Bar.","Kabupaten Raja Ampat, Papua Bar.",PAPUA BARAT,,Indonesia,,-1.7294753,130.076264,https://maps.google.com/?cid=0x0:0xe3dfedd20bce543c
hotel,hotel,Misool Eco Resort,"Yellu, Misool Sel., Kabupaten Raja Ampat, Papua Bar. 98483","Misool Sel., Kabupaten Raja Ampat",PAPUA BARAT,98483.0,Indonesia,,-2.244373,130.5557219,https://maps.google.com/?cid=0x0:0xcec0c32ec4b9f857
hotel,hotel,Mamatua N. Saleo Villa,"HQ55+7HG, Waisai, Distrik Kota Waisai, Kabupaten Raja Ampat, Papua Bar. 98482","Waisai, Distrik Kota Waisai, Kabupaten Raja Ampat",PAPUA BARAT,98482.0,Indonesia,852446534444.0,-0.4418225,130.7589419,https://maps.google.com/?cid=0x0:0x1e1a84f97a5042aa
hotel,hotel,Fiabacet,"Yellu, Misool Sel., Kabupaten Raja Ampat, Papua Bar.","Kabupaten Raja Ampat, Papua Bar.",PAPUA BARAT,,Indonesia,,-2.2211111,130.5516667,https://maps.google.com/?cid=0x0:0xdea3f07a56ccf400
hotel,hotel,Distrik Misool Barat,"Kabupaten Raja Ampat, Papua Bar.","Kabupaten Raja Ampat, Papua Bar.",PAPUA BARAT,,Indonesia,,-2.0480936,130.2709743,https://maps.google.com/?cid=0x0:0xfc668800a318e464
hotel,hotel,Misool Eco Resort,"Yellu, Misool Sel., Kabupaten Raja Ampat, Papua Bar. 98483","Misool Sel., Kabupaten Raja Ampat",PAPUA BARAT,98483.0,Indonesia,,-2.244373,130.5557219,https://maps.google.com/?cid=0x0:0xcec0c32ec4b9f857
hotel,hotel,Hotel Raja Ampat,"Jl. Fundar Sakela No.1, Waisai, City, Kabupaten Raja Ampat, Papua Bar. 98482","Waisai, City, Kabupaten Raja Ampat",PAPUA BARAT,98482.0,Indonesia,81298260747.0,-0.4224417,130.8199523,https://maps.google.com/?cid=0x0:0x3bda491b055b084
hotel,hotel,HOMESTAY YALAPALE,"Harapan Jaya, Misool Sel., Kabupaten Raja Ampat, Papua Bar. 98483","Misool Sel., Kabupaten Raja Ampat",PAPUA BARAT,98483.0,Indonesia,82266141227.0,-2.0058693,130.4159728,https://maps.google.com/?cid=0x0:0x1100058e63cc3a9d
hotel,hotel,Da home stay,"Yellu, Misool Sel., Kabupaten Raja Ampat, Papua Bar. 98483","Misool Sel., Kabupaten Raja Ampat",PAPUA BARAT,98483.0,Indonesia,85244246492.0,-2.076057,130.3990645,https://maps.google.com/?cid=0x0:0x72c0ab551dc2a823
hotel,hotel,Harfat Jaya Homestay,"Pulau Yapen, Misool, Raja Ampat, Harapan Jaya, South Misool, West Papua 98483","Misool, Raja Ampat, Harapan Jaya, South Misool",PAPUA BARAT,98483.0,Indonesia,,-2.042377,130.408404,https://maps.google.com/?cid=0x0:0xe23d86561276d4f7
hotel,hotel,Wayaplyan Homestay,"Usaha Jaya, Distrik Misool Timur, Kabupaten Raja Ampat, Papua Bar. 98486","Distrik Misool Timur, Kabupaten Raja Ampat",PAPUA BARAT,98486.0,Indonesia,85245424220.0,-1.9904543,130.4279891,https://maps.google.com/?cid=0x0:0xcee0eca0d673fc70
hotel,hotel,Misool Sel.,"Kabupaten Raja Ampat, Papua Bar.","Kabupaten Raja Ampat, Papua Bar.",PAPUA BARAT,,Indonesia,,-1.959546,130.3190719,https://maps.google.com/?cid=0x0:0x772018b3157aa95b
hotel,hotel,Misool Eco Resort,"Yellu, Misool Sel., Kabupaten Raja Ampat, Papua Bar. 98483","Misool Sel., Kabupaten Raja Ampat",PAPUA BARAT,98483.0,Indonesia,,-2.244373,130.5557219,https://maps.google.com/?cid=0x0:0xcec0c32ec4b9f857
hotel,hotel,HOMESTAY YALAPALE,"Harapan Jaya, Misool Sel., Kabupaten Raja Ampat, Papua Bar. 98483","Misool Sel., Kabupaten Raja Ampat",PAPUA BARAT,98483.0,Indonesia,82266141227.0,-2.0058693,130.4159728,https://maps.google.com/?cid=0x0:0x1100058e63cc3a9d
hotel,hotel,Da home stay,"Yellu, Misool Sel., Kabupaten Raja Ampat, Papua Bar. 98483","Misool Sel., Kabupaten Raja Ampat",PAPUA BARAT,98483.0,Indonesia,85244246492.0,-2.076057,130.3990645,https://maps.google.com/?cid=0x0:0x72c0ab551dc2a823
hotel,hotel,Frances Homestay,"CJF8+H7, Kurkapa, Kabupaten Raja Ampat, Papua Bar.","Kabupaten Raja Ampat, Papua Bar.",PAPUA BARAT,,Indonesia,,-0.5737089,130.6207701,https://maps.google.com/?cid=0x0:0x2da7e8e00eb3b56a
hotel,hotel,Korpak Villa and Resort,"HQ6M+RGH, Unnamed Road, Waisai, Distrik Kota Waisai, Kabupaten Raja Ampat, Papua Bar. 98482","Unnamed Road, Waisai, Distrik Kota Waisai, Kabupaten Raja Ampat",PAPUA BARAT,98482.0,Indonesia,,-0.4379467,130.7838521,https://maps.google.com/?cid=0x0:0x7d6048504236c32d
hotel,hotel,Raja Ampat Family Guest House,"HRFJ+567, Jalan Mambrasar Swaimbon, Pantai, Waisai, Distrik Kota Waisai, Kabupaten Raja Ampat, Papua Bar. 98482","Jalan Mambrasar Swaimbon, Pantai, Waisai, Distrik Kota Waisai, Kabupaten Raja Ampat",PAPUA BARAT,98482.0,Indonesia,82393112027.0,-0.4270989,130.8305315,https://maps.google.com/?cid=0x0:0x1ff71509f66af495
hotel,hotel,Rifalda Cottage (Raja Ampat),"Waisai, Kec. Waigeo Sel., Kabupaten Raja Ampat, Papua Bar. 98482","Kec. Waigeo Sel., Kabupaten Raja Ampat",PAPUA BARAT,98482.0,Indonesia,,-0.4358519,130.8124731,https://maps.google.com/?cid=0x0:0x8ffeedbd34be837e
hotel,hotel,Hotel Raja Ampat,"Jl. Fundar Sakela No.1, Waisai, City, Kabupaten Raja Ampat, Papua Bar. 98482","Waisai, City, Kabupaten Raja Ampat",PAPUA BARAT,98482.0,Indonesia,81298260747.0,-0.4224417,130.8199523,https://maps.google.com/?cid=0x0:0x3bda491b055b084
hotel,hotel,Wayaplyan Homestay,"Usaha Jaya, Distrik Misool Timur, Kabupaten Raja Ampat, Papua Bar. 98486","Distrik Misool Timur, Kabupaten Raja Ampat",PAPUA BARAT,98486.0,Indonesia,85245424220.0,-1.9904543,130.4279891,https://maps.google.com/?cid=0x0:0xcee0eca0d673fc70
hotel,hotel,Mamatua N. Saleo Villa,"HQ55+7HG, Waisai, Distrik Kota Waisai, Kabupaten Raja Ampat, Papua Bar. 98482","Waisai, Distrik Kota Waisai, Kabupaten Raja Ampat",PAPUA BARAT,98482.0,Indonesia,852446534444.0,-0.4418225,130.7589419,https://maps.google.com/?cid=0x0:0x1e1a84f97a5042aa
hotel,hotel,Panun Paradise Homestay,"Pulau Panun, Misool, Usaha Jaya, Misool Timur, East Misool, West Papua 98483","Misool, Usaha Jaya, Misool Timur, East Misool",PAPUA BARAT,98483.0,Indonesia,85244966469.0,-2.0398841,130.6408722,https://maps.google.com/?cid=0x0:0x81499177799d1fe1
hotel,hotel,PENGINAPAN SIOLA,"Jl. Batanta, Waisai, Distrik Kota Waisai, Kabupaten Raja Ampat, Papua Bar. 98482","Waisai, Distrik Kota Waisai, Kabupaten Raja Ampat",PAPUA BARAT,98482.0,Indonesia,82399699928.0,-0.4258381,130.820789,https://maps.google.com/?cid=0x0:0x8d632670afc85099
hotel,hotel,Nut Tonton Homes,"Usaha Jaya, Distrik Misool Timur, Kabupaten Raja Ampat, Papua Bar. 98486","Distrik Misool Timur, Kabupaten Raja Ampat",PAPUA BARAT,98486.0,Indonesia,85245424220.0,-1.9756333,130.5282393,https://maps.google.com/?cid=0x0:0xa55b503ccdb7aab0
hotel,hotel,Distrik Misool Timur,"Kabupaten Raja Ampat, Papua Bar.","Kabupaten Raja Ampat, Papua Bar.",PAPUA BARAT,,Indonesia,,-1.7731765,130.4105659,https://maps.google.com/?cid=0x0:0x37397a27849d25ed
hotel,hotel,Panun Paradise Homestay,"Pulau Panun, Misool, Usaha Jaya, Misool Timur, East Misool, West Papua 98483","Misool, Usaha Jaya, Misool Timur, East Misool",PAPUA BARAT,98483.0,Indonesia,85244966469.0,-2.0398841,130.6408722,https://maps.google.com/?cid=0x0:0x81499177799d1fe1
hotel,hotel,HOMESTAY YALAPALE,"Harapan Jaya, Misool Sel., Kabupaten Raja Ampat, Papua Bar. 98483","Misool Sel., Kabupaten Raja Ampat",PAPUA BARAT,98483.0,Indonesia,82266141227.0,-2.0058693,130.4159728,https://maps.google.com/?cid=0x0:0x1100058e63cc3a9d
hotel,hotel,Misool Eco Resort,"Yellu, Misool Sel., Kabupaten Raja Ampat, Papua Bar. 98483","Misool Sel., Kabupaten Raja Ampat",PAPUA BARAT,98483.0,Indonesia,,-2.244373,130.5557219,https://maps.google.com/?cid=0x0:0xcec0c32ec4b9f857
hotel,hotel,Korpak Villa and Resort,"HQ6M+RGH, Unnamed Road, Waisai, Distrik Kota Waisai, Kabupaten Raja Ampat, Papua Bar. 98482","Unnamed Road, Waisai, Distrik Kota Waisai, Kabupaten Raja Ampat",PAPUA BARAT,98482.0,Indonesia,,-0.4379467,130.7838521,https://maps.google.com/?cid=0x0:0x7d6048504236c32d
hotel,hotel,Nut Tonton Homes,"Usaha Jaya, Distrik Misool Timur, Kabupaten Raja Ampat, Papua Bar. 98486","Distrik Misool Timur, Kabupaten Raja Ampat",PAPUA BARAT,98486.0,Indonesia,85245424220.0,-1.9756333,130.5282393,https://maps.google.com/?cid=0x0:0xa55b503ccdb7aab0
hotel,hotel,Mamatua N. Saleo Villa,"HQ55+7HG, Waisai, Distrik Kota Waisai, Kabupaten Raja Ampat, Papua Bar. 98482","Waisai, Distrik Kota Waisai, Kabupaten Raja Ampat",PAPUA BARAT,98482.0,Indonesia,852446534444.0,-0.4418225,130.7589419,https://maps.google.com/?cid=0x0:0x1e1a84f97a5042aa
hotel,hotel,Harfat Jaya Homestay,"Pulau Yapen, Misool, Raja Ampat, Harapan Jaya, South Misool, West Papua 98483","Misool, Raja Ampat, Harapan Jaya, South Misool",PAPUA BARAT,98483.0,Indonesia,,-2.042377,130.408404,https://maps.google.com/?cid=0x0:0xe23d86561276d4f7
hotel,hotel,Da home stay,"Yellu, Misool Sel., Kabupaten Raja Ampat, Papua Bar. 98483","Misool Sel., Kabupaten Raja Ampat",PAPUA BARAT,98483.0,Indonesia,85244246492.0,-2.076057,130.3990645,https://maps.google.com/?cid=0x0:0x72c0ab551dc2a823
hotel,hotel,Snonbepur homestay,"Yensawai, Selat Sagawin, Kabupaten Raja Ampat, Papua Bar.","Kabupaten Raja Ampat, Papua Bar.",PAPUA BARAT,,Indonesia,81354108052.0,-0.7917941,130.5017129,https://maps.google.com/?cid=0x0:0x931bf3bedf17d
hotel,hotel,Distrik Salawati Barat,"Kabupaten Raja Ampat, Papua Bar.","Kabupaten Raja Ampat, Papua Bar.",PAPUA BARAT,,Indonesia,,-1.0980561,130.7040528,https://maps.google.com/?cid=0x0:0x6c8554c61c1a5f51
hotel,hotel,Marwes Homestay,"Yensawai, Selat Sagawin, Kabupaten Raja Ampat, Papua Bar. 98484","Selat Sagawin, Kabupaten Raja Ampat",PAPUA BARAT,98484.0,Indonesia,81269948337.0,-0.800081,130.5773944,https://maps.google.com/?cid=0x0:0x54785288c63d99ef
hotel,hotel,Raja 4 Nature Lodge,"Pulau Birie, Batanta, Arefi, Distrik Kota Waisai, Kabupaten Raja Ampat, Papua Bar. 98492","Batanta, Arefi, Distrik Kota Waisai, Kabupaten Raja Ampat",PAPUA BARAT,98492.0,Indonesia,81244607880.0,-0.7778955,130.7395796,https://maps.google.com/?cid=0x0:0x4dc34ebbc9339c1
hotel,hotel,Rissen Homestay,"6H49+998, Yensawai, Selat Sagawin, Kabupaten Raja Ampat, Papua Bar. 98484","Yensawai, Selat Sagawin, Kabupaten Raja Ampat",PAPUA BARAT,98484.0,Indonesia,,-0.7940969,130.5684623,https://maps.google.com/?cid=0x0:0xdeb6372e536587a4
hotel,hotel,Papua Paradise Eco Resort,"Arefi Birie Island, Arefi, Selat Sagawin, Kabupaten Raja Ampat, Papua Bar. 98484","Arefi, Selat Sagawin, Kabupaten Raja Ampat",PAPUA BARAT,98484.0,Indonesia,81339292008.0,-0.7700501,130.7458591,https://maps.google.com/?cid=0x0:0xa1eb8804131ff434
hotel,hotel,,,,PAPUA BARAT,,Indonesia,,,,https://maps.google.com/?cid=0x0:0xa1eb8804131ff434%7C/g/11cfb8fcs%7Cid-ID
hotel,hotel,Yenaduak Homestay,"Pulau Birie, Batanta, Raja Ampat, Arefi, Selat Sagawin, West Papua 98484","Batanta, Raja Ampat, Arefi, Selat Sagawin",PAPUA BARAT,98484.0,Indonesia,,-0.77334,130.729144,https://maps.google.com/?cid=0x0:0x835127f330f88dfe
hotel,hotel,Iboryouh Homestay,"6PGG+942, Arefi, Selat Sagawin, Kabupaten Raja Ampat, Papua Bar. 98484","Arefi, Selat Sagawin, Kabupaten Raja Ampat",PAPUA BARAT,98484.0,Indonesia,,-0.7741059,130.7252609,https://maps.google.com/?cid=0x0:0xaa0d4dcd489b5e32
hotel,hotel,Yenkarom Homestay,"Pulau Birie, Batanta, Raja Ampat, Arefi, Selat Sagawin, West Papua 98484","Batanta, Raja Ampat, Arefi, Selat Sagawin",PAPUA BARAT,98484.0,Indonesia,,-0.773206,130.71948,https://maps.google.com/?cid=0x0:0x751e688cf56a3e94
hotel,hotel,Yenaiwon Homestay,"6PC5+3W, Arefi, Kabupaten Raja Ampat, Papua Bar.","Kabupaten Raja Ampat, Papua Bar.",PAPUA BARAT,,Indonesia,,-0.7798711,130.7097842,https://maps.google.com/?cid=0x0:0xa26d9c8521beea88
hotel,hotel,Snonbepur homestay,"Yensawai, Selat Sagawin, Kabupaten Raja Ampat, Papua Bar.","Kabupaten Raja Ampat, Papua Bar.",PAPUA BARAT,,Indonesia,81354108052.0,-0.7917941,130.5017129,https://maps.google.com/?cid=0x0:0x931bf3bedf17d
hotel,hotel,Sareni Raja Ampat,"6PFJ+5X7, Arefi, Birie Island, Kabupaten Raja Ampat, Papua Bar. 98484","Arefi, Birie Island, Kabupaten Raja Ampat",PAPUA BARAT,98484.0,Indonesia,81533483777.0,-0.7770966,130.732417,https://maps.google.com/?cid=0x0:0x4574fbddd35b5f65
hotel,hotel,Hotel Batanta,"46GW+RMC, Kp. Baru, Distrik Sorong, Kota Sorong, Papua Bar. 98411","Kp. Baru, Distrik Sorong, Kota Sorong",PAPUA BARAT,98411.0,Indonesia,,-0.8729338,131.246629,https://maps.google.com/?cid=0x0:0xd18e7775760a134a
hotel,hotel,Yenbeyar Homestay,"Yensawai, Batanta, Raja Ampat, West Papua",Papua Bar.,PAPUA BARAT,,Indonesia,,-0.801111,130.677222,https://maps.google.com/?cid=0x0:0x3db25d5c758a30b5
hotel,hotel,Salawati Tengah,"Kabupaten Raja Ampat, Papua Bar.","Kabupaten Raja Ampat, Papua Bar.",PAPUA BARAT,,Indonesia,,-1.0547794,131.0589536,https://maps.google.com/?cid=0x0:0x9e15ae7888c4541f
hotel,hotel,Aimas Hotel And Convention Center,"Klamasen, Distrik Mariat, Kabupaten Sorong, Papua Bar. 98416","Distrik Mariat, Kabupaten Sorong",PAPUA BARAT,98416.0,Indonesia,8114887778.0,-0.9780957,131.3535192,https://maps.google.com/?cid=0x0:0x622ceae2f7c756cf
hotel,hotel,RYLICH PANORAMA HOTEL,"Jl. Sam Ratulangi No.55, Klasuur, Distrik Sorong, Kota Sorong, Papua Bar. 98411","Klasuur, Distrik Sorong, Kota Sorong",PAPUA BARAT,98411.0,Indonesia,81240607603.0,-0.8690863,131.2526553,https://maps.google.com/?cid=0x0:0x994aef0f06a4c9a4
hotel,hotel,,,,PAPUA BARAT,,Indonesia,,,,https://maps.google.com/?cid=0x0:0xbf6ecabef3414744%7C/g/12hnlthc5%7Cid-ID
hotel,hotel,Belagri Hotel and Restaurant,"Jl. Raja Ampat No.1, Kp. Baru, Distrik Sorong, Kota Sorong, Papua Bar. 98413","Kp. Baru, Distrik Sorong, Kota Sorong",PAPUA BARAT,98413.0,Indonesia,,-0.8704329,131.2517604,https://maps.google.com/?cid=0x0:0xb0064be8b2a3c2c8
hotel,hotel,City View Hotel,"479J+38V, Jl. Srigunting, Remu Utara, Distrik Sorong, Kota Sorong, Papua Bar. 98412","Jl. Srigunting, Remu Utara, Distrik Sorong, Kota Sorong",PAPUA BARAT,98412.0,Indonesia,951324102.0,-0.8822749,131.2808058,https://maps.google.com/?cid=0x0:0xac64df2bc7cde404
hotel,hotel,Marina Mamberamo,"Jl. Yos. Sudarso No.1, Kp. Baru, Distrik Sorong, Kota Sorong, Papua Bar. 98413","Kp. Baru, Distrik Sorong, Kota Sorong",PAPUA BARAT,98413.0,Indonesia,85244588484.0,-0.8757299,131.2440035,https://maps.google.com/?cid=0x0:0x90a6ebcb4c6ebcbd
hotel,hotel,Royal Mamberamo Hotel,"Jl. Dr. Sam Ratulangi No.35, Kp. Baru, Distrik Sorong, Kota Sorong, Papua Bar. 98413","Kp. Baru, Distrik Sorong, Kota Sorong",PAPUA BARAT,98413.0,Indonesia,951325666.0,-0.871573,131.250864,https://maps.google.com/?cid=0x0:0xb5e32e36111d42eb
hotel,hotel,Hotel Lido 88,"Kompleks Lido, Jl. Yos. Sudarso, Klasuur, Distrik Sorong, Kota Sorong, Papua Bar. 98411","Jl. Yos. Sudarso, Klasuur, Distrik Sorong, Kota Sorong",PAPUA BARAT,98411.0,Indonesia,895417300072.0,-0.8651585,131.2458125,https://maps.google.com/?cid=0x0:0xfa1a9f3ccb086f62
hotel,hotel,InnBox Hostel,"Jl. Sam Ratulangi No.91, Klasuur, Distrik Sorong, Kota Sorong, Papua Bar. 98413","Klasuur, Distrik Sorong, Kota Sorong",PAPUA BARAT,98413.0,Indonesia,81268888355.0,-0.8669219,131.2528048,https://maps.google.com/?cid=0x0:0x3be781e9731e888a
hotel,hotel,Hotel Belagri Sorong,"Jl. Merapi No.8, Klabala, Distrik Sorong Barat, Kota Sorong, Papua Bar. 98411","Klabala, Distrik Sorong Barat, Kota Sorong",PAPUA BARAT,98411.0,Indonesia,951323888.0,-0.8730356,131.2547729,https://maps.google.com/?cid=0x0:0x84dae6f8c4b2e8ad
hotel,hotel,Hotel Paparisa Manise,"Jl. Jend. Sudirman No.10, Klaligi, Kecamatan Sorong Manoi, Kota Sorong, Papua Bar. 98412","Klaligi, Kecamatan Sorong Manoi, Kota Sorong",PAPUA BARAT,98412.0,Indonesia,9513173969.0,-0.8822838,131.2644305,https://maps.google.com/?cid=0x0:0x3a80c35a629494eb
hotel,hotel,Indah Guesthouse,"46PX+CWR, Klasuur, Distrik Sorong, Kota Sorong, Papua Bar.","Kota Sorong, Papua Bar.",PAPUA BARAT,,Indonesia,,-0.8638907,131.2497706,https://maps.google.com/?cid=0x0:0x7886b39783a76069
hotel,hotel,Swiss-Belhotel Sorong,"Hunting, Telepon, Jl. Jend. Sudirman Kecamatan, Malawei, Kecamatan Sorong Manoi, Kota Sorong, Papua Bar. 98412","Telepon, Jl. Jend. Sudirman Kecamatan, Malawei, Kecamatan Sorong Manoi, Kota Sorong",PAPUA BARAT,98412.0,Indonesia,8114853888.0,-0.889363,131.2749649,https://maps.google.com/?cid=0x0:0x4d32c5e468c00628
hotel,hotel,Hotel Raja Ampat City,"Waisai, Distrik Kota Waisai, Kabupaten Raja Ampat, Papua Bar. 98482","Distrik Kota Waisai, Kabupaten Raja Ampat",PAPUA BARAT,98482.0,Indonesia,81344077377.0,-0.4181859,130.8234502,https://maps.google.com/?cid=0x0:0x340788df84d8dcb8
hotel,hotel,Hotel Raja Ampat,"Jl. Fundar Sakela No.1, Waisai, City, Kabupaten Raja Ampat, Papua Bar. 98482","Waisai, City, Kabupaten Raja Ampat",PAPUA BARAT,98482.0,Indonesia,81298260747.0,-0.4224417,130.8199523,https://maps.google.com/?cid=0x0:0x3bda491b055b084
hotel,hotel,Sandy Guesthouse,"HRJC+MWP, Jl. Lukas Dailon, Waisai, Distrik Kota Waisai, Kabupaten Raja Ampat, Papua Bar. 98482","Jl. Lukas Dailon, Waisai, Distrik Kota Waisai, Kabupaten Raja Ampat",PAPUA BARAT,98482.0,Indonesia,85254550411.0,-0.4182911,130.8223244,https://maps.google.com/?cid=0x0:0xcfdf232f9d574804
hotel,hotel,Meridian Adventure Marina Club  Resort Waisai,"Waisai, Distrik Kota Waisai, Kabupaten Raja Ampat, Papua Bar. 98482","Distrik Kota Waisai, Kabupaten Raja Ampat",PAPUA BARAT,98482.0,Indonesia,82248540774.0,-0.4341882,130.8081566,https://maps.google.com/?cid=0x0:0x9355b383d6822caa
hotel,hotel,Hamueco Raja Ampat Dive Resort,"Wirausaha Building Jl HR Rasuna Said Kav C5 Lantai 3, Jakarta Selatan, DKI Jakarta, 12940",Jakarta Selatan,PAPUA BARAT,12940.0,Indonesia,81392500242.0,-0.441485,130.761647,https://maps.google.com/?cid=0x0:0xf060a049fd72614d
hotel,hotel,Waiwo Dive Resort  Dive into Raja Ampat,"Jl. Marinda - Waiwo Raja Ampat Papua, Barat, Papua Bar. 98482",Barat,PAPUA BARAT,98482.0,Indonesia,81247912123.0,-0.4364989,130.7783607,https://maps.google.com/?cid=0x0:0xa23d6965a6d740aa
hotel,hotel,Penginapan Andi Riona,"sebelum jembatan, Jl. Lukas Dailon, Waisai, Distrik Kota Waisai, Kabupaten Raja Ampat, Papua Bar. 98482","Jl. Lukas Dailon, Waisai, Distrik Kota Waisai, Kabupaten Raja Ampat",PAPUA BARAT,98482.0,Indonesia,82343625890.0,-0.4166334,130.8223743,https://maps.google.com/?cid=0x0:0x22162f9d5c4740b1
hotel,hotel,Gurara Dive Resort Raja Ampat,"HQ59+926, Waisai, Kec. Waigeo Sel., Kabupaten Raja Ampat, Papua Bar. 98482","Waisai, Kec. Waigeo Sel., Kabupaten Raja Ampat",PAPUA BARAT,98482.0,Indonesia,8111000737.0,-0.4415814,130.7675268,https://maps.google.com/?cid=0x0:0x5c302ea59959ec26
hotel,hotel,Waigeo Villa,"Waisai, Kec. Waigeo Sel., Kabupaten Raja Ampat, Papua Bar. 98482","Kec. Waigeo Sel., Kabupaten Raja Ampat",PAPUA BARAT,98482.0,Indonesia,81247553799.0,-0.4365115,130.7794821,https://maps.google.com/?cid=0x0:0xd79d1ba9e325d4fc
hotel,hotel,Pantai Saleo,"Waisai, Distrik Kota Waisai, Kabupaten Raja Ampat, Papua Bar. 98482","Distrik Kota Waisai, Kabupaten Raja Ampat",PAPUA BARAT,98482.0,Indonesia,,-0.4411768,130.7875287,https://maps.google.com/?cid=0x0:0x848c26d0dfb12814
hotel,Dapur Umum,Yoris,"HRGC+394, Waisai, Distrik Kota Waisai, Kabupaten Raja Ampat, Papua Bar.","Kabupaten Raja Ampat, Papua Bar.",PAPUA BARAT,,Indonesia,,-0.4248728,130.8209443,https://maps.google.com/?cid=0x0:0xf599dd65dd7330fc
hotel,hotel,Rara guest house,"Jalan Yosudarso, Waisai, Distrik Kota Waisai, Kabupaten Raja Ampat, Papua Bar. 98483","Waisai, Distrik Kota Waisai, Kabupaten Raja Ampat",PAPUA BARAT,98483.0,Indonesia,85251403900.0,-0.4337012,130.8088814,https://maps.google.com/?cid=0x0:0xb58659c95a6686df
hotel,hotel,Terimakasih Homestay,"CJC3+89, Kurkapa, Kabupaten Raja Ampat, Papua Bar.","Kabupaten Raja Ampat, Papua Bar.",PAPUA BARAT,,Indonesia,8114847333.0,-0.5791322,130.6034582,https://maps.google.com/?cid=0x0:0x6ff879fae7255c73
hotel,hotel,Selat Dampier,,,PAPUA BARAT,,Indonesia,,-0.6,130.6,https://maps.google.com/?cid=0x0:0xde264c036b41028c
hotel,hotel,Supnin,"Kabupaten Raja Ampat, Papua Bar.","Kabupaten Raja Ampat, Papua Bar.",PAPUA BARAT,,Indonesia,,-0.0707044,130.7766611,https://maps.google.com/?cid=0x0:0x460c1dbebeaa6e11
hotel,hotel,Puyau Homestay,"WXH8+2G6, Bonsayor, Distrik Waigeo Utara, Kabupaten Raja Ampat, Papua Bar. 98481","Bonsayor, Distrik Waigeo Utara, Kabupaten Raja Ampat",PAPUA BARAT,98481.0,Indonesia,,-0.0724575,130.9662651,https://maps.google.com/?cid=0x0:0x2d232270f35f1be8
hotel,hotel,Kamtabai Forest Hut,"VPXC+V2P, Waifoi, Distrik Tiplol Mayalibit, Kabupaten Raja Ampat, Papua Bar. 98482","Waifoi, Distrik Tiplol Mayalibit, Kabupaten Raja Ampat",PAPUA BARAT,98482.0,Indonesia,81288863768.0,-0.100293,130.720072,https://maps.google.com/?cid=0x0:0xc5e84030fb528efb
hotel,hotel,Penginapan Kofiyau,"46MX+QV7, Unnamed Road, Klasuur, Distrik Sorong, Kota Sorong, Papua Bar. 98411","Unnamed Road, Klasuur, Distrik Sorong, Kota Sorong",PAPUA BARAT,98411.0,Indonesia,82398017326.0,-0.86559,131.2496721,https://maps.google.com/?cid=0x0:0xfc32a1234a9c5c47
hotel,hotel,Snonbepur homestay,"Yensawai, Selat Sagawin, Kabupaten Raja Ampat, Papua Bar.","Kabupaten Raja Ampat, Papua Bar.",PAPUA BARAT,,Indonesia,81354108052.0,-0.7917941,130.5017129,https://maps.google.com/?cid=0x0:0x931bf3bedf17d
hotel,hotel,Laensorongga Homestay,"VPGV+228, Warimak, Distrik Tiplol Mayalibit, Kabupaten Raja Ampat, Papua Bar. 98482","Warimak, Distrik Tiplol Mayalibit, Kabupaten Raja Ampat",PAPUA BARAT,98482.0,Indonesia,81240125590.0,-0.124957,130.742591,https://maps.google.com/?cid=0x0:0xc4acdc87a91a6271
hotel,hotel,Penginapan Andi Riona,"sebelum jembatan, Jl. Lukas Dailon, Waisai, Distrik Kota Waisai, Kabupaten Raja Ampat, Papua Bar. 98482","Jl. Lukas Dailon, Waisai, Distrik Kota Waisai, Kabupaten Raja Ampat",PAPUA BARAT,98482.0,Indonesia,82343625890.0,-0.4166334,130.8223743,https://maps.google.com/?cid=0x0:0x22162f9d5c4740b1
hotel,hotel,Hotel Batanta,"46GW+RMC, Kp. Baru, Distrik Sorong, Kota Sorong, Papua Bar. 98411","Kp. Baru, Distrik Sorong, Kota Sorong",PAPUA BARAT,98411.0,Indonesia,,-0.8729338,131.246629,https://maps.google.com/?cid=0x0:0xd18e7775760a134a
hotel,hotel,O,"Jl. Jend. A. Yani No.27, Malabutor, Kecamatan Sorong Manoi, Kota Sorong, Papua Bar. 98412","Malabutor, Kecamatan Sorong Manoi, Kota Sorong",PAPUA BARAT,98412.0,Indonesia,,-0.8827427,131.2828186,https://maps.google.com/?cid=0x0:0x9aebba5ddda67893
hotel,hotel,Subdikar Guest House,"Waisai, Distrik Kota Waisai, Kabupaten Raja Ampat, Papua Bar. 98482","Distrik Kota Waisai, Kabupaten Raja Ampat",PAPUA BARAT,98482.0,Indonesia,82114036252.0,-0.3713334,130.8599301,https://maps.google.com/?cid=0x0:0x1006f1ce3ace43
hotel,hotel,Waigo Splash Hotel,"Jl. Yos. Sudarso, Kp. Baru, Distrik Sorong, Kota Sorong, Papua Bar. 98411","Kp. Baru, Distrik Sorong, Kota Sorong",PAPUA BARAT,98411.0,Indonesia,951333500.0,-0.8687594,131.2467849,https://maps.google.com/?cid=0x0:0x73c16b8e6e9a0c21
hotel,hotel,Hotel SICO (SC),"Jl. Kebon Kacang Raya No. 12 A. Kec. Tanah Abang, Jakarta Pusat. Kode Pos, jakarta, Daerah Khusus Ibukota Jakarta 10240","Jakarta Pusat. Kode Pos, jakarta",PAPUA BARAT,10240.0,Indonesia,213100271.0,-6.1939563,106.8188866,https://maps.google.com/?cid=0x0:0x27f11b5990bc89e7
hotel,hotel,Sans Hotel Fiducia Pondok Gede,"6, Jl. Raya Pd. Gede Jl. Pinang Ranti II No.6, RT.6/RW.2, Pinang Ranti, Kec. Makasar, Kota Jakarta Timur, Daerah Khusus Ibukota Jakarta 13560","Jl. Raya Pd. Gede Jl. Pinang Ranti II No.6, RT.6/RW.2, Pinang Ranti, Kec. Makasar, Kota Jakarta Timur",PAPUA BARAT,13560.0,Indonesia,2129843070.0,-6.2912786,106.8849725,https://maps.google.com/?cid=0x0:0x4511cea58ba67e48
hotel,hotel,,,,PAPUA BARAT,,Indonesia,,,,https://maps.google.com/?cid=0x0:0x4511cea58ba67e48%7C/g/11cjhzchwq%7Cid-ID
hotel,hotel,Kec. Tlk. Mayalibit,"Kabupaten Raja Ampat, Papua Bar.","Kabupaten Raja Ampat, Papua Bar.",PAPUA BARAT,,Indonesia,,-0.2689344,130.9384914,https://maps.google.com/?cid=0x0:0xae388a762cdfd0ec
hotel,hotel,Waisai Beach Hotel (WBH),"Waisai, Kec. Waigeo Sel., Kabupaten Raja Ampat, Papua Bar. 98482","Kec. Waigeo Sel., Kabupaten Raja Ampat",PAPUA BARAT,98482.0,Indonesia,81247553799.0,-0.4281731,130.8199415,https://maps.google.com/?cid=0x0:0x87348b8c39be5af1
hotel,hotel,Lainkalogos Glamping Camp,"JXX5+PR5, Mumes, Kec. Tlk. Mayalibit, Kabupaten Raja Ampat, Papua Bar. 98482","Mumes, Kec. Tlk. Mayalibit, Kabupaten Raja Ampat",PAPUA BARAT,98482.0,Indonesia,85173445445.0,-0.3500848,130.9584713,https://maps.google.com/?cid=0x0:0x5e7f6fe3757a5509
hotel,hotel,Penginapan Najwa Indah,"HRHF+298, Waisai, Kec. Waigeo Sel., Kabupaten Raja Ampat, Papua Bar. 98482","Waisai, Kec. Waigeo Sel., Kabupaten Raja Ampat",PAPUA BARAT,98482.0,Indonesia,,-0.4224746,130.8234508,https://maps.google.com/?cid=0x0:0x34aabd52344d0c97
hotel,hotel,Raja Ampat Biodiversity Nature Resort,"Pantai Yenanas, Yenbeser, Kec. Waigeo Sel., Kabupaten Raja Ampat, Papua Bar. 98482","Yenbeser, Kec. Waigeo Sel., Kabupaten Raja Ampat",PAPUA BARAT,98482.0,Indonesia,81248813677.0,-0.4504898,130.6921427,https://maps.google.com/?cid=0x0:0xcbf275f407edce9c
hotel,hotel,Hotel Raja Ampat,"Jl. Fundar Sakela No.1, Waisai, City, Kabupaten Raja Ampat, Papua Bar. 98482","Waisai, City, Kabupaten Raja Ampat",PAPUA BARAT,98482.0,Indonesia,81298260747.0,-0.4224417,130.8199523,https://maps.google.com/?cid=0x0:0x3bda491b055b084
hotel,hotel,Meridian Adventure Marina Club  Resort Waisai,"Waisai, Distrik Kota Waisai, Kabupaten Raja Ampat, Papua Bar. 98482","Distrik Kota Waisai, Kabupaten Raja Ampat",PAPUA BARAT,98482.0,Indonesia,82248540774.0,-0.4341882,130.8081566,https://maps.google.com/?cid=0x0:0x9355b383d6822caa
hotel,hotel,Coriana Dive Resort,"Distrik Kota Waisai, Kabupaten Raja Ampat, Papua Bar. 98482",Kabupaten Raja Ampat,PAPUA BARAT,98482.0,Indonesia,82136412108.0,-0.4382191,130.7830897,https://maps.google.com/?cid=0x0:0x6cdb2ad85060dc40
hotel,hotel,"The Jeti Mangrove - Kalibiru/Blue River, Ecolodge, Restaurant  Cottage","MWHC+4GF, Warsamdim, Distrik Kota Waisai, Kabupaten Raja Ampat, Papua Bar. 98482","Warsamdim, Distrik Kota Waisai, Kabupaten Raja Ampat",PAPUA BARAT,98482.0,Indonesia,,-0.3221776,130.9212987,https://maps.google.com/?cid=0x0:0x1fcf34299d7a509d
hotel,hotel,Rifalda Cottage (Raja Ampat),"Waisai, Kec. Waigeo Sel., Kabupaten Raja Ampat, Papua Bar. 98482","Kec. Waigeo Sel., Kabupaten Raja Ampat",PAPUA BARAT,98482.0,Indonesia,,-0.4358519,130.8124731,https://maps.google.com/?cid=0x0:0x8ffeedbd34be837e
hotel,hotel,Rara guest house,"Jalan Yosudarso, Waisai, Distrik Kota Waisai, Kabupaten Raja Ampat, Papua Bar. 98483","Waisai, Distrik Kota Waisai, Kabupaten Raja Ampat",PAPUA BARAT,98483.0,Indonesia,85251403900.0,-0.4337012,130.8088814,https://maps.google.com/?cid=0x0:0xb58659c95a6686df
hotel,hotel,Penginapan Novalin Raja Ampat,"Waisai, Distrik Kota Waisai, Kabupaten Raja Ampat, Papua Bar. 98482","Distrik Kota Waisai, Kabupaten Raja Ampat",PAPUA BARAT,98482.0,Indonesia,81354153203.0,-0.4358638,130.8103146,https://maps.google.com/?cid=0x0:0x1d454349c1bdcfa6
hotel,hotel,Mamatua N. Saleo Villa,"HQ55+7HG, Waisai, Distrik Kota Waisai, Kabupaten Raja Ampat, Papua Bar. 98482","Waisai, Distrik Kota Waisai, Kabupaten Raja Ampat",PAPUA BARAT,98482.0,Indonesia,852446534444.0,-0.4418225,130.7589419,https://maps.google.com/?cid=0x0:0x1e1a84f97a5042aa
hotel,hotel,Sandy Guesthouse,"HRJC+MWP, Jl. Lukas Dailon, Waisai, Distrik Kota Waisai, Kabupaten Raja Ampat, Papua Bar. 98482","Jl. Lukas Dailon, Waisai, Distrik Kota Waisai, Kabupaten Raja Ampat",PAPUA BARAT,98482.0,Indonesia,85254550411.0,-0.4182911,130.8223244,https://maps.google.com/?cid=0x0:0xcfdf232f9d574804
hotel,hotel,Distrik Tiplol Mayalibit,"Kabupaten Raja Ampat, Papua Bar.","Kabupaten Raja Ampat, Papua Bar.",PAPUA BARAT,,Indonesia,,-0.078691,130.6642772,https://maps.google.com/?cid=0x0:0xd2fca4629b110358
hotel,hotel,Kamtabai Forest Hut,"VPXC+V2P, Waifoi, Distrik Tiplol Mayalibit, Kabupaten Raja Ampat, Papua Bar. 98482","Waifoi, Distrik Tiplol Mayalibit, Kabupaten Raja Ampat",PAPUA BARAT,98482.0,Indonesia,81288863768.0,-0.100293,130.720072,https://maps.google.com/?cid=0x0:0xc5e84030fb528efb
hotel,hotel,Waisai Beach Hotel (WBH),"Waisai, Kec. Waigeo Sel., Kabupaten Raja Ampat, Papua Bar. 98482","Kec. Waigeo Sel., Kabupaten Raja Ampat",PAPUA BARAT,98482.0,Indonesia,81247553799.0,-0.4281731,130.8199415,https://maps.google.com/?cid=0x0:0x87348b8c39be5af1
hotel,hotel,Penginapan Imelda,"Waisai, Kec. Waigeo Sel., Kabupaten Raja Ampat, Papua Bar. 98482","Kec. Waigeo Sel., Kabupaten Raja Ampat",PAPUA BARAT,98482.0,Indonesia,81354153203.0,-0.4235366,130.821598,https://maps.google.com/?cid=0x0:0xcd5e9d8266213d9b
hotel,hotel,Coriana Dive Resort,"Distrik Kota Waisai, Kabupaten Raja Ampat, Papua Bar. 98482",Kabupaten Raja Ampat,PAPUA BARAT,98482.0,Indonesia,82136412108.0,-0.4382191,130.7830897,https://maps.google.com/?cid=0x0:0x6cdb2ad85060dc40
hotel,hotel,Rara guest house,"Jalan Yosudarso, Waisai, Distrik Kota Waisai, Kabupaten Raja Ampat, Papua Bar. 98483","Waisai, Distrik Kota Waisai, Kabupaten Raja Ampat",PAPUA BARAT,98483.0,Indonesia,85251403900.0,-0.4337012,130.8088814,https://maps.google.com/?cid=0x0:0xb58659c95a6686df
hotel,hotel,Meridian Adventure Marina Club  Resort Waisai,"Waisai, Distrik Kota Waisai, Kabupaten Raja Ampat, Papua Bar. 98482","Distrik Kota Waisai, Kabupaten Raja Ampat",PAPUA BARAT,98482.0,Indonesia,82248540774.0,-0.4341882,130.8081566,https://maps.google.com/?cid=0x0:0x9355b383d6822caa
hotel,hotel,Febrianto Homestay,"WP2C+H5, Waifoi, Distrik Tiplol Mayalibit, Kabupaten Raja Ampat, Papua Bar.","Kabupaten Raja Ampat, Papua Bar.",PAPUA BARAT,,Indonesia,81359810139.0,-0.0982955,130.7202428,https://maps.google.com/?cid=0x0:0xd432556b0d847b88
hotel,hotel,Penginapan Najwa Indah,"HRHF+298, Waisai, Kec. Waigeo Sel., Kabupaten Raja Ampat, Papua Bar. 98482","Waisai, Kec. Waigeo Sel., Kabupaten Raja Ampat",PAPUA BARAT,98482.0,Indonesia,,-0.4224746,130.8234508,https://maps.google.com/?cid=0x0:0x34aabd52344d0c97
hotel,hotel,Mamatua N. Saleo Villa,"HQ55+7HG, Waisai, Distrik Kota Waisai, Kabupaten Raja Ampat, Papua Bar. 98482","Waisai, Distrik Kota Waisai, Kabupaten Raja Ampat",PAPUA BARAT,98482.0,Indonesia,852446534444.0,-0.4418225,130.7589419,https://maps.google.com/?cid=0x0:0x1e1a84f97a5042aa
hotel,hotel,Hotel Raja Ampat,"Jl. Fundar Sakela No.1, Waisai, City, Kabupaten Raja Ampat, Papua Bar. 98482","Waisai, City, Kabupaten Raja Ampat",PAPUA BARAT,98482.0,Indonesia,81298260747.0,-0.4224417,130.8199523,https://maps.google.com/?cid=0x0:0x3bda491b055b084
hotel,hotel,Vogelkopf Resort,"Waisai, Distrik Kota Waisai, Kabupaten Raja Ampat, Papua Bar. 98482","Distrik Kota Waisai, Kabupaten Raja Ampat",PAPUA BARAT,98482.0,Indonesia,81360001088.0,-0.4385338,130.785262,https://maps.google.com/?cid=0x0:0x132e94aff8281150
hotel,hotel,Korpak Villa and Resort,"HQ6M+RGH, Unnamed Road, Waisai, Distrik Kota Waisai, Kabupaten Raja Ampat, Papua Bar. 98482","Unnamed Road, Waisai, Distrik Kota Waisai, Kabupaten Raja Ampat",PAPUA BARAT,98482.0,Indonesia,,-0.4379467,130.7838521,https://maps.google.com/?cid=0x0:0x7d6048504236c32d
hotel,hotel,Rifalda Cottage (Raja Ampat),"Waisai, Kec. Waigeo Sel., Kabupaten Raja Ampat, Papua Bar. 98482","Kec. Waigeo Sel., Kabupaten Raja Ampat",PAPUA BARAT,98482.0,Indonesia,,-0.4358519,130.8124731,https://maps.google.com/?cid=0x0:0x8ffeedbd34be837e
hotel,hotel,Jou Suba Homestay,"J8PF+XMG, Meosmanggara, Kec. Waigeo Bar., Kabupaten Raja Ampat, Papua Bar.","Kabupaten Raja Ampat, Papua Bar.",PAPUA BARAT,,Indonesia,,-0.3625659,130.3242036,https://maps.google.com/?cid=0x0:0x488742824a7c498c
hotel,hotel,Kec. Waigeo Bar.,"Kabupaten Raja Ampat, Papua Bar.","Kabupaten Raja Ampat, Papua Bar.",PAPUA BARAT,,Indonesia,,-0.1565367,130.4516329,https://maps.google.com/?cid=0x0:0xa968725bc286475b
hotel,hotel,Waisai Beach Hotel (WBH),"Waisai, Kec. Waigeo Sel., Kabupaten Raja Ampat, Papua Bar. 98482","Kec. Waigeo Sel., Kabupaten Raja Ampat",PAPUA BARAT,98482.0,Indonesia,81247553799.0,-0.4281731,130.8199415,https://maps.google.com/?cid=0x0:0x87348b8c39be5af1
hotel,hotel,Tamaku homestay,"Waisai, Tamagu, Kabupaten Raja Ampat, Papua Bar. 98481","Tamagu, Kabupaten Raja Ampat",PAPUA BARAT,98481.0,Indonesia,81376450429.0,-0.3197319,130.2527397,https://maps.google.com/?cid=0x0:0x898a3402aca1e38e
hotel,hotel,Penginapan Imelda,"Waisai, Kec. Waigeo Sel., Kabupaten Raja Ampat, Papua Bar. 98482","Kec. Waigeo Sel., Kabupaten Raja Ampat",PAPUA BARAT,98482.0,Indonesia,81354153203.0,-0.4235366,130.821598,https://maps.google.com/?cid=0x0:0xcd5e9d8266213d9b
hotel,hotel,Prajas Homestay,"Salio, Pulau Waigeo, Raja Ampat, Waigeo Barat, West Waigeo, West Papua 98481","Pulau Waigeo, Raja Ampat, Waigeo Barat, West Waigeo",PAPUA BARAT,98481.0,Indonesia,,-0.128273,130.288395,https://maps.google.com/?cid=0x0:0x239f7548b5a91f86
hotel,hotel,Kamar Raja Bungalow,"Selpele, Pulau Waigeo, Raja Ampat, Selpele, Waigeo Barat, West Waigeo, West Papua 98481","Pulau Waigeo, Raja Ampat, Selpele, Waigeo Barat, West Waigeo",PAPUA BARAT,98481.0,Indonesia,82198841111.0,-0.2231107,130.2435609,https://maps.google.com/?cid=0x0:0x6538ffc64457ee0d
hotel,hotel,Bon Wauw Homestay,"Pulau Manyaifun, West Waigeo, Manyaifun, Waigeo Barat Kepulauan, Raja Ampat Regency, West Papua 98481","West Waigeo, Manyaifun, Waigeo Barat Kepulauan, Raja Ampat Regency",PAPUA BARAT,98481.0,Indonesia,,-0.3284972,130.205094,https://maps.google.com/?cid=0x0:0x6216526cf6f0a9b0
hotel,hotel,Gam Bay Bungalow's,"Kapisawar, Meos Mansar, Kabupaten Raja Ampat, Papua Bar. 98482","Meos Mansar, Kabupaten Raja Ampat",PAPUA BARAT,98482.0,Indonesia,81297976658.0,-0.5188904,130.5690527,https://maps.google.com/?cid=0x0:0x5fdcdb155bcf30ff
hotel,hotel,Coriana Dive Resort,"Distrik Kota Waisai, Kabupaten Raja Ampat, Papua Bar. 98482",Kabupaten Raja Ampat,PAPUA BARAT,98482.0,Indonesia,82136412108.0,-0.4382191,130.7830897,https://maps.google.com/?cid=0x0:0x6cdb2ad85060dc40
hotel,hotel,Talaip Homestay,"Selpele, West Waigeo, Raja Ampat, Waigeo Barat, West Waigeo, West Papua 98481","West Waigeo, Raja Ampat, Waigeo Barat, West Waigeo",PAPUA BARAT,98481.0,Indonesia,,-0.158326,130.272305,https://maps.google.com/?cid=0x0:0xfeef8a5995ff0244
hotel,hotel,Rifalda Cottage (Raja Ampat),"Waisai, Kec. Waigeo Sel., Kabupaten Raja Ampat, Papua Bar. 98482","Kec. Waigeo Sel., Kabupaten Raja Ampat",PAPUA BARAT,98482.0,Indonesia,,-0.4358519,130.8124731,https://maps.google.com/?cid=0x0:0x8ffeedbd34be837e
hotel,hotel,YENATAR,"Yenwaoupnor, Meos Mansar, Kabupaten Raja Ampat, Papua Bar. 98482","Meos Mansar, Kabupaten Raja Ampat",PAPUA BARAT,98482.0,Indonesia,82112518411.0,-0.5198125,130.6389375,https://maps.google.com/?cid=0x0:0xbf09ec60be54efe0
hotel,hotel,Sea Whip Homestay,"Pulau Manyaifun, West Waigeo, Manyaifun, Waigeo Barat Kepulauan, Raja Ampat Regency, West Papua 98481","West Waigeo, Manyaifun, Waigeo Barat Kepulauan, Raja Ampat Regency",PAPUA BARAT,98481.0,Indonesia,,-0.3289237,130.2198562,https://maps.google.com/?cid=0x0:0x83ac7209c2f17e9c
hotel,hotel,Distrik Waigeo Barat Kepulauan,"Kabupaten Raja Ampat, Papua Bar.","Kabupaten Raja Ampat, Papua Bar.",PAPUA BARAT,,Indonesia,,-0.3990489,129.8878154,https://maps.google.com/?cid=0x0:0x2f9f2f03d60aa281
hotel,hotel,Mamere Homestay Raja Ampat,"Fam, Papua Bar. 98481","Fam, Papua Bar.",PAPUA BARAT,,Indonesia,82199025688.0,-0.6477637,130.3137578,https://maps.google.com/?cid=0x0:0x991f62887df0dafe
hotel,hotel,Andau Dive Resort Raja Ampat,"Andau Mkun, Pam Islands, Pam, Waigeo Barat, Raja Ampat Regency, West Papua 98481","Pam Islands, Pam, Waigeo Barat, Raja Ampat Regency",PAPUA BARAT,98481.0,Indonesia,81316776671.0,-0.6727684,130.2569425,https://maps.google.com/?cid=0x0:0xafa9f72bb4ba8b84
hotel,hotel,Tamaku homestay,"Waisai, Tamagu, Kabupaten Raja Ampat, Papua Bar. 98481","Tamagu, Kabupaten Raja Ampat",PAPUA BARAT,98481.0,Indonesia,81376450429.0,-0.3197319,130.2527397,https://maps.google.com/?cid=0x0:0x898a3402aca1e38e
hotel,hotel,OR MANDIRA HOME STAY,"Saukabu, piaynemo WAIGEO kepulauan Raja Ampat Papua Barat daya 98481, Kabupaten, WAISAI, Kabupaten Raja Ampat, Papua Bar. 98471",piaynemo WAIGEO kepulauan Raja Ampat Papua Barat daya,PAPUA BARAT,98481.0,Indonesia,85362582497.0,-0.5869224,130.279159,https://maps.google.com/?cid=0x0:0xa89be781729d1848
hotel,hotel,Senja homestay,"87PP+2Q, Saukabu, Distrik Waigeo Barat Kepulauan, Kabupaten Raja Ampat, Papua Bar.","Kabupaten Raja Ampat, Papua Bar.",PAPUA BARAT,,Indonesia,82398284694.0,-0.6649516,130.2869896,https://maps.google.com/?cid=0x0:0x3e2e22b497422446
hotel,hotel,Sea Whip Homestay,"Pulau Manyaifun, West Waigeo, Manyaifun, Waigeo Barat Kepulauan, Raja Ampat Regency, West Papua 98481","West Waigeo, Manyaifun, Waigeo Barat Kepulauan, Raja Ampat Regency",PAPUA BARAT,98481.0,Indonesia,,-0.3289237,130.2198562,https://maps.google.com/?cid=0x0:0x83ac7209c2f17e9c
hotel,hotel,Keruwo homestay,"C872+9Q, Saukabu, Kabupaten Raja Ampat, Papua Bar.","Kabupaten Raja Ampat, Papua Bar.",PAPUA BARAT,,Indonesia,81243161465.0,-0.586616,130.301935,https://maps.google.com/?cid=0x0:0x5d7725a12456ca00
hotel,hotel,Sea Fans Homestay,"M6C5+4GH, Pulau Manyaifun, West Waigeo, Manyaifun, Waigeo Barat Kepulauan, Raja Ampat Regency, West Papua 98481","Pulau Manyaifun, West Waigeo, Manyaifun, Waigeo Barat Kepulauan, Raja Ampat Regency",PAPUA BARAT,98481.0,Indonesia,,-0.329699,130.208872,https://maps.google.com/?cid=0x0:0x90f9dda3825929c0
hotel,hotel,Tara Fudin Homestay,"Saukabu, Island, Kabupaten Raja Ampat, Papua Bar. 98412","Island, Kabupaten Raja Ampat",PAPUA BARAT,98412.0,Indonesia,,-0.6439866,130.3078397,https://maps.google.com/?cid=0x0:0x8233b8310aa145e3
hotel,hotel,Jou Suba Homestay,"J8PF+XMG, Meosmanggara, Kec. Waigeo Bar., Kabupaten Raja Ampat, Papua Bar.","Kabupaten Raja Ampat, Papua Bar.",PAPUA BARAT,,Indonesia,,-0.3625659,130.3242036,https://maps.google.com/?cid=0x0:0x488742824a7c498c
hotel,hotel,YENMANKANKAN HOME STAY,"Saukabu, Distrik Waigeo Barat Kepulauan, Kabupaten Raja Ampat, Papua Bar.","Kabupaten Raja Ampat, Papua Bar.",PAPUA BARAT,,Indonesia,82325155867.0,-0.6031462,130.2852936,https://maps.google.com/?cid=0x0:0x560d756ab51e9847
hotel,hotel,Manyaifun homestay,"Pulau Manyaifun, Raja Ampat, West Papua",Papua Bar.,PAPUA BARAT,,Indonesia,82397254214.0,-0.328889,130.22,https://maps.google.com/?cid=0x0:0xd0f15c82c70f62d5
hotel,hotel,Penginapan Imelda,"Waisai, Kec. Waigeo Sel., Kabupaten Raja Ampat, Papua Bar. 98482","Kec. Waigeo Sel., Kabupaten Raja Ampat",PAPUA BARAT,98482.0,Indonesia,81354153203.0,-0.4235366,130.821598,https://maps.google.com/?cid=0x0:0xcd5e9d8266213d9b
hotel,hotel,Kec. Waigeo Sel.,"Kabupaten Raja Ampat, Papua Bar.","Kabupaten Raja Ampat, Papua Bar.",PAPUA BARAT,,Indonesia,,-0.3840807,130.7361322,https://maps.google.com/?cid=0x0:0x2c9db46da776b4
hotel,hotel,Waisai Beach Hotel (WBH),"Waisai, Kec. Waigeo Sel., Kabupaten Raja Ampat, Papua Bar. 98482","Kec. Waigeo Sel., Kabupaten Raja Ampat",PAPUA BARAT,98482.0,Indonesia,81247553799.0,-0.4281731,130.8199415,https://maps.google.com/?cid=0x0:0x87348b8c39be5af1
hotel,hotel,Raja Ampat Biodiversity Nature Resort,"Pantai Yenanas, Yenbeser, Kec. Waigeo Sel., Kabupaten Raja Ampat, Papua Bar. 98482","Yenbeser, Kec. Waigeo Sel., Kabupaten Raja Ampat",PAPUA BARAT,98482.0,Indonesia,81248813677.0,-0.4504898,130.6921427,https://maps.google.com/?cid=0x0:0xcbf275f407edce9c
hotel,hotel,Penginapan Imelda,"Waisai, Kec. Waigeo Sel., Kabupaten Raja Ampat, Papua Bar. 98482","Kec. Waigeo Sel., Kabupaten Raja Ampat",PAPUA BARAT,98482.0,Indonesia,81354153203.0,-0.4235366,130.821598,https://maps.google.com/?cid=0x0:0xcd5e9d8266213d9b
hotel,hotel,Meridian Adventure Marina Club  Resort Waisai,"Waisai, Distrik Kota Waisai, Kabupaten Raja Ampat, Papua Bar. 98482","Distrik Kota Waisai, Kabupaten Raja Ampat",PAPUA BARAT,98482.0,Indonesia,82248540774.0,-0.4341882,130.8081566,https://maps.google.com/?cid=0x0:0x9355b383d6822caa
hotel,hotel,Rifalda Cottage (Raja Ampat),"Waisai, Kec. Waigeo Sel., Kabupaten Raja Ampat, Papua Bar. 98482","Kec. Waigeo Sel., Kabupaten Raja Ampat",PAPUA BARAT,98482.0,Indonesia,,-0.4358519,130.8124731,https://maps.google.com/?cid=0x0:0x8ffeedbd34be837e
hotel,hotel,Coriana Dive Resort,"Distrik Kota Waisai, Kabupaten Raja Ampat, Papua Bar. 98482",Kabupaten Raja Ampat,PAPUA BARAT,98482.0,Indonesia,82136412108.0,-0.4382191,130.7830897,https://maps.google.com/?cid=0x0:0x6cdb2ad85060dc40
hotel,hotel,Penginapan Novalin Raja Ampat,"Waisai, Distrik Kota Waisai, Kabupaten Raja Ampat, Papua Bar. 98482","Distrik Kota Waisai, Kabupaten Raja Ampat",PAPUA BARAT,98482.0,Indonesia,81354153203.0,-0.4358638,130.8103146,https://maps.google.com/?cid=0x0:0x1d454349c1bdcfa6
hotel,hotel,Vogelkopf Resort,"Waisai, Distrik Kota Waisai, Kabupaten Raja Ampat, Papua Bar. 98482","Distrik Kota Waisai, Kabupaten Raja Ampat",PAPUA BARAT,98482.0,Indonesia,81360001088.0,-0.4385338,130.785262,https://maps.google.com/?cid=0x0:0x132e94aff8281150
hotel,hotel,PapuArts Alter Native Stay,"Desa Saporkren, Kec. Waigeo Sel., Kabupaten Raja Ampat, Papua Bar. 98482","Kec. Waigeo Sel., Kabupaten Raja Ampat",PAPUA BARAT,98482.0,Indonesia,81248455887.0,-0.438169,130.7367168,https://maps.google.com/?cid=0x0:0x39f6073cbd5c64d4
hotel,hotel,Penginapan Najwa Indah,"HRHF+298, Waisai, Kec. Waigeo Sel., Kabupaten Raja Ampat, Papua Bar. 98482","Waisai, Kec. Waigeo Sel., Kabupaten Raja Ampat",PAPUA BARAT,98482.0,Indonesia,,-0.4224746,130.8234508,https://maps.google.com/?cid=0x0:0x34aabd52344d0c97
hotel,hotel,ID Homestay,"HM5V+97, Yenbeser, Kec. Waigeo Sel., Kabupaten Raja Ampat, Papua Bar.","Kabupaten Raja Ampat, Papua Bar.",PAPUA BARAT,,Indonesia,,-0.4415784,130.6932286,https://maps.google.com/?cid=0x0:0xdc29e1d1b5f949c5
hotel,hotel,Scuba Republic - Raja Ampat,"Waisai, Kec. Waigeo Sel., Kabupaten Raja Ampat, Papua Bar. 98482","Kec. Waigeo Sel., Kabupaten Raja Ampat",PAPUA BARAT,98482.0,Indonesia,,-0.4418794,130.7532977,https://maps.google.com/?cid=0x0:0xdbbc913713b959f9
hotel,hotel,Friwen Mangrove Eco Lodge,"Friwen, Kabupaten Raja Ampat, Papua Bar. 98475",Kabupaten Raja Ampat,PAPUA BARAT,98475.0,Indonesia,81286631515.0,-0.4732238,130.693704,https://maps.google.com/?cid=0x0:0x210a102aa8ec49e3
hotel,hotel,Distrik Waigeo Timur,"Kabupaten Raja Ampat, Papua Bar.","Kabupaten Raja Ampat, Papua Bar.",PAPUA BARAT,,Indonesia,,-0.3761806,131.2503597,https://maps.google.com/?cid=0x0:0x9ea83c531b1daa8e
hotel,hotel,Waisai Beach Hotel (WBH),"Waisai, Kec. Waigeo Sel., Kabupaten Raja Ampat, Papua Bar. 98482","Kec. Waigeo Sel., Kabupaten Raja Ampat",PAPUA BARAT,98482.0,Indonesia,81247553799.0,-0.4281731,130.8199415,https://maps.google.com/?cid=0x0:0x87348b8c39be5af1
hotel,hotel,Penginapan Imelda,"Waisai, Kec. Waigeo Sel., Kabupaten Raja Ampat, Papua Bar. 98482","Kec. Waigeo Sel., Kabupaten Raja Ampat",PAPUA BARAT,98482.0,Indonesia,81354153203.0,-0.4235366,130.821598,https://maps.google.com/?cid=0x0:0xcd5e9d8266213d9b
hotel,hotel,Rifalda Cottage (Raja Ampat),"Waisai, Kec. Waigeo Sel., Kabupaten Raja Ampat, Papua Bar. 98482","Kec. Waigeo Sel., Kabupaten Raja Ampat",PAPUA BARAT,98482.0,Indonesia,,-0.4358519,130.8124731,https://maps.google.com/?cid=0x0:0x8ffeedbd34be837e
hotel,hotel,Hotel Raja Ampat,"Jl. Fundar Sakela No.1, Waisai, City, Kabupaten Raja Ampat, Papua Bar. 98482","Waisai, City, Kabupaten Raja Ampat",PAPUA BARAT,98482.0,Indonesia,81298260747.0,-0.4224417,130.8199523,https://maps.google.com/?cid=0x0:0x3bda491b055b084
hotel,hotel,Mamatua N. Saleo Villa,"HQ55+7HG, Waisai, Distrik Kota Waisai, Kabupaten Raja Ampat, Papua Bar. 98482","Waisai, Distrik Kota Waisai, Kabupaten Raja Ampat",PAPUA BARAT,98482.0,Indonesia,852446534444.0,-0.4418225,130.7589419,https://maps.google.com/?cid=0x0:0x1e1a84f97a5042aa
hotel,hotel,Puyau Homestay,"WXH8+2G6, Bonsayor, Distrik Waigeo Utara, Kabupaten Raja Ampat, Papua Bar. 98481","Bonsayor, Distrik Waigeo Utara, Kabupaten Raja Ampat",PAPUA BARAT,98481.0,Indonesia,,-0.0724575,130.9662651,https://maps.google.com/?cid=0x0:0x2d232270f35f1be8
hotel,hotel,Raja Ampat Family Guest House,"HRFJ+567, Jalan Mambrasar Swaimbon, Pantai, Waisai, Distrik Kota Waisai, Kabupaten Raja Ampat, Papua Bar. 98482","Jalan Mambrasar Swaimbon, Pantai, Waisai, Distrik Kota Waisai, Kabupaten Raja Ampat",PAPUA BARAT,98482.0,Indonesia,82393112027.0,-0.4270989,130.8305315,https://maps.google.com/?cid=0x0:0x1ff71509f66af495
hotel,hotel,Waigeo Villa,"Waisai, Kec. Waigeo Sel., Kabupaten Raja Ampat, Papua Bar. 98482","Kec. Waigeo Sel., Kabupaten Raja Ampat",PAPUA BARAT,98482.0,Indonesia,81247553799.0,-0.4365115,130.7794821,https://maps.google.com/?cid=0x0:0xd79d1ba9e325d4fc
hotel,hotel,Hotel Marannu,"HRG9+842, Waisai, Kec. Waigeo Sel., Kabupaten Raja Ampat, Papua Bar. 98482","Waisai, Kec. Waigeo Sel., Kabupaten Raja Ampat",PAPUA BARAT,98482.0,Indonesia,81258290891.0,-0.4242312,130.8177684,https://maps.google.com/?cid=0x0:0x4bfcf0ab6dd8ceba
hotel,hotel,Hotel Raja Ampat City,"Waisai, Distrik Kota Waisai, Kabupaten Raja Ampat, Papua Bar. 98482","Distrik Kota Waisai, Kabupaten Raja Ampat",PAPUA BARAT,98482.0,Indonesia,81344077377.0,-0.4181859,130.8234502,https://maps.google.com/?cid=0x0:0x340788df84d8dcb8
hotel,hotel,"The Jeti Mangrove - Kalibiru/Blue River, Ecolodge, Restaurant  Cottage","MWHC+4GF, Warsamdim, Distrik Kota Waisai, Kabupaten Raja Ampat, Papua Bar. 98482","Warsamdim, Distrik Kota Waisai, Kabupaten Raja Ampat",PAPUA BARAT,98482.0,Indonesia,,-0.3221776,130.9212987,https://maps.google.com/?cid=0x0:0x1fcf34299d7a509d
hotel,hotel,LUZO Villa  Boat Tours Raja Ampat,"Pasar Baru, Distrik Kota Waisai, Kabupaten Raja Ampat, Papua Bar. 98482","Distrik Kota Waisai, Kabupaten Raja Ampat",PAPUA BARAT,98482.0,Indonesia,81268005850.0,-0.4249699,130.8375304,https://maps.google.com/?cid=0x0:0xf5f377b055668293
hotel,hotel,Gurara Dive Resort Raja Ampat,"HQ59+926, Waisai, Kec. Waigeo Sel., Kabupaten Raja Ampat, Papua Bar. 98482","Waisai, Kec. Waigeo Sel., Kabupaten Raja Ampat",PAPUA BARAT,98482.0,Indonesia,8111000737.0,-0.4415814,130.7675268,https://maps.google.com/?cid=0x0:0x5c302ea59959ec26
hotel,hotel,Distrik Waigeo Utara,"Kabupaten Raja Ampat, Papua Bar.","Kabupaten Raja Ampat, Papua Bar.",PAPUA BARAT,,Indonesia,,-0.0564707,130.9858964,https://maps.google.com/?cid=0x0:0xc31e9c0aa62767f2
hotel,hotel,Puyau Homestay,"WXH8+2G6, Bonsayor, Distrik Waigeo Utara, Kabupaten Raja Ampat, Papua Bar. 98481","Bonsayor, Distrik Waigeo Utara, Kabupaten Raja Ampat",PAPUA BARAT,98481.0,Indonesia,,-0.0724575,130.9662651,https://maps.google.com/?cid=0x0:0x2d232270f35f1be8
hotel,hotel,Waisai Beach Hotel (WBH),"Waisai, Kec. Waigeo Sel., Kabupaten Raja Ampat, Papua Bar. 98482","Kec. Waigeo Sel., Kabupaten Raja Ampat",PAPUA BARAT,98482.0,Indonesia,81247553799.0,-0.4281731,130.8199415,https://maps.google.com/?cid=0x0:0x87348b8c39be5af1
hotel,hotel,Penginapan Najwa Indah,"HRHF+298, Waisai, Kec. Waigeo Sel., Kabupaten Raja Ampat, Papua Bar. 98482","Waisai, Kec. Waigeo Sel., Kabupaten Raja Ampat",PAPUA BARAT,98482.0,Indonesia,,-0.4224746,130.8234508,https://maps.google.com/?cid=0x0:0x34aabd52344d0c97
hotel,hotel,Rifalda Cottage (Raja Ampat),"Waisai, Kec. Waigeo Sel., Kabupaten Raja Ampat, Papua Bar. 98482","Kec. Waigeo Sel., Kabupaten Raja Ampat",PAPUA BARAT,98482.0,Indonesia,,-0.4358519,130.8124731,https://maps.google.com/?cid=0x0:0x8ffeedbd34be837e
hotel,hotel,Raja Ampat Family Guest House,"HRFJ+567, Jalan Mambrasar Swaimbon, Pantai, Waisai, Distrik Kota Waisai, Kabupaten Raja Ampat, Papua Bar. 98482","Jalan Mambrasar Swaimbon, Pantai, Waisai, Distrik Kota Waisai, Kabupaten Raja Ampat",PAPUA BARAT,98482.0,Indonesia,82393112027.0,-0.4270989,130.8305315,https://maps.google.com/?cid=0x0:0x1ff71509f66af495
hotel,hotel,Lainkalogos Glamping Camp,"JXX5+PR5, Mumes, Kec. Tlk. Mayalibit, Kabupaten Raja Ampat, Papua Bar. 98482","Mumes, Kec. Tlk. Mayalibit, Kabupaten Raja Ampat",PAPUA BARAT,98482.0,Indonesia,85173445445.0,-0.3500848,130.9584713,https://maps.google.com/?cid=0x0:0x5e7f6fe3757a5509
hotel,hotel,Kamtabai Forest Hut,"VPXC+V2P, Waifoi, Distrik Tiplol Mayalibit, Kabupaten Raja Ampat, Papua Bar. 98482","Waifoi, Distrik Tiplol Mayalibit, Kabupaten Raja Ampat",PAPUA BARAT,98482.0,Indonesia,81288863768.0,-0.100293,130.720072,https://maps.google.com/?cid=0x0:0xc5e84030fb528efb
hotel,hotel,Aldejus Homestay,"Friwen, Kec. Waigeo Sel., Kabupaten Raja Ampat, Papua Bar.","Kabupaten Raja Ampat, Papua Bar.",PAPUA BARAT,,Indonesia,81148600222.0,-0.4748981,130.6894477,https://maps.google.com/?cid=0x0:0x852f7c4ee4630bb9
hotel,hotel,Waigeo Villa,"Waisai, Kec. Waigeo Sel., Kabupaten Raja Ampat, Papua Bar. 98482","Kec. Waigeo Sel., Kabupaten Raja Ampat",PAPUA BARAT,98482.0,Indonesia,81247553799.0,-0.4365115,130.7794821,https://maps.google.com/?cid=0x0:0xd79d1ba9e325d4fc
hotel,hotel,"The Jeti Mangrove - Kalibiru/Blue River, Ecolodge, Restaurant  Cottage","MWHC+4GF, Warsamdim, Distrik Kota Waisai, Kabupaten Raja Ampat, Papua Bar. 98482","Warsamdim, Distrik Kota Waisai, Kabupaten Raja Ampat",PAPUA BARAT,98482.0,Indonesia,,-0.3221776,130.9212987,https://maps.google.com/?cid=0x0:0x1fcf34299d7a509d
hotel,hotel,Penginapan Andi Riona,"sebelum jembatan, Jl. Lukas Dailon, Waisai, Distrik Kota Waisai, Kabupaten Raja Ampat, Papua Bar. 98482","Jl. Lukas Dailon, Waisai, Distrik Kota Waisai, Kabupaten Raja Ampat",PAPUA BARAT,98482.0,Indonesia,82343625890.0,-0.4166334,130.8223743,https://maps.google.com/?cid=0x0:0x22162f9d5c4740b1
hotel,hotel,Febrianto Homestay,"WP2C+H5, Waifoi, Distrik Tiplol Mayalibit, Kabupaten Raja Ampat, Papua Bar.","Kabupaten Raja Ampat, Papua Bar.",PAPUA BARAT,,Indonesia,81359810139.0,-0.0982955,130.7202428,https://maps.google.com/?cid=0x0:0xd432556b0d847b88
hotel,hotel,Homestay Cemara Raja Ampat,"Jalan- trans saporkren, Waisai, Distrik Kota Waisai, Kabupaten Raja Ampat, Papua Bar. 98482","Waisai, Distrik Kota Waisai, Kabupaten Raja Ampat",PAPUA BARAT,98482.0,Indonesia,82188360951.0,-0.4412485,130.7606397,https://maps.google.com/?cid=0x0:0x468e8da48367231b
hotel,hotel,Distrik Warwarbomi,"Kabupaten Raja Ampat, Papua Bar.","Kabupaten Raja Ampat, Papua Bar.",PAPUA BARAT,,Indonesia,,-0.0992355,131.174316,https://maps.google.com/?cid=0x0:0xf0f19f0f9e85adb9
hotel,hotel,Waisai Beach Hotel (WBH),"Waisai, Kec. Waigeo Sel., Kabupaten Raja Ampat, Papua Bar. 98482","Kec. Waigeo Sel., Kabupaten Raja Ampat",PAPUA BARAT,98482.0,Indonesia,81247553799.0,-0.4281731,130.8199415,https://maps.google.com/?cid=0x0:0x87348b8c39be5af1
hotel,hotel,Belagri Hotel and Restaurant,"Jl. Raja Ampat No.1, Kp. Baru, Distrik Sorong, Kota Sorong, Papua Bar. 98413","Kp. Baru, Distrik Sorong, Kota Sorong",PAPUA BARAT,98413.0,Indonesia,,-0.8704329,131.2517604,https://maps.google.com/?cid=0x0:0xb0064be8b2a3c2c8
hotel,hotel,InnBox Hostel,"Jl. Sam Ratulangi No.91, Klasuur, Distrik Sorong, Kota Sorong, Papua Bar. 98413","Klasuur, Distrik Sorong, Kota Sorong",PAPUA BARAT,98413.0,Indonesia,81268888355.0,-0.8669219,131.2528048,https://maps.google.com/?cid=0x0:0x3be781e9731e888a
hotel,hotel,Lainkalogos Glamping Camp,"JXX5+PR5, Mumes, Kec. Tlk. Mayalibit, Kabupaten Raja Ampat, Papua Bar. 98482","Mumes, Kec. Tlk. Mayalibit, Kabupaten Raja Ampat",PAPUA BARAT,98482.0,Indonesia,85173445445.0,-0.3500848,130.9584713,https://maps.google.com/?cid=0x0:0x5e7f6fe3757a5509
hotel,hotel,"The Jeti Mangrove - Kalibiru/Blue River, Ecolodge, Restaurant  Cottage","MWHC+4GF, Warsamdim, Distrik Kota Waisai, Kabupaten Raja Ampat, Papua Bar. 98482","Warsamdim, Distrik Kota Waisai, Kabupaten Raja Ampat",PAPUA BARAT,98482.0,Indonesia,,-0.3221776,130.9212987,https://maps.google.com/?cid=0x0:0x1fcf34299d7a509d
hotel,hotel,LUZO Villa  Boat Tours Raja Ampat,"Pasar Baru, Distrik Kota Waisai, Kabupaten Raja Ampat, Papua Bar. 98482","Distrik Kota Waisai, Kabupaten Raja Ampat",PAPUA BARAT,98482.0,Indonesia,81268005850.0,-0.4249699,130.8375304,https://maps.google.com/?cid=0x0:0xf5f377b055668293
hotel,hotel,Snonbepur homestay,"Yensawai, Selat Sagawin, Kabupaten Raja Ampat, Papua Bar.","Kabupaten Raja Ampat, Papua Bar.",PAPUA BARAT,,Indonesia,81354108052.0,-0.7917941,130.5017129,https://maps.google.com/?cid=0x0:0x931bf3bedf17d
hotel,hotel,Hotel Batanta,"46GW+RMC, Kp. Baru, Distrik Sorong, Kota Sorong, Papua Bar. 98411","Kp. Baru, Distrik Sorong, Kota Sorong",PAPUA BARAT,98411.0,Indonesia,,-0.8729338,131.246629,https://maps.google.com/?cid=0x0:0xd18e7775760a134a
hotel,hotel,Penginapan Andi Riona,"sebelum jembatan, Jl. Lukas Dailon, Waisai, Distrik Kota Waisai, Kabupaten Raja Ampat, Papua Bar. 98482","Jl. Lukas Dailon, Waisai, Distrik Kota Waisai, Kabupaten Raja Ampat",PAPUA BARAT,98482.0,Indonesia,82343625890.0,-0.4166334,130.8223743,https://maps.google.com/?cid=0x0:0x22162f9d5c4740b1
hotel,hotel,O,"Jl. Jend. A. Yani No.27, Malabutor, Kecamatan Sorong Manoi, Kota Sorong, Papua Bar. 98412","Malabutor, Kecamatan Sorong Manoi, Kota Sorong",PAPUA BARAT,98412.0,Indonesia,,-0.8827427,131.2828186,https://maps.google.com/?cid=0x0:0x9aebba5ddda67893
hotel,hotel,Subdikar Guest House,"Waisai, Distrik Kota Waisai, Kabupaten Raja Ampat, Papua Bar. 98482","Distrik Kota Waisai, Kabupaten Raja Ampat",PAPUA BARAT,98482.0,Indonesia,82114036252.0,-0.3713334,130.8599301,https://maps.google.com/?cid=0x0:0x1006f1ce3ace43
hotel,hotel,Alvano homestay,"MX23+VV9, Mumes",,PAPUA BARAT,,Indonesia,85244738906.0,-0.34785,130.954748,https://maps.google.com/?cid=0x0:0x9e0bb9ee2fe7ea63
hotel,hotel,Swiss-Belhotel Sorong,"Hunting, Telepon, Jl. Jend. Sudirman Kecamatan, Malawei, Kecamatan Sorong Manoi, Kota Sorong, Papua Bar. 98412","Telepon, Jl. Jend. Sudirman Kecamatan, Malawei, Kecamatan Sorong Manoi, Kota Sorong",PAPUA BARAT,98412.0,Indonesia,8114853888.0,-0.889363,131.2749649,https://maps.google.com/?cid=0x0:0x4d32c5e468c00628
restaurant,restaurant,Distrik Aifat,"Kabupaten Maybrat, Papua Bar.","Kabupaten Maybrat, Papua Bar.",PAPUA BARAT,,Indonesia,,-1.2568532,132.5001338,https://maps.google.com/?cid=0x0:0xcc3d52ba3ddd33de
restaurant,restaurant,RM. SINGGAH DOLO,"PGV2+732, Eisyo, Distrik Aifat, Kabupaten Maybrat, Papua Bar. 98463","Eisyo, Distrik Aifat, Kabupaten Maybrat",PAPUA BARAT,98463.0,Indonesia,,-1.2568978,132.5001312,https://maps.google.com/?cid=0x0:0x5820a47ebba15398
restaurant,Dapur Umum,KIOS AIFAT JAYA DAN WARUNG AIFAT JAYA,"PFVX+24P, Eisyo, Distrik Aifat, Kabupaten Maybrat, Papua Bar. 98463","Eisyo, Distrik Aifat, Kabupaten Maybrat",PAPUA BARAT,98463.0,Indonesia,,-1.2582207,132.4977964,https://maps.google.com/?cid=0x0:0x6896cde496ab319b
restaurant,Nasi,KIOS IZA,"PGV2+F2F, Kumurkek, Distrik Aifat, Kabupaten Maybrat, Papua Bar. 98463","Kumurkek, Distrik Aifat, Kabupaten Maybrat",PAPUA BARAT,98463.0,Indonesia,,-1.2563194,132.5000327,https://maps.google.com/?cid=0x0:0xf0d45acb7d3276cb
restaurant,Toko bahan makanan,RM Berkat Balantak,"RF77+C36, Ayawasi, Distrik Aifat Utara, Kabupaten Maybrat, Papua Bar. 98463","Ayawasi, Distrik Aifat Utara, Kabupaten Maybrat",PAPUA BARAT,98463.0,Indonesia,82397745687.0,-1.186464,132.4626367,https://maps.google.com/?cid=0x0:0x5a6aa2403713d07c
restaurant,restaurant,RUMAH MAKAN SONANA KUMURKEK,"PFWX+XR9, Kumurkek, Distrik Aifat, Kabupaten Maybrat, Papua Bar. 98463","Kumurkek, Distrik Aifat, Kabupaten Maybrat",PAPUA BARAT,98463.0,Indonesia,,-1.2517511,132.4991496,https://maps.google.com/?cid=0x0:0x1e04692d2f36dd22
restaurant,Toko Perlengkapan Rumah,Rumah Makan Isme,"P65X+7X4, Fiane, Distrik Ayamaru Tengah, Kabupaten Maybrat, Papua Bar. 98462","Fiane, Distrik Ayamaru Tengah, Kabupaten Maybrat",PAPUA BARAT,98462.0,Indonesia,,-1.2918593,132.2499378,https://maps.google.com/?cid=0x0:0x3a798bb36eb50673
restaurant,Restoran,Dapoer Clara Resto  Cafe,"Jl. Merdeka, Padarni, Kec. Manokwari Bar., Kabupaten Manokwari, Papua Bar. 98312","Padarni, Kec. Manokwari Bar., Kabupaten Manokwari",PAPUA BARAT,98312.0,Indonesia,81376561946.0,-0.8599743,134.0734977,https://maps.google.com/?cid=0x0:0xf72c792d9c9dae56
restaurant,Kedai Kopi,Warung Double M,"PGV2+732, Eisyo, Distrik Aifat, Kabupaten Maybrat, Papua Bar.","Kabupaten Maybrat, Papua Bar.",PAPUA BARAT,,Indonesia,,-1.2568532,132.5001338,https://maps.google.com/?cid=0x0:0xe1f773d6e0e119c2
restaurant,Nasi,Kios Aifat jaya,"PFQ9+82V, Kumurkek, Distrik Aifat, Kabupaten Maybrat, Papua Bar. 98463","Kumurkek, Distrik Aifat, Kabupaten Maybrat",PAPUA BARAT,98463.0,Indonesia,,-1.2616392,132.4675475,https://maps.google.com/?cid=0x0:0x3275eb5a1d4dcdfe
restaurant,restaurant,Distrik Aifat,"Kabupaten Maybrat, Papua Bar.","Kabupaten Maybrat, Papua Bar.",PAPUA BARAT,,Indonesia,,-1.2568532,132.5001338,https://maps.google.com/?cid=0x0:0xcc3d52ba3ddd33de
restaurant,restaurant,RM. SINGGAH DOLO,"PGV2+732, Eisyo, Distrik Aifat, Kabupaten Maybrat, Papua Bar. 98463","Eisyo, Distrik Aifat, Kabupaten Maybrat",PAPUA BARAT,98463.0,Indonesia,,-1.2568978,132.5001312,https://maps.google.com/?cid=0x0:0x5820a47ebba15398
restaurant,Dapur Umum,Warung Makan Sederhana MAS ANDY Kumurkek,"PFWX+RP4, Fait Mayaf, Distrik Aifat, Kabupaten Maybrat, Papua Bar. 98463","Fait Mayaf, Distrik Aifat, Kabupaten Maybrat",PAPUA BARAT,98463.0,Indonesia,,-1.252981,132.4993399,https://maps.google.com/?cid=0x0:0xd77688734fd6dc09
restaurant,Dapur Umum,KIOS AIFAT JAYA DAN WARUNG AIFAT JAYA,"PFVX+24P, Eisyo, Distrik Aifat, Kabupaten Maybrat, Papua Bar. 98463","Eisyo, Distrik Aifat, Kabupaten Maybrat",PAPUA BARAT,98463.0,Indonesia,,-1.2582207,132.4977964,https://maps.google.com/?cid=0x0:0x6896cde496ab319b
restaurant,Nasi,KIOS IZA,"PGV2+F2F, Kumurkek, Distrik Aifat, Kabupaten Maybrat, Papua Bar. 98463","Kumurkek, Distrik Aifat, Kabupaten Maybrat",PAPUA BARAT,98463.0,Indonesia,,-1.2563194,132.5000327,https://maps.google.com/?cid=0x0:0xf0d45acb7d3276cb
restaurant,Toko Perlengkapan Rumah,Rumah Makan Isme,"P65X+7X4, Fiane, Distrik Ayamaru Tengah, Kabupaten Maybrat, Papua Bar. 98462","Fiane, Distrik Ayamaru Tengah, Kabupaten Maybrat",PAPUA BARAT,98462.0,Indonesia,,-1.2918593,132.2499378,https://maps.google.com/?cid=0x0:0x3a798bb36eb50673
restaurant,restaurant,RUMAH MAKAN SONANA KUMURKEK,"PFWX+XR9, Kumurkek, Distrik Aifat, Kabupaten Maybrat, Papua Bar. 98463","Kumurkek, Distrik Aifat, Kabupaten Maybrat",PAPUA BARAT,98463.0,Indonesia,,-1.2517511,132.4991496,https://maps.google.com/?cid=0x0:0x1e04692d2f36dd22
restaurant,Kedai Kopi,Warung Double M,"PGV2+732, Eisyo, Distrik Aifat, Kabupaten Maybrat, Papua Bar.","Kabupaten Maybrat, Papua Bar.",PAPUA BARAT,,Indonesia,,-1.2568532,132.5001338,https://maps.google.com/?cid=0x0:0xe1f773d6e0e119c2
restaurant,Komplek perumahan,Ayamaru kota,"P838+529, Jitmau, Kec. Aitinyo Utara, Kabupaten Maybrat, Papua Bar.","Kabupaten Maybrat, Papua Bar.",PAPUA BARAT,,Indonesia,,-1.2970979,132.3150993,https://maps.google.com/?cid=0x0:0x5c83c06a31cb7d76
restaurant,Kedai Kopi,Warung Doble M,"MFMH+M5, Futon, Distrik Aifat, Kabupaten Maybrat, Papua Bar.","Kabupaten Maybrat, Papua Bar.",PAPUA BARAT,,Indonesia,,-1.3157867,132.47753,https://maps.google.com/?cid=0x0:0xb9d7dbcaffffaae3
restaurant,Pangsit,Hwamei Chinese Restaurant @Aviary Park,"Jl. Bintaro Creative District No.15, Pd. Ranji, Kec. Ciputat Tim., Kota Tangerang Selatan, Banten 15224","Pd. Ranji, Kec. Ciputat Tim., Kota Tangerang Selatan",PAPUA BARAT,15224.0,Indonesia,81322555199.0,-6.2767027,106.7405236,https://maps.google.com/?cid=0x0:0x3b482b5798be2229
restaurant,Jepang,UMAQITA - AEON MALL TANJUNG BARAT,"AEON MALL, Jl. Raya Tj. Barat No.163 Lantai 1, RT.12/RW.4, Tj. Bar., Kec. Jagakarsa, Kota Jakarta Selatan, Daerah Khusus Ibukota Jakarta 12530","Jl. Raya Tj. Barat No.163 Lantai 1, RT.12/RW.4, Tj. Bar., Kec. Jagakarsa, Kota Jakarta Selatan",PAPUA BARAT,12530.0,Indonesia,2150919904.0,-6.3059867,106.8401615,https://maps.google.com/?cid=0x0:0xc430a306326cccb1
restaurant,Indonesia,Umatis Resto  Venue,"BSD City, Kavling Taman Kota Barat Lot No.II.6, Sampora, Kec. Cisauk, Kabupaten Tangerang, Banten 15345","Kavling Taman Kota Barat Lot No.II.6, Sampora, Kec. Cisauk, Kabupaten Tangerang",PAPUA BARAT,15345.0,Indonesia,81513122280.0,-6.3068601,106.6495916,https://maps.google.com/?cid=0x0:0x49e60e0c1e2a4a78
restaurant,Mesin Sangrai Kopi,Alenia Papua Coffee  Kitchen,"Jl. Kemang Raya No.66 B 8, RT.8/RW.2, Bangka, Kec. Mampang Prpt., Kota Jakarta Selatan, Daerah Khusus Ibukota Jakarta 12730","RT.8/RW.2, Bangka, Kec. Mampang Prpt., Kota Jakarta Selatan",PAPUA BARAT,12730.0,Indonesia,2171790141.0,-6.2638119,106.8158777,https://maps.google.com/?cid=0x0:0xe49807fcfab68b48
restaurant,restaurant,distrik Batanta Selatan,"Kabupaten Raja Ampat, Papua Bar.","Kabupaten Raja Ampat, Papua Bar.",PAPUA BARAT,,Indonesia,,-0.8447219,130.8171615,https://maps.google.com/?cid=0x0:0xc5c0f28bd225b23c
restaurant,Guest house,Logbond Cozy Resto  Bakery Waisai,"Marinda Road, Waisai, Distrik Kota Waisai, Kabupaten Raja Ampat, Papua Bar. 98482","Waisai, Distrik Kota Waisai, Kabupaten Raja Ampat",PAPUA BARAT,98482.0,Indonesia,82397025299.0,-0.4288534,130.8034909,https://maps.google.com/?cid=0x0:0x5d186281f60039c6
restaurant,Restoran,Rumah Makan Sederhana,"HRGC+78W, Kota Bar., Waisai, Kec. Waigeo Sel., Kabupaten Raja Ampat, Papua Bar. 98482","Kota Bar., Waisai, Kec. Waigeo Sel., Kabupaten Raja Ampat",PAPUA BARAT,98482.0,Indonesia,85243008088.0,-0.4242691,130.8208371,https://maps.google.com/?cid=0x0:0xe8a6e7312eb22ec8
restaurant,restaurant,,,,PAPUA BARAT,,Indonesia,,,,https://maps.google.com/?cid=0x0:0xa1eb8804131ff434%7C/g/11cfb8fcs%7Cid-ID
restaurant,restaurant,Pulau Birie,,,PAPUA BARAT,,Indonesia,,-0.7833333,130.7333333,https://maps.google.com/?cid=0x0:0x288a14aabc58dcc5
restaurant,Restoran,Warung Cahaya Bone Waisai Raja Ampat,"HRF9+PRM, Jl. Salawati, Waisai, Waigeo Selatan, Waisai, Distrik Kota Waisai, Kabupaten Raja Ampat, Papua Bar. 98482","Jl. Salawati, Waisai, Waigeo Selatan, Waisai, Distrik Kota Waisai, Kabupaten Raja Ampat",PAPUA BARAT,98482.0,Indonesia,82147416237.0,-0.425672,130.8195551,https://maps.google.com/?cid=0x0:0x21f947d718ca4449
restaurant,Prasmanan,Rumah Makan PONDOK LESEHAN,"Jl. Jend. Sudirman, Waisai, Distrik Kota Waisai, Kabupaten Raja Ampat, Papua Bar. 98482","Waisai, Distrik Kota Waisai, Kabupaten Raja Ampat",PAPUA BARAT,98482.0,Indonesia,85247254732.0,-0.4209643,130.8223871,https://maps.google.com/?cid=0x0:0x415fb51c42ef63e4
restaurant,Bakso,BAKSO BEJO,"HRJF+HCP, Waisai, Kec. Waigeo Sel., Kabupaten Raja Ampat, Papua Bar. 98482","Waisai, Kec. Waigeo Sel., Kabupaten Raja Ampat",PAPUA BARAT,98482.0,Indonesia,81354172829.0,-0.4185265,130.8235877,https://maps.google.com/?cid=0x0:0x3b389d6223d7b5c7
restaurant,Ikan Bakar,Warung Ikan Bakar 46,"Jl. Fundar Sakela, Waisai, Distrik Kota Waisai, Kabupaten Raja Ampat, Papua Bar. 98482","Waisai, Distrik Kota Waisai, Kabupaten Raja Ampat",PAPUA BARAT,98482.0,Indonesia,,-0.4239846,130.820455,https://maps.google.com/?cid=0x0:0x44c002cc936156dc
restaurant,restaurant,Yenbeyar Homestay,"Yensawai, Batanta, Raja Ampat, West Papua",Papua Bar.,PAPUA BARAT,,Indonesia,,-0.801111,130.677222,https://maps.google.com/?cid=0x0:0x3db25d5c758a30b5
restaurant,restaurant,Marwes Homestay,"Yensawai, Selat Sagawin, Kabupaten Raja Ampat, Papua Bar. 98484","Selat Sagawin, Kabupaten Raja Ampat",PAPUA BARAT,98484.0,Indonesia,81269948337.0,-0.800081,130.5773944,https://maps.google.com/?cid=0x0:0x54785288c63d99ef
restaurant,Dapur Umum,Rumah saya,"6P74+C5P, Arefi, Selat Sagawin, Kabupaten Raja Ampat, Papua Bar. 98484","Arefi, Selat Sagawin, Kabupaten Raja Ampat",PAPUA BARAT,98484.0,Indonesia,,-0.7864249,130.7054562,https://maps.google.com/?cid=0x0:0x7846d62f12c1b9c9
restaurant,Guest house,Batanta Explorer homestay,"Batanta Explorer homestay Yensawai Batanta Utara, Batanta, Kabupaten Raja Ampat, Papua Bar. 98492","Batanta, Kabupaten Raja Ampat",PAPUA BARAT,98492.0,Indonesia,85210027959.0,-0.7958021,130.5000761,https://maps.google.com/?cid=0x0:0x37d76000cac73b01
restaurant,Guest house,Dayan Dive Homestay Raja Ampat,"Pulau Dayan, Batanta, Raja Ampat, Yensawai, Selat Sagawin, Raja Ampat Regency, West Papua 98484","Batanta, Raja Ampat, Yensawai, Selat Sagawin, Raja Ampat Regency",PAPUA BARAT,98484.0,Indonesia,81240124494.0,-0.790043,130.5009382,https://maps.google.com/?cid=0x0:0x688a2b8a371dcb51
restaurant,restaurant,Pulau Batanta,"Wailebet, distrik Batanta Selatan, Kabupaten Raja Ampat, Papua Bar.","Kabupaten Raja Ampat, Papua Bar.",PAPUA BARAT,,Indonesia,,-0.8647222,130.6494444,https://maps.google.com/?cid=0x0:0x622f6c920ed64eb5
restaurant,Guest house,Logbond Cozy Resto  Bakery Waisai,"Marinda Road, Waisai, Distrik Kota Waisai, Kabupaten Raja Ampat, Papua Bar. 98482","Waisai, Distrik Kota Waisai, Kabupaten Raja Ampat",PAPUA BARAT,98482.0,Indonesia,82397025299.0,-0.4288534,130.8034909,https://maps.google.com/?cid=0x0:0x5d186281f60039c6
restaurant,Restoran,Logbondcozy guesthouse,"J, Waisai, Distrik Kota Waisai, Kabupaten Raja Ampat, Papua Bar. 98482","Waisai, Distrik Kota Waisai, Kabupaten Raja Ampat",PAPUA BARAT,98482.0,Indonesia,82198676740.0,-0.4288891,130.8035011,https://maps.google.com/?cid=0x0:0xdff9107ba612633
restaurant,restaurant,,,,PAPUA BARAT,,Indonesia,,,,https://maps.google.com/?cid=0x0:0x5d186281f60039c6u0026onu003dButter+Fried+Prawn+French+Fries+Kangkung+Taucou0026midu003d/g/11gk136l0x
restaurant,restaurant,,,,PAPUA BARAT,,Indonesia,,,,https://maps.google.com/?cid=0x0:0x5d186281f60039c6u0026onu003dBistik+Lidah+Sapiu0026midu003d/g/11gk136l0x
restaurant,restaurant,,,,PAPUA BARAT,,Indonesia,,,,https://maps.google.com/?cid=0x0:0x5d186281f60039c6u0026onu003dEmpal+Gepuk+Serundengu0026midu003d/g/11gk136l0x
restaurant,restaurant,,,,PAPUA BARAT,,Indonesia,,,,https://maps.google.com/?cid=0x0:0x5d186281f60039c6u0026onu003dJamur+Mushroomu0026midu003d/g/11gk136l0x
restaurant,restaurant,,,,PAPUA BARAT,,Indonesia,,,,https://maps.google.com/?cid=0x0:0x5d186281f60039c6u0026onu003dTahu+Softu0026midu003d/g/11gk136l0x
restaurant,restaurant,,,,PAPUA BARAT,,Indonesia,,,,https://maps.google.com/?cid=0x0:0x5d186281f60039c6u0026onu003dCah+Kangkung+Taucou0026midu003d/g/11gk136l0x
restaurant,restaurant,,,,PAPUA BARAT,,Indonesia,,,,https://maps.google.com/?cid=0x0:0x5d186281f60039c6u0026onu003dCah+Baby+Buncisu0026midu003d/g/11gk136l0x
restaurant,restaurant,,,,PAPUA BARAT,,Indonesia,,,,https://maps.google.com/?cid=0x0:0x5d186281f60039c6u0026onu003dAyam+Goreng+Mentega+Butter+Fried+Chickenu0026midu003d/g/11gk136l0x
restaurant,restaurant,,,,PAPUA BARAT,,Indonesia,,,,https://maps.google.com/?cid=0x0:0x5d186281f60039c6u0026onu003dKembang+Tahu+Jamuru0026midu003d/g/11gk136l0x
restaurant,restaurant,,,,PAPUA BARAT,,Indonesia,,,,https://maps.google.com/?cid=0x0:0x5d186281f60039c6u0026onu003dTauco+Fried+Fishu0026midu003d/g/11gk136l0x
restaurant,restaurant,,,,PAPUA BARAT,,Indonesia,,,,https://maps.google.com/?cid=0x0:0x5d186281f60039c6u0026onu003dTerong+Cah+Daging+Sapi+Gilingu0026midu003d/g/11gk136l0x
restaurant,Prasmanan,Rumah Makan PONDOK LESEHAN,"Jl. Jend. Sudirman, Waisai, Distrik Kota Waisai, Kabupaten Raja Ampat, Papua Bar. 98482","Waisai, Distrik Kota Waisai, Kabupaten Raja Ampat",PAPUA BARAT,98482.0,Indonesia,85247254732.0,-0.4209643,130.8223871,https://maps.google.com/?cid=0x0:0x415fb51c42ef63e4
restaurant,Restoran,Prasmanan LA Raja Ampat,"HRCC+X94, Waisai, Distrik Kota Waisai, Kabupaten Raja Ampat, Papua Bar. 98482","Waisai, Distrik Kota Waisai, Kabupaten Raja Ampat",PAPUA BARAT,98482.0,Indonesia,8124857778.0,-0.4276101,130.8209625,https://maps.google.com/?cid=0x0:0x48669c05f9d1f679
restaurant,restaurant,,,,PAPUA BARAT,,Indonesia,,,,https://maps.google.com/?cid=0x0:0x415fb51c42ef63e4u0026onu003dNasgor+Khas+Lesehanu0026midu003d/g/11c2q3b7fm
restaurant,restaurant,,,,PAPUA BARAT,,Indonesia,,,,https://maps.google.com/?cid=0x0:0x415fb51c42ef63e4u0026onu003dCumi+Goreng+Tepung+Nasi+Putihu0026midu003d/g/11c2q3b7fm
restaurant,restaurant,,,,PAPUA BARAT,,Indonesia,,,,https://maps.google.com/?cid=0x0:0x415fb51c42ef63e4u0026onu003dTom+Yum+Soupu0026midu003d/g/11c2q3b7fm
restaurant,restaurant,,,,PAPUA BARAT,,Indonesia,,,,https://maps.google.com/?cid=0x0:0x415fb51c42ef63e4u0026onu003dFried+Calamari+Flat+Noodles+Fired+Shrimpu0026midu003d/g/11c2q3b7fm
restaurant,restaurant,,,,PAPUA BARAT,,Indonesia,,,,https://maps.google.com/?cid=0x0:0x415fb51c42ef63e4u0026onu0026midu003d/g/11c2q3b7fm
restaurant,Restoran,Rumah Makan Sederhana,"HRGC+78W, Kota Bar., Waisai, Kec. Waigeo Sel., Kabupaten Raja Ampat, Papua Bar. 98482","Kota Bar., Waisai, Kec. Waigeo Sel., Kabupaten Raja Ampat",PAPUA BARAT,98482.0,Indonesia,85243008088.0,-0.4242691,130.8208371,https://maps.google.com/?cid=0x0:0xe8a6e7312eb22ec8
restaurant,restaurant,,,,PAPUA BARAT,,Indonesia,,,,https://maps.google.com/?cid=0x0:0xe8a6e7312eb22ec8u0026onu003dTongkol+Asam+Manisu0026midu003d/g/11cn5qk41y
restaurant,restaurant,,,,PAPUA BARAT,,Indonesia,,,,https://maps.google.com/?cid=0x0:0xe8a6e7312eb22ec8u0026onu003dSambal+Tempe+-+Ikan+Asinu0026midu003d/g/11cn5qk41y
restaurant,restaurant,,,,PAPUA BARAT,,Indonesia,,,,https://maps.google.com/?cid=0x0:0xe8a6e7312eb22ec8u0026onu003dGulai+Kepala+Baronangu0026midu003d/g/11cn5qk41y
restaurant,restaurant,,,,PAPUA BARAT,,Indonesia,,,,https://maps.google.com/?cid=0x0:0xe8a6e7312eb22ec8u0026onu003dGulai+Ikanu0026midu003d/g/11cn5qk41y
restaurant,restaurant,,,,PAPUA BARAT,,Indonesia,,,,https://maps.google.com/?cid=0x0:0xe8a6e7312eb22ec8u0026onu003dRaw+Petayu0026midu003d/g/11cn5qk41y
restaurant,restaurant,,,,PAPUA BARAT,,Indonesia,,,,https://maps.google.com/?cid=0x0:0xe8a6e7312eb22ec8u0026onu003dSayur+Daun+Pepayau0026midu003d/g/11cn5qk41y
restaurant,restaurant,Papua Bar. 98481,"Kabupaten Raja Ampat, Papua Bar.","Kabupaten Raja Ampat, Papua Bar.",PAPUA BARAT,,Indonesia,,-0.0847884,130.8374011,https://maps.google.com/?cid=0x0:0xabdb6fd88155f082
restaurant,Restoran,Rumah Makan Sederhana,"HRGC+78W, Kota Bar., Waisai, Kec. Waigeo Sel., Kabupaten Raja Ampat, Papua Bar. 98482","Kota Bar., Waisai, Kec. Waigeo Sel., Kabupaten Raja Ampat",PAPUA BARAT,98482.0,Indonesia,85243008088.0,-0.4242691,130.8208371,https://maps.google.com/?cid=0x0:0xe8a6e7312eb22ec8
restaurant,Guest house,Logbond Cozy Resto  Bakery Waisai,"Marinda Road, Waisai, Distrik Kota Waisai, Kabupaten Raja Ampat, Papua Bar. 98482","Waisai, Distrik Kota Waisai, Kabupaten Raja Ampat",PAPUA BARAT,98482.0,Indonesia,82397025299.0,-0.4288534,130.8034909,https://maps.google.com/?cid=0x0:0x5d186281f60039c6
restaurant,Prasmanan,Rumah Makan PONDOK LESEHAN,"Jl. Jend. Sudirman, Waisai, Distrik Kota Waisai, Kabupaten Raja Ampat, Papua Bar. 98482","Waisai, Distrik Kota Waisai, Kabupaten Raja Ampat",PAPUA BARAT,98482.0,Indonesia,85247254732.0,-0.4209643,130.8223871,https://maps.google.com/?cid=0x0:0x415fb51c42ef63e4
restaurant,Bakso,BAKSO BEJO,"HRJF+HCP, Waisai, Kec. Waigeo Sel., Kabupaten Raja Ampat, Papua Bar. 98482","Waisai, Kec. Waigeo Sel., Kabupaten Raja Ampat",PAPUA BARAT,98482.0,Indonesia,81354172829.0,-0.4185265,130.8235877,https://maps.google.com/?cid=0x0:0x3b389d6223d7b5c7
restaurant,Restoran,Cafe'in Raja Ampat,"HRHF+79G, Jl. Kofiau, Waisai, Distrik Kota Waisai, Kabupaten Raja Ampat, Papua Bar. 98482","Jl. Kofiau, Waisai, Distrik Kota Waisai, Kabupaten Raja Ampat",PAPUA BARAT,98482.0,Indonesia,,-0.4218118,130.8234512,https://maps.google.com/?cid=0x0:0x7573487f38bb2d47
restaurant,Guest house,Piaynemo Raja Ampat,"C7PC+888, Groot Fam, Saukabu, Kepulauan Raja Ampat, Waigeo Barat Kepulau, Saukabu, Distrik Waigeo Barat Kepulauan, Kabupaten Raja Ampat, Papua Bar. 98481","Groot Fam, Saukabu, Kepulauan Raja Ampat, Waigeo Barat Kepulau, Saukabu, Distrik Waigeo Barat Kepulauan, Kabupaten Raja Ampat",PAPUA BARAT,98481.0,Indonesia,,-0.5642076,130.2708139,https://maps.google.com/?cid=0x0:0xb98db4c6e60649fb
restaurant,restaurant,Waiwo Dive Resort  Dive into Raja Ampat,"Jl. Marinda - Waiwo Raja Ampat Papua, Barat, Papua Bar. 98482",Barat,PAPUA BARAT,98482.0,Indonesia,81247912123.0,-0.4364989,130.7783607,https://maps.google.com/?cid=0x0:0xa23d6965a6d740aa
restaurant,restaurant,Hamueco Raja Ampat Dive Resort,"Wirausaha Building Jl HR Rasuna Said Kav C5 Lantai 3, Jakarta Selatan, DKI Jakarta, 12940",Jakarta Selatan,PAPUA BARAT,12940.0,Indonesia,81392500242.0,-0.441485,130.761647,https://maps.google.com/?cid=0x0:0xf060a049fd72614d
restaurant,restaurant,Korpak Villa and Resort,"HQ6M+RGH, Unnamed Road, Waisai, Distrik Kota Waisai, Kabupaten Raja Ampat, Papua Bar. 98482","Unnamed Road, Waisai, Distrik Kota Waisai, Kabupaten Raja Ampat",PAPUA BARAT,98482.0,Indonesia,,-0.4379467,130.7838521,https://maps.google.com/?cid=0x0:0x7d6048504236c32d
restaurant,restaurant,Vogelkopf Resort,"Waisai, Distrik Kota Waisai, Kabupaten Raja Ampat, Papua Bar. 98482","Distrik Kota Waisai, Kabupaten Raja Ampat",PAPUA BARAT,98482.0,Indonesia,81360001088.0,-0.4385338,130.785262,https://maps.google.com/?cid=0x0:0x132e94aff8281150
restaurant,restaurant,Scuba Republic - Raja Ampat,"Waisai, Kec. Waigeo Sel., Kabupaten Raja Ampat, Papua Bar. 98482","Kec. Waigeo Sel., Kabupaten Raja Ampat",PAPUA BARAT,98482.0,Indonesia,,-0.4418794,130.7532977,https://maps.google.com/?cid=0x0:0xdbbc913713b959f9
restaurant,restaurant,PapuArts Alter Native Stay,"Desa Saporkren, Kec. Waigeo Sel., Kabupaten Raja Ampat, Papua Bar. 98482","Kec. Waigeo Sel., Kabupaten Raja Ampat",PAPUA BARAT,98482.0,Indonesia,81248455887.0,-0.438169,130.7367168,https://maps.google.com/?cid=0x0:0x39f6073cbd5c64d4
restaurant,restaurant,Waigeo Villa,"Waisai, Kec. Waigeo Sel., Kabupaten Raja Ampat, Papua Bar. 98482","Kec. Waigeo Sel., Kabupaten Raja Ampat",PAPUA BARAT,98482.0,Indonesia,81247553799.0,-0.4365115,130.7794821,https://maps.google.com/?cid=0x0:0xd79d1ba9e325d4fc
restaurant,restaurant,Pulau Kofiau,"Mikiran, Kofiau, Kabupaten Raja Ampat, Papua Bar.","Kabupaten Raja Ampat, Papua Bar.",PAPUA BARAT,,Indonesia,,-1.1833333,129.8333333,https://maps.google.com/?cid=0x0:0x22393f628dc41dcc
restaurant,restaurant,Distrik Kota Waisai,"Waisai, Kabupaten Raja Ampat, Papua Bar.","Kabupaten Raja Ampat, Papua Bar.",PAPUA BARAT,,Indonesia,,-0.4248841,130.8208792,https://maps.google.com/?cid=0x0:0x50ee7a1504609bf5
restaurant,Guest house,Logbond Cozy Resto  Bakery Waisai,"Marinda Road, Waisai, Distrik Kota Waisai, Kabupaten Raja Ampat, Papua Bar. 98482","Waisai, Distrik Kota Waisai, Kabupaten Raja Ampat",PAPUA BARAT,98482.0,Indonesia,82397025299.0,-0.4288534,130.8034909,https://maps.google.com/?cid=0x0:0x5d186281f60039c6
restaurant,Restoran,Warung Cahaya Bone Waisai Raja Ampat,"HRF9+PRM, Jl. Salawati, Waisai, Waigeo Selatan, Waisai, Distrik Kota Waisai, Kabupaten Raja Ampat, Papua Bar. 98482","Jl. Salawati, Waisai, Waigeo Selatan, Waisai, Distrik Kota Waisai, Kabupaten Raja Ampat",PAPUA BARAT,98482.0,Indonesia,82147416237.0,-0.425672,130.8195551,https://maps.google.com/?cid=0x0:0x21f947d718ca4449
restaurant,Restoran,Rumah Makan Sederhana,"HRGC+78W, Kota Bar., Waisai, Kec. Waigeo Sel., Kabupaten Raja Ampat, Papua Bar. 98482","Kota Bar., Waisai, Kec. Waigeo Sel., Kabupaten Raja Ampat",PAPUA BARAT,98482.0,Indonesia,85243008088.0,-0.4242691,130.8208371,https://maps.google.com/?cid=0x0:0xe8a6e7312eb22ec8
restaurant,Ikan Bakar,Cafe dava,"pantai wtc, Waisai, Distrik Kota Waisai, Kabupaten Raja Ampat, Papua Bar. 98482","Waisai, Distrik Kota Waisai, Kabupaten Raja Ampat",PAPUA BARAT,98482.0,Indonesia,8114852011.0,-0.4272783,130.8214338,https://maps.google.com/?cid=0x0:0x320f1aab782ecce2
restaurant,Prasmanan,Rumah Makan PONDOK LESEHAN,"Jl. Jend. Sudirman, Waisai, Distrik Kota Waisai, Kabupaten Raja Ampat, Papua Bar. 98482","Waisai, Distrik Kota Waisai, Kabupaten Raja Ampat",PAPUA BARAT,98482.0,Indonesia,85247254732.0,-0.4209643,130.8223871,https://maps.google.com/?cid=0x0:0x415fb51c42ef63e4
restaurant,Restoran,Prasmanan LA Raja Ampat,"HRCC+X94, Waisai, Distrik Kota Waisai, Kabupaten Raja Ampat, Papua Bar. 98482","Waisai, Distrik Kota Waisai, Kabupaten Raja Ampat",PAPUA BARAT,98482.0,Indonesia,8124857778.0,-0.4276101,130.8209625,https://maps.google.com/?cid=0x0:0x48669c05f9d1f679
restaurant,Restoran,Resto Twins,"HR98+MQP, Unnamed Road, Waisai, Distrik Kota Waisai, Kabupaten Raja Ampat, Papua Bar. 98482","Unnamed Road, Waisai, Distrik Kota Waisai, Kabupaten Raja Ampat",PAPUA BARAT,98482.0,Indonesia,85254027575.0,-0.4307916,130.816946,https://maps.google.com/?cid=0x0:0xa146f0a37ef7a010
restaurant,Nasi,Murah Risky,"HRPF+JQF, Waisai, Kec. Waigeo Sel., Kabupaten Raja Ampat, Papua Bar. 98482","Waisai, Kec. Waigeo Sel., Kabupaten Raja Ampat",PAPUA BARAT,98482.0,Indonesia,82197466189.0,-0.4134473,130.8244363,https://maps.google.com/?cid=0x0:0xf878d6e895e3aa4e
restaurant,Restoran,Rumah Makan Firkha,"HRQ8+Q5H, Unnamed Road, Sel, Waisai, Waigeo Selatan, Raja Ampat Regency, West Papua 98482","Unnamed Road, Sel, Waisai, Waigeo Selatan, Raja Ampat Regency",PAPUA BARAT,98482.0,Indonesia,81248958330.0,-0.4105585,130.8154948,https://maps.google.com/?cid=0x0:0x343296861e6e6914
restaurant,Restoran,Rumah Makan Srikandi,"HRF9+PPG, Jl. Salawati, Waisai, Distrik Kota Waisai, Kabupaten Raja Ampat, Papua Bar. 98482","Jl. Salawati, Waisai, Distrik Kota Waisai, Kabupaten Raja Ampat",PAPUA BARAT,98482.0,Indonesia,,-0.4256879,130.8193337,https://maps.google.com/?cid=0x0:0xc41183e14f09bc46
restaurant,Nasi,DAPUR ABYAN,"HRPF+R9V, Jl. Barakuda, Waisai, Distrik Kota Waisai, Kabupaten Raja Ampat, Papua Bar. 98482","Jl. Barakuda, Waisai, Distrik Kota Waisai, Kabupaten Raja Ampat",PAPUA BARAT,98482.0,Indonesia,81337151547.0,-0.412894,130.8234272,https://maps.google.com/?cid=0x0:0x64d0e3600d4c59ed
restaurant,Restoran,wrung mkn wt,"HRC5+5X2, Jl. Jend. Sudirman, Waisai, Distrik Kota Waisai, Kabupaten Raja Ampat, Papua Bar. 98482","Jl. Jend. Sudirman, Waisai, Distrik Kota Waisai, Kabupaten Raja Ampat",PAPUA BARAT,98482.0,Indonesia,81240909220.0,-0.4296096,130.8098987,https://maps.google.com/?cid=0x0:0x226902ee1a39a022
restaurant,Bakso,BAKSO BEJO,"HRJF+HCP, Waisai, Kec. Waigeo Sel., Kabupaten Raja Ampat, Papua Bar. 98482","Waisai, Kec. Waigeo Sel., Kabupaten Raja Ampat",PAPUA BARAT,98482.0,Indonesia,81354172829.0,-0.4185265,130.8235877,https://maps.google.com/?cid=0x0:0x3b389d6223d7b5c7
restaurant,restaurant,Meos Mansar,"Kabupaten Raja Ampat, Papua Bar.","Kabupaten Raja Ampat, Papua Bar.",PAPUA BARAT,,Indonesia,,-0.4496057,130.583895,https://maps.google.com/?cid=0x0:0xe58d24898307b204
restaurant,Kafe,Raja Ampat Paradise Juice,"Sawinggrai, Waisai, Kabupaten Raja Ampat, Papua Bar. 98482","Waisai, Kabupaten Raja Ampat",PAPUA BARAT,98482.0,Indonesia,,-0.5345422,130.577466,https://maps.google.com/?cid=0x0:0x21858138c046994c
restaurant,restaurant,Agusta Eco Resort,"Agusta Island, Sauandarek, Meos Mansar, Kabupaten Raja Ampat, Papua Bar.","Kabupaten Raja Ampat, Papua Bar.",PAPUA BARAT,,Indonesia,81222494732.0,-0.6500322,130.5757884,https://maps.google.com/?cid=0x0:0xa19c31b5fa8927e7
restaurant,restaurant,Beser Bay Homestay,"Pulau Gam, Raja Ampat, Sawinggrai, Meos Mansar, West Papua 98482","Raja Ampat, Sawinggrai, Meos Mansar",PAPUA BARAT,98482.0,Indonesia,,-0.5197558,130.5693589,https://maps.google.com/?cid=0x0:0xb087ce3ef49e1981
restaurant,restaurant,Kri,"Yenbuba, Meos Mansar, Kabupaten Raja Ampat, Papua Bar.","Kabupaten Raja Ampat, Papua Bar.",PAPUA BARAT,,Indonesia,,-0.5613911,130.6765536,https://maps.google.com/?cid=0x0:0x3f854db56422f420
restaurant,restaurant,Warung makan mama nyora,"GM9R+VPC, Friwen, Kec. Waigeo Sel., Kabupaten Raja Ampat, Papua Bar.","Kabupaten Raja Ampat, Papua Bar.",PAPUA BARAT,,Indonesia,81360313672.0,-0.480305,130.691771,https://maps.google.com/?cid=0x0:0x5ba4a9d445c09d55
restaurant,restaurant,Nyande Raja Ampat  Dive Shop,"Pulau Mansuar, Kurkapa, Meos Mansar, Raja Ampat Regency, West Papua","Kabupaten Raja Ampat, Papua Bar.",PAPUA BARAT,,Indonesia,82239444532.0,-0.5779207,130.6076202,https://maps.google.com/?cid=0x0:0xb7948f2d19b4b077
restaurant,Rumah wisata,Dorey Homestay,"Mansuar Island, Meos Mansar, Kabupaten Raja Ampat, Papua Bar. 98472","Meos Mansar, Kabupaten Raja Ampat",PAPUA BARAT,98472.0,Indonesia,82199293152.0,-0.5685574,130.6505566,https://maps.google.com/?cid=0x0:0xcabae3058513a4e9
restaurant,restaurant,Yendebabo Homestay,"Pulau Gam, Raja Ampat, Yenwaoupnor, Meos Mansar, Raja Ampat Regency, West Papua 98482","Raja Ampat, Yenwaoupnor, Meos Mansar, Raja Ampat Regency",PAPUA BARAT,98482.0,Indonesia,,-0.4967161,130.6686036,https://maps.google.com/?cid=0x0:0x31a6479425a2ef1a
restaurant,Bandara,Bandar Udara Domine Eduard Osok (SOQ),"Dominique eduard osok, Remu Sel., Kecamatan Sorong Manoi, Kota Sorong, Papua Bar. 98416","Remu Sel., Kecamatan Sorong Manoi, Kota Sorong",PAPUA BARAT,98416.0,Indonesia,,-0.8908276,131.2910514,https://maps.google.com/?cid=0x0:0x93633104c320d952
restaurant,restaurant,Raja4Divers,"Pulau Pef, Kampung Kabui, Distrik Meos Mansar, Raja Ampat, Kapisawar Meos Mansar Kapisawar Meos Mansar Kapisawar Meos Mansar, Kapisawar, Meos Mansar, Kabupaten Raja Ampat, Papua Bar. 98482","Kampung Kabui, Distrik Meos Mansar, Raja Ampat, Kapisawar Meos Mansar Kapisawar Meos Mansar Kapisawar Meos Mansar, Kapisawar, Meos Mansar, Kabupaten Raja Ampat",PAPUA BARAT,98482.0,Indonesia,8114857711.0,-0.440709,130.4403583,https://maps.google.com/?cid=0x0:0x615bf0dab83bdfa7
restaurant,restaurant,Yeben,"Arborek, Meos Mansar, Kabupaten Raja Ampat, Papua Bar.","Kabupaten Raja Ampat, Papua Bar.",PAPUA BARAT,,Indonesia,,-0.4855556,130.3483333,https://maps.google.com/?cid=0x0:0x870e58ed9b11895
restaurant,restaurant,Paparisa Homestay,"Pulau Mansuar Kecil (Kri, Yenbuba, Meos Mansuar, Raja Ampat regency, Meos Mansar, Mansuar, Papua Bar.","Mansuar, Papua Bar.",PAPUA BARAT,,Indonesia,82114023634.0,-0.5582531,130.6741482,https://maps.google.com/?cid=0x0:0x9e68a8953ed83670
restaurant,restaurant,Nyandesner Homestay,"CJ92+H87 Pulau Mansuar, Kurkapa, Meos Mansar, Kabupaten Raja Ampat, Papua Bar.","Kabupaten Raja Ampat, Papua Bar.",PAPUA BARAT,,Indonesia,,-0.5810835,130.6007936,https://maps.google.com/?cid=0x0:0x65b36e3b4b27ee83
restaurant,restaurant,Distrik Misool,"Kabupaten Raja Ampat, Papua Bar.","Kabupaten Raja Ampat, Papua Bar.",PAPUA BARAT,,Indonesia,,-1.7294753,130.076264,https://maps.google.com/?cid=0x0:0xe3dfedd20bce543c
restaurant,restaurant,Misool Eco Resort,"Yellu, Misool Sel., Kabupaten Raja Ampat, Papua Bar. 98483","Misool Sel., Kabupaten Raja Ampat",PAPUA BARAT,98483.0,Indonesia,,-2.244373,130.5557219,https://maps.google.com/?cid=0x0:0xcec0c32ec4b9f857
restaurant,restaurant,Fiabacet,"Yellu, Misool Sel., Kabupaten Raja Ampat, Papua Bar.","Kabupaten Raja Ampat, Papua Bar.",PAPUA BARAT,,Indonesia,,-2.2211111,130.5516667,https://maps.google.com/?cid=0x0:0xdea3f07a56ccf400
restaurant,restaurant,Distrik Misool Barat,"Kabupaten Raja Ampat, Papua Bar.","Kabupaten Raja Ampat, Papua Bar.",PAPUA BARAT,,Indonesia,,-2.0480936,130.2709743,https://maps.google.com/?cid=0x0:0xfc668800a318e464
restaurant,restaurant,Misool Eco Resort,"Yellu, Misool Sel., Kabupaten Raja Ampat, Papua Bar. 98483","Misool Sel., Kabupaten Raja Ampat",PAPUA BARAT,98483.0,Indonesia,,-2.244373,130.5557219,https://maps.google.com/?cid=0x0:0xcec0c32ec4b9f857
restaurant,restaurant,Fiabacet,"Yellu, Misool Sel., Kabupaten Raja Ampat, Papua Bar.","Kabupaten Raja Ampat, Papua Bar.",PAPUA BARAT,,Indonesia,,-2.2211111,130.5516667,https://maps.google.com/?cid=0x0:0xdea3f07a56ccf400
restaurant,restaurant,Misool Sel.,"Kabupaten Raja Ampat, Papua Bar.","Kabupaten Raja Ampat, Papua Bar.",PAPUA BARAT,,Indonesia,,-1.959546,130.3190719,https://maps.google.com/?cid=0x0:0x772018b3157aa95b
restaurant,restaurant,Warung Amanda,"WCV6+3QM, Yellu, Misool Sel., Kabupaten Raja Ampat, Papua Bar. 98483","Yellu, Misool Sel., Kabupaten Raja Ampat",PAPUA BARAT,98483.0,Indonesia,,-2.0572356,130.4119107,https://maps.google.com/?cid=0x0:0x2af929f3115aa8e9
restaurant,restaurant,Misool Eco Resort,"Yellu, Misool Sel., Kabupaten Raja Ampat, Papua Bar. 98483","Misool Sel., Kabupaten Raja Ampat",PAPUA BARAT,98483.0,Indonesia,,-2.244373,130.5557219,https://maps.google.com/?cid=0x0:0xcec0c32ec4b9f857
restaurant,restaurant,Distrik Misool Timur,"Kabupaten Raja Ampat, Papua Bar.","Kabupaten Raja Ampat, Papua Bar.",PAPUA BARAT,,Indonesia,,-1.7731765,130.4105659,https://maps.google.com/?cid=0x0:0x37397a27849d25ed
restaurant,restaurant,Misool Eco Resort,"Yellu, Misool Sel., Kabupaten Raja Ampat, Papua Bar. 98483","Misool Sel., Kabupaten Raja Ampat",PAPUA BARAT,98483.0,Indonesia,,-2.244373,130.5557219,https://maps.google.com/?cid=0x0:0xcec0c32ec4b9f857
restaurant,restaurant,Fiabacet,"Yellu, Misool Sel., Kabupaten Raja Ampat, Papua Bar.","Kabupaten Raja Ampat, Papua Bar.",PAPUA BARAT,,Indonesia,,-2.2211111,130.5516667,https://maps.google.com/?cid=0x0:0xdea3f07a56ccf400
restaurant,restaurant,Warung Amanda,"WCV6+3QM, Yellu, Misool Sel., Kabupaten Raja Ampat, Papua Bar. 98483","Yellu, Misool Sel., Kabupaten Raja Ampat",PAPUA BARAT,98483.0,Indonesia,,-2.0572356,130.4119107,https://maps.google.com/?cid=0x0:0x2af929f3115aa8e9
restaurant,restaurant,HOMESTAY YALAPALE,"Harapan Jaya, Misool Sel., Kabupaten Raja Ampat, Papua Bar. 98483","Misool Sel., Kabupaten Raja Ampat",PAPUA BARAT,98483.0,Indonesia,82266141227.0,-2.0058693,130.4159728,https://maps.google.com/?cid=0x0:0x1100058e63cc3a9d
restaurant,restaurant,Nut Tonton Homestay,"Usaha Jaya, Distrik Misool Timur, Kabupaten Raja Ampat, Papua Bar. 98483","Distrik Misool Timur, Kabupaten Raja Ampat",PAPUA BARAT,98483.0,Indonesia,85234653800.0,-1.9764409,130.5280599,https://maps.google.com/?cid=0x0:0x2d6703a8bc5fc1c6
restaurant,Pondok,Yapap Homestay,"Kampung Usaha Jaya, Misool Sel., Kabupaten Raja Ampat, Papua Bar. 98483","Misool Sel., Kabupaten Raja Ampat",PAPUA BARAT,98483.0,Indonesia,82191217966.0,-1.9674038,130.4878592,https://maps.google.com/?cid=0x0:0xb83766ef64c5e904
restaurant,restaurant,Harfat Jaya Homestay,"Pulau Yapen, Misool, Raja Ampat, Harapan Jaya, South Misool, West Papua 98483","Misool, Raja Ampat, Harapan Jaya, South Misool",PAPUA BARAT,98483.0,Indonesia,,-2.042377,130.408404,https://maps.google.com/?cid=0x0:0xe23d86561276d4f7
restaurant,Hidangan Laut,makanan laut misool,"perumahan 100, Waisai, Distrik Kota Waisai, Kabupaten Raja Ampat, Papua Bar. 98475","Waisai, Distrik Kota Waisai, Kabupaten Raja Ampat",PAPUA BARAT,98475.0,Indonesia,81354044004.0,-0.4140414,130.8204436,https://maps.google.com/?cid=0x0:0xd9e8d40761992f7d
restaurant,Biro Wisata Bawah Laut,Homestay Benyomat,"Yellu, Misool Sel., Kabupaten Raja Ampat, Papua Bar. 98483","Misool Sel., Kabupaten Raja Ampat",PAPUA BARAT,98483.0,Indonesia,,-2.0534549,130.4266291,https://maps.google.com/?cid=0x0:0xf7096fba46ac56d
restaurant,restaurant,Nut Tonton Homes,"Usaha Jaya, Distrik Misool Timur, Kabupaten Raja Ampat, Papua Bar. 98486","Distrik Misool Timur, Kabupaten Raja Ampat",PAPUA BARAT,98486.0,Indonesia,85245424220.0,-1.9756333,130.5282393,https://maps.google.com/?cid=0x0:0xa55b503ccdb7aab0
restaurant,restaurant,Distrik Salawati Barat,"Kabupaten Raja Ampat, Papua Bar.","Kabupaten Raja Ampat, Papua Bar.",PAPUA BARAT,,Indonesia,,-1.0980561,130.7040528,https://maps.google.com/?cid=0x0:0x6c8554c61c1a5f51
restaurant,Restoran,Warung Cahaya Bone Waisai Raja Ampat,"HRF9+PRM, Jl. Salawati, Waisai, Waigeo Selatan, Waisai, Distrik Kota Waisai, Kabupaten Raja Ampat, Papua Bar. 98482","Jl. Salawati, Waisai, Waigeo Selatan, Waisai, Distrik Kota Waisai, Kabupaten Raja Ampat",PAPUA BARAT,98482.0,Indonesia,82147416237.0,-0.425672,130.8195551,https://maps.google.com/?cid=0x0:0x21f947d718ca4449
restaurant,Padang,Rumah Makan Rizky,"WV5H+94X, Kapatlap, Kec. Salawati Utara, Kabupaten Raja Ampat, Papua Bar. 98484","Kapatlap, Kec. Salawati Utara, Kabupaten Raja Ampat",PAPUA BARAT,98484.0,Indonesia,81248407477.0,-1.0915151,130.8778586,https://maps.google.com/?cid=0x0:0xc61437de63e508d5
restaurant,Restoran,Rumah Makan Sederhana,"HRGC+78W, Kota Bar., Waisai, Kec. Waigeo Sel., Kabupaten Raja Ampat, Papua Bar. 98482","Kota Bar., Waisai, Kec. Waigeo Sel., Kabupaten Raja Ampat",PAPUA BARAT,98482.0,Indonesia,85243008088.0,-0.4242691,130.8208371,https://maps.google.com/?cid=0x0:0xe8a6e7312eb22ec8
restaurant,Tujuan Wisata,Patung Yesus Sagawin,"3J6Q+27F, Pulau Sagawin, Salawati Utara, Kaliam, Distrik Salawati Barat, Kabupaten Raja Ampat, Papua Bar. 98484","Pulau Sagawin, Salawati Utara, Kaliam, Distrik Salawati Barat, Kabupaten Raja Ampat",PAPUA BARAT,98484.0,Indonesia,,-0.939948,130.6381615,https://maps.google.com/?cid=0x0:0x6b347c54165559e9
restaurant,Padang,RM Saiyo,"Jalan Puncak Jl. Arfak No.33, Kampung Baru, Sorong, Sorong City, West Papua 98714","Kampung Baru, Sorong, Sorong City",PAPUA BARAT,98714.0,Indonesia,9513176819.0,-0.8722871,131.2494028,https://maps.google.com/?cid=0x0:0xa72e3c81ec01e526
restaurant,restaurant,Salawati Tengah,"Kabupaten Raja Ampat, Papua Bar.","Kabupaten Raja Ampat, Papua Bar.",PAPUA BARAT,,Indonesia,,-1.0547794,131.0589536,https://maps.google.com/?cid=0x0:0x9e15ae7888c4541f
restaurant,Nasi,Artikulasi Resto  Cafe,"V778+6M8, Majaran, Kec. Salawati, Kabupaten Sorong, Papua Bar. 98451","Majaran, Kec. Salawati, Kabupaten Sorong",PAPUA BARAT,98451.0,Indonesia,,-1.1372737,131.2659227,https://maps.google.com/?cid=0x0:0x1d92cc3ea92a6e6c
restaurant,Restoran,Warung Budhe,"V799+PC7, Unnamed Road, Majaran, Kec. Salawati, Kabupaten Sorong, Papua Bar. 98451","Unnamed Road, Majaran, Kec. Salawati, Kabupaten Sorong",PAPUA BARAT,98451.0,Indonesia,,-1.1307155,131.2685434,https://maps.google.com/?cid=0x0:0xa5a6e8eb16e8ecf9
restaurant,restaurant,PENGINAPAN TERSANJUNG,"W3XG+845, Sakabu, Salawati Tengah, Kabupaten Raja Ampat, Papua Bar. 98484","Sakabu, Salawati Tengah, Kabupaten Raja Ampat",PAPUA BARAT,98484.0,Indonesia,,-1.0520193,131.0755416,https://maps.google.com/?cid=0x0:0xa48f8ce269cf90a6
restaurant,Kafe,Warung SATRIO,"V7FC+QR7, Unnamed Road, Majaran, Kec. Salawati, Kabupaten Sorong, Papua Bar. 98451","Unnamed Road, Majaran, Kec. Salawati, Kabupaten Sorong",PAPUA BARAT,98451.0,Indonesia,,-1.125581,131.272055,https://maps.google.com/?cid=0x0:0xb9fc44df58874961
restaurant,Restoran,Kios Lilis,"V7FF+8V8, Majaran, Kec. Salawati, Kabupaten Sorong, Papua Bar. 98451","Majaran, Kec. Salawati, Kabupaten Sorong",PAPUA BARAT,98451.0,Indonesia,,-1.1267905,131.2749276,https://maps.google.com/?cid=0x0:0x90fef149bb725629
restaurant,Restoran,Warung Sederhana (mbak Kris),"Majaran, Kec. Salawati, Kabupaten Sorong, Papua Bar. 98451","Kec. Salawati, Kabupaten Sorong",PAPUA BARAT,98451.0,Indonesia,82234782707.0,-1.1363871,131.2667665,https://maps.google.com/?cid=0x0:0x7a042c0d833815c9
restaurant,Pizza,Pizzeria Terrazza di Sorong,"Behind SKKMIGAS, dibelakang SKKMIGAS, Jl. Arfak, Kp. Baru, Kota Sorong, Papua Bar. 98414","dibelakang SKKMIGAS, Jl. Arfak, Kp. Baru, Kota Sorong",PAPUA BARAT,98414.0,Indonesia,81356867669.0,-0.8737438,131.25222,https://maps.google.com/?cid=0x0:0xf46c05068677dc1
restaurant,Restoran,Warung Makasar sunda,"Jalan salawati, Majaran, Kec. Salawati, Kabupaten Sorong, Papua Bar. 98423","Majaran, Kec. Salawati, Kabupaten Sorong",PAPUA BARAT,98423.0,Indonesia,81240597089.0,-1.1283211,131.269754,https://maps.google.com/?cid=0x0:0x55502a0b48236933
restaurant,Restoran,Warung lia,"V758+737, Jalan poros, Majener, Kec. Salawati, Kabupaten Sorong, Papua Bar. 98451","Jalan poros, Majener, Kec. Salawati, Kabupaten Sorong",PAPUA BARAT,98451.0,Indonesia,81248128232.0,-1.1418283,131.2651869,https://maps.google.com/?cid=0x0:0x9ed3114671f0fd9d
restaurant,Restoran,Warung makan bagadang bunda lin,"V7C9+JVX, Majaran, Kec. Salawati, Kabupaten Sorong, Papua Bar. 98451","Majaran, Kec. Salawati, Kabupaten Sorong",PAPUA BARAT,98451.0,Indonesia,81240597089.0,-1.1283927,131.2697306,https://maps.google.com/?cid=0x0:0x7cd15ed82629eb6c
restaurant,Hidangan Laut,Republik Seafood,"Sawagumu, Kec. Sorong Utara, Kota Sorong, Papua Bar. 98412","Kec. Sorong Utara, Kota Sorong",PAPUA BARAT,98412.0,Indonesia,81344615005.0,-0.8883945,131.3109228,https://maps.google.com/?cid=0x0:0xec5acb934a352d67
restaurant,Restoran,Warung TERANG BULAN SATRIO,"V7C9+VXF, Majaran, Kec. Salawati, Kabupaten Sorong, Papua Bar. 98451","Majaran, Kec. Salawati, Kabupaten Sorong",PAPUA BARAT,98451.0,Indonesia,85244702232.0,-1.1278105,131.2699283,https://maps.google.com/?cid=0x0:0x5c08d40721038f53
restaurant,Indonesia,The Sky Cafe Reborn,"479F+3XR, Jl. Ahmad Yani No.1, Klademak, Distrik Sorong, Kota Sorong, Papua Bar. 98412","Jl. Ahmad Yani No.1, Klademak, Distrik Sorong, Kota Sorong",PAPUA BARAT,98412.0,Indonesia,,-0.8822653,131.2745998,https://maps.google.com/?cid=0x0:0xd87864ab702db251
restaurant,restaurant,Pulau Salawati,"Kapatlap, Kec. Salawati Utara, Kabupaten Raja Ampat, Papua Bar.","Kabupaten Raja Ampat, Papua Bar.",PAPUA BARAT,,Indonesia,,-1.1166667,130.8666667,https://maps.google.com/?cid=0x0:0x3403a680ccd12b11
restaurant,Prasmanan,Rumah Makan PONDOK LESEHAN,"Jl. Jend. Sudirman, Waisai, Distrik Kota Waisai, Kabupaten Raja Ampat, Papua Bar. 98482","Waisai, Distrik Kota Waisai, Kabupaten Raja Ampat",PAPUA BARAT,98482.0,Indonesia,85247254732.0,-0.4209643,130.8223871,https://maps.google.com/?cid=0x0:0x415fb51c42ef63e4
restaurant,restaurant,Raja Ampat Pariwisata,"WV5H+94X, Kapatlap, Kec. Salawati Utara, Kabupaten Raja Ampat, Papua Bar. 98484","Kapatlap, Kec. Salawati Utara, Kabupaten Raja Ampat",PAPUA BARAT,98484.0,Indonesia,,-1.0915151,130.8778586,https://maps.google.com/?cid=0x0:0x7d090f1b13de3c44
restaurant,Restoran,Warung Cahaya Bone Waisai Raja Ampat,"HRF9+PRM, Jl. Salawati, Waisai, Waigeo Selatan, Waisai, Distrik Kota Waisai, Kabupaten Raja Ampat, Papua Bar. 98482","Jl. Salawati, Waisai, Waigeo Selatan, Waisai, Distrik Kota Waisai, Kabupaten Raja Ampat",PAPUA BARAT,98482.0,Indonesia,82147416237.0,-0.425672,130.8195551,https://maps.google.com/?cid=0x0:0x21f947d718ca4449
restaurant,Bakso,BAKSO BEJO,"HRJF+HCP, Waisai, Kec. Waigeo Sel., Kabupaten Raja Ampat, Papua Bar. 98482","Waisai, Kec. Waigeo Sel., Kabupaten Raja Ampat",PAPUA BARAT,98482.0,Indonesia,81354172829.0,-0.4185265,130.8235877,https://maps.google.com/?cid=0x0:0x3b389d6223d7b5c7
restaurant,Restoran,Tsamara Resto,"Jl. Raya Hankam No.69, RT.003/RW.005, Jatiranggon, Kec. Jatisampurna, Kota Bks, Jawa Barat 17432","RT.003/RW.005, Jatiranggon, Kec. Jatisampurna, Kota Bks",PAPUA BARAT,17432.0,Indonesia,2184310669.0,-6.3414024,106.923052,https://maps.google.com/?cid=0x0:0xff9e75d4d1376249
restaurant,Sesuai untuk keluarga,Tsamara,"Jl. Raya Kranggan No.1, RT.003/RW.005, Jatiranggon, Kec. Jatisampurna, Kota Bks, Jawa Barat 17432","RT.003/RW.005, Jatiranggon, Kec. Jatisampurna, Kota Bks",PAPUA BARAT,17432.0,Indonesia,,-6.342051,106.9229514,https://maps.google.com/?cid=0x0:0x912c22b749b276bc
restaurant,restaurant,,,,PAPUA BARAT,,Indonesia,,,,https://maps.google.com/?cid=0x0:0xff9e75d4d1376249u0026onu003dGurame+Terbangu0026midu003d/g/11b6c_rvqx
restaurant,restaurant,,,,PAPUA BARAT,,Indonesia,,,,https://maps.google.com/?cid=0x0:0xff9e75d4d1376249u0026onu003dGurame+Asam+Manisu0026midu003d/g/11b6c_rvqx
restaurant,restaurant,,,,PAPUA BARAT,,Indonesia,,,,https://maps.google.com/?cid=0x0:0xff9e75d4d1376249u0026onu003dTumis+Kangkung+Polosu0026midu003d/g/11b6c_rvqx
restaurant,restaurant,,,,PAPUA BARAT,,Indonesia,,,,https://maps.google.com/?cid=0x0:0xff9e75d4d1376249u0026onu003dNasi+Goreng+Ikan+Asinu0026midu003d/g/11b6c_rvqx
restaurant,restaurant,,,,PAPUA BARAT,,Indonesia,,,,https://maps.google.com/?cid=0x0:0xff9e75d4d1376249u0026onu003dNasi+Kecombrangu0026midu003d/g/11b6c_rvqx
restaurant,restaurant,,,,PAPUA BARAT,,Indonesia,,,,https://maps.google.com/?cid=0x0:0xff9e75d4d1376249u0026onu003dTakeu0026midu003d/g/11b6c_rvqx
restaurant,restaurant,,,,PAPUA BARAT,,Indonesia,,,,https://maps.google.com/?cid=0x0:0xff9e75d4d1376249u0026onu003dPaket+Ber+4u0026midu003d/g/11b6c_rvqx
restaurant,Restoran,Inggandi Beach Restaurant,"43GV+7Q3, Jl. Pasir Putih No.33, Pasir Putih, Kec. Manokwari Tim., Kabupaten Manokwari, Papua Bar. 98313","Jl. Pasir Putih No.33, Pasir Putih, Kec. Manokwari Tim., Kabupaten Manokwari",PAPUA BARAT,98313.0,Indonesia,81240372255.0,-0.8780927,134.0933631,https://maps.google.com/?cid=0x0:0xba66c7a3124731e6
restaurant,Restoran,Billy Cafe,"Jl. Merdeka No.57, Padarni, Kec. Manokwari Bar., Kabupaten Manokwari, Papua Bar. 98312","Padarni, Kec. Manokwari Bar., Kabupaten Manokwari",PAPUA BARAT,98312.0,Indonesia,81240501959.0,-0.8596376,134.0734046,https://maps.google.com/?cid=0x0:0x245b68c7c99f326f
restaurant,restaurant,,,,PAPUA BARAT,,Indonesia,,,,https://maps.google.com/?cid=0x0:0xba66c7a3124731e6u0026onu003dPapedau0026midu003d/g/11cjnncbf3
restaurant,restaurant,,,,PAPUA BARAT,,Indonesia,,,,https://maps.google.com/?cid=0x0:0xba66c7a3124731e6u0026onu003dJeruk+Hangatu0026midu003d/g/11cjnncbf3
restaurant,restaurant,,,,PAPUA BARAT,,Indonesia,,,,https://maps.google.com/?cid=0x0:0xba66c7a3124731e6u0026onu003dMenu+Lengkapu0026midu003d/g/11cjnncbf3
restaurant,restaurant,,,,PAPUA BARAT,,Indonesia,,,,https://maps.google.com/?cid=0x0:0xba66c7a3124731e6u0026onu003dEs+Campuru0026midu003d/g/11cjnncbf3
restaurant,restaurant,,,,PAPUA BARAT,,Indonesia,,,,https://maps.google.com/?cid=0x0:0xba66c7a3124731e6u0026onu003dKakap+Asam+Manisu0026midu003d/g/11cjnncbf3
restaurant,restaurant,,,,PAPUA BARAT,,Indonesia,,,,https://maps.google.com/?cid=0x0:0xba66c7a3124731e6u0026onu003dKepiting+Saus+Padangu0026midu003d/g/11cjnncbf3
restaurant,restaurant,,,,PAPUA BARAT,,Indonesia,,,,https://maps.google.com/?cid=0x0:0xba66c7a3124731e6u0026onu003dSate+Garou0026midu003d/g/11cjnncbf3
restaurant,restaurant,,,,PAPUA BARAT,,Indonesia,,,,https://maps.google.com/?cid=0x0:0xba66c7a3124731e6u0026onu003dTahu+Spesial+Inggandiu0026midu003d/g/11cjnncbf3
restaurant,restaurant,,,,PAPUA BARAT,,Indonesia,,,,https://maps.google.com/?cid=0x0:0xba66c7a3124731e6u0026onu003dTom+Yum+Soupu0026midu003d/g/11cjnncbf3
restaurant,restaurant,,,,PAPUA BARAT,,Indonesia,,,,https://maps.google.com/?cid=0x0:0xba66c7a3124731e6u0026onu003dUdang+Goreng+Mayonnaiseu0026midu003d/g/11cjnncbf3
restaurant,restaurant,,,,PAPUA BARAT,,Indonesia,,,,https://maps.google.com/?cid=0x0:0xba66c7a3124731e6u0026onu003dKwetiau+Gorengu0026midu003d/g/11cjnncbf3
restaurant,restaurant,,,,PAPUA BARAT,,Indonesia,,,,https://maps.google.com/?cid=0x0:0xba66c7a3124731e6u0026onu003dRamesu0026midu003d/g/11cjnncbf3
restaurant,restaurant,Kec. Tlk. Mayalibit,"Kabupaten Raja Ampat, Papua Bar.","Kabupaten Raja Ampat, Papua Bar.",PAPUA BARAT,,Indonesia,,-0.2689344,130.9384914,https://maps.google.com/?cid=0x0:0xae388a762cdfd0ec
restaurant,Guest house,Logbond Cozy Resto  Bakery Waisai,"Marinda Road, Waisai, Distrik Kota Waisai, Kabupaten Raja Ampat, Papua Bar. 98482","Waisai, Distrik Kota Waisai, Kabupaten Raja Ampat",PAPUA BARAT,98482.0,Indonesia,82397025299.0,-0.4288534,130.8034909,https://maps.google.com/?cid=0x0:0x5d186281f60039c6
restaurant,restaurant,"The Jeti Mangrove - Kalibiru/Blue River, Ecolodge, Restaurant  Cottage","MWHC+4GF, Warsamdim, Distrik Kota Waisai, Kabupaten Raja Ampat, Papua Bar. 98482","Warsamdim, Distrik Kota Waisai, Kabupaten Raja Ampat",PAPUA BARAT,98482.0,Indonesia,,-0.3221776,130.9212987,https://maps.google.com/?cid=0x0:0x1fcf34299d7a509d
restaurant,Prasmanan,Rumah Makan PONDOK LESEHAN,"Jl. Jend. Sudirman, Waisai, Distrik Kota Waisai, Kabupaten Raja Ampat, Papua Bar. 98482","Waisai, Distrik Kota Waisai, Kabupaten Raja Ampat",PAPUA BARAT,98482.0,Indonesia,85247254732.0,-0.4209643,130.8223871,https://maps.google.com/?cid=0x0:0x415fb51c42ef63e4
restaurant,Ikan Bakar,Cafe dava,"pantai wtc, Waisai, Distrik Kota Waisai, Kabupaten Raja Ampat, Papua Bar. 98482","Waisai, Distrik Kota Waisai, Kabupaten Raja Ampat",PAPUA BARAT,98482.0,Indonesia,8114852011.0,-0.4272783,130.8214338,https://maps.google.com/?cid=0x0:0x320f1aab782ecce2
restaurant,Nasi,DAPUR ABYAN,"HRPF+R9V, Jl. Barakuda, Waisai, Distrik Kota Waisai, Kabupaten Raja Ampat, Papua Bar. 98482","Jl. Barakuda, Waisai, Distrik Kota Waisai, Kabupaten Raja Ampat",PAPUA BARAT,98482.0,Indonesia,81337151547.0,-0.412894,130.8234272,https://maps.google.com/?cid=0x0:0x64d0e3600d4c59ed
restaurant,Nasi,Murah Risky,"HRPF+JQF, Waisai, Kec. Waigeo Sel., Kabupaten Raja Ampat, Papua Bar. 98482","Waisai, Kec. Waigeo Sel., Kabupaten Raja Ampat",PAPUA BARAT,98482.0,Indonesia,82197466189.0,-0.4134473,130.8244363,https://maps.google.com/?cid=0x0:0xf878d6e895e3aa4e
restaurant,Hidangan Laut,Rumah Makan Jakarta,"HRFC+PGW, Waisai, Distrik Kota Waisai, Kabupaten Raja Ampat, Papua Bar. 98482","Waisai, Distrik Kota Waisai, Kabupaten Raja Ampat",PAPUA BARAT,98482.0,Indonesia,81247950488.0,-0.4256257,130.8213411,https://maps.google.com/?cid=0x0:0x54eb2c60687e8533
restaurant,Restoran,Prasmanan LA Raja Ampat,"HRCC+X94, Waisai, Distrik Kota Waisai, Kabupaten Raja Ampat, Papua Bar. 98482","Waisai, Distrik Kota Waisai, Kabupaten Raja Ampat",PAPUA BARAT,98482.0,Indonesia,8124857778.0,-0.4276101,130.8209625,https://maps.google.com/?cid=0x0:0x48669c05f9d1f679
restaurant,Restoran,Warung Cahaya Bone Waisai Raja Ampat,"HRF9+PRM, Jl. Salawati, Waisai, Waigeo Selatan, Waisai, Distrik Kota Waisai, Kabupaten Raja Ampat, Papua Bar. 98482","Jl. Salawati, Waisai, Waigeo Selatan, Waisai, Distrik Kota Waisai, Kabupaten Raja Ampat",PAPUA BARAT,98482.0,Indonesia,82147416237.0,-0.425672,130.8195551,https://maps.google.com/?cid=0x0:0x21f947d718ca4449
restaurant,Restoran,Rumah Makan Srikandi,"HRF9+PPG, Jl. Salawati, Waisai, Distrik Kota Waisai, Kabupaten Raja Ampat, Papua Bar. 98482","Jl. Salawati, Waisai, Distrik Kota Waisai, Kabupaten Raja Ampat",PAPUA BARAT,98482.0,Indonesia,,-0.4256879,130.8193337,https://maps.google.com/?cid=0x0:0xc41183e14f09bc46
restaurant,Restoran,Rumah Makan Firkha,"HRQ8+Q5H, Unnamed Road, Sel, Waisai, Waigeo Selatan, Raja Ampat Regency, West Papua 98482","Unnamed Road, Sel, Waisai, Waigeo Selatan, Raja Ampat Regency",PAPUA BARAT,98482.0,Indonesia,81248958330.0,-0.4105585,130.8154948,https://maps.google.com/?cid=0x0:0x343296861e6e6914
restaurant,Restoran,RM Gamalama,"HRHC+4WW, Waisai, Distrik Kota Waisai, Kabupaten Raja Ampat, Papua Bar. 98482","Waisai, Distrik Kota Waisai, Kabupaten Raja Ampat",PAPUA BARAT,98482.0,Indonesia,82198486242.0,-0.4221273,130.8223294,https://maps.google.com/?cid=0x0:0x40e92517f14d65d4
restaurant,Dapur Umum,Rumah Chii Annu,"HRJF+4JF, Jl. Lukas Dailon, Waisai, Distrik Kota Waisai, Kabupaten Raja Ampat, Papua Bar. 98482","Jl. Lukas Dailon, Waisai, Distrik Kota Waisai, Kabupaten Raja Ampat",PAPUA BARAT,98482.0,Indonesia,81343050822.0,-0.4196805,130.8240651,https://maps.google.com/?cid=0x0:0x688868b4fd73dd7b
restaurant,restaurant,Distrik Tiplol Mayalibit,"Kabupaten Raja Ampat, Papua Bar.","Kabupaten Raja Ampat, Papua Bar.",PAPUA BARAT,,Indonesia,,-0.078691,130.6642772,https://maps.google.com/?cid=0x0:0xd2fca4629b110358
restaurant,Prasmanan,Rumah Makan PONDOK LESEHAN,"Jl. Jend. Sudirman, Waisai, Distrik Kota Waisai, Kabupaten Raja Ampat, Papua Bar. 98482","Waisai, Distrik Kota Waisai, Kabupaten Raja Ampat",PAPUA BARAT,98482.0,Indonesia,85247254732.0,-0.4209643,130.8223871,https://maps.google.com/?cid=0x0:0x415fb51c42ef63e4
restaurant,restaurant,"The Jeti Mangrove - Kalibiru/Blue River, Ecolodge, Restaurant  Cottage","MWHC+4GF, Warsamdim, Distrik Kota Waisai, Kabupaten Raja Ampat, Papua Bar. 98482","Warsamdim, Distrik Kota Waisai, Kabupaten Raja Ampat",PAPUA BARAT,98482.0,Indonesia,,-0.3221776,130.9212987,https://maps.google.com/?cid=0x0:0x1fcf34299d7a509d
restaurant,Restoran,Rumah Makan Sederhana,"HRGC+78W, Kota Bar., Waisai, Kec. Waigeo Sel., Kabupaten Raja Ampat, Papua Bar. 98482","Kota Bar., Waisai, Kec. Waigeo Sel., Kabupaten Raja Ampat",PAPUA BARAT,98482.0,Indonesia,85243008088.0,-0.4242691,130.8208371,https://maps.google.com/?cid=0x0:0xe8a6e7312eb22ec8
restaurant,Restoran,Warung Cahaya Bone Waisai Raja Ampat,"HRF9+PRM, Jl. Salawati, Waisai, Waigeo Selatan, Waisai, Distrik Kota Waisai, Kabupaten Raja Ampat, Papua Bar. 98482","Jl. Salawati, Waisai, Waigeo Selatan, Waisai, Distrik Kota Waisai, Kabupaten Raja Ampat",PAPUA BARAT,98482.0,Indonesia,82147416237.0,-0.425672,130.8195551,https://maps.google.com/?cid=0x0:0x21f947d718ca4449
restaurant,Bakso,BAKSO BEJO,"HRJF+HCP, Waisai, Kec. Waigeo Sel., Kabupaten Raja Ampat, Papua Bar. 98482","Waisai, Kec. Waigeo Sel., Kabupaten Raja Ampat",PAPUA BARAT,98482.0,Indonesia,81354172829.0,-0.4185265,130.8235877,https://maps.google.com/?cid=0x0:0x3b389d6223d7b5c7
restaurant,Ikan Bakar,Warung Ikan Bakar 46,"Jl. Fundar Sakela, Waisai, Distrik Kota Waisai, Kabupaten Raja Ampat, Papua Bar. 98482","Waisai, Distrik Kota Waisai, Kabupaten Raja Ampat",PAPUA BARAT,98482.0,Indonesia,,-0.4239846,130.820455,https://maps.google.com/?cid=0x0:0x44c002cc936156dc
restaurant,restaurant,Kec. Waigeo Bar.,"Kabupaten Raja Ampat, Papua Bar.","Kabupaten Raja Ampat, Papua Bar.",PAPUA BARAT,,Indonesia,,-0.1565367,130.4516329,https://maps.google.com/?cid=0x0:0xa968725bc286475b
restaurant,Guest house,Logbond Cozy Resto  Bakery Waisai,"Marinda Road, Waisai, Distrik Kota Waisai, Kabupaten Raja Ampat, Papua Bar. 98482","Waisai, Distrik Kota Waisai, Kabupaten Raja Ampat",PAPUA BARAT,98482.0,Indonesia,82397025299.0,-0.4288534,130.8034909,https://maps.google.com/?cid=0x0:0x5d186281f60039c6
restaurant,restaurant,Prajas Homestay,"Salio, Pulau Waigeo, Raja Ampat, Waigeo Barat, West Waigeo, West Papua 98481","Pulau Waigeo, Raja Ampat, Waigeo Barat, West Waigeo",PAPUA BARAT,98481.0,Indonesia,,-0.128273,130.288395,https://maps.google.com/?cid=0x0:0x239f7548b5a91f86
restaurant,restaurant,Warung Sido mampir,"HW63+V7V, Gag, Distrik Waigeo Barat Kepulauan, Kabupaten Raja Ampat, Papua Bar. 98481","Gag, Distrik Waigeo Barat Kepulauan, Kabupaten Raja Ampat",PAPUA BARAT,98481.0,Indonesia,,-0.4384144,129.9034355,https://maps.google.com/?cid=0x0:0x6e59d1c91a296123
restaurant,restaurant,Warung makan Sido mampir,"HV3H+59Q, Jln.raya pulau, Gag, Distrik Waigeo Barat Kepulauan, Kabupaten Raja Ampat, Papua Bar. 98481","Jln.raya pulau, Gag, Distrik Waigeo Barat Kepulauan, Kabupaten Raja Ampat",PAPUA BARAT,98481.0,Indonesia,,-0.4470478,129.8784831,https://maps.google.com/?cid=0x0:0xf8d6c89cc6f2ca21
restaurant,Restoran,Rumah Makan Sederhana,"HRGC+78W, Kota Bar., Waisai, Kec. Waigeo Sel., Kabupaten Raja Ampat, Papua Bar. 98482","Kota Bar., Waisai, Kec. Waigeo Sel., Kabupaten Raja Ampat",PAPUA BARAT,98482.0,Indonesia,85243008088.0,-0.4242691,130.8208371,https://maps.google.com/?cid=0x0:0xe8a6e7312eb22ec8
restaurant,restaurant,WARUNG MAKAN BARU WANGI,"HW63+MM, Gag, Distrik Waigeo Barat Kepulauan, Kabupaten Raja Ampat, Papua Bar.","Kabupaten Raja Ampat, Papua Bar.",PAPUA BARAT,,Indonesia,82332959051.0,-0.438322,129.9041506,https://maps.google.com/?cid=0x0:0x8dd197db0c41df50
restaurant,Restoran,Warung Cahaya Bone Waisai Raja Ampat,"HRF9+PRM, Jl. Salawati, Waisai, Waigeo Selatan, Waisai, Distrik Kota Waisai, Kabupaten Raja Ampat, Papua Bar. 98482","Jl. Salawati, Waisai, Waigeo Selatan, Waisai, Distrik Kota Waisai, Kabupaten Raja Ampat",PAPUA BARAT,98482.0,Indonesia,82147416237.0,-0.425672,130.8195551,https://maps.google.com/?cid=0x0:0x21f947d718ca4449
restaurant,Bakso,BAKSO BEJO,"HRJF+HCP, Waisai, Kec. Waigeo Sel., Kabupaten Raja Ampat, Papua Bar. 98482","Waisai, Kec. Waigeo Sel., Kabupaten Raja Ampat",PAPUA BARAT,98482.0,Indonesia,81354172829.0,-0.4185265,130.8235877,https://maps.google.com/?cid=0x0:0x3b389d6223d7b5c7
restaurant,restaurant,Distrik Waigeo Barat Kepulauan,"Kabupaten Raja Ampat, Papua Bar.","Kabupaten Raja Ampat, Papua Bar.",PAPUA BARAT,,Indonesia,,-0.3990489,129.8878154,https://maps.google.com/?cid=0x0:0x2f9f2f03d60aa281
restaurant,restaurant,WARUNG MAKAN BARU WANGI,"HW63+MM, Gag, Distrik Waigeo Barat Kepulauan, Kabupaten Raja Ampat, Papua Bar.","Kabupaten Raja Ampat, Papua Bar.",PAPUA BARAT,,Indonesia,82332959051.0,-0.438322,129.9041506,https://maps.google.com/?cid=0x0:0x8dd197db0c41df50
restaurant,restaurant,Warung Sido mampir,"HW63+V7V, Gag, Distrik Waigeo Barat Kepulauan, Kabupaten Raja Ampat, Papua Bar. 98481","Gag, Distrik Waigeo Barat Kepulauan, Kabupaten Raja Ampat",PAPUA BARAT,98481.0,Indonesia,,-0.4384144,129.9034355,https://maps.google.com/?cid=0x0:0x6e59d1c91a296123
restaurant,restaurant,Kec. Waigeo Sel.,"Kabupaten Raja Ampat, Papua Bar.","Kabupaten Raja Ampat, Papua Bar.",PAPUA BARAT,,Indonesia,,-0.3840807,130.7361322,https://maps.google.com/?cid=0x0:0x2c9db46da776b4
restaurant,Guest house,Logbond Cozy Resto  Bakery Waisai,"Marinda Road, Waisai, Distrik Kota Waisai, Kabupaten Raja Ampat, Papua Bar. 98482","Waisai, Distrik Kota Waisai, Kabupaten Raja Ampat",PAPUA BARAT,98482.0,Indonesia,82397025299.0,-0.4288534,130.8034909,https://maps.google.com/?cid=0x0:0x5d186281f60039c6
restaurant,Restoran,Rumah Makan Sederhana,"HRGC+78W, Kota Bar., Waisai, Kec. Waigeo Sel., Kabupaten Raja Ampat, Papua Bar. 98482","Kota Bar., Waisai, Kec. Waigeo Sel., Kabupaten Raja Ampat",PAPUA BARAT,98482.0,Indonesia,85243008088.0,-0.4242691,130.8208371,https://maps.google.com/?cid=0x0:0xe8a6e7312eb22ec8
restaurant,restaurant,Waigeo Villa,"Waisai, Kec. Waigeo Sel., Kabupaten Raja Ampat, Papua Bar. 98482","Kec. Waigeo Sel., Kabupaten Raja Ampat",PAPUA BARAT,98482.0,Indonesia,81247553799.0,-0.4365115,130.7794821,https://maps.google.com/?cid=0x0:0xd79d1ba9e325d4fc
restaurant,restaurant,Hamueco Raja Ampat Dive Resort,"Wirausaha Building Jl HR Rasuna Said Kav C5 Lantai 3, Jakarta Selatan, DKI Jakarta, 12940",Jakarta Selatan,PAPUA BARAT,12940.0,Indonesia,81392500242.0,-0.441485,130.761647,https://maps.google.com/?cid=0x0:0xf060a049fd72614d
restaurant,restaurant,Korpak Villa and Resort,"HQ6M+RGH, Unnamed Road, Waisai, Distrik Kota Waisai, Kabupaten Raja Ampat, Papua Bar. 98482","Unnamed Road, Waisai, Distrik Kota Waisai, Kabupaten Raja Ampat",PAPUA BARAT,98482.0,Indonesia,,-0.4379467,130.7838521,https://maps.google.com/?cid=0x0:0x7d6048504236c32d
restaurant,restaurant,Vogelkopf Resort,"Waisai, Distrik Kota Waisai, Kabupaten Raja Ampat, Papua Bar. 98482","Distrik Kota Waisai, Kabupaten Raja Ampat",PAPUA BARAT,98482.0,Indonesia,81360001088.0,-0.4385338,130.785262,https://maps.google.com/?cid=0x0:0x132e94aff8281150
restaurant,restaurant,Meridian Adventure Marina Club  Resort Waisai,"Waisai, Distrik Kota Waisai, Kabupaten Raja Ampat, Papua Bar. 98482","Distrik Kota Waisai, Kabupaten Raja Ampat",PAPUA BARAT,98482.0,Indonesia,82248540774.0,-0.4341882,130.8081566,https://maps.google.com/?cid=0x0:0x9355b383d6822caa
restaurant,restaurant,Scuba Republic - Raja Ampat,"Waisai, Kec. Waigeo Sel., Kabupaten Raja Ampat, Papua Bar. 98482","Kec. Waigeo Sel., Kabupaten Raja Ampat",PAPUA BARAT,98482.0,Indonesia,,-0.4418794,130.7532977,https://maps.google.com/?cid=0x0:0xdbbc913713b959f9
restaurant,restaurant,PapuArts Alter Native Stay,"Desa Saporkren, Kec. Waigeo Sel., Kabupaten Raja Ampat, Papua Bar. 98482","Kec. Waigeo Sel., Kabupaten Raja Ampat",PAPUA BARAT,98482.0,Indonesia,81248455887.0,-0.438169,130.7367168,https://maps.google.com/?cid=0x0:0x39f6073cbd5c64d4
restaurant,restaurant,Waiwo Dive Resort  Dive into Raja Ampat,"Jl. Marinda - Waiwo Raja Ampat Papua, Barat, Papua Bar. 98482",Barat,PAPUA BARAT,98482.0,Indonesia,81247912123.0,-0.4364989,130.7783607,https://maps.google.com/?cid=0x0:0xa23d6965a6d740aa
restaurant,restaurant,Raja Ampat Dive Resort,"HP6R+5FJ, Saprokren, Kec. Waigeo Sel., Kabupaten Raja Ampat, Papua Bar. 98482","Saprokren, Kec. Waigeo Sel., Kabupaten Raja Ampat",PAPUA BARAT,98482.0,Indonesia,81248442284.0,-0.4395333,130.7411537,https://maps.google.com/?cid=0x0:0xb0b71cf9f4cc5fbc
restaurant,restaurant,Homestay Sanara,"HP6M+PCM, Kampung saporken, Distrik Kota Waisai, Papua Bar. 98482","Kampung saporken, Distrik Kota Waisai",PAPUA BARAT,98482.0,Indonesia,81344223829.0,-0.4381744,130.7335319,https://maps.google.com/?cid=0x0:0x8ee2c12ff441f06e
restaurant,Hotel Resor,Cape Kri,"CMVR+F5H, Yenbuba, Meos Mansar, Kabupaten Raja Ampat, Papua Bar.","Kabupaten Raja Ampat, Papua Bar.",PAPUA BARAT,,Indonesia,,-0.5563238,130.6904922,https://maps.google.com/?cid=0x0:0x4a2598db75b36835
restaurant,restaurant,Distrik Waigeo Timur,"Kabupaten Raja Ampat, Papua Bar.","Kabupaten Raja Ampat, Papua Bar.",PAPUA BARAT,,Indonesia,,-0.3761806,131.2503597,https://maps.google.com/?cid=0x0:0x9ea83c531b1daa8e
restaurant,Restoran,Rumah Makan Sederhana,"HRGC+78W, Kota Bar., Waisai, Kec. Waigeo Sel., Kabupaten Raja Ampat, Papua Bar. 98482","Kota Bar., Waisai, Kec. Waigeo Sel., Kabupaten Raja Ampat",PAPUA BARAT,98482.0,Indonesia,85243008088.0,-0.4242691,130.8208371,https://maps.google.com/?cid=0x0:0xe8a6e7312eb22ec8
restaurant,Restoran,Warung Cahaya Bone Waisai Raja Ampat,"HRF9+PRM, Jl. Salawati, Waisai, Waigeo Selatan, Waisai, Distrik Kota Waisai, Kabupaten Raja Ampat, Papua Bar. 98482","Jl. Salawati, Waisai, Waigeo Selatan, Waisai, Distrik Kota Waisai, Kabupaten Raja Ampat",PAPUA BARAT,98482.0,Indonesia,82147416237.0,-0.425672,130.8195551,https://maps.google.com/?cid=0x0:0x21f947d718ca4449
restaurant,Restoran,Warung Gea,"HRG9+278, Kota Waisai, Waisai, Kec. Waigeo Sel., Kabupaten Raja Ampat, Papua Bar. 98482","Kota Waisai, Waisai, Kec. Waigeo Sel., Kabupaten Raja Ampat",PAPUA BARAT,98482.0,Indonesia,,-0.4249541,130.8182152,https://maps.google.com/?cid=0x0:0x6a863d07e9a4a949
restaurant,Bakso,BAKSO BEJO,"HRJF+HCP, Waisai, Kec. Waigeo Sel., Kabupaten Raja Ampat, Papua Bar. 98482","Waisai, Kec. Waigeo Sel., Kabupaten Raja Ampat",PAPUA BARAT,98482.0,Indonesia,81354172829.0,-0.4185265,130.8235877,https://maps.google.com/?cid=0x0:0x3b389d6223d7b5c7
restaurant,Prasmanan,Rumah Makan PONDOK LESEHAN,"Jl. Jend. Sudirman, Waisai, Distrik Kota Waisai, Kabupaten Raja Ampat, Papua Bar. 98482","Waisai, Distrik Kota Waisai, Kabupaten Raja Ampat",PAPUA BARAT,98482.0,Indonesia,85247254732.0,-0.4209643,130.8223871,https://maps.google.com/?cid=0x0:0x415fb51c42ef63e4
restaurant,restaurant,Uniq Papua and Restoran,"HRC5+PC9, Waisai, Kec. Waigeo Sel., Kabupaten Raja Ampat, Papua Bar. 98482","Waisai, Kec. Waigeo Sel., Kabupaten Raja Ampat",PAPUA BARAT,98482.0,Indonesia,,-0.4283073,130.8085698,https://maps.google.com/?cid=0x0:0xff4f83482d050cc5
restaurant,Indonesia,Aghina Cafe and Restaurant,"478F+G45, Malabutor, Kecamatan Sorong Manoi, Kota Sorong, Papua Bar. 98412","Malabutor, Kecamatan Sorong Manoi, Kota Sorong",PAPUA BARAT,98412.0,Indonesia,81344840839.0,-0.8837374,131.2728509,https://maps.google.com/?cid=0x0:0x57d56fb0e9f3b322
restaurant,restaurant,Waisai Coffee Shop  The Spices Chicken Restaurant,"Jl. Salawati, Waisai, Kec. Waigeo Sel., Kabupaten Raja Ampat, Papua Bar. 98482","Waisai, Kec. Waigeo Sel., Kabupaten Raja Ampat",PAPUA BARAT,98482.0,Indonesia,81241689825.0,-0.4255407,130.8198557,https://maps.google.com/?cid=0x0:0x6bbf2c06e867f018
restaurant,Ikan Bakar,Warung Ikan Bakar 46,"Jl. Fundar Sakela, Waisai, Distrik Kota Waisai, Kabupaten Raja Ampat, Papua Bar. 98482","Waisai, Distrik Kota Waisai, Kabupaten Raja Ampat",PAPUA BARAT,98482.0,Indonesia,,-0.4239846,130.820455,https://maps.google.com/?cid=0x0:0x44c002cc936156dc
restaurant,Guest house,Logbond Cozy Resto  Bakery Waisai,"Marinda Road, Waisai, Distrik Kota Waisai, Kabupaten Raja Ampat, Papua Bar. 98482","Waisai, Distrik Kota Waisai, Kabupaten Raja Ampat",PAPUA BARAT,98482.0,Indonesia,82397025299.0,-0.4288534,130.8034909,https://maps.google.com/?cid=0x0:0x5d186281f60039c6
restaurant,Ikan Bakar,Cafe dava,"pantai wtc, Waisai, Distrik Kota Waisai, Kabupaten Raja Ampat, Papua Bar. 98482","Waisai, Distrik Kota Waisai, Kabupaten Raja Ampat",PAPUA BARAT,98482.0,Indonesia,8114852011.0,-0.4272783,130.8214338,https://maps.google.com/?cid=0x0:0x320f1aab782ecce2
restaurant,restaurant,Waigeo Villa,"Waisai, Kec. Waigeo Sel., Kabupaten Raja Ampat, Papua Bar. 98482","Kec. Waigeo Sel., Kabupaten Raja Ampat",PAPUA BARAT,98482.0,Indonesia,81247553799.0,-0.4365115,130.7794821,https://maps.google.com/?cid=0x0:0xd79d1ba9e325d4fc
restaurant,restaurant,Hamueco Raja Ampat Dive Resort,"Wirausaha Building Jl HR Rasuna Said Kav C5 Lantai 3, Jakarta Selatan, DKI Jakarta, 12940",Jakarta Selatan,PAPUA BARAT,12940.0,Indonesia,81392500242.0,-0.441485,130.761647,https://maps.google.com/?cid=0x0:0xf060a049fd72614d
restaurant,restaurant,Papua Bar. 98481,"Kabupaten Raja Ampat, Papua Bar.","Kabupaten Raja Ampat, Papua Bar.",PAPUA BARAT,,Indonesia,,-0.0847884,130.8374011,https://maps.google.com/?cid=0x0:0xabdb6fd88155f082
restaurant,Guest house,Logbond Cozy Resto  Bakery Waisai,"Marinda Road, Waisai, Distrik Kota Waisai, Kabupaten Raja Ampat, Papua Bar. 98482","Waisai, Distrik Kota Waisai, Kabupaten Raja Ampat",PAPUA BARAT,98482.0,Indonesia,82397025299.0,-0.4288534,130.8034909,https://maps.google.com/?cid=0x0:0x5d186281f60039c6
restaurant,Ikan Bakar,Cafe dava,"pantai wtc, Waisai, Distrik Kota Waisai, Kabupaten Raja Ampat, Papua Bar. 98482","Waisai, Distrik Kota Waisai, Kabupaten Raja Ampat",PAPUA BARAT,98482.0,Indonesia,8114852011.0,-0.4272783,130.8214338,https://maps.google.com/?cid=0x0:0x320f1aab782ecce2
restaurant,restaurant,Distrik Waigeo Utara,"Kabupaten Raja Ampat, Papua Bar.","Kabupaten Raja Ampat, Papua Bar.",PAPUA BARAT,,Indonesia,,-0.0564707,130.9858964,https://maps.google.com/?cid=0x0:0xc31e9c0aa62767f2
restaurant,Restoran,Rumah Makan Sederhana,"HRGC+78W, Kota Bar., Waisai, Kec. Waigeo Sel., Kabupaten Raja Ampat, Papua Bar. 98482","Kota Bar., Waisai, Kec. Waigeo Sel., Kabupaten Raja Ampat",PAPUA BARAT,98482.0,Indonesia,85243008088.0,-0.4242691,130.8208371,https://maps.google.com/?cid=0x0:0xe8a6e7312eb22ec8
restaurant,Restoran,Warung Cahaya Bone Waisai Raja Ampat,"HRF9+PRM, Jl. Salawati, Waisai, Waigeo Selatan, Waisai, Distrik Kota Waisai, Kabupaten Raja Ampat, Papua Bar. 98482","Jl. Salawati, Waisai, Waigeo Selatan, Waisai, Distrik Kota Waisai, Kabupaten Raja Ampat",PAPUA BARAT,98482.0,Indonesia,82147416237.0,-0.425672,130.8195551,https://maps.google.com/?cid=0x0:0x21f947d718ca4449
restaurant,Bakso,BAKSO BEJO,"HRJF+HCP, Waisai, Kec. Waigeo Sel., Kabupaten Raja Ampat, Papua Bar. 98482","Waisai, Kec. Waigeo Sel., Kabupaten Raja Ampat",PAPUA BARAT,98482.0,Indonesia,81354172829.0,-0.4185265,130.8235877,https://maps.google.com/?cid=0x0:0x3b389d6223d7b5c7
restaurant,Prasmanan,Rumah Makan PONDOK LESEHAN,"Jl. Jend. Sudirman, Waisai, Distrik Kota Waisai, Kabupaten Raja Ampat, Papua Bar. 98482","Waisai, Distrik Kota Waisai, Kabupaten Raja Ampat",PAPUA BARAT,98482.0,Indonesia,85247254732.0,-0.4209643,130.8223871,https://maps.google.com/?cid=0x0:0x415fb51c42ef63e4
restaurant,restaurant,Uniq Papua and Restoran,"HRC5+PC9, Waisai, Kec. Waigeo Sel., Kabupaten Raja Ampat, Papua Bar. 98482","Waisai, Kec. Waigeo Sel., Kabupaten Raja Ampat",PAPUA BARAT,98482.0,Indonesia,,-0.4283073,130.8085698,https://maps.google.com/?cid=0x0:0xff4f83482d050cc5
restaurant,Ikan Bakar,Warung Ikan Bakar 46,"Jl. Fundar Sakela, Waisai, Distrik Kota Waisai, Kabupaten Raja Ampat, Papua Bar. 98482","Waisai, Distrik Kota Waisai, Kabupaten Raja Ampat",PAPUA BARAT,98482.0,Indonesia,,-0.4239846,130.820455,https://maps.google.com/?cid=0x0:0x44c002cc936156dc
restaurant,restaurant,Waisai Coffee Shop  The Spices Chicken Restaurant,"Jl. Salawati, Waisai, Kec. Waigeo Sel., Kabupaten Raja Ampat, Papua Bar. 98482","Waisai, Kec. Waigeo Sel., Kabupaten Raja Ampat",PAPUA BARAT,98482.0,Indonesia,81241689825.0,-0.4255407,130.8198557,https://maps.google.com/?cid=0x0:0x6bbf2c06e867f018
restaurant,restaurant,Warung Jowo,"HRGC+88M, Jl. Fundar Sakela, Waisai, Kec. Waigeo Sel., Kabupaten Raja Ampat, Papua Bar. 98482","Jl. Fundar Sakela, Waisai, Kec. Waigeo Sel., Kabupaten Raja Ampat",PAPUA BARAT,98482.0,Indonesia,,-0.4241613,130.8208093,https://maps.google.com/?cid=0x0:0xb229d6c80ce40173
restaurant,restaurant,Distrik Warwarbomi,"Kabupaten Raja Ampat, Papua Bar.","Kabupaten Raja Ampat, Papua Bar.",PAPUA BARAT,,Indonesia,,-0.0992355,131.174316,https://maps.google.com/?cid=0x0:0xf0f19f0f9e85adb9
restaurant,Guest house,Logbond Cozy Resto  Bakery Waisai,"Marinda Road, Waisai, Distrik Kota Waisai, Kabupaten Raja Ampat, Papua Bar. 98482","Waisai, Distrik Kota Waisai, Kabupaten Raja Ampat",PAPUA BARAT,98482.0,Indonesia,82397025299.0,-0.4288534,130.8034909,https://maps.google.com/?cid=0x0:0x5d186281f60039c6
restaurant,Ikan Bakar,Cafe dava,"pantai wtc, Waisai, Distrik Kota Waisai, Kabupaten Raja Ampat, Papua Bar. 98482","Waisai, Distrik Kota Waisai, Kabupaten Raja Ampat",PAPUA BARAT,98482.0,Indonesia,8114852011.0,-0.4272783,130.8214338,https://maps.google.com/?cid=0x0:0x320f1aab782ecce2
restaurant,Prasmanan,Rumah Makan PONDOK LESEHAN,"Jl. Jend. Sudirman, Waisai, Distrik Kota Waisai, Kabupaten Raja Ampat, Papua Bar. 98482","Waisai, Distrik Kota Waisai, Kabupaten Raja Ampat",PAPUA BARAT,98482.0,Indonesia,85247254732.0,-0.4209643,130.8223871,https://maps.google.com/?cid=0x0:0x415fb51c42ef63e4
restaurant,Restoran,Warung Cahaya Bone Waisai Raja Ampat,"HRF9+PRM, Jl. Salawati, Waisai, Waigeo Selatan, Waisai, Distrik Kota Waisai, Kabupaten Raja Ampat, Papua Bar. 98482","Jl. Salawati, Waisai, Waigeo Selatan, Waisai, Distrik Kota Waisai, Kabupaten Raja Ampat",PAPUA BARAT,98482.0,Indonesia,82147416237.0,-0.425672,130.8195551,https://maps.google.com/?cid=0x0:0x21f947d718ca4449
restaurant,Bakso,BAKSO BEJO,"HRJF+HCP, Waisai, Kec. Waigeo Sel., Kabupaten Raja Ampat, Papua Bar. 98482","Waisai, Kec. Waigeo Sel., Kabupaten Raja Ampat",PAPUA BARAT,98482.0,Indonesia,81354172829.0,-0.4185265,130.8235877,https://maps.google.com/?cid=0x0:0x3b389d6223d7b5c7
restaurant,Restoran,Rumah Makan Firkha,"HRQ8+Q5H, Unnamed Road, Sel, Waisai, Waigeo Selatan, Raja Ampat Regency, West Papua 98482","Unnamed Road, Sel, Waisai, Waigeo Selatan, Raja Ampat Regency",PAPUA BARAT,98482.0,Indonesia,81248958330.0,-0.4105585,130.8154948,https://maps.google.com/?cid=0x0:0x343296861e6e6914
restaurant,Ikan Bakar,Warung Ikan Bakar 46,"Jl. Fundar Sakela, Waisai, Distrik Kota Waisai, Kabupaten Raja Ampat, Papua Bar. 98482","Waisai, Distrik Kota Waisai, Kabupaten Raja Ampat",PAPUA BARAT,98482.0,Indonesia,,-0.4239846,130.820455,https://maps.google.com/?cid=0x0:0x44c002cc936156dc
restaurant,restaurant,Waiwo Dive Resort  Dive into Raja Ampat,"Jl. Marinda - Waiwo Raja Ampat Papua, Barat, Papua Bar. 98482",Barat,PAPUA BARAT,98482.0,Indonesia,81247912123.0,-0.4364989,130.7783607,https://maps.google.com/?cid=0x0:0xa23d6965a6d740aa
restaurant,restaurant,Hamueco Raja Ampat Dive Resort,"Wirausaha Building Jl HR Rasuna Said Kav C5 Lantai 3, Jakarta Selatan, DKI Jakarta, 12940",Jakarta Selatan,PAPUA BARAT,12940.0,Indonesia,81392500242.0,-0.441485,130.761647,https://maps.google.com/?cid=0x0:0xf060a049fd72614d
restaurant,restaurant,Korpak Villa and Resort,"HQ6M+RGH, Unnamed Road, Waisai, Distrik Kota Waisai, Kabupaten Raja Ampat, Papua Bar. 98482","Unnamed Road, Waisai, Distrik Kota Waisai, Kabupaten Raja Ampat",PAPUA BARAT,98482.0,Indonesia,,-0.4379467,130.7838521,https://maps.google.com/?cid=0x0:0x7d6048504236c32d
restaurant,restaurant,Vogelkopf Resort,"Waisai, Distrik Kota Waisai, Kabupaten Raja Ampat, Papua Bar. 98482","Distrik Kota Waisai, Kabupaten Raja Ampat",PAPUA BARAT,98482.0,Indonesia,81360001088.0,-0.4385338,130.785262,https://maps.google.com/?cid=0x0:0x132e94aff8281150
restaurant,restaurant,Scuba Republic - Raja Ampat,"Waisai, Kec. Waigeo Sel., Kabupaten Raja Ampat, Papua Bar. 98482","Kec. Waigeo Sel., Kabupaten Raja Ampat",PAPUA BARAT,98482.0,Indonesia,,-0.4418794,130.7532977,https://maps.google.com/?cid=0x0:0xdbbc913713b959f9
restaurant,restaurant,PapuArts Alter Native Stay,"Desa Saporkren, Kec. Waigeo Sel., Kabupaten Raja Ampat, Papua Bar. 98482","Kec. Waigeo Sel., Kabupaten Raja Ampat",PAPUA BARAT,98482.0,Indonesia,81248455887.0,-0.438169,130.7367168,https://maps.google.com/?cid=0x0:0x39f6073cbd5c64d4
