Category,Real Category,Business Name,Address,City,State,Postal Code,Country,Phone,Latitude,Longitude,Map Link
toko bangunan,toko bangunan,Distrik Aifat,"Kabupaten Maybrat, Papua Bar.","Kabupaten Maybrat, Papua Bar.",PAPUA BARAT,,Indonesia,,-1.2568532,132.5001338,https://maps.google.com/?cid=0x0:0xcc3d52ba3ddd33de
toko bangunan,Toko,Toko Fratafen Jaya Bangunan,"Jl. Fratafen, Fiane, Kec. Ayamaru, Kabupaten Maybrat, Papua Bar.","Kabupaten Maybrat, Papua Bar.",PAPUA BARAT,,Indonesia,81344891455.0,-1.2930171,132.2477662,https://maps.google.com/?cid=0x0:0x637ec3d664ebdaa3
toko bangunan,toko bangunan,Bengkel dan Bangunan Larry,"PFWX+RP4, Fait Mayaf, Distrik Aifat, Kabupaten Maybrat, Papua Bar. 98463","Fait Mayaf, Distrik Aifat, Kabupaten Maybrat",PAPUA BARAT,98463.0,Indonesia,,-1.2529726,132.4992838,https://maps.google.com/?cid=0x0:0x34355660cc5c29ef
toko bangunan,Pemasok Bahan Bangunan,Supermarket Bangunan Abadi ( Bangunan Abadi ) Meruya,"Jl. Meruya Ilir Raya No.13 3, RT.3/RW.2, Meruya Utara, Kec. Kembangan, Kota Jakarta Barat, Daerah Khusus Ibukota Jakarta 11610","RT.3/RW.2, Meruya Utara, Kec. Kembangan, Kota Jakarta Barat",PAPUA BARAT,11610.0,Indonesia,215856801.0,-6.1976477,106.7425118,https://maps.google.com/?cid=0x0:0x13872e6ebcfc2cac
toko bangunan,Toko Bahan Bangunan,Tb.Aneka Jaya,"Jl. Srengseng Sawah No.40, RT.3/RW.9, Srengseng Sawah, Kec. Jagakarsa, Kota Jakarta Selatan, Daerah Khusus Ibukota Jakarta 12630","RT.3/RW.9, Srengseng Sawah, Kec. Jagakarsa, Kota Jakarta Selatan",PAPUA BARAT,12630.0,Indonesia,85219465440.0,-6.3582789,106.8120311,https://maps.google.com/?cid=0x0:0x1e2ad159dd994acd
toko bangunan,Toko Bahan Bangunan,Cahaya Bangunan,"4, Jl. Meruya Ilir Raya No.82C, RT.4/RW.8, Srengseng, Kec. Kembangan, Kota Jakarta Barat, Daerah Khusus Ibukota Jakarta 11620","Jl. Meruya Ilir Raya No.82C, RT.4/RW.8, Srengseng, Kec. Kembangan, Kota Jakarta Barat",PAPUA BARAT,11620.0,Indonesia,215868105.0,-6.198191,106.7527248,https://maps.google.com/?cid=0x0:0x71fab95142362a49
toko bangunan,toko bangunan,Distrik Aifat,"Kabupaten Maybrat, Papua Bar.","Kabupaten Maybrat, Papua Bar.",PAPUA BARAT,,Indonesia,,-1.2568532,132.5001338,https://maps.google.com/?cid=0x0:0xcc3d52ba3ddd33de
toko bangunan,Toko,Toko Fratafen Jaya Bangunan,"Jl. Fratafen, Fiane, Kec. Ayamaru, Kabupaten Maybrat, Papua Bar.","Kabupaten Maybrat, Papua Bar.",PAPUA BARAT,,Indonesia,81344891455.0,-1.2930171,132.2477662,https://maps.google.com/?cid=0x0:0x637ec3d664ebdaa3
toko bangunan,toko bangunan,Bengkel dan Bangunan Larry,"PFWX+RP4, Fait Mayaf, Distrik Aifat, Kabupaten Maybrat, Papua Bar. 98463","Fait Mayaf, Distrik Aifat, Kabupaten Maybrat",PAPUA BARAT,98463.0,Indonesia,,-1.2529726,132.4992838,https://maps.google.com/?cid=0x0:0x34355660cc5c29ef
toko bangunan,Toko Bahan Bangunan,Tb.Aneka Jaya,"Jl. Srengseng Sawah No.40, RT.3/RW.9, Srengseng Sawah, Kec. Jagakarsa, Kota Jakarta Selatan, Daerah Khusus Ibukota Jakarta 12630","RT.3/RW.9, Srengseng Sawah, Kec. Jagakarsa, Kota Jakarta Selatan",PAPUA BARAT,12630.0,Indonesia,85219465440.0,-6.3582789,106.8120311,https://maps.google.com/?cid=0x0:0x1e2ad159dd994acd
toko bangunan,Pemasok Bahan Bangunan,Supermarket Bangunan Abadi ( Bangunan Abadi ) Meruya,"Jl. Meruya Ilir Raya No.13 3, RT.3/RW.2, Meruya Utara, Kec. Kembangan, Kota Jakarta Barat, Daerah Khusus Ibukota Jakarta 11610","RT.3/RW.2, Meruya Utara, Kec. Kembangan, Kota Jakarta Barat",PAPUA BARAT,11610.0,Indonesia,215856801.0,-6.1976477,106.7425118,https://maps.google.com/?cid=0x0:0x13872e6ebcfc2cac
toko bangunan,Toko Bahan Bangunan,Cahaya Bangunan,"4, Jl. Meruya Ilir Raya No.82C, RT.4/RW.8, Srengseng, Kec. Kembangan, Kota Jakarta Barat, Daerah Khusus Ibukota Jakarta 11620","Jl. Meruya Ilir Raya No.82C, RT.4/RW.8, Srengseng, Kec. Kembangan, Kota Jakarta Barat",PAPUA BARAT,11620.0,Indonesia,215868105.0,-6.198191,106.7527248,https://maps.google.com/?cid=0x0:0x71fab95142362a49
toko bangunan,toko bangunan,distrik Batanta Selatan,"Kabupaten Raja Ampat, Papua Bar.","Kabupaten Raja Ampat, Papua Bar.",PAPUA BARAT,,Indonesia,,-0.8447219,130.8171615,https://maps.google.com/?cid=0x0:0xc5c0f28bd225b23c
toko bangunan,Toko Bahan Bangunan,Toko bangunan abadi 2,"HRGF+HG5, Waisai, Kec. Waigeo Sel., Kabupaten Raja Ampat, Papua Bar. 98482","Waisai, Kec. Waigeo Sel., Kabupaten Raja Ampat",PAPUA BARAT,98482.0,Indonesia,82175242539.0,-0.4236212,130.8238502,https://maps.google.com/?cid=0x0:0xb39b3321d3629975
toko bangunan,Toko Bahan Bangunan,Toko Bangunan Raja Ampat,"4788+FHP, Jl. Pemuda, Klaligi, Kecamatan Sorong Manoi, Kota Sorong, Papua Bar. 98412","Jl. Pemuda, Klaligi, Kecamatan Sorong Manoi, Kota Sorong",PAPUA BARAT,98412.0,Indonesia,,-0.8837846,131.2664406,https://maps.google.com/?cid=0x0:0x72017cd7a097fc32
toko bangunan,Toko Bahan Bangunan,Toko Raja Bangunan,"476F+VH4 Bar, Malabutor, Kecamatan Sorong Manoi, Kota Sorong, Papua Bar. 98412","Malabutor, Kecamatan Sorong Manoi, Kota Sorong",PAPUA BARAT,98412.0,Indonesia,,-0.8878745,131.2739668,https://maps.google.com/?cid=0x0:0xf816351e5d5e7f13
toko bangunan,Toko Cat,Toko Bangunan Abid Sejahtera - Waisai,"Jl. Jend. Sudirman No.30, Waisai, Distrik Kota Waisai, Kabupaten Raja Ampat, Papua Bar. 98482","Waisai, Distrik Kota Waisai, Kabupaten Raja Ampat",PAPUA BARAT,98482.0,Indonesia,82248014806.0,-0.4206038,130.8216501,https://maps.google.com/?cid=0x0:0x635cf5cb88ebe389
toko bangunan,toko bangunan,Pulau Batanta,"Wailebet, distrik Batanta Selatan, Kabupaten Raja Ampat, Papua Bar.","Kabupaten Raja Ampat, Papua Bar.",PAPUA BARAT,,Indonesia,,-0.8647222,130.6494444,https://maps.google.com/?cid=0x0:0x622f6c920ed64eb5
toko bangunan,Toko Bahan Bangunan,Toko bangunan abadi 2,"HRGF+HG5, Waisai, Kec. Waigeo Sel., Kabupaten Raja Ampat, Papua Bar. 98482","Waisai, Kec. Waigeo Sel., Kabupaten Raja Ampat",PAPUA BARAT,98482.0,Indonesia,82175242539.0,-0.4236212,130.8238502,https://maps.google.com/?cid=0x0:0xb39b3321d3629975
toko bangunan,Toko Bahan Bangunan,Toko bangunan abadi 2,"HRGF+HG5, Waisai, Kec. Waigeo Sel., Kabupaten Raja Ampat, Papua Bar. 98482","Waisai, Kec. Waigeo Sel., Kabupaten Raja Ampat",PAPUA BARAT,98482.0,Indonesia,82175242539.0,-0.4236212,130.8238502,https://maps.google.com/?cid=0x0:0xb39b3321d3629975
toko bangunan,Toko Cat,Toko Bangunan Abid Sejahtera - Waisai,"Jl. Jend. Sudirman No.30, Waisai, Distrik Kota Waisai, Kabupaten Raja Ampat, Papua Bar. 98482","Waisai, Distrik Kota Waisai, Kabupaten Raja Ampat",PAPUA BARAT,98482.0,Indonesia,82248014806.0,-0.4206038,130.8216501,https://maps.google.com/?cid=0x0:0x635cf5cb88ebe389
toko bangunan,Toko Cat,Toko Bangunan Abid Sejahtera - Waisai,"Jl. Jend. Sudirman No.30, Waisai, Distrik Kota Waisai, Kabupaten Raja Ampat, Papua Bar. 98482","Waisai, Distrik Kota Waisai, Kabupaten Raja Ampat",PAPUA BARAT,98482.0,Indonesia,82248014806.0,-0.4206038,130.8216501,https://maps.google.com/?cid=0x0:0x635cf5cb88ebe389
toko bangunan,Toko Bahan Bangunan,Toko bangunan abadi 2,"HRGF+HG5, Waisai, Kec. Waigeo Sel., Kabupaten Raja Ampat, Papua Bar. 98482","Waisai, Kec. Waigeo Sel., Kabupaten Raja Ampat",PAPUA BARAT,98482.0,Indonesia,82175242539.0,-0.4236212,130.8238502,https://maps.google.com/?cid=0x0:0xb39b3321d3629975
toko bangunan,toko bangunan,Distrik Kepulauan Ayau,"Kabupaten Raja Ampat, Papua Bar.","Kabupaten Raja Ampat, Papua Bar.",PAPUA BARAT,,Indonesia,,0.3635672,131.0512644,https://maps.google.com/?cid=0x0:0x3356c509ee72e556
toko bangunan,toko bangunan,Pulau Kofiau,"Mikiran, Kofiau, Kabupaten Raja Ampat, Papua Bar.","Kabupaten Raja Ampat, Papua Bar.",PAPUA BARAT,,Indonesia,,-1.1833333,129.8333333,https://maps.google.com/?cid=0x0:0x22393f628dc41dcc
toko bangunan,Toko Cat,Toko Bangunan Abid Sejahtera - Waisai,"Jl. Jend. Sudirman No.30, Waisai, Distrik Kota Waisai, Kabupaten Raja Ampat, Papua Bar. 98482","Waisai, Distrik Kota Waisai, Kabupaten Raja Ampat",PAPUA BARAT,98482.0,Indonesia,82248014806.0,-0.4206038,130.8216501,https://maps.google.com/?cid=0x0:0x635cf5cb88ebe389
toko bangunan,Toko Bahan Bangunan,Toko bangunan abadi 2,"HRGF+HG5, Waisai, Kec. Waigeo Sel., Kabupaten Raja Ampat, Papua Bar. 98482","Waisai, Kec. Waigeo Sel., Kabupaten Raja Ampat",PAPUA BARAT,98482.0,Indonesia,82175242539.0,-0.4236212,130.8238502,https://maps.google.com/?cid=0x0:0xb39b3321d3629975
toko bangunan,toko bangunan,Distrik Kota Waisai,"Waisai, Kabupaten Raja Ampat, Papua Bar.","Kabupaten Raja Ampat, Papua Bar.",PAPUA BARAT,,Indonesia,,-0.4248841,130.8208792,https://maps.google.com/?cid=0x0:0x50ee7a1504609bf5
toko bangunan,Toko Cat,Toko Bangunan Abid Sejahtera - Waisai,"Jl. Jend. Sudirman No.30, Waisai, Distrik Kota Waisai, Kabupaten Raja Ampat, Papua Bar. 98482","Waisai, Distrik Kota Waisai, Kabupaten Raja Ampat",PAPUA BARAT,98482.0,Indonesia,82248014806.0,-0.4206038,130.8216501,https://maps.google.com/?cid=0x0:0x635cf5cb88ebe389
toko bangunan,Toko Bahan Bangunan,Toko bangunan abadi 2,"HRGF+HG5, Waisai, Kec. Waigeo Sel., Kabupaten Raja Ampat, Papua Bar. 98482","Waisai, Kec. Waigeo Sel., Kabupaten Raja Ampat",PAPUA BARAT,98482.0,Indonesia,82175242539.0,-0.4236212,130.8238502,https://maps.google.com/?cid=0x0:0xb39b3321d3629975
toko bangunan,Toko Bahan Bangunan,TKP Rizky,"Jl. Perumahan Depan Tk. Surya No.100, Waisai, Distrik Kota Waisai, Kabupaten Raja Ampat, Papua Bar. 98482","Waisai, Distrik Kota Waisai, Kabupaten Raja Ampat",PAPUA BARAT,98482.0,Indonesia,,-0.4248728,130.8209443,https://maps.google.com/?cid=0x0:0xc02d7492d2e3c47
toko bangunan,Toko Bahan Bangunan,UD.RAJA BANGUNAN,"HRG8+RW3, Jl. 30, Waisai, Kec. Waigeo Sel., Kabupaten Raja Ampat, Papua Bar. 98482","Jl. 30, Waisai, Kec. Waigeo Sel., Kabupaten Raja Ampat",PAPUA BARAT,98482.0,Indonesia,82239074478.0,-0.4229807,130.8172901,https://maps.google.com/?cid=0x0:0x202076c12c75e976
toko bangunan,Toko Bahan Bangunan,Toko bangunan abadi 2,"HRGF+HG5, Waisai, Kec. Waigeo Sel., Kabupaten Raja Ampat, Papua Bar. 98482","Waisai, Kec. Waigeo Sel., Kabupaten Raja Ampat",PAPUA BARAT,98482.0,Indonesia,82175242539.0,-0.4236212,130.8238502,https://maps.google.com/?cid=0x0:0xb39b3321d3629975
toko bangunan,toko bangunan,Meos Mansar,"Kabupaten Raja Ampat, Papua Bar.","Kabupaten Raja Ampat, Papua Bar.",PAPUA BARAT,,Indonesia,,-0.4496057,130.583895,https://maps.google.com/?cid=0x0:0xe58d24898307b204
toko bangunan,Toko Cat,Toko Bangunan Abid Sejahtera - Waisai,"Jl. Jend. Sudirman No.30, Waisai, Distrik Kota Waisai, Kabupaten Raja Ampat, Papua Bar. 98482","Waisai, Distrik Kota Waisai, Kabupaten Raja Ampat",PAPUA BARAT,98482.0,Indonesia,82248014806.0,-0.4206038,130.8216501,https://maps.google.com/?cid=0x0:0x635cf5cb88ebe389
toko bangunan,toko bangunan,Distrik Misool,"Kabupaten Raja Ampat, Papua Bar.","Kabupaten Raja Ampat, Papua Bar.",PAPUA BARAT,,Indonesia,,-1.7294753,130.076264,https://maps.google.com/?cid=0x0:0xe3dfedd20bce543c
toko bangunan,Toko Bahan Bangunan,Putra Misool,"Jl. Jend. Sudirman No.2, Remu Sel., Kecamatan Sorong Manoi, Kota Sorong, Papua Bar. 98412","Remu Sel., Kecamatan Sorong Manoi, Kota Sorong",PAPUA BARAT,98412.0,Indonesia,85254520001.0,-0.8862875,131.2861081,https://maps.google.com/?cid=0x0:0x1f5c0cdb1a7057bc
toko bangunan,Kantor Pemerintah,Kantor Distrik Misool Utara,"5R9J+CJH, Salafen, Distrik Misool, Kabupaten Raja Ampat, Papua Bar. 98483","Salafen, Distrik Misool, Kabupaten Raja Ampat",PAPUA BARAT,98483.0,Indonesia,,-1.8314295,129.8316223,https://maps.google.com/?cid=0x0:0x9530f9c88aa143d4
toko bangunan,toko bangunan,Distrik Misool Barat,"Kabupaten Raja Ampat, Papua Bar.","Kabupaten Raja Ampat, Papua Bar.",PAPUA BARAT,,Indonesia,,-2.0480936,130.2709743,https://maps.google.com/?cid=0x0:0xfc668800a318e464
toko bangunan,Toko Bahan Bangunan,Putra Misool,"Jl. Jend. Sudirman No.2, Remu Sel., Kecamatan Sorong Manoi, Kota Sorong, Papua Bar. 98412","Remu Sel., Kecamatan Sorong Manoi, Kota Sorong",PAPUA BARAT,98412.0,Indonesia,85254520001.0,-0.8862875,131.2861081,https://maps.google.com/?cid=0x0:0x1f5c0cdb1a7057bc
toko bangunan,Toko Bahan Bangunan,ANEKA BANGUNAN,"Wosi, Kec. Manokwari Bar., Kabupaten Manokwari, Papua Bar. 98312","Kec. Manokwari Bar., Kabupaten Manokwari",PAPUA BARAT,98312.0,Indonesia,81344843001.0,-0.8631883,134.0498559,https://maps.google.com/?cid=0x0:0x3598159af16f30ea
toko bangunan,toko bangunan,Misool Eco Resort,"Yellu, Misool Sel., Kabupaten Raja Ampat, Papua Bar. 98483","Misool Sel., Kabupaten Raja Ampat",PAPUA BARAT,98483.0,Indonesia,,-2.244373,130.5557219,https://maps.google.com/?cid=0x0:0xcec0c32ec4b9f857
toko bangunan,toko bangunan,Fiabacet,"Yellu, Misool Sel., Kabupaten Raja Ampat, Papua Bar.","Kabupaten Raja Ampat, Papua Bar.",PAPUA BARAT,,Indonesia,,-2.2211111,130.5516667,https://maps.google.com/?cid=0x0:0xdea3f07a56ccf400
toko bangunan,Toko Bahan Bangunan,Toko Multibangunan,"4858+M3H, Bar, Sawagumu, Kec. Sorong Utara, Kota Sorong, Papua Bar. 98416","Bar, Sawagumu, Kec. Sorong Utara, Kota Sorong",PAPUA BARAT,98416.0,Indonesia,87896387564.0,-0.8908047,131.3152343,https://maps.google.com/?cid=0x0:0x71e3ca6ad4eb69f9
toko bangunan,Toko Cat,Toko Bangunan Abid Sejahtera - Waisai,"Jl. Jend. Sudirman No.30, Waisai, Distrik Kota Waisai, Kabupaten Raja Ampat, Papua Bar. 98482","Waisai, Distrik Kota Waisai, Kabupaten Raja Ampat",PAPUA BARAT,98482.0,Indonesia,82248014806.0,-0.4206038,130.8216501,https://maps.google.com/?cid=0x0:0x635cf5cb88ebe389
toko bangunan,Toko Bahan Bangunan,Toko bangunan abadi 2,"HRGF+HG5, Waisai, Kec. Waigeo Sel., Kabupaten Raja Ampat, Papua Bar. 98482","Waisai, Kec. Waigeo Sel., Kabupaten Raja Ampat",PAPUA BARAT,98482.0,Indonesia,82175242539.0,-0.4236212,130.8238502,https://maps.google.com/?cid=0x0:0xb39b3321d3629975
toko bangunan,toko bangunan,Misool Sel.,"Kabupaten Raja Ampat, Papua Bar.","Kabupaten Raja Ampat, Papua Bar.",PAPUA BARAT,,Indonesia,,-1.959546,130.3190719,https://maps.google.com/?cid=0x0:0x772018b3157aa95b
toko bangunan,Balai Pertemuan Desa,Kampung Fafanlap,"285R+Q5, Fafanlap, Misool Sel., Kabupaten Raja Ampat, Papua Bar. 98483","Fafanlap, Misool Sel., Kabupaten Raja Ampat",PAPUA BARAT,98483.0,Indonesia,,-1.9893865,130.3406579,https://maps.google.com/?cid=0x0:0x92ece10c1b1e5b70
toko bangunan,Toko Cat,Toko Bangunan Abid Sejahtera - Waisai,"Jl. Jend. Sudirman No.30, Waisai, Distrik Kota Waisai, Kabupaten Raja Ampat, Papua Bar. 98482","Waisai, Distrik Kota Waisai, Kabupaten Raja Ampat",PAPUA BARAT,98482.0,Indonesia,82248014806.0,-0.4206038,130.8216501,https://maps.google.com/?cid=0x0:0x635cf5cb88ebe389
toko bangunan,Toko Bahan Bangunan,Toko bangunan abadi 2,"HRGF+HG5, Waisai, Kec. Waigeo Sel., Kabupaten Raja Ampat, Papua Bar. 98482","Waisai, Kec. Waigeo Sel., Kabupaten Raja Ampat",PAPUA BARAT,98482.0,Indonesia,82175242539.0,-0.4236212,130.8238502,https://maps.google.com/?cid=0x0:0xb39b3321d3629975
toko bangunan,Toko Bahan Bangunan,Toko Bangunan Raja Ampat,"4788+FHP, Jl. Pemuda, Klaligi, Kecamatan Sorong Manoi, Kota Sorong, Papua Bar. 98412","Jl. Pemuda, Klaligi, Kecamatan Sorong Manoi, Kota Sorong",PAPUA BARAT,98412.0,Indonesia,,-0.8837846,131.2664406,https://maps.google.com/?cid=0x0:0x72017cd7a097fc32
toko bangunan,Toko Bahan Bangunan,Toko Raja Bangunan,"476F+VH4 Bar, Malabutor, Kecamatan Sorong Manoi, Kota Sorong, Papua Bar. 98412","Malabutor, Kecamatan Sorong Manoi, Kota Sorong",PAPUA BARAT,98412.0,Indonesia,,-0.8878745,131.2739668,https://maps.google.com/?cid=0x0:0xf816351e5d5e7f13
toko bangunan,toko bangunan,Distrik Salawati Barat,"Kabupaten Raja Ampat, Papua Bar.","Kabupaten Raja Ampat, Papua Bar.",PAPUA BARAT,,Indonesia,,-1.0980561,130.7040528,https://maps.google.com/?cid=0x0:0x6c8554c61c1a5f51
toko bangunan,Toko Bahan Bangunan,"Papua Bangunan, CV PAPUA ABADI","Jl. Basuki Rahmat No.780, Klawuyuk, Distrik Sorong Timur, Kota Sorong, Papua Bar. 98416","Klawuyuk, Distrik Sorong Timur, Kota Sorong",PAPUA BARAT,98416.0,Indonesia,81332017550.0,-0.8954087,131.3186922,https://maps.google.com/?cid=0x0:0x851804bc3aa7f033
toko bangunan,toko bangunan,Salawati Tengah,"Kabupaten Raja Ampat, Papua Bar.","Kabupaten Raja Ampat, Papua Bar.",PAPUA BARAT,,Indonesia,,-1.0547794,131.0589536,https://maps.google.com/?cid=0x0:0x9e15ae7888c4541f
toko bangunan,Toko Bahan Bangunan,Toko Bangunan Abadi,"4862+H2G, Malaingkedi, Kec. Sorong Utara, Kota Sorong, Papua Bar. 98412","Malaingkedi, Kec. Sorong Utara, Kota Sorong",PAPUA BARAT,98412.0,Indonesia,81248762864.0,-0.8885625,131.3000781,https://maps.google.com/?cid=0x0:0xa4c5e3d6e0f0bf2b
toko bangunan,Toko Bahan Bangunan,"Papua Bangunan, CV PAPUA ABADI","Jl. Basuki Rahmat No.780, Klawuyuk, Distrik Sorong Timur, Kota Sorong, Papua Bar. 98416","Klawuyuk, Distrik Sorong Timur, Kota Sorong",PAPUA BARAT,98416.0,Indonesia,81332017550.0,-0.8954087,131.3186922,https://maps.google.com/?cid=0x0:0x851804bc3aa7f033
toko bangunan,Toko Bahan Bangunan,"Toko Bangunan, Toko Linda","38PF+GPM, Klamana, Distrik Sorong Timur, Kota Sorong, Papua Bar. 98416","Klamana, Distrik Sorong Timur, Kota Sorong",PAPUA BARAT,98416.0,Indonesia,81935935177.0,-0.9136625,131.3242969,https://maps.google.com/?cid=0x0:0xf74d7b929b542cb5
toko bangunan,Toko Bahan Bangunan,Toko Bangunan AURORA ABADI Distributor Lampu LED VDR,"Jl. Tuturuga, Klamalu, Distrik Mariat, Kabupaten Sorong, Papua Bar. 98416","Klamalu, Distrik Mariat, Kabupaten Sorong",PAPUA BARAT,98416.0,Indonesia,82239496309.0,-1.0002603,131.3432543,https://maps.google.com/?cid=0x0:0x8d8d01a10734bfdc
toko bangunan,Toko Bahan Bangunan,Toko Bangunan Raja Ampat,"4788+FHP, Jl. Pemuda, Klaligi, Kecamatan Sorong Manoi, Kota Sorong, Papua Bar. 98412","Jl. Pemuda, Klaligi, Kecamatan Sorong Manoi, Kota Sorong",PAPUA BARAT,98412.0,Indonesia,,-0.8837846,131.2664406,https://maps.google.com/?cid=0x0:0x72017cd7a097fc32
toko bangunan,Toko Cat,Toko Bangunan Abid Sejahtera - Waisai,"Jl. Jend. Sudirman No.30, Waisai, Distrik Kota Waisai, Kabupaten Raja Ampat, Papua Bar. 98482","Waisai, Distrik Kota Waisai, Kabupaten Raja Ampat",PAPUA BARAT,98482.0,Indonesia,82248014806.0,-0.4206038,130.8216501,https://maps.google.com/?cid=0x0:0x635cf5cb88ebe389
toko bangunan,Toko Bahan Bangunan,Sumber Bangunan Toko,"JL. R.A. Kartini, No. 6, Rufey, Sorong Barat, Rufei, Distrik Sorong, Kota Sorong, Papua Bar. 98412","No. 6, Rufey, Sorong Barat, Rufei, Distrik Sorong, Kota Sorong",PAPUA BARAT,98412.0,Indonesia,951332543.0,-0.86248,131.249499,https://maps.google.com/?cid=0x0:0x7fe0b52c002a4cd7
toko bangunan,Toko Bahan Bangunan,Toko bangunan,"27PW+VPW Jln container kilo 24, Malawele, Kec. Aimas, Kabupaten Sorong, Papua Bar.","Kabupaten Sorong, Papua Bar.",PAPUA BARAT,,Indonesia,85172079023.0,-0.9627652,131.2968432,https://maps.google.com/?cid=0x0:0x8dbb8d4821ff5585
toko bangunan,Toko Bahan Bangunan,"TOKO BANGUNAN , TOKO HARA II","Jl. Kakatua No.1, Klamasen, Distrik Mariat, Kabupaten Sorong, Papua Bar. 98416","Klamasen, Distrik Mariat, Kabupaten Sorong",PAPUA BARAT,98416.0,Indonesia,81259105399.0,-0.9953545,131.3468536,https://maps.google.com/?cid=0x0:0x51bb1160638e98ed
toko bangunan,Toko Bahan Bangunan,Toko Bangunan Sumber Rezeki,"4827+2MQ, Klawalu, Distrik Sorong Timur, Kota Sorong, Papua Bar. 98413","Klawalu, Distrik Sorong Timur, Kota Sorong",PAPUA BARAT,98413.0,Indonesia,,-0.8999044,131.3142258,https://maps.google.com/?cid=0x0:0x62947d7dfaefcf8a
toko bangunan,Toko,TB. Imanuel,"V7GJ+HJM, Jl. Nusantara Katapop II, Majaran, Kec. Salawati, Kabupaten Sorong, Papua Bar. 98451","Jl. Nusantara Katapop II, Majaran, Kec. Salawati, Kabupaten Sorong",PAPUA BARAT,98451.0,Indonesia,81278808072.0,-1.1230556,131.2814167,https://maps.google.com/?cid=0x0:0xf00e563cb4742d82
toko bangunan,Pemasok Bahan Bangunan,Toko bangunan Sumber Makmur,"32CM+75G, Jl. Manokwari - Maruni, Anday, Distrik Manokwari, Kabupaten Manokwari, Papua Bar. 98315","Jl. Manokwari - Maruni, Anday, Distrik Manokwari, Kabupaten Manokwari",PAPUA BARAT,98315.0,Indonesia,8114846060.0,-0.9293075,134.0329487,https://maps.google.com/?cid=0x0:0xa0a85c7270dde255
toko bangunan,Toko Bahan Bangunan,TB Tunas Sumber Rejeki,"4788+6R8, Klaligi, Kecamatan Sorong Manoi, Kota Sorong, Papua Bar. 98412","Klaligi, Kecamatan Sorong Manoi, Kota Sorong",PAPUA BARAT,98412.0,Indonesia,8114852687.0,-0.8844705,131.2670664,https://maps.google.com/?cid=0x0:0x923b382621dce280
toko bangunan,toko bangunan,Pulau Salawati,"Kapatlap, Kec. Salawati Utara, Kabupaten Raja Ampat, Papua Bar.","Kabupaten Raja Ampat, Papua Bar.",PAPUA BARAT,,Indonesia,,-1.1166667,130.8666667,https://maps.google.com/?cid=0x0:0x3403a680ccd12b11
toko bangunan,Toko Cat,Toko Bangunan Abid Sejahtera - Waisai,"Jl. Jend. Sudirman No.30, Waisai, Distrik Kota Waisai, Kabupaten Raja Ampat, Papua Bar. 98482","Waisai, Distrik Kota Waisai, Kabupaten Raja Ampat",PAPUA BARAT,98482.0,Indonesia,82248014806.0,-0.4206038,130.8216501,https://maps.google.com/?cid=0x0:0x635cf5cb88ebe389
toko bangunan,Toko Bahan Bangunan,Toko Bangunan Raja Ampat,"4788+FHP, Jl. Pemuda, Klaligi, Kecamatan Sorong Manoi, Kota Sorong, Papua Bar. 98412","Jl. Pemuda, Klaligi, Kecamatan Sorong Manoi, Kota Sorong",PAPUA BARAT,98412.0,Indonesia,,-0.8837846,131.2664406,https://maps.google.com/?cid=0x0:0x72017cd7a097fc32
toko bangunan,Toko Bahan Bangunan,Toko Bangunan Abadi,"4862+H2G, Malaingkedi, Kec. Sorong Utara, Kota Sorong, Papua Bar. 98412","Malaingkedi, Kec. Sorong Utara, Kota Sorong",PAPUA BARAT,98412.0,Indonesia,81248762864.0,-0.8885625,131.3000781,https://maps.google.com/?cid=0x0:0xa4c5e3d6e0f0bf2b
toko bangunan,Toko Bahan Bangunan,Toko bangunan abadi 2,"HRGF+HG5, Waisai, Kec. Waigeo Sel., Kabupaten Raja Ampat, Papua Bar. 98482","Waisai, Kec. Waigeo Sel., Kabupaten Raja Ampat",PAPUA BARAT,98482.0,Indonesia,82175242539.0,-0.4236212,130.8238502,https://maps.google.com/?cid=0x0:0xb39b3321d3629975
toko bangunan,Toko Bahan Bangunan,Aneka Sarana Bangunan,"Jl. Meruya Ilir Raya No.5, RT.5/RW.8, Srengseng, Kec. Kembangan, Kota Jakarta Barat, Daerah Khusus Ibukota Jakarta 11630","RT.5/RW.8, Srengseng, Kec. Kembangan, Kota Jakarta Barat",PAPUA BARAT,11630.0,Indonesia,215846937.0,-6.1973627,106.7489981,https://maps.google.com/?cid=0x0:0x72a7b7b86ad90b84
toko bangunan,Pemasok Bahan Bangunan,Supermarket Bangunan Abadi ( Bangunan Abadi ) Meruya,"Jl. Meruya Ilir Raya No.13 3, RT.3/RW.2, Meruya Utara, Kec. Kembangan, Kota Jakarta Barat, Daerah Khusus Ibukota Jakarta 11610","RT.3/RW.2, Meruya Utara, Kec. Kembangan, Kota Jakarta Barat",PAPUA BARAT,11610.0,Indonesia,215856801.0,-6.1976477,106.7425118,https://maps.google.com/?cid=0x0:0x13872e6ebcfc2cac
toko bangunan,Toko Bahan Bangunan,Tb.Aneka Jaya,"Jl. Srengseng Sawah No.40, RT.3/RW.9, Srengseng Sawah, Kec. Jagakarsa, Kota Jakarta Selatan, Daerah Khusus Ibukota Jakarta 12630","RT.3/RW.9, Srengseng Sawah, Kec. Jagakarsa, Kota Jakarta Selatan",PAPUA BARAT,12630.0,Indonesia,85219465440.0,-6.3582789,106.8120311,https://maps.google.com/?cid=0x0:0x1e2ad159dd994acd
toko bangunan,Toko Bahan Bangunan,Cahaya Bangunan,"4, Jl. Meruya Ilir Raya No.82C, RT.4/RW.8, Srengseng, Kec. Kembangan, Kota Jakarta Barat, Daerah Khusus Ibukota Jakarta 11620","Jl. Meruya Ilir Raya No.82C, RT.4/RW.8, Srengseng, Kec. Kembangan, Kota Jakarta Barat",PAPUA BARAT,11620.0,Indonesia,215868105.0,-6.198191,106.7527248,https://maps.google.com/?cid=0x0:0x71fab95142362a49
toko bangunan,Toko Bahan Bangunan,Toko bangunan abadi 2,"HRGF+HG5, Waisai, Kec. Waigeo Sel., Kabupaten Raja Ampat, Papua Bar. 98482","Waisai, Kec. Waigeo Sel., Kabupaten Raja Ampat",PAPUA BARAT,98482.0,Indonesia,82175242539.0,-0.4236212,130.8238502,https://maps.google.com/?cid=0x0:0xb39b3321d3629975
toko bangunan,toko bangunan,Supnin,"Kabupaten Raja Ampat, Papua Bar.","Kabupaten Raja Ampat, Papua Bar.",PAPUA BARAT,,Indonesia,,-0.0707044,130.7766611,https://maps.google.com/?cid=0x0:0x460c1dbebeaa6e11
toko bangunan,Toko Cat,Toko Bangunan Abid Sejahtera - Waisai,"Jl. Jend. Sudirman No.30, Waisai, Distrik Kota Waisai, Kabupaten Raja Ampat, Papua Bar. 98482","Waisai, Distrik Kota Waisai, Kabupaten Raja Ampat",PAPUA BARAT,98482.0,Indonesia,82248014806.0,-0.4206038,130.8216501,https://maps.google.com/?cid=0x0:0x635cf5cb88ebe389
toko bangunan,toko bangunan,TOKO SINAR BANGUNAN,"HRGF+66R, Waisai, Kec. Waigeo Sel., Kabupaten Raja Ampat, Papua Bar. 98482","Waisai, Kec. Waigeo Sel., Kabupaten Raja Ampat",PAPUA BARAT,98482.0,Indonesia,,-0.4243856,130.8230033,https://maps.google.com/?cid=0x0:0x78f54134fa0a261
toko bangunan,toko bangunan,Kec. Tlk. Mayalibit,"Kabupaten Raja Ampat, Papua Bar.","Kabupaten Raja Ampat, Papua Bar.",PAPUA BARAT,,Indonesia,,-0.2689344,130.9384914,https://maps.google.com/?cid=0x0:0xae388a762cdfd0ec
toko bangunan,Toko Cat,Toko Bangunan Abid Sejahtera - Waisai,"Jl. Jend. Sudirman No.30, Waisai, Distrik Kota Waisai, Kabupaten Raja Ampat, Papua Bar. 98482","Waisai, Distrik Kota Waisai, Kabupaten Raja Ampat",PAPUA BARAT,98482.0,Indonesia,82248014806.0,-0.4206038,130.8216501,https://maps.google.com/?cid=0x0:0x635cf5cb88ebe389
toko bangunan,Toko Bahan Bangunan,Toko bangunan abadi 2,"HRGF+HG5, Waisai, Kec. Waigeo Sel., Kabupaten Raja Ampat, Papua Bar. 98482","Waisai, Kec. Waigeo Sel., Kabupaten Raja Ampat",PAPUA BARAT,98482.0,Indonesia,82175242539.0,-0.4236212,130.8238502,https://maps.google.com/?cid=0x0:0xb39b3321d3629975
toko bangunan,Toko Bahan Bangunan,"Papua Bangunan, CV PAPUA ABADI","Jl. Basuki Rahmat No.780, Klawuyuk, Distrik Sorong Timur, Kota Sorong, Papua Bar. 98416","Klawuyuk, Distrik Sorong Timur, Kota Sorong",PAPUA BARAT,98416.0,Indonesia,81332017550.0,-0.8954087,131.3186922,https://maps.google.com/?cid=0x0:0x851804bc3aa7f033
toko bangunan,Toko Bahan Bangunan,Toko Bangunan Abadi,"4862+H2G, Malaingkedi, Kec. Sorong Utara, Kota Sorong, Papua Bar. 98412","Malaingkedi, Kec. Sorong Utara, Kota Sorong",PAPUA BARAT,98412.0,Indonesia,81248762864.0,-0.8885625,131.3000781,https://maps.google.com/?cid=0x0:0xa4c5e3d6e0f0bf2b
toko bangunan,Toko Bahan Bangunan,Horukie Toko Bangunan,"R38J+883 Wa Toko Îá¨á¨-89Î3-Î541 kami, Fandoi, Kec. Biak Kota, Kabupaten Biak Numfor, Papua 98111","Fandoi, Kec. Biak Kota, Kabupaten Biak Numfor",PAPUA BARAT,98111.0,Indonesia,81344944374.0,-1.1842375,136.0807969,https://maps.google.com/?cid=0x0:0x9ef95c0249a63970
toko bangunan,Toko Bahan Bangunan,Supermarket Multi Bangunan,"Jl Baru No.98, Wai Mhorock, Abepura, Jayapura City, Papua 99225","Wai Mhorock, Abepura, Jayapura City",PAPUA BARAT,99225.0,Indonesia,967588677.0,-2.6077336,140.6742812,https://maps.google.com/?cid=0x0:0x3b19f301c68f1d6f
toko bangunan,Toko Swalayan,"Toko  NUR ILHAM""""","VGJP+2V2, Bintuni Tim., Distrik Bintuni, Kabupaten Teluk Bintuni, Papua Bar.","Kabupaten Teluk Bintuni, Papua Bar.",PAPUA BARAT,,Indonesia,,-2.1199948,133.5371348,https://maps.google.com/?cid=0x0:0x497ab7d35b2e6dce
toko bangunan,Toko Bahan Bangunan,TKP Rizky,"Jl. Perumahan Depan Tk. Surya No.100, Waisai, Distrik Kota Waisai, Kabupaten Raja Ampat, Papua Bar. 98482","Waisai, Distrik Kota Waisai, Kabupaten Raja Ampat",PAPUA BARAT,98482.0,Indonesia,,-0.4248728,130.8209443,https://maps.google.com/?cid=0x0:0xc02d7492d2e3c47
toko bangunan,Toko Bahan Bangunan,UD.RAJA BANGUNAN,"HRG8+RW3, Jl. 30, Waisai, Kec. Waigeo Sel., Kabupaten Raja Ampat, Papua Bar. 98482","Jl. 30, Waisai, Kec. Waigeo Sel., Kabupaten Raja Ampat",PAPUA BARAT,98482.0,Indonesia,82239074478.0,-0.4229807,130.8172901,https://maps.google.com/?cid=0x0:0x202076c12c75e976
toko bangunan,toko bangunan,Distrik Tiplol Mayalibit,"Kabupaten Raja Ampat, Papua Bar.","Kabupaten Raja Ampat, Papua Bar.",PAPUA BARAT,,Indonesia,,-0.078691,130.6642772,https://maps.google.com/?cid=0x0:0xd2fca4629b110358
toko bangunan,Toko Bahan Bangunan,Toko bangunan abadi 2,"HRGF+HG5, Waisai, Kec. Waigeo Sel., Kabupaten Raja Ampat, Papua Bar. 98482","Waisai, Kec. Waigeo Sel., Kabupaten Raja Ampat",PAPUA BARAT,98482.0,Indonesia,82175242539.0,-0.4236212,130.8238502,https://maps.google.com/?cid=0x0:0xb39b3321d3629975
toko bangunan,Toko Cat,Toko Bangunan Abid Sejahtera - Waisai,"Jl. Jend. Sudirman No.30, Waisai, Distrik Kota Waisai, Kabupaten Raja Ampat, Papua Bar. 98482","Waisai, Distrik Kota Waisai, Kabupaten Raja Ampat",PAPUA BARAT,98482.0,Indonesia,82248014806.0,-0.4206038,130.8216501,https://maps.google.com/?cid=0x0:0x635cf5cb88ebe389
toko bangunan,toko bangunan,Kec. Waigeo Bar.,"Kabupaten Raja Ampat, Papua Bar.","Kabupaten Raja Ampat, Papua Bar.",PAPUA BARAT,,Indonesia,,-0.1565367,130.4516329,https://maps.google.com/?cid=0x0:0xa968725bc286475b
toko bangunan,Toko Bahan Bangunan,Toko bangunan abadi 2,"HRGF+HG5, Waisai, Kec. Waigeo Sel., Kabupaten Raja Ampat, Papua Bar. 98482","Waisai, Kec. Waigeo Sel., Kabupaten Raja Ampat",PAPUA BARAT,98482.0,Indonesia,82175242539.0,-0.4236212,130.8238502,https://maps.google.com/?cid=0x0:0xb39b3321d3629975
toko bangunan,Toko Cat,Toko Bangunan Abid Sejahtera - Waisai,"Jl. Jend. Sudirman No.30, Waisai, Distrik Kota Waisai, Kabupaten Raja Ampat, Papua Bar. 98482","Waisai, Distrik Kota Waisai, Kabupaten Raja Ampat",PAPUA BARAT,98482.0,Indonesia,82248014806.0,-0.4206038,130.8216501,https://maps.google.com/?cid=0x0:0x635cf5cb88ebe389
toko bangunan,toko bangunan,Distrik Waigeo Barat Kepulauan,"Kabupaten Raja Ampat, Papua Bar.","Kabupaten Raja Ampat, Papua Bar.",PAPUA BARAT,,Indonesia,,-0.3990489,129.8878154,https://maps.google.com/?cid=0x0:0x2f9f2f03d60aa281
toko bangunan,Toko Bahan Bangunan,Toko bangunan abadi 2,"HRGF+HG5, Waisai, Kec. Waigeo Sel., Kabupaten Raja Ampat, Papua Bar. 98482","Waisai, Kec. Waigeo Sel., Kabupaten Raja Ampat",PAPUA BARAT,98482.0,Indonesia,82175242539.0,-0.4236212,130.8238502,https://maps.google.com/?cid=0x0:0xb39b3321d3629975
toko bangunan,Toko Cat,Toko Bangunan Abid Sejahtera - Waisai,"Jl. Jend. Sudirman No.30, Waisai, Distrik Kota Waisai, Kabupaten Raja Ampat, Papua Bar. 98482","Waisai, Distrik Kota Waisai, Kabupaten Raja Ampat",PAPUA BARAT,98482.0,Indonesia,82248014806.0,-0.4206038,130.8216501,https://maps.google.com/?cid=0x0:0x635cf5cb88ebe389
toko bangunan,toko bangunan,Papua Bar. 98482,"Kabupaten Raja Ampat, Papua Bar.","Kabupaten Raja Ampat, Papua Bar.",PAPUA BARAT,,Indonesia,,-0.3696535,130.7564002,https://maps.google.com/?cid=0x0:0x19dfa32a027748a3
toko bangunan,Toko Bahan Bangunan,Toko bangunan abadi 2,"HRGF+HG5, Waisai, Kec. Waigeo Sel., Kabupaten Raja Ampat, Papua Bar. 98482","Waisai, Kec. Waigeo Sel., Kabupaten Raja Ampat",PAPUA BARAT,98482.0,Indonesia,82175242539.0,-0.4236212,130.8238502,https://maps.google.com/?cid=0x0:0xb39b3321d3629975
toko bangunan,Toko Cat,Toko Bangunan Abid Sejahtera - Waisai,"Jl. Jend. Sudirman No.30, Waisai, Distrik Kota Waisai, Kabupaten Raja Ampat, Papua Bar. 98482","Waisai, Distrik Kota Waisai, Kabupaten Raja Ampat",PAPUA BARAT,98482.0,Indonesia,82248014806.0,-0.4206038,130.8216501,https://maps.google.com/?cid=0x0:0x635cf5cb88ebe389
toko bangunan,toko bangunan,Kec. Waigeo Sel.,"Kabupaten Raja Ampat, Papua Bar.","Kabupaten Raja Ampat, Papua Bar.",PAPUA BARAT,,Indonesia,,-0.3840807,130.7361322,https://maps.google.com/?cid=0x0:0x2c9db46da776b4
toko bangunan,Toko Bahan Bangunan,Toko Bangunan Jaya Mulia,"HRGF+36G, Waisai, Distrik Kota Waisai, Kabupaten Raja Ampat, Papua Bar. 98482","Waisai, Distrik Kota Waisai, Kabupaten Raja Ampat",PAPUA BARAT,98482.0,Indonesia,,-0.4248018,130.8230932,https://maps.google.com/?cid=0x0:0xaaf75e698d50e2eb
toko bangunan,Toko Bahan Bangunan,Toko Bangunan Raja Ampat,"4788+FHP, Jl. Pemuda, Klaligi, Kecamatan Sorong Manoi, Kota Sorong, Papua Bar. 98412","Jl. Pemuda, Klaligi, Kecamatan Sorong Manoi, Kota Sorong",PAPUA BARAT,98412.0,Indonesia,,-0.8837846,131.2664406,https://maps.google.com/?cid=0x0:0x72017cd7a097fc32
toko bangunan,Toko Bahan Bangunan,TKP Rizky,"Jl. Perumahan Depan Tk. Surya No.100, Waisai, Distrik Kota Waisai, Kabupaten Raja Ampat, Papua Bar. 98482","Waisai, Distrik Kota Waisai, Kabupaten Raja Ampat",PAPUA BARAT,98482.0,Indonesia,,-0.4248728,130.8209443,https://maps.google.com/?cid=0x0:0xc02d7492d2e3c47
toko bangunan,Toko Bahan Bangunan,"Papua Bangunan, CV PAPUA ABADI","Jl. Basuki Rahmat No.780, Klawuyuk, Distrik Sorong Timur, Kota Sorong, Papua Bar. 98416","Klawuyuk, Distrik Sorong Timur, Kota Sorong",PAPUA BARAT,98416.0,Indonesia,81332017550.0,-0.8954087,131.3186922,https://maps.google.com/?cid=0x0:0x851804bc3aa7f033
toko bangunan,toko bangunan,Distrik Waigeo Timur,"Kabupaten Raja Ampat, Papua Bar.","Kabupaten Raja Ampat, Papua Bar.",PAPUA BARAT,,Indonesia,,-0.3761806,131.2503597,https://maps.google.com/?cid=0x0:0x9ea83c531b1daa8e
toko bangunan,Toko Bahan Bangunan,Toko bangunan abadi 2,"HRGF+HG5, Waisai, Kec. Waigeo Sel., Kabupaten Raja Ampat, Papua Bar. 98482","Waisai, Kec. Waigeo Sel., Kabupaten Raja Ampat",PAPUA BARAT,98482.0,Indonesia,82175242539.0,-0.4236212,130.8238502,https://maps.google.com/?cid=0x0:0xb39b3321d3629975
toko bangunan,Toko Cat,Toko Bangunan Abid Sejahtera - Waisai,"Jl. Jend. Sudirman No.30, Waisai, Distrik Kota Waisai, Kabupaten Raja Ampat, Papua Bar. 98482","Waisai, Distrik Kota Waisai, Kabupaten Raja Ampat",PAPUA BARAT,98482.0,Indonesia,82248014806.0,-0.4206038,130.8216501,https://maps.google.com/?cid=0x0:0x635cf5cb88ebe389
toko bangunan,toko bangunan,Distrik Waigeo Utara,"Kabupaten Raja Ampat, Papua Bar.","Kabupaten Raja Ampat, Papua Bar.",PAPUA BARAT,,Indonesia,,-0.0564707,130.9858964,https://maps.google.com/?cid=0x0:0xc31e9c0aa62767f2
toko bangunan,Toko Cat,Toko Bangunan Abid Sejahtera - Waisai,"Jl. Jend. Sudirman No.30, Waisai, Distrik Kota Waisai, Kabupaten Raja Ampat, Papua Bar. 98482","Waisai, Distrik Kota Waisai, Kabupaten Raja Ampat",PAPUA BARAT,98482.0,Indonesia,82248014806.0,-0.4206038,130.8216501,https://maps.google.com/?cid=0x0:0x635cf5cb88ebe389
toko bangunan,Toko Bahan Bangunan,Toko bangunan abadi 2,"HRGF+HG5, Waisai, Kec. Waigeo Sel., Kabupaten Raja Ampat, Papua Bar. 98482","Waisai, Kec. Waigeo Sel., Kabupaten Raja Ampat",PAPUA BARAT,98482.0,Indonesia,82175242539.0,-0.4236212,130.8238502,https://maps.google.com/?cid=0x0:0xb39b3321d3629975
toko bangunan,toko bangunan,Papua Bar.,,Papua Bar.,PAPUA BARAT,,Indonesia,,-1.3361154,133.1747162,https://maps.google.com/?cid=0x0:0x5349c1f8c5c7cb62
toko bangunan,Toko Bahan Bangunan,"Papua Bangunan, CV PAPUA ABADI","Jl. Basuki Rahmat No.780, Klawuyuk, Distrik Sorong Timur, Kota Sorong, Papua Bar. 98416","Klawuyuk, Distrik Sorong Timur, Kota Sorong",PAPUA BARAT,98416.0,Indonesia,81332017550.0,-0.8954087,131.3186922,https://maps.google.com/?cid=0x0:0x851804bc3aa7f033
toko bangunan,Toko Bahan Bangunan,ANEKA BANGUNAN,"Wosi, Kec. Manokwari Bar., Kabupaten Manokwari, Papua Bar. 98312","Kec. Manokwari Bar., Kabupaten Manokwari",PAPUA BARAT,98312.0,Indonesia,81344843001.0,-0.8631883,134.0498559,https://maps.google.com/?cid=0x0:0x3598159af16f30ea
toko bangunan,Pusat Perbelanjaan,Toko Bangunan Pole Wali,"G523+VJ4, Jl. Manokwari - Bintuni, Sabri, Distrik Ransiki, Kab. Manokwari Selatan, Papua Bar. 98355","Jl. Manokwari - Bintuni, Sabri, Distrik Ransiki, Kab. Manokwari Selatan",PAPUA BARAT,98355.0,Indonesia,82199061888.0,-1.4978515,134.1540692,https://maps.google.com/?cid=0x0:0xd1498f23bc1ae81e
toko bangunan,Pemasok Bahan Bangunan,Depo Makmur Manokwari,"43P2+QWR, Jl. Trikora Wosi, Wosi, Kec. Manokwari Bar., Kabupaten Manokwari, Papua Bar. 98312","Jl. Trikora Wosi, Wosi, Kec. Manokwari Bar., Kabupaten Manokwari",PAPUA BARAT,98312.0,Indonesia,81248426402.0,-0.8630402,134.0521741,https://maps.google.com/?cid=0x0:0x387befda163fc63b
toko bangunan,Toko Bahan Bangunan,PAPUA BANGUNAN,"42GX+945, Wosi, Kec. Manokwari Bar., Kabupaten Manokwari, Papua Bar. 98312","Wosi, Kec. Manokwari Bar., Kabupaten Manokwari",PAPUA BARAT,98312.0,Indonesia,82198055550.0,-0.874101,134.0478473,https://maps.google.com/?cid=0x0:0x2c3683b193d9430f
toko bangunan,Toko Bahan Bangunan,Toko Central Bangunan,"42JW+2CG, Wosi, Kec. Manokwari Bar., Kabupaten Manokwari, Papua Bar. 98312","Wosi, Kec. Manokwari Bar., Kabupaten Manokwari",PAPUA BARAT,98312.0,Indonesia,,-0.8696454,134.0463667,https://maps.google.com/?cid=0x0:0x7ec708d770758168
toko bangunan,Toko Bahan Bangunan,Toko Utama Manokwari,"43V9+Q94, Jl. Yos Sudarso Manokwari, Padarni, Kec. Manokwari Bar., Kabupaten Manokwari, Papua Bar. 98312","Jl. Yos Sudarso Manokwari, Padarni, Kec. Manokwari Bar., Kabupaten Manokwari",PAPUA BARAT,98312.0,Indonesia,,-0.8556009,134.068443,https://maps.google.com/?cid=0x0:0x5b4f00e9eaecdd39
toko bangunan,Pemasok Bahan Bangunan,Toko bangunan Sumber Makmur,"32CM+75G, Jl. Manokwari - Maruni, Anday, Distrik Manokwari, Kabupaten Manokwari, Papua Bar. 98315","Jl. Manokwari - Maruni, Anday, Distrik Manokwari, Kabupaten Manokwari",PAPUA BARAT,98315.0,Indonesia,8114846060.0,-0.9293075,134.0329487,https://maps.google.com/?cid=0x0:0xa0a85c7270dde255
toko bangunan,Toko Elektronik,Toko Bangunan Sumber Baru,"SP3, Aimasi, Jl. Poros, Distrik Prafi, Kabupaten Manokwari, Papua Bar. 98356","Aimasi, Jl. Poros, Distrik Prafi, Kabupaten Manokwari",PAPUA BARAT,98356.0,Indonesia,81234807007.0,-0.883667,133.820223,https://maps.google.com/?cid=0x0:0x7475be84d164c6b6
toko bangunan,Toko Bahan Bangunan,Fajar Bangunan,"Sowi, Distrik Manokwari, Kabupaten Manokwari, Papua Bar. 98315","Distrik Manokwari, Kabupaten Manokwari",PAPUA BARAT,98315.0,Indonesia,,-0.9062643,134.0359839,https://maps.google.com/?cid=0x0:0x9d0563299ba4e3f6
toko bangunan,Toko Cat,Toko Bangunan Abid Sejahtera - Waisai,"Jl. Jend. Sudirman No.30, Waisai, Distrik Kota Waisai, Kabupaten Raja Ampat, Papua Bar. 98482","Waisai, Distrik Kota Waisai, Kabupaten Raja Ampat",PAPUA BARAT,98482.0,Indonesia,82248014806.0,-0.4206038,130.8216501,https://maps.google.com/?cid=0x0:0x635cf5cb88ebe389
toko bangunan,Toko bahan makanan,Toko Irian,"Jl. Manokwari - Bintuni, Ransiki Kota, Distrik Ransiki, Kab. Manokwari Selatan, Papua Bar. 98355","Ransiki Kota, Distrik Ransiki, Kab. Manokwari Selatan",PAPUA BARAT,98355.0,Indonesia,,-1.5078497,134.1712887,https://maps.google.com/?cid=0x0:0xf38ba09157a6ee94
toko bangunan,Toko Bahan Bangunan,Toko Sumber Makmur,"42GX+258, Wosi, Kec. Manokwari Bar., Kabupaten Manokwari, Papua Bar. 98312","Wosi, Kec. Manokwari Bar., Kabupaten Manokwari",PAPUA BARAT,98312.0,Indonesia,8124825561.0,-0.8749549,134.0479559,https://maps.google.com/?cid=0x0:0x533cede6c4b2437d
building materials,Komplek perumahan,Kampung Ikuf Utara,"P825+PHW, Ikuf, Kec. Aitinyo Utara, Kabupaten Maybrat, Papua Bar. 98462","Ikuf, Kec. Aitinyo Utara, Kabupaten Maybrat",PAPUA BARAT,98462.0,Indonesia,82238129105.0,-1.2981251,132.3089429,https://maps.google.com/?cid=0x0:0xb9d02a542bef9753
building materials,building materials,Distrik Aifat,"Kabupaten Maybrat, Papua Bar.","Kabupaten Maybrat, Papua Bar.",PAPUA BARAT,,Indonesia,,-1.2568532,132.5001338,https://maps.google.com/?cid=0x0:0xcc3d52ba3ddd33de
building materials,Toko,Toko Fratafen Jaya Bangunan,"Jl. Fratafen, Fiane, Kec. Ayamaru, Kabupaten Maybrat, Papua Bar.","Kabupaten Maybrat, Papua Bar.",PAPUA BARAT,,Indonesia,81344891455.0,-1.2930171,132.2477662,https://maps.google.com/?cid=0x0:0x637ec3d664ebdaa3
building materials,building materials,Distrik Aifat,"Kabupaten Maybrat, Papua Bar.","Kabupaten Maybrat, Papua Bar.",PAPUA BARAT,,Indonesia,,-1.2568532,132.5001338,https://maps.google.com/?cid=0x0:0xcc3d52ba3ddd33de
building materials,Toko,Toko Fratafen Jaya Bangunan,"Jl. Fratafen, Fiane, Kec. Ayamaru, Kabupaten Maybrat, Papua Bar.","Kabupaten Maybrat, Papua Bar.",PAPUA BARAT,,Indonesia,81344891455.0,-1.2930171,132.2477662,https://maps.google.com/?cid=0x0:0x637ec3d664ebdaa3
building materials,Komplek perumahan,Kampung Ikuf Utara,"P825+PHW, Ikuf, Kec. Aitinyo Utara, Kabupaten Maybrat, Papua Bar. 98462","Ikuf, Kec. Aitinyo Utara, Kabupaten Maybrat",PAPUA BARAT,98462.0,Indonesia,82238129105.0,-1.2981251,132.3089429,https://maps.google.com/?cid=0x0:0xb9d02a542bef9753
building materials,building materials,distrik Batanta Selatan,"Kabupaten Raja Ampat, Papua Bar.","Kabupaten Raja Ampat, Papua Bar.",PAPUA BARAT,,Indonesia,,-0.8447219,130.8171615,https://maps.google.com/?cid=0x0:0xc5c0f28bd225b23c
building materials,Toko Cat,Toko Bangunan Abid Sejahtera - Waisai,"Jl. Jend. Sudirman No.30, Waisai, Distrik Kota Waisai, Kabupaten Raja Ampat, Papua Bar. 98482","Waisai, Distrik Kota Waisai, Kabupaten Raja Ampat",PAPUA BARAT,98482.0,Indonesia,82248014806.0,-0.4206038,130.8216501,https://maps.google.com/?cid=0x0:0x635cf5cb88ebe389
building materials,Toko Bahan Bangunan,"Papua Bangunan, CV PAPUA ABADI","Jl. Basuki Rahmat No.780, Klawuyuk, Distrik Sorong Timur, Kota Sorong, Papua Bar. 98416","Klawuyuk, Distrik Sorong Timur, Kota Sorong",PAPUA BARAT,98416.0,Indonesia,81332017550.0,-0.8954087,131.3186922,https://maps.google.com/?cid=0x0:0x851804bc3aa7f033
building materials,Toko Bahan Bangunan,Toko bangunan abadi 2,"HRGF+HG5, Waisai, Kec. Waigeo Sel., Kabupaten Raja Ampat, Papua Bar. 98482","Waisai, Kec. Waigeo Sel., Kabupaten Raja Ampat",PAPUA BARAT,98482.0,Indonesia,82175242539.0,-0.4236212,130.8238502,https://maps.google.com/?cid=0x0:0xb39b3321d3629975
building materials,building materials,Marwes Homestay,"Yensawai, Selat Sagawin, Kabupaten Raja Ampat, Papua Bar. 98484","Selat Sagawin, Kabupaten Raja Ampat",PAPUA BARAT,98484.0,Indonesia,81269948337.0,-0.800081,130.5773944,https://maps.google.com/?cid=0x0:0x54785288c63d99ef
building materials,Toko Cat,Toko Bangunan Abid Sejahtera - Waisai,"Jl. Jend. Sudirman No.30, Waisai, Distrik Kota Waisai, Kabupaten Raja Ampat, Papua Bar. 98482","Waisai, Distrik Kota Waisai, Kabupaten Raja Ampat",PAPUA BARAT,98482.0,Indonesia,82248014806.0,-0.4206038,130.8216501,https://maps.google.com/?cid=0x0:0x635cf5cb88ebe389
building materials,building materials,Pulau Batanta,"Wailebet, distrik Batanta Selatan, Kabupaten Raja Ampat, Papua Bar.","Kabupaten Raja Ampat, Papua Bar.",PAPUA BARAT,,Indonesia,,-0.8647222,130.6494444,https://maps.google.com/?cid=0x0:0x622f6c920ed64eb5
building materials,building materials,Kepulauan Sembilan,"Kabupaten Raja Ampat, Papua Bar.","Kabupaten Raja Ampat, Papua Bar.",PAPUA BARAT,,Indonesia,,-1.4692971,130.2424588,https://maps.google.com/?cid=0x0:0x364ea5a3f0657fa
building materials,building materials,Papua Bar. 98481,"Kabupaten Raja Ampat, Papua Bar.","Kabupaten Raja Ampat, Papua Bar.",PAPUA BARAT,,Indonesia,,-0.0847884,130.8374011,https://maps.google.com/?cid=0x0:0xabdb6fd88155f082
building materials,Toko Bahan Bangunan,"Papua Bangunan, CV PAPUA ABADI","Jl. Basuki Rahmat No.780, Klawuyuk, Distrik Sorong Timur, Kota Sorong, Papua Bar. 98416","Klawuyuk, Distrik Sorong Timur, Kota Sorong",PAPUA BARAT,98416.0,Indonesia,81332017550.0,-0.8954087,131.3186922,https://maps.google.com/?cid=0x0:0x851804bc3aa7f033
building materials,Toko Cat,Toko Bangunan Abid Sejahtera - Waisai,"Jl. Jend. Sudirman No.30, Waisai, Distrik Kota Waisai, Kabupaten Raja Ampat, Papua Bar. 98482","Waisai, Distrik Kota Waisai, Kabupaten Raja Ampat",PAPUA BARAT,98482.0,Indonesia,82248014806.0,-0.4206038,130.8216501,https://maps.google.com/?cid=0x0:0x635cf5cb88ebe389
building materials,building materials,Pulau Kofiau,"Mikiran, Kofiau, Kabupaten Raja Ampat, Papua Bar.","Kabupaten Raja Ampat, Papua Bar.",PAPUA BARAT,,Indonesia,,-1.1833333,129.8333333,https://maps.google.com/?cid=0x0:0x22393f628dc41dcc
building materials,Toko Cat,Toko Bangunan Abid Sejahtera - Waisai,"Jl. Jend. Sudirman No.30, Waisai, Distrik Kota Waisai, Kabupaten Raja Ampat, Papua Bar. 98482","Waisai, Distrik Kota Waisai, Kabupaten Raja Ampat",PAPUA BARAT,98482.0,Indonesia,82248014806.0,-0.4206038,130.8216501,https://maps.google.com/?cid=0x0:0x635cf5cb88ebe389
building materials,building materials,Distrik Kota Waisai,"Waisai, Kabupaten Raja Ampat, Papua Bar.","Kabupaten Raja Ampat, Papua Bar.",PAPUA BARAT,,Indonesia,,-0.4248841,130.8208792,https://maps.google.com/?cid=0x0:0x50ee7a1504609bf5
building materials,Toko Bahan Bangunan,Toko bangunan abadi 2,"HRGF+HG5, Waisai, Kec. Waigeo Sel., Kabupaten Raja Ampat, Papua Bar. 98482","Waisai, Kec. Waigeo Sel., Kabupaten Raja Ampat",PAPUA BARAT,98482.0,Indonesia,82175242539.0,-0.4236212,130.8238502,https://maps.google.com/?cid=0x0:0xb39b3321d3629975
building materials,Toko Bahan Bangunan,TKP Rizky,"Jl. Perumahan Depan Tk. Surya No.100, Waisai, Distrik Kota Waisai, Kabupaten Raja Ampat, Papua Bar. 98482","Waisai, Distrik Kota Waisai, Kabupaten Raja Ampat",PAPUA BARAT,98482.0,Indonesia,,-0.4248728,130.8209443,https://maps.google.com/?cid=0x0:0xc02d7492d2e3c47
building materials,Toko Bahan Bangunan,UD.RAJA BANGUNAN,"HRG8+RW3, Jl. 30, Waisai, Kec. Waigeo Sel., Kabupaten Raja Ampat, Papua Bar. 98482","Jl. 30, Waisai, Kec. Waigeo Sel., Kabupaten Raja Ampat",PAPUA BARAT,98482.0,Indonesia,82239074478.0,-0.4229807,130.8172901,https://maps.google.com/?cid=0x0:0x202076c12c75e976
building materials,building materials,Tabari Dive Lodge,"Ã®le de Merpati Sauwandarek Village, Meos Mansar, Kabupaten Raja Ampat, Papua Bar.","Kabupaten Raja Ampat, Papua Bar.",PAPUA BARAT,,Indonesia,82193080195.0,-0.6563782,130.5951871,https://maps.google.com/?cid=0x0:0x6e3d1a43cc4c5b34
building materials,building materials,Agusta Eco Resort,"Agusta Island, Sauandarek, Meos Mansar, Kabupaten Raja Ampat, Papua Bar.","Kabupaten Raja Ampat, Papua Bar.",PAPUA BARAT,,Indonesia,81222494732.0,-0.6500322,130.5757884,https://maps.google.com/?cid=0x0:0xa19c31b5fa8927e7
building materials,building materials,Amoryg resort,"Yendirap, sawendarak, Kabupaten Raja Ampat, Papua Bar.","Kabupaten Raja Ampat, Papua Bar.",PAPUA BARAT,,Indonesia,82340182481.0,-0.612278,130.5646907,https://maps.google.com/?cid=0x0:0xc823d7af2ac05194
building materials,building materials,Napoleon Sawandarek Homestay  Dive Center,"CJ63+H6H Distrik Mios, Kampung sawandarek, Distrik Kota Waisai, Kabupaten Raja Ampat, Papua Bar. 98482","Kampung sawandarek, Distrik Kota Waisai, Kabupaten Raja Ampat",PAPUA BARAT,98482.0,Indonesia,81248746848.0,-0.5885517,130.6031192,https://maps.google.com/?cid=0x0:0xc4e83387126aea13
building materials,building materials,Erens Guest House  sauwandarek dive center,"Sauandarek, Meos Mansar, Kabupaten Raja Ampat, Papua Bar.","Kabupaten Raja Ampat, Papua Bar.",PAPUA BARAT,,Indonesia,8114709882.0,-0.5887766,130.6028401,https://maps.google.com/?cid=0x0:0xd12c3c19bcfcd70e
building materials,building materials,Marko Homestay,"Pulau Mansuar, Kurkapa, Meos Mansar, Raja Ampat Regency, West Papua","Kabupaten Raja Ampat, Papua Bar.",PAPUA BARAT,,Indonesia,,-0.5805623,130.6016884,https://maps.google.com/?cid=0x0:0x750f06f006c3da1
building materials,building materials,Nyande Raja Ampat  Dive Shop,"Pulau Mansuar, Kurkapa, Meos Mansar, Raja Ampat Regency, West Papua","Kabupaten Raja Ampat, Papua Bar.",PAPUA BARAT,,Indonesia,82239444532.0,-0.5779207,130.6076202,https://maps.google.com/?cid=0x0:0xb7948f2d19b4b077
building materials,building materials,Frances Homestay,"CJF8+H7, Kurkapa, Kabupaten Raja Ampat, Papua Bar.","Kabupaten Raja Ampat, Papua Bar.",PAPUA BARAT,,Indonesia,,-0.5737089,130.6207701,https://maps.google.com/?cid=0x0:0x2da7e8e00eb3b56a
building materials,building materials,Meos Mansar,"Kabupaten Raja Ampat, Papua Bar.","Kabupaten Raja Ampat, Papua Bar.",PAPUA BARAT,,Indonesia,,-0.4496057,130.583895,https://maps.google.com/?cid=0x0:0xe58d24898307b204
building materials,building materials,Selat Dampier,,,PAPUA BARAT,,Indonesia,,-0.6,130.6,https://maps.google.com/?cid=0x0:0xde264c036b41028c
building materials,building materials,Distrik Misool,"Kabupaten Raja Ampat, Papua Bar.","Kabupaten Raja Ampat, Papua Bar.",PAPUA BARAT,,Indonesia,,-1.7294753,130.076264,https://maps.google.com/?cid=0x0:0xe3dfedd20bce543c
building materials,Masjid,Kampung waigama,"5RCG+PP9, Waigama, Distrik Misool, Kabupaten Raja Ampat, Papua Bar. 98483","Waigama, Distrik Misool, Kabupaten Raja Ampat",PAPUA BARAT,98483.0,Indonesia,,-1.8283429,129.8276028,https://maps.google.com/?cid=0x0:0x3d4fb07034a6a257
building materials,building materials,Misool Eco Resort,"Yellu, Misool Sel., Kabupaten Raja Ampat, Papua Bar. 98483","Misool Sel., Kabupaten Raja Ampat",PAPUA BARAT,98483.0,Indonesia,,-2.244373,130.5557219,https://maps.google.com/?cid=0x0:0xcec0c32ec4b9f857
building materials,Toko Bahan Bangunan,Putra Misool,"Jl. Jend. Sudirman No.2, Remu Sel., Kecamatan Sorong Manoi, Kota Sorong, Papua Bar. 98412","Remu Sel., Kecamatan Sorong Manoi, Kota Sorong",PAPUA BARAT,98412.0,Indonesia,85254520001.0,-0.8862875,131.2861081,https://maps.google.com/?cid=0x0:0x1f5c0cdb1a7057bc
building materials,Masjid,Masjid Waigama,"5RCG+PP9, Waigama, Distrik Misool, Kabupaten Raja Ampat, Papua Bar.","Kabupaten Raja Ampat, Papua Bar.",PAPUA BARAT,,Indonesia,,-1.8282177,129.8268627,https://maps.google.com/?cid=0x0:0x7be5f7789141d51f
building materials,building materials,SMA NEGERI 2 RAJA AMPAT,"5RCG+5MF, Waigama, Distrik Misool, Kabupaten Raja Ampat, Papua Bar. 98483","Waigama, Distrik Misool, Kabupaten Raja Ampat",PAPUA BARAT,98483.0,Indonesia,,-1.8295078,129.826678,https://maps.google.com/?cid=0x0:0x5458c11de411a646
building materials,building materials,Fiabacet,"Yellu, Misool Sel., Kabupaten Raja Ampat, Papua Bar.","Kabupaten Raja Ampat, Papua Bar.",PAPUA BARAT,,Indonesia,,-2.2211111,130.5516667,https://maps.google.com/?cid=0x0:0xdea3f07a56ccf400
building materials,building materials,Misool Eco Resort,"Yellu, Misool Sel., Kabupaten Raja Ampat, Papua Bar. 98483","Misool Sel., Kabupaten Raja Ampat",PAPUA BARAT,98483.0,Indonesia,,-2.244373,130.5557219,https://maps.google.com/?cid=0x0:0xcec0c32ec4b9f857
building materials,Toko Bahan Bangunan,Putra Misool,"Jl. Jend. Sudirman No.2, Remu Sel., Kecamatan Sorong Manoi, Kota Sorong, Papua Bar. 98412","Remu Sel., Kecamatan Sorong Manoi, Kota Sorong",PAPUA BARAT,98412.0,Indonesia,85254520001.0,-0.8862875,131.2861081,https://maps.google.com/?cid=0x0:0x1f5c0cdb1a7057bc
building materials,building materials,Fiabacet,"Yellu, Misool Sel., Kabupaten Raja Ampat, Papua Bar.","Kabupaten Raja Ampat, Papua Bar.",PAPUA BARAT,,Indonesia,,-2.2211111,130.5516667,https://maps.google.com/?cid=0x0:0xdea3f07a56ccf400
building materials,building materials,Misool Eco Resort,"Yellu, Misool Sel., Kabupaten Raja Ampat, Papua Bar. 98483","Misool Sel., Kabupaten Raja Ampat",PAPUA BARAT,98483.0,Indonesia,,-2.244373,130.5557219,https://maps.google.com/?cid=0x0:0xcec0c32ec4b9f857
building materials,Toko Bahan Bangunan,Putra Misool,"Jl. Jend. Sudirman No.2, Remu Sel., Kecamatan Sorong Manoi, Kota Sorong, Papua Bar. 98412","Remu Sel., Kecamatan Sorong Manoi, Kota Sorong",PAPUA BARAT,98412.0,Indonesia,85254520001.0,-0.8862875,131.2861081,https://maps.google.com/?cid=0x0:0x1f5c0cdb1a7057bc
building materials,building materials,Misool Sel.,"Kabupaten Raja Ampat, Papua Bar.","Kabupaten Raja Ampat, Papua Bar.",PAPUA BARAT,,Indonesia,,-1.959546,130.3190719,https://maps.google.com/?cid=0x0:0x772018b3157aa95b
building materials,building materials,Misool Eco Resort,"Yellu, Misool Sel., Kabupaten Raja Ampat, Papua Bar. 98483","Misool Sel., Kabupaten Raja Ampat",PAPUA BARAT,98483.0,Indonesia,,-2.244373,130.5557219,https://maps.google.com/?cid=0x0:0xcec0c32ec4b9f857
building materials,building materials,Fiabacet,"Yellu, Misool Sel., Kabupaten Raja Ampat, Papua Bar.","Kabupaten Raja Ampat, Papua Bar.",PAPUA BARAT,,Indonesia,,-2.2211111,130.5516667,https://maps.google.com/?cid=0x0:0xdea3f07a56ccf400
building materials,Toko Bahan Bangunan,Putra Misool,"Jl. Jend. Sudirman No.2, Remu Sel., Kecamatan Sorong Manoi, Kota Sorong, Papua Bar. 98412","Remu Sel., Kecamatan Sorong Manoi, Kota Sorong",PAPUA BARAT,98412.0,Indonesia,85254520001.0,-0.8862875,131.2861081,https://maps.google.com/?cid=0x0:0x1f5c0cdb1a7057bc
building materials,building materials,Distrik Misool Timur,"Kabupaten Raja Ampat, Papua Bar.","Kabupaten Raja Ampat, Papua Bar.",PAPUA BARAT,,Indonesia,,-1.7731765,130.4105659,https://maps.google.com/?cid=0x0:0x37397a27849d25ed
building materials,building materials,Distrik Salawati Barat,"Kabupaten Raja Ampat, Papua Bar.","Kabupaten Raja Ampat, Papua Bar.",PAPUA BARAT,,Indonesia,,-1.0980561,130.7040528,https://maps.google.com/?cid=0x0:0x6c8554c61c1a5f51
building materials,Toko Bahan Bangunan,ANEKA BANGUNAN,"Wosi, Kec. Manokwari Bar., Kabupaten Manokwari, Papua Bar. 98312","Kec. Manokwari Bar., Kabupaten Manokwari",PAPUA BARAT,98312.0,Indonesia,81344843001.0,-0.8631883,134.0498559,https://maps.google.com/?cid=0x0:0x3598159af16f30ea
building materials,Pemasok Bahan Bangunan,Depo Makmur Manokwari,"43P2+QWR, Jl. Trikora Wosi, Wosi, Kec. Manokwari Bar., Kabupaten Manokwari, Papua Bar. 98312","Jl. Trikora Wosi, Wosi, Kec. Manokwari Bar., Kabupaten Manokwari",PAPUA BARAT,98312.0,Indonesia,81248426402.0,-0.8630402,134.0521741,https://maps.google.com/?cid=0x0:0x387befda163fc63b
building materials,Toko Bahan Bangunan,Toko Bangunan Abadi,"4862+H2G, Malaingkedi, Kec. Sorong Utara, Kota Sorong, Papua Bar. 98412","Malaingkedi, Kec. Sorong Utara, Kota Sorong",PAPUA BARAT,98412.0,Indonesia,81248762864.0,-0.8885625,131.3000781,https://maps.google.com/?cid=0x0:0xa4c5e3d6e0f0bf2b
building materials,Toko Bahan Bangunan,Toko bangunan abadi 2,"HRGF+HG5, Waisai, Kec. Waigeo Sel., Kabupaten Raja Ampat, Papua Bar. 98482","Waisai, Kec. Waigeo Sel., Kabupaten Raja Ampat",PAPUA BARAT,98482.0,Indonesia,82175242539.0,-0.4236212,130.8238502,https://maps.google.com/?cid=0x0:0xb39b3321d3629975
building materials,Toko Cat,Toko Bangunan Abid Sejahtera - Waisai,"Jl. Jend. Sudirman No.30, Waisai, Distrik Kota Waisai, Kabupaten Raja Ampat, Papua Bar. 98482","Waisai, Distrik Kota Waisai, Kabupaten Raja Ampat",PAPUA BARAT,98482.0,Indonesia,82248014806.0,-0.4206038,130.8216501,https://maps.google.com/?cid=0x0:0x635cf5cb88ebe389
building materials,building materials,Salawati Tengah,"Kabupaten Raja Ampat, Papua Bar.","Kabupaten Raja Ampat, Papua Bar.",PAPUA BARAT,,Indonesia,,-1.0547794,131.0589536,https://maps.google.com/?cid=0x0:0x9e15ae7888c4541f
building materials,Toko Perlengkapan Rumah,Bata merah,"V75F+W8, Majaran, Kec. Salawati, Kabupaten Sorong, Papua Bar. 98451","Majaran, Kec. Salawati, Kabupaten Sorong",PAPUA BARAT,98451.0,Indonesia,82228119551.0,-1.1401734,131.273265,https://maps.google.com/?cid=0x0:0xa98dff062c415125
building materials,Toko Bahan Bangunan,"Papua Bangunan, CV PAPUA ABADI","Jl. Basuki Rahmat No.780, Klawuyuk, Distrik Sorong Timur, Kota Sorong, Papua Bar. 98416","Klawuyuk, Distrik Sorong Timur, Kota Sorong",PAPUA BARAT,98416.0,Indonesia,81332017550.0,-0.8954087,131.3186922,https://maps.google.com/?cid=0x0:0x851804bc3aa7f033
building materials,building materials,Penjualan Bahan Material Alam,,,PAPUA BARAT,,Indonesia,82238315446.0,-1.624239,132.27898,https://maps.google.com/?cid=0x0:0x5181383959b47fc1
building materials,Toko,TB. Imanuel,"V7GJ+HJM, Jl. Nusantara Katapop II, Majaran, Kec. Salawati, Kabupaten Sorong, Papua Bar. 98451","Jl. Nusantara Katapop II, Majaran, Kec. Salawati, Kabupaten Sorong",PAPUA BARAT,98451.0,Indonesia,81278808072.0,-1.1230556,131.2814167,https://maps.google.com/?cid=0x0:0xf00e563cb4742d82
building materials,Toko,Imanuel Shop,"Jl. Gambas, Malawele, Kec. Aimas, Kabupaten Sorong, Papua Bar. 98418","Malawele, Kec. Aimas, Kabupaten Sorong",PAPUA BARAT,98418.0,Indonesia,,-0.9555091,131.3025958,https://maps.google.com/?cid=0x0:0xa4f4c44175ed7c91
building materials,building materials,Pulau Salawati,"Kapatlap, Kec. Salawati Utara, Kabupaten Raja Ampat, Papua Bar.","Kabupaten Raja Ampat, Papua Bar.",PAPUA BARAT,,Indonesia,,-1.1166667,130.8666667,https://maps.google.com/?cid=0x0:0x3403a680ccd12b11
building materials,Toko Bahan Bangunan,"Papua Bangunan, CV PAPUA ABADI","Jl. Basuki Rahmat No.780, Klawuyuk, Distrik Sorong Timur, Kota Sorong, Papua Bar. 98416","Klawuyuk, Distrik Sorong Timur, Kota Sorong",PAPUA BARAT,98416.0,Indonesia,81332017550.0,-0.8954087,131.3186922,https://maps.google.com/?cid=0x0:0x851804bc3aa7f033
building materials,Toko Cat,Toko Bangunan Abid Sejahtera - Waisai,"Jl. Jend. Sudirman No.30, Waisai, Distrik Kota Waisai, Kabupaten Raja Ampat, Papua Bar. 98482","Waisai, Distrik Kota Waisai, Kabupaten Raja Ampat",PAPUA BARAT,98482.0,Indonesia,82248014806.0,-0.4206038,130.8216501,https://maps.google.com/?cid=0x0:0x635cf5cb88ebe389
building materials,building materials,Samate,"Kec. Salawati Utara, Kabupaten Raja Ampat, Papua Bar.","Kabupaten Raja Ampat, Papua Bar.",PAPUA BARAT,,Indonesia,,-1.0467251,130.9384914,https://maps.google.com/?cid=0x0:0x2dd85ff53a555d40
building materials,building materials,Supnin,"Kabupaten Raja Ampat, Papua Bar.","Kabupaten Raja Ampat, Papua Bar.",PAPUA BARAT,,Indonesia,,-0.0707044,130.7766611,https://maps.google.com/?cid=0x0:0x460c1dbebeaa6e11
building materials,Toko Bahan Bangunan,PAPUA BANGUNAN,"42GX+945, Wosi, Kec. Manokwari Bar., Kabupaten Manokwari, Papua Bar. 98312","Wosi, Kec. Manokwari Bar., Kabupaten Manokwari",PAPUA BARAT,98312.0,Indonesia,82198055550.0,-0.874101,134.0478473,https://maps.google.com/?cid=0x0:0x2c3683b193d9430f
building materials,Toko Bahan Bangunan,"Papua Bangunan, CV PAPUA ABADI","Jl. Basuki Rahmat No.780, Klawuyuk, Distrik Sorong Timur, Kota Sorong, Papua Bar. 98416","Klawuyuk, Distrik Sorong Timur, Kota Sorong",PAPUA BARAT,98416.0,Indonesia,81332017550.0,-0.8954087,131.3186922,https://maps.google.com/?cid=0x0:0x851804bc3aa7f033
building materials,Toko Bahan Bangunan,Depo Bangunan Mbanyu Mili,"3VQM+2GP depan balai kampung sp 2, Prafi Mulia, Distrik Prafi, Kabupaten Manokwari, Papua Bar. 98356","Prafi Mulia, Distrik Prafi, Kabupaten Manokwari",PAPUA BARAT,98356.0,Indonesia,85254126242.0,-0.9124191,133.8838245,https://maps.google.com/?cid=0x0:0x72bb281db456c91a
building materials,Toko Elektronik,Toko Bangunan Sumber Baru,"SP3, Aimasi, Jl. Poros, Distrik Prafi, Kabupaten Manokwari, Papua Bar. 98356","Aimasi, Jl. Poros, Distrik Prafi, Kabupaten Manokwari",PAPUA BARAT,98356.0,Indonesia,81234807007.0,-0.883667,133.820223,https://maps.google.com/?cid=0x0:0x7475be84d164c6b6
building materials,Toko Kayu,"TPK , FERDINAND ALAM PAPUA","282V+3F4, Jl. Rajawali, Klamalu, Aimas, Sorong Regency, West Papua 98416","Jl. Rajawali, Klamalu, Aimas, Sorong Regency",PAPUA BARAT,98416.0,Indonesia,,-0.999856,131.3436981,https://maps.google.com/?cid=0x0:0xedf6d8b0e1c9f9f2
building materials,Toko Bahan Bangunan,PT. Bintuni Utama Murni Wood Industries,"Jl. Jend. Sudirman No.40, Padarni, Kec. Manokwari Bar., Kabupaten Manokwari, Papua Bar. 98312","Padarni, Kec. Manokwari Bar., Kabupaten Manokwari",PAPUA BARAT,98312.0,Indonesia,986211170.0,-0.8600523,134.0722125,https://maps.google.com/?cid=0x0:0xf2f8ff6d20bb8f63
building materials,Toko Bahan Bangunan,NASYA BANGUNAN,"X8M9+469, Jl. Nusa Indah, Mariyai, Distrik Mariat, Kabupaten Sorong, Papua Bar. 98415","Jl. Nusa Indah, Mariyai, Distrik Mariat, Kabupaten Sorong",PAPUA BARAT,98415.0,Indonesia,,-1.0172176,131.3181156,https://maps.google.com/?cid=0x0:0x19e47aadec85996d
building materials,Toko Bahan Bangunan,Royal Bangunan (PT. Papua Jaya Bangunan),"43P8+87R, Jl. Percetakan Negara, Sanggeng, Kec. Manokwari Bar., Kabupaten Manokwari, Papua Bar. 98312","Jl. Percetakan Negara, Sanggeng, Kec. Manokwari Bar., Kabupaten Manokwari",PAPUA BARAT,98312.0,Indonesia,87784554955.0,-0.8641385,134.0656252,https://maps.google.com/?cid=0x0:0x99b3b4ac0bad58a
building materials,Toko Bahan Bangunan,Tiptore Building Material,"Jl. Poros Kuda Mati, Klp. Lima, Kec. Merauke, Kabupaten Merauke, Papua 99616","Klp. Lima, Kec. Merauke, Kabupaten Merauke",PAPUA BARAT,99616.0,Indonesia,82293657714.0,-8.5061763,140.4257632,https://maps.google.com/?cid=0x0:0xbf132c61e5517b30
building materials,Toko Bahan Bangunan,Gudang Tigase Pratama,"Jl. Reremi Puncak, Manokwari Bar., Kec. Manokwari Bar., Kabupaten Manokwari, Papua Bar. 98312","Manokwari Bar., Kec. Manokwari Bar., Kabupaten Manokwari",PAPUA BARAT,98312.0,Indonesia,85397520354.0,-0.8495164,134.0532569,https://maps.google.com/?cid=0x0:0xb40a25d0c79962aa
building materials,building materials,Lokasi 1,"X6HW+J95, Arar, Mayamuk, Kabupaten Sorong, Papua Bar. 98451","Arar, Mayamuk, Kabupaten Sorong",PAPUA BARAT,98451.0,Indonesia,,-1.0209774,131.2459793,https://maps.google.com/?cid=0x0:0x4daaf5403eca98d2
building materials,Toko Bahan Bangunan,Toko Bangunan Abadi,"4862+H2G, Malaingkedi, Kec. Sorong Utara, Kota Sorong, Papua Bar. 98412","Malaingkedi, Kec. Sorong Utara, Kota Sorong",PAPUA BARAT,98412.0,Indonesia,81248762864.0,-0.8885625,131.3000781,https://maps.google.com/?cid=0x0:0xa4c5e3d6e0f0bf2b
building materials,Toko Bahan Bangunan,Wapoga Mutiara Timber. PT,"43MJ+WXW, Manokwari Tim., Kec. Manokwari Bar., Kabupaten Manokwari, Papua Bar. 98312","Manokwari Tim., Kec. Manokwari Bar., Kabupaten Manokwari",PAPUA BARAT,98312.0,Indonesia,962211770.0,-0.86514,134.082441,https://maps.google.com/?cid=0x0:0x23cc3c5246cb2c52
building materials,building materials,Kec. Tlk. Mayalibit,"Kabupaten Raja Ampat, Papua Bar.","Kabupaten Raja Ampat, Papua Bar.",PAPUA BARAT,,Indonesia,,-0.2689344,130.9384914,https://maps.google.com/?cid=0x0:0xae388a762cdfd0ec
building materials,Toko Cat,Toko Bangunan Abid Sejahtera - Waisai,"Jl. Jend. Sudirman No.30, Waisai, Distrik Kota Waisai, Kabupaten Raja Ampat, Papua Bar. 98482","Waisai, Distrik Kota Waisai, Kabupaten Raja Ampat",PAPUA BARAT,98482.0,Indonesia,82248014806.0,-0.4206038,130.8216501,https://maps.google.com/?cid=0x0:0x635cf5cb88ebe389
building materials,Toko Bahan Bangunan,Toko bangunan abadi 2,"HRGF+HG5, Waisai, Kec. Waigeo Sel., Kabupaten Raja Ampat, Papua Bar. 98482","Waisai, Kec. Waigeo Sel., Kabupaten Raja Ampat",PAPUA BARAT,98482.0,Indonesia,82175242539.0,-0.4236212,130.8238502,https://maps.google.com/?cid=0x0:0xb39b3321d3629975
building materials,Toko Bahan Bangunan,TKP Rizky,"Jl. Perumahan Depan Tk. Surya No.100, Waisai, Distrik Kota Waisai, Kabupaten Raja Ampat, Papua Bar. 98482","Waisai, Distrik Kota Waisai, Kabupaten Raja Ampat",PAPUA BARAT,98482.0,Indonesia,,-0.4248728,130.8209443,https://maps.google.com/?cid=0x0:0xc02d7492d2e3c47
building materials,Toko Bahan Bangunan,UD.RAJA BANGUNAN,"HRG8+RW3, Jl. 30, Waisai, Kec. Waigeo Sel., Kabupaten Raja Ampat, Papua Bar. 98482","Jl. 30, Waisai, Kec. Waigeo Sel., Kabupaten Raja Ampat",PAPUA BARAT,98482.0,Indonesia,82239074478.0,-0.4229807,130.8172901,https://maps.google.com/?cid=0x0:0x202076c12c75e976
building materials,building materials,Distrik Tiplol Mayalibit,"Kabupaten Raja Ampat, Papua Bar.","Kabupaten Raja Ampat, Papua Bar.",PAPUA BARAT,,Indonesia,,-0.078691,130.6642772,https://maps.google.com/?cid=0x0:0xd2fca4629b110358
building materials,Komplek perumahan,Kampung GO,"WMC7+FR, GO, Distrik Tiplol Mayalibit, Kabupaten Raja Ampat, Papua Bar.","Kabupaten Raja Ampat, Papua Bar.",PAPUA BARAT,,Indonesia,,-0.0787902,130.6647357,https://maps.google.com/?cid=0x0:0xdb864b8b77569429
building materials,Toko Cat,Toko Bangunan Abid Sejahtera - Waisai,"Jl. Jend. Sudirman No.30, Waisai, Distrik Kota Waisai, Kabupaten Raja Ampat, Papua Bar. 98482","Waisai, Distrik Kota Waisai, Kabupaten Raja Ampat",PAPUA BARAT,98482.0,Indonesia,82248014806.0,-0.4206038,130.8216501,https://maps.google.com/?cid=0x0:0x635cf5cb88ebe389
building materials,building materials,Kec. Waigeo Bar.,"Kabupaten Raja Ampat, Papua Bar.","Kabupaten Raja Ampat, Papua Bar.",PAPUA BARAT,,Indonesia,,-0.1565367,130.4516329,https://maps.google.com/?cid=0x0:0xa968725bc286475b
building materials,Toko Bahan Bangunan,Toko bangunan abadi 2,"HRGF+HG5, Waisai, Kec. Waigeo Sel., Kabupaten Raja Ampat, Papua Bar. 98482","Waisai, Kec. Waigeo Sel., Kabupaten Raja Ampat",PAPUA BARAT,98482.0,Indonesia,82175242539.0,-0.4236212,130.8238502,https://maps.google.com/?cid=0x0:0xb39b3321d3629975
building materials,Toko Bahan Bangunan,"Papua Bangunan, CV PAPUA ABADI","Jl. Basuki Rahmat No.780, Klawuyuk, Distrik Sorong Timur, Kota Sorong, Papua Bar. 98416","Klawuyuk, Distrik Sorong Timur, Kota Sorong",PAPUA BARAT,98416.0,Indonesia,81332017550.0,-0.8954087,131.3186922,https://maps.google.com/?cid=0x0:0x851804bc3aa7f033
building materials,building materials,Distrik Waigeo Barat Kepulauan,"Kabupaten Raja Ampat, Papua Bar.","Kabupaten Raja Ampat, Papua Bar.",PAPUA BARAT,,Indonesia,,-0.3990489,129.8878154,https://maps.google.com/?cid=0x0:0x2f9f2f03d60aa281
building materials,Toko Bahan Bangunan,"Papua Bangunan, CV PAPUA ABADI","Jl. Basuki Rahmat No.780, Klawuyuk, Distrik Sorong Timur, Kota Sorong, Papua Bar. 98416","Klawuyuk, Distrik Sorong Timur, Kota Sorong",PAPUA BARAT,98416.0,Indonesia,81332017550.0,-0.8954087,131.3186922,https://maps.google.com/?cid=0x0:0x851804bc3aa7f033
building materials,Toko Bahan Bangunan,Toko bangunan abadi 2,"HRGF+HG5, Waisai, Kec. Waigeo Sel., Kabupaten Raja Ampat, Papua Bar. 98482","Waisai, Kec. Waigeo Sel., Kabupaten Raja Ampat",PAPUA BARAT,98482.0,Indonesia,82175242539.0,-0.4236212,130.8238502,https://maps.google.com/?cid=0x0:0xb39b3321d3629975
building materials,building materials,Kec. Waigeo Sel.,"Kabupaten Raja Ampat, Papua Bar.","Kabupaten Raja Ampat, Papua Bar.",PAPUA BARAT,,Indonesia,,-0.3840807,130.7361322,https://maps.google.com/?cid=0x0:0x2c9db46da776b4
building materials,Toko Bahan Bangunan,Toko bangunan abadi 2,"HRGF+HG5, Waisai, Kec. Waigeo Sel., Kabupaten Raja Ampat, Papua Bar. 98482","Waisai, Kec. Waigeo Sel., Kabupaten Raja Ampat",PAPUA BARAT,98482.0,Indonesia,82175242539.0,-0.4236212,130.8238502,https://maps.google.com/?cid=0x0:0xb39b3321d3629975
building materials,Toko Cat,Toko Bangunan Abid Sejahtera - Waisai,"Jl. Jend. Sudirman No.30, Waisai, Distrik Kota Waisai, Kabupaten Raja Ampat, Papua Bar. 98482","Waisai, Distrik Kota Waisai, Kabupaten Raja Ampat",PAPUA BARAT,98482.0,Indonesia,82248014806.0,-0.4206038,130.8216501,https://maps.google.com/?cid=0x0:0x635cf5cb88ebe389
building materials,Toko Bahan Bangunan,TKP Rizky,"Jl. Perumahan Depan Tk. Surya No.100, Waisai, Distrik Kota Waisai, Kabupaten Raja Ampat, Papua Bar. 98482","Waisai, Distrik Kota Waisai, Kabupaten Raja Ampat",PAPUA BARAT,98482.0,Indonesia,,-0.4248728,130.8209443,https://maps.google.com/?cid=0x0:0xc02d7492d2e3c47
building materials,Toko Bahan Bangunan,UD.RAJA BANGUNAN,"HRG8+RW3, Jl. 30, Waisai, Kec. Waigeo Sel., Kabupaten Raja Ampat, Papua Bar. 98482","Jl. 30, Waisai, Kec. Waigeo Sel., Kabupaten Raja Ampat",PAPUA BARAT,98482.0,Indonesia,82239074478.0,-0.4229807,130.8172901,https://maps.google.com/?cid=0x0:0x202076c12c75e976
building materials,Toko Bahan Bangunan,Toko bangunan abadi 2,"HRGF+HG5, Waisai, Kec. Waigeo Sel., Kabupaten Raja Ampat, Papua Bar. 98482","Waisai, Kec. Waigeo Sel., Kabupaten Raja Ampat",PAPUA BARAT,98482.0,Indonesia,82175242539.0,-0.4236212,130.8238502,https://maps.google.com/?cid=0x0:0xb39b3321d3629975
building materials,building materials,Distrik Waigeo Timur,"Kabupaten Raja Ampat, Papua Bar.","Kabupaten Raja Ampat, Papua Bar.",PAPUA BARAT,,Indonesia,,-0.3761806,131.2503597,https://maps.google.com/?cid=0x0:0x9ea83c531b1daa8e
building materials,Toko Cat,Toko Bangunan Abid Sejahtera - Waisai,"Jl. Jend. Sudirman No.30, Waisai, Distrik Kota Waisai, Kabupaten Raja Ampat, Papua Bar. 98482","Waisai, Distrik Kota Waisai, Kabupaten Raja Ampat",PAPUA BARAT,98482.0,Indonesia,82248014806.0,-0.4206038,130.8216501,https://maps.google.com/?cid=0x0:0x635cf5cb88ebe389
building materials,Toko Bahan Bangunan,UD.RAJA BANGUNAN,"HRG8+RW3, Jl. 30, Waisai, Kec. Waigeo Sel., Kabupaten Raja Ampat, Papua Bar. 98482","Jl. 30, Waisai, Kec. Waigeo Sel., Kabupaten Raja Ampat",PAPUA BARAT,98482.0,Indonesia,82239074478.0,-0.4229807,130.8172901,https://maps.google.com/?cid=0x0:0x202076c12c75e976
building materials,Toko Cat,Toko Bangunan Abid Sejahtera - Waisai,"Jl. Jend. Sudirman No.30, Waisai, Distrik Kota Waisai, Kabupaten Raja Ampat, Papua Bar. 98482","Waisai, Distrik Kota Waisai, Kabupaten Raja Ampat",PAPUA BARAT,98482.0,Indonesia,82248014806.0,-0.4206038,130.8216501,https://maps.google.com/?cid=0x0:0x635cf5cb88ebe389
building materials,building materials,Distrik Waigeo Utara,"Kabupaten Raja Ampat, Papua Bar.","Kabupaten Raja Ampat, Papua Bar.",PAPUA BARAT,,Indonesia,,-0.0564707,130.9858964,https://maps.google.com/?cid=0x0:0xc31e9c0aa62767f2
building materials,Toko Bahan Bangunan,Toko bangunan abadi 2,"HRGF+HG5, Waisai, Kec. Waigeo Sel., Kabupaten Raja Ampat, Papua Bar. 98482","Waisai, Kec. Waigeo Sel., Kabupaten Raja Ampat",PAPUA BARAT,98482.0,Indonesia,82175242539.0,-0.4236212,130.8238502,https://maps.google.com/?cid=0x0:0xb39b3321d3629975
building materials,building materials,Papua Bar.,,Papua Bar.,PAPUA BARAT,,Indonesia,,-1.3361154,133.1747162,https://maps.google.com/?cid=0x0:0x5349c1f8c5c7cb62
building materials,Pemasok Bahan Bangunan,Depo Makmur Manokwari,"43P2+QWR, Jl. Trikora Wosi, Wosi, Kec. Manokwari Bar., Kabupaten Manokwari, Papua Bar. 98312","Jl. Trikora Wosi, Wosi, Kec. Manokwari Bar., Kabupaten Manokwari",PAPUA BARAT,98312.0,Indonesia,81248426402.0,-0.8630402,134.0521741,https://maps.google.com/?cid=0x0:0x387befda163fc63b
building materials,Toko Bahan Bangunan,"Papua Bangunan, CV PAPUA ABADI","Jl. Basuki Rahmat No.780, Klawuyuk, Distrik Sorong Timur, Kota Sorong, Papua Bar. 98416","Klawuyuk, Distrik Sorong Timur, Kota Sorong",PAPUA BARAT,98416.0,Indonesia,81332017550.0,-0.8954087,131.3186922,https://maps.google.com/?cid=0x0:0x851804bc3aa7f033
building materials,Toko Bahan Bangunan,Cabang Buana Karya Group,"427W+3FJ, Jl. Drs Esau Sesa, Sowi, Distrik Manokwari, Kabupaten Manokwari, Papua Bar. 98315","Jl. Drs Esau Sesa, Sowi, Distrik Manokwari, Kabupaten Manokwari",PAPUA BARAT,98315.0,Indonesia,,-0.8872785,134.0461277,https://maps.google.com/?cid=0x0:0xd5ae321c41153a59
building materials,Toko Bahan Bangunan,Depo Bangunan Mbanyu Mili,"3VQM+2GP depan balai kampung sp 2, Prafi Mulia, Distrik Prafi, Kabupaten Manokwari, Papua Bar. 98356","Prafi Mulia, Distrik Prafi, Kabupaten Manokwari",PAPUA BARAT,98356.0,Indonesia,85254126242.0,-0.9124191,133.8838245,https://maps.google.com/?cid=0x0:0x72bb281db456c91a
building materials,Toko Bahan Bangunan,PAPUA BANGUNAN,"42GX+945, Wosi, Kec. Manokwari Bar., Kabupaten Manokwari, Papua Bar. 98312","Wosi, Kec. Manokwari Bar., Kabupaten Manokwari",PAPUA BARAT,98312.0,Indonesia,82198055550.0,-0.874101,134.0478473,https://maps.google.com/?cid=0x0:0x2c3683b193d9430f
building materials,Toko Bahan Bangunan,PT. Bintuni Utama Murni Wood Industries,"Jl. Jend. Sudirman No.40, Padarni, Kec. Manokwari Bar., Kabupaten Manokwari, Papua Bar. 98312","Padarni, Kec. Manokwari Bar., Kabupaten Manokwari",PAPUA BARAT,98312.0,Indonesia,986211170.0,-0.8600523,134.0722125,https://maps.google.com/?cid=0x0:0xf2f8ff6d20bb8f63
building materials,Toko Bahan Bangunan,PT. Krisbow Indonesia,"Jalan Merdeka No.39, Padarni, Manokwari Barat, Manokwari Tim., Kec. Manokwari Bar., Kabupaten Manokwari, Papua Bar. 98312","Padarni, Manokwari Barat, Manokwari Tim., Kec. Manokwari Bar., Kabupaten Manokwari",PAPUA BARAT,98312.0,Indonesia,81248423250.0,-0.8616299,134.0740729,https://maps.google.com/?cid=0x0:0x10c87e4c2287d8be
building materials,Pusat Perbelanjaan,Toko Bangunan Pole Wali,"G523+VJ4, Jl. Manokwari - Bintuni, Sabri, Distrik Ransiki, Kab. Manokwari Selatan, Papua Bar. 98355","Jl. Manokwari - Bintuni, Sabri, Distrik Ransiki, Kab. Manokwari Selatan",PAPUA BARAT,98355.0,Indonesia,82199061888.0,-1.4978515,134.1540692,https://maps.google.com/?cid=0x0:0xd1498f23bc1ae81e
building materials,Toko Elektronik,Toko Bangunan Sumber Baru,"SP3, Aimasi, Jl. Poros, Distrik Prafi, Kabupaten Manokwari, Papua Bar. 98356","Aimasi, Jl. Poros, Distrik Prafi, Kabupaten Manokwari",PAPUA BARAT,98356.0,Indonesia,81234807007.0,-0.883667,133.820223,https://maps.google.com/?cid=0x0:0x7475be84d164c6b6
building materials,Toko Bahan Bangunan,Royal Bangunan (PT. Papua Jaya Bangunan),"43P8+87R, Jl. Percetakan Negara, Sanggeng, Kec. Manokwari Bar., Kabupaten Manokwari, Papua Bar. 98312","Jl. Percetakan Negara, Sanggeng, Kec. Manokwari Bar., Kabupaten Manokwari",PAPUA BARAT,98312.0,Indonesia,87784554955.0,-0.8641385,134.0656252,https://maps.google.com/?cid=0x0:0x99b3b4ac0bad58a
building materials,Toko Bahan Bangunan,Wapoga Mutiara Timber. PT,"43MJ+WXW, Manokwari Tim., Kec. Manokwari Bar., Kabupaten Manokwari, Papua Bar. 98312","Manokwari Tim., Kec. Manokwari Bar., Kabupaten Manokwari",PAPUA BARAT,98312.0,Indonesia,962211770.0,-0.86514,134.082441,https://maps.google.com/?cid=0x0:0x23cc3c5246cb2c52
building materials,Pemasok Bahan Bangunan,Toko bangunan Sumber Makmur,"32CM+75G, Jl. Manokwari - Maruni, Anday, Distrik Manokwari, Kabupaten Manokwari, Papua Bar. 98315","Jl. Manokwari - Maruni, Anday, Distrik Manokwari, Kabupaten Manokwari",PAPUA BARAT,98315.0,Indonesia,8114846060.0,-0.9293075,134.0329487,https://maps.google.com/?cid=0x0:0xa0a85c7270dde255
building materials,Toko bahan makanan,Toko Irian,"Jl. Manokwari - Bintuni, Ransiki Kota, Distrik Ransiki, Kab. Manokwari Selatan, Papua Bar. 98355","Ransiki Kota, Distrik Ransiki, Kab. Manokwari Selatan",PAPUA BARAT,98355.0,Indonesia,,-1.5078497,134.1712887,https://maps.google.com/?cid=0x0:0xf38ba09157a6ee94
hardware store,hardware store,Distrik Aifat,"Kabupaten Maybrat, Papua Bar.","Kabupaten Maybrat, Papua Bar.",PAPUA BARAT,,Indonesia,,-1.2568532,132.5001338,https://maps.google.com/?cid=0x0:0xcc3d52ba3ddd33de
hardware store,Komplek perumahan,Kampung Ikuf Utara,"P825+PHW, Ikuf, Kec. Aitinyo Utara, Kabupaten Maybrat, Papua Bar. 98462","Ikuf, Kec. Aitinyo Utara, Kabupaten Maybrat",PAPUA BARAT,98462.0,Indonesia,82238129105.0,-1.2981251,132.3089429,https://maps.google.com/?cid=0x0:0xb9d02a542bef9753
hardware store,Toko,Toko Fratafen Jaya Bangunan,"Jl. Fratafen, Fiane, Kec. Ayamaru, Kabupaten Maybrat, Papua Bar.","Kabupaten Maybrat, Papua Bar.",PAPUA BARAT,,Indonesia,81344891455.0,-1.2930171,132.2477662,https://maps.google.com/?cid=0x0:0x637ec3d664ebdaa3
hardware store,hardware store,Distrik Aifat,"Kabupaten Maybrat, Papua Bar.","Kabupaten Maybrat, Papua Bar.",PAPUA BARAT,,Indonesia,,-1.2568532,132.5001338,https://maps.google.com/?cid=0x0:0xcc3d52ba3ddd33de
hardware store,Komplek perumahan,Kampung Ikuf Utara,"P825+PHW, Ikuf, Kec. Aitinyo Utara, Kabupaten Maybrat, Papua Bar. 98462","Ikuf, Kec. Aitinyo Utara, Kabupaten Maybrat",PAPUA BARAT,98462.0,Indonesia,82238129105.0,-1.2981251,132.3089429,https://maps.google.com/?cid=0x0:0xb9d02a542bef9753
hardware store,Toko,Toko Fratafen Jaya Bangunan,"Jl. Fratafen, Fiane, Kec. Ayamaru, Kabupaten Maybrat, Papua Bar.","Kabupaten Maybrat, Papua Bar.",PAPUA BARAT,,Indonesia,81344891455.0,-1.2930171,132.2477662,https://maps.google.com/?cid=0x0:0x637ec3d664ebdaa3
hardware store,hardware store,distrik Batanta Selatan,"Kabupaten Raja Ampat, Papua Bar.","Kabupaten Raja Ampat, Papua Bar.",PAPUA BARAT,,Indonesia,,-0.8447219,130.8171615,https://maps.google.com/?cid=0x0:0xc5c0f28bd225b23c
hardware store,Toko Cat,Toko Bangunan Abid Sejahtera - Waisai,"Jl. Jend. Sudirman No.30, Waisai, Distrik Kota Waisai, Kabupaten Raja Ampat, Papua Bar. 98482","Waisai, Distrik Kota Waisai, Kabupaten Raja Ampat",PAPUA BARAT,98482.0,Indonesia,82248014806.0,-0.4206038,130.8216501,https://maps.google.com/?cid=0x0:0x635cf5cb88ebe389
hardware store,Toko Bahan Bangunan,Toko bangunan abadi 2,"HRGF+HG5, Waisai, Kec. Waigeo Sel., Kabupaten Raja Ampat, Papua Bar. 98482","Waisai, Kec. Waigeo Sel., Kabupaten Raja Ampat",PAPUA BARAT,98482.0,Indonesia,82175242539.0,-0.4236212,130.8238502,https://maps.google.com/?cid=0x0:0xb39b3321d3629975
hardware store,hardware store,Pulau Batanta,"Wailebet, distrik Batanta Selatan, Kabupaten Raja Ampat, Papua Bar.","Kabupaten Raja Ampat, Papua Bar.",PAPUA BARAT,,Indonesia,,-0.8647222,130.6494444,https://maps.google.com/?cid=0x0:0x622f6c920ed64eb5
hardware store,Toko Bahan Bangunan,Parit Raja Hardware sdn bhd,"Parit Sikun, Taman Manis, 86400 Parit Raja, Johor Darul Ta'zim, Malaysia",Parit Raja,PAPUA BARAT,86400.0,Indonesia,60102340072.0,1.8694974,103.1235308,https://maps.google.com/?cid=0x0:0x2bc778c192584cf8
hardware store,Toko Bahan Bangunan,Kok Xin Hardware,"86400 Parit Raja, Johor, Malaysia",Parit Raja,PAPUA BARAT,86400.0,Indonesia,6074532848.0,1.8566065,103.0989905,https://maps.google.com/?cid=0x0:0xf0a45f4bf1484e4
hardware store,Toko Cat,Toko Bangunan Abid Sejahtera - Waisai,"Jl. Jend. Sudirman No.30, Waisai, Distrik Kota Waisai, Kabupaten Raja Ampat, Papua Bar. 98482","Waisai, Distrik Kota Waisai, Kabupaten Raja Ampat",PAPUA BARAT,98482.0,Indonesia,82248014806.0,-0.4206038,130.8216501,https://maps.google.com/?cid=0x0:0x635cf5cb88ebe389
hardware store,Toko Bahan Bangunan,Toko bangunan abadi 2,"HRGF+HG5, Waisai, Kec. Waigeo Sel., Kabupaten Raja Ampat, Papua Bar. 98482","Waisai, Kec. Waigeo Sel., Kabupaten Raja Ampat",PAPUA BARAT,98482.0,Indonesia,82175242539.0,-0.4236212,130.8238502,https://maps.google.com/?cid=0x0:0xb39b3321d3629975
hardware store,Toko Bahan Bangunan,Suang Lee Hardware Trading Sdn. Bhd.,"Lot 3A, Phase NU 2A, Nilai Utama Enterprise Park, Negeri Sembilan, 71800 Nilai, Malaysia",Nilai,PAPUA BARAT,71800.0,Indonesia,601800883378.0,2.8463183,101.813331,https://maps.google.com/?cid=0x0:0xdfe1f5438160904f
hardware store,hardware store,Distrik Kepulauan Ayau,"Kabupaten Raja Ampat, Papua Bar.","Kabupaten Raja Ampat, Papua Bar.",PAPUA BARAT,,Indonesia,,0.3635672,131.0512644,https://maps.google.com/?cid=0x0:0x3356c509ee72e556
hardware store,hardware store,Pulau Kofiau,"Mikiran, Kofiau, Kabupaten Raja Ampat, Papua Bar.","Kabupaten Raja Ampat, Papua Bar.",PAPUA BARAT,,Indonesia,,-1.1833333,129.8333333,https://maps.google.com/?cid=0x0:0x22393f628dc41dcc
hardware store,hardware store,Distrik Kota Waisai,"Waisai, Kabupaten Raja Ampat, Papua Bar.","Kabupaten Raja Ampat, Papua Bar.",PAPUA BARAT,,Indonesia,,-0.4248841,130.8208792,https://maps.google.com/?cid=0x0:0x50ee7a1504609bf5
hardware store,Toko Cat,Toko Bangunan Abid Sejahtera - Waisai,"Jl. Jend. Sudirman No.30, Waisai, Distrik Kota Waisai, Kabupaten Raja Ampat, Papua Bar. 98482","Waisai, Distrik Kota Waisai, Kabupaten Raja Ampat",PAPUA BARAT,98482.0,Indonesia,82248014806.0,-0.4206038,130.8216501,https://maps.google.com/?cid=0x0:0x635cf5cb88ebe389
hardware store,Toko Perlengkapan Rumah,MR.DIY,"Jl. Raya Waisai, Kel. Warmasen, Distrik Kota Waisai, Kabupaten Raja Ampat, Papua Bar. 98471","Kel. Warmasen, Distrik Kota Waisai, Kabupaten Raja Ampat",PAPUA BARAT,98471.0,Indonesia,,-0.4198972,130.8264373,https://maps.google.com/?cid=0x0:0x7b669a43b5e63902
hardware store,Toko,Toko Adzriel,"Waisai, Distrik Kota Waisai, Kabupaten Raja Ampat, Papua Bar. 98482","Distrik Kota Waisai, Kabupaten Raja Ampat",PAPUA BARAT,98482.0,Indonesia,82399669703.0,-0.4241387,130.8220673,https://maps.google.com/?cid=0x0:0xdb133bf0abb7a96b
hardware store,Kantor Pemerintah,Kantor Kelurahan Warmasen,"HRHJ+P86, Waisai, Waigeo Selatan, Waisai, Raja Ampat, Kabupaten Raja Ampat, Papua Bar. 98482","Waisai, Waigeo Selatan, Waisai, Raja Ampat, Kabupaten Raja Ampat",PAPUA BARAT,98482.0,Indonesia,,-0.4207208,130.830775,https://maps.google.com/?cid=0x0:0x45daa715dbcee08e
hardware store,Studio Foto,Asrat Print  Freelens PhotoStudio,"HRGC+287, Jl. Fundar Sakela, Waisai, Kec. Waigeo Sel., Kabupaten Raja Ampat, Papua Bar. 98482","Jl. Fundar Sakela, Waisai, Kec. Waigeo Sel., Kabupaten Raja Ampat",PAPUA BARAT,98482.0,Indonesia,85214074247.0,-0.4249539,130.8207995,https://maps.google.com/?cid=0x0:0xa456b7a25da53801
hardware store,hardware store,Meos Mansar,"Kabupaten Raja Ampat, Papua Bar.","Kabupaten Raja Ampat, Papua Bar.",PAPUA BARAT,,Indonesia,,-0.4496057,130.583895,https://maps.google.com/?cid=0x0:0xe58d24898307b204
hardware store,Toko Bahan Bangunan,Moza Hardware(msy),"Moza Hardware Hadapan Masjid Lama Pengkalan Kakap, Pengkalan Kakap, 08400 Merbok, Kedah, Malaysia",Merbok,PAPUA BARAT,8400.0,Indonesia,60142090959.0,5.7076753,100.3947617,https://maps.google.com/?cid=0x0:0xcd78061cdcda27fb
hardware store,Toko Bahan Bangunan,MLT SERASI ENTERPRISE,"lot 60975 simpang sekolah menengah, 08400 Merbok, Kedah, Malaysia",simpang sekolah menengah,PAPUA BARAT,60975.0,Indonesia,60194763940.0,5.7211664,100.4170926,https://maps.google.com/?cid=0x0:0x8f9e0e4f0aec0309
hardware store,hardware store,Pulau Misool,"Lilinta, Distrik Misool Barat, Kabupaten Raja Ampat, Papua Bar.","Kabupaten Raja Ampat, Papua Bar.",PAPUA BARAT,,Indonesia,,-1.894722,130.083611,https://maps.google.com/?cid=0x0:0xecb252193e0bc469
hardware store,hardware store,Distrik Misool,"Kabupaten Raja Ampat, Papua Bar.","Kabupaten Raja Ampat, Papua Bar.",PAPUA BARAT,,Indonesia,,-1.7294753,130.076264,https://maps.google.com/?cid=0x0:0xe3dfedd20bce543c
hardware store,hardware store,Distrik Misool Barat,"Kabupaten Raja Ampat, Papua Bar.","Kabupaten Raja Ampat, Papua Bar.",PAPUA BARAT,,Indonesia,,-2.0480936,130.2709743,https://maps.google.com/?cid=0x0:0xfc668800a318e464
hardware store,hardware store,Misool Sel.,"Kabupaten Raja Ampat, Papua Bar.","Kabupaten Raja Ampat, Papua Bar.",PAPUA BARAT,,Indonesia,,-1.959546,130.3190719,https://maps.google.com/?cid=0x0:0x772018b3157aa95b
hardware store,hardware store,Distrik Misool Timur,"Kabupaten Raja Ampat, Papua Bar.","Kabupaten Raja Ampat, Papua Bar.",PAPUA BARAT,,Indonesia,,-1.7731765,130.4105659,https://maps.google.com/?cid=0x0:0x37397a27849d25ed
hardware store,hardware store,Distrik Salawati Barat,"Kabupaten Raja Ampat, Papua Bar.","Kabupaten Raja Ampat, Papua Bar.",PAPUA BARAT,,Indonesia,,-1.0980561,130.7040528,https://maps.google.com/?cid=0x0:0x6c8554c61c1a5f51
hardware store,Toko Cat,Toko Bangunan Abid Sejahtera - Waisai,"Jl. Jend. Sudirman No.30, Waisai, Distrik Kota Waisai, Kabupaten Raja Ampat, Papua Bar. 98482","Waisai, Distrik Kota Waisai, Kabupaten Raja Ampat",PAPUA BARAT,98482.0,Indonesia,82248014806.0,-0.4206038,130.8216501,https://maps.google.com/?cid=0x0:0x635cf5cb88ebe389
hardware store,Toko Bahan Bangunan,Toko bangunan abadi 2,"HRGF+HG5, Waisai, Kec. Waigeo Sel., Kabupaten Raja Ampat, Papua Bar. 98482","Waisai, Kec. Waigeo Sel., Kabupaten Raja Ampat",PAPUA BARAT,98482.0,Indonesia,82175242539.0,-0.4236212,130.8238502,https://maps.google.com/?cid=0x0:0xb39b3321d3629975
hardware store,hardware store,Salawati Tengah,"Kabupaten Raja Ampat, Papua Bar.","Kabupaten Raja Ampat, Papua Bar.",PAPUA BARAT,,Indonesia,,-1.0547794,131.0589536,https://maps.google.com/?cid=0x0:0x9e15ae7888c4541f
hardware store,hardware store,Pulau Salawati,"Kapatlap, Kec. Salawati Utara, Kabupaten Raja Ampat, Papua Bar.","Kabupaten Raja Ampat, Papua Bar.",PAPUA BARAT,,Indonesia,,-1.1166667,130.8666667,https://maps.google.com/?cid=0x0:0x3403a680ccd12b11
hardware store,hardware store,Kec. Salawati Utara,"Kabupaten Raja Ampat, Papua Bar.","Kabupaten Raja Ampat, Papua Bar.",PAPUA BARAT,,Indonesia,,-0.9331378,131.0507976,https://maps.google.com/?cid=0x0:0xb2f63efc0009064f
hardware store,Toko,Boyzcell,"GQGH+H9G, Nanggerang, Kec. Tajur Halang, Kabupaten Bogor, Jawa Barat 16320","Nanggerang, Kec. Tajur Halang, Kabupaten Bogor",PAPUA BARAT,16320.0,Indonesia,81280926680.0,-6.4735682,106.7784564,https://maps.google.com/?cid=0x0:0xe0d65a49cc1b4af5
hardware store,hardware store,Samate,"Kec. Salawati Utara, Kabupaten Raja Ampat, Papua Bar.","Kabupaten Raja Ampat, Papua Bar.",PAPUA BARAT,,Indonesia,,-1.0467251,130.9384914,https://maps.google.com/?cid=0x0:0x2dd85ff53a555d40
hardware store,hardware store,Supnin,"Kabupaten Raja Ampat, Papua Bar.","Kabupaten Raja Ampat, Papua Bar.",PAPUA BARAT,,Indonesia,,-0.0707044,130.7766611,https://maps.google.com/?cid=0x0:0x460c1dbebeaa6e11
hardware store,Toko Bahan Bangunan,Parit Raja Hardware sdn bhd,"Parit Sikun, Taman Manis, 86400 Parit Raja, Johor Darul Ta'zim, Malaysia",Parit Raja,PAPUA BARAT,86400.0,Indonesia,60102340072.0,1.8694974,103.1235308,https://maps.google.com/?cid=0x0:0x2bc778c192584cf8
hardware store,Toko Bahan Bangunan,Kok Xin Hardware,"86400 Parit Raja, Johor, Malaysia",Parit Raja,PAPUA BARAT,86400.0,Indonesia,6074532848.0,1.8566065,103.0989905,https://maps.google.com/?cid=0x0:0xf0a45f4bf1484e4
hardware store,Toko Perlengkapan Rumah,MR.DIY,"Jl. Raya Waisai, Kel. Warmasen, Distrik Kota Waisai, Kabupaten Raja Ampat, Papua Bar. 98471","Kel. Warmasen, Distrik Kota Waisai, Kabupaten Raja Ampat",PAPUA BARAT,98471.0,Indonesia,,-0.4198972,130.8264373,https://maps.google.com/?cid=0x0:0x7b669a43b5e63902
hardware store,hardware store,Kec. Tlk. Mayalibit,"Kabupaten Raja Ampat, Papua Bar.","Kabupaten Raja Ampat, Papua Bar.",PAPUA BARAT,,Indonesia,,-0.2689344,130.9384914,https://maps.google.com/?cid=0x0:0xae388a762cdfd0ec
hardware store,Toko Cat,Toko Bangunan Abid Sejahtera - Waisai,"Jl. Jend. Sudirman No.30, Waisai, Distrik Kota Waisai, Kabupaten Raja Ampat, Papua Bar. 98482","Waisai, Distrik Kota Waisai, Kabupaten Raja Ampat",PAPUA BARAT,98482.0,Indonesia,82248014806.0,-0.4206038,130.8216501,https://maps.google.com/?cid=0x0:0x635cf5cb88ebe389
hardware store,Toko Perlengkapan Rumah,Toko Wulandari,"Jl. Jend. Sudirman No.30, Waisai, Distrik Kota Waisai, Kabupaten Raja Ampat, Papua Bar. 98482","Waisai, Distrik Kota Waisai, Kabupaten Raja Ampat",PAPUA BARAT,98482.0,Indonesia,85289486673.0,-0.420841,130.8213223,https://maps.google.com/?cid=0x0:0xdab6098842233d7f
hardware store,Toko Cat,Toko Bangunan Abid Sejahtera - Waisai,"Jl. Jend. Sudirman No.30, Waisai, Distrik Kota Waisai, Kabupaten Raja Ampat, Papua Bar. 98482","Waisai, Distrik Kota Waisai, Kabupaten Raja Ampat",PAPUA BARAT,98482.0,Indonesia,82248014806.0,-0.4206038,130.8216501,https://maps.google.com/?cid=0x0:0x635cf5cb88ebe389
hardware store,Toko Bahan Bangunan,Toko bangunan abadi 2,"HRGF+HG5, Waisai, Kec. Waigeo Sel., Kabupaten Raja Ampat, Papua Bar. 98482","Waisai, Kec. Waigeo Sel., Kabupaten Raja Ampat",PAPUA BARAT,98482.0,Indonesia,82175242539.0,-0.4236212,130.8238502,https://maps.google.com/?cid=0x0:0xb39b3321d3629975
hardware store,hardware store,Distrik Tiplol Mayalibit,"Kabupaten Raja Ampat, Papua Bar.","Kabupaten Raja Ampat, Papua Bar.",PAPUA BARAT,,Indonesia,,-0.078691,130.6642772,https://maps.google.com/?cid=0x0:0xd2fca4629b110358
hardware store,Toko Cat,Toko Bangunan Abid Sejahtera - Waisai,"Jl. Jend. Sudirman No.30, Waisai, Distrik Kota Waisai, Kabupaten Raja Ampat, Papua Bar. 98482","Waisai, Distrik Kota Waisai, Kabupaten Raja Ampat",PAPUA BARAT,98482.0,Indonesia,82248014806.0,-0.4206038,130.8216501,https://maps.google.com/?cid=0x0:0x635cf5cb88ebe389
hardware store,Toko Bahan Bangunan,Toko bangunan abadi 2,"HRGF+HG5, Waisai, Kec. Waigeo Sel., Kabupaten Raja Ampat, Papua Bar. 98482","Waisai, Kec. Waigeo Sel., Kabupaten Raja Ampat",PAPUA BARAT,98482.0,Indonesia,82175242539.0,-0.4236212,130.8238502,https://maps.google.com/?cid=0x0:0xb39b3321d3629975
hardware store,Toko Bahan Bangunan,CS Wai Hardware Trading,"D.M, A1,A3,A5,A7 Taman seri mahkota Aman, Batu11, 26070 Kuantan, Pahang, Malaysia",Kuantan,PAPUA BARAT,26070.0,Indonesia,60129482369.0,3.7492895,103.1916818,https://maps.google.com/?cid=0x0:0xe138b22f27316dae
hardware store,Toko Cat,Toko Bangunan Abid Sejahtera - Waisai,"Jl. Jend. Sudirman No.30, Waisai, Distrik Kota Waisai, Kabupaten Raja Ampat, Papua Bar. 98482","Waisai, Distrik Kota Waisai, Kabupaten Raja Ampat",PAPUA BARAT,98482.0,Indonesia,82248014806.0,-0.4206038,130.8216501,https://maps.google.com/?cid=0x0:0x635cf5cb88ebe389
hardware store,Toko Bahan Bangunan,Toko bangunan abadi 2,"HRGF+HG5, Waisai, Kec. Waigeo Sel., Kabupaten Raja Ampat, Papua Bar. 98482","Waisai, Kec. Waigeo Sel., Kabupaten Raja Ampat",PAPUA BARAT,98482.0,Indonesia,82175242539.0,-0.4236212,130.8238502,https://maps.google.com/?cid=0x0:0xb39b3321d3629975
hardware store,hardware store,Papua Bar. 98482,"Kabupaten Raja Ampat, Papua Bar.","Kabupaten Raja Ampat, Papua Bar.",PAPUA BARAT,,Indonesia,,-0.3696535,130.7564002,https://maps.google.com/?cid=0x0:0x19dfa32a027748a3
hardware store,Toko Bahan Bangunan,Toko bangunan abadi 2,"HRGF+HG5, Waisai, Kec. Waigeo Sel., Kabupaten Raja Ampat, Papua Bar. 98482","Waisai, Kec. Waigeo Sel., Kabupaten Raja Ampat",PAPUA BARAT,98482.0,Indonesia,82175242539.0,-0.4236212,130.8238502,https://maps.google.com/?cid=0x0:0xb39b3321d3629975
hardware store,Toko Cat,Toko Bangunan Abid Sejahtera - Waisai,"Jl. Jend. Sudirman No.30, Waisai, Distrik Kota Waisai, Kabupaten Raja Ampat, Papua Bar. 98482","Waisai, Distrik Kota Waisai, Kabupaten Raja Ampat",PAPUA BARAT,98482.0,Indonesia,82248014806.0,-0.4206038,130.8216501,https://maps.google.com/?cid=0x0:0x635cf5cb88ebe389
hardware store,hardware store,Kec. Waigeo Sel.,"Kabupaten Raja Ampat, Papua Bar.","Kabupaten Raja Ampat, Papua Bar.",PAPUA BARAT,,Indonesia,,-0.3840807,130.7361322,https://maps.google.com/?cid=0x0:0x2c9db46da776b4
hardware store,Toko Perlengkapan Rumah,MR.DIY,"Jl. Raya Waisai, Kel. Warmasen, Distrik Kota Waisai, Kabupaten Raja Ampat, Papua Bar. 98471","Kel. Warmasen, Distrik Kota Waisai, Kabupaten Raja Ampat",PAPUA BARAT,98471.0,Indonesia,,-0.4198972,130.8264373,https://maps.google.com/?cid=0x0:0x7b669a43b5e63902
hardware store,Toko Bahan Bangunan,Toko bangunan abadi 2,"HRGF+HG5, Waisai, Kec. Waigeo Sel., Kabupaten Raja Ampat, Papua Bar. 98482","Waisai, Kec. Waigeo Sel., Kabupaten Raja Ampat",PAPUA BARAT,98482.0,Indonesia,82175242539.0,-0.4236212,130.8238502,https://maps.google.com/?cid=0x0:0xb39b3321d3629975
hardware store,Toko Cat,Toko Bangunan Abid Sejahtera - Waisai,"Jl. Jend. Sudirman No.30, Waisai, Distrik Kota Waisai, Kabupaten Raja Ampat, Papua Bar. 98482","Waisai, Distrik Kota Waisai, Kabupaten Raja Ampat",PAPUA BARAT,98482.0,Indonesia,82248014806.0,-0.4206038,130.8216501,https://maps.google.com/?cid=0x0:0x635cf5cb88ebe389
hardware store,Toko Cat,Toko Bangunan Abid Sejahtera - Waisai,"Jl. Jend. Sudirman No.30, Waisai, Distrik Kota Waisai, Kabupaten Raja Ampat, Papua Bar. 98482","Waisai, Distrik Kota Waisai, Kabupaten Raja Ampat",PAPUA BARAT,98482.0,Indonesia,82248014806.0,-0.4206038,130.8216501,https://maps.google.com/?cid=0x0:0x635cf5cb88ebe389
hardware store,Toko Bahan Bangunan,Toko bangunan abadi 2,"HRGF+HG5, Waisai, Kec. Waigeo Sel., Kabupaten Raja Ampat, Papua Bar. 98482","Waisai, Kec. Waigeo Sel., Kabupaten Raja Ampat",PAPUA BARAT,98482.0,Indonesia,82175242539.0,-0.4236212,130.8238502,https://maps.google.com/?cid=0x0:0xb39b3321d3629975
hardware store,hardware store,Puyau Homestay,"WXH8+2G6, Bonsayor, Distrik Waigeo Utara, Kabupaten Raja Ampat, Papua Bar. 98481","Bonsayor, Distrik Waigeo Utara, Kabupaten Raja Ampat",PAPUA BARAT,98481.0,Indonesia,,-0.0724575,130.9662651,https://maps.google.com/?cid=0x0:0x2d232270f35f1be8
hardware store,hardware store,Papua Bar. 98481,"Kabupaten Raja Ampat, Papua Bar.","Kabupaten Raja Ampat, Papua Bar.",PAPUA BARAT,,Indonesia,,-0.0847884,130.8374011,https://maps.google.com/?cid=0x0:0xabdb6fd88155f082
hardware store,Toko Elektronik,Toko Surya Jaya Baru,"Wosi, Kec. Manokwari Bar., Kabupaten Manokwari, Papua Bar. 98312","Kec. Manokwari Bar., Kabupaten Manokwari",PAPUA BARAT,98312.0,Indonesia,82280927521.0,-0.8720013,134.0464927,https://maps.google.com/?cid=0x0:0xce10528af6d036f4
hardware store,Toko Game,War Toy's,"Poinsquare Lebak Bulus Lantai Bawah 109, JL R.A. Kartini, No. 1, Lebak Bulus, 12440, RT.9/RW.7, Lb. Bulus, Jakarta Selatan, Kota Jakarta Selatan, Daerah Khusus Ibukota Jakarta 12440","Lebak Bulus,",PAPUA BARAT,12440.0,Indonesia,2175921122.0,-6.2895061,106.777487,https://maps.google.com/?cid=0x0:0xc695c7945cec6294
hardware store,Toko Mainan,Mini Games,"Poins Square, Jl. R.A. Kartini No.81, RT.9/RW.7, Lb. Bulus, Kec. Cilandak, Kota Jakarta Selatan, Daerah Khusus Ibukota Jakarta 12440","Jl. R.A. Kartini No.81, RT.9/RW.7, Lb. Bulus, Kec. Cilandak, Kota Jakarta Selatan",PAPUA BARAT,12440.0,Indonesia,2175921200.0,-6.290043,106.777807,https://maps.google.com/?cid=0x0:0x2e4ac1a26c8e7595
supermarket bangunan,supermarket bangunan,Distrik Aifat,"Kabupaten Maybrat, Papua Bar.","Kabupaten Maybrat, Papua Bar.",PAPUA BARAT,,Indonesia,,-1.2568532,132.5001338,https://maps.google.com/?cid=0x0:0xcc3d52ba3ddd33de
supermarket bangunan,supermarket bangunan,Bengkel dan Bangunan Larry,"PFWX+RP4, Fait Mayaf, Distrik Aifat, Kabupaten Maybrat, Papua Bar. 98463","Fait Mayaf, Distrik Aifat, Kabupaten Maybrat",PAPUA BARAT,98463.0,Indonesia,,-1.2529726,132.4992838,https://maps.google.com/?cid=0x0:0x34355660cc5c29ef
supermarket bangunan,Toko,Toko Fratafen Jaya Bangunan,"Jl. Fratafen, Fiane, Kec. Ayamaru, Kabupaten Maybrat, Papua Bar.","Kabupaten Maybrat, Papua Bar.",PAPUA BARAT,,Indonesia,81344891455.0,-1.2930171,132.2477662,https://maps.google.com/?cid=0x0:0x637ec3d664ebdaa3
supermarket bangunan,Pemasok Bahan Bangunan,Supermarket Bangunan Abadi ( Bangunan Abadi ) Meruya,"Jl. Meruya Ilir Raya No.13 3, RT.3/RW.2, Meruya Utara, Kec. Kembangan, Kota Jakarta Barat, Daerah Khusus Ibukota Jakarta 11610","RT.3/RW.2, Meruya Utara, Kec. Kembangan, Kota Jakarta Barat",PAPUA BARAT,11610.0,Indonesia,215856801.0,-6.1976477,106.7425118,https://maps.google.com/?cid=0x0:0x13872e6ebcfc2cac
supermarket bangunan,Toko Bahan Bangunan,Tb.Aneka Jaya,"Jl. Srengseng Sawah No.40, RT.3/RW.9, Srengseng Sawah, Kec. Jagakarsa, Kota Jakarta Selatan, Daerah Khusus Ibukota Jakarta 12630","RT.3/RW.9, Srengseng Sawah, Kec. Jagakarsa, Kota Jakarta Selatan",PAPUA BARAT,12630.0,Indonesia,85219465440.0,-6.3582789,106.8120311,https://maps.google.com/?cid=0x0:0x1e2ad159dd994acd
supermarket bangunan,Toko Bahan Bangunan,Cahaya Bangunan,"4, Jl. Meruya Ilir Raya No.82C, RT.4/RW.8, Srengseng, Kec. Kembangan, Kota Jakarta Barat, Daerah Khusus Ibukota Jakarta 11620","Jl. Meruya Ilir Raya No.82C, RT.4/RW.8, Srengseng, Kec. Kembangan, Kota Jakarta Barat",PAPUA BARAT,11620.0,Indonesia,215868105.0,-6.198191,106.7527248,https://maps.google.com/?cid=0x0:0x71fab95142362a49
supermarket bangunan,supermarket bangunan,Papua Bar. 98652,"Doom Tim., Distrik Sorong Kepulauan, Kota Sorong, Papua Bar.","Kota Sorong, Papua Bar.",PAPUA BARAT,,Indonesia,,-0.9375383,131.254499,https://maps.google.com/?cid=0x0:0x5905364cc30efd0e
supermarket bangunan,Toko Bahan Bangunan,"Papua Bangunan, CV PAPUA ABADI","Jl. Basuki Rahmat No.780, Klawuyuk, Distrik Sorong Timur, Kota Sorong, Papua Bar. 98416","Klawuyuk, Distrik Sorong Timur, Kota Sorong",PAPUA BARAT,98416.0,Indonesia,81332017550.0,-0.8954087,131.3186922,https://maps.google.com/?cid=0x0:0x851804bc3aa7f033
supermarket bangunan,Toko Bahan Bangunan,Padma Bangunan,"Wai Mhorock, Kec. Abepura, Kota Jayapura, Papua 99225","Kec. Abepura, Kota Jayapura",PAPUA BARAT,99225.0,Indonesia,9675180108.0,-2.6096427,140.6725314,https://maps.google.com/?cid=0x0:0x908e38e219cfc28
supermarket bangunan,Toko Bahan Bangunan,Toko Bangunan Abadi,"4862+H2G, Malaingkedi, Kec. Sorong Utara, Kota Sorong, Papua Bar. 98412","Malaingkedi, Kec. Sorong Utara, Kota Sorong",PAPUA BARAT,98412.0,Indonesia,81248762864.0,-0.8885625,131.3000781,https://maps.google.com/?cid=0x0:0xa4c5e3d6e0f0bf2b
supermarket bangunan,Toko Bahan Bangunan,Supermarket Bahan Bangunan Tirta Bangunan,"Jl. Raya Babakan Madang, Sentul, Kec. Babakan Madang, Kabupaten Bogor, Jawa Barat 16810","Sentul, Kec. Babakan Madang, Kabupaten Bogor",PAPUA BARAT,16810.0,Indonesia,8881300271.0,-6.5601203,106.8537161,https://maps.google.com/?cid=0x0:0xc9e77a7f8f9d2f66
supermarket bangunan,supermarket bangunan,Supermarket Bahan Bangunan,"Jl. Raya Sawangan No.3, RT.3/RW.1, Mampang, Kec. Pancoran Mas, Kota Depok, Jawa Barat 16433","RT.3/RW.1, Mampang, Kec. Pancoran Mas, Kota Depok",PAPUA BARAT,16433.0,Indonesia,,-6.3956904,106.8033472,https://maps.google.com/?cid=0x0:0xbf85e2787e32635c
supermarket bangunan,supermarket bangunan,distrik Batanta Selatan,"Kabupaten Raja Ampat, Papua Bar.","Kabupaten Raja Ampat, Papua Bar.",PAPUA BARAT,,Indonesia,,-0.8447219,130.8171615,https://maps.google.com/?cid=0x0:0xc5c0f28bd225b23c
supermarket bangunan,Toko Bahan Bangunan,Supermarket Multi Bangunan,"Jl Baru No.98, Wai Mhorock, Abepura, Jayapura City, Papua 99225","Wai Mhorock, Abepura, Jayapura City",PAPUA BARAT,99225.0,Indonesia,967588677.0,-2.6077336,140.6742812,https://maps.google.com/?cid=0x0:0x3b19f301c68f1d6f
supermarket bangunan,Toko Cat,Toko Bangunan Abid Sejahtera - Waisai,"Jl. Jend. Sudirman No.30, Waisai, Distrik Kota Waisai, Kabupaten Raja Ampat, Papua Bar. 98482","Waisai, Distrik Kota Waisai, Kabupaten Raja Ampat",PAPUA BARAT,98482.0,Indonesia,82248014806.0,-0.4206038,130.8216501,https://maps.google.com/?cid=0x0:0x635cf5cb88ebe389
supermarket bangunan,Toko Bahan Bangunan,Toko bangunan abadi 2,"HRGF+HG5, Waisai, Kec. Waigeo Sel., Kabupaten Raja Ampat, Papua Bar. 98482","Waisai, Kec. Waigeo Sel., Kabupaten Raja Ampat",PAPUA BARAT,98482.0,Indonesia,82175242539.0,-0.4236212,130.8238502,https://maps.google.com/?cid=0x0:0xb39b3321d3629975
supermarket bangunan,Toko Bahan Bangunan,Toko bangunan abadi 2,"HRGF+HG5, Waisai, Kec. Waigeo Sel., Kabupaten Raja Ampat, Papua Bar. 98482","Waisai, Kec. Waigeo Sel., Kabupaten Raja Ampat",PAPUA BARAT,98482.0,Indonesia,82175242539.0,-0.4236212,130.8238502,https://maps.google.com/?cid=0x0:0xb39b3321d3629975
supermarket bangunan,Toko Cat,Toko Bangunan Abid Sejahtera - Waisai,"Jl. Jend. Sudirman No.30, Waisai, Distrik Kota Waisai, Kabupaten Raja Ampat, Papua Bar. 98482","Waisai, Distrik Kota Waisai, Kabupaten Raja Ampat",PAPUA BARAT,98482.0,Indonesia,82248014806.0,-0.4206038,130.8216501,https://maps.google.com/?cid=0x0:0x635cf5cb88ebe389
supermarket bangunan,Toko Bahan Bangunan,Supermarket Multi Bangunan,"Jl Baru No.98, Wai Mhorock, Abepura, Jayapura City, Papua 99225","Wai Mhorock, Abepura, Jayapura City",PAPUA BARAT,99225.0,Indonesia,967588677.0,-2.6077336,140.6742812,https://maps.google.com/?cid=0x0:0x3b19f301c68f1d6f
supermarket bangunan,supermarket bangunan,Kepulauan Sembilan,"Kabupaten Raja Ampat, Papua Bar.","Kabupaten Raja Ampat, Papua Bar.",PAPUA BARAT,,Indonesia,,-1.4692971,130.2424588,https://maps.google.com/?cid=0x0:0x364ea5a3f0657fa
supermarket bangunan,Toko Cat,Toko Bangunan Abid Sejahtera - Waisai,"Jl. Jend. Sudirman No.30, Waisai, Distrik Kota Waisai, Kabupaten Raja Ampat, Papua Bar. 98482","Waisai, Distrik Kota Waisai, Kabupaten Raja Ampat",PAPUA BARAT,98482.0,Indonesia,82248014806.0,-0.4206038,130.8216501,https://maps.google.com/?cid=0x0:0x635cf5cb88ebe389
supermarket bangunan,Toko Bahan Bangunan,Toko bangunan abadi 2,"HRGF+HG5, Waisai, Kec. Waigeo Sel., Kabupaten Raja Ampat, Papua Bar. 98482","Waisai, Kec. Waigeo Sel., Kabupaten Raja Ampat",PAPUA BARAT,98482.0,Indonesia,82175242539.0,-0.4236212,130.8238502,https://maps.google.com/?cid=0x0:0xb39b3321d3629975
supermarket bangunan,Toko Cat,Toko Bangunan Abid Sejahtera - Waisai,"Jl. Jend. Sudirman No.30, Waisai, Distrik Kota Waisai, Kabupaten Raja Ampat, Papua Bar. 98482","Waisai, Distrik Kota Waisai, Kabupaten Raja Ampat",PAPUA BARAT,98482.0,Indonesia,82248014806.0,-0.4206038,130.8216501,https://maps.google.com/?cid=0x0:0x635cf5cb88ebe389
supermarket bangunan,Toko Bahan Bangunan,Toko bangunan abadi 2,"HRGF+HG5, Waisai, Kec. Waigeo Sel., Kabupaten Raja Ampat, Papua Bar. 98482","Waisai, Kec. Waigeo Sel., Kabupaten Raja Ampat",PAPUA BARAT,98482.0,Indonesia,82175242539.0,-0.4236212,130.8238502,https://maps.google.com/?cid=0x0:0xb39b3321d3629975
supermarket bangunan,Toko Bahan Bangunan,Samudra Pasific store,"Ruko teracce 9, Jalan Jati Utama Jl. Suvarna Indira Utama No.17 blok A no 15, sutera, Kec. Sindang Jaya, Kabupaten Tangerang, Banten 15560","Jalan Jati Utama Jl. Suvarna Indira Utama No.17 blok A no 15, sutera, Kec. Sindang Jaya, Kabupaten Tangerang",PAPUA BARAT,15560.0,Indonesia,82111998598.0,-6.173978,106.5008573,https://maps.google.com/?cid=0x0:0x2554c9364757f23e
supermarket bangunan,Toko Bahan Bangunan,Toko Bangunan Sinar Makmur Sentosa,"Jl. Taman Palem Lestari No.B18 23B, RT.7/RW.13, Cengkareng Bar., Kecamatan Cengkareng, Kota Jakarta Barat, Daerah Khusus Ibukota Jakarta 11730","RT.7/RW.13, Cengkareng Bar., Kecamatan Cengkareng, Kota Jakarta Barat",PAPUA BARAT,11730.0,Indonesia,82112226464.0,-6.1366377,106.7230693,https://maps.google.com/?cid=0x0:0xcb06ad51c8346712
supermarket bangunan,Toko Bahan Bangunan,TB. Sinar Mulia -TamanPalem,"Ruko taman Palem Lestari, Ruko Taman Palem Lestari Blok C1 no. 28, C1/28, RT.3/RW.13, West Cengkareng, Cengkareng, West Jakarta City, Jakarta 11730","Ruko Taman Palem Lestari Blok C1 no. 28, C1/28, RT.3/RW.13, West Cengkareng, Cengkareng, West Jakarta City",PAPUA BARAT,11730.0,Indonesia,81370705287.0,-6.1347251,106.7195385,https://maps.google.com/?cid=0x0:0x37d76127b1f268d
supermarket bangunan,supermarket bangunan,Distrik Kota Waisai,"Waisai, Kabupaten Raja Ampat, Papua Bar.","Kabupaten Raja Ampat, Papua Bar.",PAPUA BARAT,,Indonesia,,-0.4248841,130.8208792,https://maps.google.com/?cid=0x0:0x50ee7a1504609bf5
supermarket bangunan,Toko Bahan Bangunan,Toko bangunan abadi 2,"HRGF+HG5, Waisai, Kec. Waigeo Sel., Kabupaten Raja Ampat, Papua Bar. 98482","Waisai, Kec. Waigeo Sel., Kabupaten Raja Ampat",PAPUA BARAT,98482.0,Indonesia,82175242539.0,-0.4236212,130.8238502,https://maps.google.com/?cid=0x0:0xb39b3321d3629975
supermarket bangunan,Toko Bahan Bangunan,TKP Rizky,"Jl. Perumahan Depan Tk. Surya No.100, Waisai, Distrik Kota Waisai, Kabupaten Raja Ampat, Papua Bar. 98482","Waisai, Distrik Kota Waisai, Kabupaten Raja Ampat",PAPUA BARAT,98482.0,Indonesia,,-0.4248728,130.8209443,https://maps.google.com/?cid=0x0:0xc02d7492d2e3c47
supermarket bangunan,Toko Cat,Toko Bangunan Abid Sejahtera - Waisai,"Jl. Jend. Sudirman No.30, Waisai, Distrik Kota Waisai, Kabupaten Raja Ampat, Papua Bar. 98482","Waisai, Distrik Kota Waisai, Kabupaten Raja Ampat",PAPUA BARAT,98482.0,Indonesia,82248014806.0,-0.4206038,130.8216501,https://maps.google.com/?cid=0x0:0x635cf5cb88ebe389
supermarket bangunan,Toko Bahan Bangunan,UD.RAJA BANGUNAN,"HRG8+RW3, Jl. 30, Waisai, Kec. Waigeo Sel., Kabupaten Raja Ampat, Papua Bar. 98482","Jl. 30, Waisai, Kec. Waigeo Sel., Kabupaten Raja Ampat",PAPUA BARAT,98482.0,Indonesia,82239074478.0,-0.4229807,130.8172901,https://maps.google.com/?cid=0x0:0x202076c12c75e976
supermarket bangunan,supermarket bangunan,Meos Mansar,"Kabupaten Raja Ampat, Papua Bar.","Kabupaten Raja Ampat, Papua Bar.",PAPUA BARAT,,Indonesia,,-0.4496057,130.583895,https://maps.google.com/?cid=0x0:0xe58d24898307b204
supermarket bangunan,Toko Cat,Toko Bangunan Abid Sejahtera - Waisai,"Jl. Jend. Sudirman No.30, Waisai, Distrik Kota Waisai, Kabupaten Raja Ampat, Papua Bar. 98482","Waisai, Distrik Kota Waisai, Kabupaten Raja Ampat",PAPUA BARAT,98482.0,Indonesia,82248014806.0,-0.4206038,130.8216501,https://maps.google.com/?cid=0x0:0x635cf5cb88ebe389
supermarket bangunan,Toko Bahan Bangunan,Supermarket Multi Bangunan,"Jl Baru No.98, Wai Mhorock, Abepura, Jayapura City, Papua 99225","Wai Mhorock, Abepura, Jayapura City",PAPUA BARAT,99225.0,Indonesia,967588677.0,-2.6077336,140.6742812,https://maps.google.com/?cid=0x0:0x3b19f301c68f1d6f
supermarket bangunan,Toko Bahan Bangunan,Toko Bangunan Abadi,"4862+H2G, Malaingkedi, Kec. Sorong Utara, Kota Sorong, Papua Bar. 98412","Malaingkedi, Kec. Sorong Utara, Kota Sorong",PAPUA BARAT,98412.0,Indonesia,81248762864.0,-0.8885625,131.3000781,https://maps.google.com/?cid=0x0:0xa4c5e3d6e0f0bf2b
supermarket bangunan,Toko Bahan Bangunan,Padma Bangunan,"Wai Mhorock, Kec. Abepura, Kota Jayapura, Papua 99225","Kec. Abepura, Kota Jayapura",PAPUA BARAT,99225.0,Indonesia,9675180108.0,-2.6096427,140.6725314,https://maps.google.com/?cid=0x0:0x908e38e219cfc28
supermarket bangunan,supermarket bangunan,Distrik Misool,"Kabupaten Raja Ampat, Papua Bar.","Kabupaten Raja Ampat, Papua Bar.",PAPUA BARAT,,Indonesia,,-1.7294753,130.076264,https://maps.google.com/?cid=0x0:0xe3dfedd20bce543c
supermarket bangunan,Toko Bahan Bangunan,Putra Misool,"Jl. Jend. Sudirman No.2, Remu Sel., Kecamatan Sorong Manoi, Kota Sorong, Papua Bar. 98412","Remu Sel., Kecamatan Sorong Manoi, Kota Sorong",PAPUA BARAT,98412.0,Indonesia,85254520001.0,-0.8862875,131.2861081,https://maps.google.com/?cid=0x0:0x1f5c0cdb1a7057bc
supermarket bangunan,Toko Bahan Bangunan,Supermarket Multi Bangunan,"Jl Baru No.98, Wai Mhorock, Abepura, Jayapura City, Papua 99225","Wai Mhorock, Abepura, Jayapura City",PAPUA BARAT,99225.0,Indonesia,967588677.0,-2.6077336,140.6742812,https://maps.google.com/?cid=0x0:0x3b19f301c68f1d6f
supermarket bangunan,supermarket bangunan,Distrik Misool Barat,"Kabupaten Raja Ampat, Papua Bar.","Kabupaten Raja Ampat, Papua Bar.",PAPUA BARAT,,Indonesia,,-2.0480936,130.2709743,https://maps.google.com/?cid=0x0:0xfc668800a318e464
supermarket bangunan,Toko Bahan Bangunan,Toko bangunan abadi 2,"HRGF+HG5, Waisai, Kec. Waigeo Sel., Kabupaten Raja Ampat, Papua Bar. 98482","Waisai, Kec. Waigeo Sel., Kabupaten Raja Ampat",PAPUA BARAT,98482.0,Indonesia,82175242539.0,-0.4236212,130.8238502,https://maps.google.com/?cid=0x0:0xb39b3321d3629975
supermarket bangunan,Toko Cat,Toko Bangunan Abid Sejahtera - Waisai,"Jl. Jend. Sudirman No.30, Waisai, Distrik Kota Waisai, Kabupaten Raja Ampat, Papua Bar. 98482","Waisai, Distrik Kota Waisai, Kabupaten Raja Ampat",PAPUA BARAT,98482.0,Indonesia,82248014806.0,-0.4206038,130.8216501,https://maps.google.com/?cid=0x0:0x635cf5cb88ebe389
supermarket bangunan,supermarket bangunan,Misool Sel.,"Kabupaten Raja Ampat, Papua Bar.","Kabupaten Raja Ampat, Papua Bar.",PAPUA BARAT,,Indonesia,,-1.959546,130.3190719,https://maps.google.com/?cid=0x0:0x772018b3157aa95b
supermarket bangunan,supermarket bangunan,Distrik Misool Timur,"Kabupaten Raja Ampat, Papua Bar.","Kabupaten Raja Ampat, Papua Bar.",PAPUA BARAT,,Indonesia,,-1.7731765,130.4105659,https://maps.google.com/?cid=0x0:0x37397a27849d25ed
supermarket bangunan,Toko Bahan Bangunan,Supermarket Multi Bangunan,"Jl Baru No.98, Wai Mhorock, Abepura, Jayapura City, Papua 99225","Wai Mhorock, Abepura, Jayapura City",PAPUA BARAT,99225.0,Indonesia,967588677.0,-2.6077336,140.6742812,https://maps.google.com/?cid=0x0:0x3b19f301c68f1d6f
supermarket bangunan,Toko Cat,Toko Bangunan Abid Sejahtera - Waisai,"Jl. Jend. Sudirman No.30, Waisai, Distrik Kota Waisai, Kabupaten Raja Ampat, Papua Bar. 98482","Waisai, Distrik Kota Waisai, Kabupaten Raja Ampat",PAPUA BARAT,98482.0,Indonesia,82248014806.0,-0.4206038,130.8216501,https://maps.google.com/?cid=0x0:0x635cf5cb88ebe389
supermarket bangunan,Toko Bahan Bangunan,Toko Bangunan Abadi,"4862+H2G, Malaingkedi, Kec. Sorong Utara, Kota Sorong, Papua Bar. 98412","Malaingkedi, Kec. Sorong Utara, Kota Sorong",PAPUA BARAT,98412.0,Indonesia,81248762864.0,-0.8885625,131.3000781,https://maps.google.com/?cid=0x0:0xa4c5e3d6e0f0bf2b
supermarket bangunan,supermarket bangunan,Distrik Salawati Barat,"Kabupaten Raja Ampat, Papua Bar.","Kabupaten Raja Ampat, Papua Bar.",PAPUA BARAT,,Indonesia,,-1.0980561,130.7040528,https://maps.google.com/?cid=0x0:0x6c8554c61c1a5f51
supermarket bangunan,Toko Cat,Toko Bangunan Abid Sejahtera - Waisai,"Jl. Jend. Sudirman No.30, Waisai, Distrik Kota Waisai, Kabupaten Raja Ampat, Papua Bar. 98482","Waisai, Distrik Kota Waisai, Kabupaten Raja Ampat",PAPUA BARAT,98482.0,Indonesia,82248014806.0,-0.4206038,130.8216501,https://maps.google.com/?cid=0x0:0x635cf5cb88ebe389
supermarket bangunan,Toko bahan makanan,Homi Supermarket,"478Q+W97, Jl. F Kalasuat, Remu Utara, Distrik Sorong, Kota Sorong, Papua Bar. 98412","Jl. F Kalasuat, Remu Utara, Distrik Sorong, Kota Sorong",PAPUA BARAT,98412.0,Indonesia,,-0.8827053,131.2884188,https://maps.google.com/?cid=0x0:0x9eed04e7f27afbd0
supermarket bangunan,Toko Bahan Bangunan,"Papua Bangunan, CV PAPUA ABADI","Jl. Basuki Rahmat No.780, Klawuyuk, Distrik Sorong Timur, Kota Sorong, Papua Bar. 98416","Klawuyuk, Distrik Sorong Timur, Kota Sorong",PAPUA BARAT,98416.0,Indonesia,81332017550.0,-0.8954087,131.3186922,https://maps.google.com/?cid=0x0:0x851804bc3aa7f033
supermarket bangunan,Toko Cat,Toko Bangunan Abid Sejahtera - Waisai,"Jl. Jend. Sudirman No.30, Waisai, Distrik Kota Waisai, Kabupaten Raja Ampat, Papua Bar. 98482","Waisai, Distrik Kota Waisai, Kabupaten Raja Ampat",PAPUA BARAT,98482.0,Indonesia,82248014806.0,-0.4206038,130.8216501,https://maps.google.com/?cid=0x0:0x635cf5cb88ebe389
supermarket bangunan,supermarket bangunan,Pulau Salawati,"Kapatlap, Kec. Salawati Utara, Kabupaten Raja Ampat, Papua Bar.","Kabupaten Raja Ampat, Papua Bar.",PAPUA BARAT,,Indonesia,,-1.1166667,130.8666667,https://maps.google.com/?cid=0x0:0x3403a680ccd12b11
supermarket bangunan,Toko Bahan Bangunan,Supermarket Multi Bangunan,"Jl Baru No.98, Wai Mhorock, Abepura, Jayapura City, Papua 99225","Wai Mhorock, Abepura, Jayapura City",PAPUA BARAT,99225.0,Indonesia,967588677.0,-2.6077336,140.6742812,https://maps.google.com/?cid=0x0:0x3b19f301c68f1d6f
supermarket bangunan,Toko Perlengkapan Atap,Head Office JuraganMaterial.id,"Jl. Cideng Timur No.66 2nd floor, Petojo Sel., Kecamatan Gambir, Kota Jakarta Pusat, Daerah Khusus Ibukota Jakarta 10150","Petojo Sel., Kecamatan Gambir, Kota Jakarta Pusat",PAPUA BARAT,10150.0,Indonesia,213857057.0,-6.1747174,106.8120889,https://maps.google.com/?cid=0x0:0x6017818db6ef043
supermarket bangunan,Toko Bahan Bangunan,Juragan Atap Jakarta,"Jl. Pangeran Jayakarta No.119A 7, RT.7/RW.7, Mangga Dua Sel., Jakarta, Kota Jakarta Pusat, Daerah Khusus Ibukota Jakarta 10730","RT.7/RW.7, Mangga Dua Sel., Jakarta, Kota Jakarta Pusat",PAPUA BARAT,10730.0,Indonesia,85931192197.0,-6.1419124,106.8284652,https://maps.google.com/?cid=0x0:0xf37c2ba61a2b7d44
supermarket bangunan,Toko Bahan Bangunan,TB. Makmur,"Jl. Batu Tulis No.14, RT.01/RW.04, Bondongan, Kec. Bogor Sel., Kota Bogor, Jawa Barat 16131","RT.01/RW.04, Bondongan, Kec. Bogor Sel., Kota Bogor",PAPUA BARAT,16131.0,Indonesia,87873418010.0,-6.6174903,106.809557,https://maps.google.com/?cid=0x0:0x4b2fa0c6a6e8cb6c
supermarket bangunan,Toko Bahan Bangunan,Toko Bahan Bangunan Mekar Jaya,"Jl. Batu Tulis No.73, RT.03/RW.05, Batutulis, Kec. Bogor Sel., Kota Bogor, Jawa Barat 16133","RT.03/RW.05, Batutulis, Kec. Bogor Sel., Kota Bogor",PAPUA BARAT,16133.0,Indonesia,87872228410.0,-6.6194864,106.8073172,https://maps.google.com/?cid=0x0:0xe4b777d3648d7eb3
supermarket bangunan,supermarket bangunan,Supnin,"Kabupaten Raja Ampat, Papua Bar.","Kabupaten Raja Ampat, Papua Bar.",PAPUA BARAT,,Indonesia,,-0.0707044,130.7766611,https://maps.google.com/?cid=0x0:0x460c1dbebeaa6e11
supermarket bangunan,Toko Cat,Toko Bangunan Abid Sejahtera - Waisai,"Jl. Jend. Sudirman No.30, Waisai, Distrik Kota Waisai, Kabupaten Raja Ampat, Papua Bar. 98482","Waisai, Distrik Kota Waisai, Kabupaten Raja Ampat",PAPUA BARAT,98482.0,Indonesia,82248014806.0,-0.4206038,130.8216501,https://maps.google.com/?cid=0x0:0x635cf5cb88ebe389
supermarket bangunan,supermarket bangunan,TOKO SINAR BANGUNAN,"HRGF+66R, Waisai, Kec. Waigeo Sel., Kabupaten Raja Ampat, Papua Bar. 98482","Waisai, Kec. Waigeo Sel., Kabupaten Raja Ampat",PAPUA BARAT,98482.0,Indonesia,,-0.4243856,130.8230033,https://maps.google.com/?cid=0x0:0x78f54134fa0a261
supermarket bangunan,supermarket bangunan,Kec. Tlk. Mayalibit,"Kabupaten Raja Ampat, Papua Bar.","Kabupaten Raja Ampat, Papua Bar.",PAPUA BARAT,,Indonesia,,-0.2689344,130.9384914,https://maps.google.com/?cid=0x0:0xae388a762cdfd0ec
supermarket bangunan,Toko Cat,Toko Bangunan Abid Sejahtera - Waisai,"Jl. Jend. Sudirman No.30, Waisai, Distrik Kota Waisai, Kabupaten Raja Ampat, Papua Bar. 98482","Waisai, Distrik Kota Waisai, Kabupaten Raja Ampat",PAPUA BARAT,98482.0,Indonesia,82248014806.0,-0.4206038,130.8216501,https://maps.google.com/?cid=0x0:0x635cf5cb88ebe389
supermarket bangunan,Toko Bahan Bangunan,Toko bangunan abadi 2,"HRGF+HG5, Waisai, Kec. Waigeo Sel., Kabupaten Raja Ampat, Papua Bar. 98482","Waisai, Kec. Waigeo Sel., Kabupaten Raja Ampat",PAPUA BARAT,98482.0,Indonesia,82175242539.0,-0.4236212,130.8238502,https://maps.google.com/?cid=0x0:0xb39b3321d3629975
supermarket bangunan,Toko Bahan Bangunan,Toko Bangunan Jaya Mulia,"HRGF+36G, Waisai, Distrik Kota Waisai, Kabupaten Raja Ampat, Papua Bar. 98482","Waisai, Distrik Kota Waisai, Kabupaten Raja Ampat",PAPUA BARAT,98482.0,Indonesia,,-0.4248018,130.8230932,https://maps.google.com/?cid=0x0:0xaaf75e698d50e2eb
supermarket bangunan,Toko Bahan Bangunan,Toko Bangunan Hari-hari,"Jl. Mandala Utara No.21, RT.17/RW.4, Tomang, Kec. Grogol petamburan, Kota Jakarta Barat, Daerah Khusus Ibukota Jakarta 11440","RT.17/RW.4, Tomang, Kec. Grogol petamburan, Kota Jakarta Barat",PAPUA BARAT,11440.0,Indonesia,215642893.0,-6.1721247,106.7983298,https://maps.google.com/?cid=0x0:0x91aa30314dd11ef
supermarket bangunan,Toko Bahan Bangunan,UD.RAJA BANGUNAN,"HRG8+RW3, Jl. 30, Waisai, Kec. Waigeo Sel., Kabupaten Raja Ampat, Papua Bar. 98482","Jl. 30, Waisai, Kec. Waigeo Sel., Kabupaten Raja Ampat",PAPUA BARAT,98482.0,Indonesia,82239074478.0,-0.4229807,130.8172901,https://maps.google.com/?cid=0x0:0x202076c12c75e976
supermarket bangunan,Toko Bahan Bangunan,TKP Rizky,"Jl. Perumahan Depan Tk. Surya No.100, Waisai, Distrik Kota Waisai, Kabupaten Raja Ampat, Papua Bar. 98482","Waisai, Distrik Kota Waisai, Kabupaten Raja Ampat",PAPUA BARAT,98482.0,Indonesia,,-0.4248728,130.8209443,https://maps.google.com/?cid=0x0:0xc02d7492d2e3c47
supermarket bangunan,Toko Bahan Bangunan,"Papua Bangunan, CV PAPUA ABADI","Jl. Basuki Rahmat No.780, Klawuyuk, Distrik Sorong Timur, Kota Sorong, Papua Bar. 98416","Klawuyuk, Distrik Sorong Timur, Kota Sorong",PAPUA BARAT,98416.0,Indonesia,81332017550.0,-0.8954087,131.3186922,https://maps.google.com/?cid=0x0:0x851804bc3aa7f033
supermarket bangunan,Toko Bahan Bangunan,Toko Sinar Bangunan,"Sorido, Kec. Biak Kota, Kabupaten Biak Numfor, Papua 98113","Kec. Biak Kota, Kabupaten Biak Numfor",PAPUA BARAT,98113.0,Indonesia,81296607339.0,-1.1610797,136.0590431,https://maps.google.com/?cid=0x0:0x257db166bcc49903
supermarket bangunan,Toko Bahan Bangunan,Horukie Toko Bangunan,"R38J+883 Wa Toko Îá¨á¨-89Î3-Î541 kami, Fandoi, Kec. Biak Kota, Kabupaten Biak Numfor, Papua 98111","Fandoi, Kec. Biak Kota, Kabupaten Biak Numfor",PAPUA BARAT,98111.0,Indonesia,81344944374.0,-1.1842375,136.0807969,https://maps.google.com/?cid=0x0:0x9ef95c0249a63970
supermarket bangunan,supermarket bangunan,Distrik Tiplol Mayalibit,"Kabupaten Raja Ampat, Papua Bar.","Kabupaten Raja Ampat, Papua Bar.",PAPUA BARAT,,Indonesia,,-0.078691,130.6642772,https://maps.google.com/?cid=0x0:0xd2fca4629b110358
supermarket bangunan,Toko Cat,Toko Bangunan Abid Sejahtera - Waisai,"Jl. Jend. Sudirman No.30, Waisai, Distrik Kota Waisai, Kabupaten Raja Ampat, Papua Bar. 98482","Waisai, Distrik Kota Waisai, Kabupaten Raja Ampat",PAPUA BARAT,98482.0,Indonesia,82248014806.0,-0.4206038,130.8216501,https://maps.google.com/?cid=0x0:0x635cf5cb88ebe389
supermarket bangunan,Toko Bahan Bangunan,Toko bangunan abadi 2,"HRGF+HG5, Waisai, Kec. Waigeo Sel., Kabupaten Raja Ampat, Papua Bar. 98482","Waisai, Kec. Waigeo Sel., Kabupaten Raja Ampat",PAPUA BARAT,98482.0,Indonesia,82175242539.0,-0.4236212,130.8238502,https://maps.google.com/?cid=0x0:0xb39b3321d3629975
supermarket bangunan,supermarket bangunan,Kec. Waigeo Bar.,"Kabupaten Raja Ampat, Papua Bar.","Kabupaten Raja Ampat, Papua Bar.",PAPUA BARAT,,Indonesia,,-0.1565367,130.4516329,https://maps.google.com/?cid=0x0:0xa968725bc286475b
supermarket bangunan,Toko Cat,Toko Bangunan Abid Sejahtera - Waisai,"Jl. Jend. Sudirman No.30, Waisai, Distrik Kota Waisai, Kabupaten Raja Ampat, Papua Bar. 98482","Waisai, Distrik Kota Waisai, Kabupaten Raja Ampat",PAPUA BARAT,98482.0,Indonesia,82248014806.0,-0.4206038,130.8216501,https://maps.google.com/?cid=0x0:0x635cf5cb88ebe389
supermarket bangunan,Toko Bahan Bangunan,Toko bangunan abadi 2,"HRGF+HG5, Waisai, Kec. Waigeo Sel., Kabupaten Raja Ampat, Papua Bar. 98482","Waisai, Kec. Waigeo Sel., Kabupaten Raja Ampat",PAPUA BARAT,98482.0,Indonesia,82175242539.0,-0.4236212,130.8238502,https://maps.google.com/?cid=0x0:0xb39b3321d3629975
supermarket bangunan,supermarket bangunan,Distrik Waigeo Barat Kepulauan,"Kabupaten Raja Ampat, Papua Bar.","Kabupaten Raja Ampat, Papua Bar.",PAPUA BARAT,,Indonesia,,-0.3990489,129.8878154,https://maps.google.com/?cid=0x0:0x2f9f2f03d60aa281
supermarket bangunan,Toko Cat,Toko Bangunan Abid Sejahtera - Waisai,"Jl. Jend. Sudirman No.30, Waisai, Distrik Kota Waisai, Kabupaten Raja Ampat, Papua Bar. 98482","Waisai, Distrik Kota Waisai, Kabupaten Raja Ampat",PAPUA BARAT,98482.0,Indonesia,82248014806.0,-0.4206038,130.8216501,https://maps.google.com/?cid=0x0:0x635cf5cb88ebe389
supermarket bangunan,Toko Bahan Bangunan,Toko bangunan abadi 2,"HRGF+HG5, Waisai, Kec. Waigeo Sel., Kabupaten Raja Ampat, Papua Bar. 98482","Waisai, Kec. Waigeo Sel., Kabupaten Raja Ampat",PAPUA BARAT,98482.0,Indonesia,82175242539.0,-0.4236212,130.8238502,https://maps.google.com/?cid=0x0:0xb39b3321d3629975
supermarket bangunan,supermarket bangunan,Kec. Waigeo Sel.,"Kabupaten Raja Ampat, Papua Bar.","Kabupaten Raja Ampat, Papua Bar.",PAPUA BARAT,,Indonesia,,-0.3840807,130.7361322,https://maps.google.com/?cid=0x0:0x2c9db46da776b4
supermarket bangunan,Toko Cat,Toko Bangunan Abid Sejahtera - Waisai,"Jl. Jend. Sudirman No.30, Waisai, Distrik Kota Waisai, Kabupaten Raja Ampat, Papua Bar. 98482","Waisai, Distrik Kota Waisai, Kabupaten Raja Ampat",PAPUA BARAT,98482.0,Indonesia,82248014806.0,-0.4206038,130.8216501,https://maps.google.com/?cid=0x0:0x635cf5cb88ebe389
supermarket bangunan,Toko Bahan Bangunan,Toko bangunan abadi 2,"HRGF+HG5, Waisai, Kec. Waigeo Sel., Kabupaten Raja Ampat, Papua Bar. 98482","Waisai, Kec. Waigeo Sel., Kabupaten Raja Ampat",PAPUA BARAT,98482.0,Indonesia,82175242539.0,-0.4236212,130.8238502,https://maps.google.com/?cid=0x0:0xb39b3321d3629975
supermarket bangunan,Toko Bahan Bangunan,UD.RAJA BANGUNAN,"HRG8+RW3, Jl. 30, Waisai, Kec. Waigeo Sel., Kabupaten Raja Ampat, Papua Bar. 98482","Jl. 30, Waisai, Kec. Waigeo Sel., Kabupaten Raja Ampat",PAPUA BARAT,98482.0,Indonesia,82239074478.0,-0.4229807,130.8172901,https://maps.google.com/?cid=0x0:0x202076c12c75e976
supermarket bangunan,Toko Bahan Bangunan,Supermarket Multi Bangunan,"Jl Baru No.98, Wai Mhorock, Abepura, Jayapura City, Papua 99225","Wai Mhorock, Abepura, Jayapura City",PAPUA BARAT,99225.0,Indonesia,967588677.0,-2.6077336,140.6742812,https://maps.google.com/?cid=0x0:0x3b19f301c68f1d6f
supermarket bangunan,Toko Bahan Bangunan,Toko Bangunan Jaya Mulia,"HRGF+36G, Waisai, Distrik Kota Waisai, Kabupaten Raja Ampat, Papua Bar. 98482","Waisai, Distrik Kota Waisai, Kabupaten Raja Ampat",PAPUA BARAT,98482.0,Indonesia,,-0.4248018,130.8230932,https://maps.google.com/?cid=0x0:0xaaf75e698d50e2eb
supermarket bangunan,Toko Bahan Bangunan,TKP Rizky,"Jl. Perumahan Depan Tk. Surya No.100, Waisai, Distrik Kota Waisai, Kabupaten Raja Ampat, Papua Bar. 98482","Waisai, Distrik Kota Waisai, Kabupaten Raja Ampat",PAPUA BARAT,98482.0,Indonesia,,-0.4248728,130.8209443,https://maps.google.com/?cid=0x0:0xc02d7492d2e3c47
supermarket bangunan,Toko Bahan Bangunan,ANEKA BANGUNAN,"Wosi, Kec. Manokwari Bar., Kabupaten Manokwari, Papua Bar. 98312","Kec. Manokwari Bar., Kabupaten Manokwari",PAPUA BARAT,98312.0,Indonesia,81344843001.0,-0.8631883,134.0498559,https://maps.google.com/?cid=0x0:0x3598159af16f30ea
supermarket bangunan,supermarket bangunan,Distrik Waigeo Timur,"Kabupaten Raja Ampat, Papua Bar.","Kabupaten Raja Ampat, Papua Bar.",PAPUA BARAT,,Indonesia,,-0.3761806,131.2503597,https://maps.google.com/?cid=0x0:0x9ea83c531b1daa8e
supermarket bangunan,Toko Cat,Toko Bangunan Abid Sejahtera - Waisai,"Jl. Jend. Sudirman No.30, Waisai, Distrik Kota Waisai, Kabupaten Raja Ampat, Papua Bar. 98482","Waisai, Distrik Kota Waisai, Kabupaten Raja Ampat",PAPUA BARAT,98482.0,Indonesia,82248014806.0,-0.4206038,130.8216501,https://maps.google.com/?cid=0x0:0x635cf5cb88ebe389
supermarket bangunan,Toko Bahan Bangunan,Toko bangunan abadi 2,"HRGF+HG5, Waisai, Kec. Waigeo Sel., Kabupaten Raja Ampat, Papua Bar. 98482","Waisai, Kec. Waigeo Sel., Kabupaten Raja Ampat",PAPUA BARAT,98482.0,Indonesia,82175242539.0,-0.4236212,130.8238502,https://maps.google.com/?cid=0x0:0xb39b3321d3629975
supermarket bangunan,supermarket bangunan,Distrik Waigeo Utara,"Kabupaten Raja Ampat, Papua Bar.","Kabupaten Raja Ampat, Papua Bar.",PAPUA BARAT,,Indonesia,,-0.0564707,130.9858964,https://maps.google.com/?cid=0x0:0xc31e9c0aa62767f2
supermarket bangunan,Toko Cat,Toko Bangunan Abid Sejahtera - Waisai,"Jl. Jend. Sudirman No.30, Waisai, Distrik Kota Waisai, Kabupaten Raja Ampat, Papua Bar. 98482","Waisai, Distrik Kota Waisai, Kabupaten Raja Ampat",PAPUA BARAT,98482.0,Indonesia,82248014806.0,-0.4206038,130.8216501,https://maps.google.com/?cid=0x0:0x635cf5cb88ebe389
supermarket bangunan,Toko Bahan Bangunan,Toko bangunan abadi 2,"HRGF+HG5, Waisai, Kec. Waigeo Sel., Kabupaten Raja Ampat, Papua Bar. 98482","Waisai, Kec. Waigeo Sel., Kabupaten Raja Ampat",PAPUA BARAT,98482.0,Indonesia,82175242539.0,-0.4236212,130.8238502,https://maps.google.com/?cid=0x0:0xb39b3321d3629975
supermarket bangunan,supermarket bangunan,Papua Bar.,,Papua Bar.,PAPUA BARAT,,Indonesia,,-1.3361154,133.1747162,https://maps.google.com/?cid=0x0:0x5349c1f8c5c7cb62
supermarket bangunan,Toko Bahan Bangunan,"Papua Bangunan, CV PAPUA ABADI","Jl. Basuki Rahmat No.780, Klawuyuk, Distrik Sorong Timur, Kota Sorong, Papua Bar. 98416","Klawuyuk, Distrik Sorong Timur, Kota Sorong",PAPUA BARAT,98416.0,Indonesia,81332017550.0,-0.8954087,131.3186922,https://maps.google.com/?cid=0x0:0x851804bc3aa7f033
supermarket bangunan,Toko Cat,Toko Bangunan Abid Sejahtera - Waisai,"Jl. Jend. Sudirman No.30, Waisai, Distrik Kota Waisai, Kabupaten Raja Ampat, Papua Bar. 98482","Waisai, Distrik Kota Waisai, Kabupaten Raja Ampat",PAPUA BARAT,98482.0,Indonesia,82248014806.0,-0.4206038,130.8216501,https://maps.google.com/?cid=0x0:0x635cf5cb88ebe389
supermarket bangunan,Toko Bahan Bangunan,Supermarket Multi Bangunan,"Jl Baru No.98, Wai Mhorock, Abepura, Jayapura City, Papua 99225","Wai Mhorock, Abepura, Jayapura City",PAPUA BARAT,99225.0,Indonesia,967588677.0,-2.6077336,140.6742812,https://maps.google.com/?cid=0x0:0x3b19f301c68f1d6f
supermarket bangunan,Toko Bahan Bangunan,Toko Multi Bangunan,"Q97H+9V2, Sarafambai, Kec. Waropen Bawah, Kabupaten Waropen, Papua 98261","Sarafambai, Kec. Waropen Bawah, Kabupaten Waropen",PAPUA BARAT,98261.0,Indonesia,,-2.2366153,136.3796343,https://maps.google.com/?cid=0x0:0x8fe10ca526096f47
supermarket bangunan,Toko Bahan Bangunan,DEPO BANGUNAN SINAR MATAHARI,"379X+243, Jl. Fakfak - Torea, Wagom Sel., Distrik Fakfak, Kabupaten Fakfak, Papua Bar. 98651","Jl. Fakfak - Torea, Wagom Sel., Distrik Fakfak, Kabupaten Fakfak",PAPUA BARAT,98651.0,Indonesia,81232387999.0,-2.9324935,132.2978043,https://maps.google.com/?cid=0x0:0x35e53a9d40e95e48
supermarket bangunan,Toko Bahan Bangunan,Toko Karya Abadi,"WJ4X+24P, Tuasai, Distrik Bintuni, Kabupaten Teluk Bintuni, Papua Bar. 98364","Tuasai, Distrik Bintuni, Kabupaten Teluk Bintuni",PAPUA BARAT,98364.0,Indonesia,82244443838.0,-2.094909,133.6478193,https://maps.google.com/?cid=0x0:0x860a78b44fea4433
supermarket bangunan,Toko Bahan Bangunan,Toko Rahayu Babo,"FF52+F2R, Unnamed Road, Nusei, Babo, Kabupaten Teluk Bintuni, Papua Bar. 98363","Unnamed Road, Nusei, Babo, Kabupaten Teluk Bintuni",PAPUA BARAT,98363.0,Indonesia,85244200777.0,-2.5412733,133.45003,https://maps.google.com/?cid=0x0:0x2d6ca9cad594f391
supermarket bangunan,Toko Swalayan,Toko Depo Bangunan,"379V+Q4W, Fak Fak Selatan, Distrik Fakfak, Kabupaten Fakfak, Papua Bar. 98611","Fak Fak Selatan, Distrik Fakfak, Kabupaten Fakfak",PAPUA BARAT,98611.0,Indonesia,81332930235.0,-2.9305033,132.292834,https://maps.google.com/?cid=0x0:0x8845a3bfe8af225c
supermarket bangunan,Toko Bahan Bangunan,Gudang Toko Depo Bangunan,"37FJ+7G5, Jl. Fakfak - Torea, Tanama, Distrik Fakfak, Kabupaten Fakfak, Papua Bar. 98614","Jl. Fakfak - Torea, Tanama, Distrik Fakfak, Kabupaten Fakfak",PAPUA BARAT,98614.0,Indonesia,,-2.9268666,132.2813702,https://maps.google.com/?cid=0x0:0x605ba6cbab94e804
supermarket bangunan,Toko Perlengkapan Rumah,Toko Bangunan URI,"Q93M+R2X, Uri, Kec. Waropen Bawah, Kabupaten Waropen, Papua 98261","Uri, Kec. Waropen Bawah, Kabupaten Waropen",PAPUA BARAT,98261.0,Indonesia,,-2.24502,136.382778,https://maps.google.com/?cid=0x0:0xedc722ce6d2e6662
supermarket bangunan,Toko Swalayan,"Toko  NUR ILHAM""""","VGJP+2V2, Bintuni Tim., Distrik Bintuni, Kabupaten Teluk Bintuni, Papua Bar.","Kabupaten Teluk Bintuni, Papua Bar.",PAPUA BARAT,,Indonesia,,-2.1199948,133.5371348,https://maps.google.com/?cid=0x0:0x497ab7d35b2e6dce
supermarket bangunan,Toko Bahan Bangunan,TOKO BANGUNAN,"38G3+5PF, Fak Fak Utara, Distrik Fakfak, Kabupaten Fakfak, Papua Bar. 98651","Fak Fak Utara, Distrik Fakfak, Kabupaten Fakfak",PAPUA BARAT,98651.0,Indonesia,83121529512.0,-2.9245593,132.3042975,https://maps.google.com/?cid=0x0:0x3e3de1be5a573a7
supermarket bangunan,Pasar bahan bangunan,Toko Colours Bangunan Hamadi,"Jl. Amphibi, Hamadi, Distrik Jayapura Selatan, Kota Jayapura, Papua","Kota Jayapura, Papua",PAPUA BARAT,,Indonesia,85827622766.0,-2.5646794,140.7103928,https://maps.google.com/?cid=0x0:0xd4e4236a70db6e25
