Category,Real Category,Business Name,Address,City,State,Postal Code,Country,Phone,Latitude,Longitude,Map Link
mall,mall,Kios Yudha,"PFWX+3QF, Eisyo, Distrik Aifat, Kabupaten Maybrat, Papua Bar. 98463","Eisyo, Distrik Aifat, Kabupaten Maybrat",PAPUA BARAT,98463.0,Indonesia,,-1.2551875,132.4991489,https://maps.google.com/?cid=0x0:0x34c0d36452739935
mall,mall,Kios Yudha,"PFWX+3QF, Eisyo, Distrik Aifat, Kabupaten Maybrat, Papua Bar. 98463","Eisyo, Distrik Aifat, Kabupaten Maybrat",PAPUA BARAT,98463.0,Indonesia,,-1.2551875,132.4991489,https://maps.google.com/?cid=0x0:0x34c0d36452739935
mall,Pusat Perbelanjaan,Mall Artha Gading Jakarta,"Jl. Artha Gading Sel. No.1, Klp. Gading Bar., Kec. Klp. Gading, Jkt Utara, Daerah Khusus Ibukota Jakarta 14240","Klp. Gading Bar., Kec. Klp. Gading, Jkt Utara",PAPUA BARAT,14240.0,Indonesia,2145864000.0,-6.1457739,106.8919187,https://maps.google.com/?cid=0x0:0x176166b3d087c724
mall,Pusat Perbelanjaan,ASHTA District 8,"Jl. Senopati No.83, Senayan, Kec. Kby. Baru, Kota Jakarta Selatan, Daerah Khusus Ibukota Jakarta 12190","Senayan, Kec. Kby. Baru, Kota Jakarta Selatan",PAPUA BARAT,12190.0,Indonesia,2150262888.0,-6.229976,106.8070846,https://maps.google.com/?cid=0x0:0x1042cab307c13c5f
mall,Pusat Perbelanjaan,Mall Of Indonesia,"Jl. Boulevard Bar. Raya No.12, RT.18/RW.19, Klp. Gading Bar., Kec. Klp. Gading, Jkt Utara, Daerah Khusus Ibukota Jakarta 14240","RT.18/RW.19, Klp. Gading Bar., Kec. Klp. Gading, Jkt Utara",PAPUA BARAT,14240.0,Indonesia,2145867888.0,-6.1514549,106.8918949,https://maps.google.com/?cid=0x0:0x3431c7aaadd1f1b6
mall,Pusat Perbelanjaan,PIK Avenue,"Jl. Pantai Indah Kapuk Boulevard, RT.6/RW.2, Kamal Muara, Kec. Penjaringan, Jkt Utara, Daerah Khusus Ibukota Jakarta 14470","RT.6/RW.2, Kamal Muara, Kec. Penjaringan, Jkt Utara",PAPUA BARAT,14470.0,Indonesia,2122570999.0,-6.1088281,106.74021,https://maps.google.com/?cid=0x0:0xa57ef5bb9b685927
mall,Toko Pakaian Olahraga,Jakarta Premium Outlets - Tangerang,"Jl. Jalur Sutera Boulevard No.41, RT.003/RW.006, Panunggangan Tim., Kec. Pinang, Kota Tangerang, Banten 15143","RT.003/RW.006, Panunggangan Tim., Kec. Pinang, Kota Tangerang",PAPUA BARAT,15143.0,Indonesia,,-6.2202252,106.6597055,https://maps.google.com/?cid=0x0:0x8cd173626fe3f3c1
mall,Pusat Perbelanjaan,Mall @ Alam Sutera,"Jl. Jalur Sutera Bar. No.Kav. 16, RT.002/RW.003, Panunggangan Tim., Kec. Pinang, Kota Tangerang, Banten 15143","RT.002/RW.003, Panunggangan Tim., Kec. Pinang, Kota Tangerang",PAPUA BARAT,15143.0,Indonesia,2130438899.0,-6.221679,106.6541314,https://maps.google.com/?cid=0x0:0x7637aedafd55dea8
mall,Toko Swalayan,AEON Mall Deltamas - Cikarang Bekasi,"Jl. Ganesha Boulevard, Kota Deltamas, Kec. Cikarang Pusat, Kabupaten Bekasi, Jawa Barat 17530","Kota Deltamas, Kec. Cikarang Pusat, Kabupaten Bekasi",PAPUA BARAT,17530.0,Indonesia,2138733333.0,-6.3519407,107.1954494,https://maps.google.com/?cid=0x0:0xa692ce22e7339115
mall,Pusat Perbelanjaan,Mall Senayan City,"Jl. Asia Afrika No.Lot 19, Gelora, Kecamatan Tanah Abang, Kota Jakarta Pusat, Daerah Khusus Ibukota Jakarta 10270","Gelora, Kecamatan Tanah Abang, Kota Jakarta Pusat",PAPUA BARAT,10270.0,Indonesia,2172781000.0,-6.2271953,106.7970117,https://maps.google.com/?cid=0x0:0x300c043104acc004
mall,Pusat Perbelanjaan,Grand Galaxy Park,"Jl. Boulevard Raya No.1, RT.003/RW.017, Jaka Setia, Kec. Bekasi Sel., Kota Bks, Jawa Barat 17147","RT.003/RW.017, Jaka Setia, Kec. Bekasi Sel., Kota Bks",PAPUA BARAT,17147.0,Indonesia,2129613300.0,-6.2706285,106.9722969,https://maps.google.com/?cid=0x0:0x4718498e43c68e02
mall,China,Hublife Taman Anggrek,"Jl. Tj. Duren Timur 2, RT.12/RW.1, Tj. Duren Sel., Kec. Grogol petamburan, Kota Jakarta Barat, Daerah Khusus Ibukota Jakarta 11470","RT.12/RW.1, Tj. Duren Sel., Kec. Grogol petamburan, Kota Jakarta Barat",PAPUA BARAT,11470.0,Indonesia,2150622288.0,-6.1807487,106.7921782,https://maps.google.com/?cid=0x0:0x88fab696821699af
mall,mall,distrik Batanta Selatan,"Kabupaten Raja Ampat, Papua Bar.","Kabupaten Raja Ampat, Papua Bar.",PAPUA BARAT,,Indonesia,,-0.8447219,130.8171615,https://maps.google.com/?cid=0x0:0xc5c0f28bd225b23c
mall,Pusat Perbelanjaan,RAMAYANA Mall Sorong,"Jl. Wahid Hasyim 220 A-B, Jakarta, Papua Bar. 10250",Jakarta,PAPUA BARAT,10250.0,Indonesia,951332505.0,-0.8820615,131.2755023,https://maps.google.com/?cid=0x0:0x595b97e0cac05b45
mall,Pusat Perbelanjaan,Mega Mall Sorong,"Jalan Basuki Rahmat Klabulu, Malaimsimsa, Malaingkedi, Kec. Sorong Utara, Kota Sorong, Papua Bar. 98412","Malaimsimsa, Malaingkedi, Kec. Sorong Utara, Kota Sorong",PAPUA BARAT,98412.0,Indonesia,,-0.8873097,131.3012842,https://maps.google.com/?cid=0x0:0x364e52ce8985aa7
mall,Pusat Perbelanjaan,ð¹ððððððð ð´ððð ðºððððð,"Jl. Ahmad Yani No.21, Malabutor, Distrik Sorong, Kota Sorong, Papua Bar. 98412","Malabutor, Distrik Sorong, Kota Sorong",PAPUA BARAT,98412.0,Indonesia,82397090442.0,-0.8825922,131.2827947,https://maps.google.com/?cid=0x0:0x28c052b0f0f6e9a6
mall,Pusat Perbelanjaan,RAMAYANA Mall Sorong,"Jl. Wahid Hasyim 220 A-B, Jakarta, Papua Bar. 10250",Jakarta,PAPUA BARAT,10250.0,Indonesia,951332505.0,-0.8820615,131.2755023,https://maps.google.com/?cid=0x0:0x595b97e0cac05b45
mall,Toko Sepatu,Toko Bata Ramayana Sorong,"479G+47G, Jl. Ahmad Yani, Klademak, Distrik Sorong, Kota Sorong, Papua Bar. 98412","Jl. Ahmad Yani, Klademak, Distrik Sorong, Kota Sorong",PAPUA BARAT,98412.0,Indonesia,81344196500.0,-0.8821757,131.2756939,https://maps.google.com/?cid=0x0:0xbfdd3a8d2b6e20a8
mall,Pusat Perbelanjaan,Mega Mall Sorong,"Jalan Basuki Rahmat Klabulu, Malaimsimsa, Malaingkedi, Kec. Sorong Utara, Kota Sorong, Papua Bar. 98412","Malaimsimsa, Malaingkedi, Kec. Sorong Utara, Kota Sorong",PAPUA BARAT,98412.0,Indonesia,,-0.8873097,131.3012842,https://maps.google.com/?cid=0x0:0x364e52ce8985aa7
mall,Pusat Perbelanjaan,Mal Sorong,"479G+369, Klademak, Distrik Sorong, Kota Sorong, Papua Bar. 98412","Klademak, Distrik Sorong, Kota Sorong",PAPUA BARAT,98412.0,Indonesia,,-0.8823414,131.2755957,https://maps.google.com/?cid=0x0:0x4efad982776d0ca5
mall,Makanan Siap Saji,KFC MEGA,"Jalan BASUKI RAHMAT NO. 1 KM. 8.5, Malaingkedi, Kec. Sorong Utara, Kota Sorong, Papua Bar. 98412","Malaingkedi, Kec. Sorong Utara, Kota Sorong",PAPUA BARAT,98412.0,Indonesia,2114022.0,-0.88741,131.3014311,https://maps.google.com/?cid=0x0:0x3b28231f1cfe08ef
mall,Pusat Perbelanjaan,Mal Pavilion,"168, Jln Bukit Bintang, Bukit Bintang, 55100 Kuala Lumpur, Wilayah Persekutuan Kuala Lumpur, Malaysia",Kuala Lumpur,PAPUA BARAT,55100.0,Indonesia,60321188833.0,3.1489607,101.7134125,https://maps.google.com/?cid=0x0:0xed966c50b0a79fb4
mall,Pusat Perbelanjaan,M Mall,"Jalan Dato Keramat, 10150 George Town, Pulau Pinang, Malaysia",George Town,PAPUA BARAT,10150.0,Indonesia,6043713333.0,5.4125569,100.3247849,https://maps.google.com/?cid=0x0:0x91e2220d9dfa8386
mall,Pusat Perbelanjaan,Mal Sorong,"479G+369, Klademak, Distrik Sorong, Kota Sorong, Papua Bar. 98412","Klademak, Distrik Sorong, Kota Sorong",PAPUA BARAT,98412.0,Indonesia,,-0.8823414,131.2755957,https://maps.google.com/?cid=0x0:0x4efad982776d0ca5
mall,Pusat Perbelanjaan,Mega Mall Sorong,"Jalan Basuki Rahmat Klabulu, Malaimsimsa, Malaingkedi, Kec. Sorong Utara, Kota Sorong, Papua Bar. 98412","Malaimsimsa, Malaingkedi, Kec. Sorong Utara, Kota Sorong",PAPUA BARAT,98412.0,Indonesia,,-0.8873097,131.3012842,https://maps.google.com/?cid=0x0:0x364e52ce8985aa7
mall,Pusat Perbelanjaan,Living Plaza Pamulang,"Jl. Permai Raya Blok HS No.13 Kec, Jl. Permai Raya Blok HS No.13, Pamulang Bar., Kec. Pamulang, Kota Tangerang Selatan, Banten 15417","Jl. Permai Raya Blok HS No.13, Pamulang Bar., Kec. Pamulang, Kota Tangerang Selatan",PAPUA BARAT,15417.0,Indonesia,85885880328.0,-6.3431957,106.7325188,https://maps.google.com/?cid=0x0:0xac3b01dd35dae6b1
mall,Pusat Perbelanjaan,Sorong XXI,"479G+669, Klademak, Distrik Sorong, Kota Sorong, Papua Bar. 98412","Klademak, Distrik Sorong, Kota Sorong",PAPUA BARAT,98412.0,Indonesia,85243436545.0,-0.8819731,131.2756053,https://maps.google.com/?cid=0x0:0x837be603a14de23a
mall,Pusat Perbelanjaan,Living Plaza Ciputat,"7, Jl. Ciputat Raya No.83, RT.7/RW.2, Cireundeu, Kec. Ciputat Tim., Kota Tangerang Selatan, Banten 15412","Jl. Ciputat Raya No.83, RT.7/RW.2, Cireundeu, Kec. Ciputat Tim., Kota Tangerang Selatan",PAPUA BARAT,15412.0,Indonesia,85885880328.0,-6.2978618,106.7651869,https://maps.google.com/?cid=0x0:0x4b50eaf245fb644e
mall,Kompleks Kondominium,Green Pramuka Square,"Jl. Rw. Jaya No.49, Rawasari, Kec. Cemp. Putih, Kota Jakarta Pusat, Daerah Khusus Ibukota Jakarta 10570","Rawasari, Kec. Cemp. Putih, Kota Jakarta Pusat",PAPUA BARAT,10570.0,Indonesia,2129624747.0,-6.18892,106.8739915,https://maps.google.com/?cid=0x0:0xc1176b766df1697e
mall,mall,Pulau Kofiau,"Mikiran, Kofiau, Kabupaten Raja Ampat, Papua Bar.","Kabupaten Raja Ampat, Papua Bar.",PAPUA BARAT,,Indonesia,,-1.1833333,129.8333333,https://maps.google.com/?cid=0x0:0x22393f628dc41dcc
mall,mall,Distrik Kota Waisai,"Waisai, Kabupaten Raja Ampat, Papua Bar.","Kabupaten Raja Ampat, Papua Bar.",PAPUA BARAT,,Indonesia,,-0.4248841,130.8208792,https://maps.google.com/?cid=0x0:0x50ee7a1504609bf5
mall,Toko Perlengkapan Rumah,Sinar Waigeo,"HRJF+Q65, Jl. Lukas Dailon, Waisai, Distrik Kota Waisai, Kabupaten Raja Ampat, Papua Bar. 98482","Jl. Lukas Dailon, Waisai, Distrik Kota Waisai, Kabupaten Raja Ampat",PAPUA BARAT,98482.0,Indonesia,,-0.4181091,130.8231183,https://maps.google.com/?cid=0x0:0xd8a97e02fcc4af22
mall,Pusat Perbelanjaan,Toko Asri,"HRGC+49R, RegencyKota, Waisai, Kec. Waigeo Sel., Kabupaten Raja Ampat, Papua Bar. 98482","RegencyKota, Waisai, Kec. Waigeo Sel., Kabupaten Raja Ampat",PAPUA BARAT,98482.0,Indonesia,85344404896.0,-0.424649,130.8209002,https://maps.google.com/?cid=0x0:0xa2d43eecf8dc7444
mall,Toko bahan makanan,UD. MAROS INDAH,"Jl. Jend. Sudirman No.30, Waisai, Distrik Kota Waisai, Kabupaten Raja Ampat, Papua Bar. 98482","Waisai, Distrik Kota Waisai, Kabupaten Raja Ampat",PAPUA BARAT,98482.0,Indonesia,8216735515.0,-0.4211855,130.8211321,https://maps.google.com/?cid=0x0:0xa6989b33492d92b5
mall,Toko,INDOMARET RAYA WAISAI,"Jl. Raya Waisai No.3, Waisai, Kec. Waigeo Sel., Kabupaten Raja Ampat, Papua Bar. 98482","Waisai, Kec. Waigeo Sel., Kabupaten Raja Ampat",PAPUA BARAT,98482.0,Indonesia,,-0.4199333,130.8262721,https://maps.google.com/?cid=0x0:0x16fb9fb6001fb2bb
mall,Toko Suvenir,KOTAK PRINT,"HRGF+J48, Waisai, Distrik Kota Waisai, Kabupaten Raja Ampat, Papua Bar. 98482","Waisai, Distrik Kota Waisai, Kabupaten Raja Ampat",PAPUA BARAT,98482.0,Indonesia,81395342676.0,-0.4234682,130.8228167,https://maps.google.com/?cid=0x0:0x7b248cce31553999
mall,Toko,ALFAMART ayani raja ampat,"HRPG+C4R, Jl. Raya Waisai, Waisai, Distrik Kota Waisai, Kabupaten Raja Ampat, Papua Bar. 98482","Jl. Raya Waisai, Waisai, Distrik Kota Waisai, Kabupaten Raja Ampat",PAPUA BARAT,98482.0,Indonesia,81399507019.0,-0.4141831,130.8252158,https://maps.google.com/?cid=0x0:0x6cbfdcd3160564ae
mall,Toko,TOKO DAVA.cab Waisai,"HRFF+P9M, Jl. Jend. Sudirman, pasar, Distrik Kota Waisai, Kabupaten Raja Ampat, Papua Bar. 98482","Jl. Jend. Sudirman, pasar, Distrik Kota Waisai, Kabupaten Raja Ampat",PAPUA BARAT,98482.0,Indonesia,8114852011.0,-0.4256624,130.823433,https://maps.google.com/?cid=0x0:0x667d5b3fba800f58
mall,Toko Perhiasan,Tukang Mas Bogor,"HRGC+6P2, Waisai, Kec. Waigeo Sel., Kabupaten Raja Ampat, Papua Bar. 98482","Waisai, Kec. Waigeo Sel., Kabupaten Raja Ampat",PAPUA BARAT,98482.0,Indonesia,81289846978.0,-0.4244969,130.8217678,https://maps.google.com/?cid=0x0:0x6c84b17038ae8a26
mall,Layanan Transportasi,Pelabuhan Waisai,"HR93+8X4, Jl. Pelabuhan Waisai, Waisai, Kec. Waigeo Sel., Kabupaten Raja Ampat, Papua Bar. 98482","Jl. Pelabuhan Waisai, Waisai, Kec. Waigeo Sel., Kabupaten Raja Ampat",PAPUA BARAT,98482.0,Indonesia,,-0.4317451,130.8049527,https://maps.google.com/?cid=0x0:0x8a8b4c47e532f783
mall,Toko Swalayan,Deframart / Surya 88 Grosir,"Waisai, Kec. Waigeo Sel., Kabupaten Raja Ampat, Papua Bar. 98482","Kec. Waigeo Sel., Kabupaten Raja Ampat",PAPUA BARAT,98482.0,Indonesia,82198810318.0,-0.4115814,130.8191378,https://maps.google.com/?cid=0x0:0x2477539a632d958c
mall,Toko Rokok Elektrik,Waisai Vape Store,"HRGF+H59, Waisai, Kec. Waigeo Sel., Kabupaten Raja Ampat, Papua Bar. 98482","Waisai, Kec. Waigeo Sel., Kabupaten Raja Ampat",PAPUA BARAT,98482.0,Indonesia,81344887370.0,-0.4235776,130.8229758,https://maps.google.com/?cid=0x0:0x33a86dcef529ce44
mall,Pusat Perbelanjaan,INDOMARET LUCAS DAILON,"HRJF+875, Waisai, Distrik Kota Waisai, Kabupaten Raja Ampat, Papua Bar. 98482","Waisai, Distrik Kota Waisai, Kabupaten Raja Ampat",PAPUA BARAT,98482.0,Indonesia,,-0.4192348,130.8232348,https://maps.google.com/?cid=0x0:0x2075fce1c64d591
mall,Pusat Perbelanjaan,Toko putra wakatobi,"HRGC+MQ2, Waisai, Kec. Waigeo Sel., Kabupaten Raja Ampat, Papua Bar. 98482","Waisai, Kec. Waigeo Sel., Kabupaten Raja Ampat",PAPUA BARAT,98482.0,Indonesia,8114858985.0,-0.423366,130.8218847,https://maps.google.com/?cid=0x0:0xf8464185f06e294b
mall,mall,Meos Mansar,"Kabupaten Raja Ampat, Papua Bar.","Kabupaten Raja Ampat, Papua Bar.",PAPUA BARAT,,Indonesia,,-0.4496057,130.583895,https://maps.google.com/?cid=0x0:0xe58d24898307b204
mall,Pusat Perbelanjaan,Mega Mall Sorong,"Jalan Basuki Rahmat Klabulu, Malaimsimsa, Malaingkedi, Kec. Sorong Utara, Kota Sorong, Papua Bar. 98412","Malaimsimsa, Malaingkedi, Kec. Sorong Utara, Kota Sorong",PAPUA BARAT,98412.0,Indonesia,,-0.8873097,131.3012842,https://maps.google.com/?cid=0x0:0x364e52ce8985aa7
mall,Pusat Perbelanjaan,Manokwari City Mall (MCM),"Jl. Yos Sudarso Manokwari, Manokwari Bar., Kec. Manokwari Bar., Kabupaten Manokwari, Papua Bar. 98312","Manokwari Bar., Kec. Manokwari Bar., Kabupaten Manokwari",PAPUA BARAT,98312.0,Indonesia,8114918899.0,-0.85693,134.0678051,https://maps.google.com/?cid=0x0:0x7e7b90df1d787501
mall,Pusat Perbelanjaan,RAMAYANA Mall Sorong,"Jl. Wahid Hasyim 220 A-B, Jakarta, Papua Bar. 10250",Jakarta,PAPUA BARAT,10250.0,Indonesia,951332505.0,-0.8820615,131.2755023,https://maps.google.com/?cid=0x0:0x595b97e0cac05b45
mall,Pusat Perbelanjaan,Mal Sorong,"479G+369, Klademak, Distrik Sorong, Kota Sorong, Papua Bar. 98412","Klademak, Distrik Sorong, Kota Sorong",PAPUA BARAT,98412.0,Indonesia,,-0.8823414,131.2755957,https://maps.google.com/?cid=0x0:0x4efad982776d0ca5
mall,Pusat Perbelanjaan,PARAGON SQUARE Mall  Hotel Sorong,"4874+4RH Paragon Square Mall, Jl. Basuki Rahmat Lt. 2, Sawagumu, Kec. Sorong Utara, Kota Sorong, Papua Bar. 98412","Jl. Basuki Rahmat Lt. 2, Sawagumu, Kec. Sorong Utara, Kota Sorong",PAPUA BARAT,98412.0,Indonesia,81247232214.0,-0.8871443,131.3071264,https://maps.google.com/?cid=0x0:0xd02481be48cb6e05
mall,Pusat Perbelanjaan,Mall Of Indonesia,"Jl. Boulevard Bar. Raya No.12, RT.18/RW.19, Klp. Gading Bar., Kec. Klp. Gading, Jkt Utara, Daerah Khusus Ibukota Jakarta 14240","RT.18/RW.19, Klp. Gading Bar., Kec. Klp. Gading, Jkt Utara",PAPUA BARAT,14240.0,Indonesia,2145867888.0,-6.1514549,106.8918949,https://maps.google.com/?cid=0x0:0x3431c7aaadd1f1b6
mall,Perusahaan Konstruksi,MALL SORONG MODERN CITY,"46HV+8RX, Jl. Yos. Sudarso, Kp. Baru, Distrik Sorong, Kota Sorong, Papua Bar. 98411","Jl. Yos. Sudarso, Kp. Baru, Distrik Sorong, Kota Sorong",PAPUA BARAT,98411.0,Indonesia,,-0.8716413,131.2446118,https://maps.google.com/?cid=0x0:0x40151c61e7d35d7a
mall,Toko umum,Kios Lutfi,"HQ88+7PR, Waisai, Distrik Kota Waisai, Kabupaten Raja Ampat, Papua Bar. 98482","Waisai, Distrik Kota Waisai, Kabupaten Raja Ampat",PAPUA BARAT,98482.0,Indonesia,82296295056.0,-0.4342704,130.7667751,https://maps.google.com/?cid=0x0:0x12ce4e87813cd565
mall,mall,Kios Mista Aduwei,"2W75+RGR, Aduwei, Distrik Misool, Kabupaten Raja Ampat, Papua Bar. 98483","Aduwei, Distrik Misool, Kabupaten Raja Ampat",PAPUA BARAT,98483.0,Indonesia,85254031966.0,-1.9853875,129.9087656,https://maps.google.com/?cid=0x0:0xbfe8e410a50b8cf2
mall,mall,Distrik Misool,"Kabupaten Raja Ampat, Papua Bar.","Kabupaten Raja Ampat, Papua Bar.",PAPUA BARAT,,Indonesia,,-1.7294753,130.076264,https://maps.google.com/?cid=0x0:0xe3dfedd20bce543c
mall,mall,Distrik Misool Barat,"Kabupaten Raja Ampat, Papua Bar.","Kabupaten Raja Ampat, Papua Bar.",PAPUA BARAT,,Indonesia,,-2.0480936,130.2709743,https://maps.google.com/?cid=0x0:0xfc668800a318e464
mall,mall,Misool Eco Resort,"Yellu, Misool Sel., Kabupaten Raja Ampat, Papua Bar. 98483","Misool Sel., Kabupaten Raja Ampat",PAPUA BARAT,98483.0,Indonesia,,-2.244373,130.5557219,https://maps.google.com/?cid=0x0:0xcec0c32ec4b9f857
mall,mall,Fiabacet,"Yellu, Misool Sel., Kabupaten Raja Ampat, Papua Bar.","Kabupaten Raja Ampat, Papua Bar.",PAPUA BARAT,,Indonesia,,-2.2211111,130.5516667,https://maps.google.com/?cid=0x0:0xdea3f07a56ccf400
mall,Pusat Perbelanjaan,Manokwari City Mall (MCM),"Jl. Yos Sudarso Manokwari, Manokwari Bar., Kec. Manokwari Bar., Kabupaten Manokwari, Papua Bar. 98312","Manokwari Bar., Kec. Manokwari Bar., Kabupaten Manokwari",PAPUA BARAT,98312.0,Indonesia,8114918899.0,-0.85693,134.0678051,https://maps.google.com/?cid=0x0:0x7e7b90df1d787501
mall,Balai Pertemuan Desa,Kampung Fafanlap,"285R+Q5, Fafanlap, Misool Sel., Kabupaten Raja Ampat, Papua Bar. 98483","Fafanlap, Misool Sel., Kabupaten Raja Ampat",PAPUA BARAT,98483.0,Indonesia,,-1.9893865,130.3406579,https://maps.google.com/?cid=0x0:0x92ece10c1b1e5b70
mall,mall,Kios Mista Aduwei,"2W75+RGR, Aduwei, Distrik Misool, Kabupaten Raja Ampat, Papua Bar. 98483","Aduwei, Distrik Misool, Kabupaten Raja Ampat",PAPUA BARAT,98483.0,Indonesia,85254031966.0,-1.9853875,129.9087656,https://maps.google.com/?cid=0x0:0xbfe8e410a50b8cf2
mall,mall,KIOS MEYLA PUTRY,"Jln. Jembatan Baru No.RT 02, Yellu, Misool Sel., Kabupaten Raja Ampat, Papua Bar. 98483","Yellu, Misool Sel., Kabupaten Raja Ampat",PAPUA BARAT,98483.0,Indonesia,,-2.0583025,130.4119011,https://maps.google.com/?cid=0x0:0xe72ad761cbf4cf9f
mall,Pusat Perbelanjaan,Mega Mall Sorong,"Jalan Basuki Rahmat Klabulu, Malaimsimsa, Malaingkedi, Kec. Sorong Utara, Kota Sorong, Papua Bar. 98412","Malaimsimsa, Malaingkedi, Kec. Sorong Utara, Kota Sorong",PAPUA BARAT,98412.0,Indonesia,,-0.8873097,131.3012842,https://maps.google.com/?cid=0x0:0x364e52ce8985aa7
mall,Rumah wisata,Lalelkai Nature Lodge Misool,"Lalelkai, Misool - Southern of, Harapan Jaya, South Misool, Raja Ampat Regency, West Papua 98483","Misool - Southern of, Harapan Jaya, South Misool, Raja Ampat Regency",PAPUA BARAT,98483.0,Indonesia,81217638893.0,-2.0380855,130.3740032,https://maps.google.com/?cid=0x0:0xc2fd5026ad01ad88
mall,mall,Misool Sel.,"Kabupaten Raja Ampat, Papua Bar.","Kabupaten Raja Ampat, Papua Bar.",PAPUA BARAT,,Indonesia,,-1.959546,130.3190719,https://maps.google.com/?cid=0x0:0x772018b3157aa95b
mall,mall,Fiabacet,"Yellu, Misool Sel., Kabupaten Raja Ampat, Papua Bar.","Kabupaten Raja Ampat, Papua Bar.",PAPUA BARAT,,Indonesia,,-2.2211111,130.5516667,https://maps.google.com/?cid=0x0:0xdea3f07a56ccf400
mall,mall,Misool Eco Resort,"Yellu, Misool Sel., Kabupaten Raja Ampat, Papua Bar. 98483","Misool Sel., Kabupaten Raja Ampat",PAPUA BARAT,98483.0,Indonesia,,-2.244373,130.5557219,https://maps.google.com/?cid=0x0:0xcec0c32ec4b9f857
mall,mall,KIOS MEYLA PUTRY,"Jln. Jembatan Baru No.RT 02, Yellu, Misool Sel., Kabupaten Raja Ampat, Papua Bar. 98483","Yellu, Misool Sel., Kabupaten Raja Ampat",PAPUA BARAT,98483.0,Indonesia,,-2.0583025,130.4119011,https://maps.google.com/?cid=0x0:0xe72ad761cbf4cf9f
mall,mall,Distrik Misool Timur,"Kabupaten Raja Ampat, Papua Bar.","Kabupaten Raja Ampat, Papua Bar.",PAPUA BARAT,,Indonesia,,-1.7731765,130.4105659,https://maps.google.com/?cid=0x0:0x37397a27849d25ed
mall,mall,Misool Eco Resort,"Yellu, Misool Sel., Kabupaten Raja Ampat, Papua Bar. 98483","Misool Sel., Kabupaten Raja Ampat",PAPUA BARAT,98483.0,Indonesia,,-2.244373,130.5557219,https://maps.google.com/?cid=0x0:0xcec0c32ec4b9f857
mall,mall,Fiabacet,"Yellu, Misool Sel., Kabupaten Raja Ampat, Papua Bar.","Kabupaten Raja Ampat, Papua Bar.",PAPUA BARAT,,Indonesia,,-2.2211111,130.5516667,https://maps.google.com/?cid=0x0:0xdea3f07a56ccf400
mall,Komplek perumahan,Sub Penyalur BBM SALOPAN,"RT.04/RW.01, Yellu, Misool Sel., Kabupaten Raja Ampat, Papua Bar. 98483","Yellu, Misool Sel., Kabupaten Raja Ampat",PAPUA BARAT,98483.0,Indonesia,82398687801.0,-2.058095,130.4125981,https://maps.google.com/?cid=0x0:0xe3b662013a54fc85
mall,mall,KIOS MEYLA PUTRY,"Jln. Jembatan Baru No.RT 02, Yellu, Misool Sel., Kabupaten Raja Ampat, Papua Bar. 98483","Yellu, Misool Sel., Kabupaten Raja Ampat",PAPUA BARAT,98483.0,Indonesia,,-2.0583025,130.4119011,https://maps.google.com/?cid=0x0:0xe72ad761cbf4cf9f
mall,Area Rekreasi Alam,Lenmakana Stingless Jellyfish Lake,"2G89+R54, Usaha Jaya, Distrik Misool Timur, Kabupaten Raja Ampat, Papua Bar. 98483","Usaha Jaya, Distrik Misool Timur, Kabupaten Raja Ampat",PAPUA BARAT,98483.0,Indonesia,,-1.9829927,130.5179628,https://maps.google.com/?cid=0x0:0xde9ad22a1027d858
mall,Rumah wisata,Yapap,"2FPQ+V7, Usaha Jaya, Distrik Misool Timur, Kabupaten Raja Ampat, Papua Bar.","Kabupaten Raja Ampat, Papua Bar.",PAPUA BARAT,,Indonesia,,-1.9628572,130.4881969,https://maps.google.com/?cid=0x0:0x3cc507788c9b32d6
mall,Pondok,Yapap Homestay,"Kampung Usaha Jaya, Misool Sel., Kabupaten Raja Ampat, Papua Bar. 98483","Misool Sel., Kabupaten Raja Ampat",PAPUA BARAT,98483.0,Indonesia,82191217966.0,-1.9674038,130.4878592,https://maps.google.com/?cid=0x0:0xb83766ef64c5e904
mall,Tujuan Wisata,Penyebar agama Islam pertama di pulau Misool,"29X5+9R6, Usaha Jaya, Distrik Misool Timur, Kabupaten Raja Ampat, Papua Bar. 98483","Usaha Jaya, Distrik Misool Timur, Kabupaten Raja Ampat",PAPUA BARAT,98483.0,Indonesia,,-1.9515814,130.3595266,https://maps.google.com/?cid=0x0:0x55c55f538e4c8663
mall,mall,Distrik Salawati Barat,"Kabupaten Raja Ampat, Papua Bar.","Kabupaten Raja Ampat, Papua Bar.",PAPUA BARAT,,Indonesia,,-1.0980561,130.7040528,https://maps.google.com/?cid=0x0:0x6c8554c61c1a5f51
mall,Pusat Perbelanjaan,Mega Mall Sorong,"Jalan Basuki Rahmat Klabulu, Malaimsimsa, Malaingkedi, Kec. Sorong Utara, Kota Sorong, Papua Bar. 98412","Malaimsimsa, Malaingkedi, Kec. Sorong Utara, Kota Sorong",PAPUA BARAT,98412.0,Indonesia,,-0.8873097,131.3012842,https://maps.google.com/?cid=0x0:0x364e52ce8985aa7
mall,Pusat Perbelanjaan,RAMAYANA Mall Sorong,"Jl. Wahid Hasyim 220 A-B, Jakarta, Papua Bar. 10250",Jakarta,PAPUA BARAT,10250.0,Indonesia,951332505.0,-0.8820615,131.2755023,https://maps.google.com/?cid=0x0:0x595b97e0cac05b45
mall,Makanan Siap Saji,KFC MEGA,"Jalan BASUKI RAHMAT NO. 1 KM. 8.5, Malaingkedi, Kec. Sorong Utara, Kota Sorong, Papua Bar. 98412","Malaingkedi, Kec. Sorong Utara, Kota Sorong",PAPUA BARAT,98412.0,Indonesia,2114022.0,-0.88741,131.3014311,https://maps.google.com/?cid=0x0:0x3b28231f1cfe08ef
mall,mall,Salawati Tengah,"Kabupaten Raja Ampat, Papua Bar.","Kabupaten Raja Ampat, Papua Bar.",PAPUA BARAT,,Indonesia,,-1.0547794,131.0589536,https://maps.google.com/?cid=0x0:0x9e15ae7888c4541f
mall,Pusat Perbelanjaan,Mega Mall Sorong,"Jalan Basuki Rahmat Klabulu, Malaimsimsa, Malaingkedi, Kec. Sorong Utara, Kota Sorong, Papua Bar. 98412","Malaimsimsa, Malaingkedi, Kec. Sorong Utara, Kota Sorong",PAPUA BARAT,98412.0,Indonesia,,-0.8873097,131.3012842,https://maps.google.com/?cid=0x0:0x364e52ce8985aa7
mall,Pusat Perbelanjaan,Mal Sorong,"479G+369, Klademak, Distrik Sorong, Kota Sorong, Papua Bar. 98412","Klademak, Distrik Sorong, Kota Sorong",PAPUA BARAT,98412.0,Indonesia,,-0.8823414,131.2755957,https://maps.google.com/?cid=0x0:0x4efad982776d0ca5
mall,Pusat Perbelanjaan,RAMAYANA Mall Sorong,"Jl. Wahid Hasyim 220 A-B, Jakarta, Papua Bar. 10250",Jakarta,PAPUA BARAT,10250.0,Indonesia,951332505.0,-0.8820615,131.2755023,https://maps.google.com/?cid=0x0:0x595b97e0cac05b45
mall,mall,Toko haji pasidin,"W3W5+4V8, Waibo, Salawati Tengah, Kabupaten Raja Ampat, Papua Bar. 98484","Waibo, Salawati Tengah, Kabupaten Raja Ampat",PAPUA BARAT,98484.0,Indonesia,,-1.0547141,131.0596898,https://maps.google.com/?cid=0x0:0x258d7a683190150d
mall,Pusat Perbelanjaan,PARAGON SQUARE Mall  Hotel Sorong,"4874+4RH Paragon Square Mall, Jl. Basuki Rahmat Lt. 2, Sawagumu, Kec. Sorong Utara, Kota Sorong, Papua Bar. 98412","Jl. Basuki Rahmat Lt. 2, Sawagumu, Kec. Sorong Utara, Kota Sorong",PAPUA BARAT,98412.0,Indonesia,81247232214.0,-0.8871443,131.3071264,https://maps.google.com/?cid=0x0:0xd02481be48cb6e05
mall,Perusahaan Konstruksi,MALL SORONG MODERN CITY,"46HV+8RX, Jl. Yos. Sudarso, Kp. Baru, Distrik Sorong, Kota Sorong, Papua Bar. 98411","Jl. Yos. Sudarso, Kp. Baru, Distrik Sorong, Kota Sorong",PAPUA BARAT,98411.0,Indonesia,,-0.8716413,131.2446118,https://maps.google.com/?cid=0x0:0x40151c61e7d35d7a
mall,,Jastip Pesawat,"R7R8+68R, Jl. Nusantara Katapop II, Majaran, Kec. Salawati, Kabupaten Sorong, Papua Bar.","Kabupaten Sorong, Papua Bar.",PAPUA BARAT,,Indonesia,81248669576.0,-1.1593902,131.2657545,https://maps.google.com/?cid=0x0:0x1c1b9de53135d5c3
mall,Pusat Perbelanjaan,Navy Mart,"V778+377, Jl. Poros katapop, Majener, Kec. Salawati, Kabupaten Sorong, Papua Bar.","Kabupaten Sorong, Papua Bar.",PAPUA BARAT,,Indonesia,,-1.1373402,131.2656573,https://maps.google.com/?cid=0x0:0x8b377a413503c6d4
mall,Bengkel Motor Skuter,Bengkel Putra Jaya,"V7FF+PV7, Majaran, Kec. Salawati, Kabupaten Sorong, Papua Bar. 98451","Majaran, Kec. Salawati, Kabupaten Sorong",PAPUA BARAT,98451.0,Indonesia,85244346699.0,-1.1257234,131.2746638,https://maps.google.com/?cid=0x0:0xdcc087ad2bc25eb0
mall,Grosir,AZKO PARAGON SORONG,"4874+GWG, Jl. Basuki Rahmat, Sawagumu, Kec. Sorong Utara, Kota Sorong, Papua Bar.","Kota Sorong, Papua Bar.",PAPUA BARAT,,Indonesia,,-0.886185,131.3073385,https://maps.google.com/?cid=0x0:0x34d596cc826d6f95
mall,Pusat Perbelanjaan,Kawasan SMC (Sorong Modern City),"46HV+6FP Sunset Point Sorong, Dekat, Jl. Yos. Sudarso, Kp. Baru, Distrik Sorong, Kota Sorong, Papua Bar. 98411","Dekat, Jl. Yos. Sudarso, Kp. Baru, Distrik Sorong, Kota Sorong",PAPUA BARAT,98411.0,Indonesia,,-0.8724848,131.2434905,https://maps.google.com/?cid=0x0:0xcd23323a4726adf5
mall,Pusat Perbelanjaan,Manokwari City Mall (MCM),"Jl. Yos Sudarso Manokwari, Manokwari Bar., Kec. Manokwari Bar., Kabupaten Manokwari, Papua Bar. 98312","Manokwari Bar., Kec. Manokwari Bar., Kabupaten Manokwari",PAPUA BARAT,98312.0,Indonesia,8114918899.0,-0.85693,134.0678051,https://maps.google.com/?cid=0x0:0x7e7b90df1d787501
mall,Pusat Perbelanjaan,Somai mas Jawa( bandar somai),"Mariat, Arar, Kec. Aimas, Papua Bar. 98445","Arar, Kec. Aimas",PAPUA BARAT,98445.0,Indonesia,81211002877.0,-1.0390574,131.2526841,https://maps.google.com/?cid=0x0:0xf4595d655f60a067
mall,Pusat Perbelanjaan,Mega Mall Sorong,"Jalan Basuki Rahmat Klabulu, Malaimsimsa, Malaingkedi, Kec. Sorong Utara, Kota Sorong, Papua Bar. 98412","Malaimsimsa, Malaingkedi, Kec. Sorong Utara, Kota Sorong",PAPUA BARAT,98412.0,Indonesia,,-0.8873097,131.3012842,https://maps.google.com/?cid=0x0:0x364e52ce8985aa7
mall,Pusat Perbelanjaan,Mal Sorong,"479G+369, Klademak, Distrik Sorong, Kota Sorong, Papua Bar. 98412","Klademak, Distrik Sorong, Kota Sorong",PAPUA BARAT,98412.0,Indonesia,,-0.8823414,131.2755957,https://maps.google.com/?cid=0x0:0x4efad982776d0ca5
mall,Makanan Siap Saji,KFC MEGA,"Jalan BASUKI RAHMAT NO. 1 KM. 8.5, Malaingkedi, Kec. Sorong Utara, Kota Sorong, Papua Bar. 98412","Malaingkedi, Kec. Sorong Utara, Kota Sorong",PAPUA BARAT,98412.0,Indonesia,2114022.0,-0.88741,131.3014311,https://maps.google.com/?cid=0x0:0x3b28231f1cfe08ef
mall,Komplek perumahan,Kantor Desa Samate,"23JC+FRG, Unnamed Road, Samate, Salawati Utara, Raja Ampat Regency, West Papua 98484","Unnamed Road, Samate, Salawati Utara, Raja Ampat Regency",PAPUA BARAT,98484.0,Indonesia,,-0.968825,131.0720667,https://maps.google.com/?cid=0x0:0xec95e249042b0c27
mall,mall,Supnin,"Kabupaten Raja Ampat, Papua Bar.","Kabupaten Raja Ampat, Papua Bar.",PAPUA BARAT,,Indonesia,,-0.0707044,130.7766611,https://maps.google.com/?cid=0x0:0x460c1dbebeaa6e11
mall,Pusat Perbelanjaan,Mega Mall Sorong,"Jalan Basuki Rahmat Klabulu, Malaimsimsa, Malaingkedi, Kec. Sorong Utara, Kota Sorong, Papua Bar. 98412","Malaimsimsa, Malaingkedi, Kec. Sorong Utara, Kota Sorong",PAPUA BARAT,98412.0,Indonesia,,-0.8873097,131.3012842,https://maps.google.com/?cid=0x0:0x364e52ce8985aa7
mall,mall,"Iam Shopping Sorong, Papua Barat","48CC+88P, Matalamagi, Kec. Sorong Utara, Kota Sorong, Papua Bar. 98412","Matalamagi, Kec. Sorong Utara, Kota Sorong",PAPUA BARAT,98412.0,Indonesia,,-0.8791692,131.3208235,https://maps.google.com/?cid=0x0:0x3c97a36422713753
mall,Makanan Siap Saji,KFC MEGA,"Jalan BASUKI RAHMAT NO. 1 KM. 8.5, Malaingkedi, Kec. Sorong Utara, Kota Sorong, Papua Bar. 98412","Malaingkedi, Kec. Sorong Utara, Kota Sorong",PAPUA BARAT,98412.0,Indonesia,2114022.0,-0.88741,131.3014311,https://maps.google.com/?cid=0x0:0x3b28231f1cfe08ef
mall,Pusat Perbelanjaan,Blok M Plaza,"Jl. Bulungan No.76, RT.6/RW.6, Kramat Pela, Kec. Kby. Baru, Kota Jakarta Selatan, Daerah Khusus Ibukota Jakarta 12130","RT.6/RW.6, Kramat Pela, Kec. Kby. Baru, Kota Jakarta Selatan",PAPUA BARAT,12130.0,Indonesia,217209288.0,-6.2441189,106.7976404,https://maps.google.com/?cid=0x0:0x3e110f817acb352d
mall,Pusat Perbelanjaan,Grand Indonesia Shopping Town,"Jl. M.H. Thamrin No.1, Menteng, Kec. Menteng, Kota Jakarta Pusat, Daerah Khusus Ibukota Jakarta 10310","Menteng, Kec. Menteng, Kota Jakarta Pusat",PAPUA BARAT,10310.0,Indonesia,2123580001.0,-6.1965848,106.8224882,https://maps.google.com/?cid=0x0:0xccfcc89b95aaf1ae
mall,Pusat Perbelanjaan,Grand Indonesia,"Jl. MH Thamrin No.1, Menteng, Kec. Menteng, Kota Jakarta Pusat, Daerah Khusus Ibukota Jakarta 10310","Menteng, Kec. Menteng, Kota Jakarta Pusat",PAPUA BARAT,10310.0,Indonesia,2123580001.0,-6.1950412,106.8210081,https://maps.google.com/?cid=0x0:0xb04ce66a7cb711d9
mall,mall,Kec. Tlk. Mayalibit,"Kabupaten Raja Ampat, Papua Bar.","Kabupaten Raja Ampat, Papua Bar.",PAPUA BARAT,,Indonesia,,-0.2689344,130.9384914,https://maps.google.com/?cid=0x0:0xae388a762cdfd0ec
mall,Kios,Sumber tani,"Unnamed Road, Waisai, Distrik Kota Waisai, Kabupaten Raja Ampat, Papua Bar. 98482","Waisai, Distrik Kota Waisai, Kabupaten Raja Ampat",PAPUA BARAT,98482.0,Indonesia,82397941102.0,-0.4264067,130.8238483,https://maps.google.com/?cid=0x0:0x3a6479c606622f65
mall,Pusat Perbelanjaan,Toko Asri,"HRGC+49R, RegencyKota, Waisai, Kec. Waigeo Sel., Kabupaten Raja Ampat, Papua Bar. 98482","RegencyKota, Waisai, Kec. Waigeo Sel., Kabupaten Raja Ampat",PAPUA BARAT,98482.0,Indonesia,85344404896.0,-0.424649,130.8209002,https://maps.google.com/?cid=0x0:0xa2d43eecf8dc7444
mall,Toko bahan makanan,UD. MAROS INDAH,"Jl. Jend. Sudirman No.30, Waisai, Distrik Kota Waisai, Kabupaten Raja Ampat, Papua Bar. 98482","Waisai, Distrik Kota Waisai, Kabupaten Raja Ampat",PAPUA BARAT,98482.0,Indonesia,8216735515.0,-0.4211855,130.8211321,https://maps.google.com/?cid=0x0:0xa6989b33492d92b5
mall,Toko,ALFAMART ayani raja ampat,"HRPG+C4R, Jl. Raya Waisai, Waisai, Distrik Kota Waisai, Kabupaten Raja Ampat, Papua Bar. 98482","Jl. Raya Waisai, Waisai, Distrik Kota Waisai, Kabupaten Raja Ampat",PAPUA BARAT,98482.0,Indonesia,81399507019.0,-0.4141831,130.8252158,https://maps.google.com/?cid=0x0:0x6cbfdcd3160564ae
mall,Toko Perlengkapan Rumah,Sinar Waigeo,"HRJF+Q65, Jl. Lukas Dailon, Waisai, Distrik Kota Waisai, Kabupaten Raja Ampat, Papua Bar. 98482","Jl. Lukas Dailon, Waisai, Distrik Kota Waisai, Kabupaten Raja Ampat",PAPUA BARAT,98482.0,Indonesia,,-0.4181091,130.8231183,https://maps.google.com/?cid=0x0:0xd8a97e02fcc4af22
mall,Pusat Perbelanjaan,Mega Mall Sorong,"Jalan Basuki Rahmat Klabulu, Malaimsimsa, Malaingkedi, Kec. Sorong Utara, Kota Sorong, Papua Bar. 98412","Malaimsimsa, Malaingkedi, Kec. Sorong Utara, Kota Sorong",PAPUA BARAT,98412.0,Indonesia,,-0.8873097,131.3012842,https://maps.google.com/?cid=0x0:0x364e52ce8985aa7
mall,Pusat Perbelanjaan,INDOMARET LUCAS DAILON,"HRJF+875, Waisai, Distrik Kota Waisai, Kabupaten Raja Ampat, Papua Bar. 98482","Waisai, Distrik Kota Waisai, Kabupaten Raja Ampat",PAPUA BARAT,98482.0,Indonesia,,-0.4192348,130.8232348,https://maps.google.com/?cid=0x0:0x2075fce1c64d591
mall,mall,Distrik Tiplol Mayalibit,"Kabupaten Raja Ampat, Papua Bar.","Kabupaten Raja Ampat, Papua Bar.",PAPUA BARAT,,Indonesia,,-0.078691,130.6642772,https://maps.google.com/?cid=0x0:0xd2fca4629b110358
mall,Toko Swalayan,Deframart / Surya 88 Grosir,"Waisai, Kec. Waigeo Sel., Kabupaten Raja Ampat, Papua Bar. 98482","Kec. Waigeo Sel., Kabupaten Raja Ampat",PAPUA BARAT,98482.0,Indonesia,82198810318.0,-0.4115814,130.8191378,https://maps.google.com/?cid=0x0:0x2477539a632d958c
mall,Toko,INDOMARET RAYA WAISAI,"Jl. Raya Waisai No.3, Waisai, Kec. Waigeo Sel., Kabupaten Raja Ampat, Papua Bar. 98482","Waisai, Kec. Waigeo Sel., Kabupaten Raja Ampat",PAPUA BARAT,98482.0,Indonesia,,-0.4199333,130.8262721,https://maps.google.com/?cid=0x0:0x16fb9fb6001fb2bb
mall,Toko Perhiasan,Tukang Mas Bogor,"HRGC+6P2, Waisai, Kec. Waigeo Sel., Kabupaten Raja Ampat, Papua Bar. 98482","Waisai, Kec. Waigeo Sel., Kabupaten Raja Ampat",PAPUA BARAT,98482.0,Indonesia,81289846978.0,-0.4244969,130.8217678,https://maps.google.com/?cid=0x0:0x6c84b17038ae8a26
mall,Toko umum,Kios Lutfi,"HQ88+7PR, Waisai, Distrik Kota Waisai, Kabupaten Raja Ampat, Papua Bar. 98482","Waisai, Distrik Kota Waisai, Kabupaten Raja Ampat",PAPUA BARAT,98482.0,Indonesia,82296295056.0,-0.4342704,130.7667751,https://maps.google.com/?cid=0x0:0x12ce4e87813cd565
mall,Pusat Perbelanjaan,RAMAYANA Mall Sorong,"Jl. Wahid Hasyim 220 A-B, Jakarta, Papua Bar. 10250",Jakarta,PAPUA BARAT,10250.0,Indonesia,951332505.0,-0.8820615,131.2755023,https://maps.google.com/?cid=0x0:0x595b97e0cac05b45
mall,mall,Distrik Tiplol Mayalibit,"Kabupaten Raja Ampat, Papua Bar.","Kabupaten Raja Ampat, Papua Bar.",PAPUA BARAT,,Indonesia,,-0.078691,130.6642772,https://maps.google.com/?cid=0x0:0xd2fca4629b110358
mall,mall,Kec. Waigeo Bar.,"Kabupaten Raja Ampat, Papua Bar.","Kabupaten Raja Ampat, Papua Bar.",PAPUA BARAT,,Indonesia,,-0.1565367,130.4516329,https://maps.google.com/?cid=0x0:0xa968725bc286475b
mall,Pusat Perbelanjaan,Mega Mall Sorong,"Jalan Basuki Rahmat Klabulu, Malaimsimsa, Malaingkedi, Kec. Sorong Utara, Kota Sorong, Papua Bar. 98412","Malaimsimsa, Malaingkedi, Kec. Sorong Utara, Kota Sorong",PAPUA BARAT,98412.0,Indonesia,,-0.8873097,131.3012842,https://maps.google.com/?cid=0x0:0x364e52ce8985aa7
mall,Pusat Perbelanjaan,Mal Sorong,"479G+369, Klademak, Distrik Sorong, Kota Sorong, Papua Bar. 98412","Klademak, Distrik Sorong, Kota Sorong",PAPUA BARAT,98412.0,Indonesia,,-0.8823414,131.2755957,https://maps.google.com/?cid=0x0:0x4efad982776d0ca5
mall,Toko Perlengkapan Rumah,Sinar Waigeo,"HRJF+Q65, Jl. Lukas Dailon, Waisai, Distrik Kota Waisai, Kabupaten Raja Ampat, Papua Bar. 98482","Jl. Lukas Dailon, Waisai, Distrik Kota Waisai, Kabupaten Raja Ampat",PAPUA BARAT,98482.0,Indonesia,,-0.4181091,130.8231183,https://maps.google.com/?cid=0x0:0xd8a97e02fcc4af22
mall,Pusat Perbelanjaan,MargoCity,"Jl. Margonda Raya No.358, Kemiri Muka, Kecamatan Beji, Kota Depok, Jawa Barat 16423","Kemiri Muka, Kecamatan Beji, Kota Depok",PAPUA BARAT,16423.0,Indonesia,2178870888.0,-6.372967,106.8344235,https://maps.google.com/?cid=0x0:0xd3365350a2ebe2f
mall,mall,Kios Anfar,"M699+9P5, Manyaifun, Kec. Waigeo Bar., Kabupaten Raja Ampat, Papua Bar.","Kabupaten Raja Ampat, Papua Bar.",PAPUA BARAT,,Indonesia,81248407970.0,-0.3316134,130.2193654,https://maps.google.com/?cid=0x0:0x4e82499ce71cfeb4
mall,Pusat Perbelanjaan,Central Park,"Jl. Letjen S. Parman No.Kav. 28, Tj. Duren Sel., Kec. Grogol petamburan, Kota Jakarta Barat, Daerah Khusus Ibukota Jakarta 11470","Tj. Duren Sel., Kec. Grogol petamburan, Kota Jakarta Barat",PAPUA BARAT,11470.0,Indonesia,2156989999.0,-6.1771373,106.7909788,https://maps.google.com/?cid=0x0:0xe816d65037c3207a
mall,Pusat Perbelanjaan,Mall Taman Anggrek,"Jl. Letjen S. Parman, RT.12/RW.1, Tj. Duren Sel., Kec. Grogol petamburan, Kota Jakarta Barat, Daerah Khusus Ibukota Jakarta 11470","RT.12/RW.1, Tj. Duren Sel., Kec. Grogol petamburan, Kota Jakarta Barat",PAPUA BARAT,11470.0,Indonesia,215643777.0,-6.1782936,106.7924023,https://maps.google.com/?cid=0x0:0xb287bf108f4ef441
mall,mall,Loading Point,"HW53+J29, Gag, Kec. Waigeo Bar., Kabupaten Raja Ampat, Papua Bar. 98481","Gag, Kec. Waigeo Bar., Kabupaten Raja Ampat",PAPUA BARAT,98481.0,Indonesia,,-0.4409657,129.9026056,https://maps.google.com/?cid=0x0:0x3c162da7e17545a8
mall,mall,Distrik Waigeo Barat Kepulauan,"Kabupaten Raja Ampat, Papua Bar.","Kabupaten Raja Ampat, Papua Bar.",PAPUA BARAT,,Indonesia,,-0.3990489,129.8878154,https://maps.google.com/?cid=0x0:0x2f9f2f03d60aa281
mall,Pusat Perbelanjaan,Mega Mall Sorong,"Jalan Basuki Rahmat Klabulu, Malaimsimsa, Malaingkedi, Kec. Sorong Utara, Kota Sorong, Papua Bar. 98412","Malaimsimsa, Malaingkedi, Kec. Sorong Utara, Kota Sorong",PAPUA BARAT,98412.0,Indonesia,,-0.8873097,131.3012842,https://maps.google.com/?cid=0x0:0x364e52ce8985aa7
mall,mall,Kios Anfar,"M699+9P5, Manyaifun, Kec. Waigeo Bar., Kabupaten Raja Ampat, Papua Bar.","Kabupaten Raja Ampat, Papua Bar.",PAPUA BARAT,,Indonesia,81248407970.0,-0.3316134,130.2193654,https://maps.google.com/?cid=0x0:0x4e82499ce71cfeb4
mall,Toko Perlengkapan Rumah,Sinar Waigeo,"HRJF+Q65, Jl. Lukas Dailon, Waisai, Distrik Kota Waisai, Kabupaten Raja Ampat, Papua Bar. 98482","Jl. Lukas Dailon, Waisai, Distrik Kota Waisai, Kabupaten Raja Ampat",PAPUA BARAT,98482.0,Indonesia,,-0.4181091,130.8231183,https://maps.google.com/?cid=0x0:0xd8a97e02fcc4af22
mall,Pusat Perbelanjaan,Toko Sinar Papua,"HRGC+7VX, Waisai, Distrik Kota Waisai, Kabupaten Raja Ampat, Papua Bar. 98482","Waisai, Distrik Kota Waisai, Kabupaten Raja Ampat",PAPUA BARAT,98482.0,Indonesia,,-0.4242574,130.8222438,https://maps.google.com/?cid=0x0:0x39420cba8c8a748f
mall,mall,Papua Bar. 98482,"Kabupaten Raja Ampat, Papua Bar.","Kabupaten Raja Ampat, Papua Bar.",PAPUA BARAT,,Indonesia,,-0.3696535,130.7564002,https://maps.google.com/?cid=0x0:0x19dfa32a027748a3
mall,Toko Swalayan,Deframart / Surya 88 Grosir,"Waisai, Kec. Waigeo Sel., Kabupaten Raja Ampat, Papua Bar. 98482","Kec. Waigeo Sel., Kabupaten Raja Ampat",PAPUA BARAT,98482.0,Indonesia,82198810318.0,-0.4115814,130.8191378,https://maps.google.com/?cid=0x0:0x2477539a632d958c
mall,Toko Perhiasan,Tukang Mas Bogor,"HRGC+6P2, Waisai, Kec. Waigeo Sel., Kabupaten Raja Ampat, Papua Bar. 98482","Waisai, Kec. Waigeo Sel., Kabupaten Raja Ampat",PAPUA BARAT,98482.0,Indonesia,81289846978.0,-0.4244969,130.8217678,https://maps.google.com/?cid=0x0:0x6c84b17038ae8a26
mall,Toko,INDOMARET RAYA WAISAI,"Jl. Raya Waisai No.3, Waisai, Kec. Waigeo Sel., Kabupaten Raja Ampat, Papua Bar. 98482","Waisai, Kec. Waigeo Sel., Kabupaten Raja Ampat",PAPUA BARAT,98482.0,Indonesia,,-0.4199333,130.8262721,https://maps.google.com/?cid=0x0:0x16fb9fb6001fb2bb
mall,Toko Rokok Elektrik,Waisai Vape Store,"HRGF+H59, Waisai, Kec. Waigeo Sel., Kabupaten Raja Ampat, Papua Bar. 98482","Waisai, Kec. Waigeo Sel., Kabupaten Raja Ampat",PAPUA BARAT,98482.0,Indonesia,81344887370.0,-0.4235776,130.8229758,https://maps.google.com/?cid=0x0:0x33a86dcef529ce44
mall,Pusat Perbelanjaan,Toko putra wakatobi,"HRGC+MQ2, Waisai, Kec. Waigeo Sel., Kabupaten Raja Ampat, Papua Bar. 98482","Waisai, Kec. Waigeo Sel., Kabupaten Raja Ampat",PAPUA BARAT,98482.0,Indonesia,8114858985.0,-0.423366,130.8218847,https://maps.google.com/?cid=0x0:0xf8464185f06e294b
mall,mall,Kec. Waigeo Sel.,"Kabupaten Raja Ampat, Papua Bar.","Kabupaten Raja Ampat, Papua Bar.",PAPUA BARAT,,Indonesia,,-0.3840807,130.7361322,https://maps.google.com/?cid=0x0:0x2c9db46da776b4
mall,Kios,Sumber tani,"Unnamed Road, Waisai, Distrik Kota Waisai, Kabupaten Raja Ampat, Papua Bar. 98482","Waisai, Distrik Kota Waisai, Kabupaten Raja Ampat",PAPUA BARAT,98482.0,Indonesia,82397941102.0,-0.4264067,130.8238483,https://maps.google.com/?cid=0x0:0x3a6479c606622f65
mall,Toko bahan makanan,UD. MAROS INDAH,"Jl. Jend. Sudirman No.30, Waisai, Distrik Kota Waisai, Kabupaten Raja Ampat, Papua Bar. 98482","Waisai, Distrik Kota Waisai, Kabupaten Raja Ampat",PAPUA BARAT,98482.0,Indonesia,8216735515.0,-0.4211855,130.8211321,https://maps.google.com/?cid=0x0:0xa6989b33492d92b5
mall,Pusat Perbelanjaan,Saonek,"GQMM+C88, Kabupaten Raja Ampat, Papua Bar. 98482",Kabupaten Raja Ampat,PAPUA BARAT,98482.0,Indonesia,,-0.4664749,130.7833923,https://maps.google.com/?cid=0x0:0x514921a48ef34283
mall,Toko Suvenir,KOTAK PRINT,"HRGF+J48, Waisai, Distrik Kota Waisai, Kabupaten Raja Ampat, Papua Bar. 98482","Waisai, Distrik Kota Waisai, Kabupaten Raja Ampat",PAPUA BARAT,98482.0,Indonesia,81395342676.0,-0.4234682,130.8228167,https://maps.google.com/?cid=0x0:0x7b248cce31553999
mall,Toko umum,Kios Lutfi,"HQ88+7PR, Waisai, Distrik Kota Waisai, Kabupaten Raja Ampat, Papua Bar. 98482","Waisai, Distrik Kota Waisai, Kabupaten Raja Ampat",PAPUA BARAT,98482.0,Indonesia,82296295056.0,-0.4342704,130.7667751,https://maps.google.com/?cid=0x0:0x12ce4e87813cd565
mall,Toko Perlengkapan Rumah,Sinar Waigeo,"HRJF+Q65, Jl. Lukas Dailon, Waisai, Distrik Kota Waisai, Kabupaten Raja Ampat, Papua Bar. 98482","Jl. Lukas Dailon, Waisai, Distrik Kota Waisai, Kabupaten Raja Ampat",PAPUA BARAT,98482.0,Indonesia,,-0.4181091,130.8231183,https://maps.google.com/?cid=0x0:0xd8a97e02fcc4af22
mall,Pusat Perbelanjaan,Toko Sinar Papua,"HRGC+7VX, Waisai, Distrik Kota Waisai, Kabupaten Raja Ampat, Papua Bar. 98482","Waisai, Distrik Kota Waisai, Kabupaten Raja Ampat",PAPUA BARAT,98482.0,Indonesia,,-0.4242574,130.8222438,https://maps.google.com/?cid=0x0:0x39420cba8c8a748f
mall,mall,Distrik Waigeo Utara,"Kabupaten Raja Ampat, Papua Bar.","Kabupaten Raja Ampat, Papua Bar.",PAPUA BARAT,,Indonesia,,-0.0564707,130.9858964,https://maps.google.com/?cid=0x0:0xc31e9c0aa62767f2
mall,Toko Perlengkapan Rumah,Sinar Waigeo,"HRJF+Q65, Jl. Lukas Dailon, Waisai, Distrik Kota Waisai, Kabupaten Raja Ampat, Papua Bar. 98482","Jl. Lukas Dailon, Waisai, Distrik Kota Waisai, Kabupaten Raja Ampat",PAPUA BARAT,98482.0,Indonesia,,-0.4181091,130.8231183,https://maps.google.com/?cid=0x0:0xd8a97e02fcc4af22
mall,Restoran,"Warung pak Junion Richard / bu Lisa Rumfeka, Penginapan Feilyn","WXRJ+RRQ, Kabare, Distrik Waigeo Utara, Kabupaten Raja Ampat, Papua Bar. 98481","Kabare, Distrik Waigeo Utara, Kabupaten Raja Ampat",PAPUA BARAT,98481.0,Indonesia,81247524868.0,-0.057914,130.9821015,https://maps.google.com/?cid=0x0:0x333e0ae32e326247
mall,Pusat Perbelanjaan,Mega Mall Sorong,"Jalan Basuki Rahmat Klabulu, Malaimsimsa, Malaingkedi, Kec. Sorong Utara, Kota Sorong, Papua Bar. 98412","Malaimsimsa, Malaingkedi, Kec. Sorong Utara, Kota Sorong",PAPUA BARAT,98412.0,Indonesia,,-0.8873097,131.3012842,https://maps.google.com/?cid=0x0:0x364e52ce8985aa7
mall,mall,Loading Point,"HW53+J29, Gag, Kec. Waigeo Bar., Kabupaten Raja Ampat, Papua Bar. 98481","Gag, Kec. Waigeo Bar., Kabupaten Raja Ampat",PAPUA BARAT,98481.0,Indonesia,,-0.4409657,129.9026056,https://maps.google.com/?cid=0x0:0x3c162da7e17545a8
mall,Nasi,Murah Risky,"HRPF+JQF, Waisai, Kec. Waigeo Sel., Kabupaten Raja Ampat, Papua Bar. 98482","Waisai, Kec. Waigeo Sel., Kabupaten Raja Ampat",PAPUA BARAT,98482.0,Indonesia,82197466189.0,-0.4134473,130.8244363,https://maps.google.com/?cid=0x0:0xf878d6e895e3aa4e
mall,mall,Distrik Warwarbomi,"Kabupaten Raja Ampat, Papua Bar.","Kabupaten Raja Ampat, Papua Bar.",PAPUA BARAT,,Indonesia,,-0.0992355,131.174316,https://maps.google.com/?cid=0x0:0xf0f19f0f9e85adb9
mall,Toko Perlengkapan Rumah,Sinar Waigeo,"HRJF+Q65, Jl. Lukas Dailon, Waisai, Distrik Kota Waisai, Kabupaten Raja Ampat, Papua Bar. 98482","Jl. Lukas Dailon, Waisai, Distrik Kota Waisai, Kabupaten Raja Ampat",PAPUA BARAT,98482.0,Indonesia,,-0.4181091,130.8231183,https://maps.google.com/?cid=0x0:0xd8a97e02fcc4af22
mall,Pusat Perbelanjaan,Mega Mall Sorong,"Jalan Basuki Rahmat Klabulu, Malaimsimsa, Malaingkedi, Kec. Sorong Utara, Kota Sorong, Papua Bar. 98412","Malaimsimsa, Malaingkedi, Kec. Sorong Utara, Kota Sorong",PAPUA BARAT,98412.0,Indonesia,,-0.8873097,131.3012842,https://maps.google.com/?cid=0x0:0x364e52ce8985aa7
mall,Toko,INDOMARET RAYA WAISAI,"Jl. Raya Waisai No.3, Waisai, Kec. Waigeo Sel., Kabupaten Raja Ampat, Papua Bar. 98482","Waisai, Kec. Waigeo Sel., Kabupaten Raja Ampat",PAPUA BARAT,98482.0,Indonesia,,-0.4199333,130.8262721,https://maps.google.com/?cid=0x0:0x16fb9fb6001fb2bb
mall,Pusat Perbelanjaan,PARAGON SQUARE Mall  Hotel Sorong,"4874+4RH Paragon Square Mall, Jl. Basuki Rahmat Lt. 2, Sawagumu, Kec. Sorong Utara, Kota Sorong, Papua Bar. 98412","Jl. Basuki Rahmat Lt. 2, Sawagumu, Kec. Sorong Utara, Kota Sorong",PAPUA BARAT,98412.0,Indonesia,81247232214.0,-0.8871443,131.3071264,https://maps.google.com/?cid=0x0:0xd02481be48cb6e05
mall,Pusat Perbelanjaan,Mal Sorong,"479G+369, Klademak, Distrik Sorong, Kota Sorong, Papua Bar. 98412","Klademak, Distrik Sorong, Kota Sorong",PAPUA BARAT,98412.0,Indonesia,,-0.8823414,131.2755957,https://maps.google.com/?cid=0x0:0x4efad982776d0ca5
mall,Layanan Transportasi,Pelabuhan Waisai,"HR93+8X4, Jl. Pelabuhan Waisai, Waisai, Kec. Waigeo Sel., Kabupaten Raja Ampat, Papua Bar. 98482","Jl. Pelabuhan Waisai, Waisai, Kec. Waigeo Sel., Kabupaten Raja Ampat",PAPUA BARAT,98482.0,Indonesia,,-0.4317451,130.8049527,https://maps.google.com/?cid=0x0:0x8a8b4c47e532f783
mall,Restoran,"Warung pak Junion Richard / bu Lisa Rumfeka, Penginapan Feilyn","WXRJ+RRQ, Kabare, Distrik Waigeo Utara, Kabupaten Raja Ampat, Papua Bar. 98481","Kabare, Distrik Waigeo Utara, Kabupaten Raja Ampat",PAPUA BARAT,98481.0,Indonesia,81247524868.0,-0.057914,130.9821015,https://maps.google.com/?cid=0x0:0x333e0ae32e326247
mall,Pusat Perbelanjaan,Manokwari City Mall (MCM),"Jl. Yos Sudarso Manokwari, Manokwari Bar., Kec. Manokwari Bar., Kabupaten Manokwari, Papua Bar. 98312","Manokwari Bar., Kec. Manokwari Bar., Kabupaten Manokwari",PAPUA BARAT,98312.0,Indonesia,8114918899.0,-0.85693,134.0678051,https://maps.google.com/?cid=0x0:0x7e7b90df1d787501
mall,Pusat Perbelanjaan,Toko Sinar Papua,"HRGC+7VX, Waisai, Distrik Kota Waisai, Kabupaten Raja Ampat, Papua Bar. 98482","Waisai, Distrik Kota Waisai, Kabupaten Raja Ampat",PAPUA BARAT,98482.0,Indonesia,,-0.4242574,130.8222438,https://maps.google.com/?cid=0x0:0x39420cba8c8a748f
mall,Toko Rokok Elektrik,Waisai Vape Store,"HRGF+H59, Waisai, Kec. Waigeo Sel., Kabupaten Raja Ampat, Papua Bar. 98482","Waisai, Kec. Waigeo Sel., Kabupaten Raja Ampat",PAPUA BARAT,98482.0,Indonesia,81344887370.0,-0.4235776,130.8229758,https://maps.google.com/?cid=0x0:0x33a86dcef529ce44
supermarket,supermarket,Distrik Aifat,"Kabupaten Maybrat, Papua Bar.","Kabupaten Maybrat, Papua Bar.",PAPUA BARAT,,Indonesia,,-1.2568532,132.5001338,https://maps.google.com/?cid=0x0:0xcc3d52ba3ddd33de
supermarket,Minimarket,K'Mart Nezeth Maybrat,"Uname Road, Ayawasi, Distrik Aifat Utara, Kabupaten Maybrat, Papua Bar. 98463","Ayawasi, Distrik Aifat Utara, Kabupaten Maybrat",PAPUA BARAT,98463.0,Indonesia,82213211732.0,-1.164832,132.462508,https://maps.google.com/?cid=0x0:0xe147722f0e55e17f
supermarket,Toko bahan makanan,Toko sembako dan Depot air galon ISME JAYA,"Kmp isme, Jitmau, Kec. Aitinyo Utara, Kabupaten Maybrat, Papua Bar.","Kabupaten Maybrat, Papua Bar.",PAPUA BARAT,,Indonesia,85362535198.0,-1.2970979,132.3150993,https://maps.google.com/?cid=0x0:0x9427e11f3f67f624
supermarket,supermarket,Distrik Aifat,"Kabupaten Maybrat, Papua Bar.","Kabupaten Maybrat, Papua Bar.",PAPUA BARAT,,Indonesia,,-1.2568532,132.5001338,https://maps.google.com/?cid=0x0:0xcc3d52ba3ddd33de
supermarket,Minimarket,K'Mart Nezeth Maybrat,"Uname Road, Ayawasi, Distrik Aifat Utara, Kabupaten Maybrat, Papua Bar. 98463","Ayawasi, Distrik Aifat Utara, Kabupaten Maybrat",PAPUA BARAT,98463.0,Indonesia,82213211732.0,-1.164832,132.462508,https://maps.google.com/?cid=0x0:0xe147722f0e55e17f
supermarket,Toko bahan makanan,Toko sembako dan Depot air galon ISME JAYA,"Kmp isme, Jitmau, Kec. Aitinyo Utara, Kabupaten Maybrat, Papua Bar.","Kabupaten Maybrat, Papua Bar.",PAPUA BARAT,,Indonesia,85362535198.0,-1.2970979,132.3150993,https://maps.google.com/?cid=0x0:0x9427e11f3f67f624
supermarket,Toko Kelontong Korea,Mu Gung Hwa Supermarket - Senopati,"Jl. Senayan No.43, RT.8/RW.5, Rw. Bar., Kec. Kby. Baru, Kota Jakarta Selatan, Daerah Khusus Ibukota Jakarta 12180","RT.8/RW.5, Rw. Bar., Kec. Kby. Baru, Kota Jakarta Selatan",PAPUA BARAT,12180.0,Indonesia,217222214.0,-6.2353938,106.8158782,https://maps.google.com/?cid=0x0:0x9ffba79e59c537d5
supermarket,Toko Makanan Sehat,Primo Supermarket Citos,"Town Square, Jl. TB Simatupang No.KAV.17 Lantai Dasar, West Cilandak, Cilandak, South Jakarta City, Jakarta 12430","Jl. TB Simatupang No.KAV.17 Lantai Dasar, West Cilandak, Cilandak, South Jakarta City",PAPUA BARAT,12430.0,Indonesia,2175920390.0,-6.2914315,106.7992178,https://maps.google.com/?cid=0x0:0x110a936a8d153b27
supermarket,Toko bahan makanan,Sagar indian supermarket,"Jl. Danau Sunter Utara Block R no 67, RT.1/RW.19, Sunter Agung, Tanjung Priok, North Jakarta City, Jakarta 14350","RT.1/RW.19, Sunter Agung, Tanjung Priok, North Jakarta City",PAPUA BARAT,14350.0,Indonesia,8164844875.0,-6.1380243,106.8668598,https://maps.google.com/?cid=0x0:0x93bf3a16f16ce723
supermarket,supermarket,Batanta Scuba Center  Dugong Retreat,"Pulau Birie, Batanta, Arefi, Selat Sagawin Raja Ampat Regency, Pulau Biryei, Batanta, Papua Bar. 98484","Batanta, Arefi, Selat Sagawin Raja Ampat Regency, Pulau Biryei, Batanta",PAPUA BARAT,98484.0,Indonesia,81356536206.0,-0.7775315,130.7217676,https://maps.google.com/?cid=0x0:0x2a83c6ae1ebaf7b
supermarket,supermarket,Pulau Batanta,"Wailebet, distrik Batanta Selatan, Kabupaten Raja Ampat, Papua Bar.","Kabupaten Raja Ampat, Papua Bar.",PAPUA BARAT,,Indonesia,,-0.8647222,130.6494444,https://maps.google.com/?cid=0x0:0x622f6c920ed64eb5
supermarket,Pusat Perbelanjaan,Papua Supermarket  Dept. Store,"4869+F77 Bar, Sawagumu, Kec. Sorong Utara, Kota Sorong, Papua Bar. 98416","Sawagumu, Kec. Sorong Utara, Kota Sorong",PAPUA BARAT,98416.0,Indonesia,9513160123.0,-0.888831,131.3181847,https://maps.google.com/?cid=0x0:0x7b5f0926a74ad213
supermarket,Minimarket,SAGA Supermarket  Dept. Store,"Jalan A. Yani, Ruko Kuda Laut, Klademak, Kecamatan Sorong Manoi, Kota Sorong, Papua Bar. 98414","Ruko Kuda Laut, Klademak, Kecamatan Sorong Manoi, Kota Sorong",PAPUA BARAT,98414.0,Indonesia,951322784.0,-0.8765248,131.2576755,https://maps.google.com/?cid=0x0:0x963043ed646a7e1e
supermarket,Pusat Perbelanjaan,Papua Supermarket  Dept. Store,"4869+F77 Bar, Sawagumu, Kec. Sorong Utara, Kota Sorong, Papua Bar. 98416","Sawagumu, Kec. Sorong Utara, Kota Sorong",PAPUA BARAT,98416.0,Indonesia,9513160123.0,-0.888831,131.3181847,https://maps.google.com/?cid=0x0:0x7b5f0926a74ad213
supermarket,Minimarket,SAGA Supermarket  Dept. Store,"Jalan A. Yani, Ruko Kuda Laut, Klademak, Kecamatan Sorong Manoi, Kota Sorong, Papua Bar. 98414","Ruko Kuda Laut, Klademak, Kecamatan Sorong Manoi, Kota Sorong",PAPUA BARAT,98414.0,Indonesia,951322784.0,-0.8765248,131.2576755,https://maps.google.com/?cid=0x0:0x963043ed646a7e1e
supermarket,Komplek perumahan,Rumah Bpk Gustaf. L,"4859+784, Klawuyuk, Distrik Sorong Timur, Kota Sorong, Papua Bar. 98416","Klawuyuk, Distrik Sorong Timur, Kota Sorong",PAPUA BARAT,98416.0,Indonesia,,-0.8918739,131.3183248,https://maps.google.com/?cid=0x0:0x30559e7e5eb96ee4
supermarket,Pusat Perbelanjaan,Matahari Department Store Kupang,"Jl. El Tari, Klp. Lima, Kec. Klp. Lima, Kota Kupang, Nusa Tenggara Tim.","Kota Kupang, Nusa Tenggara Tim.",PAPUA BARAT,,Indonesia,3808439035.0,-10.1580704,123.6110108,https://maps.google.com/?cid=0x0:0xb586c645e04acfd9
supermarket,supermarket,Papua Bar. 98481,"Kabupaten Raja Ampat, Papua Bar.","Kabupaten Raja Ampat, Papua Bar.",PAPUA BARAT,,Indonesia,,-0.0847884,130.8374011,https://maps.google.com/?cid=0x0:0xabdb6fd88155f082
supermarket,Pusat Perbelanjaan,Papua Supermarket  Dept. Store,"4869+F77 Bar, Sawagumu, Kec. Sorong Utara, Kota Sorong, Papua Bar. 98416","Sawagumu, Kec. Sorong Utara, Kota Sorong",PAPUA BARAT,98416.0,Indonesia,9513160123.0,-0.888831,131.3181847,https://maps.google.com/?cid=0x0:0x7b5f0926a74ad213
supermarket,Kantor Perusahaan,Supermarket GOTA,"4868+2X3, Jl. Sungai Maruni, Sawagumu, Distrik Sorong Timur, Kota Sorong, Papua Bar. 98416","Jl. Sungai Maruni, Sawagumu, Distrik Sorong Timur, Kota Sorong",PAPUA BARAT,98416.0,Indonesia,,-0.8900646,131.3173945,https://maps.google.com/?cid=0x0:0xe80a2989cd86300
supermarket,supermarket,Pulau Kofiau,"Mikiran, Kofiau, Kabupaten Raja Ampat, Papua Bar.","Kabupaten Raja Ampat, Papua Bar.",PAPUA BARAT,,Indonesia,,-1.1833333,129.8333333,https://maps.google.com/?cid=0x0:0x22393f628dc41dcc
supermarket,supermarket,Distrik Kota Waisai,"Waisai, Kabupaten Raja Ampat, Papua Bar.","Kabupaten Raja Ampat, Papua Bar.",PAPUA BARAT,,Indonesia,,-0.4248841,130.8208792,https://maps.google.com/?cid=0x0:0x50ee7a1504609bf5
supermarket,Toko Swalayan,Deframart / Surya 88 Grosir,"Waisai, Kec. Waigeo Sel., Kabupaten Raja Ampat, Papua Bar. 98482","Kec. Waigeo Sel., Kabupaten Raja Ampat",PAPUA BARAT,98482.0,Indonesia,82198810318.0,-0.4115814,130.8191378,https://maps.google.com/?cid=0x0:0x2477539a632d958c
supermarket,Toko bahan makanan,Gudang gubuk tani,"HRF8+8RC, Jl. Fundar Sakela, Waisai, Kec. Waigeo Sel., Kabupaten Raja Ampat, Papua Bar. 98482","Jl. Fundar Sakela, Waisai, Kec. Waigeo Sel., Kabupaten Raja Ampat",PAPUA BARAT,98482.0,Indonesia,,-0.4266848,130.8170157,https://maps.google.com/?cid=0x0:0x6482054974887b15
supermarket,Toko bahan makanan,Toko Dua Saudara,"HRFF+P9V, Waisai, Waigeo Selatan, Waisai, Distrik Kota Waisai, Kabupaten Raja Ampat, Papua Bar. 98482","Waisai, Waigeo Selatan, Waisai, Distrik Kota Waisai, Kabupaten Raja Ampat",PAPUA BARAT,98482.0,Indonesia,81248277647.0,-0.4256342,130.8234194,https://maps.google.com/?cid=0x0:0xa818cfb481f861bb
supermarket,Toko Swalayan,Toko Adi Jaya R4,"HRFC+VHR, Waisai, Distrik Kota Waisai, Kabupaten Raja Ampat, Papua Bar. 98482","Waisai, Distrik Kota Waisai, Kabupaten Raja Ampat",PAPUA BARAT,98482.0,Indonesia,,-0.4252579,130.8213781,https://maps.google.com/?cid=0x0:0xd8e8c73d6049aa12
supermarket,Layanan Transportasi,Warsambin Bus Exchange,"MWH9+PMP, Waisai, Distrik Kota Waisai, Kabupaten Raja Ampat, Papua Bar. 98482","Waisai, Distrik Kota Waisai, Kabupaten Raja Ampat",PAPUA BARAT,98482.0,Indonesia,,-0.3206641,130.9192098,https://maps.google.com/?cid=0x0:0x35a1897996f355b2
supermarket,Toko Swalayan,Toko Gubuk Tani,"HRFC+WGQ, Waisai, Kec. Waigeo Sel., Kabupaten Raja Ampat, Papua Bar. 98482","Waisai, Kec. Waigeo Sel., Kabupaten Raja Ampat",PAPUA BARAT,98482.0,Indonesia,81343111508.0,-0.4251576,130.821354,https://maps.google.com/?cid=0x0:0xd8f8dfe47f6582f8
supermarket,Pasar,Mini Market Awainulu,"HRGC+4CC, Waisai, Kec. Waigeo Sel., Kabupaten Raja Ampat, Papua Bar. 98482","Waisai, Kec. Waigeo Sel., Kabupaten Raja Ampat",PAPUA BARAT,98482.0,Indonesia,,-0.424683,130.821027,https://maps.google.com/?cid=0x0:0xdb71640715a02e08
supermarket,Toko bahan makanan,TOKO KABELE KUNING,"HRFF+QCH, Waisai, Distrik Kota Waisai, Kabupaten Raja Ampat, Papua Bar. 98482","Waisai, Distrik Kota Waisai, Kabupaten Raja Ampat",PAPUA BARAT,98482.0,Indonesia,81270428878.0,-0.4255627,130.8236105,https://maps.google.com/?cid=0x0:0xfedb966b15fd1d7b
supermarket,Toko,Toko Grosir  Eceran Ulil Aida,"HRJF+W7W, Jl. Lukas Dailon, Waisai, Distrik Kota Waisai, Kabupaten Raja Ampat, Papua Bar. 98482","Jl. Lukas Dailon, Waisai, Distrik Kota Waisai, Kabupaten Raja Ampat",PAPUA BARAT,98482.0,Indonesia,,-0.4176427,130.8231997,https://maps.google.com/?cid=0x0:0xf6f42909f9b69755
supermarket,Pusat Perbelanjaan,Toko Maros Indah,"HRHC+F8Q, Waisai, Kec. Waigeo Sel., Kabupaten Raja Ampat, Papua Bar. 98482","Waisai, Kec. Waigeo Sel., Kabupaten Raja Ampat",PAPUA BARAT,98482.0,Indonesia,81242420136.0,-0.4212822,130.8208536,https://maps.google.com/?cid=0x0:0x7e66b5ed988550f2
supermarket,Pusat Perbelanjaan,Indomaret Waisai WTC,"HRFC+PHM, Jl. Fundar Sakela, Waisai, Distrik Kota Waisai, Kabupaten Raja Ampat, Papua Bar. 98482","Jl. Fundar Sakela, Waisai, Distrik Kota Waisai, Kabupaten Raja Ampat",PAPUA BARAT,98482.0,Indonesia,,-0.425663,130.8214225,https://maps.google.com/?cid=0x0:0xaa6e2409f52b6386
supermarket,Kios,Kios Pelangi,"HRC9+37J, Jl. Abdul Aftan, Waisai, Distrik Kota Waisai, Kabupaten Raja Ampat, Papua Bar. 98482","Jl. Abdul Aftan, Waisai, Distrik Kota Waisai, Kabupaten Raja Ampat",PAPUA BARAT,98482.0,Indonesia,,-0.4297784,130.8181475,https://maps.google.com/?cid=0x0:0x1c5397acd234f1ba
supermarket,Toko Elektronik,TOKO WAISAI MEGAH,"HRGF+G39, Waisai, Kec. Waigeo Sel., Kabupaten Raja Ampat, Papua Bar. 98482","Waisai, Kec. Waigeo Sel., Kabupaten Raja Ampat",PAPUA BARAT,98482.0,Indonesia,9513173083.0,-0.4237178,130.8227294,https://maps.google.com/?cid=0x0:0x349f85b240eab92b
supermarket,supermarket,Meos Mansar,"Kabupaten Raja Ampat, Papua Bar.","Kabupaten Raja Ampat, Papua Bar.",PAPUA BARAT,,Indonesia,,-0.4496057,130.583895,https://maps.google.com/?cid=0x0:0xe58d24898307b204
supermarket,Gudang,PANGKALAN BBM FADIL BUTON,"CJGJ+7WX, Yenbekwan, Meos Mansar, Kabupaten Raja Ampat, Papua Bar.","Kabupaten Raja Ampat, Papua Bar.",PAPUA BARAT,,Indonesia,,-0.5739349,130.6321393,https://maps.google.com/?cid=0x0:0xed100ffd3620d38c
supermarket,Toko umum,Kios echa,"M84W+392, Mutus, Kec. Waigeo Bar., Kabupaten Raja Ampat, Papua Bar.","Kabupaten Raja Ampat, Papua Bar.",PAPUA BARAT,,Indonesia,82399164276.0,-0.3448707,130.34589,https://maps.google.com/?cid=0x0:0x6fa1853b8312d10b
supermarket,Gudang,Pangkalan BBM Bone Papua,"87HW+W9X, Pam, Distrik Waigeo Barat Kepulauan, Kabupaten Raja Ampat, Papua Bar.","Kabupaten Raja Ampat, Papua Bar.",PAPUA BARAT,,Indonesia,,-0.67002,130.2950768,https://maps.google.com/?cid=0x0:0x84577d815b7d67aa
supermarket,supermarket,Distrik Misool,"Kabupaten Raja Ampat, Papua Bar.","Kabupaten Raja Ampat, Papua Bar.",PAPUA BARAT,,Indonesia,,-1.7294753,130.076264,https://maps.google.com/?cid=0x0:0xe3dfedd20bce543c
supermarket,Toko bahan makanan,Pasar Salafen,"5R9H+WR4, Salafen, Distrik Misool, Kabupaten Raja Ampat, Papua Bar. 98483","Salafen, Distrik Misool, Kabupaten Raja Ampat",PAPUA BARAT,98483.0,Indonesia,82248167378.0,-1.8302389,129.829576,https://maps.google.com/?cid=0x0:0xcbafb00a63292b5d
supermarket,supermarket,Sari,"5RCH+G35, Waigama, Distrik Misool, Kabupaten Raja Ampat, Papua Bar.","Kabupaten Raja Ampat, Papua Bar.",PAPUA BARAT,,Indonesia,,-1.82917,129.827423,https://maps.google.com/?cid=0x0:0xbd6a4b9cd942393e
supermarket,Masjid,Kampung waigama,"5RCG+PP9, Waigama, Distrik Misool, Kabupaten Raja Ampat, Papua Bar. 98483","Waigama, Distrik Misool, Kabupaten Raja Ampat",PAPUA BARAT,98483.0,Indonesia,,-1.8283429,129.8276028,https://maps.google.com/?cid=0x0:0x3d4fb07034a6a257
supermarket,supermarket,Depot air isi ulang Idaman19,"5RCH+G35, Waigama, Distrik Misool, Kabupaten Raja Ampat, Papua Bar.","Kabupaten Raja Ampat, Papua Bar.",PAPUA BARAT,,Indonesia,81392737595.0,-1.8287481,129.8277368,https://maps.google.com/?cid=0x0:0xf5fe120c2fe0895d
supermarket,supermarket,Misool Eco Resort,"Yellu, Misool Sel., Kabupaten Raja Ampat, Papua Bar. 98483","Misool Sel., Kabupaten Raja Ampat",PAPUA BARAT,98483.0,Indonesia,,-2.244373,130.5557219,https://maps.google.com/?cid=0x0:0xcec0c32ec4b9f857
supermarket,supermarket,Fiabacet,"Yellu, Misool Sel., Kabupaten Raja Ampat, Papua Bar.","Kabupaten Raja Ampat, Papua Bar.",PAPUA BARAT,,Indonesia,,-2.2211111,130.5516667,https://maps.google.com/?cid=0x0:0xdea3f07a56ccf400
supermarket,supermarket,Kios Amrand call,"2W75+RGR, Aduwei, Distrik Misool, Kabupaten Raja Ampat, Papua Bar. 98483","Aduwei, Distrik Misool, Kabupaten Raja Ampat",PAPUA BARAT,98483.0,Indonesia,82198254893.0,-1.9857182,129.9092617,https://maps.google.com/?cid=0x0:0xc8d3315a1070f9a9
supermarket,supermarket,Pulau Misool,"Lilinta, Distrik Misool Barat, Kabupaten Raja Ampat, Papua Bar.","Kabupaten Raja Ampat, Papua Bar.",PAPUA BARAT,,Indonesia,,-1.894722,130.083611,https://maps.google.com/?cid=0x0:0xecb252193e0bc469
supermarket,supermarket,Distrik Misool Barat,"Kabupaten Raja Ampat, Papua Bar.","Kabupaten Raja Ampat, Papua Bar.",PAPUA BARAT,,Indonesia,,-2.0480936,130.2709743,https://maps.google.com/?cid=0x0:0xfc668800a318e464
supermarket,supermarket,Misool Eco Resort,"Yellu, Misool Sel., Kabupaten Raja Ampat, Papua Bar. 98483","Misool Sel., Kabupaten Raja Ampat",PAPUA BARAT,98483.0,Indonesia,,-2.244373,130.5557219,https://maps.google.com/?cid=0x0:0xcec0c32ec4b9f857
supermarket,supermarket,Fiabacet,"Yellu, Misool Sel., Kabupaten Raja Ampat, Papua Bar.","Kabupaten Raja Ampat, Papua Bar.",PAPUA BARAT,,Indonesia,,-2.2211111,130.5516667,https://maps.google.com/?cid=0x0:0xdea3f07a56ccf400
supermarket,Toko,Kios fitri jr,"WCR7+Q78, Yellu, Misool Sel., Kabupaten Raja Ampat, Papua Bar.","Kabupaten Raja Ampat, Papua Bar.",PAPUA BARAT,,Indonesia,81343042043.0,-2.0580766,130.413215,https://maps.google.com/?cid=0x0:0xa5f2bc95b690b7d7
supermarket,supermarket,Sari,"5RCH+G35, Waigama, Distrik Misool, Kabupaten Raja Ampat, Papua Bar.","Kabupaten Raja Ampat, Papua Bar.",PAPUA BARAT,,Indonesia,,-1.82917,129.827423,https://maps.google.com/?cid=0x0:0xbd6a4b9cd942393e
supermarket,Toko,Dawa Misool,"285R+CH3, Fafanlap, Misool Sel., Kabupaten Raja Ampat, Papua Bar. 98483","Fafanlap, Misool Sel., Kabupaten Raja Ampat",PAPUA BARAT,98483.0,Indonesia,,-1.9914982,130.3409097,https://maps.google.com/?cid=0x0:0xbcab8cb93604ad57
supermarket,supermarket,Misool Sel.,"Kabupaten Raja Ampat, Papua Bar.","Kabupaten Raja Ampat, Papua Bar.",PAPUA BARAT,,Indonesia,,-1.959546,130.3190719,https://maps.google.com/?cid=0x0:0x772018b3157aa95b
supermarket,Toko,Kios fitri jr,"WCR7+Q78, Yellu, Misool Sel., Kabupaten Raja Ampat, Papua Bar.","Kabupaten Raja Ampat, Papua Bar.",PAPUA BARAT,,Indonesia,81343042043.0,-2.0580766,130.413215,https://maps.google.com/?cid=0x0:0xa5f2bc95b690b7d7
supermarket,supermarket,Kios Sembako Batik Solo,"QFHF+5R3, Yellu, Misool Sel., Kabupaten Raja Ampat, Papua Bar. 98483","Yellu, Misool Sel., Kabupaten Raja Ampat",PAPUA BARAT,98483.0,Indonesia,,-2.2221084,130.4745459,https://maps.google.com/?cid=0x0:0x805d671f699e28b4
supermarket,supermarket,Toko Mulia Rahma Folley,"6CH6+35P, Folley, Distrik Misool Timur, Kabupaten Raja Ampat, Papua Bar. 98483","Folley, Distrik Misool Timur, Kabupaten Raja Ampat",PAPUA BARAT,98483.0,Indonesia,81247530904.0,-1.772297,130.4104648,https://maps.google.com/?cid=0x0:0xce479834ef254966
supermarket,Rumah wisata,Lalelkai Nature Lodge Misool,"Lalelkai, Misool - Southern of, Harapan Jaya, South Misool, Raja Ampat Regency, West Papua 98483","Misool - Southern of, Harapan Jaya, South Misool, Raja Ampat Regency",PAPUA BARAT,98483.0,Indonesia,81217638893.0,-2.0380855,130.3740032,https://maps.google.com/?cid=0x0:0xc2fd5026ad01ad88
supermarket,supermarket,Warung Klontong Rahima,"8RMV+VX8, Pea Bumbung, RT.04, Fafanlap, Papua Bar. 98240","Pea Bumbung, RT.04, Fafanlap",PAPUA BARAT,98240.0,Indonesia,,-1.900228,130.2782239,https://maps.google.com/?cid=0x0:0x4005fbd222a86371
supermarket,supermarket,Toko Mulia Rahma Folley,"6CH6+35P, Folley, Distrik Misool Timur, Kabupaten Raja Ampat, Papua Bar. 98483","Folley, Distrik Misool Timur, Kabupaten Raja Ampat",PAPUA BARAT,98483.0,Indonesia,81247530904.0,-1.772297,130.4104648,https://maps.google.com/?cid=0x0:0xce479834ef254966
supermarket,supermarket,Agen BRILink PAMOALA CELL,"6CH6+35P, Folley, Distrik Misool Timur, Kabupaten Raja Ampat, Papua Bar. 98483","Folley, Distrik Misool Timur, Kabupaten Raja Ampat",PAPUA BARAT,98483.0,Indonesia,81247530904.0,-1.7724271,130.4103548,https://maps.google.com/?cid=0x0:0x596ea3f7e3802849
supermarket,supermarket,Distrik Salawati Barat,"Kabupaten Raja Ampat, Papua Bar.","Kabupaten Raja Ampat, Papua Bar.",PAPUA BARAT,,Indonesia,,-1.0980561,130.7040528,https://maps.google.com/?cid=0x0:0x6c8554c61c1a5f51
supermarket,Pusat Perbelanjaan,Papua Supermarket  Dept. Store,"4869+F77 Bar, Sawagumu, Kec. Sorong Utara, Kota Sorong, Papua Bar. 98416","Sawagumu, Kec. Sorong Utara, Kota Sorong",PAPUA BARAT,98416.0,Indonesia,9513160123.0,-0.888831,131.3181847,https://maps.google.com/?cid=0x0:0x7b5f0926a74ad213
supermarket,Toko bahan makanan,Homi Supermarket,"478Q+W97, Jl. F Kalasuat, Remu Utara, Distrik Sorong, Kota Sorong, Papua Bar. 98412","Jl. F Kalasuat, Remu Utara, Distrik Sorong, Kota Sorong",PAPUA BARAT,98412.0,Indonesia,,-0.8827053,131.2884188,https://maps.google.com/?cid=0x0:0x9eed04e7f27afbd0
supermarket,Kantor Perusahaan,DWI ANDIKA,"WV5H+94X, Jln Marina, Kapatlap, Salawati Utara, Raja Ampat Regency, West Papua","Kabupaten Raja Ampat, Papua Bar.",PAPUA BARAT,,Indonesia,,-1.0915151,130.8778586,https://maps.google.com/?cid=0x0:0x5b6cc51a29b0da38
supermarket,Minimarket,SAGA Supermarket  Dept. Store,"Jalan A. Yani, Ruko Kuda Laut, Klademak, Kecamatan Sorong Manoi, Kota Sorong, Papua Bar. 98414","Ruko Kuda Laut, Klademak, Kecamatan Sorong Manoi, Kota Sorong",PAPUA BARAT,98414.0,Indonesia,951322784.0,-0.8765248,131.2576755,https://maps.google.com/?cid=0x0:0x963043ed646a7e1e
supermarket,Komplek perumahan,Rumah Bpk Gustaf. L,"4859+784, Klawuyuk, Distrik Sorong Timur, Kota Sorong, Papua Bar. 98416","Klawuyuk, Distrik Sorong Timur, Kota Sorong",PAPUA BARAT,98416.0,Indonesia,,-0.8918739,131.3183248,https://maps.google.com/?cid=0x0:0x30559e7e5eb96ee4
supermarket,Toko Pakaian,Raider Store,"Kampung Wailen, Salawati Tengah, Kabupaten Raja Ampat, Papua Barat Daya, Kampung wailen, Kabupaten Raja Ampat, Papua Bar. 98484","Salawati Tengah, Kabupaten Raja Ampat, Papua Barat Daya, Kampung wailen, Kabupaten Raja Ampat",PAPUA BARAT,98484.0,Indonesia,82199601496.0,-1.0582621,131.0748308,https://maps.google.com/?cid=0x0:0x588078d8ca842b6e
supermarket,supermarket,Salawati Tengah,"Kabupaten Raja Ampat, Papua Bar.","Kabupaten Raja Ampat, Papua Bar.",PAPUA BARAT,,Indonesia,,-1.0547794,131.0589536,https://maps.google.com/?cid=0x0:0x9e15ae7888c4541f
supermarket,supermarket,TOKO AZAHRA,"Majaran, Kec. Salawati, Kabupaten Sorong, Papua Bar. 98418","Kec. Salawati, Kabupaten Sorong",PAPUA BARAT,98418.0,Indonesia,,-1.1261973,131.2711658,https://maps.google.com/?cid=0x0:0xa02d4e97163ad801
supermarket,Toserba,Maju Jaya Kalobo,"Kampung Wailen, Salawati Tengah, Kabupaten Raja Ampat, Papua Barat Daya, Kampung Wailen, Kabupaten Raja Ampat, Papua Bar. 98484","Salawati Tengah, Kabupaten Raja Ampat, Papua Barat Daya, Kampung Wailen, Kabupaten Raja Ampat",PAPUA BARAT,98484.0,Indonesia,,-1.0578885,131.074819,https://maps.google.com/?cid=0x0:0x14cf55e6b3875058
supermarket,Minimarket,SAGA Supermarket  Dept. Store,"Jalan A. Yani, Ruko Kuda Laut, Klademak, Kecamatan Sorong Manoi, Kota Sorong, Papua Bar. 98414","Ruko Kuda Laut, Klademak, Kecamatan Sorong Manoi, Kota Sorong",PAPUA BARAT,98414.0,Indonesia,951322784.0,-0.8765248,131.2576755,https://maps.google.com/?cid=0x0:0x963043ed646a7e1e
supermarket,Minimarket,Dua Cendrawasih Store,"V768+JFG, Unnamed Road, Majaran, Salawati, Sorong Regency, West Papua 98451","Unnamed Road, Majaran, Salawati, Sorong Regency",PAPUA BARAT,98451.0,Indonesia,,-1.1384292,131.2662062,https://maps.google.com/?cid=0x0:0x3bc397465cf93f46
supermarket,Minimarket,Kios la hasim,"W3XG+845, Sakabu, Salawati Tengah, Kabupaten Raja Ampat, Papua Bar. 98484","Sakabu, Salawati Tengah, Kabupaten Raja Ampat",PAPUA BARAT,98484.0,Indonesia,,-1.05173,131.0753522,https://maps.google.com/?cid=0x0:0xc7ed8a82aa34597a
supermarket,Toko,AY MAKMUR JAYA,"Jalan mawar, Kalobo, Salawati Tengah, Kabupaten Raja Ampat, Papua Bar. 98494","Kalobo, Salawati Tengah, Kabupaten Raja Ampat",PAPUA BARAT,98494.0,Indonesia,85216359818.0,-1.0557083,131.0604361,https://maps.google.com/?cid=0x0:0x6d9737e02c74f8e9
supermarket,Kantor Perusahaan,Supermarket GOTA,"4868+2X3, Jl. Sungai Maruni, Sawagumu, Distrik Sorong Timur, Kota Sorong, Papua Bar. 98416","Jl. Sungai Maruni, Sawagumu, Distrik Sorong Timur, Kota Sorong",PAPUA BARAT,98416.0,Indonesia,,-0.8900646,131.3173945,https://maps.google.com/?cid=0x0:0xe80a2989cd86300
supermarket,Toko bahan makanan,Homi Supermarket,"478Q+W97, Jl. F Kalasuat, Remu Utara, Distrik Sorong, Kota Sorong, Papua Bar. 98412","Jl. F Kalasuat, Remu Utara, Distrik Sorong, Kota Sorong",PAPUA BARAT,98412.0,Indonesia,,-0.8827053,131.2884188,https://maps.google.com/?cid=0x0:0x9eed04e7f27afbd0
supermarket,Toko,Valentine shop,"Kalobo, Salawati Tengah, Kabupaten Raja Ampat, Papua Bar. 98484","Salawati Tengah, Kabupaten Raja Ampat",PAPUA BARAT,98484.0,Indonesia,85386580995.0,-1.0540361,131.0625599,https://maps.google.com/?cid=0x0:0xdf105575e2de7d7e
supermarket,Pusat Perbelanjaan,Papua Supermarket  Dept. Store,"4869+F77 Bar, Sawagumu, Kec. Sorong Utara, Kota Sorong, Papua Bar. 98416","Sawagumu, Kec. Sorong Utara, Kota Sorong",PAPUA BARAT,98416.0,Indonesia,9513160123.0,-0.888831,131.3181847,https://maps.google.com/?cid=0x0:0x7b5f0926a74ad213
supermarket,Toko,Azsril Raffi,"V7WJ+268, Makotyamsa, Kec. Salawati, Kabupaten Sorong, Papua Bar. 98451","Makotyamsa, Kec. Salawati, Kabupaten Sorong",PAPUA BARAT,98451.0,Indonesia,,-1.104953,131.2805781,https://maps.google.com/?cid=0x0:0x8babd3b08255046a
supermarket,Minimarket,Kios Berkah Mandiri,"W3V6+M6, Waibo, Salawati Tengah, Kabupaten Raja Ampat, Papua Bar.","Kabupaten Raja Ampat, Papua Bar.",PAPUA BARAT,,Indonesia,85343078766.0,-1.0558678,131.0606163,https://maps.google.com/?cid=0x0:0xe7919ac7039b5b64
supermarket,Pusat Perbelanjaan,Papua Supermarket  Dept. Store,"4869+F77 Bar, Sawagumu, Kec. Sorong Utara, Kota Sorong, Papua Bar. 98416","Sawagumu, Kec. Sorong Utara, Kota Sorong",PAPUA BARAT,98416.0,Indonesia,9513160123.0,-0.888831,131.3181847,https://maps.google.com/?cid=0x0:0x7b5f0926a74ad213
supermarket,Minimarket,SAGA Supermarket  Dept. Store,"Jalan A. Yani, Ruko Kuda Laut, Klademak, Kecamatan Sorong Manoi, Kota Sorong, Papua Bar. 98414","Ruko Kuda Laut, Klademak, Kecamatan Sorong Manoi, Kota Sorong",PAPUA BARAT,98414.0,Indonesia,951322784.0,-0.8765248,131.2576755,https://maps.google.com/?cid=0x0:0x963043ed646a7e1e
supermarket,Komplek perumahan,Rumah Bpk Gustaf. L,"4859+784, Klawuyuk, Distrik Sorong Timur, Kota Sorong, Papua Bar. 98416","Klawuyuk, Distrik Sorong Timur, Kota Sorong",PAPUA BARAT,98416.0,Indonesia,,-0.8918739,131.3183248,https://maps.google.com/?cid=0x0:0x30559e7e5eb96ee4
supermarket,Komplek perumahan,Kantor Desa Samate,"23JC+FRG, Unnamed Road, Samate, Salawati Utara, Raja Ampat Regency, West Papua 98484","Unnamed Road, Samate, Salawati Utara, Raja Ampat Regency",PAPUA BARAT,98484.0,Indonesia,,-0.968825,131.0720667,https://maps.google.com/?cid=0x0:0xec95e249042b0c27
supermarket,Kantor Perusahaan,PLTD LISDES SAMATE,"23JF+MQ, Samate, Kec. Salawati Utara, Kabupaten Raja Ampat, Papua Bar.","Kabupaten Raja Ampat, Papua Bar.",PAPUA BARAT,,Indonesia,,-0.9683423,131.0744922,https://maps.google.com/?cid=0x0:0xa8ac886f3776974e
supermarket,Toko Swalayan,PT. ANGGUN SWALAYAN,"Unnamed Road, Papua Bar. 98356, Udapi Hilir, Distrik Prafi, Kabupaten Manokwari, Papua Bar. 98356",Papua Bar.,PAPUA BARAT,98356.0,Indonesia,,-0.8765216,133.8291573,https://maps.google.com/?cid=0x0:0x25497da2a488e925
supermarket,Toko,Toko Tapanuli Jaya ( Sinaga ),"Jln. Merpati SP 4, Udapi Hilir, Distrik Prafi, Kabupaten Manokwari, Papua Bar. 98356","Udapi Hilir, Distrik Prafi, Kabupaten Manokwari",PAPUA BARAT,98356.0,Indonesia,81370126543.0,-0.876799,133.8286786,https://maps.google.com/?cid=0x0:0xb117b9a8f7d4a0e6
supermarket,Toko Swalayan,GrandLucky - SCBD,"Kawasan Niaga Terpadu Sudirman (SCBD, Jl. Jenderal Sudirman LOT-12, Senayan, Kec. Kby. Baru, Kota Jakarta Selatan, Daerah Khusus Ibukota Jakarta 12190","Jl. Jenderal Sudirman LOT-12, Senayan, Kec. Kby. Baru, Kota Jakarta Selatan",PAPUA BARAT,12190.0,Indonesia,85183118632.0,-6.22691,106.8059153,https://maps.google.com/?cid=0x0:0x4efcd0d8d64cad53
supermarket,supermarket,Kec. Tlk. Mayalibit,"Kabupaten Raja Ampat, Papua Bar.","Kabupaten Raja Ampat, Papua Bar.",PAPUA BARAT,,Indonesia,,-0.2689344,130.9384914,https://maps.google.com/?cid=0x0:0xae388a762cdfd0ec
supermarket,Layanan Transportasi,Warsambin Bus Exchange,"MWH9+PMP, Waisai, Distrik Kota Waisai, Kabupaten Raja Ampat, Papua Bar. 98482","Waisai, Distrik Kota Waisai, Kabupaten Raja Ampat",PAPUA BARAT,98482.0,Indonesia,,-0.3206641,130.9192098,https://maps.google.com/?cid=0x0:0x35a1897996f355b2
supermarket,Toko Swalayan,Deframart / Surya 88 Grosir,"Waisai, Kec. Waigeo Sel., Kabupaten Raja Ampat, Papua Bar. 98482","Kec. Waigeo Sel., Kabupaten Raja Ampat",PAPUA BARAT,98482.0,Indonesia,82198810318.0,-0.4115814,130.8191378,https://maps.google.com/?cid=0x0:0x2477539a632d958c
supermarket,Toko bahan makanan,TOKO CAHAYA PAPUA,"Waisai, Kec. Waigeo Sel., Kabupaten Raja Ampat, Papua Bar. 98482","Kec. Waigeo Sel., Kabupaten Raja Ampat",PAPUA BARAT,98482.0,Indonesia,81328872126.0,-0.4258823,130.8215791,https://maps.google.com/?cid=0x0:0x21c1ab49a21b4abd
supermarket,Toko Swalayan,Toko Adi Jaya R4,"HRFC+VHR, Waisai, Distrik Kota Waisai, Kabupaten Raja Ampat, Papua Bar. 98482","Waisai, Distrik Kota Waisai, Kabupaten Raja Ampat",PAPUA BARAT,98482.0,Indonesia,,-0.4252579,130.8213781,https://maps.google.com/?cid=0x0:0xd8e8c73d6049aa12
supermarket,Pasar,Mini Market Awainulu,"HRGC+4CC, Waisai, Kec. Waigeo Sel., Kabupaten Raja Ampat, Papua Bar. 98482","Waisai, Kec. Waigeo Sel., Kabupaten Raja Ampat",PAPUA BARAT,98482.0,Indonesia,,-0.424683,130.821027,https://maps.google.com/?cid=0x0:0xdb71640715a02e08
supermarket,Toko,Toko Grosir  Eceran Ulil Aida,"HRJF+W7W, Jl. Lukas Dailon, Waisai, Distrik Kota Waisai, Kabupaten Raja Ampat, Papua Bar. 98482","Jl. Lukas Dailon, Waisai, Distrik Kota Waisai, Kabupaten Raja Ampat",PAPUA BARAT,98482.0,Indonesia,,-0.4176427,130.8231997,https://maps.google.com/?cid=0x0:0xf6f42909f9b69755
supermarket,Toko Swalayan,Toko Gubuk Tani,"HRFC+WGQ, Waisai, Kec. Waigeo Sel., Kabupaten Raja Ampat, Papua Bar. 98482","Waisai, Kec. Waigeo Sel., Kabupaten Raja Ampat",PAPUA BARAT,98482.0,Indonesia,81343111508.0,-0.4251576,130.821354,https://maps.google.com/?cid=0x0:0xd8f8dfe47f6582f8
supermarket,Pusat Perbelanjaan,Toko Maros Indah,"HRHC+F8Q, Waisai, Kec. Waigeo Sel., Kabupaten Raja Ampat, Papua Bar. 98482","Waisai, Kec. Waigeo Sel., Kabupaten Raja Ampat",PAPUA BARAT,98482.0,Indonesia,81242420136.0,-0.4212822,130.8208536,https://maps.google.com/?cid=0x0:0x7e66b5ed988550f2
supermarket,Toko bahan makanan,TOKO KABELE KUNING,"HRFF+QCH, Waisai, Distrik Kota Waisai, Kabupaten Raja Ampat, Papua Bar. 98482","Waisai, Distrik Kota Waisai, Kabupaten Raja Ampat",PAPUA BARAT,98482.0,Indonesia,81270428878.0,-0.4255627,130.8236105,https://maps.google.com/?cid=0x0:0xfedb966b15fd1d7b
supermarket,Toko bahan makanan,Toko Dua Saudara,"HRFF+P9V, Waisai, Waigeo Selatan, Waisai, Distrik Kota Waisai, Kabupaten Raja Ampat, Papua Bar. 98482","Waisai, Waigeo Selatan, Waisai, Distrik Kota Waisai, Kabupaten Raja Ampat",PAPUA BARAT,98482.0,Indonesia,81248277647.0,-0.4256342,130.8234194,https://maps.google.com/?cid=0x0:0xa818cfb481f861bb
supermarket,Toko Swalayan,Hadi Supermarket  Dept. Store,"Jl. Imam Bonjol No.56, Fandoi, Kec. Biak Kota, Kabupaten Biak Numfor, Papua 98111","Fandoi, Kec. Biak Kota, Kabupaten Biak Numfor",PAPUA BARAT,98111.0,Indonesia,,-1.1800003,136.0824788,https://maps.google.com/?cid=0x0:0xdcad74b4384219ee
supermarket,Pusat Perbelanjaan,Papua Supermarket  Dept. Store,"4869+F77 Bar, Sawagumu, Kec. Sorong Utara, Kota Sorong, Papua Bar. 98416","Sawagumu, Kec. Sorong Utara, Kota Sorong",PAPUA BARAT,98416.0,Indonesia,9513160123.0,-0.888831,131.3181847,https://maps.google.com/?cid=0x0:0x7b5f0926a74ad213
supermarket,Kios,Kios Pelangi,"HRC9+37J, Jl. Abdul Aftan, Waisai, Distrik Kota Waisai, Kabupaten Raja Ampat, Papua Bar. 98482","Jl. Abdul Aftan, Waisai, Distrik Kota Waisai, Kabupaten Raja Ampat",PAPUA BARAT,98482.0,Indonesia,,-0.4297784,130.8181475,https://maps.google.com/?cid=0x0:0x1c5397acd234f1ba
supermarket,supermarket,Distrik Tiplol Mayalibit,"Kabupaten Raja Ampat, Papua Bar.","Kabupaten Raja Ampat, Papua Bar.",PAPUA BARAT,,Indonesia,,-0.078691,130.6642772,https://maps.google.com/?cid=0x0:0xd2fca4629b110358
supermarket,Komplek perumahan,Kampung GO,"WMC7+FR, GO, Distrik Tiplol Mayalibit, Kabupaten Raja Ampat, Papua Bar.","Kabupaten Raja Ampat, Papua Bar.",PAPUA BARAT,,Indonesia,,-0.0787902,130.6647357,https://maps.google.com/?cid=0x0:0xdb864b8b77569429
supermarket,Komplek perumahan,Kampung Beo,"VM7H+8M5, Beo, Distrik Tiplol Mayalibit, Kabupaten Raja Ampat, Papua Bar. 98482","Beo, Distrik Tiplol Mayalibit, Kabupaten Raja Ampat",PAPUA BARAT,98482.0,Indonesia,,-0.1364955,130.6805706,https://maps.google.com/?cid=0x0:0x231b4b9e0889c0a
supermarket,Layanan Transportasi,Raja Ampat Papua barat,"HRC6+62X, Waisai, Kec. Waigeo Sel., Kabupaten Raja Ampat, Papua Bar. 98482","Waisai, Kec. Waigeo Sel., Kabupaten Raja Ampat",PAPUA BARAT,98482.0,Indonesia,81242091941.0,-0.4297696,130.8104553,https://maps.google.com/?cid=0x0:0x6dec146437352f64
supermarket,supermarket,Kec. Waigeo Bar.,"Kabupaten Raja Ampat, Papua Bar.","Kabupaten Raja Ampat, Papua Bar.",PAPUA BARAT,,Indonesia,,-0.1565367,130.4516329,https://maps.google.com/?cid=0x0:0xa968725bc286475b
supermarket,supermarket,Toko batukam,"X5X7+5P, Selpele, Kec. Waigeo Bar., Kabupaten Raja Ampat, Papua Bar.","Kabupaten Raja Ampat, Papua Bar.",PAPUA BARAT,,Indonesia,,-0.0020485,130.1642514,https://maps.google.com/?cid=0x0:0x3ea89e5b759d6fe6
supermarket,Toko umum,Kios echa,"M84W+392, Mutus, Kec. Waigeo Bar., Kabupaten Raja Ampat, Papua Bar.","Kabupaten Raja Ampat, Papua Bar.",PAPUA BARAT,,Indonesia,82399164276.0,-0.3448707,130.34589,https://maps.google.com/?cid=0x0:0x6fa1853b8312d10b
supermarket,supermarket,Distrik Waigeo Barat Kepulauan,"Kabupaten Raja Ampat, Papua Bar.","Kabupaten Raja Ampat, Papua Bar.",PAPUA BARAT,,Indonesia,,-0.3990489,129.8878154,https://maps.google.com/?cid=0x0:0x2f9f2f03d60aa281
supermarket,Pusat Perbelanjaan,Kios Bone Papua,"87HW+W9X, Pam, Distrik Waigeo Barat Kepulauan, Kabupaten Raja Ampat, Papua Bar.","Kabupaten Raja Ampat, Papua Bar.",PAPUA BARAT,,Indonesia,,-0.6705437,130.2952334,https://maps.google.com/?cid=0x0:0x8db408b2c3285e2b
supermarket,Komplek perumahan,Kios Cahaya Gag,"HW55+RRF, Gag, Distrik Waigeo Barat Kepulauan, Kabupaten Raja Ampat, Papua Bar. 98481","Gag, Distrik Waigeo Barat Kepulauan, Kabupaten Raja Ampat",PAPUA BARAT,98481.0,Indonesia,,-0.4404356,129.9095324,https://maps.google.com/?cid=0x0:0xb19d10d2abcb8f
supermarket,Kios,PONDOK PINANG JASIMAN,"HW65+3M, Gag, Distrik Waigeo Barat Kepulauan, Kabupaten Raja Ampat, Papua Bar.","Kabupaten Raja Ampat, Papua Bar.",PAPUA BARAT,,Indonesia,82397606193.0,-0.4398568,129.9092095,https://maps.google.com/?cid=0x0:0x6913a838473571d
supermarket,Guest house,Piaynemo Raja Ampat,"C7PC+888, Groot Fam, Saukabu, Kepulauan Raja Ampat, Waigeo Barat Kepulau, Saukabu, Distrik Waigeo Barat Kepulauan, Kabupaten Raja Ampat, Papua Bar. 98481","Groot Fam, Saukabu, Kepulauan Raja Ampat, Waigeo Barat Kepulau, Saukabu, Distrik Waigeo Barat Kepulauan, Kabupaten Raja Ampat",PAPUA BARAT,98481.0,Indonesia,,-0.5642076,130.2708139,https://maps.google.com/?cid=0x0:0xb98db4c6e60649fb
supermarket,supermarket,Kec. Waigeo Sel.,"Kabupaten Raja Ampat, Papua Bar.","Kabupaten Raja Ampat, Papua Bar.",PAPUA BARAT,,Indonesia,,-0.3840807,130.7361322,https://maps.google.com/?cid=0x0:0x2c9db46da776b4
supermarket,Toko Swalayan,Deframart / Surya 88 Grosir,"Waisai, Kec. Waigeo Sel., Kabupaten Raja Ampat, Papua Bar. 98482","Kec. Waigeo Sel., Kabupaten Raja Ampat",PAPUA BARAT,98482.0,Indonesia,82198810318.0,-0.4115814,130.8191378,https://maps.google.com/?cid=0x0:0x2477539a632d958c
supermarket,Toko bahan makanan,Gudang gubuk tani,"HRF8+8RC, Jl. Fundar Sakela, Waisai, Kec. Waigeo Sel., Kabupaten Raja Ampat, Papua Bar. 98482","Jl. Fundar Sakela, Waisai, Kec. Waigeo Sel., Kabupaten Raja Ampat",PAPUA BARAT,98482.0,Indonesia,,-0.4266848,130.8170157,https://maps.google.com/?cid=0x0:0x6482054974887b15
supermarket,Toko bahan makanan,TOKO CAHAYA PAPUA,"Waisai, Kec. Waigeo Sel., Kabupaten Raja Ampat, Papua Bar. 98482","Kec. Waigeo Sel., Kabupaten Raja Ampat",PAPUA BARAT,98482.0,Indonesia,81328872126.0,-0.4258823,130.8215791,https://maps.google.com/?cid=0x0:0x21c1ab49a21b4abd
supermarket,Toko Swalayan,Toko Gubuk Tani,"HRFC+WGQ, Waisai, Kec. Waigeo Sel., Kabupaten Raja Ampat, Papua Bar. 98482","Waisai, Kec. Waigeo Sel., Kabupaten Raja Ampat",PAPUA BARAT,98482.0,Indonesia,81343111508.0,-0.4251576,130.821354,https://maps.google.com/?cid=0x0:0xd8f8dfe47f6582f8
supermarket,Pasar,Mini Market Awainulu,"HRGC+4CC, Waisai, Kec. Waigeo Sel., Kabupaten Raja Ampat, Papua Bar. 98482","Waisai, Kec. Waigeo Sel., Kabupaten Raja Ampat",PAPUA BARAT,98482.0,Indonesia,,-0.424683,130.821027,https://maps.google.com/?cid=0x0:0xdb71640715a02e08
supermarket,Toko bahan makanan,Toko Dua Saudara,"HRFF+P9V, Waisai, Waigeo Selatan, Waisai, Distrik Kota Waisai, Kabupaten Raja Ampat, Papua Bar. 98482","Waisai, Waigeo Selatan, Waisai, Distrik Kota Waisai, Kabupaten Raja Ampat",PAPUA BARAT,98482.0,Indonesia,81248277647.0,-0.4256342,130.8234194,https://maps.google.com/?cid=0x0:0xa818cfb481f861bb
supermarket,Pusat Perbelanjaan,Toko Maros Indah,"HRHC+F8Q, Waisai, Kec. Waigeo Sel., Kabupaten Raja Ampat, Papua Bar. 98482","Waisai, Kec. Waigeo Sel., Kabupaten Raja Ampat",PAPUA BARAT,98482.0,Indonesia,81242420136.0,-0.4212822,130.8208536,https://maps.google.com/?cid=0x0:0x7e66b5ed988550f2
supermarket,Toko Swalayan,Toko Adi Jaya R4,"HRFC+VHR, Waisai, Distrik Kota Waisai, Kabupaten Raja Ampat, Papua Bar. 98482","Waisai, Distrik Kota Waisai, Kabupaten Raja Ampat",PAPUA BARAT,98482.0,Indonesia,,-0.4252579,130.8213781,https://maps.google.com/?cid=0x0:0xd8e8c73d6049aa12
supermarket,Kios,Kios Harapan,"HRGG+6M2, Waisai, Kec. Waigeo Sel., Kabupaten Raja Ampat, Papua Bar. 98482","Waisai, Kec. Waigeo Sel., Kabupaten Raja Ampat",PAPUA BARAT,98482.0,Indonesia,81344658373.0,-0.4244836,130.8266266,https://maps.google.com/?cid=0x0:0xb6210fd43a004888
supermarket,Kios,Kios Adiba,"HRGF+HV4, Waisai, Kec. Waigeo Sel., Kabupaten Raja Ampat, Papua Bar. 98482","Waisai, Kec. Waigeo Sel., Kabupaten Raja Ampat",PAPUA BARAT,98482.0,Indonesia,82393290313.0,-0.4236185,130.8246954,https://maps.google.com/?cid=0x0:0xfc0ec3351e205b6a
supermarket,Toko Swalayan,Toko anugrah,"HRJF+G6X, Jl. Lukas Dailon, Waisai, Kec. Waigeo Sel., Kabupaten Raja Ampat, Papua Bar. 98482","Jl. Lukas Dailon, Waisai, Kec. Waigeo Sel., Kabupaten Raja Ampat",PAPUA BARAT,98482.0,Indonesia,82399722727.0,-0.4186281,130.8230955,https://maps.google.com/?cid=0x0:0x59f64d98eeaa300
supermarket,Toko Elektronik,TOKO WAISAI MEGAH,"HRGF+G39, Waisai, Kec. Waigeo Sel., Kabupaten Raja Ampat, Papua Bar. 98482","Waisai, Kec. Waigeo Sel., Kabupaten Raja Ampat",PAPUA BARAT,98482.0,Indonesia,9513173083.0,-0.4237178,130.8227294,https://maps.google.com/?cid=0x0:0x349f85b240eab92b
supermarket,supermarket,Waiwo Dive Resort  Dive into Raja Ampat,"Jl. Marinda - Waiwo Raja Ampat Papua, Barat, Papua Bar. 98482",Barat,PAPUA BARAT,98482.0,Indonesia,81247912123.0,-0.4364989,130.7783607,https://maps.google.com/?cid=0x0:0xa23d6965a6d740aa
supermarket,Toko bahan makanan,Toko Winda,"Q8R7+54, Yenbekaki, Distrik Waigeo Timur, Kabupaten Raja Ampat, Papua Bar.","Kabupaten Raja Ampat, Papua Bar.",PAPUA BARAT,,Indonesia,,-0.2095622,131.3128223,https://maps.google.com/?cid=0x0:0x9c2e8737cbb9be30
supermarket,Toko bahan makanan,Toko Dua Saudara,"HRFF+P9V, Waisai, Waigeo Selatan, Waisai, Distrik Kota Waisai, Kabupaten Raja Ampat, Papua Bar. 98482","Waisai, Waigeo Selatan, Waisai, Distrik Kota Waisai, Kabupaten Raja Ampat",PAPUA BARAT,98482.0,Indonesia,81248277647.0,-0.4256342,130.8234194,https://maps.google.com/?cid=0x0:0xa818cfb481f861bb
supermarket,supermarket,Distrik Waigeo Utara,"Kabupaten Raja Ampat, Papua Bar.","Kabupaten Raja Ampat, Papua Bar.",PAPUA BARAT,,Indonesia,,-0.0564707,130.9858964,https://maps.google.com/?cid=0x0:0xc31e9c0aa62767f2
supermarket,Toko bahan makanan,TOKO CAHAYA PAPUA,"Waisai, Kec. Waigeo Sel., Kabupaten Raja Ampat, Papua Bar. 98482","Kec. Waigeo Sel., Kabupaten Raja Ampat",PAPUA BARAT,98482.0,Indonesia,81328872126.0,-0.4258823,130.8215791,https://maps.google.com/?cid=0x0:0x21c1ab49a21b4abd
supermarket,supermarket,Toko fasis,"Boni, Distrik Warwarbomi, Kabupaten Raja Ampat, Papua Bar. 98482","Distrik Warwarbomi, Kabupaten Raja Ampat",PAPUA BARAT,98482.0,Indonesia,,-0.034763,131.0790614,https://maps.google.com/?cid=0x0:0xc3c7b7075a6d231
supermarket,Toko bahan makanan,Toko Winda,"Q8R7+54, Yenbekaki, Distrik Waigeo Timur, Kabupaten Raja Ampat, Papua Bar.","Kabupaten Raja Ampat, Papua Bar.",PAPUA BARAT,,Indonesia,,-0.2095622,131.3128223,https://maps.google.com/?cid=0x0:0x9c2e8737cbb9be30
supermarket,Toko bahan makanan,Toko Dua Saudara,"HRFF+P9V, Waisai, Waigeo Selatan, Waisai, Distrik Kota Waisai, Kabupaten Raja Ampat, Papua Bar. 98482","Waisai, Waigeo Selatan, Waisai, Distrik Kota Waisai, Kabupaten Raja Ampat",PAPUA BARAT,98482.0,Indonesia,81248277647.0,-0.4256342,130.8234194,https://maps.google.com/?cid=0x0:0xa818cfb481f861bb
supermarket,supermarket,Papua Bar.,,Papua Bar.,PAPUA BARAT,,Indonesia,,-1.3361154,133.1747162,https://maps.google.com/?cid=0x0:0x5349c1f8c5c7cb62
supermarket,Pusat Perbelanjaan,Papua Supermarket  Dept. Store,"4869+F77 Bar, Sawagumu, Kec. Sorong Utara, Kota Sorong, Papua Bar. 98416","Sawagumu, Kec. Sorong Utara, Kota Sorong",PAPUA BARAT,98416.0,Indonesia,9513160123.0,-0.888831,131.3181847,https://maps.google.com/?cid=0x0:0x7b5f0926a74ad213
supermarket,Minimarket,Win Mart,"Jl. Drs Esau Sesa, Wosi, Kec. Manokwari Bar., Kabupaten Manokwari, Papua Bar. 98312","Wosi, Kec. Manokwari Bar., Kabupaten Manokwari",PAPUA BARAT,98312.0,Indonesia,,-0.8713031,134.0464301,https://maps.google.com/?cid=0x0:0xf38b5c7878a43c12
supermarket,Kantor Perusahaan,Supermarket GOTA,"4868+2X3, Jl. Sungai Maruni, Sawagumu, Distrik Sorong Timur, Kota Sorong, Papua Bar. 98416","Jl. Sungai Maruni, Sawagumu, Distrik Sorong Timur, Kota Sorong",PAPUA BARAT,98416.0,Indonesia,,-0.8900646,131.3173945,https://maps.google.com/?cid=0x0:0xe80a2989cd86300
supermarket,Toko Swalayan,Fresco Swalayan,"Jl. Merdeka No.51, Padarni, Kec. Manokwari Bar., Kabupaten Manokwari, Papua Bar. 98312","Padarni, Kec. Manokwari Bar., Kabupaten Manokwari",PAPUA BARAT,98312.0,Indonesia,9862213874.0,-0.8601332,134.0733651,https://maps.google.com/?cid=0x0:0x52ae815ced98b665
supermarket,Pusat Perbelanjaan,Hadi supermarket,"32XQ+W6X, Sowi, Distrik Manokwari, Kabupaten Manokwari, Papua Bar.","Kabupaten Manokwari, Papua Bar.",PAPUA BARAT,,Indonesia,,-0.9001308,134.0381223,https://maps.google.com/?cid=0x0:0xe361d5fae3f38b24
supermarket,Minimarket,Hadi Supermarket Manokwari,"43V9+632, Jl. Yos Sudarso Manokwari, Manokwari Bar., Barat, Kabupaten Manokwari, Papua Bar. 98312","Jl. Yos Sudarso Manokwari, Manokwari Bar., Barat, Kabupaten Manokwari",PAPUA BARAT,98312.0,Indonesia,81344231138.0,-0.8569848,134.0676451,https://maps.google.com/?cid=0x0:0x9eff32c2ea26d6a2
supermarket,Toko,Kios Ari1,"4RC8+27P, Waseki Indah, Distrik Prafi, Kabupaten Manokwari, Papua Bar. 98356","Waseki Indah, Distrik Prafi, Kabupaten Manokwari",PAPUA BARAT,98356.0,Indonesia,82399106766.0,-0.8799178,133.8156997,https://maps.google.com/?cid=0x0:0xb2e8069c11d42ee2
supermarket,supermarket,Suryo Mart,"Jl. Trikora Wosi No.132, Wosi, Kec. Manokwari Bar., Kabupaten Manokwari, Papua Bar. 98312","Wosi, Kec. Manokwari Bar., Kabupaten Manokwari",PAPUA BARAT,98312.0,Indonesia,,-0.862647,134.0507407,https://maps.google.com/?cid=0x0:0x846fbf966dd9fceb
supermarket,Toko bahan makanan,Toko Winda,"Q8R7+54, Yenbekaki, Distrik Waigeo Timur, Kabupaten Raja Ampat, Papua Bar.","Kabupaten Raja Ampat, Papua Bar.",PAPUA BARAT,,Indonesia,,-0.2095622,131.3128223,https://maps.google.com/?cid=0x0:0x9c2e8737cbb9be30
supermarket,Toko bahan makanan,Toko Dua Saudara,"HRFF+P9V, Waisai, Waigeo Selatan, Waisai, Distrik Kota Waisai, Kabupaten Raja Ampat, Papua Bar. 98482","Waisai, Waigeo Selatan, Waisai, Distrik Kota Waisai, Kabupaten Raja Ampat",PAPUA BARAT,98482.0,Indonesia,81248277647.0,-0.4256342,130.8234194,https://maps.google.com/?cid=0x0:0xa818cfb481f861bb
supermarket,Pasar,Mini Market Awainulu,"HRGC+4CC, Waisai, Kec. Waigeo Sel., Kabupaten Raja Ampat, Papua Bar. 98482","Waisai, Kec. Waigeo Sel., Kabupaten Raja Ampat",PAPUA BARAT,98482.0,Indonesia,,-0.424683,130.821027,https://maps.google.com/?cid=0x0:0xdb71640715a02e08
supermarket,Layanan Transportasi,Warsambin Bus Exchange,"MWH9+PMP, Waisai, Distrik Kota Waisai, Kabupaten Raja Ampat, Papua Bar. 98482","Waisai, Distrik Kota Waisai, Kabupaten Raja Ampat",PAPUA BARAT,98482.0,Indonesia,,-0.3206641,130.9192098,https://maps.google.com/?cid=0x0:0x35a1897996f355b2
supermarket,Toko bahan makanan,TOKO CAHAYA PAPUA,"Waisai, Kec. Waigeo Sel., Kabupaten Raja Ampat, Papua Bar. 98482","Kec. Waigeo Sel., Kabupaten Raja Ampat",PAPUA BARAT,98482.0,Indonesia,81328872126.0,-0.4258823,130.8215791,https://maps.google.com/?cid=0x0:0x21c1ab49a21b4abd
