Category,Real Category,Business Name,Address,City,State,Postal Code,Country,Phone,Latitude,Longitude,Map Link
perumahan,Pembangunan Perumahan,Evaan Aifat Maybrat,"QF4G+W7V, Werjaya, Distrik Aifat, Kabupaten Maybrat, Papua Bar. 98463","Werjaya, Distrik Aifat, Kabupaten Maybrat",PAPUA BARAT,98463.0,Indonesia,,-1.2426304,132.4756698,https://maps.google.com/?cid=0x0:0xa3b53493d6599552
perumahan,perumahan,Distrik Aifat,"Kabupaten Maybrat, Papua Bar.","Kabupaten Maybrat, Papua Bar.",PAPUA BARAT,,Indonesia,,-1.2568532,132.5001338,https://maps.google.com/?cid=0x0:0xcc3d52ba3ddd33de
perumahan,Pembangunan Perumahan,Sonere aifat selatan maybrat,"MFPG+PW2, Futon, Distrik Aifat Selatan, Kabupaten Maybrat, Papua Bar. 98463","Futon, Distrik Aifat Selatan, Kabupaten Maybrat",PAPUA BARAT,98463.0,Indonesia,,-1.3132303,132.4772785,https://maps.google.com/?cid=0x0:0xcf993cce8191b59
perumahan,Komplek perumahan,Sahabur,"PF5R+XV, Futon, Distrik Aifat, Kabupaten Maybrat, Papua Bar.","Kabupaten Maybrat, Papua Bar.",PAPUA BARAT,,Indonesia,,-1.2900127,132.4921406,https://maps.google.com/?cid=0x0:0x463118003817dc9a
perumahan,Komplek perumahan,"KAMPUNG LAMA ,IRAFAN","JCV8+24G, Tehahite, Distrik Aifat, Kabupaten Maybrat, Papua Bar. 98463","Tehahite, Distrik Aifat, Kabupaten Maybrat",PAPUA BARAT,98463.0,Indonesia,,-1.3574485,132.4153262,https://maps.google.com/?cid=0x0:0x861baf0d33512994
perumahan,Perhimpunan Pengembang Perumahan,Perempuan AIFAT,"RF77+C36, Ayawasi, Distrik Aifat Utara, Kabupaten Maybrat, Papua Bar. 98463","Ayawasi, Distrik Aifat Utara, Kabupaten Maybrat",PAPUA BARAT,98463.0,Indonesia,,-1.186464,132.4626367,https://maps.google.com/?cid=0x0:0xc3d9c84f81b264c7
perumahan,Perumahan,Fonatu,"RFQ5+VFM, Fonatu, Ayawasi, Distrik Aifat Utara, Kabupaten Maybrat, Papua Bar. 98463","Fonatu, Ayawasi, Distrik Aifat Utara, Kabupaten Maybrat",PAPUA BARAT,98463.0,Indonesia,,-1.1602976,132.4586748,https://maps.google.com/?cid=0x0:0xe1058bdc7f5b6b06
perumahan,Pembangunan Perumahan,Kampung Ainod,"PHJ3+42, Eisyo, Distrik Aifat, Kabupaten Maybrat, Papua Bar.","Kabupaten Maybrat, Papua Bar.",PAPUA BARAT,,Indonesia,,-1.269625,132.5525305,https://maps.google.com/?cid=0x0:0x99dd91f91b4adb11
perumahan,Pembangunan Perumahan,Proyek Rumah Papua Barat,"Q9QR+479, Fonatu, Distrik Aifat Utara, Kabupaten Maybrat, Papua Bar.","Kabupaten Maybrat, Papua Bar.",PAPUA BARAT,,Indonesia,,-1.2122123,132.3907207,https://maps.google.com/?cid=0x0:0x32f9d918d28cb15c
perumahan,Komplek perumahan,"Kampung Kokas, Aifat Maybrat Papua Barat Daya","QC93+QF3, Kokas, Distrik Aifat, Kabupaten Maybrat, Papua Bar. 98463","Kokas, Distrik Aifat, Kabupaten Maybrat",PAPUA BARAT,98463.0,Indonesia,,-1.2306125,132.4036715,https://maps.google.com/?cid=0x0:0xc8ab9eb5eff74124
perumahan,Perhimpunan Pengembang Perumahan,Nezeth Aifat Utara Kab.Maybrat,"RFP6+CWW, Uname Road, Ayawasi, Distrik Aifat Utara, Kabupaten Maybrat, Papua Bar. 98463","Uname Road, Ayawasi, Distrik Aifat Utara, Kabupaten Maybrat",PAPUA BARAT,98463.0,Indonesia,,-1.163882,132.4623359,https://maps.google.com/?cid=0x0:0x30c27f8005f60ea7
perumahan,Perhimpunan Pengembang Perumahan,"Kampung Neset, Aifat Utara, Kabupaten Maybrat","RFP6+9XG, Uname Road, Ayawasi, Distrik Aifat Utara, Kabupaten Maybrat, Papua Bar. 98463","Uname Road, Ayawasi, Distrik Aifat Utara, Kabupaten Maybrat",PAPUA BARAT,98463.0,Indonesia,,-1.1640663,132.4624589,https://maps.google.com/?cid=0x0:0xfe3e6a3b1dacf0d5
perumahan,Komplek perumahan,Distrik Aifat Selatan,"HGX4+F72, Sory, Distrik Aifat Selatan, Kabupaten Maybrat, Papua Bar. 98463","Sory, Distrik Aifat Selatan, Kabupaten Maybrat",PAPUA BARAT,98463.0,Indonesia,,-1.4013521,132.5056398,https://maps.google.com/?cid=0x0:0x1486686d3708c90
perumahan,Pembangunan Perumahan,KAMPUNG SAMERAKATOR,"JHQV+VPP, KOMPLEX FATEM ISYORANA, TAHSIMARA, Aitrem, Distrik Aifat Timur, Kabupaten Maybrat, Papua Bar. 98463","KOMPLEX FATEM ISYORANA, TAHSIMARA, Aitrem, Distrik Aifat Timur, Kabupaten Maybrat",PAPUA BARAT,98463.0,Indonesia,,-1.3602867,132.5943283,https://maps.google.com/?cid=0x0:0xceea199ce0dab7e
perumahan,perumahan,Distrik Aifat,"Kabupaten Maybrat, Papua Bar.","Kabupaten Maybrat, Papua Bar.",PAPUA BARAT,,Indonesia,,-1.2568532,132.5001338,https://maps.google.com/?cid=0x0:0xcc3d52ba3ddd33de
perumahan,Pembangunan Perumahan,Evaan Aifat Maybrat,"QF4G+W7V, Werjaya, Distrik Aifat, Kabupaten Maybrat, Papua Bar. 98463","Werjaya, Distrik Aifat, Kabupaten Maybrat",PAPUA BARAT,98463.0,Indonesia,,-1.2426304,132.4756698,https://maps.google.com/?cid=0x0:0xa3b53493d6599552
perumahan,Pembangunan Perumahan,Sonere aifat selatan maybrat,"MFPG+PW2, Futon, Distrik Aifat Selatan, Kabupaten Maybrat, Papua Bar. 98463","Futon, Distrik Aifat Selatan, Kabupaten Maybrat",PAPUA BARAT,98463.0,Indonesia,,-1.3132303,132.4772785,https://maps.google.com/?cid=0x0:0xcf993cce8191b59
perumahan,Komplek perumahan,Sahabur,"PF5R+XV, Futon, Distrik Aifat, Kabupaten Maybrat, Papua Bar.","Kabupaten Maybrat, Papua Bar.",PAPUA BARAT,,Indonesia,,-1.2900127,132.4921406,https://maps.google.com/?cid=0x0:0x463118003817dc9a
perumahan,Pembangunan Perumahan,Kampung Ainod,"PHJ3+42, Eisyo, Distrik Aifat, Kabupaten Maybrat, Papua Bar.","Kabupaten Maybrat, Papua Bar.",PAPUA BARAT,,Indonesia,,-1.269625,132.5525305,https://maps.google.com/?cid=0x0:0x99dd91f91b4adb11
perumahan,Komplek perumahan,"KAMPUNG LAMA ,IRAFAN","JCV8+24G, Tehahite, Distrik Aifat, Kabupaten Maybrat, Papua Bar. 98463","Tehahite, Distrik Aifat, Kabupaten Maybrat",PAPUA BARAT,98463.0,Indonesia,,-1.3574485,132.4153262,https://maps.google.com/?cid=0x0:0x861baf0d33512994
perumahan,Pembangunan Perumahan,Proyek Rumah Papua Barat,"Q9QR+479, Fonatu, Distrik Aifat Utara, Kabupaten Maybrat, Papua Bar.","Kabupaten Maybrat, Papua Bar.",PAPUA BARAT,,Indonesia,,-1.2122123,132.3907207,https://maps.google.com/?cid=0x0:0x32f9d918d28cb15c
perumahan,Perhimpunan Pengembang Perumahan,Perempuan AIFAT,"RF77+C36, Ayawasi, Distrik Aifat Utara, Kabupaten Maybrat, Papua Bar. 98463","Ayawasi, Distrik Aifat Utara, Kabupaten Maybrat",PAPUA BARAT,98463.0,Indonesia,,-1.186464,132.4626367,https://maps.google.com/?cid=0x0:0xc3d9c84f81b264c7
perumahan,Komplek perumahan,"Kampung Kokas, Aifat Maybrat Papua Barat Daya","QC93+QF3, Kokas, Distrik Aifat, Kabupaten Maybrat, Papua Bar. 98463","Kokas, Distrik Aifat, Kabupaten Maybrat",PAPUA BARAT,98463.0,Indonesia,,-1.2306125,132.4036715,https://maps.google.com/?cid=0x0:0xc8ab9eb5eff74124
perumahan,Perumahan,Fonatu,"RFQ5+VFM, Fonatu, Ayawasi, Distrik Aifat Utara, Kabupaten Maybrat, Papua Bar. 98463","Fonatu, Ayawasi, Distrik Aifat Utara, Kabupaten Maybrat",PAPUA BARAT,98463.0,Indonesia,,-1.1602976,132.4586748,https://maps.google.com/?cid=0x0:0xe1058bdc7f5b6b06
perumahan,Komplek perumahan,Tehahite city,"JFW7+RMW, Tehahite, Distrik Aifat, Kabupaten Maybrat, Papua Bar.","Kabupaten Maybrat, Papua Bar.",PAPUA BARAT,,Indonesia,,-1.3528854,132.4642057,https://maps.google.com/?cid=0x0:0xddee8fd8d828ce9e
perumahan,Komplek perumahan,Kampung tehahite,"MC3F+W84, Tehahite, Distrik Aifat, Kabupaten Maybrat, Papua Bar.","Kabupaten Maybrat, Papua Bar.",PAPUA BARAT,,Indonesia,,-1.3452319,132.4233339,https://maps.google.com/?cid=0x0:0x19d57cca26889c4d
perumahan,Perhimpunan Pengembang Perumahan,AYAWASI FANBERS MAYBRAT,"Ayawasi Fanbers, KAMP. FANBERS, DAYA, Distrik Aifat Utara, Kabupaten Maybrat, Papua Bar. 98277","KAMP. FANBERS, DAYA, Distrik Aifat Utara, Kabupaten Maybrat",PAPUA BARAT,98277.0,Indonesia,82175742019.0,-1.1674406,132.464603,https://maps.google.com/?cid=0x0:0xdb8bed76c6756b1a
perumahan,Gereja,Rumah Pastori JemAt GKI SION Kumurkek,"PGR2+V4V, Eisyo, Distrik Aifat, Kabupaten Maybrat, Papua Bar. 98463","Eisyo, Distrik Aifat, Kabupaten Maybrat",PAPUA BARAT,98463.0,Indonesia,,-1.2579787,132.4999841,https://maps.google.com/?cid=0x0:0xb7580a85f83ac8
perumahan,Kantor distrik,Perusahaan,"5VMW+8F, Amduy, distrik Batanta Selatan, Kabupaten Raja Ampat, Papua Bar.","Kabupaten Raja Ampat, Papua Bar.",PAPUA BARAT,,Indonesia,,-0.8166949,130.8961464,https://maps.google.com/?cid=0x0:0xd9554b2d4a9eba9d
perumahan,perumahan,distrik Batanta Selatan,"Kabupaten Raja Ampat, Papua Bar.","Kabupaten Raja Ampat, Papua Bar.",PAPUA BARAT,,Indonesia,,-0.8447219,130.8171615,https://maps.google.com/?cid=0x0:0xc5c0f28bd225b23c
perumahan,Pembangunan Perumahan,Kampung yenanas,"5V6R+69C, Yenanas, Selat Sagawin, Kabupaten Raja Ampat, Papua Bar. 98484","Yenanas, Selat Sagawin, Kabupaten Raja Ampat",PAPUA BARAT,98484.0,Indonesia,,-0.8394452,130.8908977,https://maps.google.com/?cid=0x0:0x6c0adc570f6c52ff
perumahan,perumahan,Macraei Homestay,"5VJV+99, Amduy, distrik Batanta Selatan, Kabupaten Raja Ampat, Papua Bar.","Kabupaten Raja Ampat, Papua Bar.",PAPUA BARAT,,Indonesia,,-0.8181616,130.8929942,https://maps.google.com/?cid=0x0:0x2f828fe5547d562
perumahan,Guest house,Batanta Adventure Homestay,"Kimindores, Waisai, Kabupaten Raja Ampat, Papua Bar.","Kabupaten Raja Ampat, Papua Bar.",PAPUA BARAT,,Indonesia,82199088725.0,-0.7970302,130.5034497,https://maps.google.com/?cid=0x0:0x6dd3daf715bd912e
perumahan,Kantor Pemerintah Distrik,Kampung weibon,"3Q95+HX9, Distrik Salawati Barat, Kabupaten Raja Ampat, Papua Bar.","Kabupaten Raja Ampat, Papua Bar.",PAPUA BARAT,,Indonesia,,-0.9310832,130.75997,https://maps.google.com/?cid=0x0:0x57d09b5ce1fd603f
perumahan,Rumah Sakit,Pustu,"5J37+3PQ, Yensawai, Selat Sagawin, Kabupaten Raja Ampat, Papua Bar. 98484","Yensawai, Selat Sagawin, Kabupaten Raja Ampat",PAPUA BARAT,98484.0,Indonesia,,-0.8472985,130.6143744,https://maps.google.com/?cid=0x0:0x4459c4904b0185dd
perumahan,Guest house,Kampung yarweser,"6QRM+RCR, Arefi, Selat Sagawin, Kabupaten Raja Ampat, Papua Bar.","Kabupaten Raja Ampat, Papua Bar.",PAPUA BARAT,,Indonesia,,-0.7578756,130.7835004,https://maps.google.com/?cid=0x0:0x19b62e8e4c47d0a
perumahan,Warnet,KONTER ALFARO CELL,"5R48+4V7, Yenanas, distrik Batanta Selatan, Kabupaten Raja Ampat, Papua Bar. 98484","Yenanas, distrik Batanta Selatan, Kabupaten Raja Ampat",PAPUA BARAT,98484.0,Indonesia,,-0.8447219,130.8171615,https://maps.google.com/?cid=0x0:0x11e984e43808ead1
perumahan,perumahan,Pulau Batanta,"Wailebet, distrik Batanta Selatan, Kabupaten Raja Ampat, Papua Bar.","Kabupaten Raja Ampat, Papua Bar.",PAPUA BARAT,,Indonesia,,-0.8647222,130.6494444,https://maps.google.com/?cid=0x0:0x622f6c920ed64eb5
perumahan,perumahan,Kepulauan Sembilan,"Kabupaten Raja Ampat, Papua Bar.","Kabupaten Raja Ampat, Papua Bar.",PAPUA BARAT,,Indonesia,,-1.4692971,130.2424588,https://maps.google.com/?cid=0x0:0x364ea5a3f0657fa
perumahan,perumahan,Papua Bar. 98481,"Kabupaten Raja Ampat, Papua Bar.","Kabupaten Raja Ampat, Papua Bar.",PAPUA BARAT,,Indonesia,,-0.0847884,130.8374011,https://maps.google.com/?cid=0x0:0xabdb6fd88155f082
perumahan,perumahan,Kelly Imbir,"9363+X8X, Boiseran, Kec. Kepulauan Ayau, Kabupaten Raja Ampat, Papua Bar.","Kabupaten Raja Ampat, Papua Bar.",PAPUA BARAT,,Indonesia,,0.3624941,131.0533661,https://maps.google.com/?cid=0x0:0x7c7abe30946d8008
perumahan,perumahan,Pulau Aju,"Distrik Kepulauan Ayau, Kabupaten Raja Ampat, Papua Bar.","Kabupaten Raja Ampat, Papua Bar.",PAPUA BARAT,,Indonesia,,0.376937,131.0469639,https://maps.google.com/?cid=0x0:0x7549b90da6987be9
perumahan,perumahan,Home Stay Muraimuma,"9396+M4, Doreikar, Distrik Kepulauan Ayau, Kabupaten Raja Ampat, Papua Bar.","Kabupaten Raja Ampat, Papua Bar.",PAPUA BARAT,,Indonesia,,0.3692035,131.0603466,https://maps.google.com/?cid=0x0:0x8413a430a86c4afd
perumahan,Komplek perumahan,Kampung Uenkawir,"92JM+RWX, Yenkawir, Kec. Kepulauan Ayau, Kabupaten Raja Ampat, Papua Bar.","Kabupaten Raja Ampat, Papua Bar.",PAPUA BARAT,,Indonesia,,0.3821113,131.0348743,https://maps.google.com/?cid=0x0:0xfa157be567a2da42
perumahan,Komplek perumahan,Yenkawir,"92JM+RWX, Yenkawir, Distrik Kepulauan Ayau, Kabupaten Raja Ampat, Papua Bar.","Kabupaten Raja Ampat, Papua Bar.",PAPUA BARAT,,Indonesia,,0.3824867,131.0342665,https://maps.google.com/?cid=0x0:0x2e502d2692bd7ca6
perumahan,perumahan,Home Mamberouw,"9363+X8X, Boiseran, Distrik Kepulauan Ayau, Kabupaten Raja Ampat, Papua Bar.","Kabupaten Raja Ampat, Papua Bar.",PAPUA BARAT,,Indonesia,,0.3617203,131.0531133,https://maps.google.com/?cid=0x0:0xcc924317e81e4fb4
perumahan,Komplek perumahan,Yenberok,"92PM+37R, Yenkawir, Distrik Kepulauan Ayau, Kabupaten Raja Ampat, Papua Bar.","Kabupaten Raja Ampat, Papua Bar.",PAPUA BARAT,,Indonesia,,0.3845474,131.0332628,https://maps.google.com/?cid=0x0:0x6ae75db6a3cf32d2
perumahan,perumahan,Home Sifla Imbir,"9375+C83, Boiseran, Distrik Kepulauan Ayau, Kabupaten Raja Ampat, Papua Bar.","Kabupaten Raja Ampat, Papua Bar.",PAPUA BARAT,,Indonesia,,0.3635196,131.0583037,https://maps.google.com/?cid=0x0:0x4a3615c4e3b748e4
perumahan,perumahan,Muraimuma Homestay,"Boiseran, Distrik Kepulauan Ayau, Kabupaten Raja Ampat, Papua Bar.","Kabupaten Raja Ampat, Papua Bar.",PAPUA BARAT,,Indonesia,,0.3635196,131.0583037,https://maps.google.com/?cid=0x0:0x1275ed7204bca866
perumahan,perumahan,Home Erner Sifla Imbir,"9373+572, Boiseran, Distrik Kepulauan Ayau, Kabupaten Raja Ampat, Papua Bar.","Kabupaten Raja Ampat, Papua Bar.",PAPUA BARAT,,Indonesia,,0.3628875,131.0531406,https://maps.google.com/?cid=0x0:0xf70dd3103d099ae7
perumahan,perumahan,Home Timo Imbir,"9363+X8X, Boiseran, Distrik Kepulauan Ayau, Kabupaten Raja Ampat, Papua Bar.","Kabupaten Raja Ampat, Papua Bar.",PAPUA BARAT,,Indonesia,,0.3619982,131.0530342,https://maps.google.com/?cid=0x0:0x2247bdf992245fe0
perumahan,perumahan,Home Puskesmas Dorehkar,"9374+Q5, Boiseran, Distrik Kepulauan Ayau, Kabupaten Raja Ampat, Papua Bar.","Kabupaten Raja Ampat, Papua Bar.",PAPUA BARAT,,Indonesia,,0.3644916,131.0554861,https://maps.google.com/?cid=0x0:0x55be7830691d17e0
perumahan,perumahan,Home Oman Imbir,"9373+485, Boiseran, Distrik Kepulauan Ayau, Kabupaten Raja Ampat, Papua Bar.","Kabupaten Raja Ampat, Papua Bar.",PAPUA BARAT,,Indonesia,,0.3627542,131.0533625,https://maps.google.com/?cid=0x0:0xe7228866ed57b9fe
perumahan,perumahan,Pulau Kofiau,"Mikiran, Kofiau, Kabupaten Raja Ampat, Papua Bar.","Kabupaten Raja Ampat, Papua Bar.",PAPUA BARAT,,Indonesia,,-1.1833333,129.8333333,https://maps.google.com/?cid=0x0:0x22393f628dc41dcc
perumahan,perumahan,Distrik Kota Waisai,"Waisai, Kabupaten Raja Ampat, Papua Bar.","Kabupaten Raja Ampat, Papua Bar.",PAPUA BARAT,,Indonesia,,-0.4248841,130.8208792,https://maps.google.com/?cid=0x0:0x50ee7a1504609bf5
perumahan,Komplek perumahan,Komplek Perumahan 200,"HRMX+PFV, Waisai, Distrik Kota Waisai, Kabupaten Raja Ampat, Papua Bar. 98482","Waisai, Distrik Kota Waisai, Kabupaten Raja Ampat",PAPUA BARAT,98482.0,Indonesia,,-0.4156402,130.8486616,https://maps.google.com/?cid=0x0:0x8b9b71ee38da829
perumahan,Komplek perumahan,Kadar Waisai Residence,"HRG4+5JH, Jl. Marinda Kelurahan Sapordanco, Waisai, Distrik Kota Waisai, Kabupaten Raja Ampat, Papua Bar. 98482","Jl. Marinda Kelurahan Sapordanco, Waisai, Distrik Kota Waisai, Kabupaten Raja Ampat",PAPUA BARAT,98482.0,Indonesia,81230405525.0,-0.42456,130.8066071,https://maps.google.com/?cid=0x0:0xec0db53d8813cd91
perumahan,Komplek perumahan,Perumahan Kobeoser,"HRPF+C2P, Gg.Kerapu Kobeoser, Waisai, Distrik Kota Waisai, Kabupaten Raja Ampat, Papua Bar. 98482","Gg.Kerapu Kobeoser, Waisai, Distrik Kota Waisai, Kabupaten Raja Ampat",PAPUA BARAT,98482.0,Indonesia,,-0.413923,130.8225673,https://maps.google.com/?cid=0x0:0x2c828462be6d501
perumahan,Pembangunan Perumahan,Waisai,"HRGF+9W8, Waisai, Distrik Kota Waisai, Kabupaten Raja Ampat, Papua Bar. 98482","Waisai, Distrik Kota Waisai, Kabupaten Raja Ampat",PAPUA BARAT,98482.0,Indonesia,,-0.4240924,130.8248282,https://maps.google.com/?cid=0x0:0x460650901f7fec5f
perumahan,perumahan,Rumah Paternu J Bille,"HRPC+95G, Waisai, Distrik Kota Waisai, Kabupaten Raja Ampat, Papua Bar. 98482","Waisai, Distrik Kota Waisai, Kabupaten Raja Ampat",PAPUA BARAT,98482.0,Indonesia,,-0.4137328,130.8207341,https://maps.google.com/?cid=0x0:0x9a832c80555e74bb
perumahan,Kompleks Apartemen,Perum 100-Kab.Raja Ampat,"HRPG+C3X, Jl. Raya Waisai, Waisai, Distrik Kota Waisai, Kabupaten Raja Ampat, Papua Bar. 98482","Jl. Raya Waisai, Waisai, Distrik Kota Waisai, Kabupaten Raja Ampat",PAPUA BARAT,98482.0,Indonesia,,-0.4138844,130.8252492,https://maps.google.com/?cid=0x0:0x258cf21794451292
perumahan,perumahan,Rumah BARA,"Jl. Lukas Dailon, Waisai, Distrik Kota Waisai, Kabupaten Raja Ampat, Papua Bar. 98482","Waisai, Distrik Kota Waisai, Kabupaten Raja Ampat",PAPUA BARAT,98482.0,Indonesia,82199630001.0,-0.4172679,130.8227421,https://maps.google.com/?cid=0x0:0x781342e885f9b479
perumahan,Pembangunan Perumahan,RAZKOL AREA,"HRFC+P8W, Waisai, Distrik Kota Waisai, Kabupaten Raja Ampat, Papua Bar. 98482","Waisai, Distrik Kota Waisai, Kabupaten Raja Ampat",PAPUA BARAT,98482.0,Indonesia,,-0.4255487,130.8208909,https://maps.google.com/?cid=0x0:0x821ab0aa76dd6739
perumahan,Perhimpunan Pengembang Perumahan,Rumah Kel.Rahayaan,"HRPW+6P3, Waisai, Distrik Kota Waisai, Kabupaten Raja Ampat, Papua Bar. 98482","Waisai, Distrik Kota Waisai, Kabupaten Raja Ampat",PAPUA BARAT,98482.0,Indonesia,,-0.4144875,130.8467831,https://maps.google.com/?cid=0x0:0x1f792cdca7c3121a
perumahan,Perusahaan investasi properti,Perumahan mansapur,"Jalan marinda, Waisai, Distrik Kota Waisai, Kabupaten Raja Ampat, Papua Bar. 98482","Waisai, Distrik Kota Waisai, Kabupaten Raja Ampat",PAPUA BARAT,98482.0,Indonesia,82189109390.0,-0.4255695,130.8033108,https://maps.google.com/?cid=0x0:0xbb206574dd79eb2f
perumahan,Komplek perumahan,Aspol Raja Ampat,"HRQ7+M6J, Waisai, Kec. Waigeo Sel., Kabupaten Raja Ampat, Papua Bar. 98482","Waisai, Kec. Waigeo Sel., Kabupaten Raja Ampat",PAPUA BARAT,98482.0,Indonesia,,-0.4107838,130.813022,https://maps.google.com/?cid=0x0:0x75a2c26cd05d98d
perumahan,Komplek perumahan,BATAZO AREA,"HRPW+PR5, Waisai, Distrik Kota Waisai, Kabupaten Raja Ampat, Papua Bar. 98482","Waisai, Distrik Kota Waisai, Kabupaten Raja Ampat",PAPUA BARAT,98482.0,Indonesia,,-0.413232,130.847118,https://maps.google.com/?cid=0x0:0x99dc16e26c865fda
perumahan,Pembangunan Perumahan,RUMAH IBU ANI GEBE,"HRG4+5JH, Jl. Bandara Marinda, Kelurahan Sapordanco, Distrik Kota Waisai, Kabupaten Raja Ampat, Papua Bar. 98482","Jl. Bandara Marinda, Kelurahan Sapordanco, Distrik Kota Waisai, Kabupaten Raja Ampat",PAPUA BARAT,98482.0,Indonesia,,-0.424855,130.806945,https://maps.google.com/?cid=0x0:0xa3094f5dcc2e3eaf
perumahan,perumahan,Meos Mansar,"Kabupaten Raja Ampat, Papua Bar.","Kabupaten Raja Ampat, Papua Bar.",PAPUA BARAT,,Indonesia,,-0.4496057,130.583895,https://maps.google.com/?cid=0x0:0xe58d24898307b204
perumahan,Perusahaan Manajemen Properti,BESIR,"FHCM+G8, Sawinggrai, Meos Mansar, Kabupaten Raja Ampat, Papua Bar.","Kabupaten Raja Ampat, Papua Bar.",PAPUA BARAT,,Indonesia,,-0.5286951,130.583373,https://maps.google.com/?cid=0x0:0x1e0193e205a24e14
perumahan,perumahan,Mansuar Raja Ampat Bungalows,"Mansuar Island, Kabupaten Raja Ampat, Papua Bar. 98482",Kabupaten Raja Ampat,PAPUA BARAT,98482.0,Indonesia,82121000580.0,-0.5679103,130.6457805,https://maps.google.com/?cid=0x0:0xb977f47396bcdffa
perumahan,Perhimpunan Pengembang Perumahan,Yenbeser,"GMPP+V6J, Yenbeser, Pulau Gam, Yenbeser, Kec. Waigeo Sel., Kabupaten Raja Ampat, Papua Bar. 98482","Yenbeser, Pulau Gam, Yenbeser, Kec. Waigeo Sel., Kabupaten Raja Ampat",PAPUA BARAT,98482.0,Indonesia,,-0.4627783,130.6855117,https://maps.google.com/?cid=0x0:0xd7b7a613d4bbb35b
perumahan,Perhimpunan Pengembang Perumahan,Kampung Wejim Distrik Kepulauan Sembilan,"CJGJ+7WX, Yenbekwan, Meos Mansar, Kabupaten Raja Ampat, Papua Bar.","Kabupaten Raja Ampat, Papua Bar.",PAPUA BARAT,,Indonesia,,-0.5748767,130.631415,https://maps.google.com/?cid=0x0:0x8d0cbac836204c9e
perumahan,perumahan,Methos Homestay - Raja Ampat,"Kapisawar, Pulau Gam, Sawinggrai, Meos Mansar, Raja Ampat Regency, West Papua 98482","Pulau Gam, Sawinggrai, Meos Mansar, Raja Ampat Regency",PAPUA BARAT,98482.0,Indonesia,,-0.5291722,130.5729371,https://maps.google.com/?cid=0x0:0xbf33a9f61e98c3e0
perumahan,Komplek perumahan,Kor ingkur,"CJ94+JPJ, Kurkapa, Meos Mansar, Kabupaten Raja Ampat, Papua Bar.","Kabupaten Raja Ampat, Papua Bar.",PAPUA BARAT,,Indonesia,,-0.5809239,130.606756,https://maps.google.com/?cid=0x0:0xa67b1da608fdfe7f
perumahan,Pembangunan Perumahan,Home Boas Kolomsusu,"GMMJ+H52, Yenbeser, Kec. Waigeo Sel., Kabupaten Raja Ampat, Papua Bar.","Kabupaten Raja Ampat, Papua Bar.",PAPUA BARAT,,Indonesia,,-0.4661047,130.6803765,https://maps.google.com/?cid=0x0:0x2e9c61fb5f3edeb5
perumahan,perumahan,Koridek Homestay,"Pulau Gam, Yenwaoupnor, Meos Mansar, Kabupaten Raja Ampat, Papua Bar. 98482","Yenwaoupnor, Meos Mansar, Kabupaten Raja Ampat",PAPUA BARAT,98482.0,Indonesia,81387872217.0,-0.5038447,130.6636947,https://maps.google.com/?cid=0x0:0xa609ea653af9d75f
perumahan,Bandara,Bandar Udara Domine Eduard Osok (SOQ),"Dominique eduard osok, Remu Sel., Kecamatan Sorong Manoi, Kota Sorong, Papua Bar. 98416","Remu Sel., Kecamatan Sorong Manoi, Kota Sorong",PAPUA BARAT,98416.0,Indonesia,,-0.8908276,131.2910514,https://maps.google.com/?cid=0x0:0x93633104c320d952
perumahan,perumahan,Gam Bay Bungalow's,"Kapisawar, Meos Mansar, Kabupaten Raja Ampat, Papua Bar. 98482","Meos Mansar, Kabupaten Raja Ampat",PAPUA BARAT,98482.0,Indonesia,81297976658.0,-0.5188904,130.5690527,https://maps.google.com/?cid=0x0:0x5fdcdb155bcf30ff
perumahan,perumahan,Par fray homestay,"FFWW+8X4, Arborek, Meos Mansar, Kabupaten Raja Ampat, Papua Bar. 98482","Arborek, Meos Mansar, Kabupaten Raja Ampat",PAPUA BARAT,98482.0,Indonesia,81343154454.0,-0.5042349,130.4974498,https://maps.google.com/?cid=0x0:0xbd8ea2b95ac0e29b
perumahan,perumahan,Pulau Gam,"Sawinggrai, Meos Mansar, Kabupaten Raja Ampat, Papua Bar.","Kabupaten Raja Ampat, Papua Bar.",PAPUA BARAT,,Indonesia,,-0.45,130.6,https://maps.google.com/?cid=0x0:0xfc38aecd4321f8d3
perumahan,Rumah wisata,Par fay homestay,"CGM9+Q36, Arborek, Meos Mansar, Kabupaten Raja Ampat, Papua Bar. 98482","Arborek, Meos Mansar, Kabupaten Raja Ampat",PAPUA BARAT,98482.0,Indonesia,81343154454.0,-0.5655855,130.5176405,https://maps.google.com/?cid=0x0:0x479c7439c7661363
perumahan,perumahan,Distrik Misool,"Kabupaten Raja Ampat, Papua Bar.","Kabupaten Raja Ampat, Papua Bar.",PAPUA BARAT,,Indonesia,,-1.7294753,130.076264,https://maps.google.com/?cid=0x0:0xe3dfedd20bce543c
perumahan,Gedung Apartemen,Solal,"6XH8+CC2, Solal, Distrik Misool, Kabupaten Raja Ampat, Papua Bar. 98483","Solal, Distrik Misool, Kabupaten Raja Ampat",PAPUA BARAT,98483.0,Indonesia,,-1.7714959,129.9660121,https://maps.google.com/?cid=0x0:0xcfbd4c1dd8416e53
perumahan,Komplek perumahan,JUMADIL THEPU,"73CG+7GX, Atkari, Distrik Misool, Kabupaten Raja Ampat, Papua Bar. 98483","Atkari, Distrik Misool, Kabupaten Raja Ampat",PAPUA BARAT,98483.0,Indonesia,,-1.72875,130.077684,https://maps.google.com/?cid=0x0:0xf55c327f287f7076
perumahan,Pembangunan Perumahan,ATKARI,"73CG+7GX, Atkari, Distrik Misool, Kabupaten Raja Ampat, Papua Bar. 98483","Atkari, Distrik Misool, Kabupaten Raja Ampat",PAPUA BARAT,98483.0,Indonesia,,-1.7287499,130.0776841,https://maps.google.com/?cid=0x0:0xc724040b5dfc55dd
perumahan,Masjid,Kampung waigama,"5RCG+PP9, Waigama, Distrik Misool, Kabupaten Raja Ampat, Papua Bar. 98483","Waigama, Distrik Misool, Kabupaten Raja Ampat",PAPUA BARAT,98483.0,Indonesia,,-1.8283429,129.8276028,https://maps.google.com/?cid=0x0:0x3d4fb07034a6a257
perumahan,Pembangunan Perumahan,Haukep,"74PG+F4W, Lenmalas, Distrik Misool Timur, Kabupaten Raja Ampat, Papua Bar. 98483","Lenmalas, Distrik Misool Timur, Kabupaten Raja Ampat",PAPUA BARAT,98483.0,Indonesia,,-1.7137715,130.1253195,https://maps.google.com/?cid=0x0:0x95a9a04c2c84aa1b
perumahan,perumahan,Distrik Misool Barat,"Kabupaten Raja Ampat, Papua Bar.","Kabupaten Raja Ampat, Papua Bar.",PAPUA BARAT,,Indonesia,,-2.0480936,130.2709743,https://maps.google.com/?cid=0x0:0xfc668800a318e464
perumahan,Gedung Apartemen,Solal,"6XH8+CC2, Solal, Distrik Misool, Kabupaten Raja Ampat, Papua Bar. 98483","Solal, Distrik Misool, Kabupaten Raja Ampat",PAPUA BARAT,98483.0,Indonesia,,-1.7714959,129.9660121,https://maps.google.com/?cid=0x0:0xcfbd4c1dd8416e53
perumahan,Pembangunan Perumahan,Desa Biga,"X7J9+FMQ, Biga, Distrik Misool Barat, Kabupaten Raja Ampat, Papua Bar. 98483","Biga, Distrik Misool Barat, Kabupaten Raja Ampat",PAPUA BARAT,98483.0,Indonesia,,-2.0187955,130.2692483,https://maps.google.com/?cid=0x0:0x43f7d68545b7dc6c
perumahan,Balai Pertemuan Desa,Kampung Fafanlap,"285R+Q5, Fafanlap, Misool Sel., Kabupaten Raja Ampat, Papua Bar. 98483","Fafanlap, Misool Sel., Kabupaten Raja Ampat",PAPUA BARAT,98483.0,Indonesia,,-1.9893865,130.3406579,https://maps.google.com/?cid=0x0:0x92ece10c1b1e5b70
perumahan,Komplek perumahan,Kampung kayerepop,"X9CM+CHP, Kayerepop, Misool Sel., Kabupaten Raja Ampat, Papua Bar. 98483","Kayerepop, Misool Sel., Kabupaten Raja Ampat",PAPUA BARAT,98483.0,Indonesia,,-2.0288243,130.3847548,https://maps.google.com/?cid=0x0:0xbab1027ba3260fd7
perumahan,Perumahan rakyat,Raja Ampat,"28R9+5JP, Fafanlap, Misool Sel., Kabupaten Raja Ampat, Papua Bar. 98483","Fafanlap, Misool Sel., Kabupaten Raja Ampat",PAPUA BARAT,98483.0,Indonesia,,-1.959546,130.3190719,https://maps.google.com/?cid=0x0:0x4ebfc697e57e526b
perumahan,Komplek perumahan,Perumahan Kesehatan,"WC74+RCW, Dabatan, Misool Sel., Kabupaten Raja Ampat, Papua Bar. 98483","Dabatan, Misool Sel., Kabupaten Raja Ampat",PAPUA BARAT,98483.0,Indonesia,,-2.0853784,130.4060633,https://maps.google.com/?cid=0x0:0x7f3c158aaf03c251
perumahan,Komplek perumahan,Kompleks rumda,"WCR6+QQX, Yellu, Misool Sel., Kabupaten Raja Ampat, Papua Bar. 98483","Yellu, Misool Sel., Kabupaten Raja Ampat",PAPUA BARAT,98483.0,Indonesia,81354676059.0,-2.0586519,130.4118747,https://maps.google.com/?cid=0x0:0xab2c3cbade6e9750
perumahan,Pembangunan Perumahan,Perumahan,"WCR7+Q78, Yellu, Misool Sel., Kabupaten Raja Ampat, Papua Bar.","Kabupaten Raja Ampat, Papua Bar.",PAPUA BARAT,,Indonesia,,-2.0580875,130.4132031,https://maps.google.com/?cid=0x0:0xecdedfdd199521a0
perumahan,Perumahan,AFU home,"5RCG+PP9, Waigama, Distrik Misool, Kabupaten Raja Ampat, Papua Bar. 98483","Waigama, Distrik Misool, Kabupaten Raja Ampat",PAPUA BARAT,98483.0,Indonesia,,-1.8282478,129.8278632,https://maps.google.com/?cid=0x0:0xd733e5a21330612b
perumahan,Masjid,Kampung waigama,"5RCG+PP9, Waigama, Distrik Misool, Kabupaten Raja Ampat, Papua Bar. 98483","Waigama, Distrik Misool, Kabupaten Raja Ampat",PAPUA BARAT,98483.0,Indonesia,,-1.8283429,129.8276028,https://maps.google.com/?cid=0x0:0x3d4fb07034a6a257
perumahan,Pembangunan Perumahan,DILOL HARAPAN INDAH,"XCH7+FM, Harapan Jaya, Misool Sel., Kabupaten Raja Ampat, Papua Bar. 98483","Harapan Jaya, Misool Sel., Kabupaten Raja Ampat",PAPUA BARAT,98483.0,Indonesia,,-2.021309,130.4141773,https://maps.google.com/?cid=0x0:0xa0bc296de886f84
perumahan,Komplek perumahan,Usaha Jaya,"2C6C+J77, Usaha Jaya, Distrik Misool Timur, Kabupaten Raja Ampat, Papua Bar. 98483","Usaha Jaya, Distrik Misool Timur, Kabupaten Raja Ampat",PAPUA BARAT,98483.0,Indonesia,,-1.9884982,130.4203772,https://maps.google.com/?cid=0x0:0xc96a889e5e37ea1a
perumahan,Gereja,GKI PETRUS TOMOLOL,"39V8+M9J, Tomolol, Distrik Misool Timur, Kabupaten Raja Ampat, Papua Bar. 98483","Tomolol, Distrik Misool Timur, Kabupaten Raja Ampat",PAPUA BARAT,98483.0,Indonesia,,-1.9057855,130.3658832,https://maps.google.com/?cid=0x0:0xf95e80ceb2acd151
perumahan,perumahan,Misool Sel.,"Kabupaten Raja Ampat, Papua Bar.","Kabupaten Raja Ampat, Papua Bar.",PAPUA BARAT,,Indonesia,,-1.959546,130.3190719,https://maps.google.com/?cid=0x0:0x772018b3157aa95b
perumahan,Komplek perumahan,Kompleks rumda,"WCR6+QQX, Yellu, Misool Sel., Kabupaten Raja Ampat, Papua Bar. 98483","Yellu, Misool Sel., Kabupaten Raja Ampat",PAPUA BARAT,98483.0,Indonesia,81354676059.0,-2.0586519,130.4118747,https://maps.google.com/?cid=0x0:0xab2c3cbade6e9750
perumahan,Komplek perumahan,Kampung kayerepop,"X9CM+CHP, Kayerepop, Misool Sel., Kabupaten Raja Ampat, Papua Bar. 98483","Kayerepop, Misool Sel., Kabupaten Raja Ampat",PAPUA BARAT,98483.0,Indonesia,,-2.0288243,130.3847548,https://maps.google.com/?cid=0x0:0xbab1027ba3260fd7
perumahan,Pembangunan Perumahan,Perumahan,"WCR7+Q78, Yellu, Misool Sel., Kabupaten Raja Ampat, Papua Bar.","Kabupaten Raja Ampat, Papua Bar.",PAPUA BARAT,,Indonesia,,-2.0580875,130.4132031,https://maps.google.com/?cid=0x0:0xecdedfdd199521a0
perumahan,Perumahan rakyat,Raja Ampat,"28R9+5JP, Fafanlap, Misool Sel., Kabupaten Raja Ampat, Papua Bar. 98483","Fafanlap, Misool Sel., Kabupaten Raja Ampat",PAPUA BARAT,98483.0,Indonesia,,-1.959546,130.3190719,https://maps.google.com/?cid=0x0:0x4ebfc697e57e526b
perumahan,Pembangunan Perumahan,DILOL HARAPAN INDAH,"XCH7+FM, Harapan Jaya, Misool Sel., Kabupaten Raja Ampat, Papua Bar. 98483","Harapan Jaya, Misool Sel., Kabupaten Raja Ampat",PAPUA BARAT,98483.0,Indonesia,,-2.021309,130.4141773,https://maps.google.com/?cid=0x0:0xa0bc296de886f84
perumahan,Balai Pertemuan Desa,Kampung Fafanlap,"285R+Q5, Fafanlap, Misool Sel., Kabupaten Raja Ampat, Papua Bar. 98483","Fafanlap, Misool Sel., Kabupaten Raja Ampat",PAPUA BARAT,98483.0,Indonesia,,-1.9893865,130.3406579,https://maps.google.com/?cid=0x0:0x92ece10c1b1e5b70
perumahan,Perumahan rakyat,Kampung galemta,"WCHV+WVV, Kampung Galemta, Misool Sel., Kabupaten Raja Ampat, Papua Bar.","Kabupaten Raja Ampat, Papua Bar.",PAPUA BARAT,,Indonesia,,-2.0701319,130.444686,https://maps.google.com/?cid=0x0:0xadf234db2856e878
perumahan,Komplek perumahan,Usaha Jaya,"2C6C+J77, Usaha Jaya, Distrik Misool Timur, Kabupaten Raja Ampat, Papua Bar. 98483","Usaha Jaya, Distrik Misool Timur, Kabupaten Raja Ampat",PAPUA BARAT,98483.0,Indonesia,,-1.9884982,130.4203772,https://maps.google.com/?cid=0x0:0xc96a889e5e37ea1a
perumahan,Pembangunan Perumahan,Desa Biga,"X7J9+FMQ, Biga, Distrik Misool Barat, Kabupaten Raja Ampat, Papua Bar. 98483","Biga, Distrik Misool Barat, Kabupaten Raja Ampat",PAPUA BARAT,98483.0,Indonesia,,-2.0187955,130.2692483,https://maps.google.com/?cid=0x0:0x43f7d68545b7dc6c
perumahan,Komplek perumahan,Warung idil,"WCV7+4VM, Yellu, Misool Sel., Kabupaten Raja Ampat, Papua Bar.","Kabupaten Raja Ampat, Papua Bar.",PAPUA BARAT,,Indonesia,,-2.0571692,130.4146762,https://maps.google.com/?cid=0x0:0xf28a4de3c2210741
perumahan,Gereja,GKI PETRUS TOMOLOL,"39V8+M9J, Tomolol, Distrik Misool Timur, Kabupaten Raja Ampat, Papua Bar. 98483","Tomolol, Distrik Misool Timur, Kabupaten Raja Ampat",PAPUA BARAT,98483.0,Indonesia,,-1.9057855,130.3658832,https://maps.google.com/?cid=0x0:0xf95e80ceb2acd151
perumahan,Gedung Apartemen,Misol yellu,"X7HG+W4, Biga, Kabupaten Raja Ampat, Papua Bar.","Kabupaten Raja Ampat, Papua Bar.",PAPUA BARAT,,Indonesia,,-2.020151,130.275367,https://maps.google.com/?cid=0x0:0x5219f14e8b73d31a
perumahan,Rumah wisata,Lalelkai Nature Lodge Misool,"Lalelkai, Misool - Southern of, Harapan Jaya, South Misool, Raja Ampat Regency, West Papua 98483","Misool - Southern of, Harapan Jaya, South Misool, Raja Ampat Regency",PAPUA BARAT,98483.0,Indonesia,81217638893.0,-2.0380855,130.3740032,https://maps.google.com/?cid=0x0:0xc2fd5026ad01ad88
perumahan,perumahan,Distrik Misool Timur,"Kabupaten Raja Ampat, Papua Bar.","Kabupaten Raja Ampat, Papua Bar.",PAPUA BARAT,,Indonesia,,-1.7731765,130.4105659,https://maps.google.com/?cid=0x0:0x37397a27849d25ed
perumahan,Komplek perumahan,ITO Home,"889P+7GG, Audam, Distrik Misool Timur, Kabupaten Raja Ampat, Papua Bar. 98483","Audam, Distrik Misool Timur, Kabupaten Raja Ampat",PAPUA BARAT,98483.0,Indonesia,,-1.6818223,130.3363359,https://maps.google.com/?cid=0x0:0x91c6f5d4a35917ad
perumahan,Pembangunan Perumahan,Desa Audam,"889P+6J, Lenmalas, Distrik Misool Timur, Kabupaten Raja Ampat, Papua Bar.","Kabupaten Raja Ampat, Papua Bar.",PAPUA BARAT,,Indonesia,,-1.6819467,130.3365982,https://maps.google.com/?cid=0x0:0xd0ecb17eedd8311d
perumahan,Gereja,GKI PETRUS TOMOLOL,"39V8+M9J, Tomolol, Distrik Misool Timur, Kabupaten Raja Ampat, Papua Bar. 98483","Tomolol, Distrik Misool Timur, Kabupaten Raja Ampat",PAPUA BARAT,98483.0,Indonesia,,-1.9057855,130.3658832,https://maps.google.com/?cid=0x0:0xf95e80ceb2acd151
perumahan,Komplek perumahan,Usaha Jaya,"2C6C+J77, Usaha Jaya, Distrik Misool Timur, Kabupaten Raja Ampat, Papua Bar. 98483","Usaha Jaya, Distrik Misool Timur, Kabupaten Raja Ampat",PAPUA BARAT,98483.0,Indonesia,,-1.9884982,130.4203772,https://maps.google.com/?cid=0x0:0xc96a889e5e37ea1a
perumahan,Pembangunan Perumahan,SD Pola Asrama,"6CM3+3J3, Folley, Distrik Misool Timur, Kabupaten Raja Ampat, Papua Bar. 98483","Folley, Distrik Misool Timur, Kabupaten Raja Ampat",PAPUA BARAT,98483.0,Indonesia,,-1.7673524,130.4040561,https://maps.google.com/?cid=0x0:0xe562bdadb349bb78
perumahan,Komplek perumahan,Kampung kayerepop,"X9CM+CHP, Kayerepop, Misool Sel., Kabupaten Raja Ampat, Papua Bar. 98483","Kayerepop, Misool Sel., Kabupaten Raja Ampat",PAPUA BARAT,98483.0,Indonesia,,-2.0288243,130.3847548,https://maps.google.com/?cid=0x0:0xbab1027ba3260fd7
perumahan,Pembangunan Perumahan,ATKARI,"73CG+7GX, Atkari, Distrik Misool, Kabupaten Raja Ampat, Papua Bar. 98483","Atkari, Distrik Misool, Kabupaten Raja Ampat",PAPUA BARAT,98483.0,Indonesia,,-1.7287499,130.0776841,https://maps.google.com/?cid=0x0:0xc724040b5dfc55dd
perumahan,Komplek perumahan,JUMADIL THEPU,"73CG+7GX, Atkari, Distrik Misool, Kabupaten Raja Ampat, Papua Bar. 98483","Atkari, Distrik Misool, Kabupaten Raja Ampat",PAPUA BARAT,98483.0,Indonesia,,-1.72875,130.077684,https://maps.google.com/?cid=0x0:0xf55c327f287f7076
perumahan,Pembangunan Perumahan,Haukep,"74PG+F4W, Lenmalas, Distrik Misool Timur, Kabupaten Raja Ampat, Papua Bar. 98483","Lenmalas, Distrik Misool Timur, Kabupaten Raja Ampat",PAPUA BARAT,98483.0,Indonesia,,-1.7137715,130.1253195,https://maps.google.com/?cid=0x0:0x95a9a04c2c84aa1b
perumahan,Komplek perumahan,Kompleks rumda,"WCR6+QQX, Yellu, Misool Sel., Kabupaten Raja Ampat, Papua Bar. 98483","Yellu, Misool Sel., Kabupaten Raja Ampat",PAPUA BARAT,98483.0,Indonesia,81354676059.0,-2.0586519,130.4118747,https://maps.google.com/?cid=0x0:0xab2c3cbade6e9750
perumahan,Pembangunan Perumahan,DILOL HARAPAN INDAH,"XCH7+FM, Harapan Jaya, Misool Sel., Kabupaten Raja Ampat, Papua Bar. 98483","Harapan Jaya, Misool Sel., Kabupaten Raja Ampat",PAPUA BARAT,98483.0,Indonesia,,-2.021309,130.4141773,https://maps.google.com/?cid=0x0:0xa0bc296de886f84
perumahan,Perumahan rakyat,Raja Ampat,"28R9+5JP, Fafanlap, Misool Sel., Kabupaten Raja Ampat, Papua Bar. 98483","Fafanlap, Misool Sel., Kabupaten Raja Ampat",PAPUA BARAT,98483.0,Indonesia,,-1.959546,130.3190719,https://maps.google.com/?cid=0x0:0x4ebfc697e57e526b
perumahan,Balai Pertemuan Desa,Kampung Fafanlap,"285R+Q5, Fafanlap, Misool Sel., Kabupaten Raja Ampat, Papua Bar. 98483","Fafanlap, Misool Sel., Kabupaten Raja Ampat",PAPUA BARAT,98483.0,Indonesia,,-1.9893865,130.3406579,https://maps.google.com/?cid=0x0:0x92ece10c1b1e5b70
perumahan,Kantor Pemerintah Distrik,Kampung weibon,"3Q95+HX9, Distrik Salawati Barat, Kabupaten Raja Ampat, Papua Bar.","Kabupaten Raja Ampat, Papua Bar.",PAPUA BARAT,,Indonesia,,-0.9310832,130.75997,https://maps.google.com/?cid=0x0:0x57d09b5ce1fd603f
perumahan,perumahan,Distrik Salawati Barat,"Kabupaten Raja Ampat, Papua Bar.","Kabupaten Raja Ampat, Papua Bar.",PAPUA BARAT,,Indonesia,,-1.0980561,130.7040528,https://maps.google.com/?cid=0x0:0x6c8554c61c1a5f51
perumahan,Pembangunan Perumahan,KAMPUNG DUBER,"XWFX+WH, Duber, Kec. Salawati Utara, Kabupaten Raja Ampat, Papua Bar.","Kabupaten Raja Ampat, Papua Bar.",PAPUA BARAT,,Indonesia,,-1.0251875,130.9489375,https://maps.google.com/?cid=0x0:0x88409a1d97939bf0
perumahan,Pembangunan Perumahan,Kampung dulbatan,"RQ68+GJF, Dulbatan, Kec. Salawati Sel., Kabupaten Sorong, Papua Bar. 98452","Dulbatan, Kec. Salawati Sel., Kabupaten Sorong",PAPUA BARAT,98452.0,Indonesia,,-1.1886812,130.7665315,https://maps.google.com/?cid=0x0:0x4f660da985bd03f8
perumahan,Pembangunan Perumahan,WAZZABI,"PJQ4+6Q, Dulbatan, Kec. Salawati Sel., Kabupaten Sorong, Papua Bar.","Kabupaten Sorong, Papua Bar.",PAPUA BARAT,,Indonesia,,-1.261963,130.606904,https://maps.google.com/?cid=0x0:0x38c14b8b6da1e115
perumahan,Pembangunan Perumahan,Kampung yenanas,"5V6R+69C, Yenanas, Selat Sagawin, Kabupaten Raja Ampat, Papua Bar. 98484","Yenanas, Selat Sagawin, Kabupaten Raja Ampat",PAPUA BARAT,98484.0,Indonesia,,-0.8394452,130.8908977,https://maps.google.com/?cid=0x0:0x6c0adc570f6c52ff
perumahan,perumahan,Salawati Tengah,"Kabupaten Raja Ampat, Papua Bar.","Kabupaten Raja Ampat, Papua Bar.",PAPUA BARAT,,Indonesia,,-1.0547794,131.0589536,https://maps.google.com/?cid=0x0:0x9e15ae7888c4541f
perumahan,Kompleks Apartemen,Rumah ridwan,"X3F7+9RQ, Kalobo, Salawati Tengah, Kabupaten Raja Ampat, Papua Bar. 98484","Kalobo, Salawati Tengah, Kabupaten Raja Ampat",PAPUA BARAT,98484.0,Indonesia,,-1.0265315,131.0646026,https://maps.google.com/?cid=0x0:0x1dc8d030dea24a6b
perumahan,Pembangunan Perumahan,PERUMAHAN GRAND SALAWATI,"V769+P27, Majener, Kec. Salawati, Kabupaten Sorong, Papua Bar. 98451","Majener, Kec. Salawati, Kabupaten Sorong",PAPUA BARAT,98451.0,Indonesia,,-1.1382013,131.2675405,https://maps.google.com/?cid=0x0:0x72f904ee3d5feb68
perumahan,Komplek perumahan,Perumahan Arafuru,"V792+P4H, Unnamed Road, Majener, Kec. Salawati, Kabupaten Sorong, Papua Bar. 98451","Unnamed Road, Majener, Kec. Salawati, Kabupaten Sorong",PAPUA BARAT,98451.0,Indonesia,,-1.1306824,131.2503736,https://maps.google.com/?cid=0x0:0x481f6d3ac763efa5
perumahan,Balai masyarakat,waijan,"X2QM+PW, Waijan, Salawati Tengah, Kabupaten Raja Ampat, Papua Bar. 98484","Waijan, Salawati Tengah, Kabupaten Raja Ampat",PAPUA BARAT,98484.0,Indonesia,,-1.0106476,131.0347723,https://maps.google.com/?cid=0x0:0xf2e423c76b27b6ce
perumahan,Komplek perumahan,PERUMAHAN BAHARI RESIDENCE,"V7GH+C4, Majaran, Kec. Salawati, Kabupaten Sorong, Papua Bar. 98451","Majaran, Kec. Salawati, Kabupaten Sorong",PAPUA BARAT,98451.0,Indonesia,,-1.1220287,131.2786932,https://maps.google.com/?cid=0x0:0x4bd2e476bd2532ac
perumahan,Kantor Perusahaan,Kampung SAMATE,"23MC+63, Samate, Kec. Salawati Utara, Kabupaten Raja Ampat, Papua Bar.","Kabupaten Raja Ampat, Papua Bar.",PAPUA BARAT,,Indonesia,,-0.9668985,131.0709802,https://maps.google.com/?cid=0x0:0xd8810a6287739199
perumahan,Kompleks Apartemen,Andi Arfan Residence,"W3X6+QG, Waibo, Salawati Tengah, Kabupaten Raja Ampat, Papua Bar.","Kabupaten Raja Ampat, Papua Bar.",PAPUA BARAT,,Indonesia,,-1.0505245,131.0612703,https://maps.google.com/?cid=0x0:0xf06724bed0ece937
perumahan,Komplek perumahan,Rumah,"V7GC+H66, Majaran, Kec. Salawati, Kabupaten Sorong, Papua Bar. 98451","Majaran, Kec. Salawati, Kabupaten Sorong",PAPUA BARAT,98451.0,Indonesia,,-1.123728,131.270521,https://maps.google.com/?cid=0x0:0xbbfa1c1e0fc6de1d
perumahan,Komplek perumahan,Kapatlap,"3382+V62, Kapatlap, Kec. Salawati Utara, Kabupaten Raja Ampat, Papua Bar. 98484","Kapatlap, Kec. Salawati Utara, Kabupaten Raja Ampat",PAPUA BARAT,98484.0,Indonesia,,-0.932872,131.0505223,https://maps.google.com/?cid=0x0:0x66019cd2d3e99a52
perumahan,Pembangunan Perumahan,KAMPUNG DUBER,"XWFX+WH, Duber, Kec. Salawati Utara, Kabupaten Raja Ampat, Papua Bar.","Kabupaten Raja Ampat, Papua Bar.",PAPUA BARAT,,Indonesia,,-1.0251875,130.9489375,https://maps.google.com/?cid=0x0:0x88409a1d97939bf0
perumahan,perumahan,PENGINAPAN TERSANJUNG,"W3XG+845, Sakabu, Salawati Tengah, Kabupaten Raja Ampat, Papua Bar. 98484","Sakabu, Salawati Tengah, Kabupaten Raja Ampat",PAPUA BARAT,98484.0,Indonesia,,-1.0520193,131.0755416,https://maps.google.com/?cid=0x0:0xa48f8ce269cf90a6
perumahan,Komplek perumahan,Rumah masa kecil,"W3V3+HR6, Waibo, Salawati Tengah, Kabupaten Raja Ampat, Papua Bar. 98484","Waibo, Salawati Tengah, Kabupaten Raja Ampat",PAPUA BARAT,98484.0,Indonesia,,-1.0560898,131.0545108,https://maps.google.com/?cid=0x0:0x322ec6f50740892
perumahan,Pusat Pendidikan,Rumah Belajar Kitorang,"Jalan Abdulah Arfan, Samate, Kec. Salawati Utara, Kabupaten Raja Ampat, Papua Bar. 98484","Samate, Kec. Salawati Utara, Kabupaten Raja Ampat",PAPUA BARAT,98484.0,Indonesia,81327565131.0,-0.9671406,131.0713509,https://maps.google.com/?cid=0x0:0x4486015658c60f21
perumahan,Kantor Perusahaan,Kampung SAMATE,"23MC+63, Samate, Kec. Salawati Utara, Kabupaten Raja Ampat, Papua Bar.","Kabupaten Raja Ampat, Papua Bar.",PAPUA BARAT,,Indonesia,,-0.9668985,131.0709802,https://maps.google.com/?cid=0x0:0xd8810a6287739199
perumahan,perumahan,Pulau Salawati,"Kapatlap, Kec. Salawati Utara, Kabupaten Raja Ampat, Papua Bar.","Kabupaten Raja Ampat, Papua Bar.",PAPUA BARAT,,Indonesia,,-1.1166667,130.8666667,https://maps.google.com/?cid=0x0:0x3403a680ccd12b11
perumahan,Komplek perumahan,Kantor Desa Samate,"23JC+FRG, Unnamed Road, Samate, Salawati Utara, Raja Ampat Regency, West Papua 98484","Unnamed Road, Samate, Salawati Utara, Raja Ampat Regency",PAPUA BARAT,98484.0,Indonesia,,-0.968825,131.0720667,https://maps.google.com/?cid=0x0:0xec95e249042b0c27
perumahan,perumahan,Kec. Salawati Utara,"Kabupaten Raja Ampat, Papua Bar.","Kabupaten Raja Ampat, Papua Bar.",PAPUA BARAT,,Indonesia,,-0.9331378,131.0507976,https://maps.google.com/?cid=0x0:0xb2f63efc0009064f
perumahan,Pusat Pendidikan,Rumah Belajar Kitorang,"Jalan Abdulah Arfan, Samate, Kec. Salawati Utara, Kabupaten Raja Ampat, Papua Bar. 98484","Samate, Kec. Salawati Utara, Kabupaten Raja Ampat",PAPUA BARAT,98484.0,Indonesia,81327565131.0,-0.9671406,131.0713509,https://maps.google.com/?cid=0x0:0x4486015658c60f21
perumahan,Komplek perumahan,Kampung GO,"WMC7+FR, GO, Distrik Tiplol Mayalibit, Kabupaten Raja Ampat, Papua Bar.","Kabupaten Raja Ampat, Papua Bar.",PAPUA BARAT,,Indonesia,,-0.0787902,130.6647357,https://maps.google.com/?cid=0x0:0xdb864b8b77569429
perumahan,perumahan,Supnin,"Kabupaten Raja Ampat, Papua Bar.","Kabupaten Raja Ampat, Papua Bar.",PAPUA BARAT,,Indonesia,,-0.0707044,130.7766611,https://maps.google.com/?cid=0x0:0x460c1dbebeaa6e11
perumahan,Perhimpunan Pengembang Perumahan,KAMPUNG KAPADIRI,"WPPW+GGJ, Kapadiri, Supnin, Kabupaten Raja Ampat, Papua Bar. 98482","Kapadiri, Supnin, Kabupaten Raja Ampat",PAPUA BARAT,98482.0,Indonesia,,-0.0636553,130.7462671,https://maps.google.com/?cid=0x0:0x7d70a2dcd5dcef00
perumahan,Komplek perumahan,Hilarius burdam,"XWFX+RG5, Rauki, Distrik Waigeo Utara, Kabupaten Raja Ampat, Papua Bar. 98481","Rauki, Distrik Waigeo Utara, Kabupaten Raja Ampat",PAPUA BARAT,98481.0,Indonesia,,-0.0254971,130.9488589,https://maps.google.com/?cid=0x0:0x4665bcf69e132c35
perumahan,Pembangunan Perumahan,Raja Ampat Utara,"WPMM+XXJ, Kapadiri, Supnin, Kabupaten Raja Ampat, Papua Bar.","Kabupaten Raja Ampat, Papua Bar.",PAPUA BARAT,,Indonesia,,-0.06503,130.734894,https://maps.google.com/?cid=0x0:0x9f22d0ab530dbd98
perumahan,Komplek perumahan,AREND BURDAM,"XWFW+98, Rauki, Supnin, Kabupaten Raja Ampat, Papua Bar.","Kabupaten Raja Ampat, Papua Bar.",PAPUA BARAT,,Indonesia,,-0.0265371,130.9457817,https://maps.google.com/?cid=0x0:0x61d5cca07dc4e5bb
perumahan,Rumah wisata,Saupon Mangrove Homestay,"VPQC+WGX, Waifoi, Distrik Tiplol Mayalibit, Kabupaten Raja Ampat, Papua Bar. 98482","Waifoi, Distrik Tiplol Mayalibit, Kabupaten Raja Ampat",PAPUA BARAT,98482.0,Indonesia,82198355771.0,-0.1101405,130.721375,https://maps.google.com/?cid=0x0:0xd3533bbf3e574d41
perumahan,perumahan,Kuburan jokowi,"QGR3+M3, Araway, Distrik Tiplol Mayalibit, Kabupaten Raja Ampat, Papua Bar.","Kabupaten Raja Ampat, Papua Bar.",PAPUA BARAT,,Indonesia,,-0.2083669,130.5026959,https://maps.google.com/?cid=0x0:0x3aa0d7d856bc340
perumahan,Komplek perumahan,Kampung Beo,"VM7H+8M5, Beo, Distrik Tiplol Mayalibit, Kabupaten Raja Ampat, Papua Bar. 98482","Beo, Distrik Tiplol Mayalibit, Kabupaten Raja Ampat",PAPUA BARAT,98482.0,Indonesia,,-0.1364955,130.6805706,https://maps.google.com/?cid=0x0:0x231b4b9e0889c0a
perumahan,perumahan,Kec. Tlk. Mayalibit,"Kabupaten Raja Ampat, Papua Bar.","Kabupaten Raja Ampat, Papua Bar.",PAPUA BARAT,,Indonesia,,-0.2689344,130.9384914,https://maps.google.com/?cid=0x0:0xae388a762cdfd0ec
perumahan,perumahan,Rumah Paternu J Bille,"HRPC+95G, Waisai, Distrik Kota Waisai, Kabupaten Raja Ampat, Papua Bar. 98482","Waisai, Distrik Kota Waisai, Kabupaten Raja Ampat",PAPUA BARAT,98482.0,Indonesia,,-0.4137328,130.8207341,https://maps.google.com/?cid=0x0:0x9a832c80555e74bb
perumahan,Guest house,"GUEST HOUSE WEMALAU""""","MWXH+6X9, Warsamdim, Kec. Tlk. Mayalibit, Kabupaten Raja Ampat, Papua Bar. 98482","Warsamdim, Kec. Tlk. Mayalibit, Kabupaten Raja Ampat",PAPUA BARAT,98482.0,Indonesia,,-0.301958,130.9299949,https://maps.google.com/?cid=0x0:0x75934ab090f5a19d
perumahan,Komplek perumahan,Gurabesi,"MX27+WH, Mumes, Kec. Tlk. Mayalibit, Kabupaten Raja Ampat, Papua Bar.","Kabupaten Raja Ampat, Papua Bar.",PAPUA BARAT,,Indonesia,,-0.3477295,130.9639765,https://maps.google.com/?cid=0x0:0x787ff6e9d53215fa
perumahan,Tujuan Wisata,Pos Air terjun Warmayau (Warmayau Waterfall Post),"MWJ9+6Q5, Warsamdim, Kec. Tlk. Mayalibit, Kabupaten Raja Ampat, Papua Bar. 98482","Warsamdim, Kec. Tlk. Mayalibit, Kabupaten Raja Ampat",PAPUA BARAT,98482.0,Indonesia,,-0.3194789,130.9194984,https://maps.google.com/?cid=0x0:0xf9e51468aa50a67e
perumahan,Otoritas Perumahan,Perumahan Moko,"HVP4+JR8, Unnamed Road, Waisai, Raja Ampat Regency, West Papua 98482","Unnamed Road, Waisai, Raja Ampat Regency",PAPUA BARAT,98482.0,Indonesia,,-0.4134609,130.8570794,https://maps.google.com/?cid=0x0:0x72ba6eacff7b4489
perumahan,perumahan,Rumah BARA,"Jl. Lukas Dailon, Waisai, Distrik Kota Waisai, Kabupaten Raja Ampat, Papua Bar. 98482","Waisai, Distrik Kota Waisai, Kabupaten Raja Ampat",PAPUA BARAT,98482.0,Indonesia,82199630001.0,-0.4172679,130.8227421,https://maps.google.com/?cid=0x0:0x781342e885f9b479
perumahan,Komplek perumahan,Kampung Mumes,"MX27+75, Mumes, Kabupaten Raja Ampat, Papua Bar.","Kabupaten Raja Ampat, Papua Bar.",PAPUA BARAT,,Indonesia,,-0.3493435,130.9629341,https://maps.google.com/?cid=0x0:0xf51f9dea127541ba
perumahan,Komplek perumahan,Kampung GO,"WMC7+FR, GO, Distrik Tiplol Mayalibit, Kabupaten Raja Ampat, Papua Bar.","Kabupaten Raja Ampat, Papua Bar.",PAPUA BARAT,,Indonesia,,-0.0787902,130.6647357,https://maps.google.com/?cid=0x0:0xdb864b8b77569429
perumahan,perumahan,LBG,"HRM9+JH2, Waisai, Distrik Kota Waisai, Kabupaten Raja Ampat, Papua Bar. 98482","Waisai, Distrik Kota Waisai, Kabupaten Raja Ampat",PAPUA BARAT,98482.0,Indonesia,,-0.4159848,130.8188949,https://maps.google.com/?cid=0x0:0x2cfe42bf5f39fa5d
perumahan,Komplek perumahan,Perumahan 100 Elit,"HRPC+WF8, Waisai, Kec. Waigeo Sel., Kabupaten Raja Ampat, Papua Bar. 98482","Waisai, Kec. Waigeo Sel., Kabupaten Raja Ampat",PAPUA BARAT,98482.0,Indonesia,81344612400.0,-0.412723,130.8212062,https://maps.google.com/?cid=0x0:0xf162a66ed567e14c
perumahan,Perhimpunan Pengembang Perumahan,Rumah MARINUS GAMSO,"PM3G+WW, Wawiyai, Kabupaten Raja Ampat, Papua Bar.","Kabupaten Raja Ampat, Papua Bar.",PAPUA BARAT,,Indonesia,,-0.29522,130.67726,https://maps.google.com/?cid=0x0:0x221655b342b93cde
perumahan,Komplek perumahan,Kampung Beo,"VM7H+8M5, Beo, Distrik Tiplol Mayalibit, Kabupaten Raja Ampat, Papua Bar. 98482","Beo, Distrik Tiplol Mayalibit, Kabupaten Raja Ampat",PAPUA BARAT,98482.0,Indonesia,,-0.1364955,130.6805706,https://maps.google.com/?cid=0x0:0x231b4b9e0889c0a
perumahan,Komplek perumahan,Aspol Raja Ampat,"HRQ7+M6J, Waisai, Kec. Waigeo Sel., Kabupaten Raja Ampat, Papua Bar. 98482","Waisai, Kec. Waigeo Sel., Kabupaten Raja Ampat",PAPUA BARAT,98482.0,Indonesia,,-0.4107838,130.813022,https://maps.google.com/?cid=0x0:0x75a2c26cd05d98d
perumahan,perumahan,Distrik Tiplol Mayalibit,"Kabupaten Raja Ampat, Papua Bar.","Kabupaten Raja Ampat, Papua Bar.",PAPUA BARAT,,Indonesia,,-0.078691,130.6642772,https://maps.google.com/?cid=0x0:0xd2fca4629b110358
perumahan,Komplek perumahan,Kampung GO,"WMC7+FR, GO, Distrik Tiplol Mayalibit, Kabupaten Raja Ampat, Papua Bar.","Kabupaten Raja Ampat, Papua Bar.",PAPUA BARAT,,Indonesia,,-0.0787902,130.6647357,https://maps.google.com/?cid=0x0:0xdb864b8b77569429
perumahan,perumahan,Kuburan jokowi,"QGR3+M3, Araway, Distrik Tiplol Mayalibit, Kabupaten Raja Ampat, Papua Bar.","Kabupaten Raja Ampat, Papua Bar.",PAPUA BARAT,,Indonesia,,-0.2083669,130.5026959,https://maps.google.com/?cid=0x0:0x3aa0d7d856bc340
perumahan,Komplek perumahan,Kampung Waifoi,"WP27+285, Waifoi, Distrik Tiplol Mayalibit, Kabupaten Raja Ampat, Papua Bar.","Kabupaten Raja Ampat, Papua Bar.",PAPUA BARAT,,Indonesia,81288863768.0,-0.100075,130.7142361,https://maps.google.com/?cid=0x0:0x7f9dd7111497f8ad
perumahan,Komplek perumahan,Kampung Arawai,"VJ2H+242, Araway, Distrik Tiplol Mayalibit, Kabupaten Raja Ampat, Papua Bar.","Kabupaten Raja Ampat, Papua Bar.",PAPUA BARAT,,Indonesia,,-0.149995,130.627775,https://maps.google.com/?cid=0x0:0xe43f9836d862e3c5
perumahan,perumahan,Laensorongga Homestay,"VPGV+228, Warimak, Distrik Tiplol Mayalibit, Kabupaten Raja Ampat, Papua Bar. 98482","Warimak, Distrik Tiplol Mayalibit, Kabupaten Raja Ampat",PAPUA BARAT,98482.0,Indonesia,81240125590.0,-0.124957,130.742591,https://maps.google.com/?cid=0x0:0xc4acdc87a91a6271
perumahan,Bandara,Bandar Udara Domine Eduard Osok (SOQ),"Dominique eduard osok, Remu Sel., Kecamatan Sorong Manoi, Kota Sorong, Papua Bar. 98416","Remu Sel., Kecamatan Sorong Manoi, Kota Sorong",PAPUA BARAT,98416.0,Indonesia,,-0.8908276,131.2910514,https://maps.google.com/?cid=0x0:0x93633104c320d952
perumahan,perumahan,Febrianto Homestay,"WP2C+H5, Waifoi, Distrik Tiplol Mayalibit, Kabupaten Raja Ampat, Papua Bar.","Kabupaten Raja Ampat, Papua Bar.",PAPUA BARAT,,Indonesia,81359810139.0,-0.0982955,130.7202428,https://maps.google.com/?cid=0x0:0xd432556b0d847b88
perumahan,Perhimpunan Pengembang Perumahan,Rumah Pribadi,"Wawiyai, Kec. Waigeo Sel., Kabupaten Raja Ampat, Papua Bar. 98482","Kec. Waigeo Sel., Kabupaten Raja Ampat",PAPUA BARAT,98482.0,Indonesia,,-0.2915581,130.6448378,https://maps.google.com/?cid=0x0:0xf9303c97d61d8ba4
perumahan,Rumah wisata,Saupon Mangrove Homestay,"VPQC+WGX, Waifoi, Distrik Tiplol Mayalibit, Kabupaten Raja Ampat, Papua Bar. 98482","Waifoi, Distrik Tiplol Mayalibit, Kabupaten Raja Ampat",PAPUA BARAT,98482.0,Indonesia,82198355771.0,-0.1101405,130.721375,https://maps.google.com/?cid=0x0:0xd3533bbf3e574d41
perumahan,perumahan,Kamtabai Forest Hut,"VPXC+V2P, Waifoi, Distrik Tiplol Mayalibit, Kabupaten Raja Ampat, Papua Bar. 98482","Waifoi, Distrik Tiplol Mayalibit, Kabupaten Raja Ampat",PAPUA BARAT,98482.0,Indonesia,81288863768.0,-0.100293,130.720072,https://maps.google.com/?cid=0x0:0xc5e84030fb528efb
perumahan,Pusat Kesehatan Masyarakat,Puskesmas waifoi,"VPX7+Q92, Waifoi, Distrik Tiplol Mayalibit, Kabupaten Raja Ampat, Papua Bar.","Kabupaten Raja Ampat, Papua Bar.",PAPUA BARAT,,Indonesia,,-0.10061,130.71338,https://maps.google.com/?cid=0x0:0xdfc92c43d5816ef5
perumahan,Perhimpunan Pengembang Perumahan,Rumah ELISA KAPATSAI,"PM4C+3V, Wawiyai, Kec. Waigeo Sel., Kabupaten Raja Ampat, Papua Bar.","Kabupaten Raja Ampat, Papua Bar.",PAPUA BARAT,,Indonesia,,-0.29487,130.67217,https://maps.google.com/?cid=0x0:0xb714f28452764d0c
perumahan,Perhimpunan Pengembang Perumahan,Rumah Markus Dawa,"MMX8+X8, Wawiyai, Kec. Waigeo Sel., Kabupaten Raja Ampat, Papua Bar.","Kabupaten Raja Ampat, Papua Bar.",PAPUA BARAT,,Indonesia,,-0.30002,130.66585,https://maps.google.com/?cid=0x0:0x49a1a481c66eaf48
perumahan,perumahan,Kec. Waigeo Bar.,"Kabupaten Raja Ampat, Papua Bar.","Kabupaten Raja Ampat, Papua Bar.",PAPUA BARAT,,Indonesia,,-0.1565367,130.4516329,https://maps.google.com/?cid=0x0:0xa968725bc286475b
perumahan,perumahan,Kamar Raja Bungalow,"Selpele, Pulau Waigeo, Raja Ampat, Selpele, Waigeo Barat, West Waigeo, West Papua 98481","Pulau Waigeo, Raja Ampat, Selpele, Waigeo Barat, West Waigeo",PAPUA BARAT,98481.0,Indonesia,82198841111.0,-0.2231107,130.2435609,https://maps.google.com/?cid=0x0:0x6538ffc64457ee0d
perumahan,perumahan,Pulau Wofoh,,,PAPUA BARAT,,Indonesia,,-0.25,130.2833333,https://maps.google.com/?cid=0x0:0x404e3290dce8d76c
perumahan,Komplek perumahan,Ombar pu rumah,"P9W6+H58, Waisilip, Kec. Waigeo Bar., Kabupaten Raja Ampat, Papua Bar. 98481","Waisilip, Kec. Waigeo Bar., Kabupaten Raja Ampat",PAPUA BARAT,98481.0,Indonesia,,-0.2533291,130.3606163,https://maps.google.com/?cid=0x0:0xb662950d5e351227
perumahan,Komplek perumahan,Rumah Theo Mambrasar,"P9V6+XP, Waisilip, Kec. Waigeo Bar., Kabupaten Raja Ampat, Papua Bar.","Kabupaten Raja Ampat, Papua Bar.",PAPUA BARAT,,Indonesia,,-0.2545032,130.3630544,https://maps.google.com/?cid=0x0:0x49d3fb98d3f622
perumahan,perumahan,Camp kelapa,"R764+PRJ, Alyui, Kec. Waigeo Bar., Kabupaten Raja Ampat, Papua Bar.","Kabupaten Raja Ampat, Papua Bar.",PAPUA BARAT,,Indonesia,,-0.1881717,130.2570088,https://maps.google.com/?cid=0x0:0xa1af18d130f8dc77
perumahan,Komplek perumahan,Wiwik Bianci,"M9P6+JFF, Bianci, Kec. Waigeo Bar., Kabupaten Raja Ampat, Papua Bar.","Kabupaten Raja Ampat, Papua Bar.",PAPUA BARAT,,Indonesia,,-0.313434,130.3611669,https://maps.google.com/?cid=0x0:0x11353445920e5340
perumahan,Taman Nasional,Pos Wayag Raja Ampat,"5336+J28, Pulau Wajag, Selpele, Kec. Waigeo Bar., Kabupaten Raja Ampat, Papua Bar. 98481","Pulau Wajag, Selpele, Kec. Waigeo Bar., Kabupaten Raja Ampat",PAPUA BARAT,98481.0,Indonesia,,0.1540381,130.0600717,https://maps.google.com/?cid=0x0:0xf0fcaeeb5a6e962c
perumahan,Komplek perumahan,Rumah NS Kenangan Novita,"P9V6+XP, Waisilip, Kec. Waigeo Bar., Kabupaten Raja Ampat, Papua Bar.","Kabupaten Raja Ampat, Papua Bar.",PAPUA BARAT,,Indonesia,,-0.2543742,130.3623208,https://maps.google.com/?cid=0x0:0x6e2b490eddd6de1d
perumahan,perumahan,Rumah tempat tinggal,"M689+X6, Manyaifun, Distrik Waigeo Barat Kepulauan, Kabupaten Raja Ampat, Papua Bar.","Kabupaten Raja Ampat, Papua Bar.",PAPUA BARAT,,Indonesia,,-0.3323177,130.219204,https://maps.google.com/?cid=0x0:0xeb536ccdf00d29f1
perumahan,Komplek perumahan,Kantor desa gambir,"HV3H+59Q, Gag, Kec. Waigeo Bar., Kabupaten Raja Ampat, Papua Bar. 98481","Gag, Kec. Waigeo Bar., Kabupaten Raja Ampat",PAPUA BARAT,98481.0,Indonesia,,-0.4470478,129.8784831,https://maps.google.com/?cid=0x0:0x19eb4a876a3ff721
perumahan,perumahan,Kuburan jokowi,"QGR3+M3, Araway, Distrik Tiplol Mayalibit, Kabupaten Raja Ampat, Papua Bar.","Kabupaten Raja Ampat, Papua Bar.",PAPUA BARAT,,Indonesia,,-0.2083669,130.5026959,https://maps.google.com/?cid=0x0:0x3aa0d7d856bc340
perumahan,perumahan,Kampung Baru,"JV2Q+82, Gag, Distrik Waigeo Barat Kepulauan, Kabupaten Raja Ampat, Papua Bar.","Kabupaten Raja Ampat, Papua Bar.",PAPUA BARAT,,Indonesia,,-0.3991982,129.8876334,https://maps.google.com/?cid=0x0:0xfb704d2aa5625816
perumahan,Guest house,Wallo Island,"R7P7+J3, Selpele, Kabupaten Raja Ampat, Papua Bar.","Kabupaten Raja Ampat, Papua Bar.",PAPUA BARAT,,Indonesia,,-0.1591027,130.2603985,https://maps.google.com/?cid=0x0:0xc48994479c73b2ae
perumahan,perumahan,Kampung Baru,"JV2Q+82, Gag, Distrik Waigeo Barat Kepulauan, Kabupaten Raja Ampat, Papua Bar.","Kabupaten Raja Ampat, Papua Bar.",PAPUA BARAT,,Indonesia,,-0.3991982,129.8876334,https://maps.google.com/?cid=0x0:0xfb704d2aa5625816
perumahan,perumahan,Distrik Waigeo Barat Kepulauan,"Kabupaten Raja Ampat, Papua Bar.","Kabupaten Raja Ampat, Papua Bar.",PAPUA BARAT,,Indonesia,,-0.3990489,129.8878154,https://maps.google.com/?cid=0x0:0x2f9f2f03d60aa281
perumahan,Komplek perumahan,Kantor desa gambir,"HV3H+59Q, Gag, Kec. Waigeo Bar., Kabupaten Raja Ampat, Papua Bar. 98481","Gag, Kec. Waigeo Bar., Kabupaten Raja Ampat",PAPUA BARAT,98481.0,Indonesia,,-0.4470478,129.8784831,https://maps.google.com/?cid=0x0:0x19eb4a876a3ff721
perumahan,Komplek perumahan,Rumah Bais,"HW73+54, Gag, Distrik Waigeo Barat Kepulauan, Kabupaten Raja Ampat, Papua Bar. 98481","Gag, Distrik Waigeo Barat Kepulauan, Kabupaten Raja Ampat",PAPUA BARAT,98481.0,Indonesia,,-0.4371231,129.902854,https://maps.google.com/?cid=0x0:0x1f0de196240e82ab
perumahan,perumahan,Kamar Raja Bungalow,"Selpele, Pulau Waigeo, Raja Ampat, Selpele, Waigeo Barat, West Waigeo, West Papua 98481","Pulau Waigeo, Raja Ampat, Selpele, Waigeo Barat, West Waigeo",PAPUA BARAT,98481.0,Indonesia,82198841111.0,-0.2231107,130.2435609,https://maps.google.com/?cid=0x0:0x6538ffc64457ee0d
perumahan,perumahan,Pulau Wofoh,,,PAPUA BARAT,,Indonesia,,-0.25,130.2833333,https://maps.google.com/?cid=0x0:0x404e3290dce8d76c
perumahan,Kios,Kios padaelo,"lorong 3 Jln pulau gak, Gag, Distrik Waigeo Barat Kepulauan, Kabupaten Raja Ampat, Papua Bar. 98481","Gag, Distrik Waigeo Barat Kepulauan, Kabupaten Raja Ampat",PAPUA BARAT,98481.0,Indonesia,,-0.4470478,129.8784831,https://maps.google.com/?cid=0x0:0xfd8acc7a648223bc
perumahan,Rumah wisata,Gloria Dive Homestay,"97WP+C9V, Pyainemo, Distrik Waigeo Barat Kepulauan, Kabupaten Raja Ampat, Papua Barat Daya, 98481","Pyainemo, Distrik Waigeo Barat Kepulauan, Kabupaten Raja Ampat",PAPUA BARAT,98481.0,Indonesia,82248059529.0,-0.6026357,130.2853518,https://maps.google.com/?cid=0x0:0x1a7eecc16009aded
perumahan,Hotel bintang 3,Room 9A,"Gag, Distrik Waigeo Barat Kepulauan, Kabupaten Raja Ampat, Papua Bar. 98481","Distrik Waigeo Barat Kepulauan, Kabupaten Raja Ampat",PAPUA BARAT,98481.0,Indonesia,,-0.4409639,129.9021794,https://maps.google.com/?cid=0x0:0x24d3cd80c199434
perumahan,Pembangunan Perumahan,Pdt. Jack Rungkat,"87HW+96, Pam, Distrik Waigeo Barat Kepulauan, Kabupaten Raja Ampat, Papua Bar.","Kabupaten Raja Ampat, Papua Bar.",PAPUA BARAT,,Indonesia,,-0.6715625,130.2955625,https://maps.google.com/?cid=0x0:0xcdec46729ac715f9
perumahan,Perhimpunan Pengembang Perumahan,Selpele village,"Q6WF+385, Selpele, Kec. Waigeo Bar., Kabupaten Raja Ampat, Papua Bar. 98481","Selpele, Kec. Waigeo Bar., Kabupaten Raja Ampat",PAPUA BARAT,98481.0,Indonesia,,-0.204855,130.2233482,https://maps.google.com/?cid=0x0:0x8e3b7da585ecad97
perumahan,Komplek perumahan,Ombar pu rumah,"P9W6+H58, Waisilip, Kec. Waigeo Bar., Kabupaten Raja Ampat, Papua Bar. 98481","Waisilip, Kec. Waigeo Bar., Kabupaten Raja Ampat",PAPUA BARAT,98481.0,Indonesia,,-0.2533291,130.3606163,https://maps.google.com/?cid=0x0:0xb662950d5e351227
perumahan,perumahan,OR MANDIRA HOME STAY,"Saukabu, piaynemo WAIGEO kepulauan Raja Ampat Papua Barat daya 98481, Kabupaten, WAISAI, Kabupaten Raja Ampat, Papua Bar. 98471",piaynemo WAIGEO kepulauan Raja Ampat Papua Barat daya,PAPUA BARAT,98481.0,Indonesia,85362582497.0,-0.5869224,130.279159,https://maps.google.com/?cid=0x0:0xa89be781729d1848
perumahan,Guest house,Pulau Manyaifun,"M6W6+8P3, Pulau, Manyaifun, Waigeo Barat Kepulauan, Raja Ampat Regency, West Papua","Kabupaten Raja Ampat, Papua Bar.",PAPUA BARAT,,Indonesia,,-0.3042324,130.2117858,https://maps.google.com/?cid=0x0:0xec2c721b0ca3942c
perumahan,perumahan,Perumahan Bandara,"HQFF+GRC, Waisai, Kec. Waigeo Sel., Kabupaten Raja Ampat, Papua Bar. 98482","Waisai, Kec. Waigeo Sel., Kabupaten Raja Ampat",PAPUA BARAT,98482.0,Indonesia,,-0.4254349,130.7745822,https://maps.google.com/?cid=0x0:0x5574f35f22793ce9
perumahan,perumahan,Kec. Waigeo Sel.,"Kabupaten Raja Ampat, Papua Bar.","Kabupaten Raja Ampat, Papua Bar.",PAPUA BARAT,,Indonesia,,-0.3840807,130.7361322,https://maps.google.com/?cid=0x0:0x2c9db46da776b4
perumahan,Perhimpunan Pengembang Perumahan,Rumah Pribadi,"Wawiyai, Kec. Waigeo Sel., Kabupaten Raja Ampat, Papua Bar. 98482","Kec. Waigeo Sel., Kabupaten Raja Ampat",PAPUA BARAT,98482.0,Indonesia,,-0.2915581,130.6448378,https://maps.google.com/?cid=0x0:0xf9303c97d61d8ba4
perumahan,Komplek perumahan,Aspol Raja Ampat,"HRQ7+M6J, Waisai, Kec. Waigeo Sel., Kabupaten Raja Ampat, Papua Bar. 98482","Waisai, Kec. Waigeo Sel., Kabupaten Raja Ampat",PAPUA BARAT,98482.0,Indonesia,,-0.4107838,130.813022,https://maps.google.com/?cid=0x0:0x75a2c26cd05d98d
perumahan,Perhimpunan Pengembang Perumahan,Yenbeser,"GMPP+V6J, Yenbeser, Pulau Gam, Yenbeser, Kec. Waigeo Sel., Kabupaten Raja Ampat, Papua Bar. 98482","Yenbeser, Pulau Gam, Yenbeser, Kec. Waigeo Sel., Kabupaten Raja Ampat",PAPUA BARAT,98482.0,Indonesia,,-0.4627783,130.6855117,https://maps.google.com/?cid=0x0:0xd7b7a613d4bbb35b
perumahan,Komplek perumahan,Komplek Perumahan 200,"HRMX+PFV, Waisai, Distrik Kota Waisai, Kabupaten Raja Ampat, Papua Bar. 98482","Waisai, Distrik Kota Waisai, Kabupaten Raja Ampat",PAPUA BARAT,98482.0,Indonesia,,-0.4156402,130.8486616,https://maps.google.com/?cid=0x0:0x8b9b71ee38da829
perumahan,Apartemen sewa liburan,kos pelangi,"HRF8+RFV, Jl. Jend. Sudirman, Waisai, Kec. Waigeo Sel., Kabupaten Raja Ampat, Papua Bar. 98482","Jl. Jend. Sudirman, Waisai, Kec. Waigeo Sel., Kabupaten Raja Ampat",PAPUA BARAT,98482.0,Indonesia,,-0.4253922,130.8161648,https://maps.google.com/?cid=0x0:0x97e1aeea6009d38
perumahan,Pembangunan Perumahan,AMIRUDIN RUMKABU,"HR99+M4H, Jl. Abdul Atfan, Waisai, Kec. Waigeo Sel., Kabupaten Raja Ampat, Papua Bar. 98482","Jl. Abdul Atfan, Waisai, Kec. Waigeo Sel., Kabupaten Raja Ampat",PAPUA BARAT,98482.0,Indonesia,81248191890.0,-0.4308181,130.8178484,https://maps.google.com/?cid=0x0:0x256dde3159d6426a
perumahan,Pembangunan Perumahan,RUMAH IBU ANI GEBE,"HRG4+5JH, Jl. Bandara Marinda, Kelurahan Sapordanco, Distrik Kota Waisai, Kabupaten Raja Ampat, Papua Bar. 98482","Jl. Bandara Marinda, Kelurahan Sapordanco, Distrik Kota Waisai, Kabupaten Raja Ampat",PAPUA BARAT,98482.0,Indonesia,,-0.424855,130.806945,https://maps.google.com/?cid=0x0:0xa3094f5dcc2e3eaf
perumahan,Komplek perumahan,Kadar Waisai Residence,"HRG4+5JH, Jl. Marinda Kelurahan Sapordanco, Waisai, Distrik Kota Waisai, Kabupaten Raja Ampat, Papua Bar. 98482","Jl. Marinda Kelurahan Sapordanco, Waisai, Distrik Kota Waisai, Kabupaten Raja Ampat",PAPUA BARAT,98482.0,Indonesia,81230405525.0,-0.42456,130.8066071,https://maps.google.com/?cid=0x0:0xec0db53d8813cd91
perumahan,Komplek perumahan,Rumah LABAWINA,"MMX8+X8, Wawiyai, Kec. Waigeo Sel., Kabupaten Raja Ampat, Papua Bar.","Kabupaten Raja Ampat, Papua Bar.",PAPUA BARAT,,Indonesia,,-0.30033,130.66774,https://maps.google.com/?cid=0x0:0x1f42438c81c9b9cb
perumahan,Perhimpunan Pengembang Perumahan,Rumah OBET FEEY,"MMX8+X8, Wawiyai, Kec. Waigeo Sel., Kabupaten Raja Ampat, Papua Bar.","Kabupaten Raja Ampat, Papua Bar.",PAPUA BARAT,,Indonesia,,-0.30084,130.66714,https://maps.google.com/?cid=0x0:0x195685299ebde29a
perumahan,Komplek perumahan,Waisai kabupaten raja ampat papua barat indonesia,"HRCF+XJF, Distrik Kota Waisai, Papua Bar. 98482",Distrik Kota Waisai,PAPUA BARAT,98482.0,Indonesia,,-0.4275625,130.8240625,https://maps.google.com/?cid=0x0:0xaca5acc006899ee3
perumahan,Komplek perumahan,BARAK PEGAWAI,"HRG9+JX8, Waisai, Kec. Waigeo Sel., Kabupaten Raja Ampat, Papua Bar. 98482","Waisai, Kec. Waigeo Sel., Kabupaten Raja Ampat",PAPUA BARAT,98482.0,Indonesia,,-0.4234691,130.8199395,https://maps.google.com/?cid=0x0:0x97e2ffc27f7bcd5c
perumahan,Pembangunan Perumahan,Sorenbon,"Q8R7+54, Yenbekaki, Distrik Waigeo Timur, Kabupaten Raja Ampat, Papua Bar.","Kabupaten Raja Ampat, Papua Bar.",PAPUA BARAT,,Indonesia,,-0.209374,131.312752,https://maps.google.com/?cid=0x0:0xbcd8afa0bb2230d4
perumahan,perumahan,Distrik Waigeo Timur,"Kabupaten Raja Ampat, Papua Bar.","Kabupaten Raja Ampat, Papua Bar.",PAPUA BARAT,,Indonesia,,-0.3761806,131.2503597,https://maps.google.com/?cid=0x0:0x9ea83c531b1daa8e
perumahan,Pembangunan Perumahan,A . MAYOR,"Q8R7+54, Yenbekaki, Distrik Waigeo Timur, Kabupaten Raja Ampat, Papua Bar.","Kabupaten Raja Ampat, Papua Bar.",PAPUA BARAT,,Indonesia,,-0.2097238,131.3129175,https://maps.google.com/?cid=0x0:0xed96fc3952cc755e
perumahan,Kantor Perusahaan,Warwanai,"W52G+GG, Warwanai, Distrik Warwarbomi, Kabupaten Raja Ampat, Papua Bar. 98481","Warwanai, Distrik Warwarbomi, Kabupaten Raja Ampat",PAPUA BARAT,98481.0,Indonesia,,-0.0986707,131.1762951,https://maps.google.com/?cid=0x0:0x6b7e1873a4a5a21f
perumahan,Komplek perumahan,Kadar Waisai Residence,"HRG4+5JH, Jl. Marinda Kelurahan Sapordanco, Waisai, Distrik Kota Waisai, Kabupaten Raja Ampat, Papua Bar. 98482","Jl. Marinda Kelurahan Sapordanco, Waisai, Distrik Kota Waisai, Kabupaten Raja Ampat",PAPUA BARAT,98482.0,Indonesia,81230405525.0,-0.42456,130.8066071,https://maps.google.com/?cid=0x0:0xec0db53d8813cd91
perumahan,Komplek perumahan,Perumahan Kobeoser,"HRPF+C2P, Gg.Kerapu Kobeoser, Waisai, Distrik Kota Waisai, Kabupaten Raja Ampat, Papua Bar. 98482","Gg.Kerapu Kobeoser, Waisai, Distrik Kota Waisai, Kabupaten Raja Ampat",PAPUA BARAT,98482.0,Indonesia,,-0.413923,130.8225673,https://maps.google.com/?cid=0x0:0x2c828462be6d501
perumahan,Komplek perumahan,Rumah Ronald Sosir,"WXRP+PGG, Kabare, Distrik Waigeo Utara, Kabupaten Raja Ampat, Papua Bar. 98481","Kabare, Distrik Waigeo Utara, Kabupaten Raja Ampat",PAPUA BARAT,98481.0,Indonesia,,-0.059169,130.98712,https://maps.google.com/?cid=0x0:0x8b9bd8306d1a5e07
perumahan,Pembangunan Perumahan,K. Rumbarak,"V665+HQ, Mnier, Distrik Warwarbomi, Kabupaten Raja Ampat, Papua Bar.","Kabupaten Raja Ampat, Papua Bar.",PAPUA BARAT,,Indonesia,,-0.1376297,131.2091287,https://maps.google.com/?cid=0x0:0xaffe1d3e888d8693
perumahan,Komplek perumahan,BARAK PEGAWAI,"HRG9+JX8, Waisai, Kec. Waigeo Sel., Kabupaten Raja Ampat, Papua Bar. 98482","Waisai, Kec. Waigeo Sel., Kabupaten Raja Ampat",PAPUA BARAT,98482.0,Indonesia,,-0.4234691,130.8199395,https://maps.google.com/?cid=0x0:0x97e2ffc27f7bcd5c
perumahan,perumahan,Hamueco Raja Ampat Dive Resort,"Wirausaha Building Jl HR Rasuna Said Kav C5 Lantai 3, Jakarta Selatan, DKI Jakarta, 12940",Jakarta Selatan,PAPUA BARAT,12940.0,Indonesia,81392500242.0,-0.441485,130.761647,https://maps.google.com/?cid=0x0:0xf060a049fd72614d
perumahan,perumahan,Waigeo Villa,"Waisai, Kec. Waigeo Sel., Kabupaten Raja Ampat, Papua Bar. 98482","Kec. Waigeo Sel., Kabupaten Raja Ampat",PAPUA BARAT,98482.0,Indonesia,81247553799.0,-0.4365115,130.7794821,https://maps.google.com/?cid=0x0:0xd79d1ba9e325d4fc
perumahan,perumahan,Vogelkopf Resort,"Waisai, Distrik Kota Waisai, Kabupaten Raja Ampat, Papua Bar. 98482","Distrik Kota Waisai, Kabupaten Raja Ampat",PAPUA BARAT,98482.0,Indonesia,81360001088.0,-0.4385338,130.785262,https://maps.google.com/?cid=0x0:0x132e94aff8281150
perumahan,perumahan,Korpak Villa and Resort,"HQ6M+RGH, Unnamed Road, Waisai, Distrik Kota Waisai, Kabupaten Raja Ampat, Papua Bar. 98482","Unnamed Road, Waisai, Distrik Kota Waisai, Kabupaten Raja Ampat",PAPUA BARAT,98482.0,Indonesia,,-0.4379467,130.7838521,https://maps.google.com/?cid=0x0:0x7d6048504236c32d
perumahan,perumahan,Meridian Adventure Marina Club  Resort Waisai,"Waisai, Distrik Kota Waisai, Kabupaten Raja Ampat, Papua Bar. 98482","Distrik Kota Waisai, Kabupaten Raja Ampat",PAPUA BARAT,98482.0,Indonesia,82248540774.0,-0.4341882,130.8081566,https://maps.google.com/?cid=0x0:0x9355b383d6822caa
perumahan,perumahan,Papua Bar. 98481,"Kabupaten Raja Ampat, Papua Bar.","Kabupaten Raja Ampat, Papua Bar.",PAPUA BARAT,,Indonesia,,-0.0847884,130.8374011,https://maps.google.com/?cid=0x0:0xabdb6fd88155f082
perumahan,Komplek perumahan,KompleksToraja,"HRQ9+V3G, Waisai, Distrik Kota Waisai, Kabupaten Raja Ampat, Papua Bar. 98482","Waisai, Distrik Kota Waisai, Kabupaten Raja Ampat",PAPUA BARAT,98482.0,Indonesia,,-0.4103051,130.8176975,https://maps.google.com/?cid=0x0:0xe904c826cf106459
perumahan,Komplek perumahan,Rumah Ronald Sosir,"WXRP+PGG, Kabare, Distrik Waigeo Utara, Kabupaten Raja Ampat, Papua Bar. 98481","Kabare, Distrik Waigeo Utara, Kabupaten Raja Ampat",PAPUA BARAT,98481.0,Indonesia,,-0.059169,130.98712,https://maps.google.com/?cid=0x0:0x8b9bd8306d1a5e07
perumahan,Komplek perumahan,Perumahan Kobeoser,"HRPF+C2P, Gg.Kerapu Kobeoser, Waisai, Distrik Kota Waisai, Kabupaten Raja Ampat, Papua Bar. 98482","Gg.Kerapu Kobeoser, Waisai, Distrik Kota Waisai, Kabupaten Raja Ampat",PAPUA BARAT,98482.0,Indonesia,,-0.413923,130.8225673,https://maps.google.com/?cid=0x0:0x2c828462be6d501
perumahan,Komplek perumahan,RUMAH MASA DEPAN,"WXRG+9C, Bonsayor, Distrik Waigeo Utara, Kabupaten Raja Ampat, Papua Bar.","Kabupaten Raja Ampat, Papua Bar.",PAPUA BARAT,,Indonesia,,-0.059085,130.9760075,https://maps.google.com/?cid=0x0:0x7b425fa59184bff1
perumahan,Komplek perumahan,Hilarius burdam,"XWFX+RG5, Rauki, Distrik Waigeo Utara, Kabupaten Raja Ampat, Papua Bar. 98481","Rauki, Distrik Waigeo Utara, Kabupaten Raja Ampat",PAPUA BARAT,98481.0,Indonesia,,-0.0254971,130.9488589,https://maps.google.com/?cid=0x0:0x4665bcf69e132c35
perumahan,Komplek perumahan,BiThor,"WXQR+FF, Kabare, Distrik Waigeo Utara, Kabupaten Raja Ampat, Papua Bar.","Kabupaten Raja Ampat, Papua Bar.",PAPUA BARAT,,Indonesia,,-0.061843,130.991166,https://maps.google.com/?cid=0x0:0xb96106bb37abc43e
perumahan,Rumah Sakit,Puskesmas Kabare,"WXRM+P67, Jalan Kaliforon Kampung, Kalisada, Waigeo Utara, Raja Ampat Regency, West Papua 98481","Jalan Kaliforon Kampung, Kalisada, Waigeo Utara, Raja Ampat Regency",PAPUA BARAT,98481.0,Indonesia,,-0.0582072,130.9830576,https://maps.google.com/?cid=0x0:0x20c50380cd9d0518
perumahan,perumahan,Papua Bar. 98481,"Kabupaten Raja Ampat, Papua Bar.","Kabupaten Raja Ampat, Papua Bar.",PAPUA BARAT,,Indonesia,,-0.0847884,130.8374011,https://maps.google.com/?cid=0x0:0xabdb6fd88155f082
perumahan,perumahan,Puyau Homestay,"WXH8+2G6, Bonsayor, Distrik Waigeo Utara, Kabupaten Raja Ampat, Papua Bar. 98481","Bonsayor, Distrik Waigeo Utara, Kabupaten Raja Ampat",PAPUA BARAT,98481.0,Indonesia,,-0.0724575,130.9662651,https://maps.google.com/?cid=0x0:0x2d232270f35f1be8
perumahan,Pembangunan Perumahan,Maripi,"43M7+CVR Kos pelangi, Jl. Trikora Maripi, Sanggeng, Distrik Manokwari, Kabupaten Manokwari, Papua Bar. 98312","Jl. Trikora Maripi, Sanggeng, Distrik Manokwari, Kabupaten Manokwari",PAPUA BARAT,98312.0,Indonesia,85396930417.0,-0.866375,134.0646413,https://maps.google.com/?cid=0x0:0x12b51ed65a07a443
perumahan,Toko,Perum Bumi waringin indah1,"P6QQ+9PQ, Jl. Bumi Waringin Indah, Waringinjaya, Kec. Kedungwaringin, Kabupaten Bekasi, Jawa Barat 17540","Jl. Bumi Waringin Indah, Waringinjaya, Kec. Kedungwaringin, Kabupaten Bekasi",PAPUA BARAT,17540.0,Indonesia,895349075728.0,-6.2615453,107.2393524,https://maps.google.com/?cid=0x0:0xd237407a13ddd7c2
perumahan,Komplek perumahan,"Perum Bumi Waringin Indah 2 Blok D2 No.27 kedungwaringin,Bekasi","Perum Bumi waringin indah 2 blok A6.01, Waringinjaya, Kec. Kedungwaringin, Kabupaten Bekasi, Jawa Barat 17540","Waringinjaya, Kec. Kedungwaringin, Kabupaten Bekasi",PAPUA BARAT,17540.0,Indonesia,89607269173.0,-6.256702,107.2369839,https://maps.google.com/?cid=0x0:0x76c93e8caecac003
perumahan,Toko,Perum BWI 2,"Waringinjaya, Kec. Kedungwaringin, Kabupaten Bekasi, Jawa Barat 17540","Kec. Kedungwaringin, Kabupaten Bekasi",PAPUA BARAT,17540.0,Indonesia,,-6.2609582,107.2362955,https://maps.google.com/?cid=0x0:0x506f6aafe056a15a
perumahan,Toko bahan makanan,Warung mama aqilah,"P6QQ+75V, Gg. Leci, Waringinjaya, Kec. Kedungwaringin, Kabupaten Bekasi, Jawa Barat 17540","Gg. Leci, Waringinjaya, Kec. Kedungwaringin, Kabupaten Bekasi",PAPUA BARAT,17540.0,Indonesia,,-6.2616257,107.2379608,https://maps.google.com/?cid=0x0:0xa5ffb26230c4ce30
housing complex,housing complex,Distrik Aifat,"Kabupaten Maybrat, Papua Bar.","Kabupaten Maybrat, Papua Bar.",PAPUA BARAT,,Indonesia,,-1.2568532,132.5001338,https://maps.google.com/?cid=0x0:0xcc3d52ba3ddd33de
housing complex,Pembangunan Perumahan,Sonere aifat selatan maybrat,"MFPG+PW2, Futon, Distrik Aifat Selatan, Kabupaten Maybrat, Papua Bar. 98463","Futon, Distrik Aifat Selatan, Kabupaten Maybrat",PAPUA BARAT,98463.0,Indonesia,,-1.3132303,132.4772785,https://maps.google.com/?cid=0x0:0xcf993cce8191b59
housing complex,Pembangunan Perumahan,Evaan Aifat Maybrat,"QF4G+W7V, Werjaya, Distrik Aifat, Kabupaten Maybrat, Papua Bar. 98463","Werjaya, Distrik Aifat, Kabupaten Maybrat",PAPUA BARAT,98463.0,Indonesia,,-1.2426304,132.4756698,https://maps.google.com/?cid=0x0:0xa3b53493d6599552
housing complex,Komplek perumahan,Sahabur,"PF5R+XV, Futon, Distrik Aifat, Kabupaten Maybrat, Papua Bar.","Kabupaten Maybrat, Papua Bar.",PAPUA BARAT,,Indonesia,,-1.2900127,132.4921406,https://maps.google.com/?cid=0x0:0x463118003817dc9a
housing complex,Pembangunan Perumahan,Kampung Ainod,"PHJ3+42, Eisyo, Distrik Aifat, Kabupaten Maybrat, Papua Bar.","Kabupaten Maybrat, Papua Bar.",PAPUA BARAT,,Indonesia,,-1.269625,132.5525305,https://maps.google.com/?cid=0x0:0x99dd91f91b4adb11
housing complex,Komplek perumahan,"KAMPUNG LAMA ,IRAFAN","JCV8+24G, Tehahite, Distrik Aifat, Kabupaten Maybrat, Papua Bar. 98463","Tehahite, Distrik Aifat, Kabupaten Maybrat",PAPUA BARAT,98463.0,Indonesia,,-1.3574485,132.4153262,https://maps.google.com/?cid=0x0:0x861baf0d33512994
housing complex,Perumahan,Fonatu,"RFQ5+VFM, Fonatu, Ayawasi, Distrik Aifat Utara, Kabupaten Maybrat, Papua Bar. 98463","Fonatu, Ayawasi, Distrik Aifat Utara, Kabupaten Maybrat",PAPUA BARAT,98463.0,Indonesia,,-1.1602976,132.4586748,https://maps.google.com/?cid=0x0:0xe1058bdc7f5b6b06
housing complex,Komplek perumahan,Tehahite city,"JFW7+RMW, Tehahite, Distrik Aifat, Kabupaten Maybrat, Papua Bar.","Kabupaten Maybrat, Papua Bar.",PAPUA BARAT,,Indonesia,,-1.3528854,132.4642057,https://maps.google.com/?cid=0x0:0xddee8fd8d828ce9e
housing complex,Pembangunan Perumahan,Proyek Rumah Papua Barat,"Q9QR+479, Fonatu, Distrik Aifat Utara, Kabupaten Maybrat, Papua Bar.","Kabupaten Maybrat, Papua Bar.",PAPUA BARAT,,Indonesia,,-1.2122123,132.3907207,https://maps.google.com/?cid=0x0:0x32f9d918d28cb15c
housing complex,Perhimpunan Pengembang Perumahan,Nezeth Aifat Utara Kab.Maybrat,"RFP6+CWW, Uname Road, Ayawasi, Distrik Aifat Utara, Kabupaten Maybrat, Papua Bar. 98463","Uname Road, Ayawasi, Distrik Aifat Utara, Kabupaten Maybrat",PAPUA BARAT,98463.0,Indonesia,,-1.163882,132.4623359,https://maps.google.com/?cid=0x0:0x30c27f8005f60ea7
housing complex,Perhimpunan Pengembang Perumahan,Perempuan AIFAT,"RF77+C36, Ayawasi, Distrik Aifat Utara, Kabupaten Maybrat, Papua Bar. 98463","Ayawasi, Distrik Aifat Utara, Kabupaten Maybrat",PAPUA BARAT,98463.0,Indonesia,,-1.186464,132.4626367,https://maps.google.com/?cid=0x0:0xc3d9c84f81b264c7
housing complex,Komplek perumahan,Base Camp Ainod,"PHJ3+33, Eisyo, Distrik Aifat, Kabupaten Maybrat, Papua Bar.","Kabupaten Maybrat, Papua Bar.",PAPUA BARAT,,Indonesia,,-1.26978,132.552746,https://maps.google.com/?cid=0x0:0xd71e54059008f5d
housing complex,Perumahan,Ayawasi Kompleks Tursah,"RF77+C36, Ayawasi, Distrik Aifat Utara, Kabupaten Maybrat, Papua Bar. 98463","Ayawasi, Distrik Aifat Utara, Kabupaten Maybrat",PAPUA BARAT,98463.0,Indonesia,,-1.186464,132.4626367,https://maps.google.com/?cid=0x0:0x92ad890f805249c2
housing complex,Komplek perumahan,Distrik Aifat Selatan,"HGX4+F72, Sory, Distrik Aifat Selatan, Kabupaten Maybrat, Papua Bar. 98463","Sory, Distrik Aifat Selatan, Kabupaten Maybrat",PAPUA BARAT,98463.0,Indonesia,,-1.4013521,132.5056398,https://maps.google.com/?cid=0x0:0x1486686d3708c90
housing complex,housing complex,Distrik Aifat,"Kabupaten Maybrat, Papua Bar.","Kabupaten Maybrat, Papua Bar.",PAPUA BARAT,,Indonesia,,-1.2568532,132.5001338,https://maps.google.com/?cid=0x0:0xcc3d52ba3ddd33de
housing complex,Kebun Binatang,Taman Margasatwa Ragunan,"Jl. Harsono Rm Dalam No.1, Ragunan, Ps. Minggu, Kota Jakarta Selatan, Daerah Khusus Ibukota Jakarta 12550","Ragunan, Ps. Minggu, Kota Jakarta Selatan",PAPUA BARAT,12550.0,Indonesia,2178847114.0,-6.3059887,106.820353,https://maps.google.com/?cid=0x0:0xf9dd2a3f5ab5069a
housing complex,housing complex,Papua Bar. 98652,"Doom Tim., Distrik Sorong Kepulauan, Kota Sorong, Papua Bar.","Kota Sorong, Papua Bar.",PAPUA BARAT,,Indonesia,,-0.9375383,131.254499,https://maps.google.com/?cid=0x0:0x5905364cc30efd0e
housing complex,housing complex,Green Lake View Ciputat,"Jl. Dewi Sartika No.34, Ciputat, Kec. Ciputat, Kota Tangerang Selatan, Banten 15411","Ciputat, Kec. Ciputat, Kota Tangerang Selatan",PAPUA BARAT,15411.0,Indonesia,2174712002.0,-6.3175092,106.7451121,https://maps.google.com/?cid=0x0:0x65b551b2b402ef96
housing complex,Layanan Transportasi,Jurang Mangu,"Jl. Tegal Rotan Raya, Pd. Jaya, Kec. Ciputat, Kota Tangerang Selatan, Banten 15413","Pd. Jaya, Kec. Ciputat, Kota Tangerang Selatan",PAPUA BARAT,15413.0,Indonesia,,-6.2887899,106.7291221,https://maps.google.com/?cid=0x0:0x439cd2b52dc67b80
housing complex,Apartemen berlayanan,Apartment TreePark City,"Jl. MH. Thamrin No.7, Cikokol, Kec. Tangerang, Kota Tangerang, Banten 15117","Cikokol, Kec. Tangerang, Kota Tangerang",PAPUA BARAT,15117.0,Indonesia,2129542000.0,-6.2141515,106.6311254,https://maps.google.com/?cid=0x0:0x2b39ae47232fe847
housing complex,Apartemen Liburan,Apartment The Habitat,"Jl. Palem Ratu, Bencongan Indah, Kec. Karawaci, Kabupaten Tangerang, Banten 15810","Bencongan Indah, Kec. Karawaci, Kabupaten Tangerang",PAPUA BARAT,15810.0,Indonesia,89693258800.0,-6.223719,106.6059503,https://maps.google.com/?cid=0x0:0x7bb1315e163b52
housing complex,Gedung Apartemen,Apartemen Amazana Serpong Residence,"Jl. Jelupang Raya No.75, Jelupang, Kec. Serpong Utara, Kota Tangerang Selatan, Banten 15323","Jelupang, Kec. Serpong Utara, Kota Tangerang Selatan",PAPUA BARAT,15323.0,Indonesia,,-6.2665127,106.6717088,https://maps.google.com/?cid=0x0:0x3399b6470754fe85
housing complex,Agen Penyewaan Apartemen,19 Avenue Apartment,"Jl. Daan Mogot No.Km.19, RT.003/RW.002, Kb. Besar, Kec. Batuceper, Kota Tangerang, Banten 15122","RT.003/RW.002, Kb. Besar, Kec. Batuceper, Kota Tangerang",PAPUA BARAT,15122.0,Indonesia,81351182239.0,-6.1617952,106.6808694,https://maps.google.com/?cid=0x0:0x4a863ce8633f732b
housing complex,Hotel bintang 3,Ecohome Apartment,"PGWH+M2P, Mekar Bakti, Kec. Panongan, Kabupaten Tangerang, Banten 15710","Mekar Bakti, Kec. Panongan, Kabupaten Tangerang",PAPUA BARAT,15710.0,Indonesia,215960888.0,-6.253082,106.526385,https://maps.google.com/?cid=0x0:0x63ac8a7eb503c239
housing complex,Museum Seni Modern,Museum Macan (Modern and Contemporary Art in Nusantara),"AKR Tower Level M, Jl. Panjang No.5, Kb. Jeruk, Kec. Kb. Jeruk, Kota Jakarta Barat, Daerah Khusus Ibukota Jakarta 11530","Jl. Panjang No.5, Kb. Jeruk, Kec. Kb. Jeruk, Kota Jakarta Barat",PAPUA BARAT,11530.0,Indonesia,2122121888.0,-6.1910434,106.7679858,https://maps.google.com/?cid=0x0:0xf19623593db3f0f6
housing complex,housing complex,The Golf Apartment Modernland,"Modernland Golf, Jl. Hartono Raya, RT.001/RW.006, Klp. Indah, Kec. Tangerang, Kota Tangerang, Banten 15117","Jl. Hartono Raya, RT.001/RW.006, Klp. Indah, Kec. Tangerang, Kota Tangerang",PAPUA BARAT,15117.0,Indonesia,82110775673.0,-6.1982478,106.6402867,https://maps.google.com/?cid=0x0:0xaefc5a5f225cd951
housing complex,Tempat Parkir,Parkiran Tower Hijau Apartment Modern Golf,"RJ2R+P3J, RT.001/RW.006, Klp. Indah, Kec. Tangerang, Kota Tangerang, Banten 15117","RT.001/RW.006, Klp. Indah, Kec. Tangerang, Kota Tangerang",PAPUA BARAT,15117.0,Indonesia,89502437503.0,-6.1981746,106.6401348,https://maps.google.com/?cid=0x0:0xce864aac35c1e5df
housing complex,Perusahaan Kereta Api,Stasiun Tanahtinggi,"Jl. Benteng Betawi, Tanah Tinggi, Kec. Tangerang, Kota Tangerang, Banten","Kota Tangerang, Banten",PAPUA BARAT,,Indonesia,,-6.1752338,106.6464782,https://maps.google.com/?cid=0x0:0x42a3b51ffb4d8e32
housing complex,housing complex,distrik Batanta Selatan,"Kabupaten Raja Ampat, Papua Bar.","Kabupaten Raja Ampat, Papua Bar.",PAPUA BARAT,,Indonesia,,-0.8447219,130.8171615,https://maps.google.com/?cid=0x0:0xc5c0f28bd225b23c
housing complex,Kantor distrik,Perusahaan,"5VMW+8F, Amduy, distrik Batanta Selatan, Kabupaten Raja Ampat, Papua Bar.","Kabupaten Raja Ampat, Papua Bar.",PAPUA BARAT,,Indonesia,,-0.8166949,130.8961464,https://maps.google.com/?cid=0x0:0xd9554b2d4a9eba9d
housing complex,Pembangunan Perumahan,Kampung yenanas,"5V6R+69C, Yenanas, Selat Sagawin, Kabupaten Raja Ampat, Papua Bar. 98484","Yenanas, Selat Sagawin, Kabupaten Raja Ampat",PAPUA BARAT,98484.0,Indonesia,,-0.8394452,130.8908977,https://maps.google.com/?cid=0x0:0x6c0adc570f6c52ff
housing complex,housing complex,Pulau Batanta,"Wailebet, distrik Batanta Selatan, Kabupaten Raja Ampat, Papua Bar.","Kabupaten Raja Ampat, Papua Bar.",PAPUA BARAT,,Indonesia,,-0.8647222,130.6494444,https://maps.google.com/?cid=0x0:0x622f6c920ed64eb5
housing complex,Rumah wisata,Batanta Diving Homestay,"Yensawai, Selat Sagawin, Kabupaten Raja Ampat, Papua Bar. 98484","Selat Sagawin, Kabupaten Raja Ampat",PAPUA BARAT,98484.0,Indonesia,82239097054.0,-0.7967316,130.501731,https://maps.google.com/?cid=0x0:0x870652658cc61a87
housing complex,Guest house,Batanta Adventure Homestay,"Kimindores, Waisai, Kabupaten Raja Ampat, Papua Bar.","Kabupaten Raja Ampat, Papua Bar.",PAPUA BARAT,,Indonesia,82199088725.0,-0.7970302,130.5034497,https://maps.google.com/?cid=0x0:0x6dd3daf715bd912e
housing complex,housing complex,Kepulauan Sembilan,"Kabupaten Raja Ampat, Papua Bar.","Kabupaten Raja Ampat, Papua Bar.",PAPUA BARAT,,Indonesia,,-1.4692971,130.2424588,https://maps.google.com/?cid=0x0:0x364ea5a3f0657fa
housing complex,housing complex,Distrik Kepulauan Ayau,"Kabupaten Raja Ampat, Papua Bar.","Kabupaten Raja Ampat, Papua Bar.",PAPUA BARAT,,Indonesia,,0.3635672,131.0512644,https://maps.google.com/?cid=0x0:0x3356c509ee72e556
housing complex,housing complex,Home Stay Muraimuma,"9396+M4, Doreikar, Distrik Kepulauan Ayau, Kabupaten Raja Ampat, Papua Bar.","Kabupaten Raja Ampat, Papua Bar.",PAPUA BARAT,,Indonesia,,0.3692035,131.0603466,https://maps.google.com/?cid=0x0:0x8413a430a86c4afd
housing complex,housing complex,Home Mamberouw,"9363+X8X, Boiseran, Distrik Kepulauan Ayau, Kabupaten Raja Ampat, Papua Bar.","Kabupaten Raja Ampat, Papua Bar.",PAPUA BARAT,,Indonesia,,0.3617203,131.0531133,https://maps.google.com/?cid=0x0:0xcc924317e81e4fb4
housing complex,housing complex,Home Erner Sifla Imbir,"9373+572, Boiseran, Distrik Kepulauan Ayau, Kabupaten Raja Ampat, Papua Bar.","Kabupaten Raja Ampat, Papua Bar.",PAPUA BARAT,,Indonesia,,0.3628875,131.0531406,https://maps.google.com/?cid=0x0:0xf70dd3103d099ae7
housing complex,housing complex,Muraimuma Homestay,"Boiseran, Distrik Kepulauan Ayau, Kabupaten Raja Ampat, Papua Bar.","Kabupaten Raja Ampat, Papua Bar.",PAPUA BARAT,,Indonesia,,0.3635196,131.0583037,https://maps.google.com/?cid=0x0:0x1275ed7204bca866
housing complex,Komplek perumahan,Yenkawir,"92JM+RWX, Yenkawir, Distrik Kepulauan Ayau, Kabupaten Raja Ampat, Papua Bar.","Kabupaten Raja Ampat, Papua Bar.",PAPUA BARAT,,Indonesia,,0.3824867,131.0342665,https://maps.google.com/?cid=0x0:0x2e502d2692bd7ca6
housing complex,Komplek perumahan,Yenberok,"92PM+37R, Yenkawir, Distrik Kepulauan Ayau, Kabupaten Raja Ampat, Papua Bar.","Kabupaten Raja Ampat, Papua Bar.",PAPUA BARAT,,Indonesia,,0.3845474,131.0332628,https://maps.google.com/?cid=0x0:0x6ae75db6a3cf32d2
housing complex,housing complex,Home Puskesmas Dorehkar,"9374+Q5, Boiseran, Distrik Kepulauan Ayau, Kabupaten Raja Ampat, Papua Bar.","Kabupaten Raja Ampat, Papua Bar.",PAPUA BARAT,,Indonesia,,0.3644916,131.0554861,https://maps.google.com/?cid=0x0:0x55be7830691d17e0
housing complex,housing complex,Home Oman Imbir,"9373+485, Boiseran, Distrik Kepulauan Ayau, Kabupaten Raja Ampat, Papua Bar.","Kabupaten Raja Ampat, Papua Bar.",PAPUA BARAT,,Indonesia,,0.3627542,131.0533625,https://maps.google.com/?cid=0x0:0xe7228866ed57b9fe
housing complex,housing complex,Home Timo Imbir,"9363+X8X, Boiseran, Distrik Kepulauan Ayau, Kabupaten Raja Ampat, Papua Bar.","Kabupaten Raja Ampat, Papua Bar.",PAPUA BARAT,,Indonesia,,0.3619982,131.0530342,https://maps.google.com/?cid=0x0:0x2247bdf992245fe0
housing complex,housing complex,Pulau Kofiau,"Mikiran, Kofiau, Kabupaten Raja Ampat, Papua Bar.","Kabupaten Raja Ampat, Papua Bar.",PAPUA BARAT,,Indonesia,,-1.1833333,129.8333333,https://maps.google.com/?cid=0x0:0x22393f628dc41dcc
housing complex,housing complex,Distrik Kota Waisai,"Waisai, Kabupaten Raja Ampat, Papua Bar.","Kabupaten Raja Ampat, Papua Bar.",PAPUA BARAT,,Indonesia,,-0.4248841,130.8208792,https://maps.google.com/?cid=0x0:0x50ee7a1504609bf5
housing complex,Komplek perumahan,Komplek Perumahan 200,"HRMX+PFV, Waisai, Distrik Kota Waisai, Kabupaten Raja Ampat, Papua Bar. 98482","Waisai, Distrik Kota Waisai, Kabupaten Raja Ampat",PAPUA BARAT,98482.0,Indonesia,,-0.4156402,130.8486616,https://maps.google.com/?cid=0x0:0x8b9b71ee38da829
housing complex,Komplek perumahan,Kadar Waisai Residence,"HRG4+5JH, Jl. Marinda Kelurahan Sapordanco, Waisai, Distrik Kota Waisai, Kabupaten Raja Ampat, Papua Bar. 98482","Jl. Marinda Kelurahan Sapordanco, Waisai, Distrik Kota Waisai, Kabupaten Raja Ampat",PAPUA BARAT,98482.0,Indonesia,81230405525.0,-0.42456,130.8066071,https://maps.google.com/?cid=0x0:0xec0db53d8813cd91
housing complex,Komplek perumahan,Perumahan Kobeoser,"HRPF+C2P, Gg.Kerapu Kobeoser, Waisai, Distrik Kota Waisai, Kabupaten Raja Ampat, Papua Bar. 98482","Gg.Kerapu Kobeoser, Waisai, Distrik Kota Waisai, Kabupaten Raja Ampat",PAPUA BARAT,98482.0,Indonesia,,-0.413923,130.8225673,https://maps.google.com/?cid=0x0:0x2c828462be6d501
housing complex,Otoritas Perumahan,Perumahan Moko,"HVP4+JR8, Unnamed Road, Waisai, Raja Ampat Regency, West Papua 98482","Unnamed Road, Waisai, Raja Ampat Regency",PAPUA BARAT,98482.0,Indonesia,,-0.4134609,130.8570794,https://maps.google.com/?cid=0x0:0x72ba6eacff7b4489
housing complex,Pembangunan Perumahan,Waisai,"HRGF+9W8, Waisai, Distrik Kota Waisai, Kabupaten Raja Ampat, Papua Bar. 98482","Waisai, Distrik Kota Waisai, Kabupaten Raja Ampat",PAPUA BARAT,98482.0,Indonesia,,-0.4240924,130.8248282,https://maps.google.com/?cid=0x0:0x460650901f7fec5f
housing complex,housing complex,Rumah BARA,"Jl. Lukas Dailon, Waisai, Distrik Kota Waisai, Kabupaten Raja Ampat, Papua Bar. 98482","Waisai, Distrik Kota Waisai, Kabupaten Raja Ampat",PAPUA BARAT,98482.0,Indonesia,82199630001.0,-0.4172679,130.8227421,https://maps.google.com/?cid=0x0:0x781342e885f9b479
housing complex,Komplek perumahan,KompleksToraja,"HRQ9+V3G, Waisai, Distrik Kota Waisai, Kabupaten Raja Ampat, Papua Bar. 98482","Waisai, Distrik Kota Waisai, Kabupaten Raja Ampat",PAPUA BARAT,98482.0,Indonesia,,-0.4103051,130.8176975,https://maps.google.com/?cid=0x0:0xe904c826cf106459
housing complex,Komplek perumahan,BATAZO AREA,"HRPW+PR5, Waisai, Distrik Kota Waisai, Kabupaten Raja Ampat, Papua Bar. 98482","Waisai, Distrik Kota Waisai, Kabupaten Raja Ampat",PAPUA BARAT,98482.0,Indonesia,,-0.413232,130.847118,https://maps.google.com/?cid=0x0:0x99dc16e26c865fda
housing complex,Komplek perumahan,Komplex lonebi AXY,"HRR9+FG3, Waisai, Distrik Kota Waisai, Kabupaten Raja Ampat, Papua Bar. 98482","Waisai, Distrik Kota Waisai, Kabupaten Raja Ampat",PAPUA BARAT,98482.0,Indonesia,,-0.4088671,130.8188029,https://maps.google.com/?cid=0x0:0xa4bfcd7ed7e360fd
housing complex,Komplek perumahan,Perumahan wisma,"HRGC+394, Waisai, Distrik Kota Waisai, Kabupaten Raja Ampat, Papua Bar. 98482","Waisai, Distrik Kota Waisai, Kabupaten Raja Ampat",PAPUA BARAT,98482.0,Indonesia,81247273581.0,-0.4248728,130.8209443,https://maps.google.com/?cid=0x0:0x24030eb99ca45b9
housing complex,Komplek perumahan,Perumahan 100 Elit,"HRPC+WF8, Waisai, Kec. Waigeo Sel., Kabupaten Raja Ampat, Papua Bar. 98482","Waisai, Kec. Waigeo Sel., Kabupaten Raja Ampat",PAPUA BARAT,98482.0,Indonesia,81344612400.0,-0.412723,130.8212062,https://maps.google.com/?cid=0x0:0xf162a66ed567e14c
housing complex,Komplek perumahan,Alif,"HR99+5G, Waisai, Distrik Kota Waisai, Kabupaten Raja Ampat, Papua Bar. 98482","Waisai, Distrik Kota Waisai, Kabupaten Raja Ampat",PAPUA BARAT,98482.0,Indonesia,,-0.4319482,130.8187145,https://maps.google.com/?cid=0x0:0x7fd7ac598496073d
housing complex,Pembangunan Perumahan,Kompleks buton,"HR89+X57, Waisai, Distrik Kota Waisai, Kabupaten Raja Ampat, Papua Bar. 98482","Waisai, Distrik Kota Waisai, Kabupaten Raja Ampat",PAPUA BARAT,98482.0,Indonesia,,-0.4325819,130.8179373,https://maps.google.com/?cid=0x0:0x428b5fa1b870e0ea
housing complex,housing complex,Meos Mansar,"Kabupaten Raja Ampat, Papua Bar.","Kabupaten Raja Ampat, Papua Bar.",PAPUA BARAT,,Indonesia,,-0.4496057,130.583895,https://maps.google.com/?cid=0x0:0xe58d24898307b204
housing complex,Perusahaan Manajemen Properti,BESIR,"FHCM+G8, Sawinggrai, Meos Mansar, Kabupaten Raja Ampat, Papua Bar.","Kabupaten Raja Ampat, Papua Bar.",PAPUA BARAT,,Indonesia,,-0.5286951,130.583373,https://maps.google.com/?cid=0x0:0x1e0193e205a24e14
housing complex,housing complex,Indos Homestay,"Kapisawar, Pulau Gam, Raja Ampat, Sawinggrai, Meos Mansar, West Papua 98482","Pulau Gam, Raja Ampat, Sawinggrai, Meos Mansar",PAPUA BARAT,98482.0,Indonesia,,-0.5321902,130.5750177,https://maps.google.com/?cid=0x0:0x5e5fce1e71a4970b
housing complex,housing complex,Methos Homestay - Raja Ampat,"Kapisawar, Pulau Gam, Sawinggrai, Meos Mansar, Raja Ampat Regency, West Papua 98482","Pulau Gam, Sawinggrai, Meos Mansar, Raja Ampat Regency",PAPUA BARAT,98482.0,Indonesia,,-0.5291722,130.5729371,https://maps.google.com/?cid=0x0:0xbf33a9f61e98c3e0
housing complex,Pembangunan Perumahan,Home Boas Kolomsusu,"GMMJ+H52, Yenbeser, Kec. Waigeo Sel., Kabupaten Raja Ampat, Papua Bar.","Kabupaten Raja Ampat, Papua Bar.",PAPUA BARAT,,Indonesia,,-0.4661047,130.6803765,https://maps.google.com/?cid=0x0:0x2e9c61fb5f3edeb5
housing complex,Perhimpunan Pengembang Perumahan,Kampung Wejim Distrik Kepulauan Sembilan,"CJGJ+7WX, Yenbekwan, Meos Mansar, Kabupaten Raja Ampat, Papua Bar.","Kabupaten Raja Ampat, Papua Bar.",PAPUA BARAT,,Indonesia,,-0.5748767,130.631415,https://maps.google.com/?cid=0x0:0x8d0cbac836204c9e
housing complex,Komplek perumahan,Kor ingkur,"CJ94+JPJ, Kurkapa, Meos Mansar, Kabupaten Raja Ampat, Papua Bar.","Kabupaten Raja Ampat, Papua Bar.",PAPUA BARAT,,Indonesia,,-0.5809239,130.606756,https://maps.google.com/?cid=0x0:0xa67b1da608fdfe7f
housing complex,Gedung Apartemen,Solal,"6XH8+CC2, Solal, Distrik Misool, Kabupaten Raja Ampat, Papua Bar. 98483","Solal, Distrik Misool, Kabupaten Raja Ampat",PAPUA BARAT,98483.0,Indonesia,,-1.7714959,129.9660121,https://maps.google.com/?cid=0x0:0xcfbd4c1dd8416e53
housing complex,housing complex,Distrik Misool,"Kabupaten Raja Ampat, Papua Bar.","Kabupaten Raja Ampat, Papua Bar.",PAPUA BARAT,,Indonesia,,-1.7294753,130.076264,https://maps.google.com/?cid=0x0:0xe3dfedd20bce543c
housing complex,Perumahan,AFU home,"5RCG+PP9, Waigama, Distrik Misool, Kabupaten Raja Ampat, Papua Bar. 98483","Waigama, Distrik Misool, Kabupaten Raja Ampat",PAPUA BARAT,98483.0,Indonesia,,-1.8282478,129.8278632,https://maps.google.com/?cid=0x0:0xd733e5a21330612b
housing complex,Komplek perumahan,JUMADIL THEPU,"73CG+7GX, Atkari, Distrik Misool, Kabupaten Raja Ampat, Papua Bar. 98483","Atkari, Distrik Misool, Kabupaten Raja Ampat",PAPUA BARAT,98483.0,Indonesia,,-1.72875,130.077684,https://maps.google.com/?cid=0x0:0xf55c327f287f7076
housing complex,housing complex,Distrik Misool Barat,"Kabupaten Raja Ampat, Papua Bar.","Kabupaten Raja Ampat, Papua Bar.",PAPUA BARAT,,Indonesia,,-2.0480936,130.2709743,https://maps.google.com/?cid=0x0:0xfc668800a318e464
housing complex,Komplek perumahan,Kompleks rumda,"WCR6+QQX, Yellu, Misool Sel., Kabupaten Raja Ampat, Papua Bar. 98483","Yellu, Misool Sel., Kabupaten Raja Ampat",PAPUA BARAT,98483.0,Indonesia,81354676059.0,-2.0586519,130.4118747,https://maps.google.com/?cid=0x0:0xab2c3cbade6e9750
housing complex,Gedung Apartemen,Solal,"6XH8+CC2, Solal, Distrik Misool, Kabupaten Raja Ampat, Papua Bar. 98483","Solal, Distrik Misool, Kabupaten Raja Ampat",PAPUA BARAT,98483.0,Indonesia,,-1.7714959,129.9660121,https://maps.google.com/?cid=0x0:0xcfbd4c1dd8416e53
housing complex,housing complex,Fiabacet,"Yellu, Misool Sel., Kabupaten Raja Ampat, Papua Bar.","Kabupaten Raja Ampat, Papua Bar.",PAPUA BARAT,,Indonesia,,-2.2211111,130.5516667,https://maps.google.com/?cid=0x0:0xdea3f07a56ccf400
housing complex,Pembangunan Perumahan,Desa Biga,"X7J9+FMQ, Biga, Distrik Misool Barat, Kabupaten Raja Ampat, Papua Bar. 98483","Biga, Distrik Misool Barat, Kabupaten Raja Ampat",PAPUA BARAT,98483.0,Indonesia,,-2.0187955,130.2692483,https://maps.google.com/?cid=0x0:0x43f7d68545b7dc6c
housing complex,Perumahan,AFU home,"5RCG+PP9, Waigama, Distrik Misool, Kabupaten Raja Ampat, Papua Bar. 98483","Waigama, Distrik Misool, Kabupaten Raja Ampat",PAPUA BARAT,98483.0,Indonesia,,-1.8282478,129.8278632,https://maps.google.com/?cid=0x0:0xd733e5a21330612b
housing complex,Perumahan rakyat,Raja Ampat,"28R9+5JP, Fafanlap, Misool Sel., Kabupaten Raja Ampat, Papua Bar. 98483","Fafanlap, Misool Sel., Kabupaten Raja Ampat",PAPUA BARAT,98483.0,Indonesia,,-1.959546,130.3190719,https://maps.google.com/?cid=0x0:0x4ebfc697e57e526b
housing complex,Gedung Apartemen,Misol yellu,"X7HG+W4, Biga, Kabupaten Raja Ampat, Papua Bar.","Kabupaten Raja Ampat, Papua Bar.",PAPUA BARAT,,Indonesia,,-2.020151,130.275367,https://maps.google.com/?cid=0x0:0x5219f14e8b73d31a
housing complex,Komplek perumahan,Kampung kayerepop,"X9CM+CHP, Kayerepop, Misool Sel., Kabupaten Raja Ampat, Papua Bar. 98483","Kayerepop, Misool Sel., Kabupaten Raja Ampat",PAPUA BARAT,98483.0,Indonesia,,-2.0288243,130.3847548,https://maps.google.com/?cid=0x0:0xbab1027ba3260fd7
housing complex,Komplek perumahan,Perumahan Kesehatan,"WC74+RCW, Dabatan, Misool Sel., Kabupaten Raja Ampat, Papua Bar. 98483","Dabatan, Misool Sel., Kabupaten Raja Ampat",PAPUA BARAT,98483.0,Indonesia,,-2.0853784,130.4060633,https://maps.google.com/?cid=0x0:0x7f3c158aaf03c251
housing complex,Pembangunan Perumahan,DILOL HARAPAN INDAH,"XCH7+FM, Harapan Jaya, Misool Sel., Kabupaten Raja Ampat, Papua Bar. 98483","Harapan Jaya, Misool Sel., Kabupaten Raja Ampat",PAPUA BARAT,98483.0,Indonesia,,-2.021309,130.4141773,https://maps.google.com/?cid=0x0:0xa0bc296de886f84
housing complex,Gereja,GKI PETRUS TOMOLOL,"39V8+M9J, Tomolol, Distrik Misool Timur, Kabupaten Raja Ampat, Papua Bar. 98483","Tomolol, Distrik Misool Timur, Kabupaten Raja Ampat",PAPUA BARAT,98483.0,Indonesia,,-1.9057855,130.3658832,https://maps.google.com/?cid=0x0:0xf95e80ceb2acd151
housing complex,Pembangunan Perumahan,Perumahan,"WCR7+Q78, Yellu, Misool Sel., Kabupaten Raja Ampat, Papua Bar.","Kabupaten Raja Ampat, Papua Bar.",PAPUA BARAT,,Indonesia,,-2.0580875,130.4132031,https://maps.google.com/?cid=0x0:0xecdedfdd199521a0
housing complex,Komplek perumahan,Usaha Jaya,"2C6C+J77, Usaha Jaya, Distrik Misool Timur, Kabupaten Raja Ampat, Papua Bar. 98483","Usaha Jaya, Distrik Misool Timur, Kabupaten Raja Ampat",PAPUA BARAT,98483.0,Indonesia,,-1.9884982,130.4203772,https://maps.google.com/?cid=0x0:0xc96a889e5e37ea1a
housing complex,housing complex,Misool Eco Resort,"Yellu, Misool Sel., Kabupaten Raja Ampat, Papua Bar. 98483","Misool Sel., Kabupaten Raja Ampat",PAPUA BARAT,98483.0,Indonesia,,-2.244373,130.5557219,https://maps.google.com/?cid=0x0:0xcec0c32ec4b9f857
housing complex,housing complex,Fiabacet,"Yellu, Misool Sel., Kabupaten Raja Ampat, Papua Bar.","Kabupaten Raja Ampat, Papua Bar.",PAPUA BARAT,,Indonesia,,-2.2211111,130.5516667,https://maps.google.com/?cid=0x0:0xdea3f07a56ccf400
housing complex,housing complex,Misool Sel.,"Kabupaten Raja Ampat, Papua Bar.","Kabupaten Raja Ampat, Papua Bar.",PAPUA BARAT,,Indonesia,,-1.959546,130.3190719,https://maps.google.com/?cid=0x0:0x772018b3157aa95b
housing complex,Pembangunan Perumahan,Perumahan,"WCR7+Q78, Yellu, Misool Sel., Kabupaten Raja Ampat, Papua Bar.","Kabupaten Raja Ampat, Papua Bar.",PAPUA BARAT,,Indonesia,,-2.0580875,130.4132031,https://maps.google.com/?cid=0x0:0xecdedfdd199521a0
housing complex,Komplek perumahan,Kampung kayerepop,"X9CM+CHP, Kayerepop, Misool Sel., Kabupaten Raja Ampat, Papua Bar. 98483","Kayerepop, Misool Sel., Kabupaten Raja Ampat",PAPUA BARAT,98483.0,Indonesia,,-2.0288243,130.3847548,https://maps.google.com/?cid=0x0:0xbab1027ba3260fd7
housing complex,Komplek perumahan,Perumahan Kesehatan,"WC74+RCW, Dabatan, Misool Sel., Kabupaten Raja Ampat, Papua Bar. 98483","Dabatan, Misool Sel., Kabupaten Raja Ampat",PAPUA BARAT,98483.0,Indonesia,,-2.0853784,130.4060633,https://maps.google.com/?cid=0x0:0x7f3c158aaf03c251
housing complex,Perumahan rakyat,Raja Ampat,"28R9+5JP, Fafanlap, Misool Sel., Kabupaten Raja Ampat, Papua Bar. 98483","Fafanlap, Misool Sel., Kabupaten Raja Ampat",PAPUA BARAT,98483.0,Indonesia,,-1.959546,130.3190719,https://maps.google.com/?cid=0x0:0x4ebfc697e57e526b
housing complex,Pembangunan Perumahan,DILOL HARAPAN INDAH,"XCH7+FM, Harapan Jaya, Misool Sel., Kabupaten Raja Ampat, Papua Bar. 98483","Harapan Jaya, Misool Sel., Kabupaten Raja Ampat",PAPUA BARAT,98483.0,Indonesia,,-2.021309,130.4141773,https://maps.google.com/?cid=0x0:0xa0bc296de886f84
housing complex,Rumah wisata,Lalelkai Nature Lodge Misool,"Lalelkai, Misool - Southern of, Harapan Jaya, South Misool, Raja Ampat Regency, West Papua 98483","Misool - Southern of, Harapan Jaya, South Misool, Raja Ampat Regency",PAPUA BARAT,98483.0,Indonesia,81217638893.0,-2.0380855,130.3740032,https://maps.google.com/?cid=0x0:0xc2fd5026ad01ad88
housing complex,Gedung Apartemen,Misol yellu,"X7HG+W4, Biga, Kabupaten Raja Ampat, Papua Bar.","Kabupaten Raja Ampat, Papua Bar.",PAPUA BARAT,,Indonesia,,-2.020151,130.275367,https://maps.google.com/?cid=0x0:0x5219f14e8b73d31a
housing complex,Komplek perumahan,Warung idil,"WCV7+4VM, Yellu, Misool Sel., Kabupaten Raja Ampat, Papua Bar.","Kabupaten Raja Ampat, Papua Bar.",PAPUA BARAT,,Indonesia,,-2.0571692,130.4146762,https://maps.google.com/?cid=0x0:0xf28a4de3c2210741
housing complex,housing complex,Distrik Misool Timur,"Kabupaten Raja Ampat, Papua Bar.","Kabupaten Raja Ampat, Papua Bar.",PAPUA BARAT,,Indonesia,,-1.7731765,130.4105659,https://maps.google.com/?cid=0x0:0x37397a27849d25ed
housing complex,Pembangunan Perumahan,Haukep,"74PG+F4W, Lenmalas, Distrik Misool Timur, Kabupaten Raja Ampat, Papua Bar. 98483","Lenmalas, Distrik Misool Timur, Kabupaten Raja Ampat",PAPUA BARAT,98483.0,Indonesia,,-1.7137715,130.1253195,https://maps.google.com/?cid=0x0:0x95a9a04c2c84aa1b
housing complex,Pembangunan Perumahan,SD Pola Asrama,"6CM3+3J3, Folley, Distrik Misool Timur, Kabupaten Raja Ampat, Papua Bar. 98483","Folley, Distrik Misool Timur, Kabupaten Raja Ampat",PAPUA BARAT,98483.0,Indonesia,,-1.7673524,130.4040561,https://maps.google.com/?cid=0x0:0xe562bdadb349bb78
housing complex,Komplek perumahan,ITO Home,"889P+7GG, Audam, Distrik Misool Timur, Kabupaten Raja Ampat, Papua Bar. 98483","Audam, Distrik Misool Timur, Kabupaten Raja Ampat",PAPUA BARAT,98483.0,Indonesia,,-1.6818223,130.3363359,https://maps.google.com/?cid=0x0:0x91c6f5d4a35917ad
housing complex,housing complex,Fiabacet,"Yellu, Misool Sel., Kabupaten Raja Ampat, Papua Bar.","Kabupaten Raja Ampat, Papua Bar.",PAPUA BARAT,,Indonesia,,-2.2211111,130.5516667,https://maps.google.com/?cid=0x0:0xdea3f07a56ccf400
housing complex,housing complex,Misool Eco Resort,"Yellu, Misool Sel., Kabupaten Raja Ampat, Papua Bar. 98483","Misool Sel., Kabupaten Raja Ampat",PAPUA BARAT,98483.0,Indonesia,,-2.244373,130.5557219,https://maps.google.com/?cid=0x0:0xcec0c32ec4b9f857
housing complex,Komplek perumahan,Kompleks rumda,"WCR6+QQX, Yellu, Misool Sel., Kabupaten Raja Ampat, Papua Bar. 98483","Yellu, Misool Sel., Kabupaten Raja Ampat",PAPUA BARAT,98483.0,Indonesia,81354676059.0,-2.0586519,130.4118747,https://maps.google.com/?cid=0x0:0xab2c3cbade6e9750
housing complex,Kantor Perusahaan,Folley,"6CG6+Q8, Folley, Distrik Misool Timur, Kabupaten Raja Ampat, Papua Bar. 98483","Folley, Distrik Misool Timur, Kabupaten Raja Ampat",PAPUA BARAT,98483.0,Indonesia,,-1.7730125,130.4107888,https://maps.google.com/?cid=0x0:0x364625f07e76a968
housing complex,Gereja,GKI PETRUS TOMOLOL,"39V8+M9J, Tomolol, Distrik Misool Timur, Kabupaten Raja Ampat, Papua Bar. 98483","Tomolol, Distrik Misool Timur, Kabupaten Raja Ampat",PAPUA BARAT,98483.0,Indonesia,,-1.9057855,130.3658832,https://maps.google.com/?cid=0x0:0xf95e80ceb2acd151
housing complex,Komplek perumahan,Usaha Jaya,"2C6C+J77, Usaha Jaya, Distrik Misool Timur, Kabupaten Raja Ampat, Papua Bar. 98483","Usaha Jaya, Distrik Misool Timur, Kabupaten Raja Ampat",PAPUA BARAT,98483.0,Indonesia,,-1.9884982,130.4203772,https://maps.google.com/?cid=0x0:0xc96a889e5e37ea1a
housing complex,Perumahan rakyat,Raja Ampat,"28R9+5JP, Fafanlap, Misool Sel., Kabupaten Raja Ampat, Papua Bar. 98483","Fafanlap, Misool Sel., Kabupaten Raja Ampat",PAPUA BARAT,98483.0,Indonesia,,-1.959546,130.3190719,https://maps.google.com/?cid=0x0:0x4ebfc697e57e526b
housing complex,Komplek perumahan,JUMADIL THEPU,"73CG+7GX, Atkari, Distrik Misool, Kabupaten Raja Ampat, Papua Bar. 98483","Atkari, Distrik Misool, Kabupaten Raja Ampat",PAPUA BARAT,98483.0,Indonesia,,-1.72875,130.077684,https://maps.google.com/?cid=0x0:0xf55c327f287f7076
housing complex,Pembangunan Perumahan,DILOL HARAPAN INDAH,"XCH7+FM, Harapan Jaya, Misool Sel., Kabupaten Raja Ampat, Papua Bar. 98483","Harapan Jaya, Misool Sel., Kabupaten Raja Ampat",PAPUA BARAT,98483.0,Indonesia,,-2.021309,130.4141773,https://maps.google.com/?cid=0x0:0xa0bc296de886f84
housing complex,Komplek perumahan,Kampung kayerepop,"X9CM+CHP, Kayerepop, Misool Sel., Kabupaten Raja Ampat, Papua Bar. 98483","Kayerepop, Misool Sel., Kabupaten Raja Ampat",PAPUA BARAT,98483.0,Indonesia,,-2.0288243,130.3847548,https://maps.google.com/?cid=0x0:0xbab1027ba3260fd7
housing complex,Kantor Pemerintah Distrik,Kampung weibon,"3Q95+HX9, Distrik Salawati Barat, Kabupaten Raja Ampat, Papua Bar.","Kabupaten Raja Ampat, Papua Bar.",PAPUA BARAT,,Indonesia,,-0.9310832,130.75997,https://maps.google.com/?cid=0x0:0x57d09b5ce1fd603f
housing complex,housing complex,Distrik Salawati Barat,"Kabupaten Raja Ampat, Papua Bar.","Kabupaten Raja Ampat, Papua Bar.",PAPUA BARAT,,Indonesia,,-1.0980561,130.7040528,https://maps.google.com/?cid=0x0:0x6c8554c61c1a5f51
housing complex,Pembangunan Perumahan,WAZZABI,"PJQ4+6Q, Dulbatan, Kec. Salawati Sel., Kabupaten Sorong, Papua Bar.","Kabupaten Sorong, Papua Bar.",PAPUA BARAT,,Indonesia,,-1.261963,130.606904,https://maps.google.com/?cid=0x0:0x38c14b8b6da1e115
housing complex,Pembangunan Perumahan,Desa Payapop,"QQ29+4H7, Sailolof, Kec. Salawati Sel., Kabupaten Sorong, Papua Bar. 98452","Sailolof, Kec. Salawati Sel., Kabupaten Sorong",PAPUA BARAT,98452.0,Indonesia,,-1.2497096,130.7689121,https://maps.google.com/?cid=0x0:0xd4e6e739c9c78bd7
housing complex,housing complex,Gedung Gereja Silo Dorehkar yang Baru,"WV5H+94X, Kapatlap, Distrik Kepulauan Ayau, Kabupaten Raja Ampat, Papua Bar.","Kabupaten Raja Ampat, Papua Bar.",PAPUA BARAT,,Indonesia,,-1.0915151,130.8778586,https://maps.google.com/?cid=0x0:0xa538b0a9a7ef8aa2
housing complex,Pembangunan Perumahan,KAMPUNG DUBER,"XWFX+WH, Duber, Kec. Salawati Utara, Kabupaten Raja Ampat, Papua Bar.","Kabupaten Raja Ampat, Papua Bar.",PAPUA BARAT,,Indonesia,,-1.0251875,130.9489375,https://maps.google.com/?cid=0x0:0x88409a1d97939bf0
housing complex,Komplek perumahan,Kampung Mas-Maspop,"PQVM+J76, Sailolof, Kec. Salawati Sel., Kabupaten Sorong, Papua Bar.","Kabupaten Sorong, Papua Bar.",PAPUA BARAT,,Indonesia,,-1.2559638,130.7831299,https://maps.google.com/?cid=0x0:0xfe616257fa1bc87a
housing complex,Pembangunan Perumahan,Kampung yenanas,"5V6R+69C, Yenanas, Selat Sagawin, Kabupaten Raja Ampat, Papua Bar. 98484","Yenanas, Selat Sagawin, Kabupaten Raja Ampat",PAPUA BARAT,98484.0,Indonesia,,-0.8394452,130.8908977,https://maps.google.com/?cid=0x0:0x6c0adc570f6c52ff
housing complex,housing complex,Distrik Salawati barat kap raja Ampat,"465P+W96, Doom Bar., Distrik Sorong Barat, Kota Sorong, Papua Bar.","Kota Sorong, Papua Bar.",PAPUA BARAT,,Indonesia,,-0.8902127,131.2359062,https://maps.google.com/?cid=0x0:0x76bd45f55e7b4dab
housing complex,Kompleks Apartemen,Rumah ridwan,"X3F7+9RQ, Kalobo, Salawati Tengah, Kabupaten Raja Ampat, Papua Bar. 98484","Kalobo, Salawati Tengah, Kabupaten Raja Ampat",PAPUA BARAT,98484.0,Indonesia,,-1.0265315,131.0646026,https://maps.google.com/?cid=0x0:0x1dc8d030dea24a6b
housing complex,housing complex,Rumah Tn.Philipus,"W3V4+985, Kalobo, Salawati Tengah, Kabupaten Raja Ampat, Papua Bar. 98484","Kalobo, Salawati Tengah, Kabupaten Raja Ampat",PAPUA BARAT,98484.0,Indonesia,,-1.0566158,131.0558552,https://maps.google.com/?cid=0x0:0x205ae80c67d0b740
housing complex,housing complex,Salawati Tengah,"Kabupaten Raja Ampat, Papua Bar.","Kabupaten Raja Ampat, Papua Bar.",PAPUA BARAT,,Indonesia,,-1.0547794,131.0589536,https://maps.google.com/?cid=0x0:0x9e15ae7888c4541f
housing complex,Komplek perumahan,PERUMAHAN BAHARI RESIDENCE,"V7GH+C4, Majaran, Kec. Salawati, Kabupaten Sorong, Papua Bar. 98451","Majaran, Kec. Salawati, Kabupaten Sorong",PAPUA BARAT,98451.0,Indonesia,,-1.1220287,131.2786932,https://maps.google.com/?cid=0x0:0x4bd2e476bd2532ac
housing complex,Komplek perumahan,SHELTER ZENI,"V69W+CJ4, Katinim, Kec. Salawati, Kabupaten Sorong, Papua Bar. 98451","Katinim, Kec. Salawati, Kabupaten Sorong",PAPUA BARAT,98451.0,Indonesia,,-1.1314919,131.2465722,https://maps.google.com/?cid=0x0:0xfd918b421d35426e
housing complex,Kompleks Apartemen,Andi Arfan Residence,"W3X6+QG, Waibo, Salawati Tengah, Kabupaten Raja Ampat, Papua Bar.","Kabupaten Raja Ampat, Papua Bar.",PAPUA BARAT,,Indonesia,,-1.0505245,131.0612703,https://maps.google.com/?cid=0x0:0xf06724bed0ece937
housing complex,Komplek perumahan,Perumahan Arafuru,"V792+P4H, Unnamed Road, Majener, Kec. Salawati, Kabupaten Sorong, Papua Bar. 98451","Unnamed Road, Majener, Kec. Salawati, Kabupaten Sorong",PAPUA BARAT,98451.0,Indonesia,,-1.1306824,131.2503736,https://maps.google.com/?cid=0x0:0x481f6d3ac763efa5
housing complex,Komplek perumahan,Rumah,"V7GC+H66, Majaran, Kec. Salawati, Kabupaten Sorong, Papua Bar. 98451","Majaran, Kec. Salawati, Kabupaten Sorong",PAPUA BARAT,98451.0,Indonesia,,-1.123728,131.270521,https://maps.google.com/?cid=0x0:0xbbfa1c1e0fc6de1d
housing complex,Kantor Perusahaan,Kampung SAMATE,"23MC+63, Samate, Kec. Salawati Utara, Kabupaten Raja Ampat, Papua Bar.","Kabupaten Raja Ampat, Papua Bar.",PAPUA BARAT,,Indonesia,,-0.9668985,131.0709802,https://maps.google.com/?cid=0x0:0xd8810a6287739199
housing complex,Komplek perumahan,Asrul,"V7FJ+F6P, Majaran, Kec. Salawati, Kabupaten Sorong, Papua Bar. 98451","Majaran, Kec. Salawati, Kabupaten Sorong",PAPUA BARAT,98451.0,Indonesia,,-1.1263648,131.2805903,https://maps.google.com/?cid=0x0:0x174d3f806366e665
housing complex,housing complex,Kampung Waibin,"P2QC+M4, Waliam, Kec. Salawati Sel., Kabupaten Sorong, Papua Bar.","Kabupaten Sorong, Papua Bar.",PAPUA BARAT,,Indonesia,,-1.260374,131.0205051,https://maps.google.com/?cid=0x0:0x5498958311b4a3f1
housing complex,Komplek perumahan,Rumah Enggar,"V7FH+R8W, Majaran, Kec. Salawati, Kabupaten Sorong, Papua Bar. 98451","Majaran, Kec. Salawati, Kabupaten Sorong",PAPUA BARAT,98451.0,Indonesia,,-1.125338,131.278683,https://maps.google.com/?cid=0x0:0xafe715503f8842d5
housing complex,Pembangunan Perumahan,Batu Api,"3382+WC3, Unnamed Road, Kapatlap, Kec. Salawati Utara, Kabupaten Raja Ampat, Papua Bar. 98484","Unnamed Road, Kapatlap, Kec. Salawati Utara, Kabupaten Raja Ampat",PAPUA BARAT,98484.0,Indonesia,,-0.9327393,131.051032,https://maps.google.com/?cid=0x0:0x703d07a0bb5ac670
housing complex,Pembangunan Perumahan,safri Ahek,"RT.01, Katinim, Kec. Salawati, Kabupaten Sorong, Papua Bar. 98451","Katinim, Kec. Salawati, Kabupaten Sorong",PAPUA BARAT,98451.0,Indonesia,,-1.1249894,131.230949,https://maps.google.com/?cid=0x0:0x3f8ff822567ac7d2
housing complex,Kantor Perusahaan,Kampung SAMATE,"23MC+63, Samate, Kec. Salawati Utara, Kabupaten Raja Ampat, Papua Bar.","Kabupaten Raja Ampat, Papua Bar.",PAPUA BARAT,,Indonesia,,-0.9668985,131.0709802,https://maps.google.com/?cid=0x0:0xd8810a6287739199
housing complex,Komplek perumahan,Kantor Desa Samate,"23JC+FRG, Unnamed Road, Samate, Salawati Utara, Raja Ampat Regency, West Papua 98484","Unnamed Road, Samate, Salawati Utara, Raja Ampat Regency",PAPUA BARAT,98484.0,Indonesia,,-0.968825,131.0720667,https://maps.google.com/?cid=0x0:0xec95e249042b0c27
housing complex,Kantor Perusahaan,PLTD LISDES SAMATE,"23JF+MQ, Samate, Kec. Salawati Utara, Kabupaten Raja Ampat, Papua Bar.","Kabupaten Raja Ampat, Papua Bar.",PAPUA BARAT,,Indonesia,,-0.9683423,131.0744922,https://maps.google.com/?cid=0x0:0xa8ac886f3776974e
housing complex,housing complex,Supnin,"Kabupaten Raja Ampat, Papua Bar.","Kabupaten Raja Ampat, Papua Bar.",PAPUA BARAT,,Indonesia,,-0.0707044,130.7766611,https://maps.google.com/?cid=0x0:0x460c1dbebeaa6e11
housing complex,Komplek perumahan,Hilarius burdam,"XWFX+RG5, Rauki, Distrik Waigeo Utara, Kabupaten Raja Ampat, Papua Bar. 98481","Rauki, Distrik Waigeo Utara, Kabupaten Raja Ampat",PAPUA BARAT,98481.0,Indonesia,,-0.0254971,130.9488589,https://maps.google.com/?cid=0x0:0x4665bcf69e132c35
housing complex,Komplek perumahan,AREND BURDAM,"XWFW+98, Rauki, Supnin, Kabupaten Raja Ampat, Papua Bar.","Kabupaten Raja Ampat, Papua Bar.",PAPUA BARAT,,Indonesia,,-0.0265371,130.9457817,https://maps.google.com/?cid=0x0:0x61d5cca07dc4e5bb
housing complex,Komplek perumahan,Kampung GO,"WMC7+FR, GO, Distrik Tiplol Mayalibit, Kabupaten Raja Ampat, Papua Bar.","Kabupaten Raja Ampat, Papua Bar.",PAPUA BARAT,,Indonesia,,-0.0787902,130.6647357,https://maps.google.com/?cid=0x0:0xdb864b8b77569429
housing complex,Perhimpunan Pengembang Perumahan,KAMPUNG KAPADIRI,"WPPW+GGJ, Kapadiri, Supnin, Kabupaten Raja Ampat, Papua Bar. 98482","Kapadiri, Supnin, Kabupaten Raja Ampat",PAPUA BARAT,98482.0,Indonesia,,-0.0636553,130.7462671,https://maps.google.com/?cid=0x0:0x7d70a2dcd5dcef00
housing complex,Pembangunan Perumahan,Raja Ampat Utara,"WPMM+XXJ, Kapadiri, Supnin, Kabupaten Raja Ampat, Papua Bar.","Kabupaten Raja Ampat, Papua Bar.",PAPUA BARAT,,Indonesia,,-0.06503,130.734894,https://maps.google.com/?cid=0x0:0x9f22d0ab530dbd98
housing complex,housing complex,Kec. Tlk. Mayalibit,"Kabupaten Raja Ampat, Papua Bar.","Kabupaten Raja Ampat, Papua Bar.",PAPUA BARAT,,Indonesia,,-0.2689344,130.9384914,https://maps.google.com/?cid=0x0:0xae388a762cdfd0ec
housing complex,Komplek perumahan,Gurabesi,"MX27+WH, Mumes, Kec. Tlk. Mayalibit, Kabupaten Raja Ampat, Papua Bar.","Kabupaten Raja Ampat, Papua Bar.",PAPUA BARAT,,Indonesia,,-0.3477295,130.9639765,https://maps.google.com/?cid=0x0:0x787ff6e9d53215fa
housing complex,Komplek perumahan,Komplek Perumahan 200,"HRMX+PFV, Waisai, Distrik Kota Waisai, Kabupaten Raja Ampat, Papua Bar. 98482","Waisai, Distrik Kota Waisai, Kabupaten Raja Ampat",PAPUA BARAT,98482.0,Indonesia,,-0.4156402,130.8486616,https://maps.google.com/?cid=0x0:0x8b9b71ee38da829
housing complex,housing complex,Rumah BARA,"Jl. Lukas Dailon, Waisai, Distrik Kota Waisai, Kabupaten Raja Ampat, Papua Bar. 98482","Waisai, Distrik Kota Waisai, Kabupaten Raja Ampat",PAPUA BARAT,98482.0,Indonesia,82199630001.0,-0.4172679,130.8227421,https://maps.google.com/?cid=0x0:0x781342e885f9b479
housing complex,Komplek perumahan,Komplex lonebi AXY,"HRR9+FG3, Waisai, Distrik Kota Waisai, Kabupaten Raja Ampat, Papua Bar. 98482","Waisai, Distrik Kota Waisai, Kabupaten Raja Ampat",PAPUA BARAT,98482.0,Indonesia,,-0.4088671,130.8188029,https://maps.google.com/?cid=0x0:0xa4bfcd7ed7e360fd
housing complex,Tujuan Wisata,Pos Air terjun Warmayau (Warmayau Waterfall Post),"MWJ9+6Q5, Warsamdim, Kec. Tlk. Mayalibit, Kabupaten Raja Ampat, Papua Bar. 98482","Warsamdim, Kec. Tlk. Mayalibit, Kabupaten Raja Ampat",PAPUA BARAT,98482.0,Indonesia,,-0.3194789,130.9194984,https://maps.google.com/?cid=0x0:0xf9e51468aa50a67e
housing complex,Pembangunan Perumahan,RAZKOL AREA,"HRFC+P8W, Waisai, Distrik Kota Waisai, Kabupaten Raja Ampat, Papua Bar. 98482","Waisai, Distrik Kota Waisai, Kabupaten Raja Ampat",PAPUA BARAT,98482.0,Indonesia,,-0.4255487,130.8208909,https://maps.google.com/?cid=0x0:0x821ab0aa76dd6739
housing complex,housing complex,LBG,"HRM9+JH2, Waisai, Distrik Kota Waisai, Kabupaten Raja Ampat, Papua Bar. 98482","Waisai, Distrik Kota Waisai, Kabupaten Raja Ampat",PAPUA BARAT,98482.0,Indonesia,,-0.4159848,130.8188949,https://maps.google.com/?cid=0x0:0x2cfe42bf5f39fa5d
housing complex,Otoritas Perumahan,Perumahan Moko,"HVP4+JR8, Unnamed Road, Waisai, Raja Ampat Regency, West Papua 98482","Unnamed Road, Waisai, Raja Ampat Regency",PAPUA BARAT,98482.0,Indonesia,,-0.4134609,130.8570794,https://maps.google.com/?cid=0x0:0x72ba6eacff7b4489
housing complex,Komplek perumahan,Kampung Mumes,"MX27+75, Mumes, Kabupaten Raja Ampat, Papua Bar.","Kabupaten Raja Ampat, Papua Bar.",PAPUA BARAT,,Indonesia,,-0.3493435,130.9629341,https://maps.google.com/?cid=0x0:0xf51f9dea127541ba
housing complex,Komplek perumahan,Kampung GO,"WMC7+FR, GO, Distrik Tiplol Mayalibit, Kabupaten Raja Ampat, Papua Bar.","Kabupaten Raja Ampat, Papua Bar.",PAPUA BARAT,,Indonesia,,-0.0787902,130.6647357,https://maps.google.com/?cid=0x0:0xdb864b8b77569429
housing complex,Komplek perumahan,Kampung Beo,"VM7H+8M5, Beo, Distrik Tiplol Mayalibit, Kabupaten Raja Ampat, Papua Bar. 98482","Beo, Distrik Tiplol Mayalibit, Kabupaten Raja Ampat",PAPUA BARAT,98482.0,Indonesia,,-0.1364955,130.6805706,https://maps.google.com/?cid=0x0:0x231b4b9e0889c0a
housing complex,Komplek perumahan,Aspol Raja Ampat,"HRQ7+M6J, Waisai, Kec. Waigeo Sel., Kabupaten Raja Ampat, Papua Bar. 98482","Waisai, Kec. Waigeo Sel., Kabupaten Raja Ampat",PAPUA BARAT,98482.0,Indonesia,,-0.4107838,130.813022,https://maps.google.com/?cid=0x0:0x75a2c26cd05d98d
housing complex,Komplek perumahan,BATAZO AREA,"HRPW+PR5, Waisai, Distrik Kota Waisai, Kabupaten Raja Ampat, Papua Bar. 98482","Waisai, Distrik Kota Waisai, Kabupaten Raja Ampat",PAPUA BARAT,98482.0,Indonesia,,-0.413232,130.847118,https://maps.google.com/?cid=0x0:0x99dc16e26c865fda
housing complex,housing complex,Distrik Tiplol Mayalibit,"Kabupaten Raja Ampat, Papua Bar.","Kabupaten Raja Ampat, Papua Bar.",PAPUA BARAT,,Indonesia,,-0.078691,130.6642772,https://maps.google.com/?cid=0x0:0xd2fca4629b110358
housing complex,Komplek perumahan,Kampung GO,"WMC7+FR, GO, Distrik Tiplol Mayalibit, Kabupaten Raja Ampat, Papua Bar.","Kabupaten Raja Ampat, Papua Bar.",PAPUA BARAT,,Indonesia,,-0.0787902,130.6647357,https://maps.google.com/?cid=0x0:0xdb864b8b77569429
housing complex,Komplek perumahan,Kampung Beo,"VM7H+8M5, Beo, Distrik Tiplol Mayalibit, Kabupaten Raja Ampat, Papua Bar. 98482","Beo, Distrik Tiplol Mayalibit, Kabupaten Raja Ampat",PAPUA BARAT,98482.0,Indonesia,,-0.1364955,130.6805706,https://maps.google.com/?cid=0x0:0x231b4b9e0889c0a
housing complex,housing complex,Kuburan jokowi,"QGR3+M3, Araway, Distrik Tiplol Mayalibit, Kabupaten Raja Ampat, Papua Bar.","Kabupaten Raja Ampat, Papua Bar.",PAPUA BARAT,,Indonesia,,-0.2083669,130.5026959,https://maps.google.com/?cid=0x0:0x3aa0d7d856bc340
housing complex,Komplek perumahan,Kampung Arawai,"VJ2H+242, Araway, Distrik Tiplol Mayalibit, Kabupaten Raja Ampat, Papua Bar.","Kabupaten Raja Ampat, Papua Bar.",PAPUA BARAT,,Indonesia,,-0.149995,130.627775,https://maps.google.com/?cid=0x0:0xe43f9836d862e3c5
housing complex,Perhimpunan Pengembang Perumahan,Rumah Pribadi,"Wawiyai, Kec. Waigeo Sel., Kabupaten Raja Ampat, Papua Bar. 98482","Kec. Waigeo Sel., Kabupaten Raja Ampat",PAPUA BARAT,98482.0,Indonesia,,-0.2915581,130.6448378,https://maps.google.com/?cid=0x0:0xf9303c97d61d8ba4
housing complex,Perhimpunan Pengembang Perumahan,Rumah ELISA KAPATSAI,"PM4C+3V, Wawiyai, Kec. Waigeo Sel., Kabupaten Raja Ampat, Papua Bar.","Kabupaten Raja Ampat, Papua Bar.",PAPUA BARAT,,Indonesia,,-0.29487,130.67217,https://maps.google.com/?cid=0x0:0xb714f28452764d0c
housing complex,Perhimpunan Pengembang Perumahan,RUMAH YOHOSUA YOPPY KAPATSAI,"MMX8+X8, Wawiyai, Kec. Waigeo Sel., Kabupaten Raja Ampat, Papua Bar.","Kabupaten Raja Ampat, Papua Bar.",PAPUA BARAT,,Indonesia,,-0.30005,130.66615,https://maps.google.com/?cid=0x0:0x73ebd4f8edb26cc9
housing complex,Perhimpunan Pengembang Perumahan,Rumah Markus Dawa,"MMX8+X8, Wawiyai, Kec. Waigeo Sel., Kabupaten Raja Ampat, Papua Bar.","Kabupaten Raja Ampat, Papua Bar.",PAPUA BARAT,,Indonesia,,-0.30002,130.66585,https://maps.google.com/?cid=0x0:0x49a1a481c66eaf48
housing complex,Perhimpunan Pengembang Perumahan,Rumah YORFEN GIMLA,"PM4C+3V, Wawiyai, Kec. Waigeo Sel., Kabupaten Raja Ampat, Papua Bar.","Kabupaten Raja Ampat, Papua Bar.",PAPUA BARAT,,Indonesia,,-0.29527,130.67225,https://maps.google.com/?cid=0x0:0xa2331bcc7c17a22b
housing complex,housing complex,Kec. Waigeo Bar.,"Kabupaten Raja Ampat, Papua Bar.","Kabupaten Raja Ampat, Papua Bar.",PAPUA BARAT,,Indonesia,,-0.1565367,130.4516329,https://maps.google.com/?cid=0x0:0xa968725bc286475b
housing complex,Komplek perumahan,Wiwik Bianci,"M9P6+JFF, Bianci, Kec. Waigeo Bar., Kabupaten Raja Ampat, Papua Bar.","Kabupaten Raja Ampat, Papua Bar.",PAPUA BARAT,,Indonesia,,-0.313434,130.3611669,https://maps.google.com/?cid=0x0:0x11353445920e5340
housing complex,Komplek perumahan,Rumah Theo Mambrasar,"P9V6+XP, Waisilip, Kec. Waigeo Bar., Kabupaten Raja Ampat, Papua Bar.","Kabupaten Raja Ampat, Papua Bar.",PAPUA BARAT,,Indonesia,,-0.2545032,130.3630544,https://maps.google.com/?cid=0x0:0x49d3fb98d3f622
housing complex,housing complex,Camp kelapa,"R764+PRJ, Alyui, Kec. Waigeo Bar., Kabupaten Raja Ampat, Papua Bar.","Kabupaten Raja Ampat, Papua Bar.",PAPUA BARAT,,Indonesia,,-0.1881717,130.2570088,https://maps.google.com/?cid=0x0:0xa1af18d130f8dc77
housing complex,Komplek perumahan,Kantor desa gambir,"HV3H+59Q, Gag, Kec. Waigeo Bar., Kabupaten Raja Ampat, Papua Bar. 98481","Gag, Kec. Waigeo Bar., Kabupaten Raja Ampat",PAPUA BARAT,98481.0,Indonesia,,-0.4470478,129.8784831,https://maps.google.com/?cid=0x0:0x19eb4a876a3ff721
housing complex,Komplek perumahan,Rumah NS Kenangan Novita,"P9V6+XP, Waisilip, Kec. Waigeo Bar., Kabupaten Raja Ampat, Papua Bar.","Kabupaten Raja Ampat, Papua Bar.",PAPUA BARAT,,Indonesia,,-0.2543742,130.3623208,https://maps.google.com/?cid=0x0:0x6e2b490eddd6de1d
housing complex,Kios,Kios padaelo,"lorong 3 Jln pulau gak, Gag, Distrik Waigeo Barat Kepulauan, Kabupaten Raja Ampat, Papua Bar. 98481","Gag, Distrik Waigeo Barat Kepulauan, Kabupaten Raja Ampat",PAPUA BARAT,98481.0,Indonesia,,-0.4470478,129.8784831,https://maps.google.com/?cid=0x0:0xfd8acc7a648223bc
housing complex,Komplek perumahan,Kampung Arawai,"VJ2H+242, Araway, Distrik Tiplol Mayalibit, Kabupaten Raja Ampat, Papua Bar.","Kabupaten Raja Ampat, Papua Bar.",PAPUA BARAT,,Indonesia,,-0.149995,130.627775,https://maps.google.com/?cid=0x0:0xe43f9836d862e3c5
housing complex,housing complex,Kampung Baru,"JV2Q+82, Gag, Distrik Waigeo Barat Kepulauan, Kabupaten Raja Ampat, Papua Bar.","Kabupaten Raja Ampat, Papua Bar.",PAPUA BARAT,,Indonesia,,-0.3991982,129.8876334,https://maps.google.com/?cid=0x0:0xfb704d2aa5625816
housing complex,housing complex,Distrik Waigeo Barat Kepulauan,"Kabupaten Raja Ampat, Papua Bar.","Kabupaten Raja Ampat, Papua Bar.",PAPUA BARAT,,Indonesia,,-0.3990489,129.8878154,https://maps.google.com/?cid=0x0:0x2f9f2f03d60aa281
housing complex,Komplek perumahan,Kantor desa gambir,"HV3H+59Q, Gag, Kec. Waigeo Bar., Kabupaten Raja Ampat, Papua Bar. 98481","Gag, Kec. Waigeo Bar., Kabupaten Raja Ampat",PAPUA BARAT,98481.0,Indonesia,,-0.4470478,129.8784831,https://maps.google.com/?cid=0x0:0x19eb4a876a3ff721
housing complex,housing complex,Camp kelapa,"R764+PRJ, Alyui, Kec. Waigeo Bar., Kabupaten Raja Ampat, Papua Bar.","Kabupaten Raja Ampat, Papua Bar.",PAPUA BARAT,,Indonesia,,-0.1881717,130.2570088,https://maps.google.com/?cid=0x0:0xa1af18d130f8dc77
housing complex,housing complex,Kampung Baru,"JV2Q+82, Gag, Distrik Waigeo Barat Kepulauan, Kabupaten Raja Ampat, Papua Bar.","Kabupaten Raja Ampat, Papua Bar.",PAPUA BARAT,,Indonesia,,-0.3991982,129.8876334,https://maps.google.com/?cid=0x0:0xfb704d2aa5625816
housing complex,Komplek perumahan,Ombar pu rumah,"P9W6+H58, Waisilip, Kec. Waigeo Bar., Kabupaten Raja Ampat, Papua Bar. 98481","Waisilip, Kec. Waigeo Bar., Kabupaten Raja Ampat",PAPUA BARAT,98481.0,Indonesia,,-0.2533291,130.3606163,https://maps.google.com/?cid=0x0:0xb662950d5e351227
housing complex,Komplek perumahan,Wiwik Bianci,"M9P6+JFF, Bianci, Kec. Waigeo Bar., Kabupaten Raja Ampat, Papua Bar.","Kabupaten Raja Ampat, Papua Bar.",PAPUA BARAT,,Indonesia,,-0.313434,130.3611669,https://maps.google.com/?cid=0x0:0x11353445920e5340
housing complex,Komplek perumahan,Rumah Theo Mambrasar,"P9V6+XP, Waisilip, Kec. Waigeo Bar., Kabupaten Raja Ampat, Papua Bar.","Kabupaten Raja Ampat, Papua Bar.",PAPUA BARAT,,Indonesia,,-0.2545032,130.3630544,https://maps.google.com/?cid=0x0:0x49d3fb98d3f622
housing complex,housing complex,Zhevadeleshop,"Perumahan 40 Moko, Belakang No.37, Distrik Kota Waisai, 98482",Belakang No.37,PAPUA BARAT,98482.0,Indonesia,,-0.6477199,130.3137514,https://maps.google.com/?cid=0x0:0xd8a74fe8b185befe
housing complex,Tujuan Wisata,Telaga Bintang - Raja Ampat,"C7JC+CCC, Saukabu, Distrik Waigeo Barat Kepulauan, Kabupaten Raja Ampat, Papua Bar. 98481","Saukabu, Distrik Waigeo Barat Kepulauan, Kabupaten Raja Ampat",PAPUA BARAT,98481.0,Indonesia,,-0.5689417,130.2710209,https://maps.google.com/?cid=0x0:0xd8183d736d58a779
housing complex,Perusahaan Manajemen Properti,BESIR,"FHCM+G8, Sawinggrai, Meos Mansar, Kabupaten Raja Ampat, Papua Bar.","Kabupaten Raja Ampat, Papua Bar.",PAPUA BARAT,,Indonesia,,-0.5286951,130.583373,https://maps.google.com/?cid=0x0:0x1e0193e205a24e14
housing complex,Komplek perumahan,KompleksToraja,"HRQ9+V3G, Waisai, Distrik Kota Waisai, Kabupaten Raja Ampat, Papua Bar. 98482","Waisai, Distrik Kota Waisai, Kabupaten Raja Ampat",PAPUA BARAT,98482.0,Indonesia,,-0.4103051,130.8176975,https://maps.google.com/?cid=0x0:0xe904c826cf106459
housing complex,Komplek perumahan,Rumah NS Kenangan Novita,"P9V6+XP, Waisilip, Kec. Waigeo Bar., Kabupaten Raja Ampat, Papua Bar.","Kabupaten Raja Ampat, Papua Bar.",PAPUA BARAT,,Indonesia,,-0.2543742,130.3623208,https://maps.google.com/?cid=0x0:0x6e2b490eddd6de1d
housing complex,housing complex,Kec. Waigeo Sel.,"Kabupaten Raja Ampat, Papua Bar.","Kabupaten Raja Ampat, Papua Bar.",PAPUA BARAT,,Indonesia,,-0.3840807,130.7361322,https://maps.google.com/?cid=0x0:0x2c9db46da776b4
housing complex,housing complex,Perumahan Bandara,"HQFF+GRC, Waisai, Kec. Waigeo Sel., Kabupaten Raja Ampat, Papua Bar. 98482","Waisai, Kec. Waigeo Sel., Kabupaten Raja Ampat",PAPUA BARAT,98482.0,Indonesia,,-0.4254349,130.7745822,https://maps.google.com/?cid=0x0:0x5574f35f22793ce9
housing complex,Pembangunan Perumahan,AMIRUDIN RUMKABU,"HR99+M4H, Jl. Abdul Atfan, Waisai, Kec. Waigeo Sel., Kabupaten Raja Ampat, Papua Bar. 98482","Jl. Abdul Atfan, Waisai, Kec. Waigeo Sel., Kabupaten Raja Ampat",PAPUA BARAT,98482.0,Indonesia,81248191890.0,-0.4308181,130.8178484,https://maps.google.com/?cid=0x0:0x256dde3159d6426a
housing complex,Komplek perumahan,Keluarga TIJI,"HQ78+VJ4, Unnamed Road, Waisai, Distrik Kota Waisai, Kabupaten Raja Ampat, Papua Bar. 98482","Unnamed Road, Waisai, Distrik Kota Waisai, Kabupaten Raja Ampat",PAPUA BARAT,98482.0,Indonesia,81344029248.0,-0.4353647,130.7665748,https://maps.google.com/?cid=0x0:0x2fc5656651eb69ef
housing complex,Pembangunan Perumahan,RAZKOL AREA,"HRFC+P8W, Waisai, Distrik Kota Waisai, Kabupaten Raja Ampat, Papua Bar. 98482","Waisai, Distrik Kota Waisai, Kabupaten Raja Ampat",PAPUA BARAT,98482.0,Indonesia,,-0.4255487,130.8208909,https://maps.google.com/?cid=0x0:0x821ab0aa76dd6739
housing complex,Komplek perumahan,Perumahan wisma,"HRGC+394, Waisai, Distrik Kota Waisai, Kabupaten Raja Ampat, Papua Bar. 98482","Waisai, Distrik Kota Waisai, Kabupaten Raja Ampat",PAPUA BARAT,98482.0,Indonesia,81247273581.0,-0.4248728,130.8209443,https://maps.google.com/?cid=0x0:0x24030eb99ca45b9
housing complex,Komplek perumahan,Komplek Perumahan 200,"HRMX+PFV, Waisai, Distrik Kota Waisai, Kabupaten Raja Ampat, Papua Bar. 98482","Waisai, Distrik Kota Waisai, Kabupaten Raja Ampat",PAPUA BARAT,98482.0,Indonesia,,-0.4156402,130.8486616,https://maps.google.com/?cid=0x0:0x8b9b71ee38da829
housing complex,Perhimpunan Pengembang Perumahan,Rumah Pribadi,"Wawiyai, Kec. Waigeo Sel., Kabupaten Raja Ampat, Papua Bar. 98482","Kec. Waigeo Sel., Kabupaten Raja Ampat",PAPUA BARAT,98482.0,Indonesia,,-0.2915581,130.6448378,https://maps.google.com/?cid=0x0:0xf9303c97d61d8ba4
housing complex,Komplek perumahan,Komplex lonebi AXY,"HRR9+FG3, Waisai, Distrik Kota Waisai, Kabupaten Raja Ampat, Papua Bar. 98482","Waisai, Distrik Kota Waisai, Kabupaten Raja Ampat",PAPUA BARAT,98482.0,Indonesia,,-0.4088671,130.8188029,https://maps.google.com/?cid=0x0:0xa4bfcd7ed7e360fd
housing complex,housing complex,LBG,"HRM9+JH2, Waisai, Distrik Kota Waisai, Kabupaten Raja Ampat, Papua Bar. 98482","Waisai, Distrik Kota Waisai, Kabupaten Raja Ampat",PAPUA BARAT,98482.0,Indonesia,,-0.4159848,130.8188949,https://maps.google.com/?cid=0x0:0x2cfe42bf5f39fa5d
housing complex,Komplek perumahan,BARAK PEGAWAI,"HRG9+JX8, Waisai, Kec. Waigeo Sel., Kabupaten Raja Ampat, Papua Bar. 98482","Waisai, Kec. Waigeo Sel., Kabupaten Raja Ampat",PAPUA BARAT,98482.0,Indonesia,,-0.4234691,130.8199395,https://maps.google.com/?cid=0x0:0x97e2ffc27f7bcd5c
housing complex,Komplek perumahan,KompleksToraja,"HRQ9+V3G, Waisai, Distrik Kota Waisai, Kabupaten Raja Ampat, Papua Bar. 98482","Waisai, Distrik Kota Waisai, Kabupaten Raja Ampat",PAPUA BARAT,98482.0,Indonesia,,-0.4103051,130.8176975,https://maps.google.com/?cid=0x0:0xe904c826cf106459
housing complex,Pembangunan Perumahan,Waisai,"HRGF+9W8, Waisai, Distrik Kota Waisai, Kabupaten Raja Ampat, Papua Bar. 98482","Waisai, Distrik Kota Waisai, Kabupaten Raja Ampat",PAPUA BARAT,98482.0,Indonesia,,-0.4240924,130.8248282,https://maps.google.com/?cid=0x0:0x460650901f7fec5f
housing complex,Perhimpunan Pengembang Perumahan,Rumah Markus Dawa,"MMX8+X8, Wawiyai, Kec. Waigeo Sel., Kabupaten Raja Ampat, Papua Bar.","Kabupaten Raja Ampat, Papua Bar.",PAPUA BARAT,,Indonesia,,-0.30002,130.66585,https://maps.google.com/?cid=0x0:0x49a1a481c66eaf48
housing complex,housing complex,Distrik Waigeo Timur,"Kabupaten Raja Ampat, Papua Bar.","Kabupaten Raja Ampat, Papua Bar.",PAPUA BARAT,,Indonesia,,-0.3761806,131.2503597,https://maps.google.com/?cid=0x0:0x9ea83c531b1daa8e
housing complex,Pembangunan Perumahan,A . MAYOR,"Q8R7+54, Yenbekaki, Distrik Waigeo Timur, Kabupaten Raja Ampat, Papua Bar.","Kabupaten Raja Ampat, Papua Bar.",PAPUA BARAT,,Indonesia,,-0.2097238,131.3129175,https://maps.google.com/?cid=0x0:0xed96fc3952cc755e
housing complex,Pembangunan Perumahan,Sorenbon,"Q8R7+54, Yenbekaki, Distrik Waigeo Timur, Kabupaten Raja Ampat, Papua Bar.","Kabupaten Raja Ampat, Papua Bar.",PAPUA BARAT,,Indonesia,,-0.209374,131.312752,https://maps.google.com/?cid=0x0:0xbcd8afa0bb2230d4
housing complex,Komplek perumahan,Rumah Ronald Sosir,"WXRP+PGG, Kabare, Distrik Waigeo Utara, Kabupaten Raja Ampat, Papua Bar. 98481","Kabare, Distrik Waigeo Utara, Kabupaten Raja Ampat",PAPUA BARAT,98481.0,Indonesia,,-0.059169,130.98712,https://maps.google.com/?cid=0x0:0x8b9bd8306d1a5e07
housing complex,Kantor Perusahaan,Warwanai,"W52G+GG, Warwanai, Distrik Warwarbomi, Kabupaten Raja Ampat, Papua Bar. 98481","Warwanai, Distrik Warwarbomi, Kabupaten Raja Ampat",PAPUA BARAT,98481.0,Indonesia,,-0.0986707,131.1762951,https://maps.google.com/?cid=0x0:0x6b7e1873a4a5a21f
housing complex,Komplek perumahan,Kadar Waisai Residence,"HRG4+5JH, Jl. Marinda Kelurahan Sapordanco, Waisai, Distrik Kota Waisai, Kabupaten Raja Ampat, Papua Bar. 98482","Jl. Marinda Kelurahan Sapordanco, Waisai, Distrik Kota Waisai, Kabupaten Raja Ampat",PAPUA BARAT,98482.0,Indonesia,81230405525.0,-0.42456,130.8066071,https://maps.google.com/?cid=0x0:0xec0db53d8813cd91
housing complex,Komplek perumahan,KompleksToraja,"HRQ9+V3G, Waisai, Distrik Kota Waisai, Kabupaten Raja Ampat, Papua Bar. 98482","Waisai, Distrik Kota Waisai, Kabupaten Raja Ampat",PAPUA BARAT,98482.0,Indonesia,,-0.4103051,130.8176975,https://maps.google.com/?cid=0x0:0xe904c826cf106459
housing complex,housing complex,Hamueco Raja Ampat Dive Resort,"Wirausaha Building Jl HR Rasuna Said Kav C5 Lantai 3, Jakarta Selatan, DKI Jakarta, 12940",Jakarta Selatan,PAPUA BARAT,12940.0,Indonesia,81392500242.0,-0.441485,130.761647,https://maps.google.com/?cid=0x0:0xf060a049fd72614d
housing complex,housing complex,Waigeo Villa,"Waisai, Kec. Waigeo Sel., Kabupaten Raja Ampat, Papua Bar. 98482","Kec. Waigeo Sel., Kabupaten Raja Ampat",PAPUA BARAT,98482.0,Indonesia,81247553799.0,-0.4365115,130.7794821,https://maps.google.com/?cid=0x0:0xd79d1ba9e325d4fc
housing complex,housing complex,Korpak Villa and Resort,"HQ6M+RGH, Unnamed Road, Waisai, Distrik Kota Waisai, Kabupaten Raja Ampat, Papua Bar. 98482","Unnamed Road, Waisai, Distrik Kota Waisai, Kabupaten Raja Ampat",PAPUA BARAT,98482.0,Indonesia,,-0.4379467,130.7838521,https://maps.google.com/?cid=0x0:0x7d6048504236c32d
housing complex,housing complex,Meridian Adventure Marina Club  Resort Waisai,"Waisai, Distrik Kota Waisai, Kabupaten Raja Ampat, Papua Bar. 98482","Distrik Kota Waisai, Kabupaten Raja Ampat",PAPUA BARAT,98482.0,Indonesia,82248540774.0,-0.4341882,130.8081566,https://maps.google.com/?cid=0x0:0x9355b383d6822caa
housing complex,housing complex,Vogelkopf Resort,"Waisai, Distrik Kota Waisai, Kabupaten Raja Ampat, Papua Bar. 98482","Distrik Kota Waisai, Kabupaten Raja Ampat",PAPUA BARAT,98482.0,Indonesia,81360001088.0,-0.4385338,130.785262,https://maps.google.com/?cid=0x0:0x132e94aff8281150
housing complex,housing complex,Scuba Republic - Raja Ampat,"Waisai, Kec. Waigeo Sel., Kabupaten Raja Ampat, Papua Bar. 98482","Kec. Waigeo Sel., Kabupaten Raja Ampat",PAPUA BARAT,98482.0,Indonesia,,-0.4418794,130.7532977,https://maps.google.com/?cid=0x0:0xdbbc913713b959f9
housing complex,housing complex,PapuArts Alter Native Stay,"Desa Saporkren, Kec. Waigeo Sel., Kabupaten Raja Ampat, Papua Bar. 98482","Kec. Waigeo Sel., Kabupaten Raja Ampat",PAPUA BARAT,98482.0,Indonesia,81248455887.0,-0.438169,130.7367168,https://maps.google.com/?cid=0x0:0x39f6073cbd5c64d4
housing complex,housing complex,Distrik Waigeo Utara,"Kabupaten Raja Ampat, Papua Bar.","Kabupaten Raja Ampat, Papua Bar.",PAPUA BARAT,,Indonesia,,-0.0564707,130.9858964,https://maps.google.com/?cid=0x0:0xc31e9c0aa62767f2
housing complex,Komplek perumahan,Rumah Ronald Sosir,"WXRP+PGG, Kabare, Distrik Waigeo Utara, Kabupaten Raja Ampat, Papua Bar. 98481","Kabare, Distrik Waigeo Utara, Kabupaten Raja Ampat",PAPUA BARAT,98481.0,Indonesia,,-0.059169,130.98712,https://maps.google.com/?cid=0x0:0x8b9bd8306d1a5e07
housing complex,Komplek perumahan,Hilarius burdam,"XWFX+RG5, Rauki, Distrik Waigeo Utara, Kabupaten Raja Ampat, Papua Bar. 98481","Rauki, Distrik Waigeo Utara, Kabupaten Raja Ampat",PAPUA BARAT,98481.0,Indonesia,,-0.0254971,130.9488589,https://maps.google.com/?cid=0x0:0x4665bcf69e132c35
housing complex,Komplek perumahan,RUMAH MASA DEPAN,"WXRG+9C, Bonsayor, Distrik Waigeo Utara, Kabupaten Raja Ampat, Papua Bar.","Kabupaten Raja Ampat, Papua Bar.",PAPUA BARAT,,Indonesia,,-0.059085,130.9760075,https://maps.google.com/?cid=0x0:0x7b425fa59184bff1
housing complex,housing complex,Papua Bar.,,Papua Bar.,PAPUA BARAT,,Indonesia,,-1.3361154,133.1747162,https://maps.google.com/?cid=0x0:0x5349c1f8c5c7cb62
housing complex,Kantor Perusahaan,Kompleks Sawitomas,"43VC+2J2, Unnamed Road, Padarni, Kec. Manokwari Bar., Kabupaten Manokwari, Papua Bar. 98312","Unnamed Road, Padarni, Kec. Manokwari Bar., Kabupaten Manokwari",PAPUA BARAT,98312.0,Indonesia,,-0.8574767,134.0715128,https://maps.google.com/?cid=0x0:0xbe27373ff8effe23
housing complex,Minimarket,Apartemen Kasuari,"Arfai Jl.Arfai 1, Anday, Distrik Manokwari, Kabupaten Manokwari, Papua Bar. 98315","Anday, Distrik Manokwari, Kabupaten Manokwari",PAPUA BARAT,98315.0,Indonesia,,-0.9277188,134.0327528,https://maps.google.com/?cid=0x0:0x90368bc3538d4b40
housing complex,Rumah Kayu,"Kompleks kebar, kampun Mulyono amban Manokwari papua barat","5335+XG2, Amban, Kec. Manokwari Bar., Kabupaten Manokwari, Papua Bar. 98312","Amban, Kec. Manokwari Bar., Kabupaten Manokwari",PAPUA BARAT,98312.0,Indonesia,,-0.8451076,134.0587723,https://maps.google.com/?cid=0x0:0x471f986e72b04c02
housing complex,Kompleks Kondominium,Dipat,"43PJ+F59, Manokwari Tim., Kec. Manokwari Bar., Kabupaten Manokwari, Papua Bar. 98312","Manokwari Tim., Kec. Manokwari Bar., Kabupaten Manokwari",PAPUA BARAT,98312.0,Indonesia,,-0.8640697,134.0799279,https://maps.google.com/?cid=0x0:0xdc37ad45008ccaaa
housing complex,Perumahan,Perumahan Green Tea J1,"536F+QJM, Amban, Kec. Manokwari Bar., Kabupaten Manokwari, Papua Bar. 98314","Amban, Kec. Manokwari Bar., Kabupaten Manokwari",PAPUA BARAT,98314.0,Indonesia,,-0.8380277,134.0740575,https://maps.google.com/?cid=0x0:0x7566d65c448cfe43
housing complex,Pembangunan Perumahan,Blok c,"42VR+FMM, Perumahan, Inggramui, Kec. Manokwari Bar., Kabupaten Manokwari, Papua Bar. 98312","Perumahan, Inggramui, Kec. Manokwari Bar., Kabupaten Manokwari",PAPUA BARAT,98312.0,Indonesia,,-0.8563352,134.0416471,https://maps.google.com/?cid=0x0:0xedfba8e15fd06ca8
housing complex,Komplek perumahan,Perumahan Miagoni,"5343+633, Jl Molani Miagoni Reremi Puncak Jembatan, Amban, Kec. Manokwari Bar., Kabupaten Manokwari, Papua Bar. 98312","Jl Molani Miagoni Reremi Puncak Jembatan, Amban, Kec. Manokwari Bar., Kabupaten Manokwari",PAPUA BARAT,98312.0,Indonesia,,-0.8444878,134.0526703,https://maps.google.com/?cid=0x0:0x551e88dab85242c6
housing complex,Komplek perumahan,Perumahan FAJAR SOWI DAMAI,"Sowi, Distrik Manokwari, Kabupaten Manokwari, Papua Bar. 98315","Distrik Manokwari, Kabupaten Manokwari",PAPUA BARAT,98315.0,Indonesia,81344004527.0,-0.8974311,134.0305967,https://maps.google.com/?cid=0x0:0x91ce0cb77fe5af79
housing complex,housing complex,Warimpurem Homestay,"Saporkren, Pulau Waigeo, Raja Ampat, West Papua 98482","Pulau Waigeo, Raja Ampat",PAPUA BARAT,98482.0,Indonesia,,-0.438718,130.737748,https://maps.google.com/?cid=0x0:0x14b23162df70e651
housing complex,housing complex,PapuArts Alter Native Stay,"Desa Saporkren, Kec. Waigeo Sel., Kabupaten Raja Ampat, Papua Bar. 98482","Kec. Waigeo Sel., Kabupaten Raja Ampat",PAPUA BARAT,98482.0,Indonesia,81248455887.0,-0.438169,130.7367168,https://maps.google.com/?cid=0x0:0x39f6073cbd5c64d4
housing complex,housing complex,Raja Ampat Biodiversity Nature Resort,"Pantai Yenanas, Yenbeser, Kec. Waigeo Sel., Kabupaten Raja Ampat, Papua Bar. 98482","Yenbeser, Kec. Waigeo Sel., Kabupaten Raja Ampat",PAPUA BARAT,98482.0,Indonesia,81248813677.0,-0.4504898,130.6921427,https://maps.google.com/?cid=0x0:0xcbf275f407edce9c
housing complex,housing complex,Meridian Adventure Marina Club  Resort Waisai,"Waisai, Distrik Kota Waisai, Kabupaten Raja Ampat, Papua Bar. 98482","Distrik Kota Waisai, Kabupaten Raja Ampat",PAPUA BARAT,98482.0,Indonesia,82248540774.0,-0.4341882,130.8081566,https://maps.google.com/?cid=0x0:0x9355b383d6822caa
housing complex,housing complex,Hamueco Raja Ampat Dive Resort,"Wirausaha Building Jl HR Rasuna Said Kav C5 Lantai 3, Jakarta Selatan, DKI Jakarta, 12940",Jakarta Selatan,PAPUA BARAT,12940.0,Indonesia,81392500242.0,-0.441485,130.761647,https://maps.google.com/?cid=0x0:0xf060a049fd72614d
