Category;Real Category;Business Name;Address;City;State;Postal Code;Country;Phone;Email;Website;Latitude;Longitude;Map Link;Details Link
"komplek housing";"komplek housing";"Namlea";"Namlea, Kec. Namlea, Kabupaten Buru, Maluku";"Kabupaten Buru, Maluku";"MALUKU";"";"Indonesia";"";"";"";"-3.233398";"127.085899";"https://maps.google.com/?cid=0x0:0xe52ca57740e74df";""
"komplek housing";"Komplek perumahan";"Efan";"P3V8+MG4, Namlea, Kec. Namlea, Kabupaten Buru, Maluku";"Kabupaten Buru, Maluku";"MALUKU";"";"Indonesia";"";"";"";"-3.2553849";"127.0673172";"https://maps.google.com/?cid=0x0:0x2c478a0ebe2287b6";""
"komplek housing";"Komplek perumahan";"Perumahan";"P4P5+G3, Namlea, Kec. Namlea, Kabupaten Buru, Maluku";"Kabupaten Buru, Maluku";"MALUKU";"";"Indonesia";"";"";"";"-3.2636997";"127.1076278";"https://maps.google.com/?cid=0x0:0xb44dc81f1c598e29";""
"komplek housing";"Komplek perumahan";"Rumah Namlea";"P4G2+WR5, Namlea, Kec. Namlea, Kabupaten Buru, Maluku";"Kabupaten Buru, Maluku";"MALUKU";"";"Indonesia";"";"";"";"-3.2726457";"127.1026456";"https://maps.google.com/?cid=0x0:0x87c36dc5362bf779";""
"komplek housing";"Komplek perumahan";"Namlea kabupaten buru";"MM9W+P75, Waegeren, Kec. Waeapo, Kabupaten Buru, Maluku";"Kabupaten Buru, Maluku";"MALUKU";"";"Indonesia";"";"";"";"-3.3307379";"126.6957216";"https://maps.google.com/?cid=0x0:0x947dc08df4cdbafa";""
"komplek housing";"Komplek perumahan";"KOMPLEK PERUMAHAN BTN TATANGGO";"Namlea, Kec. Namlea, Kabupaten Buru, Maluku";"Kabupaten Buru, Maluku";"MALUKU";"";"Indonesia";"";"";"";"-3.2560377";"127.0888124";"https://maps.google.com/?cid=0x0:0xf50ca7f18f3e4f27";""
"komplek housing";"Komplek perumahan";"Rumah Findia";"P4G5+PRW, Namlea, Kec. Namlea, Kabupaten Buru, Maluku";"Kabupaten Buru, Maluku";"MALUKU";"";"Indonesia";"";"";"";"-3.273009";"127.109675";"https://maps.google.com/?cid=0x0:0xe21c70899f55d7d2";""
"komplek housing";"Komplek perumahan";"Rumah Raja Leisela " Aziz The Hentihu's" Namlea - Buru";"Jl. Jenderal Ahmad Yani No.1, Namlea, Kec. Namlea, Kabupaten Buru, Maluku";"Kabupaten Buru, Maluku";"MALUKU";"";"Indonesia";"";"";"";"-3.2751918";"127.0977626";"https://maps.google.com/?cid=0x0:0xbb546af55d3f097f";""
"komplek housing";"Komplek perumahan";"Komplek Batas Kota, Namlea, Kec. Namlea, kab. Buru";"Komplek Batas Kota, Jl. Sakura, Namlea, Kec. Namlea, Kabupaten Buru, Maluku";"Kabupaten Buru, Maluku";"MALUKU";"";"Indonesia";"";"";"";"-3.2807336";"127.0997993";"https://maps.google.com/?cid=0x0:0xcc74478da4208ce1";""
"komplek housing";"Komplek perumahan";"Rumah akila dan jaki";"P4F5+P2W, Jl. Kampus Iqra Buru, Namlea, Kec. Namlea, Kabupaten Buru, Maluku";"Kabupaten Buru, Maluku";"MALUKU";"";"Indonesia";"";"";"";"-3.2749947";"127.1076129";"https://maps.google.com/?cid=0x0:0x1040c6777a9da4cd";""
"komplek housing";"Kantor Pemda";"Mess";"Q423+CPC, Jl. Pendopo Bupati, Namlea, Kec. Namlea, Kabupaten Buru, Maluku";"Kabupaten Buru, Maluku";"MALUKU";"";"Indonesia";"";"";"";"-3.248795";"127.1036662";"https://maps.google.com/?cid=0x0:0x6a722f2d0c2e3b50";""
"komplek housing";"Komplek perumahan";"Emii";"P494+GMM, Namlea, Kec. Namlea, Kabupaten Buru, Maluku";"Kabupaten Buru, Maluku";"MALUKU";"";"Indonesia";"";"";"";"-3.2811556";"127.1066571";"https://maps.google.com/?cid=0x0:0xb07dc32c4e17ce43";""
"komplek housing";"Komplek perumahan";"RUMAH FANDY";"P3MP+XR3, Namlea, Kec. Namlea, Kabupaten Buru, Maluku";"Kabupaten Buru, Maluku";"MALUKU";"";"Indonesia";"";"";"";"-3.265775";"127.086895";"https://maps.google.com/?cid=0x0:0x6d01b82581da9085";""
"komplek housing";"Komplek perumahan";"Rumah ifhaa";"P494+JG8, Namlea, Kec. Namlea, Kabupaten Buru, Maluku";"Kabupaten Buru, Maluku";"MALUKU";"";"Indonesia";"";"";"";"-3.2809507";"127.1063373";"https://maps.google.com/?cid=0x0:0x41f560523a80f06f";""
"komplek housing";"Komplek perumahan";"BTN Sma 1";"P4J4+V87, Namlea, Kec. Namlea, Kabupaten Buru, Maluku";"Kabupaten Buru, Maluku";"MALUKU";"";"Indonesia";"";"";"";"-3.2676377";"127.1068113";"https://maps.google.com/?cid=0x0:0x9ef1aff74a0f8e3a";""
"komplek housing";"Komplek perumahan";"Lorong Alaka Buru 1";"P3XX+R6W, Namlea, Kec. Namlea, Kabupaten Buru, Maluku";"Kabupaten Buru, Maluku";"MALUKU";"";"Indonesia";"";"";"";"-3.2503944";"127.0980758";"https://maps.google.com/?cid=0x0:0xbf83051a594227";""
"komplek housing";"Komplek perumahan";"Namlea";"Q423+64G, Namlea, Kec. Namlea, Kabupaten Buru, Maluku";"Kabupaten Buru, Maluku";"MALUKU";"";"Indonesia";"";"";"";"-3.249435";"127.10283";"https://maps.google.com/?cid=0x0:0x7e74bc20f0fb9f0a";""
"komplek housing";"Komplek perumahan";"Rumah Amin a a";"P3CX+MW9, Namlea, Kec. Namlea, Kabupaten Buru, Maluku";"Kabupaten Buru, Maluku";"MALUKU";"";"Indonesia";"";"";"";"-3.2551875";"127.0901875";"https://maps.google.com/?cid=0x0:0x289619a790dc1f4e";""
"komplek housing";"Komplek perumahan";"Rumah afik";"P4F5+358, Namlea, Kec. Namlea, Kabupaten Buru, Maluku";"Kabupaten Buru, Maluku";"MALUKU";"";"Indonesia";"";"";"";"-3.2779656";"127.1081917";"https://maps.google.com/?cid=0x0:0xb28c4ebf104a8a6f";""
"komplek housing";"Komplek perumahan";"Air buaya Buru";"WC7P+Q7J, Air Buaya, Kec. Air Buaya, Kabupaten Buru, Maluku";"Kabupaten Buru, Maluku";"MALUKU";"";"Indonesia";"";"";"";"-3.0855263";"126.4356505";"https://maps.google.com/?cid=0x0:0x9bdbf7c202f47697";""
"komplek housing";"Pembangunan Perumahan";"RUMAH KEPALA KUA AIRBUAYA";"WC7P+2C8, JL.LAPANGAN TOMLIMA, Air Buaya, Kec. Air Buaya, Kabupaten Buru, Maluku";"Kabupaten Buru, Maluku";"MALUKU";"";"Indonesia";"";"";"";"-3.0874602";"126.436068";"https://maps.google.com/?cid=0x0:0x9dbc0873fe9026a1";""
"komplek housing";"Pembangunan Perumahan";"Ciciyana Home";"WC7P+Q7J, Air Buaya, Kec. Air Buaya, Kabupaten Buru, Maluku";"Kabupaten Buru, Maluku";"MALUKU";"";"Indonesia";"";"";"";"-3.0855263";"126.4356505";"https://maps.google.com/?cid=0x0:0xda5e10c1cd87764f";""
"komplek housing";"Komplek perumahan";"Rumah Fevin om";"JXMM+JGV, Waenetat, Kec. Waeapo, Kabupaten Buru, Maluku 97574";"Waenetat, Kec. Waeapo, Kabupaten Buru";"MALUKU";"97574";"Indonesia";"";"";"";"-3.3656346";"126.9830167";"https://maps.google.com/?cid=0x0:0xe648933ca1d74c80";""
"komplek housing";"komplek housing";"Kec. Waeapo";"Kabupaten Buru, Maluku";"Kabupaten Buru, Maluku";"MALUKU";"";"Indonesia";"";"";"";"-3.4137528";"126.925378";"https://maps.google.com/?cid=0x0:0xf83f0231b9a9b5fd";""
"komplek housing";"Komplek perumahan";"Fandi house";"JXVX+CW6, Waekasar, Kec. Waeapo, Kabupaten Buru, Maluku 97574";"Waekasar, Kec. Waeapo, Kabupaten Buru";"MALUKU";"97574";"Indonesia";"";"";"";"-3.3564749";"126.9997683";"https://maps.google.com/?cid=0x0:0x52a7a8b6afa4d438";""
"komplek housing";"Komplek perumahan";"Ade Rendra Home";"GW8F+RCW, Desa, Waetina, Namlea, Kabupaten Buru, Maluku 97574";"Desa, Waetina, Namlea, Kabupaten Buru";"MALUKU";"97574";"Indonesia";"";"";"";"-3.4828875";"126.9235781";"https://maps.google.com/?cid=0x0:0x36be53727ca50f39";""
"komplek housing";"Komplek perumahan";"Kompleks BTN Desa waplau";"VVGP+M2F, Waplau, Kabupaten Buru, Maluku";"Kabupaten Buru, Maluku";"MALUKU";"";"Indonesia";"";"";"";"-3.1233026";"126.8850589";"https://maps.google.com/?cid=0x0:0x70225184e830ad84";""
"komplek housing";"Komplek perumahan";"Rumah";"VVHJ+G93, Waplau, Kabupaten Buru, Maluku";"Kabupaten Buru, Maluku";"MALUKU";"";"Indonesia";"";"";"";"-3.1199278";"126.8817628";"https://maps.google.com/?cid=0x0:0xa12653f3cc6e273f";""
"komplek housing";"komplek housing";"Waplau";"Kabupaten Buru, Maluku";"Kabupaten Buru, Maluku";"MALUKU";"";"Indonesia";"";"";"";"-3.1224517";"126.8821197";"https://maps.google.com/?cid=0x0:0xa108369a69306737";""
"komplek housing";"komplek housing";"Kec. Bata Bual";"Kabupaten Buru, Maluku";"Kabupaten Buru, Maluku";"MALUKU";"";"Indonesia";"";"";"";"-3.5268077";"127.2494018";"https://maps.google.com/?cid=0x0:0xbd920a24abdb7eed";""
"komplek housing";"Komplek perumahan";"Komplek lorong maut";"C69X+G8H, Ilath, Kec. Bata Bual, Kabupaten Buru, Maluku";"Kabupaten Buru, Maluku";"MALUKU";"";"Indonesia";"";"";"";"-3.5814387";"127.2480126";"https://maps.google.com/?cid=0x0:0x3f4f485d4727e197";""
"komplek housing";"komplek housing";"Rumah Tamsir";"Jl. Kabupaten No.1, Ilath, Kec. Bata Bual, Kabupaten Buru, Maluku 97574";"Ilath, Kec. Bata Bual, Kabupaten Buru";"MALUKU";"97574";"Indonesia";"";"";"";"-3.57571";"127.2435216";"https://maps.google.com/?cid=0x0:0x3baedae3b14b709d";""
"komplek housing";"komplek housing";"Maluku";"";"Maluku";"MALUKU";"";"Indonesia";"";"";"";"-3.2384616";"130.1452734";"https://maps.google.com/?cid=0x0:0x5e30e8db04649a51";""
"komplek housing";"Perumahan";"Perumahan The Royal Somerset";"Jl. Raya Kali CBL Jl. Griya Family 4 No.3, Muktiwari, Kec. Cibitung, Bekasi kota, Jawa Barat 17520";"Muktiwari, Kec. Cibitung, Bekasi kota";"MALUKU";"17520";"Indonesia";"";"";"";"-6.198181";"107.088993";"https://maps.google.com/?cid=0x0:0x837a55143b55d983";""
"komplek housing";"Agen Properti";"Pesona Kahuripan 3 Tahap 2";"Jalan Raya Cileungsi - Jonggol, Mampir, Kec. Cileungsi, Kabupaten Bogor, Jawa Barat 16820";"Mampir, Kec. Cileungsi, Kabupaten Bogor";"MALUKU";"16820";"Indonesia";"";"";"";"-6.4397985";"106.9931258";"https://maps.google.com/?cid=0x0:0x979fe34e99e736a7";""
"komplek housing";"komplek housing";"Kec. Waelata";"Kabupaten Buru, Maluku";"Kabupaten Buru, Maluku";"MALUKU";"";"Indonesia";"";"";"";"-3.4811436";"126.9241917";"https://maps.google.com/?cid=0x0:0xd5c06f16d8212c44";""
"komplek housing";"Komplek perumahan";"Ade Rendra Home";"GW8F+RCW, Desa, Waetina, Namlea, Kabupaten Buru, Maluku 97574";"Desa, Waetina, Namlea, Kabupaten Buru";"MALUKU";"97574";"Indonesia";"";"";"";"-3.4828875";"126.9235781";"https://maps.google.com/?cid=0x0:0x36be53727ca50f39";""
"komplek housing";"Komplek perumahan";"Fandi house";"JXVX+CW6, Waekasar, Kec. Waeapo, Kabupaten Buru, Maluku 97574";"Waekasar, Kec. Waeapo, Kabupaten Buru";"MALUKU";"97574";"Indonesia";"";"";"";"-3.3564749";"126.9997683";"https://maps.google.com/?cid=0x0:0x52a7a8b6afa4d438";""
"komplek housing";"Komplek perumahan";"Rumah Fevin om";"JXMM+JGV, Waenetat, Kec. Waeapo, Kabupaten Buru, Maluku 97574";"Waenetat, Kec. Waeapo, Kabupaten Buru";"MALUKU";"97574";"Indonesia";"";"";"";"-3.3656346";"126.9830167";"https://maps.google.com/?cid=0x0:0xe648933ca1d74c80";""
"komplek housing";"komplek housing";"Maluku";"";"Maluku";"MALUKU";"";"Indonesia";"";"";"";"-3.2384616";"130.1452734";"https://maps.google.com/?cid=0x0:0x5e30e8db04649a51";""
"komplek housing";"komplek housing";"Komplek Housing";"Blok Bojong Nangka I, Jl. Ring Rudal Blok Bojong Nangka I No.68, RT.001/RW.007, Jatirahayu, Kec. Pd. Melati, Kota Bks, Jawa Barat 17414";"Jl. Ring Rudal Blok Bojong Nangka I No.68, RT.001/RW.007, Jatirahayu, Kec. Pd. Melati, Kota Bks";"MALUKU";"17414";"Indonesia";"";"";"";"-6.293724";"106.9165114";"https://maps.google.com/?cid=0x0:0x9c50464976dee674";""
"komplek housing";"komplek housing";"Tlk. Kaiely";"Kabupaten Buru, Maluku";"Kabupaten Buru, Maluku";"MALUKU";"";"Indonesia";"";"";"";"-3.3033929";"126.5661908";"https://maps.google.com/?cid=0x0:0x12b5aeb27efc20e0";""
"komplek housing";"Komplek perumahan";"Fandi house";"JXVX+CW6, Waekasar, Kec. Waeapo, Kabupaten Buru, Maluku 97574";"Waekasar, Kec. Waeapo, Kabupaten Buru";"MALUKU";"97574";"Indonesia";"";"";"";"-3.3564749";"126.9997683";"https://maps.google.com/?cid=0x0:0x52a7a8b6afa4d438";""
"komplek housing";"Hostel";"Kostan ibu Eni";"JXGP+CJH Mako, kost Ibu Eni, Jl. Trans unit, Waenetat, Kec. Waeapo, Kabupaten Buru, Maluku 97574";"kost Ibu Eni, Jl. Trans unit, Waenetat, Kec. Waeapo, Kabupaten Buru";"MALUKU";"97574";"Indonesia";"";"";"";"-3.3739484";"126.9866095";"https://maps.google.com/?cid=0x0:0xfc59cef7e30bdbee";""
"komplek housing";"Komplek perumahan";"Ade Rendra Home";"GW8F+RCW, Desa, Waetina, Namlea, Kabupaten Buru, Maluku 97574";"Desa, Waetina, Namlea, Kabupaten Buru";"MALUKU";"97574";"Indonesia";"";"";"";"-3.4828875";"126.9235781";"https://maps.google.com/?cid=0x0:0x36be53727ca50f39";""
"komplek housing";"komplek housing";"Kec. Lilialy";"Kabupaten Buru, Maluku";"Kabupaten Buru, Maluku";"MALUKU";"";"Indonesia";"";"";"";"-3.1452717";"126.9901544";"https://maps.google.com/?cid=0x0:0xa4098f1c5783ea97";""
"komplek housing";"komplek housing";"Syahfan Umasugi (Ifan House)";"P4G8+F66, Namlea, Kec. Namlea, Kota Ambon, Maluku 97571";"Namlea, Kec. Namlea, Kota Ambon";"MALUKU";"97571";"Indonesia";"";"";"";"-3.2738381";"127.1155126";"https://maps.google.com/?cid=0x0:0xc300b14b897ecf87";""
"komplek housing";"Komplek perumahan";"Pangkalan minyak tanah(oderasini)";"Saliong, Namlea, Kec. Namlea, Kabupaten Buru, Maluku 97571";"Namlea, Kec. Namlea, Kabupaten Buru";"MALUKU";"97571";"Indonesia";"";"";"";"-3.2633446";"127.0626873";"https://maps.google.com/?cid=0x0:0xca68fcf2b2116f93";""
"komplek housing";"Pusat Hiburan Video Game Arkade";"Isi game PS2 USB OPL";"P3JV+9CC, Bandar Angin, Kec. Namlea, Kabupaten Buru, Maluku 97571";"Bandar Angin, Kec. Namlea, Kabupaten Buru";"MALUKU";"97571";"Indonesia";"";"";"";"-3.2690525";"127.0935249";"https://maps.google.com/?cid=0x0:0x389a36d4380865d4";""
"perumahan";"perumahan";"Namlea";"Namlea, Kec. Namlea, Kabupaten Buru, Maluku";"Kabupaten Buru, Maluku";"MALUKU";"";"Indonesia";"";"";"";"-3.233398";"127.085899";"https://maps.google.com/?cid=0x0:0xe52ca57740e74df";""
"perumahan";"perumahan";"Unit 16";"Q38P+J9R, Namlea, Kec. Namlea, Kabupaten Buru, Maluku";"Kabupaten Buru, Maluku";"MALUKU";"";"Indonesia";"";"";"";"-3.233398";"127.085899";"https://maps.google.com/?cid=0x0:0x75b9b047319348b0";""
"perumahan";"Komplek perumahan";"Jalan baru lorong arab";"Q38P+HCR, Namlea, Kec. Namlea, Kabupaten Buru, Maluku";"Kabupaten Buru, Maluku";"MALUKU";"";"Indonesia";"";"";"";"-3.2335148";"127.0860196";"https://maps.google.com/?cid=0x0:0xbab23ac9e042843c";""
"perumahan";"Komplek perumahan";"Rumah Namlea";"P4G2+WR5, Namlea, Kec. Namlea, Kabupaten Buru, Maluku";"Kabupaten Buru, Maluku";"MALUKU";"";"Indonesia";"";"";"";"-3.2726457";"127.1026456";"https://maps.google.com/?cid=0x0:0x87c36dc5362bf779";""
"perumahan";"Komplek perumahan";"Maluku";"Q38P+J9R, RT.15/RW.4, Namlea, Kec. Namlea, Kabupaten Buru, Maluku";"Kabupaten Buru, Maluku";"MALUKU";"";"Indonesia";"";"";"";"-3.233398";"127.085899";"https://maps.google.com/?cid=0x0:0xace4888078c18167";""
"perumahan";"Komplek perumahan";"Pangkalan minyak tanah";"Q38P+J9R, Namlea, Kec. Namlea, Kabupaten Buru, Maluku";"Kabupaten Buru, Maluku";"MALUKU";"";"Indonesia";"";"";"";"-3.233398";"127.085899";"https://maps.google.com/?cid=0x0:0xd1acd45284992de1";""
"perumahan";"Komplek perumahan";"Lorong kayeli";"Q38P+J9R, Namlea, Kec. Namlea, Kabupaten Buru, Maluku";"Kabupaten Buru, Maluku";"MALUKU";"";"Indonesia";"";"";"";"-3.233398";"127.085899";"https://maps.google.com/?cid=0x0:0xcd8b70135949f5e";""
"perumahan";"Komplek perumahan";"Rumah ai";"Q38P+J9R, Namlea, Kec. Namlea, Kabupaten Buru, Maluku";"Kabupaten Buru, Maluku";"MALUKU";"";"Indonesia";"";"";"";"-3.233398";"127.085899";"https://maps.google.com/?cid=0x0:0x156ee7a1de905b33";""
"perumahan";"Pembangunan Perumahan";"Unit jalur D";"Unit blok D, Namlea, Kec. Namlea, Kabupaten Buru, Maluku";"Kabupaten Buru, Maluku";"MALUKU";"";"Indonesia";"";"";"";"-3.233398";"127.085899";"https://maps.google.com/?cid=0x0:0x657a3b3f7382728d";""
"perumahan";"Komplek perumahan";"Khalif";"Q38P+J9R, Namlea, Kec. Namlea, Kabupaten Buru, Maluku";"Kabupaten Buru, Maluku";"MALUKU";"";"Indonesia";"";"";"";"-3.233398";"127.085899";"https://maps.google.com/?cid=0x0:0x7c0e41a5509d96d8";""
"perumahan";"Komplek perumahan";"Namlea l bandar angin";"Q38P+J9R, Namlea, Kec. Namlea, Kabupaten Buru, Maluku";"Kabupaten Buru, Maluku";"MALUKU";"";"Indonesia";"";"";"";"-3.233398";"127.085899";"https://maps.google.com/?cid=0x0:0x5493de80f2bb9aac";""
"perumahan";"Komplek perumahan";"Lahan kosong";"Q38P+J9R, Namlea, Kec. Namlea, Kabupaten Buru, Maluku";"Kabupaten Buru, Maluku";"MALUKU";"";"Indonesia";"";"";"";"-3.233398";"127.085899";"https://maps.google.com/?cid=0x0:0x31cb87b2a4608f16";""
"perumahan";"Komplek perumahan";"BTN SMA Namlea";"Q38P+J9R, Namlea, Kec. Namlea, Kabupaten Buru, Maluku";"Kabupaten Buru, Maluku";"MALUKU";"";"Indonesia";"";"";"";"-3.233398";"127.085899";"https://maps.google.com/?cid=0x0:0x292df930cf54e5fb";""
"perumahan";"Komplek perumahan";"Pilar";"Q38P+J9R, Namlea, Kec. Namlea, Kabupaten Buru, Maluku";"Kabupaten Buru, Maluku";"MALUKU";"";"Indonesia";"";"";"";"-3.233398";"127.085899";"https://maps.google.com/?cid=0x0:0x812b383796e3925a";""
"perumahan";"Komplek perumahan";"Rumah BPK Rahman lawia";"Q38P+J9R, Namlea, Kec. Namlea, Kabupaten Buru, Maluku";"Kabupaten Buru, Maluku";"MALUKU";"";"Indonesia";"";"";"";"-3.233398";"127.085899";"https://maps.google.com/?cid=0x0:0x5e9801063361acf1";""
"perumahan";"Balai Pertemuan Desa";"Desa Ubung";"Q38P+J9R, Namlea, Kec. Namlea, Kabupaten Buru, Maluku";"Kabupaten Buru, Maluku";"MALUKU";"";"Indonesia";"";"";"";"-3.233398";"127.085899";"https://maps.google.com/?cid=0x0:0x49645792c373fcac";""
"perumahan";"Pembangunan Perumahan";"Nametek kei";"Q38P+J9R, Namlea, Kec. Namlea, Kabupaten Buru, Maluku";"Kabupaten Buru, Maluku";"MALUKU";"";"Indonesia";"";"";"";"-3.233398";"127.085899";"https://maps.google.com/?cid=0x0:0x5aa0ff721af7c033";""
"perumahan";"Komplek perumahan";"Tower SD unggulan";"Q38P+J9R, Namlea, Kec. Namlea, Kabupaten Buru, Maluku";"Kabupaten Buru, Maluku";"MALUKU";"";"Indonesia";"";"";"";"-3.233398";"127.085899";"https://maps.google.com/?cid=0x0:0x55c4b8229c2a14a7";""
"perumahan";"Komplek perumahan";"Karangjaya";"Q38P+J9R, Namlea, Kec. Namlea, Kabupaten Buru, Maluku";"Kabupaten Buru, Maluku";"MALUKU";"";"Indonesia";"";"";"";"-3.233398";"127.085899";"https://maps.google.com/?cid=0x0:0xd3bbf374928cdefc";""
"perumahan";"Komplek perumahan";"Rumah gendisss";"Q38P+J9R, Namlea, Kec. Namlea, Kabupaten Buru, Maluku";"Kabupaten Buru, Maluku";"MALUKU";"";"Indonesia";"";"";"";"-3.233398";"127.085899";"https://maps.google.com/?cid=0x0:0xacd9aef2fe2ec324";""
"perumahan";"Komplek perumahan";"PERUMAHAN AMBON";"P3PX+H6X, Unnamed Road, Namlea, Kec. Namlea, Kabupaten Buru, Maluku";"Kabupaten Buru, Maluku";"MALUKU";"";"Indonesia";" 085546111200";"";"";"-3.2635176";"127.098108";"https://maps.google.com/?cid=0x0:0xb81da55f9af25f42";""
"perumahan";"Komplek perumahan";"Perumahan";"P4P5+G3, Namlea, Kec. Namlea, Kabupaten Buru, Maluku";"Kabupaten Buru, Maluku";"MALUKU";"";"Indonesia";"";"";"";"-3.2636997";"127.1076278";"https://maps.google.com/?cid=0x0:0xb44dc81f1c598e29";""
"perumahan";"Komplek perumahan";"Namlea";"Q423+64G, Namlea, Kec. Namlea, Kabupaten Buru, Maluku";"Kabupaten Buru, Maluku";"MALUKU";"";"Indonesia";"";"";"";"-3.249435";"127.10283";"https://maps.google.com/?cid=0x0:0x7e74bc20f0fb9f0a";""
"perumahan";"Komplek perumahan";"Rumah Findia";"P4G5+PRW, Namlea, Kec. Namlea, Kabupaten Buru, Maluku";"Kabupaten Buru, Maluku";"MALUKU";"";"Indonesia";"";"";"";"-3.273009";"127.109675";"https://maps.google.com/?cid=0x0:0xe21c70899f55d7d2";""
"perumahan";"perumahan";"Kec. Air Buaya";"Kabupaten Buru, Maluku";"Kabupaten Buru, Maluku";"MALUKU";"";"Indonesia";"";"";"";"-3.0855583";"126.4356478";"https://maps.google.com/?cid=0x0:0xfabb1de62994f5b6";""
"perumahan";"Komplek perumahan";"Air buaya Buru";"WC7P+Q7J, Air Buaya, Kec. Air Buaya, Kabupaten Buru, Maluku";"Kabupaten Buru, Maluku";"MALUKU";"";"Indonesia";"";"";"";"-3.0855263";"126.4356505";"https://maps.google.com/?cid=0x0:0x9bdbf7c202f47697";""
"perumahan";"Pembangunan Perumahan";"Desa Selwadu";"W95V+QQ8, Air Buaya, Kec. Air Buaya, Kabupaten Buru, Maluku";"Kabupaten Buru, Maluku";"MALUKU";"";"Indonesia";"";"";"";"-3.090587";"126.3944462";"https://maps.google.com/?cid=0x0:0xca97d228e951da85";""
"perumahan";"Komplek perumahan";"Perumahan Dokter (Rumdin)";"WC7M+MF9, Air Buaya, Kec. Air Buaya, Kabupaten Buru, Maluku";"Kabupaten Buru, Maluku";"MALUKU";"";"Indonesia";"";"";"";"-3.0858463";"126.4337226";"https://maps.google.com/?cid=0x0:0xb315a2a8e58ac8d4";""
"perumahan";"Komplek perumahan";"Perumahan Dinas Puskesmas Airbuaya";"WC7M+RHR, Air Buaya, Kec. Air Buaya, Kabupaten Buru, Maluku";"Kabupaten Buru, Maluku";"MALUKU";"";"Indonesia";"";"";"";"-3.0853776";"126.4338877";"https://maps.google.com/?cid=0x0:0x8ecb8b982681ad93";""
"perumahan";"Pembangunan Perumahan";"RUMAH KEPALA KUA AIRBUAYA";"WC7P+2C8, JL.LAPANGAN TOMLIMA, Air Buaya, Kec. Air Buaya, Kabupaten Buru, Maluku";"Kabupaten Buru, Maluku";"MALUKU";"";"Indonesia";"";"";"";"-3.0874602";"126.436068";"https://maps.google.com/?cid=0x0:0x9dbc0873fe9026a1";""
"perumahan";"Pembangunan Perumahan";"BROMEN";"WC7Q+GC, Air Buaya, Kec. Air Buaya, Kabupaten Buru, Maluku";"Kabupaten Buru, Maluku";"MALUKU";"";"Indonesia";"";"";"";"-3.0866088";"126.4391005";"https://maps.google.com/?cid=0x0:0x5b524a4242447544";""
"perumahan";"Kantor Pemerintah";"Desa Kampung Baru Kabupaten Buru";"R4PP+7G, Bara, Kec. Air Buaya, Kabupaten Buru, Maluku";"Kabupaten Buru, Maluku";"MALUKU";"";"Indonesia";"";"";"";"-3.1643729";"126.1363568";"https://maps.google.com/?cid=0x0:0xfd76e61f455b11c5";""
"perumahan";"Pembangunan Perumahan";"Dusun Waibebe village";"W72W+WGQ, Jl. Propinsi, Tj. Karang, Kec. Air Buaya, Kabupaten Buru, Maluku";"Kabupaten Buru, Maluku";"MALUKU";"";"Indonesia";"";"";"";"-3.0976563";"126.2963665";"https://maps.google.com/?cid=0x0:0xbc94bc628251c859";""
"perumahan";"Pembangunan Perumahan";"Ciciyana Home";"WC7P+Q7J, Air Buaya, Kec. Air Buaya, Kabupaten Buru, Maluku";"Kabupaten Buru, Maluku";"MALUKU";"";"Indonesia";"";"";"";"-3.0855263";"126.4356505";"https://maps.google.com/?cid=0x0:0xda5e10c1cd87764f";""
"perumahan";"Pembangunan Perumahan";"Waekase";"W829+4X8, Waekase, Kec. Air Buaya, Kabupaten Buru, Maluku";"Kabupaten Buru, Maluku";"MALUKU";"";"Indonesia";" 081343363208";"";"";"-3.0997047";"126.3199461";"https://maps.google.com/?cid=0x0:0x2376b2dc51b3dfb3";""
"perumahan";"Komplek perumahan";"Rmh. Yusri Duila";"WC7P+9WQ, Air Buaya, Kec. Air Buaya, Kabupaten Buru, Maluku";"Kabupaten Buru, Maluku";"MALUKU";"";"Indonesia";"";"";"";"-3.0865269";"126.4373632";"https://maps.google.com/?cid=0x0:0x5eb2612fea973ce2";""
"perumahan";"Komplek perumahan";"HOMESTAY SELEKY FAMILY";"W939+5VF, Air Buaya, Kec. Air Buaya, Kabupaten Buru, Maluku";"Kabupaten Buru, Maluku";"MALUKU";"";"Indonesia";" 082249342385";"";"";"-3.0967604";"126.36911";"https://maps.google.com/?cid=0x0:0x2ea4a328d784f13f";""
"perumahan";"Pembangunan Perumahan";"Sekretariat PPK airbuaya";"WC7M+7GW, Jl. Propinsi, Air Buaya, Kec. Air Buaya, Kabupaten Buru, Maluku";"Kabupaten Buru, Maluku";"MALUKU";"";"Indonesia";"";"";"";"-3.086622";"126.4338381";"https://maps.google.com/?cid=0x0:0xd8bae200bb484977";""
"perumahan";"Perhimpunan Pengembang Perumahan";"Rumah Bpa Makes";"W95W+C9W, Air Buaya, Kec. Air Buaya, Kabupaten Buru, Maluku";"Kabupaten Buru, Maluku";"MALUKU";"";"Indonesia";"";"";"";"-3.091397";"126.3959529";"https://maps.google.com/?cid=0x0:0xc1bb04d85d3805e8";""
"perumahan";"Komplek perumahan";"Kediaman Koko dedi";"WC8X+6G6, Waimangit, Kec. Air Buaya, Kabupaten Buru, Maluku";"Kabupaten Buru, Maluku";"MALUKU";"";"Indonesia";"";"";"";"-3.0844968";"126.4491075";"https://maps.google.com/?cid=0x0:0x4fbd9f717030bab7";""
"perumahan";"Perumahan";"RUMAH DINAS PUSKESMAS AIR BUAYA";"WC6P+QJJ, Air Buaya, Kec. Air Buaya, Kabupaten Buru, Maluku";"Kabupaten Buru, Maluku";"MALUKU";"";"Indonesia";"";"";"";"-3.0880461";"126.4365303";"https://maps.google.com/?cid=0x0:0x2354de4e9ee5837c";""
"perumahan";"Pembangunan Perumahan";"Waenibe";"Unnamed Road, Waenibe, Air Buaya, Buru Regency, Maluku";"Kabupaten Buru, Maluku";"MALUKU";"";"Indonesia";"";"";"";"-3.0695434";"126.609998";"https://maps.google.com/?cid=0x0:0xf37d6bad9a4e9129";""
"perumahan";"Perhimpunan Pengembang Perumahan";"Dusun erdapa";"WJG7+4W, Waenibe, Kec. Air Buaya, Kabupaten Buru, Maluku";"Kabupaten Buru, Maluku";"MALUKU";"";"Indonesia";"";"";"";"-3.0747024";"126.6147578";"https://maps.google.com/?cid=0x0:0x9841893409c383da";""
"perumahan";"Komplek perumahan";"Indra";"Q57X+C5H, Bara, Kec. Air Buaya, Kabupaten Buru, Maluku";"Kabupaten Buru, Maluku";"MALUKU";"";"Indonesia";"";"";"";"-3.2364279";"126.1979764";"https://maps.google.com/?cid=0x0:0x9d3a4331d60d6ab2";""
"perumahan";"Gedung Apartemen Berfasilitas Komplet";"Lorong jati super";"WGFJ+58, Wamlana, Teluk Kaiely, Kabupaten Buru, Maluku";"Kabupaten Buru, Maluku";"MALUKU";"";"Indonesia";"";"";"";"-3.0769301";"126.5307557";"https://maps.google.com/?cid=0x0:0xaa3c8393e1cefe3";""
"perumahan";"Komplek perumahan";"Komplek Rumah LA ESA";"R4XF+8R, Balpetu, Kec. Kepala Madan, Kabupaten Buru Selatan, Maluku";"Kabupaten Buru Selatan, Maluku";"MALUKU";"";"Indonesia";"";"";"";"-3.151678";"126.1245247";"https://maps.google.com/?cid=0x0:0xdff3bdb1ccfcc400";""
"perumahan";"Komplek perumahan";"Bp Andi home";"WF72+JFR, Waimangit, Kec. Air Buaya, Kabupaten Buru, Maluku";"Kabupaten Buru, Maluku";"MALUKU";"";"Indonesia";"";"";"";"-3.085764";"126.451455";"https://maps.google.com/?cid=0x0:0x5db3102f7fbb9cd7";""
"perumahan";"perumahan";"Kec. Waeapo";"Kabupaten Buru, Maluku";"Kabupaten Buru, Maluku";"MALUKU";"";"Indonesia";"";"";"";"-3.4137528";"126.925378";"https://maps.google.com/?cid=0x0:0xf83f0231b9a9b5fd";""
"perumahan";"Komplek perumahan";"Widia as tuti";"HWX5+6MH, Waegeren, Kec. Waeapo, Kabupaten Buru, Maluku";"Kabupaten Buru, Maluku";"MALUKU";"";"Indonesia";"";"";"";"-3.4020276";"126.9105213";"https://maps.google.com/?cid=0x0:0xf0962747cf26fda6";""
"perumahan";"Pembangunan Perumahan";"Rumah tempe";"HWW5+75, Waegeren, Kec. Waeapo, Kabupaten Buru, Maluku";"Kabupaten Buru, Maluku";"MALUKU";"";"Indonesia";"";"";"";"-3.4042783";"126.9078968";"https://maps.google.com/?cid=0x0:0x6e57acca1c0553e0";""
"perumahan";"Komplek perumahan";"Pa Ples";"JXGP+5VP, Waenetat, Kec. Waeapo, Kabupaten Buru, Maluku";"Kabupaten Buru, Maluku";"MALUKU";"";"Indonesia";" 081336760873";"";"";"-3.3745417";"126.9871997";"https://maps.google.com/?cid=0x0:0x1b6268f5a7f47005";""
"perumahan";"Komplek perumahan";"Rumah Edi";"JW2J+4M8, Wanakarta, Kec. Waeapo, Kabupaten Buru, Maluku";"Kabupaten Buru, Maluku";"MALUKU";"";"Indonesia";"";"";"";"-3.3997022";"126.9317148";"https://maps.google.com/?cid=0x0:0x3420cac829d9b65b";""
"perumahan";"Komplek perumahan";"Rumah PK sohidun";"HX84+822, Waeleman, Kec. Waelata, Kabupaten Buru, Maluku";"Kabupaten Buru, Maluku";"MALUKU";"";"Indonesia";"";"";"";"-3.4342381";"126.9550087";"https://maps.google.com/?cid=0x0:0x9a533b50ab6b00fb";""
"perumahan";"perumahan";"Kang derjo";"HWW6+GC, Waegeren, Kec. Waeapo, Kabupaten Buru, Maluku";"Kabupaten Buru, Maluku";"MALUKU";"";"Indonesia";" 082264399305";"";"";"-3.4036762";"126.9109933";"https://maps.google.com/?cid=0x0:0xbb1d9f72a3d557b6";""
"perumahan";"perumahan";"rumahrina📌";"JX8C+R75, Waenetat, Kec. Waeapo, Kabupaten Buru, Maluku";"Kabupaten Buru, Maluku";"MALUKU";"";"Indonesia";"";"";"";"-3.3825504";"126.970987";"https://maps.google.com/?cid=0x0:0x6f9d4523dc4b06a4";""
"perumahan";"Komplek perumahan";"Lesnussa";"HX75+99V, Waeleman, Kec. Waelata, Kabupaten Buru, Maluku";"Kabupaten Buru, Maluku";"MALUKU";"";"Indonesia";"";"";"";"-3.4367472";"126.9577235";"https://maps.google.com/?cid=0x0:0x9af6bad362bacfb7";""
"perumahan";"Komplek perumahan";"Waelo";"HX95+XQ9, Waeleman, Kec. Waelata, Kabupaten Buru, Maluku";"Kabupaten Buru, Maluku";"MALUKU";"";"Indonesia";"";"";"";"-3.4300922";"126.9594804";"https://maps.google.com/?cid=0x0:0xefa97a1a8e20e6d0";""
"perumahan";"Komplek perumahan";"Rumah Fevin om";"JXMM+JGV, Waenetat, Kec. Waeapo, Kabupaten Buru, Maluku 97574";"Waenetat, Kec. Waeapo, Kabupaten Buru";"MALUKU";"97574";"Indonesia";"";"";"";"-3.3656346";"126.9830167";"https://maps.google.com/?cid=0x0:0xe648933ca1d74c80";""
"perumahan";"Hostel";"Kostan ibu Eni";"JXGP+CJH Mako, kost Ibu Eni, Jl. Trans unit, Waenetat, Kec. Waeapo, Kabupaten Buru, Maluku 97574";"kost Ibu Eni, Jl. Trans unit, Waenetat, Kec. Waeapo, Kabupaten Buru";"MALUKU";"97574";"Indonesia";"";"";"";"-3.3739484";"126.9866095";"https://maps.google.com/?cid=0x0:0xfc59cef7e30bdbee";""
"perumahan";"Pembangunan Perumahan";"Cak rusdi";"JX9H+P32, Waenetat, Kec. Waeapo, Kabupaten Buru, Maluku";"Kabupaten Buru, Maluku";"MALUKU";"";"Indonesia";"";"";"";"-3.3802517";"126.9777512";"https://maps.google.com/?cid=0x0:0x4ea45767f4a783e5";""
"perumahan";"Komplek perumahan";"GSM";"HXVC+CH8, Waenetat, Kec. Waeapo, Kabupaten Buru, Maluku";"Kabupaten Buru, Maluku";"MALUKU";"";"Indonesia";"";"";"";"-3.4063882";"126.9714527";"https://maps.google.com/?cid=0x0:0xdeb64269a04cd70b";""
"perumahan";"Perhimpunan Pengembang Perumahan";"Sawah permai";"JXPM+FM9, Waenetat, Kec. Waeapo, Kabupaten Buru, Maluku";"Kabupaten Buru, Maluku";"MALUKU";"";"Indonesia";"";"";"";"-3.3628481";"126.9847506";"https://maps.google.com/?cid=0x0:0x1e50f686442e4ff8";""
"perumahan";"Komplek perumahan";"Rumah vano";"JXMP+966, Waenetat, Kec. Waeapo, Kabupaten Buru, Maluku";"Kabupaten Buru, Maluku";"MALUKU";"";"Indonesia";"";"";"";"-3.3662989";"126.9849697";"https://maps.google.com/?cid=0x0:0x21c117f7a9aa5f8";""
"perumahan";"Komplek perumahan";"RUMAH SAYA";"JXWH+JV4, Waekasar, Kec. Waeapo, Kabupaten Buru, Maluku";"Kabupaten Buru, Maluku";"MALUKU";"";"Indonesia";"";"";"";"-3.3539786";"126.9796131";"https://maps.google.com/?cid=0x0:0x29183f40f2b08974";""
"perumahan";"perumahan";"Desa Wabloy";"JW8G+98R, Upt Wabloy, Kec. Waeapo, Kabupaten Buru, Maluku";"Kabupaten Buru, Maluku";"MALUKU";"";"Indonesia";"";"";"";"-3.3840087";"126.9257643";"https://maps.google.com/?cid=0x0:0x8ab9d7814f5fe83b";""
"perumahan";"Komplek perumahan";"Ubay";"HXW6+2F, Waenetat, Kec. Waeapo, Kabupaten Buru, Maluku";"Kabupaten Buru, Maluku";"MALUKU";"";"Indonesia";"";"";"";"-3.4052496";"126.9607802";"https://maps.google.com/?cid=0x0:0xc87a2907a1b35977";""
"perumahan";"Perumahan";"Mbak Syafa";"JXJP+H5X, Waenetat, Kec. Waeapo, Kabupaten Buru, Maluku";"Kabupaten Buru, Maluku";"MALUKU";"";"Indonesia";"";"";"";"-3.3685136";"126.985482";"https://maps.google.com/?cid=0x0:0x427f55aeeb78c336";""
"perumahan";"Pembangunan Perumahan";"Isro purwadi";"HX63+GRF, Waelo, Kec. Waeapo, Kabupaten Buru, Maluku";"Kabupaten Buru, Maluku";"MALUKU";"";"Indonesia";"";"";"";"-3.4381036";"126.9556361";"https://maps.google.com/?cid=0x0:0x720d659d46ca973d";""
"perumahan";"Pembangunan Perumahan";"Mesjid Desa waeflan";"GW9F+HJ5, Waetina, Kec. Waelata, Kabupaten Buru, Maluku";"Kabupaten Buru, Maluku";"MALUKU";"";"Indonesia";"";"";"";"-3.4811059";"126.924111";"https://maps.google.com/?cid=0x0:0x451cf68e0de92e9";""
"perumahan";"perumahan";"JihanHome";"HX52+89, Waelo, Kec. Waelata, Kabupaten Buru, Maluku";"Kabupaten Buru, Maluku";"MALUKU";"";"Indonesia";"";"";"";"-3.441524";"126.9514408";"https://maps.google.com/?cid=0x0:0xe9c366bbdcd43a68";""
"perumahan";"Komplek perumahan";"Setiawan house";"GWCF+4H7, Waetina, Kec. Waeapo, Kabupaten Buru, Maluku";"Kabupaten Buru, Maluku";"MALUKU";"";"Indonesia";"";"";"";"-3.4788193";"126.9231615";"https://maps.google.com/?cid=0x0:0x6756181f519052ca";""
"perumahan";"perumahan";"Waplau";"Kabupaten Buru, Maluku";"Kabupaten Buru, Maluku";"MALUKU";"";"Indonesia";"";"";"";"-3.1224517";"126.8821197";"https://maps.google.com/?cid=0x0:0xa108369a69306737";""
"perumahan";"perumahan";"Witri waliulu";"VVGM+X2G, Waplau, Kabupaten Buru, Maluku";"Kabupaten Buru, Maluku";"MALUKU";"";"Indonesia";"";"";"";"-3.1220853";"126.8828344";"https://maps.google.com/?cid=0x0:0x4b21dc2675ae9fce";""
"perumahan";"Komplek perumahan";"Rumah ucok";"VVHJ+G93, Waplau, Kabupaten Buru, Maluku";"Kabupaten Buru, Maluku";"MALUKU";"";"Indonesia";"";"";"";"-3.1205876";"126.8824698";"https://maps.google.com/?cid=0x0:0x33daa9cdd5772d1b";""
"perumahan";"Komplek perumahan";"D.Wabula";"WR6R+HM9, Waeura, Waplau, Kabupaten Buru, Maluku";"Kabupaten Buru, Maluku";"MALUKU";"";"Indonesia";"";"";"";"-3.0881313";"126.8417937";"https://maps.google.com/?cid=0x0:0x125fdb32ca20d896";""
"perumahan";"perumahan";"Rumah Darmin papalia";"WR6V+7GP, Jl. Pendidikan, Waeura, Waplau, Kabupaten Buru, Maluku";"Kabupaten Buru, Maluku";"MALUKU";"";"Indonesia";"";"";"";"-3.0889314";"126.8431342";"https://maps.google.com/?cid=0x0:0x2000da5e1c673a95";""
"perumahan";"Komplek perumahan";"Rumah sartia";"WR6V+W65, Jl. Propinsi, Waeura, Waplau, Kabupaten Buru, Maluku";"Kabupaten Buru, Maluku";"MALUKU";"";"Indonesia";"";"";"";"-3.0877473";"126.843114";"https://maps.google.com/?cid=0x0:0x416e9ddbb34cb73e";""
"perumahan";"Komplek perumahan";"Rumah";"VVHJ+G93, Waplau, Kabupaten Buru, Maluku";"Kabupaten Buru, Maluku";"MALUKU";"";"Indonesia";"";"";"";"-3.1199278";"126.8817628";"https://maps.google.com/?cid=0x0:0xa12653f3cc6e273f";""
"perumahan";"Komplek perumahan";"Kompleks BTN Desa waplau";"VVGP+M2F, Waplau, Kabupaten Buru, Maluku";"Kabupaten Buru, Maluku";"MALUKU";"";"Indonesia";"";"";"";"-3.1233026";"126.8850589";"https://maps.google.com/?cid=0x0:0x70225184e830ad84";""
"perumahan";"Komplek perumahan";"Rumah ade ar";"VVHJ+G93, Waplau, Kabupaten Buru, Maluku";"Kabupaten Buru, Maluku";"MALUKU";"";"Indonesia";"";"";"";"-3.120319";"126.8825523";"https://maps.google.com/?cid=0x0:0x8626e6665f2ac583";""
"perumahan";"Pembangunan Perumahan";"Fauzy Kolengsusuderwil";"WRJ4+RPF RT 02, Namsina, Waplau, Kabupaten Buru, Maluku";"Kabupaten Buru, Maluku";"MALUKU";"";"Indonesia";" 081248194899";"";"";"-3.0679347";"126.8067875";"https://maps.google.com/?cid=0x0:0x2188ffb3651fad48";""
"perumahan";"Komplek perumahan";"Rumah Laharuna Papalia";"WR6R+HM9, Waeura, Waplau, Kabupaten Buru, Maluku";"Kabupaten Buru, Maluku";"MALUKU";"";"Indonesia";"";"";"";"-3.087929";"126.8419612";"https://maps.google.com/?cid=0x0:0xb3bb2ac07c027c33";""
"perumahan";"Komplek perumahan";"Nirr_makeup";"VVHJ+2R9, Waplau, Kabupaten Buru, Maluku";"Kabupaten Buru, Maluku";"MALUKU";"";"Indonesia";"";"";"";"-3.1224517";"126.8821197";"https://maps.google.com/?cid=0x0:0xd5e0184f30bb416c";""
"perumahan";"Komplek perumahan";"Rumah ubayd";"VVHJ+2R9, Waplau, Kabupaten Buru, Maluku";"Kabupaten Buru, Maluku";"MALUKU";"";"Indonesia";"";"";"";"-3.1224517";"126.8821197";"https://maps.google.com/?cid=0x0:0xd4a199f28dd39f2e";""
"perumahan";"Komplek perumahan";"Rumah PPL Pertanian";"Rt 01, Waeura, Waplau, Kabupaten Buru, Maluku";"Kabupaten Buru, Maluku";"MALUKU";"";"Indonesia";"";"";"";"-3.0882704";"126.8444834";"https://maps.google.com/?cid=0x0:0x8b90969db413678c";""
"perumahan";"perumahan";"HAFIZAH BUTON";"VVMJ+G53, Waplau, Kabupaten Buru, Maluku";"Kabupaten Buru, Maluku";"MALUKU";"";"Indonesia";"";"";"";"-3.1162445";"126.8804265";"https://maps.google.com/?cid=0x0:0x5a081d7dcf1c61a3";""
"perumahan";"Perhimpunan Pengembang Perumahan";"Waepoti";"VMW2+CR, Waepoti, Waplau, Kabupaten Buru, Maluku";"Kabupaten Buru, Maluku";"MALUKU";"";"Indonesia";"";"";"";"-3.1039014";"126.6520227";"https://maps.google.com/?cid=0x0:0xfad821a1f174e1c2";""
"perumahan";"Komplek perumahan";"Elvies Batuwael";"WMGC+X6P, Waepoti, Waplau, Kabupaten Buru, Maluku";"Kabupaten Buru, Maluku";"MALUKU";"";"Indonesia";"";"";"";"-3.0725266";"126.6705816";"https://maps.google.com/?cid=0x0:0xe89cd164ecec4000";""
"perumahan";"Komplek perumahan";"Adiputra Warhangan homestay";"WRM4+9CM, Namsina, Waplau, Kabupaten Buru, Maluku";"Kabupaten Buru, Maluku";"MALUKU";"";"Indonesia";"";"";"";"-3.0671133";"126.8068274";"https://maps.google.com/?cid=0x0:0x366cef60d80cbc2e";""
"perumahan";"Komplek perumahan";"Batuwael al vamilly";"WMHF+FGF, Waepoti, Waplau, Kabupaten Buru, Maluku";"Kabupaten Buru, Maluku";"MALUKU";"";"Indonesia";"";"";"";"-3.0713167";"126.6737979";"https://maps.google.com/?cid=0x0:0x215a215783960ad8";""
"perumahan";"Perhimpunan Pengembang Perumahan";"miskoko";"RR9C+P6Q, Miskoko, Fena Leisela, Waeura, Waplau, Kabupaten Buru, Maluku";"Kabupaten Buru, Maluku";"MALUKU";"";"Indonesia";" 082236533459";"";"";"-3.1806706";"126.8206119";"https://maps.google.com/?cid=0x0:0x546e8834dd378f69";""
"perumahan";"Masjid";"Imam Masjid An-Nur Desa Waplau";"VVHJ+3C7, Unnamed Road, Waplau, Kabupaten Buru, Maluku";"Kabupaten Buru, Maluku";"MALUKU";"";"Indonesia";"";"";"";"-3.1223365";"126.8810499";"https://maps.google.com/?cid=0x0:0x4b063ac6b73fa99b";""
"perumahan";"Komplek perumahan";"Samual";"WQQ9+2CP, Hatawano, Waplau, Kabupaten Buru, Maluku";"Kabupaten Buru, Maluku";"MALUKU";"";"Indonesia";"";"";"";"-3.0625607";"126.7686247";"https://maps.google.com/?cid=0x0:0x2dff01caf845e5be";""
"perumahan";"Komplek perumahan";"Komplek lorong maut";"C69X+G8H, Ilath, Kec. Bata Bual, Kabupaten Buru, Maluku";"Kabupaten Buru, Maluku";"MALUKU";"";"Indonesia";"";"";"";"-3.5814387";"127.2480126";"https://maps.google.com/?cid=0x0:0x3f4f485d4727e197";""
"perumahan";"perumahan";"Kec. Bata Bual";"Kabupaten Buru, Maluku";"Kabupaten Buru, Maluku";"MALUKU";"";"Indonesia";"";"";"";"-3.5268077";"127.2494018";"https://maps.google.com/?cid=0x0:0xbd920a24abdb7eed";""
"perumahan";"perumahan";"Rumah Anti Mahulete";"Jl. Kabupaten No.1, Ilath, Kec. Bata Bual, Kabupaten Buru, Maluku 97574";"Ilath, Kec. Bata Bual, Kabupaten Buru";"MALUKU";"97574";"Indonesia";"";"";"";"-3.5759807";"127.2433808";"https://maps.google.com/?cid=0x0:0xc8b8f118d9e9caee";""
"perumahan";"Komplek perumahan";"KOMPLEK WASTALALE/KOMPPAS.FC";"C6FW+V44, Ilath, Kec. Bata Bual, Kabupaten Buru, Maluku";"Kabupaten Buru, Maluku";"MALUKU";"";"Indonesia";"";"";"";"-3.5763504";"127.2445941";"https://maps.google.com/?cid=0x0:0x7b5b426f3f17a3ea";""
"perumahan";"Perhimpunan Pengembang Perumahan";"Lorong hantu";"C6GV+7W3, Ilath, Kec. Bata Bual, Kabupaten Buru, Maluku";"Kabupaten Buru, Maluku";"MALUKU";"";"Indonesia";"";"";"";"-3.574366";"127.2447995";"https://maps.google.com/?cid=0x0:0x78b8c09e9d106f64";""
"perumahan";"Komplek perumahan";"Rumah Ayub Sanmas";"J6FV+95F, Jl. Kabupaten, Pela, Kec. Bata Bual, Kabupaten Buru, Maluku";"Kabupaten Buru, Maluku";"MALUKU";"";"Indonesia";"";"";"";"-3.3765583";"127.2429241";"https://maps.google.com/?cid=0x0:0x42f1ace37a844f07";""
"perumahan";"Komplek perumahan";"Rumah Akbar";"C69X+G8H, Ilath, Kec. Bata Bual, Kabupaten Buru, Maluku";"Kabupaten Buru, Maluku";"MALUKU";"";"Indonesia";"";"";"";"-3.581425";"127.247979";"https://maps.google.com/?cid=0x0:0xe99c35e888d0716e";""
"perumahan";"Komplek perumahan";"Taher Masbait";"C6CX+H37, RT.1, Ilath, Kec. Bata Bual, Kabupaten Buru, Maluku";"Kabupaten Buru, Maluku";"MALUKU";"";"Indonesia";"";"";"";"-3.5781952";"127.2470222";"https://maps.google.com/?cid=0x0:0x562ff9a1f104067f";""
"perumahan";"";"L Takimpo";"C6CX+H37, RT.1, Ilath, Kec. Bata Bual, Kabupaten Buru, Maluku";"Kabupaten Buru, Maluku";"MALUKU";"";"Indonesia";"";"";"";"-3.5785781";"127.2476851";"https://maps.google.com/?cid=0x0:0x49e03492516b08bf";""
"perumahan";"perumahan";"Rumah Eko Aqilla Aunaka";"F6FX+97Q, Waemorat, Kec. Bata Bual, Kabupaten Buru, Maluku";"Kabupaten Buru, Maluku";"MALUKU";"";"Indonesia";"";"";"";"-3.5254708";"127.2477206";"https://maps.google.com/?cid=0x0:0xc3082adc0f56ebb4";""
"perumahan";"Komplek perumahan";"Rumah pinoi";"F6GX+4HG, Waemorat, Kec. Bata Bual, Kabupaten Buru, Maluku";"Kabupaten Buru, Maluku";"MALUKU";"";"Indonesia";"";"";"";"-3.5246976";"127.2489523";"https://maps.google.com/?cid=0x0:0xdfa439f3f086f90a";""
"perumahan";"Komplek perumahan";"Rumah Avito pela";"J6FV+95F, Jl. Kabupaten, Pela, Kec. Bata Bual, Kabupaten Buru, Maluku";"Kabupaten Buru, Maluku";"MALUKU";"";"Indonesia";"";"";"";"-3.376954";"127.2428594";"https://maps.google.com/?cid=0x0:0x89818124a99bd654";""
"perumahan";"perumahan";"Aluna alu biloro";"C6CX+H37, RT.1, Ilath, Kec. Bata Bual, Kabupaten Buru, Maluku";"Kabupaten Buru, Maluku";"MALUKU";"";"Indonesia";"";"";"";"-3.5783844";"127.2475228";"https://maps.google.com/?cid=0x0:0x4631b03c8b26cdac";""
"perumahan";"Komplek perumahan";"Putra Tomia";"C69W+WM7, Ilath, Kec. Bata Bual, Kabupaten Buru, Maluku";"Kabupaten Buru, Maluku";"MALUKU";"";"Indonesia";"";"";"";"-3.5802216";"127.2466731";"https://maps.google.com/?cid=0x0:0xd14ce53e9c64f9b9";""
"perumahan";"Komplek perumahan";"Rumah zubardin";"F62W+R99, Ilath, Kec. Bata Bual, Kabupaten Buru, Maluku";"Kabupaten Buru, Maluku";"MALUKU";"";"Indonesia";"";"";"";"-3.5479646";"127.2459889";"https://maps.google.com/?cid=0x0:0x70d9dcba7b53b074";""
"perumahan";"Komplek perumahan";"Rumahnya mutmainna";"C6FV+C9C, Dusun waihani, Ilath, Kec. Bata Bual, Kabupaten Buru, Maluku";"Kabupaten Buru, Maluku";"MALUKU";"";"Indonesia";"";"";"";"-3.576371";"127.243986";"https://maps.google.com/?cid=0x0:0xc3234dbc6429629a";""
"perumahan";"Komplek perumahan";"Labuang kecil";"C68X+Q4W, Ilath, Kec. Bata Bual, Kabupaten Buru, Maluku";"Kabupaten Buru, Maluku";"MALUKU";"";"Indonesia";"";"";"";"-3.5830248";"127.2478299";"https://maps.google.com/?cid=0x0:0xed4da2ff99888267";""
"perumahan";"Pembangunan Perumahan";"Putra";"C69W+WM7, Ilath, Kec. Bata Bual, Kabupaten Buru, Maluku";"Kabupaten Buru, Maluku";"MALUKU";"";"Indonesia";"";"";"";"-3.5807082";"127.2473752";"https://maps.google.com/?cid=0x0:0x448d89b0a6c3cacc";""
"perumahan";"perumahan";"Rumahnya bapa lengko";"C6GV+QQC, Dusun waehani, Ilath, Kec. Bata Bual, Kabupaten Buru, Maluku";"Kabupaten Buru, Maluku";"MALUKU";"";"Indonesia";"";"";"";"-3.5721666";"127.2446863";"https://maps.google.com/?cid=0x0:0x1964b222082c2d95";""
"perumahan";"Komplek perumahan";"rumah busou basudara";"J5VJ+CW, Seith, Tlk. Kaiely, Kabupaten Buru, Maluku";"Kabupaten Buru, Maluku";"MALUKU";"";"Indonesia";"";"";"";"-3.3564909";"127.1822941";"https://maps.google.com/?cid=0x0:0x5733f30701a97cc9";""
"perumahan";"Komplek perumahan";"Rumah bapa sahril wabual";"C5VR+X33 Wastalale, jln.puskesmas, Ilath, Kec. Bata Bual, Kabupaten Buru, Maluku";"Kabupaten Buru, Maluku";"MALUKU";"";"Indonesia";"";"";"";"-3.555113";"127.1901616";"https://maps.google.com/?cid=0x0:0xce0b7528b5397c94";""
"perumahan";"Pembangunan Perumahan";"rahmat tomia";"C69W+WM7, Ilath, Kec. Bata Bual, Kabupaten Buru, Maluku";"Kabupaten Buru, Maluku";"MALUKU";"";"Indonesia";"";"";"";"-3.5803937";"127.2470333";"https://maps.google.com/?cid=0x0:0x2b897565c4731dfe";""
"perumahan";"perumahan";"Maluku";"";"Maluku";"MALUKU";"";"Indonesia";"";"";"";"-3.2384616";"130.1452734";"https://maps.google.com/?cid=0x0:0x5e30e8db04649a51";""
"perumahan";"Mi";"Mie Ayam  Bakso 52";"Lolong Guba, Grandeng, Kec. Waeapo, Kabupaten Buru, Maluku 97574";"Grandeng, Kec. Waeapo, Kabupaten Buru";"MALUKU";"97574";"Indonesia";" 081343461985";"";"";"-3.4373519";"126.9223353";"https://maps.google.com/?cid=0x0:0xa836875761f090ab";""
"perumahan";"Rumah Makan";"Mie Ayam Bakso  Lesehan Moza";"HW7F+P29, Grandeng, Kec. Waeapo, Kabupaten Buru, Maluku";"Kabupaten Buru, Maluku";"MALUKU";"";"Indonesia";" 085314807323";"";"";"-3.4357589";"126.9226586";"https://maps.google.com/?cid=0x0:0x257bf85cdb2a1288";""
"perumahan";"perumahan";"Kec. Waelata";"Kabupaten Buru, Maluku";"Kabupaten Buru, Maluku";"MALUKU";"";"Indonesia";"";"";"";"-3.4811436";"126.9241917";"https://maps.google.com/?cid=0x0:0xd5c06f16d8212c44";""
"perumahan";"Komplek perumahan";"Lesnussa";"HX75+99V, Waeleman, Kec. Waelata, Kabupaten Buru, Maluku";"Kabupaten Buru, Maluku";"MALUKU";"";"Indonesia";"";"";"";"-3.4367472";"126.9577235";"https://maps.google.com/?cid=0x0:0x9af6bad362bacfb7";""
"perumahan";"Komplek perumahan";"ZaDa creative";"HX94+4F, Waelo, Kec. Waelata, Kabupaten Buru, Maluku";"Kabupaten Buru, Maluku";"MALUKU";"";"Indonesia";" 082233592581";"";"";"-3.4321875";"126.9561875";"https://maps.google.com/?cid=0x0:0x70dac9becd98268d";""
"perumahan";"Komplek perumahan";"Dluffy27";"H2F5+3F, Parbulu, Kec. Waelata, Kabupaten Buru, Maluku";"Kabupaten Buru, Maluku";"MALUKU";"";"Indonesia";"";"";"";"-3.4276281";"127.0083208";"https://maps.google.com/?cid=0x0:0x90704f07e4a96637";""
"perumahan";"Komplek perumahan";"Abdi_parabola";"H272+QVG, Parbulu, Kec. Waelata, Kabupaten Buru, Maluku";"Kabupaten Buru, Maluku";"MALUKU";"";"Indonesia";"";"";"";"-3.4355601";"127.0022058";"https://maps.google.com/?cid=0x0:0x9bd82cfac7ced383";""
"perumahan";"perumahan";"Kediaman gito";"H286+C2P, Parbulu, Kec. Waelata, Kabupaten Buru, Maluku";"Kabupaten Buru, Maluku";"MALUKU";"";"Indonesia";"";"";"";"-3.4345199";"127.0098034";"https://maps.google.com/?cid=0x0:0x39a8f86ad248dfe4";""
"perumahan";"Pembangunan Perumahan";"Dina A. Defi";"GW89+XF, Upt K. Waplan, Kec. Waelata, Kabupaten Buru, Maluku";"Kabupaten Buru, Maluku";"MALUKU";"";"Indonesia";"";"";"";"-3.4825438";"126.9186353";"https://maps.google.com/?cid=0x0:0x7a0c3761ec3e9333";""
"perumahan";"Komplek perumahan";"Rizky home";"GWFF+JXJ, Waetina, Kec. Waelata, Kabupaten Buru, Maluku";"Kabupaten Buru, Maluku";"MALUKU";"";"Indonesia";"";"";"";"-3.4759112";"126.9248778";"https://maps.google.com/?cid=0x0:0x6bfe106b39614bbf";""
"perumahan";"perumahan";"JihanHome";"HX52+89, Waelo, Kec. Waelata, Kabupaten Buru, Maluku";"Kabupaten Buru, Maluku";"MALUKU";"";"Indonesia";"";"";"";"-3.441524";"126.9514408";"https://maps.google.com/?cid=0x0:0xe9c366bbdcd43a68";""
"perumahan";"Pembangunan Perumahan";"Mesjid Desa waeflan";"GW9F+HJ5, Waetina, Kec. Waelata, Kabupaten Buru, Maluku";"Kabupaten Buru, Maluku";"MALUKU";"";"Indonesia";"";"";"";"-3.4811059";"126.924111";"https://maps.google.com/?cid=0x0:0x451cf68e0de92e9";""
"perumahan";"Komplek perumahan";"Rumah PK sohidun";"HX84+822, Waeleman, Kec. Waelata, Kabupaten Buru, Maluku";"Kabupaten Buru, Maluku";"MALUKU";"";"Indonesia";"";"";"";"-3.4342381";"126.9550087";"https://maps.google.com/?cid=0x0:0x9a533b50ab6b00fb";""
"perumahan";"Komplek perumahan";"Rumah dion";"H2C6+GVH unit 17, Parbulu, Kec. Waelata, Kabupaten Buru, Maluku";"Kabupaten Buru, Maluku";"MALUKU";"";"Indonesia";"";"";"";"-3.4286859";"127.0122441";"https://maps.google.com/?cid=0x0:0x8fc2bdd60eb40cd1";""
"perumahan";"Komplek perumahan";"Desa waeflan";"FVHR+QR3, Waelikut, Kec. Waelata, Kabupaten Buru, Maluku";"Kabupaten Buru, Maluku";"MALUKU";"";"Indonesia";" 081315854346";"";"";"-3.5202239";"126.893001";"https://maps.google.com/?cid=0x0:0x1158f534ab884a82";""
"perumahan";"Komplek perumahan";"Rumah saya";"GW3X+CFX, Waetina, Kec. Waelata, Kabupaten Buru, Maluku";"Kabupaten Buru, Maluku";"MALUKU";"";"Indonesia";"";"";"";"-3.496382";"126.9487333";"https://maps.google.com/?cid=0x0:0x94f3bfc9fc0bb062";""
"perumahan";"Komplek perumahan";"Firman syah";"H2C4+RH2, Unnamed Road, Parbulu, Kec. Waelata, Kabupaten Buru, Maluku";"Kabupaten Buru, Maluku";"MALUKU";"";"Indonesia";" 082248827098";"";"";"-3.427978";"127.0063821";"https://maps.google.com/?cid=0x0:0x48b8bc8b4a8b890e";""
"perumahan";"Komplek perumahan";"Rat ellen";"FVQW+P93 Kode pos 97579, Rat elen, Kec. Waelata, Kabupaten Buru, Maluku";"Kabupaten Buru, Maluku";"MALUKU";"";"Indonesia";"";"";"";"-3.5107476";"126.8959197";"https://maps.google.com/?cid=0x0:0x5a643f528b9280";""
"perumahan";"Komplek perumahan";"Rumah pribadi";"GW3X+CFX, Waetina, Kec. Waelata, Kabupaten Buru, Maluku";"Kabupaten Buru, Maluku";"MALUKU";"";"Indonesia";"";"";"";"-3.496382";"126.9487333";"https://maps.google.com/?cid=0x0:0xee527c50d36afefc";""
"perumahan";"";"Gendhis SM";"HX95+XQ9, Waeleman, Kec. Waelata, Kabupaten Buru, Maluku";"Kabupaten Buru, Maluku";"MALUKU";"";"Indonesia";"";"";"";"-3.4300922";"126.9594804";"https://maps.google.com/?cid=0x0:0xcd80e6ecaa4babfc";""
"perumahan";"Komplek perumahan";"UBAY";"HX95+XQ9, Waeleman, Kec. Waelata, Kabupaten Buru, Maluku";"Kabupaten Buru, Maluku";"MALUKU";"";"Indonesia";"";"";"";"-3.4300922";"126.9594804";"https://maps.google.com/?cid=0x0:0xf4095de00b3b47fe";""
"perumahan";"Komplek perumahan";"Waelo";"HX95+XQ9, Waeleman, Kec. Waelata, Kabupaten Buru, Maluku";"Kabupaten Buru, Maluku";"MALUKU";"";"Indonesia";"";"";"";"-3.4300922";"126.9594804";"https://maps.google.com/?cid=0x0:0xefa97a1a8e20e6d0";""
"perumahan";"Komplek perumahan";"Ade Rendra Home";"GW8F+RCW, Desa, Waetina, Namlea, Kabupaten Buru, Maluku 97574";"Desa, Waetina, Namlea, Kabupaten Buru";"MALUKU";"97574";"Indonesia";"";"";"";"-3.4828875";"126.9235781";"https://maps.google.com/?cid=0x0:0x36be53727ca50f39";""
"perumahan";"Komplek perumahan";"Fandi house";"JXVX+CW6, Waekasar, Kec. Waeapo, Kabupaten Buru, Maluku 97574";"Waekasar, Kec. Waeapo, Kabupaten Buru";"MALUKU";"97574";"Indonesia";"";"";"";"-3.3564749";"126.9997683";"https://maps.google.com/?cid=0x0:0x52a7a8b6afa4d438";""
"perumahan";"Hostel";"Kostan ibu Eni";"JXGP+CJH Mako, kost Ibu Eni, Jl. Trans unit, Waenetat, Kec. Waeapo, Kabupaten Buru, Maluku 97574";"kost Ibu Eni, Jl. Trans unit, Waenetat, Kec. Waeapo, Kabupaten Buru";"MALUKU";"97574";"Indonesia";"";"";"";"-3.3739484";"126.9866095";"https://maps.google.com/?cid=0x0:0xfc59cef7e30bdbee";""
"perumahan";"Komplek perumahan";"Rumah Fevin om";"JXMM+JGV, Waenetat, Kec. Waeapo, Kabupaten Buru, Maluku 97574";"Waenetat, Kec. Waeapo, Kabupaten Buru";"MALUKU";"97574";"Indonesia";"";"";"";"-3.3656346";"126.9830167";"https://maps.google.com/?cid=0x0:0xe648933ca1d74c80";""
"perumahan";"perumahan";"Rumah Yadi flamboyan";"JXMM+JGV, Waenetat, Kec. Waeapo, Kabupaten Buru, Maluku 97574";"Waenetat, Kec. Waeapo, Kabupaten Buru";"MALUKU";"97574";"Indonesia";"";"";"";"-3.3658601";"126.9826791";"https://maps.google.com/?cid=0x0:0xc278240c5d4254f8";""
"perumahan";"Kantor Perusahaan";"Rumah Pos IB DS Waelo";"Desa, Waelo, Kec. Waelata, Kabupaten Buru, Maluku 97574";"Waelo, Kec. Waelata, Kabupaten Buru";"MALUKU";"97574";"Indonesia";" 085292940110";"";"";"-3.4371852";"126.9555284";"https://maps.google.com/?cid=0x0:0x470886c561e8e30";""
"perumahan";"Restoran";"Rumah makan";"Waetina, Namlea, Kabupaten Buru, Maluku 97574";"Namlea, Kabupaten Buru";"MALUKU";"97574";"Indonesia";"";"";"";"-3.4842658";"126.9223536";"https://maps.google.com/?cid=0x0:0xe8c12a7d35a64e45";""
"perumahan";"Studio Foto";"Kawasan Leisela";"P4J5+9VG, Namlea, Kec. Namlea, Kabupaten Buru, Maluku";"Kabupaten Buru, Maluku";"MALUKU";"";"Indonesia";" 082345600772";"";"";"-3.2690473";"127.1097155";"https://maps.google.com/?cid=0x0:0x85768b108b83bc67";""
"perumahan";"Studio Fotografi";"ULLAND_STUDIO";"Jl. Flamboyan No.29, Namlea, Kec. Namlea, Kabupaten Buru, Maluku";"Kabupaten Buru, Maluku";"MALUKU";"";"Indonesia";" 081288916151";"";"";"-3.27984";"127.0974629";"https://maps.google.com/?cid=0x0:0xfe278cd63d715f06";""
"perumahan";"perumahan";"Tlk. Kaiely";"Kabupaten Buru, Maluku";"Kabupaten Buru, Maluku";"MALUKU";"";"Indonesia";"";"";"";"-3.3033929";"126.5661908";"https://maps.google.com/?cid=0x0:0x12b5aeb27efc20e0";""
"perumahan";"Komplek perumahan";"WIN HOUSE";"WGFV+QGJ, Jl. Propinsi, Wamlana, Teluk Kaiely, Kabupaten Buru, Maluku";"Kabupaten Buru, Maluku";"MALUKU";"";"Indonesia";"";"";"";"-3.0754901";"126.5438178";"https://maps.google.com/?cid=0x0:0xf28e297f71935127";""
"perumahan";"Gedung Apartemen Berfasilitas Komplet";"Lorong jati super";"WGFJ+58, Wamlana, Teluk Kaiely, Kabupaten Buru, Maluku";"Kabupaten Buru, Maluku";"MALUKU";"";"Indonesia";"";"";"";"-3.0769301";"126.5307557";"https://maps.google.com/?cid=0x0:0xaa3c8393e1cefe3";""
"perumahan";"Komplek perumahan";"Rumah qu";"WGFP+XM6, Wamlana, Teluk Kaiely, Kabupaten Buru, Maluku";"Kabupaten Buru, Maluku";"MALUKU";"";"Indonesia";"";"";"";"-3.0750896";"126.536653";"https://maps.google.com/?cid=0x0:0xef2a0a4d54b0bffe";""
"perumahan";"Komplek perumahan";"Nadia buton";"MFVH+5V8, Wamlana, Tlk. Kaiely, Kabupaten Buru, Maluku";"Kabupaten Buru, Maluku";"MALUKU";"";"Indonesia";"";"";"";"-3.3070792";"126.4797126";"https://maps.google.com/?cid=0x0:0xe2941806c1eb8642";""
"perumahan";"Komplek perumahan";"Namlea kabupaten buru";"MM9W+P75, Waegeren, Kec. Waeapo, Kabupaten Buru, Maluku";"Kabupaten Buru, Maluku";"MALUKU";"";"Indonesia";"";"";"";"-3.3307379";"126.6957216";"https://maps.google.com/?cid=0x0:0x947dc08df4cdbafa";""
"perumahan";"Pembangunan Perumahan";"Desa Waigrahi";"JG6X+JF3,Desa Waigrahi, Fena Leisela, Wamlana, Teluk Kaiely, Kabupaten Buru, Maluku";"Kabupaten Buru, Maluku";"MALUKU";"";"Indonesia";"";"";"";"-3.3884836";"126.5486615";"https://maps.google.com/?cid=0x0:0xde2ff48c1fe83a14";""
"perumahan";"Komplek perumahan";"RM iLo Salasiwa";"WGFM+J4, Wamlana, Teluk Kaiely, Kabupaten Buru, Maluku";"Kabupaten Buru, Maluku";"MALUKU";"";"Indonesia";"";"";"";"-3.0759574";"126.5327131";"https://maps.google.com/?cid=0x0:0x369d57f0c71012be";""
"perumahan";"Perhimpunan Pengembang Perumahan";"KIAT";"WC7J+PV3, Air Buaya, Kec. Air Buaya, Kabupaten Buru, Maluku";"Kabupaten Buru, Maluku";"MALUKU";"";"Indonesia";"";"";"";"-3.0857382";"126.4321862";"https://maps.google.com/?cid=0x0:0x768580d969493ade";""
"perumahan";"Komplek perumahan";"RUMAH BPK. MAJID LUHULIMA";"MFVH+5V8, Wamlana, Tlk. Kaiely, Kabupaten Buru, Maluku";"Kabupaten Buru, Maluku";"MALUKU";"";"Indonesia";"";"";"";"-3.3070792";"126.4797126";"https://maps.google.com/?cid=0x0:0xca4c49cdac86f240";""
"perumahan";"Pembangunan Perumahan";"Puncak paltone";"WG4V+RC, Wamlana, Tlk. Kaiely, Kabupaten Buru, Maluku";"Kabupaten Buru, Maluku";"MALUKU";"";"Indonesia";"";"";"";"-3.092895";"126.54358";"https://maps.google.com/?cid=0x0:0xece71d8b1d56d734";""
"perumahan";"Hostel";"Kostan ibu Eni";"JXGP+CJH Mako, kost Ibu Eni, Jl. Trans unit, Waenetat, Kec. Waeapo, Kabupaten Buru, Maluku 97574";"kost Ibu Eni, Jl. Trans unit, Waenetat, Kec. Waeapo, Kabupaten Buru";"MALUKU";"97574";"Indonesia";"";"";"";"-3.3739484";"126.9866095";"https://maps.google.com/?cid=0x0:0xfc59cef7e30bdbee";""
"perumahan";"Komplek perumahan";"Rumah Onco ani wayolu";"MFVH+5V8, Wamlana, Tlk. Kaiely, Kabupaten Buru, Maluku";"Kabupaten Buru, Maluku";"MALUKU";"";"Indonesia";"";"";"";"-3.3070792";"126.4797126";"https://maps.google.com/?cid=0x0:0xca861d00fd505461";""
"perumahan";"Pembangunan Perumahan";"K. BPK fiktor Lehalima";"WG4R+243, Wamlana, Kec. Air Buaya, Kabupaten Buru, Maluku";"Kabupaten Buru, Maluku";"MALUKU";"";"Indonesia";"";"";"";"-3.0944812";"126.5402342";"https://maps.google.com/?cid=0x0:0xf1af2778eb5ba4b2";""
"perumahan";"Komplek perumahan";"Kompleks ambon";"MX45+HH2, Waekerta, Kec. Waeapo, Kabupaten Buru, Maluku";"Kabupaten Buru, Maluku";"MALUKU";"";"Indonesia";"";"";"";"-3.3436048";"126.9588923";"https://maps.google.com/?cid=0x0:0xae528bd109923b1";""
"perumahan";"Komplek perumahan";"Rumah Zul";"WGGM+VX5, Wamlana, Kec. Air Buaya, Kabupaten Buru, Maluku";"Kabupaten Buru, Maluku";"MALUKU";"";"Indonesia";"";"";"";"-3.0723674";"126.5349705";"https://maps.google.com/?cid=0x0:0xa9be6f32b0da0fb";""
"perumahan";"Komplek perumahan";"rumah munir";"MX35+R4Q, Waekerta, Kec. Waeapo, Kabupaten Buru, Maluku";"Kabupaten Buru, Maluku";"MALUKU";"";"Indonesia";"";"";"";"-3.3454206";"126.9578442";"https://maps.google.com/?cid=0x0:0x99a8eb2cc4fdfb08";""
"perumahan";"Pembangunan Perumahan";"BROMEN";"WC7Q+GC, Air Buaya, Kec. Air Buaya, Kabupaten Buru, Maluku";"Kabupaten Buru, Maluku";"MALUKU";"";"Indonesia";"";"";"";"-3.0866088";"126.4391005";"https://maps.google.com/?cid=0x0:0x5b524a4242447544";""
"perumahan";"Komplek perumahan";"Rmh. Yusri Duila";"WC7P+9WQ, Air Buaya, Kec. Air Buaya, Kabupaten Buru, Maluku";"Kabupaten Buru, Maluku";"MALUKU";"";"Indonesia";"";"";"";"-3.0865269";"126.4373632";"https://maps.google.com/?cid=0x0:0x5eb2612fea973ce2";""
"perumahan";"Komplek perumahan";"Bp Andi home";"WF72+JFR, Waimangit, Kec. Air Buaya, Kabupaten Buru, Maluku";"Kabupaten Buru, Maluku";"MALUKU";"";"Indonesia";"";"";"";"-3.085764";"126.451455";"https://maps.google.com/?cid=0x0:0x5db3102f7fbb9cd7";""
"perumahan";"Komplek perumahan";"Waetele";"MX99+VQF, Waetele, Kec. Waeapo, Kabupaten Buru, Maluku";"Kabupaten Buru, Maluku";"MALUKU";"";"Indonesia";"";"";"";"-3.3303025";"126.9694317";"https://maps.google.com/?cid=0x0:0x5cdb029bac3fbb4b";""
"perumahan";"Komplek perumahan";"Air buaya Buru";"WC7P+Q7J, Air Buaya, Kec. Air Buaya, Kabupaten Buru, Maluku";"Kabupaten Buru, Maluku";"MALUKU";"";"Indonesia";"";"";"";"-3.0855263";"126.4356505";"https://maps.google.com/?cid=0x0:0x9bdbf7c202f47697";""
"perumahan";"perumahan";"Kec. Lilialy";"Kabupaten Buru, Maluku";"Kabupaten Buru, Maluku";"MALUKU";"";"Indonesia";"";"";"";"-3.1452717";"126.9901544";"https://maps.google.com/?cid=0x0:0xa4098f1c5783ea97";""
"perumahan";"Pertanian";"Toko minyakkayu putih";"VX4R+7C, Sawa, Kec. Lilialy, Kabupaten Buru, Maluku";"Kabupaten Buru, Maluku";"MALUKU";"";"Indonesia";" 082252570907";"";"";"-3.1443405";"126.9910986";"https://maps.google.com/?cid=0x0:0xee105cd0183b9b0a";""
"perumahan";"Perhimpunan Pengembang Perumahan";"Rumah Malanita";"VX4V+267, Jl. Propinsi, Sawa, Namlea, Kabupaten Buru, Maluku";"Kabupaten Buru, Maluku";"MALUKU";"";"Indonesia";"";"";"";"-3.1449515";"126.9930401";"https://maps.google.com/?cid=0x0:0xda4788d7366085fa";""
"perumahan";"Komplek perumahan";"Rumah Lutfi Rehala";"VX3W+8M4, Jl. Propinsi, Sawa, Kec. Namlea, Kabupaten Buru, Maluku";"Kabupaten Buru, Maluku";"MALUKU";"";"Indonesia";"";"";"";"-3.1467385";"126.9967125";"https://maps.google.com/?cid=0x0:0x70f9fa2ee88a26b1";""
"perumahan";"Komplek perumahan";"Rumah Basirun Umasugi";"VX54+9PX, Waeperang, Kec. Lilialy, Kabupaten Buru, Maluku";"Kabupaten Buru, Maluku";"MALUKU";"";"Indonesia";"";"";"";"-3.1415131";"126.9568625";"https://maps.google.com/?cid=0x0:0xbc8b402fd3a2f2a5";""
"perumahan";"Komplek perumahan";"Rumah julfikar tanasy";"R32F+8P6, Jln.abdul muid makian, RT.5/RW.2, Kec. Lilialy, Kabupaten Buru";"Kabupaten Buru, Maluku";"MALUKU";"";"Indonesia";"";"";"";"-3.1992107";"127.0742674";"https://maps.google.com/?cid=0x0:0x2a83370d04bfad91";""
"perumahan";"Komplek perumahan";"Namlea, lilialy, jikumerasa.";"R2GG+X3H, Gang gatik, Jikumerasa, Kec. Lilialy, Kabupaten Buru, Maluku";"Kabupaten Buru, Maluku";"MALUKU";"";"Indonesia";"";"";"";"-3.1725709";"127.0252257";"https://maps.google.com/?cid=0x0:0xc14c031f253353de";""
"perumahan";"Komplek perumahan";"Rumah ongen haulussy";"R2GM+9M2, Jl. Propinsi, Jikumerasa, Kec. Lilialy, Kabupaten Buru, Maluku";"Kabupaten Buru, Maluku";"MALUKU";"";"Indonesia";"";"";"";"-3.174111";"127.0341546";"https://maps.google.com/?cid=0x0:0xea69a5ed32f38a61";""
"perumahan";"Pembangunan Perumahan";"Sawa";"VX3V+MW9, Sawa, Kec. Lilialy, Kabupaten Buru, Maluku";"Kabupaten Buru, Maluku";"MALUKU";"";"Indonesia";"";"";"";"-3.145999";"126.994588";"https://maps.google.com/?cid=0x0:0x25f6fa7260c72507";""
"perumahan";"Komplek perumahan";"Kimmy home";"Q492+5G2, Perumnas, Lala, Kec. Namlea, Kabupaten Buru, Maluku";"Kabupaten Buru, Maluku";"MALUKU";"";"Indonesia";"";"";"";"-3.2321232";"127.1012609";"https://maps.google.com/?cid=0x0:0x7f0e910c5298d367";""
"perumahan";"Komplek perumahan";"Jln Komplek Galela";"R33C+CP, Ubung, Kec. Lilialy, Kabupaten Buru, Maluku";"Kabupaten Buru, Maluku";"MALUKU";"";"Indonesia";"";"";"";"-3.1962781";"127.0719576";"https://maps.google.com/?cid=0x0:0x4bcae67bafc4d721";""
"perumahan";"Pembangunan Perumahan";"Rumah Ayyan";"Q3WH+G6, Ubung, Kec. Lilialy, Kabupaten Buru, Maluku";"Kabupaten Buru, Maluku";"MALUKU";"";"Indonesia";"";"";"";"-3.2036707";"127.0779834";"https://maps.google.com/?cid=0x0:0xcadaa0956a79b989";""
"perumahan";"Komplek perumahan";"Rumah Runyye's";"R2HG+PHJ, Jikumerasa, Kec. Lilialy, Kabupaten Buru, Maluku";"Kabupaten Buru, Maluku";"MALUKU";"";"Indonesia";"";"";"";"-3.1706665";"127.026394";"https://maps.google.com/?cid=0x0:0x44c28b948ce919b2";""
"perumahan";"Komplek perumahan";"Rumah zidan";"R2GG+7R9, Jikumerasa, Kec. Lilialy, Kabupaten Buru, Maluku";"Kabupaten Buru, Maluku";"MALUKU";"";"Indonesia";"";"";"";"-3.1741505";"127.0268501";"https://maps.google.com/?cid=0x0:0x24ed63c379f730cc";""
"perumahan";"Komplek perumahan";"Yadi Galela";"R359+27J, Jl. Propinsi, Ubung, Kec. Namlea, Kabupaten Buru, Maluku";"Kabupaten Buru, Maluku";"MALUKU";"";"Indonesia";"";"";"";"-3.1925043";"127.0681016";"https://maps.google.com/?cid=0x0:0x184bf1869a4c2f45";""
"perumahan";"Komplek perumahan";"Damar ricus";"R2GG+59R, Jikumerasa, Kec. Lilialy, Kabupaten Buru, Maluku";"Kabupaten Buru, Maluku";"MALUKU";"";"Indonesia";"";"";"";"-3.174501";"127.0258959";"https://maps.google.com/?cid=0x0:0x9b088c8cb5a8192a";""
"perumahan";"Komplek perumahan";"Rumah lutfy";"R2GJ+H2X, Jikumerasa, Kec. Namlea, Kabupaten Buru, Maluku";"Kabupaten Buru, Maluku";"MALUKU";"";"Indonesia";"";"";"";"-3.1735062";"127.0301145";"https://maps.google.com/?cid=0x0:0xe9292a0db38e75b";""
"perumahan";"Komplek perumahan";"Lorong kayeli";"Q38P+J9R, Namlea, Kec. Namlea, Kabupaten Buru, Maluku";"Kabupaten Buru, Maluku";"MALUKU";"";"Indonesia";"";"";"";"-3.233398";"127.085899";"https://maps.google.com/?cid=0x0:0xcd8b70135949f5e";""
"perumahan";"Pembangunan Perumahan";"Calo";"Q2RH+2P7, Ubung, Kec. Lilialy, Kabupaten Buru, Maluku";"Kabupaten Buru, Maluku";"MALUKU";"";"Indonesia";"";"";"";"-3.2099605";"127.0292986";"https://maps.google.com/?cid=0x0:0x26318b77893d447f";""
"perumahan";"Komplek perumahan";"Rumah shiren";"R2HG+F87, Jikumerasa, Kec. Lilialy, Kabupaten Buru, Maluku";"Kabupaten Buru, Maluku";"MALUKU";"";"Indonesia";"";"";"";"-3.1713411";"127.0258013";"https://maps.google.com/?cid=0x0:0xe0bc426012829ba8";""
"perumahan";"Komplek perumahan";"KING NOVAN";"R2MG+62, Jikumerasa, Kec. Lilialy, Kabupaten Buru, Maluku";"Kabupaten Buru, Maluku";"MALUKU";"";"Indonesia";"";"";"";"-3.166922";"127.025121";"https://maps.google.com/?cid=0x0:0xcf7d4289cb298ee9";""
"perumahan";"Komplek perumahan";"Pochinki";"Q3FM+3JQ, Karang Jaya, Kec. Namlea, Kabupaten Buru, Maluku";"Kabupaten Buru, Maluku";"MALUKU";"";"Indonesia";"";"";"";"-3.2272775";"127.0841105";"https://maps.google.com/?cid=0x0:0x31c2372af091f355";""
"perumahan";"Komplek perumahan";"LOROONG GALERY";"VX4Q+2WC, Sawa, Kec. Namlea, Kabupaten Buru, Maluku";"Kabupaten Buru, Maluku";"MALUKU";"";"Indonesia";"";"";"";"-3.1449719";"126.9896736";"https://maps.google.com/?cid=0x0:0x86c3a7c43237a88f";""
"building materials";"building materials";"Namlea";"Namlea, Kec. Namlea, Kabupaten Buru, Maluku";"Kabupaten Buru, Maluku";"MALUKU";"";"Indonesia";"";"";"";"-3.233398";"127.085899";"https://maps.google.com/?cid=0x0:0xe52ca57740e74df";""
"building materials";"Toko Bahan Bangunan";"Toko Duta Bangunan";"Jl. Danau Rana, Namlea, Kec. Namlea, Kabupaten Buru, Maluku";"Kabupaten Buru, Maluku";"MALUKU";"";"Indonesia";" 091322010";"";"";"-3.269268";"127.1034228";"https://maps.google.com/?cid=0x0:0x4d2e61629ea407b9";""
"building materials";"Toko";"TOKO FAJAR MAS";"P3CX+R5Q, Namlea, Kec. Namlea, Kabupaten Buru, Maluku";"Kabupaten Buru, Maluku";"MALUKU";"";"Indonesia";" 081316222080";"";"";"-3.2779017";"127.0979019";"https://maps.google.com/?cid=0x0:0xce7d9cbd242800a3";""
"building materials";"building materials";"Kec. Air Buaya";"Kabupaten Buru, Maluku";"Kabupaten Buru, Maluku";"MALUKU";"";"Indonesia";"";"";"";"-3.0855583";"126.4356478";"https://maps.google.com/?cid=0x0:0xfabb1de62994f5b6";""
"building materials";"Toko umum";"Toko Tiga Putra";"Waimangit, Kec. Air Buaya, Kabupaten Buru, Maluku";"Kabupaten Buru, Maluku";"MALUKU";"";"Indonesia";" 082238217090";"";"";"-3.0852552";"126.4506514";"https://maps.google.com/?cid=0x0:0x67e95f62768a257b";""
"building materials";"Toko Pakaian";"Toko NUR JAYA 2";"WGGP+FGG, Wamlana, Kec. Fena leisela, Kabupaten Buru, Maluku";"Kabupaten Buru, Maluku";"MALUKU";"";"Indonesia";"";"";"";"-3.0738216";"126.5361835";"https://maps.google.com/?cid=0x0:0xe7e254da140de542";""
"building materials";"Kontraktor Insulasi";"PT Tali Rejeki";"Jl. Taruma Jaya No.11, Setia Asih, Kec. Tarumajaya, Kota Bks, Jawa Barat 17215";"Setia Asih, Kec. Tarumajaya, Kota Bks";"MALUKU";"17215";"Indonesia";" 02122889956";"";"";"-6.1652412";"106.9900241";"https://maps.google.com/?cid=0x0:0x15898fadc067eab7";""
"building materials";"Toko Bahan Bangunan";"DACON Aluminium";"HWQV+4WM, Wanaherang, Kec. Gn. Putri, Kabupaten Bogor, Jawa Barat 16965";"Wanaherang, Kec. Gn. Putri, Kabupaten Bogor";"MALUKU";"16965";"Indonesia";" 085169996229";"";"";"-6.4121657";"106.9447848";"https://maps.google.com/?cid=0x0:0x40f22f1be43d7e0f";""
"building materials";"Pemasok Pipa";"Surya Utama Metalindo PT.";"Jl. Gunung Sahari Raya no.1 Mangga Dua Square lt 2 blok C 61, RT.11/RW.6, Ancol, Kec. Pademangan, Jkt Utara, Daerah Khusus Ibukota Jakarta 14420";"RT.11/RW.6, Ancol, Kec. Pademangan, Jkt Utara";"MALUKU";"14420";"Indonesia";" 082310999956";"";"";"-6.1387824";"106.8314329";"https://maps.google.com/?cid=0x0:0x213f9340f3f4865";""
"building materials";"Jasa Konstruksi dan Bangunan";"PT. Tirta Citra Bara Persada";"Ruko Prima Sunter Jl. Agung Timur 8, kav D5-6. Sunter Agung, 14350, Sunter, Tanjung Priok, RT.10/RW.11, Sunter Jaya, Kec. Tj. Priok, Jkt Utara, Daerah Khusus Ibukota Jakarta 14450";"kav D5-6. Sunter Agung, 14350, Sunter, Tanjung Priok, RT.10/RW.11, Sunter Jaya, Kec. Tj. Priok, Jkt Utara";"MALUKU";"14450";"Indonesia";" 02165307671";"";"";"-6.141923";"106.88518";"https://maps.google.com/?cid=0x0:0xed9a88afd6a7dd88";""
"building materials";"Insinyur Teknik Lingkungan";"PT Tetrasa Geosinindo";"ITC ROXY MAS, Business Center, Jl. Kh Hasyim Ashari No.18-20 Block C4, Cideng, Gambir, Central Jakarta City, Jakarta 10150";"Business Center, Jl. Kh Hasyim Ashari No.18-20 Block C4, Cideng, Gambir, Central Jakarta City";"MALUKU";"10150";"Indonesia";" 0216330150";"";"";"-6.1680063";"106.8051124";"https://maps.google.com/?cid=0x0:0x7c88f7e107a42fb8";""
"building materials";"Perusahaan Konstruksi";"PT Hutama Karya (Persero)";"HK Tower, MT Haryono St No.Kav. 8, RT.12/RW.11, Cawang, Jatinegara, East Jakarta City, Jakarta 13340";"MT Haryono St No.Kav. 8, RT.12/RW.11, Cawang, Jatinegara, East Jakarta City";"MALUKU";"13340";"Indonesia";" 0218193708";"";"";"-6.2454771";"106.8732563";"https://maps.google.com/?cid=0x0:0x3fbbfb6f9bcf4e43";""
"building materials";"building materials";"Kec. Waeapo";"Kabupaten Buru, Maluku";"Kabupaten Buru, Maluku";"MALUKU";"";"Indonesia";"";"";"";"-3.4137528";"126.925378";"https://maps.google.com/?cid=0x0:0xf83f0231b9a9b5fd";""
"building materials";"Toko Perlengkapan Rumah";"Sinar terang";"MX26+F79, Waekerta, Kec. Waeapo, Kabupaten Buru, Maluku";"Kabupaten Buru, Maluku";"MALUKU";"";"Indonesia";"";"";"";"-3.3488488";"126.9607264";"https://maps.google.com/?cid=0x0:0xc43c6df2f32c3cb5";""
"building materials";"Toko Bahan Bangunan";"Toko Besi dan Bangunan "Hidayah"";"HWQJ+WRV, Trans Buru Mako-Modaumohe, Waegeren, Kec. Waeapo, Kabupaten Buru, Maluku";"Kabupaten Buru, Maluku";"MALUKU";"";"Indonesia";" 082238719115";"";"";"-3.410132";"126.9320456";"https://maps.google.com/?cid=0x0:0x120a46875d558939";""
"building materials";"Toko Bahan Bangunan";"Toko GM Mandiri";"J22F+P58, Debowae, Kec. Waeapo, Kabupaten Buru, Maluku";"Kabupaten Buru, Maluku";"MALUKU";"";"Indonesia";" 081617551247";"";"";"-3.3982034";"127.0229567";"https://maps.google.com/?cid=0x0:0x6bc026e5e22c238d";""
"building materials";"Toko Bahan Bangunan";"TOKO ROFI";"JXFQ+F2M, Jln Gatot Subroto, komplek Pasar Mako, Namlea, Kec. Namlea, Kabupaten Buru, Maluku 97578";"Jln Gatot Subroto, komplek Pasar Mako, Namlea, Kec. Namlea, Kabupaten Buru";"MALUKU";"97578";"Indonesia";" 09132325065";"";"";"-3.3762805";"126.987547";"https://maps.google.com/?cid=0x0:0xb2084c57efa37e66";""
"building materials";"Toko Bahan Bangunan";"TOKO WARDACH";"MX25+V96, Waekerta, Kec. Waeapo, Kabupaten Buru, Maluku";"Kabupaten Buru, Maluku";"MALUKU";"";"Indonesia";" 081316222080";"";"";"-3.3478436";"126.9583886";"https://maps.google.com/?cid=0x0:0xf46923c55a27c005";""
"building materials";"Toko Bahan Bangunan";"TB. BAHAGIA";"HWQH+695, Waegeren, Kec. Waeapo, Kabupaten Buru, Maluku";"Kabupaten Buru, Maluku";"MALUKU";"";"Indonesia";"";"";"";"-3.4114934";"126.9291488";"https://maps.google.com/?cid=0x0:0xef99cce735992bc0";""
"building materials";"Komplek perumahan";"Somel";"VV8V+RQ, Lamahang, Waplau, Kabupaten Buru, Maluku";"Kabupaten Buru, Maluku";"MALUKU";"";"Indonesia";"";"";"";"-3.1329653";"126.8944841";"https://maps.google.com/?cid=0x0:0x165cbbf869d197bf";""
"building materials";"Komplek perumahan";"Toko Suka Maju";"VX3R+PCM, Sawa, Kec. Namlea, Kabupaten Buru, Maluku";"Kabupaten Buru, Maluku";"MALUKU";"";"Indonesia";"";"";"";"-3.1456502";"126.9910599";"https://maps.google.com/?cid=0x0:0x11f7366046c704ba";""
"building materials";"Kontraktor Insulasi";"PT Tali Rejeki";"Jl. Taruma Jaya No.11, Setia Asih, Kec. Tarumajaya, Kota Bks, Jawa Barat 17215";"Setia Asih, Kec. Tarumajaya, Kota Bks";"MALUKU";"17215";"Indonesia";" 02122889956";"";"";"-6.1652412";"106.9900241";"https://maps.google.com/?cid=0x0:0x15898fadc067eab7";""
"building materials";"Jasa Konstruksi dan Bangunan";"PT. Tirta Citra Bara Persada";"Ruko Prima Sunter Jl. Agung Timur 8, kav D5-6. Sunter Agung, 14350, Sunter, Tanjung Priok, RT.10/RW.11, Sunter Jaya, Kec. Tj. Priok, Jkt Utara, Daerah Khusus Ibukota Jakarta 14450";"kav D5-6. Sunter Agung, 14350, Sunter, Tanjung Priok, RT.10/RW.11, Sunter Jaya, Kec. Tj. Priok, Jkt Utara";"MALUKU";"14450";"Indonesia";" 02165307671";"";"";"-6.141923";"106.88518";"https://maps.google.com/?cid=0x0:0xed9a88afd6a7dd88";""
"building materials";"Perhimpunan Pengembang Perumahan";"PT Waenibe Wood Industries";"Desa Waekose Jl. Cendrawasih III 2 Rijali Sirimau Ambon 97123, Waspait, Teluk Kaiely, Buru Regency, Maluku";"Kabupaten Buru, Maluku";"MALUKU";"";"Indonesia";"";"";"";"-3.0673049";"126.5969659";"https://maps.google.com/?cid=0x0:0xeb3ec47e6411832d";""
"building materials";"Komplek perumahan";"Wapeula";"8WFQ+J7X, Ureng, Kec. Leihitu, Kabupaten Maluku Tengah, Maluku";"Kabupaten Maluku Tengah, Maluku";"MALUKU";"";"Indonesia";"";"";"";"-3.675502";"127.937846";"https://maps.google.com/?cid=0x0:0x6426d94160655707";""
"building materials";"building materials";"Kec. Bata Bual";"Kabupaten Buru, Maluku";"Kabupaten Buru, Maluku";"MALUKU";"";"Indonesia";"";"";"";"-3.5268077";"127.2494018";"https://maps.google.com/?cid=0x0:0xbd920a24abdb7eed";""
"building materials";"Jasa Konstruksi dan Bangunan";"Bata Unit R";"HXW6+88R, Waenetat, Kec. Waeapo, Kabupaten Buru, Maluku";"Kabupaten Buru, Maluku";"MALUKU";"";"Indonesia";"";"";"";"-3.4041266";"126.9607575";"https://maps.google.com/?cid=0x0:0x399ab8531fbf4de9";""
"building materials";"Toko Perlengkapan Rumah";"toko bata bual";"P3CX+93V, Jl. Flamboyan, Namlea, Kec. Namlea, Kabupaten Buru, Maluku";"Kabupaten Buru, Maluku";"MALUKU";"";"Indonesia";" 081385661699";"";"";"-3.2790186";"127.0976607";"https://maps.google.com/?cid=0x0:0x7dd073170585614c";""
"building materials";"Pemasok Pipa";"Surya Utama Metalindo PT.";"Jl. Gunung Sahari Raya no.1 Mangga Dua Square lt 2 blok C 61, RT.11/RW.6, Ancol, Kec. Pademangan, Jkt Utara, Daerah Khusus Ibukota Jakarta 14420";"RT.11/RW.6, Ancol, Kec. Pademangan, Jkt Utara";"MALUKU";"14420";"Indonesia";" 082310999956";"";"";"-6.1387824";"106.8314329";"https://maps.google.com/?cid=0x0:0x213f9340f3f4865";""
"building materials";"building materials";"Maluku";"";"Maluku";"MALUKU";"";"Indonesia";"";"";"";"-3.2384616";"130.1452734";"https://maps.google.com/?cid=0x0:0x5e30e8db04649a51";""
"building materials";"Toko Bahan Bangunan";"Toko Duta Bangunan";"Jl. Danau Rana, Namlea, Kec. Namlea, Kabupaten Buru, Maluku";"Kabupaten Buru, Maluku";"MALUKU";"";"Indonesia";" 091322010";"";"";"-3.269268";"127.1034228";"https://maps.google.com/?cid=0x0:0x4d2e61629ea407b9";""
"building materials";"Toko";"TOKO FAJAR MAS";"P3CX+R5Q, Namlea, Kec. Namlea, Kabupaten Buru, Maluku";"Kabupaten Buru, Maluku";"MALUKU";"";"Indonesia";" 081316222080";"";"";"-3.2779017";"127.0979019";"https://maps.google.com/?cid=0x0:0xce7d9cbd242800a3";""
"building materials";"Pemasok Pipa";"Surya Utama Metalindo PT.";"Jl. Gunung Sahari Raya no.1 Mangga Dua Square lt 2 blok C 61, RT.11/RW.6, Ancol, Kec. Pademangan, Jkt Utara, Daerah Khusus Ibukota Jakarta 14420";"RT.11/RW.6, Ancol, Kec. Pademangan, Jkt Utara";"MALUKU";"14420";"Indonesia";" 082310999956";"";"";"-6.1387824";"106.8314329";"https://maps.google.com/?cid=0x0:0x213f9340f3f4865";""
"building materials";"Badan sertifikasi";"PT. Heritage Pijar Manajemen";"Jl. Raya Muchtar No.11, RW.2, Sawangan Baru, Kec. Sawangan, Kota Depok, Jawa Barat 16511";"RW.2, Sawangan Baru, Kec. Sawangan, Kota Depok";"MALUKU";"16511";"Indonesia";" 081110019915";"";"";"-6.4060202";"106.7609642";"https://maps.google.com/?cid=0x0:0x27a31073fe6ecf96";""
"building materials";"building materials";"Kec. Waelata";"Kabupaten Buru, Maluku";"Kabupaten Buru, Maluku";"MALUKU";"";"Indonesia";"";"";"";"-3.4811436";"126.9241917";"https://maps.google.com/?cid=0x0:0xd5c06f16d8212c44";""
"building materials";"Toko Bahan Bangunan";"Toko GM Mandiri";"J22F+P58, Debowae, Kec. Waeapo, Kabupaten Buru, Maluku";"Kabupaten Buru, Maluku";"MALUKU";"";"Indonesia";" 081617551247";"";"";"-3.3982034";"127.0229567";"https://maps.google.com/?cid=0x0:0x6bc026e5e22c238d";""
"building materials";"Toko Bahan Bangunan";"TOKO BANGUNAN INDAH";"H2XC+MG8, Debowae, Kec. Waeapo, Kabupaten Buru, Maluku";"Kabupaten Buru, Maluku";"MALUKU";"";"Indonesia";" 082378990826";"";"";"-3.4009468";"127.0213428";"https://maps.google.com/?cid=0x0:0xf490914073a04836";""
"building materials";"Toko Bahan Bangunan";"Toko Besi dan Bangunan "Hidayah"";"HWQJ+WRV, Trans Buru Mako-Modaumohe, Waegeren, Kec. Waeapo, Kabupaten Buru, Maluku";"Kabupaten Buru, Maluku";"MALUKU";"";"Indonesia";" 082238719115";"";"";"-3.410132";"126.9320456";"https://maps.google.com/?cid=0x0:0x120a46875d558939";""
"building materials";"Toko Perlengkapan Rumah";"Sinar terang";"MX26+F79, Waekerta, Kec. Waeapo, Kabupaten Buru, Maluku";"Kabupaten Buru, Maluku";"MALUKU";"";"Indonesia";"";"";"";"-3.3488488";"126.9607264";"https://maps.google.com/?cid=0x0:0xc43c6df2f32c3cb5";""
"building materials";"Peternakan Sapi";"Bangunan upo";"HX95+XQ9 Imron mustafa, Waeleman, Kec. Waelata, Kabupaten Buru, Maluku";"Kabupaten Buru, Maluku";"MALUKU";"";"Indonesia";"";"";"";"-3.4300922";"126.9594804";"https://maps.google.com/?cid=0x0:0xf28553d23f6179c0";""
"building materials";"Toko Bahan Bangunan";"TB. BAHAGIA";"HWQH+695, Waegeren, Kec. Waeapo, Kabupaten Buru, Maluku";"Kabupaten Buru, Maluku";"MALUKU";"";"Indonesia";"";"";"";"-3.4114934";"126.9291488";"https://maps.google.com/?cid=0x0:0xef99cce735992bc0";""
"building materials";"Toko Bahan Bangunan";"TOKO WARDACH";"MX25+V96, Waekerta, Kec. Waeapo, Kabupaten Buru, Maluku";"Kabupaten Buru, Maluku";"MALUKU";"";"Indonesia";" 081316222080";"";"";"-3.3478436";"126.9583886";"https://maps.google.com/?cid=0x0:0xf46923c55a27c005";""
"building materials";"building materials";"PONDOK BAKTI";"HWPG+G4Q, Jalan Gatot Subroto Lorong Pertamina, RT.6/RW.2, Wanareja, Kec. Waeapo, Kabupaten Buru, Maluku";"Kabupaten Buru, Maluku";"MALUKU";"";"Indonesia";" 082132814320";"";"";"-3.4136719";"126.9253496";"https://maps.google.com/?cid=0x0:0x8c66efd855173199";""
"building materials";"building materials";"TB Fajar Sahabat";"H284+HC, Parbulu, Kec. Waelata, Kabupaten Buru, Maluku";"Kabupaten Buru, Maluku";"MALUKU";"";"Indonesia";" 081343456071";"";"";"-3.433533";"127.0060254";"https://maps.google.com/?cid=0x0:0xb64dd70adfe211eb";""
"building materials";"building materials";"Bos galak";"H2C6+X32, Parbulu, Kec. Waelata, Kabupaten Buru, Maluku";"Kabupaten Buru, Maluku";"MALUKU";"";"Indonesia";"";"";"";"-3.4276025";"127.0101291";"https://maps.google.com/?cid=0x0:0x1475fcb8719a9f6f";""
"building materials";"building materials";"Jaya best enterprise";"HW5X+V9Q, Waelo, Kec. Waeapo, Kabupaten Buru, Maluku";"Kabupaten Buru, Maluku";"MALUKU";"";"Indonesia";"";"";"";"-3.440289";"126.948497";"https://maps.google.com/?cid=0x0:0xa94c4e2116ae2c2e";""
"building materials";"Kontraktor Insulasi";"PT Tali Rejeki";"Jl. Taruma Jaya No.11, Setia Asih, Kec. Tarumajaya, Kota Bks, Jawa Barat 17215";"Setia Asih, Kec. Tarumajaya, Kota Bks";"MALUKU";"17215";"Indonesia";" 02122889956";"";"";"-6.1652412";"106.9900241";"https://maps.google.com/?cid=0x0:0x15898fadc067eab7";""
"building materials";"Pemasok Pipa";"Surya Utama Metalindo PT.";"Jl. Gunung Sahari Raya no.1 Mangga Dua Square lt 2 blok C 61, RT.11/RW.6, Ancol, Kec. Pademangan, Jkt Utara, Daerah Khusus Ibukota Jakarta 14420";"RT.11/RW.6, Ancol, Kec. Pademangan, Jkt Utara";"MALUKU";"14420";"Indonesia";" 082310999956";"";"";"-6.1387824";"106.8314329";"https://maps.google.com/?cid=0x0:0x213f9340f3f4865";""
"building materials";"Jasa Konstruksi dan Bangunan";"PT. Tirta Citra Bara Persada";"Ruko Prima Sunter Jl. Agung Timur 8, kav D5-6. Sunter Agung, 14350, Sunter, Tanjung Priok, RT.10/RW.11, Sunter Jaya, Kec. Tj. Priok, Jkt Utara, Daerah Khusus Ibukota Jakarta 14450";"kav D5-6. Sunter Agung, 14350, Sunter, Tanjung Priok, RT.10/RW.11, Sunter Jaya, Kec. Tj. Priok, Jkt Utara";"MALUKU";"14450";"Indonesia";" 02165307671";"";"";"-6.141923";"106.88518";"https://maps.google.com/?cid=0x0:0xed9a88afd6a7dd88";""
"building materials";"building materials";"Maluku";"";"Maluku";"MALUKU";"";"Indonesia";"";"";"";"-3.2384616";"130.1452734";"https://maps.google.com/?cid=0x0:0x5e30e8db04649a51";""
"building materials";"Toko Bahan Bangunan";"Toko Duta Bangunan";"Jl. Danau Rana, Namlea, Kec. Namlea, Kabupaten Buru, Maluku";"Kabupaten Buru, Maluku";"MALUKU";"";"Indonesia";" 091322010";"";"";"-3.269268";"127.1034228";"https://maps.google.com/?cid=0x0:0x4d2e61629ea407b9";""
"building materials";"Toko Pakaian";"Toko NUR JAYA 2";"WGGP+FGG, Wamlana, Kec. Fena leisela, Kabupaten Buru, Maluku";"Kabupaten Buru, Maluku";"MALUKU";"";"Indonesia";"";"";"";"-3.0738216";"126.5361835";"https://maps.google.com/?cid=0x0:0xe7e254da140de542";""
"building materials";"Kontraktor Insulasi";"PT Tali Rejeki";"Jl. Taruma Jaya No.11, Setia Asih, Kec. Tarumajaya, Kota Bks, Jawa Barat 17215";"Setia Asih, Kec. Tarumajaya, Kota Bks";"MALUKU";"17215";"Indonesia";" 02122889956";"";"";"-6.1652412";"106.9900241";"https://maps.google.com/?cid=0x0:0x15898fadc067eab7";""
"building materials";"Toko Bahan Bangunan";"DACON Aluminium";"HWQV+4WM, Wanaherang, Kec. Gn. Putri, Kabupaten Bogor, Jawa Barat 16965";"Wanaherang, Kec. Gn. Putri, Kabupaten Bogor";"MALUKU";"16965";"Indonesia";" 085169996229";"";"";"-6.4121657";"106.9447848";"https://maps.google.com/?cid=0x0:0x40f22f1be43d7e0f";""
"building materials";"Pemasok Pipa";"Surya Utama Metalindo PT.";"Jl. Gunung Sahari Raya no.1 Mangga Dua Square lt 2 blok C 61, RT.11/RW.6, Ancol, Kec. Pademangan, Jkt Utara, Daerah Khusus Ibukota Jakarta 14420";"RT.11/RW.6, Ancol, Kec. Pademangan, Jkt Utara";"MALUKU";"14420";"Indonesia";" 082310999956";"";"";"-6.1387824";"106.8314329";"https://maps.google.com/?cid=0x0:0x213f9340f3f4865";""
"building materials";"Jasa Konstruksi dan Bangunan";"PT. Tirta Citra Bara Persada";"Ruko Prima Sunter Jl. Agung Timur 8, kav D5-6. Sunter Agung, 14350, Sunter, Tanjung Priok, RT.10/RW.11, Sunter Jaya, Kec. Tj. Priok, Jkt Utara, Daerah Khusus Ibukota Jakarta 14450";"kav D5-6. Sunter Agung, 14350, Sunter, Tanjung Priok, RT.10/RW.11, Sunter Jaya, Kec. Tj. Priok, Jkt Utara";"MALUKU";"14450";"Indonesia";" 02165307671";"";"";"-6.141923";"106.88518";"https://maps.google.com/?cid=0x0:0xed9a88afd6a7dd88";""
"building materials";"Toko Bahan Bangunan";"Inti Bangunan";"5, Jl. Sunter Permai Raya No.12B, RT.5/RW.18, Sunter Agung, Kec. Tj. Priok, Jkt Utara, Daerah Khusus Ibukota Jakarta 14350";"Jl. Sunter Permai Raya No.12B, RT.5/RW.18, Sunter Agung, Kec. Tj. Priok, Jkt Utara";"MALUKU";"14350";"Indonesia";" 087873253137";"";"";"-6.1335615";"106.8649626";"https://maps.google.com/?cid=0x0:0x387c58d9572e0964";""
"building materials";"building materials";"Tlk. Kaiely";"Kabupaten Buru, Maluku";"Kabupaten Buru, Maluku";"MALUKU";"";"Indonesia";"";"";"";"-3.3033929";"126.5661908";"https://maps.google.com/?cid=0x0:0x12b5aeb27efc20e0";""
"building materials";"Toko Bahan Bangunan";"TOKO ROFI";"JXFQ+F2M, Jln Gatot Subroto, komplek Pasar Mako, Namlea, Kec. Namlea, Kabupaten Buru, Maluku 97578";"Jln Gatot Subroto, komplek Pasar Mako, Namlea, Kec. Namlea, Kabupaten Buru";"MALUKU";"97578";"Indonesia";" 09132325065";"";"";"-3.3762805";"126.987547";"https://maps.google.com/?cid=0x0:0xb2084c57efa37e66";""
"building materials";"Toko Bahan Bangunan";"Toko GM Mandiri";"J22F+P58, Debowae, Kec. Waeapo, Kabupaten Buru, Maluku";"Kabupaten Buru, Maluku";"MALUKU";"";"Indonesia";" 081617551247";"";"";"-3.3982034";"127.0229567";"https://maps.google.com/?cid=0x0:0x6bc026e5e22c238d";""
"building materials";"Toko Bahan Bangunan";"TOKO BANGUNAN INDAH";"H2XC+MG8, Debowae, Kec. Waeapo, Kabupaten Buru, Maluku";"Kabupaten Buru, Maluku";"MALUKU";"";"Indonesia";" 082378990826";"";"";"-3.4009468";"127.0213428";"https://maps.google.com/?cid=0x0:0xf490914073a04836";""
"building materials";"Toko Bahan Bangunan";"Toko Duta Bangunan";"Jl. Danau Rana, Namlea, Kec. Namlea, Kabupaten Buru, Maluku";"Kabupaten Buru, Maluku";"MALUKU";"";"Indonesia";" 091322010";"";"";"-3.269268";"127.1034228";"https://maps.google.com/?cid=0x0:0x4d2e61629ea407b9";""
"building materials";"Toko Bahan Bangunan";"TOKO WARDACH";"MX25+V96, Waekerta, Kec. Waeapo, Kabupaten Buru, Maluku";"Kabupaten Buru, Maluku";"MALUKU";"";"Indonesia";" 081316222080";"";"";"-3.3478436";"126.9583886";"https://maps.google.com/?cid=0x0:0xf46923c55a27c005";""
"building materials";"Toko Pakaian";"Toko NUR JAYA 2";"WGGP+FGG, Wamlana, Kec. Fena leisela, Kabupaten Buru, Maluku";"Kabupaten Buru, Maluku";"MALUKU";"";"Indonesia";"";"";"";"-3.0738216";"126.5361835";"https://maps.google.com/?cid=0x0:0xe7e254da140de542";""
"building materials";"Toko umum";"Toko Tiga Putra";"Waimangit, Kec. Air Buaya, Kabupaten Buru, Maluku";"Kabupaten Buru, Maluku";"MALUKU";"";"Indonesia";" 082238217090";"";"";"-3.0852552";"126.4506514";"https://maps.google.com/?cid=0x0:0x67e95f62768a257b";""
"building materials";"Toko Bahan Bangunan";"Toko Besi dan Bangunan "Hidayah"";"HWQJ+WRV, Trans Buru Mako-Modaumohe, Waegeren, Kec. Waeapo, Kabupaten Buru, Maluku";"Kabupaten Buru, Maluku";"MALUKU";"";"Indonesia";" 082238719115";"";"";"-3.410132";"126.9320456";"https://maps.google.com/?cid=0x0:0x120a46875d558939";""
"building materials";"Toko";"TOKO FAJAR MAS";"P3CX+R5Q, Namlea, Kec. Namlea, Kabupaten Buru, Maluku";"Kabupaten Buru, Maluku";"MALUKU";"";"Indonesia";" 081316222080";"";"";"-3.2779017";"127.0979019";"https://maps.google.com/?cid=0x0:0xce7d9cbd242800a3";""
"building materials";"Toko Pakaian";"Toko Nur Jaya";"WGGM+RQF, Wamlana, Kec. Air Buaya, Kabupaten Buru, Maluku";"Kabupaten Buru, Maluku";"MALUKU";"";"Indonesia";" 0813540408061";"";"";"-3.0729264";"126.5344307";"https://maps.google.com/?cid=0x0:0x6ecc7d9ee7d20b7f";""
"building materials";"Komplek perumahan";"Somel";"VV8V+RQ, Lamahang, Waplau, Kabupaten Buru, Maluku";"Kabupaten Buru, Maluku";"MALUKU";"";"Indonesia";"";"";"";"-3.1329653";"126.8944841";"https://maps.google.com/?cid=0x0:0x165cbbf869d197bf";""
"building materials";"Toko Bahan Bangunan";"TB. BAHAGIA";"HWQH+695, Waegeren, Kec. Waeapo, Kabupaten Buru, Maluku";"Kabupaten Buru, Maluku";"MALUKU";"";"Indonesia";"";"";"";"-3.4114934";"126.9291488";"https://maps.google.com/?cid=0x0:0xef99cce735992bc0";""
"building materials";"Toko Perlengkapan Rumah";"MR.DIY";"Jl. Kampus Iqra Buru, Namlea, Kec. Namlea, Kabupaten Buru, Maluku 97571";"Namlea, Kec. Namlea, Kabupaten Buru";"MALUKU";"97571";"Indonesia";"";"";"";"-3.2733058";"127.0992124";"https://maps.google.com/?cid=0x0:0x69153d22b15aaf2";""
"building materials";"Perkebunan Pohon";"LADANG PERMAI";"Namlea, Kec. Namlea, Kabupaten Buru, Maluku";"Kabupaten Buru, Maluku";"MALUKU";"";"Indonesia";" 082317411586";"";"";"-3.2522213";"127.0889445";"https://maps.google.com/?cid=0x0:0xc17682f2e5628213";""
"building materials";"Toko";"Toko limbangan";"Unnamed Road, Namlea, Kec. Namlea, Kabupaten Buru, Maluku";"Kabupaten Buru, Maluku";"MALUKU";"";"Indonesia";" 081385661699";"";"";"-3.2609073";"127.0901353";"https://maps.google.com/?cid=0x0:0x29a54d305b76ea67";""
"building materials";"building materials";"PONDOK BAKTI";"HWPG+G4Q, Jalan Gatot Subroto Lorong Pertamina, RT.6/RW.2, Wanareja, Kec. Waeapo, Kabupaten Buru, Maluku";"Kabupaten Buru, Maluku";"MALUKU";"";"Indonesia";" 082132814320";"";"";"-3.4136719";"126.9253496";"https://maps.google.com/?cid=0x0:0x8c66efd855173199";""
"building materials";"building materials";"Kec. Lilialy";"Kabupaten Buru, Maluku";"Kabupaten Buru, Maluku";"MALUKU";"";"Indonesia";"";"";"";"-3.1452717";"126.9901544";"https://maps.google.com/?cid=0x0:0xa4098f1c5783ea97";""
"building materials";"Komplek perumahan";"Somel";"VV8V+RQ, Lamahang, Waplau, Kabupaten Buru, Maluku";"Kabupaten Buru, Maluku";"MALUKU";"";"Indonesia";"";"";"";"-3.1329653";"126.8944841";"https://maps.google.com/?cid=0x0:0x165cbbf869d197bf";""
"building materials";"Toko Bahan Bangunan";"Toko Duta Bangunan";"Jl. Danau Rana, Namlea, Kec. Namlea, Kabupaten Buru, Maluku";"Kabupaten Buru, Maluku";"MALUKU";"";"Indonesia";" 091322010";"";"";"-3.269268";"127.1034228";"https://maps.google.com/?cid=0x0:0x4d2e61629ea407b9";""
"building materials";"Kontraktor Insulasi";"PT Tali Rejeki";"Jl. Taruma Jaya No.11, Setia Asih, Kec. Tarumajaya, Kota Bks, Jawa Barat 17215";"Setia Asih, Kec. Tarumajaya, Kota Bks";"MALUKU";"17215";"Indonesia";" 02122889956";"";"";"-6.1652412";"106.9900241";"https://maps.google.com/?cid=0x0:0x15898fadc067eab7";""
"building materials";"Pemasok Pipa";"Surya Utama Metalindo PT.";"Jl. Gunung Sahari Raya no.1 Mangga Dua Square lt 2 blok C 61, RT.11/RW.6, Ancol, Kec. Pademangan, Jkt Utara, Daerah Khusus Ibukota Jakarta 14420";"RT.11/RW.6, Ancol, Kec. Pademangan, Jkt Utara";"MALUKU";"14420";"Indonesia";" 082310999956";"";"";"-6.1387824";"106.8314329";"https://maps.google.com/?cid=0x0:0x213f9340f3f4865";""
"toko bangunan";"toko bangunan";"Namlea";"Namlea, Kec. Namlea, Kabupaten Buru, Maluku";"Kabupaten Buru, Maluku";"MALUKU";"";"Indonesia";"";"";"";"-3.233398";"127.085899";"https://maps.google.com/?cid=0x0:0xe52ca57740e74df";""
"toko bangunan";"Toko Bahan Bangunan";"Toko Duta Bangunan";"Jl. Danau Rana, Namlea, Kec. Namlea, Kabupaten Buru, Maluku";"Kabupaten Buru, Maluku";"MALUKU";"";"Indonesia";" 091322010";"";"";"-3.269268";"127.1034228";"https://maps.google.com/?cid=0x0:0x4d2e61629ea407b9";""
"toko bangunan";"Toko";"TOKO FAJAR MAS";"P3CX+R5Q, Namlea, Kec. Namlea, Kabupaten Buru, Maluku";"Kabupaten Buru, Maluku";"MALUKU";"";"Indonesia";" 081316222080";"";"";"-3.2779017";"127.0979019";"https://maps.google.com/?cid=0x0:0xce7d9cbd242800a3";""
"toko bangunan";"toko bangunan";"Kec. Air Buaya";"Kabupaten Buru, Maluku";"Kabupaten Buru, Maluku";"MALUKU";"";"Indonesia";"";"";"";"-3.0855583";"126.4356478";"https://maps.google.com/?cid=0x0:0xfabb1de62994f5b6";""
"toko bangunan";"Toko umum";"Toko Tiga Putra";"Waimangit, Kec. Air Buaya, Kabupaten Buru, Maluku";"Kabupaten Buru, Maluku";"MALUKU";"";"Indonesia";" 082238217090";"";"";"-3.0852552";"126.4506514";"https://maps.google.com/?cid=0x0:0x67e95f62768a257b";""
"toko bangunan";"Toko Pakaian";"Toko NUR JAYA 2";"WGGP+FGG, Wamlana, Kec. Fena leisela, Kabupaten Buru, Maluku";"Kabupaten Buru, Maluku";"MALUKU";"";"Indonesia";"";"";"";"-3.0738216";"126.5361835";"https://maps.google.com/?cid=0x0:0xe7e254da140de542";""
"toko bangunan";"Toko Pakaian";"Toko Nur Jaya";"WGGM+RQF, Wamlana, Kec. Air Buaya, Kabupaten Buru, Maluku";"Kabupaten Buru, Maluku";"MALUKU";"";"Indonesia";" 0813540408061";"";"";"-3.0729264";"126.5344307";"https://maps.google.com/?cid=0x0:0x6ecc7d9ee7d20b7f";""
"toko bangunan";"toko bangunan";"Kec. Waeapo";"Kabupaten Buru, Maluku";"Kabupaten Buru, Maluku";"MALUKU";"";"Indonesia";"";"";"";"-3.4137528";"126.925378";"https://maps.google.com/?cid=0x0:0xf83f0231b9a9b5fd";""
"toko bangunan";"Toko Bahan Bangunan";"Toko Besi dan Bangunan "Hidayah"";"HWQJ+WRV, Trans Buru Mako-Modaumohe, Waegeren, Kec. Waeapo, Kabupaten Buru, Maluku";"Kabupaten Buru, Maluku";"MALUKU";"";"Indonesia";" 082238719115";"";"";"-3.410132";"126.9320456";"https://maps.google.com/?cid=0x0:0x120a46875d558939";""
"toko bangunan";"Toko Bahan Bangunan";"TOKO BANGUNAN INDAH";"H2XC+MG8, Debowae, Kec. Waeapo, Kabupaten Buru, Maluku";"Kabupaten Buru, Maluku";"MALUKU";"";"Indonesia";" 082378990826";"";"";"-3.4009468";"127.0213428";"https://maps.google.com/?cid=0x0:0xf490914073a04836";""
"toko bangunan";"Toko Bahan Bangunan";"Toko GM Mandiri";"J22F+P58, Debowae, Kec. Waeapo, Kabupaten Buru, Maluku";"Kabupaten Buru, Maluku";"MALUKU";"";"Indonesia";" 081617551247";"";"";"-3.3982034";"127.0229567";"https://maps.google.com/?cid=0x0:0x6bc026e5e22c238d";""
"toko bangunan";"Toko Bahan Bangunan";"TOKO WARDACH";"MX25+V96, Waekerta, Kec. Waeapo, Kabupaten Buru, Maluku";"Kabupaten Buru, Maluku";"MALUKU";"";"Indonesia";" 081316222080";"";"";"-3.3478436";"126.9583886";"https://maps.google.com/?cid=0x0:0xf46923c55a27c005";""
"toko bangunan";"Toko Bahan Bangunan";"TOKO ROFI";"JXFQ+F2M, Jln Gatot Subroto, komplek Pasar Mako, Namlea, Kec. Namlea, Kabupaten Buru, Maluku 97578";"Jln Gatot Subroto, komplek Pasar Mako, Namlea, Kec. Namlea, Kabupaten Buru";"MALUKU";"97578";"Indonesia";" 09132325065";"";"";"-3.3762805";"126.987547";"https://maps.google.com/?cid=0x0:0xb2084c57efa37e66";""
"toko bangunan";"Toko Bahan Bangunan";"TB. BAHAGIA";"HWQH+695, Waegeren, Kec. Waeapo, Kabupaten Buru, Maluku";"Kabupaten Buru, Maluku";"MALUKU";"";"Indonesia";"";"";"";"-3.4114934";"126.9291488";"https://maps.google.com/?cid=0x0:0xef99cce735992bc0";""
"toko bangunan";"Toko Bahan Bangunan";"Toko Sinar Terang";"HWQJ+P94, Unnamed Road, Waegeren, Kec. Waeapo, Kabupaten Buru, Maluku";"Kabupaten Buru, Maluku";"MALUKU";"";"Indonesia";"";"";"";"-3.4107258";"126.9309381";"https://maps.google.com/?cid=0x0:0x313f03e1f07b8a8b";""
"toko bangunan";"Toko Bahan Bangunan";"Toko Duta Bangunan";"Jl. Danau Rana, Namlea, Kec. Namlea, Kabupaten Buru, Maluku";"Kabupaten Buru, Maluku";"MALUKU";"";"Indonesia";" 091322010";"";"";"-3.269268";"127.1034228";"https://maps.google.com/?cid=0x0:0x4d2e61629ea407b9";""
"toko bangunan";"Jasa Konstruksi dan Bangunan";"Toko DANUR";"Pasar unit 6, Waegeren, Kec. Waeapo, Kabupaten Buru, Maluku";"Kabupaten Buru, Maluku";"MALUKU";"";"Indonesia";"";"";"";"-3.4147201";"126.9251747";"https://maps.google.com/?cid=0x0:0xf1c9d2e8d1cdfca3";""
"toko bangunan";"Toko Swalayan";"Toko bude Sri";"GW8F+937, Waetina, Pulau, Kabupaten Buru, Maluku";"Kabupaten Buru, Maluku";"MALUKU";"";"Indonesia";"";"";"";"-3.4840996";"126.9226593";"https://maps.google.com/?cid=0x0:0xadc6113b0c4b5117";""
"toko bangunan";"Toko Perlengkapan Rumah";"Toko UD.Bersatu";"P3HX+J42, Namlea, Kec. Namlea, Kabupaten Buru, Maluku";"Kabupaten Buru, Maluku";"MALUKU";"";"Indonesia";" 081385661699";"";"";"-3.2709938";"127.0977623";"https://maps.google.com/?cid=0x0:0x79155edd2e9f51c6";""
"toko bangunan";"Komplek perumahan";"Wapeula";"8WFQ+J7X, Ureng, Kec. Leihitu, Kabupaten Maluku Tengah, Maluku";"Kabupaten Maluku Tengah, Maluku";"MALUKU";"";"Indonesia";"";"";"";"-3.675502";"127.937846";"https://maps.google.com/?cid=0x0:0x6426d94160655707";""
"toko bangunan";"toko bangunan";"PONDOK BAKTI";"HWPG+G4Q, Jalan Gatot Subroto Lorong Pertamina, RT.6/RW.2, Wanareja, Kec. Waeapo, Kabupaten Buru, Maluku";"Kabupaten Buru, Maluku";"MALUKU";"";"Indonesia";" 082132814320";"";"";"-3.4136719";"126.9253496";"https://maps.google.com/?cid=0x0:0x8c66efd855173199";""
"toko bangunan";"Toko";"Toko limbangan";"Unnamed Road, Namlea, Kec. Namlea, Kabupaten Buru, Maluku";"Kabupaten Buru, Maluku";"MALUKU";"";"Indonesia";" 081385661699";"";"";"-3.2609073";"127.0901353";"https://maps.google.com/?cid=0x0:0x29a54d305b76ea67";""
"toko bangunan";"Komplek perumahan";"Somel";"VV8V+RQ, Lamahang, Waplau, Kabupaten Buru, Maluku";"Kabupaten Buru, Maluku";"MALUKU";"";"Indonesia";"";"";"";"-3.1329653";"126.8944841";"https://maps.google.com/?cid=0x0:0x165cbbf869d197bf";""
"toko bangunan";"Komplek perumahan";"Somel";"VV8V+RQ, Lamahang, Waplau, Kabupaten Buru, Maluku";"Kabupaten Buru, Maluku";"MALUKU";"";"Indonesia";"";"";"";"-3.1329653";"126.8944841";"https://maps.google.com/?cid=0x0:0x165cbbf869d197bf";""
"toko bangunan";"Komplek perumahan";"Toko Suka Maju";"VX3R+PCM, Sawa, Kec. Namlea, Kabupaten Buru, Maluku";"Kabupaten Buru, Maluku";"MALUKU";"";"Indonesia";"";"";"";"-3.1456502";"126.9910599";"https://maps.google.com/?cid=0x0:0x11f7366046c704ba";""
"toko bangunan";"toko bangunan";"Kec. Bata Bual";"Kabupaten Buru, Maluku";"Kabupaten Buru, Maluku";"MALUKU";"";"Indonesia";"";"";"";"-3.5268077";"127.2494018";"https://maps.google.com/?cid=0x0:0xbd920a24abdb7eed";""
"toko bangunan";"Toko Bahan Bangunan";"Toko Duta Bangunan";"Jl. Danau Rana, Namlea, Kec. Namlea, Kabupaten Buru, Maluku";"Kabupaten Buru, Maluku";"MALUKU";"";"Indonesia";" 091322010";"";"";"-3.269268";"127.1034228";"https://maps.google.com/?cid=0x0:0x4d2e61629ea407b9";""
"toko bangunan";"Toko Perlengkapan Rumah";"toko bata bual";"P3CX+93V, Jl. Flamboyan, Namlea, Kec. Namlea, Kabupaten Buru, Maluku";"Kabupaten Buru, Maluku";"MALUKU";"";"Indonesia";" 081385661699";"";"";"-3.2790186";"127.0976607";"https://maps.google.com/?cid=0x0:0x7dd073170585614c";""
"toko bangunan";"Toko Bahan Bangunan";"Toko bangunan Dinda Barokah";"P85C+XWC, Waihatu, Kec. Kairatu Bar., Kabupaten Seram Bagian Barat, Maluku";"Kabupaten Seram Bagian Barat, Maluku";"MALUKU";"";"Indonesia";" 081356194953";"";"";"-3.2900692";"128.3222692";"https://maps.google.com/?cid=0x0:0x634ca5cb31d21d51";""
"toko bangunan";"Toko Bahan Bangunan";"TOKO ELDY BANGUNAN";"Bobong, Kec. Taliabu Bar., Pulau Taliabu, Maluku Utara";"Pulau Taliabu, Maluku Utara";"MALUKU";"";"Indonesia";" 085342270869";"";"";"-1.942625";"124.381349";"https://maps.google.com/?cid=0x0:0xaf82dabb011de311";""
"toko bangunan";"Toko Perlengkapan Rumah";"Toko Duta Bangunan";"Jl. A.R Unawekla, Bula, Kec. Bula, Kabupaten Seram Bagian Timur, Maluku";"Kabupaten Seram Bagian Timur, Maluku";"MALUKU";"";"Indonesia";" 081272987200";"";"";"-3.1021843";"130.4885667";"https://maps.google.com/?cid=0x0:0x799165d536f28f53";""
"toko bangunan";"Toko Bahan Bangunan";"Toko bangunan Al Mubarak";"279W+294, Pasar, Olilit, Tanimbar Sel., Kab. Kepulauan Tanimbar, Maluku";"Kab. Kepulauan Tanimbar, Maluku";"MALUKU";"";"Indonesia";" 08123746174";"";"";"-7.9824933";"131.2959625";"https://maps.google.com/?cid=0x0:0xd6b97f6e48819bac";""
"toko bangunan";"Toko Bahan Bangunan";"Toko Bata/batako";"J9QC+8G8, Kairatu, Kec. Kairatu, Kabupaten Seram Bagian Barat, Maluku";"Kabupaten Seram Bagian Barat, Maluku";"MALUKU";"";"Indonesia";" 081316222080";"";"";"-3.3617156";"128.3713198";"https://maps.google.com/?cid=0x0:0x481586af2d254d67";""
"toko bangunan";"Toko";"TOKO FAJAR MAS";"P3CX+R5Q, Namlea, Kec. Namlea, Kabupaten Buru, Maluku";"Kabupaten Buru, Maluku";"MALUKU";"";"Indonesia";" 081316222080";"";"";"-3.2779017";"127.0979019";"https://maps.google.com/?cid=0x0:0xce7d9cbd242800a3";""
"toko bangunan";"Toko Bahan Bangunan";"Toko Besi dan Bangunan "Hidayah"";"HWQJ+WRV, Trans Buru Mako-Modaumohe, Waegeren, Kec. Waeapo, Kabupaten Buru, Maluku";"Kabupaten Buru, Maluku";"MALUKU";"";"Indonesia";" 082238719115";"";"";"-3.410132";"126.9320456";"https://maps.google.com/?cid=0x0:0x120a46875d558939";""
"toko bangunan";"Toko Bahan Bangunan";"Makmur Utama Supermarket Bahan Bangunan";"Jl. Yasin Gamsungi No.2 Kec. ternate tengah, Kel, Makassar Tim., Makassar Timur, Kota Ternate, Maluku Utara 97724";"Kel, Makassar Tim., Makassar Timur, Kota Ternate";"MALUKU";"97724";"Indonesia";" 08114313799";"";"";"0.7940352";"127.3876695";"https://maps.google.com/?cid=0x0:0x2f492ae87bf64247";""
"toko bangunan";"Toko Bahan Bangunan";"TOKO WARDACH";"MX25+V96, Waekerta, Kec. Waeapo, Kabupaten Buru, Maluku";"Kabupaten Buru, Maluku";"MALUKU";"";"Indonesia";" 081316222080";"";"";"-3.3478436";"126.9583886";"https://maps.google.com/?cid=0x0:0xf46923c55a27c005";""
"toko bangunan";"Toko Bahan Bangunan";"Toko Duta Bangunan";"Jl. Danau Rana, Namlea, Kec. Namlea, Kabupaten Buru, Maluku";"Kabupaten Buru, Maluku";"MALUKU";"";"Indonesia";" 091322010";"";"";"-3.269268";"127.1034228";"https://maps.google.com/?cid=0x0:0x4d2e61629ea407b9";""
"toko bangunan";"toko bangunan";"Maluku";"";"Maluku";"MALUKU";"";"Indonesia";"";"";"";"-3.2384616";"130.1452734";"https://maps.google.com/?cid=0x0:0x5e30e8db04649a51";""
"toko bangunan";"Toko Bahan Bangunan";"Toko bangunan Dinda Barokah";"P85C+XWC, Waihatu, Kec. Kairatu Bar., Kabupaten Seram Bagian Barat, Maluku";"Kabupaten Seram Bagian Barat, Maluku";"MALUKU";"";"Indonesia";" 081356194953";"";"";"-3.2900692";"128.3222692";"https://maps.google.com/?cid=0x0:0x634ca5cb31d21d51";""
"toko bangunan";"Toko Bahan Bangunan";"Eka Pratama";"JWQV+6P5, Luhu, Kec. Huamual Belakang, Kabupaten Seram Bagian Barat, Maluku";"Kabupaten Seram Bagian Barat, Maluku";"MALUKU";"";"Indonesia";" 08161999912";"";"";"-3.3619763";"127.9443737";"https://maps.google.com/?cid=0x0:0x9297fa79318e74fa";""
"toko bangunan";"Toko Bahan Bangunan";"TOKO ILHAM";"28R5+VPH, Unnamed Road, Sifnana, Tanimbar Sel., Kab. Kepulauan Tanimbar, Maluku";"Kab. Kepulauan Tanimbar, Maluku";"MALUKU";"";"Indonesia";" 083125236425";"";"";"-7.9578237";"131.3093484";"https://maps.google.com/?cid=0x0:0xdc8ca2706d30ea1a";""
"toko bangunan";"Toko";"Toko Rifky Jkt Bru";"P385+MC7, Lokki, Kec. Huamual Belakang, Kabupaten Seram Bagian Barat, Maluku";"Kabupaten Seram Bagian Barat, Maluku";"MALUKU";"";"Indonesia";" 082378990826";"";"";"-3.2833419";"128.0585336";"https://maps.google.com/?cid=0x0:0xfc53f32c414a25a3";""
"toko bangunan";"Toko Bahan Bangunan";"Toko BANDA NAIRA";"tenggara, Jl. Fid, Fiditan, Kec. Pulau Dullah Utara, Kota Tual, Maluku";"Kota Tual, Maluku";"MALUKU";"";"Indonesia";" 091621539";"";"";"-5.6348247";"132.7425416";"https://maps.google.com/?cid=0x0:0x7c2d6fd44077fb1d";""
"toko bangunan";"Toko Bahan Bangunan";"Toko Bata/batako";"J9QC+8G8, Kairatu, Kec. Kairatu, Kabupaten Seram Bagian Barat, Maluku";"Kabupaten Seram Bagian Barat, Maluku";"MALUKU";"";"Indonesia";" 081316222080";"";"";"-3.3617156";"128.3713198";"https://maps.google.com/?cid=0x0:0x481586af2d254d67";""
"toko bangunan";"Toko Bahan Bangunan";"Toko Platinum";"9Q33+23V, Taar, Pulau Dullah Sel., Kota Tual, Maluku";"Kota Tual, Maluku";"MALUKU";"";"Indonesia";" 091623959";"";"";"-5.6473959";"132.752685";"https://maps.google.com/?cid=0x0:0x5243a3d0d523d49e";""
"toko bangunan";"Toko";"Toko Cahaya Buton";"Olilit, Tanimbar Sel., Kab. Kepulauan Tanimbar, Maluku";"Kab. Kepulauan Tanimbar, Maluku";"MALUKU";"";"Indonesia";" 082199324920";"";"";"-7.9824365";"131.2957106";"https://maps.google.com/?cid=0x0:0x70e9a7624be9ac83";""
"toko bangunan";"Minimarket";"TOKO AMAL JAYA";"278V+WF6, Olilit, Tanimbar Sel., Kab. Kepulauan Tanimbar, Maluku";"Kab. Kepulauan Tanimbar, Maluku";"MALUKU";"";"Indonesia";" 082199324920";"";"";"-7.9836129";"131.2936666";"https://maps.google.com/?cid=0x0:0xcb311d7ebcd8c172";""
"toko bangunan";"Toko Perlengkapan Rumah";"Toko subhan";"9QC5+M3R, Kel. Lodar El, Pulau Dullah Sel., Kota Tual, Maluku";"Kota Tual, Maluku";"MALUKU";"";"Indonesia";" 087861101462";"";"";"-5.6282552";"132.7576479";"https://maps.google.com/?cid=0x0:0x66a03758835bbb9c";""
"toko bangunan";"Toko Bahan Bangunan";"Toko Aneka Guna Rumah Tiga";"Unnamed Road, Rumah Tiga, Kec. Tlk. Ambon, Kota Ambon, Maluku";"Kota Ambon, Maluku";"MALUKU";"";"Indonesia";" 082397301030";"";"";"-3.660478";"128.1926583";"https://maps.google.com/?cid=0x0:0x370ddbc5c103c9e";""
"toko bangunan";"toko bangunan";"Aneka Teknik";"Ruko Yamdena Plaza, Jl. Mathilda Batlayeri No.11 Blok A No 9, Kecamatan, Tanimbar Sel., Kab. Kepulauan Tanimbar, Maluku 97471";"Jl. Mathilda Batlayeri No.11 Blok A No 9, Kecamatan, Tanimbar Sel., Kab. Kepulauan Tanimbar";"MALUKU";"97471";"Indonesia";" 081356537291";"";"";"-7.9825994";"131.296232";"https://maps.google.com/?cid=0x0:0x6ea3ba9c7a220db5";""
"toko bangunan";"Pemasok Bahan Bangunan";"Toko Aneka Guna Passo";"Passo, Kec. Baguala, Kota Ambon, Maluku";"Kota Ambon, Maluku";"MALUKU";"";"Indonesia";" 082397301030";"";"";"-3.6331734";"128.2504202";"https://maps.google.com/?cid=0x0:0xae7002ec9b542f86";""
"toko bangunan";"Toko Perlengkapan Rumah";"Toko Berdikari Jaya";"W6H2+GHW, Jl. Trans Seram, Piru, Kec. Seram Bar., Kabupaten Seram Bagian Barat, Maluku";"Kabupaten Seram Bagian Barat, Maluku";"MALUKU";"";"Indonesia";"";"";"";"-3.0711298";"128.2014526";"https://maps.google.com/?cid=0x0:0x493d9b22726b068d";""
"toko bangunan";"Toko";"Inti Bangunan Indonesia";"Jl. Philip Latumahina, Kel Honipopu, Kec. Sirimau, Kota Ambon, Maluku 97126";"Kel Honipopu, Kec. Sirimau, Kota Ambon";"MALUKU";"97126";"Indonesia";" 082199047262";"";"";"-3.6977847";"128.1799421";"https://maps.google.com/?cid=0x0:0x91b23ce42f513ef8";""
"toko bangunan";"Toko Bahan Bangunan";"Inti Bangunan";"5, Jl. Sunter Permai Raya No.12B, RT.5/RW.18, Sunter Agung, Kec. Tj. Priok, Jkt Utara, Daerah Khusus Ibukota Jakarta 14350";"Jl. Sunter Permai Raya No.12B, RT.5/RW.18, Sunter Agung, Kec. Tj. Priok, Jkt Utara";"MALUKU";"14350";"Indonesia";" 087873253137";"";"";"-6.1335615";"106.8649626";"https://maps.google.com/?cid=0x0:0x387c58d9572e0964";""
"toko bangunan";"";"PT Timor Otsuki Mutiara";"Jl. Cililin I No.11a, Petogogan, Kec. Kby. Baru, Jakarta, Daerah Khusus Ibukota Jakarta 12170";"Petogogan, Kec. Kby. Baru, Jakarta";"MALUKU";"12170";"Indonesia";" 0217237339";"";"";"-6.2418333";"106.8092373";"https://maps.google.com/?cid=0x0:0x67e0a773d1a27051";""
"toko bangunan";"toko bangunan";"Kec. Waelata";"Kabupaten Buru, Maluku";"Kabupaten Buru, Maluku";"MALUKU";"";"Indonesia";"";"";"";"-3.4811436";"126.9241917";"https://maps.google.com/?cid=0x0:0xd5c06f16d8212c44";""
"toko bangunan";"Toko Bahan Bangunan";"TOKO BANGUNAN INDAH";"H2XC+MG8, Debowae, Kec. Waeapo, Kabupaten Buru, Maluku";"Kabupaten Buru, Maluku";"MALUKU";"";"Indonesia";" 082378990826";"";"";"-3.4009468";"127.0213428";"https://maps.google.com/?cid=0x0:0xf490914073a04836";""
"toko bangunan";"Toko Bahan Bangunan";"Toko GM Mandiri";"J22F+P58, Debowae, Kec. Waeapo, Kabupaten Buru, Maluku";"Kabupaten Buru, Maluku";"MALUKU";"";"Indonesia";" 081617551247";"";"";"-3.3982034";"127.0229567";"https://maps.google.com/?cid=0x0:0x6bc026e5e22c238d";""
"toko bangunan";"Toko Bahan Bangunan";"Toko Duta Bangunan";"Jl. Danau Rana, Namlea, Kec. Namlea, Kabupaten Buru, Maluku";"Kabupaten Buru, Maluku";"MALUKU";"";"Indonesia";" 091322010";"";"";"-3.269268";"127.1034228";"https://maps.google.com/?cid=0x0:0x4d2e61629ea407b9";""
"toko bangunan";"Toko Bahan Bangunan";"TOKO ROFI";"JXFQ+F2M, Jln Gatot Subroto, komplek Pasar Mako, Namlea, Kec. Namlea, Kabupaten Buru, Maluku 97578";"Jln Gatot Subroto, komplek Pasar Mako, Namlea, Kec. Namlea, Kabupaten Buru";"MALUKU";"97578";"Indonesia";" 09132325065";"";"";"-3.3762805";"126.987547";"https://maps.google.com/?cid=0x0:0xb2084c57efa37e66";""
"toko bangunan";"Toko Perlengkapan Rumah";"Sinar terang";"MX26+F79, Waekerta, Kec. Waeapo, Kabupaten Buru, Maluku";"Kabupaten Buru, Maluku";"MALUKU";"";"Indonesia";"";"";"";"-3.3488488";"126.9607264";"https://maps.google.com/?cid=0x0:0xc43c6df2f32c3cb5";""
"toko bangunan";"Toko Bahan Bangunan";"TOKO WARDACH";"MX25+V96, Waekerta, Kec. Waeapo, Kabupaten Buru, Maluku";"Kabupaten Buru, Maluku";"MALUKU";"";"Indonesia";" 081316222080";"";"";"-3.3478436";"126.9583886";"https://maps.google.com/?cid=0x0:0xf46923c55a27c005";""
"toko bangunan";"Toko Bahan Bangunan";"Toko Sinar Terang";"HWQJ+P94, Unnamed Road, Waegeren, Kec. Waeapo, Kabupaten Buru, Maluku";"Kabupaten Buru, Maluku";"MALUKU";"";"Indonesia";"";"";"";"-3.4107258";"126.9309381";"https://maps.google.com/?cid=0x0:0x313f03e1f07b8a8b";""
"toko bangunan";"Toko Swalayan";"Toko bude Sri";"GW8F+937, Waetina, Pulau, Kabupaten Buru, Maluku";"Kabupaten Buru, Maluku";"MALUKU";"";"Indonesia";"";"";"";"-3.4840996";"126.9226593";"https://maps.google.com/?cid=0x0:0xadc6113b0c4b5117";""
"toko bangunan";"Toko Bahan Bangunan";"TB. BAHAGIA";"HWQH+695, Waegeren, Kec. Waeapo, Kabupaten Buru, Maluku";"Kabupaten Buru, Maluku";"MALUKU";"";"Indonesia";"";"";"";"-3.4114934";"126.9291488";"https://maps.google.com/?cid=0x0:0xef99cce735992bc0";""
"toko bangunan";"Jasa Konstruksi dan Bangunan";"Toko DANUR";"Pasar unit 6, Waegeren, Kec. Waeapo, Kabupaten Buru, Maluku";"Kabupaten Buru, Maluku";"MALUKU";"";"Indonesia";"";"";"";"-3.4147201";"126.9251747";"https://maps.google.com/?cid=0x0:0xf1c9d2e8d1cdfca3";""
"toko bangunan";"toko bangunan";"TB Fajar Sahabat";"H284+HC, Parbulu, Kec. Waelata, Kabupaten Buru, Maluku";"Kabupaten Buru, Maluku";"MALUKU";"";"Indonesia";" 081343456071";"";"";"-3.433533";"127.0060254";"https://maps.google.com/?cid=0x0:0xb64dd70adfe211eb";""
"toko bangunan";"toko bangunan";"Bos galak";"H2C6+X32, Parbulu, Kec. Waelata, Kabupaten Buru, Maluku";"Kabupaten Buru, Maluku";"MALUKU";"";"Indonesia";"";"";"";"-3.4276025";"127.0101291";"https://maps.google.com/?cid=0x0:0x1475fcb8719a9f6f";""
"toko bangunan";"toko bangunan";"Maluku";"";"Maluku";"MALUKU";"";"Indonesia";"";"";"";"-3.2384616";"130.1452734";"https://maps.google.com/?cid=0x0:0x5e30e8db04649a51";""
"toko bangunan";"Toko Bahan Bangunan";"Toko Duta Bangunan";"Jl. Danau Rana, Namlea, Kec. Namlea, Kabupaten Buru, Maluku";"Kabupaten Buru, Maluku";"MALUKU";"";"Indonesia";" 091322010";"";"";"-3.269268";"127.1034228";"https://maps.google.com/?cid=0x0:0x4d2e61629ea407b9";""
"toko bangunan";"Toko Pakaian";"Toko NUR JAYA 2";"WGGP+FGG, Wamlana, Kec. Fena leisela, Kabupaten Buru, Maluku";"Kabupaten Buru, Maluku";"MALUKU";"";"Indonesia";"";"";"";"-3.0738216";"126.5361835";"https://maps.google.com/?cid=0x0:0xe7e254da140de542";""
"toko bangunan";"Toko";"Toko Serba Bangunan Ambon";"Jl. Philip Latumahina No.10, Kel Honipopu, Kec. Sirimau, Kota Ambon, Maluku";"Kota Ambon, Maluku";"MALUKU";"";"Indonesia";" 081283093876";"";"";"-3.696513";"128.1813331";"https://maps.google.com/?cid=0x0:0x38f3a5a63eb288ff";""
"toko bangunan";"Toko Bahan Bangunan";"Toko Bangunan Lestari Baru";"Waihatu, Kec. Kairatu Bar., Kabupaten Seram Bagian Barat, Maluku";"Kabupaten Seram Bagian Barat, Maluku";"MALUKU";"";"Indonesia";" 082238832490";"";"";"-3.2864381";"128.3222819";"https://maps.google.com/?cid=0x0:0xb14d86a65046c260";""
"toko bangunan";"Toko Bahan Bangunan";"Toko bangunan Dinda Barokah";"P85C+XWC, Waihatu, Kec. Kairatu Bar., Kabupaten Seram Bagian Barat, Maluku";"Kabupaten Seram Bagian Barat, Maluku";"MALUKU";"";"Indonesia";" 081356194953";"";"";"-3.2900692";"128.3222692";"https://maps.google.com/?cid=0x0:0x634ca5cb31d21d51";""
"toko bangunan";"Toko";"TOKO FAJAR MAS";"P3CX+R5Q, Namlea, Kec. Namlea, Kabupaten Buru, Maluku";"Kabupaten Buru, Maluku";"MALUKU";"";"Indonesia";" 081316222080";"";"";"-3.2779017";"127.0979019";"https://maps.google.com/?cid=0x0:0xce7d9cbd242800a3";""
"toko bangunan";"Toko Bahan Bangunan";"Toko Bangunan Utama";"Jl. Karel Satsuitubun Batugong, Ambon, Passo, Kec. Baguala, Kota Ambon, Maluku 97232";"Ambon, Passo, Kec. Baguala, Kota Ambon";"MALUKU";"97232";"Indonesia";" 085102851565";"";"";"-3.6377789";"128.2574061";"https://maps.google.com/?cid=0x0:0x7640e512aa59b277";""
"toko bangunan";"Toko Bahan Bangunan";"TOKO ILHAM";"28R5+VPH, Unnamed Road, Sifnana, Tanimbar Sel., Kab. Kepulauan Tanimbar, Maluku";"Kab. Kepulauan Tanimbar, Maluku";"MALUKU";"";"Indonesia";" 083125236425";"";"";"-7.9578237";"131.3093484";"https://maps.google.com/?cid=0x0:0xdc8ca2706d30ea1a";""
"toko bangunan";"toko bangunan";"Tlk. Kaiely";"Kabupaten Buru, Maluku";"Kabupaten Buru, Maluku";"MALUKU";"";"Indonesia";"";"";"";"-3.3033929";"126.5661908";"https://maps.google.com/?cid=0x0:0x12b5aeb27efc20e0";""
"toko bangunan";"Toko Bahan Bangunan";"TOKO ROFI";"JXFQ+F2M, Jln Gatot Subroto, komplek Pasar Mako, Namlea, Kec. Namlea, Kabupaten Buru, Maluku 97578";"Jln Gatot Subroto, komplek Pasar Mako, Namlea, Kec. Namlea, Kabupaten Buru";"MALUKU";"97578";"Indonesia";" 09132325065";"";"";"-3.3762805";"126.987547";"https://maps.google.com/?cid=0x0:0xb2084c57efa37e66";""
"toko bangunan";"Toko Bahan Bangunan";"TOKO BANGUNAN INDAH";"H2XC+MG8, Debowae, Kec. Waeapo, Kabupaten Buru, Maluku";"Kabupaten Buru, Maluku";"MALUKU";"";"Indonesia";" 082378990826";"";"";"-3.4009468";"127.0213428";"https://maps.google.com/?cid=0x0:0xf490914073a04836";""
"toko bangunan";"Toko Bahan Bangunan";"Toko Duta Bangunan";"Jl. Danau Rana, Namlea, Kec. Namlea, Kabupaten Buru, Maluku";"Kabupaten Buru, Maluku";"MALUKU";"";"Indonesia";" 091322010";"";"";"-3.269268";"127.1034228";"https://maps.google.com/?cid=0x0:0x4d2e61629ea407b9";""
"toko bangunan";"Toko Perlengkapan Rumah";"Sinar terang";"MX26+F79, Waekerta, Kec. Waeapo, Kabupaten Buru, Maluku";"Kabupaten Buru, Maluku";"MALUKU";"";"Indonesia";"";"";"";"-3.3488488";"126.9607264";"https://maps.google.com/?cid=0x0:0xc43c6df2f32c3cb5";""
"toko bangunan";"Toko umum";"Toko Tiga Putra";"Waimangit, Kec. Air Buaya, Kabupaten Buru, Maluku";"Kabupaten Buru, Maluku";"MALUKU";"";"Indonesia";" 082238217090";"";"";"-3.0852552";"126.4506514";"https://maps.google.com/?cid=0x0:0x67e95f62768a257b";""
"toko bangunan";"Toko Pakaian";"Toko NUR JAYA 2";"WGGP+FGG, Wamlana, Kec. Fena leisela, Kabupaten Buru, Maluku";"Kabupaten Buru, Maluku";"MALUKU";"";"Indonesia";"";"";"";"-3.0738216";"126.5361835";"https://maps.google.com/?cid=0x0:0xe7e254da140de542";""
"toko bangunan";"Toko Bahan Bangunan";"Toko Besi dan Bangunan "Hidayah"";"HWQJ+WRV, Trans Buru Mako-Modaumohe, Waegeren, Kec. Waeapo, Kabupaten Buru, Maluku";"Kabupaten Buru, Maluku";"MALUKU";"";"Indonesia";" 082238719115";"";"";"-3.410132";"126.9320456";"https://maps.google.com/?cid=0x0:0x120a46875d558939";""
"toko bangunan";"Toko Bahan Bangunan";"TOKO WARDACH";"MX25+V96, Waekerta, Kec. Waeapo, Kabupaten Buru, Maluku";"Kabupaten Buru, Maluku";"MALUKU";"";"Indonesia";" 081316222080";"";"";"-3.3478436";"126.9583886";"https://maps.google.com/?cid=0x0:0xf46923c55a27c005";""
"toko bangunan";"Toko";"TOKO FAJAR MAS";"P3CX+R5Q, Namlea, Kec. Namlea, Kabupaten Buru, Maluku";"Kabupaten Buru, Maluku";"MALUKU";"";"Indonesia";" 081316222080";"";"";"-3.2779017";"127.0979019";"https://maps.google.com/?cid=0x0:0xce7d9cbd242800a3";""
"toko bangunan";"Toko Perlengkapan Rumah";"Toko UD.Bersatu";"P3HX+J42, Namlea, Kec. Namlea, Kabupaten Buru, Maluku";"Kabupaten Buru, Maluku";"MALUKU";"";"Indonesia";" 081385661699";"";"";"-3.2709938";"127.0977623";"https://maps.google.com/?cid=0x0:0x79155edd2e9f51c6";""
"toko bangunan";"Toko Pakaian";"Toko Nur Jaya";"WGGM+RQF, Wamlana, Kec. Air Buaya, Kabupaten Buru, Maluku";"Kabupaten Buru, Maluku";"MALUKU";"";"Indonesia";" 0813540408061";"";"";"-3.0729264";"126.5344307";"https://maps.google.com/?cid=0x0:0x6ecc7d9ee7d20b7f";""
"toko bangunan";"toko bangunan";"Kec. Lilialy";"Kabupaten Buru, Maluku";"Kabupaten Buru, Maluku";"MALUKU";"";"Indonesia";"";"";"";"-3.1452717";"126.9901544";"https://maps.google.com/?cid=0x0:0xa4098f1c5783ea97";""
"toko bangunan";"Toko Bahan Bangunan";"Toko Duta Bangunan";"Jl. Danau Rana, Namlea, Kec. Namlea, Kabupaten Buru, Maluku";"Kabupaten Buru, Maluku";"MALUKU";"";"Indonesia";" 091322010";"";"";"-3.269268";"127.1034228";"https://maps.google.com/?cid=0x0:0x4d2e61629ea407b9";""
"toko bangunan";"Toko Bahan Bangunan";"TOKO ELDY BANGUNAN";"Bobong, Kec. Taliabu Bar., Pulau Taliabu, Maluku Utara";"Pulau Taliabu, Maluku Utara";"MALUKU";"";"Indonesia";" 085342270869";"";"";"-1.942625";"124.381349";"https://maps.google.com/?cid=0x0:0xaf82dabb011de311";""
"toko bangunan";"Toko Pakaian";"TOKO DYA UTAMA atribut tni polri";"Q422+7Q3, Namlea, Kec. Namlea, Kabupaten Buru, Maluku";"Kabupaten Buru, Maluku";"MALUKU";"";"Indonesia";" 082199251987";"";"";"-3.2494428";"127.1018265";"https://maps.google.com/?cid=0x0:0xc6a06576407b374a";""
"toko bangunan";"Komplek perumahan";"Somel";"VV8V+RQ, Lamahang, Waplau, Kabupaten Buru, Maluku";"Kabupaten Buru, Maluku";"MALUKU";"";"Indonesia";"";"";"";"-3.1329653";"126.8944841";"https://maps.google.com/?cid=0x0:0x165cbbf869d197bf";""
"toko bangunan";"Toko";"Toko limbangan";"Unnamed Road, Namlea, Kec. Namlea, Kabupaten Buru, Maluku";"Kabupaten Buru, Maluku";"MALUKU";"";"Indonesia";" 081385661699";"";"";"-3.2609073";"127.0901353";"https://maps.google.com/?cid=0x0:0x29a54d305b76ea67";""
"toko bangunan";"Toko Perlengkapan Rumah";"Toko UD.Bersatu";"P3HX+J42, Namlea, Kec. Namlea, Kabupaten Buru, Maluku";"Kabupaten Buru, Maluku";"MALUKU";"";"Indonesia";" 081385661699";"";"";"-3.2709938";"127.0977623";"https://maps.google.com/?cid=0x0:0x79155edd2e9f51c6";""
"toko bangunan";"Toko";"TOKO FAJAR MAS";"P3CX+R5Q, Namlea, Kec. Namlea, Kabupaten Buru, Maluku";"Kabupaten Buru, Maluku";"MALUKU";"";"Indonesia";" 081316222080";"";"";"-3.2779017";"127.0979019";"https://maps.google.com/?cid=0x0:0xce7d9cbd242800a3";""
"hardware store";"hardware store";"Namlea";"Namlea, Kec. Namlea, Kabupaten Buru, Maluku";"Kabupaten Buru, Maluku";"MALUKU";"";"Indonesia";"";"";"";"-3.233398";"127.085899";"https://maps.google.com/?cid=0x0:0xe52ca57740e74df";""
"hardware store";"Toko Perlengkapan Rumah";"MR.DIY";"Jl. Kampus Iqra Buru, Namlea, Kec. Namlea, Kabupaten Buru, Maluku 97571";"Namlea, Kec. Namlea, Kabupaten Buru";"MALUKU";"97571";"Indonesia";"";"";"";"-3.2733058";"127.0992124";"https://maps.google.com/?cid=0x0:0x69153d22b15aaf2";""
"hardware store";"Toko";"Toko limbangan";"Unnamed Road, Namlea, Kec. Namlea, Kabupaten Buru, Maluku";"Kabupaten Buru, Maluku";"MALUKU";"";"Indonesia";" 081385661699";"";"";"-3.2609073";"127.0901353";"https://maps.google.com/?cid=0x0:0x29a54d305b76ea67";""
"hardware store";"Toko";"Depot Raja RO";"P4M3+96Q, Namlea, Kec. Namlea, Kabupaten Buru, Maluku";"Kabupaten Buru, Maluku";"MALUKU";"";"Indonesia";" 082399855292";"";"";"-3.2665481";"127.1031233";"https://maps.google.com/?cid=0x0:0x61fdff86e2e98502";""
"hardware store";"Toko";"RH 2 - Namlea(PT. RAHMAT LIE UTAMA)";"rh 2 namlea, Namlea, Kec. Namlea, Kabupaten Buru, Maluku";"Kabupaten Buru, Maluku";"MALUKU";"";"Indonesia";" 082154968356";"";"";"-3.2684673";"127.1035294";"https://maps.google.com/?cid=0x0:0x20716bfbae456dbd";""
"hardware store";"Toko";"TOKO FAJAR MAS";"P3CX+R5Q, Namlea, Kec. Namlea, Kabupaten Buru, Maluku";"Kabupaten Buru, Maluku";"MALUKU";"";"Indonesia";" 081316222080";"";"";"-3.2779017";"127.0979019";"https://maps.google.com/?cid=0x0:0xce7d9cbd242800a3";""
"hardware store";"Toko Bahan Bangunan";"Toko Duta Bangunan";"Jl. Danau Rana, Namlea, Kec. Namlea, Kabupaten Buru, Maluku";"Kabupaten Buru, Maluku";"MALUKU";"";"Indonesia";" 091322010";"";"";"-3.269268";"127.1034228";"https://maps.google.com/?cid=0x0:0x4d2e61629ea407b9";""
"hardware store";"Toko Perlengkapan Rumah";"SINAR ELEKTRONIK NAMLEA";"BTN BUKIT PERMAI, Namlea, Kec. Namlea, Kabupaten Buru, Maluku";"Kabupaten Buru, Maluku";"MALUKU";"";"Indonesia";" 081344655969";"";"";"-3.2572091";"127.0874888";"https://maps.google.com/?cid=0x0:0xbda96f4e80bca0e4";""
"hardware store";"Komplek perumahan";"Jalan baru lorong arab";"Q38P+HCR, Namlea, Kec. Namlea, Kabupaten Buru, Maluku";"Kabupaten Buru, Maluku";"MALUKU";"";"Indonesia";"";"";"";"-3.2335148";"127.0860196";"https://maps.google.com/?cid=0x0:0xbab23ac9e042843c";""
"hardware store";"Apotek";"Toko ubay";"P4G9+P4Q, Jln jiku kecil, Namlea, Kec. Namlea, Kabupaten Buru, Maluku";"Kabupaten Buru, Maluku";"MALUKU";"";"Indonesia";" 081286316397";"";"";"-3.273171";"127.1178642";"https://maps.google.com/?cid=0x0:0x886432a959ed3274";""
"hardware store";"Praktisi Pengobatan Alternatif";"Pusat Minyak Kayu Putih Murni Asli Namlea Pulau Buru";"Jln, Pertamina, Bandar Angin, Kec. Namlea, Kabupaten Buru, Maluku 97571";"Pertamina, Bandar Angin, Kec. Namlea, Kabupaten Buru";"MALUKU";"97571";"Indonesia";" 083160635299";"";"";"-3.2687434";"127.0928415";"https://maps.google.com/?cid=0x0:0x882f273bfa91f545";""
"hardware store";"Toko";"Toko NN";"P4C7+HFC, Namlea, Kec. Namlea, Kabupaten Buru, Maluku";"Kabupaten Buru, Maluku";"MALUKU";"";"Indonesia";" 082233591649";"";"";"-3.278553";"127.1136343";"https://maps.google.com/?cid=0x0:0x200c3be881ec362e";""
"hardware store";"Toko umum";"Toko Tiga Putra";"Waimangit, Kec. Air Buaya, Kabupaten Buru, Maluku";"Kabupaten Buru, Maluku";"MALUKU";"";"Indonesia";" 082238217090";"";"";"-3.0852552";"126.4506514";"https://maps.google.com/?cid=0x0:0x67e95f62768a257b";""
"hardware store";"Toko umum";"Toko Suri";"WC7J+XR, Air Buaya, Kec. Air Buaya, Kabupaten Buru, Maluku";"Kabupaten Buru, Maluku";"MALUKU";"";"Indonesia";"";"";"";"-3.0843584";"126.4324227";"https://maps.google.com/?cid=0x0:0xc3760633f9e9498e";""
"hardware store";"Toko Alat-Alat";"R Hardware";"Jalan Buaran Raya No.14, Klender, Duren Sawit, RT.8/RW.15, Duren Sawit, Kec. Duren Sawit, Kota Jakarta Timur, Daerah Khusus Ibukota Jakarta 13470";"Klender, Duren Sawit, RT.8/RW.15, Duren Sawit, Kec. Duren Sawit, Kota Jakarta Timur";"MALUKU";"13470";"Indonesia";" 02186617280";"";"";"-6.2206585";"106.921238";"https://maps.google.com/?cid=0x0:0x2eb6bbca842d3c29";""
"hardware store";"hardware store";"Kec. Waeapo";"Kabupaten Buru, Maluku";"Kabupaten Buru, Maluku";"MALUKU";"";"Indonesia";"";"";"";"-3.4137528";"126.925378";"https://maps.google.com/?cid=0x0:0xf83f0231b9a9b5fd";""
"hardware store";"Toko Bahan Bangunan";"TOKO WARDACH";"MX25+V96, Waekerta, Kec. Waeapo, Kabupaten Buru, Maluku";"Kabupaten Buru, Maluku";"MALUKU";"";"Indonesia";" 081316222080";"";"";"-3.3478436";"126.9583886";"https://maps.google.com/?cid=0x0:0xf46923c55a27c005";""
"hardware store";"Toko Bahan Bangunan";"Toko GM Mandiri";"J22F+P58, Debowae, Kec. Waeapo, Kabupaten Buru, Maluku";"Kabupaten Buru, Maluku";"MALUKU";"";"Indonesia";" 081617551247";"";"";"-3.3982034";"127.0229567";"https://maps.google.com/?cid=0x0:0x6bc026e5e22c238d";""
"hardware store";"Toko Bahan Bangunan";"TB. BAHAGIA";"HWQH+695, Waegeren, Kec. Waeapo, Kabupaten Buru, Maluku";"Kabupaten Buru, Maluku";"MALUKU";"";"Indonesia";"";"";"";"-3.4114934";"126.9291488";"https://maps.google.com/?cid=0x0:0xef99cce735992bc0";""
"hardware store";"Toko";"Toko Finacy Bagus";"GWCG+2H8, Waetina, Kec. Waeapo, Kabupaten Buru, Maluku";"Kabupaten Buru, Maluku";"MALUKU";"";"Indonesia";" 085344600675";"";"";"-3.4799679";"126.9264449";"https://maps.google.com/?cid=0x0:0x2f3a0d6fefbd0008";""
"hardware store";"Toko";"Toko Harjo";"RT.:05/Rw:03, Waekasar, Kec. Waeapo, Kabupaten Buru, Maluku 97574";"Waekasar, Kec. Waeapo, Kabupaten Buru";"MALUKU";"97574";"Indonesia";" 081273965450";"";"";"-3.3484377";"126.9790775";"https://maps.google.com/?cid=0x0:0x26f92899437b0190";""
"hardware store";"hardware store";"Waplau";"Kabupaten Buru, Maluku";"Kabupaten Buru, Maluku";"MALUKU";"";"Indonesia";"";"";"";"-3.1224517";"126.8821197";"https://maps.google.com/?cid=0x0:0xa108369a69306737";""
"hardware store";"Toko Fotokopi";"TOKO DUA MARGA";"VVFJ+4X, Waplau, Kabupaten Buru, Maluku";"Kabupaten Buru, Maluku";"MALUKU";"";"Indonesia";" 081248131979";"";"";"-3.1272031";"126.882392";"https://maps.google.com/?cid=0x0:0x4fb67d01425e01e1";""
"hardware store";"Toko Bahan Bangunan";"TOKO WARDACH";"MX25+V96, Waekerta, Kec. Waeapo, Kabupaten Buru, Maluku";"Kabupaten Buru, Maluku";"MALUKU";"";"Indonesia";" 081316222080";"";"";"-3.3478436";"126.9583886";"https://maps.google.com/?cid=0x0:0xf46923c55a27c005";""
"hardware store";"Komplek perumahan";"Dusun waepula";"8WFQ+J7X, Ureng, Kec. Leihitu, Kabupaten Maluku Tengah, Maluku";"Kabupaten Maluku Tengah, Maluku";"MALUKU";"";"Indonesia";"";"";"";"-3.6758796";"127.9382212";"https://maps.google.com/?cid=0x0:0x39d8c88a06686556";""
"hardware store";"Komplek perumahan";"Pasar Mega Regency";"Sukaragam, Kec. Serang Baru, Kabupaten Bekasi, Jawa Barat 17330";"Kec. Serang Baru, Kabupaten Bekasi";"MALUKU";"17330";"Indonesia";"";"";"";"-6.3821811";"107.1179558";"https://maps.google.com/?cid=0x0:0xa1db099ed9bfa5df";""
"hardware store";"Komplek perumahan";"MEGA REGENCY";"BLOK M14.1";"Kabupaten Bekasi, Jawa Barat";"MALUKU";"";"Indonesia";"";"";"";"-6.3794772";"107.1264387";"https://maps.google.com/?cid=0x0:0x673938139eaefb7d";""
"hardware store";"Toko";"TOKO PUTRI SEMBAKO";"Blok H1, Jl. Mega Raya No.Pasar Kapling 31, Sukaragam, Kec. Serang Baru, Kabupaten Bekasi, Jawa Barat 17330";"Jl. Mega Raya No.Pasar Kapling 31, Sukaragam, Kec. Serang Baru, Kabupaten Bekasi";"MALUKU";"17330";"Indonesia";" 083813970070";"";"";"-6.3824477";"107.1179324";"https://maps.google.com/?cid=0x0:0xcbd667b1cf3fb69a";""
"hardware store";"Toko Perlengkapan Rumah";"toko bata bual";"P3CX+93V, Jl. Flamboyan, Namlea, Kec. Namlea, Kabupaten Buru, Maluku";"Kabupaten Buru, Maluku";"MALUKU";"";"Indonesia";" 081385661699";"";"";"-3.2790186";"127.0976607";"https://maps.google.com/?cid=0x0:0x7dd073170585614c";""
"hardware store";"Toko Perlengkapan Rumah";"Toko UD.Bersatu";"P3HX+J42, Namlea, Kec. Namlea, Kabupaten Buru, Maluku";"Kabupaten Buru, Maluku";"MALUKU";"";"Indonesia";"";"";"";"-3.2709938";"127.0977623";"https://maps.google.com/?cid=0x0:0x79155edd2e9f51c6";""
"hardware store";"Toko Bahan Bangunan";"Toko Duta Bangunan";"Jl. Danau Rana, Namlea, Kec. Namlea, Kabupaten Buru, Maluku";"Kabupaten Buru, Maluku";"MALUKU";"";"Indonesia";" 091322010";"";"";"-3.269268";"127.1034228";"https://maps.google.com/?cid=0x0:0x4d2e61629ea407b9";""
"hardware store";"Toko";"TOKO FAJAR MAS";"P3CX+R5Q, Namlea, Kec. Namlea, Kabupaten Buru, Maluku";"Kabupaten Buru, Maluku";"MALUKU";"";"Indonesia";" 081316222080";"";"";"-3.2779017";"127.0979019";"https://maps.google.com/?cid=0x0:0xce7d9cbd242800a3";""
"hardware store";"Toko Perlengkapan Rumah";"Gope Hardware  Tools";"Jl. Sunter Hijau VII No.2, RT.9/RW.13, Sunter Jaya, Kec. Tj. Priok, Jkt Utara, Daerah Khusus Ibukota Jakarta 14350";"RT.9/RW.13, Sunter Jaya, Kec. Tj. Priok, Jkt Utara";"MALUKU";"14350";"Indonesia";" 081383340735";"";"";"-6.1550118";"106.8788533";"https://maps.google.com/?cid=0x0:0xd8076c52080bb59c";""
"hardware store";"Pemasok Bahan Bangunan";"TB. Gloria Jaya";"14, Jl. Sunter Hijau VII No.9, RT.14/RW.10, Sunter Jaya, Kec. Tj. Priok, Jkt Utara, Daerah Khusus Ibukota Jakarta 14360";"Jl. Sunter Hijau VII No.9, RT.14/RW.10, Sunter Jaya, Kec. Tj. Priok, Jkt Utara";"MALUKU";"14360";"Indonesia";" 0216512326";"";"";"-6.1551255";"106.8781133";"https://maps.google.com/?cid=0x0:0x39f404a46eb10045";""
"hardware store";"hardware store";"Kec. Waelata";"Kabupaten Buru, Maluku";"Kabupaten Buru, Maluku";"MALUKU";"";"Indonesia";"";"";"";"-3.4811436";"126.9241917";"https://maps.google.com/?cid=0x0:0xd5c06f16d8212c44";""
"hardware store";"Toko Bahan Bangunan";"Toko GM Mandiri";"J22F+P58, Debowae, Kec. Waeapo, Kabupaten Buru, Maluku";"Kabupaten Buru, Maluku";"MALUKU";"";"Indonesia";" 081617551247";"";"";"-3.3982034";"127.0229567";"https://maps.google.com/?cid=0x0:0x6bc026e5e22c238d";""
"hardware store";"Toko Swalayan";"Toko LUWES";"JXGQ+XJ2, Waenetat, Kec. Waeapo, Kabupaten Buru, Maluku";"Kabupaten Buru, Maluku";"MALUKU";"";"Indonesia";"";"";"";"-3.3726043";"126.9890095";"https://maps.google.com/?cid=0x0:0x4be2520916b3af42";""
"hardware store";"Toko Bahan Bangunan";"TOKO WARDACH";"MX25+V96, Waekerta, Kec. Waeapo, Kabupaten Buru, Maluku";"Kabupaten Buru, Maluku";"MALUKU";"";"Indonesia";" 081316222080";"";"";"-3.3478436";"126.9583886";"https://maps.google.com/?cid=0x0:0xf46923c55a27c005";""
"hardware store";"Toko Bahan Bangunan";"TB. BAHAGIA";"HWQH+695, Waegeren, Kec. Waeapo, Kabupaten Buru, Maluku";"Kabupaten Buru, Maluku";"MALUKU";"";"Indonesia";"";"";"";"-3.4114934";"126.9291488";"https://maps.google.com/?cid=0x0:0xef99cce735992bc0";""
"hardware store";"Toko Pakaian";"Toko NUR JAYA 2";"WGGP+FGG, Wamlana, Kec. Fena leisela, Kabupaten Buru, Maluku";"Kabupaten Buru, Maluku";"MALUKU";"";"Indonesia";"";"";"";"-3.0738216";"126.5361835";"https://maps.google.com/?cid=0x0:0xe7e254da140de542";""
"hardware store";"Toko Pakaian";"Toko Nur Jaya";"WGGM+RQF, Wamlana, Kec. Air Buaya, Kabupaten Buru, Maluku";"Kabupaten Buru, Maluku";"MALUKU";"";"Indonesia";" 0813540408061";"";"";"-3.0729264";"126.5344307";"https://maps.google.com/?cid=0x0:0x6ecc7d9ee7d20b7f";""
"hardware store";"hardware store";"Tlk. Kaiely";"Kabupaten Buru, Maluku";"Kabupaten Buru, Maluku";"MALUKU";"";"Indonesia";"";"";"";"-3.3033929";"126.5661908";"https://maps.google.com/?cid=0x0:0x12b5aeb27efc20e0";""
"hardware store";"Toko umum";"Toko Tiga Putra";"Waimangit, Kec. Air Buaya, Kabupaten Buru, Maluku";"Kabupaten Buru, Maluku";"MALUKU";"";"Indonesia";" 082238217090";"";"";"-3.0852552";"126.4506514";"https://maps.google.com/?cid=0x0:0x67e95f62768a257b";""
"hardware store";"Toko Bahan Bangunan";"Toko GM Mandiri";"J22F+P58, Debowae, Kec. Waeapo, Kabupaten Buru, Maluku";"Kabupaten Buru, Maluku";"MALUKU";"";"Indonesia";" 081617551247";"";"";"-3.3982034";"127.0229567";"https://maps.google.com/?cid=0x0:0x6bc026e5e22c238d";""
"hardware store";"Toko Bahan Bangunan";"Toko Duta Bangunan";"Jl. Danau Rana, Namlea, Kec. Namlea, Kabupaten Buru, Maluku";"Kabupaten Buru, Maluku";"MALUKU";"";"Indonesia";" 091322010";"";"";"-3.269268";"127.1034228";"https://maps.google.com/?cid=0x0:0x4d2e61629ea407b9";""
"hardware store";"Toko Swalayan";"Toko LUWES";"JXGQ+XJ2, Waenetat, Kec. Waeapo, Kabupaten Buru, Maluku";"Kabupaten Buru, Maluku";"MALUKU";"";"Indonesia";"";"";"";"-3.3726043";"126.9890095";"https://maps.google.com/?cid=0x0:0x4be2520916b3af42";""
"hardware store";"Toko Bahan Bangunan";"TOKO WARDACH";"MX25+V96, Waekerta, Kec. Waeapo, Kabupaten Buru, Maluku";"Kabupaten Buru, Maluku";"MALUKU";"";"Indonesia";" 081316222080";"";"";"-3.3478436";"126.9583886";"https://maps.google.com/?cid=0x0:0xf46923c55a27c005";""
"hardware store";"hardware store";"Kec. Lilialy";"Kabupaten Buru, Maluku";"Kabupaten Buru, Maluku";"MALUKU";"";"Indonesia";"";"";"";"-3.1452717";"126.9901544";"https://maps.google.com/?cid=0x0:0xa4098f1c5783ea97";""
"hardware store";"Toko Perlengkapan Rumah";"MR.DIY";"Jl. Kampus Iqra Buru, Namlea, Kec. Namlea, Kabupaten Buru, Maluku 97571";"Namlea, Kec. Namlea, Kabupaten Buru";"MALUKU";"97571";"Indonesia";"";"";"";"-3.2733058";"127.0992124";"https://maps.google.com/?cid=0x0:0x69153d22b15aaf2";""
"hardware store";"Toko Bahan Bangunan";"Toko Duta Bangunan";"Jl. Danau Rana, Namlea, Kec. Namlea, Kabupaten Buru, Maluku";"Kabupaten Buru, Maluku";"MALUKU";"";"Indonesia";" 091322010";"";"";"-3.269268";"127.1034228";"https://maps.google.com/?cid=0x0:0x4d2e61629ea407b9";""
"hardware store";"Toko Perlengkapan Rumah";"TOKO YUSLAN GORDEN";"Q32V+MJF, Namlea, Kec. Namlea, Kabupaten Buru, Maluku";"Kabupaten Buru, Maluku";"MALUKU";"";"Indonesia";" 081343466201";"";"";"-3.2476718";"127.0942266";"https://maps.google.com/?cid=0x0:0x7b4a362ed1df6b91";""
"hardware store";"Toko Elektronik";"Wakatobi Computer";"Q33V+CMC, Jl. Propinsi, Namlea, Kec. Namlea, Kabupaten Buru, Maluku";"Kabupaten Buru, Maluku";"MALUKU";"";"Indonesia";" 081385661699";"";"";"-3.2464433";"127.0941478";"https://maps.google.com/?cid=0x0:0xe578b8ea3349a9aa";""
"hardware store";"Toko";"HTS Digital Centre";"P3PQ+5R5, Namlea, Kec. Namlea, Kabupaten Buru, Maluku";"Kabupaten Buru, Maluku";"MALUKU";"";"Indonesia";"";"";"";"-3.2646146";"127.0896056";"https://maps.google.com/?cid=0x0:0xb11bafc1907ed0b2";""
"hardware store";"Toko";"SAWERIGADING FOTOCOPY";"Jalan Jiku Besar, Namlea, Kec. Namlea, Kabupaten Buru, Maluku 97571";"Namlea, Kec. Namlea, Kabupaten Buru";"MALUKU";"97571";"Indonesia";" 082197581928";"";"";"-3.2688545";"127.1041881";"https://maps.google.com/?cid=0x0:0x9efbccb06e420ce3";""
"hardware store";"Toko";"Toko fayra";"P4G3+7HF, Jl. Kampus Iqra Buru, Namlea, Kec. Namlea, Kabupaten Buru, Maluku";"Kabupaten Buru, Maluku";"MALUKU";"";"Indonesia";" 082332925872";"";"";"-3.2743246";"127.10392";"https://maps.google.com/?cid=0x0:0xdceb1e75532724eb";""
"home improvement";"home improvement";"Namlea";"Namlea, Kec. Namlea, Kabupaten Buru, Maluku";"Kabupaten Buru, Maluku";"MALUKU";"";"Indonesia";"";"";"";"-3.233398";"127.085899";"https://maps.google.com/?cid=0x0:0xe52ca57740e74df";""
"home improvement";"Toko Perlengkapan Rumah";"MR.DIY";"Jl. Kampus Iqra Buru, Namlea, Kec. Namlea, Kabupaten Buru, Maluku 97571";"Namlea, Kec. Namlea, Kabupaten Buru";"MALUKU";"97571";"Indonesia";"";"";"";"-3.2733058";"127.0992124";"https://maps.google.com/?cid=0x0:0x69153d22b15aaf2";""
"home improvement";"Toko Perlengkapan Rumah";"Namlea mebel";"P3PM+RWG, Jl . pelabuhan besar, Namlea, Kec. Namlea, Kabupaten Buru, Maluku";"Kabupaten Buru, Maluku";"MALUKU";"";"Indonesia";" 081240271694";"";"";"-3.2629316";"127.0848399";"https://maps.google.com/?cid=0x0:0x4ce8087cfeffca5c";""
"home improvement";"Toko";"RH 3 - Namlea";"P4J3+GF8, Namlea, Kec. Namlea, Kabupaten Buru, Maluku";"Kabupaten Buru, Maluku";"MALUKU";"";"Indonesia";"";"";"";"-3.2687106";"127.1037021";"https://maps.google.com/?cid=0x0:0x79f220c6c18cc3cc";""
"home improvement";"Toko Mebel";"Sinar Mebel Namlea";"P3VP+4WX Harmin Mursalim SHI, Namlea, Kec. Namlea, Kabupaten Buru, Maluku";"Kabupaten Buru, Maluku";"MALUKU";"";"Indonesia";" 081247588537";"";"";"-3.2571422";"127.0873499";"https://maps.google.com/?cid=0x0:0x5467a9ab0ee46d4b";""
"home improvement";"Toko Bahan Bangunan";"Toko Duta Bangunan";"Jl. Danau Rana, Namlea, Kec. Namlea, Kabupaten Buru, Maluku";"Kabupaten Buru, Maluku";"MALUKU";"";"Indonesia";" 091322010";"";"";"-3.269268";"127.1034228";"https://maps.google.com/?cid=0x0:0x4d2e61629ea407b9";""
"home improvement";"Komplek perumahan";"My home";"P4C3+547, Namlea, Kec. Namlea, Kabupaten Buru, Maluku";"Kabupaten Buru, Maluku";"MALUKU";"";"Indonesia";"";"";"";"-3.279392";"127.101881";"https://maps.google.com/?cid=0x0:0x3357f098cfaf1475";""
"home improvement";"Komplek perumahan";"Ebay home";"P4M5+FMC, Namlea, Kec. Namlea, Kabupaten Buru, Maluku";"Kabupaten Buru, Maluku";"MALUKU";"";"Indonesia";"";"";"";"-3.2663039";"127.1091538";"https://maps.google.com/?cid=0x0:0xc8bda9336ec755b2";""
"home improvement";"Toko Mebel";"Meubel Dwi";"P4W5+R77, Namlea, Kec. Namlea, Kabupaten Buru, Maluku";"Kabupaten Buru, Maluku";"MALUKU";"";"Indonesia";" 082197673991";"";"";"-3.2529675";"127.1081582";"https://maps.google.com/?cid=0x0:0x2bbc4fd96bc2bc0";""
"home improvement";"Jasa Konstruksi dan Bangunan";"Baja Ringan dan Las, ALe Rete Mena";"Jalan Baru pendopo wakil, Namlea, Kec. Namlea, Kabupaten Buru, Maluku 97571";"Namlea, Kec. Namlea, Kabupaten Buru";"MALUKU";"97571";"Indonesia";" 081240737906";"";"";"-3.2772775";"127.1078589";"https://maps.google.com/?cid=0x0:0x2b6897e02e6b94f";""
"home improvement";"Toko Mebel";"VICTORY STORE NAMLEA";"Jl. Flamboyan No.004, Namlea, Kec. Namlea, Kabupaten Buru, Maluku 97571";"Namlea, Kec. Namlea, Kabupaten Buru";"MALUKU";"97571";"Indonesia";"";"";"";"-3.279822";"127.0977058";"https://maps.google.com/?cid=0x0:0x53d9984a84448d13";""
"home improvement";"Toko Komputer";"Finisi Komputer Namlea";"Namlea, Kec. Namlea, Kabupaten Buru, Maluku";"Kabupaten Buru, Maluku";"MALUKU";"";"Indonesia";" 081231606484";"";"";"-3.2711167";"127.1013994";"https://maps.google.com/?cid=0x0:0x4f2d6733b1c36a36";""
"home improvement";"Praktisi Pengobatan Alternatif";"Pusat Minyak Kayu Putih Murni Asli Namlea Pulau Buru";"Jln, Pertamina, Bandar Angin, Kec. Namlea, Kabupaten Buru, Maluku 97571";"Pertamina, Bandar Angin, Kec. Namlea, Kabupaten Buru";"MALUKU";"97571";"Indonesia";" 083160635299";"";"";"-3.2687434";"127.0928415";"https://maps.google.com/?cid=0x0:0x882f273bfa91f545";""
"home improvement";"Pembangunan Perumahan";"Izan Home";"P3WX+6GC, Jl. SMK 7, Namlea, Kec. Namlea, Kabupaten Buru, Maluku";"Kabupaten Buru, Maluku";"MALUKU";"";"Indonesia";"";"";"";"-3.2549508";"127.098401";"https://maps.google.com/?cid=0x0:0xeea9de00c3f05939";""
"home improvement";"Toko Alat Tulis Kantor";"TOKO MD NAMLEA";"Jl.BTN TATANGGO No.1, Namlea, Kec. Namlea, Kabupaten Buru, Maluku";"Kabupaten Buru, Maluku";"MALUKU";"";"Indonesia";"";"";"";"-3.2575312";"127.0881969";"https://maps.google.com/?cid=0x0:0xd4815afc1695a214";""
"home improvement";"Toko Mebel";"Toko Lia Indah";"Q32V+JMR, Unnamed Road, Namlea, Kec. Namlea, Kabupaten Buru, Maluku";"Kabupaten Buru, Maluku";"MALUKU";"";"Indonesia";"";"";"";"-3.2483927";"127.0941356";"https://maps.google.com/?cid=0x0:0xec0c35930fc41d29";""
"home improvement";"Toko";"TOKO FAJAR MAS";"P3CX+R5Q, Namlea, Kec. Namlea, Kabupaten Buru, Maluku";"Kabupaten Buru, Maluku";"MALUKU";"";"Indonesia";" 081316222080";"";"";"-3.2779017";"127.0979019";"https://maps.google.com/?cid=0x0:0xce7d9cbd242800a3";""
"home improvement";"Toko Perlengkapan Rumah";"TB GALLERY";"P3GX+GP2, Namlea, Kec. Namlea, Kabupaten Buru, Maluku";"Kabupaten Buru, Maluku";"MALUKU";"";"Indonesia";"";"";"";"-3.2737429";"127.0992549";"https://maps.google.com/?cid=0x0:0x226494b9d0fa651";""
"home improvement";"Toko bahan makanan";"HMS RISKY";"P4P3+93M, Unnamed Road, Namlea, Kec. Namlea, Kabupaten Buru, Maluku";"Kabupaten Buru, Maluku";"MALUKU";"";"Indonesia";"";"";"";"-3.2640309";"127.1026598";"https://maps.google.com/?cid=0x0:0x3a8c3d3a2d5085e9";""
"home improvement";"Toko";"Toko fayra";"P4G3+7HF, Jl. Kampus Iqra Buru, Namlea, Kec. Namlea, Kabupaten Buru, Maluku";"Kabupaten Buru, Maluku";"MALUKU";"";"Indonesia";" 082332925872";"";"";"-3.2743246";"127.10392";"https://maps.google.com/?cid=0x0:0xdceb1e75532724eb";""
"home improvement";"Komplek perumahan";"Kimmy home";"Q492+5G2, Perumnas, Lala, Kec. Namlea, Kabupaten Buru, Maluku";"Kabupaten Buru, Maluku";"MALUKU";"";"Indonesia";"";"";"";"-3.2321232";"127.1012609";"https://maps.google.com/?cid=0x0:0x7f0e910c5298d367";""
"home improvement";"Komplek perumahan";"Iyan Marasabessy Home";"P3WX+646, Unnamed Road, Namlea, Kec. Namlea, Kabupaten Buru, Maluku";"Kabupaten Buru, Maluku";"MALUKU";"";"Indonesia";"";"";"";"-3.2544631";"127.0977724";"https://maps.google.com/?cid=0x0:0x24de8642c176995e";""
"home improvement";"Komplek perumahan";"Eby home";"P3WR+8CC, Namlea, Kec. Namlea, Kabupaten Buru, Maluku";"Kabupaten Buru, Maluku";"MALUKU";"";"Indonesia";"";"";"";"-3.2541102";"127.0911155";"https://maps.google.com/?cid=0x0:0x3c50094ddf715206";""
"home improvement";"Jasa Konstruksi dan Bangunan";"Bengkel las flamboyan";"Namlea, Kec. Waeapo, Kabupaten Buru, Maluku Utara";"Kabupaten Buru, Maluku Utara";"MALUKU";"";"Indonesia";" 082396006376";"";"";"-3.233398";"127.085899";"https://maps.google.com/?cid=0x0:0x31171ed479c700bc";""
"home improvement";"home improvement";"N/A";"";"";"MALUKU";"";"Indonesia";"";"";"";"";"";"https://maps.google.com/?cid=0x0:0xfabb1de62994f5b6";""
"home improvement";"home improvement";"N/A";"";"";"MALUKU";"";"Indonesia";"";"";"";"";"";"https://maps.google.com/?cid=0x0:0x69153d22b15aaf2";""
"home improvement";"home improvement";"N/A";"";"";"MALUKU";"";"Indonesia";"";"";"";"";"";"https://maps.google.com/?cid=0x0:0xdceb1e75532724eb";""
"home improvement";"home improvement";"N/A";"";"";"MALUKU";"";"Indonesia";"";"";"";"";"";"https://maps.google.com/?cid=0x0:0x7a12444bf77aabcb";""
"home improvement";"home improvement";"N/A";"";"";"MALUKU";"";"Indonesia";"";"";"";"";"";"https://maps.google.com/?cid=0x0:0xf83f0231b9a9b5fd";""
"home improvement";"home improvement";"N/A";"";"";"MALUKU";"";"Indonesia";"";"";"";"";"";"https://maps.google.com/?cid=0x0:0x1a9ec9ef4e15c2de";""
"home improvement";"home improvement";"N/A";"";"";"MALUKU";"";"Indonesia";"";"";"";"";"";"https://maps.google.com/?cid=0x0:0x705bbe1d1946b70b";""
"home improvement";"home improvement";"N/A";"";"";"MALUKU";"";"Indonesia";"";"";"";"";"";"https://maps.google.com/?cid=0x0:0x9433539cc4aa5eaf";""
"home improvement";"home improvement";"N/A";"";"";"MALUKU";"";"Indonesia";"";"";"";"";"";"https://maps.google.com/?cid=0x0:0x165cbbf869d197bf";""
"home improvement";"home improvement";"N/A";"";"";"MALUKU";"";"Indonesia";"";"";"";"";"";"https://maps.google.com/?cid=0x0:0x11f7366046c704ba";""
"home improvement";"home improvement";"N/A";"";"";"MALUKU";"";"Indonesia";"";"";"";"";"";"https://maps.google.com/?cid=0x0:0xa108369a69306737";""
"home improvement";"home improvement";"N/A";"";"";"MALUKU";"";"Indonesia";"";"";"";"";"";"https://maps.google.com/?cid=0x0:0xbd920a24abdb7eed";""
"home improvement";"home improvement";"N/A";"";"";"MALUKU";"";"Indonesia";"";"";"";"";"";"https://maps.google.com/?cid=0x0:0x7dd073170585614c";""
"home improvement";"home improvement";"N/A";"";"";"MALUKU";"";"Indonesia";"";"";"";"";"";"https://maps.google.com/?cid=0x0:0x399ab8531fbf4de9";""
"home improvement";"home improvement";"N/A";"";"";"MALUKU";"";"Indonesia";"";"";"";"";"";"https://maps.google.com/?cid=0x0:0x7f780225044b18c5";""
"home improvement";"home improvement";"N/A";"";"";"MALUKU";"";"Indonesia";"";"";"";"";"";"https://maps.google.com/?cid=0x0:0x4d2e61629ea407b9";""
"home improvement";"home improvement";"N/A";"";"";"MALUKU";"";"Indonesia";"";"";"";"";"";"https://maps.google.com/?cid=0x0:0x5e30e8db04649a51";""
"home improvement";"home improvement";"N/A";"";"";"MALUKU";"";"Indonesia";"";"";"";"";"";"https://maps.google.com/?cid=0x0:0x705bbe1d1946b70b";""
"home improvement";"home improvement";"N/A";"";"";"MALUKU";"";"Indonesia";"";"";"";"";"";"https://maps.google.com/?cid=0x0:0xd5c06f16d8212c44";""
"home improvement";"home improvement";"N/A";"";"";"MALUKU";"";"Indonesia";"";"";"";"";"";"https://maps.google.com/?cid=0x0:0xc1549bff37bdfd3d";""
"home improvement";"home improvement";"N/A";"";"";"MALUKU";"";"Indonesia";"";"";"";"";"";"https://maps.google.com/?cid=0x0:0x41d8062c030f5fac";""
"home improvement";"home improvement";"N/A";"";"";"MALUKU";"";"Indonesia";"";"";"";"";"";"https://maps.google.com/?cid=0x0:0x5e30e8db04649a51";""
"home improvement";"home improvement";"N/A";"";"";"MALUKU";"";"Indonesia";"";"";"";"";"";"https://maps.google.com/?cid=0x0:0xc8bda9336ec755b2";""
"home improvement";"home improvement";"N/A";"";"";"MALUKU";"";"Indonesia";"";"";"";"";"";"https://maps.google.com/?cid=0x0:0x85768b108b83bc67";""
"home improvement";"home improvement";"N/A";"";"";"MALUKU";"";"Indonesia";"";"";"";"";"";"https://maps.google.com/?cid=0x0:0x2b6897e02e6b94f";""
"home improvement";"home improvement";"N/A";"";"";"MALUKU";"";"Indonesia";"";"";"";"";"";"https://maps.google.com/?cid=0x0:0xf4e5d69f3ca1011f";""
"home improvement";"home improvement";"N/A";"";"";"MALUKU";"";"Indonesia";"";"";"";"";"";"https://maps.google.com/?cid=0x0:0x705bbe1d1946b70b";""
"home improvement";"home improvement";"N/A";"";"";"MALUKU";"";"Indonesia";"";"";"";"";"";"https://maps.google.com/?cid=0x0:0xa4098f1c5783ea97";""
"home improvement";"home improvement";"N/A";"";"";"MALUKU";"";"Indonesia";"";"";"";"";"";"https://maps.google.com/?cid=0x0:0x69153d22b15aaf2";""
"home improvement";"home improvement";"N/A";"";"";"MALUKU";"";"Indonesia";"";"";"";"";"";"https://maps.google.com/?cid=0x0:0xc8bda9336ec755b2";""
