Category;Real Category;Business Name;Address;City;State;Postal Code;Country;Phone;Email;Website;Latitude;Longitude;Map Link;Details Link
"mall";"mall";"Sumatera Selatan 31611";"Kota Lubuklinggau, Sumatera Selatan";"Kota Lubuklinggau, Sumatera Selatan";"SUMATERA SELATAN";"";"Indonesia";"";"";"";"-3.2702468";"102.8457316";"https://maps.google.com/?cid=0x0:0xcddd419871e601f5";""
"mall";"Pusat Perbelanjaan";"Lippo Plaza Lubuklinggau";"Jl. Yos Sudarso No.31, Taba Jemekeh, Kec. Lubuk Linggau Tim. II, Kota Lubuklinggau, Sumatera Selatan 31613";"Taba Jemekeh, Kec. Lubuk Linggau Tim. II, Kota Lubuklinggau";"SUMATERA SELATAN";"31613";"Indonesia";"";"";"";"-3.2879773";"102.8777476";"https://maps.google.com/?cid=0x0:0x44910cb5dec7223c";""
"mall";"Pusat Perbelanjaan";"Garasi Kids";"Lippo Mall Lubuklinggau Lantai basement Area Hypermart) timur 1. Lubuklinggau, Jl. Yos Sudarso, Taba Jemekeh, Lubuk Linggau Timur I, Lubuklinggau City, South Sumatra 31613";"Jl. Yos Sudarso, Taba Jemekeh, Lubuk Linggau Timur I, Lubuklinggau City";"SUMATERA SELATAN";"31613";"Indonesia";" 081278351314";"";"";"-3.2879691";"102.8779282";"https://maps.google.com/?cid=0x0:0x29c1bab15a7059d6";""
"mall";"Toko Elektronik";"SERLI PELANGI GROSIR";"Jl. Lakitan No.102, Ps. Satelit, Kec. Lubuk Linggau Utara II, Kota Lubuklinggau, Sumatera Selatan 31613";"Ps. Satelit, Kec. Lubuk Linggau Utara II, Kota Lubuklinggau";"SUMATERA SELATAN";"31613";"Indonesia";"";"";"";"-3.2858825";"102.8594052";"https://maps.google.com/?cid=0x0:0xecea0dbf39e580fe";""
"mall";"Pusat Perbelanjaan";"Llg";"MVX5+3WH, Jl. Letkol Atmo, Sukajadi, Kec. Lubuk Linggau Bar. I, Kota Lubuklinggau, Sumatera Selatan 31614";"Jl. Letkol Atmo, Sukajadi, Kec. Lubuk Linggau Bar. I, Kota Lubuklinggau";"SUMATERA SELATAN";"31614";"Indonesia";"";"";"";"-3.3023029";"102.8598663";"https://maps.google.com/?cid=0x0:0x5b6f3757db136ec8";""
"mall";"Toko";"HERO Cell Linggau";"Jl. Jendral Sudirman, Ps. Satelit, Kec. Lubuk Linggau Utara II, Kota Lubuklinggau, Sumatera Selatan 31613";"Ps. Satelit, Kec. Lubuk Linggau Utara II, Kota Lubuklinggau";"SUMATERA SELATAN";"31613";"Indonesia";" 082279192090";"";"";"-3.2844247";"102.8617002";"https://maps.google.com/?cid=0x0:0x2f69e4a5e196294d";""
"mall";"Pedagang tekstil";"Matahari Department Store Lubuklinggau";"Jl. Yos Sudarso, Taba Jemekeh, Kec. Lubuk Linggau Tim. I, Kota Lubuklinggau, Sumatera Selatan 31631";"Taba Jemekeh, Kec. Lubuk Linggau Tim. I, Kota Lubuklinggau";"SUMATERA SELATAN";"31631";"Indonesia";" 0733328406";"";"";"-3.2876287";"102.877649";"https://maps.google.com/?cid=0x0:0x63b9d15c7e48213";""
"mall";"Pusat Perbelanjaan";"Cinépolis Lippo Plaza Lubuklinggau";"Lippo Plaza Lubuklinggau Jl. Yos SudarsoTaba Jemekeh, Taba Jemekeh, Kec. Lubuk Linggau Tim. I, Kota Lubuklinggau, Sumatera Selatan 31613";"Taba Jemekeh, Kec. Lubuk Linggau Tim. I, Kota Lubuklinggau";"SUMATERA SELATAN";"31613";"Indonesia";" 07333283010";"";"";"-3.2865205";"102.877555";"https://maps.google.com/?cid=0x0:0xa73f271551314321";""
"mall";"Pusat Perbelanjaan";"Hypermart - Lippo Plaza Lubuklinggau";"Lippo Plaza, Jl. Yos Sudarso No.765, Taba Jemekeh, Kec. Lubuk Linggau Tim. I, Kota Lubuklinggau, Sumatera Selatan 31628";"Jl. Yos Sudarso No.765, Taba Jemekeh, Kec. Lubuk Linggau Tim. I, Kota Lubuklinggau";"SUMATERA SELATAN";"31628";"Indonesia";" 07333281366";"";"";"-3.2875752";"102.8776077";"https://maps.google.com/?cid=0x0:0xca1a0c8b0d31cb09";""
"mall";"Pusat Perbelanjaan";"Fifialstore (Warung Nasi Buk Ani)";"Jl. Diponegoro No.116, RT.1, Majapahit, Kec. Lubuk Linggau Tim. I, Kota Lubuklinggau, Sumatera Selatan 31625";"RT.1, Majapahit, Kec. Lubuk Linggau Tim. I, Kota Lubuklinggau";"SUMATERA SELATAN";"31625";"Indonesia";" 085212523109";"";"";"-3.2745756";"102.9049553";"https://maps.google.com/?cid=0x0:0x5cb372c2c033e8ce";""
"mall";"Hipermarket";"JM Linggau";"PV6H+QFV, Jl. Yos Sudarso, Taba Koji, Kec. Lubuk Linggau Tim. I, Kota Lubuklinggau, Sumatera Selatan 31624";"Jl. Yos Sudarso, Taba Koji, Kec. Lubuk Linggau Tim. I, Kota Lubuklinggau";"SUMATERA SELATAN";"31624";"Indonesia";" 07337329377";"";"";"-3.2880081";"102.8786765";"https://maps.google.com/?cid=0x0:0x60458b8d77f3a012";""
"mall";"mall";"N/A";"";"";"SUMATERA SELATAN";"";"Indonesia";"";"";"";"";"";"https://maps.google.com/?cid=0x0:0x8ae599c134802184%7C/g/11h3c_j44d%7Cen-ID";""
"mall";"mall";"WE Hotel Lubuk Linggau";"Jl. Yos Sudarso No.70, RW.72, Taba Jemekeh, Kec. Lubuk Linggau Tim. I, Kota Lubuklinggau, Sumatera Selatan 31625";"RW.72, Taba Jemekeh, Kec. Lubuk Linggau Tim. I, Kota Lubuklinggau";"SUMATERA SELATAN";"31625";"Indonesia";" 07333286777";"";"";"-3.2874168";"102.8787931";"https://maps.google.com/?cid=0x0:0x8ae599c134802184";""
"mall";"Tujuan Wisata";"Wisata Alam Bukit Sulap Taman Nasional Kerinci Seblat";"Jl. Bengawan Solo No.RT 10, Ulak Surung, Kec. Lubuk Linggau Utara II, Kota Lubuklinggau, Sumatera Selatan 31617";"Ulak Surung, Kec. Lubuk Linggau Utara II, Kota Lubuklinggau";"SUMATERA SELATAN";"31617";"Indonesia";"";"";"";"-3.2858711";"102.8569352";"https://maps.google.com/?cid=0x0:0xa3d10db2fea3182e";""
"mall";"Tujuan Wisata";"Air Terjun Temam";"Jl. Air Temam, Rahmah, Kec. Lubuk Linggau Sel. I, Kota Lubuklinggau, Sumatera Selatan 31600";"Rahmah, Kec. Lubuk Linggau Sel. I, Kota Lubuklinggau";"SUMATERA SELATAN";"31600";"Indonesia";" 082175182223";"";"";"-3.2935625";"102.9300625";"https://maps.google.com/?cid=0x0:0x24b5109c6d325f46";""
"mall";"mall";"Grand Zuri Lubuklinggau by ZHM";"Jl. Yos Sudarso No.1, Batu Urip Taba, Kec. Lubuk Linggau Tim. I, Kota Lubuklinggau, Sumatera Selatan 31624";"Batu Urip Taba, Kec. Lubuk Linggau Tim. I, Kota Lubuklinggau";"SUMATERA SELATAN";"31624";"Indonesia";" 07337070222";"";"";"-3.2819357";"102.8889477";"https://maps.google.com/?cid=0x0:0xb9d17d256db8fc0d";""
"mall";"Kantor Pemerintah";"Kantor Kecamatan Lubuklinggau Barat I";"MRHP+Q5M, Kayu Ara, Kec. Lubuk Linggau Bar. I, Kota Lubuklinggau, Sumatera Selatan 31615";"Kayu Ara, Kec. Lubuk Linggau Bar. I, Kota Lubuklinggau";"SUMATERA SELATAN";"31615";"Indonesia";"";"";"";"-3.3205393";"102.8354327";"https://maps.google.com/?cid=0x0:0xd8d85e8e6e3e3cce";""
"mall";"Kedai Kopi";"BARCHETTA";"Lippo Plaza, Ground Floor, Jl. Yos Sudarso, Taba Koji, Kec. Lubuk Linggau Tim. I, Kota Lubuklinggau, Sumatera Selatan 31628";"Ground Floor, Jl. Yos Sudarso, Taba Koji, Kec. Lubuk Linggau Tim. I, Kota Lubuklinggau";"SUMATERA SELATAN";"31628";"Indonesia";" 07333281283";"";"";"-3.2869796";"102.8775329";"https://maps.google.com/?cid=0x0:0xa31a8c2c71481627";""
"mall";"Toko Pakaian";"GITA OLSHOP";"Jalan Al Mutiara 1 No.80, Nikan Jaya, Kec. Lubuk Linggau Tim. I, Kota Lubuklinggau, Sumatera Selatan 31625";"Nikan Jaya, Kec. Lubuk Linggau Tim. I, Kota Lubuklinggau";"SUMATERA SELATAN";"31625";"Indonesia";" 083802602836";"";"";"-3.287475";"102.9105847";"https://maps.google.com/?cid=0x0:0x15fbc96e5f37b2d5";""
"mall";"Minimarket";"Alfamart Depati Said";"Jl. Depati Said No.12, RT.05, Lubaklinggau Ulu, Kec. Lubuk Linggau Bar. II, Kota Lubuklinggau, Sumatera Selatan 31626";"RT.05, Lubaklinggau Ulu, Kec. Lubuk Linggau Bar. II, Kota Lubuklinggau";"SUMATERA SELATAN";"31626";"Indonesia";" 1500959";"";"";"-3.2913768";"102.8594959";"https://maps.google.com/?cid=0x0:0xf6ca8ae62fab1113";""
"mall";"Pusat Perbelanjaan";"SERLI PELANGI";"Ulak Surung, Kec. Lubuk Linggau Utara II, Kota Lubuklinggau, Sumatera Selatan 31613";"Kec. Lubuk Linggau Utara II, Kota Lubuklinggau";"SUMATERA SELATAN";"31613";"Indonesia";" 082282022163";"";"";"-3.2851804";"102.8588653";"https://maps.google.com/?cid=0x0:0x1a6e08585dd8a9de";""
"mall";"Makanan Siap Saji";"Richeese Factory Lubuklinggau";"Taba Jemekeh, Kec. Lubuk Linggau Tim. I, Kota Lubuklinggau, Sumatera Selatan 31613";"Kec. Lubuk Linggau Tim. I, Kota Lubuklinggau";"SUMATERA SELATAN";"31613";"Indonesia";"";"";"";"-3.2871438";"102.8775477";"https://maps.google.com/?cid=0x0:0xf87295c6f0d4eb37";""
"mall";"Toko Perlengkapan Rumah";"Mitra Bangunan Supermarket Lubuk Linggau";"Watervang, Kec. Lubuk Linggau Tim. I, Kota Lubuklinggau, Sumatera Selatan 31625";"Kec. Lubuk Linggau Tim. I, Kota Lubuklinggau";"SUMATERA SELATAN";"31625";"Indonesia";"";"";"";"-3.2756118";"102.9003116";"https://maps.google.com/?cid=0x0:0x9741dde2cf1035e";""
"mall";"mall";"Kec. Lubuk Linggau Bar. I";"Kota Lubuklinggau, Sumatera Selatan";"Kota Lubuklinggau, Sumatera Selatan";"SUMATERA SELATAN";"";"Indonesia";"";"";"";"-3.307821";"102.8464942";"https://maps.google.com/?cid=0x0:0x1ef773457c9af524";""
"mall";"Kafe";"Satu Hal Indonesia Coffee  Space Vol.002";"Jl. Garuda, Bandung Ujung, Kec. Lubuk Linggau Bar. I, Kota Lubuklinggau, Sumatera Selatan 31611";"Bandung Ujung, Kec. Lubuk Linggau Bar. I, Kota Lubuklinggau";"SUMATERA SELATAN";"31611";"Indonesia";" 082290555168";"";"";"-3.3023655";"102.8541804";"https://maps.google.com/?cid=0x0:0xeefe84a51f241f10";""
"mall";"mall";"Sumatera Selatan 31613";"Kota Lubuklinggau, Sumatera Selatan";"Kota Lubuklinggau, Sumatera Selatan";"SUMATERA SELATAN";"";"Indonesia";"";"";"";"-3.3091164";"102.8802479";"https://maps.google.com/?cid=0x0:0xb00fbf7ff80b17ba";""
"mall";"Pusat Perbelanjaan";"Lippo Plaza Lubuklinggau";"Jl. Yos Sudarso No.31, Taba Jemekeh, Kec. Lubuk Linggau Tim. II, Kota Lubuklinggau, Sumatera Selatan 31613";"Taba Jemekeh, Kec. Lubuk Linggau Tim. II, Kota Lubuklinggau";"SUMATERA SELATAN";"31613";"Indonesia";"";"";"";"-3.2879773";"102.8777476";"https://maps.google.com/?cid=0x0:0x44910cb5dec7223c";""
"mall";"Pusat Perbelanjaan";"Llg";"MVX5+3WH, Jl. Letkol Atmo, Sukajadi, Kec. Lubuk Linggau Bar. I, Kota Lubuklinggau, Sumatera Selatan 31614";"Jl. Letkol Atmo, Sukajadi, Kec. Lubuk Linggau Bar. I, Kota Lubuklinggau";"SUMATERA SELATAN";"31614";"Indonesia";"";"";"";"-3.3023029";"102.8598663";"https://maps.google.com/?cid=0x0:0x5b6f3757db136ec8";""
"mall";"Pusat Perbelanjaan";"Cinépolis Lippo Plaza Lubuklinggau";"Lippo Plaza Lubuklinggau Jl. Yos SudarsoTaba Jemekeh, Taba Jemekeh, Kec. Lubuk Linggau Tim. I, Kota Lubuklinggau, Sumatera Selatan 31613";"Taba Jemekeh, Kec. Lubuk Linggau Tim. I, Kota Lubuklinggau";"SUMATERA SELATAN";"31613";"Indonesia";" 07333283010";"";"";"-3.2865205";"102.877555";"https://maps.google.com/?cid=0x0:0xa73f271551314321";""
"mall";"Pedagang tekstil";"Matahari Department Store Lubuklinggau";"Jl. Yos Sudarso, Taba Jemekeh, Kec. Lubuk Linggau Tim. I, Kota Lubuklinggau, Sumatera Selatan 31631";"Taba Jemekeh, Kec. Lubuk Linggau Tim. I, Kota Lubuklinggau";"SUMATERA SELATAN";"31631";"Indonesia";" 0733328406";"";"";"-3.2876287";"102.877649";"https://maps.google.com/?cid=0x0:0x63b9d15c7e48213";""
"mall";"Pusat Perbelanjaan";"Hypermart - Lippo Plaza Lubuklinggau";"Lippo Plaza, Jl. Yos Sudarso No.765, Taba Jemekeh, Kec. Lubuk Linggau Tim. I, Kota Lubuklinggau, Sumatera Selatan 31628";"Jl. Yos Sudarso No.765, Taba Jemekeh, Kec. Lubuk Linggau Tim. I, Kota Lubuklinggau";"SUMATERA SELATAN";"31628";"Indonesia";" 07333281366";"";"";"-3.2875752";"102.8776077";"https://maps.google.com/?cid=0x0:0xca1a0c8b0d31cb09";""
"mall";"Toko";"HERO Cell Linggau";"Jl. Jendral Sudirman, Ps. Satelit, Kec. Lubuk Linggau Utara II, Kota Lubuklinggau, Sumatera Selatan 31613";"Ps. Satelit, Kec. Lubuk Linggau Utara II, Kota Lubuklinggau";"SUMATERA SELATAN";"31613";"Indonesia";" 082279192090";"";"";"-3.2844247";"102.8617002";"https://maps.google.com/?cid=0x0:0x2f69e4a5e196294d";""
"mall";"Pusat Perbelanjaan";"SERLI PELANGI";"Ulak Surung, Kec. Lubuk Linggau Utara II, Kota Lubuklinggau, Sumatera Selatan 31613";"Kec. Lubuk Linggau Utara II, Kota Lubuklinggau";"SUMATERA SELATAN";"31613";"Indonesia";" 082282022163";"";"";"-3.2851804";"102.8588653";"https://maps.google.com/?cid=0x0:0x1a6e08585dd8a9de";""
"mall";"mall";"Kec. Lubuk Linggau Bar. I";"Kota Lubuklinggau, Sumatera Selatan";"Kota Lubuklinggau, Sumatera Selatan";"SUMATERA SELATAN";"";"Indonesia";"";"";"";"-3.307821";"102.8464942";"https://maps.google.com/?cid=0x0:0x1ef773457c9af524";""
"mall";"Kafe";"Satu Hal Indonesia Coffee  Space Vol.002";"Jl. Garuda, Bandung Ujung, Kec. Lubuk Linggau Bar. I, Kota Lubuklinggau, Sumatera Selatan 31611";"Bandung Ujung, Kec. Lubuk Linggau Bar. I, Kota Lubuklinggau";"SUMATERA SELATAN";"31611";"Indonesia";" 082290555168";"";"";"-3.3023655";"102.8541804";"https://maps.google.com/?cid=0x0:0xeefe84a51f241f10";""
"mall";"Pusat Perbelanjaan";"Garasi Kids";"Lippo Mall Lubuklinggau Lantai basement Area Hypermart) timur 1. Lubuklinggau, Jl. Yos Sudarso, Taba Jemekeh, Lubuk Linggau Timur I, Lubuklinggau City, South Sumatra 31613";"Jl. Yos Sudarso, Taba Jemekeh, Lubuk Linggau Timur I, Lubuklinggau City";"SUMATERA SELATAN";"31613";"Indonesia";" 081278351314";"";"";"-3.2879691";"102.8779282";"https://maps.google.com/?cid=0x0:0x29c1bab15a7059d6";""
"mall";"mall";"Sumatera Selatan 31614";"Kota Lubuklinggau, Sumatera Selatan";"Kota Lubuklinggau, Sumatera Selatan";"SUMATERA SELATAN";"";"Indonesia";"";"";"";"-3.2261197";"102.8399799";"https://maps.google.com/?cid=0x0:0x66d917092d5bfc72";""
"mall";"Pusat Perbelanjaan";"Lippo Plaza Lubuklinggau";"Jl. Yos Sudarso No.31, Taba Jemekeh, Kec. Lubuk Linggau Tim. II, Kota Lubuklinggau, Sumatera Selatan 31613";"Taba Jemekeh, Kec. Lubuk Linggau Tim. II, Kota Lubuklinggau";"SUMATERA SELATAN";"31613";"Indonesia";"";"";"";"-3.2879773";"102.8777476";"https://maps.google.com/?cid=0x0:0x44910cb5dec7223c";""
"mall";"Pusat Perbelanjaan";"Llg";"MVX5+3WH, Jl. Letkol Atmo, Sukajadi, Kec. Lubuk Linggau Bar. I, Kota Lubuklinggau, Sumatera Selatan 31614";"Jl. Letkol Atmo, Sukajadi, Kec. Lubuk Linggau Bar. I, Kota Lubuklinggau";"SUMATERA SELATAN";"31614";"Indonesia";"";"";"";"-3.3023029";"102.8598663";"https://maps.google.com/?cid=0x0:0x5b6f3757db136ec8";""
"mall";"Pusat Perbelanjaan";"Hypermart - Lippo Plaza Lubuklinggau";"Lippo Plaza, Jl. Yos Sudarso No.765, Taba Jemekeh, Kec. Lubuk Linggau Tim. I, Kota Lubuklinggau, Sumatera Selatan 31628";"Jl. Yos Sudarso No.765, Taba Jemekeh, Kec. Lubuk Linggau Tim. I, Kota Lubuklinggau";"SUMATERA SELATAN";"31628";"Indonesia";" 07333281366";"";"";"-3.2875752";"102.8776077";"https://maps.google.com/?cid=0x0:0xca1a0c8b0d31cb09";""
"mall";"Hipermarket";"JM Linggau";"PV6H+QFV, Jl. Yos Sudarso, Taba Koji, Kec. Lubuk Linggau Tim. I, Kota Lubuklinggau, Sumatera Selatan 31624";"Jl. Yos Sudarso, Taba Koji, Kec. Lubuk Linggau Tim. I, Kota Lubuklinggau";"SUMATERA SELATAN";"31624";"Indonesia";" 07337329377";"";"";"-3.2880081";"102.8786765";"https://maps.google.com/?cid=0x0:0x60458b8d77f3a012";""
"mall";"Pusat Perbelanjaan";"Cinépolis Lippo Plaza Lubuklinggau";"Lippo Plaza Lubuklinggau Jl. Yos SudarsoTaba Jemekeh, Taba Jemekeh, Kec. Lubuk Linggau Tim. I, Kota Lubuklinggau, Sumatera Selatan 31613";"Taba Jemekeh, Kec. Lubuk Linggau Tim. I, Kota Lubuklinggau";"SUMATERA SELATAN";"31613";"Indonesia";" 07333283010";"";"";"-3.2865205";"102.877555";"https://maps.google.com/?cid=0x0:0xa73f271551314321";""
"mall";"Toko";"HERO Cell Linggau";"Jl. Jendral Sudirman, Ps. Satelit, Kec. Lubuk Linggau Utara II, Kota Lubuklinggau, Sumatera Selatan 31613";"Ps. Satelit, Kec. Lubuk Linggau Utara II, Kota Lubuklinggau";"SUMATERA SELATAN";"31613";"Indonesia";" 082279192090";"";"";"-3.2844247";"102.8617002";"https://maps.google.com/?cid=0x0:0x2f69e4a5e196294d";""
"mall";"Pedagang tekstil";"Matahari Department Store Lubuklinggau";"Jl. Yos Sudarso, Taba Jemekeh, Kec. Lubuk Linggau Tim. I, Kota Lubuklinggau, Sumatera Selatan 31631";"Taba Jemekeh, Kec. Lubuk Linggau Tim. I, Kota Lubuklinggau";"SUMATERA SELATAN";"31631";"Indonesia";" 0733328406";"";"";"-3.2876287";"102.877649";"https://maps.google.com/?cid=0x0:0x63b9d15c7e48213";""
"mall";"Pusat Perbelanjaan";"Fitra_Olshop14.id";"Jl. Bangau No.16 2Kota, Keputraan, Kec. Lubuk Linggau Bar. II, Kota Lubuklinggau, Sumatera Selatan 31614";"Keputraan, Kec. Lubuk Linggau Bar. II, Kota Lubuklinggau";"SUMATERA SELATAN";"31614";"Indonesia";" 0895631731161";"";"";"-3.297041";"102.8555748";"https://maps.google.com/?cid=0x0:0x22ffb0eed2f53c7a";""
"mall";"mall";"WE Hotel Lubuk Linggau";"Jl. Yos Sudarso No.70, RW.72, Taba Jemekeh, Kec. Lubuk Linggau Tim. I, Kota Lubuklinggau, Sumatera Selatan 31625";"RW.72, Taba Jemekeh, Kec. Lubuk Linggau Tim. I, Kota Lubuklinggau";"SUMATERA SELATAN";"31625";"Indonesia";" 07333286777";"";"";"-3.2874168";"102.8787931";"https://maps.google.com/?cid=0x0:0x8ae599c134802184";""
"mall";"mall";"N/A";"";"";"SUMATERA SELATAN";"";"Indonesia";"";"";"";"";"";"https://maps.google.com/?cid=0x0:0x8ae599c134802184%7C/g/11h3c_j44d%7Cen-ID";""
"mall";"mall";"HOTEL AURA";"Jl. Yos Sudarso, Taba Jemekeh, Kec. Lubuk Linggau Tim. I, Kota Lubuklinggau, Sumatera Selatan 31624";"Taba Jemekeh, Kec. Lubuk Linggau Tim. I, Kota Lubuklinggau";"SUMATERA SELATAN";"31624";"Indonesia";" 089632684191";"";"";"-3.2845142";"102.8850475";"https://maps.google.com/?cid=0x0:0x805e6d8a3a4fb08";""
"mall";"mall";"SMart Hotel Lubuklinggau";"Jl. Yos Sudarso, Jawa Kanan Ss, Kec. Lubuk Linggau Tim. II, Kota Lubuklinggau, Sumatera Selatan 31621";"Jawa Kanan Ss, Kec. Lubuk Linggau Tim. II, Kota Lubuklinggau";"SUMATERA SELATAN";"31621";"Indonesia";" 0733320000";"";"";"-3.2952549";"102.8667876";"https://maps.google.com/?cid=0x0:0xb10a21c176d5ba15";""
"mall";"mall";"Burza Hotel Lubuklinggau";"Jl. Yos Sudarso No.143, Watervang, Kec. Lubuk Linggau Tim. I, Kota Lubuklinggau, Sumatera Selatan 31628";"Watervang, Kec. Lubuk Linggau Tim. I, Kota Lubuklinggau";"SUMATERA SELATAN";"31628";"Indonesia";" 07333280088";"";"";"-3.2776032";"102.8970972";"https://maps.google.com/?cid=0x0:0x4fb4e95f23ada624";""
"mall";"mall";"COZY STYLE HOTEL";"Jl. Yos Sudarso No.309, Dempo, Kec. Lubuk Linggau Tim. II, Kota Lubuklinggau, Sumatera Selatan 31613";"Dempo, Kec. Lubuk Linggau Tim. II, Kota Lubuklinggau";"SUMATERA SELATAN";"31613";"Indonesia";" 07333285555";"";"";"-3.2956599";"102.867082";"https://maps.google.com/?cid=0x0:0x78e03f7c22570a7a";""
"mall";"mall";"Hotel Lintas Sumatra";"Jl. Yos Sudarso No.21, Dempo, Kec. Lubuk Linggau Tim. II, Kota Lubuklinggau, Sumatera Selatan 31613";"Dempo, Kec. Lubuk Linggau Tim. II, Kota Lubuklinggau";"SUMATERA SELATAN";"31613";"Indonesia";" 0733321370";"";"";"-3.295268";"102.8675158";"https://maps.google.com/?cid=0x0:0xbb0c91d6ac6ab390";""
"mall";"mall";"Hotel Hakmaz Taba Lubuklinggau";"Jl. Yos Sudarso No.28, Majapahit, Kec. Lubuk Linggau Tim. I, Kota Lubuklinggau, Sumatera Selatan 31617";"Majapahit, Kec. Lubuk Linggau Tim. I, Kota Lubuklinggau";"SUMATERA SELATAN";"31617";"Indonesia";" 082128006576";"";"";"-3.2695926";"102.9100815";"https://maps.google.com/?cid=0x0:0xcd462dfb79459c73";""
"mall";"Tujuan Wisata";"Wisata Alam Bukit Sulap Taman Nasional Kerinci Seblat";"Jl. Bengawan Solo No.RT 10, Ulak Surung, Kec. Lubuk Linggau Utara II, Kota Lubuklinggau, Sumatera Selatan 31617";"Ulak Surung, Kec. Lubuk Linggau Utara II, Kota Lubuklinggau";"SUMATERA SELATAN";"31617";"Indonesia";"";"";"";"-3.2858711";"102.8569352";"https://maps.google.com/?cid=0x0:0xa3d10db2fea3182e";""
"mall";"mall";"Hotel Royal";"Jl. Yos Sudarso No.88, RT.2, Jawa Kanan Ss, Kec. Lubuk Linggau Tim. II, Kota Lubuklinggau, Sumatera Selatan 31613";"RT.2, Jawa Kanan Ss, Kec. Lubuk Linggau Tim. II, Kota Lubuklinggau";"SUMATERA SELATAN";"31613";"Indonesia";" 0733321685";"";"";"-3.2928011";"102.868875";"https://maps.google.com/?cid=0x0:0xd6909aa5df43306b";""
"mall";"Sekolah Menengah Umum";"MAN 1 (Model) Lubuk Linggau";"PV86+JJ6, Ps. Satelit, Kec. Lubuk Linggau Utara II, Kota Lubuklinggau, Sumatera Selatan 31613";"Ps. Satelit, Kec. Lubuk Linggau Utara II, Kota Lubuklinggau";"SUMATERA SELATAN";"31613";"Indonesia";" 0733322144";"";"";"-3.2834663";"102.8615081";"https://maps.google.com/?cid=0x0:0xd4e54b9f825aa758";""
"mall";"Kedai Kopi";"BARCHETTA";"Lippo Plaza, Ground Floor, Jl. Yos Sudarso, Taba Koji, Kec. Lubuk Linggau Tim. I, Kota Lubuklinggau, Sumatera Selatan 31628";"Ground Floor, Jl. Yos Sudarso, Taba Koji, Kec. Lubuk Linggau Tim. I, Kota Lubuklinggau";"SUMATERA SELATAN";"31628";"Indonesia";" 07333281283";"";"";"-3.2869796";"102.8775329";"https://maps.google.com/?cid=0x0:0xa31a8c2c71481627";""
"mall";"Restoran";"Cambel Cobek";"Jl. Garuda No.70, RT.1, Bandung Kanan, Kec. Lubuk Linggau Bar. I, Kota Lubuklinggau, Sumatera Selatan 31614";"RT.1, Bandung Kanan, Kec. Lubuk Linggau Bar. I, Kota Lubuklinggau";"SUMATERA SELATAN";"31614";"Indonesia";" 085268869291";"";"";"-3.2994766";"102.8578415";"https://maps.google.com/?cid=0x0:0xacfdb9a50bae5014";""
"mall";"Hostel";"Wisma Yovi";"Taba Koji, Kec. Lubuk Linggau Tim. I, Kota Lubuklinggau, Sumatera Selatan 31613";"Kec. Lubuk Linggau Tim. I, Kota Lubuklinggau";"SUMATERA SELATAN";"31613";"Indonesia";" 082179798207";"";"";"-3.2881608";"102.877146";"https://maps.google.com/?cid=0x0:0xe2eec262e6ba44f8";""
"mall";"mall";"Kec. Lubuk Linggau Bar. I";"Kota Lubuklinggau, Sumatera Selatan";"Kota Lubuklinggau, Sumatera Selatan";"SUMATERA SELATAN";"";"Indonesia";"";"";"";"-3.307821";"102.8464942";"https://maps.google.com/?cid=0x0:0x1ef773457c9af524";""
"mall";"Pusat Perbelanjaan";"Agenbasoacibapper_lubuklinggau";"PV9X+MQH, Watervang, Kec. Lubuk Linggau Tim. I, Kota Lubuklinggau, Sumatera Selatan 31625";"Watervang, Kec. Lubuk Linggau Tim. I, Kota Lubuklinggau";"SUMATERA SELATAN";"31625";"Indonesia";" 085366445144";"";"";"-3.2808127";"102.8994931";"https://maps.google.com/?cid=0x0:0x26ea0fda3f0459d1";""
"mall";"Kafe";"Satu Hal Indonesia Coffee  Space Vol.002";"Jl. Garuda, Bandung Ujung, Kec. Lubuk Linggau Bar. I, Kota Lubuklinggau, Sumatera Selatan 31611";"Bandung Ujung, Kec. Lubuk Linggau Bar. I, Kota Lubuklinggau";"SUMATERA SELATAN";"31611";"Indonesia";" 082290555168";"";"";"-3.3023655";"102.8541804";"https://maps.google.com/?cid=0x0:0xeefe84a51f241f10";""
"mall";"Pasar";"Agen Resmi Air Mineral Bioitesui Lubuklinggau";"Jl. Garuda No.Kelurahan, Barat 1, Lubuk Aman, Kecamatan Kota, Kota Lubuklinggau, Sumatera Selatan 31614";"Barat 1, Lubuk Aman, Kecamatan Kota, Kota Lubuklinggau";"SUMATERA SELATAN";"31614";"Indonesia";" 082278879588";"";"";"-3.30357";"102.8527029";"https://maps.google.com/?cid=0x0:0x7611210926b7b2bb";""
"mall";"mall";"Sumatera Selatan 31615";"Kec. Lubuk Linggau Bar. I, Kota Lubuklinggau, Sumatera Selatan";"Kota Lubuklinggau, Sumatera Selatan";"SUMATERA SELATAN";"";"Indonesia";"";"";"";"-3.2903549";"102.8112253";"https://maps.google.com/?cid=0x0:0x7ab255c49e507bc0";""
"mall";"Pusat Perbelanjaan";"Lippo Plaza Lubuklinggau";"Jl. Yos Sudarso No.31, Taba Jemekeh, Kec. Lubuk Linggau Tim. II, Kota Lubuklinggau, Sumatera Selatan 31613";"Taba Jemekeh, Kec. Lubuk Linggau Tim. II, Kota Lubuklinggau";"SUMATERA SELATAN";"31613";"Indonesia";"";"";"";"-3.2879773";"102.8777476";"https://maps.google.com/?cid=0x0:0x44910cb5dec7223c";""
"mall";"Pusat Perbelanjaan";"Llg";"MVX5+3WH, Jl. Letkol Atmo, Sukajadi, Kec. Lubuk Linggau Bar. I, Kota Lubuklinggau, Sumatera Selatan 31614";"Jl. Letkol Atmo, Sukajadi, Kec. Lubuk Linggau Bar. I, Kota Lubuklinggau";"SUMATERA SELATAN";"31614";"Indonesia";"";"";"";"-3.3023029";"102.8598663";"https://maps.google.com/?cid=0x0:0x5b6f3757db136ec8";""
"mall";"Toko Elektronik";"SERLI PELANGI GROSIR";"Jl. Lakitan No.102, Ps. Satelit, Kec. Lubuk Linggau Utara II, Kota Lubuklinggau, Sumatera Selatan 31613";"Ps. Satelit, Kec. Lubuk Linggau Utara II, Kota Lubuklinggau";"SUMATERA SELATAN";"31613";"Indonesia";"";"";"";"-3.2858825";"102.8594052";"https://maps.google.com/?cid=0x0:0xecea0dbf39e580fe";""
"mall";"Toko";"HERO Cell Linggau";"Jl. Jendral Sudirman, Ps. Satelit, Kec. Lubuk Linggau Utara II, Kota Lubuklinggau, Sumatera Selatan 31613";"Ps. Satelit, Kec. Lubuk Linggau Utara II, Kota Lubuklinggau";"SUMATERA SELATAN";"31613";"Indonesia";" 082279192090";"";"";"-3.2844247";"102.8617002";"https://maps.google.com/?cid=0x0:0x2f69e4a5e196294d";""
"mall";"Pusat Perbelanjaan";"Hypermart - Lippo Plaza Lubuklinggau";"Lippo Plaza, Jl. Yos Sudarso No.765, Taba Jemekeh, Kec. Lubuk Linggau Tim. I, Kota Lubuklinggau, Sumatera Selatan 31628";"Jl. Yos Sudarso No.765, Taba Jemekeh, Kec. Lubuk Linggau Tim. I, Kota Lubuklinggau";"SUMATERA SELATAN";"31628";"Indonesia";" 07333281366";"";"";"-3.2875752";"102.8776077";"https://maps.google.com/?cid=0x0:0xca1a0c8b0d31cb09";""
"mall";"Pasar";"Pasar Lubuklinggau";"PV37+CV3, Jl. Yos Sudarso, Jawa Kiri, Kec. Lubuk Linggau Tim. II, Kota Lubuklinggau, Sumatera Selatan 31613";"Jl. Yos Sudarso, Jawa Kiri, Kec. Lubuk Linggau Tim. II, Kota Lubuklinggau";"SUMATERA SELATAN";"31613";"Indonesia";" 083872654791";"";"";"-3.2964964";"102.8646808";"https://maps.google.com/?cid=0x0:0x356d0a951e734993";""
"mall";"Pedagang tekstil";"Matahari Department Store Lubuklinggau";"Jl. Yos Sudarso, Taba Jemekeh, Kec. Lubuk Linggau Tim. I, Kota Lubuklinggau, Sumatera Selatan 31631";"Taba Jemekeh, Kec. Lubuk Linggau Tim. I, Kota Lubuklinggau";"SUMATERA SELATAN";"31631";"Indonesia";" 0733328406";"";"";"-3.2876287";"102.877649";"https://maps.google.com/?cid=0x0:0x63b9d15c7e48213";""
"mall";"Pusat Perbelanjaan";"Lippo Plaza Lubuklinggau";"Jl. Yos Sudarso No.31, Taba Jemekeh, Kec. Lubuk Linggau Tim. II, Kota Lubuklinggau, Sumatera Selatan 31613";"Taba Jemekeh, Kec. Lubuk Linggau Tim. II, Kota Lubuklinggau";"SUMATERA SELATAN";"31613";"Indonesia";"";"";"";"-3.2879773";"102.8777476";"https://maps.google.com/?cid=0x0:0x44910cb5dec7223c";""
"mall";"Pasar";"Pasar Lubuklinggau";"PV37+CV3, Jl. Yos Sudarso, Jawa Kiri, Kec. Lubuk Linggau Tim. II, Kota Lubuklinggau, Sumatera Selatan 31613";"Jl. Yos Sudarso, Jawa Kiri, Kec. Lubuk Linggau Tim. II, Kota Lubuklinggau";"SUMATERA SELATAN";"31613";"Indonesia";" 083872654791";"";"";"-3.2964964";"102.8646808";"https://maps.google.com/?cid=0x0:0x356d0a951e734993";""
"mall";"Pedagang tekstil";"Matahari Department Store Lubuklinggau";"Jl. Yos Sudarso, Taba Jemekeh, Kec. Lubuk Linggau Tim. I, Kota Lubuklinggau, Sumatera Selatan 31631";"Taba Jemekeh, Kec. Lubuk Linggau Tim. I, Kota Lubuklinggau";"SUMATERA SELATAN";"31631";"Indonesia";" 0733328406";"";"";"-3.2876287";"102.877649";"https://maps.google.com/?cid=0x0:0x63b9d15c7e48213";""
"mall";"Pusat Perbelanjaan";"Lippo Plaza Lubuklinggau";"Jl. Yos Sudarso No.31, Taba Jemekeh, Kec. Lubuk Linggau Tim. II, Kota Lubuklinggau, Sumatera Selatan 31613";"Taba Jemekeh, Kec. Lubuk Linggau Tim. II, Kota Lubuklinggau";"SUMATERA SELATAN";"31613";"Indonesia";"";"";"";"-3.2879773";"102.8777476";"https://maps.google.com/?cid=0x0:0x44910cb5dec7223c";""
"mall";"Pasar";"Pasar Lubuklinggau";"PV37+CV3, Jl. Yos Sudarso, Jawa Kiri, Kec. Lubuk Linggau Tim. II, Kota Lubuklinggau, Sumatera Selatan 31613";"Jl. Yos Sudarso, Jawa Kiri, Kec. Lubuk Linggau Tim. II, Kota Lubuklinggau";"SUMATERA SELATAN";"31613";"Indonesia";" 083872654791";"";"";"-3.2964964";"102.8646808";"https://maps.google.com/?cid=0x0:0x356d0a951e734993";""
"mall";"Pedagang tekstil";"Matahari Department Store Lubuklinggau";"Jl. Yos Sudarso, Taba Jemekeh, Kec. Lubuk Linggau Tim. I, Kota Lubuklinggau, Sumatera Selatan 31631";"Taba Jemekeh, Kec. Lubuk Linggau Tim. I, Kota Lubuklinggau";"SUMATERA SELATAN";"31631";"Indonesia";" 0733328406";"";"";"-3.2876287";"102.877649";"https://maps.google.com/?cid=0x0:0x63b9d15c7e48213";""
"mall";"mall";"Kec. Lubuk Linggau Tim. I";"Kota Lubuklinggau, Sumatera Selatan";"Kota Lubuklinggau, Sumatera Selatan";"SUMATERA SELATAN";"";"Indonesia";"";"";"";"-3.2839382";"102.8855843";"https://maps.google.com/?cid=0x0:0x3178fe8fb8900081";""
"mall";"Pusat Perbelanjaan";"Lippo Plaza Lubuklinggau";"Jl. Yos Sudarso No.31, Taba Jemekeh, Kec. Lubuk Linggau Tim. II, Kota Lubuklinggau, Sumatera Selatan 31613";"Taba Jemekeh, Kec. Lubuk Linggau Tim. II, Kota Lubuklinggau";"SUMATERA SELATAN";"31613";"Indonesia";"";"";"";"-3.2879773";"102.8777476";"https://maps.google.com/?cid=0x0:0x44910cb5dec7223c";""
"mall";"Pusat Perbelanjaan";"Cinépolis Lippo Plaza Lubuklinggau";"Lippo Plaza Lubuklinggau Jl. Yos SudarsoTaba Jemekeh, Taba Jemekeh, Kec. Lubuk Linggau Tim. I, Kota Lubuklinggau, Sumatera Selatan 31613";"Taba Jemekeh, Kec. Lubuk Linggau Tim. I, Kota Lubuklinggau";"SUMATERA SELATAN";"31613";"Indonesia";" 07333283010";"";"";"-3.2865205";"102.877555";"https://maps.google.com/?cid=0x0:0xa73f271551314321";""
"mall";"Toko Rokok Elektrik";"Silampari Vape Store  Cafe";"sebelah bank BCA, Jl. Yos Sudarso Gg. Mutiara No.23, RT.11, Taba Jemekeh, Kec. Lubuk Linggau Tim. I, Kota Lubuklinggau, Sumatera Selatan 31625";"Jl. Yos Sudarso Gg. Mutiara No.23, RT.11, Taba Jemekeh, Kec. Lubuk Linggau Tim. I, Kota Lubuklinggau";"SUMATERA SELATAN";"31625";"Indonesia";" 082371717123";"";"";"-3.2887294";"102.8784439";"https://maps.google.com/?cid=0x0:0xffd3b94c9a700459";""
"mall";"Toko Pakaian Pria";"I AM FASHION STORE LINGGAU";"Jl. Yos Sudarso No.47-48, Taba Jemekeh, Kec. Lubuk Linggau Tim. I, Kota Lubuklinggau, Sumatera Selatan 31624";"Taba Jemekeh, Kec. Lubuk Linggau Tim. I, Kota Lubuklinggau";"SUMATERA SELATAN";"31624";"Indonesia";" 0733326910";"";"";"-3.2878528";"102.8779962";"https://maps.google.com/?cid=0x0:0x28426ce9a250520f";""
"mall";"Pusat Perbelanjaan";"Hypermart - Lippo Plaza Lubuklinggau";"Lippo Plaza, Jl. Yos Sudarso No.765, Taba Jemekeh, Kec. Lubuk Linggau Tim. I, Kota Lubuklinggau, Sumatera Selatan 31628";"Jl. Yos Sudarso No.765, Taba Jemekeh, Kec. Lubuk Linggau Tim. I, Kota Lubuklinggau";"SUMATERA SELATAN";"31628";"Indonesia";" 07333281366";"";"";"-3.2875752";"102.8776077";"https://maps.google.com/?cid=0x0:0xca1a0c8b0d31cb09";""
"mall";"Pedagang tekstil";"Matahari Department Store Lubuklinggau";"Jl. Yos Sudarso, Taba Jemekeh, Kec. Lubuk Linggau Tim. I, Kota Lubuklinggau, Sumatera Selatan 31631";"Taba Jemekeh, Kec. Lubuk Linggau Tim. I, Kota Lubuklinggau";"SUMATERA SELATAN";"31631";"Indonesia";" 0733328406";"";"";"-3.2876287";"102.877649";"https://maps.google.com/?cid=0x0:0x63b9d15c7e48213";""
"mall";"mall";"Grand Zuri Lubuklinggau by ZHM";"Jl. Yos Sudarso No.1, Batu Urip Taba, Kec. Lubuk Linggau Tim. I, Kota Lubuklinggau, Sumatera Selatan 31624";"Batu Urip Taba, Kec. Lubuk Linggau Tim. I, Kota Lubuklinggau";"SUMATERA SELATAN";"31624";"Indonesia";" 07337070222";"";"";"-3.2819357";"102.8889477";"https://maps.google.com/?cid=0x0:0xb9d17d256db8fc0d";""
"mall";"Tujuan Wisata";"Air Terjun Temam";"Jl. Air Temam, Rahmah, Kec. Lubuk Linggau Sel. I, Kota Lubuklinggau, Sumatera Selatan 31600";"Rahmah, Kec. Lubuk Linggau Sel. I, Kota Lubuklinggau";"SUMATERA SELATAN";"31600";"Indonesia";" 082175182223";"";"";"-3.2935625";"102.9300625";"https://maps.google.com/?cid=0x0:0x24b5109c6d325f46";""
"mall";"Toko Elektronik";"SERLI PELANGI GROSIR";"Jl. Lakitan No.102, Ps. Satelit, Kec. Lubuk Linggau Utara II, Kota Lubuklinggau, Sumatera Selatan 31613";"Ps. Satelit, Kec. Lubuk Linggau Utara II, Kota Lubuklinggau";"SUMATERA SELATAN";"31613";"Indonesia";"";"";"";"-3.2858825";"102.8594052";"https://maps.google.com/?cid=0x0:0xecea0dbf39e580fe";""
"mall";"mall";"WE Hotel Lubuk Linggau";"Jl. Yos Sudarso No.70, RW.72, Taba Jemekeh, Kec. Lubuk Linggau Tim. I, Kota Lubuklinggau, Sumatera Selatan 31625";"RW.72, Taba Jemekeh, Kec. Lubuk Linggau Tim. I, Kota Lubuklinggau";"SUMATERA SELATAN";"31625";"Indonesia";" 07333286777";"";"";"-3.2874168";"102.8787931";"https://maps.google.com/?cid=0x0:0x8ae599c134802184";""
"mall";"Tujuan Wisata";"Wisata Alam Bukit Sulap Taman Nasional Kerinci Seblat";"Jl. Bengawan Solo No.RT 10, Ulak Surung, Kec. Lubuk Linggau Utara II, Kota Lubuklinggau, Sumatera Selatan 31617";"Ulak Surung, Kec. Lubuk Linggau Utara II, Kota Lubuklinggau";"SUMATERA SELATAN";"31617";"Indonesia";"";"";"";"-3.2858711";"102.8569352";"https://maps.google.com/?cid=0x0:0xa3d10db2fea3182e";""
"mall";"mall";"N/A";"";"";"SUMATERA SELATAN";"";"Indonesia";"";"";"";"";"";"https://maps.google.com/?cid=0x0:0x8ae599c134802184%7C/g/11h3c_j44d%7Cen-ID";""
"mall";"Pusat Perbelanjaan";"Garasi Kids";"Lippo Mall Lubuklinggau Lantai basement Area Hypermart) timur 1. Lubuklinggau, Jl. Yos Sudarso, Taba Jemekeh, Lubuk Linggau Timur I, Lubuklinggau City, South Sumatra 31613";"Jl. Yos Sudarso, Taba Jemekeh, Lubuk Linggau Timur I, Lubuklinggau City";"SUMATERA SELATAN";"31613";"Indonesia";" 081278351314";"";"";"-3.2879691";"102.8779282";"https://maps.google.com/?cid=0x0:0x29c1bab15a7059d6";""
"mall";"Universitas";"Universitas PGRI Silampari";"Jl. Mayor Toha, Air Kuti, Kec. Lubuk Linggau Tim. I, Kota Lubuklinggau, Sumatera Selatan 31625";"Air Kuti, Kec. Lubuk Linggau Tim. I, Kota Lubuklinggau";"SUMATERA SELATAN";"31625";"Indonesia";" 0733451432";"";"";"-3.2758869";"102.9128048";"https://maps.google.com/?cid=0x0:0x4534b951a640118a";""
"mall";"Makanan Siap Saji";"Richeese Factory Lubuklinggau";"Taba Jemekeh, Kec. Lubuk Linggau Tim. I, Kota Lubuklinggau, Sumatera Selatan 31613";"Kec. Lubuk Linggau Tim. I, Kota Lubuklinggau";"SUMATERA SELATAN";"31613";"Indonesia";"";"";"";"-3.2871438";"102.8775477";"https://maps.google.com/?cid=0x0:0xf87295c6f0d4eb37";""
"mall";"Toko Perlengkapan Rumah";"Mitra Bangunan Supermarket Lubuk Linggau";"Watervang, Kec. Lubuk Linggau Tim. I, Kota Lubuklinggau, Sumatera Selatan 31625";"Kec. Lubuk Linggau Tim. I, Kota Lubuklinggau";"SUMATERA SELATAN";"31625";"Indonesia";"";"";"";"-3.2756118";"102.9003116";"https://maps.google.com/?cid=0x0:0x9741dde2cf1035e";""
"mall";"Hostel";"Wisma Yovi";"Taba Koji, Kec. Lubuk Linggau Tim. I, Kota Lubuklinggau, Sumatera Selatan 31613";"Kec. Lubuk Linggau Tim. I, Kota Lubuklinggau";"SUMATERA SELATAN";"31613";"Indonesia";" 082179798207";"";"";"-3.2881608";"102.877146";"https://maps.google.com/?cid=0x0:0xe2eec262e6ba44f8";""
"mall";"Pusat Perbelanjaan";"RH Mart";"PVH6+7FC, Jogoboyo, Kec. Lubuk Linggau Utara II, Kota Lubuklinggau, Sumatera Selatan 31611";"Jogoboyo, Kec. Lubuk Linggau Utara II, Kota Lubuklinggau";"SUMATERA SELATAN";"31611";"Indonesia";"";"";"";"-3.2718031";"102.8611316";"https://maps.google.com/?cid=0x0:0xfbeff9b97737d65";""
"mall";"Rumah Sakit Pemerintah";"Rumah Sakit Siloam Silampari";"Jl. Yos Sudarso No.RT.11, Taba Jemekeh, Kec. Lubuk Linggau Tim. I, Kota Lubuklinggau, Sumatera Selatan 31613";"Taba Jemekeh, Kec. Lubuk Linggau Tim. I, Kota Lubuklinggau";"SUMATERA SELATAN";"31613";"Indonesia";" 07333035900";"";"";"-3.2869234";"102.8775281";"https://maps.google.com/?cid=0x0:0x6b06810e3c138950";""
"mall";"Toko";"HERO Cell Linggau";"Jl. Jendral Sudirman, Ps. Satelit, Kec. Lubuk Linggau Utara II, Kota Lubuklinggau, Sumatera Selatan 31613";"Ps. Satelit, Kec. Lubuk Linggau Utara II, Kota Lubuklinggau";"SUMATERA SELATAN";"31613";"Indonesia";" 082279192090";"";"";"-3.2844247";"102.8617002";"https://maps.google.com/?cid=0x0:0x2f69e4a5e196294d";""
"mall";"Pusat Perbelanjaan";"SERLI PELANGI";"Ulak Surung, Kec. Lubuk Linggau Utara II, Kota Lubuklinggau, Sumatera Selatan 31613";"Kec. Lubuk Linggau Utara II, Kota Lubuklinggau";"SUMATERA SELATAN";"31613";"Indonesia";" 082282022163";"";"";"-3.2851804";"102.8588653";"https://maps.google.com/?cid=0x0:0x1a6e08585dd8a9de";""
"mall";"Pusat Perbelanjaan";"Llg";"MVX5+3WH, Jl. Letkol Atmo, Sukajadi, Kec. Lubuk Linggau Bar. I, Kota Lubuklinggau, Sumatera Selatan 31614";"Jl. Letkol Atmo, Sukajadi, Kec. Lubuk Linggau Bar. I, Kota Lubuklinggau";"SUMATERA SELATAN";"31614";"Indonesia";"";"";"";"-3.3023029";"102.8598663";"https://maps.google.com/?cid=0x0:0x5b6f3757db136ec8";""
"mall";"Pusat Perbelanjaan";"Fifialstore (Warung Nasi Buk Ani)";"Jl. Diponegoro No.116, RT.1, Majapahit, Kec. Lubuk Linggau Tim. I, Kota Lubuklinggau, Sumatera Selatan 31625";"RT.1, Majapahit, Kec. Lubuk Linggau Tim. I, Kota Lubuklinggau";"SUMATERA SELATAN";"31625";"Indonesia";" 085212523109";"";"";"-3.2745756";"102.9049553";"https://maps.google.com/?cid=0x0:0x5cb372c2c033e8ce";""
"mall";"mall";"HOTEL AURA";"Jl. Yos Sudarso, Taba Jemekeh, Kec. Lubuk Linggau Tim. I, Kota Lubuklinggau, Sumatera Selatan 31624";"Taba Jemekeh, Kec. Lubuk Linggau Tim. I, Kota Lubuklinggau";"SUMATERA SELATAN";"31624";"Indonesia";" 089632684191";"";"";"-3.2845142";"102.8850475";"https://maps.google.com/?cid=0x0:0x805e6d8a3a4fb08";""
"mall";"mall";"SMart Hotel Lubuklinggau";"Jl. Yos Sudarso, Jawa Kanan Ss, Kec. Lubuk Linggau Tim. II, Kota Lubuklinggau, Sumatera Selatan 31621";"Jawa Kanan Ss, Kec. Lubuk Linggau Tim. II, Kota Lubuklinggau";"SUMATERA SELATAN";"31621";"Indonesia";" 0733320000";"";"";"-3.2952549";"102.8667876";"https://maps.google.com/?cid=0x0:0xb10a21c176d5ba15";""
"mall";"mall";"Burza Hotel Lubuklinggau";"Jl. Yos Sudarso No.143, Watervang, Kec. Lubuk Linggau Tim. I, Kota Lubuklinggau, Sumatera Selatan 31628";"Watervang, Kec. Lubuk Linggau Tim. I, Kota Lubuklinggau";"SUMATERA SELATAN";"31628";"Indonesia";" 07333280088";"";"";"-3.2776032";"102.8970972";"https://maps.google.com/?cid=0x0:0x4fb4e95f23ada624";""
"mall";"mall";"COZY STYLE HOTEL";"Jl. Yos Sudarso No.309, Dempo, Kec. Lubuk Linggau Tim. II, Kota Lubuklinggau, Sumatera Selatan 31613";"Dempo, Kec. Lubuk Linggau Tim. II, Kota Lubuklinggau";"SUMATERA SELATAN";"31613";"Indonesia";" 07333285555";"";"";"-3.2956599";"102.867082";"https://maps.google.com/?cid=0x0:0x78e03f7c22570a7a";""
"mall";"mall";"Hotel Lintas Sumatra";"Jl. Yos Sudarso No.21, Dempo, Kec. Lubuk Linggau Tim. II, Kota Lubuklinggau, Sumatera Selatan 31613";"Dempo, Kec. Lubuk Linggau Tim. II, Kota Lubuklinggau";"SUMATERA SELATAN";"31613";"Indonesia";" 0733321370";"";"";"-3.295268";"102.8675158";"https://maps.google.com/?cid=0x0:0xbb0c91d6ac6ab390";""
"mall";"mall";"Kec. Lubuk Linggau Tim. I";"Kota Lubuklinggau, Sumatera Selatan";"Kota Lubuklinggau, Sumatera Selatan";"SUMATERA SELATAN";"";"Indonesia";"";"";"";"-3.2839382";"102.8855843";"https://maps.google.com/?cid=0x0:0x3178fe8fb8900081";""
"mall";"Pusat Perbelanjaan";"Lippo Plaza Lubuklinggau";"Jl. Yos Sudarso No.31, Taba Jemekeh, Kec. Lubuk Linggau Tim. II, Kota Lubuklinggau, Sumatera Selatan 31613";"Taba Jemekeh, Kec. Lubuk Linggau Tim. II, Kota Lubuklinggau";"SUMATERA SELATAN";"31613";"Indonesia";"";"";"";"-3.2879773";"102.8777476";"https://maps.google.com/?cid=0x0:0x44910cb5dec7223c";""
"mall";"Pusat Perbelanjaan";"Hypermart - Lippo Plaza Lubuklinggau";"Lippo Plaza, Jl. Yos Sudarso No.765, Taba Jemekeh, Kec. Lubuk Linggau Tim. I, Kota Lubuklinggau, Sumatera Selatan 31628";"Jl. Yos Sudarso No.765, Taba Jemekeh, Kec. Lubuk Linggau Tim. I, Kota Lubuklinggau";"SUMATERA SELATAN";"31628";"Indonesia";" 07333281366";"";"";"-3.2875752";"102.8776077";"https://maps.google.com/?cid=0x0:0xca1a0c8b0d31cb09";""
"mall";"Pusat Perbelanjaan";"Cinépolis Lippo Plaza Lubuklinggau";"Lippo Plaza Lubuklinggau Jl. Yos SudarsoTaba Jemekeh, Taba Jemekeh, Kec. Lubuk Linggau Tim. I, Kota Lubuklinggau, Sumatera Selatan 31613";"Taba Jemekeh, Kec. Lubuk Linggau Tim. I, Kota Lubuklinggau";"SUMATERA SELATAN";"31613";"Indonesia";" 07333283010";"";"";"-3.2865205";"102.877555";"https://maps.google.com/?cid=0x0:0xa73f271551314321";""
"mall";"Hipermarket";"JM Linggau";"PV6H+QFV, Jl. Yos Sudarso, Taba Koji, Kec. Lubuk Linggau Tim. I, Kota Lubuklinggau, Sumatera Selatan 31624";"Jl. Yos Sudarso, Taba Koji, Kec. Lubuk Linggau Tim. I, Kota Lubuklinggau";"SUMATERA SELATAN";"31624";"Indonesia";" 07337329377";"";"";"-3.2880081";"102.8786765";"https://maps.google.com/?cid=0x0:0x60458b8d77f3a012";""
"mall";"Toko Rokok Elektrik";"Silampari Vape Store  Cafe";"sebelah bank BCA, Jl. Yos Sudarso Gg. Mutiara No.23, RT.11, Taba Jemekeh, Kec. Lubuk Linggau Tim. I, Kota Lubuklinggau, Sumatera Selatan 31625";"Jl. Yos Sudarso Gg. Mutiara No.23, RT.11, Taba Jemekeh, Kec. Lubuk Linggau Tim. I, Kota Lubuklinggau";"SUMATERA SELATAN";"31625";"Indonesia";" 082371717123";"";"";"-3.2887294";"102.8784439";"https://maps.google.com/?cid=0x0:0xffd3b94c9a700459";""
"mall";"mall";"Burza Hotel Lubuklinggau";"Jl. Yos Sudarso No.143, Watervang, Kec. Lubuk Linggau Tim. I, Kota Lubuklinggau, Sumatera Selatan 31628";"Watervang, Kec. Lubuk Linggau Tim. I, Kota Lubuklinggau";"SUMATERA SELATAN";"31628";"Indonesia";" 07333280088";"";"";"-3.2776032";"102.8970972";"https://maps.google.com/?cid=0x0:0x4fb4e95f23ada624";""
"mall";"mall";"N/A";"";"";"SUMATERA SELATAN";"";"Indonesia";"";"";"";"";"";"https://maps.google.com/?cid=0x0:0x4fb4e95f23ada624%7C/g/11b88g6lm5%7Cen-ID";""
"mall";"Tujuan Wisata";"Air Terjun Temam";"Jl. Air Temam, Rahmah, Kec. Lubuk Linggau Sel. I, Kota Lubuklinggau, Sumatera Selatan 31600";"Rahmah, Kec. Lubuk Linggau Sel. I, Kota Lubuklinggau";"SUMATERA SELATAN";"31600";"Indonesia";" 082175182223";"";"";"-3.2935625";"102.9300625";"https://maps.google.com/?cid=0x0:0x24b5109c6d325f46";""
"mall";"Kedai Kopi";"BARCHETTA";"Lippo Plaza, Ground Floor, Jl. Yos Sudarso, Taba Koji, Kec. Lubuk Linggau Tim. I, Kota Lubuklinggau, Sumatera Selatan 31628";"Ground Floor, Jl. Yos Sudarso, Taba Koji, Kec. Lubuk Linggau Tim. I, Kota Lubuklinggau";"SUMATERA SELATAN";"31628";"Indonesia";" 07333281283";"";"";"-3.2869796";"102.8775329";"https://maps.google.com/?cid=0x0:0xa31a8c2c71481627";""
"mall";"Universitas";"Universitas PGRI Silampari";"Jl. Mayor Toha, Air Kuti, Kec. Lubuk Linggau Tim. I, Kota Lubuklinggau, Sumatera Selatan 31625";"Air Kuti, Kec. Lubuk Linggau Tim. I, Kota Lubuklinggau";"SUMATERA SELATAN";"31625";"Indonesia";" 0733451432";"";"";"-3.2758869";"102.9128048";"https://maps.google.com/?cid=0x0:0x4534b951a640118a";""
"mall";"mall";"Hotel Dewinda";"Jl. Yos Sudarso Komplek Ruko Caroline Winasta Blok Blok C1, Watervang, Kec. Lubuk Linggau Tim. I, Kota Lubuklinggau, Sumatera Selatan 31628";"Watervang, Kec. Lubuk Linggau Tim. I, Kota Lubuklinggau";"SUMATERA SELATAN";"31628";"Indonesia";" 07333285353";"";"";"-3.2755129";"102.9013407";"https://maps.google.com/?cid=0x0:0x9d0e5843430afa04";""
"mall";"mall";"N/A";"";"";"SUMATERA SELATAN";"";"Indonesia";"";"";"";"";"";"https://maps.google.com/?cid=0x0:0x9d0e5843430afa04%7C/g/11f8y22mzg%7Cen-ID";""
"mall";"Rumah Sakit Pemerintah";"Rumah Sakit Siloam Silampari";"Jl. Yos Sudarso No.RT.11, Taba Jemekeh, Kec. Lubuk Linggau Tim. I, Kota Lubuklinggau, Sumatera Selatan 31613";"Taba Jemekeh, Kec. Lubuk Linggau Tim. I, Kota Lubuklinggau";"SUMATERA SELATAN";"31613";"Indonesia";" 07333035900";"";"";"-3.2869234";"102.8775281";"https://maps.google.com/?cid=0x0:0x6b06810e3c138950";""
"mall";"Restoran";"KEDAI MASAYU";"Jl. Kelabat No.I No.01, Jawa Kiri, Kec. Lubuk Linggau Tim. II, Kota Lubuklinggau, Sumatera Selatan 31622";"Jawa Kiri, Kec. Lubuk Linggau Tim. II, Kota Lubuklinggau";"SUMATERA SELATAN";"31622";"Indonesia";" 082375126783";"";"";"-3.2919515";"102.8735759";"https://maps.google.com/?cid=0x0:0xd9059d160a632233";""
"mall";"Pasar";"Pasar Lubuklinggau";"PV37+CV3, Jl. Yos Sudarso, Jawa Kiri, Kec. Lubuk Linggau Tim. II, Kota Lubuklinggau, Sumatera Selatan 31613";"Jl. Yos Sudarso, Jawa Kiri, Kec. Lubuk Linggau Tim. II, Kota Lubuklinggau";"SUMATERA SELATAN";"31613";"Indonesia";" 083872654791";"";"";"-3.2964964";"102.8646808";"https://maps.google.com/?cid=0x0:0x356d0a951e734993";""
"mall";"Pedagang tekstil";"Matahari Department Store Lubuklinggau";"Jl. Yos Sudarso, Taba Jemekeh, Kec. Lubuk Linggau Tim. I, Kota Lubuklinggau, Sumatera Selatan 31631";"Taba Jemekeh, Kec. Lubuk Linggau Tim. I, Kota Lubuklinggau";"SUMATERA SELATAN";"31631";"Indonesia";" 0733328406";"";"";"-3.2876287";"102.877649";"https://maps.google.com/?cid=0x0:0x63b9d15c7e48213";""
"mall";"Pusat Perbelanjaan";"Lippo Plaza Lubuklinggau";"Jl. Yos Sudarso No.31, Taba Jemekeh, Kec. Lubuk Linggau Tim. II, Kota Lubuklinggau, Sumatera Selatan 31613";"Taba Jemekeh, Kec. Lubuk Linggau Tim. II, Kota Lubuklinggau";"SUMATERA SELATAN";"31613";"Indonesia";"";"";"";"-3.2879773";"102.8777476";"https://maps.google.com/?cid=0x0:0x44910cb5dec7223c";""
"mall";"Pasar";"Pasar Lubuklinggau";"PV37+CV3, Jl. Yos Sudarso, Jawa Kiri, Kec. Lubuk Linggau Tim. II, Kota Lubuklinggau, Sumatera Selatan 31613";"Jl. Yos Sudarso, Jawa Kiri, Kec. Lubuk Linggau Tim. II, Kota Lubuklinggau";"SUMATERA SELATAN";"31613";"Indonesia";" 083872654791";"";"";"-3.2964964";"102.8646808";"https://maps.google.com/?cid=0x0:0x356d0a951e734993";""
"mall";"Pedagang tekstil";"Matahari Department Store Lubuklinggau";"Jl. Yos Sudarso, Taba Jemekeh, Kec. Lubuk Linggau Tim. I, Kota Lubuklinggau, Sumatera Selatan 31631";"Taba Jemekeh, Kec. Lubuk Linggau Tim. I, Kota Lubuklinggau";"SUMATERA SELATAN";"31631";"Indonesia";" 0733328406";"";"";"-3.2876287";"102.877649";"https://maps.google.com/?cid=0x0:0x63b9d15c7e48213";""
"mall";"mall";"Kec. Lubuk Linggau Tim. I";"Kota Lubuklinggau, Sumatera Selatan";"Kota Lubuklinggau, Sumatera Selatan";"SUMATERA SELATAN";"";"Indonesia";"";"";"";"-3.2839382";"102.8855843";"https://maps.google.com/?cid=0x0:0x3178fe8fb8900081";""
"mall";"Pusat Perbelanjaan";"Lippo Plaza Lubuklinggau";"Jl. Yos Sudarso No.31, Taba Jemekeh, Kec. Lubuk Linggau Tim. II, Kota Lubuklinggau, Sumatera Selatan 31613";"Taba Jemekeh, Kec. Lubuk Linggau Tim. II, Kota Lubuklinggau";"SUMATERA SELATAN";"31613";"Indonesia";"";"";"";"-3.2879773";"102.8777476";"https://maps.google.com/?cid=0x0:0x44910cb5dec7223c";""
"mall";"Toko Rokok Elektrik";"Silampari Vape Store  Cafe";"sebelah bank BCA, Jl. Yos Sudarso Gg. Mutiara No.23, RT.11, Taba Jemekeh, Kec. Lubuk Linggau Tim. I, Kota Lubuklinggau, Sumatera Selatan 31625";"Jl. Yos Sudarso Gg. Mutiara No.23, RT.11, Taba Jemekeh, Kec. Lubuk Linggau Tim. I, Kota Lubuklinggau";"SUMATERA SELATAN";"31625";"Indonesia";" 082371717123";"";"";"-3.2887294";"102.8784439";"https://maps.google.com/?cid=0x0:0xffd3b94c9a700459";""
"mall";"Pusat Perbelanjaan";"Cinépolis Lippo Plaza Lubuklinggau";"Lippo Plaza Lubuklinggau Jl. Yos SudarsoTaba Jemekeh, Taba Jemekeh, Kec. Lubuk Linggau Tim. I, Kota Lubuklinggau, Sumatera Selatan 31613";"Taba Jemekeh, Kec. Lubuk Linggau Tim. I, Kota Lubuklinggau";"SUMATERA SELATAN";"31613";"Indonesia";" 07333283010";"";"";"-3.2865205";"102.877555";"https://maps.google.com/?cid=0x0:0xa73f271551314321";""
"mall";"Toko Pakaian Pria";"I AM FASHION STORE LINGGAU";"Jl. Yos Sudarso No.47-48, Taba Jemekeh, Kec. Lubuk Linggau Tim. I, Kota Lubuklinggau, Sumatera Selatan 31624";"Taba Jemekeh, Kec. Lubuk Linggau Tim. I, Kota Lubuklinggau";"SUMATERA SELATAN";"31624";"Indonesia";" 0733326910";"";"";"-3.2878528";"102.8779962";"https://maps.google.com/?cid=0x0:0x28426ce9a250520f";""
"mall";"Pusat Perbelanjaan";"Hypermart - Lippo Plaza Lubuklinggau";"Lippo Plaza, Jl. Yos Sudarso No.765, Taba Jemekeh, Kec. Lubuk Linggau Tim. I, Kota Lubuklinggau, Sumatera Selatan 31628";"Jl. Yos Sudarso No.765, Taba Jemekeh, Kec. Lubuk Linggau Tim. I, Kota Lubuklinggau";"SUMATERA SELATAN";"31628";"Indonesia";" 07333281366";"";"";"-3.2875752";"102.8776077";"https://maps.google.com/?cid=0x0:0xca1a0c8b0d31cb09";""
"mall";"Pusat Perbelanjaan";"Garasi Kids";"Lippo Mall Lubuklinggau Lantai basement Area Hypermart) timur 1. Lubuklinggau, Jl. Yos Sudarso, Taba Jemekeh, Lubuk Linggau Timur I, Lubuklinggau City, South Sumatra 31613";"Jl. Yos Sudarso, Taba Jemekeh, Lubuk Linggau Timur I, Lubuklinggau City";"SUMATERA SELATAN";"31613";"Indonesia";" 081278351314";"";"";"-3.2879691";"102.8779282";"https://maps.google.com/?cid=0x0:0x29c1bab15a7059d6";""
"mall";"Pusat Perbelanjaan";"RH Mart";"PVH6+7FC, Jogoboyo, Kec. Lubuk Linggau Utara II, Kota Lubuklinggau, Sumatera Selatan 31611";"Jogoboyo, Kec. Lubuk Linggau Utara II, Kota Lubuklinggau";"SUMATERA SELATAN";"31611";"Indonesia";"";"";"";"-3.2718031";"102.8611316";"https://maps.google.com/?cid=0x0:0xfbeff9b97737d65";""
"mall";"Pedagang tekstil";"Matahari Department Store Lubuklinggau";"Jl. Yos Sudarso, Taba Jemekeh, Kec. Lubuk Linggau Tim. I, Kota Lubuklinggau, Sumatera Selatan 31631";"Taba Jemekeh, Kec. Lubuk Linggau Tim. I, Kota Lubuklinggau";"SUMATERA SELATAN";"31631";"Indonesia";" 0733328406";"";"";"-3.2876287";"102.877649";"https://maps.google.com/?cid=0x0:0x63b9d15c7e48213";""
"mall";"Toko";"HERO Cell Linggau";"Jl. Jendral Sudirman, Ps. Satelit, Kec. Lubuk Linggau Utara II, Kota Lubuklinggau, Sumatera Selatan 31613";"Ps. Satelit, Kec. Lubuk Linggau Utara II, Kota Lubuklinggau";"SUMATERA SELATAN";"31613";"Indonesia";" 082279192090";"";"";"-3.2844247";"102.8617002";"https://maps.google.com/?cid=0x0:0x2f69e4a5e196294d";""
"mall";"Pusat Perbelanjaan";"Fifialstore (Warung Nasi Buk Ani)";"Jl. Diponegoro No.116, RT.1, Majapahit, Kec. Lubuk Linggau Tim. I, Kota Lubuklinggau, Sumatera Selatan 31625";"RT.1, Majapahit, Kec. Lubuk Linggau Tim. I, Kota Lubuklinggau";"SUMATERA SELATAN";"31625";"Indonesia";" 085212523109";"";"";"-3.2745756";"102.9049553";"https://maps.google.com/?cid=0x0:0x5cb372c2c033e8ce";""
"mall";"Toko Elektronik";"SERLI PELANGI GROSIR";"Jl. Lakitan No.102, Ps. Satelit, Kec. Lubuk Linggau Utara II, Kota Lubuklinggau, Sumatera Selatan 31613";"Ps. Satelit, Kec. Lubuk Linggau Utara II, Kota Lubuklinggau";"SUMATERA SELATAN";"31613";"Indonesia";"";"";"";"-3.2858825";"102.8594052";"https://maps.google.com/?cid=0x0:0xecea0dbf39e580fe";""
"mall";"Pusat Perbelanjaan";"Llg";"MVX5+3WH, Jl. Letkol Atmo, Sukajadi, Kec. Lubuk Linggau Bar. I, Kota Lubuklinggau, Sumatera Selatan 31614";"Jl. Letkol Atmo, Sukajadi, Kec. Lubuk Linggau Bar. I, Kota Lubuklinggau";"SUMATERA SELATAN";"31614";"Indonesia";"";"";"";"-3.3023029";"102.8598663";"https://maps.google.com/?cid=0x0:0x5b6f3757db136ec8";""
"mall";"mall";"WE Hotel Lubuk Linggau";"Jl. Yos Sudarso No.70, RW.72, Taba Jemekeh, Kec. Lubuk Linggau Tim. I, Kota Lubuklinggau, Sumatera Selatan 31625";"RW.72, Taba Jemekeh, Kec. Lubuk Linggau Tim. I, Kota Lubuklinggau";"SUMATERA SELATAN";"31625";"Indonesia";" 07333286777";"";"";"-3.2874168";"102.8787931";"https://maps.google.com/?cid=0x0:0x8ae599c134802184";""
"mall";"mall";"N/A";"";"";"SUMATERA SELATAN";"";"Indonesia";"";"";"";"";"";"https://maps.google.com/?cid=0x0:0x8ae599c134802184%7C/g/11h3c_j44d%7Cen-ID";""
"mall";"Tujuan Wisata";"Wisata Alam Bukit Sulap Taman Nasional Kerinci Seblat";"Jl. Bengawan Solo No.RT 10, Ulak Surung, Kec. Lubuk Linggau Utara II, Kota Lubuklinggau, Sumatera Selatan 31617";"Ulak Surung, Kec. Lubuk Linggau Utara II, Kota Lubuklinggau";"SUMATERA SELATAN";"31617";"Indonesia";"";"";"";"-3.2858711";"102.8569352";"https://maps.google.com/?cid=0x0:0xa3d10db2fea3182e";""
"mall";"mall";"Grand Zuri Lubuklinggau by ZHM";"Jl. Yos Sudarso No.1, Batu Urip Taba, Kec. Lubuk Linggau Tim. I, Kota Lubuklinggau, Sumatera Selatan 31624";"Batu Urip Taba, Kec. Lubuk Linggau Tim. I, Kota Lubuklinggau";"SUMATERA SELATAN";"31624";"Indonesia";" 07337070222";"";"";"-3.2819357";"102.8889477";"https://maps.google.com/?cid=0x0:0xb9d17d256db8fc0d";""
"mall";"Tujuan Wisata";"Air Terjun Temam";"Jl. Air Temam, Rahmah, Kec. Lubuk Linggau Sel. I, Kota Lubuklinggau, Sumatera Selatan 31600";"Rahmah, Kec. Lubuk Linggau Sel. I, Kota Lubuklinggau";"SUMATERA SELATAN";"31600";"Indonesia";" 082175182223";"";"";"-3.2935625";"102.9300625";"https://maps.google.com/?cid=0x0:0x24b5109c6d325f46";""
"mall";"Toko Pakaian";"GITA OLSHOP";"Jalan Al Mutiara 1 No.80, Nikan Jaya, Kec. Lubuk Linggau Tim. I, Kota Lubuklinggau, Sumatera Selatan 31625";"Nikan Jaya, Kec. Lubuk Linggau Tim. I, Kota Lubuklinggau";"SUMATERA SELATAN";"31625";"Indonesia";" 083802602836";"";"";"-3.287475";"102.9105847";"https://maps.google.com/?cid=0x0:0x15fbc96e5f37b2d5";""
"mall";"Toko Perlengkapan Rumah";"Mitra Bangunan Supermarket Lubuk Linggau";"Watervang, Kec. Lubuk Linggau Tim. I, Kota Lubuklinggau, Sumatera Selatan 31625";"Kec. Lubuk Linggau Tim. I, Kota Lubuklinggau";"SUMATERA SELATAN";"31625";"Indonesia";"";"";"";"-3.2756118";"102.9003116";"https://maps.google.com/?cid=0x0:0x9741dde2cf1035e";""
"mall";"Kedai Kopi";"BARCHETTA";"Lippo Plaza, Ground Floor, Jl. Yos Sudarso, Taba Koji, Kec. Lubuk Linggau Tim. I, Kota Lubuklinggau, Sumatera Selatan 31628";"Ground Floor, Jl. Yos Sudarso, Taba Koji, Kec. Lubuk Linggau Tim. I, Kota Lubuklinggau";"SUMATERA SELATAN";"31628";"Indonesia";" 07333281283";"";"";"-3.2869796";"102.8775329";"https://maps.google.com/?cid=0x0:0xa31a8c2c71481627";""
"mall";"Pempek";"Pempek Fenny Lubuk Linggau";"Jl. Trans Sumatera Lahat - Lubuklinggau, Taba Jemekeh, Kec. Lubuk Linggau Tim. I, Kota Lubuklinggau, Sumatera Selatan 31624";"Taba Jemekeh, Kec. Lubuk Linggau Tim. I, Kota Lubuklinggau";"SUMATERA SELATAN";"31624";"Indonesia";" 0733324192";"";"";"-3.2878889";"102.8792005";"https://maps.google.com/?cid=0x0:0xd57f2382e36fa068";""
"mall";"Makanan Siap Saji";"Richeese Factory Lubuklinggau";"Taba Jemekeh, Kec. Lubuk Linggau Tim. I, Kota Lubuklinggau, Sumatera Selatan 31613";"Kec. Lubuk Linggau Tim. I, Kota Lubuklinggau";"SUMATERA SELATAN";"31613";"Indonesia";"";"";"";"-3.2871438";"102.8775477";"https://maps.google.com/?cid=0x0:0xf87295c6f0d4eb37";""
"mall";"mall";"SMart Hotel Lubuklinggau";"Jl. Yos Sudarso, Jawa Kanan Ss, Kec. Lubuk Linggau Tim. II, Kota Lubuklinggau, Sumatera Selatan 31621";"Jawa Kanan Ss, Kec. Lubuk Linggau Tim. II, Kota Lubuklinggau";"SUMATERA SELATAN";"31621";"Indonesia";" 0733320000";"";"";"-3.2952549";"102.8667876";"https://maps.google.com/?cid=0x0:0xb10a21c176d5ba15";""
"mall";"mall";"Burza Hotel Lubuklinggau";"Jl. Yos Sudarso No.143, Watervang, Kec. Lubuk Linggau Tim. I, Kota Lubuklinggau, Sumatera Selatan 31628";"Watervang, Kec. Lubuk Linggau Tim. I, Kota Lubuklinggau";"SUMATERA SELATAN";"31628";"Indonesia";" 07333280088";"";"";"-3.2776032";"102.8970972";"https://maps.google.com/?cid=0x0:0x4fb4e95f23ada624";""
"mall";"mall";"HOTEL AURA";"Jl. Yos Sudarso, Taba Jemekeh, Kec. Lubuk Linggau Tim. I, Kota Lubuklinggau, Sumatera Selatan 31624";"Taba Jemekeh, Kec. Lubuk Linggau Tim. I, Kota Lubuklinggau";"SUMATERA SELATAN";"31624";"Indonesia";" 089632684191";"";"";"-3.2845142";"102.8850475";"https://maps.google.com/?cid=0x0:0x805e6d8a3a4fb08";""
"mall";"mall";"COZY STYLE HOTEL";"Jl. Yos Sudarso No.309, Dempo, Kec. Lubuk Linggau Tim. II, Kota Lubuklinggau, Sumatera Selatan 31613";"Dempo, Kec. Lubuk Linggau Tim. II, Kota Lubuklinggau";"SUMATERA SELATAN";"31613";"Indonesia";" 07333285555";"";"";"-3.2956599";"102.867082";"https://maps.google.com/?cid=0x0:0x78e03f7c22570a7a";""
"mall";"mall";"Hotel Lintas Sumatra";"Jl. Yos Sudarso No.21, Dempo, Kec. Lubuk Linggau Tim. II, Kota Lubuklinggau, Sumatera Selatan 31613";"Dempo, Kec. Lubuk Linggau Tim. II, Kota Lubuklinggau";"SUMATERA SELATAN";"31613";"Indonesia";" 0733321370";"";"";"-3.295268";"102.8675158";"https://maps.google.com/?cid=0x0:0xbb0c91d6ac6ab390";""
"mall";"mall";"Hotel Hakmaz Taba Lubuklinggau";"Jl. Yos Sudarso No.28, Majapahit, Kec. Lubuk Linggau Tim. I, Kota Lubuklinggau, Sumatera Selatan 31617";"Majapahit, Kec. Lubuk Linggau Tim. I, Kota Lubuklinggau";"SUMATERA SELATAN";"31617";"Indonesia";" 082128006576";"";"";"-3.2695926";"102.9100815";"https://maps.google.com/?cid=0x0:0xcd462dfb79459c73";""
"mall";"mall";"Kec. Lubuk Linggau Tim. I";"Kota Lubuklinggau, Sumatera Selatan";"Kota Lubuklinggau, Sumatera Selatan";"SUMATERA SELATAN";"";"Indonesia";"";"";"";"-3.2839382";"102.8855843";"https://maps.google.com/?cid=0x0:0x3178fe8fb8900081";""
"mall";"Pusat Perbelanjaan";"Lippo Plaza Lubuklinggau";"Jl. Yos Sudarso No.31, Taba Jemekeh, Kec. Lubuk Linggau Tim. II, Kota Lubuklinggau, Sumatera Selatan 31613";"Taba Jemekeh, Kec. Lubuk Linggau Tim. II, Kota Lubuklinggau";"SUMATERA SELATAN";"31613";"Indonesia";"";"";"";"-3.2879773";"102.8777476";"https://maps.google.com/?cid=0x0:0x44910cb5dec7223c";""
"mall";"Pusat Perbelanjaan";"Hypermart - Lippo Plaza Lubuklinggau";"Lippo Plaza, Jl. Yos Sudarso No.765, Taba Jemekeh, Kec. Lubuk Linggau Tim. I, Kota Lubuklinggau, Sumatera Selatan 31628";"Jl. Yos Sudarso No.765, Taba Jemekeh, Kec. Lubuk Linggau Tim. I, Kota Lubuklinggau";"SUMATERA SELATAN";"31628";"Indonesia";" 07333281366";"";"";"-3.2875752";"102.8776077";"https://maps.google.com/?cid=0x0:0xca1a0c8b0d31cb09";""
"mall";"Pusat Perbelanjaan";"Cinépolis Lippo Plaza Lubuklinggau";"Lippo Plaza Lubuklinggau Jl. Yos SudarsoTaba Jemekeh, Taba Jemekeh, Kec. Lubuk Linggau Tim. I, Kota Lubuklinggau, Sumatera Selatan 31613";"Taba Jemekeh, Kec. Lubuk Linggau Tim. I, Kota Lubuklinggau";"SUMATERA SELATAN";"31613";"Indonesia";" 07333283010";"";"";"-3.2865205";"102.877555";"https://maps.google.com/?cid=0x0:0xa73f271551314321";""
"mall";"Hipermarket";"JM Linggau";"PV6H+QFV, Jl. Yos Sudarso, Taba Koji, Kec. Lubuk Linggau Tim. I, Kota Lubuklinggau, Sumatera Selatan 31624";"Jl. Yos Sudarso, Taba Koji, Kec. Lubuk Linggau Tim. I, Kota Lubuklinggau";"SUMATERA SELATAN";"31624";"Indonesia";" 07337329377";"";"";"-3.2880081";"102.8786765";"https://maps.google.com/?cid=0x0:0x60458b8d77f3a012";""
"mall";"Kedai Kopi";"BARCHETTA";"Lippo Plaza, Ground Floor, Jl. Yos Sudarso, Taba Koji, Kec. Lubuk Linggau Tim. I, Kota Lubuklinggau, Sumatera Selatan 31628";"Ground Floor, Jl. Yos Sudarso, Taba Koji, Kec. Lubuk Linggau Tim. I, Kota Lubuklinggau";"SUMATERA SELATAN";"31628";"Indonesia";" 07333281283";"";"";"-3.2869796";"102.8775329";"https://maps.google.com/?cid=0x0:0xa31a8c2c71481627";""
"mall";"mall";"Burza Hotel Lubuklinggau";"Jl. Yos Sudarso No.143, Watervang, Kec. Lubuk Linggau Tim. I, Kota Lubuklinggau, Sumatera Selatan 31628";"Watervang, Kec. Lubuk Linggau Tim. I, Kota Lubuklinggau";"SUMATERA SELATAN";"31628";"Indonesia";" 07333280088";"";"";"-3.2776032";"102.8970972";"https://maps.google.com/?cid=0x0:0x4fb4e95f23ada624";""
"mall";"mall";"N/A";"";"";"SUMATERA SELATAN";"";"Indonesia";"";"";"";"";"";"https://maps.google.com/?cid=0x0:0x4fb4e95f23ada624%7C/g/11b88g6lm5%7Cen-ID";""
"mall";"mall";"AMAZING RIVERSIDE HOTEL";"Jl. Yos Sudarso No.13, Taba Jemekeh, Kec. Lubuk Linggau Tim. I, Kota Lubuklinggau, Sumatera Selatan 31624";"Taba Jemekeh, Kec. Lubuk Linggau Tim. I, Kota Lubuklinggau";"SUMATERA SELATAN";"31624";"Indonesia";" 07333283304";"";"";"-3.2871946";"102.880497";"https://maps.google.com/?cid=0x0:0xf49ca5b126d164b5";""
"mall";"mall";"WE Hotel Lubuk Linggau";"Jl. Yos Sudarso No.70, RW.72, Taba Jemekeh, Kec. Lubuk Linggau Tim. I, Kota Lubuklinggau, Sumatera Selatan 31625";"RW.72, Taba Jemekeh, Kec. Lubuk Linggau Tim. I, Kota Lubuklinggau";"SUMATERA SELATAN";"31625";"Indonesia";" 07333286777";"";"";"-3.2874168";"102.8787931";"https://maps.google.com/?cid=0x0:0x8ae599c134802184";""
"mall";"mall";"HOTEL AURA";"Jl. Yos Sudarso, Taba Jemekeh, Kec. Lubuk Linggau Tim. I, Kota Lubuklinggau, Sumatera Selatan 31624";"Taba Jemekeh, Kec. Lubuk Linggau Tim. I, Kota Lubuklinggau";"SUMATERA SELATAN";"31624";"Indonesia";" 089632684191";"";"";"-3.2845142";"102.8850475";"https://maps.google.com/?cid=0x0:0x805e6d8a3a4fb08";""
"mall";"mall";"Hotel Hakmaz Taba Lubuklinggau";"Jl. Yos Sudarso No.28, Majapahit, Kec. Lubuk Linggau Tim. I, Kota Lubuklinggau, Sumatera Selatan 31617";"Majapahit, Kec. Lubuk Linggau Tim. I, Kota Lubuklinggau";"SUMATERA SELATAN";"31617";"Indonesia";" 082128006576";"";"";"-3.2695926";"102.9100815";"https://maps.google.com/?cid=0x0:0xcd462dfb79459c73";""
"mall";"mall";"SMart Hotel Lubuklinggau";"Jl. Yos Sudarso, Jawa Kanan Ss, Kec. Lubuk Linggau Tim. II, Kota Lubuklinggau, Sumatera Selatan 31621";"Jawa Kanan Ss, Kec. Lubuk Linggau Tim. II, Kota Lubuklinggau";"SUMATERA SELATAN";"31621";"Indonesia";" 0733320000";"";"";"-3.2952549";"102.8667876";"https://maps.google.com/?cid=0x0:0xb10a21c176d5ba15";""
"mall";"mall";"Hotel 929 Lubuk Linggau";"Jalan Soekarno-Hatta No.29 KM.5, Belalau I, Kec. Lubuk Linggau Utara I, Kota Lubuklinggau, Sumatera Selatan 31611";"Belalau I, Kec. Lubuk Linggau Utara I, Kota Lubuklinggau";"SUMATERA SELATAN";"31611";"Indonesia";" 0733325982";"";"";"-3.2526191";"102.8510512";"https://maps.google.com/?cid=0x0:0xed89c4b659fc5ac0";""
"mall";"mall";"Hotel Royal";"Jl. Yos Sudarso No.88, RT.2, Jawa Kanan Ss, Kec. Lubuk Linggau Tim. II, Kota Lubuklinggau, Sumatera Selatan 31613";"RT.2, Jawa Kanan Ss, Kec. Lubuk Linggau Tim. II, Kota Lubuklinggau";"SUMATERA SELATAN";"31613";"Indonesia";" 0733321685";"";"";"-3.2928011";"102.868875";"https://maps.google.com/?cid=0x0:0xd6909aa5df43306b";""
"mall";"mall";"COZY STYLE HOTEL";"Jl. Yos Sudarso No.309, Dempo, Kec. Lubuk Linggau Tim. II, Kota Lubuklinggau, Sumatera Selatan 31613";"Dempo, Kec. Lubuk Linggau Tim. II, Kota Lubuklinggau";"SUMATERA SELATAN";"31613";"Indonesia";" 07333285555";"";"";"-3.2956599";"102.867082";"https://maps.google.com/?cid=0x0:0x78e03f7c22570a7a";""
"mall";"Tujuan Wisata";"Air Terjun Temam";"Jl. Air Temam, Rahmah, Kec. Lubuk Linggau Sel. I, Kota Lubuklinggau, Sumatera Selatan 31600";"Rahmah, Kec. Lubuk Linggau Sel. I, Kota Lubuklinggau";"SUMATERA SELATAN";"31600";"Indonesia";" 082175182223";"";"";"-3.2935625";"102.9300625";"https://maps.google.com/?cid=0x0:0x24b5109c6d325f46";""
"mall";"Pasar";"Pasar Lubuklinggau";"PV37+CV3, Jl. Yos Sudarso, Jawa Kiri, Kec. Lubuk Linggau Tim. II, Kota Lubuklinggau, Sumatera Selatan 31613";"Jl. Yos Sudarso, Jawa Kiri, Kec. Lubuk Linggau Tim. II, Kota Lubuklinggau";"SUMATERA SELATAN";"31613";"Indonesia";" 083872654791";"";"";"-3.2964964";"102.8646808";"https://maps.google.com/?cid=0x0:0x356d0a951e734993";""
"mall";"Pedagang tekstil";"Matahari Department Store Lubuklinggau";"Jl. Yos Sudarso, Taba Jemekeh, Kec. Lubuk Linggau Tim. I, Kota Lubuklinggau, Sumatera Selatan 31631";"Taba Jemekeh, Kec. Lubuk Linggau Tim. I, Kota Lubuklinggau";"SUMATERA SELATAN";"31631";"Indonesia";" 0733328406";"";"";"-3.2876287";"102.877649";"https://maps.google.com/?cid=0x0:0x63b9d15c7e48213";""
"mall";"Restoran";"KEDAI MASAYU";"Jl. Kelabat No.I No.01, Jawa Kiri, Kec. Lubuk Linggau Tim. II, Kota Lubuklinggau, Sumatera Selatan 31622";"Jawa Kiri, Kec. Lubuk Linggau Tim. II, Kota Lubuklinggau";"SUMATERA SELATAN";"31622";"Indonesia";" 082375126783";"";"";"-3.2919515";"102.8735759";"https://maps.google.com/?cid=0x0:0xd9059d160a632233";""
"mall";"Pusat Perbelanjaan";"Lippo Plaza Lubuklinggau";"Jl. Yos Sudarso No.31, Taba Jemekeh, Kec. Lubuk Linggau Tim. II, Kota Lubuklinggau, Sumatera Selatan 31613";"Taba Jemekeh, Kec. Lubuk Linggau Tim. II, Kota Lubuklinggau";"SUMATERA SELATAN";"31613";"Indonesia";"";"";"";"-3.2879773";"102.8777476";"https://maps.google.com/?cid=0x0:0x44910cb5dec7223c";""
"mall";"Pasar";"Pasar Lubuklinggau";"PV37+CV3, Jl. Yos Sudarso, Jawa Kiri, Kec. Lubuk Linggau Tim. II, Kota Lubuklinggau, Sumatera Selatan 31613";"Jl. Yos Sudarso, Jawa Kiri, Kec. Lubuk Linggau Tim. II, Kota Lubuklinggau";"SUMATERA SELATAN";"31613";"Indonesia";" 083872654791";"";"";"-3.2964964";"102.8646808";"https://maps.google.com/?cid=0x0:0x356d0a951e734993";""
"mall";"Pedagang tekstil";"Matahari Department Store Lubuklinggau";"Jl. Yos Sudarso, Taba Jemekeh, Kec. Lubuk Linggau Tim. I, Kota Lubuklinggau, Sumatera Selatan 31631";"Taba Jemekeh, Kec. Lubuk Linggau Tim. I, Kota Lubuklinggau";"SUMATERA SELATAN";"31631";"Indonesia";" 0733328406";"";"";"-3.2876287";"102.877649";"https://maps.google.com/?cid=0x0:0x63b9d15c7e48213";""
"mall";"Pusat Perbelanjaan";"Lippo Plaza Lubuklinggau";"Jl. Yos Sudarso No.31, Taba Jemekeh, Kec. Lubuk Linggau Tim. II, Kota Lubuklinggau, Sumatera Selatan 31613";"Taba Jemekeh, Kec. Lubuk Linggau Tim. II, Kota Lubuklinggau";"SUMATERA SELATAN";"31613";"Indonesia";"";"";"";"-3.2879773";"102.8777476";"https://maps.google.com/?cid=0x0:0x44910cb5dec7223c";""
"mall";"Pedagang tekstil";"Matahari Department Store Lubuklinggau";"Jl. Yos Sudarso, Taba Jemekeh, Kec. Lubuk Linggau Tim. I, Kota Lubuklinggau, Sumatera Selatan 31631";"Taba Jemekeh, Kec. Lubuk Linggau Tim. I, Kota Lubuklinggau";"SUMATERA SELATAN";"31631";"Indonesia";" 0733328406";"";"";"-3.2876287";"102.877649";"https://maps.google.com/?cid=0x0:0x63b9d15c7e48213";""
"mall";"Pusat Perbelanjaan";"LMshop";"Jl.pasir no.106 rt. 03 kelurahan, Taba Jemekeh, Kec. Lubuk Linggau Tim. I, Kota Lubuklinggau, Sumatera Selatan 31625";"Taba Jemekeh, Kec. Lubuk Linggau Tim. I, Kota Lubuklinggau";"SUMATERA SELATAN";"31625";"Indonesia";" 083180800080";"";"";"-3.282156";"102.8839329";"https://maps.google.com/?cid=0x0:0x2796c3463d750715";""
"mall";"Pasar";"Pasar Lubuklinggau";"PV37+CV3, Jl. Yos Sudarso, Jawa Kiri, Kec. Lubuk Linggau Tim. II, Kota Lubuklinggau, Sumatera Selatan 31613";"Jl. Yos Sudarso, Jawa Kiri, Kec. Lubuk Linggau Tim. II, Kota Lubuklinggau";"SUMATERA SELATAN";"31613";"Indonesia";" 083872654791";"";"";"-3.2964964";"102.8646808";"https://maps.google.com/?cid=0x0:0x356d0a951e734993";""
"mall";"Pusat Perbelanjaan";"Lippo Plaza Lubuklinggau";"Jl. Yos Sudarso No.31, Taba Jemekeh, Kec. Lubuk Linggau Tim. II, Kota Lubuklinggau, Sumatera Selatan 31613";"Taba Jemekeh, Kec. Lubuk Linggau Tim. II, Kota Lubuklinggau";"SUMATERA SELATAN";"31613";"Indonesia";"";"";"";"-3.2879773";"102.8777476";"https://maps.google.com/?cid=0x0:0x44910cb5dec7223c";""
"mall";"Pasar";"Pasar Lubuklinggau";"PV37+CV3, Jl. Yos Sudarso, Jawa Kiri, Kec. Lubuk Linggau Tim. II, Kota Lubuklinggau, Sumatera Selatan 31613";"Jl. Yos Sudarso, Jawa Kiri, Kec. Lubuk Linggau Tim. II, Kota Lubuklinggau";"SUMATERA SELATAN";"31613";"Indonesia";" 083872654791";"";"";"-3.2964964";"102.8646808";"https://maps.google.com/?cid=0x0:0x356d0a951e734993";""
"mall";"Pedagang tekstil";"Matahari Department Store Lubuklinggau";"Jl. Yos Sudarso, Taba Jemekeh, Kec. Lubuk Linggau Tim. I, Kota Lubuklinggau, Sumatera Selatan 31631";"Taba Jemekeh, Kec. Lubuk Linggau Tim. I, Kota Lubuklinggau";"SUMATERA SELATAN";"31631";"Indonesia";" 0733328406";"";"";"-3.2876287";"102.877649";"https://maps.google.com/?cid=0x0:0x63b9d15c7e48213";""
"mall";"Toko";"Zee. En Store LubukLinggau Dusdusan Lubuklinggau";"Jln. Fatwamati, perumahan Grand Ville Taba Lestari 2, Blok J-4, Kota Lubuklinggau, Sumatera Selatan 31614";"perumahan Grand Ville Taba Lestari 2, Blok J-4, Kota Lubuklinggau";"SUMATERA SELATAN";"31614";"Indonesia";" 081377743552";"";"";"-3.2917749";"102.8928005";"https://maps.google.com/?cid=0x0:0x79d4ac7a83075ec";""
"mall";"Pusat Perbelanjaan";"LMshop";"Jl.pasir no.106 rt. 03 kelurahan, Taba Jemekeh, Kec. Lubuk Linggau Tim. I, Kota Lubuklinggau, Sumatera Selatan 31625";"Taba Jemekeh, Kec. Lubuk Linggau Tim. I, Kota Lubuklinggau";"SUMATERA SELATAN";"31625";"Indonesia";" 083180800080";"";"";"-3.282156";"102.8839329";"https://maps.google.com/?cid=0x0:0x2796c3463d750715";""
"mall";"Pusat Perbelanjaan";"RH Mart";"PVH6+7FC, Jogoboyo, Kec. Lubuk Linggau Utara II, Kota Lubuklinggau, Sumatera Selatan 31611";"Jogoboyo, Kec. Lubuk Linggau Utara II, Kota Lubuklinggau";"SUMATERA SELATAN";"31611";"Indonesia";"";"";"";"-3.2718031";"102.8611316";"https://maps.google.com/?cid=0x0:0xfbeff9b97737d65";""
"mall";"Toko";"Amoxcell01";"Jl. Kenanga I No.2, Kenanga, Kec. Lubuk Linggau Utara II, Kota Lubuklinggau, Sumatera Selatan 31613";"Kenanga, Kec. Lubuk Linggau Utara II, Kota Lubuklinggau";"SUMATERA SELATAN";"31613";"Indonesia";" 081279429103";"";"";"-3.2878161";"102.8662873";"https://maps.google.com/?cid=0x0:0x263d29ebb641cc1c";""
"mall";"Toko";"HERO Cell Linggau";"Jl. Jendral Sudirman, Ps. Satelit, Kec. Lubuk Linggau Utara II, Kota Lubuklinggau, Sumatera Selatan 31613";"Ps. Satelit, Kec. Lubuk Linggau Utara II, Kota Lubuklinggau";"SUMATERA SELATAN";"31613";"Indonesia";" 082279192090";"";"";"-3.2844247";"102.8617002";"https://maps.google.com/?cid=0x0:0x2f69e4a5e196294d";""
"mall";"Pusat Perbelanjaan";"Os. Tas Lubuklinggau";"Jl. Yos Sudarso, Batu Urip Taba, Kec. Lubuk Linggau Tim. I, Kota Lubuklinggau, Sumatera Selatan 31265";"Batu Urip Taba, Kec. Lubuk Linggau Tim. I, Kota Lubuklinggau";"SUMATERA SELATAN";"31265";"Indonesia";" 082183594022";"";"";"-3.2802537";"102.8917535";"https://maps.google.com/?cid=0x0:0xd4b3086f3178a821";""
"mall";"Pusat Perbelanjaan";"Lippo Plaza Lubuklinggau";"Jl. Yos Sudarso No.31, Taba Jemekeh, Kec. Lubuk Linggau Tim. II, Kota Lubuklinggau, Sumatera Selatan 31613";"Taba Jemekeh, Kec. Lubuk Linggau Tim. II, Kota Lubuklinggau";"SUMATERA SELATAN";"31613";"Indonesia";"";"";"";"-3.2879773";"102.8777476";"https://maps.google.com/?cid=0x0:0x44910cb5dec7223c";""
"mall";"Pasar";"Pasar Lubuklinggau";"PV37+CV3, Jl. Yos Sudarso, Jawa Kiri, Kec. Lubuk Linggau Tim. II, Kota Lubuklinggau, Sumatera Selatan 31613";"Jl. Yos Sudarso, Jawa Kiri, Kec. Lubuk Linggau Tim. II, Kota Lubuklinggau";"SUMATERA SELATAN";"31613";"Indonesia";" 083872654791";"";"";"-3.2964964";"102.8646808";"https://maps.google.com/?cid=0x0:0x356d0a951e734993";""
"mall";"Pedagang tekstil";"Matahari Department Store Lubuklinggau";"Jl. Yos Sudarso, Taba Jemekeh, Kec. Lubuk Linggau Tim. I, Kota Lubuklinggau, Sumatera Selatan 31631";"Taba Jemekeh, Kec. Lubuk Linggau Tim. I, Kota Lubuklinggau";"SUMATERA SELATAN";"31631";"Indonesia";" 0733328406";"";"";"-3.2876287";"102.877649";"https://maps.google.com/?cid=0x0:0x63b9d15c7e48213";""
"mall";"mall";"Kec. Lubuk Linggau Utara II";"Kota Lubuklinggau, Sumatera Selatan";"Kota Lubuklinggau, Sumatera Selatan";"SUMATERA SELATAN";"";"Indonesia";"";"";"";"-3.2803457";"102.8640062";"https://maps.google.com/?cid=0x0:0xfa4b3a2f62cf8e65";""
"mall";"Pusat Perbelanjaan";"Lippo Plaza Lubuklinggau";"Jl. Yos Sudarso No.31, Taba Jemekeh, Kec. Lubuk Linggau Tim. II, Kota Lubuklinggau, Sumatera Selatan 31613";"Taba Jemekeh, Kec. Lubuk Linggau Tim. II, Kota Lubuklinggau";"SUMATERA SELATAN";"31613";"Indonesia";"";"";"";"-3.2879773";"102.8777476";"https://maps.google.com/?cid=0x0:0x44910cb5dec7223c";""
"mall";"Hipermarket";"JM Linggau";"PV6H+QFV, Jl. Yos Sudarso, Taba Koji, Kec. Lubuk Linggau Tim. I, Kota Lubuklinggau, Sumatera Selatan 31624";"Jl. Yos Sudarso, Taba Koji, Kec. Lubuk Linggau Tim. I, Kota Lubuklinggau";"SUMATERA SELATAN";"31624";"Indonesia";" 07337329377";"";"";"-3.2880081";"102.8786765";"https://maps.google.com/?cid=0x0:0x60458b8d77f3a012";""
"mall";"Pusat Perbelanjaan";"Hypermart - Lippo Plaza Lubuklinggau";"Lippo Plaza, Jl. Yos Sudarso No.765, Taba Jemekeh, Kec. Lubuk Linggau Tim. I, Kota Lubuklinggau, Sumatera Selatan 31628";"Jl. Yos Sudarso No.765, Taba Jemekeh, Kec. Lubuk Linggau Tim. I, Kota Lubuklinggau";"SUMATERA SELATAN";"31628";"Indonesia";" 07333281366";"";"";"-3.2875752";"102.8776077";"https://maps.google.com/?cid=0x0:0xca1a0c8b0d31cb09";""
"mall";"Pusat Perbelanjaan";"Cinépolis Lippo Plaza Lubuklinggau";"Lippo Plaza Lubuklinggau Jl. Yos SudarsoTaba Jemekeh, Taba Jemekeh, Kec. Lubuk Linggau Tim. I, Kota Lubuklinggau, Sumatera Selatan 31613";"Taba Jemekeh, Kec. Lubuk Linggau Tim. I, Kota Lubuklinggau";"SUMATERA SELATAN";"31613";"Indonesia";" 07333283010";"";"";"-3.2865205";"102.877555";"https://maps.google.com/?cid=0x0:0xa73f271551314321";""
"mall";"Toko Rokok Elektrik";"Silampari Vape Store  Cafe";"sebelah bank BCA, Jl. Yos Sudarso Gg. Mutiara No.23, RT.11, Taba Jemekeh, Kec. Lubuk Linggau Tim. I, Kota Lubuklinggau, Sumatera Selatan 31625";"Jl. Yos Sudarso Gg. Mutiara No.23, RT.11, Taba Jemekeh, Kec. Lubuk Linggau Tim. I, Kota Lubuklinggau";"SUMATERA SELATAN";"31625";"Indonesia";" 082371717123";"";"";"-3.2887294";"102.8784439";"https://maps.google.com/?cid=0x0:0xffd3b94c9a700459";""
"mall";"Jepang";"Shabura Suki  Grill";"Jl. Bukit Sulap No.40 Kel, Wira Karya, Kec. Lubuk Linggau Tim. II, Kota Lubuklinggau, Sumatera Selatan 31613";"Wira Karya, Kec. Lubuk Linggau Tim. II, Kota Lubuklinggau";"SUMATERA SELATAN";"31613";"Indonesia";" 08117882577";"";"";"-3.2931463";"102.8728846";"https://maps.google.com/?cid=0x0:0x932c9195e6c27f1f";""
"mall";"Toko Elektronik";"SERLI PELANGI GROSIR";"Jl. Lakitan No.102, Ps. Satelit, Kec. Lubuk Linggau Utara II, Kota Lubuklinggau, Sumatera Selatan 31613";"Ps. Satelit, Kec. Lubuk Linggau Utara II, Kota Lubuklinggau";"SUMATERA SELATAN";"31613";"Indonesia";"";"";"";"-3.2858825";"102.8594052";"https://maps.google.com/?cid=0x0:0xecea0dbf39e580fe";""
"mall";"Toko";"HERO Cell Linggau";"Jl. Jendral Sudirman, Ps. Satelit, Kec. Lubuk Linggau Utara II, Kota Lubuklinggau, Sumatera Selatan 31613";"Ps. Satelit, Kec. Lubuk Linggau Utara II, Kota Lubuklinggau";"SUMATERA SELATAN";"31613";"Indonesia";" 082279192090";"";"";"-3.2844247";"102.8617002";"https://maps.google.com/?cid=0x0:0x2f69e4a5e196294d";""
"mall";"Pedagang tekstil";"Matahari Department Store Lubuklinggau";"Jl. Yos Sudarso, Taba Jemekeh, Kec. Lubuk Linggau Tim. I, Kota Lubuklinggau, Sumatera Selatan 31631";"Taba Jemekeh, Kec. Lubuk Linggau Tim. I, Kota Lubuklinggau";"SUMATERA SELATAN";"31631";"Indonesia";" 0733328406";"";"";"-3.2876287";"102.877649";"https://maps.google.com/?cid=0x0:0x63b9d15c7e48213";""
"mall";"Pasar";"Pasar Lubuklinggau";"PV37+CV3, Jl. Yos Sudarso, Jawa Kiri, Kec. Lubuk Linggau Tim. II, Kota Lubuklinggau, Sumatera Selatan 31613";"Jl. Yos Sudarso, Jawa Kiri, Kec. Lubuk Linggau Tim. II, Kota Lubuklinggau";"SUMATERA SELATAN";"31613";"Indonesia";" 083872654791";"";"";"-3.2964964";"102.8646808";"https://maps.google.com/?cid=0x0:0x356d0a951e734993";""
"mall";"mall";"Sumatera Selatan 31619";"Kec. Lubuk Linggau Utara I, Kota Lubuklinggau, Sumatera Selatan";"Kota Lubuklinggau, Sumatera Selatan";"SUMATERA SELATAN";"";"Indonesia";"";"";"";"-3.1810114";"102.9147742";"https://maps.google.com/?cid=0x0:0x4235b8e6f1a9fdb8";""
"mall";"Pusat Perbelanjaan";"Lippo Plaza Lubuklinggau";"Jl. Yos Sudarso No.31, Taba Jemekeh, Kec. Lubuk Linggau Tim. II, Kota Lubuklinggau, Sumatera Selatan 31613";"Taba Jemekeh, Kec. Lubuk Linggau Tim. II, Kota Lubuklinggau";"SUMATERA SELATAN";"31613";"Indonesia";"";"";"";"-3.2879773";"102.8777476";"https://maps.google.com/?cid=0x0:0x44910cb5dec7223c";""
"mall";"Pusat Perbelanjaan";"Llg";"MVX5+3WH, Jl. Letkol Atmo, Sukajadi, Kec. Lubuk Linggau Bar. I, Kota Lubuklinggau, Sumatera Selatan 31614";"Jl. Letkol Atmo, Sukajadi, Kec. Lubuk Linggau Bar. I, Kota Lubuklinggau";"SUMATERA SELATAN";"31614";"Indonesia";"";"";"";"-3.3023029";"102.8598663";"https://maps.google.com/?cid=0x0:0x5b6f3757db136ec8";""
"mall";"Toko Elektronik";"SERLI PELANGI GROSIR";"Jl. Lakitan No.102, Ps. Satelit, Kec. Lubuk Linggau Utara II, Kota Lubuklinggau, Sumatera Selatan 31613";"Ps. Satelit, Kec. Lubuk Linggau Utara II, Kota Lubuklinggau";"SUMATERA SELATAN";"31613";"Indonesia";"";"";"";"-3.2858825";"102.8594052";"https://maps.google.com/?cid=0x0:0xecea0dbf39e580fe";""
"mall";"mall";"Kec. Lubuk Linggau Utara I";"Kota Lubuklinggau, Sumatera Selatan";"Kota Lubuklinggau, Sumatera Selatan";"SUMATERA SELATAN";"";"Indonesia";"";"";"";"-3.2060155";"102.8385682";"https://maps.google.com/?cid=0x0:0xd9a448695deb6686";""
"mall";"Pusat Perbelanjaan";"Lippo Plaza Lubuklinggau";"Jl. Yos Sudarso No.31, Taba Jemekeh, Kec. Lubuk Linggau Tim. II, Kota Lubuklinggau, Sumatera Selatan 31613";"Taba Jemekeh, Kec. Lubuk Linggau Tim. II, Kota Lubuklinggau";"SUMATERA SELATAN";"31613";"Indonesia";"";"";"";"-3.2879773";"102.8777476";"https://maps.google.com/?cid=0x0:0x44910cb5dec7223c";""
"mall";"Pasar";"Pasar Lubuklinggau";"PV37+CV3, Jl. Yos Sudarso, Jawa Kiri, Kec. Lubuk Linggau Tim. II, Kota Lubuklinggau, Sumatera Selatan 31613";"Jl. Yos Sudarso, Jawa Kiri, Kec. Lubuk Linggau Tim. II, Kota Lubuklinggau";"SUMATERA SELATAN";"31613";"Indonesia";" 083872654791";"";"";"-3.2964964";"102.8646808";"https://maps.google.com/?cid=0x0:0x356d0a951e734993";""
"mall";"Pedagang tekstil";"Matahari Department Store Lubuklinggau";"Jl. Yos Sudarso, Taba Jemekeh, Kec. Lubuk Linggau Tim. I, Kota Lubuklinggau, Sumatera Selatan 31631";"Taba Jemekeh, Kec. Lubuk Linggau Tim. I, Kota Lubuklinggau";"SUMATERA SELATAN";"31631";"Indonesia";" 0733328406";"";"";"-3.2876287";"102.877649";"https://maps.google.com/?cid=0x0:0x63b9d15c7e48213";""
"mall";"Pusat Perbelanjaan";"Lippo Plaza Lubuklinggau";"Jl. Yos Sudarso No.31, Taba Jemekeh, Kec. Lubuk Linggau Tim. II, Kota Lubuklinggau, Sumatera Selatan 31613";"Taba Jemekeh, Kec. Lubuk Linggau Tim. II, Kota Lubuklinggau";"SUMATERA SELATAN";"31613";"Indonesia";"";"";"";"-3.2879773";"102.8777476";"https://maps.google.com/?cid=0x0:0x44910cb5dec7223c";""
"mall";"Pasar";"Pasar Lubuklinggau";"PV37+CV3, Jl. Yos Sudarso, Jawa Kiri, Kec. Lubuk Linggau Tim. II, Kota Lubuklinggau, Sumatera Selatan 31613";"Jl. Yos Sudarso, Jawa Kiri, Kec. Lubuk Linggau Tim. II, Kota Lubuklinggau";"SUMATERA SELATAN";"31613";"Indonesia";" 083872654791";"";"";"-3.2964964";"102.8646808";"https://maps.google.com/?cid=0x0:0x356d0a951e734993";""
"mall";"Pedagang tekstil";"Matahari Department Store Lubuklinggau";"Jl. Yos Sudarso, Taba Jemekeh, Kec. Lubuk Linggau Tim. I, Kota Lubuklinggau, Sumatera Selatan 31631";"Taba Jemekeh, Kec. Lubuk Linggau Tim. I, Kota Lubuklinggau";"SUMATERA SELATAN";"31631";"Indonesia";" 0733328406";"";"";"-3.2876287";"102.877649";"https://maps.google.com/?cid=0x0:0x63b9d15c7e48213";""
"mall";"Pusat Perbelanjaan";"Lippo Plaza Lubuklinggau";"Jl. Yos Sudarso No.31, Taba Jemekeh, Kec. Lubuk Linggau Tim. II, Kota Lubuklinggau, Sumatera Selatan 31613";"Taba Jemekeh, Kec. Lubuk Linggau Tim. II, Kota Lubuklinggau";"SUMATERA SELATAN";"31613";"Indonesia";"";"";"";"-3.2879773";"102.8777476";"https://maps.google.com/?cid=0x0:0x44910cb5dec7223c";""
"mall";"Pasar";"Pasar Lubuklinggau";"PV37+CV3, Jl. Yos Sudarso, Jawa Kiri, Kec. Lubuk Linggau Tim. II, Kota Lubuklinggau, Sumatera Selatan 31613";"Jl. Yos Sudarso, Jawa Kiri, Kec. Lubuk Linggau Tim. II, Kota Lubuklinggau";"SUMATERA SELATAN";"31613";"Indonesia";" 083872654791";"";"";"-3.2964964";"102.8646808";"https://maps.google.com/?cid=0x0:0x356d0a951e734993";""
"mall";"Pusat Perbelanjaan";"Lippo Plaza Lubuklinggau";"Jl. Yos Sudarso No.31, Taba Jemekeh, Kec. Lubuk Linggau Tim. II, Kota Lubuklinggau, Sumatera Selatan 31613";"Taba Jemekeh, Kec. Lubuk Linggau Tim. II, Kota Lubuklinggau";"SUMATERA SELATAN";"31613";"Indonesia";"";"";"";"-3.2879773";"102.8777476";"https://maps.google.com/?cid=0x0:0x44910cb5dec7223c";""
"mall";"Pasar";"Pasar Lubuklinggau";"PV37+CV3, Jl. Yos Sudarso, Jawa Kiri, Kec. Lubuk Linggau Tim. II, Kota Lubuklinggau, Sumatera Selatan 31613";"Jl. Yos Sudarso, Jawa Kiri, Kec. Lubuk Linggau Tim. II, Kota Lubuklinggau";"SUMATERA SELATAN";"31613";"Indonesia";" 083872654791";"";"";"-3.2964964";"102.8646808";"https://maps.google.com/?cid=0x0:0x356d0a951e734993";""
"mall";"Pedagang tekstil";"Matahari Department Store Lubuklinggau";"Jl. Yos Sudarso, Taba Jemekeh, Kec. Lubuk Linggau Tim. I, Kota Lubuklinggau, Sumatera Selatan 31631";"Taba Jemekeh, Kec. Lubuk Linggau Tim. I, Kota Lubuklinggau";"SUMATERA SELATAN";"31631";"Indonesia";" 0733328406";"";"";"-3.2876287";"102.877649";"https://maps.google.com/?cid=0x0:0x63b9d15c7e48213";""
"supermarket";"supermarket";"Sumatera Selatan 31611";"Kota Lubuklinggau, Sumatera Selatan";"Kota Lubuklinggau, Sumatera Selatan";"SUMATERA SELATAN";"";"Indonesia";"";"";"";"-3.2702468";"102.8457316";"https://maps.google.com/?cid=0x0:0xcddd419871e601f5";""
"supermarket";"Minimarket";"Minimarket MARS";"Jl. Cendana No. 54-55 Perumnas Tanjung Aman, Tj. Aman, Lubuklinggau, Sumatera Selatan, 31614";"Tj. Aman, Lubuklinggau";"SUMATERA SELATAN";"31614";"Indonesia";" 0733324778";"";"";"-3.310534";"102.848219";"https://maps.google.com/?cid=0x0:0xa43afbc9b74fffae";""
"supermarket";"Hipermarket";"JM Linggau";"PV6H+QFV, Jl. Yos Sudarso, Taba Koji, Kec. Lubuk Linggau Tim. I, Kota Lubuklinggau, Sumatera Selatan 31624";"Jl. Yos Sudarso, Taba Koji, Kec. Lubuk Linggau Tim. I, Kota Lubuklinggau";"SUMATERA SELATAN";"31624";"Indonesia";" 07337329377";"";"";"-3.2880081";"102.8786765";"https://maps.google.com/?cid=0x0:0x60458b8d77f3a012";""
"supermarket";"Toko";"Minimarket MARS";"Jl. Depati Said RT. 07, Ulak Lebar, Lubuklinggau, Ulak Lebar, Kec. Lubuk Linggau Bar. II, Sumatera Selatan, 31614";"Ulak Lebar, Lubuklinggau, Ulak Lebar, Kec. Lubuk Linggau Bar. II";"SUMATERA SELATAN";"31614";"Indonesia";" 0733320718";"";"";"-3.3011498";"102.8445956";"https://maps.google.com/?cid=0x0:0x32801262c16af131";""
"supermarket";"Toko";"Toko Wiwin/ Rumah Lubuklinggau";"Lorong Pak Joo, Jl.Yos Sudarso Km.05 No.07 Rt.03, Watervang, Kec. Lubuk Linggau Tim. I, Kota Lubuklinggau, Sumatera Selatan 31626";"Jl.Yos Sudarso Km.05 No.07 Rt.03, Watervang, Kec. Lubuk Linggau Tim. I, Kota Lubuklinggau";"SUMATERA SELATAN";"31626";"Indonesia";" 082275664134";"";"";"-3.2747216";"102.9018842";"https://maps.google.com/?cid=0x0:0x15fc185d5f556098";""
"supermarket";"Toko";"MM FROZENFOOD";"Jl. Malabar No.10, Jawa Kiri, Kec. Lubuk Linggau Tim. II, Kota Lubuklinggau, Sumatera Selatan 31613";"Jawa Kiri, Kec. Lubuk Linggau Tim. II, Kota Lubuklinggau";"SUMATERA SELATAN";"31613";"Indonesia";" 08980839178";"";"";"-3.2896875";"102.8740352";"https://maps.google.com/?cid=0x0:0x5b722165805a7378";""
"supermarket";"Toko bahan makanan";"SM MART";"Jl. Bukit Sulap, Wira Karya, Kec. Lubuk Linggau Tim. I, Kota Lubuklinggau, Sumatera Selatan 31623";"Wira Karya, Kec. Lubuk Linggau Tim. I, Kota Lubuklinggau";"SUMATERA SELATAN";"31623";"Indonesia";" 0733323888";"";"";"-3.293277";"102.8723118";"https://maps.google.com/?cid=0x0:0xa4282e4c1846a738";""
"supermarket";"Toko bahan makanan";"SM SWALAYAN Garuda";"PV37+73W, Jl. Garuda, Ps. Permiri, Kec. Lubuk Linggau Bar. II, Kota Lubuklinggau, Sumatera Selatan 31613";"Jl. Garuda, Ps. Permiri, Kec. Lubuk Linggau Bar. II, Kota Lubuklinggau";"SUMATERA SELATAN";"31613";"Indonesia";" 07333281988";"";"";"-3.2967606";"102.8626956";"https://maps.google.com/?cid=0x0:0x9a077fdd38760100";""
"supermarket";"Toko Perlengkapan Rumah";"Mitra Bangunan Supermarket Lubuk Linggau";"Watervang, Kec. Lubuk Linggau Tim. I, Kota Lubuklinggau, Sumatera Selatan 31625";"Kec. Lubuk Linggau Tim. I, Kota Lubuklinggau";"SUMATERA SELATAN";"31625";"Indonesia";"";"";"";"-3.2756118";"102.9003116";"https://maps.google.com/?cid=0x0:0x9741dde2cf1035e";""
"supermarket";"Minimarket";"TOKO KARYATAMA";"PV86+3Q6, Jl. Jendral Sudirman, Ps. Satelit, Kec. Lubuk Linggau Utara II, Kota Lubuklinggau, Sumatera Selatan 31617";"Jl. Jendral Sudirman, Ps. Satelit, Kec. Lubuk Linggau Utara II, Kota Lubuklinggau";"SUMATERA SELATAN";"31617";"Indonesia";" 081998333336";"";"";"-3.2848303";"102.8618909";"https://maps.google.com/?cid=0x0:0x9c1b9598110ef884";""
"supermarket";"Minimarket";"Alfamart";"Jl. Garuda No.24, RT.03, Bandung Kanan, Kec. Lubuk Linggau Bar. II, Kota Lubuklinggau, Sumatera Selatan 31611";"RT.03, Bandung Kanan, Kec. Lubuk Linggau Bar. II, Kota Lubuklinggau";"SUMATERA SELATAN";"31611";"Indonesia";" 1500959";"";"";"-3.2984143";"102.858932";"https://maps.google.com/?cid=0x0:0xef28c42041fb3520";""
"supermarket";"Minimarket";"Alfamart taba koji";"Jl. Yos Sudarso No.Rt. 02, Taba Koji, Kec. Lubuk Linggau Tim. I, Kota Lubuklinggau, Sumatera Selatan 31628";"Taba Koji, Kec. Lubuk Linggau Tim. I, Kota Lubuklinggau";"SUMATERA SELATAN";"31628";"Indonesia";" 1500959";"";"";"-3.2893841";"102.8741577";"https://maps.google.com/?cid=0x0:0x58a419b7053a5469";""
"supermarket";"supermarket";"Kec. Lubuk Linggau Bar. I";"Kota Lubuklinggau, Sumatera Selatan";"Kota Lubuklinggau, Sumatera Selatan";"SUMATERA SELATAN";"";"Indonesia";"";"";"";"-3.307821";"102.8464942";"https://maps.google.com/?cid=0x0:0x1ef773457c9af524";""
"supermarket";"Toko Swalayan";"SM SWALAYAN YOS SUDARSO";"Jl. Yos Sudarso No.309, Dempo, Kec. Lubuk Linggau Tim. II, Kota Lubuklinggau, Sumatera Selatan 31613";"Dempo, Kec. Lubuk Linggau Tim. II, Kota Lubuklinggau";"SUMATERA SELATAN";"31613";"Indonesia";" 07333281988";"";"";"-3.2955737";"102.8670296";"https://maps.google.com/?cid=0x0:0x82de5a856938c30";""
"supermarket";"Toko bahan makanan";"Kantor SM Group Linggau";"Wira Karya, Kec. Lubuk Linggau Tim. II, Kota Lubuklinggau, Sumatera Selatan 31613";"Kec. Lubuk Linggau Tim. II, Kota Lubuklinggau";"SUMATERA SELATAN";"31613";"Indonesia";" 07333281988";"";"";"-3.292675";"102.872047";"https://maps.google.com/?cid=0x0:0xa40fce897480caff";""
"supermarket";"Toko bahan makanan";"SM SWALAYAN BATU URIP";"PV9Q+8P3, Jl. Yos Sudarso, Batu Urip Taba, Kec. Lubuk Linggau Tim. I, Kota Lubuklinggau, Sumatera Selatan 31628";"Jl. Yos Sudarso, Batu Urip Taba, Kec. Lubuk Linggau Tim. I, Kota Lubuklinggau";"SUMATERA SELATAN";"31628";"Indonesia";" 07333281988";"";"";"-3.2817286";"102.8892892";"https://maps.google.com/?cid=0x0:0xa40344bb04717097";""
"supermarket";"supermarket";"Sumatera Selatan 31613";"Kota Lubuklinggau, Sumatera Selatan";"Kota Lubuklinggau, Sumatera Selatan";"SUMATERA SELATAN";"";"Indonesia";"";"";"";"-3.3091164";"102.8802479";"https://maps.google.com/?cid=0x0:0xb00fbf7ff80b17ba";""
"supermarket";"Toko";"Minimarket MARS";"Jl. Depati Said RT. 07, Ulak Lebar, Lubuklinggau, Ulak Lebar, Kec. Lubuk Linggau Bar. II, Sumatera Selatan, 31614";"Ulak Lebar, Lubuklinggau, Ulak Lebar, Kec. Lubuk Linggau Bar. II";"SUMATERA SELATAN";"31614";"Indonesia";" 0733320718";"";"";"-3.3011498";"102.8445956";"https://maps.google.com/?cid=0x0:0x32801262c16af131";""
"supermarket";"Minimarket";"Minimarket MARS";"Jl. Cendana No. 54-55 Perumnas Tanjung Aman, Tj. Aman, Lubuklinggau, Sumatera Selatan, 31614";"Tj. Aman, Lubuklinggau";"SUMATERA SELATAN";"31614";"Indonesia";" 0733324778";"";"";"-3.310534";"102.848219";"https://maps.google.com/?cid=0x0:0xa43afbc9b74fffae";""
"supermarket";"Toko bahan makanan";"SM SWALAYAN BATU URIP";"PV9Q+8P3, Jl. Yos Sudarso, Batu Urip Taba, Kec. Lubuk Linggau Tim. I, Kota Lubuklinggau, Sumatera Selatan 31628";"Jl. Yos Sudarso, Batu Urip Taba, Kec. Lubuk Linggau Tim. I, Kota Lubuklinggau";"SUMATERA SELATAN";"31628";"Indonesia";" 07333281988";"";"";"-3.2817286";"102.8892892";"https://maps.google.com/?cid=0x0:0xa40344bb04717097";""
"supermarket";"Hipermarket";"JM Linggau";"PV6H+QFV, Jl. Yos Sudarso, Taba Koji, Kec. Lubuk Linggau Tim. I, Kota Lubuklinggau, Sumatera Selatan 31624";"Jl. Yos Sudarso, Taba Koji, Kec. Lubuk Linggau Tim. I, Kota Lubuklinggau";"SUMATERA SELATAN";"31624";"Indonesia";" 07337329377";"";"";"-3.2880081";"102.8786765";"https://maps.google.com/?cid=0x0:0x60458b8d77f3a012";""
"supermarket";"Pusat Perbelanjaan";"Hypermart - Lippo Plaza Lubuklinggau";"Lippo Plaza, Jl. Yos Sudarso No.765, Taba Jemekeh, Kec. Lubuk Linggau Tim. I, Kota Lubuklinggau, Sumatera Selatan 31628";"Jl. Yos Sudarso No.765, Taba Jemekeh, Kec. Lubuk Linggau Tim. I, Kota Lubuklinggau";"SUMATERA SELATAN";"31628";"Indonesia";" 07333281366";"";"";"-3.2875752";"102.8776077";"https://maps.google.com/?cid=0x0:0xca1a0c8b0d31cb09";""
"supermarket";"Toko bahan makanan";"Kantor SM Group Linggau";"Wira Karya, Kec. Lubuk Linggau Tim. II, Kota Lubuklinggau, Sumatera Selatan 31613";"Kec. Lubuk Linggau Tim. II, Kota Lubuklinggau";"SUMATERA SELATAN";"31613";"Indonesia";" 07333281988";"";"";"-3.292675";"102.872047";"https://maps.google.com/?cid=0x0:0xa40fce897480caff";""
"supermarket";"Toko";"Toko Wiwin/ Rumah Lubuklinggau";"Lorong Pak Joo, Jl.Yos Sudarso Km.05 No.07 Rt.03, Watervang, Kec. Lubuk Linggau Tim. I, Kota Lubuklinggau, Sumatera Selatan 31626";"Jl.Yos Sudarso Km.05 No.07 Rt.03, Watervang, Kec. Lubuk Linggau Tim. I, Kota Lubuklinggau";"SUMATERA SELATAN";"31626";"Indonesia";" 082275664134";"";"";"-3.2747216";"102.9018842";"https://maps.google.com/?cid=0x0:0x15fc185d5f556098";""
"supermarket";"Minimarket";"D'Bakoel Frozenfood";"Jl. Yos Sudarso No.9, Batu Urip Taba, Kec. Lubuk Linggau Tim. I, Kota Lubuklinggau, Sumatera Selatan 31624";"Batu Urip Taba, Kec. Lubuk Linggau Tim. I, Kota Lubuklinggau";"SUMATERA SELATAN";"31624";"Indonesia";" 085333057308";"";"";"-3.2801784";"102.8917923";"https://maps.google.com/?cid=0x0:0x7f9360512a8ab932";""
"supermarket";"Pusat Perbelanjaan";"Lippo Plaza Lubuklinggau";"Jl. Yos Sudarso No.31, Taba Jemekeh, Kec. Lubuk Linggau Tim. II, Kota Lubuklinggau, Sumatera Selatan 31613";"Taba Jemekeh, Kec. Lubuk Linggau Tim. II, Kota Lubuklinggau";"SUMATERA SELATAN";"31613";"Indonesia";"";"";"";"-3.2879773";"102.8777476";"https://maps.google.com/?cid=0x0:0x44910cb5dec7223c";""
"supermarket";"Toko";"MM FROZENFOOD";"Jl. Malabar No.10, Jawa Kiri, Kec. Lubuk Linggau Tim. II, Kota Lubuklinggau, Sumatera Selatan 31613";"Jawa Kiri, Kec. Lubuk Linggau Tim. II, Kota Lubuklinggau";"SUMATERA SELATAN";"31613";"Indonesia";" 08980839178";"";"";"-3.2896875";"102.8740352";"https://maps.google.com/?cid=0x0:0x5b722165805a7378";""
"supermarket";"Toko Pakaian";"Bill Shop Al-Haromain";"PV7M+G4J, Jl. Yos Sudarso, Taba Jemekeh, Kec. Lubuk Linggau Tim. I, Kota Lubuklinggau, Sumatera Selatan 31625";"Jl. Yos Sudarso, Taba Jemekeh, Kec. Lubuk Linggau Tim. I, Kota Lubuklinggau";"SUMATERA SELATAN";"31625";"Indonesia";" 085267936478";"";"";"-3.2861546";"102.8827661";"https://maps.google.com/?cid=0x0:0x583daced7cc7c42e";""
"supermarket";"Toko";"Priyo Mart";"Simpang Periuk, Kec. Lubuk Linggau Sel. II, Kota Lubuklinggau, Sumatera Selatan";"Kota Lubuklinggau, Sumatera Selatan";"SUMATERA SELATAN";"";"Indonesia";"";"";"";"-3.2677762";"102.9390721";"https://maps.google.com/?cid=0x0:0xa45d83c84f8efa3";""
"supermarket";"Minimarket";"D'Bakoel Seafood Frozenmart";"Jl. Yos Sudarso kecamatan, RT.06, Majapahit, Kec. Lubuk Linggau Tim. I, Kota Lubuklinggau, Sumatera Selatan 31625";"RT.06, Majapahit, Kec. Lubuk Linggau Tim. I, Kota Lubuklinggau";"SUMATERA SELATAN";"31625";"Indonesia";" 082139724668";"";"";"-3.2702472";"102.9084428";"https://maps.google.com/?cid=0x0:0x988e37345e05b4c8";""
"supermarket";"Toko bahan makanan";"SM SWALAYAN Garuda";"PV37+73W, Jl. Garuda, Ps. Permiri, Kec. Lubuk Linggau Bar. II, Kota Lubuklinggau, Sumatera Selatan 31613";"Jl. Garuda, Ps. Permiri, Kec. Lubuk Linggau Bar. II, Kota Lubuklinggau";"SUMATERA SELATAN";"31613";"Indonesia";" 07333281988";"";"";"-3.2967606";"102.8626956";"https://maps.google.com/?cid=0x0:0x9a077fdd38760100";""
"supermarket";"Toko Perlengkapan Rumah";"Mitra Bangunan Supermarket Lubuk Linggau";"Watervang, Kec. Lubuk Linggau Tim. I, Kota Lubuklinggau, Sumatera Selatan 31625";"Kec. Lubuk Linggau Tim. I, Kota Lubuklinggau";"SUMATERA SELATAN";"31625";"Indonesia";"";"";"";"-3.2756118";"102.9003116";"https://maps.google.com/?cid=0x0:0x9741dde2cf1035e";""
"supermarket";"Toko bahan makanan";"SM MART";"Jl. Bukit Sulap, Wira Karya, Kec. Lubuk Linggau Tim. I, Kota Lubuklinggau, Sumatera Selatan 31623";"Wira Karya, Kec. Lubuk Linggau Tim. I, Kota Lubuklinggau";"SUMATERA SELATAN";"31623";"Indonesia";" 0733323888";"";"";"-3.293277";"102.8723118";"https://maps.google.com/?cid=0x0:0xa4282e4c1846a738";""
"supermarket";"Minimarket";"Alfamart";"Jl. Garuda No.24, RT.03, Bandung Kanan, Kec. Lubuk Linggau Bar. II, Kota Lubuklinggau, Sumatera Selatan 31611";"RT.03, Bandung Kanan, Kec. Lubuk Linggau Bar. II, Kota Lubuklinggau";"SUMATERA SELATAN";"31611";"Indonesia";" 1500959";"";"";"-3.2984143";"102.858932";"https://maps.google.com/?cid=0x0:0xef28c42041fb3520";""
"supermarket";"Minimarket";"TOKO KARYATAMA";"PV86+3Q6, Jl. Jendral Sudirman, Ps. Satelit, Kec. Lubuk Linggau Utara II, Kota Lubuklinggau, Sumatera Selatan 31617";"Jl. Jendral Sudirman, Ps. Satelit, Kec. Lubuk Linggau Utara II, Kota Lubuklinggau";"SUMATERA SELATAN";"31617";"Indonesia";" 081998333336";"";"";"-3.2848303";"102.8618909";"https://maps.google.com/?cid=0x0:0x9c1b9598110ef884";""
"supermarket";"Minimarket";"Alfamart taba koji";"Jl. Yos Sudarso No.Rt. 02, Taba Koji, Kec. Lubuk Linggau Tim. I, Kota Lubuklinggau, Sumatera Selatan 31628";"Taba Koji, Kec. Lubuk Linggau Tim. I, Kota Lubuklinggau";"SUMATERA SELATAN";"31628";"Indonesia";" 1500959";"";"";"-3.2893841";"102.8741577";"https://maps.google.com/?cid=0x0:0x58a419b7053a5469";""
"supermarket";"supermarket";"Kec. Lubuk Linggau Bar. I";"Kota Lubuklinggau, Sumatera Selatan";"Kota Lubuklinggau, Sumatera Selatan";"SUMATERA SELATAN";"";"Indonesia";"";"";"";"-3.307821";"102.8464942";"https://maps.google.com/?cid=0x0:0x1ef773457c9af524";""
"supermarket";"Toko";"Terminal Kalimantan";"PV37+FMC, Ps. Permiri, Kec. Lubuk Linggau Bar. II, Kota Lubuklinggau, Sumatera Selatan 31613";"Ps. Permiri, Kec. Lubuk Linggau Bar. II, Kota Lubuklinggau";"SUMATERA SELATAN";"31613";"Indonesia";" 0733908099";"";"";"-3.2963147";"102.864139";"https://maps.google.com/?cid=0x0:0x6bc9ec6f4cfebe41";""
"supermarket";"Brunch";"Warung Bude Tara";"PV46+Q3R, Jl. Garuda Hitam, Ps. Permiri, Kec. Lubuk Linggau Bar. II, Kota Lubuklinggau, Sumatera Selatan 31613";"Jl. Garuda Hitam, Ps. Permiri, Kec. Lubuk Linggau Bar. II, Kota Lubuklinggau";"SUMATERA SELATAN";"31613";"Indonesia";" 0733326234";"";"";"-3.2930243";"102.8601516";"https://maps.google.com/?cid=0x0:0xe91a9fbe99434f8b";""
"supermarket";"supermarket";"Sumatera Selatan 31614";"Kota Lubuklinggau, Sumatera Selatan";"Kota Lubuklinggau, Sumatera Selatan";"SUMATERA SELATAN";"";"Indonesia";"";"";"";"-3.2261197";"102.8399799";"https://maps.google.com/?cid=0x0:0x66d917092d5bfc72";""
"supermarket";"Toko";"Minimarket MARS";"Jl. Depati Said RT. 07, Ulak Lebar, Lubuklinggau, Ulak Lebar, Kec. Lubuk Linggau Bar. II, Sumatera Selatan, 31614";"Ulak Lebar, Lubuklinggau, Ulak Lebar, Kec. Lubuk Linggau Bar. II";"SUMATERA SELATAN";"31614";"Indonesia";" 0733320718";"";"";"-3.3011498";"102.8445956";"https://maps.google.com/?cid=0x0:0x32801262c16af131";""
"supermarket";"Minimarket";"Minimarket MARS";"Jl. Cendana No. 54-55 Perumnas Tanjung Aman, Tj. Aman, Lubuklinggau, Sumatera Selatan, 31614";"Tj. Aman, Lubuklinggau";"SUMATERA SELATAN";"31614";"Indonesia";" 0733324778";"";"";"-3.310534";"102.848219";"https://maps.google.com/?cid=0x0:0xa43afbc9b74fffae";""
"supermarket";"Hipermarket";"JM Linggau";"PV6H+QFV, Jl. Yos Sudarso, Taba Koji, Kec. Lubuk Linggau Tim. I, Kota Lubuklinggau, Sumatera Selatan 31624";"Jl. Yos Sudarso, Taba Koji, Kec. Lubuk Linggau Tim. I, Kota Lubuklinggau";"SUMATERA SELATAN";"31624";"Indonesia";" 07337329377";"";"";"-3.2880081";"102.8786765";"https://maps.google.com/?cid=0x0:0x60458b8d77f3a012";""
"supermarket";"Minimarket";"MD Mart";"PVPX+HX3, Jl. Kenanga II, Batu Urip, Kec. Lubuk Linggau Utara II, Kota Lubuklinggau, Sumatera Selatan 31627";"Jl. Kenanga II, Batu Urip, Kec. Lubuk Linggau Utara II, Kota Lubuklinggau";"SUMATERA SELATAN";"31627";"Indonesia";" 081373465911";"";"";"-3.2636438";"102.9001285";"https://maps.google.com/?cid=0x0:0xd5ae52b05de3df06";""
"supermarket";"Toko bahan makanan";"SM SWALAYAN BATU URIP";"PV9Q+8P3, Jl. Yos Sudarso, Batu Urip Taba, Kec. Lubuk Linggau Tim. I, Kota Lubuklinggau, Sumatera Selatan 31628";"Jl. Yos Sudarso, Batu Urip Taba, Kec. Lubuk Linggau Tim. I, Kota Lubuklinggau";"SUMATERA SELATAN";"31628";"Indonesia";" 07333281988";"";"";"-3.2817286";"102.8892892";"https://maps.google.com/?cid=0x0:0xa40344bb04717097";""
"supermarket";"Toko";"Toko Wiwin/ Rumah Lubuklinggau";"Lorong Pak Joo, Jl.Yos Sudarso Km.05 No.07 Rt.03, Watervang, Kec. Lubuk Linggau Tim. I, Kota Lubuklinggau, Sumatera Selatan 31626";"Jl.Yos Sudarso Km.05 No.07 Rt.03, Watervang, Kec. Lubuk Linggau Tim. I, Kota Lubuklinggau";"SUMATERA SELATAN";"31626";"Indonesia";" 082275664134";"";"";"-3.2747216";"102.9018842";"https://maps.google.com/?cid=0x0:0x15fc185d5f556098";""
"supermarket";"Toko bahan makanan";"SM SWALAYAN Garuda";"PV37+73W, Jl. Garuda, Ps. Permiri, Kec. Lubuk Linggau Bar. II, Kota Lubuklinggau, Sumatera Selatan 31613";"Jl. Garuda, Ps. Permiri, Kec. Lubuk Linggau Bar. II, Kota Lubuklinggau";"SUMATERA SELATAN";"31613";"Indonesia";" 07333281988";"";"";"-3.2967606";"102.8626956";"https://maps.google.com/?cid=0x0:0x9a077fdd38760100";""
"supermarket";"Toko bahan makanan";"SM MART";"Jl. Bukit Sulap, Wira Karya, Kec. Lubuk Linggau Tim. I, Kota Lubuklinggau, Sumatera Selatan 31623";"Wira Karya, Kec. Lubuk Linggau Tim. I, Kota Lubuklinggau";"SUMATERA SELATAN";"31623";"Indonesia";" 0733323888";"";"";"-3.293277";"102.8723118";"https://maps.google.com/?cid=0x0:0xa4282e4c1846a738";""
"supermarket";"Minimarket";"Alfamart";"Jl. Garuda No.24, RT.03, Bandung Kanan, Kec. Lubuk Linggau Bar. II, Kota Lubuklinggau, Sumatera Selatan 31611";"RT.03, Bandung Kanan, Kec. Lubuk Linggau Bar. II, Kota Lubuklinggau";"SUMATERA SELATAN";"31611";"Indonesia";" 1500959";"";"";"-3.2984143";"102.858932";"https://maps.google.com/?cid=0x0:0xef28c42041fb3520";""
"supermarket";"Minimarket";"TOKO KARYATAMA";"PV86+3Q6, Jl. Jendral Sudirman, Ps. Satelit, Kec. Lubuk Linggau Utara II, Kota Lubuklinggau, Sumatera Selatan 31617";"Jl. Jendral Sudirman, Ps. Satelit, Kec. Lubuk Linggau Utara II, Kota Lubuklinggau";"SUMATERA SELATAN";"31617";"Indonesia";" 081998333336";"";"";"-3.2848303";"102.8618909";"https://maps.google.com/?cid=0x0:0x9c1b9598110ef884";""
"supermarket";"supermarket";"Kec. Lubuk Linggau Bar. I";"Kota Lubuklinggau, Sumatera Selatan";"Kota Lubuklinggau, Sumatera Selatan";"SUMATERA SELATAN";"";"Indonesia";"";"";"";"-3.307821";"102.8464942";"https://maps.google.com/?cid=0x0:0x1ef773457c9af524";""
"supermarket";"Toko Swalayan";"SM SWALAYAN YOS SUDARSO";"Jl. Yos Sudarso No.309, Dempo, Kec. Lubuk Linggau Tim. II, Kota Lubuklinggau, Sumatera Selatan 31613";"Dempo, Kec. Lubuk Linggau Tim. II, Kota Lubuklinggau";"SUMATERA SELATAN";"31613";"Indonesia";" 07333281988";"";"";"-3.2955737";"102.8670296";"https://maps.google.com/?cid=0x0:0x82de5a856938c30";""
"supermarket";"Minimarket";"TOKO ADA HARAPAN LUBUK AMAN";"Lubuk Aman, Kec. Lubuk Linggau Bar. I, Kota Lubuklinggau, Sumatera Selatan 31614";"Kec. Lubuk Linggau Bar. I, Kota Lubuklinggau";"SUMATERA SELATAN";"31614";"Indonesia";" 081278253031";"";"";"-3.3048619";"102.850157";"https://maps.google.com/?cid=0x0:0x3f1da63661ee0d3d";""
"supermarket";"supermarket";"Vili Mart";"MRWR+68C, Pelita Jaya, Kec. Lubuk Linggau Bar. I, Kota Lubuklinggau, Sumatera Selatan 31614";"Pelita Jaya, Kec. Lubuk Linggau Bar. I, Kota Lubuklinggau";"SUMATERA SELATAN";"31614";"Indonesia";" 081377974313";"";"";"-3.3044351";"102.8407669";"https://maps.google.com/?cid=0x0:0xb06303832735300c";""
"supermarket";"Toko bahan makanan";"Kantor SM Group Linggau";"Wira Karya, Kec. Lubuk Linggau Tim. II, Kota Lubuklinggau, Sumatera Selatan 31613";"Kec. Lubuk Linggau Tim. II, Kota Lubuklinggau";"SUMATERA SELATAN";"31613";"Indonesia";" 07333281988";"";"";"-3.292675";"102.872047";"https://maps.google.com/?cid=0x0:0xa40fce897480caff";""
"supermarket";"supermarket";"Sumatera Selatan 31615";"Kec. Lubuk Linggau Bar. I, Kota Lubuklinggau, Sumatera Selatan";"Kota Lubuklinggau, Sumatera Selatan";"SUMATERA SELATAN";"";"Indonesia";"";"";"";"-3.2903549";"102.8112253";"https://maps.google.com/?cid=0x0:0x7ab255c49e507bc0";""
"supermarket";"Minimarket";"Minimarket MARS";"Jl. Cendana No. 54-55 Perumnas Tanjung Aman, Tj. Aman, Lubuklinggau, Sumatera Selatan, 31614";"Tj. Aman, Lubuklinggau";"SUMATERA SELATAN";"31614";"Indonesia";" 0733324778";"";"";"-3.310534";"102.848219";"https://maps.google.com/?cid=0x0:0xa43afbc9b74fffae";""
"supermarket";"Toko";"Minimarket MARS";"Jl. Depati Said RT. 07, Ulak Lebar, Lubuklinggau, Ulak Lebar, Kec. Lubuk Linggau Bar. II, Sumatera Selatan, 31614";"Ulak Lebar, Lubuklinggau, Ulak Lebar, Kec. Lubuk Linggau Bar. II";"SUMATERA SELATAN";"31614";"Indonesia";" 0733320718";"";"";"-3.3011498";"102.8445956";"https://maps.google.com/?cid=0x0:0x32801262c16af131";""
"supermarket";"Toko bahan makanan";"SM SWALAYAN BATU URIP";"PV9Q+8P3, Jl. Yos Sudarso, Batu Urip Taba, Kec. Lubuk Linggau Tim. I, Kota Lubuklinggau, Sumatera Selatan 31628";"Jl. Yos Sudarso, Batu Urip Taba, Kec. Lubuk Linggau Tim. I, Kota Lubuklinggau";"SUMATERA SELATAN";"31628";"Indonesia";" 07333281988";"";"";"-3.2817286";"102.8892892";"https://maps.google.com/?cid=0x0:0xa40344bb04717097";""
"supermarket";"Pusat Perbelanjaan";"Hypermart - Lippo Plaza Lubuklinggau";"Lippo Plaza, Jl. Yos Sudarso No.765, Taba Jemekeh, Kec. Lubuk Linggau Tim. I, Kota Lubuklinggau, Sumatera Selatan 31628";"Jl. Yos Sudarso No.765, Taba Jemekeh, Kec. Lubuk Linggau Tim. I, Kota Lubuklinggau";"SUMATERA SELATAN";"31628";"Indonesia";" 07333281366";"";"";"-3.2875752";"102.8776077";"https://maps.google.com/?cid=0x0:0xca1a0c8b0d31cb09";""
"supermarket";"Hipermarket";"JM Linggau";"PV6H+QFV, Jl. Yos Sudarso, Taba Koji, Kec. Lubuk Linggau Tim. I, Kota Lubuklinggau, Sumatera Selatan 31624";"Jl. Yos Sudarso, Taba Koji, Kec. Lubuk Linggau Tim. I, Kota Lubuklinggau";"SUMATERA SELATAN";"31624";"Indonesia";" 07337329377";"";"";"-3.2880081";"102.8786765";"https://maps.google.com/?cid=0x0:0x60458b8d77f3a012";""
"supermarket";"Minimarket";"MD Mart";"PVPX+HX3, Jl. Kenanga II, Batu Urip, Kec. Lubuk Linggau Utara II, Kota Lubuklinggau, Sumatera Selatan 31627";"Jl. Kenanga II, Batu Urip, Kec. Lubuk Linggau Utara II, Kota Lubuklinggau";"SUMATERA SELATAN";"31627";"Indonesia";" 081373465911";"";"";"-3.2636438";"102.9001285";"https://maps.google.com/?cid=0x0:0xd5ae52b05de3df06";""
"supermarket";"Toko bahan makanan";"Kantor SM Group Linggau";"Wira Karya, Kec. Lubuk Linggau Tim. II, Kota Lubuklinggau, Sumatera Selatan 31613";"Kec. Lubuk Linggau Tim. II, Kota Lubuklinggau";"SUMATERA SELATAN";"31613";"Indonesia";" 07333281988";"";"";"-3.292675";"102.872047";"https://maps.google.com/?cid=0x0:0xa40fce897480caff";""
"supermarket";"Toko";"Toko Wiwin/ Rumah Lubuklinggau";"Lorong Pak Joo, Jl.Yos Sudarso Km.05 No.07 Rt.03, Watervang, Kec. Lubuk Linggau Tim. I, Kota Lubuklinggau, Sumatera Selatan 31626";"Jl.Yos Sudarso Km.05 No.07 Rt.03, Watervang, Kec. Lubuk Linggau Tim. I, Kota Lubuklinggau";"SUMATERA SELATAN";"31626";"Indonesia";" 082275664134";"";"";"-3.2747216";"102.9018842";"https://maps.google.com/?cid=0x0:0x15fc185d5f556098";""
"supermarket";"Toko bahan makanan";"SM SWALAYAN Garuda";"PV37+73W, Jl. Garuda, Ps. Permiri, Kec. Lubuk Linggau Bar. II, Kota Lubuklinggau, Sumatera Selatan 31613";"Jl. Garuda, Ps. Permiri, Kec. Lubuk Linggau Bar. II, Kota Lubuklinggau";"SUMATERA SELATAN";"31613";"Indonesia";" 07333281988";"";"";"-3.2967606";"102.8626956";"https://maps.google.com/?cid=0x0:0x9a077fdd38760100";""
"supermarket";"Toko Perlengkapan Rumah";"Mitra Bangunan Supermarket Lubuk Linggau";"Watervang, Kec. Lubuk Linggau Tim. I, Kota Lubuklinggau, Sumatera Selatan 31625";"Kec. Lubuk Linggau Tim. I, Kota Lubuklinggau";"SUMATERA SELATAN";"31625";"Indonesia";"";"";"";"-3.2756118";"102.9003116";"https://maps.google.com/?cid=0x0:0x9741dde2cf1035e";""
"supermarket";"Toko bahan makanan";"SM MART";"Jl. Bukit Sulap, Wira Karya, Kec. Lubuk Linggau Tim. I, Kota Lubuklinggau, Sumatera Selatan 31623";"Wira Karya, Kec. Lubuk Linggau Tim. I, Kota Lubuklinggau";"SUMATERA SELATAN";"31623";"Indonesia";" 0733323888";"";"";"-3.293277";"102.8723118";"https://maps.google.com/?cid=0x0:0xa4282e4c1846a738";""
"supermarket";"Minimarket";"TOKO KARYATAMA";"PV86+3Q6, Jl. Jendral Sudirman, Ps. Satelit, Kec. Lubuk Linggau Utara II, Kota Lubuklinggau, Sumatera Selatan 31617";"Jl. Jendral Sudirman, Ps. Satelit, Kec. Lubuk Linggau Utara II, Kota Lubuklinggau";"SUMATERA SELATAN";"31617";"Indonesia";" 081998333336";"";"";"-3.2848303";"102.8618909";"https://maps.google.com/?cid=0x0:0x9c1b9598110ef884";""
"supermarket";"Minimarket";"Alfamart";"Jl. Garuda No.24, RT.03, Bandung Kanan, Kec. Lubuk Linggau Bar. II, Kota Lubuklinggau, Sumatera Selatan 31611";"RT.03, Bandung Kanan, Kec. Lubuk Linggau Bar. II, Kota Lubuklinggau";"SUMATERA SELATAN";"31611";"Indonesia";" 1500959";"";"";"-3.2984143";"102.858932";"https://maps.google.com/?cid=0x0:0xef28c42041fb3520";""
"supermarket";"supermarket";"ShiamThaiTeaLinggau";"PWF2+P38 Samping MITRA BANGUNAN SUPERMARKET, Jl. Yos Sudarso No.90, Watervang, Kec. Lubuk Linggau Tim. I, Kota Lubuklinggau, Sumatera Selatan 31625";"Jl. Yos Sudarso No.90, Watervang, Kec. Lubuk Linggau Tim. I, Kota Lubuklinggau";"SUMATERA SELATAN";"31625";"Indonesia";" 082211717727";"";"";"-3.2757052";"102.9002257";"https://maps.google.com/?cid=0x0:0xc53d4fb4044af57e";""
"supermarket";"Toko Swalayan";"SM SWALAYAN YOS SUDARSO";"Jl. Yos Sudarso No.309, Dempo, Kec. Lubuk Linggau Tim. II, Kota Lubuklinggau, Sumatera Selatan 31613";"Dempo, Kec. Lubuk Linggau Tim. II, Kota Lubuklinggau";"SUMATERA SELATAN";"31613";"Indonesia";" 07333281988";"";"";"-3.2955737";"102.8670296";"https://maps.google.com/?cid=0x0:0x82de5a856938c30";""
"supermarket";"Toko bahan makanan";"SM SWALAYAN BATU URIP";"PV9Q+8P3, Jl. Yos Sudarso, Batu Urip Taba, Kec. Lubuk Linggau Tim. I, Kota Lubuklinggau, Sumatera Selatan 31628";"Jl. Yos Sudarso, Batu Urip Taba, Kec. Lubuk Linggau Tim. I, Kota Lubuklinggau";"SUMATERA SELATAN";"31628";"Indonesia";" 07333281988";"";"";"-3.2817286";"102.8892892";"https://maps.google.com/?cid=0x0:0xa40344bb04717097";""
"supermarket";"Kantor Perusahaan";"2 Muara Frozen Food Linggau";"PV46+JFR, Lubaklinggau Ulu, Kec. Lubuk Linggau Bar. II, Kota Lubuklinggau, Sumatera Selatan 31613";"Lubaklinggau Ulu, Kec. Lubuk Linggau Bar. II, Kota Lubuklinggau";"SUMATERA SELATAN";"31613";"Indonesia";" 081376165833";"";"";"-3.2933971";"102.8611475";"https://maps.google.com/?cid=0x0:0x35f197b78b4abcf0";""
"supermarket";"Pusat Perbelanjaan";"Hypermart - Lippo Plaza Lubuklinggau";"Lippo Plaza, Jl. Yos Sudarso No.765, Taba Jemekeh, Kec. Lubuk Linggau Tim. I, Kota Lubuklinggau, Sumatera Selatan 31628";"Jl. Yos Sudarso No.765, Taba Jemekeh, Kec. Lubuk Linggau Tim. I, Kota Lubuklinggau";"SUMATERA SELATAN";"31628";"Indonesia";" 07333281366";"";"";"-3.2875752";"102.8776077";"https://maps.google.com/?cid=0x0:0xca1a0c8b0d31cb09";""
"supermarket";"Pusat Perbelanjaan";"Lippo Plaza Lubuklinggau";"Jl. Yos Sudarso No.31, Taba Jemekeh, Kec. Lubuk Linggau Tim. II, Kota Lubuklinggau, Sumatera Selatan 31613";"Taba Jemekeh, Kec. Lubuk Linggau Tim. II, Kota Lubuklinggau";"SUMATERA SELATAN";"31613";"Indonesia";"";"";"";"-3.2879773";"102.8777476";"https://maps.google.com/?cid=0x0:0x44910cb5dec7223c";""
"supermarket";"Minimarket";"MD Mart";"PVPX+HX3, Jl. Kenanga II, Batu Urip, Kec. Lubuk Linggau Utara II, Kota Lubuklinggau, Sumatera Selatan 31627";"Jl. Kenanga II, Batu Urip, Kec. Lubuk Linggau Utara II, Kota Lubuklinggau";"SUMATERA SELATAN";"31627";"Indonesia";" 081373465911";"";"";"-3.2636438";"102.9001285";"https://maps.google.com/?cid=0x0:0xd5ae52b05de3df06";""
"supermarket";"Toko bahan makanan";"SM MART";"Jl. Bukit Sulap, Wira Karya, Kec. Lubuk Linggau Tim. I, Kota Lubuklinggau, Sumatera Selatan 31623";"Wira Karya, Kec. Lubuk Linggau Tim. I, Kota Lubuklinggau";"SUMATERA SELATAN";"31623";"Indonesia";" 0733323888";"";"";"-3.293277";"102.8723118";"https://maps.google.com/?cid=0x0:0xa4282e4c1846a738";""
"supermarket";"supermarket";"Sumatera Selatan 31616";"Kota Lubuklinggau, Sumatera Selatan";"Kota Lubuklinggau, Sumatera Selatan";"SUMATERA SELATAN";"";"Indonesia";"";"";"";"-3.2680511";"102.8256017";"https://maps.google.com/?cid=0x0:0xe23586fc6d4ca382";""
"supermarket";"Toko Buah dan Sayur";"SULTAN BUAH CABANG 1";"Jl. kenanga II, Sebrang Apotik Saras, Pasar Buah Satelit, Sumatera Selatan 31641";"Sebrang Apotik Saras, Pasar Buah Satelit";"SUMATERA SELATAN";"31641";"Indonesia";" 08128299108";"";"";"-3.2865292";"102.8635803";"https://maps.google.com/?cid=0x0:0xfadf725e99b1e8e2";""
"supermarket";"Toko Organik";"GRIYA BUAH";"Jl. Yos Sudarso No.2, Watervang, Kec. Lubuk Linggau Tim. I, Kota Lubuklinggau, Sumatera Selatan 31628";"Watervang, Kec. Lubuk Linggau Tim. I, Kota Lubuklinggau";"SUMATERA SELATAN";"31628";"Indonesia";" 0733320026";"";"";"-3.2764019";"102.8989541";"https://maps.google.com/?cid=0x0:0xf0092229a5311b79";""
"supermarket";"supermarket";"Kec. Lubuk Linggau Tim. I";"Kota Lubuklinggau, Sumatera Selatan";"Kota Lubuklinggau, Sumatera Selatan";"SUMATERA SELATAN";"";"Indonesia";"";"";"";"-3.2839382";"102.8855843";"https://maps.google.com/?cid=0x0:0x3178fe8fb8900081";""
"supermarket";"Hipermarket";"JM Linggau";"PV6H+QFV, Jl. Yos Sudarso, Taba Koji, Kec. Lubuk Linggau Tim. I, Kota Lubuklinggau, Sumatera Selatan 31624";"Jl. Yos Sudarso, Taba Koji, Kec. Lubuk Linggau Tim. I, Kota Lubuklinggau";"SUMATERA SELATAN";"31624";"Indonesia";" 07337329377";"";"";"-3.2880081";"102.8786765";"https://maps.google.com/?cid=0x0:0x60458b8d77f3a012";""
"supermarket";"Toko bahan makanan";"SM MART";"Jl. Bukit Sulap, Wira Karya, Kec. Lubuk Linggau Tim. I, Kota Lubuklinggau, Sumatera Selatan 31623";"Wira Karya, Kec. Lubuk Linggau Tim. I, Kota Lubuklinggau";"SUMATERA SELATAN";"31623";"Indonesia";" 0733323888";"";"";"-3.293277";"102.8723118";"https://maps.google.com/?cid=0x0:0xa4282e4c1846a738";""
"supermarket";"Minimarket";"MD Mart";"PVPX+HX3, Jl. Kenanga II, Batu Urip, Kec. Lubuk Linggau Utara II, Kota Lubuklinggau, Sumatera Selatan 31627";"Jl. Kenanga II, Batu Urip, Kec. Lubuk Linggau Utara II, Kota Lubuklinggau";"SUMATERA SELATAN";"31627";"Indonesia";" 081373465911";"";"";"-3.2636438";"102.9001285";"https://maps.google.com/?cid=0x0:0xd5ae52b05de3df06";""
"supermarket";"Toko bahan makanan";"SM SWALAYAN BATU URIP";"PV9Q+8P3, Jl. Yos Sudarso, Batu Urip Taba, Kec. Lubuk Linggau Tim. I, Kota Lubuklinggau, Sumatera Selatan 31628";"Jl. Yos Sudarso, Batu Urip Taba, Kec. Lubuk Linggau Tim. I, Kota Lubuklinggau";"SUMATERA SELATAN";"31628";"Indonesia";" 07333281988";"";"";"-3.2817286";"102.8892892";"https://maps.google.com/?cid=0x0:0xa40344bb04717097";""
"supermarket";"Pusat Perbelanjaan";"Hypermart - Lippo Plaza Lubuklinggau";"Lippo Plaza, Jl. Yos Sudarso No.765, Taba Jemekeh, Kec. Lubuk Linggau Tim. I, Kota Lubuklinggau, Sumatera Selatan 31628";"Jl. Yos Sudarso No.765, Taba Jemekeh, Kec. Lubuk Linggau Tim. I, Kota Lubuklinggau";"SUMATERA SELATAN";"31628";"Indonesia";" 07333281366";"";"";"-3.2875752";"102.8776077";"https://maps.google.com/?cid=0x0:0xca1a0c8b0d31cb09";""
"supermarket";"Minimarket";"Minimarket MARS";"Jl. Cendana No. 54-55 Perumnas Tanjung Aman, Tj. Aman, Lubuklinggau, Sumatera Selatan, 31614";"Tj. Aman, Lubuklinggau";"SUMATERA SELATAN";"31614";"Indonesia";" 0733324778";"";"";"-3.310534";"102.848219";"https://maps.google.com/?cid=0x0:0xa43afbc9b74fffae";""
"supermarket";"Toko";"Minimarket MARS";"Jl. Depati Said RT. 07, Ulak Lebar, Lubuklinggau, Ulak Lebar, Kec. Lubuk Linggau Bar. II, Sumatera Selatan, 31614";"Ulak Lebar, Lubuklinggau, Ulak Lebar, Kec. Lubuk Linggau Bar. II";"SUMATERA SELATAN";"31614";"Indonesia";" 0733320718";"";"";"-3.3011498";"102.8445956";"https://maps.google.com/?cid=0x0:0x32801262c16af131";""
"supermarket";"Toko bahan makanan";"Kantor SM Group Linggau";"Wira Karya, Kec. Lubuk Linggau Tim. II, Kota Lubuklinggau, Sumatera Selatan 31613";"Kec. Lubuk Linggau Tim. II, Kota Lubuklinggau";"SUMATERA SELATAN";"31613";"Indonesia";" 07333281988";"";"";"-3.292675";"102.872047";"https://maps.google.com/?cid=0x0:0xa40fce897480caff";""
"supermarket";"Toko bahan makanan";"WARUNG BERJALAN PASHTERDIM 0406";"Jl. Kelapa No.Rt.05, Batu Urip Taba, Kec. Lubuk Linggau Tim. I, Kota Lubuklinggau, Sumatera Selatan 31625";"Batu Urip Taba, Kec. Lubuk Linggau Tim. I, Kota Lubuklinggau";"SUMATERA SELATAN";"31625";"Indonesia";" 081283330406";"";"";"-3.2807934";"102.8951033";"https://maps.google.com/?cid=0x0:0x4ecb4c43841b20bd";""
"supermarket";"Toko";"Toko Wiwin/ Rumah Lubuklinggau";"Lorong Pak Joo, Jl.Yos Sudarso Km.05 No.07 Rt.03, Watervang, Kec. Lubuk Linggau Tim. I, Kota Lubuklinggau, Sumatera Selatan 31626";"Jl.Yos Sudarso Km.05 No.07 Rt.03, Watervang, Kec. Lubuk Linggau Tim. I, Kota Lubuklinggau";"SUMATERA SELATAN";"31626";"Indonesia";" 082275664134";"";"";"-3.2747216";"102.9018842";"https://maps.google.com/?cid=0x0:0x15fc185d5f556098";""
"supermarket";"Pusat Perbelanjaan";"Lippo Plaza Lubuklinggau";"Jl. Yos Sudarso No.31, Taba Jemekeh, Kec. Lubuk Linggau Tim. II, Kota Lubuklinggau, Sumatera Selatan 31613";"Taba Jemekeh, Kec. Lubuk Linggau Tim. II, Kota Lubuklinggau";"SUMATERA SELATAN";"31613";"Indonesia";"";"";"";"-3.2879773";"102.8777476";"https://maps.google.com/?cid=0x0:0x44910cb5dec7223c";""
"supermarket";"Toko Kosmetik";"Minimarket Saudah kosmetik";"Jl. Yos Sudarso No.13, Taba Jemekeh, Kec. Lubuk Linggau Tim. I, Kota Lubuklinggau, Sumatera Selatan 31624";"Taba Jemekeh, Kec. Lubuk Linggau Tim. I, Kota Lubuklinggau";"SUMATERA SELATAN";"31624";"Indonesia";"";"";"";"-3.2871946";"102.880497";"https://maps.google.com/?cid=0x0:0x904e67e12e15156d";""
"supermarket";"Toko";"MM FROZENFOOD";"Jl. Malabar No.10, Jawa Kiri, Kec. Lubuk Linggau Tim. II, Kota Lubuklinggau, Sumatera Selatan 31613";"Jawa Kiri, Kec. Lubuk Linggau Tim. II, Kota Lubuklinggau";"SUMATERA SELATAN";"31613";"Indonesia";" 08980839178";"";"";"-3.2896875";"102.8740352";"https://maps.google.com/?cid=0x0:0x5b722165805a7378";""
"supermarket";"Minimarket";"D'Bakoel Frozenfood";"Jl. Yos Sudarso No.9, Batu Urip Taba, Kec. Lubuk Linggau Tim. I, Kota Lubuklinggau, Sumatera Selatan 31624";"Batu Urip Taba, Kec. Lubuk Linggau Tim. I, Kota Lubuklinggau";"SUMATERA SELATAN";"31624";"Indonesia";" 085333057308";"";"";"-3.2801784";"102.8917923";"https://maps.google.com/?cid=0x0:0x7f9360512a8ab932";""
"supermarket";"Toko Pakaian";"Bill Shop Al-Haromain";"PV7M+G4J, Jl. Yos Sudarso, Taba Jemekeh, Kec. Lubuk Linggau Tim. I, Kota Lubuklinggau, Sumatera Selatan 31625";"Jl. Yos Sudarso, Taba Jemekeh, Kec. Lubuk Linggau Tim. I, Kota Lubuklinggau";"SUMATERA SELATAN";"31625";"Indonesia";" 085267936478";"";"";"-3.2861546";"102.8827661";"https://maps.google.com/?cid=0x0:0x583daced7cc7c42e";""
"supermarket";"Toko";"Priyo Mart";"Simpang Periuk, Kec. Lubuk Linggau Sel. II, Kota Lubuklinggau, Sumatera Selatan";"Kota Lubuklinggau, Sumatera Selatan";"SUMATERA SELATAN";"";"Indonesia";"";"";"";"-3.2677762";"102.9390721";"https://maps.google.com/?cid=0x0:0xa45d83c84f8efa3";""
"supermarket";"Toko Buah dan Sayur";"PUSAT BUAH ABAK LINGGAU";"JL. YOS SUDARSO NO 89 RT/RW 04, LUBUK LINGGAU, Sumatera Selatan 31627";"LUBUK LINGGAU";"SUMATERA SELATAN";"31627";"Indonesia";" 085141115559";"";"";"-3.2756664";"102.9007834";"https://maps.google.com/?cid=0x0:0xaf728e495ab7e94c";""
"supermarket";"Toko";"TOKO DARWAN";"Q24R+V3V, Jalan Simpang Jl. Sekayu - Lubuk Linggau, Ps. Muara Beliti, Kec. Muara Beliti, Kabupaten Musi Rawas, Sumatera Selatan 31661";"Jalan Simpang Jl. Sekayu - Lubuk Linggau, Ps. Muara Beliti, Kec. Muara Beliti, Kabupaten Musi Rawas";"SUMATERA SELATAN";"31661";"Indonesia";" 081373282426";"";"";"-3.2427625";"103.0401713";"https://maps.google.com/?cid=0x0:0xc23eca84f13302a4";""
"supermarket";"Minimarket";"Toko Subur Lestari";"Terminal atas, Dempo, Kec. Lubuk Linggau Tim. II, Kota Lubuklinggau, Sumatera Selatan 31613";"Dempo, Kec. Lubuk Linggau Tim. II, Kota Lubuklinggau";"SUMATERA SELATAN";"31613";"Indonesia";"";"";"";"-3.2969622";"102.8644277";"https://maps.google.com/?cid=0x0:0x79bc2defc3acfb9f";""
"supermarket";"Toko Perlengkapan Rumah";"Mitra Bangunan Supermarket Lubuk Linggau";"Watervang, Kec. Lubuk Linggau Tim. I, Kota Lubuklinggau, Sumatera Selatan 31625";"Kec. Lubuk Linggau Tim. I, Kota Lubuklinggau";"SUMATERA SELATAN";"31625";"Indonesia";"";"";"";"-3.2756118";"102.9003116";"https://maps.google.com/?cid=0x0:0x9741dde2cf1035e";""
"supermarket";"Toko bahan makanan";"SM SWALAYAN Garuda";"PV37+73W, Jl. Garuda, Ps. Permiri, Kec. Lubuk Linggau Bar. II, Kota Lubuklinggau, Sumatera Selatan 31613";"Jl. Garuda, Ps. Permiri, Kec. Lubuk Linggau Bar. II, Kota Lubuklinggau";"SUMATERA SELATAN";"31613";"Indonesia";" 07333281988";"";"";"-3.2967606";"102.8626956";"https://maps.google.com/?cid=0x0:0x9a077fdd38760100";""
"supermarket";"Minimarket";"TOKO KARYATAMA";"PV86+3Q6, Jl. Jendral Sudirman, Ps. Satelit, Kec. Lubuk Linggau Utara II, Kota Lubuklinggau, Sumatera Selatan 31617";"Jl. Jendral Sudirman, Ps. Satelit, Kec. Lubuk Linggau Utara II, Kota Lubuklinggau";"SUMATERA SELATAN";"31617";"Indonesia";" 081998333336";"";"";"-3.2848303";"102.8618909";"https://maps.google.com/?cid=0x0:0x9c1b9598110ef884";""
"supermarket";"Minimarket";"Alfamart";"Jl. Yos Sudarso No.Rt. 003, Majapahit, Kec. Lubuk Linggau Tim. I, Kota Lubuklinggau, Sumatera Selatan 31628";"Majapahit, Kec. Lubuk Linggau Tim. I, Kota Lubuklinggau";"SUMATERA SELATAN";"31628";"Indonesia";" 1500959";"";"";"-3.2723865";"102.9045142";"https://maps.google.com/?cid=0x0:0x963f3d7ac99e0233";""
"supermarket";"Toko bahan makanan";"SRC Rizky";"PWMH+3FW, Jl. Amula Rahayu, Tanah Periuk, Kec. Lubuk Linggau Sel. II, Kota Lubuklinggau, Sumatera Selatan 31625";"Jl. Amula Rahayu, Tanah Periuk, Kec. Lubuk Linggau Sel. II, Kota Lubuklinggau";"SUMATERA SELATAN";"31625";"Indonesia";" 081270982201";"";"";"-3.2672683";"102.928714";"https://maps.google.com/?cid=0x0:0xd180f0a8ef358f94";""
"supermarket";"Toko Buah dan Sayur";"SULTAN BUAH CABANG 1";"Jl. kenanga II, Sebrang Apotik Saras, Pasar Buah Satelit, Sumatera Selatan 31641";"Sebrang Apotik Saras, Pasar Buah Satelit";"SUMATERA SELATAN";"31641";"Indonesia";" 08128299108";"";"";"-3.2865292";"102.8635803";"https://maps.google.com/?cid=0x0:0xfadf725e99b1e8e2";""
"supermarket";"Minimarket";"Alfamart Taba Jemekeh";"Jl. Yos Sudarso Kel, RT.5/RW.001, Taba Jemekeh, Kec. Lubuk Linggau Tim. I, Kota Lubuklinggau, Sumatera Selatan 31625";"RT.5/RW.001, Taba Jemekeh, Kec. Lubuk Linggau Tim. I, Kota Lubuklinggau";"SUMATERA SELATAN";"31625";"Indonesia";" 1500959";"";"";"-3.2842573";"102.8849526";"https://maps.google.com/?cid=0x0:0xd9d05f4062d40eb9";""
"supermarket";"Minimarket";"Alfamart Depati Said";"Jl. Depati Said No.12, RT.05, Lubaklinggau Ulu, Kec. Lubuk Linggau Bar. II, Kota Lubuklinggau, Sumatera Selatan 31626";"RT.05, Lubaklinggau Ulu, Kec. Lubuk Linggau Bar. II, Kota Lubuklinggau";"SUMATERA SELATAN";"31626";"Indonesia";" 1500959";"";"";"-3.2913768";"102.8594959";"https://maps.google.com/?cid=0x0:0xf6ca8ae62fab1113";""
"supermarket";"Minimarket";"Alfamart Margarahayu";"Jl. Yos Sudarso, RT.001/RW.No. 162, Marga Rahayu, Kec. Lubuk Linggau Sel. II, Kota Lubuklinggau, Sumatera Selatan 31626";"RT.001/RW.No. 162, Marga Rahayu, Kec. Lubuk Linggau Sel. II, Kota Lubuklinggau";"SUMATERA SELATAN";"31626";"Indonesia";" 1500959";"";"";"-3.2726972";"102.9281793";"https://maps.google.com/?cid=0x0:0xd91da8a4a4ace0e5";""
"supermarket";"supermarket";"Kec. Lubuk Linggau Tim. I";"Kota Lubuklinggau, Sumatera Selatan";"Kota Lubuklinggau, Sumatera Selatan";"SUMATERA SELATAN";"";"Indonesia";"";"";"";"-3.2839382";"102.8855843";"https://maps.google.com/?cid=0x0:0x3178fe8fb8900081";""
"supermarket";"Pusat Perbelanjaan";"Hypermart - Lippo Plaza Lubuklinggau";"Lippo Plaza, Jl. Yos Sudarso No.765, Taba Jemekeh, Kec. Lubuk Linggau Tim. I, Kota Lubuklinggau, Sumatera Selatan 31628";"Jl. Yos Sudarso No.765, Taba Jemekeh, Kec. Lubuk Linggau Tim. I, Kota Lubuklinggau";"SUMATERA SELATAN";"31628";"Indonesia";" 07333281366";"";"";"-3.2875752";"102.8776077";"https://maps.google.com/?cid=0x0:0xca1a0c8b0d31cb09";""
"supermarket";"Hipermarket";"JM Linggau";"PV6H+QFV, Jl. Yos Sudarso, Taba Koji, Kec. Lubuk Linggau Tim. I, Kota Lubuklinggau, Sumatera Selatan 31624";"Jl. Yos Sudarso, Taba Koji, Kec. Lubuk Linggau Tim. I, Kota Lubuklinggau";"SUMATERA SELATAN";"31624";"Indonesia";" 07337329377";"";"";"-3.2880081";"102.8786765";"https://maps.google.com/?cid=0x0:0x60458b8d77f3a012";""
"supermarket";"Toko Swalayan";"SM SWALAYAN YOS SUDARSO";"Jl. Yos Sudarso No.309, Dempo, Kec. Lubuk Linggau Tim. II, Kota Lubuklinggau, Sumatera Selatan 31613";"Dempo, Kec. Lubuk Linggau Tim. II, Kota Lubuklinggau";"SUMATERA SELATAN";"31613";"Indonesia";" 07333281988";"";"";"-3.2955737";"102.8670296";"https://maps.google.com/?cid=0x0:0x82de5a856938c30";""
"supermarket";"Minimarket";"Minimarket MARS";"Jl. Cendana No. 54-55 Perumnas Tanjung Aman, Tj. Aman, Lubuklinggau, Sumatera Selatan, 31614";"Tj. Aman, Lubuklinggau";"SUMATERA SELATAN";"31614";"Indonesia";" 0733324778";"";"";"-3.310534";"102.848219";"https://maps.google.com/?cid=0x0:0xa43afbc9b74fffae";""
"supermarket";"Toko";"Minimarket MARS";"Jl. Depati Said RT. 07, Ulak Lebar, Lubuklinggau, Ulak Lebar, Kec. Lubuk Linggau Bar. II, Sumatera Selatan, 31614";"Ulak Lebar, Lubuklinggau, Ulak Lebar, Kec. Lubuk Linggau Bar. II";"SUMATERA SELATAN";"31614";"Indonesia";" 0733320718";"";"";"-3.3011498";"102.8445956";"https://maps.google.com/?cid=0x0:0x32801262c16af131";""
"supermarket";"Toko bahan makanan";"Kantor SM Group Linggau";"Wira Karya, Kec. Lubuk Linggau Tim. II, Kota Lubuklinggau, Sumatera Selatan 31613";"Kec. Lubuk Linggau Tim. II, Kota Lubuklinggau";"SUMATERA SELATAN";"31613";"Indonesia";" 07333281988";"";"";"-3.292675";"102.872047";"https://maps.google.com/?cid=0x0:0xa40fce897480caff";""
"supermarket";"Toko";"Priyo Mart";"Simpang Periuk, Kec. Lubuk Linggau Sel. II, Kota Lubuklinggau, Sumatera Selatan";"Kota Lubuklinggau, Sumatera Selatan";"SUMATERA SELATAN";"";"Indonesia";"";"";"";"-3.2677762";"102.9390721";"https://maps.google.com/?cid=0x0:0xa45d83c84f8efa3";""
"supermarket";"Pusat Perbelanjaan";"Lippo Plaza Lubuklinggau";"Jl. Yos Sudarso No.31, Taba Jemekeh, Kec. Lubuk Linggau Tim. II, Kota Lubuklinggau, Sumatera Selatan 31613";"Taba Jemekeh, Kec. Lubuk Linggau Tim. II, Kota Lubuklinggau";"SUMATERA SELATAN";"31613";"Indonesia";"";"";"";"-3.2879773";"102.8777476";"https://maps.google.com/?cid=0x0:0x44910cb5dec7223c";""
"supermarket";"Toko";"MM FROZENFOOD";"Jl. Malabar No.10, Jawa Kiri, Kec. Lubuk Linggau Tim. II, Kota Lubuklinggau, Sumatera Selatan 31613";"Jawa Kiri, Kec. Lubuk Linggau Tim. II, Kota Lubuklinggau";"SUMATERA SELATAN";"31613";"Indonesia";" 08980839178";"";"";"-3.2896875";"102.8740352";"https://maps.google.com/?cid=0x0:0x5b722165805a7378";""
"supermarket";"Minimarket";"Toko Subur Lestari";"Terminal atas, Dempo, Kec. Lubuk Linggau Tim. II, Kota Lubuklinggau, Sumatera Selatan 31613";"Dempo, Kec. Lubuk Linggau Tim. II, Kota Lubuklinggau";"SUMATERA SELATAN";"31613";"Indonesia";"";"";"";"-3.2969622";"102.8644277";"https://maps.google.com/?cid=0x0:0x79bc2defc3acfb9f";""
"supermarket";"Toko bahan makanan";"Toko Priyo";"Simpang Periuk, Kec. Lubuk Linggau Sel. II, Kota Lubuklinggau, Sumatera Selatan";"Kota Lubuklinggau, Sumatera Selatan";"SUMATERA SELATAN";"";"Indonesia";"";"";"";"-3.2677265";"102.9386431";"https://maps.google.com/?cid=0x0:0xd67ceacb701848ed";""
"supermarket";"Toko Buah dan Sayur";"PUSAT BUAH ABAK LINGGAU";"JL. YOS SUDARSO NO 89 RT/RW 04, LUBUK LINGGAU, Sumatera Selatan 31627";"LUBUK LINGGAU";"SUMATERA SELATAN";"31627";"Indonesia";" 085141115559";"";"";"-3.2756664";"102.9007834";"https://maps.google.com/?cid=0x0:0xaf728e495ab7e94c";""
"supermarket";"Minimarket";"D'Bakoel Frozenfood";"Jl. Yos Sudarso No.9, Batu Urip Taba, Kec. Lubuk Linggau Tim. I, Kota Lubuklinggau, Sumatera Selatan 31624";"Batu Urip Taba, Kec. Lubuk Linggau Tim. I, Kota Lubuklinggau";"SUMATERA SELATAN";"31624";"Indonesia";" 085333057308";"";"";"-3.2801784";"102.8917923";"https://maps.google.com/?cid=0x0:0x7f9360512a8ab932";""
"supermarket";"Toko Pakaian";"Bill Shop Al-Haromain";"PV7M+G4J, Jl. Yos Sudarso, Taba Jemekeh, Kec. Lubuk Linggau Tim. I, Kota Lubuklinggau, Sumatera Selatan 31625";"Jl. Yos Sudarso, Taba Jemekeh, Kec. Lubuk Linggau Tim. I, Kota Lubuklinggau";"SUMATERA SELATAN";"31625";"Indonesia";" 085267936478";"";"";"-3.2861546";"102.8827661";"https://maps.google.com/?cid=0x0:0x583daced7cc7c42e";""
"supermarket";"Toko Pakaian Anak";"SYAFA COLLECTION";"PVFX+CPH, Jl. Yos Sudarso, Taba Jemekeh, Kec. Lubuk Linggau Tim. I, Kota Lubuklinggau, Sumatera Selatan 31625";"Jl. Yos Sudarso, Taba Jemekeh, Kec. Lubuk Linggau Tim. I, Kota Lubuklinggau";"SUMATERA SELATAN";"31625";"Indonesia";" 081271607662";"";"";"-3.2764275";"102.8993462";"https://maps.google.com/?cid=0x0:0x5220b99dbcbd2b3d";""
"supermarket";"Toko";"Toko Priyo";"Jl. Yos Sudarso No.30, Dempo, Kec. Lubuk Linggau Tim. II, Kota Lubuklinggau, Sumatera Selatan 31613";"Dempo, Kec. Lubuk Linggau Tim. II, Kota Lubuklinggau";"SUMATERA SELATAN";"31613";"Indonesia";" 0733452024";"";"";"-3.2954214";"102.8675797";"https://maps.google.com/?cid=0x0:0x218991fd16f15bff";""
"supermarket";"Minimarket";"D'Bakoel Seafood Frozenmart";"Jl. Yos Sudarso kecamatan, RT.06, Majapahit, Kec. Lubuk Linggau Tim. I, Kota Lubuklinggau, Sumatera Selatan 31625";"RT.06, Majapahit, Kec. Lubuk Linggau Tim. I, Kota Lubuklinggau";"SUMATERA SELATAN";"31625";"Indonesia";" 082139724668";"";"";"-3.2702472";"102.9084428";"https://maps.google.com/?cid=0x0:0x988e37345e05b4c8";""
"supermarket";"Minimarket";"Alfamart";"Jl. Yos Sudarso No.Rt. 003, Majapahit, Kec. Lubuk Linggau Tim. I, Kota Lubuklinggau, Sumatera Selatan 31628";"Majapahit, Kec. Lubuk Linggau Tim. I, Kota Lubuklinggau";"SUMATERA SELATAN";"31628";"Indonesia";" 1500959";"";"";"-3.2723865";"102.9045142";"https://maps.google.com/?cid=0x0:0x963f3d7ac99e0233";""
"supermarket";"Minimarket";"Alfamart taba koji";"Jl. Yos Sudarso No.Rt. 02, Taba Koji, Kec. Lubuk Linggau Tim. I, Kota Lubuklinggau, Sumatera Selatan 31628";"Taba Koji, Kec. Lubuk Linggau Tim. I, Kota Lubuklinggau";"SUMATERA SELATAN";"31628";"Indonesia";" 1500959";"";"";"-3.2893841";"102.8741577";"https://maps.google.com/?cid=0x0:0x58a419b7053a5469";""
"supermarket";"Minimarket";"Alfamart";"Jl. Jendral A. Yani No.36, RT.03, Megang, Kec. Lubuk Linggau Tim. I, Kota Lubuklinggau, Sumatera Selatan 31628";"RT.03, Megang, Kec. Lubuk Linggau Tim. I, Kota Lubuklinggau";"SUMATERA SELATAN";"31628";"Indonesia";" 1500959";"";"";"-3.2733892";"102.8628987";"https://maps.google.com/?cid=0x0:0x8bb6efbda51d68a";""
"supermarket";"Toko Pakaian Anak";"SYAFA BABY SHOP";"PV7M+QCG, Jl. Yos Sudarso, Taba Jemekeh, Kec. Lubuk Linggau Tim. I, Kota Lubuklinggau, Sumatera Selatan 31625";"Jl. Yos Sudarso, Taba Jemekeh, Kec. Lubuk Linggau Tim. I, Kota Lubuklinggau";"SUMATERA SELATAN";"31625";"Indonesia";" 081373883787";"";"";"-3.2855538";"102.883593";"https://maps.google.com/?cid=0x0:0x6c438ce904c5ef61";""
"supermarket";"Universitas";"Universitas PGRI Silampari";"Jl. Mayor Toha, Air Kuti, Kec. Lubuk Linggau Tim. I, Kota Lubuklinggau, Sumatera Selatan 31625";"Air Kuti, Kec. Lubuk Linggau Tim. I, Kota Lubuklinggau";"SUMATERA SELATAN";"31625";"Indonesia";" 0733451432";"";"";"-3.2758869";"102.9128048";"https://maps.google.com/?cid=0x0:0x4534b951a640118a";""
"supermarket";"Toko Kosmetik";"Al- barokah";"Perumnas Nikan No.1, Nikan Jaya, Kec. Lubuk Linggau Tim. I, Kota Lubuklinggau, Sumatera Selatan 31628";"Nikan Jaya, Kec. Lubuk Linggau Tim. I, Kota Lubuklinggau";"SUMATERA SELATAN";"31628";"Indonesia";" 082286591350";"";"";"-3.2854322";"102.9081699";"https://maps.google.com/?cid=0x0:0x9300de34b000e351";""
"supermarket";"Minimarket";"Alfamart Margarahayu";"Jl. Yos Sudarso, RT.001/RW.No. 162, Marga Rahayu, Kec. Lubuk Linggau Sel. II, Kota Lubuklinggau, Sumatera Selatan 31626";"RT.001/RW.No. 162, Marga Rahayu, Kec. Lubuk Linggau Sel. II, Kota Lubuklinggau";"SUMATERA SELATAN";"31626";"Indonesia";" 1500959";"";"";"-3.2726972";"102.9281793";"https://maps.google.com/?cid=0x0:0xd91da8a4a4ace0e5";""
"supermarket";"Toko";"Toko Wiwin/ Rumah Lubuklinggau";"Lorong Pak Joo, Jl.Yos Sudarso Km.05 No.07 Rt.03, Watervang, Kec. Lubuk Linggau Tim. I, Kota Lubuklinggau, Sumatera Selatan 31626";"Jl.Yos Sudarso Km.05 No.07 Rt.03, Watervang, Kec. Lubuk Linggau Tim. I, Kota Lubuklinggau";"SUMATERA SELATAN";"31626";"Indonesia";" 082275664134";"";"";"-3.2747216";"102.9018842";"https://maps.google.com/?cid=0x0:0x15fc185d5f556098";""
"supermarket";"Minimarket";"MD Mart";"PVPX+HX3, Jl. Kenanga II, Batu Urip, Kec. Lubuk Linggau Utara II, Kota Lubuklinggau, Sumatera Selatan 31627";"Jl. Kenanga II, Batu Urip, Kec. Lubuk Linggau Utara II, Kota Lubuklinggau";"SUMATERA SELATAN";"31627";"Indonesia";" 081373465911";"";"";"-3.2636438";"102.9001285";"https://maps.google.com/?cid=0x0:0xd5ae52b05de3df06";""
"supermarket";"Toko bahan makanan";"SM MART";"Jl. Bukit Sulap, Wira Karya, Kec. Lubuk Linggau Tim. I, Kota Lubuklinggau, Sumatera Selatan 31623";"Wira Karya, Kec. Lubuk Linggau Tim. I, Kota Lubuklinggau";"SUMATERA SELATAN";"31623";"Indonesia";" 0733323888";"";"";"-3.293277";"102.8723118";"https://maps.google.com/?cid=0x0:0xa4282e4c1846a738";""
"supermarket";"supermarket";"Kec. Lubuk Linggau Sel. I";"Kota Lubuklinggau, Sumatera Selatan";"Kota Lubuklinggau, Sumatera Selatan";"SUMATERA SELATAN";"";"Indonesia";"";"";"";"-3.2971067";"102.9235089";"https://maps.google.com/?cid=0x0:0xa020c942b2621c55";""
"supermarket";"Hipermarket";"JM Linggau";"PV6H+QFV, Jl. Yos Sudarso, Taba Koji, Kec. Lubuk Linggau Tim. I, Kota Lubuklinggau, Sumatera Selatan 31624";"Jl. Yos Sudarso, Taba Koji, Kec. Lubuk Linggau Tim. I, Kota Lubuklinggau";"SUMATERA SELATAN";"31624";"Indonesia";" 07337329377";"";"";"-3.2880081";"102.8786765";"https://maps.google.com/?cid=0x0:0x60458b8d77f3a012";""
"supermarket";"Toko Swalayan";"Aldo Mart Linggau";"Jl. Pukesmas Taba No.42, Cereme Taba, Kec. Lubuk Linggau Tim. II, Kota Lubuklinggau, Sumatera Selatan 31613";"Cereme Taba, Kec. Lubuk Linggau Tim. II, Kota Lubuklinggau";"SUMATERA SELATAN";"31613";"Indonesia";" 081278118739";"";"";"-3.2953438";"102.8782839";"https://maps.google.com/?cid=0x0:0xa845798572ce4c1a";""
"supermarket";"Kantor Perusahaan";"2 Muara Frozen Food Linggau";"PV46+JFR, Lubaklinggau Ulu, Kec. Lubuk Linggau Bar. II, Kota Lubuklinggau, Sumatera Selatan 31613";"Lubaklinggau Ulu, Kec. Lubuk Linggau Bar. II, Kota Lubuklinggau";"SUMATERA SELATAN";"31613";"Indonesia";" 081376165833";"";"";"-3.2933971";"102.8611475";"https://maps.google.com/?cid=0x0:0x35f197b78b4abcf0";""
"supermarket";"Pusat Perbelanjaan";"Hypermart - Lippo Plaza Lubuklinggau";"Lippo Plaza, Jl. Yos Sudarso No.765, Taba Jemekeh, Kec. Lubuk Linggau Tim. I, Kota Lubuklinggau, Sumatera Selatan 31628";"Jl. Yos Sudarso No.765, Taba Jemekeh, Kec. Lubuk Linggau Tim. I, Kota Lubuklinggau";"SUMATERA SELATAN";"31628";"Indonesia";" 07333281366";"";"";"-3.2875752";"102.8776077";"https://maps.google.com/?cid=0x0:0xca1a0c8b0d31cb09";""
"supermarket";"Toko";"Toko Wiwin/ Rumah Lubuklinggau";"Lorong Pak Joo, Jl.Yos Sudarso Km.05 No.07 Rt.03, Watervang, Kec. Lubuk Linggau Tim. I, Kota Lubuklinggau, Sumatera Selatan 31626";"Jl.Yos Sudarso Km.05 No.07 Rt.03, Watervang, Kec. Lubuk Linggau Tim. I, Kota Lubuklinggau";"SUMATERA SELATAN";"31626";"Indonesia";" 082275664134";"";"";"-3.2747216";"102.9018842";"https://maps.google.com/?cid=0x0:0x15fc185d5f556098";""
"supermarket";"supermarket";"Kec. Lubuk Linggau Tim. I";"Kota Lubuklinggau, Sumatera Selatan";"Kota Lubuklinggau, Sumatera Selatan";"SUMATERA SELATAN";"";"Indonesia";"";"";"";"-3.2839382";"102.8855843";"https://maps.google.com/?cid=0x0:0x3178fe8fb8900081";""
"supermarket";"Hipermarket";"JM Linggau";"PV6H+QFV, Jl. Yos Sudarso, Taba Koji, Kec. Lubuk Linggau Tim. I, Kota Lubuklinggau, Sumatera Selatan 31624";"Jl. Yos Sudarso, Taba Koji, Kec. Lubuk Linggau Tim. I, Kota Lubuklinggau";"SUMATERA SELATAN";"31624";"Indonesia";" 07337329377";"";"";"-3.2880081";"102.8786765";"https://maps.google.com/?cid=0x0:0x60458b8d77f3a012";""
"supermarket";"Toko bahan makanan";"SM MART";"Jl. Bukit Sulap, Wira Karya, Kec. Lubuk Linggau Tim. I, Kota Lubuklinggau, Sumatera Selatan 31623";"Wira Karya, Kec. Lubuk Linggau Tim. I, Kota Lubuklinggau";"SUMATERA SELATAN";"31623";"Indonesia";" 0733323888";"";"";"-3.293277";"102.8723118";"https://maps.google.com/?cid=0x0:0xa4282e4c1846a738";""
"supermarket";"Minimarket";"MD Mart";"PVPX+HX3, Jl. Kenanga II, Batu Urip, Kec. Lubuk Linggau Utara II, Kota Lubuklinggau, Sumatera Selatan 31627";"Jl. Kenanga II, Batu Urip, Kec. Lubuk Linggau Utara II, Kota Lubuklinggau";"SUMATERA SELATAN";"31627";"Indonesia";" 081373465911";"";"";"-3.2636438";"102.9001285";"https://maps.google.com/?cid=0x0:0xd5ae52b05de3df06";""
"supermarket";"Toko bahan makanan";"SM SWALAYAN BATU URIP";"PV9Q+8P3, Jl. Yos Sudarso, Batu Urip Taba, Kec. Lubuk Linggau Tim. I, Kota Lubuklinggau, Sumatera Selatan 31628";"Jl. Yos Sudarso, Batu Urip Taba, Kec. Lubuk Linggau Tim. I, Kota Lubuklinggau";"SUMATERA SELATAN";"31628";"Indonesia";" 07333281988";"";"";"-3.2817286";"102.8892892";"https://maps.google.com/?cid=0x0:0xa40344bb04717097";""
"supermarket";"Pusat Perbelanjaan";"Hypermart - Lippo Plaza Lubuklinggau";"Lippo Plaza, Jl. Yos Sudarso No.765, Taba Jemekeh, Kec. Lubuk Linggau Tim. I, Kota Lubuklinggau, Sumatera Selatan 31628";"Jl. Yos Sudarso No.765, Taba Jemekeh, Kec. Lubuk Linggau Tim. I, Kota Lubuklinggau";"SUMATERA SELATAN";"31628";"Indonesia";" 07333281366";"";"";"-3.2875752";"102.8776077";"https://maps.google.com/?cid=0x0:0xca1a0c8b0d31cb09";""
"supermarket";"Minimarket";"Minimarket MARS";"Jl. Cendana No. 54-55 Perumnas Tanjung Aman, Tj. Aman, Lubuklinggau, Sumatera Selatan, 31614";"Tj. Aman, Lubuklinggau";"SUMATERA SELATAN";"31614";"Indonesia";" 0733324778";"";"";"-3.310534";"102.848219";"https://maps.google.com/?cid=0x0:0xa43afbc9b74fffae";""
"supermarket";"Toko";"Minimarket MARS";"Jl. Depati Said RT. 07, Ulak Lebar, Lubuklinggau, Ulak Lebar, Kec. Lubuk Linggau Bar. II, Sumatera Selatan, 31614";"Ulak Lebar, Lubuklinggau, Ulak Lebar, Kec. Lubuk Linggau Bar. II";"SUMATERA SELATAN";"31614";"Indonesia";" 0733320718";"";"";"-3.3011498";"102.8445956";"https://maps.google.com/?cid=0x0:0x32801262c16af131";""
"supermarket";"Toko bahan makanan";"Kantor SM Group Linggau";"Wira Karya, Kec. Lubuk Linggau Tim. II, Kota Lubuklinggau, Sumatera Selatan 31613";"Kec. Lubuk Linggau Tim. II, Kota Lubuklinggau";"SUMATERA SELATAN";"31613";"Indonesia";" 07333281988";"";"";"-3.292675";"102.872047";"https://maps.google.com/?cid=0x0:0xa40fce897480caff";""
"supermarket";"Toko bahan makanan";"WARUNG BERJALAN PASHTERDIM 0406";"Jl. Kelapa No.Rt.05, Batu Urip Taba, Kec. Lubuk Linggau Tim. I, Kota Lubuklinggau, Sumatera Selatan 31625";"Batu Urip Taba, Kec. Lubuk Linggau Tim. I, Kota Lubuklinggau";"SUMATERA SELATAN";"31625";"Indonesia";" 081283330406";"";"";"-3.2807934";"102.8951033";"https://maps.google.com/?cid=0x0:0x4ecb4c43841b20bd";""
"supermarket";"Toko";"Toko Wiwin/ Rumah Lubuklinggau";"Lorong Pak Joo, Jl.Yos Sudarso Km.05 No.07 Rt.03, Watervang, Kec. Lubuk Linggau Tim. I, Kota Lubuklinggau, Sumatera Selatan 31626";"Jl.Yos Sudarso Km.05 No.07 Rt.03, Watervang, Kec. Lubuk Linggau Tim. I, Kota Lubuklinggau";"SUMATERA SELATAN";"31626";"Indonesia";" 082275664134";"";"";"-3.2747216";"102.9018842";"https://maps.google.com/?cid=0x0:0x15fc185d5f556098";""
"supermarket";"Pusat Perbelanjaan";"Lippo Plaza Lubuklinggau";"Jl. Yos Sudarso No.31, Taba Jemekeh, Kec. Lubuk Linggau Tim. II, Kota Lubuklinggau, Sumatera Selatan 31613";"Taba Jemekeh, Kec. Lubuk Linggau Tim. II, Kota Lubuklinggau";"SUMATERA SELATAN";"31613";"Indonesia";"";"";"";"-3.2879773";"102.8777476";"https://maps.google.com/?cid=0x0:0x44910cb5dec7223c";""
"supermarket";"Toko Kosmetik";"Minimarket Saudah kosmetik";"Jl. Yos Sudarso No.13, Taba Jemekeh, Kec. Lubuk Linggau Tim. I, Kota Lubuklinggau, Sumatera Selatan 31624";"Taba Jemekeh, Kec. Lubuk Linggau Tim. I, Kota Lubuklinggau";"SUMATERA SELATAN";"31624";"Indonesia";"";"";"";"-3.2871946";"102.880497";"https://maps.google.com/?cid=0x0:0x904e67e12e15156d";""
"supermarket";"Toko";"MM FROZENFOOD";"Jl. Malabar No.10, Jawa Kiri, Kec. Lubuk Linggau Tim. II, Kota Lubuklinggau, Sumatera Selatan 31613";"Jawa Kiri, Kec. Lubuk Linggau Tim. II, Kota Lubuklinggau";"SUMATERA SELATAN";"31613";"Indonesia";" 08980839178";"";"";"-3.2896875";"102.8740352";"https://maps.google.com/?cid=0x0:0x5b722165805a7378";""
"supermarket";"Minimarket";"D'Bakoel Frozenfood";"Jl. Yos Sudarso No.9, Batu Urip Taba, Kec. Lubuk Linggau Tim. I, Kota Lubuklinggau, Sumatera Selatan 31624";"Batu Urip Taba, Kec. Lubuk Linggau Tim. I, Kota Lubuklinggau";"SUMATERA SELATAN";"31624";"Indonesia";" 085333057308";"";"";"-3.2801784";"102.8917923";"https://maps.google.com/?cid=0x0:0x7f9360512a8ab932";""
"supermarket";"Toko Pakaian";"Bill Shop Al-Haromain";"PV7M+G4J, Jl. Yos Sudarso, Taba Jemekeh, Kec. Lubuk Linggau Tim. I, Kota Lubuklinggau, Sumatera Selatan 31625";"Jl. Yos Sudarso, Taba Jemekeh, Kec. Lubuk Linggau Tim. I, Kota Lubuklinggau";"SUMATERA SELATAN";"31625";"Indonesia";" 085267936478";"";"";"-3.2861546";"102.8827661";"https://maps.google.com/?cid=0x0:0x583daced7cc7c42e";""
"supermarket";"Toko";"Priyo Mart";"Simpang Periuk, Kec. Lubuk Linggau Sel. II, Kota Lubuklinggau, Sumatera Selatan";"Kota Lubuklinggau, Sumatera Selatan";"SUMATERA SELATAN";"";"Indonesia";"";"";"";"-3.2677762";"102.9390721";"https://maps.google.com/?cid=0x0:0xa45d83c84f8efa3";""
"supermarket";"Toko Buah dan Sayur";"PUSAT BUAH ABAK LINGGAU";"JL. YOS SUDARSO NO 89 RT/RW 04, LUBUK LINGGAU, Sumatera Selatan 31627";"LUBUK LINGGAU";"SUMATERA SELATAN";"31627";"Indonesia";" 085141115559";"";"";"-3.2756664";"102.9007834";"https://maps.google.com/?cid=0x0:0xaf728e495ab7e94c";""
"supermarket";"Toko";"TOKO DARWAN";"Q24R+V3V, Jalan Simpang Jl. Sekayu - Lubuk Linggau, Ps. Muara Beliti, Kec. Muara Beliti, Kabupaten Musi Rawas, Sumatera Selatan 31661";"Jalan Simpang Jl. Sekayu - Lubuk Linggau, Ps. Muara Beliti, Kec. Muara Beliti, Kabupaten Musi Rawas";"SUMATERA SELATAN";"31661";"Indonesia";" 081373282426";"";"";"-3.2427625";"103.0401713";"https://maps.google.com/?cid=0x0:0xc23eca84f13302a4";""
"supermarket";"Minimarket";"Toko Subur Lestari";"Terminal atas, Dempo, Kec. Lubuk Linggau Tim. II, Kota Lubuklinggau, Sumatera Selatan 31613";"Dempo, Kec. Lubuk Linggau Tim. II, Kota Lubuklinggau";"SUMATERA SELATAN";"31613";"Indonesia";"";"";"";"-3.2969622";"102.8644277";"https://maps.google.com/?cid=0x0:0x79bc2defc3acfb9f";""
"supermarket";"Toko Perlengkapan Rumah";"Mitra Bangunan Supermarket Lubuk Linggau";"Watervang, Kec. Lubuk Linggau Tim. I, Kota Lubuklinggau, Sumatera Selatan 31625";"Kec. Lubuk Linggau Tim. I, Kota Lubuklinggau";"SUMATERA SELATAN";"31625";"Indonesia";"";"";"";"-3.2756118";"102.9003116";"https://maps.google.com/?cid=0x0:0x9741dde2cf1035e";""
"supermarket";"Toko bahan makanan";"SM SWALAYAN Garuda";"PV37+73W, Jl. Garuda, Ps. Permiri, Kec. Lubuk Linggau Bar. II, Kota Lubuklinggau, Sumatera Selatan 31613";"Jl. Garuda, Ps. Permiri, Kec. Lubuk Linggau Bar. II, Kota Lubuklinggau";"SUMATERA SELATAN";"31613";"Indonesia";" 07333281988";"";"";"-3.2967606";"102.8626956";"https://maps.google.com/?cid=0x0:0x9a077fdd38760100";""
"supermarket";"Minimarket";"Alfamart";"Jl. Yos Sudarso No.Rt. 003, Majapahit, Kec. Lubuk Linggau Tim. I, Kota Lubuklinggau, Sumatera Selatan 31628";"Majapahit, Kec. Lubuk Linggau Tim. I, Kota Lubuklinggau";"SUMATERA SELATAN";"31628";"Indonesia";" 1500959";"";"";"-3.2723865";"102.9045142";"https://maps.google.com/?cid=0x0:0x963f3d7ac99e0233";""
"supermarket";"Minimarket";"TOKO KARYATAMA";"PV86+3Q6, Jl. Jendral Sudirman, Ps. Satelit, Kec. Lubuk Linggau Utara II, Kota Lubuklinggau, Sumatera Selatan 31617";"Jl. Jendral Sudirman, Ps. Satelit, Kec. Lubuk Linggau Utara II, Kota Lubuklinggau";"SUMATERA SELATAN";"31617";"Indonesia";" 081998333336";"";"";"-3.2848303";"102.8618909";"https://maps.google.com/?cid=0x0:0x9c1b9598110ef884";""
"supermarket";"Toko bahan makanan";"SRC Rizky";"PWMH+3FW, Jl. Amula Rahayu, Tanah Periuk, Kec. Lubuk Linggau Sel. II, Kota Lubuklinggau, Sumatera Selatan 31625";"Jl. Amula Rahayu, Tanah Periuk, Kec. Lubuk Linggau Sel. II, Kota Lubuklinggau";"SUMATERA SELATAN";"31625";"Indonesia";" 081270982201";"";"";"-3.2672683";"102.928714";"https://maps.google.com/?cid=0x0:0xd180f0a8ef358f94";""
"supermarket";"Toko Buah dan Sayur";"SULTAN BUAH CABANG 1";"Jl. kenanga II, Sebrang Apotik Saras, Pasar Buah Satelit, Sumatera Selatan 31641";"Sebrang Apotik Saras, Pasar Buah Satelit";"SUMATERA SELATAN";"31641";"Indonesia";" 08128299108";"";"";"-3.2865292";"102.8635803";"https://maps.google.com/?cid=0x0:0xfadf725e99b1e8e2";""
"supermarket";"Minimarket";"Alfamart Taba Jemekeh";"Jl. Yos Sudarso Kel, RT.5/RW.001, Taba Jemekeh, Kec. Lubuk Linggau Tim. I, Kota Lubuklinggau, Sumatera Selatan 31625";"RT.5/RW.001, Taba Jemekeh, Kec. Lubuk Linggau Tim. I, Kota Lubuklinggau";"SUMATERA SELATAN";"31625";"Indonesia";" 1500959";"";"";"-3.2842573";"102.8849526";"https://maps.google.com/?cid=0x0:0xd9d05f4062d40eb9";""
"supermarket";"Minimarket";"Alfamart Depati Said";"Jl. Depati Said No.12, RT.05, Lubaklinggau Ulu, Kec. Lubuk Linggau Bar. II, Kota Lubuklinggau, Sumatera Selatan 31626";"RT.05, Lubaklinggau Ulu, Kec. Lubuk Linggau Bar. II, Kota Lubuklinggau";"SUMATERA SELATAN";"31626";"Indonesia";" 1500959";"";"";"-3.2913768";"102.8594959";"https://maps.google.com/?cid=0x0:0xf6ca8ae62fab1113";""
"supermarket";"Minimarket";"Alfamart Margarahayu";"Jl. Yos Sudarso, RT.001/RW.No. 162, Marga Rahayu, Kec. Lubuk Linggau Sel. II, Kota Lubuklinggau, Sumatera Selatan 31626";"RT.001/RW.No. 162, Marga Rahayu, Kec. Lubuk Linggau Sel. II, Kota Lubuklinggau";"SUMATERA SELATAN";"31626";"Indonesia";" 1500959";"";"";"-3.2726972";"102.9281793";"https://maps.google.com/?cid=0x0:0xd91da8a4a4ace0e5";""
"supermarket";"supermarket";"Kec. Lubuk Linggau Tim. I";"Kota Lubuklinggau, Sumatera Selatan";"Kota Lubuklinggau, Sumatera Selatan";"SUMATERA SELATAN";"";"Indonesia";"";"";"";"-3.2839382";"102.8855843";"https://maps.google.com/?cid=0x0:0x3178fe8fb8900081";""
"supermarket";"Pusat Perbelanjaan";"Hypermart - Lippo Plaza Lubuklinggau";"Lippo Plaza, Jl. Yos Sudarso No.765, Taba Jemekeh, Kec. Lubuk Linggau Tim. I, Kota Lubuklinggau, Sumatera Selatan 31628";"Jl. Yos Sudarso No.765, Taba Jemekeh, Kec. Lubuk Linggau Tim. I, Kota Lubuklinggau";"SUMATERA SELATAN";"31628";"Indonesia";" 07333281366";"";"";"-3.2875752";"102.8776077";"https://maps.google.com/?cid=0x0:0xca1a0c8b0d31cb09";""
"supermarket";"Hipermarket";"JM Linggau";"PV6H+QFV, Jl. Yos Sudarso, Taba Koji, Kec. Lubuk Linggau Tim. I, Kota Lubuklinggau, Sumatera Selatan 31624";"Jl. Yos Sudarso, Taba Koji, Kec. Lubuk Linggau Tim. I, Kota Lubuklinggau";"SUMATERA SELATAN";"31624";"Indonesia";" 07337329377";"";"";"-3.2880081";"102.8786765";"https://maps.google.com/?cid=0x0:0x60458b8d77f3a012";""
"supermarket";"Toko Swalayan";"SM SWALAYAN YOS SUDARSO";"Jl. Yos Sudarso No.309, Dempo, Kec. Lubuk Linggau Tim. II, Kota Lubuklinggau, Sumatera Selatan 31613";"Dempo, Kec. Lubuk Linggau Tim. II, Kota Lubuklinggau";"SUMATERA SELATAN";"31613";"Indonesia";" 07333281988";"";"";"-3.2955737";"102.8670296";"https://maps.google.com/?cid=0x0:0x82de5a856938c30";""
"supermarket";"Minimarket";"Minimarket MARS";"Jl. Cendana No. 54-55 Perumnas Tanjung Aman, Tj. Aman, Lubuklinggau, Sumatera Selatan, 31614";"Tj. Aman, Lubuklinggau";"SUMATERA SELATAN";"31614";"Indonesia";" 0733324778";"";"";"-3.310534";"102.848219";"https://maps.google.com/?cid=0x0:0xa43afbc9b74fffae";""
"supermarket";"Toko";"Minimarket MARS";"Jl. Depati Said RT. 07, Ulak Lebar, Lubuklinggau, Ulak Lebar, Kec. Lubuk Linggau Bar. II, Sumatera Selatan, 31614";"Ulak Lebar, Lubuklinggau, Ulak Lebar, Kec. Lubuk Linggau Bar. II";"SUMATERA SELATAN";"31614";"Indonesia";" 0733320718";"";"";"-3.3011498";"102.8445956";"https://maps.google.com/?cid=0x0:0x32801262c16af131";""
"supermarket";"Toko bahan makanan";"Kantor SM Group Linggau";"Wira Karya, Kec. Lubuk Linggau Tim. II, Kota Lubuklinggau, Sumatera Selatan 31613";"Kec. Lubuk Linggau Tim. II, Kota Lubuklinggau";"SUMATERA SELATAN";"31613";"Indonesia";" 07333281988";"";"";"-3.292675";"102.872047";"https://maps.google.com/?cid=0x0:0xa40fce897480caff";""
"supermarket";"Pusat Perbelanjaan";"Lippo Plaza Lubuklinggau";"Jl. Yos Sudarso No.31, Taba Jemekeh, Kec. Lubuk Linggau Tim. II, Kota Lubuklinggau, Sumatera Selatan 31613";"Taba Jemekeh, Kec. Lubuk Linggau Tim. II, Kota Lubuklinggau";"SUMATERA SELATAN";"31613";"Indonesia";"";"";"";"-3.2879773";"102.8777476";"https://maps.google.com/?cid=0x0:0x44910cb5dec7223c";""
"supermarket";"Minimarket";"D'Bakoel Frozenfood";"Jl. Yos Sudarso No.9, Batu Urip Taba, Kec. Lubuk Linggau Tim. I, Kota Lubuklinggau, Sumatera Selatan 31624";"Batu Urip Taba, Kec. Lubuk Linggau Tim. I, Kota Lubuklinggau";"SUMATERA SELATAN";"31624";"Indonesia";" 085333057308";"";"";"-3.2801784";"102.8917923";"https://maps.google.com/?cid=0x0:0x7f9360512a8ab932";""
"supermarket";"Toko Pakaian";"Bill Shop Al-Haromain";"PV7M+G4J, Jl. Yos Sudarso, Taba Jemekeh, Kec. Lubuk Linggau Tim. I, Kota Lubuklinggau, Sumatera Selatan 31625";"Jl. Yos Sudarso, Taba Jemekeh, Kec. Lubuk Linggau Tim. I, Kota Lubuklinggau";"SUMATERA SELATAN";"31625";"Indonesia";" 085267936478";"";"";"-3.2861546";"102.8827661";"https://maps.google.com/?cid=0x0:0x583daced7cc7c42e";""
"supermarket";"Toko";"MM FROZENFOOD";"Jl. Malabar No.10, Jawa Kiri, Kec. Lubuk Linggau Tim. II, Kota Lubuklinggau, Sumatera Selatan 31613";"Jawa Kiri, Kec. Lubuk Linggau Tim. II, Kota Lubuklinggau";"SUMATERA SELATAN";"31613";"Indonesia";" 08980839178";"";"";"-3.2896875";"102.8740352";"https://maps.google.com/?cid=0x0:0x5b722165805a7378";""
"supermarket";"Toko";"Priyo Mart";"Simpang Periuk, Kec. Lubuk Linggau Sel. II, Kota Lubuklinggau, Sumatera Selatan";"Kota Lubuklinggau, Sumatera Selatan";"SUMATERA SELATAN";"";"Indonesia";"";"";"";"-3.2677762";"102.9390721";"https://maps.google.com/?cid=0x0:0xa45d83c84f8efa3";""
"supermarket";"Toko Buah dan Sayur";"PUSAT BUAH ABAK LINGGAU";"JL. YOS SUDARSO NO 89 RT/RW 04, LUBUK LINGGAU, Sumatera Selatan 31627";"LUBUK LINGGAU";"SUMATERA SELATAN";"31627";"Indonesia";" 085141115559";"";"";"-3.2756664";"102.9007834";"https://maps.google.com/?cid=0x0:0xaf728e495ab7e94c";""
"supermarket";"Toko Pakaian Anak";"SYAFA BABY SHOP";"PV7M+QCG, Jl. Yos Sudarso, Taba Jemekeh, Kec. Lubuk Linggau Tim. I, Kota Lubuklinggau, Sumatera Selatan 31625";"Jl. Yos Sudarso, Taba Jemekeh, Kec. Lubuk Linggau Tim. I, Kota Lubuklinggau";"SUMATERA SELATAN";"31625";"Indonesia";" 081373883787";"";"";"-3.2855538";"102.883593";"https://maps.google.com/?cid=0x0:0x6c438ce904c5ef61";""
"supermarket";"Toko bahan makanan";"Toko Priyo";"Simpang Periuk, Kec. Lubuk Linggau Sel. II, Kota Lubuklinggau, Sumatera Selatan";"Kota Lubuklinggau, Sumatera Selatan";"SUMATERA SELATAN";"";"Indonesia";"";"";"";"-3.2677265";"102.9386431";"https://maps.google.com/?cid=0x0:0xd67ceacb701848ed";""
"supermarket";"Minimarket";"Toko Subur Lestari";"Terminal atas, Dempo, Kec. Lubuk Linggau Tim. II, Kota Lubuklinggau, Sumatera Selatan 31613";"Dempo, Kec. Lubuk Linggau Tim. II, Kota Lubuklinggau";"SUMATERA SELATAN";"31613";"Indonesia";"";"";"";"-3.2969622";"102.8644277";"https://maps.google.com/?cid=0x0:0x79bc2defc3acfb9f";""
"supermarket";"Toko Pakaian";"Toko Grosir";"Jl. Sultan Mahmud Badaruddin II, Marga Mulya, Kec. Lubuk Linggau Sel. II, Kota Lubuklinggau, Sumatera Selatan 31626";"Marga Mulya, Kec. Lubuk Linggau Sel. II, Kota Lubuklinggau";"SUMATERA SELATAN";"31626";"Indonesia";" 082216720033";"";"";"-3.270023";"102.9194413";"https://maps.google.com/?cid=0x0:0xf75fbd03b08d191d";""
"supermarket";"";"Perumahan Graha Bumi Silampari";"PW63+JGW, Jalan Fatmawati Soekarno Putri, Kelurahan Taba Lestari, Kecamatan Lubuklinggau Timur I, Taba Jemekeh, Lubuklinggau, Kota Lubuklinggau, Sumatera Selatan 31625";"Jalan Fatmawati Soekarno Putri, Kelurahan Taba Lestari, Kecamatan Lubuklinggau Timur I, Taba Jemekeh, Lubuklinggau, Kota Lubuklinggau";"SUMATERA SELATAN";"31625";"Indonesia";" 081271316006";"";"";"-3.2883811";"102.9038188";"https://maps.google.com/?cid=0x0:0x272ece6b21e9811f";""
"supermarket";"Minimarket";"D'Bakoel Seafood Frozenmart";"Jl. Yos Sudarso kecamatan, RT.06, Majapahit, Kec. Lubuk Linggau Tim. I, Kota Lubuklinggau, Sumatera Selatan 31625";"RT.06, Majapahit, Kec. Lubuk Linggau Tim. I, Kota Lubuklinggau";"SUMATERA SELATAN";"31625";"Indonesia";" 082139724668";"";"";"-3.2702472";"102.9084428";"https://maps.google.com/?cid=0x0:0x988e37345e05b4c8";""
"supermarket";"Minimarket";"Alfamart";"Jl. Yos Sudarso No.Rt. 003, Majapahit, Kec. Lubuk Linggau Tim. I, Kota Lubuklinggau, Sumatera Selatan 31628";"Majapahit, Kec. Lubuk Linggau Tim. I, Kota Lubuklinggau";"SUMATERA SELATAN";"31628";"Indonesia";" 1500959";"";"";"-3.2723865";"102.9045142";"https://maps.google.com/?cid=0x0:0x963f3d7ac99e0233";""
"supermarket";"Minimarket";"Alfamart taba koji";"Jl. Yos Sudarso No.Rt. 02, Taba Koji, Kec. Lubuk Linggau Tim. I, Kota Lubuklinggau, Sumatera Selatan 31628";"Taba Koji, Kec. Lubuk Linggau Tim. I, Kota Lubuklinggau";"SUMATERA SELATAN";"31628";"Indonesia";" 1500959";"";"";"-3.2893841";"102.8741577";"https://maps.google.com/?cid=0x0:0x58a419b7053a5469";""
"supermarket";"Universitas";"Universitas PGRI Silampari";"Jl. Mayor Toha, Air Kuti, Kec. Lubuk Linggau Tim. I, Kota Lubuklinggau, Sumatera Selatan 31625";"Air Kuti, Kec. Lubuk Linggau Tim. I, Kota Lubuklinggau";"SUMATERA SELATAN";"31625";"Indonesia";" 0733451432";"";"";"-3.2758869";"102.9128048";"https://maps.google.com/?cid=0x0:0x4534b951a640118a";""
"supermarket";"Minimarket";"Alfamart";"Jl. Jendral A. Yani No.36, RT.03, Megang, Kec. Lubuk Linggau Tim. I, Kota Lubuklinggau, Sumatera Selatan 31628";"RT.03, Megang, Kec. Lubuk Linggau Tim. I, Kota Lubuklinggau";"SUMATERA SELATAN";"31628";"Indonesia";" 1500959";"";"";"-3.2733892";"102.8628987";"https://maps.google.com/?cid=0x0:0x8bb6efbda51d68a";""
"supermarket";"Toko Kosmetik";"Al- barokah";"Perumnas Nikan No.1, Nikan Jaya, Kec. Lubuk Linggau Tim. I, Kota Lubuklinggau, Sumatera Selatan 31628";"Nikan Jaya, Kec. Lubuk Linggau Tim. I, Kota Lubuklinggau";"SUMATERA SELATAN";"31628";"Indonesia";" 082286591350";"";"";"-3.2854322";"102.9081699";"https://maps.google.com/?cid=0x0:0x9300de34b000e351";""
"supermarket";"Minimarket";"Alfamart Margarahayu";"Jl. Yos Sudarso, RT.001/RW.No. 162, Marga Rahayu, Kec. Lubuk Linggau Sel. II, Kota Lubuklinggau, Sumatera Selatan 31626";"RT.001/RW.No. 162, Marga Rahayu, Kec. Lubuk Linggau Sel. II, Kota Lubuklinggau";"SUMATERA SELATAN";"31626";"Indonesia";" 1500959";"";"";"-3.2726972";"102.9281793";"https://maps.google.com/?cid=0x0:0xd91da8a4a4ace0e5";""
"supermarket";"Toko";"Toko Wiwin/ Rumah Lubuklinggau";"Lorong Pak Joo, Jl.Yos Sudarso Km.05 No.07 Rt.03, Watervang, Kec. Lubuk Linggau Tim. I, Kota Lubuklinggau, Sumatera Selatan 31626";"Jl.Yos Sudarso Km.05 No.07 Rt.03, Watervang, Kec. Lubuk Linggau Tim. I, Kota Lubuklinggau";"SUMATERA SELATAN";"31626";"Indonesia";" 082275664134";"";"";"-3.2747216";"102.9018842";"https://maps.google.com/?cid=0x0:0x15fc185d5f556098";""
"supermarket";"Minimarket";"MD Mart";"PVPX+HX3, Jl. Kenanga II, Batu Urip, Kec. Lubuk Linggau Utara II, Kota Lubuklinggau, Sumatera Selatan 31627";"Jl. Kenanga II, Batu Urip, Kec. Lubuk Linggau Utara II, Kota Lubuklinggau";"SUMATERA SELATAN";"31627";"Indonesia";" 081373465911";"";"";"-3.2636438";"102.9001285";"https://maps.google.com/?cid=0x0:0xd5ae52b05de3df06";""
"supermarket";"Toko bahan makanan";"SM MART";"Jl. Bukit Sulap, Wira Karya, Kec. Lubuk Linggau Tim. I, Kota Lubuklinggau, Sumatera Selatan 31623";"Wira Karya, Kec. Lubuk Linggau Tim. I, Kota Lubuklinggau";"SUMATERA SELATAN";"31623";"Indonesia";" 0733323888";"";"";"-3.293277";"102.8723118";"https://maps.google.com/?cid=0x0:0xa4282e4c1846a738";""
"supermarket";"supermarket";"Lubuklinggau";"Kota Lubuklinggau, Sumatera Selatan";"Kota Lubuklinggau, Sumatera Selatan";"SUMATERA SELATAN";"";"Indonesia";"";"";"";"-3.2995858";"102.857236";"https://maps.google.com/?cid=0x0:0x3039d80b220cc30";""
"supermarket";"supermarket";"Kec. Lubuk Linggau Tim. I";"Kota Lubuklinggau, Sumatera Selatan";"Kota Lubuklinggau, Sumatera Selatan";"SUMATERA SELATAN";"";"Indonesia";"";"";"";"-3.2839382";"102.8855843";"https://maps.google.com/?cid=0x0:0x3178fe8fb8900081";""
"supermarket";"Minimarket";"MD Mart";"PVPX+HX3, Jl. Kenanga II, Batu Urip, Kec. Lubuk Linggau Utara II, Kota Lubuklinggau, Sumatera Selatan 31627";"Jl. Kenanga II, Batu Urip, Kec. Lubuk Linggau Utara II, Kota Lubuklinggau";"SUMATERA SELATAN";"31627";"Indonesia";" 081373465911";"";"";"-3.2636438";"102.9001285";"https://maps.google.com/?cid=0x0:0xd5ae52b05de3df06";""
"supermarket";"Hipermarket";"JM Linggau";"PV6H+QFV, Jl. Yos Sudarso, Taba Koji, Kec. Lubuk Linggau Tim. I, Kota Lubuklinggau, Sumatera Selatan 31624";"Jl. Yos Sudarso, Taba Koji, Kec. Lubuk Linggau Tim. I, Kota Lubuklinggau";"SUMATERA SELATAN";"31624";"Indonesia";" 07337329377";"";"";"-3.2880081";"102.8786765";"https://maps.google.com/?cid=0x0:0x60458b8d77f3a012";""
"supermarket";"Pusat Perbelanjaan";"Hypermart - Lippo Plaza Lubuklinggau";"Lippo Plaza, Jl. Yos Sudarso No.765, Taba Jemekeh, Kec. Lubuk Linggau Tim. I, Kota Lubuklinggau, Sumatera Selatan 31628";"Jl. Yos Sudarso No.765, Taba Jemekeh, Kec. Lubuk Linggau Tim. I, Kota Lubuklinggau";"SUMATERA SELATAN";"31628";"Indonesia";" 07333281366";"";"";"-3.2875752";"102.8776077";"https://maps.google.com/?cid=0x0:0xca1a0c8b0d31cb09";""
"supermarket";"Kedai Kopi";"Canda Tawa";"PV6F+9XX, Jl. Yos Sudarso, Taba Koji, Kec. Lubuk Linggau Tim. I, Kota Lubuklinggau, Sumatera Selatan";"Kota Lubuklinggau, Sumatera Selatan";"SUMATERA SELATAN";"";"Indonesia";"";"";"";"-3.2890059";"102.8749741";"https://maps.google.com/?cid=0x0:0xcd598ef9f475a1b";""
"supermarket";"Minimarket";"MD Mart";"PVPX+HX3, Jl. Kenanga II, Batu Urip, Kec. Lubuk Linggau Utara II, Kota Lubuklinggau, Sumatera Selatan 31627";"Jl. Kenanga II, Batu Urip, Kec. Lubuk Linggau Utara II, Kota Lubuklinggau";"SUMATERA SELATAN";"31627";"Indonesia";" 081373465911";"";"";"-3.2636438";"102.9001285";"https://maps.google.com/?cid=0x0:0xd5ae52b05de3df06";""
"supermarket";"Kantor Perusahaan";"2 Muara Frozen Food Linggau";"PV46+JFR, Lubaklinggau Ulu, Kec. Lubuk Linggau Bar. II, Kota Lubuklinggau, Sumatera Selatan 31613";"Lubaklinggau Ulu, Kec. Lubuk Linggau Bar. II, Kota Lubuklinggau";"SUMATERA SELATAN";"31613";"Indonesia";" 081376165833";"";"";"-3.2933971";"102.8611475";"https://maps.google.com/?cid=0x0:0x35f197b78b4abcf0";""
"supermarket";"Pusat Perbelanjaan";"Hypermart - Lippo Plaza Lubuklinggau";"Lippo Plaza, Jl. Yos Sudarso No.765, Taba Jemekeh, Kec. Lubuk Linggau Tim. I, Kota Lubuklinggau, Sumatera Selatan 31628";"Jl. Yos Sudarso No.765, Taba Jemekeh, Kec. Lubuk Linggau Tim. I, Kota Lubuklinggau";"SUMATERA SELATAN";"31628";"Indonesia";" 07333281366";"";"";"-3.2875752";"102.8776077";"https://maps.google.com/?cid=0x0:0xca1a0c8b0d31cb09";""
"supermarket";"Pusat Perbelanjaan";"Lippo Plaza Lubuklinggau";"Jl. Yos Sudarso No.31, Taba Jemekeh, Kec. Lubuk Linggau Tim. II, Kota Lubuklinggau, Sumatera Selatan 31613";"Taba Jemekeh, Kec. Lubuk Linggau Tim. II, Kota Lubuklinggau";"SUMATERA SELATAN";"31613";"Indonesia";"";"";"";"-3.2879773";"102.8777476";"https://maps.google.com/?cid=0x0:0x44910cb5dec7223c";""
"supermarket";"supermarket";"Kec. Lubuk Linggau Tim. I";"Kota Lubuklinggau, Sumatera Selatan";"Kota Lubuklinggau, Sumatera Selatan";"SUMATERA SELATAN";"";"Indonesia";"";"";"";"-3.2839382";"102.8855843";"https://maps.google.com/?cid=0x0:0x3178fe8fb8900081";""
"supermarket";"Hipermarket";"JM Linggau";"PV6H+QFV, Jl. Yos Sudarso, Taba Koji, Kec. Lubuk Linggau Tim. I, Kota Lubuklinggau, Sumatera Selatan 31624";"Jl. Yos Sudarso, Taba Koji, Kec. Lubuk Linggau Tim. I, Kota Lubuklinggau";"SUMATERA SELATAN";"31624";"Indonesia";" 07337329377";"";"";"-3.2880081";"102.8786765";"https://maps.google.com/?cid=0x0:0x60458b8d77f3a012";""
"supermarket";"Kantor Perusahaan";"2 Muara Frozen Food Linggau";"PV46+JFR, Lubaklinggau Ulu, Kec. Lubuk Linggau Bar. II, Kota Lubuklinggau, Sumatera Selatan 31613";"Lubaklinggau Ulu, Kec. Lubuk Linggau Bar. II, Kota Lubuklinggau";"SUMATERA SELATAN";"31613";"Indonesia";" 081376165833";"";"";"-3.2933971";"102.8611475";"https://maps.google.com/?cid=0x0:0x35f197b78b4abcf0";""
"supermarket";"Toko Swalayan";"SM SWALAYAN YOS SUDARSO";"Jl. Yos Sudarso No.309, Dempo, Kec. Lubuk Linggau Tim. II, Kota Lubuklinggau, Sumatera Selatan 31613";"Dempo, Kec. Lubuk Linggau Tim. II, Kota Lubuklinggau";"SUMATERA SELATAN";"31613";"Indonesia";" 07333281988";"";"";"-3.2955737";"102.8670296";"https://maps.google.com/?cid=0x0:0x82de5a856938c30";""
"supermarket";"Toko";"TOKO.AMEL JAYA SOSIS Pusat Grosir FROZEN FOOD";"Jalan jalan jenderal Sudirman RT 004 kel LLG ilir kec LLG barat 2, Ps. Permiri, Kec. Lubuk Linggau Bar. II, Kota Lubuklinggau, Sumatera Selatan 31611";"Ps. Permiri, Kec. Lubuk Linggau Bar. II, Kota Lubuklinggau";"SUMATERA SELATAN";"31611";"Indonesia";" 081383738169";"";"";"-3.2916913";"102.8634678";"https://maps.google.com/?cid=0x0:0xaec75ef618857c26";""
"supermarket";"supermarket";"Kec. Lubuk Linggau Utara II";"Kota Lubuklinggau, Sumatera Selatan";"Kota Lubuklinggau, Sumatera Selatan";"SUMATERA SELATAN";"";"Indonesia";"";"";"";"-3.2803457";"102.8640062";"https://maps.google.com/?cid=0x0:0xfa4b3a2f62cf8e65";""
"supermarket";"Toko Swalayan";"SM SWALAYAN YOS SUDARSO";"Jl. Yos Sudarso No.309, Dempo, Kec. Lubuk Linggau Tim. II, Kota Lubuklinggau, Sumatera Selatan 31613";"Dempo, Kec. Lubuk Linggau Tim. II, Kota Lubuklinggau";"SUMATERA SELATAN";"31613";"Indonesia";" 07333281988";"";"";"-3.2955737";"102.8670296";"https://maps.google.com/?cid=0x0:0x82de5a856938c30";""
"supermarket";"Hipermarket";"JM Linggau";"PV6H+QFV, Jl. Yos Sudarso, Taba Koji, Kec. Lubuk Linggau Tim. I, Kota Lubuklinggau, Sumatera Selatan 31624";"Jl. Yos Sudarso, Taba Koji, Kec. Lubuk Linggau Tim. I, Kota Lubuklinggau";"SUMATERA SELATAN";"31624";"Indonesia";" 07337329377";"";"";"-3.2880081";"102.8786765";"https://maps.google.com/?cid=0x0:0x60458b8d77f3a012";""
"supermarket";"Minimarket";"MD Mart";"PVPX+HX3, Jl. Kenanga II, Batu Urip, Kec. Lubuk Linggau Utara II, Kota Lubuklinggau, Sumatera Selatan 31627";"Jl. Kenanga II, Batu Urip, Kec. Lubuk Linggau Utara II, Kota Lubuklinggau";"SUMATERA SELATAN";"31627";"Indonesia";" 081373465911";"";"";"-3.2636438";"102.9001285";"https://maps.google.com/?cid=0x0:0xd5ae52b05de3df06";""
"supermarket";"Minimarket";"Minimarket MARS";"Jl. Cendana No. 54-55 Perumnas Tanjung Aman, Tj. Aman, Lubuklinggau, Sumatera Selatan, 31614";"Tj. Aman, Lubuklinggau";"SUMATERA SELATAN";"31614";"Indonesia";" 0733324778";"";"";"-3.310534";"102.848219";"https://maps.google.com/?cid=0x0:0xa43afbc9b74fffae";""
"supermarket";"Pusat Perbelanjaan";"Hypermart - Lippo Plaza Lubuklinggau";"Lippo Plaza, Jl. Yos Sudarso No.765, Taba Jemekeh, Kec. Lubuk Linggau Tim. I, Kota Lubuklinggau, Sumatera Selatan 31628";"Jl. Yos Sudarso No.765, Taba Jemekeh, Kec. Lubuk Linggau Tim. I, Kota Lubuklinggau";"SUMATERA SELATAN";"31628";"Indonesia";" 07333281366";"";"";"-3.2875752";"102.8776077";"https://maps.google.com/?cid=0x0:0xca1a0c8b0d31cb09";""
"supermarket";"Toko bahan makanan";"SM SWALAYAN BATU URIP";"PV9Q+8P3, Jl. Yos Sudarso, Batu Urip Taba, Kec. Lubuk Linggau Tim. I, Kota Lubuklinggau, Sumatera Selatan 31628";"Jl. Yos Sudarso, Batu Urip Taba, Kec. Lubuk Linggau Tim. I, Kota Lubuklinggau";"SUMATERA SELATAN";"31628";"Indonesia";" 07333281988";"";"";"-3.2817286";"102.8892892";"https://maps.google.com/?cid=0x0:0xa40344bb04717097";""
"supermarket";"Toko";"Toko Wiwin/ Rumah Lubuklinggau";"Lorong Pak Joo, Jl.Yos Sudarso Km.05 No.07 Rt.03, Watervang, Kec. Lubuk Linggau Tim. I, Kota Lubuklinggau, Sumatera Selatan 31626";"Jl.Yos Sudarso Km.05 No.07 Rt.03, Watervang, Kec. Lubuk Linggau Tim. I, Kota Lubuklinggau";"SUMATERA SELATAN";"31626";"Indonesia";" 082275664134";"";"";"-3.2747216";"102.9018842";"https://maps.google.com/?cid=0x0:0x15fc185d5f556098";""
"supermarket";"Toko bahan makanan";"Kantor SM Group Linggau";"Wira Karya, Kec. Lubuk Linggau Tim. II, Kota Lubuklinggau, Sumatera Selatan 31613";"Kec. Lubuk Linggau Tim. II, Kota Lubuklinggau";"SUMATERA SELATAN";"31613";"Indonesia";" 07333281988";"";"";"-3.292675";"102.872047";"https://maps.google.com/?cid=0x0:0xa40fce897480caff";""
"supermarket";"Pusat Perbelanjaan";"Lippo Plaza Lubuklinggau";"Jl. Yos Sudarso No.31, Taba Jemekeh, Kec. Lubuk Linggau Tim. II, Kota Lubuklinggau, Sumatera Selatan 31613";"Taba Jemekeh, Kec. Lubuk Linggau Tim. II, Kota Lubuklinggau";"SUMATERA SELATAN";"31613";"Indonesia";"";"";"";"-3.2879773";"102.8777476";"https://maps.google.com/?cid=0x0:0x44910cb5dec7223c";""
"supermarket";"Toko Ikan";"Firzah Aquarium";"Jl. Yos Sudarso No.38, Dempo, Kec. Lubuk Linggau Tim. II, Kota Lubuklinggau, Sumatera Selatan 31613";"Dempo, Kec. Lubuk Linggau Tim. II, Kota Lubuklinggau";"SUMATERA SELATAN";"31613";"Indonesia";" 082178895776";"";"";"-3.2917905";"102.8702398";"https://maps.google.com/?cid=0x0:0x83784bb26ce007b9";""
"supermarket";"Toko";"Priyo Mart";"Simpang Periuk, Kec. Lubuk Linggau Sel. II, Kota Lubuklinggau, Sumatera Selatan";"Kota Lubuklinggau, Sumatera Selatan";"SUMATERA SELATAN";"";"Indonesia";"";"";"";"-3.2677762";"102.9390721";"https://maps.google.com/?cid=0x0:0xa45d83c84f8efa3";""
"supermarket";"Toko Buah dan Sayur";"PUSAT BUAH ABAK LINGGAU";"JL. YOS SUDARSO NO 89 RT/RW 04, LUBUK LINGGAU, Sumatera Selatan 31627";"LUBUK LINGGAU";"SUMATERA SELATAN";"31627";"Indonesia";" 085141115559";"";"";"-3.2756664";"102.9007834";"https://maps.google.com/?cid=0x0:0xaf728e495ab7e94c";""
"supermarket";"Toko bahan makanan";"SM MART";"Jl. Bukit Sulap, Wira Karya, Kec. Lubuk Linggau Tim. I, Kota Lubuklinggau, Sumatera Selatan 31623";"Wira Karya, Kec. Lubuk Linggau Tim. I, Kota Lubuklinggau";"SUMATERA SELATAN";"31623";"Indonesia";" 0733323888";"";"";"-3.293277";"102.8723118";"https://maps.google.com/?cid=0x0:0xa4282e4c1846a738";""
"supermarket";"Toko Perlengkapan Rumah";"Mitra Bangunan Supermarket Lubuk Linggau";"Watervang, Kec. Lubuk Linggau Tim. I, Kota Lubuklinggau, Sumatera Selatan 31625";"Kec. Lubuk Linggau Tim. I, Kota Lubuklinggau";"SUMATERA SELATAN";"31625";"Indonesia";"";"";"";"-3.2756118";"102.9003116";"https://maps.google.com/?cid=0x0:0x9741dde2cf1035e";""
"supermarket";"Toko bahan makanan";"SM SWALAYAN Garuda";"PV37+73W, Jl. Garuda, Ps. Permiri, Kec. Lubuk Linggau Bar. II, Kota Lubuklinggau, Sumatera Selatan 31613";"Jl. Garuda, Ps. Permiri, Kec. Lubuk Linggau Bar. II, Kota Lubuklinggau";"SUMATERA SELATAN";"31613";"Indonesia";" 07333281988";"";"";"-3.2967606";"102.8626956";"https://maps.google.com/?cid=0x0:0x9a077fdd38760100";""
"supermarket";"Minimarket";"TOKO KARYATAMA";"PV86+3Q6, Jl. Jendral Sudirman, Ps. Satelit, Kec. Lubuk Linggau Utara II, Kota Lubuklinggau, Sumatera Selatan 31617";"Jl. Jendral Sudirman, Ps. Satelit, Kec. Lubuk Linggau Utara II, Kota Lubuklinggau";"SUMATERA SELATAN";"31617";"Indonesia";" 081998333336";"";"";"-3.2848303";"102.8618909";"https://maps.google.com/?cid=0x0:0x9c1b9598110ef884";""
"supermarket";"Minimarket";"Alfamart";"Jl. Garuda No.24, RT.03, Bandung Kanan, Kec. Lubuk Linggau Bar. II, Kota Lubuklinggau, Sumatera Selatan 31611";"RT.03, Bandung Kanan, Kec. Lubuk Linggau Bar. II, Kota Lubuklinggau";"SUMATERA SELATAN";"31611";"Indonesia";" 1500959";"";"";"-3.2984143";"102.858932";"https://maps.google.com/?cid=0x0:0xef28c42041fb3520";""
"supermarket";"Minimarket";"Alfamart taba koji";"Jl. Yos Sudarso No.Rt. 02, Taba Koji, Kec. Lubuk Linggau Tim. I, Kota Lubuklinggau, Sumatera Selatan 31628";"Taba Koji, Kec. Lubuk Linggau Tim. I, Kota Lubuklinggau";"SUMATERA SELATAN";"31628";"Indonesia";" 1500959";"";"";"-3.2893841";"102.8741577";"https://maps.google.com/?cid=0x0:0x58a419b7053a5469";""
"supermarket";"Toko Kosmetik";"Minimarket Saudah kosmetik";"Jl. Yos Sudarso No.13, Taba Jemekeh, Kec. Lubuk Linggau Tim. I, Kota Lubuklinggau, Sumatera Selatan 31624";"Taba Jemekeh, Kec. Lubuk Linggau Tim. I, Kota Lubuklinggau";"SUMATERA SELATAN";"31624";"Indonesia";"";"";"";"-3.2871946";"102.880497";"https://maps.google.com/?cid=0x0:0x904e67e12e15156d";""
"supermarket";"supermarket";"ShiamThaiTeaLinggau";"PWF2+P38 Samping MITRA BANGUNAN SUPERMARKET, Jl. Yos Sudarso No.90, Watervang, Kec. Lubuk Linggau Tim. I, Kota Lubuklinggau, Sumatera Selatan 31625";"Jl. Yos Sudarso No.90, Watervang, Kec. Lubuk Linggau Tim. I, Kota Lubuklinggau";"SUMATERA SELATAN";"31625";"Indonesia";" 082211717727";"";"";"-3.2757052";"102.9002257";"https://maps.google.com/?cid=0x0:0xc53d4fb4044af57e";""
"supermarket";"supermarket";"Sumatera Selatan 31619";"Kec. Lubuk Linggau Utara I, Kota Lubuklinggau, Sumatera Selatan";"Kota Lubuklinggau, Sumatera Selatan";"SUMATERA SELATAN";"";"Indonesia";"";"";"";"-3.1810114";"102.9147742";"https://maps.google.com/?cid=0x0:0x4235b8e6f1a9fdb8";""
"supermarket";"Toko Swalayan";"SM SWALAYAN YOS SUDARSO";"Jl. Yos Sudarso No.309, Dempo, Kec. Lubuk Linggau Tim. II, Kota Lubuklinggau, Sumatera Selatan 31613";"Dempo, Kec. Lubuk Linggau Tim. II, Kota Lubuklinggau";"SUMATERA SELATAN";"31613";"Indonesia";" 07333281988";"";"";"-3.2955737";"102.8670296";"https://maps.google.com/?cid=0x0:0x82de5a856938c30";""
"supermarket";"Minimarket";"Minimarket MARS";"Jl. Cendana No. 54-55 Perumnas Tanjung Aman, Tj. Aman, Lubuklinggau, Sumatera Selatan, 31614";"Tj. Aman, Lubuklinggau";"SUMATERA SELATAN";"31614";"Indonesia";" 0733324778";"";"";"-3.310534";"102.848219";"https://maps.google.com/?cid=0x0:0xa43afbc9b74fffae";""
"supermarket";"Toko";"Minimarket MARS";"Jl. Depati Said RT. 07, Ulak Lebar, Lubuklinggau, Ulak Lebar, Kec. Lubuk Linggau Bar. II, Sumatera Selatan, 31614";"Ulak Lebar, Lubuklinggau, Ulak Lebar, Kec. Lubuk Linggau Bar. II";"SUMATERA SELATAN";"31614";"Indonesia";" 0733320718";"";"";"-3.3011498";"102.8445956";"https://maps.google.com/?cid=0x0:0x32801262c16af131";""
"supermarket";"Toko bahan makanan";"SM SWALAYAN BATU URIP";"PV9Q+8P3, Jl. Yos Sudarso, Batu Urip Taba, Kec. Lubuk Linggau Tim. I, Kota Lubuklinggau, Sumatera Selatan 31628";"Jl. Yos Sudarso, Batu Urip Taba, Kec. Lubuk Linggau Tim. I, Kota Lubuklinggau";"SUMATERA SELATAN";"31628";"Indonesia";" 07333281988";"";"";"-3.2817286";"102.8892892";"https://maps.google.com/?cid=0x0:0xa40344bb04717097";""
"supermarket";"Minimarket";"MD Mart";"PVPX+HX3, Jl. Kenanga II, Batu Urip, Kec. Lubuk Linggau Utara II, Kota Lubuklinggau, Sumatera Selatan 31627";"Jl. Kenanga II, Batu Urip, Kec. Lubuk Linggau Utara II, Kota Lubuklinggau";"SUMATERA SELATAN";"31627";"Indonesia";" 081373465911";"";"";"-3.2636438";"102.9001285";"https://maps.google.com/?cid=0x0:0xd5ae52b05de3df06";""
"supermarket";"Toko bahan makanan";"Kantor SM Group Linggau";"Wira Karya, Kec. Lubuk Linggau Tim. II, Kota Lubuklinggau, Sumatera Selatan 31613";"Kec. Lubuk Linggau Tim. II, Kota Lubuklinggau";"SUMATERA SELATAN";"31613";"Indonesia";" 07333281988";"";"";"-3.292675";"102.872047";"https://maps.google.com/?cid=0x0:0xa40fce897480caff";""
"supermarket";"Toko";"Toko Wiwin/ Rumah Lubuklinggau";"Lorong Pak Joo, Jl.Yos Sudarso Km.05 No.07 Rt.03, Watervang, Kec. Lubuk Linggau Tim. I, Kota Lubuklinggau, Sumatera Selatan 31626";"Jl.Yos Sudarso Km.05 No.07 Rt.03, Watervang, Kec. Lubuk Linggau Tim. I, Kota Lubuklinggau";"SUMATERA SELATAN";"31626";"Indonesia";" 082275664134";"";"";"-3.2747216";"102.9018842";"https://maps.google.com/?cid=0x0:0x15fc185d5f556098";""
"supermarket";"Toko bahan makanan";"WARUNG BERJALAN PASHTERDIM 0406";"Jl. Kelapa No.Rt.05, Batu Urip Taba, Kec. Lubuk Linggau Tim. I, Kota Lubuklinggau, Sumatera Selatan 31625";"Batu Urip Taba, Kec. Lubuk Linggau Tim. I, Kota Lubuklinggau";"SUMATERA SELATAN";"31625";"Indonesia";" 081283330406";"";"";"-3.2807934";"102.8951033";"https://maps.google.com/?cid=0x0:0x4ecb4c43841b20bd";""
"supermarket";"supermarket";"ShiamThaiTeaLinggau";"PWF2+P38 Samping MITRA BANGUNAN SUPERMARKET, Jl. Yos Sudarso No.90, Watervang, Kec. Lubuk Linggau Tim. I, Kota Lubuklinggau, Sumatera Selatan 31625";"Jl. Yos Sudarso No.90, Watervang, Kec. Lubuk Linggau Tim. I, Kota Lubuklinggau";"SUMATERA SELATAN";"31625";"Indonesia";" 082211717727";"";"";"-3.2757052";"102.9002257";"https://maps.google.com/?cid=0x0:0xc53d4fb4044af57e";""
"supermarket";"Toko Perlengkapan Rumah";"Mitra Bangunan Supermarket Lubuk Linggau";"Watervang, Kec. Lubuk Linggau Tim. I, Kota Lubuklinggau, Sumatera Selatan 31625";"Kec. Lubuk Linggau Tim. I, Kota Lubuklinggau";"SUMATERA SELATAN";"31625";"Indonesia";"";"";"";"-3.2756118";"102.9003116";"https://maps.google.com/?cid=0x0:0x9741dde2cf1035e";""
"supermarket";"Toko";"Priyo Mart";"Simpang Periuk, Kec. Lubuk Linggau Sel. II, Kota Lubuklinggau, Sumatera Selatan";"Kota Lubuklinggau, Sumatera Selatan";"SUMATERA SELATAN";"";"Indonesia";"";"";"";"-3.2677762";"102.9390721";"https://maps.google.com/?cid=0x0:0xa45d83c84f8efa3";""
"supermarket";"Toko bahan makanan";"SM SWALAYAN Garuda";"PV37+73W, Jl. Garuda, Ps. Permiri, Kec. Lubuk Linggau Bar. II, Kota Lubuklinggau, Sumatera Selatan 31613";"Jl. Garuda, Ps. Permiri, Kec. Lubuk Linggau Bar. II, Kota Lubuklinggau";"SUMATERA SELATAN";"31613";"Indonesia";" 07333281988";"";"";"-3.2967606";"102.8626956";"https://maps.google.com/?cid=0x0:0x9a077fdd38760100";""
"supermarket";"Pusat Perbelanjaan";"Hypermart - Lippo Plaza Lubuklinggau";"Lippo Plaza, Jl. Yos Sudarso No.765, Taba Jemekeh, Kec. Lubuk Linggau Tim. I, Kota Lubuklinggau, Sumatera Selatan 31628";"Jl. Yos Sudarso No.765, Taba Jemekeh, Kec. Lubuk Linggau Tim. I, Kota Lubuklinggau";"SUMATERA SELATAN";"31628";"Indonesia";" 07333281366";"";"";"-3.2875752";"102.8776077";"https://maps.google.com/?cid=0x0:0xca1a0c8b0d31cb09";""
"supermarket";"Toko bahan makanan";"SM MART";"Jl. Bukit Sulap, Wira Karya, Kec. Lubuk Linggau Tim. I, Kota Lubuklinggau, Sumatera Selatan 31623";"Wira Karya, Kec. Lubuk Linggau Tim. I, Kota Lubuklinggau";"SUMATERA SELATAN";"31623";"Indonesia";" 0733323888";"";"";"-3.293277";"102.8723118";"https://maps.google.com/?cid=0x0:0xa4282e4c1846a738";""
"supermarket";"Minimarket";"TOKO KARYATAMA";"PV86+3Q6, Jl. Jendral Sudirman, Ps. Satelit, Kec. Lubuk Linggau Utara II, Kota Lubuklinggau, Sumatera Selatan 31617";"Jl. Jendral Sudirman, Ps. Satelit, Kec. Lubuk Linggau Utara II, Kota Lubuklinggau";"SUMATERA SELATAN";"31617";"Indonesia";" 081998333336";"";"";"-3.2848303";"102.8618909";"https://maps.google.com/?cid=0x0:0x9c1b9598110ef884";""
"supermarket";"Minimarket";"Alfamart";"Jl. Garuda No.24, RT.03, Bandung Kanan, Kec. Lubuk Linggau Bar. II, Kota Lubuklinggau, Sumatera Selatan 31611";"RT.03, Bandung Kanan, Kec. Lubuk Linggau Bar. II, Kota Lubuklinggau";"SUMATERA SELATAN";"31611";"Indonesia";" 1500959";"";"";"-3.2984143";"102.858932";"https://maps.google.com/?cid=0x0:0xef28c42041fb3520";""
"supermarket";"supermarket";"Kec. Lubuk Linggau Utara I";"Kota Lubuklinggau, Sumatera Selatan";"Kota Lubuklinggau, Sumatera Selatan";"SUMATERA SELATAN";"";"Indonesia";"";"";"";"-3.2060155";"102.8385682";"https://maps.google.com/?cid=0x0:0xd9a448695deb6686";""
"supermarket";"Minimarket";"MD Mart";"PVPX+HX3, Jl. Kenanga II, Batu Urip, Kec. Lubuk Linggau Utara II, Kota Lubuklinggau, Sumatera Selatan 31627";"Jl. Kenanga II, Batu Urip, Kec. Lubuk Linggau Utara II, Kota Lubuklinggau";"SUMATERA SELATAN";"31627";"Indonesia";" 081373465911";"";"";"-3.2636438";"102.9001285";"https://maps.google.com/?cid=0x0:0xd5ae52b05de3df06";""
"supermarket";"Toko bahan makanan";"SM MART";"Jl. Bukit Sulap, Wira Karya, Kec. Lubuk Linggau Tim. I, Kota Lubuklinggau, Sumatera Selatan 31623";"Wira Karya, Kec. Lubuk Linggau Tim. I, Kota Lubuklinggau";"SUMATERA SELATAN";"31623";"Indonesia";" 0733323888";"";"";"-3.293277";"102.8723118";"https://maps.google.com/?cid=0x0:0xa4282e4c1846a738";""
"supermarket";"Minimarket";"MD Mart";"PVPX+HX3, Jl. Kenanga II, Batu Urip, Kec. Lubuk Linggau Utara II, Kota Lubuklinggau, Sumatera Selatan 31627";"Jl. Kenanga II, Batu Urip, Kec. Lubuk Linggau Utara II, Kota Lubuklinggau";"SUMATERA SELATAN";"31627";"Indonesia";" 081373465911";"";"";"-3.2636438";"102.9001285";"https://maps.google.com/?cid=0x0:0xd5ae52b05de3df06";""
"supermarket";"Toko bahan makanan";"SM MART";"Jl. Bukit Sulap, Wira Karya, Kec. Lubuk Linggau Tim. I, Kota Lubuklinggau, Sumatera Selatan 31623";"Wira Karya, Kec. Lubuk Linggau Tim. I, Kota Lubuklinggau";"SUMATERA SELATAN";"31623";"Indonesia";" 0733323888";"";"";"-3.293277";"102.8723118";"https://maps.google.com/?cid=0x0:0xa4282e4c1846a738";""
"supermarket";"supermarket";"Sumatera Selatan 31619";"Kec. Lubuk Linggau Utara I, Kota Lubuklinggau, Sumatera Selatan";"Kota Lubuklinggau, Sumatera Selatan";"SUMATERA SELATAN";"";"Indonesia";"";"";"";"-3.1810114";"102.9147742";"https://maps.google.com/?cid=0x0:0x4235b8e6f1a9fdb8";""
"supermarket";"Toko";"Minimarket MARS";"Jl. Depati Said RT. 07, Ulak Lebar, Lubuklinggau, Ulak Lebar, Kec. Lubuk Linggau Bar. II, Sumatera Selatan, 31614";"Ulak Lebar, Lubuklinggau, Ulak Lebar, Kec. Lubuk Linggau Bar. II";"SUMATERA SELATAN";"31614";"Indonesia";" 0733320718";"";"";"-3.3011498";"102.8445956";"https://maps.google.com/?cid=0x0:0x32801262c16af131";""
"supermarket";"Toko Swalayan";"SM SWALAYAN YOS SUDARSO";"Jl. Yos Sudarso No.309, Dempo, Kec. Lubuk Linggau Tim. II, Kota Lubuklinggau, Sumatera Selatan 31613";"Dempo, Kec. Lubuk Linggau Tim. II, Kota Lubuklinggau";"SUMATERA SELATAN";"31613";"Indonesia";" 07333281988";"";"";"-3.2955737";"102.8670296";"https://maps.google.com/?cid=0x0:0x82de5a856938c30";""
"supermarket";"Hipermarket";"JM Linggau";"PV6H+QFV, Jl. Yos Sudarso, Taba Koji, Kec. Lubuk Linggau Tim. I, Kota Lubuklinggau, Sumatera Selatan 31624";"Jl. Yos Sudarso, Taba Koji, Kec. Lubuk Linggau Tim. I, Kota Lubuklinggau";"SUMATERA SELATAN";"31624";"Indonesia";" 07337329377";"";"";"-3.2880081";"102.8786765";"https://maps.google.com/?cid=0x0:0x60458b8d77f3a012";""
"supermarket";"supermarket";"Lubuklinggau";"Kota Lubuklinggau, Sumatera Selatan";"Kota Lubuklinggau, Sumatera Selatan";"SUMATERA SELATAN";"";"Indonesia";"";"";"";"-3.2995858";"102.857236";"https://maps.google.com/?cid=0x0:0x3039d80b220cc30";""
"supermarket";"Minimarket";"MD Mart";"PVPX+HX3, Jl. Kenanga II, Batu Urip, Kec. Lubuk Linggau Utara II, Kota Lubuklinggau, Sumatera Selatan 31627";"Jl. Kenanga II, Batu Urip, Kec. Lubuk Linggau Utara II, Kota Lubuklinggau";"SUMATERA SELATAN";"31627";"Indonesia";" 081373465911";"";"";"-3.2636438";"102.9001285";"https://maps.google.com/?cid=0x0:0xd5ae52b05de3df06";""
"supermarket";"Hipermarket";"JM Linggau";"PV6H+QFV, Jl. Yos Sudarso, Taba Koji, Kec. Lubuk Linggau Tim. I, Kota Lubuklinggau, Sumatera Selatan 31624";"Jl. Yos Sudarso, Taba Koji, Kec. Lubuk Linggau Tim. I, Kota Lubuklinggau";"SUMATERA SELATAN";"31624";"Indonesia";" 07337329377";"";"";"-3.2880081";"102.8786765";"https://maps.google.com/?cid=0x0:0x60458b8d77f3a012";""
"supermarket";"Kantor Perusahaan";"2 Muara Frozen Food Linggau";"PV46+JFR, Lubaklinggau Ulu, Kec. Lubuk Linggau Bar. II, Kota Lubuklinggau, Sumatera Selatan 31613";"Lubaklinggau Ulu, Kec. Lubuk Linggau Bar. II, Kota Lubuklinggau";"SUMATERA SELATAN";"31613";"Indonesia";" 081376165833";"";"";"-3.2933971";"102.8611475";"https://maps.google.com/?cid=0x0:0x35f197b78b4abcf0";""
"supermarket";"Toko";"Minimarket MARS";"Jl. Depati Said RT. 07, Ulak Lebar, Lubuklinggau, Ulak Lebar, Kec. Lubuk Linggau Bar. II, Sumatera Selatan, 31614";"Ulak Lebar, Lubuklinggau, Ulak Lebar, Kec. Lubuk Linggau Bar. II";"SUMATERA SELATAN";"31614";"Indonesia";" 0733320718";"";"";"-3.3011498";"102.8445956";"https://maps.google.com/?cid=0x0:0x32801262c16af131";""
"supermarket";"Toko bahan makanan";"SM MART";"Jl. Bukit Sulap, Wira Karya, Kec. Lubuk Linggau Tim. I, Kota Lubuklinggau, Sumatera Selatan 31623";"Wira Karya, Kec. Lubuk Linggau Tim. I, Kota Lubuklinggau";"SUMATERA SELATAN";"31623";"Indonesia";" 0733323888";"";"";"-3.293277";"102.8723118";"https://maps.google.com/?cid=0x0:0xa4282e4c1846a738";""
"supermarket";"supermarket";"Lubuklinggau";"Kota Lubuklinggau, Sumatera Selatan";"Kota Lubuklinggau, Sumatera Selatan";"SUMATERA SELATAN";"";"Indonesia";"";"";"";"-3.2995858";"102.857236";"https://maps.google.com/?cid=0x0:0x3039d80b220cc30";""
"supermarket";"Pusat Perbelanjaan";"Hypermart - Lippo Plaza Lubuklinggau";"Lippo Plaza, Jl. Yos Sudarso No.765, Taba Jemekeh, Kec. Lubuk Linggau Tim. I, Kota Lubuklinggau, Sumatera Selatan 31628";"Jl. Yos Sudarso No.765, Taba Jemekeh, Kec. Lubuk Linggau Tim. I, Kota Lubuklinggau";"SUMATERA SELATAN";"31628";"Indonesia";" 07333281366";"";"";"-3.2875752";"102.8776077";"https://maps.google.com/?cid=0x0:0xca1a0c8b0d31cb09";""
"supermarket";"Toko bahan makanan";"SM SWALAYAN BATU URIP";"PV9Q+8P3, Jl. Yos Sudarso, Batu Urip Taba, Kec. Lubuk Linggau Tim. I, Kota Lubuklinggau, Sumatera Selatan 31628";"Jl. Yos Sudarso, Batu Urip Taba, Kec. Lubuk Linggau Tim. I, Kota Lubuklinggau";"SUMATERA SELATAN";"31628";"Indonesia";" 07333281988";"";"";"-3.2817286";"102.8892892";"https://maps.google.com/?cid=0x0:0xa40344bb04717097";""
"supermarket";"Toko Swalayan";"SM SWALAYAN YOS SUDARSO";"Jl. Yos Sudarso No.309, Dempo, Kec. Lubuk Linggau Tim. II, Kota Lubuklinggau, Sumatera Selatan 31613";"Dempo, Kec. Lubuk Linggau Tim. II, Kota Lubuklinggau";"SUMATERA SELATAN";"31613";"Indonesia";" 07333281988";"";"";"-3.2955737";"102.8670296";"https://maps.google.com/?cid=0x0:0x82de5a856938c30";""
"supermarket";"Toko";"TOKO.AMEL JAYA SOSIS Pusat Grosir FROZEN FOOD";"Jalan jalan jenderal Sudirman RT 004 kel LLG ilir kec LLG barat 2, Ps. Permiri, Kec. Lubuk Linggau Bar. II, Kota Lubuklinggau, Sumatera Selatan 31611";"Ps. Permiri, Kec. Lubuk Linggau Bar. II, Kota Lubuklinggau";"SUMATERA SELATAN";"31611";"Indonesia";" 081383738169";"";"";"-3.2916913";"102.8634678";"https://maps.google.com/?cid=0x0:0xaec75ef618857c26";""
