Category;Real Category;Business Name;Address;City;State;Postal Code;Country;Phone;Email;Website;Latitude;Longitude;Map Link;Details Link
"komplek housing";"komplek housing";"Sumatera Selatan 31611";"Kota Lubuklinggau, Sumatera Selatan";"Kota Lubuklinggau, Sumatera Selatan";"SUMATERA SELATAN";"";"Indonesia";"";"";"";"-3.2702468";"102.8457316";"https://maps.google.com/?cid=0x0:0xcddd419871e601f5";""
"komplek housing";"Perhimpunan Pengembang Perumahan";"Top Bendera";"Simpang perumnas, Tj. Aman, Kec. Lubuk Linggau Bar. I, Kota Lubuklinggau, Sumatera Selatan 31614";"Tj. Aman, Kec. Lubuk Linggau Bar. I, Kota Lubuklinggau";"SUMATERA SELATAN";"31614";"Indonesia";"";"";"";"-3.3108752";"102.8451669";"https://maps.google.com/?cid=0x0:0x3f2e805bbeb6aa99";""
"komplek housing";"komplek housing";"Perumahan MBR Air Temam Madani Harapan Jaya Kota Lubuklinggau";"";"";"SUMATERA SELATAN";"";"Indonesia";" 085783627193";"";"";"-3.2996426";"102.8779769";"https://maps.google.com/?cid=0x0:0x382fdba5ba18f25e";""
"komplek housing";"Asosiasi/organisasi";"Perumahan Family Land 2";"Jl. Sejahtera, Batu Urip Taba, Kec. Lubuk Linggau Tim. I, Kota Lubuklinggau, Sumatera Selatan";"Kota Lubuklinggau, Sumatera Selatan";"SUMATERA SELATAN";"";"Indonesia";"";"";"";"-3.2831538";"102.8927102";"https://maps.google.com/?cid=0x0:0x66486d8984d659e8";""
"komplek housing";"Komplek perumahan";"Shakila Residance";"Jalan Goa Batu No.Rt 07, Taba Jemekeh, Kec. Lubuk Linggau Tim. I, Kota Lubuklinggau, Sumatera Selatan";"Kota Lubuklinggau, Sumatera Selatan";"SUMATERA SELATAN";"";"Indonesia";" 082267671984";"";"";"-3.3008366";"102.8847641";"https://maps.google.com/?cid=0x0:0x12ba6771b0616e2a";""
"komplek housing";"Komplek perumahan";"Perumahan";"Jl lingar barat simpang 4, dekat jembatan gantung No.rt 06, Ulak Lebar, Kec. Lubuk Linggau Bar. II, Sumatera Selatan";"Kota Lubuklinggau, Sumatera Selatan";"SUMATERA SELATAN";"";"Indonesia";"";"";"";"-3.2936102";"102.8442937";"https://maps.google.com/?cid=0x0:0x6c184db2ecd19e2b";""
"komplek housing";"Komplek perumahan";"Komplek";"Jl.Pengayoman No.37, Tapak Lebar, Kec. Lubuk Linggau Bar. II, Kota Lubuklinggau, Sumatera Selatan 31616";"Tapak Lebar, Kec. Lubuk Linggau Bar. II, Kota Lubuklinggau";"SUMATERA SELATAN";"31616";"Indonesia";"";"";"";"-3.2912577";"102.8546549";"https://maps.google.com/?cid=0x0:0x9594edf73eaac919";""
"komplek housing";"komplek housing";"Grand Zuri Lubuklinggau by ZHM";"Jl. Yos Sudarso No.1, Batu Urip Taba, Kec. Lubuk Linggau Tim. I, Kota Lubuklinggau, Sumatera Selatan 31624";"Batu Urip Taba, Kec. Lubuk Linggau Tim. I, Kota Lubuklinggau";"SUMATERA SELATAN";"31624";"Indonesia";" 07337070222";"";"";"-3.2819357";"102.8889477";"https://maps.google.com/?cid=0x0:0xb9d17d256db8fc0d";""
"komplek housing";"komplek housing";"Burza Hotel Lubuklinggau";"Jl. Yos Sudarso No.143, Watervang, Kec. Lubuk Linggau Tim. I, Kota Lubuklinggau, Sumatera Selatan 31628";"Watervang, Kec. Lubuk Linggau Tim. I, Kota Lubuklinggau";"SUMATERA SELATAN";"31628";"Indonesia";" 07333280088";"";"";"-3.2776032";"102.8970972";"https://maps.google.com/?cid=0x0:0x4fb4e95f23ada624";""
"komplek housing";"Tujuan Wisata";"Air Terjun Temam";"Jl. Air Temam, Rahmah, Kec. Lubuk Linggau Sel. I, Kota Lubuklinggau, Sumatera Selatan 31600";"Rahmah, Kec. Lubuk Linggau Sel. I, Kota Lubuklinggau";"SUMATERA SELATAN";"31600";"Indonesia";" 082175182223";"";"";"-3.2935625";"102.9300625";"https://maps.google.com/?cid=0x0:0x24b5109c6d325f46";""
"komplek housing";"komplek housing";"Hotel Dewinda";"Jl. Yos Sudarso Komplek Ruko Caroline Winasta Blok Blok C1, Watervang, Kec. Lubuk Linggau Tim. I, Kota Lubuklinggau, Sumatera Selatan 31628";"Watervang, Kec. Lubuk Linggau Tim. I, Kota Lubuklinggau";"SUMATERA SELATAN";"31628";"Indonesia";" 07333285353";"";"";"-3.2755129";"102.9013407";"https://maps.google.com/?cid=0x0:0x9d0e5843430afa04";""
"komplek housing";"komplek housing";"WE Hotel Lubuk Linggau";"Jl. Yos Sudarso No.70, RW.72, Taba Jemekeh, Kec. Lubuk Linggau Tim. I, Kota Lubuklinggau, Sumatera Selatan 31625";"RW.72, Taba Jemekeh, Kec. Lubuk Linggau Tim. I, Kota Lubuklinggau";"SUMATERA SELATAN";"31625";"Indonesia";" 07333286777";"";"";"-3.2874168";"102.8787931";"https://maps.google.com/?cid=0x0:0x8ae599c134802184";""
"komplek housing";"Perumahan";"Sejahtera Regency";"PW9H+WC, Marga Mulya, Kec. Lubuk Linggau Sel. II, Kota Lubuklinggau, Sumatera Selatan";"Kota Lubuklinggau, Sumatera Selatan";"SUMATERA SELATAN";"";"Indonesia";"";"";"";"-3.2800871";"102.9281918";"https://maps.google.com/?cid=0x0:0x46fe2f06085a2cf4";""
"komplek housing";"Perumahan";"PERUMAHAN BUKIT HIJAU SUKAJADI";"MVV4+25R, Bandung Ujung, Kec. Lubuk Linggau Bar. I, Kota Lubuklinggau, Sumatera Selatan 31614";"Bandung Ujung, Kec. Lubuk Linggau Bar. I, Kota Lubuklinggau";"SUMATERA SELATAN";"31614";"Indonesia";" 082180365007";"";"";"-3.3073997";"102.855381";"https://maps.google.com/?cid=0x0:0x69a3509b83e2e354";""
"komplek housing";"Rumah Kayu";"Perumahan Pondok Indah Palem Lubuklinggau";"MVP7+22G, Unnamed Road, Sukajadi, Kec. Lubuk Linggau Bar. I, Kota Lubuklinggau, Sumatera Selatan 31614";"Unnamed Road, Sukajadi, Kec. Lubuk Linggau Bar. I, Kota Lubuklinggau";"SUMATERA SELATAN";"31614";"Indonesia";"";"";"";"-3.3149377";"102.8625752";"https://maps.google.com/?cid=0x0:0x9bd44f435c2a9989";""
"komplek housing";"Komplek perumahan";"Perumahan family land";"PVJW+V6M, Batu Urip, Kec. Lubuk Linggau Utara II, Kota Lubuklinggau, Sumatera Selatan";"Kota Lubuklinggau, Sumatera Selatan";"SUMATERA SELATAN";"";"Indonesia";" 082180177180";"";"";"-3.2679572";"102.8956633";"https://maps.google.com/?cid=0x0:0xa2373429259a9654";""
"komplek housing";"Pembangunan Perumahan";"Perumahan Madani Permai";"MRGV+PX5, Lubuk Tj., Kec. Lubuk Linggau Bar. I, Kota Lubuklinggau, Sumatera Selatan 31615";"Lubuk Tj., Kec. Lubuk Linggau Bar. I, Kota Lubuklinggau";"SUMATERA SELATAN";"31615";"Indonesia";" 0895603122193";"";"";"-3.3232299";"102.8449839";"https://maps.google.com/?cid=0x0:0x9f274273cec36f4a";""
"komplek housing";"Toko grosir";"Indah";"PV89+WFQ, Unnamed Road, Kenanga, Kec. Lubuk Linggau Utara II, Kota Lubuklinggau, Sumatera Selatan 31613";"Unnamed Road, Kenanga, Kec. Lubuk Linggau Utara II, Kota Lubuklinggau";"SUMATERA SELATAN";"31613";"Indonesia";"";"";"";"-3.2826599";"102.8687481";"https://maps.google.com/?cid=0x0:0x9416d759a89aefc6";""
"komplek housing";"Penyedia Layanan Internet";"PT. TELKOM Lubuklinggau";"PV36+MP8, Jl. Garuda Gg. Merak, Ps. Permiri, Kec. Lubuk Linggau Bar. II, Kota Lubuklinggau, Sumatera Selatan 31613";"Jl. Garuda Gg. Merak, Ps. Permiri, Kec. Lubuk Linggau Bar. II, Kota Lubuklinggau";"SUMATERA SELATAN";"31613";"Indonesia";" 0733326115";"";"";"-3.2958479";"102.8618403";"https://maps.google.com/?cid=0x0:0xe5055abf540d821f";""
"komplek housing";"Pembangunan Perumahan";"Perumahan Shapire Estate";"PV2X+J4, Jl.Mochtar Amin, Taba Jemekeh, Kec.Linggau 1, Kota Lubuklinggau, Sumatera Selatan";"Kota Lubuklinggau, Sumatera Selatan";"SUMATERA SELATAN";"";"Indonesia";" 085268250578";"";"";"-3.2984375";"102.8978125";"https://maps.google.com/?cid=0x0:0x61bb299b9e80ff3b";""
"komplek housing";"Pembangunan Perumahan";"Black Taba sejahtera";"PV6Q+QXX, Taba Jemekeh, Kec. Lubuk Linggau Tim. I, Kota Lubuklinggau, Sumatera Selatan";"Kota Lubuklinggau, Sumatera Selatan";"SUMATERA SELATAN";"";"Indonesia";"";"";"";"-3.2880181";"102.8899744";"https://maps.google.com/?cid=0x0:0xd99bc4cd7272c8f8";""
"komplek housing";"Perumahan";"Griya Pesona Linggau";"MVRG+PF7, Mesat Seni, Kec. Lubuk Linggau Tim. II, Kota Lubuklinggau, Sumatera Selatan 31613";"Mesat Seni, Kec. Lubuk Linggau Tim. II, Kota Lubuklinggau";"SUMATERA SELATAN";"31613";"Indonesia";"";"";"";"-3.3082208";"102.876171";"https://maps.google.com/?cid=0x0:0x4e3080fdd19f7b87";""
"komplek housing";"komplek housing";"Kec. Lubuk Linggau Bar. I";"Kota Lubuklinggau, Sumatera Selatan";"Kota Lubuklinggau, Sumatera Selatan";"SUMATERA SELATAN";"";"Indonesia";"";"";"";"-3.307821";"102.8464942";"https://maps.google.com/?cid=0x0:0x1ef773457c9af524";""
"komplek housing";"Pembangunan Perumahan";"Villa Kenanga Indah";"PVCJ+37V, Batu Urip, Kec. Lubuk Linggau Utara II, Kota Lubuklinggau, Sumatera Selatan 31624";"Batu Urip, Kec. Lubuk Linggau Utara II, Kota Lubuklinggau";"SUMATERA SELATAN";"31624";"Indonesia";" 085267733429";"";"";"-3.2797557";"102.880658";"https://maps.google.com/?cid=0x0:0x9615ed42a3b60a73";""
"komplek housing";"Komplek perumahan";"Perumahan Beverrly hils";"PVQP+56H, Batu Urip, Kec. Lubuk Linggau Utara II, Kota Lubuklinggau, Sumatera Selatan";"Kota Lubuklinggau, Sumatera Selatan";"SUMATERA SELATAN";"";"Indonesia";"";"";"";"-3.2630219";"102.8863275";"https://maps.google.com/?cid=0x0:0x990a34a0f6b20dd7";""
"komplek housing";"komplek housing";"Sumatera Selatan 31613";"Kota Lubuklinggau, Sumatera Selatan";"Kota Lubuklinggau, Sumatera Selatan";"SUMATERA SELATAN";"";"Indonesia";"";"";"";"-3.3091164";"102.8802479";"https://maps.google.com/?cid=0x0:0xb00fbf7ff80b17ba";""
"komplek housing";"komplek housing";"Perumahan MBR Air Temam Madani Harapan Jaya Kota Lubuklinggau";"";"";"SUMATERA SELATAN";"";"Indonesia";" 085783627193";"";"";"-3.2996426";"102.8779769";"https://maps.google.com/?cid=0x0:0x382fdba5ba18f25e";""
"komplek housing";"Komplek perumahan";"Shakila Residance";"Jalan Goa Batu No.Rt 07, Taba Jemekeh, Kec. Lubuk Linggau Tim. I, Kota Lubuklinggau, Sumatera Selatan";"Kota Lubuklinggau, Sumatera Selatan";"SUMATERA SELATAN";"";"Indonesia";" 082267671984";"";"";"-3.3008366";"102.8847641";"https://maps.google.com/?cid=0x0:0x12ba6771b0616e2a";""
"komplek housing";"Komplek perumahan";"Komplek";"Jl.Pengayoman No.37, Tapak Lebar, Kec. Lubuk Linggau Bar. II, Kota Lubuklinggau, Sumatera Selatan 31616";"Tapak Lebar, Kec. Lubuk Linggau Bar. II, Kota Lubuklinggau";"SUMATERA SELATAN";"31616";"Indonesia";"";"";"";"-3.2912577";"102.8546549";"https://maps.google.com/?cid=0x0:0x9594edf73eaac919";""
"komplek housing";"Komplek perumahan";"Komplek Bintang Timur Satu (BTS)";"PV7M+HPG, Jl. Sejahtera, Taba Jemekeh, Kec. Lubuk Linggau Tim. I, Kota Lubuklinggau, Sumatera Selatan 31624";"Jl. Sejahtera, Taba Jemekeh, Kec. Lubuk Linggau Tim. I, Kota Lubuklinggau";"SUMATERA SELATAN";"31624";"Indonesia";"";"";"";"-3.2860645";"102.8843157";"https://maps.google.com/?cid=0x0:0xb765f07f1a6acb01";""
"komplek housing";"Pembangunan Perumahan";"Perumahan bintang timur satu";"Jl. Cereme, Cereme Taba, Kec. Lubuk Linggau Tim. II, Kota Lubuklinggau, Sumatera Selatan 31613";"Cereme Taba, Kec. Lubuk Linggau Tim. II, Kota Lubuklinggau";"SUMATERA SELATAN";"31613";"Indonesia";"";"";"";"-3.2909313";"102.8766221";"https://maps.google.com/?cid=0x0:0x805f90e4d331d9e0";""
"komplek housing";"Pembangunan Perumahan";"Perumahan buana lestari";"satu(l, Jln lapter, perumahan buana lestari, jln H.kerim No.RT 05, Kec. Lubuk Linggau Tim. I, Sumatera Selatan";"Kota Lubuklinggau, Sumatera Selatan";"SUMATERA SELATAN";"";"Indonesia";"";"";"";"-3.286774";"102.908839";"https://maps.google.com/?cid=0x0:0x9c45cfcc77f1cbbf";""
"komplek housing";"komplek housing";"Kec. Lubuk Linggau Bar. I";"Kota Lubuklinggau, Sumatera Selatan";"Kota Lubuklinggau, Sumatera Selatan";"SUMATERA SELATAN";"";"Indonesia";"";"";"";"-3.307821";"102.8464942";"https://maps.google.com/?cid=0x0:0x1ef773457c9af524";""
"komplek housing";"komplek housing";"Sumatera Selatan 31614";"Kota Lubuklinggau, Sumatera Selatan";"Kota Lubuklinggau, Sumatera Selatan";"SUMATERA SELATAN";"";"Indonesia";"";"";"";"-3.2261197";"102.8399799";"https://maps.google.com/?cid=0x0:0x66d917092d5bfc72";""
"komplek housing";"Perhimpunan Pengembang Perumahan";"Top Bendera";"Simpang perumnas, Tj. Aman, Kec. Lubuk Linggau Bar. I, Kota Lubuklinggau, Sumatera Selatan 31614";"Tj. Aman, Kec. Lubuk Linggau Bar. I, Kota Lubuklinggau";"SUMATERA SELATAN";"31614";"Indonesia";"";"";"";"-3.3108752";"102.8451669";"https://maps.google.com/?cid=0x0:0x3f2e805bbeb6aa99";""
"komplek housing";"Perumahan";"Perumahan Griya Tanjung Sejahtera (GTS)";"Lubuk Tj., Kec. Lubuk Linggau Bar. I, Kota Lubuklinggau, Sumatera Selatan 31614";"Kec. Lubuk Linggau Bar. I, Kota Lubuklinggau";"SUMATERA SELATAN";"31614";"Indonesia";"";"";"";"-3.3163501";"102.8483572";"https://maps.google.com/?cid=0x0:0x5c4b4a09a9bd0607";""
"komplek housing";"Komplek perumahan";"Komplek";"Jl.Pengayoman No.37, Tapak Lebar, Kec. Lubuk Linggau Bar. II, Kota Lubuklinggau, Sumatera Selatan 31616";"Tapak Lebar, Kec. Lubuk Linggau Bar. II, Kota Lubuklinggau";"SUMATERA SELATAN";"31616";"Indonesia";"";"";"";"-3.2912577";"102.8546549";"https://maps.google.com/?cid=0x0:0x9594edf73eaac919";""
"komplek housing";"komplek housing";"Kec. Lubuk Linggau Bar. I";"Kota Lubuklinggau, Sumatera Selatan";"Kota Lubuklinggau, Sumatera Selatan";"SUMATERA SELATAN";"";"Indonesia";"";"";"";"-3.307821";"102.8464942";"https://maps.google.com/?cid=0x0:0x1ef773457c9af524";""
"komplek housing";"Pembangunan Perumahan";"Perumahan Madani Permai";"MRGV+PX5, Lubuk Tj., Kec. Lubuk Linggau Bar. I, Kota Lubuklinggau, Sumatera Selatan 31615";"Lubuk Tj., Kec. Lubuk Linggau Bar. I, Kota Lubuklinggau";"SUMATERA SELATAN";"31615";"Indonesia";" 0895603122193";"";"";"-3.3232299";"102.8449839";"https://maps.google.com/?cid=0x0:0x9f274273cec36f4a";""
"komplek housing";"Pembangunan Perumahan";"Perumahan 87 Residence llg";"Jl.moch hasan No.kel, Lubuk Tj., Kec. Lubuk Linggau Bar. I, Kota Lubuklinggau, Sumatera Selatan 31625";"Lubuk Tj., Kec. Lubuk Linggau Bar. I, Kota Lubuklinggau";"SUMATERA SELATAN";"31625";"Indonesia";" 082168007887";"";"";"-3.2731042";"102.9229005";"https://maps.google.com/?cid=0x0:0x7f9ccf6b0f8f0eed";""
"komplek housing";"Pemasok batu bara";"PT.Pangkuan Ayah dan Ibu";"MVP5+FWM, Unnamed Road, Sukajadi, Kec. Lubuk Linggau Bar. I, Kota Lubuklinggau, Sumatera Selatan 31614";"Unnamed Road, Sukajadi, Kec. Lubuk Linggau Bar. I, Kota Lubuklinggau";"SUMATERA SELATAN";"31614";"Indonesia";" 081278502751";"";"";"-3.3137899";"102.8598096";"https://maps.google.com/?cid=0x0:0xa2fafeb58c748ad5";""
"komplek housing";"komplek housing";"Sumatera Selatan 31615";"Kec. Lubuk Linggau Bar. I, Kota Lubuklinggau, Sumatera Selatan";"Kota Lubuklinggau, Sumatera Selatan";"SUMATERA SELATAN";"";"Indonesia";"";"";"";"-3.2903549";"102.8112253";"https://maps.google.com/?cid=0x0:0x7ab255c49e507bc0";""
"komplek housing";"Perhimpunan Pengembang Perumahan";"Top Bendera";"Simpang perumnas, Tj. Aman, Kec. Lubuk Linggau Bar. I, Kota Lubuklinggau, Sumatera Selatan 31614";"Tj. Aman, Kec. Lubuk Linggau Bar. I, Kota Lubuklinggau";"SUMATERA SELATAN";"31614";"Indonesia";"";"";"";"-3.3108752";"102.8451669";"https://maps.google.com/?cid=0x0:0x3f2e805bbeb6aa99";""
"komplek housing";"Perumahan";"Perumahan Griya Tanjung Sejahtera (GTS)";"Lubuk Tj., Kec. Lubuk Linggau Bar. I, Kota Lubuklinggau, Sumatera Selatan 31614";"Kec. Lubuk Linggau Bar. I, Kota Lubuklinggau";"SUMATERA SELATAN";"31614";"Indonesia";"";"";"";"-3.3163501";"102.8483572";"https://maps.google.com/?cid=0x0:0x5c4b4a09a9bd0607";""
"komplek housing";"Perumahan";"PERUMAHAN BUKIT HIJAU SUKAJADI";"MVV4+25R, Bandung Ujung, Kec. Lubuk Linggau Bar. I, Kota Lubuklinggau, Sumatera Selatan 31614";"Bandung Ujung, Kec. Lubuk Linggau Bar. I, Kota Lubuklinggau";"SUMATERA SELATAN";"31614";"Indonesia";" 082180365007";"";"";"-3.3073997";"102.855381";"https://maps.google.com/?cid=0x0:0x69a3509b83e2e354";""
"komplek housing";"Pembangunan Perumahan";"Perumahan Madani Permai";"MRGV+PX5, Lubuk Tj., Kec. Lubuk Linggau Bar. I, Kota Lubuklinggau, Sumatera Selatan 31615";"Lubuk Tj., Kec. Lubuk Linggau Bar. I, Kota Lubuklinggau";"SUMATERA SELATAN";"31615";"Indonesia";" 0895603122193";"";"";"-3.3232299";"102.8449839";"https://maps.google.com/?cid=0x0:0x9f274273cec36f4a";""
"komplek housing";"Komplek perumahan";"MODERN HILL RESIDENCE";"MVXX+9JM Tim, I, Taba Jemekeh, Kec. Lubuk Linggau Tim. I, Kota Lubuklinggau, Sumatera Selatan 31625";"I, Taba Jemekeh, Kec. Lubuk Linggau Tim. I, Kota Lubuklinggau";"SUMATERA SELATAN";"31625";"Indonesia";" 085381871070";"";"";"-3.3019756";"102.8988937";"https://maps.google.com/?cid=0x0:0x75b2cfaef0b588bb";""
"komplek housing";"Komplek perumahan";"Komplek";"Jl.Pengayoman No.37, Tapak Lebar, Kec. Lubuk Linggau Bar. II, Kota Lubuklinggau, Sumatera Selatan 31616";"Tapak Lebar, Kec. Lubuk Linggau Bar. II, Kota Lubuklinggau";"SUMATERA SELATAN";"31616";"Indonesia";"";"";"";"-3.2912577";"102.8546549";"https://maps.google.com/?cid=0x0:0x9594edf73eaac919";""
"komplek housing";"Pemasok batu bara";"PT.Pangkuan Ayah dan Ibu";"MVP5+FWM, Unnamed Road, Sukajadi, Kec. Lubuk Linggau Bar. I, Kota Lubuklinggau, Sumatera Selatan 31614";"Unnamed Road, Sukajadi, Kec. Lubuk Linggau Bar. I, Kota Lubuklinggau";"SUMATERA SELATAN";"31614";"Indonesia";" 081278502751";"";"";"-3.3137899";"102.8598096";"https://maps.google.com/?cid=0x0:0xa2fafeb58c748ad5";""
"komplek housing";"Sekolah menengah";"SDN 14 Lubuklinggau";"MVW6+X9Q, Sukajadi, Kec. Lubuk Linggau Bar. I, Kota Lubuklinggau, Sumatera Selatan 31614";"Sukajadi, Kec. Lubuk Linggau Bar. I, Kota Lubuklinggau";"SUMATERA SELATAN";"31614";"Indonesia";"";"";"";"-3.30253";"102.8609836";"https://maps.google.com/?cid=0x0:0xdb9fed3704edd728";""
"komplek housing";"Komplek perumahan";"Rumah linggau";"PWHM+9XM, Tanah Periuk, Kec. Lubuk Linggau Sel. II, Kota Lubuklinggau, Sumatera Selatan 31625";"Tanah Periuk, Kec. Lubuk Linggau Sel. II, Kota Lubuklinggau";"SUMATERA SELATAN";"31625";"Indonesia";"";"";"";"-3.2715404";"102.9349191";"https://maps.google.com/?cid=0x0:0x71c72531bc4409c6";""
"komplek housing";"komplek housing";"Kec. Lubuk Linggau Bar. I";"Kota Lubuklinggau, Sumatera Selatan";"Kota Lubuklinggau, Sumatera Selatan";"SUMATERA SELATAN";"";"Indonesia";"";"";"";"-3.307821";"102.8464942";"https://maps.google.com/?cid=0x0:0x1ef773457c9af524";""
"komplek housing";"komplek housing";"Sumatera Selatan 31611";"Kota Lubuklinggau, Sumatera Selatan";"Kota Lubuklinggau, Sumatera Selatan";"SUMATERA SELATAN";"";"Indonesia";"";"";"";"-3.2702468";"102.8457316";"https://maps.google.com/?cid=0x0:0xcddd419871e601f5";""
"komplek housing";"Asosiasi/organisasi";"Perumahan Family Land 2";"Jl. Sejahtera, Batu Urip Taba, Kec. Lubuk Linggau Tim. I, Kota Lubuklinggau, Sumatera Selatan";"Kota Lubuklinggau, Sumatera Selatan";"SUMATERA SELATAN";"";"Indonesia";"";"";"";"-3.2831538";"102.8927102";"https://maps.google.com/?cid=0x0:0x66486d8984d659e8";""
"komplek housing";"komplek housing";"Perumahan MBR Air Temam Madani Harapan Jaya Kota Lubuklinggau";"";"";"SUMATERA SELATAN";"";"Indonesia";" 085783627193";"";"";"-3.2996426";"102.8779769";"https://maps.google.com/?cid=0x0:0x382fdba5ba18f25e";""
"komplek housing";"Komplek perumahan";"Rumah saya";"Jalan Nangka No.9, Ponorogo, Lubuk Linggau Utara Dua (Ii) (belakang SMPN 8, UTARA DUA (II, Sumatera Selatan 31627";"Ponorogo, Lubuk Linggau Utara Dua (Ii) (belakang SMPN 8, UTARA DUA (II";"SUMATERA SELATAN";"31627";"Indonesia";"";"";"";"-3.2781674";"102.8743099";"https://maps.google.com/?cid=0x0:0x40b34b6596a52cda";""
"komplek housing";"Komplek perumahan";"Komplek";"Jl.Pengayoman No.37, Tapak Lebar, Kec. Lubuk Linggau Bar. II, Kota Lubuklinggau, Sumatera Selatan 31616";"Tapak Lebar, Kec. Lubuk Linggau Bar. II, Kota Lubuklinggau";"SUMATERA SELATAN";"31616";"Indonesia";"";"";"";"-3.2912577";"102.8546549";"https://maps.google.com/?cid=0x0:0x9594edf73eaac919";""
"komplek housing";"Komplek perumahan";"Rumah aldisaputra";"PVH6+V4X Dua (Ii, Jl. Jendral Sudirman Gang Gng Pemotongan Hewan, Jogoboyo, Kec. Lubuk Linggau Utara II, Kota Lubuklinggau, Sumatera Selatan";"Kota Lubuklinggau, Sumatera Selatan";"SUMATERA SELATAN";"";"Indonesia";"";"";"";"-3.270256";"102.8603719";"https://maps.google.com/?cid=0x0:0x9edeb2f340e345aa";""
"komplek housing";"komplek housing";"Kec. Lubuk Linggau Bar. I";"Kota Lubuklinggau, Sumatera Selatan";"Kota Lubuklinggau, Sumatera Selatan";"SUMATERA SELATAN";"";"Indonesia";"";"";"";"-3.307821";"102.8464942";"https://maps.google.com/?cid=0x0:0x1ef773457c9af524";""
"komplek housing";"komplek housing";"Sumatera Selatan 31616";"Kota Lubuklinggau, Sumatera Selatan";"Kota Lubuklinggau, Sumatera Selatan";"SUMATERA SELATAN";"";"Indonesia";"";"";"";"-3.2680511";"102.8256017";"https://maps.google.com/?cid=0x0:0xe23586fc6d4ca382";""
"komplek housing";"Asosiasi/organisasi";"Perumahan Family Land 2";"Jl. Sejahtera, Batu Urip Taba, Kec. Lubuk Linggau Tim. I, Kota Lubuklinggau, Sumatera Selatan";"Kota Lubuklinggau, Sumatera Selatan";"SUMATERA SELATAN";"";"Indonesia";"";"";"";"-3.2831538";"102.8927102";"https://maps.google.com/?cid=0x0:0x66486d8984d659e8";""
"komplek housing";"Komplek perumahan";"Komplek";"Jl.Pengayoman No.37, Tapak Lebar, Kec. Lubuk Linggau Bar. II, Kota Lubuklinggau, Sumatera Selatan 31616";"Tapak Lebar, Kec. Lubuk Linggau Bar. II, Kota Lubuklinggau";"SUMATERA SELATAN";"31616";"Indonesia";"";"";"";"-3.2912577";"102.8546549";"https://maps.google.com/?cid=0x0:0x9594edf73eaac919";""
"komplek housing";"komplek housing";"Kec. Lubuk Linggau Tim. I";"Kota Lubuklinggau, Sumatera Selatan";"Kota Lubuklinggau, Sumatera Selatan";"SUMATERA SELATAN";"";"Indonesia";"";"";"";"-3.2839382";"102.8855843";"https://maps.google.com/?cid=0x0:0x3178fe8fb8900081";""
"komplek housing";"Komplek perumahan";"MODERN HILL RESIDENCE";"MVXX+9JM Tim, I, Taba Jemekeh, Kec. Lubuk Linggau Tim. I, Kota Lubuklinggau, Sumatera Selatan 31625";"I, Taba Jemekeh, Kec. Lubuk Linggau Tim. I, Kota Lubuklinggau";"SUMATERA SELATAN";"31625";"Indonesia";" 085381871070";"";"";"-3.3019756";"102.8988937";"https://maps.google.com/?cid=0x0:0x75b2cfaef0b588bb";""
"komplek housing";"Asosiasi/organisasi";"Perumahan Family Land 2";"Jl. Sejahtera, Batu Urip Taba, Kec. Lubuk Linggau Tim. I, Kota Lubuklinggau, Sumatera Selatan";"Kota Lubuklinggau, Sumatera Selatan";"SUMATERA SELATAN";"";"Indonesia";"";"";"";"-3.2831538";"102.8927102";"https://maps.google.com/?cid=0x0:0x66486d8984d659e8";""
"komplek housing";"komplek housing";"Grand Zuri Lubuklinggau by ZHM";"Jl. Yos Sudarso No.1, Batu Urip Taba, Kec. Lubuk Linggau Tim. I, Kota Lubuklinggau, Sumatera Selatan 31624";"Batu Urip Taba, Kec. Lubuk Linggau Tim. I, Kota Lubuklinggau";"SUMATERA SELATAN";"31624";"Indonesia";" 07337070222";"";"";"-3.2819357";"102.8889477";"https://maps.google.com/?cid=0x0:0xb9d17d256db8fc0d";""
"komplek housing";"komplek housing";"Burza Hotel Lubuklinggau";"Jl. Yos Sudarso No.143, Watervang, Kec. Lubuk Linggau Tim. I, Kota Lubuklinggau, Sumatera Selatan 31628";"Watervang, Kec. Lubuk Linggau Tim. I, Kota Lubuklinggau";"SUMATERA SELATAN";"31628";"Indonesia";" 07333280088";"";"";"-3.2776032";"102.8970972";"https://maps.google.com/?cid=0x0:0x4fb4e95f23ada624";""
"komplek housing";"komplek housing";"WE Hotel Lubuk Linggau";"Jl. Yos Sudarso No.70, RW.72, Taba Jemekeh, Kec. Lubuk Linggau Tim. I, Kota Lubuklinggau, Sumatera Selatan 31625";"RW.72, Taba Jemekeh, Kec. Lubuk Linggau Tim. I, Kota Lubuklinggau";"SUMATERA SELATAN";"31625";"Indonesia";" 07333286777";"";"";"-3.2874168";"102.8787931";"https://maps.google.com/?cid=0x0:0x8ae599c134802184";""
"komplek housing";"komplek housing";"Hotel Dewinda";"Jl. Yos Sudarso Komplek Ruko Caroline Winasta Blok Blok C1, Watervang, Kec. Lubuk Linggau Tim. I, Kota Lubuklinggau, Sumatera Selatan 31628";"Watervang, Kec. Lubuk Linggau Tim. I, Kota Lubuklinggau";"SUMATERA SELATAN";"31628";"Indonesia";" 07333285353";"";"";"-3.2755129";"102.9013407";"https://maps.google.com/?cid=0x0:0x9d0e5843430afa04";""
"komplek housing";"Tujuan Wisata";"Air Terjun Temam";"Jl. Air Temam, Rahmah, Kec. Lubuk Linggau Sel. I, Kota Lubuklinggau, Sumatera Selatan 31600";"Rahmah, Kec. Lubuk Linggau Sel. I, Kota Lubuklinggau";"SUMATERA SELATAN";"31600";"Indonesia";" 082175182223";"";"";"-3.2935625";"102.9300625";"https://maps.google.com/?cid=0x0:0x24b5109c6d325f46";""
"komplek housing";"Komplek perumahan";"Perumahan As shofa residence";"QW44+5P4, Taba Pingin, Kec. Lubuk Linggau Sel. II, Kota Lubuklinggau, Sumatera Selatan";"Kota Lubuklinggau, Sumatera Selatan";"SUMATERA SELATAN";"";"Indonesia";"";"";"";"-3.2446107";"102.9068166";"https://maps.google.com/?cid=0x0:0xd3e8442b879d2857";""
"komplek housing";"Komplek perumahan";"Perumahan family land";"PVJW+V6M, Batu Urip, Kec. Lubuk Linggau Utara II, Kota Lubuklinggau, Sumatera Selatan";"Kota Lubuklinggau, Sumatera Selatan";"SUMATERA SELATAN";"";"Indonesia";" 082180177180";"";"";"-3.2679572";"102.8956633";"https://maps.google.com/?cid=0x0:0xa2373429259a9654";""
"komplek housing";"Toko grosir";"Indah";"PV89+WFQ, Unnamed Road, Kenanga, Kec. Lubuk Linggau Utara II, Kota Lubuklinggau, Sumatera Selatan 31613";"Unnamed Road, Kenanga, Kec. Lubuk Linggau Utara II, Kota Lubuklinggau";"SUMATERA SELATAN";"31613";"Indonesia";"";"";"";"-3.2826599";"102.8687481";"https://maps.google.com/?cid=0x0:0x9416d759a89aefc6";""
"komplek housing";"Komplek perumahan";"Rumah linggau";"PWHM+9XM, Tanah Periuk, Kec. Lubuk Linggau Sel. II, Kota Lubuklinggau, Sumatera Selatan 31625";"Tanah Periuk, Kec. Lubuk Linggau Sel. II, Kota Lubuklinggau";"SUMATERA SELATAN";"31625";"Indonesia";"";"";"";"-3.2715404";"102.9349191";"https://maps.google.com/?cid=0x0:0x71c72531bc4409c6";""
"komplek housing";"Pembangunan Perumahan";"Perumahan Griya Bumi Lestari";"Jl H. Kerim, Taba Lestari, Kec. Lubuk Linggau Tim. I, Kota Lubuklinggau, Sumatera Selatan 31626";"Taba Lestari, Kec. Lubuk Linggau Tim. I, Kota Lubuklinggau";"SUMATERA SELATAN";"31626";"Indonesia";" 081324365249";"";"";"-3.2933511";"102.9110265";"https://maps.google.com/?cid=0x0:0x47e2368a457f17ba";""
"komplek housing";"Perumahan";"Griya Pesona Linggau";"MVRG+PF7, Mesat Seni, Kec. Lubuk Linggau Tim. II, Kota Lubuklinggau, Sumatera Selatan 31613";"Mesat Seni, Kec. Lubuk Linggau Tim. II, Kota Lubuklinggau";"SUMATERA SELATAN";"31613";"Indonesia";"";"";"";"-3.3082208";"102.876171";"https://maps.google.com/?cid=0x0:0x4e3080fdd19f7b87";""
"komplek housing";"Komplek perumahan";"Komplek";"Jl.Pengayoman No.37, Tapak Lebar, Kec. Lubuk Linggau Bar. II, Kota Lubuklinggau, Sumatera Selatan 31616";"Tapak Lebar, Kec. Lubuk Linggau Bar. II, Kota Lubuklinggau";"SUMATERA SELATAN";"31616";"Indonesia";"";"";"";"-3.2912577";"102.8546549";"https://maps.google.com/?cid=0x0:0x9594edf73eaac919";""
"komplek housing";"Pembangunan Perumahan";"Perumahan bintang timur satu";"Jl. Cereme, Cereme Taba, Kec. Lubuk Linggau Tim. II, Kota Lubuklinggau, Sumatera Selatan 31613";"Cereme Taba, Kec. Lubuk Linggau Tim. II, Kota Lubuklinggau";"SUMATERA SELATAN";"31613";"Indonesia";"";"";"";"-3.2909313";"102.8766221";"https://maps.google.com/?cid=0x0:0x805f90e4d331d9e0";""
"komplek housing";"Komplek perumahan";"Komplek Bintang Timur Satu (BTS)";"PV7M+HPG, Jl. Sejahtera, Taba Jemekeh, Kec. Lubuk Linggau Tim. I, Kota Lubuklinggau, Sumatera Selatan 31624";"Jl. Sejahtera, Taba Jemekeh, Kec. Lubuk Linggau Tim. I, Kota Lubuklinggau";"SUMATERA SELATAN";"31624";"Indonesia";"";"";"";"-3.2860645";"102.8843157";"https://maps.google.com/?cid=0x0:0xb765f07f1a6acb01";""
"komplek housing";"Perhimpunan Pengembang Perumahan";"Rumah Okrie";"Jl. Irigasi Satu, Siring Agung, Kec. Lubuk Linggau Sel. II, Kota Lubuklinggau, Sumatera Selatan 31625";"Siring Agung, Kec. Lubuk Linggau Sel. II, Kota Lubuklinggau";"SUMATERA SELATAN";"31625";"Indonesia";" 082181948894";"";"";"-3.2570434";"102.9234335";"https://maps.google.com/?cid=0x0:0x94bc27180804254d";""
"komplek housing";"Komplek perumahan";"Komplek Perumahan Citra Regency";"PXH2+XP5, Lubuk Kupang, Kec. Lubuk Linggau Sel. I, Kota Lubuklinggau, Sumatera Selatan 31626";"Lubuk Kupang, Kec. Lubuk Linggau Sel. I, Kota Lubuklinggau";"SUMATERA SELATAN";"31626";"Indonesia";" 085381955575";"";"";"-3.2701108";"102.9518697";"https://maps.google.com/?cid=0x0:0xfa489e46f5239b2b";""
"komplek housing";"Komplek perumahan";"Patresia Imca";"PWRC+2HQ, Jl. Irigasi Satu, Siring Agung, Kec. Lubuk Linggau Sel. II, Kota Lubuklinggau, Sumatera Selatan 31625";"Jl. Irigasi Satu, Siring Agung, Kec. Lubuk Linggau Sel. II, Kota Lubuklinggau";"SUMATERA SELATAN";"31625";"Indonesia";"";"";"";"-3.2602354";"102.9219135";"https://maps.google.com/?cid=0x0:0xd2247d637df6d5e6";""
"komplek housing";"Pembangunan Perumahan";"Perumahan buana lestari";"satu(l, Jln lapter, perumahan buana lestari, jln H.kerim No.RT 05, Kec. Lubuk Linggau Tim. I, Sumatera Selatan";"Kota Lubuklinggau, Sumatera Selatan";"SUMATERA SELATAN";"";"Indonesia";"";"";"";"-3.286774";"102.908839";"https://maps.google.com/?cid=0x0:0x9c45cfcc77f1cbbf";""
"komplek housing";"komplek housing";"Kec. Lubuk Linggau Tim. I";"Kota Lubuklinggau, Sumatera Selatan";"Kota Lubuklinggau, Sumatera Selatan";"SUMATERA SELATAN";"";"Indonesia";"";"";"";"-3.2839382";"102.8855843";"https://maps.google.com/?cid=0x0:0x3178fe8fb8900081";""
"komplek housing";"komplek housing";"Perumahan MBR Air Temam Madani Harapan Jaya Kota Lubuklinggau";"";"";"SUMATERA SELATAN";"";"Indonesia";" 085783627193";"";"";"-3.2996426";"102.8779769";"https://maps.google.com/?cid=0x0:0x382fdba5ba18f25e";""
"komplek housing";"Asosiasi/organisasi";"Perumahan Family Land 2";"Jl. Sejahtera, Batu Urip Taba, Kec. Lubuk Linggau Tim. I, Kota Lubuklinggau, Sumatera Selatan";"Kota Lubuklinggau, Sumatera Selatan";"SUMATERA SELATAN";"";"Indonesia";"";"";"";"-3.2831538";"102.8927102";"https://maps.google.com/?cid=0x0:0x66486d8984d659e8";""
"komplek housing";"Komplek perumahan";"Shakila Residance";"Jalan Goa Batu No.Rt 07, Taba Jemekeh, Kec. Lubuk Linggau Tim. I, Kota Lubuklinggau, Sumatera Selatan";"Kota Lubuklinggau, Sumatera Selatan";"SUMATERA SELATAN";"";"Indonesia";" 082267671984";"";"";"-3.3008366";"102.8847641";"https://maps.google.com/?cid=0x0:0x12ba6771b0616e2a";""
"komplek housing";"Komplek perumahan";"Komplek Perumahan Citra Regency";"PXH2+XP5, Lubuk Kupang, Kec. Lubuk Linggau Sel. I, Kota Lubuklinggau, Sumatera Selatan 31626";"Lubuk Kupang, Kec. Lubuk Linggau Sel. I, Kota Lubuklinggau";"SUMATERA SELATAN";"31626";"Indonesia";" 085381955575";"";"";"-3.2701108";"102.9518697";"https://maps.google.com/?cid=0x0:0xfa489e46f5239b2b";""
"komplek housing";"Pembangunan Perumahan";"Black Taba sejahtera";"PV6Q+QXX, Taba Jemekeh, Kec. Lubuk Linggau Tim. I, Kota Lubuklinggau, Sumatera Selatan";"Kota Lubuklinggau, Sumatera Selatan";"SUMATERA SELATAN";"";"Indonesia";"";"";"";"-3.2880181";"102.8899744";"https://maps.google.com/?cid=0x0:0xd99bc4cd7272c8f8";""
"komplek housing";"Komplek perumahan";"Perumahan family land";"PVJW+V6M, Batu Urip, Kec. Lubuk Linggau Utara II, Kota Lubuklinggau, Sumatera Selatan";"Kota Lubuklinggau, Sumatera Selatan";"SUMATERA SELATAN";"";"Indonesia";" 082180177180";"";"";"-3.2679572";"102.8956633";"https://maps.google.com/?cid=0x0:0xa2373429259a9654";""
"komplek housing";"komplek housing";"Grand Zuri Lubuklinggau by ZHM";"Jl. Yos Sudarso No.1, Batu Urip Taba, Kec. Lubuk Linggau Tim. I, Kota Lubuklinggau, Sumatera Selatan 31624";"Batu Urip Taba, Kec. Lubuk Linggau Tim. I, Kota Lubuklinggau";"SUMATERA SELATAN";"31624";"Indonesia";" 07337070222";"";"";"-3.2819357";"102.8889477";"https://maps.google.com/?cid=0x0:0xb9d17d256db8fc0d";""
"komplek housing";"Perumahan";"Sejahtera Regency";"PW9H+WC, Marga Mulya, Kec. Lubuk Linggau Sel. II, Kota Lubuklinggau, Sumatera Selatan";"Kota Lubuklinggau, Sumatera Selatan";"SUMATERA SELATAN";"";"Indonesia";"";"";"";"-3.2800871";"102.9281918";"https://maps.google.com/?cid=0x0:0x46fe2f06085a2cf4";""
"komplek housing";"Tujuan Wisata";"Air Terjun Temam";"Jl. Air Temam, Rahmah, Kec. Lubuk Linggau Sel. I, Kota Lubuklinggau, Sumatera Selatan 31600";"Rahmah, Kec. Lubuk Linggau Sel. I, Kota Lubuklinggau";"SUMATERA SELATAN";"31600";"Indonesia";" 082175182223";"";"";"-3.2935625";"102.9300625";"https://maps.google.com/?cid=0x0:0x24b5109c6d325f46";""
"komplek housing";"komplek housing";"RedDoorz Syariah near Watervang Lubuk Linggau 2";"Jl. Watervang No.46, Watervang, Kec. Lubuk Linggau Tim. I, Kota Lubuklinggau, Sumatera Selatan 31628";"Watervang, Kec. Lubuk Linggau Tim. I, Kota Lubuklinggau";"SUMATERA SELATAN";"31628";"Indonesia";" 0895417300072";"";"";"-3.2753088";"102.898205";"https://maps.google.com/?cid=0x0:0x5abdf25c70655777";""
"komplek housing";"komplek housing";"N/A";"";"";"SUMATERA SELATAN";"";"Indonesia";"";"";"";"";"";"https://maps.google.com/?cid=0x0:0x5abdf25c70655777%7C/g/11h89907v_%7Cen-ID";""
"komplek housing";"Pembangunan Perumahan";"Perumahan Shapire Estate";"PV2X+J4, Jl.Mochtar Amin, Taba Jemekeh, Kec.Linggau 1, Kota Lubuklinggau, Sumatera Selatan";"Kota Lubuklinggau, Sumatera Selatan";"SUMATERA SELATAN";"";"Indonesia";" 085268250578";"";"";"-3.2984375";"102.8978125";"https://maps.google.com/?cid=0x0:0x61bb299b9e80ff3b";""
"komplek housing";"Perumahan";"Griya Pesona Linggau";"MVRG+PF7, Mesat Seni, Kec. Lubuk Linggau Tim. II, Kota Lubuklinggau, Sumatera Selatan 31613";"Mesat Seni, Kec. Lubuk Linggau Tim. II, Kota Lubuklinggau";"SUMATERA SELATAN";"31613";"Indonesia";"";"";"";"-3.3082208";"102.876171";"https://maps.google.com/?cid=0x0:0x4e3080fdd19f7b87";""
"komplek housing";"komplek housing";"Hotel Dewinda";"Jl. Yos Sudarso Komplek Ruko Caroline Winasta Blok Blok C1, Watervang, Kec. Lubuk Linggau Tim. I, Kota Lubuklinggau, Sumatera Selatan 31628";"Watervang, Kec. Lubuk Linggau Tim. I, Kota Lubuklinggau";"SUMATERA SELATAN";"31628";"Indonesia";" 07333285353";"";"";"-3.2755129";"102.9013407";"https://maps.google.com/?cid=0x0:0x9d0e5843430afa04";""
"komplek housing";"komplek housing";"N/A";"";"";"SUMATERA SELATAN";"";"Indonesia";"";"";"";"";"";"https://maps.google.com/?cid=0x0:0x9d0e5843430afa04%7C/g/11f8y22mzg%7Cen-ID";""
"komplek housing";"Komplek perumahan";"Rumah linggau";"PWHM+9XM, Tanah Periuk, Kec. Lubuk Linggau Sel. II, Kota Lubuklinggau, Sumatera Selatan 31625";"Tanah Periuk, Kec. Lubuk Linggau Sel. II, Kota Lubuklinggau";"SUMATERA SELATAN";"31625";"Indonesia";"";"";"";"-3.2715404";"102.9349191";"https://maps.google.com/?cid=0x0:0x71c72531bc4409c6";""
"komplek housing";"Komplek perumahan";"Perumahan As shofa residence";"QW44+5P4, Taba Pingin, Kec. Lubuk Linggau Sel. II, Kota Lubuklinggau, Sumatera Selatan";"Kota Lubuklinggau, Sumatera Selatan";"SUMATERA SELATAN";"";"Indonesia";"";"";"";"-3.2446107";"102.9068166";"https://maps.google.com/?cid=0x0:0xd3e8442b879d2857";""
"komplek housing";"Komplek perumahan";"Perumahan";"Jl lingar barat simpang 4, dekat jembatan gantung No.rt 06, Ulak Lebar, Kec. Lubuk Linggau Bar. II, Sumatera Selatan";"Kota Lubuklinggau, Sumatera Selatan";"SUMATERA SELATAN";"";"Indonesia";"";"";"";"-3.2936102";"102.8442937";"https://maps.google.com/?cid=0x0:0x6c184db2ecd19e2b";""
"komplek housing";"Rumah Kayu";"Perumahan Pondok Indah Palem Lubuklinggau";"MVP7+22G, Unnamed Road, Sukajadi, Kec. Lubuk Linggau Bar. I, Kota Lubuklinggau, Sumatera Selatan 31614";"Unnamed Road, Sukajadi, Kec. Lubuk Linggau Bar. I, Kota Lubuklinggau";"SUMATERA SELATAN";"31614";"Indonesia";"";"";"";"-3.3149377";"102.8625752";"https://maps.google.com/?cid=0x0:0x9bd44f435c2a9989";""
"komplek housing";"komplek housing";"Kec. Lubuk Linggau Sel. I";"Kota Lubuklinggau, Sumatera Selatan";"Kota Lubuklinggau, Sumatera Selatan";"SUMATERA SELATAN";"";"Indonesia";"";"";"";"-3.2971067";"102.9235089";"https://maps.google.com/?cid=0x0:0xa020c942b2621c55";""
"komplek housing";"Komplek perumahan";"Kompleks Perum Graha Silampari No 6 Lubuk Linggau";"PWPV+CH8, Simpang Periuk, Kec. Lubuk Linggau Sel. II, Kota Lubuklinggau, Sumatera Selatan 31626";"Simpang Periuk, Kec. Lubuk Linggau Sel. II, Kota Lubuklinggau";"SUMATERA SELATAN";"31626";"Indonesia";" 089527898888";"";"";"-3.2639528";"102.9439471";"https://maps.google.com/?cid=0x0:0x1d827bdaaa56c686";""
"komplek housing";"Asosiasi/organisasi";"Perumahan Family Land 2";"Jl. Sejahtera, Batu Urip Taba, Kec. Lubuk Linggau Tim. I, Kota Lubuklinggau, Sumatera Selatan";"Kota Lubuklinggau, Sumatera Selatan";"SUMATERA SELATAN";"";"Indonesia";"";"";"";"-3.2831538";"102.8927102";"https://maps.google.com/?cid=0x0:0x66486d8984d659e8";""
"komplek housing";"Komplek perumahan";"Komplek perumahan";"PWGM+H6M, Tanah Periuk, Kec. Lubuk Linggau Sel. II, Kota Lubuklinggau, Sumatera Selatan 31625";"Tanah Periuk, Kec. Lubuk Linggau Sel. II, Kota Lubuklinggau";"SUMATERA SELATAN";"31625";"Indonesia";"";"";"";"-3.2733155";"102.9329645";"https://maps.google.com/?cid=0x0:0x633d1da01df68569";""
"komplek housing";"Perumahan";"Sejahtera Regency";"PW9H+WC, Marga Mulya, Kec. Lubuk Linggau Sel. II, Kota Lubuklinggau, Sumatera Selatan";"Kota Lubuklinggau, Sumatera Selatan";"SUMATERA SELATAN";"";"Indonesia";"";"";"";"-3.2800871";"102.9281918";"https://maps.google.com/?cid=0x0:0x46fe2f06085a2cf4";""
"komplek housing";"Komplek perumahan";"Rumah Lubuklinggau";"Unnamed Road, Simpang Periuk, Kec. Lubuk Linggau Sel. II, Kota Lubuklinggau, Sumatera Selatan 31626";"Simpang Periuk, Kec. Lubuk Linggau Sel. II, Kota Lubuklinggau";"SUMATERA SELATAN";"31626";"Indonesia";"";"";"";"-3.2669918";"102.9413485";"https://maps.google.com/?cid=0x0:0x13e8ef12dd68df3c";""
"komplek housing";"Pembangunan Perumahan";"Graha Marga Mulya 2";"Perumahan Graha No.2, Marga Mulya, Kec. Lubuk Linggau Sel. II, Kota Lubuklinggau, Sumatera Selatan 31625";"Marga Mulya, Kec. Lubuk Linggau Sel. II, Kota Lubuklinggau";"SUMATERA SELATAN";"31625";"Indonesia";"";"";"";"-3.2767295";"102.9282547";"https://maps.google.com/?cid=0x0:0xed60f6557b22b12";""
"komplek housing";"komplek housing";"Perumahan MBR Air Temam Madani Harapan Jaya Kota Lubuklinggau";"";"";"SUMATERA SELATAN";"";"Indonesia";" 085783627193";"";"";"-3.2996426";"102.8779769";"https://maps.google.com/?cid=0x0:0x382fdba5ba18f25e";""
"komplek housing";"komplek housing";"Kec. Lubuk Linggau Tim. I";"Kota Lubuklinggau, Sumatera Selatan";"Kota Lubuklinggau, Sumatera Selatan";"SUMATERA SELATAN";"";"Indonesia";"";"";"";"-3.2839382";"102.8855843";"https://maps.google.com/?cid=0x0:0x3178fe8fb8900081";""
"komplek housing";"Komplek perumahan";"MODERN HILL RESIDENCE";"MVXX+9JM Tim, I, Taba Jemekeh, Kec. Lubuk Linggau Tim. I, Kota Lubuklinggau, Sumatera Selatan 31625";"I, Taba Jemekeh, Kec. Lubuk Linggau Tim. I, Kota Lubuklinggau";"SUMATERA SELATAN";"31625";"Indonesia";" 085381871070";"";"";"-3.3019756";"102.8988937";"https://maps.google.com/?cid=0x0:0x75b2cfaef0b588bb";""
"komplek housing";"Asosiasi/organisasi";"Perumahan Family Land 2";"Jl. Sejahtera, Batu Urip Taba, Kec. Lubuk Linggau Tim. I, Kota Lubuklinggau, Sumatera Selatan";"Kota Lubuklinggau, Sumatera Selatan";"SUMATERA SELATAN";"";"Indonesia";"";"";"";"-3.2831538";"102.8927102";"https://maps.google.com/?cid=0x0:0x66486d8984d659e8";""
"komplek housing";"komplek housing";"Grand Zuri Lubuklinggau by ZHM";"Jl. Yos Sudarso No.1, Batu Urip Taba, Kec. Lubuk Linggau Tim. I, Kota Lubuklinggau, Sumatera Selatan 31624";"Batu Urip Taba, Kec. Lubuk Linggau Tim. I, Kota Lubuklinggau";"SUMATERA SELATAN";"31624";"Indonesia";" 07337070222";"";"";"-3.2819357";"102.8889477";"https://maps.google.com/?cid=0x0:0xb9d17d256db8fc0d";""
"komplek housing";"komplek housing";"WE Hotel Lubuk Linggau";"Jl. Yos Sudarso No.70, RW.72, Taba Jemekeh, Kec. Lubuk Linggau Tim. I, Kota Lubuklinggau, Sumatera Selatan 31625";"RW.72, Taba Jemekeh, Kec. Lubuk Linggau Tim. I, Kota Lubuklinggau";"SUMATERA SELATAN";"31625";"Indonesia";" 07333286777";"";"";"-3.2874168";"102.8787931";"https://maps.google.com/?cid=0x0:0x8ae599c134802184";""
"komplek housing";"komplek housing";"Burza Hotel Lubuklinggau";"Jl. Yos Sudarso No.143, Watervang, Kec. Lubuk Linggau Tim. I, Kota Lubuklinggau, Sumatera Selatan 31628";"Watervang, Kec. Lubuk Linggau Tim. I, Kota Lubuklinggau";"SUMATERA SELATAN";"31628";"Indonesia";" 07333280088";"";"";"-3.2776032";"102.8970972";"https://maps.google.com/?cid=0x0:0x4fb4e95f23ada624";""
"komplek housing";"komplek housing";"Hotel Dewinda";"Jl. Yos Sudarso Komplek Ruko Caroline Winasta Blok Blok C1, Watervang, Kec. Lubuk Linggau Tim. I, Kota Lubuklinggau, Sumatera Selatan 31628";"Watervang, Kec. Lubuk Linggau Tim. I, Kota Lubuklinggau";"SUMATERA SELATAN";"31628";"Indonesia";" 07333285353";"";"";"-3.2755129";"102.9013407";"https://maps.google.com/?cid=0x0:0x9d0e5843430afa04";""
"komplek housing";"Tujuan Wisata";"Air Terjun Temam";"Jl. Air Temam, Rahmah, Kec. Lubuk Linggau Sel. I, Kota Lubuklinggau, Sumatera Selatan 31600";"Rahmah, Kec. Lubuk Linggau Sel. I, Kota Lubuklinggau";"SUMATERA SELATAN";"31600";"Indonesia";" 082175182223";"";"";"-3.2935625";"102.9300625";"https://maps.google.com/?cid=0x0:0x24b5109c6d325f46";""
"komplek housing";"Komplek perumahan";"Perumahan As shofa residence";"QW44+5P4, Taba Pingin, Kec. Lubuk Linggau Sel. II, Kota Lubuklinggau, Sumatera Selatan";"Kota Lubuklinggau, Sumatera Selatan";"SUMATERA SELATAN";"";"Indonesia";"";"";"";"-3.2446107";"102.9068166";"https://maps.google.com/?cid=0x0:0xd3e8442b879d2857";""
"komplek housing";"Komplek perumahan";"Perumahan family land";"PVJW+V6M, Batu Urip, Kec. Lubuk Linggau Utara II, Kota Lubuklinggau, Sumatera Selatan";"Kota Lubuklinggau, Sumatera Selatan";"SUMATERA SELATAN";"";"Indonesia";" 082180177180";"";"";"-3.2679572";"102.8956633";"https://maps.google.com/?cid=0x0:0xa2373429259a9654";""
"komplek housing";"Komplek perumahan";"Rumah linggau";"PWHM+9XM, Tanah Periuk, Kec. Lubuk Linggau Sel. II, Kota Lubuklinggau, Sumatera Selatan 31625";"Tanah Periuk, Kec. Lubuk Linggau Sel. II, Kota Lubuklinggau";"SUMATERA SELATAN";"31625";"Indonesia";"";"";"";"-3.2715404";"102.9349191";"https://maps.google.com/?cid=0x0:0x71c72531bc4409c6";""
"komplek housing";"Pembangunan Perumahan";"Perumahan Griya Bumi Lestari";"Jl H. Kerim, Taba Lestari, Kec. Lubuk Linggau Tim. I, Kota Lubuklinggau, Sumatera Selatan 31626";"Taba Lestari, Kec. Lubuk Linggau Tim. I, Kota Lubuklinggau";"SUMATERA SELATAN";"31626";"Indonesia";" 081324365249";"";"";"-3.2933511";"102.9110265";"https://maps.google.com/?cid=0x0:0x47e2368a457f17ba";""
"komplek housing";"Perumahan";"Griya Pesona Linggau";"MVRG+PF7, Mesat Seni, Kec. Lubuk Linggau Tim. II, Kota Lubuklinggau, Sumatera Selatan 31613";"Mesat Seni, Kec. Lubuk Linggau Tim. II, Kota Lubuklinggau";"SUMATERA SELATAN";"31613";"Indonesia";"";"";"";"-3.3082208";"102.876171";"https://maps.google.com/?cid=0x0:0x4e3080fdd19f7b87";""
"komplek housing";"Komplek perumahan";"Komplek";"Jl.Pengayoman No.37, Tapak Lebar, Kec. Lubuk Linggau Bar. II, Kota Lubuklinggau, Sumatera Selatan 31616";"Tapak Lebar, Kec. Lubuk Linggau Bar. II, Kota Lubuklinggau";"SUMATERA SELATAN";"31616";"Indonesia";"";"";"";"-3.2912577";"102.8546549";"https://maps.google.com/?cid=0x0:0x9594edf73eaac919";""
"komplek housing";"Pembangunan Perumahan";"Perumahan bintang timur satu";"Jl. Cereme, Cereme Taba, Kec. Lubuk Linggau Tim. II, Kota Lubuklinggau, Sumatera Selatan 31613";"Cereme Taba, Kec. Lubuk Linggau Tim. II, Kota Lubuklinggau";"SUMATERA SELATAN";"31613";"Indonesia";"";"";"";"-3.2909313";"102.8766221";"https://maps.google.com/?cid=0x0:0x805f90e4d331d9e0";""
"komplek housing";"Komplek perumahan";"Komplek Bintang Timur Satu (BTS)";"PV7M+HPG, Jl. Sejahtera, Taba Jemekeh, Kec. Lubuk Linggau Tim. I, Kota Lubuklinggau, Sumatera Selatan 31624";"Jl. Sejahtera, Taba Jemekeh, Kec. Lubuk Linggau Tim. I, Kota Lubuklinggau";"SUMATERA SELATAN";"31624";"Indonesia";"";"";"";"-3.2860645";"102.8843157";"https://maps.google.com/?cid=0x0:0xb765f07f1a6acb01";""
"komplek housing";"Pembangunan Perumahan";"Perumahan buana lestari";"satu(l, Jln lapter, perumahan buana lestari, jln H.kerim No.RT 05, Kec. Lubuk Linggau Tim. I, Sumatera Selatan";"Kota Lubuklinggau, Sumatera Selatan";"SUMATERA SELATAN";"";"Indonesia";"";"";"";"-3.286774";"102.908839";"https://maps.google.com/?cid=0x0:0x9c45cfcc77f1cbbf";""
"komplek housing";"komplek housing";"Kec. Lubuk Linggau Tim. I";"Kota Lubuklinggau, Sumatera Selatan";"Kota Lubuklinggau, Sumatera Selatan";"SUMATERA SELATAN";"";"Indonesia";"";"";"";"-3.2839382";"102.8855843";"https://maps.google.com/?cid=0x0:0x3178fe8fb8900081";""
"komplek housing";"Komplek perumahan";"Komplek Perumahan Citra Regency";"PXH2+XP5, Lubuk Kupang, Kec. Lubuk Linggau Sel. I, Kota Lubuklinggau, Sumatera Selatan 31626";"Lubuk Kupang, Kec. Lubuk Linggau Sel. I, Kota Lubuklinggau";"SUMATERA SELATAN";"31626";"Indonesia";" 085381955575";"";"";"-3.2701108";"102.9518697";"https://maps.google.com/?cid=0x0:0xfa489e46f5239b2b";""
"komplek housing";"Asosiasi/organisasi";"Perumahan Family Land 2";"Jl. Sejahtera, Batu Urip Taba, Kec. Lubuk Linggau Tim. I, Kota Lubuklinggau, Sumatera Selatan";"Kota Lubuklinggau, Sumatera Selatan";"SUMATERA SELATAN";"";"Indonesia";"";"";"";"-3.2831538";"102.8927102";"https://maps.google.com/?cid=0x0:0x66486d8984d659e8";""
"komplek housing";"Komplek perumahan";"MODERN HILL RESIDENCE";"MVXX+9JM Tim, I, Taba Jemekeh, Kec. Lubuk Linggau Tim. I, Kota Lubuklinggau, Sumatera Selatan 31625";"I, Taba Jemekeh, Kec. Lubuk Linggau Tim. I, Kota Lubuklinggau";"SUMATERA SELATAN";"31625";"Indonesia";" 085381871070";"";"";"-3.3019756";"102.8988937";"https://maps.google.com/?cid=0x0:0x75b2cfaef0b588bb";""
"komplek housing";"Komplek perumahan";"Shakila Residance";"Jalan Goa Batu No.Rt 07, Taba Jemekeh, Kec. Lubuk Linggau Tim. I, Kota Lubuklinggau, Sumatera Selatan";"Kota Lubuklinggau, Sumatera Selatan";"SUMATERA SELATAN";"";"Indonesia";" 082267671984";"";"";"-3.3008366";"102.8847641";"https://maps.google.com/?cid=0x0:0x12ba6771b0616e2a";""
"komplek housing";"Komplek perumahan";"Perumahan family land";"PVJW+V6M, Batu Urip, Kec. Lubuk Linggau Utara II, Kota Lubuklinggau, Sumatera Selatan";"Kota Lubuklinggau, Sumatera Selatan";"SUMATERA SELATAN";"";"Indonesia";" 082180177180";"";"";"-3.2679572";"102.8956633";"https://maps.google.com/?cid=0x0:0xa2373429259a9654";""
"komplek housing";"Pembangunan Perumahan";"Black Taba sejahtera";"PV6Q+QXX, Taba Jemekeh, Kec. Lubuk Linggau Tim. I, Kota Lubuklinggau, Sumatera Selatan";"Kota Lubuklinggau, Sumatera Selatan";"SUMATERA SELATAN";"";"Indonesia";"";"";"";"-3.2880181";"102.8899744";"https://maps.google.com/?cid=0x0:0xd99bc4cd7272c8f8";""
"komplek housing";"Perumahan";"Sejahtera Regency";"PW9H+WC, Marga Mulya, Kec. Lubuk Linggau Sel. II, Kota Lubuklinggau, Sumatera Selatan";"Kota Lubuklinggau, Sumatera Selatan";"SUMATERA SELATAN";"";"Indonesia";"";"";"";"-3.2800871";"102.9281918";"https://maps.google.com/?cid=0x0:0x46fe2f06085a2cf4";""
"komplek housing";"komplek housing";"Grand Zuri Lubuklinggau by ZHM";"Jl. Yos Sudarso No.1, Batu Urip Taba, Kec. Lubuk Linggau Tim. I, Kota Lubuklinggau, Sumatera Selatan 31624";"Batu Urip Taba, Kec. Lubuk Linggau Tim. I, Kota Lubuklinggau";"SUMATERA SELATAN";"31624";"Indonesia";" 07337070222";"";"";"-3.2819357";"102.8889477";"https://maps.google.com/?cid=0x0:0xb9d17d256db8fc0d";""
"komplek housing";"komplek housing";"Burza Hotel Lubuklinggau";"Jl. Yos Sudarso No.143, Watervang, Kec. Lubuk Linggau Tim. I, Kota Lubuklinggau, Sumatera Selatan 31628";"Watervang, Kec. Lubuk Linggau Tim. I, Kota Lubuklinggau";"SUMATERA SELATAN";"31628";"Indonesia";" 07333280088";"";"";"-3.2776032";"102.8970972";"https://maps.google.com/?cid=0x0:0x4fb4e95f23ada624";""
"komplek housing";"komplek housing";"WE Hotel Lubuk Linggau";"Jl. Yos Sudarso No.70, RW.72, Taba Jemekeh, Kec. Lubuk Linggau Tim. I, Kota Lubuklinggau, Sumatera Selatan 31625";"RW.72, Taba Jemekeh, Kec. Lubuk Linggau Tim. I, Kota Lubuklinggau";"SUMATERA SELATAN";"31625";"Indonesia";" 07333286777";"";"";"-3.2874168";"102.8787931";"https://maps.google.com/?cid=0x0:0x8ae599c134802184";""
"komplek housing";"komplek housing";"Hotel Dewinda";"Jl. Yos Sudarso Komplek Ruko Caroline Winasta Blok Blok C1, Watervang, Kec. Lubuk Linggau Tim. I, Kota Lubuklinggau, Sumatera Selatan 31628";"Watervang, Kec. Lubuk Linggau Tim. I, Kota Lubuklinggau";"SUMATERA SELATAN";"31628";"Indonesia";" 07333285353";"";"";"-3.2755129";"102.9013407";"https://maps.google.com/?cid=0x0:0x9d0e5843430afa04";""
"komplek housing";"Tujuan Wisata";"Air Terjun Temam";"Jl. Air Temam, Rahmah, Kec. Lubuk Linggau Sel. I, Kota Lubuklinggau, Sumatera Selatan 31600";"Rahmah, Kec. Lubuk Linggau Sel. I, Kota Lubuklinggau";"SUMATERA SELATAN";"31600";"Indonesia";" 082175182223";"";"";"-3.2935625";"102.9300625";"https://maps.google.com/?cid=0x0:0x24b5109c6d325f46";""
"komplek housing";"Perumahan";"Griya Pesona Linggau";"MVRG+PF7, Mesat Seni, Kec. Lubuk Linggau Tim. II, Kota Lubuklinggau, Sumatera Selatan 31613";"Mesat Seni, Kec. Lubuk Linggau Tim. II, Kota Lubuklinggau";"SUMATERA SELATAN";"31613";"Indonesia";"";"";"";"-3.3082208";"102.876171";"https://maps.google.com/?cid=0x0:0x4e3080fdd19f7b87";""
"komplek housing";"Pembangunan Perumahan";"Perumahan Shapire Estate";"PV2X+J4, Jl.Mochtar Amin, Taba Jemekeh, Kec.Linggau 1, Kota Lubuklinggau, Sumatera Selatan";"Kota Lubuklinggau, Sumatera Selatan";"SUMATERA SELATAN";"";"Indonesia";" 085268250578";"";"";"-3.2984375";"102.8978125";"https://maps.google.com/?cid=0x0:0x61bb299b9e80ff3b";""
"komplek housing";"Komplek perumahan";"Perumahan";"Jl lingar barat simpang 4, dekat jembatan gantung No.rt 06, Ulak Lebar, Kec. Lubuk Linggau Bar. II, Sumatera Selatan";"Kota Lubuklinggau, Sumatera Selatan";"SUMATERA SELATAN";"";"Indonesia";"";"";"";"-3.2936102";"102.8442937";"https://maps.google.com/?cid=0x0:0x6c184db2ecd19e2b";""
"komplek housing";"Komplek perumahan";"Rumah linggau";"PWHM+9XM, Tanah Periuk, Kec. Lubuk Linggau Sel. II, Kota Lubuklinggau, Sumatera Selatan 31625";"Tanah Periuk, Kec. Lubuk Linggau Sel. II, Kota Lubuklinggau";"SUMATERA SELATAN";"31625";"Indonesia";"";"";"";"-3.2715404";"102.9349191";"https://maps.google.com/?cid=0x0:0x71c72531bc4409c6";""
"komplek housing";"komplek housing";"RedDoorz Syariah near Watervang Lubuk Linggau 2";"Jl. Watervang No.46, Watervang, Kec. Lubuk Linggau Tim. I, Kota Lubuklinggau, Sumatera Selatan 31628";"Watervang, Kec. Lubuk Linggau Tim. I, Kota Lubuklinggau";"SUMATERA SELATAN";"31628";"Indonesia";" 0895417300072";"";"";"-3.2753088";"102.898205";"https://maps.google.com/?cid=0x0:0x5abdf25c70655777";""
"komplek housing";"komplek housing";"N/A";"";"";"SUMATERA SELATAN";"";"Indonesia";"";"";"";"";"";"https://maps.google.com/?cid=0x0:0x5abdf25c70655777%7C/g/11h89907v_%7Cen-ID";""
"komplek housing";"komplek housing";"N/A";"";"";"SUMATERA SELATAN";"";"Indonesia";"";"";"";"";"";"https://maps.google.com/?cid=0x0:0x9d0e5843430afa04%7C/g/11f8y22mzg%7Cen-ID";""
"komplek housing";"komplek housing";"Sumatera Selatan 31621";"Batu Urip, Kec. Lubuk Linggau Utara II, Kota Lubuklinggau, Sumatera Selatan";"Kota Lubuklinggau, Sumatera Selatan";"SUMATERA SELATAN";"";"Indonesia";"";"";"";"-3.2599733";"102.8802479";"https://maps.google.com/?cid=0x0:0xee66cfc97bd4f589";""
"komplek housing";"Asosiasi/organisasi";"Perumahan Family Land 2";"Jl. Sejahtera, Batu Urip Taba, Kec. Lubuk Linggau Tim. I, Kota Lubuklinggau, Sumatera Selatan";"Kota Lubuklinggau, Sumatera Selatan";"SUMATERA SELATAN";"";"Indonesia";"";"";"";"-3.2831538";"102.8927102";"https://maps.google.com/?cid=0x0:0x66486d8984d659e8";""
"komplek housing";"Komplek perumahan";"Rumah saya";"Jalan Nangka No.9, Ponorogo, Lubuk Linggau Utara Dua (Ii) (belakang SMPN 8, UTARA DUA (II, Sumatera Selatan 31627";"Ponorogo, Lubuk Linggau Utara Dua (Ii) (belakang SMPN 8, UTARA DUA (II";"SUMATERA SELATAN";"31627";"Indonesia";"";"";"";"-3.2781674";"102.8743099";"https://maps.google.com/?cid=0x0:0x40b34b6596a52cda";""
"komplek housing";"Komplek perumahan";"Perumahan Hasanah Residence blok G7";"Perumahan Hasanah Residence Blok A 08, Taba Jemekeh, Kec. Lubuk Linggau Tim. I, Kota Lubuklinggau, Sumatera Selatan";"Kota Lubuklinggau, Sumatera Selatan";"SUMATERA SELATAN";"";"Indonesia";"";"";"";"-3.2833296";"102.8987931";"https://maps.google.com/?cid=0x0:0x840472a6671b61ef";""
"komplek housing";"Komplek perumahan";"Perumahan family land";"PVJW+V6M, Batu Urip, Kec. Lubuk Linggau Utara II, Kota Lubuklinggau, Sumatera Selatan";"Kota Lubuklinggau, Sumatera Selatan";"SUMATERA SELATAN";"";"Indonesia";" 082180177180";"";"";"-3.2679572";"102.8956633";"https://maps.google.com/?cid=0x0:0xa2373429259a9654";""
"komplek housing";"Komplek perumahan";"Perumahan Hasanah Residence blok G7";"Perumahan Hasanah Residence Blok A 08, Taba Jemekeh, Kec. Lubuk Linggau Tim. I, Kota Lubuklinggau, Sumatera Selatan";"Kota Lubuklinggau, Sumatera Selatan";"SUMATERA SELATAN";"";"Indonesia";"";"";"";"-3.2833296";"102.8987931";"https://maps.google.com/?cid=0x0:0x840472a6671b61ef";""
"komplek housing";"Komplek perumahan";"Perumahan Hasanah Residence Blok D2";"Jl. Beringin No.dalam, RW.keluarahan, Taba Jemekeh, Kec. Lubuk Linggau Tim. II, Kota Lubuklinggau, Sumatera Selatan 31625";"RW.keluarahan, Taba Jemekeh, Kec. Lubuk Linggau Tim. II, Kota Lubuklinggau";"SUMATERA SELATAN";"31625";"Indonesia";"";"";"";"-3.2834614";"102.8990724";"https://maps.google.com/?cid=0x0:0x4b3e1dbd406c0624";""
"komplek housing";"Komplek perumahan";"Hasanah residence Villy makeup";"PV8X+MGF, Taba Jemekeh, Kec. Lubuk Linggau Tim. I, Kota Lubuklinggau, Sumatera Selatan";"Kota Lubuklinggau, Sumatera Selatan";"SUMATERA SELATAN";"";"Indonesia";" 087777572399";"";"";"-3.2833138";"102.8988055";"https://maps.google.com/?cid=0x0:0x59ceb2e8bb99807a";""
"komplek housing";"Komplek perumahan";"Perumahan family land";"PVJW+V6M, Batu Urip, Kec. Lubuk Linggau Utara II, Kota Lubuklinggau, Sumatera Selatan";"Kota Lubuklinggau, Sumatera Selatan";"SUMATERA SELATAN";"";"Indonesia";" 082180177180";"";"";"-3.2679572";"102.8956633";"https://maps.google.com/?cid=0x0:0xa2373429259a9654";""
"komplek housing";"Komplek perumahan";"Rumah saya";"Jalan Nangka No.9, Ponorogo, Lubuk Linggau Utara Dua (Ii) (belakang SMPN 8, UTARA DUA (II, Sumatera Selatan 31627";"Ponorogo, Lubuk Linggau Utara Dua (Ii) (belakang SMPN 8, UTARA DUA (II";"SUMATERA SELATAN";"31627";"Indonesia";"";"";"";"-3.2781674";"102.8743099";"https://maps.google.com/?cid=0x0:0x40b34b6596a52cda";""
"komplek housing";"Komplek perumahan";"rumah";"PVCF+WJQ, Ponorogo, Kec. Lubuk Linggau Utara II, Kota Lubuklinggau, Sumatera Selatan";"Kota Lubuklinggau, Sumatera Selatan";"SUMATERA SELATAN";"";"Indonesia";"";"";"";"-3.2776688";"102.8740938";"https://maps.google.com/?cid=0x0:0x688da2d8ab56a681";""
"komplek housing";"Komplek perumahan";"Rumah Dinu Adelle F";"Jl. Mangga Dua Blok A6 No. 61 RT 01 Kel, Nikan Jaya, Kec. Lubuk Linggau Tim. I, Kota Lubuklinggau";"Kota Lubuklinggau, Sumatera Selatan";"SUMATERA SELATAN";"";"Indonesia";"";"";"";"-3.2851646";"102.8850667";"https://maps.google.com/?cid=0x0:0xefa0633951477600";""
"komplek housing";"Pembangunan Perumahan";"Tower telkom tabajemekehh";"Jl. Durian No.2, Taba Jemekeh, Kec. Lubuk Linggau Tim. I, Kota Lubuklinggau, Sumatera Selatan 31624";"Taba Jemekeh, Kec. Lubuk Linggau Tim. I, Kota Lubuklinggau";"SUMATERA SELATAN";"31624";"Indonesia";"";"";"";"-3.2888751";"102.8877323";"https://maps.google.com/?cid=0x0:0xd3a61c90b71e9285";""
"komplek housing";"Kantor Perusahaan";"Telkom";"PW9F+99V, Marga Mulya, Kec. Lubuk Linggau Sel. II, Kota Lubuklinggau, Sumatera Selatan";"Kota Lubuklinggau, Sumatera Selatan";"SUMATERA SELATAN";"";"Indonesia";"";"";"";"-3.2815164";"102.9234073";"https://maps.google.com/?cid=0x0:0xa49eb0e13c8a8f75";""
"komplek housing";"Asosiasi/organisasi";"Perumahan Family Land 2";"Jl. Sejahtera, Batu Urip Taba, Kec. Lubuk Linggau Tim. I, Kota Lubuklinggau, Sumatera Selatan";"Kota Lubuklinggau, Sumatera Selatan";"SUMATERA SELATAN";"";"Indonesia";"";"";"";"-3.2831538";"102.8927102";"https://maps.google.com/?cid=0x0:0x66486d8984d659e8";""
"komplek housing";"Komplek perumahan";"Perumahan family land";"PVJW+V6M, Batu Urip, Kec. Lubuk Linggau Utara II, Kota Lubuklinggau, Sumatera Selatan";"Kota Lubuklinggau, Sumatera Selatan";"SUMATERA SELATAN";"";"Indonesia";" 082180177180";"";"";"-3.2679572";"102.8956633";"https://maps.google.com/?cid=0x0:0xa2373429259a9654";""
"komplek housing";"Komplek perumahan";"Hasanah Residence 2 Blok C2";"Jl. Sejahtera No.166kel, RT.05, Batu Urip Taba, Kec. Lubuk Linggau Tim. I, Kota Lubuklinggau, Sumatera Selatan 31628";"RT.05, Batu Urip Taba, Kec. Lubuk Linggau Tim. I, Kota Lubuklinggau";"SUMATERA SELATAN";"31628";"Indonesia";"";"";"";"-3.2824844";"102.8968187";"https://maps.google.com/?cid=0x0:0x6c4a746aca0a9165";""
"komplek housing";"komplek housing";"Lubuklinggau";"Kota Lubuklinggau, Sumatera Selatan";"Kota Lubuklinggau, Sumatera Selatan";"SUMATERA SELATAN";"";"Indonesia";"";"";"";"-3.2995858";"102.857236";"https://maps.google.com/?cid=0x0:0x3039d80b220cc30";""
"komplek housing";"komplek housing";"Perumahan MBR Air Temam Madani Harapan Jaya Kota Lubuklinggau";"";"";"SUMATERA SELATAN";"";"Indonesia";" 085783627193";"";"";"-3.2996426";"102.8779769";"https://maps.google.com/?cid=0x0:0x382fdba5ba18f25e";""
"komplek housing";"Perhimpunan Pengembang Perumahan";"Top Bendera";"Simpang perumnas, Tj. Aman, Kec. Lubuk Linggau Bar. I, Kota Lubuklinggau, Sumatera Selatan 31614";"Tj. Aman, Kec. Lubuk Linggau Bar. I, Kota Lubuklinggau";"SUMATERA SELATAN";"31614";"Indonesia";"";"";"";"-3.3108752";"102.8451669";"https://maps.google.com/?cid=0x0:0x3f2e805bbeb6aa99";""
"komplek housing";"Komplek perumahan";"Shakila Residance";"Jalan Goa Batu No.Rt 07, Taba Jemekeh, Kec. Lubuk Linggau Tim. I, Kota Lubuklinggau, Sumatera Selatan";"Kota Lubuklinggau, Sumatera Selatan";"SUMATERA SELATAN";"";"Indonesia";" 082267671984";"";"";"-3.3008366";"102.8847641";"https://maps.google.com/?cid=0x0:0x12ba6771b0616e2a";""
"komplek housing";"Komplek perumahan";"Komplek";"Jl.Pengayoman No.37, Tapak Lebar, Kec. Lubuk Linggau Bar. II, Kota Lubuklinggau, Sumatera Selatan 31616";"Tapak Lebar, Kec. Lubuk Linggau Bar. II, Kota Lubuklinggau";"SUMATERA SELATAN";"31616";"Indonesia";"";"";"";"-3.2912577";"102.8546549";"https://maps.google.com/?cid=0x0:0x9594edf73eaac919";""
"komplek housing";"Komplek perumahan";"MODERN HILL RESIDENCE";"MVXX+9JM Tim, I, Taba Jemekeh, Kec. Lubuk Linggau Tim. I, Kota Lubuklinggau, Sumatera Selatan 31625";"I, Taba Jemekeh, Kec. Lubuk Linggau Tim. I, Kota Lubuklinggau";"SUMATERA SELATAN";"31625";"Indonesia";" 085381871070";"";"";"-3.3019756";"102.8988937";"https://maps.google.com/?cid=0x0:0x75b2cfaef0b588bb";""
"komplek housing";"Komplek perumahan";"Perumahan family land";"PVJW+V6M, Batu Urip, Kec. Lubuk Linggau Utara II, Kota Lubuklinggau, Sumatera Selatan";"Kota Lubuklinggau, Sumatera Selatan";"SUMATERA SELATAN";"";"Indonesia";" 082180177180";"";"";"-3.2679572";"102.8956633";"https://maps.google.com/?cid=0x0:0xa2373429259a9654";""
"komplek housing";"Pembangunan Perumahan";"Perumahan Shapire Estate";"PV2X+J4, Jl.Mochtar Amin, Taba Jemekeh, Kec.Linggau 1, Kota Lubuklinggau, Sumatera Selatan";"Kota Lubuklinggau, Sumatera Selatan";"SUMATERA SELATAN";"";"Indonesia";" 085268250578";"";"";"-3.2984375";"102.8978125";"https://maps.google.com/?cid=0x0:0x61bb299b9e80ff3b";""
"komplek housing";"komplek housing";"Grand Zuri Lubuklinggau by ZHM";"Jl. Yos Sudarso No.1, Batu Urip Taba, Kec. Lubuk Linggau Tim. I, Kota Lubuklinggau, Sumatera Selatan 31624";"Batu Urip Taba, Kec. Lubuk Linggau Tim. I, Kota Lubuklinggau";"SUMATERA SELATAN";"31624";"Indonesia";" 07337070222";"";"";"-3.2819357";"102.8889477";"https://maps.google.com/?cid=0x0:0xb9d17d256db8fc0d";""
"komplek housing";"komplek housing";"Burza Hotel Lubuklinggau";"Jl. Yos Sudarso No.143, Watervang, Kec. Lubuk Linggau Tim. I, Kota Lubuklinggau, Sumatera Selatan 31628";"Watervang, Kec. Lubuk Linggau Tim. I, Kota Lubuklinggau";"SUMATERA SELATAN";"31628";"Indonesia";" 07333280088";"";"";"-3.2776032";"102.8970972";"https://maps.google.com/?cid=0x0:0x4fb4e95f23ada624";""
"komplek housing";"komplek housing";"WE Hotel Lubuk Linggau";"Jl. Yos Sudarso No.70, RW.72, Taba Jemekeh, Kec. Lubuk Linggau Tim. I, Kota Lubuklinggau, Sumatera Selatan 31625";"RW.72, Taba Jemekeh, Kec. Lubuk Linggau Tim. I, Kota Lubuklinggau";"SUMATERA SELATAN";"31625";"Indonesia";" 07333286777";"";"";"-3.2874168";"102.8787931";"https://maps.google.com/?cid=0x0:0x8ae599c134802184";""
"komplek housing";"Tujuan Wisata";"Air Terjun Temam";"Jl. Air Temam, Rahmah, Kec. Lubuk Linggau Sel. I, Kota Lubuklinggau, Sumatera Selatan 31600";"Rahmah, Kec. Lubuk Linggau Sel. I, Kota Lubuklinggau";"SUMATERA SELATAN";"31600";"Indonesia";" 082175182223";"";"";"-3.2935625";"102.9300625";"https://maps.google.com/?cid=0x0:0x24b5109c6d325f46";""
"komplek housing";"Komplek perumahan";"Perumahan";"Jl lingar barat simpang 4, dekat jembatan gantung No.rt 06, Ulak Lebar, Kec. Lubuk Linggau Bar. II, Sumatera Selatan";"Kota Lubuklinggau, Sumatera Selatan";"SUMATERA SELATAN";"";"Indonesia";"";"";"";"-3.2936102";"102.8442937";"https://maps.google.com/?cid=0x0:0x6c184db2ecd19e2b";""
"komplek housing";"Hotel bintang 3";"Hotel Dewinda";"Jl. Yos Sudarso Komplek Ruko Caroline Winasta Blok Blok C1, Watervang, Kec. Lubuk Linggau Tim. I, Kota Lubuklinggau, Sumatera Selatan 31628";"Watervang, Kec. Lubuk Linggau Tim. I, Kota Lubuklinggau";"SUMATERA SELATAN";"31628";"Indonesia";" 07333285353";"";"";"-3.2755129";"102.9013407";"https://maps.google.com/?cid=0x0:0x9d0e5843430afa04";""
"komplek housing";"Perumahan";"Griya Pesona Linggau";"MVRG+PF7, Mesat Seni, Kec. Lubuk Linggau Tim. II, Kota Lubuklinggau, Sumatera Selatan 31613";"Mesat Seni, Kec. Lubuk Linggau Tim. II, Kota Lubuklinggau";"SUMATERA SELATAN";"31613";"Indonesia";"";"";"";"-3.3082208";"102.876171";"https://maps.google.com/?cid=0x0:0x4e3080fdd19f7b87";""
"komplek housing";"Pembangunan Perumahan";"Perumahan Griya Harmoni";"MRGV+M74, Lubuk Tj., Kec. Lubuk Linggau Bar. I, Kota Lubuklinggau, Sumatera Selatan 31615";"Lubuk Tj., Kec. Lubuk Linggau Bar. I, Kota Lubuklinggau";"SUMATERA SELATAN";"31615";"Indonesia";" 082178624593";"";"";"-3.3233747";"102.8432033";"https://maps.google.com/?cid=0x0:0x8b848f68460d877f";""
"komplek housing";"Perumahan";"PERUMAHAN BUKIT HIJAU SUKAJADI";"MVV4+25R, Bandung Ujung, Kec. Lubuk Linggau Bar. I, Kota Lubuklinggau, Sumatera Selatan 31614";"Bandung Ujung, Kec. Lubuk Linggau Bar. I, Kota Lubuklinggau";"SUMATERA SELATAN";"31614";"Indonesia";" 082180365007";"";"";"-3.3073997";"102.855381";"https://maps.google.com/?cid=0x0:0x69a3509b83e2e354";""
"komplek housing";"Perumahan";"Perumahan Griya Tanjung Sejahtera (GTS)";"Lubuk Tj., Kec. Lubuk Linggau Bar. I, Kota Lubuklinggau, Sumatera Selatan 31614";"Kec. Lubuk Linggau Bar. I, Kota Lubuklinggau";"SUMATERA SELATAN";"31614";"Indonesia";"";"";"";"-3.3163501";"102.8483572";"https://maps.google.com/?cid=0x0:0x5c4b4a09a9bd0607";""
"komplek housing";"Perhimpunan Pengembang Perumahan";"Perumahan 87 residence Lubuk Tanjung";"MVH3+H87, Unnamed Road, Lubuk Tj., Kec. Lubuk Linggau Bar. I, Kota Lubuklinggau, Sumatera Selatan 31614";"Unnamed Road, Lubuk Tj., Kec. Lubuk Linggau Bar. I, Kota Lubuklinggau";"SUMATERA SELATAN";"31614";"Indonesia";"";"";"";"-3.3210773";"102.853301";"https://maps.google.com/?cid=0x0:0x561be9e620b230d8";""
"komplek housing";"Pembangunan Perumahan";"Perumahan 87 Residence llg";"Jl.moch hasan No.kel, Lubuk Tj., Kec. Lubuk Linggau Bar. I, Kota Lubuklinggau, Sumatera Selatan 31625";"Lubuk Tj., Kec. Lubuk Linggau Bar. I, Kota Lubuklinggau";"SUMATERA SELATAN";"31625";"Indonesia";" 082168007887";"";"";"-3.2731042";"102.9229005";"https://maps.google.com/?cid=0x0:0x7f9ccf6b0f8f0eed";""
"komplek housing";"Pembangunan Perumahan";"Black Taba sejahtera";"PV6Q+QXX, Taba Jemekeh, Kec. Lubuk Linggau Tim. I, Kota Lubuklinggau, Sumatera Selatan";"Kota Lubuklinggau, Sumatera Selatan";"SUMATERA SELATAN";"";"Indonesia";"";"";"";"-3.2880181";"102.8899744";"https://maps.google.com/?cid=0x0:0xd99bc4cd7272c8f8";""
"komplek housing";"Pembangunan Perumahan";"Perumahan Madani Permai";"MRGV+PX5, Lubuk Tj., Kec. Lubuk Linggau Bar. I, Kota Lubuklinggau, Sumatera Selatan 31615";"Lubuk Tj., Kec. Lubuk Linggau Bar. I, Kota Lubuklinggau";"SUMATERA SELATAN";"31615";"Indonesia";" 0895603122193";"";"";"-3.3232299";"102.8449839";"https://maps.google.com/?cid=0x0:0x9f274273cec36f4a";""
"komplek housing";"Komplek perumahan";"Aidil Fitri Residence";"PWH5+FG7, gg. kutilang taba pingin, Jl. Yos Sudarso, Majapahit, Kec. Lubuk Linggau Tim. I, Kota Lubuklinggau, Sumatera Selatan 31625";"gg. kutilang taba pingin, Jl. Yos Sudarso, Majapahit, Kec. Lubuk Linggau Tim. I, Kota Lubuklinggau";"SUMATERA SELATAN";"31625";"Indonesia";" 081367579340";"";"";"-3.2713476";"102.908782";"https://maps.google.com/?cid=0x0:0xede1c65a99d2bc6e";""
"komplek housing";"komplek housing";"Kec. Lubuk Linggau Utara II";"Kota Lubuklinggau, Sumatera Selatan";"Kota Lubuklinggau, Sumatera Selatan";"SUMATERA SELATAN";"";"Indonesia";"";"";"";"-3.2803457";"102.8640062";"https://maps.google.com/?cid=0x0:0xfa4b3a2f62cf8e65";""
"komplek housing";"komplek housing";"Sumatera Selatan 31619";"Kec. Lubuk Linggau Utara I, Kota Lubuklinggau, Sumatera Selatan";"Kota Lubuklinggau, Sumatera Selatan";"SUMATERA SELATAN";"";"Indonesia";"";"";"";"-3.1810114";"102.9147742";"https://maps.google.com/?cid=0x0:0x4235b8e6f1a9fdb8";""
"komplek housing";"komplek housing";"Perumahan MBR Air Temam Madani Harapan Jaya Kota Lubuklinggau";"";"";"SUMATERA SELATAN";"";"Indonesia";" 085783627193";"";"";"-3.2996426";"102.8779769";"https://maps.google.com/?cid=0x0:0x382fdba5ba18f25e";""
"komplek housing";"Komplek perumahan";"Komplek perumahan";"PWGM+H6M, Tanah Periuk, Kec. Lubuk Linggau Sel. II, Kota Lubuklinggau, Sumatera Selatan 31625";"Tanah Periuk, Kec. Lubuk Linggau Sel. II, Kota Lubuklinggau";"SUMATERA SELATAN";"31625";"Indonesia";"";"";"";"-3.2733155";"102.9329645";"https://maps.google.com/?cid=0x0:0x633d1da01df68569";""
"komplek housing";"Komplek perumahan";"MODERN HILL RESIDENCE";"MVXX+9JM Tim, I, Taba Jemekeh, Kec. Lubuk Linggau Tim. I, Kota Lubuklinggau, Sumatera Selatan 31625";"I, Taba Jemekeh, Kec. Lubuk Linggau Tim. I, Kota Lubuklinggau";"SUMATERA SELATAN";"31625";"Indonesia";" 085381871070";"";"";"-3.3019756";"102.8988937";"https://maps.google.com/?cid=0x0:0x75b2cfaef0b588bb";""
"komplek housing";"Kantor Perusahaan";"PERUMAHAN AMRI PERSADA 1";"JL.PERBAKIN, Lubuk Tj., Kec. Lubuk Linggau Bar. I, Kota Lubuklinggau, Sumatera Selatan";"Kota Lubuklinggau, Sumatera Selatan";"SUMATERA SELATAN";"";"Indonesia";" 083173759097";"";"";"-3.3176839";"102.8384212";"https://maps.google.com/?cid=0x0:0x673e6938d6830a49";""
"komplek housing";"Pembangunan Perumahan";"Perumahan Griya Harmoni";"MRGV+M74, Lubuk Tj., Kec. Lubuk Linggau Bar. I, Kota Lubuklinggau, Sumatera Selatan 31615";"Lubuk Tj., Kec. Lubuk Linggau Bar. I, Kota Lubuklinggau";"SUMATERA SELATAN";"31615";"Indonesia";" 082178624593";"";"";"-3.3233747";"102.8432033";"https://maps.google.com/?cid=0x0:0x8b848f68460d877f";""
"komplek housing";"Toko grosir";"Indah";"PV89+WFQ, Unnamed Road, Kenanga, Kec. Lubuk Linggau Utara II, Kota Lubuklinggau, Sumatera Selatan 31613";"Unnamed Road, Kenanga, Kec. Lubuk Linggau Utara II, Kota Lubuklinggau";"SUMATERA SELATAN";"31613";"Indonesia";"";"";"";"-3.2826599";"102.8687481";"https://maps.google.com/?cid=0x0:0x9416d759a89aefc6";""
"komplek housing";"Pembangunan Perumahan";"Perumahan Graha Marga Mulya";"PWCH+X29, Marga Mulya, Kec. Lubuk Linggau Sel. II, Kota Lubuklinggau, Sumatera Selatan 31625";"Marga Mulya, Kec. Lubuk Linggau Sel. II, Kota Lubuklinggau";"SUMATERA SELATAN";"31625";"Indonesia";"";"";"";"-3.2775786";"102.9276041";"https://maps.google.com/?cid=0x0:0x3c3bcb9fe96a3650";""
"komplek housing";"Rumah Kayu";"Perumahan Pondok Indah Palem Lubuklinggau";"MVP7+22G, Unnamed Road, Sukajadi, Kec. Lubuk Linggau Bar. I, Kota Lubuklinggau, Sumatera Selatan 31614";"Unnamed Road, Sukajadi, Kec. Lubuk Linggau Bar. I, Kota Lubuklinggau";"SUMATERA SELATAN";"31614";"Indonesia";"";"";"";"-3.3149377";"102.8625752";"https://maps.google.com/?cid=0x0:0x9bd44f435c2a9989";""
"komplek housing";"Perumahan";"Graha Marga Mulya";"PWCG+VFH, Marga Mulya, Kec. Lubuk Linggau Sel. II, Kota Lubuklinggau, Sumatera Selatan 31625";"Marga Mulya, Kec. Lubuk Linggau Sel. II, Kota Lubuklinggau";"SUMATERA SELATAN";"31625";"Indonesia";"";"";"";"-3.2778183";"102.926222";"https://maps.google.com/?cid=0x0:0x9a3e9debf9a478c";""
"komplek housing";"Komplek perumahan";"Rumah linggau";"PWHM+9XM, Tanah Periuk, Kec. Lubuk Linggau Sel. II, Kota Lubuklinggau, Sumatera Selatan 31625";"Tanah Periuk, Kec. Lubuk Linggau Sel. II, Kota Lubuklinggau";"SUMATERA SELATAN";"31625";"Indonesia";"";"";"";"-3.2715404";"102.9349191";"https://maps.google.com/?cid=0x0:0x71c72531bc4409c6";""
"komplek housing";"Komplek perumahan";"Perumahan";"Jl. Asoka No.5, RT.10/RW.no 34, Marga Mulya, Kec. Lubuk Linggau Sel. II, Kota Lubuklinggau, Sumatera Selatan 31625";"RT.10/RW.no 34, Marga Mulya, Kec. Lubuk Linggau Sel. II, Kota Lubuklinggau";"SUMATERA SELATAN";"31625";"Indonesia";"";"";"";"-3.2701958";"102.9190069";"https://maps.google.com/?cid=0x0:0xe7572feb9949f666";""
"komplek housing";"Komplek perumahan";"Rumah Lubuklinggau";"Unnamed Road, Simpang Periuk, Kec. Lubuk Linggau Sel. II, Kota Lubuklinggau, Sumatera Selatan 31626";"Simpang Periuk, Kec. Lubuk Linggau Sel. II, Kota Lubuklinggau";"SUMATERA SELATAN";"31626";"Indonesia";"";"";"";"-3.2669918";"102.9413485";"https://maps.google.com/?cid=0x0:0x13e8ef12dd68df3c";""
"komplek housing";"Perumahan";"Griya Pesona Linggau";"MVRG+PF7, Mesat Seni, Kec. Lubuk Linggau Tim. II, Kota Lubuklinggau, Sumatera Selatan 31613";"Mesat Seni, Kec. Lubuk Linggau Tim. II, Kota Lubuklinggau";"SUMATERA SELATAN";"31613";"Indonesia";"";"";"";"-3.3082208";"102.876171";"https://maps.google.com/?cid=0x0:0x4e3080fdd19f7b87";""
"komplek housing";"Komplek perumahan";"Komplek";"Jl.Pengayoman No.37, Tapak Lebar, Kec. Lubuk Linggau Bar. II, Kota Lubuklinggau, Sumatera Selatan 31616";"Tapak Lebar, Kec. Lubuk Linggau Bar. II, Kota Lubuklinggau";"SUMATERA SELATAN";"31616";"Indonesia";"";"";"";"-3.2912577";"102.8546549";"https://maps.google.com/?cid=0x0:0x9594edf73eaac919";""
"komplek housing";"Komplek perumahan";"Komplek Perumahan Citra Regency";"PXH2+XP5, Lubuk Kupang, Kec. Lubuk Linggau Sel. I, Kota Lubuklinggau, Sumatera Selatan 31626";"Lubuk Kupang, Kec. Lubuk Linggau Sel. I, Kota Lubuklinggau";"SUMATERA SELATAN";"31626";"Indonesia";" 085381955575";"";"";"-3.2701108";"102.9518697";"https://maps.google.com/?cid=0x0:0xfa489e46f5239b2b";""
"komplek housing";"Pembangunan Perumahan";"Perumahan bintang timur satu";"Jl. Cereme, Cereme Taba, Kec. Lubuk Linggau Tim. II, Kota Lubuklinggau, Sumatera Selatan 31613";"Cereme Taba, Kec. Lubuk Linggau Tim. II, Kota Lubuklinggau";"SUMATERA SELATAN";"31613";"Indonesia";"";"";"";"-3.2909313";"102.8766221";"https://maps.google.com/?cid=0x0:0x805f90e4d331d9e0";""
"komplek housing";"Komplek perumahan";"Komplek Bintang Timur Satu (BTS)";"PV7M+HPG, Jl. Sejahtera, Taba Jemekeh, Kec. Lubuk Linggau Tim. I, Kota Lubuklinggau, Sumatera Selatan 31624";"Jl. Sejahtera, Taba Jemekeh, Kec. Lubuk Linggau Tim. I, Kota Lubuklinggau";"SUMATERA SELATAN";"31624";"Indonesia";"";"";"";"-3.2860645";"102.8843157";"https://maps.google.com/?cid=0x0:0xb765f07f1a6acb01";""
"komplek housing";"Perhimpunan Pengembang Perumahan";"Top Bendera";"Simpang perumnas, Tj. Aman, Kec. Lubuk Linggau Bar. I, Kota Lubuklinggau, Sumatera Selatan 31614";"Tj. Aman, Kec. Lubuk Linggau Bar. I, Kota Lubuklinggau";"SUMATERA SELATAN";"31614";"Indonesia";"";"";"";"-3.3108752";"102.8451669";"https://maps.google.com/?cid=0x0:0x3f2e805bbeb6aa99";""
"komplek housing";"Perhimpunan Pengembang Perumahan";"Rumah Okrie";"Jl. Irigasi Satu, Siring Agung, Kec. Lubuk Linggau Sel. II, Kota Lubuklinggau, Sumatera Selatan 31625";"Siring Agung, Kec. Lubuk Linggau Sel. II, Kota Lubuklinggau";"SUMATERA SELATAN";"31625";"Indonesia";" 082181948894";"";"";"-3.2570434";"102.9234335";"https://maps.google.com/?cid=0x0:0x94bc27180804254d";""
"komplek housing";"Pembangunan Perumahan";"Perumahan buana lestari";"satu(l, Jln lapter, perumahan buana lestari, jln H.kerim No.RT 05, Kec. Lubuk Linggau Tim. I, Sumatera Selatan";"Kota Lubuklinggau, Sumatera Selatan";"SUMATERA SELATAN";"";"Indonesia";"";"";"";"-3.286774";"102.908839";"https://maps.google.com/?cid=0x0:0x9c45cfcc77f1cbbf";""
"komplek housing";"komplek housing";"Hotel Dewinda";"Jl. Yos Sudarso Komplek Ruko Caroline Winasta Blok Blok C1, Watervang, Kec. Lubuk Linggau Tim. I, Kota Lubuklinggau, Sumatera Selatan 31628";"Watervang, Kec. Lubuk Linggau Tim. I, Kota Lubuklinggau";"SUMATERA SELATAN";"31628";"Indonesia";" 07333285353";"";"";"-3.2755129";"102.9013407";"https://maps.google.com/?cid=0x0:0x9d0e5843430afa04";""
"komplek housing";"komplek housing";"N/A";"";"";"SUMATERA SELATAN";"";"Indonesia";"";"";"";"";"";"https://maps.google.com/?cid=0x0:0x9d0e5843430afa04%7C/g/11f8y22mzg%7Cen-ID";""
"komplek housing";"komplek housing";"WE Hotel Lubuk Linggau";"Jl. Yos Sudarso No.70, RW.72, Taba Jemekeh, Kec. Lubuk Linggau Tim. I, Kota Lubuklinggau, Sumatera Selatan 31625";"RW.72, Taba Jemekeh, Kec. Lubuk Linggau Tim. I, Kota Lubuklinggau";"SUMATERA SELATAN";"31625";"Indonesia";" 07333286777";"";"";"-3.2874168";"102.8787931";"https://maps.google.com/?cid=0x0:0x8ae599c134802184";""
"komplek housing";"komplek housing";"AMAZING RIVERSIDE HOTEL";"Jl. Yos Sudarso No.13, Taba Jemekeh, Kec. Lubuk Linggau Tim. I, Kota Lubuklinggau, Sumatera Selatan 31624";"Taba Jemekeh, Kec. Lubuk Linggau Tim. I, Kota Lubuklinggau";"SUMATERA SELATAN";"31624";"Indonesia";" 07333283304";"";"";"-3.2871946";"102.880497";"https://maps.google.com/?cid=0x0:0xf49ca5b126d164b5";""
"komplek housing";"komplek housing";"Hotel Hakmaz Taba Lubuklinggau";"Jl. Yos Sudarso No.28, Majapahit, Kec. Lubuk Linggau Tim. I, Kota Lubuklinggau, Sumatera Selatan 31617";"Majapahit, Kec. Lubuk Linggau Tim. I, Kota Lubuklinggau";"SUMATERA SELATAN";"31617";"Indonesia";" 082128006576";"";"";"-3.2695926";"102.9100815";"https://maps.google.com/?cid=0x0:0xcd462dfb79459c73";""
"komplek housing";"komplek housing";"HOTEL AURA";"Jl. Yos Sudarso, Taba Jemekeh, Kec. Lubuk Linggau Tim. I, Kota Lubuklinggau, Sumatera Selatan 31624";"Taba Jemekeh, Kec. Lubuk Linggau Tim. I, Kota Lubuklinggau";"SUMATERA SELATAN";"31624";"Indonesia";" 089632684191";"";"";"-3.2845142";"102.8850475";"https://maps.google.com/?cid=0x0:0x805e6d8a3a4fb08";""
"komplek housing";"komplek housing";"SMart Hotel Lubuklinggau";"Jl. Yos Sudarso, Jawa Kanan Ss, Kec. Lubuk Linggau Tim. II, Kota Lubuklinggau, Sumatera Selatan 31621";"Jawa Kanan Ss, Kec. Lubuk Linggau Tim. II, Kota Lubuklinggau";"SUMATERA SELATAN";"31621";"Indonesia";" 0733320000";"";"";"-3.2952549";"102.8667876";"https://maps.google.com/?cid=0x0:0xb10a21c176d5ba15";""
"komplek housing";"komplek housing";"Hotel 929 Lubuk Linggau";"Jalan Soekarno-Hatta No.29 KM.5, Belalau I, Kec. Lubuk Linggau Utara I, Kota Lubuklinggau, Sumatera Selatan 31611";"Belalau I, Kec. Lubuk Linggau Utara I, Kota Lubuklinggau";"SUMATERA SELATAN";"31611";"Indonesia";" 0733325982";"";"";"-3.2526191";"102.8510512";"https://maps.google.com/?cid=0x0:0xed89c4b659fc5ac0";""
"komplek housing";"Komplek perumahan";"Perumahan Hasanah Residence blok G7";"Perumahan Hasanah Residence Blok A 08, Taba Jemekeh, Kec. Lubuk Linggau Tim. I, Kota Lubuklinggau, Sumatera Selatan";"Kota Lubuklinggau, Sumatera Selatan";"SUMATERA SELATAN";"";"Indonesia";"";"";"";"-3.2833296";"102.8987931";"https://maps.google.com/?cid=0x0:0x840472a6671b61ef";""
"komplek housing";"Komplek perumahan";"Perumahan Hasanah Residence Blok D2";"Jl. Beringin No.dalam, RW.keluarahan, Taba Jemekeh, Kec. Lubuk Linggau Tim. II, Kota Lubuklinggau, Sumatera Selatan 31625";"RW.keluarahan, Taba Jemekeh, Kec. Lubuk Linggau Tim. II, Kota Lubuklinggau";"SUMATERA SELATAN";"31625";"Indonesia";"";"";"";"-3.2834614";"102.8990724";"https://maps.google.com/?cid=0x0:0x4b3e1dbd406c0624";""
"komplek housing";"Komplek perumahan";"Hasanah residence Villy makeup";"PV8X+MGF, Taba Jemekeh, Kec. Lubuk Linggau Tim. I, Kota Lubuklinggau, Sumatera Selatan";"Kota Lubuklinggau, Sumatera Selatan";"SUMATERA SELATAN";"";"Indonesia";" 087777572399";"";"";"-3.2833138";"102.8988055";"https://maps.google.com/?cid=0x0:0x59ceb2e8bb99807a";""
"komplek housing";"komplek housing";"Kec. Lubuk Linggau Utara II";"Kota Lubuklinggau, Sumatera Selatan";"Kota Lubuklinggau, Sumatera Selatan";"SUMATERA SELATAN";"";"Indonesia";"";"";"";"-3.2803457";"102.8640062";"https://maps.google.com/?cid=0x0:0xfa4b3a2f62cf8e65";""
"komplek housing";"Komplek perumahan";"Perumahan As shofa residence";"QW44+5P4, Taba Pingin, Kec. Lubuk Linggau Sel. II, Kota Lubuklinggau, Sumatera Selatan";"Kota Lubuklinggau, Sumatera Selatan";"SUMATERA SELATAN";"";"Indonesia";"";"";"";"-3.2446107";"102.9068166";"https://maps.google.com/?cid=0x0:0xd3e8442b879d2857";""
"komplek housing";"Developer Rumah Hunian Khusus";"Perumahan as shofa residence bloa A 4";"Jl. Yos Sudarso No.03, Taba Jemekeh, Kec. Lubuk Linggau Tim. I, Kota Lubuklinggau, Sumatera Selatan 31625";"Taba Jemekeh, Kec. Lubuk Linggau Tim. I, Kota Lubuklinggau";"SUMATERA SELATAN";"31625";"Indonesia";"";"";"";"-3.2811317";"102.9030692";"https://maps.google.com/?cid=0x0:0x1a31c3b83047243";""
"komplek housing";"Pembangunan Perumahan";"Perumahan Griya Harmoni";"MRGV+M74, Lubuk Tj., Kec. Lubuk Linggau Bar. I, Kota Lubuklinggau, Sumatera Selatan 31615";"Lubuk Tj., Kec. Lubuk Linggau Bar. I, Kota Lubuklinggau";"SUMATERA SELATAN";"31615";"Indonesia";" 082178624593";"";"";"-3.3233747";"102.8432033";"https://maps.google.com/?cid=0x0:0x8b848f68460d877f";""
"komplek housing";"Komplek perumahan";"Rumah saya";"Jalan Nangka No.9, Ponorogo, Lubuk Linggau Utara Dua (Ii) (belakang SMPN 8, UTARA DUA (II, Sumatera Selatan 31627";"Ponorogo, Lubuk Linggau Utara Dua (Ii) (belakang SMPN 8, UTARA DUA (II";"SUMATERA SELATAN";"31627";"Indonesia";"";"";"";"-3.2781674";"102.8743099";"https://maps.google.com/?cid=0x0:0x40b34b6596a52cda";""
"komplek housing";"Komplek perumahan";"rumah";"PVCF+WJQ, Ponorogo, Kec. Lubuk Linggau Utara II, Kota Lubuklinggau, Sumatera Selatan";"Kota Lubuklinggau, Sumatera Selatan";"SUMATERA SELATAN";"";"Indonesia";"";"";"";"-3.2776688";"102.8740938";"https://maps.google.com/?cid=0x0:0x688da2d8ab56a681";""
"komplek housing";"komplek housing";"Lubuklinggau";"Kota Lubuklinggau, Sumatera Selatan";"Kota Lubuklinggau, Sumatera Selatan";"SUMATERA SELATAN";"";"Indonesia";"";"";"";"-3.2995858";"102.857236";"https://maps.google.com/?cid=0x0:0x3039d80b220cc30";""
"komplek housing";"Asosiasi/organisasi";"Perumahan Family Land 2";"Jl. Sejahtera, Batu Urip Taba, Kec. Lubuk Linggau Tim. I, Kota Lubuklinggau, Sumatera Selatan";"Kota Lubuklinggau, Sumatera Selatan";"SUMATERA SELATAN";"";"Indonesia";"";"";"";"-3.2831538";"102.8927102";"https://maps.google.com/?cid=0x0:0x66486d8984d659e8";""
"komplek housing";"Komplek perumahan";"Perumahan family land";"PVJW+V6M, Batu Urip, Kec. Lubuk Linggau Utara II, Kota Lubuklinggau, Sumatera Selatan";"Kota Lubuklinggau, Sumatera Selatan";"SUMATERA SELATAN";"";"Indonesia";" 082180177180";"";"";"-3.2679572";"102.8956633";"https://maps.google.com/?cid=0x0:0xa2373429259a9654";""
"komplek housing";"komplek housing";"Lubuklinggau";"Kota Lubuklinggau, Sumatera Selatan";"Kota Lubuklinggau, Sumatera Selatan";"SUMATERA SELATAN";"";"Indonesia";"";"";"";"-3.2995858";"102.857236";"https://maps.google.com/?cid=0x0:0x3039d80b220cc30";""
"komplek housing";"komplek housing";"Kec. Lubuk Linggau Utara II";"Kota Lubuklinggau, Sumatera Selatan";"Kota Lubuklinggau, Sumatera Selatan";"SUMATERA SELATAN";"";"Indonesia";"";"";"";"-3.2803457";"102.8640062";"https://maps.google.com/?cid=0x0:0xfa4b3a2f62cf8e65";""
"perumahan";"Perhimpunan Pengembang Perumahan";"Top Bendera";"Simpang perumnas, Tj. Aman, Kec. Lubuk Linggau Bar. I, Kota Lubuklinggau, Sumatera Selatan 31614";"Tj. Aman, Kec. Lubuk Linggau Bar. I, Kota Lubuklinggau";"SUMATERA SELATAN";"31614";"Indonesia";"";"";"";"-3.3108752";"102.8451669";"https://maps.google.com/?cid=0x0:0x3f2e805bbeb6aa99";""
"perumahan";"Perhimpunan Pengembang Perumahan";"PERUMDAM";"MRQQ+R75, Gg. Damai, Lubuk Tj., Kec. Lubuk Linggau Bar. I, Kota Lubuklinggau, Sumatera Selatan 31615";"Gg. Damai, Lubuk Tj., Kec. Lubuk Linggau Bar. I, Kota Lubuklinggau";"SUMATERA SELATAN";"31615";"Indonesia";"";"";"";"-3.310482";"102.8382451";"https://maps.google.com/?cid=0x0:0x53e87a1cfd220304";""
"perumahan";"Taman";"Pos bejol kolop";"MRPR+9W6, Jl. H. Yakin, Lubuk Tj., Kec. Lubuk Linggau Bar. I, Kota Lubuklinggau, Sumatera Selatan 31615";"Jl. H. Yakin, Lubuk Tj., Kec. Lubuk Linggau Bar. I, Kota Lubuklinggau";"SUMATERA SELATAN";"31615";"Indonesia";"";"";"";"-3.3140908";"102.8422626";"https://maps.google.com/?cid=0x0:0xc16fdcf496162ae6";""
"perumahan";"Pembangunan Perumahan";"Perum Green Garden Kayuara";"MRJJ+68H, Kayu Ara, Kec. Lubuk Linggau Bar. I, Kota Lubuklinggau, Sumatera Selatan 31611";"Kayu Ara, Kec. Lubuk Linggau Bar. I, Kota Lubuklinggau";"SUMATERA SELATAN";"31611";"Indonesia";"";"";"";"-3.3194384";"102.8308462";"https://maps.google.com/?cid=0x0:0xa5bfb1f668cbf4e4";""
"perumahan";"perumahan";"Perumahan MBR Air Temam Madani Harapan Jaya Kota Lubuklinggau";"";"";"SUMATERA SELATAN";"";"Indonesia";" 085783627193";"";"";"-3.2996426";"102.8779769";"https://maps.google.com/?cid=0x0:0x382fdba5ba18f25e";""
"perumahan";"Perumahan";"Perumahan Griya Tanjung Sejahtera (GTS)";"Lubuk Tj., Kec. Lubuk Linggau Bar. I, Kota Lubuklinggau, Sumatera Selatan 31614";"Kec. Lubuk Linggau Bar. I, Kota Lubuklinggau";"SUMATERA SELATAN";"31614";"Indonesia";"";"";"";"-3.3163501";"102.8483572";"https://maps.google.com/?cid=0x0:0x5c4b4a09a9bd0607";""
"perumahan";"Kafe";"Satu Hal Indonesia Coffee  Space Vol.002";"Jl. Garuda, Bandung Ujung, Kec. Lubuk Linggau Bar. I, Kota Lubuklinggau, Sumatera Selatan 31611";"Bandung Ujung, Kec. Lubuk Linggau Bar. I, Kota Lubuklinggau";"SUMATERA SELATAN";"31611";"Indonesia";" 082290555168";"";"";"-3.3023655";"102.8541804";"https://maps.google.com/?cid=0x0:0xeefe84a51f241f10";""
"perumahan";"perumahan";"Sumatera Selatan 31613";"Kota Lubuklinggau, Sumatera Selatan";"Kota Lubuklinggau, Sumatera Selatan";"SUMATERA SELATAN";"";"Indonesia";"";"";"";"-3.3091164";"102.8802479";"https://maps.google.com/?cid=0x0:0xb00fbf7ff80b17ba";""
"perumahan";"perumahan";"Perumahan MBR Air Temam Madani Harapan Jaya Kota Lubuklinggau";"";"";"SUMATERA SELATAN";"";"Indonesia";" 085783627193";"";"";"-3.2996426";"102.8779769";"https://maps.google.com/?cid=0x0:0x382fdba5ba18f25e";""
"perumahan";"Perhimpunan Pengembang Perumahan";"Top Bendera";"Simpang perumnas, Tj. Aman, Kec. Lubuk Linggau Bar. I, Kota Lubuklinggau, Sumatera Selatan 31614";"Tj. Aman, Kec. Lubuk Linggau Bar. I, Kota Lubuklinggau";"SUMATERA SELATAN";"31614";"Indonesia";"";"";"";"-3.3108752";"102.8451669";"https://maps.google.com/?cid=0x0:0x3f2e805bbeb6aa99";""
"perumahan";"Komplek perumahan";"Shakila Residance";"Jalan Goa Batu No.Rt 07, Taba Jemekeh, Kec. Lubuk Linggau Tim. I, Kota Lubuklinggau, Sumatera Selatan";"Kota Lubuklinggau, Sumatera Selatan";"SUMATERA SELATAN";"";"Indonesia";" 082267671984";"";"";"-3.3008366";"102.8847641";"https://maps.google.com/?cid=0x0:0x12ba6771b0616e2a";""
"perumahan";"perumahan";"Kec. Lubuk Linggau Bar. I";"Kota Lubuklinggau, Sumatera Selatan";"Kota Lubuklinggau, Sumatera Selatan";"SUMATERA SELATAN";"";"Indonesia";"";"";"";"-3.307821";"102.8464942";"https://maps.google.com/?cid=0x0:0x1ef773457c9af524";""
"perumahan";"Pembangunan Perumahan";"Perumahan bintang timur satu";"Jl. Cereme, Cereme Taba, Kec. Lubuk Linggau Tim. II, Kota Lubuklinggau, Sumatera Selatan 31613";"Cereme Taba, Kec. Lubuk Linggau Tim. II, Kota Lubuklinggau";"SUMATERA SELATAN";"31613";"Indonesia";"";"";"";"-3.2909313";"102.8766221";"https://maps.google.com/?cid=0x0:0x805f90e4d331d9e0";""
"perumahan";"Perumahan";"Perumahan Griya Tanjung Sejahtera (GTS)";"Lubuk Tj., Kec. Lubuk Linggau Bar. I, Kota Lubuklinggau, Sumatera Selatan 31614";"Kec. Lubuk Linggau Bar. I, Kota Lubuklinggau";"SUMATERA SELATAN";"31614";"Indonesia";"";"";"";"-3.3163501";"102.8483572";"https://maps.google.com/?cid=0x0:0x5c4b4a09a9bd0607";""
"perumahan";"Pembangunan Perumahan";"Perumahan Puri Marga Mulya";"Jl. Bima, Marga Mulya, Kec. Lubuk Linggau Sel. II, Kota Lubuklinggau, Sumatera Selatan 31625";"Marga Mulya, Kec. Lubuk Linggau Sel. II, Kota Lubuklinggau";"SUMATERA SELATAN";"31625";"Indonesia";" 082279423938";"";"";"-3.2806369";"102.9257938";"https://maps.google.com/?cid=0x0:0x40f3aa098e6b60ad";""
"perumahan";"Pembangunan Perumahan";"Perumahan Madani Permai";"MRGV+PX5, Lubuk Tj., Kec. Lubuk Linggau Bar. I, Kota Lubuklinggau, Sumatera Selatan 31615";"Lubuk Tj., Kec. Lubuk Linggau Bar. I, Kota Lubuklinggau";"SUMATERA SELATAN";"31615";"Indonesia";" 0895603122193";"";"";"-3.3232299";"102.8449839";"https://maps.google.com/?cid=0x0:0x9f274273cec36f4a";""
"perumahan";"Asosiasi/organisasi";"Perumahan Family Land 2";"Jl. Sejahtera, Batu Urip Taba, Kec. Lubuk Linggau Tim. I, Kota Lubuklinggau, Sumatera Selatan";"Kota Lubuklinggau, Sumatera Selatan";"SUMATERA SELATAN";"";"Indonesia";"";"";"";"-3.2831538";"102.8927102";"https://maps.google.com/?cid=0x0:0x66486d8984d659e8";""
"perumahan";"Kafe";"Satu Hal Indonesia Coffee  Space Vol.002";"Jl. Garuda, Bandung Ujung, Kec. Lubuk Linggau Bar. I, Kota Lubuklinggau, Sumatera Selatan 31611";"Bandung Ujung, Kec. Lubuk Linggau Bar. I, Kota Lubuklinggau";"SUMATERA SELATAN";"31611";"Indonesia";" 082290555168";"";"";"-3.3023655";"102.8541804";"https://maps.google.com/?cid=0x0:0xeefe84a51f241f10";""
"perumahan";"Toko Elektronik";"SERLI PELANGI GROSIR";"Jl. Lakitan No.102, Ps. Satelit, Kec. Lubuk Linggau Utara II, Kota Lubuklinggau, Sumatera Selatan 31613";"Ps. Satelit, Kec. Lubuk Linggau Utara II, Kota Lubuklinggau";"SUMATERA SELATAN";"31613";"Indonesia";"";"";"";"-3.2858825";"102.8594052";"https://maps.google.com/?cid=0x0:0xecea0dbf39e580fe";""
"perumahan";"Perumahan";"PERUMAHAN BUKIT HIJAU SUKAJADI";"MVV4+25R, Bandung Ujung, Kec. Lubuk Linggau Bar. I, Kota Lubuklinggau, Sumatera Selatan 31614";"Bandung Ujung, Kec. Lubuk Linggau Bar. I, Kota Lubuklinggau";"SUMATERA SELATAN";"31614";"Indonesia";" 082180365007";"";"";"-3.3073997";"102.855381";"https://maps.google.com/?cid=0x0:0x69a3509b83e2e354";""
"perumahan";"Pusat Perbelanjaan";"SERLI PELANGI";"Ulak Surung, Kec. Lubuk Linggau Utara II, Kota Lubuklinggau, Sumatera Selatan 31613";"Kec. Lubuk Linggau Utara II, Kota Lubuklinggau";"SUMATERA SELATAN";"31613";"Indonesia";" 082282022163";"";"";"-3.2851804";"102.8588653";"https://maps.google.com/?cid=0x0:0x1a6e08585dd8a9de";""
"perumahan";"Komplek perumahan";"Perumahan family land";"PVJW+V6M, Batu Urip, Kec. Lubuk Linggau Utara II, Kota Lubuklinggau, Sumatera Selatan";"Kota Lubuklinggau, Sumatera Selatan";"SUMATERA SELATAN";"";"Indonesia";" 082180177180";"";"";"-3.2679572";"102.8956633";"https://maps.google.com/?cid=0x0:0xa2373429259a9654";""
"perumahan";"Rumah Sakit";"RS AR Bunda Lubuklinggau";"Jl. Garuda No.245, Bandung Kiri, Kec. Lubuk Linggau Bar. I, Kota Lubuklinggau, Sumatera Selatan 31613";"Bandung Kiri, Kec. Lubuk Linggau Bar. I, Kota Lubuklinggau";"SUMATERA SELATAN";"31613";"Indonesia";" 0733324986";"";"";"-3.2977113";"102.8613423";"https://maps.google.com/?cid=0x0:0x270587c6c1ec1b83";""
"perumahan";"perumahan";"Sumatera Selatan";"";"Sumatera Selatan";"SUMATERA SELATAN";"";"Indonesia";"";"";"";"-3.3194374";"103.914399";"https://maps.google.com/?cid=0x0:0x18fc8101e201c4cf";""
"perumahan";"Perumahan";"Perumahan Griya Tanjung Sejahtera (GTS)";"Lubuk Tj., Kec. Lubuk Linggau Bar. I, Kota Lubuklinggau, Sumatera Selatan 31614";"Kec. Lubuk Linggau Bar. I, Kota Lubuklinggau";"SUMATERA SELATAN";"31614";"Indonesia";"";"";"";"-3.3163501";"102.8483572";"https://maps.google.com/?cid=0x0:0x5c4b4a09a9bd0607";""
"perumahan";"Perhimpunan Pengembang Perumahan";"Top Bendera";"Simpang perumnas, Tj. Aman, Kec. Lubuk Linggau Bar. I, Kota Lubuklinggau, Sumatera Selatan 31614";"Tj. Aman, Kec. Lubuk Linggau Bar. I, Kota Lubuklinggau";"SUMATERA SELATAN";"31614";"Indonesia";"";"";"";"-3.3108752";"102.8451669";"https://maps.google.com/?cid=0x0:0x3f2e805bbeb6aa99";""
"perumahan";"Pembangunan Perumahan";"Perumahan Madani Permai";"MRGV+PX5, Lubuk Tj., Kec. Lubuk Linggau Bar. I, Kota Lubuklinggau, Sumatera Selatan 31615";"Lubuk Tj., Kec. Lubuk Linggau Bar. I, Kota Lubuklinggau";"SUMATERA SELATAN";"31615";"Indonesia";" 0895603122193";"";"";"-3.3232299";"102.8449839";"https://maps.google.com/?cid=0x0:0x9f274273cec36f4a";""
"perumahan";"Perumahan";"PERUMAHAN BUKIT HIJAU SUKAJADI";"MVV4+25R, Bandung Ujung, Kec. Lubuk Linggau Bar. I, Kota Lubuklinggau, Sumatera Selatan 31614";"Bandung Ujung, Kec. Lubuk Linggau Bar. I, Kota Lubuklinggau";"SUMATERA SELATAN";"31614";"Indonesia";" 082180365007";"";"";"-3.3073997";"102.855381";"https://maps.google.com/?cid=0x0:0x69a3509b83e2e354";""
"perumahan";"Rumah Sakit";"RS AR Bunda Lubuklinggau";"Jl. Garuda No.245, Bandung Kiri, Kec. Lubuk Linggau Bar. I, Kota Lubuklinggau, Sumatera Selatan 31613";"Bandung Kiri, Kec. Lubuk Linggau Bar. I, Kota Lubuklinggau";"SUMATERA SELATAN";"31613";"Indonesia";" 0733324986";"";"";"-3.2977113";"102.8613423";"https://maps.google.com/?cid=0x0:0x270587c6c1ec1b83";""
"perumahan";"Komplek perumahan";"Kompleks Perum Graha Silampari No 6 Lubuk Linggau";"PWPV+CH8, Simpang Periuk, Kec. Lubuk Linggau Sel. II, Kota Lubuklinggau, Sumatera Selatan 31626";"Simpang Periuk, Kec. Lubuk Linggau Sel. II, Kota Lubuklinggau";"SUMATERA SELATAN";"31626";"Indonesia";" 089527898888";"";"";"-3.2639528";"102.9439471";"https://maps.google.com/?cid=0x0:0x1d827bdaaa56c686";""
"perumahan";"Pembangunan Perumahan";"Perumahan Harapan Jaya";"PV3V+Q2X, Taba Jemekeh, Kec. Lubuk Linggau Tim. I, Kota Lubuklinggau, Sumatera Selatan 31624";"Taba Jemekeh, Kec. Lubuk Linggau Tim. I, Kota Lubuklinggau";"SUMATERA SELATAN";"31624";"Indonesia";" 082384655655";"";"";"-3.2955008";"102.8926217";"https://maps.google.com/?cid=0x0:0x4819773e64c4a30b";""
"perumahan";"Pembangunan Perumahan";"Perumahan bintang timur satu";"Jl. Cereme, Cereme Taba, Kec. Lubuk Linggau Tim. II, Kota Lubuklinggau, Sumatera Selatan 31613";"Cereme Taba, Kec. Lubuk Linggau Tim. II, Kota Lubuklinggau";"SUMATERA SELATAN";"31613";"Indonesia";"";"";"";"-3.2909313";"102.8766221";"https://maps.google.com/?cid=0x0:0x805f90e4d331d9e0";""
"perumahan";"Komplek perumahan";"Perumahan";"Jl lingar barat simpang 4, dekat jembatan gantung No.rt 06, Ulak Lebar, Kec. Lubuk Linggau Bar. II, Sumatera Selatan";"Kota Lubuklinggau, Sumatera Selatan";"SUMATERA SELATAN";"";"Indonesia";"";"";"";"-3.2936102";"102.8442937";"https://maps.google.com/?cid=0x0:0x6c184db2ecd19e2b";""
"perumahan";"perumahan";"Kec. Lubuk Linggau Bar. I";"Kota Lubuklinggau, Sumatera Selatan";"Kota Lubuklinggau, Sumatera Selatan";"SUMATERA SELATAN";"";"Indonesia";"";"";"";"-3.307821";"102.8464942";"https://maps.google.com/?cid=0x0:0x1ef773457c9af524";""
"perumahan";"Penginapan Dalam Ruangan";"Kontrakan Ibu DPR";"MRRX+6JV, Jalan Damar (Depan Tanah Lapang, RT.007, Tanjung Aman, Lubuk Linggau Barat I, Lubuklinggau City, South Sumatra 31614";"Jalan Damar (Depan Tanah Lapang, RT.007, Tanjung Aman, Lubuk Linggau Barat I, Lubuklinggau City";"SUMATERA SELATAN";"31614";"Indonesia";"";"";"";"-3.3093897";"102.8490579";"https://maps.google.com/?cid=0x0:0xccff62e686336c6f";""
"perumahan";"perumahan";"Sumatera Selatan 31615";"Kec. Lubuk Linggau Bar. I, Kota Lubuklinggau, Sumatera Selatan";"Kota Lubuklinggau, Sumatera Selatan";"SUMATERA SELATAN";"";"Indonesia";"";"";"";"-3.2903549";"102.8112253";"https://maps.google.com/?cid=0x0:0x7ab255c49e507bc0";""
"perumahan";"Perhimpunan Pengembang Perumahan";"Top Bendera";"Simpang perumnas, Tj. Aman, Kec. Lubuk Linggau Bar. I, Kota Lubuklinggau, Sumatera Selatan 31614";"Tj. Aman, Kec. Lubuk Linggau Bar. I, Kota Lubuklinggau";"SUMATERA SELATAN";"31614";"Indonesia";"";"";"";"-3.3108752";"102.8451669";"https://maps.google.com/?cid=0x0:0x3f2e805bbeb6aa99";""
"perumahan";"Perumahan";"Perumahan Griya Tanjung Sejahtera (GTS)";"Lubuk Tj., Kec. Lubuk Linggau Bar. I, Kota Lubuklinggau, Sumatera Selatan 31614";"Kec. Lubuk Linggau Bar. I, Kota Lubuklinggau";"SUMATERA SELATAN";"31614";"Indonesia";"";"";"";"-3.3163501";"102.8483572";"https://maps.google.com/?cid=0x0:0x5c4b4a09a9bd0607";""
"perumahan";"perumahan";"Kec. Lubuk Linggau Bar. I";"Kota Lubuklinggau, Sumatera Selatan";"Kota Lubuklinggau, Sumatera Selatan";"SUMATERA SELATAN";"";"Indonesia";"";"";"";"-3.307821";"102.8464942";"https://maps.google.com/?cid=0x0:0x1ef773457c9af524";""
"perumahan";"Pembangunan Perumahan";"Perumahan Madani Permai";"MRGV+PX5, Lubuk Tj., Kec. Lubuk Linggau Bar. I, Kota Lubuklinggau, Sumatera Selatan 31615";"Lubuk Tj., Kec. Lubuk Linggau Bar. I, Kota Lubuklinggau";"SUMATERA SELATAN";"31615";"Indonesia";" 0895603122193";"";"";"-3.3232299";"102.8449839";"https://maps.google.com/?cid=0x0:0x9f274273cec36f4a";""
"perumahan";"Pembangunan Perumahan";"Villa Kenanga Indah";"PVCJ+37V, Batu Urip, Kec. Lubuk Linggau Utara II, Kota Lubuklinggau, Sumatera Selatan 31624";"Batu Urip, Kec. Lubuk Linggau Utara II, Kota Lubuklinggau";"SUMATERA SELATAN";"31624";"Indonesia";" 085267733429";"";"";"-3.2797557";"102.880658";"https://maps.google.com/?cid=0x0:0x9615ed42a3b60a73";""
"perumahan";"Komplek perumahan";"Perumahan Beverrly hils";"PVQP+56H, Batu Urip, Kec. Lubuk Linggau Utara II, Kota Lubuklinggau, Sumatera Selatan";"Kota Lubuklinggau, Sumatera Selatan";"SUMATERA SELATAN";"";"Indonesia";"";"";"";"-3.2630219";"102.8863275";"https://maps.google.com/?cid=0x0:0x990a34a0f6b20dd7";""
"perumahan";"Pembangunan Perumahan";"Perumahan Puri Marga Mulya";"Jl. Bima, Marga Mulya, Kec. Lubuk Linggau Sel. II, Kota Lubuklinggau, Sumatera Selatan 31625";"Marga Mulya, Kec. Lubuk Linggau Sel. II, Kota Lubuklinggau";"SUMATERA SELATAN";"31625";"Indonesia";" 082279423938";"";"";"-3.2806369";"102.9257938";"https://maps.google.com/?cid=0x0:0x40f3aa098e6b60ad";""
"perumahan";"Perumahan";"PERUMAHAN BUKIT HIJAU SUKAJADI";"MVV4+25R, Bandung Ujung, Kec. Lubuk Linggau Bar. I, Kota Lubuklinggau, Sumatera Selatan 31614";"Bandung Ujung, Kec. Lubuk Linggau Bar. I, Kota Lubuklinggau";"SUMATERA SELATAN";"31614";"Indonesia";" 082180365007";"";"";"-3.3073997";"102.855381";"https://maps.google.com/?cid=0x0:0x69a3509b83e2e354";""
"perumahan";"Asosiasi/organisasi";"Perumahan Family Land 2";"Jl. Sejahtera, Batu Urip Taba, Kec. Lubuk Linggau Tim. I, Kota Lubuklinggau, Sumatera Selatan";"Kota Lubuklinggau, Sumatera Selatan";"SUMATERA SELATAN";"";"Indonesia";"";"";"";"-3.2831538";"102.8927102";"https://maps.google.com/?cid=0x0:0x66486d8984d659e8";""
"perumahan";"Komplek perumahan";"MODERN HILL RESIDENCE";"MVXX+9JM Tim, I, Taba Jemekeh, Kec. Lubuk Linggau Tim. I, Kota Lubuklinggau, Sumatera Selatan 31625";"I, Taba Jemekeh, Kec. Lubuk Linggau Tim. I, Kota Lubuklinggau";"SUMATERA SELATAN";"31625";"Indonesia";" 085381871070";"";"";"-3.3019756";"102.8988937";"https://maps.google.com/?cid=0x0:0x75b2cfaef0b588bb";""
"perumahan";"Komplek perumahan";"Mutiara Sirdam Residence";"PVJX+PPP, Batu Urip, Kec. Lubuk Linggau Utara II, Kota Lubuklinggau, Sumatera Selatan 31625";"Batu Urip, Kec. Lubuk Linggau Utara II, Kota Lubuklinggau";"SUMATERA SELATAN";"31625";"Indonesia";"";"";"";"-3.2681657";"102.899324";"https://maps.google.com/?cid=0x0:0x764c37ff1a1bff07";""
"perumahan";"Ayam";"Rumah Makan Ayam Telat";"Jl. Garuda No.55, Watas Lubuk Durian, Kec. Lubuk Linggau Bar. I, Kota Lubuklinggau, Sumatera Selatan 31615";"Watas Lubuk Durian, Kec. Lubuk Linggau Bar. I, Kota Lubuklinggau";"SUMATERA SELATAN";"31615";"Indonesia";" 085377677541";"";"";"-3.3300143";"102.824129";"https://maps.google.com/?cid=0x0:0xa135a2800d178ab7";""
"perumahan";"Komplek perumahan";"Perumahan family land";"PVJW+V6M, Batu Urip, Kec. Lubuk Linggau Utara II, Kota Lubuklinggau, Sumatera Selatan";"Kota Lubuklinggau, Sumatera Selatan";"SUMATERA SELATAN";"";"Indonesia";" 082180177180";"";"";"-3.2679572";"102.8956633";"https://maps.google.com/?cid=0x0:0xa2373429259a9654";""
"perumahan";"Komplek perumahan";"Rumah";"Jl. Pembangunan No.535, RT.06, Lubuk Aman, Kec. Lubuk Linggau Bar. I, Kota Lubuklinggau, Sumatera Selatan 31614";"RT.06, Lubuk Aman, Kec. Lubuk Linggau Bar. I, Kota Lubuklinggau";"SUMATERA SELATAN";"31614";"Indonesia";"";"";"";"-3.3028713";"102.8465162";"https://maps.google.com/?cid=0x0:0x3c85d5556da21168";""
"perumahan";"perumahan";"Sumatera Selatan 31611";"Kota Lubuklinggau, Sumatera Selatan";"Kota Lubuklinggau, Sumatera Selatan";"SUMATERA SELATAN";"";"Indonesia";"";"";"";"-3.2702468";"102.8457316";"https://maps.google.com/?cid=0x0:0xcddd419871e601f5";""
"perumahan";"Komplek perumahan";"Rumah warga";"Utara II (dua, Jl. Karya Bakti Gg. Baru No.Rt. 04, Ulak Surung, Kec. Lubuk Linggau Utara II, Kota Lubuklinggau, Sumatera Selatan 31613";"Jl. Karya Bakti Gg. Baru No.Rt. 04, Ulak Surung, Kec. Lubuk Linggau Utara II, Kota Lubuklinggau";"SUMATERA SELATAN";"31613";"Indonesia";"";"";"";"-3.2889845";"102.8609132";"https://maps.google.com/?cid=0x0:0xe7381f6f5ff22a1f";""
"perumahan";"Komplek perumahan";"Rumah saya";"Jalan Nangka No.9, Ponorogo, Lubuk Linggau Utara Dua (Ii) (belakang SMPN 8, UTARA DUA (II, Sumatera Selatan 31627";"Ponorogo, Lubuk Linggau Utara Dua (Ii) (belakang SMPN 8, UTARA DUA (II";"SUMATERA SELATAN";"31627";"Indonesia";"";"";"";"-3.2781674";"102.8743099";"https://maps.google.com/?cid=0x0:0x40b34b6596a52cda";""
"perumahan";"perumahan";"Perumahan MBR Air Temam Madani Harapan Jaya Kota Lubuklinggau";"";"";"SUMATERA SELATAN";"";"Indonesia";" 085783627193";"";"";"-3.2996426";"102.8779769";"https://maps.google.com/?cid=0x0:0x382fdba5ba18f25e";""
"perumahan";"Asosiasi/organisasi";"Perumahan Family Land 2";"Jl. Sejahtera, Batu Urip Taba, Kec. Lubuk Linggau Tim. I, Kota Lubuklinggau, Sumatera Selatan";"Kota Lubuklinggau, Sumatera Selatan";"SUMATERA SELATAN";"";"Indonesia";"";"";"";"-3.2831538";"102.8927102";"https://maps.google.com/?cid=0x0:0x66486d8984d659e8";""
"perumahan";"Brunch";"RUMAH MAKAN DUA PUTRI";"Jl. Garuda Putih, Ps. Permiri, Kec. Lubuk Linggau Bar. II, Kota Lubuklinggau, Sumatera Selatan 31611";"Ps. Permiri, Kec. Lubuk Linggau Bar. II, Kota Lubuklinggau";"SUMATERA SELATAN";"31611";"Indonesia";"";"";"";"-3.2955851";"102.8614933";"https://maps.google.com/?cid=0x0:0x291ae2a7628bef6e";""
"perumahan";"Pembangunan Perumahan";"Rumah";"PV26+V56, Jl. Kopral Makruf, Bandung Kiri, Kec. Lubuk Linggau Bar. I, Kota Lubuklinggau, Sumatera Selatan 31613";"Jl. Kopral Makruf, Bandung Kiri, Kec. Lubuk Linggau Bar. I, Kota Lubuklinggau";"SUMATERA SELATAN";"31613";"Indonesia";"";"";"";"-3.2978443";"102.8603968";"https://maps.google.com/?cid=0x0:0x759c94d319a1dd5f";""
"perumahan";"Komplek perumahan";"Rumah warga";"Utara II (dua, Jl. Karya Bakti Gg. Baru No.Rt. 04, Ulak Surung, Kec. Lubuk Linggau Utara II, Kota Lubuklinggau, Sumatera Selatan 31613";"Jl. Karya Bakti Gg. Baru No.Rt. 04, Ulak Surung, Kec. Lubuk Linggau Utara II, Kota Lubuklinggau";"SUMATERA SELATAN";"31613";"Indonesia";"";"";"";"-3.2889845";"102.8609132";"https://maps.google.com/?cid=0x0:0xe7381f6f5ff22a1f";""
"perumahan";"Pembangunan Perumahan";"Rumah";"PV26+V56, Jl. Kopral Makruf, Bandung Kiri, Kec. Lubuk Linggau Bar. I, Kota Lubuklinggau, Sumatera Selatan 31613";"Jl. Kopral Makruf, Bandung Kiri, Kec. Lubuk Linggau Bar. I, Kota Lubuklinggau";"SUMATERA SELATAN";"31613";"Indonesia";"";"";"";"-3.2978443";"102.8603968";"https://maps.google.com/?cid=0x0:0x759c94d319a1dd5f";""
"perumahan";"Pembangunan Perumahan";"Perumahan Nusa Indah Selatan Dua";"Jl. Kalur Kel. Marga Rahayu Kec, Marga Rahayu, Kec. Lubuk Linggau Sel. II, Kota Lubuklinggau, Sumatera Selatan 31625";"Marga Rahayu, Kec. Lubuk Linggau Sel. II, Kota Lubuklinggau";"SUMATERA SELATAN";"31625";"Indonesia";" 081294797388";"";"";"-3.2638011";"102.9238681";"https://maps.google.com/?cid=0x0:0x31983a1f39771551";""
"perumahan";"Bengkel Mobil";"Bengkel mobil pangilan";"Jalan kalur No.Rt. 11, Marga Rahayu, Kec. Lubuk Linggau Sel. II, Kota Lubuklinggau, Sumatera Selatan 31625";"Marga Rahayu, Kec. Lubuk Linggau Sel. II, Kota Lubuklinggau";"SUMATERA SELATAN";"31625";"Indonesia";" 088286096675";"";"";"-3.2640272";"102.9240917";"https://maps.google.com/?cid=0x0:0x74b62698eb405652";""
"perumahan";"Asosiasi/organisasi";"Perumahan Family Land 2";"Jl. Sejahtera, Batu Urip Taba, Kec. Lubuk Linggau Tim. I, Kota Lubuklinggau, Sumatera Selatan";"Kota Lubuklinggau, Sumatera Selatan";"SUMATERA SELATAN";"";"Indonesia";"";"";"";"-3.2831538";"102.8927102";"https://maps.google.com/?cid=0x0:0x66486d8984d659e8";""
"perumahan";"Komplek perumahan";"Perumahan family land";"PVJW+V6M, Batu Urip, Kec. Lubuk Linggau Utara II, Kota Lubuklinggau, Sumatera Selatan";"Kota Lubuklinggau, Sumatera Selatan";"SUMATERA SELATAN";"";"Indonesia";" 082180177180";"";"";"-3.2679572";"102.8956633";"https://maps.google.com/?cid=0x0:0xa2373429259a9654";""
"perumahan";"perumahan";"Kec. Lubuk Linggau Tim. I";"Kota Lubuklinggau, Sumatera Selatan";"Kota Lubuklinggau, Sumatera Selatan";"SUMATERA SELATAN";"";"Indonesia";"";"";"";"-3.2839382";"102.8855843";"https://maps.google.com/?cid=0x0:0x3178fe8fb8900081";""
"perumahan";"Komplek perumahan";"Perumahan Bintang Timur 1";"PV5J+RW9, Jl. Sejahtera, Taba Jemekeh, Kec. Lubuk Linggau Tim. I, Kota Lubuklinggau, Sumatera Selatan 31624";"Jl. Sejahtera, Taba Jemekeh, Kec. Lubuk Linggau Tim. I, Kota Lubuklinggau";"SUMATERA SELATAN";"31624";"Indonesia";"";"";"";"-3.2904593";"102.8823747";"https://maps.google.com/?cid=0x0:0x48aa9f55d8ed1d2f";""
"perumahan";"Pembangunan Perumahan";"Villa Kenanga Indah";"PVCJ+37V, Batu Urip, Kec. Lubuk Linggau Utara II, Kota Lubuklinggau, Sumatera Selatan 31624";"Batu Urip, Kec. Lubuk Linggau Utara II, Kota Lubuklinggau";"SUMATERA SELATAN";"31624";"Indonesia";" 085267733429";"";"";"-3.2797557";"102.880658";"https://maps.google.com/?cid=0x0:0x9615ed42a3b60a73";""
"perumahan";"Pembangunan Perumahan";"Perumahan Puri Marga Mulya";"Jl. Bima, Marga Mulya, Kec. Lubuk Linggau Sel. II, Kota Lubuklinggau, Sumatera Selatan 31625";"Marga Mulya, Kec. Lubuk Linggau Sel. II, Kota Lubuklinggau";"SUMATERA SELATAN";"31625";"Indonesia";" 082279423938";"";"";"-3.2806369";"102.9257938";"https://maps.google.com/?cid=0x0:0x40f3aa098e6b60ad";""
"perumahan";"Asosiasi/organisasi";"Perumahan Family Land 2";"Jl. Sejahtera, Batu Urip Taba, Kec. Lubuk Linggau Tim. I, Kota Lubuklinggau, Sumatera Selatan";"Kota Lubuklinggau, Sumatera Selatan";"SUMATERA SELATAN";"";"Indonesia";"";"";"";"-3.2831538";"102.8927102";"https://maps.google.com/?cid=0x0:0x66486d8984d659e8";""
"perumahan";"Komplek perumahan";"Perumahan cindo nihan";"PVJW+CJ3, Jl. M.Arif, Batu Urip, Kec. Lubuk Linggau Utara II, Kota Lubuklinggau, Sumatera Selatan 31625";"Jl. M.Arif, Batu Urip, Kec. Lubuk Linggau Utara II, Kota Lubuklinggau";"SUMATERA SELATAN";"31625";"Indonesia";"";"";"";"-3.268984";"102.8965449";"https://maps.google.com/?cid=0x0:0x2e048fe4c7c835f8";""
"perumahan";"Komplek perumahan";"Komplek perumahan";"PWGM+H6M, Tanah Periuk, Kec. Lubuk Linggau Sel. II, Kota Lubuklinggau, Sumatera Selatan 31625";"Tanah Periuk, Kec. Lubuk Linggau Sel. II, Kota Lubuklinggau";"SUMATERA SELATAN";"31625";"Indonesia";"";"";"";"-3.2733155";"102.9329645";"https://maps.google.com/?cid=0x0:0x633d1da01df68569";""
"perumahan";"Kantor Perusahaan";"PERUMAHAN AMRI PERSADA 1";"JL.PERBAKIN, Lubuk Tj., Kec. Lubuk Linggau Bar. I, Kota Lubuklinggau, Sumatera Selatan";"Kota Lubuklinggau, Sumatera Selatan";"SUMATERA SELATAN";"";"Indonesia";" 083173759097";"";"";"-3.3176839";"102.8384212";"https://maps.google.com/?cid=0x0:0x673e6938d6830a49";""
"perumahan";"Komplek perumahan";"Perumahan";"Jl. Asoka No.5, RT.10/RW.no 34, Marga Mulya, Kec. Lubuk Linggau Sel. II, Kota Lubuklinggau, Sumatera Selatan 31625";"RT.10/RW.no 34, Marga Mulya, Kec. Lubuk Linggau Sel. II, Kota Lubuklinggau";"SUMATERA SELATAN";"31625";"Indonesia";"";"";"";"-3.2701958";"102.9190069";"https://maps.google.com/?cid=0x0:0xe7572feb9949f666";""
"perumahan";"Perumahan";"Perumahan Griya Tanjung Sejahtera (GTS)";"Lubuk Tj., Kec. Lubuk Linggau Bar. I, Kota Lubuklinggau, Sumatera Selatan 31614";"Kec. Lubuk Linggau Bar. I, Kota Lubuklinggau";"SUMATERA SELATAN";"31614";"Indonesia";"";"";"";"-3.3163501";"102.8483572";"https://maps.google.com/?cid=0x0:0x5c4b4a09a9bd0607";""
"perumahan";"Komplek perumahan";"Perumahan family land";"PVJW+V6M, Batu Urip, Kec. Lubuk Linggau Utara II, Kota Lubuklinggau, Sumatera Selatan";"Kota Lubuklinggau, Sumatera Selatan";"SUMATERA SELATAN";"";"Indonesia";" 082180177180";"";"";"-3.2679572";"102.8956633";"https://maps.google.com/?cid=0x0:0xa2373429259a9654";""
"perumahan";"Komplek perumahan";"MODERN HILL RESIDENCE";"MVXX+9JM Tim, I, Taba Jemekeh, Kec. Lubuk Linggau Tim. I, Kota Lubuklinggau, Sumatera Selatan 31625";"I, Taba Jemekeh, Kec. Lubuk Linggau Tim. I, Kota Lubuklinggau";"SUMATERA SELATAN";"31625";"Indonesia";" 085381871070";"";"";"-3.3019756";"102.8988937";"https://maps.google.com/?cid=0x0:0x75b2cfaef0b588bb";""
"perumahan";"Komplek perumahan";"Mutiara Sirdam Residence";"PVJX+PPP, Batu Urip, Kec. Lubuk Linggau Utara II, Kota Lubuklinggau, Sumatera Selatan 31625";"Batu Urip, Kec. Lubuk Linggau Utara II, Kota Lubuklinggau";"SUMATERA SELATAN";"31625";"Indonesia";"";"";"";"-3.2681657";"102.899324";"https://maps.google.com/?cid=0x0:0x764c37ff1a1bff07";""
"perumahan";"Pembangunan Perumahan";"Perumahan Griya Bumi Lestari";"Jl H. Kerim, Taba Lestari, Kec. Lubuk Linggau Tim. I, Kota Lubuklinggau, Sumatera Selatan 31626";"Taba Lestari, Kec. Lubuk Linggau Tim. I, Kota Lubuklinggau";"SUMATERA SELATAN";"31626";"Indonesia";" 081324365249";"";"";"-3.2933511";"102.9110265";"https://maps.google.com/?cid=0x0:0x47e2368a457f17ba";""
"perumahan";"Kafe";"Satu Hal Indonesia Coffee  Space Vol.002";"Jl. Garuda, Bandung Ujung, Kec. Lubuk Linggau Bar. I, Kota Lubuklinggau, Sumatera Selatan 31611";"Bandung Ujung, Kec. Lubuk Linggau Bar. I, Kota Lubuklinggau";"SUMATERA SELATAN";"31611";"Indonesia";" 082290555168";"";"";"-3.3023655";"102.8541804";"https://maps.google.com/?cid=0x0:0xeefe84a51f241f10";""
"perumahan";"perumahan";"Grand Zuri Lubuklinggau by ZHM";"Jl. Yos Sudarso No.1, Batu Urip Taba, Kec. Lubuk Linggau Tim. I, Kota Lubuklinggau, Sumatera Selatan 31624";"Batu Urip Taba, Kec. Lubuk Linggau Tim. I, Kota Lubuklinggau";"SUMATERA SELATAN";"31624";"Indonesia";" 07337070222";"";"";"-3.2819357";"102.8889477";"https://maps.google.com/?cid=0x0:0xb9d17d256db8fc0d";""
"perumahan";"perumahan";"Burza Hotel Lubuklinggau";"Jl. Yos Sudarso No.143, Watervang, Kec. Lubuk Linggau Tim. I, Kota Lubuklinggau, Sumatera Selatan 31628";"Watervang, Kec. Lubuk Linggau Tim. I, Kota Lubuklinggau";"SUMATERA SELATAN";"31628";"Indonesia";" 07333280088";"";"";"-3.2776032";"102.8970972";"https://maps.google.com/?cid=0x0:0x4fb4e95f23ada624";""
"perumahan";"perumahan";"WE Hotel Lubuk Linggau";"Jl. Yos Sudarso No.70, RW.72, Taba Jemekeh, Kec. Lubuk Linggau Tim. I, Kota Lubuklinggau, Sumatera Selatan 31625";"RW.72, Taba Jemekeh, Kec. Lubuk Linggau Tim. I, Kota Lubuklinggau";"SUMATERA SELATAN";"31625";"Indonesia";" 07333286777";"";"";"-3.2874168";"102.8787931";"https://maps.google.com/?cid=0x0:0x8ae599c134802184";""
"perumahan";"perumahan";"Hotel Dewinda";"Jl. Yos Sudarso Komplek Ruko Caroline Winasta Blok Blok C1, Watervang, Kec. Lubuk Linggau Tim. I, Kota Lubuklinggau, Sumatera Selatan 31628";"Watervang, Kec. Lubuk Linggau Tim. I, Kota Lubuklinggau";"SUMATERA SELATAN";"31628";"Indonesia";" 07333285353";"";"";"-3.2755129";"102.9013407";"https://maps.google.com/?cid=0x0:0x9d0e5843430afa04";""
"perumahan";"Tujuan Wisata";"Air Terjun Temam";"Jl. Air Temam, Rahmah, Kec. Lubuk Linggau Sel. I, Kota Lubuklinggau, Sumatera Selatan 31600";"Rahmah, Kec. Lubuk Linggau Sel. I, Kota Lubuklinggau";"SUMATERA SELATAN";"31600";"Indonesia";" 082175182223";"";"";"-3.2935625";"102.9300625";"https://maps.google.com/?cid=0x0:0x24b5109c6d325f46";""
"perumahan";"Perumahan";"Griya Pesona Linggau";"MVRG+PF7, Mesat Seni, Kec. Lubuk Linggau Tim. II, Kota Lubuklinggau, Sumatera Selatan 31613";"Mesat Seni, Kec. Lubuk Linggau Tim. II, Kota Lubuklinggau";"SUMATERA SELATAN";"31613";"Indonesia";"";"";"";"-3.3082208";"102.876171";"https://maps.google.com/?cid=0x0:0x4e3080fdd19f7b87";""
"perumahan";"Komplek perumahan";"Perumahan Surya Gemilang";"Siring Agung, Kec. Lubuk Linggau Sel. II, Kota Lubuklinggau, Sumatera Selatan 31625";"Kec. Lubuk Linggau Sel. II, Kota Lubuklinggau";"SUMATERA SELATAN";"31625";"Indonesia";"";"";"";"-3.2613947";"102.9188537";"https://maps.google.com/?cid=0x0:0x8b51cde9f2dd13dc";""
"perumahan";"Perumahan";"Graha Marga Mulya";"PWCG+VFH, Marga Mulya, Kec. Lubuk Linggau Sel. II, Kota Lubuklinggau, Sumatera Selatan 31625";"Marga Mulya, Kec. Lubuk Linggau Sel. II, Kota Lubuklinggau";"SUMATERA SELATAN";"31625";"Indonesia";"";"";"";"-3.2778183";"102.926222";"https://maps.google.com/?cid=0x0:0x9a3e9debf9a478c";""
"perumahan";"Komplek perumahan";"Goa Batu Harapan Jaya";"PW64+XQ9, Jl. Fatmawati Soekarno, Taba Jemekeh, Kec. Lubuk Linggau Tim. I, Kota Lubuklinggau, Sumatera Selatan 31625";"Jl. Fatmawati Soekarno, Taba Jemekeh, Kec. Lubuk Linggau Tim. I, Kota Lubuklinggau";"SUMATERA SELATAN";"31625";"Indonesia";"";"";"";"-3.287582";"102.9069751";"https://maps.google.com/?cid=0x0:0x4f820c9f2eb0396b";""
"perumahan";"Pembangunan Perumahan";"Perumahan bintang timur satu";"Jl. Cereme, Cereme Taba, Kec. Lubuk Linggau Tim. II, Kota Lubuklinggau, Sumatera Selatan 31613";"Cereme Taba, Kec. Lubuk Linggau Tim. II, Kota Lubuklinggau";"SUMATERA SELATAN";"31613";"Indonesia";"";"";"";"-3.2909313";"102.8766221";"https://maps.google.com/?cid=0x0:0x805f90e4d331d9e0";""
"perumahan";"perumahan";"Perumahan MBR Air Temam Madani Harapan Jaya Kota Lubuklinggau";"";"";"SUMATERA SELATAN";"";"Indonesia";" 085783627193";"";"";"-3.2996426";"102.8779769";"https://maps.google.com/?cid=0x0:0x382fdba5ba18f25e";""
"perumahan";"Komplek perumahan";"Komplek Bintang Timur Satu (BTS)";"PV7M+HPG, Jl. Sejahtera, Taba Jemekeh, Kec. Lubuk Linggau Tim. I, Kota Lubuklinggau, Sumatera Selatan 31624";"Jl. Sejahtera, Taba Jemekeh, Kec. Lubuk Linggau Tim. I, Kota Lubuklinggau";"SUMATERA SELATAN";"31624";"Indonesia";"";"";"";"-3.2860645";"102.8843157";"https://maps.google.com/?cid=0x0:0xb765f07f1a6acb01";""
"perumahan";"Komplek perumahan";"Agus Widiajatmmiko";"Blok B7 Perumnas No.1 RT. 2, Nikan Jaya, Kec. Lubuk Linggau Tim. I, Kota Lubuklinggau, Sumatera Selatan 31625";"Nikan Jaya, Kec. Lubuk Linggau Tim. I, Kota Lubuklinggau";"SUMATERA SELATAN";"31625";"Indonesia";"";"";"";"-3.284332";"102.9119445";"https://maps.google.com/?cid=0x0:0xd7622f0d8d4daf7a";""
"perumahan";"Komplek perumahan";"Lokasi Sewa 1";"PWG3+H9X, Majapahit, Kec. Lubuk Linggau Tim. I, Kota Lubuklinggau, Sumatera Selatan";"Kota Lubuklinggau, Sumatera Selatan";"SUMATERA SELATAN";"";"Indonesia";"";"";"";"-3.2735229";"102.9034936";"https://maps.google.com/?cid=0x0:0xd740828b47dce3df";""
"perumahan";"perumahan";"Kec. Lubuk Linggau Tim. I";"Kota Lubuklinggau, Sumatera Selatan";"Kota Lubuklinggau, Sumatera Selatan";"SUMATERA SELATAN";"";"Indonesia";"";"";"";"-3.2839382";"102.8855843";"https://maps.google.com/?cid=0x0:0x3178fe8fb8900081";""
"perumahan";"perumahan";"Perumahan MBR Air Temam Madani Harapan Jaya Kota Lubuklinggau";"";"";"SUMATERA SELATAN";"";"Indonesia";" 085783627193";"";"";"-3.2996426";"102.8779769";"https://maps.google.com/?cid=0x0:0x382fdba5ba18f25e";""
"perumahan";"Pembangunan Perumahan";"PERUMAHAN PERMATA PERMAI RESIDENCE";"PVCH+CRP, Batu Urip, Kec. Lubuk Linggau Utara II, Kota Lubuklinggau, Sumatera Selatan 31624";"Batu Urip, Kec. Lubuk Linggau Utara II, Kota Lubuklinggau";"SUMATERA SELATAN";"31624";"Indonesia";" 081802477746";"";"";"-3.2789024";"102.8795936";"https://maps.google.com/?cid=0x0:0xf8d03e592b464f24";""
"perumahan";"Pembangunan Perumahan";"Villa Kenanga Indah";"PVCJ+37V, Batu Urip, Kec. Lubuk Linggau Utara II, Kota Lubuklinggau, Sumatera Selatan 31624";"Batu Urip, Kec. Lubuk Linggau Utara II, Kota Lubuklinggau";"SUMATERA SELATAN";"31624";"Indonesia";" 085267733429";"";"";"-3.2797557";"102.880658";"https://maps.google.com/?cid=0x0:0x9615ed42a3b60a73";""
"perumahan";"Komplek perumahan";"Perumahan cindo nihan";"PVJW+CJ3, Jl. M.Arif, Batu Urip, Kec. Lubuk Linggau Utara II, Kota Lubuklinggau, Sumatera Selatan 31625";"Jl. M.Arif, Batu Urip, Kec. Lubuk Linggau Utara II, Kota Lubuklinggau";"SUMATERA SELATAN";"31625";"Indonesia";"";"";"";"-3.268984";"102.8965449";"https://maps.google.com/?cid=0x0:0x2e048fe4c7c835f8";""
"perumahan";"Komplek perumahan";"MODERN HILL RESIDENCE";"MVXX+9JM Tim, I, Taba Jemekeh, Kec. Lubuk Linggau Tim. I, Kota Lubuklinggau, Sumatera Selatan 31625";"I, Taba Jemekeh, Kec. Lubuk Linggau Tim. I, Kota Lubuklinggau";"SUMATERA SELATAN";"31625";"Indonesia";" 085381871070";"";"";"-3.3019756";"102.8988937";"https://maps.google.com/?cid=0x0:0x75b2cfaef0b588bb";""
"perumahan";"Komplek perumahan";"Shakila Residance";"Jalan Goa Batu No.Rt 07, Taba Jemekeh, Kec. Lubuk Linggau Tim. I, Kota Lubuklinggau, Sumatera Selatan";"Kota Lubuklinggau, Sumatera Selatan";"SUMATERA SELATAN";"";"Indonesia";" 082267671984";"";"";"-3.3008366";"102.8847641";"https://maps.google.com/?cid=0x0:0x12ba6771b0616e2a";""
"perumahan";"Pembangunan Perumahan";"Black Taba sejahtera";"PV6Q+QXX, Taba Jemekeh, Kec. Lubuk Linggau Tim. I, Kota Lubuklinggau, Sumatera Selatan";"Kota Lubuklinggau, Sumatera Selatan";"SUMATERA SELATAN";"";"Indonesia";"";"";"";"-3.2880181";"102.8899744";"https://maps.google.com/?cid=0x0:0xd99bc4cd7272c8f8";""
"perumahan";"Komplek perumahan";"Mutiara Sirdam Residence";"PVJX+PPP, Batu Urip, Kec. Lubuk Linggau Utara II, Kota Lubuklinggau, Sumatera Selatan 31625";"Batu Urip, Kec. Lubuk Linggau Utara II, Kota Lubuklinggau";"SUMATERA SELATAN";"31625";"Indonesia";"";"";"";"-3.2681657";"102.899324";"https://maps.google.com/?cid=0x0:0x764c37ff1a1bff07";""
"perumahan";"Komplek perumahan";"Perumahan family land";"PVJW+V6M, Batu Urip, Kec. Lubuk Linggau Utara II, Kota Lubuklinggau, Sumatera Selatan";"Kota Lubuklinggau, Sumatera Selatan";"SUMATERA SELATAN";"";"Indonesia";" 082180177180";"";"";"-3.2679572";"102.8956633";"https://maps.google.com/?cid=0x0:0xa2373429259a9654";""
"perumahan";"perumahan";"Grand Zuri Lubuklinggau by ZHM";"Jl. Yos Sudarso No.1, Batu Urip Taba, Kec. Lubuk Linggau Tim. I, Kota Lubuklinggau, Sumatera Selatan 31624";"Batu Urip Taba, Kec. Lubuk Linggau Tim. I, Kota Lubuklinggau";"SUMATERA SELATAN";"31624";"Indonesia";" 07337070222";"";"";"-3.2819357";"102.8889477";"https://maps.google.com/?cid=0x0:0xb9d17d256db8fc0d";""
"perumahan";"Tujuan Wisata";"Air Terjun Temam";"Jl. Air Temam, Rahmah, Kec. Lubuk Linggau Sel. I, Kota Lubuklinggau, Sumatera Selatan 31600";"Rahmah, Kec. Lubuk Linggau Sel. I, Kota Lubuklinggau";"SUMATERA SELATAN";"31600";"Indonesia";" 082175182223";"";"";"-3.2935625";"102.9300625";"https://maps.google.com/?cid=0x0:0x24b5109c6d325f46";""
"perumahan";"Pembangunan Perumahan";"Perumahan Shapire Estate";"PV2X+J4, Jl.Mochtar Amin, Taba Jemekeh, Kec.Linggau 1, Kota Lubuklinggau, Sumatera Selatan";"Kota Lubuklinggau, Sumatera Selatan";"SUMATERA SELATAN";"";"Indonesia";" 085268250578";"";"";"-3.2984375";"102.8978125";"https://maps.google.com/?cid=0x0:0x61bb299b9e80ff3b";""
"perumahan";"Komplek perumahan";"Perumahan Surya Gemilang";"Siring Agung, Kec. Lubuk Linggau Sel. II, Kota Lubuklinggau, Sumatera Selatan 31625";"Kec. Lubuk Linggau Sel. II, Kota Lubuklinggau";"SUMATERA SELATAN";"31625";"Indonesia";"";"";"";"-3.2613947";"102.9188537";"https://maps.google.com/?cid=0x0:0x8b51cde9f2dd13dc";""
"perumahan";"Perumahan";"Griya Pesona Linggau";"MVRG+PF7, Mesat Seni, Kec. Lubuk Linggau Tim. II, Kota Lubuklinggau, Sumatera Selatan 31613";"Mesat Seni, Kec. Lubuk Linggau Tim. II, Kota Lubuklinggau";"SUMATERA SELATAN";"31613";"Indonesia";"";"";"";"-3.3082208";"102.876171";"https://maps.google.com/?cid=0x0:0x4e3080fdd19f7b87";""
"perumahan";"Perumahan";"Sejahtera Regency";"PW9H+WC, Marga Mulya, Kec. Lubuk Linggau Sel. II, Kota Lubuklinggau, Sumatera Selatan";"Kota Lubuklinggau, Sumatera Selatan";"SUMATERA SELATAN";"";"Indonesia";"";"";"";"-3.2800871";"102.9281918";"https://maps.google.com/?cid=0x0:0x46fe2f06085a2cf4";""
"perumahan";"Agen Pemasaran";"Perumahan Puri Athena Sejahtera";"Jln Jend. (Pol) Moch Hasan, Rt. 08, Kel, Muara Enim, Kec. Lubuk Linggau Bar. I, Kota Lubuklinggau, Sumatera Selatan 31612";"Rt. 08, Kel, Muara Enim, Kec. Lubuk Linggau Bar. I, Kota Lubuklinggau";"SUMATERA SELATAN";"31612";"Indonesia";"";"";"";"-3.3129307";"102.8633448";"https://maps.google.com/?cid=0x0:0x3c970208b4b661e8";""
"perumahan";"Komplek perumahan";"PERDANA REGENCY";"Jl. Sultan Mahmud Badaruddin II Lrg. Topah, Tanah Periuk, Kec. Lubuk Linggau Sel. II, Kota Lubuklinggau, Sumatera Selatan 31625";"Tanah Periuk, Kec. Lubuk Linggau Sel. II, Kota Lubuklinggau";"SUMATERA SELATAN";"31625";"Indonesia";" 082279423938";"";"";"-3.2705485";"102.9347882";"https://maps.google.com/?cid=0x0:0xb03ef701eb8ba347";""
"perumahan";"Komplek perumahan";"Komplek perumahan";"PWGM+H6M, Tanah Periuk, Kec. Lubuk Linggau Sel. II, Kota Lubuklinggau, Sumatera Selatan 31625";"Tanah Periuk, Kec. Lubuk Linggau Sel. II, Kota Lubuklinggau";"SUMATERA SELATAN";"31625";"Indonesia";"";"";"";"-3.2733155";"102.9329645";"https://maps.google.com/?cid=0x0:0x633d1da01df68569";""
"perumahan";"Rumah Kayu";"Perumahan Pondok Indah Palem Lubuklinggau";"MVP7+22G, Unnamed Road, Sukajadi, Kec. Lubuk Linggau Bar. I, Kota Lubuklinggau, Sumatera Selatan 31614";"Unnamed Road, Sukajadi, Kec. Lubuk Linggau Bar. I, Kota Lubuklinggau";"SUMATERA SELATAN";"31614";"Indonesia";"";"";"";"-3.3149377";"102.8625752";"https://maps.google.com/?cid=0x0:0x9bd44f435c2a9989";""
"perumahan";"perumahan";"Burza Hotel Lubuklinggau";"Jl. Yos Sudarso No.143, Watervang, Kec. Lubuk Linggau Tim. I, Kota Lubuklinggau, Sumatera Selatan 31628";"Watervang, Kec. Lubuk Linggau Tim. I, Kota Lubuklinggau";"SUMATERA SELATAN";"31628";"Indonesia";" 07333280088";"";"";"-3.2776032";"102.8970972";"https://maps.google.com/?cid=0x0:0x4fb4e95f23ada624";""
"perumahan";"perumahan";"N/A";"";"";"SUMATERA SELATAN";"";"Indonesia";"";"";"";"";"";"https://maps.google.com/?cid=0x0:0x4fb4e95f23ada624%7C/g/11b88g6lm5%7Cen-ID";""
"perumahan";"Komplek perumahan";"Rumah Kusnadi Yudha Wiguna";"Jl. Perumnas Nikan Jaya Jl.Cempedak 1 No.84 C, RT.03, Nikan Jaya, Kec. Lubuk Linggau Tim. I, Kota Lubuklinggau, Sumatera Selatan 31628";"RT.03, Nikan Jaya, Kec. Lubuk Linggau Tim. I, Kota Lubuklinggau";"SUMATERA SELATAN";"31628";"Indonesia";"";"";"";"-3.286281";"102.910101";"https://maps.google.com/?cid=0x0:0x6dd6af8efb498373";""
"perumahan";"Perumahan";"Perumahan Griya Tanjung Sejahtera (GTS)";"Lubuk Tj., Kec. Lubuk Linggau Bar. I, Kota Lubuklinggau, Sumatera Selatan 31614";"Kec. Lubuk Linggau Bar. I, Kota Lubuklinggau";"SUMATERA SELATAN";"31614";"Indonesia";"";"";"";"-3.3163501";"102.8483572";"https://maps.google.com/?cid=0x0:0x5c4b4a09a9bd0607";""
"perumahan";"perumahan";"WE Hotel Lubuk Linggau";"Jl. Yos Sudarso No.70, RW.72, Taba Jemekeh, Kec. Lubuk Linggau Tim. I, Kota Lubuklinggau, Sumatera Selatan 31625";"RW.72, Taba Jemekeh, Kec. Lubuk Linggau Tim. I, Kota Lubuklinggau";"SUMATERA SELATAN";"31625";"Indonesia";" 07333286777";"";"";"-3.2874168";"102.8787931";"https://maps.google.com/?cid=0x0:0x8ae599c134802184";""
"perumahan";"perumahan";"Hotel Dewinda";"Jl. Yos Sudarso Komplek Ruko Caroline Winasta Blok Blok C1, Watervang, Kec. Lubuk Linggau Tim. I, Kota Lubuklinggau, Sumatera Selatan 31628";"Watervang, Kec. Lubuk Linggau Tim. I, Kota Lubuklinggau";"SUMATERA SELATAN";"31628";"Indonesia";" 07333285353";"";"";"-3.2755129";"102.9013407";"https://maps.google.com/?cid=0x0:0x9d0e5843430afa04";""
"perumahan";"Pembangunan Perumahan";"Perumahan Madani Permai";"MRGV+PX5, Lubuk Tj., Kec. Lubuk Linggau Bar. I, Kota Lubuklinggau, Sumatera Selatan 31615";"Lubuk Tj., Kec. Lubuk Linggau Bar. I, Kota Lubuklinggau";"SUMATERA SELATAN";"31615";"Indonesia";" 0895603122193";"";"";"-3.3232299";"102.8449839";"https://maps.google.com/?cid=0x0:0x9f274273cec36f4a";""
"perumahan";"Komplek perumahan";"Perumahan Bintang Timur 1";"PV5J+RW9, Jl. Sejahtera, Taba Jemekeh, Kec. Lubuk Linggau Tim. I, Kota Lubuklinggau, Sumatera Selatan 31624";"Jl. Sejahtera, Taba Jemekeh, Kec. Lubuk Linggau Tim. I, Kota Lubuklinggau";"SUMATERA SELATAN";"31624";"Indonesia";"";"";"";"-3.2904593";"102.8823747";"https://maps.google.com/?cid=0x0:0x48aa9f55d8ed1d2f";""
"perumahan";"Pembangunan Perumahan";"Perumahan Nusa Indah Selatan Dua";"Jl. Kalur Kel. Marga Rahayu Kec, Marga Rahayu, Kec. Lubuk Linggau Sel. II, Kota Lubuklinggau, Sumatera Selatan 31625";"Marga Rahayu, Kec. Lubuk Linggau Sel. II, Kota Lubuklinggau";"SUMATERA SELATAN";"31625";"Indonesia";" 081294797388";"";"";"-3.2638011";"102.9238681";"https://maps.google.com/?cid=0x0:0x31983a1f39771551";""
"perumahan";"Perhimpunan Pengembang Perumahan";"Perumahan Grand Mulya II";"PWQF+9H2, Jl. Dharma III, Marga Rahayu, Kec. Lubuk Linggau Sel. II, Kota Lubuklinggau, Sumatera Selatan 31625";"Jl. Dharma III, Marga Rahayu, Kec. Lubuk Linggau Sel. II, Kota Lubuklinggau";"SUMATERA SELATAN";"31625";"Indonesia";"";"";"";"-3.2616084";"102.9238901";"https://maps.google.com/?cid=0x0:0xec8eaf3667b31a04";""
"perumahan";"Bengkel Mobil";"Bengkel mobil pangilan";"Jalan kalur No.Rt. 11, Marga Rahayu, Kec. Lubuk Linggau Sel. II, Kota Lubuklinggau, Sumatera Selatan 31625";"Marga Rahayu, Kec. Lubuk Linggau Sel. II, Kota Lubuklinggau";"SUMATERA SELATAN";"31625";"Indonesia";" 088286096675";"";"";"-3.2640272";"102.9240917";"https://maps.google.com/?cid=0x0:0x74b62698eb405652";""
"perumahan";"perumahan";"Kec. Lubuk Linggau Tim. I";"Kota Lubuklinggau, Sumatera Selatan";"Kota Lubuklinggau, Sumatera Selatan";"SUMATERA SELATAN";"";"Indonesia";"";"";"";"-3.2839382";"102.8855843";"https://maps.google.com/?cid=0x0:0x3178fe8fb8900081";""
"perumahan";"Komplek perumahan";"Perumahan Bintang Timur 1";"PV5J+RW9, Jl. Sejahtera, Taba Jemekeh, Kec. Lubuk Linggau Tim. I, Kota Lubuklinggau, Sumatera Selatan 31624";"Jl. Sejahtera, Taba Jemekeh, Kec. Lubuk Linggau Tim. I, Kota Lubuklinggau";"SUMATERA SELATAN";"31624";"Indonesia";"";"";"";"-3.2904593";"102.8823747";"https://maps.google.com/?cid=0x0:0x48aa9f55d8ed1d2f";""
"perumahan";"Pembangunan Perumahan";"Villa Kenanga Indah";"PVCJ+37V, Batu Urip, Kec. Lubuk Linggau Utara II, Kota Lubuklinggau, Sumatera Selatan 31624";"Batu Urip, Kec. Lubuk Linggau Utara II, Kota Lubuklinggau";"SUMATERA SELATAN";"31624";"Indonesia";" 085267733429";"";"";"-3.2797557";"102.880658";"https://maps.google.com/?cid=0x0:0x9615ed42a3b60a73";""
"perumahan";"Pembangunan Perumahan";"Perumahan Puri Marga Mulya";"Jl. Bima, Marga Mulya, Kec. Lubuk Linggau Sel. II, Kota Lubuklinggau, Sumatera Selatan 31625";"Marga Mulya, Kec. Lubuk Linggau Sel. II, Kota Lubuklinggau";"SUMATERA SELATAN";"31625";"Indonesia";" 082279423938";"";"";"-3.2806369";"102.9257938";"https://maps.google.com/?cid=0x0:0x40f3aa098e6b60ad";""
"perumahan";"Asosiasi/organisasi";"Perumahan Family Land 2";"Jl. Sejahtera, Batu Urip Taba, Kec. Lubuk Linggau Tim. I, Kota Lubuklinggau, Sumatera Selatan";"Kota Lubuklinggau, Sumatera Selatan";"SUMATERA SELATAN";"";"Indonesia";"";"";"";"-3.2831538";"102.8927102";"https://maps.google.com/?cid=0x0:0x66486d8984d659e8";""
"perumahan";"Komplek perumahan";"Perumahan cindo nihan";"PVJW+CJ3, Jl. M.Arif, Batu Urip, Kec. Lubuk Linggau Utara II, Kota Lubuklinggau, Sumatera Selatan 31625";"Jl. M.Arif, Batu Urip, Kec. Lubuk Linggau Utara II, Kota Lubuklinggau";"SUMATERA SELATAN";"31625";"Indonesia";"";"";"";"-3.268984";"102.8965449";"https://maps.google.com/?cid=0x0:0x2e048fe4c7c835f8";""
"perumahan";"Komplek perumahan";"Komplek perumahan";"PWGM+H6M, Tanah Periuk, Kec. Lubuk Linggau Sel. II, Kota Lubuklinggau, Sumatera Selatan 31625";"Tanah Periuk, Kec. Lubuk Linggau Sel. II, Kota Lubuklinggau";"SUMATERA SELATAN";"31625";"Indonesia";"";"";"";"-3.2733155";"102.9329645";"https://maps.google.com/?cid=0x0:0x633d1da01df68569";""
"perumahan";"Kantor Perusahaan";"PERUMAHAN AMRI PERSADA 1";"JL.PERBAKIN, Lubuk Tj., Kec. Lubuk Linggau Bar. I, Kota Lubuklinggau, Sumatera Selatan";"Kota Lubuklinggau, Sumatera Selatan";"SUMATERA SELATAN";"";"Indonesia";" 083173759097";"";"";"-3.3176839";"102.8384212";"https://maps.google.com/?cid=0x0:0x673e6938d6830a49";""
"perumahan";"Komplek perumahan";"Perumahan";"Jl. Asoka No.5, RT.10/RW.no 34, Marga Mulya, Kec. Lubuk Linggau Sel. II, Kota Lubuklinggau, Sumatera Selatan 31625";"RT.10/RW.no 34, Marga Mulya, Kec. Lubuk Linggau Sel. II, Kota Lubuklinggau";"SUMATERA SELATAN";"31625";"Indonesia";"";"";"";"-3.2701958";"102.9190069";"https://maps.google.com/?cid=0x0:0xe7572feb9949f666";""
"perumahan";"Perumahan";"Perumahan Griya Tanjung Sejahtera (GTS)";"Lubuk Tj., Kec. Lubuk Linggau Bar. I, Kota Lubuklinggau, Sumatera Selatan 31614";"Kec. Lubuk Linggau Bar. I, Kota Lubuklinggau";"SUMATERA SELATAN";"31614";"Indonesia";"";"";"";"-3.3163501";"102.8483572";"https://maps.google.com/?cid=0x0:0x5c4b4a09a9bd0607";""
"perumahan";"Komplek perumahan";"Perumahan family land";"PVJW+V6M, Batu Urip, Kec. Lubuk Linggau Utara II, Kota Lubuklinggau, Sumatera Selatan";"Kota Lubuklinggau, Sumatera Selatan";"SUMATERA SELATAN";"";"Indonesia";" 082180177180";"";"";"-3.2679572";"102.8956633";"https://maps.google.com/?cid=0x0:0xa2373429259a9654";""
"perumahan";"Komplek perumahan";"Rumah Lubuklinggau";"Unnamed Road, Simpang Periuk, Kec. Lubuk Linggau Sel. II, Kota Lubuklinggau, Sumatera Selatan 31626";"Simpang Periuk, Kec. Lubuk Linggau Sel. II, Kota Lubuklinggau";"SUMATERA SELATAN";"31626";"Indonesia";"";"";"";"-3.2669918";"102.9413485";"https://maps.google.com/?cid=0x0:0x13e8ef12dd68df3c";""
"perumahan";"Komplek perumahan";"MODERN HILL RESIDENCE";"MVXX+9JM Tim, I, Taba Jemekeh, Kec. Lubuk Linggau Tim. I, Kota Lubuklinggau, Sumatera Selatan 31625";"I, Taba Jemekeh, Kec. Lubuk Linggau Tim. I, Kota Lubuklinggau";"SUMATERA SELATAN";"31625";"Indonesia";" 085381871070";"";"";"-3.3019756";"102.8988937";"https://maps.google.com/?cid=0x0:0x75b2cfaef0b588bb";""
"perumahan";"Komplek perumahan";"Mutiara Sirdam Residence";"PVJX+PPP, Batu Urip, Kec. Lubuk Linggau Utara II, Kota Lubuklinggau, Sumatera Selatan 31625";"Batu Urip, Kec. Lubuk Linggau Utara II, Kota Lubuklinggau";"SUMATERA SELATAN";"31625";"Indonesia";"";"";"";"-3.2681657";"102.899324";"https://maps.google.com/?cid=0x0:0x764c37ff1a1bff07";""
"perumahan";"Pembangunan Perumahan";"Perumahan Griya Bumi Lestari";"Jl H. Kerim, Taba Lestari, Kec. Lubuk Linggau Tim. I, Kota Lubuklinggau, Sumatera Selatan 31626";"Taba Lestari, Kec. Lubuk Linggau Tim. I, Kota Lubuklinggau";"SUMATERA SELATAN";"31626";"Indonesia";" 081324365249";"";"";"-3.2933511";"102.9110265";"https://maps.google.com/?cid=0x0:0x47e2368a457f17ba";""
"perumahan";"Kafe";"Satu Hal Indonesia Coffee  Space Vol.002";"Jl. Garuda, Bandung Ujung, Kec. Lubuk Linggau Bar. I, Kota Lubuklinggau, Sumatera Selatan 31611";"Bandung Ujung, Kec. Lubuk Linggau Bar. I, Kota Lubuklinggau";"SUMATERA SELATAN";"31611";"Indonesia";" 082290555168";"";"";"-3.3023655";"102.8541804";"https://maps.google.com/?cid=0x0:0xeefe84a51f241f10";""
"perumahan";"perumahan";"Grand Zuri Lubuklinggau by ZHM";"Jl. Yos Sudarso No.1, Batu Urip Taba, Kec. Lubuk Linggau Tim. I, Kota Lubuklinggau, Sumatera Selatan 31624";"Batu Urip Taba, Kec. Lubuk Linggau Tim. I, Kota Lubuklinggau";"SUMATERA SELATAN";"31624";"Indonesia";" 07337070222";"";"";"-3.2819357";"102.8889477";"https://maps.google.com/?cid=0x0:0xb9d17d256db8fc0d";""
"perumahan";"perumahan";"Burza Hotel Lubuklinggau";"Jl. Yos Sudarso No.143, Watervang, Kec. Lubuk Linggau Tim. I, Kota Lubuklinggau, Sumatera Selatan 31628";"Watervang, Kec. Lubuk Linggau Tim. I, Kota Lubuklinggau";"SUMATERA SELATAN";"31628";"Indonesia";" 07333280088";"";"";"-3.2776032";"102.8970972";"https://maps.google.com/?cid=0x0:0x4fb4e95f23ada624";""
"perumahan";"perumahan";"Hotel Dewinda";"Jl. Yos Sudarso Komplek Ruko Caroline Winasta Blok Blok C1, Watervang, Kec. Lubuk Linggau Tim. I, Kota Lubuklinggau, Sumatera Selatan 31628";"Watervang, Kec. Lubuk Linggau Tim. I, Kota Lubuklinggau";"SUMATERA SELATAN";"31628";"Indonesia";" 07333285353";"";"";"-3.2755129";"102.9013407";"https://maps.google.com/?cid=0x0:0x9d0e5843430afa04";""
"perumahan";"Hotel bintang 3";"WE Hotel Lubuk Linggau";"Jl. Yos Sudarso No.70, RW.72, Taba Jemekeh, Kec. Lubuk Linggau Tim. I, Kota Lubuklinggau, Sumatera Selatan 31625";"RW.72, Taba Jemekeh, Kec. Lubuk Linggau Tim. I, Kota Lubuklinggau";"SUMATERA SELATAN";"31625";"Indonesia";" 07333286777";"";"";"-3.2874168";"102.8787931";"https://maps.google.com/?cid=0x0:0x8ae599c134802184";""
"perumahan";"Tujuan Wisata";"Air Terjun Temam";"Jl. Air Temam, Rahmah, Kec. Lubuk Linggau Sel. I, Kota Lubuklinggau, Sumatera Selatan 31600";"Rahmah, Kec. Lubuk Linggau Sel. I, Kota Lubuklinggau";"SUMATERA SELATAN";"31600";"Indonesia";" 082175182223";"";"";"-3.2935625";"102.9300625";"https://maps.google.com/?cid=0x0:0x24b5109c6d325f46";""
"perumahan";"Perumahan";"Griya Pesona Linggau";"MVRG+PF7, Mesat Seni, Kec. Lubuk Linggau Tim. II, Kota Lubuklinggau, Sumatera Selatan 31613";"Mesat Seni, Kec. Lubuk Linggau Tim. II, Kota Lubuklinggau";"SUMATERA SELATAN";"31613";"Indonesia";"";"";"";"-3.3082208";"102.876171";"https://maps.google.com/?cid=0x0:0x4e3080fdd19f7b87";""
"perumahan";"Komplek perumahan";"Perumahan Surya Gemilang";"Siring Agung, Kec. Lubuk Linggau Sel. II, Kota Lubuklinggau, Sumatera Selatan 31625";"Kec. Lubuk Linggau Sel. II, Kota Lubuklinggau";"SUMATERA SELATAN";"31625";"Indonesia";"";"";"";"-3.2613947";"102.9188537";"https://maps.google.com/?cid=0x0:0x8b51cde9f2dd13dc";""
"perumahan";"Perumahan";"Graha Marga Mulya";"PWCG+VFH, Marga Mulya, Kec. Lubuk Linggau Sel. II, Kota Lubuklinggau, Sumatera Selatan 31625";"Marga Mulya, Kec. Lubuk Linggau Sel. II, Kota Lubuklinggau";"SUMATERA SELATAN";"31625";"Indonesia";"";"";"";"-3.2778183";"102.926222";"https://maps.google.com/?cid=0x0:0x9a3e9debf9a478c";""
"perumahan";"Pembangunan Perumahan";"Perumahan bintang timur satu";"Jl. Cereme, Cereme Taba, Kec. Lubuk Linggau Tim. II, Kota Lubuklinggau, Sumatera Selatan 31613";"Cereme Taba, Kec. Lubuk Linggau Tim. II, Kota Lubuklinggau";"SUMATERA SELATAN";"31613";"Indonesia";"";"";"";"-3.2909313";"102.8766221";"https://maps.google.com/?cid=0x0:0x805f90e4d331d9e0";""
"perumahan";"perumahan";"Perumahan MBR Air Temam Madani Harapan Jaya Kota Lubuklinggau";"";"";"SUMATERA SELATAN";"";"Indonesia";" 085783627193";"";"";"-3.2996426";"102.8779769";"https://maps.google.com/?cid=0x0:0x382fdba5ba18f25e";""
"perumahan";"Komplek perumahan";"Komplek Bintang Timur Satu (BTS)";"PV7M+HPG, Jl. Sejahtera, Taba Jemekeh, Kec. Lubuk Linggau Tim. I, Kota Lubuklinggau, Sumatera Selatan 31624";"Jl. Sejahtera, Taba Jemekeh, Kec. Lubuk Linggau Tim. I, Kota Lubuklinggau";"SUMATERA SELATAN";"31624";"Indonesia";"";"";"";"-3.2860645";"102.8843157";"https://maps.google.com/?cid=0x0:0xb765f07f1a6acb01";""
"perumahan";"Komplek perumahan";"Agus Widiajatmmiko";"Blok B7 Perumnas No.1 RT. 2, Nikan Jaya, Kec. Lubuk Linggau Tim. I, Kota Lubuklinggau, Sumatera Selatan 31625";"Nikan Jaya, Kec. Lubuk Linggau Tim. I, Kota Lubuklinggau";"SUMATERA SELATAN";"31625";"Indonesia";"";"";"";"-3.284332";"102.9119445";"https://maps.google.com/?cid=0x0:0xd7622f0d8d4daf7a";""
"perumahan";"Komplek perumahan";"Lokasi Sewa 1";"PWG3+H9X, Majapahit, Kec. Lubuk Linggau Tim. I, Kota Lubuklinggau, Sumatera Selatan";"Kota Lubuklinggau, Sumatera Selatan";"SUMATERA SELATAN";"";"Indonesia";"";"";"";"-3.2735229";"102.9034936";"https://maps.google.com/?cid=0x0:0xd740828b47dce3df";""
"perumahan";"perumahan";"Kec. Lubuk Linggau Tim. I";"Kota Lubuklinggau, Sumatera Selatan";"Kota Lubuklinggau, Sumatera Selatan";"SUMATERA SELATAN";"";"Indonesia";"";"";"";"-3.2839382";"102.8855843";"https://maps.google.com/?cid=0x0:0x3178fe8fb8900081";""
"perumahan";"perumahan";"Perumahan MBR Air Temam Madani Harapan Jaya Kota Lubuklinggau";"";"";"SUMATERA SELATAN";"";"Indonesia";" 085783627193";"";"";"-3.2996426";"102.8779769";"https://maps.google.com/?cid=0x0:0x382fdba5ba18f25e";""
"perumahan";"Pembangunan Perumahan";"PERUMAHAN PERMATA PERMAI RESIDENCE";"PVCH+CRP, Batu Urip, Kec. Lubuk Linggau Utara II, Kota Lubuklinggau, Sumatera Selatan 31624";"Batu Urip, Kec. Lubuk Linggau Utara II, Kota Lubuklinggau";"SUMATERA SELATAN";"31624";"Indonesia";" 081802477746";"";"";"-3.2789024";"102.8795936";"https://maps.google.com/?cid=0x0:0xf8d03e592b464f24";""
"perumahan";"Pembangunan Perumahan";"Villa Kenanga Indah";"PVCJ+37V, Batu Urip, Kec. Lubuk Linggau Utara II, Kota Lubuklinggau, Sumatera Selatan 31624";"Batu Urip, Kec. Lubuk Linggau Utara II, Kota Lubuklinggau";"SUMATERA SELATAN";"31624";"Indonesia";" 085267733429";"";"";"-3.2797557";"102.880658";"https://maps.google.com/?cid=0x0:0x9615ed42a3b60a73";""
"perumahan";"Komplek perumahan";"Perumahan cindo nihan";"PVJW+CJ3, Jl. M.Arif, Batu Urip, Kec. Lubuk Linggau Utara II, Kota Lubuklinggau, Sumatera Selatan 31625";"Jl. M.Arif, Batu Urip, Kec. Lubuk Linggau Utara II, Kota Lubuklinggau";"SUMATERA SELATAN";"31625";"Indonesia";"";"";"";"-3.268984";"102.8965449";"https://maps.google.com/?cid=0x0:0x2e048fe4c7c835f8";""
"perumahan";"Komplek perumahan";"MODERN HILL RESIDENCE";"MVXX+9JM Tim, I, Taba Jemekeh, Kec. Lubuk Linggau Tim. I, Kota Lubuklinggau, Sumatera Selatan 31625";"I, Taba Jemekeh, Kec. Lubuk Linggau Tim. I, Kota Lubuklinggau";"SUMATERA SELATAN";"31625";"Indonesia";" 085381871070";"";"";"-3.3019756";"102.8988937";"https://maps.google.com/?cid=0x0:0x75b2cfaef0b588bb";""
"perumahan";"Komplek perumahan";"Perumahan family land";"PVJW+V6M, Batu Urip, Kec. Lubuk Linggau Utara II, Kota Lubuklinggau, Sumatera Selatan";"Kota Lubuklinggau, Sumatera Selatan";"SUMATERA SELATAN";"";"Indonesia";" 082180177180";"";"";"-3.2679572";"102.8956633";"https://maps.google.com/?cid=0x0:0xa2373429259a9654";""
"perumahan";"Komplek perumahan";"Shakila Residance";"Jalan Goa Batu No.Rt 07, Taba Jemekeh, Kec. Lubuk Linggau Tim. I, Kota Lubuklinggau, Sumatera Selatan";"Kota Lubuklinggau, Sumatera Selatan";"SUMATERA SELATAN";"";"Indonesia";" 082267671984";"";"";"-3.3008366";"102.8847641";"https://maps.google.com/?cid=0x0:0x12ba6771b0616e2a";""
"perumahan";"Komplek perumahan";"Mutiara Sirdam Residence";"PVJX+PPP, Batu Urip, Kec. Lubuk Linggau Utara II, Kota Lubuklinggau, Sumatera Selatan 31625";"Batu Urip, Kec. Lubuk Linggau Utara II, Kota Lubuklinggau";"SUMATERA SELATAN";"31625";"Indonesia";"";"";"";"-3.2681657";"102.899324";"https://maps.google.com/?cid=0x0:0x764c37ff1a1bff07";""
"perumahan";"Pembangunan Perumahan";"Black Taba sejahtera";"PV6Q+QXX, Taba Jemekeh, Kec. Lubuk Linggau Tim. I, Kota Lubuklinggau, Sumatera Selatan";"Kota Lubuklinggau, Sumatera Selatan";"SUMATERA SELATAN";"";"Indonesia";"";"";"";"-3.2880181";"102.8899744";"https://maps.google.com/?cid=0x0:0xd99bc4cd7272c8f8";""
"perumahan";"Pembangunan Perumahan";"Perumahan Shapire Estate";"PV2X+J4, Jl.Mochtar Amin, Taba Jemekeh, Kec.Linggau 1, Kota Lubuklinggau, Sumatera Selatan";"Kota Lubuklinggau, Sumatera Selatan";"SUMATERA SELATAN";"";"Indonesia";" 085268250578";"";"";"-3.2984375";"102.8978125";"https://maps.google.com/?cid=0x0:0x61bb299b9e80ff3b";""
"perumahan";"Agen Pemasaran";"Perumahan Puri Athena Sejahtera";"Jln Jend. (Pol) Moch Hasan, Rt. 08, Kel, Muara Enim, Kec. Lubuk Linggau Bar. I, Kota Lubuklinggau, Sumatera Selatan 31612";"Rt. 08, Kel, Muara Enim, Kec. Lubuk Linggau Bar. I, Kota Lubuklinggau";"SUMATERA SELATAN";"31612";"Indonesia";"";"";"";"-3.3129307";"102.8633448";"https://maps.google.com/?cid=0x0:0x3c970208b4b661e8";""
"perumahan";"Perumahan";"Sejahtera Regency";"PW9H+WC, Marga Mulya, Kec. Lubuk Linggau Sel. II, Kota Lubuklinggau, Sumatera Selatan";"Kota Lubuklinggau, Sumatera Selatan";"SUMATERA SELATAN";"";"Indonesia";"";"";"";"-3.2800871";"102.9281918";"https://maps.google.com/?cid=0x0:0x46fe2f06085a2cf4";""
"perumahan";"Komplek perumahan";"PERDANA REGENCY";"Jl. Sultan Mahmud Badaruddin II Lrg. Topah, Tanah Periuk, Kec. Lubuk Linggau Sel. II, Kota Lubuklinggau, Sumatera Selatan 31625";"Tanah Periuk, Kec. Lubuk Linggau Sel. II, Kota Lubuklinggau";"SUMATERA SELATAN";"31625";"Indonesia";" 082279423938";"";"";"-3.2705485";"102.9347882";"https://maps.google.com/?cid=0x0:0xb03ef701eb8ba347";""
"perumahan";"Rumah Kayu";"Perumahan Pondok Indah Palem Lubuklinggau";"MVP7+22G, Unnamed Road, Sukajadi, Kec. Lubuk Linggau Bar. I, Kota Lubuklinggau, Sumatera Selatan 31614";"Unnamed Road, Sukajadi, Kec. Lubuk Linggau Bar. I, Kota Lubuklinggau";"SUMATERA SELATAN";"31614";"Indonesia";"";"";"";"-3.3149377";"102.8625752";"https://maps.google.com/?cid=0x0:0x9bd44f435c2a9989";""
"perumahan";"Komplek perumahan";"Perumahan Surya Gemilang";"Siring Agung, Kec. Lubuk Linggau Sel. II, Kota Lubuklinggau, Sumatera Selatan 31625";"Kec. Lubuk Linggau Sel. II, Kota Lubuklinggau";"SUMATERA SELATAN";"31625";"Indonesia";"";"";"";"-3.2613947";"102.9188537";"https://maps.google.com/?cid=0x0:0x8b51cde9f2dd13dc";""
"perumahan";"perumahan";"Burza Hotel Lubuklinggau";"Jl. Yos Sudarso No.143, Watervang, Kec. Lubuk Linggau Tim. I, Kota Lubuklinggau, Sumatera Selatan 31628";"Watervang, Kec. Lubuk Linggau Tim. I, Kota Lubuklinggau";"SUMATERA SELATAN";"31628";"Indonesia";" 07333280088";"";"";"-3.2776032";"102.8970972";"https://maps.google.com/?cid=0x0:0x4fb4e95f23ada624";""
"perumahan";"perumahan";"N/A";"";"";"SUMATERA SELATAN";"";"Indonesia";"";"";"";"";"";"https://maps.google.com/?cid=0x0:0x4fb4e95f23ada624%7C/g/11b88g6lm5%7Cen-ID";""
"perumahan";"Tujuan Wisata";"Air Terjun Temam";"Jl. Air Temam, Rahmah, Kec. Lubuk Linggau Sel. I, Kota Lubuklinggau, Sumatera Selatan 31600";"Rahmah, Kec. Lubuk Linggau Sel. I, Kota Lubuklinggau";"SUMATERA SELATAN";"31600";"Indonesia";" 082175182223";"";"";"-3.2935625";"102.9300625";"https://maps.google.com/?cid=0x0:0x24b5109c6d325f46";""
"perumahan";"perumahan";"Grand Zuri Lubuklinggau by ZHM";"Jl. Yos Sudarso No.1, Batu Urip Taba, Kec. Lubuk Linggau Tim. I, Kota Lubuklinggau, Sumatera Selatan 31624";"Batu Urip Taba, Kec. Lubuk Linggau Tim. I, Kota Lubuklinggau";"SUMATERA SELATAN";"31624";"Indonesia";" 07337070222";"";"";"-3.2819357";"102.8889477";"https://maps.google.com/?cid=0x0:0xb9d17d256db8fc0d";""
"perumahan";"perumahan";"RedDoorz Syariah near Watervang Lubuk Linggau 2";"Jl. Watervang No.46, Watervang, Kec. Lubuk Linggau Tim. I, Kota Lubuklinggau, Sumatera Selatan 31628";"Watervang, Kec. Lubuk Linggau Tim. I, Kota Lubuklinggau";"SUMATERA SELATAN";"31628";"Indonesia";" 0895417300072";"";"";"-3.2753088";"102.898205";"https://maps.google.com/?cid=0x0:0x5abdf25c70655777";""
"perumahan";"perumahan";"N/A";"";"";"SUMATERA SELATAN";"";"Indonesia";"";"";"";"";"";"https://maps.google.com/?cid=0x0:0x5abdf25c70655777%7C/g/11h89907v_%7Cen-ID";""
"perumahan";"Komplek perumahan";"Perumahan";"Jl lingar barat simpang 4, dekat jembatan gantung No.rt 06, Ulak Lebar, Kec. Lubuk Linggau Bar. II, Sumatera Selatan";"Kota Lubuklinggau, Sumatera Selatan";"SUMATERA SELATAN";"";"Indonesia";"";"";"";"-3.2936102";"102.8442937";"https://maps.google.com/?cid=0x0:0x6c184db2ecd19e2b";""
"perumahan";"Komplek perumahan";"Rumah Kusnadi Yudha Wiguna";"Jl. Perumnas Nikan Jaya Jl.Cempedak 1 No.84 C, RT.03, Nikan Jaya, Kec. Lubuk Linggau Tim. I, Kota Lubuklinggau, Sumatera Selatan 31628";"RT.03, Nikan Jaya, Kec. Lubuk Linggau Tim. I, Kota Lubuklinggau";"SUMATERA SELATAN";"31628";"Indonesia";"";"";"";"-3.286281";"102.910101";"https://maps.google.com/?cid=0x0:0x6dd6af8efb498373";""
"perumahan";"Perumahan";"Perumahan Griya Tanjung Sejahtera (GTS)";"Lubuk Tj., Kec. Lubuk Linggau Bar. I, Kota Lubuklinggau, Sumatera Selatan 31614";"Kec. Lubuk Linggau Bar. I, Kota Lubuklinggau";"SUMATERA SELATAN";"31614";"Indonesia";"";"";"";"-3.3163501";"102.8483572";"https://maps.google.com/?cid=0x0:0x5c4b4a09a9bd0607";""
"perumahan";"perumahan";"OYO 1315 Paris Hotel";"Jl. Trans Sumatera, Taba Jemekeh, Lahat, Lubuklinggau City, South Sumatra 31624";"Taba Jemekeh, Lahat, Lubuklinggau City";"SUMATERA SELATAN";"31624";"Indonesia";" 02129707601";"";"";"-3.281409";"102.8884";"https://maps.google.com/?cid=0x0:0x5f818594564ca86c";""
"perumahan";"perumahan";"WE Hotel Lubuk Linggau";"Jl. Yos Sudarso No.70, RW.72, Taba Jemekeh, Kec. Lubuk Linggau Tim. I, Kota Lubuklinggau, Sumatera Selatan 31625";"RW.72, Taba Jemekeh, Kec. Lubuk Linggau Tim. I, Kota Lubuklinggau";"SUMATERA SELATAN";"31625";"Indonesia";" 07333286777";"";"";"-3.2874168";"102.8787931";"https://maps.google.com/?cid=0x0:0x8ae599c134802184";""
"perumahan";"perumahan";"Hotel Dewinda";"Jl. Yos Sudarso Komplek Ruko Caroline Winasta Blok Blok C1, Watervang, Kec. Lubuk Linggau Tim. I, Kota Lubuklinggau, Sumatera Selatan 31628";"Watervang, Kec. Lubuk Linggau Tim. I, Kota Lubuklinggau";"SUMATERA SELATAN";"31628";"Indonesia";" 07333285353";"";"";"-3.2755129";"102.9013407";"https://maps.google.com/?cid=0x0:0x9d0e5843430afa04";""
"perumahan";"Pembangunan Perumahan";"Perumahan Madani Permai";"MRGV+PX5, Lubuk Tj., Kec. Lubuk Linggau Bar. I, Kota Lubuklinggau, Sumatera Selatan 31615";"Lubuk Tj., Kec. Lubuk Linggau Bar. I, Kota Lubuklinggau";"SUMATERA SELATAN";"31615";"Indonesia";" 0895603122193";"";"";"-3.3232299";"102.8449839";"https://maps.google.com/?cid=0x0:0x9f274273cec36f4a";""
"perumahan";"Komplek perumahan";"Rumah saya";"Jalan Nangka No.9, Ponorogo, Lubuk Linggau Utara Dua (Ii) (belakang SMPN 8, UTARA DUA (II, Sumatera Selatan 31627";"Ponorogo, Lubuk Linggau Utara Dua (Ii) (belakang SMPN 8, UTARA DUA (II";"SUMATERA SELATAN";"31627";"Indonesia";"";"";"";"-3.2781674";"102.8743099";"https://maps.google.com/?cid=0x0:0x40b34b6596a52cda";""
"perumahan";"Komplek perumahan";"rumah";"PVCF+WJQ, Ponorogo, Kec. Lubuk Linggau Utara II, Kota Lubuklinggau, Sumatera Selatan";"Kota Lubuklinggau, Sumatera Selatan";"SUMATERA SELATAN";"";"Indonesia";"";"";"";"-3.2776688";"102.8740938";"https://maps.google.com/?cid=0x0:0x688da2d8ab56a681";""
"perumahan";"Asosiasi/organisasi";"Perumahan Family Land 2";"Jl. Sejahtera, Batu Urip Taba, Kec. Lubuk Linggau Tim. I, Kota Lubuklinggau, Sumatera Selatan";"Kota Lubuklinggau, Sumatera Selatan";"SUMATERA SELATAN";"";"Indonesia";"";"";"";"-3.2831538";"102.8927102";"https://maps.google.com/?cid=0x0:0x66486d8984d659e8";""
"perumahan";"Komplek perumahan";"Perumahan";"Jl lingar barat simpang 4, dekat jembatan gantung No.rt 06, Ulak Lebar, Kec. Lubuk Linggau Bar. II, Sumatera Selatan";"Kota Lubuklinggau, Sumatera Selatan";"SUMATERA SELATAN";"";"Indonesia";"";"";"";"-3.2936102";"102.8442937";"https://maps.google.com/?cid=0x0:0x6c184db2ecd19e2b";""
"perumahan";"Komplek perumahan";"Rumah";"Jl. Pembangunan No.535, RT.06, Lubuk Aman, Kec. Lubuk Linggau Bar. I, Kota Lubuklinggau, Sumatera Selatan 31614";"RT.06, Lubuk Aman, Kec. Lubuk Linggau Bar. I, Kota Lubuklinggau";"SUMATERA SELATAN";"31614";"Indonesia";"";"";"";"-3.3028713";"102.8465162";"https://maps.google.com/?cid=0x0:0x3c85d5556da21168";""
"perumahan";"perumahan";"Lubuklinggau";"Kota Lubuklinggau, Sumatera Selatan";"Kota Lubuklinggau, Sumatera Selatan";"SUMATERA SELATAN";"";"Indonesia";"";"";"";"-3.2995858";"102.857236";"https://maps.google.com/?cid=0x0:0x3039d80b220cc30";""
"perumahan";"Asosiasi/organisasi";"Perumahan Family Land 2";"Jl. Sejahtera, Batu Urip Taba, Kec. Lubuk Linggau Tim. I, Kota Lubuklinggau, Sumatera Selatan";"Kota Lubuklinggau, Sumatera Selatan";"SUMATERA SELATAN";"";"Indonesia";"";"";"";"-3.2831538";"102.8927102";"https://maps.google.com/?cid=0x0:0x66486d8984d659e8";""
"perumahan";"Komplek perumahan";"Perumahan family land";"PVJW+V6M, Batu Urip, Kec. Lubuk Linggau Utara II, Kota Lubuklinggau, Sumatera Selatan";"Kota Lubuklinggau, Sumatera Selatan";"SUMATERA SELATAN";"";"Indonesia";" 082180177180";"";"";"-3.2679572";"102.8956633";"https://maps.google.com/?cid=0x0:0xa2373429259a9654";""
"perumahan";"perumahan";"Sumatera Selatan 31624";"Kota Lubuklinggau, Sumatera Selatan";"Kota Lubuklinggau, Sumatera Selatan";"SUMATERA SELATAN";"";"Indonesia";"";"";"";"-3.2868828";"102.8888786";"https://maps.google.com/?cid=0x0:0x99b9a69506c2bf2d";""
"perumahan";"Komplek perumahan";"Rumah saya";"Jalan Nangka No.9, Ponorogo, Lubuk Linggau Utara Dua (Ii) (belakang SMPN 8, UTARA DUA (II, Sumatera Selatan 31627";"Ponorogo, Lubuk Linggau Utara Dua (Ii) (belakang SMPN 8, UTARA DUA (II";"SUMATERA SELATAN";"31627";"Indonesia";"";"";"";"-3.2781674";"102.8743099";"https://maps.google.com/?cid=0x0:0x40b34b6596a52cda";""
"perumahan";"Asosiasi/organisasi";"Perumahan Family Land 2";"Jl. Sejahtera, Batu Urip Taba, Kec. Lubuk Linggau Tim. I, Kota Lubuklinggau, Sumatera Selatan";"Kota Lubuklinggau, Sumatera Selatan";"SUMATERA SELATAN";"";"Indonesia";"";"";"";"-3.2831538";"102.8927102";"https://maps.google.com/?cid=0x0:0x66486d8984d659e8";""
"perumahan";"Komplek perumahan";"Perumahan family land";"PVJW+V6M, Batu Urip, Kec. Lubuk Linggau Utara II, Kota Lubuklinggau, Sumatera Selatan";"Kota Lubuklinggau, Sumatera Selatan";"SUMATERA SELATAN";"";"Indonesia";" 082180177180";"";"";"-3.2679572";"102.8956633";"https://maps.google.com/?cid=0x0:0xa2373429259a9654";""
"perumahan";"perumahan";"Perumahan MBR Air Temam Madani Harapan Jaya Kota Lubuklinggau";"";"";"SUMATERA SELATAN";"";"Indonesia";" 085783627193";"";"";"-3.2996426";"102.8779769";"https://maps.google.com/?cid=0x0:0x382fdba5ba18f25e";""
"perumahan";"perumahan";"Lubuklinggau";"Kota Lubuklinggau, Sumatera Selatan";"Kota Lubuklinggau, Sumatera Selatan";"SUMATERA SELATAN";"";"Indonesia";"";"";"";"-3.2995858";"102.857236";"https://maps.google.com/?cid=0x0:0x3039d80b220cc30";""
"perumahan";"Perhimpunan Pengembang Perumahan";"Top Bendera";"Simpang perumnas, Tj. Aman, Kec. Lubuk Linggau Bar. I, Kota Lubuklinggau, Sumatera Selatan 31614";"Tj. Aman, Kec. Lubuk Linggau Bar. I, Kota Lubuklinggau";"SUMATERA SELATAN";"31614";"Indonesia";"";"";"";"-3.3108752";"102.8451669";"https://maps.google.com/?cid=0x0:0x3f2e805bbeb6aa99";""
"perumahan";"Pembangunan Perumahan";"Perumahan Griya Harmoni";"MRGV+M74, Lubuk Tj., Kec. Lubuk Linggau Bar. I, Kota Lubuklinggau, Sumatera Selatan 31615";"Lubuk Tj., Kec. Lubuk Linggau Bar. I, Kota Lubuklinggau";"SUMATERA SELATAN";"31615";"Indonesia";" 082178624593";"";"";"-3.3233747";"102.8432033";"https://maps.google.com/?cid=0x0:0x8b848f68460d877f";""
"perumahan";"Pembangunan Perumahan";"Perumahan Puri Marga Mulya";"Jl. Bima, Marga Mulya, Kec. Lubuk Linggau Sel. II, Kota Lubuklinggau, Sumatera Selatan 31625";"Marga Mulya, Kec. Lubuk Linggau Sel. II, Kota Lubuklinggau";"SUMATERA SELATAN";"31625";"Indonesia";" 082279423938";"";"";"-3.2806369";"102.9257938";"https://maps.google.com/?cid=0x0:0x40f3aa098e6b60ad";""
"perumahan";"Perumahan";"Perumahan Griya Tanjung Sejahtera (GTS)";"Lubuk Tj., Kec. Lubuk Linggau Bar. I, Kota Lubuklinggau, Sumatera Selatan 31614";"Kec. Lubuk Linggau Bar. I, Kota Lubuklinggau";"SUMATERA SELATAN";"31614";"Indonesia";"";"";"";"-3.3163501";"102.8483572";"https://maps.google.com/?cid=0x0:0x5c4b4a09a9bd0607";""
"perumahan";"Kantor Perusahaan";"PERUMAHAN AMRI PERSADA 1";"JL.PERBAKIN, Lubuk Tj., Kec. Lubuk Linggau Bar. I, Kota Lubuklinggau, Sumatera Selatan";"Kota Lubuklinggau, Sumatera Selatan";"SUMATERA SELATAN";"";"Indonesia";" 083173759097";"";"";"-3.3176839";"102.8384212";"https://maps.google.com/?cid=0x0:0x673e6938d6830a49";""
"perumahan";"Pembangunan Perumahan";"Perumahan Madani Permai";"MRGV+PX5, Lubuk Tj., Kec. Lubuk Linggau Bar. I, Kota Lubuklinggau, Sumatera Selatan 31615";"Lubuk Tj., Kec. Lubuk Linggau Bar. I, Kota Lubuklinggau";"SUMATERA SELATAN";"31615";"Indonesia";" 0895603122193";"";"";"-3.3232299";"102.8449839";"https://maps.google.com/?cid=0x0:0x9f274273cec36f4a";""
"perumahan";"Asosiasi/organisasi";"Perumahan Family Land 2";"Jl. Sejahtera, Batu Urip Taba, Kec. Lubuk Linggau Tim. I, Kota Lubuklinggau, Sumatera Selatan";"Kota Lubuklinggau, Sumatera Selatan";"SUMATERA SELATAN";"";"Indonesia";"";"";"";"-3.2831538";"102.8927102";"https://maps.google.com/?cid=0x0:0x66486d8984d659e8";""
"perumahan";"Komplek perumahan";"Mutiara Sirdam Residence";"PVJX+PPP, Batu Urip, Kec. Lubuk Linggau Utara II, Kota Lubuklinggau, Sumatera Selatan 31625";"Batu Urip, Kec. Lubuk Linggau Utara II, Kota Lubuklinggau";"SUMATERA SELATAN";"31625";"Indonesia";"";"";"";"-3.2681657";"102.899324";"https://maps.google.com/?cid=0x0:0x764c37ff1a1bff07";""
"perumahan";"Pembangunan Perumahan";"Perumahan Shapire Estate";"PV2X+J4, Jl.Mochtar Amin, Taba Jemekeh, Kec.Linggau 1, Kota Lubuklinggau, Sumatera Selatan";"Kota Lubuklinggau, Sumatera Selatan";"SUMATERA SELATAN";"";"Indonesia";" 085268250578";"";"";"-3.2984375";"102.8978125";"https://maps.google.com/?cid=0x0:0x61bb299b9e80ff3b";""
"perumahan";"Perumahan";"Sejahtera Regency";"PW9H+WC, Marga Mulya, Kec. Lubuk Linggau Sel. II, Kota Lubuklinggau, Sumatera Selatan";"Kota Lubuklinggau, Sumatera Selatan";"SUMATERA SELATAN";"";"Indonesia";"";"";"";"-3.2800871";"102.9281918";"https://maps.google.com/?cid=0x0:0x46fe2f06085a2cf4";""
"perumahan";"Komplek perumahan";"PERDANA REGENCY";"Jl. Sultan Mahmud Badaruddin II Lrg. Topah, Tanah Periuk, Kec. Lubuk Linggau Sel. II, Kota Lubuklinggau, Sumatera Selatan 31625";"Tanah Periuk, Kec. Lubuk Linggau Sel. II, Kota Lubuklinggau";"SUMATERA SELATAN";"31625";"Indonesia";" 082279423938";"";"";"-3.2705485";"102.9347882";"https://maps.google.com/?cid=0x0:0xb03ef701eb8ba347";""
"perumahan";"Pembangunan Perumahan";"Perumahan Graha Marga Mulya";"PWCH+X29, Marga Mulya, Kec. Lubuk Linggau Sel. II, Kota Lubuklinggau, Sumatera Selatan 31625";"Marga Mulya, Kec. Lubuk Linggau Sel. II, Kota Lubuklinggau";"SUMATERA SELATAN";"31625";"Indonesia";"";"";"";"-3.2775786";"102.9276041";"https://maps.google.com/?cid=0x0:0x3c3bcb9fe96a3650";""
"perumahan";"Perumahan";"Graha Marga Mulya";"PWCG+VFH, Marga Mulya, Kec. Lubuk Linggau Sel. II, Kota Lubuklinggau, Sumatera Selatan 31625";"Marga Mulya, Kec. Lubuk Linggau Sel. II, Kota Lubuklinggau";"SUMATERA SELATAN";"31625";"Indonesia";"";"";"";"-3.2778183";"102.926222";"https://maps.google.com/?cid=0x0:0x9a3e9debf9a478c";""
"perumahan";"Komplek perumahan";"Perumahan";"Jl lingar barat simpang 4, dekat jembatan gantung No.rt 06, Ulak Lebar, Kec. Lubuk Linggau Bar. II, Sumatera Selatan";"Kota Lubuklinggau, Sumatera Selatan";"SUMATERA SELATAN";"";"Indonesia";"";"";"";"-3.2936102";"102.8442937";"https://maps.google.com/?cid=0x0:0x6c184db2ecd19e2b";""
"perumahan";"Komplek perumahan";"Perumahan family land";"PVJW+V6M, Batu Urip, Kec. Lubuk Linggau Utara II, Kota Lubuklinggau, Sumatera Selatan";"Kota Lubuklinggau, Sumatera Selatan";"SUMATERA SELATAN";"";"Indonesia";" 082180177180";"";"";"-3.2679572";"102.8956633";"https://maps.google.com/?cid=0x0:0xa2373429259a9654";""
"perumahan";"Kafe";"Satu Hal Indonesia Coffee  Space Vol.002";"Jl. Garuda, Bandung Ujung, Kec. Lubuk Linggau Bar. I, Kota Lubuklinggau, Sumatera Selatan 31611";"Bandung Ujung, Kec. Lubuk Linggau Bar. I, Kota Lubuklinggau";"SUMATERA SELATAN";"31611";"Indonesia";" 082290555168";"";"";"-3.3023655";"102.8541804";"https://maps.google.com/?cid=0x0:0xeefe84a51f241f10";""
"perumahan";"Komplek perumahan";"Perumahan";"Jl. Asoka No.5, RT.10/RW.no 34, Marga Mulya, Kec. Lubuk Linggau Sel. II, Kota Lubuklinggau, Sumatera Selatan 31625";"RT.10/RW.no 34, Marga Mulya, Kec. Lubuk Linggau Sel. II, Kota Lubuklinggau";"SUMATERA SELATAN";"31625";"Indonesia";"";"";"";"-3.2701958";"102.9190069";"https://maps.google.com/?cid=0x0:0xe7572feb9949f666";""
"perumahan";"Perumahan";"Griya Pesona Linggau";"MVRG+PF7, Mesat Seni, Kec. Lubuk Linggau Tim. II, Kota Lubuklinggau, Sumatera Selatan 31613";"Mesat Seni, Kec. Lubuk Linggau Tim. II, Kota Lubuklinggau";"SUMATERA SELATAN";"31613";"Indonesia";"";"";"";"-3.3082208";"102.876171";"https://maps.google.com/?cid=0x0:0x4e3080fdd19f7b87";""
"perumahan";"perumahan";"Grand Zuri Lubuklinggau by ZHM";"Jl. Yos Sudarso No.1, Batu Urip Taba, Kec. Lubuk Linggau Tim. I, Kota Lubuklinggau, Sumatera Selatan 31624";"Batu Urip Taba, Kec. Lubuk Linggau Tim. I, Kota Lubuklinggau";"SUMATERA SELATAN";"31624";"Indonesia";" 07337070222";"";"";"-3.2819357";"102.8889477";"https://maps.google.com/?cid=0x0:0xb9d17d256db8fc0d";""
"perumahan";"perumahan";"Burza Hotel Lubuklinggau";"Jl. Yos Sudarso No.143, Watervang, Kec. Lubuk Linggau Tim. I, Kota Lubuklinggau, Sumatera Selatan 31628";"Watervang, Kec. Lubuk Linggau Tim. I, Kota Lubuklinggau";"SUMATERA SELATAN";"31628";"Indonesia";" 07333280088";"";"";"-3.2776032";"102.8970972";"https://maps.google.com/?cid=0x0:0x4fb4e95f23ada624";""
"perumahan";"perumahan";"WE Hotel Lubuk Linggau";"Jl. Yos Sudarso No.70, RW.72, Taba Jemekeh, Kec. Lubuk Linggau Tim. I, Kota Lubuklinggau, Sumatera Selatan 31625";"RW.72, Taba Jemekeh, Kec. Lubuk Linggau Tim. I, Kota Lubuklinggau";"SUMATERA SELATAN";"31625";"Indonesia";" 07333286777";"";"";"-3.2874168";"102.8787931";"https://maps.google.com/?cid=0x0:0x8ae599c134802184";""
"perumahan";"perumahan";"Hotel Dewinda";"Jl. Yos Sudarso Komplek Ruko Caroline Winasta Blok Blok C1, Watervang, Kec. Lubuk Linggau Tim. I, Kota Lubuklinggau, Sumatera Selatan 31628";"Watervang, Kec. Lubuk Linggau Tim. I, Kota Lubuklinggau";"SUMATERA SELATAN";"31628";"Indonesia";" 07333285353";"";"";"-3.2755129";"102.9013407";"https://maps.google.com/?cid=0x0:0x9d0e5843430afa04";""
"perumahan";"Tujuan Wisata";"Air Terjun Temam";"Jl. Air Temam, Rahmah, Kec. Lubuk Linggau Sel. I, Kota Lubuklinggau, Sumatera Selatan 31600";"Rahmah, Kec. Lubuk Linggau Sel. I, Kota Lubuklinggau";"SUMATERA SELATAN";"31600";"Indonesia";" 082175182223";"";"";"-3.2935625";"102.9300625";"https://maps.google.com/?cid=0x0:0x24b5109c6d325f46";""
"perumahan";"Pembangunan Perumahan";"Maju Mandiri Sanjaya";"PWX7+M4X, Moneng Sepati, Kec. Lubuk Linggau Sel. II, Kota Lubuklinggau, Sumatera Selatan";"Kota Lubuklinggau, Sumatera Selatan";"SUMATERA SELATAN";"";"Indonesia";"";"";"";"-3.2507666";"102.9128556";"https://maps.google.com/?cid=0x0:0x32222da5e24dc5d5";""
"perumahan";"Komplek perumahan";"MODERN HILL RESIDENCE";"MVXX+9JM Tim, I, Taba Jemekeh, Kec. Lubuk Linggau Tim. I, Kota Lubuklinggau, Sumatera Selatan 31625";"I, Taba Jemekeh, Kec. Lubuk Linggau Tim. I, Kota Lubuklinggau";"SUMATERA SELATAN";"31625";"Indonesia";" 085381871070";"";"";"-3.3019756";"102.8988937";"https://maps.google.com/?cid=0x0:0x75b2cfaef0b588bb";""
"perumahan";"perumahan";"Kec. Lubuk Linggau Utara I";"Kota Lubuklinggau, Sumatera Selatan";"Kota Lubuklinggau, Sumatera Selatan";"SUMATERA SELATAN";"";"Indonesia";"";"";"";"-3.2060155";"102.8385682";"https://maps.google.com/?cid=0x0:0xd9a448695deb6686";""
"perumahan";"perumahan";"Sumatera Selatan 31619";"Kec. Lubuk Linggau Utara I, Kota Lubuklinggau, Sumatera Selatan";"Kota Lubuklinggau, Sumatera Selatan";"SUMATERA SELATAN";"";"Indonesia";"";"";"";"-3.1810114";"102.9147742";"https://maps.google.com/?cid=0x0:0x4235b8e6f1a9fdb8";""
"perumahan";"Perumahan";"Perumahan Griya Tanjung Sejahtera (GTS)";"Lubuk Tj., Kec. Lubuk Linggau Bar. I, Kota Lubuklinggau, Sumatera Selatan 31614";"Kec. Lubuk Linggau Bar. I, Kota Lubuklinggau";"SUMATERA SELATAN";"31614";"Indonesia";"";"";"";"-3.3163501";"102.8483572";"https://maps.google.com/?cid=0x0:0x5c4b4a09a9bd0607";""
"perumahan";"Komplek perumahan";"Perumnas nikan jaya";"PW74+VQ9, Nikan Jaya, Kec. Lubuk Linggau Tim. I, Kota Lubuklinggau, Sumatera Selatan 31625";"Nikan Jaya, Kec. Lubuk Linggau Tim. I, Kota Lubuklinggau";"SUMATERA SELATAN";"31625";"Indonesia";" 085382543081";"";"";"-3.2853325";"102.9069784";"https://maps.google.com/?cid=0x0:0x294d4ae3e3eb3b39";""
"perumahan";"Pembangunan Perumahan";"Perumahan Graha Marga Mulya";"PWCH+X29, Marga Mulya, Kec. Lubuk Linggau Sel. II, Kota Lubuklinggau, Sumatera Selatan 31625";"Marga Mulya, Kec. Lubuk Linggau Sel. II, Kota Lubuklinggau";"SUMATERA SELATAN";"31625";"Indonesia";"";"";"";"-3.2775786";"102.9276041";"https://maps.google.com/?cid=0x0:0x3c3bcb9fe96a3650";""
"perumahan";"Perumahan";"PERUMAHAN BUKIT HIJAU SUKAJADI";"MVV4+25R, Bandung Ujung, Kec. Lubuk Linggau Bar. I, Kota Lubuklinggau, Sumatera Selatan 31614";"Bandung Ujung, Kec. Lubuk Linggau Bar. I, Kota Lubuklinggau";"SUMATERA SELATAN";"31614";"Indonesia";" 082180365007";"";"";"-3.3073997";"102.855381";"https://maps.google.com/?cid=0x0:0x69a3509b83e2e354";""
"perumahan";"Pembangunan Perumahan";"Perumahan Madani Permai";"MRGV+PX5, Lubuk Tj., Kec. Lubuk Linggau Bar. I, Kota Lubuklinggau, Sumatera Selatan 31615";"Lubuk Tj., Kec. Lubuk Linggau Bar. I, Kota Lubuklinggau";"SUMATERA SELATAN";"31615";"Indonesia";" 0895603122193";"";"";"-3.3232299";"102.8449839";"https://maps.google.com/?cid=0x0:0x9f274273cec36f4a";""
"perumahan";"Perumahan";"Graha Marga Mulya";"PWCG+VFH, Marga Mulya, Kec. Lubuk Linggau Sel. II, Kota Lubuklinggau, Sumatera Selatan 31625";"Marga Mulya, Kec. Lubuk Linggau Sel. II, Kota Lubuklinggau";"SUMATERA SELATAN";"31625";"Indonesia";"";"";"";"-3.2778183";"102.926222";"https://maps.google.com/?cid=0x0:0x9a3e9debf9a478c";""
"perumahan";"Kantor Perusahaan";"PERUMAHAN AMRI PERSADA 1";"JL.PERBAKIN, Lubuk Tj., Kec. Lubuk Linggau Bar. I, Kota Lubuklinggau, Sumatera Selatan";"Kota Lubuklinggau, Sumatera Selatan";"SUMATERA SELATAN";"";"Indonesia";" 083173759097";"";"";"-3.3176839";"102.8384212";"https://maps.google.com/?cid=0x0:0x673e6938d6830a49";""
"perumahan";"Komplek perumahan";"Komplek perumahan";"PWGM+H6M, Tanah Periuk, Kec. Lubuk Linggau Sel. II, Kota Lubuklinggau, Sumatera Selatan 31625";"Tanah Periuk, Kec. Lubuk Linggau Sel. II, Kota Lubuklinggau";"SUMATERA SELATAN";"31625";"Indonesia";"";"";"";"-3.2733155";"102.9329645";"https://maps.google.com/?cid=0x0:0x633d1da01df68569";""
"perumahan";"Agen Pemasaran";"Perumahan Puri Athena Sejahtera";"Jln Jend. (Pol) Moch Hasan, Rt. 08, Kel, Muara Enim, Kec. Lubuk Linggau Bar. I, Kota Lubuklinggau, Sumatera Selatan 31612";"Rt. 08, Kel, Muara Enim, Kec. Lubuk Linggau Bar. I, Kota Lubuklinggau";"SUMATERA SELATAN";"31612";"Indonesia";"";"";"";"-3.3129307";"102.8633448";"https://maps.google.com/?cid=0x0:0x3c970208b4b661e8";""
"perumahan";"Komplek perumahan";"Perumahan family land";"PVJW+V6M, Batu Urip, Kec. Lubuk Linggau Utara II, Kota Lubuklinggau, Sumatera Selatan";"Kota Lubuklinggau, Sumatera Selatan";"SUMATERA SELATAN";"";"Indonesia";" 082180177180";"";"";"-3.2679572";"102.8956633";"https://maps.google.com/?cid=0x0:0xa2373429259a9654";""
"perumahan";"Rumah Kayu";"Perumahan Pondok Indah Palem Lubuklinggau";"MVP7+22G, Unnamed Road, Sukajadi, Kec. Lubuk Linggau Bar. I, Kota Lubuklinggau, Sumatera Selatan 31614";"Unnamed Road, Sukajadi, Kec. Lubuk Linggau Bar. I, Kota Lubuklinggau";"SUMATERA SELATAN";"31614";"Indonesia";"";"";"";"-3.3149377";"102.8625752";"https://maps.google.com/?cid=0x0:0x9bd44f435c2a9989";""
"perumahan";"Pembangunan Perumahan";"Perumahan Shapire Estate";"PV2X+J4, Jl.Mochtar Amin, Taba Jemekeh, Kec.Linggau 1, Kota Lubuklinggau, Sumatera Selatan";"Kota Lubuklinggau, Sumatera Selatan";"SUMATERA SELATAN";"";"Indonesia";" 085268250578";"";"";"-3.2984375";"102.8978125";"https://maps.google.com/?cid=0x0:0x61bb299b9e80ff3b";""
"perumahan";"Komplek perumahan";"PERDANA REGENCY";"Jl. Sultan Mahmud Badaruddin II Lrg. Topah, Tanah Periuk, Kec. Lubuk Linggau Sel. II, Kota Lubuklinggau, Sumatera Selatan 31625";"Tanah Periuk, Kec. Lubuk Linggau Sel. II, Kota Lubuklinggau";"SUMATERA SELATAN";"31625";"Indonesia";" 082279423938";"";"";"-3.2705485";"102.9347882";"https://maps.google.com/?cid=0x0:0xb03ef701eb8ba347";""
"perumahan";"Asosiasi/organisasi";"Perumahan Family Land 2";"Jl. Sejahtera, Batu Urip Taba, Kec. Lubuk Linggau Tim. I, Kota Lubuklinggau, Sumatera Selatan";"Kota Lubuklinggau, Sumatera Selatan";"SUMATERA SELATAN";"";"Indonesia";"";"";"";"-3.2831538";"102.8927102";"https://maps.google.com/?cid=0x0:0x66486d8984d659e8";""
"perumahan";"Komplek perumahan";"Perumahan";"Jl. Asoka No.5, RT.10/RW.no 34, Marga Mulya, Kec. Lubuk Linggau Sel. II, Kota Lubuklinggau, Sumatera Selatan 31625";"RT.10/RW.no 34, Marga Mulya, Kec. Lubuk Linggau Sel. II, Kota Lubuklinggau";"SUMATERA SELATAN";"31625";"Indonesia";"";"";"";"-3.2701958";"102.9190069";"https://maps.google.com/?cid=0x0:0xe7572feb9949f666";""
"perumahan";"Pembangunan Perumahan";"Black Taba sejahtera";"PV6Q+QXX, Taba Jemekeh, Kec. Lubuk Linggau Tim. I, Kota Lubuklinggau, Sumatera Selatan";"Kota Lubuklinggau, Sumatera Selatan";"SUMATERA SELATAN";"";"Indonesia";"";"";"";"-3.2880181";"102.8899744";"https://maps.google.com/?cid=0x0:0xd99bc4cd7272c8f8";""
"perumahan";"perumahan";"Burza Hotel Lubuklinggau";"Jl. Yos Sudarso No.143, Watervang, Kec. Lubuk Linggau Tim. I, Kota Lubuklinggau, Sumatera Selatan 31628";"Watervang, Kec. Lubuk Linggau Tim. I, Kota Lubuklinggau";"SUMATERA SELATAN";"31628";"Indonesia";" 07333280088";"";"";"-3.2776032";"102.8970972";"https://maps.google.com/?cid=0x0:0x4fb4e95f23ada624";""
"perumahan";"Komplek perumahan";"Rumah warga";"Utara II (dua, Jl. Karya Bakti Gg. Baru No.Rt. 04, Ulak Surung, Kec. Lubuk Linggau Utara II, Kota Lubuklinggau, Sumatera Selatan 31613";"Jl. Karya Bakti Gg. Baru No.Rt. 04, Ulak Surung, Kec. Lubuk Linggau Utara II, Kota Lubuklinggau";"SUMATERA SELATAN";"31613";"Indonesia";"";"";"";"-3.2889845";"102.8609132";"https://maps.google.com/?cid=0x0:0xe7381f6f5ff22a1f";""
"perumahan";"Pembangunan Perumahan";"Rumah";"PV26+V56, Jl. Kopral Makruf, Bandung Kiri, Kec. Lubuk Linggau Bar. I, Kota Lubuklinggau, Sumatera Selatan 31613";"Jl. Kopral Makruf, Bandung Kiri, Kec. Lubuk Linggau Bar. I, Kota Lubuklinggau";"SUMATERA SELATAN";"31613";"Indonesia";"";"";"";"-3.2978443";"102.8603968";"https://maps.google.com/?cid=0x0:0x759c94d319a1dd5f";""
"perumahan";"Pembangunan Perumahan";"Perumahan Nusa Indah Selatan Dua";"Jl. Kalur Kel. Marga Rahayu Kec, Marga Rahayu, Kec. Lubuk Linggau Sel. II, Kota Lubuklinggau, Sumatera Selatan 31625";"Marga Rahayu, Kec. Lubuk Linggau Sel. II, Kota Lubuklinggau";"SUMATERA SELATAN";"31625";"Indonesia";" 081294797388";"";"";"-3.2638011";"102.9238681";"https://maps.google.com/?cid=0x0:0x31983a1f39771551";""
"perumahan";"Bengkel Mobil";"Bengkel mobil pangilan";"Jalan kalur No.Rt. 11, Marga Rahayu, Kec. Lubuk Linggau Sel. II, Kota Lubuklinggau, Sumatera Selatan 31625";"Marga Rahayu, Kec. Lubuk Linggau Sel. II, Kota Lubuklinggau";"SUMATERA SELATAN";"31625";"Indonesia";" 088286096675";"";"";"-3.2640272";"102.9240917";"https://maps.google.com/?cid=0x0:0x74b62698eb405652";""
"perumahan";"Asosiasi/organisasi";"Perumahan Family Land 2";"Jl. Sejahtera, Batu Urip Taba, Kec. Lubuk Linggau Tim. I, Kota Lubuklinggau, Sumatera Selatan";"Kota Lubuklinggau, Sumatera Selatan";"SUMATERA SELATAN";"";"Indonesia";"";"";"";"-3.2831538";"102.8927102";"https://maps.google.com/?cid=0x0:0x66486d8984d659e8";""
"perumahan";"Komplek perumahan";"Perumahan family land";"PVJW+V6M, Batu Urip, Kec. Lubuk Linggau Utara II, Kota Lubuklinggau, Sumatera Selatan";"Kota Lubuklinggau, Sumatera Selatan";"SUMATERA SELATAN";"";"Indonesia";" 082180177180";"";"";"-3.2679572";"102.8956633";"https://maps.google.com/?cid=0x0:0xa2373429259a9654";""
"perumahan";"Pembangunan Perumahan";"Perumahan Nusa Indah Selatan Dua";"Jl. Kalur Kel. Marga Rahayu Kec, Marga Rahayu, Kec. Lubuk Linggau Sel. II, Kota Lubuklinggau, Sumatera Selatan 31625";"Marga Rahayu, Kec. Lubuk Linggau Sel. II, Kota Lubuklinggau";"SUMATERA SELATAN";"31625";"Indonesia";" 081294797388";"";"";"-3.2638011";"102.9238681";"https://maps.google.com/?cid=0x0:0x31983a1f39771551";""
"perumahan";"Bengkel Mobil";"Bengkel mobil pangilan";"Jalan kalur No.Rt. 11, Marga Rahayu, Kec. Lubuk Linggau Sel. II, Kota Lubuklinggau, Sumatera Selatan 31625";"Marga Rahayu, Kec. Lubuk Linggau Sel. II, Kota Lubuklinggau";"SUMATERA SELATAN";"31625";"Indonesia";" 088286096675";"";"";"-3.2640272";"102.9240917";"https://maps.google.com/?cid=0x0:0x74b62698eb405652";""
"perumahan";"Komplek perumahan";"Griya Kenanga 2";"PVPX+HX3, Jl. Kenanga II, Batu Urip, Kec. Lubuk Linggau Utara II, Kota Lubuklinggau, Sumatera Selatan 31627";"Jl. Kenanga II, Batu Urip, Kec. Lubuk Linggau Utara II, Kota Lubuklinggau";"SUMATERA SELATAN";"31627";"Indonesia";" 082175064066";"";"";"-3.2636123";"102.8999071";"https://maps.google.com/?cid=0x0:0xe81c6ae03294bc1d";""
"perumahan";"Pembangunan Perumahan";"Kenanga 2";"PV24+5WC, Bandung Ujung, Kec. Lubuk Linggau Bar. I, Kota Lubuklinggau, Sumatera Selatan";"Kota Lubuklinggau, Sumatera Selatan";"SUMATERA SELATAN";"";"Indonesia";"";"";"";"-3.2995642";"102.8572599";"https://maps.google.com/?cid=0x0:0xaa712632c9824cb0";""
"perumahan";"Komplek perumahan";"Rumah saya";"Jalan Nangka No.9, Ponorogo, Lubuk Linggau Utara Dua (Ii) (belakang SMPN 8, UTARA DUA (II, Sumatera Selatan 31627";"Ponorogo, Lubuk Linggau Utara Dua (Ii) (belakang SMPN 8, UTARA DUA (II";"SUMATERA SELATAN";"31627";"Indonesia";"";"";"";"-3.2781674";"102.8743099";"https://maps.google.com/?cid=0x0:0x40b34b6596a52cda";""
"perumahan";"Komplek perumahan";"rumah";"PVCF+WJQ, Ponorogo, Kec. Lubuk Linggau Utara II, Kota Lubuklinggau, Sumatera Selatan";"Kota Lubuklinggau, Sumatera Selatan";"SUMATERA SELATAN";"";"Indonesia";"";"";"";"-3.2776688";"102.8740938";"https://maps.google.com/?cid=0x0:0x688da2d8ab56a681";""
"perumahan";"perumahan";"Lubuklinggau";"Kota Lubuklinggau, Sumatera Selatan";"Kota Lubuklinggau, Sumatera Selatan";"SUMATERA SELATAN";"";"Indonesia";"";"";"";"-3.2995858";"102.857236";"https://maps.google.com/?cid=0x0:0x3039d80b220cc30";""
"perumahan";"perumahan";"Lubuklinggau";"Kota Lubuklinggau, Sumatera Selatan";"Kota Lubuklinggau, Sumatera Selatan";"SUMATERA SELATAN";"";"Indonesia";"";"";"";"-3.2995858";"102.857236";"https://maps.google.com/?cid=0x0:0x3039d80b220cc30";""
"perumahan";"Asosiasi/organisasi";"Perumahan Family Land 2";"Jl. Sejahtera, Batu Urip Taba, Kec. Lubuk Linggau Tim. I, Kota Lubuklinggau, Sumatera Selatan";"Kota Lubuklinggau, Sumatera Selatan";"SUMATERA SELATAN";"";"Indonesia";"";"";"";"-3.2831538";"102.8927102";"https://maps.google.com/?cid=0x0:0x66486d8984d659e8";""
"perumahan";"perumahan";"Perumahan MBR Air Temam Madani Harapan Jaya Kota Lubuklinggau";"";"";"SUMATERA SELATAN";"";"Indonesia";" 085783627193";"";"";"-3.2996426";"102.8779769";"https://maps.google.com/?cid=0x0:0x382fdba5ba18f25e";""
