Category,Real Category,Business Name,Address,City,State,Postal Code,Country,Phone,Latitude,Longitude,Map Link
cafe,Kedai Kopi,OUI KAFE TIDORE,"MFG4+52H, Indonesiana, Tidore, Kota Tidore Kepulauan, Maluku Utara","Kota Tidore Kepulauan, Maluku Utara",MALUKU UTARA,,Indonesia,81545467219.0,0.6754822,127.4551226,https://maps.google.com/?cid=0x0:0x5bc7b179fe137bd9
cafe,Kedai Kopi,Kora Kora Cafe,"MFG4+97W, Jl. Kemakmuran, Indonesiana, Tidore, Kota Tidore Kepulauan, Maluku Utara","Kota Tidore Kepulauan, Maluku Utara",MALUKU UTARA,,Indonesia,82133169268.0,0.6759807,127.455713,https://maps.google.com/?cid=0x0:0xbc5aefab07cec443
cafe,cafe,Maluku Utara 97811,"Tomagoba, Tidore, Kota Tidore Kepulauan, Maluku Utara","Kota Tidore Kepulauan, Maluku Utara",MALUKU UTARA,,Indonesia,,0.672015,127.4476026,https://maps.google.com/?cid=0x0:0xa12ca31bbe90e0c1
cafe,Kedai Kopi,Ruang Kopi Tidore,"Indonesiana, Tidore, Kota Tidore Kepulauan, Maluku Utara","Kota Tidore Kepulauan, Maluku Utara",MALUKU UTARA,,Indonesia,,0.6768697,127.4565062,https://maps.google.com/?cid=0x0:0x6440830d982ce18
cafe,Kedai Kopi,Kopi Lain Hati Tidore,"MFF4+73M, Jl. Kemakmuran, Indonesiana, Tidore, Kota Tidore Kepulauan, Maluku Utara 97813","Jl. Kemakmuran, Indonesiana, Tidore, Kota Tidore Kepulauan",MALUKU UTARA,97813.0,Indonesia,,0.6732272,127.4548525,https://maps.google.com/?cid=0x0:0xd360577fd7ff3632
cafe,Kafe,Cafe 3Ã3,"MC9W+G95, Jl. Trikora, Tomagoba, Tidore, Kota Tidore Kepulauan, Maluku Utara","Kota Tidore Kepulauan, Maluku Utara",MALUKU UTARA,,Indonesia,81381018054.0,0.6687594,127.4459952,https://maps.google.com/?cid=0x0:0x38c74883d21f8f
cafe,cafe,,,,MALUKU UTARA,,Indonesia,,,,https://maps.google.com/?cid=0x0:0x5bc7b179fe137bd9u0026onu0026midu003d/g/11wr0c5h0z
cafe,cafe,Tidore,"Kota Tidore Kepulauan, Maluku Utara","Kota Tidore Kepulauan, Maluku Utara",MALUKU UTARA,,Indonesia,,0.659078,127.4475867,https://maps.google.com/?cid=0x0:0xee8f70bb2aa00f2e
cafe,Kafe,Kafe Tanjung Tongowai,"JCJJ+V8J, Tongowai, Kec. Tidore Sel., Kota Tidore Kepulauan, Maluku Utara","Kota Tidore Kepulauan, Maluku Utara",MALUKU UTARA,,Indonesia,,0.6322086,127.4307676,https://maps.google.com/?cid=0x0:0xa24e76326394783f
cafe,Studio Rekaman,Nitiprayan Studio  coffee shop,"MFR3+7W5, Dowora, Kec. Tidore Tim., Kota Tidore Kepulauan, Maluku Utara","Kota Tidore Kepulauan, Maluku Utara",MALUKU UTARA,,Indonesia,82134416522.0,0.6904697,127.4556176,https://maps.google.com/?cid=0x0:0xc7c47711c7646bda
cafe,Vegetarian cafe and deli,Dessert Tidore,"MFH3+2C9, Jl. S Parman, Indonesiana, Tidore, Kota Tidore Kepulauan, Maluku Utara","Kota Tidore Kepulauan, Maluku Utara",MALUKU UTARA,,Indonesia,82190513785.0,0.6775347,127.4536231,https://maps.google.com/?cid=0x0:0x8c6445b7c0db63a9
cafe,Kafe,WajeMadahe Cafe,"MFF4+5HQ, Indonesiana, Tidore, Kota Tidore Kepulauan, Maluku Utara","Kota Tidore Kepulauan, Maluku Utara",MALUKU UTARA,,Indonesia,81242056229.0,0.6729518,127.4564722,https://maps.google.com/?cid=0x0:0x5af67f2c39aad59d
cafe,Makanan Sehat,REDZONE CAFE,"Jl. Taman Siswa, Indonesiana, Tidore, Kota Tidore Kepulauan, Maluku Utara","Kota Tidore Kepulauan, Maluku Utara",MALUKU UTARA,,Indonesia,82271623355.0,0.6737802,127.456738,https://maps.google.com/?cid=0x0:0xaca50c580f4a95cd
cafe,Kedai Kopi,KEDAI PODJOK (KEPO),"MFF4+7FG, Jl, RT.02/RW.05, Indonesiana, Tidore, Kota Tidore Kepulauan, Maluku Utara","Kota Tidore Kepulauan, Maluku Utara",MALUKU UTARA,,Indonesia,81272288052.0,0.6731975,127.4561903,https://maps.google.com/?cid=0x0:0xcdcc9f5b005d31a
cafe,cafe,Tidore,"Kota Tidore Kepulauan, Maluku Utara","Kota Tidore Kepulauan, Maluku Utara",MALUKU UTARA,,Indonesia,,0.659078,127.4475867,https://maps.google.com/?cid=0x0:0xee8f70bb2aa00f2e
cafe,Kafe,Cafe Borero,"Jl. Pusaka No.01, Tomagoba, Tidore, Kota Tidore Kepulauan, Maluku Utara","Kota Tidore Kepulauan, Maluku Utara",MALUKU UTARA,,Indonesia,82190003033.0,0.6670624,127.4437836,https://maps.google.com/?cid=0x0:0x3f263fe72bae3896
cafe,Kedai Kopi,Kora Kora Cafe,"MFG4+97W, Jl. Kemakmuran, Indonesiana, Tidore, Kota Tidore Kepulauan, Maluku Utara","Kota Tidore Kepulauan, Maluku Utara",MALUKU UTARA,,Indonesia,82133169268.0,0.6759807,127.455713,https://maps.google.com/?cid=0x0:0xbc5aefab07cec443
cafe,Kedai Kopi,OUI KAFE TIDORE,"MFG4+52H, Indonesiana, Tidore, Kota Tidore Kepulauan, Maluku Utara","Kota Tidore Kepulauan, Maluku Utara",MALUKU UTARA,,Indonesia,81545467219.0,0.6754822,127.4551226,https://maps.google.com/?cid=0x0:0x5bc7b179fe137bd9
cafe,Studio Rekaman,Nitiprayan Studio  coffee shop,"MFR3+7W5, Dowora, Kec. Tidore Tim., Kota Tidore Kepulauan, Maluku Utara","Kota Tidore Kepulauan, Maluku Utara",MALUKU UTARA,,Indonesia,82134416522.0,0.6904697,127.4556176,https://maps.google.com/?cid=0x0:0xc7c47711c7646bda
cafe,Kafe,Kafe Tanjung Tongowai,"JCJJ+V8J, Tongowai, Kec. Tidore Sel., Kota Tidore Kepulauan, Maluku Utara","Kota Tidore Kepulauan, Maluku Utara",MALUKU UTARA,,Indonesia,,0.6322086,127.4307676,https://maps.google.com/?cid=0x0:0xa24e76326394783f
cafe,Kafe,WajeMadahe Cafe,"MFF4+5HQ, Indonesiana, Tidore, Kota Tidore Kepulauan, Maluku Utara","Kota Tidore Kepulauan, Maluku Utara",MALUKU UTARA,,Indonesia,81242056229.0,0.6729518,127.4564722,https://maps.google.com/?cid=0x0:0x5af67f2c39aad59d
cafe,Makanan Sehat,REDZONE CAFE,"Jl. Taman Siswa, Indonesiana, Tidore, Kota Tidore Kepulauan, Maluku Utara","Kota Tidore Kepulauan, Maluku Utara",MALUKU UTARA,,Indonesia,82271623355.0,0.6737802,127.456738,https://maps.google.com/?cid=0x0:0xaca50c580f4a95cd
cafe,Vegetarian cafe and deli,Dessert Tidore,"MFH3+2C9, Jl. S Parman, Indonesiana, Tidore, Kota Tidore Kepulauan, Maluku Utara","Kota Tidore Kepulauan, Maluku Utara",MALUKU UTARA,,Indonesia,82190513785.0,0.6775347,127.4536231,https://maps.google.com/?cid=0x0:0x8c6445b7c0db63a9
cafe,Kedai Kopi,Kopi Lain Hati Tidore,"MFF4+73M, Jl. Kemakmuran, Indonesiana, Tidore, Kota Tidore Kepulauan, Maluku Utara 97813","Jl. Kemakmuran, Indonesiana, Tidore, Kota Tidore Kepulauan",MALUKU UTARA,97813.0,Indonesia,,0.6732272,127.4548525,https://maps.google.com/?cid=0x0:0xd360577fd7ff3632
cafe,Kedai Kopi,Joung Caffe,"MC7X+P8W, Tomagoba, Tidore, Kota Tidore Kepulauan, Maluku Utara","Kota Tidore Kepulauan, Maluku Utara",MALUKU UTARA,,Indonesia,,0.6643707,127.4483341,https://maps.google.com/?cid=0x0:0x9c23302472df4e9a
cafe,Kedai Kopi,legend house,"Gamtufkange, Tidore, Kota Tidore Kepulauan, Maluku Utara","Kota Tidore Kepulauan, Maluku Utara",MALUKU UTARA,,Indonesia,82187029811.0,0.6605357,127.4495727,https://maps.google.com/?cid=0x0:0x2438040eb05d342c
cafe,Kedai Kopi,KEDAI PODJOK (KEPO),"MFF4+7FG, Jl, RT.02/RW.05, Indonesiana, Tidore, Kota Tidore Kepulauan, Maluku Utara","Kota Tidore Kepulauan, Maluku Utara",MALUKU UTARA,,Indonesia,81272288052.0,0.6731975,127.4561903,https://maps.google.com/?cid=0x0:0xcdcc9f5b005d31a
cafe,Kafe,CAFE RUMAH PANCER,"MFH2+CX6, Goto, Tidore, Kota Tidore Kepulauan, Maluku Utara","Kota Tidore Kepulauan, Maluku Utara",MALUKU UTARA,,Indonesia,82271454833.0,0.6785482,127.4523758,https://maps.google.com/?cid=0x0:0x52e1e6b76441865c
cafe,cafe,Maluku Utara 97813,"Tomagoba, Tidore, Kota Tidore Kepulauan, Maluku Utara","Kota Tidore Kepulauan, Maluku Utara",MALUKU UTARA,,Indonesia,,0.6695081,127.4491185,https://maps.google.com/?cid=0x0:0x546e6a7c69e552a0
cafe,Kafe,Cafe Borero,"Jl. Pusaka No.01, Tomagoba, Tidore, Kota Tidore Kepulauan, Maluku Utara","Kota Tidore Kepulauan, Maluku Utara",MALUKU UTARA,,Indonesia,82190003033.0,0.6670624,127.4437836,https://maps.google.com/?cid=0x0:0x3f263fe72bae3896
cafe,Kafe,Cafe 3Ã3,"MC9W+G95, Jl. Trikora, Tomagoba, Tidore, Kota Tidore Kepulauan, Maluku Utara","Kota Tidore Kepulauan, Maluku Utara",MALUKU UTARA,,Indonesia,81381018054.0,0.6687594,127.4459952,https://maps.google.com/?cid=0x0:0x38c74883d21f8f
cafe,Kedai Kopi,Kora Kora Cafe,"MFG4+97W, Jl. Kemakmuran, Indonesiana, Tidore, Kota Tidore Kepulauan, Maluku Utara","Kota Tidore Kepulauan, Maluku Utara",MALUKU UTARA,,Indonesia,82133169268.0,0.6759807,127.455713,https://maps.google.com/?cid=0x0:0xbc5aefab07cec443
cafe,Kedai Kopi,OUI KAFE TIDORE,"MFG4+52H, Indonesiana, Tidore, Kota Tidore Kepulauan, Maluku Utara","Kota Tidore Kepulauan, Maluku Utara",MALUKU UTARA,,Indonesia,81545467219.0,0.6754822,127.4551226,https://maps.google.com/?cid=0x0:0x5bc7b179fe137bd9
cafe,Kedai Kopi,Kopi Lain Hati Tidore,"MFF4+73M, Jl. Kemakmuran, Indonesiana, Tidore, Kota Tidore Kepulauan, Maluku Utara 97813","Jl. Kemakmuran, Indonesiana, Tidore, Kota Tidore Kepulauan",MALUKU UTARA,97813.0,Indonesia,,0.6732272,127.4548525,https://maps.google.com/?cid=0x0:0xd360577fd7ff3632
cafe,Dapur Umum,ðð®ð¶ð²ðµðªð· ð½ð²ð­ð¸ð»ð®,"Kelurahan seli, Tidore, Kota Tidore Kepulauan, Maluku Utara 97813","Tidore, Kota Tidore Kepulauan",MALUKU UTARA,97813.0,Indonesia,82310599732.0,0.6694534,127.4491591,https://maps.google.com/?cid=0x0:0x505861d323bd6896
cafe,cafe,Tidore,"Kota Tidore Kepulauan, Maluku Utara","Kota Tidore Kepulauan, Maluku Utara",MALUKU UTARA,,Indonesia,,0.659078,127.4475867,https://maps.google.com/?cid=0x0:0xee8f70bb2aa00f2e
cafe,Vegetarian cafe and deli,Dessert Tidore,"MFH3+2C9, Jl. S Parman, Indonesiana, Tidore, Kota Tidore Kepulauan, Maluku Utara","Kota Tidore Kepulauan, Maluku Utara",MALUKU UTARA,,Indonesia,82190513785.0,0.6775347,127.4536231,https://maps.google.com/?cid=0x0:0x8c6445b7c0db63a9
cafe,Studio Rekaman,Nitiprayan Studio  coffee shop,"MFR3+7W5, Dowora, Kec. Tidore Tim., Kota Tidore Kepulauan, Maluku Utara","Kota Tidore Kepulauan, Maluku Utara",MALUKU UTARA,,Indonesia,82134416522.0,0.6904697,127.4556176,https://maps.google.com/?cid=0x0:0xc7c47711c7646bda
cafe,Kedai Kopi,Joung Caffe,"MC7X+P8W, Tomagoba, Tidore, Kota Tidore Kepulauan, Maluku Utara","Kota Tidore Kepulauan, Maluku Utara",MALUKU UTARA,,Indonesia,,0.6643707,127.4483341,https://maps.google.com/?cid=0x0:0x9c23302472df4e9a
cafe,Kafe,WajeMadahe Cafe,"MFF4+5HQ, Indonesiana, Tidore, Kota Tidore Kepulauan, Maluku Utara","Kota Tidore Kepulauan, Maluku Utara",MALUKU UTARA,,Indonesia,81242056229.0,0.6729518,127.4564722,https://maps.google.com/?cid=0x0:0x5af67f2c39aad59d
cafe,cafe,Pulau Tidore,"Kota Tidore Kepulauan, Maluku Utara","Kota Tidore Kepulauan, Maluku Utara",MALUKU UTARA,,Indonesia,,0.6740044,127.4040871,https://maps.google.com/?cid=0x0:0xa1475cfd7b0f2a9
cafe,Kafe,Kafe Tanjung Tongowai,"JCJJ+V8J, Tongowai, Kec. Tidore Sel., Kota Tidore Kepulauan, Maluku Utara","Kota Tidore Kepulauan, Maluku Utara",MALUKU UTARA,,Indonesia,,0.6322086,127.4307676,https://maps.google.com/?cid=0x0:0xa24e76326394783f
cafe,Kafe,Cafe Arumy,"QH2F+47G, Galala, Oba Utara, Kota Tidore Kepulauan, Maluku Utara","Kota Tidore Kepulauan, Maluku Utara",MALUKU UTARA,,Indonesia,85244606365.0,0.7505183,127.5733463,https://maps.google.com/?cid=0x0:0x204dd0255df7d64d
cafe,cafe,Maluku Utara 97852,"Sofifi, Oba Utara, Kota Tidore Kepulauan, Maluku Utara","Kota Tidore Kepulauan, Maluku Utara",MALUKU UTARA,,Indonesia,,0.7379173,127.5706308,https://maps.google.com/?cid=0x0:0xb05522de48530924
cafe,Kafe,DUAF RESTO,"PHV9+8HX, Balbar, Oba Utara, Kota Tidore Kepulauan, Maluku Utara","Kota Tidore Kepulauan, Maluku Utara",MALUKU UTARA,,Indonesia,,0.7433491,127.569,https://maps.google.com/?cid=0x0:0xe04eeefdcd3998e4
cafe,Kafe,Fola Gura Caffe,"Jl. Kapitan Patimura, Galala, Oba Utara, Kota Tidore Kepulauan, Maluku Utara","Kota Tidore Kepulauan, Maluku Utara",MALUKU UTARA,,Indonesia,82343007665.0,0.7396656,127.5775954,https://maps.google.com/?cid=0x0:0x16007e8375f7078b
cafe,Kedai Kopi,Kedai Kopi Simpang,"PHHG+H8J, Jl. Topo, Bukit Durian, Oba Utara, Kota Tidore Kepulauan, Maluku Utara","Kota Tidore Kepulauan, Maluku Utara",MALUKU UTARA,,Indonesia,82217694684.0,0.7292263,127.5758748,https://maps.google.com/?cid=0x0:0x12363e4e83d6a713
cafe,Kedai Kopi,KEDAI OTW,"PHQ5+6MC, Sofifi, Oba Utara, Kota Tidore Kepulauan, Maluku Utara","Kota Tidore Kepulauan, Maluku Utara",MALUKU UTARA,,Indonesia,,0.7380557,127.5591536,https://maps.google.com/?cid=0x0:0x6df79b3ce6af5626
cafe,Toko umum,Kedai ibukota,"QH2F+47G, Galala, Oba Utara, Kota Tidore Kepulauan, Maluku Utara","Kota Tidore Kepulauan, Maluku Utara",MALUKU UTARA,,Indonesia,81318404018.0,0.7503175,127.5731899,https://maps.google.com/?cid=0x0:0xb8f332176610cc2e
cafe,Kafe,KOPIUM SOFIFI,"PHXF+538, Galala, Oba Utara, Kota Tidore Kepulauan, Maluku Utara","Kota Tidore Kepulauan, Maluku Utara",MALUKU UTARA,,Indonesia,,0.7479273,127.5727615,https://maps.google.com/?cid=0x0:0xf94188493b779d1a
cafe,Kedai Kopi,Sosuka.Boba,"QH3G+4V6, Jl. Trans Halmahera, Sofifi, Oba Utara, Kota Tidore Kepulauan, Maluku Utara","Kota Tidore Kepulauan, Maluku Utara",MALUKU UTARA,,Indonesia,,0.7527795,127.5771482,https://maps.google.com/?cid=0x0:0x7676c388ee51162b
cafe,Kafe,The Teracce,"PHRH+QG7, Jl. Kapitan Patimura, Galala, Oba Utara, Kota Tidore Kepulauan, Maluku Utara","Kota Tidore Kepulauan, Maluku Utara",MALUKU UTARA,,Indonesia,82191866626.0,0.7419235,127.5787823,https://maps.google.com/?cid=0x0:0x734951e2bfc8c05d
cafe,Kedai Kopi,Kedai es kepalmilo,"PHP9+RW3, Sofifi, Oba Utara, Kota Tidore Kepulauan, Maluku Utara","Kota Tidore Kepulauan, Maluku Utara",MALUKU UTARA,,Indonesia,,0.7368643,127.5700956,https://maps.google.com/?cid=0x0:0xd98a031f2e7d775a
cafe,Kedai Kopi,Chillin' Out!,"Jl. Raya Sultan Nuku, Sofifi, Oba Utara, Kota Tidore Kepulauan, Maluku Utara 97827","Sofifi, Oba Utara, Kota Tidore Kepulauan",MALUKU UTARA,97827.0,Indonesia,8114344494.0,0.7372631,127.5704457,https://maps.google.com/?cid=0x0:0xec3617f84b8cb27e
cafe,Kedai Kopi,kedai KOPRA Sofifi,"Balbar, Oba Utara, Kota Tidore Kepulauan, Maluku Utara","Kota Tidore Kepulauan, Maluku Utara",MALUKU UTARA,,Indonesia,85342108379.0,0.7434142,127.5681054,https://maps.google.com/?cid=0x0:0xcc1052135376b7a7
cafe,Brunch,Kedai KOPRA kopi rampa,"PHQ9+V3F, Sofifi, Oba Utara, Kota Tidore Kepulauan, Maluku Utara","Kota Tidore Kepulauan, Maluku Utara",MALUKU UTARA,,Indonesia,,0.739686,127.5677241,https://maps.google.com/?cid=0x0:0xa517631a77764290
cafe,cafe,Maluku Utara 97852,"Sofifi, Oba Utara, Kota Tidore Kepulauan, Maluku Utara","Kota Tidore Kepulauan, Maluku Utara",MALUKU UTARA,,Indonesia,,0.7379173,127.5706308,https://maps.google.com/?cid=0x0:0xb05522de48530924
cafe,Kafe,Cafe Arumy,"QH2F+47G, Galala, Oba Utara, Kota Tidore Kepulauan, Maluku Utara","Kota Tidore Kepulauan, Maluku Utara",MALUKU UTARA,,Indonesia,85244606365.0,0.7505183,127.5733463,https://maps.google.com/?cid=0x0:0x204dd0255df7d64d
cafe,Kafe,Fola Gura Caffe,"Jl. Kapitan Patimura, Galala, Oba Utara, Kota Tidore Kepulauan, Maluku Utara","Kota Tidore Kepulauan, Maluku Utara",MALUKU UTARA,,Indonesia,82343007665.0,0.7396656,127.5775954,https://maps.google.com/?cid=0x0:0x16007e8375f7078b
cafe,Kedai Kopi,D'd Coffee House,"PHQH+CM3, Jl. Hijra, Sofifi, Oba Utara, Kota Tidore Kepulauan, Maluku Utara","Kota Tidore Kepulauan, Maluku Utara",MALUKU UTARA,,Indonesia,82192402727.0,0.7385114,127.5791769,https://maps.google.com/?cid=0x0:0xa443e14fd1f56841
cafe,Kafe,DUAF RESTO,"PHV9+8HX, Balbar, Oba Utara, Kota Tidore Kepulauan, Maluku Utara","Kota Tidore Kepulauan, Maluku Utara",MALUKU UTARA,,Indonesia,,0.7433491,127.569,https://maps.google.com/?cid=0x0:0xe04eeefdcd3998e4
cafe,Kafe,KOPIUM SOFIFI,"PHXF+538, Galala, Oba Utara, Kota Tidore Kepulauan, Maluku Utara","Kota Tidore Kepulauan, Maluku Utara",MALUKU UTARA,,Indonesia,,0.7479273,127.5727615,https://maps.google.com/?cid=0x0:0xf94188493b779d1a
cafe,Kedai Kopi,Kedai Kopi Simpang,"PHHG+H8J, Jl. Topo, Bukit Durian, Oba Utara, Kota Tidore Kepulauan, Maluku Utara","Kota Tidore Kepulauan, Maluku Utara",MALUKU UTARA,,Indonesia,82217694684.0,0.7292263,127.5758748,https://maps.google.com/?cid=0x0:0x12363e4e83d6a713
cafe,Kedai Kopi,Sosuka.Boba,"QH3G+4V6, Jl. Trans Halmahera, Sofifi, Oba Utara, Kota Tidore Kepulauan, Maluku Utara","Kota Tidore Kepulauan, Maluku Utara",MALUKU UTARA,,Indonesia,,0.7527795,127.5771482,https://maps.google.com/?cid=0x0:0x7676c388ee51162b
cafe,Kafe,The Teracce,"PHRH+QG7, Jl. Kapitan Patimura, Galala, Oba Utara, Kota Tidore Kepulauan, Maluku Utara","Kota Tidore Kepulauan, Maluku Utara",MALUKU UTARA,,Indonesia,82191866626.0,0.7419235,127.5787823,https://maps.google.com/?cid=0x0:0x734951e2bfc8c05d
cafe,Toko umum,Kedai ibukota,"QH2F+47G, Galala, Oba Utara, Kota Tidore Kepulauan, Maluku Utara","Kota Tidore Kepulauan, Maluku Utara",MALUKU UTARA,,Indonesia,81318404018.0,0.7503175,127.5731899,https://maps.google.com/?cid=0x0:0xb8f332176610cc2e
cafe,Kedai Kopi,KEDAI OTW,"PHQ5+6MC, Sofifi, Oba Utara, Kota Tidore Kepulauan, Maluku Utara","Kota Tidore Kepulauan, Maluku Utara",MALUKU UTARA,,Indonesia,,0.7380557,127.5591536,https://maps.google.com/?cid=0x0:0x6df79b3ce6af5626
cafe,Kedai Kopi,Fala Dudu,"QH3F+3XC, Galala, Oba Utara, Kota Tidore Kepulauan, Maluku Utara","Kota Tidore Kepulauan, Maluku Utara",MALUKU UTARA,,Indonesia,,0.7526814,127.5748853,https://maps.google.com/?cid=0x0:0x38f295eded5b359d
cafe,Kedai Kopi,Kedai es kepalmilo,"PHP9+RW3, Sofifi, Oba Utara, Kota Tidore Kepulauan, Maluku Utara","Kota Tidore Kepulauan, Maluku Utara",MALUKU UTARA,,Indonesia,,0.7368643,127.5700956,https://maps.google.com/?cid=0x0:0xd98a031f2e7d775a
cafe,Kafe,Cafe 3Ã3,"MC9W+G95, Jl. Trikora, Tomagoba, Tidore, Kota Tidore Kepulauan, Maluku Utara","Kota Tidore Kepulauan, Maluku Utara",MALUKU UTARA,,Indonesia,81381018054.0,0.6687594,127.4459952,https://maps.google.com/?cid=0x0:0x38c74883d21f8f
cafe,Kedai Kopi,Kora Kora Cafe,"MFG4+97W, Jl. Kemakmuran, Indonesiana, Tidore, Kota Tidore Kepulauan, Maluku Utara","Kota Tidore Kepulauan, Maluku Utara",MALUKU UTARA,,Indonesia,82133169268.0,0.6759807,127.455713,https://maps.google.com/?cid=0x0:0xbc5aefab07cec443
cafe,cafe,Maluku Utara 97813,"Tomagoba, Tidore, Kota Tidore Kepulauan, Maluku Utara","Kota Tidore Kepulauan, Maluku Utara",MALUKU UTARA,,Indonesia,,0.6695081,127.4491185,https://maps.google.com/?cid=0x0:0x546e6a7c69e552a0
cafe,Kedai Kopi,Kopi Lain Hati Tidore,"MFF4+73M, Jl. Kemakmuran, Indonesiana, Tidore, Kota Tidore Kepulauan, Maluku Utara 97813","Jl. Kemakmuran, Indonesiana, Tidore, Kota Tidore Kepulauan",MALUKU UTARA,97813.0,Indonesia,,0.6732272,127.4548525,https://maps.google.com/?cid=0x0:0xd360577fd7ff3632
cafe,Dapur Umum,ðð®ð¶ð²ðµðªð· ð½ð²ð­ð¸ð»ð®,"Kelurahan seli, Tidore, Kota Tidore Kepulauan, Maluku Utara 97813","Tidore, Kota Tidore Kepulauan",MALUKU UTARA,97813.0,Indonesia,82310599732.0,0.6694534,127.4491591,https://maps.google.com/?cid=0x0:0x505861d323bd6896
cafe,Kafe,Cafe Borero,"Jl. Pusaka No.01, Tomagoba, Tidore, Kota Tidore Kepulauan, Maluku Utara","Kota Tidore Kepulauan, Maluku Utara",MALUKU UTARA,,Indonesia,82190003033.0,0.6670624,127.4437836,https://maps.google.com/?cid=0x0:0x3f263fe72bae3896
cafe,Kedai Kopi,Ruang Kopi Tidore,"Indonesiana, Tidore, Kota Tidore Kepulauan, Maluku Utara","Kota Tidore Kepulauan, Maluku Utara",MALUKU UTARA,,Indonesia,,0.6768697,127.4565062,https://maps.google.com/?cid=0x0:0x6440830d982ce18
cafe,Kedai Kopi,KEDAI PODJOK (KEPO),"MFF4+7FG, Jl, RT.02/RW.05, Indonesiana, Tidore, Kota Tidore Kepulauan, Maluku Utara","Kota Tidore Kepulauan, Maluku Utara",MALUKU UTARA,,Indonesia,81272288052.0,0.6731975,127.4561903,https://maps.google.com/?cid=0x0:0xcdcc9f5b005d31a
cafe,Kafe,Kafe Tanjung Tongowai,"JCJJ+V8J, Tongowai, Kec. Tidore Sel., Kota Tidore Kepulauan, Maluku Utara","Kota Tidore Kepulauan, Maluku Utara",MALUKU UTARA,,Indonesia,,0.6322086,127.4307676,https://maps.google.com/?cid=0x0:0xa24e76326394783f
cafe,Kafe,Jarod Cafe,"Q9MM+C8M, Jl. Stadion, Stadion, Kec. Ternate Tengah, Kota Ternate, Maluku Utara","Kota Ternate, Maluku Utara",MALUKU UTARA,,Indonesia,9213110098.0,0.783593,127.3832983,https://maps.google.com/?cid=0x0:0x110db354f85f7437
cafe,Kafe,Rotasi Coffee Lab,"Jl. Tugu Maku Gawene, Kayu Merah, Kec. Ternate Sel., Kota Ternate, Maluku Utara","Kota Ternate, Maluku Utara",MALUKU UTARA,,Indonesia,,0.766766,127.3650756,https://maps.google.com/?cid=0x0:0x95e18d186f4710e5
cafe,Kafe,Kopi Dabe 1505,"Kelurahan Cobodoe, Kec. Tidore Tim., Kota Tidore Kepulauan, Maluku Utara 97813","Kec. Tidore Tim., Kota Tidore Kepulauan",MALUKU UTARA,97813.0,Indonesia,85298887716.0,0.6936442,127.4532365,https://maps.google.com/?cid=0x0:0x27da74523b477103
cafe,Kafe,WajeMadahe Cafe,"MFF4+5HQ, Indonesiana, Tidore, Kota Tidore Kepulauan, Maluku Utara","Kota Tidore Kepulauan, Maluku Utara",MALUKU UTARA,,Indonesia,81242056229.0,0.6729518,127.4564722,https://maps.google.com/?cid=0x0:0x5af67f2c39aad59d
cafe,Kafe,Fola Gura Caffe,"Jl. Kapitan Patimura, Galala, Oba Utara, Kota Tidore Kepulauan, Maluku Utara","Kota Tidore Kepulauan, Maluku Utara",MALUKU UTARA,,Indonesia,82343007665.0,0.7396656,127.5775954,https://maps.google.com/?cid=0x0:0x16007e8375f7078b
cafe,cafe,Maluku Utara 97813,"Tomagoba, Tidore, Kota Tidore Kepulauan, Maluku Utara","Kota Tidore Kepulauan, Maluku Utara",MALUKU UTARA,,Indonesia,,0.6695081,127.4491185,https://maps.google.com/?cid=0x0:0x546e6a7c69e552a0
cafe,Kafe,Cafe Borero,"Jl. Pusaka No.01, Tomagoba, Tidore, Kota Tidore Kepulauan, Maluku Utara","Kota Tidore Kepulauan, Maluku Utara",MALUKU UTARA,,Indonesia,82190003033.0,0.6670624,127.4437836,https://maps.google.com/?cid=0x0:0x3f263fe72bae3896
cafe,Kafe,Cafe 3Ã3,"MC9W+G95, Jl. Trikora, Tomagoba, Tidore, Kota Tidore Kepulauan, Maluku Utara","Kota Tidore Kepulauan, Maluku Utara",MALUKU UTARA,,Indonesia,81381018054.0,0.6687594,127.4459952,https://maps.google.com/?cid=0x0:0x38c74883d21f8f
cafe,Kedai Kopi,Ruang Kopi Tidore,"Indonesiana, Tidore, Kota Tidore Kepulauan, Maluku Utara","Kota Tidore Kepulauan, Maluku Utara",MALUKU UTARA,,Indonesia,,0.6768697,127.4565062,https://maps.google.com/?cid=0x0:0x6440830d982ce18
cafe,Kedai Kopi,Kopi Lain Hati Tidore,"MFF4+73M, Jl. Kemakmuran, Indonesiana, Tidore, Kota Tidore Kepulauan, Maluku Utara 97813","Jl. Kemakmuran, Indonesiana, Tidore, Kota Tidore Kepulauan",MALUKU UTARA,97813.0,Indonesia,,0.6732272,127.4548525,https://maps.google.com/?cid=0x0:0xd360577fd7ff3632
cafe,Kedai Kopi,OUI KAFE TIDORE,"MFG4+52H, Indonesiana, Tidore, Kota Tidore Kepulauan, Maluku Utara","Kota Tidore Kepulauan, Maluku Utara",MALUKU UTARA,,Indonesia,81545467219.0,0.6754822,127.4551226,https://maps.google.com/?cid=0x0:0x5bc7b179fe137bd9
cafe,Kedai Kopi,Samanta,"Indonesiana, Tidore, Kota Tidore Kepulauan, Maluku Utara","Kota Tidore Kepulauan, Maluku Utara",MALUKU UTARA,,Indonesia,81353921318.0,0.6714426,127.4537589,https://maps.google.com/?cid=0x0:0x7bedbb7c69228c94
cafe,Kafe,WajeMadahe Cafe,"MFF4+5HQ, Indonesiana, Tidore, Kota Tidore Kepulauan, Maluku Utara","Kota Tidore Kepulauan, Maluku Utara",MALUKU UTARA,,Indonesia,81242056229.0,0.6729518,127.4564722,https://maps.google.com/?cid=0x0:0x5af67f2c39aad59d
cafe,Kafe,Kafe Tanjung Tongowai,"JCJJ+V8J, Tongowai, Kec. Tidore Sel., Kota Tidore Kepulauan, Maluku Utara","Kota Tidore Kepulauan, Maluku Utara",MALUKU UTARA,,Indonesia,,0.6322086,127.4307676,https://maps.google.com/?cid=0x0:0xa24e76326394783f
cafe,Kedai Kopi,Rumah Tua coffee,"Indonesiana, Tidore, Kota Tidore Kepulauan, Maluku Utara","Kota Tidore Kepulauan, Maluku Utara",MALUKU UTARA,,Indonesia,82398635657.0,0.678123,127.4519385,https://maps.google.com/?cid=0x0:0xb5e6aed748293f8c
cafe,Kafe,Jarod Cafe,"Q9MM+C8M, Jl. Stadion, Stadion, Kec. Ternate Tengah, Kota Ternate, Maluku Utara","Kota Ternate, Maluku Utara",MALUKU UTARA,,Indonesia,9213110098.0,0.783593,127.3832983,https://maps.google.com/?cid=0x0:0x110db354f85f7437
cafe,Dapur Umum,ðð®ð¶ð²ðµðªð· ð½ð²ð­ð¸ð»ð®,"Kelurahan seli, Tidore, Kota Tidore Kepulauan, Maluku Utara 97813","Tidore, Kota Tidore Kepulauan",MALUKU UTARA,97813.0,Indonesia,82310599732.0,0.6694534,127.4491591,https://maps.google.com/?cid=0x0:0x505861d323bd6896
cafe,Kedai Kopi,Cafe Nongkrong 2,"P9GP+7JJ, Rum, Kec. Tidore Utara, Kota Tidore Kepulauan, Maluku Utara","Kota Tidore Kepulauan, Maluku Utara",MALUKU UTARA,,Indonesia,,0.7256937,127.3865875,https://maps.google.com/?cid=0x0:0x4bf04048ff178d29
cafe,Kafe,ABK PANTURAS TIDORE,"MC5W+PMJ, Gamtufkange, Tidore, Kota Tidore Kepulauan, Maluku Utara","Kota Tidore Kepulauan, Maluku Utara",MALUKU UTARA,,Indonesia,,0.6593301,127.4466426,https://maps.google.com/?cid=0x0:0xe77c2e362a83f7a2
cafe,cafe,Maluku Utara 97852,"Sofifi, Oba Utara, Kota Tidore Kepulauan, Maluku Utara","Kota Tidore Kepulauan, Maluku Utara",MALUKU UTARA,,Indonesia,,0.7379173,127.5706308,https://maps.google.com/?cid=0x0:0xb05522de48530924
cafe,Kafe,Fola Gura Caffe,"Jl. Kapitan Patimura, Galala, Oba Utara, Kota Tidore Kepulauan, Maluku Utara","Kota Tidore Kepulauan, Maluku Utara",MALUKU UTARA,,Indonesia,82343007665.0,0.7396656,127.5775954,https://maps.google.com/?cid=0x0:0x16007e8375f7078b
cafe,Kafe,"D,TERAS CAFFEE","PHQG+QVQ, Jl. Kapitan Patimura, Galala, Oba Utara, Kota Tidore Kepulauan, Maluku Utara","Kota Tidore Kepulauan, Maluku Utara",MALUKU UTARA,,Indonesia,82244999911.0,0.7394699,127.5772355,https://maps.google.com/?cid=0x0:0xd8ec05cb988f13b1
cafe,Kedai Kopi,Kedai Kopi Simpang,"PHHG+H8J, Jl. Topo, Bukit Durian, Oba Utara, Kota Tidore Kepulauan, Maluku Utara","Kota Tidore Kepulauan, Maluku Utara",MALUKU UTARA,,Indonesia,82217694684.0,0.7292263,127.5758748,https://maps.google.com/?cid=0x0:0x12363e4e83d6a713
cafe,Kafe,The Teracce,"PHRH+QG7, Jl. Kapitan Patimura, Galala, Oba Utara, Kota Tidore Kepulauan, Maluku Utara","Kota Tidore Kepulauan, Maluku Utara",MALUKU UTARA,,Indonesia,82191866626.0,0.7419235,127.5787823,https://maps.google.com/?cid=0x0:0x734951e2bfc8c05d
cafe,Kedai Kopi,KEDAI OTW,"PHQ5+6MC, Sofifi, Oba Utara, Kota Tidore Kepulauan, Maluku Utara","Kota Tidore Kepulauan, Maluku Utara",MALUKU UTARA,,Indonesia,,0.7380557,127.5591536,https://maps.google.com/?cid=0x0:0x6df79b3ce6af5626
cafe,Kedai Kopi,Sosuka.Boba,"QH3G+4V6, Jl. Trans Halmahera, Sofifi, Oba Utara, Kota Tidore Kepulauan, Maluku Utara","Kota Tidore Kepulauan, Maluku Utara",MALUKU UTARA,,Indonesia,,0.7527795,127.5771482,https://maps.google.com/?cid=0x0:0x7676c388ee51162b
cafe,Kafe,Cafe Borero,"Jl. Pusaka No.01, Tomagoba, Tidore, Kota Tidore Kepulauan, Maluku Utara","Kota Tidore Kepulauan, Maluku Utara",MALUKU UTARA,,Indonesia,82190003033.0,0.6670624,127.4437836,https://maps.google.com/?cid=0x0:0x3f263fe72bae3896
cafe,Kedai Kopi,Chillin' Out!,"Jl. Raya Sultan Nuku, Sofifi, Oba Utara, Kota Tidore Kepulauan, Maluku Utara 97827","Sofifi, Oba Utara, Kota Tidore Kepulauan",MALUKU UTARA,97827.0,Indonesia,8114344494.0,0.7372631,127.5704457,https://maps.google.com/?cid=0x0:0xec3617f84b8cb27e
cafe,Kedai Kopi,Fala Dudu,"QH3F+3XC, Galala, Oba Utara, Kota Tidore Kepulauan, Maluku Utara","Kota Tidore Kepulauan, Maluku Utara",MALUKU UTARA,,Indonesia,,0.7526814,127.5748853,https://maps.google.com/?cid=0x0:0x38f295eded5b359d
cafe,Taman,Km 40,"PHQC+49G, Jl. Jend. Sudirman, Bukit Durian, Oba Utara, Kota Tidore Kepulauan, Maluku Utara","Kota Tidore Kepulauan, Maluku Utara",MALUKU UTARA,,Indonesia,,0.7375145,127.5711207,https://maps.google.com/?cid=0x0:0x76657287dec4e6a0
cafe,Kedai Kopi,Kedai es kepalmilo,"PHP9+RW3, Sofifi, Oba Utara, Kota Tidore Kepulauan, Maluku Utara","Kota Tidore Kepulauan, Maluku Utara",MALUKU UTARA,,Indonesia,,0.7368643,127.5700956,https://maps.google.com/?cid=0x0:0xd98a031f2e7d775a
cafe,Taman,KOTA SOFIFI,"PHQC+49G, Jl. Jend. Sudirman, Bukit Durian, Oba Utara, Kota Tidore Kepulauan, Maluku Utara","Kota Tidore Kepulauan, Maluku Utara",MALUKU UTARA,,Indonesia,,0.7378104,127.5709455,https://maps.google.com/?cid=0x0:0x7ae754cf25ba6142
cafe,Brunch,Kedai KOPRA kopi rampa,"PHQ9+V3F, Sofifi, Oba Utara, Kota Tidore Kepulauan, Maluku Utara","Kota Tidore Kepulauan, Maluku Utara",MALUKU UTARA,,Indonesia,,0.739686,127.5677241,https://maps.google.com/?cid=0x0:0xa517631a77764290
cafe,cafe,Maluku Utara 97852,"Sofifi, Oba Utara, Kota Tidore Kepulauan, Maluku Utara","Kota Tidore Kepulauan, Maluku Utara",MALUKU UTARA,,Indonesia,,0.7379173,127.5706308,https://maps.google.com/?cid=0x0:0xb05522de48530924
cafe,Kafe,"D,TERAS CAFFEE","PHQG+QVQ, Jl. Kapitan Patimura, Galala, Oba Utara, Kota Tidore Kepulauan, Maluku Utara","Kota Tidore Kepulauan, Maluku Utara",MALUKU UTARA,,Indonesia,82244999911.0,0.7394699,127.5772355,https://maps.google.com/?cid=0x0:0xd8ec05cb988f13b1
cafe,Kafe,Fola Gura Caffe,"Jl. Kapitan Patimura, Galala, Oba Utara, Kota Tidore Kepulauan, Maluku Utara","Kota Tidore Kepulauan, Maluku Utara",MALUKU UTARA,,Indonesia,82343007665.0,0.7396656,127.5775954,https://maps.google.com/?cid=0x0:0x16007e8375f7078b
cafe,Kafe,The Teracce,"PHRH+QG7, Jl. Kapitan Patimura, Galala, Oba Utara, Kota Tidore Kepulauan, Maluku Utara","Kota Tidore Kepulauan, Maluku Utara",MALUKU UTARA,,Indonesia,82191866626.0,0.7419235,127.5787823,https://maps.google.com/?cid=0x0:0x734951e2bfc8c05d
cafe,Kedai Kopi,Sosuka.Boba,"QH3G+4V6, Jl. Trans Halmahera, Sofifi, Oba Utara, Kota Tidore Kepulauan, Maluku Utara","Kota Tidore Kepulauan, Maluku Utara",MALUKU UTARA,,Indonesia,,0.7527795,127.5771482,https://maps.google.com/?cid=0x0:0x7676c388ee51162b
cafe,Kedai Kopi,Kedai es kepalmilo,"PHP9+RW3, Sofifi, Oba Utara, Kota Tidore Kepulauan, Maluku Utara","Kota Tidore Kepulauan, Maluku Utara",MALUKU UTARA,,Indonesia,,0.7368643,127.5700956,https://maps.google.com/?cid=0x0:0xd98a031f2e7d775a
cafe,Brunch,Kedai KOPRA kopi rampa,"PHQ9+V3F, Sofifi, Oba Utara, Kota Tidore Kepulauan, Maluku Utara","Kota Tidore Kepulauan, Maluku Utara",MALUKU UTARA,,Indonesia,,0.739686,127.5677241,https://maps.google.com/?cid=0x0:0xa517631a77764290
cafe,Taman,Km 40,"PHQC+49G, Jl. Jend. Sudirman, Bukit Durian, Oba Utara, Kota Tidore Kepulauan, Maluku Utara","Kota Tidore Kepulauan, Maluku Utara",MALUKU UTARA,,Indonesia,,0.7375145,127.5711207,https://maps.google.com/?cid=0x0:0x76657287dec4e6a0
cafe,Kedai Kopi,Chillin' Out!,"Jl. Raya Sultan Nuku, Sofifi, Oba Utara, Kota Tidore Kepulauan, Maluku Utara 97827","Sofifi, Oba Utara, Kota Tidore Kepulauan",MALUKU UTARA,97827.0,Indonesia,8114344494.0,0.7372631,127.5704457,https://maps.google.com/?cid=0x0:0xec3617f84b8cb27e
cafe,Taman,KOTA SOFIFI,"PHQC+49G, Jl. Jend. Sudirman, Bukit Durian, Oba Utara, Kota Tidore Kepulauan, Maluku Utara","Kota Tidore Kepulauan, Maluku Utara",MALUKU UTARA,,Indonesia,,0.7378104,127.5709455,https://maps.google.com/?cid=0x0:0x7ae754cf25ba6142
cafe,Kafe,Kafe Tanjung Tongowai,"JCJJ+V8J, Tongowai, Kec. Tidore Sel., Kota Tidore Kepulauan, Maluku Utara","Kota Tidore Kepulauan, Maluku Utara",MALUKU UTARA,,Indonesia,,0.6322086,127.4307676,https://maps.google.com/?cid=0x0:0xa24e76326394783f
cafe,Kafe,Pangkalan makanan ringan/pentolan,"PHP9+RW3, Sofifi, Oba Utara, Kota Tidore Kepulauan, Maluku Utara","Kota Tidore Kepulauan, Maluku Utara",MALUKU UTARA,,Indonesia,,0.736877,127.5704557,https://maps.google.com/?cid=0x0:0x1a4679df3280f310
cafe,cafe,Kec. Oba Sel.,"Kota Tidore Kepulauan, Maluku Utara","Kota Tidore Kepulauan, Maluku Utara",MALUKU UTARA,,Indonesia,,0.1136623,127.7329973,https://maps.google.com/?cid=0x0:0x98be6acd572d2bd7
cafe,Kafe,Cafe Borero,"Jl. Pusaka No.01, Tomagoba, Tidore, Kota Tidore Kepulauan, Maluku Utara","Kota Tidore Kepulauan, Maluku Utara",MALUKU UTARA,,Indonesia,82190003033.0,0.6670624,127.4437836,https://maps.google.com/?cid=0x0:0x3f263fe72bae3896
cafe,cafe,Maluku Utara 97813,"Tomagoba, Tidore, Kota Tidore Kepulauan, Maluku Utara","Kota Tidore Kepulauan, Maluku Utara",MALUKU UTARA,,Indonesia,,0.6695081,127.4491185,https://maps.google.com/?cid=0x0:0x546e6a7c69e552a0
cafe,Kafe,Cafe 3Ã3,"MC9W+G95, Jl. Trikora, Tomagoba, Tidore, Kota Tidore Kepulauan, Maluku Utara","Kota Tidore Kepulauan, Maluku Utara",MALUKU UTARA,,Indonesia,81381018054.0,0.6687594,127.4459952,https://maps.google.com/?cid=0x0:0x38c74883d21f8f
cafe,Kedai Kopi,Ruang Kopi Tidore,"Indonesiana, Tidore, Kota Tidore Kepulauan, Maluku Utara","Kota Tidore Kepulauan, Maluku Utara",MALUKU UTARA,,Indonesia,,0.6768697,127.4565062,https://maps.google.com/?cid=0x0:0x6440830d982ce18
cafe,Kedai Kopi,OUI KAFE TIDORE,"MFG4+52H, Indonesiana, Tidore, Kota Tidore Kepulauan, Maluku Utara","Kota Tidore Kepulauan, Maluku Utara",MALUKU UTARA,,Indonesia,81545467219.0,0.6754822,127.4551226,https://maps.google.com/?cid=0x0:0x5bc7b179fe137bd9
cafe,Kedai Kopi,Kopi Lain Hati Tidore,"MFF4+73M, Jl. Kemakmuran, Indonesiana, Tidore, Kota Tidore Kepulauan, Maluku Utara 97813","Jl. Kemakmuran, Indonesiana, Tidore, Kota Tidore Kepulauan",MALUKU UTARA,97813.0,Indonesia,,0.6732272,127.4548525,https://maps.google.com/?cid=0x0:0xd360577fd7ff3632
cafe,cafe,Pulau Tidore,"Kota Tidore Kepulauan, Maluku Utara","Kota Tidore Kepulauan, Maluku Utara",MALUKU UTARA,,Indonesia,,0.6740044,127.4040871,https://maps.google.com/?cid=0x0:0xa1475cfd7b0f2a9
cafe,Dapur Umum,ðð®ð¶ð²ðµðªð· ð½ð²ð­ð¸ð»ð®,"Kelurahan seli, Tidore, Kota Tidore Kepulauan, Maluku Utara 97813","Tidore, Kota Tidore Kepulauan",MALUKU UTARA,97813.0,Indonesia,82310599732.0,0.6694534,127.4491591,https://maps.google.com/?cid=0x0:0x505861d323bd6896
cafe,Kafe,Cafe Borero,"Jl. Pusaka No.01, Tomagoba, Tidore, Kota Tidore Kepulauan, Maluku Utara","Kota Tidore Kepulauan, Maluku Utara",MALUKU UTARA,,Indonesia,82190003033.0,0.6670624,127.4437836,https://maps.google.com/?cid=0x0:0x3f263fe72bae3896
hotel,hotel,Maluku Utara 97811,"Tomagoba, Tidore, Kota Tidore Kepulauan, Maluku Utara","Kota Tidore Kepulauan, Maluku Utara",MALUKU UTARA,,Indonesia,,0.672015,127.4476026,https://maps.google.com/?cid=0x0:0xa12ca31bbe90e0c1
hotel,hotel,Penginapan Visal Tidore  Meeting Room,"JL. Sultan Zainal Abidin Syah, Gamtufkange, Tidore, Kota Tidore Kepulauan, Maluku Utara 97812","Gamtufkange, Tidore, Kota Tidore Kepulauan",MALUKU UTARA,97812.0,Indonesia,81380000155.0,0.6573605,127.4485832,https://maps.google.com/?cid=0x0:0xcd95aa95f3406d6a
hotel,hotel,The Batik Hotel,"Jl. Kapitan Pattimura, Stadion, Kec. Ternate Tengah, Kota Ternate, Maluku Utara","Kota Ternate, Maluku Utara",MALUKU UTARA,,Indonesia,8114343343.0,0.7877576,127.3845077,https://maps.google.com/?cid=0x0:0x328d07a18d098e8d
hotel,hotel,,,,MALUKU UTARA,,Indonesia,,,,https://maps.google.com/?cid=0x0:0x67cf3fcc0f55895%7C/g/11b6d93y9z%7Cid-ID
hotel,hotel,Muara Hotel and Mall Ternate,"Jl. Merdeka No.19, Gamalama, Kec. Ternate Tengah, Kota Ternate, Maluku Utara","Kota Ternate, Maluku Utara",MALUKU UTARA,,Indonesia,9213125553.0,0.7911445,127.3861909,https://maps.google.com/?cid=0x0:0x67cf3fcc0f55895
hotel,hotel,Rumah Ngade Resort,"Jl. Pertamina No.40, Ngade, Kec. Ternate Sel., Kota Ternate, Maluku Utara","Kota Ternate, Maluku Utara",MALUKU UTARA,,Indonesia,895417300072.0,0.7617334,127.3505196,https://maps.google.com/?cid=0x0:0xa398034a24e94d35
hotel,hotel,Seroja,"Jl. Sultan Syafuddin No. 16, Kp. Soajawa, Soa Sio, Tidore, Kota Tidore Kepulauan, Maluku Utara","Kota Tidore Kepulauan, Maluku Utara",MALUKU UTARA,,Indonesia,81342633390.0,0.6494636,127.4433532,https://maps.google.com/?cid=0x0:0x94f7f7c2a0a1ba76
hotel,hotel,New Elshinta Hotel,"Jl. Pahlawan Revolusi No.58-60, Gamalama, Kec. Ternate Tengah, Kota Ternate, Maluku Utara 97721","Gamalama, Kec. Ternate Tengah, Kota Ternate",MALUKU UTARA,97721.0,Indonesia,9213121059.0,0.7876913,127.3886475,https://maps.google.com/?cid=0x0:0x389548d6595850cd
hotel,hotel,"Hotel Forum, Ternate","Q9QQ+9CG, Gamalama, Kec. Ternate Tengah, Kota Ternate, Maluku Utara","Kota Ternate, Maluku Utara",MALUKU UTARA,,Indonesia,81324801103.0,0.788446,127.3885645,https://maps.google.com/?cid=0x0:0x90140827739c117e
hotel,hotel,Tidore,"Kota Tidore Kepulauan, Maluku Utara","Kota Tidore Kepulauan, Maluku Utara",MALUKU UTARA,,Indonesia,,0.659078,127.4475867,https://maps.google.com/?cid=0x0:0xee8f70bb2aa00f2e
hotel,hotel,Penginapan Visal Tidore  Meeting Room,"JL. Sultan Zainal Abidin Syah, Gamtufkange, Tidore, Kota Tidore Kepulauan, Maluku Utara 97812","Gamtufkange, Tidore, Kota Tidore Kepulauan",MALUKU UTARA,97812.0,Indonesia,81380000155.0,0.6573605,127.4485832,https://maps.google.com/?cid=0x0:0xcd95aa95f3406d6a
hotel,hotel,Seroja,"Jl. Sultan Syafuddin No. 16, Kp. Soajawa, Soa Sio, Tidore, Kota Tidore Kepulauan, Maluku Utara","Kota Tidore Kepulauan, Maluku Utara",MALUKU UTARA,,Indonesia,81342633390.0,0.6494636,127.4433532,https://maps.google.com/?cid=0x0:0x94f7f7c2a0a1ba76
hotel,hotel,Bela Hotel Ternate,"Jalan Jati Raya No.500, Jati, Kec. Ternate Sel., Kota Ternate, Maluku Utara","Kota Ternate, Maluku Utara",MALUKU UTARA,,Indonesia,9213121800.0,0.778607,127.376382,https://maps.google.com/?cid=0x0:0xadc0715ea2e729ec
hotel,hotel,,,,MALUKU UTARA,,Indonesia,,,,https://maps.google.com/?cid=0x0:0xadc0715ea2e729ec%7C/g/121hftnj%7Cid-ID
hotel,hotel,Belson Hotel,"Jl. Rambutan, Makassar Bar., Kec. Ternate Tengah, Kota Ternate, Maluku Utara","Kota Ternate, Maluku Utara",MALUKU UTARA,,Indonesia,82236447778.0,0.7954817,127.3821387,https://maps.google.com/?cid=0x0:0x7bce70b8ddc88542
hotel,hotel,Hotel Emerald,"Jl. Branjangan No.28, Kalumpang, Kec. Ternate Tengah, Kota Ternate, Maluku Utara","Kota Ternate, Maluku Utara",MALUKU UTARA,,Indonesia,9213128188.0,0.7885727,127.3845146,https://maps.google.com/?cid=0x0:0x33915e2d48a0928b
hotel,hotel,D'Wantys Hotel,"Q9HG+WHC RW.Jerbus Kel, Tanah Tinggi Bar., Kec. Ternate Sel., Kota Ternate, Maluku Utara","Kota Ternate, Maluku Utara",MALUKU UTARA,,Indonesia,9216203046.0,0.7798217,127.3763933,https://maps.google.com/?cid=0x0:0xbcfba8a376993043
hotel,hotel,,,,MALUKU UTARA,,Indonesia,,,,https://maps.google.com/?cid=0x0:0x33915e2d48a0928b%7C/g/11b7w73l34%7Cid-ID
hotel,hotel,The Batik Hotel,"Jl. Kapitan Pattimura, Stadion, Kec. Ternate Tengah, Kota Ternate, Maluku Utara","Kota Ternate, Maluku Utara",MALUKU UTARA,,Indonesia,8114343343.0,0.7877576,127.3845077,https://maps.google.com/?cid=0x0:0x328d07a18d098e8d
hotel,hotel,,,,MALUKU UTARA,,Indonesia,,,,https://maps.google.com/?cid=0x0:0x328d07a18d098e8d%7C/g/11b7wc8rqw%7Cid-ID
hotel,hotel,Hotel Corner Palace,"Jl. Stadion, Kp. Pisang, Kec. Ternate Tengah, Kota Ternate, Maluku Utara","Kota Ternate, Maluku Utara",MALUKU UTARA,,Indonesia,81343626106.0,0.7849238,127.3825146,https://maps.google.com/?cid=0x0:0xf1fb3756e7040c73
hotel,hotel,Boulevard Hotel,"Q9RQ+4WQ, Jalan Ruko Jatiland Jl. Sultan M. Djabir Sjah No.1 - 5, Gamalama, Kec. Kota Ternate Utara, Maluku Utara",Maluku Utara,MALUKU UTARA,,Indonesia,9213110666.0,0.7900983,127.3899972,https://maps.google.com/?cid=0x0:0x81f2c24d2703d498
hotel,hotel,Rumah Ngade Resort,"Jl. Pertamina No.40, Ngade, Kec. Ternate Sel., Kota Ternate, Maluku Utara","Kota Ternate, Maluku Utara",MALUKU UTARA,,Indonesia,895417300072.0,0.7617334,127.3505196,https://maps.google.com/?cid=0x0:0xa398034a24e94d35
hotel,hotel,Maluku Utara 97813,"Tomagoba, Tidore, Kota Tidore Kepulauan, Maluku Utara","Kota Tidore Kepulauan, Maluku Utara",MALUKU UTARA,,Indonesia,,0.6695081,127.4491185,https://maps.google.com/?cid=0x0:0x546e6a7c69e552a0
hotel,hotel,Penginapan Visal Tidore  Meeting Room,"JL. Sultan Zainal Abidin Syah, Gamtufkange, Tidore, Kota Tidore Kepulauan, Maluku Utara 97812","Gamtufkange, Tidore, Kota Tidore Kepulauan",MALUKU UTARA,97812.0,Indonesia,81380000155.0,0.6573605,127.4485832,https://maps.google.com/?cid=0x0:0xcd95aa95f3406d6a
hotel,hotel,Hotel Astonia Tobelo,"Gosoma, Kec. Tobelo, Kabupaten Halmahera Utara, Maluku Utara","Kabupaten Halmahera Utara, Maluku Utara",MALUKU UTARA,,Indonesia,9242621900.0,1.7223761,127.9947995,https://maps.google.com/?cid=0x0:0x99ff7dd9ff5c49af
hotel,hotel,Seroja,"Jl. Sultan Syafuddin No. 16, Kp. Soajawa, Soa Sio, Tidore, Kota Tidore Kepulauan, Maluku Utara","Kota Tidore Kepulauan, Maluku Utara",MALUKU UTARA,,Indonesia,81342633390.0,0.6494636,127.4433532,https://maps.google.com/?cid=0x0:0x94f7f7c2a0a1ba76
hotel,hotel,Rumah Ngade Resort,"Jl. Pertamina No.40, Ngade, Kec. Ternate Sel., Kota Ternate, Maluku Utara","Kota Ternate, Maluku Utara",MALUKU UTARA,,Indonesia,895417300072.0,0.7617334,127.3505196,https://maps.google.com/?cid=0x0:0xa398034a24e94d35
hotel,hotel,Maluku Utara 97852,"Sofifi, Oba Utara, Kota Tidore Kepulauan, Maluku Utara","Kota Tidore Kepulauan, Maluku Utara",MALUKU UTARA,,Indonesia,,0.7379173,127.5706308,https://maps.google.com/?cid=0x0:0xb05522de48530924
hotel,hotel,Bianda Hotel,"P2G6+VGM, Jl. Kemakmuran, Gamsungi, Kec. Tobelo, Kabupaten Halmahera Utara, Maluku Utara","Kabupaten Halmahera Utara, Maluku Utara",MALUKU UTARA,,Indonesia,,1.7272204,128.011288,https://maps.google.com/?cid=0x0:0x94545d064d6051e5
hotel,hotel,Hotel Astonia Tobelo,"Gosoma, Kec. Tobelo, Kabupaten Halmahera Utara, Maluku Utara","Kabupaten Halmahera Utara, Maluku Utara",MALUKU UTARA,,Indonesia,9242621900.0,1.7223761,127.9947995,https://maps.google.com/?cid=0x0:0x99ff7dd9ff5c49af
hotel,hotel,Juliana Hotel,"Gamsungi, Kec. Tobelo, Kabupaten Halmahera Utara, Maluku Utara","Kabupaten Halmahera Utara, Maluku Utara",MALUKU UTARA,,Indonesia,82191159141.0,1.7272579,128.0105717,https://maps.google.com/?cid=0x0:0x97231ba37bd2cf65
hotel,hotel,Johana Hotel,"P2F6+F4F, Gosoma, Kec. Tobelo, Kabupaten Halmahera Utara, Maluku Utara","Kabupaten Halmahera Utara, Maluku Utara",MALUKU UTARA,,Indonesia,9242623343.0,1.7236844,128.0102915,https://maps.google.com/?cid=0x0:0x1b997a52170a6c31
hotel,hotel,D'Lodge Village Tobelo,"PXFM+G47, Jl Dukono, Gamsungi, Kec. Tobelo, Kabupaten Halmahera Utara, Maluku Utara","Kabupaten Halmahera Utara, Maluku Utara",MALUKU UTARA,,Indonesia,82187899793.0,1.7237953,127.9828016,https://maps.google.com/?cid=0x0:0x97255e7444041343
hotel,hotel,Sabua Gaba,"Jl, Guaemaadu, Kec. Jailolo, Kabupaten Halmahera Barat, Maluku Utara 97752","Guaemaadu, Kec. Jailolo, Kabupaten Halmahera Barat",MALUKU UTARA,97752.0,Indonesia,81244409444.0,1.0567495,127.4613981,https://maps.google.com/?cid=0x0:0xa54e049ccacb61b7
hotel,hotel,Wisma Mulia,"P286+P48, Rawajaya, Kec. Tobelo, Kabupaten Halmahera Utara, Maluku Utara","Kabupaten Halmahera Utara, Maluku Utara",MALUKU UTARA,,Indonesia,,1.7167897,128.0103356,https://maps.google.com/?cid=0x0:0x611811aff0d3d758
hotel,hotel,,,,MALUKU UTARA,,Indonesia,,,,https://maps.google.com/?cid=0x0:0x328d07a18d098e8d%7C/g/11b7wc8rqw%7Cid-ID
hotel,hotel,The Batik Hotel,"Jl. Kapitan Pattimura, Stadion, Kec. Ternate Tengah, Kota Ternate, Maluku Utara","Kota Ternate, Maluku Utara",MALUKU UTARA,,Indonesia,8114343343.0,0.7877576,127.3845077,https://maps.google.com/?cid=0x0:0x328d07a18d098e8d
hotel,hotel,Penginapan Visal Tidore  Meeting Room,"JL. Sultan Zainal Abidin Syah, Gamtufkange, Tidore, Kota Tidore Kepulauan, Maluku Utara 97812","Gamtufkange, Tidore, Kota Tidore Kepulauan",MALUKU UTARA,97812.0,Indonesia,81380000155.0,0.6573605,127.4485832,https://maps.google.com/?cid=0x0:0xcd95aa95f3406d6a
hotel,hotel,Maluku Utara 97852,"Sofifi, Oba Utara, Kota Tidore Kepulauan, Maluku Utara","Kota Tidore Kepulauan, Maluku Utara",MALUKU UTARA,,Indonesia,,0.7379173,127.5706308,https://maps.google.com/?cid=0x0:0xb05522de48530924
hotel,hotel,The Batik Hotel,"Jl. Kapitan Pattimura, Stadion, Kec. Ternate Tengah, Kota Ternate, Maluku Utara","Kota Ternate, Maluku Utara",MALUKU UTARA,,Indonesia,8114343343.0,0.7877576,127.3845077,https://maps.google.com/?cid=0x0:0x328d07a18d098e8d
hotel,hotel,,,,MALUKU UTARA,,Indonesia,,,,https://maps.google.com/?cid=0x0:0x328d07a18d098e8d%7C/g/11b7wc8rqw%7Cid-ID
hotel,hotel,Hotel Astonia Tobelo,"Gosoma, Kec. Tobelo, Kabupaten Halmahera Utara, Maluku Utara","Kabupaten Halmahera Utara, Maluku Utara",MALUKU UTARA,,Indonesia,9242621900.0,1.7223761,127.9947995,https://maps.google.com/?cid=0x0:0x99ff7dd9ff5c49af
hotel,hotel,Juliana Hotel,"Gamsungi, Kec. Tobelo, Kabupaten Halmahera Utara, Maluku Utara","Kabupaten Halmahera Utara, Maluku Utara",MALUKU UTARA,,Indonesia,82191159141.0,1.7272579,128.0105717,https://maps.google.com/?cid=0x0:0x97231ba37bd2cf65
hotel,Rumah wisata,Sofifi,"PHQ7+CR4, Sofifi, Oba Utara, Kota Tidore Kepulauan, Maluku Utara","Kota Tidore Kepulauan, Maluku Utara",MALUKU UTARA,,Indonesia,,0.7385025,127.564583,https://maps.google.com/?cid=0x0:0x863ed150e7fa52c5
hotel,Hotel,Penginapan oba,"PHP5+5W6, Sofifi, Oba Utara, Kota Tidore Kepulauan, Maluku Utara","Kota Tidore Kepulauan, Maluku Utara",MALUKU UTARA,,Indonesia,,0.7354068,127.559766,https://maps.google.com/?cid=0x0:0xd9ee91e51399771c
hotel,hotel,Penginapan Visal Tidore  Meeting Room,"JL. Sultan Zainal Abidin Syah, Gamtufkange, Tidore, Kota Tidore Kepulauan, Maluku Utara 97812","Gamtufkange, Tidore, Kota Tidore Kepulauan",MALUKU UTARA,97812.0,Indonesia,81380000155.0,0.6573605,127.4485832,https://maps.google.com/?cid=0x0:0xcd95aa95f3406d6a
hotel,hotel,Ternate City Hotel,"Jl. Nuku No.1, Muhajirin, Kec. Ternate Tengah, Kota Ternate, Maluku Utara 97713","Muhajirin, Kec. Ternate Tengah, Kota Ternate",MALUKU UTARA,97713.0,Indonesia,81327824005.0,0.7831686,127.3881079,https://maps.google.com/?cid=0x0:0xf0a0764df41ded6
hotel,hotel,Maluku Utara 97813,"Tomagoba, Tidore, Kota Tidore Kepulauan, Maluku Utara","Kota Tidore Kepulauan, Maluku Utara",MALUKU UTARA,,Indonesia,,0.6695081,127.4491185,https://maps.google.com/?cid=0x0:0x546e6a7c69e552a0
hotel,hotel,Penginapan RD 01,"Perumahan BI Lama No.610, Maliaro, Kec. Ternate Tengah, Kota Ternate, Maluku Utara 97711","Maliaro, Kec. Ternate Tengah, Kota Ternate",MALUKU UTARA,97711.0,Indonesia,81143903528.0,0.7823152,127.3769593,https://maps.google.com/?cid=0x0:0x384f065b5f4b8fda
hotel,hotel,Rumah Ngade Resort,"Jl. Pertamina No.40, Ngade, Kec. Ternate Sel., Kota Ternate, Maluku Utara","Kota Ternate, Maluku Utara",MALUKU UTARA,,Indonesia,895417300072.0,0.7617334,127.3505196,https://maps.google.com/?cid=0x0:0xa398034a24e94d35
hotel,hotel,New Elshinta Hotel,"Jl. Pahlawan Revolusi No.58-60, Gamalama, Kec. Ternate Tengah, Kota Ternate, Maluku Utara 97721","Gamalama, Kec. Ternate Tengah, Kota Ternate",MALUKU UTARA,97721.0,Indonesia,9213121059.0,0.7876913,127.3886475,https://maps.google.com/?cid=0x0:0x389548d6595850cd
hotel,hotel,Hotel Elizabeth,"Jl. Kemakmuran, Gura, Kec. Tobelo, Kabupaten Halmahera Utara, Maluku Utara 97762","Gura, Kec. Tobelo, Kabupaten Halmahera Utara",MALUKU UTARA,97762.0,Indonesia,,1.7308941,128.0102163,https://maps.google.com/?cid=0x0:0x64ae6c4240cbb4c7
hotel,hotel,Hotel Astonia Tobelo,"Gosoma, Kec. Tobelo, Kabupaten Halmahera Utara, Maluku Utara","Kabupaten Halmahera Utara, Maluku Utara",MALUKU UTARA,,Indonesia,9242621900.0,1.7223761,127.9947995,https://maps.google.com/?cid=0x0:0x99ff7dd9ff5c49af
hotel,hotel,Juliana Hotel,"Gamsungi, Kec. Tobelo, Kabupaten Halmahera Utara, Maluku Utara","Kabupaten Halmahera Utara, Maluku Utara",MALUKU UTARA,,Indonesia,82191159141.0,1.7272579,128.0105717,https://maps.google.com/?cid=0x0:0x97231ba37bd2cf65
hotel,hotel,The Batik Hotel,"Jl. Kapitan Pattimura, Stadion, Kec. Ternate Tengah, Kota Ternate, Maluku Utara","Kota Ternate, Maluku Utara",MALUKU UTARA,,Indonesia,8114343343.0,0.7877576,127.3845077,https://maps.google.com/?cid=0x0:0x328d07a18d098e8d
hotel,hotel,,,,MALUKU UTARA,,Indonesia,,,,https://maps.google.com/?cid=0x0:0x328d07a18d098e8d%7C/g/11b7wc8rqw%7Cid-ID
hotel,hotel,Hotel Tiara,"Q9PP+QR9, Muhajirin, Kec. Ternate Tengah, Kota Ternate, Maluku Utara","Kota Ternate, Maluku Utara",MALUKU UTARA,,Indonesia,9213111017.0,0.7869048,127.3871126,https://maps.google.com/?cid=0x0:0xa2e1caa79bed4849
hotel,hotel,,,,MALUKU UTARA,,Indonesia,,,,https://maps.google.com/?cid=0x0:0xa2e1caa79bed4849%7C/g/11g03c2shd%7Cid-ID
hotel,hotel,Homestay Shari-Inn2 Ternate,"ka Dara.Lorong Masuk di samping Mie Ayam  Bakso, Kedaton Tidore, Jl. Ahmad Yani, Muhajirin, Kec. Ternate Tengah, Kota Ternate, Maluku Utara 97711","Kedaton Tidore, Jl. Ahmad Yani, Muhajirin, Kec. Ternate Tengah, Kota Ternate",MALUKU UTARA,97711.0,Indonesia,82285578277.0,0.7833536,127.3868407,https://maps.google.com/?cid=0x0:0x6882d3e8ba12ec96
hotel,hotel,Maluku Utara 97813,"Tomagoba, Tidore, Kota Tidore Kepulauan, Maluku Utara","Kota Tidore Kepulauan, Maluku Utara",MALUKU UTARA,,Indonesia,,0.6695081,127.4491185,https://maps.google.com/?cid=0x0:0x546e6a7c69e552a0
hotel,hotel,Penginapan Visal Tidore  Meeting Room,"JL. Sultan Zainal Abidin Syah, Gamtufkange, Tidore, Kota Tidore Kepulauan, Maluku Utara 97812","Gamtufkange, Tidore, Kota Tidore Kepulauan",MALUKU UTARA,97812.0,Indonesia,81380000155.0,0.6573605,127.4485832,https://maps.google.com/?cid=0x0:0xcd95aa95f3406d6a
hotel,hotel,Seroja,"Jl. Sultan Syafuddin No. 16, Kp. Soajawa, Soa Sio, Tidore, Kota Tidore Kepulauan, Maluku Utara","Kota Tidore Kepulauan, Maluku Utara",MALUKU UTARA,,Indonesia,81342633390.0,0.6494636,127.4433532,https://maps.google.com/?cid=0x0:0x94f7f7c2a0a1ba76
hotel,hotel,New Elshinta Hotel,"Jl. Pahlawan Revolusi No.58-60, Gamalama, Kec. Ternate Tengah, Kota Ternate, Maluku Utara 97721","Gamalama, Kec. Ternate Tengah, Kota Ternate",MALUKU UTARA,97721.0,Indonesia,9213121059.0,0.7876913,127.3886475,https://maps.google.com/?cid=0x0:0x389548d6595850cd
hotel,hotel,Hotel Astonia Tobelo,"Gosoma, Kec. Tobelo, Kabupaten Halmahera Utara, Maluku Utara","Kabupaten Halmahera Utara, Maluku Utara",MALUKU UTARA,,Indonesia,9242621900.0,1.7223761,127.9947995,https://maps.google.com/?cid=0x0:0x99ff7dd9ff5c49af
hotel,hotel,Johana Hotel,"P2F6+F4F, Gosoma, Kec. Tobelo, Kabupaten Halmahera Utara, Maluku Utara","Kabupaten Halmahera Utara, Maluku Utara",MALUKU UTARA,,Indonesia,9242623343.0,1.7236844,128.0102915,https://maps.google.com/?cid=0x0:0x1b997a52170a6c31
hotel,hotel,Hotel President,"P2H6+3F9, Jl. Kemakmuran, RT.02/RW.03, Gamsungi, Kec. Tobelo, Kabupaten Halmahera Utara, Maluku Utara 97762","Jl. Kemakmuran, RT.02/RW.03, Gamsungi, Kec. Tobelo, Kabupaten Halmahera Utara",MALUKU UTARA,97762.0,Indonesia,9242621353.0,1.7276524,128.0112339,https://maps.google.com/?cid=0x0:0x48545677de481d5
hotel,hotel,AINI HOMESTAY TERNATE,"Jl. Toboleu Koloncucu Gipsy No. 45/703, Kelurahan, RT.16/RW.06, Toboleu, Kec. Kota Ternate Utara, Kota Ternate, Maluku Utara 97716","Kelurahan, RT.16/RW.06, Toboleu, Kec. Kota Ternate Utara, Kota Ternate",MALUKU UTARA,97716.0,Indonesia,8124752595.0,0.8067324,127.3839976,https://maps.google.com/?cid=0x0:0xed94a780f4cf3705
hotel,hotel,d'Hoek Hotel,"3FMF+284, Jl. Soekaro, Hatebicara, Kec. Jailolo, Kabupaten Halmahera Barat, Maluku Utara","Kabupaten Halmahera Barat, Maluku Utara",MALUKU UTARA,,Indonesia,82192706600.0,1.082507,127.4733425,https://maps.google.com/?cid=0x0:0xe6247a11e448d6c5
hotel,hotel,Hotel Kusu-Kusu,"M2W5+HC7, Lina Ino, Kec. Tobelo Tengah, Kabupaten Halmahera Utara, Maluku Utara","Kabupaten Halmahera Utara, Maluku Utara",MALUKU UTARA,,Indonesia,,1.6964035,128.0085551,https://maps.google.com/?cid=0x0:0xde51ba868745d615
hotel,hotel,D'Wantys Hotel,"Q9HG+WHC RW.Jerbus Kel, Tanah Tinggi Bar., Kec. Ternate Sel., Kota Ternate, Maluku Utara","Kota Ternate, Maluku Utara",MALUKU UTARA,,Indonesia,9216203046.0,0.7798217,127.3763933,https://maps.google.com/?cid=0x0:0xbcfba8a376993043
hotel,hotel,Rumah Ngade Resort,"Jl. Pertamina No.40, Ngade, Kec. Ternate Sel., Kota Ternate, Maluku Utara","Kota Ternate, Maluku Utara",MALUKU UTARA,,Indonesia,895417300072.0,0.7617334,127.3505196,https://maps.google.com/?cid=0x0:0xa398034a24e94d35
hotel,hotel,OYO 92892 Aini Homestay,"Q9W6+8G9, Salero, Ternate Tengah, Ternate City, North Maluku 97716","Salero, Ternate Tengah, Ternate City",MALUKU UTARA,97716.0,Indonesia,817788016.0,0.795799,127.361353,https://maps.google.com/?cid=0x0:0xbb27dd3b8ed9c291
hotel,hotel,Penginapan RD 01,"Perumahan BI Lama No.610, Maliaro, Kec. Ternate Tengah, Kota Ternate, Maluku Utara 97711","Maliaro, Kec. Ternate Tengah, Kota Ternate",MALUKU UTARA,97711.0,Indonesia,81143903528.0,0.7823152,127.3769593,https://maps.google.com/?cid=0x0:0x384f065b5f4b8fda
hotel,hotel,Maluku Utara 97852,"Sofifi, Oba Utara, Kota Tidore Kepulauan, Maluku Utara","Kota Tidore Kepulauan, Maluku Utara",MALUKU UTARA,,Indonesia,,0.7379173,127.5706308,https://maps.google.com/?cid=0x0:0xb05522de48530924
hotel,hotel,The Batik Hotel,"Jl. Kapitan Pattimura, Stadion, Kec. Ternate Tengah, Kota Ternate, Maluku Utara","Kota Ternate, Maluku Utara",MALUKU UTARA,,Indonesia,8114343343.0,0.7877576,127.3845077,https://maps.google.com/?cid=0x0:0x328d07a18d098e8d
hotel,hotel,,,,MALUKU UTARA,,Indonesia,,,,https://maps.google.com/?cid=0x0:0x328d07a18d098e8d%7C/g/11b7wc8rqw%7Cid-ID
hotel,hotel,Penginapan Visal Tidore  Meeting Room,"JL. Sultan Zainal Abidin Syah, Gamtufkange, Tidore, Kota Tidore Kepulauan, Maluku Utara 97812","Gamtufkange, Tidore, Kota Tidore Kepulauan",MALUKU UTARA,97812.0,Indonesia,81380000155.0,0.6573605,127.4485832,https://maps.google.com/?cid=0x0:0xcd95aa95f3406d6a
hotel,hotel,Hotel Astonia Tobelo,"Gosoma, Kec. Tobelo, Kabupaten Halmahera Utara, Maluku Utara","Kabupaten Halmahera Utara, Maluku Utara",MALUKU UTARA,,Indonesia,9242621900.0,1.7223761,127.9947995,https://maps.google.com/?cid=0x0:0x99ff7dd9ff5c49af
hotel,hotel,Johana Hotel,"P2F6+F4F, Gosoma, Kec. Tobelo, Kabupaten Halmahera Utara, Maluku Utara","Kabupaten Halmahera Utara, Maluku Utara",MALUKU UTARA,,Indonesia,9242623343.0,1.7236844,128.0102915,https://maps.google.com/?cid=0x0:0x1b997a52170a6c31
hotel,hotel,Hotel Elizabeth,"Jl. Kemakmuran, Gura, Kec. Tobelo, Kabupaten Halmahera Utara, Maluku Utara 97762","Gura, Kec. Tobelo, Kabupaten Halmahera Utara",MALUKU UTARA,97762.0,Indonesia,,1.7308941,128.0102163,https://maps.google.com/?cid=0x0:0x64ae6c4240cbb4c7
hotel,hotel,,,,MALUKU UTARA,,Indonesia,,,,https://maps.google.com/?cid=0x0:0xc34d900beeadb45b%7C/g/11pphchcfz%7Cid-ID
hotel,hotel,Penginapan RD 01,"Perumahan BI Lama No.610, Maliaro, Kec. Ternate Tengah, Kota Ternate, Maluku Utara 97711","Maliaro, Kec. Ternate Tengah, Kota Ternate",MALUKU UTARA,97711.0,Indonesia,81143903528.0,0.7823152,127.3769593,https://maps.google.com/?cid=0x0:0x384f065b5f4b8fda
hotel,hotel,Gaia Hotel Ternate,"Jl. Sultan M. Djabir Sjah, Gamalama, Kec. Kota Ternate Utara, Kota Ternate, Maluku Utara 97721","Gamalama, Kec. Kota Ternate Utara, Kota Ternate",MALUKU UTARA,97721.0,Indonesia,811433446.0,0.792091,127.3896633,https://maps.google.com/?cid=0x0:0xc34d900beeadb45b
hotel,hotel,Bela Hotel Ternate,"Jalan Jati Raya No.500, Jati, Kec. Ternate Sel., Kota Ternate, Maluku Utara","Kota Ternate, Maluku Utara",MALUKU UTARA,,Indonesia,9213121800.0,0.778607,127.376382,https://maps.google.com/?cid=0x0:0xadc0715ea2e729ec
hotel,hotel,Juliana Hotel,"Gamsungi, Kec. Tobelo, Kabupaten Halmahera Utara, Maluku Utara","Kabupaten Halmahera Utara, Maluku Utara",MALUKU UTARA,,Indonesia,82191159141.0,1.7272579,128.0105717,https://maps.google.com/?cid=0x0:0x97231ba37bd2cf65
hotel,hotel,New Elshinta Hotel,"Jl. Pahlawan Revolusi No.58-60, Gamalama, Kec. Ternate Tengah, Kota Ternate, Maluku Utara 97721","Gamalama, Kec. Ternate Tengah, Kota Ternate",MALUKU UTARA,97721.0,Indonesia,9213121059.0,0.7876913,127.3886475,https://maps.google.com/?cid=0x0:0x389548d6595850cd
hotel,hotel,,,,MALUKU UTARA,,Indonesia,,,,https://maps.google.com/?cid=0x0:0xadc0715ea2e729ec%7C/g/121hftnj%7Cid-ID
hotel,hotel,Hotel Tiara,"Q9PP+QR9, Muhajirin, Kec. Ternate Tengah, Kota Ternate, Maluku Utara","Kota Ternate, Maluku Utara",MALUKU UTARA,,Indonesia,9213111017.0,0.7869048,127.3871126,https://maps.google.com/?cid=0x0:0xa2e1caa79bed4849
hotel,hotel,Hotel Nirwana,"Jl. Pahlawan Revolusi No.58-60, RT.002/RW.04, Gamalama, Kec. Ternate Tengah, Kota Ternate, Maluku Utara 97721","RT.002/RW.04, Gamalama, Kec. Ternate Tengah, Kota Ternate",MALUKU UTARA,97721.0,Indonesia,895417300072.0,0.791256,127.3873996,https://maps.google.com/?cid=0x0:0x8a11cfd2db7f1607
hotel,hotel,Boulevard Hotel,"Q9RQ+4WQ, Jalan Ruko Jatiland Jl. Sultan M. Djabir Sjah No.1 - 5, Gamalama, Kec. Kota Ternate Utara, Maluku Utara",Maluku Utara,MALUKU UTARA,,Indonesia,9213110666.0,0.7900983,127.3899972,https://maps.google.com/?cid=0x0:0x81f2c24d2703d498
hotel,hotel,RedDoorz near Pantai Falajawa,"Jl. Sultan Nuku No.100, Muhajirin, Kec. Ternate Tengah, Kota Ternate, Maluku Utara","Kota Ternate, Maluku Utara",MALUKU UTARA,,Indonesia,895417300072.0,0.7834077,127.3878732,https://maps.google.com/?cid=0x0:0xd410298132550869
hotel,hotel,Ternate City Hotel,"Jl. Nuku No.1, Muhajirin, Kec. Ternate Tengah, Kota Ternate, Maluku Utara 97713","Muhajirin, Kec. Ternate Tengah, Kota Ternate",MALUKU UTARA,97713.0,Indonesia,81327824005.0,0.7831686,127.3881079,https://maps.google.com/?cid=0x0:0xf0a0764df41ded6
hotel,hotel,Grand Majang Hotel Ternate,"Jl. Arnold Mononutu No.275, Stadion, Kec. Ternate Tengah, Kota Ternate, Maluku Utara","Kota Ternate, Maluku Utara",MALUKU UTARA,,Indonesia,81289376601.0,0.7836107,127.3845012,https://maps.google.com/?cid=0x0:0xf6e7394b3e66015f
hotel,hotel,D'Wantys Hotel,"Q9HG+WHC RW.Jerbus Kel, Tanah Tinggi Bar., Kec. Ternate Sel., Kota Ternate, Maluku Utara","Kota Ternate, Maluku Utara",MALUKU UTARA,,Indonesia,9216203046.0,0.7798217,127.3763933,https://maps.google.com/?cid=0x0:0xbcfba8a376993043
hotel,hotel,Muara Inn Ternate,"Jl. Seruni, Kp. Pisang, Kec. Ternate Tengah, Kota Ternate, Maluku Utara 97712","Kp. Pisang, Kec. Ternate Tengah, Kota Ternate",MALUKU UTARA,97712.0,Indonesia,9216205200.0,0.7834742,127.3826265,https://maps.google.com/?cid=0x0:0x126e3446c8f963cb
hotel,Benteng,Benteng Portugis Tolukko,"R97Q+G7M, Sangaji Utara, Kec. Kota Ternate Utara, Kota Ternate, Maluku Utara","Kota Ternate, Maluku Utara",MALUKU UTARA,,Indonesia,,0.813836,127.3881708,https://maps.google.com/?cid=0x0:0x6f64a496870d0188
hotel,hotel,Jati Hotel,"Jl. Jati Besar, Jati, Kec. Ternate Sel., Kota Ternate, Maluku Utara","Kota Ternate, Maluku Utara",MALUKU UTARA,,Indonesia,82317749090.0,0.7741052,127.3746306,https://maps.google.com/?cid=0x0:0x677ab57329945678
hotel,hotel,Penginapan RD 01,"Perumahan BI Lama No.610, Maliaro, Kec. Ternate Tengah, Kota Ternate, Maluku Utara 97711","Maliaro, Kec. Ternate Tengah, Kota Ternate",MALUKU UTARA,97711.0,Indonesia,81143903528.0,0.7823152,127.3769593,https://maps.google.com/?cid=0x0:0x384f065b5f4b8fda
hotel,hotel,Dragon Palace Hotel,"Jl. Yos Sudarso No.555, Maliaro, Kec. Ternate Tengah, Kota Ternate, Maluku Utara","Kota Ternate, Maluku Utara",MALUKU UTARA,,Indonesia,9213111113.0,0.7830667,127.3784048,https://maps.google.com/?cid=0x0:0xbf823d1f4e971ffa
hotel,hotel,Kurnia Homestay,"Jl. Raya BTN No.8 Blok G, Maliaro, Kec. Ternate Tengah, Kota Ternate, Maluku Utara 97711","Maliaro, Kec. Ternate Tengah, Kota Ternate",MALUKU UTARA,97711.0,Indonesia,82188887379.0,0.7883944,127.3759025,https://maps.google.com/?cid=0x0:0x7e4e6a1d8187a23e
hotel,hotel,Gn. Gamalama,"Hutan Lindung, Kec. Hutan Lindung, Kota Ternate, Maluku Utara","Kota Ternate, Maluku Utara",MALUKU UTARA,,Indonesia,,0.8091666,127.3333333,https://maps.google.com/?cid=0x0:0x1f13cae0fc042e8
hotel,hotel,Maluku Utara 97813,"Tomagoba, Tidore, Kota Tidore Kepulauan, Maluku Utara","Kota Tidore Kepulauan, Maluku Utara",MALUKU UTARA,,Indonesia,,0.6695081,127.4491185,https://maps.google.com/?cid=0x0:0x546e6a7c69e552a0
hotel,hotel,Penginapan Visal Tidore  Meeting Room,"JL. Sultan Zainal Abidin Syah, Gamtufkange, Tidore, Kota Tidore Kepulauan, Maluku Utara 97812","Gamtufkange, Tidore, Kota Tidore Kepulauan",MALUKU UTARA,97812.0,Indonesia,81380000155.0,0.6573605,127.4485832,https://maps.google.com/?cid=0x0:0xcd95aa95f3406d6a
hotel,hotel,Seroja,"Jl. Sultan Syafuddin No. 16, Kp. Soajawa, Soa Sio, Tidore, Kota Tidore Kepulauan, Maluku Utara","Kota Tidore Kepulauan, Maluku Utara",MALUKU UTARA,,Indonesia,81342633390.0,0.6494636,127.4433532,https://maps.google.com/?cid=0x0:0x94f7f7c2a0a1ba76
restaurant,Padang,RM.KONDANG MURAH,"Indonesiana, Tidore, Kota Tidore Kepulauan, Maluku Utara","Kota Tidore Kepulauan, Maluku Utara",MALUKU UTARA,,Indonesia,,0.673771,127.4538634,https://maps.google.com/?cid=0x0:0xf544be81b22c06c3
restaurant,Padang,King Mie Tidore,"Indonesiana, Tidore, Kota Tidore Kepulauan, Maluku Utara","Kota Tidore Kepulauan, Maluku Utara",MALUKU UTARA,,Indonesia,85311749439.0,0.6723627,127.4533131,https://maps.google.com/?cid=0x0:0x9a6f04106f8370b9
restaurant,restaurant,Maluku Utara 97811,"Tomagoba, Tidore, Kota Tidore Kepulauan, Maluku Utara","Kota Tidore Kepulauan, Maluku Utara",MALUKU UTARA,,Indonesia,,0.672015,127.4476026,https://maps.google.com/?cid=0x0:0xa12ca31bbe90e0c1
restaurant,Hidangan Laut,Teras Ngemil,"Indonesiana, Tidore, Kota Tidore Kepulauan, Maluku Utara","Kota Tidore Kepulauan, Maluku Utara",MALUKU UTARA,,Indonesia,81242478053.0,0.6743865,127.4541242,https://maps.google.com/?cid=0x0:0xb65949065598f691
restaurant,restaurant,Tidore,"Kota Tidore Kepulauan, Maluku Utara","Kota Tidore Kepulauan, Maluku Utara",MALUKU UTARA,,Indonesia,,0.659078,127.4475867,https://maps.google.com/?cid=0x0:0xee8f70bb2aa00f2e
restaurant,Kafe,Cafe Borero,"Jl. Pusaka No.01, Tomagoba, Tidore, Kota Tidore Kepulauan, Maluku Utara","Kota Tidore Kepulauan, Maluku Utara",MALUKU UTARA,,Indonesia,82190003033.0,0.6670624,127.4437836,https://maps.google.com/?cid=0x0:0x3f263fe72bae3896
restaurant,Makanan Sehat,REDZONE CAFE,"Jl. Taman Siswa, Indonesiana, Tidore, Kota Tidore Kepulauan, Maluku Utara","Kota Tidore Kepulauan, Maluku Utara",MALUKU UTARA,,Indonesia,82271623355.0,0.6737802,127.456738,https://maps.google.com/?cid=0x0:0xaca50c580f4a95cd
restaurant,Indonesia,Rm.Tugulufa,"MFF4+78P, Jl. Taman Siswa, Indonesiana, Tidore, Kota Tidore Kepulauan, Maluku Utara","Kota Tidore Kepulauan, Maluku Utara",MALUKU UTARA,,Indonesia,,0.673218,127.4558339,https://maps.google.com/?cid=0x0:0x3d916ace3ceb5848
restaurant,Dapur Umum,Dapoermami.tidore,"MC5X+253, Jl. Ahmad Yani, Indonesiana, Tidore, Kota Tidore Kepulauan, Maluku Utara","Kota Tidore Kepulauan, Maluku Utara",MALUKU UTARA,,Indonesia,,0.6571164,127.4477695,https://maps.google.com/?cid=0x0:0x7c386c437dca7bdd
restaurant,Rumah Makan,RM. Pondok Bambu,"MFF3+RXV, Indonesiana, Tidore, Kota Tidore Kepulauan, Maluku Utara","Kota Tidore Kepulauan, Maluku Utara",MALUKU UTARA,,Indonesia,,0.6746098,127.4549105,https://maps.google.com/?cid=0x0:0x94e08265db9715b5
restaurant,Hidangan Laut,Rumah Makan Terminal Cinta,"MCGX+7Q7, Indonesiana, Tidore, Kota Tidore Kepulauan, Maluku Utara","Kota Tidore Kepulauan, Maluku Utara",MALUKU UTARA,,Indonesia,,0.675674,127.4494173,https://maps.google.com/?cid=0x0:0x9e974fa1e911bba2
restaurant,Brunch,RM Taman Siswa,"Jl. Taman Siswa, Indonesiana, Tidore, Kota Tidore Kepulauan, Maluku Utara","Kota Tidore Kepulauan, Maluku Utara",MALUKU UTARA,,Indonesia,85340545678.0,0.6738764,127.4544881,https://maps.google.com/?cid=0x0:0xf2dbba31d429c0ac
restaurant,Rumah Makan,SABUA SAHABAT,"MFF4+XQ9, Unnamed Road, Indonesiana, Tidore, Kota Tidore Kepulauan, Maluku Utara","Kota Tidore Kepulauan, Maluku Utara",MALUKU UTARA,,Indonesia,82190564743.0,0.674905,127.4569785,https://maps.google.com/?cid=0x0:0x1377859133851856
restaurant,Restoran,Sambal Bakar Tidore,"Lokasi belakang, Pasar Gosalaha, Kota Tidore Kepulauan, Maluku Utara 97811","Pasar Gosalaha, Kota Tidore Kepulauan",MALUKU UTARA,97811.0,Indonesia,82314837731.0,0.6737399,127.4556342,https://maps.google.com/?cid=0x0:0xb693b34be8d80c5c
restaurant,Kedai Kopi,OUI KAFE TIDORE,"MFG4+52H, Indonesiana, Tidore, Kota Tidore Kepulauan, Maluku Utara","Kota Tidore Kepulauan, Maluku Utara",MALUKU UTARA,,Indonesia,81545467219.0,0.6754822,127.4551226,https://maps.google.com/?cid=0x0:0x5bc7b179fe137bd9
restaurant,Nasi Goreng,Pondok Swering,"MF82+6CF, Tomagoba, Tidore, Kota Tidore Kepulauan, Maluku Utara","Kota Tidore Kepulauan, Maluku Utara",MALUKU UTARA,,Indonesia,82190137754.0,0.6655552,127.4510619,https://maps.google.com/?cid=0x0:0x30d58984a1fcc375
restaurant,Bakso,Rumah Makan Bakso,"P9CP+C2J, Rum, Kec. Tidore Utara, Kota Tidore Kepulauan, Maluku Utara","Kota Tidore Kepulauan, Maluku Utara",MALUKU UTARA,,Indonesia,,0.721088,127.3850093,https://maps.google.com/?cid=0x0:0x639d1d6bb61a17a5
restaurant,Kafe,Cafe Borero,"Jl. Pusaka No.01, Tomagoba, Tidore, Kota Tidore Kepulauan, Maluku Utara","Kota Tidore Kepulauan, Maluku Utara",MALUKU UTARA,,Indonesia,82190003033.0,0.6670624,127.4437836,https://maps.google.com/?cid=0x0:0x3f263fe72bae3896
restaurant,restaurant,Maluku Utara 97813,"Tomagoba, Tidore, Kota Tidore Kepulauan, Maluku Utara","Kota Tidore Kepulauan, Maluku Utara",MALUKU UTARA,,Indonesia,,0.6695081,127.4491185,https://maps.google.com/?cid=0x0:0x546e6a7c69e552a0
restaurant,Padang,King Mie Tidore,"Indonesiana, Tidore, Kota Tidore Kepulauan, Maluku Utara","Kota Tidore Kepulauan, Maluku Utara",MALUKU UTARA,,Indonesia,85311749439.0,0.6723627,127.4533131,https://maps.google.com/?cid=0x0:0x9a6f04106f8370b9
restaurant,restaurant,,,,MALUKU UTARA,,Indonesia,,,,https://maps.google.com/?cid=0x0:0x3f263fe72bae3896u0026onu0026midu003d/g/11tmrzcst4
restaurant,restaurant,Tidore,"Kota Tidore Kepulauan, Maluku Utara","Kota Tidore Kepulauan, Maluku Utara",MALUKU UTARA,,Indonesia,,0.659078,127.4475867,https://maps.google.com/?cid=0x0:0xee8f70bb2aa00f2e
restaurant,Indonesia,Rm.Tugulufa,"MFF4+78P, Jl. Taman Siswa, Indonesiana, Tidore, Kota Tidore Kepulauan, Maluku Utara","Kota Tidore Kepulauan, Maluku Utara",MALUKU UTARA,,Indonesia,,0.673218,127.4558339,https://maps.google.com/?cid=0x0:0x3d916ace3ceb5848
restaurant,Restoran,Sambal Bakar Tidore,"Lokasi belakang, Pasar Gosalaha, Kota Tidore Kepulauan, Maluku Utara 97811","Pasar Gosalaha, Kota Tidore Kepulauan",MALUKU UTARA,97811.0,Indonesia,82314837731.0,0.6737399,127.4556342,https://maps.google.com/?cid=0x0:0xb693b34be8d80c5c
restaurant,Padang,Rumah Makan Ratu Sayang Tidore,"MFH3+3WP, Indonesiana, Tidore, Kota Tidore Kepulauan, Maluku Utara","Kota Tidore Kepulauan, Maluku Utara",MALUKU UTARA,,Indonesia,82113726773.0,0.6777157,127.4548408,https://maps.google.com/?cid=0x0:0x720dbd397d8614c9
restaurant,Hidangan Laut,Teras Ngemil,"Indonesiana, Tidore, Kota Tidore Kepulauan, Maluku Utara","Kota Tidore Kepulauan, Maluku Utara",MALUKU UTARA,,Indonesia,81242478053.0,0.6743865,127.4541242,https://maps.google.com/?cid=0x0:0xb65949065598f691
restaurant,restaurant,Pulau Tidore,"Kota Tidore Kepulauan, Maluku Utara","Kota Tidore Kepulauan, Maluku Utara",MALUKU UTARA,,Indonesia,,0.6740044,127.4040871,https://maps.google.com/?cid=0x0:0xa1475cfd7b0f2a9
restaurant,Dapur Umum,Dapoermami.tidore,"MC5X+253, Jl. Ahmad Yani, Indonesiana, Tidore, Kota Tidore Kepulauan, Maluku Utara","Kota Tidore Kepulauan, Maluku Utara",MALUKU UTARA,,Indonesia,,0.6571164,127.4477695,https://maps.google.com/?cid=0x0:0x7c386c437dca7bdd
restaurant,Brunch,RM Taman Siswa,"Jl. Taman Siswa, Indonesiana, Tidore, Kota Tidore Kepulauan, Maluku Utara","Kota Tidore Kepulauan, Maluku Utara",MALUKU UTARA,,Indonesia,85340545678.0,0.6738764,127.4544881,https://maps.google.com/?cid=0x0:0xf2dbba31d429c0ac
restaurant,Hidangan Laut,Rumah Makan Terminal Cinta,"MCGX+7Q7, Indonesiana, Tidore, Kota Tidore Kepulauan, Maluku Utara","Kota Tidore Kepulauan, Maluku Utara",MALUKU UTARA,,Indonesia,,0.675674,127.4494173,https://maps.google.com/?cid=0x0:0x9e974fa1e911bba2
restaurant,Rumah Makan,RM. Pondok Bambu,"MFF3+RXV, Indonesiana, Tidore, Kota Tidore Kepulauan, Maluku Utara","Kota Tidore Kepulauan, Maluku Utara",MALUKU UTARA,,Indonesia,,0.6746098,127.4549105,https://maps.google.com/?cid=0x0:0x94e08265db9715b5
restaurant,Indonesia,Warung Barokah,"QH2G+5QR, Galala, Oba Utara, Kota Tidore Kepulauan, Maluku Utara","Kota Tidore Kepulauan, Maluku Utara",MALUKU UTARA,,Indonesia,82293429260.0,0.7504787,127.5768823,https://maps.google.com/?cid=0x0:0xccc88a81b037337d
restaurant,restaurant,Maluku Utara 97852,"Sofifi, Oba Utara, Kota Tidore Kepulauan, Maluku Utara","Kota Tidore Kepulauan, Maluku Utara",MALUKU UTARA,,Indonesia,,0.7379173,127.5706308,https://maps.google.com/?cid=0x0:0xb05522de48530924
restaurant,Hidangan Laut,RM SeaFood 99,"PHQ7+88C, Sofifi, Oba Utara, Kota Tidore Kepulauan, Maluku Utara","Kota Tidore Kepulauan, Maluku Utara",MALUKU UTARA,,Indonesia,81389406111.0,0.7383069,127.5632571,https://maps.google.com/?cid=0x0:0x6b965f41c24f0c6
restaurant,Restoran,RM. Nasbag,"QH4P+5RV, Guraping, Oba Utara, Kota Tidore Kepulauan, Maluku Utara","Kota Tidore Kepulauan, Maluku Utara",MALUKU UTARA,,Indonesia,,0.755487,127.5870536,https://maps.google.com/?cid=0x0:0xb17fe950963a999
restaurant,Sarapan,BAKSO 45,"Sofifi, Galala, Oba Utara, Kota Tidore Kepulauan, Maluku Utara","Kota Tidore Kepulauan, Maluku Utara",MALUKU UTARA,,Indonesia,,0.7522481,127.5757211,https://maps.google.com/?cid=0x0:0x22fcbb6bfc5645df
restaurant,Restoran,RM sumatra,"PHR9+WV8, Jl. Lele, Balbar, Oba Utara, Kota Tidore Kepulauan, Maluku Utara","Kota Tidore Kepulauan, Maluku Utara",MALUKU UTARA,,Indonesia,,0.7400874,127.5669263,https://maps.google.com/?cid=0x0:0xbccdb427191a16b6
restaurant,Restoran,RM MANADO,"PHXF+X59, Galala, Oba Utara, Kota Tidore Kepulauan, Maluku Utara","Kota Tidore Kepulauan, Maluku Utara",MALUKU UTARA,,Indonesia,,0.7499141,127.5729708,https://maps.google.com/?cid=0x0:0xd413bd0977b71aca
restaurant,Rumah Makan,Warung Mas Didik,"PHXF+X76, Galala, Oba Utara, Kota Tidore Kepulauan, Maluku Utara","Kota Tidore Kepulauan, Maluku Utara",MALUKU UTARA,,Indonesia,,0.7499232,127.5731472,https://maps.google.com/?cid=0x0:0xc5d5e1c552ec4aec
restaurant,Rumah Makan,RM SAIDA,"QH3H+637, Galala, Oba Utara, Kota Tidore Kepulauan, Maluku Utara","Kota Tidore Kepulauan, Maluku Utara",MALUKU UTARA,,Indonesia,82293395937.0,0.7530464,127.5776641,https://maps.google.com/?cid=0x0:0x732a08d8dc4b025f
restaurant,Indonesia,BARIKLANA Warung Makan - Sofifi,"Jl. Trans Halmahera, Sofifi, Oba Utara, Kota Tidore Kepulauan, Maluku Utara","Kota Tidore Kepulauan, Maluku Utara",MALUKU UTARA,,Indonesia,,0.7350709,127.5599874,https://maps.google.com/?cid=0x0:0x8c59c7a4d92066a9
restaurant,Restoran,Rumah makan sumatera,"QH3H+449, Jl. Trans Halmahera, Galala, Oba Utara, Kota Tidore Kepulauan, Maluku Utara","Kota Tidore Kepulauan, Maluku Utara",MALUKU UTARA,,Indonesia,,0.7527751,127.5778463,https://maps.google.com/?cid=0x0:0xa1d35639007d886a
restaurant,Restoran,Grand Fatmah MyResto,"Tabahawa, Moya, Kec. Ternate Tengah, Kota Ternate, Maluku Utara 97723","Moya, Kec. Ternate Tengah, Kota Ternate",MALUKU UTARA,97723.0,Indonesia,,0.800034,127.3707126,https://maps.google.com/?cid=0x0:0xfef5142eb63904c7
restaurant,Indonesia,Makanan,"Desa akekolano, RT.005/RW.002, jalan antarani, Kota Tidore Kepulauan, Maluku Utara 97827","RT.005/RW.002, jalan antarani, Kota Tidore Kepulauan",MALUKU UTARA,97827.0,Indonesia,81332154517.0,0.7083647,127.5671425,https://maps.google.com/?cid=0x0:0x605de768fd89e4b9
restaurant,Kafe,Cafe Borero,"Jl. Pusaka No.01, Tomagoba, Tidore, Kota Tidore Kepulauan, Maluku Utara","Kota Tidore Kepulauan, Maluku Utara",MALUKU UTARA,,Indonesia,82190003033.0,0.6670624,127.4437836,https://maps.google.com/?cid=0x0:0x3f263fe72bae3896
restaurant,Hidangan Laut,RM SeaFood 99,"PHQ7+88C, Sofifi, Oba Utara, Kota Tidore Kepulauan, Maluku Utara","Kota Tidore Kepulauan, Maluku Utara",MALUKU UTARA,,Indonesia,81389406111.0,0.7383069,127.5632571,https://maps.google.com/?cid=0x0:0x6b965f41c24f0c6
restaurant,restaurant,Maluku Utara 97852,"Sofifi, Oba Utara, Kota Tidore Kepulauan, Maluku Utara","Kota Tidore Kepulauan, Maluku Utara",MALUKU UTARA,,Indonesia,,0.7379173,127.5706308,https://maps.google.com/?cid=0x0:0xb05522de48530924
restaurant,Indonesia,Warung Barokah,"QH2G+5QR, Galala, Oba Utara, Kota Tidore Kepulauan, Maluku Utara","Kota Tidore Kepulauan, Maluku Utara",MALUKU UTARA,,Indonesia,82293429260.0,0.7504787,127.5768823,https://maps.google.com/?cid=0x0:0xccc88a81b037337d
restaurant,Kafe,DUAF RESTO,"PHV9+8HX, Balbar, Oba Utara, Kota Tidore Kepulauan, Maluku Utara","Kota Tidore Kepulauan, Maluku Utara",MALUKU UTARA,,Indonesia,,0.7433491,127.569,https://maps.google.com/?cid=0x0:0xe04eeefdcd3998e4
restaurant,Sarapan,BAKSO 45,"Sofifi, Galala, Oba Utara, Kota Tidore Kepulauan, Maluku Utara","Kota Tidore Kepulauan, Maluku Utara",MALUKU UTARA,,Indonesia,,0.7522481,127.5757211,https://maps.google.com/?cid=0x0:0x22fcbb6bfc5645df
restaurant,Restoran,RM. Nasbag,"QH4P+5RV, Guraping, Oba Utara, Kota Tidore Kepulauan, Maluku Utara","Kota Tidore Kepulauan, Maluku Utara",MALUKU UTARA,,Indonesia,,0.755487,127.5870536,https://maps.google.com/?cid=0x0:0xb17fe950963a999
restaurant,Rumah Makan,RM SAIDA,"QH3H+637, Galala, Oba Utara, Kota Tidore Kepulauan, Maluku Utara","Kota Tidore Kepulauan, Maluku Utara",MALUKU UTARA,,Indonesia,82293395937.0,0.7530464,127.5776641,https://maps.google.com/?cid=0x0:0x732a08d8dc4b025f
restaurant,Restoran,RM sumatra,"PHR9+WV8, Jl. Lele, Balbar, Oba Utara, Kota Tidore Kepulauan, Maluku Utara","Kota Tidore Kepulauan, Maluku Utara",MALUKU UTARA,,Indonesia,,0.7400874,127.5669263,https://maps.google.com/?cid=0x0:0xbccdb427191a16b6
restaurant,Kedai Kopi,Sofifi,"PHP5+5W6, Sofifi, Oba Utara, Kota Tidore Kepulauan, Maluku Utara","Kota Tidore Kepulauan, Maluku Utara",MALUKU UTARA,,Indonesia,,0.7354068,127.559766,https://maps.google.com/?cid=0x0:0x6e9d9d1fc077b1a3
restaurant,Indonesia,BARIKLANA Warung Makan - Sofifi,"Jl. Trans Halmahera, Sofifi, Oba Utara, Kota Tidore Kepulauan, Maluku Utara","Kota Tidore Kepulauan, Maluku Utara",MALUKU UTARA,,Indonesia,,0.7350709,127.5599874,https://maps.google.com/?cid=0x0:0x8c59c7a4d92066a9
restaurant,Indonesia,Rumah Makan Cendrawasih,"PHQ7+HM3, Sofifi, Oba Utara, Kota Tidore Kepulauan, Maluku Utara","Kota Tidore Kepulauan, Maluku Utara",MALUKU UTARA,,Indonesia,,0.7388771,127.564186,https://maps.google.com/?cid=0x0:0x4dfc7a8a0b851df0
restaurant,Restoran,Rumah makan Jawa,"QH2G+FJ6, Jl. Raya Galala Weda, Galala, Oba Utara, Kota Tidore Kepulauan, Maluku Utara","Kota Tidore Kepulauan, Maluku Utara",MALUKU UTARA,,Indonesia,,0.7513065,127.5764803,https://maps.google.com/?cid=0x0:0x2d225edb7ace7226
restaurant,Rumah Makan,Warung Mas Didik,"PHXF+X76, Galala, Oba Utara, Kota Tidore Kepulauan, Maluku Utara","Kota Tidore Kepulauan, Maluku Utara",MALUKU UTARA,,Indonesia,,0.7499232,127.5731472,https://maps.google.com/?cid=0x0:0xc5d5e1c552ec4aec
restaurant,Restoran,Rumah makan sumatera,"QH3H+449, Jl. Trans Halmahera, Galala, Oba Utara, Kota Tidore Kepulauan, Maluku Utara","Kota Tidore Kepulauan, Maluku Utara",MALUKU UTARA,,Indonesia,,0.7527751,127.5778463,https://maps.google.com/?cid=0x0:0xa1d35639007d886a
restaurant,Kafe,Cafe Borero,"Jl. Pusaka No.01, Tomagoba, Tidore, Kota Tidore Kepulauan, Maluku Utara","Kota Tidore Kepulauan, Maluku Utara",MALUKU UTARA,,Indonesia,82190003033.0,0.6670624,127.4437836,https://maps.google.com/?cid=0x0:0x3f263fe72bae3896
restaurant,restaurant,Maluku Utara 97813,"Tomagoba, Tidore, Kota Tidore Kepulauan, Maluku Utara","Kota Tidore Kepulauan, Maluku Utara",MALUKU UTARA,,Indonesia,,0.6695081,127.4491185,https://maps.google.com/?cid=0x0:0x546e6a7c69e552a0
restaurant,Padang,Rumah Makan Ratu Sayang Tidore,"MFH3+3WP, Indonesiana, Tidore, Kota Tidore Kepulauan, Maluku Utara","Kota Tidore Kepulauan, Maluku Utara",MALUKU UTARA,,Indonesia,82113726773.0,0.6777157,127.4548408,https://maps.google.com/?cid=0x0:0x720dbd397d8614c9
restaurant,Bakso,Rumah Makan Bakso,"P9CP+C2J, Rum, Kec. Tidore Utara, Kota Tidore Kepulauan, Maluku Utara","Kota Tidore Kepulauan, Maluku Utara",MALUKU UTARA,,Indonesia,,0.721088,127.3850093,https://maps.google.com/?cid=0x0:0x639d1d6bb61a17a5
restaurant,Restoran,Rumah Makan Gapura,"MFF3+6WF, Jl. Kemakmuran, Indonesiana, Tidore, Kota Tidore Kepulauan, Maluku Utara","Kota Tidore Kepulauan, Maluku Utara",MALUKU UTARA,,Indonesia,81341651337.0,0.6730591,127.4547864,https://maps.google.com/?cid=0x0:0xd8243e5c008cfa12
restaurant,restaurant,Rumah Makan Dede,"Jln Belakang RSUD Tidore, Indonesiana, Tidore, Kota Tidore Kepulauan, Maluku Utara","Kota Tidore Kepulauan, Maluku Utara",MALUKU UTARA,,Indonesia,81328699684.0,0.6751197,127.4472992,https://maps.google.com/?cid=0x0:0x79da724efc43eedb
restaurant,Padang,King Mie Tidore,"Indonesiana, Tidore, Kota Tidore Kepulauan, Maluku Utara","Kota Tidore Kepulauan, Maluku Utara",MALUKU UTARA,,Indonesia,85311749439.0,0.6723627,127.4533131,https://maps.google.com/?cid=0x0:0x9a6f04106f8370b9
restaurant,restaurant,Warung Makan BMW,"MF82+RXP, Tomagoba, Tidore, Kota Tidore Kepulauan, Maluku Utara","Kota Tidore Kepulauan, Maluku Utara",MALUKU UTARA,,Indonesia,,0.6670767,127.4524463,https://maps.google.com/?cid=0x0:0x86a099d99d5f898b
restaurant,Padang,Rumah Makan Ratu Sayang Tidore,"MFH3+3WP, Indonesiana, Tidore, Kota Tidore Kepulauan, Maluku Utara","Kota Tidore Kepulauan, Maluku Utara",MALUKU UTARA,,Indonesia,82113726773.0,0.6777157,127.4548408,https://maps.google.com/?cid=0x0:0x720dbd397d8614c9
restaurant,restaurant,Maluku Utara 97813,"Tomagoba, Tidore, Kota Tidore Kepulauan, Maluku Utara","Kota Tidore Kepulauan, Maluku Utara",MALUKU UTARA,,Indonesia,,0.6695081,127.4491185,https://maps.google.com/?cid=0x0:0x546e6a7c69e552a0
restaurant,Bakso,Rumah Makan BMW,"P9FP+XQG, Jl. Raya Rum, Rum, Kec. Tidore Utara, Kota Tidore Kepulauan, Maluku Utara","Kota Tidore Kepulauan, Maluku Utara",MALUKU UTARA,,Indonesia,,0.7249343,127.386939,https://maps.google.com/?cid=0x0:0x4d0e4e46319f741f
restaurant,Restoran,RM.Roda Baru,"QH2G+7QM, Galala, Oba Utara, Kota Tidore Kepulauan, Maluku Utara","Kota Tidore Kepulauan, Maluku Utara",MALUKU UTARA,,Indonesia,,0.7507151,127.5769078,https://maps.google.com/?cid=0x0:0xc57741879dec9d8e
restaurant,Bakso,Rumah Makan Bakso,"P9CP+C2J, Rum, Kec. Tidore Utara, Kota Tidore Kepulauan, Maluku Utara","Kota Tidore Kepulauan, Maluku Utara",MALUKU UTARA,,Indonesia,,0.721088,127.3850093,https://maps.google.com/?cid=0x0:0x639d1d6bb61a17a5
restaurant,Padang,Rumah Makan Asih,"M9XF+3JQ, Jl. Raya Ome, Mareku, Kec. Tidore Utara, Kota Tidore Kepulauan, Maluku Utara","Kota Tidore Kepulauan, Maluku Utara",MALUKU UTARA,,Indonesia,,0.6977131,127.3741219,https://maps.google.com/?cid=0x0:0xdffc1f472e595066
restaurant,Indonesia,Warung rizky,"MFF3+4XR, Jl. Kemakmuran, Indonesiana, Tidore, Kota Tidore Kepulauan, Maluku Utara","Kota Tidore Kepulauan, Maluku Utara",MALUKU UTARA,,Indonesia,85240549054.0,0.6728527,127.4548914,https://maps.google.com/?cid=0x0:0xa047302eb70f5574
restaurant,Padang,King Mie Tidore,"Indonesiana, Tidore, Kota Tidore Kepulauan, Maluku Utara","Kota Tidore Kepulauan, Maluku Utara",MALUKU UTARA,,Indonesia,85311749439.0,0.6723627,127.4533131,https://maps.google.com/?cid=0x0:0x9a6f04106f8370b9
restaurant,Dapur Umum,Dapoermami.tidore,"MC5X+253, Jl. Ahmad Yani, Indonesiana, Tidore, Kota Tidore Kepulauan, Maluku Utara","Kota Tidore Kepulauan, Maluku Utara",MALUKU UTARA,,Indonesia,,0.6571164,127.4477695,https://maps.google.com/?cid=0x0:0x7c386c437dca7bdd
restaurant,Hidangan Laut,Rumah Makan Saung Kuring,"PHV9+HHM, Balbar, Oba Utara, Kota Tidore Kepulauan, Maluku Utara","Kota Tidore Kepulauan, Maluku Utara",MALUKU UTARA,,Indonesia,,0.743963,127.568944,https://maps.google.com/?cid=0x0:0x47dd737a970a3ad6
restaurant,Sarapan,Rumah Makan Tri Men,"MCCX+72G, Jl. Sultan Mansur, Tomagoba, Tidore, Kota Tidore Kepulauan, Maluku Utara","Kota Tidore Kepulauan, Maluku Utara",MALUKU UTARA,,Indonesia,,0.6706959,127.4475683,https://maps.google.com/?cid=0x0:0x7fa82959cc424e24
restaurant,Restoran,RM. Nasbag,"QH4P+5RV, Guraping, Oba Utara, Kota Tidore Kepulauan, Maluku Utara","Kota Tidore Kepulauan, Maluku Utara",MALUKU UTARA,,Indonesia,,0.755487,127.5870536,https://maps.google.com/?cid=0x0:0xb17fe950963a999
restaurant,restaurant,Maluku Utara 97852,"Sofifi, Oba Utara, Kota Tidore Kepulauan, Maluku Utara","Kota Tidore Kepulauan, Maluku Utara",MALUKU UTARA,,Indonesia,,0.7379173,127.5706308,https://maps.google.com/?cid=0x0:0xb05522de48530924
restaurant,Kafe,Cafe Borero,"Jl. Pusaka No.01, Tomagoba, Tidore, Kota Tidore Kepulauan, Maluku Utara","Kota Tidore Kepulauan, Maluku Utara",MALUKU UTARA,,Indonesia,82190003033.0,0.6670624,127.4437836,https://maps.google.com/?cid=0x0:0x3f263fe72bae3896
restaurant,Makanan Siap Saji,Nidam pentolan,"GM4J+CF5, Akeguraci, Kec. Oba Tengah, Kota Tidore Kepulauan, Maluku Utara","Kota Tidore Kepulauan, Maluku Utara",MALUKU UTARA,,Indonesia,,0.5060207,127.681228,https://maps.google.com/?cid=0x0:0x1e7da659a9376f80
restaurant,Sarapan,BAKSO 45,"Sofifi, Galala, Oba Utara, Kota Tidore Kepulauan, Maluku Utara","Kota Tidore Kepulauan, Maluku Utara",MALUKU UTARA,,Indonesia,,0.7522481,127.5757211,https://maps.google.com/?cid=0x0:0x22fcbb6bfc5645df
restaurant,Rumah Makan,Warung DDS REZKI,"Jl. Raya Sultan Nuku, Guraping, Oba Utara, Kota Tidore Kepulauan, Maluku Utara","Kota Tidore Kepulauan, Maluku Utara",MALUKU UTARA,,Indonesia,82199171303.0,0.7512197,127.5831829,https://maps.google.com/?cid=0x0:0x5c3e3021663ed19d
restaurant,Kedai Kopi,Chillin' Out!,"Jl. Raya Sultan Nuku, Sofifi, Oba Utara, Kota Tidore Kepulauan, Maluku Utara 97827","Sofifi, Oba Utara, Kota Tidore Kepulauan",MALUKU UTARA,97827.0,Indonesia,8114344494.0,0.7372631,127.5704457,https://maps.google.com/?cid=0x0:0xec3617f84b8cb27e
restaurant,Restoran,RM.Roda Baru,"QH2G+7QM, Galala, Oba Utara, Kota Tidore Kepulauan, Maluku Utara","Kota Tidore Kepulauan, Maluku Utara",MALUKU UTARA,,Indonesia,,0.7507151,127.5769078,https://maps.google.com/?cid=0x0:0xc57741879dec9d8e
restaurant,Restoran,Royal's Resto  Function Hall,"Q9QM+GMJ, Jalan Branjangan, Santiong, Ternate Tengah, Kalumpang, Kec. Ternate Tengah, Kota Ternate, Maluku Utara","Kota Ternate, Maluku Utara",MALUKU UTARA,,Indonesia,9213122333.0,0.7888473,127.3841502,https://maps.google.com/?cid=0x0:0x2e13a20e470af244
restaurant,Sesuai untuk keluarga,Pondok Katu Ternate.,"Q9QM+GPV, Kalumpang, Kec. Ternate Tengah, Kota Ternate, Maluku Utara","Kota Ternate, Maluku Utara",MALUKU UTARA,,Indonesia,82198401909.0,0.7888562,127.3843046,https://maps.google.com/?cid=0x0:0xef505db885e88f6f
restaurant,Indonesia,Rumah Makan Ikan Bakar Terminal,"Q9VQ+HWR, Terminal, Gamalama, Kota Ternate, Maluku Utara","Kota Ternate, Maluku Utara",MALUKU UTARA,,Indonesia,82188922291.0,0.7939769,127.3897774,https://maps.google.com/?cid=0x0:0x7c1ed17802703f5c
restaurant,Taman,Km 40,"PHQC+49G, Jl. Jend. Sudirman, Bukit Durian, Oba Utara, Kota Tidore Kepulauan, Maluku Utara","Kota Tidore Kepulauan, Maluku Utara",MALUKU UTARA,,Indonesia,,0.7375145,127.5711207,https://maps.google.com/?cid=0x0:0x76657287dec4e6a0
restaurant,Kafe,Pangkalan makanan ringan/pentolan,"PHP9+RW3, Sofifi, Oba Utara, Kota Tidore Kepulauan, Maluku Utara","Kota Tidore Kepulauan, Maluku Utara",MALUKU UTARA,,Indonesia,,0.736877,127.5704557,https://maps.google.com/?cid=0x0:0x1a4679df3280f310
restaurant,Kedai Kopi,Kedai es kepalmilo,"PHP9+RW3, Sofifi, Oba Utara, Kota Tidore Kepulauan, Maluku Utara","Kota Tidore Kepulauan, Maluku Utara",MALUKU UTARA,,Indonesia,,0.7368643,127.5700956,https://maps.google.com/?cid=0x0:0xd98a031f2e7d775a
restaurant,restaurant,Kec. Oba Sel.,"Kota Tidore Kepulauan, Maluku Utara","Kota Tidore Kepulauan, Maluku Utara",MALUKU UTARA,,Indonesia,,0.1136623,127.7329973,https://maps.google.com/?cid=0x0:0x98be6acd572d2bd7
restaurant,restaurant,Rumah makan Banyuwangi,"5P5M+VC4, Sagutora, Kec. Oba Sel., Kota Tidore Kepulauan, Maluku Utara","Kota Tidore Kepulauan, Maluku Utara",MALUKU UTARA,,Indonesia,,0.1596298,127.7335689,https://maps.google.com/?cid=0x0:0x177cb119c19924ee
restaurant,Indonesia,Warung Barokah,"QH2G+5QR, Galala, Oba Utara, Kota Tidore Kepulauan, Maluku Utara","Kota Tidore Kepulauan, Maluku Utara",MALUKU UTARA,,Indonesia,82293429260.0,0.7504787,127.5768823,https://maps.google.com/?cid=0x0:0xccc88a81b037337d
restaurant,Kafe,Cafe Borero,"Jl. Pusaka No.01, Tomagoba, Tidore, Kota Tidore Kepulauan, Maluku Utara","Kota Tidore Kepulauan, Maluku Utara",MALUKU UTARA,,Indonesia,82190003033.0,0.6670624,127.4437836,https://maps.google.com/?cid=0x0:0x3f263fe72bae3896
restaurant,restaurant,,,,MALUKU UTARA,,Indonesia,,,,https://maps.google.com/?cid=0x0:0x3f263fe72bae3896u0026onu0026midu003d/g/11tmrzcst4
restaurant,Kedai Kopi,Joung Caffe,"MC7X+P8W, Tomagoba, Tidore, Kota Tidore Kepulauan, Maluku Utara","Kota Tidore Kepulauan, Maluku Utara",MALUKU UTARA,,Indonesia,,0.6643707,127.4483341,https://maps.google.com/?cid=0x0:0x9c23302472df4e9a
restaurant,Padang,King Mie Tidore,"Indonesiana, Tidore, Kota Tidore Kepulauan, Maluku Utara","Kota Tidore Kepulauan, Maluku Utara",MALUKU UTARA,,Indonesia,85311749439.0,0.6723627,127.4533131,https://maps.google.com/?cid=0x0:0x9a6f04106f8370b9
