Category,Real Category,Business Name,Address,City,State,Postal Code,Country,Phone,Email,Website,Latitude,Longitude,Map Link,Details Link
toko bangunan,Toko Bahan Bangunan,Hokky Bangunan,"Jalan Kapuas No.simpang, Belitang Satu, Belitang, Sekadau Regency, West Kalimantan","Kabupaten Sekadau, Kalimantan Barat",KALIMANTAN BARAT,,Indonesia,,,,0.1341715,111.2375716,https://maps.google.com/?cid=0x0:0x9b4b2602e6e57c3,
toko bangunan,Toko Bahan Bangunan,Toko Bangunan,"C6V4+93R, Balai Sepuak, Kec. Belitang Hulu, Kabupaten Sekadau, Kalimantan Barat 79587","Balai Sepuak, Kec. Belitang Hulu, Kabupaten Sekadau",KALIMANTAN BARAT,79587.0,Indonesia,82148443343.0,,,0.4434764,111.205151,https://maps.google.com/?cid=0x0:0x149755029affad68,
toko bangunan,toko bangunan,Belitang,"Belitang Satu, Kec. Belitang, Kabupaten Sekadau, Kalimantan Barat","Kabupaten Sekadau, Kalimantan Barat",KALIMANTAN BARAT,,Indonesia,,,,0.12797,111.241501,https://maps.google.com/?cid=0x0:0x21926f63d903f773,
toko bangunan,toko bangunan,Kec. Belitang,"Kabupaten Ogan Komering Ulu Timur, Sumatera Selatan","Kabupaten Ogan Komering Ulu Timur, Sumatera Selatan",KALIMANTAN BARAT,,Indonesia,,,,-4.1402273,104.6278606,https://maps.google.com/?cid=0x0:0xbffde04fd06442eb,
toko bangunan,Toko Bahan Bangunan,Toko Central Bangunan,"Jl. Bedilan, Gumawang, Belitang Madang Raya, East Ogan Komering Ulu Regency, South Sumatra 32382","Gumawang, Belitang Madang Raya, East Ogan Komering Ulu Regency",KALIMANTAN BARAT,32382.0,Indonesia,83114785308.0,,,-4.1078544,104.6533709,https://maps.google.com/?cid=0x0:0x21a2d238d53fe730,
toko bangunan,Toko Bahan Bangunan,Toko Bangunan Berkah Jaya,"VJ5M+55G, Sidodadi, Kec. Belitang, Kabupaten Ogan Komering Ulu Timur, Sumatera Selatan 32382","Sidodadi, Kec. Belitang, Kabupaten Ogan Komering Ulu Timur",KALIMANTAN BARAT,32382.0,Indonesia,83114785308.0,,,-4.1420596,104.6329465,https://maps.google.com/?cid=0x0:0xb993667a5a8a57d1,
toko bangunan,Toko Bahan Bangunan,TB Sinar Jaya,"VJ5H+RWC, Sukajadi, Kec. Belitang, Kabupaten Ogan Komering Ulu Timur, Sumatera Selatan 32382","Sukajadi, Kec. Belitang, Kabupaten Ogan Komering Ulu Timur",KALIMANTAN BARAT,32382.0,Indonesia,83114785308.0,,,-4.1404361,104.6297775,https://maps.google.com/?cid=0x0:0x727f82f6c2567aa8,
toko bangunan,Toko Bahan Bangunan,Toko Bangunan Jati Luhur,"Jl.Jendral sudirman, Bedilan, Kec. Belitang, Kabupaten Ogan Komering Ulu Timur, Sumatera Selatan 32382","Bedilan, Kec. Belitang, Kabupaten Ogan Komering Ulu Timur",KALIMANTAN BARAT,32382.0,Indonesia,83114785308.0,,,-4.093859,104.6648779,https://maps.google.com/?cid=0x0:0xde070ce14dfde4ce,
toko bangunan,Toko Bahan Bangunan,Toko Bangunan Chandra Tani,"Yosowinangun, Kec. Belitang Madang Raya, Kabupaten Ogan Komering Ulu Timur, Sumatera Selatan 32382","Kec. Belitang Madang Raya, Kabupaten Ogan Komering Ulu Timur",KALIMANTAN BARAT,32382.0,Indonesia,,,,-4.1084313,104.6508667,https://maps.google.com/?cid=0x0:0xf7cebc02a816b4c9,
toko bangunan,Toko Bahan Bangunan,Toko RKB (Raja Kayu  Bangunan),"RJ7J+F77, Jl. Tawang Rejo, Karang Kemiri, Kec. Belitang, Kabupaten Ogan Komering Ulu Timur, Sumatera Selatan 32382","Jl. Tawang Rejo, Karang Kemiri, Kec. Belitang, Kabupaten Ogan Komering Ulu Timur",KALIMANTAN BARAT,32382.0,Indonesia,83114785308.0,,,-4.186327,104.6306572,https://maps.google.com/?cid=0x0:0x94c9961d43b685f2,
toko bangunan,Toko Bahan Bangunan,PANCA BANGUNAN,"VJMX+V2G, Jl. Manggis, RT.7/rw1, Tegal Rejo, Kec. Belitang, Kabupaten Ogan Komering Ulu Timur, Sumatera Selatan 32382","Jl. Manggis, RT.7/rw1, Tegal Rejo, Kec. Belitang, Kabupaten Ogan Komering Ulu Timur",KALIMANTAN BARAT,32382.0,Indonesia,83114785308.0,,,-4.1153203,104.6475818,https://maps.google.com/?cid=0x0:0x79323ee3dd4887b6,
toko bangunan,Toko Bahan Bangunan,Toko Darlis,"VJ4M+PQQ, Unnamed Road,, Serbaguna, Kec. Belitang, Kabupaten Ogan Komering Ulu Timur, Sumatera Selatan 32382","Unnamed Road,, Serbaguna, Kec. Belitang, Kabupaten Ogan Komering Ulu Timur",KALIMANTAN BARAT,32382.0,Indonesia,82176935269.0,,,-4.1431522,104.6344903,https://maps.google.com/?cid=0x0:0x4a65759e8f816c69,
toko bangunan,Toko Bahan Bangunan,Toko Alam Abadiy,"VJ5J+2W5, Jl. Triyoso, Serbaguna, Kec. Belitang, Kabupaten Ogan Komering Ulu Timur, Sumatera Selatan 32382","Jl. Triyoso, Serbaguna, Kec. Belitang, Kabupaten Ogan Komering Ulu Timur",KALIMANTAN BARAT,32382.0,Indonesia,83114785308.0,,,-4.1424904,104.632372,https://maps.google.com/?cid=0x0:0x5e35c6658d9e1d27,
toko bangunan,Toko Perlengkapan Rumah,Toko Rahayu belitang,"Jalan Raya Pasar Sidodadi BK 9, Serbaguna, Kec. Belitang, Kabupaten Ogan Komering Ulu Timur, Sumatera Selatan 32382","Serbaguna, Kec. Belitang, Kabupaten Ogan Komering Ulu Timur",KALIMANTAN BARAT,32382.0,Indonesia,81273780338.0,,,-4.1428247,104.6354594,https://maps.google.com/?cid=0x0:0xe5a4c1a949cffed,
toko bangunan,Pemasok peralatan penanganan material,Toko HSM,"Mojosari, Kec. Belitang, Kabupaten Ogan Komering Ulu Timur, Sumatera Selatan 32382","Kec. Belitang, Kabupaten Ogan Komering Ulu Timur",KALIMANTAN BARAT,32382.0,Indonesia,83114785308.0,,,-4.1339657,104.6280793,https://maps.google.com/?cid=0x0:0xc8554ca6db76e2b7,
toko bangunan,Toko Bahan Bangunan,TB. Oktara Jaya,"VJPG+7H6, Tanah Merah, Kec. Belitang Madang Raya, Kabupaten Ogan Komering Ulu Timur, Sumatera Selatan 32382","Tanah Merah, Kec. Belitang Madang Raya, Kabupaten Ogan Komering Ulu Timur",KALIMANTAN BARAT,32382.0,Indonesia,85366366686.0,,,-4.1143473,104.6263933,https://maps.google.com/?cid=0x0:0x304df01369f6fa41,
toko bangunan,Toko Kaca,Toko Berkah KACA,"VJ3J+VC9, Jl. Triyoso, Serbaguna, Kec. Belitang, Kabupaten Ogan Komering Ulu Timur, Sumatera Selatan 32382","Jl. Triyoso, Serbaguna, Kec. Belitang, Kabupaten Ogan Komering Ulu Timur",KALIMANTAN BARAT,32382.0,Indonesia,82261913638.0,,,-4.1453262,104.6310957,https://maps.google.com/?cid=0x0:0x713b7463ee773f8d,
toko bangunan,Toko Bahan Bangunan,DIDIK tobong boto,"RJ8Q+RCQ, Jl. Gn. Mas III, Tawang Rejo, Kec. Belitang, Kabupaten Ogan Komering Ulu Timur, Sumatera Selatan 32382","Jl. Gn. Mas III, Tawang Rejo, Kec. Belitang, Kabupaten Ogan Komering Ulu Timur",KALIMANTAN BARAT,32382.0,Indonesia,85609048090.0,,,-4.1829049,104.638607,https://maps.google.com/?cid=0x0:0x6115dd0c3cf96b9a,
toko bangunan,Toko Bahan Bangunan,TB Nuri (Bangunan  Pertanian),"WJ2F+QP8, Jl. Puskesmas, Kampung 4, Bangsa Negara, Kec. Belitang Madang Raya, Kabupaten Ogan Komering Ulu Timur, Sumatera Selatan 32385","Jl. Puskesmas, Kampung 4, Bangsa Negara, Kec. Belitang Madang Raya, Kabupaten Ogan Komering Ulu Timur",KALIMANTAN BARAT,32385.0,Indonesia,83114785308.0,,,-4.0980838,104.6243363,https://maps.google.com/?cid=0x0:0xc180f337ccdd017b,
toko bangunan,Toko Suku Cadang Motor,Toko  Bengkel ALDIRA MOTOR,"Tawang Rejo, Kec. Belitang, Kabupaten Ogan Komering Ulu Timur, Sumatera Selatan 32382","Kec. Belitang, Kabupaten Ogan Komering Ulu Timur",KALIMANTAN BARAT,32382.0,Indonesia,83114785308.0,,,-4.1980637,104.6351419,https://maps.google.com/?cid=0x0:0x8c0a4432e02b74c8,
toko bangunan,Toko Bahan Bangunan,TB Joko,"RJMF+9V7, Triyoso, Kec. Belitang, Kabupaten Ogan Komering Ulu Timur, Sumatera Selatan 32382","Triyoso, Kec. Belitang, Kabupaten Ogan Komering Ulu Timur",KALIMANTAN BARAT,32382.0,Indonesia,,,,-4.1665852,104.6246689,https://maps.google.com/?cid=0x0:0x5665e2b58bed4cdb,
toko bangunan,Toko Bahan Bangunan,Tb. Berkah Jaya,"VMP9+X78, Jl. Raya SidoMakmur, Sido Makmur, Kec. Belitang, Kabupaten Ogan Komering Ulu Timur, Sumatera Selatan 32382","Jl. Raya SidoMakmur, Sido Makmur, Kec. Belitang, Kabupaten Ogan Komering Ulu Timur",KALIMANTAN BARAT,32382.0,Indonesia,83114785308.0,,,-4.1125889,104.6682187,https://maps.google.com/?cid=0x0:0xba681980557d8b62,
toko bangunan,Toko Bahan Bangunan,Toko bangunan sukses mandiri,"VJ7H+H63, Sukajadi, Kec. Belitang, Kabupaten Ogan Komering Ulu Timur, Sumatera Selatan 32382","Sukajadi, Kec. Belitang, Kabupaten Ogan Komering Ulu Timur",KALIMANTAN BARAT,32382.0,Indonesia,83114785308.0,,,-4.1361117,104.6280488,https://maps.google.com/?cid=0x0:0x441278c9612a37d9,
toko bangunan,Toko Bahan Bangunan,Putra Ramayana,"Jl. Bedilan, Gumawang, Belitang, East Ogan Komering Ulu Regency, South Sumatra 32382","Gumawang, Belitang, East Ogan Komering Ulu Regency",KALIMANTAN BARAT,32382.0,Indonesia,83114785308.0,,,-4.1077788,104.6536173,https://maps.google.com/?cid=0x0:0xb9b8b545ca1a269c,
toko bangunan,toko bangunan,Kalimantan Barat 79588,"Kec. Belitang, Kabupaten Sekadau, Kalimantan Barat","Kabupaten Sekadau, Kalimantan Barat",KALIMANTAN BARAT,,Indonesia,,,,0.2617615,111.2129616,https://maps.google.com/?cid=0x0:0x5479f9f1b87cf60,
toko bangunan,Toko Bahan Bangunan,Toko Bangunan,"C6V4+93R, Balai Sepuak, Kec. Belitang Hulu, Kabupaten Sekadau, Kalimantan Barat 79587","Balai Sepuak, Kec. Belitang Hulu, Kabupaten Sekadau",KALIMANTAN BARAT,79587.0,Indonesia,82148443343.0,,,0.4434764,111.205151,https://maps.google.com/?cid=0x0:0x149755029affad68,
toko bangunan,Toko Bahan Bangunan,TB. MANDIRI JAYA M@rt,"55HQ+2Q4, Padak, Kec. Belitang, Kabupaten Sekadau, Kalimantan Barat 79586","Padak, Kec. Belitang, Kabupaten Sekadau",KALIMANTAN BARAT,79586.0,Indonesia,82112427393.0,,,0.1775221,111.1894676,https://maps.google.com/?cid=0x0:0x5a5404f56706d4b0,
toko bangunan,Toko Bahan Bangunan,Hokky Bangunan,"Jalan Kapuas No.simpang, Belitang Satu, Belitang, Sekadau Regency, West Kalimantan","Kabupaten Sekadau, Kalimantan Barat",KALIMANTAN BARAT,,Indonesia,,,,0.1341715,111.2375716,https://maps.google.com/?cid=0x0:0x9b4b2602e6e57c3,
toko bangunan,Toko Bahan Bangunan,Toko Sumber Bangunan,"2V8X+65M, Tanjung, Kec. Sekadau Hilir, Kabupaten Sekadau, Kalimantan Barat 79516","Tanjung, Kec. Sekadau Hilir, Kabupaten Sekadau",KALIMANTAN BARAT,79516.0,Indonesia,82148465985.0,,,0.0155863,110.8979276,https://maps.google.com/?cid=0x0:0xf343b77c5ff699d2,
toko bangunan,Toko,mulya bahagia,"65R9+856, Padak, Kec. Belitang, Kabupaten Sekadau, Kalimantan Barat 79586","Padak, Kec. Belitang, Kabupaten Sekadau",KALIMANTAN BARAT,79586.0,Indonesia,82255250033.0,,,0.2407929,111.1678785,https://maps.google.com/?cid=0x0:0x5f93ea7518f2ee26,
toko bangunan,Toko Bahan Bangunan,TB. MEGA BANGUNAN,"Kompleks terminal lawang kuari no 7-B, Kabupaten Sekadau, Kalimantan Barat 79582",Kabupaten Sekadau,KALIMANTAN BARAT,79582.0,Indonesia,82153272023.0,,,0.0225329,110.8904731,https://maps.google.com/?cid=0x0:0xad8ed9e4fa734edb,
toko bangunan,Toko Bahan Bangunan,Toko Bangunan Bintang Harapan,"2V9R+HQP, Jl. Merdeka Timur, Sungai Ringin, Kec. Sekadau Hilir, Kabupaten Sekadau, Kalimantan Barat 79516","Jl. Merdeka Timur, Sungai Ringin, Kec. Sekadau Hilir, Kabupaten Sekadau",KALIMANTAN BARAT,79516.0,Indonesia,82112427393.0,,,0.0189636,110.891959,https://maps.google.com/?cid=0x0:0xf09f7c6ab52b8686,
toko bangunan,Toko Bahan Bangunan,Toko Bintang Mitra,"C6V4+823, Balai Sepuak, Kec. Belitang Hulu, Kabupaten Sekadau, Kalimantan Barat 79587","Balai Sepuak, Kec. Belitang Hulu, Kabupaten Sekadau",KALIMANTAN BARAT,79587.0,Indonesia,82148443343.0,,,0.4432604,111.2050615,https://maps.google.com/?cid=0x0:0xaaea75055964c59b,
toko bangunan,Toko,Warung Sembako Pak Apen,"Kumpang Ilong, Kec. Belitang Hulu, Kabupaten Sekadau, Kalimantan Barat 79588","Kec. Belitang Hulu, Kabupaten Sekadau",KALIMANTAN BARAT,79588.0,Indonesia,,,,0.3595032,111.1869222,https://maps.google.com/?cid=0x0:0x458b8c759962255,
toko bangunan,Jasa Konstruksi dan Bangunan,Bengkel Las Sumber Rejeki,"DS kebaong sp3, Padak, Kec. Belitang, Kabupaten Sekadau, Kalimantan Barat","Kabupaten Sekadau, Kalimantan Barat",KALIMANTAN BARAT,,Indonesia,81345335262.0,,,0.2347202,111.1663017,https://maps.google.com/?cid=0x0:0xb7ef1289b949b91c,
toko bangunan,Toko Bahan Bangunan,Toko Eki Bangunan,"Jl. Raya Belitang Blitang BK 2 No.BK 2, Sumber Asri, Kec. Buay Madang Tim., Kabupaten Ogan Komering Ulu Timur, Sumatera Selatan","Kabupaten Ogan Komering Ulu Timur, Sumatera Selatan",KALIMANTAN BARAT,,Indonesia,,,,-4.1993021,104.5617515,https://maps.google.com/?cid=0x0:0xf5fba9082b200a,
toko bangunan,Toko Bahan Bangunan,Toko Bangunan Berkah Jaya,"VJ5M+55G, Sidodadi, Kec. Belitang, Kabupaten Ogan Komering Ulu Timur, Sumatera Selatan 32382","Sidodadi, Kec. Belitang, Kabupaten Ogan Komering Ulu Timur",KALIMANTAN BARAT,32382.0,Indonesia,83114785308.0,,,-4.1420596,104.6329465,https://maps.google.com/?cid=0x0:0xb993667a5a8a57d1,
toko bangunan,Toko Bahan Bangunan,PANCA BANGUNAN,"bk.12, Karang Binangun, Belitang Madang Raya, East Ogan Komering Ulu Regency, South Sumatra 32385","Karang Binangun, Belitang Madang Raya, East Ogan Komering Ulu Regency",KALIMANTAN BARAT,32385.0,Indonesia,83114785308.0,,,-4.073628,104.686244,https://maps.google.com/?cid=0x0:0x37279e22f515b2af,
toko bangunan,Toko Bahan Bangunan,Toko Depo Bangunan Sumber Jaya,"Sumber Jaya, Kec. Belitang II, Kabupaten Ogan Komering Ulu Timur, Sumatera Selatan 3233","Kabupaten Ogan Komering Ulu Timur, Sumatera Selatan",KALIMANTAN BARAT,,Indonesia,83114785308.0,,,-3.9944084,104.8206604,https://maps.google.com/?cid=0x0:0x80df6b47a133ab5e,
toko bangunan,Toko Bahan Bangunan,Toko Central Bangunan,"Jl. Bedilan, Gumawang, Belitang Madang Raya, East Ogan Komering Ulu Regency, South Sumatra 32382","Gumawang, Belitang Madang Raya, East Ogan Komering Ulu Regency",KALIMANTAN BARAT,32382.0,Indonesia,83114785308.0,,,-4.1078544,104.6533709,https://maps.google.com/?cid=0x0:0x21a2d238d53fe730,
toko bangunan,Toko Swalayan,Toko Bangunan Arif,"VP3V+MV8, Nusa Bali, Kec. Belitang III, Kabupaten Ogan Komering Ulu Timur, Sumatera Selatan 32385","Nusa Bali, Kec. Belitang III, Kabupaten Ogan Komering Ulu Timur",KALIMANTAN BARAT,32385.0,Indonesia,,,,-4.1451257,104.7438471,https://maps.google.com/?cid=0x0:0xe9996c97f33e016e,
toko bangunan,Toko Bahan Bangunan,Toko Bangunan Jati Luhur,"Jl.Jendral sudirman, Bedilan, Kec. Belitang, Kabupaten Ogan Komering Ulu Timur, Sumatera Selatan 32382","Bedilan, Kec. Belitang, Kabupaten Ogan Komering Ulu Timur",KALIMANTAN BARAT,32382.0,Indonesia,83114785308.0,,,-4.093859,104.6648779,https://maps.google.com/?cid=0x0:0xde070ce14dfde4ce,
toko bangunan,Toko Perlengkapan Rumah,Rumah Tukang Bangunan,"VP78+7XJ, Nusa Tunggal, Kec. Belitang III, Kabupaten Ogan Komering Ulu Timur, Sumatera Selatan 32385","Nusa Tunggal, Kec. Belitang III, Kabupaten Ogan Komering Ulu Timur",KALIMANTAN BARAT,32385.0,Indonesia,85640966501.0,,,-4.1367843,104.7173874,https://maps.google.com/?cid=0x0:0x1de46a4a159c8a74,
toko bangunan,Toko Bahan Bangunan,Toko Sumber Bangunan 2,"XQF3+7GQ, Desa, Tanjung Kemuning, Belitang II, East Ogan Komering Ulu Regency, South Sumatra 32383","Desa, Tanjung Kemuning, Belitang II, East Ogan Komering Ulu Regency",KALIMANTAN BARAT,32383.0,Indonesia,8161999912.0,,,-4.0267758,104.7538518,https://maps.google.com/?cid=0x0:0xd6c7ea1e9b2441f1,
toko bangunan,Toko Bahan Bangunan,TB Sinar Jaya,"VJ5H+RWC, Sukajadi, Kec. Belitang, Kabupaten Ogan Komering Ulu Timur, Sumatera Selatan 32382","Sukajadi, Kec. Belitang, Kabupaten Ogan Komering Ulu Timur",KALIMANTAN BARAT,32382.0,Indonesia,83114785308.0,,,-4.1404361,104.6297775,https://maps.google.com/?cid=0x0:0x727f82f6c2567aa8,
toko bangunan,Toko Bahan Bangunan,Toko Darlis,"VJ4M+PQQ, Unnamed Road,, Serbaguna, Kec. Belitang, Kabupaten Ogan Komering Ulu Timur, Sumatera Selatan 32382","Unnamed Road,, Serbaguna, Kec. Belitang, Kabupaten Ogan Komering Ulu Timur",KALIMANTAN BARAT,32382.0,Indonesia,82176935269.0,,,-4.1431522,104.6344903,https://maps.google.com/?cid=0x0:0x4a65759e8f816c69,
toko bangunan,Toko Perlengkapan Rumah,Toko Rahayu belitang,"Jalan Raya Pasar Sidodadi BK 9, Serbaguna, Kec. Belitang, Kabupaten Ogan Komering Ulu Timur, Sumatera Selatan 32382","Serbaguna, Kec. Belitang, Kabupaten Ogan Komering Ulu Timur",KALIMANTAN BARAT,32382.0,Indonesia,81273780338.0,,,-4.1428247,104.6354594,https://maps.google.com/?cid=0x0:0xe5a4c1a949cffed,
toko bangunan,Toko Bahan Bangunan,Toko Arya Tani,"RP8G+75V, Tri Karya, Kec. Belitang III, Kabupaten Ogan Komering Ulu Timur, Sumatera Selatan 30681","Tri Karya, Kec. Belitang III, Kabupaten Ogan Komering Ulu Timur",KALIMANTAN BARAT,30681.0,Indonesia,,,,-4.1842504,104.7254225,https://maps.google.com/?cid=0x0:0x73294489f5bb00c2,
toko bangunan,Toko Bahan Bangunan,PANCA BANGUNAN,"VJMX+V2G, Jl. Manggis, RT.7/rw1, Tegal Rejo, Kec. Belitang, Kabupaten Ogan Komering Ulu Timur, Sumatera Selatan 32382","Jl. Manggis, RT.7/rw1, Tegal Rejo, Kec. Belitang, Kabupaten Ogan Komering Ulu Timur",KALIMANTAN BARAT,32382.0,Indonesia,83114785308.0,,,-4.1153203,104.6475818,https://maps.google.com/?cid=0x0:0x79323ee3dd4887b6,
toko bangunan,Toko Barang Rumah Tangga Asia,Toko Bangunan Apek Jaya,"VQF2+MMW, Nusa Jaya, Kec. Belitang III, Kabupaten Ogan Komering Ulu Timur, Sumatera Selatan 32385","Nusa Jaya, Kec. Belitang III, Kabupaten Ogan Komering Ulu Timur",KALIMANTAN BARAT,32385.0,Indonesia,,,,-4.1257666,104.7517186,https://maps.google.com/?cid=0x0:0x93e2d18a7e17bee4,
toko bangunan,Toko Bahan Bangunan,Toko Bangunan Chandra Tani,"Yosowinangun, Kec. Belitang Madang Raya, Kabupaten Ogan Komering Ulu Timur, Sumatera Selatan 32382","Kec. Belitang Madang Raya, Kabupaten Ogan Komering Ulu Timur",KALIMANTAN BARAT,32382.0,Indonesia,,,,-4.1084313,104.6508667,https://maps.google.com/?cid=0x0:0xf7cebc02a816b4c9,
toko bangunan,Toko Bahan Bangunan,TB. NUSA BERKAH,"Nomor 94, BK 10 BELITANG, Jl. Tugu Harum, RT.4/RW.2, Gumawang, Kec. Belitang, Kabupaten Ogan Komering Ulu Timur, Sumatera Selatan 32382","BK 10 BELITANG, Jl. Tugu Harum, RT.4/RW.2, Gumawang, Kec. Belitang, Kabupaten Ogan Komering Ulu Timur",KALIMANTAN BARAT,32382.0,Indonesia,83114785308.0,,,-4.1073812,104.6446426,https://maps.google.com/?cid=0x0:0xf507f8e8263df546,
toko bangunan,Toko Bahan Bangunan,Toko bangunan sukses mandiri,"VJ7H+H63, Sukajadi, Kec. Belitang, Kabupaten Ogan Komering Ulu Timur, Sumatera Selatan 32382","Sukajadi, Kec. Belitang, Kabupaten Ogan Komering Ulu Timur",KALIMANTAN BARAT,32382.0,Indonesia,83114785308.0,,,-4.1361117,104.6280488,https://maps.google.com/?cid=0x0:0x441278c9612a37d9,
toko bangunan,toko bangunan,Kalimantan Barat 79586,"Kec. Belitang Hilir, Kabupaten Sekadau, Kalimantan Barat","Kabupaten Sekadau, Kalimantan Barat",KALIMANTAN BARAT,,Indonesia,,,,0.1743805,111.1414226,https://maps.google.com/?cid=0x0:0x959d1847699c643e,
toko bangunan,Toko Bahan Bangunan,TB. MANDIRI JAYA M@rt,"55HQ+2Q4, Padak, Kec. Belitang, Kabupaten Sekadau, Kalimantan Barat 79586","Padak, Kec. Belitang, Kabupaten Sekadau",KALIMANTAN BARAT,79586.0,Indonesia,82112427393.0,,,0.1775221,111.1894676,https://maps.google.com/?cid=0x0:0x5a5404f56706d4b0,
toko bangunan,Toko Bahan Bangunan,Toko Bangunan,"C6V4+93R, Balai Sepuak, Kec. Belitang Hulu, Kabupaten Sekadau, Kalimantan Barat 79587","Balai Sepuak, Kec. Belitang Hulu, Kabupaten Sekadau",KALIMANTAN BARAT,79587.0,Indonesia,82148443343.0,,,0.4434764,111.205151,https://maps.google.com/?cid=0x0:0x149755029affad68,
toko bangunan,Toko Bahan Bangunan,Hokky Bangunan,"Jalan Kapuas No.simpang, Belitang Satu, Belitang, Sekadau Regency, West Kalimantan","Kabupaten Sekadau, Kalimantan Barat",KALIMANTAN BARAT,,Indonesia,,,,0.1341715,111.2375716,https://maps.google.com/?cid=0x0:0x9b4b2602e6e57c3,
toko bangunan,Toko Bahan Bangunan,Toko Bangunan Bintang Harapan,"2V9R+HQP, Jl. Merdeka Timur, Sungai Ringin, Kec. Sekadau Hilir, Kabupaten Sekadau, Kalimantan Barat 79516","Jl. Merdeka Timur, Sungai Ringin, Kec. Sekadau Hilir, Kabupaten Sekadau",KALIMANTAN BARAT,79516.0,Indonesia,82112427393.0,,,0.0189636,110.891959,https://maps.google.com/?cid=0x0:0xf09f7c6ab52b8686,
toko bangunan,Toko,mulya bahagia,"65R9+856, Padak, Kec. Belitang, Kabupaten Sekadau, Kalimantan Barat 79586","Padak, Kec. Belitang, Kabupaten Sekadau",KALIMANTAN BARAT,79586.0,Indonesia,82255250033.0,,,0.2407929,111.1678785,https://maps.google.com/?cid=0x0:0x5f93ea7518f2ee26,
toko bangunan,Toko Bahan Bangunan,TB. Aneka Bangunan,"Jl. Merdeka Timur No.19, Tanjung, Kec. Sekadau Hilir, Kabupaten Sekadau, Kalimantan Barat 79516","Tanjung, Kec. Sekadau Hilir, Kabupaten Sekadau",KALIMANTAN BARAT,79516.0,Indonesia,83121529590.0,,,0.014094,110.9008095,https://maps.google.com/?cid=0x0:0xa9a5f01fcbddf99a,
toko bangunan,Toko Bahan Bangunan,Toko Bintang Mitra,"C6V4+823, Balai Sepuak, Kec. Belitang Hulu, Kabupaten Sekadau, Kalimantan Barat 79587","Balai Sepuak, Kec. Belitang Hulu, Kabupaten Sekadau",KALIMANTAN BARAT,79587.0,Indonesia,82148443343.0,,,0.4432604,111.2050615,https://maps.google.com/?cid=0x0:0xaaea75055964c59b,
toko bangunan,Toko Bahan Bangunan,TB. MEGA BANGUNAN,"Kompleks terminal lawang kuari no 7-B, Kabupaten Sekadau, Kalimantan Barat 79582",Kabupaten Sekadau,KALIMANTAN BARAT,79582.0,Indonesia,82153272023.0,,,0.0225329,110.8904731,https://maps.google.com/?cid=0x0:0xad8ed9e4fa734edb,
toko bangunan,Toko Bahan Bangunan,TB. King’s Material,"2V8W+H54, Jl. Lintas Kalimantan Poros Tengah, Mungguk, Kec. Sekadau Hilir, Kabupaten Sekadau, Kalimantan Barat 79516","Jl. Lintas Kalimantan Poros Tengah, Mungguk, Kec. Sekadau Hilir, Kabupaten Sekadau",KALIMANTAN BARAT,79516.0,Indonesia,81528677088.0,,,0.0163806,110.8954592,https://maps.google.com/?cid=0x0:0x4b38b845f0dea4d9,
toko bangunan,Jasa Konstruksi dan Bangunan,Bengkel Las Sumber Rejeki,"DS kebaong sp3, Padak, Kec. Belitang, Kabupaten Sekadau, Kalimantan Barat","Kabupaten Sekadau, Kalimantan Barat",KALIMANTAN BARAT,,Indonesia,81345335262.0,,,0.2347202,111.1663017,https://maps.google.com/?cid=0x0:0xb7ef1289b949b91c,
toko bangunan,Minimarket,TOKO:JAYA GEMILANG DIESEL,"Jl. Dr. Sutomo No.259, Sungai Ayak III, Kec. Belitang Hilir, Kabupaten Sekadau, Kalimantan Barat 79512","Sungai Ayak III, Kec. Belitang Hilir, Kabupaten Sekadau",KALIMANTAN BARAT,79512.0,Indonesia,,,,0.0988475,111.0656692,https://maps.google.com/?cid=0x0:0xaeedcab23b163d9e,
toko bangunan,Toko,Warung Sembako Pak Apen,"Kumpang Ilong, Kec. Belitang Hulu, Kabupaten Sekadau, Kalimantan Barat 79588","Kec. Belitang Hulu, Kabupaten Sekadau",KALIMANTAN BARAT,79588.0,Indonesia,,,,0.3595032,111.1869222,https://maps.google.com/?cid=0x0:0x458b8c759962255,
toko bangunan,Toko Bahan Bangunan,Toko Central Bangunan,"Jl. Bedilan, Gumawang, Belitang Madang Raya, East Ogan Komering Ulu Regency, South Sumatra 32382","Gumawang, Belitang Madang Raya, East Ogan Komering Ulu Regency",KALIMANTAN BARAT,32382.0,Indonesia,83114785308.0,,,-4.1078544,104.6533709,https://maps.google.com/?cid=0x0:0x21a2d238d53fe730,
toko bangunan,,MET LAST,"4359+C28, Sungai Ayak III, Kec. Belitang Hilir, Kabupaten Sekadau, Kalimantan Barat 79512","Sungai Ayak III, Kec. Belitang Hilir, Kabupaten Sekadau",KALIMANTAN BARAT,79512.0,Indonesia,82255250000.0,,,0.1085493,111.0675851,https://maps.google.com/?cid=0x0:0xeb61fe97bcc7d0d9,
toko bangunan,Toko Bahan Bangunan,Toko Bangunan Berkah Jaya,"VJ5M+55G, Sidodadi, Kec. Belitang, Kabupaten Ogan Komering Ulu Timur, Sumatera Selatan 32382","Sidodadi, Kec. Belitang, Kabupaten Ogan Komering Ulu Timur",KALIMANTAN BARAT,32382.0,Indonesia,83114785308.0,,,-4.1420596,104.6329465,https://maps.google.com/?cid=0x0:0xb993667a5a8a57d1,
toko bangunan,toko bangunan,Kalimantan Barat 79587,"Kec. Belitang Hulu, Kabupaten Sekadau, Kalimantan Barat","Kabupaten Sekadau, Kalimantan Barat",KALIMANTAN BARAT,,Indonesia,,,,0.5256764,111.1414226,https://maps.google.com/?cid=0x0:0x33292d03494f6bcb,
toko bangunan,Toko Bahan Bangunan,Toko Bintang Mitra,"C6V4+823, Balai Sepuak, Kec. Belitang Hulu, Kabupaten Sekadau, Kalimantan Barat 79587","Balai Sepuak, Kec. Belitang Hulu, Kabupaten Sekadau",KALIMANTAN BARAT,79587.0,Indonesia,82148443343.0,,,0.4432604,111.2050615,https://maps.google.com/?cid=0x0:0xaaea75055964c59b,
toko bangunan,Toko Bahan Bangunan,Toko Bangunan,"C6V4+93R, Balai Sepuak, Kec. Belitang Hulu, Kabupaten Sekadau, Kalimantan Barat 79587","Balai Sepuak, Kec. Belitang Hulu, Kabupaten Sekadau",KALIMANTAN BARAT,79587.0,Indonesia,82148443343.0,,,0.4434764,111.205151,https://maps.google.com/?cid=0x0:0x149755029affad68,
toko bangunan,toko bangunan,Kalimantan Barat 79585,"Kec. Nanga Mahap, Kabupaten Sekadau, Kalimantan Barat","Kabupaten Sekadau, Kalimantan Barat",KALIMANTAN BARAT,,Indonesia,,,,-0.5270182,110.7599266,https://maps.google.com/?cid=0x0:0x130fcb733de732c5,
toko bangunan,Toko Bahan Bangunan,Toko era jaya,"HQH5+54W, Jl. Jend. Sudirman, Nanga Mahap, Kec. Nanga Mahap, Kabupaten Sekadau, Kalimantan Barat 79584","Jl. Jend. Sudirman, Nanga Mahap, Kec. Nanga Mahap, Kabupaten Sekadau",KALIMANTAN BARAT,79584.0,Indonesia,88856094686.0,,,-0.4220037,110.7578159,https://maps.google.com/?cid=0x0:0xdf0f9d1016358b26,
toko bangunan,Toko Bahan Bangunan,toko bangunan maju jaya,"HQF6+26W, Nanga Suri, Kec. Nanga Mahap, Kabupaten Sekadau, Kalimantan Barat 79584","Nanga Suri, Kec. Nanga Mahap, Kabupaten Sekadau",KALIMANTAN BARAT,79584.0,Indonesia,,,,-0.427012,110.7610282,https://maps.google.com/?cid=0x0:0x5899fa2762c1b5ff,
toko bangunan,Toko Bahan Bangunan,toko bangunan maju jaya,"HQF6+26W, Nanga Suri, Kec. Nanga Mahap, Kabupaten Sekadau, Kalimantan Barat 79584","Nanga Suri, Kec. Nanga Mahap, Kabupaten Sekadau",KALIMANTAN BARAT,79584.0,Indonesia,,,,-0.427012,110.7610282,https://maps.google.com/?cid=0x0:0x5899fa2762c1b5ff,
toko bangunan,Pusat Perbelanjaan,Toko Bangunan Surya Baru II,"Nanga Taman, Kec. Nanga Taman, Kabupaten Sekadau, Kalimantan Barat 79584","Kec. Nanga Taman, Kabupaten Sekadau",KALIMANTAN BARAT,79584.0,Indonesia,82254132893.0,,,-0.2649349,110.8198589,https://maps.google.com/?cid=0x0:0x32beeb0bcae69b41,
toko bangunan,Toko Perlengkapan Rumah,Tb. Sukses jaya88,"Jalan. Raya No.38, Nanga Taman, Kec. Nanga Taman, Kabupaten Sekadau, Kalimantan Barat 79584","Nanga Taman, Kec. Nanga Taman, Kabupaten Sekadau",KALIMANTAN BARAT,79584.0,Indonesia,,,,-0.2635729,110.8204233,https://maps.google.com/?cid=0x0:0x57c32d2aa6667cc6,
toko bangunan,Toko Bahan Bangunan,Toko era jaya,"HQH5+54W, Jl. Jend. Sudirman, Nanga Mahap, Kec. Nanga Mahap, Kabupaten Sekadau, Kalimantan Barat 79584","Jl. Jend. Sudirman, Nanga Mahap, Kec. Nanga Mahap, Kabupaten Sekadau",KALIMANTAN BARAT,79584.0,Indonesia,88856094686.0,,,-0.4220037,110.7578159,https://maps.google.com/?cid=0x0:0xdf0f9d1016358b26,
toko bangunan,Toko Bahan Bangunan,KJB (KANCAI JAYA BATAKO ),"HQ84+6W2, Jl. M Ali dsn Sekitak Permai, Batu Pahat, Kec. Nanga Mahap, Kabupaten Sekadau, Kalimantan Barat 79585","Jl. M Ali dsn Sekitak Permai, Batu Pahat, Kec. Nanga Mahap, Kabupaten Sekadau",KALIMANTAN BARAT,79585.0,Indonesia,82358987771.0,,,-0.4344815,110.7572803,https://maps.google.com/?cid=0x0:0x9eea0457a5e7863b,
toko bangunan,toko bangunan,Kalimantan Barat 79511,"Kec. Sekadau Hilir, Kabupaten Sekadau, Kalimantan Barat","Kabupaten Sekadau, Kalimantan Barat",KALIMANTAN BARAT,,Indonesia,,,,-0.0087079,110.9864294,https://maps.google.com/?cid=0x0:0xc1e4ec47290edec9,
toko bangunan,Toko Bahan Bangunan,Toko Sumber Bangunan,"2V8X+65M, Tanjung, Kec. Sekadau Hilir, Kabupaten Sekadau, Kalimantan Barat 79516","Tanjung, Kec. Sekadau Hilir, Kabupaten Sekadau",KALIMANTAN BARAT,79516.0,Indonesia,82148465985.0,,,0.0155863,110.8979276,https://maps.google.com/?cid=0x0:0xf343b77c5ff699d2,
toko bangunan,Toko Bahan Bangunan,TB. LEBU MAS,"Jln. Sekadau Sintang, KM. 9, Desa Bokak Sebumbun, Gonis Tekam, Kec. Sekadau Hilir, Kabupaten Sekadau, Kalimantan Barat 79582","KM. 9, Desa Bokak Sebumbun, Gonis Tekam, Kec. Sekadau Hilir, Kabupaten Sekadau",KALIMANTAN BARAT,79582.0,Indonesia,82112427393.0,,,-0.0045309,110.9553172,https://maps.google.com/?cid=0x0:0x5b6d9b6975450b8c,
toko bangunan,Toko Bahan Bangunan,Tb. Sentosa Jaya,"2227+944, Jl. Lintas Kalimantan Poros Tengah, Gonis Tekam, Kec. Sekadau Hilir, Kabupaten Sekadau, Kalimantan Barat 79511","Jl. Lintas Kalimantan Poros Tengah, Gonis Tekam, Kec. Sekadau Hilir, Kabupaten Sekadau",KALIMANTAN BARAT,79511.0,Indonesia,82112427393.0,,,0.0008773,111.012835,https://maps.google.com/?cid=0x0:0x650bfc8fdeacb8e,
toko bangunan,Toko Bahan Bangunan,Tb. Maju,"simpang kayu lapis, Jl. Lintas Kalimantan Poros Tengah, Seraras, Kec. Sekadau Hilir, Kabupaten Sekadau, Kalimantan Barat","Kabupaten Sekadau, Kalimantan Barat",KALIMANTAN BARAT,,Indonesia,368898900.0,,,-0.0018969,111.0338224,https://maps.google.com/?cid=0x0:0x8985cdbc0055bc6d,
toko bangunan,Toko Bahan Bangunan,Toko Bangunan Bintang Harapan,"2V9R+HQP, Jl. Merdeka Timur, Sungai Ringin, Kec. Sekadau Hilir, Kabupaten Sekadau, Kalimantan Barat 79516","Jl. Merdeka Timur, Sungai Ringin, Kec. Sekadau Hilir, Kabupaten Sekadau",KALIMANTAN BARAT,79516.0,Indonesia,82112427393.0,,,0.0189636,110.891959,https://maps.google.com/?cid=0x0:0xf09f7c6ab52b8686,
toko bangunan,Toko Bahan Bangunan,TB. MEGA BANGUNAN,"Kompleks terminal lawang kuari no 7-B, Kabupaten Sekadau, Kalimantan Barat 79582",Kabupaten Sekadau,KALIMANTAN BARAT,79582.0,Indonesia,82153272023.0,,,0.0225329,110.8904731,https://maps.google.com/?cid=0x0:0xad8ed9e4fa734edb,
toko bangunan,Toko Bahan Bangunan,TB. King’s Material,"2V8W+H54, Jl. Lintas Kalimantan Poros Tengah, Mungguk, Kec. Sekadau Hilir, Kabupaten Sekadau, Kalimantan Barat 79516","Jl. Lintas Kalimantan Poros Tengah, Mungguk, Kec. Sekadau Hilir, Kabupaten Sekadau",KALIMANTAN BARAT,79516.0,Indonesia,81528677088.0,,,0.0163806,110.8954592,https://maps.google.com/?cid=0x0:0x4b38b845f0dea4d9,
toko bangunan,Toko Bahan Bangunan,Juragan bangunan,"Jl. Merdeka Timur, Mungguk, Kec. Sekadau Hilir, Kabupaten Sekadau, Kalimantan Barat 79516","Mungguk, Kec. Sekadau Hilir, Kabupaten Sekadau",KALIMANTAN BARAT,79516.0,Indonesia,81294726166.0,,,0.0059273,110.9097231,https://maps.google.com/?cid=0x0:0xaf62c6c5d1fad000,
toko bangunan,Toko Perlengkapan Rumah,Tk. DOMINIC,"X2XM+4WQ, Seraras, Kec. Sekadau Hilir, Kabupaten Sekadau, Kalimantan Barat 79582","Seraras, Kec. Sekadau Hilir, Kabupaten Sekadau",KALIMANTAN BARAT,79582.0,Indonesia,,,,-0.0021642,111.034864,https://maps.google.com/?cid=0x0:0x1b00500d1282b45e,
toko bangunan,Toko Bahan Bangunan,Toko Bangunan,"C6V4+93R, Balai Sepuak, Kec. Belitang Hulu, Kabupaten Sekadau, Kalimantan Barat 79587","Balai Sepuak, Kec. Belitang Hulu, Kabupaten Sekadau",KALIMANTAN BARAT,79587.0,Indonesia,82148443343.0,,,0.4434764,111.205151,https://maps.google.com/?cid=0x0:0x149755029affad68,
toko bangunan,Perhimpunan Pengembang Perumahan,batako penanjung,"2W45+QJJ, Jl. jembatan gantung, Mungguk, Kec. Sekadau Hilir, Kabupaten Sekadau, Kalimantan Barat 79516","Jl. jembatan gantung, Mungguk, Kec. Sekadau Hilir, Kabupaten Sekadau",KALIMANTAN BARAT,79516.0,Indonesia,85386388668.0,,,0.0069734,110.9090216,https://maps.google.com/?cid=0x0:0x86614290bd743527,
toko bangunan,,Sahabat 88,"2W27+RG5, Jl. Sintang, Pal 4, Kec. Sekadau Hilir, Kabupaten Sekadau, Kalimantan Barat","Kabupaten Sekadau, Kalimantan Barat",KALIMANTAN BARAT,,Indonesia,,,,0.0020194,110.9138503,https://maps.google.com/?cid=0x0:0x2f178b18228f31bd,
toko bangunan,Pemasok Bahan Bangunan,Toko Bangunan Mega Jaya,"XQVR+XGH, Jl. Lintas Kalimantan Poros Tengah, Peniti, Kec. Sekadau Hilir, Kabupaten Sekadau, Kalimantan Barat 78581","Jl. Lintas Kalimantan Poros Tengah, Peniti, Kec. Sekadau Hilir, Kabupaten Sekadau",KALIMANTAN BARAT,78581.0,Indonesia,85269235972.0,,,-0.0050709,110.7913518,https://maps.google.com/?cid=0x0:0x749207113a93e106,
toko bangunan,Toko Bahan Bangunan,Tb. Jaya makmur,"2VFR+FRX, Sungai Ringin, Kec. Sekadau Hilir, Kabupaten Sekadau, Kalimantan Barat 79516","Sungai Ringin, Kec. Sekadau Hilir, Kabupaten Sekadau",KALIMANTAN BARAT,79516.0,Indonesia,82112427393.0,,,0.0237486,110.8919901,https://maps.google.com/?cid=0x0:0x30f83cdbd0797d88,
toko bangunan,Toko Bahan Bangunan,toko bangunan maju jaya,"HQF6+26W, Nanga Suri, Kec. Nanga Mahap, Kabupaten Sekadau, Kalimantan Barat 79584","Nanga Suri, Kec. Nanga Mahap, Kabupaten Sekadau",KALIMANTAN BARAT,79584.0,Indonesia,,,,-0.427012,110.7610282,https://maps.google.com/?cid=0x0:0x5899fa2762c1b5ff,
toko bangunan,Toko Perbaikan Ponsel,Hokky Elektronik,"WXJX+489, Setawar, Kec. Sekadau Hulu, Kabupaten Sekadau, Kalimantan Barat","Kabupaten Sekadau, Kalimantan Barat",KALIMANTAN BARAT,,Indonesia,,,,-0.0697175,110.9983515,https://maps.google.com/?cid=0x0:0x47cfd24d1eaff15,
toko bangunan,Pusat Perbelanjaan,Toko Bangunan Surya Baru II,"Nanga Taman, Kec. Nanga Taman, Kabupaten Sekadau, Kalimantan Barat 79584","Kec. Nanga Taman, Kabupaten Sekadau",KALIMANTAN BARAT,79584.0,Indonesia,82254132893.0,,,-0.2649349,110.8198589,https://maps.google.com/?cid=0x0:0x32beeb0bcae69b41,
toko bangunan,Toko Bahan Bangunan,Toko Bintang Mitra,"C6V4+823, Balai Sepuak, Kec. Belitang Hulu, Kabupaten Sekadau, Kalimantan Barat 79587","Balai Sepuak, Kec. Belitang Hulu, Kabupaten Sekadau",KALIMANTAN BARAT,79587.0,Indonesia,82148443343.0,,,0.4432604,111.2050615,https://maps.google.com/?cid=0x0:0xaaea75055964c59b,
toko bangunan,Toko bahan makanan,Toko usaha baru,"VV5G+PWC, Rawak Hulu, Kec. Sekadau Hulu, Kabupaten Sekadau, Kalimantan Barat","Kabupaten Sekadau, Kalimantan Barat",KALIMANTAN BARAT,,Indonesia,,,,-0.1406807,110.8772809,https://maps.google.com/?cid=0x0:0xa7b99518db82661,
toko bangunan,Toko Perlengkapan Rumah,Tokoh bangunan,"2VCQ+9WX, Sungai Ringin, Kec. Sekadau Hilir, Kabupaten Sekadau, Kalimantan Barat","Kabupaten Sekadau, Kalimantan Barat",KALIMANTAN BARAT,,Indonesia,,,,0.0209938,110.8898608,https://maps.google.com/?cid=0x0:0xb4e3a89bb8b8ce40,
toko bangunan,Gudang,Mebel Kaca PAL9,"Bokak sebumbun, Gonis Tekam, Kec. Sekadau Hilir, Kabupaten Sekadau, Kalimantan Barat 79516","Gonis Tekam, Kec. Sekadau Hilir, Kabupaten Sekadau",KALIMANTAN BARAT,79516.0,Indonesia,81549174384.0,,,-0.0049764,110.9557304,https://maps.google.com/?cid=0x0:0x18ac155cb9098208,
toko bangunan,toko bangunan,Kalimantan Barat 79512,"Kabupaten Sekadau, Kalimantan Barat","Kabupaten Sekadau, Kalimantan Barat",KALIMANTAN BARAT,,Indonesia,,,,0.0522503,111.0698858,https://maps.google.com/?cid=0x0:0xa07eefc27fb145e2,
toko bangunan,Toko Bahan Bangunan,Toko Sumber Bangunan,"2V8X+65M, Tanjung, Kec. Sekadau Hilir, Kabupaten Sekadau, Kalimantan Barat 79516","Tanjung, Kec. Sekadau Hilir, Kabupaten Sekadau",KALIMANTAN BARAT,79516.0,Indonesia,82148465985.0,,,0.0155863,110.8979276,https://maps.google.com/?cid=0x0:0xf343b77c5ff699d2,
toko bangunan,Toko Bahan Bangunan,TB. Aneka Bangunan,"Jl. Merdeka Timur No.19, Tanjung, Kec. Sekadau Hilir, Kabupaten Sekadau, Kalimantan Barat 79516","Tanjung, Kec. Sekadau Hilir, Kabupaten Sekadau",KALIMANTAN BARAT,79516.0,Indonesia,83121529590.0,,,0.014094,110.9008095,https://maps.google.com/?cid=0x0:0xa9a5f01fcbddf99a,
toko bangunan,Toko Bahan Bangunan,TB. MEGA BANGUNAN,"Kompleks terminal lawang kuari no 7-B, Kabupaten Sekadau, Kalimantan Barat 79582",Kabupaten Sekadau,KALIMANTAN BARAT,79582.0,Indonesia,82153272023.0,,,0.0225329,110.8904731,https://maps.google.com/?cid=0x0:0xad8ed9e4fa734edb,
toko bangunan,Toko Bahan Bangunan,Tb. Maju,"simpang kayu lapis, Jl. Lintas Kalimantan Poros Tengah, Seraras, Kec. Sekadau Hilir, Kabupaten Sekadau, Kalimantan Barat","Kabupaten Sekadau, Kalimantan Barat",KALIMANTAN BARAT,,Indonesia,368898900.0,,,-0.0018969,111.0338224,https://maps.google.com/?cid=0x0:0x8985cdbc0055bc6d,
toko bangunan,Toko Bahan Bangunan,Tb. Sentosa Jaya,"2227+944, Jl. Lintas Kalimantan Poros Tengah, Gonis Tekam, Kec. Sekadau Hilir, Kabupaten Sekadau, Kalimantan Barat 79511","Jl. Lintas Kalimantan Poros Tengah, Gonis Tekam, Kec. Sekadau Hilir, Kabupaten Sekadau",KALIMANTAN BARAT,79511.0,Indonesia,82112427393.0,,,0.0008773,111.012835,https://maps.google.com/?cid=0x0:0x650bfc8fdeacb8e,
toko bangunan,Pemasok Bahan Bangunan,Toko Bangunan Mega Jaya,"XQVR+XGH, Jl. Lintas Kalimantan Poros Tengah, Peniti, Kec. Sekadau Hilir, Kabupaten Sekadau, Kalimantan Barat 78581","Jl. Lintas Kalimantan Poros Tengah, Peniti, Kec. Sekadau Hilir, Kabupaten Sekadau",KALIMANTAN BARAT,78581.0,Indonesia,85269235972.0,,,-0.0050709,110.7913518,https://maps.google.com/?cid=0x0:0x749207113a93e106,
toko bangunan,Toko Perlengkapan Rumah,Tk. DOMINIC,"X2XM+4WQ, Seraras, Kec. Sekadau Hilir, Kabupaten Sekadau, Kalimantan Barat 79582","Seraras, Kec. Sekadau Hilir, Kabupaten Sekadau",KALIMANTAN BARAT,79582.0,Indonesia,,,,-0.0021642,111.034864,https://maps.google.com/?cid=0x0:0x1b00500d1282b45e,
toko bangunan,Toko Bahan Bangunan,TB. King’s Material,"2V8W+H54, Jl. Lintas Kalimantan Poros Tengah, Mungguk, Kec. Sekadau Hilir, Kabupaten Sekadau, Kalimantan Barat 79516","Jl. Lintas Kalimantan Poros Tengah, Mungguk, Kec. Sekadau Hilir, Kabupaten Sekadau",KALIMANTAN BARAT,79516.0,Indonesia,81528677088.0,,,0.0163806,110.8954592,https://maps.google.com/?cid=0x0:0x4b38b845f0dea4d9,
toko bangunan,Toko Bahan Bangunan,Toko Bangunan,"C6V4+93R, Balai Sepuak, Kec. Belitang Hulu, Kabupaten Sekadau, Kalimantan Barat 79587","Balai Sepuak, Kec. Belitang Hulu, Kabupaten Sekadau",KALIMANTAN BARAT,79587.0,Indonesia,82148443343.0,,,0.4434764,111.205151,https://maps.google.com/?cid=0x0:0x149755029affad68,
toko bangunan,Toko Bahan Bangunan,Juragan bangunan,"Jl. Merdeka Timur, Mungguk, Kec. Sekadau Hilir, Kabupaten Sekadau, Kalimantan Barat 79516","Mungguk, Kec. Sekadau Hilir, Kabupaten Sekadau",KALIMANTAN BARAT,79516.0,Indonesia,81294726166.0,,,0.0059273,110.9097231,https://maps.google.com/?cid=0x0:0xaf62c6c5d1fad000,
toko bangunan,,Sahabat 88,"2W27+RG5, Jl. Sintang, Pal 4, Kec. Sekadau Hilir, Kabupaten Sekadau, Kalimantan Barat","Kabupaten Sekadau, Kalimantan Barat",KALIMANTAN BARAT,,Indonesia,,,,0.0020194,110.9138503,https://maps.google.com/?cid=0x0:0x2f178b18228f31bd,
toko bangunan,Toko Bahan Bangunan,Tb. Jaya makmur,"2VFR+FRX, Sungai Ringin, Kec. Sekadau Hilir, Kabupaten Sekadau, Kalimantan Barat 79516","Sungai Ringin, Kec. Sekadau Hilir, Kabupaten Sekadau",KALIMANTAN BARAT,79516.0,Indonesia,82112427393.0,,,0.0237486,110.8919901,https://maps.google.com/?cid=0x0:0x30f83cdbd0797d88,
toko bangunan,Perhimpunan Pengembang Perumahan,batako penanjung,"2W45+QJJ, Jl. jembatan gantung, Mungguk, Kec. Sekadau Hilir, Kabupaten Sekadau, Kalimantan Barat 79516","Jl. jembatan gantung, Mungguk, Kec. Sekadau Hilir, Kabupaten Sekadau",KALIMANTAN BARAT,79516.0,Indonesia,85386388668.0,,,0.0069734,110.9090216,https://maps.google.com/?cid=0x0:0x86614290bd743527,
toko bangunan,Toko Bahan Bangunan,toko bangunan maju jaya,"HQF6+26W, Nanga Suri, Kec. Nanga Mahap, Kabupaten Sekadau, Kalimantan Barat 79584","Nanga Suri, Kec. Nanga Mahap, Kabupaten Sekadau",KALIMANTAN BARAT,79584.0,Indonesia,,,,-0.427012,110.7610282,https://maps.google.com/?cid=0x0:0x5899fa2762c1b5ff,
toko bangunan,Pusat Perbelanjaan,Toko Bangunan Surya Baru II,"Nanga Taman, Kec. Nanga Taman, Kabupaten Sekadau, Kalimantan Barat 79584","Kec. Nanga Taman, Kabupaten Sekadau",KALIMANTAN BARAT,79584.0,Indonesia,82254132893.0,,,-0.2649349,110.8198589,https://maps.google.com/?cid=0x0:0x32beeb0bcae69b41,
toko bangunan,Minimarket,TOKO:JAYA GEMILANG DIESEL,"Jl. Dr. Sutomo No.259, Sungai Ayak III, Kec. Belitang Hilir, Kabupaten Sekadau, Kalimantan Barat 79512","Sungai Ayak III, Kec. Belitang Hilir, Kabupaten Sekadau",KALIMANTAN BARAT,79512.0,Indonesia,,,,0.0988475,111.0656692,https://maps.google.com/?cid=0x0:0xaeedcab23b163d9e,
toko bangunan,Toko Bahan Bangunan,Toko Bintang Mitra,"C6V4+823, Balai Sepuak, Kec. Belitang Hulu, Kabupaten Sekadau, Kalimantan Barat 79587","Balai Sepuak, Kec. Belitang Hulu, Kabupaten Sekadau",KALIMANTAN BARAT,79587.0,Indonesia,82148443343.0,,,0.4432604,111.2050615,https://maps.google.com/?cid=0x0:0xaaea75055964c59b,
toko bangunan,,MET LAST,"4359+C28, Sungai Ayak III, Kec. Belitang Hilir, Kabupaten Sekadau, Kalimantan Barat 79512","Sungai Ayak III, Kec. Belitang Hilir, Kabupaten Sekadau",KALIMANTAN BARAT,79512.0,Indonesia,82255250000.0,,,0.1085493,111.0675851,https://maps.google.com/?cid=0x0:0xeb61fe97bcc7d0d9,
toko bangunan,Toko Bahan Bangunan,Toko era jaya,"HQH5+54W, Jl. Jend. Sudirman, Nanga Mahap, Kec. Nanga Mahap, Kabupaten Sekadau, Kalimantan Barat 79584","Jl. Jend. Sudirman, Nanga Mahap, Kec. Nanga Mahap, Kabupaten Sekadau",KALIMANTAN BARAT,79584.0,Indonesia,88856094686.0,,,-0.4220037,110.7578159,https://maps.google.com/?cid=0x0:0xdf0f9d1016358b26,
toko bangunan,Toko bahan makanan,Toko usaha baru,"VV5G+PWC, Rawak Hulu, Kec. Sekadau Hulu, Kabupaten Sekadau, Kalimantan Barat","Kabupaten Sekadau, Kalimantan Barat",KALIMANTAN BARAT,,Indonesia,,,,-0.1406807,110.8772809,https://maps.google.com/?cid=0x0:0xa7b99518db82661,
toko bangunan,toko bangunan,Kalimantan Barat 79513,"Gonis Tekam, Kec. Sekadau Hilir, Kabupaten Sekadau, Kalimantan Barat","Kabupaten Sekadau, Kalimantan Barat",KALIMANTAN BARAT,,Indonesia,,,,-0.0261051,111.1294996,https://maps.google.com/?cid=0x0:0x466181d899bb2453,
toko bangunan,Toko Bahan Bangunan,TB. Aneka Bangunan,"Jl. Merdeka Timur No.19, Tanjung, Kec. Sekadau Hilir, Kabupaten Sekadau, Kalimantan Barat 79516","Tanjung, Kec. Sekadau Hilir, Kabupaten Sekadau",KALIMANTAN BARAT,79516.0,Indonesia,83121529590.0,,,0.014094,110.9008095,https://maps.google.com/?cid=0x0:0xa9a5f01fcbddf99a,
toko bangunan,Toko Bahan Bangunan,Toko Sumber Bangunan,"2V8X+65M, Tanjung, Kec. Sekadau Hilir, Kabupaten Sekadau, Kalimantan Barat 79516","Tanjung, Kec. Sekadau Hilir, Kabupaten Sekadau",KALIMANTAN BARAT,79516.0,Indonesia,82148465985.0,,,0.0155863,110.8979276,https://maps.google.com/?cid=0x0:0xf343b77c5ff699d2,
toko bangunan,Pemasok Bahan Bangunan,Bata pres maju jaya,"mbah paryadi, Blok 6, Engkersik, Kec. Sekadau Hilir, Kabupaten Sekadau, Kalimantan Barat 79282","Blok 6, Engkersik, Kec. Sekadau Hilir, Kabupaten Sekadau",KALIMANTAN BARAT,79282.0,Indonesia,81348460630.0,,,-0.0787091,111.0764492,https://maps.google.com/?cid=0x0:0xf49193b17b355a17,
toko bangunan,Toko Bahan Bangunan,TB. MEGA BANGUNAN,"Kompleks terminal lawang kuari no 7-B, Kabupaten Sekadau, Kalimantan Barat 79582",Kabupaten Sekadau,KALIMANTAN BARAT,79582.0,Indonesia,82153272023.0,,,0.0225329,110.8904731,https://maps.google.com/?cid=0x0:0xad8ed9e4fa734edb,
toko bangunan,Toko Bahan Bangunan,TB. King’s Material,"2V8W+H54, Jl. Lintas Kalimantan Poros Tengah, Mungguk, Kec. Sekadau Hilir, Kabupaten Sekadau, Kalimantan Barat 79516","Jl. Lintas Kalimantan Poros Tengah, Mungguk, Kec. Sekadau Hilir, Kabupaten Sekadau",KALIMANTAN BARAT,79516.0,Indonesia,81528677088.0,,,0.0163806,110.8954592,https://maps.google.com/?cid=0x0:0x4b38b845f0dea4d9,
toko bangunan,Toko Bahan Bangunan,Toko Bangunan,"C6V4+93R, Balai Sepuak, Kec. Belitang Hulu, Kabupaten Sekadau, Kalimantan Barat 79587","Balai Sepuak, Kec. Belitang Hulu, Kabupaten Sekadau",KALIMANTAN BARAT,79587.0,Indonesia,82148443343.0,,,0.4434764,111.205151,https://maps.google.com/?cid=0x0:0x149755029affad68,
toko bangunan,Pemasok Bahan Bangunan,Toko Bangunan Mega Jaya,"XQVR+XGH, Jl. Lintas Kalimantan Poros Tengah, Peniti, Kec. Sekadau Hilir, Kabupaten Sekadau, Kalimantan Barat 78581","Jl. Lintas Kalimantan Poros Tengah, Peniti, Kec. Sekadau Hilir, Kabupaten Sekadau",KALIMANTAN BARAT,78581.0,Indonesia,85269235972.0,,,-0.0050709,110.7913518,https://maps.google.com/?cid=0x0:0x749207113a93e106,
toko bangunan,Toko Bahan Bangunan,Juragan bangunan,"Jl. Merdeka Timur, Mungguk, Kec. Sekadau Hilir, Kabupaten Sekadau, Kalimantan Barat 79516","Mungguk, Kec. Sekadau Hilir, Kabupaten Sekadau",KALIMANTAN BARAT,79516.0,Indonesia,81294726166.0,,,0.0059273,110.9097231,https://maps.google.com/?cid=0x0:0xaf62c6c5d1fad000,
toko bangunan,Toko Bahan Bangunan,Tb. Jaya makmur,"2VFR+FRX, Sungai Ringin, Kec. Sekadau Hilir, Kabupaten Sekadau, Kalimantan Barat 79516","Sungai Ringin, Kec. Sekadau Hilir, Kabupaten Sekadau",KALIMANTAN BARAT,79516.0,Indonesia,82112427393.0,,,0.0237486,110.8919901,https://maps.google.com/?cid=0x0:0x30f83cdbd0797d88,
toko bangunan,,Sahabat 88,"2W27+RG5, Jl. Sintang, Pal 4, Kec. Sekadau Hilir, Kabupaten Sekadau, Kalimantan Barat","Kabupaten Sekadau, Kalimantan Barat",KALIMANTAN BARAT,,Indonesia,,,,0.0020194,110.9138503,https://maps.google.com/?cid=0x0:0x2f178b18228f31bd,
toko bangunan,Toko Bahan Bangunan,Tb. Sentosa Jaya,"2227+944, Jl. Lintas Kalimantan Poros Tengah, Gonis Tekam, Kec. Sekadau Hilir, Kabupaten Sekadau, Kalimantan Barat 79511","Jl. Lintas Kalimantan Poros Tengah, Gonis Tekam, Kec. Sekadau Hilir, Kabupaten Sekadau",KALIMANTAN BARAT,79511.0,Indonesia,82112427393.0,,,0.0008773,111.012835,https://maps.google.com/?cid=0x0:0x650bfc8fdeacb8e,
toko bangunan,Perhimpunan Pengembang Perumahan,batako penanjung,"2W45+QJJ, Jl. jembatan gantung, Mungguk, Kec. Sekadau Hilir, Kabupaten Sekadau, Kalimantan Barat 79516","Jl. jembatan gantung, Mungguk, Kec. Sekadau Hilir, Kabupaten Sekadau",KALIMANTAN BARAT,79516.0,Indonesia,85386388668.0,,,0.0069734,110.9090216,https://maps.google.com/?cid=0x0:0x86614290bd743527,
toko bangunan,Pusat Perbelanjaan,Toko Bangunan Surya Baru II,"Nanga Taman, Kec. Nanga Taman, Kabupaten Sekadau, Kalimantan Barat 79584","Kec. Nanga Taman, Kabupaten Sekadau",KALIMANTAN BARAT,79584.0,Indonesia,82254132893.0,,,-0.2649349,110.8198589,https://maps.google.com/?cid=0x0:0x32beeb0bcae69b41,
toko bangunan,Toko Bahan Bangunan,Toko WD family,"Bedayan, Kec. Sepauk, Kabupaten Sintang, Kalimantan Barat 78662","Kec. Sepauk, Kabupaten Sintang",KALIMANTAN BARAT,78662.0,Indonesia,,,,-0.1196759,111.1542053,https://maps.google.com/?cid=0x0:0x8c39024fc077fbea,
toko bangunan,Toko Bahan Bangunan,Tb. Maju,"simpang kayu lapis, Jl. Lintas Kalimantan Poros Tengah, Seraras, Kec. Sekadau Hilir, Kabupaten Sekadau, Kalimantan Barat","Kabupaten Sekadau, Kalimantan Barat",KALIMANTAN BARAT,,Indonesia,368898900.0,,,-0.0018969,111.0338224,https://maps.google.com/?cid=0x0:0x8985cdbc0055bc6d,
toko bangunan,Toko Bahan Bangunan,Toko Bintang Mitra,"C6V4+823, Balai Sepuak, Kec. Belitang Hulu, Kabupaten Sekadau, Kalimantan Barat 79587","Balai Sepuak, Kec. Belitang Hulu, Kabupaten Sekadau",KALIMANTAN BARAT,79587.0,Indonesia,82148443343.0,,,0.4432604,111.2050615,https://maps.google.com/?cid=0x0:0xaaea75055964c59b,
toko bangunan,Toko Perlengkapan Rumah,Tk. DOMINIC,"X2XM+4WQ, Seraras, Kec. Sekadau Hilir, Kabupaten Sekadau, Kalimantan Barat 79582","Seraras, Kec. Sekadau Hilir, Kabupaten Sekadau",KALIMANTAN BARAT,79582.0,Indonesia,,,,-0.0021642,111.034864,https://maps.google.com/?cid=0x0:0x1b00500d1282b45e,
toko bangunan,Toko Bahan Bangunan,toko bangunan maju jaya,"HQF6+26W, Nanga Suri, Kec. Nanga Mahap, Kabupaten Sekadau, Kalimantan Barat 79584","Nanga Suri, Kec. Nanga Mahap, Kabupaten Sekadau",KALIMANTAN BARAT,79584.0,Indonesia,,,,-0.427012,110.7610282,https://maps.google.com/?cid=0x0:0x5899fa2762c1b5ff,
toko bangunan,Toko Bahan Bangunan,Toko era jaya,"HQH5+54W, Jl. Jend. Sudirman, Nanga Mahap, Kec. Nanga Mahap, Kabupaten Sekadau, Kalimantan Barat 79584","Jl. Jend. Sudirman, Nanga Mahap, Kec. Nanga Mahap, Kabupaten Sekadau",KALIMANTAN BARAT,79584.0,Indonesia,88856094686.0,,,-0.4220037,110.7578159,https://maps.google.com/?cid=0x0:0xdf0f9d1016358b26,
toko bangunan,toko bangunan,Kalimantan Barat 79514,"Kabupaten Sekadau, Kalimantan Barat","Kabupaten Sekadau, Kalimantan Barat",KALIMANTAN BARAT,,Indonesia,,,,0.1570804,110.9745074,https://maps.google.com/?cid=0x0:0x5c0d217439c4167c,
toko bangunan,Toko Bahan Bangunan,Toko Sumber Bangunan,"2V8X+65M, Tanjung, Kec. Sekadau Hilir, Kabupaten Sekadau, Kalimantan Barat 79516","Tanjung, Kec. Sekadau Hilir, Kabupaten Sekadau",KALIMANTAN BARAT,79516.0,Indonesia,82148465985.0,,,0.0155863,110.8979276,https://maps.google.com/?cid=0x0:0xf343b77c5ff699d2,
toko bangunan,Toko Bahan Bangunan,TB. Aneka Bangunan,"Jl. Merdeka Timur No.19, Tanjung, Kec. Sekadau Hilir, Kabupaten Sekadau, Kalimantan Barat 79516","Tanjung, Kec. Sekadau Hilir, Kabupaten Sekadau",KALIMANTAN BARAT,79516.0,Indonesia,83121529590.0,,,0.014094,110.9008095,https://maps.google.com/?cid=0x0:0xa9a5f01fcbddf99a,
toko bangunan,Toko Bahan Bangunan,Toko Bangunan Bintang Harapan,"2V9R+HQP, Jl. Merdeka Timur, Sungai Ringin, Kec. Sekadau Hilir, Kabupaten Sekadau, Kalimantan Barat 79516","Jl. Merdeka Timur, Sungai Ringin, Kec. Sekadau Hilir, Kabupaten Sekadau",KALIMANTAN BARAT,79516.0,Indonesia,82112427393.0,,,0.0189636,110.891959,https://maps.google.com/?cid=0x0:0xf09f7c6ab52b8686,
toko bangunan,Toko Bahan Bangunan,TB. King’s Material,"2V8W+H54, Jl. Lintas Kalimantan Poros Tengah, Mungguk, Kec. Sekadau Hilir, Kabupaten Sekadau, Kalimantan Barat 79516","Jl. Lintas Kalimantan Poros Tengah, Mungguk, Kec. Sekadau Hilir, Kabupaten Sekadau",KALIMANTAN BARAT,79516.0,Indonesia,81528677088.0,,,0.0163806,110.8954592,https://maps.google.com/?cid=0x0:0x4b38b845f0dea4d9,
toko bangunan,Toko Bahan Bangunan,Percetakan liss gibsun,"5W7Q+525, RT.SP/RW.3, Timpuk, Kec. Sekadau Hilir, Kabupaten Sekadau, Kalimantan Barat 79514","RT.SP/RW.3, Timpuk, Kec. Sekadau Hilir, Kabupaten Sekadau",KALIMANTAN BARAT,79514.0,Indonesia,85705194152.0,,,0.1628918,110.9376215,https://maps.google.com/?cid=0x0:0x7d3d78cce466ec75,
toko bangunan,Toko Bahan Bangunan,Toko Bangunan,"C6V4+93R, Balai Sepuak, Kec. Belitang Hulu, Kabupaten Sekadau, Kalimantan Barat 79587","Balai Sepuak, Kec. Belitang Hulu, Kabupaten Sekadau",KALIMANTAN BARAT,79587.0,Indonesia,82148443343.0,,,0.4434764,111.205151,https://maps.google.com/?cid=0x0:0x149755029affad68,
toko bangunan,Pemasok Bahan Bangunan,Toko Bangunan Mega Jaya,"XQVR+XGH, Jl. Lintas Kalimantan Poros Tengah, Peniti, Kec. Sekadau Hilir, Kabupaten Sekadau, Kalimantan Barat 78581","Jl. Lintas Kalimantan Poros Tengah, Peniti, Kec. Sekadau Hilir, Kabupaten Sekadau",KALIMANTAN BARAT,78581.0,Indonesia,85269235972.0,,,-0.0050709,110.7913518,https://maps.google.com/?cid=0x0:0x749207113a93e106,
toko bangunan,Perhimpunan Pengembang Perumahan,batako penanjung,"2W45+QJJ, Jl. jembatan gantung, Mungguk, Kec. Sekadau Hilir, Kabupaten Sekadau, Kalimantan Barat 79516","Jl. jembatan gantung, Mungguk, Kec. Sekadau Hilir, Kabupaten Sekadau",KALIMANTAN BARAT,79516.0,Indonesia,85386388668.0,,,0.0069734,110.9090216,https://maps.google.com/?cid=0x0:0x86614290bd743527,
toko bangunan,,Sahabat 88,"2W27+RG5, Jl. Sintang, Pal 4, Kec. Sekadau Hilir, Kabupaten Sekadau, Kalimantan Barat","Kabupaten Sekadau, Kalimantan Barat",KALIMANTAN BARAT,,Indonesia,,,,0.0020194,110.9138503,https://maps.google.com/?cid=0x0:0x2f178b18228f31bd,
toko bangunan,Toko Bahan Bangunan,Juragan bangunan,"Jl. Merdeka Timur, Mungguk, Kec. Sekadau Hilir, Kabupaten Sekadau, Kalimantan Barat 79516","Mungguk, Kec. Sekadau Hilir, Kabupaten Sekadau",KALIMANTAN BARAT,79516.0,Indonesia,81294726166.0,,,0.0059273,110.9097231,https://maps.google.com/?cid=0x0:0xaf62c6c5d1fad000,
toko bangunan,Toko Bahan Bangunan,Toko Mak Ambon,"3W78+9P, Tanjung, Kec. Sekadau Hilir, Kabupaten Sekadau, Kalimantan Barat","Kabupaten Sekadau, Kalimantan Barat",KALIMANTAN BARAT,,Indonesia,,,,0.0633803,110.916806,https://maps.google.com/?cid=0x0:0xa45b199c5c0a8850,
toko bangunan,Toko Bahan Bangunan,Tb. Jaya makmur,"2VFR+FRX, Sungai Ringin, Kec. Sekadau Hilir, Kabupaten Sekadau, Kalimantan Barat 79516","Sungai Ringin, Kec. Sekadau Hilir, Kabupaten Sekadau",KALIMANTAN BARAT,79516.0,Indonesia,82112427393.0,,,0.0237486,110.8919901,https://maps.google.com/?cid=0x0:0x30f83cdbd0797d88,
toko bangunan,Toko Bahan Bangunan,Tb. Sentosa Jaya,"2227+944, Jl. Lintas Kalimantan Poros Tengah, Gonis Tekam, Kec. Sekadau Hilir, Kabupaten Sekadau, Kalimantan Barat 79511","Jl. Lintas Kalimantan Poros Tengah, Gonis Tekam, Kec. Sekadau Hilir, Kabupaten Sekadau",KALIMANTAN BARAT,79511.0,Indonesia,82112427393.0,,,0.0008773,111.012835,https://maps.google.com/?cid=0x0:0x650bfc8fdeacb8e,
toko bangunan,Toko Bahan Bangunan,toko bangunan maju jaya,"HQF6+26W, Nanga Suri, Kec. Nanga Mahap, Kabupaten Sekadau, Kalimantan Barat 79584","Nanga Suri, Kec. Nanga Mahap, Kabupaten Sekadau",KALIMANTAN BARAT,79584.0,Indonesia,,,,-0.427012,110.7610282,https://maps.google.com/?cid=0x0:0x5899fa2762c1b5ff,
toko bangunan,Pusat Perbelanjaan,Toko Bangunan Surya Baru II,"Nanga Taman, Kec. Nanga Taman, Kabupaten Sekadau, Kalimantan Barat 79584","Kec. Nanga Taman, Kabupaten Sekadau",KALIMANTAN BARAT,79584.0,Indonesia,82254132893.0,,,-0.2649349,110.8198589,https://maps.google.com/?cid=0x0:0x32beeb0bcae69b41,
toko bangunan,,MET LAST,"4359+C28, Sungai Ayak III, Kec. Belitang Hilir, Kabupaten Sekadau, Kalimantan Barat 79512","Sungai Ayak III, Kec. Belitang Hilir, Kabupaten Sekadau",KALIMANTAN BARAT,79512.0,Indonesia,82255250000.0,,,0.1085493,111.0675851,https://maps.google.com/?cid=0x0:0xeb61fe97bcc7d0d9,
toko bangunan,Toko Bahan Bangunan,Toko Bintang Mitra,"C6V4+823, Balai Sepuak, Kec. Belitang Hulu, Kabupaten Sekadau, Kalimantan Barat 79587","Balai Sepuak, Kec. Belitang Hulu, Kabupaten Sekadau",KALIMANTAN BARAT,79587.0,Indonesia,82148443343.0,,,0.4432604,111.2050615,https://maps.google.com/?cid=0x0:0xaaea75055964c59b,
toko bangunan,Minimarket,TOKO:JAYA GEMILANG DIESEL,"Jl. Dr. Sutomo No.259, Sungai Ayak III, Kec. Belitang Hilir, Kabupaten Sekadau, Kalimantan Barat 79512","Sungai Ayak III, Kec. Belitang Hilir, Kabupaten Sekadau",KALIMANTAN BARAT,79512.0,Indonesia,,,,0.0988475,111.0656692,https://maps.google.com/?cid=0x0:0xaeedcab23b163d9e,
toko bangunan,Toko Bahan Bangunan,Toko era jaya,"HQH5+54W, Jl. Jend. Sudirman, Nanga Mahap, Kec. Nanga Mahap, Kabupaten Sekadau, Kalimantan Barat 79584","Jl. Jend. Sudirman, Nanga Mahap, Kec. Nanga Mahap, Kabupaten Sekadau",KALIMANTAN BARAT,79584.0,Indonesia,88856094686.0,,,-0.4220037,110.7578159,https://maps.google.com/?cid=0x0:0xdf0f9d1016358b26,
toko bangunan,toko bangunan,Kalimantan Barat 79515,"Kec. Sekadau Hilir, Kabupaten Sekadau, Kalimantan Barat","Kabupaten Sekadau, Kalimantan Barat",KALIMANTAN BARAT,,Indonesia,,,,0.0872098,110.9268201,https://maps.google.com/?cid=0x0:0x85a84b3f51cece76,
toko bangunan,Toko Bahan Bangunan,Toko Sumber Bangunan,"2V8X+65M, Tanjung, Kec. Sekadau Hilir, Kabupaten Sekadau, Kalimantan Barat 79516","Tanjung, Kec. Sekadau Hilir, Kabupaten Sekadau",KALIMANTAN BARAT,79516.0,Indonesia,82148465985.0,,,0.0155863,110.8979276,https://maps.google.com/?cid=0x0:0xf343b77c5ff699d2,
toko bangunan,Toko Bahan Bangunan,TB. Aneka Bangunan,"Jl. Merdeka Timur No.19, Tanjung, Kec. Sekadau Hilir, Kabupaten Sekadau, Kalimantan Barat 79516","Tanjung, Kec. Sekadau Hilir, Kabupaten Sekadau",KALIMANTAN BARAT,79516.0,Indonesia,83121529590.0,,,0.014094,110.9008095,https://maps.google.com/?cid=0x0:0xa9a5f01fcbddf99a,
toko bangunan,Toko Bahan Bangunan,Toko Bangunan Bintang Harapan,"2V9R+HQP, Jl. Merdeka Timur, Sungai Ringin, Kec. Sekadau Hilir, Kabupaten Sekadau, Kalimantan Barat 79516","Jl. Merdeka Timur, Sungai Ringin, Kec. Sekadau Hilir, Kabupaten Sekadau",KALIMANTAN BARAT,79516.0,Indonesia,82112427393.0,,,0.0189636,110.891959,https://maps.google.com/?cid=0x0:0xf09f7c6ab52b8686,
toko bangunan,Toko Bahan Bangunan,TB. MEGA BANGUNAN,"Kompleks terminal lawang kuari no 7-B, Kabupaten Sekadau, Kalimantan Barat 79582",Kabupaten Sekadau,KALIMANTAN BARAT,79582.0,Indonesia,82153272023.0,,,0.0225329,110.8904731,https://maps.google.com/?cid=0x0:0xad8ed9e4fa734edb,
toko bangunan,Toko Bahan Bangunan,Toko Mak Ambon,"3W78+9P, Tanjung, Kec. Sekadau Hilir, Kabupaten Sekadau, Kalimantan Barat","Kabupaten Sekadau, Kalimantan Barat",KALIMANTAN BARAT,,Indonesia,,,,0.0633803,110.916806,https://maps.google.com/?cid=0x0:0xa45b199c5c0a8850,
toko bangunan,Toko Bahan Bangunan,TB. King’s Material,"2V8W+H54, Jl. Lintas Kalimantan Poros Tengah, Mungguk, Kec. Sekadau Hilir, Kabupaten Sekadau, Kalimantan Barat 79516","Jl. Lintas Kalimantan Poros Tengah, Mungguk, Kec. Sekadau Hilir, Kabupaten Sekadau",KALIMANTAN BARAT,79516.0,Indonesia,81528677088.0,,,0.0163806,110.8954592,https://maps.google.com/?cid=0x0:0x4b38b845f0dea4d9,
toko bangunan,Toko Bahan Bangunan,Juragan bangunan,"Jl. Merdeka Timur, Mungguk, Kec. Sekadau Hilir, Kabupaten Sekadau, Kalimantan Barat 79516","Mungguk, Kec. Sekadau Hilir, Kabupaten Sekadau",KALIMANTAN BARAT,79516.0,Indonesia,81294726166.0,,,0.0059273,110.9097231,https://maps.google.com/?cid=0x0:0xaf62c6c5d1fad000,
toko bangunan,Perhimpunan Pengembang Perumahan,batako penanjung,"2W45+QJJ, Jl. jembatan gantung, Mungguk, Kec. Sekadau Hilir, Kabupaten Sekadau, Kalimantan Barat 79516","Jl. jembatan gantung, Mungguk, Kec. Sekadau Hilir, Kabupaten Sekadau",KALIMANTAN BARAT,79516.0,Indonesia,85386388668.0,,,0.0069734,110.9090216,https://maps.google.com/?cid=0x0:0x86614290bd743527,
toko bangunan,Toko Bahan Bangunan,Tb. Jaya makmur,"2VFR+FRX, Sungai Ringin, Kec. Sekadau Hilir, Kabupaten Sekadau, Kalimantan Barat 79516","Sungai Ringin, Kec. Sekadau Hilir, Kabupaten Sekadau",KALIMANTAN BARAT,79516.0,Indonesia,82112427393.0,,,0.0237486,110.8919901,https://maps.google.com/?cid=0x0:0x30f83cdbd0797d88,
toko bangunan,Toko Bahan Bangunan,Toko Bangunan,"C6V4+93R, Balai Sepuak, Kec. Belitang Hulu, Kabupaten Sekadau, Kalimantan Barat 79587","Balai Sepuak, Kec. Belitang Hulu, Kabupaten Sekadau",KALIMANTAN BARAT,79587.0,Indonesia,82148443343.0,,,0.4434764,111.205151,https://maps.google.com/?cid=0x0:0x149755029affad68,
toko bangunan,Toko Bahan Bangunan,Tb. Sentosa Jaya,"2227+944, Jl. Lintas Kalimantan Poros Tengah, Gonis Tekam, Kec. Sekadau Hilir, Kabupaten Sekadau, Kalimantan Barat 79511","Jl. Lintas Kalimantan Poros Tengah, Gonis Tekam, Kec. Sekadau Hilir, Kabupaten Sekadau",KALIMANTAN BARAT,79511.0,Indonesia,82112427393.0,,,0.0008773,111.012835,https://maps.google.com/?cid=0x0:0x650bfc8fdeacb8e,
toko bangunan,Pemasok Bahan Bangunan,Toko Bangunan Mega Jaya,"XQVR+XGH, Jl. Lintas Kalimantan Poros Tengah, Peniti, Kec. Sekadau Hilir, Kabupaten Sekadau, Kalimantan Barat 78581","Jl. Lintas Kalimantan Poros Tengah, Peniti, Kec. Sekadau Hilir, Kabupaten Sekadau",KALIMANTAN BARAT,78581.0,Indonesia,85269235972.0,,,-0.0050709,110.7913518,https://maps.google.com/?cid=0x0:0x749207113a93e106,
toko bangunan,,Sahabat 88,"2W27+RG5, Jl. Sintang, Pal 4, Kec. Sekadau Hilir, Kabupaten Sekadau, Kalimantan Barat","Kabupaten Sekadau, Kalimantan Barat",KALIMANTAN BARAT,,Indonesia,,,,0.0020194,110.9138503,https://maps.google.com/?cid=0x0:0x2f178b18228f31bd,
toko bangunan,Toko Bahan Bangunan,Tb. Maju,"simpang kayu lapis, Jl. Lintas Kalimantan Poros Tengah, Seraras, Kec. Sekadau Hilir, Kabupaten Sekadau, Kalimantan Barat","Kabupaten Sekadau, Kalimantan Barat",KALIMANTAN BARAT,,Indonesia,368898900.0,,,-0.0018969,111.0338224,https://maps.google.com/?cid=0x0:0x8985cdbc0055bc6d,
toko bangunan,Pusat Perbelanjaan,Khatulistiwa Store,"Jalan H. Abdurrahman Desa No.225, RT.14/RW.06, Sungai Ringin, Kec. Sekadau Hilir, Kabupaten Sekadau, Kalimantan Barat 78582","RT.14/RW.06, Sungai Ringin, Kec. Sekadau Hilir, Kabupaten Sekadau",KALIMANTAN BARAT,78582.0,Indonesia,81256195678.0,,,0.021436,110.88296,https://maps.google.com/?cid=0x0:0xb4e3674a94a8ff1b,
toko bangunan,Toko Bahan Bangunan,toko bangunan maju jaya,"HQF6+26W, Nanga Suri, Kec. Nanga Mahap, Kabupaten Sekadau, Kalimantan Barat 79584","Nanga Suri, Kec. Nanga Mahap, Kabupaten Sekadau",KALIMANTAN BARAT,79584.0,Indonesia,,,,-0.427012,110.7610282,https://maps.google.com/?cid=0x0:0x5899fa2762c1b5ff,
toko bangunan,toko bangunan,TB TREE JAYA SEKADAU,"2VFR+45Q, Sungai Ringin, Kec. Sekadau Hilir, Kabupaten Sekadau, Kalimantan Barat","Kabupaten Sekadau, Kalimantan Barat",KALIMANTAN BARAT,,Indonesia,,,,0.0228381,110.8904966,https://maps.google.com/?cid=0x0:0xfd76b9c4e01a2661,
toko bangunan,Pusat Perbelanjaan,Toko Bangunan Surya Baru II,"Nanga Taman, Kec. Nanga Taman, Kabupaten Sekadau, Kalimantan Barat 79584","Kec. Nanga Taman, Kabupaten Sekadau",KALIMANTAN BARAT,79584.0,Indonesia,82254132893.0,,,-0.2649349,110.8198589,https://maps.google.com/?cid=0x0:0x32beeb0bcae69b41,
toko bangunan,Toko Sepatu,Toko Andas,"2VFR+JGG, Jl. Irian, Sungai Ringin, Kec. Sekadau Hilir, Kabupaten Sekadau, Kalimantan Barat 79516","Jl. Irian, Sungai Ringin, Kec. Sekadau Hilir, Kabupaten Sekadau",KALIMANTAN BARAT,79516.0,Indonesia,,,,0.0240601,110.8913246,https://maps.google.com/?cid=0x0:0x9195d9d4be0a7ef7,
toko bangunan,Toko Bahan Bangunan,TB. MANDIRI JAYA M@rt,"55HQ+2Q4, Padak, Kec. Belitang, Kabupaten Sekadau, Kalimantan Barat 79586","Padak, Kec. Belitang, Kabupaten Sekadau",KALIMANTAN BARAT,79586.0,Indonesia,82112427393.0,,,0.1775221,111.1894676,https://maps.google.com/?cid=0x0:0x5a5404f56706d4b0,
toko bangunan,Toko Perlengkapan Rumah,Tokoh bangunan,"2VCQ+9WX, Sungai Ringin, Kec. Sekadau Hilir, Kabupaten Sekadau, Kalimantan Barat","Kabupaten Sekadau, Kalimantan Barat",KALIMANTAN BARAT,,Indonesia,,,,0.0209938,110.8898608,https://maps.google.com/?cid=0x0:0xb4e3a89bb8b8ce40,
toko bangunan,toko bangunan,Kalimantan Barat 79516,"Kec. Sekadau Hilir, Kabupaten Sekadau, Kalimantan Barat","Kabupaten Sekadau, Kalimantan Barat",KALIMANTAN BARAT,,Indonesia,,,,-0.034875,110.8552919,https://maps.google.com/?cid=0x0:0x3010e80426de42c5,
toko bangunan,Toko Bahan Bangunan,Toko Sumber Bangunan,"2V8X+65M, Tanjung, Kec. Sekadau Hilir, Kabupaten Sekadau, Kalimantan Barat 79516","Tanjung, Kec. Sekadau Hilir, Kabupaten Sekadau",KALIMANTAN BARAT,79516.0,Indonesia,82148465985.0,,,0.0155863,110.8979276,https://maps.google.com/?cid=0x0:0xf343b77c5ff699d2,
toko bangunan,Toko Bahan Bangunan,TB. Aneka Bangunan,"Jl. Merdeka Timur No.19, Tanjung, Kec. Sekadau Hilir, Kabupaten Sekadau, Kalimantan Barat 79516","Tanjung, Kec. Sekadau Hilir, Kabupaten Sekadau",KALIMANTAN BARAT,79516.0,Indonesia,83121529590.0,,,0.014094,110.9008095,https://maps.google.com/?cid=0x0:0xa9a5f01fcbddf99a,
toko bangunan,Toko Bahan Bangunan,TB. MEGA BANGUNAN,"Kompleks terminal lawang kuari no 7-B, Kabupaten Sekadau, Kalimantan Barat 79582",Kabupaten Sekadau,KALIMANTAN BARAT,79582.0,Indonesia,82153272023.0,,,0.0225329,110.8904731,https://maps.google.com/?cid=0x0:0xad8ed9e4fa734edb,
toko bangunan,Toko Bahan Bangunan,TB. King’s Material,"2V8W+H54, Jl. Lintas Kalimantan Poros Tengah, Mungguk, Kec. Sekadau Hilir, Kabupaten Sekadau, Kalimantan Barat 79516","Jl. Lintas Kalimantan Poros Tengah, Mungguk, Kec. Sekadau Hilir, Kabupaten Sekadau",KALIMANTAN BARAT,79516.0,Indonesia,81528677088.0,,,0.0163806,110.8954592,https://maps.google.com/?cid=0x0:0x4b38b845f0dea4d9,
toko bangunan,Toko Bahan Bangunan,Juragan bangunan,"Jl. Merdeka Timur, Mungguk, Kec. Sekadau Hilir, Kabupaten Sekadau, Kalimantan Barat 79516","Mungguk, Kec. Sekadau Hilir, Kabupaten Sekadau",KALIMANTAN BARAT,79516.0,Indonesia,81294726166.0,,,0.0059273,110.9097231,https://maps.google.com/?cid=0x0:0xaf62c6c5d1fad000,
toko bangunan,Toko Bahan Bangunan,Tb. Jaya makmur,"2VFR+FRX, Sungai Ringin, Kec. Sekadau Hilir, Kabupaten Sekadau, Kalimantan Barat 79516","Sungai Ringin, Kec. Sekadau Hilir, Kabupaten Sekadau",KALIMANTAN BARAT,79516.0,Indonesia,82112427393.0,,,0.0237486,110.8919901,https://maps.google.com/?cid=0x0:0x30f83cdbd0797d88,
toko bangunan,Pemasok Bahan Bangunan,Toko Bangunan Mega Jaya,"XQVR+XGH, Jl. Lintas Kalimantan Poros Tengah, Peniti, Kec. Sekadau Hilir, Kabupaten Sekadau, Kalimantan Barat 78581","Jl. Lintas Kalimantan Poros Tengah, Peniti, Kec. Sekadau Hilir, Kabupaten Sekadau",KALIMANTAN BARAT,78581.0,Indonesia,85269235972.0,,,-0.0050709,110.7913518,https://maps.google.com/?cid=0x0:0x749207113a93e106,
toko bangunan,Perhimpunan Pengembang Perumahan,batako penanjung,"2W45+QJJ, Jl. jembatan gantung, Mungguk, Kec. Sekadau Hilir, Kabupaten Sekadau, Kalimantan Barat 79516","Jl. jembatan gantung, Mungguk, Kec. Sekadau Hilir, Kabupaten Sekadau",KALIMANTAN BARAT,79516.0,Indonesia,85386388668.0,,,0.0069734,110.9090216,https://maps.google.com/?cid=0x0:0x86614290bd743527,
toko bangunan,Toko Bahan Bangunan,TB. LEBU MAS,"Jln. Sekadau Sintang, KM. 9, Desa Bokak Sebumbun, Gonis Tekam, Kec. Sekadau Hilir, Kabupaten Sekadau, Kalimantan Barat 79582","KM. 9, Desa Bokak Sebumbun, Gonis Tekam, Kec. Sekadau Hilir, Kabupaten Sekadau",KALIMANTAN BARAT,79582.0,Indonesia,82112427393.0,,,-0.0045309,110.9553172,https://maps.google.com/?cid=0x0:0x5b6d9b6975450b8c,
toko bangunan,,Sahabat 88,"2W27+RG5, Jl. Sintang, Pal 4, Kec. Sekadau Hilir, Kabupaten Sekadau, Kalimantan Barat","Kabupaten Sekadau, Kalimantan Barat",KALIMANTAN BARAT,,Indonesia,,,,0.0020194,110.9138503,https://maps.google.com/?cid=0x0:0x2f178b18228f31bd,
toko bangunan,Toko Bahan Bangunan,Toko Mak Ambon,"3W78+9P, Tanjung, Kec. Sekadau Hilir, Kabupaten Sekadau, Kalimantan Barat","Kabupaten Sekadau, Kalimantan Barat",KALIMANTAN BARAT,,Indonesia,,,,0.0633803,110.916806,https://maps.google.com/?cid=0x0:0xa45b199c5c0a8850,
toko bangunan,Pusat Perbelanjaan,Khatulistiwa Store,"Jalan H. Abdurrahman Desa No.225, RT.14/RW.06, Sungai Ringin, Kec. Sekadau Hilir, Kabupaten Sekadau, Kalimantan Barat 78582","RT.14/RW.06, Sungai Ringin, Kec. Sekadau Hilir, Kabupaten Sekadau",KALIMANTAN BARAT,78582.0,Indonesia,81256195678.0,,,0.021436,110.88296,https://maps.google.com/?cid=0x0:0xb4e3674a94a8ff1b,
toko bangunan,toko bangunan,TB TREE JAYA SEKADAU,"2VFR+45Q, Sungai Ringin, Kec. Sekadau Hilir, Kabupaten Sekadau, Kalimantan Barat","Kabupaten Sekadau, Kalimantan Barat",KALIMANTAN BARAT,,Indonesia,,,,0.0228381,110.8904966,https://maps.google.com/?cid=0x0:0xfd76b9c4e01a2661,
toko bangunan,Toko Kelontong Asia,Tb. Sinar pulau,"VR7X+VP8, Rawak Hulu, Kec. Sekadau Hulu, Kabupaten Sekadau, Kalimantan Barat","Kabupaten Sekadau, Kalimantan Barat",KALIMANTAN BARAT,,Indonesia,,,,-0.1353355,110.8493314,https://maps.google.com/?cid=0x0:0xd798c5e085db9238,
toko bangunan,Toko Bahan Bangunan,Toko Jaya Utama,"2VFR+M5W, Jl. Flamboyan, Sungai Ringin, Kec. Sekadau Hilir, Kabupaten Sekadau, Kalimantan Barat 79516","Jl. Flamboyan, Sungai Ringin, Kec. Sekadau Hilir, Kabupaten Sekadau",KALIMANTAN BARAT,79516.0,Indonesia,,,,0.024228,110.8904606,https://maps.google.com/?cid=0x0:0x49b67078cf8761af,
toko bangunan,Toko Perlengkapan Rumah,Tokoh bangunan,"2VCQ+9WX, Sungai Ringin, Kec. Sekadau Hilir, Kabupaten Sekadau, Kalimantan Barat","Kabupaten Sekadau, Kalimantan Barat",KALIMANTAN BARAT,,Indonesia,,,,0.0209938,110.8898608,https://maps.google.com/?cid=0x0:0xb4e3a89bb8b8ce40,
toko bangunan,Pemasok Bahan Bangunan,Tb. Usman Batako,"Jl. Lintas Kalimantan Poros Tengah No.KM. 14, Peniti, Kec. Sekadau Hilir, Kabupaten Sekadau, Kalimantan Barat 78581","Peniti, Kec. Sekadau Hilir, Kabupaten Sekadau",KALIMANTAN BARAT,78581.0,Indonesia,,,,-0.0150405,110.7982319,https://maps.google.com/?cid=0x0:0xfdf9f611351573b6,
toko bangunan,Toko Mebel,Toko Karya,"Jalan Lestari No.45, Sungai Ringin, Sekadau Hilir, Sekadau Regency, West Kalimantan 79516","Sungai Ringin, Sekadau Hilir, Sekadau Regency",KALIMANTAN BARAT,79516.0,Indonesia,,,,0.024589,110.8908647,https://maps.google.com/?cid=0x0:0xc4eb76ca9ee66d6d,
toko bangunan,Toko Bahan Bangunan,Toko Bangunan,"C6V4+93R, Balai Sepuak, Kec. Belitang Hulu, Kabupaten Sekadau, Kalimantan Barat 79587","Balai Sepuak, Kec. Belitang Hulu, Kabupaten Sekadau",KALIMANTAN BARAT,79587.0,Indonesia,82148443343.0,,,0.4434764,111.205151,https://maps.google.com/?cid=0x0:0x149755029affad68,
toko bangunan,toko bangunan,Tb. Karya Matahari,"Tanjung, Kec. Sekadau Hilir, Kabupaten Sekadau, Kalimantan Barat","Kabupaten Sekadau, Kalimantan Barat",KALIMANTAN BARAT,,Indonesia,,,,0.0146066,110.8993088,https://maps.google.com/?cid=0x0:0x45cd025eabba23ac,
toko bangunan,toko bangunan,Kalimantan Barat 79582,"Kabupaten Sekadau, Kalimantan Barat","Kabupaten Sekadau, Kalimantan Barat",KALIMANTAN BARAT,,Indonesia,,,,-0.0522503,111.0698858,https://maps.google.com/?cid=0x0:0xd2d3b52d3579742e,
toko bangunan,Toko Bahan Bangunan,TB. Aneka Bangunan,"Jl. Merdeka Timur No.19, Tanjung, Kec. Sekadau Hilir, Kabupaten Sekadau, Kalimantan Barat 79516","Tanjung, Kec. Sekadau Hilir, Kabupaten Sekadau",KALIMANTAN BARAT,79516.0,Indonesia,83121529590.0,,,0.014094,110.9008095,https://maps.google.com/?cid=0x0:0xa9a5f01fcbddf99a,
toko bangunan,Toko Bahan Bangunan,Toko Sumber Bangunan,"2V8X+65M, Tanjung, Kec. Sekadau Hilir, Kabupaten Sekadau, Kalimantan Barat 79516","Tanjung, Kec. Sekadau Hilir, Kabupaten Sekadau",KALIMANTAN BARAT,79516.0,Indonesia,82148465985.0,,,0.0155863,110.8979276,https://maps.google.com/?cid=0x0:0xf343b77c5ff699d2,
toko bangunan,Toko Bahan Bangunan,TB. MEGA BANGUNAN,"Kompleks terminal lawang kuari no 7-B, Kabupaten Sekadau, Kalimantan Barat 79582",Kabupaten Sekadau,KALIMANTAN BARAT,79582.0,Indonesia,82153272023.0,,,0.0225329,110.8904731,https://maps.google.com/?cid=0x0:0xad8ed9e4fa734edb,
toko bangunan,Toko Bahan Bangunan,Toko Bangunan Bintang Harapan,"2V9R+HQP, Jl. Merdeka Timur, Sungai Ringin, Kec. Sekadau Hilir, Kabupaten Sekadau, Kalimantan Barat 79516","Jl. Merdeka Timur, Sungai Ringin, Kec. Sekadau Hilir, Kabupaten Sekadau",KALIMANTAN BARAT,79516.0,Indonesia,82112427393.0,,,0.0189636,110.891959,https://maps.google.com/?cid=0x0:0xf09f7c6ab52b8686,
toko bangunan,Toko Bahan Bangunan,Tb. Sentosa Jaya,"2227+944, Jl. Lintas Kalimantan Poros Tengah, Gonis Tekam, Kec. Sekadau Hilir, Kabupaten Sekadau, Kalimantan Barat 79511","Jl. Lintas Kalimantan Poros Tengah, Gonis Tekam, Kec. Sekadau Hilir, Kabupaten Sekadau",KALIMANTAN BARAT,79511.0,Indonesia,82112427393.0,,,0.0008773,111.012835,https://maps.google.com/?cid=0x0:0x650bfc8fdeacb8e,
toko bangunan,,Sahabat 88,"2W27+RG5, Jl. Sintang, Pal 4, Kec. Sekadau Hilir, Kabupaten Sekadau, Kalimantan Barat","Kabupaten Sekadau, Kalimantan Barat",KALIMANTAN BARAT,,Indonesia,,,,0.0020194,110.9138503,https://maps.google.com/?cid=0x0:0x2f178b18228f31bd,
toko bangunan,Toko Bahan Bangunan,Juragan bangunan,"Jl. Merdeka Timur, Mungguk, Kec. Sekadau Hilir, Kabupaten Sekadau, Kalimantan Barat 79516","Mungguk, Kec. Sekadau Hilir, Kabupaten Sekadau",KALIMANTAN BARAT,79516.0,Indonesia,81294726166.0,,,0.0059273,110.9097231,https://maps.google.com/?cid=0x0:0xaf62c6c5d1fad000,
toko bangunan,Toko Bahan Bangunan,Tb. Maju,"simpang kayu lapis, Jl. Lintas Kalimantan Poros Tengah, Seraras, Kec. Sekadau Hilir, Kabupaten Sekadau, Kalimantan Barat","Kabupaten Sekadau, Kalimantan Barat",KALIMANTAN BARAT,,Indonesia,368898900.0,,,-0.0018969,111.0338224,https://maps.google.com/?cid=0x0:0x8985cdbc0055bc6d,
toko bangunan,Perhimpunan Pengembang Perumahan,batako penanjung,"2W45+QJJ, Jl. jembatan gantung, Mungguk, Kec. Sekadau Hilir, Kabupaten Sekadau, Kalimantan Barat 79516","Jl. jembatan gantung, Mungguk, Kec. Sekadau Hilir, Kabupaten Sekadau",KALIMANTAN BARAT,79516.0,Indonesia,85386388668.0,,,0.0069734,110.9090216,https://maps.google.com/?cid=0x0:0x86614290bd743527,
toko bangunan,Pemasok Bahan Bangunan,Bata pres maju jaya,"mbah paryadi, Blok 6, Engkersik, Kec. Sekadau Hilir, Kabupaten Sekadau, Kalimantan Barat 79282","Blok 6, Engkersik, Kec. Sekadau Hilir, Kabupaten Sekadau",KALIMANTAN BARAT,79282.0,Indonesia,81348460630.0,,,-0.0787091,111.0764492,https://maps.google.com/?cid=0x0:0xf49193b17b355a17,
toko bangunan,Toko Bahan Bangunan,TB. King’s Material,"2V8W+H54, Jl. Lintas Kalimantan Poros Tengah, Mungguk, Kec. Sekadau Hilir, Kabupaten Sekadau, Kalimantan Barat 79516","Jl. Lintas Kalimantan Poros Tengah, Mungguk, Kec. Sekadau Hilir, Kabupaten Sekadau",KALIMANTAN BARAT,79516.0,Indonesia,81528677088.0,,,0.0163806,110.8954592,https://maps.google.com/?cid=0x0:0x4b38b845f0dea4d9,
toko bangunan,Toko Perlengkapan Rumah,Tk. DOMINIC,"X2XM+4WQ, Seraras, Kec. Sekadau Hilir, Kabupaten Sekadau, Kalimantan Barat 79582","Seraras, Kec. Sekadau Hilir, Kabupaten Sekadau",KALIMANTAN BARAT,79582.0,Indonesia,,,,-0.0021642,111.034864,https://maps.google.com/?cid=0x0:0x1b00500d1282b45e,
toko bangunan,Pemasok Bahan Bangunan,Toko Bangunan Mega Jaya,"XQVR+XGH, Jl. Lintas Kalimantan Poros Tengah, Peniti, Kec. Sekadau Hilir, Kabupaten Sekadau, Kalimantan Barat 78581","Jl. Lintas Kalimantan Poros Tengah, Peniti, Kec. Sekadau Hilir, Kabupaten Sekadau",KALIMANTAN BARAT,78581.0,Indonesia,85269235972.0,,,-0.0050709,110.7913518,https://maps.google.com/?cid=0x0:0x749207113a93e106,
toko bangunan,Toko Bahan Bangunan,Tb. Jaya makmur,"2VFR+FRX, Sungai Ringin, Kec. Sekadau Hilir, Kabupaten Sekadau, Kalimantan Barat 79516","Sungai Ringin, Kec. Sekadau Hilir, Kabupaten Sekadau",KALIMANTAN BARAT,79516.0,Indonesia,82112427393.0,,,0.0237486,110.8919901,https://maps.google.com/?cid=0x0:0x30f83cdbd0797d88,
toko bangunan,Toko Bahan Bangunan,Toko Bangunan,"C6V4+93R, Balai Sepuak, Kec. Belitang Hulu, Kabupaten Sekadau, Kalimantan Barat 79587","Balai Sepuak, Kec. Belitang Hulu, Kabupaten Sekadau",KALIMANTAN BARAT,79587.0,Indonesia,82148443343.0,,,0.4434764,111.205151,https://maps.google.com/?cid=0x0:0x149755029affad68,
toko bangunan,Pusat Perbelanjaan,Toko Bangunan Surya Baru II,"Nanga Taman, Kec. Nanga Taman, Kabupaten Sekadau, Kalimantan Barat 79584","Kec. Nanga Taman, Kabupaten Sekadau",KALIMANTAN BARAT,79584.0,Indonesia,82254132893.0,,,-0.2649349,110.8198589,https://maps.google.com/?cid=0x0:0x32beeb0bcae69b41,
toko bangunan,Toko Perbaikan Ponsel,Hokky Elektronik,"WXJX+489, Setawar, Kec. Sekadau Hulu, Kabupaten Sekadau, Kalimantan Barat","Kabupaten Sekadau, Kalimantan Barat",KALIMANTAN BARAT,,Indonesia,,,,-0.0697175,110.9983515,https://maps.google.com/?cid=0x0:0x47cfd24d1eaff15,
toko bangunan,toko bangunan,TB TREE JAYA SEKADAU,"2VFR+45Q, Sungai Ringin, Kec. Sekadau Hilir, Kabupaten Sekadau, Kalimantan Barat","Kabupaten Sekadau, Kalimantan Barat",KALIMANTAN BARAT,,Indonesia,,,,0.0228381,110.8904966,https://maps.google.com/?cid=0x0:0xfd76b9c4e01a2661,
toko bangunan,Pusat Perbelanjaan,Khatulistiwa Store,"Jalan H. Abdurrahman Desa No.225, RT.14/RW.06, Sungai Ringin, Kec. Sekadau Hilir, Kabupaten Sekadau, Kalimantan Barat 78582","RT.14/RW.06, Sungai Ringin, Kec. Sekadau Hilir, Kabupaten Sekadau",KALIMANTAN BARAT,78582.0,Indonesia,81256195678.0,,,0.021436,110.88296,https://maps.google.com/?cid=0x0:0xb4e3674a94a8ff1b,
toko bangunan,Toko Bahan Bangunan,Toko Mak Ambon,"3W78+9P, Tanjung, Kec. Sekadau Hilir, Kabupaten Sekadau, Kalimantan Barat","Kabupaten Sekadau, Kalimantan Barat",KALIMANTAN BARAT,,Indonesia,,,,0.0633803,110.916806,https://maps.google.com/?cid=0x0:0xa45b199c5c0a8850,
toko bangunan,toko bangunan,Kalimantan Barat 79583,"Kec. Sekadau Hulu, Kabupaten Sekadau, Kalimantan Barat","Kabupaten Sekadau, Kalimantan Barat",KALIMANTAN BARAT,,Indonesia,,,,-0.174604,110.9506636,https://maps.google.com/?cid=0x0:0xf36139f714788db6,
toko bangunan,Toko Bahan Bangunan,TB. Aneka Bangunan,"Jl. Merdeka Timur No.19, Tanjung, Kec. Sekadau Hilir, Kabupaten Sekadau, Kalimantan Barat 79516","Tanjung, Kec. Sekadau Hilir, Kabupaten Sekadau",KALIMANTAN BARAT,79516.0,Indonesia,83121529590.0,,,0.014094,110.9008095,https://maps.google.com/?cid=0x0:0xa9a5f01fcbddf99a,
toko bangunan,Toko Bahan Bangunan,Toko Sumber Bangunan,"2V8X+65M, Tanjung, Kec. Sekadau Hilir, Kabupaten Sekadau, Kalimantan Barat 79516","Tanjung, Kec. Sekadau Hilir, Kabupaten Sekadau",KALIMANTAN BARAT,79516.0,Indonesia,82148465985.0,,,0.0155863,110.8979276,https://maps.google.com/?cid=0x0:0xf343b77c5ff699d2,
toko bangunan,Toko Bahan Bangunan,Toko Bangunan Bintang Harapan,"2V9R+HQP, Jl. Merdeka Timur, Sungai Ringin, Kec. Sekadau Hilir, Kabupaten Sekadau, Kalimantan Barat 79516","Jl. Merdeka Timur, Sungai Ringin, Kec. Sekadau Hilir, Kabupaten Sekadau",KALIMANTAN BARAT,79516.0,Indonesia,82112427393.0,,,0.0189636,110.891959,https://maps.google.com/?cid=0x0:0xf09f7c6ab52b8686,
toko bangunan,Toko Kelontong Asia,Tb. Sinar pulau,"VR7X+VP8, Rawak Hulu, Kec. Sekadau Hulu, Kabupaten Sekadau, Kalimantan Barat","Kabupaten Sekadau, Kalimantan Barat",KALIMANTAN BARAT,,Indonesia,,,,-0.1353355,110.8493314,https://maps.google.com/?cid=0x0:0xd798c5e085db9238,
toko bangunan,Toko Bahan Bangunan,TB. MEGA BANGUNAN,"Kompleks terminal lawang kuari no 7-B, Kabupaten Sekadau, Kalimantan Barat 79582",Kabupaten Sekadau,KALIMANTAN BARAT,79582.0,Indonesia,82153272023.0,,,0.0225329,110.8904731,https://maps.google.com/?cid=0x0:0xad8ed9e4fa734edb,
toko bangunan,Pemasok Bahan Bangunan,Toko Bangunan Mega Jaya,"XQVR+XGH, Jl. Lintas Kalimantan Poros Tengah, Peniti, Kec. Sekadau Hilir, Kabupaten Sekadau, Kalimantan Barat 78581","Jl. Lintas Kalimantan Poros Tengah, Peniti, Kec. Sekadau Hilir, Kabupaten Sekadau",KALIMANTAN BARAT,78581.0,Indonesia,85269235972.0,,,-0.0050709,110.7913518,https://maps.google.com/?cid=0x0:0x749207113a93e106,
toko bangunan,Pemasok Bahan Bangunan,Bata pres maju jaya,"mbah paryadi, Blok 6, Engkersik, Kec. Sekadau Hilir, Kabupaten Sekadau, Kalimantan Barat 79282","Blok 6, Engkersik, Kec. Sekadau Hilir, Kabupaten Sekadau",KALIMANTAN BARAT,79282.0,Indonesia,81348460630.0,,,-0.0787091,111.0764492,https://maps.google.com/?cid=0x0:0xf49193b17b355a17,
toko bangunan,Toko Bahan Bangunan,TB. King’s Material,"2V8W+H54, Jl. Lintas Kalimantan Poros Tengah, Mungguk, Kec. Sekadau Hilir, Kabupaten Sekadau, Kalimantan Barat 79516","Jl. Lintas Kalimantan Poros Tengah, Mungguk, Kec. Sekadau Hilir, Kabupaten Sekadau",KALIMANTAN BARAT,79516.0,Indonesia,81528677088.0,,,0.0163806,110.8954592,https://maps.google.com/?cid=0x0:0x4b38b845f0dea4d9,
toko bangunan,Toko Bahan Bangunan,TB. LEBU MAS,"Jln. Sekadau Sintang, KM. 9, Desa Bokak Sebumbun, Gonis Tekam, Kec. Sekadau Hilir, Kabupaten Sekadau, Kalimantan Barat 79582","KM. 9, Desa Bokak Sebumbun, Gonis Tekam, Kec. Sekadau Hilir, Kabupaten Sekadau",KALIMANTAN BARAT,79582.0,Indonesia,82112427393.0,,,-0.0045309,110.9553172,https://maps.google.com/?cid=0x0:0x5b6d9b6975450b8c,
toko bangunan,Toko Bahan Bangunan,Toko Bangunan,"C6V4+93R, Balai Sepuak, Kec. Belitang Hulu, Kabupaten Sekadau, Kalimantan Barat 79587","Balai Sepuak, Kec. Belitang Hulu, Kabupaten Sekadau",KALIMANTAN BARAT,79587.0,Indonesia,82148443343.0,,,0.4434764,111.205151,https://maps.google.com/?cid=0x0:0x149755029affad68,
toko bangunan,Toko Perbaikan Ponsel,Hokky Elektronik,"WXJX+489, Setawar, Kec. Sekadau Hulu, Kabupaten Sekadau, Kalimantan Barat","Kabupaten Sekadau, Kalimantan Barat",KALIMANTAN BARAT,,Indonesia,,,,-0.0697175,110.9983515,https://maps.google.com/?cid=0x0:0x47cfd24d1eaff15,
toko bangunan,Pusat Perbelanjaan,Toko Bangunan Surya Baru II,"Nanga Taman, Kec. Nanga Taman, Kabupaten Sekadau, Kalimantan Barat 79584","Kec. Nanga Taman, Kabupaten Sekadau",KALIMANTAN BARAT,79584.0,Indonesia,82254132893.0,,,-0.2649349,110.8198589,https://maps.google.com/?cid=0x0:0x32beeb0bcae69b41,
toko bangunan,Toko Bahan Bangunan,Juragan bangunan,"Jl. Merdeka Timur, Mungguk, Kec. Sekadau Hilir, Kabupaten Sekadau, Kalimantan Barat 79516","Mungguk, Kec. Sekadau Hilir, Kabupaten Sekadau",KALIMANTAN BARAT,79516.0,Indonesia,81294726166.0,,,0.0059273,110.9097231,https://maps.google.com/?cid=0x0:0xaf62c6c5d1fad000,
toko bangunan,Toko Bahan Bangunan,toko bangunan maju jaya,"HQF6+26W, Nanga Suri, Kec. Nanga Mahap, Kabupaten Sekadau, Kalimantan Barat 79584","Nanga Suri, Kec. Nanga Mahap, Kabupaten Sekadau",KALIMANTAN BARAT,79584.0,Indonesia,,,,-0.427012,110.7610282,https://maps.google.com/?cid=0x0:0x5899fa2762c1b5ff,
toko bangunan,Perhimpunan Pengembang Perumahan,batako penanjung,"2W45+QJJ, Jl. jembatan gantung, Mungguk, Kec. Sekadau Hilir, Kabupaten Sekadau, Kalimantan Barat 79516","Jl. jembatan gantung, Mungguk, Kec. Sekadau Hilir, Kabupaten Sekadau",KALIMANTAN BARAT,79516.0,Indonesia,85386388668.0,,,0.0069734,110.9090216,https://maps.google.com/?cid=0x0:0x86614290bd743527,
toko bangunan,Toko Bahan Bangunan,Tb. Jaya makmur,"2VFR+FRX, Sungai Ringin, Kec. Sekadau Hilir, Kabupaten Sekadau, Kalimantan Barat 79516","Sungai Ringin, Kec. Sekadau Hilir, Kabupaten Sekadau",KALIMANTAN BARAT,79516.0,Indonesia,82112427393.0,,,0.0237486,110.8919901,https://maps.google.com/?cid=0x0:0x30f83cdbd0797d88,
toko bangunan,Toko Bahan Bangunan,Tb. Sentosa Jaya,"2227+944, Jl. Lintas Kalimantan Poros Tengah, Gonis Tekam, Kec. Sekadau Hilir, Kabupaten Sekadau, Kalimantan Barat 79511","Jl. Lintas Kalimantan Poros Tengah, Gonis Tekam, Kec. Sekadau Hilir, Kabupaten Sekadau",KALIMANTAN BARAT,79511.0,Indonesia,82112427393.0,,,0.0008773,111.012835,https://maps.google.com/?cid=0x0:0x650bfc8fdeacb8e,
toko bangunan,,Sahabat 88,"2W27+RG5, Jl. Sintang, Pal 4, Kec. Sekadau Hilir, Kabupaten Sekadau, Kalimantan Barat","Kabupaten Sekadau, Kalimantan Barat",KALIMANTAN BARAT,,Indonesia,,,,0.0020194,110.9138503,https://maps.google.com/?cid=0x0:0x2f178b18228f31bd,
toko bangunan,Toko Perlengkapan Rumah,Tb. Sukses jaya88,"Jalan. Raya No.38, Nanga Taman, Kec. Nanga Taman, Kabupaten Sekadau, Kalimantan Barat 79584","Nanga Taman, Kec. Nanga Taman, Kabupaten Sekadau",KALIMANTAN BARAT,79584.0,Indonesia,,,,-0.2635729,110.8204233,https://maps.google.com/?cid=0x0:0x57c32d2aa6667cc6,
toko bangunan,Toko Bahan Bangunan,Toko WD family,"Bedayan, Kec. Sepauk, Kabupaten Sintang, Kalimantan Barat 78662","Kec. Sepauk, Kabupaten Sintang",KALIMANTAN BARAT,78662.0,Indonesia,82112427393.0,,,-0.1196759,111.1542053,https://maps.google.com/?cid=0x0:0x8c39024fc077fbea,
hardware store,Minimarket,INDOMARET BK 10,"VJQX+C48, Gumawang, Kec. Belitang, Kabupaten Ogan Komering Ulu Timur, Sumatera Selatan 32382","Gumawang, Kec. Belitang, Kabupaten Ogan Komering Ulu Timur",KALIMANTAN BARAT,32382.0,Indonesia,,,,-4.1114631,104.6478214,https://maps.google.com/?cid=0x0:0x1f5852150361d51a,
hardware store,Toko bahan makanan,ALFAMART GUMAWANG BK10,"Gumawang, Kec. Belitang, Kabupaten Ogan Komering Ulu Timur, Sumatera Selatan 32382","Kec. Belitang, Kabupaten Ogan Komering Ulu Timur",KALIMANTAN BARAT,32382.0,Indonesia,,,,-4.1091573,104.6464695,https://maps.google.com/?cid=0x0:0xc07bf5d01d67ab7c,
hardware store,Restoran,Dimsum Yummi by Family Kitchen,"VJQV+V62, Gumawang, Kec. Belitang, Kabupaten Ogan Komering Ulu Timur, Sumatera Selatan 32382","Gumawang, Kec. Belitang, Kabupaten Ogan Komering Ulu Timur",KALIMANTAN BARAT,32382.0,Indonesia,85789624217.0,,,-4.1103625,104.6430156,https://maps.google.com/?cid=0x0:0x5ffa91705ab60541,
hardware store,Toko Perlengkapan Rumah,MR DIY BELITANG,"Jl. Lintas Sumatera No.3, RW.6, Kemala Raja, Baturaja Timur, Ogan Komering Ulu, Sumatera Selatan 32111","RW.6, Kemala Raja, Baturaja Timur, Ogan Komering Ulu",KALIMANTAN BARAT,32111.0,Indonesia,88272215173.0,,,-4.1127415,104.6408221,https://maps.google.com/?cid=0x0:0xbd043e9d86ad2b7,
hardware store,Toko Bahan Bangunan,Toko Bangunan Jati Luhur,"Jl.Jendral sudirman, Bedilan, Kec. Belitang, Kabupaten Ogan Komering Ulu Timur, Sumatera Selatan 32382","Bedilan, Kec. Belitang, Kabupaten Ogan Komering Ulu Timur",KALIMANTAN BARAT,32382.0,Indonesia,83114785308.0,,,-4.093859,104.6648779,https://maps.google.com/?cid=0x0:0xde070ce14dfde4ce,
hardware store,Toko Bahan Bangunan,Toko Central Bangunan,"Jl. Bedilan, Gumawang, Belitang Madang Raya, East Ogan Komering Ulu Regency, South Sumatra 32382","Gumawang, Belitang Madang Raya, East Ogan Komering Ulu Regency",KALIMANTAN BARAT,32382.0,Indonesia,83114785308.0,,,-4.1078544,104.6533709,https://maps.google.com/?cid=0x0:0x21a2d238d53fe730,
hardware store,,Toko Rahayu,"Jl. Raya Sidorahayu, Sido Rahayu, Kec. Belitang, Kabupaten Ogan Komering Ulu Timur, Sumatera Selatan 32382","Sido Rahayu, Kec. Belitang, Kabupaten Ogan Komering Ulu Timur",KALIMANTAN BARAT,32382.0,Indonesia,81272642717.0,,,-4.1834697,104.6066564,https://maps.google.com/?cid=0x0:0x288d76fe237beb4b,
hardware store,Toko Bahan Bangunan,TB Sinar Jaya,"VJ5H+RWC, Sukajadi, Kec. Belitang, Kabupaten Ogan Komering Ulu Timur, Sumatera Selatan 32382","Sukajadi, Kec. Belitang, Kabupaten Ogan Komering Ulu Timur",KALIMANTAN BARAT,32382.0,Indonesia,83114785308.0,,,-4.1404361,104.6297775,https://maps.google.com/?cid=0x0:0x727f82f6c2567aa8,
hardware store,Toko Perlengkapan Rumah,Toko Rahayu belitang,"Jalan Raya Pasar Sidodadi BK 9, Serbaguna, Kec. Belitang, Kabupaten Ogan Komering Ulu Timur, Sumatera Selatan 32382","Serbaguna, Kec. Belitang, Kabupaten Ogan Komering Ulu Timur",KALIMANTAN BARAT,32382.0,Indonesia,81273780338.0,,,-4.1428247,104.6354594,https://maps.google.com/?cid=0x0:0xe5a4c1a949cffed,
hardware store,Toko Bahan Bangunan,TB. Oktara Jaya,"VJPG+7H6, Tanah Merah, Kec. Belitang Madang Raya, Kabupaten Ogan Komering Ulu Timur, Sumatera Selatan 32382","Tanah Merah, Kec. Belitang Madang Raya, Kabupaten Ogan Komering Ulu Timur",KALIMANTAN BARAT,32382.0,Indonesia,85366366686.0,,,-4.1143473,104.6263933,https://maps.google.com/?cid=0x0:0x304df01369f6fa41,
hardware store,Toko Bahan Bangunan,TB Joko,"RJMF+9V7, Triyoso, Kec. Belitang, Kabupaten Ogan Komering Ulu Timur, Sumatera Selatan 32382","Triyoso, Kec. Belitang, Kabupaten Ogan Komering Ulu Timur",KALIMANTAN BARAT,32382.0,Indonesia,,,,-4.1665852,104.6246689,https://maps.google.com/?cid=0x0:0x5665e2b58bed4cdb,
hardware store,Toko Bahan Bangunan,TB Bintang Terang,"RJMG+F9M, Triyoso, Kec. Belitang, Kabupaten Ogan Komering Ulu Timur, Sumatera Selatan 32382","Triyoso, Kec. Belitang, Kabupaten Ogan Komering Ulu Timur",KALIMANTAN BARAT,32382.0,Indonesia,,,,-4.1662959,104.6259081,https://maps.google.com/?cid=0x0:0x3e0cee7174195c07,
hardware store,Toko Bahan Bangunan,TB. NUSA BERKAH,"Nomor 94, BK 10 BELITANG, Jl. Tugu Harum, RT.4/RW.2, Gumawang, Kec. Belitang, Kabupaten Ogan Komering Ulu Timur, Sumatera Selatan 32382","BK 10 BELITANG, Jl. Tugu Harum, RT.4/RW.2, Gumawang, Kec. Belitang, Kabupaten Ogan Komering Ulu Timur",KALIMANTAN BARAT,32382.0,Indonesia,83114785308.0,,,-4.1073812,104.6446426,https://maps.google.com/?cid=0x0:0xf507f8e8263df546,
hardware store,Toko Bahan Bangunan,TB Nuri (Bangunan  Pertanian),"WJ2F+QP8, Jl. Puskesmas, Kampung 4, Bangsa Negara, Kec. Belitang Madang Raya, Kabupaten Ogan Komering Ulu Timur, Sumatera Selatan 32385","Jl. Puskesmas, Kampung 4, Bangsa Negara, Kec. Belitang Madang Raya, Kabupaten Ogan Komering Ulu Timur",KALIMANTAN BARAT,32385.0,Indonesia,83114785308.0,,,-4.0980838,104.6243363,https://maps.google.com/?cid=0x0:0xc180f337ccdd017b,
hardware store,Toko Bahan Bangunan,Tb. Berkah Jaya,"VMP9+X78, Jl. Raya SidoMakmur, Sido Makmur, Kec. Belitang, Kabupaten Ogan Komering Ulu Timur, Sumatera Selatan 32382","Jl. Raya SidoMakmur, Sido Makmur, Kec. Belitang, Kabupaten Ogan Komering Ulu Timur",KALIMANTAN BARAT,32382.0,Indonesia,83114785308.0,,,-4.1125889,104.6682187,https://maps.google.com/?cid=0x0:0xba681980557d8b62,
hardware store,Jasa Perbaikan Telepon,BOSTOM Cell,"VJQX+J62, Gumawang, Kec. Belitang, Kabupaten Ogan Komering Ulu Timur, Sumatera Selatan 32382","Gumawang, Kec. Belitang, Kabupaten Ogan Komering Ulu Timur",KALIMANTAN BARAT,32382.0,Indonesia,81271518234.0,,,-4.1109997,104.6480193,https://maps.google.com/?cid=0x0:0xf56812f7c11b02ca,
hardware store,Toko Elektronik,Sinar Fajar Elektronik,"VJQW+353, Gumawang, Kec. Belitang, Kabupaten Ogan Komering Ulu Timur, Sumatera Selatan 32382","Gumawang, Kec. Belitang, Kabupaten Ogan Komering Ulu Timur",KALIMANTAN BARAT,32382.0,Indonesia,82162557975.0,,,-4.1123512,104.6454358,https://maps.google.com/?cid=0x0:0x80ed936efd4a348b,
hardware store,Toko Elektronik,Masteng Elektronik,"Jl. Mawar, Gumawang, Kec. Belitang, Kabupaten Ogan Komering Ulu Timur, Sumatera Selatan 32382","Gumawang, Kec. Belitang, Kabupaten Ogan Komering Ulu Timur",KALIMANTAN BARAT,32382.0,Indonesia,83114785308.0,,,-4.1110436,104.6484882,https://maps.google.com/?cid=0x0:0xfcc12252c9b744ca,
hardware store,Toko Bahan Bangunan,Putra Ramayana,"Jl. Bedilan, Gumawang, Belitang, East Ogan Komering Ulu Regency, South Sumatra 32382","Gumawang, Belitang, East Ogan Komering Ulu Regency",KALIMANTAN BARAT,32382.0,Indonesia,83114785308.0,,,-4.1077788,104.6536173,https://maps.google.com/?cid=0x0:0xb9b8b545ca1a269c,
hardware store,Toko Bahan Bangunan,Graha Bintang Rezeki,"Desa Tanah Merah, BK 10, Rantau Jaya, Kec. Belitang, Kabupaten Ogan Komering Ulu Timur, Sumatera Selatan 32382","BK 10, Rantau Jaya, Kec. Belitang, Kabupaten Ogan Komering Ulu Timur",KALIMANTAN BARAT,32382.0,Indonesia,83114785308.0,,,-4.1156281,104.6331842,https://maps.google.com/?cid=0x0:0x673368a28f0a659d,
hardware store,Toko Elektronik,Toko Elektronik Setia Darmawan,"VJQX+P56, Jl. Nusa Indah, Pasar, Gumawang, Kec. Belitang, Kabupaten Ogan Komering Ulu Timur, Sumatera Selatan 32382","Jl. Nusa Indah, Pasar, Gumawang, Kec. Belitang, Kabupaten Ogan Komering Ulu Timur",KALIMANTAN BARAT,32382.0,Indonesia,83114785308.0,,,-4.1107115,104.6478752,https://maps.google.com/?cid=0x0:0x459b2f2f0ba3acf1,
hardware store,Pom bensin/SPBU,SPBU Bk 9 Belitang 24-32164,"VJ7H+W7W, Sukajadi, Kec. Belitang, Kabupaten Ogan Komering Ulu Timur, Sumatera Selatan 32382","Sukajadi, Kec. Belitang, Kabupaten Ogan Komering Ulu Timur",KALIMANTAN BARAT,32382.0,Indonesia,,,,-4.1351492,104.6281936,https://maps.google.com/?cid=0x0:0x51b87e0ff1da0f68,
hardware store,hardware store,Kalimantan Barat 79588,"Kec. Belitang, Kabupaten Sekadau, Kalimantan Barat","Kabupaten Sekadau, Kalimantan Barat",KALIMANTAN BARAT,,Indonesia,,,,0.2617615,111.2129616,https://maps.google.com/?cid=0x0:0x5479f9f1b87cf60,
hardware store,Toko Bahan Bangunan,TB. MANDIRI JAYA M@rt,"55HQ+2Q4, Padak, Kec. Belitang, Kabupaten Sekadau, Kalimantan Barat 79586","Padak, Kec. Belitang, Kabupaten Sekadau",KALIMANTAN BARAT,79586.0,Indonesia,82112427393.0,,,0.1775221,111.1894676,https://maps.google.com/?cid=0x0:0x5a5404f56706d4b0,
hardware store,Toko Bahan Bangunan,Hokky Bangunan,"Jalan Kapuas No.simpang, Belitang Satu, Belitang, Sekadau Regency, West Kalimantan","Kabupaten Sekadau, Kalimantan Barat",KALIMANTAN BARAT,,Indonesia,,,,0.1341715,111.2375716,https://maps.google.com/?cid=0x0:0x9b4b2602e6e57c3,
hardware store,Toko Bahan Bangunan,Juragan bangunan,"Jl. Merdeka Timur, Mungguk, Kec. Sekadau Hilir, Kabupaten Sekadau, Kalimantan Barat 79516","Mungguk, Kec. Sekadau Hilir, Kabupaten Sekadau",KALIMANTAN BARAT,79516.0,Indonesia,81294726166.0,,,0.0059273,110.9097231,https://maps.google.com/?cid=0x0:0xaf62c6c5d1fad000,
hardware store,hardware store,Kec. Belitang,"Kabupaten Ogan Komering Ulu Timur, Sumatera Selatan","Kabupaten Ogan Komering Ulu Timur, Sumatera Selatan",KALIMANTAN BARAT,,Indonesia,,,,-4.1402273,104.6278606,https://maps.google.com/?cid=0x0:0xbffde04fd06442eb,
hardware store,Toko Bahan Bangunan,Toko Bangunan Jati Luhur,"Jl.Jendral sudirman, Bedilan, Kec. Belitang, Kabupaten Ogan Komering Ulu Timur, Sumatera Selatan 32382","Bedilan, Kec. Belitang, Kabupaten Ogan Komering Ulu Timur",KALIMANTAN BARAT,32382.0,Indonesia,83114785308.0,,,-4.093859,104.6648779,https://maps.google.com/?cid=0x0:0xde070ce14dfde4ce,
hardware store,Toko Perlengkapan Rumah,MR DIY BELITANG,"Jl. Lintas Sumatera No.3, RW.6, Kemala Raja, Baturaja Timur, Ogan Komering Ulu, Sumatera Selatan 32111","RW.6, Kemala Raja, Baturaja Timur, Ogan Komering Ulu",KALIMANTAN BARAT,32111.0,Indonesia,88272215173.0,,,-4.1127415,104.6408221,https://maps.google.com/?cid=0x0:0xbd043e9d86ad2b7,
hardware store,Toko Perlengkapan Rumah,Toko Rahayu belitang,"Jalan Raya Pasar Sidodadi BK 9, Serbaguna, Kec. Belitang, Kabupaten Ogan Komering Ulu Timur, Sumatera Selatan 32382","Serbaguna, Kec. Belitang, Kabupaten Ogan Komering Ulu Timur",KALIMANTAN BARAT,32382.0,Indonesia,81273780338.0,,,-4.1428247,104.6354594,https://maps.google.com/?cid=0x0:0xe5a4c1a949cffed,
hardware store,Toko Bahan Bangunan,TB. NUSA BERKAH,"Nomor 94, BK 10 BELITANG, Jl. Tugu Harum, RT.4/RW.2, Gumawang, Kec. Belitang, Kabupaten Ogan Komering Ulu Timur, Sumatera Selatan 32382","BK 10 BELITANG, Jl. Tugu Harum, RT.4/RW.2, Gumawang, Kec. Belitang, Kabupaten Ogan Komering Ulu Timur",KALIMANTAN BARAT,32382.0,Indonesia,83114785308.0,,,-4.1073812,104.6446426,https://maps.google.com/?cid=0x0:0xf507f8e8263df546,
hardware store,Toko Bahan Bangunan,Toko Central Bangunan,"Jl. Bedilan, Gumawang, Belitang Madang Raya, East Ogan Komering Ulu Regency, South Sumatra 32382","Gumawang, Belitang Madang Raya, East Ogan Komering Ulu Regency",KALIMANTAN BARAT,32382.0,Indonesia,8161999912.0,,,-4.1078544,104.6533709,https://maps.google.com/?cid=0x0:0x21a2d238d53fe730,
hardware store,Toko Bahan Bangunan,TB Sinar Jaya,"VJ5H+RWC, Sukajadi, Kec. Belitang, Kabupaten Ogan Komering Ulu Timur, Sumatera Selatan 32382","Sukajadi, Kec. Belitang, Kabupaten Ogan Komering Ulu Timur",KALIMANTAN BARAT,32382.0,Indonesia,83114785308.0,,,-4.1404361,104.6297775,https://maps.google.com/?cid=0x0:0x727f82f6c2567aa8,
hardware store,,Toko Rahayu,"Jl. Raya Sidorahayu, Sido Rahayu, Kec. Belitang, Kabupaten Ogan Komering Ulu Timur, Sumatera Selatan 32382","Sido Rahayu, Kec. Belitang, Kabupaten Ogan Komering Ulu Timur",KALIMANTAN BARAT,32382.0,Indonesia,81272642717.0,,,-4.1834697,104.6066564,https://maps.google.com/?cid=0x0:0x288d76fe237beb4b,
hardware store,Toko Bahan Bangunan,TB Joko,"RJMF+9V7, Triyoso, Kec. Belitang, Kabupaten Ogan Komering Ulu Timur, Sumatera Selatan 32382","Triyoso, Kec. Belitang, Kabupaten Ogan Komering Ulu Timur",KALIMANTAN BARAT,32382.0,Indonesia,,,,-4.1665852,104.6246689,https://maps.google.com/?cid=0x0:0x5665e2b58bed4cdb,
hardware store,Toko Bahan Bangunan,Tb. Berkah Jaya,"VMP9+X78, Jl. Raya SidoMakmur, Sido Makmur, Kec. Belitang, Kabupaten Ogan Komering Ulu Timur, Sumatera Selatan 32382","Jl. Raya SidoMakmur, Sido Makmur, Kec. Belitang, Kabupaten Ogan Komering Ulu Timur",KALIMANTAN BARAT,32382.0,Indonesia,83114785308.0,,,-4.1125889,104.6682187,https://maps.google.com/?cid=0x0:0xba681980557d8b62,
hardware store,Toko Bahan Bangunan,TB Bintang Terang,"RJMG+F9M, Triyoso, Kec. Belitang, Kabupaten Ogan Komering Ulu Timur, Sumatera Selatan 32382","Triyoso, Kec. Belitang, Kabupaten Ogan Komering Ulu Timur",KALIMANTAN BARAT,32382.0,Indonesia,,,,-4.1662959,104.6259081,https://maps.google.com/?cid=0x0:0x3e0cee7174195c07,
hardware store,Toko Bahan Bangunan,TB Nuri (Bangunan  Pertanian),"WJ2F+QP8, Jl. Puskesmas, Kampung 4, Bangsa Negara, Kec. Belitang Madang Raya, Kabupaten Ogan Komering Ulu Timur, Sumatera Selatan 32385","Jl. Puskesmas, Kampung 4, Bangsa Negara, Kec. Belitang Madang Raya, Kabupaten Ogan Komering Ulu Timur",KALIMANTAN BARAT,32385.0,Indonesia,83114785308.0,,,-4.0980838,104.6243363,https://maps.google.com/?cid=0x0:0xc180f337ccdd017b,
hardware store,Toko Bahan Bangunan,Graha Bintang Rezeki,"Desa Tanah Merah, BK 10, Rantau Jaya, Kec. Belitang, Kabupaten Ogan Komering Ulu Timur, Sumatera Selatan 32382","BK 10, Rantau Jaya, Kec. Belitang, Kabupaten Ogan Komering Ulu Timur",KALIMANTAN BARAT,32382.0,Indonesia,83114785308.0,,,-4.1156281,104.6331842,https://maps.google.com/?cid=0x0:0x673368a28f0a659d,
hardware store,Toko Elektronik,Sinar Fajar Elektronik,"VJQW+353, Gumawang, Kec. Belitang, Kabupaten Ogan Komering Ulu Timur, Sumatera Selatan 32382","Gumawang, Kec. Belitang, Kabupaten Ogan Komering Ulu Timur",KALIMANTAN BARAT,32382.0,Indonesia,82162557975.0,,,-4.1123512,104.6454358,https://maps.google.com/?cid=0x0:0x80ed936efd4a348b,
hardware store,Toko Bahan Bangunan,BATU BATA MBAK SELI,"Jalan KP 06 Dusun, Badran, Kec. Belitang, Kabupaten Ogan Komering Ulu Timur, Sumatera Selatan 32382","Badran, Kec. Belitang, Kabupaten Ogan Komering Ulu Timur",KALIMANTAN BARAT,32382.0,Indonesia,85840202682.0,,,-4.1467934,104.6631956,https://maps.google.com/?cid=0x0:0x5e960e88576b3de6,
hardware store,Toko Elektronik,Masteng Elektronik,"Jl. Mawar, Gumawang, Kec. Belitang, Kabupaten Ogan Komering Ulu Timur, Sumatera Selatan 32382","Gumawang, Kec. Belitang, Kabupaten Ogan Komering Ulu Timur",KALIMANTAN BARAT,32382.0,Indonesia,83114785308.0,,,-4.1110436,104.6484882,https://maps.google.com/?cid=0x0:0xfcc12252c9b744ca,
hardware store,Jasa Perbaikan Telepon,BOSTOM Cell,"VJQX+J62, Gumawang, Kec. Belitang, Kabupaten Ogan Komering Ulu Timur, Sumatera Selatan 32382","Gumawang, Kec. Belitang, Kabupaten Ogan Komering Ulu Timur",KALIMANTAN BARAT,32382.0,Indonesia,81271518234.0,,,-4.1109997,104.6480193,https://maps.google.com/?cid=0x0:0xf56812f7c11b02ca,
hardware store,Toko,Foto Copy Pusdikom.net,"Tugu Harum, Kec. Belitang Madang Raya, Kabupaten Ogan Komering Ulu Timur, Sumatera Selatan 32382","Kec. Belitang Madang Raya, Kabupaten Ogan Komering Ulu Timur",KALIMANTAN BARAT,32382.0,Indonesia,82278190897.0,,,-4.1084125,104.6457507,https://maps.google.com/?cid=0x0:0x4d2c88b41302b717,
hardware store,Toko Elektronik,Toko Elektronik Setia Darmawan,"VJQX+P56, Jl. Nusa Indah, Pasar, Gumawang, Kec. Belitang, Kabupaten Ogan Komering Ulu Timur, Sumatera Selatan 32382","Jl. Nusa Indah, Pasar, Gumawang, Kec. Belitang, Kabupaten Ogan Komering Ulu Timur",KALIMANTAN BARAT,32382.0,Indonesia,83114785308.0,,,-4.1107115,104.6478752,https://maps.google.com/?cid=0x0:0x459b2f2f0ba3acf1,
hardware store,Pom bensin/SPBU,SPBU Bk 9 Belitang 24-32164,"VJ7H+W7W, Sukajadi, Kec. Belitang, Kabupaten Ogan Komering Ulu Timur, Sumatera Selatan 32382","Sukajadi, Kec. Belitang, Kabupaten Ogan Komering Ulu Timur",KALIMANTAN BARAT,32382.0,Indonesia,,,,-4.1351492,104.6281936,https://maps.google.com/?cid=0x0:0x51b87e0ff1da0f68,
hardware store,Minimarket,INDOMARET BK 10,"VJQX+C48, Gumawang, Kec. Belitang, Kabupaten Ogan Komering Ulu Timur, Sumatera Selatan 32382","Gumawang, Kec. Belitang, Kabupaten Ogan Komering Ulu Timur",KALIMANTAN BARAT,32382.0,Indonesia,,,,-4.1114631,104.6478214,https://maps.google.com/?cid=0x0:0x1f5852150361d51a,
hardware store,hardware store,Kalimantan Barat 79586,"Kec. Belitang Hilir, Kabupaten Sekadau, Kalimantan Barat","Kabupaten Sekadau, Kalimantan Barat",KALIMANTAN BARAT,,Indonesia,,,,0.1743805,111.1414226,https://maps.google.com/?cid=0x0:0x959d1847699c643e,
hardware store,Toko Bahan Bangunan,TB. MANDIRI JAYA M@rt,"55HQ+2Q4, Padak, Kec. Belitang, Kabupaten Sekadau, Kalimantan Barat 79586","Padak, Kec. Belitang, Kabupaten Sekadau",KALIMANTAN BARAT,79586.0,Indonesia,82112427393.0,,,0.1775221,111.1894676,https://maps.google.com/?cid=0x0:0x5a5404f56706d4b0,
hardware store,Toko,Toko Obat Sejahtera,"Sungai Ayak III, Kec. Belitang Hilir, Kabupaten Sekadau, Kalimantan Barat 79512","Kec. Belitang Hilir, Kabupaten Sekadau",KALIMANTAN BARAT,79512.0,Indonesia,,,,0.0987212,111.0656527,https://maps.google.com/?cid=0x0:0xb3d83dc74dbedf5,
hardware store,Institusi Pendidikan,SMA Negeri 1 Belitang Hilir,"Jln. Adi Sucipto, Sungai ayak, II, Sungai Ayak III, Kec. Belitang Hilir, Kabupaten Sekadau, Kalimantan Barat 79512","Sungai ayak, II, Sungai Ayak III, Kec. Belitang Hilir, Kabupaten Sekadau",KALIMANTAN BARAT,79512.0,Indonesia,85251233432.0,,,0.1095956,111.0712735,https://maps.google.com/?cid=0x0:0xc85e3548eabfcddf,
hardware store,Toko,Pos Daya Motor Sugai Ayak,"Jl. Ahmad Yani Rt.001 Rw.001, Kampung Baru, II, Sungaiayak Satu, Kec. Belitang Hilir, Kabupaten Sekadau, Kalimantan Barat","Kabupaten Sekadau, Kalimantan Barat",KALIMANTAN BARAT,,Indonesia,85751204187.0,,,0.1073223,111.0702712,https://maps.google.com/?cid=0x0:0x9e74abb0555636a0,
hardware store,Warung telepon,Toko ATK (GANGSAR),"SP.VI, Nanga Ansar, Kec. Belitang, Kabupaten Sekadau, Kalimantan Barat 79588","Nanga Ansar, Kec. Belitang, Kabupaten Sekadau",KALIMANTAN BARAT,79588.0,Indonesia,,,,0.2748434,111.1888762,https://maps.google.com/?cid=0x0:0x1c02e8d16f3dc843,
hardware store,Toko Bahan Bangunan,Juragan bangunan,"Jl. Merdeka Timur, Mungguk, Kec. Sekadau Hilir, Kabupaten Sekadau, Kalimantan Barat 79516","Mungguk, Kec. Sekadau Hilir, Kabupaten Sekadau",KALIMANTAN BARAT,79516.0,Indonesia,81294726166.0,,,0.0059273,110.9097231,https://maps.google.com/?cid=0x0:0xaf62c6c5d1fad000,
hardware store,Toko,Toko Obat Sejahtera,"Sungai Ayak III, Kec. Belitang Hilir, Kabupaten Sekadau, Kalimantan Barat 79512","Kec. Belitang Hilir, Kabupaten Sekadau",KALIMANTAN BARAT,79512.0,Indonesia,,,,0.0987212,111.0656527,https://maps.google.com/?cid=0x0:0xb3d83dc74dbedf5,
hardware store,Apotek,Toko obat Sejahtera,"2VFR+MFH, Jl. Mawar, Sungai Ringin, Kec. Sekadau Hilir, Kabupaten Sekadau, Kalimantan Barat 79516","Jl. Mawar, Sungai Ringin, Kec. Sekadau Hilir, Kabupaten Sekadau",KALIMANTAN BARAT,79516.0,Indonesia,,,,0.024179,110.891222,https://maps.google.com/?cid=0x0:0xe4c6754346d4c73d,
hardware store,Toko Bahan Bangunan,Toko Bangunan,"C6V4+93R, Balai Sepuak, Kec. Belitang Hulu, Kabupaten Sekadau, Kalimantan Barat 79587","Balai Sepuak, Kec. Belitang Hulu, Kabupaten Sekadau",KALIMANTAN BARAT,79587.0,Indonesia,82148443343.0,,,0.4434764,111.205151,https://maps.google.com/?cid=0x0:0x149755029affad68,
hardware store,hardware store,Kec. Belitang Hulu,"Kabupaten Sekadau, Kalimantan Barat","Kabupaten Sekadau, Kalimantan Barat",KALIMANTAN BARAT,,Indonesia,,,,0.5256764,111.1414226,https://maps.google.com/?cid=0x0:0x1df49994991be356,
hardware store,hardware store,Kalimantan Barat 79585,"Kec. Nanga Mahap, Kabupaten Sekadau, Kalimantan Barat","Kabupaten Sekadau, Kalimantan Barat",KALIMANTAN BARAT,,Indonesia,,,,-0.5270182,110.7599266,https://maps.google.com/?cid=0x0:0x130fcb733de732c5,
hardware store,Toko Bahan Bangunan,Toko era jaya,"HQH5+54W, Jl. Jend. Sudirman, Nanga Mahap, Kec. Nanga Mahap, Kabupaten Sekadau, Kalimantan Barat 79584","Jl. Jend. Sudirman, Nanga Mahap, Kec. Nanga Mahap, Kabupaten Sekadau",KALIMANTAN BARAT,79584.0,Indonesia,88856094686.0,,,-0.4220037,110.7578159,https://maps.google.com/?cid=0x0:0xdf0f9d1016358b26,
hardware store,Toko,Toko Aroma 2,"HQG7+R49, Jl. Batu Bertulis, Nanga Suri, Kec. Nanga Mahap, Kabupaten Sekadau, Kalimantan Barat 79584","Jl. Batu Bertulis, Nanga Suri, Kec. Nanga Mahap, Kabupaten Sekadau",KALIMANTAN BARAT,79584.0,Indonesia,,,,-0.422951,110.7628643,https://maps.google.com/?cid=0x0:0xbe961b7fcaa6acb9,
hardware store,hardware store,Kalimantan Barat 79584,"Kec. Nanga Taman, Kabupaten Sekadau, Kalimantan Barat","Kabupaten Sekadau, Kalimantan Barat",KALIMANTAN BARAT,,Indonesia,,,,-0.3150976,110.8552919,https://maps.google.com/?cid=0x0:0x2c4ea8235cb520a3,
hardware store,Toko Bahan Bangunan,Toko era jaya,"HQH5+54W, Jl. Jend. Sudirman, Nanga Mahap, Kec. Nanga Mahap, Kabupaten Sekadau, Kalimantan Barat 79584","Jl. Jend. Sudirman, Nanga Mahap, Kec. Nanga Mahap, Kabupaten Sekadau",KALIMANTAN BARAT,79584.0,Indonesia,88856094686.0,,,-0.4220037,110.7578159,https://maps.google.com/?cid=0x0:0xdf0f9d1016358b26,
hardware store,Pusat Perbelanjaan,Toko Bangunan Surya Baru II,"Nanga Taman, Kec. Nanga Taman, Kabupaten Sekadau, Kalimantan Barat 79584","Kec. Nanga Taman, Kabupaten Sekadau",KALIMANTAN BARAT,79584.0,Indonesia,82254132893.0,,,-0.2649349,110.8198589,https://maps.google.com/?cid=0x0:0x32beeb0bcae69b41,
hardware store,Toko Fotokopi,Lavio Foto,"Jl. Olahraga, Nanga Taman, Kec. Nanga Taman, Kabupaten Sekadau, Kalimantan Barat 79584","Nanga Taman, Kec. Nanga Taman, Kabupaten Sekadau",KALIMANTAN BARAT,79584.0,Indonesia,82357540628.0,,,-0.2653034,110.8152696,https://maps.google.com/?cid=0x0:0x7cd22f12b441e21a,
hardware store,Toko,Toko Aroma 2,"HQG7+R49, Jl. Batu Bertulis, Nanga Suri, Kec. Nanga Mahap, Kabupaten Sekadau, Kalimantan Barat 79584","Jl. Batu Bertulis, Nanga Suri, Kec. Nanga Mahap, Kabupaten Sekadau",KALIMANTAN BARAT,79584.0,Indonesia,,,,-0.422951,110.7628643,https://maps.google.com/?cid=0x0:0xbe961b7fcaa6acb9,
hardware store,hardware store,Kalimantan Barat 79511,"Kec. Sekadau Hilir, Kabupaten Sekadau, Kalimantan Barat","Kabupaten Sekadau, Kalimantan Barat",KALIMANTAN BARAT,,Indonesia,,,,-0.0087079,110.9864294,https://maps.google.com/?cid=0x0:0xc1e4ec47290edec9,
hardware store,Toko Bahan Bangunan,TB. LEBU MAS,"Jln. Sekadau Sintang, KM. 9, Desa Bokak Sebumbun, Gonis Tekam, Kec. Sekadau Hilir, Kabupaten Sekadau, Kalimantan Barat 79582","KM. 9, Desa Bokak Sebumbun, Gonis Tekam, Kec. Sekadau Hilir, Kabupaten Sekadau",KALIMANTAN BARAT,79582.0,Indonesia,82112427393.0,,,-0.0045309,110.9553172,https://maps.google.com/?cid=0x0:0x5b6d9b6975450b8c,
hardware store,Toko bahan makanan,AJK HARDWARE,"2V9M+MFP, Jl. Lintas Kalimantan Poros Tengah, Sungai Ringin, Kec. Sekadau Hilir, Kabupaten Sekadau, Kalimantan Barat 79516","Jl. Lintas Kalimantan Poros Tengah, Sungai Ringin, Kec. Sekadau Hilir, Kabupaten Sekadau",KALIMANTAN BARAT,79516.0,Indonesia,,,,0.0192064,110.883713,https://maps.google.com/?cid=0x0:0x55711d51b91cbc9b,
hardware store,Toko Bahan Bangunan,Tb. Sentosa Jaya,"2227+944, Jl. Lintas Kalimantan Poros Tengah, Gonis Tekam, Kec. Sekadau Hilir, Kabupaten Sekadau, Kalimantan Barat 79511","Jl. Lintas Kalimantan Poros Tengah, Gonis Tekam, Kec. Sekadau Hilir, Kabupaten Sekadau",KALIMANTAN BARAT,79511.0,Indonesia,82112427393.0,,,0.0008773,111.012835,https://maps.google.com/?cid=0x0:0x650bfc8fdeacb8e,
hardware store,Toko Bahan Bangunan,Tb. Maju,"simpang kayu lapis, Jl. Lintas Kalimantan Poros Tengah, Seraras, Kec. Sekadau Hilir, Kabupaten Sekadau, Kalimantan Barat","Kabupaten Sekadau, Kalimantan Barat",KALIMANTAN BARAT,,Indonesia,368898900.0,,,-0.0018969,111.0338224,https://maps.google.com/?cid=0x0:0x8985cdbc0055bc6d,
hardware store,Pusat Perbelanjaan,Khatulistiwa Store,"Jalan H. Abdurrahman Desa No.225, RT.14/RW.06, Sungai Ringin, Kec. Sekadau Hilir, Kabupaten Sekadau, Kalimantan Barat 78582","RT.14/RW.06, Sungai Ringin, Kec. Sekadau Hilir, Kabupaten Sekadau",KALIMANTAN BARAT,78582.0,Indonesia,81256195678.0,,,0.021436,110.88296,https://maps.google.com/?cid=0x0:0xb4e3674a94a8ff1b,
hardware store,Toko Perbaikan Ponsel,Hokky Elektronik,"WXJX+489, Setawar, Kec. Sekadau Hulu, Kabupaten Sekadau, Kalimantan Barat","Kabupaten Sekadau, Kalimantan Barat",KALIMANTAN BARAT,,Indonesia,,,,-0.0697175,110.9983515,https://maps.google.com/?cid=0x0:0x47cfd24d1eaff15,
hardware store,Toko Bahan Bangunan,Toko Sumber Bangunan,"2V8X+65M, Tanjung, Kec. Sekadau Hilir, Kabupaten Sekadau, Kalimantan Barat 79516","Tanjung, Kec. Sekadau Hilir, Kabupaten Sekadau",KALIMANTAN BARAT,79516.0,Indonesia,82148465985.0,,,0.0155863,110.8979276,https://maps.google.com/?cid=0x0:0xf343b77c5ff699d2,
hardware store,,Sahabat 88,"2W27+RG5, Jl. Sintang, Pal 4, Kec. Sekadau Hilir, Kabupaten Sekadau, Kalimantan Barat","Kabupaten Sekadau, Kalimantan Barat",KALIMANTAN BARAT,,Indonesia,,,,0.0020194,110.9138503,https://maps.google.com/?cid=0x0:0x2f178b18228f31bd,
hardware store,Toko Bahan Bangunan,TB. MEGA BANGUNAN,"Kompleks terminal lawang kuari no 7-B, Kabupaten Sekadau, Kalimantan Barat 79582",Kabupaten Sekadau,KALIMANTAN BARAT,79582.0,Indonesia,82153272023.0,,,0.0225329,110.8904731,https://maps.google.com/?cid=0x0:0xad8ed9e4fa734edb,
hardware store,hardware store,Kalimantan Barat 79512,"Kabupaten Sekadau, Kalimantan Barat","Kabupaten Sekadau, Kalimantan Barat",KALIMANTAN BARAT,,Indonesia,,,,0.0522503,111.0698858,https://maps.google.com/?cid=0x0:0xa07eefc27fb145e2,
hardware store,Toko Perlengkapan Rumah,MR D.I.Y Sekadau,"Jl. Merdeka Timur No.KM 2, RT.08/RW.02, Tanjung, Kec. Sekadau Hilir, Kabupaten Sekadau, Kalimantan Barat 79516","RT.08/RW.02, Tanjung, Kec. Sekadau Hilir, Kabupaten Sekadau",KALIMANTAN BARAT,79516.0,Indonesia,,,,0.0163316,110.895741,https://maps.google.com/?cid=0x0:0xd18e36f298a15001,
hardware store,Toko Bahan Bangunan,Tb. Maju,"simpang kayu lapis, Jl. Lintas Kalimantan Poros Tengah, Seraras, Kec. Sekadau Hilir, Kabupaten Sekadau, Kalimantan Barat","Kabupaten Sekadau, Kalimantan Barat",KALIMANTAN BARAT,,Indonesia,368898900.0,,,-0.0018969,111.0338224,https://maps.google.com/?cid=0x0:0x8985cdbc0055bc6d,
hardware store,Toko Bahan Bangunan,Tb. Sentosa Jaya,"2227+944, Jl. Lintas Kalimantan Poros Tengah, Gonis Tekam, Kec. Sekadau Hilir, Kabupaten Sekadau, Kalimantan Barat 79511","Jl. Lintas Kalimantan Poros Tengah, Gonis Tekam, Kec. Sekadau Hilir, Kabupaten Sekadau",KALIMANTAN BARAT,79511.0,Indonesia,82112427393.0,,,0.0008773,111.012835,https://maps.google.com/?cid=0x0:0x650bfc8fdeacb8e,
hardware store,Pusat Perbelanjaan,Khatulistiwa Store,"Jalan H. Abdurrahman Desa No.225, RT.14/RW.06, Sungai Ringin, Kec. Sekadau Hilir, Kabupaten Sekadau, Kalimantan Barat 78582","RT.14/RW.06, Sungai Ringin, Kec. Sekadau Hilir, Kabupaten Sekadau",KALIMANTAN BARAT,78582.0,Indonesia,81256195678.0,,,0.021436,110.88296,https://maps.google.com/?cid=0x0:0xb4e3674a94a8ff1b,
hardware store,Toko,Pos Daya Motor Sugai Ayak,"Jl. Ahmad Yani Rt.001 Rw.001, Kampung Baru, II, Sungaiayak Satu, Kec. Belitang Hilir, Kabupaten Sekadau, Kalimantan Barat","Kabupaten Sekadau, Kalimantan Barat",KALIMANTAN BARAT,,Indonesia,85751204187.0,,,0.1073223,111.0702712,https://maps.google.com/?cid=0x0:0x9e74abb0555636a0,
hardware store,Toko Bahan Bangunan,Toko Sumber Bangunan,"2V8X+65M, Tanjung, Kec. Sekadau Hilir, Kabupaten Sekadau, Kalimantan Barat 79516","Tanjung, Kec. Sekadau Hilir, Kabupaten Sekadau",KALIMANTAN BARAT,79516.0,Indonesia,82148465985.0,,,0.0155863,110.8979276,https://maps.google.com/?cid=0x0:0xf343b77c5ff699d2,
hardware store,,Sahabat 88,"2W27+RG5, Jl. Sintang, Pal 4, Kec. Sekadau Hilir, Kabupaten Sekadau, Kalimantan Barat","Kabupaten Sekadau, Kalimantan Barat",KALIMANTAN BARAT,,Indonesia,,,,0.0020194,110.9138503,https://maps.google.com/?cid=0x0:0x2f178b18228f31bd,
hardware store,Toko Bahan Bangunan,TB. MEGA BANGUNAN,"Kompleks terminal lawang kuari no 7-B, Kabupaten Sekadau, Kalimantan Barat 79582",Kabupaten Sekadau,KALIMANTAN BARAT,79582.0,Indonesia,82153272023.0,,,0.0225329,110.8904731,https://maps.google.com/?cid=0x0:0xad8ed9e4fa734edb,
hardware store,Toko Elektronik,Soleh cells elektronik,"5XP6+PXR, Timpuk, Kec. Sekadau Hilir, Kabupaten Sekadau, Kalimantan Barat 79514","Timpuk, Kec. Sekadau Hilir, Kabupaten Sekadau",KALIMANTAN BARAT,79514.0,Indonesia,82152773549.0,,,0.1868548,110.9623811,https://maps.google.com/?cid=0x0:0x7f1ee7002f0b150,
hardware store,Perhimpunan Pengembang Perumahan,batako penanjung,"2W45+QJJ, Jl. jembatan gantung, Mungguk, Kec. Sekadau Hilir, Kabupaten Sekadau, Kalimantan Barat 79516","Jl. jembatan gantung, Mungguk, Kec. Sekadau Hilir, Kabupaten Sekadau",KALIMANTAN BARAT,79516.0,Indonesia,85386388668.0,,,0.0069734,110.9090216,https://maps.google.com/?cid=0x0:0x86614290bd743527,
hardware store,hardware store,Kalimantan Barat 79513,"Gonis Tekam, Kec. Sekadau Hilir, Kabupaten Sekadau, Kalimantan Barat","Kabupaten Sekadau, Kalimantan Barat",KALIMANTAN BARAT,,Indonesia,,,,-0.0261051,111.1294996,https://maps.google.com/?cid=0x0:0x466181d899bb2453,
hardware store,Toko Perlengkapan Rumah,MR D.I.Y Sekadau,"Jl. Merdeka Timur No.KM 2, RT.08/RW.02, Tanjung, Kec. Sekadau Hilir, Kabupaten Sekadau, Kalimantan Barat 79516","RT.08/RW.02, Tanjung, Kec. Sekadau Hilir, Kabupaten Sekadau",KALIMANTAN BARAT,79516.0,Indonesia,,,,0.0163316,110.895741,https://maps.google.com/?cid=0x0:0xd18e36f298a15001,
hardware store,Toko bahan makanan,AJK HARDWARE,"2V9M+MFP, Jl. Lintas Kalimantan Poros Tengah, Sungai Ringin, Kec. Sekadau Hilir, Kabupaten Sekadau, Kalimantan Barat 79516","Jl. Lintas Kalimantan Poros Tengah, Sungai Ringin, Kec. Sekadau Hilir, Kabupaten Sekadau",KALIMANTAN BARAT,79516.0,Indonesia,,,,0.0192064,110.883713,https://maps.google.com/?cid=0x0:0x55711d51b91cbc9b,
hardware store,Pusat Perbelanjaan,Khatulistiwa Store,"Jalan H. Abdurrahman Desa No.225, RT.14/RW.06, Sungai Ringin, Kec. Sekadau Hilir, Kabupaten Sekadau, Kalimantan Barat 78582","RT.14/RW.06, Sungai Ringin, Kec. Sekadau Hilir, Kabupaten Sekadau",KALIMANTAN BARAT,78582.0,Indonesia,81256195678.0,,,0.021436,110.88296,https://maps.google.com/?cid=0x0:0xb4e3674a94a8ff1b,
hardware store,Toko Bahan Bangunan,Tb. Maju,"simpang kayu lapis, Jl. Lintas Kalimantan Poros Tengah, Seraras, Kec. Sekadau Hilir, Kabupaten Sekadau, Kalimantan Barat","Kabupaten Sekadau, Kalimantan Barat",KALIMANTAN BARAT,,Indonesia,368898900.0,,,-0.0018969,111.0338224,https://maps.google.com/?cid=0x0:0x8985cdbc0055bc6d,
hardware store,Toko Bahan Bangunan,Toko Sumber Bangunan,"2V8X+65M, Tanjung, Kec. Sekadau Hilir, Kabupaten Sekadau, Kalimantan Barat 79516","Tanjung, Kec. Sekadau Hilir, Kabupaten Sekadau",KALIMANTAN BARAT,79516.0,Indonesia,82148465985.0,,,0.0155863,110.8979276,https://maps.google.com/?cid=0x0:0xf343b77c5ff699d2,
hardware store,Toko Bahan Bangunan,TB. King’s Material,"2V8W+H54, Jl. Lintas Kalimantan Poros Tengah, Mungguk, Kec. Sekadau Hilir, Kabupaten Sekadau, Kalimantan Barat 79516","Jl. Lintas Kalimantan Poros Tengah, Mungguk, Kec. Sekadau Hilir, Kabupaten Sekadau",KALIMANTAN BARAT,79516.0,Indonesia,81528677088.0,,,0.0163806,110.8954592,https://maps.google.com/?cid=0x0:0x4b38b845f0dea4d9,
hardware store,Toko Elektronik,Soleh cells elektronik,"5XP6+PXR, Timpuk, Kec. Sekadau Hilir, Kabupaten Sekadau, Kalimantan Barat 79514","Timpuk, Kec. Sekadau Hilir, Kabupaten Sekadau",KALIMANTAN BARAT,79514.0,Indonesia,82152773549.0,,,0.1868548,110.9623811,https://maps.google.com/?cid=0x0:0x7f1ee7002f0b150,
hardware store,Toko Elektronik,Bang Jay Khan House,"2W23+RVJ, Mungguk, Kec. Sekadau Hilir, Kabupaten Sekadau, Kalimantan Barat 79516","Mungguk, Kec. Sekadau Hilir, Kabupaten Sekadau",KALIMANTAN BARAT,79516.0,Indonesia,85652384410.0,,,0.0020904,110.9046526,https://maps.google.com/?cid=0x0:0xbae4f242d4f0311f,
hardware store,Toko Komputer,BANDUNG KOMPUTER,"Jl. Merdeka Barat No.197, Sungai Ringin, Kec. Sekadau Hilir, Kabupaten Sekadau, Kalimantan Barat 79516","Sungai Ringin, Kec. Sekadau Hilir, Kabupaten Sekadau",KALIMANTAN BARAT,79516.0,Indonesia,81280802090.0,,,0.0181294,110.8803874,https://maps.google.com/?cid=0x0:0xa4f9ebfb75ec1564,
hardware store,hardware store,Kalimantan Barat 79514,"Kabupaten Sekadau, Kalimantan Barat","Kabupaten Sekadau, Kalimantan Barat",KALIMANTAN BARAT,,Indonesia,,,,0.1570804,110.9745074,https://maps.google.com/?cid=0x0:0x5c0d217439c4167c,
hardware store,Toko Perlengkapan Rumah,MR D.I.Y Sekadau,"Jl. Merdeka Timur No.KM 2, RT.08/RW.02, Tanjung, Kec. Sekadau Hilir, Kabupaten Sekadau, Kalimantan Barat 79516","RT.08/RW.02, Tanjung, Kec. Sekadau Hilir, Kabupaten Sekadau",KALIMANTAN BARAT,79516.0,Indonesia,,,,0.0163316,110.895741,https://maps.google.com/?cid=0x0:0xd18e36f298a15001,
hardware store,Toko bahan makanan,AJK HARDWARE,"2V9M+MFP, Jl. Lintas Kalimantan Poros Tengah, Sungai Ringin, Kec. Sekadau Hilir, Kabupaten Sekadau, Kalimantan Barat 79516","Jl. Lintas Kalimantan Poros Tengah, Sungai Ringin, Kec. Sekadau Hilir, Kabupaten Sekadau",KALIMANTAN BARAT,79516.0,Indonesia,,,,0.0192064,110.883713,https://maps.google.com/?cid=0x0:0x55711d51b91cbc9b,
hardware store,Pusat Perbelanjaan,Khatulistiwa Store,"Jalan H. Abdurrahman Desa No.225, RT.14/RW.06, Sungai Ringin, Kec. Sekadau Hilir, Kabupaten Sekadau, Kalimantan Barat 78582","RT.14/RW.06, Sungai Ringin, Kec. Sekadau Hilir, Kabupaten Sekadau",KALIMANTAN BARAT,78582.0,Indonesia,81256195678.0,,,0.021436,110.88296,https://maps.google.com/?cid=0x0:0xb4e3674a94a8ff1b,
hardware store,Toko,D'Gaffi ATK  Fotokopi,"Jalan Poros, Tigur Jaya, Kec. Sekadau Hilir, Kabupaten Sekadau, Kalimantan Barat 79582","Tigur Jaya, Kec. Sekadau Hilir, Kabupaten Sekadau",KALIMANTAN BARAT,79582.0,Indonesia,,,,0.1816493,110.9595905,https://maps.google.com/?cid=0x0:0xebcbab87a3703a43,
hardware store,Toko Bahan Bangunan,Juragan bangunan,"Jl. Merdeka Timur, Mungguk, Kec. Sekadau Hilir, Kabupaten Sekadau, Kalimantan Barat 79516","Mungguk, Kec. Sekadau Hilir, Kabupaten Sekadau",KALIMANTAN BARAT,79516.0,Indonesia,81294726166.0,,,0.0059273,110.9097231,https://maps.google.com/?cid=0x0:0xaf62c6c5d1fad000,
hardware store,Toko Bahan Bangunan,Tb. Sentosa Jaya,"2227+944, Jl. Lintas Kalimantan Poros Tengah, Gonis Tekam, Kec. Sekadau Hilir, Kabupaten Sekadau, Kalimantan Barat 79511","Jl. Lintas Kalimantan Poros Tengah, Gonis Tekam, Kec. Sekadau Hilir, Kabupaten Sekadau",KALIMANTAN BARAT,79511.0,Indonesia,82112427393.0,,,0.0008773,111.012835,https://maps.google.com/?cid=0x0:0x650bfc8fdeacb8e,
hardware store,Toko Komputer,BANDUNG KOMPUTER,"Jl. Merdeka Barat No.197, Sungai Ringin, Kec. Sekadau Hilir, Kabupaten Sekadau, Kalimantan Barat 79516","Sungai Ringin, Kec. Sekadau Hilir, Kabupaten Sekadau",KALIMANTAN BARAT,79516.0,Indonesia,81280802090.0,,,0.0181294,110.8803874,https://maps.google.com/?cid=0x0:0xa4f9ebfb75ec1564,
hardware store,Toko Komputer,Neo Computer,"Jl. Merdeka Timur No.Km.2, Mungguk, Kec. Sekadau Hilir, Kabupaten Sekadau, Kalimantan Barat 79582","Mungguk, Kec. Sekadau Hilir, Kabupaten Sekadau",KALIMANTAN BARAT,79582.0,Indonesia,81352442659.0,,,0.0136929,110.901182,https://maps.google.com/?cid=0x0:0xa63bf66d47ac78dd,
hardware store,Toko,Pos Daya Motor Sugai Ayak,"Jl. Ahmad Yani Rt.001 Rw.001, Kampung Baru, II, Sungaiayak Satu, Kec. Belitang Hilir, Kabupaten Sekadau, Kalimantan Barat","Kabupaten Sekadau, Kalimantan Barat",KALIMANTAN BARAT,,Indonesia,85751204187.0,,,0.1073223,111.0702712,https://maps.google.com/?cid=0x0:0x9e74abb0555636a0,
hardware store,hardware store,Kalimantan Barat 79515,"Kec. Sekadau Hilir, Kabupaten Sekadau, Kalimantan Barat","Kabupaten Sekadau, Kalimantan Barat",KALIMANTAN BARAT,,Indonesia,,,,0.0872098,110.9268201,https://maps.google.com/?cid=0x0:0x85a84b3f51cece76,
hardware store,Toko Bahan Bangunan,TB. LEBU MAS,"Jln. Sekadau Sintang, KM. 9, Desa Bokak Sebumbun, Gonis Tekam, Kec. Sekadau Hilir, Kabupaten Sekadau, Kalimantan Barat 79582","KM. 9, Desa Bokak Sebumbun, Gonis Tekam, Kec. Sekadau Hilir, Kabupaten Sekadau",KALIMANTAN BARAT,79582.0,Indonesia,82112427393.0,,,-0.0045309,110.9553172,https://maps.google.com/?cid=0x0:0x5b6d9b6975450b8c,
hardware store,Toko bahan makanan,AJK HARDWARE,"2V9M+MFP, Jl. Lintas Kalimantan Poros Tengah, Sungai Ringin, Kec. Sekadau Hilir, Kabupaten Sekadau, Kalimantan Barat 79516","Jl. Lintas Kalimantan Poros Tengah, Sungai Ringin, Kec. Sekadau Hilir, Kabupaten Sekadau",KALIMANTAN BARAT,79516.0,Indonesia,,,,0.0192064,110.883713,https://maps.google.com/?cid=0x0:0x55711d51b91cbc9b,
hardware store,Toko Bahan Bangunan,Toko Bangunan Bintang Harapan,"2V9R+HQP, Jl. Merdeka Timur, Sungai Ringin, Kec. Sekadau Hilir, Kabupaten Sekadau, Kalimantan Barat 79516","Jl. Merdeka Timur, Sungai Ringin, Kec. Sekadau Hilir, Kabupaten Sekadau",KALIMANTAN BARAT,79516.0,Indonesia,82112427393.0,,,0.0189636,110.891959,https://maps.google.com/?cid=0x0:0xf09f7c6ab52b8686,
hardware store,Toko Bahan Bangunan,TB. Aneka Bangunan,"Jl. Merdeka Timur No.19, Tanjung, Kec. Sekadau Hilir, Kabupaten Sekadau, Kalimantan Barat 79516","Tanjung, Kec. Sekadau Hilir, Kabupaten Sekadau",KALIMANTAN BARAT,79516.0,Indonesia,83121529590.0,,,0.014094,110.9008095,https://maps.google.com/?cid=0x0:0xa9a5f01fcbddf99a,
hardware store,Toko Bahan Bangunan,Juragan bangunan,"Jl. Merdeka Timur, Mungguk, Kec. Sekadau Hilir, Kabupaten Sekadau, Kalimantan Barat 79516","Mungguk, Kec. Sekadau Hilir, Kabupaten Sekadau",KALIMANTAN BARAT,79516.0,Indonesia,81294726166.0,,,0.0059273,110.9097231,https://maps.google.com/?cid=0x0:0xaf62c6c5d1fad000,
hardware store,Toko Bahan Bangunan,Toko Sumber Bangunan,"2V8X+65M, Tanjung, Kec. Sekadau Hilir, Kabupaten Sekadau, Kalimantan Barat 79516","Tanjung, Kec. Sekadau Hilir, Kabupaten Sekadau",KALIMANTAN BARAT,79516.0,Indonesia,82148465985.0,,,0.0155863,110.8979276,https://maps.google.com/?cid=0x0:0xf343b77c5ff699d2,
hardware store,Pusat Perbelanjaan,Khatulistiwa Store,"Jalan H. Abdurrahman Desa No.225, RT.14/RW.06, Sungai Ringin, Kec. Sekadau Hilir, Kabupaten Sekadau, Kalimantan Barat 78582","RT.14/RW.06, Sungai Ringin, Kec. Sekadau Hilir, Kabupaten Sekadau",KALIMANTAN BARAT,78582.0,Indonesia,81256195678.0,,,0.021436,110.88296,https://maps.google.com/?cid=0x0:0xb4e3674a94a8ff1b,
hardware store,Toko Bahan Bangunan,Tb. Sentosa Jaya,"2227+944, Jl. Lintas Kalimantan Poros Tengah, Gonis Tekam, Kec. Sekadau Hilir, Kabupaten Sekadau, Kalimantan Barat 79511","Jl. Lintas Kalimantan Poros Tengah, Gonis Tekam, Kec. Sekadau Hilir, Kabupaten Sekadau",KALIMANTAN BARAT,79511.0,Indonesia,82112427393.0,,,0.0008773,111.012835,https://maps.google.com/?cid=0x0:0x650bfc8fdeacb8e,
hardware store,Toko Bahan Bangunan,Tb. Jaya makmur,"2VFR+FRX, Sungai Ringin, Kec. Sekadau Hilir, Kabupaten Sekadau, Kalimantan Barat 79516","Sungai Ringin, Kec. Sekadau Hilir, Kabupaten Sekadau",KALIMANTAN BARAT,79516.0,Indonesia,82112427393.0,,,0.0237486,110.8919901,https://maps.google.com/?cid=0x0:0x30f83cdbd0797d88,
hardware store,hardware store,Kalimantan Barat 79516,"Kec. Sekadau Hilir, Kabupaten Sekadau, Kalimantan Barat","Kabupaten Sekadau, Kalimantan Barat",KALIMANTAN BARAT,,Indonesia,,,,-0.034875,110.8552919,https://maps.google.com/?cid=0x0:0x3010e80426de42c5,
hardware store,Toko bahan makanan,AJK HARDWARE,"2V9M+MFP, Jl. Lintas Kalimantan Poros Tengah, Sungai Ringin, Kec. Sekadau Hilir, Kabupaten Sekadau, Kalimantan Barat 79516","Jl. Lintas Kalimantan Poros Tengah, Sungai Ringin, Kec. Sekadau Hilir, Kabupaten Sekadau",KALIMANTAN BARAT,79516.0,Indonesia,,,,0.0192064,110.883713,https://maps.google.com/?cid=0x0:0x55711d51b91cbc9b,
hardware store,Toko Perlengkapan Rumah,MR D.I.Y Sekadau,"Jl. Merdeka Timur No.KM 2, RT.08/RW.02, Tanjung, Kec. Sekadau Hilir, Kabupaten Sekadau, Kalimantan Barat 79516","RT.08/RW.02, Tanjung, Kec. Sekadau Hilir, Kabupaten Sekadau",KALIMANTAN BARAT,79516.0,Indonesia,,,,0.0163316,110.895741,https://maps.google.com/?cid=0x0:0xd18e36f298a15001,
hardware store,Toko Bahan Bangunan,Juragan bangunan,"Jl. Merdeka Timur, Mungguk, Kec. Sekadau Hilir, Kabupaten Sekadau, Kalimantan Barat 79516","Mungguk, Kec. Sekadau Hilir, Kabupaten Sekadau",KALIMANTAN BARAT,79516.0,Indonesia,81294726166.0,,,0.0059273,110.9097231,https://maps.google.com/?cid=0x0:0xaf62c6c5d1fad000,
hardware store,Toko Bahan Bangunan,TB. LEBU MAS,"Jln. Sekadau Sintang, KM. 9, Desa Bokak Sebumbun, Gonis Tekam, Kec. Sekadau Hilir, Kabupaten Sekadau, Kalimantan Barat 79582","KM. 9, Desa Bokak Sebumbun, Gonis Tekam, Kec. Sekadau Hilir, Kabupaten Sekadau",KALIMANTAN BARAT,79582.0,Indonesia,82112427393.0,,,-0.0045309,110.9553172,https://maps.google.com/?cid=0x0:0x5b6d9b6975450b8c,
hardware store,Toko Bahan Bangunan,TB. Aneka Bangunan,"Jl. Merdeka Timur No.19, Tanjung, Kec. Sekadau Hilir, Kabupaten Sekadau, Kalimantan Barat 79516","Tanjung, Kec. Sekadau Hilir, Kabupaten Sekadau",KALIMANTAN BARAT,79516.0,Indonesia,83121529590.0,,,0.014094,110.9008095,https://maps.google.com/?cid=0x0:0xa9a5f01fcbddf99a,
hardware store,Pusat Perbelanjaan,Khatulistiwa Store,"Jalan H. Abdurrahman Desa No.225, RT.14/RW.06, Sungai Ringin, Kec. Sekadau Hilir, Kabupaten Sekadau, Kalimantan Barat 78582","RT.14/RW.06, Sungai Ringin, Kec. Sekadau Hilir, Kabupaten Sekadau",KALIMANTAN BARAT,78582.0,Indonesia,81256195678.0,,,0.021436,110.88296,https://maps.google.com/?cid=0x0:0xb4e3674a94a8ff1b,
hardware store,Toko Bahan Bangunan,Tb. Jaya makmur,"2VFR+FRX, Sungai Ringin, Kec. Sekadau Hilir, Kabupaten Sekadau, Kalimantan Barat 79516","Sungai Ringin, Kec. Sekadau Hilir, Kabupaten Sekadau",KALIMANTAN BARAT,79516.0,Indonesia,82112427393.0,,,0.0237486,110.8919901,https://maps.google.com/?cid=0x0:0x30f83cdbd0797d88,
hardware store,Toko Bahan Bangunan,TB. King’s Material,"2V8W+H54, Jl. Lintas Kalimantan Poros Tengah, Mungguk, Kec. Sekadau Hilir, Kabupaten Sekadau, Kalimantan Barat 79516","Jl. Lintas Kalimantan Poros Tengah, Mungguk, Kec. Sekadau Hilir, Kabupaten Sekadau",KALIMANTAN BARAT,79516.0,Indonesia,81528677088.0,,,0.0163806,110.8954592,https://maps.google.com/?cid=0x0:0x4b38b845f0dea4d9,
hardware store,Toko Bahan Bangunan,Toko Sumber Bangunan,"2V8X+65M, Tanjung, Kec. Sekadau Hilir, Kabupaten Sekadau, Kalimantan Barat 79516","Tanjung, Kec. Sekadau Hilir, Kabupaten Sekadau",KALIMANTAN BARAT,79516.0,Indonesia,82148465985.0,,,0.0155863,110.8979276,https://maps.google.com/?cid=0x0:0xf343b77c5ff699d2,
hardware store,Toko Bahan Bangunan,TB. MEGA BANGUNAN,"Kompleks terminal lawang kuari no 7-B, Kabupaten Sekadau, Kalimantan Barat 79582",Kabupaten Sekadau,KALIMANTAN BARAT,79582.0,Indonesia,82153272023.0,,,0.0225329,110.8904731,https://maps.google.com/?cid=0x0:0xad8ed9e4fa734edb,
hardware store,,Sahabat 88,"2W27+RG5, Jl. Sintang, Pal 4, Kec. Sekadau Hilir, Kabupaten Sekadau, Kalimantan Barat","Kabupaten Sekadau, Kalimantan Barat",KALIMANTAN BARAT,,Indonesia,,,,0.0020194,110.9138503,https://maps.google.com/?cid=0x0:0x2f178b18228f31bd,
hardware store,Toko Komputer,BANDUNG KOMPUTER,"Jl. Merdeka Barat No.197, Sungai Ringin, Kec. Sekadau Hilir, Kabupaten Sekadau, Kalimantan Barat 79516","Sungai Ringin, Kec. Sekadau Hilir, Kabupaten Sekadau",KALIMANTAN BARAT,79516.0,Indonesia,81280802090.0,,,0.0181294,110.8803874,https://maps.google.com/?cid=0x0:0xa4f9ebfb75ec1564,
hardware store,Pemasok Bahan Bangunan,Toko Bangunan Mega Jaya,"XQVR+XGH, Jl. Lintas Kalimantan Poros Tengah, Peniti, Kec. Sekadau Hilir, Kabupaten Sekadau, Kalimantan Barat 78581","Jl. Lintas Kalimantan Poros Tengah, Peniti, Kec. Sekadau Hilir, Kabupaten Sekadau",KALIMANTAN BARAT,78581.0,Indonesia,85269235972.0,,,-0.0050709,110.7913518,https://maps.google.com/?cid=0x0:0x749207113a93e106,
hardware store,Toko Elektronik,SP4@NET,"XR6R+G85, Sungai Ringin, Kec. Sekadau Hilir, Kabupaten Sekadau, Kalimantan Barat 79516","Sungai Ringin, Kec. Sekadau Hilir, Kabupaten Sekadau",KALIMANTAN BARAT,79516.0,Indonesia,82148496649.0,,,-0.0387438,110.8408559,https://maps.google.com/?cid=0x0:0x36fa24dbf9a63d79,
hardware store,Toko Kelontong Asia,Tb. Sinar pulau,"VR7X+VP8, Rawak Hulu, Kec. Sekadau Hulu, Kabupaten Sekadau, Kalimantan Barat","Kabupaten Sekadau, Kalimantan Barat",KALIMANTAN BARAT,,Indonesia,,,,-0.1353355,110.8493314,https://maps.google.com/?cid=0x0:0xd798c5e085db9238,
hardware store,Perhimpunan Pengembang Perumahan,batako penanjung,"2W45+QJJ, Jl. jembatan gantung, Mungguk, Kec. Sekadau Hilir, Kabupaten Sekadau, Kalimantan Barat 79516","Jl. jembatan gantung, Mungguk, Kec. Sekadau Hilir, Kabupaten Sekadau",KALIMANTAN BARAT,79516.0,Indonesia,85386388668.0,,,0.0069734,110.9090216,https://maps.google.com/?cid=0x0:0x86614290bd743527,
hardware store,Toko Sepatu,PARSHA STORE,"Jl. Mawar Pasar No.58, Sungai Ringin, Kec. Sekadau Hilir, Kabupaten Sekadau, Kalimantan Barat 79516","Sungai Ringin, Kec. Sekadau Hilir, Kabupaten Sekadau",KALIMANTAN BARAT,79516.0,Indonesia,,,,0.0240978,110.8910552,https://maps.google.com/?cid=0x0:0x6d65c5cb1d8323e6,
hardware store,Dealer Sepeda Motor,Daya Motor Sekadau,"Jl. Merdeka Timur, Mungguk, Kec. Sekadau Hilir, Kabupaten Sekadau, Kalimantan Barat 79516","Mungguk, Kec. Sekadau Hilir, Kabupaten Sekadau",KALIMANTAN BARAT,79516.0,Indonesia,81545584383.0,,,0.0161087,110.8962888,https://maps.google.com/?cid=0x0:0x93803df453460fdd,
hardware store,hardware store,Kalimantan Barat 79582,"Kabupaten Sekadau, Kalimantan Barat","Kabupaten Sekadau, Kalimantan Barat",KALIMANTAN BARAT,,Indonesia,,,,-0.0522503,111.0698858,https://maps.google.com/?cid=0x0:0xd2d3b52d3579742e,
hardware store,Toko Bahan Bangunan,TB. LEBU MAS,"Jln. Sekadau Sintang, KM. 9, Desa Bokak Sebumbun, Gonis Tekam, Kec. Sekadau Hilir, Kabupaten Sekadau, Kalimantan Barat 79582","KM. 9, Desa Bokak Sebumbun, Gonis Tekam, Kec. Sekadau Hilir, Kabupaten Sekadau",KALIMANTAN BARAT,79582.0,Indonesia,82112427393.0,,,-0.0045309,110.9553172,https://maps.google.com/?cid=0x0:0x5b6d9b6975450b8c,
hardware store,Toko Perlengkapan Rumah,MR D.I.Y Sekadau,"Jl. Merdeka Timur No.KM 2, RT.08/RW.02, Tanjung, Kec. Sekadau Hilir, Kabupaten Sekadau, Kalimantan Barat 79516","RT.08/RW.02, Tanjung, Kec. Sekadau Hilir, Kabupaten Sekadau",KALIMANTAN BARAT,79516.0,Indonesia,,,,0.0163316,110.895741,https://maps.google.com/?cid=0x0:0xd18e36f298a15001,
hardware store,Toko Bahan Bangunan,Juragan bangunan,"Jl. Merdeka Timur, Mungguk, Kec. Sekadau Hilir, Kabupaten Sekadau, Kalimantan Barat 79516","Mungguk, Kec. Sekadau Hilir, Kabupaten Sekadau",KALIMANTAN BARAT,79516.0,Indonesia,81294726166.0,,,0.0059273,110.9097231,https://maps.google.com/?cid=0x0:0xaf62c6c5d1fad000,
hardware store,Toko Bahan Bangunan,TB. Aneka Bangunan,"Jl. Merdeka Timur No.19, Tanjung, Kec. Sekadau Hilir, Kabupaten Sekadau, Kalimantan Barat 79516","Tanjung, Kec. Sekadau Hilir, Kabupaten Sekadau",KALIMANTAN BARAT,79516.0,Indonesia,83121529590.0,,,0.014094,110.9008095,https://maps.google.com/?cid=0x0:0xa9a5f01fcbddf99a,
hardware store,Toko Bahan Bangunan,Toko Bangunan Bintang Harapan,"2V9R+HQP, Jl. Merdeka Timur, Sungai Ringin, Kec. Sekadau Hilir, Kabupaten Sekadau, Kalimantan Barat 79516","Jl. Merdeka Timur, Sungai Ringin, Kec. Sekadau Hilir, Kabupaten Sekadau",KALIMANTAN BARAT,79516.0,Indonesia,82112427393.0,,,0.0189636,110.891959,https://maps.google.com/?cid=0x0:0xf09f7c6ab52b8686,
hardware store,Toko Bahan Bangunan,Tb. Sentosa Jaya,"2227+944, Jl. Lintas Kalimantan Poros Tengah, Gonis Tekam, Kec. Sekadau Hilir, Kabupaten Sekadau, Kalimantan Barat 79511","Jl. Lintas Kalimantan Poros Tengah, Gonis Tekam, Kec. Sekadau Hilir, Kabupaten Sekadau",KALIMANTAN BARAT,79511.0,Indonesia,82112427393.0,,,0.0008773,111.012835,https://maps.google.com/?cid=0x0:0x650bfc8fdeacb8e,
hardware store,Pusat Perbelanjaan,Khatulistiwa Store,"Jalan H. Abdurrahman Desa No.225, RT.14/RW.06, Sungai Ringin, Kec. Sekadau Hilir, Kabupaten Sekadau, Kalimantan Barat 78582","RT.14/RW.06, Sungai Ringin, Kec. Sekadau Hilir, Kabupaten Sekadau",KALIMANTAN BARAT,78582.0,Indonesia,81256195678.0,,,0.021436,110.88296,https://maps.google.com/?cid=0x0:0xb4e3674a94a8ff1b,
hardware store,Toko Bahan Bangunan,Tb. Maju,"simpang kayu lapis, Jl. Lintas Kalimantan Poros Tengah, Seraras, Kec. Sekadau Hilir, Kabupaten Sekadau, Kalimantan Barat","Kabupaten Sekadau, Kalimantan Barat",KALIMANTAN BARAT,,Indonesia,368898900.0,,,-0.0018969,111.0338224,https://maps.google.com/?cid=0x0:0x8985cdbc0055bc6d,
hardware store,Toko Bahan Bangunan,Tb. Jaya makmur,"2VFR+FRX, Sungai Ringin, Kec. Sekadau Hilir, Kabupaten Sekadau, Kalimantan Barat 79516","Sungai Ringin, Kec. Sekadau Hilir, Kabupaten Sekadau",KALIMANTAN BARAT,79516.0,Indonesia,82112427393.0,,,0.0237486,110.8919901,https://maps.google.com/?cid=0x0:0x30f83cdbd0797d88,
hardware store,Toko Perbaikan Ponsel,Hokky Elektronik,"WXJX+489, Setawar, Kec. Sekadau Hulu, Kabupaten Sekadau, Kalimantan Barat","Kabupaten Sekadau, Kalimantan Barat",KALIMANTAN BARAT,,Indonesia,,,,-0.0697175,110.9983515,https://maps.google.com/?cid=0x0:0x47cfd24d1eaff15,
hardware store,Toko Bahan Bangunan,TB. King’s Material,"2V8W+H54, Jl. Lintas Kalimantan Poros Tengah, Mungguk, Kec. Sekadau Hilir, Kabupaten Sekadau, Kalimantan Barat 79516","Jl. Lintas Kalimantan Poros Tengah, Mungguk, Kec. Sekadau Hilir, Kabupaten Sekadau",KALIMANTAN BARAT,79516.0,Indonesia,81528677088.0,,,0.0163806,110.8954592,https://maps.google.com/?cid=0x0:0x4b38b845f0dea4d9,
hardware store,Toko Kelontong Asia,Tb. Sinar pulau,"VR7X+VP8, Rawak Hulu, Kec. Sekadau Hulu, Kabupaten Sekadau, Kalimantan Barat","Kabupaten Sekadau, Kalimantan Barat",KALIMANTAN BARAT,,Indonesia,,,,-0.1353355,110.8493314,https://maps.google.com/?cid=0x0:0xd798c5e085db9238,
hardware store,hardware store,Kalimantan Barat 79583,"Kec. Sekadau Hulu, Kabupaten Sekadau, Kalimantan Barat","Kabupaten Sekadau, Kalimantan Barat",KALIMANTAN BARAT,,Indonesia,,,,-0.174604,110.9506636,https://maps.google.com/?cid=0x0:0xf36139f714788db6,
hardware store,Toko bahan makanan,AJK HARDWARE,"2V9M+MFP, Jl. Lintas Kalimantan Poros Tengah, Sungai Ringin, Kec. Sekadau Hilir, Kabupaten Sekadau, Kalimantan Barat 79516","Jl. Lintas Kalimantan Poros Tengah, Sungai Ringin, Kec. Sekadau Hilir, Kabupaten Sekadau",KALIMANTAN BARAT,79516.0,Indonesia,,,,0.0192064,110.883713,https://maps.google.com/?cid=0x0:0x55711d51b91cbc9b,
hardware store,Toko Bahan Bangunan,TB. LEBU MAS,"Jln. Sekadau Sintang, KM. 9, Desa Bokak Sebumbun, Gonis Tekam, Kec. Sekadau Hilir, Kabupaten Sekadau, Kalimantan Barat 79582","KM. 9, Desa Bokak Sebumbun, Gonis Tekam, Kec. Sekadau Hilir, Kabupaten Sekadau",KALIMANTAN BARAT,79582.0,Indonesia,82112427393.0,,,-0.0045309,110.9553172,https://maps.google.com/?cid=0x0:0x5b6d9b6975450b8c,
hardware store,Toko Perbaikan Ponsel,Hokky Elektronik,"WXJX+489, Setawar, Kec. Sekadau Hulu, Kabupaten Sekadau, Kalimantan Barat","Kabupaten Sekadau, Kalimantan Barat",KALIMANTAN BARAT,,Indonesia,,,,-0.0697175,110.9983515,https://maps.google.com/?cid=0x0:0x47cfd24d1eaff15,
hardware store,Toko Perlengkapan Rumah,MR D.I.Y Sekadau,"Jl. Merdeka Timur No.KM 2, RT.08/RW.02, Tanjung, Kec. Sekadau Hilir, Kabupaten Sekadau, Kalimantan Barat 79516","RT.08/RW.02, Tanjung, Kec. Sekadau Hilir, Kabupaten Sekadau",KALIMANTAN BARAT,79516.0,Indonesia,,,,0.0163316,110.895741,https://maps.google.com/?cid=0x0:0xd18e36f298a15001,
hardware store,Pusat Perbelanjaan,Toko Bangunan Surya Baru II,"Nanga Taman, Kec. Nanga Taman, Kabupaten Sekadau, Kalimantan Barat 79584","Kec. Nanga Taman, Kabupaten Sekadau",KALIMANTAN BARAT,79584.0,Indonesia,82254132893.0,,,-0.2649349,110.8198589,https://maps.google.com/?cid=0x0:0x32beeb0bcae69b41,
hardware store,Pusat Perbelanjaan,Khatulistiwa Store,"Jalan H. Abdurrahman Desa No.225, RT.14/RW.06, Sungai Ringin, Kec. Sekadau Hilir, Kabupaten Sekadau, Kalimantan Barat 78582","RT.14/RW.06, Sungai Ringin, Kec. Sekadau Hilir, Kabupaten Sekadau",KALIMANTAN BARAT,78582.0,Indonesia,81256195678.0,,,0.021436,110.88296,https://maps.google.com/?cid=0x0:0xb4e3674a94a8ff1b,
hardware store,Toko Elektronik,SP4@NET,"XR6R+G85, Sungai Ringin, Kec. Sekadau Hilir, Kabupaten Sekadau, Kalimantan Barat 79516","Sungai Ringin, Kec. Sekadau Hilir, Kabupaten Sekadau",KALIMANTAN BARAT,79516.0,Indonesia,82148496649.0,,,-0.0387438,110.8408559,https://maps.google.com/?cid=0x0:0x36fa24dbf9a63d79,
hardware store,Toko Perlengkapan Rumah,Tb. Sukses jaya88,"Jalan. Raya No.38, Nanga Taman, Kec. Nanga Taman, Kabupaten Sekadau, Kalimantan Barat 79584","Nanga Taman, Kec. Nanga Taman, Kabupaten Sekadau",KALIMANTAN BARAT,79584.0,Indonesia,,,,-0.2635729,110.8204233,https://maps.google.com/?cid=0x0:0x57c32d2aa6667cc6,
hardware store,Toko Bahan Bangunan,Juragan bangunan,"Jl. Merdeka Timur, Mungguk, Kec. Sekadau Hilir, Kabupaten Sekadau, Kalimantan Barat 79516","Mungguk, Kec. Sekadau Hilir, Kabupaten Sekadau",KALIMANTAN BARAT,79516.0,Indonesia,81294726166.0,,,0.0059273,110.9097231,https://maps.google.com/?cid=0x0:0xaf62c6c5d1fad000,
hardware store,Toko Alat Tulis Kantor,Toko ATK BANZA,"Jl. Merdeka Selatan, Rawak Hulu, Kec. Sekadau Hulu, Kabupaten Sekadau, Kalimantan Barat 79583","Rawak Hulu, Kec. Sekadau Hulu, Kabupaten Sekadau",KALIMANTAN BARAT,79583.0,Indonesia,81352010669.0,,,-0.1382493,110.8750822,https://maps.google.com/?cid=0x0:0x524d1dc11aeaab,
hardware store,Pemasok Bahan Bangunan,Toko Bangunan Mega Jaya,"XQVR+XGH, Jl. Lintas Kalimantan Poros Tengah, Peniti, Kec. Sekadau Hilir, Kabupaten Sekadau, Kalimantan Barat 78581","Jl. Lintas Kalimantan Poros Tengah, Peniti, Kec. Sekadau Hilir, Kabupaten Sekadau",KALIMANTAN BARAT,78581.0,Indonesia,85269235972.0,,,-0.0050709,110.7913518,https://maps.google.com/?cid=0x0:0x749207113a93e106,
hardware store,Toko Bahan Bangunan,Tb. Maju,"simpang kayu lapis, Jl. Lintas Kalimantan Poros Tengah, Seraras, Kec. Sekadau Hilir, Kabupaten Sekadau, Kalimantan Barat","Kabupaten Sekadau, Kalimantan Barat",KALIMANTAN BARAT,,Indonesia,368898900.0,,,-0.0018969,111.0338224,https://maps.google.com/?cid=0x0:0x8985cdbc0055bc6d,
building materials,Toko Bahan Bangunan,TB. MANDIRI JAYA M@rt,"55HQ+2Q4, Padak, Kec. Belitang, Kabupaten Sekadau, Kalimantan Barat 79586","Padak, Kec. Belitang, Kabupaten Sekadau",KALIMANTAN BARAT,79586.0,Indonesia,81352651888.0,,,0.1775221,111.1894676,https://maps.google.com/?cid=0x0:0x5a5404f56706d4b0,
building materials,building materials,Kalimantan Barat 79588,"Kec. Belitang, Kabupaten Sekadau, Kalimantan Barat","Kabupaten Sekadau, Kalimantan Barat",KALIMANTAN BARAT,,Indonesia,,,,0.2617615,111.2129616,https://maps.google.com/?cid=0x0:0x5479f9f1b87cf60,
building materials,Toko Bahan Bangunan,TB. MANDIRI JAYA M@rt,"55HQ+2Q4, Padak, Kec. Belitang, Kabupaten Sekadau, Kalimantan Barat 79586","Padak, Kec. Belitang, Kabupaten Sekadau",KALIMANTAN BARAT,79586.0,Indonesia,81352651888.0,,,0.1775221,111.1894676,https://maps.google.com/?cid=0x0:0x5a5404f56706d4b0,
building materials,building materials,Toko SERBA INDAH JAYA,"55HQ+CM3, Jln poros sp 2, maboh permai, Kec. Belitang, Kabupaten Sekadau, Kalimantan Barat 79586","Jln poros sp 2, maboh permai, Kec. Belitang, Kabupaten Sekadau",KALIMANTAN BARAT,79586.0,Indonesia,,,,0.1784828,111.1891712,https://maps.google.com/?cid=0x0:0x9321b8cee08204e1,
building materials,Toko,mulya bahagia,"65R9+856, Padak, Kec. Belitang, Kabupaten Sekadau, Kalimantan Barat 79586","Padak, Kec. Belitang, Kabupaten Sekadau",KALIMANTAN BARAT,79586.0,Indonesia,82255250033.0,,,0.2407929,111.1678785,https://maps.google.com/?cid=0x0:0x5f93ea7518f2ee26,
building materials,Toko Bahan Bangunan,Toko Bangunan,"C6V4+93R, Balai Sepuak, Kec. Belitang Hulu, Kabupaten Sekadau, Kalimantan Barat 79587","Balai Sepuak, Kec. Belitang Hulu, Kabupaten Sekadau",KALIMANTAN BARAT,79587.0,Indonesia,82148443343.0,,,0.4434764,111.205151,https://maps.google.com/?cid=0x0:0x149755029affad68,
building materials,Jasa Konstruksi dan Bangunan,Bengkel Las Sumber Rejeki,"DS kebaong sp3, Padak, Kec. Belitang, Kabupaten Sekadau, Kalimantan Barat","Kabupaten Sekadau, Kalimantan Barat",KALIMANTAN BARAT,,Indonesia,81345335262.0,,,0.2347202,111.1663017,https://maps.google.com/?cid=0x0:0xb7ef1289b949b91c,
building materials,Toko Bahan Bangunan,Toko Bintang Mitra,"C6V4+823, Balai Sepuak, Kec. Belitang Hulu, Kabupaten Sekadau, Kalimantan Barat 79587","Balai Sepuak, Kec. Belitang Hulu, Kabupaten Sekadau",KALIMANTAN BARAT,79587.0,Indonesia,82148443343.0,,,0.4432604,111.2050615,https://maps.google.com/?cid=0x0:0xaaea75055964c59b,
building materials,building materials,Tb. Serba Indah,"4328+7CM, Jl. Dr. Sutomo, Sungai Ayak III, Kec. Belitang Hilir, Kabupaten Sekadau, Kalimantan Barat 79512","Jl. Dr. Sutomo, Sungai Ayak III, Kec. Belitang Hilir, Kabupaten Sekadau",KALIMANTAN BARAT,79512.0,Indonesia,,,,0.1007037,111.0660505,https://maps.google.com/?cid=0x0:0x63ca35f0fe9c15d1,
building materials,,MET LAST,"4359+C28, Sungai Ayak III, Kec. Belitang Hilir, Kabupaten Sekadau, Kalimantan Barat 79512","Sungai Ayak III, Kec. Belitang Hilir, Kabupaten Sekadau",KALIMANTAN BARAT,79512.0,Indonesia,82255250000.0,,,0.1085493,111.0675851,https://maps.google.com/?cid=0x0:0xeb61fe97bcc7d0d9,
building materials,building materials,Kalimantan Barat 79586,"Kec. Belitang Hilir, Kabupaten Sekadau, Kalimantan Barat","Kabupaten Sekadau, Kalimantan Barat",KALIMANTAN BARAT,,Indonesia,,,,0.1743805,111.1414226,https://maps.google.com/?cid=0x0:0x959d1847699c643e,
building materials,Toko Bahan Bangunan,TB. MANDIRI JAYA M@rt,"55HQ+2Q4, Padak, Kec. Belitang, Kabupaten Sekadau, Kalimantan Barat 79586","Padak, Kec. Belitang, Kabupaten Sekadau",KALIMANTAN BARAT,79586.0,Indonesia,81352651888.0,,,0.1775221,111.1894676,https://maps.google.com/?cid=0x0:0x5a5404f56706d4b0,
building materials,building materials,Toko SERBA INDAH JAYA,"55HQ+CM3, Jln poros sp 2, maboh permai, Kec. Belitang, Kabupaten Sekadau, Kalimantan Barat 79586","Jln poros sp 2, maboh permai, Kec. Belitang, Kabupaten Sekadau",KALIMANTAN BARAT,79586.0,Indonesia,,,,0.1784828,111.1891712,https://maps.google.com/?cid=0x0:0x9321b8cee08204e1,
building materials,Toko,mulya bahagia,"65R9+856, Padak, Kec. Belitang, Kabupaten Sekadau, Kalimantan Barat 79586","Padak, Kec. Belitang, Kabupaten Sekadau",KALIMANTAN BARAT,79586.0,Indonesia,82255250033.0,,,0.2407929,111.1678785,https://maps.google.com/?cid=0x0:0x5f93ea7518f2ee26,
building materials,building materials,Tb. Serba Indah,"4328+7CM, Jl. Dr. Sutomo, Sungai Ayak III, Kec. Belitang Hilir, Kabupaten Sekadau, Kalimantan Barat 79512","Jl. Dr. Sutomo, Sungai Ayak III, Kec. Belitang Hilir, Kabupaten Sekadau",KALIMANTAN BARAT,79512.0,Indonesia,,,,0.1007037,111.0660505,https://maps.google.com/?cid=0x0:0x63ca35f0fe9c15d1,
building materials,,MET LAST,"4359+C28, Sungai Ayak III, Kec. Belitang Hilir, Kabupaten Sekadau, Kalimantan Barat 79512","Sungai Ayak III, Kec. Belitang Hilir, Kabupaten Sekadau",KALIMANTAN BARAT,79512.0,Indonesia,82255250000.0,,,0.1085493,111.0675851,https://maps.google.com/?cid=0x0:0xeb61fe97bcc7d0d9,
building materials,Toko Bahan Bangunan,Toko Bintang Mitra,"C6V4+823, Balai Sepuak, Kec. Belitang Hulu, Kabupaten Sekadau, Kalimantan Barat 79587","Balai Sepuak, Kec. Belitang Hulu, Kabupaten Sekadau",KALIMANTAN BARAT,79587.0,Indonesia,82148443343.0,,,0.4432604,111.2050615,https://maps.google.com/?cid=0x0:0xaaea75055964c59b,
building materials,building materials,Kec. Belitang Hilir,"Kabupaten Sekadau, Kalimantan Barat","Kabupaten Sekadau, Kalimantan Barat",KALIMANTAN BARAT,,Indonesia,,,,0.0980656,111.0653322,https://maps.google.com/?cid=0x0:0x5c2b47d87bfca300,
building materials,Toko Bahan Bangunan,Toko Bangunan,"C6V4+93R, Balai Sepuak, Kec. Belitang Hulu, Kabupaten Sekadau, Kalimantan Barat 79587","Balai Sepuak, Kec. Belitang Hulu, Kabupaten Sekadau",KALIMANTAN BARAT,79587.0,Indonesia,82148443343.0,,,0.4434764,111.205151,https://maps.google.com/?cid=0x0:0x149755029affad68,
building materials,building materials,Kalimantan Barat 79587,"Kec. Belitang Hulu, Kabupaten Sekadau, Kalimantan Barat","Kabupaten Sekadau, Kalimantan Barat",KALIMANTAN BARAT,,Indonesia,,,,0.5256764,111.1414226,https://maps.google.com/?cid=0x0:0x33292d03494f6bcb,
building materials,Toko Bahan Bangunan,Toko Bangunan,"C6V4+93R, Balai Sepuak, Kec. Belitang Hulu, Kabupaten Sekadau, Kalimantan Barat 79587","Balai Sepuak, Kec. Belitang Hulu, Kabupaten Sekadau",KALIMANTAN BARAT,79587.0,Indonesia,82148443343.0,,,0.4434764,111.205151,https://maps.google.com/?cid=0x0:0x149755029affad68,
building materials,Toko Bahan Bangunan,Toko Bintang Mitra,"C6V4+823, Balai Sepuak, Kec. Belitang Hulu, Kabupaten Sekadau, Kalimantan Barat 79587","Balai Sepuak, Kec. Belitang Hulu, Kabupaten Sekadau",KALIMANTAN BARAT,79587.0,Indonesia,82148443343.0,,,0.4432604,111.2050615,https://maps.google.com/?cid=0x0:0xaaea75055964c59b,
building materials,Toko Bahan Bangunan,KJB (KANCAI JAYA BATAKO ),"HQ84+6W2, Jl. M Ali dsn Sekitak Permai, Batu Pahat, Kec. Nanga Mahap, Kabupaten Sekadau, Kalimantan Barat 79585","Jl. M Ali dsn Sekitak Permai, Batu Pahat, Kec. Nanga Mahap, Kabupaten Sekadau",KALIMANTAN BARAT,79585.0,Indonesia,82358987771.0,,,-0.4344815,110.7572803,https://maps.google.com/?cid=0x0:0x9eea0457a5e7863b,
building materials,Toko Bahan Bangunan,Toko era jaya,"HQH5+54W, Jl. Jend. Sudirman, Nanga Mahap, Kec. Nanga Mahap, Kabupaten Sekadau, Kalimantan Barat 79584","Jl. Jend. Sudirman, Nanga Mahap, Kec. Nanga Mahap, Kabupaten Sekadau",KALIMANTAN BARAT,79584.0,Indonesia,88856094686.0,,,-0.4220037,110.7578159,https://maps.google.com/?cid=0x0:0xdf0f9d1016358b26,
building materials,Toko Bahan Bangunan,TB. MANDIRI JAYA M@rt,"55HQ+2Q4, Padak, Kec. Belitang, Kabupaten Sekadau, Kalimantan Barat 79586","Padak, Kec. Belitang, Kabupaten Sekadau",KALIMANTAN BARAT,79586.0,Indonesia,81352651888.0,,,0.1775221,111.1894676,https://maps.google.com/?cid=0x0:0x5a5404f56706d4b0,
building materials,Pemasok Bahan Bangunan,Toko Bangunan Mega Jaya,"XQVR+XGH, Jl. Lintas Kalimantan Poros Tengah, Peniti, Kec. Sekadau Hilir, Kabupaten Sekadau, Kalimantan Barat 78581","Jl. Lintas Kalimantan Poros Tengah, Peniti, Kec. Sekadau Hilir, Kabupaten Sekadau",KALIMANTAN BARAT,78581.0,Indonesia,85269235972.0,,,-0.0050709,110.7913518,https://maps.google.com/?cid=0x0:0x749207113a93e106,
building materials,Pemasok Bahan Bangunan,Tb. Usman Batako,"Jl. Lintas Kalimantan Poros Tengah No.KM. 14, Peniti, Kec. Sekadau Hilir, Kabupaten Sekadau, Kalimantan Barat 78581","Peniti, Kec. Sekadau Hilir, Kabupaten Sekadau",KALIMANTAN BARAT,78581.0,Indonesia,,,,-0.0150405,110.7982319,https://maps.google.com/?cid=0x0:0xfdf9f611351573b6,
building materials,Toko Bahan Bangunan,TB. King’s Material,"2V8W+H54, Jl. Lintas Kalimantan Poros Tengah, Mungguk, Kec. Sekadau Hilir, Kabupaten Sekadau, Kalimantan Barat 79516","Jl. Lintas Kalimantan Poros Tengah, Mungguk, Kec. Sekadau Hilir, Kabupaten Sekadau",KALIMANTAN BARAT,79516.0,Indonesia,81528677088.0,,,0.0163806,110.8954592,https://maps.google.com/?cid=0x0:0x4b38b845f0dea4d9,
building materials,Toko Bahan Bangunan,Percetakan liss gibsun,"5W7Q+525, RT.SP/RW.3, Timpuk, Kec. Sekadau Hilir, Kabupaten Sekadau, Kalimantan Barat 79514","RT.SP/RW.3, Timpuk, Kec. Sekadau Hilir, Kabupaten Sekadau",KALIMANTAN BARAT,79514.0,Indonesia,85705194152.0,,,0.1628918,110.9376215,https://maps.google.com/?cid=0x0:0x7d3d78cce466ec75,
building materials,Toko Bahan Bangunan,Toko Mak Ambon,"3W78+9P, Tanjung, Kec. Sekadau Hilir, Kabupaten Sekadau, Kalimantan Barat","Kabupaten Sekadau, Kalimantan Barat",KALIMANTAN BARAT,,Indonesia,,,,0.0633803,110.916806,https://maps.google.com/?cid=0x0:0xa45b199c5c0a8850,
building materials,building materials,Kalimantan Barat 79585,"Kec. Nanga Mahap, Kabupaten Sekadau, Kalimantan Barat","Kabupaten Sekadau, Kalimantan Barat",KALIMANTAN BARAT,,Indonesia,,,,-0.5270182,110.7599266,https://maps.google.com/?cid=0x0:0x130fcb733de732c5,
building materials,Toko Bahan Bangunan,Toko era jaya,"HQH5+54W, Jl. Jend. Sudirman, Nanga Mahap, Kec. Nanga Mahap, Kabupaten Sekadau, Kalimantan Barat 79584","Jl. Jend. Sudirman, Nanga Mahap, Kec. Nanga Mahap, Kabupaten Sekadau",KALIMANTAN BARAT,79584.0,Indonesia,88856094686.0,,,-0.4220037,110.7578159,https://maps.google.com/?cid=0x0:0xdf0f9d1016358b26,
building materials,Toko Bahan Bangunan,toko bangunan maju jaya,"HQF6+26W, Nanga Suri, Kec. Nanga Mahap, Kabupaten Sekadau, Kalimantan Barat 79584","Nanga Suri, Kec. Nanga Mahap, Kabupaten Sekadau",KALIMANTAN BARAT,79584.0,Indonesia,,,,-0.427012,110.7610282,https://maps.google.com/?cid=0x0:0x5899fa2762c1b5ff,
building materials,building materials,Kalimantan Barat 79584,"Kec. Nanga Taman, Kabupaten Sekadau, Kalimantan Barat","Kabupaten Sekadau, Kalimantan Barat",KALIMANTAN BARAT,,Indonesia,,,,-0.3150976,110.8552919,https://maps.google.com/?cid=0x0:0x2c4ea8235cb520a3,
building materials,Toko Bahan Bangunan,Toko era jaya,"HQH5+54W, Jl. Jend. Sudirman, Nanga Mahap, Kec. Nanga Mahap, Kabupaten Sekadau, Kalimantan Barat 79584","Jl. Jend. Sudirman, Nanga Mahap, Kec. Nanga Mahap, Kabupaten Sekadau",KALIMANTAN BARAT,79584.0,Indonesia,88856094686.0,,,-0.4220037,110.7578159,https://maps.google.com/?cid=0x0:0xdf0f9d1016358b26,
building materials,Toko Bahan Bangunan,toko bangunan maju jaya,"HQF6+26W, Nanga Suri, Kec. Nanga Mahap, Kabupaten Sekadau, Kalimantan Barat 79584","Nanga Suri, Kec. Nanga Mahap, Kabupaten Sekadau",KALIMANTAN BARAT,79584.0,Indonesia,,,,-0.427012,110.7610282,https://maps.google.com/?cid=0x0:0x5899fa2762c1b5ff,
building materials,Toko Bahan Bangunan,KJB (KANCAI JAYA BATAKO ),"HQ84+6W2, Jl. M Ali dsn Sekitak Permai, Batu Pahat, Kec. Nanga Mahap, Kabupaten Sekadau, Kalimantan Barat 79585","Jl. M Ali dsn Sekitak Permai, Batu Pahat, Kec. Nanga Mahap, Kabupaten Sekadau",KALIMANTAN BARAT,79585.0,Indonesia,82358987771.0,,,-0.4344815,110.7572803,https://maps.google.com/?cid=0x0:0x9eea0457a5e7863b,
building materials,Pusat Perbelanjaan,Toko Bangunan Surya Baru II,"Nanga Taman, Kec. Nanga Taman, Kabupaten Sekadau, Kalimantan Barat 79584","Kec. Nanga Taman, Kabupaten Sekadau",KALIMANTAN BARAT,79584.0,Indonesia,82254132893.0,,,-0.2649349,110.8198589,https://maps.google.com/?cid=0x0:0x32beeb0bcae69b41,
building materials,building materials,Kalimantan Barat 79511,"Kec. Sekadau Hilir, Kabupaten Sekadau, Kalimantan Barat","Kabupaten Sekadau, Kalimantan Barat",KALIMANTAN BARAT,,Indonesia,,,,-0.0087079,110.9864294,https://maps.google.com/?cid=0x0:0xc1e4ec47290edec9,
building materials,Toko Bahan Bangunan,Tb. Sentosa Jaya,"2227+944, Jl. Lintas Kalimantan Poros Tengah, Gonis Tekam, Kec. Sekadau Hilir, Kabupaten Sekadau, Kalimantan Barat 79511","Jl. Lintas Kalimantan Poros Tengah, Gonis Tekam, Kec. Sekadau Hilir, Kabupaten Sekadau",KALIMANTAN BARAT,79511.0,Indonesia,,,,0.0008773,111.012835,https://maps.google.com/?cid=0x0:0x650bfc8fdeacb8e,
building materials,Toko Bahan Bangunan,TB. LEBU MAS,"Jln. Sekadau Sintang, KM. 9, Desa Bokak Sebumbun, Gonis Tekam, Kec. Sekadau Hilir, Kabupaten Sekadau, Kalimantan Barat 79582","KM. 9, Desa Bokak Sebumbun, Gonis Tekam, Kec. Sekadau Hilir, Kabupaten Sekadau",KALIMANTAN BARAT,79582.0,Indonesia,81252351946.0,,,-0.0045309,110.9553172,https://maps.google.com/?cid=0x0:0x5b6d9b6975450b8c,
building materials,Toko Perlengkapan Rumah,Tk. DOMINIC,"X2XM+4WQ, Seraras, Kec. Sekadau Hilir, Kabupaten Sekadau, Kalimantan Barat 79582","Seraras, Kec. Sekadau Hilir, Kabupaten Sekadau",KALIMANTAN BARAT,79582.0,Indonesia,,,,-0.0021642,111.034864,https://maps.google.com/?cid=0x0:0x1b00500d1282b45e,
building materials,Perhimpunan Pengembang Perumahan,batako penanjung,"2W45+QJJ, Jl. jembatan gantung, Mungguk, Kec. Sekadau Hilir, Kabupaten Sekadau, Kalimantan Barat 79516","Jl. jembatan gantung, Mungguk, Kec. Sekadau Hilir, Kabupaten Sekadau",KALIMANTAN BARAT,79516.0,Indonesia,85386388668.0,,,0.0069734,110.9090216,https://maps.google.com/?cid=0x0:0x86614290bd743527,
building materials,Pemasok Bahan Bangunan,"Pangkalan Pasir BERONA""""","2W44+23V, Mungguk, Kec. Sekadau Hilir, Kabupaten Sekadau, Kalimantan Barat 79516","Mungguk, Kec. Sekadau Hilir, Kabupaten Sekadau",KALIMANTAN BARAT,79516.0,Indonesia,85245440005.0,,,0.0051165,110.9051814,https://maps.google.com/?cid=0x0:0x5497333eba2c9f36,
building materials,Toko Bahan Bangunan,Juragan bangunan,"Jl. Merdeka Timur, Mungguk, Kec. Sekadau Hilir, Kabupaten Sekadau, Kalimantan Barat 79516","Mungguk, Kec. Sekadau Hilir, Kabupaten Sekadau",KALIMANTAN BARAT,79516.0,Indonesia,81294726166.0,,,0.0059273,110.9097231,https://maps.google.com/?cid=0x0:0xaf62c6c5d1fad000,
building materials,Toko Bahan Bangunan,TB. MEGA BANGUNAN,"Kompleks terminal lawang kuari no 7-B, Kabupaten Sekadau, Kalimantan Barat 79582",Kabupaten Sekadau,KALIMANTAN BARAT,79582.0,Indonesia,82153272023.0,,,0.0225329,110.8904731,https://maps.google.com/?cid=0x0:0xad8ed9e4fa734edb,
building materials,Toko Perbaikan Ponsel,Hokky Elektronik,"WXJX+489, Setawar, Kec. Sekadau Hulu, Kabupaten Sekadau, Kalimantan Barat","Kabupaten Sekadau, Kalimantan Barat",KALIMANTAN BARAT,,Indonesia,,,,-0.0697175,110.9983515,https://maps.google.com/?cid=0x0:0x47cfd24d1eaff15,
building materials,Toko Bahan Bangunan,Toko Sumber Bangunan,"2V8X+65M, Tanjung, Kec. Sekadau Hilir, Kabupaten Sekadau, Kalimantan Barat 79516","Tanjung, Kec. Sekadau Hilir, Kabupaten Sekadau",KALIMANTAN BARAT,79516.0,Indonesia,81779308518.0,,,0.0155863,110.8979276,https://maps.google.com/?cid=0x0:0xf343b77c5ff699d2,
building materials,,Sahabat 88,"2W27+RG5, Jl. Sintang, Pal 4, Kec. Sekadau Hilir, Kabupaten Sekadau, Kalimantan Barat","Kabupaten Sekadau, Kalimantan Barat",KALIMANTAN BARAT,,Indonesia,,,,0.0020194,110.9138503,https://maps.google.com/?cid=0x0:0x2f178b18228f31bd,
building materials,Toko Bahan Bangunan,TB. Aneka Bangunan,"Jl. Merdeka Timur No.19, Tanjung, Kec. Sekadau Hilir, Kabupaten Sekadau, Kalimantan Barat 79516","Tanjung, Kec. Sekadau Hilir, Kabupaten Sekadau",KALIMANTAN BARAT,79516.0,Indonesia,85386784887.0,,,0.014094,110.9008095,https://maps.google.com/?cid=0x0:0xa9a5f01fcbddf99a,
building materials,Pemasok Bahan Bangunan,Bata pres maju jaya,"mbah paryadi, Blok 6, Engkersik, Kec. Sekadau Hilir, Kabupaten Sekadau, Kalimantan Barat 79282","Blok 6, Engkersik, Kec. Sekadau Hilir, Kabupaten Sekadau",KALIMANTAN BARAT,79282.0,Indonesia,81348460630.0,,,-0.0787091,111.0764492,https://maps.google.com/?cid=0x0:0xf49193b17b355a17,
building materials,Toko Bahan Bangunan,TB. King’s Material,"2V8W+H54, Jl. Lintas Kalimantan Poros Tengah, Mungguk, Kec. Sekadau Hilir, Kabupaten Sekadau, Kalimantan Barat 79516","Jl. Lintas Kalimantan Poros Tengah, Mungguk, Kec. Sekadau Hilir, Kabupaten Sekadau",KALIMANTAN BARAT,79516.0,Indonesia,81528677088.0,,,0.0163806,110.8954592,https://maps.google.com/?cid=0x0:0x4b38b845f0dea4d9,
building materials,building materials,Tb. Serba Indah,"4328+7CM, Jl. Dr. Sutomo, Sungai Ayak III, Kec. Belitang Hilir, Kabupaten Sekadau, Kalimantan Barat 79512","Jl. Dr. Sutomo, Sungai Ayak III, Kec. Belitang Hilir, Kabupaten Sekadau",KALIMANTAN BARAT,79512.0,Indonesia,,,,0.1007037,111.0660505,https://maps.google.com/?cid=0x0:0x63ca35f0fe9c15d1,
building materials,building materials,Kalimantan Barat 79512,"Kabupaten Sekadau, Kalimantan Barat","Kabupaten Sekadau, Kalimantan Barat",KALIMANTAN BARAT,,Indonesia,,,,0.0522503,111.0698858,https://maps.google.com/?cid=0x0:0xa07eefc27fb145e2,
building materials,building materials,Tb. Serba Indah,"4328+7CM, Jl. Dr. Sutomo, Sungai Ayak III, Kec. Belitang Hilir, Kabupaten Sekadau, Kalimantan Barat 79512","Jl. Dr. Sutomo, Sungai Ayak III, Kec. Belitang Hilir, Kabupaten Sekadau",KALIMANTAN BARAT,79512.0,Indonesia,,,,0.1007037,111.0660505,https://maps.google.com/?cid=0x0:0x63ca35f0fe9c15d1,
building materials,Toko Bahan Bangunan,Tb. Maju,"simpang kayu lapis, Jl. Lintas Kalimantan Poros Tengah, Seraras, Kec. Sekadau Hilir, Kabupaten Sekadau, Kalimantan Barat","Kabupaten Sekadau, Kalimantan Barat",KALIMANTAN BARAT,,Indonesia,368898900.0,,,-0.0018969,111.0338224,https://maps.google.com/?cid=0x0:0x8985cdbc0055bc6d,
building materials,Toko Bahan Bangunan,Tb. Sentosa Jaya,"2227+944, Jl. Lintas Kalimantan Poros Tengah, Gonis Tekam, Kec. Sekadau Hilir, Kabupaten Sekadau, Kalimantan Barat 79511","Jl. Lintas Kalimantan Poros Tengah, Gonis Tekam, Kec. Sekadau Hilir, Kabupaten Sekadau",KALIMANTAN BARAT,79511.0,Indonesia,,,,0.0008773,111.012835,https://maps.google.com/?cid=0x0:0x650bfc8fdeacb8e,
building materials,,MET LAST,"4359+C28, Sungai Ayak III, Kec. Belitang Hilir, Kabupaten Sekadau, Kalimantan Barat 79512","Sungai Ayak III, Kec. Belitang Hilir, Kabupaten Sekadau",KALIMANTAN BARAT,79512.0,Indonesia,82255250000.0,,,0.1085493,111.0675851,https://maps.google.com/?cid=0x0:0xeb61fe97bcc7d0d9,
building materials,Toko Bahan Bangunan,TB. MEGA BANGUNAN,"Kompleks terminal lawang kuari no 7-B, Kabupaten Sekadau, Kalimantan Barat 79582",Kabupaten Sekadau,KALIMANTAN BARAT,79582.0,Indonesia,82153272023.0,,,0.0225329,110.8904731,https://maps.google.com/?cid=0x0:0xad8ed9e4fa734edb,
building materials,Toko Bahan Bangunan,Toko Sumber Bangunan,"2V8X+65M, Tanjung, Kec. Sekadau Hilir, Kabupaten Sekadau, Kalimantan Barat 79516","Tanjung, Kec. Sekadau Hilir, Kabupaten Sekadau",KALIMANTAN BARAT,79516.0,Indonesia,81779308518.0,,,0.0155863,110.8979276,https://maps.google.com/?cid=0x0:0xf343b77c5ff699d2,
building materials,building materials,Kalimantan Barat 79513,"Gonis Tekam, Kec. Sekadau Hilir, Kabupaten Sekadau, Kalimantan Barat","Kabupaten Sekadau, Kalimantan Barat",KALIMANTAN BARAT,,Indonesia,,,,-0.0261051,111.1294996,https://maps.google.com/?cid=0x0:0x466181d899bb2453,
building materials,Pemasok Bahan Bangunan,Bata pres maju jaya,"mbah paryadi, Blok 6, Engkersik, Kec. Sekadau Hilir, Kabupaten Sekadau, Kalimantan Barat 79282","Blok 6, Engkersik, Kec. Sekadau Hilir, Kabupaten Sekadau",KALIMANTAN BARAT,79282.0,Indonesia,81348460630.0,,,-0.0787091,111.0764492,https://maps.google.com/?cid=0x0:0xf49193b17b355a17,
building materials,Toko Bahan Bangunan,TB. MEGA BANGUNAN,"Kompleks terminal lawang kuari no 7-B, Kabupaten Sekadau, Kalimantan Barat 79582",Kabupaten Sekadau,KALIMANTAN BARAT,79582.0,Indonesia,82153272023.0,,,0.0225329,110.8904731,https://maps.google.com/?cid=0x0:0xad8ed9e4fa734edb,
building materials,Toko Bahan Bangunan,Toko Sumber Bangunan,"2V8X+65M, Tanjung, Kec. Sekadau Hilir, Kabupaten Sekadau, Kalimantan Barat 79516","Tanjung, Kec. Sekadau Hilir, Kabupaten Sekadau",KALIMANTAN BARAT,79516.0,Indonesia,81779308518.0,,,0.0155863,110.8979276,https://maps.google.com/?cid=0x0:0xf343b77c5ff699d2,
building materials,Toko Perlengkapan Rumah,Tk. DOMINIC,"X2XM+4WQ, Seraras, Kec. Sekadau Hilir, Kabupaten Sekadau, Kalimantan Barat 79582","Seraras, Kec. Sekadau Hilir, Kabupaten Sekadau",KALIMANTAN BARAT,79582.0,Indonesia,,,,-0.0021642,111.034864,https://maps.google.com/?cid=0x0:0x1b00500d1282b45e,
building materials,Perhimpunan Pengembang Perumahan,batako penanjung,"2W45+QJJ, Jl. jembatan gantung, Mungguk, Kec. Sekadau Hilir, Kabupaten Sekadau, Kalimantan Barat 79516","Jl. jembatan gantung, Mungguk, Kec. Sekadau Hilir, Kabupaten Sekadau",KALIMANTAN BARAT,79516.0,Indonesia,85386388668.0,,,0.0069734,110.9090216,https://maps.google.com/?cid=0x0:0x86614290bd743527,
building materials,Toko Bahan Bangunan,Tb. Maju,"simpang kayu lapis, Jl. Lintas Kalimantan Poros Tengah, Seraras, Kec. Sekadau Hilir, Kabupaten Sekadau, Kalimantan Barat","Kabupaten Sekadau, Kalimantan Barat",KALIMANTAN BARAT,,Indonesia,368898900.0,,,-0.0018969,111.0338224,https://maps.google.com/?cid=0x0:0x8985cdbc0055bc6d,
building materials,Toko Bahan Bangunan,TB. Aneka Bangunan,"Jl. Merdeka Timur No.19, Tanjung, Kec. Sekadau Hilir, Kabupaten Sekadau, Kalimantan Barat 79516","Tanjung, Kec. Sekadau Hilir, Kabupaten Sekadau",KALIMANTAN BARAT,79516.0,Indonesia,85386784887.0,,,0.014094,110.9008095,https://maps.google.com/?cid=0x0:0xa9a5f01fcbddf99a,
building materials,Pemasok Bahan Bangunan,"Pangkalan Pasir BERONA""""","2W44+23V, Mungguk, Kec. Sekadau Hilir, Kabupaten Sekadau, Kalimantan Barat 79516","Mungguk, Kec. Sekadau Hilir, Kabupaten Sekadau",KALIMANTAN BARAT,79516.0,Indonesia,85245440005.0,,,0.0051165,110.9051814,https://maps.google.com/?cid=0x0:0x5497333eba2c9f36,
building materials,Toko Bahan Bangunan,TB. LEBU MAS,"Jln. Sekadau Sintang, KM. 9, Desa Bokak Sebumbun, Gonis Tekam, Kec. Sekadau Hilir, Kabupaten Sekadau, Kalimantan Barat 79582","KM. 9, Desa Bokak Sebumbun, Gonis Tekam, Kec. Sekadau Hilir, Kabupaten Sekadau",KALIMANTAN BARAT,79582.0,Indonesia,81252351946.0,,,-0.0045309,110.9553172,https://maps.google.com/?cid=0x0:0x5b6d9b6975450b8c,
building materials,Toko Bahan Bangunan,TB. King’s Material,"2V8W+H54, Jl. Lintas Kalimantan Poros Tengah, Mungguk, Kec. Sekadau Hilir, Kabupaten Sekadau, Kalimantan Barat 79516","Jl. Lintas Kalimantan Poros Tengah, Mungguk, Kec. Sekadau Hilir, Kabupaten Sekadau",KALIMANTAN BARAT,79516.0,Indonesia,81528677088.0,,,0.0163806,110.8954592,https://maps.google.com/?cid=0x0:0x4b38b845f0dea4d9,
building materials,Toko Bahan Bangunan,TB. MANDIRI JAYA M@rt,"55HQ+2Q4, Padak, Kec. Belitang, Kabupaten Sekadau, Kalimantan Barat 79586","Padak, Kec. Belitang, Kabupaten Sekadau",KALIMANTAN BARAT,79586.0,Indonesia,81352651888.0,,,0.1775221,111.1894676,https://maps.google.com/?cid=0x0:0x5a5404f56706d4b0,
building materials,Toko Bahan Bangunan,Tb. Jaya makmur,"2VFR+FRX, Sungai Ringin, Kec. Sekadau Hilir, Kabupaten Sekadau, Kalimantan Barat 79516","Sungai Ringin, Kec. Sekadau Hilir, Kabupaten Sekadau",KALIMANTAN BARAT,79516.0,Indonesia,,,,0.0237486,110.8919901,https://maps.google.com/?cid=0x0:0x30f83cdbd0797d88,
building materials,building materials,Kec. Sekadau Hilir,"Kabupaten Sekadau, Kalimantan Barat","Kabupaten Sekadau, Kalimantan Barat",KALIMANTAN BARAT,,Indonesia,,,,0.0208984,110.8898607,https://maps.google.com/?cid=0x0:0x187df437780cb40c,
building materials,Pemasok Bahan Bangunan,Toko Bangunan Mega Jaya,"XQVR+XGH, Jl. Lintas Kalimantan Poros Tengah, Peniti, Kec. Sekadau Hilir, Kabupaten Sekadau, Kalimantan Barat 78581","Jl. Lintas Kalimantan Poros Tengah, Peniti, Kec. Sekadau Hilir, Kabupaten Sekadau",KALIMANTAN BARAT,78581.0,Indonesia,85269235972.0,,,-0.0050709,110.7913518,https://maps.google.com/?cid=0x0:0x749207113a93e106,
building materials,building materials,TB TREE JAYA SEKADAU,"2VFR+45Q, Sungai Ringin, Kec. Sekadau Hilir, Kabupaten Sekadau, Kalimantan Barat","Kabupaten Sekadau, Kalimantan Barat",KALIMANTAN BARAT,,Indonesia,,,,0.0228381,110.8904966,https://maps.google.com/?cid=0x0:0xfd76b9c4e01a2661,
building materials,,Sahabat 88,"2W27+RG5, Jl. Sintang, Pal 4, Kec. Sekadau Hilir, Kabupaten Sekadau, Kalimantan Barat","Kabupaten Sekadau, Kalimantan Barat",KALIMANTAN BARAT,,Indonesia,,,,0.0020194,110.9138503,https://maps.google.com/?cid=0x0:0x2f178b18228f31bd,
building materials,Toko Bahan Bangunan,Juragan bangunan,"Jl. Merdeka Timur, Mungguk, Kec. Sekadau Hilir, Kabupaten Sekadau, Kalimantan Barat 79516","Mungguk, Kec. Sekadau Hilir, Kabupaten Sekadau",KALIMANTAN BARAT,79516.0,Indonesia,81294726166.0,,,0.0059273,110.9097231,https://maps.google.com/?cid=0x0:0xaf62c6c5d1fad000,
building materials,Toko Bahan Bangunan,Toko Bangunan Bintang Harapan,"2V9R+HQP, Jl. Merdeka Timur, Sungai Ringin, Kec. Sekadau Hilir, Kabupaten Sekadau, Kalimantan Barat 79516","Jl. Merdeka Timur, Sungai Ringin, Kec. Sekadau Hilir, Kabupaten Sekadau",KALIMANTAN BARAT,79516.0,Indonesia,56441016.0,,,0.0189636,110.891959,https://maps.google.com/?cid=0x0:0xf09f7c6ab52b8686,
building materials,Toko Bahan Bangunan,Toko Mak Ambon,"3W78+9P, Tanjung, Kec. Sekadau Hilir, Kabupaten Sekadau, Kalimantan Barat","Kabupaten Sekadau, Kalimantan Barat",KALIMANTAN BARAT,,Indonesia,,,,0.0633803,110.916806,https://maps.google.com/?cid=0x0:0xa45b199c5c0a8850,
building materials,building materials,Tb. Jaya Abadi,"Mungguk, Kec. Sekadau Hilir, Kabupaten Sekadau, Kalimantan Barat","Kabupaten Sekadau, Kalimantan Barat",KALIMANTAN BARAT,,Indonesia,,,,0.0127638,110.9045846,https://maps.google.com/?cid=0x0:0x2ddf928471242be4,
building materials,Pemasok Bahan Bangunan,Tb. Usman Batako,"Jl. Lintas Kalimantan Poros Tengah No.KM. 14, Peniti, Kec. Sekadau Hilir, Kabupaten Sekadau, Kalimantan Barat 78581","Peniti, Kec. Sekadau Hilir, Kabupaten Sekadau",KALIMANTAN BARAT,78581.0,Indonesia,,,,-0.0150405,110.7982319,https://maps.google.com/?cid=0x0:0xfdf9f611351573b6,
building materials,building materials,Kalimantan Barat 79514,"Kabupaten Sekadau, Kalimantan Barat","Kabupaten Sekadau, Kalimantan Barat",KALIMANTAN BARAT,,Indonesia,,,,0.1570804,110.9745074,https://maps.google.com/?cid=0x0:0x5c0d217439c4167c,
building materials,Toko Bahan Bangunan,TB. MEGA BANGUNAN,"Kompleks terminal lawang kuari no 7-B, Kabupaten Sekadau, Kalimantan Barat 79582",Kabupaten Sekadau,KALIMANTAN BARAT,79582.0,Indonesia,82153272023.0,,,0.0225329,110.8904731,https://maps.google.com/?cid=0x0:0xad8ed9e4fa734edb,
building materials,Toko Bahan Bangunan,Percetakan liss gibsun,"5W7Q+525, RT.SP/RW.3, Timpuk, Kec. Sekadau Hilir, Kabupaten Sekadau, Kalimantan Barat 79514","RT.SP/RW.3, Timpuk, Kec. Sekadau Hilir, Kabupaten Sekadau",KALIMANTAN BARAT,79514.0,Indonesia,85705194152.0,,,0.1628918,110.9376215,https://maps.google.com/?cid=0x0:0x7d3d78cce466ec75,
building materials,Toko Bahan Bangunan,TB. Aneka Bangunan,"Jl. Merdeka Timur No.19, Tanjung, Kec. Sekadau Hilir, Kabupaten Sekadau, Kalimantan Barat 79516","Tanjung, Kec. Sekadau Hilir, Kabupaten Sekadau",KALIMANTAN BARAT,79516.0,Indonesia,85386784887.0,,,0.014094,110.9008095,https://maps.google.com/?cid=0x0:0xa9a5f01fcbddf99a,
building materials,Perhimpunan Pengembang Perumahan,batako penanjung,"2W45+QJJ, Jl. jembatan gantung, Mungguk, Kec. Sekadau Hilir, Kabupaten Sekadau, Kalimantan Barat 79516","Jl. jembatan gantung, Mungguk, Kec. Sekadau Hilir, Kabupaten Sekadau",KALIMANTAN BARAT,79516.0,Indonesia,85386388668.0,,,0.0069734,110.9090216,https://maps.google.com/?cid=0x0:0x86614290bd743527,
building materials,Pemasok Bahan Bangunan,"Pangkalan Pasir BERONA""""","2W44+23V, Mungguk, Kec. Sekadau Hilir, Kabupaten Sekadau, Kalimantan Barat 79516","Mungguk, Kec. Sekadau Hilir, Kabupaten Sekadau",KALIMANTAN BARAT,79516.0,Indonesia,85245440005.0,,,0.0051165,110.9051814,https://maps.google.com/?cid=0x0:0x5497333eba2c9f36,
building materials,Toko Bahan Bangunan,TB. King’s Material,"2V8W+H54, Jl. Lintas Kalimantan Poros Tengah, Mungguk, Kec. Sekadau Hilir, Kabupaten Sekadau, Kalimantan Barat 79516","Jl. Lintas Kalimantan Poros Tengah, Mungguk, Kec. Sekadau Hilir, Kabupaten Sekadau",KALIMANTAN BARAT,79516.0,Indonesia,81528677088.0,,,0.0163806,110.8954592,https://maps.google.com/?cid=0x0:0x4b38b845f0dea4d9,
building materials,building materials,Tb. Serba Indah,"4328+7CM, Jl. Dr. Sutomo, Sungai Ayak III, Kec. Belitang Hilir, Kabupaten Sekadau, Kalimantan Barat 79512","Jl. Dr. Sutomo, Sungai Ayak III, Kec. Belitang Hilir, Kabupaten Sekadau",KALIMANTAN BARAT,79512.0,Indonesia,,,,0.1007037,111.0660505,https://maps.google.com/?cid=0x0:0x63ca35f0fe9c15d1,
building materials,Toko Bahan Bangunan,Juragan bangunan,"Jl. Merdeka Timur, Mungguk, Kec. Sekadau Hilir, Kabupaten Sekadau, Kalimantan Barat 79516","Mungguk, Kec. Sekadau Hilir, Kabupaten Sekadau",KALIMANTAN BARAT,79516.0,Indonesia,81294726166.0,,,0.0059273,110.9097231,https://maps.google.com/?cid=0x0:0xaf62c6c5d1fad000,
building materials,,MET LAST,"4359+C28, Sungai Ayak III, Kec. Belitang Hilir, Kabupaten Sekadau, Kalimantan Barat 79512","Sungai Ayak III, Kec. Belitang Hilir, Kabupaten Sekadau",KALIMANTAN BARAT,79512.0,Indonesia,82255250000.0,,,0.1085493,111.0675851,https://maps.google.com/?cid=0x0:0xeb61fe97bcc7d0d9,
building materials,Toko Bahan Bangunan,Tb. Jaya makmur,"2VFR+FRX, Sungai Ringin, Kec. Sekadau Hilir, Kabupaten Sekadau, Kalimantan Barat 79516","Sungai Ringin, Kec. Sekadau Hilir, Kabupaten Sekadau",KALIMANTAN BARAT,79516.0,Indonesia,,,,0.0237486,110.8919901,https://maps.google.com/?cid=0x0:0x30f83cdbd0797d88,
building materials,Toko Bahan Bangunan,Tb. Sentosa Jaya,"2227+944, Jl. Lintas Kalimantan Poros Tengah, Gonis Tekam, Kec. Sekadau Hilir, Kabupaten Sekadau, Kalimantan Barat 79511","Jl. Lintas Kalimantan Poros Tengah, Gonis Tekam, Kec. Sekadau Hilir, Kabupaten Sekadau",KALIMANTAN BARAT,79511.0,Indonesia,,,,0.0008773,111.012835,https://maps.google.com/?cid=0x0:0x650bfc8fdeacb8e,
building materials,Toko Bahan Bangunan,Toko Mak Ambon,"3W78+9P, Tanjung, Kec. Sekadau Hilir, Kabupaten Sekadau, Kalimantan Barat","Kabupaten Sekadau, Kalimantan Barat",KALIMANTAN BARAT,,Indonesia,,,,0.0633803,110.916806,https://maps.google.com/?cid=0x0:0xa45b199c5c0a8850,
building materials,Toko Bahan Bangunan,TB. MANDIRI JAYA M@rt,"55HQ+2Q4, Padak, Kec. Belitang, Kabupaten Sekadau, Kalimantan Barat 79586","Padak, Kec. Belitang, Kabupaten Sekadau",KALIMANTAN BARAT,79586.0,Indonesia,81352651888.0,,,0.1775221,111.1894676,https://maps.google.com/?cid=0x0:0x5a5404f56706d4b0,
building materials,,Sahabat 88,"2W27+RG5, Jl. Sintang, Pal 4, Kec. Sekadau Hilir, Kabupaten Sekadau, Kalimantan Barat","Kabupaten Sekadau, Kalimantan Barat",KALIMANTAN BARAT,,Indonesia,,,,0.0020194,110.9138503,https://maps.google.com/?cid=0x0:0x2f178b18228f31bd,
building materials,building materials,TB TREE JAYA SEKADAU,"2VFR+45Q, Sungai Ringin, Kec. Sekadau Hilir, Kabupaten Sekadau, Kalimantan Barat","Kabupaten Sekadau, Kalimantan Barat",KALIMANTAN BARAT,,Indonesia,,,,0.0228381,110.8904966,https://maps.google.com/?cid=0x0:0xfd76b9c4e01a2661,
building materials,building materials,Kalimantan Barat 79515,"Kec. Sekadau Hilir, Kabupaten Sekadau, Kalimantan Barat","Kabupaten Sekadau, Kalimantan Barat",KALIMANTAN BARAT,,Indonesia,,,,0.0872098,110.9268201,https://maps.google.com/?cid=0x0:0x85a84b3f51cece76,
building materials,Toko Bahan Bangunan,TB. MEGA BANGUNAN,"Kompleks terminal lawang kuari no 7-B, Kabupaten Sekadau, Kalimantan Barat 79582",Kabupaten Sekadau,KALIMANTAN BARAT,79582.0,Indonesia,82153272023.0,,,0.0225329,110.8904731,https://maps.google.com/?cid=0x0:0xad8ed9e4fa734edb,
building materials,Toko Bahan Bangunan,TB. LEBU MAS,"Jln. Sekadau Sintang, KM. 9, Desa Bokak Sebumbun, Gonis Tekam, Kec. Sekadau Hilir, Kabupaten Sekadau, Kalimantan Barat 79582","KM. 9, Desa Bokak Sebumbun, Gonis Tekam, Kec. Sekadau Hilir, Kabupaten Sekadau",KALIMANTAN BARAT,79582.0,Indonesia,81252351946.0,,,-0.0045309,110.9553172,https://maps.google.com/?cid=0x0:0x5b6d9b6975450b8c,
building materials,Toko Bahan Bangunan,TB. Aneka Bangunan,"Jl. Merdeka Timur No.19, Tanjung, Kec. Sekadau Hilir, Kabupaten Sekadau, Kalimantan Barat 79516","Tanjung, Kec. Sekadau Hilir, Kabupaten Sekadau",KALIMANTAN BARAT,79516.0,Indonesia,85386784887.0,,,0.014094,110.9008095,https://maps.google.com/?cid=0x0:0xa9a5f01fcbddf99a,
building materials,Perhimpunan Pengembang Perumahan,batako penanjung,"2W45+QJJ, Jl. jembatan gantung, Mungguk, Kec. Sekadau Hilir, Kabupaten Sekadau, Kalimantan Barat 79516","Jl. jembatan gantung, Mungguk, Kec. Sekadau Hilir, Kabupaten Sekadau",KALIMANTAN BARAT,79516.0,Indonesia,85386388668.0,,,0.0069734,110.9090216,https://maps.google.com/?cid=0x0:0x86614290bd743527,
building materials,Toko Bahan Bangunan,Toko Mak Ambon,"3W78+9P, Tanjung, Kec. Sekadau Hilir, Kabupaten Sekadau, Kalimantan Barat","Kabupaten Sekadau, Kalimantan Barat",KALIMANTAN BARAT,,Indonesia,,,,0.0633803,110.916806,https://maps.google.com/?cid=0x0:0xa45b199c5c0a8850,
building materials,Toko Bahan Bangunan,TB. King’s Material,"2V8W+H54, Jl. Lintas Kalimantan Poros Tengah, Mungguk, Kec. Sekadau Hilir, Kabupaten Sekadau, Kalimantan Barat 79516","Jl. Lintas Kalimantan Poros Tengah, Mungguk, Kec. Sekadau Hilir, Kabupaten Sekadau",KALIMANTAN BARAT,79516.0,Indonesia,81528677088.0,,,0.0163806,110.8954592,https://maps.google.com/?cid=0x0:0x4b38b845f0dea4d9,
building materials,Pemasok Bahan Bangunan,"Pangkalan Pasir BERONA""""","2W44+23V, Mungguk, Kec. Sekadau Hilir, Kabupaten Sekadau, Kalimantan Barat 79516","Mungguk, Kec. Sekadau Hilir, Kabupaten Sekadau",KALIMANTAN BARAT,79516.0,Indonesia,85245440005.0,,,0.0051165,110.9051814,https://maps.google.com/?cid=0x0:0x5497333eba2c9f36,
building materials,Toko Bahan Bangunan,Juragan bangunan,"Jl. Merdeka Timur, Mungguk, Kec. Sekadau Hilir, Kabupaten Sekadau, Kalimantan Barat 79516","Mungguk, Kec. Sekadau Hilir, Kabupaten Sekadau",KALIMANTAN BARAT,79516.0,Indonesia,81294726166.0,,,0.0059273,110.9097231,https://maps.google.com/?cid=0x0:0xaf62c6c5d1fad000,
building materials,Toko Bahan Bangunan,Tb. Jaya makmur,"2VFR+FRX, Sungai Ringin, Kec. Sekadau Hilir, Kabupaten Sekadau, Kalimantan Barat 79516","Sungai Ringin, Kec. Sekadau Hilir, Kabupaten Sekadau",KALIMANTAN BARAT,79516.0,Indonesia,,,,0.0237486,110.8919901,https://maps.google.com/?cid=0x0:0x30f83cdbd0797d88,
building materials,Toko Bahan Bangunan,Tb. Sentosa Jaya,"2227+944, Jl. Lintas Kalimantan Poros Tengah, Gonis Tekam, Kec. Sekadau Hilir, Kabupaten Sekadau, Kalimantan Barat 79511","Jl. Lintas Kalimantan Poros Tengah, Gonis Tekam, Kec. Sekadau Hilir, Kabupaten Sekadau",KALIMANTAN BARAT,79511.0,Indonesia,,,,0.0008773,111.012835,https://maps.google.com/?cid=0x0:0x650bfc8fdeacb8e,
building materials,Toko Bahan Bangunan,Toko Bangunan Bintang Harapan,"2V9R+HQP, Jl. Merdeka Timur, Sungai Ringin, Kec. Sekadau Hilir, Kabupaten Sekadau, Kalimantan Barat 79516","Jl. Merdeka Timur, Sungai Ringin, Kec. Sekadau Hilir, Kabupaten Sekadau",KALIMANTAN BARAT,79516.0,Indonesia,56441016.0,,,0.0189636,110.891959,https://maps.google.com/?cid=0x0:0xf09f7c6ab52b8686,
building materials,building materials,TB TREE JAYA SEKADAU,"2VFR+45Q, Sungai Ringin, Kec. Sekadau Hilir, Kabupaten Sekadau, Kalimantan Barat","Kabupaten Sekadau, Kalimantan Barat",KALIMANTAN BARAT,,Indonesia,,,,0.0228381,110.8904966,https://maps.google.com/?cid=0x0:0xfd76b9c4e01a2661,
building materials,Toko Perlengkapan Rumah,MR D.I.Y Sekadau,"Jl. Merdeka Timur No.KM 2, RT.08/RW.02, Tanjung, Kec. Sekadau Hilir, Kabupaten Sekadau, Kalimantan Barat 79516","RT.08/RW.02, Tanjung, Kec. Sekadau Hilir, Kabupaten Sekadau",KALIMANTAN BARAT,79516.0,Indonesia,2130022789.0,,,0.0163316,110.895741,https://maps.google.com/?cid=0x0:0xd18e36f298a15001,
building materials,,Sahabat 88,"2W27+RG5, Jl. Sintang, Pal 4, Kec. Sekadau Hilir, Kabupaten Sekadau, Kalimantan Barat","Kabupaten Sekadau, Kalimantan Barat",KALIMANTAN BARAT,,Indonesia,,,,0.0020194,110.9138503,https://maps.google.com/?cid=0x0:0x2f178b18228f31bd,
building materials,Toko Bahan Bangunan,Percetakan liss gibsun,"5W7Q+525, RT.SP/RW.3, Timpuk, Kec. Sekadau Hilir, Kabupaten Sekadau, Kalimantan Barat 79514","RT.SP/RW.3, Timpuk, Kec. Sekadau Hilir, Kabupaten Sekadau",KALIMANTAN BARAT,79514.0,Indonesia,85705194152.0,,,0.1628918,110.9376215,https://maps.google.com/?cid=0x0:0x7d3d78cce466ec75,
building materials,Pusat Perbelanjaan,Khatulistiwa Store,"Jalan H. Abdurrahman Desa No.225, RT.14/RW.06, Sungai Ringin, Kec. Sekadau Hilir, Kabupaten Sekadau, Kalimantan Barat 78582","RT.14/RW.06, Sungai Ringin, Kec. Sekadau Hilir, Kabupaten Sekadau",KALIMANTAN BARAT,78582.0,Indonesia,81256195678.0,,,0.021436,110.88296,https://maps.google.com/?cid=0x0:0xb4e3674a94a8ff1b,
building materials,Toko Perlengkapan Rumah,Tk. DOMINIC,"X2XM+4WQ, Seraras, Kec. Sekadau Hilir, Kabupaten Sekadau, Kalimantan Barat 79582","Seraras, Kec. Sekadau Hilir, Kabupaten Sekadau",KALIMANTAN BARAT,79582.0,Indonesia,,,,-0.0021642,111.034864,https://maps.google.com/?cid=0x0:0x1b00500d1282b45e,
building materials,Toko Bahan Bangunan,Tb. Maju,"simpang kayu lapis, Jl. Lintas Kalimantan Poros Tengah, Seraras, Kec. Sekadau Hilir, Kabupaten Sekadau, Kalimantan Barat","Kabupaten Sekadau, Kalimantan Barat",KALIMANTAN BARAT,,Indonesia,368898900.0,,,-0.0018969,111.0338224,https://maps.google.com/?cid=0x0:0x8985cdbc0055bc6d,
building materials,building materials,Tb. Jaya Abadi,"Mungguk, Kec. Sekadau Hilir, Kabupaten Sekadau, Kalimantan Barat","Kabupaten Sekadau, Kalimantan Barat",KALIMANTAN BARAT,,Indonesia,,,,0.0127638,110.9045846,https://maps.google.com/?cid=0x0:0x2ddf928471242be4,
building materials,Pemasok Bahan Bangunan,Bata pres maju jaya,"mbah paryadi, Blok 6, Engkersik, Kec. Sekadau Hilir, Kabupaten Sekadau, Kalimantan Barat 79282","Blok 6, Engkersik, Kec. Sekadau Hilir, Kabupaten Sekadau",KALIMANTAN BARAT,79282.0,Indonesia,81348460630.0,,,-0.0787091,111.0764492,https://maps.google.com/?cid=0x0:0xf49193b17b355a17,
building materials,building materials,Kalimantan Barat 79516,"Kec. Sekadau Hilir, Kabupaten Sekadau, Kalimantan Barat","Kabupaten Sekadau, Kalimantan Barat",KALIMANTAN BARAT,,Indonesia,,,,-0.034875,110.8552919,https://maps.google.com/?cid=0x0:0x3010e80426de42c5,
building materials,Toko Bahan Bangunan,TB. MEGA BANGUNAN,"Kompleks terminal lawang kuari no 7-B, Kabupaten Sekadau, Kalimantan Barat 79582",Kabupaten Sekadau,KALIMANTAN BARAT,79582.0,Indonesia,82153272023.0,,,0.0225329,110.8904731,https://maps.google.com/?cid=0x0:0xad8ed9e4fa734edb,
building materials,Toko Bahan Bangunan,Toko Sumber Bangunan,"2V8X+65M, Tanjung, Kec. Sekadau Hilir, Kabupaten Sekadau, Kalimantan Barat 79516","Tanjung, Kec. Sekadau Hilir, Kabupaten Sekadau",KALIMANTAN BARAT,79516.0,Indonesia,81779308518.0,,,0.0155863,110.8979276,https://maps.google.com/?cid=0x0:0xf343b77c5ff699d2,
building materials,Toko Bahan Bangunan,TB. King’s Material,"2V8W+H54, Jl. Lintas Kalimantan Poros Tengah, Mungguk, Kec. Sekadau Hilir, Kabupaten Sekadau, Kalimantan Barat 79516","Jl. Lintas Kalimantan Poros Tengah, Mungguk, Kec. Sekadau Hilir, Kabupaten Sekadau",KALIMANTAN BARAT,79516.0,Indonesia,81528677088.0,,,0.0163806,110.8954592,https://maps.google.com/?cid=0x0:0x4b38b845f0dea4d9,
building materials,Perhimpunan Pengembang Perumahan,batako penanjung,"2W45+QJJ, Jl. jembatan gantung, Mungguk, Kec. Sekadau Hilir, Kabupaten Sekadau, Kalimantan Barat 79516","Jl. jembatan gantung, Mungguk, Kec. Sekadau Hilir, Kabupaten Sekadau",KALIMANTAN BARAT,79516.0,Indonesia,85386388668.0,,,0.0069734,110.9090216,https://maps.google.com/?cid=0x0:0x86614290bd743527,
building materials,Toko Bahan Bangunan,Tb. Jaya makmur,"2VFR+FRX, Sungai Ringin, Kec. Sekadau Hilir, Kabupaten Sekadau, Kalimantan Barat 79516","Sungai Ringin, Kec. Sekadau Hilir, Kabupaten Sekadau",KALIMANTAN BARAT,79516.0,Indonesia,,,,0.0237486,110.8919901,https://maps.google.com/?cid=0x0:0x30f83cdbd0797d88,
building materials,Toko Bahan Bangunan,Juragan bangunan,"Jl. Merdeka Timur, Mungguk, Kec. Sekadau Hilir, Kabupaten Sekadau, Kalimantan Barat 79516","Mungguk, Kec. Sekadau Hilir, Kabupaten Sekadau",KALIMANTAN BARAT,79516.0,Indonesia,81294726166.0,,,0.0059273,110.9097231,https://maps.google.com/?cid=0x0:0xaf62c6c5d1fad000,
building materials,Pemasok Bahan Bangunan,"Pangkalan Pasir BERONA""""","2W44+23V, Mungguk, Kec. Sekadau Hilir, Kabupaten Sekadau, Kalimantan Barat 79516","Mungguk, Kec. Sekadau Hilir, Kabupaten Sekadau",KALIMANTAN BARAT,79516.0,Indonesia,85245440005.0,,,0.0051165,110.9051814,https://maps.google.com/?cid=0x0:0x5497333eba2c9f36,
building materials,Toko Bahan Bangunan,Toko Bangunan Bintang Harapan,"2V9R+HQP, Jl. Merdeka Timur, Sungai Ringin, Kec. Sekadau Hilir, Kabupaten Sekadau, Kalimantan Barat 79516","Jl. Merdeka Timur, Sungai Ringin, Kec. Sekadau Hilir, Kabupaten Sekadau",KALIMANTAN BARAT,79516.0,Indonesia,56441016.0,,,0.0189636,110.891959,https://maps.google.com/?cid=0x0:0xf09f7c6ab52b8686,
building materials,Pemasok Bahan Bangunan,Toko Bangunan Mega Jaya,"XQVR+XGH, Jl. Lintas Kalimantan Poros Tengah, Peniti, Kec. Sekadau Hilir, Kabupaten Sekadau, Kalimantan Barat 78581","Jl. Lintas Kalimantan Poros Tengah, Peniti, Kec. Sekadau Hilir, Kabupaten Sekadau",KALIMANTAN BARAT,78581.0,Indonesia,85269235972.0,,,-0.0050709,110.7913518,https://maps.google.com/?cid=0x0:0x749207113a93e106,
building materials,Toko Kelontong Asia,Tb. Sinar pulau,"VR7X+VP8, Rawak Hulu, Kec. Sekadau Hulu, Kabupaten Sekadau, Kalimantan Barat","Kabupaten Sekadau, Kalimantan Barat",KALIMANTAN BARAT,,Indonesia,,,,-0.1353355,110.8493314,https://maps.google.com/?cid=0x0:0xd798c5e085db9238,
building materials,building materials,TB TREE JAYA SEKADAU,"2VFR+45Q, Sungai Ringin, Kec. Sekadau Hilir, Kabupaten Sekadau, Kalimantan Barat","Kabupaten Sekadau, Kalimantan Barat",KALIMANTAN BARAT,,Indonesia,,,,0.0228381,110.8904966,https://maps.google.com/?cid=0x0:0xfd76b9c4e01a2661,
building materials,,Sahabat 88,"2W27+RG5, Jl. Sintang, Pal 4, Kec. Sekadau Hilir, Kabupaten Sekadau, Kalimantan Barat","Kabupaten Sekadau, Kalimantan Barat",KALIMANTAN BARAT,,Indonesia,,,,0.0020194,110.9138503,https://maps.google.com/?cid=0x0:0x2f178b18228f31bd,
building materials,Toko Bahan Bangunan,TB. LEBU MAS,"Jln. Sekadau Sintang, KM. 9, Desa Bokak Sebumbun, Gonis Tekam, Kec. Sekadau Hilir, Kabupaten Sekadau, Kalimantan Barat 79582","KM. 9, Desa Bokak Sebumbun, Gonis Tekam, Kec. Sekadau Hilir, Kabupaten Sekadau",KALIMANTAN BARAT,79582.0,Indonesia,81252351946.0,,,-0.0045309,110.9553172,https://maps.google.com/?cid=0x0:0x5b6d9b6975450b8c,
building materials,Toko Perlengkapan Rumah,MR D.I.Y Sekadau,"Jl. Merdeka Timur No.KM 2, RT.08/RW.02, Tanjung, Kec. Sekadau Hilir, Kabupaten Sekadau, Kalimantan Barat 79516","RT.08/RW.02, Tanjung, Kec. Sekadau Hilir, Kabupaten Sekadau",KALIMANTAN BARAT,79516.0,Indonesia,2130022789.0,,,0.0163316,110.895741,https://maps.google.com/?cid=0x0:0xd18e36f298a15001,
building materials,Toko Bahan Bangunan,Toko Mak Ambon,"3W78+9P, Tanjung, Kec. Sekadau Hilir, Kabupaten Sekadau, Kalimantan Barat","Kabupaten Sekadau, Kalimantan Barat",KALIMANTAN BARAT,,Indonesia,,,,0.0633803,110.916806,https://maps.google.com/?cid=0x0:0xa45b199c5c0a8850,
building materials,Pusat Perbelanjaan,Khatulistiwa Store,"Jalan H. Abdurrahman Desa No.225, RT.14/RW.06, Sungai Ringin, Kec. Sekadau Hilir, Kabupaten Sekadau, Kalimantan Barat 78582","RT.14/RW.06, Sungai Ringin, Kec. Sekadau Hilir, Kabupaten Sekadau",KALIMANTAN BARAT,78582.0,Indonesia,81256195678.0,,,0.021436,110.88296,https://maps.google.com/?cid=0x0:0xb4e3674a94a8ff1b,
building materials,Pemasok Bahan Bangunan,Tb. Usman Batako,"Jl. Lintas Kalimantan Poros Tengah No.KM. 14, Peniti, Kec. Sekadau Hilir, Kabupaten Sekadau, Kalimantan Barat 78581","Peniti, Kec. Sekadau Hilir, Kabupaten Sekadau",KALIMANTAN BARAT,78581.0,Indonesia,,,,-0.0150405,110.7982319,https://maps.google.com/?cid=0x0:0xfdf9f611351573b6,
building materials,Toko Bahan Bangunan,Toko Jaya Utama,"2VFR+M5W, Jl. Flamboyan, Sungai Ringin, Kec. Sekadau Hilir, Kabupaten Sekadau, Kalimantan Barat 79516","Jl. Flamboyan, Sungai Ringin, Kec. Sekadau Hilir, Kabupaten Sekadau",KALIMANTAN BARAT,79516.0,Indonesia,,,,0.024228,110.8904606,https://maps.google.com/?cid=0x0:0x49b67078cf8761af,
building materials,building materials,Tb. Jaya Abadi,"Mungguk, Kec. Sekadau Hilir, Kabupaten Sekadau, Kalimantan Barat","Kabupaten Sekadau, Kalimantan Barat",KALIMANTAN BARAT,,Indonesia,,,,0.0127638,110.9045846,https://maps.google.com/?cid=0x0:0x2ddf928471242be4,
building materials,Toko Bahan Bangunan,JAYA BAJA SEKADAU,"Rumah paling ujung Warna Putih, Jl. Sudiro Gg Sudiro, Sungai Ringin, Kec. Sekadau Hilir, Kabupaten Sekadau, Kalimantan Barat 79516","Jl. Sudiro Gg Sudiro, Sungai Ringin, Kec. Sekadau Hilir, Kabupaten Sekadau",KALIMANTAN BARAT,79516.0,Indonesia,85252295545.0,,,0.0097628,110.8796891,https://maps.google.com/?cid=0x0:0x92c9ecbcec4182fc,
building materials,building materials,Kalimantan Barat 79582,"Kabupaten Sekadau, Kalimantan Barat","Kabupaten Sekadau, Kalimantan Barat",KALIMANTAN BARAT,,Indonesia,,,,-0.0522503,111.0698858,https://maps.google.com/?cid=0x0:0xd2d3b52d3579742e,
building materials,Toko Bahan Bangunan,TB. MEGA BANGUNAN,"Kompleks terminal lawang kuari no 7-B, Kabupaten Sekadau, Kalimantan Barat 79582",Kabupaten Sekadau,KALIMANTAN BARAT,79582.0,Indonesia,82153272023.0,,,0.0225329,110.8904731,https://maps.google.com/?cid=0x0:0xad8ed9e4fa734edb,
building materials,Toko Bahan Bangunan,TB. LEBU MAS,"Jln. Sekadau Sintang, KM. 9, Desa Bokak Sebumbun, Gonis Tekam, Kec. Sekadau Hilir, Kabupaten Sekadau, Kalimantan Barat 79582","KM. 9, Desa Bokak Sebumbun, Gonis Tekam, Kec. Sekadau Hilir, Kabupaten Sekadau",KALIMANTAN BARAT,79582.0,Indonesia,81252351946.0,,,-0.0045309,110.9553172,https://maps.google.com/?cid=0x0:0x5b6d9b6975450b8c,
building materials,Toko Bahan Bangunan,Toko Sumber Bangunan,"2V8X+65M, Tanjung, Kec. Sekadau Hilir, Kabupaten Sekadau, Kalimantan Barat 79516","Tanjung, Kec. Sekadau Hilir, Kabupaten Sekadau",KALIMANTAN BARAT,79516.0,Indonesia,81779308518.0,,,0.0155863,110.8979276,https://maps.google.com/?cid=0x0:0xf343b77c5ff699d2,
building materials,Perhimpunan Pengembang Perumahan,batako penanjung,"2W45+QJJ, Jl. jembatan gantung, Mungguk, Kec. Sekadau Hilir, Kabupaten Sekadau, Kalimantan Barat 79516","Jl. jembatan gantung, Mungguk, Kec. Sekadau Hilir, Kabupaten Sekadau",KALIMANTAN BARAT,79516.0,Indonesia,85386388668.0,,,0.0069734,110.9090216,https://maps.google.com/?cid=0x0:0x86614290bd743527,
building materials,Toko Bahan Bangunan,TB. Aneka Bangunan,"Jl. Merdeka Timur No.19, Tanjung, Kec. Sekadau Hilir, Kabupaten Sekadau, Kalimantan Barat 79516","Tanjung, Kec. Sekadau Hilir, Kabupaten Sekadau",KALIMANTAN BARAT,79516.0,Indonesia,85386784887.0,,,0.014094,110.9008095,https://maps.google.com/?cid=0x0:0xa9a5f01fcbddf99a,
building materials,Pemasok Bahan Bangunan,"Pangkalan Pasir BERONA""""","2W44+23V, Mungguk, Kec. Sekadau Hilir, Kabupaten Sekadau, Kalimantan Barat 79516","Mungguk, Kec. Sekadau Hilir, Kabupaten Sekadau",KALIMANTAN BARAT,79516.0,Indonesia,85245440005.0,,,0.0051165,110.9051814,https://maps.google.com/?cid=0x0:0x5497333eba2c9f36,
building materials,Toko Perlengkapan Rumah,Tk. DOMINIC,"X2XM+4WQ, Seraras, Kec. Sekadau Hilir, Kabupaten Sekadau, Kalimantan Barat 79582","Seraras, Kec. Sekadau Hilir, Kabupaten Sekadau",KALIMANTAN BARAT,79582.0,Indonesia,,,,-0.0021642,111.034864,https://maps.google.com/?cid=0x0:0x1b00500d1282b45e,
building materials,Toko Bahan Bangunan,Juragan bangunan,"Jl. Merdeka Timur, Mungguk, Kec. Sekadau Hilir, Kabupaten Sekadau, Kalimantan Barat 79516","Mungguk, Kec. Sekadau Hilir, Kabupaten Sekadau",KALIMANTAN BARAT,79516.0,Indonesia,81294726166.0,,,0.0059273,110.9097231,https://maps.google.com/?cid=0x0:0xaf62c6c5d1fad000,
building materials,,Sahabat 88,"2W27+RG5, Jl. Sintang, Pal 4, Kec. Sekadau Hilir, Kabupaten Sekadau, Kalimantan Barat","Kabupaten Sekadau, Kalimantan Barat",KALIMANTAN BARAT,,Indonesia,,,,0.0020194,110.9138503,https://maps.google.com/?cid=0x0:0x2f178b18228f31bd,
building materials,Toko Bahan Bangunan,Tb. Maju,"simpang kayu lapis, Jl. Lintas Kalimantan Poros Tengah, Seraras, Kec. Sekadau Hilir, Kabupaten Sekadau, Kalimantan Barat","Kabupaten Sekadau, Kalimantan Barat",KALIMANTAN BARAT,,Indonesia,368898900.0,,,-0.0018969,111.0338224,https://maps.google.com/?cid=0x0:0x8985cdbc0055bc6d,
building materials,Pemasok Bahan Bangunan,Bata pres maju jaya,"mbah paryadi, Blok 6, Engkersik, Kec. Sekadau Hilir, Kabupaten Sekadau, Kalimantan Barat 79282","Blok 6, Engkersik, Kec. Sekadau Hilir, Kabupaten Sekadau",KALIMANTAN BARAT,79282.0,Indonesia,81348460630.0,,,-0.0787091,111.0764492,https://maps.google.com/?cid=0x0:0xf49193b17b355a17,
building materials,Toko Bahan Bangunan,TB. King’s Material,"2V8W+H54, Jl. Lintas Kalimantan Poros Tengah, Mungguk, Kec. Sekadau Hilir, Kabupaten Sekadau, Kalimantan Barat 79516","Jl. Lintas Kalimantan Poros Tengah, Mungguk, Kec. Sekadau Hilir, Kabupaten Sekadau",KALIMANTAN BARAT,79516.0,Indonesia,81528677088.0,,,0.0163806,110.8954592,https://maps.google.com/?cid=0x0:0x4b38b845f0dea4d9,
building materials,Toko Bahan Bangunan,Tb. Jaya makmur,"2VFR+FRX, Sungai Ringin, Kec. Sekadau Hilir, Kabupaten Sekadau, Kalimantan Barat 79516","Sungai Ringin, Kec. Sekadau Hilir, Kabupaten Sekadau",KALIMANTAN BARAT,79516.0,Indonesia,,,,0.0237486,110.8919901,https://maps.google.com/?cid=0x0:0x30f83cdbd0797d88,
building materials,Toko Perbaikan Ponsel,Hokky Elektronik,"WXJX+489, Setawar, Kec. Sekadau Hulu, Kabupaten Sekadau, Kalimantan Barat","Kabupaten Sekadau, Kalimantan Barat",KALIMANTAN BARAT,,Indonesia,,,,-0.0697175,110.9983515,https://maps.google.com/?cid=0x0:0x47cfd24d1eaff15,
building materials,Toko Bahan Bangunan,Toko Bangunan Bintang Harapan,"2V9R+HQP, Jl. Merdeka Timur, Sungai Ringin, Kec. Sekadau Hilir, Kabupaten Sekadau, Kalimantan Barat 79516","Jl. Merdeka Timur, Sungai Ringin, Kec. Sekadau Hilir, Kabupaten Sekadau",KALIMANTAN BARAT,79516.0,Indonesia,56441016.0,,,0.0189636,110.891959,https://maps.google.com/?cid=0x0:0xf09f7c6ab52b8686,
building materials,Toko Perlengkapan Rumah,MR D.I.Y Sekadau,"Jl. Merdeka Timur No.KM 2, RT.08/RW.02, Tanjung, Kec. Sekadau Hilir, Kabupaten Sekadau, Kalimantan Barat 79516","RT.08/RW.02, Tanjung, Kec. Sekadau Hilir, Kabupaten Sekadau",KALIMANTAN BARAT,79516.0,Indonesia,2130022789.0,,,0.0163316,110.895741,https://maps.google.com/?cid=0x0:0xd18e36f298a15001,
building materials,building materials,TB TREE JAYA SEKADAU,"2VFR+45Q, Sungai Ringin, Kec. Sekadau Hilir, Kabupaten Sekadau, Kalimantan Barat","Kabupaten Sekadau, Kalimantan Barat",KALIMANTAN BARAT,,Indonesia,,,,0.0228381,110.8904966,https://maps.google.com/?cid=0x0:0xfd76b9c4e01a2661,
building materials,Toko Kelontong Asia,Tb. Sinar pulau,"VR7X+VP8, Rawak Hulu, Kec. Sekadau Hulu, Kabupaten Sekadau, Kalimantan Barat","Kabupaten Sekadau, Kalimantan Barat",KALIMANTAN BARAT,,Indonesia,,,,-0.1353355,110.8493314,https://maps.google.com/?cid=0x0:0xd798c5e085db9238,
building materials,Pusat Perbelanjaan,Khatulistiwa Store,"Jalan H. Abdurrahman Desa No.225, RT.14/RW.06, Sungai Ringin, Kec. Sekadau Hilir, Kabupaten Sekadau, Kalimantan Barat 78582","RT.14/RW.06, Sungai Ringin, Kec. Sekadau Hilir, Kabupaten Sekadau",KALIMANTAN BARAT,78582.0,Indonesia,81256195678.0,,,0.021436,110.88296,https://maps.google.com/?cid=0x0:0xb4e3674a94a8ff1b,
building materials,Pemasok Bahan Bangunan,Toko Bangunan Mega Jaya,"XQVR+XGH, Jl. Lintas Kalimantan Poros Tengah, Peniti, Kec. Sekadau Hilir, Kabupaten Sekadau, Kalimantan Barat 78581","Jl. Lintas Kalimantan Poros Tengah, Peniti, Kec. Sekadau Hilir, Kabupaten Sekadau",KALIMANTAN BARAT,78581.0,Indonesia,85269235972.0,,,-0.0050709,110.7913518,https://maps.google.com/?cid=0x0:0x749207113a93e106,
building materials,Toko Bahan Bangunan,Toko Mak Ambon,"3W78+9P, Tanjung, Kec. Sekadau Hilir, Kabupaten Sekadau, Kalimantan Barat","Kabupaten Sekadau, Kalimantan Barat",KALIMANTAN BARAT,,Indonesia,,,,0.0633803,110.916806,https://maps.google.com/?cid=0x0:0xa45b199c5c0a8850,
building materials,building materials,Tb. Jaya Abadi,"Mungguk, Kec. Sekadau Hilir, Kabupaten Sekadau, Kalimantan Barat","Kabupaten Sekadau, Kalimantan Barat",KALIMANTAN BARAT,,Indonesia,,,,0.0127638,110.9045846,https://maps.google.com/?cid=0x0:0x2ddf928471242be4,
building materials,building materials,Kalimantan Barat 79583,"Kec. Sekadau Hulu, Kabupaten Sekadau, Kalimantan Barat","Kabupaten Sekadau, Kalimantan Barat",KALIMANTAN BARAT,,Indonesia,,,,-0.174604,110.9506636,https://maps.google.com/?cid=0x0:0xf36139f714788db6,
building materials,Toko Kelontong Asia,Tb. Sinar pulau,"VR7X+VP8, Rawak Hulu, Kec. Sekadau Hulu, Kabupaten Sekadau, Kalimantan Barat","Kabupaten Sekadau, Kalimantan Barat",KALIMANTAN BARAT,,Indonesia,,,,-0.1353355,110.8493314,https://maps.google.com/?cid=0x0:0xd798c5e085db9238,
building materials,Toko bahan makanan,Toko usaha baru,"VV5G+PWC, Rawak Hulu, Kec. Sekadau Hulu, Kabupaten Sekadau, Kalimantan Barat","Kabupaten Sekadau, Kalimantan Barat",KALIMANTAN BARAT,,Indonesia,,,,-0.1406807,110.8772809,https://maps.google.com/?cid=0x0:0xa7b99518db82661,
building materials,Toko Perbaikan Ponsel,Hokky Elektronik,"WXJX+489, Setawar, Kec. Sekadau Hulu, Kabupaten Sekadau, Kalimantan Barat","Kabupaten Sekadau, Kalimantan Barat",KALIMANTAN BARAT,,Indonesia,,,,-0.0697175,110.9983515,https://maps.google.com/?cid=0x0:0x47cfd24d1eaff15,
building materials,Toko Bahan Bangunan,TB. LEBU MAS,"Jln. Sekadau Sintang, KM. 9, Desa Bokak Sebumbun, Gonis Tekam, Kec. Sekadau Hilir, Kabupaten Sekadau, Kalimantan Barat 79582","KM. 9, Desa Bokak Sebumbun, Gonis Tekam, Kec. Sekadau Hilir, Kabupaten Sekadau",KALIMANTAN BARAT,79582.0,Indonesia,81252351946.0,,,-0.0045309,110.9553172,https://maps.google.com/?cid=0x0:0x5b6d9b6975450b8c,
building materials,Pemasok Bahan Bangunan,Toko Bangunan Mega Jaya,"XQVR+XGH, Jl. Lintas Kalimantan Poros Tengah, Peniti, Kec. Sekadau Hilir, Kabupaten Sekadau, Kalimantan Barat 78581","Jl. Lintas Kalimantan Poros Tengah, Peniti, Kec. Sekadau Hilir, Kabupaten Sekadau",KALIMANTAN BARAT,78581.0,Indonesia,85269235972.0,,,-0.0050709,110.7913518,https://maps.google.com/?cid=0x0:0x749207113a93e106,
building materials,Toko Bahan Bangunan,TB. MEGA BANGUNAN,"Kompleks terminal lawang kuari no 7-B, Kabupaten Sekadau, Kalimantan Barat 79582",Kabupaten Sekadau,KALIMANTAN BARAT,79582.0,Indonesia,82153272023.0,,,0.0225329,110.8904731,https://maps.google.com/?cid=0x0:0xad8ed9e4fa734edb,
building materials,Toko Perlengkapan Rumah,Tb. Sukses jaya88,"Jalan. Raya No.38, Nanga Taman, Kec. Nanga Taman, Kabupaten Sekadau, Kalimantan Barat 79584","Nanga Taman, Kec. Nanga Taman, Kabupaten Sekadau",KALIMANTAN BARAT,79584.0,Indonesia,,,,-0.2635729,110.8204233,https://maps.google.com/?cid=0x0:0x57c32d2aa6667cc6,
building materials,Toko Bahan Bangunan,Toko Sumber Bangunan,"2V8X+65M, Tanjung, Kec. Sekadau Hilir, Kabupaten Sekadau, Kalimantan Barat 79516","Tanjung, Kec. Sekadau Hilir, Kabupaten Sekadau",KALIMANTAN BARAT,79516.0,Indonesia,81779308518.0,,,0.0155863,110.8979276,https://maps.google.com/?cid=0x0:0xf343b77c5ff699d2,
building materials,Perhimpunan Pengembang Perumahan,batako penanjung,"2W45+QJJ, Jl. jembatan gantung, Mungguk, Kec. Sekadau Hilir, Kabupaten Sekadau, Kalimantan Barat 79516","Jl. jembatan gantung, Mungguk, Kec. Sekadau Hilir, Kabupaten Sekadau",KALIMANTAN BARAT,79516.0,Indonesia,85386388668.0,,,0.0069734,110.9090216,https://maps.google.com/?cid=0x0:0x86614290bd743527,
building materials,Toko Bahan Bangunan,TB. King’s Material,"2V8W+H54, Jl. Lintas Kalimantan Poros Tengah, Mungguk, Kec. Sekadau Hilir, Kabupaten Sekadau, Kalimantan Barat 79516","Jl. Lintas Kalimantan Poros Tengah, Mungguk, Kec. Sekadau Hilir, Kabupaten Sekadau",KALIMANTAN BARAT,79516.0,Indonesia,81528677088.0,,,0.0163806,110.8954592,https://maps.google.com/?cid=0x0:0x4b38b845f0dea4d9,
building materials,Pemasok Bahan Bangunan,Tb. Usman Batako,"Jl. Lintas Kalimantan Poros Tengah No.KM. 14, Peniti, Kec. Sekadau Hilir, Kabupaten Sekadau, Kalimantan Barat 78581","Peniti, Kec. Sekadau Hilir, Kabupaten Sekadau",KALIMANTAN BARAT,78581.0,Indonesia,,,,-0.0150405,110.7982319,https://maps.google.com/?cid=0x0:0xfdf9f611351573b6,
building materials,Toko Bahan Bangunan,Tb. Maju,"simpang kayu lapis, Jl. Lintas Kalimantan Poros Tengah, Seraras, Kec. Sekadau Hilir, Kabupaten Sekadau, Kalimantan Barat","Kabupaten Sekadau, Kalimantan Barat",KALIMANTAN BARAT,,Indonesia,368898900.0,,,-0.0018969,111.0338224,https://maps.google.com/?cid=0x0:0x8985cdbc0055bc6d,
building materials,building materials,TB. New Garuda,"VV8G+F62, Rawak Hulu, Kec. Sekadau Hulu, Kabupaten Sekadau, Kalimantan Barat 79583","Rawak Hulu, Kec. Sekadau Hulu, Kabupaten Sekadau",KALIMANTAN BARAT,79583.0,Indonesia,,,,-0.1338686,110.8755312,https://maps.google.com/?cid=0x0:0xb67585d5c536aa39,
building materials,Toko Alat Tulis Kantor,Toko ATK BANZA,"Jl. Merdeka Selatan, Rawak Hulu, Kec. Sekadau Hulu, Kabupaten Sekadau, Kalimantan Barat 79583","Rawak Hulu, Kec. Sekadau Hulu, Kabupaten Sekadau",KALIMANTAN BARAT,79583.0,Indonesia,81352010669.0,,,-0.1382493,110.8750822,https://maps.google.com/?cid=0x0:0x524d1dc11aeaab,
building materials,Toko Bahan Bangunan,TB. Aneka Bangunan,"Jl. Merdeka Timur No.19, Tanjung, Kec. Sekadau Hilir, Kabupaten Sekadau, Kalimantan Barat 79516","Tanjung, Kec. Sekadau Hilir, Kabupaten Sekadau",KALIMANTAN BARAT,79516.0,Indonesia,85386784887.0,,,0.014094,110.9008095,https://maps.google.com/?cid=0x0:0xa9a5f01fcbddf99a,
building materials,Perkebunan Pohon,Sawit Mandiri Asep Hilman,"Unnamed Road, Engkersik, Kec. Sekadau Hilir, Kabupaten Sekadau, Kalimantan Barat 79583","Engkersik, Kec. Sekadau Hilir, Kabupaten Sekadau",KALIMANTAN BARAT,79583.0,Indonesia,82114444840.0,,,-0.1421177,111.0820717,https://maps.google.com/?cid=0x0:0x706a77e35b02afc8,
building materials,Toko Perlengkapan Rumah,Tk. DOMINIC,"X2XM+4WQ, Seraras, Kec. Sekadau Hilir, Kabupaten Sekadau, Kalimantan Barat 79582","Seraras, Kec. Sekadau Hilir, Kabupaten Sekadau",KALIMANTAN BARAT,79582.0,Indonesia,,,,-0.0021642,111.034864,https://maps.google.com/?cid=0x0:0x1b00500d1282b45e,
building materials,Toko Bahan Bangunan,TB. LEBU MAS,"Jln. Sekadau Sintang, KM. 9, Desa Bokak Sebumbun, Gonis Tekam, Kec. Sekadau Hilir, Kabupaten Sekadau, Kalimantan Barat 79582","KM. 9, Desa Bokak Sebumbun, Gonis Tekam, Kec. Sekadau Hilir, Kabupaten Sekadau",KALIMANTAN BARAT,79582.0,Indonesia,81252351946.0,,,-0.0045309,110.9553172,https://maps.google.com/?cid=0x0:0x5b6d9b6975450b8c,
