Category,Real Category,Business Name,Address,City,State,Postal Code,Country,Phone,Email,Website,Latitude,Longitude,Map Link,Details Link
mall,Komplek perumahan,"Belitang satu, Belitang,kab Sekadau","46HR+5JJ, Belitang Satu, Kec. Belitang, Kabupaten Sekadau, Kalimantan Barat","Kabupaten Sekadau, Kalimantan Barat",KALIMANTAN BARAT,,Indonesia,,,,0.12797,111.241501,https://maps.google.com/?cid=0x0:0xe2823b6f58fab7c5,
mall,mall,Belitang,"Belitang Satu, Kec. Belitang, Kabupaten Sekadau, Kalimantan Barat","Kabupaten Sekadau, Kalimantan Barat",KALIMANTAN BARAT,,Indonesia,,,,0.12797,111.241501,https://maps.google.com/?cid=0x0:0x21926f63d903f773,
mall,Minimarket,Toko william,"55MQ+2MV, Jalan Poros, Padak, Kec. Belitang, Kabupaten Sekadau, Kalimantan Barat 79586","Jalan Poros, Padak, Kec. Belitang, Kabupaten Sekadau",KALIMANTAN BARAT,79586.0,Indonesia,85751063257.0,,,0.1831677,111.1892584,https://maps.google.com/?cid=0x0:0x9199edbde25296b8,
mall,Tujuan Wisata,Pasar Belitang,"46JV+G47, Belitang Dua, Kec. Belitang, Kabupaten Sekadau, Kalimantan Barat 79588","Belitang Dua, Kec. Belitang, Kabupaten Sekadau",KALIMANTAN BARAT,79588.0,Indonesia,,,,0.131293,111.242797,https://maps.google.com/?cid=0x0:0xc1b359154dd788f1,
mall,Pusat Perbelanjaan,TOKO BUNDA,"55RG+VWH, Belitang Dua, Kec. Belitang, Kabupaten Sekadau, Kalimantan Barat 79586","Belitang Dua, Kec. Belitang, Kabupaten Sekadau",KALIMANTAN BARAT,79586.0,Indonesia,82255147065.0,,,0.1921771,111.1773549,https://maps.google.com/?cid=0x0:0x9852a5b6987a26a5,
mall,mall,Kec. Belitang,"Kabupaten Ogan Komering Ulu Timur, Sumatera Selatan","Kabupaten Ogan Komering Ulu Timur, Sumatera Selatan",KALIMANTAN BARAT,,Indonesia,,,,-4.1402273,104.6278606,https://maps.google.com/?cid=0x0:0xbffde04fd06442eb,
mall,Toko Pakaian Wanita,MM STORE BELITANG,"VJPP+HQ5, Gumawang, Kec. Belitang, Kabupaten Ogan Komering Ulu Timur, Sumatera Selatan 32382","Gumawang, Kec. Belitang, Kabupaten Ogan Komering Ulu Timur",KALIMANTAN BARAT,32382.0,Indonesia,82246136966.0,,,-4.1136102,104.636983,https://maps.google.com/?cid=0x0:0x51d6b4b31c50b31d,
mall,Komplek perumahan,Puncak 4,"VJPV+X39, Jln menur Jl. Puncak IV, Gumawang, Kec. Belitang, Kabupaten Ogan Komering Ulu Timur, Sumatera Selatan 32382","Jln menur Jl. Puncak IV, Gumawang, Kec. Belitang, Kabupaten Ogan Komering Ulu Timur",KALIMANTAN BARAT,32382.0,Indonesia,85766834305.0,,,-4.1125808,104.6427441,https://maps.google.com/?cid=0x0:0xd5a5a779c8767ef4,
mall,Pusat Perbelanjaan,MALL PELAYANAN PUBLIK,"VJQV+QG2, Gumawang, Kec. Belitang, Kabupaten Ogan Komering Ulu Timur, Sumatera Selatan 32382","Gumawang, Kec. Belitang, Kabupaten Ogan Komering Ulu Timur",KALIMANTAN BARAT,32382.0,Indonesia,,,,-4.1106232,104.6437738,https://maps.google.com/?cid=0x0:0x6b9bcb20c1f8a0a3,
mall,Toko Swalayan,Pasar Tawang Rejo,"RJ4M+2PR, Tawang Rejo, Kec. Belitang, Kabupaten Ogan Komering Ulu Timur, Sumatera Selatan 32382","Tawang Rejo, Kec. Belitang, Kabupaten Ogan Komering Ulu Timur",KALIMANTAN BARAT,32382.0,Indonesia,81368467456.0,,,-4.1948934,104.6342645,https://maps.google.com/?cid=0x0:0x7ebff7f0096e70d7,
mall,Jembatan,Jembatan Dua Simpang Enam Pusat Kota Gumawang Belitang OKU Timur,"WM73+62R, Jl. Lintas KTM, Tugu Harum, Kec. Belitang Madang Raya, Kabupaten Ogan Komering Ulu Timur, Sumatera Selatan 32382","Jl. Lintas KTM, Tugu Harum, Kec. Belitang Madang Raya, Kabupaten Ogan Komering Ulu Timur",KALIMANTAN BARAT,32382.0,Indonesia,,,,-4.086884,104.6525297,https://maps.google.com/?cid=0x0:0x62c8f448ec8132e7,
mall,Pusat Perbelanjaan,Belitang Indah Plaza,"Jl. Nusa Indah No.726, Gumawang, Kec. Belitang, Kabupaten Ogan Komering Ulu Timur, Sumatera Selatan 32382","Gumawang, Kec. Belitang, Kabupaten Ogan Komering Ulu Timur",KALIMANTAN BARAT,32382.0,Indonesia,,,,-4.1096249,104.6476405,https://maps.google.com/?cid=0x0:0x4f92a340236122fe,
mall,,Maju Bersama Grup,"Gumawang, Kec. Belitang, Kabupaten Ogan Komering Ulu Timur, Sumatera Selatan 32382","Kec. Belitang, Kabupaten Ogan Komering Ulu Timur",KALIMANTAN BARAT,32382.0,Indonesia,,,,-4.1150072,104.6471099,https://maps.google.com/?cid=0x0:0xd0ae9ab2eae9be52,
mall,Pasar,TOKO DEKA PASAR,"VJRX+4H7, Gumawang, Kec. Belitang, Kabupaten Ogan Komering Ulu Timur, Sumatera Selatan 32382","Gumawang, Kec. Belitang, Kabupaten Ogan Komering Ulu Timur",KALIMANTAN BARAT,32382.0,Indonesia,81532001006.0,,,-4.1097127,104.6489271,https://maps.google.com/?cid=0x0:0x8403dd8251713581,
mall,Toko Optik,Junjungan Optikal 2,"samping alfamard, Jl. RS Charitas Indomard ps Ayam, Tegal Rejo, Kec. Belitang, Kabupaten Ogan Komering Ulu Timur, Sumatera Selatan 32382","Jl. RS Charitas Indomard ps Ayam, Tegal Rejo, Kec. Belitang, Kabupaten Ogan Komering Ulu Timur",KALIMANTAN BARAT,32382.0,Indonesia,81272402912.0,,,-4.1098471,104.6525517,https://maps.google.com/?cid=0x0:0xee2e09363ab69d38,
mall,Minimarket,Sugi jaya mart,"WJ2X+6JG, Jl. Lintas KTM, Tugu Harum, Kec. Belitang Madang Raya, Kabupaten Ogan Komering Ulu Timur, Sumatera Selatan 32382","Jl. Lintas KTM, Tugu Harum, Kec. Belitang Madang Raya, Kabupaten Ogan Komering Ulu Timur",KALIMANTAN BARAT,32382.0,Indonesia,,,,-4.0996347,104.6491307,https://maps.google.com/?cid=0x0:0x5eceaae83adba7b8,
mall,Pusat Perbelanjaan,putra saiful,"VJQX+H75, Gumawang, Kec. Belitang, Kabupaten Ogan Komering Ulu Timur, Sumatera Selatan 32382","Gumawang, Kec. Belitang, Kabupaten Ogan Komering Ulu Timur",KALIMANTAN BARAT,32382.0,Indonesia,85289868067.0,,,-4.1111148,104.6482342,https://maps.google.com/?cid=0x0:0xc452044533ca5421,
mall,Pusat Perbelanjaan,Toko Ripin Jaya,"VJ4M+HM6, Jl. Belakang Ps. Sidodadi, Serbaguna, Kec. Belitang, Kabupaten Ogan Komering Ulu Timur, Sumatera Selatan 32382","Jl. Belakang Ps. Sidodadi, Serbaguna, Kec. Belitang, Kabupaten Ogan Komering Ulu Timur",KALIMANTAN BARAT,32382.0,Indonesia,82177019978.0,,,-4.1435848,104.634126,https://maps.google.com/?cid=0x0:0x294a284ca76f9dfb,
mall,Pusat Perbelanjaan,Toko Mas PERDANA JAYA,"VJQX+WJ3, Gumawang, Kec. Belitang, Kabupaten Ogan Komering Ulu Timur, Sumatera Selatan 32382","Gumawang, Kec. Belitang, Kabupaten Ogan Komering Ulu Timur",KALIMANTAN BARAT,32382.0,Indonesia,82373744014.0,,,-4.1102277,104.6490421,https://maps.google.com/?cid=0x0:0xd3c73268edf837dd,
mall,Minimarket,Depo Sembako,"Unnamed Road, Jati Mulyo I, Kec. Belitang Madang Raya, Kabupaten Ogan Komering Ulu Timur, Sumatera Selatan 32382","Jati Mulyo I, Kec. Belitang Madang Raya, Kabupaten Ogan Komering Ulu Timur",KALIMANTAN BARAT,32382.0,Indonesia,,,,-4.0652672,104.6487571,https://maps.google.com/?cid=0x0:0x9866d5da7097652b,
mall,Pusat Perbelanjaan,Pasar Baru Plaza,"VJQX+QXR, Jl. Mawar, Gumawang, Kec. Belitang, Kabupaten Ogan Komering Ulu Timur, Sumatera Selatan 32382","Jl. Mawar, Gumawang, Kec. Belitang, Kabupaten Ogan Komering Ulu Timur",KALIMANTAN BARAT,32382.0,Indonesia,,,,-4.1105042,104.64989,https://maps.google.com/?cid=0x0:0xd357140eee426710,
mall,Pusat Bisnis,Kompleks PerTokoan Belitang Mas,"VJPQ+RVG, Gumawang, Kec. Belitang, Kabupaten Ogan Komering Ulu Timur, Sumatera Selatan 32382","Gumawang, Kec. Belitang, Kabupaten Ogan Komering Ulu Timur",KALIMANTAN BARAT,32382.0,Indonesia,,,,-4.1129442,104.6397134,https://maps.google.com/?cid=0x0:0xc07a185f99d93d2c,
mall,Toko,Toko EVA,"WM92+5X6, Jl. Lintas KTM, Tulus Ayu, Kec. Belitang Madang Raya, Kabupaten Ogan Komering Ulu Timur, Sumatera Selatan 32382","Jl. Lintas KTM, Tulus Ayu, Kec. Belitang Madang Raya, Kabupaten Ogan Komering Ulu Timur",KALIMANTAN BARAT,32382.0,Indonesia,81369281448.0,,,-4.0820931,104.6524044,https://maps.google.com/?cid=0x0:0xc53f196bd6b5f88,
mall,Toko Perlengkapan Bayi,Hoki baby shop,"VJQV+X82 jendral, Jalan Sudirman, Bendungan, Yosowinangun, Kec. Belitang Madang Raya, Kabupaten Ogan Komering Ulu Timur, Sumatera Selatan 32382","Jalan Sudirman, Bendungan, Yosowinangun, Kec. Belitang Madang Raya, Kabupaten Ogan Komering Ulu Timur",KALIMANTAN BARAT,32382.0,Indonesia,81368885227.0,,,-4.1101149,104.6432517,https://maps.google.com/?cid=0x0:0xe816ff39740819c1,
mall,Toko Pertanian,Citra Tani,"VMR2+HRV, Unnamed Road, Yosowinangun, Kec. Belitang Madang Raya, Kabupaten Ogan Komering Ulu Timur, Sumatera Selatan 32382","Unnamed Road, Yosowinangun, Kec. Belitang Madang Raya, Kabupaten Ogan Komering Ulu Timur",KALIMANTAN BARAT,32382.0,Indonesia,735450072.0,,,-4.1085133,104.6520503,https://maps.google.com/?cid=0x0:0x39fbd34f60d3c64f,
mall,Toko Perlengkapan Rumah,Toko Sugi Jaya 2,"VJPW+G4J, Jl. Puncak Lama, Gumawang, Kec. Belitang, Kabupaten Ogan Komering Ulu Timur, Sumatera Selatan 32382","Jl. Puncak Lama, Gumawang, Kec. Belitang, Kabupaten Ogan Komering Ulu Timur",KALIMANTAN BARAT,32382.0,Indonesia,,,,-4.1136702,104.6452666,https://maps.google.com/?cid=0x0:0xda0765ed63695d19,
mall,mall,Kalimantan Barat 79588,"Kec. Belitang, Kabupaten Sekadau, Kalimantan Barat","Kabupaten Sekadau, Kalimantan Barat",KALIMANTAN BARAT,,Indonesia,,,,0.2617615,111.2129616,https://maps.google.com/?cid=0x0:0x5479f9f1b87cf60,
mall,Minimarket,Sinar Mart,"C6W6+684, Balai Sepuak, Kec. Belitang Hulu, Kabupaten Sekadau, Kalimantan Barat 79587","Balai Sepuak, Kec. Belitang Hulu, Kabupaten Sekadau",KALIMANTAN BARAT,79587.0,Indonesia,,,,0.4455222,111.2108345,https://maps.google.com/?cid=0x0:0x9fc3b530a67b6dc5,
mall,Toko Aksesori Ponsel,Toko Seven Cell,"Jl. Poros, Maboh Permai, 79588, Belitang Dua, Kec. Belitang, Kabupaten Sekadau, Kalimantan Barat 79586","Maboh Permai,",KALIMANTAN BARAT,79588.0,Indonesia,,,,0.1780692,111.1894144,https://maps.google.com/?cid=0x0:0x8cc5d9d9adde4b,
mall,Minimarket,Toko william,"55MQ+2MV, Jalan Poros, Padak, Kec. Belitang, Kabupaten Sekadau, Kalimantan Barat 79586","Jalan Poros, Padak, Kec. Belitang, Kabupaten Sekadau",KALIMANTAN BARAT,79586.0,Indonesia,85751063257.0,,,0.1831677,111.1892584,https://maps.google.com/?cid=0x0:0x9199edbde25296b8,
mall,Toko Perlengkapan Rumah,TOSERBA DAMPAS,"sp2 maboh permai, Padak, Kec. Belitang, Kabupaten Sekadau, Kalimantan Barat 79586","Padak, Kec. Belitang, Kabupaten Sekadau",KALIMANTAN BARAT,79586.0,Indonesia,82317272747.0,,,0.1784583,111.1893783,https://maps.google.com/?cid=0x0:0xec9f9d570b66c215,
mall,Pembangunan Perumahan,Komplek perumahan ruko,"55MH+3CW, Jl. Kenanga, Belitang Dua, Kec. Belitang, Kabupaten Sekadau, Kalimantan Barat 79586","Jl. Kenanga, Belitang Dua, Kec. Belitang, Kabupaten Sekadau",KALIMANTAN BARAT,79586.0,Indonesia,,,,0.1827834,111.1785993,https://maps.google.com/?cid=0x0:0xd168844d267754d,
mall,Toko Ponsel,Multi Photo_video,"Unnamed Road, Tj. Ria, 78662, Entabuk, Kec. Sepauk, Kabupaten Sintang, Kalimantan Barat 78662","Tj. Ria,",KALIMANTAN BARAT,78662.0,Indonesia,,,,0.0659853,111.2076599,https://maps.google.com/?cid=0x0:0x7b36f29af2f01822,
mall,Komplek perumahan,Kamp.Sungkap,"83H5+CP, Kumpang Bis, Kec. Belitang Hilir, Kabupaten Sekadau, Kalimantan Barat","Kabupaten Sekadau, Kalimantan Barat",KALIMANTAN BARAT,,Indonesia,,,,0.328555,111.059294,https://maps.google.com/?cid=0x0:0xc3a7d3065a0a98f6,
mall,Pusat Perbelanjaan,TOKO BUNDA,"55RG+VWH, Belitang Dua, Kec. Belitang, Kabupaten Sekadau, Kalimantan Barat 79586","Belitang Dua, Kec. Belitang, Kabupaten Sekadau",KALIMANTAN BARAT,79586.0,Indonesia,82255147065.0,,,0.1921771,111.1773549,https://maps.google.com/?cid=0x0:0x9852a5b6987a26a5,
mall,Toko Mainan,Cell and Toy Shop,"435C+C4W, Jl. Adi Sucipto, Sungai Ayak III, Kec. Belitang Hilir, Kabupaten Sekadau, Kalimantan Barat 79586","Jl. Adi Sucipto, Sungai Ayak III, Kec. Belitang Hilir, Kabupaten Sekadau",KALIMANTAN BARAT,79586.0,Indonesia,89689528987.0,,,0.1086185,111.0703338,https://maps.google.com/?cid=0x0:0x490ee20472e8d2a4,
mall,Pusat Perbelanjaan,Toko Gloria Balai Sepuak,"C6R6+94C, Jl. Bakti Husada, Balai Sepuak, Kec. Belitang Hulu, Kabupaten Sekadau, Kalimantan Barat 79587","Jl. Bakti Husada, Balai Sepuak, Kec. Belitang Hulu, Kabupaten Sekadau",KALIMANTAN BARAT,79587.0,Indonesia,85218991234.0,,,0.4409471,111.2102675,https://maps.google.com/?cid=0x0:0x95c7e69a7cb2a316,
mall,Pusat Perbelanjaan,Toko ADI MELAMOR,"F66Q+H9, Balai Sepuak, Kec. Belitang Hulu, Kabupaten Sekadau, Kalimantan Barat 79587","Balai Sepuak, Kec. Belitang Hulu, Kabupaten Sekadau",KALIMANTAN BARAT,79587.0,Indonesia,,,,0.4614359,111.2384223,https://maps.google.com/?cid=0x0:0xb3fa89d7ef26735c,
mall,Tujuan Wisata,spot mancing danau pulau beginsit,"33PH+JRP, Sungai Ayak III, Kec. Belitang Hilir, Kabupaten Sekadau, Kalimantan Barat 79512","Sungai Ayak III, Kec. Belitang Hilir, Kabupaten Sekadau",KALIMANTAN BARAT,79512.0,Indonesia,,,,0.0865937,111.0795809,https://maps.google.com/?cid=0x0:0x6b3d506ae07a40c9,
mall,Restoran,Warung Simpang Kps,"43VW+FP9, Sungai Ayak III, Kec. Belitang Hilir, Kabupaten Sekadau, Kalimantan Barat 79586","Sungai Ayak III, Kec. Belitang Hilir, Kabupaten Sekadau",KALIMANTAN BARAT,79586.0,Indonesia,,,,0.1436643,111.0968657,https://maps.google.com/?cid=0x0:0x22260827d5d6b6a7,
mall,Minimarket,TOKO:JAYA GEMILANG DIESEL,"Jl. Dr. Sutomo No.259, Sungai Ayak III, Kec. Belitang Hilir, Kabupaten Sekadau, Kalimantan Barat 79512","Sungai Ayak III, Kec. Belitang Hilir, Kabupaten Sekadau",KALIMANTAN BARAT,79512.0,Indonesia,,,,0.0988475,111.0656692,https://maps.google.com/?cid=0x0:0xaeedcab23b163d9e,
mall,Pusat Perbelanjaan,Warung Sembako Kak Ayu,"637P+86P, Tapang Pulau, Kec. Belitang Hilir, Kabupaten Sekadau, Kalimantan Barat 79586","Tapang Pulau, Kec. Belitang Hilir, Kabupaten Sekadau",KALIMANTAN BARAT,79586.0,Indonesia,,,,0.2133387,111.0855632,https://maps.google.com/?cid=0x0:0xd07703002a8cd152,
mall,Toko Pakaian,SHARWA DISTRO,"4356+XJ4, Sungaiayak Satu, Kec. Belitang Hilir, Kabupaten Sekadau, Kalimantan Barat 79512","Sungaiayak Satu, Kec. Belitang Hilir, Kabupaten Sekadau",KALIMANTAN BARAT,79512.0,Indonesia,,,,0.109876,111.0615866,https://maps.google.com/?cid=0x0:0x39c97c804b90b7b9,
mall,Layanan Transportasi,Mall Pelayan Public Sekadau,"2VCQ+PHH, Sungai Ringin, Kec. Sekadau Hilir, Kabupaten Sekadau, Kalimantan Barat 79516","Sungai Ringin, Kec. Sekadau Hilir, Kabupaten Sekadau",KALIMANTAN BARAT,79516.0,Indonesia,5642042075.0,,,0.0218178,110.8889989,https://maps.google.com/?cid=0x0:0xffd566d90021b7d6,
mall,Toko,Warung umak azila dan abila,"35CX+5W, Nanga Sepauk, Kec. Sepauk, Kabupaten Sintang, Kalimantan Barat 78662","Nanga Sepauk, Kec. Sepauk, Kabupaten Sintang",KALIMANTAN BARAT,78662.0,Indonesia,,,,0.0691383,111.2000433,https://maps.google.com/?cid=0x0:0xca5618a28233b101,
mall,Pusat Perbelanjaan,MALL PELAYANAN PUBLIK,"VJQV+QG2, Gumawang, Kec. Belitang, Kabupaten Ogan Komering Ulu Timur, Sumatera Selatan 32382","Gumawang, Kec. Belitang, Kabupaten Ogan Komering Ulu Timur",KALIMANTAN BARAT,32382.0,Indonesia,,,,-4.1106232,104.6437738,https://maps.google.com/?cid=0x0:0x6b9bcb20c1f8a0a3,
mall,mall,Kec. Belitang,"Kabupaten Ogan Komering Ulu Timur, Sumatera Selatan","Kabupaten Ogan Komering Ulu Timur, Sumatera Selatan",KALIMANTAN BARAT,,Indonesia,,,,-4.1402273,104.6278606,https://maps.google.com/?cid=0x0:0xbffde04fd06442eb,
mall,Toko Swalayan,Pasar Tawang Rejo,"RJ4M+2PR, Tawang Rejo, Kec. Belitang, Kabupaten Ogan Komering Ulu Timur, Sumatera Selatan 32382","Tawang Rejo, Kec. Belitang, Kabupaten Ogan Komering Ulu Timur",KALIMANTAN BARAT,32382.0,Indonesia,81368467456.0,,,-4.1948934,104.6342645,https://maps.google.com/?cid=0x0:0x7ebff7f0096e70d7,
mall,Pusat Perbelanjaan,Belitang Indah Plaza,"Jl. Nusa Indah No.726, Gumawang, Kec. Belitang, Kabupaten Ogan Komering Ulu Timur, Sumatera Selatan 32382","Gumawang, Kec. Belitang, Kabupaten Ogan Komering Ulu Timur",KALIMANTAN BARAT,32382.0,Indonesia,,,,-4.1096249,104.6476405,https://maps.google.com/?cid=0x0:0x4f92a340236122fe,
mall,Pasar,TOKO DEKA PASAR,"VJRX+4H7, Gumawang, Kec. Belitang, Kabupaten Ogan Komering Ulu Timur, Sumatera Selatan 32382","Gumawang, Kec. Belitang, Kabupaten Ogan Komering Ulu Timur",KALIMANTAN BARAT,32382.0,Indonesia,81532001006.0,,,-4.1097127,104.6489271,https://maps.google.com/?cid=0x0:0x8403dd8251713581,
mall,Pusat Perbelanjaan,Endik Eno,"VJWP+CH3, Jl. Rantau Jaya, Tugu Harum, Kec. Belitang Madang Raya, Kabupaten Ogan Komering Ulu Timur, Sumatera Selatan 32382","Jl. Rantau Jaya, Tugu Harum, Kec. Belitang Madang Raya, Kabupaten Ogan Komering Ulu Timur",KALIMANTAN BARAT,32382.0,Indonesia,,,,-4.1039875,104.6364092,https://maps.google.com/?cid=0x0:0x1606b60eb0abbd8e,
mall,Jembatan,Jembatan Dua Simpang Enam Pusat Kota Gumawang Belitang OKU Timur,"WM73+62R, Jl. Lintas KTM, Tugu Harum, Kec. Belitang Madang Raya, Kabupaten Ogan Komering Ulu Timur, Sumatera Selatan 32382","Jl. Lintas KTM, Tugu Harum, Kec. Belitang Madang Raya, Kabupaten Ogan Komering Ulu Timur",KALIMANTAN BARAT,32382.0,Indonesia,,,,-4.086884,104.6525297,https://maps.google.com/?cid=0x0:0x62c8f448ec8132e7,
mall,Komplek perumahan,Puncak 4,"VJPV+X39, Jln menur Jl. Puncak IV, Gumawang, Kec. Belitang, Kabupaten Ogan Komering Ulu Timur, Sumatera Selatan 32382","Jln menur Jl. Puncak IV, Gumawang, Kec. Belitang, Kabupaten Ogan Komering Ulu Timur",KALIMANTAN BARAT,32382.0,Indonesia,85766834305.0,,,-4.1125808,104.6427441,https://maps.google.com/?cid=0x0:0xd5a5a779c8767ef4,
mall,Toko Pakaian Wanita,MM STORE BELITANG,"VJPP+HQ5, Gumawang, Kec. Belitang, Kabupaten Ogan Komering Ulu Timur, Sumatera Selatan 32382","Gumawang, Kec. Belitang, Kabupaten Ogan Komering Ulu Timur",KALIMANTAN BARAT,32382.0,Indonesia,82246136966.0,,,-4.1136102,104.636983,https://maps.google.com/?cid=0x0:0x51d6b4b31c50b31d,
mall,mall,Kalimantan Barat 79586,"Kec. Belitang Hilir, Kabupaten Sekadau, Kalimantan Barat","Kabupaten Sekadau, Kalimantan Barat",KALIMANTAN BARAT,,Indonesia,,,,0.1743805,111.1414226,https://maps.google.com/?cid=0x0:0x959d1847699c643e,
mall,Minimarket,Sinar Mart,"C6W6+684, Balai Sepuak, Kec. Belitang Hulu, Kabupaten Sekadau, Kalimantan Barat 79587","Balai Sepuak, Kec. Belitang Hulu, Kabupaten Sekadau",KALIMANTAN BARAT,79587.0,Indonesia,,,,0.4455222,111.2108345,https://maps.google.com/?cid=0x0:0x9fc3b530a67b6dc5,
mall,Minimarket,Toko william,"55MQ+2MV, Jalan Poros, Padak, Kec. Belitang, Kabupaten Sekadau, Kalimantan Barat 79586","Jalan Poros, Padak, Kec. Belitang, Kabupaten Sekadau",KALIMANTAN BARAT,79586.0,Indonesia,85751063257.0,,,0.1831677,111.1892584,https://maps.google.com/?cid=0x0:0x9199edbde25296b8,
mall,Toko Perlengkapan Rumah,TOSERBA DAMPAS,"sp2 maboh permai, Padak, Kec. Belitang, Kabupaten Sekadau, Kalimantan Barat 79586","Padak, Kec. Belitang, Kabupaten Sekadau",KALIMANTAN BARAT,79586.0,Indonesia,82317272747.0,,,0.1784583,111.1893783,https://maps.google.com/?cid=0x0:0xec9f9d570b66c215,
mall,Toko Mainan,Cell and Toy Shop,"435C+C4W, Jl. Adi Sucipto, Sungai Ayak III, Kec. Belitang Hilir, Kabupaten Sekadau, Kalimantan Barat 79586","Jl. Adi Sucipto, Sungai Ayak III, Kec. Belitang Hilir, Kabupaten Sekadau",KALIMANTAN BARAT,79586.0,Indonesia,89689528987.0,,,0.1086185,111.0703338,https://maps.google.com/?cid=0x0:0x490ee20472e8d2a4,
mall,Toko Aksesori Ponsel,Toko Seven Cell,"Jl. Poros, Maboh Permai, 79588, Belitang Dua, Kec. Belitang, Kabupaten Sekadau, Kalimantan Barat 79586","Maboh Permai,",KALIMANTAN BARAT,79588.0,Indonesia,,,,0.1780692,111.1894144,https://maps.google.com/?cid=0x0:0x8cc5d9d9adde4b,
mall,Pembangunan Perumahan,Komplek perumahan ruko,"55MH+3CW, Jl. Kenanga, Belitang Dua, Kec. Belitang, Kabupaten Sekadau, Kalimantan Barat 79586","Jl. Kenanga, Belitang Dua, Kec. Belitang, Kabupaten Sekadau",KALIMANTAN BARAT,79586.0,Indonesia,,,,0.1827834,111.1785993,https://maps.google.com/?cid=0x0:0xd168844d267754d,
mall,Toko Pakaian,SHARWA DISTRO,"4356+XJ4, Sungaiayak Satu, Kec. Belitang Hilir, Kabupaten Sekadau, Kalimantan Barat 79512","Sungaiayak Satu, Kec. Belitang Hilir, Kabupaten Sekadau",KALIMANTAN BARAT,79512.0,Indonesia,,,,0.109876,111.0615866,https://maps.google.com/?cid=0x0:0x39c97c804b90b7b9,
mall,Komplek perumahan,Kamp.Sungkap,"83H5+CP, Kumpang Bis, Kec. Belitang Hilir, Kabupaten Sekadau, Kalimantan Barat","Kabupaten Sekadau, Kalimantan Barat",KALIMANTAN BARAT,,Indonesia,,,,0.328555,111.059294,https://maps.google.com/?cid=0x0:0xc3a7d3065a0a98f6,
mall,Pusat Perbelanjaan,TOKO BUNDA,"55RG+VWH, Belitang Dua, Kec. Belitang, Kabupaten Sekadau, Kalimantan Barat 79586","Belitang Dua, Kec. Belitang, Kabupaten Sekadau",KALIMANTAN BARAT,79586.0,Indonesia,82255147065.0,,,0.1921771,111.1773549,https://maps.google.com/?cid=0x0:0x9852a5b6987a26a5,
mall,Pusat Perbelanjaan,Warung Sembako Kak Ayu,"637P+86P, Tapang Pulau, Kec. Belitang Hilir, Kabupaten Sekadau, Kalimantan Barat 79586","Tapang Pulau, Kec. Belitang Hilir, Kabupaten Sekadau",KALIMANTAN BARAT,79586.0,Indonesia,,,,0.2133387,111.0855632,https://maps.google.com/?cid=0x0:0xd07703002a8cd152,
mall,Restoran,Warung Simpang Kps,"43VW+FP9, Sungai Ayak III, Kec. Belitang Hilir, Kabupaten Sekadau, Kalimantan Barat 79586","Sungai Ayak III, Kec. Belitang Hilir, Kabupaten Sekadau",KALIMANTAN BARAT,79586.0,Indonesia,,,,0.1436643,111.0968657,https://maps.google.com/?cid=0x0:0x22260827d5d6b6a7,
mall,Toko bahan makanan,Warung Sayur Devi,"4338+8JJ, Jl. Dr. Sutomo, Sungai Ayak III, Kec. Belitang Hilir, Kabupaten Sekadau, Kalimantan Barat 79512","Jl. Dr. Sutomo, Sungai Ayak III, Kec. Belitang Hilir, Kabupaten Sekadau",KALIMANTAN BARAT,79512.0,Indonesia,82152965373.0,,,0.1033371,111.0665303,https://maps.google.com/?cid=0x0:0x5d3e63493a0551ca,
mall,Layanan Transportasi,Mall Pelayan Public Sekadau,"2VCQ+PHH, Sungai Ringin, Kec. Sekadau Hilir, Kabupaten Sekadau, Kalimantan Barat 79516","Sungai Ringin, Kec. Sekadau Hilir, Kabupaten Sekadau",KALIMANTAN BARAT,79516.0,Indonesia,5642042075.0,,,0.0218178,110.8889989,https://maps.google.com/?cid=0x0:0xffd566d90021b7d6,
mall,Minimarket,TOKO:JAYA GEMILANG DIESEL,"Jl. Dr. Sutomo No.259, Sungai Ayak III, Kec. Belitang Hilir, Kabupaten Sekadau, Kalimantan Barat 79512","Sungai Ayak III, Kec. Belitang Hilir, Kabupaten Sekadau",KALIMANTAN BARAT,79512.0,Indonesia,,,,0.0988475,111.0656692,https://maps.google.com/?cid=0x0:0xaeedcab23b163d9e,
mall,Tujuan Wisata,spot mancing danau pulau beginsit,"33PH+JRP, Sungai Ayak III, Kec. Belitang Hilir, Kabupaten Sekadau, Kalimantan Barat 79512","Sungai Ayak III, Kec. Belitang Hilir, Kabupaten Sekadau",KALIMANTAN BARAT,79512.0,Indonesia,,,,0.0865937,111.0795809,https://maps.google.com/?cid=0x0:0x6b3d506ae07a40c9,
mall,mall,WPS,"34QF+V29, Entabuk, Kec. Belitang Hilir, Kabupaten Sekadau, Kalimantan Barat 79586","Entabuk, Kec. Belitang Hilir, Kabupaten Sekadau",KALIMANTAN BARAT,79586.0,Indonesia,,,,0.089671,111.1225964,https://maps.google.com/?cid=0x0:0x9f71840dfaed384a,
mall,mall,Kedai Laboy,"34RG+RG2, Sungai Ayak III, Kec. Belitang Hilir, Kabupaten Sekadau, Kalimantan Barat 79586","Sungai Ayak III, Kec. Belitang Hilir, Kabupaten Sekadau",KALIMANTAN BARAT,79586.0,Indonesia,,,,0.092004,111.1262508,https://maps.google.com/?cid=0x0:0x86dbac242dccd91f,
mall,Minimarket,Sinar Mart,"C6W6+684, Balai Sepuak, Kec. Belitang Hulu, Kabupaten Sekadau, Kalimantan Barat 79587","Balai Sepuak, Kec. Belitang Hulu, Kabupaten Sekadau",KALIMANTAN BARAT,79587.0,Indonesia,,,,0.4455222,111.2108345,https://maps.google.com/?cid=0x0:0x9fc3b530a67b6dc5,
mall,Komplek perumahan,Randau Center Mall,"H3X2+6W, Seburuk Satu, Kec. Belitang Hulu, Kabupaten Sekadau, Kalimantan Barat","Kabupaten Sekadau, Kalimantan Barat",KALIMANTAN BARAT,,Indonesia,,,,0.5983554,111.0525888,https://maps.google.com/?cid=0x0:0x17547294b837e56c,
mall,mall,Kalimantan Barat 79587,"Kec. Belitang Hulu, Kabupaten Sekadau, Kalimantan Barat","Kabupaten Sekadau, Kalimantan Barat",KALIMANTAN BARAT,,Indonesia,,,,0.5256764,111.1414226,https://maps.google.com/?cid=0x0:0x33292d03494f6bcb,
mall,mall,Kec. Belitang Hulu,"Kabupaten Sekadau, Kalimantan Barat","Kabupaten Sekadau, Kalimantan Barat",KALIMANTAN BARAT,,Indonesia,,,,0.5256764,111.1414226,https://maps.google.com/?cid=0x0:0x1df49994991be356,
mall,Komplek perumahan,Kamp.Sungkap,"83H5+CP, Kumpang Bis, Kec. Belitang Hilir, Kabupaten Sekadau, Kalimantan Barat","Kabupaten Sekadau, Kalimantan Barat",KALIMANTAN BARAT,,Indonesia,,,,0.328555,111.059294,https://maps.google.com/?cid=0x0:0xc3a7d3065a0a98f6,
mall,Pusat Perbelanjaan,Toko Gloria Balai Sepuak,"C6R6+94C, Jl. Bakti Husada, Balai Sepuak, Kec. Belitang Hulu, Kabupaten Sekadau, Kalimantan Barat 79587","Jl. Bakti Husada, Balai Sepuak, Kec. Belitang Hulu, Kabupaten Sekadau",KALIMANTAN BARAT,79587.0,Indonesia,85218991234.0,,,0.4409471,111.2102675,https://maps.google.com/?cid=0x0:0x95c7e69a7cb2a316,
mall,mall,Kalimantan Barat 79585,"Kec. Nanga Mahap, Kabupaten Sekadau, Kalimantan Barat","Kabupaten Sekadau, Kalimantan Barat",KALIMANTAN BARAT,,Indonesia,,,,-0.5270182,110.7599266,https://maps.google.com/?cid=0x0:0x130fcb733de732c5,
mall,Toko,Toko Pinsel,"HQH4+VCM, Nanga Suri, Kec. Nanga Mahap, Kabupaten Sekadau, Kalimantan Barat 79584","Nanga Suri, Kec. Nanga Mahap, Kabupaten Sekadau",KALIMANTAN BARAT,79584.0,Indonesia,82152267566.0,,,-0.4202897,110.7560359,https://maps.google.com/?cid=0x0:0xd4e2dee79f8e808a,
mall,Toko,Toko pak Gunawan,"FPX3+X7J, Jl. Lintas Kab., Batu Pahat, Kec. Nanga Mahap, Kabupaten Sekadau, Kalimantan Barat 79585","Jl. Lintas Kab., Batu Pahat, Kec. Nanga Mahap, Kabupaten Sekadau",KALIMANTAN BARAT,79585.0,Indonesia,82154435446.0,,,-0.5000346,110.7031419,https://maps.google.com/?cid=0x0:0xaf924cee8a27f58,
mall,mall,Toko Budi Mitra,"GQV5+FXF, Nanga Suri, Kec. Nanga Mahap, Kabupaten Sekadau, Kalimantan Barat 79585","Nanga Suri, Kec. Nanga Mahap, Kabupaten Sekadau",KALIMANTAN BARAT,79585.0,Indonesia,82298336863.0,,,-0.4563095,110.7599266,https://maps.google.com/?cid=0x0:0xc899db718a1b2849,
mall,mall,Kec. Nanga Taman,"Kabupaten Sekadau, Kalimantan Barat","Kabupaten Sekadau, Kalimantan Barat",KALIMANTAN BARAT,,Indonesia,,,,-0.3150976,110.8552919,https://maps.google.com/?cid=0x0:0xe240519a1ad22cd5,
mall,Pusat Perbelanjaan,Toko Usaha Baru,"PRM7+FHF, Nanga Taman, Kec. Nanga Taman, Kabupaten Sekadau, Kalimantan Barat 79584","Nanga Taman, Kec. Nanga Taman, Kabupaten Sekadau",KALIMANTAN BARAT,79584.0,Indonesia,82172700800.0,,,-0.2663012,110.8139105,https://maps.google.com/?cid=0x0:0x9fd7de60e279d4e,
mall,Minimarket,Indomaret Nanga Taman,"PRM9+WVR, Nanga Taman, Kec. Nanga Taman, Kabupaten Sekadau, Kalimantan Barat 79584","Nanga Taman, Kec. Nanga Taman, Kabupaten Sekadau",KALIMANTAN BARAT,79584.0,Indonesia,1500580.0,,,-0.2651287,110.8196547,https://maps.google.com/?cid=0x0:0x63ad18f34e6eb24f,
mall,Layanan Transportasi,Mall Pelayan Public Sekadau,"2VCQ+PHH, Sungai Ringin, Kec. Sekadau Hilir, Kabupaten Sekadau, Kalimantan Barat 79516","Sungai Ringin, Kec. Sekadau Hilir, Kabupaten Sekadau",KALIMANTAN BARAT,79516.0,Indonesia,5642042075.0,,,0.0218178,110.8889989,https://maps.google.com/?cid=0x0:0xffd566d90021b7d6,
mall,Tujuan Wisata,WISATA BATU JATO,"JRQQ+M89, Batu Jato, Kec. Nanga Taman, Kabupaten Sekadau, Kalimantan Barat 79584","Batu Jato, Kec. Nanga Taman, Kabupaten Sekadau",KALIMANTAN BARAT,79584.0,Indonesia,87736606632.0,,,-0.3608367,110.8383472,https://maps.google.com/?cid=0x0:0x2fa8a8c3421704b0,
mall,Toko,Toko amin,"RJW9+J3W Biang poring, Tapang Tingang, Kec. Nanga Taman, Sekadau hulu, Kalimantan Barat 78516","Tapang Tingang, Kec. Nanga Taman, Sekadau hulu",KALIMANTAN BARAT,78516.0,Indonesia,,,,-0.1533977,110.6176877,https://maps.google.com/?cid=0x0:0x6fe42760365fb398,
mall,Pusat Perbelanjaan,Toko Sabar Subur,"QQMV+XRQ, Nanga Kiungkang, Kec. Nanga Taman, Kabupaten Sekadau, Kalimantan Barat 79584","Nanga Kiungkang, Kec. Nanga Taman, Kabupaten Sekadau",KALIMANTAN BARAT,79584.0,Indonesia,82255875099.0,,,-0.2150322,110.7946233,https://maps.google.com/?cid=0x0:0xf3396437e01dc02f,
mall,Organisasi Nonprofit,Pelayanan masyarakat,"2VFR+X63, Jl. Kapuas, Sungai Ringin, Kec. Sekadau Hilir, Kabupaten Sekadau, Kalimantan Barat 79516","Jl. Kapuas, Sungai Ringin, Kec. Sekadau Hilir, Kabupaten Sekadau",KALIMANTAN BARAT,79516.0,Indonesia,,,,0.0248835,110.8905442,https://maps.google.com/?cid=0x0:0xcd3ce625772e5d6d,
mall,Layanan Transportasi,Mall Pelayan Public Sekadau,"2VCQ+PHH, Sungai Ringin, Kec. Sekadau Hilir, Kabupaten Sekadau, Kalimantan Barat 79516","Sungai Ringin, Kec. Sekadau Hilir, Kabupaten Sekadau",KALIMANTAN BARAT,79516.0,Indonesia,5642042075.0,,,0.0218178,110.8889989,https://maps.google.com/?cid=0x0:0xffd566d90021b7d6,
mall,Minimarket,Indomaret,"XWWX+C2M, Desa Bokak Sebumbun, Gonis Tekam, Kec. Sekadau Hilir, Kabupaten Sekadau, Kalimantan Barat 79582","Desa Bokak Sebumbun, Gonis Tekam, Kec. Sekadau Hilir, Kabupaten Sekadau",KALIMANTAN BARAT,79582.0,Indonesia,,,,-0.003919,110.9475478,https://maps.google.com/?cid=0x0:0x77d83add502cb38b,
mall,Komplek perumahan,Ayam kalkun Sekadau,"X2XF+XJ4, Jl. Lintas Kalimantan Poros Tengah, Gonis Tekam, Kec. Sekadau Hilir, Kabupaten Sekadau, Kalimantan Barat 79511","Jl. Lintas Kalimantan Poros Tengah, Gonis Tekam, Kec. Sekadau Hilir, Kabupaten Sekadau",KALIMANTAN BARAT,79511.0,Indonesia,85787418497.0,,,-0.0001019,111.0240934,https://maps.google.com/?cid=0x0:0xbb74f66f1660b15c,
mall,mall,Kalimantan Barat 79511,"Kec. Sekadau Hilir, Kabupaten Sekadau, Kalimantan Barat","Kabupaten Sekadau, Kalimantan Barat",KALIMANTAN BARAT,,Indonesia,,,,-0.0087079,110.9864294,https://maps.google.com/?cid=0x0:0xc1e4ec47290edec9,
mall,Pusat Perbelanjaan,APRILSHOP,"XWWP+626, Mungguk, Kec. Sekadau Hilir, Kabupaten Sekadau, Kalimantan Barat 79582","Mungguk, Kec. Sekadau Hilir, Kabupaten Sekadau",KALIMANTAN BARAT,79582.0,Indonesia,8565372664.0,,,-0.0044736,110.9350125,https://maps.google.com/?cid=0x0:0xf3e209db11d5a6fe,
mall,mall,Kabupaten Sekadau,Kalimantan Barat,"Kabupaten Sekadau, Kalimantan Barat",KALIMANTAN BARAT,,Indonesia,,,,-0.0697175,110.9983515,https://maps.google.com/?cid=0x0:0x6a43959c316aad0,
mall,Dealer Sepeda Motor,Elco Motor Katu Lapis,"2227+CW9, Gonis Tekam, Kec. Sekadau Hilir, Kabupaten Sekadau, Kalimantan Barat 79511","Gonis Tekam, Kec. Sekadau Hilir, Kabupaten Sekadau",KALIMANTAN BARAT,79511.0,Indonesia,,,,0.0010414,111.0148699,https://maps.google.com/?cid=0x0:0xe859af7f79bc543c,
mall,Toko,Toko Tarigas,"Simpang empat kayu lapis, Gonis Tekam, Kec. Sekadau Hilir, Kabupaten Sekadau, Kalimantan Barat 79511","Gonis Tekam, Kec. Sekadau Hilir, Kabupaten Sekadau",KALIMANTAN BARAT,79511.0,Indonesia,,,,0.0005318,111.013537,https://maps.google.com/?cid=0x0:0xa7122717851724ab,
mall,Kantor Perusahaan,Kantor Bupati Sekadau,"Merapi, RT. 05 / RW. 03, Sekadau Hilir, Gonis Tekam, Kec. Sekadau Hilir, Kabupaten Sekadau, Kalimantan Barat 79515","RT. 05 / RW. 03, Sekadau Hilir, Gonis Tekam, Kec. Sekadau Hilir, Kabupaten Sekadau",KALIMANTAN BARAT,79515.0,Indonesia,,,,0.0068866,110.9546661,https://maps.google.com/?cid=0x0:0x5b4aa7ebcb96158b,
mall,mall,Toko Gren fresh,"Rabu Jl. Poros No.km. 19, Gonis Tekam, Sekadau Hilir, Sekadau Regency, West Kalimantan 79511","Gonis Tekam, Sekadau Hilir, Sekadau Regency",KALIMANTAN BARAT,79511.0,Indonesia,,,,-0.0087066,111.0102737,https://maps.google.com/?cid=0x0:0x42433760dd213b9,
mall,Layanan Transportasi,Mall Pelayan Public Sekadau,"2VCQ+PHH, Sungai Ringin, Kec. Sekadau Hilir, Kabupaten Sekadau, Kalimantan Barat 79516","Sungai Ringin, Kec. Sekadau Hilir, Kabupaten Sekadau",KALIMANTAN BARAT,79516.0,Indonesia,5642042075.0,,,0.0218178,110.8889989,https://maps.google.com/?cid=0x0:0xffd566d90021b7d6,
mall,mall,Kalimantan Barat 79512,"Kabupaten Sekadau, Kalimantan Barat","Kabupaten Sekadau, Kalimantan Barat",KALIMANTAN BARAT,,Indonesia,,,,0.0522503,111.0698858,https://maps.google.com/?cid=0x0:0xa07eefc27fb145e2,
mall,Toko Swalayan,Pasar Sekadau,"2VFQ+WMG, Jl. Flamboyan, Sungai Ringin, Kec. Sekadau Hilir, Kabupaten Sekadau, Kalimantan Barat 79516","Jl. Flamboyan, Sungai Ringin, Kec. Sekadau Hilir, Kabupaten Sekadau",KALIMANTAN BARAT,79516.0,Indonesia,6285239656.0,,,0.0248012,110.8892089,https://maps.google.com/?cid=0x0:0xf17d1c8bcb2ca616,
mall,Toko Pakaian,Mitra Mode,"2VCR+H4C, Jl. Irian, Sungai Ringin, Kec. Sekadau Hilir, Kabupaten Sekadau, Kalimantan Barat 79516","Jl. Irian, Sungai Ringin, Kec. Sekadau Hilir, Kabupaten Sekadau",KALIMANTAN BARAT,79516.0,Indonesia,82254475515.0,,,0.0214429,110.8902724,https://maps.google.com/?cid=0x0:0xb7e4e2e755b26e18,
mall,Toko Mainan,Cell and Toy Shop,"435C+C4W, Jl. Adi Sucipto, Sungai Ayak III, Kec. Belitang Hilir, Kabupaten Sekadau, Kalimantan Barat 79586","Jl. Adi Sucipto, Sungai Ayak III, Kec. Belitang Hilir, Kabupaten Sekadau",KALIMANTAN BARAT,79586.0,Indonesia,89689528987.0,,,0.1086185,111.0703338,https://maps.google.com/?cid=0x0:0x490ee20472e8d2a4,
mall,Minimarket,TOKO:JAYA GEMILANG DIESEL,"Jl. Dr. Sutomo No.259, Sungai Ayak III, Kec. Belitang Hilir, Kabupaten Sekadau, Kalimantan Barat 79512","Sungai Ayak III, Kec. Belitang Hilir, Kabupaten Sekadau",KALIMANTAN BARAT,79512.0,Indonesia,,,,0.0988475,111.0656692,https://maps.google.com/?cid=0x0:0xaeedcab23b163d9e,
mall,Pusat Perbelanjaan,APRILSHOP,"XWWP+626, Mungguk, Kec. Sekadau Hilir, Kabupaten Sekadau, Kalimantan Barat 79582","Mungguk, Kec. Sekadau Hilir, Kabupaten Sekadau",KALIMANTAN BARAT,79582.0,Indonesia,8565372664.0,,,-0.0044736,110.9350125,https://maps.google.com/?cid=0x0:0xf3e209db11d5a6fe,
mall,Pusat Perbelanjaan,Toko Sama Senang Sekadau,"Jl. Mawar No.36, Sungai Ringin, Kec. Sekadau Hilir, Kabupaten Sekadau, Kalimantan Barat 79516","Sungai Ringin, Kec. Sekadau Hilir, Kabupaten Sekadau",KALIMANTAN BARAT,79516.0,Indonesia,,,,0.0243805,110.8914588,https://maps.google.com/?cid=0x0:0x8b8a39ba00eeccd3,
mall,Pusat Perbelanjaan,Perimadona,"Jl. Merdeka Timur No.94, Mungguk, Kec. Sekadau Hilir, Kabupaten Sekadau, Kalimantan Barat 79516","Mungguk, Kec. Sekadau Hilir, Kabupaten Sekadau",KALIMANTAN BARAT,79516.0,Indonesia,,,,0.0192733,110.8923365,https://maps.google.com/?cid=0x0:0x64ee7e3f4f470cd2,
mall,Toko bahan makanan,Warung Sayur Devi,"4338+8JJ, Jl. Dr. Sutomo, Sungai Ayak III, Kec. Belitang Hilir, Kabupaten Sekadau, Kalimantan Barat 79512","Jl. Dr. Sutomo, Sungai Ayak III, Kec. Belitang Hilir, Kabupaten Sekadau",KALIMANTAN BARAT,79512.0,Indonesia,82152965373.0,,,0.1033371,111.0665303,https://maps.google.com/?cid=0x0:0x5d3e63493a0551ca,
mall,Komplek perumahan,Ayam kalkun Sekadau,"X2XF+XJ4, Jl. Lintas Kalimantan Poros Tengah, Gonis Tekam, Kec. Sekadau Hilir, Kabupaten Sekadau, Kalimantan Barat 79511","Jl. Lintas Kalimantan Poros Tengah, Gonis Tekam, Kec. Sekadau Hilir, Kabupaten Sekadau",KALIMANTAN BARAT,79511.0,Indonesia,85787418497.0,,,-0.0001019,111.0240934,https://maps.google.com/?cid=0x0:0xbb74f66f1660b15c,
mall,Tujuan Wisata,spot mancing danau pulau beginsit,"33PH+JRP, Sungai Ayak III, Kec. Belitang Hilir, Kabupaten Sekadau, Kalimantan Barat 79512","Sungai Ayak III, Kec. Belitang Hilir, Kabupaten Sekadau",KALIMANTAN BARAT,79512.0,Indonesia,,,,0.0865937,111.0795809,https://maps.google.com/?cid=0x0:0x6b3d506ae07a40c9,
mall,Pusat Perbelanjaan,Griya Dekranasda Kabupaten Sekadau,"Jalan Merdeka Timur KM. 9, Sungai Ringin, Sekadau Hilir, Sungai Ringin, Sekadau, Kabupaten Sekadau, Kalimantan Barat 79516","Sungai Ringin, Sekadau Hilir, Sungai Ringin, Sekadau, Kabupaten Sekadau",KALIMANTAN BARAT,79516.0,Indonesia,,,,0.0218283,110.8877374,https://maps.google.com/?cid=0x0:0x4068a094522aed09,
mall,Toko bahan makanan,Toko sederhana,"X3VJ+P5Q, Jl. Lintas Kalimantan Poros Tengah, Tapang Semadak, Kec. Sekadau Hilir, Kabupaten Sekadau, Kalimantan Barat 79582","Jl. Lintas Kalimantan Poros Tengah, Tapang Semadak, Kec. Sekadau Hilir, Kabupaten Sekadau",KALIMANTAN BARAT,79582.0,Indonesia,,,,-0.0056673,111.0804743,https://maps.google.com/?cid=0x0:0xa2c902d5fb31f6d4,
mall,Toko Pakaian,Toko Mitra Sekadau,"2VFR+Q4G, Sungai Ringin, Kec. Sekadau Hilir, Kabupaten Sekadau, Kalimantan Barat 79516","Sungai Ringin, Kec. Sekadau Hilir, Kabupaten Sekadau",KALIMANTAN BARAT,79516.0,Indonesia,,,,0.0244309,110.8903262,https://maps.google.com/?cid=0x0:0x960cc0a466e94474,
mall,Pusat Perbelanjaan,Pasar Rakyat Lawang Kuari Sekadau,"2V8R+HRJ, Jl. Panglima Naga, Mungguk, Kec. Sekadau Hilir, Kabupaten Sekadau, Kalimantan Barat 79516","Jl. Panglima Naga, Mungguk, Kec. Sekadau Hilir, Kabupaten Sekadau",KALIMANTAN BARAT,79516.0,Indonesia,,,,0.0164684,110.8920308,https://maps.google.com/?cid=0x0:0xeb948b9b3f9d2782,
mall,Minimarket,Indomaret,"XWWX+C2M, Desa Bokak Sebumbun, Gonis Tekam, Kec. Sekadau Hilir, Kabupaten Sekadau, Kalimantan Barat 79582","Desa Bokak Sebumbun, Gonis Tekam, Kec. Sekadau Hilir, Kabupaten Sekadau",KALIMANTAN BARAT,79582.0,Indonesia,,,,-0.003919,110.9475478,https://maps.google.com/?cid=0x0:0x77d83add502cb38b,
mall,Pusat Perbelanjaan,EIGER STORE SEKADAU,"Kompleks, Jl. Ps. Baru No.10, Mungguk, Kec. Sekadau Hilir, Kabupaten Sekadau, Kalimantan Barat 79516","Jl. Ps. Baru No.10, Mungguk, Kec. Sekadau Hilir, Kabupaten Sekadau",KALIMANTAN BARAT,79516.0,Indonesia,81522861115.0,,,0.0175394,110.8905102,https://maps.google.com/?cid=0x0:0xc00e872953f12ac9,
mall,Pusat Perbelanjaan,Star Market Sekadau,"Sungai Ringin, Kec. Sekadau Hilir, Kabupaten Sekadau, Kalimantan Barat 79516","Kec. Sekadau Hilir, Kabupaten Sekadau",KALIMANTAN BARAT,79516.0,Indonesia,81649059324.0,,,0.024492,110.8901165,https://maps.google.com/?cid=0x0:0xd66d073e50ae995c,
mall,Pusat Perbelanjaan,Khatulistiwa Store,"Jalan H. Abdurrahman Desa No.225, RT.14/RW.06, Sungai Ringin, Kec. Sekadau Hilir, Kabupaten Sekadau, Kalimantan Barat 78582","RT.14/RW.06, Sungai Ringin, Kec. Sekadau Hilir, Kabupaten Sekadau",KALIMANTAN BARAT,78582.0,Indonesia,81256195678.0,,,0.021436,110.88296,https://maps.google.com/?cid=0x0:0xb4e3674a94a8ff1b,
mall,Toko Swalayan,K52 Mart Sekadau,"2V9Q+57M, Mungguk, Kec. Sekadau Hilir, Kabupaten Sekadau, Kalimantan Barat 79516","Mungguk, Kec. Sekadau Hilir, Kabupaten Sekadau",KALIMANTAN BARAT,79516.0,Indonesia,,,,0.0179677,110.8881849,https://maps.google.com/?cid=0x0:0xab82847102eac5ff,
mall,Pusat Perbelanjaan,Mall mitra pelangi sekadau,"Jl. Flamboyan No.1, Sungai Ringin, Kec. Sekadau Hilir, Kabupaten Sekadau, Kalimantan Barat 79516","Sungai Ringin, Kec. Sekadau Hilir, Kabupaten Sekadau",KALIMANTAN BARAT,79516.0,Indonesia,,,,0.0242735,110.8902388,https://maps.google.com/?cid=0x0:0xd20869e60544849,
mall,Pusat Perbelanjaan,SJ,"Sungai Ringin, Kec. Sekadau Hilir, Kabupaten Sekadau, Kalimantan Barat 79516","Kec. Sekadau Hilir, Kabupaten Sekadau",KALIMANTAN BARAT,79516.0,Indonesia,,,,0.0246031,110.8905435,https://maps.google.com/?cid=0x0:0xf54ea51868b7d3c6,
mall,Toko,Toko Gaya Baru,"Sungai Ringin, Kec. Sekadau Hilir, Kabupaten Sekadau, Kalimantan Barat 79516","Kec. Sekadau Hilir, Kabupaten Sekadau",KALIMANTAN BARAT,79516.0,Indonesia,,,,0.0242864,110.8911785,https://maps.google.com/?cid=0x0:0xd974bfec132b904d,
mall,Dealer Sepeda Motor,Elco Motor Katu Lapis,"2227+CW9, Gonis Tekam, Kec. Sekadau Hilir, Kabupaten Sekadau, Kalimantan Barat 79511","Gonis Tekam, Kec. Sekadau Hilir, Kabupaten Sekadau",KALIMANTAN BARAT,79511.0,Indonesia,,,,0.0010414,111.0148699,https://maps.google.com/?cid=0x0:0xe859af7f79bc543c,
mall,mall,Kalimantan Barat 79513,"Gonis Tekam, Kec. Sekadau Hilir, Kabupaten Sekadau, Kalimantan Barat","Kabupaten Sekadau, Kalimantan Barat",KALIMANTAN BARAT,,Indonesia,,,,-0.0261051,111.1294996,https://maps.google.com/?cid=0x0:0x466181d899bb2453,
mall,Layanan Transportasi,Mall Pelayan Public Sekadau,"2VCQ+PHH, Sungai Ringin, Kec. Sekadau Hilir, Kabupaten Sekadau, Kalimantan Barat 79516","Sungai Ringin, Kec. Sekadau Hilir, Kabupaten Sekadau",KALIMANTAN BARAT,79516.0,Indonesia,5642042075.0,,,0.0218178,110.8889989,https://maps.google.com/?cid=0x0:0xffd566d90021b7d6,
mall,Toko Swalayan,Pasar Sekadau,"2VFQ+WMG, Jl. Flamboyan, Sungai Ringin, Kec. Sekadau Hilir, Kabupaten Sekadau, Kalimantan Barat 79516","Jl. Flamboyan, Sungai Ringin, Kec. Sekadau Hilir, Kabupaten Sekadau",KALIMANTAN BARAT,79516.0,Indonesia,6285239656.0,,,0.0248012,110.8892089,https://maps.google.com/?cid=0x0:0xf17d1c8bcb2ca616,
mall,Toko Pakaian,Mitra Mode,"2VCR+H4C, Jl. Irian, Sungai Ringin, Kec. Sekadau Hilir, Kabupaten Sekadau, Kalimantan Barat 79516","Jl. Irian, Sungai Ringin, Kec. Sekadau Hilir, Kabupaten Sekadau",KALIMANTAN BARAT,79516.0,Indonesia,82254475515.0,,,0.0214429,110.8902724,https://maps.google.com/?cid=0x0:0xb7e4e2e755b26e18,
mall,Pusat Perbelanjaan,Pasar Baru Kabupaten Sekadau,"2V9R+583, Jl. Ps. Baru, Mungguk, Kec. Sekadau Hilir, Kabupaten Sekadau, Kalimantan Barat 79516","Jl. Ps. Baru, Mungguk, Kec. Sekadau Hilir, Kabupaten Sekadau",KALIMANTAN BARAT,79516.0,Indonesia,,,,0.017886,110.8908017,https://maps.google.com/?cid=0x0:0xb75877c42104eaef,
mall,Pusat Perbelanjaan,APRILSHOP,"XWWP+626, Mungguk, Kec. Sekadau Hilir, Kabupaten Sekadau, Kalimantan Barat 79582","Mungguk, Kec. Sekadau Hilir, Kabupaten Sekadau",KALIMANTAN BARAT,79582.0,Indonesia,8565372664.0,,,-0.0044736,110.9350125,https://maps.google.com/?cid=0x0:0xf3e209db11d5a6fe,
mall,Pusat Perbelanjaan,Pasar Rakyat Lawang Kuari Sekadau,"2V8R+HRJ, Jl. Panglima Naga, Mungguk, Kec. Sekadau Hilir, Kabupaten Sekadau, Kalimantan Barat 79516","Jl. Panglima Naga, Mungguk, Kec. Sekadau Hilir, Kabupaten Sekadau",KALIMANTAN BARAT,79516.0,Indonesia,,,,0.0164684,110.8920308,https://maps.google.com/?cid=0x0:0xeb948b9b3f9d2782,
mall,Pusat Perbelanjaan,Griya Dekranasda Kabupaten Sekadau,"Jalan Merdeka Timur KM. 9, Sungai Ringin, Sekadau Hilir, Sungai Ringin, Sekadau, Kabupaten Sekadau, Kalimantan Barat 79516","Sungai Ringin, Sekadau Hilir, Sungai Ringin, Sekadau, Kabupaten Sekadau",KALIMANTAN BARAT,79516.0,Indonesia,,,,0.0218283,110.8877374,https://maps.google.com/?cid=0x0:0x4068a094522aed09,
mall,Toko Pakaian,Toko Mitra Sekadau,"2VFR+Q4G, Sungai Ringin, Kec. Sekadau Hilir, Kabupaten Sekadau, Kalimantan Barat 79516","Sungai Ringin, Kec. Sekadau Hilir, Kabupaten Sekadau",KALIMANTAN BARAT,79516.0,Indonesia,,,,0.0244309,110.8903262,https://maps.google.com/?cid=0x0:0x960cc0a466e94474,
mall,Pusat Perbelanjaan,Toko Sama Senang Sekadau,"Jl. Mawar No.36, Sungai Ringin, Kec. Sekadau Hilir, Kabupaten Sekadau, Kalimantan Barat 79516","Sungai Ringin, Kec. Sekadau Hilir, Kabupaten Sekadau",KALIMANTAN BARAT,79516.0,Indonesia,,,,0.0243805,110.8914588,https://maps.google.com/?cid=0x0:0x8b8a39ba00eeccd3,
mall,Pusat Perbelanjaan,Perimadona,"Jl. Merdeka Timur No.94, Mungguk, Kec. Sekadau Hilir, Kabupaten Sekadau, Kalimantan Barat 79516","Mungguk, Kec. Sekadau Hilir, Kabupaten Sekadau",KALIMANTAN BARAT,79516.0,Indonesia,,,,0.0192733,110.8923365,https://maps.google.com/?cid=0x0:0x64ee7e3f4f470cd2,
mall,Kafe,V_SNACK,"Pasar No.12b, Sungai Ringin, Kec. Sekadau Hilir, Kabupaten Sekadau, Kalimantan Barat","Kabupaten Sekadau, Kalimantan Barat",KALIMANTAN BARAT,,Indonesia,,,,0.0236971,110.8911128,https://maps.google.com/?cid=0x0:0xef0e220abb52796d,
mall,Pembangunan Perumahan,Toko Marlis Dusun segori desa gonis tekam,"X333+W9V, Unnamed Road, Gonis Tekam, Kec. Sekadau Hilir, Kabupaten Sekadau, Kalimantan Barat 79582","Unnamed Road, Gonis Tekam, Kec. Sekadau Hilir, Kabupaten Sekadau",KALIMANTAN BARAT,79582.0,Indonesia,85252629977.0,,,-0.0451479,111.0534102,https://maps.google.com/?cid=0x0:0x2faf6f24aef39a47,
mall,Pusat Perbelanjaan,Star Market Sekadau,"Sungai Ringin, Kec. Sekadau Hilir, Kabupaten Sekadau, Kalimantan Barat 79516","Kec. Sekadau Hilir, Kabupaten Sekadau",KALIMANTAN BARAT,79516.0,Indonesia,81649059324.0,,,0.024492,110.8901165,https://maps.google.com/?cid=0x0:0xd66d073e50ae995c,
mall,Toko,Toko Perintis,"W27X+XXJ, Engkersik, Kec. Sekadau Hilir, Kabupaten Sekadau, Kalimantan Barat 79583","Engkersik, Kec. Sekadau Hilir, Kabupaten Sekadau",KALIMANTAN BARAT,79583.0,Indonesia,,,,-0.085036,111.0498963,https://maps.google.com/?cid=0x0:0xaa40a04849d34f73,
mall,Toko Kesehatan dan Kecantikan,VJ Shop / VJ Beauty Studio,"Komplek Ruko, Jalan Panglima Naga No.13, Pasar Baru, Kec. Sekadau Hilir, Kabupaten Sekadau, Kalimantan Barat 79582","Jalan Panglima Naga No.13, Pasar Baru, Kec. Sekadau Hilir, Kabupaten Sekadau",KALIMANTAN BARAT,79582.0,Indonesia,82248142278.0,,,-0.0457977,111.0667604,https://maps.google.com/?cid=0x0:0xede3b0507059d1b7,
mall,Pusat Perbelanjaan,EIGER STORE SEKADAU,"Kompleks, Jl. Ps. Baru No.10, Mungguk, Kec. Sekadau Hilir, Kabupaten Sekadau, Kalimantan Barat 79516","Jl. Ps. Baru No.10, Mungguk, Kec. Sekadau Hilir, Kabupaten Sekadau",KALIMANTAN BARAT,79516.0,Indonesia,81522861115.0,,,0.0175394,110.8905102,https://maps.google.com/?cid=0x0:0xc00e872953f12ac9,
mall,Pusat Perbelanjaan,Khatulistiwa Store,"Jalan H. Abdurrahman Desa No.225, RT.14/RW.06, Sungai Ringin, Kec. Sekadau Hilir, Kabupaten Sekadau, Kalimantan Barat 78582","RT.14/RW.06, Sungai Ringin, Kec. Sekadau Hilir, Kabupaten Sekadau",KALIMANTAN BARAT,78582.0,Indonesia,81256195678.0,,,0.021436,110.88296,https://maps.google.com/?cid=0x0:0xb4e3674a94a8ff1b,
mall,Minimarket,Indomaret,"XWWX+C2M, Desa Bokak Sebumbun, Gonis Tekam, Kec. Sekadau Hilir, Kabupaten Sekadau, Kalimantan Barat 79582","Desa Bokak Sebumbun, Gonis Tekam, Kec. Sekadau Hilir, Kabupaten Sekadau",KALIMANTAN BARAT,79582.0,Indonesia,,,,-0.003919,110.9475478,https://maps.google.com/?cid=0x0:0x77d83add502cb38b,
mall,Toko Pakaian,Elite Fashion Sekadau,"Jl. Panglima Naga, Mungguk, Kec. Sekadau Hilir, Kabupaten Sekadau, Kalimantan Barat 79582","Mungguk, Kec. Sekadau Hilir, Kabupaten Sekadau",KALIMANTAN BARAT,79582.0,Indonesia,,,,0.0172277,110.8923452,https://maps.google.com/?cid=0x0:0xae054fad165dd042,
mall,Agen komersial,Ragilvariasi,"W5V6+HQ5, Unnamed Road, Sirang Setambang, Kec. Sepauk, Kabupaten Sintang, Kalimantan Barat 79513","Unnamed Road, Sirang Setambang, Kec. Sepauk, Kabupaten Sintang",KALIMANTAN BARAT,79513.0,Indonesia,85750738055.0,,,-0.0561132,111.1619824,https://maps.google.com/?cid=0x0:0x345f6e55612d35e5,
mall,Toko bahan makanan,Toko sederhana,"X3VJ+P5Q, Jl. Lintas Kalimantan Poros Tengah, Tapang Semadak, Kec. Sekadau Hilir, Kabupaten Sekadau, Kalimantan Barat 79582","Jl. Lintas Kalimantan Poros Tengah, Tapang Semadak, Kec. Sekadau Hilir, Kabupaten Sekadau",KALIMANTAN BARAT,79582.0,Indonesia,,,,-0.0056673,111.0804743,https://maps.google.com/?cid=0x0:0xa2c902d5fb31f6d4,
mall,Toko Swalayan,K52 Mart Sekadau,"2V9Q+57M, Mungguk, Kec. Sekadau Hilir, Kabupaten Sekadau, Kalimantan Barat 79516","Mungguk, Kec. Sekadau Hilir, Kabupaten Sekadau",KALIMANTAN BARAT,79516.0,Indonesia,,,,0.0179677,110.8881849,https://maps.google.com/?cid=0x0:0xab82847102eac5ff,
mall,Pusat Perbelanjaan,Warung sayur segori,"X325+FG9, Dusun segori, Gonis Tekam, Kec. Sekadau Hilir, Kabupaten Sekadau, Kalimantan Barat","Kabupaten Sekadau, Kalimantan Barat",KALIMANTAN BARAT,,Indonesia,,,,-0.0488481,111.0588609,https://maps.google.com/?cid=0x0:0x34347b22fdea33f3,
mall,Komplek perumahan,Ayam kalkun Sekadau,"X2XF+XJ4, Jl. Lintas Kalimantan Poros Tengah, Gonis Tekam, Kec. Sekadau Hilir, Kabupaten Sekadau, Kalimantan Barat 79511","Jl. Lintas Kalimantan Poros Tengah, Gonis Tekam, Kec. Sekadau Hilir, Kabupaten Sekadau",KALIMANTAN BARAT,79511.0,Indonesia,85787418497.0,,,-0.0001019,111.0240934,https://maps.google.com/?cid=0x0:0xbb74f66f1660b15c,
mall,Toko Ponsel,Yohanes Ponsel,"252M+8J9, Sepulut, Kec. Sepauk, Kabupaten Sintang, Kalimantan Barat 78662","Sepulut, Kec. Sepauk, Kabupaten Sintang",KALIMANTAN BARAT,78662.0,Indonesia,,,,0.0007973,111.1841058,https://maps.google.com/?cid=0x0:0xa9c6a227ea7514f4,
mall,Toko umum,Toko sembako AGNI,"X5M9+PRF, Manis Raya, Kec. Sepauk, Kabupaten Sintang, Kalimantan Barat 78662","Manis Raya, Kec. Sepauk, Kabupaten Sintang",KALIMANTAN BARAT,78662.0,Indonesia,81228558600.0,,,-0.0156799,111.1695529,https://maps.google.com/?cid=0x0:0xb6bd11292fba309e,
mall,Toko Ponsel,Multi Photo_video,"Unnamed Road, Tj. Ria, 78662, Entabuk, Kec. Sepauk, Kabupaten Sintang, Kalimantan Barat 78662","Tj. Ria,",KALIMANTAN BARAT,78662.0,Indonesia,,,,0.0659853,111.2076599,https://maps.google.com/?cid=0x0:0x7b36f29af2f01822,
mall,Tujuan Wisata,spot mancing danau pulau beginsit,"33PH+JRP, Sungai Ayak III, Kec. Belitang Hilir, Kabupaten Sekadau, Kalimantan Barat 79512","Sungai Ayak III, Kec. Belitang Hilir, Kabupaten Sekadau",KALIMANTAN BARAT,79512.0,Indonesia,,,,0.0865937,111.0795809,https://maps.google.com/?cid=0x0:0x6b3d506ae07a40c9,
mall,mall,Kalimantan Barat 79514,"Kabupaten Sekadau, Kalimantan Barat","Kabupaten Sekadau, Kalimantan Barat",KALIMANTAN BARAT,,Indonesia,,,,0.1570804,110.9745074,https://maps.google.com/?cid=0x0:0x5c0d217439c4167c,
mall,Komplek perumahan,TORSERBA SIMPANG TIGA,"6X7P+V6F, Timpuk, Kec. Sekadau Hilir, Kabupaten Sekadau, Kalimantan Barat 79514","Timpuk, Kec. Sekadau Hilir, Kabupaten Sekadau",KALIMANTAN BARAT,79514.0,Indonesia,,,,0.2146926,110.9855447,https://maps.google.com/?cid=0x0:0xd0e63cbea4a1ec10,
mall,Layanan Transportasi,Mall Pelayan Public Sekadau,"2VCQ+PHH, Sungai Ringin, Kec. Sekadau Hilir, Kabupaten Sekadau, Kalimantan Barat 79516","Sungai Ringin, Kec. Sekadau Hilir, Kabupaten Sekadau",KALIMANTAN BARAT,79516.0,Indonesia,5642042075.0,,,0.0218178,110.8889989,https://maps.google.com/?cid=0x0:0xffd566d90021b7d6,
mall,Toko Pakaian,Black White Fashionshop,"6X7P+76Q, Unnamed Road, Timpuk, Kec. Sekadau Hilir, Kabupaten Sekadau, Kalimantan Barat 79514","Unnamed Road, Timpuk, Kec. Sekadau Hilir, Kabupaten Sekadau",KALIMANTAN BARAT,79514.0,Indonesia,,,,0.2132035,110.9856202,https://maps.google.com/?cid=0x0:0x978a2b5a3e005686,
mall,Pusat Perbelanjaan,Mall mitra pelangi sekadau,"Jl. Flamboyan No.1, Sungai Ringin, Kec. Sekadau Hilir, Kabupaten Sekadau, Kalimantan Barat 79516","Sungai Ringin, Kec. Sekadau Hilir, Kabupaten Sekadau",KALIMANTAN BARAT,79516.0,Indonesia,,,,0.0242735,110.8902388,https://maps.google.com/?cid=0x0:0xd20869e60544849,
mall,Toko Pakaian,Mitra Mode,"2VCR+H4C, Jl. Irian, Sungai Ringin, Kec. Sekadau Hilir, Kabupaten Sekadau, Kalimantan Barat 79516","Jl. Irian, Sungai Ringin, Kec. Sekadau Hilir, Kabupaten Sekadau",KALIMANTAN BARAT,79516.0,Indonesia,82254475515.0,,,0.0214429,110.8902724,https://maps.google.com/?cid=0x0:0xb7e4e2e755b26e18,
mall,Toko Pakaian,SHARWA DISTRO,"4356+XJ4, Sungaiayak Satu, Kec. Belitang Hilir, Kabupaten Sekadau, Kalimantan Barat 79512","Sungaiayak Satu, Kec. Belitang Hilir, Kabupaten Sekadau",KALIMANTAN BARAT,79512.0,Indonesia,,,,0.109876,111.0615866,https://maps.google.com/?cid=0x0:0x39c97c804b90b7b9,
mall,Toko,Lapak Buk Niken,"Landau Kodah, Kec. Sekadau Hilir, Kabupaten Sekadau, Kalimantan Barat","Kabupaten Sekadau, Kalimantan Barat",KALIMANTAN BARAT,,Indonesia,,,,0.1198379,110.9202207,https://maps.google.com/?cid=0x0:0x46998d025870767e,
mall,Pusat Perbelanjaan,Pasar Rakyat Lawang Kuari Sekadau,"2V8R+HRJ, Jl. Panglima Naga, Mungguk, Kec. Sekadau Hilir, Kabupaten Sekadau, Kalimantan Barat 79516","Jl. Panglima Naga, Mungguk, Kec. Sekadau Hilir, Kabupaten Sekadau",KALIMANTAN BARAT,79516.0,Indonesia,,,,0.0164684,110.8920308,https://maps.google.com/?cid=0x0:0xeb948b9b3f9d2782,
mall,Toko Mainan,Cell and Toy Shop,"435C+C4W, Jl. Adi Sucipto, Sungai Ayak III, Kec. Belitang Hilir, Kabupaten Sekadau, Kalimantan Barat 79586","Jl. Adi Sucipto, Sungai Ayak III, Kec. Belitang Hilir, Kabupaten Sekadau",KALIMANTAN BARAT,79586.0,Indonesia,89689528987.0,,,0.1086185,111.0703338,https://maps.google.com/?cid=0x0:0x490ee20472e8d2a4,
mall,Pusat Perbelanjaan,APRILSHOP,"XWWP+626, Mungguk, Kec. Sekadau Hilir, Kabupaten Sekadau, Kalimantan Barat 79582","Mungguk, Kec. Sekadau Hilir, Kabupaten Sekadau",KALIMANTAN BARAT,79582.0,Indonesia,8565372664.0,,,-0.0044736,110.9350125,https://maps.google.com/?cid=0x0:0xf3e209db11d5a6fe,
mall,Pusat Perbelanjaan,Perimadona,"Jl. Merdeka Timur No.94, Mungguk, Kec. Sekadau Hilir, Kabupaten Sekadau, Kalimantan Barat 79516","Mungguk, Kec. Sekadau Hilir, Kabupaten Sekadau",KALIMANTAN BARAT,79516.0,Indonesia,,,,0.0192733,110.8923365,https://maps.google.com/?cid=0x0:0x64ee7e3f4f470cd2,
mall,Pusat Perbelanjaan,Griya Dekranasda Kabupaten Sekadau,"Jalan Merdeka Timur KM. 9, Sungai Ringin, Sekadau Hilir, Sungai Ringin, Sekadau, Kabupaten Sekadau, Kalimantan Barat 79516","Sungai Ringin, Sekadau Hilir, Sungai Ringin, Sekadau, Kabupaten Sekadau",KALIMANTAN BARAT,79516.0,Indonesia,,,,0.0218283,110.8877374,https://maps.google.com/?cid=0x0:0x4068a094522aed09,
mall,Pusat Perbelanjaan,Toko Sama Senang Sekadau,"Jl. Mawar No.36, Sungai Ringin, Kec. Sekadau Hilir, Kabupaten Sekadau, Kalimantan Barat 79516","Sungai Ringin, Kec. Sekadau Hilir, Kabupaten Sekadau",KALIMANTAN BARAT,79516.0,Indonesia,,,,0.0243805,110.8914588,https://maps.google.com/?cid=0x0:0x8b8a39ba00eeccd3,
mall,Toko,Warung aneh,"4X6J+M4H, Selimus, Seraras, Kec. Sekadau Hilir, Kabupaten Sekadau, Kalimantan Barat","Kabupaten Sekadau, Kalimantan Barat",KALIMANTAN BARAT,,Indonesia,,,,0.1116854,110.9803549,https://maps.google.com/?cid=0x0:0x7eb2d2428d98d8c7,
mall,Pusat Perbelanjaan,Star Market Sekadau,"Sungai Ringin, Kec. Sekadau Hilir, Kabupaten Sekadau, Kalimantan Barat 79516","Kec. Sekadau Hilir, Kabupaten Sekadau",KALIMANTAN BARAT,79516.0,Indonesia,81649059324.0,,,0.024492,110.8901165,https://maps.google.com/?cid=0x0:0xd66d073e50ae995c,
mall,Pusat Perbelanjaan,EIGER STORE SEKADAU,"Kompleks, Jl. Ps. Baru No.10, Mungguk, Kec. Sekadau Hilir, Kabupaten Sekadau, Kalimantan Barat 79516","Jl. Ps. Baru No.10, Mungguk, Kec. Sekadau Hilir, Kabupaten Sekadau",KALIMANTAN BARAT,79516.0,Indonesia,81522861115.0,,,0.0175394,110.8905102,https://maps.google.com/?cid=0x0:0xc00e872953f12ac9,
mall,Toko bahan makanan,Warung Sayur Devi,"4338+8JJ, Jl. Dr. Sutomo, Sungai Ayak III, Kec. Belitang Hilir, Kabupaten Sekadau, Kalimantan Barat 79512","Jl. Dr. Sutomo, Sungai Ayak III, Kec. Belitang Hilir, Kabupaten Sekadau",KALIMANTAN BARAT,79512.0,Indonesia,82152965373.0,,,0.1033371,111.0665303,https://maps.google.com/?cid=0x0:0x5d3e63493a0551ca,
mall,Minimarket,TOKO:JAYA GEMILANG DIESEL,"Jl. Dr. Sutomo No.259, Sungai Ayak III, Kec. Belitang Hilir, Kabupaten Sekadau, Kalimantan Barat 79512","Sungai Ayak III, Kec. Belitang Hilir, Kabupaten Sekadau",KALIMANTAN BARAT,79512.0,Indonesia,,,,0.0988475,111.0656692,https://maps.google.com/?cid=0x0:0xaeedcab23b163d9e,
mall,Toko,Warung Topik,"2VFQ+V97, Sungai Ringin, Kec. Sekadau Hilir, Kabupaten Sekadau, Kalimantan Barat 79516","Sungai Ringin, Kec. Sekadau Hilir, Kabupaten Sekadau",KALIMANTAN BARAT,79516.0,Indonesia,81352528081.0,,,0.0246617,110.888409,https://maps.google.com/?cid=0x0:0x28b9f98cc0f74aca,
mall,Toko Pakaian,Toko Mitra Sekadau,"2VFR+Q4G, Sungai Ringin, Kec. Sekadau Hilir, Kabupaten Sekadau, Kalimantan Barat 79516","Sungai Ringin, Kec. Sekadau Hilir, Kabupaten Sekadau",KALIMANTAN BARAT,79516.0,Indonesia,,,,0.0244309,110.8903262,https://maps.google.com/?cid=0x0:0x960cc0a466e94474,
mall,Toko,Toko Gaya Baru,"Sungai Ringin, Kec. Sekadau Hilir, Kabupaten Sekadau, Kalimantan Barat 79516","Kec. Sekadau Hilir, Kabupaten Sekadau",KALIMANTAN BARAT,79516.0,Indonesia,,,,0.0242864,110.8911785,https://maps.google.com/?cid=0x0:0xd974bfec132b904d,
mall,mall,Kalimantan Barat 79515,"Kec. Sekadau Hilir, Kabupaten Sekadau, Kalimantan Barat","Kabupaten Sekadau, Kalimantan Barat",KALIMANTAN BARAT,,Indonesia,,,,0.0872098,110.9268201,https://maps.google.com/?cid=0x0:0x85a84b3f51cece76,
mall,Layanan Transportasi,Mall Pelayan Public Sekadau,"2VCQ+PHH, Sungai Ringin, Kec. Sekadau Hilir, Kabupaten Sekadau, Kalimantan Barat 79516","Sungai Ringin, Kec. Sekadau Hilir, Kabupaten Sekadau",KALIMANTAN BARAT,79516.0,Indonesia,5642042075.0,,,0.0218178,110.8889989,https://maps.google.com/?cid=0x0:0xffd566d90021b7d6,
mall,Toko Swalayan,Pasar Sekadau,"2VFQ+WMG, Jl. Flamboyan, Sungai Ringin, Kec. Sekadau Hilir, Kabupaten Sekadau, Kalimantan Barat 79516","Jl. Flamboyan, Sungai Ringin, Kec. Sekadau Hilir, Kabupaten Sekadau",KALIMANTAN BARAT,79516.0,Indonesia,6285239656.0,,,0.0248012,110.8892089,https://maps.google.com/?cid=0x0:0xf17d1c8bcb2ca616,
mall,Toko Pakaian,Mitra Mode,"2VCR+H4C, Jl. Irian, Sungai Ringin, Kec. Sekadau Hilir, Kabupaten Sekadau, Kalimantan Barat 79516","Jl. Irian, Sungai Ringin, Kec. Sekadau Hilir, Kabupaten Sekadau",KALIMANTAN BARAT,79516.0,Indonesia,82254475515.0,,,0.0214429,110.8902724,https://maps.google.com/?cid=0x0:0xb7e4e2e755b26e18,
mall,Pusat Perbelanjaan,APRILSHOP,"XWWP+626, Mungguk, Kec. Sekadau Hilir, Kabupaten Sekadau, Kalimantan Barat 79582","Mungguk, Kec. Sekadau Hilir, Kabupaten Sekadau",KALIMANTAN BARAT,79582.0,Indonesia,8565372664.0,,,-0.0044736,110.9350125,https://maps.google.com/?cid=0x0:0xf3e209db11d5a6fe,
mall,Toko Swalayan,K52 Mart Sekadau,"2V9Q+57M, Mungguk, Kec. Sekadau Hilir, Kabupaten Sekadau, Kalimantan Barat 79516","Mungguk, Kec. Sekadau Hilir, Kabupaten Sekadau",KALIMANTAN BARAT,79516.0,Indonesia,,,,0.0179677,110.8881849,https://maps.google.com/?cid=0x0:0xab82847102eac5ff,
mall,Pusat Perbelanjaan,Trismobail,"2V8H+7PX, Sungai Ringin, Kec. Sekadau Hilir, Kabupaten Sekadau, Kalimantan Barat 79516","Sungai Ringin, Kec. Sekadau Hilir, Kabupaten Sekadau",KALIMANTAN BARAT,79516.0,Indonesia,85313420053.0,,,0.0157353,110.879369,https://maps.google.com/?cid=0x0:0x5ae7141678beac2d,
mall,Toko Buku,Toko Buku VARIASI,"2VFR+P58, Jl. Pasar, Tengah, Kec. Sekadau Hilir, Kabupaten Sekadau, Kalimantan Barat 79516","Jl. Pasar, Tengah, Kec. Sekadau Hilir, Kabupaten Sekadau",KALIMANTAN BARAT,79516.0,Indonesia,56441093.0,,,0.0242824,110.890466,https://maps.google.com/?cid=0x0:0xe4ba39732358f44a,
mall,Pusat Perbelanjaan,Eiger Adventure Sekadau,"Jl. Panglima Naga blok D6, Mungguk, Kec. Sekadau Hilir, Kabupaten Sekadau, Kalimantan Barat 79516","Mungguk, Kec. Sekadau Hilir, Kabupaten Sekadau",KALIMANTAN BARAT,79516.0,Indonesia,81253286539.0,,,0.0170374,110.8904815,https://maps.google.com/?cid=0x0:0xf306992dbe089698,
mall,Pusat Perbelanjaan,Pasar Baru Kabupaten Sekadau,"2V9R+583, Jl. Ps. Baru, Mungguk, Kec. Sekadau Hilir, Kabupaten Sekadau, Kalimantan Barat 79516","Jl. Ps. Baru, Mungguk, Kec. Sekadau Hilir, Kabupaten Sekadau",KALIMANTAN BARAT,79516.0,Indonesia,,,,0.017886,110.8908017,https://maps.google.com/?cid=0x0:0xb75877c42104eaef,
mall,Kantor Perusahaan,Kantor Bupati Sekadau,"Merapi, RT. 05 / RW. 03, Sekadau Hilir, Gonis Tekam, Kec. Sekadau Hilir, Kabupaten Sekadau, Kalimantan Barat 79515","RT. 05 / RW. 03, Sekadau Hilir, Gonis Tekam, Kec. Sekadau Hilir, Kabupaten Sekadau",KALIMANTAN BARAT,79515.0,Indonesia,,,,0.0068866,110.9546661,https://maps.google.com/?cid=0x0:0x5b4aa7ebcb96158b,
mall,Minimarket,Indomaret,"XWWX+C2M, Desa Bokak Sebumbun, Gonis Tekam, Kec. Sekadau Hilir, Kabupaten Sekadau, Kalimantan Barat 79582","Desa Bokak Sebumbun, Gonis Tekam, Kec. Sekadau Hilir, Kabupaten Sekadau",KALIMANTAN BARAT,79582.0,Indonesia,,,,-0.003919,110.9475478,https://maps.google.com/?cid=0x0:0x77d83add502cb38b,
mall,Pusat Perbelanjaan,Toko Sama Senang Sekadau,"Jl. Mawar No.36, Sungai Ringin, Kec. Sekadau Hilir, Kabupaten Sekadau, Kalimantan Barat 79516","Sungai Ringin, Kec. Sekadau Hilir, Kabupaten Sekadau",KALIMANTAN BARAT,79516.0,Indonesia,,,,0.0243805,110.8914588,https://maps.google.com/?cid=0x0:0x8b8a39ba00eeccd3,
mall,Pusat Perbelanjaan,Griya Dekranasda Kabupaten Sekadau,"Jalan Merdeka Timur KM. 9, Sungai Ringin, Sekadau Hilir, Sungai Ringin, Sekadau, Kabupaten Sekadau, Kalimantan Barat 79516","Sungai Ringin, Sekadau Hilir, Sungai Ringin, Sekadau, Kabupaten Sekadau",KALIMANTAN BARAT,79516.0,Indonesia,,,,0.0218283,110.8877374,https://maps.google.com/?cid=0x0:0x4068a094522aed09,
mall,Pusat Perbelanjaan,SJ,"Sungai Ringin, Kec. Sekadau Hilir, Kabupaten Sekadau, Kalimantan Barat 79516","Kec. Sekadau Hilir, Kabupaten Sekadau",KALIMANTAN BARAT,79516.0,Indonesia,,,,0.0246031,110.8905435,https://maps.google.com/?cid=0x0:0xf54ea51868b7d3c6,
mall,Pusat Perbelanjaan,Perimadona,"Jl. Merdeka Timur No.94, Mungguk, Kec. Sekadau Hilir, Kabupaten Sekadau, Kalimantan Barat 79516","Mungguk, Kec. Sekadau Hilir, Kabupaten Sekadau",KALIMANTAN BARAT,79516.0,Indonesia,,,,0.0192733,110.8923365,https://maps.google.com/?cid=0x0:0x64ee7e3f4f470cd2,
mall,Toko,Lapak Buk Niken,"Landau Kodah, Kec. Sekadau Hilir, Kabupaten Sekadau, Kalimantan Barat","Kabupaten Sekadau, Kalimantan Barat",KALIMANTAN BARAT,,Indonesia,,,,0.1198379,110.9202207,https://maps.google.com/?cid=0x0:0x46998d025870767e,
mall,Toko Pakaian,Toko Mitra Sekadau,"2VFR+Q4G, Sungai Ringin, Kec. Sekadau Hilir, Kabupaten Sekadau, Kalimantan Barat 79516","Sungai Ringin, Kec. Sekadau Hilir, Kabupaten Sekadau",KALIMANTAN BARAT,79516.0,Indonesia,,,,0.0244309,110.8903262,https://maps.google.com/?cid=0x0:0x960cc0a466e94474,
mall,Kafe,V_SNACK,"Pasar No.12b, Sungai Ringin, Kec. Sekadau Hilir, Kabupaten Sekadau, Kalimantan Barat","Kabupaten Sekadau, Kalimantan Barat",KALIMANTAN BARAT,,Indonesia,,,,0.0236971,110.8911128,https://maps.google.com/?cid=0x0:0xef0e220abb52796d,
mall,Toko,Toko Gaya Baru,"Sungai Ringin, Kec. Sekadau Hilir, Kabupaten Sekadau, Kalimantan Barat 79516","Kec. Sekadau Hilir, Kabupaten Sekadau",KALIMANTAN BARAT,79516.0,Indonesia,,,,0.0242864,110.8911785,https://maps.google.com/?cid=0x0:0xd974bfec132b904d,
mall,Pusat Perbelanjaan,Star Market Sekadau,"Sungai Ringin, Kec. Sekadau Hilir, Kabupaten Sekadau, Kalimantan Barat 79516","Kec. Sekadau Hilir, Kabupaten Sekadau",KALIMANTAN BARAT,79516.0,Indonesia,81649059324.0,,,0.024492,110.8901165,https://maps.google.com/?cid=0x0:0xd66d073e50ae995c,
mall,Organisasi Nonprofit,Pelayanan masyarakat,"2VFR+X63, Jl. Kapuas, Sungai Ringin, Kec. Sekadau Hilir, Kabupaten Sekadau, Kalimantan Barat 79516","Jl. Kapuas, Sungai Ringin, Kec. Sekadau Hilir, Kabupaten Sekadau",KALIMANTAN BARAT,79516.0,Indonesia,,,,0.0248835,110.8905442,https://maps.google.com/?cid=0x0:0xcd3ce625772e5d6d,
mall,mall,Kalimantan Barat 79516,"Kec. Sekadau Hilir, Kabupaten Sekadau, Kalimantan Barat","Kabupaten Sekadau, Kalimantan Barat",KALIMANTAN BARAT,,Indonesia,,,,-0.034875,110.8552919,https://maps.google.com/?cid=0x0:0x3010e80426de42c5,
mall,Toko Swalayan,Pasar Sekadau,"2VFQ+WMG, Jl. Flamboyan, Sungai Ringin, Kec. Sekadau Hilir, Kabupaten Sekadau, Kalimantan Barat 79516","Jl. Flamboyan, Sungai Ringin, Kec. Sekadau Hilir, Kabupaten Sekadau",KALIMANTAN BARAT,79516.0,Indonesia,6285239656.0,,,0.0248012,110.8892089,https://maps.google.com/?cid=0x0:0xf17d1c8bcb2ca616,
mall,Pusat Perbelanjaan,Trismobail,"2V8H+7PX, Sungai Ringin, Kec. Sekadau Hilir, Kabupaten Sekadau, Kalimantan Barat 79516","Sungai Ringin, Kec. Sekadau Hilir, Kabupaten Sekadau",KALIMANTAN BARAT,79516.0,Indonesia,85313420053.0,,,0.0157353,110.879369,https://maps.google.com/?cid=0x0:0x5ae7141678beac2d,
mall,Pusat Perbelanjaan,Pasar Baru Kabupaten Sekadau,"2V9R+583, Jl. Ps. Baru, Mungguk, Kec. Sekadau Hilir, Kabupaten Sekadau, Kalimantan Barat 79516","Jl. Ps. Baru, Mungguk, Kec. Sekadau Hilir, Kabupaten Sekadau",KALIMANTAN BARAT,79516.0,Indonesia,,,,0.017886,110.8908017,https://maps.google.com/?cid=0x0:0xb75877c42104eaef,
mall,Layanan Transportasi,Mall Pelayan Public Sekadau,"2VCQ+PHH, Sungai Ringin, Kec. Sekadau Hilir, Kabupaten Sekadau, Kalimantan Barat 79516","Sungai Ringin, Kec. Sekadau Hilir, Kabupaten Sekadau",KALIMANTAN BARAT,79516.0,Indonesia,5642042075.0,,,0.0218178,110.8889989,https://maps.google.com/?cid=0x0:0xffd566d90021b7d6,
mall,Pusat Perbelanjaan,Eiger Adventure Sekadau,"Jl. Panglima Naga blok D6, Mungguk, Kec. Sekadau Hilir, Kabupaten Sekadau, Kalimantan Barat 79516","Mungguk, Kec. Sekadau Hilir, Kabupaten Sekadau",KALIMANTAN BARAT,79516.0,Indonesia,81253286539.0,,,0.0170374,110.8904815,https://maps.google.com/?cid=0x0:0xf306992dbe089698,
mall,Toko Pakaian,Mitra Mode,"2VCR+H4C, Jl. Irian, Sungai Ringin, Kec. Sekadau Hilir, Kabupaten Sekadau, Kalimantan Barat 79516","Jl. Irian, Sungai Ringin, Kec. Sekadau Hilir, Kabupaten Sekadau",KALIMANTAN BARAT,79516.0,Indonesia,82254475515.0,,,0.0214429,110.8902724,https://maps.google.com/?cid=0x0:0xb7e4e2e755b26e18,
mall,Toko Swalayan,K52 Mart Sekadau,"2V9Q+57M, Mungguk, Kec. Sekadau Hilir, Kabupaten Sekadau, Kalimantan Barat 79516","Mungguk, Kec. Sekadau Hilir, Kabupaten Sekadau",KALIMANTAN BARAT,79516.0,Indonesia,,,,0.0179677,110.8881849,https://maps.google.com/?cid=0x0:0xab82847102eac5ff,
mall,Toko Buku,Toko Buku VARIASI,"2VFR+P58, Jl. Pasar, Tengah, Kec. Sekadau Hilir, Kabupaten Sekadau, Kalimantan Barat 79516","Jl. Pasar, Tengah, Kec. Sekadau Hilir, Kabupaten Sekadau",KALIMANTAN BARAT,79516.0,Indonesia,56441093.0,,,0.0242824,110.890466,https://maps.google.com/?cid=0x0:0xe4ba39732358f44a,
mall,Pusat Perbelanjaan,SJ,"Sungai Ringin, Kec. Sekadau Hilir, Kabupaten Sekadau, Kalimantan Barat 79516","Kec. Sekadau Hilir, Kabupaten Sekadau",KALIMANTAN BARAT,79516.0,Indonesia,,,,0.0246031,110.8905435,https://maps.google.com/?cid=0x0:0xf54ea51868b7d3c6,
mall,Pusat Perbelanjaan,Griya Dekranasda Kabupaten Sekadau,"Jalan Merdeka Timur KM. 9, Sungai Ringin, Sekadau Hilir, Sungai Ringin, Sekadau, Kabupaten Sekadau, Kalimantan Barat 79516","Sungai Ringin, Sekadau Hilir, Sungai Ringin, Sekadau, Kabupaten Sekadau",KALIMANTAN BARAT,79516.0,Indonesia,,,,0.0218283,110.8877374,https://maps.google.com/?cid=0x0:0x4068a094522aed09,
mall,Pusat Perbelanjaan,Perimadona,"Jl. Merdeka Timur No.94, Mungguk, Kec. Sekadau Hilir, Kabupaten Sekadau, Kalimantan Barat 79516","Mungguk, Kec. Sekadau Hilir, Kabupaten Sekadau",KALIMANTAN BARAT,79516.0,Indonesia,,,,0.0192733,110.8923365,https://maps.google.com/?cid=0x0:0x64ee7e3f4f470cd2,
mall,Pusat Perbelanjaan,Toko Sama Senang Sekadau,"Jl. Mawar No.36, Sungai Ringin, Kec. Sekadau Hilir, Kabupaten Sekadau, Kalimantan Barat 79516","Sungai Ringin, Kec. Sekadau Hilir, Kabupaten Sekadau",KALIMANTAN BARAT,79516.0,Indonesia,,,,0.0243805,110.8914588,https://maps.google.com/?cid=0x0:0x8b8a39ba00eeccd3,
mall,Toko bahan makanan,AJK HARDWARE,"2V9M+MFP, Jl. Lintas Kalimantan Poros Tengah, Sungai Ringin, Kec. Sekadau Hilir, Kabupaten Sekadau, Kalimantan Barat 79516","Jl. Lintas Kalimantan Poros Tengah, Sungai Ringin, Kec. Sekadau Hilir, Kabupaten Sekadau",KALIMANTAN BARAT,79516.0,Indonesia,,,,0.0192064,110.883713,https://maps.google.com/?cid=0x0:0x55711d51b91cbc9b,
mall,Pusat Perbelanjaan,Pasar Rakyat Lawang Kuari Sekadau,"2V8R+HRJ, Jl. Panglima Naga, Mungguk, Kec. Sekadau Hilir, Kabupaten Sekadau, Kalimantan Barat 79516","Jl. Panglima Naga, Mungguk, Kec. Sekadau Hilir, Kabupaten Sekadau",KALIMANTAN BARAT,79516.0,Indonesia,,,,0.0164684,110.8920308,https://maps.google.com/?cid=0x0:0xeb948b9b3f9d2782,
mall,Toko Pakaian,Toko Mitra Sekadau,"2VFR+Q4G, Sungai Ringin, Kec. Sekadau Hilir, Kabupaten Sekadau, Kalimantan Barat 79516","Sungai Ringin, Kec. Sekadau Hilir, Kabupaten Sekadau",KALIMANTAN BARAT,79516.0,Indonesia,,,,0.0244309,110.8903262,https://maps.google.com/?cid=0x0:0x960cc0a466e94474,
mall,Pusat Perbelanjaan,APRILSHOP,"XWWP+626, Mungguk, Kec. Sekadau Hilir, Kabupaten Sekadau, Kalimantan Barat 79582","Mungguk, Kec. Sekadau Hilir, Kabupaten Sekadau",KALIMANTAN BARAT,79582.0,Indonesia,8565372664.0,,,-0.0044736,110.9350125,https://maps.google.com/?cid=0x0:0xf3e209db11d5a6fe,
mall,Toko,Toko Gaya Baru,"Sungai Ringin, Kec. Sekadau Hilir, Kabupaten Sekadau, Kalimantan Barat 79516","Kec. Sekadau Hilir, Kabupaten Sekadau",KALIMANTAN BARAT,79516.0,Indonesia,,,,0.0242864,110.8911785,https://maps.google.com/?cid=0x0:0xd974bfec132b904d,
mall,Pusat Perbelanjaan,HAPPI CELULER,"2VCQ+HP8, Jl. Merdeka Timur, Sungai Ringin, Kec. Sekadau Hilir, Kabupaten Sekadau, Kalimantan Barat 79516","Jl. Merdeka Timur, Sungai Ringin, Kec. Sekadau Hilir, Kabupaten Sekadau",KALIMANTAN BARAT,79516.0,Indonesia,82153926137.0,,,0.0214016,110.8893189,https://maps.google.com/?cid=0x0:0x1e1cda0c09fbd579,
mall,Toko,Warung Topik,"2VFQ+V97, Sungai Ringin, Kec. Sekadau Hilir, Kabupaten Sekadau, Kalimantan Barat 79516","Sungai Ringin, Kec. Sekadau Hilir, Kabupaten Sekadau",KALIMANTAN BARAT,79516.0,Indonesia,81352528081.0,,,0.0246617,110.888409,https://maps.google.com/?cid=0x0:0x28b9f98cc0f74aca,
mall,Pusat Perbelanjaan,Star Market Sekadau,"Sungai Ringin, Kec. Sekadau Hilir, Kabupaten Sekadau, Kalimantan Barat 79516","Kec. Sekadau Hilir, Kabupaten Sekadau",KALIMANTAN BARAT,79516.0,Indonesia,81649059324.0,,,0.024492,110.8901165,https://maps.google.com/?cid=0x0:0xd66d073e50ae995c,
mall,mall,Kalimantan Barat 79582,"Kabupaten Sekadau, Kalimantan Barat","Kabupaten Sekadau, Kalimantan Barat",KALIMANTAN BARAT,,Indonesia,,,,-0.0522503,111.0698858,https://maps.google.com/?cid=0x0:0xd2d3b52d3579742e,
mall,Layanan Transportasi,Mall Pelayan Public Sekadau,"2VCQ+PHH, Sungai Ringin, Kec. Sekadau Hilir, Kabupaten Sekadau, Kalimantan Barat 79516","Sungai Ringin, Kec. Sekadau Hilir, Kabupaten Sekadau",KALIMANTAN BARAT,79516.0,Indonesia,5642042075.0,,,0.0218178,110.8889989,https://maps.google.com/?cid=0x0:0xffd566d90021b7d6,
mall,Pusat Perbelanjaan,APRILSHOP,"XWWP+626, Mungguk, Kec. Sekadau Hilir, Kabupaten Sekadau, Kalimantan Barat 79582","Mungguk, Kec. Sekadau Hilir, Kabupaten Sekadau",KALIMANTAN BARAT,79582.0,Indonesia,8565372664.0,,,-0.0044736,110.9350125,https://maps.google.com/?cid=0x0:0xf3e209db11d5a6fe,
mall,Toko Swalayan,Pasar Sekadau,"2VFQ+WMG, Jl. Flamboyan, Sungai Ringin, Kec. Sekadau Hilir, Kabupaten Sekadau, Kalimantan Barat 79516","Jl. Flamboyan, Sungai Ringin, Kec. Sekadau Hilir, Kabupaten Sekadau",KALIMANTAN BARAT,79516.0,Indonesia,6285239656.0,,,0.0248012,110.8892089,https://maps.google.com/?cid=0x0:0xf17d1c8bcb2ca616,
mall,Minimarket,Indomaret,"XWWX+C2M, Desa Bokak Sebumbun, Gonis Tekam, Kec. Sekadau Hilir, Kabupaten Sekadau, Kalimantan Barat 79582","Desa Bokak Sebumbun, Gonis Tekam, Kec. Sekadau Hilir, Kabupaten Sekadau",KALIMANTAN BARAT,79582.0,Indonesia,,,,-0.003919,110.9475478,https://maps.google.com/?cid=0x0:0x77d83add502cb38b,
mall,Toko Swalayan,K52 Mart Sekadau,"2V9Q+57M, Mungguk, Kec. Sekadau Hilir, Kabupaten Sekadau, Kalimantan Barat 79516","Mungguk, Kec. Sekadau Hilir, Kabupaten Sekadau",KALIMANTAN BARAT,79516.0,Indonesia,,,,0.0179677,110.8881849,https://maps.google.com/?cid=0x0:0xab82847102eac5ff,
mall,Pusat Perbelanjaan,Trismobail,"2V8H+7PX, Sungai Ringin, Kec. Sekadau Hilir, Kabupaten Sekadau, Kalimantan Barat 79516","Sungai Ringin, Kec. Sekadau Hilir, Kabupaten Sekadau",KALIMANTAN BARAT,79516.0,Indonesia,85313420053.0,,,0.0157353,110.879369,https://maps.google.com/?cid=0x0:0x5ae7141678beac2d,
mall,Pusat Perbelanjaan,Eiger Adventure Sekadau,"Jl. Panglima Naga blok D6, Mungguk, Kec. Sekadau Hilir, Kabupaten Sekadau, Kalimantan Barat 79516","Mungguk, Kec. Sekadau Hilir, Kabupaten Sekadau",KALIMANTAN BARAT,79516.0,Indonesia,81253286539.0,,,0.0170374,110.8904815,https://maps.google.com/?cid=0x0:0xf306992dbe089698,
mall,Toko Pakaian,Mitra Mode,"2VCR+H4C, Jl. Irian, Sungai Ringin, Kec. Sekadau Hilir, Kabupaten Sekadau, Kalimantan Barat 79516","Jl. Irian, Sungai Ringin, Kec. Sekadau Hilir, Kabupaten Sekadau",KALIMANTAN BARAT,79516.0,Indonesia,82254475515.0,,,0.0214429,110.8902724,https://maps.google.com/?cid=0x0:0xb7e4e2e755b26e18,
mall,Pusat Perbelanjaan,Toko Sama Senang Sekadau,"Jl. Mawar No.36, Sungai Ringin, Kec. Sekadau Hilir, Kabupaten Sekadau, Kalimantan Barat 79516","Sungai Ringin, Kec. Sekadau Hilir, Kabupaten Sekadau",KALIMANTAN BARAT,79516.0,Indonesia,,,,0.0243805,110.8914588,https://maps.google.com/?cid=0x0:0x8b8a39ba00eeccd3,
mall,Pusat Perbelanjaan,Star Market Sekadau,"Sungai Ringin, Kec. Sekadau Hilir, Kabupaten Sekadau, Kalimantan Barat 79516","Kec. Sekadau Hilir, Kabupaten Sekadau",KALIMANTAN BARAT,79516.0,Indonesia,81649059324.0,,,0.024492,110.8901165,https://maps.google.com/?cid=0x0:0xd66d073e50ae995c,
mall,Pusat Perbelanjaan,Pasar Baru Kabupaten Sekadau,"2V9R+583, Jl. Ps. Baru, Mungguk, Kec. Sekadau Hilir, Kabupaten Sekadau, Kalimantan Barat 79516","Jl. Ps. Baru, Mungguk, Kec. Sekadau Hilir, Kabupaten Sekadau",KALIMANTAN BARAT,79516.0,Indonesia,,,,0.017886,110.8908017,https://maps.google.com/?cid=0x0:0xb75877c42104eaef,
mall,Pembangunan Perumahan,Toko Marlis Dusun segori desa gonis tekam,"X333+W9V, Unnamed Road, Gonis Tekam, Kec. Sekadau Hilir, Kabupaten Sekadau, Kalimantan Barat 79582","Unnamed Road, Gonis Tekam, Kec. Sekadau Hilir, Kabupaten Sekadau",KALIMANTAN BARAT,79582.0,Indonesia,85252629977.0,,,-0.0451479,111.0534102,https://maps.google.com/?cid=0x0:0x2faf6f24aef39a47,
mall,Toko Buku,Toko Buku VARIASI,"2VFR+P58, Jl. Pasar, Tengah, Kec. Sekadau Hilir, Kabupaten Sekadau, Kalimantan Barat 79516","Jl. Pasar, Tengah, Kec. Sekadau Hilir, Kabupaten Sekadau",KALIMANTAN BARAT,79516.0,Indonesia,56441093.0,,,0.0242824,110.890466,https://maps.google.com/?cid=0x0:0xe4ba39732358f44a,
mall,Toko Kesehatan dan Kecantikan,VJ Shop / VJ Beauty Studio,"Komplek Ruko, Jalan Panglima Naga No.13, Pasar Baru, Kec. Sekadau Hilir, Kabupaten Sekadau, Kalimantan Barat 79582","Jalan Panglima Naga No.13, Pasar Baru, Kec. Sekadau Hilir, Kabupaten Sekadau",KALIMANTAN BARAT,79582.0,Indonesia,82248142278.0,,,-0.0457977,111.0667604,https://maps.google.com/?cid=0x0:0xede3b0507059d1b7,
mall,Pusat Perbelanjaan,Pasar Rakyat Lawang Kuari Sekadau,"2V8R+HRJ, Jl. Panglima Naga, Mungguk, Kec. Sekadau Hilir, Kabupaten Sekadau, Kalimantan Barat 79516","Jl. Panglima Naga, Mungguk, Kec. Sekadau Hilir, Kabupaten Sekadau",KALIMANTAN BARAT,79516.0,Indonesia,,,,0.0164684,110.8920308,https://maps.google.com/?cid=0x0:0xeb948b9b3f9d2782,
mall,Pusat Perbelanjaan,Griya Dekranasda Kabupaten Sekadau,"Jalan Merdeka Timur KM. 9, Sungai Ringin, Sekadau Hilir, Sungai Ringin, Sekadau, Kabupaten Sekadau, Kalimantan Barat 79516","Sungai Ringin, Sekadau Hilir, Sungai Ringin, Sekadau, Kabupaten Sekadau",KALIMANTAN BARAT,79516.0,Indonesia,,,,0.0218283,110.8877374,https://maps.google.com/?cid=0x0:0x4068a094522aed09,
mall,Pusat Perbelanjaan,Perimadona,"Jl. Merdeka Timur No.94, Mungguk, Kec. Sekadau Hilir, Kabupaten Sekadau, Kalimantan Barat 79516","Mungguk, Kec. Sekadau Hilir, Kabupaten Sekadau",KALIMANTAN BARAT,79516.0,Indonesia,,,,0.0192733,110.8923365,https://maps.google.com/?cid=0x0:0x64ee7e3f4f470cd2,
mall,Pusat Perbelanjaan,SJ,"Sungai Ringin, Kec. Sekadau Hilir, Kabupaten Sekadau, Kalimantan Barat 79516","Kec. Sekadau Hilir, Kabupaten Sekadau",KALIMANTAN BARAT,79516.0,Indonesia,,,,0.0246031,110.8905435,https://maps.google.com/?cid=0x0:0xf54ea51868b7d3c6,
mall,Pusat Perbelanjaan,Khatulistiwa Store,"Jalan H. Abdurrahman Desa No.225, RT.14/RW.06, Sungai Ringin, Kec. Sekadau Hilir, Kabupaten Sekadau, Kalimantan Barat 78582","RT.14/RW.06, Sungai Ringin, Kec. Sekadau Hilir, Kabupaten Sekadau",KALIMANTAN BARAT,78582.0,Indonesia,81256195678.0,,,0.021436,110.88296,https://maps.google.com/?cid=0x0:0xb4e3674a94a8ff1b,
mall,Komplek perumahan,Ayam kalkun Sekadau,"X2XF+XJ4, Jl. Lintas Kalimantan Poros Tengah, Gonis Tekam, Kec. Sekadau Hilir, Kabupaten Sekadau, Kalimantan Barat 79511","Jl. Lintas Kalimantan Poros Tengah, Gonis Tekam, Kec. Sekadau Hilir, Kabupaten Sekadau",KALIMANTAN BARAT,79511.0,Indonesia,85787418497.0,,,-0.0001019,111.0240934,https://maps.google.com/?cid=0x0:0xbb74f66f1660b15c,
mall,Toko,Toko Perintis,"W27X+XXJ, Engkersik, Kec. Sekadau Hilir, Kabupaten Sekadau, Kalimantan Barat 79583","Engkersik, Kec. Sekadau Hilir, Kabupaten Sekadau",KALIMANTAN BARAT,79583.0,Indonesia,,,,-0.085036,111.0498963,https://maps.google.com/?cid=0x0:0xaa40a04849d34f73,
mall,Toko,Toko Gaya Baru,"Sungai Ringin, Kec. Sekadau Hilir, Kabupaten Sekadau, Kalimantan Barat 79516","Kec. Sekadau Hilir, Kabupaten Sekadau",KALIMANTAN BARAT,79516.0,Indonesia,,,,0.0242864,110.8911785,https://maps.google.com/?cid=0x0:0xd974bfec132b904d,
mall,mall,Kalimantan Barat 79583,"Kec. Sekadau Hulu, Kabupaten Sekadau, Kalimantan Barat","Kabupaten Sekadau, Kalimantan Barat",KALIMANTAN BARAT,,Indonesia,,,,-0.174604,110.9506636,https://maps.google.com/?cid=0x0:0xf36139f714788db6,
mall,Layanan Transportasi,Mall Pelayan Public Sekadau,"2VCQ+PHH, Sungai Ringin, Kec. Sekadau Hilir, Kabupaten Sekadau, Kalimantan Barat 79516","Sungai Ringin, Kec. Sekadau Hilir, Kabupaten Sekadau",KALIMANTAN BARAT,79516.0,Indonesia,5642042075.0,,,0.0218178,110.8889989,https://maps.google.com/?cid=0x0:0xffd566d90021b7d6,
mall,Pusat Perbelanjaan,Mall mitra pelangi sekadau,"Jl. Flamboyan No.1, Sungai Ringin, Kec. Sekadau Hilir, Kabupaten Sekadau, Kalimantan Barat 79516","Sungai Ringin, Kec. Sekadau Hilir, Kabupaten Sekadau",KALIMANTAN BARAT,79516.0,Indonesia,,,,0.0242735,110.8902388,https://maps.google.com/?cid=0x0:0xd20869e60544849,
mall,Toko Swalayan,Pasar Sekadau,"2VFQ+WMG, Jl. Flamboyan, Sungai Ringin, Kec. Sekadau Hilir, Kabupaten Sekadau, Kalimantan Barat 79516","Jl. Flamboyan, Sungai Ringin, Kec. Sekadau Hilir, Kabupaten Sekadau",KALIMANTAN BARAT,79516.0,Indonesia,6285239656.0,,,0.0248012,110.8892089,https://maps.google.com/?cid=0x0:0xf17d1c8bcb2ca616,
mall,mall,Kabupaten Sekadau,Kalimantan Barat,"Kabupaten Sekadau, Kalimantan Barat",KALIMANTAN BARAT,,Indonesia,,,,-0.0697175,110.9983515,https://maps.google.com/?cid=0x0:0x6a43959c316aad0,
mall,Pusat Perbelanjaan,APRILSHOP,"XWWP+626, Mungguk, Kec. Sekadau Hilir, Kabupaten Sekadau, Kalimantan Barat 79582","Mungguk, Kec. Sekadau Hilir, Kabupaten Sekadau",KALIMANTAN BARAT,79582.0,Indonesia,8565372664.0,,,-0.0044736,110.9350125,https://maps.google.com/?cid=0x0:0xf3e209db11d5a6fe,
mall,Minimarket,Indomaret Sekadau Hulu,"Unnamed Road, 79583, Rawak Hulu, Kec. Sekadau Hulu, Kabupaten Sekadau, Kalimantan Barat 79583","79583, Rawak Hulu, Kec. Sekadau Hulu, Kabupaten Sekadau",KALIMANTAN BARAT,79583.0,Indonesia,,,,-0.1359787,110.8749199,https://maps.google.com/?cid=0x0:0xcba4598fecc97027,
mall,Toko,Toko Perintis,"W27X+XXJ, Engkersik, Kec. Sekadau Hilir, Kabupaten Sekadau, Kalimantan Barat 79583","Engkersik, Kec. Sekadau Hilir, Kabupaten Sekadau",KALIMANTAN BARAT,79583.0,Indonesia,,,,-0.085036,111.0498963,https://maps.google.com/?cid=0x0:0xaa40a04849d34f73,
mall,Pusat Perbelanjaan,Griya Dekranasda Kabupaten Sekadau,"Jalan Merdeka Timur KM. 9, Sungai Ringin, Sekadau Hilir, Sungai Ringin, Sekadau, Kabupaten Sekadau, Kalimantan Barat 79516","Sungai Ringin, Sekadau Hilir, Sungai Ringin, Sekadau, Kabupaten Sekadau",KALIMANTAN BARAT,79516.0,Indonesia,,,,0.0218283,110.8877374,https://maps.google.com/?cid=0x0:0x4068a094522aed09,
mall,Pusat Perbelanjaan,Toko Usaha Baru,"PRM7+FHF, Nanga Taman, Kec. Nanga Taman, Kabupaten Sekadau, Kalimantan Barat 79584","Nanga Taman, Kec. Nanga Taman, Kabupaten Sekadau",KALIMANTAN BARAT,79584.0,Indonesia,82172700800.0,,,-0.2663012,110.8139105,https://maps.google.com/?cid=0x0:0x9fd7de60e279d4e,
mall,Toko Pakaian,Berkat Usaha Mentrap,"XW2J+264, Nanga Menterap, Kec. Sekadau Hulu, Kabupaten Sekadau, Kalimantan Barat","Kabupaten Sekadau, Kalimantan Barat",KALIMANTAN BARAT,,Indonesia,,,,-0.0499778,110.9305891,https://maps.google.com/?cid=0x0:0x1956739d9166aff9,
mall,mall,Toko Pertanian Agro Wiratama Mandiri,"VV8J+VQW, Rawak Hilir, Kec. Sekadau Hulu, Kabupaten Sekadau, Kalimantan Barat","Kabupaten Sekadau, Kalimantan Barat",KALIMANTAN BARAT,,Indonesia,,,,-0.1329292,110.8818967,https://maps.google.com/?cid=0x0:0x2dace6f2c006dc25,
mall,Toko,AGEN34 MART ATM MINI,"Jalan kayu lapis No.km 34, Nanga Pemubuh, Kec. Sekadau Hulu, Kabupaten Sekadau, Kalimantan Barat 79583","Nanga Pemubuh, Kec. Sekadau Hulu, Kabupaten Sekadau",KALIMANTAN BARAT,79583.0,Indonesia,,,,-0.2315598,111.0908062,https://maps.google.com/?cid=0x0:0xbec2f875f3f24f8,
mall,Toko,Toko Gaya Baru,"Sungai Ringin, Kec. Sekadau Hilir, Kabupaten Sekadau, Kalimantan Barat 79516","Kec. Sekadau Hilir, Kabupaten Sekadau",KALIMANTAN BARAT,79516.0,Indonesia,,,,0.0242864,110.8911785,https://maps.google.com/?cid=0x0:0xd974bfec132b904d,
mall,Pembangunan Perumahan,Toko Marlis Dusun segori desa gonis tekam,"X333+W9V, Unnamed Road, Gonis Tekam, Kec. Sekadau Hilir, Kabupaten Sekadau, Kalimantan Barat 79582","Unnamed Road, Gonis Tekam, Kec. Sekadau Hilir, Kabupaten Sekadau",KALIMANTAN BARAT,79582.0,Indonesia,85252629977.0,,,-0.0451479,111.0534102,https://maps.google.com/?cid=0x0:0x2faf6f24aef39a47,
mall,Pusat Perbelanjaan,Star Market Sekadau,"Sungai Ringin, Kec. Sekadau Hilir, Kabupaten Sekadau, Kalimantan Barat 79516","Kec. Sekadau Hilir, Kabupaten Sekadau",KALIMANTAN BARAT,79516.0,Indonesia,81649059324.0,,,0.024492,110.8901165,https://maps.google.com/?cid=0x0:0xd66d073e50ae995c,
mall,Pusat Perbelanjaan,EIGER STORE SEKADAU,"Kompleks, Jl. Ps. Baru No.10, Mungguk, Kec. Sekadau Hilir, Kabupaten Sekadau, Kalimantan Barat 79516","Jl. Ps. Baru No.10, Mungguk, Kec. Sekadau Hilir, Kabupaten Sekadau",KALIMANTAN BARAT,79516.0,Indonesia,81522861115.0,,,0.0175394,110.8905102,https://maps.google.com/?cid=0x0:0xc00e872953f12ac9,
mall,Toko Kesehatan dan Kecantikan,VJ Shop / VJ Beauty Studio,"Komplek Ruko, Jalan Panglima Naga No.13, Pasar Baru, Kec. Sekadau Hilir, Kabupaten Sekadau, Kalimantan Barat 79582","Jalan Panglima Naga No.13, Pasar Baru, Kec. Sekadau Hilir, Kabupaten Sekadau",KALIMANTAN BARAT,79582.0,Indonesia,82248142278.0,,,-0.0457977,111.0667604,https://maps.google.com/?cid=0x0:0xede3b0507059d1b7,
mall,Pusat Perbelanjaan,Khatulistiwa Store,"Jalan H. Abdurrahman Desa No.225, RT.14/RW.06, Sungai Ringin, Kec. Sekadau Hilir, Kabupaten Sekadau, Kalimantan Barat 78582","RT.14/RW.06, Sungai Ringin, Kec. Sekadau Hilir, Kabupaten Sekadau",KALIMANTAN BARAT,78582.0,Indonesia,81256195678.0,,,0.021436,110.88296,https://maps.google.com/?cid=0x0:0xb4e3674a94a8ff1b,
mall,Minimarket,Indomaret,"XWWX+C2M, Desa Bokak Sebumbun, Gonis Tekam, Kec. Sekadau Hilir, Kabupaten Sekadau, Kalimantan Barat 79582","Desa Bokak Sebumbun, Gonis Tekam, Kec. Sekadau Hilir, Kabupaten Sekadau",KALIMANTAN BARAT,79582.0,Indonesia,,,,-0.003919,110.9475478,https://maps.google.com/?cid=0x0:0x77d83add502cb38b,
mall,Toko Pakaian,Mitra Mode,"2VCR+H4C, Jl. Irian, Sungai Ringin, Kec. Sekadau Hilir, Kabupaten Sekadau, Kalimantan Barat 79516","Jl. Irian, Sungai Ringin, Kec. Sekadau Hilir, Kabupaten Sekadau",KALIMANTAN BARAT,79516.0,Indonesia,82254475515.0,,,0.0214429,110.8902724,https://maps.google.com/?cid=0x0:0xb7e4e2e755b26e18,
mall,Toko Swalayan,K52 Mart Sekadau,"2V9Q+57M, Mungguk, Kec. Sekadau Hilir, Kabupaten Sekadau, Kalimantan Barat 79516","Mungguk, Kec. Sekadau Hilir, Kabupaten Sekadau",KALIMANTAN BARAT,79516.0,Indonesia,,,,0.0179677,110.8881849,https://maps.google.com/?cid=0x0:0xab82847102eac5ff,
mall,Pusat Perbelanjaan,Toko Sama Senang Sekadau,"Jl. Mawar No.36, Sungai Ringin, Kec. Sekadau Hilir, Kabupaten Sekadau, Kalimantan Barat 79516","Sungai Ringin, Kec. Sekadau Hilir, Kabupaten Sekadau",KALIMANTAN BARAT,79516.0,Indonesia,,,,0.0243805,110.8914588,https://maps.google.com/?cid=0x0:0x8b8a39ba00eeccd3,
mall,Toko Pakaian,Toko Mitra Sekadau,"2VFR+Q4G, Sungai Ringin, Kec. Sekadau Hilir, Kabupaten Sekadau, Kalimantan Barat 79516","Sungai Ringin, Kec. Sekadau Hilir, Kabupaten Sekadau",KALIMANTAN BARAT,79516.0,Indonesia,,,,0.0244309,110.8903262,https://maps.google.com/?cid=0x0:0x960cc0a466e94474,
mall,Kafe,V_SNACK,"Pasar No.12b, Sungai Ringin, Kec. Sekadau Hilir, Kabupaten Sekadau, Kalimantan Barat","Kabupaten Sekadau, Kalimantan Barat",KALIMANTAN BARAT,,Indonesia,,,,0.0236971,110.8911128,https://maps.google.com/?cid=0x0:0xef0e220abb52796d,
mall,Pusat Perbelanjaan,Pasar Rakyat Lawang Kuari Sekadau,"2V8R+HRJ, Jl. Panglima Naga, Mungguk, Kec. Sekadau Hilir, Kabupaten Sekadau, Kalimantan Barat 79516","Jl. Panglima Naga, Mungguk, Kec. Sekadau Hilir, Kabupaten Sekadau",KALIMANTAN BARAT,79516.0,Indonesia,,,,0.0164684,110.8920308,https://maps.google.com/?cid=0x0:0xeb948b9b3f9d2782,
mall,Komplek perumahan,Ladies Store,"Q44R+7H3, Jln putung kempat, RT.05/RW.03, Sekubang, Sepauk, Sintang Regency, West Kalimantan 78662","Jln putung kempat, RT.05/RW.03, Sekubang, Sepauk, Sintang Regency",KALIMANTAN BARAT,78662.0,Indonesia,81257443105.0,,,-0.2443697,111.1414226,https://maps.google.com/?cid=0x0:0x8cd57c977513a490,
mall,mall,Ruko Selera Anda 3,"QRQH+4F, Sekonau, Kec. Sekadau Hulu, Kabupaten Sekadau, Kalimantan Barat 79583","Sekonau, Kec. Sekadau Hulu, Kabupaten Sekadau",KALIMANTAN BARAT,79583.0,Indonesia,,,,-0.2121875,110.8286875,https://maps.google.com/?cid=0x0:0x8b77c88047da5450,
mall,mall,Toko Usaha Jaya,"VV8G+PRX, Rawak Hilir, Kec. Sekadau Hulu, Kabupaten Sekadau, Kalimantan Barat","Kabupaten Sekadau, Kalimantan Barat",KALIMANTAN BARAT,,Indonesia,,,,-0.133138,110.8771237,https://maps.google.com/?cid=0x0:0xadcd643557dc0a18,
supermarket,supermarket,Belitang,"Belitang Satu, Kec. Belitang, Kabupaten Sekadau, Kalimantan Barat","Kabupaten Sekadau, Kalimantan Barat",KALIMANTAN BARAT,,Indonesia,,,,0.12797,111.241501,https://maps.google.com/?cid=0x0:0x21926f63d903f773,
supermarket,Tujuan Wisata,Pasar Belitang,"46JV+G47, Belitang Dua, Kec. Belitang, Kabupaten Sekadau, Kalimantan Barat 79588","Belitang Dua, Kec. Belitang, Kabupaten Sekadau",KALIMANTAN BARAT,79588.0,Indonesia,,,,0.131293,111.242797,https://maps.google.com/?cid=0x0:0xc1b359154dd788f1,
supermarket,Toko umum,Toko Akhiong,"35JW+2H2, Entabuk, Kec. Belitang Hilir, Kabupaten Sekadau, Kalimantan Barat 79588","Entabuk, Kec. Belitang Hilir, Kabupaten Sekadau",KALIMANTAN BARAT,79588.0,Indonesia,,,,0.0800102,111.196376,https://maps.google.com/?cid=0x0:0x1afea9c79a122f68,
supermarket,Toko bahan makanan,Bintang Timur,"2V8X+26V, Tanjung, Kec. Sekadau Hilir, Kabupaten Sekadau, Kalimantan Barat 79516","Tanjung, Kec. Sekadau Hilir, Kabupaten Sekadau",KALIMANTAN BARAT,79516.0,Indonesia,,,,0.0151186,110.8980517,https://maps.google.com/?cid=0x0:0x794fbf462d225d27,
supermarket,Minimarket,MADIN MART,"55HM+W8H, jln poros, SP2, desa maboh permai, Padak, Kec. Belitang, Kabupaten Sekadau, Kalimantan Barat 79586","jln poros, SP2, desa maboh permai, Padak, Kec. Belitang, Kabupaten Sekadau",KALIMANTAN BARAT,79586.0,Indonesia,,,,0.179823,111.1833639,https://maps.google.com/?cid=0x0:0x91259cf89bf31d26,
supermarket,Pusat Perbelanjaan,Toko Serba Sentosa Simpang Pt PAM,"634V+PMQ, Tapang Pulau, Kec. Belitang Hilir, Kabupaten Sekadau, Kalimantan Barat 79586","Tapang Pulau, Kec. Belitang Hilir, Kabupaten Sekadau",KALIMANTAN BARAT,79586.0,Indonesia,,,,0.2068371,111.0942479,https://maps.google.com/?cid=0x0:0x27c5534279580ddf,
supermarket,,toko sumber makmur,"434C+J4H, Sungai Ayak III, Kec. Belitang Hilir, Kabupaten Sekadau, Kalimantan Barat 79512","Sungai Ayak III, Kec. Belitang Hilir, Kabupaten Sekadau",KALIMANTAN BARAT,79512.0,Indonesia,,,,0.1065544,111.0703712,https://maps.google.com/?cid=0x0:0xff24a86317f5b572,
supermarket,Pusat Perbelanjaan,Star Market Sekadau,"Sungai Ringin, Kec. Sekadau Hilir, Kabupaten Sekadau, Kalimantan Barat 79516","Kec. Sekadau Hilir, Kabupaten Sekadau",KALIMANTAN BARAT,79516.0,Indonesia,81649059324.0,,,0.024492,110.8901165,https://maps.google.com/?cid=0x0:0xd66d073e50ae995c,
supermarket,Toko Swalayan,Toko Sejati,"2VFQ+VRV, Jl. Syaikh Muhammad Al-Khidhir, Sungai Ringin, Kec. Sekadau Hilir, Kabupaten Sekadau, Kalimantan Barat 79516","Jl. Syaikh Muhammad Al-Khidhir, Sungai Ringin, Kec. Sekadau Hilir, Kabupaten Sekadau",KALIMANTAN BARAT,79516.0,Indonesia,81345425212.0,,,0.0247326,110.8895481,https://maps.google.com/?cid=0x0:0x4b16f3216c614d41,
supermarket,Minimarket,Mita Mart,"2VCR+542, Sungai Ringin, Kec. Sekadau Hilir, Kabupaten Sekadau, Kalimantan Barat 79516","Sungai Ringin, Kec. Sekadau Hilir, Kabupaten Sekadau",KALIMANTAN BARAT,79516.0,Indonesia,,,,0.0202641,110.8903849,https://maps.google.com/?cid=0x0:0x8edec6e766f01192,
supermarket,Toko bahan makanan,Toko Maju Bersama,"X3VP+W85, Jl. Lintas Kalimantan Poros Tengah, Tapang Semadak, Kec. Sekadau Hilir, Kabupaten Sekadau, Kalimantan Barat 79582","Jl. Lintas Kalimantan Poros Tengah, Tapang Semadak, Kec. Sekadau Hilir, Kabupaten Sekadau",KALIMANTAN BARAT,79582.0,Indonesia,82157057070.0,,,-0.0052462,111.0858582,https://maps.google.com/?cid=0x0:0xa4ca08ac42ea4935,
supermarket,supermarket,Kec. Belitang,"Kabupaten Ogan Komering Ulu Timur, Sumatera Selatan","Kabupaten Ogan Komering Ulu Timur, Sumatera Selatan",KALIMANTAN BARAT,,Indonesia,,,,-4.1402273,104.6278606,https://maps.google.com/?cid=0x0:0xbffde04fd06442eb,
supermarket,Pasar,Pasar Gumawang,"Gumawang, Kec. Belitang, Kabupaten Ogan Komering Ulu Timur, Sumatera Selatan 32382","Kec. Belitang, Kabupaten Ogan Komering Ulu Timur",KALIMANTAN BARAT,32382.0,Indonesia,,,,-4.1097681,104.6501617,https://maps.google.com/?cid=0x0:0xcbe9f3d453129935,
supermarket,supermarket,DELIVERY BELITANG,"Jl. Jenderal Sudirman, Gumawang, Kec. Belitang, Kabupaten Ogan Komering Ulu Timur, Sumatera Selatan 32382","Gumawang, Kec. Belitang, Kabupaten Ogan Komering Ulu Timur",KALIMANTAN BARAT,32382.0,Indonesia,81371280202.0,,,-4.1092332,104.6473585,https://maps.google.com/?cid=0x0:0xe328bdfcd1c41fa,
supermarket,Toko umum,Toko ALAMANDA,"VMQ2+R66, Gumawang, Belitang, Bedilan, Ogan Komering Ilir Timur, Kabupaten Ogan Komering Ulu Timur, Sumatera Selatan 32382","Gumawang, Belitang, Bedilan, Ogan Komering Ilir Timur, Kabupaten Ogan Komering Ulu Timur",KALIMANTAN BARAT,32382.0,Indonesia,,,,-4.1104692,104.6505009,https://maps.google.com/?cid=0x0:0x3e6b4aa77b84d638,
supermarket,Toko,TOKO BERKAH,"Jl. Tawang Rejo, Gn. Mas, Kec. Belitang, Kabupaten Ogan Komering Ulu Timur, Sumatera Selatan 32382","Gn. Mas, Kec. Belitang, Kabupaten Ogan Komering Ulu Timur",KALIMANTAN BARAT,32382.0,Indonesia,82226660253.0,,,-4.1947173,104.6346438,https://maps.google.com/?cid=0x0:0x7c056a657b639686,
supermarket,Minimarket,Alfamart,"Jl. Hamzah Bk. 9 Dsn. 2 Rt. 00 Belitang Kab, Serbaguna, Kec. Belitang, Kabupaten Ogan Komering Ulu Timur, Sumatera Selatan 32182","Serbaguna, Kec. Belitang, Kabupaten Ogan Komering Ulu Timur",KALIMANTAN BARAT,32182.0,Indonesia,1500959.0,,,-4.1420114,104.6330144,https://maps.google.com/?cid=0x0:0x131b48059b7de55,
supermarket,Toko Pertanian,PI MART,"WM86+QV4, Jl. Yosowinangun, Marga Cinta, Belitang Madang Raya, East Ogan Komering Ulu Regency, South Sumatra 32382","Jl. Yosowinangun, Marga Cinta, Belitang Madang Raya, East Ogan Komering Ulu Regency",KALIMANTAN BARAT,32382.0,Indonesia,,,,-4.0831048,104.662207,https://maps.google.com/?cid=0x0:0x63b3f22ea07779f6,
supermarket,Toko,Grobest,"Harjo Winangun, Kec. Belitang, Kabupaten Ogan Komering Ulu Timur, Sumatera Selatan 32382","Kec. Belitang, Kabupaten Ogan Komering Ulu Timur",KALIMANTAN BARAT,32382.0,Indonesia,82280411174.0,,,-4.129269,104.6476846,https://maps.google.com/?cid=0x0:0x14ab2784bdb90ba5,
supermarket,Toko,TOKO ISMAIL,"RJVM+39W, Jl. Dusun Karang Rejo, Serbaguna, Kec. Belitang, Kabupaten Ogan Komering Ulu Timur, Sumatera Selatan 32382","Jl. Dusun Karang Rejo, Serbaguna, Kec. Belitang, Kabupaten Ogan Komering Ulu Timur",KALIMANTAN BARAT,32382.0,Indonesia,85267618323.0,,,-4.1572502,104.6334409,https://maps.google.com/?cid=0x0:0xaab827e23eab2696,
supermarket,Pasar Makanan Segar,Pasar Tempel Sidomulyo,"RJXX+5H6, Sidomulyo, Kec. Belitang, Kabupaten Ogan Komering Ulu Timur, Sumatera Selatan 32382","Sidomulyo, Kec. Belitang, Kabupaten Ogan Komering Ulu Timur",KALIMANTAN BARAT,32382.0,Indonesia,,,,-4.152083,104.6488992,https://maps.google.com/?cid=0x0:0xb6615263c7fec620,
supermarket,Toko,Toko Sinar Terang Kyai Eri,"bk No.10, Gumawang, Kec. Belitang, Kabupaten Ogan Komering Ulu Timur, Sumatera Selatan 32382","Gumawang, Kec. Belitang, Kabupaten Ogan Komering Ulu Timur",KALIMANTAN BARAT,32382.0,Indonesia,85273185845.0,,,-4.1091268,104.6504951,https://maps.google.com/?cid=0x0:0x14729af196090ce7,
supermarket,Toko bahan makanan,Toko Sukarni,"VJRX+4HP, Gumawang, Kec. Belitang, Kabupaten Ogan Komering Ulu Timur, Sumatera Selatan 32382","Gumawang, Kec. Belitang, Kabupaten Ogan Komering Ulu Timur",KALIMANTAN BARAT,32382.0,Indonesia,,,,-4.1096739,104.6489616,https://maps.google.com/?cid=0x0:0x676ac49be7c12b87,
supermarket,Minimarket,Indomaret Tawang Rejo,"RJ4M+5J3, Gn. Mas, Kec. Belitang, Kabupaten Ogan Komering Ulu Timur, Sumatera Selatan 32382","Gn. Mas, Kec. Belitang, Kabupaten Ogan Komering Ulu Timur",KALIMANTAN BARAT,32382.0,Indonesia,,,,-4.1946013,104.6340589,https://maps.google.com/?cid=0x0:0x4f05ffeadf9e0e45,
supermarket,Toko Swalayan,Kedai Dika,"Jl. Cemp., Gumawang, Kec. Belitang, Kabupaten Ogan Komering Ulu Timur, Sumatera Selatan 32382","Gumawang, Kec. Belitang, Kabupaten Ogan Komering Ulu Timur",KALIMANTAN BARAT,32382.0,Indonesia,85265655950.0,,,-4.1117669,104.649049,https://maps.google.com/?cid=0x0:0x59d66606237b0692,
supermarket,Toko,Alfamart,"Jl. Raya Belitang Bk. 6 Rt. 01, Sido Rahayu, Kec. Belitang, Kabupaten Ogan Komering Ulu Timur, Sumatera Selatan 32182","Sido Rahayu, Kec. Belitang, Kabupaten Ogan Komering Ulu Timur",KALIMANTAN BARAT,32182.0,Indonesia,1500959.0,,,-4.1840077,104.6089816,https://maps.google.com/?cid=0x0:0x28611f0ad998bf2e,
supermarket,Minimarket,Marda jaya service,"VJHW+X3Q, Jl. Manggis, Tegal Rejo, Kec. Belitang, Kabupaten Ogan Komering Ulu Timur, Sumatera Selatan 32382","Jl. Manggis, Tegal Rejo, Kec. Belitang, Kabupaten Ogan Komering Ulu Timur",KALIMANTAN BARAT,32382.0,Indonesia,85839189930.0,,,-4.1200296,104.6452254,https://maps.google.com/?cid=0x0:0x5899897508c03142,
supermarket,Toko Perlengkapan Rumah,"POM Mini, BRILink  Toko","VJJW+VGJ, Unnamed Road, Tegal Rejo, Kec. Belitang, Kabupaten Ogan Komering Ulu Timur, Sumatera Selatan 32382","Unnamed Road, Tegal Rejo, Kec. Belitang, Kabupaten Ogan Komering Ulu Timur",KALIMANTAN BARAT,32382.0,Indonesia,82279858698.0,,,-4.1177761,104.6462667,https://maps.google.com/?cid=0x0:0x932959ac2146957d,
supermarket,Pusat Perbelanjaan,Toko Suwito BK6 Pasar Sido Rahayu,"RJ84+MMG, Jl. Raya Sidorahayu, Sido Rahayu, Kec. Belitang, Kabupaten Ogan Komering Ulu Timur, Sumatera Selatan 32382","Jl. Raya Sidorahayu, Sido Rahayu, Kec. Belitang, Kabupaten Ogan Komering Ulu Timur",KALIMANTAN BARAT,32382.0,Indonesia,,,,-4.1833192,104.606691,https://maps.google.com/?cid=0x0:0x9643fe25f78e3b28,
supermarket,supermarket,Kalimantan Barat 79588,"Kec. Belitang, Kabupaten Sekadau, Kalimantan Barat","Kabupaten Sekadau, Kalimantan Barat",KALIMANTAN BARAT,,Indonesia,,,,0.2617615,111.2129616,https://maps.google.com/?cid=0x0:0x5479f9f1b87cf60,
supermarket,Pusat Perbelanjaan,Leo Collection,"Jalan Poros, Maboh Permai, Kec. Belitang, Kabupaten Sekadau, Kalimantan Barat 79586","Maboh Permai, Kec. Belitang, Kabupaten Sekadau",KALIMANTAN BARAT,79586.0,Indonesia,82251536162.0,,,0.1804962,111.1891546,https://maps.google.com/?cid=0x0:0xa9d147606b2ad658,
supermarket,Toko umum,Toko Akhiong,"35JW+2H2, Entabuk, Kec. Belitang Hilir, Kabupaten Sekadau, Kalimantan Barat 79588","Entabuk, Kec. Belitang Hilir, Kabupaten Sekadau",KALIMANTAN BARAT,79588.0,Indonesia,,,,0.0800102,111.196376,https://maps.google.com/?cid=0x0:0x1afea9c79a122f68,
supermarket,Toko Swalayan,Toko Merry,"Jalan Kapuas No.simpang, Belitang Satu, Kec. Belitang, Kabupaten Sekadau, Kalimantan Barat","Kabupaten Sekadau, Kalimantan Barat",KALIMANTAN BARAT,,Indonesia,,,,0.1340694,111.2381316,https://maps.google.com/?cid=0x0:0xe59d94e7e694990,
supermarket,Toko umum,Toko Jihan,"Jl. Harisman, Dusun Stalon, Belitang Dua, Kec. Belitang, Kabupaten Sekadau, Kalimantan Barat 79588","Dusun Stalon, Belitang Dua, Kec. Belitang, Kabupaten Sekadau",KALIMANTAN BARAT,79588.0,Indonesia,,,,0.1651477,111.2321242,https://maps.google.com/?cid=0x0:0x31997c8f16a56379,
supermarket,Tujuan Wisata,Pasar Belitang,"46JV+G47, Belitang Dua, Kec. Belitang, Kabupaten Sekadau, Kalimantan Barat 79588","Belitang Dua, Kec. Belitang, Kabupaten Sekadau",KALIMANTAN BARAT,79588.0,Indonesia,,,,0.131293,111.242797,https://maps.google.com/?cid=0x0:0xc1b359154dd788f1,
supermarket,Grosir produk pertanian,Toko Harum Tiga,"Sungai Ayak III, Kec. Belitang Hilir, Kabupaten Sekadau, Kalimantan Barat 79512","Kec. Belitang Hilir, Kabupaten Sekadau",KALIMANTAN BARAT,79512.0,Indonesia,,,,0.1087914,111.0704884,https://maps.google.com/?cid=0x0:0x8b080fa5fabbfcd9,
supermarket,Minimarket,MADIN MART,"55HM+W8H, jln poros, SP2, desa maboh permai, Padak, Kec. Belitang, Kabupaten Sekadau, Kalimantan Barat 79586","jln poros, SP2, desa maboh permai, Padak, Kec. Belitang, Kabupaten Sekadau",KALIMANTAN BARAT,79586.0,Indonesia,,,,0.179823,111.1833639,https://maps.google.com/?cid=0x0:0x91259cf89bf31d26,
supermarket,Toko,Toko Padak Raya,"Jalan Poros, Padak, Kec. Belitang, Kabupaten Sekadau, Kalimantan Barat 79588","Padak, Kec. Belitang, Kabupaten Sekadau",KALIMANTAN BARAT,79588.0,Indonesia,,,,0.2582469,111.1809263,https://maps.google.com/?cid=0x0:0xd36c1953e351d1e0,
supermarket,Pusat Perbelanjaan,Toko Serba Sentosa Simpang Pt PAM,"634V+PMQ, Tapang Pulau, Kec. Belitang Hilir, Kabupaten Sekadau, Kalimantan Barat 79586","Tapang Pulau, Kec. Belitang Hilir, Kabupaten Sekadau",KALIMANTAN BARAT,79586.0,Indonesia,,,,0.2068371,111.0942479,https://maps.google.com/?cid=0x0:0x27c5534279580ddf,
supermarket,Toko bahan makanan,Warung BUMDes MAJU BERSAMA,"568P+495, Jl. Harisman, Dusun Stalon, Belitang Dua, Kec. Belitang, Kabupaten Sekadau, Kalimantan Barat 79588","Jl. Harisman, Dusun Stalon, Belitang Dua, Kec. Belitang, Kabupaten Sekadau",KALIMANTAN BARAT,79588.0,Indonesia,81328899647.0,,,0.1652524,111.2359798,https://maps.google.com/?cid=0x0:0xbd296556ed45be1,
supermarket,Toko bahan makanan,Toko Desa,"66G7+M5W, Sp.1, Setuntung, Kec. Belitang, Kabupaten Sekadau, Kalimantan Barat 79588","Sp.1, Setuntung, Kec. Belitang, Kabupaten Sekadau",KALIMANTAN BARAT,79588.0,Indonesia,81328899647.0,,,0.22675,111.2129616,https://maps.google.com/?cid=0x0:0x13f67c17f3245d2b,
supermarket,Toko Swalayan,TOKO SUMBER UTAMA,"55GQ+FJ7, Maboh Permai JL.poros No.RT.011, Padak, Kec. Belitang, Kabupaten Sekadau, Kalimantan Barat 79586","Maboh Permai JL.poros No.RT.011, Padak, Kec. Belitang, Kabupaten Sekadau",KALIMANTAN BARAT,79586.0,Indonesia,,,,0.1761875,111.1890625,https://maps.google.com/?cid=0x0:0x7ef5e46dfa356e02,
supermarket,Minimarket,3D Store Tiga Bersaudara,"Balai Sepuak, Kec. Belitang Hulu, Kabupaten Sekadau, Kalimantan Barat 79587","Kec. Belitang Hulu, Kabupaten Sekadau",KALIMANTAN BARAT,79587.0,Indonesia,85252063112.0,,,0.4417232,111.2069426,https://maps.google.com/?cid=0x0:0x4fe2bcf38e4b5751,
supermarket,Toko bahan makanan,MM. TIGA PUTRI,"3674+JQX, Tj. Ria, Kec. Sepauk, Kabupaten Sintang, Kalimantan Barat 78662","Tj. Ria, Kec. Sepauk, Kabupaten Sintang",KALIMANTAN BARAT,78662.0,Indonesia,85392256421.0,,,0.0641106,111.2069797,https://maps.google.com/?cid=0x0:0xa3b274501c315e46,
supermarket,supermarket,Warung p gani acm,"572W+G4, Ensabang, Kec. Sepauk, Kabupaten Sintang, Kalimantan Barat","Kabupaten Sintang, Kalimantan Barat",KALIMANTAN BARAT,,Indonesia,,,,0.15127,111.295313,https://maps.google.com/?cid=0x0:0x7682f238f11a549d,
supermarket,Toko bahan makanan,Indomaret Sepauk,"3685+25M, Unnamed Road, Tj. Ria, Entabuk, Sepauk, Sintang Regency, West Kalimantan 78662","Unnamed Road, Tj. Ria, Entabuk, Sepauk, Sintang Regency",KALIMANTAN BARAT,78662.0,Indonesia,,,,0.0650785,111.2079342,https://maps.google.com/?cid=0x0:0xf9cdcaa05c97a201,
supermarket,,toko sumber makmur,"434C+J4H, Sungai Ayak III, Kec. Belitang Hilir, Kabupaten Sekadau, Kalimantan Barat 79512","Sungai Ayak III, Kec. Belitang Hilir, Kabupaten Sekadau",KALIMANTAN BARAT,79512.0,Indonesia,,,,0.1065544,111.0703712,https://maps.google.com/?cid=0x0:0xff24a86317f5b572,
supermarket,Toko bahan makanan,warung sayur,"66G7+M5W, Jl. Kenanga sp2, Setuntung, Kec. Belitang, Kabupaten Sekadau, Kalimantan Barat 79588","Jl. Kenanga sp2, Setuntung, Kec. Belitang, Kabupaten Sekadau",KALIMANTAN BARAT,79588.0,Indonesia,82153545579.0,,,0.22675,111.2129616,https://maps.google.com/?cid=0x0:0xb1da2451701bd4dc,
supermarket,Pasar,Pasar Sungai Ayak TK. Aricks Jaya,"33X8+G6Q, Sungai Ayak III, Kec. Belitang Hilir, Kabupaten Sekadau, Kalimantan Barat","Kabupaten Sekadau, Kalimantan Barat",KALIMANTAN BARAT,,Indonesia,,,,0.098838,111.065623,https://maps.google.com/?cid=0x0:0xfde5565172de1639,
supermarket,supermarket,Kec. Belitang,"Kabupaten Ogan Komering Ulu Timur, Sumatera Selatan","Kabupaten Ogan Komering Ulu Timur, Sumatera Selatan",KALIMANTAN BARAT,,Indonesia,,,,-4.1402273,104.6278606,https://maps.google.com/?cid=0x0:0xbffde04fd06442eb,
supermarket,Pasar,Pasar Gumawang,"Gumawang, Kec. Belitang, Kabupaten Ogan Komering Ulu Timur, Sumatera Selatan 32382","Kec. Belitang, Kabupaten Ogan Komering Ulu Timur",KALIMANTAN BARAT,32382.0,Indonesia,,,,-4.1097681,104.6501617,https://maps.google.com/?cid=0x0:0xcbe9f3d453129935,
supermarket,Pasar Makanan Segar,Pasar Tempel Sidomulyo,"RJXX+5H6, Sidomulyo, Kec. Belitang, Kabupaten Ogan Komering Ulu Timur, Sumatera Selatan 32382","Sidomulyo, Kec. Belitang, Kabupaten Ogan Komering Ulu Timur",KALIMANTAN BARAT,32382.0,Indonesia,,,,-4.152083,104.6488992,https://maps.google.com/?cid=0x0:0xb6615263c7fec620,
supermarket,Minimarket,Alfamart,"Jl. Hamzah Bk. 9 Dsn. 2 Rt. 00 Belitang Kab, Serbaguna, Kec. Belitang, Kabupaten Ogan Komering Ulu Timur, Sumatera Selatan 32182","Serbaguna, Kec. Belitang, Kabupaten Ogan Komering Ulu Timur",KALIMANTAN BARAT,32182.0,Indonesia,1500959.0,,,-4.1420114,104.6330144,https://maps.google.com/?cid=0x0:0x131b48059b7de55,
supermarket,Toko Swalayan,Perc. Wanty Smile,"Jl. Poros Ambon Pujorahayu BK No.9, RT.04/RW.05, Sukosari, Kec. Belitang, Kabupaten Ogan Komering Ulu Timur, Sumatera Selatan 32382","RT.04/RW.05, Sukosari, Kec. Belitang, Kabupaten Ogan Komering Ulu Timur",KALIMANTAN BARAT,32382.0,Indonesia,85669486341.0,,,-4.1353906,104.6388413,https://maps.google.com/?cid=0x0:0x2e28459ebce8841f,
supermarket,Toko,TOKO BERKAH,"Jl. Tawang Rejo, Gn. Mas, Kec. Belitang, Kabupaten Ogan Komering Ulu Timur, Sumatera Selatan 32382","Gn. Mas, Kec. Belitang, Kabupaten Ogan Komering Ulu Timur",KALIMANTAN BARAT,32382.0,Indonesia,82226660253.0,,,-4.1947173,104.6346438,https://maps.google.com/?cid=0x0:0x7c056a657b639686,
supermarket,supermarket,DELIVERY BELITANG,"Jl. Jenderal Sudirman, Gumawang, Kec. Belitang, Kabupaten Ogan Komering Ulu Timur, Sumatera Selatan 32382","Gumawang, Kec. Belitang, Kabupaten Ogan Komering Ulu Timur",KALIMANTAN BARAT,32382.0,Indonesia,81371280202.0,,,-4.1092332,104.6473585,https://maps.google.com/?cid=0x0:0xe328bdfcd1c41fa,
supermarket,Minimarket,Indomaret Tawang Rejo,"RJ4M+5J3, Gn. Mas, Kec. Belitang, Kabupaten Ogan Komering Ulu Timur, Sumatera Selatan 32382","Gn. Mas, Kec. Belitang, Kabupaten Ogan Komering Ulu Timur",KALIMANTAN BARAT,32382.0,Indonesia,,,,-4.1946013,104.6340589,https://maps.google.com/?cid=0x0:0x4f05ffeadf9e0e45,
supermarket,Toko,Alfamart,"Jl. Raya Belitang Bk. 6 Rt. 01, Sido Rahayu, Kec. Belitang, Kabupaten Ogan Komering Ulu Timur, Sumatera Selatan 32182","Sido Rahayu, Kec. Belitang, Kabupaten Ogan Komering Ulu Timur",KALIMANTAN BARAT,32182.0,Indonesia,1500959.0,,,-4.1840077,104.6089816,https://maps.google.com/?cid=0x0:0x28611f0ad998bf2e,
supermarket,supermarket,Kalimantan Barat 79586,"Kec. Belitang Hilir, Kabupaten Sekadau, Kalimantan Barat","Kabupaten Sekadau, Kalimantan Barat",KALIMANTAN BARAT,,Indonesia,,,,0.1743805,111.1414226,https://maps.google.com/?cid=0x0:0x959d1847699c643e,
supermarket,Grosir produk pertanian,Toko Harum Tiga,"Sungai Ayak III, Kec. Belitang Hilir, Kabupaten Sekadau, Kalimantan Barat 79512","Kec. Belitang Hilir, Kabupaten Sekadau",KALIMANTAN BARAT,79512.0,Indonesia,,,,0.1087914,111.0704884,https://maps.google.com/?cid=0x0:0x8b080fa5fabbfcd9,
supermarket,,toko sumber makmur,"434C+J4H, Sungai Ayak III, Kec. Belitang Hilir, Kabupaten Sekadau, Kalimantan Barat 79512","Sungai Ayak III, Kec. Belitang Hilir, Kabupaten Sekadau",KALIMANTAN BARAT,79512.0,Indonesia,,,,0.1065544,111.0703712,https://maps.google.com/?cid=0x0:0xff24a86317f5b572,
supermarket,Toserba,Tk Putra Kembar,"53W8+8W4, Unnamed Road, Merbang, Kec. Belitang Hilir, Kabupaten Sekadau, Kalimantan Barat 79586","Unnamed Road, Merbang, Kec. Belitang Hilir, Kabupaten Sekadau",KALIMANTAN BARAT,79586.0,Indonesia,,,,0.195765,111.0673229,https://maps.google.com/?cid=0x0:0xf130e1932ca1ab01,
supermarket,Toko Swalayan,Toko Merry,"Jalan Kapuas No.simpang, Belitang Satu, Kec. Belitang, Kabupaten Sekadau, Kalimantan Barat","Kabupaten Sekadau, Kalimantan Barat",KALIMANTAN BARAT,,Indonesia,,,,0.1340694,111.2381316,https://maps.google.com/?cid=0x0:0xe59d94e7e694990,
supermarket,Pusat Perbelanjaan,Leo Collection,"Jalan Poros, Maboh Permai, Kec. Belitang, Kabupaten Sekadau, Kalimantan Barat 79586","Maboh Permai, Kec. Belitang, Kabupaten Sekadau",KALIMANTAN BARAT,79586.0,Indonesia,82251536162.0,,,0.1804962,111.1891546,https://maps.google.com/?cid=0x0:0xa9d147606b2ad658,
supermarket,Tujuan Wisata,Pasar Belitang,"46JV+G47, Belitang Dua, Kec. Belitang, Kabupaten Sekadau, Kalimantan Barat 79588","Belitang Dua, Kec. Belitang, Kabupaten Sekadau",KALIMANTAN BARAT,79588.0,Indonesia,,,,0.131293,111.242797,https://maps.google.com/?cid=0x0:0xc1b359154dd788f1,
supermarket,Toko umum,Toko Akhiong,"35JW+2H2, Entabuk, Kec. Belitang Hilir, Kabupaten Sekadau, Kalimantan Barat 79588","Entabuk, Kec. Belitang Hilir, Kabupaten Sekadau",KALIMANTAN BARAT,79588.0,Indonesia,,,,0.0800102,111.196376,https://maps.google.com/?cid=0x0:0x1afea9c79a122f68,
supermarket,Sekolah,Indomaret Sungai Ayak 2,"435C+C46, Sungai Ayak III, Kec. Belitang Hilir, Kabupaten Sekadau, Kalimantan Barat 79512","Sungai Ayak III, Kec. Belitang Hilir, Kabupaten Sekadau",KALIMANTAN BARAT,79512.0,Indonesia,,,,0.1085321,111.0702564,https://maps.google.com/?cid=0x0:0x1620dcefef936ce3,
supermarket,Toko Swalayan,TOKO SUMBER UTAMA,"55GQ+FJ7, Maboh Permai JL.poros No.RT.011, Padak, Kec. Belitang, Kabupaten Sekadau, Kalimantan Barat 79586","Maboh Permai JL.poros No.RT.011, Padak, Kec. Belitang, Kabupaten Sekadau",KALIMANTAN BARAT,79586.0,Indonesia,,,,0.1761875,111.1890625,https://maps.google.com/?cid=0x0:0x7ef5e46dfa356e02,
supermarket,Pusat Perbelanjaan,Toko mahkota,"55MQ+2MV, Jalan Poros, Padak, Kec. Belitang, Kabupaten Sekadau, Kalimantan Barat 79586","Jalan Poros, Padak, Kec. Belitang, Kabupaten Sekadau",KALIMANTAN BARAT,79586.0,Indonesia,85752312557.0,,,0.183318,111.189329,https://maps.google.com/?cid=0x0:0x2987796b59895e27,
supermarket,Minimarket,3D Store Tiga Bersaudara,"Balai Sepuak, Kec. Belitang Hulu, Kabupaten Sekadau, Kalimantan Barat 79587","Kec. Belitang Hulu, Kabupaten Sekadau",KALIMANTAN BARAT,79587.0,Indonesia,85252063112.0,,,0.4417232,111.2069426,https://maps.google.com/?cid=0x0:0x4fe2bcf38e4b5751,
supermarket,Pusat Perbelanjaan,Toko Serba Sentosa Simpang Pt PAM,"634V+PMQ, Tapang Pulau, Kec. Belitang Hilir, Kabupaten Sekadau, Kalimantan Barat 79586","Tapang Pulau, Kec. Belitang Hilir, Kabupaten Sekadau",KALIMANTAN BARAT,79586.0,Indonesia,,,,0.2068371,111.0942479,https://maps.google.com/?cid=0x0:0x27c5534279580ddf,
supermarket,Minimarket,Alfamart Jl Adi Sucipto Sekadau,"434C+W2J, Sungai Ayak III, Kec. Belitang Hilir, Kabupaten Sekadau, Kalimantan Barat","Kabupaten Sekadau, Kalimantan Barat",KALIMANTAN BARAT,,Indonesia,,,,0.1073346,111.0700175,https://maps.google.com/?cid=0x0:0x33e00ee7e5e5e54c,
supermarket,Toko bahan makanan,Bintang Timur,"2V8X+26V, Tanjung, Kec. Sekadau Hilir, Kabupaten Sekadau, Kalimantan Barat 79516","Tanjung, Kec. Sekadau Hilir, Kabupaten Sekadau",KALIMANTAN BARAT,79516.0,Indonesia,,,,0.0151186,110.8980517,https://maps.google.com/?cid=0x0:0x794fbf462d225d27,
supermarket,Toko umum,Toko AGDA,"46PM+522, Unnamed Road, Belitang Satu, Kec. Belitang, Kabupaten Sekadau, Kalimantan Barat 79588","Unnamed Road, Belitang Satu, Kec. Belitang, Kabupaten Sekadau",KALIMANTAN BARAT,79588.0,Indonesia,,,,0.135398,111.232507,https://maps.google.com/?cid=0x0:0x167522d66cc4a7cf,
supermarket,Minimarket,Alfamart Maboh Belitang,"55HQ+JJM, Jl. Poros, SP2, Maboh Permai, Padak, Kec. Belitang, Kabupaten Sekadau, Kalimantan Barat 79586","Jl. Poros, SP2, Maboh Permai, Padak, Kec. Belitang, Kabupaten Sekadau",KALIMANTAN BARAT,79586.0,Indonesia,,,,0.1790901,111.1890601,https://maps.google.com/?cid=0x0:0xaeec1ca7c31c42b8,
supermarket,Toko,Toko Hima,"Jl. Poros No.SP 2, Desa Maboh Permai, Kec. Belitang, Kabupaten Sekadau, Kalimantan Barat 79588","Desa Maboh Permai, Kec. Belitang, Kabupaten Sekadau",KALIMANTAN BARAT,79588.0,Indonesia,82152413364.0,,,0.1764954,111.1894667,https://maps.google.com/?cid=0x0:0xe764b465e32d179c,
supermarket,Toko bahan makanan,ADZRAMART,"Jalan Poros Muntik-Balai Sepuak, Nanga Ansar, Kec. Belitang, Kabupaten Sekadau, Kalimantan Barat","Kabupaten Sekadau, Kalimantan Barat",KALIMANTAN BARAT,,Indonesia,,,,0.3145762,111.1803256,https://maps.google.com/?cid=0x0:0x99c4a480c58c7c1,
supermarket,Minimarket,3D Store Tiga Bersaudara,"Balai Sepuak, Kec. Belitang Hulu, Kabupaten Sekadau, Kalimantan Barat 79587","Kec. Belitang Hulu, Kabupaten Sekadau",KALIMANTAN BARAT,79587.0,Indonesia,85252063112.0,,,0.4417232,111.2069426,https://maps.google.com/?cid=0x0:0x4fe2bcf38e4b5751,
supermarket,Pusat Perbelanjaan,Toko Serba Sentosa Simpang Pt PAM,"634V+PMQ, Tapang Pulau, Kec. Belitang Hilir, Kabupaten Sekadau, Kalimantan Barat 79586","Tapang Pulau, Kec. Belitang Hilir, Kabupaten Sekadau",KALIMANTAN BARAT,79586.0,Indonesia,,,,0.2068371,111.0942479,https://maps.google.com/?cid=0x0:0x27c5534279580ddf,
supermarket,supermarket,Kalimantan Barat 79587,"Kec. Belitang Hulu, Kabupaten Sekadau, Kalimantan Barat","Kabupaten Sekadau, Kalimantan Barat",KALIMANTAN BARAT,,Indonesia,,,,0.5256764,111.1414226,https://maps.google.com/?cid=0x0:0x33292d03494f6bcb,
supermarket,Gedung Apartemen,Aurel Wifi,"C56H+RX4, Batuk Mulau, Kec. Belitang Hulu, Kabupaten Sekadau, Kalimantan Barat 79587","Batuk Mulau, Kec. Belitang Hulu, Kabupaten Sekadau",KALIMANTAN BARAT,79587.0,Indonesia,,,,0.4120193,111.1799445,https://maps.google.com/?cid=0x0:0xb85a7a57d5d368e2,
supermarket,Toko,TOKO PAK JINJIN,"93CP+W95, Ijuk, Kec. Belitang Hulu, Kabupaten Sekadau, Kalimantan Barat 79586","Ijuk, Kec. Belitang Hulu, Kabupaten Sekadau",KALIMANTAN BARAT,79586.0,Indonesia,81387859684.0,,,0.3722645,111.0859728,https://maps.google.com/?cid=0x0:0x8d363c0821728429,
supermarket,supermarket,Kec. Belitang Hulu,"Kabupaten Sekadau, Kalimantan Barat","Kabupaten Sekadau, Kalimantan Barat",KALIMANTAN BARAT,,Indonesia,,,,0.5256764,111.1414226,https://maps.google.com/?cid=0x0:0x1df49994991be356,
supermarket,Tujuan Wisata,Pasar Belitang,"46JV+G47, Belitang Dua, Kec. Belitang, Kabupaten Sekadau, Kalimantan Barat 79588","Belitang Dua, Kec. Belitang, Kabupaten Sekadau",KALIMANTAN BARAT,79588.0,Indonesia,,,,0.131293,111.242797,https://maps.google.com/?cid=0x0:0xc1b359154dd788f1,
supermarket,supermarket,Kalimantan Barat 79585,"Kec. Nanga Mahap, Kabupaten Sekadau, Kalimantan Barat","Kabupaten Sekadau, Kalimantan Barat",KALIMANTAN BARAT,,Indonesia,,,,-0.5270182,110.7599266,https://maps.google.com/?cid=0x0:0x130fcb733de732c5,
supermarket,Toko,minimarket Aneka Mitra,"HQJ6+7F3, Soket, Nanga Suri, Kec. Nanga Mahap, Kabupaten Sekadau, Kalimantan Barat 79584","Soket, Nanga Suri, Kec. Nanga Mahap, Kabupaten Sekadau",KALIMANTAN BARAT,79584.0,Indonesia,82153276798.0,,,-0.4193658,110.7611657,https://maps.google.com/?cid=0x0:0x7ded8a9b377e098a,
supermarket,Toko Kelontong Asia,Warung Koko Bie,"FMXJ+V2G, Tembaga, Kec. Nanga Mahap, Kabupaten Sekadau, Kalimantan Barat 79585","Tembaga, Kec. Nanga Mahap, Kabupaten Sekadau",KALIMANTAN BARAT,79585.0,Indonesia,,,,-0.5003182,110.6800673,https://maps.google.com/?cid=0x0:0xc0bf8a9a63fa1d53,
supermarket,Toko Kelontong Asia,toko DAMAI,"HQH5+33R, Jl. Jend. Sudirman, Nanga Suri, Kec. Nanga Mahap, Kabupaten Sekadau, Kalimantan Barat 79584","Jl. Jend. Sudirman, Nanga Suri, Kec. Nanga Mahap, Kabupaten Sekadau",KALIMANTAN BARAT,79584.0,Indonesia,,,,-0.4222557,110.7576367,https://maps.google.com/?cid=0x0:0x9ab496ded761d34c,
supermarket,Toko bahan makanan,Indomaret,"HQC8+M78, Nanga Suri, Kec. Nanga Mahap, Kabupaten Sekadau, Kalimantan Barat 79584","Nanga Suri, Kec. Nanga Mahap, Kabupaten Sekadau",KALIMANTAN BARAT,79584.0,Indonesia,,,,-0.4283466,110.7656946,https://maps.google.com/?cid=0x0:0xf7f4185e5691a845,
supermarket,Toko Kelontong Asia,TK.SAMUDRA,"HQH5+C7W, Nanga Suri, Kec. Nanga Mahap, Kabupaten Sekadau, Kalimantan Barat 79584","Nanga Suri, Kec. Nanga Mahap, Kabupaten Sekadau",KALIMANTAN BARAT,79584.0,Indonesia,,,,-0.4213603,110.7581959,https://maps.google.com/?cid=0x0:0x215588a5ea69a63c,
supermarket,Toko Kelontong Asia,Toko Mukhlis,"HQ85+H2G, Jl. Lintas Desa, Nanga Suri, Kec. Nanga Mahap, Kabupaten Sekadau, Kalimantan Barat 79585","Jl. Lintas Desa, Nanga Suri, Kec. Nanga Mahap, Kabupaten Sekadau",KALIMANTAN BARAT,79585.0,Indonesia,,,,-0.4335652,110.7575769,https://maps.google.com/?cid=0x0:0x324fa44a0087523d,
supermarket,Toko Kelontong Asia,Warung Pak Mujadi,"HQ84+2W7, Batu Pahat, Kec. Nanga Mahap, Kabupaten Sekadau, Kalimantan Barat 79585","Batu Pahat, Kec. Nanga Mahap, Kabupaten Sekadau",KALIMANTAN BARAT,79585.0,Indonesia,,,,-0.4349666,110.757286,https://maps.google.com/?cid=0x0:0xeac833f3895c6512,
supermarket,Toko Perlengkapan Rumah,Toko Jaya,"CP6X+96J, Lembah Beringin, Kec. Nanga Mahap, Kabupaten Sekadau, Kalimantan Barat","Kabupaten Sekadau, Kalimantan Barat",KALIMANTAN BARAT,,Indonesia,,,,-0.5890451,110.7480064,https://maps.google.com/?cid=0x0:0x8a6f18f6c6ed42f4,
supermarket,supermarket,Toko fajar nanga mahap,"GQV5+FXF, Nanga Suri, Kec. Nanga Mahap, Kabupaten Sekadau, Kalimantan Barat 79585","Nanga Suri, Kec. Nanga Mahap, Kabupaten Sekadau",KALIMANTAN BARAT,79585.0,Indonesia,,,,-0.4563095,110.7599266,https://maps.google.com/?cid=0x0:0x15197503817fda7,
supermarket,supermarket,Toko Bintang Jaya,"HQG5+63Q, Jl. Jend. Sudirman, Nanga Suri, Kec. Nanga Mahap, Kabupaten Sekadau, Kalimantan Barat 79585","Jl. Jend. Sudirman, Nanga Suri, Kec. Nanga Mahap, Kabupaten Sekadau",KALIMANTAN BARAT,79585.0,Indonesia,,,,-0.4244094,110.7577366,https://maps.google.com/?cid=0x0:0xf61c0f989e1180aa,
supermarket,supermarket,Toko Tiga Putra,"HQ54+MFV, Nanga Suri, Kec. Nanga Mahap, Kabupaten Sekadau, Kalimantan Barat 79585","Nanga Suri, Kec. Nanga Mahap, Kabupaten Sekadau",KALIMANTAN BARAT,79585.0,Indonesia,,,,-0.4407599,110.7561727,https://maps.google.com/?cid=0x0:0x4056e81f1ea6b860,
supermarket,supermarket,toko sempayot,"GP22+8W9, Landau Apin, Kec. Nanga Mahap, Kabupaten Sekadau, Kalimantan Barat 79585","Landau Apin, Kec. Nanga Mahap, Kabupaten Sekadau",KALIMANTAN BARAT,79585.0,Indonesia,,,,-0.4992147,110.7023527,https://maps.google.com/?cid=0x0:0x2edc17dfa2d2f1cc,
supermarket,supermarket,Warung tiga putra,"HQ26+68, Nanga Suri, Kec. Nanga Mahap, Kabupaten Sekadau, Kalimantan Barat","Kabupaten Sekadau, Kalimantan Barat",KALIMANTAN BARAT,,Indonesia,,,,-0.4494998,110.7608014,https://maps.google.com/?cid=0x0:0xa53de00fb6e07d53,
supermarket,supermarket,Warung Ipah sari,"Jl. Masjid Al-Yaqin Jalan, Batu Pahat, Kec. Nanga Mahap, Kabupaten Sekadau, Kalimantan Barat 79585","Batu Pahat, Kec. Nanga Mahap, Kabupaten Sekadau",KALIMANTAN BARAT,79585.0,Indonesia,,,,-0.4401096,110.7562525,https://maps.google.com/?cid=0x0:0x4b291d43c4dc6417,
supermarket,Minimarket,Indomaret Nanga Taman,"PRM9+WVR, Nanga Taman, Kec. Nanga Taman, Kabupaten Sekadau, Kalimantan Barat 79584","Nanga Taman, Kec. Nanga Taman, Kabupaten Sekadau",KALIMANTAN BARAT,79584.0,Indonesia,1500580.0,,,-0.2651287,110.8196547,https://maps.google.com/?cid=0x0:0x63ad18f34e6eb24f,
supermarket,Komplek perumahan,DnD Asy-Syams,"Jl. Ps. Laut, Nanga Taman, Kec. Nanga Taman, Kabupaten Sekadau, Kalimantan Barat 79584","Nanga Taman, Kec. Nanga Taman, Kabupaten Sekadau",KALIMANTAN BARAT,79584.0,Indonesia,8125745339.0,,,-0.2651672,110.8162096,https://maps.google.com/?cid=0x0:0xa3bd18470bd65f08,
supermarket,Pusat Perbelanjaan,Tokoh ** BAHAGIA **,"QQPV+FH6, Unnamed Road, Nanga Kiungkang, Kec. Nanga Taman, Kabupaten Sekadau, Kalimantan Barat 79584","Unnamed Road, Nanga Kiungkang, Kec. Nanga Taman, Kabupaten Sekadau",KALIMANTAN BARAT,79584.0,Indonesia,,,,-0.2138281,110.7938928,https://maps.google.com/?cid=0x0:0xf6530e52adcc6ceb,
supermarket,Toko,minimarket Aneka Mitra,"HQJ6+7F3, Soket, Nanga Suri, Kec. Nanga Mahap, Kabupaten Sekadau, Kalimantan Barat 79584","Soket, Nanga Suri, Kec. Nanga Mahap, Kabupaten Sekadau",KALIMANTAN BARAT,79584.0,Indonesia,82153276798.0,,,-0.4193658,110.7611657,https://maps.google.com/?cid=0x0:0x7ded8a9b377e098a,
supermarket,supermarket,Kalimantan Barat 79584,"Kec. Nanga Taman, Kabupaten Sekadau, Kalimantan Barat","Kabupaten Sekadau, Kalimantan Barat",KALIMANTAN BARAT,,Indonesia,,,,-0.3150976,110.8552919,https://maps.google.com/?cid=0x0:0x2c4ea8235cb520a3,
supermarket,Pasar Petani,PASAR SAYUR NANGA TAMAN,"PRPC+43J, Nanga Taman, Kec. Nanga Taman, Kabupaten Sekadau, Kalimantan Barat 79584","Nanga Taman, Kec. Nanga Taman, Kabupaten Sekadau",KALIMANTAN BARAT,79584.0,Indonesia,,,,-0.2646546,110.8201291,https://maps.google.com/?cid=0x0:0x50fa36df08e79302,
supermarket,Toko Kelontong Asia,TOKO SAMA SENANG,"Des, Jl. Jend. Sudirman No.10, RT.03/RW.04, Nanga Suri, Kec. Nanga Mahap, Kabupaten Sekadau, Kalimantan Barat 79584","Jl. Jend. Sudirman No.10, RT.03/RW.04, Nanga Suri, Kec. Nanga Mahap, Kabupaten Sekadau",KALIMANTAN BARAT,79584.0,Indonesia,,,,-0.4215991,110.757746,https://maps.google.com/?cid=0x0:0xc6648aedd7a3ee7e,
supermarket,Toko bahan makanan,Alfamart,"PRM9+PP9, Nanga Taman, Kec. Nanga Taman, Kabupaten Sekadau, Kalimantan Barat 79584","Nanga Taman, Kec. Nanga Taman, Kabupaten Sekadau",KALIMANTAN BARAT,79584.0,Indonesia,,,,-0.2657134,110.8193685,https://maps.google.com/?cid=0x0:0x123014f1226f22fa,
supermarket,Toko Kelontong Asia,toko DAMAI,"HQH5+33R, Jl. Jend. Sudirman, Nanga Suri, Kec. Nanga Mahap, Kabupaten Sekadau, Kalimantan Barat 79584","Jl. Jend. Sudirman, Nanga Suri, Kec. Nanga Mahap, Kabupaten Sekadau",KALIMANTAN BARAT,79584.0,Indonesia,,,,-0.4222557,110.7576367,https://maps.google.com/?cid=0x0:0x9ab496ded761d34c,
supermarket,Toko Kelontong Asia,TK.SAMUDRA,"HQH5+C7W, Nanga Suri, Kec. Nanga Mahap, Kabupaten Sekadau, Kalimantan Barat 79584","Nanga Suri, Kec. Nanga Mahap, Kabupaten Sekadau",KALIMANTAN BARAT,79584.0,Indonesia,,,,-0.4213603,110.7581959,https://maps.google.com/?cid=0x0:0x215588a5ea69a63c,
supermarket,Toko Kelontong Asia,Toko Mukhlis,"HQ85+H2G, Jl. Lintas Desa, Nanga Suri, Kec. Nanga Mahap, Kabupaten Sekadau, Kalimantan Barat 79585","Jl. Lintas Desa, Nanga Suri, Kec. Nanga Mahap, Kabupaten Sekadau",KALIMANTAN BARAT,79585.0,Indonesia,,,,-0.4335652,110.7575769,https://maps.google.com/?cid=0x0:0x324fa44a0087523d,
supermarket,Toko Swalayan,Warung nisa,"MVM4+X47, RT.01/RW.01, dusun kelampai, Kec. Nanga Taman, Kabupaten Sekadau, Kalimantan Barat","Kabupaten Sekadau, Kalimantan Barat",KALIMANTAN BARAT,,Indonesia,,,,-0.3150976,110.8552919,https://maps.google.com/?cid=0x0:0xa609e6a6c51996f6,
supermarket,Toko Kelontong Asia,Warung Koko Bie,"FMXJ+V2G, Tembaga, Kec. Nanga Mahap, Kabupaten Sekadau, Kalimantan Barat 79585","Tembaga, Kec. Nanga Mahap, Kabupaten Sekadau",KALIMANTAN BARAT,79585.0,Indonesia,,,,-0.5003182,110.6800673,https://maps.google.com/?cid=0x0:0xc0bf8a9a63fa1d53,
supermarket,Toko Kelontong Asia,Warung Pak Mujadi,"HQ84+2W7, Batu Pahat, Kec. Nanga Mahap, Kabupaten Sekadau, Kalimantan Barat 79585","Batu Pahat, Kec. Nanga Mahap, Kabupaten Sekadau",KALIMANTAN BARAT,79585.0,Indonesia,,,,-0.4349666,110.757286,https://maps.google.com/?cid=0x0:0xeac833f3895c6512,
supermarket,supermarket,Toko Mitra NIAGA,"PRQC+RWV, Nanga Taman, Kec. Nanga Taman, Kabupaten Sekadau, Kalimantan Barat 79584","Nanga Taman, Kec. Nanga Taman, Kabupaten Sekadau",KALIMANTAN BARAT,79584.0,Indonesia,,,,-0.2603833,110.8223064,https://maps.google.com/?cid=0x0:0xd4a5156139557617,
supermarket,supermarket,Kalimantan Barat 79511,"Kec. Sekadau Hilir, Kabupaten Sekadau, Kalimantan Barat","Kabupaten Sekadau, Kalimantan Barat",KALIMANTAN BARAT,,Indonesia,,,,-0.0087079,110.9864294,https://maps.google.com/?cid=0x0:0xc1e4ec47290edec9,
supermarket,Pusat Perbelanjaan,Star Market Sekadau,"Sungai Ringin, Kec. Sekadau Hilir, Kabupaten Sekadau, Kalimantan Barat 79516","Kec. Sekadau Hilir, Kabupaten Sekadau",KALIMANTAN BARAT,79516.0,Indonesia,81649059324.0,,,0.024492,110.8901165,https://maps.google.com/?cid=0x0:0xd66d073e50ae995c,
supermarket,Toko bahan makanan,Bintang Timur,"2V8X+26V, Tanjung, Kec. Sekadau Hilir, Kabupaten Sekadau, Kalimantan Barat 79516","Tanjung, Kec. Sekadau Hilir, Kabupaten Sekadau",KALIMANTAN BARAT,79516.0,Indonesia,,,,0.0151186,110.8980517,https://maps.google.com/?cid=0x0:0x794fbf462d225d27,
supermarket,Toko bahan makanan,Toko Koneko,"X2XH+GX8, Jl. Lintas Kalimantan Poros Tengah, Gonis Tekam, Kec. Sekadau Hilir, Kabupaten Sekadau, Kalimantan Barat 79582","Jl. Lintas Kalimantan Poros Tengah, Gonis Tekam, Kec. Sekadau Hilir, Kabupaten Sekadau",KALIMANTAN BARAT,79582.0,Indonesia,82150579584.0,,,-0.0012046,111.0299406,https://maps.google.com/?cid=0x0:0xcff5a2eefc969576,
supermarket,Minimarket,Mita Mart,"2VCR+542, Sungai Ringin, Kec. Sekadau Hilir, Kabupaten Sekadau, Kalimantan Barat 79516","Sungai Ringin, Kec. Sekadau Hilir, Kabupaten Sekadau",KALIMANTAN BARAT,79516.0,Indonesia,,,,0.0202641,110.8903849,https://maps.google.com/?cid=0x0:0x8edec6e766f01192,
supermarket,Minimarket,Alfamart Raya Sekadau,"Jl. Merdeka Timur Desa, RT.008/RW.002, Mungguk, Kec. Sekadau Hilir, Kab. Sekadau, Kalimantan Barat 79511","RT.008/RW.002, Mungguk, Kec. Sekadau Hilir, Kab. Sekadau",KALIMANTAN BARAT,79511.0,Indonesia,1500959.0,,,0.01631,110.8955605,https://maps.google.com/?cid=0x0:0x48eb73ad707b14a4,
supermarket,Minimarket,Indomaret Simpang Mungguk,"2V7X+PVJ, Tanjung, Kec. Sekadau Hilir, Kabupaten Sekadau, Kalimantan Barat 79516","Tanjung, Kec. Sekadau Hilir, Kabupaten Sekadau",KALIMANTAN BARAT,79516.0,Indonesia,,,,0.01433,110.8996382,https://maps.google.com/?cid=0x0:0x487361ee570a0d02,
supermarket,Toko Swalayan,K52 Mart Sekadau,"2V9Q+57M, Mungguk, Kec. Sekadau Hilir, Kabupaten Sekadau, Kalimantan Barat 79516","Mungguk, Kec. Sekadau Hilir, Kabupaten Sekadau",KALIMANTAN BARAT,79516.0,Indonesia,,,,0.0179677,110.8881849,https://maps.google.com/?cid=0x0:0xab82847102eac5ff,
supermarket,Toko bahan makanan,Toko Maju Bersama,"X3VP+W85, Jl. Lintas Kalimantan Poros Tengah, Tapang Semadak, Kec. Sekadau Hilir, Kabupaten Sekadau, Kalimantan Barat 79582","Jl. Lintas Kalimantan Poros Tengah, Tapang Semadak, Kec. Sekadau Hilir, Kabupaten Sekadau",KALIMANTAN BARAT,79582.0,Indonesia,82157057070.0,,,-0.0052462,111.0858582,https://maps.google.com/?cid=0x0:0xa4ca08ac42ea4935,
supermarket,Minimarket,Alfamart Mungguk,"Jl. Merdeka Timur No.Desa, Mungguk, Kec. Sekadau Hilir, Kab. Sekadau, Kalimantan Barat 79511","Mungguk, Kec. Sekadau Hilir, Kab. Sekadau",KALIMANTAN BARAT,79511.0,Indonesia,1500959.0,,,0.01425,110.90002,https://maps.google.com/?cid=0x0:0x5ffd15e931b3ea,
supermarket,Minimarket,Alfamart,"Jl. Raya Pasar Baru, Desa, Mungguk, Kec. Sekadau Hilir, Kab. Sekadau, Kalimantan Barat 79511","Desa, Mungguk, Kec. Sekadau Hilir, Kab. Sekadau",KALIMANTAN BARAT,79511.0,Indonesia,1500959.0,,,0.0173841,110.890541,https://maps.google.com/?cid=0x0:0x76c1cca19044ce6f,
supermarket,Toko Swalayan,Toko Kiku,"VV8M+577, Rawak Hilir, Kec. Sekadau Hulu, Kabupaten Sekadau, Kalimantan Barat 79583","Rawak Hilir, Kec. Sekadau Hulu, Kabupaten Sekadau",KALIMANTAN BARAT,79583.0,Indonesia,,,,-0.1345904,110.8831651,https://maps.google.com/?cid=0x0:0x362830bd5354fd10,
supermarket,Toko Swalayan,Toko Bella,"VV3C+V22, Rawak Hulu, Kec. Sekadau Hulu, Kabupaten Sekadau, Kalimantan Barat 79583","Rawak Hulu, Kec. Sekadau Hulu, Kabupaten Sekadau",KALIMANTAN BARAT,79583.0,Indonesia,,,,-0.1453729,110.8700028,https://maps.google.com/?cid=0x0:0x9f525a9984423a2d,
supermarket,Minimarket,Alfamart Merdeka Timur Sekadau,"Jl. Irian Rt 002 Rw 001, Dusun Pasar Hilir, Desa, Sungai Ringin, Kec. Sekadau Hilir, Kab. Sekadau, Kalimantan Barat 79582","Dusun Pasar Hilir, Desa, Sungai Ringin, Kec. Sekadau Hilir, Kab. Sekadau",KALIMANTAN BARAT,79582.0,Indonesia,1500959.0,,,0.0199325,110.8912436,https://maps.google.com/?cid=0x0:0xbbb4573c98229fc9,
supermarket,Minimarket,Indomaret Sekadau Hilir,"2W64+FQ5, Mungguk, Kec. Sekadau Hilir, Kabupaten Sekadau, Kalimantan Barat 79516","Mungguk, Kec. Sekadau Hilir, Kabupaten Sekadau",KALIMANTAN BARAT,79516.0,Indonesia,,,,0.0111476,110.9069823,https://maps.google.com/?cid=0x0:0xfe20ac07a6bb682c,
supermarket,Minimarket,Indomaret Sekadau Hulu,"Unnamed Road, 79583, Rawak Hulu, Kec. Sekadau Hulu, Kabupaten Sekadau, Kalimantan Barat 79583","79583, Rawak Hulu, Kec. Sekadau Hulu, Kabupaten Sekadau",KALIMANTAN BARAT,79583.0,Indonesia,,,,-0.1359787,110.8749199,https://maps.google.com/?cid=0x0:0xcba4598fecc97027,
supermarket,Toko,Toko Dinda,"VV39+7JM, Rawak Hulu, Kec. Sekadau Hulu, Kabupaten Sekadau, Kalimantan Barat 79583","Rawak Hulu, Kec. Sekadau Hulu, Kabupaten Sekadau",KALIMANTAN BARAT,79583.0,Indonesia,,,,-0.1467774,110.869062,https://maps.google.com/?cid=0x0:0xfe31d0c731455a8,
supermarket,Toko,Toko Revan,"2V7F+C8M, Jl. Lintas Kalimantan Poros Tengah, Sungai Ringin, Kec. Sekadau Hilir, Kabupaten Sekadau, Kalimantan Barat 79516","Jl. Lintas Kalimantan Poros Tengah, Sungai Ringin, Kec. Sekadau Hilir, Kabupaten Sekadau",KALIMANTAN BARAT,79516.0,Indonesia,,,,0.0135931,110.8732848,https://maps.google.com/?cid=0x0:0xaf8681ef26d2c251,
supermarket,supermarket,Kalimantan Barat 79512,"Kabupaten Sekadau, Kalimantan Barat","Kabupaten Sekadau, Kalimantan Barat",KALIMANTAN BARAT,,Indonesia,,,,0.0522503,111.0698858,https://maps.google.com/?cid=0x0:0xa07eefc27fb145e2,
supermarket,Grosir produk pertanian,Toko Harum Tiga,"Sungai Ayak III, Kec. Belitang Hilir, Kabupaten Sekadau, Kalimantan Barat 79512","Kec. Belitang Hilir, Kabupaten Sekadau",KALIMANTAN BARAT,79512.0,Indonesia,,,,0.1087914,111.0704884,https://maps.google.com/?cid=0x0:0x8b080fa5fabbfcd9,
supermarket,Toko bahan makanan,Toko Maju Bersama,"X3VP+W85, Jl. Lintas Kalimantan Poros Tengah, Tapang Semadak, Kec. Sekadau Hilir, Kabupaten Sekadau, Kalimantan Barat 79582","Jl. Lintas Kalimantan Poros Tengah, Tapang Semadak, Kec. Sekadau Hilir, Kabupaten Sekadau",KALIMANTAN BARAT,79582.0,Indonesia,82157057070.0,,,-0.0052462,111.0858582,https://maps.google.com/?cid=0x0:0xa4ca08ac42ea4935,
supermarket,Toko bahan makanan,Bintang Timur,"2V8X+26V, Tanjung, Kec. Sekadau Hilir, Kabupaten Sekadau, Kalimantan Barat 79516","Tanjung, Kec. Sekadau Hilir, Kabupaten Sekadau",KALIMANTAN BARAT,79516.0,Indonesia,,,,0.0151186,110.8980517,https://maps.google.com/?cid=0x0:0x794fbf462d225d27,
supermarket,,toko sumber makmur,"434C+J4H, Sungai Ayak III, Kec. Belitang Hilir, Kabupaten Sekadau, Kalimantan Barat 79512","Sungai Ayak III, Kec. Belitang Hilir, Kabupaten Sekadau",KALIMANTAN BARAT,79512.0,Indonesia,,,,0.1065544,111.0703712,https://maps.google.com/?cid=0x0:0xff24a86317f5b572,
supermarket,Toko bahan makanan,Toko Koneko,"X2XH+GX8, Jl. Lintas Kalimantan Poros Tengah, Gonis Tekam, Kec. Sekadau Hilir, Kabupaten Sekadau, Kalimantan Barat 79582","Jl. Lintas Kalimantan Poros Tengah, Gonis Tekam, Kec. Sekadau Hilir, Kabupaten Sekadau",KALIMANTAN BARAT,79582.0,Indonesia,82150579584.0,,,-0.0012046,111.0299406,https://maps.google.com/?cid=0x0:0xcff5a2eefc969576,
supermarket,Toko Swalayan,Toko Sejati,"2VFQ+VRV, Jl. Syaikh Muhammad Al-Khidhir, Sungai Ringin, Kec. Sekadau Hilir, Kabupaten Sekadau, Kalimantan Barat 79516","Jl. Syaikh Muhammad Al-Khidhir, Sungai Ringin, Kec. Sekadau Hilir, Kabupaten Sekadau",KALIMANTAN BARAT,79516.0,Indonesia,81345425212.0,,,0.0247326,110.8895481,https://maps.google.com/?cid=0x0:0x4b16f3216c614d41,
supermarket,Toko,Toko Revan,"2V7F+C8M, Jl. Lintas Kalimantan Poros Tengah, Sungai Ringin, Kec. Sekadau Hilir, Kabupaten Sekadau, Kalimantan Barat 79516","Jl. Lintas Kalimantan Poros Tengah, Sungai Ringin, Kec. Sekadau Hilir, Kabupaten Sekadau",KALIMANTAN BARAT,79516.0,Indonesia,,,,0.0135931,110.8732848,https://maps.google.com/?cid=0x0:0xaf8681ef26d2c251,
supermarket,Minimarket,Mita Mart,"2VCR+542, Sungai Ringin, Kec. Sekadau Hilir, Kabupaten Sekadau, Kalimantan Barat 79516","Sungai Ringin, Kec. Sekadau Hilir, Kabupaten Sekadau",KALIMANTAN BARAT,79516.0,Indonesia,,,,0.0202641,110.8903849,https://maps.google.com/?cid=0x0:0x8edec6e766f01192,
supermarket,Minimarket,Indomaret Simpang Mungguk,"2V7X+PVJ, Tanjung, Kec. Sekadau Hilir, Kabupaten Sekadau, Kalimantan Barat 79516","Tanjung, Kec. Sekadau Hilir, Kabupaten Sekadau",KALIMANTAN BARAT,79516.0,Indonesia,,,,0.01433,110.8996382,https://maps.google.com/?cid=0x0:0x487361ee570a0d02,
supermarket,Toko Swalayan,K52 Mart Sekadau,"2V9Q+57M, Mungguk, Kec. Sekadau Hilir, Kabupaten Sekadau, Kalimantan Barat 79516","Mungguk, Kec. Sekadau Hilir, Kabupaten Sekadau",KALIMANTAN BARAT,79516.0,Indonesia,,,,0.0179677,110.8881849,https://maps.google.com/?cid=0x0:0xab82847102eac5ff,
supermarket,Sekolah,Indomaret Sungai Ayak 2,"435C+C46, Sungai Ayak III, Kec. Belitang Hilir, Kabupaten Sekadau, Kalimantan Barat 79512","Sungai Ayak III, Kec. Belitang Hilir, Kabupaten Sekadau",KALIMANTAN BARAT,79512.0,Indonesia,,,,0.1085321,111.0702564,https://maps.google.com/?cid=0x0:0x1620dcefef936ce3,
supermarket,Minimarket,Alfamart,"Dusun Gonis Butun, Desa, RT.002/RW.001, Gonis Tekam, Kec. Sekadau Hilir, Kab. Sekadau, Kalimantan Barat 79582","Desa, RT.002/RW.001, Gonis Tekam, Kec. Sekadau Hilir, Kab. Sekadau",KALIMANTAN BARAT,79582.0,Indonesia,1500959.0,,,0.0011187,111.0133519,https://maps.google.com/?cid=0x0:0xf16e066a416eac38,
supermarket,Toko Swalayan,TOKO Sukur Mandiri,"WWXJ+G7P, Nanga Menterap, Kec. Sekadau Hulu, Kabupaten Sekadau, Kalimantan Barat 79582","Nanga Menterap, Kec. Sekadau Hulu, Kabupaten Sekadau",KALIMANTAN BARAT,79582.0,Indonesia,82159224944.0,,,-0.0511588,110.9306978,https://maps.google.com/?cid=0x0:0xd95e930d7227bf3e,
supermarket,Minimarket,Alfamart Raya Sekadau,"Jl. Merdeka Timur Desa, RT.008/RW.002, Mungguk, Kec. Sekadau Hilir, Kab. Sekadau, Kalimantan Barat 79511","RT.008/RW.002, Mungguk, Kec. Sekadau Hilir, Kab. Sekadau",KALIMANTAN BARAT,79511.0,Indonesia,1500959.0,,,0.01631,110.8955605,https://maps.google.com/?cid=0x0:0x48eb73ad707b14a4,
supermarket,supermarket,Toko Edy,"4328+XG7, Jl. Dr. Sutomo, Sungai Ayak III, Kec. Belitang Hilir, Kabupaten Sekadau, Kalimantan Barat 79512","Jl. Dr. Sutomo, Sungai Ayak III, Kec. Belitang Hilir, Kabupaten Sekadau",KALIMANTAN BARAT,79512.0,Indonesia,,,,0.1024182,111.0663018,https://maps.google.com/?cid=0x0:0x7d63ce55585b3d90,
supermarket,supermarket,Kalimantan Barat 79513,"Gonis Tekam, Kec. Sekadau Hilir, Kabupaten Sekadau, Kalimantan Barat","Kabupaten Sekadau, Kalimantan Barat",KALIMANTAN BARAT,,Indonesia,,,,-0.0261051,111.1294996,https://maps.google.com/?cid=0x0:0x466181d899bb2453,
supermarket,Pusat Perbelanjaan,Star Market Sekadau,"Sungai Ringin, Kec. Sekadau Hilir, Kabupaten Sekadau, Kalimantan Barat 79516","Kec. Sekadau Hilir, Kabupaten Sekadau",KALIMANTAN BARAT,79516.0,Indonesia,81649059324.0,,,0.024492,110.8901165,https://maps.google.com/?cid=0x0:0xd66d073e50ae995c,
supermarket,Toko Swalayan,Toko Sejati,"2VFQ+VRV, Jl. Syaikh Muhammad Al-Khidhir, Sungai Ringin, Kec. Sekadau Hilir, Kabupaten Sekadau, Kalimantan Barat 79516","Jl. Syaikh Muhammad Al-Khidhir, Sungai Ringin, Kec. Sekadau Hilir, Kabupaten Sekadau",KALIMANTAN BARAT,79516.0,Indonesia,81345425212.0,,,0.0247326,110.8895481,https://maps.google.com/?cid=0x0:0x4b16f3216c614d41,
supermarket,Toko bahan makanan,Bintang Timur,"2V8X+26V, Tanjung, Kec. Sekadau Hilir, Kabupaten Sekadau, Kalimantan Barat 79516","Tanjung, Kec. Sekadau Hilir, Kabupaten Sekadau",KALIMANTAN BARAT,79516.0,Indonesia,,,,0.0151186,110.8980517,https://maps.google.com/?cid=0x0:0x794fbf462d225d27,
supermarket,Minimarket,Indomaret Simpang Mungguk,"2V7X+PVJ, Tanjung, Kec. Sekadau Hilir, Kabupaten Sekadau, Kalimantan Barat 79516","Tanjung, Kec. Sekadau Hilir, Kabupaten Sekadau",KALIMANTAN BARAT,79516.0,Indonesia,,,,0.01433,110.8996382,https://maps.google.com/?cid=0x0:0x487361ee570a0d02,
supermarket,Toko bahan makanan,Warung Sembakao Mak Uji,"Unnamed Road, Tanjung, Kec. Sekadau Hilir, Kabupaten Sekadau, Kalimantan Barat 79515","Tanjung, Kec. Sekadau Hilir, Kabupaten Sekadau",KALIMANTAN BARAT,79515.0,Indonesia,,,,0.0598847,110.9291418,https://maps.google.com/?cid=0x0:0xb9b87f8c492f5cf8,
supermarket,Toko Swalayan,K52 Mart Sekadau,"2V9Q+57M, Mungguk, Kec. Sekadau Hilir, Kabupaten Sekadau, Kalimantan Barat 79516","Mungguk, Kec. Sekadau Hilir, Kabupaten Sekadau",KALIMANTAN BARAT,79516.0,Indonesia,,,,0.0179677,110.8881849,https://maps.google.com/?cid=0x0:0xab82847102eac5ff,
supermarket,Toko bahan makanan,Toko Kadarto,"2V7F+CFV, Sungai Ringin, Kec. Sekadau Hilir, Kabupaten Sekadau, Kalimantan Barat 79516","Sungai Ringin, Kec. Sekadau Hilir, Kabupaten Sekadau",KALIMANTAN BARAT,79516.0,Indonesia,,,,0.0136105,110.8736835,https://maps.google.com/?cid=0x0:0x4ad33486e395ea74,
supermarket,Toko,Toko Revan,"2V7F+C8M, Jl. Lintas Kalimantan Poros Tengah, Sungai Ringin, Kec. Sekadau Hilir, Kabupaten Sekadau, Kalimantan Barat 79516","Jl. Lintas Kalimantan Poros Tengah, Sungai Ringin, Kec. Sekadau Hilir, Kabupaten Sekadau",KALIMANTAN BARAT,79516.0,Indonesia,,,,0.0135931,110.8732848,https://maps.google.com/?cid=0x0:0xaf8681ef26d2c251,
supermarket,Toko Swalayan,TOKO Sukur Mandiri,"WWXJ+G7P, Nanga Menterap, Kec. Sekadau Hulu, Kabupaten Sekadau, Kalimantan Barat 79582","Nanga Menterap, Kec. Sekadau Hulu, Kabupaten Sekadau",KALIMANTAN BARAT,79582.0,Indonesia,82159224944.0,,,-0.0511588,110.9306978,https://maps.google.com/?cid=0x0:0xd95e930d7227bf3e,
supermarket,Minimarket,Alfamart Raya Sekadau,"Jl. Merdeka Timur Desa, RT.008/RW.002, Mungguk, Kec. Sekadau Hilir, Kab. Sekadau, Kalimantan Barat 79511","RT.008/RW.002, Mungguk, Kec. Sekadau Hilir, Kab. Sekadau",KALIMANTAN BARAT,79511.0,Indonesia,1500959.0,,,0.01631,110.8955605,https://maps.google.com/?cid=0x0:0x48eb73ad707b14a4,
supermarket,Toko bahan makanan,SRC ANUGERAH,"X5J9+4F5, Manis Raya, Kec. Sepauk, Kabupaten Sintang, Kalimantan Barat 78662","Manis Raya, Kec. Sepauk, Kabupaten Sintang",KALIMANTAN BARAT,78662.0,Indonesia,,,,-0.0197384,111.1687241,https://maps.google.com/?cid=0x0:0x1a4a4ae0fd8cb6f5,
supermarket,Minimarket,Indomaret Sekadau Hulu,"Unnamed Road, 79583, Rawak Hulu, Kec. Sekadau Hulu, Kabupaten Sekadau, Kalimantan Barat 79583","79583, Rawak Hulu, Kec. Sekadau Hulu, Kabupaten Sekadau",KALIMANTAN BARAT,79583.0,Indonesia,,,,-0.1359787,110.8749199,https://maps.google.com/?cid=0x0:0xcba4598fecc97027,
supermarket,Toko Swalayan,Toko Kiku,"VV8M+577, Rawak Hilir, Kec. Sekadau Hulu, Kabupaten Sekadau, Kalimantan Barat 79583","Rawak Hilir, Kec. Sekadau Hulu, Kabupaten Sekadau",KALIMANTAN BARAT,79583.0,Indonesia,,,,-0.1345904,110.8831651,https://maps.google.com/?cid=0x0:0x362830bd5354fd10,
supermarket,Minimarket,Alfamart,"Jl. Raya Pasar Baru, Desa, Mungguk, Kec. Sekadau Hilir, Kab. Sekadau, Kalimantan Barat 79511","Desa, Mungguk, Kec. Sekadau Hilir, Kab. Sekadau",KALIMANTAN BARAT,79511.0,Indonesia,1500959.0,,,0.0173841,110.890541,https://maps.google.com/?cid=0x0:0x76c1cca19044ce6f,
supermarket,Toko Swalayan,Toko Bella,"VV3C+V22, Rawak Hulu, Kec. Sekadau Hulu, Kabupaten Sekadau, Kalimantan Barat 79583","Rawak Hulu, Kec. Sekadau Hulu, Kabupaten Sekadau",KALIMANTAN BARAT,79583.0,Indonesia,,,,-0.1453729,110.8700028,https://maps.google.com/?cid=0x0:0x9f525a9984423a2d,
supermarket,Toko bahan makanan,Toko Koneko,"X2XH+GX8, Jl. Lintas Kalimantan Poros Tengah, Gonis Tekam, Kec. Sekadau Hilir, Kabupaten Sekadau, Kalimantan Barat 79582","Jl. Lintas Kalimantan Poros Tengah, Gonis Tekam, Kec. Sekadau Hilir, Kabupaten Sekadau",KALIMANTAN BARAT,79582.0,Indonesia,82150579584.0,,,-0.0012046,111.0299406,https://maps.google.com/?cid=0x0:0xcff5a2eefc969576,
supermarket,Toko umum,Toko Akhiong,"35JW+2H2, Entabuk, Kec. Belitang Hilir, Kabupaten Sekadau, Kalimantan Barat 79588","Entabuk, Kec. Belitang Hilir, Kabupaten Sekadau",KALIMANTAN BARAT,79588.0,Indonesia,,,,0.0800102,111.196376,https://maps.google.com/?cid=0x0:0x1afea9c79a122f68,
supermarket,Minimarket,Alfamart,"Dusun Gonis Butun, Desa, RT.002/RW.001, Gonis Tekam, Kec. Sekadau Hilir, Kab. Sekadau, Kalimantan Barat 79582","Desa, RT.002/RW.001, Gonis Tekam, Kec. Sekadau Hilir, Kab. Sekadau",KALIMANTAN BARAT,79582.0,Indonesia,1500959.0,,,0.0011187,111.0133519,https://maps.google.com/?cid=0x0:0xf16e066a416eac38,
supermarket,Minimarket,Indomaret Sekadau Hilir,"2W64+FQ5, Mungguk, Kec. Sekadau Hilir, Kabupaten Sekadau, Kalimantan Barat 79516","Mungguk, Kec. Sekadau Hilir, Kabupaten Sekadau",KALIMANTAN BARAT,79516.0,Indonesia,,,,0.0111476,110.9069823,https://maps.google.com/?cid=0x0:0xfe20ac07a6bb682c,
supermarket,Toko Buah dan Sayuran,Aneka Buah,"XVQP+HRQ, Jl. Merdeka Selatan, Mungguk, Kec. Sekadau Hilir, Kabupaten Sekadau, Kalimantan Barat 79516","Jl. Merdeka Selatan, Mungguk, Kec. Sekadau Hilir, Kabupaten Sekadau",KALIMANTAN BARAT,79516.0,Indonesia,85691015339.0,,,-0.0110473,110.88712,https://maps.google.com/?cid=0x0:0x87b17f922071fbb1,
supermarket,Minimarket,Alfamart Mungguk,"Jl. Merdeka Timur No.Desa, Mungguk, Kec. Sekadau Hilir, Kab. Sekadau, Kalimantan Barat 79511","Mungguk, Kec. Sekadau Hilir, Kab. Sekadau",KALIMANTAN BARAT,79511.0,Indonesia,1500959.0,,,0.01425,110.90002,https://maps.google.com/?cid=0x0:0x5ffd15e931b3ea,
supermarket,Toko Swalayan,Toko Hero,"Tanjung, Kec. Sekadau Hilir, Kabupaten Sekadau, Kalimantan Barat 79516","Kec. Sekadau Hilir, Kabupaten Sekadau",KALIMANTAN BARAT,79516.0,Indonesia,,,,0.0140763,110.9009505,https://maps.google.com/?cid=0x0:0xf2760f49f2d31d89,
supermarket,Toko bahan makanan,MM. TIGA PUTRI,"3674+JQX, Tj. Ria, Kec. Sepauk, Kabupaten Sintang, Kalimantan Barat 78662","Tj. Ria, Kec. Sepauk, Kabupaten Sintang",KALIMANTAN BARAT,78662.0,Indonesia,85392256421.0,,,0.0641106,111.2069797,https://maps.google.com/?cid=0x0:0xa3b274501c315e46,
supermarket,Toko Swalayan,Toko Rahmat,"2VFQ+VPG, Sungai Ringin, Kec. Sekadau Hilir, Kabupaten Sekadau, Kalimantan Barat 79516","Sungai Ringin, Kec. Sekadau Hilir, Kabupaten Sekadau",KALIMANTAN BARAT,79516.0,Indonesia,,,,0.0246761,110.889331,https://maps.google.com/?cid=0x0:0x9e429026ac2f39c8,
supermarket,Minimarket,Indomaret Pasar Baru,"2V7C+C78, Sungai Ringin, Kec. Sekadau Hilir, Kabupaten Sekadau, Kalimantan Barat 79516","Sungai Ringin, Kec. Sekadau Hilir, Kabupaten Sekadau",KALIMANTAN BARAT,79516.0,Indonesia,,,,0.0171108,110.890394,https://maps.google.com/?cid=0x0:0x72948af5a14b5378,
supermarket,Toko,Toko Dinda,"VV39+7JM, Rawak Hulu, Kec. Sekadau Hulu, Kabupaten Sekadau, Kalimantan Barat 79583","Rawak Hulu, Kec. Sekadau Hulu, Kabupaten Sekadau",KALIMANTAN BARAT,79583.0,Indonesia,,,,-0.1467774,110.869062,https://maps.google.com/?cid=0x0:0xfe31d0c731455a8,
supermarket,Toko bahan makanan,Indomaret Sepauk,"3685+25M, Unnamed Road, Tj. Ria, Entabuk, Sepauk, Sintang Regency, West Kalimantan 78662","Unnamed Road, Tj. Ria, Entabuk, Sepauk, Sintang Regency",KALIMANTAN BARAT,78662.0,Indonesia,,,,0.0650785,111.2079342,https://maps.google.com/?cid=0x0:0xf9cdcaa05c97a201,
supermarket,Toko bahan makanan,Warung ibu mariana,"34MH+X8V, Kenyauk, Kec. Sepauk, Kabupaten Sintang, Kalimantan Barat","Kabupaten Sintang, Kalimantan Barat",KALIMANTAN BARAT,,Indonesia,,,,0.0849879,111.1283088,https://maps.google.com/?cid=0x0:0x5a40183f5cffe2bf,
supermarket,supermarket,Kalimantan Barat 79514,"Kabupaten Sekadau, Kalimantan Barat","Kabupaten Sekadau, Kalimantan Barat",KALIMANTAN BARAT,,Indonesia,,,,0.1570804,110.9745074,https://maps.google.com/?cid=0x0:0x5c0d217439c4167c,
supermarket,Grosir produk pertanian,Toko Harum Tiga,"Sungai Ayak III, Kec. Belitang Hilir, Kabupaten Sekadau, Kalimantan Barat 79512","Kec. Belitang Hilir, Kabupaten Sekadau",KALIMANTAN BARAT,79512.0,Indonesia,,,,0.1087914,111.0704884,https://maps.google.com/?cid=0x0:0x8b080fa5fabbfcd9,
supermarket,Toko bahan makanan,Warung Sembakao Mak Uji,"Unnamed Road, Tanjung, Kec. Sekadau Hilir, Kabupaten Sekadau, Kalimantan Barat 79515","Tanjung, Kec. Sekadau Hilir, Kabupaten Sekadau",KALIMANTAN BARAT,79515.0,Indonesia,,,,0.0598847,110.9291418,https://maps.google.com/?cid=0x0:0xb9b87f8c492f5cf8,
supermarket,,toko sumber makmur,"434C+J4H, Sungai Ayak III, Kec. Belitang Hilir, Kabupaten Sekadau, Kalimantan Barat 79512","Sungai Ayak III, Kec. Belitang Hilir, Kabupaten Sekadau",KALIMANTAN BARAT,79512.0,Indonesia,,,,0.1065544,111.0703712,https://maps.google.com/?cid=0x0:0xff24a86317f5b572,
supermarket,Pusat Perbelanjaan,Star Market Sekadau,"Sungai Ringin, Kec. Sekadau Hilir, Kabupaten Sekadau, Kalimantan Barat 79516","Kec. Sekadau Hilir, Kabupaten Sekadau",KALIMANTAN BARAT,79516.0,Indonesia,81649059324.0,,,0.024492,110.8901165,https://maps.google.com/?cid=0x0:0xd66d073e50ae995c,
supermarket,Minimarket,Mita Mart,"2VCR+542, Sungai Ringin, Kec. Sekadau Hilir, Kabupaten Sekadau, Kalimantan Barat 79516","Sungai Ringin, Kec. Sekadau Hilir, Kabupaten Sekadau",KALIMANTAN BARAT,79516.0,Indonesia,,,,0.0202641,110.8903849,https://maps.google.com/?cid=0x0:0x8edec6e766f01192,
supermarket,Toko,Toko Revan,"2V7F+C8M, Jl. Lintas Kalimantan Poros Tengah, Sungai Ringin, Kec. Sekadau Hilir, Kabupaten Sekadau, Kalimantan Barat 79516","Jl. Lintas Kalimantan Poros Tengah, Sungai Ringin, Kec. Sekadau Hilir, Kabupaten Sekadau",KALIMANTAN BARAT,79516.0,Indonesia,,,,0.0135931,110.8732848,https://maps.google.com/?cid=0x0:0xaf8681ef26d2c251,
supermarket,Toko bahan makanan,Toko Kadarto,"2V7F+CFV, Sungai Ringin, Kec. Sekadau Hilir, Kabupaten Sekadau, Kalimantan Barat 79516","Sungai Ringin, Kec. Sekadau Hilir, Kabupaten Sekadau",KALIMANTAN BARAT,79516.0,Indonesia,,,,0.0136105,110.8736835,https://maps.google.com/?cid=0x0:0x4ad33486e395ea74,
supermarket,Toko bahan makanan,Toko Maju Bersama,"X3VP+W85, Jl. Lintas Kalimantan Poros Tengah, Tapang Semadak, Kec. Sekadau Hilir, Kabupaten Sekadau, Kalimantan Barat 79582","Jl. Lintas Kalimantan Poros Tengah, Tapang Semadak, Kec. Sekadau Hilir, Kabupaten Sekadau",KALIMANTAN BARAT,79582.0,Indonesia,82157057070.0,,,-0.0052462,111.0858582,https://maps.google.com/?cid=0x0:0xa4ca08ac42ea4935,
supermarket,Toko Swalayan,K52 Mart Sekadau,"2V9Q+57M, Mungguk, Kec. Sekadau Hilir, Kabupaten Sekadau, Kalimantan Barat 79516","Mungguk, Kec. Sekadau Hilir, Kabupaten Sekadau",KALIMANTAN BARAT,79516.0,Indonesia,,,,0.0179677,110.8881849,https://maps.google.com/?cid=0x0:0xab82847102eac5ff,
supermarket,Sekolah,Indomaret Sungai Ayak 2,"435C+C46, Sungai Ayak III, Kec. Belitang Hilir, Kabupaten Sekadau, Kalimantan Barat 79512","Sungai Ayak III, Kec. Belitang Hilir, Kabupaten Sekadau",KALIMANTAN BARAT,79512.0,Indonesia,,,,0.1085321,111.0702564,https://maps.google.com/?cid=0x0:0x1620dcefef936ce3,
supermarket,Minimarket,Alfamart Mungguk,"Jl. Merdeka Timur No.Desa, Mungguk, Kec. Sekadau Hilir, Kab. Sekadau, Kalimantan Barat 79511","Mungguk, Kec. Sekadau Hilir, Kab. Sekadau",KALIMANTAN BARAT,79511.0,Indonesia,1500959.0,,,0.01425,110.90002,https://maps.google.com/?cid=0x0:0x5ffd15e931b3ea,
supermarket,Minimarket,Alfamart Raya Sekadau,"Jl. Merdeka Timur Desa, RT.008/RW.002, Mungguk, Kec. Sekadau Hilir, Kab. Sekadau, Kalimantan Barat 79511","RT.008/RW.002, Mungguk, Kec. Sekadau Hilir, Kab. Sekadau",KALIMANTAN BARAT,79511.0,Indonesia,1500959.0,,,0.01631,110.8955605,https://maps.google.com/?cid=0x0:0x48eb73ad707b14a4,
supermarket,Toko Swalayan,Toko Kiku,"VV8M+577, Rawak Hilir, Kec. Sekadau Hulu, Kabupaten Sekadau, Kalimantan Barat 79583","Rawak Hilir, Kec. Sekadau Hulu, Kabupaten Sekadau",KALIMANTAN BARAT,79583.0,Indonesia,,,,-0.1345904,110.8831651,https://maps.google.com/?cid=0x0:0x362830bd5354fd10,
supermarket,Minimarket,Alfamart,"Jl. Raya Pasar Baru, Desa, Mungguk, Kec. Sekadau Hilir, Kab. Sekadau, Kalimantan Barat 79511","Desa, Mungguk, Kec. Sekadau Hilir, Kab. Sekadau",KALIMANTAN BARAT,79511.0,Indonesia,1500959.0,,,0.0173841,110.890541,https://maps.google.com/?cid=0x0:0x76c1cca19044ce6f,
supermarket,Toserba,Tk Putra Kembar,"53W8+8W4, Unnamed Road, Merbang, Kec. Belitang Hilir, Kabupaten Sekadau, Kalimantan Barat 79586","Unnamed Road, Merbang, Kec. Belitang Hilir, Kabupaten Sekadau",KALIMANTAN BARAT,79586.0,Indonesia,,,,0.195765,111.0673229,https://maps.google.com/?cid=0x0:0xf130e1932ca1ab01,
supermarket,Toko bahan makanan,Toko Koneko,"X2XH+GX8, Jl. Lintas Kalimantan Poros Tengah, Gonis Tekam, Kec. Sekadau Hilir, Kabupaten Sekadau, Kalimantan Barat 79582","Jl. Lintas Kalimantan Poros Tengah, Gonis Tekam, Kec. Sekadau Hilir, Kabupaten Sekadau",KALIMANTAN BARAT,79582.0,Indonesia,82150579584.0,,,-0.0012046,111.0299406,https://maps.google.com/?cid=0x0:0xcff5a2eefc969576,
supermarket,Minimarket,Indomaret Sekadau Hilir,"2W64+FQ5, Mungguk, Kec. Sekadau Hilir, Kabupaten Sekadau, Kalimantan Barat 79516","Mungguk, Kec. Sekadau Hilir, Kabupaten Sekadau",KALIMANTAN BARAT,79516.0,Indonesia,,,,0.0111476,110.9069823,https://maps.google.com/?cid=0x0:0xfe20ac07a6bb682c,
supermarket,Minimarket,Alfamart Merdeka Timur Sekadau,"Jl. Irian Rt 002 Rw 001, Dusun Pasar Hilir, Desa, Sungai Ringin, Kec. Sekadau Hilir, Kab. Sekadau, Kalimantan Barat 79582","Dusun Pasar Hilir, Desa, Sungai Ringin, Kec. Sekadau Hilir, Kab. Sekadau",KALIMANTAN BARAT,79582.0,Indonesia,1500959.0,,,0.0199325,110.8912436,https://maps.google.com/?cid=0x0:0xbbb4573c98229fc9,
supermarket,Toko Swalayan,Toko Rahmat,"2VFQ+VPG, Sungai Ringin, Kec. Sekadau Hilir, Kabupaten Sekadau, Kalimantan Barat 79516","Sungai Ringin, Kec. Sekadau Hilir, Kabupaten Sekadau",KALIMANTAN BARAT,79516.0,Indonesia,,,,0.0246761,110.889331,https://maps.google.com/?cid=0x0:0x9e429026ac2f39c8,
supermarket,Pusat Perbelanjaan,Tokoh ** BAHAGIA **,"QQPV+FH6, Unnamed Road, Nanga Kiungkang, Kec. Nanga Taman, Kabupaten Sekadau, Kalimantan Barat 79584","Unnamed Road, Nanga Kiungkang, Kec. Nanga Taman, Kabupaten Sekadau",KALIMANTAN BARAT,79584.0,Indonesia,,,,-0.2138281,110.7938928,https://maps.google.com/?cid=0x0:0xf6530e52adcc6ceb,
supermarket,Minimarket,Indomaret Merdeka Timur Penanjung,"2W36+P9C, Mungguk, Kec. Sekadau Hilir, Kabupaten Sekadau, Kalimantan Barat","Kabupaten Sekadau, Kalimantan Barat",KALIMANTAN BARAT,,Indonesia,,,,0.0043247,110.9108787,https://maps.google.com/?cid=0x0:0x517cb2309d98ffa9,
supermarket,Minimarket,Alfamart,"Dusun Gonis Butun, Desa, RT.002/RW.001, Gonis Tekam, Kec. Sekadau Hilir, Kab. Sekadau, Kalimantan Barat 79582","Desa, RT.002/RW.001, Gonis Tekam, Kec. Sekadau Hilir, Kab. Sekadau",KALIMANTAN BARAT,79582.0,Indonesia,1500959.0,,,0.0011187,111.0133519,https://maps.google.com/?cid=0x0:0xf16e066a416eac38,
supermarket,supermarket,Kalimantan Barat 79515,"Kec. Sekadau Hilir, Kabupaten Sekadau, Kalimantan Barat","Kabupaten Sekadau, Kalimantan Barat",KALIMANTAN BARAT,,Indonesia,,,,0.0872098,110.9268201,https://maps.google.com/?cid=0x0:0x85a84b3f51cece76,
supermarket,Toko bahan makanan,Warung Sembakao Mak Uji,"Unnamed Road, Tanjung, Kec. Sekadau Hilir, Kabupaten Sekadau, Kalimantan Barat 79515","Tanjung, Kec. Sekadau Hilir, Kabupaten Sekadau",KALIMANTAN BARAT,79515.0,Indonesia,,,,0.0598847,110.9291418,https://maps.google.com/?cid=0x0:0xb9b87f8c492f5cf8,
supermarket,Pusat Perbelanjaan,Star Market Sekadau,"Sungai Ringin, Kec. Sekadau Hilir, Kabupaten Sekadau, Kalimantan Barat 79516","Kec. Sekadau Hilir, Kabupaten Sekadau",KALIMANTAN BARAT,79516.0,Indonesia,81649059324.0,,,0.024492,110.8901165,https://maps.google.com/?cid=0x0:0xd66d073e50ae995c,
supermarket,Minimarket,Mita Mart,"2VCR+542, Sungai Ringin, Kec. Sekadau Hilir, Kabupaten Sekadau, Kalimantan Barat 79516","Sungai Ringin, Kec. Sekadau Hilir, Kabupaten Sekadau",KALIMANTAN BARAT,79516.0,Indonesia,,,,0.0202641,110.8903849,https://maps.google.com/?cid=0x0:0x8edec6e766f01192,
supermarket,Minimarket,Indomaret Simpang Mungguk,"2V7X+PVJ, Tanjung, Kec. Sekadau Hilir, Kabupaten Sekadau, Kalimantan Barat 79516","Tanjung, Kec. Sekadau Hilir, Kabupaten Sekadau",KALIMANTAN BARAT,79516.0,Indonesia,,,,0.01433,110.8996382,https://maps.google.com/?cid=0x0:0x487361ee570a0d02,
supermarket,Toko Swalayan,Toko Sejati,"2VFQ+VRV, Jl. Syaikh Muhammad Al-Khidhir, Sungai Ringin, Kec. Sekadau Hilir, Kabupaten Sekadau, Kalimantan Barat 79516","Jl. Syaikh Muhammad Al-Khidhir, Sungai Ringin, Kec. Sekadau Hilir, Kabupaten Sekadau",KALIMANTAN BARAT,79516.0,Indonesia,81345425212.0,,,0.0247326,110.8895481,https://maps.google.com/?cid=0x0:0x4b16f3216c614d41,
supermarket,Toko Swalayan,K52 Mart Sekadau,"2V9Q+57M, Mungguk, Kec. Sekadau Hilir, Kabupaten Sekadau, Kalimantan Barat 79516","Mungguk, Kec. Sekadau Hilir, Kabupaten Sekadau",KALIMANTAN BARAT,79516.0,Indonesia,,,,0.0179677,110.8881849,https://maps.google.com/?cid=0x0:0xab82847102eac5ff,
supermarket,Toko bahan makanan,Toko Kadarto,"2V7F+CFV, Sungai Ringin, Kec. Sekadau Hilir, Kabupaten Sekadau, Kalimantan Barat 79516","Sungai Ringin, Kec. Sekadau Hilir, Kabupaten Sekadau",KALIMANTAN BARAT,79516.0,Indonesia,,,,0.0136105,110.8736835,https://maps.google.com/?cid=0x0:0x4ad33486e395ea74,
supermarket,Grosir produk pertanian,Toko Harum Tiga,"Sungai Ayak III, Kec. Belitang Hilir, Kabupaten Sekadau, Kalimantan Barat 79512","Kec. Belitang Hilir, Kabupaten Sekadau",KALIMANTAN BARAT,79512.0,Indonesia,,,,0.1087914,111.0704884,https://maps.google.com/?cid=0x0:0x8b080fa5fabbfcd9,
supermarket,Toko,Toko Revan,"2V7F+C8M, Jl. Lintas Kalimantan Poros Tengah, Sungai Ringin, Kec. Sekadau Hilir, Kabupaten Sekadau, Kalimantan Barat 79516","Jl. Lintas Kalimantan Poros Tengah, Sungai Ringin, Kec. Sekadau Hilir, Kabupaten Sekadau",KALIMANTAN BARAT,79516.0,Indonesia,,,,0.0135931,110.8732848,https://maps.google.com/?cid=0x0:0xaf8681ef26d2c251,
supermarket,Toko,warung Bg Mamat,"2V9W+MPQ, Tanjung, Kec. Sekadau Hilir, Kabupaten Sekadau, Kalimantan Barat 79516","Tanjung, Kec. Sekadau Hilir, Kabupaten Sekadau",KALIMANTAN BARAT,79516.0,Indonesia,,,,0.0192169,110.8968561,https://maps.google.com/?cid=0x0:0xfd9c7138888c2f96,
supermarket,Toko Swalayan,Toko Hero,"Tanjung, Kec. Sekadau Hilir, Kabupaten Sekadau, Kalimantan Barat 79516","Kec. Sekadau Hilir, Kabupaten Sekadau",KALIMANTAN BARAT,79516.0,Indonesia,,,,0.0140763,110.9009505,https://maps.google.com/?cid=0x0:0xf2760f49f2d31d89,
supermarket,Minimarket,Alfamart Raya Sekadau,"Jl. Merdeka Timur Desa, RT.008/RW.002, Mungguk, Kec. Sekadau Hilir, Kab. Sekadau, Kalimantan Barat 79511","RT.008/RW.002, Mungguk, Kec. Sekadau Hilir, Kab. Sekadau",KALIMANTAN BARAT,79511.0,Indonesia,1500959.0,,,0.01631,110.8955605,https://maps.google.com/?cid=0x0:0x48eb73ad707b14a4,
supermarket,Toko bahan makanan,Toko Maju Bersama,"X3VP+W85, Jl. Lintas Kalimantan Poros Tengah, Tapang Semadak, Kec. Sekadau Hilir, Kabupaten Sekadau, Kalimantan Barat 79582","Jl. Lintas Kalimantan Poros Tengah, Tapang Semadak, Kec. Sekadau Hilir, Kabupaten Sekadau",KALIMANTAN BARAT,79582.0,Indonesia,82157057070.0,,,-0.0052462,111.0858582,https://maps.google.com/?cid=0x0:0xa4ca08ac42ea4935,
supermarket,Minimarket,Alfamart Mungguk,"Jl. Merdeka Timur No.Desa, Mungguk, Kec. Sekadau Hilir, Kab. Sekadau, Kalimantan Barat 79511","Mungguk, Kec. Sekadau Hilir, Kab. Sekadau",KALIMANTAN BARAT,79511.0,Indonesia,1500959.0,,,0.01425,110.90002,https://maps.google.com/?cid=0x0:0x5ffd15e931b3ea,
supermarket,Toko Buah dan Sayuran,Aneka Buah,"XVQP+HRQ, Jl. Merdeka Selatan, Mungguk, Kec. Sekadau Hilir, Kabupaten Sekadau, Kalimantan Barat 79516","Jl. Merdeka Selatan, Mungguk, Kec. Sekadau Hilir, Kabupaten Sekadau",KALIMANTAN BARAT,79516.0,Indonesia,85691015339.0,,,-0.0110473,110.88712,https://maps.google.com/?cid=0x0:0x87b17f922071fbb1,
supermarket,Toko Swalayan,TOKO Sukur Mandiri,"WWXJ+G7P, Nanga Menterap, Kec. Sekadau Hulu, Kabupaten Sekadau, Kalimantan Barat 79582","Nanga Menterap, Kec. Sekadau Hulu, Kabupaten Sekadau",KALIMANTAN BARAT,79582.0,Indonesia,82159224944.0,,,-0.0511588,110.9306978,https://maps.google.com/?cid=0x0:0xd95e930d7227bf3e,
supermarket,Minimarket,Alfamart,"Jl. Raya Pasar Baru, Desa, Mungguk, Kec. Sekadau Hilir, Kab. Sekadau, Kalimantan Barat 79511","Desa, Mungguk, Kec. Sekadau Hilir, Kab. Sekadau",KALIMANTAN BARAT,79511.0,Indonesia,1500959.0,,,0.0173841,110.890541,https://maps.google.com/?cid=0x0:0x76c1cca19044ce6f,
supermarket,Minimarket,Alfamart Merdeka Timur Sekadau,"Jl. Irian Rt 002 Rw 001, Dusun Pasar Hilir, Desa, Sungai Ringin, Kec. Sekadau Hilir, Kab. Sekadau, Kalimantan Barat 79582","Dusun Pasar Hilir, Desa, Sungai Ringin, Kec. Sekadau Hilir, Kab. Sekadau",KALIMANTAN BARAT,79582.0,Indonesia,1500959.0,,,0.0199325,110.8912436,https://maps.google.com/?cid=0x0:0xbbb4573c98229fc9,
supermarket,Toko bahan makanan,Toko Koneko,"X2XH+GX8, Jl. Lintas Kalimantan Poros Tengah, Gonis Tekam, Kec. Sekadau Hilir, Kabupaten Sekadau, Kalimantan Barat 79582","Jl. Lintas Kalimantan Poros Tengah, Gonis Tekam, Kec. Sekadau Hilir, Kabupaten Sekadau",KALIMANTAN BARAT,79582.0,Indonesia,82150579584.0,,,-0.0012046,111.0299406,https://maps.google.com/?cid=0x0:0xcff5a2eefc969576,
supermarket,Minimarket,Alfamart,"Dusun Gonis Butun, Desa, RT.002/RW.001, Gonis Tekam, Kec. Sekadau Hilir, Kab. Sekadau, Kalimantan Barat 79582","Desa, RT.002/RW.001, Gonis Tekam, Kec. Sekadau Hilir, Kab. Sekadau",KALIMANTAN BARAT,79582.0,Indonesia,1500959.0,,,0.0011187,111.0133519,https://maps.google.com/?cid=0x0:0xf16e066a416eac38,
supermarket,Toko bahan makanan,Devi,"4WCC+6VP, Landau Kodah, Kec. Sekadau Hilir, Kabupaten Sekadau, Kalimantan Barat 79515","Landau Kodah, Kec. Sekadau Hilir, Kabupaten Sekadau",KALIMANTAN BARAT,79515.0,Indonesia,83151292269.0,,,0.120585,110.9221962,https://maps.google.com/?cid=0x0:0x573cfbf2551b8bcf,
supermarket,Toko,TOKO SISWANDI,"2X3C+827, Jl. Lintas Kalimantan Poros Tengah, Gonis Tekam, Kec. Sekadau Hilir, Kabupaten Sekadau, Kalimantan Barat 79515","Jl. Lintas Kalimantan Poros Tengah, Gonis Tekam, Kec. Sekadau Hilir, Kabupaten Sekadau",KALIMANTAN BARAT,79515.0,Indonesia,,,,0.003279,110.9700464,https://maps.google.com/?cid=0x0:0x1713953db121ceba,
supermarket,Toko bahan makanan,Warungsutimah,"4WCF+MM, Landau Kodah, Kec. Sekadau Hilir, Kabupaten Sekadau, Kalimantan Barat","Kabupaten Sekadau, Kalimantan Barat",KALIMANTAN BARAT,,Indonesia,,,,0.1218087,110.9243103,https://maps.google.com/?cid=0x0:0x955c6b70e845e4fd,
supermarket,Pusat Perbelanjaan,Selda,"4V3G+9F, Semabi, Kec. Sekadau Hilir, Kabupaten Sekadau, Kalimantan Barat","Kabupaten Sekadau, Kalimantan Barat",KALIMANTAN BARAT,,Indonesia,,,,0.1033526,110.8761768,https://maps.google.com/?cid=0x0:0x2a03378ba990f649,
supermarket,Toko bahan makanan,Toko Maju Jaya,"2VFQ+J3J, Sungai Ringin, Kec. Sekadau Hilir, Kabupaten Sekadau, Kalimantan Barat 79516","Sungai Ringin, Kec. Sekadau Hilir, Kabupaten Sekadau",KALIMANTAN BARAT,79516.0,Indonesia,85346890311.0,,,0.0240755,110.8876466,https://maps.google.com/?cid=0x0:0xf59533540d1a7df9,
supermarket,Kantor Perusahaan,Kantor Bupati Sekadau,"Merapi, RT. 05 / RW. 03, Sekadau Hilir, Gonis Tekam, Kec. Sekadau Hilir, Kabupaten Sekadau, Kalimantan Barat 79515","RT. 05 / RW. 03, Sekadau Hilir, Gonis Tekam, Kec. Sekadau Hilir, Kabupaten Sekadau",KALIMANTAN BARAT,79515.0,Indonesia,,,,0.0068866,110.9546661,https://maps.google.com/?cid=0x0:0x5b4aa7ebcb96158b,
supermarket,supermarket,Kalimantan Barat 79516,"Kec. Sekadau Hilir, Kabupaten Sekadau, Kalimantan Barat","Kabupaten Sekadau, Kalimantan Barat",KALIMANTAN BARAT,,Indonesia,,,,-0.034875,110.8552919,https://maps.google.com/?cid=0x0:0x3010e80426de42c5,
supermarket,Toko bahan makanan,Bintang Timur,"2V8X+26V, Tanjung, Kec. Sekadau Hilir, Kabupaten Sekadau, Kalimantan Barat 79516","Tanjung, Kec. Sekadau Hilir, Kabupaten Sekadau",KALIMANTAN BARAT,79516.0,Indonesia,,,,0.0151186,110.8980517,https://maps.google.com/?cid=0x0:0x794fbf462d225d27,
supermarket,Pusat Perbelanjaan,Star Market Sekadau,"Sungai Ringin, Kec. Sekadau Hilir, Kabupaten Sekadau, Kalimantan Barat 79516","Kec. Sekadau Hilir, Kabupaten Sekadau",KALIMANTAN BARAT,79516.0,Indonesia,81649059324.0,,,0.024492,110.8901165,https://maps.google.com/?cid=0x0:0xd66d073e50ae995c,
supermarket,Minimarket,Mita Mart,"2VCR+542, Sungai Ringin, Kec. Sekadau Hilir, Kabupaten Sekadau, Kalimantan Barat 79516","Sungai Ringin, Kec. Sekadau Hilir, Kabupaten Sekadau",KALIMANTAN BARAT,79516.0,Indonesia,,,,0.0202641,110.8903849,https://maps.google.com/?cid=0x0:0x8edec6e766f01192,
supermarket,Minimarket,Indomaret Simpang Mungguk,"2V7X+PVJ, Tanjung, Kec. Sekadau Hilir, Kabupaten Sekadau, Kalimantan Barat 79516","Tanjung, Kec. Sekadau Hilir, Kabupaten Sekadau",KALIMANTAN BARAT,79516.0,Indonesia,,,,0.01433,110.8996382,https://maps.google.com/?cid=0x0:0x487361ee570a0d02,
supermarket,Toko bahan makanan,Toko Kadarto,"2V7F+CFV, Sungai Ringin, Kec. Sekadau Hilir, Kabupaten Sekadau, Kalimantan Barat 79516","Sungai Ringin, Kec. Sekadau Hilir, Kabupaten Sekadau",KALIMANTAN BARAT,79516.0,Indonesia,,,,0.0136105,110.8736835,https://maps.google.com/?cid=0x0:0x4ad33486e395ea74,
supermarket,Toko,Toko Revan,"2V7F+C8M, Jl. Lintas Kalimantan Poros Tengah, Sungai Ringin, Kec. Sekadau Hilir, Kabupaten Sekadau, Kalimantan Barat 79516","Jl. Lintas Kalimantan Poros Tengah, Sungai Ringin, Kec. Sekadau Hilir, Kabupaten Sekadau",KALIMANTAN BARAT,79516.0,Indonesia,,,,0.0135931,110.8732848,https://maps.google.com/?cid=0x0:0xaf8681ef26d2c251,
supermarket,Toko Swalayan,K52 Mart Sekadau,"2V9Q+57M, Mungguk, Kec. Sekadau Hilir, Kabupaten Sekadau, Kalimantan Barat 79516","Mungguk, Kec. Sekadau Hilir, Kabupaten Sekadau",KALIMANTAN BARAT,79516.0,Indonesia,,,,0.0179677,110.8881849,https://maps.google.com/?cid=0x0:0xab82847102eac5ff,
supermarket,Toko bahan makanan,Warung Sembakao Mak Uji,"Unnamed Road, Tanjung, Kec. Sekadau Hilir, Kabupaten Sekadau, Kalimantan Barat 79515","Tanjung, Kec. Sekadau Hilir, Kabupaten Sekadau",KALIMANTAN BARAT,79515.0,Indonesia,,,,0.0598847,110.9291418,https://maps.google.com/?cid=0x0:0xb9b87f8c492f5cf8,
supermarket,Toko Swalayan,Toko Hero,"Tanjung, Kec. Sekadau Hilir, Kabupaten Sekadau, Kalimantan Barat 79516","Kec. Sekadau Hilir, Kabupaten Sekadau",KALIMANTAN BARAT,79516.0,Indonesia,,,,0.0140763,110.9009505,https://maps.google.com/?cid=0x0:0xf2760f49f2d31d89,
supermarket,Toko,warung Bg Mamat,"2V9W+MPQ, Tanjung, Kec. Sekadau Hilir, Kabupaten Sekadau, Kalimantan Barat 79516","Tanjung, Kec. Sekadau Hilir, Kabupaten Sekadau",KALIMANTAN BARAT,79516.0,Indonesia,,,,0.0192169,110.8968561,https://maps.google.com/?cid=0x0:0xfd9c7138888c2f96,
supermarket,Toko Buah dan Sayuran,Aneka Buah,"XVQP+HRQ, Jl. Merdeka Selatan, Mungguk, Kec. Sekadau Hilir, Kabupaten Sekadau, Kalimantan Barat 79516","Jl. Merdeka Selatan, Mungguk, Kec. Sekadau Hilir, Kabupaten Sekadau",KALIMANTAN BARAT,79516.0,Indonesia,85691015339.0,,,-0.0110473,110.88712,https://maps.google.com/?cid=0x0:0x87b17f922071fbb1,
supermarket,Minimarket,Alfamart Raya Sekadau,"Jl. Merdeka Timur Desa, RT.008/RW.002, Mungguk, Kec. Sekadau Hilir, Kab. Sekadau, Kalimantan Barat 79511","RT.008/RW.002, Mungguk, Kec. Sekadau Hilir, Kab. Sekadau",KALIMANTAN BARAT,79511.0,Indonesia,1500959.0,,,0.01631,110.8955605,https://maps.google.com/?cid=0x0:0x48eb73ad707b14a4,
supermarket,Minimarket,Alfamart Mungguk,"Jl. Merdeka Timur No.Desa, Mungguk, Kec. Sekadau Hilir, Kab. Sekadau, Kalimantan Barat 79511","Mungguk, Kec. Sekadau Hilir, Kab. Sekadau",KALIMANTAN BARAT,79511.0,Indonesia,1500959.0,,,0.01425,110.90002,https://maps.google.com/?cid=0x0:0x5ffd15e931b3ea,
supermarket,Minimarket,Alfamart,"Jl. Raya Pasar Baru, Desa, Mungguk, Kec. Sekadau Hilir, Kab. Sekadau, Kalimantan Barat 79511","Desa, Mungguk, Kec. Sekadau Hilir, Kab. Sekadau",KALIMANTAN BARAT,79511.0,Indonesia,1500959.0,,,0.0173841,110.890541,https://maps.google.com/?cid=0x0:0x76c1cca19044ce6f,
supermarket,Toko Swalayan,TOKO Sukur Mandiri,"WWXJ+G7P, Nanga Menterap, Kec. Sekadau Hulu, Kabupaten Sekadau, Kalimantan Barat 79582","Nanga Menterap, Kec. Sekadau Hulu, Kabupaten Sekadau",KALIMANTAN BARAT,79582.0,Indonesia,82159224944.0,,,-0.0511588,110.9306978,https://maps.google.com/?cid=0x0:0xd95e930d7227bf3e,
supermarket,Minimarket,Indomaret Sekadau Hilir,"2W64+FQ5, Mungguk, Kec. Sekadau Hilir, Kabupaten Sekadau, Kalimantan Barat 79516","Mungguk, Kec. Sekadau Hilir, Kabupaten Sekadau",KALIMANTAN BARAT,79516.0,Indonesia,,,,0.0111476,110.9069823,https://maps.google.com/?cid=0x0:0xfe20ac07a6bb682c,
supermarket,Minimarket,Alfamart Merdeka Timur Sekadau,"Jl. Irian Rt 002 Rw 001, Dusun Pasar Hilir, Desa, Sungai Ringin, Kec. Sekadau Hilir, Kab. Sekadau, Kalimantan Barat 79582","Dusun Pasar Hilir, Desa, Sungai Ringin, Kec. Sekadau Hilir, Kab. Sekadau",KALIMANTAN BARAT,79582.0,Indonesia,1500959.0,,,0.0199325,110.8912436,https://maps.google.com/?cid=0x0:0xbbb4573c98229fc9,
supermarket,Minimarket,Indomaret Merdeka Timur,"2VCR+659, Sungai Ringin, Kec. Sekadau Hilir, Kabupaten Sekadau, Kalimantan Barat 79516","Sungai Ringin, Kec. Sekadau Hilir, Kabupaten Sekadau",KALIMANTAN BARAT,79516.0,Indonesia,,,,0.0205311,110.8904805,https://maps.google.com/?cid=0x0:0xe473e6b73055b1fb,
supermarket,Toko Swalayan,Toko Rahmat,"2VFQ+VPG, Sungai Ringin, Kec. Sekadau Hilir, Kabupaten Sekadau, Kalimantan Barat 79516","Sungai Ringin, Kec. Sekadau Hilir, Kabupaten Sekadau",KALIMANTAN BARAT,79516.0,Indonesia,,,,0.0246761,110.889331,https://maps.google.com/?cid=0x0:0x9e429026ac2f39c8,
supermarket,Minimarket,Al Fatah Mart,"XWX9+MJ5, Mungguk, Kec. Sekadau Hilir, Kabupaten Sekadau, Kalimantan Barat 79516","Mungguk, Kec. Sekadau Hilir, Kabupaten Sekadau",KALIMANTAN BARAT,79516.0,Indonesia,,,,-0.0011936,110.9192532,https://maps.google.com/?cid=0x0:0x8a5a0ec320e01705,
supermarket,Minimarket,Indomaret Pasar Baru,"2V7C+C78, Sungai Ringin, Kec. Sekadau Hilir, Kabupaten Sekadau, Kalimantan Barat 79516","Sungai Ringin, Kec. Sekadau Hilir, Kabupaten Sekadau",KALIMANTAN BARAT,79516.0,Indonesia,,,,0.0171108,110.890394,https://maps.google.com/?cid=0x0:0x72948af5a14b5378,
supermarket,Toko Swalayan,Toko Mandiri Jaya,"VV8G+PM5, Rawak Hilir, Kec. Sekadau Hulu, Kabupaten Sekadau, Kalimantan Barat 79583","Rawak Hilir, Kec. Sekadau Hulu, Kabupaten Sekadau",KALIMANTAN BARAT,79583.0,Indonesia,82154387488.0,,,-0.133244,110.8767238,https://maps.google.com/?cid=0x0:0x564d3ca81d997a1b,
supermarket,supermarket,Kalimantan Barat 79582,"Kabupaten Sekadau, Kalimantan Barat","Kabupaten Sekadau, Kalimantan Barat",KALIMANTAN BARAT,,Indonesia,,,,-0.0522503,111.0698858,https://maps.google.com/?cid=0x0:0xd2d3b52d3579742e,
supermarket,Pusat Perbelanjaan,Star Market Sekadau,"Sungai Ringin, Kec. Sekadau Hilir, Kabupaten Sekadau, Kalimantan Barat 79516","Kec. Sekadau Hilir, Kabupaten Sekadau",KALIMANTAN BARAT,79516.0,Indonesia,81649059324.0,,,0.024492,110.8901165,https://maps.google.com/?cid=0x0:0xd66d073e50ae995c,
supermarket,Toko Swalayan,TOKO Sukur Mandiri,"WWXJ+G7P, Nanga Menterap, Kec. Sekadau Hulu, Kabupaten Sekadau, Kalimantan Barat 79582","Nanga Menterap, Kec. Sekadau Hulu, Kabupaten Sekadau",KALIMANTAN BARAT,79582.0,Indonesia,82159224944.0,,,-0.0511588,110.9306978,https://maps.google.com/?cid=0x0:0xd95e930d7227bf3e,
supermarket,Toko bahan makanan,Bintang Timur,"2V8X+26V, Tanjung, Kec. Sekadau Hilir, Kabupaten Sekadau, Kalimantan Barat 79516","Tanjung, Kec. Sekadau Hilir, Kabupaten Sekadau",KALIMANTAN BARAT,79516.0,Indonesia,,,,0.0151186,110.8980517,https://maps.google.com/?cid=0x0:0x794fbf462d225d27,
supermarket,Toko bahan makanan,Toko Koneko,"X2XH+GX8, Jl. Lintas Kalimantan Poros Tengah, Gonis Tekam, Kec. Sekadau Hilir, Kabupaten Sekadau, Kalimantan Barat 79582","Jl. Lintas Kalimantan Poros Tengah, Gonis Tekam, Kec. Sekadau Hilir, Kabupaten Sekadau",KALIMANTAN BARAT,79582.0,Indonesia,82150579584.0,,,-0.0012046,111.0299406,https://maps.google.com/?cid=0x0:0xcff5a2eefc969576,
supermarket,Toko Swalayan,Toko Sejati,"2VFQ+VRV, Jl. Syaikh Muhammad Al-Khidhir, Sungai Ringin, Kec. Sekadau Hilir, Kabupaten Sekadau, Kalimantan Barat 79516","Jl. Syaikh Muhammad Al-Khidhir, Sungai Ringin, Kec. Sekadau Hilir, Kabupaten Sekadau",KALIMANTAN BARAT,79516.0,Indonesia,81345425212.0,,,0.0247326,110.8895481,https://maps.google.com/?cid=0x0:0x4b16f3216c614d41,
supermarket,Minimarket,Indomaret Simpang Mungguk,"2V7X+PVJ, Tanjung, Kec. Sekadau Hilir, Kabupaten Sekadau, Kalimantan Barat 79516","Tanjung, Kec. Sekadau Hilir, Kabupaten Sekadau",KALIMANTAN BARAT,79516.0,Indonesia,,,,0.01433,110.8996382,https://maps.google.com/?cid=0x0:0x487361ee570a0d02,
supermarket,Toko bahan makanan,Toko Kadarto,"2V7F+CFV, Sungai Ringin, Kec. Sekadau Hilir, Kabupaten Sekadau, Kalimantan Barat 79516","Sungai Ringin, Kec. Sekadau Hilir, Kabupaten Sekadau",KALIMANTAN BARAT,79516.0,Indonesia,,,,0.0136105,110.8736835,https://maps.google.com/?cid=0x0:0x4ad33486e395ea74,
supermarket,Minimarket,Alfamart,"Dusun Gonis Butun, Desa, RT.002/RW.001, Gonis Tekam, Kec. Sekadau Hilir, Kab. Sekadau, Kalimantan Barat 79582","Desa, RT.002/RW.001, Gonis Tekam, Kec. Sekadau Hilir, Kab. Sekadau",KALIMANTAN BARAT,79582.0,Indonesia,1500959.0,,,0.0011187,111.0133519,https://maps.google.com/?cid=0x0:0xf16e066a416eac38,
supermarket,Minimarket,Mita Mart,"2VCR+542, Sungai Ringin, Kec. Sekadau Hilir, Kabupaten Sekadau, Kalimantan Barat 79516","Sungai Ringin, Kec. Sekadau Hilir, Kabupaten Sekadau",KALIMANTAN BARAT,79516.0,Indonesia,,,,0.0202641,110.8903849,https://maps.google.com/?cid=0x0:0x8edec6e766f01192,
supermarket,Toko,Toko Revan,"2V7F+C8M, Jl. Lintas Kalimantan Poros Tengah, Sungai Ringin, Kec. Sekadau Hilir, Kabupaten Sekadau, Kalimantan Barat 79516","Jl. Lintas Kalimantan Poros Tengah, Sungai Ringin, Kec. Sekadau Hilir, Kabupaten Sekadau",KALIMANTAN BARAT,79516.0,Indonesia,,,,0.0135931,110.8732848,https://maps.google.com/?cid=0x0:0xaf8681ef26d2c251,
supermarket,Toko Swalayan,K52 Mart Sekadau,"2V9Q+57M, Mungguk, Kec. Sekadau Hilir, Kabupaten Sekadau, Kalimantan Barat 79516","Mungguk, Kec. Sekadau Hilir, Kabupaten Sekadau",KALIMANTAN BARAT,79516.0,Indonesia,,,,0.0179677,110.8881849,https://maps.google.com/?cid=0x0:0xab82847102eac5ff,
supermarket,Toko Swalayan,Toko Hero,"Tanjung, Kec. Sekadau Hilir, Kabupaten Sekadau, Kalimantan Barat 79516","Kec. Sekadau Hilir, Kabupaten Sekadau",KALIMANTAN BARAT,79516.0,Indonesia,,,,0.0140763,110.9009505,https://maps.google.com/?cid=0x0:0xf2760f49f2d31d89,
supermarket,Toko bahan makanan,Warung Sembakao Mak Uji,"Unnamed Road, Tanjung, Kec. Sekadau Hilir, Kabupaten Sekadau, Kalimantan Barat 79515","Tanjung, Kec. Sekadau Hilir, Kabupaten Sekadau",KALIMANTAN BARAT,79515.0,Indonesia,,,,0.0598847,110.9291418,https://maps.google.com/?cid=0x0:0xb9b87f8c492f5cf8,
supermarket,Toko Buah dan Sayuran,Aneka Buah,"XVQP+HRQ, Jl. Merdeka Selatan, Mungguk, Kec. Sekadau Hilir, Kabupaten Sekadau, Kalimantan Barat 79516","Jl. Merdeka Selatan, Mungguk, Kec. Sekadau Hilir, Kabupaten Sekadau",KALIMANTAN BARAT,79516.0,Indonesia,85691015339.0,,,-0.0110473,110.88712,https://maps.google.com/?cid=0x0:0x87b17f922071fbb1,
supermarket,Toko,warung Bg Mamat,"2V9W+MPQ, Tanjung, Kec. Sekadau Hilir, Kabupaten Sekadau, Kalimantan Barat 79516","Tanjung, Kec. Sekadau Hilir, Kabupaten Sekadau",KALIMANTAN BARAT,79516.0,Indonesia,,,,0.0192169,110.8968561,https://maps.google.com/?cid=0x0:0xfd9c7138888c2f96,
supermarket,Minimarket,Alfamart Merdeka Timur Sekadau,"Jl. Irian Rt 002 Rw 001, Dusun Pasar Hilir, Desa, Sungai Ringin, Kec. Sekadau Hilir, Kab. Sekadau, Kalimantan Barat 79582","Dusun Pasar Hilir, Desa, Sungai Ringin, Kec. Sekadau Hilir, Kab. Sekadau",KALIMANTAN BARAT,79582.0,Indonesia,1500959.0,,,0.0199325,110.8912436,https://maps.google.com/?cid=0x0:0xbbb4573c98229fc9,
supermarket,Minimarket,Alfamart Mungguk,"Jl. Merdeka Timur No.Desa, Mungguk, Kec. Sekadau Hilir, Kab. Sekadau, Kalimantan Barat 79511","Mungguk, Kec. Sekadau Hilir, Kab. Sekadau",KALIMANTAN BARAT,79511.0,Indonesia,1500959.0,,,0.01425,110.90002,https://maps.google.com/?cid=0x0:0x5ffd15e931b3ea,
supermarket,Toko Swalayan,Toko Kiku,"VV8M+577, Rawak Hilir, Kec. Sekadau Hulu, Kabupaten Sekadau, Kalimantan Barat 79583","Rawak Hilir, Kec. Sekadau Hulu, Kabupaten Sekadau",KALIMANTAN BARAT,79583.0,Indonesia,,,,-0.1345904,110.8831651,https://maps.google.com/?cid=0x0:0x362830bd5354fd10,
supermarket,Toko Swalayan,Toko Mandiri Jaya,"VV8G+PM5, Rawak Hilir, Kec. Sekadau Hulu, Kabupaten Sekadau, Kalimantan Barat 79583","Rawak Hilir, Kec. Sekadau Hulu, Kabupaten Sekadau",KALIMANTAN BARAT,79583.0,Indonesia,82154387488.0,,,-0.133244,110.8767238,https://maps.google.com/?cid=0x0:0x564d3ca81d997a1b,
supermarket,Minimarket,Al Fatah Mart,"XWX9+MJ5, Mungguk, Kec. Sekadau Hilir, Kabupaten Sekadau, Kalimantan Barat 79516","Mungguk, Kec. Sekadau Hilir, Kabupaten Sekadau",KALIMANTAN BARAT,79516.0,Indonesia,,,,-0.0011936,110.9192532,https://maps.google.com/?cid=0x0:0x8a5a0ec320e01705,
supermarket,Minimarket,Indomaret Sekadau Hilir,"2W64+FQ5, Mungguk, Kec. Sekadau Hilir, Kabupaten Sekadau, Kalimantan Barat 79516","Mungguk, Kec. Sekadau Hilir, Kabupaten Sekadau",KALIMANTAN BARAT,79516.0,Indonesia,,,,0.0111476,110.9069823,https://maps.google.com/?cid=0x0:0xfe20ac07a6bb682c,
supermarket,supermarket,Kalimantan Barat 79583,"Kec. Sekadau Hulu, Kabupaten Sekadau, Kalimantan Barat","Kabupaten Sekadau, Kalimantan Barat",KALIMANTAN BARAT,,Indonesia,,,,-0.174604,110.9506636,https://maps.google.com/?cid=0x0:0xf36139f714788db6,
supermarket,Toko Swalayan,Toko Mandiri Jaya,"VV8G+PM5, Rawak Hilir, Kec. Sekadau Hulu, Kabupaten Sekadau, Kalimantan Barat 79583","Rawak Hilir, Kec. Sekadau Hulu, Kabupaten Sekadau",KALIMANTAN BARAT,79583.0,Indonesia,82154387488.0,,,-0.133244,110.8767238,https://maps.google.com/?cid=0x0:0x564d3ca81d997a1b,
supermarket,Toko Swalayan,Toko Bella,"VV3C+V22, Rawak Hulu, Kec. Sekadau Hulu, Kabupaten Sekadau, Kalimantan Barat 79583","Rawak Hulu, Kec. Sekadau Hulu, Kabupaten Sekadau",KALIMANTAN BARAT,79583.0,Indonesia,,,,-0.1453729,110.8700028,https://maps.google.com/?cid=0x0:0x9f525a9984423a2d,
supermarket,Toko Swalayan,Toko Sinar Rejeki,"Rawak Hulu, Kec. Sekadau Hulu, Kabupaten Sekadau, Kalimantan Barat 79583","Kec. Sekadau Hulu, Kabupaten Sekadau",KALIMANTAN BARAT,79583.0,Indonesia,,,,-0.1406937,110.8736185,https://maps.google.com/?cid=0x0:0x8a02835e11c6959e,
supermarket,Pusat Perbelanjaan,Star Market Sekadau,"Sungai Ringin, Kec. Sekadau Hilir, Kabupaten Sekadau, Kalimantan Barat 79516","Kec. Sekadau Hilir, Kabupaten Sekadau",KALIMANTAN BARAT,79516.0,Indonesia,81649059324.0,,,0.024492,110.8901165,https://maps.google.com/?cid=0x0:0xd66d073e50ae995c,
supermarket,Toko Swalayan,TOKO Sukur Mandiri,"WWXJ+G7P, Nanga Menterap, Kec. Sekadau Hulu, Kabupaten Sekadau, Kalimantan Barat 79582","Nanga Menterap, Kec. Sekadau Hulu, Kabupaten Sekadau",KALIMANTAN BARAT,79582.0,Indonesia,82159224944.0,,,-0.0511588,110.9306978,https://maps.google.com/?cid=0x0:0xd95e930d7227bf3e,
supermarket,Toko bahan makanan,Toko Mimi,"VV8G+QQP, Rawak Hilir, Kec. Sekadau Hulu, Kabupaten Sekadau, Kalimantan Barat 79583","Rawak Hilir, Kec. Sekadau Hulu, Kabupaten Sekadau",KALIMANTAN BARAT,79583.0,Indonesia,,,,-0.1330391,110.8769491,https://maps.google.com/?cid=0x0:0x49fc38f712ff448c,
supermarket,Toko Swalayan,Toko Sinar Tebuas,"Jl. Rawak - Sulang Betung, Rawak Hilir, Kec. Sekadau Hulu, Kabupaten Sekadau, Kalimantan Barat 79583","Rawak Hilir, Kec. Sekadau Hulu, Kabupaten Sekadau",KALIMANTAN BARAT,79583.0,Indonesia,,,,-0.134457,110.8833697,https://maps.google.com/?cid=0x0:0x5d45ed5009e29ac,
supermarket,Toko,Toko Dinda,"VV39+7JM, Rawak Hulu, Kec. Sekadau Hulu, Kabupaten Sekadau, Kalimantan Barat 79583","Rawak Hulu, Kec. Sekadau Hulu, Kabupaten Sekadau",KALIMANTAN BARAT,79583.0,Indonesia,,,,-0.1467774,110.869062,https://maps.google.com/?cid=0x0:0xfe31d0c731455a8,
supermarket,Minimarket,Alfamart Rawak,"Jl. Merdeka Selatan, Dusun Desa, RT.007/RW.004, Rawak Hulu, Kec. Sekadau Hulu, Kab. Sekadau, Kalimantan Barat 79583","Dusun Desa, RT.007/RW.004, Rawak Hulu, Kec. Sekadau Hulu, Kab. Sekadau",KALIMANTAN BARAT,79583.0,Indonesia,1500959.0,,,-0.1391801,110.874443,https://maps.google.com/?cid=0x0:0x1e59561665150c80,
supermarket,Komplek perumahan,DnD Asy-Syams,"Jl. Ps. Laut, Nanga Taman, Kec. Nanga Taman, Kabupaten Sekadau, Kalimantan Barat 79584","Nanga Taman, Kec. Nanga Taman, Kabupaten Sekadau",KALIMANTAN BARAT,79584.0,Indonesia,8125745339.0,,,-0.2651672,110.8162096,https://maps.google.com/?cid=0x0:0xa3bd18470bd65f08,
supermarket,Pusat Perbelanjaan,Tokoh ** BAHAGIA **,"QQPV+FH6, Unnamed Road, Nanga Kiungkang, Kec. Nanga Taman, Kabupaten Sekadau, Kalimantan Barat 79584","Unnamed Road, Nanga Kiungkang, Kec. Nanga Taman, Kabupaten Sekadau",KALIMANTAN BARAT,79584.0,Indonesia,,,,-0.2138281,110.7938928,https://maps.google.com/?cid=0x0:0xf6530e52adcc6ceb,
supermarket,Toko bahan makanan,Toko Maju Bersama,"X3VP+W85, Jl. Lintas Kalimantan Poros Tengah, Tapang Semadak, Kec. Sekadau Hilir, Kabupaten Sekadau, Kalimantan Barat 79582","Jl. Lintas Kalimantan Poros Tengah, Tapang Semadak, Kec. Sekadau Hilir, Kabupaten Sekadau",KALIMANTAN BARAT,79582.0,Indonesia,82157057070.0,,,-0.0052462,111.0858582,https://maps.google.com/?cid=0x0:0xa4ca08ac42ea4935,
supermarket,Toko bahan makanan,Bintang Timur,"2V8X+26V, Tanjung, Kec. Sekadau Hilir, Kabupaten Sekadau, Kalimantan Barat 79516","Tanjung, Kec. Sekadau Hilir, Kabupaten Sekadau",KALIMANTAN BARAT,79516.0,Indonesia,,,,0.0151186,110.8980517,https://maps.google.com/?cid=0x0:0x794fbf462d225d27,
supermarket,Toko Swalayan,Toko Atamimi,"VV8G+HCH, Rawak Hulu, Kec. Sekadau Hulu, Kabupaten Sekadau, Kalimantan Barat","Kabupaten Sekadau, Kalimantan Barat",KALIMANTAN BARAT,,Indonesia,,,,-0.1335635,110.8761005,https://maps.google.com/?cid=0x0:0xca73db5538addf82,
supermarket,Toko Swalayan,Toko Sejati,"2VFQ+VRV, Jl. Syaikh Muhammad Al-Khidhir, Sungai Ringin, Kec. Sekadau Hilir, Kabupaten Sekadau, Kalimantan Barat 79516","Jl. Syaikh Muhammad Al-Khidhir, Sungai Ringin, Kec. Sekadau Hilir, Kabupaten Sekadau",KALIMANTAN BARAT,79516.0,Indonesia,81345425212.0,,,0.0247326,110.8895481,https://maps.google.com/?cid=0x0:0x4b16f3216c614d41,
supermarket,Minimarket,Indomaret Sekadau Hulu,"Unnamed Road, 79583, Rawak Hulu, Kec. Sekadau Hulu, Kabupaten Sekadau, Kalimantan Barat 79583","79583, Rawak Hulu, Kec. Sekadau Hulu, Kabupaten Sekadau",KALIMANTAN BARAT,79583.0,Indonesia,,,,-0.1359787,110.8749199,https://maps.google.com/?cid=0x0:0xcba4598fecc97027,
supermarket,Toko Kelontong Asia,Toko Usaha Bersama,"Jalan pasar, Rawak Hulu, Kec. Sekadau Hulu, Kabupaten Sekadau, Kalimantan Barat","Kabupaten Sekadau, Kalimantan Barat",KALIMANTAN BARAT,,Indonesia,,,,-0.1339017,110.8763486,https://maps.google.com/?cid=0x0:0xdd71bdd3dca769a7,
supermarket,Toko Kue,Jum'ah Mart,"RT.002/RW.001, Sungai Sambang, Kec. Sekadau Hulu, Kabupaten Sekadau, Kalimantan Barat 79583","Sungai Sambang, Kec. Sekadau Hulu, Kabupaten Sekadau",KALIMANTAN BARAT,79583.0,Indonesia,85750147194.0,,,-0.1524188,110.9558875,https://maps.google.com/?cid=0x0:0x8fd3deffae78031a,
supermarket,Toko umum,WARUNG MICHAEL KM 23,"Jl kayu lapis km 23 lotong, simpang, Tapang Perodah","Kabupaten Sekadau, Kalimantan Barat",KALIMANTAN BARAT,,Indonesia,,,,-0.1870826,111.0783025,https://maps.google.com/?cid=0x0:0xde0148b0780846f,
supermarket,Toko Buah dan Sayuran,Aneka Buah,"XVQP+HRQ, Jl. Merdeka Selatan, Mungguk, Kec. Sekadau Hilir, Kabupaten Sekadau, Kalimantan Barat 79516","Jl. Merdeka Selatan, Mungguk, Kec. Sekadau Hilir, Kabupaten Sekadau",KALIMANTAN BARAT,79516.0,Indonesia,85691015339.0,,,-0.0110473,110.88712,https://maps.google.com/?cid=0x0:0x87b17f922071fbb1,
supermarket,Toko Perlengkapan Rumah,Toko bahan makanan,"W2VG+5X, sejaong No.km 13, Setawar, Kec. Sekadau Hulu, Kabupaten Sekadau, Kalimantan Barat","Kabupaten Sekadau, Kalimantan Barat",KALIMANTAN BARAT,,Indonesia,,,,-0.0699875,111.022827,https://maps.google.com/?cid=0x0:0x6c83d3ae0c267ae8,
supermarket,supermarket,Warung sembako acm,"Q44R+7H3, Sekubang, Kec. Sepauk, Kabupaten Sintang, Kalimantan Barat","Kabupaten Sintang, Kalimantan Barat",KALIMANTAN BARAT,,Indonesia,,,,-0.2443697,111.1414226,https://maps.google.com/?cid=0x0:0xc9bc810364ceaf52,
supermarket,Toko umum,Rumah MUTO,"R2RM+6PV, Tapang Perodah, Kec. Sekadau Hulu, Kabupaten Sekadau, Kalimantan Barat 79583","Tapang Perodah, Kec. Sekadau Hulu, Kabupaten Sekadau",KALIMANTAN BARAT,79583.0,Indonesia,,,,-0.160312,111.03532,https://maps.google.com/?cid=0x0:0x7b27213c654239e8,
supermarket,Toko bahan makanan,Warung Dedek Sidap,"V2H8+CCM, Setawar, Kec. Sekadau Hulu, Kabupaten Sekadau, Kalimantan Barat","Kabupaten Sekadau, Kalimantan Barat",KALIMANTAN BARAT,,Indonesia,,,,-0.1211486,111.0170345,https://maps.google.com/?cid=0x0:0xd68b24baec883e16,
