Category,Real Category,Business Name,Address,City,State,Postal Code,Country,Phone,Email,Website,Latitude,Longitude,Map Link,Details Link
toko bangunan,Toko Bahan Bangunan,Toko Bangunan,"Q49V+PPW, Pompanua Riattang, Kec. Ajangale, Kabupaten Bone, Sulawesi Selatan 92753","Pompanua Riattang, Kec. Ajangale, Kabupaten Bone",SULAWESI BARAT,92753.0,Indonesia,85244254389.0,,,-4.2306327,120.1443244,https://maps.google.com/?cid=0x0:0x5ac038f22a5d152a,
toko bangunan,Toko Bahan Bangunan,TOKO BANGUNAN DAN ALAT LISTRTIK ABU RUMAISHA,"25R4+22Q, Jl Andi Bangun Parah, Latellang, Kec. Patimpeng, Kabupaten Bone, Sulawesi Selatan 92775","Jl Andi Bangun Parah, Latellang, Kec. Patimpeng, Kabupaten Bone",SULAWESI BARAT,92775.0,Indonesia,81316222080.0,,,-4.9599213,120.1551043,https://maps.google.com/?cid=0x0:0xd76b36ade58474a5,
toko bangunan,Toko Bahan Bangunan,Toko H.Abdullahi,"P66V+XQ6, Jl. Poros Bone - Wajo, Uloe, Kec. Dua Boccoe, Kabupaten Bone, Sulawesi Selatan 92753","Jl. Poros Bone - Wajo, Uloe, Kec. Dua Boccoe, Kabupaten Bone",SULAWESI BARAT,92753.0,Indonesia,81343823888.0,,,-4.2875754,120.2443851,https://maps.google.com/?cid=0x0:0x7856f634fc30b944,
toko bangunan,toko bangunan,Sulawesi Barat 91562,"Kabupaten Mamuju, Sulawesi Barat","Kabupaten Mamuju, Sulawesi Barat",SULAWESI BARAT,,Indonesia,,,,-2.4874603,119.5107708,https://maps.google.com/?cid=0x0:0xaf7e6391455a9f6e,
toko bangunan,Toko Bahan Bangunan,Toko Wanto,"P6WH+MJ, Kuo, Kec. Pangale, Kabupaten Mamuju Tengah, Sulawesi Barat","Kabupaten Mamuju Tengah, Sulawesi Barat",SULAWESI BARAT,,Indonesia,,,,-2.2533254,119.2290016,https://maps.google.com/?cid=0x0:0xbbc598acc61fac50,
toko bangunan,Toko Bahan Bangunan,Toko Multi Bangunan,"Jl. Diponegoro No.c14-15, Karema, Kec. Mamuju, Kabupaten Mamuju, Sulawesi Barat 91512","Karema, Kec. Mamuju, Kabupaten Mamuju",SULAWESI BARAT,91512.0,Indonesia,81242298806.0,,,-2.6862595,118.8768742,https://maps.google.com/?cid=0x0:0xd05c6306c1a3648f,
toko bangunan,Toko Bahan Bangunan,Toko buyung bangunan,"5V55+QW8, Jl. Poros Majene - Mamuju, Tampalang, Kec. Tapalang, Kabupaten Mamuju, Sulawesi Barat 91352","Jl. Poros Majene - Mamuju, Tampalang, Kec. Tapalang, Kabupaten Mamuju",SULAWESI BARAT,91352.0,Indonesia,,,,-2.840579,118.8598397,https://maps.google.com/?cid=0x0:0xdaa7f0c9eeaba7c8,
toko bangunan,Toko Bahan Bangunan,Toko. Fajar Bangunan - Mamuju,"8V6G+7WH, Jl. Diponegoro, Karema, Kec. Mamuju, Kabupaten Mamuju, Sulawesi Barat 91512","Jl. Diponegoro, Karema, Kec. Mamuju, Kabupaten Mamuju",SULAWESI BARAT,91512.0,Indonesia,85930982364.0,,,-2.689321,118.8773494,https://maps.google.com/?cid=0x0:0x6d4e74a959cf61d6,
toko bangunan,Toko Bahan Bangunan,TB CAHAYA BANGUNAN,"Tobadak, Kec. Tobadak, Kabupaten Mamuju, Sulawesi Barat 91563","Kec. Tobadak, Kabupaten Mamuju",SULAWESI BARAT,91563.0,Indonesia,82299999951.0,,,-2.0751897,119.2902612,https://maps.google.com/?cid=0x0:0xab184661abda07b4,
toko bangunan,Toko Bahan Bangunan,Toko rayyan bangunan,"J57G+6GR, Toabo, Kec. Papalang, Kabupaten Mamuju, Sulawesi Barat","Kabupaten Mamuju, Sulawesi Barat",SULAWESI BARAT,,Indonesia,85399992185.0,,,-2.3868783,119.1762647,https://maps.google.com/?cid=0x0:0x65800d7e99adda83,
toko bangunan,Toko Bahan Bangunan,Toko Bangunan,"H5J6+3Q9, Jl. Poros Majene - Mamuju, Topore, Kec. Papalang, Kabupaten Mamuju, Sulawesi Barat 91563","Jl. Poros Majene - Mamuju, Topore, Kec. Papalang, Kabupaten Mamuju",SULAWESI BARAT,91563.0,Indonesia,81264671628.0,,,-2.4197239,119.162057,https://maps.google.com/?cid=0x0:0xb8abda29e233da34,
toko bangunan,,Tb. Varia Makmur,"F84C+8JR, Macege, Kec. Tanete Riattang Bar., Kabupaten Bone, Sulawesi Selatan 92712","Macege, Kec. Tanete Riattang Bar., Kabupaten Bone",SULAWESI BARAT,92712.0,Indonesia,85283073343.0,,,-4.5441306,120.3215022,https://maps.google.com/?cid=0x0:0xfeb8dea0b27a118a,
toko bangunan,Toko Bahan Bangunan,Toko Bangunan Sumber Baru,"X8H8+JGX, Salupangkang, Kec. Topoyo, Kabupaten Mamuju, Sulawesi Barat 91563","Salupangkang, Kec. Topoyo, Kabupaten Mamuju",SULAWESI BARAT,91563.0,Indonesia,,,,-2.0208952,119.3163699,https://maps.google.com/?cid=0x0:0x4e386c1bad376796,
toko bangunan,Toko Bahan Bangunan,Fajar Bangunan,"W7MP+9RV, Topoyo, Kec. Topoyo, Kabupaten Mamuju, Sulawesi Barat 91563","Topoyo, Kec. Topoyo, Kabupaten Mamuju",SULAWESI BARAT,91563.0,Indonesia,,,,-2.0665142,119.2870577,https://maps.google.com/?cid=0x0:0xaa3eae1887207633,
toko bangunan,Toko Bahan Bangunan,Toko wahyudi Bangunan,"H5J6+2P7, Topore, Kec. Papalang, Kabupaten Mamuju, Sulawesi Barat 91563","Topore, Kec. Papalang, Kabupaten Mamuju",SULAWESI BARAT,91563.0,Indonesia,82146692685.0,,,-2.4199691,119.1617961,https://maps.google.com/?cid=0x0:0xd7af52db91495e45,
toko bangunan,toko bangunan,Kec. Bonehau,"Kabupaten Mamuju, Sulawesi Barat","Kabupaten Mamuju, Sulawesi Barat",SULAWESI BARAT,,Indonesia,,,,-2.4998873,119.3481971,https://maps.google.com/?cid=0x0:0x506e4572a22ede64,
toko bangunan,Toko Bahan Bangunan,Mega Buana Bangunan,"Tarailu, Kec. Sampaga, Kabupaten Mamuju, Sulawesi Barat 91563","Kec. Sampaga, Kabupaten Mamuju",SULAWESI BARAT,91563.0,Indonesia,81356737526.0,,,-2.3096411,119.1743619,https://maps.google.com/?cid=0x0:0xf3f768be1c38f424,
toko bangunan,Toko Bahan Bangunan,Toko Makmur Bangunan,"Jln. Jen. A. Yani No. 001, Bunde, Kec. Sampaga, Kabupaten Mamuju, Sulawesi Barat 91563","Bunde, Kec. Sampaga, Kabupaten Mamuju",SULAWESI BARAT,91563.0,Indonesia,82259648049.0,,,-2.3398082,119.1750407,https://maps.google.com/?cid=0x0:0x901692040dff7a42,
toko bangunan,Toko,Toko Bangunan Jaya Kalukku,"F3JG+575, Beru-Beru, Kec. Kalukku, Kabupaten Mamuju, Sulawesi Barat 91561","Beru-Beru, Kec. Kalukku, Kabupaten Mamuju",SULAWESI BARAT,91561.0,Indonesia,,,,-2.5196226,119.0757413,https://maps.google.com/?cid=0x0:0x21c85c0fa0a33b21,
toko bangunan,Pembangunan Perumahan,Toko Bangunan Putra Tande 5 Tapalang,"Galung, Kec. Tapalang, Kabupaten Mamuju, Sulawesi Barat 91352","Kec. Tapalang, Kabupaten Mamuju",SULAWESI BARAT,91352.0,Indonesia,85397048983.0,,,-2.8651937,118.8702682,https://maps.google.com/?cid=0x0:0x5ece193e63138999,
toko bangunan,Toko Elektronik,Nusantara Teknik,"Jl. Poros Mamuju - Topoyo, Kalukku, Kec. Kalukku, Kabupaten Mamuju, Sulawesi Barat 91561","Kalukku, Kec. Kalukku, Kabupaten Mamuju",SULAWESI BARAT,91561.0,Indonesia,8124214996.0,,,-2.5471709,119.064666,https://maps.google.com/?cid=0x0:0xcfece9367ec47efa,
toko bangunan,Pusat Perbelanjaan,Toko sama maju,"F338+RWJ, Kalukku, Kec. Kalukku, Kabupaten Mamuju, Sulawesi Barat 91561","Kalukku, Kec. Kalukku, Kabupaten Mamuju",SULAWESI BARAT,91561.0,Indonesia,81243017095.0,,,-2.5451402,119.0673693,https://maps.google.com/?cid=0x0:0xce30af8f637b5ffb,
toko bangunan,Toko Bahan Bangunan,Toko Anugrah 55,"F3WX+PW, Kabuloang, Kec. Kalukku, Kabupaten Mamuju, Sulawesi Barat 91561","Kabuloang, Kec. Kalukku, Kabupaten Mamuju",SULAWESI BARAT,91561.0,Indonesia,85299180885.0,,,-2.5031314,119.0997412,https://maps.google.com/?cid=0x0:0x6839fc86d32729a,
toko bangunan,Pusat Perbelanjaan,Toko bangunan argadinata,"Lemo-Lemo, Kec. Pangale, Kabupaten Mamuju, Sulawesi Barat 91462","Kec. Pangale, Kabupaten Mamuju",SULAWESI BARAT,91462.0,Indonesia,82331313118.0,,,-2.2972382,119.17566,https://maps.google.com/?cid=0x0:0x9eb6c7242139d7af,
toko bangunan,Toko Bahan Bangunan,UD. Berkat usaha,"P56M+7VF, Lemo-Lemo, Kec. Pangale, Kabupaten Mamuju, Sulawesi Barat 91563","Lemo-Lemo, Kec. Pangale, Kabupaten Mamuju",SULAWESI BARAT,91563.0,Indonesia,85335335558.0,,,-2.2893189,119.1846856,https://maps.google.com/?cid=0x0:0x8909e34afa46f1e3,
toko bangunan,Toko Bahan Bangunan,Sumber Fajar Bangunan,"Kalukku, Kec. Kalukku, Kabupaten Mamuju, Sulawesi Barat","Kabupaten Mamuju, Sulawesi Barat",SULAWESI BARAT,,Indonesia,,,,-2.5490301,119.0641023,https://maps.google.com/?cid=0x0:0x5a9dc4e9c3756926,
toko bangunan,Toko Perlengkapan Rumah,P.T Era Baru Corporation,"M5FF+WPM, Tarailu, Kec. Sampaga, Kabupaten Mamuju, Sulawesi Barat 91563","Tarailu, Kec. Sampaga, Kabupaten Mamuju",SULAWESI BARAT,91563.0,Indonesia,82393244788.0,,,-2.3259606,119.1744592,https://maps.google.com/?cid=0x0:0xa86d02c85181b796,
toko bangunan,Toko,Toko Bangunan Jaya Kalukku,"F3JG+575, Beru-Beru, Kec. Kalukku, Kabupaten Mamuju, Sulawesi Barat 91561","Beru-Beru, Kec. Kalukku, Kabupaten Mamuju",SULAWESI BARAT,91561.0,Indonesia,,,,-2.5196226,119.0757413,https://maps.google.com/?cid=0x0:0x21c85c0fa0a33b21,
toko bangunan,Toko Bahan Bangunan,TB Polewalimaju,"Jl. Mamuju - Kalukku No.184, Bebanga, Kec. Kalukku, Kabupaten Mamuju, Sulawesi Barat 91561","Bebanga, Kec. Kalukku, Kabupaten Mamuju",SULAWESI BARAT,91561.0,Indonesia,,,,-2.5990823,119.021633,https://maps.google.com/?cid=0x0:0x9cf0f24d44de8905,
toko bangunan,Pemasok Bahan Bangunan,Fajar Bangunan Baru Tasiu,"F338+M82, Kalukku, Kec. Kalukku, Kabupaten Mamuju, Sulawesi Barat 91561","Kalukku, Kec. Kalukku, Kabupaten Mamuju",SULAWESI BARAT,91561.0,Indonesia,,,,-2.545874,119.0657791,https://maps.google.com/?cid=0x0:0x7ef75969b9227b99,
toko bangunan,Toko Bahan Bangunan,Toko Anugrah 55,"F3WX+PW, Kabuloang, Kec. Kalukku, Kabupaten Mamuju, Sulawesi Barat 91561","Kabuloang, Kec. Kalukku, Kabupaten Mamuju",SULAWESI BARAT,91561.0,Indonesia,85299180885.0,,,-2.5031314,119.0997412,https://maps.google.com/?cid=0x0:0x6839fc86d32729a,
toko bangunan,Toko Bahan Bangunan,Sumber Fajar Bangunan,"Kalukku, Kec. Kalukku, Kabupaten Mamuju, Sulawesi Barat","Kabupaten Mamuju, Sulawesi Barat",SULAWESI BARAT,,Indonesia,,,,-2.5490301,119.0641023,https://maps.google.com/?cid=0x0:0x5a9dc4e9c3756926,
toko bangunan,Toko Bahan Bangunan,Fajar Mas Tasiu,"Jl. Poros Mamuju-Palu, Tasiu, Kec. Kalukku., Kalukku, Kec. Kalukku, Kabupaten Mamuju, Sulawesi Barat 91561","Tasiu, Kec. Kalukku., Kalukku, Kec. Kalukku, Kabupaten Mamuju",SULAWESI BARAT,91561.0,Indonesia,81355254724.0,,,-2.54857,119.063796,https://maps.google.com/?cid=0x0:0x8d12b1b31336968a,
toko bangunan,Toko Elektronik,Nusantara Teknik,"Jl. Poros Mamuju - Topoyo, Kalukku, Kec. Kalukku, Kabupaten Mamuju, Sulawesi Barat 91561","Kalukku, Kec. Kalukku, Kabupaten Mamuju",SULAWESI BARAT,91561.0,Indonesia,8124214996.0,,,-2.5471709,119.064666,https://maps.google.com/?cid=0x0:0xcfece9367ec47efa,
toko bangunan,Toko Bahan Bangunan,TB SUMBER JAYA,"C3X7+C35, Jl. Poros Majene - Mamuju, Kalukku, Kec. Kalukku, Kabupaten Mamuju, Sulawesi Barat 91561","Jl. Poros Majene - Mamuju, Kalukku, Kec. Kalukku, Kabupaten Mamuju",SULAWESI BARAT,91561.0,Indonesia,,,,-2.5514315,119.0627791,https://maps.google.com/?cid=0x0:0x467badbf26676e1,
toko bangunan,Toko Bahan Bangunan,Toko Bangunan Bintang Leo,"C24H+X2F, Kampung Jati, Sinyonyoi, Kec. Kalukku, Kabupaten Mamuju, Sulawesi Barat 91561","Kampung Jati, Sinyonyoi, Kec. Kalukku, Kabupaten Mamuju",SULAWESI BARAT,91561.0,Indonesia,,,,-2.5925713,119.0275872,https://maps.google.com/?cid=0x0:0x420820eb805755ca,
toko bangunan,Toko Bahan Bangunan,Toko Bangunan Putra Tande Lombang-Lombang,"C2GP+7RQ, lombang-lombang, Sinyonyoi, Kec. Kalukku, Kabupaten Mamuju, Sulawesi Barat 91561","lombang-lombang, Sinyonyoi, Kec. Kalukku, Kabupaten Mamuju",SULAWESI BARAT,91561.0,Indonesia,82398888856.0,,,-2.5742542,119.0368658,https://maps.google.com/?cid=0x0:0xfd16ae7e2f3692d9,
toko bangunan,Toko,TOKO HARAPAN BARU,"F327+2H3, Kalukku, Kec. Kalukku, Kabupaten Mamuju, Sulawesi Barat 91561","Kalukku, Kec. Kalukku, Kabupaten Mamuju",SULAWESI BARAT,91561.0,Indonesia,85255985333.0,,,-2.5499786,119.0639316,https://maps.google.com/?cid=0x0:0x2ab8c04cbf3c3d9,
toko bangunan,Toko Bahan Bangunan,Nippon paint Toko Bumi Ayu Tasiu,"F359+3P9, Jl. Poros Majene - Mamuju, Kalukku, Kec. Kalukku, Kabupaten Mamuju, Sulawesi Barat 91561","Jl. Poros Majene - Mamuju, Kalukku, Kec. Kalukku, Kabupaten Mamuju",SULAWESI BARAT,91561.0,Indonesia,82339793013.0,,,-2.5423428,119.0693633,https://maps.google.com/?cid=0x0:0x3f1c75ba1fb92ed6,
toko bangunan,Toko Bahan Bangunan,Toko. Fajar Bangunan - Mamuju,"8V6G+7WH, Jl. Diponegoro, Karema, Kec. Mamuju, Kabupaten Mamuju, Sulawesi Barat 91512","Jl. Diponegoro, Karema, Kec. Mamuju, Kabupaten Mamuju",SULAWESI BARAT,91512.0,Indonesia,85930982364.0,,,-2.689321,118.8773494,https://maps.google.com/?cid=0x0:0x6d4e74a959cf61d6,
toko bangunan,Toko Bahan Bangunan,Tk. Deva Bangunan,"Ling. Salubiru, Jln poros Mamuju, Tasiu, Kec. Kalukku, Kabupaten Mamuju, Sulawesi Barat 91561","Jln poros Mamuju, Tasiu, Kec. Kalukku, Kabupaten Mamuju",SULAWESI BARAT,91561.0,Indonesia,81373974815.0,,,-2.5517664,119.0623821,https://maps.google.com/?cid=0x0:0xd162ec807e6707da,
toko bangunan,toko bangunan,Sulawesi Barat 91561,"Kec. Kalukku, Kabupaten Mamuju, Sulawesi Barat","Kabupaten Mamuju, Sulawesi Barat",SULAWESI BARAT,,Indonesia,,,,-2.6024479,119.0925356,https://maps.google.com/?cid=0x0:0x812ca59188edc0c9,
toko bangunan,Toko Bahan Bangunan,Toko Bangunan,"H5J6+3Q9, Jl. Poros Majene - Mamuju, Topore, Kec. Papalang, Kabupaten Mamuju, Sulawesi Barat 91563","Jl. Poros Majene - Mamuju, Topore, Kec. Papalang, Kabupaten Mamuju",SULAWESI BARAT,91563.0,Indonesia,81264671628.0,,,-2.4197239,119.162057,https://maps.google.com/?cid=0x0:0xb8abda29e233da34,
toko bangunan,Toko Bahan Bangunan,TIO BERKAH BATU MERAH,"F3RF+FQ, Beru-Beru, Kec. Kalukku, Kabupaten Mamuju, Sulawesi Barat","Kabupaten Mamuju, Sulawesi Barat",SULAWESI BARAT,,Indonesia,81243932705.0,,,-2.5088329,119.0744731,https://maps.google.com/?cid=0x0:0x1495f56ef060dc12,
toko bangunan,Toko Bahan Bangunan,Widya Jual. Alat Bangunan  Listrik Tasiu,"Kalukku, Kec. Kalukku, Kabupaten Mamuju, Sulawesi Barat","Kabupaten Mamuju, Sulawesi Barat",SULAWESI BARAT,,Indonesia,,,,-2.5446862,119.0670068,https://maps.google.com/?cid=0x0:0x7c5b27964bfcaf83,
toko bangunan,Toko Bahan Bangunan,Toko wahyudi Bangunan,"H5J6+2P7, Topore, Kec. Papalang, Kabupaten Mamuju, Sulawesi Barat 91563","Topore, Kec. Papalang, Kabupaten Mamuju",SULAWESI BARAT,91563.0,Indonesia,82146692685.0,,,-2.4199691,119.1617961,https://maps.google.com/?cid=0x0:0xd7af52db91495e45,
toko bangunan,Toko Bahan Bangunan,Toko Makmur Bangunan,"Jln. Jen. A. Yani No. 001, Bunde, Kec. Sampaga, Kabupaten Mamuju, Sulawesi Barat 91563","Bunde, Kec. Sampaga, Kabupaten Mamuju",SULAWESI BARAT,91563.0,Indonesia,82259648049.0,,,-2.3398082,119.1750407,https://maps.google.com/?cid=0x0:0x901692040dff7a42,
toko bangunan,Toko Bahan Bangunan,ATAP RUMAH SENG SPANDEK,"Jl. Poros Palu - Mamuju, Sinyonyoi, Kec. Kalukku, Kabupaten Mamuju, Sulawesi Barat 91561","Sinyonyoi, Kec. Kalukku, Kabupaten Mamuju",SULAWESI BARAT,91561.0,Indonesia,82165224558.0,,,-2.5739482,119.0369847,https://maps.google.com/?cid=0x0:0xbf8a7bdd7c72c26a,
toko bangunan,toko bangunan,Sulawesi Barat 91562,"Kabupaten Mamuju, Sulawesi Barat","Kabupaten Mamuju, Sulawesi Barat",SULAWESI BARAT,,Indonesia,,,,-2.4874603,119.5107708,https://maps.google.com/?cid=0x0:0xaf7e6391455a9f6e,
toko bangunan,Toko Bahan Bangunan,Toko Makmur Bangunan,"Jln. Jen. A. Yani No. 001, Bunde, Kec. Sampaga, Kabupaten Mamuju, Sulawesi Barat 91563","Bunde, Kec. Sampaga, Kabupaten Mamuju",SULAWESI BARAT,91563.0,Indonesia,82259648049.0,,,-2.3398082,119.1750407,https://maps.google.com/?cid=0x0:0x901692040dff7a42,
toko bangunan,Pusat Perbelanjaan,Toko bangunan argadinata,"Lemo-Lemo, Kec. Pangale, Kabupaten Mamuju, Sulawesi Barat 91462","Kec. Pangale, Kabupaten Mamuju",SULAWESI BARAT,91462.0,Indonesia,82331313118.0,,,-2.2972382,119.17566,https://maps.google.com/?cid=0x0:0x9eb6c7242139d7af,
toko bangunan,Toko Bahan Bangunan,UD. Berkat usaha,"P56M+7VF, Lemo-Lemo, Kec. Pangale, Kabupaten Mamuju, Sulawesi Barat 91563","Lemo-Lemo, Kec. Pangale, Kabupaten Mamuju",SULAWESI BARAT,91563.0,Indonesia,85335335558.0,,,-2.2893189,119.1846856,https://maps.google.com/?cid=0x0:0x8909e34afa46f1e3,
toko bangunan,Toko Bahan Bangunan,Mega Buana Bangunan,"Tarailu, Kec. Sampaga, Kabupaten Mamuju, Sulawesi Barat 91563","Kec. Sampaga, Kabupaten Mamuju",SULAWESI BARAT,91563.0,Indonesia,81356737526.0,,,-2.3096411,119.1743619,https://maps.google.com/?cid=0x0:0xf3f768be1c38f424,
toko bangunan,Toko Perlengkapan Rumah,P.T Era Baru Corporation,"M5FF+WPM, Tarailu, Kec. Sampaga, Kabupaten Mamuju, Sulawesi Barat 91563","Tarailu, Kec. Sampaga, Kabupaten Mamuju",SULAWESI BARAT,91563.0,Indonesia,82393244788.0,,,-2.3259606,119.1744592,https://maps.google.com/?cid=0x0:0xa86d02c85181b796,
toko bangunan,Toko Swalayan,Toko Aliyah Berkah,"Tamejarra, Kec. Tommo, Kabupaten Mamuju, Sulawesi Barat 91562","Kec. Tommo, Kabupaten Mamuju",SULAWESI BARAT,91562.0,Indonesia,85213171810.0,,,-2.2807753,119.3050597,https://maps.google.com/?cid=0x0:0x17ee7186e11af3b3,
toko bangunan,Toko Bahan Bangunan,Toko Multi Bangunan,"Jl. Diponegoro No.c14-15, Karema, Kec. Mamuju, Kabupaten Mamuju, Sulawesi Barat 91512","Karema, Kec. Mamuju, Kabupaten Mamuju",SULAWESI BARAT,91512.0,Indonesia,81242298806.0,,,-2.6862595,118.8768742,https://maps.google.com/?cid=0x0:0xd05c6306c1a3648f,
toko bangunan,Toko Bahan Bangunan,Artomoro Primatama,"P6JM+Q2, Kuo, Kec. Pangale, Kabupaten Mamuju Tengah, Sulawesi Barat","Kabupaten Mamuju Tengah, Sulawesi Barat",SULAWESI BARAT,,Indonesia,,,,-2.2680637,119.2325927,https://maps.google.com/?cid=0x0:0xe695be730ce858c4,
toko bangunan,Toko,Toko Bangunan Jaya Kalukku,"F3JG+575, Beru-Beru, Kec. Kalukku, Kabupaten Mamuju, Sulawesi Barat 91561","Beru-Beru, Kec. Kalukku, Kabupaten Mamuju",SULAWESI BARAT,91561.0,Indonesia,,,,-2.5196226,119.0757413,https://maps.google.com/?cid=0x0:0x21c85c0fa0a33b21,
toko bangunan,Toko Bahan Bangunan,Citra Fajar Bangunan,"W7HP+58F, Topoyo, Kec. Topoyo, Kabupaten Mamuju, Sulawesi Barat 91563","Topoyo, Kec. Topoyo, Kabupaten Mamuju",SULAWESI BARAT,91563.0,Indonesia,81355844777.0,,,-2.0720516,119.285795,https://maps.google.com/?cid=0x0:0x2713eff2404c9fad,
toko bangunan,Toko Bahan Bangunan,DISTRIBUTOR ATAP SENG RUMAH SPANDEK,"M58F+VPR, Jl. Poros Majene - Mamuju, Bunde, Kec. Sampaga, Kabupaten Mamuju, Sulawesi Barat 91563","Jl. Poros Majene - Mamuju, Bunde, Kec. Sampaga, Kabupaten Mamuju",SULAWESI BARAT,91563.0,Indonesia,82189548598.0,,,-2.3327615,119.1742679,https://maps.google.com/?cid=0x0:0x4bccf6eb493a696a,
toko bangunan,Toko Bahan Bangunan,UD SEPAKAT,"M8M2+M4R, Campaloga, Kec. Tommo, Kabupaten Mamuju, Sulawesi Barat","Kabupaten Mamuju, Sulawesi Barat",SULAWESI BARAT,,Indonesia,,,,-2.3157652,119.3002779,https://maps.google.com/?cid=0x0:0xff7862010ca87c99,
toko bangunan,Toko Bahan Bangunan,Arto moro,"M8M2+6CW, Campaloga, Kec. Tommo, Kabupaten Mamuju, Sulawesi Barat","Kabupaten Mamuju, Sulawesi Barat",SULAWESI BARAT,,Indonesia,,,,-2.316898,119.301091,https://maps.google.com/?cid=0x0:0x76191615fa120444,
toko bangunan,Toko Bahan Bangunan,Toko. Fajar Bangunan - Mamuju,"8V6G+7WH, Jl. Diponegoro, Karema, Kec. Mamuju, Kabupaten Mamuju, Sulawesi Barat 91512","Jl. Diponegoro, Karema, Kec. Mamuju, Kabupaten Mamuju",SULAWESI BARAT,91512.0,Indonesia,85930982364.0,,,-2.689321,118.8773494,https://maps.google.com/?cid=0x0:0x6d4e74a959cf61d6,
toko bangunan,Toko Bahan Bangunan,Toko Wanto,"P6WH+MJ, Kuo, Kec. Pangale, Kabupaten Mamuju Tengah, Sulawesi Barat","Kabupaten Mamuju Tengah, Sulawesi Barat",SULAWESI BARAT,,Indonesia,,,,-2.2533254,119.2290016,https://maps.google.com/?cid=0x0:0xbbc598acc61fac50,
toko bangunan,Toko Perlengkapan Rumah,TOKO FAJAR HARAPAN Nippon paint topoyo,"W77P+HCW, Jl. Poros Majene - Mamuju, Tobadak, Kec. Tobadak, Kabupaten Mamuju Tengah, Sulawesi Barat 91563","Jl. Poros Majene - Mamuju, Tobadak, Kec. Tobadak, Kabupaten Mamuju Tengah",SULAWESI BARAT,91563.0,Indonesia,81373974815.0,,,-2.0860076,119.2860649,https://maps.google.com/?cid=0x0:0x60e2fb2e2ac626e8,
toko bangunan,Toko Bahan Bangunan,Toko Anugrah 55,"F3WX+PW, Kabuloang, Kec. Kalukku, Kabupaten Mamuju, Sulawesi Barat 91561","Kabuloang, Kec. Kalukku, Kabupaten Mamuju",SULAWESI BARAT,91561.0,Indonesia,85299180885.0,,,-2.5031314,119.0997412,https://maps.google.com/?cid=0x0:0x6839fc86d32729a,
toko bangunan,Toko Bahan Bangunan,TB CAHAYA BANGUNAN,"Tobadak, Kec. Tobadak, Kabupaten Mamuju, Sulawesi Barat 91563","Kec. Tobadak, Kabupaten Mamuju",SULAWESI BARAT,91563.0,Indonesia,82299999951.0,,,-2.0751897,119.2902612,https://maps.google.com/?cid=0x0:0xab184661abda07b4,
toko bangunan,Toko Bahan Bangunan,Bata Ringan CLC 77,"Lemo-Lemo, Kec. Pangale, Kabupaten Mamuju Tengah, Sulawesi Barat 91563","Kec. Pangale, Kabupaten Mamuju Tengah",SULAWESI BARAT,91563.0,Indonesia,82394442000.0,,,-2.3041429,119.1760174,https://maps.google.com/?cid=0x0:0x4b8fd512469d575,
toko bangunan,Toko,Toko sahabat jaya,"Jl. Poros Mamuju - Topoyo, Bunde, Kec. Sampaga, Kabupaten Mamuju, Sulawesi Barat 91563","Bunde, Kec. Sampaga, Kabupaten Mamuju",SULAWESI BARAT,91563.0,Indonesia,82290019907.0,,,-2.3358447,119.1747903,https://maps.google.com/?cid=0x0:0x1ac46bbe67269499,
toko bangunan,toko bangunan,Surya Bangunan Tarailu,"Tarailu, Kec. Sampaga, Kabupaten Mamuju, Sulawesi Barat","Kabupaten Mamuju, Sulawesi Barat",SULAWESI BARAT,,Indonesia,,,,-2.3136516,119.1764573,https://maps.google.com/?cid=0x0:0x5895e077f50fb30d,
toko bangunan,toko bangunan,Rbg Rafha Bangunan,"Tarailu, Kec. Sampaga, Kabupaten Mamuju, Sulawesi Barat","Kabupaten Mamuju, Sulawesi Barat",SULAWESI BARAT,,Indonesia,,,,-2.311592,119.1750647,https://maps.google.com/?cid=0x0:0x678e88a85554d299,
toko bangunan,Toko Bahan Bangunan,Toko Delta Bangunan,"8V6H+X4H, Karema, Kec. Mamuju, Kabupaten Mamuju, Sulawesi Barat 91512","Karema, Kec. Mamuju, Kabupaten Mamuju",SULAWESI BARAT,91512.0,Indonesia,81524333299.0,,,-2.6875662,118.8778488,https://maps.google.com/?cid=0x0:0x600c10af92b1cb4f,
toko bangunan,Toko Bahan Bangunan,Toko Multi Bangunan,"Jl. Diponegoro No.c14-15, Karema, Kec. Mamuju, Kabupaten Mamuju, Sulawesi Barat 91512","Karema, Kec. Mamuju, Kabupaten Mamuju",SULAWESI BARAT,91512.0,Indonesia,81242298806.0,,,-2.6862595,118.8768742,https://maps.google.com/?cid=0x0:0xd05c6306c1a3648f,
toko bangunan,Perhimpunan Pengembang Perumahan,Toko Berkah Bangunan,"P8HH+5J9, Malei, Pedongga, Kab. Pasangkayu, Sulawesi Barat 91571","Malei, Pedongga, Kab. Pasangkayu",SULAWESI BARAT,91571.0,Indonesia,82193524222.0,,,-1.2720843,119.3290953,https://maps.google.com/?cid=0x0:0x4fe58465f2606352,
toko bangunan,toko bangunan,Sulawesi Barat 91511,"Kabupaten Mamuju, Sulawesi Barat","Kabupaten Mamuju, Sulawesi Barat",SULAWESI BARAT,,Indonesia,,,,-2.728111,118.9761519,https://maps.google.com/?cid=0x0:0x3f347dc6f3833aaf,
toko bangunan,Toko Bahan Bangunan,Toko. Fajar Bangunan - Mamuju,"8V6G+7WH, Jl. Diponegoro, Karema, Kec. Mamuju, Kabupaten Mamuju, Sulawesi Barat 91512","Jl. Diponegoro, Karema, Kec. Mamuju, Kabupaten Mamuju",SULAWESI BARAT,91512.0,Indonesia,85930982364.0,,,-2.689321,118.8773494,https://maps.google.com/?cid=0x0:0x6d4e74a959cf61d6,
toko bangunan,Toko Bahan Bangunan,Toko Multi Bangunan,"Jl. Diponegoro No.c14-15, Karema, Kec. Mamuju, Kabupaten Mamuju, Sulawesi Barat 91512","Karema, Kec. Mamuju, Kabupaten Mamuju",SULAWESI BARAT,91512.0,Indonesia,81242298806.0,,,-2.6862595,118.8768742,https://maps.google.com/?cid=0x0:0xd05c6306c1a3648f,
toko bangunan,Toko Bahan Bangunan,Toko Usaha Maju,"Jl. Andi Dai No.66, Binanga, Kec. Mamuju, Kabupaten Mamuju, Sulawesi Barat 91511","Binanga, Kec. Mamuju, Kabupaten Mamuju",SULAWESI BARAT,91511.0,Indonesia,81242225181.0,,,-2.6719505,118.8959849,https://maps.google.com/?cid=0x0:0xce686b7c9c65b,
toko bangunan,Toko Bahan Bangunan,Toko Tiga Mamuju,"Jalan Poros Mamuju - Kalukku Tumuki, Bambu, Kec. Mamuju, Kabupaten Mamuju, Sulawesi Barat 91511","Bambu, Kec. Mamuju, Kabupaten Mamuju",SULAWESI BARAT,91511.0,Indonesia,85299905145.0,,,-2.669031,118.9214052,https://maps.google.com/?cid=0x0:0xfe2c9a641105daf,
toko bangunan,Toko Bahan Bangunan,Toko Harapan Jaya,"Jl. LetJend Hertasning, Binanga, Kec. Mamuju, Kabupaten Mamuju, Sulawesi Barat 91511","Binanga, Kec. Mamuju, Kabupaten Mamuju",SULAWESI BARAT,91511.0,Indonesia,,,,-2.6718353,118.8918529,https://maps.google.com/?cid=0x0:0x4aa8f68af0fe79ed,
toko bangunan,Toko Bahan Bangunan,Toko Bangunan 79,"8V8J+3MF, Karema, Kec. Mamuju, Kabupaten Mamuju, Sulawesi Barat 91511","Karema, Kec. Mamuju, Kabupaten Mamuju",SULAWESI BARAT,91511.0,Indonesia,,,,-2.684817,118.8816695,https://maps.google.com/?cid=0x0:0x101d0b0f58da7e81,
toko bangunan,Toko Bahan Bangunan,Toko Delta Bangunan,"8V6H+X4H, Karema, Kec. Mamuju, Kabupaten Mamuju, Sulawesi Barat 91512","Karema, Kec. Mamuju, Kabupaten Mamuju",SULAWESI BARAT,91512.0,Indonesia,81524333299.0,,,-2.6875662,118.8778488,https://maps.google.com/?cid=0x0:0x600c10af92b1cb4f,
toko bangunan,Toko Alat Listrik,Toko Mitra Listrik,"Karema, Kec. Mamuju, Kabupaten Mamuju, Sulawesi Barat 91512","Kec. Mamuju, Kabupaten Mamuju",SULAWESI BARAT,91512.0,Indonesia,81216513956.0,,,-2.6836678,118.8758437,https://maps.google.com/?cid=0x0:0x9b2d83aba9467b91,
toko bangunan,Toko Bahan Bangunan,Fajar Mas Toko,"8VGQ+HV8, Komplek Pasar Sentral, Simboro, Kec. Mamuju, Kabupaten Mamuju, Sulawesi Barat 91811","Komplek Pasar Sentral, Simboro, Kec. Mamuju, Kabupaten Mamuju",SULAWESI BARAT,91811.0,Indonesia,42621498.0,,,-2.6735892,118.8897077,https://maps.google.com/?cid=0x0:0x25648f8d214d5e5b,
toko bangunan,Toko Bahan Bangunan,Tk. Buana Bangunan,"8V7G+MJJ, Karema, Kec. Mamuju, Kabupaten Mamuju, Sulawesi Barat 91512","Karema, Kec. Mamuju, Kabupaten Mamuju",SULAWESI BARAT,91512.0,Indonesia,82179264696.0,,,-2.6857866,118.8765206,https://maps.google.com/?cid=0x0:0x8cdc46a0e8fa0fe6,
toko bangunan,Toko,Toko Sumber Sakti,"8V8G+F84, Jl. Diponegoro, Karema, Kec. Mamuju, Kabupaten Mamuju, Sulawesi Barat 91511","Jl. Diponegoro, Karema, Kec. Mamuju, Kabupaten Mamuju",SULAWESI BARAT,91511.0,Indonesia,,,,-2.6838659,118.875817,https://maps.google.com/?cid=0x0:0x40fead32aa2cf7c4,
toko bangunan,Toko Bahan Bangunan,Toko Fanara,"JL. Jenderal Jl. Ahmad Yani, Binanga, Kec. Mamuju, Kabupaten Mamuju, Sulawesi Barat 91511","Binanga, Kec. Mamuju, Kabupaten Mamuju",SULAWESI BARAT,91511.0,Indonesia,81243990408.0,,,-2.6725549,118.8893335,https://maps.google.com/?cid=0x0:0x7a4407592f83068b,
toko bangunan,Pemasok Bahan Bangunan,UD. MITRA MAJU,"8WPF+63W, Jl. Mamuju - Kalukku, Bambu, Kec. Mamuju, Kabupaten Mamuju, Sulawesi Barat 91511","Jl. Mamuju - Kalukku, Bambu, Kec. Mamuju, Kabupaten Mamuju",SULAWESI BARAT,91511.0,Indonesia,85299905145.0,,,-2.6643839,118.9227115,https://maps.google.com/?cid=0x0:0x7f53f6835d2cbcba,
toko bangunan,Toko Perlengkapan Rumah,Sinar Bangunan Mamuju,"8WG2+3HW, Jl. Mamuju - Kalukku, Mamunyu, Kec. Mamuju, Kabupaten Mamuju, Sulawesi Barat 91511","Jl. Mamuju - Kalukku, Mamunyu, Kec. Mamuju, Kabupaten Mamuju",SULAWESI BARAT,91511.0,Indonesia,,,,-2.6747587,118.9015045,https://maps.google.com/?cid=0x0:0x80ef997a4a349958,
toko bangunan,Kios,Toko Bangunan To Tambayako,"Jl. RE Martadinata No.Kel, Simboro, Kec. Simboro Dan Kepulauan, Kab. Mamuju, Sulawesi Barat 91512","Simboro, Kec. Simboro Dan Kepulauan, Kab. Mamuju",SULAWESI BARAT,91512.0,Indonesia,,,,-2.6825789,118.857926,https://maps.google.com/?cid=0x0:0x3b9dad02b3718599,
toko bangunan,Toko Bahan Bangunan,Toko Sepuluh,"Jl. Mangga No.27, Binanga, Kec. Mamuju, Kabupaten Mamuju, Sulawesi Barat 91511","Binanga, Kec. Mamuju, Kabupaten Mamuju",SULAWESI BARAT,91511.0,Indonesia,42621594.0,,,-2.673171,118.892191,https://maps.google.com/?cid=0x0:0x701bd3e98fd70b3f,
toko bangunan,Toko Bahan Bangunan,Toko Putra Mas,"8V8M+974, Rimuku, Kec. Mamuju, Kabupaten Mamuju, Sulawesi Barat 91511","Rimuku, Kec. Mamuju, Kabupaten Mamuju",SULAWESI BARAT,91511.0,Indonesia,,,,-2.68411,118.8832101,https://maps.google.com/?cid=0x0:0x101e5ceb574b1ccb,
toko bangunan,Toko Perlengkapan Rumah,Toko Besi Sumber Baja,"8VFP+4G8, Jl. Abd. Wahab Azasi, Rimuku, Kec. Mamuju, Kabupaten Mamuju, Sulawesi Barat 91511","Jl. Abd. Wahab Azasi, Rimuku, Kec. Mamuju, Kabupaten Mamuju",SULAWESI BARAT,91511.0,Indonesia,,,,-2.677208,118.8863416,https://maps.google.com/?cid=0x0:0xb4f1e01cd4d8799b,
toko bangunan,Toko Perlengkapan Rumah,MR.DIY,"Ruko Sudirman, Jl. Jend Sudirman No.63, Simboro, Kec. Simboro Dan Kepulauan, Kabupaten Mamuju, Sulawesi Barat 90512","Jl. Jend Sudirman No.63, Simboro, Kec. Simboro Dan Kepulauan, Kabupaten Mamuju",SULAWESI BARAT,90512.0,Indonesia,2130022789.0,,,-2.6858871,118.8693113,https://maps.google.com/?cid=0x0:0x4729ed80f7f3bf94,
toko bangunan,Toko Bahan Bangunan,SUMBER HARAPAN,"Karema, Kec. Mamuju, Kabupaten Mamuju, Sulawesi Barat","Kabupaten Mamuju, Sulawesi Barat",SULAWESI BARAT,,Indonesia,85341996114.0,,,-2.6770968,118.8869489,https://maps.google.com/?cid=0x0:0xf393bd54539f675b,
toko bangunan,Pabrik Baja,"Spandek Mamuju, PT. AAA Kendari Cab Mamuju","8WG4+HV3 Trans, Jl. Mamuju - Kalukku No.Jalur 2, Mamunyu, Kec. Mamuju, Kabupaten Mamuju, Sulawesi Barat 91511","Jl. Mamuju - Kalukku No.Jalur 2, Mamunyu, Kec. Mamuju, Kabupaten Mamuju",SULAWESI BARAT,91511.0,Indonesia,82344499779.0,,,-2.6733978,118.906939,https://maps.google.com/?cid=0x0:0x7b872035e7877328,
toko bangunan,toko bangunan,Sulawesi Barat 91514,"Kabupaten Mamuju, Sulawesi Barat","Kabupaten Mamuju, Sulawesi Barat",SULAWESI BARAT,,Indonesia,,,,-2.6664001,118.9877942,https://maps.google.com/?cid=0x0:0x63629837e7aa22dc,
toko bangunan,Toko Bahan Bangunan,Toko Multi Bangunan,"Jl. Diponegoro No.c14-15, Karema, Kec. Mamuju, Kabupaten Mamuju, Sulawesi Barat 91512","Karema, Kec. Mamuju, Kabupaten Mamuju",SULAWESI BARAT,91512.0,Indonesia,81242298806.0,,,-2.6862595,118.8768742,https://maps.google.com/?cid=0x0:0xd05c6306c1a3648f,
toko bangunan,Toko Bahan Bangunan,Toko. Fajar Bangunan - Mamuju,"8V6G+7WH, Jl. Diponegoro, Karema, Kec. Mamuju, Kabupaten Mamuju, Sulawesi Barat 91512","Jl. Diponegoro, Karema, Kec. Mamuju, Kabupaten Mamuju",SULAWESI BARAT,91512.0,Indonesia,85930982364.0,,,-2.689321,118.8773494,https://maps.google.com/?cid=0x0:0x6d4e74a959cf61d6,
toko bangunan,Toko Bahan Bangunan,Toko Tiga Mamuju,"Jalan Poros Mamuju - Kalukku Tumuki, Bambu, Kec. Mamuju, Kabupaten Mamuju, Sulawesi Barat 91511","Bambu, Kec. Mamuju, Kabupaten Mamuju",SULAWESI BARAT,91511.0,Indonesia,85299905145.0,,,-2.669031,118.9214052,https://maps.google.com/?cid=0x0:0xfe2c9a641105daf,
toko bangunan,Toko Bahan Bangunan,Toko Usaha Maju,"Jl. Andi Dai No.66, Binanga, Kec. Mamuju, Kabupaten Mamuju, Sulawesi Barat 91511","Binanga, Kec. Mamuju, Kabupaten Mamuju",SULAWESI BARAT,91511.0,Indonesia,81242225181.0,,,-2.6719505,118.8959849,https://maps.google.com/?cid=0x0:0xce686b7c9c65b,
toko bangunan,Toko Bahan Bangunan,Toko Delta Bangunan,"8V6H+X4H, Karema, Kec. Mamuju, Kabupaten Mamuju, Sulawesi Barat 91512","Karema, Kec. Mamuju, Kabupaten Mamuju",SULAWESI BARAT,91512.0,Indonesia,81524333299.0,,,-2.6875662,118.8778488,https://maps.google.com/?cid=0x0:0x600c10af92b1cb4f,
toko bangunan,Toko Bahan Bangunan,Toko Bangunan 79,"8V8J+3MF, Karema, Kec. Mamuju, Kabupaten Mamuju, Sulawesi Barat 91511","Karema, Kec. Mamuju, Kabupaten Mamuju",SULAWESI BARAT,91511.0,Indonesia,,,,-2.684817,118.8816695,https://maps.google.com/?cid=0x0:0x101d0b0f58da7e81,
toko bangunan,Toko Bahan Bangunan,Toko Harapan Jaya,"Jl. LetJend Hertasning, Binanga, Kec. Mamuju, Kabupaten Mamuju, Sulawesi Barat 91511","Binanga, Kec. Mamuju, Kabupaten Mamuju",SULAWESI BARAT,91511.0,Indonesia,,,,-2.6718353,118.8918529,https://maps.google.com/?cid=0x0:0x4aa8f68af0fe79ed,
toko bangunan,Toko Bahan Bangunan,Toko Bangunan,"H5J6+3Q9, Jl. Poros Majene - Mamuju, Topore, Kec. Papalang, Kabupaten Mamuju, Sulawesi Barat 91563","Jl. Poros Majene - Mamuju, Topore, Kec. Papalang, Kabupaten Mamuju",SULAWESI BARAT,91563.0,Indonesia,81264671628.0,,,-2.4197239,119.162057,https://maps.google.com/?cid=0x0:0xb8abda29e233da34,
toko bangunan,Toko Bahan Bangunan,Toko Makmur Bangunan,"Jln. Jen. A. Yani No. 001, Bunde, Kec. Sampaga, Kabupaten Mamuju, Sulawesi Barat 91563","Bunde, Kec. Sampaga, Kabupaten Mamuju",SULAWESI BARAT,91563.0,Indonesia,82259648049.0,,,-2.3398082,119.1750407,https://maps.google.com/?cid=0x0:0x901692040dff7a42,
toko bangunan,Toko Bahan Bangunan,Tk. Buana Bangunan,"8V7G+MJJ, Karema, Kec. Mamuju, Kabupaten Mamuju, Sulawesi Barat 91512","Karema, Kec. Mamuju, Kabupaten Mamuju",SULAWESI BARAT,91512.0,Indonesia,82179264696.0,,,-2.6857866,118.8765206,https://maps.google.com/?cid=0x0:0x8cdc46a0e8fa0fe6,
toko bangunan,Toko Bahan Bangunan,Toko buyung bangunan,"5V55+QW8, Jl. Poros Majene - Mamuju, Tampalang, Kec. Tapalang, Kabupaten Mamuju, Sulawesi Barat 91352","Jl. Poros Majene - Mamuju, Tampalang, Kec. Tapalang, Kabupaten Mamuju",SULAWESI BARAT,91352.0,Indonesia,,,,-2.840579,118.8598397,https://maps.google.com/?cid=0x0:0xdaa7f0c9eeaba7c8,
toko bangunan,Toko Perlengkapan Rumah,Sinar Bangunan Mamuju,"8WG2+3HW, Jl. Mamuju - Kalukku, Mamunyu, Kec. Mamuju, Kabupaten Mamuju, Sulawesi Barat 91511","Jl. Mamuju - Kalukku, Mamunyu, Kec. Mamuju, Kabupaten Mamuju",SULAWESI BARAT,91511.0,Indonesia,,,,-2.6747587,118.9015045,https://maps.google.com/?cid=0x0:0x80ef997a4a349958,
toko bangunan,Toko Bahan Bangunan,Toko Sinar Bangunan,"M5MG+H8H, Jl. Poros Palu - Mamuju, Tarailu, Kec. Sampaga, Kabupaten Mamuju, Sulawesi Barat 91563","Jl. Poros Palu - Mamuju, Tarailu, Kec. Sampaga, Kabupaten Mamuju",SULAWESI BARAT,91563.0,Indonesia,81373974815.0,,,-2.3160629,119.1758478,https://maps.google.com/?cid=0x0:0xa07dffa29ee1a4e8,
toko bangunan,Pembangunan Perumahan,Toko Bangunan Putra Tande 5 Tapalang,"Galung, Kec. Tapalang, Kabupaten Mamuju, Sulawesi Barat 91352","Kec. Tapalang, Kabupaten Mamuju",SULAWESI BARAT,91352.0,Indonesia,85397048983.0,,,-2.8651937,118.8702682,https://maps.google.com/?cid=0x0:0x5ece193e63138999,
toko bangunan,Toko Alat Listrik,Berlian Listrik,"8WWM+7HG, Jl. Poros Majene - Mamuju, Bambu, Topoyo, Kabupaten Mamuju, Sulawesi Barat 91511","Jl. Poros Majene - Mamuju, Bambu, Topoyo, Kabupaten Mamuju",SULAWESI BARAT,91511.0,Indonesia,,,,-2.6543005,118.9339499,https://maps.google.com/?cid=0x0:0xad638375d017cdff,
toko bangunan,Kios,Toko Bangunan To Tambayako,"Jl. RE Martadinata No.Kel, Simboro, Kec. Simboro Dan Kepulauan, Kab. Mamuju, Sulawesi Barat 91512","Simboro, Kec. Simboro Dan Kepulauan, Kab. Mamuju",SULAWESI BARAT,91512.0,Indonesia,,,,-2.6825789,118.857926,https://maps.google.com/?cid=0x0:0x3b9dad02b3718599,
toko bangunan,Toko Bahan Bangunan,Toko Fanara,"JL. Jenderal Jl. Ahmad Yani, Binanga, Kec. Mamuju, Kabupaten Mamuju, Sulawesi Barat 91511","Binanga, Kec. Mamuju, Kabupaten Mamuju",SULAWESI BARAT,91511.0,Indonesia,81243990408.0,,,-2.6725549,118.8893335,https://maps.google.com/?cid=0x0:0x7a4407592f83068b,
toko bangunan,toko bangunan,Toko bangunan,"9X8J+XVG, Jl. Poros Majene - Mamuju, Bebanga, Kec. Kalukku, Kabupaten Mamuju, Sulawesi Barat 91511","Jl. Poros Majene - Mamuju, Bebanga, Kec. Kalukku, Kabupaten Mamuju",SULAWESI BARAT,91511.0,Indonesia,,,,-2.6325389,118.9822348,https://maps.google.com/?cid=0x0:0x7f956c176b775ca0,
toko bangunan,Toko Bahan Bangunan,SUMBER HARAPAN,"Karema, Kec. Mamuju, Kabupaten Mamuju, Sulawesi Barat","Kabupaten Mamuju, Sulawesi Barat",SULAWESI BARAT,,Indonesia,85341996114.0,,,-2.6770968,118.8869489,https://maps.google.com/?cid=0x0:0xf393bd54539f675b,
toko bangunan,Toko Bahan Bangunan,Toko Sepuluh,"Jl. Mangga No.27, Binanga, Kec. Mamuju, Kabupaten Mamuju, Sulawesi Barat 91511","Binanga, Kec. Mamuju, Kabupaten Mamuju",SULAWESI BARAT,91511.0,Indonesia,42621594.0,,,-2.673171,118.892191,https://maps.google.com/?cid=0x0:0x701bd3e98fd70b3f,
toko bangunan,Toko,Toko Sumber Sakti,"8V8G+F84, Jl. Diponegoro, Karema, Kec. Mamuju, Kabupaten Mamuju, Sulawesi Barat 91511","Jl. Diponegoro, Karema, Kec. Mamuju, Kabupaten Mamuju",SULAWESI BARAT,91511.0,Indonesia,,,,-2.6838659,118.875817,https://maps.google.com/?cid=0x0:0x40fead32aa2cf7c4,
toko bangunan,toko bangunan,Sulawesi Barat 91515,"Karampuang, Kec. Mamuju, Kabupaten Mamuju, Sulawesi Barat","Kabupaten Mamuju, Sulawesi Barat",SULAWESI BARAT,,Indonesia,,,,-2.6273634,118.885894,https://maps.google.com/?cid=0x0:0x734a0409ed48ab3f,
toko bangunan,Toko Bahan Bangunan,Toko Multi Bangunan,"Jl. Diponegoro No.c14-15, Karema, Kec. Mamuju, Kabupaten Mamuju, Sulawesi Barat 91512","Karema, Kec. Mamuju, Kabupaten Mamuju",SULAWESI BARAT,91512.0,Indonesia,81242298806.0,,,-2.6862595,118.8768742,https://maps.google.com/?cid=0x0:0xd05c6306c1a3648f,
toko bangunan,Toko Bahan Bangunan,Toko. Fajar Bangunan - Mamuju,"8V6G+7WH, Jl. Diponegoro, Karema, Kec. Mamuju, Kabupaten Mamuju, Sulawesi Barat 91512","Jl. Diponegoro, Karema, Kec. Mamuju, Kabupaten Mamuju",SULAWESI BARAT,91512.0,Indonesia,85930982364.0,,,-2.689321,118.8773494,https://maps.google.com/?cid=0x0:0x6d4e74a959cf61d6,
toko bangunan,Toko Bahan Bangunan,Toko Tiga Mamuju,"Jalan Poros Mamuju - Kalukku Tumuki, Bambu, Kec. Mamuju, Kabupaten Mamuju, Sulawesi Barat 91511","Bambu, Kec. Mamuju, Kabupaten Mamuju",SULAWESI BARAT,91511.0,Indonesia,85299905145.0,,,-2.669031,118.9214052,https://maps.google.com/?cid=0x0:0xfe2c9a641105daf,
toko bangunan,Toko Bahan Bangunan,Toko Harapan Jaya,"Jl. LetJend Hertasning, Binanga, Kec. Mamuju, Kabupaten Mamuju, Sulawesi Barat 91511","Binanga, Kec. Mamuju, Kabupaten Mamuju",SULAWESI BARAT,91511.0,Indonesia,,,,-2.6718353,118.8918529,https://maps.google.com/?cid=0x0:0x4aa8f68af0fe79ed,
toko bangunan,Toko Bahan Bangunan,Toko Fanara,"JL. Jenderal Jl. Ahmad Yani, Binanga, Kec. Mamuju, Kabupaten Mamuju, Sulawesi Barat 91511","Binanga, Kec. Mamuju, Kabupaten Mamuju",SULAWESI BARAT,91511.0,Indonesia,81243990408.0,,,-2.6725549,118.8893335,https://maps.google.com/?cid=0x0:0x7a4407592f83068b,
toko bangunan,Kios,Toko Bangunan To Tambayako,"Jl. RE Martadinata No.Kel, Simboro, Kec. Simboro Dan Kepulauan, Kab. Mamuju, Sulawesi Barat 91512","Simboro, Kec. Simboro Dan Kepulauan, Kab. Mamuju",SULAWESI BARAT,91512.0,Indonesia,,,,-2.6825789,118.857926,https://maps.google.com/?cid=0x0:0x3b9dad02b3718599,
toko bangunan,Toko Bahan Bangunan,SUMBER HARAPAN,"Karema, Kec. Mamuju, Kabupaten Mamuju, Sulawesi Barat","Kabupaten Mamuju, Sulawesi Barat",SULAWESI BARAT,,Indonesia,85341996114.0,,,-2.6770968,118.8869489,https://maps.google.com/?cid=0x0:0xf393bd54539f675b,
toko bangunan,Toko Bahan Bangunan,Tk. Buana Bangunan,"8V7G+MJJ, Karema, Kec. Mamuju, Kabupaten Mamuju, Sulawesi Barat 91512","Karema, Kec. Mamuju, Kabupaten Mamuju",SULAWESI BARAT,91512.0,Indonesia,82179264696.0,,,-2.6857866,118.8765206,https://maps.google.com/?cid=0x0:0x8cdc46a0e8fa0fe6,
toko bangunan,Toko Bahan Bangunan,Toko buyung bangunan,"5V55+QW8, Jl. Poros Majene - Mamuju, Tampalang, Kec. Tapalang, Kabupaten Mamuju, Sulawesi Barat 91352","Jl. Poros Majene - Mamuju, Tampalang, Kec. Tapalang, Kabupaten Mamuju",SULAWESI BARAT,91352.0,Indonesia,,,,-2.840579,118.8598397,https://maps.google.com/?cid=0x0:0xdaa7f0c9eeaba7c8,
toko bangunan,Toko Bahan Bangunan,Toko Bangunan,"H5J6+3Q9, Jl. Poros Majene - Mamuju, Topore, Kec. Papalang, Kabupaten Mamuju, Sulawesi Barat 91563","Jl. Poros Majene - Mamuju, Topore, Kec. Papalang, Kabupaten Mamuju",SULAWESI BARAT,91563.0,Indonesia,81264671628.0,,,-2.4197239,119.162057,https://maps.google.com/?cid=0x0:0xb8abda29e233da34,
toko bangunan,Toko,Toko Sumber Sakti,"8V8G+F84, Jl. Diponegoro, Karema, Kec. Mamuju, Kabupaten Mamuju, Sulawesi Barat 91511","Jl. Diponegoro, Karema, Kec. Mamuju, Kabupaten Mamuju",SULAWESI BARAT,91511.0,Indonesia,,,,-2.6838659,118.875817,https://maps.google.com/?cid=0x0:0x40fead32aa2cf7c4,
toko bangunan,Toko Bahan Bangunan,Toko Sepuluh,"Jl. Mangga No.27, Binanga, Kec. Mamuju, Kabupaten Mamuju, Sulawesi Barat 91511","Binanga, Kec. Mamuju, Kabupaten Mamuju",SULAWESI BARAT,91511.0,Indonesia,42621594.0,,,-2.673171,118.892191,https://maps.google.com/?cid=0x0:0x701bd3e98fd70b3f,
toko bangunan,Pembangunan Perumahan,Toko Bangunan Putra Tande 5 Tapalang,"Galung, Kec. Tapalang, Kabupaten Mamuju, Sulawesi Barat 91352","Kec. Tapalang, Kabupaten Mamuju",SULAWESI BARAT,91352.0,Indonesia,85397048983.0,,,-2.8651937,118.8702682,https://maps.google.com/?cid=0x0:0x5ece193e63138999,
toko bangunan,Toko Perlengkapan Rumah,Sinar Bangunan Mamuju,"8WG2+3HW, Jl. Mamuju - Kalukku, Mamunyu, Kec. Mamuju, Kabupaten Mamuju, Sulawesi Barat 91511","Jl. Mamuju - Kalukku, Mamunyu, Kec. Mamuju, Kabupaten Mamuju",SULAWESI BARAT,91511.0,Indonesia,,,,-2.6747587,118.9015045,https://maps.google.com/?cid=0x0:0x80ef997a4a349958,
toko bangunan,Toko Bahan Bangunan,ATAP SENG RUMAH SPANDEK,"8VXP+JV3, Karampuang, Kec. Mamuju, Kabupaten Mamuju, Sulawesi Barat 91515","Karampuang, Kec. Mamuju, Kabupaten Mamuju",SULAWESI BARAT,91515.0,Indonesia,82189548598.0,,,-2.650991,118.8871615,https://maps.google.com/?cid=0x0:0x326cb6d0aece117,
toko bangunan,Toko Bahan Bangunan,Toko Sinar Bangunan,"M5MG+H8H, Jl. Poros Palu - Mamuju, Tarailu, Kec. Sampaga, Kabupaten Mamuju, Sulawesi Barat 91563","Jl. Poros Palu - Mamuju, Tarailu, Kec. Sampaga, Kabupaten Mamuju",SULAWESI BARAT,91563.0,Indonesia,81373974815.0,,,-2.3160629,119.1758478,https://maps.google.com/?cid=0x0:0xa07dffa29ee1a4e8,
toko bangunan,Toko,Toko bahan bangunan,"8V85+XCC, Jl. RE Martadinata, Simboro, Kec. Simboro Dan Kepulauan, Kabupaten Mamuju, Sulawesi Barat 91512","Jl. RE Martadinata, Simboro, Kec. Simboro Dan Kepulauan, Kabupaten Mamuju",SULAWESI BARAT,91512.0,Indonesia,,,,-2.6825637,118.8584742,https://maps.google.com/?cid=0x0:0x2bd1d4a778526731,
toko bangunan,Toko Bahan Bangunan,sarang bangunan mamuju,"8V5C+JJX, Jl. Soekarno Hatta, Simboro, Kec. Mamuju, Kabupaten Mamuju, Sulawesi Barat 91512","Jl. Soekarno Hatta, Simboro, Kec. Mamuju, Kabupaten Mamuju",SULAWESI BARAT,91512.0,Indonesia,81216991887.0,,,-2.690896,118.8716013,https://maps.google.com/?cid=0x0:0x9caefd20f0bf5456,
toko bangunan,Toko Bahan Bangunan,Toko Bintang Harapan,"8VCP+R27, Jl. Abd. Wahab Azasi, Rimuku, Kec. Mamuju, Kabupaten Mamuju, Sulawesi Barat 91511","Jl. Abd. Wahab Azasi, Rimuku, Kec. Mamuju, Kabupaten Mamuju",SULAWESI BARAT,91511.0,Indonesia,85255406473.0,,,-2.6779643,118.8850575,https://maps.google.com/?cid=0x0:0xc4b21c474e99ccee,
toko bangunan,Toko Bahan Bangunan,Toko Usaha Maju,"Jl. Andi Dai No.66, Binanga, Kec. Mamuju, Kabupaten Mamuju, Sulawesi Barat 91511","Binanga, Kec. Mamuju, Kabupaten Mamuju",SULAWESI BARAT,91511.0,Indonesia,81242225181.0,,,-2.6719505,118.8959849,https://maps.google.com/?cid=0x0:0xce686b7c9c65b,
toko bangunan,Toko Bahan Bangunan,Toko Bangunan 79,"8V8J+3MF, Karema, Kec. Mamuju, Kabupaten Mamuju, Sulawesi Barat 91511","Karema, Kec. Mamuju, Kabupaten Mamuju",SULAWESI BARAT,91511.0,Indonesia,,,,-2.684817,118.8816695,https://maps.google.com/?cid=0x0:0x101d0b0f58da7e81,
toko bangunan,Toko Bahan Bangunan,Toko Makmur Bangunan,"Jln. Jen. A. Yani No. 001, Bunde, Kec. Sampaga, Kabupaten Mamuju, Sulawesi Barat 91563","Bunde, Kec. Sampaga, Kabupaten Mamuju",SULAWESI BARAT,91563.0,Indonesia,82259648049.0,,,-2.3398082,119.1750407,https://maps.google.com/?cid=0x0:0x901692040dff7a42,
toko bangunan,Pasar,Pasar Baru Mamuju,"Jl. Abd. Syakur, Pasar Baru, Kec. Mamuju, Kabupaten Mamuju, Sulawesi Barat 91515","Pasar Baru, Kec. Mamuju, Kabupaten Mamuju",SULAWESI BARAT,91515.0,Indonesia,,,,-2.6868379,118.8778964,https://maps.google.com/?cid=0x0:0xcb65768a341249f,
toko bangunan,toko bangunan,Sulawesi Barat 91563,"Kabupaten Mamuju, Sulawesi Barat","Kabupaten Mamuju, Sulawesi Barat",SULAWESI BARAT,,Indonesia,,,,-2.0727011,119.5107708,https://maps.google.com/?cid=0x0:0x8bfaa35dac2725d7,
toko bangunan,Toko Bahan Bangunan,Toko Bangunan,"H5J6+3Q9, Jl. Poros Majene - Mamuju, Topore, Kec. Papalang, Kabupaten Mamuju, Sulawesi Barat 91563","Jl. Poros Majene - Mamuju, Topore, Kec. Papalang, Kabupaten Mamuju",SULAWESI BARAT,91563.0,Indonesia,81264671628.0,,,-2.4197239,119.162057,https://maps.google.com/?cid=0x0:0xb8abda29e233da34,
toko bangunan,Toko Bahan Bangunan,TB.Putra Tande Belang-belang,"H44Q+6P, Papalang, Kec. Papalang, Kabupaten Mamuju, Sulawesi Barat","Kabupaten Mamuju, Sulawesi Barat",SULAWESI BARAT,,Indonesia,,,,-2.4444634,119.1393672,https://maps.google.com/?cid=0x0:0x74a6e4bee0ea180d,
toko bangunan,Toko Bahan Bangunan,Toko arjuna,"H5C5+GR, Papalang, Kec. Papalang, Kabupaten Mamuju, Sulawesi Barat 91561","Papalang, Kec. Papalang, Kabupaten Mamuju",SULAWESI BARAT,91561.0,Indonesia,,,,-2.428776,119.1595275,https://maps.google.com/?cid=0x0:0xae3c2ec8da526d4d,
toko bangunan,toko bangunan,BELMO BANGUNAN,"J53R+RF2, Boda-Boda, Kec. Papalang, Kabupaten Mamuju, Sulawesi Barat 91563","Boda-Boda, Kec. Papalang, Kabupaten Mamuju",SULAWESI BARAT,91563.0,Indonesia,,,,-2.3954792,119.191151,https://maps.google.com/?cid=0x0:0x8daab41138522150,
toko bangunan,toko bangunan,Kec. Papalang,"Kabupaten Mamuju, Sulawesi Barat","Kabupaten Mamuju, Sulawesi Barat",SULAWESI BARAT,,Indonesia,,,,-2.3871091,119.1729099,https://maps.google.com/?cid=0x0:0xb016ae6ec36eb13f,
toko bangunan,Toko Bahan Bangunan,Toko wahyudi Bangunan,"H5J6+2P7, Topore, Kec. Papalang, Kabupaten Mamuju, Sulawesi Barat 91563","Topore, Kec. Papalang, Kabupaten Mamuju",SULAWESI BARAT,91563.0,Indonesia,82146692685.0,,,-2.4199691,119.1617961,https://maps.google.com/?cid=0x0:0xd7af52db91495e45,
toko bangunan,Toko Bahan Bangunan,Mega Buana Bangunan,"Tarailu, Kec. Sampaga, Kabupaten Mamuju, Sulawesi Barat 91563","Kec. Sampaga, Kabupaten Mamuju",SULAWESI BARAT,91563.0,Indonesia,81356737526.0,,,-2.3096411,119.1743619,https://maps.google.com/?cid=0x0:0xf3f768be1c38f424,
toko bangunan,Toko Bahan Bangunan,Toko Makmur Bangunan,"Jln. Jen. A. Yani No. 001, Bunde, Kec. Sampaga, Kabupaten Mamuju, Sulawesi Barat 91563","Bunde, Kec. Sampaga, Kabupaten Mamuju",SULAWESI BARAT,91563.0,Indonesia,82259648049.0,,,-2.3398082,119.1750407,https://maps.google.com/?cid=0x0:0x901692040dff7a42,
toko bangunan,Toko Bahan Bangunan,Sinar mambuliling,"Boda-Boda, Kec. Papalang, Kabupaten Mamuju, Sulawesi Barat","Kabupaten Mamuju, Sulawesi Barat",SULAWESI BARAT,,Indonesia,,,,-2.39641,119.1908685,https://maps.google.com/?cid=0x0:0xc62097de00c15ef7,
toko bangunan,toko bangunan,Sulawesi Barat 91563,"Kabupaten Mamuju, Sulawesi Barat","Kabupaten Mamuju, Sulawesi Barat",SULAWESI BARAT,,Indonesia,,,,-2.0727011,119.5107708,https://maps.google.com/?cid=0x0:0x8bfaa35dac2725d7,
toko bangunan,Toko Bahan Bangunan,Toko Makmur Bangunan,"Jln. Jen. A. Yani No. 001, Bunde, Kec. Sampaga, Kabupaten Mamuju, Sulawesi Barat 91563","Bunde, Kec. Sampaga, Kabupaten Mamuju",SULAWESI BARAT,91563.0,Indonesia,82259648049.0,,,-2.3398082,119.1750407,https://maps.google.com/?cid=0x0:0x901692040dff7a42,
toko bangunan,Toko Bahan Bangunan,Toko Sinar Bangunan,"M5MG+H8H, Jl. Poros Palu - Mamuju, Tarailu, Kec. Sampaga, Kabupaten Mamuju, Sulawesi Barat 91563","Jl. Poros Palu - Mamuju, Tarailu, Kec. Sampaga, Kabupaten Mamuju",SULAWESI BARAT,91563.0,Indonesia,81373974815.0,,,-2.3160629,119.1758478,https://maps.google.com/?cid=0x0:0xa07dffa29ee1a4e8,
toko bangunan,Toko Bahan Bangunan,Fajar Bangunan,"W7MP+9RV, Topoyo, Kec. Topoyo, Kabupaten Mamuju, Sulawesi Barat 91563","Topoyo, Kec. Topoyo, Kabupaten Mamuju",SULAWESI BARAT,91563.0,Indonesia,,,,-2.0665142,119.2870577,https://maps.google.com/?cid=0x0:0xaa3eae1887207633,
toko bangunan,Pusat Perbelanjaan,Toko bangunan argadinata,"Lemo-Lemo, Kec. Pangale, Kabupaten Mamuju, Sulawesi Barat 91462","Kec. Pangale, Kabupaten Mamuju",SULAWESI BARAT,91462.0,Indonesia,82331313118.0,,,-2.2972382,119.17566,https://maps.google.com/?cid=0x0:0x9eb6c7242139d7af,
toko bangunan,Grosir,Toko bangunan 54 dua,"Benteng, Kec. Tobadak, Kabupaten Mamuju Tengah, Sulawesi Barat 91563","Kec. Tobadak, Kabupaten Mamuju Tengah",SULAWESI BARAT,91563.0,Indonesia,81264671628.0,,,-2.0790648,119.526939,https://maps.google.com/?cid=0x0:0xc2fa5e82fe9b5180,
toko bangunan,Toko Bahan Bangunan,TB CAHAYA BANGUNAN,"Tobadak, Kec. Tobadak, Kabupaten Mamuju, Sulawesi Barat 91563","Kec. Tobadak, Kabupaten Mamuju",SULAWESI BARAT,91563.0,Indonesia,82299999951.0,,,-2.0751897,119.2902612,https://maps.google.com/?cid=0x0:0xab184661abda07b4,
toko bangunan,Toko Bahan Bangunan,Toko Bangunan Sumber Baru,"X8H8+JGX, Salupangkang, Kec. Topoyo, Kabupaten Mamuju, Sulawesi Barat 91563","Salupangkang, Kec. Topoyo, Kabupaten Mamuju",SULAWESI BARAT,91563.0,Indonesia,,,,-2.0208952,119.3163699,https://maps.google.com/?cid=0x0:0x4e386c1bad376796,
toko bangunan,Toko Bahan Bangunan,Toko Bangunan,"H5J6+3Q9, Jl. Poros Majene - Mamuju, Topore, Kec. Papalang, Kabupaten Mamuju, Sulawesi Barat 91563","Jl. Poros Majene - Mamuju, Topore, Kec. Papalang, Kabupaten Mamuju",SULAWESI BARAT,91563.0,Indonesia,81264671628.0,,,-2.4197239,119.162057,https://maps.google.com/?cid=0x0:0xb8abda29e233da34,
toko bangunan,Toko Bahan Bangunan,Toko JADI bangunan,"X8P9+4XW, Salupangkang, Kec. Topoyo, Kabupaten Mamuju Tengah, Sulawesi Barat 91563","Salupangkang, Kec. Topoyo, Kabupaten Mamuju Tengah",SULAWESI BARAT,91563.0,Indonesia,81373974815.0,,,-2.0144107,119.3197132,https://maps.google.com/?cid=0x0:0xef5ca80a4f73a5aa,
toko bangunan,Toko Bahan Bangunan,Berkah Abadi Topoyo,"Tobadak, Kec. Tobadak, Kabupaten Mamuju, Sulawesi Barat 91563","Kec. Tobadak, Kabupaten Mamuju",SULAWESI BARAT,91563.0,Indonesia,82173389240.0,,,-2.0774095,119.2913376,https://maps.google.com/?cid=0x0:0x372a51d92d7114a0,
toko bangunan,Toko Bahan Bangunan,TK FAJAR BARKAH JUAL ALAT BANGUNAN,"Jl. Poros Majene - Mamuju, Topoyo, Kec. Topoyo, Kabupaten Mamuju Tengah, Sulawesi Barat 91563","Topoyo, Kec. Topoyo, Kabupaten Mamuju Tengah",SULAWESI BARAT,91563.0,Indonesia,81373974815.0,,,-2.0620443,119.2903474,https://maps.google.com/?cid=0x0:0x7dac4b5b2db5efa0,
toko bangunan,Toko Bahan Bangunan,INTI BANGUNAN,"V9F7+XQF, Mahahe, Kec. Tobadak, Kabupaten Mamuju, Sulawesi Barat 91563","Mahahe, Kec. Tobadak, Kabupaten Mamuju",SULAWESI BARAT,91563.0,Indonesia,,,,-2.1245822,119.3637779,https://maps.google.com/?cid=0x0:0xbe4c27c0321bbaa8,
toko bangunan,Perhimpunan Pengembang Perumahan,Toko 54 Lima Empat,"W77M+CJ3, Jl. Poros Majene - Mamuju, Tobadak, Kec. Tobadak, Kabupaten Mamuju Tengah, Sulawesi Barat 91563","Jl. Poros Majene - Mamuju, Tobadak, Kec. Tobadak, Kabupaten Mamuju Tengah",SULAWESI BARAT,91563.0,Indonesia,81264671628.0,,,-2.0864914,119.2840603,https://maps.google.com/?cid=0x0:0xca6f1bc2ed1ce386,
toko bangunan,Toko Bahan Bangunan,Toko. Fajar Bangunan - Mamuju,"8V6G+7WH, Jl. Diponegoro, Karema, Kec. Mamuju, Kabupaten Mamuju, Sulawesi Barat 91512","Jl. Diponegoro, Karema, Kec. Mamuju, Kabupaten Mamuju",SULAWESI BARAT,91512.0,Indonesia,85930982364.0,,,-2.689321,118.8773494,https://maps.google.com/?cid=0x0:0x6d4e74a959cf61d6,
toko bangunan,Toko Perlengkapan Rumah,Toko Fajar Mandiri,"6C32+6PH, Karossa, Kec. Karossa, Kabupaten Mamuju, Sulawesi Barat 91512","Karossa, Kec. Karossa, Kabupaten Mamuju",SULAWESI BARAT,91512.0,Indonesia,81373974815.0,,,-1.7969264,119.401873,https://maps.google.com/?cid=0x0:0x369b9c9c478b5faa,
toko bangunan,Toko Bahan Bangunan,Aska bangunan,"W7HP+65J, Topoyo, Kec. Topoyo, Kabupaten Mamuju Tengah, Sulawesi Barat 91563","Topoyo, Kec. Topoyo, Kabupaten Mamuju Tengah",SULAWESI BARAT,91563.0,Indonesia,,,,-2.0719726,119.2855337,https://maps.google.com/?cid=0x0:0xd6e59dc32b9cd463,
toko bangunan,Toko Bahan Bangunan,Toko Tiga Mamuju,"Jalan Poros Mamuju - Kalukku Tumuki, Bambu, Kec. Mamuju, Kabupaten Mamuju, Sulawesi Barat 91511","Bambu, Kec. Mamuju, Kabupaten Mamuju",SULAWESI BARAT,91511.0,Indonesia,85299905145.0,,,-2.669031,118.9214052,https://maps.google.com/?cid=0x0:0xfe2c9a641105daf,
toko bangunan,Toko Bahan Bangunan,Toko Multi Bangunan,"Jl. Diponegoro No.c14-15, Karema, Kec. Mamuju, Kabupaten Mamuju, Sulawesi Barat 91512","Karema, Kec. Mamuju, Kabupaten Mamuju",SULAWESI BARAT,91512.0,Indonesia,81242298806.0,,,-2.6862595,118.8768742,https://maps.google.com/?cid=0x0:0xd05c6306c1a3648f,
toko bangunan,Bengkel Sepeda Motor,Toko Jakarta,"M5QF+HM9, Jl. Poros Majene - Mamuju, Tarailu, Kec. Sampaga, Kabupaten Mamuju, Sulawesi Barat 91563","Jl. Poros Majene - Mamuju, Tarailu, Kec. Sampaga, Kabupaten Mamuju",SULAWESI BARAT,91563.0,Indonesia,,,,-2.3110758,119.1742362,https://maps.google.com/?cid=0x0:0x7a7499da7e5d7bbd,
toko bangunan,toko bangunan,Kec. Sampaga,"Kabupaten Mamuju, Sulawesi Barat","Kabupaten Mamuju, Sulawesi Barat",SULAWESI BARAT,,Indonesia,,,,-2.3125359,119.1766647,https://maps.google.com/?cid=0x0:0x75e9d815d6856b53,
toko bangunan,Toko Bahan Bangunan,Mega Buana Bangunan,"Tarailu, Kec. Sampaga, Kabupaten Mamuju, Sulawesi Barat 91563","Kec. Sampaga, Kabupaten Mamuju",SULAWESI BARAT,91563.0,Indonesia,81356737526.0,,,-2.3096411,119.1743619,https://maps.google.com/?cid=0x0:0xf3f768be1c38f424,
toko bangunan,Toko Perlengkapan Rumah,P.T Era Baru Corporation,"M5FF+WPM, Tarailu, Kec. Sampaga, Kabupaten Mamuju, Sulawesi Barat 91563","Tarailu, Kec. Sampaga, Kabupaten Mamuju",SULAWESI BARAT,91563.0,Indonesia,82393244788.0,,,-2.3259606,119.1744592,https://maps.google.com/?cid=0x0:0xa86d02c85181b796,
toko bangunan,Toko Bahan Bangunan,DISTRIBUTOR ATAP SENG RUMAH SPANDEK,"M58F+VPR, Jl. Poros Majene - Mamuju, Bunde, Kec. Sampaga, Kabupaten Mamuju, Sulawesi Barat 91563","Jl. Poros Majene - Mamuju, Bunde, Kec. Sampaga, Kabupaten Mamuju",SULAWESI BARAT,91563.0,Indonesia,82189548598.0,,,-2.3327615,119.1742679,https://maps.google.com/?cid=0x0:0x4bccf6eb493a696a,
toko bangunan,Toko Bahan Bangunan,UD. Berkat usaha,"P56M+7VF, Lemo-Lemo, Kec. Pangale, Kabupaten Mamuju, Sulawesi Barat 91563","Lemo-Lemo, Kec. Pangale, Kabupaten Mamuju",SULAWESI BARAT,91563.0,Indonesia,85335335558.0,,,-2.2893189,119.1846856,https://maps.google.com/?cid=0x0:0x8909e34afa46f1e3,
toko bangunan,Toko,Toko sahabat jaya,"Jl. Poros Mamuju - Topoyo, Bunde, Kec. Sampaga, Kabupaten Mamuju, Sulawesi Barat 91563","Bunde, Kec. Sampaga, Kabupaten Mamuju",SULAWESI BARAT,91563.0,Indonesia,82290019907.0,,,-2.3358447,119.1747903,https://maps.google.com/?cid=0x0:0x1ac46bbe67269499,
toko bangunan,Toko Bahan Bangunan,Bata Ringan CLC 77,"Lemo-Lemo, Kec. Pangale, Kabupaten Mamuju Tengah, Sulawesi Barat 91563","Kec. Pangale, Kabupaten Mamuju Tengah",SULAWESI BARAT,91563.0,Indonesia,82394442000.0,,,-2.3041429,119.1760174,https://maps.google.com/?cid=0x0:0x4b8fd512469d575,
toko bangunan,toko bangunan,Surya Bangunan Tarailu,"Tarailu, Kec. Sampaga, Kabupaten Mamuju, Sulawesi Barat","Kabupaten Mamuju, Sulawesi Barat",SULAWESI BARAT,,Indonesia,,,,-2.3136516,119.1764573,https://maps.google.com/?cid=0x0:0x5895e077f50fb30d,
toko bangunan,toko bangunan,Rbg Rafha Bangunan,"Tarailu, Kec. Sampaga, Kabupaten Mamuju, Sulawesi Barat","Kabupaten Mamuju, Sulawesi Barat",SULAWESI BARAT,,Indonesia,,,,-2.311592,119.1750647,https://maps.google.com/?cid=0x0:0x678e88a85554d299,
toko bangunan,toko bangunan,Kec. Simboro Dan Kepulauan,"Kabupaten Mamuju, Sulawesi Barat","Kabupaten Mamuju, Sulawesi Barat",SULAWESI BARAT,,Indonesia,,,,-2.6886472,118.8687708,https://maps.google.com/?cid=0x0:0x690e32602d9f0e83,
toko bangunan,Toko Bahan Bangunan,Toko Makmur 88,"Simboro, Kec. Simboro Dan Kepulauan, Kabupaten Mamuju, Sulawesi Barat 91512","Kec. Simboro Dan Kepulauan, Kabupaten Mamuju",SULAWESI BARAT,91512.0,Indonesia,82195585978.0,,,-2.67092,118.8524302,https://maps.google.com/?cid=0x0:0xc963452732b791b2,
toko bangunan,Kios,Toko Bangunan To Tambayako,"Jl. RE Martadinata No.Kel, Simboro, Kec. Simboro Dan Kepulauan, Kab. Mamuju, Sulawesi Barat 91512","Simboro, Kec. Simboro Dan Kepulauan, Kab. Mamuju",SULAWESI BARAT,91512.0,Indonesia,,,,-2.6825789,118.857926,https://maps.google.com/?cid=0x0:0x3b9dad02b3718599,
toko bangunan,Toko Perlengkapan Rumah,TB HIGAR BANGUNAN,"Jl. Abdul Malik Pattana Endeng No.kel, Simboro, Kec. Simboro Dan Kepulauan, Kabupaten Mamuju, Sulawesi Barat 91512","Simboro, Kec. Simboro Dan Kepulauan, Kabupaten Mamuju",SULAWESI BARAT,91512.0,Indonesia,81373974815.0,,,-2.6763392,118.8573914,https://maps.google.com/?cid=0x0:0xb4329c8acd4be00d,
toko bangunan,Toko Bahan Bangunan,Toko Multi Bangunan,"Jl. Diponegoro No.c14-15, Karema, Kec. Mamuju, Kabupaten Mamuju, Sulawesi Barat 91512","Karema, Kec. Mamuju, Kabupaten Mamuju",SULAWESI BARAT,91512.0,Indonesia,81242298806.0,,,-2.6862595,118.8768742,https://maps.google.com/?cid=0x0:0xd05c6306c1a3648f,
toko bangunan,Toko Bahan Bangunan,Toko. Fajar Bangunan - Mamuju,"8V6G+7WH, Jl. Diponegoro, Karema, Kec. Mamuju, Kabupaten Mamuju, Sulawesi Barat 91512","Jl. Diponegoro, Karema, Kec. Mamuju, Kabupaten Mamuju",SULAWESI BARAT,91512.0,Indonesia,85930982364.0,,,-2.689321,118.8773494,https://maps.google.com/?cid=0x0:0x6d4e74a959cf61d6,
toko bangunan,Pemasok Bahan Bangunan,Tb. Mitra Bangunan,"8RRX+G57, Jl. Abdul Malik Pattana Endeng, Rangas, Kec. Simboro Dan Kepulauan, Kabupaten Mamuju, Sulawesi Barat 91512","Jl. Abdul Malik Pattana Endeng, Rangas, Kec. Simboro Dan Kepulauan, Kabupaten Mamuju",SULAWESI BARAT,91512.0,Indonesia,,,,-2.6587247,118.8479089,https://maps.google.com/?cid=0x0:0x82fdcef4b67452d8,
toko bangunan,Toko Perlengkapan Rumah,TOKO BANGUNAN ALMART,"Dusun Sese Tengah, Rangas, Kec. Simboro Dan Kepulauan, Kabupaten Mamuju, Sulawesi Barat 94553","Rangas, Kec. Simboro Dan Kepulauan, Kabupaten Mamuju",SULAWESI BARAT,94553.0,Indonesia,,,,-2.6939517,118.8432367,https://maps.google.com/?cid=0x0:0xd1b294ea71ae1c47,
toko bangunan,Toko Elektronik,22 TEKNIK BANGUNAN,"Jl. Abdul Malik Pattana Endeng, Simboro, Kec. Simboro Dan Kepulauan, Kabupaten Mamuju, Sulawesi Barat 91512","Simboro, Kec. Simboro Dan Kepulauan, Kabupaten Mamuju",SULAWESI BARAT,91512.0,Indonesia,81265476914.0,,,-2.6838018,118.8580846,https://maps.google.com/?cid=0x0:0xc78c6920f1d024b5,
toko bangunan,Toko Bahan Bangunan,sarang bangunan mamuju,"8V5C+JJX, Jl. Soekarno Hatta, Simboro, Kec. Mamuju, Kabupaten Mamuju, Sulawesi Barat 91512","Jl. Soekarno Hatta, Simboro, Kec. Mamuju, Kabupaten Mamuju",SULAWESI BARAT,91512.0,Indonesia,81216991887.0,,,-2.690896,118.8716013,https://maps.google.com/?cid=0x0:0x9caefd20f0bf5456,
toko bangunan,Toko Bahan Bangunan,Toko Bangunan 79,"8V8J+3MF, Karema, Kec. Mamuju, Kabupaten Mamuju, Sulawesi Barat 91511","Karema, Kec. Mamuju, Kabupaten Mamuju",SULAWESI BARAT,91511.0,Indonesia,,,,-2.684817,118.8816695,https://maps.google.com/?cid=0x0:0x101d0b0f58da7e81,
toko bangunan,Pemasok Bahan Bangunan,Conch Mamuju,"8VC5+X3J, Simboro, Kec. Simboro Dan Kepulauan, Kabupaten Mamuju, Sulawesi Barat","Kabupaten Mamuju, Sulawesi Barat",SULAWESI BARAT,,Indonesia,,,,-2.6775432,118.8576452,https://maps.google.com/?cid=0x0:0xcfb97472f6169b72,
toko bangunan,Toko,Toko Sumber Sakti,"8V8G+F84, Jl. Diponegoro, Karema, Kec. Mamuju, Kabupaten Mamuju, Sulawesi Barat 91511","Jl. Diponegoro, Karema, Kec. Mamuju, Kabupaten Mamuju",SULAWESI BARAT,91511.0,Indonesia,,,,-2.6838659,118.875817,https://maps.google.com/?cid=0x0:0x40fead32aa2cf7c4,
toko bangunan,Toko Perlengkapan Rumah,MR.DIY,"Ruko Sudirman, Jl. Jend Sudirman No.63, Simboro, Kec. Simboro Dan Kepulauan, Kabupaten Mamuju, Sulawesi Barat 90512","Jl. Jend Sudirman No.63, Simboro, Kec. Simboro Dan Kepulauan, Kabupaten Mamuju",SULAWESI BARAT,90512.0,Indonesia,2130022789.0,,,-2.6858871,118.8693113,https://maps.google.com/?cid=0x0:0x4729ed80f7f3bf94,
toko bangunan,Toko Bahan Bangunan,Fajar Mas Toko,"8VGQ+HV8, Komplek Pasar Sentral, Simboro, Kec. Mamuju, Kabupaten Mamuju, Sulawesi Barat 91811","Komplek Pasar Sentral, Simboro, Kec. Mamuju, Kabupaten Mamuju",SULAWESI BARAT,91811.0,Indonesia,42621498.0,,,-2.6735892,118.8897077,https://maps.google.com/?cid=0x0:0x25648f8d214d5e5b,
toko bangunan,Toko Alat Listrik,Toko Mitra Listrik,"Karema, Kec. Mamuju, Kabupaten Mamuju, Sulawesi Barat 91512","Kec. Mamuju, Kabupaten Mamuju",SULAWESI BARAT,91512.0,Indonesia,81216513956.0,,,-2.6836678,118.8758437,https://maps.google.com/?cid=0x0:0x9b2d83aba9467b91,
toko bangunan,Toko Bahan Bangunan,Toko Delta Bangunan,"8V6H+X4H, Karema, Kec. Mamuju, Kabupaten Mamuju, Sulawesi Barat 91512","Karema, Kec. Mamuju, Kabupaten Mamuju",SULAWESI BARAT,91512.0,Indonesia,81524333299.0,,,-2.6875662,118.8778488,https://maps.google.com/?cid=0x0:0x600c10af92b1cb4f,
toko bangunan,Toko Bahan Bangunan,Tk. Buana Bangunan,"8V7G+MJJ, Karema, Kec. Mamuju, Kabupaten Mamuju, Sulawesi Barat 91512","Karema, Kec. Mamuju, Kabupaten Mamuju",SULAWESI BARAT,91512.0,Indonesia,82179264696.0,,,-2.6857866,118.8765206,https://maps.google.com/?cid=0x0:0x8cdc46a0e8fa0fe6,
toko bangunan,Toko Bahan Bangunan,Toko Putra Mas,"8V8M+974, Rimuku, Kec. Mamuju, Kabupaten Mamuju, Sulawesi Barat 91511","Rimuku, Kec. Mamuju, Kabupaten Mamuju",SULAWESI BARAT,91511.0,Indonesia,,,,-2.68411,118.8832101,https://maps.google.com/?cid=0x0:0x101e5ceb574b1ccb,
toko bangunan,Toko Bahan Bangunan,Toko Harapan Jaya,"Jl. LetJend Hertasning, Binanga, Kec. Mamuju, Kabupaten Mamuju, Sulawesi Barat 91511","Binanga, Kec. Mamuju, Kabupaten Mamuju",SULAWESI BARAT,91511.0,Indonesia,,,,-2.6718353,118.8918529,https://maps.google.com/?cid=0x0:0x4aa8f68af0fe79ed,
toko bangunan,Toko Bahan Bangunan,UD.NASRA JAYA,"8V6F+6F8, Jl. Abd. Syakur, Karema, Kec. Mamuju, Kabupaten Mamuju, Sulawesi Barat 91512","Jl. Abd. Syakur, Karema, Kec. Mamuju, Kabupaten Mamuju",SULAWESI BARAT,91512.0,Indonesia,,,,-2.6894568,118.8737177,https://maps.google.com/?cid=0x0:0x4732dd7caa92218a,
toko bangunan,Toko Alat Tulis Kantor,faco kopy,"8V85+XCC, Jl. RE Martadinata, Simboro, Kec. Simboro Dan Kepulauan, Kabupaten Mamuju, Sulawesi Barat 91512","Jl. RE Martadinata, Simboro, Kec. Simboro Dan Kepulauan, Kabupaten Mamuju",SULAWESI BARAT,91512.0,Indonesia,,,,-2.6824895,118.8584097,https://maps.google.com/?cid=0x0:0xae7570b88e28541e,
toko bangunan,Toko Bahan Bangunan,Toko fajar mas 1,"Jl. Abd. Syakur No.1, RW.2, Karema, Kec. Mamuju, Kabupaten Mamuju, Sulawesi Barat 91512","RW.2, Karema, Kec. Mamuju, Kabupaten Mamuju",SULAWESI BARAT,91512.0,Indonesia,,,,-2.6872526,118.8785361,https://maps.google.com/?cid=0x0:0xdf0d4c56aa1133c0,
toko bangunan,toko bangunan,Sulawesi Barat 91513,"Kabupaten Mamuju, Sulawesi Barat","Kabupaten Mamuju, Sulawesi Barat",SULAWESI BARAT,,Indonesia,,,,-2.6887507,118.8014121,https://maps.google.com/?cid=0x0:0xbef0412d6d2f80f8,
toko bangunan,Toko Bahan Bangunan,Toko Makmur 88,"Simboro, Kec. Simboro Dan Kepulauan, Kabupaten Mamuju, Sulawesi Barat 91512","Kec. Simboro Dan Kepulauan, Kabupaten Mamuju",SULAWESI BARAT,91512.0,Indonesia,82195585978.0,,,-2.67092,118.8524302,https://maps.google.com/?cid=0x0:0xc963452732b791b2,
toko bangunan,Toko,Toko bahan bangunan,"8V85+XCC, Jl. RE Martadinata, Simboro, Kec. Simboro Dan Kepulauan, Kabupaten Mamuju, Sulawesi Barat 91512","Jl. RE Martadinata, Simboro, Kec. Simboro Dan Kepulauan, Kabupaten Mamuju",SULAWESI BARAT,91512.0,Indonesia,,,,-2.6825637,118.8584742,https://maps.google.com/?cid=0x0:0x2bd1d4a778526731,
toko bangunan,Toko Perlengkapan Rumah,TOKO BANGUNAN ALMART,"Dusun Sese Tengah, Rangas, Kec. Simboro Dan Kepulauan, Kabupaten Mamuju, Sulawesi Barat 94553","Rangas, Kec. Simboro Dan Kepulauan, Kabupaten Mamuju",SULAWESI BARAT,94553.0,Indonesia,,,,-2.6939517,118.8432367,https://maps.google.com/?cid=0x0:0xd1b294ea71ae1c47,
toko bangunan,Toko Perlengkapan Rumah,TB HIGAR BANGUNAN,"Jl. Abdul Malik Pattana Endeng No.kel, Simboro, Kec. Simboro Dan Kepulauan, Kabupaten Mamuju, Sulawesi Barat 91512","Simboro, Kec. Simboro Dan Kepulauan, Kabupaten Mamuju",SULAWESI BARAT,91512.0,Indonesia,81373974815.0,,,-2.6763392,118.8573914,https://maps.google.com/?cid=0x0:0xb4329c8acd4be00d,
toko bangunan,Pemasok Bahan Bangunan,Tb. Mitra Bangunan,"8RRX+G57, Jl. Abdul Malik Pattana Endeng, Rangas, Kec. Simboro Dan Kepulauan, Kabupaten Mamuju, Sulawesi Barat 91512","Jl. Abdul Malik Pattana Endeng, Rangas, Kec. Simboro Dan Kepulauan, Kabupaten Mamuju",SULAWESI BARAT,91512.0,Indonesia,,,,-2.6587247,118.8479089,https://maps.google.com/?cid=0x0:0x82fdcef4b67452d8,
toko bangunan,Toko Bahan Bangunan,Toko Multi Bangunan,"Jl. Diponegoro No.c14-15, Karema, Kec. Mamuju, Kabupaten Mamuju, Sulawesi Barat 91512","Karema, Kec. Mamuju, Kabupaten Mamuju",SULAWESI BARAT,91512.0,Indonesia,81242298806.0,,,-2.6862595,118.8768742,https://maps.google.com/?cid=0x0:0xd05c6306c1a3648f,
toko bangunan,Toko Bahan Bangunan,Toko. Fajar Bangunan - Mamuju,"8V6G+7WH, Jl. Diponegoro, Karema, Kec. Mamuju, Kabupaten Mamuju, Sulawesi Barat 91512","Jl. Diponegoro, Karema, Kec. Mamuju, Kabupaten Mamuju",SULAWESI BARAT,91512.0,Indonesia,85930982364.0,,,-2.689321,118.8773494,https://maps.google.com/?cid=0x0:0x6d4e74a959cf61d6,
toko bangunan,Toko Elektronik,22 TEKNIK BANGUNAN,"Jl. Abdul Malik Pattana Endeng, Simboro, Kec. Simboro Dan Kepulauan, Kabupaten Mamuju, Sulawesi Barat 91512","Simboro, Kec. Simboro Dan Kepulauan, Kabupaten Mamuju",SULAWESI BARAT,91512.0,Indonesia,81265476914.0,,,-2.6838018,118.8580846,https://maps.google.com/?cid=0x0:0xc78c6920f1d024b5,
toko bangunan,Toko Perlengkapan Rumah,MR.DIY,"Ruko Sudirman, Jl. Jend Sudirman No.63, Simboro, Kec. Simboro Dan Kepulauan, Kabupaten Mamuju, Sulawesi Barat 90512","Jl. Jend Sudirman No.63, Simboro, Kec. Simboro Dan Kepulauan, Kabupaten Mamuju",SULAWESI BARAT,90512.0,Indonesia,2130022789.0,,,-2.6858871,118.8693113,https://maps.google.com/?cid=0x0:0x4729ed80f7f3bf94,
toko bangunan,Toko Bahan Bangunan,sarang bangunan mamuju,"8V5C+JJX, Jl. Soekarno Hatta, Simboro, Kec. Mamuju, Kabupaten Mamuju, Sulawesi Barat 91512","Jl. Soekarno Hatta, Simboro, Kec. Mamuju, Kabupaten Mamuju",SULAWESI BARAT,91512.0,Indonesia,81216991887.0,,,-2.690896,118.8716013,https://maps.google.com/?cid=0x0:0x9caefd20f0bf5456,
toko bangunan,Toko Bahan Bangunan,Toko Delta Bangunan,"8V6H+X4H, Karema, Kec. Mamuju, Kabupaten Mamuju, Sulawesi Barat 91512","Karema, Kec. Mamuju, Kabupaten Mamuju",SULAWESI BARAT,91512.0,Indonesia,81524333299.0,,,-2.6875662,118.8778488,https://maps.google.com/?cid=0x0:0x600c10af92b1cb4f,
toko bangunan,Toko Bahan Bangunan,SUMBER HARAPAN,"Karema, Kec. Mamuju, Kabupaten Mamuju, Sulawesi Barat","Kabupaten Mamuju, Sulawesi Barat",SULAWESI BARAT,,Indonesia,85341996114.0,,,-2.6770968,118.8869489,https://maps.google.com/?cid=0x0:0xf393bd54539f675b,
toko bangunan,Pembangunan Perumahan,Toko Bangunan Putra Tande 5 Tapalang,"Galung, Kec. Tapalang, Kabupaten Mamuju, Sulawesi Barat 91352","Kec. Tapalang, Kabupaten Mamuju",SULAWESI BARAT,91352.0,Indonesia,85397048983.0,,,-2.8651937,118.8702682,https://maps.google.com/?cid=0x0:0x5ece193e63138999,
toko bangunan,Toko Bahan Bangunan,Toko Sinar Bangunan,"M5MG+H8H, Jl. Poros Palu - Mamuju, Tarailu, Kec. Sampaga, Kabupaten Mamuju, Sulawesi Barat 91563","Jl. Poros Palu - Mamuju, Tarailu, Kec. Sampaga, Kabupaten Mamuju",SULAWESI BARAT,91563.0,Indonesia,81373974815.0,,,-2.3160629,119.1758478,https://maps.google.com/?cid=0x0:0xa07dffa29ee1a4e8,
toko bangunan,Toko Bahan Bangunan,Toko Bangunan Sumber Baru,"X8H8+JGX, Salupangkang, Kec. Topoyo, Kabupaten Mamuju, Sulawesi Barat 91563","Salupangkang, Kec. Topoyo, Kabupaten Mamuju",SULAWESI BARAT,91563.0,Indonesia,,,,-2.0208952,119.3163699,https://maps.google.com/?cid=0x0:0x4e386c1bad376796,
toko bangunan,Toko Bahan Bangunan,TOKO FAJAR BANGUNAN MAPILLI,"Jl. Poros Majene - Mamuju, Baru, Kec. Luyo, Kabupaten Polewali Mandar, Sulawesi Barat 91352","Baru, Kec. Luyo, Kabupaten Polewali Mandar",SULAWESI BARAT,91352.0,Indonesia,82292595546.0,,,-3.4189333,119.164406,https://maps.google.com/?cid=0x0:0x89a76f2924e54666,
toko bangunan,Toko Perlengkapan Rumah,Sinar Bangunan Mamuju,"8WG2+3HW, Jl. Mamuju - Kalukku, Mamunyu, Kec. Mamuju, Kabupaten Mamuju, Sulawesi Barat 91511","Jl. Mamuju - Kalukku, Mamunyu, Kec. Mamuju, Kabupaten Mamuju",SULAWESI BARAT,91511.0,Indonesia,,,,-2.6747587,118.9015045,https://maps.google.com/?cid=0x0:0x80ef997a4a349958,
toko bangunan,toko bangunan,Kec. Tapalang,"Kabupaten Mamuju, Sulawesi Barat","Kabupaten Mamuju, Sulawesi Barat",SULAWESI BARAT,,Indonesia,,,,-2.8670322,118.8748621,https://maps.google.com/?cid=0x0:0x7352010099a68a2b,
toko bangunan,Pembangunan Perumahan,Toko Bangunan Putra Tande 5 Tapalang,"Galung, Kec. Tapalang, Kabupaten Mamuju, Sulawesi Barat 91352","Kec. Tapalang, Kabupaten Mamuju",SULAWESI BARAT,91352.0,Indonesia,85397048983.0,,,-2.8651937,118.8702682,https://maps.google.com/?cid=0x0:0x5ece193e63138999,
toko bangunan,Toko Bahan Bangunan,Toko buyung bangunan,"5V55+QW8, Jl. Poros Majene - Mamuju, Tampalang, Kec. Tapalang, Kabupaten Mamuju, Sulawesi Barat 91352","Jl. Poros Majene - Mamuju, Tampalang, Kec. Tapalang, Kabupaten Mamuju",SULAWESI BARAT,91352.0,Indonesia,,,,-2.840579,118.8598397,https://maps.google.com/?cid=0x0:0xdaa7f0c9eeaba7c8,
toko bangunan,Toko,Toko ANEKA Bangunan,"4VR7+HWQ, Jl. Poros Majene - Mamuju, Galung, Kec. Tapalang, Kabupaten Mamuju, Sulawesi Barat 91352","Jl. Poros Majene - Mamuju, Galung, Kec. Tapalang, Kabupaten Mamuju",SULAWESI BARAT,91352.0,Indonesia,,,,-2.8585481,118.8648645,https://maps.google.com/?cid=0x0:0x9fcc56d60010b11b,
toko bangunan,Toko Bahan Bangunan,Toko Putra Tande 4 (Maliaya),"3VGH+G24, Maliaya, Kec. Malunda, Kabupaten Majene, Sulawesi Barat 91453","Maliaya, Kec. Malunda, Kabupaten Majene",SULAWESI BARAT,91453.0,Indonesia,,,,-2.9237401,118.8775631,https://maps.google.com/?cid=0x0:0x99c69afa8b83e91f,
toko bangunan,Tukang las aluminium,Alumina Tapalang,"4VQ8+4GX, Galung, Kec. Tapalang, Kabupaten Mamuju, Sulawesi Barat 91352","Galung, Kec. Tapalang, Kabupaten Mamuju",SULAWESI BARAT,91352.0,Indonesia,85342050838.0,,,-2.861877,118.8664254,https://maps.google.com/?cid=0x0:0x5c59d827d27051cd,
toko bangunan,,Toko cahaya baru,"4RWM+5Q7, Pasabu, Kec. Tapalang Bar., Kabupaten Mamuju, Sulawesi Barat","Kabupaten Mamuju, Sulawesi Barat",SULAWESI BARAT,,Indonesia,,,,-2.8545803,118.8344349,https://maps.google.com/?cid=0x0:0x137e6d23e0cd73b2,
toko bangunan,Toko Bahan Bangunan,Distibutor atap seng spandek dan rangka baja,"4VFH+HQM, Jl. Poros Majene - Mamuju, Kasambang, Kec. Tapalang, Kabupaten Mamuju, Sulawesi Barat 91352","Jl. Poros Majene - Mamuju, Kasambang, Kec. Tapalang, Kabupaten Mamuju",SULAWESI BARAT,91352.0,Indonesia,82189548598.0,,,-2.876042,118.8794139,https://maps.google.com/?cid=0x0:0x3f73f2ca93ec7496,
toko bangunan,Toko Perlengkapan Rumah,Toko MITRA MANDIRI,"4QWR+2G8, Dungkait, Kec. Tapalang Bar., Kabupaten Mamuju, Sulawesi Barat 91352","Dungkait, Kec. Tapalang Bar., Kabupaten Mamuju",SULAWESI BARAT,91352.0,Indonesia,82154652314.0,,,-2.8549664,118.7913408,https://maps.google.com/?cid=0x0:0x9fc5328dc3f8c9c5,
toko bangunan,Toko Bahan Bangunan,Toko Multi Bangunan,"Jl. Diponegoro No.c14-15, Karema, Kec. Mamuju, Kabupaten Mamuju, Sulawesi Barat 91512","Karema, Kec. Mamuju, Kabupaten Mamuju",SULAWESI BARAT,91512.0,Indonesia,81242298806.0,,,-2.6862595,118.8768742,https://maps.google.com/?cid=0x0:0xd05c6306c1a3648f,
toko bangunan,Toko Bahan Bangunan,Toko Harapan Jaya,"Jl. LetJend Hertasning, Binanga, Kec. Mamuju, Kabupaten Mamuju, Sulawesi Barat 91511","Binanga, Kec. Mamuju, Kabupaten Mamuju",SULAWESI BARAT,91511.0,Indonesia,,,,-2.6718353,118.8918529,https://maps.google.com/?cid=0x0:0x4aa8f68af0fe79ed,
toko bangunan,Kios,Toko Bangunan To Tambayako,"Jl. RE Martadinata No.Kel, Simboro, Kec. Simboro Dan Kepulauan, Kab. Mamuju, Sulawesi Barat 91512","Simboro, Kec. Simboro Dan Kepulauan, Kab. Mamuju",SULAWESI BARAT,91512.0,Indonesia,,,,-2.6825789,118.857926,https://maps.google.com/?cid=0x0:0x3b9dad02b3718599,
toko bangunan,Toko Bahan Bangunan,Toko. Fajar Bangunan - Mamuju,"8V6G+7WH, Jl. Diponegoro, Karema, Kec. Mamuju, Kabupaten Mamuju, Sulawesi Barat 91512","Jl. Diponegoro, Karema, Kec. Mamuju, Kabupaten Mamuju",SULAWESI BARAT,91512.0,Indonesia,85930982364.0,,,-2.689321,118.8773494,https://maps.google.com/?cid=0x0:0x6d4e74a959cf61d6,
toko bangunan,Toko Bahan Bangunan,TB PUTRA TANDE BOTTENG,"6VGC+3G8, Botteng, Kec. Simboro Dan Kepulauan, Kabupaten Mamuju, Sulawesi Barat","Kabupaten Mamuju, Sulawesi Barat",SULAWESI BARAT,,Indonesia,,,,-2.7748312,118.8713314,https://maps.google.com/?cid=0x0:0x66b7a9912cc786ad,
toko bangunan,Pembangunan Perumahan,Tapalang,"3VVR+F5M, Taan, Kec. Tapalang, Kabupaten Mamuju, Sulawesi Barat 91352","Taan, Kec. Tapalang, Kabupaten Mamuju",SULAWESI BARAT,91352.0,Indonesia,,,,-2.9060822,118.8918043,https://maps.google.com/?cid=0x0:0xd9d7bfe476bff048,
toko bangunan,toko bangunan,Kec. Tapalang Bar.,"Kabupaten Mamuju, Sulawesi Barat","Kabupaten Mamuju, Sulawesi Barat",SULAWESI BARAT,,Indonesia,,,,-2.8544488,118.8344475,https://maps.google.com/?cid=0x0:0x399150dc9ea10ec1,
toko bangunan,Pembangunan Perumahan,Toko Bangunan Putra Tande 5 Tapalang,"Galung, Kec. Tapalang, Kabupaten Mamuju, Sulawesi Barat 91352","Kec. Tapalang, Kabupaten Mamuju",SULAWESI BARAT,91352.0,Indonesia,85397048983.0,,,-2.8651937,118.8702682,https://maps.google.com/?cid=0x0:0x5ece193e63138999,
toko bangunan,Toko Bahan Bangunan,Toko buyung bangunan,"5V55+QW8, Jl. Poros Majene - Mamuju, Tampalang, Kec. Tapalang, Kabupaten Mamuju, Sulawesi Barat 91352","Jl. Poros Majene - Mamuju, Tampalang, Kec. Tapalang, Kabupaten Mamuju",SULAWESI BARAT,91352.0,Indonesia,,,,-2.840579,118.8598397,https://maps.google.com/?cid=0x0:0xdaa7f0c9eeaba7c8,
toko bangunan,Toko Bahan Bangunan,Toko Makmur 88,"Simboro, Kec. Simboro Dan Kepulauan, Kabupaten Mamuju, Sulawesi Barat 91512","Kec. Simboro Dan Kepulauan, Kabupaten Mamuju",SULAWESI BARAT,91512.0,Indonesia,82195585978.0,,,-2.67092,118.8524302,https://maps.google.com/?cid=0x0:0xc963452732b791b2,
toko bangunan,Toko,Toko ANEKA Bangunan,"4VR7+HWQ, Jl. Poros Majene - Mamuju, Galung, Kec. Tapalang, Kabupaten Mamuju, Sulawesi Barat 91352","Jl. Poros Majene - Mamuju, Galung, Kec. Tapalang, Kabupaten Mamuju",SULAWESI BARAT,91352.0,Indonesia,,,,-2.8585481,118.8648645,https://maps.google.com/?cid=0x0:0x9fcc56d60010b11b,
toko bangunan,Kios,Toko Bangunan To Tambayako,"Jl. RE Martadinata No.Kel, Simboro, Kec. Simboro Dan Kepulauan, Kab. Mamuju, Sulawesi Barat 91512","Simboro, Kec. Simboro Dan Kepulauan, Kab. Mamuju",SULAWESI BARAT,91512.0,Indonesia,,,,-2.6825789,118.857926,https://maps.google.com/?cid=0x0:0x3b9dad02b3718599,
toko bangunan,Toko Perlengkapan Rumah,TB HIGAR BANGUNAN,"Jl. Abdul Malik Pattana Endeng No.kel, Simboro, Kec. Simboro Dan Kepulauan, Kabupaten Mamuju, Sulawesi Barat 91512","Simboro, Kec. Simboro Dan Kepulauan, Kabupaten Mamuju",SULAWESI BARAT,91512.0,Indonesia,81373974815.0,,,-2.6763392,118.8573914,https://maps.google.com/?cid=0x0:0xb4329c8acd4be00d,
toko bangunan,,Toko cahaya baru,"4RWM+5Q7, Pasabu, Kec. Tapalang Bar., Kabupaten Mamuju, Sulawesi Barat","Kabupaten Mamuju, Sulawesi Barat",SULAWESI BARAT,,Indonesia,,,,-2.8545803,118.8344349,https://maps.google.com/?cid=0x0:0x137e6d23e0cd73b2,
toko bangunan,Toko Elektronik,22 TEKNIK BANGUNAN,"Jl. Abdul Malik Pattana Endeng, Simboro, Kec. Simboro Dan Kepulauan, Kabupaten Mamuju, Sulawesi Barat 91512","Simboro, Kec. Simboro Dan Kepulauan, Kabupaten Mamuju",SULAWESI BARAT,91512.0,Indonesia,81265476914.0,,,-2.6838018,118.8580846,https://maps.google.com/?cid=0x0:0xc78c6920f1d024b5,
toko bangunan,Toko Bahan Bangunan,Toko Multi Bangunan,"Jl. Diponegoro No.c14-15, Karema, Kec. Mamuju, Kabupaten Mamuju, Sulawesi Barat 91512","Karema, Kec. Mamuju, Kabupaten Mamuju",SULAWESI BARAT,91512.0,Indonesia,81242298806.0,,,-2.6862595,118.8768742,https://maps.google.com/?cid=0x0:0xd05c6306c1a3648f,
toko bangunan,,Toko Sinar Fajar Tapalang,"4VHG+397, Kasambang, Kec. Tapalang, Kabupaten Mamuju, Sulawesi Barat","Kabupaten Mamuju, Sulawesi Barat",SULAWESI BARAT,,Indonesia,81243021000.0,,,-2.8723352,118.8759119,https://maps.google.com/?cid=0x0:0xb14e9d7cf7333ca9,
toko bangunan,Pemasok Bahan Bangunan,Tb. Mitra Bangunan,"8RRX+G57, Jl. Abdul Malik Pattana Endeng, Rangas, Kec. Simboro Dan Kepulauan, Kabupaten Mamuju, Sulawesi Barat 91512","Jl. Abdul Malik Pattana Endeng, Rangas, Kec. Simboro Dan Kepulauan, Kabupaten Mamuju",SULAWESI BARAT,91512.0,Indonesia,,,,-2.6587247,118.8479089,https://maps.google.com/?cid=0x0:0x82fdcef4b67452d8,
toko bangunan,Toko,Toko bahan bangunan,"8V85+XCC, Jl. RE Martadinata, Simboro, Kec. Simboro Dan Kepulauan, Kabupaten Mamuju, Sulawesi Barat 91512","Jl. RE Martadinata, Simboro, Kec. Simboro Dan Kepulauan, Kabupaten Mamuju",SULAWESI BARAT,91512.0,Indonesia,,,,-2.6825637,118.8584742,https://maps.google.com/?cid=0x0:0x2bd1d4a778526731,
toko bangunan,Toko Bahan Bangunan,Tk. Buana Bangunan,"8V7G+MJJ, Karema, Kec. Mamuju, Kabupaten Mamuju, Sulawesi Barat 91512","Karema, Kec. Mamuju, Kabupaten Mamuju",SULAWESI BARAT,91512.0,Indonesia,82179264696.0,,,-2.6857866,118.8765206,https://maps.google.com/?cid=0x0:0x8cdc46a0e8fa0fe6,
toko bangunan,Tukang las aluminium,Alumina Tapalang,"4VQ8+4GX, Galung, Kec. Tapalang, Kabupaten Mamuju, Sulawesi Barat 91352","Galung, Kec. Tapalang, Kabupaten Mamuju",SULAWESI BARAT,91352.0,Indonesia,85342050838.0,,,-2.861877,118.8664254,https://maps.google.com/?cid=0x0:0x5c59d827d27051cd,
toko bangunan,Toko Perlengkapan Rumah,TOKO BANGUNAN ALMART,"Dusun Sese Tengah, Rangas, Kec. Simboro Dan Kepulauan, Kabupaten Mamuju, Sulawesi Barat 94553","Rangas, Kec. Simboro Dan Kepulauan, Kabupaten Mamuju",SULAWESI BARAT,94553.0,Indonesia,,,,-2.6939517,118.8432367,https://maps.google.com/?cid=0x0:0xd1b294ea71ae1c47,
toko bangunan,Toko Bahan Bangunan,Toko. Fajar Bangunan - Mamuju,"8V6G+7WH, Jl. Diponegoro, Karema, Kec. Mamuju, Kabupaten Mamuju, Sulawesi Barat 91512","Jl. Diponegoro, Karema, Kec. Mamuju, Kabupaten Mamuju",SULAWESI BARAT,91512.0,Indonesia,85930982364.0,,,-2.689321,118.8773494,https://maps.google.com/?cid=0x0:0x6d4e74a959cf61d6,
toko bangunan,Toko Bahan Bangunan,Toko Harapan Jaya,"Jl. LetJend Hertasning, Binanga, Kec. Mamuju, Kabupaten Mamuju, Sulawesi Barat 91511","Binanga, Kec. Mamuju, Kabupaten Mamuju",SULAWESI BARAT,91511.0,Indonesia,,,,-2.6718353,118.8918529,https://maps.google.com/?cid=0x0:0x4aa8f68af0fe79ed,
toko bangunan,Toko Perlengkapan Rumah,Toko Menara Tomakaka,"Jl. Husni Thamrin No.46, Rimuku, Kec. Mamuju, Kabupaten Mamuju, Sulawesi Barat 91511","Rimuku, Kec. Mamuju, Kabupaten Mamuju",SULAWESI BARAT,91511.0,Indonesia,,,,-2.6850967,118.8933375,https://maps.google.com/?cid=0x0:0xa3d8445cf839e977,
toko bangunan,Toko Bahan Bangunan,Toko Delta Bangunan,"8V6H+X4H, Karema, Kec. Mamuju, Kabupaten Mamuju, Sulawesi Barat 91512","Karema, Kec. Mamuju, Kabupaten Mamuju",SULAWESI BARAT,91512.0,Indonesia,81524333299.0,,,-2.6875662,118.8778488,https://maps.google.com/?cid=0x0:0x600c10af92b1cb4f,
toko bangunan,Toko Alat Listrik,Toko Mitra Listrik,"Karema, Kec. Mamuju, Kabupaten Mamuju, Sulawesi Barat 91512","Kec. Mamuju, Kabupaten Mamuju",SULAWESI BARAT,91512.0,Indonesia,81216513956.0,,,-2.6836678,118.8758437,https://maps.google.com/?cid=0x0:0x9b2d83aba9467b91,
toko bangunan,toko bangunan,Tommo,"Kec. Tommo, Kabupaten Mamuju, Sulawesi Barat","Kabupaten Mamuju, Sulawesi Barat",SULAWESI BARAT,,Indonesia,,,,-2.2941884,119.2437011,https://maps.google.com/?cid=0x0:0x502d34d075f4f7b1,
toko bangunan,Toko Bahan Bangunan,Artomoro Primatama,"P6JM+Q2, Kuo, Kec. Pangale, Kabupaten Mamuju Tengah, Sulawesi Barat","Kabupaten Mamuju Tengah, Sulawesi Barat",SULAWESI BARAT,,Indonesia,,,,-2.2680637,119.2325927,https://maps.google.com/?cid=0x0:0xe695be730ce858c4,
toko bangunan,Kios,Toko Bangunan To Tambayako,"Jl. RE Martadinata No.Kel, Simboro, Kec. Simboro Dan Kepulauan, Kab. Mamuju, Sulawesi Barat 91512","Simboro, Kec. Simboro Dan Kepulauan, Kab. Mamuju",SULAWESI BARAT,91512.0,Indonesia,,,,-2.6825789,118.857926,https://maps.google.com/?cid=0x0:0x3b9dad02b3718599,
toko bangunan,Toko Perlengkapan Rumah,Toko Menara Tomakaka,"Jl. Husni Thamrin No.46, Rimuku, Kec. Mamuju, Kabupaten Mamuju, Sulawesi Barat 91511","Rimuku, Kec. Mamuju, Kabupaten Mamuju",SULAWESI BARAT,91511.0,Indonesia,,,,-2.6850967,118.8933375,https://maps.google.com/?cid=0x0:0xa3d8445cf839e977,
toko bangunan,Toko Bahan Bangunan,Toko Multi Bangunan,"Jl. Diponegoro No.c14-15, Karema, Kec. Mamuju, Kabupaten Mamuju, Sulawesi Barat 91512","Karema, Kec. Mamuju, Kabupaten Mamuju",SULAWESI BARAT,91512.0,Indonesia,81242298806.0,,,-2.6862595,118.8768742,https://maps.google.com/?cid=0x0:0xd05c6306c1a3648f,
toko bangunan,Toko Bahan Bangunan,Toko Makmur Bangunan,"Jln. Jen. A. Yani No. 001, Bunde, Kec. Sampaga, Kabupaten Mamuju, Sulawesi Barat 91563","Bunde, Kec. Sampaga, Kabupaten Mamuju",SULAWESI BARAT,91563.0,Indonesia,82259648049.0,,,-2.3398082,119.1750407,https://maps.google.com/?cid=0x0:0x901692040dff7a42,
toko bangunan,Toko Bahan Bangunan,Arto moro,"M8M2+6CW, Campaloga, Kec. Tommo, Kabupaten Mamuju, Sulawesi Barat","Kabupaten Mamuju, Sulawesi Barat",SULAWESI BARAT,,Indonesia,,,,-2.316898,119.301091,https://maps.google.com/?cid=0x0:0x76191615fa120444,
toko bangunan,Toko Bahan Bangunan,Toko Bangunan Sumber Baru,"X8H8+JGX, Salupangkang, Kec. Topoyo, Kabupaten Mamuju, Sulawesi Barat 91563","Salupangkang, Kec. Topoyo, Kabupaten Mamuju",SULAWESI BARAT,91563.0,Indonesia,,,,-2.0208952,119.3163699,https://maps.google.com/?cid=0x0:0x4e386c1bad376796,
toko bangunan,Toko Bahan Bangunan,Toko Makmur 88,"Simboro, Kec. Simboro Dan Kepulauan, Kabupaten Mamuju, Sulawesi Barat 91512","Kec. Simboro Dan Kepulauan, Kabupaten Mamuju",SULAWESI BARAT,91512.0,Indonesia,82195585978.0,,,-2.67092,118.8524302,https://maps.google.com/?cid=0x0:0xc963452732b791b2,
toko bangunan,Pembangunan Perumahan,Toko Bangunan Putra Tande 5 Tapalang,"Galung, Kec. Tapalang, Kabupaten Mamuju, Sulawesi Barat 91352","Kec. Tapalang, Kabupaten Mamuju",SULAWESI BARAT,91352.0,Indonesia,85397048983.0,,,-2.8651937,118.8702682,https://maps.google.com/?cid=0x0:0x5ece193e63138999,
toko bangunan,Toko Bahan Bangunan,Berkah Abadi Topoyo,"Tobadak, Kec. Tobadak, Kabupaten Mamuju, Sulawesi Barat 91563","Kec. Tobadak, Kabupaten Mamuju",SULAWESI BARAT,91563.0,Indonesia,82173389240.0,,,-2.0774095,119.2913376,https://maps.google.com/?cid=0x0:0x372a51d92d7114a0,
toko bangunan,Toko Elektronik,22 TEKNIK BANGUNAN,"Jl. Abdul Malik Pattana Endeng, Simboro, Kec. Simboro Dan Kepulauan, Kabupaten Mamuju, Sulawesi Barat 91512","Simboro, Kec. Simboro Dan Kepulauan, Kabupaten Mamuju",SULAWESI BARAT,91512.0,Indonesia,81265476914.0,,,-2.6838018,118.8580846,https://maps.google.com/?cid=0x0:0xc78c6920f1d024b5,
toko bangunan,Toko Bahan Bangunan,Toko buyung bangunan,"5V55+QW8, Jl. Poros Majene - Mamuju, Tampalang, Kec. Tapalang, Kabupaten Mamuju, Sulawesi Barat 91352","Jl. Poros Majene - Mamuju, Tampalang, Kec. Tapalang, Kabupaten Mamuju",SULAWESI BARAT,91352.0,Indonesia,,,,-2.840579,118.8598397,https://maps.google.com/?cid=0x0:0xdaa7f0c9eeaba7c8,
toko bangunan,Toko Bahan Bangunan,Toko Bangunan Putra Tande Lombang-Lombang,"C2GP+7RQ, lombang-lombang, Sinyonyoi, Kec. Kalukku, Kabupaten Mamuju, Sulawesi Barat 91561","lombang-lombang, Sinyonyoi, Kec. Kalukku, Kabupaten Mamuju",SULAWESI BARAT,91561.0,Indonesia,82398888856.0,,,-2.5742542,119.0368658,https://maps.google.com/?cid=0x0:0xfd16ae7e2f3692d9,
toko bangunan,Toko Bahan Bangunan,Toko Sinar Bangunan,"M5MG+H8H, Jl. Poros Palu - Mamuju, Tarailu, Kec. Sampaga, Kabupaten Mamuju, Sulawesi Barat 91563","Jl. Poros Palu - Mamuju, Tarailu, Kec. Sampaga, Kabupaten Mamuju",SULAWESI BARAT,91563.0,Indonesia,81373974815.0,,,-2.3160629,119.1758478,https://maps.google.com/?cid=0x0:0xa07dffa29ee1a4e8,
toko bangunan,Grosir,Toko bangunan 54 dua,"Benteng, Kec. Tobadak, Kabupaten Mamuju Tengah, Sulawesi Barat 91563","Kec. Tobadak, Kabupaten Mamuju Tengah",SULAWESI BARAT,91563.0,Indonesia,81264671628.0,,,-2.0790648,119.526939,https://maps.google.com/?cid=0x0:0xc2fa5e82fe9b5180,
toko bangunan,Toko,Toko Bangunan Satondo'ta,"V866+WC7, Sumarorong, Kec. Sumarorong, Kabupaten Mamasa, Sulawesi Barat 91361","Sumarorong, Kec. Sumarorong, Kabupaten Mamasa",SULAWESI BARAT,91361.0,Indonesia,81346669777.0,,,-3.1377039,119.311061,https://maps.google.com/?cid=0x0:0x7058556c45174885,
toko bangunan,Toko Bahan Bangunan,TB CAHAYA BANGUNAN,"Tobadak, Kec. Tobadak, Kabupaten Mamuju, Sulawesi Barat 91563","Kec. Tobadak, Kabupaten Mamuju",SULAWESI BARAT,91563.0,Indonesia,82299999951.0,,,-2.0751897,119.2902612,https://maps.google.com/?cid=0x0:0xab184661abda07b4,
toko bangunan,Toko Bahan Bangunan,TB CAHAYA 77 BANGUNAN,"Topoyo, Kec. Topoyo, Kabupaten Mamuju, Sulawesi Barat 91563","Kec. Topoyo, Kabupaten Mamuju",SULAWESI BARAT,91563.0,Indonesia,82293167421.0,,,-2.0681696,119.2854761,https://maps.google.com/?cid=0x0:0xa8b65129702b0561,
toko bangunan,Toko,Toko Sumber Sakti,"8V8G+F84, Jl. Diponegoro, Karema, Kec. Mamuju, Kabupaten Mamuju, Sulawesi Barat 91511","Jl. Diponegoro, Karema, Kec. Mamuju, Kabupaten Mamuju",SULAWESI BARAT,91511.0,Indonesia,,,,-2.6838659,118.875817,https://maps.google.com/?cid=0x0:0x40fead32aa2cf7c4,
toko bangunan,Toko Bahan Bangunan,Toko Bangunan depok Alat Teknik dan Safety Citra,"Jl. Margonda No.472, Pondok Cina, Kecamatan Beji, Kota Depok, Jawa Barat 16424","Pondok Cina, Kecamatan Beji, Kota Depok",SULAWESI BARAT,16424.0,Indonesia,85710032801.0,,,-6.3656692,106.8336797,https://maps.google.com/?cid=0x0:0xcff3501c7ef59783,
toko bangunan,Pemasok Bahan Bangunan,Tirta Bangunan Cilangkap Depok,"Jalan Raya Jakarta - Bogor No.Km. 39 No. 06, Cilangkap, Kec. Tapos, Kota Depok, Jawa Barat 16458","Cilangkap, Kec. Tapos, Kota Depok",SULAWESI BARAT,16458.0,Indonesia,218750160.0,,,-6.443838,106.853566,https://maps.google.com/?cid=0x0:0xf553fc838aae54b3,
toko bangunan,Toko Perlengkapan Rumah,TB HIGAR BANGUNAN,"Jl. Abdul Malik Pattana Endeng No.kel, Simboro, Kec. Simboro Dan Kepulauan, Kabupaten Mamuju, Sulawesi Barat 91512","Simboro, Kec. Simboro Dan Kepulauan, Kabupaten Mamuju",SULAWESI BARAT,91512.0,Indonesia,81373974815.0,,,-2.6763392,118.8573914,https://maps.google.com/?cid=0x0:0xb4329c8acd4be00d,
toko bangunan,Toko Bahan Bangunan,toko bangunan TOTOMARIO,"indomaret, Jl. Palmerah Barat seberang No.54, RT.1/RW.15, Palmerah, Kec. Palmerah, Kota Jakarta Barat, Daerah Khusus Ibukota Jakarta 11480","Jl. Palmerah Barat seberang No.54, RT.1/RW.15, Palmerah, Kec. Palmerah, Kota Jakarta Barat",SULAWESI BARAT,11480.0,Indonesia,,,,-6.2065563,106.7844964,https://maps.google.com/?cid=0x0:0x7b3771f23ffe4938,
toko bangunan,Toko Bahan Bangunan,TB. Artomoro,"Jl. Fajar Raya No.6 3, RT.3/RW.8, Kartini, Kecamatan Sawah Besar, Kota Jakarta Pusat, Daerah Khusus Ibukota Jakarta 10750","RT.3/RW.8, Kartini, Kecamatan Sawah Besar, Kota Jakarta Pusat",SULAWESI BARAT,10750.0,Indonesia,216395431.0,,,-6.1543141,106.8315284,https://maps.google.com/?cid=0x0:0x5a920b3408388cd9,
toko bangunan,Toko Perlengkapan Rumah,TB. Multi Talenta Perkasa,"Jl. Raya Tapos No.78, RT.002/RW.20, Tapos, Kec. Tapos, Kota Depok, Jawa Barat 16457","RT.002/RW.20, Tapos, Kec. Tapos, Kota Depok",SULAWESI BARAT,16457.0,Indonesia,89658111192.0,,,-6.4067655,106.8904566,https://maps.google.com/?cid=0x0:0x59296ee14817d6d7,
toko bangunan,Toserba,Toko Bangunan Mulia,"Jalan B raya No.mor 1, RT.13/RW.4, Karang Anyar, Kecamatan Sawah Besar, Kota Jakarta Pusat, Daerah Khusus Ibukota Jakarta 10740","RT.13/RW.4, Karang Anyar, Kecamatan Sawah Besar, Kota Jakarta Pusat",SULAWESI BARAT,10740.0,Indonesia,81383340168.0,,,-6.1555695,106.8311126,https://maps.google.com/?cid=0x0:0x1c8ca5bf07717326,
toko bangunan,Toko Bahan Bangunan,TOKO BANGUNAN MTM,"Pd. Tim., Jl. Lili Raya No.31, RT.005/RW.003, Pengasinan, Kec. Rawalumbu, Kota Bks, Jawa Barat 17510","Jl. Lili Raya No.31, RT.005/RW.003, Pengasinan, Kec. Rawalumbu, Kota Bks",SULAWESI BARAT,17510.0,Indonesia,,,,-6.2698961,107.0163424,https://maps.google.com/?cid=0x0:0x8716cc14126c3a26,
hardware store,Toko Bahan Bangunan,Toko. Fajar Bangunan - Mamuju,"8V6G+7WH, Jl. Diponegoro, Karema, Kec. Mamuju, Kabupaten Mamuju, Sulawesi Barat 91512","Jl. Diponegoro, Karema, Kec. Mamuju, Kabupaten Mamuju",SULAWESI BARAT,91512.0,Indonesia,85930982364.0,,,-2.689321,118.8773494,https://maps.google.com/?cid=0x0:0x6d4e74a959cf61d6,
hardware store,Toko Bahan Bangunan,Toko Multi Bangunan,"Jl. Diponegoro No.c14-15, Karema, Kec. Mamuju, Kabupaten Mamuju, Sulawesi Barat 91512","Karema, Kec. Mamuju, Kabupaten Mamuju",SULAWESI BARAT,91512.0,Indonesia,81242298806.0,,,-2.6862595,118.8768742,https://maps.google.com/?cid=0x0:0xd05c6306c1a3648f,
hardware store,Toko Bahan Bangunan,Buana Fadly,"6C33+824, Karossa, Kec. Karossa, Kabupaten Mamuju, Sulawesi Barat 91512","Karossa, Kec. Karossa, Kabupaten Mamuju",SULAWESI BARAT,91512.0,Indonesia,85395764567.0,,,-1.7967481,119.4025853,https://maps.google.com/?cid=0x0:0xd7bc2ddb9906de73,
hardware store,hardware store,Kec. Bonehau,"Kabupaten Mamuju, Sulawesi Barat","Kabupaten Mamuju, Sulawesi Barat",SULAWESI BARAT,,Indonesia,,,,-2.4998873,119.3481971,https://maps.google.com/?cid=0x0:0x506e4572a22ede64,
hardware store,Toko Elektronik,Nusantara Teknik,"Jl. Poros Mamuju - Topoyo, Kalukku, Kec. Kalukku, Kabupaten Mamuju, Sulawesi Barat 91561","Kalukku, Kec. Kalukku, Kabupaten Mamuju",SULAWESI BARAT,91561.0,Indonesia,8124214996.0,,,-2.5471709,119.064666,https://maps.google.com/?cid=0x0:0xcfece9367ec47efa,
hardware store,Toko Bahan Bangunan,TB.Putra Tande Belang-belang,"H44Q+6P, Papalang, Kec. Papalang, Kabupaten Mamuju, Sulawesi Barat","Kabupaten Mamuju, Sulawesi Barat",SULAWESI BARAT,,Indonesia,,,,-2.4444634,119.1393672,https://maps.google.com/?cid=0x0:0x74a6e4bee0ea180d,
hardware store,Pusat Perbelanjaan,Toko bangunan argadinata,"Lemo-Lemo, Kec. Pangale, Kabupaten Mamuju, Sulawesi Barat 91462","Kec. Pangale, Kabupaten Mamuju",SULAWESI BARAT,91462.0,Indonesia,82331313118.0,,,-2.2972382,119.17566,https://maps.google.com/?cid=0x0:0x9eb6c7242139d7af,
hardware store,Toko Elektronik,Nusantara Teknik,"Jl. Poros Mamuju - Topoyo, Kalukku, Kec. Kalukku, Kabupaten Mamuju, Sulawesi Barat 91561","Kalukku, Kec. Kalukku, Kabupaten Mamuju",SULAWESI BARAT,91561.0,Indonesia,8124214996.0,,,-2.5471709,119.064666,https://maps.google.com/?cid=0x0:0xcfece9367ec47efa,
hardware store,Toko Elektronik,Toko Makmur Teknik Jaya,"Pasar tasiu, Pasar sentral, tasiu ruko ujung No.12, Kalukku, Kec. Kalukku, Kabupaten Mamuju, Sulawesi Barat 91561","Pasar sentral, tasiu ruko ujung No.12, Kalukku, Kec. Kalukku, Kabupaten Mamuju",SULAWESI BARAT,91561.0,Indonesia,,,,-2.5449919,119.067491,https://maps.google.com/?cid=0x0:0x3f231411bbea0c7d,
hardware store,hardware store,Sulawesi Barat 91561,"Kec. Kalukku, Kabupaten Mamuju, Sulawesi Barat","Kabupaten Mamuju, Sulawesi Barat",SULAWESI BARAT,,Indonesia,,,,-2.6024479,119.0925356,https://maps.google.com/?cid=0x0:0x812ca59188edc0c9,
hardware store,Toko Elektronik,Toko Arhan Elektronik Tasiu Kalukku,"Jl. Poros Mamuju - Topoyo, Sinyonyoi, Kec. Kalukku, Kabupaten Mamuju, Sulawesi Barat 91561","Sinyonyoi, Kec. Kalukku, Kabupaten Mamuju",SULAWESI BARAT,91561.0,Indonesia,87860208190.0,,,-2.5767851,119.0368015,https://maps.google.com/?cid=0x0:0x898164cbd602e5d4,
hardware store,Toko Bahan Bangunan,TB Polewalimaju,"Jl. Mamuju - Kalukku No.184, Bebanga, Kec. Kalukku, Kabupaten Mamuju, Sulawesi Barat 91561","Bebanga, Kec. Kalukku, Kabupaten Mamuju",SULAWESI BARAT,91561.0,Indonesia,,,,-2.5990823,119.021633,https://maps.google.com/?cid=0x0:0x9cf0f24d44de8905,
hardware store,Toko Bahan Bangunan,Toko Bangunan Bintang Leo,"C24H+X2F, Kampung Jati, Sinyonyoi, Kec. Kalukku, Kabupaten Mamuju, Sulawesi Barat 91561","Kampung Jati, Sinyonyoi, Kec. Kalukku, Kabupaten Mamuju",SULAWESI BARAT,91561.0,Indonesia,,,,-2.5925713,119.0275872,https://maps.google.com/?cid=0x0:0x420820eb805755ca,
hardware store,Pemasok Bahan Bangunan,Fajar Bangunan Baru Tasiu,"F338+M82, Kalukku, Kec. Kalukku, Kabupaten Mamuju, Sulawesi Barat 91561","Kalukku, Kec. Kalukku, Kabupaten Mamuju",SULAWESI BARAT,91561.0,Indonesia,,,,-2.545874,119.0657791,https://maps.google.com/?cid=0x0:0x7ef75969b9227b99,
hardware store,Toko Swalayan,TOKO NABILA TASIU KALUKKU MAMUJU,"Kalukku, Kec. Kalukku, Kabupaten Mamuju, Sulawesi Barat 91561","Kec. Kalukku, Kabupaten Mamuju",SULAWESI BARAT,91561.0,Indonesia,,,,-2.54164,119.0706545,https://maps.google.com/?cid=0x0:0x4af65d387799b94d,
hardware store,Toko Bahan Bangunan,TB SUMBER JAYA,"C3X7+C35, Jl. Poros Majene - Mamuju, Kalukku, Kec. Kalukku, Kabupaten Mamuju, Sulawesi Barat 91561","Jl. Poros Majene - Mamuju, Kalukku, Kec. Kalukku, Kabupaten Mamuju",SULAWESI BARAT,91561.0,Indonesia,,,,-2.5514315,119.0627791,https://maps.google.com/?cid=0x0:0x467badbf26676e1,
hardware store,hardware store,Sulawesi Barat 91562,"Kabupaten Mamuju, Sulawesi Barat","Kabupaten Mamuju, Sulawesi Barat",SULAWESI BARAT,,Indonesia,,,,-2.4874603,119.5107708,https://maps.google.com/?cid=0x0:0xaf7e6391455a9f6e,
hardware store,Toko Swalayan,Toko Aliyah Berkah,"Tamejarra, Kec. Tommo, Kabupaten Mamuju, Sulawesi Barat 91562","Kec. Tommo, Kabupaten Mamuju",SULAWESI BARAT,91562.0,Indonesia,85213171810.0,,,-2.2807753,119.3050597,https://maps.google.com/?cid=0x0:0x17ee7186e11af3b3,
hardware store,Pusat Perbelanjaan,Toko bangunan argadinata,"Lemo-Lemo, Kec. Pangale, Kabupaten Mamuju, Sulawesi Barat 91462","Kec. Pangale, Kabupaten Mamuju",SULAWESI BARAT,91462.0,Indonesia,82331313118.0,,,-2.2972382,119.17566,https://maps.google.com/?cid=0x0:0x9eb6c7242139d7af,
hardware store,Toko Perlengkapan Rumah,TOKO FAJAR HARAPAN Nippon paint topoyo,"W77P+HCW, Jl. Poros Majene - Mamuju, Tobadak, Kec. Tobadak, Kabupaten Mamuju Tengah, Sulawesi Barat 91563","Jl. Poros Majene - Mamuju, Tobadak, Kec. Tobadak, Kabupaten Mamuju Tengah",SULAWESI BARAT,91563.0,Indonesia,81373974815.0,,,-2.0860076,119.2860649,https://maps.google.com/?cid=0x0:0x60e2fb2e2ac626e8,
hardware store,Toko Elektronik,Nusantara Teknik,"Jl. Poros Mamuju - Topoyo, Kalukku, Kec. Kalukku, Kabupaten Mamuju, Sulawesi Barat 91561","Kalukku, Kec. Kalukku, Kabupaten Mamuju",SULAWESI BARAT,91561.0,Indonesia,8124214996.0,,,-2.5471709,119.064666,https://maps.google.com/?cid=0x0:0xcfece9367ec47efa,
hardware store,Toko Bahan Bangunan,Arto moro,"M8M2+6CW, Campaloga, Kec. Tommo, Kabupaten Mamuju, Sulawesi Barat","Kabupaten Mamuju, Sulawesi Barat",SULAWESI BARAT,,Indonesia,,,,-2.316898,119.301091,https://maps.google.com/?cid=0x0:0x76191615fa120444,
hardware store,Toko Alat Tulis Kantor,Sekawan print,"M5PG+WM8, Tarailu, Kec. Sampaga, Kabupaten Mamuju, Sulawesi Barat 91563","Tarailu, Kec. Sampaga, Kabupaten Mamuju",SULAWESI BARAT,91563.0,Indonesia,85240563818.0,,,-2.3127081,119.1767144,https://maps.google.com/?cid=0x0:0xa59cc67e3d321e9d,
hardware store,Toko Bahan Bangunan,TB CAHAYA 77 BANGUNAN,"Topoyo, Kec. Topoyo, Kabupaten Mamuju, Sulawesi Barat 91563","Kec. Topoyo, Kabupaten Mamuju",SULAWESI BARAT,91563.0,Indonesia,82293167421.0,,,-2.0681696,119.2854761,https://maps.google.com/?cid=0x0:0xa8b65129702b0561,
hardware store,Toko Bahan Bangunan,TB CAHAYA BANGUNAN,"Tobadak, Kec. Tobadak, Kabupaten Mamuju, Sulawesi Barat 91563","Kec. Tobadak, Kabupaten Mamuju",SULAWESI BARAT,91563.0,Indonesia,82299999951.0,,,-2.0751897,119.2902612,https://maps.google.com/?cid=0x0:0xab184661abda07b4,
hardware store,Toko Bahan Bangunan,kalumpang hardware,"21, Kampung Baru Sejantung, Kampung Baru Kalumpang, 44100 Kerling, Selangor, Malaysia",Kerling,SULAWESI BARAT,44100.0,Indonesia,,,,3.6379944,101.570224,https://maps.google.com/?cid=0x0:0x6d30d2ef668a0bf9,
hardware store,Toko Bahan Bangunan,Lum Seng Enterprise,"29, KAMPUNG PASIR PUTIH, JALAN BESAR, Kalumpang, 44100, Selangor, Malaysia","KAMPUNG PASIR PUTIH, JALAN BESAR, Kalumpang,",SULAWESI BARAT,44100.0,Indonesia,60360491548.0,,,3.6373888,101.573601,https://maps.google.com/?cid=0x0:0xaf9584bf66eaae39,
hardware store,Pembangunan Perumahan,Toko Bangunan Putra Tande 5 Tapalang,"Galung, Kec. Tapalang, Kabupaten Mamuju, Sulawesi Barat 91352","Kec. Tapalang, Kabupaten Mamuju",SULAWESI BARAT,91352.0,Indonesia,85397048983.0,,,-2.8651937,118.8702682,https://maps.google.com/?cid=0x0:0x5ece193e63138999,
hardware store,Pembangunan Perumahan,Putra Tande 5 House,"4VFH+W9W, Jl. Poros Majene - Mamuju, Kasambang, Kec. Tapalang, Kabupaten Mamuju, Sulawesi Barat 91352","Jl. Poros Majene - Mamuju, Kasambang, Kec. Tapalang, Kabupaten Mamuju",SULAWESI BARAT,91352.0,Indonesia,,,,-2.8747669,118.8781707,https://maps.google.com/?cid=0x0:0x12b45f830bc201ea,
hardware store,hardware store,Sulawesi Barat 91511,"Kabupaten Mamuju, Sulawesi Barat","Kabupaten Mamuju, Sulawesi Barat",SULAWESI BARAT,,Indonesia,,,,-2.728111,118.9761519,https://maps.google.com/?cid=0x0:0x3f347dc6f3833aaf,
hardware store,Toko Perlengkapan Rumah,MR.DIY,"Ruko Sudirman, Jl. Jend Sudirman No.63, Simboro, Kec. Simboro Dan Kepulauan, Kabupaten Mamuju, Sulawesi Barat 90512","Jl. Jend Sudirman No.63, Simboro, Kec. Simboro Dan Kepulauan, Kabupaten Mamuju",SULAWESI BARAT,90512.0,Indonesia,2130022789.0,,,-2.6858871,118.8693113,https://maps.google.com/?cid=0x0:0x4729ed80f7f3bf94,
hardware store,Toko Alat Listrik,Toko Mitra Listrik,"Karema, Kec. Mamuju, Kabupaten Mamuju, Sulawesi Barat 91512","Kec. Mamuju, Kabupaten Mamuju",SULAWESI BARAT,91512.0,Indonesia,81216513956.0,,,-2.6836678,118.8758437,https://maps.google.com/?cid=0x0:0x9b2d83aba9467b91,
hardware store,Toko,Toko Sumber Sakti,"8V8G+F84, Jl. Diponegoro, Karema, Kec. Mamuju, Kabupaten Mamuju, Sulawesi Barat 91511","Jl. Diponegoro, Karema, Kec. Mamuju, Kabupaten Mamuju",SULAWESI BARAT,91511.0,Indonesia,,,,-2.6838659,118.875817,https://maps.google.com/?cid=0x0:0x40fead32aa2cf7c4,
hardware store,Pemasok Bahan Bangunan,UD. MITRA MAJU,"8WPF+63W, Jl. Mamuju - Kalukku, Bambu, Kec. Mamuju, Kabupaten Mamuju, Sulawesi Barat 91511","Jl. Mamuju - Kalukku, Bambu, Kec. Mamuju, Kabupaten Mamuju",SULAWESI BARAT,91511.0,Indonesia,85299905145.0,,,-2.6643839,118.9227115,https://maps.google.com/?cid=0x0:0x7f53f6835d2cbcba,
hardware store,Toko Bahan Bangunan,Toko Usaha Maju,"Jl. Andi Dai No.66, Binanga, Kec. Mamuju, Kabupaten Mamuju, Sulawesi Barat 91511","Binanga, Kec. Mamuju, Kabupaten Mamuju",SULAWESI BARAT,91511.0,Indonesia,81242225181.0,,,-2.6719505,118.8959849,https://maps.google.com/?cid=0x0:0xce686b7c9c65b,
hardware store,Toko Bahan Bangunan,Toko Tiga Mamuju,"Jalan Poros Mamuju - Kalukku Tumuki, Bambu, Kec. Mamuju, Kabupaten Mamuju, Sulawesi Barat 91511","Bambu, Kec. Mamuju, Kabupaten Mamuju",SULAWESI BARAT,91511.0,Indonesia,85299905145.0,,,-2.669031,118.9214052,https://maps.google.com/?cid=0x0:0xfe2c9a641105daf,
hardware store,Toko Perlengkapan Rumah,MR DIY MAMUJU BINANGA,"Jl. Yos Sudarso, Binanga, Kec. Mamuju, Kabupaten Mamuju, Sulawesi Barat","Kabupaten Mamuju, Sulawesi Barat",SULAWESI BARAT,,Indonesia,,,,-2.6688473,118.8926806,https://maps.google.com/?cid=0x0:0x6bff05aa8a536272,
hardware store,Toko Bahan Bangunan,Toko Multi Bangunan,"Jl. Diponegoro No.c14-15, Karema, Kec. Mamuju, Kabupaten Mamuju, Sulawesi Barat 91512","Karema, Kec. Mamuju, Kabupaten Mamuju",SULAWESI BARAT,91512.0,Indonesia,81242298806.0,,,-2.6862595,118.8768742,https://maps.google.com/?cid=0x0:0xd05c6306c1a3648f,
hardware store,Toko Bahan Bangunan,Toko Harapan Jaya,"Jl. LetJend Hertasning, Binanga, Kec. Mamuju, Kabupaten Mamuju, Sulawesi Barat 91511","Binanga, Kec. Mamuju, Kabupaten Mamuju",SULAWESI BARAT,91511.0,Indonesia,,,,-2.6718353,118.8918529,https://maps.google.com/?cid=0x0:0x4aa8f68af0fe79ed,
hardware store,Toko Bahan Bangunan,Fajar Mas Toko,"8VGQ+HV8, Komplek Pasar Sentral, Simboro, Kec. Mamuju, Kabupaten Mamuju, Sulawesi Barat 91811","Komplek Pasar Sentral, Simboro, Kec. Mamuju, Kabupaten Mamuju",SULAWESI BARAT,91811.0,Indonesia,42621498.0,,,-2.6735892,118.8897077,https://maps.google.com/?cid=0x0:0x25648f8d214d5e5b,
hardware store,Toko Bahan Bangunan,Toko Delta Bangunan,"8V6H+X4H, Karema, Kec. Mamuju, Kabupaten Mamuju, Sulawesi Barat 91512","Karema, Kec. Mamuju, Kabupaten Mamuju",SULAWESI BARAT,91512.0,Indonesia,81524333299.0,,,-2.6875662,118.8778488,https://maps.google.com/?cid=0x0:0x600c10af92b1cb4f,
hardware store,Toko Bahan Bangunan,Toko Bangunan 79,"8V8J+3MF, Karema, Kec. Mamuju, Kabupaten Mamuju, Sulawesi Barat 91511","Karema, Kec. Mamuju, Kabupaten Mamuju",SULAWESI BARAT,91511.0,Indonesia,,,,-2.684817,118.8816695,https://maps.google.com/?cid=0x0:0x101d0b0f58da7e81,
hardware store,Toko Pakaian,Cv.cahaya Sukses Mandiri,"8VCW+QRH, Binanga, Kec. Mamuju, Kabupaten Mamuju, Sulawesi Barat 91511","Binanga, Kec. Mamuju, Kabupaten Mamuju",SULAWESI BARAT,91511.0,Indonesia,85242437676.0,,,-2.6780509,118.8971178,https://maps.google.com/?cid=0x0:0x9b5a91cf47ad5d26,
hardware store,Toko Elektronik,Toko ahon elektronik,"Jl Jl. Diponegoro, Karema, Kec. Mamuju, Kabupaten Mamuju, Sulawesi Barat 91512","Karema, Kec. Mamuju, Kabupaten Mamuju",SULAWESI BARAT,91512.0,Indonesia,,,,-2.6876098,118.877146,https://maps.google.com/?cid=0x0:0xab84d87297b7d46a,
hardware store,Toko Bahan Bangunan,TB Polewalimaju,"Jl. Mamuju - Kalukku No.184, Bebanga, Kec. Kalukku, Kabupaten Mamuju, Sulawesi Barat 91561","Bebanga, Kec. Kalukku, Kabupaten Mamuju",SULAWESI BARAT,91561.0,Indonesia,,,,-2.5990823,119.021633,https://maps.google.com/?cid=0x0:0x9cf0f24d44de8905,
hardware store,Toko Bahan Bangunan,Ud Sentral Jaya,"Binanga, Kec. Mamuju, Kabupaten Mamuju, Sulawesi Barat","Kabupaten Mamuju, Sulawesi Barat",SULAWESI BARAT,,Indonesia,82188708700.0,,,-2.6720221,118.8918978,https://maps.google.com/?cid=0x0:0xa909bb9558006e49,
hardware store,Toko Elektronik,Toko Devin Elektronik,"Karema, Jl. Diponegoro, Karema, Kec. Mamuju, Kabupaten Mamuju, Sulawesi Barat 91512","Jl. Diponegoro, Karema, Kec. Mamuju, Kabupaten Mamuju",SULAWESI BARAT,91512.0,Indonesia,81241171875.0,,,-2.686005,118.8766804,https://maps.google.com/?cid=0x0:0xda457cfa07caa2b1,
hardware store,Toko Bahan Bangunan,Tk. Buana Bangunan,"8V7G+MJJ, Karema, Kec. Mamuju, Kabupaten Mamuju, Sulawesi Barat 91512","Karema, Kec. Mamuju, Kabupaten Mamuju",SULAWESI BARAT,91512.0,Indonesia,82179264696.0,,,-2.6857866,118.8765206,https://maps.google.com/?cid=0x0:0x8cdc46a0e8fa0fe6,
hardware store,Toko Pakaian,Owns store mamuju,"Jajan, Jl. Pababari No.79, Karema, Kec. Mamuju, Kabupaten Mamuju, Sulawesi Barat 91511","Jl. Pababari No.79, Karema, Kec. Mamuju, Kabupaten Mamuju",SULAWESI BARAT,91511.0,Indonesia,,,,-2.6846633,118.8817082,https://maps.google.com/?cid=0x0:0x8764e9a5160a060,
hardware store,Toko Elektronik,Toko AHON,"Jl. Mangga No.73-97, Binanga, Kec. Mamuju, Kabupaten Mamuju, Sulawesi Barat 91511","Binanga, Kec. Mamuju, Kabupaten Mamuju",SULAWESI BARAT,91511.0,Indonesia,,,,-2.672957,118.8906748,https://maps.google.com/?cid=0x0:0x2232404b4b3f4b94,
hardware store,Toko Bahan Bangunan,Tunas Jaya Mamuju,"8V7G+6W7, Jl. Diponegoro, Karema, Kec. Mamuju, Kabupaten Mamuju, Sulawesi Barat 91512","Jl. Diponegoro, Karema, Kec. Mamuju, Kabupaten Mamuju",SULAWESI BARAT,91512.0,Indonesia,,,,-2.6869645,118.8772869,https://maps.google.com/?cid=0x0:0xe9c75e78f96ac774,
hardware store,Toko Lemari,Baruga Aluminium .( Toko Aluminium Mamuju ),"8VGQ+9R8, Jl. Abd. Wahab Azasi, Binanga, Kec. Mamuju, Kabupaten Mamuju, Sulawesi Barat 91511","Jl. Abd. Wahab Azasi, Binanga, Kec. Mamuju, Kabupaten Mamuju",SULAWESI BARAT,91511.0,Indonesia,82134337337.0,,,-2.6740953,118.8895734,https://maps.google.com/?cid=0x0:0x666a892717d5b4d7,
hardware store,hardware store,Sulawesi Barat 91514,"Kabupaten Mamuju, Sulawesi Barat","Kabupaten Mamuju, Sulawesi Barat",SULAWESI BARAT,,Indonesia,,,,-2.6664001,118.9877942,https://maps.google.com/?cid=0x0:0x63629837e7aa22dc,
hardware store,Toko Perlengkapan Rumah,MR.DIY,"Ruko Sudirman, Jl. Jend Sudirman No.63, Simboro, Kec. Simboro Dan Kepulauan, Kabupaten Mamuju, Sulawesi Barat 90512","Jl. Jend Sudirman No.63, Simboro, Kec. Simboro Dan Kepulauan, Kabupaten Mamuju",SULAWESI BARAT,90512.0,Indonesia,2130022789.0,,,-2.6858871,118.8693113,https://maps.google.com/?cid=0x0:0x4729ed80f7f3bf94,
hardware store,Toko Bahan Bangunan,Toko. Fajar Bangunan - Mamuju,"8V6G+7WH, Jl. Diponegoro, Karema, Kec. Mamuju, Kabupaten Mamuju, Sulawesi Barat 91512","Jl. Diponegoro, Karema, Kec. Mamuju, Kabupaten Mamuju",SULAWESI BARAT,91512.0,Indonesia,85930982364.0,,,-2.689321,118.8773494,https://maps.google.com/?cid=0x0:0x6d4e74a959cf61d6,
hardware store,Toko Bahan Bangunan,Toko Multi Bangunan,"Jl. Diponegoro No.c14-15, Karema, Kec. Mamuju, Kabupaten Mamuju, Sulawesi Barat 91512","Karema, Kec. Mamuju, Kabupaten Mamuju",SULAWESI BARAT,91512.0,Indonesia,81242298806.0,,,-2.6862595,118.8768742,https://maps.google.com/?cid=0x0:0xd05c6306c1a3648f,
hardware store,Toko Alat Listrik,Toko Mitra Listrik,"Karema, Kec. Mamuju, Kabupaten Mamuju, Sulawesi Barat 91512","Kec. Mamuju, Kabupaten Mamuju",SULAWESI BARAT,91512.0,Indonesia,81216513956.0,,,-2.6836678,118.8758437,https://maps.google.com/?cid=0x0:0x9b2d83aba9467b91,
hardware store,Toko Bahan Bangunan,Toko Delta Bangunan,"8V6H+X4H, Karema, Kec. Mamuju, Kabupaten Mamuju, Sulawesi Barat 91512","Karema, Kec. Mamuju, Kabupaten Mamuju",SULAWESI BARAT,91512.0,Indonesia,81524333299.0,,,-2.6875662,118.8778488,https://maps.google.com/?cid=0x0:0x600c10af92b1cb4f,
hardware store,Pembangunan Perumahan,Toko Bangunan Putra Tande 5 Tapalang,"Galung, Kec. Tapalang, Kabupaten Mamuju, Sulawesi Barat 91352","Kec. Tapalang, Kabupaten Mamuju",SULAWESI BARAT,91352.0,Indonesia,85397048983.0,,,-2.8651937,118.8702682,https://maps.google.com/?cid=0x0:0x5ece193e63138999,
hardware store,Toko Elektronik,Toko AHON,"Jl. Mangga No.73-97, Binanga, Kec. Mamuju, Kabupaten Mamuju, Sulawesi Barat 91511","Binanga, Kec. Mamuju, Kabupaten Mamuju",SULAWESI BARAT,91511.0,Indonesia,,,,-2.672957,118.8906748,https://maps.google.com/?cid=0x0:0x2232404b4b3f4b94,
hardware store,Toko Elektronik,Toko Devin Elektronik,"Karema, Jl. Diponegoro, Karema, Kec. Mamuju, Kabupaten Mamuju, Sulawesi Barat 91512","Jl. Diponegoro, Karema, Kec. Mamuju, Kabupaten Mamuju",SULAWESI BARAT,91512.0,Indonesia,81241171875.0,,,-2.686005,118.8766804,https://maps.google.com/?cid=0x0:0xda457cfa07caa2b1,
hardware store,Toko Elektronik,AA ELEKTRONIK MAMUJU,"Jl. Urip Sumoharjo No.40, Karema, Kec. Mamuju, Kabupaten Mamuju, Sulawesi Barat 91512","Karema, Kec. Mamuju, Kabupaten Mamuju",SULAWESI BARAT,91512.0,Indonesia,,,,-2.6796209,118.8784597,https://maps.google.com/?cid=0x0:0x59d98bb62451250e,
hardware store,Toko Elektronik,Toko ahon elektronik,"Jl Jl. Diponegoro, Karema, Kec. Mamuju, Kabupaten Mamuju, Sulawesi Barat 91512","Karema, Kec. Mamuju, Kabupaten Mamuju",SULAWESI BARAT,91512.0,Indonesia,,,,-2.6876098,118.877146,https://maps.google.com/?cid=0x0:0xab84d87297b7d46a,
hardware store,Toko Lemari,Baruga Aluminium .( Toko Aluminium Mamuju ),"8VGQ+9R8, Jl. Abd. Wahab Azasi, Binanga, Kec. Mamuju, Kabupaten Mamuju, Sulawesi Barat 91511","Jl. Abd. Wahab Azasi, Binanga, Kec. Mamuju, Kabupaten Mamuju",SULAWESI BARAT,91511.0,Indonesia,82134337337.0,,,-2.6740953,118.8895734,https://maps.google.com/?cid=0x0:0x666a892717d5b4d7,
hardware store,hardware store,Sulawesi Barat 91515,"Karampuang, Kec. Mamuju, Kabupaten Mamuju, Sulawesi Barat","Kabupaten Mamuju, Sulawesi Barat",SULAWESI BARAT,,Indonesia,,,,-2.6273634,118.885894,https://maps.google.com/?cid=0x0:0x734a0409ed48ab3f,
hardware store,Toko Perlengkapan Rumah,MR.DIY,"Ruko Sudirman, Jl. Jend Sudirman No.63, Simboro, Kec. Simboro Dan Kepulauan, Kabupaten Mamuju, Sulawesi Barat 90512","Jl. Jend Sudirman No.63, Simboro, Kec. Simboro Dan Kepulauan, Kabupaten Mamuju",SULAWESI BARAT,90512.0,Indonesia,2130022789.0,,,-2.6858871,118.8693113,https://maps.google.com/?cid=0x0:0x4729ed80f7f3bf94,
hardware store,Toko Perlengkapan Rumah,MR DIY MAMUJU BINANGA,"Jl. Yos Sudarso, Binanga, Kec. Mamuju, Kabupaten Mamuju, Sulawesi Barat","Kabupaten Mamuju, Sulawesi Barat",SULAWESI BARAT,,Indonesia,,,,-2.6688473,118.8926806,https://maps.google.com/?cid=0x0:0x6bff05aa8a536272,
hardware store,Toko Bahan Bangunan,Toko Multi Bangunan,"Jl. Diponegoro No.c14-15, Karema, Kec. Mamuju, Kabupaten Mamuju, Sulawesi Barat 91512","Karema, Kec. Mamuju, Kabupaten Mamuju",SULAWESI BARAT,91512.0,Indonesia,81242298806.0,,,-2.6862595,118.8768742,https://maps.google.com/?cid=0x0:0xd05c6306c1a3648f,
hardware store,Toko Alat Listrik,Toko Mitra Listrik,"Karema, Kec. Mamuju, Kabupaten Mamuju, Sulawesi Barat 91512","Kec. Mamuju, Kabupaten Mamuju",SULAWESI BARAT,91512.0,Indonesia,81216513956.0,,,-2.6836678,118.8758437,https://maps.google.com/?cid=0x0:0x9b2d83aba9467b91,
hardware store,Toko Bahan Bangunan,Toko Delta Bangunan,"8V6H+X4H, Karema, Kec. Mamuju, Kabupaten Mamuju, Sulawesi Barat 91512","Karema, Kec. Mamuju, Kabupaten Mamuju",SULAWESI BARAT,91512.0,Indonesia,81524333299.0,,,-2.6875662,118.8778488,https://maps.google.com/?cid=0x0:0x600c10af92b1cb4f,
hardware store,Toko Elektronik,Toko ahon elektronik,"Jl Jl. Diponegoro, Karema, Kec. Mamuju, Kabupaten Mamuju, Sulawesi Barat 91512","Karema, Kec. Mamuju, Kabupaten Mamuju",SULAWESI BARAT,91512.0,Indonesia,,,,-2.6876098,118.877146,https://maps.google.com/?cid=0x0:0xab84d87297b7d46a,
hardware store,Toko Elektronik,Toko AHON,"Jl. Mangga No.73-97, Binanga, Kec. Mamuju, Kabupaten Mamuju, Sulawesi Barat 91511","Binanga, Kec. Mamuju, Kabupaten Mamuju",SULAWESI BARAT,91511.0,Indonesia,,,,-2.672957,118.8906748,https://maps.google.com/?cid=0x0:0x2232404b4b3f4b94,
hardware store,Toko Elektronik,Toko Devin Elektronik,"Karema, Jl. Diponegoro, Karema, Kec. Mamuju, Kabupaten Mamuju, Sulawesi Barat 91512","Jl. Diponegoro, Karema, Kec. Mamuju, Kabupaten Mamuju",SULAWESI BARAT,91512.0,Indonesia,81241171875.0,,,-2.686005,118.8766804,https://maps.google.com/?cid=0x0:0xda457cfa07caa2b1,
hardware store,Toko Bahan Bangunan,Toko Sepuluh,"Jl. Mangga No.27, Binanga, Kec. Mamuju, Kabupaten Mamuju, Sulawesi Barat 91511","Binanga, Kec. Mamuju, Kabupaten Mamuju",SULAWESI BARAT,91511.0,Indonesia,42621594.0,,,-2.673171,118.892191,https://maps.google.com/?cid=0x0:0x701bd3e98fd70b3f,
hardware store,hardware store,Sulawesi Barat 91563,"Kabupaten Mamuju, Sulawesi Barat","Kabupaten Mamuju, Sulawesi Barat",SULAWESI BARAT,,Indonesia,,,,-2.0727011,119.5107708,https://maps.google.com/?cid=0x0:0x8bfaa35dac2725d7,
hardware store,Toko,TOKO Anugrah Papalang,"H5C4+GW9, jl poros smk, Papalang, Kec. Papalang, Kabupaten Mamuju, Sulawesi Barat 91561","jl poros smk, Papalang, Kec. Papalang, Kabupaten Mamuju",SULAWESI BARAT,91561.0,Indonesia,,,,-2.4287142,119.1573704,https://maps.google.com/?cid=0x0:0x5b36dc576cf4d40b,
hardware store,Toko Perlengkapan Rumah,TOKO FAJAR HARAPAN Nippon paint topoyo,"W77P+HCW, Jl. Poros Majene - Mamuju, Tobadak, Kec. Tobadak, Kabupaten Mamuju Tengah, Sulawesi Barat 91563","Jl. Poros Majene - Mamuju, Tobadak, Kec. Tobadak, Kabupaten Mamuju Tengah",SULAWESI BARAT,91563.0,Indonesia,81373974815.0,,,-2.0860076,119.2860649,https://maps.google.com/?cid=0x0:0x60e2fb2e2ac626e8,
hardware store,Toko Bahan Bangunan,Toko rayyan bangunan,"J57G+6GR, Toabo, Kec. Papalang, Kabupaten Mamuju, Sulawesi Barat","Kabupaten Mamuju, Sulawesi Barat",SULAWESI BARAT,,Indonesia,85399992185.0,,,-2.3868783,119.1762647,https://maps.google.com/?cid=0x0:0x65800d7e99adda83,
hardware store,Toko Bahan Bangunan,Toko wahyudi Bangunan,"H5J6+2P7, Topore, Kec. Papalang, Kabupaten Mamuju, Sulawesi Barat 91563","Topore, Kec. Papalang, Kabupaten Mamuju",SULAWESI BARAT,91563.0,Indonesia,82146692685.0,,,-2.4199691,119.1617961,https://maps.google.com/?cid=0x0:0xd7af52db91495e45,
hardware store,Toko Bahan Bangunan,Toko ALFIAN,"W5FX+G94, Babana, Kec. Budong-Budong, Kabupaten Mamuju Tengah, Sulawesi Barat 91563","Babana, Kec. Budong-Budong, Kabupaten Mamuju Tengah",SULAWESI BARAT,91563.0,Indonesia,81373974815.0,,,-2.0762257,119.1984681,https://maps.google.com/?cid=0x0:0x83d1e111318f3bc1,
hardware store,Toko Bahan Bangunan,Toko Anugrah 55,"F3WX+PW, Kabuloang, Kec. Kalukku, Kabupaten Mamuju, Sulawesi Barat 91561","Kabuloang, Kec. Kalukku, Kabupaten Mamuju",SULAWESI BARAT,91561.0,Indonesia,85299180885.0,,,-2.5031314,119.0997412,https://maps.google.com/?cid=0x0:0x6839fc86d32729a,
hardware store,Toko Elektronik,Nusantara Teknik,"Jl. Poros Mamuju - Topoyo, Kalukku, Kec. Kalukku, Kabupaten Mamuju, Sulawesi Barat 91561","Kalukku, Kec. Kalukku, Kabupaten Mamuju",SULAWESI BARAT,91561.0,Indonesia,8124214996.0,,,-2.5471709,119.064666,https://maps.google.com/?cid=0x0:0xcfece9367ec47efa,
hardware store,Toko Bahan Bangunan,Buana Fadly,"6C33+824, Karossa, Kec. Karossa, Kabupaten Mamuju, Sulawesi Barat 91512","Karossa, Kec. Karossa, Kabupaten Mamuju",SULAWESI BARAT,91512.0,Indonesia,85395764567.0,,,-1.7967481,119.4025853,https://maps.google.com/?cid=0x0:0xd7bc2ddb9906de73,
hardware store,Toko Bahan Bangunan,Toko arjuna,"H5C5+GR, Papalang, Kec. Papalang, Kabupaten Mamuju, Sulawesi Barat 91561","Papalang, Kec. Papalang, Kabupaten Mamuju",SULAWESI BARAT,91561.0,Indonesia,,,,-2.428776,119.1595275,https://maps.google.com/?cid=0x0:0xae3c2ec8da526d4d,
hardware store,hardware store,p,"H5J7+QCQ, Topore, Kec. Papalang, Kabupaten Mamuju, Sulawesi Barat 91563","Topore, Kec. Papalang, Kabupaten Mamuju",SULAWESI BARAT,91563.0,Indonesia,,,,-2.4180451,119.1636027,https://maps.google.com/?cid=0x0:0xaa3018f10df16c9,
hardware store,Toko Bahan Bangunan,TB.Putra Tande Belang-belang,"H44Q+6P, Papalang, Kec. Papalang, Kabupaten Mamuju, Sulawesi Barat","Kabupaten Mamuju, Sulawesi Barat",SULAWESI BARAT,,Indonesia,,,,-2.4444634,119.1393672,https://maps.google.com/?cid=0x0:0x74a6e4bee0ea180d,
hardware store,Toko Alat Tulis Kantor,Toko Alya ATK dan Foto Copy,"Topore, Kec. Papalang, Kabupaten Mamuju, Sulawesi Barat 91563","Kec. Papalang, Kabupaten Mamuju",SULAWESI BARAT,91563.0,Indonesia,81239263610.0,,,-2.4227573,119.1608161,https://maps.google.com/?cid=0x0:0xb0462ded522fea11,
hardware store,Toko Alat Tulis Kantor,Toko Cahaya Benteng,"H5G5+9MW, Topore, Kec. Papalang, Kabupaten Mamuju, Sulawesi Barat 91563","Topore, Kec. Papalang, Kabupaten Mamuju",SULAWESI BARAT,91563.0,Indonesia,,,,-2.424024,119.1592072,https://maps.google.com/?cid=0x0:0x7c3a891177bcc7c6,
hardware store,Sekolah Menengah Umum,SMKN 1 Papalang,"H5C4+92F, Papalang, Kec. Papalang, Kabupaten Mamuju, Sulawesi Barat 91561","Papalang, Kec. Papalang, Kabupaten Mamuju",SULAWESI BARAT,91561.0,Indonesia,,,,-2.4290671,119.1550625,https://maps.google.com/?cid=0x0:0x4d8caa1c872fcce3,
hardware store,Toko Bahan Bangunan,TK FAJAR BARKAH JUAL ALAT BANGUNAN,"Jl. Poros Majene - Mamuju, Topoyo, Kec. Topoyo, Kabupaten Mamuju Tengah, Sulawesi Barat 91563","Topoyo, Kec. Topoyo, Kabupaten Mamuju Tengah",SULAWESI BARAT,91563.0,Indonesia,81373974815.0,,,-2.0620443,119.2903474,https://maps.google.com/?cid=0x0:0x7dac4b5b2db5efa0,
hardware store,Toko Alat Tulis Kantor,Valent Foto copy,"H5G5+8M6, Topore, Kec. Papalang, Kabupaten Mamuju, Sulawesi Barat 91563","Topore, Kec. Papalang, Kabupaten Mamuju",SULAWESI BARAT,91563.0,Indonesia,,,,-2.4242231,119.1591352,https://maps.google.com/?cid=0x0:0x47b954cdeb2429c1,
hardware store,hardware store,Papalang,"Papalang, Kec. Papalang, Kabupaten Mamuju, Sulawesi Barat","Kabupaten Mamuju, Sulawesi Barat",SULAWESI BARAT,,Indonesia,,,,-2.437976,119.143501,https://maps.google.com/?cid=0x0:0xcbf94f6dde30edf6,
hardware store,hardware store,Kec. Tebet,"Kota Jakarta Selatan, Daerah Khusus Ibukota Jakarta","Kota Jakarta Selatan, Daerah Khusus Ibukota Jakarta",SULAWESI BARAT,,Indonesia,,,,-6.2251223,106.8549881,https://maps.google.com/?cid=0x0:0xd575e31c807295f9,
hardware store,hardware store,Sulawesi Barat 91563,"Kabupaten Mamuju, Sulawesi Barat","Kabupaten Mamuju, Sulawesi Barat",SULAWESI BARAT,,Indonesia,,,,-2.0727011,119.5107708,https://maps.google.com/?cid=0x0:0x8bfaa35dac2725d7,
hardware store,Toko Bahan Bangunan,Toko Makmur Bangunan,"Jln. Jen. A. Yani No. 001, Bunde, Kec. Sampaga, Kabupaten Mamuju, Sulawesi Barat 91563","Bunde, Kec. Sampaga, Kabupaten Mamuju",SULAWESI BARAT,91563.0,Indonesia,82259648049.0,,,-2.3398082,119.1750407,https://maps.google.com/?cid=0x0:0x901692040dff7a42,
hardware store,Toko Bahan Bangunan,Toko. Fajar Bangunan - Mamuju,"8V6G+7WH, Jl. Diponegoro, Karema, Kec. Mamuju, Kabupaten Mamuju, Sulawesi Barat 91512","Jl. Diponegoro, Karema, Kec. Mamuju, Kabupaten Mamuju",SULAWESI BARAT,91512.0,Indonesia,85930982364.0,,,-2.689321,118.8773494,https://maps.google.com/?cid=0x0:0x6d4e74a959cf61d6,
hardware store,Toko Bahan Bangunan,Toko Sinar Bangunan,"M5MG+H8H, Jl. Poros Palu - Mamuju, Tarailu, Kec. Sampaga, Kabupaten Mamuju, Sulawesi Barat 91563","Jl. Poros Palu - Mamuju, Tarailu, Kec. Sampaga, Kabupaten Mamuju",SULAWESI BARAT,91563.0,Indonesia,81373974815.0,,,-2.3160629,119.1758478,https://maps.google.com/?cid=0x0:0xa07dffa29ee1a4e8,
hardware store,Toko Alat Tulis Kantor,Sekawan print,"M5PG+WM8, Tarailu, Kec. Sampaga, Kabupaten Mamuju, Sulawesi Barat 91563","Tarailu, Kec. Sampaga, Kabupaten Mamuju",SULAWESI BARAT,91563.0,Indonesia,85240563818.0,,,-2.3127081,119.1767144,https://maps.google.com/?cid=0x0:0xa59cc67e3d321e9d,
hardware store,hardware store,Yasir fadillah atk,"Jln makmur jaya, Kalonding, Kec. Sampaga, Kabupaten Mamuju, Sulawesi Barat 91563","Kalonding, Kec. Sampaga, Kabupaten Mamuju",SULAWESI BARAT,91563.0,Indonesia,82386578986.0,,,-2.3517733,119.2362019,https://maps.google.com/?cid=0x0:0x2927b5399fcd7fbf,
hardware store,hardware store,Toko Surya Mandiri Bangunan,"M5QG+5QV, Tarailu, Kec. Sampaga, Kabupaten Mamuju, Sulawesi Barat 91563","Tarailu, Kec. Sampaga, Kabupaten Mamuju",SULAWESI BARAT,91563.0,Indonesia,85299553721.0,,,-2.3120215,119.1769104,https://maps.google.com/?cid=0x0:0x873d86ec32383033,
hardware store,hardware store,toko sri muliana,"Jl. Poros Palu - Mamuju, Tarailu, Kec. Sampaga, Kabupaten Mamuju, Sulawesi Barat","Kabupaten Mamuju, Sulawesi Barat",SULAWESI BARAT,,Indonesia,82190373203.0,,,-2.3918789,119.1914373,https://maps.google.com/?cid=0x0:0x2c882fd2e9ab4aad,
hardware store,Toko Bahan Bangunan,Sampaga Hi-One Hardware,"Batangas City, Batangas, Filipina","Batangas City, Batangas, Filipina",SULAWESI BARAT,,Indonesia,,,,13.7550431,121.1092344,https://maps.google.com/?cid=0x0:0xecbce420f1eff029,
hardware store,Toko Bahan Bangunan,Pe Hardware  Construction Supply,"R3CF+3VR, President Jose P. Laurel Hwy, Batangas City, Batangas, Filipina","Batangas City, Batangas, Filipina",SULAWESI BARAT,,Indonesia,639175081468.0,,,13.8202382,121.0746348,https://maps.google.com/?cid=0x0:0xb7fafe3d7fd5a202,
hardware store,Toko Bahan Bangunan,KV HARDWARE,"Q445+2P9, Gov. Antonio Carpio Rd, Batangas City, Batangas, Filipina","Batangas City, Batangas, Filipina",SULAWESI BARAT,,Indonesia,,,,13.7550357,121.1093565,https://maps.google.com/?cid=0x0:0x962c85fa62ee9836,
hardware store,hardware store,Kec. Simboro Dan Kepulauan,"Kabupaten Mamuju, Sulawesi Barat","Kabupaten Mamuju, Sulawesi Barat",SULAWESI BARAT,,Indonesia,,,,-2.6886472,118.8687708,https://maps.google.com/?cid=0x0:0x690e32602d9f0e83,
hardware store,Toko Perlengkapan Rumah,MR.DIY,"Ruko Sudirman, Jl. Jend Sudirman No.63, Simboro, Kec. Simboro Dan Kepulauan, Kabupaten Mamuju, Sulawesi Barat 90512","Jl. Jend Sudirman No.63, Simboro, Kec. Simboro Dan Kepulauan, Kabupaten Mamuju",SULAWESI BARAT,90512.0,Indonesia,2130022789.0,,,-2.6858871,118.8693113,https://maps.google.com/?cid=0x0:0x4729ed80f7f3bf94,
hardware store,Toko Elektronik,22 TEKNIK BANGUNAN,"Jl. Abdul Malik Pattana Endeng, Simboro, Kec. Simboro Dan Kepulauan, Kabupaten Mamuju, Sulawesi Barat 91512","Simboro, Kec. Simboro Dan Kepulauan, Kabupaten Mamuju",SULAWESI BARAT,91512.0,Indonesia,81265476914.0,,,-2.6838018,118.8580846,https://maps.google.com/?cid=0x0:0xc78c6920f1d024b5,
hardware store,Toko,Toko Sumber Sakti,"8V8G+F84, Jl. Diponegoro, Karema, Kec. Mamuju, Kabupaten Mamuju, Sulawesi Barat 91511","Jl. Diponegoro, Karema, Kec. Mamuju, Kabupaten Mamuju",SULAWESI BARAT,91511.0,Indonesia,,,,-2.6838659,118.875817,https://maps.google.com/?cid=0x0:0x40fead32aa2cf7c4,
hardware store,Toko Perlengkapan Rumah,TOKO BANGUNAN ALMART,"Dusun Sese Tengah, Rangas, Kec. Simboro Dan Kepulauan, Kabupaten Mamuju, Sulawesi Barat 94553","Rangas, Kec. Simboro Dan Kepulauan, Kabupaten Mamuju",SULAWESI BARAT,94553.0,Indonesia,,,,-2.6939517,118.8432367,https://maps.google.com/?cid=0x0:0xd1b294ea71ae1c47,
hardware store,Pemasok Bahan Bangunan,Tb. Mitra Bangunan,"8RRX+G57, Jl. Abdul Malik Pattana Endeng, Rangas, Kec. Simboro Dan Kepulauan, Kabupaten Mamuju, Sulawesi Barat 91512","Jl. Abdul Malik Pattana Endeng, Rangas, Kec. Simboro Dan Kepulauan, Kabupaten Mamuju",SULAWESI BARAT,91512.0,Indonesia,,,,-2.6587247,118.8479089,https://maps.google.com/?cid=0x0:0x82fdcef4b67452d8,
hardware store,Toko,Photo Copy ADZIM,"8VH3+93P, Simboro, Kec. Simboro Dan Kepulauan, Kabupaten Mamuju, Sulawesi Barat 91512","Simboro, Kec. Simboro Dan Kepulauan, Kabupaten Mamuju",SULAWESI BARAT,91512.0,Indonesia,,,,-2.671528,118.8527057,https://maps.google.com/?cid=0x0:0x19c6c4994ef6ba57,
hardware store,Toko Bahan Bangunan,Fajar Mas Toko,"8VGQ+HV8, Komplek Pasar Sentral, Simboro, Kec. Mamuju, Kabupaten Mamuju, Sulawesi Barat 91811","Komplek Pasar Sentral, Simboro, Kec. Mamuju, Kabupaten Mamuju",SULAWESI BARAT,91811.0,Indonesia,42621498.0,,,-2.6735892,118.8897077,https://maps.google.com/?cid=0x0:0x25648f8d214d5e5b,
hardware store,Toko Bahan Bangunan,Toko Harapan Jaya,"Jl. LetJend Hertasning, Binanga, Kec. Mamuju, Kabupaten Mamuju, Sulawesi Barat 91511","Binanga, Kec. Mamuju, Kabupaten Mamuju",SULAWESI BARAT,91511.0,Indonesia,,,,-2.6718353,118.8918529,https://maps.google.com/?cid=0x0:0x4aa8f68af0fe79ed,
hardware store,Toko Bahan Bangunan,Toko Tiga Mamuju,"Jalan Poros Mamuju - Kalukku Tumuki, Bambu, Kec. Mamuju, Kabupaten Mamuju, Sulawesi Barat 91511","Bambu, Kec. Mamuju, Kabupaten Mamuju",SULAWESI BARAT,91511.0,Indonesia,85299905145.0,,,-2.669031,118.9214052,https://maps.google.com/?cid=0x0:0xfe2c9a641105daf,
hardware store,Toko Bahan Bangunan,Toko Delta Bangunan,"8V6H+X4H, Karema, Kec. Mamuju, Kabupaten Mamuju, Sulawesi Barat 91512","Karema, Kec. Mamuju, Kabupaten Mamuju",SULAWESI BARAT,91512.0,Indonesia,81524333299.0,,,-2.6875662,118.8778488,https://maps.google.com/?cid=0x0:0x600c10af92b1cb4f,
hardware store,Toko Bahan Bangunan,Toko. Fajar Bangunan - Mamuju,"8V6G+7WH, Jl. Diponegoro, Karema, Kec. Mamuju, Kabupaten Mamuju, Sulawesi Barat 91512","Jl. Diponegoro, Karema, Kec. Mamuju, Kabupaten Mamuju",SULAWESI BARAT,91512.0,Indonesia,85930982364.0,,,-2.689321,118.8773494,https://maps.google.com/?cid=0x0:0x6d4e74a959cf61d6,
hardware store,Toko Bahan Bangunan,Toko Multi Bangunan,"Jl. Diponegoro No.c14-15, Karema, Kec. Mamuju, Kabupaten Mamuju, Sulawesi Barat 91512","Karema, Kec. Mamuju, Kabupaten Mamuju",SULAWESI BARAT,91512.0,Indonesia,81242298806.0,,,-2.6862595,118.8768742,https://maps.google.com/?cid=0x0:0xd05c6306c1a3648f,
hardware store,Toko Bahan Bangunan,Toko Usaha Maju,"Jl. Andi Dai No.66, Binanga, Kec. Mamuju, Kabupaten Mamuju, Sulawesi Barat 91511","Binanga, Kec. Mamuju, Kabupaten Mamuju",SULAWESI BARAT,91511.0,Indonesia,81242225181.0,,,-2.6719505,118.8959849,https://maps.google.com/?cid=0x0:0xce686b7c9c65b,
hardware store,Kantor Perusahaan,Percetakan Mutiara,"8VH2+HXV, Jl. Abdul Malik Pattana Endeng, Simboro, Kec. Simboro Dan Kepulauan, Kabupaten Mamuju, Sulawesi Barat 91512","Jl. Abdul Malik Pattana Endeng, Simboro, Kec. Simboro Dan Kepulauan, Kabupaten Mamuju",SULAWESI BARAT,91512.0,Indonesia,82213491751.0,,,-2.6709847,118.8524283,https://maps.google.com/?cid=0x0:0xe101d0445f32493f,
hardware store,Toko Bahan Bangunan,Ud Sentral Jaya,"Binanga, Kec. Mamuju, Kabupaten Mamuju, Sulawesi Barat","Kabupaten Mamuju, Sulawesi Barat",SULAWESI BARAT,,Indonesia,82188708700.0,,,-2.6720221,118.8918978,https://maps.google.com/?cid=0x0:0xa909bb9558006e49,
hardware store,Toko Perlengkapan Rumah,MR DIY MAMUJU BINANGA,"Jl. Yos Sudarso, Binanga, Kec. Mamuju, Kabupaten Mamuju, Sulawesi Barat","Kabupaten Mamuju, Sulawesi Barat",SULAWESI BARAT,,Indonesia,,,,-2.6688473,118.8926806,https://maps.google.com/?cid=0x0:0x6bff05aa8a536272,
hardware store,Toko Pakaian,Cv.cahaya Sukses Mandiri,"8VCW+QRH, Binanga, Kec. Mamuju, Kabupaten Mamuju, Sulawesi Barat 91511","Binanga, Kec. Mamuju, Kabupaten Mamuju",SULAWESI BARAT,91511.0,Indonesia,85242437676.0,,,-2.6780509,118.8971178,https://maps.google.com/?cid=0x0:0x9b5a91cf47ad5d26,
hardware store,Pemasok Bahan Bangunan,UD. MITRA MAJU,"8WPF+63W, Jl. Mamuju - Kalukku, Bambu, Kec. Mamuju, Kabupaten Mamuju, Sulawesi Barat 91511","Jl. Mamuju - Kalukku, Bambu, Kec. Mamuju, Kabupaten Mamuju",SULAWESI BARAT,91511.0,Indonesia,85299905145.0,,,-2.6643839,118.9227115,https://maps.google.com/?cid=0x0:0x7f53f6835d2cbcba,
hardware store,Toko Alat Tulis Kantor,Bima Karya,"8VFR+J9X, Jl. Mangga, Binanga, Kec. Mamuju, Kabupaten Mamuju, Sulawesi Barat 91511","Jl. Mangga, Binanga, Kec. Mamuju, Kabupaten Mamuju",SULAWESI BARAT,91511.0,Indonesia,81342501815.0,,,-2.675891,118.8909991,https://maps.google.com/?cid=0x0:0x340e9ea6ae2a2e17,
hardware store,Toko Bahan Bangunan,sarang bangunan mamuju,"8V5C+JJX, Jl. Soekarno Hatta, Simboro, Kec. Mamuju, Kabupaten Mamuju, Sulawesi Barat 91512","Jl. Soekarno Hatta, Simboro, Kec. Mamuju, Kabupaten Mamuju",SULAWESI BARAT,91512.0,Indonesia,81216991887.0,,,-2.690896,118.8716013,https://maps.google.com/?cid=0x0:0x9caefd20f0bf5456,
hardware store,hardware store,Simboro,"Kec. Simboro Dan Kepulauan, Kabupaten Mamuju, Sulawesi Barat","Kabupaten Mamuju, Sulawesi Barat",SULAWESI BARAT,,Indonesia,,,,-2.6886829,118.868757,https://maps.google.com/?cid=0x0:0xc9b0924fbe0eb9e7,
hardware store,Toko Elektronik,Toko ahon elektronik,"Jl Jl. Diponegoro, Karema, Kec. Mamuju, Kabupaten Mamuju, Sulawesi Barat 91512","Karema, Kec. Mamuju, Kabupaten Mamuju",SULAWESI BARAT,91512.0,Indonesia,,,,-2.6876098,118.877146,https://maps.google.com/?cid=0x0:0xab84d87297b7d46a,
hardware store,Toko Bahan Bangunan,TB PUTRA TANDE BOTTENG,"6VGC+3G8, Botteng, Kec. Simboro Dan Kepulauan, Kabupaten Mamuju, Sulawesi Barat","Kabupaten Mamuju, Sulawesi Barat",SULAWESI BARAT,,Indonesia,,,,-2.7748312,118.8713314,https://maps.google.com/?cid=0x0:0x66b7a9912cc786ad,
hardware store,hardware store,Sulawesi Barat 91513,"Kabupaten Mamuju, Sulawesi Barat","Kabupaten Mamuju, Sulawesi Barat",SULAWESI BARAT,,Indonesia,,,,-2.6887507,118.8014121,https://maps.google.com/?cid=0x0:0xbef0412d6d2f80f8,
hardware store,Toko Perlengkapan Rumah,MR.DIY,"Ruko Sudirman, Jl. Jend Sudirman No.63, Simboro, Kec. Simboro Dan Kepulauan, Kabupaten Mamuju, Sulawesi Barat 90512","Jl. Jend Sudirman No.63, Simboro, Kec. Simboro Dan Kepulauan, Kabupaten Mamuju",SULAWESI BARAT,90512.0,Indonesia,2130022789.0,,,-2.6858871,118.8693113,https://maps.google.com/?cid=0x0:0x4729ed80f7f3bf94,
hardware store,Toko Elektronik,22 TEKNIK BANGUNAN,"Jl. Abdul Malik Pattana Endeng, Simboro, Kec. Simboro Dan Kepulauan, Kabupaten Mamuju, Sulawesi Barat 91512","Simboro, Kec. Simboro Dan Kepulauan, Kabupaten Mamuju",SULAWESI BARAT,91512.0,Indonesia,81265476914.0,,,-2.6838018,118.8580846,https://maps.google.com/?cid=0x0:0xc78c6920f1d024b5,
hardware store,Toko Perlengkapan Rumah,TB HIGAR BANGUNAN,"Jl. Abdul Malik Pattana Endeng No.kel, Simboro, Kec. Simboro Dan Kepulauan, Kabupaten Mamuju, Sulawesi Barat 91512","Simboro, Kec. Simboro Dan Kepulauan, Kabupaten Mamuju",SULAWESI BARAT,91512.0,Indonesia,81373974815.0,,,-2.6763392,118.8573914,https://maps.google.com/?cid=0x0:0xb4329c8acd4be00d,
hardware store,hardware store,Kec. Tapalang,"Kabupaten Mamuju, Sulawesi Barat","Kabupaten Mamuju, Sulawesi Barat",SULAWESI BARAT,,Indonesia,,,,-2.8670322,118.8748621,https://maps.google.com/?cid=0x0:0x7352010099a68a2b,
hardware store,Pembangunan Perumahan,Toko Bangunan Putra Tande 5 Tapalang,"Galung, Kec. Tapalang, Kabupaten Mamuju, Sulawesi Barat 91352","Kec. Tapalang, Kabupaten Mamuju",SULAWESI BARAT,91352.0,Indonesia,85397048983.0,,,-2.8651937,118.8702682,https://maps.google.com/?cid=0x0:0x5ece193e63138999,
hardware store,,Toko Sinar Fajar Tapalang,"4VHG+397, Kasambang, Kec. Tapalang, Kabupaten Mamuju, Sulawesi Barat","Kabupaten Mamuju, Sulawesi Barat",SULAWESI BARAT,,Indonesia,81243021000.0,,,-2.8723352,118.8759119,https://maps.google.com/?cid=0x0:0xb14e9d7cf7333ca9,
hardware store,Toko Alat Tulis Kantor,Rumah Printing Tapalang,"Lawasang, Taan, Kec. Tapalang, Kabupaten Mamuju, Sulawesi Barat 91352","Taan, Kec. Tapalang, Kabupaten Mamuju",SULAWESI BARAT,91352.0,Indonesia,85159585775.0,,,-2.9170714,118.882223,https://maps.google.com/?cid=0x0:0x23e251540677870c,
hardware store,Toko Swalayan,Toko Thoybah Fajar,"4VP9+4V8, Galung, Kec. Tapalang, Kabupaten Mamuju, Sulawesi Barat 91352","Galung, Kec. Tapalang, Kabupaten Mamuju",SULAWESI BARAT,91352.0,Indonesia,81355478288.0,,,-2.8647068,118.8696902,https://maps.google.com/?cid=0x0:0x7930bd43a8e98c34,
hardware store,Toko Komputer,Toko Sambanika Komputer,"Jl. Poros Majene - Mamuju, Taan, Kec. Tapalang, Kabupaten Mamuju, Sulawesi Barat 91352","Taan, Kec. Tapalang, Kabupaten Mamuju",SULAWESI BARAT,91352.0,Indonesia,82292474393.0,,,-2.9119322,118.8865575,https://maps.google.com/?cid=0x0:0x82eaad855b866003,
hardware store,Toko Alat Tulis Kantor,PERCETAKAN SANDEQ,"4VR7+WGG, Jl. Poros Majene - Mamuju Lingk, Galung, Kec. Tapalang, Kabupaten Mamuju, Sulawesi Barat","Kabupaten Mamuju, Sulawesi Barat",SULAWESI BARAT,,Indonesia,85255159401.0,,,-2.8576912,118.8638335,https://maps.google.com/?cid=0x0:0xe9bf9f53b84dcabb,
hardware store,Toko Alat Tulis Kantor,Imma Cellular Dan Foto Copy,"4VQ8+W4P, Unnamed Road, Galung, Kec. Tapalang, Kabupaten Mamuju, Sulawesi Barat 91352","Unnamed Road, Galung, Kec. Tapalang, Kabupaten Mamuju",SULAWESI BARAT,91352.0,Indonesia,,,,-2.8601551,118.865316,https://maps.google.com/?cid=0x0:0x178298926f5fc46c,
hardware store,Toko,FOTO COPY MARENDENG PRINT,"Jl. Poros Majene - Mamuju, Taan, Kec. Tapalang, Kabupaten Mamuju, Sulawesi Barat 91352","Taan, Kec. Tapalang, Kabupaten Mamuju",SULAWESI BARAT,91352.0,Indonesia,85696440498.0,,,-2.9053576,118.8874902,https://maps.google.com/?cid=0x0:0x31578e9cc8cb5c7e,
hardware store,Toko bahan makanan,Toko Fajar Mas Tapalang,"4VP9+5R4, Galung, Kec. Tapalang, Kabupaten Mamuju, Sulawesi Barat 91352","Galung, Kec. Tapalang, Kabupaten Mamuju",SULAWESI BARAT,91352.0,Indonesia,82189484750.0,,,-2.8646132,118.8695764,https://maps.google.com/?cid=0x0:0x916674a773ed9834,
hardware store,hardware store,Kec. Tapalang Bar.,"Kabupaten Mamuju, Sulawesi Barat","Kabupaten Mamuju, Sulawesi Barat",SULAWESI BARAT,,Indonesia,,,,-2.8544488,118.8344475,https://maps.google.com/?cid=0x0:0x399150dc9ea10ec1,
hardware store,Pembangunan Perumahan,Toko Bangunan Putra Tande 5 Tapalang,"Galung, Kec. Tapalang, Kabupaten Mamuju, Sulawesi Barat 91352","Kec. Tapalang, Kabupaten Mamuju",SULAWESI BARAT,91352.0,Indonesia,85397048983.0,,,-2.8651937,118.8702682,https://maps.google.com/?cid=0x0:0x5ece193e63138999,
hardware store,Toko Swalayan,TOKO SUMBER FAJAR TAPALANG,"4VP9+4RX, Dayanginna, Kec. Tapalang, Kabupaten Mamuju, Sulawesi Barat 91352","Dayanginna, Kec. Tapalang, Kabupaten Mamuju",SULAWESI BARAT,91352.0,Indonesia,,,,-2.8646422,118.8696228,https://maps.google.com/?cid=0x0:0x1ad3c06c370e6549,
hardware store,Toko Alat Listrik,Toko Mitra Listrik,"Karema, Kec. Mamuju, Kabupaten Mamuju, Sulawesi Barat 91512","Kec. Mamuju, Kabupaten Mamuju",SULAWESI BARAT,91512.0,Indonesia,81216513956.0,,,-2.6836678,118.8758437,https://maps.google.com/?cid=0x0:0x9b2d83aba9467b91,
hardware store,Toko bahan makanan,Toko Fajar Mas Tapalang,"4VP9+5R4, Galung, Kec. Tapalang, Kabupaten Mamuju, Sulawesi Barat 91352","Galung, Kec. Tapalang, Kabupaten Mamuju",SULAWESI BARAT,91352.0,Indonesia,82189484750.0,,,-2.8646132,118.8695764,https://maps.google.com/?cid=0x0:0x916674a773ed9834,
hardware store,,Toko Sinar Fajar Tapalang,"4VHG+397, Kasambang, Kec. Tapalang, Kabupaten Mamuju, Sulawesi Barat","Kabupaten Mamuju, Sulawesi Barat",SULAWESI BARAT,,Indonesia,81243021000.0,,,-2.8723352,118.8759119,https://maps.google.com/?cid=0x0:0xb14e9d7cf7333ca9,
hardware store,Toko Swalayan,Toko Thoybah Fajar,"4VP9+4V8, Galung, Kec. Tapalang, Kabupaten Mamuju, Sulawesi Barat 91352","Galung, Kec. Tapalang, Kabupaten Mamuju",SULAWESI BARAT,91352.0,Indonesia,81355478288.0,,,-2.8647068,118.8696902,https://maps.google.com/?cid=0x0:0x7930bd43a8e98c34,
hardware store,Toko,Toko Sumber Sakti,"8V8G+F84, Jl. Diponegoro, Karema, Kec. Mamuju, Kabupaten Mamuju, Sulawesi Barat 91511","Jl. Diponegoro, Karema, Kec. Mamuju, Kabupaten Mamuju",SULAWESI BARAT,91511.0,Indonesia,,,,-2.6838659,118.875817,https://maps.google.com/?cid=0x0:0x40fead32aa2cf7c4,
hardware store,Toko Alat Tulis Kantor,Rumah Printing Tapalang,"Lawasang, Taan, Kec. Tapalang, Kabupaten Mamuju, Sulawesi Barat 91352","Taan, Kec. Tapalang, Kabupaten Mamuju",SULAWESI BARAT,91352.0,Indonesia,85159585775.0,,,-2.9170714,118.882223,https://maps.google.com/?cid=0x0:0x23e251540677870c,
hardware store,Toko,Photo Copy ADZIM,"8VH3+93P, Simboro, Kec. Simboro Dan Kepulauan, Kabupaten Mamuju, Sulawesi Barat 91512","Simboro, Kec. Simboro Dan Kepulauan, Kabupaten Mamuju",SULAWESI BARAT,91512.0,Indonesia,,,,-2.671528,118.8527057,https://maps.google.com/?cid=0x0:0x19c6c4994ef6ba57,
hardware store,Pemasok Bahan Bangunan,Tb. Mitra Bangunan,"8RRX+G57, Jl. Abdul Malik Pattana Endeng, Rangas, Kec. Simboro Dan Kepulauan, Kabupaten Mamuju, Sulawesi Barat 91512","Jl. Abdul Malik Pattana Endeng, Rangas, Kec. Simboro Dan Kepulauan, Kabupaten Mamuju",SULAWESI BARAT,91512.0,Indonesia,,,,-2.6587247,118.8479089,https://maps.google.com/?cid=0x0:0x82fdcef4b67452d8,
hardware store,Toko Elektronik,Bintang Libra Komputer Mamuju,"Jl. Abdul Malik Pattana Endeng, Simboro, Kec. Simboro Dan Kepulauan, Kabupaten Mamuju, Sulawesi Barat 91512","Simboro, Kec. Simboro Dan Kepulauan, Kabupaten Mamuju",SULAWESI BARAT,91512.0,Indonesia,81341459496.0,,,-2.6834985,118.8584115,https://maps.google.com/?cid=0x0:0xd3cc4c9a1250634a,
hardware store,Toko Bahan Bangunan,Toko Harapan Jaya,"Jl. LetJend Hertasning, Binanga, Kec. Mamuju, Kabupaten Mamuju, Sulawesi Barat 91511","Binanga, Kec. Mamuju, Kabupaten Mamuju",SULAWESI BARAT,91511.0,Indonesia,,,,-2.6718353,118.8918529,https://maps.google.com/?cid=0x0:0x4aa8f68af0fe79ed,
hardware store,Toko Bahan Bangunan,Tk. Buana Bangunan,"8V7G+MJJ, Karema, Kec. Mamuju, Kabupaten Mamuju, Sulawesi Barat 91512","Karema, Kec. Mamuju, Kabupaten Mamuju",SULAWESI BARAT,91512.0,Indonesia,82179264696.0,,,-2.6857866,118.8765206,https://maps.google.com/?cid=0x0:0x8cdc46a0e8fa0fe6,
hardware store,Toko Bahan Bangunan,Toko. Fajar Bangunan - Mamuju,"8V6G+7WH, Jl. Diponegoro, Karema, Kec. Mamuju, Kabupaten Mamuju, Sulawesi Barat 91512","Jl. Diponegoro, Karema, Kec. Mamuju, Kabupaten Mamuju",SULAWESI BARAT,91512.0,Indonesia,85930982364.0,,,-2.689321,118.8773494,https://maps.google.com/?cid=0x0:0x6d4e74a959cf61d6,
hardware store,Toko Bahan Bangunan,Toko Multi Bangunan,"Jl. Diponegoro No.c14-15, Karema, Kec. Mamuju, Kabupaten Mamuju, Sulawesi Barat 91512","Karema, Kec. Mamuju, Kabupaten Mamuju",SULAWESI BARAT,91512.0,Indonesia,81242298806.0,,,-2.6862595,118.8768742,https://maps.google.com/?cid=0x0:0xd05c6306c1a3648f,
hardware store,Toko Alat Tulis Kantor,Imma Cellular Dan Foto Copy,"4VQ8+W4P, Unnamed Road, Galung, Kec. Tapalang, Kabupaten Mamuju, Sulawesi Barat 91352","Unnamed Road, Galung, Kec. Tapalang, Kabupaten Mamuju",SULAWESI BARAT,91352.0,Indonesia,,,,-2.8601551,118.865316,https://maps.google.com/?cid=0x0:0x178298926f5fc46c,
hardware store,Toko Bahan Bangunan,Toko Delta Bangunan,"8V6H+X4H, Karema, Kec. Mamuju, Kabupaten Mamuju, Sulawesi Barat 91512","Karema, Kec. Mamuju, Kabupaten Mamuju",SULAWESI BARAT,91512.0,Indonesia,81524333299.0,,,-2.6875662,118.8778488,https://maps.google.com/?cid=0x0:0x600c10af92b1cb4f,
hardware store,Toko Perlengkapan Rumah,MR DIY MAMUJU BINANGA,"Jl. Yos Sudarso, Binanga, Kec. Mamuju, Kabupaten Mamuju, Sulawesi Barat","Kabupaten Mamuju, Sulawesi Barat",SULAWESI BARAT,,Indonesia,,,,-2.6688473,118.8926806,https://maps.google.com/?cid=0x0:0x6bff05aa8a536272,
hardware store,Toko Bahan Bangunan,Toko Usaha Maju,"Jl. Andi Dai No.66, Binanga, Kec. Mamuju, Kabupaten Mamuju, Sulawesi Barat 91511","Binanga, Kec. Mamuju, Kabupaten Mamuju",SULAWESI BARAT,91511.0,Indonesia,81242225181.0,,,-2.6719505,118.8959849,https://maps.google.com/?cid=0x0:0xce686b7c9c65b,
hardware store,,Toko cahaya baru,"4RWM+5Q7, Pasabu, Kec. Tapalang Bar., Kabupaten Mamuju, Sulawesi Barat","Kabupaten Mamuju, Sulawesi Barat",SULAWESI BARAT,,Indonesia,,,,-2.8545803,118.8344349,https://maps.google.com/?cid=0x0:0x137e6d23e0cd73b2,
hardware store,Toko Bahan Bangunan,Toko Bangunan 79,"8V8J+3MF, Karema, Kec. Mamuju, Kabupaten Mamuju, Sulawesi Barat 91511","Karema, Kec. Mamuju, Kabupaten Mamuju",SULAWESI BARAT,91511.0,Indonesia,,,,-2.684817,118.8816695,https://maps.google.com/?cid=0x0:0x101d0b0f58da7e81,
hardware store,Toko Komputer,Toko Sambanika Komputer,"Jl. Poros Majene - Mamuju, Taan, Kec. Tapalang, Kabupaten Mamuju, Sulawesi Barat 91352","Taan, Kec. Tapalang, Kabupaten Mamuju",SULAWESI BARAT,91352.0,Indonesia,82292474393.0,,,-2.9119322,118.8865575,https://maps.google.com/?cid=0x0:0x82eaad855b866003,
hardware store,Toko Bahan Bangunan,Ud Sentral Jaya,"Binanga, Kec. Mamuju, Kabupaten Mamuju, Sulawesi Barat","Kabupaten Mamuju, Sulawesi Barat",SULAWESI BARAT,,Indonesia,82188708700.0,,,-2.6720221,118.8918978,https://maps.google.com/?cid=0x0:0xa909bb9558006e49,
hardware store,hardware store,Tommo,"Kec. Tommo, Kabupaten Mamuju, Sulawesi Barat","Kabupaten Mamuju, Sulawesi Barat",SULAWESI BARAT,,Indonesia,,,,-2.2941884,119.2437011,https://maps.google.com/?cid=0x0:0x502d34d075f4f7b1,
hardware store,Minimarket,MR. DIY,"W7QP+9CG, Jl. Poros Majene - Mamuju, Topoyo, Kec. Topoyo, Kabupaten Mamuju Tengah, Sulawesi Barat 91464","Jl. Poros Majene - Mamuju, Topoyo, Kec. Topoyo, Kabupaten Mamuju Tengah",SULAWESI BARAT,91464.0,Indonesia,,,,-2.0615729,119.2860777,https://maps.google.com/?cid=0x0:0x385d875a73239777,
hardware store,Toko bahan makanan,Toko Mitra Kita,"W7JP+MQH, Jl. Poros Majene - Mamuju, Topoyo, Kec. Topoyo, Kabupaten Mamuju, Sulawesi Barat 91563","Jl. Poros Majene - Mamuju, Topoyo, Kec. Topoyo, Kabupaten Mamuju",SULAWESI BARAT,91563.0,Indonesia,,,,-2.0683169,119.2869748,https://maps.google.com/?cid=0x0:0x9b7f2503ad79e01b,
hardware store,Toko Perlengkapan Rumah,Rama Jaya HPL ( TACO ),"Jl. Pahlawan No.149, RT.02/RW.06, Bondongan, Kec. Bogor Sel., Kota Bogor, Jawa Barat 16132","RT.02/RW.06, Bondongan, Kec. Bogor Sel., Kota Bogor",SULAWESI BARAT,16132.0,Indonesia,81212880339.0,,,-6.6150046,106.8040638,https://maps.google.com/?cid=0x0:0x962ec90f496e691b,
hardware store,hardware store,Hardware store,"Jl Kecubung 3 24 RT 002/09, Dki Jakarta, Dki Jakarta, Jawa Barat 10110","Dki Jakarta, Dki Jakarta",SULAWESI BARAT,10110.0,Indonesia,,,,-6.2243727,106.905985,https://maps.google.com/?cid=0x0:0x94de5d8c41b1ebea,
