Category,Real Category,Business Name,Address,City,State,Postal Code,Country,Phone,Email,Website,Latitude,Longitude,Map Link,Details Link
mall,Kantor Perusahaan,Maleo Town Square,"Jl. Yos Sudarso No.37, Binanga, Kec. Mamuju, Kabupaten Mamuju, Sulawesi Barat 91511","Binanga, Kec. Mamuju, Kabupaten Mamuju",SULAWESI BARAT,91511.0,Indonesia,81280867009.0,,,-2.6692803,118.8916841,https://maps.google.com/?cid=0x0:0x87dbaf62ffc34e7c,
mall,Toko umum,Toko Indah,"F878+M9X, Bonehau, Kec. Bonehau, Kabupaten Mamuju, Sulawesi Barat 91562","Bonehau, Kec. Bonehau, Kabupaten Mamuju",SULAWESI BARAT,91562.0,Indonesia,,,,-2.5351638,119.3158743,https://maps.google.com/?cid=0x0:0xf930e047f490c75c,
mall,mall,Kios Bella,"G9FM+2PP, Mappu, Kec. Bonehau, Kabupaten Mamuju, Sulawesi Barat","Kabupaten Mamuju, Sulawesi Barat",SULAWESI BARAT,,Indonesia,,,,-2.4774161,119.3843399,https://maps.google.com/?cid=0x0:0x383032fdab9f4af1,
mall,mall,Kios Feby,"G9CM+QGR, Lumika, Kec. Bonehau, Kabupaten Mamuju, Sulawesi Barat","Kabupaten Mamuju, Sulawesi Barat",SULAWESI BARAT,,Indonesia,,,,-2.478004,119.383762,https://maps.google.com/?cid=0x0:0x8c7e58868fe248da,
mall,Toko,Launa Graha Kalukku,"C3X6+7XR, Kalukku, Kec. Kalukku, Kabupaten Mamuju, Sulawesi Barat 91561","Kalukku, Kec. Kalukku, Kabupaten Mamuju",SULAWESI BARAT,91561.0,Indonesia,,,,-2.5517665,119.0623816,https://maps.google.com/?cid=0x0:0x7387dbf8fde5e989,
mall,Pusat Perbelanjaan,Berapusi Mall Mamuju,"92R5+XR7, Bebanga, Kec. Kalukku, Kabupaten Mamuju, Sulawesi Barat 91561","Bebanga, Kec. Kalukku, Kabupaten Mamuju",SULAWESI BARAT,91561.0,Indonesia,426402735.0,,,-2.6075959,119.0095516,https://maps.google.com/?cid=0x0:0x54eda637542161a6,
mall,Kantor Perusahaan,Maleo Town Square,"Jl. Yos Sudarso No.37, Binanga, Kec. Mamuju, Kabupaten Mamuju, Sulawesi Barat 91511","Binanga, Kec. Mamuju, Kabupaten Mamuju",SULAWESI BARAT,91511.0,Indonesia,81280867009.0,,,-2.6692803,118.8916841,https://maps.google.com/?cid=0x0:0x87dbaf62ffc34e7c,
mall,Toko Ponsel,SULIA CELL,"C27M+W24, Sinyonyoi, Kec. Kalukku, Kabupaten Mamuju, Sulawesi Barat 91561","Sinyonyoi, Kec. Kalukku, Kabupaten Mamuju",SULAWESI BARAT,91561.0,Indonesia,82195551987.0,,,-2.5852336,119.0325662,https://maps.google.com/?cid=0x0:0x3c68ee8d3e03c857,
mall,Toko,Toko Babalalang,"F335+383, Kalukku Bar., Kec. Kalukku, Kabupaten Mamuju, Sulawesi Barat 91561","Kalukku Bar., Kec. Kalukku, Kabupaten Mamuju",SULAWESI BARAT,91561.0,Indonesia,81247500355.0,,,-2.547359,119.058289,https://maps.google.com/?cid=0x0:0x9b68d1c9437fdc76,
mall,Pusat Perbelanjaan,Pabrik Tahu Kaluku,"F374+89Q, Kalukku Bar., Kec. Kalukku, Kabupaten Mamuju, Sulawesi Barat 91561","Kalukku Bar., Kec. Kalukku, Kabupaten Mamuju",SULAWESI BARAT,91561.0,Indonesia,85394554174.0,,,-2.5366654,119.0559769,https://maps.google.com/?cid=0x0:0xb3cb54461de74df4,
mall,Kios,Kios sandi,"G4JX+4PG, Jl. Poros Palu - Mamuju, Belang-Belang, Kec. Kalukku, Kabupaten Mamuju, Sulawesi Barat 91561","Jl. Poros Palu - Mamuju, Belang-Belang, Kec. Kalukku, Kabupaten Mamuju",SULAWESI BARAT,91561.0,Indonesia,,,,-2.4696861,119.149319,https://maps.google.com/?cid=0x0:0x488d0db8ff235074,
mall,Toko umum,Anugrah Cell,"F359+6QW, Jl. Poros Majene - Mamuju, Kalukku, Kec. Kalukku, Kabupaten Mamuju, Sulawesi Barat 91561","Jl. Poros Majene - Mamuju, Kalukku, Kec. Kalukku, Kabupaten Mamuju",SULAWESI BARAT,91561.0,Indonesia,,,,-2.5418867,119.0694588,https://maps.google.com/?cid=0x0:0xb1e6d8e47b489959,
mall,Pusat Perbelanjaan,MATOS MALL OTC,"8VJR+7MC, Jl. Yos Sudarso, Binanga, Kec. Mamuju, Kabupaten Mamuju, Sulawesi Barat 91511","Jl. Yos Sudarso, Binanga, Kec. Mamuju, Kabupaten Mamuju",SULAWESI BARAT,91511.0,Indonesia,,,,-2.669308,118.8916431,https://maps.google.com/?cid=0x0:0xd0c1f3bfb34f7b6,
mall,Toko Swalayan,Pasar sentral tasiu,"F338+VX4, Kalukku, Kec. Kalukku, Kabupaten Mamuju, Sulawesi Barat 91561","Kalukku, Kec. Kalukku, Kabupaten Mamuju",SULAWESI BARAT,91561.0,Indonesia,,,,-2.5453642,119.0674548,https://maps.google.com/?cid=0x0:0xbc0b350f586b3e1f,
mall,Toko Pakaian,TOKO SAMA MAJU STREET DISTRO,"C3X7+66W, Jl. Poros Majene - Mamuju, Kalukku, Kec. Kalukku, Kabupaten Mamuju, Sulawesi Barat 91561","Jl. Poros Majene - Mamuju, Kalukku, Kec. Kalukku, Kabupaten Mamuju",SULAWESI BARAT,91561.0,Indonesia,,,,-2.5518796,119.0630859,https://maps.google.com/?cid=0x0:0xe496d93cdab9cbaa,
mall,Toko Pakaian,herni Online Shop / Uni Doken,"Sinyonyoi, Kec. Kalukku, Kabupaten Mamuju, Sulawesi Barat 91561","Kec. Kalukku, Kabupaten Mamuju",SULAWESI BARAT,91561.0,Indonesia,85340355725.0,,,-2.5721029,119.0587352,https://maps.google.com/?cid=0x0:0xe8603de05d709aa9,
mall,Toko grosir,Toko cantika 09,"F339+V47, Jl. Po, Kalukku, Kec. Kalukku, Kabupaten Mamuju, Sulawesi Barat 91561","Jl. Po, Kalukku, Kec. Kalukku, Kabupaten Mamuju",SULAWESI BARAT,91561.0,Indonesia,85282140598.0,,,-2.5453341,119.0677966,https://maps.google.com/?cid=0x0:0xee3afd1a7f234c3e,
mall,mall,Sulawesi Barat 91561,"Kec. Kalukku, Kabupaten Mamuju, Sulawesi Barat","Kabupaten Mamuju, Sulawesi Barat",SULAWESI BARAT,,Indonesia,,,,-2.6024479,119.0925356,https://maps.google.com/?cid=0x0:0x812ca59188edc0c9,
mall,Kios,Src Sinar Alam,"Jalan Pahlawan, Kalukku, Kec. Kalukku, Kabupaten Mamuju, Sulawesi Barat 91561","Kalukku, Kec. Kalukku, Kabupaten Mamuju",SULAWESI BARAT,91561.0,Indonesia,82346671010.0,,,-2.5419951,119.0695869,https://maps.google.com/?cid=0x0:0x6e6933e8035821c0,
mall,Toko Elektronik,BINTANG PHONE TASIU,"C3X6+7RF, Jl. Poros Majene - Mamuju, Kalukku, Kec. Kalukku, Kabupaten Mamuju, Sulawesi Barat 91561","Jl. Poros Majene - Mamuju, Kalukku, Kec. Kalukku, Kabupaten Mamuju",SULAWESI BARAT,91561.0,Indonesia,85242691009.0,,,-2.551812,119.062052,https://maps.google.com/?cid=0x0:0x9816977c4fc94e0e,
mall,Pusat Perbelanjaan,toko beras angel,"C2RX+GRM, Jl. Poros Majene - Mamuju, Sinyonyoi, Kec. Kalukku, Kabupaten Mamuju, Sulawesi Barat 91561","Jl. Poros Majene - Mamuju, Sinyonyoi, Kec. Kalukku, Kabupaten Mamuju",SULAWESI BARAT,91561.0,Indonesia,,,,-2.5586544,119.0495473,https://maps.google.com/?cid=0x0:0x4c88c966953e1f09,
mall,Toko bahan makanan,Toko mentari tasiu grosir,"F359+8R8, Jl. Poros Palu - Mamuju, Kalukku, Kec. Kalukku, Kabupaten Mamuju, Sulawesi Barat 91561","Jl. Poros Palu - Mamuju, Kalukku, Kec. Kalukku, Kabupaten Mamuju",SULAWESI BARAT,91561.0,Indonesia,,,,-2.5417162,119.0695794,https://maps.google.com/?cid=0x0:0x8bbcb4a38eff6c87,
mall,Minimarket,Indomaret Kalukku Kota Mamuju,"C2GP+FQ4, Sinyonyoi, Kec. Kalukku, Kabupaten Mamuju, Sulawesi Barat 91561","Sinyonyoi, Kec. Kalukku, Kabupaten Mamuju",SULAWESI BARAT,91561.0,Indonesia,,,,-2.5738621,119.0369497,https://maps.google.com/?cid=0x0:0x1ecdb7e023ef2444,
mall,Toko,Toko CHARIS,"C3G7+F9, Lingk. Tabokok, Sinyonyoi, Kec. Kalukku, Kabupaten Mamuju, Sulawesi Barat","Kabupaten Mamuju, Sulawesi Barat",SULAWESI BARAT,,Indonesia,85281868990.0,,,-2.5738401,119.0634349,https://maps.google.com/?cid=0x0:0x63a9f5d53ce8bbb3,
mall,Pusat Perbelanjaan,USAHA BERKAH (penjualan daging sapi),"Kalukku, Kec. Kalukku, Kabupaten Mamuju, Sulawesi Barat 91561","Kec. Kalukku, Kabupaten Mamuju",SULAWESI BARAT,91561.0,Indonesia,85242312085.0,,,-2.5415867,119.0700934,https://maps.google.com/?cid=0x0:0xe580f706321f8a87,
mall,Minimarket,Toko Rina,"F27V+HC5, Kalukku Bar., Kec. Kalukku, Kabupaten Mamuju, Sulawesi Barat 91561","Kalukku Bar., Kec. Kalukku, Kabupaten Mamuju",SULAWESI BARAT,91561.0,Indonesia,,,,-2.5369233,119.0442641,https://maps.google.com/?cid=0x0:0x33280152b9162e67,
mall,mall,Sulawesi Barat 91562,"Kabupaten Mamuju, Sulawesi Barat","Kabupaten Mamuju, Sulawesi Barat",SULAWESI BARAT,,Indonesia,,,,-2.4874603,119.5107708,https://maps.google.com/?cid=0x0:0xaf7e6391455a9f6e,
mall,Pusat Perbelanjaan,pasar campaloga,"M7RV+9XM, Campaloga, Kec. Tommo, Kabupaten Mamuju, Sulawesi Barat 91562","Campaloga, Kec. Tommo, Kabupaten Mamuju",SULAWESI BARAT,91562.0,Indonesia,,,,-2.3090281,119.2949107,https://maps.google.com/?cid=0x0:0xc43f109761a874ea,
mall,Toko bahan makanan,Semoga Jaya Mart,"M5GF+WRR, Jl. Poros Palu - Mamuju, Tarailu, Kec. Sampaga, Kabupaten Mamuju, Sulawesi Barat 91563","Jl. Poros Palu - Mamuju, Tarailu, Kec. Sampaga, Kabupaten Mamuju",SULAWESI BARAT,91563.0,Indonesia,,,,-2.3226278,119.1745241,https://maps.google.com/?cid=0x0:0x9779cb099eda65e8,
mall,Pasar,Pasar Rakyat Sampaga,"M5PG+H43, Tarailu, Kec. Sampaga, Kabupaten Mamuju, Sulawesi Barat 91563","Tarailu, Kec. Sampaga, Kabupaten Mamuju",SULAWESI BARAT,91563.0,Indonesia,85299647387.0,,,-2.3136175,119.1753097,https://maps.google.com/?cid=0x0:0x8375111ecde4bf61,
mall,Toko umum,Pasar Tommo 2,"P68R+CRF, Tommo, Kec. Tommo, Kabupaten Mamuju, Sulawesi Barat 91562","Tommo, Kec. Tommo, Kabupaten Mamuju",SULAWESI BARAT,91562.0,Indonesia,,,,-2.2839272,119.2420623,https://maps.google.com/?cid=0x0:0xcbb8a55f190f8471,
mall,Toko Bahan Bangunan,Mega Buana Bangunan,"Tarailu, Kec. Sampaga, Kabupaten Mamuju, Sulawesi Barat 91563","Kec. Sampaga, Kabupaten Mamuju",SULAWESI BARAT,91563.0,Indonesia,81356737526.0,,,-2.3096411,119.1743619,https://maps.google.com/?cid=0x0:0xf3f768be1c38f424,
mall,Kantor Perusahaan,Maleo Town Square,"Jl. Yos Sudarso No.37, Binanga, Kec. Mamuju, Kabupaten Mamuju, Sulawesi Barat 91511","Binanga, Kec. Mamuju, Kabupaten Mamuju",SULAWESI BARAT,91511.0,Indonesia,81280867009.0,,,-2.6692803,118.8916841,https://maps.google.com/?cid=0x0:0x87dbaf62ffc34e7c,
mall,Pusat Perbelanjaan,Algi Shop,"P55H+2WQ, Lemo-Lemo, Kec. Pangale, Kabupaten Mamuju, Sulawesi Barat 91563","Lemo-Lemo, Kec. Pangale, Kabupaten Mamuju",SULAWESI BARAT,91563.0,Indonesia,,,,-2.2924152,119.1798448,https://maps.google.com/?cid=0x0:0xaede557789975660,
mall,Pembangunan Perumahan,Nanda putra,"Buana Sakti, Kec. Tommo, Kabupaten Mamuju, Sulawesi Barat 91562","Kec. Tommo, Kabupaten Mamuju",SULAWESI BARAT,91562.0,Indonesia,82193254625.0,,,-2.291661,119.2773645,https://maps.google.com/?cid=0x0:0x387303f030778cf5,
mall,Pusat Perbelanjaan,Ulhyee store,"depan bank bri, Jalan poros, Tarailu, Kec. Sampaga, Kabupaten Mamuju, Sulawesi Barat 91563","Jalan poros, Tarailu, Kec. Sampaga, Kabupaten Mamuju",SULAWESI BARAT,91563.0,Indonesia,,,,-2.3129949,119.1764946,https://maps.google.com/?cid=0x0:0x40b5db38acab0ae8,
mall,Minimarket,KIOS MBOK'DE,"P6GH+WRQ, Kuo, Kec. Pangale, Kabupaten Mamuju, Sulawesi Barat 91562","Kuo, Kec. Pangale, Kabupaten Mamuju",SULAWESI BARAT,91562.0,Indonesia,,,,-2.2726702,119.2296064,https://maps.google.com/?cid=0x0:0x5432852882d7caa2,
mall,Toko bahan makanan,Toko Yesshop,"M7MX+85X, Campaloga, Kec. Tommo, Kabupaten Mamuju, Sulawesi Barat 91562","Campaloga, Kec. Tommo, Kabupaten Mamuju",SULAWESI BARAT,91562.0,Indonesia,85343778785.0,,,-2.3166436,119.2979726,https://maps.google.com/?cid=0x0:0x23bc6faff87ea335,
mall,Toko,Kios Indah,"M8J8+8MW, Campaloga, Kec. Tommo, Kabupaten Mamuju, Sulawesi Barat 91562","Campaloga, Kec. Tommo, Kabupaten Mamuju",SULAWESI BARAT,91562.0,Indonesia,85756861261.0,,,-2.3191308,119.316698,https://maps.google.com/?cid=0x0:0x46cc1057b9419742,
mall,Toko Swalayan,Ari marendeng,"P74X+GQ8, Unnamed Road, Tamejarra, Kec. Tommo, Kabupaten Mamuju, Sulawesi Barat 91562","Unnamed Road, Tamejarra, Kec. Tommo, Kabupaten Mamuju",SULAWESI BARAT,91562.0,Indonesia,,,,-2.2937003,119.2994392,https://maps.google.com/?cid=0x0:0xc670f325fa3ed505,
mall,Pusat Perbelanjaan,Toko Hj. Tuti,"M5QG+5JQ, Tarailu, Kec. Sampaga, Kabupaten Mamuju, Sulawesi Barat 91563","Tarailu, Kec. Sampaga, Kabupaten Mamuju",SULAWESI BARAT,91563.0,Indonesia,81343674554.0,,,-2.3120416,119.1766201,https://maps.google.com/?cid=0x0:0x1453c1761d115f3f,
mall,Toko Swalayan,Kios Buda,"P66W+V26, Unnamed Road, Tommo, Kec. Tommo, Kabupaten Mamuju, Sulawesi Barat 91562","Unnamed Road, Tommo, Kec. Tommo, Kabupaten Mamuju",SULAWESI BARAT,91562.0,Indonesia,,,,-2.2878292,119.245025,https://maps.google.com/?cid=0x0:0x732150ba95df97cb,
mall,Pusat Perbelanjaan,AsiaVita Skincare Mamuju,"P5JW+FV9, Polopangale, Kec. Pangale, Kabupaten Mamuju Tengah, Sulawesi Barat 91562","Polopangale, Kec. Pangale, Kabupaten Mamuju Tengah",SULAWESI BARAT,91562.0,Indonesia,82293029328.0,,,-2.2688307,119.1972257,https://maps.google.com/?cid=0x0:0xc535d435bf994a06,
mall,Toko Percetakan,Percetakan TRISNO,"Desa, Buana Sakti, Kec. Tommo, Kabupaten Mamuju, Sulawesi Barat 91562","Buana Sakti, Kec. Tommo, Kabupaten Mamuju",SULAWESI BARAT,91562.0,Indonesia,81381415559.0,,,-2.2877309,119.275547,https://maps.google.com/?cid=0x0:0x25cf006e2867709,
mall,Pusat Perbelanjaan,Toko Rudhy,"M5PG+84C, Jl. Bangau, Tarailu, Kec. Sampaga, Kabupaten Mamuju, Sulawesi Barat 91563","Jl. Bangau, Tarailu, Kec. Sampaga, Kabupaten Mamuju",SULAWESI BARAT,91563.0,Indonesia,,,,-2.3141816,119.1752749,https://maps.google.com/?cid=0x0:0xfe302237f7dd5d8a,
mall,Toko Kosmetik,Dillalova kosmetik  baby care,"Tarailu, Kec. Sampaga, Kabupaten Mamuju, Sulawesi Barat 91563","Kec. Sampaga, Kabupaten Mamuju",SULAWESI BARAT,91563.0,Indonesia,85224224402.0,,,-2.3143065,119.1763279,https://maps.google.com/?cid=0x0:0x5287cfc23ef2de4a,
mall,Mal outlet,M3 Shopping Mall,"Jln Madrasah, Taman Melati, 53100 Kuala Lumpur, Wilayah Persekutuan Kuala Lumpur, Malaysia",Kuala Lumpur,SULAWESI BARAT,53100.0,Indonesia,60361783350.0,,,3.217628,101.7184995,https://maps.google.com/?cid=0x0:0x89d19519b4b0407c,
mall,Pusat Perbelanjaan,Melawati Mall,"UP2-01, Centre Management Office, Melawati Mall, 355, Jln Bandar Melawati, Pusat Bandar Melawati, 53100 Kuala Lumpur, Selangor, Malaysia",Kuala Lumpur,SULAWESI BARAT,53100.0,Indonesia,60341618720.0,,,3.2104842,101.7485587,https://maps.google.com/?cid=0x0:0xcdbcab7d1ea1ba90,
mall,Perhentian bus,AJ489 Melawati Mall,"53100 Ampang Jaya, Selangor, Malaysia",Ampang Jaya,SULAWESI BARAT,53100.0,Indonesia,,,,3.208909,101.748698,https://maps.google.com/?cid=0x0:0xadb8556807b75ec0,
mall,Pusat Perbelanjaan,Quill City Mall Kuala Lumpur,"1018, Jln Sultan Ismail, Bandar Wawasan, 50250 Kuala Lumpur, Wilayah Persekutuan Kuala Lumpur, Malaysia",Kuala Lumpur,SULAWESI BARAT,50250.0,Indonesia,60326031111.0,,,3.1598664,101.7000562,https://maps.google.com/?cid=0x0:0x4e5d5c48a530bde6,
mall,Makanan Siap Saji,Marrybrown Melawati Mall,"355, Pusat, Melawati Mall, L3-05, Level 3, Jln Bandar Melawati, 53100 Kuala Lumpur, Malaysia",Kuala Lumpur,SULAWESI BARAT,53100.0,Indonesia,60341611992.0,,,3.2109589,101.7487551,https://maps.google.com/?cid=0x0:0x8a45c23394b583e7,
mall,Restoran,Rimba Resto (Melawati Mall),"Lot L3-13, Level 3, Melawati Mall, Jln Bandar Melawati, Pusat Bandar Melawati, 53100 Kuala Lumpur, Federal Territory of Kuala Lumpur, Malaysia",Kuala Lumpur,SULAWESI BARAT,53100.0,Indonesia,60127622077.0,,,3.2099383,101.7485647,https://maps.google.com/?cid=0x0:0xf6a10d8ee6091652,
mall,Kedai Kopi,San Francisco Coffee Melawati Mall,"GF-27 Ground Floor, 355, Jln Bandar Melawati, Pusat Bandar Melawati, 53100 Kuala Lumpur, Selangor, Malaysia",Kuala Lumpur,SULAWESI BARAT,53100.0,Indonesia,60367300911.0,,,3.2106556,101.7487743,https://maps.google.com/?cid=0x0:0x94503bb46d15a77f,
mall,Toko Mebel,SSFHOME @ Melawati Mall,"Melawati Mall, L2-19 Level 2, 355, Jln Bandar Melawati, Pusat Bandar Melawati, 53100 Kuala Lumpur, Malaysia",Kuala Lumpur,SULAWESI BARAT,53100.0,Indonesia,60341629968.0,,,3.2094496,101.7483875,https://maps.google.com/?cid=0x0:0x295b37d488fadb6a,
mall,Halal,Golden Valley,"L3-18/19, South Wing, Melawati Mall, 355, Jln Bandar Melawati, Pusat Bandar Melawati, 53100 Kuala Lumpur, Wilayah Persekutuan, Malaysia",Kuala Lumpur,SULAWESI BARAT,53100.0,Indonesia,60341613328.0,,,3.2104869,101.7485573,https://maps.google.com/?cid=0x0:0xe521d337be016fb4,
mall,mall,Sulawesi Barat 91512,"Kabupaten Mamuju, Sulawesi Barat","Kabupaten Mamuju, Sulawesi Barat",SULAWESI BARAT,,Indonesia,,,,-1.8494265,119.5339711,https://maps.google.com/?cid=0x0:0x8e21c401717b8ceb,
mall,Kantor Perusahaan,Maleo Town Square,"Jl. Yos Sudarso No.37, Binanga, Kec. Mamuju, Kabupaten Mamuju, Sulawesi Barat 91511","Binanga, Kec. Mamuju, Kabupaten Mamuju",SULAWESI BARAT,91511.0,Indonesia,81280867009.0,,,-2.6692803,118.8916841,https://maps.google.com/?cid=0x0:0x87dbaf62ffc34e7c,
mall,mall,MALL Mamuju,"8VJV+G6H, Binanga, Kec. Mamuju, Kabupaten Mamuju, Sulawesi Barat 91511","Binanga, Kec. Mamuju, Kabupaten Mamuju",SULAWESI BARAT,91511.0,Indonesia,81242305305.0,,,-2.6686757,118.8930985,https://maps.google.com/?cid=0x0:0x5a5c0de89b104636,
mall,mall,JCO COFFEE  DONUTS - MALEO TOWN SQUARE,"8VJR+7JP, Jl. Yos Sudarso, Binanga, Kec. Mamuju, Kabupaten Mamuju, Sulawesi Barat","Kabupaten Mamuju, Sulawesi Barat",SULAWESI BARAT,,Indonesia,4262300026.0,,,-2.6692916,118.8915686,https://maps.google.com/?cid=0x0:0xfba7c4b504c78c4e,
mall,mall,Sulawesi Barat 91511,"Kabupaten Mamuju, Sulawesi Barat","Kabupaten Mamuju, Sulawesi Barat",SULAWESI BARAT,,Indonesia,,,,-2.728111,118.9761519,https://maps.google.com/?cid=0x0:0x3f347dc6f3833aaf,
mall,Kantor Perusahaan,Maleo Town Square,"Jl. Yos Sudarso No.37, Binanga, Kec. Mamuju, Kabupaten Mamuju, Sulawesi Barat 91511","Binanga, Kec. Mamuju, Kabupaten Mamuju",SULAWESI BARAT,91511.0,Indonesia,81280867009.0,,,-2.6692803,118.8916841,https://maps.google.com/?cid=0x0:0x87dbaf62ffc34e7c,
mall,Pusat Perbelanjaan,Pusat Pertokoan Modern Mamuju,"8VGR+XJG, Binanga, Kec. Mamuju, Kabupaten Mamuju, Sulawesi Barat 91511","Binanga, Kec. Mamuju, Kabupaten Mamuju",SULAWESI BARAT,91511.0,Indonesia,,,,-2.6725654,118.891582,https://maps.google.com/?cid=0x0:0x1d0c12cf99eef345,
mall,Pusat Perbelanjaan,MINISO MAMUJU,"Jl. Yos Sudarso No.65, Binanga, Kec. Mamuju, Kabupaten Mamuju, Sulawesi Barat 91511","Binanga, Kec. Mamuju, Kabupaten Mamuju",SULAWESI BARAT,91511.0,Indonesia,81244861862.0,,,-2.6693543,118.8914623,https://maps.google.com/?cid=0x0:0x81c8620f8b3b82c3,
mall,Pusat Perbelanjaan,Berapusi Mall Mamuju,"92R5+XR7, Bebanga, Kec. Kalukku, Kabupaten Mamuju, Sulawesi Barat 91561","Bebanga, Kec. Kalukku, Kabupaten Mamuju",SULAWESI BARAT,91561.0,Indonesia,426402735.0,,,-2.6075959,119.0095516,https://maps.google.com/?cid=0x0:0x54eda637542161a6,
mall,Pusat Perbelanjaan,Hypermart Mamuju 3,"Jl. Yos Sudarso No.37, Binanga, Kabupaten Mamuju, Sulawesi Barat 91511","Binanga, Kabupaten Mamuju",SULAWESI BARAT,91511.0,Indonesia,81244891999.0,,,-2.6692933,118.8914571,https://maps.google.com/?cid=0x0:0x9c36a6f103a3f21e,
mall,Toko Pakaian,Cv.cahaya Sukses Mandiri,"8VCW+QRH, Binanga, Kec. Mamuju, Kabupaten Mamuju, Sulawesi Barat 91511","Binanga, Kec. Mamuju, Kabupaten Mamuju",SULAWESI BARAT,91511.0,Indonesia,85242437676.0,,,-2.6780509,118.8971178,https://maps.google.com/?cid=0x0:0x9b5a91cf47ad5d26,
mall,Pusat Perbelanjaan,Mamuju One Marina Center Mall,"Jalan Cut Nyak Dien No.21, Lolu Utara, Kecamatan Palu Selatan, Kota Palu, Sulawesi Tengah 94111","Lolu Utara, Kecamatan Palu Selatan, Kota Palu",SULAWESI BARAT,94111.0,Indonesia,426997305.0,,,-2.6713504,118.9031833,https://maps.google.com/?cid=0x0:0x97f4b7360414c618,
mall,Bioskop,CINEMAXX Mall Mamuju,"Jl. Yos Sudarso No.65, Binanga, Kec. Mamuju, Kabupaten Mamuju, Sulawesi Barat 91511","Binanga, Kec. Mamuju, Kabupaten Mamuju",SULAWESI BARAT,91511.0,Indonesia,,,,-2.6688392,118.8919936,https://maps.google.com/?cid=0x0:0x11f59998f195e716,
mall,Pusat Perbelanjaan,INDO'Mama Mart,"8WF2+XGP Kota Mamuju (Trans, Jl. Ir. Djuanda, Mamunyu, Topoyo, Kabupaten Mamuju, Sulawesi Barat 91511","Jl. Ir. Djuanda, Mamunyu, Topoyo, Kabupaten Mamuju",SULAWESI BARAT,91511.0,Indonesia,85298371828.0,,,-2.6750466,118.9013137,https://maps.google.com/?cid=0x0:0xb19909fff8d4bb50,
mall,Toko bahan makanan,ALFAMIDI IR JUANDA,"8WF2+Q95, Mamunyu, Kec. Mamuju, Kabupaten Mamuju, Sulawesi Barat 91511","Mamunyu, Kec. Mamuju, Kabupaten Mamuju",SULAWESI BARAT,91511.0,Indonesia,,,,-2.6756128,118.9009782,https://maps.google.com/?cid=0x0:0xd2a1dcf77ee4fe63,
mall,Pusat Perbelanjaan,Matahari Maleo Town Square Mamuju,"Jl. Yos Sudarso No.7, Kabupaten Mamuju, Sulawesi Barat 91561",Kabupaten Mamuju,SULAWESI BARAT,91561.0,Indonesia,8119044421.0,,,-2.6721705,118.8885699,https://maps.google.com/?cid=0x0:0x9ef913d9d0e3e8e4,
mall,Toko,Toko Subur Union,"Binanga, Kec. Mamuju, Kabupaten Mamuju, Sulawesi Barat 91511","Kec. Mamuju, Kabupaten Mamuju",SULAWESI BARAT,91511.0,Indonesia,82287532274.0,,,-2.6712083,118.8923711,https://maps.google.com/?cid=0x0:0xdb42e6923583d3a4,
mall,Toko Percetakan,MANAKARRA CREATIVE,"8WWM+4X8, Bambu, Kec. Mamuju, Kabupaten Mamuju, Sulawesi Barat 91511","Bambu, Kec. Mamuju, Kabupaten Mamuju",SULAWESI BARAT,91511.0,Indonesia,82290504551.0,,,-2.6547203,118.9349483,https://maps.google.com/?cid=0x0:0x643ca9d687d69fd8,
mall,Toko Pakaian,Extreme Adventure Store Mamuju,"Jl. Abd. Syakur No.11 Blok B, Karema, Mamuju, Mamuju Regency, West Sulawesi 91512","Karema, Mamuju, Mamuju Regency",SULAWESI BARAT,91512.0,Indonesia,85242412225.0,,,-2.6831483,118.8786887,https://maps.google.com/?cid=0x0:0xd6e99e5cb6033fbc,
mall,Pusat Perbelanjaan,Laylah shop,"Jl. Poros Majene - Mamuju, Mamunyu, Kec. Mamuju, Kabupaten Mamuju, Sulawesi Barat 91511","Mamunyu, Kec. Mamuju, Kabupaten Mamuju",SULAWESI BARAT,91511.0,Indonesia,81241638116.0,,,-2.6754292,118.9179723,https://maps.google.com/?cid=0x0:0x6914d256a7f8dbfb,
mall,Pusat Perbelanjaan,Toko Sinar Baru,"Jl. LetJend Hertasning No.101, Binanga, Kec. Mamuju, Kabupaten Mamuju, Sulawesi Barat 91511","Binanga, Kec. Mamuju, Kabupaten Mamuju",SULAWESI BARAT,91511.0,Indonesia,,,,-2.6714412,118.892233,https://maps.google.com/?cid=0x0:0x20254f4a7457b002,
mall,Toko,Toko Istana Murah,"8VHR+729, Jl. Dr. Sam Ratulangi, Binanga, Kec. Mamuju, Kabupaten Mamuju, Sulawesi Barat 91511","Jl. Dr. Sam Ratulangi, Binanga, Kec. Mamuju, Kabupaten Mamuju",SULAWESI BARAT,91511.0,Indonesia,,,,-2.6718384,118.8901105,https://maps.google.com/?cid=0x0:0x34dce1e7ead545f1,
mall,Toko,Toko Sama Rahmat Kota Mamuju,"8V7H+59J, Jl. Diponegoro, Karema, Kec. Mamuju, Kabupaten Mamuju, Sulawesi Barat 91512","Jl. Diponegoro, Karema, Kec. Mamuju, Kabupaten Mamuju",SULAWESI BARAT,91512.0,Indonesia,,,,-2.6870493,118.8783753,https://maps.google.com/?cid=0x0:0x88016b7e566f91b,
mall,Toko Perlengkapan Rumah,Rani Walet,"8VJV+9W7, Kasiwa, Binanga, Kec. Mamuju, Kabupaten Mamuju, Sulawesi Barat 91511","Kasiwa, Binanga, Kec. Mamuju, Kabupaten Mamuju",SULAWESI BARAT,91511.0,Indonesia,82343595486.0,,,-2.6690991,118.8947981,https://maps.google.com/?cid=0x0:0x9d3fe5f3da7eb03d,
mall,Toko Alat Pancing,NEMO Pancing,"Jl. Yos Sudarso No.44, Binanga, Kec. Mamuju, Kabupaten Mamuju, Sulawesi Barat 91511","Binanga, Kec. Mamuju, Kabupaten Mamuju",SULAWESI BARAT,91511.0,Indonesia,4262329113.0,,,-2.6692451,118.8929275,https://maps.google.com/?cid=0x0:0xb27c9b800b401c6c,
mall,Toko Pakaian Olahraga,Mastura Sport Alvian,"8VFV+X3G, Jl. Sultan Hasanuddin, Binanga, Kec. Mamuju, Kabupaten Mamuju, Sulawesi Barat 91511","Jl. Sultan Hasanuddin, Binanga, Kec. Mamuju, Kabupaten Mamuju",SULAWESI BARAT,91511.0,Indonesia,82190339011.0,,,-2.6750567,118.8926877,https://maps.google.com/?cid=0x0:0x55d34871f3994926,
mall,Toko,Beras Berkah,"Jl. Mangga, Binanga, Kec. Mamuju, Kabupaten Mamuju, Sulawesi Barat 91511","Binanga, Kec. Mamuju, Kabupaten Mamuju",SULAWESI BARAT,91511.0,Indonesia,85341786627.0,,,-2.6733549,118.8922864,https://maps.google.com/?cid=0x0:0xfe2499dfb160c277,
mall,Toko Pakaian,Owns store mamuju,"Jajan, Jl. Pababari No.79, Karema, Kec. Mamuju, Kabupaten Mamuju, Sulawesi Barat 91511","Jl. Pababari No.79, Karema, Kec. Mamuju, Kabupaten Mamuju",SULAWESI BARAT,91511.0,Indonesia,,,,-2.6846633,118.8817082,https://maps.google.com/?cid=0x0:0x8764e9a5160a060,
mall,mall,Sulawesi Barat 91514,"Kabupaten Mamuju, Sulawesi Barat","Kabupaten Mamuju, Sulawesi Barat",SULAWESI BARAT,,Indonesia,,,,-2.6664001,118.9877942,https://maps.google.com/?cid=0x0:0x63629837e7aa22dc,
mall,Kantor Perusahaan,Maleo Town Square,"Jl. Yos Sudarso No.37, Binanga, Kec. Mamuju, Kabupaten Mamuju, Sulawesi Barat 91511","Binanga, Kec. Mamuju, Kabupaten Mamuju",SULAWESI BARAT,91511.0,Indonesia,81280867009.0,,,-2.6692803,118.8916841,https://maps.google.com/?cid=0x0:0x87dbaf62ffc34e7c,
mall,Pusat Perbelanjaan,Pusat Pertokoan Modern Mamuju,"8VGR+XJG, Binanga, Kec. Mamuju, Kabupaten Mamuju, Sulawesi Barat 91511","Binanga, Kec. Mamuju, Kabupaten Mamuju",SULAWESI BARAT,91511.0,Indonesia,,,,-2.6725654,118.891582,https://maps.google.com/?cid=0x0:0x1d0c12cf99eef345,
mall,Pusat Perbelanjaan,MATOS MALL OTC,"8VJR+7MC, Jl. Yos Sudarso, Binanga, Kec. Mamuju, Kabupaten Mamuju, Sulawesi Barat 91511","Jl. Yos Sudarso, Binanga, Kec. Mamuju, Kabupaten Mamuju",SULAWESI BARAT,91511.0,Indonesia,,,,-2.669308,118.8916431,https://maps.google.com/?cid=0x0:0xd0c1f3bfb34f7b6,
mall,Pusat Perbelanjaan,MINISO MAMUJU,"Jl. Yos Sudarso No.65, Binanga, Kec. Mamuju, Kabupaten Mamuju, Sulawesi Barat 91511","Binanga, Kec. Mamuju, Kabupaten Mamuju",SULAWESI BARAT,91511.0,Indonesia,81244861862.0,,,-2.6693543,118.8914623,https://maps.google.com/?cid=0x0:0x81c8620f8b3b82c3,
mall,Pusat Perbelanjaan,Hypermart Mamuju 3,"Jl. Yos Sudarso No.37, Binanga, Kabupaten Mamuju, Sulawesi Barat 91511","Binanga, Kabupaten Mamuju",SULAWESI BARAT,91511.0,Indonesia,81244891999.0,,,-2.6692933,118.8914571,https://maps.google.com/?cid=0x0:0x9c36a6f103a3f21e,
mall,Toko Percetakan,MANAKARRA CREATIVE,"8WWM+4X8, Bambu, Kec. Mamuju, Kabupaten Mamuju, Sulawesi Barat 91511","Bambu, Kec. Mamuju, Kabupaten Mamuju",SULAWESI BARAT,91511.0,Indonesia,82290504551.0,,,-2.6547203,118.9349483,https://maps.google.com/?cid=0x0:0x643ca9d687d69fd8,
mall,Pusat Perbelanjaan,Matahari Maleo Town Square Mamuju,"Jl. Yos Sudarso No.7, Kabupaten Mamuju, Sulawesi Barat 91561",Kabupaten Mamuju,SULAWESI BARAT,91561.0,Indonesia,8119044421.0,,,-2.6721705,118.8885699,https://maps.google.com/?cid=0x0:0x9ef913d9d0e3e8e4,
mall,Toko,MENTARI CELL,"Bambu, Kec. Mamuju, Kabupaten Mamuju, Sulawesi Barat 91511","Kec. Mamuju, Kabupaten Mamuju",SULAWESI BARAT,91511.0,Indonesia,82337178324.0,,,-2.652086,118.9339095,https://maps.google.com/?cid=0x0:0x936e36d104abea3e,
mall,Toko,Toko Sama Rahmat Kota Mamuju,"8V7H+59J, Jl. Diponegoro, Karema, Kec. Mamuju, Kabupaten Mamuju, Sulawesi Barat 91512","Jl. Diponegoro, Karema, Kec. Mamuju, Kabupaten Mamuju",SULAWESI BARAT,91512.0,Indonesia,,,,-2.6870493,118.8783753,https://maps.google.com/?cid=0x0:0x88016b7e566f91b,
mall,Toko Pertanian,Stockis Produk OrganikNASA,"9X6G+C2M, Jl. Poros Mamuju - Topoyo, Tadui, Topoyo, Kabupaten Mamuju, Sulawesi Barat 91514","Jl. Poros Mamuju - Topoyo, Tadui, Topoyo, Kabupaten Mamuju",SULAWESI BARAT,91514.0,Indonesia,81355707934.0,,,-2.6389172,118.9750543,https://maps.google.com/?cid=0x0:0xc0715cf332139c0b,
mall,mall,MALL Mamuju,"8VJV+G6H, Binanga, Kec. Mamuju, Kabupaten Mamuju, Sulawesi Barat 91511","Binanga, Kec. Mamuju, Kabupaten Mamuju",SULAWESI BARAT,91511.0,Indonesia,81242305305.0,,,-2.6686757,118.8930985,https://maps.google.com/?cid=0x0:0x5a5c0de89b104636,
mall,mall,Mamuju Center Mall,"8VP4+24M, Rangas, Kec. Simboro Dan Kepulauan, Kabupaten Mamuju, Sulawesi Barat 91512","Rangas, Kec. Simboro Dan Kepulauan, Kabupaten Mamuju",SULAWESI BARAT,91512.0,Indonesia,426577835.0,,,-2.6651843,118.855282,https://maps.google.com/?cid=0x0:0xcea04b7a25849bef,
mall,mall,Stabiliser Mibil,"Jl. Mamuju - Kalukku No.77, Bebanga, Kec. Mamuju, Kabupaten Mamuju, Sulawesi Barat 91511","Bebanga, Kec. Mamuju, Kabupaten Mamuju",SULAWESI BARAT,91511.0,Indonesia,,,,-2.6360243,118.9805252,https://maps.google.com/?cid=0x0:0xfff2e0dc96f51551,
mall,Pusat Perbelanjaan,Plaza Grand Mamuju,"8VP4+759, Karema, Kec. Mamuju, Kabupaten Mamuju, Sulawesi Barat","Kabupaten Mamuju, Sulawesi Barat",SULAWESI BARAT,,Indonesia,81267885965.0,,,-2.6643272,118.8554912,https://maps.google.com/?cid=0x0:0x2fd6b557cb7c559b,
mall,mall,Sulawesi Barat 91515,"Karampuang, Kec. Mamuju, Kabupaten Mamuju, Sulawesi Barat","Kabupaten Mamuju, Sulawesi Barat",SULAWESI BARAT,,Indonesia,,,,-2.6273634,118.885894,https://maps.google.com/?cid=0x0:0x734a0409ed48ab3f,
mall,Kantor Perusahaan,Maleo Town Square,"Jl. Yos Sudarso No.37, Binanga, Kec. Mamuju, Kabupaten Mamuju, Sulawesi Barat 91511","Binanga, Kec. Mamuju, Kabupaten Mamuju",SULAWESI BARAT,91511.0,Indonesia,81280867009.0,,,-2.6692803,118.8916841,https://maps.google.com/?cid=0x0:0x87dbaf62ffc34e7c,
mall,Pusat Perbelanjaan,Pusat Pertokoan Modern Mamuju,"8VGR+XJG, Binanga, Kec. Mamuju, Kabupaten Mamuju, Sulawesi Barat 91511","Binanga, Kec. Mamuju, Kabupaten Mamuju",SULAWESI BARAT,91511.0,Indonesia,,,,-2.6725654,118.891582,https://maps.google.com/?cid=0x0:0x1d0c12cf99eef345,
mall,Pusat Perbelanjaan,MINISO MAMUJU,"Jl. Yos Sudarso No.65, Binanga, Kec. Mamuju, Kabupaten Mamuju, Sulawesi Barat 91511","Binanga, Kec. Mamuju, Kabupaten Mamuju",SULAWESI BARAT,91511.0,Indonesia,81244861862.0,,,-2.6693543,118.8914623,https://maps.google.com/?cid=0x0:0x81c8620f8b3b82c3,
mall,Pusat Perbelanjaan,Berapusi Mall Mamuju,"92R5+XR7, Bebanga, Kec. Kalukku, Kabupaten Mamuju, Sulawesi Barat 91561","Bebanga, Kec. Kalukku, Kabupaten Mamuju",SULAWESI BARAT,91561.0,Indonesia,426402735.0,,,-2.6075959,119.0095516,https://maps.google.com/?cid=0x0:0x54eda637542161a6,
mall,Pusat Perbelanjaan,Hypermart Mamuju 3,"Jl. Yos Sudarso No.37, Binanga, Kabupaten Mamuju, Sulawesi Barat 91511","Binanga, Kabupaten Mamuju",SULAWESI BARAT,91511.0,Indonesia,81244891999.0,,,-2.6692933,118.8914571,https://maps.google.com/?cid=0x0:0x9c36a6f103a3f21e,
mall,Pusat Perbelanjaan,Matahari Maleo Town Square Mamuju,"Jl. Yos Sudarso No.7, Kabupaten Mamuju, Sulawesi Barat 91561",Kabupaten Mamuju,SULAWESI BARAT,91561.0,Indonesia,8119044421.0,,,-2.6721705,118.8885699,https://maps.google.com/?cid=0x0:0x9ef913d9d0e3e8e4,
mall,mall,MALL Mamuju,"8VJV+G6H, Binanga, Kec. Mamuju, Kabupaten Mamuju, Sulawesi Barat 91511","Binanga, Kec. Mamuju, Kabupaten Mamuju",SULAWESI BARAT,91511.0,Indonesia,81242305305.0,,,-2.6686757,118.8930985,https://maps.google.com/?cid=0x0:0x5a5c0de89b104636,
mall,mall,Mamuju Center Mall,"8VP4+24M, Rangas, Kec. Simboro Dan Kepulauan, Kabupaten Mamuju, Sulawesi Barat 91512","Rangas, Kec. Simboro Dan Kepulauan, Kabupaten Mamuju",SULAWESI BARAT,91512.0,Indonesia,426577835.0,,,-2.6651843,118.855282,https://maps.google.com/?cid=0x0:0xcea04b7a25849bef,
mall,Pusat Perbelanjaan,Plaza Grand Mamuju,"8VP4+759, Karema, Kec. Mamuju, Kabupaten Mamuju, Sulawesi Barat","Kabupaten Mamuju, Sulawesi Barat",SULAWESI BARAT,,Indonesia,81267885965.0,,,-2.6643272,118.8554912,https://maps.google.com/?cid=0x0:0x2fd6b557cb7c559b,
mall,Toko,Toko Sama Rahmat Kota Mamuju,"8V7H+59J, Jl. Diponegoro, Karema, Kec. Mamuju, Kabupaten Mamuju, Sulawesi Barat 91512","Jl. Diponegoro, Karema, Kec. Mamuju, Kabupaten Mamuju",SULAWESI BARAT,91512.0,Indonesia,,,,-2.6870493,118.8783753,https://maps.google.com/?cid=0x0:0x88016b7e566f91b,
mall,Toko,LINDA OLSHOP MAMUJU,"8WF3+57J, Unnamed Road, Mamunyu, Kec. Mamuju, Kabupaten Mamuju, Sulawesi Barat 91511","Unnamed Road, Mamunyu, Kec. Mamuju, Kabupaten Mamuju",SULAWESI BARAT,91511.0,Indonesia,85213958893.0,,,-2.6770486,118.903135,https://maps.google.com/?cid=0x0:0xb665ae6dd28d0aec,
mall,Toko,Toko Satu Dua,"Binanga, Kec. Mamuju, Kabupaten Mamuju, Sulawesi Barat 91511","Kec. Mamuju, Kabupaten Mamuju",SULAWESI BARAT,91511.0,Indonesia,82293813337.0,,,-2.6689591,118.8932276,https://maps.google.com/?cid=0x0:0x450356669c735c23,
mall,mall,Sulawesi Barat 91563,"Kabupaten Mamuju, Sulawesi Barat","Kabupaten Mamuju, Sulawesi Barat",SULAWESI BARAT,,Indonesia,,,,-2.0727011,119.5107708,https://maps.google.com/?cid=0x0:0x8bfaa35dac2725d7,
mall,Pusat Perbelanjaan,Pasar Rakyat Papalang,"H4GP+G7J, Papalang, Kec. Papalang, Kabupaten Mamuju, Sulawesi Barat","Kabupaten Mamuju, Sulawesi Barat",SULAWESI BARAT,,Indonesia,,,,-2.4236663,119.135647,https://maps.google.com/?cid=0x0:0xda0bada811bc9b11,
mall,mall,BANDAR CHIP TOPORE,"H5J7+C6X, Topore, Kec. Papalang, Kabupaten Mamuju, Sulawesi Barat 91563","Topore, Kec. Papalang, Kabupaten Mamuju",SULAWESI BARAT,91563.0,Indonesia,,,,-2.4188881,119.1631138,https://maps.google.com/?cid=0x0:0x55c028f0a821c8d3,
mall,Pembangunan Perumahan,Salukayu 1,"J677+JV6, Salukayu, Kec. Papalang, Kabupaten Mamuju, Sulawesi Barat 91563","Salukayu, Kec. Papalang, Kabupaten Mamuju",SULAWESI BARAT,91563.0,Indonesia,,,,-2.3859545,119.2146426,https://maps.google.com/?cid=0x0:0x957515a8c23019ae,
mall,Toko,Mifzal Makmur,"J56M+JJM, Toabo, Kec. Papalang, Kabupaten Mamuju, Sulawesi Barat 91563","Toabo, Kec. Papalang, Kabupaten Mamuju",SULAWESI BARAT,91563.0,Indonesia,,,,-2.3888949,119.1838211,https://maps.google.com/?cid=0x0:0x561a08ec6fb13748,
mall,Toko Fotokopi,Foto copy DILLA,"J56M+J6G, Unnamed Road, Toabo, Kec. Papalang, Kabupaten Mamuju, Sulawesi Barat 91563","Unnamed Road, Toabo, Kec. Papalang, Kabupaten Mamuju",SULAWESI BARAT,91563.0,Indonesia,81236146072.0,,,-2.3884473,119.1830861,https://maps.google.com/?cid=0x0:0x22eb62633969c2e8,
mall,Pusat Perbelanjaan,pasar salukayu,"J58W+V5R, Unnamed Road, Salukayu, Kec. Papalang, Kabupaten Mamuju, Sulawesi Barat 91563","Unnamed Road, Salukayu, Kec. Papalang, Kabupaten Mamuju",SULAWESI BARAT,91563.0,Indonesia,,,,-2.3827635,119.195402,https://maps.google.com/?cid=0x0:0x75bdd4fa6c8cf1fa,
mall,Percetakan Komersial,Percetakan MI,"H5J7+QG5, Jl. Poros Majene - Mamuju, Topore, Kec. Papalang, Kabupaten Mamuju, Sulawesi Barat 91563","Jl. Poros Majene - Mamuju, Topore, Kec. Papalang, Kabupaten Mamuju",SULAWESI BARAT,91563.0,Indonesia,82397028360.0,,,-2.4181233,119.1638594,https://maps.google.com/?cid=0x0:0x7b5ac70027617949,
mall,Sekolah Menengah Umum,SMKN 1 Papalang,"H5C4+92F, Papalang, Kec. Papalang, Kabupaten Mamuju, Sulawesi Barat 91561","Papalang, Kec. Papalang, Kabupaten Mamuju",SULAWESI BARAT,91561.0,Indonesia,,,,-2.4290671,119.1550625,https://maps.google.com/?cid=0x0:0x4d8caa1c872fcce3,
mall,Komplek perumahan,BANG AGUS,"X72C+HP5, Waeputeh, Kec. Topoyo, Kabupaten Mamuju, Sulawesi Barat 91563","Waeputeh, Kec. Topoyo, Kabupaten Mamuju",SULAWESI BARAT,91563.0,Indonesia,81342456158.0,,,-2.0486188,119.2718573,https://maps.google.com/?cid=0x0:0x493fa1f21a89c332,
mall,Toko,Kios Rauf Cell,"J58F+XHG, Unnamed Road, Toabo, Kec. Papalang, Kabupaten Mamuju, Sulawesi Barat 91563","Unnamed Road, Toabo, Kec. Papalang, Kabupaten Mamuju",SULAWESI BARAT,91563.0,Indonesia,82293000285.0,,,-2.3825552,119.1739513,https://maps.google.com/?cid=0x0:0xe791ed349981481c,
mall,mall,Papalang,"Papalang, Kec. Papalang, Kabupaten Mamuju, Sulawesi Barat","Kabupaten Mamuju, Sulawesi Barat",SULAWESI BARAT,,Indonesia,,,,-2.437976,119.143501,https://maps.google.com/?cid=0x0:0xcbf94f6dde30edf6,
mall,Kantor Perusahaan,Maleo Town Square,"Jl. Yos Sudarso No.37, Binanga, Kec. Mamuju, Kabupaten Mamuju, Sulawesi Barat 91511","Binanga, Kec. Mamuju, Kabupaten Mamuju",SULAWESI BARAT,91511.0,Indonesia,81280867009.0,,,-2.6692803,118.8916841,https://maps.google.com/?cid=0x0:0x87dbaf62ffc34e7c,
mall,mall,MALL Mamuju,"8VJV+G6H, Binanga, Kec. Mamuju, Kabupaten Mamuju, Sulawesi Barat 91511","Binanga, Kec. Mamuju, Kabupaten Mamuju",SULAWESI BARAT,91511.0,Indonesia,81242305305.0,,,-2.6686757,118.8930985,https://maps.google.com/?cid=0x0:0x5a5c0de89b104636,
mall,mall,Al Ghifari Olshop,"H569+876, Papalang, Kec. Papalang, Kabupaten Mamuju, Sulawesi Barat 91561","Papalang, Kec. Papalang, Kabupaten Mamuju",SULAWESI BARAT,91561.0,Indonesia,,,,-2.4392179,119.1681373,https://maps.google.com/?cid=0x0:0x52fd7cb5e3d1139,
mall,mall,Sulawesi Barat 91563,"Kabupaten Mamuju, Sulawesi Barat","Kabupaten Mamuju, Sulawesi Barat",SULAWESI BARAT,,Indonesia,,,,-2.0727011,119.5107708,https://maps.google.com/?cid=0x0:0x8bfaa35dac2725d7,
mall,Toko bahan makanan,Semoga Jaya Mart,"M5GF+WRR, Jl. Poros Palu - Mamuju, Tarailu, Kec. Sampaga, Kabupaten Mamuju, Sulawesi Barat 91563","Jl. Poros Palu - Mamuju, Tarailu, Kec. Sampaga, Kabupaten Mamuju",SULAWESI BARAT,91563.0,Indonesia,,,,-2.3226278,119.1745241,https://maps.google.com/?cid=0x0:0x9779cb099eda65e8,
mall,Komplek perumahan,BANG AGUS,"X72C+HP5, Waeputeh, Kec. Topoyo, Kabupaten Mamuju, Sulawesi Barat 91563","Waeputeh, Kec. Topoyo, Kabupaten Mamuju",SULAWESI BARAT,91563.0,Indonesia,81342456158.0,,,-2.0486188,119.2718573,https://maps.google.com/?cid=0x0:0x493fa1f21a89c332,
mall,Pusat Perbelanjaan,Ulhyee store,"depan bank bri, Jalan poros, Tarailu, Kec. Sampaga, Kabupaten Mamuju, Sulawesi Barat 91563","Jalan poros, Tarailu, Kec. Sampaga, Kabupaten Mamuju",SULAWESI BARAT,91563.0,Indonesia,,,,-2.3129949,119.1764946,https://maps.google.com/?cid=0x0:0x40b5db38acab0ae8,
mall,Pusat Perbelanjaan,Berapusi Mall Mamuju,"92R5+XR7, Bebanga, Kec. Kalukku, Kabupaten Mamuju, Sulawesi Barat 91561","Bebanga, Kec. Kalukku, Kabupaten Mamuju",SULAWESI BARAT,91561.0,Indonesia,426402735.0,,,-2.6075959,119.0095516,https://maps.google.com/?cid=0x0:0x54eda637542161a6,
mall,Pasar,Pasar Rakyat Sampaga,"M5PG+H43, Tarailu, Kec. Sampaga, Kabupaten Mamuju, Sulawesi Barat 91563","Tarailu, Kec. Sampaga, Kabupaten Mamuju",SULAWESI BARAT,91563.0,Indonesia,85299647387.0,,,-2.3136175,119.1753097,https://maps.google.com/?cid=0x0:0x8375111ecde4bf61,
mall,Toko,Toko sahabat jaya,"Jl. Poros Mamuju - Topoyo, Bunde, Kec. Sampaga, Kabupaten Mamuju, Sulawesi Barat 91563","Bunde, Kec. Sampaga, Kabupaten Mamuju",SULAWESI BARAT,91563.0,Indonesia,82290019907.0,,,-2.3358447,119.1747903,https://maps.google.com/?cid=0x0:0x1ac46bbe67269499,
mall,Toko Bahan Bangunan,Mega Buana Bangunan,"Tarailu, Kec. Sampaga, Kabupaten Mamuju, Sulawesi Barat 91563","Kec. Sampaga, Kabupaten Mamuju",SULAWESI BARAT,91563.0,Indonesia,81356737526.0,,,-2.3096411,119.1743619,https://maps.google.com/?cid=0x0:0xf3f768be1c38f424,
mall,Pusat Perbelanjaan,Toko Hj. Tuti,"M5QG+5JQ, Tarailu, Kec. Sampaga, Kabupaten Mamuju, Sulawesi Barat 91563","Tarailu, Kec. Sampaga, Kabupaten Mamuju",SULAWESI BARAT,91563.0,Indonesia,81343674554.0,,,-2.3120416,119.1766201,https://maps.google.com/?cid=0x0:0x1453c1761d115f3f,
mall,Pusat Perbelanjaan,MATOS MALL OTC,"8VJR+7MC, Jl. Yos Sudarso, Binanga, Kec. Mamuju, Kabupaten Mamuju, Sulawesi Barat 91511","Jl. Yos Sudarso, Binanga, Kec. Mamuju, Kabupaten Mamuju",SULAWESI BARAT,91511.0,Indonesia,,,,-2.669308,118.8916431,https://maps.google.com/?cid=0x0:0xd0c1f3bfb34f7b6,
mall,Toko,Toko Rezki Abadi,"M5PG+8F6, Tarailu, Kec. Sampaga, Kabupaten Mamuju, Sulawesi Barat 91563","Tarailu, Kec. Sampaga, Kabupaten Mamuju",SULAWESI BARAT,91563.0,Indonesia,85394646658.0,,,-2.3142213,119.1761303,https://maps.google.com/?cid=0x0:0xe08ac0f14744ab09,
mall,,Nhydhy FotoCopy,"M5QG+H6C, Tarailu, Kec. Sampaga, Kabupaten Mamuju, Sulawesi Barat 91563","Tarailu, Kec. Sampaga, Kabupaten Mamuju",SULAWESI BARAT,91563.0,Indonesia,81527809634.0,,,-2.3110701,119.1755205,https://maps.google.com/?cid=0x0:0xda0ef2bfdd110607,
mall,Pusat Perbelanjaan,Toko Rudhy,"M5PG+84C, Jl. Bangau, Tarailu, Kec. Sampaga, Kabupaten Mamuju, Sulawesi Barat 91563","Jl. Bangau, Tarailu, Kec. Sampaga, Kabupaten Mamuju",SULAWESI BARAT,91563.0,Indonesia,,,,-2.3141816,119.1752749,https://maps.google.com/?cid=0x0:0xfe302237f7dd5d8a,
mall,Toko Pakaian Wanita,Lili hijab,"M56F+7WJ, Bunde, Kec. Sampaga, Kabupaten Mamuju, Sulawesi Barat 91563","Bunde, Kec. Sampaga, Kabupaten Mamuju",SULAWESI BARAT,91563.0,Indonesia,,,,-2.3392882,119.174773,https://maps.google.com/?cid=0x0:0x3f92fb5ff723cf93,
mall,Toko Kosmetik,Dillalova kosmetik  baby care,"Tarailu, Kec. Sampaga, Kabupaten Mamuju, Sulawesi Barat 91563","Kec. Sampaga, Kabupaten Mamuju",SULAWESI BARAT,91563.0,Indonesia,85224224402.0,,,-2.3143065,119.1763279,https://maps.google.com/?cid=0x0:0x5287cfc23ef2de4a,
mall,Toko bahan makanan,Iccangmaspul,"W7JJ+R98, Jl. Pattanabone, Topoyo, Kec. Topoyo, Kabupaten Mamuju Tengah, Sulawesi Barat 91563","Jl. Pattanabone, Topoyo, Kec. Topoyo, Kabupaten Mamuju Tengah",SULAWESI BARAT,91563.0,Indonesia,82291572496.0,,,-2.067951,119.280954,https://maps.google.com/?cid=0x0:0x3f1f934ea966ff60,
mall,Pusat Perbelanjaan,Hypermart Mamuju 3,"Jl. Yos Sudarso No.37, Binanga, Kabupaten Mamuju, Sulawesi Barat 91511","Binanga, Kabupaten Mamuju",SULAWESI BARAT,91511.0,Indonesia,81244891999.0,,,-2.6692933,118.8914571,https://maps.google.com/?cid=0x0:0x9c36a6f103a3f21e,
mall,mall,Warung ta (Øª),"M559+JR3, Bunde, Kec. Sampaga, Kabupaten Mamuju, Sulawesi Barat 91563","Bunde, Kec. Sampaga, Kabupaten Mamuju",SULAWESI BARAT,91563.0,Indonesia,,,,-2.3406513,119.1690968,https://maps.google.com/?cid=0x0:0x8b3b2f182e319674,
mall,Pusat Perbelanjaan,Blok M Plaza,"Jl. Bulungan No.76, RT.6/RW.6, Kramat Pela, Kec. Kby. Baru, Kota Jakarta Selatan, Daerah Khusus Ibukota Jakarta 12130","RT.6/RW.6, Kramat Pela, Kec. Kby. Baru, Kota Jakarta Selatan",SULAWESI BARAT,12130.0,Indonesia,217209288.0,,,-6.2441189,106.7976404,https://maps.google.com/?cid=0x0:0x3e110f817acb352d,
mall,Pusat Perbelanjaan,Blok M Square,"Jl. Melawai 5, RT.3/RW.1, Melawai, Kec. Kby. Baru, Kota Jakarta Selatan, Daerah Khusus Ibukota Jakarta 12160","RT.3/RW.1, Melawai, Kec. Kby. Baru, Kota Jakarta Selatan",SULAWESI BARAT,12160.0,Indonesia,2172802000.0,,,-6.244593,106.800649,https://maps.google.com/?cid=0x0:0x8f10b22d03d7c9db,
mall,Pusat Perbelanjaan,Mal Blok M,"Jl. Panglima Polim No.3 2, RT.3/RW.1, Melawai, Kec. Kby. Baru, Kota Jakarta Selatan, Daerah Khusus Ibukota Jakarta 12130","RT.3/RW.1, Melawai, Kec. Kby. Baru, Kota Jakarta Selatan",SULAWESI BARAT,12130.0,Indonesia,,,,-6.2434907,106.8007316,https://maps.google.com/?cid=0x0:0xe9b7d8300a7d7ef0,
mall,Pusat Perbelanjaan,Plaza Blok M,"Kramat Pela, Kec. Kby. Baru, Kota Jakarta Selatan, Daerah Khusus Ibukota Jakarta","Kota Jakarta Selatan, Daerah Khusus Ibukota Jakarta",SULAWESI BARAT,,Indonesia,,,,-6.24498,106.79752,https://maps.google.com/?cid=0x0:0x50c001da8c97ac3b,
mall,Stasiun Pengisian Kendaraan Listrik,Hyundai St. Pengisian,"Kramat Pela, Kec. Kby. Baru, Kota Jakarta Selatan, Daerah Khusus Ibukota Jakarta","Kota Jakarta Selatan, Daerah Khusus Ibukota Jakarta",SULAWESI BARAT,,Indonesia,,,,-6.2443047,106.797692,https://maps.google.com/?cid=0x0:0xe8b8d75b40af1052,
mall,Pusat Perbelanjaan,Matahari Department Store Blok M Plaza,"Jl. Bulungan No.76, RT.6/RW.6, Kramat Pela, Kec. Kby. Baru, Kota Jakarta Selatan, Daerah Khusus Ibukota Jakarta 12130","RT.6/RW.6, Kramat Pela, Kec. Kby. Baru, Kota Jakarta Selatan",SULAWESI BARAT,12130.0,Indonesia,217209346.0,,,-6.2441761,106.797544,https://maps.google.com/?cid=0x0:0xab80f43150cdf300,
mall,Jepang,HokBen Blok M Plaza,"Plaza Bl. M, Jl. Bulungan No.76 Lower Ground, RT.6/RW.6, Kramat Pela, Kec. Kby. Baru, Kota Jakarta Selatan, Daerah Khusus Ibukota Jakarta 12130","Jl. Bulungan No.76 Lower Ground, RT.6/RW.6, Kramat Pela, Kec. Kby. Baru, Kota Jakarta Selatan",SULAWESI BARAT,12130.0,Indonesia,1500505.0,,,-6.2440436,106.7976307,https://maps.google.com/?cid=0x0:0x6ff96717d03f36fa,
mall,Toko Ponsel,Erafone,"Lantai 3 No. 321  322, Jl. Bulungan No.76, RT.6/RW.6, Kramat Pela, Kec. Kby. Baru, Kota Jakarta Selatan, Daerah Khusus Ibukota Jakarta 12130","Jl. Bulungan No.76, RT.6/RW.6, Kramat Pela, Kec. Kby. Baru, Kota Jakarta Selatan",SULAWESI BARAT,12130.0,Indonesia,217209394.0,,,-6.2440994,106.7975701,https://maps.google.com/?cid=0x0:0xdf3e628b0798889a,
mall,mall,Kec. Simboro Dan Kepulauan,"Kabupaten Mamuju, Sulawesi Barat","Kabupaten Mamuju, Sulawesi Barat",SULAWESI BARAT,,Indonesia,,,,-2.6886472,118.8687708,https://maps.google.com/?cid=0x0:0x690e32602d9f0e83,
mall,Pasar,Pasar Salletto,"7R7X+V65, Salletto, Kec. Simboro Dan Kepulauan, Kabupaten Mamuju, Sulawesi Barat 91512","Salletto, Kec. Simboro Dan Kepulauan, Kabupaten Mamuju",SULAWESI BARAT,91512.0,Indonesia,82213991009.0,,,-2.735364,118.8481185,https://maps.google.com/?cid=0x0:0x199b66db8723f2b9,
mall,Kantor Perusahaan,Maleo Town Square,"Jl. Yos Sudarso No.37, Binanga, Kec. Mamuju, Kabupaten Mamuju, Sulawesi Barat 91511","Binanga, Kec. Mamuju, Kabupaten Mamuju",SULAWESI BARAT,91511.0,Indonesia,81280867009.0,,,-2.6692803,118.8916841,https://maps.google.com/?cid=0x0:0x87dbaf62ffc34e7c,
mall,Pusat Perbelanjaan,Pusat Pertokoan Modern Mamuju,"8VGR+XJG, Binanga, Kec. Mamuju, Kabupaten Mamuju, Sulawesi Barat 91511","Binanga, Kec. Mamuju, Kabupaten Mamuju",SULAWESI BARAT,91511.0,Indonesia,,,,-2.6725654,118.891582,https://maps.google.com/?cid=0x0:0x1d0c12cf99eef345,
mall,Toko bahan makanan,Toko Sejati,"8VG7+VQV, Jl. Martadinata, Simboro, Kec. Simboro Dan Kepulauan, Kabupaten Mamuju, Sulawesi Barat 91512","Jl. Martadinata, Simboro, Kec. Simboro Dan Kepulauan, Kabupaten Mamuju",SULAWESI BARAT,91512.0,Indonesia,,,,-2.6727531,118.8644333,https://maps.google.com/?cid=0x0:0xc35209f6f9aec36c,
mall,mall,Azizah Store,"8V7H+636, Jl. Diponegoro, Karema, Kec. Mamuju, Kabupaten Mamuju, Sulawesi Barat 91512","Jl. Diponegoro, Karema, Kec. Mamuju, Kabupaten Mamuju",SULAWESI BARAT,91512.0,Indonesia,,,,-2.6869786,118.8776576,https://maps.google.com/?cid=0x0:0xb380d283acb13ce5,
mall,Pusat Perbelanjaan,MATOS MALL OTC,"8VJR+7MC, Jl. Yos Sudarso, Binanga, Kec. Mamuju, Kabupaten Mamuju, Sulawesi Barat 91511","Jl. Yos Sudarso, Binanga, Kec. Mamuju, Kabupaten Mamuju",SULAWESI BARAT,91511.0,Indonesia,,,,-2.669308,118.8916431,https://maps.google.com/?cid=0x0:0xd0c1f3bfb34f7b6,
mall,Kantor Perusahaan,Mellyana softlens,"8V75+VQ3, Simboro, Kec. Simboro Dan Kepulauan, Kabupaten Mamuju, Sulawesi Barat 91512","Simboro, Kec. Simboro Dan Kepulauan, Kabupaten Mamuju",SULAWESI BARAT,91512.0,Indonesia,82239732626.0,,,-2.6853586,118.8594134,https://maps.google.com/?cid=0x0:0x5cef830d28bcb17e,
mall,Toko Ponsel,Aini Cell,"8VQ3+F7J, Rangas, Kec. Simboro Dan Kepulauan, Kabupaten Mamuju, Sulawesi Barat 91512","Rangas, Kec. Simboro Dan Kepulauan, Kabupaten Mamuju",SULAWESI BARAT,91512.0,Indonesia,85298310954.0,,,-2.6612941,118.853132,https://maps.google.com/?cid=0x0:0xca93303cd44b3d32,
mall,Toko bahan makanan,KIOS IRNA MAHMUD,"6VF8+923, Jl. Poros Majene - Mamuju, Botteng, Kec. Simboro Dan Kepulauan, Kabupaten Mamuju, Sulawesi Barat 91512","Jl. Poros Majene - Mamuju, Botteng, Kec. Simboro Dan Kepulauan, Kabupaten Mamuju",SULAWESI BARAT,91512.0,Indonesia,,,,-2.7766126,118.8650426,https://maps.google.com/?cid=0x0:0xe9c41f4f1a623747,
mall,Toko bahan makanan,Alfa Midi,"Jl. RE Martadinata No.21, Simboro, Kec. Simboro Dan Kepulauan, Kabupaten Mamuju, Sulawesi Barat 91512","Simboro, Kec. Simboro Dan Kepulauan, Kabupaten Mamuju",SULAWESI BARAT,91512.0,Indonesia,,,,-2.68754,118.8617118,https://maps.google.com/?cid=0x0:0x10c301c3a3a705ab,
mall,Pusat Perbelanjaan,SURYA MANDIRI,"Jl. Abdul Malik Pattana Endeng depan SMK 1, Rangas, Kec. Simboro Dan Kepulauan, Kabupaten Mamuju, Sulawesi Barat 91512","Rangas, Kec. Simboro Dan Kepulauan, Kabupaten Mamuju",SULAWESI BARAT,91512.0,Indonesia,85256279152.0,,,-2.6592083,118.8489541,https://maps.google.com/?cid=0x0:0x8d2ea0a5839873dc,
mall,Pusat Perbelanjaan,MINISO MAMUJU,"Jl. Yos Sudarso No.65, Binanga, Kec. Mamuju, Kabupaten Mamuju, Sulawesi Barat 91511","Binanga, Kec. Mamuju, Kabupaten Mamuju",SULAWESI BARAT,91511.0,Indonesia,81244861862.0,,,-2.6693543,118.8914623,https://maps.google.com/?cid=0x0:0x81c8620f8b3b82c3,
mall,Toko bahan makanan,AGEN GALON LE MINERALE toko wirda,"Jl. Jend Sudirman No.37, Simboro, Kec. Simboro Dan Kepulauan, Kabupaten Mamuju, Sulawesi Barat 91512","Simboro, Kec. Simboro Dan Kepulauan, Kabupaten Mamuju",SULAWESI BARAT,91512.0,Indonesia,,,,-2.6844131,118.8698894,https://maps.google.com/?cid=0x0:0x8e47c084fc30bc7a,
mall,Toko Alat Tulis Kantor,Toko ATK Mahakarya Grup,"8VM3+9JQ, Jl. Abdul Malik Pattana Endeng, Rangas, Kec. Simboro Dan Kepulauan, Kabupaten Mamuju, Sulawesi Barat 91512","Jl. Abdul Malik Pattana Endeng, Rangas, Kec. Simboro Dan Kepulauan, Kabupaten Mamuju",SULAWESI BARAT,91512.0,Indonesia,,,,-2.6665471,118.8541035,https://maps.google.com/?cid=0x0:0xe37805556116ae2c,
mall,Toko,Kios Rifat,"Jl. Poros Sese Bia No.Kel, Rangas, Kec. Simboro Dan Kepulauan, Kabupaten Mamuju, Sulawesi Barat 91512","Rangas, Kec. Simboro Dan Kepulauan, Kabupaten Mamuju",SULAWESI BARAT,91512.0,Indonesia,,,,-2.6869383,118.8468528,https://maps.google.com/?cid=0x0:0x7a2c8d4d22ee944e,
mall,Restoran,Angkringan Podomoro,"Jl. Abdul Malik Pattana Endeng, Simboro, Kec. Simboro Dan Kepulauan, Kabupaten Mamuju, Sulawesi Barat 91512","Simboro, Kec. Simboro Dan Kepulauan, Kabupaten Mamuju",SULAWESI BARAT,91512.0,Indonesia,81244225564.0,,,-2.6800951,118.857762,https://maps.google.com/?cid=0x0:0x88936d1f8b498bc6,
mall,Toko Buah dan Sayur,Pasar Buah Durian,"7VJ5+XW8, Pati'di, Kec. Simboro Dan Kepulauan, Kabupaten Mamuju, Sulawesi Barat 91512","Pati'di, Kec. Simboro Dan Kepulauan, Kabupaten Mamuju",SULAWESI BARAT,91512.0,Indonesia,82290678423.0,,,-2.717576,118.8598431,https://maps.google.com/?cid=0x0:0x6a030a5ba096550a,
mall,Pusat Perbelanjaan,Plaza Grand Mamuju,"8VP4+759, Karema, Kec. Mamuju, Kabupaten Mamuju, Sulawesi Barat","Kabupaten Mamuju, Sulawesi Barat",SULAWESI BARAT,,Indonesia,81267885965.0,,,-2.6643272,118.8554912,https://maps.google.com/?cid=0x0:0x2fd6b557cb7c559b,
mall,Toko Pakaian,Extreme Adventure Store Mamuju,"Jl. Abd. Syakur No.11 Blok B, Karema, Mamuju, Mamuju Regency, West Sulawesi 91512","Karema, Mamuju, Mamuju Regency",SULAWESI BARAT,91512.0,Indonesia,85242412225.0,,,-2.6831483,118.8786887,https://maps.google.com/?cid=0x0:0xd6e99e5cb6033fbc,
mall,Pusat Perbelanjaan,Hypermart Mamuju 3,"Jl. Yos Sudarso No.37, Binanga, Kabupaten Mamuju, Sulawesi Barat 91511","Binanga, Kabupaten Mamuju",SULAWESI BARAT,91511.0,Indonesia,81244891999.0,,,-2.6692933,118.8914571,https://maps.google.com/?cid=0x0:0x9c36a6f103a3f21e,
mall,Komplek perumahan,BTN Perintis manakarra C1,"Depan korongana pancing, BTN Perintis manakarra C1, Jl. Abdul Malik Pattana Endeng, Simboro, Kec. Simboro Dan Kepulauan, Kabupaten Mamuju, Sulawesi Barat 91512","BTN Perintis manakarra C1, Jl. Abdul Malik Pattana Endeng, Simboro, Kec. Simboro Dan Kepulauan, Kabupaten Mamuju",SULAWESI BARAT,91512.0,Indonesia,,,,-2.6714969,118.8534311,https://maps.google.com/?cid=0x0:0x9853dcefa89f3a43,
mall,Pabrik stiker,JJR Sticker  Digital Printing,"8V68+FPH, Simboro, Kec. Simboro Dan Kepulauan, Kabupaten Mamuju, Sulawesi Barat 91512","Simboro, Kec. Simboro Dan Kepulauan, Kabupaten Mamuju",SULAWESI BARAT,91512.0,Indonesia,85399009833.0,,,-2.6888138,118.8668526,https://maps.google.com/?cid=0x0:0xe3f6a20acc9123be,
mall,Kantor Perusahaan,DYFA STUDIO DAN PERCETAKAN,"7RVX+WF5, Simboro, Kec. Simboro Dan Kepulauan, Kabupaten Mamuju, Sulawesi Barat 91512","Simboro, Kec. Simboro Dan Kepulauan, Kabupaten Mamuju",SULAWESI BARAT,91512.0,Indonesia,,,,-2.7052252,118.8487405,https://maps.google.com/?cid=0x0:0x8d9893fbe72e1893,
mall,Pusat Perbelanjaan,Kios Hafidz Hanin,"8VC7+GX7, perumahan pantai indah, Simboro, Kec. Simboro Dan Kepulauan, Kabupaten Mamuju, Sulawesi Barat 91512","perumahan pantai indah, Simboro, Kec. Simboro Dan Kepulauan, Kabupaten Mamuju",SULAWESI BARAT,91512.0,Indonesia,,,,-2.6787222,118.8649333,https://maps.google.com/?cid=0x0:0x33574cd046b37a5d,
mall,mall,Sulawesi Barat 91513,"Kabupaten Mamuju, Sulawesi Barat","Kabupaten Mamuju, Sulawesi Barat",SULAWESI BARAT,,Indonesia,,,,-2.6887507,118.8014121,https://maps.google.com/?cid=0x0:0xbef0412d6d2f80f8,
mall,Kantor Perusahaan,Maleo Town Square,"Jl. Yos Sudarso No.37, Binanga, Kec. Mamuju, Kabupaten Mamuju, Sulawesi Barat 91511","Binanga, Kec. Mamuju, Kabupaten Mamuju",SULAWESI BARAT,91511.0,Indonesia,81280867009.0,,,-2.6692803,118.8916841,https://maps.google.com/?cid=0x0:0x87dbaf62ffc34e7c,
mall,Pusat Perbelanjaan,MATOS MALL OTC,"8VJR+7MC, Jl. Yos Sudarso, Binanga, Kec. Mamuju, Kabupaten Mamuju, Sulawesi Barat 91511","Jl. Yos Sudarso, Binanga, Kec. Mamuju, Kabupaten Mamuju",SULAWESI BARAT,91511.0,Indonesia,,,,-2.669308,118.8916431,https://maps.google.com/?cid=0x0:0xd0c1f3bfb34f7b6,
mall,Pusat Perbelanjaan,Hypermart Mamuju 3,"Jl. Yos Sudarso No.37, Binanga, Kabupaten Mamuju, Sulawesi Barat 91511","Binanga, Kabupaten Mamuju",SULAWESI BARAT,91511.0,Indonesia,81244891999.0,,,-2.6692933,118.8914571,https://maps.google.com/?cid=0x0:0x9c36a6f103a3f21e,
mall,Pusat Perbelanjaan,Matahari Maleo Town Square Mamuju,"Jl. Yos Sudarso No.7, Kabupaten Mamuju, Sulawesi Barat 91561",Kabupaten Mamuju,SULAWESI BARAT,91561.0,Indonesia,8119044421.0,,,-2.6721705,118.8885699,https://maps.google.com/?cid=0x0:0x9ef913d9d0e3e8e4,
mall,mall,MALL Mamuju,"8VJV+G6H, Binanga, Kec. Mamuju, Kabupaten Mamuju, Sulawesi Barat 91511","Binanga, Kec. Mamuju, Kabupaten Mamuju",SULAWESI BARAT,91511.0,Indonesia,81242305305.0,,,-2.6686757,118.8930985,https://maps.google.com/?cid=0x0:0x5a5c0de89b104636,
mall,mall,JS SIMBORO STORE,"7VQ7+23R, Pati'di, Kec. Simboro Dan Kepulauan, Kabupaten Mamuju, Sulawesi Barat 91512","Pati'di, Kec. Simboro Dan Kepulauan, Kabupaten Mamuju",SULAWESI BARAT,91512.0,Indonesia,,,,-2.7123764,118.862644,https://maps.google.com/?cid=0x0:0x2036f2b106230c4c,
mall,mall,Marcel Store,"7VX5+9FX, Unnamed Road, Simboro, Kec. Simboro Dan Kepulauan, Kabupaten Mamuju, Sulawesi Barat 91512","Unnamed Road, Simboro, Kec. Simboro Dan Kepulauan, Kabupaten Mamuju",SULAWESI BARAT,91512.0,Indonesia,,,,-2.7015044,118.8587407,https://maps.google.com/?cid=0x0:0x6227f518a640c007,
mall,Toko bahan makanan,Toko Sejati,"8VG7+VQV, Jl. Martadinata, Simboro, Kec. Simboro Dan Kepulauan, Kabupaten Mamuju, Sulawesi Barat 91512","Jl. Martadinata, Simboro, Kec. Simboro Dan Kepulauan, Kabupaten Mamuju",SULAWESI BARAT,91512.0,Indonesia,,,,-2.6727531,118.8644333,https://maps.google.com/?cid=0x0:0xc35209f6f9aec36c,
mall,Toko,Kios Rifat,"Jl. Poros Sese Bia No.Kel, Rangas, Kec. Simboro Dan Kepulauan, Kabupaten Mamuju, Sulawesi Barat 91512","Rangas, Kec. Simboro Dan Kepulauan, Kabupaten Mamuju",SULAWESI BARAT,91512.0,Indonesia,,,,-2.6869383,118.8468528,https://maps.google.com/?cid=0x0:0x7a2c8d4d22ee944e,
mall,Pusat Perbelanjaan,SURYA MANDIRI,"Jl. Abdul Malik Pattana Endeng depan SMK 1, Rangas, Kec. Simboro Dan Kepulauan, Kabupaten Mamuju, Sulawesi Barat 91512","Rangas, Kec. Simboro Dan Kepulauan, Kabupaten Mamuju",SULAWESI BARAT,91512.0,Indonesia,85256279152.0,,,-2.6592083,118.8489541,https://maps.google.com/?cid=0x0:0x8d2ea0a5839873dc,
mall,mall,Kec. Simboro Dan Kepulauan,"Kabupaten Mamuju, Sulawesi Barat","Kabupaten Mamuju, Sulawesi Barat",SULAWESI BARAT,,Indonesia,,,,-2.6886472,118.8687708,https://maps.google.com/?cid=0x0:0x690e32602d9f0e83,
mall,mall,Kec. Tapalang,"Kabupaten Mamuju, Sulawesi Barat","Kabupaten Mamuju, Sulawesi Barat",SULAWESI BARAT,,Indonesia,,,,-2.8670322,118.8748621,https://maps.google.com/?cid=0x0:0x7352010099a68a2b,
mall,Pusat Perbelanjaan,Salah,"Tampalang, Kec. Tapalang, Kabupaten Mamuju, Sulawesi Barat 91352","Kec. Tapalang, Kabupaten Mamuju",SULAWESI BARAT,91352.0,Indonesia,,,,-2.8491454,118.8563542,https://maps.google.com/?cid=0x0:0x38631b96d694aff9,
mall,Minimarket,Stand Syaza Syar'i,"4VP9+9XW, Unnamed Road, Galung, Kec. Tapalang, Kabupaten Mamuju, Sulawesi Barat 91352","Unnamed Road, Galung, Kec. Tapalang, Kabupaten Mamuju",SULAWESI BARAT,91352.0,Indonesia,82395117224.0,,,-2.8640142,118.8699674,https://maps.google.com/?cid=0x0:0x71ae566f05b60743,
mall,Kantor Perusahaan,Maleo Town Square,"Jl. Yos Sudarso No.37, Binanga, Kec. Mamuju, Kabupaten Mamuju, Sulawesi Barat 91511","Binanga, Kec. Mamuju, Kabupaten Mamuju",SULAWESI BARAT,91511.0,Indonesia,81280867009.0,,,-2.6692803,118.8916841,https://maps.google.com/?cid=0x0:0x87dbaf62ffc34e7c,
mall,Pusat Perbelanjaan,MATOS MALL OTC,"8VJR+7MC, Jl. Yos Sudarso, Binanga, Kec. Mamuju, Kabupaten Mamuju, Sulawesi Barat 91511","Jl. Yos Sudarso, Binanga, Kec. Mamuju, Kabupaten Mamuju",SULAWESI BARAT,91511.0,Indonesia,,,,-2.669308,118.8916431,https://maps.google.com/?cid=0x0:0xd0c1f3bfb34f7b6,
mall,Toko Alat Lukis,Waty Henna Art,"4VV6+82G, Jl. Poros Majene - Mamuju, Galung, Kec. Tapalang, Kabupaten Mamuju, Sulawesi Barat 91352","Jl. Poros Majene - Mamuju, Galung, Kec. Tapalang, Kabupaten Mamuju",SULAWESI BARAT,91352.0,Indonesia,82398980860.0,,,-2.8566425,118.8598706,https://maps.google.com/?cid=0x0:0x5925e868ec426183,
mall,Toko,Kios qaila,"52J4+542, Kopeang, Kec. Tapalang, Kabupaten Mamuju, Sulawesi Barat 91352","Kopeang, Kec. Tapalang, Kabupaten Mamuju",SULAWESI BARAT,91352.0,Indonesia,,,,-2.8196061,119.0052561,https://maps.google.com/?cid=0x0:0xc08cf6a14684f5c0,
mall,Pusat Perbelanjaan,STUDIO Matahari,"2VWC+969, Jl. Poros Majene - Mamuju, Mekkatta, Kec. Malunda, Kabupaten Majene, Sulawesi Barat 91453","Jl. Poros Majene - Mamuju, Mekkatta, Kec. Malunda, Kabupaten Majene",SULAWESI BARAT,91453.0,Indonesia,,,,-2.954096,118.8706058,https://maps.google.com/?cid=0x0:0x9176f91fc0d279ea,
mall,China,Hublife Taman Anggrek,"Jl. Tj. Duren Timur 2, RT.12/RW.1, Tj. Duren Sel., Kec. Grogol petamburan, Kota Jakarta Barat, Daerah Khusus Ibukota Jakarta 11470","RT.12/RW.1, Tj. Duren Sel., Kec. Grogol petamburan, Kota Jakarta Barat",SULAWESI BARAT,11470.0,Indonesia,2150622288.0,,,-6.1807487,106.7921782,https://maps.google.com/?cid=0x0:0x88fab696821699af,
mall,Pusat Perbelanjaan,PIK Avenue,"Jl. Pantai Indah Kapuk Boulevard, RT.6/RW.2, Kamal Muara, Kec. Penjaringan, Jkt Utara, Daerah Khusus Ibukota Jakarta 14470","RT.6/RW.2, Kamal Muara, Kec. Penjaringan, Jkt Utara",SULAWESI BARAT,14470.0,Indonesia,2122570999.0,,,-6.1088281,106.74021,https://maps.google.com/?cid=0x0:0xa57ef5bb9b685927,
mall,Pusat Perbelanjaan,Mall Of Indonesia,"Jl. Boulevard Bar. Raya No.12, RT.18/RW.19, Klp. Gading Bar., Kec. Klp. Gading, Jkt Utara, Daerah Khusus Ibukota Jakarta 14240","RT.18/RW.19, Klp. Gading Bar., Kec. Klp. Gading, Jkt Utara",SULAWESI BARAT,14240.0,Indonesia,2145867888.0,,,-6.1514549,106.8918949,https://maps.google.com/?cid=0x0:0x3431c7aaadd1f1b6,
mall,mall,Kec. Tapalang Bar.,"Kabupaten Mamuju, Sulawesi Barat","Kabupaten Mamuju, Sulawesi Barat",SULAWESI BARAT,,Indonesia,,,,-2.8544488,118.8344475,https://maps.google.com/?cid=0x0:0x399150dc9ea10ec1,
mall,Pusat Perbelanjaan,Salah,"Tampalang, Kec. Tapalang, Kabupaten Mamuju, Sulawesi Barat 91352","Kec. Tapalang, Kabupaten Mamuju",SULAWESI BARAT,91352.0,Indonesia,,,,-2.8491454,118.8563542,https://maps.google.com/?cid=0x0:0x38631b96d694aff9,
mall,Kantor Perusahaan,Maleo Town Square,"Jl. Yos Sudarso No.37, Binanga, Kec. Mamuju, Kabupaten Mamuju, Sulawesi Barat 91511","Binanga, Kec. Mamuju, Kabupaten Mamuju",SULAWESI BARAT,91511.0,Indonesia,81280867009.0,,,-2.6692803,118.8916841,https://maps.google.com/?cid=0x0:0x87dbaf62ffc34e7c,
mall,Pasar,Pasar Salletto,"7R7X+V65, Salletto, Kec. Simboro Dan Kepulauan, Kabupaten Mamuju, Sulawesi Barat 91512","Salletto, Kec. Simboro Dan Kepulauan, Kabupaten Mamuju",SULAWESI BARAT,91512.0,Indonesia,82213991009.0,,,-2.735364,118.8481185,https://maps.google.com/?cid=0x0:0x199b66db8723f2b9,
mall,Kios,KIOS FADIL,"Dungkait, Kec. Tapalang Bar., Kabupaten Mamuju, Sulawesi Barat","Kabupaten Mamuju, Sulawesi Barat",SULAWESI BARAT,,Indonesia,85243775145.0,,,-2.8540936,118.7987627,https://maps.google.com/?cid=0x0:0xdea49bd65de1b994,
mall,Pusat Perbelanjaan,MATOS MALL OTC,"8VJR+7MC, Jl. Yos Sudarso, Binanga, Kec. Mamuju, Kabupaten Mamuju, Sulawesi Barat 91511","Jl. Yos Sudarso, Binanga, Kec. Mamuju, Kabupaten Mamuju",SULAWESI BARAT,91511.0,Indonesia,,,,-2.669308,118.8916431,https://maps.google.com/?cid=0x0:0xd0c1f3bfb34f7b6,
mall,Pusat Perbelanjaan,Plaza Grand Mamuju,"8VP4+759, Karema, Kec. Mamuju, Kabupaten Mamuju, Sulawesi Barat","Kabupaten Mamuju, Sulawesi Barat",SULAWESI BARAT,,Indonesia,81267885965.0,,,-2.6643272,118.8554912,https://maps.google.com/?cid=0x0:0x2fd6b557cb7c559b,
mall,Pusat Pendidikan,KAMPUNG INGGRIS MAMUJU,"5V47+VH2, Tampalang, Kec. Tapalang, Kabupaten Mamuju, Sulawesi Barat 91352","Tampalang, Kec. Tapalang, Kabupaten Mamuju",SULAWESI BARAT,91352.0,Indonesia,,,,-2.842868,118.863901,https://maps.google.com/?cid=0x0:0xd5824f7d0d12d5f3,
mall,Minimarket,Stand Syaza Syar'i,"4VP9+9XW, Unnamed Road, Galung, Kec. Tapalang, Kabupaten Mamuju, Sulawesi Barat 91352","Unnamed Road, Galung, Kec. Tapalang, Kabupaten Mamuju",SULAWESI BARAT,91352.0,Indonesia,82395117224.0,,,-2.8640142,118.8699674,https://maps.google.com/?cid=0x0:0x71ae566f05b60743,
mall,Kantor Perusahaan,Mellyana softlens,"8V75+VQ3, Simboro, Kec. Simboro Dan Kepulauan, Kabupaten Mamuju, Sulawesi Barat 91512","Simboro, Kec. Simboro Dan Kepulauan, Kabupaten Mamuju",SULAWESI BARAT,91512.0,Indonesia,82239732626.0,,,-2.6853586,118.8594134,https://maps.google.com/?cid=0x0:0x5cef830d28bcb17e,
mall,Toko Alat Lukis,Waty Henna Art,"4VV6+82G, Jl. Poros Majene - Mamuju, Galung, Kec. Tapalang, Kabupaten Mamuju, Sulawesi Barat 91352","Jl. Poros Majene - Mamuju, Galung, Kec. Tapalang, Kabupaten Mamuju",SULAWESI BARAT,91352.0,Indonesia,82398980860.0,,,-2.8566425,118.8598706,https://maps.google.com/?cid=0x0:0x5925e868ec426183,
mall,Toko Pakaian,Extreme Adventure Store Mamuju,"Jl. Abd. Syakur No.11 Blok B, Karema, Mamuju, Mamuju Regency, West Sulawesi 91512","Karema, Mamuju, Mamuju Regency",SULAWESI BARAT,91512.0,Indonesia,85242412225.0,,,-2.6831483,118.8786887,https://maps.google.com/?cid=0x0:0xd6e99e5cb6033fbc,
mall,Toko Ponsel,Aini Cell,"8VQ3+F7J, Rangas, Kec. Simboro Dan Kepulauan, Kabupaten Mamuju, Sulawesi Barat 91512","Rangas, Kec. Simboro Dan Kepulauan, Kabupaten Mamuju",SULAWESI BARAT,91512.0,Indonesia,85298310954.0,,,-2.6612941,118.853132,https://maps.google.com/?cid=0x0:0xca93303cd44b3d32,
mall,Pusat Perbelanjaan,Hypermart Mamuju 3,"Jl. Yos Sudarso No.37, Binanga, Kabupaten Mamuju, Sulawesi Barat 91511","Binanga, Kabupaten Mamuju",SULAWESI BARAT,91511.0,Indonesia,81244891999.0,,,-2.6692933,118.8914571,https://maps.google.com/?cid=0x0:0x9c36a6f103a3f21e,
mall,Toko Alat Tulis Kantor,Toko ATK Mahakarya Grup,"8VM3+9JQ, Jl. Abdul Malik Pattana Endeng, Rangas, Kec. Simboro Dan Kepulauan, Kabupaten Mamuju, Sulawesi Barat 91512","Jl. Abdul Malik Pattana Endeng, Rangas, Kec. Simboro Dan Kepulauan, Kabupaten Mamuju",SULAWESI BARAT,91512.0,Indonesia,,,,-2.6665471,118.8541035,https://maps.google.com/?cid=0x0:0xe37805556116ae2c,
mall,Pusat Perbelanjaan,SURYA MANDIRI,"Jl. Abdul Malik Pattana Endeng depan SMK 1, Rangas, Kec. Simboro Dan Kepulauan, Kabupaten Mamuju, Sulawesi Barat 91512","Rangas, Kec. Simboro Dan Kepulauan, Kabupaten Mamuju",SULAWESI BARAT,91512.0,Indonesia,85256279152.0,,,-2.6592083,118.8489541,https://maps.google.com/?cid=0x0:0x8d2ea0a5839873dc,
mall,mall,Azizah Store,"8V7H+636, Jl. Diponegoro, Karema, Kec. Mamuju, Kabupaten Mamuju, Sulawesi Barat 91512","Jl. Diponegoro, Karema, Kec. Mamuju, Kabupaten Mamuju",SULAWESI BARAT,91512.0,Indonesia,,,,-2.6869786,118.8776576,https://maps.google.com/?cid=0x0:0xb380d283acb13ce5,
mall,Toko Pakaian Olahraga,Mastura Sport Alvian,"8VFV+X3G, Jl. Sultan Hasanuddin, Binanga, Kec. Mamuju, Kabupaten Mamuju, Sulawesi Barat 91511","Jl. Sultan Hasanuddin, Binanga, Kec. Mamuju, Kabupaten Mamuju",SULAWESI BARAT,91511.0,Indonesia,82190339011.0,,,-2.6750567,118.8926877,https://maps.google.com/?cid=0x0:0x55d34871f3994926,
mall,Toko Buah dan Sayur,Pasar Buah Durian,"7VJ5+XW8, Pati'di, Kec. Simboro Dan Kepulauan, Kabupaten Mamuju, Sulawesi Barat 91512","Pati'di, Kec. Simboro Dan Kepulauan, Kabupaten Mamuju",SULAWESI BARAT,91512.0,Indonesia,82290678423.0,,,-2.717576,118.8598431,https://maps.google.com/?cid=0x0:0x6a030a5ba096550a,
mall,Toko bahan makanan,Alfa Midi,"Jl. RE Martadinata No.21, Simboro, Kec. Simboro Dan Kepulauan, Kabupaten Mamuju, Sulawesi Barat 91512","Simboro, Kec. Simboro Dan Kepulauan, Kabupaten Mamuju",SULAWESI BARAT,91512.0,Indonesia,,,,-2.68754,118.8617118,https://maps.google.com/?cid=0x0:0x10c301c3a3a705ab,
mall,Pusat Perbelanjaan,INDO'Mama Mart,"8WF2+XGP Kota Mamuju (Trans, Jl. Ir. Djuanda, Mamunyu, Topoyo, Kabupaten Mamuju, Sulawesi Barat 91511","Jl. Ir. Djuanda, Mamunyu, Topoyo, Kabupaten Mamuju",SULAWESI BARAT,91511.0,Indonesia,85298371828.0,,,-2.6750466,118.9013137,https://maps.google.com/?cid=0x0:0xb19909fff8d4bb50,
mall,Toko Bahan Bangunan,Rezky Bangunan,"7VG3+QCW, Salletto, Kec. Simboro Dan Kepulauan, Kabupaten Mamuju, Sulawesi Barat 91512","Salletto, Kec. Simboro Dan Kepulauan, Kabupaten Mamuju",SULAWESI BARAT,91512.0,Indonesia,,,,-2.7230078,118.8535644,https://maps.google.com/?cid=0x0:0x9b6b79c0c2c83806,
mall,Restoran,Angkringan Podomoro,"Jl. Abdul Malik Pattana Endeng, Simboro, Kec. Simboro Dan Kepulauan, Kabupaten Mamuju, Sulawesi Barat 91512","Simboro, Kec. Simboro Dan Kepulauan, Kabupaten Mamuju",SULAWESI BARAT,91512.0,Indonesia,81244225564.0,,,-2.6800951,118.857762,https://maps.google.com/?cid=0x0:0x88936d1f8b498bc6,
mall,mall,Tommo,"Kec. Tommo, Kabupaten Mamuju, Sulawesi Barat","Kabupaten Mamuju, Sulawesi Barat",SULAWESI BARAT,,Indonesia,,,,-2.2941884,119.2437011,https://maps.google.com/?cid=0x0:0x502d34d075f4f7b1,
mall,Toko umum,Pasar Tommo 2,"P68R+CRF, Tommo, Kec. Tommo, Kabupaten Mamuju, Sulawesi Barat 91562","Tommo, Kec. Tommo, Kabupaten Mamuju",SULAWESI BARAT,91562.0,Indonesia,,,,-2.2839272,119.2420623,https://maps.google.com/?cid=0x0:0xcbb8a55f190f8471,
mall,Toko Swalayan,Kios Buda,"P66W+V26, Unnamed Road, Tommo, Kec. Tommo, Kabupaten Mamuju, Sulawesi Barat 91562","Unnamed Road, Tommo, Kec. Tommo, Kabupaten Mamuju",SULAWESI BARAT,91562.0,Indonesia,,,,-2.2878292,119.245025,https://maps.google.com/?cid=0x0:0x732150ba95df97cb,
mall,Pembangunan Perumahan,Nanda putra,"Buana Sakti, Kec. Tommo, Kabupaten Mamuju, Sulawesi Barat 91562","Kec. Tommo, Kabupaten Mamuju",SULAWESI BARAT,91562.0,Indonesia,82193254625.0,,,-2.291661,119.2773645,https://maps.google.com/?cid=0x0:0x387303f030778cf5,
mall,Kantor Perusahaan,Maleo Town Square,"Jl. Yos Sudarso No.37, Binanga, Kec. Mamuju, Kabupaten Mamuju, Sulawesi Barat 91511","Binanga, Kec. Mamuju, Kabupaten Mamuju",SULAWESI BARAT,91511.0,Indonesia,81280867009.0,,,-2.6692803,118.8916841,https://maps.google.com/?cid=0x0:0x87dbaf62ffc34e7c,
mall,Toko Suvenir,Aneka Grosir Barang Unik (Agrobik)- Desa Kuo,"Kuo, Kec. Pangale, Kabupaten Mamuju, Sulawesi Barat 91562","Kec. Pangale, Kabupaten Mamuju",SULAWESI BARAT,91562.0,Indonesia,81526146048.0,,,-2.2631561,119.22644,https://maps.google.com/?cid=0x0:0x3d058f842cff73cf,
mall,Pusat Perbelanjaan,MATOS MALL OTC,"8VJR+7MC, Jl. Yos Sudarso, Binanga, Kec. Mamuju, Kabupaten Mamuju, Sulawesi Barat 91511","Jl. Yos Sudarso, Binanga, Kec. Mamuju, Kabupaten Mamuju",SULAWESI BARAT,91511.0,Indonesia,,,,-2.669308,118.8916431,https://maps.google.com/?cid=0x0:0xd0c1f3bfb34f7b6,
mall,Toko,Kios Indah,"M8J8+8MW, Campaloga, Kec. Tommo, Kabupaten Mamuju, Sulawesi Barat 91562","Campaloga, Kec. Tommo, Kabupaten Mamuju",SULAWESI BARAT,91562.0,Indonesia,85756861261.0,,,-2.3191308,119.316698,https://maps.google.com/?cid=0x0:0x46cc1057b9419742,
mall,Minimarket,KIOS MBOK'DE,"P6GH+WRQ, Kuo, Kec. Pangale, Kabupaten Mamuju, Sulawesi Barat 91562","Kuo, Kec. Pangale, Kabupaten Mamuju",SULAWESI BARAT,91562.0,Indonesia,,,,-2.2726702,119.2296064,https://maps.google.com/?cid=0x0:0x5432852882d7caa2,
mall,Toko bahan makanan,Toko Yesshop,"M7MX+85X, Campaloga, Kec. Tommo, Kabupaten Mamuju, Sulawesi Barat 91562","Campaloga, Kec. Tommo, Kabupaten Mamuju",SULAWESI BARAT,91562.0,Indonesia,85343778785.0,,,-2.3166436,119.2979726,https://maps.google.com/?cid=0x0:0x23bc6faff87ea335,
mall,Pusat Perbelanjaan,MargoCity,"Jl. Margonda Raya No.358, Kemiri Muka, Kecamatan Beji, Kota Depok, Jawa Barat 16423","Kemiri Muka, Kecamatan Beji, Kota Depok",SULAWESI BARAT,16423.0,Indonesia,2178870888.0,,,-6.372967,106.8344235,https://maps.google.com/?cid=0x0:0xd3365350a2ebe2f,
mall,Pusat Perbelanjaan,D'Mall Depok,"Jl. Margonda Raya No.88, Kemiri Muka, Kecamatan Beji, Kota Depok, Jawa Barat 16423","Kemiri Muka, Kecamatan Beji, Kota Depok",SULAWESI BARAT,16423.0,Indonesia,,,,-6.387138,106.827347,https://maps.google.com/?cid=0x0:0x40e44007d9f58418,
mall,Pusat Perbelanjaan,Lotte Shopping Avenue Mall,"Jl. Prof. DR. Satrio No.Kav.3, RW.5, Kuningan, Karet Kuningan, Kecamatan Setiabudi, Kota Jakarta Selatan, Daerah Khusus Ibukota Jakarta 12940","RW.5, Kuningan, Karet Kuningan, Kecamatan Setiabudi, Kota Jakarta Selatan",SULAWESI BARAT,12940.0,Indonesia,2129889292.0,,,-6.2233644,106.8232981,https://maps.google.com/?cid=0x0:0xe8323175da8b9770,
mall,Pusat Perbelanjaan,Depok Town Square (Detos),"Jl. Margonda Raya No.1, Pondok Cina, Kecamatan Beji, Kota Depok, Jawa Barat 16424","Pondok Cina, Kecamatan Beji, Kota Depok",SULAWESI BARAT,16424.0,Indonesia,2178870101.0,,,-6.3726268,106.8316047,https://maps.google.com/?cid=0x0:0x9790bb032d5e6fdf,
mall,Kedai Kopi,DTC (Depok Town Center),"Jl. Raya Sawangan No.1, Rangkapan Jaya, Kec. Pancoran Mas, Kota Depok, Jawa Barat 16435","Rangkapan Jaya, Kec. Pancoran Mas, Kota Depok",SULAWESI BARAT,16435.0,Indonesia,2177886272.0,,,-6.3953106,106.7928599,https://maps.google.com/?cid=0x0:0xb055cce17772bd8d,
mall,Pusat Perbelanjaan,Mall Ambasador,"Kuningan, Karet Kuningan, Kecamatan Setiabudi, Kota Jakarta Selatan, Daerah Khusus Ibukota Jakarta","Kota Jakarta Selatan, Daerah Khusus Ibukota Jakarta",SULAWESI BARAT,,Indonesia,,,,-6.2240223,106.8268202,https://maps.google.com/?cid=0x0:0xffae3870f7ae2fd,
mall,Pusat Perbelanjaan,Mall Pesona Square,"Jl. Ir. H. Juanda No.22a, Bakti Jaya, Kec. Sukmajaya, Kota Depok, Jawa Barat 16418","Bakti Jaya, Kec. Sukmajaya, Kota Depok",SULAWESI BARAT,16418.0,Indonesia,,,,-6.3804838,106.8439769,https://maps.google.com/?cid=0x0:0x1b0766ee6d95d49e,
mall,Pusat Perbelanjaan,Pondok Indah Mall 1,"Jl. Metro Pondok Indah No.Kav. 4, RT.1/RW.16, Pd. Pinang, Kec. Kby. Lama, Kota Jakarta Selatan, Daerah Khusus Ibukota Jakarta 12310","RT.1/RW.16, Pd. Pinang, Kec. Kby. Lama, Kota Jakarta Selatan",SULAWESI BARAT,12310.0,Indonesia,217506750.0,,,-6.2652166,106.7843165,https://maps.google.com/?cid=0x0:0x682837113c4ea854,
mall,Pusat Perbelanjaan,Pacific Place Mall,"Jl. Jend. Sudirman kav 52-53, Senayan, Kec. Kby. Baru, Kota Jakarta Selatan, Daerah Khusus Ibukota Jakarta 12190","Senayan, Kec. Kby. Baru, Kota Jakarta Selatan",SULAWESI BARAT,12190.0,Indonesia,2151402828.0,,,-6.2240197,106.8101858,https://maps.google.com/?cid=0x0:0xc4a608b34b5f03cc,
mall,mall,TOMIKO Mart,"5, RT.5/RW.11, Cibubur, Kec. Ciracas, Kota Jakarta Timur, Daerah Khusus Ibukota Jakarta 13720","RT.5/RW.11, Cibubur, Kec. Ciracas, Kota Jakarta Timur",SULAWESI BARAT,13720.0,Indonesia,267401284.0,,,-6.3537671,106.8891349,https://maps.google.com/?cid=0x0:0xbe1724063d35e4ea,
supermarket,Toko bahan makanan,Kios SALUENO,"97V4+M6, Banuada, Kec. Bonehau, Kabupaten Mamuju, Sulawesi Barat 91562","Banuada, Kec. Bonehau, Kabupaten Mamuju",SULAWESI BARAT,91562.0,Indonesia,,,,-2.6064997,119.2554117,https://maps.google.com/?cid=0x0:0x8d6ec656642f063a,
supermarket,Minimarket,Kios Salsa,"F878+G5J, Bonehau, Kec. Bonehau, Kabupaten Mamuju, Sulawesi Barat 91562","Bonehau, Kec. Bonehau, Kabupaten Mamuju",SULAWESI BARAT,91562.0,Indonesia,8594997633.0,,,-2.5355135,119.3152085,https://maps.google.com/?cid=0x0:0x8151e047cc8b9f36,
supermarket,Toko,Toko A.Hasani,"timpa desa, Mamminasae, Kec. Lamuru, Kabupaten Bone, Sulawesi Selatan 92764","Mamminasae, Kec. Lamuru, Kabupaten Bone",SULAWESI BARAT,92764.0,Indonesia,82347558885.0,,,-4.5596361,119.9594616,https://maps.google.com/?cid=0x0:0x347749131aeeb212,
supermarket,Minimarket,KIOS INTANSARI,"97V4+95V, Banuada, Kec. Bonehau, Kabupaten Mamuju, Sulawesi Barat 91562","Banuada, Kec. Bonehau, Kabupaten Mamuju",SULAWESI BARAT,91562.0,Indonesia,,,,-2.6065002,119.2554105,https://maps.google.com/?cid=0x0:0xee9961a0bbcbe1fb,
supermarket,supermarket,Kec. Bonehau,"Kabupaten Mamuju, Sulawesi Barat","Kabupaten Mamuju, Sulawesi Barat",SULAWESI BARAT,,Indonesia,,,,-2.4998873,119.3481971,https://maps.google.com/?cid=0x0:0x506e4572a22ede64,
supermarket,Minimarket,Indomaret Lakahang mamasa,"85HQ+265, Lakahang, Kec. Tabulahan, Kabupaten Mamasa, Sulawesi Barat 91562","Lakahang, Kec. Tabulahan, Kabupaten Mamasa",SULAWESI BARAT,91562.0,Indonesia,,,,-2.6724754,119.1881222,https://maps.google.com/?cid=0x0:0x92e04dc43c17c202,
supermarket,Toko,Toko Timo,"85HQ+586, Lakahang, Kec. Tabulahan, Kabupaten Mamasa, Sulawesi Barat 91562","Lakahang, Kec. Tabulahan, Kabupaten Mamasa",SULAWESI BARAT,91562.0,Indonesia,,,,-2.6720939,119.1882702,https://maps.google.com/?cid=0x0:0xbedbdaef492fd217,
supermarket,Toko Buah dan Sayuran,Segar Buah,"Kondosapata, Tobadak, Kabupaten Mamuju, Sulawesi Barat 91564","Tobadak, Kabupaten Mamuju",SULAWESI BARAT,91564.0,Indonesia,82287352494.0,,,-2.4336306,119.3118976,https://maps.google.com/?cid=0x0:0xabbd95e8a5dae54d,
supermarket,Pasar Makanan Segar,Toko Kalimantan (Pasar Tasiu),"F338+QRJ, Kalukku, Kec. Kalukku, Kabupaten Mamuju, Sulawesi Barat 91561","Kalukku, Kec. Kalukku, Kabupaten Mamuju",SULAWESI BARAT,91561.0,Indonesia,,,,-2.5455396,119.067004,https://maps.google.com/?cid=0x0:0x5b0ab33eca5acd83,
supermarket,Minimarket,Indomaret Kalukku Kota Mamuju,"C2GP+FQ4, Sinyonyoi, Kec. Kalukku, Kabupaten Mamuju, Sulawesi Barat 91561","Sinyonyoi, Kec. Kalukku, Kabupaten Mamuju",SULAWESI BARAT,91561.0,Indonesia,,,,-2.5738621,119.0369497,https://maps.google.com/?cid=0x0:0x1ecdb7e023ef2444,
supermarket,Kios,Kios Rumah Toraja,"C3G7+P6, Sinyonyoi, Kec. Kalukku, Kabupaten Mamuju, Sulawesi Barat 91561","Sinyonyoi, Kec. Kalukku, Kabupaten Mamuju",SULAWESI BARAT,91561.0,Indonesia,,,,-2.5733245,119.0630141,https://maps.google.com/?cid=0x0:0xf09f7d47632f28cc,
supermarket,Toko,Toko EVA,"Jl. Poros Mamasa, Salulayo, Kalukku, Kec. Kalukku, Kabupaten Mamuju, Sulawesi Barat 91561","Salulayo, Kalukku, Kec. Kalukku, Kabupaten Mamuju",SULAWESI BARAT,91561.0,Indonesia,82259684413.0,,,-2.5540962,119.0545383,https://maps.google.com/?cid=0x0:0x9d69814cc3cda1e0,
supermarket,Toko Perlengkapan Rumah,Tk.Wahida,"C3W3+7C4, Jalan Poros Mamuju, Topoyo, Kalukku, Mamuju Regency, West Sulawesi 91561","Jalan Poros Mamuju, Topoyo, Kalukku, Mamuju Regency",SULAWESI BARAT,91561.0,Indonesia,85256463345.0,,,-2.5543632,119.0535851,https://maps.google.com/?cid=0x0:0x911fb4626b26c6b7,
supermarket,supermarket,toko campuran LUTHFI,"F3JG+22W, Beru-Beru, Kec. Kalukku, Kabupaten Mamuju, Sulawesi Barat 91561","Beru-Beru, Kec. Kalukku, Kabupaten Mamuju",SULAWESI BARAT,91561.0,Indonesia,81354668830.0,,,-2.5198938,119.0750837,https://maps.google.com/?cid=0x0:0xf7a857f338878c6b,
supermarket,Toko Swalayan,Toko Amanah Pusat Perbelanjaan,"Kalukku Bar., Kec. Kalukku, Kabupaten Mamuju, Sulawesi Barat 91561","Kec. Kalukku, Kabupaten Mamuju",SULAWESI BARAT,91561.0,Indonesia,,,,-2.5379435,119.0594055,https://maps.google.com/?cid=0x0:0xee4c200a1603663c,
supermarket,Toko Swalayan,Toko Reski,"F367+84C, Jl. Veteran Tasiu, Kalukku Bar., Kec. Kalukku, Kabupaten Mamuju, Sulawesi Barat 91561","Jl. Veteran Tasiu, Kalukku Bar., Kec. Kalukku, Kabupaten Mamuju",SULAWESI BARAT,91561.0,Indonesia,,,,-2.5391926,119.0627686,https://maps.google.com/?cid=0x0:0x121422025c025459,
supermarket,Kios,Src Sinar Alam,"Jalan Pahlawan, Kalukku, Kec. Kalukku, Kabupaten Mamuju, Sulawesi Barat 91561","Kalukku, Kec. Kalukku, Kabupaten Mamuju",SULAWESI BARAT,91561.0,Indonesia,82346671010.0,,,-2.5419951,119.0695869,https://maps.google.com/?cid=0x0:0x6e6933e8035821c0,
supermarket,Mesin Jual Otomatis Elektronik,Mison Pulsa,"Kalukku, Kec. Kalukku, Kabupaten Mamuju, Sulawesi Barat 91561","Kec. Kalukku, Kabupaten Mamuju",SULAWESI BARAT,91561.0,Indonesia,,,,-2.5512046,119.0644869,https://maps.google.com/?cid=0x0:0xf98a40ffcbd01b6d,
supermarket,Toko,Toko. Opiq Family,"C2QR+CRC, Jl. Poros Majene - Mamuju, Sinyonyoi, Kec. Kalukku, Kabupaten Mamuju, Sulawesi Barat 91561","Jl. Poros Majene - Mamuju, Sinyonyoi, Kec. Kalukku, Kabupaten Mamuju",SULAWESI BARAT,91561.0,Indonesia,85254839357.0,,,-2.5614471,119.0420044,https://maps.google.com/?cid=0x0:0x3a5176b43e77519,
supermarket,Toko Swalayan,Tk. Bayu 77,"F3FG+M89, Jl. Poros Mamuju - Topoyo, Beru-Beru, Kec. Kalukku, Kabupaten Mamuju, Sulawesi Barat 91561","Jl. Poros Mamuju - Topoyo, Beru-Beru, Kec. Kalukku, Kabupaten Mamuju",SULAWESI BARAT,91561.0,Indonesia,81187423151.0,,,-2.5258364,119.0758747,https://maps.google.com/?cid=0x0:0x17a9aa998fd6937f,
supermarket,supermarket,LAPAK MADINAH,"F338+922, Kalukku, Kec. Kalukku, Kabupaten Mamuju, Sulawesi Barat 91561","Kalukku, Kec. Kalukku, Kabupaten Mamuju",SULAWESI BARAT,91561.0,Indonesia,,,,-2.54671,119.065343,https://maps.google.com/?cid=0x0:0x1322877aac9bd332,
supermarket,Toko,Jln. Poros Kalukku-Mamuju,"F349+XM3, Kalukku, Kec. Kalukku, Kabupaten Mamuju, Sulawesi Barat 91561","Kalukku, Kec. Kalukku, Kabupaten Mamuju",SULAWESI BARAT,91561.0,Indonesia,,,,-2.5426528,119.0691998,https://maps.google.com/?cid=0x0:0xf4c0778062ae39e2,
supermarket,Minimarket,Alfariz mart,"F3PG+J55, Jl. Poros Palu - Mamuju, Beru-Beru, Kec. Kalukku, Kabupaten Mamuju, Sulawesi Barat 91561","Jl. Poros Palu - Mamuju, Beru-Beru, Kec. Kalukku, Kabupaten Mamuju",SULAWESI BARAT,91561.0,Indonesia,,,,-2.5134831,119.0754782,https://maps.google.com/?cid=0x0:0xc0104863c492a57c,
supermarket,Toko Swalayan,Ratu Mart,"Kalukku, Kec. Kalukku, Kabupaten Mamuju, Sulawesi Barat","Kabupaten Mamuju, Sulawesi Barat",SULAWESI BARAT,,Indonesia,82251666739.0,,,-2.5515607,119.0616938,https://maps.google.com/?cid=0x0:0xf58a139225d3cefb,
supermarket,Pusat Bisnis,Es Barokah,"C3W4+PHJ, Kalukku, Kec. Kalukku, Kabupaten Mamuju, Sulawesi Barat 91561","Kalukku, Kec. Kalukku, Kabupaten Mamuju",SULAWESI BARAT,91561.0,Indonesia,,,,-2.5531543,119.0564047,https://maps.google.com/?cid=0x0:0xa0a2bfb4bfe2cbe9,
supermarket,Pusat Perbelanjaan,Kerupuk lontong.. Pak waluyo,"F374+78Q, Kalukku Bar., Kec. Kalukku, Kabupaten Mamuju, Sulawesi Barat 91561","Kalukku Bar., Kec. Kalukku, Kabupaten Mamuju",SULAWESI BARAT,91561.0,Indonesia,82293334958.0,,,-2.5367752,119.055861,https://maps.google.com/?cid=0x0:0xee918597cbb563d4,
supermarket,Toko bahan makanan,UD. GRACIA,"C3WC+5XG, Unnamed Road, Sondoang, Kec. Kalukku, Kabupaten Mamuju, Sulawesi Barat 91561","Unnamed Road, Sondoang, Kec. Kalukku, Kabupaten Mamuju",SULAWESI BARAT,91561.0,Indonesia,,,,-2.5545534,119.0724494,https://maps.google.com/?cid=0x0:0xc3220435bcb1e0f6,
supermarket,supermarket,Sulawesi Barat 91561,"Kec. Kalukku, Kabupaten Mamuju, Sulawesi Barat","Kabupaten Mamuju, Sulawesi Barat",SULAWESI BARAT,,Indonesia,,,,-2.6024479,119.0925356,https://maps.google.com/?cid=0x0:0x812ca59188edc0c9,
supermarket,Toko Swalayan,TOKO UNI TASIU,"F348+6WJ, Jl. Poros Majene - Mamuju, Kalukku, Kec. Kalukku, Kabupaten Mamuju, Sulawesi Barat 91561","Jl. Poros Majene - Mamuju, Kalukku, Kec. Kalukku, Kabupaten Mamuju",SULAWESI BARAT,91561.0,Indonesia,82145717775.0,,,-2.5444155,119.0672672,https://maps.google.com/?cid=0x0:0xeab25399fcbc398,
supermarket,Toko Elektronik,Yumna Cell,"F3P4+FMQ, Beru-Beru, Kec. Kalukku, Kabupaten Mamuju, Sulawesi Barat 91561","Beru-Beru, Kec. Kalukku, Kabupaten Mamuju",SULAWESI BARAT,91561.0,Indonesia,85156758792.0,,,-2.5137997,119.0567237,https://maps.google.com/?cid=0x0:0x19c43d07ebba2428,
supermarket,Toko Swalayan,kios cahaya tosora,"G48G+P8P, Jl. Poros Majene - Mamuju, Belang-Belang, Kec. Kalukku, Kabupaten Mamuju, Sulawesi Barat 91561","Jl. Poros Majene - Mamuju, Belang-Belang, Kec. Kalukku, Kabupaten Mamuju",SULAWESI BARAT,91561.0,Indonesia,,,,-2.483154,119.1258388,https://maps.google.com/?cid=0x0:0xc7b64f33c2e057f5,
supermarket,Minimarket,Kios Aleesya,"92J3+M3Q, Bebanga, Kec. Kalukku, Kabupaten Mamuju, Sulawesi Barat 91561","Bebanga, Kec. Kalukku, Kabupaten Mamuju",SULAWESI BARAT,91561.0,Indonesia,85254603371.0,,,-2.61828,119.0027273,https://maps.google.com/?cid=0x0:0xcf3b4dfd661884d4,
supermarket,Toko bahan makanan,KIOS BERSAMA,"92XC+M76, Jalan, Bebanga, Kec. Kalukku, Kabupaten Mamuju, Sulawesi Barat 91561","Jalan, Bebanga, Kec. Kalukku, Kabupaten Mamuju",SULAWESI BARAT,91561.0,Indonesia,,,,-2.6009268,119.0206927,https://maps.google.com/?cid=0x0:0x1448a8413bb21b31,
supermarket,Lembaga Keuangan,KIOS IQRAM AGEN PEGADAIAN,"F3MF+F8Q, Beru-Beru, Kec. Kalukku, Kabupaten Mamuju, Sulawesi Barat 91561","Beru-Beru, Kec. Kalukku, Kabupaten Mamuju",SULAWESI BARAT,91561.0,Indonesia,82191020879.0,,,-2.5162778,119.0733648,https://maps.google.com/?cid=0x0:0xb4c14a4e3aad54a9,
supermarket,Toko Swalayan,Rafa Fotocopy,"G33F+66W, Kabuloang, Kec. Kalukku, Kabupaten Mamuju, Sulawesi Barat","Kabupaten Mamuju, Sulawesi Barat",SULAWESI BARAT,,Indonesia,,,,-2.4968472,119.0730171,https://maps.google.com/?cid=0x0:0xd20396d9a42f9796,
supermarket,supermarket,Sulawesi Barat 91562,"Kabupaten Mamuju, Sulawesi Barat","Kabupaten Mamuju, Sulawesi Barat",SULAWESI BARAT,,Indonesia,,,,-2.4874603,119.5107708,https://maps.google.com/?cid=0x0:0xaf7e6391455a9f6e,
supermarket,Toko bahan makanan,Toko Cahaya Alif,"M5PG+RHP, Jl. Poros Mamuju - Topoyo, Tarailu, Kec. Sampaga, Kabupaten Mamuju, Sulawesi Barat 91563","Jl. Poros Mamuju - Topoyo, Tarailu, Kec. Sampaga, Kabupaten Mamuju",SULAWESI BARAT,91563.0,Indonesia,85298541235.0,,,-2.3129204,119.1764656,https://maps.google.com/?cid=0x0:0x196c9cf687ff6fa9,
supermarket,Kantor Perusahaan,CV. JAYA SARIRA (Pusat),"JL KH Dewantara 116 91562, Tommo, Kec. Tommo, Kabupaten Mamuju, Sulawesi Barat 91562","Tommo, Kec. Tommo, Kabupaten Mamuju",SULAWESI BARAT,91562.0,Indonesia,81342681134.0,,,-2.281244,119.2432602,https://maps.google.com/?cid=0x0:0xed34608688c26921,
supermarket,Pusat Perbelanjaan,UD MEGA INTAN,"P77H+R6P, Buana Sakti, Kec. Tommo, Kabupaten Mamuju, Sulawesi Barat 91562","Buana Sakti, Kec. Tommo, Kabupaten Mamuju",SULAWESI BARAT,91562.0,Indonesia,82347000218.0,,,-2.2854113,119.2780723,https://maps.google.com/?cid=0x0:0xf5c083bb9db9af35,
supermarket,Minimarket,kios ardyy,"M6GC+PWP, Losso, Kec. Sampaga, Kabupaten Mamuju, Sulawesi Barat","Kabupaten Mamuju, Sulawesi Barat",SULAWESI BARAT,,Indonesia,85222389791.0,,,-2.3231694,119.2223376,https://maps.google.com/?cid=0x0:0x3453c617a7cb6d81,
supermarket,Toko,HIJRAH MART,"M5QG+5QV, Tarailu, Kec. Sampaga, Kabupaten Mamuju, Sulawesi Barat 91563","Tarailu, Kec. Sampaga, Kabupaten Mamuju",SULAWESI BARAT,91563.0,Indonesia,82333333275.0,,,-2.3120215,119.1769104,https://maps.google.com/?cid=0x0:0x4f070e97046da76f,
supermarket,Kantor Perusahaan,Penggilingan padi Al Habzhy,"P67W+6R3, Unnamed Road, Tommo, Kec. Tommo, Kabupaten Mamuju, Sulawesi Barat 91562","Unnamed Road, Tommo, Kec. Tommo, Kabupaten Mamuju",SULAWESI BARAT,91562.0,Indonesia,82188404002.0,,,-2.2869797,119.2470327,https://maps.google.com/?cid=0x0:0x450c3d20bb0d9f1e,
supermarket,Toko bahan makanan,Kios kayla,"M7Q5+2CX, Tamemongga, Kec. Tommo, Kabupaten Mamuju, Sulawesi Barat 91562","Tamemongga, Kec. Tommo, Kabupaten Mamuju",SULAWESI BARAT,91562.0,Indonesia,82189333585.0,,,-2.3119592,119.2581977,https://maps.google.com/?cid=0x0:0x18995f4eba794033,
supermarket,Toko bahan makanan,Toko cahaya,"M6MP+G2V, Tamemongga, Kec. Tommo, Kabupaten Mamuju, Sulawesi Barat 91562","Tamemongga, Kec. Tommo, Kabupaten Mamuju",SULAWESI BARAT,91562.0,Indonesia,81243338883.0,,,-2.3161558,119.2357556,https://maps.google.com/?cid=0x0:0x47498efd43933aaf,
supermarket,Toko Swalayan,Aam Mart,"Jl. Sultan Hasanuddin, Campaloga, Kec. Tommo, Kabupaten Mamuju, Sulawesi Barat 91562","Campaloga, Kec. Tommo, Kabupaten Mamuju",SULAWESI BARAT,91562.0,Indonesia,85657310383.0,,,-2.3089007,119.2942939,https://maps.google.com/?cid=0x0:0x62da49497e0da1a0,
supermarket,Toko,Alimin Cell,"PCXH+F87, Leling Bar., Kec. Tommo, Kabupaten Mamuju, Sulawesi Barat","Kabupaten Mamuju, Sulawesi Barat",SULAWESI BARAT,,Indonesia,82188961969.0,,,-2.2513327,119.4282951,https://maps.google.com/?cid=0x0:0x61eab86c1f8d9a2f,
supermarket,Toko,Kios LELA,"M7MX+WVJ, Unnamed Road, Campaloga, Kec. Tommo, Kabupaten Mamuju, Sulawesi Barat 91562","Unnamed Road, Campaloga, Kec. Tommo, Kabupaten Mamuju",SULAWESI BARAT,91562.0,Indonesia,,,,-2.31515,119.299629,https://maps.google.com/?cid=0x0:0xbbe199167f32a2ad,
supermarket,Toko bahan makanan,Toko AffandiJaya,"M67G+XWF, Tanambua, Kec. Sampaga, Kabupaten Mamuju, Sulawesi Barat 91563","Tanambua, Kec. Sampaga, Kabupaten Mamuju",SULAWESI BARAT,91563.0,Indonesia,85245707599.0,,,-2.3350659,119.2272981,https://maps.google.com/?cid=0x0:0xb0adf86ba654c85d,
supermarket,Pusat Perbelanjaan,Toko Semoga Jaya,"M56F+FXP, Bunde, Kec. Sampaga, Kabupaten Mamuju, Sulawesi Barat 91563","Bunde, Kec. Sampaga, Kabupaten Mamuju",SULAWESI BARAT,91563.0,Indonesia,82333333375.0,,,-2.3387893,119.1749605,https://maps.google.com/?cid=0x0:0xee9513d12789805e,
supermarket,Toko Daging,Aisyah Broiler,"Tarailu, Kec. Sampaga, Kabupaten Mamuju, Sulawesi Barat","Kabupaten Mamuju, Sulawesi Barat",SULAWESI BARAT,,Indonesia,,,,-2.3315812,119.1751066,https://maps.google.com/?cid=0x0:0x741f3aaf1a474585,
supermarket,Toko Makanan,Toko Ikram,"J6GQ+M6, Salubarana, Kec. Sampaga, Kabupaten Mamuju, Sulawesi Barat 91563","Salubarana, Kec. Sampaga, Kabupaten Mamuju",SULAWESI BARAT,91563.0,Indonesia,81770620196.0,,,-2.373332,119.238076,https://maps.google.com/?cid=0x0:0x69ea95327bd875a9,
supermarket,Toko bahan makanan,Toko Mama Hayar,"P862+3RJ, Tamejarra, Kec. Tommo, Kabupaten Mamuju, Sulawesi Barat 91562","Tamejarra, Kec. Tommo, Kabupaten Mamuju",SULAWESI BARAT,91562.0,Indonesia,81525945679.0,,,-2.2902535,119.3016227,https://maps.google.com/?cid=0x0:0x868b14bfc1fd4b01,
supermarket,Kios,Hj sanusi,"P6J2+426, Jl. Poros Majene - Mamuju, Polopangale, Kec. Pangale, Kabupaten Mamuju Tengah, Sulawesi Barat 91562","Jl. Poros Majene - Mamuju, Polopangale, Kec. Pangale, Kabupaten Mamuju Tengah",SULAWESI BARAT,91562.0,Indonesia,,,,-2.2697066,119.2000175,https://maps.google.com/?cid=0x0:0xfd4111dd4c7d5181,
supermarket,Toko bahan makanan,Toko mutiara,"Tarailu, Kec. Sampaga, Kabupaten Mamuju, Sulawesi Barat 91563","Kec. Sampaga, Kabupaten Mamuju",SULAWESI BARAT,91563.0,Indonesia,,,,-2.3261435,119.1743884,https://maps.google.com/?cid=0x0:0x35b97711543c80df,
supermarket,Toko umum,Kios idola semoga berkah,"P65W+M7R, Tommo, Kec. Tommo, Kabupaten Mamuju, Sulawesi Barat 91562","Tommo, Kec. Tommo, Kabupaten Mamuju",SULAWESI BARAT,91562.0,Indonesia,82256344076.0,,,-2.2907525,119.2456349,https://maps.google.com/?cid=0x0:0x3db2f3b5fbeef8f,
supermarket,supermarket,Kalumpang,"44000 Kerling, Selangor, Malaysia",Kerling,SULAWESI BARAT,44000.0,Indonesia,,,,3.638709,101.5729639,https://maps.google.com/?cid=0x0:0x976cc571b64cf0f8,
supermarket,Toko Swalayan,Greensmart,"Jl. Raya Tandes Lor No.7, Tanjungsari, Kec. Sukomanunggal, Surabaya, Jawa Timur 60187","Tanjungsari, Kec. Sukomanunggal, Surabaya",SULAWESI BARAT,60187.0,Indonesia,,,,-7.2599072,112.6897854,https://maps.google.com/?cid=0x0:0x39ffaf65f3adb63f,
supermarket,supermarket,Amir Yahya,"JJG9+8MV, Unnamed Road, Karama, Kalumpang, Kabupaten Mamuju, Sulawesi Barat 91562","Unnamed Road, Karama, Kalumpang, Kabupaten Mamuju",SULAWESI BARAT,91562.0,Indonesia,,,,-2.3741413,119.6191577,https://maps.google.com/?cid=0x0:0x634d4878a912b3db,
supermarket,supermarket,KALUMPANG,"GFFP+5G, Kalumpang, Kabupaten Mamuju, Sulawesi Barat","Kabupaten Mamuju, Sulawesi Barat",SULAWESI BARAT,,Indonesia,,,,-2.4770405,119.4862617,https://maps.google.com/?cid=0x0:0x240f502e1b673eb2,
supermarket,Sekolah Menengah Pertama,SMP Negeri 1 Balabalakang,"8V9Q+7QW ulau Ambo, Kec. Kep. Bala Balakang, Rimuku, Kec. Mamuju, Prov, Sulawesi Barat","Prov, Sulawesi Barat",SULAWESI BARAT,,Indonesia,,,,-2.681762,118.8894686,https://maps.google.com/?cid=0x0:0x75acfc5dc8f3b86d,
supermarket,Sekolah Menengah Pertama,SMP Negeri 1 Mamuju,"Jl. Sultan Hasanuddin No.132, Binanga, Kec. Mamuju, Kabupaten Mamuju, Sulawesi Barat 91511","Binanga, Kec. Mamuju, Kabupaten Mamuju",SULAWESI BARAT,91511.0,Indonesia,42621063.0,,,-2.6739349,118.8913082,https://maps.google.com/?cid=0x0:0xcc5bbea9f8c9bbd7,
supermarket,Toko Swalayan,The Foodhall Gourmet,"Jl. M.H. Thamrin No.28-30, RT.9/RW.5, Gondangdia, Kec. Menteng, Kota Jakarta Pusat, Daerah Khusus Ibukota Jakarta 10350","RT.9/RW.5, Gondangdia, Kec. Menteng, Kota Jakarta Pusat",SULAWESI BARAT,10350.0,Indonesia,213107555.0,,,-6.1935362,106.8221665,https://maps.google.com/?cid=0x0:0x311eac3e0d9f35b7,
supermarket,supermarket,Sulawesi Barat 91511,"Kabupaten Mamuju, Sulawesi Barat","Kabupaten Mamuju, Sulawesi Barat",SULAWESI BARAT,,Indonesia,,,,-2.728111,118.9761519,https://maps.google.com/?cid=0x0:0x3f347dc6f3833aaf,
supermarket,Toko,Toko Subur Union,"Binanga, Kec. Mamuju, Kabupaten Mamuju, Sulawesi Barat 91511","Kec. Mamuju, Kabupaten Mamuju",SULAWESI BARAT,91511.0,Indonesia,82287532274.0,,,-2.6712083,118.8923711,https://maps.google.com/?cid=0x0:0xdb42e6923583d3a4,
supermarket,Toko bahan makanan,Indomaret Ir. Juanda Kota Mamuju,"8WF2+Q58, Jl. Poros Mamuju - Topoyo, Mamunyu, Kec. Mamuju, Kabupaten Mamuju, Sulawesi Barat 91511","Jl. Poros Mamuju - Topoyo, Mamunyu, Kec. Mamuju, Kabupaten Mamuju",SULAWESI BARAT,91511.0,Indonesia,,,,-2.6755767,118.9004577,https://maps.google.com/?cid=0x0:0xbd05824928df3529,
supermarket,Toko bahan makanan,Agen Galon Le Minerale Family Mart,"8VFP+7PV, Jl. Abd. Wahab Azasi, Binanga, Kec. Mamuju, Kabupaten Mamuju, Sulawesi Barat 91511","Jl. Abd. Wahab Azasi, Binanga, Kec. Mamuju, Kabupaten Mamuju",SULAWESI BARAT,91511.0,Indonesia,85397207006.0,,,-2.6767501,118.8868034,https://maps.google.com/?cid=0x0:0xb900ed24e6662523,
supermarket,Toko bahan makanan,Alfamidi Kurungan Bassi,"8V9Q+WQC, Jl. Kurungan Bassi (Trans Sulawesi), Rimuku, Kec. Mamuju, Kabupaten Mamuju, Sulawesi Barat 91511","Jl. Kurungan Bassi (Trans Sulawesi), Rimuku, Kec. Mamuju, Kabupaten Mamuju",SULAWESI BARAT,91511.0,Indonesia,81243875922.0,,,-2.680195,118.8893776,https://maps.google.com/?cid=0x0:0xafe2266a8bdb7976,
supermarket,Toko,Toko Indo Murah,"8V7H+6RW, Jl. Abd. Syakur, Karema, Kec. Mamuju, Kabupaten Mamuju, Sulawesi Barat 91512","Jl. Abd. Syakur, Karema, Kec. Mamuju, Kabupaten Mamuju",SULAWESI BARAT,91512.0,Indonesia,,,,-2.6868902,118.8795779,https://maps.google.com/?cid=0x0:0x504b17be264a7efb,
supermarket,Toko Buah dan Sayur,Buah segar manis mamuju,"Jl. Sultan Hasanuddin No.108, Binanga, Kec. Mamuju, Kabupaten Mamuju, Sulawesi Barat 91511","Binanga, Kec. Mamuju, Kabupaten Mamuju",SULAWESI BARAT,91511.0,Indonesia,,,,-2.6750157,118.8925734,https://maps.google.com/?cid=0x0:0x3da806c4a918bc03,
supermarket,Toko bahan makanan,Indomaret Pettarani Kota Mamuju,"8VFQ+9FQ, Jl. AP. Pettarani, Binanga, Kec. Mamuju, Kabupaten Mamuju, Sulawesi Barat 91511","Jl. AP. Pettarani, Binanga, Kec. Mamuju, Kabupaten Mamuju",SULAWESI BARAT,91511.0,Indonesia,,,,-2.6765382,118.8887235,https://maps.google.com/?cid=0x0:0xee9c5b9fd04dbcc4,
supermarket,Toko bahan makanan,Indomaret Pababari Kota Mamuju,"8V8J+3Q9, Karema, Kec. Mamuju, Kabupaten Mamuju, Sulawesi Barat 91511","Karema, Kec. Mamuju, Kabupaten Mamuju",SULAWESI BARAT,91511.0,Indonesia,,,,-2.6848305,118.8819978,https://maps.google.com/?cid=0x0:0x840ff7bb4ac276e8,
supermarket,Pusat Perbelanjaan,Alfamidi jensud mamuju,"Jl. Poros Majene - Mamuju No.157, Simboro, Kec. Simboro Dan Kepulauan, Kabupaten Mamuju, Sulawesi Barat 91512","Simboro, Kec. Simboro Dan Kepulauan, Kabupaten Mamuju",SULAWESI BARAT,91512.0,Indonesia,,,,-2.6842149,118.8699936,https://maps.google.com/?cid=0x0:0xd1c8879eb7cb5ae3,
supermarket,Minimarket,Indomaret TMDI,"8V5C+MRC, Jl. Abd. Syakur, Karema, Kec. Mamuju, Kabupaten Mamuju, Sulawesi Barat 91512","Jl. Abd. Syakur, Karema, Kec. Mamuju, Kabupaten Mamuju",SULAWESI BARAT,91512.0,Indonesia,,,,-2.6908166,118.8720028,https://maps.google.com/?cid=0x0:0xf2f5686f42e97e2e,
supermarket,Toko bahan makanan,Ayudih Mart,"Jl. Andi Dai No.41, Binanga, Kec. Mamuju, Kabupaten Mamuju, Sulawesi Barat 91511","Binanga, Kec. Mamuju, Kabupaten Mamuju",SULAWESI BARAT,91511.0,Indonesia,,,,-2.6740736,118.8967185,https://maps.google.com/?cid=0x0:0x989d1c419bd93101,
supermarket,Toko bahan makanan,Alfamidi Pengayoman Mamuju,"8V8M+FHX, Rimuku, Kec. Mamuju, Kabupaten Mamuju, Sulawesi Barat 91511","Rimuku, Kec. Mamuju, Kabupaten Mamuju",SULAWESI BARAT,91511.0,Indonesia,,,,-2.6837705,118.8839907,https://maps.google.com/?cid=0x0:0x7247e102026b164a,
supermarket,Toko bahan makanan,Indomaret Ahmad Yani kota Mamuju,"8VFP+P9P, Binanga, Kec. Mamuju, Kabupaten Mamuju, Sulawesi Barat 91511","Binanga, Kec. Mamuju, Kabupaten Mamuju",SULAWESI BARAT,91511.0,Indonesia,,,,-2.675672,118.8859511,https://maps.google.com/?cid=0x0:0x81880f24ac2e6956,
supermarket,Toko Swalayan,Yogacell,"8VGW+3RW, Binanga, Kec. Mamuju, Kabupaten Mamuju, Sulawesi Barat 91511","Binanga, Kec. Mamuju, Kabupaten Mamuju",SULAWESI BARAT,91511.0,Indonesia,82231456622.0,,,-2.6747564,118.8970864,https://maps.google.com/?cid=0x0:0x94a13dffc92a83af,
supermarket,Toko bahan makanan,Hajja Ana (Campuran),"Pasar baru, Karema, Kec. Mamuju, Kabupaten Mamuju, Sulawesi Barat 91512","Karema, Kec. Mamuju, Kabupaten Mamuju",SULAWESI BARAT,91512.0,Indonesia,81355506507.0,,,-2.6864905,118.8768109,https://maps.google.com/?cid=0x0:0x239dd7ffefb25995,
supermarket,Toko bahan makanan,MUTMAINNAH MART,"Jl. Emmy Saelan No.15, Binanga, Kec. Mamuju, Kabupaten Mamuju, Sulawesi Barat 91511","Binanga, Kec. Mamuju, Kabupaten Mamuju",SULAWESI BARAT,91511.0,Indonesia,81243013742.0,,,-2.6734442,118.8893299,https://maps.google.com/?cid=0x0:0x731617ddff392f0b,
supermarket,Pasar,Pasar Baru Mamuju,"Jl. Abd. Syakur, Pasar Baru, Kec. Mamuju, Kabupaten Mamuju, Sulawesi Barat 91515","Pasar Baru, Kec. Mamuju, Kabupaten Mamuju",SULAWESI BARAT,91515.0,Indonesia,,,,-2.6868379,118.8778964,https://maps.google.com/?cid=0x0:0xcb65768a341249f,
supermarket,Pusat Perbelanjaan,MATOS MALL OTC,"8VJR+7MC, Jl. Yos Sudarso, Binanga, Kec. Mamuju, Kabupaten Mamuju, Sulawesi Barat 91511","Jl. Yos Sudarso, Binanga, Kec. Mamuju, Kabupaten Mamuju",SULAWESI BARAT,91511.0,Indonesia,,,,-2.669308,118.8916431,https://maps.google.com/?cid=0x0:0xd0c1f3bfb34f7b6,
supermarket,Toko bahan makanan,Toko Tulip,"Jl. Emmy Saelan No.2, Binanga, Kec. Mamuju, Kabupaten Mamuju, Sulawesi Barat 91511","Binanga, Kec. Mamuju, Kabupaten Mamuju",SULAWESI BARAT,91511.0,Indonesia,,,,-2.6733131,118.8897662,https://maps.google.com/?cid=0x0:0xc800d68ee84336f6,
supermarket,Pusat Perbelanjaan,Hypermart Mamuju 3,"Jl. Yos Sudarso No.37, Binanga, Kabupaten Mamuju, Sulawesi Barat 91511","Binanga, Kabupaten Mamuju",SULAWESI BARAT,91511.0,Indonesia,81244891999.0,,,-2.6692933,118.8914571,https://maps.google.com/?cid=0x0:0x9c36a6f103a3f21e,
supermarket,Toko Pakaian,Pasar Lama Mamuju,"8VHR+3MH, Jl. Pasar Sintra Llamas, Binanga, Kec. Mamuju, Kabupaten Mamuju, Sulawesi Barat 91511","Jl. Pasar Sintra Llamas, Binanga, Kec. Mamuju, Kabupaten Mamuju",SULAWESI BARAT,91511.0,Indonesia,81245320927.0,,,-2.6723046,118.8917312,https://maps.google.com/?cid=0x0:0x77d62bf3d41f2f52,
supermarket,Toko Swalayan,Putra Madani,"8VGQ+H82, Binanga, Kec. Mamuju, Kabupaten Mamuju, Sulawesi Barat 91511","Binanga, Kec. Mamuju, Kabupaten Mamuju",SULAWESI BARAT,91511.0,Indonesia,42621884.0,,,-2.67361,118.888258,https://maps.google.com/?cid=0x0:0x2d949554f1f8abb3,
supermarket,Toko Alat Tulis Kantor,CV KARYA SAHABAT,"Karema, Kec. Mamuju, Kabupaten Mamuju, Sulawesi Barat 91512","Kec. Mamuju, Kabupaten Mamuju",SULAWESI BARAT,91512.0,Indonesia,85230149693.0,,,-2.680434,118.8763704,https://maps.google.com/?cid=0x0:0x1596862d3adbf609,
supermarket,Toko umum,KIOS KAILA MASAGENA,"8WHC+J7F, Jl. Poros Majene - Mamuju, Mamunyu, Kec. Mamuju, Kabupaten Mamuju, Sulawesi Barat 91511","Jl. Poros Majene - Mamuju, Mamunyu, Kec. Mamuju, Kabupaten Mamuju",SULAWESI BARAT,91511.0,Indonesia,85340585182.0,,,-2.6709342,118.9206578,https://maps.google.com/?cid=0x0:0x4ff9c2ac06e65da8,
supermarket,Minimarket,Alfamart Soekarno Hatta,"Jl. Soekarno Hatta, Binanga, Kec. Mamuju, Kabupaten Mamuju, Sulawesi Barat 91511","Binanga, Kec. Mamuju, Kabupaten Mamuju",SULAWESI BARAT,91511.0,Indonesia,211500959.0,,,-2.6909334,118.8843629,https://maps.google.com/?cid=0x0:0x1f2ae2f6ceb84bf1,
supermarket,Toko Swalayan,Toko Rahma,"Jl. Sultan Hasanuddin, Binanga, Kec. Mamuju, Kabupaten Mamuju, Sulawesi Barat 91511","Binanga, Kec. Mamuju, Kabupaten Mamuju",SULAWESI BARAT,91511.0,Indonesia,,,,-2.6707945,118.8953763,https://maps.google.com/?cid=0x0:0x5079c4a3c8629e09,
supermarket,Pusat Perbelanjaan,Alfamart Martadinata,"Jl. RE Martadinata No.Kel, Simboro, Kec. Simboro Dan Kepulauan, Kabupaten Mamuju, Sulawesi Barat 91512","Simboro, Kec. Simboro Dan Kepulauan, Kabupaten Mamuju",SULAWESI BARAT,91512.0,Indonesia,211500959.0,,,-2.6876485,118.8629065,https://maps.google.com/?cid=0x0:0x6438c2d32caf04a7,
supermarket,Toko Aksesori Ponsel,Ibo Cell,"8VCM+459, Rimuku, Kec. Mamuju, Kabupaten Mamuju, Sulawesi Barat 91511","Rimuku, Kec. Mamuju, Kabupaten Mamuju",SULAWESI BARAT,91511.0,Indonesia,81355903277.0,,,-2.6797096,118.8829732,https://maps.google.com/?cid=0x0:0x9f4ac11dbb44a56c,
supermarket,supermarket,Sulawesi Barat 91514,"Kabupaten Mamuju, Sulawesi Barat","Kabupaten Mamuju, Sulawesi Barat",SULAWESI BARAT,,Indonesia,,,,-2.6664001,118.9877942,https://maps.google.com/?cid=0x0:0x63629837e7aa22dc,
supermarket,Toko bahan makanan,Indomaret SPBU Tadui Mamuju.,"9W5X+7C5, Jl. Mamuju - Kalukku, Tadui, Kec. Mamuju, Kabupaten Mamuju, Sulawesi Barat 91514","Jl. Mamuju - Kalukku, Tadui, Kec. Mamuju, Kabupaten Mamuju",SULAWESI BARAT,91514.0,Indonesia,,,,-2.6418637,118.9485968,https://maps.google.com/?cid=0x0:0x252e836b33715269,
supermarket,Toko,Kios An_Nut,"8WWM+RW5, Jl. Poros Majene - Mamuju, Bambu, Kec. Mamuju, Kabupaten Mamuju, Sulawesi Barat 91511","Jl. Poros Majene - Mamuju, Bambu, Kec. Mamuju, Kabupaten Mamuju",SULAWESI BARAT,91511.0,Indonesia,,,,-2.6529433,118.9348051,https://maps.google.com/?cid=0x0:0x5765a0da9b05b420,
supermarket,Pusat Perbelanjaan,MATOS MALL OTC,"8VJR+7MC, Jl. Yos Sudarso, Binanga, Kec. Mamuju, Kabupaten Mamuju, Sulawesi Barat 91511","Jl. Yos Sudarso, Binanga, Kec. Mamuju, Kabupaten Mamuju",SULAWESI BARAT,91511.0,Indonesia,,,,-2.669308,118.8916431,https://maps.google.com/?cid=0x0:0xd0c1f3bfb34f7b6,
supermarket,Pasar,Pasar Baru Mamuju,"Jl. Abd. Syakur, Pasar Baru, Kec. Mamuju, Kabupaten Mamuju, Sulawesi Barat 91515","Pasar Baru, Kec. Mamuju, Kabupaten Mamuju",SULAWESI BARAT,91515.0,Indonesia,,,,-2.6868379,118.8778964,https://maps.google.com/?cid=0x0:0xcb65768a341249f,
supermarket,Toko bahan makanan,Agen Galon Le Minerale Family Mart,"8VFP+7PV, Jl. Abd. Wahab Azasi, Binanga, Kec. Mamuju, Kabupaten Mamuju, Sulawesi Barat 91511","Jl. Abd. Wahab Azasi, Binanga, Kec. Mamuju, Kabupaten Mamuju",SULAWESI BARAT,91511.0,Indonesia,85397207006.0,,,-2.6767501,118.8868034,https://maps.google.com/?cid=0x0:0xb900ed24e6662523,
supermarket,Pusat Perbelanjaan,Alfamidi jensud mamuju,"Jl. Poros Majene - Mamuju No.157, Simboro, Kec. Simboro Dan Kepulauan, Kabupaten Mamuju, Sulawesi Barat 91512","Simboro, Kec. Simboro Dan Kepulauan, Kabupaten Mamuju",SULAWESI BARAT,91512.0,Indonesia,,,,-2.6842149,118.8699936,https://maps.google.com/?cid=0x0:0xd1c8879eb7cb5ae3,
supermarket,Toko bahan makanan,Toko Tulip,"Jl. Emmy Saelan No.2, Binanga, Kec. Mamuju, Kabupaten Mamuju, Sulawesi Barat 91511","Binanga, Kec. Mamuju, Kabupaten Mamuju",SULAWESI BARAT,91511.0,Indonesia,,,,-2.6733131,118.8897662,https://maps.google.com/?cid=0x0:0xc800d68ee84336f6,
supermarket,Kantor Perusahaan,Maleo Town Square,"Jl. Yos Sudarso No.37, Binanga, Kec. Mamuju, Kabupaten Mamuju, Sulawesi Barat 91511","Binanga, Kec. Mamuju, Kabupaten Mamuju",SULAWESI BARAT,91511.0,Indonesia,81280867009.0,,,-2.6692803,118.8916841,https://maps.google.com/?cid=0x0:0x87dbaf62ffc34e7c,
supermarket,Toko bahan makanan,Toko Arbia,"8VCQ+3P2, Binanga, Kec. Mamuju, Kabupaten Mamuju, Sulawesi Barat 91511","Binanga, Kec. Mamuju, Kabupaten Mamuju",SULAWESI BARAT,91511.0,Indonesia,,,,-2.6798686,118.8892726,https://maps.google.com/?cid=0x0:0xf34c20964381bd4,
supermarket,Toko Swalayan,Toko Rahma,"Jl. Sultan Hasanuddin, Binanga, Kec. Mamuju, Kabupaten Mamuju, Sulawesi Barat 91511","Binanga, Kec. Mamuju, Kabupaten Mamuju",SULAWESI BARAT,91511.0,Indonesia,,,,-2.6707945,118.8953763,https://maps.google.com/?cid=0x0:0x5079c4a3c8629e09,
supermarket,Toko bahan makanan,Indomaret,"8VJV+742, Jl. Yos Sudarso, Binanga, Kec. Mamuju, Kabupaten Mamuju, Sulawesi Barat 91511","Jl. Yos Sudarso, Binanga, Kec. Mamuju, Kabupaten Mamuju",SULAWESI BARAT,91511.0,Indonesia,,,,-2.669374,118.8927563,https://maps.google.com/?cid=0x0:0xd922c6f42bd5cc5b,
supermarket,Toko Suvenir,Toko Oleh-oleh Mamuju,"8VFM+28C, Jl. Umar Dar, Rimuku, Kec. Mamuju, Kabupaten Mamuju, Sulawesi Barat 91515","Jl. Umar Dar, Rimuku, Kec. Mamuju, Kabupaten Mamuju",SULAWESI BARAT,91515.0,Indonesia,81245959890.0,,,-2.6774257,118.8832569,https://maps.google.com/?cid=0x0:0x78df612f49da94df,
supermarket,Toko Peralatan dan Bahan Kue,Toko Bahan Kue Hj. Pasa,"8VHR+RQ2, Jl. Dr. Sam Ratulangi, Binanga, Kec. Mamuju, Kabupaten Mamuju, Sulawesi Barat 91511","Jl. Dr. Sam Ratulangi, Binanga, Kec. Mamuju, Kabupaten Mamuju",SULAWESI BARAT,91511.0,Indonesia,81342041333.0,,,-2.6704934,118.8918782,https://maps.google.com/?cid=0x0:0x93d16edb6f1e7d83,
supermarket,supermarket,Toko Sinar Pangke0,"8XHC+G44, Tadui, Kec. Mamuju, Kabupaten Mamuju, Sulawesi Barat 91514","Tadui, Kec. Mamuju, Kabupaten Mamuju",SULAWESI BARAT,91514.0,Indonesia,,,,-2.6712333,118.9703304,https://maps.google.com/?cid=0x0:0x6b8bcb7a7742a256,
supermarket,supermarket,Kios AFIFI,"Jl. Mamuju - Kalukku No.38, Tadui, Kec. Mamuju, Kabupaten Mamuju, Sulawesi Barat 91514","Tadui, Kec. Mamuju, Kabupaten Mamuju",SULAWESI BARAT,91514.0,Indonesia,81241986069.0,,,-2.6433205,118.962212,https://maps.google.com/?cid=0x0:0x944712d2533ccf58,
supermarket,supermarket,Rahmah Buah,"9X58+J3, Tadui, Kec. Mamuju, Kabupaten Mamuju, Sulawesi Barat 91514","Tadui, Kec. Mamuju, Kabupaten Mamuju",SULAWESI BARAT,91514.0,Indonesia,,,,-2.6409581,118.9651708,https://maps.google.com/?cid=0x0:0xddaef617e7f90945,
supermarket,Pusat Perbelanjaan,Hypermart Mamuju 3,"Jl. Yos Sudarso No.37, Binanga, Kabupaten Mamuju, Sulawesi Barat 91511","Binanga, Kabupaten Mamuju",SULAWESI BARAT,91511.0,Indonesia,81244891999.0,,,-2.6692933,118.8914571,https://maps.google.com/?cid=0x0:0x9c36a6f103a3f21e,
supermarket,Toko bahan makanan,Indomaret Pettarani Kota Mamuju,"8VFQ+9FQ, Jl. AP. Pettarani, Binanga, Kec. Mamuju, Kabupaten Mamuju, Sulawesi Barat 91511","Jl. AP. Pettarani, Binanga, Kec. Mamuju, Kabupaten Mamuju",SULAWESI BARAT,91511.0,Indonesia,,,,-2.6765382,118.8887235,https://maps.google.com/?cid=0x0:0xee9c5b9fd04dbcc4,
supermarket,Pusat Perbelanjaan,MINISO MAMUJU,"Jl. Yos Sudarso No.65, Binanga, Kec. Mamuju, Kabupaten Mamuju, Sulawesi Barat 91511","Binanga, Kec. Mamuju, Kabupaten Mamuju",SULAWESI BARAT,91511.0,Indonesia,81244861862.0,,,-2.6693543,118.8914623,https://maps.google.com/?cid=0x0:0x81c8620f8b3b82c3,
supermarket,supermarket,Sulawesi Barat 91515,"Karampuang, Kec. Mamuju, Kabupaten Mamuju, Sulawesi Barat","Kabupaten Mamuju, Sulawesi Barat",SULAWESI BARAT,,Indonesia,,,,-2.6273634,118.885894,https://maps.google.com/?cid=0x0:0x734a0409ed48ab3f,
supermarket,Toko,Toko Indo Murah,"8V7H+6RW, Jl. Abd. Syakur, Karema, Kec. Mamuju, Kabupaten Mamuju, Sulawesi Barat 91512","Jl. Abd. Syakur, Karema, Kec. Mamuju, Kabupaten Mamuju",SULAWESI BARAT,91512.0,Indonesia,,,,-2.6868902,118.8795779,https://maps.google.com/?cid=0x0:0x504b17be264a7efb,
supermarket,Pasar,Pasar Baru Mamuju,"Jl. Abd. Syakur, Pasar Baru, Kec. Mamuju, Kabupaten Mamuju, Sulawesi Barat 91515","Pasar Baru, Kec. Mamuju, Kabupaten Mamuju",SULAWESI BARAT,91515.0,Indonesia,,,,-2.6868379,118.8778964,https://maps.google.com/?cid=0x0:0xcb65768a341249f,
supermarket,Pusat Perbelanjaan,Alfamidi jensud mamuju,"Jl. Poros Majene - Mamuju No.157, Simboro, Kec. Simboro Dan Kepulauan, Kabupaten Mamuju, Sulawesi Barat 91512","Simboro, Kec. Simboro Dan Kepulauan, Kabupaten Mamuju",SULAWESI BARAT,91512.0,Indonesia,,,,-2.6842149,118.8699936,https://maps.google.com/?cid=0x0:0xd1c8879eb7cb5ae3,
supermarket,Toko bahan makanan,Toko Tulip,"Jl. Emmy Saelan No.2, Binanga, Kec. Mamuju, Kabupaten Mamuju, Sulawesi Barat 91511","Binanga, Kec. Mamuju, Kabupaten Mamuju",SULAWESI BARAT,91511.0,Indonesia,,,,-2.6733131,118.8897662,https://maps.google.com/?cid=0x0:0xc800d68ee84336f6,
supermarket,Toko bahan makanan,Toko Arbia,"8VCQ+3P2, Binanga, Kec. Mamuju, Kabupaten Mamuju, Sulawesi Barat 91511","Binanga, Kec. Mamuju, Kabupaten Mamuju",SULAWESI BARAT,91511.0,Indonesia,,,,-2.6798686,118.8892726,https://maps.google.com/?cid=0x0:0xf34c20964381bd4,
supermarket,Toko bahan makanan,Indomaret,"8VJV+742, Jl. Yos Sudarso, Binanga, Kec. Mamuju, Kabupaten Mamuju, Sulawesi Barat 91511","Jl. Yos Sudarso, Binanga, Kec. Mamuju, Kabupaten Mamuju",SULAWESI BARAT,91511.0,Indonesia,,,,-2.669374,118.8927563,https://maps.google.com/?cid=0x0:0xd922c6f42bd5cc5b,
supermarket,Toko Swalayan,Toko Rahma,"Jl. Sultan Hasanuddin, Binanga, Kec. Mamuju, Kabupaten Mamuju, Sulawesi Barat 91511","Binanga, Kec. Mamuju, Kabupaten Mamuju",SULAWESI BARAT,91511.0,Indonesia,,,,-2.6707945,118.8953763,https://maps.google.com/?cid=0x0:0x5079c4a3c8629e09,
supermarket,Minimarket,Alfamart bean!Spot SPBU Karema,"Jl. Jend Sudirman No.Kel, Simboro, Kec. Simboro Dan Kepulauan, Kabupaten Mamuju, Sulawesi Barat 91512","Simboro, Kec. Simboro Dan Kepulauan, Kabupaten Mamuju",SULAWESI BARAT,91512.0,Indonesia,81294669496.0,,,-2.6883524,118.8696429,https://maps.google.com/?cid=0x0:0xd0f31970f3dee25e,
supermarket,Toko Suvenir,Toko Oleh-oleh Mamuju,"8VFM+28C, Jl. Umar Dar, Rimuku, Kec. Mamuju, Kabupaten Mamuju, Sulawesi Barat 91515","Jl. Umar Dar, Rimuku, Kec. Mamuju, Kabupaten Mamuju",SULAWESI BARAT,91515.0,Indonesia,81245959890.0,,,-2.6774257,118.8832569,https://maps.google.com/?cid=0x0:0x78df612f49da94df,
supermarket,Toko Peralatan dan Bahan Kue,Toko Bahan Kue Hj. Pasa,"8VHR+RQ2, Jl. Dr. Sam Ratulangi, Binanga, Kec. Mamuju, Kabupaten Mamuju, Sulawesi Barat 91511","Jl. Dr. Sam Ratulangi, Binanga, Kec. Mamuju, Kabupaten Mamuju",SULAWESI BARAT,91511.0,Indonesia,81342041333.0,,,-2.6704934,118.8918782,https://maps.google.com/?cid=0x0:0x93d16edb6f1e7d83,
supermarket,supermarket,Toko Mamuju Indah,"8VGR+JGG, Binanga, Kec. Mamuju, Kabupaten Mamuju, Sulawesi Barat 91511","Binanga, Kec. Mamuju, Kabupaten Mamuju",SULAWESI BARAT,91511.0,Indonesia,,,,-2.6734476,118.8913299,https://maps.google.com/?cid=0x0:0x2e4acf83dbc4dbee,
supermarket,supermarket,Rumah Mama Kia,"8VXP+GRQ, Karampuang, Kec. Mamuju, Kabupaten Mamuju, Sulawesi Barat 91515","Karampuang, Kec. Mamuju, Kabupaten Mamuju",SULAWESI BARAT,91515.0,Indonesia,,,,-2.6511732,118.8870945,https://maps.google.com/?cid=0x0:0xe40fba74e6d2ec21,
supermarket,supermarket,Kios subur,"9VCH+VC, Karampuang, Kec. Mamuju, Kabupaten Mamuju, Sulawesi Barat","Kabupaten Mamuju, Sulawesi Barat",SULAWESI BARAT,,Indonesia,,,,-2.6278499,118.8785449,https://maps.google.com/?cid=0x0:0xab21a0c828a8e42c,
supermarket,Toko umum,Jual cacing laut kering,"9VCH+VC7, Karampuang, Kec. Mamuju, Kabupaten Mamuju, Sulawesi Barat 91515","Karampuang, Kec. Mamuju, Kabupaten Mamuju",SULAWESI BARAT,91515.0,Indonesia,85216947261.0,,,-2.6275234,118.8793845,https://maps.google.com/?cid=0x0:0x5d0aca0965bad60f,
supermarket,Toko Ponsel,BabeCell,"Jl. Mamuju - Kalukku No.1, Mamunyu, Kec. Mamuju, Kabupaten Mamuju, Sulawesi Barat 91511","Mamunyu, Kec. Mamuju, Kabupaten Mamuju",SULAWESI BARAT,91511.0,Indonesia,81341999990.0,,,-2.6755536,118.9006116,https://maps.google.com/?cid=0x0:0x630610fb10a59ecd,
supermarket,Pusat Perbelanjaan,Galeri Phonsel,"8V7J+H5V, Jl. Pababari, Karema, Kec. Mamuju, Kabupaten Mamuju, Sulawesi Barat 91512","Jl. Pababari, Karema, Kec. Mamuju, Kabupaten Mamuju",SULAWESI BARAT,91512.0,Indonesia,,,,-2.6860243,118.8804191,https://maps.google.com/?cid=0x0:0xea4cc94daad6f39e,
supermarket,Toko bahan makanan,Toko Sumber Usaha,"Jl. Abd. Syakur No.52, Karema, Kec. Mamuju, Kabupaten Mamuju, Sulawesi Barat 91512","Karema, Kec. Mamuju, Kabupaten Mamuju",SULAWESI BARAT,91512.0,Indonesia,82192892214.0,,,-2.6875087,118.877936,https://maps.google.com/?cid=0x0:0xb65fb29684cebea2,
supermarket,Toko bahan makanan,Indomaret Pettarani Kota Mamuju,"8VFQ+9FQ, Jl. AP. Pettarani, Binanga, Kec. Mamuju, Kabupaten Mamuju, Sulawesi Barat 91511","Jl. AP. Pettarani, Binanga, Kec. Mamuju, Kabupaten Mamuju",SULAWESI BARAT,91511.0,Indonesia,,,,-2.6765382,118.8887235,https://maps.google.com/?cid=0x0:0xee9c5b9fd04dbcc4,
supermarket,Toko Pakaian,Toko KDR Baru,"8V7G+7Q2, Jl. Diponegoro, Karema, Kec. Mamuju, Kabupaten Mamuju, Sulawesi Barat 91512","Jl. Diponegoro, Karema, Kec. Mamuju, Kabupaten Mamuju",SULAWESI BARAT,91512.0,Indonesia,85256467478.0,,,-2.6868544,118.8768934,https://maps.google.com/?cid=0x0:0x36cc584c79da7fda,
supermarket,supermarket,Toko Matahari Mas,"8V8G+2JV, Jl. Diponegoro, Karema, Kec. Mamuju, Kabupaten Mamuju, Sulawesi Barat 91512","Jl. Diponegoro, Karema, Kec. Mamuju, Kabupaten Mamuju",SULAWESI BARAT,91512.0,Indonesia,,,,-2.6848941,118.876558,https://maps.google.com/?cid=0x0:0xb04a3606f94608fd,
supermarket,Toko,TOKO Anugrah Papalang,"H5C4+GW9, jl poros smk, Papalang, Kec. Papalang, Kabupaten Mamuju, Sulawesi Barat 91561","jl poros smk, Papalang, Kec. Papalang, Kabupaten Mamuju",SULAWESI BARAT,91561.0,Indonesia,,,,-2.4287142,119.1573704,https://maps.google.com/?cid=0x0:0x5b36dc576cf4d40b,
supermarket,supermarket,Sulawesi Barat 91563,"Kabupaten Mamuju, Sulawesi Barat","Kabupaten Mamuju, Sulawesi Barat",SULAWESI BARAT,,Indonesia,,,,-2.0727011,119.5107708,https://maps.google.com/?cid=0x0:0x8bfaa35dac2725d7,
supermarket,Toko Swalayan,Toko anugrah02,"Topore, Kec. Papalang, Kabupaten Mamuju, Sulawesi Barat","Kabupaten Mamuju, Sulawesi Barat",SULAWESI BARAT,,Indonesia,,,,-2.4193394,119.162568,https://maps.google.com/?cid=0x0:0x3ebb57462c9d157b,
supermarket,Pusat Perbelanjaan,Galeri Rafardhan,"J58C+6X9, Toabo, Kec. Papalang, Kabupaten Mamuju, Sulawesi Barat 91563","Toabo, Kec. Papalang, Kabupaten Mamuju",SULAWESI BARAT,91563.0,Indonesia,82347900195.0,,,-2.3844569,119.1724872,https://maps.google.com/?cid=0x0:0x4815a020c2cab5cb,
supermarket,supermarket,Sulawesi Barat 91563,"Kabupaten Mamuju, Sulawesi Barat","Kabupaten Mamuju, Sulawesi Barat",SULAWESI BARAT,,Indonesia,,,,-2.0727011,119.5107708,https://maps.google.com/?cid=0x0:0x8bfaa35dac2725d7,
supermarket,Pasar,Pasar Rakyat Sampaga,"M5PG+H43, Tarailu, Kec. Sampaga, Kabupaten Mamuju, Sulawesi Barat 91563","Tarailu, Kec. Sampaga, Kabupaten Mamuju",SULAWESI BARAT,91563.0,Indonesia,85299647387.0,,,-2.3136175,119.1753097,https://maps.google.com/?cid=0x0:0x8375111ecde4bf61,
supermarket,Toko bahan makanan,Lalu Abdul Gani,"M569+4J9, Unnamed Road, Bunde, Kec. Sampaga, Kabupaten Mamuju, Sulawesi Barat 91563","Unnamed Road, Bunde, Kec. Sampaga, Kabupaten Mamuju",SULAWESI BARAT,91563.0,Indonesia,85341806030.0,,,-2.3397116,119.1691069,https://maps.google.com/?cid=0x0:0xb5e7dd33568d7951,
supermarket,Toko,HIJRAH MART,"M5QG+5QV, Tarailu, Kec. Sampaga, Kabupaten Mamuju, Sulawesi Barat 91563","Tarailu, Kec. Sampaga, Kabupaten Mamuju",SULAWESI BARAT,91563.0,Indonesia,82333333275.0,,,-2.3120215,119.1769104,https://maps.google.com/?cid=0x0:0x4f070e97046da76f,
supermarket,Toko bahan makanan,Toko mutiara,"Tarailu, Kec. Sampaga, Kabupaten Mamuju, Sulawesi Barat 91563","Kec. Sampaga, Kabupaten Mamuju",SULAWESI BARAT,91563.0,Indonesia,,,,-2.3261435,119.1743884,https://maps.google.com/?cid=0x0:0x35b97711543c80df,
supermarket,Minimarket,kios ardyy,"M6GC+PWP, Losso, Kec. Sampaga, Kabupaten Mamuju, Sulawesi Barat","Kabupaten Mamuju, Sulawesi Barat",SULAWESI BARAT,,Indonesia,85222389791.0,,,-2.3231694,119.2223376,https://maps.google.com/?cid=0x0:0x3453c617a7cb6d81,
supermarket,Minimarket,SHALZMART,"Unnamed Road, Salupangkang, Kec. Topoyo, Kabupaten Mamuju Tengah, Sulawesi Barat 91563","Salupangkang, Kec. Topoyo, Kabupaten Mamuju Tengah",SULAWESI BARAT,91563.0,Indonesia,82347216046.0,,,-2.0154671,119.3197548,https://maps.google.com/?cid=0x0:0x58ade56b57c0afd7,
supermarket,Toko bahan makanan,Goo Mart,"M5WG+JGH, Pangale, Kec. Pangale, Kabupaten Mamuju, Sulawesi Barat","Kabupaten Mamuju, Sulawesi Barat",SULAWESI BARAT,,Indonesia,,,,-2.3029982,119.1762725,https://maps.google.com/?cid=0x0:0xe2f6b7403fb446c6,
supermarket,Toko bahan makanan,toko Risman,"M5RF+6R6, Tarailu, Kec. Sampaga, Kabupaten Mamuju, Sulawesi Barat 91563","Tarailu, Kec. Sampaga, Kabupaten Mamuju",SULAWESI BARAT,91563.0,Indonesia,85213560405.0,,,-2.3094748,119.1745264,https://maps.google.com/?cid=0x0:0x4b3405ecea22ba1d,
supermarket,Toko bahan makanan,Toko Tere,"Unnamed Road, Waeputeh, Kec. Topoyo, Kabupaten Mamuju Tengah, Sulawesi Barat 91563","Waeputeh, Kec. Topoyo, Kabupaten Mamuju Tengah",SULAWESI BARAT,91563.0,Indonesia,,,,-2.0469824,119.2705446,https://maps.google.com/?cid=0x0:0x7f4c95490859f493,
supermarket,Toko Swalayan,Toko Ramlah Galesong,"8WHG+C8W, Bambu, Kec. Mamuju, Kabupaten Mamuju, Sulawesi Barat","Kabupaten Mamuju, Sulawesi Barat",SULAWESI BARAT,,Indonesia,,,,-2.6713941,118.9258131,https://maps.google.com/?cid=0x0:0xa7bb32386630def9,
supermarket,Toko Buah dan Sayur,Jual buah,"Lorong 1, Bunde, Kec. Sampaga, Kabupaten Mamuju, Sulawesi Barat 91563","Bunde, Kec. Sampaga, Kabupaten Mamuju",SULAWESI BARAT,91563.0,Indonesia,82312999777.0,,,-2.3359267,119.1765249,https://maps.google.com/?cid=0x0:0xe703a391e97a6e04,
supermarket,Toko bahan makanan,Toko AffandiJaya,"M67G+XWF, Tanambua, Kec. Sampaga, Kabupaten Mamuju, Sulawesi Barat 91563","Tanambua, Kec. Sampaga, Kabupaten Mamuju",SULAWESI BARAT,91563.0,Indonesia,85245707599.0,,,-2.3350659,119.2272981,https://maps.google.com/?cid=0x0:0xb0adf86ba654c85d,
supermarket,Toko bahan makanan,Toko Cahaya Alif,"M5PG+RHP, Jl. Poros Mamuju - Topoyo, Tarailu, Kec. Sampaga, Kabupaten Mamuju, Sulawesi Barat 91563","Jl. Poros Mamuju - Topoyo, Tarailu, Kec. Sampaga, Kabupaten Mamuju",SULAWESI BARAT,91563.0,Indonesia,85298541235.0,,,-2.3129204,119.1764656,https://maps.google.com/?cid=0x0:0x196c9cf687ff6fa9,
supermarket,Kios,Kios hj namang,"M5RF+WW9, Tarailu, Kec. Sampaga, Kabupaten Mamuju, Sulawesi Barat 91563","Tarailu, Kec. Sampaga, Kabupaten Mamuju",SULAWESI BARAT,91563.0,Indonesia,,,,-2.3077206,119.1748734,https://maps.google.com/?cid=0x0:0x3dc5ce77394f9ee8,
supermarket,,Toko ANEKA,"M5QG+4MJ, Tarailu, Kec. Sampaga, Kabupaten Mamuju, Sulawesi Barat 91563","Tarailu, Kec. Sampaga, Kabupaten Mamuju",SULAWESI BARAT,91563.0,Indonesia,,,,-2.3121825,119.176651,https://maps.google.com/?cid=0x0:0xab353ad4cedff5dd,
supermarket,Toko Makanan,Toko Ikram,"J6GQ+M6, Salubarana, Kec. Sampaga, Kabupaten Mamuju, Sulawesi Barat 91563","Salubarana, Kec. Sampaga, Kabupaten Mamuju",SULAWESI BARAT,91563.0,Indonesia,81770620196.0,,,-2.373332,119.238076,https://maps.google.com/?cid=0x0:0x69ea95327bd875a9,
supermarket,Toko Makanan,Toko Suryani,"M5HG+92C, Tarailu, Kec. Sampaga, Kabupaten Mamuju, Sulawesi Barat 91563","Tarailu, Kec. Sampaga, Kabupaten Mamuju",SULAWESI BARAT,91563.0,Indonesia,,,,-2.3215736,119.1750286,https://maps.google.com/?cid=0x0:0xe5b12362a1a1d340,
supermarket,Toko Daging,Aisyah Broiler,"Tarailu, Kec. Sampaga, Kabupaten Mamuju, Sulawesi Barat","Kabupaten Mamuju, Sulawesi Barat",SULAWESI BARAT,,Indonesia,,,,-2.3315812,119.1751066,https://maps.google.com/?cid=0x0:0x741f3aaf1a474585,
supermarket,Toko Swalayan,Mama naufal,"lorong 9 No.5, Bunde, Kec. Sampaga, Kabupaten Mamuju, Sulawesi Barat 91563","Bunde, Kec. Sampaga, Kabupaten Mamuju",SULAWESI BARAT,91563.0,Indonesia,,,,-2.3433364,119.179765,https://maps.google.com/?cid=0x0:0x82c82594861ad143,
supermarket,Toko,Kios keysha,"M5FF+4VG, Jl. Poros Palu - Mamuju, Bunde, Kec. Sampaga, Kabupaten Mamuju, Sulawesi Barat 91563","Jl. Poros Palu - Mamuju, Bunde, Kec. Sampaga, Kabupaten Mamuju",SULAWESI BARAT,91563.0,Indonesia,,,,-2.327177,119.1746952,https://maps.google.com/?cid=0x0:0xa3e712de3dcb9520,
supermarket,Toko,Kios parman,"J798+RQW, Kalonding, Kec. Sampaga, Kabupaten Mamuju, Sulawesi Barat","Kabupaten Mamuju, Sulawesi Barat",SULAWESI BARAT,,Indonesia,81243995462.0,,,-2.3803957,119.2669438,https://maps.google.com/?cid=0x0:0xedec8b457dd95383,
supermarket,Toko Swalayan,Toko Razqya Grosir,"JLN Poros, Salulekbo, Kec. Topoyo, Kabupaten Mamuju Tengah, Sulawesi Barat 91564","Salulekbo, Kec. Topoyo, Kabupaten Mamuju Tengah",SULAWESI BARAT,91564.0,Indonesia,82296448083.0,,,-2.047258,119.4143843,https://maps.google.com/?cid=0x0:0xd70a26ab6dbee1b0,
supermarket,Toko Perlengkapan Rumah,Kios Nurdin,"M56G+43J, Bunde, Kec. Sampaga, Kabupaten Mamuju, Sulawesi Barat 91563","Bunde, Kec. Sampaga, Kabupaten Mamuju",SULAWESI BARAT,91563.0,Indonesia,,,,-2.3396745,119.1751438,https://maps.google.com/?cid=0x0:0xf0798dd4657d49e5,
supermarket,Pasar,Kios Rasi,"M5QG+RRJ, Tarailu, Kec. Sampaga, Kabupaten Mamuju, Sulawesi Barat 91563","Tarailu, Kec. Sampaga, Kabupaten Mamuju",SULAWESI BARAT,91563.0,Indonesia,,,,-2.3104685,119.177349,https://maps.google.com/?cid=0x0:0x8fffbcbc3767b28e,
supermarket,Toko Swalayan,Aneka Buana Supermarket - Pondok Labu,"Jl. RS. Fatmawati Raya No.15, RT.2/RW.1, Pd. Labu, Kec. Cilandak, Kota Jakarta Selatan, Daerah Khusus Ibukota Jakarta 12450","RT.2/RW.1, Pd. Labu, Kec. Cilandak, Kota Jakarta Selatan",SULAWESI BARAT,12450.0,Indonesia,217692010.0,,,-6.3093895,106.7939361,https://maps.google.com/?cid=0x0:0x3f7935d87cf91289,
supermarket,Toko Swalayan,Aneka Buana Cirendeu,"Jl. Raya Cirendeu No.38, Cireundeu, Kec. Ciputat Tim., Kota Tangerang Selatan, Banten 15419","Cireundeu, Kec. Ciputat Tim., Kota Tangerang Selatan",SULAWESI BARAT,15419.0,Indonesia,217423906.0,,,-6.3117335,106.7705024,https://maps.google.com/?cid=0x0:0x1bfb5dff05fdda3c,
supermarket,Toko Roti,Toko Kue Quely,"MQRV+2HR, Jl. RS. Fatmawati Raya, RT.2/RW.1, Cilandak Bar., Kec. Cilandak, Kota Jakarta Selatan, Daerah Khusus Ibukota Jakarta 12450","Jl. RS. Fatmawati Raya, RT.2/RW.1, Cilandak Bar., Kec. Cilandak, Kota Jakarta Selatan",SULAWESI BARAT,12450.0,Indonesia,87889207878.0,,,-6.3099,106.7938933,https://maps.google.com/?cid=0x0:0xffc3749e6651749,
supermarket,supermarket,Kec. Simboro Dan Kepulauan,"Kabupaten Mamuju, Sulawesi Barat","Kabupaten Mamuju, Sulawesi Barat",SULAWESI BARAT,,Indonesia,,,,-2.6886472,118.8687708,https://maps.google.com/?cid=0x0:0x690e32602d9f0e83,
supermarket,Toko umum,Toko seHATI,"8RHW+9XG, korongana,, Jl. Abdul Malik Pattana Endeng, Simboro, Kec. Simboro Dan Kepulauan, Kabupaten Mamuju, Sulawesi Barat 91512","korongana,, Jl. Abdul Malik Pattana Endeng, Simboro, Kec. Simboro Dan Kepulauan, Kabupaten Mamuju",SULAWESI BARAT,91512.0,Indonesia,81342077428.0,,,-2.6715676,118.8474459,https://maps.google.com/?cid=0x0:0x336f49ba5f45d365,
supermarket,Minimarket,Indomaret Simboro,"Jl. Abdul Malik Pattana Endeng, Simboro, Kec. Simboro Dan Kepulauan, Kabupaten Mamuju, Sulawesi Barat","Kabupaten Mamuju, Sulawesi Barat",SULAWESI BARAT,,Indonesia,,,,-2.6808268,118.8577063,https://maps.google.com/?cid=0x0:0x3aa08eed4640bfe0,
supermarket,Toko,HALALMART NURAENI,"BTN GRAHANUSA 2 Blk. D No.9 TAHAP 1, Simboro, Kec. Simboro Dan Kepulauan, Kabupaten Mamuju, Sulawesi Barat 91512","Simboro, Kec. Simboro Dan Kepulauan, Kabupaten Mamuju",SULAWESI BARAT,91512.0,Indonesia,81341885139.0,,,-2.681409,118.8669344,https://maps.google.com/?cid=0x0:0x2ebbfe2e9ae25301,
supermarket,Minimarket,Alfamart bean!Spot SPBU Karema,"Jl. Jend Sudirman No.Kel, Simboro, Kec. Simboro Dan Kepulauan, Kabupaten Mamuju, Sulawesi Barat 91512","Simboro, Kec. Simboro Dan Kepulauan, Kabupaten Mamuju",SULAWESI BARAT,91512.0,Indonesia,81294669496.0,,,-2.6883524,118.8696429,https://maps.google.com/?cid=0x0:0xd0f31970f3dee25e,
supermarket,Toko Elektronik,BRILINK ALFA GRAHA,"8V98+4GF, Simboro, Kec. Simboro Dan Kepulauan, Kabupaten Mamuju, Sulawesi Barat 91512","Simboro, Kec. Simboro Dan Kepulauan, Kabupaten Mamuju",SULAWESI BARAT,91512.0,Indonesia,81342730864.0,,,-2.6821857,118.8663115,https://maps.google.com/?cid=0x0:0xdcce158cc71b85fe,
supermarket,Pusat Perbelanjaan,Alfamart Martadinata,"Jl. RE Martadinata No.Kel, Simboro, Kec. Simboro Dan Kepulauan, Kabupaten Mamuju, Sulawesi Barat 91512","Simboro, Kec. Simboro Dan Kepulauan, Kabupaten Mamuju",SULAWESI BARAT,91512.0,Indonesia,211500959.0,,,-2.6876485,118.8629065,https://maps.google.com/?cid=0x0:0x6438c2d32caf04a7,
supermarket,Pusat Perbelanjaan,Alfamidi jensud mamuju,"Jl. Poros Majene - Mamuju No.157, Simboro, Kec. Simboro Dan Kepulauan, Kabupaten Mamuju, Sulawesi Barat 91512","Simboro, Kec. Simboro Dan Kepulauan, Kabupaten Mamuju",SULAWESI BARAT,91512.0,Indonesia,,,,-2.6842149,118.8699936,https://maps.google.com/?cid=0x0:0xd1c8879eb7cb5ae3,
supermarket,,KIOS ALIF,"8V85+39M, Jl. RE Martadinata, Simboro, Kec. Simboro Dan Kepulauan, Kabupaten Mamuju, Sulawesi Barat 91512","Jl. RE Martadinata, Simboro, Kec. Simboro Dan Kepulauan, Kabupaten Mamuju",SULAWESI BARAT,91512.0,Indonesia,,,,-2.6847979,118.8584372,https://maps.google.com/?cid=0x0:0xcf865554c7825447,
supermarket,Komplek perumahan,Perumahan Graha Nusa 2 Tahap 2 Blok G.1,"8V98+FWM, Simboro, Kec. Simboro Dan Kepulauan, Kabupaten Mamuju, Sulawesi Barat 91512","Simboro, Kec. Simboro Dan Kepulauan, Kabupaten Mamuju",SULAWESI BARAT,91512.0,Indonesia,81355544481.0,,,-2.6812972,118.8673114,https://maps.google.com/?cid=0x0:0x3225184dfca0bbf,
supermarket,Toko Aksesori Ponsel,Ibo Cell,"8VCM+459, Rimuku, Kec. Mamuju, Kabupaten Mamuju, Sulawesi Barat 91511","Rimuku, Kec. Mamuju, Kabupaten Mamuju",SULAWESI BARAT,91511.0,Indonesia,81355903277.0,,,-2.6797096,118.8829732,https://maps.google.com/?cid=0x0:0x9f4ac11dbb44a56c,
supermarket,supermarket,KIUS JAYA,"8V67+R3V, Jl. RE Martadinata, Simboro, Kec. Simboro Dan Kepulauan, Kabupaten Mamuju, Sulawesi Barat 91512","Jl. RE Martadinata, Simboro, Kec. Simboro Dan Kepulauan, Kabupaten Mamuju",SULAWESI BARAT,91512.0,Indonesia,,,,-2.6878962,118.8626826,https://maps.google.com/?cid=0x0:0x911354f19b336b2e,
supermarket,Toko bahan makanan,Toko Wildha,"Jl. Jend Sudirman No.37, Simboro, Kec. Simboro Dan Kepulauan, Kabupaten Mamuju, Sulawesi Barat 91512","Simboro, Kec. Simboro Dan Kepulauan, Kabupaten Mamuju",SULAWESI BARAT,91512.0,Indonesia,,,,-2.6844286,118.8698934,https://maps.google.com/?cid=0x0:0xfbdc0cc8ad481dad,
supermarket,Toko Pakaian,Naura Shop,"8V85+66V, Simboro, Kec. Simboro Dan Kepulauan, Kabupaten Mamuju, Sulawesi Barat 91512","Simboro, Kec. Simboro Dan Kepulauan, Kabupaten Mamuju",SULAWESI BARAT,91512.0,Indonesia,85242582323.0,,,-2.6843769,118.8580459,https://maps.google.com/?cid=0x0:0x6357e7a96976dba,
supermarket,Toko,Toko Subur Union,"Binanga, Kec. Mamuju, Kabupaten Mamuju, Sulawesi Barat 91511","Kec. Mamuju, Kabupaten Mamuju",SULAWESI BARAT,91511.0,Indonesia,82287532274.0,,,-2.6712083,118.8923711,https://maps.google.com/?cid=0x0:0xdb42e6923583d3a4,
supermarket,Kompleks Apartemen,Btn Graha Pelabuhan Permai (Maspol),"Simboro, Kec. Simboro Dan Kepulauan, Kabupaten Mamuju, Sulawesi Barat 91512","Kec. Simboro Dan Kepulauan, Kabupaten Mamuju",SULAWESI BARAT,91512.0,Indonesia,85341220526.0,,,-2.6734942,118.8541926,https://maps.google.com/?cid=0x0:0x7c09383bd7d582af,
supermarket,Toko,Kios Vivah,"Jl. Nelayan II No.2, Kec. Simboro Dan Kepulauan, Kabupaten Mamuju, Sulawesi Barat 91512","Kec. Simboro Dan Kepulauan, Kabupaten Mamuju",SULAWESI BARAT,91512.0,Indonesia,,,,-2.6809503,118.8717873,https://maps.google.com/?cid=0x0:0x705697f659908c8,
supermarket,Minimarket,Indomaret Simboro,"8V89+4XW, Simboro, Kec. Simboro Dan Kepulauan, Kabupaten Mamuju, Sulawesi Barat 91512","Simboro, Kec. Simboro Dan Kepulauan, Kabupaten Mamuju",SULAWESI BARAT,91512.0,Indonesia,,,,-2.6843821,118.8697062,https://maps.google.com/?cid=0x0:0x8ad69eb199ce8dec,
supermarket,Toko Swalayan,RUMAH FROZEN FOOD DOMÂ²,"7VV7+FMJ, Pati'di, Kec. Simboro Dan Kepulauan, Kabupaten Mamuju, Sulawesi Barat 91512","Pati'di, Kec. Simboro Dan Kepulauan, Kabupaten Mamuju",SULAWESI BARAT,91512.0,Indonesia,82195876364.0,,,-2.7064579,118.8642412,https://maps.google.com/?cid=0x0:0xa0898d74cc3a7078,
supermarket,Minimarket,Indomaret TMDI,"8V5C+MRC, Jl. Abd. Syakur, Karema, Kec. Mamuju, Kabupaten Mamuju, Sulawesi Barat 91512","Jl. Abd. Syakur, Karema, Kec. Mamuju, Kabupaten Mamuju",SULAWESI BARAT,91512.0,Indonesia,,,,-2.6908166,118.8720028,https://maps.google.com/?cid=0x0:0xf2f5686f42e97e2e,
supermarket,Minimarket,kios siska,"8RWR+5XX, Jl. Abdul Malik Pattana Endeng, Rangas, Kec. Simboro Dan Kepulauan, Kabupaten Mamuju, Sulawesi Barat","Kabupaten Mamuju, Sulawesi Barat",SULAWESI BARAT,,Indonesia,,,,-2.6545132,118.8425,https://maps.google.com/?cid=0x0:0xcf166b4356dd4863,
supermarket,Toko,Toko Indo Murah,"8V7H+6RW, Jl. Abd. Syakur, Karema, Kec. Mamuju, Kabupaten Mamuju, Sulawesi Barat 91512","Jl. Abd. Syakur, Karema, Kec. Mamuju, Kabupaten Mamuju",SULAWESI BARAT,91512.0,Indonesia,,,,-2.6868902,118.8795779,https://maps.google.com/?cid=0x0:0x504b17be264a7efb,
supermarket,Toko bahan makanan,Frozen food mamuju,"Jl. Pababari No.4, Karema, Kec. Mamuju, Kabupaten Mamuju, Sulawesi Barat 91512","Karema, Kec. Mamuju, Kabupaten Mamuju",SULAWESI BARAT,91512.0,Indonesia,82320002088.0,,,-2.6864157,118.8800918,https://maps.google.com/?cid=0x0:0xce714bdd405fd08d,
supermarket,supermarket,Sulawesi Barat 91513,"Kabupaten Mamuju, Sulawesi Barat","Kabupaten Mamuju, Sulawesi Barat",SULAWESI BARAT,,Indonesia,,,,-2.6887507,118.8014121,https://maps.google.com/?cid=0x0:0xbef0412d6d2f80f8,
supermarket,Minimarket,Indomaret Simboro,"Jl. Abdul Malik Pattana Endeng, Simboro, Kec. Simboro Dan Kepulauan, Kabupaten Mamuju, Sulawesi Barat","Kabupaten Mamuju, Sulawesi Barat",SULAWESI BARAT,,Indonesia,,,,-2.6808268,118.8577063,https://maps.google.com/?cid=0x0:0x3aa08eed4640bfe0,
supermarket,Minimarket,Usaha berkah,"8VF5+5C7, Jl. Martadinata, Simboro, Kec. Simboro Dan Kepulauan, Kabupaten Mamuju, Sulawesi Barat 91512","Jl. Martadinata, Simboro, Kec. Simboro Dan Kepulauan, Kabupaten Mamuju",SULAWESI BARAT,91512.0,Indonesia,85294184909.0,,,-2.6770948,118.8585357,https://maps.google.com/?cid=0x0:0x48af7d601b215c37,
supermarket,Toko bahan makanan,Toko Wildha,"Jl. Jend Sudirman No.37, Simboro, Kec. Simboro Dan Kepulauan, Kabupaten Mamuju, Sulawesi Barat 91512","Simboro, Kec. Simboro Dan Kepulauan, Kabupaten Mamuju",SULAWESI BARAT,91512.0,Indonesia,,,,-2.6844286,118.8698934,https://maps.google.com/?cid=0x0:0xfbdc0cc8ad481dad,
supermarket,Minimarket,kios siska,"8RWR+5XX, Jl. Abdul Malik Pattana Endeng, Rangas, Kec. Simboro Dan Kepulauan, Kabupaten Mamuju, Sulawesi Barat","Kabupaten Mamuju, Sulawesi Barat",SULAWESI BARAT,,Indonesia,,,,-2.6545132,118.8425,https://maps.google.com/?cid=0x0:0xcf166b4356dd4863,
supermarket,Minimarket,Indomaret Simboro,"8V89+4XW, Simboro, Kec. Simboro Dan Kepulauan, Kabupaten Mamuju, Sulawesi Barat 91512","Simboro, Kec. Simboro Dan Kepulauan, Kabupaten Mamuju",SULAWESI BARAT,91512.0,Indonesia,,,,-2.6843821,118.8697062,https://maps.google.com/?cid=0x0:0x8ad69eb199ce8dec,
supermarket,supermarket,Kec. Tapalang,"Kabupaten Mamuju, Sulawesi Barat","Kabupaten Mamuju, Sulawesi Barat",SULAWESI BARAT,,Indonesia,,,,-2.8670322,118.8748621,https://maps.google.com/?cid=0x0:0x7352010099a68a2b,
supermarket,Minimarket,Indomaret Tapalang Kota Mamuju,"4VQ8+M8W, Galung, Kec. Tapalang, Kabupaten Mamuju, Sulawesi Barat 91352","Galung, Kec. Tapalang, Kabupaten Mamuju",SULAWESI BARAT,91352.0,Indonesia,,,,-2.8607561,118.8658272,https://maps.google.com/?cid=0x0:0xc01237001fcda8d0,
supermarket,Toko bahan makanan,Toko Fajar Mas Tapalang,"4VP9+5R4, Galung, Kec. Tapalang, Kabupaten Mamuju, Sulawesi Barat 91352","Galung, Kec. Tapalang, Kabupaten Mamuju",SULAWESI BARAT,91352.0,Indonesia,82189484750.0,,,-2.8646132,118.8695764,https://maps.google.com/?cid=0x0:0x916674a773ed9834,
supermarket,Toko umum,TOKO SEMBAKO DEDI,"4RXM+494, Pasabu, Kec. Tapalang Bar., Kabupaten Mamuju, Sulawesi Barat","Kabupaten Mamuju, Sulawesi Barat",SULAWESI BARAT,,Indonesia,85259525805.0,,,-2.852248,118.8334646,https://maps.google.com/?cid=0x0:0xd0022b08963b1228,
supermarket,Toko,Toko Muthia,"4VV9+5HM, Galung, Kec. Tapalang, Kabupaten Mamuju, Sulawesi Barat 91352","Galung, Kec. Tapalang, Kabupaten Mamuju",SULAWESI BARAT,91352.0,Indonesia,,,,-2.8570446,118.8689198,https://maps.google.com/?cid=0x0:0xd6cf851f351614e4,
supermarket,Toko bahan makanan,Kios zilfa,"5V26+6H8, Karatuan, Tampalang, Tapalang, Mamuju Regency, West Sulawesi","Kabupaten Mamuju, Sulawesi Barat",SULAWESI BARAT,,Indonesia,82290706004.0,,,-2.8494632,118.861448,https://maps.google.com/?cid=0x0:0x70c74d8b4adfce83,
supermarket,Toko Perlengkapan Rumah,Toko Reumah Belanja,"4WQR+JF5, Kasambang, Kec. Tapalang, Kabupaten Mamuju, Sulawesi Barat 91352","Kasambang, Kec. Tapalang, Kabupaten Mamuju",SULAWESI BARAT,91352.0,Indonesia,8525518017.0,,,-2.8609764,118.9412196,https://maps.google.com/?cid=0x0:0xcd0effb43d4d4f2b,
supermarket,Toko Komputer,A'in Komputer,"5V64+GRR, Orobatu, Kec. Tapalang, Kabupaten Mamuju, Sulawesi Barat 91352","Orobatu, Kec. Tapalang, Kabupaten Mamuju",SULAWESI BARAT,91352.0,Indonesia,,,,-2.8386495,118.8570207,https://maps.google.com/?cid=0x0:0xe1c233ef9168a8f4,
supermarket,Toko,KIOS ILHAM,"5V35+68J, Jl. Poros Majene - Mamuju, Taan, Kec. Tapalang, Kabupaten Mamuju, Sulawesi Barat 91352","Jl. Poros Majene - Mamuju, Taan, Kec. Tapalang, Kabupaten Mamuju",SULAWESI BARAT,91352.0,Indonesia,,,,-2.8469244,118.8582528,https://maps.google.com/?cid=0x0:0x203cd004acf0d81,
supermarket,supermarket,Kios Ayyust,"3VVR+F5M, Taan, Kec. Tapalang, Kabupaten Mamuju, Sulawesi Barat 91352","Taan, Kec. Tapalang, Kabupaten Mamuju",SULAWESI BARAT,91352.0,Indonesia,,,,-2.9061337,118.8910328,https://maps.google.com/?cid=0x0:0xb4eddb479411e424,
supermarket,Toko,Kios Lc Lia,"6V36+JWM, Jl. Poros Majene - Mamuju, Takandeang, Kec. Tapalang, Kabupaten Mamuju, Sulawesi Barat 91352","Jl. Poros Majene - Mamuju, Takandeang, Kec. Tapalang, Kabupaten Mamuju",SULAWESI BARAT,91352.0,Indonesia,,,,-2.7959127,118.8623002,https://maps.google.com/?cid=0x0:0xf3818698e2bf0006,
supermarket,Toko bahan makanan,Gisman jual campuran,"4VXC+P59, Lingkungan petakeang, Galung, Kec. Tapalang, Kabupaten Mamuju, Sulawesi Barat 91352","Lingkungan petakeang, Galung, Kec. Tapalang, Kabupaten Mamuju",SULAWESI BARAT,91352.0,Indonesia,,,,-2.85071,118.8704938,https://maps.google.com/?cid=0x0:0x4ca89ec5fd18039b,
supermarket,Toko,TOKO NURJANNAH,"4VP9+6MJ, Jl. Poros Majene - Mamuju, Galung, Kec. Tapalang, Kabupaten Mamuju, Sulawesi Barat 91352","Jl. Poros Majene - Mamuju, Galung, Kec. Tapalang, Kabupaten Mamuju",SULAWESI BARAT,91352.0,Indonesia,,,,-2.8644066,118.86913,https://maps.google.com/?cid=0x0:0x47cba05ff1ba2906,
supermarket,Toko,KIOS NURAMELIA,"4VCJ+7WP, Jl. Poros Majene - Mamuju, Kasambang, Kec. Tapalang, Kabupaten Mamuju, Sulawesi Barat 91352","Jl. Poros Majene - Mamuju, Kasambang, Kec. Tapalang, Kabupaten Mamuju",SULAWESI BARAT,91352.0,Indonesia,,,,-2.8792963,118.8823126,https://maps.google.com/?cid=0x0:0x389178e5bf8c111f,
supermarket,Toko Ponsel,Toko Fani Cell,"Jl. Poros Majene - Mamuju No.346, Kasambang, Kec. Tapalang, Kabupaten Mamuju, Sulawesi Barat 91352","Kasambang, Kec. Tapalang, Kabupaten Mamuju",SULAWESI BARAT,91352.0,Indonesia,,,,-2.886654,118.8863828,https://maps.google.com/?cid=0x0:0xdaaf75d75ed8390b,
supermarket,Minimarket,Kedai yuniq (Batagor),"4VP9+79V, Jl. Poros Majene - Mamuju, Galung, Kec. Tapalang, Kabupaten Mamuju, Sulawesi Barat 91352","Jl. Poros Majene - Mamuju, Galung, Kec. Tapalang, Kabupaten Mamuju",SULAWESI BARAT,91352.0,Indonesia,,,,-2.8643398,118.868221,https://maps.google.com/?cid=0x0:0xb189a52d7a560f14,
supermarket,Toko Swalayan,Toko Ramlah Galesong,"8WHG+C8W, Bambu, Kec. Mamuju, Kabupaten Mamuju, Sulawesi Barat","Kabupaten Mamuju, Sulawesi Barat",SULAWESI BARAT,,Indonesia,,,,-2.6713941,118.9258131,https://maps.google.com/?cid=0x0:0xa7bb32386630def9,
supermarket,supermarket,Rumah Pak Abner. B,"5X4W+9Q, Bela, Kec. Tapalang, Kabupaten Mamuju, Sulawesi Barat","Kabupaten Mamuju, Sulawesi Barat",SULAWESI BARAT,,Indonesia,,,,-2.8440322,118.9969805,https://maps.google.com/?cid=0x0:0xf99e9a67834fdef5,
supermarket,,Pasar Maliaya,"3VGG+HVF, Maliaya, Kec. Malunda, Kabupaten Majene, Sulawesi Barat 91453","Maliaya, Kec. Malunda, Kabupaten Majene",SULAWESI BARAT,91453.0,Indonesia,,,,-2.9235505,118.8771832,https://maps.google.com/?cid=0x0:0x7920d70c366cbb68,
supermarket,Toko bahan makanan,TOKO FAIQA,"2VWC+H7M, Jl. Poros Majene - Mamuju, Mekkatta, Kec. Malunda, Kabupaten Majene, Sulawesi Barat 91453","Jl. Poros Majene - Mamuju, Mekkatta, Kec. Malunda, Kabupaten Majene",SULAWESI BARAT,91453.0,Indonesia,,,,-2.9535385,118.8706672,https://maps.google.com/?cid=0x0:0xdd4f171d1d694739,
supermarket,Pasar,Pasar Tappalang,"4VP9+6Q6, Galung, Kec. Tapalang, Kabupaten Mamuju, Sulawesi Barat 91352","Galung, Kec. Tapalang, Kabupaten Mamuju",SULAWESI BARAT,91352.0,Indonesia,,,,-2.8644715,118.8693762,https://maps.google.com/?cid=0x0:0xe8969e3c6c8b65e7,
supermarket,Toko Swalayan,Diskon Supermarket,"Jl. Raya Bogor No.20 KM26 No, Susukan, Kec. Ciracas, Kota Jakarta Timur, Daerah Khusus Ibukota Jakarta 13740","Susukan, Kec. Ciracas, Kota Jakarta Timur",SULAWESI BARAT,13740.0,Indonesia,81282109990.0,,,-6.3290415,106.865772,https://maps.google.com/?cid=0x0:0xe881f3fa8ae14640,
supermarket,supermarket,Kec. Tapalang Bar.,"Kabupaten Mamuju, Sulawesi Barat","Kabupaten Mamuju, Sulawesi Barat",SULAWESI BARAT,,Indonesia,,,,-2.8544488,118.8344475,https://maps.google.com/?cid=0x0:0x399150dc9ea10ec1,
supermarket,Minimarket,Indomaret Tapalang Kota Mamuju,"4VQ8+M8W, Galung, Kec. Tapalang, Kabupaten Mamuju, Sulawesi Barat 91352","Galung, Kec. Tapalang, Kabupaten Mamuju",SULAWESI BARAT,91352.0,Indonesia,,,,-2.8607561,118.8658272,https://maps.google.com/?cid=0x0:0xc01237001fcda8d0,
supermarket,Toko bahan makanan,Toko Fajar Mas Tapalang,"4VP9+5R4, Galung, Kec. Tapalang, Kabupaten Mamuju, Sulawesi Barat 91352","Galung, Kec. Tapalang, Kabupaten Mamuju",SULAWESI BARAT,91352.0,Indonesia,82189484750.0,,,-2.8646132,118.8695764,https://maps.google.com/?cid=0x0:0x916674a773ed9834,
supermarket,Pasar,Pasar Tappalang,"4VP9+6Q6, Galung, Kec. Tapalang, Kabupaten Mamuju, Sulawesi Barat 91352","Galung, Kec. Tapalang, Kabupaten Mamuju",SULAWESI BARAT,91352.0,Indonesia,,,,-2.8644715,118.8693762,https://maps.google.com/?cid=0x0:0xe8969e3c6c8b65e7,
supermarket,Toko,Toko Subur Union,"Binanga, Kec. Mamuju, Kabupaten Mamuju, Sulawesi Barat 91511","Kec. Mamuju, Kabupaten Mamuju",SULAWESI BARAT,91511.0,Indonesia,82287532274.0,,,-2.6712083,118.8923711,https://maps.google.com/?cid=0x0:0xdb42e6923583d3a4,
supermarket,Toko,KIOS ILHAM,"5V35+68J, Jl. Poros Majene - Mamuju, Taan, Kec. Tapalang, Kabupaten Mamuju, Sulawesi Barat 91352","Jl. Poros Majene - Mamuju, Taan, Kec. Tapalang, Kabupaten Mamuju",SULAWESI BARAT,91352.0,Indonesia,,,,-2.8469244,118.8582528,https://maps.google.com/?cid=0x0:0x203cd004acf0d81,
supermarket,Toko Komputer,A'in Komputer,"5V64+GRR, Orobatu, Kec. Tapalang, Kabupaten Mamuju, Sulawesi Barat 91352","Orobatu, Kec. Tapalang, Kabupaten Mamuju",SULAWESI BARAT,91352.0,Indonesia,,,,-2.8386495,118.8570207,https://maps.google.com/?cid=0x0:0xe1c233ef9168a8f4,
supermarket,Toko bahan makanan,Kios zilfa,"5V26+6H8, Karatuan, Tampalang, Tapalang, Mamuju Regency, West Sulawesi","Kabupaten Mamuju, Sulawesi Barat",SULAWESI BARAT,,Indonesia,82290706004.0,,,-2.8494632,118.861448,https://maps.google.com/?cid=0x0:0x70c74d8b4adfce83,
supermarket,Kios,"Kios i,da","5R25+MGC, Ahu, Kec. Tapalang Bar., Kabupaten Mamuju, Sulawesi Barat","Kabupaten Mamuju, Sulawesi Barat",SULAWESI BARAT,,Indonesia,,,,-2.8482399,118.8087743,https://maps.google.com/?cid=0x0:0x136f70da9a17f1c2,
supermarket,Toko,Toko Muthia,"4VV9+5HM, Galung, Kec. Tapalang, Kabupaten Mamuju, Sulawesi Barat 91352","Galung, Kec. Tapalang, Kabupaten Mamuju",SULAWESI BARAT,91352.0,Indonesia,,,,-2.8570446,118.8689198,https://maps.google.com/?cid=0x0:0xd6cf851f351614e4,
supermarket,Toko umum,Toko seHATI,"8RHW+9XG, korongana,, Jl. Abdul Malik Pattana Endeng, Simboro, Kec. Simboro Dan Kepulauan, Kabupaten Mamuju, Sulawesi Barat 91512","korongana,, Jl. Abdul Malik Pattana Endeng, Simboro, Kec. Simboro Dan Kepulauan, Kabupaten Mamuju",SULAWESI BARAT,91512.0,Indonesia,81342077428.0,,,-2.6715676,118.8474459,https://maps.google.com/?cid=0x0:0x336f49ba5f45d365,
supermarket,Toko,Kios Lc Lia,"6V36+JWM, Jl. Poros Majene - Mamuju, Takandeang, Kec. Tapalang, Kabupaten Mamuju, Sulawesi Barat 91352","Jl. Poros Majene - Mamuju, Takandeang, Kec. Tapalang, Kabupaten Mamuju",SULAWESI BARAT,91352.0,Indonesia,,,,-2.7959127,118.8623002,https://maps.google.com/?cid=0x0:0xf3818698e2bf0006,
supermarket,Toko umum,Kios Andalan,"7VH5+8W3, Salletto, Kec. Simboro Dan Kepulauan, Kabupaten Mamuju, Sulawesi Barat 91512","Salletto, Kec. Simboro Dan Kepulauan, Kabupaten Mamuju",SULAWESI BARAT,91512.0,Indonesia,,,,-2.7217296,118.8597924,https://maps.google.com/?cid=0x0:0xc3ee97c4be2a318a,
supermarket,Pasar,Kompleks Pasar Desa Taan,"3VQP+Q98, Taan, Kec. Tapalang, Kabupaten Mamuju, Sulawesi Barat 91352","Taan, Kec. Tapalang, Kabupaten Mamuju",SULAWESI BARAT,91352.0,Indonesia,,,,-2.9105859,118.8859437,https://maps.google.com/?cid=0x0:0x25fdcfb735b9903e,
supermarket,Toko Alat Tulis Kantor,CV KARYA SAHABAT,"Karema, Kec. Mamuju, Kabupaten Mamuju, Sulawesi Barat 91512","Kec. Mamuju, Kabupaten Mamuju",SULAWESI BARAT,91512.0,Indonesia,85230149693.0,,,-2.680434,118.8763704,https://maps.google.com/?cid=0x0:0x1596862d3adbf609,
supermarket,Pusat Perbelanjaan,Alfamart Martadinata,"Jl. RE Martadinata No.Kel, Simboro, Kec. Simboro Dan Kepulauan, Kabupaten Mamuju, Sulawesi Barat 91512","Simboro, Kec. Simboro Dan Kepulauan, Kabupaten Mamuju",SULAWESI BARAT,91512.0,Indonesia,211500959.0,,,-2.6876485,118.8629065,https://maps.google.com/?cid=0x0:0x6438c2d32caf04a7,
supermarket,Toko Elektronik,BRILINK ALFA GRAHA,"8V98+4GF, Simboro, Kec. Simboro Dan Kepulauan, Kabupaten Mamuju, Sulawesi Barat 91512","Simboro, Kec. Simboro Dan Kepulauan, Kabupaten Mamuju",SULAWESI BARAT,91512.0,Indonesia,81342730864.0,,,-2.6821857,118.8663115,https://maps.google.com/?cid=0x0:0xdcce158cc71b85fe,
supermarket,Minimarket,Usaha berkah,"8VF5+5C7, Jl. Martadinata, Simboro, Kec. Simboro Dan Kepulauan, Kabupaten Mamuju, Sulawesi Barat 91512","Jl. Martadinata, Simboro, Kec. Simboro Dan Kepulauan, Kabupaten Mamuju",SULAWESI BARAT,91512.0,Indonesia,85294184909.0,,,-2.6770948,118.8585357,https://maps.google.com/?cid=0x0:0x48af7d601b215c37,
supermarket,Toko,HALALMART NURAENI,"BTN GRAHANUSA 2 Blk. D No.9 TAHAP 1, Simboro, Kec. Simboro Dan Kepulauan, Kabupaten Mamuju, Sulawesi Barat 91512","Simboro, Kec. Simboro Dan Kepulauan, Kabupaten Mamuju",SULAWESI BARAT,91512.0,Indonesia,81341885139.0,,,-2.681409,118.8669344,https://maps.google.com/?cid=0x0:0x2ebbfe2e9ae25301,
supermarket,,KIOS ALIF,"8V85+39M, Jl. RE Martadinata, Simboro, Kec. Simboro Dan Kepulauan, Kabupaten Mamuju, Sulawesi Barat 91512","Jl. RE Martadinata, Simboro, Kec. Simboro Dan Kepulauan, Kabupaten Mamuju",SULAWESI BARAT,91512.0,Indonesia,,,,-2.6847979,118.8584372,https://maps.google.com/?cid=0x0:0xcf865554c7825447,
supermarket,Minimarket,Indomaret Simboro,"Jl. Abdul Malik Pattana Endeng, Simboro, Kec. Simboro Dan Kepulauan, Kabupaten Mamuju, Sulawesi Barat","Kabupaten Mamuju, Sulawesi Barat",SULAWESI BARAT,,Indonesia,,,,-2.6808268,118.8577063,https://maps.google.com/?cid=0x0:0x3aa08eed4640bfe0,
supermarket,Toko,Kios nailah,"Btn bukit safa madani A/8, Rangas, Kec. Simboro Dan Kepulauan, Kabupaten Mamuju, Sulawesi Barat 91512","Rangas, Kec. Simboro Dan Kepulauan, Kabupaten Mamuju",SULAWESI BARAT,91512.0,Indonesia,81245603345.0,,,-2.6724339,118.8461522,https://maps.google.com/?cid=0x0:0x96ca547171319c80,
supermarket,Toko Swalayan,TOKO SUMBER FAJAR TAPALANG,"4VP9+4RX, Dayanginna, Kec. Tapalang, Kabupaten Mamuju, Sulawesi Barat 91352","Dayanginna, Kec. Tapalang, Kabupaten Mamuju",SULAWESI BARAT,91352.0,Indonesia,,,,-2.8646422,118.8696228,https://maps.google.com/?cid=0x0:0x1ad3c06c370e6549,
supermarket,Toko,Kios Difa,"7VH5+F6M, Jl. Poros Majene - Mamuju, Salletto, Kec. Simboro Dan Kepulauan, Kabupaten Mamuju, Sulawesi Barat 91512","Jl. Poros Majene - Mamuju, Salletto, Kec. Simboro Dan Kepulauan, Kabupaten Mamuju",SULAWESI BARAT,91512.0,Indonesia,85256089371.0,,,-2.7212753,118.8580608,https://maps.google.com/?cid=0x0:0x69ba6e12c65f6582,
supermarket,Kedai Teh,OTLET TEH POCI ALFHAERA RANGAS,"8VP3+FP4, Jl. Abdul Malik Pattana Endeng, Rangas, Kec. Simboro Dan Kepulauan, Kabupaten Mamuju, Sulawesi Barat 91512","Jl. Abdul Malik Pattana Endeng, Rangas, Kec. Simboro Dan Kepulauan, Kabupaten Mamuju",SULAWESI BARAT,91512.0,Indonesia,,,,-2.6639846,118.8542728,https://maps.google.com/?cid=0x0:0xaba45212bd65b726,
supermarket,supermarket,Tommo,"Kec. Tommo, Kabupaten Mamuju, Sulawesi Barat","Kabupaten Mamuju, Sulawesi Barat",SULAWESI BARAT,,Indonesia,,,,-2.2941884,119.2437011,https://maps.google.com/?cid=0x0:0x502d34d075f4f7b1,
supermarket,Toko,Jual Ayam Potong Tommo,"Tommo, Kec. Tommo, Kabupaten Mamuju, Sulawesi Barat 91562","Kec. Tommo, Kabupaten Mamuju",SULAWESI BARAT,91562.0,Indonesia,85397594712.0,,,-2.2828397,119.2449922,https://maps.google.com/?cid=0x0:0x4c4c64f298edebd2,
supermarket,Toko bahan makanan,Kios kayla,"M7Q5+2CX, Tamemongga, Kec. Tommo, Kabupaten Mamuju, Sulawesi Barat 91562","Tamemongga, Kec. Tommo, Kabupaten Mamuju",SULAWESI BARAT,91562.0,Indonesia,82189333585.0,,,-2.3119592,119.2581977,https://maps.google.com/?cid=0x0:0x18995f4eba794033,
supermarket,Kantor Perusahaan,Penggilingan padi Al Habzhy,"P67W+6R3, Unnamed Road, Tommo, Kec. Tommo, Kabupaten Mamuju, Sulawesi Barat 91562","Unnamed Road, Tommo, Kec. Tommo, Kabupaten Mamuju",SULAWESI BARAT,91562.0,Indonesia,82188404002.0,,,-2.2869797,119.2470327,https://maps.google.com/?cid=0x0:0x450c3d20bb0d9f1e,
supermarket,Kantor Perusahaan,CV. JAYA SARIRA (Pusat),"JL KH Dewantara 116 91562, Tommo, Kec. Tommo, Kabupaten Mamuju, Sulawesi Barat 91562","Tommo, Kec. Tommo, Kabupaten Mamuju",SULAWESI BARAT,91562.0,Indonesia,81342681134.0,,,-2.281244,119.2432602,https://maps.google.com/?cid=0x0:0xed34608688c26921,
supermarket,Toko umum,Kios idola semoga berkah,"P65W+M7R, Tommo, Kec. Tommo, Kabupaten Mamuju, Sulawesi Barat 91562","Tommo, Kec. Tommo, Kabupaten Mamuju",SULAWESI BARAT,91562.0,Indonesia,82256344076.0,,,-2.2907525,119.2456349,https://maps.google.com/?cid=0x0:0x3db2f3b5fbeef8f,
supermarket,Toko bahan makanan,Toko cahaya,"M6MP+G2V, Tamemongga, Kec. Tommo, Kabupaten Mamuju, Sulawesi Barat 91562","Tamemongga, Kec. Tommo, Kabupaten Mamuju",SULAWESI BARAT,91562.0,Indonesia,81243338883.0,,,-2.3161558,119.2357556,https://maps.google.com/?cid=0x0:0x47498efd43933aaf,
supermarket,Toko,Kios bu gusti,"P66W+WCP, Unnamed Road, Tommo, Kec. Tommo, Kabupaten Mamuju, Sulawesi Barat 91562","Unnamed Road, Tommo, Kec. Tommo, Kabupaten Mamuju",SULAWESI BARAT,91562.0,Indonesia,,,,-2.2876638,119.24608,https://maps.google.com/?cid=0x0:0x7a7a2ca61de3e866,
supermarket,Toko umum,Kios Monata,"Dusun tulungagung, Tommo, Kec. Tommo, Kabupaten Mamuju, Sulawesi Barat 91564","Tommo, Kec. Tommo, Kabupaten Mamuju",SULAWESI BARAT,91564.0,Indonesia,81526146062.0,,,-2.2680803,119.2302038,https://maps.google.com/?cid=0x0:0xc905c692cf034c1a,
supermarket,Minimarket,Tomm market,"VM5M+R5R, Jl. Abdul Rahman Saleh, RT.005/RW.004, Jurumudi, Kec. Benda, Kota Tangerang, Banten 15124","Jl. Abdul Rahman Saleh, RT.005/RW.004, Jurumudi, Kec. Benda, Kota Tangerang",SULAWESI BARAT,15124.0,Indonesia,8980842966.0,,,-6.1403902,106.6828904,https://maps.google.com/?cid=0x0:0x26a916ed9d0115d2,
supermarket,Toko Swalayan,Aam Mart,"Jl. Sultan Hasanuddin, Campaloga, Kec. Tommo, Kabupaten Mamuju, Sulawesi Barat 91562","Campaloga, Kec. Tommo, Kabupaten Mamuju",SULAWESI BARAT,91562.0,Indonesia,85657310383.0,,,-2.3089007,119.2942939,https://maps.google.com/?cid=0x0:0x62da49497e0da1a0,
supermarket,Toko Perlengkapan Rumah,Tomiko Mart,"M78M+WJQ, Telukjambe, Sukaluyu, Telukjambe Timur, Karawang, Jawa Barat 41361","Telukjambe, Sukaluyu, Telukjambe Timur, Karawang",SULAWESI BARAT,41361.0,Indonesia,,,,-6.3326614,107.2841138,https://maps.google.com/?cid=0x0:0x83f2dd46665d7581,
supermarket,supermarket,Swalayan Tomsam,"M28F+R98, Burangkeng, Kec. Setu, Kabupaten Bekasi, Jawa Barat 17320","Burangkeng, Kec. Setu, Kabupaten Bekasi",SULAWESI BARAT,17320.0,Indonesia,,,,-6.3329619,107.0234657,https://maps.google.com/?cid=0x0:0x7c05dbb0d749c756,
supermarket,Minimarket,Tom,"Pasar Rawamangun, Jl. Pegambiran, RT.9/RW.8, Rawamangun, Kec. Pulo Gadung, Kota Jakarta Timur, Daerah Khusus Ibukota Jakarta 13220","Jl. Pegambiran, RT.9/RW.8, Rawamangun, Kec. Pulo Gadung, Kota Jakarta Timur",SULAWESI BARAT,13220.0,Indonesia,8784012201.0,,,-6.1984436,106.8895905,https://maps.google.com/?cid=0x0:0xc74be6efa0968c18,
