Category,Real Category,Business Name,Address,City,State,Postal Code,Country,Phone,Email,Website,Latitude,Longitude,Map Link,Details Link
komplek housing,komplek housing,Bonehau,"Kec. Bonehau, Kabupaten Mamuju, Sulawesi Barat","Kabupaten Mamuju, Sulawesi Barat",SULAWESI BARAT,,Indonesia,,,,-2.4841521,119.2901829,https://maps.google.com/?cid=0x0:0x6f09a241cdc4138a,
komplek housing,komplek housing,Kec. Bonehau,"Kabupaten Mamuju, Sulawesi Barat","Kabupaten Mamuju, Sulawesi Barat",SULAWESI BARAT,,Indonesia,,,,-2.4998873,119.3481971,https://maps.google.com/?cid=0x0:0x506e4572a22ede64,
komplek housing,komplek housing,Sulawesi Barat 91562,"Kabupaten Mamuju, Sulawesi Barat","Kabupaten Mamuju, Sulawesi Barat",SULAWESI BARAT,,Indonesia,,,,-2.4874603,119.5107708,https://maps.google.com/?cid=0x0:0xaf7e6391455a9f6e,
komplek housing,Komplek perumahan,Rumah Yohan Kalipung,"F8XW+PJJ, Dusun Pabettengan, Bonehau, Kec. Bonehau, Kabupaten Mamuju, Sulawesi Barat 91562","Dusun Pabettengan, Bonehau, Kec. Bonehau, Kabupaten Mamuju",SULAWESI BARAT,91562.0,Indonesia,81243990225.0,,,-2.500655,119.3465183,https://maps.google.com/?cid=0x0:0x5da18aa9a74bed15,
komplek housing,Perumahan,Lattibung.desa Bonehau,"C7XV+M7V, Jl. Poros Salubatu, Bonehau, Kec. Bonehau, Kabupaten Mamuju, Sulawesi Barat 91562","Jl. Poros Salubatu, Bonehau, Kec. Bonehau, Kabupaten Mamuju",SULAWESI BARAT,91562.0,Indonesia,,,,-2.5507703,119.2931791,https://maps.google.com/?cid=0x0:0x6cd89ed759a68c04,
komplek housing,Perumahan,"Sarurru, Desa Bonehau","Banuada, Kec. Bonehau, Kabupaten Mamuju, Sulawesi Barat 91562","Kec. Bonehau, Kabupaten Mamuju",SULAWESI BARAT,91562.0,Indonesia,,,,-2.6314721,119.3250317,https://maps.google.com/?cid=0x0:0x5f8e9f3a686eef60,
komplek housing,Komplek perumahan,Rumah Jamuan drawan. ( Wawan),"C74R+HF5, Kinatang, Kec. Bonehau, Kabupaten Mamuju, Sulawesi Barat 91562","Kinatang, Kec. Bonehau, Kabupaten Mamuju",SULAWESI BARAT,91562.0,Indonesia,,,,-2.5941026,119.2913619,https://maps.google.com/?cid=0x0:0xdb1edc19dd357848,
komplek housing,Komplek perumahan,Rumah sekdes banuada,"96QV+GV8, Banuada, Kec. Bonehau, Kabupaten Mamuju, Sulawesi Barat 91562","Banuada, Kec. Bonehau, Kabupaten Mamuju",SULAWESI BARAT,91562.0,Indonesia,,,,-2.6110862,119.2449966,https://maps.google.com/?cid=0x0:0x97292541b2b009e0,
komplek housing,Perumahan,HALILINTAR GROUP,"97XP+P7P, Kinatang, Kec. Bonehau, Kabupaten Mamuju, Sulawesi Barat 91562","Kinatang, Kec. Bonehau, Kabupaten Mamuju",SULAWESI BARAT,91562.0,Indonesia,,,,-2.6006639,119.2856877,https://maps.google.com/?cid=0x0:0x2a0682aef1d0215,
komplek housing,Komplek perumahan,ARLEM'S HOUSE,"85QR+XRP, Jl. Poros Salubatu, Hinua, Kec. Bonehau, Kabupaten Mamuju, Sulawesi Barat 91562","Jl. Poros Salubatu, Hinua, Kec. Bonehau, Kabupaten Mamuju",SULAWESI BARAT,91562.0,Indonesia,,,,-2.660048,119.1920774,https://maps.google.com/?cid=0x0:0x3d7c132240998ddc,
komplek housing,Kantor Pemerintahan Wilayah,Kinatang,"Kinatang, Kec. Bonehau, Kabupaten Mamuju, Sulawesi Barat 91562","Kec. Bonehau, Kabupaten Mamuju",SULAWESI BARAT,91562.0,Indonesia,,,,-2.6122248,119.3947135,https://maps.google.com/?cid=0x0:0xd035a1c090e9ec8a,
komplek housing,Komplek perumahan,Adrian,"C75W+8C4, Kinatang, Kec. Bonehau, Kabupaten Mamuju, Sulawesi Barat 91562","Kinatang, Kec. Bonehau, Kabupaten Mamuju",SULAWESI BARAT,91562.0,Indonesia,,,,-2.591974,119.2956198,https://maps.google.com/?cid=0x0:0xd105dd4d35a148c4,
komplek housing,Komplek perumahan,R.Masginta,"C74R+HF5, Kinatang, Kec. Bonehau, Kabupaten Mamuju, Sulawesi Barat 91562","Kinatang, Kec. Bonehau, Kabupaten Mamuju",SULAWESI BARAT,91562.0,Indonesia,,,,-2.593843,119.291357,https://maps.google.com/?cid=0x0:0xeee303932449f54a,
komplek housing,Perumahan,Salu Mayang,"C948+P6F, Kinatang, Kec. Bonehau, Kabupaten Mamuju, Sulawesi Barat 91562","Kinatang, Kec. Bonehau, Kabupaten Mamuju",SULAWESI BARAT,91562.0,Indonesia,,,,-2.5931903,119.3655428,https://maps.google.com/?cid=0x0:0x9588ef2483da38ba,
komplek housing,Pembangunan Perumahan,Rumah Juritno Masri M,"97G8+8Q4, Banuada, Kec. Bonehau, Kabupaten Mamuju, Sulawesi Barat 91562","Banuada, Kec. Bonehau, Kabupaten Mamuju",SULAWESI BARAT,91562.0,Indonesia,,,,-2.6242289,119.2669438,https://maps.google.com/?cid=0x0:0x2f4a152a146c1c20,
komplek housing,Pembangunan Perumahan,Rumah,"BTN MASPUL, Blk. F1 No.1, Tamalea, Kec. Bonehau, Kabupaten Mamuju, Sulawesi Barat 91562","Blk. F1 No.1, Tamalea, Kec. Bonehau, Kabupaten Mamuju",SULAWESI BARAT,91562.0,Indonesia,,,,-2.4920057,119.3250347,https://maps.google.com/?cid=0x0:0xa0bb2afd814a4781,
komplek housing,Komplek perumahan,Bpk.Silas,"96QV+7QV, Jl. Poros, dusun Lumiko, Banuada, Kec. Bonehau, Kabupaten Mamuju, Sulawesi Barat 91562","Jl. Poros, dusun Lumiko, Banuada, Kec. Bonehau, Kabupaten Mamuju",SULAWESI BARAT,91562.0,Indonesia,,,,-2.6117625,119.2444219,https://maps.google.com/?cid=0x0:0x7f9e87fef2e545b4,
komplek housing,Pembangunan Perumahan,Dusun lebani,"FFH9+9P, Kondo Bulo, Kalumpang, Kabupaten Mamuju, Sulawesi Barat 91562","Kondo Bulo, Kalumpang, Kabupaten Mamuju",SULAWESI BARAT,91562.0,Indonesia,,,,-2.5215623,119.4693115,https://maps.google.com/?cid=0x0:0x644b67a1a9ff4e71,
komplek housing,komplek housing,"Jln poros lakahang ,kec tabulahan","85HQ+37X, Jl. Poros Lakahang, Lakahang, Kec. Tabulahan, Kabupaten Mamasa, Sulawesi Barat 91562","Jl. Poros Lakahang, Lakahang, Kec. Tabulahan, Kabupaten Mamasa",SULAWESI BARAT,91562.0,Indonesia,,,,-2.6722656,119.1882202,https://maps.google.com/?cid=0x0:0x240558954529a218,
komplek housing,Komplek perumahan,SALU BANGA,"FF53+PM, Kondo Bulo, Kalumpang, Kabupaten Mamuju, Sulawesi Barat 91562","Kondo Bulo, Kalumpang, Kabupaten Mamuju",SULAWESI BARAT,91562.0,Indonesia,,,,-2.5406875,119.4541875,https://maps.google.com/?cid=0x0:0x4f3f1b935730d033,
komplek housing,Komplek perumahan,Perumahan,"F365+R4M, Kalukku Bar., Kec. Kalukku, Kabupaten Mamuju, Sulawesi Barat","Kabupaten Mamuju, Sulawesi Barat",SULAWESI BARAT,,Indonesia,,,,-2.537974,119.05809,https://maps.google.com/?cid=0x0:0xfcff6bbd2a5fc213,
komplek housing,Komplek perumahan,Rumah,"F25V+M3, Kalukku Bar., Kec. Kalukku, Kabupaten Mamuju, Sulawesi Barat","Kabupaten Mamuju, Sulawesi Barat",SULAWESI BARAT,,Indonesia,,,,-2.542406,119.0439399,https://maps.google.com/?cid=0x0:0xe9912db5d52f33b0,
komplek housing,komplek housing,Sulawesi Barat 91561,"Kec. Kalukku, Kabupaten Mamuju, Sulawesi Barat","Kabupaten Mamuju, Sulawesi Barat",SULAWESI BARAT,,Indonesia,,,,-2.6024479,119.0925356,https://maps.google.com/?cid=0x0:0x812ca59188edc0c9,
komplek housing,Komplek perumahan,Per.Kalukku Indah Residence,"C2FW+V28, Jl. Lkr. Bandara, Sinyonyoi, Kec. Kalukku, Kabupaten Mamuju, Sulawesi Barat 91561","Jl. Lkr. Bandara, Sinyonyoi, Kec. Kalukku, Kabupaten Mamuju",SULAWESI BARAT,91561.0,Indonesia,,,,-2.574827,119.0442007,https://maps.google.com/?cid=0x0:0xdfdb6bb4eba10b87,
komplek housing,Komplek perumahan,Komplek NAGA HITAM,"F34F+X4M, Kalukku, Kec. Kalukku, Kabupaten Mamuju, Sulawesi Barat 91561","Kalukku, Kec. Kalukku, Kabupaten Mamuju",SULAWESI BARAT,91561.0,Indonesia,,,,-2.5425486,119.072794,https://maps.google.com/?cid=0x0:0x9bb00a596f9c10da,
komplek housing,Komplek perumahan,SYAMSURYAH 151,"F3CM+238, Pokkang, Kec. Kalukku, Kabupaten Mamuju, Sulawesi Barat 91561","Pokkang, Kec. Kalukku, Kabupaten Mamuju",SULAWESI BARAT,91561.0,Indonesia,,,,-2.5298692,119.0826656,https://maps.google.com/?cid=0x0:0x2a9bab7ef5db9dc6,
komplek housing,komplek housing,Home Hasanuddin,"F3HG+F2H, Beru-Beru, Kec. Kalukku, Kabupaten Mamuju, Sulawesi Barat 91561","Beru-Beru, Kec. Kalukku, Kabupaten Mamuju",SULAWESI BARAT,91561.0,Indonesia,,,,-2.5212994,119.0742463,https://maps.google.com/?cid=0x0:0x8051762e710682e0,
komplek housing,Perhimpunan Pengembang Perumahan,Rumah Anugerah pt,"9563+FV4, Jl. Desa Keang, Keang, Kec. Kalukku, Kabupaten Mamuju, Sulawesi Barat 91561","Jl. Desa Keang, Keang, Kec. Kalukku, Kabupaten Mamuju",SULAWESI BARAT,91561.0,Indonesia,,,,-2.6388638,119.1547118,https://maps.google.com/?cid=0x0:0x6a239777bb754f3a,
komplek housing,Komplek perumahan,Lorong sipaningo,"9544+CJ4, Keang, Kec. Kalukku, Kabupaten Mamuju, Sulawesi Barat 91561","Keang, Kec. Kalukku, Kabupaten Mamuju",SULAWESI BARAT,91561.0,Indonesia,,,,-2.6439956,119.1565644,https://maps.google.com/?cid=0x0:0xe9a78c6cb5d31c2b,
komplek housing,komplek housing,Khairun,"F358+WHH, Kalukku, Kec. Kalukku, Kabupaten Mamuju, Sulawesi Barat 91561","Kalukku, Kec. Kalukku, Kabupaten Mamuju",SULAWESI BARAT,91561.0,Indonesia,,,,-2.5404965,119.0671678,https://maps.google.com/?cid=0x0:0x3ebdf939b8ac2036,
komplek housing,komplek housing,Rumah Asiah,"F359+FPW, Kalukku, Kec. Kalukku, Kabupaten Mamuju, Sulawesi Barat 91561","Kalukku, Kec. Kalukku, Kabupaten Mamuju",SULAWESI BARAT,91561.0,Indonesia,,,,-2.540917,119.069329,https://maps.google.com/?cid=0x0:0xd889034e14b149cb,
komplek housing,Komplek perumahan,Chika Home,"G446+RP7, Kabuloang, Kec. Kalukku, Kabupaten Mamuju, Sulawesi Barat 91561","Kabuloang, Kec. Kalukku, Kabupaten Mamuju",SULAWESI BARAT,91561.0,Indonesia,,,,-2.4929726,119.1118229,https://maps.google.com/?cid=0x0:0x35a06215704443ef,
komplek housing,Komplek perumahan,KIOS Satu,"92W9+G5G, Jalan, Bebanga, Kalukku, Mamuju Regency, West Sulawesi 91561","Jalan, Bebanga, Kalukku, Mamuju Regency",SULAWESI BARAT,91561.0,Indonesia,,,,-2.6036804,119.0179436,https://maps.google.com/?cid=0x0:0x6d1266fc02b5596f,
komplek housing,Komplek perumahan,Kayulune,"9555+CX, Keang, Kec. Kalukku, Kabupaten Mamuju, Sulawesi Barat","Kabupaten Mamuju, Sulawesi Barat",SULAWESI BARAT,,Indonesia,,,,-2.6414572,119.1598852,https://maps.google.com/?cid=0x0:0xe6f40c5251109c52,
komplek housing,komplek housing,Dusun Panamba Tengah,"F26W+8H9, Kalukku Bar., Kec. Kalukku, Kabupaten Mamuju, Sulawesi Barat 91561","Kalukku Bar., Kec. Kalukku, Kabupaten Mamuju",SULAWESI BARAT,91561.0,Indonesia,,,,-2.5392126,119.0464893,https://maps.google.com/?cid=0x0:0xb19c352482cf4ae9,
komplek housing,Komplek perumahan,Rumah sultan,"F349+XM2, Kalukku, Kec. Kalukku, Kabupaten Mamuju, Sulawesi Barat","Kabupaten Mamuju, Sulawesi Barat",SULAWESI BARAT,,Indonesia,,,,-2.542619,119.069153,https://maps.google.com/?cid=0x0:0xe87395d915040dd2,
komplek housing,Komplek perumahan,Home Abdullah H,"G467+JCF, Kabuloang, Kec. Kalukku, Kabupaten Mamuju, Sulawesi Barat 91561","Kabuloang, Kec. Kalukku, Kabupaten Mamuju",SULAWESI BARAT,91561.0,Indonesia,,,,-2.4893803,119.1134131,https://maps.google.com/?cid=0x0:0x4af06b048e51a596,
komplek housing,Komplek perumahan,Rumahnya Iccang,"G468+68Q, Jl. Poros Majene - Mamuju, Kabuloang, Kec. Kalukku, Kabupaten Mamuju, Sulawesi Barat 91561","Jl. Poros Majene - Mamuju, Kabuloang, Kec. Kalukku, Kabupaten Mamuju",SULAWESI BARAT,91561.0,Indonesia,,,,-2.4905858,119.1158057,https://maps.google.com/?cid=0x0:0xf950de730b975e48,
komplek housing,Kompleks Apartemen,Rumah ilham KEANG,"85W4+6RV, Jl. Desa Keang, Keang, Kec. Kalukku, Kabupaten Mamuju, Sulawesi Barat 91561","Jl. Desa Keang, Keang, Kec. Kalukku, Kabupaten Mamuju",SULAWESI BARAT,91561.0,Indonesia,,,,-2.6555438,119.1574694,https://maps.google.com/?cid=0x0:0xbfdd2ffaee8c08c2,
komplek housing,Komplek perumahan,Anggaputra,"92J2+6Q9, Bebanga, Kec. Kalukku, Kabupaten Mamuju, Sulawesi Barat 91561","Bebanga, Kec. Kalukku, Kabupaten Mamuju",SULAWESI BARAT,91561.0,Indonesia,,,,-2.6194978,119.0019466,https://maps.google.com/?cid=0x0:0xe94b2f3f4607eee4,
komplek housing,Perhimpunan Pengembang Perumahan,Keang,"9563+FV5, Jalan Desa Keang, Keang, Kec. Kalukku, Kabupaten Mamuju, Sulawesi Barat 91561","Jalan Desa Keang, Keang, Kec. Kalukku, Kabupaten Mamuju",SULAWESI BARAT,91561.0,Indonesia,,,,-2.6388645,119.1547202,https://maps.google.com/?cid=0x0:0x22e4f686a91b3dbc,
komplek housing,komplek housing,Kec. Kalukku,"Kabupaten Mamuju, Sulawesi Barat","Kabupaten Mamuju, Sulawesi Barat",SULAWESI BARAT,,Indonesia,,,,-2.5427082,119.0689136,https://maps.google.com/?cid=0x0:0xbde55eed8aa4f5a2,
komplek housing,Kantor Perusahaan,Beru,"F3M9+R5W, Beru-Beru, Kec. Kalukku, Kabupaten Mamuju, Sulawesi Barat 91561","Beru-Beru, Kec. Kalukku, Kabupaten Mamuju",SULAWESI BARAT,91561.0,Indonesia,,,,-2.5153933,119.0679574,https://maps.google.com/?cid=0x0:0xe3820427456db983,
komplek housing,Komplek perumahan,Rumah Habel Djidon P mema' Lamulla,"9544+9RF, Keang, Kec. Kalukku, Kabupaten Mamuju, Sulawesi Barat 91561","Keang, Kec. Kalukku, Kabupaten Mamuju",SULAWESI BARAT,91561.0,Indonesia,,,,-2.6438263,119.1568572,https://maps.google.com/?cid=0x0:0xf205b89ce34bea79,
komplek housing,komplek housing,Rumah mamak ukli,"C3X8+JX4, Kalukku, Kec. Kalukku, Kabupaten Mamuju, Sulawesi Barat 91561","Kalukku, Kec. Kalukku, Kabupaten Mamuju",SULAWESI BARAT,91561.0,Indonesia,,,,-2.5507113,119.0674401,https://maps.google.com/?cid=0x0:0xcff3e5b287861ef3,
komplek housing,Komplek perumahan,Rmh,"F363+XM4, Kalukku Bar., Kec. Kalukku, Kabupaten Mamuju, Sulawesi Barat 91561","Kalukku Bar., Kec. Kalukku, Kabupaten Mamuju",SULAWESI BARAT,91561.0,Indonesia,,,,-2.5372137,119.054862,https://maps.google.com/?cid=0x0:0x8344e84d38c96e6,
komplek housing,Komplek perumahan,Rumah kesi,"F35Q+XX9, Pokkang, Kec. Kalukku, Kabupaten Mamuju, Sulawesi Barat 91561","Pokkang, Kec. Kalukku, Kabupaten Mamuju",SULAWESI BARAT,91561.0,Indonesia,,,,-2.539913,119.0900528,https://maps.google.com/?cid=0x0:0x87f80e4d51797768,
komplek housing,komplek housing,Sulawesi Barat 91562,"Kabupaten Mamuju, Sulawesi Barat","Kabupaten Mamuju, Sulawesi Barat",SULAWESI BARAT,,Indonesia,,,,-2.4874603,119.5107708,https://maps.google.com/?cid=0x0:0xaf7e6391455a9f6e,
komplek housing,Pembangunan Perumahan,Dusun lebani,"FFH9+9P, Kondo Bulo, Kalumpang, Kabupaten Mamuju, Sulawesi Barat 91562","Kondo Bulo, Kalumpang, Kabupaten Mamuju",SULAWESI BARAT,91562.0,Indonesia,,,,-2.5215623,119.4693115,https://maps.google.com/?cid=0x0:0x644b67a1a9ff4e71,
komplek housing,Pembangunan Perumahan,Kampung halaman,"CJ9H+M5F, Siraun, Kalumpang, Kabupaten Mamuju, Sulawesi Barat","Kabupaten Mamuju, Sulawesi Barat",SULAWESI BARAT,,Indonesia,,,,-2.5808245,119.6279153,https://maps.google.com/?cid=0x0:0x395976306c6593e3,
komplek housing,Komplek perumahan,Wana home,"MHCJ+34H, Sandapang, Kalumpang, Kabupaten Mamuju, Sulawesi Barat 91562","Sandapang, Kalumpang, Kabupaten Mamuju",SULAWESI BARAT,91562.0,Indonesia,,,,-2.329817,119.5803605,https://maps.google.com/?cid=0x0:0x4184af8ad88e1ab8,
komplek housing,Pembangunan Perumahan,Limbong,"HG8M+3H, Limbong, Kalumpang, Kabupaten Mamuju, Sulawesi Barat 91562","Limbong, Kalumpang, Kabupaten Mamuju",SULAWESI BARAT,91562.0,Indonesia,,,,-2.4455743,119.5694877,https://maps.google.com/?cid=0x0:0x3d491c20f42dfb14,
komplek housing,Komplek perumahan,Delvia's House,"JJG7+2M, Karama, Kalumpang, Kabupaten Mamuju, Sulawesi Barat","Kabupaten Mamuju, Sulawesi Barat",SULAWESI BARAT,,Indonesia,,,,-2.3748608,119.6142186,https://maps.google.com/?cid=0x0:0x6ec36ce53e715e54,
komplek housing,Komplek perumahan,Husen home,"P6VR+HX8, Kuo, Kec. Pangale, Kabupaten Mamuju, Sulawesi Barat 91562","Kuo, Kec. Pangale, Kabupaten Mamuju",SULAWESI BARAT,91562.0,Indonesia,,,,-2.2560903,119.2424656,https://maps.google.com/?cid=0x0:0xdebb916f5d57c217,
komplek housing,Pembangunan Perumahan,RUMAH IPEN,"97V4+M6, Banuada, Kec. Bonehau, Kabupaten Mamuju, Sulawesi Barat 91562","Banuada, Kec. Bonehau, Kabupaten Mamuju",SULAWESI BARAT,91562.0,Indonesia,,,,-2.6062462,119.2554127,https://maps.google.com/?cid=0x0:0xb839133a59610581,
komplek housing,Komplek perumahan,SALU BANGA,"FF53+PM, Kondo Bulo, Kalumpang, Kabupaten Mamuju, Sulawesi Barat 91562","Kondo Bulo, Kalumpang, Kabupaten Mamuju",SULAWESI BARAT,91562.0,Indonesia,,,,-2.5406875,119.4541875,https://maps.google.com/?cid=0x0:0x4f3f1b935730d033,
komplek housing,Pembangunan Perumahan,Ivan house,"M8H3+QP3, Campaloga, Kec. Tommo, Kabupaten Mamuju, Sulawesi Barat 91562","Campaloga, Kec. Tommo, Kabupaten Mamuju",SULAWESI BARAT,91562.0,Indonesia,,,,-2.319766,119.304278,https://maps.google.com/?cid=0x0:0xdd7644fdd0836e3c,
komplek housing,Komplek perumahan,Monika Home,"P9C5+P58, Kakullasan, Kec. Tommo, Kabupaten Mamuju, Sulawesi Barat 91562","Kakullasan, Kec. Tommo, Kabupaten Mamuju",SULAWESI BARAT,91562.0,Indonesia,,,,-2.2782925,119.3579579,https://maps.google.com/?cid=0x0:0xb10efb24a011654b,
komplek housing,Pembangunan Perumahan,Salulekke,"CHJ3+PJ7, Salulekke, Karataun, Kalumpang, Kabupaten Mamuju, Sulawesi Barat 91562","Salulekke, Karataun, Kalumpang, Kabupaten Mamuju",SULAWESI BARAT,91562.0,Indonesia,,,,-2.5682073,119.554054,https://maps.google.com/?cid=0x0:0x2a3926d0b547b2f7,
komplek housing,Pembangunan Perumahan,Campaloga,"M8M2+5J4, Jalan poros, Campaloga, Kec. Tommo, Kabupaten Mamuju, Sulawesi Barat 91562","Jalan poros, Campaloga, Kec. Tommo, Kabupaten Mamuju",SULAWESI BARAT,91562.0,Indonesia,,,,-2.3171219,119.3015661,https://maps.google.com/?cid=0x0:0x43bb516fbec9c721,
komplek housing,Komplek perumahan,home hiska,"P9C7+Q68, Kakullasan, Kec. Tommo, Kabupaten Mamuju, Sulawesi Barat 91562","Kakullasan, Kec. Tommo, Kabupaten Mamuju",SULAWESI BARAT,91562.0,Indonesia,,,,-2.2785508,119.3626633,https://maps.google.com/?cid=0x0:0xdea38059ca861789,
komplek housing,Pembangunan Perumahan,Rumah Sonny,"GFCJ+JFW, Kalumpang, Kabupaten Mamuju, Sulawesi Barat 91562","Kalumpang, Kabupaten Mamuju",SULAWESI BARAT,91562.0,Indonesia,,,,-2.4783056,119.4807066,https://maps.google.com/?cid=0x0:0x3d9bf2b8fcc89aa2,
komplek housing,Pembangunan Perumahan,Hendra,"J7X2+HV2, Kalonding, Kec. Sampaga, Kabupaten Mamuju, Sulawesi Barat 91563","Kalonding, Kec. Sampaga, Kabupaten Mamuju",SULAWESI BARAT,91563.0,Indonesia,,,,-2.3511026,119.2521359,https://maps.google.com/?cid=0x0:0x3b253deebb27156d,
komplek housing,Komplek perumahan,Edha house,"P955+9X6, Kakullasan, Kec. Tommo, Kabupaten Mamuju, Sulawesi Barat","Kabupaten Mamuju, Sulawesi Barat",SULAWESI BARAT,,Indonesia,,,,-2.291582,119.3598782,https://maps.google.com/?cid=0x0:0xcb966428d4a0f777,
komplek housing,Komplek perumahan,Rumah Salim,"P65W+96P, Tommo, Kec. Tommo, Kabupaten Mamuju, Sulawesi Barat 91562","Tommo, Kec. Tommo, Kabupaten Mamuju",SULAWESI BARAT,91562.0,Indonesia,,,,-2.2915406,119.2455847,https://maps.google.com/?cid=0x0:0xe5eb72e4ec1bc94d,
komplek housing,Komplek perumahan,Mang Sergog,"P6CR+XMP, Tommo, Kec. Tommo, Kabupaten Mamuju, Sulawesi Barat 91562","Tommo, Kec. Tommo, Kabupaten Mamuju",SULAWESI BARAT,91562.0,Indonesia,,,,-2.2775355,119.2416958,https://maps.google.com/?cid=0x0:0xd6f77d3a6edb3dfc,
komplek housing,Pembangunan Perumahan,Harnita Mansur,"M8VJ+25P, Rantemario, Kec. Tommo, Kabupaten Mamuju, Sulawesi Barat 91562","Rantemario, Kec. Tommo, Kabupaten Mamuju",SULAWESI BARAT,91562.0,Indonesia,,,,-2.3074226,119.3304535,https://maps.google.com/?cid=0x0:0x15e95e4b41fa549c,
komplek housing,komplek housing,Kalumpang,"Kabupaten Mamuju, Sulawesi Barat","Kabupaten Mamuju, Sulawesi Barat",SULAWESI BARAT,,Indonesia,,,,-2.5210627,119.5571677,https://maps.google.com/?cid=0x0:0xcc8b0fc3c62d3784,
komplek housing,Komplek perumahan,Gede bagus,"M8M2+6CW, Campaloga, Kec. Tommo, Kabupaten Mamuju, Sulawesi Barat 91562","Campaloga, Kec. Tommo, Kabupaten Mamuju",SULAWESI BARAT,91562.0,Indonesia,,,,-2.316898,119.301091,https://maps.google.com/?cid=0x0:0x9a7411040f0989ba,
komplek housing,Komplek perumahan,Rumah Natalia,"M8M3+M4X, Campaloga, Kec. Tommo, Kabupaten Mamuju, Sulawesi Barat 91562","Campaloga, Kec. Tommo, Kabupaten Mamuju",SULAWESI BARAT,91562.0,Indonesia,,,,-2.3166469,119.3022884,https://maps.google.com/?cid=0x0:0x1654f5c5d7d08a07,
komplek housing,Komplek perumahan,Aisyah humaira,"M8WJ+3MR, Rantemario, Kec. Tommo, Kabupaten Mamuju, Sulawesi Barat 91562","Rantemario, Kec. Tommo, Kabupaten Mamuju",SULAWESI BARAT,91562.0,Indonesia,,,,-2.3047565,119.3316319,https://maps.google.com/?cid=0x0:0x67c17af68f9cc5b6,
komplek housing,Kantor Pemerintahan Wilayah,Kinatang,"Kinatang, Kec. Bonehau, Kabupaten Mamuju, Sulawesi Barat 91562","Kec. Bonehau, Kabupaten Mamuju",SULAWESI BARAT,91562.0,Indonesia,,,,-2.6122248,119.3947135,https://maps.google.com/?cid=0x0:0xd035a1c090e9ec8a,
komplek housing,Komplek perumahan,Rumah pak Eko,"P9G7+Q8F, Kakullasan, Kec. Tommo, Kabupaten Mamuju, Sulawesi Barat 91562","Kakullasan, Kec. Tommo, Kabupaten Mamuju",SULAWESI BARAT,91562.0,Indonesia,,,,-2.2734095,119.3626376,https://maps.google.com/?cid=0x0:0x8434cd993507141a,
komplek housing,Komplek perumahan,Entong's House,"P9C7+Q68, Kakullasan, Kec. Tommo, Kabupaten Mamuju, Sulawesi Barat 91562","Kakullasan, Kec. Tommo, Kabupaten Mamuju",SULAWESI BARAT,91562.0,Indonesia,,,,-2.2780924,119.3630919,https://maps.google.com/?cid=0x0:0x668743f7fa935c27,
komplek housing,Sekolah Menengah Pertama,SMP Negeri 1 Balabalakang,"8V9Q+7QW ulau Ambo, Kec. Kep. Bala Balakang, Rimuku, Kec. Mamuju, Prov, Sulawesi Barat","Prov, Sulawesi Barat",SULAWESI BARAT,,Indonesia,,,,-2.681762,118.8894686,https://maps.google.com/?cid=0x0:0x75acfc5dc8f3b86d,
komplek housing,Sekolah Menengah Pertama,SMP Negeri 1 Mamuju,"Jl. Sultan Hasanuddin No.132, Binanga, Kec. Mamuju, Kabupaten Mamuju, Sulawesi Barat 91511","Binanga, Kec. Mamuju, Kabupaten Mamuju",SULAWESI BARAT,91511.0,Indonesia,42621063.0,,,-2.6739349,118.8913082,https://maps.google.com/?cid=0x0:0xcc5bbea9f8c9bbd7,
komplek housing,komplek housing,Sulawesi Barat,,Sulawesi Barat,SULAWESI BARAT,,Indonesia,,,,-2.8441371,119.2320784,https://maps.google.com/?cid=0x0:0xea5cbf202f3370f2,
komplek housing,komplek housing,Sulawesi Barat 91511,"Kabupaten Mamuju, Sulawesi Barat","Kabupaten Mamuju, Sulawesi Barat",SULAWESI BARAT,,Indonesia,,,,-2.728111,118.9761519,https://maps.google.com/?cid=0x0:0x3f347dc6f3833aaf,
komplek housing,Komplek perumahan,Perumahan Maleo,"8VCV+HFH, Jl. WR. Monginsidi, Binanga, Kec. Mamuju, Kabupaten Mamuju, Sulawesi Barat 91511","Jl. WR. Monginsidi, Binanga, Kec. Mamuju, Kabupaten Mamuju",SULAWESI BARAT,91511.0,Indonesia,,,,-2.6785697,118.8937295,https://maps.google.com/?cid=0x0:0xffd31f2358007802,
komplek housing,Perumahan,"Perumahan Puncak Indah Residence, RIMUKU, MAMUJU","Jl. Husni Thamrin No.A 15, Rimuku, Kec. Mamuju, Kabupaten Mamuju, Sulawesi Barat 91511","Rimuku, Kec. Mamuju, Kabupaten Mamuju",SULAWESI BARAT,91511.0,Indonesia,,,,-2.6854204,118.8938799,https://maps.google.com/?cid=0x0:0xe0d2782aa4f001ff,
komplek housing,Kantor Perusahaan,Perumahan Permata Savira,"8VCW+849, Binanga, Kec. Mamuju, Kabupaten Mamuju, Sulawesi Barat 91511","Binanga, Kec. Mamuju, Kabupaten Mamuju",SULAWESI BARAT,91511.0,Indonesia,,,,-2.6792057,118.8953536,https://maps.google.com/?cid=0x0:0xc5a924f37917c7df,
komplek housing,Gedung Apartemen,Kompleks pemda,"8V9Q+5CP, Rimuku, Kec. Mamuju, Kabupaten Mamuju, Sulawesi Barat 91511","Rimuku, Kec. Mamuju, Kabupaten Mamuju",SULAWESI BARAT,91511.0,Indonesia,,,,-2.6820394,118.8885912,https://maps.google.com/?cid=0x0:0xa67afd6bd92f491d,
komplek housing,Komplek perumahan,Perumahan Makkasau Terrace,"Jl. Andi Makkasau No.Road, Karema, Kec. Mamuju, Kabupaten Mamuju, Sulawesi Barat 91512","Karema, Kec. Mamuju, Kabupaten Mamuju",SULAWESI BARAT,91512.0,Indonesia,,,,-2.6901512,118.8812678,https://maps.google.com/?cid=0x0:0x8729d2b1ddd1bd94,
komplek housing,Komplek perumahan,Home Ugüçë,"8VHR+FQF, Jl. Emmy Saelan, Binanga, Kec. Mamuju, Kabupaten Mamuju, Sulawesi Barat 91511","Jl. Emmy Saelan, Binanga, Kec. Mamuju, Kabupaten Mamuju",SULAWESI BARAT,91511.0,Indonesia,,,,-2.6704128,118.8929264,https://maps.google.com/?cid=0x0:0xfef1a83ecdce5716,
komplek housing,Komplek perumahan,Perumahan Kurungan Bassi,"Jl. Kakatua No.1, Karema, Kec. Mamuju, Kabupaten Mamuju, Sulawesi Barat 91511","Karema, Kec. Mamuju, Kabupaten Mamuju",SULAWESI BARAT,91511.0,Indonesia,,,,-2.6972627,118.8874888,https://maps.google.com/?cid=0x0:0xc200d7e9d7dfe70c,
komplek housing,Pembangunan Perumahan,IT House Masagena 4,"BTN GRIYA MASAGENA 4 BLOK J NO. 16, Mamunyu, Kec. Mamuju, Kabupaten Mamuju, Sulawesi Barat 91511","Mamunyu, Kec. Mamuju, Kabupaten Mamuju",SULAWESI BARAT,91511.0,Indonesia,81242935530.0,,,-2.6706872,118.91419,https://maps.google.com/?cid=0x0:0x8fe9a394227c8d05,
komplek housing,Komplek perumahan,Rujab Kapolda Sulbar,"Jl. Mamuju - Kalukku No.15, Bambu, Kec. Mamuju, Kabupaten Mamuju, Sulawesi Barat 91511","Bambu, Kec. Mamuju, Kabupaten Mamuju",SULAWESI BARAT,91511.0,Indonesia,,,,-2.6598279,118.9287212,https://maps.google.com/?cid=0x0:0x178c46c388b02434,
komplek housing,Pembangunan Perumahan,Perumahan H. Basir Simboro Permai,"8V68+RX8, Simboro, Kec. Simboro Dan Kepulauan, Kabupaten Mamuju, Sulawesi Barat 91512","Simboro, Kec. Simboro Dan Kepulauan, Kabupaten Mamuju",SULAWESI BARAT,91512.0,Indonesia,,,,-2.6879739,118.8674535,https://maps.google.com/?cid=0x0:0xe53b86cabd335dc7,
komplek housing,Komplek perumahan,ALYA GREEN HOUSE,"8WVM+22H, Bambu, Kec. Mamuju, Kabupaten Mamuju, Sulawesi Barat 91511","Bambu, Kec. Mamuju, Kabupaten Mamuju",SULAWESI BARAT,91511.0,Indonesia,,,,-2.657499,118.9323322,https://maps.google.com/?cid=0x0:0x51386643e15e0a8b,
komplek housing,Pembangunan Perumahan,MUTIARA GADING Residence,"8V5J+R52, Jl. H. Hapati Hasan, Karema, Kec. Mamuju, Kabupaten Mamuju, Sulawesi Barat 91512","Jl. H. Hapati Hasan, Karema, Kec. Mamuju, Kabupaten Mamuju",SULAWESI BARAT,91512.0,Indonesia,,,,-2.6904774,118.8803951,https://maps.google.com/?cid=0x0:0x8e64db1537ba01c4,
komplek housing,Komplek perumahan,De Luna Mountain View,"Karema, Kec. Mamuju, Kabupaten Mamuju, Sulawesi Barat 91511","Kec. Mamuju, Kabupaten Mamuju",SULAWESI BARAT,91511.0,Indonesia,85299888595.0,,,-2.6809303,118.897171,https://maps.google.com/?cid=0x0:0xc5f6e5de9f9ec465,
komplek housing,Pembangunan Perumahan,PONGTIKU RESIDENCE,"Jl. Pongtiku No.18, Rimuku, Kec. Mamuju, Kabupaten Mamuju, Sulawesi Barat 91511","Rimuku, Kec. Mamuju, Kabupaten Mamuju",SULAWESI BARAT,91511.0,Indonesia,,,,-2.6852126,118.8860945,https://maps.google.com/?cid=0x0:0x19bc22bf6539ed29,
komplek housing,Perumahan,PERUMAHAN MUTMAINNAH TOMAKAKA,"8V69+WG5, Jl. Jend Sudirman, Simboro, Kec. Simboro Dan Kepulauan, Kabupaten Mamuju, Sulawesi Barat 91512","Jl. Jend Sudirman, Simboro, Kec. Simboro Dan Kepulauan, Kabupaten Mamuju",SULAWESI BARAT,91512.0,Indonesia,,,,-2.6877365,118.8688607,https://maps.google.com/?cid=0x0:0xdbf75ecc0e651f23,
komplek housing,Komplek perumahan,Mamuju,"8WG4+63C, Jl. Mamuju - Kalukku, Mamunyu, Kec. Mamuju, Kabupaten Mamuju, Sulawesi Barat 91511","Jl. Mamuju - Kalukku, Mamunyu, Kec. Mamuju, Kabupaten Mamuju",SULAWESI BARAT,91511.0,Indonesia,,,,-2.6746304,118.9049695,https://maps.google.com/?cid=0x0:0x1e3ba9876fdc7a29,
komplek housing,Komplek perumahan,LOKESWARA'S HOUSE,"Lorong Garoang Blok A No.1, RT.002/RW.000, Mamunyu, Kec. Mamuju, Kabupaten Mamuju, Sulawesi Barat 91511","RT.002/RW.000, Mamunyu, Kec. Mamuju, Kabupaten Mamuju",SULAWESI BARAT,91511.0,Indonesia,,,,-2.6744719,118.9152069,https://maps.google.com/?cid=0x0:0xc17e8e692fc92187,
komplek housing,Komplek perumahan,Perumahan Dinas RSUD Prov. SulBar,"8V57+2HW, Simboro, Kec. Simboro Dan Kepulauan, Kabupaten Mamuju, Sulawesi Barat 91512","Simboro, Kec. Simboro Dan Kepulauan, Kabupaten Mamuju",SULAWESI BARAT,91512.0,Indonesia,,,,-2.6916974,118.8632355,https://maps.google.com/?cid=0x0:0x722d9f852e160bc1,
komplek housing,Komplek perumahan,Home omang,"8WRM+J7P, Bambu, Kec. Mamuju, Kabupaten Mamuju, Sulawesi Barat 91511","Bambu, Kec. Mamuju, Kabupaten Mamuju",SULAWESI BARAT,91511.0,Indonesia,,,,-2.6584106,118.9331942,https://maps.google.com/?cid=0x0:0x2de756322c2df1cd,
komplek housing,komplek housing,Kabupaten Mamuju,Sulawesi Barat,"Kabupaten Mamuju, Sulawesi Barat",SULAWESI BARAT,,Indonesia,,,,-2.4920057,119.3250347,https://maps.google.com/?cid=0x0:0x1c96835f41d7a64f,
komplek housing,Rumah Berhantu,Myhome,"8V8R+72M, Jl. Husni Thamrin, Rimuku, Kec. Mamuju, Kabupaten Mamuju, Sulawesi Barat 91511","Jl. Husni Thamrin, Rimuku, Kec. Mamuju, Kabupaten Mamuju",SULAWESI BARAT,91511.0,Indonesia,,,,-2.6842978,118.8900517,https://maps.google.com/?cid=0x0:0x24005d98c7999b79,
komplek housing,Perumahan,BTN AMPI,"8V7J+GM2, Jl. Anggrek 2, Karema, Kec. Mamuju, Kabupaten Mamuju, Sulawesi Barat 91511","Jl. Anggrek 2, Karema, Kec. Mamuju, Kabupaten Mamuju",SULAWESI BARAT,91511.0,Indonesia,,,,-2.6862434,118.8816473,https://maps.google.com/?cid=0x0:0x4aebe82e8d6d6e84,
komplek housing,Pura,BTN Pura Sthana Dewata Blok RS 1,"8V8W+G24, Rimuku, Kec. Mamuju, Kabupaten Mamuju, Sulawesi Barat 91511","Rimuku, Kec. Mamuju, Kabupaten Mamuju",SULAWESI BARAT,91511.0,Indonesia,,,,-2.6837363,118.8950917,https://maps.google.com/?cid=0x0:0xa4f66ecd1bd75cda,
komplek housing,Komplek perumahan,Home Chaky  Talita,"8VJX+MGH, Mamunyu, Kec. Mamuju, Kabupaten Mamuju, Sulawesi Barat 91511","Mamunyu, Kec. Mamuju, Kabupaten Mamuju",SULAWESI BARAT,91511.0,Indonesia,,,,-2.668996,118.898787,https://maps.google.com/?cid=0x0:0x113f711367cd1bfb,
komplek housing,Komplek perumahan,HOME AL-Jagad,"Jl. Emmy Saelan No.96, Binanga, Kec. Mamuju, Kabupaten Mamuju, Sulawesi Barat 91511","Binanga, Kec. Mamuju, Kabupaten Mamuju",SULAWESI BARAT,91511.0,Indonesia,,,,-2.6703744,118.8929741,https://maps.google.com/?cid=0x0:0x26d62d46ba342f4e,
komplek housing,Kantor Pemerintah,Rujab Bupati Mamuju,"8V4X+2X, Rimuku, Kec. Mamuju, Kabupaten Mamuju, Sulawesi Barat 91511","Rimuku, Kec. Mamuju, Kabupaten Mamuju",SULAWESI BARAT,91511.0,Indonesia,,,,-2.6949373,118.8999453,https://maps.google.com/?cid=0x0:0x5993603c1fcd090,
komplek housing,Komplek perumahan,Rumah OPPE/ANTO,"9XCR+96J, Bebanga, Kec. Kalukku, Kabupaten Mamuju, Sulawesi Barat 91511","Bebanga, Kec. Kalukku, Kabupaten Mamuju",SULAWESI BARAT,91511.0,Indonesia,85342249067.0,,,-2.6287786,118.9901123,https://maps.google.com/?cid=0x0:0x46bfe55ea3de4840,
komplek housing,Komplek perumahan,Mabes,"8V9Q+5CP, Kompleks pemda, Rimuku, Kec. Mamuju, Kabupaten Mamuju, Sulawesi Barat 91511","Kompleks pemda, Rimuku, Kec. Mamuju, Kabupaten Mamuju",SULAWESI BARAT,91511.0,Indonesia,,,,-2.6820379,118.8885902,https://maps.google.com/?cid=0x0:0x56a1a4d5688a1df1,
komplek housing,komplek housing,Sulawesi Barat 91514,"Kabupaten Mamuju, Sulawesi Barat","Kabupaten Mamuju, Sulawesi Barat",SULAWESI BARAT,,Indonesia,,,,-2.6664001,118.9877942,https://maps.google.com/?cid=0x0:0x63629837e7aa22dc,
komplek housing,Komplek perumahan,Rumah OPPE/ANTO,"9XCR+96J, Bebanga, Kec. Kalukku, Kabupaten Mamuju, Sulawesi Barat 91511","Bebanga, Kec. Kalukku, Kabupaten Mamuju",SULAWESI BARAT,91511.0,Indonesia,85342249067.0,,,-2.6287786,118.9901123,https://maps.google.com/?cid=0x0:0x46bfe55ea3de4840,
komplek housing,Komplek perumahan,Home papa misda,"9X46+G9G, Tadui, Kec. Mamuju, Kabupaten Mamuju, Sulawesi Barat 91514","Tadui, Kec. Mamuju, Kabupaten Mamuju",SULAWESI BARAT,91514.0,Indonesia,,,,-2.6448311,118.9604813,https://maps.google.com/?cid=0x0:0x3ca732c09639a4b2,
komplek housing,Perhimpunan Pengembang Perumahan,Tadui,"8XHC+G44, Tadui, Kec. Mamuju, Kabupaten Mamuju, Sulawesi Barat","Kabupaten Mamuju, Sulawesi Barat",SULAWESI BARAT,,Indonesia,,,,-2.6712333,118.9703304,https://maps.google.com/?cid=0x0:0x6418f8b84741b783,
komplek housing,komplek housing,Rumah Aisyah .A,"9X4F+V27, Tadui, Kec. Mamuju, Kabupaten Mamuju, Sulawesi Barat 91514","Tadui, Kec. Mamuju, Kabupaten Mamuju",SULAWESI BARAT,91514.0,Indonesia,,,,-2.6428336,118.9725485,https://maps.google.com/?cid=0x0:0x5d902c1a3d85a38c,
komplek housing,Komplek perumahan,ALYA's HOUSE,"Jalan poros Mamuju Kalukku Km. 14, Bambu, Kec. Mamuju, Kabupaten Mamuju, Sulawesi Barat 91511","Bambu, Kec. Mamuju, Kabupaten Mamuju",SULAWESI BARAT,91511.0,Indonesia,,,,-2.6448452,118.9409684,https://maps.google.com/?cid=0x0:0x58962eeab564d081,
komplek housing,Komplek perumahan,ALYA GREEN HOUSE,"8WVM+22H, Bambu, Kec. Mamuju, Kabupaten Mamuju, Sulawesi Barat 91511","Bambu, Kec. Mamuju, Kabupaten Mamuju",SULAWESI BARAT,91511.0,Indonesia,,,,-2.657499,118.9323322,https://maps.google.com/?cid=0x0:0x51386643e15e0a8b,
komplek housing,Komplek perumahan,Rumah Ikka2,"8WG3+VP9, Mamunyu, Kec. Mamuju, Kabupaten Mamuju, Sulawesi Barat 91511","Mamunyu, Kec. Mamuju, Kabupaten Mamuju",SULAWESI BARAT,91511.0,Indonesia,,,,-2.6441214,118.951621,https://maps.google.com/?cid=0x0:0x4e276a3390b712a9,
komplek housing,Pembangunan Perumahan,Galung puncak indah,"9X2R+FP, Bebanga, Kec. Kalukku, Kabupaten Mamuju, Sulawesi Barat","Kabupaten Mamuju, Sulawesi Barat",SULAWESI BARAT,,Indonesia,,,,-2.6488284,118.9917996,https://maps.google.com/?cid=0x0:0x5d2fbeaa530e8c73,
komplek housing,Komplek perumahan,Manalisse. tadui,"9X4C+WCR, Jl. Poros Majene - Mamuju, Tadui, Kec. Mamuju, Kabupaten Mamuju, Sulawesi Barat 91514","Jl. Poros Majene - Mamuju, Tadui, Kec. Mamuju, Kabupaten Mamuju",SULAWESI BARAT,91514.0,Indonesia,,,,-2.642418,118.971103,https://maps.google.com/?cid=0x0:0x9959a0a07cfb836f,
komplek housing,Komplek perumahan,Home omang,"8WRM+J7P, Bambu, Kec. Mamuju, Kabupaten Mamuju, Sulawesi Barat 91511","Bambu, Kec. Mamuju, Kabupaten Mamuju",SULAWESI BARAT,91511.0,Indonesia,,,,-2.6584106,118.9331942,https://maps.google.com/?cid=0x0:0x2de756322c2df1cd,
komplek housing,Komplek perumahan,RUMAH RIZAL TATTO,"8WMM+8QC, Batu Pannu, Kec. Mamuju, Kabupaten Mamuju, Sulawesi Barat 91511","Batu Pannu, Kec. Mamuju, Kabupaten Mamuju",SULAWESI BARAT,91511.0,Indonesia,,,,-2.6670986,118.9341574,https://maps.google.com/?cid=0x0:0x5c7bb9da3f89fd0f,
komplek housing,Perhimpunan Pengembang Perumahan,Pua eda,"9X47+RVX, Tadui, Pangondoang, Kabupaten Mamuju, Sulawesi Barat","Kabupaten Mamuju, Sulawesi Barat",SULAWESI BARAT,,Indonesia,,,,-2.6428934,118.9647351,https://maps.google.com/?cid=0x0:0xd5faa47ec6508120,
komplek housing,Komplek perumahan,RUMAH GERARD,"8X56+GJH, Batu Pannu, Kec. Mamuju, Kabupaten Mamuju, Sulawesi Barat","Kabupaten Mamuju, Sulawesi Barat",SULAWESI BARAT,,Indonesia,,,,-2.6911926,118.9615977,https://maps.google.com/?cid=0x0:0x856b35534e2529b6,
komplek housing,Vila,Rumah Syifa,"8WMM+FPQ, Batu Pannu, Kec. Mamuju, Kabupaten Mamuju, Sulawesi Barat","Kabupaten Mamuju, Sulawesi Barat",SULAWESI BARAT,,Indonesia,,,,-2.6662962,118.9343562,https://maps.google.com/?cid=0x0:0x9978c887a1d62921,
komplek housing,,rumah dea,"8WMM+HP9, Batu Pannu, Kec. Mamuju, Kabupaten Mamuju, Sulawesi Barat","Kabupaten Mamuju, Sulawesi Barat",SULAWESI BARAT,,Indonesia,,,,-2.6660956,118.9343576,https://maps.google.com/?cid=0x0:0xf5fa54e07ca18c95,
komplek housing,Komplek perumahan,Kaifiya Putri,"8WMM+FPQ, Batu Pannu, Kec. Mamuju, Kabupaten Mamuju, Sulawesi Barat","Kabupaten Mamuju, Sulawesi Barat",SULAWESI BARAT,,Indonesia,,,,-2.6656692,118.9346804,https://maps.google.com/?cid=0x0:0x743893a54ea82dfa,
komplek housing,Perhimpunan Pengembang Perumahan,ananda,"8WPM+FFM, Batu Pannu, Kec. Mamuju, Kabupaten Mamuju, Sulawesi Barat 91511","Batu Pannu, Kec. Mamuju, Kabupaten Mamuju",SULAWESI BARAT,91511.0,Indonesia,,,,-2.6638001,118.9338242,https://maps.google.com/?cid=0x0:0xd40e88bacbc3cd3,
komplek housing,Perumahan,Pondok Bambu Family,"8WRM+M2G, Jl. Poros Palu - Mamuju Samping Puskesmas, Bambu, Kec. Kalukku, Kabupaten Mamuju, Sulawesi Barat","Kabupaten Mamuju, Sulawesi Barat",SULAWESI BARAT,,Indonesia,,,,-2.6583058,118.932593,https://maps.google.com/?cid=0x0:0x40febe2e246022a0,
komplek housing,Komplek perumahan,Rumah batman,"9XFV+77R, Bebanga, Kec. Kalukku, Kabupaten Mamuju, Sulawesi Barat 91511","Bebanga, Kec. Kalukku, Kabupaten Mamuju",SULAWESI BARAT,91511.0,Indonesia,,,,-2.6267625,118.9931406,https://maps.google.com/?cid=0x0:0xe7128309724723aa,
komplek housing,komplek housing,Kabupaten Mamuju,Sulawesi Barat,"Kabupaten Mamuju, Sulawesi Barat",SULAWESI BARAT,,Indonesia,,,,-2.4920057,119.3250347,https://maps.google.com/?cid=0x0:0x1c96835f41d7a64f,
komplek housing,Perumahan,Btn Axuri,"8V9M+X54, Binanga, Kec. Mamuju, Kabupaten Mamuju, Sulawesi Barat 91511","Binanga, Kec. Mamuju, Kabupaten Mamuju",SULAWESI BARAT,91511.0,Indonesia,,,,-2.6801183,118.8829661,https://maps.google.com/?cid=0x0:0x182e5c38b994089f,
komplek housing,komplek housing,Sulawesi Barat 91515,"Karampuang, Kec. Mamuju, Kabupaten Mamuju, Sulawesi Barat","Kabupaten Mamuju, Sulawesi Barat",SULAWESI BARAT,,Indonesia,,,,-2.6273634,118.885894,https://maps.google.com/?cid=0x0:0x734a0409ed48ab3f,
komplek housing,Komplek perumahan,Rumah Rasyid Tonggengge,"9V2M+WQ3, Unnamed Road, Karampuang, Kec. Mamuju, Kabupaten Mamuju, Sulawesi Barat 91515","Unnamed Road, Karampuang, Kec. Mamuju, Kabupaten Mamuju",SULAWESI BARAT,91515.0,Indonesia,,,,-2.6477426,118.8844283,https://maps.google.com/?cid=0x0:0xab4f6039fbc43a5b,
komplek housing,Pembangunan Perumahan,Perumahan Sidratul Muntaha,"Jln kasuari, Karema, Tahaya haya, Kabupaten Mamuju, Sulawesi Barat 91511","Karema, Tahaya haya, Kabupaten Mamuju",SULAWESI BARAT,91511.0,Indonesia,81355222080.0,,,-2.6998185,118.8766854,https://maps.google.com/?cid=0x0:0xec48a8cc022292f,
komplek housing,Perumahan,Btn Axuri,"8V9M+X54, Binanga, Kec. Mamuju, Kabupaten Mamuju, Sulawesi Barat 91511","Binanga, Kec. Mamuju, Kabupaten Mamuju",SULAWESI BARAT,91511.0,Indonesia,,,,-2.6801183,118.8829661,https://maps.google.com/?cid=0x0:0x182e5c38b994089f,
komplek housing,Komplek perumahan,Rumah isma,"9V9H+6C, Karampuang, Kec. Mamuju, Kabupaten Mamuju, Sulawesi Barat","Kabupaten Mamuju, Sulawesi Barat",SULAWESI BARAT,,Indonesia,,,,-2.6320155,118.8785293,https://maps.google.com/?cid=0x0:0x4d471b126b420b50,
komplek housing,Komplek perumahan,Royal Green Hills,"8WG7+55M, Jl. Mamuju - Kalukku, Mamunyu, Kec. Mamuju, Kabupaten Mamuju, Sulawesi Barat 91511","Jl. Mamuju - Kalukku, Mamunyu, Kec. Mamuju, Kabupaten Mamuju",SULAWESI BARAT,91511.0,Indonesia,,,,-2.6745494,118.9129201,https://maps.google.com/?cid=0x0:0x1047f860ee1b2b89,
komplek housing,Pembangunan Perumahan,Anto,"8VXQ+H76, Karampuang, Kec. Mamuju, Kabupaten Mamuju, Sulawesi Barat","Kabupaten Mamuju, Sulawesi Barat",SULAWESI BARAT,,Indonesia,,,,-2.6510917,118.8881475,https://maps.google.com/?cid=0x0:0x2559ef7d237d246d,
komplek housing,komplek housing,E.2 PRO SOUND,"9V9P+892, Karampuang, Kec. Mamuju, Kabupaten Mamuju, Sulawesi Barat","Kabupaten Mamuju, Sulawesi Barat",SULAWESI BARAT,,Indonesia,,,,-2.6317463,118.885894,https://maps.google.com/?cid=0x0:0xc57932f5950fb98d,
komplek housing,Perhimpunan Pengembang Perumahan,Rumah ambe indo lupe,"9V9H+V7H, Bonelangka, Karampuang, Kec. Mamuju, Kabupaten Mamuju, Sulawesi Barat","Kabupaten Mamuju, Sulawesi Barat",SULAWESI BARAT,,Indonesia,,,,-2.6303019,118.878236,https://maps.google.com/?cid=0x0:0xc76de64f698946f2,
komplek housing,Komplek perumahan,Denny Arghiat Akshara,"9V7Q+2R, Karampuang, Kec. Mamuju, Kabupaten Mamuju, Sulawesi Barat","Kabupaten Mamuju, Sulawesi Barat",SULAWESI BARAT,,Indonesia,,,,-2.637497,118.889559,https://maps.google.com/?cid=0x0:0x5a9f37ca0aca544,
komplek housing,Pembangunan Perumahan,Royal Riverside,"8WH9+5GF, Jl. Poros Majene - Mamuju, Mamunyu, Kec. Mamuju, Kabupaten Mamuju, Sulawesi Barat 91511","Jl. Poros Majene - Mamuju, Mamunyu, Kec. Mamuju, Kabupaten Mamuju",SULAWESI BARAT,91511.0,Indonesia,81234540438.0,,,-2.6720674,118.9187837,https://maps.google.com/?cid=0x0:0x17d7491559a8cbe,
komplek housing,Pembangunan Perumahan,TANETE POCOK,"9V8J+5JR, Karampuang, Kec. Mamuju, Kabupaten Mamuju, Sulawesi Barat","Kabupaten Mamuju, Sulawesi Barat",SULAWESI BARAT,,Indonesia,,,,-2.6342077,118.8820927,https://maps.google.com/?cid=0x0:0xd851644bab2adfee,
komplek housing,Komplek perumahan,Perumahan SOETA HILLS,"8V5M+3M6, Jl. Soekarno Hatta, Simboro, Kec. Mamuju, Kabupaten Mamuju, Sulawesi Barat","Kabupaten Mamuju, Sulawesi Barat",SULAWESI BARAT,,Indonesia,,,,-2.6928656,118.8843955,https://maps.google.com/?cid=0x0:0x7334a5c2ca91b535,
komplek housing,Komplek perumahan,BTN Royal Green Hills,"8WG7+7J6, Mamunyu, Kec. Mamuju, Kabupaten Mamuju, Sulawesi Barat","Kabupaten Mamuju, Sulawesi Barat",SULAWESI BARAT,,Indonesia,,,,-2.6743418,118.9140207,https://maps.google.com/?cid=0x0:0xe59ee784eb9949ce,
komplek housing,komplek housing,Kabupaten Mamuju,Sulawesi Barat,"Kabupaten Mamuju, Sulawesi Barat",SULAWESI BARAT,,Indonesia,,,,-2.4920057,119.3250347,https://maps.google.com/?cid=0x0:0x1c96835f41d7a64f,
komplek housing,Komplek perumahan,Mk Collection,"Jl. Anggrek Btn Ampi No.13, Karema, Kec. Mamuju, Kabupaten Mamuju, Sulawesi Barat 91515","Karema, Kec. Mamuju, Kabupaten Mamuju",SULAWESI BARAT,91515.0,Indonesia,81280808238.0,,,-2.6858733,118.8811893,https://maps.google.com/?cid=0x0:0xdd64f477e1da7fa5,
komplek housing,Pembangunan Perumahan,Kec. Papalang,"J57F+45R, Toabo, Kec. Papalang, Kabupaten Mamuju, Sulawesi Barat","Kabupaten Mamuju, Sulawesi Barat",SULAWESI BARAT,,Indonesia,,,,-2.3871358,119.172895,https://maps.google.com/?cid=0x0:0x727dc711fdd53fec,
komplek housing,Pembangunan Perumahan,Toabo,"J58F+XHG, Toabo, Kec. Papalang, Kabupaten Mamuju, Sulawesi Barat 91563","Toabo, Kec. Papalang, Kabupaten Mamuju",SULAWESI BARAT,91563.0,Indonesia,,,,-2.3825552,119.1739513,https://maps.google.com/?cid=0x0:0x5279138554e8f030,
komplek housing,komplek housing,Kec. Papalang,"Kabupaten Mamuju, Sulawesi Barat","Kabupaten Mamuju, Sulawesi Barat",SULAWESI BARAT,,Indonesia,,,,-2.3871091,119.1729099,https://maps.google.com/?cid=0x0:0xb016ae6ec36eb13f,
komplek housing,komplek housing,Kec. Tebet,"Kota Jakarta Selatan, Daerah Khusus Ibukota Jakarta","Kota Jakarta Selatan, Daerah Khusus Ibukota Jakarta",SULAWESI BARAT,,Indonesia,,,,-6.2251223,106.8549881,https://maps.google.com/?cid=0x0:0xd575e31c807295f9,
komplek housing,komplek housing,Kec. Sampaga,"Kabupaten Mamuju, Sulawesi Barat","Kabupaten Mamuju, Sulawesi Barat",SULAWESI BARAT,,Indonesia,,,,-2.3125359,119.1766647,https://maps.google.com/?cid=0x0:0x75e9d815d6856b53,
komplek housing,Pembangunan Perumahan,Sanodding/daipa,"J5VX+V2J, Bunde, Kec. Sampaga, Kabupaten Mamuju, Sulawesi Barat 91563","Bunde, Kec. Sampaga, Kabupaten Mamuju",SULAWESI BARAT,91563.0,Indonesia,,,,-2.3552766,119.1975279,https://maps.google.com/?cid=0x0:0x45c2e635c5a47dc9,
komplek housing,Pembangunan Perumahan,Hendra,"J7X2+HV2, Kalonding, Kec. Sampaga, Kabupaten Mamuju, Sulawesi Barat 91563","Kalonding, Kec. Sampaga, Kabupaten Mamuju",SULAWESI BARAT,91563.0,Indonesia,,,,-2.3511026,119.2521359,https://maps.google.com/?cid=0x0:0x3b253deebb27156d,
komplek housing,Komplek perumahan,Rumah rafi,"Bunde, Kec. Sampaga, Kabupaten Mamuju, Sulawesi Barat 91563","Kec. Sampaga, Kabupaten Mamuju",SULAWESI BARAT,91563.0,Indonesia,,,,-2.3437406,119.1705425,https://maps.google.com/?cid=0x0:0x74e096e9bb8a7742,
komplek housing,Komplek perumahan,Mozart's Home,"M59F+7W5, Bunde, Kec. Sampaga, Kabupaten Mamuju, Sulawesi Barat 91563","Bunde, Kec. Sampaga, Kabupaten Mamuju",SULAWESI BARAT,91563.0,Indonesia,,,,-2.3320633,119.1752199,https://maps.google.com/?cid=0x0:0xaf359339d12de3ac,
komplek housing,Komplek perumahan,Rumah Linda,"M549+6VX, Bunde, Kec. Sampaga, Kabupaten Mamuju, Sulawesi Barat 91563","Bunde, Kec. Sampaga, Kabupaten Mamuju",SULAWESI BARAT,91563.0,Indonesia,,,,-2.3443944,119.1697469,https://maps.google.com/?cid=0x0:0xfbf05801c9994dee,
komplek housing,komplek housing,Ramadani,"P64W+74, Tommo, Kec. Tommo, Kabupaten Mamuju, Sulawesi Barat","Kabupaten Mamuju, Sulawesi Barat",SULAWESI BARAT,,Indonesia,,,,-2.2942525,119.2453497,https://maps.google.com/?cid=0x0:0x40ddf6c07f069932,
komplek housing,Komplek perumahan,Rumah Jay,"M5GG+H2R, Tarailu, Kec. Sampaga, Kabupaten Mamuju, Sulawesi Barat 91563","Tarailu, Kec. Sampaga, Kabupaten Mamuju",SULAWESI BARAT,91563.0,Indonesia,,,,-2.3234854,119.1750825,https://maps.google.com/?cid=0x0:0x57d378e971290348,
komplek housing,Pembangunan Perumahan,Pakkarawang,"J7PR+F2, Kalonding, Kec. Sampaga, Kabupaten Mamuju, Sulawesi Barat 91563","Kalonding, Kec. Sampaga, Kabupaten Mamuju",SULAWESI BARAT,91563.0,Indonesia,,,,-2.363742,119.2899532,https://maps.google.com/?cid=0x0:0x78c5ab0eaa372fcc,
komplek housing,Komplek perumahan,Rumah DG tompock,"P5M9+Q7, Sartanamaju, Kec. Pangale, Kabupaten Mamuju Tengah, Sulawesi Barat 91563","Sartanamaju, Kec. Pangale, Kabupaten Mamuju Tengah",SULAWESI BARAT,91563.0,Indonesia,85280471840.0,,,-2.263408,119.1809957,https://maps.google.com/?cid=0x0:0x8183bb31a597cd29,
komplek housing,Pembangunan Perumahan,"Dida, Abyan, Albi","M54C+W7C, Bunde, Kec. Sampaga, Kabupaten Mamuju, Sulawesi Barat 91563","Bunde, Kec. Sampaga, Kabupaten Mamuju",SULAWESI BARAT,91563.0,Indonesia,85244630011.0,,,-2.3427453,119.1706407,https://maps.google.com/?cid=0x0:0xa0e0dc40ebfdedaf,
komplek housing,Komplek perumahan,Rumah nya pak Ndun,"M55G+353, Bunde, Kec. Sampaga, Kabupaten Mamuju, Sulawesi Barat 91563","Bunde, Kec. Sampaga, Kabupaten Mamuju",SULAWESI BARAT,91563.0,Indonesia,,,,-2.3423624,119.175408,https://maps.google.com/?cid=0x0:0x88143e71c413baa1,
komplek housing,komplek housing,Ririn House,"M5JG+W7C, Tarailu, Kec. Sampaga, Kabupaten Mamuju, Sulawesi Barat 91563","Tarailu, Kec. Sampaga, Kabupaten Mamuju",SULAWESI BARAT,91563.0,Indonesia,,,,-2.3176416,119.1755177,https://maps.google.com/?cid=0x0:0xb9afdc25e821259f,
komplek housing,Pertanian,Pembibitan Kakao,"M56H+5Q5, Bunde, Kec. Sampaga, Kabupaten Mamuju, Sulawesi Barat 91563","Bunde, Kec. Sampaga, Kabupaten Mamuju",SULAWESI BARAT,91563.0,Indonesia,,,,-2.3397073,119.1794891,https://maps.google.com/?cid=0x0:0xe1e2d26f73504568,
komplek housing,Komplek perumahan,Rumah Nhur,"M54H+MW6, Bunde, Kec. Sampaga, Kabupaten Mamuju, Sulawesi Barat 91563","Bunde, Kec. Sampaga, Kabupaten Mamuju",SULAWESI BARAT,91563.0,Indonesia,,,,-2.3433364,119.179765,https://maps.google.com/?cid=0x0:0xd503b9c6793f8ddf,
komplek housing,Komplek perumahan,Rumah Habibi Jaya,"M5QF+4W4, Tarailu, Kec. Sampaga, Kabupaten Mamuju, Sulawesi Barat 91563","Tarailu, Kec. Sampaga, Kabupaten Mamuju",SULAWESI BARAT,91563.0,Indonesia,,,,-2.3124359,119.1749299,https://maps.google.com/?cid=0x0:0xa3fe7eb4887a0037,
komplek housing,Pembangunan Perumahan,Sofian s,"M5MH+3WC, Tarailu, Kec. Sampaga, Kabupaten Mamuju, Sulawesi Barat 91563","Tarailu, Kec. Sampaga, Kabupaten Mamuju",SULAWESI BARAT,91563.0,Indonesia,,,,-2.3173016,119.179765,https://maps.google.com/?cid=0x0:0x7645d06469bb4b8f,
komplek housing,Komplek perumahan,Harun nurrasyid,"lr 10, Kampung baru, Bunde, Kec. Sampaga, Kabupaten Mamuju, Sulawesi Barat 91563","Kampung baru, Bunde, Kec. Sampaga, Kabupaten Mamuju",SULAWESI BARAT,91563.0,Indonesia,,,,-2.3433364,119.179765,https://maps.google.com/?cid=0x0:0xb9f5d1fffb622779,
komplek housing,Perhimpunan Pengembang Perumahan,Rumah asip,"P4VV+CWV, Kombiling, Kec. Pangale, Kabupaten Mamuju, Sulawesi Barat 91563","Kombiling, Kec. Pangale, Kabupaten Mamuju",SULAWESI BARAT,91563.0,Indonesia,,,,-2.2556886,119.1447956,https://maps.google.com/?cid=0x0:0x633ef42901a732d9,
komplek housing,komplek housing,"Dida, Abyan, Album, Azlan","M54C+W7C, Bunde, Kec. Sampaga, Kabupaten Mamuju, Sulawesi Barat 91563","Bunde, Kec. Sampaga, Kabupaten Mamuju",SULAWESI BARAT,91563.0,Indonesia,,,,-2.3431708,119.1705807,https://maps.google.com/?cid=0x0:0x7597b9542554c840,
komplek housing,komplek housing,Komplek Housing,"Blok Bojong Nangka I, Jl. Ring Rudal Blok Bojong Nangka I No.68, RT.001/RW.007, Jatirahayu, Kec. Pd. Melati, Kota Bks, Jawa Barat 17414","Jl. Ring Rudal Blok Bojong Nangka I No.68, RT.001/RW.007, Jatirahayu, Kec. Pd. Melati, Kota Bks",SULAWESI BARAT,17414.0,Indonesia,,,,-6.293724,106.9165114,https://maps.google.com/?cid=0x0:0x9c50464976dee674,
komplek housing,komplek housing,Sampaga,"Batangas City, Batangas, Filipina","Batangas City, Batangas, Filipina",SULAWESI BARAT,,Indonesia,,,,13.7559932,121.099429,https://maps.google.com/?cid=0x0:0x7aa3b1d788f3d12f,
komplek housing,komplek housing,Kec. Simboro Dan Kepulauan,"Kabupaten Mamuju, Sulawesi Barat","Kabupaten Mamuju, Sulawesi Barat",SULAWESI BARAT,,Indonesia,,,,-2.6886472,118.8687708,https://maps.google.com/?cid=0x0:0x690e32602d9f0e83,
komplek housing,Pembangunan Perumahan,Perumahan H. Basir Simboro Permai,"8V68+RX8, Simboro, Kec. Simboro Dan Kepulauan, Kabupaten Mamuju, Sulawesi Barat 91512","Simboro, Kec. Simboro Dan Kepulauan, Kabupaten Mamuju",SULAWESI BARAT,91512.0,Indonesia,,,,-2.6879739,118.8674535,https://maps.google.com/?cid=0x0:0xe53b86cabd335dc7,
komplek housing,Komplek perumahan,House,"BTN Graha Nusa II Tahap 1, Blok B No. 19, Simboro, Simboro Dan Kepulauan, Mamuju Regency, West Sulawesi 91512","Blok B No. 19, Simboro, Simboro Dan Kepulauan, Mamuju Regency",SULAWESI BARAT,91512.0,Indonesia,,,,-2.6805789,118.8668636,https://maps.google.com/?cid=0x0:0x33799ec95cf0bd52,
komplek housing,Komplek perumahan,GRAHA NUSA 2 TAHAP 1,"8V98+GJM, Unnamed Road, Simboro, Kec. Simboro Dan Kepulauan, Kabupaten Mamuju, Sulawesi Barat 91512","Unnamed Road, Simboro, Kec. Simboro Dan Kepulauan, Kabupaten Mamuju",SULAWESI BARAT,91512.0,Indonesia,,,,-2.6811721,118.8665591,https://maps.google.com/?cid=0x0:0xc0664bafaef1838c,
komplek housing,Komplek perumahan,Perumahan TNI AL Simboro,"8VF8+GW6, Jl. Pelabuhan Penyeberangan Ferry, Simboro, Kec. Simboro Dan Kepulauan, Kabupaten Mamuju, Sulawesi Barat 91512","Jl. Pelabuhan Penyeberangan Ferry, Simboro, Kec. Simboro Dan Kepulauan, Kabupaten Mamuju",SULAWESI BARAT,91512.0,Indonesia,,,,-2.6762097,118.8672675,https://maps.google.com/?cid=0x0:0xda2fb5821ad75d8f,
komplek housing,Pembangunan Perumahan,Home Base BI mamuju,"8V95+7JQ Btn legenda, Simboro, Kec. Simboro Dan Kepulauan, Kabupaten Mamuju, Sulawesi Barat","Kabupaten Mamuju, Sulawesi Barat",SULAWESI BARAT,,Indonesia,,,,-2.6817957,118.8591007,https://maps.google.com/?cid=0x0:0xd51efe6e58e5fbec,
komplek housing,Komplek perumahan,Graha Nusa 2 Tahap 1 F/20,"8V88+HXM, Jl. H. Mustafa Katjo, Simboro, Kec. Simboro Dan Kepulauan, Kabupaten Mamuju, Sulawesi Barat 91512","Jl. H. Mustafa Katjo, Simboro, Kec. Simboro Dan Kepulauan, Kabupaten Mamuju",SULAWESI BARAT,91512.0,Indonesia,,,,-2.6835329,118.8674156,https://maps.google.com/?cid=0x0:0x244a07c0fdb187d9,
komplek housing,Komplek perumahan,Mamuju,"8V99+PCG, Simboro, Kec. Simboro Dan Kepulauan, Kabupaten Mamuju, Sulawesi Barat 91512","Simboro, Kec. Simboro Dan Kepulauan, Kabupaten Mamuju",SULAWESI BARAT,91512.0,Indonesia,,,,-2.6806765,118.868579,https://maps.google.com/?cid=0x0:0xc37f5f924409ec2c,
komplek housing,komplek housing,Rumah,"Blk. D No.5, Simboro, Kec. Simboro Dan Kepulauan, Kabupaten Mamuju, Sulawesi Barat 91512","Simboro, Kec. Simboro Dan Kepulauan, Kabupaten Mamuju",SULAWESI BARAT,91512.0,Indonesia,,,,-2.6826933,118.8660274,https://maps.google.com/?cid=0x0:0x704801d3dca41240,
komplek housing,komplek housing,Syamsul  Ny Hartis House,"8V95+4HH, Simboro, Kec. Simboro Dan Kepulauan, Kabupaten Mamuju, Sulawesi Barat 91512","Simboro, Kec. Simboro Dan Kepulauan, Kabupaten Mamuju",SULAWESI BARAT,91512.0,Indonesia,,,,-2.6822837,118.8590199,https://maps.google.com/?cid=0x0:0xd18a1c66262bae4e,
komplek housing,Komplek perumahan,Perumahan Puri Buana 1,"8VC4+QPM, Jl. RE Martadinata, Simboro, Kec. Simboro Dan Kepulauan, Kabupaten Mamuju, Sulawesi Barat 91512","Jl. RE Martadinata, Simboro, Kec. Simboro Dan Kepulauan, Kabupaten Mamuju",SULAWESI BARAT,91512.0,Indonesia,,,,-2.6780291,118.8568022,https://maps.google.com/?cid=0x0:0x172acacab2fae880,
komplek housing,Pembangunan Perumahan,Perumahan Bukit Simboro,"Perum. Bukit Blk. C No.9, Simboro, Simboro Dan Kepulauan, Mamuju Regency, West Sulawesi 91512","Simboro, Simboro Dan Kepulauan, Mamuju Regency",SULAWESI BARAT,91512.0,Indonesia,,,,-2.6826749,118.8655866,https://maps.google.com/?cid=0x0:0xc14ae3ef556af5f2,
komplek housing,Komplek perumahan,Home AF2,"8VG4+C9X, Jl. H Abd Malik Pattana Endeng Rangas, Simboro, Kec. Simboro Dan Kepulauan, Kabupaten Mamuju, Sulawesi Barat 91512","Jl. H Abd Malik Pattana Endeng Rangas, Simboro, Kec. Simboro Dan Kepulauan, Kabupaten Mamuju",SULAWESI BARAT,91512.0,Indonesia,,,,-2.6738769,118.8559762,https://maps.google.com/?cid=0x0:0x4ff67baa2f9afd2d,
komplek housing,Komplek perumahan,Bukit Simboro Residence,"Jl. Abdul Malik Pattana Endeng, Simboro, Kec. Simboro Dan Kepulauan, Kabupaten Mamuju, Sulawesi Barat 91512","Simboro, Kec. Simboro Dan Kepulauan, Kabupaten Mamuju",SULAWESI BARAT,91512.0,Indonesia,82196946554.0,,,-2.6744385,118.8561328,https://maps.google.com/?cid=0x0:0x27ec28c84debe04,
komplek housing,Komplek perumahan,Perumahan Bukit Tambayako Permai (BTP Residence),"Jl. Mustafa Daeng Sirua, Simboro, Kec. Simboro Dan Kepulauan, Kabupaten Mamuju, Sulawesi Barat 91512","Simboro, Kec. Simboro Dan Kepulauan, Kabupaten Mamuju",SULAWESI BARAT,91512.0,Indonesia,81243222286.0,,,-2.6849375,118.8556875,https://maps.google.com/?cid=0x0:0x39a07fc870a2b5a8,
komplek housing,Otoritas Perumahan,Lorong sebelum masuk btn tambayako land,"Jl. RE Martadinata kompleks kavlingan rumah No.01, Simboro, Kec. Simboro Dan Kepulauan, Kabupaten Mamuju, Sulawesi Barat 91512","Simboro, Kec. Simboro Dan Kepulauan, Kabupaten Mamuju",SULAWESI BARAT,91512.0,Indonesia,85255509778.0,,,-2.6853171,118.8614084,https://maps.google.com/?cid=0x0:0xaee15e318e9b6631,
komplek housing,Komplek perumahan,Perumahan Graha Nusa 5 Blok K/28,"8V87+CVP, Simboro, Kec. Simboro Dan Kepulauan, Kabupaten Mamuju, Sulawesi Barat 91512","Simboro, Kec. Simboro Dan Kepulauan, Kabupaten Mamuju",SULAWESI BARAT,91512.0,Indonesia,,,,-2.6839231,118.864706,https://maps.google.com/?cid=0x0:0x796e202c3f44f625,
komplek housing,Komplek perumahan,Home Fuji,"Simboro, Kec. Simboro Dan Kepulauan, Kabupaten Mamuju, Sulawesi Barat 91512","Kec. Simboro Dan Kepulauan, Kabupaten Mamuju",SULAWESI BARAT,91512.0,Indonesia,85299269241.0,,,-2.6823615,118.8613864,https://maps.google.com/?cid=0x0:0xd046660fc1de429e,
komplek housing,Komplek perumahan,Graha Nusa 2 Tahap I Blok C8,"8V98+JR7, Simboro, Kec. Simboro Dan Kepulauan, Kabupaten Mamuju, Sulawesi Barat 91512","Simboro, Kec. Simboro Dan Kepulauan, Kabupaten Mamuju",SULAWESI BARAT,91512.0,Indonesia,,,,-2.6809563,118.867059,https://maps.google.com/?cid=0x0:0x8edfd941baa2739c,
komplek housing,Komplek perumahan,BTN Magfirah Sese,"8R7X+GQG, Rangas, Kec. Simboro Dan Kepulauan, Kabupaten Mamuju, Sulawesi Barat 91512","Rangas, Kec. Simboro Dan Kepulauan, Kabupaten Mamuju",SULAWESI BARAT,91512.0,Indonesia,,,,-2.6861991,118.8494463,https://maps.google.com/?cid=0x0:0xeadf713e6efff4c4,
komplek housing,Pembangunan Perumahan,Perumahan Griya Permata Korongana II Blok D36,"7VW5+RJG, Simboro, Kec. Simboro Dan Kepulauan, Kabupaten Mamuju, Sulawesi Barat 91512","Simboro, Kec. Simboro Dan Kepulauan, Kabupaten Mamuju",SULAWESI BARAT,91512.0,Indonesia,,,,-2.7029485,118.8590844,https://maps.google.com/?cid=0x0:0x2699b832560e1d08,
komplek housing,Komplek perumahan,Perumahan Simponi Blok B/10,"8V86+95R, Simboro, Kec. Simboro Dan Kepulauan, Kabupaten Mamuju, Sulawesi Barat 91512","Simboro, Kec. Simboro Dan Kepulauan, Kabupaten Mamuju",SULAWESI BARAT,91512.0,Indonesia,,,,-2.6840116,118.8603826,https://maps.google.com/?cid=0x0:0xf6f6dd3c09d2d77a,
komplek housing,Pembangunan Perumahan,Perumahan Bukit Simboro Blok B/22,"8VF4+WGF, jln.bukit, Simboro, Kec. Simboro Dan Kepulauan, Kabupaten Mamuju, Sulawesi Barat 91512","jln.bukit, Simboro, Kec. Simboro Dan Kepulauan, Kabupaten Mamuju",SULAWESI BARAT,91512.0,Indonesia,,,,-2.6751722,118.8562789,https://maps.google.com/?cid=0x0:0xb853a42df6720ec1,
komplek housing,Perumahan,PERUMAHAN MUTMAINNAH TOMAKAKA,"8V69+WG5, Jl. Jend Sudirman, Simboro, Kec. Simboro Dan Kepulauan, Kabupaten Mamuju, Sulawesi Barat 91512","Jl. Jend Sudirman, Simboro, Kec. Simboro Dan Kepulauan, Kabupaten Mamuju",SULAWESI BARAT,91512.0,Indonesia,,,,-2.6877365,118.8688607,https://maps.google.com/?cid=0x0:0xdbf75ecc0e651f23,
komplek housing,Komplek perumahan,Perumahan Bukit Simboro Blok B/8,"8VF4+XGJ, Jl. Bukit Graha Indah, Simboro, Kec. Simboro Dan Kepulauan, Kabupaten Mamuju, Sulawesi Barat 91512","Jl. Bukit Graha Indah, Simboro, Kec. Simboro Dan Kepulauan, Kabupaten Mamuju",SULAWESI BARAT,91512.0,Indonesia,,,,-2.6750383,118.8562617,https://maps.google.com/?cid=0x0:0xda12651f6701de43,
komplek housing,Komplek perumahan,Perumahan Dinas RSUD Prov. SulBar,"8V57+2HW, Simboro, Kec. Simboro Dan Kepulauan, Kabupaten Mamuju, Sulawesi Barat 91512","Simboro, Kec. Simboro Dan Kepulauan, Kabupaten Mamuju",SULAWESI BARAT,91512.0,Indonesia,,,,-2.6916974,118.8632355,https://maps.google.com/?cid=0x0:0x722d9f852e160bc1,
komplek housing,Pembangunan Perumahan,Perumahan,"Perumahan Graha Nusa 1 Blk. M No.11, Simboro, Kec. Simboro Dan Kepulauan, Kabupaten Mamuju, Sulawesi Barat 91512","Simboro, Kec. Simboro Dan Kepulauan, Kabupaten Mamuju",SULAWESI BARAT,91512.0,Indonesia,,,,-2.6845614,118.8663245,https://maps.google.com/?cid=0x0:0x3139d060dde9fb05,
komplek housing,Otoritas Perumahan,Perumahan Puncak Indah Permai 2,"7VW7+V3C, Jl. Poros Majene - Mamuju, Maliaya, Kec. Simboro Dan Kepulauan, Kabupaten Majene, Sulawesi Barat 91512","Jl. Poros Majene - Mamuju, Maliaya, Kec. Simboro Dan Kepulauan, Kabupaten Majene",SULAWESI BARAT,91512.0,Indonesia,,,,-2.7027704,118.8626507,https://maps.google.com/?cid=0x0:0xe97291800fdaa12b,
komplek housing,komplek housing,Sulawesi Barat 91513,"Kabupaten Mamuju, Sulawesi Barat","Kabupaten Mamuju, Sulawesi Barat",SULAWESI BARAT,,Indonesia,,,,-2.6887507,118.8014121,https://maps.google.com/?cid=0x0:0xbef0412d6d2f80f8,
komplek housing,komplek housing,Dusun Batu Lappa Selatan,"9R24+9V9, Sumare, Kec. Simboro Dan Kepulauan, Kabupaten Mamuju, Sulawesi Barat 91513","Sumare, Kec. Simboro Dan Kepulauan, Kabupaten Mamuju",SULAWESI BARAT,91513.0,Indonesia,,,,-2.6486713,118.8073818,https://maps.google.com/?cid=0x0:0xdd43d071838ddbb6,
komplek housing,Komplek perumahan,Bukit Simboro Residence,"Jl. Abdul Malik Pattana Endeng, Simboro, Kec. Simboro Dan Kepulauan, Kabupaten Mamuju, Sulawesi Barat 91512","Simboro, Kec. Simboro Dan Kepulauan, Kabupaten Mamuju",SULAWESI BARAT,91512.0,Indonesia,82196946554.0,,,-2.6744385,118.8561328,https://maps.google.com/?cid=0x0:0x27ec28c84debe04,
komplek housing,Komplek perumahan,Rumah mama icci,"9R24+XPV, Sumare, Kec. Simboro Dan Kepulauan, Kabupaten Mamuju, Sulawesi Barat","Kabupaten Mamuju, Sulawesi Barat",SULAWESI BARAT,,Indonesia,,,,-2.6475031,118.8067988,https://maps.google.com/?cid=0x0:0x6d877cf3545b978,
komplek housing,Perumahan,Pamombong Simboro,"7RRW+JW, Simboro, Kec. Simboro Dan Kepulauan, Kabupaten Mamuju, Sulawesi Barat","Kabupaten Mamuju, Sulawesi Barat",SULAWESI BARAT,,Indonesia,,,,-2.708452,118.847265,https://maps.google.com/?cid=0x0:0xa4997342564f3fda,
komplek housing,Area Mendaki,Lingkungan Bulutakkang,"9R9J+F98, Unnamed Road, Rangas, Kec. Simboro Dan Kepulauan, Kabupaten Mamuju, Sulawesi Barat 91512","Unnamed Road, Rangas, Kec. Simboro Dan Kepulauan, Kabupaten Mamuju",SULAWESI BARAT,91512.0,Indonesia,,,,-2.6313428,118.8309641,https://maps.google.com/?cid=0x0:0xee16a74a28a2b40,
komplek housing,komplek housing,Sumare / dusun batulappa selatan,"8RX4+P8W, Sumare, Kec. Simboro Dan Kepulauan, Kabupaten Mamuju, Sulawesi Barat 91513","Sumare, Kec. Simboro Dan Kepulauan, Kabupaten Mamuju",SULAWESI BARAT,91513.0,Indonesia,,,,-2.6506422,118.8058336,https://maps.google.com/?cid=0x0:0x4292c0516cfdd207,
komplek housing,Komplek perumahan,Kelurahan Simboro Kecamatan Simboro,"8V69+GG8, Simboro, Kec. Simboro Dan Kepulauan, Kabupaten Mamuju, Sulawesi Barat 91512","Simboro, Kec. Simboro Dan Kepulauan, Kabupaten Mamuju",SULAWESI BARAT,91512.0,Indonesia,,,,-2.6887217,118.86883,https://maps.google.com/?cid=0x0:0xeb59f803ab86ee60,
komplek housing,Komplek perumahan,Tapandullu,"8Q9M+MXF, Tapandullu, Kec. Tapalang Bar., Kabupaten Mamuju, Sulawesi Barat","Kabupaten Mamuju, Sulawesi Barat",SULAWESI BARAT,,Indonesia,,,,-2.6808257,118.7849184,https://maps.google.com/?cid=0x0:0x4566445d9750ca10,
komplek housing,Perhimpunan Pengembang Perumahan,Rumah produksi abon ikan lopi biru 4,"8RX4+J77, Sumare, Kec. Simboro Dan Kepulauan, Kabupaten Mamuju, Sulawesi Barat","Kabupaten Mamuju, Sulawesi Barat",SULAWESI BARAT,,Indonesia,,,,-2.6509604,118.8056816,https://maps.google.com/?cid=0x0:0x59e32567284561a4,
komplek housing,Galangan Kapal,Pelabuhan simboro,"8VH8+3F6, Jl. Martadinata, Kabupaten Mamuju, Sulawesi Barat 91512","Jl. Martadinata, Kabupaten Mamuju",SULAWESI BARAT,91512.0,Indonesia,,,,-2.6725112,118.8660342,https://maps.google.com/?cid=0x0:0x95286e31b582055b,
komplek housing,komplek housing,Kec. Simboro Dan Kepulauan,"Kabupaten Mamuju, Sulawesi Barat","Kabupaten Mamuju, Sulawesi Barat",SULAWESI BARAT,,Indonesia,,,,-2.6886472,118.8687708,https://maps.google.com/?cid=0x0:0x690e32602d9f0e83,
komplek housing,Komplek perumahan,Perumahan TNI AL Simboro,"8VF8+GW6, Jl. Pelabuhan Penyeberangan Ferry, Simboro, Kec. Simboro Dan Kepulauan, Kabupaten Mamuju, Sulawesi Barat 91512","Jl. Pelabuhan Penyeberangan Ferry, Simboro, Kec. Simboro Dan Kepulauan, Kabupaten Mamuju",SULAWESI BARAT,91512.0,Indonesia,,,,-2.6762097,118.8672675,https://maps.google.com/?cid=0x0:0xda2fb5821ad75d8f,
komplek housing,Komplek perumahan,GRAHA NUSA 2 TAHAP 1,"8V98+GJM, Unnamed Road, Simboro, Kec. Simboro Dan Kepulauan, Kabupaten Mamuju, Sulawesi Barat 91512","Unnamed Road, Simboro, Kec. Simboro Dan Kepulauan, Kabupaten Mamuju",SULAWESI BARAT,91512.0,Indonesia,,,,-2.6811721,118.8665591,https://maps.google.com/?cid=0x0:0xc0664bafaef1838c,
komplek housing,Komplek perumahan,Graha Nusa 1,"8V88+PQP, Unnamed Road, Simboro, Kec. Simboro Dan Kepulauan, Kabupaten Mamuju, Sulawesi Barat 91512","Unnamed Road, Simboro, Kec. Simboro Dan Kepulauan, Kabupaten Mamuju",SULAWESI BARAT,91512.0,Indonesia,,,,-2.6831528,118.866938,https://maps.google.com/?cid=0x0:0x659c94765ef296c6,
komplek housing,Perhimpunan Pengembang Perumahan,Alamat Rumah,"8V68+88H, Jl. Martadinata, Simboro, Kec. Simboro Dan Kepulauan, Kabupaten Mamuju, Sulawesi Barat","Kabupaten Mamuju, Sulawesi Barat",SULAWESI BARAT,,Indonesia,,,,-2.6891766,118.8658553,https://maps.google.com/?cid=0x0:0x265229e067aab1a7,
komplek housing,,Perumahan griya utama residence pamombong,"7VW4+6P, Simboro, Kec. Simboro Dan Kepulauan, Kabupaten Mamuju, Sulawesi Barat 91512","Simboro, Kec. Simboro Dan Kepulauan, Kabupaten Mamuju",SULAWESI BARAT,91512.0,Indonesia,81355981349.0,,,-2.7043826,118.8568427,https://maps.google.com/?cid=0x0:0x9eeb09cf404d9666,
komplek housing,Perumahan,GRAHA NUSA 4,"8V98+2CC, Simboro, Kec. Simboro Dan Kepulauan, Kabupaten Mamuju, Sulawesi Barat 91512","Simboro, Kec. Simboro Dan Kepulauan, Kabupaten Mamuju",SULAWESI BARAT,91512.0,Indonesia,,,,-2.6824396,118.8660076,https://maps.google.com/?cid=0x0:0xf7b45135e61024ec,
komplek housing,Komplek perumahan,BLOK N15,"8V96+JM5 BTN Zarindah 5, Jl. Martadinata, Simboro, Kec. Simboro Dan Kepulauan, Kabupaten Mamuju, Sulawesi Barat 91512","Jl. Martadinata, Simboro, Kec. Simboro Dan Kepulauan, Kabupaten Mamuju",SULAWESI BARAT,91512.0,Indonesia,,,,-2.6809989,118.8617325,https://maps.google.com/?cid=0x0:0xb78c5fa7156b6a79,
komplek housing,Pembangunan Perumahan,Rumah Pribadiku,"BTN Puri Pesona Hijau Blok F No.5 Sese Bia, Rangas, Kec. Simboro Dan Kepulauan, Kabupaten Mamuju, Sulawesi Barat 91512","Rangas, Kec. Simboro Dan Kepulauan, Kabupaten Mamuju",SULAWESI BARAT,91512.0,Indonesia,,,,-2.6862936,118.8484351,https://maps.google.com/?cid=0x0:0xcfb0467e09885fa9,
komplek housing,Kantor Perusahaan,TPS 29 SIMBORO,"Perumahan Tambayako land, Jl. Martadinata, Simboro, Kec. Simboro Dan Kepulauan, Kabupaten Mamuju, Sulawesi Barat","Kabupaten Mamuju, Sulawesi Barat",SULAWESI BARAT,,Indonesia,,,,-2.684062,118.861402,https://maps.google.com/?cid=0x0:0xc18749944a680c43,
komplek housing,Komplek perumahan,Rumah,"8V98+QH5, BTN green Madani, Simboro, Kec. Simboro Dan Kepulauan, Kabupaten Mamuju, Sulawesi Barat","Kabupaten Mamuju, Sulawesi Barat",SULAWESI BARAT,,Indonesia,,,,-2.6806073,118.8664926,https://maps.google.com/?cid=0x0:0xb4bdc93d2874c2f0,
komplek housing,komplek housing,Kec. Tapalang,"Kabupaten Mamuju, Sulawesi Barat","Kabupaten Mamuju, Sulawesi Barat",SULAWESI BARAT,,Indonesia,,,,-2.8670322,118.8748621,https://maps.google.com/?cid=0x0:0x7352010099a68a2b,
komplek housing,Komplek perumahan,Elwika House,"4VR9+M2C, Galung, Kec. Tapalang, Kabupaten Mamuju, Sulawesi Barat 91352","Galung, Kec. Tapalang, Kabupaten Mamuju",SULAWESI BARAT,91352.0,Indonesia,,,,-2.8580355,118.8674615,https://maps.google.com/?cid=0x0:0x23070b96972ccb7b,
komplek housing,komplek housing,Sky home,"4RVJ+GX2, Pasabu, Kec. Tapalang Bar., Kabupaten Mamuju, Sulawesi Barat 91352","Pasabu, Kec. Tapalang Bar., Kabupaten Mamuju",SULAWESI BARAT,91352.0,Indonesia,,,,-2.8562848,118.8325647,https://maps.google.com/?cid=0x0:0xf58c3fc12e7dcfcd,
komplek housing,Binatu Cucian Kering,AISY BERKAH LAUNDRY,"4V9M+PHF, Kasambang, Kec. Tapalang, Kabupaten Mamuju, Sulawesi Barat 91352","Kasambang, Kec. Tapalang, Kabupaten Mamuju",SULAWESI BARAT,91352.0,Indonesia,81241644402.0,,,-2.8806682,118.883887,https://maps.google.com/?cid=0x0:0xeb613a67070c019,
komplek housing,Perhimpunan Pengembang Perumahan,Lawasan,"3VMM+93V, Jl. Poros Majene - Mamuju, Taan, Kec. Tapalang, Kabupaten Mamuju, Sulawesi Barat 91352","Jl. Poros Majene - Mamuju, Taan, Kec. Tapalang, Kabupaten Mamuju",SULAWESI BARAT,91352.0,Indonesia,,,,-2.9165114,118.882661,https://maps.google.com/?cid=0x0:0x186a31fc21a43244,
komplek housing,Komplek perumahan,RUMAH HAFIZ,"4VR9+W2C, Galung, Kec. Tapalang, Kabupaten Mamuju, Sulawesi Barat","Kabupaten Mamuju, Sulawesi Barat",SULAWESI BARAT,,Indonesia,,,,-2.8576869,118.8675257,https://maps.google.com/?cid=0x0:0xab14d3a916dd89a9,
komplek housing,Komplek perumahan,Tanah milik Bpk. Heru Sukarno,"4VP9+Q53, Galung, Kec. Tapalang, Kabupaten Mamuju, Sulawesi Barat 91352","Galung, Kec. Tapalang, Kabupaten Mamuju",SULAWESI BARAT,91352.0,Indonesia,,,,-2.8631244,118.8679347,https://maps.google.com/?cid=0x0:0xdf2224c87bde9ed9,
komplek housing,Komplek perumahan,RUMAH AZQA,"4VR9+M2C, Galung, Kec. Tapalang, Kabupaten Mamuju, Sulawesi Barat 91352","Galung, Kec. Tapalang, Kabupaten Mamuju",SULAWESI BARAT,91352.0,Indonesia,,,,-2.8587443,118.8677791,https://maps.google.com/?cid=0x0:0x2764c70f574cd3b4,
komplek housing,Pembangunan Perumahan,Garden 3 A,"3VQQ+V98, Taan, Kec. Tapalang, Kabupaten Mamuju, Sulawesi Barat","Kabupaten Mamuju, Sulawesi Barat",SULAWESI BARAT,,Indonesia,,,,-2.9103365,118.8884556,https://maps.google.com/?cid=0x0:0xf89fb67678ee5cd5,
komplek housing,Komplek perumahan,Rumah alwi,"4VRF+W4W, Galung, Kec. Tapalang, Kabupaten Mamuju, Sulawesi Barat 91352","Galung, Kec. Tapalang, Kabupaten Mamuju",SULAWESI BARAT,91352.0,Indonesia,,,,-2.857693,118.8727987,https://maps.google.com/?cid=0x0:0xdc00ce84546fd8d8,
komplek housing,Komplek perumahan,Rumahku,"3VRP+68V, Taan, Kec. Tapalang, Kabupaten Mamuju, Sulawesi Barat 91352","Taan, Kec. Tapalang, Kabupaten Mamuju",SULAWESI BARAT,91352.0,Indonesia,,,,-2.9091766,118.8857117,https://maps.google.com/?cid=0x0:0xd05e2f2414b4031f,
komplek housing,Perhimpunan Pengembang Perumahan,Wilaya aswan,"4V7P+4J8, Jl. Poros Majene - Mamuju, Kasambang, Kec. Tapalang, Kabupaten Mamuju, Sulawesi Barat 91352","Jl. Poros Majene - Mamuju, Kasambang, Kec. Tapalang, Kabupaten Mamuju",SULAWESI BARAT,91352.0,Indonesia,,,,-2.8876538,118.887297,https://maps.google.com/?cid=0x0:0x8b1c6c114b6bf29c,
komplek housing,Pembangunan Perumahan,Galung Daala,"5WHF+7GC, Galung, Kec. Tapalang, Kabupaten Mamuju, Sulawesi Barat 91352","Galung, Kec. Tapalang, Kabupaten Mamuju",SULAWESI BARAT,91352.0,Indonesia,82284639065.0,,,-2.8218234,118.9237505,https://maps.google.com/?cid=0x0:0x37bb04bbda8172a1,
komplek housing,Komplek perumahan,RUMAH PANJI PEMBINA PRAMUKA,"4V6P+CQ4, Kasambang, Kec. Tapalang, Kabupaten Mamuju, Sulawesi Barat","Kabupaten Mamuju, Sulawesi Barat",SULAWESI BARAT,,Indonesia,81245290647.0,,,-2.8889795,118.8869393,https://maps.google.com/?cid=0x0:0xab62a0207f7a3c3e,
komplek housing,Komplek perumahan,Rumah Hasanuddin,"4V6P+6QV, Lingkungan marurinding, Kasambang, Kec. Tapalang, Kabupaten Mamuju, Sulawesi Barat 91352","Lingkungan marurinding, Kasambang, Kec. Tapalang, Kabupaten Mamuju",SULAWESI BARAT,91352.0,Indonesia,,,,-2.8893893,118.8869243,https://maps.google.com/?cid=0x0:0x794c8c74d990c3cd,
komplek housing,Komplek perumahan,Home Jamaluddin,"4RWM+6X7, Pasabu, Kec. Tapalang Bar., Kabupaten Mamuju, Sulawesi Barat","Kabupaten Mamuju, Sulawesi Barat",SULAWESI BARAT,,Indonesia,,,,-2.8545026,118.8350133,https://maps.google.com/?cid=0x0:0x13803d0d1522b271,
komplek housing,Komplek perumahan,Farid,"4VP9+9FF, Jl. Poros Majene - Mamuju, Galung, Kec. Tapalang, Kabupaten Mamuju, Sulawesi Barat 91352","Jl. Poros Majene - Mamuju, Galung, Kec. Tapalang, Kabupaten Mamuju",SULAWESI BARAT,91352.0,Indonesia,,,,-2.8639052,118.868676,https://maps.google.com/?cid=0x0:0x12c79e411d98b5bb,
komplek housing,Pembangunan Perumahan,Muh. Arsyad - alm. Justia,"4V8P+34G Ling, tengah, Kasambang, Kec. Tapalang Bar., Kabupaten Mamuju, Sulawesi Barat 91352","tengah, Kasambang, Kec. Tapalang Bar., Kabupaten Mamuju",SULAWESI BARAT,91352.0,Indonesia,,,,-2.8848228,118.8853204,https://maps.google.com/?cid=0x0:0x413d06b16711b3ee,
komplek housing,Komplek perumahan,Pikri,"Jl. Poros Majene - Mamuju No.346, Kasambang, Kec. Tapalang, Kabupaten Mamuju, Sulawesi Barat 91352","Kasambang, Kec. Tapalang, Kabupaten Mamuju",SULAWESI BARAT,91352.0,Indonesia,,,,-2.8843247,118.8864026,https://maps.google.com/?cid=0x0:0xea58b2b65f9e9382,
komplek housing,Komplek perumahan,RUMAH AGHNIA M.I  AFINI A.M.I,"Jl. Poros Majene - Mamuju No.346, Kasambang, Kec. Tapalang, Kabupaten Mamuju, Sulawesi Barat 91352","Kasambang, Kec. Tapalang, Kabupaten Mamuju",SULAWESI BARAT,91352.0,Indonesia,,,,-2.8867919,118.8864492,https://maps.google.com/?cid=0x0:0xcaf353df516d9502,
komplek housing,Komplek perumahan,Firas Alrasyid,"4VP9+9FF, Jl. Poros Majene - Mamuju, Galung, Kec. Tapalang, Kabupaten Mamuju, Sulawesi Barat 91352","Jl. Poros Majene - Mamuju, Galung, Kec. Tapalang, Kabupaten Mamuju",SULAWESI BARAT,91352.0,Indonesia,,,,-2.8637472,118.868934,https://maps.google.com/?cid=0x0:0x8da5b7140390884e,
komplek housing,Pembangunan Perumahan,Ikram,"4RWG+W36, Pasabu, Kec. Tapalang Bar., Kabupaten Mamuju, Sulawesi Barat 91352","Pasabu, Kec. Tapalang Bar., Kabupaten Mamuju",SULAWESI BARAT,91352.0,Indonesia,,,,-2.8533243,118.8259082,https://maps.google.com/?cid=0x0:0x368115c88a64300d,
komplek housing,Komplek perumahan,ALFAN-ANNISA-AFDHALUL HOME,"5V65+J43, Orobatu, Kec. Tapalang, Kabupaten Mamuju, Sulawesi Barat 91352","Orobatu, Kec. Tapalang, Kabupaten Mamuju",SULAWESI BARAT,91352.0,Indonesia,,,,-2.8381008,118.8577624,https://maps.google.com/?cid=0x0:0x2ac8807e18c71560,
komplek housing,Perhimpunan Pengembang Perumahan,Kompleks Karangamatti Permai,"4V6P+GVG, Kasambang, Kec. Tapalang, Kabupaten Mamuju, Sulawesi Barat 91352","Kasambang, Kec. Tapalang, Kabupaten Mamuju",SULAWESI BARAT,91352.0,Indonesia,,,,-2.8886925,118.8871913,https://maps.google.com/?cid=0x0:0x24cf913b54705e7b,
komplek housing,Komplek perumahan,Izzah,"4RXM+42F, Pasabu, Kec. Tapalang Bar., Kabupaten Mamuju, Sulawesi Barat 91352","Pasabu, Kec. Tapalang Bar., Kabupaten Mamuju",SULAWESI BARAT,91352.0,Indonesia,,,,-2.8521928,118.832556,https://maps.google.com/?cid=0x0:0x8c2c9cdbc07596b2,
komplek housing,komplek housing,Kec. Tapalang Bar.,"Kabupaten Mamuju, Sulawesi Barat","Kabupaten Mamuju, Sulawesi Barat",SULAWESI BARAT,,Indonesia,,,,-2.8544488,118.8344475,https://maps.google.com/?cid=0x0:0x399150dc9ea10ec1,
komplek housing,komplek housing,Sky home,"4RVJ+GX2, Pasabu, Kec. Tapalang Bar., Kabupaten Mamuju, Sulawesi Barat 91352","Pasabu, Kec. Tapalang Bar., Kabupaten Mamuju",SULAWESI BARAT,91352.0,Indonesia,,,,-2.8562848,118.8325647,https://maps.google.com/?cid=0x0:0xf58c3fc12e7dcfcd,
komplek housing,Pembangunan Perumahan,Ikram,"4RWG+W36, Pasabu, Kec. Tapalang Bar., Kabupaten Mamuju, Sulawesi Barat 91352","Pasabu, Kec. Tapalang Bar., Kabupaten Mamuju",SULAWESI BARAT,91352.0,Indonesia,,,,-2.8533243,118.8259082,https://maps.google.com/?cid=0x0:0x368115c88a64300d,
komplek housing,Komplek perumahan,Home Jamaluddin,"4RWM+6X7, Pasabu, Kec. Tapalang Bar., Kabupaten Mamuju, Sulawesi Barat","Kabupaten Mamuju, Sulawesi Barat",SULAWESI BARAT,,Indonesia,,,,-2.8545026,118.8350133,https://maps.google.com/?cid=0x0:0x13803d0d1522b271,
komplek housing,Komplek perumahan,Izzah,"4RXM+42F, Pasabu, Kec. Tapalang Bar., Kabupaten Mamuju, Sulawesi Barat 91352","Pasabu, Kec. Tapalang Bar., Kabupaten Mamuju",SULAWESI BARAT,91352.0,Indonesia,,,,-2.8521928,118.832556,https://maps.google.com/?cid=0x0:0x8c2c9cdbc07596b2,
komplek housing,Komplek perumahan,JAMIL,"6Q37+G8, Labuang Rano, Kec. Tapalang Bar., Kabupaten Mamuju, Sulawesi Barat","Kabupaten Mamuju, Sulawesi Barat",SULAWESI BARAT,,Indonesia,,,,-2.7958045,118.7632075,https://maps.google.com/?cid=0x0:0x9cf6c0b8b6f46f3d,
komplek housing,Komplek perumahan,Khusnul,"5QW7+6F, Labuang Rano, Kec. Tapalang Bar., Kabupaten Mamuju, Sulawesi Barat","Kabupaten Mamuju, Sulawesi Barat",SULAWESI BARAT,,Indonesia,,,,-2.80445,118.7636598,https://maps.google.com/?cid=0x0:0xd006a4b9cf5fc945,
komplek housing,Komplek perumahan,Salunipa,"6QXG+FWQ, Lebani, Kec. Tapalang Bar., Kabupaten Mamuju, Sulawesi Barat 91352","Lebani, Kec. Tapalang Bar., Kabupaten Mamuju",SULAWESI BARAT,91352.0,Indonesia,,,,-2.7513137,118.777345,https://maps.google.com/?cid=0x0:0x1eafca87b79df79e,
komplek housing,Komplek perumahan,Talaja,"6Q7J+28, Labuang Rano, Kec. Tapalang Bar., Kabupaten Mamuju, Sulawesi Barat","Kabupaten Mamuju, Sulawesi Barat",SULAWESI BARAT,,Indonesia,,,,-2.787449,118.780808,https://maps.google.com/?cid=0x0:0x79b13f25563c8b38,
komplek housing,Komplek perumahan,ALFAN-ANNISA-AFDHALUL HOME,"5V65+J43, Orobatu, Kec. Tapalang, Kabupaten Mamuju, Sulawesi Barat 91352","Orobatu, Kec. Tapalang, Kabupaten Mamuju",SULAWESI BARAT,91352.0,Indonesia,,,,-2.8381008,118.8577624,https://maps.google.com/?cid=0x0:0x2ac8807e18c71560,
komplek housing,Komplek perumahan,Rumah JAINAL,"5QWG+M2, Labuang Rano, Kec. Tapalang Bar., Kabupaten Mamuju, Sulawesi Barat","Kabupaten Mamuju, Sulawesi Barat",SULAWESI BARAT,,Indonesia,,,,-2.8033048,118.7750672,https://maps.google.com/?cid=0x0:0xb8c765faee7494ab,
komplek housing,komplek housing,Rumah Asriani Rahayu (Ayu),"5QV9+M56, Labuang Rano, Kec. Tapalang Bar., Kabupaten Mamuju, Sulawesi Barat 91352","Labuang Rano, Kec. Tapalang Bar., Kabupaten Mamuju",SULAWESI BARAT,91352.0,Indonesia,,,,-2.8051506,118.76777,https://maps.google.com/?cid=0x0:0x959c1294d96ff7fc,
komplek housing,Komplek perumahan,Sukma,"6QXG+FWQ, Lebani, Kec. Tapalang Bar., Kabupaten Mamuju, Sulawesi Barat 91352","Lebani, Kec. Tapalang Bar., Kabupaten Mamuju",SULAWESI BARAT,91352.0,Indonesia,,,,-2.7512416,118.7778205,https://maps.google.com/?cid=0x0:0xb140f5ddd818ab0a,
komplek housing,Apartemen sewa liburan,Rumah Asraf,"6QM6+7CG, Lebani, Kec. Tapalang Bar., Kabupaten Mamuju, Sulawesi Barat 91352","Lebani, Kec. Tapalang Bar., Kabupaten Mamuju",SULAWESI BARAT,91352.0,Indonesia,,,,-2.766489,118.760901,https://maps.google.com/?cid=0x0:0x8ffe01d93f29d373,
komplek housing,Komplek perumahan,DUSUN TAPANGKANG,"6QM6+664, Dusun Tapangkang, Labuang Rano, Kec. Tapalang Bar., Kabupaten Mamuju, Sulawesi Barat","Kabupaten Mamuju, Sulawesi Barat",SULAWESI BARAT,,Indonesia,,,,-2.7669787,118.760588,https://maps.google.com/?cid=0x0:0x87b5cec77efd0c6b,
komplek housing,Pembangunan Perumahan,Rumah hubbul wathan,"4RWH+F84, Pasabu, Kec. Tapalang Bar., Kabupaten Mamuju, Sulawesi Barat","Kabupaten Mamuju, Sulawesi Barat",SULAWESI BARAT,,Indonesia,,,,-2.8538649,118.8283415,https://maps.google.com/?cid=0x0:0x5156447a15f0d49c,
komplek housing,Komplek perumahan,RUMAH AZQA,"4VR9+M2C, Galung, Kec. Tapalang, Kabupaten Mamuju, Sulawesi Barat 91352","Galung, Kec. Tapalang, Kabupaten Mamuju",SULAWESI BARAT,91352.0,Indonesia,,,,-2.8587443,118.8677791,https://maps.google.com/?cid=0x0:0x2764c70f574cd3b4,
komplek housing,Komplek perumahan,Perumahan gunung jati,"4RXJ+7P8, Pasabu, Kec. Tapalang Bar., Kabupaten Mamuju, Sulawesi Barat","Kabupaten Mamuju, Sulawesi Barat",SULAWESI BARAT,,Indonesia,,,,-2.8518352,118.8318194,https://maps.google.com/?cid=0x0:0xb5a8f3353060a466,
komplek housing,Komplek perumahan,Tapandullu,"8Q9M+MXF, Tapandullu, Kec. Tapalang Bar., Kabupaten Mamuju, Sulawesi Barat","Kabupaten Mamuju, Sulawesi Barat",SULAWESI BARAT,,Indonesia,,,,-2.6808257,118.7849184,https://maps.google.com/?cid=0x0:0x4566445d9750ca10,
komplek housing,Komplek perumahan,Rumah ramlah,"5QV9+M56, Labuang Rano, Kec. Tapalang Bar., Kabupaten Mamuju, Sulawesi Barat 91352","Labuang Rano, Kec. Tapalang Bar., Kabupaten Mamuju",SULAWESI BARAT,91352.0,Indonesia,,,,-2.8055253,118.7675725,https://maps.google.com/?cid=0x0:0xac90e7726463012a,
komplek housing,komplek housing,Perumahan Bukit Safa Madani Blok D2,"8RGW+MHP, Jl. Abdul Malik Pattana Endeng, Rangas, Kec. Simboro Dan Kepulauan, Kabupaten Mamuju, Sulawesi Barat","Kabupaten Mamuju, Sulawesi Barat",SULAWESI BARAT,,Indonesia,,,,-2.6732875,118.8464411,https://maps.google.com/?cid=0x0:0x16f440c3331facd3,
komplek housing,Komplek perumahan,Perumahan Bukit Tambayako Permai (BTP Residence),"Jl. Mustafa Daeng Sirua, Simboro, Kec. Simboro Dan Kepulauan, Kabupaten Mamuju, Sulawesi Barat 91512","Simboro, Kec. Simboro Dan Kepulauan, Kabupaten Mamuju",SULAWESI BARAT,91512.0,Indonesia,81243222286.0,,,-2.6849375,118.8556875,https://maps.google.com/?cid=0x0:0x39a07fc870a2b5a8,
komplek housing,Komplek perumahan,Rumah nenek,"6QP6+255, tapangkang, Kec. Tapalang Bar., Kabupaten Mamuju, Sulawesi Barat 91352","tapangkang, Kec. Tapalang Bar., Kabupaten Mamuju",SULAWESI BARAT,91352.0,Indonesia,,,,-2.7649875,118.7604844,https://maps.google.com/?cid=0x0:0x8d26e66f54f10d7b,
komplek housing,Komplek perumahan,Inayah,"4QWJ+MJC, Unnamed Road, Dungkait, Kec. Tapalang Bar., Kabupaten Mamuju, Sulawesi Barat 91352","Unnamed Road, Dungkait, Kec. Tapalang Bar., Kabupaten Mamuju",SULAWESI BARAT,91352.0,Indonesia,,,,-2.853318,118.781509,https://maps.google.com/?cid=0x0:0xcc477f69fd0a5be6,
komplek housing,Toko Pakaian,Rumah Wywy,"5R4X+6FC, Orobatu, Kec. Tapalang, Kabupaten Mamuju, Sulawesi Barat 91352","Orobatu, Kec. Tapalang, Kabupaten Mamuju",SULAWESI BARAT,91352.0,Indonesia,,,,-2.8444486,118.8486545,https://maps.google.com/?cid=0x0:0x5812553f760f7b9a,
komplek housing,komplek housing,Ampera,"6QRM+HVQ, Lebani, Kec. Tapalang Bar., Kabupaten Mamuju, Sulawesi Barat","Kabupaten Mamuju, Sulawesi Barat",SULAWESI BARAT,,Indonesia,,,,-2.7585375,118.784749,https://maps.google.com/?cid=0x0:0xaeb795980329b3d3,
komplek housing,Pembangunan Perumahan,Walet azmi,"5R8J+P6M, Pasabu, Kec. Tapalang Bar., Kabupaten Mamuju, Sulawesi Barat 91352","Pasabu, Kec. Tapalang Bar., Kabupaten Mamuju",SULAWESI BARAT,91352.0,Indonesia,,,,-2.8331643,118.8305489,https://maps.google.com/?cid=0x0:0x3a2e0b5fc903424a,
komplek housing,Komplek perumahan,Rumah alwi,"4VRF+W4W, Galung, Kec. Tapalang, Kabupaten Mamuju, Sulawesi Barat 91352","Galung, Kec. Tapalang, Kabupaten Mamuju",SULAWESI BARAT,91352.0,Indonesia,,,,-2.857693,118.8727987,https://maps.google.com/?cid=0x0:0xdc00ce84546fd8d8,
komplek housing,Pembangunan Perumahan,Tapalang,"3VVR+F5M, Taan, Kec. Tapalang, Kabupaten Mamuju, Sulawesi Barat 91352","Taan, Kec. Tapalang, Kabupaten Mamuju",SULAWESI BARAT,91352.0,Indonesia,,,,-2.9060822,118.8918043,https://maps.google.com/?cid=0x0:0xd9d7bfe476bff048,
komplek housing,komplek housing,Tommo,"Kec. Tommo, Kabupaten Mamuju, Sulawesi Barat","Kabupaten Mamuju, Sulawesi Barat",SULAWESI BARAT,,Indonesia,,,,-2.2941884,119.2437011,https://maps.google.com/?cid=0x0:0x502d34d075f4f7b1,
komplek housing,Komplek perumahan,Rumah Salim,"P65W+96P, Tommo, Kec. Tommo, Kabupaten Mamuju, Sulawesi Barat 91562","Tommo, Kec. Tommo, Kabupaten Mamuju",SULAWESI BARAT,91562.0,Indonesia,,,,-2.2915406,119.2455847,https://maps.google.com/?cid=0x0:0xe5eb72e4ec1bc94d,
komplek housing,Komplek perumahan,Mang Sergog,"P6CR+XMP, Tommo, Kec. Tommo, Kabupaten Mamuju, Sulawesi Barat 91562","Tommo, Kec. Tommo, Kabupaten Mamuju",SULAWESI BARAT,91562.0,Indonesia,,,,-2.2775355,119.2416958,https://maps.google.com/?cid=0x0:0xd6f77d3a6edb3dfc,
komplek housing,Komplek perumahan,Rumah alit jhi,"P66W+X9R, Tommo, Kec. Tommo, Kabupaten Mamuju, Sulawesi Barat 91562","Tommo, Kec. Tommo, Kabupaten Mamuju",SULAWESI BARAT,91562.0,Indonesia,,,,-2.2890713,119.2450801,https://maps.google.com/?cid=0x0:0x1ff8166aa32ed0e8,
komplek housing,Pembangunan Perumahan,Rumah gusti putra,"P6CR+PMV, Tommo, Kec. Tommo, Kabupaten Mamuju, Sulawesi Barat 91562","Tommo, Kec. Tommo, Kabupaten Mamuju",SULAWESI BARAT,91562.0,Indonesia,,,,-2.2772545,119.2419962,https://maps.google.com/?cid=0x0:0x10be04e384b2c649,
komplek housing,Komplek perumahan,Dalle,"P65Q+VWG, Tommo, Kec. Tommo, Kabupaten Mamuju, Sulawesi Barat 91562","Tommo, Kec. Tommo, Kabupaten Mamuju",SULAWESI BARAT,91562.0,Indonesia,,,,-2.290323,119.2398282,https://maps.google.com/?cid=0x0:0x7792c4c6fccc3d4b,
komplek housing,Pembangunan Perumahan,Jodiana,"P6CR+PMV, Tommo, Kec. Tommo, Kabupaten Mamuju, Sulawesi Barat 91562","Tommo, Kec. Tommo, Kabupaten Mamuju",SULAWESI BARAT,91562.0,Indonesia,,,,-2.2781417,119.2416583,https://maps.google.com/?cid=0x0:0xe58fc704dba17f33,
komplek housing,Komplek perumahan,Ayu puspa wati (Tuety),"P69W+RF6, Tommo, Kec. Tommo, Kabupaten Mamuju, Sulawesi Barat 91562","Tommo, Kec. Tommo, Kabupaten Mamuju",SULAWESI BARAT,91562.0,Indonesia,,,,-2.2804722,119.2461288,https://maps.google.com/?cid=0x0:0xc460077b6d23b03b,
komplek housing,Perhimpunan Pengembang Perumahan,Wayan NATA,"P69W+JM9, Tommo, Kec. Tommo, Kabupaten Mamuju, Sulawesi Barat 91562","Tommo, Kec. Tommo, Kabupaten Mamuju",SULAWESI BARAT,91562.0,Indonesia,,,,-2.2806458,119.2457741,https://maps.google.com/?cid=0x0:0x66b015488c973be1,
komplek housing,Komplek perumahan,Husen home,"P6VR+HX8, Kuo, Kec. Pangale, Kabupaten Mamuju, Sulawesi Barat 91562","Kuo, Kec. Pangale, Kabupaten Mamuju",SULAWESI BARAT,91562.0,Indonesia,,,,-2.2560903,119.2424656,https://maps.google.com/?cid=0x0:0xdebb916f5d57c217,
komplek housing,Komplek perumahan,Lombok timur,"P748+89X, Buana Sakti, Kec. Tommo, Kabupaten Mamuju, Sulawesi Barat 91562","Buana Sakti, Kec. Tommo, Kabupaten Mamuju",SULAWESI BARAT,91562.0,Indonesia,,,,-2.2941458,119.2659904,https://maps.google.com/?cid=0x0:0xed9a966392b68534,
komplek housing,Komplek perumahan,CeceRach,"P63W+QXF, Tommo, Kec. Tommo, Kabupaten Mamuju, Sulawesi Barat 91562","Tommo, Kec. Tommo, Kabupaten Mamuju",SULAWESI BARAT,91562.0,Indonesia,,,,-2.2955744,119.2474344,https://maps.google.com/?cid=0x0:0xed12942a9a690fcd,
komplek housing,Komplek perumahan,Wisnu/deni,"P6CQ+FX9, Dsn.taman sari, Tommo, Kec. Tommo, Kabupaten Mamuju, Sulawesi Barat rt03","Kabupaten Mamuju, Sulawesi Barat",SULAWESI BARAT,,Indonesia,,,,-2.2788427,119.2399843,https://maps.google.com/?cid=0x0:0xb595c8272d4b56c9,
komplek housing,Komplek perumahan,wira,"P6CQ+WV3, Tommo, Kec. Tommo, Kabupaten Mamuju, Sulawesi Barat 91562","Tommo, Kec. Tommo, Kabupaten Mamuju",SULAWESI BARAT,91562.0,Indonesia,,,,-2.2777471,119.2396796,https://maps.google.com/?cid=0x0:0xab9e271dbe1c7576,
komplek housing,Komplek perumahan,Rumah Fitriyani Agus,"P67X+G83, Tommo, Kec. Tommo, Kabupaten Mamuju, Sulawesi Barat 91562","Tommo, Kec. Tommo, Kabupaten Mamuju",SULAWESI BARAT,91562.0,Indonesia,,,,-2.2862375,119.2482969,https://maps.google.com/?cid=0x0:0x358d788139893a82,
komplek housing,Komplek perumahan,Sukurencana Home,"lorong 7 No.1, Tommo, Kec. Tommo, Kabupaten Mamuju, Sulawesi Barat 91562","Tommo, Kec. Tommo, Kabupaten Mamuju",SULAWESI BARAT,91562.0,Indonesia,,,,-2.2791283,119.2460999,https://maps.google.com/?cid=0x0:0xfd5023ace2264a2f,
komplek housing,Komplek perumahan,ALYEZA,"P69V+RVP, Tommo, Kec. Tommo, Kabupaten Mamuju, Sulawesi Barat 91562","Tommo, Kec. Tommo, Kabupaten Mamuju",SULAWESI BARAT,91562.0,Indonesia,,,,-2.2804002,119.2447099,https://maps.google.com/?cid=0x0:0x775dc345f1e96b11,
komplek housing,Komplek perumahan,Rumah Vika Nahla,"P64V+8FG, Tommo, Kec. Tommo, Kabupaten Mamuju, Sulawesi Barat 91562","Tommo, Kec. Tommo, Kabupaten Mamuju",SULAWESI BARAT,91562.0,Indonesia,,,,-2.2941884,119.2437011,https://maps.google.com/?cid=0x0:0xf4e7be29d799ab00,
komplek housing,Komplek perumahan,PUTU KARDA,"P6FQ+7WJ Lorong 2, Dusun taman sari, Tommo, Kec. Tommo, Kabupaten Mamuju, Sulawesi Barat 91562","Dusun taman sari, Tommo, Kec. Tommo, Kabupaten Mamuju",SULAWESI BARAT,91562.0,Indonesia,,,,-2.2767865,119.2397673,https://maps.google.com/?cid=0x0:0xd43d149b8a683c75,
komplek housing,Komplek perumahan,rainan gumi,"P6FR+3Q6, Tommo, Kec. Tommo, Kabupaten Mamuju, Sulawesi Barat 91562","Tommo, Kec. Tommo, Kabupaten Mamuju",SULAWESI BARAT,91562.0,Indonesia,,,,-2.2773323,119.2418832,https://maps.google.com/?cid=0x0:0x4b5575423c0f19e2,
komplek housing,Pembangunan Perumahan,Lokasi 2,"P6VQ+V56, Kuo, Kec. Pangale, Kabupaten Mamuju Tengah, Sulawesi Barat","Kabupaten Mamuju Tengah, Sulawesi Barat",SULAWESI BARAT,,Indonesia,,,,-2.2553412,119.2378899,https://maps.google.com/?cid=0x0:0x592acad539816420,
komplek housing,Komplek perumahan,Pondok Gede Housing II,"Housing II, Jl. Raya Hankam, RT.001/RW.004, Jatirahayu, Pondok Gede, Bekasi, West Java","Kota Bks, Jawa Barat",SULAWESI BARAT,,Indonesia,,,,-6.2876701,106.9147674,https://maps.google.com/?cid=0x0:0x2a52e601c20d18f2,
komplek housing,Komplek perumahan,Rumah OKTO,"Jl. Gamprit IV No.18, RT.005/RW.014, Jatiwaringin, Kec. Pd. Gede, Kota Bks, Jawa Barat 17411","RT.005/RW.014, Jatiwaringin, Kec. Pd. Gede, Kota Bks",SULAWESI BARAT,17411.0,Indonesia,,,,-6.2764991,106.9182372,https://maps.google.com/?cid=0x0:0x6a3369ba7f005409,
perumahan,perumahan,Sulawesi Barat 91562,"Kabupaten Mamuju, Sulawesi Barat","Kabupaten Mamuju, Sulawesi Barat",SULAWESI BARAT,,Indonesia,,,,-2.4874603,119.5107708,https://maps.google.com/?cid=0x0:0xaf7e6391455a9f6e,
perumahan,Perumahan,Btn Axuri,"8V9M+X54, Binanga, Kec. Mamuju, Kabupaten Mamuju, Sulawesi Barat 91511","Binanga, Kec. Mamuju, Kabupaten Mamuju",SULAWESI BARAT,91511.0,Indonesia,,,,-2.6801183,118.8829661,https://maps.google.com/?cid=0x0:0x182e5c38b994089f,
perumahan,Kantor Perusahaan,Perumahan Axuri,"8V9M+3JF, Jl. Pongtiku, Rimuku, Kec. Mamuju, Kabupaten Mamuju, Sulawesi Barat 91511","Jl. Pongtiku, Rimuku, Kec. Mamuju, Kabupaten Mamuju",SULAWESI BARAT,91511.0,Indonesia,,,,-2.6823051,118.8840414,https://maps.google.com/?cid=0x0:0xb33fcf5daa946e4,
perumahan,Perumahan,"Sarurru, Desa Bonehau","Banuada, Kec. Bonehau, Kabupaten Mamuju, Sulawesi Barat 91562","Kec. Bonehau, Kabupaten Mamuju",SULAWESI BARAT,91562.0,Indonesia,,,,-2.6314721,119.3250317,https://maps.google.com/?cid=0x0:0x5f8e9f3a686eef60,
perumahan,Perumahan,Lattibung.desa Bonehau,"C7XV+M7V, Jl. Poros Salubatu, Bonehau, Kec. Bonehau, Kabupaten Mamuju, Sulawesi Barat 91562","Jl. Poros Salubatu, Bonehau, Kec. Bonehau, Kabupaten Mamuju",SULAWESI BARAT,91562.0,Indonesia,,,,-2.5507703,119.2931791,https://maps.google.com/?cid=0x0:0x6cd89ed759a68c04,
perumahan,Rumah wisata,Rumah Benni Tanduli,"F8XW+HC5, Bonehau, Kec. Bonehau, Kabupaten Mamuju, Sulawesi Barat","Kabupaten Mamuju, Sulawesi Barat",SULAWESI BARAT,,Indonesia,,,,-2.5014161,119.3457,https://maps.google.com/?cid=0x0:0x280d4ca84585c704,
perumahan,Komplek perumahan,Mamat Regas,"G8JX+XX, Bonehau, Kec. Bonehau, Kabupaten Mamuju, Sulawesi Barat 91562","Bonehau, Kec. Bonehau, Kabupaten Mamuju",SULAWESI BARAT,91562.0,Indonesia,,,,-2.4675719,119.3499967,https://maps.google.com/?cid=0x0:0x9461aa168ec41a35,
perumahan,Komplek perumahan,Rumah Yohan Kalipung,"F8XW+PJJ, Dusun Pabettengan, Bonehau, Kec. Bonehau, Kabupaten Mamuju, Sulawesi Barat 91562","Dusun Pabettengan, Bonehau, Kec. Bonehau, Kabupaten Mamuju",SULAWESI BARAT,91562.0,Indonesia,81243990225.0,,,-2.500655,119.3465183,https://maps.google.com/?cid=0x0:0x5da18aa9a74bed15,
perumahan,Pembangunan Perumahan,RUMAH IPEN,"97V4+M6, Banuada, Kec. Bonehau, Kabupaten Mamuju, Sulawesi Barat 91562","Banuada, Kec. Bonehau, Kabupaten Mamuju",SULAWESI BARAT,91562.0,Indonesia,,,,-2.6062462,119.2554127,https://maps.google.com/?cid=0x0:0xb839133a59610581,
perumahan,Sekolah Menengah Pertama,"Ende-ende, desa buttuada, kecamatan bonehau","85VP+HR, Buttuada, Kec. Bonehau, Kabupaten Mamuju, Sulawesi Barat 91562","Buttuada, Kec. Bonehau, Kabupaten Mamuju",SULAWESI BARAT,91562.0,Indonesia,,,,-2.6560619,119.1870046,https://maps.google.com/?cid=0x0:0x571ca4c36ff4a62f,
perumahan,Komplek perumahan,Panipu,"G85G+52V, Tamalea, Kec. Bonehau, Kabupaten Mamuju, Sulawesi Barat 91562","Tamalea, Kec. Bonehau, Kabupaten Mamuju",SULAWESI BARAT,91562.0,Indonesia,,,,-2.4920057,119.3250347,https://maps.google.com/?cid=0x0:0xda57b8349e3151db,
perumahan,Komplek perumahan,Rumah Jamuan drawan. ( Wawan),"C74R+HF5, Kinatang, Kec. Bonehau, Kabupaten Mamuju, Sulawesi Barat 91562","Kinatang, Kec. Bonehau, Kabupaten Mamuju",SULAWESI BARAT,91562.0,Indonesia,,,,-2.5941026,119.2913619,https://maps.google.com/?cid=0x0:0xdb1edc19dd357848,
perumahan,Komplek perumahan,Saluaho,"C7WQ+RPM, Bonehau, Kec. Bonehau, Kabupaten Mamuju, Sulawesi Barat 91562","Bonehau, Kec. Bonehau, Kabupaten Mamuju",SULAWESI BARAT,91562.0,Indonesia,,,,-2.5533192,119.2912047,https://maps.google.com/?cid=0x0:0xca84dddfcf3ce8c8,
perumahan,Perumahan,Salu Mayang,"C948+P6F, Kinatang, Kec. Bonehau, Kabupaten Mamuju, Sulawesi Barat 91562","Kinatang, Kec. Bonehau, Kabupaten Mamuju",SULAWESI BARAT,91562.0,Indonesia,,,,-2.5931903,119.3655428,https://maps.google.com/?cid=0x0:0x9588ef2483da38ba,
perumahan,Komplek perumahan,Petani Mudah,"G9HW+FF4, Dusun Dengen, Mappu, Kec. Bonehau, Kabupaten Mamuju, Sulawesi Barat","Kabupaten Mamuju, Sulawesi Barat",SULAWESI BARAT,,Indonesia,,,,-2.4713555,119.3962176,https://maps.google.com/?cid=0x0:0x81eedfcd4994022f,
perumahan,Pembangunan Perumahan,Rumah,"BTN MASPUL, Blk. F1 No.1, Tamalea, Kec. Bonehau, Kabupaten Mamuju, Sulawesi Barat 91562","Blk. F1 No.1, Tamalea, Kec. Bonehau, Kabupaten Mamuju",SULAWESI BARAT,91562.0,Indonesia,,,,-2.4920057,119.3250347,https://maps.google.com/?cid=0x0:0xa0bb2afd814a4781,
perumahan,Komplek perumahan,Rumah sekdes banuada,"96QV+GV8, Banuada, Kec. Bonehau, Kabupaten Mamuju, Sulawesi Barat 91562","Banuada, Kec. Bonehau, Kabupaten Mamuju",SULAWESI BARAT,91562.0,Indonesia,,,,-2.6110862,119.2449966,https://maps.google.com/?cid=0x0:0x97292541b2b009e0,
perumahan,Pembangunan Perumahan,Rumah Papa Ima,"G86M+WM, Tamalea, Kec. Bonehau, Kabupaten Mamuju, Sulawesi Barat","Kabupaten Mamuju, Sulawesi Barat",SULAWESI BARAT,,Indonesia,,,,-2.4877563,119.3341231,https://maps.google.com/?cid=0x0:0x3df9f1a841d4c4f2,
perumahan,Perhimpunan Pengembang Perumahan,Zepnat. A,"G9HV+MW9, Mappu, Kec. Bonehau, Kabupaten Mamuju, Sulawesi Barat 91562","Mappu, Kec. Bonehau, Kabupaten Mamuju",SULAWESI BARAT,91562.0,Indonesia,,,,-2.4708448,119.3948634,https://maps.google.com/?cid=0x0:0xb80264ac89f2af0a,
perumahan,Perumahan,HALILINTAR GROUP,"97XP+P7P, Kinatang, Kec. Bonehau, Kabupaten Mamuju, Sulawesi Barat 91562","Kinatang, Kec. Bonehau, Kabupaten Mamuju",SULAWESI BARAT,91562.0,Indonesia,,,,-2.6006639,119.2856877,https://maps.google.com/?cid=0x0:0x2a0682aef1d0215,
perumahan,Pembangunan Perumahan,Rumah Juritno Masri M,"97G8+8Q4, Banuada, Kec. Bonehau, Kabupaten Mamuju, Sulawesi Barat 91562","Banuada, Kec. Bonehau, Kabupaten Mamuju",SULAWESI BARAT,91562.0,Indonesia,,,,-2.6242289,119.2669438,https://maps.google.com/?cid=0x0:0x2f4a152a146c1c20,
perumahan,Komplek perumahan,Marthen Kalipung,"G82W+FHM, Bonehau, Kec. Bonehau, Kabupaten Mamuju, Sulawesi Barat","Kabupaten Mamuju, Sulawesi Barat",SULAWESI BARAT,,Indonesia,,,,-2.4987963,119.346422,https://maps.google.com/?cid=0x0:0x259ea14e1a0e0ea7,
perumahan,perumahan,Kec. Bonehau,"Kabupaten Mamuju, Sulawesi Barat","Kabupaten Mamuju, Sulawesi Barat",SULAWESI BARAT,,Indonesia,,,,-2.4998873,119.3481971,https://maps.google.com/?cid=0x0:0x506e4572a22ede64,
perumahan,Kantor Pemda,Desa Salutiwo,"F8FW+JJG, Jl. Poros, Salutiwo, Kec. Bonehau, Kabupaten Mamuju, Sulawesi Barat 91562","Jl. Poros, Salutiwo, Kec. Bonehau, Kabupaten Mamuju",SULAWESI BARAT,91562.0,Indonesia,,,,-2.5259286,119.3465702,https://maps.google.com/?cid=0x0:0x214265ec9c221078,
perumahan,Kantor Pemerintahan Wilayah,Kinatang,"Kinatang, Kec. Bonehau, Kabupaten Mamuju, Sulawesi Barat 91562","Kec. Bonehau, Kabupaten Mamuju",SULAWESI BARAT,91562.0,Indonesia,,,,-2.6122248,119.3947135,https://maps.google.com/?cid=0x0:0xd035a1c090e9ec8a,
perumahan,Komplek perumahan,R.Masginta,"C74R+HF5, Kinatang, Kec. Bonehau, Kabupaten Mamuju, Sulawesi Barat 91562","Kinatang, Kec. Bonehau, Kabupaten Mamuju",SULAWESI BARAT,91562.0,Indonesia,,,,-2.593843,119.291357,https://maps.google.com/?cid=0x0:0xeee303932449f54a,
perumahan,perumahan,Sulawesi Barat 91561,"Kec. Kalukku, Kabupaten Mamuju, Sulawesi Barat","Kabupaten Mamuju, Sulawesi Barat",SULAWESI BARAT,,Indonesia,,,,-2.6024479,119.0925356,https://maps.google.com/?cid=0x0:0x812ca59188edc0c9,
perumahan,Komplek perumahan,Jalan tani,"9544+CJ7, Keang, Kec. Kalukku, Kabupaten Mamuju, Sulawesi Barat 91561","Keang, Kec. Kalukku, Kabupaten Mamuju",SULAWESI BARAT,91561.0,Indonesia,,,,-2.6434563,119.1567984,https://maps.google.com/?cid=0x0:0xf2c4fd18a1fa0005,
perumahan,Komplek perumahan,Per.Kalukku Indah Residence,"C2FW+V28, Jl. Lkr. Bandara, Sinyonyoi, Kec. Kalukku, Kabupaten Mamuju, Sulawesi Barat 91561","Jl. Lkr. Bandara, Sinyonyoi, Kec. Kalukku, Kabupaten Mamuju",SULAWESI BARAT,91561.0,Indonesia,,,,-2.574827,119.0442007,https://maps.google.com/?cid=0x0:0xdfdb6bb4eba10b87,
perumahan,Pembangunan Perumahan,Perumahan Bumi Plasem Kalukku,"C2GR+49M, Jalan Sultan Hasanuddin, Sinyonyoi, Mamuju, Kota Palu, West Sulawesi 91511","Jalan Sultan Hasanuddin, Sinyonyoi, Mamuju, Kota Palu",SULAWESI BARAT,91511.0,Indonesia,85242389659.0,,,-2.5746724,119.0409104,https://maps.google.com/?cid=0x0:0x1930519b57349a2f,
perumahan,Komplek perumahan,"Desa Solakue, kec. Kalukku, kabupaten Mamuju.","F349+WH4, Kalukku, Kec. Kalukku, Kabupaten Mamuju, Sulawesi Barat","Kabupaten Mamuju, Sulawesi Barat",SULAWESI BARAT,,Indonesia,895611280202.0,,,-2.5427357,119.0689475,https://maps.google.com/?cid=0x0:0x4e486836f209399,
perumahan,Perhimpunan Pengembang Perumahan,Rumah Anugerah pt,"9563+FV4, Jl. Desa Keang, Keang, Kec. Kalukku, Kabupaten Mamuju, Sulawesi Barat 91561","Jl. Desa Keang, Keang, Kec. Kalukku, Kabupaten Mamuju",SULAWESI BARAT,91561.0,Indonesia,,,,-2.6388638,119.1547118,https://maps.google.com/?cid=0x0:0x6a239777bb754f3a,
perumahan,Komplek perumahan,SYAMSURYAH 151,"F3CM+238, Pokkang, Kec. Kalukku, Kabupaten Mamuju, Sulawesi Barat 91561","Pokkang, Kec. Kalukku, Kabupaten Mamuju",SULAWESI BARAT,91561.0,Indonesia,,,,-2.5298692,119.0826656,https://maps.google.com/?cid=0x0:0x2a9bab7ef5db9dc6,
perumahan,Komplek perumahan,Lorong sipaningo,"9544+CJ4, Keang, Kec. Kalukku, Kabupaten Mamuju, Sulawesi Barat 91561","Keang, Kec. Kalukku, Kabupaten Mamuju",SULAWESI BARAT,91561.0,Indonesia,,,,-2.6439956,119.1565644,https://maps.google.com/?cid=0x0:0xe9a78c6cb5d31c2b,
perumahan,Sekolah,Depan SD NEGERI REA,"C4W2+83J, Guliling, Kec. Kalukku, Kabupaten Mamuju, Sulawesi Barat 91561","Guliling, Kec. Kalukku, Kabupaten Mamuju",SULAWESI BARAT,91561.0,Indonesia,,,,-2.5541562,119.1001372,https://maps.google.com/?cid=0x0:0x2c27f1e6435da63b,
perumahan,Komplek perumahan,Rumah sultan,"F349+XM2, Kalukku, Kec. Kalukku, Kabupaten Mamuju, Sulawesi Barat","Kabupaten Mamuju, Sulawesi Barat",SULAWESI BARAT,,Indonesia,,,,-2.542619,119.069153,https://maps.google.com/?cid=0x0:0xe87395d915040dd2,
perumahan,Komplek perumahan,Anggaputra,"92J2+6Q9, Bebanga, Kec. Kalukku, Kabupaten Mamuju, Sulawesi Barat 91561","Bebanga, Kec. Kalukku, Kabupaten Mamuju",SULAWESI BARAT,91561.0,Indonesia,,,,-2.6194978,119.0019466,https://maps.google.com/?cid=0x0:0xe94b2f3f4607eee4,
perumahan,Pembangunan Perumahan,Rumah Yuda,"F25X+6R4, Kalukku Bar., Kec. Kalukku, Kabupaten Mamuju, Sulawesi Barat","Kabupaten Mamuju, Sulawesi Barat",SULAWESI BARAT,,Indonesia,,,,-2.541999,119.0495806,https://maps.google.com/?cid=0x0:0x10afd5e5834d789,
perumahan,Pembangunan Perumahan,Home santuriadi,"F2FR+7HH, Dusun Manaiman, Kalukku Bar., Kec. Kalukku, Kabupaten Mamuju, Sulawesi Barat 91561","Dusun Manaiman, Kalukku Bar., Kec. Kalukku, Kabupaten Mamuju",SULAWESI BARAT,91561.0,Indonesia,,,,-2.5268144,119.0413964,https://maps.google.com/?cid=0x0:0x4c198925d9a28654,
perumahan,Komplek perumahan,Komplek NAGA HITAM,"F34F+X4M, Kalukku, Kec. Kalukku, Kabupaten Mamuju, Sulawesi Barat 91561","Kalukku, Kec. Kalukku, Kabupaten Mamuju",SULAWESI BARAT,91561.0,Indonesia,,,,-2.5425486,119.072794,https://maps.google.com/?cid=0x0:0x9bb00a596f9c10da,
perumahan,Perhimpunan Pengembang Perumahan,Keang,"9563+FV5, Jalan Desa Keang, Keang, Kec. Kalukku, Kabupaten Mamuju, Sulawesi Barat 91561","Jalan Desa Keang, Keang, Kec. Kalukku, Kabupaten Mamuju",SULAWESI BARAT,91561.0,Indonesia,,,,-2.6388645,119.1547202,https://maps.google.com/?cid=0x0:0x22e4f686a91b3dbc,
perumahan,perumahan,Rumah mamak ukli,"C3X8+JX4, Kalukku, Kec. Kalukku, Kabupaten Mamuju, Sulawesi Barat 91561","Kalukku, Kec. Kalukku, Kabupaten Mamuju",SULAWESI BARAT,91561.0,Indonesia,,,,-2.5507113,119.0674401,https://maps.google.com/?cid=0x0:0xcff3e5b287861ef3,
perumahan,perumahan,Khairun,"F358+WHH, Kalukku, Kec. Kalukku, Kabupaten Mamuju, Sulawesi Barat 91561","Kalukku, Kec. Kalukku, Kabupaten Mamuju",SULAWESI BARAT,91561.0,Indonesia,,,,-2.5404965,119.0671678,https://maps.google.com/?cid=0x0:0x3ebdf939b8ac2036,
perumahan,perumahan,Rumah Asiah,"F359+FPW, Kalukku, Kec. Kalukku, Kabupaten Mamuju, Sulawesi Barat 91561","Kalukku, Kec. Kalukku, Kabupaten Mamuju",SULAWESI BARAT,91561.0,Indonesia,,,,-2.540917,119.069329,https://maps.google.com/?cid=0x0:0xd889034e14b149cb,
perumahan,Kompleks Apartemen,Rumah ilham KEANG,"85W4+6RV, Jl. Desa Keang, Keang, Kec. Kalukku, Kabupaten Mamuju, Sulawesi Barat 91561","Jl. Desa Keang, Keang, Kec. Kalukku, Kabupaten Mamuju",SULAWESI BARAT,91561.0,Indonesia,,,,-2.6555438,119.1574694,https://maps.google.com/?cid=0x0:0xbfdd2ffaee8c08c2,
perumahan,Kantor Perusahaan,Beru,"F3M9+R5W, Beru-Beru, Kec. Kalukku, Kabupaten Mamuju, Sulawesi Barat 91561","Beru-Beru, Kec. Kalukku, Kabupaten Mamuju",SULAWESI BARAT,91561.0,Indonesia,,,,-2.5153933,119.0679574,https://maps.google.com/?cid=0x0:0xe3820427456db983,
perumahan,perumahan,Dusun Panamba Tengah,"F26W+8H9, Kalukku Bar., Kec. Kalukku, Kabupaten Mamuju, Sulawesi Barat 91561","Kalukku Bar., Kec. Kalukku, Kabupaten Mamuju",SULAWESI BARAT,91561.0,Indonesia,,,,-2.5392126,119.0464893,https://maps.google.com/?cid=0x0:0xb19c352482cf4ae9,
perumahan,Komplek perumahan,BANDAR CHIP,"F3F9+PP3, Beru-Beru, Kec. Kalukku, Kabupaten Mamuju, Sulawesi Barat 91561","Beru-Beru, Kec. Kalukku, Kabupaten Mamuju",SULAWESI BARAT,91561.0,Indonesia,,,,-2.5257451,119.0692999,https://maps.google.com/?cid=0x0:0x364b80fc4d64337a,
perumahan,Komplek perumahan,Kayumate,"F29P+WG6, Kalukku Bar., Kec. Kalukku, Kabupaten Mamuju, Sulawesi Barat 91561","Kalukku Bar., Kec. Kalukku, Kabupaten Mamuju",SULAWESI BARAT,91561.0,Indonesia,,,,-2.5302146,119.036256,https://maps.google.com/?cid=0x0:0xe9def2b388382394,
perumahan,Perhimpunan Pengembang Perumahan,Desa pokkang,"F3CX+Q8H, Pokkang, Kec. Kalukku, Kabupaten Mamuju, Sulawesi Barat 91561","Pokkang, Kec. Kalukku, Kabupaten Mamuju",SULAWESI BARAT,91561.0,Indonesia,,,,-2.5280517,119.0983524,https://maps.google.com/?cid=0x0:0xb11cd5483e5574db,
perumahan,perumahan,Sulawesi Barat 91562,"Kabupaten Mamuju, Sulawesi Barat","Kabupaten Mamuju, Sulawesi Barat",SULAWESI BARAT,,Indonesia,,,,-2.4874603,119.5107708,https://maps.google.com/?cid=0x0:0xaf7e6391455a9f6e,
perumahan,Komplek perumahan,Kalumpang,"GF9J+FMQ, Kalumpang, Kabupaten Mamuju, Sulawesi Barat 91562","Kalumpang, Kabupaten Mamuju",SULAWESI BARAT,91562.0,Indonesia,,,,-2.4812772,119.481722,https://maps.google.com/?cid=0x0:0x676663a204a7b929,
perumahan,Pembangunan Perumahan,Dusun lebani,"FFH9+9P, Kondo Bulo, Kalumpang, Kabupaten Mamuju, Sulawesi Barat 91562","Kondo Bulo, Kalumpang, Kabupaten Mamuju",SULAWESI BARAT,91562.0,Indonesia,,,,-2.5215623,119.4693115,https://maps.google.com/?cid=0x0:0x644b67a1a9ff4e71,
perumahan,Kantor Pemda,Limbong,"GHPR+F4, Limbong, Kalumpang, Kabupaten Mamuju, Sulawesi Barat 91562","Limbong, Kalumpang, Kabupaten Mamuju",SULAWESI BARAT,91562.0,Indonesia,,,,-2.4637926,119.5904192,https://maps.google.com/?cid=0x0:0xe58fa8013c38aa8,
perumahan,perumahan,Desa mangi,"HHH8+6Q2, Limbong, Kalumpang, Kabupaten Mamuju, Sulawesi Barat 91562","Limbong, Kalumpang, Kabupaten Mamuju",SULAWESI BARAT,91562.0,Indonesia,,,,-2.4219796,119.5668845,https://maps.google.com/?cid=0x0:0xb3e9795b8d93fbac,
perumahan,Hotel,Penginapan Reyhand,"Unnamed Road, 91562, Kalumpang, Kabupaten Mamuju, Sulawesi Barat 91562","91562, Kalumpang, Kabupaten Mamuju",SULAWESI BARAT,91562.0,Indonesia,,,,-2.4778519,119.4862573,https://maps.google.com/?cid=0x0:0x18d994c5ac10bc07,
perumahan,Komplek perumahan,Rumah Natalia,"M8M3+M4X, Campaloga, Kec. Tommo, Kabupaten Mamuju, Sulawesi Barat 91562","Campaloga, Kec. Tommo, Kabupaten Mamuju",SULAWESI BARAT,91562.0,Indonesia,,,,-2.3166469,119.3022884,https://maps.google.com/?cid=0x0:0x1654f5c5d7d08a07,
perumahan,Pembangunan Perumahan,ta'la,"CH2R+R9V, Karataun, Kalumpang, Kabupaten Mamuju, Sulawesi Barat 91562","Karataun, Kalumpang, Kabupaten Mamuju",SULAWESI BARAT,91562.0,Indonesia,,,,-2.5978762,119.5909371,https://maps.google.com/?cid=0x0:0xd4d8fa4f6c30e0ea,
perumahan,Pusat Kesehatan Masyarakat,PKM Kalumpang,"GFCJ+PMG, Kalumpang, Kabupaten Mamuju, Sulawesi Barat 91562","Kalumpang, Kabupaten Mamuju",SULAWESI BARAT,91562.0,Indonesia,,,,-2.4781915,119.4817175,https://maps.google.com/?cid=0x0:0x947cbf96df3c8778,
perumahan,Komplek perumahan,Panasuan,"MH7R+PFJ, Sandapang, Kalumpang, Kabupaten Mamuju, Sulawesi Barat 91562","Sandapang, Kalumpang, Kabupaten Mamuju",SULAWESI BARAT,91562.0,Indonesia,,,,-2.3355992,119.5905574,https://maps.google.com/?cid=0x0:0xf9d25bd09e0a7396,
perumahan,Pembangunan Perumahan,Kampung halaman,"CJ9H+M5F, Siraun, Kalumpang, Kabupaten Mamuju, Sulawesi Barat","Kabupaten Mamuju, Sulawesi Barat",SULAWESI BARAT,,Indonesia,,,,-2.5808245,119.6279153,https://maps.google.com/?cid=0x0:0x395976306c6593e3,
perumahan,Pembangunan Perumahan,Rumah Sonny,"GFCJ+JFW, Kalumpang, Kabupaten Mamuju, Sulawesi Barat 91562","Kalumpang, Kabupaten Mamuju",SULAWESI BARAT,91562.0,Indonesia,,,,-2.4783056,119.4807066,https://maps.google.com/?cid=0x0:0x3d9bf2b8fcc89aa2,
perumahan,Pembangunan Perumahan,Limbong,"HG8M+3H, Limbong, Kalumpang, Kabupaten Mamuju, Sulawesi Barat 91562","Limbong, Kalumpang, Kabupaten Mamuju",SULAWESI BARAT,91562.0,Indonesia,,,,-2.4455743,119.5694877,https://maps.google.com/?cid=0x0:0x3d491c20f42dfb14,
perumahan,Rumah wisata,Penginapan Pdt. Darmawati,"Unnamed Road, 91562, Kalumpang, Kabupaten Mamuju, Sulawesi Barat 91562","91562, Kalumpang, Kabupaten Mamuju",SULAWESI BARAT,91562.0,Indonesia,,,,-2.4782844,119.4860685,https://maps.google.com/?cid=0x0:0x4db3da97f9ef69dd,
perumahan,Komplek perumahan,Rumah Lia,"P9C6+758, Kakullasan, Kec. Tommo, Kabupaten Mamuju, Sulawesi Barat","Kabupaten Mamuju, Sulawesi Barat",SULAWESI BARAT,,Indonesia,,,,-2.2793339,119.360466,https://maps.google.com/?cid=0x0:0xe858f5830547563d,
perumahan,Pembangunan Perumahan,Lasa'/Makki,"9J58+7M8, Lasa', Kalumpang, Kabupaten Mamuju, Sulawesi Barat","Kabupaten Mamuju, Sulawesi Barat",SULAWESI BARAT,,Indonesia,,,,-2.6418403,119.6167082,https://maps.google.com/?cid=0x0:0x1085080cff0a631,
perumahan,Pembangunan Perumahan,RUMAH IPEN,"97V4+M6, Banuada, Kec. Bonehau, Kabupaten Mamuju, Sulawesi Barat 91562","Banuada, Kec. Bonehau, Kabupaten Mamuju",SULAWESI BARAT,91562.0,Indonesia,,,,-2.6062462,119.2554127,https://maps.google.com/?cid=0x0:0xb839133a59610581,
perumahan,Komplek perumahan,Rumah Salim,"P65W+96P, Tommo, Kec. Tommo, Kabupaten Mamuju, Sulawesi Barat 91562","Tommo, Kec. Tommo, Kabupaten Mamuju",SULAWESI BARAT,91562.0,Indonesia,,,,-2.2915406,119.2455847,https://maps.google.com/?cid=0x0:0xe5eb72e4ec1bc94d,
perumahan,Perhimpunan Pengembang Perumahan,Dusun Buttupatti,"JM44+R7G, Polio, Kalumpang, Kabupaten Mamuju, Sulawesi Barat 91562","Polio, Kalumpang, Kabupaten Mamuju",SULAWESI BARAT,91562.0,Indonesia,,,,-2.3929282,119.655711,https://maps.google.com/?cid=0x0:0x7be66683e9db30d9,
perumahan,Komplek perumahan,Rumah Pak Alimuddin,"P862+MJ4, Tamejarra, Kec. Tommo, Kabupaten Mamuju, Sulawesi Barat 91562","Tamejarra, Kec. Tommo, Kabupaten Mamuju",SULAWESI BARAT,91562.0,Indonesia,,,,-2.2883745,119.3015705,https://maps.google.com/?cid=0x0:0xf942ce8bc5a38bb2,
perumahan,Komplek perumahan,SALU BANGA,"FF53+PM, Kondo Bulo, Kalumpang, Kabupaten Mamuju, Sulawesi Barat 91562","Kondo Bulo, Kalumpang, Kabupaten Mamuju",SULAWESI BARAT,91562.0,Indonesia,,,,-2.5406875,119.4541875,https://maps.google.com/?cid=0x0:0x4f3f1b935730d033,
perumahan,Pembangunan Perumahan,Salulekke,"CHJ3+PJ7, Salulekke, Karataun, Kalumpang, Kabupaten Mamuju, Sulawesi Barat 91562","Salulekke, Karataun, Kalumpang, Kabupaten Mamuju",SULAWESI BARAT,91562.0,Indonesia,,,,-2.5682073,119.554054,https://maps.google.com/?cid=0x0:0x2a3926d0b547b2f7,
perumahan,Komplek perumahan,Wana home,"MHCJ+34H, Sandapang, Kalumpang, Kabupaten Mamuju, Sulawesi Barat 91562","Sandapang, Kalumpang, Kabupaten Mamuju",SULAWESI BARAT,91562.0,Indonesia,,,,-2.329817,119.5803605,https://maps.google.com/?cid=0x0:0x4184af8ad88e1ab8,
perumahan,Kantor Perusahaan,Perumahan karyawan PT. Manakarra Unggul Lestari,"RC2G+8F9, Leling Bar., Kec. Tommo, Kabupaten Mamuju, Sulawesi Barat 91563","Leling Bar., Kec. Tommo, Kabupaten Mamuju",SULAWESI BARAT,91563.0,Indonesia,,,,-2.1992091,119.4262224,https://maps.google.com/?cid=0x0:0x18acfc1602099853,
perumahan,Komplek perumahan,Rumah pak Eko,"P9G7+Q8F, Kakullasan, Kec. Tommo, Kabupaten Mamuju, Sulawesi Barat 91562","Kakullasan, Kec. Tommo, Kabupaten Mamuju",SULAWESI BARAT,91562.0,Indonesia,,,,-2.2734095,119.3626376,https://maps.google.com/?cid=0x0:0x8434cd993507141a,
perumahan,Komplek perumahan,Petani Mudah,"G9HW+FF4, Dusun Dengen, Mappu, Kec. Bonehau, Kabupaten Mamuju, Sulawesi Barat","Kabupaten Mamuju, Sulawesi Barat",SULAWESI BARAT,,Indonesia,,,,-2.4713555,119.3962176,https://maps.google.com/?cid=0x0:0x81eedfcd4994022f,
perumahan,perumahan,Hananul ummi,"Dusun mekarsari tommo 6, Rantemario, Kec. Tommo, Kabupaten Mamuju, Sulawesi Barat","Kabupaten Mamuju, Sulawesi Barat",SULAWESI BARAT,,Indonesia,,,,-2.3046749,119.331287,https://maps.google.com/?cid=0x0:0xf0ec2a6c55c0dfd2,
perumahan,Sekolah Menengah Pertama,SMP Negeri 1 Balabalakang,"8V9Q+7QW ulau Ambo, Kec. Kep. Bala Balakang, Rimuku, Kec. Mamuju, Prov, Sulawesi Barat","Prov, Sulawesi Barat",SULAWESI BARAT,,Indonesia,,,,-2.681762,118.8894686,https://maps.google.com/?cid=0x0:0x75acfc5dc8f3b86d,
perumahan,Sekolah Menengah Pertama,SMP Negeri 1 Mamuju,"Jl. Sultan Hasanuddin No.132, Binanga, Kec. Mamuju, Kabupaten Mamuju, Sulawesi Barat 91511","Binanga, Kec. Mamuju, Kabupaten Mamuju",SULAWESI BARAT,91511.0,Indonesia,42621063.0,,,-2.6739349,118.8913082,https://maps.google.com/?cid=0x0:0xcc5bbea9f8c9bbd7,
perumahan,perumahan,Sulawesi Barat 91512,"Kabupaten Mamuju, Sulawesi Barat","Kabupaten Mamuju, Sulawesi Barat",SULAWESI BARAT,,Indonesia,,,,-1.8494265,119.5339711,https://maps.google.com/?cid=0x0:0x8e21c401717b8ceb,
perumahan,perumahan,Sulawesi Barat 91511,"Kabupaten Mamuju, Sulawesi Barat","Kabupaten Mamuju, Sulawesi Barat",SULAWESI BARAT,,Indonesia,,,,-2.728111,118.9761519,https://maps.google.com/?cid=0x0:0x3f347dc6f3833aaf,
perumahan,Komplek perumahan,Perumahan Maleo,"8VCV+HFH, Jl. WR. Monginsidi, Binanga, Kec. Mamuju, Kabupaten Mamuju, Sulawesi Barat 91511","Jl. WR. Monginsidi, Binanga, Kec. Mamuju, Kabupaten Mamuju",SULAWESI BARAT,91511.0,Indonesia,,,,-2.6785697,118.8937295,https://maps.google.com/?cid=0x0:0xffd31f2358007802,
perumahan,Kantor Perusahaan,Perumahan Permata Savira,"8VCW+849, Binanga, Kec. Mamuju, Kabupaten Mamuju, Sulawesi Barat 91511","Binanga, Kec. Mamuju, Kabupaten Mamuju",SULAWESI BARAT,91511.0,Indonesia,,,,-2.6792057,118.8953536,https://maps.google.com/?cid=0x0:0xc5a924f37917c7df,
perumahan,Perumahan,"Perumahan Puncak Indah Residence, RIMUKU, MAMUJU","Jl. Husni Thamrin No.A 15, Rimuku, Kec. Mamuju, Kabupaten Mamuju, Sulawesi Barat 91511","Rimuku, Kec. Mamuju, Kabupaten Mamuju",SULAWESI BARAT,91511.0,Indonesia,,,,-2.6854204,118.8938799,https://maps.google.com/?cid=0x0:0xe0d2782aa4f001ff,
perumahan,Pembangunan Perumahan,Perumahan Mapalling,"8V2P+P8R, Karema, Kec. Mamuju, Kabupaten Mamuju, Sulawesi Barat 91511","Karema, Kec. Mamuju, Kabupaten Mamuju",SULAWESI BARAT,91511.0,Indonesia,,,,-2.6981386,118.8857617,https://maps.google.com/?cid=0x0:0xc335d0c87b3f953,
perumahan,Kantor Perusahaan,Perumahan Axuri,"8V9M+3JF, Jl. Pongtiku, Rimuku, Kec. Mamuju, Kabupaten Mamuju, Sulawesi Barat 91511","Jl. Pongtiku, Rimuku, Kec. Mamuju, Kabupaten Mamuju",SULAWESI BARAT,91511.0,Indonesia,,,,-2.6823051,118.8840414,https://maps.google.com/?cid=0x0:0xb33fcf5daa946e4,
perumahan,Gedung Apartemen,Kompleks pemda,"8V9Q+5CP, Rimuku, Kec. Mamuju, Kabupaten Mamuju, Sulawesi Barat 91511","Rimuku, Kec. Mamuju, Kabupaten Mamuju",SULAWESI BARAT,91511.0,Indonesia,,,,-2.6820394,118.8885912,https://maps.google.com/?cid=0x0:0xa67afd6bd92f491d,
perumahan,Komplek perumahan,Rujab Kapolda Sulbar,"Jl. Mamuju - Kalukku No.15, Bambu, Kec. Mamuju, Kabupaten Mamuju, Sulawesi Barat 91511","Bambu, Kec. Mamuju, Kabupaten Mamuju",SULAWESI BARAT,91511.0,Indonesia,,,,-2.6598279,118.9287212,https://maps.google.com/?cid=0x0:0x178c46c388b02434,
perumahan,Pembangunan Perumahan,Perumahan Grand Sulawesi Kali Mamuju,"8WF2+3GX, Jl. Ir Juanda I, Mamunyu, Kec. Mamuju, Kabupaten Mamuju, Sulawesi Barat 91511","Jl. Ir Juanda I, Mamunyu, Kec. Mamuju, Kabupaten Mamuju",SULAWESI BARAT,91511.0,Indonesia,82187400859.0,,,-2.6772671,118.9013576,https://maps.google.com/?cid=0x0:0x9f4f932147c34616,
perumahan,Pembangunan Perumahan,Perumahan Bukit Afiah Land,"Unnamed Road, Simboro, Kec. Simboro Dan Kepulauan, Kabupaten Mamuju, Sulawesi Barat 91512","Simboro, Kec. Simboro Dan Kepulauan, Kabupaten Mamuju",SULAWESI BARAT,91512.0,Indonesia,81342727474.0,,,-2.6896828,118.8648136,https://maps.google.com/?cid=0x0:0xcd74872b8e433431,
perumahan,Perumahan,Btn Axuri,"8V9M+X54, Binanga, Kec. Mamuju, Kabupaten Mamuju, Sulawesi Barat 91511","Binanga, Kec. Mamuju, Kabupaten Mamuju",SULAWESI BARAT,91511.0,Indonesia,,,,-2.6801183,118.8829661,https://maps.google.com/?cid=0x0:0x182e5c38b994089f,
perumahan,Komplek perumahan,Mamuju,"8WG4+63C, Jl. Mamuju - Kalukku, Mamunyu, Kec. Mamuju, Kabupaten Mamuju, Sulawesi Barat 91511","Jl. Mamuju - Kalukku, Mamunyu, Kec. Mamuju, Kabupaten Mamuju",SULAWESI BARAT,91511.0,Indonesia,,,,-2.6746304,118.9049695,https://maps.google.com/?cid=0x0:0x1e3ba9876fdc7a29,
perumahan,Komplek perumahan,Griya Masagena 4,"8WH6+CR4, Mamunyu, Kec. Mamuju, Kabupaten Mamuju, Sulawesi Barat 91511","Mamunyu, Kec. Mamuju, Kabupaten Mamuju",SULAWESI BARAT,91511.0,Indonesia,85751558129.0,,,-2.6714866,118.912068,https://maps.google.com/?cid=0x0:0xd1f652625c6946d1,
perumahan,Perumahan,D'Lova Townhouse,"Rimuku, Kec. Mamuju, Kabupaten Mamuju, Sulawesi Barat 91511","Kec. Mamuju, Kabupaten Mamuju",SULAWESI BARAT,91511.0,Indonesia,,,,-2.6826693,118.8913782,https://maps.google.com/?cid=0x0:0x82ab4552c4d1a1bb,
perumahan,Pembangunan Perumahan,Rumah kost,"Jl. Ra. Kartini, Rimuku, Kec. Mamuju, Kabupaten Mamuju, Sulawesi Barat 91511","Rimuku, Kec. Mamuju, Kabupaten Mamuju",SULAWESI BARAT,91511.0,Indonesia,,,,-2.6824821,118.8916545,https://maps.google.com/?cid=0x0:0xd9f8c2008d3c2e04,
perumahan,Komplek perumahan,De Luna Mountain View,"Karema, Kec. Mamuju, Kabupaten Mamuju, Sulawesi Barat 91511","Kec. Mamuju, Kabupaten Mamuju",SULAWESI BARAT,91511.0,Indonesia,85299888595.0,,,-2.6809303,118.897171,https://maps.google.com/?cid=0x0:0xc5f6e5de9f9ec465,
perumahan,Perumahan,Perumahan Eka Rahayu City,"8WMC+CGM, Barambajabu Dusun Tumuki, Bambu, Kec. Mamuju, Kabupaten Mamuju, Sulawesi Barat 91511","Barambajabu Dusun Tumuki, Bambu, Kec. Mamuju, Kabupaten Mamuju",SULAWESI BARAT,91511.0,Indonesia,81242227567.0,,,-2.666705,118.920716,https://maps.google.com/?cid=0x0:0x6cd4ef5c8c4462ce,
perumahan,Komplek perumahan,Rumah OPPE/ANTO,"9XCR+96J, Bebanga, Kec. Kalukku, Kabupaten Mamuju, Sulawesi Barat 91511","Bebanga, Kec. Kalukku, Kabupaten Mamuju",SULAWESI BARAT,91511.0,Indonesia,85342249067.0,,,-2.6287786,118.9901123,https://maps.google.com/?cid=0x0:0x46bfe55ea3de4840,
perumahan,Pembangunan Perumahan,BTN Puri Mutiara 3,"8WH2+F52, Mamunyu, Kec. Mamuju, Kabupaten Mamuju, Sulawesi Barat 91511","Mamunyu, Kec. Mamuju, Kabupaten Mamuju",SULAWESI BARAT,91511.0,Indonesia,,,,-2.6713678,118.9003813,https://maps.google.com/?cid=0x0:0xbba45e5f5eea9c57,
perumahan,Pembangunan Perumahan,GRIYA MASAGENA 3,"8WG3+G3P, Mamunyu, Kec. Mamuju, Kabupaten Mamuju, Sulawesi Barat 91511","Mamunyu, Kec. Mamuju, Kabupaten Mamuju",SULAWESI BARAT,91511.0,Indonesia,,,,-2.6736728,118.9026989,https://maps.google.com/?cid=0x0:0xc34eed0fd1bc996a,
perumahan,Toko Pakaian,Perumahan Bukit Safa Madani 2,"8V7X+CGV, Unnamed Road, Rimuku, Kec. Mamuju, Kabupaten Mamuju, Sulawesi Barat 91511","Unnamed Road, Rimuku, Kec. Mamuju, Kabupaten Mamuju",SULAWESI BARAT,91511.0,Indonesia,,,,-2.6863803,118.8988082,https://maps.google.com/?cid=0x0:0xee3568cb8bdf1da3,
perumahan,Pembangunan Perumahan,GRAND MUTIARA MAMUJU,"8WVQ+QCX, Bambu, Kec. Mamuju, Kabupaten Mamuju, Sulawesi Barat 91511","Bambu, Kec. Mamuju, Kabupaten Mamuju",SULAWESI BARAT,91511.0,Indonesia,,,,-2.6555114,118.9386086,https://maps.google.com/?cid=0x0:0x8c91a2d3f8be1d71,
perumahan,Komplek perumahan,Royal Green Hills,"8WG7+55M, Jl. Mamuju - Kalukku, Mamunyu, Kec. Mamuju, Kabupaten Mamuju, Sulawesi Barat 91511","Jl. Mamuju - Kalukku, Mamunyu, Kec. Mamuju, Kabupaten Mamuju",SULAWESI BARAT,91511.0,Indonesia,,,,-2.6745494,118.9129201,https://maps.google.com/?cid=0x0:0x1047f860ee1b2b89,
perumahan,Pembangunan Perumahan,Perumahan Mamuju Bellevue,"Jl. Abdul Malik Pattana Endeng, Simboro, Kec. Simboro Dan Kepulauan, Kabupaten Mamuju, Sulawesi Barat 91512","Simboro, Kec. Simboro Dan Kepulauan, Kabupaten Mamuju",SULAWESI BARAT,91512.0,Indonesia,85731122689.0,,,-2.6676596,118.8546484,https://maps.google.com/?cid=0x0:0x63b9921cc07f5d7b,
perumahan,Penginapan,Perumahan Puri Mutiara 3 Blok Gesatu,"BTN PURI MUTIARA 3, Mamunyu, Kec. Mamuju, Kabupaten Mamuju, Sulawesi Barat 91511","Mamunyu, Kec. Mamuju, Kabupaten Mamuju",SULAWESI BARAT,91511.0,Indonesia,,,,-2.670486,118.8998717,https://maps.google.com/?cid=0x0:0x604af653a85fdb8b,
perumahan,Padang,Simpang 5 Mamuju,"Jl. Sultan Hasanuddin No.3, Binanga, Kec. Mamuju, Kabupaten Mamuju, Sulawesi Barat 91511","Binanga, Kec. Mamuju, Kabupaten Mamuju",SULAWESI BARAT,91511.0,Indonesia,,,,-2.6771945,118.8991068,https://maps.google.com/?cid=0x0:0x812c197e17f77036,
perumahan,Pembangunan Perumahan,Perumahan Sidratul Muntaha,"Jln kasuari, Karema, Tahaya haya, Kabupaten Mamuju, Sulawesi Barat 91511","Karema, Tahaya haya, Kabupaten Mamuju",SULAWESI BARAT,91511.0,Indonesia,81355222080.0,,,-2.6998185,118.8766854,https://maps.google.com/?cid=0x0:0xec48a8cc022292f,
perumahan,Kantor Perusahaan,Perumahan Leleudung residence timbu,"8WH2+5C8, Mamunyu, Kec. Mamuju, Kabupaten Mamuju, Sulawesi Barat 91511","Mamunyu, Kec. Mamuju, Kabupaten Mamuju",SULAWESI BARAT,91511.0,Indonesia,85242229868.0,,,-2.6720864,118.9010881,https://maps.google.com/?cid=0x0:0xdafdde78d87c3d16,
perumahan,perumahan,Sulawesi Barat 91514,"Kabupaten Mamuju, Sulawesi Barat","Kabupaten Mamuju, Sulawesi Barat",SULAWESI BARAT,,Indonesia,,,,-2.6664001,118.9877942,https://maps.google.com/?cid=0x0:0x63629837e7aa22dc,
perumahan,Komplek perumahan,Rumah OPPE/ANTO,"9XCR+96J, Bebanga, Kec. Kalukku, Kabupaten Mamuju, Sulawesi Barat 91511","Bebanga, Kec. Kalukku, Kabupaten Mamuju",SULAWESI BARAT,91511.0,Indonesia,85342249067.0,,,-2.6287786,118.9901123,https://maps.google.com/?cid=0x0:0x46bfe55ea3de4840,
perumahan,Perhimpunan Pengembang Perumahan,Tadui,"8XHC+G44, Tadui, Kec. Mamuju, Kabupaten Mamuju, Sulawesi Barat","Kabupaten Mamuju, Sulawesi Barat",SULAWESI BARAT,,Indonesia,,,,-2.6712333,118.9703304,https://maps.google.com/?cid=0x0:0x6418f8b84741b783,
perumahan,Pembangunan Perumahan,GRAND MUTIARA MAMUJU,"8WVQ+QCX, Bambu, Kec. Mamuju, Kabupaten Mamuju, Sulawesi Barat 91511","Bambu, Kec. Mamuju, Kabupaten Mamuju",SULAWESI BARAT,91511.0,Indonesia,,,,-2.6555114,118.9386086,https://maps.google.com/?cid=0x0:0x8c91a2d3f8be1d71,
perumahan,Pembangunan Perumahan,Koperumnas syariah mamuju residence,"8XG4+F8C, Bambu, Kec. Mamuju, Kabupaten Mamuju, Sulawesi Barat 91511","Bambu, Kec. Mamuju, Kabupaten Mamuju",SULAWESI BARAT,91511.0,Indonesia,,,,-2.6738007,118.9557756,https://maps.google.com/?cid=0x0:0xc4328fc5a6fc41b2,
perumahan,Pembangunan Perumahan,Idha Raditya,"9W3R+P6M, Tadui, Kec. Mamuju, Kabupaten Mamuju, Sulawesi Barat 91511","Tadui, Kec. Mamuju, Kabupaten Mamuju",SULAWESI BARAT,91511.0,Indonesia,,,,-2.6456552,118.9405432,https://maps.google.com/?cid=0x0:0x998f8a8df4beb9c1,
perumahan,Perhimpunan Pengembang Perumahan,Tenda pengungsian desa tadui mamuju,"9W3R+46J Posko, Tadui, Kec. Mamuju, Kabupaten Mamuju, Sulawesi Barat 91511","Tadui, Kec. Mamuju, Kabupaten Mamuju",SULAWESI BARAT,91511.0,Indonesia,85348739659.0,,,-2.6471653,118.9405263,https://maps.google.com/?cid=0x0:0xc3e52267b8bfbcdb,
perumahan,Komplek perumahan,RUMAH RIZAL TATTO,"8WMM+8QC, Batu Pannu, Kec. Mamuju, Kabupaten Mamuju, Sulawesi Barat 91511","Batu Pannu, Kec. Mamuju, Kabupaten Mamuju",SULAWESI BARAT,91511.0,Indonesia,,,,-2.6670986,118.9341574,https://maps.google.com/?cid=0x0:0x5c7bb9da3f89fd0f,
perumahan,Pembangunan Perumahan,Idha Shayyad,"9W3R+R6P, Jl. Mamuju - Kalukku, Tadui, Kec. Mamuju, Kabupaten Mamuju, Sulawesi Barat 91511","Jl. Mamuju - Kalukku, Tadui, Kec. Mamuju, Kabupaten Mamuju",SULAWESI BARAT,91511.0,Indonesia,,,,-2.645412,118.940568,https://maps.google.com/?cid=0x0:0x3a046deef40b63b,
perumahan,Komplek perumahan,Home papa misda,"9X46+G9G, Tadui, Kec. Mamuju, Kabupaten Mamuju, Sulawesi Barat 91514","Tadui, Kec. Mamuju, Kabupaten Mamuju",SULAWESI BARAT,91514.0,Indonesia,,,,-2.6448311,118.9604813,https://maps.google.com/?cid=0x0:0x3ca732c09639a4b2,
perumahan,Pembangunan Perumahan,Rumah Wana alfat,"9X46+22H, dusun salutalawar, Tadui, Kec. Mamuju, Kabupaten Mamuju, Sulawesi Barat","Kabupaten Mamuju, Sulawesi Barat",SULAWESI BARAT,,Indonesia,,,,-2.6449279,118.9601044,https://maps.google.com/?cid=0x0:0x84fd42400edfab94,
perumahan,Perumahan,Btn Axuri,"8V9M+X54, Binanga, Kec. Mamuju, Kabupaten Mamuju, Sulawesi Barat 91511","Binanga, Kec. Mamuju, Kabupaten Mamuju",SULAWESI BARAT,91511.0,Indonesia,,,,-2.6801183,118.8829661,https://maps.google.com/?cid=0x0:0x182e5c38b994089f,
perumahan,Pembangunan Perumahan,Nenek Naura,"8XHC+F48, Lalawang, Tadui, Kec. Mamuju, Kabupaten Mamuju, Sulawesi Barat 91514","Lalawang, Tadui, Kec. Mamuju, Kabupaten Mamuju",SULAWESI BARAT,91514.0,Indonesia,,,,-2.6713303,118.9703196,https://maps.google.com/?cid=0x0:0x84af5a4f52c33a06,
perumahan,Komplek perumahan,Fadheel meubel,"9X45+PPX, Tadui, Kec. Mamuju, Kabupaten Mamuju, Sulawesi Barat 91514","Tadui, Kec. Mamuju, Kabupaten Mamuju",SULAWESI BARAT,91514.0,Indonesia,,,,-2.643129,118.9593747,https://maps.google.com/?cid=0x0:0x8d9e774f53c137b6,
perumahan,perumahan,Rumah Aisyah .A,"9X4F+V27, Tadui, Kec. Mamuju, Kabupaten Mamuju, Sulawesi Barat 91514","Tadui, Kec. Mamuju, Kabupaten Mamuju",SULAWESI BARAT,91514.0,Indonesia,,,,-2.6428336,118.9725485,https://maps.google.com/?cid=0x0:0x5d902c1a3d85a38c,
perumahan,Komplek perumahan,ALYA's HOUSE,"Jalan poros Mamuju Kalukku Km. 14, Bambu, Kec. Mamuju, Kabupaten Mamuju, Sulawesi Barat 91511","Bambu, Kec. Mamuju, Kabupaten Mamuju",SULAWESI BARAT,91511.0,Indonesia,,,,-2.6448452,118.9409684,https://maps.google.com/?cid=0x0:0x58962eeab564d081,
perumahan,Perumahan,Salutalawar,"9X46+P75 SALUTALAWAR, Tadui, Kec. Mamuju, Kabupaten Mamuju, Sulawesi Barat","Kabupaten Mamuju, Sulawesi Barat",SULAWESI BARAT,,Indonesia,,,,-2.6432489,118.9607321,https://maps.google.com/?cid=0x0:0xafaa5dab35b1c766,
perumahan,Komplek perumahan,ALYA GREEN HOUSE,"8WVM+22H, Bambu, Kec. Mamuju, Kabupaten Mamuju, Sulawesi Barat 91511","Bambu, Kec. Mamuju, Kabupaten Mamuju",SULAWESI BARAT,91511.0,Indonesia,,,,-2.657499,118.9323322,https://maps.google.com/?cid=0x0:0x51386643e15e0a8b,
perumahan,Perhimpunan Pengembang Perumahan,Kebun,"8WXW+RX, Tadui, Kec. Mamuju, Kabupaten Mamuju, Sulawesi Barat","Kabupaten Mamuju, Sulawesi Barat",SULAWESI BARAT,,Indonesia,,,,-2.6504889,118.9474769,https://maps.google.com/?cid=0x0:0x201ceb362681c383,
perumahan,Komplek perumahan,Rumah Ikka2,"8WG3+VP9, Mamunyu, Kec. Mamuju, Kabupaten Mamuju, Sulawesi Barat 91511","Mamunyu, Kec. Mamuju, Kabupaten Mamuju",SULAWESI BARAT,91511.0,Indonesia,,,,-2.6441214,118.951621,https://maps.google.com/?cid=0x0:0x4e276a3390b712a9,
perumahan,Perumahan,Perumahan Eka Rahayu City,"8WMC+CGM, Barambajabu Dusun Tumuki, Bambu, Kec. Mamuju, Kabupaten Mamuju, Sulawesi Barat 91511","Barambajabu Dusun Tumuki, Bambu, Kec. Mamuju, Kabupaten Mamuju",SULAWESI BARAT,91511.0,Indonesia,81242227567.0,,,-2.666705,118.920716,https://maps.google.com/?cid=0x0:0x6cd4ef5c8c4462ce,
perumahan,Pembangunan Perumahan,Perumahan Grand Sulawesi Kali Mamuju,"8WF2+3GX, Jl. Ir Juanda I, Mamunyu, Kec. Mamuju, Kabupaten Mamuju, Sulawesi Barat 91511","Jl. Ir Juanda I, Mamunyu, Kec. Mamuju, Kabupaten Mamuju",SULAWESI BARAT,91511.0,Indonesia,82187400859.0,,,-2.6772671,118.9013576,https://maps.google.com/?cid=0x0:0x9f4f932147c34616,
perumahan,Pembangunan Perumahan,Perumahan Bukit Afiah Land,"Unnamed Road, Simboro, Kec. Simboro Dan Kepulauan, Kabupaten Mamuju, Sulawesi Barat 91512","Simboro, Kec. Simboro Dan Kepulauan, Kabupaten Mamuju",SULAWESI BARAT,91512.0,Indonesia,81342727474.0,,,-2.6896828,118.8648136,https://maps.google.com/?cid=0x0:0xcd74872b8e433431,
perumahan,Komplek perumahan,Lokasi Roslina,"8XHC+G44, Desa Tadui, Bambu","Kabupaten Mamuju, Sulawesi Barat",SULAWESI BARAT,,Indonesia,,,,-2.6712333,118.9703304,https://maps.google.com/?cid=0x0:0x3a6f674ae01a3140,
perumahan,Perhimpunan Pengembang Perumahan,sweet cherry,"9X6F+5M7, Tadui, Kec. Mamuju, Kabupaten Mamuju, Sulawesi Barat","Kabupaten Mamuju, Sulawesi Barat",SULAWESI BARAT,,Indonesia,,,,-2.6396177,118.9742648,https://maps.google.com/?cid=0x0:0xf5c7f67ef37d6938,
perumahan,perumahan,Sulawesi Barat 91515,"Karampuang, Kec. Mamuju, Kabupaten Mamuju, Sulawesi Barat","Kabupaten Mamuju, Sulawesi Barat",SULAWESI BARAT,,Indonesia,,,,-2.6273634,118.885894,https://maps.google.com/?cid=0x0:0x734a0409ed48ab3f,
perumahan,Komplek perumahan,Rumah Rasyid Tonggengge,"9V2M+WQ3, Unnamed Road, Karampuang, Kec. Mamuju, Kabupaten Mamuju, Sulawesi Barat 91515","Unnamed Road, Karampuang, Kec. Mamuju, Kabupaten Mamuju",SULAWESI BARAT,91515.0,Indonesia,,,,-2.6477426,118.8844283,https://maps.google.com/?cid=0x0:0xab4f6039fbc43a5b,
perumahan,Komplek perumahan,Graha Nusa 5,"8V87+JXG, Simboro, Kec. Simboro Dan Kepulauan, Kabupaten Mamuju, Sulawesi Barat 91512","Simboro, Kec. Simboro Dan Kepulauan, Kabupaten Mamuju",SULAWESI BARAT,91512.0,Indonesia,,,,-2.6834336,118.8649668,https://maps.google.com/?cid=0x0:0x981f29551ddffc78,
perumahan,Perumahan,Btn Axuri,"8V9M+X54, Binanga, Kec. Mamuju, Kabupaten Mamuju, Sulawesi Barat 91511","Binanga, Kec. Mamuju, Kabupaten Mamuju",SULAWESI BARAT,91511.0,Indonesia,,,,-2.6801183,118.8829661,https://maps.google.com/?cid=0x0:0x182e5c38b994089f,
perumahan,Komplek perumahan,Rumah Anabul,"9V9V+FQ, Karampuang, Kec. Mamuju, Kabupaten Mamuju, Sulawesi Barat","Kabupaten Mamuju, Sulawesi Barat",SULAWESI BARAT,,Indonesia,,,,-2.6312802,118.8943843,https://maps.google.com/?cid=0x0:0xf4ab95461af711c5,
perumahan,Perhimpunan Pengembang Perumahan,Sepang,"9VJR+HVG, Karampuang, Kec. Mamuju, Kabupaten Mamuju, Sulawesi Barat 91515","Karampuang, Kec. Mamuju, Kabupaten Mamuju",SULAWESI BARAT,91515.0,Indonesia,,,,-2.619068,118.8920977,https://maps.google.com/?cid=0x0:0xab4a1b865b6a8ef0,
perumahan,Komplek perumahan,Andrink,"9VJR+HVG, Karampuang, Kec. Mamuju, Kabupaten Mamuju, Sulawesi Barat 91515","Karampuang, Kec. Mamuju, Kabupaten Mamuju",SULAWESI BARAT,91515.0,Indonesia,,,,-2.6174218,118.8921839,https://maps.google.com/?cid=0x0:0x9246ff731f0025,
perumahan,Komplek perumahan,Rumah Saharuddin,"9V2M+HVQ, Karampuang, Kec. Mamuju, Kabupaten Mamuju, Sulawesi Barat 91515","Karampuang, Kec. Mamuju, Kabupaten Mamuju",SULAWESI BARAT,91515.0,Indonesia,,,,-2.648556,118.8848366,https://maps.google.com/?cid=0x0:0xba4acf6ea16a1733,
perumahan,Pembangunan Perumahan,Tukan a'lank Ikp,"8VXP+GRQ, Karampuang, Kec. Mamuju, Kabupaten Mamuju, Sulawesi Barat 91515","Karampuang, Kec. Mamuju, Kabupaten Mamuju",SULAWESI BARAT,91515.0,Indonesia,,,,-2.6510462,118.8871753,https://maps.google.com/?cid=0x0:0x830a28dfc350c516,
perumahan,Pembangunan Perumahan,Anto,"8VXQ+H76, Karampuang, Kec. Mamuju, Kabupaten Mamuju, Sulawesi Barat","Kabupaten Mamuju, Sulawesi Barat",SULAWESI BARAT,,Indonesia,,,,-2.6510917,118.8881475,https://maps.google.com/?cid=0x0:0x2559ef7d237d246d,
perumahan,Pembangunan Perumahan,Perumahan Sidratul Muntaha,"Jln kasuari, Karema, Tahaya haya, Kabupaten Mamuju, Sulawesi Barat 91511","Karema, Tahaya haya, Kabupaten Mamuju",SULAWESI BARAT,91511.0,Indonesia,81355222080.0,,,-2.6998185,118.8766854,https://maps.google.com/?cid=0x0:0xec48a8cc022292f,
perumahan,Komplek perumahan,Royal Green Hills,"8WG7+55M, Jl. Mamuju - Kalukku, Mamunyu, Kec. Mamuju, Kabupaten Mamuju, Sulawesi Barat 91511","Jl. Mamuju - Kalukku, Mamunyu, Kec. Mamuju, Kabupaten Mamuju",SULAWESI BARAT,91511.0,Indonesia,,,,-2.6745494,118.9129201,https://maps.google.com/?cid=0x0:0x1047f860ee1b2b89,
perumahan,Komplek perumahan,Griya Masagena 4,"8WH6+CR4, Mamunyu, Kec. Mamuju, Kabupaten Mamuju, Sulawesi Barat 91511","Mamunyu, Kec. Mamuju, Kabupaten Mamuju",SULAWESI BARAT,91511.0,Indonesia,85751558129.0,,,-2.6714866,118.912068,https://maps.google.com/?cid=0x0:0xd1f652625c6946d1,
perumahan,Perhimpunan Pengembang Perumahan,Rumah ambe indo lupe,"9V9H+V7H, Bonelangka, Karampuang, Kec. Mamuju, Kabupaten Mamuju, Sulawesi Barat","Kabupaten Mamuju, Sulawesi Barat",SULAWESI BARAT,,Indonesia,,,,-2.6303019,118.878236,https://maps.google.com/?cid=0x0:0xc76de64f698946f2,
perumahan,Komplek perumahan,Rumah isma,"9V9H+6C, Karampuang, Kec. Mamuju, Kabupaten Mamuju, Sulawesi Barat","Kabupaten Mamuju, Sulawesi Barat",SULAWESI BARAT,,Indonesia,,,,-2.6320155,118.8785293,https://maps.google.com/?cid=0x0:0x4d471b126b420b50,
perumahan,Perhimpunan Pengembang Perumahan,Akbar,"9V9P+892, Karampuang, Kec. Mamuju, Kabupaten Mamuju, Sulawesi Barat","Kabupaten Mamuju, Sulawesi Barat",SULAWESI BARAT,,Indonesia,,,,-2.6317463,118.885894,https://maps.google.com/?cid=0x0:0xd401d39be78b37,
perumahan,Pembangunan Perumahan,TANETE POCOK,"9V8J+5JR, Karampuang, Kec. Mamuju, Kabupaten Mamuju, Sulawesi Barat","Kabupaten Mamuju, Sulawesi Barat",SULAWESI BARAT,,Indonesia,,,,-2.6342077,118.8820927,https://maps.google.com/?cid=0x0:0xd851644bab2adfee,
perumahan,Komplek perumahan,Denny Arghiat Akshara,"9V7Q+2R, Karampuang, Kec. Mamuju, Kabupaten Mamuju, Sulawesi Barat","Kabupaten Mamuju, Sulawesi Barat",SULAWESI BARAT,,Indonesia,,,,-2.637497,118.889559,https://maps.google.com/?cid=0x0:0x5a9f37ca0aca544,
perumahan,Komplek perumahan,Alfian AR,"9VCH+JC7, Karampuang, Kec. Mamuju, Kabupaten Mamuju, Sulawesi Barat","Kabupaten Mamuju, Sulawesi Barat",SULAWESI BARAT,,Indonesia,,,,-2.6284604,118.8785543,https://maps.google.com/?cid=0x0:0x83fac2c51cb73786,
perumahan,Rumah Kaca,Sandi,"9VJR+HVG, Karampuang, Kec. Mamuju, Kabupaten Mamuju, Sulawesi Barat 91515","Karampuang, Kec. Mamuju, Kabupaten Mamuju",SULAWESI BARAT,91515.0,Indonesia,,,,-2.6185735,118.8921953,https://maps.google.com/?cid=0x0:0x25c8dc09bf4474a,
perumahan,Tempat Cukur Rambut,Rumah cukur,"9VCH+VC7, Karampuang, Kec. Mamuju, Kabupaten Mamuju, Sulawesi Barat 91515","Karampuang, Kec. Mamuju, Kabupaten Mamuju",SULAWESI BARAT,91515.0,Indonesia,85216947261.0,,,-2.6276325,118.8794202,https://maps.google.com/?cid=0x0:0x1a144787c1e843f2,
perumahan,perumahan,Kelompok Bintang Harapan,"9V2P+38G, Karampuang, Kec. Mamuju, Kabupaten Mamuju, Sulawesi Barat 91515","Karampuang, Kec. Mamuju, Kabupaten Mamuju",SULAWESI BARAT,91515.0,Indonesia,,,,-2.6498028,118.885841,https://maps.google.com/?cid=0x0:0x34d78287a7da3647,
perumahan,perumahan,Rumah pak harman,"9V5J+43R, Karampuang, Kec. Mamuju, Kabupaten Mamuju, Sulawesi Barat 91515","Karampuang, Kec. Mamuju, Kabupaten Mamuju",SULAWESI BARAT,91515.0,Indonesia,,,,-2.643055,118.8809823,https://maps.google.com/?cid=0x0:0xdf1e466288762d9a,
perumahan,perumahan,Kelompok Cahaya Harapan,"9V2P+86G, Karampuang, Kec. Mamuju, Kabupaten Mamuju, Sulawesi Barat 91515","Karampuang, Kec. Mamuju, Kabupaten Mamuju",SULAWESI BARAT,91515.0,Indonesia,,,,-2.6491897,118.8855659,https://maps.google.com/?cid=0x0:0xa35ee581a3f47eb1,
perumahan,Pembangunan Perumahan,Perumahan Rejawan Mansion City,"W882+6VW, Unnamed Road, Tobadak, Kec. Tobadak, Kabupaten Mamuju Tengah, Sulawesi Barat 91563","Unnamed Road, Tobadak, Kec. Tobadak, Kabupaten Mamuju Tengah",SULAWESI BARAT,91563.0,Indonesia,,,,-2.0843843,119.3022182,https://maps.google.com/?cid=0x0:0xf48b9c2642ebf0de,
perumahan,Perumahan,Perumahan Topoyo Indah Residence,"W7GP+5JQ, Kabupaten, Kec. Topoyo, Kabupaten Mamuju Tengah, Sulawesi Barat 91563","Kabupaten, Kec. Topoyo, Kabupaten Mamuju Tengah",SULAWESI BARAT,91563.0,Indonesia,,,,-2.0745458,119.2866062,https://maps.google.com/?cid=0x0:0xde1e6e047247bf35,
perumahan,perumahan,Kelompok Ekawijaya,"9V2P+866, Karampuang, Kec. Mamuju, Kabupaten Mamuju, Sulawesi Barat 91515","Karampuang, Kec. Mamuju, Kabupaten Mamuju",SULAWESI BARAT,91515.0,Indonesia,,,,-2.6491832,118.8855818,https://maps.google.com/?cid=0x0:0x9af3864e2867d6d9,
perumahan,Perumahan,Perumahan Buana Topoyo Indah (BTI 2),"Unnamed Road, Pangalloang, Kec. Topoyo, Kabupaten Mamuju Tengah, Sulawesi Barat 91563","Pangalloang, Kec. Topoyo, Kabupaten Mamuju Tengah",SULAWESI BARAT,91563.0,Indonesia,85256202020.0,,,-2.0815324,119.2625621,https://maps.google.com/?cid=0x0:0x73a19589a2d27d3,
perumahan,Komplek perumahan,Tobadak Residence,"Jln. Kondo Sapata, Tobadak, Kec. Tobadak, Kabupaten Mamuju Tengah, Sulawesi Barat 91563","Tobadak, Kec. Tobadak, Kabupaten Mamuju Tengah",SULAWESI BARAT,91563.0,Indonesia,,,,-2.0827208,119.304967,https://maps.google.com/?cid=0x0:0xcbbe0f7a231097fc,
perumahan,perumahan,Kec. Papalang,"Kabupaten Mamuju, Sulawesi Barat","Kabupaten Mamuju, Sulawesi Barat",SULAWESI BARAT,,Indonesia,,,,-2.3871091,119.1729099,https://maps.google.com/?cid=0x0:0xb016ae6ec36eb13f,
perumahan,Pembangunan Perumahan,Kec. Papalang,"J57F+45R, Toabo, Kec. Papalang, Kabupaten Mamuju, Sulawesi Barat","Kabupaten Mamuju, Sulawesi Barat",SULAWESI BARAT,,Indonesia,,,,-2.3871358,119.172895,https://maps.google.com/?cid=0x0:0x727dc711fdd53fec,
perumahan,Komplek perumahan,Perumahan,"H5F3+P3, Bonda, Kec. Papalang, Kabupaten Mamuju, Sulawesi Barat","Kabupaten Mamuju, Sulawesi Barat",SULAWESI BARAT,,Indonesia,,,,-2.424884,119.153042,https://maps.google.com/?cid=0x0:0x4b87b5c043d9601,
perumahan,Komplek perumahan,M. Anton Kartika Yuda,"komplek pasar, Toabo, Kec. Papalang, Kabupaten Mamuju, Sulawesi Barat 91563","Toabo, Kec. Papalang, Kabupaten Mamuju",SULAWESI BARAT,91563.0,Indonesia,,,,-2.387411,119.1748437,https://maps.google.com/?cid=0x0:0x26d292ada5c6f114,
perumahan,,Tailor An Nur,"J55C+W6J, Lrg 5, Toabo, Kec. Papalang, Kabupaten Mamuju, Sulawesi Barat 91563","Lrg 5, Toabo, Kec. Papalang, Kabupaten Mamuju",SULAWESI BARAT,91563.0,Indonesia,,,,-2.3901712,119.1705016,https://maps.google.com/?cid=0x0:0xce03339e30eb4d4d,
perumahan,Komplek perumahan,Rumah panggung,"J57V+H6, Salukayu, Kec. Papalang, Kabupaten Mamuju, Sulawesi Barat","Kabupaten Mamuju, Sulawesi Barat",SULAWESI BARAT,,Indonesia,,,,-2.3860103,119.193107,https://maps.google.com/?cid=0x0:0x6c6d7c2591652000,
perumahan,Komplek perumahan,Uswatun Khasanah,"J59H+56J, Toabo, Kec. Papalang, Kabupaten Mamuju, Sulawesi Barat 91563","Toabo, Kec. Papalang, Kabupaten Mamuju",SULAWESI BARAT,91563.0,Indonesia,,,,-2.381718,119.176628,https://maps.google.com/?cid=0x0:0xec37a5fd6bd9ac28,
perumahan,Komplek perumahan,Papa ria,"H596+VJW, Papalang, Kec. Papalang, Kabupaten Mamuju, Sulawesi Barat 91561","Papalang, Kec. Papalang, Kabupaten Mamuju",SULAWESI BARAT,91561.0,Indonesia,,,,-2.4305598,119.1609514,https://maps.google.com/?cid=0x0:0xca7c0a48b9462bb1,
perumahan,perumahan,LR 3,"J58F+XHG, Toabo, Kec. Papalang, Kabupaten Mamuju, Sulawesi Barat","Kabupaten Mamuju, Sulawesi Barat",SULAWESI BARAT,,Indonesia,,,,-2.3825552,119.1739513,https://maps.google.com/?cid=0x0:0x6df4023e6f252273,
perumahan,Pembangunan Perumahan,Rumah Maikel tamvan,"J54V+45, Boda-Boda, Kec. Papalang, Kabupaten Mamuju, Sulawesi Barat 91563","Boda-Boda, Kec. Papalang, Kabupaten Mamuju",SULAWESI BARAT,91563.0,Indonesia,,,,-2.3948265,119.193117,https://maps.google.com/?cid=0x0:0xb5cc03c4abb1b73f,
perumahan,Pembangunan Perumahan,Fajrin,"H46V+RC2, Papalang, Kec. Papalang, Kabupaten Mamuju, Sulawesi Barat","Kabupaten Mamuju, Sulawesi Barat",SULAWESI BARAT,,Indonesia,,,,-2.437976,119.143501,https://maps.google.com/?cid=0x0:0x7ba836de1947e4dc,
perumahan,Pembangunan Perumahan,Arpan,"H6X6+G4P, Salukayu, Kec. Papalang, Kabupaten Mamuju, Sulawesi Barat 91563","Salukayu, Kec. Papalang, Kabupaten Mamuju",SULAWESI BARAT,91563.0,Indonesia,,,,-2.401165,119.2103156,https://maps.google.com/?cid=0x0:0x935a82b3982fde20,
perumahan,perumahan,Surya,"J7H4+C53, Kalonding, Kec. Sampaga, Kabupaten Mamuju, Sulawesi Barat 91563","Kalonding, Kec. Sampaga, Kabupaten Mamuju",SULAWESI BARAT,91563.0,Indonesia,,,,-2.3714875,119.2554219,https://maps.google.com/?cid=0x0:0x5f380d3502ff72aa,
perumahan,perumahan,Rumahnya intan ramadhanu,"Lorong 1 No.1, Salukayu, Kec. Papalang, Kabupaten Mamuju, Sulawesi Barat 91563","Salukayu, Kec. Papalang, Kabupaten Mamuju",SULAWESI BARAT,91563.0,Indonesia,,,,-2.3859545,119.2146426,https://maps.google.com/?cid=0x0:0x8ad39eebec6ff1eb,
perumahan,Pembangunan Perumahan,Toabo,"J58F+XHG, Toabo, Kec. Papalang, Kabupaten Mamuju, Sulawesi Barat 91563","Toabo, Kec. Papalang, Kabupaten Mamuju",SULAWESI BARAT,91563.0,Indonesia,,,,-2.3825552,119.1739513,https://maps.google.com/?cid=0x0:0x5279138554e8f030,
perumahan,Komplek perumahan,Rumah awa,"H4CP+8G2, Papalang, Kec. Papalang, Kabupaten Mamuju, Sulawesi Barat","Kabupaten Mamuju, Sulawesi Barat",SULAWESI BARAT,,Indonesia,,,,-2.4292282,119.1362585,https://maps.google.com/?cid=0x0:0xf0173bb7387d37fb,
perumahan,Rumah wisata,PAPALANG PANTAI,"H4FP+QHM, Papalang, Kec. Papalang, Kabupaten Mamuju, Sulawesi Barat 91561","Papalang, Kec. Papalang, Kabupaten Mamuju",SULAWESI BARAT,91561.0,Indonesia,,,,-2.4255418,119.1364161,https://maps.google.com/?cid=0x0:0xb36afa679c181645,
perumahan,Pembangunan Perumahan,Rumah mang ardi,"J692+99M, Salukayu, Kec. Papalang, Kabupaten Mamuju, Sulawesi Barat 91563","Salukayu, Kec. Papalang, Kabupaten Mamuju",SULAWESI BARAT,91563.0,Indonesia,,,,-2.3815403,119.2009346,https://maps.google.com/?cid=0x0:0x25fcab258ef3d38d,
perumahan,Komplek perumahan,Rumah Bakri,"H4VR+Q3J, Bonda, Kec. Papalang, Kabupaten Mamuju, Sulawesi Barat","Kabupaten Mamuju, Sulawesi Barat",SULAWESI BARAT,,Indonesia,,,,-2.4062265,119.139942,https://maps.google.com/?cid=0x0:0xf3b45b28c9acfdf5,
perumahan,Komplek perumahan,RUMAH PAK TEMU,"J56C+M6W, Toabo, Kec. Papalang, Kabupaten Mamuju, Sulawesi Barat","Kabupaten Mamuju, Sulawesi Barat",SULAWESI BARAT,,Indonesia,,,,-2.3882558,119.170591,https://maps.google.com/?cid=0x0:0x477e55675bb7de90,
perumahan,Komplek perumahan,Papa Nita,"J54W+C8, Boda-Boda, Kec. Papalang, Kabupaten Mamuju, Sulawesi Barat","Kabupaten Mamuju, Sulawesi Barat",SULAWESI BARAT,,Indonesia,,,,-2.3939626,119.1958545,https://maps.google.com/?cid=0x0:0x9e7957c10c36f710,
perumahan,Komplek perumahan,Irwadi Home,"J57F+CPF, Toabo, Kec. Papalang, Kabupaten Mamuju, Sulawesi Barat 91563","Toabo, Kec. Papalang, Kabupaten Mamuju",SULAWESI BARAT,91563.0,Indonesia,82261478606.0,,,-2.3864355,119.1742899,https://maps.google.com/?cid=0x0:0xc730587f5358cb3a,
perumahan,perumahan,Sulawesi Barat 91563,"Kabupaten Mamuju, Sulawesi Barat","Kabupaten Mamuju, Sulawesi Barat",SULAWESI BARAT,,Indonesia,,,,-2.0727011,119.5107708,https://maps.google.com/?cid=0x0:0x8bfaa35dac2725d7,
perumahan,Komplek perumahan,Rumah pito,"H4CQ+PX2, Papalang, Kec. Papalang, Kabupaten Mamuju, Sulawesi Barat","Kabupaten Mamuju, Sulawesi Barat",SULAWESI BARAT,,Indonesia,,,,-2.4286071,119.1402432,https://maps.google.com/?cid=0x0:0x8118c3422a36639e,
perumahan,perumahan,Pak priyo,"J589+8X2, Toabo, Kec. Papalang, Kabupaten Mamuju, Sulawesi Barat","Kabupaten Mamuju, Sulawesi Barat",SULAWESI BARAT,,Indonesia,,,,-2.3842279,119.1699051,https://maps.google.com/?cid=0x0:0xab88b4e6993e0e74,
perumahan,Gedung Apartemen,Rumah,"H55J+H28, Papalang, Kec. Papalang, Kabupaten Mamuju, Sulawesi Barat","Kabupaten Mamuju, Sulawesi Barat",SULAWESI BARAT,,Indonesia,,,,-2.4410859,119.1800898,https://maps.google.com/?cid=0x0:0x48ca3f995d307209,
perumahan,perumahan,Kec. Sampaga,"Kabupaten Mamuju, Sulawesi Barat","Kabupaten Mamuju, Sulawesi Barat",SULAWESI BARAT,,Indonesia,,,,-2.3125359,119.1766647,https://maps.google.com/?cid=0x0:0x75e9d815d6856b53,
perumahan,Pembangunan Perumahan,Perumahan Baru Sampaga,"M4MP+7JH, Sampaga, Kec. Sampaga, Kabupaten Mamuju, Sulawesi Barat 91563","Sampaga, Kec. Sampaga, Kabupaten Mamuju",SULAWESI BARAT,91563.0,Indonesia,,,,-2.316823,119.1366092,https://maps.google.com/?cid=0x0:0xe29f241d5dd1a68b,
perumahan,perumahan,Surya,"J7H4+C53, Kalonding, Kec. Sampaga, Kabupaten Mamuju, Sulawesi Barat 91563","Kalonding, Kec. Sampaga, Kabupaten Mamuju",SULAWESI BARAT,91563.0,Indonesia,,,,-2.3714875,119.2554219,https://maps.google.com/?cid=0x0:0x5f380d3502ff72aa,
perumahan,Pembangunan Perumahan,Sanodding/daipa,"J5VX+V2J, Bunde, Kec. Sampaga, Kabupaten Mamuju, Sulawesi Barat 91563","Bunde, Kec. Sampaga, Kabupaten Mamuju",SULAWESI BARAT,91563.0,Indonesia,,,,-2.3552766,119.1975279,https://maps.google.com/?cid=0x0:0x45c2e635c5a47dc9,
perumahan,Komplek perumahan,Dhy,"M579+6RV, Bunde, Kec. Sampaga, Kabupaten Mamuju, Sulawesi Barat 91563","Bunde, Kec. Sampaga, Kabupaten Mamuju",SULAWESI BARAT,91563.0,Indonesia,85256976515.0,,,-2.3368963,119.1695518,https://maps.google.com/?cid=0x0:0xda9c6b96c66de693,
perumahan,Pembangunan Perumahan,"Dusun Hijrah, Desa Sampaga, Kec. Sampaga, Kab. Mamuju","M4PX+6W2, Sampaga, Kec. Sampaga, Kabupaten Mamuju, Sulawesi Barat","Kabupaten Mamuju, Sulawesi Barat",SULAWESI BARAT,,Indonesia,,,,-2.3144762,119.1497565,https://maps.google.com/?cid=0x0:0x4efcabbea2e6d4a0,
perumahan,Komplek perumahan,Rumah Linda,"M549+6VX, Bunde, Kec. Sampaga, Kabupaten Mamuju, Sulawesi Barat 91563","Bunde, Kec. Sampaga, Kabupaten Mamuju",SULAWESI BARAT,91563.0,Indonesia,,,,-2.3443944,119.1697469,https://maps.google.com/?cid=0x0:0xfbf05801c9994dee,
perumahan,Komplek perumahan,Rumah rafi,"Bunde, Kec. Sampaga, Kabupaten Mamuju, Sulawesi Barat 91563","Kec. Sampaga, Kabupaten Mamuju",SULAWESI BARAT,91563.0,Indonesia,,,,-2.3437406,119.1705425,https://maps.google.com/?cid=0x0:0x74e096e9bb8a7742,
perumahan,Komplek perumahan,Rumah Jay,"M5GG+H2R, Tarailu, Kec. Sampaga, Kabupaten Mamuju, Sulawesi Barat 91563","Tarailu, Kec. Sampaga, Kabupaten Mamuju",SULAWESI BARAT,91563.0,Indonesia,,,,-2.3234854,119.1750825,https://maps.google.com/?cid=0x0:0x57d378e971290348,
perumahan,Pembangunan Perumahan,Suprianto,"M4MP+PX4, Sampaga, Kec. Sampaga, Kabupaten Mamuju, Sulawesi Barat 91563","Sampaga, Kec. Sampaga, Kabupaten Mamuju",SULAWESI BARAT,91563.0,Indonesia,,,,-2.3157266,119.1374527,https://maps.google.com/?cid=0x0:0xe8f7eb3195a01ea8,
perumahan,perumahan,H SUARDI,"M5MF+2XJ, Tarailu, Kec. Sampaga, Kabupaten Mamuju, Sulawesi Barat 91563","Tarailu, Kec. Sampaga, Kabupaten Mamuju",SULAWESI BARAT,91563.0,Indonesia,,,,-2.3174017,119.1748907,https://maps.google.com/?cid=0x0:0x96b340f73a177217,
perumahan,Komplek perumahan,Rumah nya pak Ndun,"M55G+353, Bunde, Kec. Sampaga, Kabupaten Mamuju, Sulawesi Barat 91563","Bunde, Kec. Sampaga, Kabupaten Mamuju",SULAWESI BARAT,91563.0,Indonesia,,,,-2.3423624,119.175408,https://maps.google.com/?cid=0x0:0x88143e71c413baa1,
perumahan,Pembangunan Perumahan,Hendra,"J7X2+HV2, Kalonding, Kec. Sampaga, Kabupaten Mamuju, Sulawesi Barat 91563","Kalonding, Kec. Sampaga, Kabupaten Mamuju",SULAWESI BARAT,91563.0,Indonesia,,,,-2.3511026,119.2521359,https://maps.google.com/?cid=0x0:0x3b253deebb27156d,
perumahan,Komplek perumahan,Mozart's Home,"M59F+7W5, Bunde, Kec. Sampaga, Kabupaten Mamuju, Sulawesi Barat 91563","Bunde, Kec. Sampaga, Kabupaten Mamuju",SULAWESI BARAT,91563.0,Indonesia,,,,-2.3320633,119.1752199,https://maps.google.com/?cid=0x0:0xaf359339d12de3ac,
perumahan,Komplek perumahan,Budiman,"M54H+MW6, Bunde, Kec. Sampaga, Kabupaten Mamuju, Sulawesi Barat 91563","Bunde, Kec. Sampaga, Kabupaten Mamuju",SULAWESI BARAT,91563.0,Indonesia,,,,-2.3433364,119.179765,https://maps.google.com/?cid=0x0:0xfed2af62f4436ffc,
perumahan,Pembangunan Perumahan,Said,"M5FF+4W6, Dusun pedasi,desa kalonding, Kec. Sampaga, Kabupaten Mamuju, Sulawesi Barat 91563","Dusun pedasi,desa kalonding, Kec. Sampaga, Kabupaten Mamuju",SULAWESI BARAT,91563.0,Indonesia,,,,-2.3272019,119.1747638,https://maps.google.com/?cid=0x0:0xcf53dab0a170536d,
perumahan,Komplek perumahan,Rumah maya,"M5PG+XJ9, dusun sidal, Kec. Sampaga, Kabupaten Mamuju, Sulawesi Barat","Kabupaten Mamuju, Sulawesi Barat",SULAWESI BARAT,,Indonesia,,,,-2.3125759,119.1765982,https://maps.google.com/?cid=0x0:0xb9a1db61b276ebc3,
perumahan,Komplek perumahan,Rumah irma,"M5FF+VRF, Jl. Poros Majene - Mamuju, Tarailu, Kec. Sampaga, Kabupaten Mamuju, Sulawesi Barat 91563","Jl. Poros Majene - Mamuju, Tarailu, Kec. Sampaga, Kabupaten Mamuju",SULAWESI BARAT,91563.0,Indonesia,,,,-2.3253223,119.1746217,https://maps.google.com/?cid=0x0:0x8cd1cd9b64fe3957,
perumahan,perumahan,Rumah bima,"M54C+C6P, Bunde, Kec. Sampaga, Kabupaten Mamuju, Sulawesi Barat 91563","Bunde, Kec. Sampaga, Kabupaten Mamuju",SULAWESI BARAT,91563.0,Indonesia,,,,-2.3437,119.171022,https://maps.google.com/?cid=0x0:0x26ccf1e825b49a69,
perumahan,Komplek perumahan,Pangalloang,"M5QG+2M2, Tarailu, Kec. Sampaga, Kabupaten Mamuju, Sulawesi Barat","Kabupaten Mamuju, Sulawesi Barat",SULAWESI BARAT,,Indonesia,,,,-2.3124864,119.176626,https://maps.google.com/?cid=0x0:0x86ff795dcc087ec0,
perumahan,Komplek perumahan,Rumah Nhur,"M54H+MW6, Bunde, Kec. Sampaga, Kabupaten Mamuju, Sulawesi Barat 91563","Bunde, Kec. Sampaga, Kabupaten Mamuju",SULAWESI BARAT,91563.0,Indonesia,,,,-2.3433364,119.179765,https://maps.google.com/?cid=0x0:0xd503b9c6793f8ddf,
perumahan,Pembangunan Perumahan,Sofian s,"M5MH+3WC, Tarailu, Kec. Sampaga, Kabupaten Mamuju, Sulawesi Barat 91563","Tarailu, Kec. Sampaga, Kabupaten Mamuju",SULAWESI BARAT,91563.0,Indonesia,,,,-2.3173016,119.179765,https://maps.google.com/?cid=0x0:0x7645d06469bb4b8f,
perumahan,Komplek perumahan,Rumah Aldy,"M569+6WF, Bunde, Kec. Sampaga, Kabupaten Mamuju, Sulawesi Barat 91563","Bunde, Kec. Sampaga, Kabupaten Mamuju",SULAWESI BARAT,91563.0,Indonesia,,,,-2.3395217,119.1697771,https://maps.google.com/?cid=0x0:0xe3430ef247fa0e34,
perumahan,Komplek perumahan,"Empang,anis","M4QJ+6J, Sampaga, Kec. Sampaga, Kabupaten Mamuju, Sulawesi Barat 91563","Sampaga, Kec. Sampaga, Kabupaten Mamuju",SULAWESI BARAT,91563.0,Indonesia,,,,-2.3119398,119.1315499,https://maps.google.com/?cid=0x0:0x1546403434240f99,
perumahan,perumahan,Kec. Simboro Dan Kepulauan,"Kabupaten Mamuju, Sulawesi Barat","Kabupaten Mamuju, Sulawesi Barat",SULAWESI BARAT,,Indonesia,,,,-2.6886472,118.8687708,https://maps.google.com/?cid=0x0:0x690e32602d9f0e83,
perumahan,Komplek perumahan,Perumahan Pantai Indah Simboro,"Jl. Nelayan III No.7, Simboro, Kec. Simboro Dan Kepulauan, Kabupaten Mamuju, Sulawesi Barat 91512","Simboro, Kec. Simboro Dan Kepulauan, Kabupaten Mamuju",SULAWESI BARAT,91512.0,Indonesia,,,,-2.6786396,118.8647318,https://maps.google.com/?cid=0x0:0x827c4188d90bc09e,
perumahan,Komplek perumahan,Bukit Simboro Residence,"Jl. Abdul Malik Pattana Endeng, Simboro, Kec. Simboro Dan Kepulauan, Kabupaten Mamuju, Sulawesi Barat 91512","Simboro, Kec. Simboro Dan Kepulauan, Kabupaten Mamuju",SULAWESI BARAT,91512.0,Indonesia,82196946554.0,,,-2.6744385,118.8561328,https://maps.google.com/?cid=0x0:0x27ec28c84debe04,
perumahan,Pembangunan Perumahan,Perumahan Bukit Simboro,"Perum. Bukit Blk. C No.9, Simboro, Simboro Dan Kepulauan, Mamuju Regency, West Sulawesi 91512","Simboro, Simboro Dan Kepulauan, Mamuju Regency",SULAWESI BARAT,91512.0,Indonesia,,,,-2.6826749,118.8655866,https://maps.google.com/?cid=0x0:0xc14ae3ef556af5f2,
perumahan,Komplek perumahan,Perumahan TNI AL Simboro,"8VF8+GW6, Jl. Pelabuhan Penyeberangan Ferry, Simboro, Kec. Simboro Dan Kepulauan, Kabupaten Mamuju, Sulawesi Barat 91512","Jl. Pelabuhan Penyeberangan Ferry, Simboro, Kec. Simboro Dan Kepulauan, Kabupaten Mamuju",SULAWESI BARAT,91512.0,Indonesia,,,,-2.6762097,118.8672675,https://maps.google.com/?cid=0x0:0xda2fb5821ad75d8f,
perumahan,Komplek perumahan,Puri Pesona Zarindah Mamuju,"Simboro, Kec. Simboro Dan Kepulauan, Kabupaten Mamuju, Sulawesi Barat 91512","Kec. Simboro Dan Kepulauan, Kabupaten Mamuju",SULAWESI BARAT,91512.0,Indonesia,82190234333.0,,,-2.682709,118.8604492,https://maps.google.com/?cid=0x0:0x8a519849b692dc10,
perumahan,Komplek perumahan,PURI SIMBUANG PERMAI,"Jl. Jend Gatot Subroto No.13, Simboro, Kec. Simboro Dan Kepulauan, Kabupaten Mamuju, Sulawesi Barat 91512","Simboro, Kec. Simboro Dan Kepulauan, Kabupaten Mamuju",SULAWESI BARAT,91512.0,Indonesia,,,,-2.6931745,118.8676378,https://maps.google.com/?cid=0x0:0xd5f8f1c227301df4,
perumahan,Pembangunan Perumahan,BTN GRIYA SIMBORO PERMAI,"8V27+G94, Simboro, Kec. Simboro Dan Kepulauan, Kabupaten Mamuju, Sulawesi Barat 91512","Simboro, Kec. Simboro Dan Kepulauan, Kabupaten Mamuju",SULAWESI BARAT,91512.0,Indonesia,,,,-2.6987368,118.8634504,https://maps.google.com/?cid=0x0:0x135ca17441ed8d88,
perumahan,Komplek perumahan,Graha Nusa 1,"8V88+PQP, Unnamed Road, Simboro, Kec. Simboro Dan Kepulauan, Kabupaten Mamuju, Sulawesi Barat 91512","Unnamed Road, Simboro, Kec. Simboro Dan Kepulauan, Kabupaten Mamuju",SULAWESI BARAT,91512.0,Indonesia,,,,-2.6831528,118.866938,https://maps.google.com/?cid=0x0:0x659c94765ef296c6,
perumahan,Pembangunan Perumahan,Perumahan Permata Biru,"Jl. Nelayan No.3 Kel, Simboro, Kec. Simboro Dan Kepulauan, Kabupaten Mamuju, Sulawesi Barat 91512","Simboro, Kec. Simboro Dan Kepulauan, Kabupaten Mamuju",SULAWESI BARAT,91512.0,Indonesia,,,,-2.680599,118.8688602,https://maps.google.com/?cid=0x0:0x1ef91800e860c9c6,
perumahan,Pembangunan Perumahan,"Salupangi,Kel Simboro kec, simboro","8V69+GG8, Simboro, Kec. Simboro Dan Kepulauan, Kabupaten Mamuju, Sulawesi Barat 91512","Simboro, Kec. Simboro Dan Kepulauan, Kabupaten Mamuju",SULAWESI BARAT,91512.0,Indonesia,,,,-2.6887217,118.86883,https://maps.google.com/?cid=0x0:0x518548883de51680,
perumahan,Komplek perumahan,Perumahan GREEN MADANI,"8V98+C9Q, Unnamed Road, Simboro, Kec. Simboro Dan Kepulauan, Kabupaten Mamuju, Sulawesi Barat 91512","Unnamed Road, Simboro, Kec. Simboro Dan Kepulauan, Kabupaten Mamuju",SULAWESI BARAT,91512.0,Indonesia,82393451925.0,,,-2.6814076,118.8659854,https://maps.google.com/?cid=0x0:0x822f0f05eaeb8698,
perumahan,Komplek perumahan,Perumahan Puri Buana 1,"8VC4+QPM, Jl. RE Martadinata, Simboro, Kec. Simboro Dan Kepulauan, Kabupaten Mamuju, Sulawesi Barat 91512","Jl. RE Martadinata, Simboro, Kec. Simboro Dan Kepulauan, Kabupaten Mamuju",SULAWESI BARAT,91512.0,Indonesia,,,,-2.6780291,118.8568022,https://maps.google.com/?cid=0x0:0x172acacab2fae880,
perumahan,perumahan,Rumah,"Blk. D No.5, Simboro, Kec. Simboro Dan Kepulauan, Kabupaten Mamuju, Sulawesi Barat 91512","Simboro, Kec. Simboro Dan Kepulauan, Kabupaten Mamuju",SULAWESI BARAT,91512.0,Indonesia,,,,-2.6826933,118.8660274,https://maps.google.com/?cid=0x0:0x704801d3dca41240,
perumahan,Komplek perumahan,Graha Nusa 2 Tahap 2 Residence A 11,"Jl. H. Mustafa, Katjo, Kec. Simboro Dan Kepulauan, Kabupaten Mamuju, Sulawesi Barat 91512","Katjo, Kec. Simboro Dan Kepulauan, Kabupaten Mamuju",SULAWESI BARAT,91512.0,Indonesia,85242559982.0,,,-2.6823367,118.8671838,https://maps.google.com/?cid=0x0:0x8e450e042476cba5,
perumahan,Komplek perumahan,Perumahan Bukit Tambayako Permai (BTP Residence),"Jl. Mustafa Daeng Sirua, Simboro, Kec. Simboro Dan Kepulauan, Kabupaten Mamuju, Sulawesi Barat 91512","Simboro, Kec. Simboro Dan Kepulauan, Kabupaten Mamuju",SULAWESI BARAT,91512.0,Indonesia,81243222286.0,,,-2.6849375,118.8556875,https://maps.google.com/?cid=0x0:0x39a07fc870a2b5a8,
perumahan,Komplek perumahan,Graha Nusa 5,"8V87+JXG, Simboro, Kec. Simboro Dan Kepulauan, Kabupaten Mamuju, Sulawesi Barat 91512","Simboro, Kec. Simboro Dan Kepulauan, Kabupaten Mamuju",SULAWESI BARAT,91512.0,Indonesia,,,,-2.6834336,118.8649668,https://maps.google.com/?cid=0x0:0x981f29551ddffc78,
perumahan,Komplek perumahan,Perumahan Al-Fatih Residence 2.0,"8VC4+RWQ, Simboro, Kec. Simboro Dan Kepulauan, Kabupaten Mamuju, Sulawesi Barat 91512","Simboro, Kec. Simboro Dan Kepulauan, Kabupaten Mamuju",SULAWESI BARAT,91512.0,Indonesia,81245989488.0,,,-2.6784418,118.8573279,https://maps.google.com/?cid=0x0:0x2dba2610ad006289,
perumahan,Perhimpunan Pengembang Perumahan,Rumah Andi Nurul Z,"8V87+H5X, Simboro, Kec. Simboro Dan Kepulauan, Kabupaten Mamuju, Sulawesi Barat 91512","Simboro, Kec. Simboro Dan Kepulauan, Kabupaten Mamuju",SULAWESI BARAT,91512.0,Indonesia,,,,-2.6839379,118.8626544,https://maps.google.com/?cid=0x0:0x83a5c849ceb26fed,
perumahan,,Perumahan griya utama residence pamombong,"7VW4+6P, Simboro, Kec. Simboro Dan Kepulauan, Kabupaten Mamuju, Sulawesi Barat 91512","Simboro, Kec. Simboro Dan Kepulauan, Kabupaten Mamuju",SULAWESI BARAT,91512.0,Indonesia,81355981349.0,,,-2.7043826,118.8568427,https://maps.google.com/?cid=0x0:0x9eeb09cf404d9666,
perumahan,Pembangunan Perumahan,Perumahan Griya Permata Korongana II Blok D36,"7VW5+RJG, Simboro, Kec. Simboro Dan Kepulauan, Kabupaten Mamuju, Sulawesi Barat 91512","Simboro, Kec. Simboro Dan Kepulauan, Kabupaten Mamuju",SULAWESI BARAT,91512.0,Indonesia,,,,-2.7029485,118.8590844,https://maps.google.com/?cid=0x0:0x2699b832560e1d08,
perumahan,Pembangunan Perumahan,Perumahan Landi Indah,"8RRW+H7G, Rangas, Kec. Simboro Dan Kepulauan, Kabupaten Mamuju, Sulawesi Barat 91512","Rangas, Kec. Simboro Dan Kepulauan, Kabupaten Mamuju",SULAWESI BARAT,91512.0,Indonesia,,,,-2.6585717,118.8457052,https://maps.google.com/?cid=0x0:0xcc927ff370ca9aac,
perumahan,Komplek perumahan,Perumahan Griya Cahaya Masannang 4,"8V99+CGH, Jl. Nelayan III, Simboro, Kec. Simboro Dan Kepulauan, Kabupaten Mamuju, Sulawesi Barat 91512","Jl. Nelayan III, Simboro, Kec. Simboro Dan Kepulauan, Kabupaten Mamuju",SULAWESI BARAT,91512.0,Indonesia,,,,-2.6814464,118.868857,https://maps.google.com/?cid=0x0:0x21c5f358e5391898,
perumahan,Pembangunan Perumahan,Perumahan Bukit Afiah Land,"Unnamed Road, Simboro, Kec. Simboro Dan Kepulauan, Kabupaten Mamuju, Sulawesi Barat 91512","Simboro, Kec. Simboro Dan Kepulauan, Kabupaten Mamuju",SULAWESI BARAT,91512.0,Indonesia,81342727474.0,,,-2.6896828,118.8648136,https://maps.google.com/?cid=0x0:0xcd74872b8e433431,
perumahan,Kantor Perusahaan,Griya Cahaya Masannang III,"8V26+VWQ, Salupangi, Simboro, Kec. Simboro Dan Kepulauan, Kabupaten Mamuju, Sulawesi Barat 91512","Salupangi, Simboro, Kec. Simboro Dan Kepulauan, Kabupaten Mamuju",SULAWESI BARAT,91512.0,Indonesia,,,,-2.6977858,118.8623554,https://maps.google.com/?cid=0x0:0x10fa761a746e018a,
perumahan,perumahan,Home Stay,"8V67+989, Simboro, Kec. Simboro Dan Kepulauan, Kabupaten Mamuju, Sulawesi Barat 91512","Simboro, Kec. Simboro Dan Kepulauan, Kabupaten Mamuju",SULAWESI BARAT,91512.0,Indonesia,,,,-2.6890893,118.8633517,https://maps.google.com/?cid=0x0:0xd848afa1e7384751,
perumahan,Pembangunan Perumahan,Perumahan Mamuju Bellevue,"Jl. Abdul Malik Pattana Endeng, Simboro, Kec. Simboro Dan Kepulauan, Kabupaten Mamuju, Sulawesi Barat 91512","Simboro, Kec. Simboro Dan Kepulauan, Kabupaten Mamuju",SULAWESI BARAT,91512.0,Indonesia,85731122689.0,,,-2.6676596,118.8546484,https://maps.google.com/?cid=0x0:0x63b9921cc07f5d7b,
perumahan,Otoritas Perumahan,Perumahan Zarindah Permai,"Jl. Abdul Malik Pattana Endeng No.Kel, Simboro, Kec. Simboro Dan Kepulauan, Kabupaten Mamuju, Sulawesi Barat 91512","Simboro, Kec. Simboro Dan Kepulauan, Kabupaten Mamuju",SULAWESI BARAT,91512.0,Indonesia,,,,-2.6806136,118.8603221,https://maps.google.com/?cid=0x0:0xb262f89fd2fafe68,
perumahan,perumahan,Sulawesi Barat 91513,"Kabupaten Mamuju, Sulawesi Barat","Kabupaten Mamuju, Sulawesi Barat",SULAWESI BARAT,,Indonesia,,,,-2.6887507,118.8014121,https://maps.google.com/?cid=0x0:0xbef0412d6d2f80f8,
perumahan,Komplek perumahan,Bukit Simboro Residence,"Jl. Abdul Malik Pattana Endeng, Simboro, Kec. Simboro Dan Kepulauan, Kabupaten Mamuju, Sulawesi Barat 91512","Simboro, Kec. Simboro Dan Kepulauan, Kabupaten Mamuju",SULAWESI BARAT,91512.0,Indonesia,82196946554.0,,,-2.6744385,118.8561328,https://maps.google.com/?cid=0x0:0x27ec28c84debe04,
perumahan,perumahan,Dusun Batu Lappa Selatan,"9R24+9V9, Sumare, Kec. Simboro Dan Kepulauan, Kabupaten Mamuju, Sulawesi Barat 91513","Sumare, Kec. Simboro Dan Kepulauan, Kabupaten Mamuju",SULAWESI BARAT,91513.0,Indonesia,,,,-2.6486713,118.8073818,https://maps.google.com/?cid=0x0:0xdd43d071838ddbb6,
perumahan,Penginapan Dalam Ruangan,BTN PURI MUTIARA 1,"8RHX+3W6, Blok B2 No 9,Rangas, Kecamatan Simboro, Rangas, Kec. Simboro Dan Kepulauan, Kabupaten Mamuju, Sulawesi Barat 91512","Blok B2 No 9,Rangas, Kecamatan Simboro, Rangas, Kec. Simboro Dan Kepulauan, Kabupaten Mamuju",SULAWESI BARAT,91512.0,Indonesia,,,,-2.6748281,118.8305489,https://maps.google.com/?cid=0x0:0x2b85ba826ab8b877,
perumahan,Komplek perumahan,Mamuju,"8R2J+HQX, Rangas, Kec. Simboro Dan Kepulauan, Kabupaten Mamuju, Sulawesi Barat","Kabupaten Mamuju, Sulawesi Barat",SULAWESI BARAT,,Indonesia,,,,-2.6985235,118.8319827,https://maps.google.com/?cid=0x0:0x19363d0e4dcc6dc5,
perumahan,Komplek perumahan,Rumah mama icci,"9R24+XPV, Sumare, Kec. Simboro Dan Kepulauan, Kabupaten Mamuju, Sulawesi Barat","Kabupaten Mamuju, Sulawesi Barat",SULAWESI BARAT,,Indonesia,,,,-2.6475031,118.8067988,https://maps.google.com/?cid=0x0:0x6d877cf3545b978,
perumahan,Komplek perumahan,Kelurahan Simboro Kecamatan Simboro,"8V69+GG8, Simboro, Kec. Simboro Dan Kepulauan, Kabupaten Mamuju, Sulawesi Barat 91512","Simboro, Kec. Simboro Dan Kepulauan, Kabupaten Mamuju",SULAWESI BARAT,91512.0,Indonesia,,,,-2.6887217,118.86883,https://maps.google.com/?cid=0x0:0xeb59f803ab86ee60,
perumahan,Komplek perumahan,Kavling Al NUR,"8R5M+7X, Rangas, Kec. Simboro Dan Kepulauan, Kabupaten Mamuju, Sulawesi Barat","Kabupaten Mamuju, Sulawesi Barat",SULAWESI BARAT,,Indonesia,82189047466.0,,,-2.691819,118.83499,https://maps.google.com/?cid=0x0:0xa2bda105770a6f9a,
perumahan,Komplek perumahan,Rumah Dahir,"8R2F+7GG, Rangas, Kec. Simboro Dan Kepulauan, Kabupaten Mamuju, Sulawesi Barat 91512","Rangas, Kec. Simboro Dan Kepulauan, Kabupaten Mamuju",SULAWESI BARAT,91512.0,Indonesia,,,,-2.6992903,118.8237284,https://maps.google.com/?cid=0x0:0x51b468bdb49d1b80,
perumahan,Komplek perumahan,Perumahan bukit,"8VG8+J3P, Jl. Martadinata, Simboro, Kec. Simboro Dan Kepulauan, Kabupaten Mamuju, Sulawesi Barat 91512","Jl. Martadinata, Simboro, Kec. Simboro Dan Kepulauan, Kabupaten Mamuju",SULAWESI BARAT,91512.0,Indonesia,81299537894.0,,,-2.673405,118.8652152,https://maps.google.com/?cid=0x0:0x5d5d2bf40613b87,
perumahan,Perumahan,Pamombong Simboro,"7RRW+JW, Simboro, Kec. Simboro Dan Kepulauan, Kabupaten Mamuju, Sulawesi Barat","Kabupaten Mamuju, Sulawesi Barat",SULAWESI BARAT,,Indonesia,,,,-2.708452,118.847265,https://maps.google.com/?cid=0x0:0xa4997342564f3fda,
perumahan,Perumahan,Perumahan Landi Indah - Rangas,"8RGJ+367, Rangas, Kec. Simboro Dan Kepulauan, Kabupaten Mamuju, Sulawesi Barat 91512","Rangas, Kec. Simboro Dan Kepulauan, Kabupaten Mamuju",SULAWESI BARAT,91512.0,Indonesia,,,,-2.6748281,118.8305489,https://maps.google.com/?cid=0x0:0x9690e8ec9ef0698,
perumahan,Balai masyarakat,Malauwa binanga,"8QPX+9MR, Tapandullu, Kec. Simboro Dan Kepulauan, Kabupaten Mamuju, Sulawesi Barat 91513","Tapandullu, Kec. Simboro Dan Kepulauan, Kabupaten Mamuju",SULAWESI BARAT,91513.0,Indonesia,,,,-2.6640434,118.7991463,https://maps.google.com/?cid=0x0:0x6395d3bbd4dc361b,
perumahan,Perhimpunan Pengembang Perumahan,Elpi,"8R2M+35, Rangas, Kec. Simboro Dan Kepulauan, Kabupaten Mamuju, Sulawesi Barat","Kabupaten Mamuju, Sulawesi Barat",SULAWESI BARAT,,Indonesia,,,,-2.6998587,118.8329298,https://maps.google.com/?cid=0x0:0xff63724874ea54aa,
perumahan,perumahan,Sumare / dusun batulappa selatan,"8RX4+P8W, Sumare, Kec. Simboro Dan Kepulauan, Kabupaten Mamuju, Sulawesi Barat 91513","Sumare, Kec. Simboro Dan Kepulauan, Kabupaten Mamuju",SULAWESI BARAT,91513.0,Indonesia,,,,-2.6506422,118.8058336,https://maps.google.com/?cid=0x0:0x4292c0516cfdd207,
perumahan,Pembangunan Perumahan,Yusuf Azis,"7RXF+W6G, Unnamed Road, Rangas, Kec. Simboro Dan Kepulauan, Kabupaten Mamuju, Sulawesi Barat 91512","Unnamed Road, Rangas, Kec. Simboro Dan Kepulauan, Kabupaten Mamuju",SULAWESI BARAT,91512.0,Indonesia,,,,-2.700187,118.823063,https://maps.google.com/?cid=0x0:0x2aaa1ec9d30cbfdb,
perumahan,Komplek perumahan,Perumahan nelayan,"8RX3+PV, Sumare, Kec. Simboro Dan Kepulauan, Kabupaten Mamuju, Sulawesi Barat","Kabupaten Mamuju, Sulawesi Barat",SULAWESI BARAT,,Indonesia,,,,-2.650416,118.80519,https://maps.google.com/?cid=0x0:0xd9564d13898f280a,
perumahan,Komplek perumahan,Jhonk oto lhotu,"8R2F+35G, Rangas, Kec. Simboro Dan Kepulauan, Kabupaten Mamuju, Sulawesi Barat 91512","Rangas, Kec. Simboro Dan Kepulauan, Kabupaten Mamuju",SULAWESI BARAT,91512.0,Indonesia,,,,-2.6998329,118.8216341,https://maps.google.com/?cid=0x0:0xfaabf6f11a7da881,
perumahan,Toko umum,Rumah Tua,"9R34+5RQ, Sumare, Kec. Simboro Dan Kepulauan, Kabupaten Mamuju, Sulawesi Barat 91513","Sumare, Kec. Simboro Dan Kepulauan, Kabupaten Mamuju",SULAWESI BARAT,91513.0,Indonesia,,,,-2.6470143,118.8071983,https://maps.google.com/?cid=0x0:0x125f6a4c9c89ee72,
perumahan,Perhimpunan Pengembang Perumahan,Rumah produksi abon ikan lopi biru 4,"8RX4+J77, Sumare, Kec. Simboro Dan Kepulauan, Kabupaten Mamuju, Sulawesi Barat","Kabupaten Mamuju, Sulawesi Barat",SULAWESI BARAT,,Indonesia,,,,-2.6509604,118.8056816,https://maps.google.com/?cid=0x0:0x59e32567284561a4,
perumahan,Pembangunan Perumahan,"Salupangi,Kel Simboro kec, simboro","8V69+GG8, Simboro, Kec. Simboro Dan Kepulauan, Kabupaten Mamuju, Sulawesi Barat 91512","Simboro, Kec. Simboro Dan Kepulauan, Kabupaten Mamuju",SULAWESI BARAT,91512.0,Indonesia,,,,-2.6887217,118.86883,https://maps.google.com/?cid=0x0:0x518548883de51680,
perumahan,,Perumahan griya utama residence pamombong,"7VW4+6P, Simboro, Kec. Simboro Dan Kepulauan, Kabupaten Mamuju, Sulawesi Barat 91512","Simboro, Kec. Simboro Dan Kepulauan, Kabupaten Mamuju",SULAWESI BARAT,91512.0,Indonesia,81355981349.0,,,-2.7043826,118.8568427,https://maps.google.com/?cid=0x0:0x9eeb09cf404d9666,
perumahan,Pembangunan Perumahan,BTN GRIYA SIMBORO PERMAI,"8V27+G94, Simboro, Kec. Simboro Dan Kepulauan, Kabupaten Mamuju, Sulawesi Barat 91512","Simboro, Kec. Simboro Dan Kepulauan, Kabupaten Mamuju",SULAWESI BARAT,91512.0,Indonesia,,,,-2.6987368,118.8634504,https://maps.google.com/?cid=0x0:0x135ca17441ed8d88,
perumahan,Komplek perumahan,Perumahan Puncak Indah Permai,"8V26+2VV, Simboro, Kec. Simboro Dan Kepulauan, Kabupaten Mamuju, Sulawesi Barat 91512","Simboro, Kec. Simboro Dan Kepulauan, Kabupaten Mamuju",SULAWESI BARAT,91512.0,Indonesia,,,,-2.6998839,118.8621762,https://maps.google.com/?cid=0x0:0xc3b6be3f45bbc9c1,
perumahan,Komplek perumahan,Perumahan Risha bulutakkang,"9R6M+FJ4 Perumahan Risha bulutakkang, Rangas, Kec. Simboro Dan Kepulauan, Kabupaten Mamuju, Sulawesi Barat 91512","Rangas, Kec. Simboro Dan Kepulauan, Kabupaten Mamuju",SULAWESI BARAT,91512.0,Indonesia,,,,-2.6388507,118.8340741,https://maps.google.com/?cid=0x0:0xe45345876b15d77f,
perumahan,Perumahan,GRAHA NUSA 4,"8V98+2CC, Simboro, Kec. Simboro Dan Kepulauan, Kabupaten Mamuju, Sulawesi Barat 91512","Simboro, Kec. Simboro Dan Kepulauan, Kabupaten Mamuju",SULAWESI BARAT,91512.0,Indonesia,,,,-2.6824396,118.8660076,https://maps.google.com/?cid=0x0:0xf7b45135e61024ec,
perumahan,perumahan,Kec. Tapalang,"Kabupaten Mamuju, Sulawesi Barat","Kabupaten Mamuju, Sulawesi Barat",SULAWESI BARAT,,Indonesia,,,,-2.8670322,118.8748621,https://maps.google.com/?cid=0x0:0x7352010099a68a2b,
perumahan,Pembangunan Perumahan,Tapalang,"3VVR+F5M, Taan, Kec. Tapalang, Kabupaten Mamuju, Sulawesi Barat 91352","Taan, Kec. Tapalang, Kabupaten Mamuju",SULAWESI BARAT,91352.0,Indonesia,,,,-2.9060822,118.8918043,https://maps.google.com/?cid=0x0:0xd9d7bfe476bff048,
perumahan,Komplek perumahan,"Dusun Pa'bettengan, Desa Taan, Kecamatan Tapalang, Kabupaten Mamuju","3VQP+7H5, Taan, Kec. Tapalang, Kabupaten Mamuju, Sulawesi Barat 91352","Taan, Kec. Tapalang, Kabupaten Mamuju",SULAWESI BARAT,91352.0,Indonesia,,,,-2.9118526,118.8864958,https://maps.google.com/?cid=0x0:0xb24a95519df4ae9a,
perumahan,Komplek perumahan,Elwika House,"4VR9+M2C, Galung, Kec. Tapalang, Kabupaten Mamuju, Sulawesi Barat 91352","Galung, Kec. Tapalang, Kabupaten Mamuju",SULAWESI BARAT,91352.0,Indonesia,,,,-2.8580355,118.8674615,https://maps.google.com/?cid=0x0:0x23070b96972ccb7b,
perumahan,Komplek perumahan,Pikri,"Jl. Poros Majene - Mamuju No.346, Kasambang, Kec. Tapalang, Kabupaten Mamuju, Sulawesi Barat 91352","Kasambang, Kec. Tapalang, Kabupaten Mamuju",SULAWESI BARAT,91352.0,Indonesia,,,,-2.8843247,118.8864026,https://maps.google.com/?cid=0x0:0xea58b2b65f9e9382,
perumahan,Komplek perumahan,Rumah Djalaluddin Hr,"3VQP+Q98, Taan, Kec. Tapalang, Kabupaten Mamuju, Sulawesi Barat 91352","Taan, Kec. Tapalang, Kabupaten Mamuju",SULAWESI BARAT,91352.0,Indonesia,,,,-2.9108763,118.885873,https://maps.google.com/?cid=0x0:0x66275fc40125bdc8,
perumahan,Perhimpunan Pengembang Perumahan,Gg taan,"3VVQ+G78, Taan, Kec. Tapalang, Kabupaten Mamuju, Sulawesi Barat 91352","Taan, Kec. Tapalang, Kabupaten Mamuju",SULAWESI BARAT,91352.0,Indonesia,,,,-2.9061288,118.8882435,https://maps.google.com/?cid=0x0:0x279a3955378beb6a,
perumahan,Dapur Umum,NURWAHDINI,"5V24+7CX, Tampalang, Kec. Tapalang, Kabupaten Mamuju, Sulawesi Barat 91352","Tampalang, Kec. Tapalang, Kabupaten Mamuju",SULAWESI BARAT,91352.0,Indonesia,,,,-2.8492679,118.8562049,https://maps.google.com/?cid=0x0:0xec2cca1d1601d4ac,
perumahan,Komplek perumahan,Firas Alrasyid,"4VP9+9FF, Jl. Poros Majene - Mamuju, Galung, Kec. Tapalang, Kabupaten Mamuju, Sulawesi Barat 91352","Jl. Poros Majene - Mamuju, Galung, Kec. Tapalang, Kabupaten Mamuju",SULAWESI BARAT,91352.0,Indonesia,,,,-2.8637472,118.868934,https://maps.google.com/?cid=0x0:0x8da5b7140390884e,
perumahan,Komplek perumahan,RUMAH AZQA,"4VR9+M2C, Galung, Kec. Tapalang, Kabupaten Mamuju, Sulawesi Barat 91352","Galung, Kec. Tapalang, Kabupaten Mamuju",SULAWESI BARAT,91352.0,Indonesia,,,,-2.8587443,118.8677791,https://maps.google.com/?cid=0x0:0x2764c70f574cd3b4,
perumahan,Kebun Raya,Salubiru,"5VH7+F5H, Takandeang, Kec. Tapalang, Kabupaten Mamuju, Sulawesi Barat 91352","Takandeang, Kec. Tapalang, Kabupaten Mamuju",SULAWESI BARAT,91352.0,Indonesia,,,,-2.8212893,118.8629345,https://maps.google.com/?cid=0x0:0xa0878efc60e3ff92,
perumahan,perumahan,RIFKI,"5V96+457, Jl. Poros Majene - Mamuju, Takandeang, Kec. Tapalang, Kabupaten Mamuju, Sulawesi Barat 91352","Jl. Poros Majene - Mamuju, Takandeang, Kec. Tapalang, Kabupaten Mamuju",SULAWESI BARAT,91352.0,Indonesia,,,,-2.8322153,118.8603307,https://maps.google.com/?cid=0x0:0xef52fa9d5e03e5fb,
perumahan,Komplek perumahan,Jalan Fatimah Innya,"5V26+J4, Tampalang, Kec. Tapalang, Kabupaten Mamuju, Sulawesi Barat","Kabupaten Mamuju, Sulawesi Barat",SULAWESI BARAT,,Indonesia,,,,-2.848212,118.8610505,https://maps.google.com/?cid=0x0:0x9c85805b6d6ce8a5,
perumahan,Perhimpunan Pengembang Perumahan,kadus lenang,"5V7C+82, Tampalang, Kec. Tapalang, Kabupaten Mamuju, Sulawesi Barat 91352","Tampalang, Kec. Tapalang, Kabupaten Mamuju",SULAWESI BARAT,91352.0,Indonesia,,,,-2.836739,118.870046,https://maps.google.com/?cid=0x0:0x18250d8bd7c2da82,
perumahan,Komplek perumahan,Rumah alwi,"4VRF+W4W, Galung, Kec. Tapalang, Kabupaten Mamuju, Sulawesi Barat 91352","Galung, Kec. Tapalang, Kabupaten Mamuju",SULAWESI BARAT,91352.0,Indonesia,,,,-2.857693,118.8727987,https://maps.google.com/?cid=0x0:0xdc00ce84546fd8d8,
perumahan,perumahan,Sky home,"4RVJ+GX2, Pasabu, Kec. Tapalang Bar., Kabupaten Mamuju, Sulawesi Barat 91352","Pasabu, Kec. Tapalang Bar., Kabupaten Mamuju",SULAWESI BARAT,91352.0,Indonesia,,,,-2.8562848,118.8325647,https://maps.google.com/?cid=0x0:0xf58c3fc12e7dcfcd,
perumahan,perumahan,Ashariansyah,"4VR9+M2C, Galung, Kec. Tapalang, Kabupaten Mamuju, Sulawesi Barat 91352","Galung, Kec. Tapalang, Kabupaten Mamuju",SULAWESI BARAT,91352.0,Indonesia,,,,-2.858695,118.867735,https://maps.google.com/?cid=0x0:0x25c7588f82011944,
perumahan,Pembangunan Perumahan,Kepala dusun lenang,"5V7C+82, Tampalang, Kec. Tapalang, Kabupaten Mamuju, Sulawesi Barat 91352","Tampalang, Kec. Tapalang, Kabupaten Mamuju",SULAWESI BARAT,91352.0,Indonesia,,,,-2.8364037,118.8710025,https://maps.google.com/?cid=0x0:0x8679867d7dcf5d18,
perumahan,Perhimpunan Pengembang Perumahan,S. Bangsawan,"4VV6+87X, Jl. Poros Majene - Mamuju, Galung, Kec. Tapalang, Kabupaten Mamuju, Sulawesi Barat 91352","Jl. Poros Majene - Mamuju, Galung, Kec. Tapalang, Kabupaten Mamuju",SULAWESI BARAT,91352.0,Indonesia,,,,-2.8566294,118.8607413,https://maps.google.com/?cid=0x0:0xfbdc46165f5e24c1,
perumahan,Komplek perumahan,Rumah Hasanuddin,"4V6P+6QV, Lingkungan marurinding, Kasambang, Kec. Tapalang, Kabupaten Mamuju, Sulawesi Barat 91352","Lingkungan marurinding, Kasambang, Kec. Tapalang, Kabupaten Mamuju",SULAWESI BARAT,91352.0,Indonesia,,,,-2.8893893,118.8869243,https://maps.google.com/?cid=0x0:0x794c8c74d990c3cd,
perumahan,Pembangunan Perumahan,Garden 3 A,"3VQQ+V98, Taan, Kec. Tapalang, Kabupaten Mamuju, Sulawesi Barat","Kabupaten Mamuju, Sulawesi Barat",SULAWESI BARAT,,Indonesia,,,,-2.9103365,118.8884556,https://maps.google.com/?cid=0x0:0xf89fb67678ee5cd5,
perumahan,Pembangunan Perumahan,Muh. Arsyad - alm. Justia,"4V8P+34G Ling, tengah, Kasambang, Kec. Tapalang Bar., Kabupaten Mamuju, Sulawesi Barat 91352","tengah, Kasambang, Kec. Tapalang Bar., Kabupaten Mamuju",SULAWESI BARAT,91352.0,Indonesia,,,,-2.8848228,118.8853204,https://maps.google.com/?cid=0x0:0x413d06b16711b3ee,
perumahan,Komplek perumahan,RUMAH PANJI PEMBINA PRAMUKA,"4V6P+CQ4, Kasambang, Kec. Tapalang, Kabupaten Mamuju, Sulawesi Barat","Kabupaten Mamuju, Sulawesi Barat",SULAWESI BARAT,,Indonesia,81245290647.0,,,-2.8889795,118.8869393,https://maps.google.com/?cid=0x0:0xab62a0207f7a3c3e,
perumahan,Binatu Cucian Kering,AISY BERKAH LAUNDRY,"4V9M+PHF, Kasambang, Kec. Tapalang, Kabupaten Mamuju, Sulawesi Barat 91352","Kasambang, Kec. Tapalang, Kabupaten Mamuju",SULAWESI BARAT,91352.0,Indonesia,81241644402.0,,,-2.8806682,118.883887,https://maps.google.com/?cid=0x0:0xeb613a67070c019,
perumahan,Komplek perumahan,Farid,"4VP9+9FF, Jl. Poros Majene - Mamuju, Galung, Kec. Tapalang, Kabupaten Mamuju, Sulawesi Barat 91352","Jl. Poros Majene - Mamuju, Galung, Kec. Tapalang, Kabupaten Mamuju",SULAWESI BARAT,91352.0,Indonesia,,,,-2.8639052,118.868676,https://maps.google.com/?cid=0x0:0x12c79e411d98b5bb,
perumahan,Komplek perumahan,Rosnah online,"4VFH+9QM, Jl. Poros Majene - Mamuju, Kasambang, Kec. Tapalang, Kabupaten Mamuju, Sulawesi Barat 91352","Jl. Poros Majene - Mamuju, Kasambang, Kec. Tapalang, Kabupaten Mamuju",SULAWESI BARAT,91352.0,Indonesia,,,,-2.8764815,118.8793861,https://maps.google.com/?cid=0x0:0x4c46526472f4c3d8,
perumahan,perumahan,Kec. Tapalang Bar.,"Kabupaten Mamuju, Sulawesi Barat","Kabupaten Mamuju, Sulawesi Barat",SULAWESI BARAT,,Indonesia,,,,-2.8544488,118.8344475,https://maps.google.com/?cid=0x0:0x399150dc9ea10ec1,
perumahan,perumahan,Sky home,"4RVJ+GX2, Pasabu, Kec. Tapalang Bar., Kabupaten Mamuju, Sulawesi Barat 91352","Pasabu, Kec. Tapalang Bar., Kabupaten Mamuju",SULAWESI BARAT,91352.0,Indonesia,,,,-2.8562848,118.8325647,https://maps.google.com/?cid=0x0:0xf58c3fc12e7dcfcd,
perumahan,Pembangunan Perumahan,Ikram,"4RWG+W36, Pasabu, Kec. Tapalang Bar., Kabupaten Mamuju, Sulawesi Barat 91352","Pasabu, Kec. Tapalang Bar., Kabupaten Mamuju",SULAWESI BARAT,91352.0,Indonesia,,,,-2.8533243,118.8259082,https://maps.google.com/?cid=0x0:0x368115c88a64300d,
perumahan,perumahan,Rumah Asriani Rahayu (Ayu),"5QV9+M56, Labuang Rano, Kec. Tapalang Bar., Kabupaten Mamuju, Sulawesi Barat 91352","Labuang Rano, Kec. Tapalang Bar., Kabupaten Mamuju",SULAWESI BARAT,91352.0,Indonesia,,,,-2.8051506,118.76777,https://maps.google.com/?cid=0x0:0x959c1294d96ff7fc,
perumahan,perumahan,RIFKI,"5V96+457, Jl. Poros Majene - Mamuju, Takandeang, Kec. Tapalang, Kabupaten Mamuju, Sulawesi Barat 91352","Jl. Poros Majene - Mamuju, Takandeang, Kec. Tapalang, Kabupaten Mamuju",SULAWESI BARAT,91352.0,Indonesia,,,,-2.8322153,118.8603307,https://maps.google.com/?cid=0x0:0xef52fa9d5e03e5fb,
perumahan,Komplek perumahan,Salunipa,"6QXG+FWQ, Lebani, Kec. Tapalang Bar., Kabupaten Mamuju, Sulawesi Barat 91352","Lebani, Kec. Tapalang Bar., Kabupaten Mamuju",SULAWESI BARAT,91352.0,Indonesia,,,,-2.7513137,118.777345,https://maps.google.com/?cid=0x0:0x1eafca87b79df79e,
perumahan,Perhimpunan Pengembang Perumahan,S. Bangsawan,"4VV6+87X, Jl. Poros Majene - Mamuju, Galung, Kec. Tapalang, Kabupaten Mamuju, Sulawesi Barat 91352","Jl. Poros Majene - Mamuju, Galung, Kec. Tapalang, Kabupaten Mamuju",SULAWESI BARAT,91352.0,Indonesia,,,,-2.8566294,118.8607413,https://maps.google.com/?cid=0x0:0xfbdc46165f5e24c1,
perumahan,Komplek perumahan,Rumah ramlah,"5QV9+M56, Labuang Rano, Kec. Tapalang Bar., Kabupaten Mamuju, Sulawesi Barat 91352","Labuang Rano, Kec. Tapalang Bar., Kabupaten Mamuju",SULAWESI BARAT,91352.0,Indonesia,,,,-2.8055253,118.7675725,https://maps.google.com/?cid=0x0:0xac90e7726463012a,
perumahan,Pembangunan Perumahan,Tapalang,"3VVR+F5M, Taan, Kec. Tapalang, Kabupaten Mamuju, Sulawesi Barat 91352","Taan, Kec. Tapalang, Kabupaten Mamuju",SULAWESI BARAT,91352.0,Indonesia,,,,-2.9060822,118.8918043,https://maps.google.com/?cid=0x0:0xd9d7bfe476bff048,
perumahan,Komplek perumahan,Rumah nenek,"6QP6+255, tapangkang, Kec. Tapalang Bar., Kabupaten Mamuju, Sulawesi Barat 91352","tapangkang, Kec. Tapalang Bar., Kabupaten Mamuju",SULAWESI BARAT,91352.0,Indonesia,,,,-2.7649875,118.7604844,https://maps.google.com/?cid=0x0:0x8d26e66f54f10d7b,
perumahan,Komplek perumahan,Rumah JAINAL,"5QWG+M2, Labuang Rano, Kec. Tapalang Bar., Kabupaten Mamuju, Sulawesi Barat","Kabupaten Mamuju, Sulawesi Barat",SULAWESI BARAT,,Indonesia,,,,-2.8033048,118.7750672,https://maps.google.com/?cid=0x0:0xb8c765faee7494ab,
perumahan,Komplek perumahan,Izzah,"4RXM+42F, Pasabu, Kec. Tapalang Bar., Kabupaten Mamuju, Sulawesi Barat 91352","Pasabu, Kec. Tapalang Bar., Kabupaten Mamuju",SULAWESI BARAT,91352.0,Indonesia,,,,-2.8521928,118.832556,https://maps.google.com/?cid=0x0:0x8c2c9cdbc07596b2,
perumahan,Komplek perumahan,Jalan Fatimah Innya,"5V26+J4, Tampalang, Kec. Tapalang, Kabupaten Mamuju, Sulawesi Barat","Kabupaten Mamuju, Sulawesi Barat",SULAWESI BARAT,,Indonesia,,,,-2.848212,118.8610505,https://maps.google.com/?cid=0x0:0x9c85805b6d6ce8a5,
perumahan,Pembangunan Perumahan,Awhye,"4RXM+7MV, Pasabu, Kec. Tapalang Bar., Kabupaten Mamuju, Sulawesi Barat 91352","Pasabu, Kec. Tapalang Bar., Kabupaten Mamuju",SULAWESI BARAT,91352.0,Indonesia,,,,-2.8517725,118.8341667,https://maps.google.com/?cid=0x0:0xdecd57371a18ba43,
perumahan,Komplek perumahan,Talaja,"6Q7J+28, Labuang Rano, Kec. Tapalang Bar., Kabupaten Mamuju, Sulawesi Barat","Kabupaten Mamuju, Sulawesi Barat",SULAWESI BARAT,,Indonesia,,,,-2.787449,118.780808,https://maps.google.com/?cid=0x0:0x79b13f25563c8b38,
perumahan,Komplek perumahan,Elwika House,"4VR9+M2C, Galung, Kec. Tapalang, Kabupaten Mamuju, Sulawesi Barat 91352","Galung, Kec. Tapalang, Kabupaten Mamuju",SULAWESI BARAT,91352.0,Indonesia,,,,-2.8580355,118.8674615,https://maps.google.com/?cid=0x0:0x23070b96972ccb7b,
perumahan,Apartemen sewa liburan,Rumah Asraf,"6QM6+7CG, Lebani, Kec. Tapalang Bar., Kabupaten Mamuju, Sulawesi Barat 91352","Lebani, Kec. Tapalang Bar., Kabupaten Mamuju",SULAWESI BARAT,91352.0,Indonesia,,,,-2.766489,118.760901,https://maps.google.com/?cid=0x0:0x8ffe01d93f29d373,
perumahan,Komplek perumahan,"Dusun Pa'bettengan, Desa Taan, Kecamatan Tapalang, Kabupaten Mamuju","3VQP+7H5, Taan, Kec. Tapalang, Kabupaten Mamuju, Sulawesi Barat 91352","Taan, Kec. Tapalang, Kabupaten Mamuju",SULAWESI BARAT,91352.0,Indonesia,,,,-2.9118526,118.8864958,https://maps.google.com/?cid=0x0:0xb24a95519df4ae9a,
perumahan,Komplek perumahan,Perumahan gunung jati,"4RXJ+7P8, Pasabu, Kec. Tapalang Bar., Kabupaten Mamuju, Sulawesi Barat","Kabupaten Mamuju, Sulawesi Barat",SULAWESI BARAT,,Indonesia,,,,-2.8518352,118.8318194,https://maps.google.com/?cid=0x0:0xb5a8f3353060a466,
perumahan,Toko Pakaian,Rumah Wywy,"5R4X+6FC, Orobatu, Kec. Tapalang, Kabupaten Mamuju, Sulawesi Barat 91352","Orobatu, Kec. Tapalang, Kabupaten Mamuju",SULAWESI BARAT,91352.0,Indonesia,,,,-2.8444486,118.8486545,https://maps.google.com/?cid=0x0:0x5812553f760f7b9a,
perumahan,Pembangunan Perumahan,"AHU,kab.MAMUJU","5R25+XH4, Ahu, Kec. Tapalang Bar., Kabupaten Mamuju, Sulawesi Barat 91352","Ahu, Kec. Tapalang Bar., Kabupaten Mamuju",SULAWESI BARAT,91352.0,Indonesia,,,,-2.8475757,118.8089693,https://maps.google.com/?cid=0x0:0xebf40960fc482c73,
perumahan,Komplek perumahan,RUMAH AZQA,"4VR9+M2C, Galung, Kec. Tapalang, Kabupaten Mamuju, Sulawesi Barat 91352","Galung, Kec. Tapalang, Kabupaten Mamuju",SULAWESI BARAT,91352.0,Indonesia,,,,-2.8587443,118.8677791,https://maps.google.com/?cid=0x0:0x2764c70f574cd3b4,
perumahan,Kebun Raya,Salubiru,"5VH7+F5H, Takandeang, Kec. Tapalang, Kabupaten Mamuju, Sulawesi Barat 91352","Takandeang, Kec. Tapalang, Kabupaten Mamuju",SULAWESI BARAT,91352.0,Indonesia,,,,-2.8212893,118.8629345,https://maps.google.com/?cid=0x0:0xa0878efc60e3ff92,
perumahan,Komplek perumahan,Firas Alrasyid,"4VP9+9FF, Jl. Poros Majene - Mamuju, Galung, Kec. Tapalang, Kabupaten Mamuju, Sulawesi Barat 91352","Jl. Poros Majene - Mamuju, Galung, Kec. Tapalang, Kabupaten Mamuju",SULAWESI BARAT,91352.0,Indonesia,,,,-2.8637472,118.868934,https://maps.google.com/?cid=0x0:0x8da5b7140390884e,
perumahan,Perhimpunan Pengembang Perumahan,kadus lenang,"5V7C+82, Tampalang, Kec. Tapalang, Kabupaten Mamuju, Sulawesi Barat 91352","Tampalang, Kec. Tapalang, Kabupaten Mamuju",SULAWESI BARAT,91352.0,Indonesia,,,,-2.836739,118.870046,https://maps.google.com/?cid=0x0:0x18250d8bd7c2da82,
perumahan,perumahan,Tommo,"Kec. Tommo, Kabupaten Mamuju, Sulawesi Barat","Kabupaten Mamuju, Sulawesi Barat",SULAWESI BARAT,,Indonesia,,,,-2.2941884,119.2437011,https://maps.google.com/?cid=0x0:0x502d34d075f4f7b1,
perumahan,Komplek perumahan,Rumah Salim,"P65W+96P, Tommo, Kec. Tommo, Kabupaten Mamuju, Sulawesi Barat 91562","Tommo, Kec. Tommo, Kabupaten Mamuju",SULAWESI BARAT,91562.0,Indonesia,,,,-2.2915406,119.2455847,https://maps.google.com/?cid=0x0:0xe5eb72e4ec1bc94d,
perumahan,perumahan,Ramadani,"P64W+74, Tommo, Kec. Tommo, Kabupaten Mamuju, Sulawesi Barat","Kabupaten Mamuju, Sulawesi Barat",SULAWESI BARAT,,Indonesia,,,,-2.2942525,119.2453497,https://maps.google.com/?cid=0x0:0x40ddf6c07f069932,
perumahan,Toko umum,RT2,"P69V+H92, Tommo, Kec. Tommo, Kabupaten Mamuju, Sulawesi Barat 91562","Tommo, Kec. Tommo, Kabupaten Mamuju",SULAWESI BARAT,91562.0,Indonesia,,,,-2.2811026,119.2433924,https://maps.google.com/?cid=0x0:0x10c38c0daf617f17,
perumahan,Pembangunan Perumahan,Rumah gusti putra,"P6CR+PMV, Tommo, Kec. Tommo, Kabupaten Mamuju, Sulawesi Barat 91562","Tommo, Kec. Tommo, Kabupaten Mamuju",SULAWESI BARAT,91562.0,Indonesia,,,,-2.2772545,119.2419962,https://maps.google.com/?cid=0x0:0x10be04e384b2c649,
perumahan,Rumah Sakit,Puskesmas Tommo 2,"P67R+H9J, Tommo, Kec. Tommo, Kabupaten Mamuju, Sulawesi Barat 91562","Tommo, Kec. Tommo, Kabupaten Mamuju",SULAWESI BARAT,91562.0,Indonesia,,,,-2.2860348,119.2408999,https://maps.google.com/?cid=0x0:0x6ec00ff7b0da05,
perumahan,Pembangunan Perumahan,Asri adi (on donk),"P66R+H75, Dusun Mukti Sari, Tommo, Kec. Tommo, Kabupaten Mamuju, Sulawesi Barat","Kabupaten Mamuju, Sulawesi Barat",SULAWESI BARAT,,Indonesia,,,,-2.288821,119.2406767,https://maps.google.com/?cid=0x0:0xa6550f6f7e7a77a3,
perumahan,Komplek perumahan,Lombok timur,"P748+89X, Buana Sakti, Kec. Tommo, Kabupaten Mamuju, Sulawesi Barat 91562","Buana Sakti, Kec. Tommo, Kabupaten Mamuju",SULAWESI BARAT,91562.0,Indonesia,,,,-2.2941458,119.2659904,https://maps.google.com/?cid=0x0:0xed9a966392b68534,
perumahan,Komplek perumahan,Sukurencana Home,"lorong 7 No.1, Tommo, Kec. Tommo, Kabupaten Mamuju, Sulawesi Barat 91562","Tommo, Kec. Tommo, Kabupaten Mamuju",SULAWESI BARAT,91562.0,Indonesia,,,,-2.2791283,119.2460999,https://maps.google.com/?cid=0x0:0xfd5023ace2264a2f,
perumahan,Komplek perumahan,Warsana,"P6CW+792, Tommo, Kec. Tommo, Kabupaten Mamuju, Sulawesi Barat 91562","Tommo, Kec. Tommo, Kabupaten Mamuju",SULAWESI BARAT,91562.0,Indonesia,,,,-2.27936,119.2459015,https://maps.google.com/?cid=0x0:0x1177a8a61a4563ad,
perumahan,Komplek perumahan,Rumah alit jhi,"P66W+X9R, Tommo, Kec. Tommo, Kabupaten Mamuju, Sulawesi Barat 91562","Tommo, Kec. Tommo, Kabupaten Mamuju",SULAWESI BARAT,91562.0,Indonesia,,,,-2.2890713,119.2450801,https://maps.google.com/?cid=0x0:0x1ff8166aa32ed0e8,
perumahan,Pembangunan Perumahan,Tommo,"C3F5+536, Sinyonyoi, Kec. Kalukku, Kabupaten Mamuju, Sulawesi Barat","Kabupaten Mamuju, Sulawesi Barat",SULAWESI BARAT,,Indonesia,,,,-2.577097,119.0576298,https://maps.google.com/?cid=0x0:0x554d0265e317f324,
perumahan,Perhimpunan Pengembang Perumahan,Wayan NATA,"P69W+JM9, Tommo, Kec. Tommo, Kabupaten Mamuju, Sulawesi Barat 91562","Tommo, Kec. Tommo, Kabupaten Mamuju",SULAWESI BARAT,91562.0,Indonesia,,,,-2.2806458,119.2457741,https://maps.google.com/?cid=0x0:0x66b015488c973be1,
perumahan,Komplek perumahan,Nita Amelia,"P65W+X5H, Jl. Poros, Tommo, Kec. Tommo, Kabupaten Mamuju, Sulawesi Barat 91562","Jl. Poros, Tommo, Kec. Tommo, Kabupaten Mamuju",SULAWESI BARAT,91562.0,Indonesia,,,,-2.2901992,119.2454667,https://maps.google.com/?cid=0x0:0x65a9e991b6317da2,
perumahan,Pembangunan Perumahan,Jodiana,"P6CR+PMV, Tommo, Kec. Tommo, Kabupaten Mamuju, Sulawesi Barat 91562","Tommo, Kec. Tommo, Kabupaten Mamuju",SULAWESI BARAT,91562.0,Indonesia,,,,-2.2781417,119.2416583,https://maps.google.com/?cid=0x0:0xe58fc704dba17f33,
perumahan,Komplek perumahan,PUTU KARDA,"P6FQ+7WJ Lorong 2, Dusun taman sari, Tommo, Kec. Tommo, Kabupaten Mamuju, Sulawesi Barat 91562","Dusun taman sari, Tommo, Kec. Tommo, Kabupaten Mamuju",SULAWESI BARAT,91562.0,Indonesia,,,,-2.2767865,119.2397673,https://maps.google.com/?cid=0x0:0xd43d149b8a683c75,
perumahan,Komplek perumahan,Doble(Afiqah Olshop),"Lorong VIII No.2, dusun budibudaya, Tommo, Kec. Tommo, Kabupaten Mamuju, Sulawesi Barat 91562","dusun budibudaya, Tommo, Kec. Tommo, Kabupaten Mamuju",SULAWESI BARAT,91562.0,Indonesia,,,,-2.2817597,119.2453286,https://maps.google.com/?cid=0x0:0x3c0058ca29a66367,
perumahan,Komplek perumahan,Ayu puspa wati (Tuety),"P69W+RF6, Tommo, Kec. Tommo, Kabupaten Mamuju, Sulawesi Barat 91562","Tommo, Kec. Tommo, Kabupaten Mamuju",SULAWESI BARAT,91562.0,Indonesia,,,,-2.2804722,119.2461288,https://maps.google.com/?cid=0x0:0xc460077b6d23b03b,
perumahan,Komplek perumahan,Somadana,"P66W+X9R, Tommo, Kec. Tommo, Kabupaten Mamuju, Sulawesi Barat 91562","Tommo, Kec. Tommo, Kabupaten Mamuju",SULAWESI BARAT,91562.0,Indonesia,,,,-2.2892097,119.245236,https://maps.google.com/?cid=0x0:0x900ecf9860b7e15b,
perumahan,Kantor Pemerintah,"Desa kalepu, kecamatan tommo, kabupaten mamuju","M6R7+VV6 Rumah kepala desa, Kalepu, Kec. Tommo, Kabupaten Mamuju, Sulawesi Barat 91562","Kalepu, Kec. Tommo, Kabupaten Mamuju",SULAWESI BARAT,91562.0,Indonesia,,,,-2.3078427,119.2146426,https://maps.google.com/?cid=0x0:0x896ee88727c0fbc9,
perumahan,Komplek perumahan,Kios Fai Lajenjdra,"P65W+7QG, Tommo, Kec. Tommo, Kabupaten Mamuju, Sulawesi Barat 91562","Tommo, Kec. Tommo, Kabupaten Mamuju",SULAWESI BARAT,91562.0,Indonesia,,,,-2.2924381,119.2474392,https://maps.google.com/?cid=0x0:0x31eb3c0b33460429,
perumahan,Komplek perumahan,Rumah Vika Nahla,"P64V+8FG, Tommo, Kec. Tommo, Kabupaten Mamuju, Sulawesi Barat 91562","Tommo, Kec. Tommo, Kabupaten Mamuju",SULAWESI BARAT,91562.0,Indonesia,,,,-2.2941884,119.2437011,https://maps.google.com/?cid=0x0:0xf4e7be29d799ab00,
perumahan,Komplek perumahan,Rumah Anggun Ramadani,"P65W+6M6, Tommo, Kec. Tommo, Kabupaten Mamuju, Sulawesi Barat 91562","Tommo, Kec. Tommo, Kabupaten Mamuju",SULAWESI BARAT,91562.0,Indonesia,,,,-2.2919678,119.2466525,https://maps.google.com/?cid=0x0:0xd934779b3c1da802,
perumahan,Komplek perumahan,Rumah Fitriyani Agus,"P67X+G83, Tommo, Kec. Tommo, Kabupaten Mamuju, Sulawesi Barat 91562","Tommo, Kec. Tommo, Kabupaten Mamuju",SULAWESI BARAT,91562.0,Indonesia,,,,-2.2862375,119.2482969,https://maps.google.com/?cid=0x0:0x358d788139893a82,
perumahan,Komplek perumahan,Andi johanda,"puskesmas tommo 2, jln veteran belakang 2, Tommo, Kec. Tommo, Kabupaten Mamuju, Sulawesi Barat","Kabupaten Mamuju, Sulawesi Barat",SULAWESI BARAT,,Indonesia,,,,-2.2863812,119.2415738,https://maps.google.com/?cid=0x0:0x41a4c65ae8a71d3d,
perumahan,Komplek perumahan,ALYEZA,"P69V+RVP, Tommo, Kec. Tommo, Kabupaten Mamuju, Sulawesi Barat 91562","Tommo, Kec. Tommo, Kabupaten Mamuju",SULAWESI BARAT,91562.0,Indonesia,,,,-2.2804002,119.2447099,https://maps.google.com/?cid=0x0:0x775dc345f1e96b11,
perumahan,Komplek perumahan,Dalle,"P65Q+VWG, Tommo, Kec. Tommo, Kabupaten Mamuju, Sulawesi Barat 91562","Tommo, Kec. Tommo, Kabupaten Mamuju",SULAWESI BARAT,91562.0,Indonesia,,,,-2.290323,119.2398282,https://maps.google.com/?cid=0x0:0x7792c4c6fccc3d4b,
perumahan,Otoritas Perumahan,Perumahan Tomado Reso,"JRHP+3VG, Jl. Karet, Pondok Cina, Kecamatan Beji, Kota Depok, Jawa Barat 16424","Jl. Karet, Pondok Cina, Kecamatan Beji, Kota Depok",SULAWESI BARAT,16424.0,Indonesia,,,,-6.372319,106.8372093,https://maps.google.com/?cid=0x0:0x3000cbc4fa2e07b5,
perumahan,Perumahan,Perumahan Twin City,"Jl. Raya Kalisuren, Kalisuren, Kec. Tajur Halang, Kabupaten Bogor, Jawa Barat 16320","Kalisuren, Kec. Tajur Halang, Kabupaten Bogor",SULAWESI BARAT,16320.0,Indonesia,82125773697.0,,,-6.4695675,106.7531182,https://maps.google.com/?cid=0x0:0xe69d9881b6cfa415,
