Category,Real Category,Business Name,Address,City,State,Postal Code,Country,Phone,Email,Website,Latitude,Longitude,Map Link,Details Link
hardware store,hardware store,Nusa Tenggara Bar. 84211,"Kareke, Kec. Dompu, Kabupaten Dompu, Nusa Tenggara Bar.","Kabupaten Dompu, Nusa Tenggara Bar.",NUSA TENGGARA BARAT,,Indonesia,,,,-85.486.112,1.184.717.975,https://maps.google.com/?cid=0x0:0x19504ec7d1952ed4,
hardware store,Toko Bahan Bangunan,MR.DIY,"Jl. Soekarno-Hatta No.29, Bada, Kec. Dompu, Kabupaten Dompu, Nusa Tenggara Bar. 84213","Bada, Kec. Dompu, Kabupaten Dompu",NUSA TENGGARA BARAT,84213.0,Indonesia,2130022789,,,-85.381.058,1.184.636.809,https://maps.google.com/?cid=0x0:0x782ef44faba77107,
hardware store,Kantor Perusahaan,TB. Bangkit Bersama,"Dusun Dorongguni, Kareke, Kec. Dompu, Kabupaten Dompu, Nusa Tenggara Bar. 84219","Kareke, Kec. Dompu, Kabupaten Dompu",NUSA TENGGARA BARAT,84219.0,Indonesia,82340031984,,,-85.511.303,1.184.811.153,https://maps.google.com/?cid=0x0:0x503b570080f8a30a,
hardware store,Toko Bahan Bangunan,TOKO TAUFIK,"Jl. . Jenderal Sudirman No.27, Bada, Kec. Dompu, Kabupaten Dompu, Nusa Tenggara Bar. 84213","Bada, Kec. Dompu, Kabupaten Dompu",NUSA TENGGARA BARAT,84213.0,Indonesia,37321160,,,-85.394.741,1.184.608.954,https://maps.google.com/?cid=0x0:0xa99b586cc9779c94,
hardware store,Toko Bahan Bangunan,Toko Niaga Bangunan,"Deket Jl. Lkr. Utara, Karijawa, Kec. Dompu, Kabupaten Dompu, Nusa Tenggara Bar. 84216","Karijawa, Kec. Dompu, Kabupaten Dompu",NUSA TENGGARA BARAT,84216.0,Indonesia,82339774144,,,-85.320.637,1.184.537.654,https://maps.google.com/?cid=0x0:0x151f72cc40b0c79e,
hardware store,Toko,Toko Harapan Jaya Elektronik,"FF66+398, Bada, Kec. Dompu, Kabupaten Dompu, Nusa Tenggara Bar. 84213","Bada, Kec. Dompu, Kabupaten Dompu",NUSA TENGGARA BARAT,84213.0,Indonesia,373623536,,,-85.398.359,1.184.609.599,https://maps.google.com/?cid=0x0:0xb5de5ea2342eec05,
hardware store,Toko Bahan Bangunan,Tb. Mataram,"FF66+78F, Jl. . Jenderal Sudirman, Bada, Kec. Dompu, Kabupaten Dompu, Nusa Tenggara Bar. 84213","Jl. . Jenderal Sudirman, Bada, Kec. Dompu, Kabupaten Dompu",NUSA TENGGARA BARAT,84213.0,Indonesia,,,,-85.393.228,1.184.608.038,https://maps.google.com/?cid=0x0:0x1a78f82c6f462f29,
hardware store,Toko Bahan Bangunan,Azizah plafon pvc,"Jl. Lele No.1, Bali, Kec. Dompu, Kabupaten Dompu, Nusa Tenggara Bar. 84213","Bali, Kec. Dompu, Kabupaten Dompu",NUSA TENGGARA BARAT,84213.0,Indonesia,81287663379,,,-85.354.589,1.184.610.978,https://maps.google.com/?cid=0x0:0x94239182ea395f34,
hardware store,Toko Elektronik,Toko Asia,"Jl. Kartini No.5, Bada, Kec. Dompu, Kabupaten Dompu, Nusa Tenggara Bar. 84211","Bada, Kec. Dompu, Kabupaten Dompu",NUSA TENGGARA BARAT,84211.0,Indonesia,,,,-85.403.904,1.184.610.864,https://maps.google.com/?cid=0x0:0xde6b5224d9805388,
hardware store,Gudang,Toko Harapan Jaya Meubel,"FF66+HM6, Bada, Kec. Dompu, Kabupaten Dompu, Nusa Tenggara Bar. 84213","Bada, Kec. Dompu, Kabupaten Dompu",NUSA TENGGARA BARAT,84213.0,Indonesia,37322027,,,-85.385.755,1.184.616.466,https://maps.google.com/?cid=0x0:0xd9cad862c73d54c1,
hardware store,Toko Bahan Bangunan,Toko Bangunan Bage Rezo,"jln pahlawan no.10, Kandai Dua, Kec. Woja, Kabupaten Dompu, Nusa Tenggara Bar. 84219","Kandai Dua, Kec. Woja, Kabupaten Dompu",NUSA TENGGARA BARAT,84219.0,Indonesia,82339754936,,,-8.543.326,1.184.326.834,https://maps.google.com/?cid=0x0:0x9583b7cca9ab328,
hardware store,Toko Bahan Bangunan,UD Selamat,"CFP4+CRJ, Unnamed Road, Dorebara, Kec. Dompu, Kabupaten Dompu, Nusa Tenggara Bar. 84219","Unnamed Road, Dorebara, Kec. Dompu, Kabupaten Dompu",NUSA TENGGARA BARAT,84219.0,Indonesia,,,,-85.639.223,1.184.570.141,https://maps.google.com/?cid=0x0:0x3f8e70fa9cd6f99e,
hardware store,Toko Bahan Bangunan,Pt Dua Nogo Sakti,"Jl. Syech Moh., Dorotangga, jado, Kabupaten Dompu, Nusa Tenggara Bar. 84213","Dorotangga, jado, Kabupaten Dompu",NUSA TENGGARA BARAT,84213.0,Indonesia,85706128299,,,-85.280.824,1.184.689.952,https://maps.google.com/?cid=0x0:0xa1d9a69a83f3af00,
hardware store,Toko Komputer,Sentral Muslim Computer Dompu,"FFJJ+32X, OO, Kec. Dompu, Kabupaten Dompu, Nusa Tenggara Bar. 84214","OO, Kec. Dompu, Kabupaten Dompu",NUSA TENGGARA BARAT,84214.0,Indonesia,85338969696,,,-85.187.493,1.184.788.052,https://maps.google.com/?cid=0x0:0x7e73c18b4dfb993b,
hardware store,hardware store,Nusa Tenggara Bar. 84212,"Kec. Dompu, Kabupaten Dompu, Nusa Tenggara Bar.","Kabupaten Dompu, Nusa Tenggara Bar.",NUSA TENGGARA BARAT,,Indonesia,,,,-85.476.799,1.184.834.766,https://maps.google.com/?cid=0x0:0x6aea138ba2d36218,
hardware store,Toko Bahan Bangunan,MR.DIY,"Jl. Soekarno-Hatta No.29, Bada, Kec. Dompu, Kabupaten Dompu, Nusa Tenggara Bar. 84213","Bada, Kec. Dompu, Kabupaten Dompu",NUSA TENGGARA BARAT,84213.0,Indonesia,2130022789,,,-85.381.058,1.184.636.809,https://maps.google.com/?cid=0x0:0x782ef44faba77107,
hardware store,Kantor Perusahaan,TB. Bangkit Bersama,"Dusun Dorongguni, Kareke, Kec. Dompu, Kabupaten Dompu, Nusa Tenggara Bar. 84219","Kareke, Kec. Dompu, Kabupaten Dompu",NUSA TENGGARA BARAT,84219.0,Indonesia,82340031984,,,-85.511.303,1.184.811.153,https://maps.google.com/?cid=0x0:0x503b570080f8a30a,
hardware store,Toko Bahan Bangunan,TOKO TAUFIK,"Jl. . Jenderal Sudirman No.27, Bada, Kec. Dompu, Kabupaten Dompu, Nusa Tenggara Bar. 84213","Bada, Kec. Dompu, Kabupaten Dompu",NUSA TENGGARA BARAT,84213.0,Indonesia,37321160,,,-85.394.741,1.184.608.954,https://maps.google.com/?cid=0x0:0xa99b586cc9779c94,
hardware store,Toko Swalayan,Bolly Deptstore Dompu,"FF65+4FH, Jl. Manuru Bata Dompu, Bada, Kec. Dompu, Kabupaten Dompu, Nusa Tenggara Bar. 84213","Jl. Manuru Bata Dompu, Bada, Kec. Dompu, Kabupaten Dompu",NUSA TENGGARA BARAT,84213.0,Indonesia,,,,-85.396.801,1.184.587.322,https://maps.google.com/?cid=0x0:0x5b99d2bfd3f4e4cf,
hardware store,Toko Bahan Bangunan,Azizah plafon pvc,"Jl. Lele No.1, Bali, Kec. Dompu, Kabupaten Dompu, Nusa Tenggara Bar. 84213","Bali, Kec. Dompu, Kabupaten Dompu",NUSA TENGGARA BARAT,84213.0,Indonesia,81287663379,,,-85.354.589,1.184.610.978,https://maps.google.com/?cid=0x0:0x94239182ea395f34,
hardware store,Toko Bahan Bangunan,Toko Niaga Bangunan,"Deket Jl. Lkr. Utara, Karijawa, Kec. Dompu, Kabupaten Dompu, Nusa Tenggara Bar. 84216","Karijawa, Kec. Dompu, Kabupaten Dompu",NUSA TENGGARA BARAT,84216.0,Indonesia,82339774144,,,-85.320.637,1.184.537.654,https://maps.google.com/?cid=0x0:0x151f72cc40b0c79e,
hardware store,Toko,Toko Harapan Jaya Elektronik,"FF66+398, Bada, Kec. Dompu, Kabupaten Dompu, Nusa Tenggara Bar. 84213","Bada, Kec. Dompu, Kabupaten Dompu",NUSA TENGGARA BARAT,84213.0,Indonesia,373623536,,,-85.398.359,1.184.609.599,https://maps.google.com/?cid=0x0:0xb5de5ea2342eec05,
hardware store,Toko Bahan Bangunan,Toko Bahan Bangunan Anugerah Simpasai,"Jl. Buntu Simpasai Woja, Kandai Dua, Kec. Woja, Kabupaten Dompu, Nusa Tenggara Bar. 84218","Kandai Dua, Kec. Woja, Kabupaten Dompu",NUSA TENGGARA BARAT,84218.0,Indonesia,,,,-85.392.106,118.441.274,https://maps.google.com/?cid=0x0:0x4a5418154243ede5,
hardware store,Toko Perlengkapan Rumah,Toko Al-Hidayah,"Jl. Buntu Simpasai Woja, Kandai Dua, Kec. Woja, Kabupaten Dompu, Nusa Tenggara Bar. 84219","Kandai Dua, Kec. Woja, Kabupaten Dompu",NUSA TENGGARA BARAT,84219.0,Indonesia,81312976013,,,-85.393.217,1.184.407.717,https://maps.google.com/?cid=0x0:0xec856f1b31465ef7,
hardware store,Toko Bahan Bangunan,Tb. Mataram,"FF66+78F, Jl. . Jenderal Sudirman, Bada, Kec. Dompu, Kabupaten Dompu, Nusa Tenggara Bar. 84213","Jl. . Jenderal Sudirman, Bada, Kec. Dompu, Kabupaten Dompu",NUSA TENGGARA BARAT,84213.0,Indonesia,,,,-85.393.228,1.184.608.038,https://maps.google.com/?cid=0x0:0x1a78f82c6f462f29,
hardware store,Toko Elektronik,Toko Asia,"Jl. Kartini No.5, Bada, Kec. Dompu, Kabupaten Dompu, Nusa Tenggara Bar. 84211","Bada, Kec. Dompu, Kabupaten Dompu",NUSA TENGGARA BARAT,84211.0,Indonesia,,,,-85.403.904,1.184.610.864,https://maps.google.com/?cid=0x0:0xde6b5224d9805388,
hardware store,Toko Bahan Bangunan,Pt Dua Nogo Sakti,"Jl. Syech Moh., Dorotangga, jado, Kabupaten Dompu, Nusa Tenggara Bar. 84213","Dorotangga, jado, Kabupaten Dompu",NUSA TENGGARA BARAT,84213.0,Indonesia,85706128299,,,-85.280.824,1.184.689.952,https://maps.google.com/?cid=0x0:0xa1d9a69a83f3af00,
hardware store,Gudang,Toko Harapan Jaya Meubel,"FF66+HM6, Bada, Kec. Dompu, Kabupaten Dompu, Nusa Tenggara Bar. 84213","Bada, Kec. Dompu, Kabupaten Dompu",NUSA TENGGARA BARAT,84213.0,Indonesia,37322027,,,-85.385.755,1.184.616.466,https://maps.google.com/?cid=0x0:0xd9cad862c73d54c1,
hardware store,Toko Komputer,Sentral Muslim Computer Dompu,"FFJJ+32X, OO, Kec. Dompu, Kabupaten Dompu, Nusa Tenggara Bar. 84214","OO, Kec. Dompu, Kabupaten Dompu",NUSA TENGGARA BARAT,84214.0,Indonesia,85338969696,,,-85.187.493,1.184.788.052,https://maps.google.com/?cid=0x0:0x7e73c18b4dfb993b,
hardware store,Toko Bahan Bangunan,Toko Bangunan Bage Rezo,"jln pahlawan no.10, Kandai Dua, Kec. Woja, Kabupaten Dompu, Nusa Tenggara Bar. 84219","Kandai Dua, Kec. Woja, Kabupaten Dompu",NUSA TENGGARA BARAT,84219.0,Indonesia,82339754936,,,-8.543.326,1.184.326.834,https://maps.google.com/?cid=0x0:0x9583b7cca9ab328,
hardware store,Toko Bahan Bangunan,Ud. Zam Zam,"FC4R+5GH, Jl. Lintas Sumbawa - Bima, Simpasai, Kec. Woja, Kabupaten Dompu, Nusa Tenggara Bar. 84218","Jl. Lintas Sumbawa - Bima, Simpasai, Kec. Woja, Kabupaten Dompu",NUSA TENGGARA BARAT,84218.0,Indonesia,,,,-85.445.643,1.184.413.514,https://maps.google.com/?cid=0x0:0x1f0eee75cc4a17fe,
hardware store,Toko Bahan Bangunan,UD Selamat,"CFP4+CRJ, Unnamed Road, Dorebara, Kec. Dompu, Kabupaten Dompu, Nusa Tenggara Bar. 84219","Unnamed Road, Dorebara, Kec. Dompu, Kabupaten Dompu",NUSA TENGGARA BARAT,84219.0,Indonesia,,,,-85.639.223,1.184.570.141,https://maps.google.com/?cid=0x0:0x3f8e70fa9cd6f99e,
hardware store,Pasar,Pasar Atas Dompu,"FF66+3MQ, Bada, Kec. Dompu, Kabupaten Dompu, Nusa Tenggara Bar. 84213","Bada, Kec. Dompu, Kabupaten Dompu",NUSA TENGGARA BARAT,84213.0,Indonesia,,,,-85.397.845,1.184.617.302,https://maps.google.com/?cid=0x0:0xb41c7f383662d8c4,
hardware store,Toko Alat Tulis Kantor,Ud. Ascom,"FF88+8MH, Dorotangga, Kec. Dompu, Kabupaten Dompu, Nusa Tenggara Bar. 84212","Dorotangga, Kec. Dompu, Kabupaten Dompu",NUSA TENGGARA BARAT,84212.0,Indonesia,81339626252,,,-85.341.984,1.184.667.312,https://maps.google.com/?cid=0x0:0x171b38b1f3ab60ca,
hardware store,hardware store,Nusa Tenggara Bar. 84213,"Kec. Dompu, Kabupaten Dompu, Nusa Tenggara Bar.","Kabupaten Dompu, Nusa Tenggara Bar.",NUSA TENGGARA BARAT,,Indonesia,,,,-85.029.473,1.184.571.974,https://maps.google.com/?cid=0x0:0x36282ed0d4e435d1,
hardware store,Toko Bahan Bangunan,TOKO TAUFIK,"Jl. . Jenderal Sudirman No.27, Bada, Kec. Dompu, Kabupaten Dompu, Nusa Tenggara Bar. 84213","Bada, Kec. Dompu, Kabupaten Dompu",NUSA TENGGARA BARAT,84213.0,Indonesia,37321160,,,-85.394.741,1.184.608.954,https://maps.google.com/?cid=0x0:0xa99b586cc9779c94,
hardware store,Toko Bahan Bangunan,MR.DIY,"Jl. Soekarno-Hatta No.29, Bada, Kec. Dompu, Kabupaten Dompu, Nusa Tenggara Bar. 84213","Bada, Kec. Dompu, Kabupaten Dompu",NUSA TENGGARA BARAT,84213.0,Indonesia,2130022789,,,-85.381.058,1.184.636.809,https://maps.google.com/?cid=0x0:0x782ef44faba77107,
hardware store,Toko Swalayan,Bolly Deptstore Dompu,"FF65+4FH, Jl. Manuru Bata Dompu, Bada, Kec. Dompu, Kabupaten Dompu, Nusa Tenggara Bar. 84213","Jl. Manuru Bata Dompu, Bada, Kec. Dompu, Kabupaten Dompu",NUSA TENGGARA BARAT,84213.0,Indonesia,,,,-85.396.801,1.184.587.322,https://maps.google.com/?cid=0x0:0x5b99d2bfd3f4e4cf,
hardware store,Toko Bahan Bangunan,Azizah plafon pvc,"Jl. Lele No.1, Bali, Kec. Dompu, Kabupaten Dompu, Nusa Tenggara Bar. 84213","Bali, Kec. Dompu, Kabupaten Dompu",NUSA TENGGARA BARAT,84213.0,Indonesia,81287663379,,,-85.354.589,1.184.610.978,https://maps.google.com/?cid=0x0:0x94239182ea395f34,
hardware store,Toko Bahan Bangunan,Toko Niaga Bangunan,"Deket Jl. Lkr. Utara, Karijawa, Kec. Dompu, Kabupaten Dompu, Nusa Tenggara Bar. 84216","Karijawa, Kec. Dompu, Kabupaten Dompu",NUSA TENGGARA BARAT,84216.0,Indonesia,82339774144,,,-85.320.637,1.184.537.654,https://maps.google.com/?cid=0x0:0x151f72cc40b0c79e,
hardware store,Toko Bahan Bangunan,Tb. Mataram,"FF66+78F, Jl. . Jenderal Sudirman, Bada, Kec. Dompu, Kabupaten Dompu, Nusa Tenggara Bar. 84213","Jl. . Jenderal Sudirman, Bada, Kec. Dompu, Kabupaten Dompu",NUSA TENGGARA BARAT,84213.0,Indonesia,,,,-85.393.228,1.184.608.038,https://maps.google.com/?cid=0x0:0x1a78f82c6f462f29,
hardware store,Toko,Toko Harapan Jaya Elektronik,"FF66+398, Bada, Kec. Dompu, Kabupaten Dompu, Nusa Tenggara Bar. 84213","Bada, Kec. Dompu, Kabupaten Dompu",NUSA TENGGARA BARAT,84213.0,Indonesia,373623536,,,-85.398.359,1.184.609.599,https://maps.google.com/?cid=0x0:0xb5de5ea2342eec05,
hardware store,Toko Bahan Bangunan,Toko Bahan Bangunan Anugerah Simpasai,"Jl. Buntu Simpasai Woja, Kandai Dua, Kec. Woja, Kabupaten Dompu, Nusa Tenggara Bar. 84218","Kandai Dua, Kec. Woja, Kabupaten Dompu",NUSA TENGGARA BARAT,84218.0,Indonesia,,,,-85.392.106,118.441.274,https://maps.google.com/?cid=0x0:0x4a5418154243ede5,
hardware store,Toko Elektronik,Toko Mekar Mekar Cell,"Jl. Kartini No.5, Potu, Kec. Dompu, Kabupaten Dompu, Nusa Tenggara Bar. 84213","Potu, Kec. Dompu, Kabupaten Dompu",NUSA TENGGARA BARAT,84213.0,Indonesia,87766502020,,,-85.407.925,1.184.639.387,https://maps.google.com/?cid=0x0:0xdeeb897ec7f36c9a,
hardware store,Gudang,Toko Harapan Jaya Meubel,"FF66+HM6, Bada, Kec. Dompu, Kabupaten Dompu, Nusa Tenggara Bar. 84213","Bada, Kec. Dompu, Kabupaten Dompu",NUSA TENGGARA BARAT,84213.0,Indonesia,37322027,,,-85.385.755,1.184.616.466,https://maps.google.com/?cid=0x0:0xd9cad862c73d54c1,
hardware store,Toko Perlengkapan Rumah,Toko Al-Hidayah,"Jl. Buntu Simpasai Woja, Kandai Dua, Kec. Woja, Kabupaten Dompu, Nusa Tenggara Bar. 84219","Kandai Dua, Kec. Woja, Kabupaten Dompu",NUSA TENGGARA BARAT,84219.0,Indonesia,81312976013,,,-85.393.217,1.184.407.717,https://maps.google.com/?cid=0x0:0xec856f1b31465ef7,
hardware store,Toko Elektronik,Toko Asia,"Jl. Kartini No.5, Bada, Kec. Dompu, Kabupaten Dompu, Nusa Tenggara Bar. 84211","Bada, Kec. Dompu, Kabupaten Dompu",NUSA TENGGARA BARAT,84211.0,Indonesia,,,,-85.403.904,1.184.610.864,https://maps.google.com/?cid=0x0:0xde6b5224d9805388,
hardware store,Toko Bahan Bangunan,Pt Dua Nogo Sakti,"Jl. Syech Moh., Dorotangga, jado, Kabupaten Dompu, Nusa Tenggara Bar. 84213","Dorotangga, jado, Kabupaten Dompu",NUSA TENGGARA BARAT,84213.0,Indonesia,85706128299,,,-85.280.824,1.184.689.952,https://maps.google.com/?cid=0x0:0xa1d9a69a83f3af00,
hardware store,Toko Bahan Bangunan,Toko Bangunan Bage Rezo,"jln pahlawan no.10, Kandai Dua, Kec. Woja, Kabupaten Dompu, Nusa Tenggara Bar. 84219","Kandai Dua, Kec. Woja, Kabupaten Dompu",NUSA TENGGARA BARAT,84219.0,Indonesia,82339754936,,,-8.543.326,1.184.326.834,https://maps.google.com/?cid=0x0:0x9583b7cca9ab328,
hardware store,Toko Bahan Bangunan,Ud. Zam Zam,"FC4R+5GH, Jl. Lintas Sumbawa - Bima, Simpasai, Kec. Woja, Kabupaten Dompu, Nusa Tenggara Bar. 84218","Jl. Lintas Sumbawa - Bima, Simpasai, Kec. Woja, Kabupaten Dompu",NUSA TENGGARA BARAT,84218.0,Indonesia,,,,-85.445.643,1.184.413.514,https://maps.google.com/?cid=0x0:0x1f0eee75cc4a17fe,
hardware store,Toko Komputer,Sentral Muslim Computer Dompu,"FFJJ+32X, OO, Kec. Dompu, Kabupaten Dompu, Nusa Tenggara Bar. 84214","OO, Kec. Dompu, Kabupaten Dompu",NUSA TENGGARA BARAT,84214.0,Indonesia,85338969696,,,-85.187.493,1.184.788.052,https://maps.google.com/?cid=0x0:0x7e73c18b4dfb993b,
hardware store,Pasar,Pasar Atas Dompu,"FF66+3MQ, Bada, Kec. Dompu, Kabupaten Dompu, Nusa Tenggara Bar. 84213","Bada, Kec. Dompu, Kabupaten Dompu",NUSA TENGGARA BARAT,84213.0,Indonesia,,,,-85.397.845,1.184.617.302,https://maps.google.com/?cid=0x0:0xb41c7f383662d8c4,
hardware store,Toko Buku,TOKO HAPPY DOMPU,"FF66+682, Jl. Lintas Sumbawa - Bima, Bada, Kec. Dompu, Kabupaten Dompu, Nusa Tenggara Bar. 84213","Jl. Lintas Sumbawa - Bima, Bada, Kec. Dompu, Kabupaten Dompu",NUSA TENGGARA BARAT,84213.0,Indonesia,,,,-85.394.926,1.184.607.754,https://maps.google.com/?cid=0x0:0x26743677485020b9,
hardware store,Toko Bahan Bangunan,UD Selamat,"CFP4+CRJ, Unnamed Road, Dorebara, Kec. Dompu, Kabupaten Dompu, Nusa Tenggara Bar. 84219","Unnamed Road, Dorebara, Kec. Dompu, Kabupaten Dompu",NUSA TENGGARA BARAT,84219.0,Indonesia,,,,-85.639.223,1.184.570.141,https://maps.google.com/?cid=0x0:0x3f8e70fa9cd6f99e,
hardware store,Toko Alat Tulis Kantor,Ud. Ascom,"FF88+8MH, Dorotangga, Kec. Dompu, Kabupaten Dompu, Nusa Tenggara Bar. 84212","Dorotangga, Kec. Dompu, Kabupaten Dompu",NUSA TENGGARA BARAT,84212.0,Indonesia,81339626252,,,-85.341.984,1.184.667.312,https://maps.google.com/?cid=0x0:0x171b38b1f3ab60ca,
hardware store,Toko Bahan Bangunan,MR.DIY,"Jl. Soekarno-Hatta No.29, Bada, Kec. Dompu, Kabupaten Dompu, Nusa Tenggara Bar. 84213","Bada, Kec. Dompu, Kabupaten Dompu",NUSA TENGGARA BARAT,84213.0,Indonesia,2130022789,,,-85.381.058,1.184.636.809,https://maps.google.com/?cid=0x0:0x782ef44faba77107,
hardware store,hardware store,Nusa Tenggara Bar. 84214,"Kec. Dompu, Kabupaten Dompu, Nusa Tenggara Bar.","Kabupaten Dompu, Nusa Tenggara Bar.",NUSA TENGGARA BARAT,,Indonesia,,,,-85.235,1.184.776.372,https://maps.google.com/?cid=0x0:0x55f1573dc2143d57,
hardware store,Toko Bahan Bangunan,TOKO TAUFIK,"Jl. . Jenderal Sudirman No.27, Bada, Kec. Dompu, Kabupaten Dompu, Nusa Tenggara Bar. 84213","Bada, Kec. Dompu, Kabupaten Dompu",NUSA TENGGARA BARAT,84213.0,Indonesia,37321160,,,-85.394.741,1.184.608.954,https://maps.google.com/?cid=0x0:0xa99b586cc9779c94,
hardware store,Kantor Perusahaan,TB. Bangkit Bersama,"Dusun Dorongguni, Kareke, Kec. Dompu, Kabupaten Dompu, Nusa Tenggara Bar. 84219","Kareke, Kec. Dompu, Kabupaten Dompu",NUSA TENGGARA BARAT,84219.0,Indonesia,82340031984,,,-85.511.303,1.184.811.153,https://maps.google.com/?cid=0x0:0x503b570080f8a30a,
hardware store,Toko Swalayan,Bolly Deptstore Dompu,"FF65+4FH, Jl. Manuru Bata Dompu, Bada, Kec. Dompu, Kabupaten Dompu, Nusa Tenggara Bar. 84213","Jl. Manuru Bata Dompu, Bada, Kec. Dompu, Kabupaten Dompu",NUSA TENGGARA BARAT,84213.0,Indonesia,,,,-85.396.801,1.184.587.322,https://maps.google.com/?cid=0x0:0x5b99d2bfd3f4e4cf,
hardware store,Toko Bahan Bangunan,Toko Niaga Bangunan,"Deket Jl. Lkr. Utara, Karijawa, Kec. Dompu, Kabupaten Dompu, Nusa Tenggara Bar. 84216","Karijawa, Kec. Dompu, Kabupaten Dompu",NUSA TENGGARA BARAT,84216.0,Indonesia,82339774144,,,-85.320.637,1.184.537.654,https://maps.google.com/?cid=0x0:0x151f72cc40b0c79e,
hardware store,Toko Bahan Bangunan,Azizah plafon pvc,"Jl. Lele No.1, Bali, Kec. Dompu, Kabupaten Dompu, Nusa Tenggara Bar. 84213","Bali, Kec. Dompu, Kabupaten Dompu",NUSA TENGGARA BARAT,84213.0,Indonesia,81287663379,,,-85.354.589,1.184.610.978,https://maps.google.com/?cid=0x0:0x94239182ea395f34,
hardware store,Toko,Toko Harapan Jaya Elektronik,"FF66+398, Bada, Kec. Dompu, Kabupaten Dompu, Nusa Tenggara Bar. 84213","Bada, Kec. Dompu, Kabupaten Dompu",NUSA TENGGARA BARAT,84213.0,Indonesia,373623536,,,-85.398.359,1.184.609.599,https://maps.google.com/?cid=0x0:0xb5de5ea2342eec05,
hardware store,Toko Perlengkapan Rumah,Toko Al-Hidayah,"Jl. Buntu Simpasai Woja, Kandai Dua, Kec. Woja, Kabupaten Dompu, Nusa Tenggara Bar. 84219","Kandai Dua, Kec. Woja, Kabupaten Dompu",NUSA TENGGARA BARAT,84219.0,Indonesia,81312976013,,,-85.393.217,1.184.407.717,https://maps.google.com/?cid=0x0:0xec856f1b31465ef7,
hardware store,Toko Komputer,Sentral Muslim Computer Dompu,"FFJJ+32X, OO, Kec. Dompu, Kabupaten Dompu, Nusa Tenggara Bar. 84214","OO, Kec. Dompu, Kabupaten Dompu",NUSA TENGGARA BARAT,84214.0,Indonesia,85338969696,,,-85.187.493,1.184.788.052,https://maps.google.com/?cid=0x0:0x7e73c18b4dfb993b,
hardware store,Toko Bahan Bangunan,Toko Bahan Bangunan Anugerah Simpasai,"Jl. Buntu Simpasai Woja, Kandai Dua, Kec. Woja, Kabupaten Dompu, Nusa Tenggara Bar. 84218","Kandai Dua, Kec. Woja, Kabupaten Dompu",NUSA TENGGARA BARAT,84218.0,Indonesia,,,,-85.392.106,118.441.274,https://maps.google.com/?cid=0x0:0x4a5418154243ede5,
hardware store,Toko Bahan Bangunan,Tb. Mataram,"FF66+78F, Jl. . Jenderal Sudirman, Bada, Kec. Dompu, Kabupaten Dompu, Nusa Tenggara Bar. 84213","Jl. . Jenderal Sudirman, Bada, Kec. Dompu, Kabupaten Dompu",NUSA TENGGARA BARAT,84213.0,Indonesia,,,,-85.393.228,1.184.608.038,https://maps.google.com/?cid=0x0:0x1a78f82c6f462f29,
hardware store,Toko Bahan Bangunan,UD Selamat,"CFP4+CRJ, Unnamed Road, Dorebara, Kec. Dompu, Kabupaten Dompu, Nusa Tenggara Bar. 84219","Unnamed Road, Dorebara, Kec. Dompu, Kabupaten Dompu",NUSA TENGGARA BARAT,84219.0,Indonesia,,,,-85.639.223,1.184.570.141,https://maps.google.com/?cid=0x0:0x3f8e70fa9cd6f99e,
hardware store,Gudang,Toko Harapan Jaya Meubel,"FF66+HM6, Bada, Kec. Dompu, Kabupaten Dompu, Nusa Tenggara Bar. 84213","Bada, Kec. Dompu, Kabupaten Dompu",NUSA TENGGARA BARAT,84213.0,Indonesia,37322027,,,-85.385.755,1.184.616.466,https://maps.google.com/?cid=0x0:0xd9cad862c73d54c1,
hardware store,Toko Bahan Bangunan,Toko Bangunan Bage Rezo,"jln pahlawan no.10, Kandai Dua, Kec. Woja, Kabupaten Dompu, Nusa Tenggara Bar. 84219","Kandai Dua, Kec. Woja, Kabupaten Dompu",NUSA TENGGARA BARAT,84219.0,Indonesia,82339754936,,,-8.543.326,1.184.326.834,https://maps.google.com/?cid=0x0:0x9583b7cca9ab328,
hardware store,Toko Elektronik,Toko Asia,"Jl. Kartini No.5, Bada, Kec. Dompu, Kabupaten Dompu, Nusa Tenggara Bar. 84211","Bada, Kec. Dompu, Kabupaten Dompu",NUSA TENGGARA BARAT,84211.0,Indonesia,,,,-85.403.904,1.184.610.864,https://maps.google.com/?cid=0x0:0xde6b5224d9805388,
hardware store,Toko Bahan Bangunan,Pt Dua Nogo Sakti,"Jl. Syech Moh., Dorotangga, jado, Kabupaten Dompu, Nusa Tenggara Bar. 84213","Dorotangga, jado, Kabupaten Dompu",NUSA TENGGARA BARAT,84213.0,Indonesia,85706128299,,,-85.280.824,1.184.689.952,https://maps.google.com/?cid=0x0:0xa1d9a69a83f3af00,
hardware store,Toko Alat Tulis Kantor,Ud. Ascom,"FF88+8MH, Dorotangga, Kec. Dompu, Kabupaten Dompu, Nusa Tenggara Bar. 84212","Dorotangga, Kec. Dompu, Kabupaten Dompu",NUSA TENGGARA BARAT,84212.0,Indonesia,81339626252,,,-85.341.984,1.184.667.312,https://maps.google.com/?cid=0x0:0x171b38b1f3ab60ca,
hardware store,Toko Aksesori Ponsel,CV. NURI5KY IT SUPPORT,"FFQJ+5H4, OO, Kec. Dompu, Kabupaten Dompu, Nusa Tenggara Bar. 84214","OO, Kec. Dompu, Kabupaten Dompu",NUSA TENGGARA BARAT,84214.0,Indonesia,87861015331,,,-85.121.109,1.184.814.505,https://maps.google.com/?cid=0x0:0xf354e8e9d7cfbb45,
hardware store,Toko Bahan Bangunan,Ud. Zam Zam,"FC4R+5GH, Jl. Lintas Sumbawa - Bima, Simpasai, Kec. Woja, Kabupaten Dompu, Nusa Tenggara Bar. 84218","Jl. Lintas Sumbawa - Bima, Simpasai, Kec. Woja, Kabupaten Dompu",NUSA TENGGARA BARAT,84218.0,Indonesia,,,,-85.445.643,1.184.413.514,https://maps.google.com/?cid=0x0:0x1f0eee75cc4a17fe,
hardware store,hardware store,Nusa Tenggara Bar. 84217,"Kandai Satu, Kec. Dompu, Kabupaten Dompu, Nusa Tenggara Bar.","Kabupaten Dompu, Nusa Tenggara Bar.",NUSA TENGGARA BARAT,,Indonesia,,,,-85.495.421,1.184.601.175,https://maps.google.com/?cid=0x0:0x5e816e78d5a91ee2,
hardware store,Toko Bahan Bangunan,MR.DIY,"Jl. Soekarno-Hatta No.29, Bada, Kec. Dompu, Kabupaten Dompu, Nusa Tenggara Bar. 84213","Bada, Kec. Dompu, Kabupaten Dompu",NUSA TENGGARA BARAT,84213.0,Indonesia,2130022789,,,-85.381.058,1.184.636.809,https://maps.google.com/?cid=0x0:0x782ef44faba77107,
hardware store,Toko Swalayan,Bolly Deptstore Dompu,"FF65+4FH, Jl. Manuru Bata Dompu, Bada, Kec. Dompu, Kabupaten Dompu, Nusa Tenggara Bar. 84213","Jl. Manuru Bata Dompu, Bada, Kec. Dompu, Kabupaten Dompu",NUSA TENGGARA BARAT,84213.0,Indonesia,,,,-85.396.801,1.184.587.322,https://maps.google.com/?cid=0x0:0x5b99d2bfd3f4e4cf,
hardware store,Toko Bahan Bangunan,TOKO TAUFIK,"Jl. . Jenderal Sudirman No.27, Bada, Kec. Dompu, Kabupaten Dompu, Nusa Tenggara Bar. 84213","Bada, Kec. Dompu, Kabupaten Dompu",NUSA TENGGARA BARAT,84213.0,Indonesia,37321160,,,-85.394.741,1.184.608.954,https://maps.google.com/?cid=0x0:0xa99b586cc9779c94,
hardware store,Toko Bahan Bangunan,Toko Niaga Bangunan,"Deket Jl. Lkr. Utara, Karijawa, Kec. Dompu, Kabupaten Dompu, Nusa Tenggara Bar. 84216","Karijawa, Kec. Dompu, Kabupaten Dompu",NUSA TENGGARA BARAT,84216.0,Indonesia,82339774144,,,-85.320.637,1.184.537.654,https://maps.google.com/?cid=0x0:0x151f72cc40b0c79e,
hardware store,Toko Bahan Bangunan,Azizah plafon pvc,"Jl. Lele No.1, Bali, Kec. Dompu, Kabupaten Dompu, Nusa Tenggara Bar. 84213","Bali, Kec. Dompu, Kabupaten Dompu",NUSA TENGGARA BARAT,84213.0,Indonesia,81287663379,,,-85.354.589,1.184.610.978,https://maps.google.com/?cid=0x0:0x94239182ea395f34,
hardware store,Toko,Toko Harapan Jaya Elektronik,"FF66+398, Bada, Kec. Dompu, Kabupaten Dompu, Nusa Tenggara Bar. 84213","Bada, Kec. Dompu, Kabupaten Dompu",NUSA TENGGARA BARAT,84213.0,Indonesia,373623536,,,-85.398.359,1.184.609.599,https://maps.google.com/?cid=0x0:0xb5de5ea2342eec05,
hardware store,Toko Bahan Bangunan,UD Selamat,"CFP4+CRJ, Unnamed Road, Dorebara, Kec. Dompu, Kabupaten Dompu, Nusa Tenggara Bar. 84219","Unnamed Road, Dorebara, Kec. Dompu, Kabupaten Dompu",NUSA TENGGARA BARAT,84219.0,Indonesia,,,,-85.639.223,1.184.570.141,https://maps.google.com/?cid=0x0:0x3f8e70fa9cd6f99e,
hardware store,Toko Bahan Bangunan,Tb. Mataram,"FF66+78F, Jl. . Jenderal Sudirman, Bada, Kec. Dompu, Kabupaten Dompu, Nusa Tenggara Bar. 84213","Jl. . Jenderal Sudirman, Bada, Kec. Dompu, Kabupaten Dompu",NUSA TENGGARA BARAT,84213.0,Indonesia,,,,-85.393.228,1.184.608.038,https://maps.google.com/?cid=0x0:0x1a78f82c6f462f29,
hardware store,Toko Elektronik,Toko Mekar Mekar Cell,"Jl. Kartini No.5, Potu, Kec. Dompu, Kabupaten Dompu, Nusa Tenggara Bar. 84213","Potu, Kec. Dompu, Kabupaten Dompu",NUSA TENGGARA BARAT,84213.0,Indonesia,87766502020,,,-85.407.925,1.184.639.387,https://maps.google.com/?cid=0x0:0xdeeb897ec7f36c9a,
hardware store,Toko Elektronik,Toko Asia,"Jl. Kartini No.5, Bada, Kec. Dompu, Kabupaten Dompu, Nusa Tenggara Bar. 84211","Bada, Kec. Dompu, Kabupaten Dompu",NUSA TENGGARA BARAT,84211.0,Indonesia,,,,-85.403.904,1.184.610.864,https://maps.google.com/?cid=0x0:0xde6b5224d9805388,
hardware store,Toko Bahan Bangunan,Toko Bangunan Bage Rezo,"jln pahlawan no.10, Kandai Dua, Kec. Woja, Kabupaten Dompu, Nusa Tenggara Bar. 84219","Kandai Dua, Kec. Woja, Kabupaten Dompu",NUSA TENGGARA BARAT,84219.0,Indonesia,82339754936,,,-8.543.326,1.184.326.834,https://maps.google.com/?cid=0x0:0x9583b7cca9ab328,
hardware store,Gudang,Toko Harapan Jaya Meubel,"FF66+HM6, Bada, Kec. Dompu, Kabupaten Dompu, Nusa Tenggara Bar. 84213","Bada, Kec. Dompu, Kabupaten Dompu",NUSA TENGGARA BARAT,84213.0,Indonesia,37322027,,,-85.385.755,1.184.616.466,https://maps.google.com/?cid=0x0:0xd9cad862c73d54c1,
hardware store,Toko Komputer,Sentral Muslim Computer Dompu,"FFJJ+32X, OO, Kec. Dompu, Kabupaten Dompu, Nusa Tenggara Bar. 84214","OO, Kec. Dompu, Kabupaten Dompu",NUSA TENGGARA BARAT,84214.0,Indonesia,85338969696,,,-85.187.493,1.184.788.052,https://maps.google.com/?cid=0x0:0x7e73c18b4dfb993b,
hardware store,Pasar,Pasar Atas Dompu,"FF66+3MQ, Bada, Kec. Dompu, Kabupaten Dompu, Nusa Tenggara Bar. 84213","Bada, Kec. Dompu, Kabupaten Dompu",NUSA TENGGARA BARAT,84213.0,Indonesia,,,,-85.397.845,1.184.617.302,https://maps.google.com/?cid=0x0:0xb41c7f383662d8c4,
hardware store,Toko Buku,TOKO HAPPY DOMPU,"FF66+682, Jl. Lintas Sumbawa - Bima, Bada, Kec. Dompu, Kabupaten Dompu, Nusa Tenggara Bar. 84213","Jl. Lintas Sumbawa - Bima, Bada, Kec. Dompu, Kabupaten Dompu",NUSA TENGGARA BARAT,84213.0,Indonesia,,,,-85.394.926,1.184.607.754,https://maps.google.com/?cid=0x0:0x26743677485020b9,
hardware store,hardware store,Nusa Tenggara Bar. 84219,"Kabupaten Dompu, Nusa Tenggara Bar.","Kabupaten Dompu, Nusa Tenggara Bar.",NUSA TENGGARA BARAT,,Indonesia,,,,-8.455.389,1.184.980.744,https://maps.google.com/?cid=0x0:0xd1ca28c719867916,
hardware store,Toko Bahan Bangunan,Depo Sumber Bangunan,"Jl. Baru Karijawa gg PS No.33, Karijawa, Kec. Dompu, Kabupaten Dompu, Nusa Tenggara Bar. 84213","Karijawa, Kec. Dompu, Kabupaten Dompu",NUSA TENGGARA BARAT,84213.0,Indonesia,81213393271,,,-8.531.509,1.184.546.781,https://maps.google.com/?cid=0x0:0x74aa1c95593ff6e7,
hardware store,Toko Bahan Bangunan,MR.DIY,"Jl. Soekarno-Hatta No.29, Bada, Kec. Dompu, Kabupaten Dompu, Nusa Tenggara Bar. 84213","Bada, Kec. Dompu, Kabupaten Dompu",NUSA TENGGARA BARAT,84213.0,Indonesia,2130022789,,,-85.381.058,1.184.636.809,https://maps.google.com/?cid=0x0:0x782ef44faba77107,
hardware store,Toko Perlengkapan Rumah,Toko Al-Hidayah,"Jl. Buntu Simpasai Woja, Kandai Dua, Kec. Woja, Kabupaten Dompu, Nusa Tenggara Bar. 84219","Kandai Dua, Kec. Woja, Kabupaten Dompu",NUSA TENGGARA BARAT,84219.0,Indonesia,81312976013,,,-85.393.217,1.184.407.717,https://maps.google.com/?cid=0x0:0xec856f1b31465ef7,
hardware store,Toko Bahan Bangunan,Toko Bahan Bangunan Anugerah Simpasai,"Jl. Buntu Simpasai Woja, Kandai Dua, Kec. Woja, Kabupaten Dompu, Nusa Tenggara Bar. 84218","Kandai Dua, Kec. Woja, Kabupaten Dompu",NUSA TENGGARA BARAT,84218.0,Indonesia,,,,-85.392.106,118.441.274,https://maps.google.com/?cid=0x0:0x4a5418154243ede5,
hardware store,Toko Bahan Bangunan,Toko Niaga Bangunan,"Deket Jl. Lkr. Utara, Karijawa, Kec. Dompu, Kabupaten Dompu, Nusa Tenggara Bar. 84216","Karijawa, Kec. Dompu, Kabupaten Dompu",NUSA TENGGARA BARAT,84216.0,Indonesia,82339774144,,,-85.320.637,1.184.537.654,https://maps.google.com/?cid=0x0:0x151f72cc40b0c79e,
hardware store,Toko Bahan Bangunan,Toko Bangunan Bage Rezo,"jln pahlawan no.10, Kandai Dua, Kec. Woja, Kabupaten Dompu, Nusa Tenggara Bar. 84219","Kandai Dua, Kec. Woja, Kabupaten Dompu",NUSA TENGGARA BARAT,84219.0,Indonesia,82339754936,,,-8.543.326,1.184.326.834,https://maps.google.com/?cid=0x0:0x9583b7cca9ab328,
hardware store,Toko,Toko Harapan Jaya Elektronik,"FF66+398, Bada, Kec. Dompu, Kabupaten Dompu, Nusa Tenggara Bar. 84213","Bada, Kec. Dompu, Kabupaten Dompu",NUSA TENGGARA BARAT,84213.0,Indonesia,373623536,,,-85.398.359,1.184.609.599,https://maps.google.com/?cid=0x0:0xb5de5ea2342eec05,
hardware store,Toko Swalayan,Bolly Deptstore Dompu,"FF65+4FH, Jl. Manuru Bata Dompu, Bada, Kec. Dompu, Kabupaten Dompu, Nusa Tenggara Bar. 84213","Jl. Manuru Bata Dompu, Bada, Kec. Dompu, Kabupaten Dompu",NUSA TENGGARA BARAT,84213.0,Indonesia,,,,-85.396.801,1.184.587.322,https://maps.google.com/?cid=0x0:0x5b99d2bfd3f4e4cf,
hardware store,Toko Bahan Bangunan,Azizah plafon pvc,"Jl. Lele No.1, Bali, Kec. Dompu, Kabupaten Dompu, Nusa Tenggara Bar. 84213","Bali, Kec. Dompu, Kabupaten Dompu",NUSA TENGGARA BARAT,84213.0,Indonesia,81287663379,,,-85.354.589,1.184.610.978,https://maps.google.com/?cid=0x0:0x94239182ea395f34,
hardware store,Kantor Perusahaan,TB. Bangkit Bersama,"Dusun Dorongguni, Kareke, Kec. Dompu, Kabupaten Dompu, Nusa Tenggara Bar. 84219","Kareke, Kec. Dompu, Kabupaten Dompu",NUSA TENGGARA BARAT,84219.0,Indonesia,82340031984,,,-85.511.303,1.184.811.153,https://maps.google.com/?cid=0x0:0x503b570080f8a30a,
hardware store,Toko Bahan Bangunan,Tb. Mataram,"FF66+78F, Jl. . Jenderal Sudirman, Bada, Kec. Dompu, Kabupaten Dompu, Nusa Tenggara Bar. 84213","Jl. . Jenderal Sudirman, Bada, Kec. Dompu, Kabupaten Dompu",NUSA TENGGARA BARAT,84213.0,Indonesia,,,,-85.393.228,1.184.608.038,https://maps.google.com/?cid=0x0:0x1a78f82c6f462f29,
hardware store,Toko Bahan Bangunan,Toko Bangunan Anugrah Bara,"C9XQ+WQM, Jl. Lintas Sumbawa - Bima, Bara, Kec. Woja, Kabupaten Dompu, Nusa Tenggara Bar. 84251","Jl. Lintas Sumbawa - Bima, Bara, Kec. Woja, Kabupaten Dompu",NUSA TENGGARA BARAT,84251.0,Indonesia,,,,-85.501.731,1.183.894.253,https://maps.google.com/?cid=0x0:0x7aef164de79ee975,
hardware store,Toko Bahan Bangunan,UD Selamat,"CFP4+CRJ, Unnamed Road, Dorebara, Kec. Dompu, Kabupaten Dompu, Nusa Tenggara Bar. 84219","Unnamed Road, Dorebara, Kec. Dompu, Kabupaten Dompu",NUSA TENGGARA BARAT,84219.0,Indonesia,,,,-85.639.223,1.184.570.141,https://maps.google.com/?cid=0x0:0x3f8e70fa9cd6f99e,
hardware store,Gudang,Toko Harapan Jaya Meubel,"FF66+HM6, Bada, Kec. Dompu, Kabupaten Dompu, Nusa Tenggara Bar. 84213","Bada, Kec. Dompu, Kabupaten Dompu",NUSA TENGGARA BARAT,84213.0,Indonesia,37322027,,,-85.385.755,1.184.616.466,https://maps.google.com/?cid=0x0:0xd9cad862c73d54c1,
hardware store,Toko Elektronik,Toko Asia,"Jl. Kartini No.5, Bada, Kec. Dompu, Kabupaten Dompu, Nusa Tenggara Bar. 84211","Bada, Kec. Dompu, Kabupaten Dompu",NUSA TENGGARA BARAT,84211.0,Indonesia,,,,-85.403.904,1.184.610.864,https://maps.google.com/?cid=0x0:0xde6b5224d9805388,
hardware store,Toko Komputer,Sentral Muslim Computer Dompu,"FFJJ+32X, OO, Kec. Dompu, Kabupaten Dompu, Nusa Tenggara Bar. 84214","OO, Kec. Dompu, Kabupaten Dompu",NUSA TENGGARA BARAT,84214.0,Indonesia,85338969696,,,-85.187.493,1.184.788.052,https://maps.google.com/?cid=0x0:0x7e73c18b4dfb993b,
hardware store,Toko Bahan Bangunan,Ud. Zam Zam,"FC4R+5GH, Jl. Lintas Sumbawa - Bima, Simpasai, Kec. Woja, Kabupaten Dompu, Nusa Tenggara Bar. 84218","Jl. Lintas Sumbawa - Bima, Simpasai, Kec. Woja, Kabupaten Dompu",NUSA TENGGARA BARAT,84218.0,Indonesia,,,,-85.445.643,1.184.413.514,https://maps.google.com/?cid=0x0:0x1f0eee75cc4a17fe,
hardware store,Toko,UD. LESTARI,"F8J9+7J9, Soriutu, Kec. Manggalewa, Kabupaten Dompu, Nusa Tenggara Bar. 84253","Soriutu, Kec. Manggalewa, Kabupaten Dompu",NUSA TENGGARA BARAT,84253.0,Indonesia,,,,-8.519.326,1.183.191.117,https://maps.google.com/?cid=0x0:0x5b13be02e1747be4,
hardware store,Toko Aksesori Ponsel,CV. NURI5KY IT SUPPORT,"FFQJ+5H4, OO, Kec. Dompu, Kabupaten Dompu, Nusa Tenggara Bar. 84214","OO, Kec. Dompu, Kabupaten Dompu",NUSA TENGGARA BARAT,84214.0,Indonesia,87861015331,,,-85.121.109,1.184.814.505,https://maps.google.com/?cid=0x0:0xf354e8e9d7cfbb45,
hardware store,Toko Bahan Bangunan,Pt Dua Nogo Sakti,"Jl. Syech Moh., Dorotangga, jado, Kabupaten Dompu, Nusa Tenggara Bar. 84213","Dorotangga, jado, Kabupaten Dompu",NUSA TENGGARA BARAT,84213.0,Indonesia,85706128299,,,-85.280.824,1.184.689.952,https://maps.google.com/?cid=0x0:0xa1d9a69a83f3af00,
hardware store,Toko Bahan Bangunan,Toko Mitra Bangunan,"Jl. Lintas Sumbawa - Bima No.501, Soriutu, Kec. Manggalewa, Kabupaten Dompu, Nusa Tenggara Bar. 84253","Soriutu, Kec. Manggalewa, Kabupaten Dompu",NUSA TENGGARA BARAT,84253.0,Indonesia,85333990765,,,-85.228.302,1.183.172.343,https://maps.google.com/?cid=0x0:0xd7314bf45ce0da44,
hardware store,Toko Bahan Bangunan,surya bangunan,"Jl. Lintas Sumbawa - Bima, Soriutu, Kec. Manggalewa, Kabupaten Dompu, Nusa Tenggara Bar.","Kabupaten Dompu, Nusa Tenggara Bar.",NUSA TENGGARA BARAT,,Indonesia,81338408886,,,-85.200.762,1.183.187.578,https://maps.google.com/?cid=0x0:0x52ef9d1d200d04a7,
hardware store,hardware store,Kec. Kempo,"Kabupaten Dompu, Nusa Tenggara Bar.","Kabupaten Dompu, Nusa Tenggara Bar.",NUSA TENGGARA BARAT,,Indonesia,,,,-8.539.691,1.182.496.396,https://maps.google.com/?cid=0x0:0x383cd7701aafd185,
hardware store,hardware store,Nusa Tenggara Bar. 84261,"Kabupaten Dompu, Nusa Tenggara Bar.","Kabupaten Dompu, Nusa Tenggara Bar.",NUSA TENGGARA BARAT,,Indonesia,,,,-83.860.783,1.179.951.862,https://maps.google.com/?cid=0x0:0x9ecbf848dd39c412,
hardware store,hardware store,Nusa Tenggara Bar. 84271,"Kec. Hu'u, Kabupaten Dompu, Nusa Tenggara Bar.","Kabupaten Dompu, Nusa Tenggara Bar.",NUSA TENGGARA BARAT,,Indonesia,,,,-87.839.226,1.184.630.376,https://maps.google.com/?cid=0x0:0x4669cd9d22c1e9e6,
hardware store,Toko Bahan Bangunan,TB. Ameerah Justin Jaya,"7C8W+C9Q, Rasabou, Kec. Hu'u, Kabupaten Dompu, Nusa Tenggara Bar. 84271","Rasabou, Kec. Hu'u, Kabupaten Dompu",NUSA TENGGARA BARAT,84271.0,Indonesia,85239050249,,,-87.329.419,1.184.466.227,https://maps.google.com/?cid=0x0:0xf08820de0e80b43a,
hardware store,Toko Bahan Bangunan,Toko Humayroh,"Adu, Kec. Hu'u, Kabupaten Dompu, Nusa Tenggara Bar. 84271","Kec. Hu'u, Kabupaten Dompu",NUSA TENGGARA BARAT,84271.0,Indonesia,82340114443,,,-87.031.517,1.184.686.843,https://maps.google.com/?cid=0x0:0x6b2ff82fcbeb2a6,
hardware store,Toko Bahan Bangunan,TOKO TAUFIK,"Jl. . Jenderal Sudirman No.27, Bada, Kec. Dompu, Kabupaten Dompu, Nusa Tenggara Bar. 84213","Bada, Kec. Dompu, Kabupaten Dompu",NUSA TENGGARA BARAT,84213.0,Indonesia,37321160,,,-85.394.741,1.184.608.954,https://maps.google.com/?cid=0x0:0xa99b586cc9779c94,
hardware store,Toko Bahan Bangunan,Tb. Mataram,"FF66+78F, Jl. . Jenderal Sudirman, Bada, Kec. Dompu, Kabupaten Dompu, Nusa Tenggara Bar. 84213","Jl. . Jenderal Sudirman, Bada, Kec. Dompu, Kabupaten Dompu",NUSA TENGGARA BARAT,84213.0,Indonesia,,,,-85.393.228,1.184.608.038,https://maps.google.com/?cid=0x0:0x1a78f82c6f462f29,
hardware store,Toko bahan makanan,Indra Jaya Toko,"FCQR+RRJ, Desa Nowa, Simpasai, Kec. Dompu, Kabupaten Dompu, Nusa Tenggara Bar. 84219","Desa Nowa, Simpasai, Kec. Dompu, Kabupaten Dompu",NUSA TENGGARA BARAT,84219.0,Indonesia,37322284,,,-85.104.033,1.184.420.009,https://maps.google.com/?cid=0x0:0x409517e6448245c,
hardware store,Grosir,Toko Indra Jaya,"FC26+GVQ, Jl. Lintas Sumbawa - Bima, Bakajaya, Kec. Woja, Kabupaten Dompu, Nusa Tenggara Bar. 84251","Jl. Lintas Sumbawa - Bima, Bakajaya, Kec. Woja, Kabupaten Dompu",NUSA TENGGARA BARAT,84251.0,Indonesia,37322284,,,-85.486.525,1.184.122.479,https://maps.google.com/?cid=0x0:0x51e52037dfc326f8,
hardware store,hardware store,Nusa Tenggara Bar. 84252,"Kec. Kilo, Kabupaten Dompu, Nusa Tenggara Bar.","Kabupaten Dompu, Nusa Tenggara Bar.",NUSA TENGGARA BARAT,,Indonesia,,,,-83.661.165,1.183.812.562,https://maps.google.com/?cid=0x0:0xc5fe1ded17f045e9,
hardware store,Toko Bahan Bangunan,TOKO TAUFIK,"Jl. . Jenderal Sudirman No.27, Bada, Kec. Dompu, Kabupaten Dompu, Nusa Tenggara Bar. 84213","Bada, Kec. Dompu, Kabupaten Dompu",NUSA TENGGARA BARAT,84213.0,Indonesia,37321160,,,-85.394.741,1.184.608.954,https://maps.google.com/?cid=0x0:0xa99b586cc9779c94,
hardware store,Toko Bahan Bangunan,MR.DIY,"Jl. Soekarno-Hatta No.29, Bada, Kec. Dompu, Kabupaten Dompu, Nusa Tenggara Bar. 84213","Bada, Kec. Dompu, Kabupaten Dompu",NUSA TENGGARA BARAT,84213.0,Indonesia,2130022789,,,-85.381.058,1.184.636.809,https://maps.google.com/?cid=0x0:0x782ef44faba77107,
hardware store,Toko Bahan Bangunan,Toko Bangunan Bage Rezo,"jln pahlawan no.10, Kandai Dua, Kec. Woja, Kabupaten Dompu, Nusa Tenggara Bar. 84219","Kandai Dua, Kec. Woja, Kabupaten Dompu",NUSA TENGGARA BARAT,84219.0,Indonesia,82339754936,,,-8.543.326,1.184.326.834,https://maps.google.com/?cid=0x0:0x9583b7cca9ab328,
hardware store,hardware store,Nusa Tenggara Bar. 84216,"Kabupaten Dompu, Nusa Tenggara Bar.","Kabupaten Dompu, Nusa Tenggara Bar.",NUSA TENGGARA BARAT,,Indonesia,,,,-85.455.416,1.184.484.367,https://maps.google.com/?cid=0x0:0x588c0621b5331cf5,
hardware store,Toko Bahan Bangunan,Toko Bahan Bangunan Anugerah Simpasai,"Jl. Buntu Simpasai Woja, Kandai Dua, Kec. Woja, Kabupaten Dompu, Nusa Tenggara Bar. 84218","Kandai Dua, Kec. Woja, Kabupaten Dompu",NUSA TENGGARA BARAT,84218.0,Indonesia,,,,-85.392.106,118.441.274,https://maps.google.com/?cid=0x0:0x4a5418154243ede5,
hardware store,Toko Bahan Bangunan,TOKO TAUFIK,"Jl. . Jenderal Sudirman No.27, Bada, Kec. Dompu, Kabupaten Dompu, Nusa Tenggara Bar. 84213","Bada, Kec. Dompu, Kabupaten Dompu",NUSA TENGGARA BARAT,84213.0,Indonesia,37321160,,,-85.394.741,1.184.608.954,https://maps.google.com/?cid=0x0:0xa99b586cc9779c94,
hardware store,Toko Bahan Bangunan,Depo Sumber Bangunan,"Jl. Baru Karijawa gg PS No.33, Karijawa, Kec. Dompu, Kabupaten Dompu, Nusa Tenggara Bar. 84213","Karijawa, Kec. Dompu, Kabupaten Dompu",NUSA TENGGARA BARAT,84213.0,Indonesia,81213393271,,,-8.531.509,1.184.546.781,https://maps.google.com/?cid=0x0:0x74aa1c95593ff6e7,
hardware store,Toko Bahan Bangunan,Azizah plafon pvc,"Jl. Lele No.1, Bali, Kec. Dompu, Kabupaten Dompu, Nusa Tenggara Bar. 84213","Bali, Kec. Dompu, Kabupaten Dompu",NUSA TENGGARA BARAT,84213.0,Indonesia,81287663379,,,-85.354.589,1.184.610.978,https://maps.google.com/?cid=0x0:0x94239182ea395f34,
hardware store,Toko Bahan Bangunan,Toko Bangunan Bage Rezo,"jln pahlawan no.10, Kandai Dua, Kec. Woja, Kabupaten Dompu, Nusa Tenggara Bar. 84219","Kandai Dua, Kec. Woja, Kabupaten Dompu",NUSA TENGGARA BARAT,84219.0,Indonesia,82339754936,,,-8.543.326,1.184.326.834,https://maps.google.com/?cid=0x0:0x9583b7cca9ab328,
hardware store,Toko Swalayan,Bolly Deptstore Dompu,"FF65+4FH, Jl. Manuru Bata Dompu, Bada, Kec. Dompu, Kabupaten Dompu, Nusa Tenggara Bar. 84213","Jl. Manuru Bata Dompu, Bada, Kec. Dompu, Kabupaten Dompu",NUSA TENGGARA BARAT,84213.0,Indonesia,,,,-85.396.801,1.184.587.322,https://maps.google.com/?cid=0x0:0x5b99d2bfd3f4e4cf,
hardware store,Toko Bahan Bangunan,Toko Niaga Bangunan,"Deket Jl. Lkr. Utara, Karijawa, Kec. Dompu, Kabupaten Dompu, Nusa Tenggara Bar. 84216","Karijawa, Kec. Dompu, Kabupaten Dompu",NUSA TENGGARA BARAT,84216.0,Indonesia,82339774144,,,-85.320.637,1.184.537.654,https://maps.google.com/?cid=0x0:0x151f72cc40b0c79e,
hardware store,Toko Elektronik,Toko Asia,"Jl. Kartini No.5, Bada, Kec. Dompu, Kabupaten Dompu, Nusa Tenggara Bar. 84211","Bada, Kec. Dompu, Kabupaten Dompu",NUSA TENGGARA BARAT,84211.0,Indonesia,,,,-85.403.904,1.184.610.864,https://maps.google.com/?cid=0x0:0xde6b5224d9805388,
hardware store,Toko Bahan Bangunan,Ud. Zam Zam,"FC4R+5GH, Jl. Lintas Sumbawa - Bima, Simpasai, Kec. Woja, Kabupaten Dompu, Nusa Tenggara Bar. 84218","Jl. Lintas Sumbawa - Bima, Simpasai, Kec. Woja, Kabupaten Dompu",NUSA TENGGARA BARAT,84218.0,Indonesia,,,,-85.445.643,1.184.413.514,https://maps.google.com/?cid=0x0:0x1f0eee75cc4a17fe,
hardware store,Toko Elektronik,Toko Niaga Teknik,"FF56+W73, Jl. Manuru Bata Dompu, Potu, Kec. Dompu, Kabupaten Dompu, Nusa Tenggara Bar. 84213","Jl. Manuru Bata Dompu, Potu, Kec. Dompu, Kabupaten Dompu",NUSA TENGGARA BARAT,84213.0,Indonesia,818366553,,,-85.402.271,1.184.606.593,https://maps.google.com/?cid=0x0:0x2b22eed0fdf541b8,
hardware store,Toko Bahan Bangunan,Tb. Mataram,"FF66+78F, Jl. . Jenderal Sudirman, Bada, Kec. Dompu, Kabupaten Dompu, Nusa Tenggara Bar. 84213","Jl. . Jenderal Sudirman, Bada, Kec. Dompu, Kabupaten Dompu",NUSA TENGGARA BARAT,84213.0,Indonesia,,,,-85.393.228,1.184.608.038,https://maps.google.com/?cid=0x0:0x1a78f82c6f462f29,
hardware store,Toko Bahan Bangunan,UD Selamat,"CFP4+CRJ, Unnamed Road, Dorebara, Kec. Dompu, Kabupaten Dompu, Nusa Tenggara Bar. 84219","Unnamed Road, Dorebara, Kec. Dompu, Kabupaten Dompu",NUSA TENGGARA BARAT,84219.0,Indonesia,,,,-85.639.223,1.184.570.141,https://maps.google.com/?cid=0x0:0x3f8e70fa9cd6f99e,
hardware store,Sekolah Menengah Pertama,SMP Negeri 1 Woja,"JL. P Diponegoro No.17, Bada, Kec. Woja, Kabupaten Dompu, Nusa Tenggara Bar. 84216","Bada, Kec. Woja, Kabupaten Dompu",NUSA TENGGARA BARAT,84216.0,Indonesia,37321200,,,-8.546.732,118.444.233,https://maps.google.com/?cid=0x0:0x1b05b190d5c51faa,
hardware store,Toko Bahan Bangunan,Toko Cahaya Bone,"F8J9+GWW, Soriutu, Kec. Manggalewa, Kabupaten Dompu, Nusa Tenggara Bar. 84253","Soriutu, Kec. Manggalewa, Kabupaten Dompu",NUSA TENGGARA BARAT,84253.0,Indonesia,,,,-85.186.328,1.183.198.358,https://maps.google.com/?cid=0x0:0xd6e16935f07a4b07,
hardware store,Toko Swalayan,Niaga Hardware - Sandubaya,"Komp. Pertokoan Sweta, Jl. Sandubaya No.D12-14, Bertais, Kec. Sandubaya, Kota Mataram, Nusa Tenggara Bar. 83236","Jl. Sandubaya No.D12-14, Bertais, Kec. Sandubaya, Kota Mataram",NUSA TENGGARA BARAT,83236.0,Indonesia,81339954915,,,-85.927.266,1.161.511.338,https://maps.google.com/?cid=0x0:0x833b7b951b085522,
hardware store,Toko Buku,TOKO HAPPY DOMPU,"FF66+682, Jl. Lintas Sumbawa - Bima, Bada, Kec. Dompu, Kabupaten Dompu, Nusa Tenggara Bar. 84213","Jl. Lintas Sumbawa - Bima, Bada, Kec. Dompu, Kabupaten Dompu",NUSA TENGGARA BARAT,84213.0,Indonesia,,,,-85.394.926,1.184.607.754,https://maps.google.com/?cid=0x0:0x26743677485020b9,
hardware store,Toko Alat Tulis Kantor,Kartini UD,"Jl. Raden Ajeng Kartini No.21, Kandai Dua, Sumbawa, Kabupaten Dompu, Nusa Tenggara Bar. 84216","Kandai Dua, Sumbawa, Kabupaten Dompu",NUSA TENGGARA BARAT,84216.0,Indonesia,371625470,,,-8.545.437,118.445.801,https://maps.google.com/?cid=0x0:0x2b1c63d3c875776b,
hardware store,Toko Bahan Bangunan,Toko Cipta Baru,"JL. Paok Motong, No. 08, Masbagik, Paok Motong, Kec. Selong, Kabupaten Lombok Timur, Nusa Tenggara Bar. 83661","No. 08, Masbagik, Paok Motong, Kec. Selong, Kabupaten Lombok Timur",NUSA TENGGARA BARAT,83661.0,Indonesia,818547933,,,-86.261.582,1.164.586.952,https://maps.google.com/?cid=0x0:0xe5122257035c1ef0,
hardware store,Toko Bahan Bangunan,Niaga Hardware AA Gde Ngurah,"Jl. A. A Gede Ngurah, Sapta Marga, Kec. Cakranegara, Kota Mataram, Nusa Tenggara Bar.","Kota Mataram, Nusa Tenggara Bar.",NUSA TENGGARA BARAT,,Indonesia,,,,-85.935.174,1.161.293.939,https://maps.google.com/?cid=0x0:0xf62b7ce8f340c937,
hardware store,Toko Bahan Bangunan,Toko Hasil Lancar,"Jl. TGH. Faesal No.2, Mandalika, Kec. Sandubaya, Kota Mataram, Nusa Tenggara Bar. 83233","Mandalika, Kec. Sandubaya, Kota Mataram",NUSA TENGGARA BARAT,83233.0,Indonesia,370671811,,,-85.927.987,1.161.471.087,https://maps.google.com/?cid=0x0:0x7ce3c2e1266c4b26,
hardware store,Toko Bahan Bangunan,Toko Bahan Bangunan Anugerah Simpasai,"Jl. Buntu Simpasai Woja, Kandai Dua, Kec. Woja, Kabupaten Dompu, Nusa Tenggara Bar. 84218","Kandai Dua, Kec. Woja, Kabupaten Dompu",NUSA TENGGARA BARAT,84218.0,Indonesia,,,,-85.392.106,118.441.274,https://maps.google.com/?cid=0x0:0x4a5418154243ede5,
hardware store,Toko Perlengkapan Rumah,Toko Al-Hidayah,"Jl. Buntu Simpasai Woja, Kandai Dua, Kec. Woja, Kabupaten Dompu, Nusa Tenggara Bar. 84219","Kandai Dua, Kec. Woja, Kabupaten Dompu",NUSA TENGGARA BARAT,84219.0,Indonesia,81312976013,,,-85.393.217,1.184.407.717,https://maps.google.com/?cid=0x0:0xec856f1b31465ef7,
hardware store,hardware store,Nusa Tenggara Bar. 84218,"Kec. Woja, Kabupaten Dompu, Nusa Tenggara Bar.","Kabupaten Dompu, Nusa Tenggara Bar.",NUSA TENGGARA BARAT,,Indonesia,,,,-85.464.715,1.184.367.551,https://maps.google.com/?cid=0x0:0xb59074d297d4d9d7,
hardware store,Toko Bahan Bangunan,Toko Bangunan Bage Rezo,"jln pahlawan no.10, Kandai Dua, Kec. Woja, Kabupaten Dompu, Nusa Tenggara Bar. 84219","Kandai Dua, Kec. Woja, Kabupaten Dompu",NUSA TENGGARA BARAT,84219.0,Indonesia,82339754936,,,-8.543.326,1.184.326.834,https://maps.google.com/?cid=0x0:0x9583b7cca9ab328,
hardware store,Toko Bahan Bangunan,Ud. Zam Zam,"FC4R+5GH, Jl. Lintas Sumbawa - Bima, Simpasai, Kec. Woja, Kabupaten Dompu, Nusa Tenggara Bar. 84218","Jl. Lintas Sumbawa - Bima, Simpasai, Kec. Woja, Kabupaten Dompu",NUSA TENGGARA BARAT,84218.0,Indonesia,,,,-85.445.643,1.184.413.514,https://maps.google.com/?cid=0x0:0x1f0eee75cc4a17fe,
hardware store,Toko Bahan Bangunan,Depo Sumber Bangunan,"Jl. Baru Karijawa gg PS No.33, Karijawa, Kec. Dompu, Kabupaten Dompu, Nusa Tenggara Bar. 84213","Karijawa, Kec. Dompu, Kabupaten Dompu",NUSA TENGGARA BARAT,84213.0,Indonesia,81213393271,,,-8.531.509,1.184.546.781,https://maps.google.com/?cid=0x0:0x74aa1c95593ff6e7,
hardware store,Toko Elektronik,Toko Niaga Teknik,"FF56+W73, Jl. Manuru Bata Dompu, Potu, Kec. Dompu, Kabupaten Dompu, Nusa Tenggara Bar. 84213","Jl. Manuru Bata Dompu, Potu, Kec. Dompu, Kabupaten Dompu",NUSA TENGGARA BARAT,84213.0,Indonesia,818366553,,,-85.402.271,1.184.606.593,https://maps.google.com/?cid=0x0:0x2b22eed0fdf541b8,
hardware store,Toko Bahan Bangunan,Toko Cahaya Bone,"F8J9+GWW, Soriutu, Kec. Manggalewa, Kabupaten Dompu, Nusa Tenggara Bar. 84253","Soriutu, Kec. Manggalewa, Kabupaten Dompu",NUSA TENGGARA BARAT,84253.0,Indonesia,,,,-85.186.328,1.183.198.358,https://maps.google.com/?cid=0x0:0xd6e16935f07a4b07,
hardware store,Toko Bahan Bangunan,Azizah plafon pvc,"Jl. Lele No.1, Bali, Kec. Dompu, Kabupaten Dompu, Nusa Tenggara Bar. 84213","Bali, Kec. Dompu, Kabupaten Dompu",NUSA TENGGARA BARAT,84213.0,Indonesia,81287663379,,,-85.354.589,1.184.610.978,https://maps.google.com/?cid=0x0:0x94239182ea395f34,
hardware store,Toko Elektronik,Toko Asia,"Jl. Kartini No.5, Bada, Kec. Dompu, Kabupaten Dompu, Nusa Tenggara Bar. 84211","Bada, Kec. Dompu, Kabupaten Dompu",NUSA TENGGARA BARAT,84211.0,Indonesia,,,,-85.403.904,1.184.610.864,https://maps.google.com/?cid=0x0:0xde6b5224d9805388,
hardware store,Toko Bahan Bangunan,Toko Niaga Bangunan,"Deket Jl. Lkr. Utara, Karijawa, Kec. Dompu, Kabupaten Dompu, Nusa Tenggara Bar. 84216","Karijawa, Kec. Dompu, Kabupaten Dompu",NUSA TENGGARA BARAT,84216.0,Indonesia,82339774144,,,-85.320.637,1.184.537.654,https://maps.google.com/?cid=0x0:0x151f72cc40b0c79e,
hardware store,Toko Gorden,Alif Gordyn,"FC3P+JCG, Kandai Dua, Kec. Woja, Kabupaten Dompu, Nusa Tenggara Bar. 84218","Kandai Dua, Kec. Woja, Kabupaten Dompu",NUSA TENGGARA BARAT,84218.0,Indonesia,82118405435,,,-85.459.269,1.184.360.934,https://maps.google.com/?cid=0x0:0xbac189ab4ae810fe,
hardware store,Toko Swalayan,Bolly Deptstore Dompu,"FF65+4FH, Jl. Manuru Bata Dompu, Bada, Kec. Dompu, Kabupaten Dompu, Nusa Tenggara Bar. 84213","Jl. Manuru Bata Dompu, Bada, Kec. Dompu, Kabupaten Dompu",NUSA TENGGARA BARAT,84213.0,Indonesia,,,,-85.396.801,1.184.587.322,https://maps.google.com/?cid=0x0:0x5b99d2bfd3f4e4cf,
hardware store,Toko Swalayan,Niaga Hardware - Sandubaya,"Komp. Pertokoan Sweta, Jl. Sandubaya No.D12-14, Bertais, Kec. Sandubaya, Kota Mataram, Nusa Tenggara Bar. 83236","Jl. Sandubaya No.D12-14, Bertais, Kec. Sandubaya, Kota Mataram",NUSA TENGGARA BARAT,83236.0,Indonesia,81339954915,,,-85.927.266,1.161.511.338,https://maps.google.com/?cid=0x0:0x833b7b951b085522,
hardware store,Grosir,Toko Indra Jaya,"FC26+GVQ, Jl. Lintas Sumbawa - Bima, Bakajaya, Kec. Woja, Kabupaten Dompu, Nusa Tenggara Bar. 84251","Jl. Lintas Sumbawa - Bima, Bakajaya, Kec. Woja, Kabupaten Dompu",NUSA TENGGARA BARAT,84251.0,Indonesia,37322284,,,-85.486.525,1.184.122.479,https://maps.google.com/?cid=0x0:0x51e52037dfc326f8,
hardware store,Toko Swalayan,Toko Putra Kediri,"FF64+965, Karijawa, Kec. Dompu, Kabupaten Dompu, Nusa Tenggara Bar. 84217","Karijawa, Kec. Dompu, Kabupaten Dompu",NUSA TENGGARA BARAT,84217.0,Indonesia,81915871233,,,-85.391.195,1.184.556.228,https://maps.google.com/?cid=0x0:0x5fccc13cc9623e0b,
hardware store,Toko Bahan Bangunan,UD Selamat,"CFP4+CRJ, Unnamed Road, Dorebara, Kec. Dompu, Kabupaten Dompu, Nusa Tenggara Bar. 84219","Unnamed Road, Dorebara, Kec. Dompu, Kabupaten Dompu",NUSA TENGGARA BARAT,84219.0,Indonesia,,,,-85.639.223,1.184.570.141,https://maps.google.com/?cid=0x0:0x3f8e70fa9cd6f99e,
hardware store,Dealer Sepeda Motor,DOMPU RIZKY MOTOR,"Kandai Dua, Kec. Woja, Kabupaten Dompu, Nusa Tenggara Bar. 84218","Kec. Woja, Kabupaten Dompu",NUSA TENGGARA BARAT,84218.0,Indonesia,85253866700,,,-85.468.338,1.184.338.602,https://maps.google.com/?cid=0x0:0x1006785b57b4f3c3,
hardware store,hardware store,.,,,NUSA TENGGARA BARAT,,Indonesia,,,,-244.565,1.178.888,https://maps.google.com/?cid=0x0:0xd7ed223e549b3485,
hardware store,Toko Bahan Bangunan,Tb. Mataram,"FF66+78F, Jl. . Jenderal Sudirman, Bada, Kec. Dompu, Kabupaten Dompu, Nusa Tenggara Bar. 84213","Jl. . Jenderal Sudirman, Bada, Kec. Dompu, Kabupaten Dompu",NUSA TENGGARA BARAT,84213.0,Indonesia,,,,-85.393.228,1.184.608.038,https://maps.google.com/?cid=0x0:0x1a78f82c6f462f29,
hardware store,Toko Bahan Bangunan,Niaga Hardware AA Gde Ngurah,"Jl. A. A Gede Ngurah, Sapta Marga, Kec. Cakranegara, Kota Mataram, Nusa Tenggara Bar.","Kota Mataram, Nusa Tenggara Bar.",NUSA TENGGARA BARAT,,Indonesia,,,,-85.935.174,1.161.293.939,https://maps.google.com/?cid=0x0:0xf62b7ce8f340c937,
hardware store,Toko Gorden,Sasambo Gorden,"FC2F+JF8, komplek gedung Serbaguna, Montabaru, Kec. Woja, Kabupaten Dompu, Nusa Tenggara Bar.","Kabupaten Dompu, Nusa Tenggara Bar.",NUSA TENGGARA BARAT,,Indonesia,82341666930,,,-85.484.696,1.184.236.905,https://maps.google.com/?cid=0x0:0x2de51dc8323ad853,
hardware store,Toko Alat Tulis Kantor,Kartini UD,"Jl. Raden Ajeng Kartini No.21, Kandai Dua, Sumbawa, Kabupaten Dompu, Nusa Tenggara Bar. 84216","Kandai Dua, Sumbawa, Kabupaten Dompu",NUSA TENGGARA BARAT,84216.0,Indonesia,371625470,,,-8.545.437,118.445.801,https://maps.google.com/?cid=0x0:0x2b1c63d3c875776b,
hardware store,hardware store,Nusa Tenggara Bar. 84219,"Kabupaten Dompu, Nusa Tenggara Bar.","Kabupaten Dompu, Nusa Tenggara Bar.",NUSA TENGGARA BARAT,,Indonesia,,,,-8.455.389,1.184.980.744,https://maps.google.com/?cid=0x0:0xd1ca28c719867916,
hardware store,Toko Bahan Bangunan,MR.DIY,"Jl. Soekarno-Hatta No.29, Bada, Kec. Dompu, Kabupaten Dompu, Nusa Tenggara Bar. 84213","Bada, Kec. Dompu, Kabupaten Dompu",NUSA TENGGARA BARAT,84213.0,Indonesia,2130022789,,,-85.381.058,1.184.636.809,https://maps.google.com/?cid=0x0:0x782ef44faba77107,
hardware store,Toko Bahan Bangunan,Toko Bahan Bangunan Anugerah Simpasai,"Jl. Buntu Simpasai Woja, Kandai Dua, Kec. Woja, Kabupaten Dompu, Nusa Tenggara Bar. 84218","Kandai Dua, Kec. Woja, Kabupaten Dompu",NUSA TENGGARA BARAT,84218.0,Indonesia,,,,-85.392.106,118.441.274,https://maps.google.com/?cid=0x0:0x4a5418154243ede5,
hardware store,Toko Bahan Bangunan,Toko Bangunan Bage Rezo,"jln pahlawan no.10, Kandai Dua, Kec. Woja, Kabupaten Dompu, Nusa Tenggara Bar. 84219","Kandai Dua, Kec. Woja, Kabupaten Dompu",NUSA TENGGARA BARAT,84219.0,Indonesia,82339754936,,,-8.543.326,1.184.326.834,https://maps.google.com/?cid=0x0:0x9583b7cca9ab328,
hardware store,Toko Bahan Bangunan,TOKO TAUFIK,"Jl. . Jenderal Sudirman No.27, Bada, Kec. Dompu, Kabupaten Dompu, Nusa Tenggara Bar. 84213","Bada, Kec. Dompu, Kabupaten Dompu",NUSA TENGGARA BARAT,84213.0,Indonesia,37321160,,,-85.394.741,1.184.608.954,https://maps.google.com/?cid=0x0:0xa99b586cc9779c94,
hardware store,Toko Bahan Bangunan,Depo Sumber Bangunan,"Jl. Baru Karijawa gg PS No.33, Karijawa, Kec. Dompu, Kabupaten Dompu, Nusa Tenggara Bar. 84213","Karijawa, Kec. Dompu, Kabupaten Dompu",NUSA TENGGARA BARAT,84213.0,Indonesia,81213393271,,,-8.531.509,1.184.546.781,https://maps.google.com/?cid=0x0:0x74aa1c95593ff6e7,
hardware store,Toko Perlengkapan Rumah,Toko Al-Hidayah,"Jl. Buntu Simpasai Woja, Kandai Dua, Kec. Woja, Kabupaten Dompu, Nusa Tenggara Bar. 84219","Kandai Dua, Kec. Woja, Kabupaten Dompu",NUSA TENGGARA BARAT,84219.0,Indonesia,81312976013,,,-85.393.217,1.184.407.717,https://maps.google.com/?cid=0x0:0xec856f1b31465ef7,
hardware store,Toko Bahan Bangunan,Azizah plafon pvc,"Jl. Lele No.1, Bali, Kec. Dompu, Kabupaten Dompu, Nusa Tenggara Bar. 84213","Bali, Kec. Dompu, Kabupaten Dompu",NUSA TENGGARA BARAT,84213.0,Indonesia,81287663379,,,-85.354.589,1.184.610.978,https://maps.google.com/?cid=0x0:0x94239182ea395f34,
hardware store,Toko Swalayan,Bolly Deptstore Dompu,"FF65+4FH, Jl. Manuru Bata Dompu, Bada, Kec. Dompu, Kabupaten Dompu, Nusa Tenggara Bar. 84213","Jl. Manuru Bata Dompu, Bada, Kec. Dompu, Kabupaten Dompu",NUSA TENGGARA BARAT,84213.0,Indonesia,,,,-85.396.801,1.184.587.322,https://maps.google.com/?cid=0x0:0x5b99d2bfd3f4e4cf,
hardware store,Toko Bahan Bangunan,Toko Niaga Bangunan,"Deket Jl. Lkr. Utara, Karijawa, Kec. Dompu, Kabupaten Dompu, Nusa Tenggara Bar. 84216","Karijawa, Kec. Dompu, Kabupaten Dompu",NUSA TENGGARA BARAT,84216.0,Indonesia,82339774144,,,-85.320.637,1.184.537.654,https://maps.google.com/?cid=0x0:0x151f72cc40b0c79e,
hardware store,Toko Elektronik,Toko Asia,"Jl. Kartini No.5, Bada, Kec. Dompu, Kabupaten Dompu, Nusa Tenggara Bar. 84211","Bada, Kec. Dompu, Kabupaten Dompu",NUSA TENGGARA BARAT,84211.0,Indonesia,,,,-85.403.904,1.184.610.864,https://maps.google.com/?cid=0x0:0xde6b5224d9805388,
hardware store,Kantor Perusahaan,TB. Bangkit Bersama,"Dusun Dorongguni, Kareke, Kec. Dompu, Kabupaten Dompu, Nusa Tenggara Bar. 84219","Kareke, Kec. Dompu, Kabupaten Dompu",NUSA TENGGARA BARAT,84219.0,Indonesia,82340031984,,,-85.511.303,1.184.811.153,https://maps.google.com/?cid=0x0:0x503b570080f8a30a,
hardware store,Toko Bahan Bangunan,Ud. Zam Zam,"FC4R+5GH, Jl. Lintas Sumbawa - Bima, Simpasai, Kec. Woja, Kabupaten Dompu, Nusa Tenggara Bar. 84218","Jl. Lintas Sumbawa - Bima, Simpasai, Kec. Woja, Kabupaten Dompu",NUSA TENGGARA BARAT,84218.0,Indonesia,,,,-85.445.643,1.184.413.514,https://maps.google.com/?cid=0x0:0x1f0eee75cc4a17fe,
hardware store,Toko Bahan Bangunan,Toko Cahaya Bone,"F8J9+GWW, Soriutu, Kec. Manggalewa, Kabupaten Dompu, Nusa Tenggara Bar. 84253","Soriutu, Kec. Manggalewa, Kabupaten Dompu",NUSA TENGGARA BARAT,84253.0,Indonesia,,,,-85.186.328,1.183.198.358,https://maps.google.com/?cid=0x0:0xd6e16935f07a4b07,
hardware store,Toko Bahan Bangunan,Pt Dua Nogo Sakti,"Jl. Syech Moh., Dorotangga, jado, Kabupaten Dompu, Nusa Tenggara Bar. 84213","Dorotangga, jado, Kabupaten Dompu",NUSA TENGGARA BARAT,84213.0,Indonesia,85706128299,,,-85.280.824,1.184.689.952,https://maps.google.com/?cid=0x0:0xa1d9a69a83f3af00,
hardware store,Toko Elektronik,Toko Niaga Teknik,"FF56+W73, Jl. Manuru Bata Dompu, Potu, Kec. Dompu, Kabupaten Dompu, Nusa Tenggara Bar. 84213","Jl. Manuru Bata Dompu, Potu, Kec. Dompu, Kabupaten Dompu",NUSA TENGGARA BARAT,84213.0,Indonesia,818366553,,,-85.402.271,1.184.606.593,https://maps.google.com/?cid=0x0:0x2b22eed0fdf541b8,
hardware store,Toko Bahan Bangunan,surya bangunan,"Jl. Lintas Sumbawa - Bima, Soriutu, Kec. Manggalewa, Kabupaten Dompu, Nusa Tenggara Bar.","Kabupaten Dompu, Nusa Tenggara Bar.",NUSA TENGGARA BARAT,,Indonesia,81338408886,,,-85.200.762,1.183.187.578,https://maps.google.com/?cid=0x0:0x52ef9d1d200d04a7,
hardware store,Toko Bahan Bangunan,UD Selamat,"CFP4+CRJ, Unnamed Road, Dorebara, Kec. Dompu, Kabupaten Dompu, Nusa Tenggara Bar. 84219","Unnamed Road, Dorebara, Kec. Dompu, Kabupaten Dompu",NUSA TENGGARA BARAT,84219.0,Indonesia,,,,-85.639.223,1.184.570.141,https://maps.google.com/?cid=0x0:0x3f8e70fa9cd6f99e,
hardware store,Toko Bahan Bangunan,Tb. Mataram,"FF66+78F, Jl. . Jenderal Sudirman, Bada, Kec. Dompu, Kabupaten Dompu, Nusa Tenggara Bar. 84213","Jl. . Jenderal Sudirman, Bada, Kec. Dompu, Kabupaten Dompu",NUSA TENGGARA BARAT,84213.0,Indonesia,,,,-85.393.228,1.184.608.038,https://maps.google.com/?cid=0x0:0x1a78f82c6f462f29,
hardware store,Toko Bahan Bangunan,Toko Mitra Bangunan,"Jl. Lintas Sumbawa - Bima No.501, Soriutu, Kec. Manggalewa, Kabupaten Dompu, Nusa Tenggara Bar. 84253","Soriutu, Kec. Manggalewa, Kabupaten Dompu",NUSA TENGGARA BARAT,84253.0,Indonesia,85333990765,,,-85.228.302,1.183.172.343,https://maps.google.com/?cid=0x0:0xd7314bf45ce0da44,
hardware store,Pusat Perbelanjaan,Aisyah Bangunan,"CCWJ+3MX, Jl. Lintas Wawonduru, Wawonduru, Kec. Woja, Kabupaten Dompu, Nusa Tenggara Bar. 84219","Jl. Lintas Wawonduru, Wawonduru, Kec. Woja, Kabupaten Dompu",NUSA TENGGARA BARAT,84219.0,Indonesia,85238591234,,,-85.547.669,1.184.317.258,https://maps.google.com/?cid=0x0:0xc59019e1a3f0370,
hardware store,Grosir,Toko Indra Jaya,"FC26+GVQ, Jl. Lintas Sumbawa - Bima, Bakajaya, Kec. Woja, Kabupaten Dompu, Nusa Tenggara Bar. 84251","Jl. Lintas Sumbawa - Bima, Bakajaya, Kec. Woja, Kabupaten Dompu",NUSA TENGGARA BARAT,84251.0,Indonesia,37322284,,,-85.486.525,1.184.122.479,https://maps.google.com/?cid=0x0:0x51e52037dfc326f8,
hardware store,Toko Gorden,Alif Gordyn,"FC3P+JCG, Kandai Dua, Kec. Woja, Kabupaten Dompu, Nusa Tenggara Bar. 84218","Kandai Dua, Kec. Woja, Kabupaten Dompu",NUSA TENGGARA BARAT,84218.0,Indonesia,82118405435,,,-85.459.269,1.184.360.934,https://maps.google.com/?cid=0x0:0xbac189ab4ae810fe,
hardware store,Toko Swalayan,Toko Putra Kediri,"FF64+965, Karijawa, Kec. Dompu, Kabupaten Dompu, Nusa Tenggara Bar. 84217","Karijawa, Kec. Dompu, Kabupaten Dompu",NUSA TENGGARA BARAT,84217.0,Indonesia,81915871233,,,-85.391.195,1.184.556.228,https://maps.google.com/?cid=0x0:0x5fccc13cc9623e0b,
hardware store,Toko Aksesori Ponsel,CV. NURI5KY IT SUPPORT,"FFQJ+5H4, OO, Kec. Dompu, Kabupaten Dompu, Nusa Tenggara Bar. 84214","OO, Kec. Dompu, Kabupaten Dompu",NUSA TENGGARA BARAT,84214.0,Indonesia,87861015331,,,-85.121.109,1.184.814.505,https://maps.google.com/?cid=0x0:0xf354e8e9d7cfbb45,
hardware store,Toko Alat Tulis Kantor,Ud. Ascom,"FF88+8MH, Dorotangga, Kec. Dompu, Kabupaten Dompu, Nusa Tenggara Bar. 84212","Dorotangga, Kec. Dompu, Kabupaten Dompu",NUSA TENGGARA BARAT,84212.0,Indonesia,81339626252,,,-85.341.984,1.184.667.312,https://maps.google.com/?cid=0x0:0x171b38b1f3ab60ca,
hardware store,hardware store,Nusa Tenggara Bar. 84251,"Kec. Woja, Kabupaten Dompu, Nusa Tenggara Bar.","Kabupaten Dompu, Nusa Tenggara Bar.",NUSA TENGGARA BARAT,,Indonesia,,,,-85.434.837,1.183.812.562,https://maps.google.com/?cid=0x0:0xd559d9dfdafacdb4,
hardware store,Toko Bahan Bangunan,Toko Bangunan Anugrah Bara,"C9XQ+WQM, Jl. Lintas Sumbawa - Bima, Bara, Kec. Woja, Kabupaten Dompu, Nusa Tenggara Bar. 84251","Jl. Lintas Sumbawa - Bima, Bara, Kec. Woja, Kabupaten Dompu",NUSA TENGGARA BARAT,84251.0,Indonesia,,,,-85.501.731,1.183.894.253,https://maps.google.com/?cid=0x0:0x7aef164de79ee975,
hardware store,Toko Bahan Bangunan,Toko Bangunan Bage Rezo,"jln pahlawan no.10, Kandai Dua, Kec. Woja, Kabupaten Dompu, Nusa Tenggara Bar. 84219","Kandai Dua, Kec. Woja, Kabupaten Dompu",NUSA TENGGARA BARAT,84219.0,Indonesia,82339754936,,,-8.543.326,1.184.326.834,https://maps.google.com/?cid=0x0:0x9583b7cca9ab328,
hardware store,Toko Bahan Bangunan,Toko Bahan Bangunan Anugerah Simpasai,"Jl. Buntu Simpasai Woja, Kandai Dua, Kec. Woja, Kabupaten Dompu, Nusa Tenggara Bar. 84218","Kandai Dua, Kec. Woja, Kabupaten Dompu",NUSA TENGGARA BARAT,84218.0,Indonesia,,,,-85.392.106,118.441.274,https://maps.google.com/?cid=0x0:0x4a5418154243ede5,
hardware store,Toko Perlengkapan Rumah,Toko Al-Hidayah,"Jl. Buntu Simpasai Woja, Kandai Dua, Kec. Woja, Kabupaten Dompu, Nusa Tenggara Bar. 84219","Kandai Dua, Kec. Woja, Kabupaten Dompu",NUSA TENGGARA BARAT,84219.0,Indonesia,81312976013,,,-85.393.217,1.184.407.717,https://maps.google.com/?cid=0x0:0xec856f1b31465ef7,
hardware store,Toko Bahan Bangunan,Toko Cahaya Bone,"F8J9+GWW, Soriutu, Kec. Manggalewa, Kabupaten Dompu, Nusa Tenggara Bar. 84253","Soriutu, Kec. Manggalewa, Kabupaten Dompu",NUSA TENGGARA BARAT,84253.0,Indonesia,,,,-85.186.328,1.183.198.358,https://maps.google.com/?cid=0x0:0xd6e16935f07a4b07,
hardware store,Toko Bahan Bangunan,surya bangunan,"Jl. Lintas Sumbawa - Bima, Soriutu, Kec. Manggalewa, Kabupaten Dompu, Nusa Tenggara Bar.","Kabupaten Dompu, Nusa Tenggara Bar.",NUSA TENGGARA BARAT,,Indonesia,81338408886,,,-85.200.762,1.183.187.578,https://maps.google.com/?cid=0x0:0x52ef9d1d200d04a7,
hardware store,Toko Bahan Bangunan,TOKO TAUFIK,"Jl. . Jenderal Sudirman No.27, Bada, Kec. Dompu, Kabupaten Dompu, Nusa Tenggara Bar. 84213","Bada, Kec. Dompu, Kabupaten Dompu",NUSA TENGGARA BARAT,84213.0,Indonesia,37321160,,,-85.394.741,1.184.608.954,https://maps.google.com/?cid=0x0:0xa99b586cc9779c94,
hardware store,Toko Bahan Bangunan,Ud. Zam Zam,"FC4R+5GH, Jl. Lintas Sumbawa - Bima, Simpasai, Kec. Woja, Kabupaten Dompu, Nusa Tenggara Bar. 84218","Jl. Lintas Sumbawa - Bima, Simpasai, Kec. Woja, Kabupaten Dompu",NUSA TENGGARA BARAT,84218.0,Indonesia,,,,-85.445.643,1.184.413.514,https://maps.google.com/?cid=0x0:0x1f0eee75cc4a17fe,
hardware store,Toko Bahan Bangunan,Toko Mitra Bangunan,"Jl. Lintas Sumbawa - Bima No.501, Soriutu, Kec. Manggalewa, Kabupaten Dompu, Nusa Tenggara Bar. 84253","Soriutu, Kec. Manggalewa, Kabupaten Dompu",NUSA TENGGARA BARAT,84253.0,Indonesia,85333990765,,,-85.228.302,1.183.172.343,https://maps.google.com/?cid=0x0:0xd7314bf45ce0da44,
hardware store,Toko Bahan Bangunan,Depo Sumber Bangunan,"Jl. Baru Karijawa gg PS No.33, Karijawa, Kec. Dompu, Kabupaten Dompu, Nusa Tenggara Bar. 84213","Karijawa, Kec. Dompu, Kabupaten Dompu",NUSA TENGGARA BARAT,84213.0,Indonesia,81213393271,,,-8.531.509,1.184.546.781,https://maps.google.com/?cid=0x0:0x74aa1c95593ff6e7,
hardware store,Toko Bahan Bangunan,UD Anugrah Gemilang,"Doromelo, Kec. Manggalewa, Kabupaten Dompu, Nusa Tenggara Bar. 84253","Kec. Manggalewa, Kabupaten Dompu",NUSA TENGGARA BARAT,84253.0,Indonesia,,,,-8.514.958,1.183.052.807,https://maps.google.com/?cid=0x0:0xc31d3e3d7899eb76,
hardware store,Toko,UD. LESTARI,"F8J9+7J9, Soriutu, Kec. Manggalewa, Kabupaten Dompu, Nusa Tenggara Bar. 84253","Soriutu, Kec. Manggalewa, Kabupaten Dompu",NUSA TENGGARA BARAT,84253.0,Indonesia,,,,-8.519.326,1.183.191.117,https://maps.google.com/?cid=0x0:0x5b13be02e1747be4,
hardware store,Toko Bahan Bangunan,Toko Niaga Bangunan,"Deket Jl. Lkr. Utara, Karijawa, Kec. Dompu, Kabupaten Dompu, Nusa Tenggara Bar. 84216","Karijawa, Kec. Dompu, Kabupaten Dompu",NUSA TENGGARA BARAT,84216.0,Indonesia,82339774144,,,-85.320.637,1.184.537.654,https://maps.google.com/?cid=0x0:0x151f72cc40b0c79e,
hardware store,Grosir,Toko Indra Jaya,"FC26+GVQ, Jl. Lintas Sumbawa - Bima, Bakajaya, Kec. Woja, Kabupaten Dompu, Nusa Tenggara Bar. 84251","Jl. Lintas Sumbawa - Bima, Bakajaya, Kec. Woja, Kabupaten Dompu",NUSA TENGGARA BARAT,84251.0,Indonesia,37322284,,,-85.486.525,1.184.122.479,https://maps.google.com/?cid=0x0:0x51e52037dfc326f8,
hardware store,Toko Swalayan,Bolly Deptstore Dompu,"FF65+4FH, Jl. Manuru Bata Dompu, Bada, Kec. Dompu, Kabupaten Dompu, Nusa Tenggara Bar. 84213","Jl. Manuru Bata Dompu, Bada, Kec. Dompu, Kabupaten Dompu",NUSA TENGGARA BARAT,84213.0,Indonesia,,,,-85.396.801,1.184.587.322,https://maps.google.com/?cid=0x0:0x5b99d2bfd3f4e4cf,
hardware store,Toko Bahan Bangunan,TB. Ameerah Justin Jaya,"7C8W+C9Q, Rasabou, Kec. Hu'u, Kabupaten Dompu, Nusa Tenggara Bar. 84271","Rasabou, Kec. Hu'u, Kabupaten Dompu",NUSA TENGGARA BARAT,84271.0,Indonesia,85239050249,,,-87.329.419,1.184.466.227,https://maps.google.com/?cid=0x0:0xf08820de0e80b43a,
hardware store,Toko Bahan Bangunan,Azizah plafon pvc,"Jl. Lele No.1, Bali, Kec. Dompu, Kabupaten Dompu, Nusa Tenggara Bar. 84213","Bali, Kec. Dompu, Kabupaten Dompu",NUSA TENGGARA BARAT,84213.0,Indonesia,81287663379,,,-85.354.589,1.184.610.978,https://maps.google.com/?cid=0x0:0x94239182ea395f34,
hardware store,Kantor Perusahaan,Wawonduru kampo gudang,"CCGC+3VR, Wawonduru, Kec. Woja, Kabupaten Dompu, Nusa Tenggara Bar.","Kabupaten Dompu, Nusa Tenggara Bar.",NUSA TENGGARA BARAT,,Indonesia,,,,-85.747.656,1.184.221.519,https://maps.google.com/?cid=0x0:0xd109ef5082091643,
hardware store,Toko Elektronik,Toko Asia,"Jl. Kartini No.5, Bada, Kec. Dompu, Kabupaten Dompu, Nusa Tenggara Bar. 84211","Bada, Kec. Dompu, Kabupaten Dompu",NUSA TENGGARA BARAT,84211.0,Indonesia,,,,-85.403.904,1.184.610.864,https://maps.google.com/?cid=0x0:0xde6b5224d9805388,
hardware store,Kantor Perusahaan,TB. Bangkit Bersama,"Dusun Dorongguni, Kareke, Kec. Dompu, Kabupaten Dompu, Nusa Tenggara Bar. 84219","Kareke, Kec. Dompu, Kabupaten Dompu",NUSA TENGGARA BARAT,84219.0,Indonesia,82340031984,,,-85.511.303,1.184.811.153,https://maps.google.com/?cid=0x0:0x503b570080f8a30a,
hardware store,Toko,MR.DIY,"Jl. Lintas Calabai, Doromelo, Kec. Manggalewa, Kabupaten Dompu, Nusa Tenggara Bar. 84253","Doromelo, Kec. Manggalewa, Kabupaten Dompu",NUSA TENGGARA BARAT,84253.0,Indonesia,,,,-8.517.832,118.314.412,https://maps.google.com/?cid=0x0:0x29559e07b8f0a07,
hardware store,Toko Swalayan,Niaga Hardware - Sandubaya,"Komp. Pertokoan Sweta, Jl. Sandubaya No.D12-14, Bertais, Kec. Sandubaya, Kota Mataram, Nusa Tenggara Bar. 83236","Jl. Sandubaya No.D12-14, Bertais, Kec. Sandubaya, Kota Mataram",NUSA TENGGARA BARAT,83236.0,Indonesia,81339954915,,,-85.927.266,1.161.511.338,https://maps.google.com/?cid=0x0:0x833b7b951b085522,
hardware store,Toko Bahan Bangunan,Niaga Hardware AA Gde Ngurah,"Jl. A. A Gede Ngurah, Sapta Marga, Kec. Cakranegara, Kota Mataram, Nusa Tenggara Bar.","Kota Mataram, Nusa Tenggara Bar.",NUSA TENGGARA BARAT,,Indonesia,,,,-85.935.174,1.161.293.939,https://maps.google.com/?cid=0x0:0xf62b7ce8f340c937,
hardware store,hardware store,Pekat,"Calabai, Kec. Pekat, Kabupaten Dompu, Nusa Tenggara Bar.","Kabupaten Dompu, Nusa Tenggara Bar.",NUSA TENGGARA BARAT,,Indonesia,,,,-8.238.184,117.715.797,https://maps.google.com/?cid=0x0:0x5890663b56067254,
hardware store,hardware store,Nusa Tenggara Bar. 84253,"Kec. Manggalewa, Kabupaten Dompu, Nusa Tenggara Bar.","Kabupaten Dompu, Nusa Tenggara Bar.",NUSA TENGGARA BARAT,,Indonesia,,,,-85.185.083,1.183.228.165,https://maps.google.com/?cid=0x0:0x478db1c8ad8f6b79,
hardware store,Toko Bahan Bangunan,UD Anugrah Gemilang,"Doromelo, Kec. Manggalewa, Kabupaten Dompu, Nusa Tenggara Bar. 84253","Kec. Manggalewa, Kabupaten Dompu",NUSA TENGGARA BARAT,84253.0,Indonesia,,,,-8.514.958,1.183.052.807,https://maps.google.com/?cid=0x0:0xc31d3e3d7899eb76,
hardware store,Toko Bahan Bangunan,surya bangunan,"Jl. Lintas Sumbawa - Bima, Soriutu, Kec. Manggalewa, Kabupaten Dompu, Nusa Tenggara Bar.","Kabupaten Dompu, Nusa Tenggara Bar.",NUSA TENGGARA BARAT,,Indonesia,81338408886,,,-85.200.762,1.183.187.578,https://maps.google.com/?cid=0x0:0x52ef9d1d200d04a7,
hardware store,Toko,UD. LESTARI,"F8J9+7J9, Soriutu, Kec. Manggalewa, Kabupaten Dompu, Nusa Tenggara Bar. 84253","Soriutu, Kec. Manggalewa, Kabupaten Dompu",NUSA TENGGARA BARAT,84253.0,Indonesia,,,,-8.519.326,1.183.191.117,https://maps.google.com/?cid=0x0:0x5b13be02e1747be4,
hardware store,Toko,MR.DIY,"Jl. Lintas Calabai, Doromelo, Kec. Manggalewa, Kabupaten Dompu, Nusa Tenggara Bar. 84253","Doromelo, Kec. Manggalewa, Kabupaten Dompu",NUSA TENGGARA BARAT,84253.0,Indonesia,,,,-8.517.832,118.314.412,https://maps.google.com/?cid=0x0:0x29559e07b8f0a07,
hardware store,Toko Bahan Bangunan,Toko Bahan Bangunan Anugerah Simpasai,"Jl. Buntu Simpasai Woja, Kandai Dua, Kec. Woja, Kabupaten Dompu, Nusa Tenggara Bar. 84218","Kandai Dua, Kec. Woja, Kabupaten Dompu",NUSA TENGGARA BARAT,84218.0,Indonesia,,,,-85.392.106,118.441.274,https://maps.google.com/?cid=0x0:0x4a5418154243ede5,
hardware store,Toko Bahan Bangunan,Toko Bangunan Anugrah Bara,"C9XQ+WQM, Jl. Lintas Sumbawa - Bima, Bara, Kec. Woja, Kabupaten Dompu, Nusa Tenggara Bar. 84251","Jl. Lintas Sumbawa - Bima, Bara, Kec. Woja, Kabupaten Dompu",NUSA TENGGARA BARAT,84251.0,Indonesia,,,,-85.501.731,1.183.894.253,https://maps.google.com/?cid=0x0:0x7aef164de79ee975,
hardware store,Toko Bahan Bangunan,MR.DIY,"Jl. Soekarno-Hatta No.29, Bada, Kec. Dompu, Kabupaten Dompu, Nusa Tenggara Bar. 84213","Bada, Kec. Dompu, Kabupaten Dompu",NUSA TENGGARA BARAT,84213.0,Indonesia,2130022789,,,-85.381.058,1.184.636.809,https://maps.google.com/?cid=0x0:0x782ef44faba77107,
hardware store,Toko,Toko Berkah Manggelewa,"Manggelewa, Kec. Kempo, Kabupaten Dompu, Nusa Tenggara Bar. 84217","Kec. Kempo, Kabupaten Dompu",NUSA TENGGARA BARAT,84217.0,Indonesia,82341957314,,,-85.185.358,1.183.184.071,https://maps.google.com/?cid=0x0:0xc86188770344d20b,
hardware store,hardware store,Nusa Tenggara Bar. 84272,"Kec. Pajo, Kabupaten Dompu, Nusa Tenggara Bar.","Kabupaten Dompu, Nusa Tenggara Bar.",NUSA TENGGARA BARAT,,Indonesia,,,,-86.347.113,1.184.747.173,https://maps.google.com/?cid=0x0:0x2f0ce72fb3d1b4f4,
hardware store,Toko Bahan Bangunan,MR.DIY,"Jl. Soekarno-Hatta No.29, Bada, Kec. Dompu, Kabupaten Dompu, Nusa Tenggara Bar. 84213","Bada, Kec. Dompu, Kabupaten Dompu",NUSA TENGGARA BARAT,84213.0,Indonesia,2130022789,,,-85.381.058,1.184.636.809,https://maps.google.com/?cid=0x0:0x782ef44faba77107,
hardware store,Toko Bahan Bangunan,Depo Sumber Bangunan,"Jl. Baru Karijawa gg PS No.33, Karijawa, Kec. Dompu, Kabupaten Dompu, Nusa Tenggara Bar. 84213","Karijawa, Kec. Dompu, Kabupaten Dompu",NUSA TENGGARA BARAT,84213.0,Indonesia,81213393271,,,-8.531.509,1.184.546.781,https://maps.google.com/?cid=0x0:0x74aa1c95593ff6e7,
hardware store,Toko Bahan Bangunan,Toko Bahan Bangunan Anugerah Simpasai,"Jl. Buntu Simpasai Woja, Kandai Dua, Kec. Woja, Kabupaten Dompu, Nusa Tenggara Bar. 84218","Kandai Dua, Kec. Woja, Kabupaten Dompu",NUSA TENGGARA BARAT,84218.0,Indonesia,,,,-85.392.106,118.441.274,https://maps.google.com/?cid=0x0:0x4a5418154243ede5,
hardware store,Toko Perlengkapan Rumah,Toko Al-Hidayah,"Jl. Buntu Simpasai Woja, Kandai Dua, Kec. Woja, Kabupaten Dompu, Nusa Tenggara Bar. 84219","Kandai Dua, Kec. Woja, Kabupaten Dompu",NUSA TENGGARA BARAT,84219.0,Indonesia,81312976013,,,-85.393.217,1.184.407.717,https://maps.google.com/?cid=0x0:0xec856f1b31465ef7,
hardware store,Toko Bahan Bangunan,Azizah plafon pvc,"Jl. Lele No.1, Bali, Kec. Dompu, Kabupaten Dompu, Nusa Tenggara Bar. 84213","Bali, Kec. Dompu, Kabupaten Dompu",NUSA TENGGARA BARAT,84213.0,Indonesia,81287663379,,,-85.354.589,1.184.610.978,https://maps.google.com/?cid=0x0:0x94239182ea395f34,
hardware store,Toko Bahan Bangunan,Toko Humayroh,"Adu, Kec. Hu'u, Kabupaten Dompu, Nusa Tenggara Bar. 84271","Kec. Hu'u, Kabupaten Dompu",NUSA TENGGARA BARAT,84271.0,Indonesia,82340114443,,,-87.031.517,1.184.686.843,https://maps.google.com/?cid=0x0:0x6b2ff82fcbeb2a6,
hardware store,Kantor Perusahaan,TB. Bangkit Bersama,"Dusun Dorongguni, Kareke, Kec. Dompu, Kabupaten Dompu, Nusa Tenggara Bar. 84219","Kareke, Kec. Dompu, Kabupaten Dompu",NUSA TENGGARA BARAT,84219.0,Indonesia,82340031984,,,-85.511.303,1.184.811.153,https://maps.google.com/?cid=0x0:0x503b570080f8a30a,
hardware store,Toko Bahan Bangunan,Ud. Zam Zam,"FC4R+5GH, Jl. Lintas Sumbawa - Bima, Simpasai, Kec. Woja, Kabupaten Dompu, Nusa Tenggara Bar. 84218","Jl. Lintas Sumbawa - Bima, Simpasai, Kec. Woja, Kabupaten Dompu",NUSA TENGGARA BARAT,84218.0,Indonesia,,,,-85.445.643,1.184.413.514,https://maps.google.com/?cid=0x0:0x1f0eee75cc4a17fe,
hardware store,Toko Swalayan,Bolly Deptstore Dompu,"FF65+4FH, Jl. Manuru Bata Dompu, Bada, Kec. Dompu, Kabupaten Dompu, Nusa Tenggara Bar. 84213","Jl. Manuru Bata Dompu, Bada, Kec. Dompu, Kabupaten Dompu",NUSA TENGGARA BARAT,84213.0,Indonesia,,,,-85.396.801,1.184.587.322,https://maps.google.com/?cid=0x0:0x5b99d2bfd3f4e4cf,
hardware store,Toko Elektronik,Toko Asia,"Jl. Kartini No.5, Bada, Kec. Dompu, Kabupaten Dompu, Nusa Tenggara Bar. 84211","Bada, Kec. Dompu, Kabupaten Dompu",NUSA TENGGARA BARAT,84211.0,Indonesia,,,,-85.403.904,1.184.610.864,https://maps.google.com/?cid=0x0:0xde6b5224d9805388,
hardware store,Toko Bahan Bangunan,UD Selamat,"CFP4+CRJ, Unnamed Road, Dorebara, Kec. Dompu, Kabupaten Dompu, Nusa Tenggara Bar. 84219","Unnamed Road, Dorebara, Kec. Dompu, Kabupaten Dompu",NUSA TENGGARA BARAT,84219.0,Indonesia,,,,-85.639.223,1.184.570.141,https://maps.google.com/?cid=0x0:0x3f8e70fa9cd6f99e,
hardware store,Toko Swalayan,Niaga Hardware - Sandubaya,"Komp. Pertokoan Sweta, Jl. Sandubaya No.D12-14, Bertais, Kec. Sandubaya, Kota Mataram, Nusa Tenggara Bar. 83236","Jl. Sandubaya No.D12-14, Bertais, Kec. Sandubaya, Kota Mataram",NUSA TENGGARA BARAT,83236.0,Indonesia,81339954915,,,-85.927.266,1.161.511.338,https://maps.google.com/?cid=0x0:0x833b7b951b085522,
hardware store,Toko Bahan Bangunan,Tb. Mataram,"FF66+78F, Jl. . Jenderal Sudirman, Bada, Kec. Dompu, Kabupaten Dompu, Nusa Tenggara Bar. 84213","Jl. . Jenderal Sudirman, Bada, Kec. Dompu, Kabupaten Dompu",NUSA TENGGARA BARAT,84213.0,Indonesia,,,,-85.393.228,1.184.608.038,https://maps.google.com/?cid=0x0:0x1a78f82c6f462f29,
hardware store,Toko Gorden,Alif Gordyn,"FC3P+JCG, Kandai Dua, Kec. Woja, Kabupaten Dompu, Nusa Tenggara Bar. 84218","Kandai Dua, Kec. Woja, Kabupaten Dompu",NUSA TENGGARA BARAT,84218.0,Indonesia,82118405435,,,-85.459.269,1.184.360.934,https://maps.google.com/?cid=0x0:0xbac189ab4ae810fe,
hardware store,Toko Bahan Bangunan,Pt Dua Nogo Sakti,"Jl. Syech Moh., Dorotangga, jado, Kabupaten Dompu, Nusa Tenggara Bar. 84213","Dorotangga, jado, Kabupaten Dompu",NUSA TENGGARA BARAT,84213.0,Indonesia,85706128299,,,-85.280.824,1.184.689.952,https://maps.google.com/?cid=0x0:0xa1d9a69a83f3af00,
hardware store,Toko,AZKO BOGOR- Warung Jambu,"Jl. Raya Pajajaran No.19 A-E, Bantarjati, Kec. Bogor Utara, Kota Bogor, Jawa Barat 16153","Bantarjati, Kec. Bogor Utara, Kota Bogor",NUSA TENGGARA BARAT,16153.0,Indonesia,85280681001,,,-65.709.747,1.068.090.147,https://maps.google.com/?cid=0x0:0x9ff14f50d8a48c72,
hardware store,Toko,AZKO Terasutra,"Jl. Raya Pajajaran No.121, RT.03/RW.04, Baranangsiang, Kec. Bogor Tim., Kota Bogor, Jawa Barat 16143","RT.03/RW.04, Baranangsiang, Kec. Bogor Tim., Kota Bogor",NUSA TENGGARA BARAT,16143.0,Indonesia,85117093820,,,-66.117.576,1.068.121.609,https://maps.google.com/?cid=0x0:0xf7a7919fa79483cb,
hardware store,Toko Bahan Bangunan,Alfonso Co Hardware,"8X62+46F, G.Y. Dela Serna St, Lapu-lapu City, 6015 Cebu, Filipina","Lapu-lapu City, Cebu, Filipina",NUSA TENGGARA BARAT,,Indonesia,,,,103.103.242,1.239.505.364,https://maps.google.com/?cid=0x0:0x70c1dbb7ad132a4a,
toko bangunan,toko bangunan,Nusa Tenggara Bar. 84211,"Kareke, Kec. Dompu, Kabupaten Dompu, Nusa Tenggara Bar.","Kabupaten Dompu, Nusa Tenggara Bar.",NUSA TENGGARA BARAT,,Indonesia,,,,-85.486.112,1.184.717.975,https://maps.google.com/?cid=0x0:0x19504ec7d1952ed4,
toko bangunan,Toko Bahan Bangunan,Toko Niaga Bangunan,"Deket Jl. Lkr. Utara, Karijawa, Kec. Dompu, Kabupaten Dompu, Nusa Tenggara Bar. 84216","Karijawa, Kec. Dompu, Kabupaten Dompu",NUSA TENGGARA BARAT,84216.0,Indonesia,82339774144,,,-85.320.637,1.184.537.654,https://maps.google.com/?cid=0x0:0x151f72cc40b0c79e,
toko bangunan,Toko Bahan Bangunan,TOKO TAUFIK,"Jl. . Jenderal Sudirman No.27, Bada, Kec. Dompu, Kabupaten Dompu, Nusa Tenggara Bar. 84213","Bada, Kec. Dompu, Kabupaten Dompu",NUSA TENGGARA BARAT,84213.0,Indonesia,37321160,,,-85.394.741,1.184.608.954,https://maps.google.com/?cid=0x0:0xa99b586cc9779c94,
toko bangunan,Toko Bahan Bangunan,Depo Sumber Bangunan,"Jl. Baru Karijawa gg PS No.33, Karijawa, Kec. Dompu, Kabupaten Dompu, Nusa Tenggara Bar. 84213","Karijawa, Kec. Dompu, Kabupaten Dompu",NUSA TENGGARA BARAT,84213.0,Indonesia,81213393271,,,-8.531.509,1.184.546.781,https://maps.google.com/?cid=0x0:0x74aa1c95593ff6e7,
toko bangunan,Kantor Perusahaan,TB. Bangkit Bersama,"Dusun Dorongguni, Kareke, Kec. Dompu, Kabupaten Dompu, Nusa Tenggara Bar. 84219","Kareke, Kec. Dompu, Kabupaten Dompu",NUSA TENGGARA BARAT,84219.0,Indonesia,82340031984,,,-85.511.303,1.184.811.153,https://maps.google.com/?cid=0x0:0x503b570080f8a30a,
toko bangunan,Toko Bahan Bangunan,Toko Bangunan Bage Rezo,"jln pahlawan no.10, Kandai Dua, Kec. Woja, Kabupaten Dompu, Nusa Tenggara Bar. 84219","Kandai Dua, Kec. Woja, Kabupaten Dompu",NUSA TENGGARA BARAT,84219.0,Indonesia,82339754936,,,-8.543.326,1.184.326.834,https://maps.google.com/?cid=0x0:0x9583b7cca9ab328,
toko bangunan,Toko Bahan Bangunan,TK. Sentral Jaya,"Jl. . Jenderal Sudirman, Bada, Kec. Dompu, Kabupaten Dompu, Nusa Tenggara Bar. 84213","Bada, Kec. Dompu, Kabupaten Dompu",NUSA TENGGARA BARAT,84213.0,Indonesia,82145830000,,,-85.394.137,1.184.598.675,https://maps.google.com/?cid=0x0:0xaf5c5d430f1a62b7,
toko bangunan,Toko Bahan Bangunan,Toko Jakarta Bahan Bangunan,"FC4X+MH6 Sebrang SD 02, Lingkungan Dore, RT.005/RW.003, Simpasai, Kec. Woja, Kabupaten Dompu, Nusa Tenggara Bar.","Kabupaten Dompu, Nusa Tenggara Bar.",NUSA TENGGARA BARAT,,Indonesia,85239000255,,,-85.433.357,1.184.489.045,https://maps.google.com/?cid=0x0:0xb20b1a0641dff591,
toko bangunan,Toko Perlengkapan Rumah,Toko Al-Hidayah,"Jl. Buntu Simpasai Woja, Kandai Dua, Kec. Woja, Kabupaten Dompu, Nusa Tenggara Bar. 84219","Kandai Dua, Kec. Woja, Kabupaten Dompu",NUSA TENGGARA BARAT,84219.0,Indonesia,81312976013,,,-85.393.217,1.184.407.717,https://maps.google.com/?cid=0x0:0xec856f1b31465ef7,
toko bangunan,Toko Bahan Bangunan,Tb. Mataram,"FF66+78F, Jl. . Jenderal Sudirman, Bada, Kec. Dompu, Kabupaten Dompu, Nusa Tenggara Bar. 84213","Jl. . Jenderal Sudirman, Bada, Kec. Dompu, Kabupaten Dompu",NUSA TENGGARA BARAT,84213.0,Indonesia,,,,-85.393.228,1.184.608.038,https://maps.google.com/?cid=0x0:0x1a78f82c6f462f29,
toko bangunan,Toko,Bintang Bangunan Jaya,"FF93+8XH, Jl. Lintas Sumbawa - Bima, Karijawa, Kec. Dompu, Kabupaten Dompu, Nusa Tenggara Bar. 84213","Jl. Lintas Sumbawa - Bima, Karijawa, Kec. Dompu, Kabupaten Dompu",NUSA TENGGARA BARAT,84213.0,Indonesia,81338962241,,,-85.316.871,1.184.549.838,https://maps.google.com/?cid=0x0:0x26b53beb1ea4442d,
toko bangunan,Toko Bahan Bangunan,Toko A'A tehnical,"FF66+W7Q, Jl. Lele, Bali, Kec. Dompu, Kabupaten Dompu, Nusa Tenggara Bar. 84213","Jl. Lele, Bali, Kec. Dompu, Kabupaten Dompu",NUSA TENGGARA BARAT,84213.0,Indonesia,82342792973,,,-85.376.715,1.184.607.318,https://maps.google.com/?cid=0x0:0xc95ec457333d49eb,
toko bangunan,Toko Bahan Bangunan,UD.Raeesa,"CFXJ+R6V, Kareke, Kec. Dompu, Kabupaten Dompu, Nusa Tenggara Bar.","Kabupaten Dompu, Nusa Tenggara Bar.",NUSA TENGGARA BARAT,,Indonesia,,,,-85.503.778,1.184.805.569,https://maps.google.com/?cid=0x0:0x1dba2611c4a0f9d8,
toko bangunan,,Kareke,"FF2C+HP8, Kareke, Kec. Dompu, Kabupaten Dompu, Nusa Tenggara Bar. 84211","Kareke, Kec. Dompu, Kabupaten Dompu",NUSA TENGGARA BARAT,84211.0,Indonesia,,,,-85.485.791,1.184.718.243,https://maps.google.com/?cid=0x0:0x9cbdebea3bb5de9,
toko bangunan,Toko bahan makanan,Toko Putri,"CFV3+9R8, Kandai Satu, Kec. Dompu, Kabupaten Dompu, Nusa Tenggara Bar. 84217","Kandai Satu, Kec. Dompu, Kabupaten Dompu",NUSA TENGGARA BARAT,84217.0,Indonesia,37321132,,,-8.556.578,11.845.459,https://maps.google.com/?cid=0x0:0x7e86349385dca876,
toko bangunan,Toko Bahan Bangunan,UD Selamat,"CFP4+CRJ, Unnamed Road, Dorebara, Kec. Dompu, Kabupaten Dompu, Nusa Tenggara Bar. 84219","Unnamed Road, Dorebara, Kec. Dompu, Kabupaten Dompu",NUSA TENGGARA BARAT,84219.0,Indonesia,,,,-85.639.223,1.184.570.141,https://maps.google.com/?cid=0x0:0x3f8e70fa9cd6f99e,
toko bangunan,Toko Swalayan,Bolly Deptstore Dompu,"FF65+4FH, Jl. Manuru Bata Dompu, Bada, Kec. Dompu, Kabupaten Dompu, Nusa Tenggara Bar. 84213","Jl. Manuru Bata Dompu, Bada, Kec. Dompu, Kabupaten Dompu",NUSA TENGGARA BARAT,84213.0,Indonesia,,,,-85.396.801,1.184.587.322,https://maps.google.com/?cid=0x0:0x5b99d2bfd3f4e4cf,
toko bangunan,Toko bahan makanan,UD FITRI QONITA,"Jl. Syech Moh., Dorotangga, Kec. Dompu, Kabupaten Dompu, Nusa Tenggara Bar. 84213","Dorotangga, Kec. Dompu, Kabupaten Dompu",NUSA TENGGARA BARAT,84213.0,Indonesia,82338750802,,,-85.281.227,1.184.661.183,https://maps.google.com/?cid=0x0:0xaaa33d2015f5776c,
toko bangunan,Toko Bahan Bangunan,DEPO SUMBER BANGUNAN BIMA,"Paruga, Kec. Rasanae Bar., Kab. Bima, Nusa Tenggara Bar. 84118","Kec. Rasanae Bar., Kab. Bima",NUSA TENGGARA BARAT,84118.0,Indonesia,8113833767,,,-84.542.875,1.187.178.281,https://maps.google.com/?cid=0x0:0x5695533ae32f5737,
toko bangunan,Toko Bahan Bangunan,Azizah plafon pvc,"Jl. Lele No.1, Bali, Kec. Dompu, Kabupaten Dompu, Nusa Tenggara Bar. 84213","Bali, Kec. Dompu, Kabupaten Dompu",NUSA TENGGARA BARAT,84213.0,Indonesia,81287663379,,,-85.354.589,1.184.610.978,https://maps.google.com/?cid=0x0:0x94239182ea395f34,
toko bangunan,Toko Bahan Bangunan,Toko Bangunan Anugrah Bara,"C9XQ+WQM, Jl. Lintas Sumbawa - Bima, Bara, Kec. Woja, Kabupaten Dompu, Nusa Tenggara Bar. 84251","Jl. Lintas Sumbawa - Bima, Bara, Kec. Woja, Kabupaten Dompu",NUSA TENGGARA BARAT,84251.0,Indonesia,,,,-85.501.731,1.183.894.253,https://maps.google.com/?cid=0x0:0x7aef164de79ee975,
toko bangunan,Toko Bahan Bangunan,Toko Mitra Bangunan,"Jl. Lintas Sumbawa - Bima No.501, Soriutu, Kec. Manggalewa, Kabupaten Dompu, Nusa Tenggara Bar. 84253","Soriutu, Kec. Manggalewa, Kabupaten Dompu",NUSA TENGGARA BARAT,84253.0,Indonesia,85333990765,,,-85.228.302,1.183.172.343,https://maps.google.com/?cid=0x0:0xd7314bf45ce0da44,
toko bangunan,Toko Bahan Bangunan,surya bangunan,"Jl. Lintas Sumbawa - Bima, Soriutu, Kec. Manggalewa, Kabupaten Dompu, Nusa Tenggara Bar.","Kabupaten Dompu, Nusa Tenggara Bar.",NUSA TENGGARA BARAT,,Indonesia,81338408886,,,-85.200.762,1.183.187.578,https://maps.google.com/?cid=0x0:0x52ef9d1d200d04a7,
toko bangunan,toko bangunan,Nusa Tenggara Bar. 84212,"Kec. Dompu, Kabupaten Dompu, Nusa Tenggara Bar.","Kabupaten Dompu, Nusa Tenggara Bar.",NUSA TENGGARA BARAT,,Indonesia,,,,-85.476.799,1.184.834.766,https://maps.google.com/?cid=0x0:0x6aea138ba2d36218,
toko bangunan,Toko Bahan Bangunan,Depo Sumber Bangunan,"Jl. Baru Karijawa gg PS No.33, Karijawa, Kec. Dompu, Kabupaten Dompu, Nusa Tenggara Bar. 84213","Karijawa, Kec. Dompu, Kabupaten Dompu",NUSA TENGGARA BARAT,84213.0,Indonesia,81213393271,,,-8.531.509,1.184.546.781,https://maps.google.com/?cid=0x0:0x74aa1c95593ff6e7,
toko bangunan,Toko Bahan Bangunan,Toko Niaga Bangunan,"Deket Jl. Lkr. Utara, Karijawa, Kec. Dompu, Kabupaten Dompu, Nusa Tenggara Bar. 84216","Karijawa, Kec. Dompu, Kabupaten Dompu",NUSA TENGGARA BARAT,84216.0,Indonesia,82339774144,,,-85.320.637,1.184.537.654,https://maps.google.com/?cid=0x0:0x151f72cc40b0c79e,
toko bangunan,Toko Bahan Bangunan,TOKO TAUFIK,"Jl. . Jenderal Sudirman No.27, Bada, Kec. Dompu, Kabupaten Dompu, Nusa Tenggara Bar. 84213","Bada, Kec. Dompu, Kabupaten Dompu",NUSA TENGGARA BARAT,84213.0,Indonesia,37321160,,,-85.394.741,1.184.608.954,https://maps.google.com/?cid=0x0:0xa99b586cc9779c94,
toko bangunan,Toko Bahan Bangunan,TK. Sentral Jaya,"Jl. . Jenderal Sudirman, Bada, Kec. Dompu, Kabupaten Dompu, Nusa Tenggara Bar. 84213","Bada, Kec. Dompu, Kabupaten Dompu",NUSA TENGGARA BARAT,84213.0,Indonesia,82145830000,,,-85.394.137,1.184.598.675,https://maps.google.com/?cid=0x0:0xaf5c5d430f1a62b7,
toko bangunan,Toko Bahan Bangunan,Toko Bahan Bangunan Anugerah Simpasai,"Jl. Buntu Simpasai Woja, Kandai Dua, Kec. Woja, Kabupaten Dompu, Nusa Tenggara Bar. 84218","Kandai Dua, Kec. Woja, Kabupaten Dompu",NUSA TENGGARA BARAT,84218.0,Indonesia,,,,-85.392.106,118.441.274,https://maps.google.com/?cid=0x0:0x4a5418154243ede5,
toko bangunan,Toko Bahan Bangunan,MR.DIY,"Jl. Soekarno-Hatta No.29, Bada, Kec. Dompu, Kabupaten Dompu, Nusa Tenggara Bar. 84213","Bada, Kec. Dompu, Kabupaten Dompu",NUSA TENGGARA BARAT,84213.0,Indonesia,2130022789,,,-85.381.058,1.184.636.809,https://maps.google.com/?cid=0x0:0x782ef44faba77107,
toko bangunan,Toko Bahan Bangunan,Tb. Mataram,"FF66+78F, Jl. . Jenderal Sudirman, Bada, Kec. Dompu, Kabupaten Dompu, Nusa Tenggara Bar. 84213","Jl. . Jenderal Sudirman, Bada, Kec. Dompu, Kabupaten Dompu",NUSA TENGGARA BARAT,84213.0,Indonesia,,,,-85.393.228,1.184.608.038,https://maps.google.com/?cid=0x0:0x1a78f82c6f462f29,
toko bangunan,Toko Bahan Bangunan,Toko Bangunan Bage Rezo,"jln pahlawan no.10, Kandai Dua, Kec. Woja, Kabupaten Dompu, Nusa Tenggara Bar. 84219","Kandai Dua, Kec. Woja, Kabupaten Dompu",NUSA TENGGARA BARAT,84219.0,Indonesia,82339754936,,,-8.543.326,1.184.326.834,https://maps.google.com/?cid=0x0:0x9583b7cca9ab328,
toko bangunan,Toko Bahan Bangunan,Toko A'A tehnical,"FF66+W7Q, Jl. Lele, Bali, Kec. Dompu, Kabupaten Dompu, Nusa Tenggara Bar. 84213","Jl. Lele, Bali, Kec. Dompu, Kabupaten Dompu",NUSA TENGGARA BARAT,84213.0,Indonesia,82342792973,,,-85.376.715,1.184.607.318,https://maps.google.com/?cid=0x0:0xc95ec457333d49eb,
toko bangunan,Toko Bahan Bangunan,Toko Jakarta Bahan Bangunan,"FC4X+MH6 Sebrang SD 02, Lingkungan Dore, RT.005/RW.003, Simpasai, Kec. Woja, Kabupaten Dompu, Nusa Tenggara Bar.","Kabupaten Dompu, Nusa Tenggara Bar.",NUSA TENGGARA BARAT,,Indonesia,85239000255,,,-85.433.357,1.184.489.045,https://maps.google.com/?cid=0x0:0xb20b1a0641dff591,
toko bangunan,Toko,Bintang Bangunan Jaya,"FF93+8XH, Jl. Lintas Sumbawa - Bima, Karijawa, Kec. Dompu, Kabupaten Dompu, Nusa Tenggara Bar. 84213","Jl. Lintas Sumbawa - Bima, Karijawa, Kec. Dompu, Kabupaten Dompu",NUSA TENGGARA BARAT,84213.0,Indonesia,81338962241,,,-85.316.871,1.184.549.838,https://maps.google.com/?cid=0x0:0x26b53beb1ea4442d,
toko bangunan,Toko Bahan Bangunan,Pt Dua Nogo Sakti,"Jl. Syech Moh., Dorotangga, jado, Kabupaten Dompu, Nusa Tenggara Bar. 84213","Dorotangga, jado, Kabupaten Dompu",NUSA TENGGARA BARAT,84213.0,Indonesia,85706128299,,,-85.280.824,1.184.689.952,https://maps.google.com/?cid=0x0:0xa1d9a69a83f3af00,
toko bangunan,Toko Perlengkapan Rumah,Toko Al-Hidayah,"Jl. Buntu Simpasai Woja, Kandai Dua, Kec. Woja, Kabupaten Dompu, Nusa Tenggara Bar. 84219","Kandai Dua, Kec. Woja, Kabupaten Dompu",NUSA TENGGARA BARAT,84219.0,Indonesia,81312976013,,,-85.393.217,1.184.407.717,https://maps.google.com/?cid=0x0:0xec856f1b31465ef7,
toko bangunan,Toko bahan makanan,UD FITRI QONITA,"Jl. Syech Moh., Dorotangga, Kec. Dompu, Kabupaten Dompu, Nusa Tenggara Bar. 84213","Dorotangga, Kec. Dompu, Kabupaten Dompu",NUSA TENGGARA BARAT,84213.0,Indonesia,82338750802,,,-85.281.227,1.184.661.183,https://maps.google.com/?cid=0x0:0xaaa33d2015f5776c,
toko bangunan,Toko Bahan Bangunan,Toko Mitra Bangunan,"Jl. Lintas Sumbawa - Bima No.501, Soriutu, Kec. Manggalewa, Kabupaten Dompu, Nusa Tenggara Bar. 84253","Soriutu, Kec. Manggalewa, Kabupaten Dompu",NUSA TENGGARA BARAT,84253.0,Indonesia,85333990765,,,-85.228.302,1.183.172.343,https://maps.google.com/?cid=0x0:0xd7314bf45ce0da44,
toko bangunan,Pusat Perbelanjaan,Toko Ais Jaya,"Jl. Sultan Hasanuddin No.48, Karijawa, Kec. Dompu, Kabupaten Dompu, Nusa Tenggara Bar. 84216","Karijawa, Kec. Dompu, Kabupaten Dompu",NUSA TENGGARA BARAT,84216.0,Indonesia,81287359191,,,-85.431.496,1.184.513.381,https://maps.google.com/?cid=0x0:0xa233f4e49727da3a,
toko bangunan,Toko Bahan Bangunan,Azizah plafon pvc,"Jl. Lele No.1, Bali, Kec. Dompu, Kabupaten Dompu, Nusa Tenggara Bar. 84213","Bali, Kec. Dompu, Kabupaten Dompu",NUSA TENGGARA BARAT,84213.0,Indonesia,81287663379,,,-85.354.589,1.184.610.978,https://maps.google.com/?cid=0x0:0x94239182ea395f34,
toko bangunan,Toko Bahan Bangunan,UD Selamat,"CFP4+CRJ, Unnamed Road, Dorebara, Kec. Dompu, Kabupaten Dompu, Nusa Tenggara Bar. 84219","Unnamed Road, Dorebara, Kec. Dompu, Kabupaten Dompu",NUSA TENGGARA BARAT,84219.0,Indonesia,,,,-85.639.223,1.184.570.141,https://maps.google.com/?cid=0x0:0x3f8e70fa9cd6f99e,
toko bangunan,Toko Bahan Bangunan,UD Noval Bali 1 Dompu,"Lingkungan swete Bali 1, Kabupaten Dompu, Nusa Tenggara Bar. 84213",Kabupaten Dompu,NUSA TENGGARA BARAT,84213.0,Indonesia,85333140108,,,-85.288.085,1.184.613.026,https://maps.google.com/?cid=0x0:0x22070157cd77818a,
toko bangunan,Toko Bahan Bangunan,Toko Bangunan Anugrah Bara,"C9XQ+WQM, Jl. Lintas Sumbawa - Bima, Bara, Kec. Woja, Kabupaten Dompu, Nusa Tenggara Bar. 84251","Jl. Lintas Sumbawa - Bima, Bara, Kec. Woja, Kabupaten Dompu",NUSA TENGGARA BARAT,84251.0,Indonesia,,,,-85.501.731,1.183.894.253,https://maps.google.com/?cid=0x0:0x7aef164de79ee975,
toko bangunan,Toko Bahan Bangunan,UD.Raeesa,"CFXJ+R6V, Kareke, Kec. Dompu, Kabupaten Dompu, Nusa Tenggara Bar.","Kabupaten Dompu, Nusa Tenggara Bar.",NUSA TENGGARA BARAT,,Indonesia,,,,-85.503.778,1.184.805.569,https://maps.google.com/?cid=0x0:0x1dba2611c4a0f9d8,
toko bangunan,toko bangunan,Nusa Tenggara Bar. 84213,"Kec. Dompu, Kabupaten Dompu, Nusa Tenggara Bar.","Kabupaten Dompu, Nusa Tenggara Bar.",NUSA TENGGARA BARAT,,Indonesia,,,,-85.029.473,1.184.571.974,https://maps.google.com/?cid=0x0:0x36282ed0d4e435d1,
toko bangunan,Toko Bahan Bangunan,Toko Niaga Bangunan,"Deket Jl. Lkr. Utara, Karijawa, Kec. Dompu, Kabupaten Dompu, Nusa Tenggara Bar. 84216","Karijawa, Kec. Dompu, Kabupaten Dompu",NUSA TENGGARA BARAT,84216.0,Indonesia,82339774144,,,-85.320.637,1.184.537.654,https://maps.google.com/?cid=0x0:0x151f72cc40b0c79e,
toko bangunan,Toko Bahan Bangunan,Depo Sumber Bangunan,"Jl. Baru Karijawa gg PS No.33, Karijawa, Kec. Dompu, Kabupaten Dompu, Nusa Tenggara Bar. 84213","Karijawa, Kec. Dompu, Kabupaten Dompu",NUSA TENGGARA BARAT,84213.0,Indonesia,81213393271,,,-8.531.509,1.184.546.781,https://maps.google.com/?cid=0x0:0x74aa1c95593ff6e7,
toko bangunan,Toko Bahan Bangunan,TOKO TAUFIK,"Jl. . Jenderal Sudirman No.27, Bada, Kec. Dompu, Kabupaten Dompu, Nusa Tenggara Bar. 84213","Bada, Kec. Dompu, Kabupaten Dompu",NUSA TENGGARA BARAT,84213.0,Indonesia,37321160,,,-85.394.741,1.184.608.954,https://maps.google.com/?cid=0x0:0xa99b586cc9779c94,
toko bangunan,Toko Bahan Bangunan,Toko Bahan Bangunan Anugerah Simpasai,"Jl. Buntu Simpasai Woja, Kandai Dua, Kec. Woja, Kabupaten Dompu, Nusa Tenggara Bar. 84218","Kandai Dua, Kec. Woja, Kabupaten Dompu",NUSA TENGGARA BARAT,84218.0,Indonesia,,,,-85.392.106,118.441.274,https://maps.google.com/?cid=0x0:0x4a5418154243ede5,
toko bangunan,Toko,Bintang Bangunan Jaya,"FF93+8XH, Jl. Lintas Sumbawa - Bima, Karijawa, Kec. Dompu, Kabupaten Dompu, Nusa Tenggara Bar. 84213","Jl. Lintas Sumbawa - Bima, Karijawa, Kec. Dompu, Kabupaten Dompu",NUSA TENGGARA BARAT,84213.0,Indonesia,81338962241,,,-85.316.871,1.184.549.838,https://maps.google.com/?cid=0x0:0x26b53beb1ea4442d,
toko bangunan,Toko Bahan Bangunan,Toko Jakarta Bahan Bangunan,"FC4X+MH6 Sebrang SD 02, Lingkungan Dore, RT.005/RW.003, Simpasai, Kec. Woja, Kabupaten Dompu, Nusa Tenggara Bar.","Kabupaten Dompu, Nusa Tenggara Bar.",NUSA TENGGARA BARAT,,Indonesia,85239000255,,,-85.433.357,1.184.489.045,https://maps.google.com/?cid=0x0:0xb20b1a0641dff591,
toko bangunan,Toko Bahan Bangunan,Tb. Mataram,"FF66+78F, Jl. . Jenderal Sudirman, Bada, Kec. Dompu, Kabupaten Dompu, Nusa Tenggara Bar. 84213","Jl. . Jenderal Sudirman, Bada, Kec. Dompu, Kabupaten Dompu",NUSA TENGGARA BARAT,84213.0,Indonesia,,,,-85.393.228,1.184.608.038,https://maps.google.com/?cid=0x0:0x1a78f82c6f462f29,
toko bangunan,Kantor Perusahaan,TB. Bangkit Bersama,"Dusun Dorongguni, Kareke, Kec. Dompu, Kabupaten Dompu, Nusa Tenggara Bar. 84219","Kareke, Kec. Dompu, Kabupaten Dompu",NUSA TENGGARA BARAT,84219.0,Indonesia,82340031984,,,-85.511.303,1.184.811.153,https://maps.google.com/?cid=0x0:0x503b570080f8a30a,
toko bangunan,Toko Bahan Bangunan,Toko Bangunan Bage Rezo,"jln pahlawan no.10, Kandai Dua, Kec. Woja, Kabupaten Dompu, Nusa Tenggara Bar. 84219","Kandai Dua, Kec. Woja, Kabupaten Dompu",NUSA TENGGARA BARAT,84219.0,Indonesia,82339754936,,,-8.543.326,1.184.326.834,https://maps.google.com/?cid=0x0:0x9583b7cca9ab328,
toko bangunan,Toko Bahan Bangunan,Toko A'A tehnical,"FF66+W7Q, Jl. Lele, Bali, Kec. Dompu, Kabupaten Dompu, Nusa Tenggara Bar. 84213","Jl. Lele, Bali, Kec. Dompu, Kabupaten Dompu",NUSA TENGGARA BARAT,84213.0,Indonesia,82342792973,,,-85.376.715,1.184.607.318,https://maps.google.com/?cid=0x0:0xc95ec457333d49eb,
toko bangunan,Toko Perlengkapan Rumah,Toko Al-Hidayah,"Jl. Buntu Simpasai Woja, Kandai Dua, Kec. Woja, Kabupaten Dompu, Nusa Tenggara Bar. 84219","Kandai Dua, Kec. Woja, Kabupaten Dompu",NUSA TENGGARA BARAT,84219.0,Indonesia,81312976013,,,-85.393.217,1.184.407.717,https://maps.google.com/?cid=0x0:0xec856f1b31465ef7,
toko bangunan,Toko Bahan Bangunan,Azizah plafon pvc,"Jl. Lele No.1, Bali, Kec. Dompu, Kabupaten Dompu, Nusa Tenggara Bar. 84213","Bali, Kec. Dompu, Kabupaten Dompu",NUSA TENGGARA BARAT,84213.0,Indonesia,81287663379,,,-85.354.589,1.184.610.978,https://maps.google.com/?cid=0x0:0x94239182ea395f34,
toko bangunan,Toko Bahan Bangunan,MR.DIY,"Jl. Soekarno-Hatta No.29, Bada, Kec. Dompu, Kabupaten Dompu, Nusa Tenggara Bar. 84213","Bada, Kec. Dompu, Kabupaten Dompu",NUSA TENGGARA BARAT,84213.0,Indonesia,2130022789,,,-85.381.058,1.184.636.809,https://maps.google.com/?cid=0x0:0x782ef44faba77107,
toko bangunan,Toko Bahan Bangunan,Toko Mitra Bangunan,"Jl. Lintas Sumbawa - Bima No.501, Soriutu, Kec. Manggalewa, Kabupaten Dompu, Nusa Tenggara Bar. 84253","Soriutu, Kec. Manggalewa, Kabupaten Dompu",NUSA TENGGARA BARAT,84253.0,Indonesia,85333990765,,,-85.228.302,1.183.172.343,https://maps.google.com/?cid=0x0:0xd7314bf45ce0da44,
toko bangunan,Toko bahan makanan,UD FITRI QONITA,"Jl. Syech Moh., Dorotangga, Kec. Dompu, Kabupaten Dompu, Nusa Tenggara Bar. 84213","Dorotangga, Kec. Dompu, Kabupaten Dompu",NUSA TENGGARA BARAT,84213.0,Indonesia,82338750802,,,-85.281.227,1.184.661.183,https://maps.google.com/?cid=0x0:0xaaa33d2015f5776c,
toko bangunan,Toko Bahan Bangunan,Toko Bangunan Anugrah Bara,"C9XQ+WQM, Jl. Lintas Sumbawa - Bima, Bara, Kec. Woja, Kabupaten Dompu, Nusa Tenggara Bar. 84251","Jl. Lintas Sumbawa - Bima, Bara, Kec. Woja, Kabupaten Dompu",NUSA TENGGARA BARAT,84251.0,Indonesia,,,,-85.501.731,1.183.894.253,https://maps.google.com/?cid=0x0:0x7aef164de79ee975,
toko bangunan,Toko Bahan Bangunan,Ud. Zam Zam,"FC4R+5GH, Jl. Lintas Sumbawa - Bima, Simpasai, Kec. Woja, Kabupaten Dompu, Nusa Tenggara Bar. 84218","Jl. Lintas Sumbawa - Bima, Simpasai, Kec. Woja, Kabupaten Dompu",NUSA TENGGARA BARAT,84218.0,Indonesia,,,,-85.445.643,1.184.413.514,https://maps.google.com/?cid=0x0:0x1f0eee75cc4a17fe,
toko bangunan,Toko bahan makanan,Smart,"Jl. Baru Karijawa gg PS No.33, Karijawa, Kec. Dompu, Kabupaten Dompu, Nusa Tenggara Bar. 84213","Karijawa, Kec. Dompu, Kabupaten Dompu",NUSA TENGGARA BARAT,84213.0,Indonesia,81312243439,,,-85.314.562,1.184.548.222,https://maps.google.com/?cid=0x0:0x485a0ae2ef9fd899,
toko bangunan,Toko Bahan Bangunan,UD Noval Bali 1 Dompu,"Lingkungan swete Bali 1, Kabupaten Dompu, Nusa Tenggara Bar. 84213",Kabupaten Dompu,NUSA TENGGARA BARAT,84213.0,Indonesia,85333140108,,,-85.288.085,1.184.613.026,https://maps.google.com/?cid=0x0:0x22070157cd77818a,
toko bangunan,Pusat Perbelanjaan,Toko Ais Jaya,"Jl. Sultan Hasanuddin No.48, Karijawa, Kec. Dompu, Kabupaten Dompu, Nusa Tenggara Bar. 84216","Karijawa, Kec. Dompu, Kabupaten Dompu",NUSA TENGGARA BARAT,84216.0,Indonesia,81287359191,,,-85.431.496,1.184.513.381,https://maps.google.com/?cid=0x0:0xa233f4e49727da3a,
toko bangunan,Toko Bahan Bangunan,Pt Dua Nogo Sakti,"Jl. Syech Moh., Dorotangga, jado, Kabupaten Dompu, Nusa Tenggara Bar. 84213","Dorotangga, jado, Kabupaten Dompu",NUSA TENGGARA BARAT,84213.0,Indonesia,85706128299,,,-85.280.824,1.184.689.952,https://maps.google.com/?cid=0x0:0xa1d9a69a83f3af00,
toko bangunan,Toko Bahan Bangunan,Depo Sumber Bangunan,"Jl. Baru Karijawa gg PS No.33, Karijawa, Kec. Dompu, Kabupaten Dompu, Nusa Tenggara Bar. 84213","Karijawa, Kec. Dompu, Kabupaten Dompu",NUSA TENGGARA BARAT,84213.0,Indonesia,81213393271,,,-8.531.509,1.184.546.781,https://maps.google.com/?cid=0x0:0x74aa1c95593ff6e7,
toko bangunan,toko bangunan,Nusa Tenggara Bar. 84214,"Kec. Dompu, Kabupaten Dompu, Nusa Tenggara Bar.","Kabupaten Dompu, Nusa Tenggara Bar.",NUSA TENGGARA BARAT,,Indonesia,,,,-85.235,1.184.776.372,https://maps.google.com/?cid=0x0:0x55f1573dc2143d57,
toko bangunan,Toko Bahan Bangunan,TOKO TAUFIK,"Jl. . Jenderal Sudirman No.27, Bada, Kec. Dompu, Kabupaten Dompu, Nusa Tenggara Bar. 84213","Bada, Kec. Dompu, Kabupaten Dompu",NUSA TENGGARA BARAT,84213.0,Indonesia,37321160,,,-85.394.741,1.184.608.954,https://maps.google.com/?cid=0x0:0xa99b586cc9779c94,
toko bangunan,Toko Bahan Bangunan,MR.DIY,"Jl. Soekarno-Hatta No.29, Bada, Kec. Dompu, Kabupaten Dompu, Nusa Tenggara Bar. 84213","Bada, Kec. Dompu, Kabupaten Dompu",NUSA TENGGARA BARAT,84213.0,Indonesia,2130022789,,,-85.381.058,1.184.636.809,https://maps.google.com/?cid=0x0:0x782ef44faba77107,
toko bangunan,Toko Bahan Bangunan,Toko Niaga Bangunan,"Deket Jl. Lkr. Utara, Karijawa, Kec. Dompu, Kabupaten Dompu, Nusa Tenggara Bar. 84216","Karijawa, Kec. Dompu, Kabupaten Dompu",NUSA TENGGARA BARAT,84216.0,Indonesia,82339774144,,,-85.320.637,1.184.537.654,https://maps.google.com/?cid=0x0:0x151f72cc40b0c79e,
toko bangunan,Toko Bahan Bangunan,TK. Sentral Jaya,"Jl. . Jenderal Sudirman, Bada, Kec. Dompu, Kabupaten Dompu, Nusa Tenggara Bar. 84213","Bada, Kec. Dompu, Kabupaten Dompu",NUSA TENGGARA BARAT,84213.0,Indonesia,82145830000,,,-85.394.137,1.184.598.675,https://maps.google.com/?cid=0x0:0xaf5c5d430f1a62b7,
toko bangunan,Toko Bahan Bangunan,Tb. Mataram,"FF66+78F, Jl. . Jenderal Sudirman, Bada, Kec. Dompu, Kabupaten Dompu, Nusa Tenggara Bar. 84213","Jl. . Jenderal Sudirman, Bada, Kec. Dompu, Kabupaten Dompu",NUSA TENGGARA BARAT,84213.0,Indonesia,,,,-85.393.228,1.184.608.038,https://maps.google.com/?cid=0x0:0x1a78f82c6f462f29,
toko bangunan,Toko Bahan Bangunan,Toko Bahan Bangunan Anugerah Simpasai,"Jl. Buntu Simpasai Woja, Kandai Dua, Kec. Woja, Kabupaten Dompu, Nusa Tenggara Bar. 84218","Kandai Dua, Kec. Woja, Kabupaten Dompu",NUSA TENGGARA BARAT,84218.0,Indonesia,,,,-85.392.106,118.441.274,https://maps.google.com/?cid=0x0:0x4a5418154243ede5,
toko bangunan,Toko Bahan Bangunan,Toko Bangunan Bage Rezo,"jln pahlawan no.10, Kandai Dua, Kec. Woja, Kabupaten Dompu, Nusa Tenggara Bar. 84219","Kandai Dua, Kec. Woja, Kabupaten Dompu",NUSA TENGGARA BARAT,84219.0,Indonesia,82339754936,,,-8.543.326,1.184.326.834,https://maps.google.com/?cid=0x0:0x9583b7cca9ab328,
toko bangunan,Toko Perlengkapan Rumah,Toko Al-Hidayah,"Jl. Buntu Simpasai Woja, Kandai Dua, Kec. Woja, Kabupaten Dompu, Nusa Tenggara Bar. 84219","Kandai Dua, Kec. Woja, Kabupaten Dompu",NUSA TENGGARA BARAT,84219.0,Indonesia,81312976013,,,-85.393.217,1.184.407.717,https://maps.google.com/?cid=0x0:0xec856f1b31465ef7,
toko bangunan,Toko Bahan Bangunan,Toko Mitra Bangunan,"Jl. Lintas Sumbawa - Bima No.501, Soriutu, Kec. Manggalewa, Kabupaten Dompu, Nusa Tenggara Bar. 84253","Soriutu, Kec. Manggalewa, Kabupaten Dompu",NUSA TENGGARA BARAT,84253.0,Indonesia,85333990765,,,-85.228.302,1.183.172.343,https://maps.google.com/?cid=0x0:0xd7314bf45ce0da44,
toko bangunan,Toko Bahan Bangunan,Toko Bangunan Anugrah Bara,"C9XQ+WQM, Jl. Lintas Sumbawa - Bima, Bara, Kec. Woja, Kabupaten Dompu, Nusa Tenggara Bar. 84251","Jl. Lintas Sumbawa - Bima, Bara, Kec. Woja, Kabupaten Dompu",NUSA TENGGARA BARAT,84251.0,Indonesia,,,,-85.501.731,1.183.894.253,https://maps.google.com/?cid=0x0:0x7aef164de79ee975,
toko bangunan,Toko Bahan Bangunan,Toko A'A tehnical,"FF66+W7Q, Jl. Lele, Bali, Kec. Dompu, Kabupaten Dompu, Nusa Tenggara Bar. 84213","Jl. Lele, Bali, Kec. Dompu, Kabupaten Dompu",NUSA TENGGARA BARAT,84213.0,Indonesia,82342792973,,,-85.376.715,1.184.607.318,https://maps.google.com/?cid=0x0:0xc95ec457333d49eb,
toko bangunan,Toko Bahan Bangunan,Toko Jakarta Bahan Bangunan,"FC4X+MH6 Sebrang SD 02, Lingkungan Dore, RT.005/RW.003, Simpasai, Kec. Woja, Kabupaten Dompu, Nusa Tenggara Bar.","Kabupaten Dompu, Nusa Tenggara Bar.",NUSA TENGGARA BARAT,,Indonesia,85239000255,,,-85.433.357,1.184.489.045,https://maps.google.com/?cid=0x0:0xb20b1a0641dff591,
toko bangunan,Toko,Bintang Bangunan Jaya,"FF93+8XH, Jl. Lintas Sumbawa - Bima, Karijawa, Kec. Dompu, Kabupaten Dompu, Nusa Tenggara Bar. 84213","Jl. Lintas Sumbawa - Bima, Karijawa, Kec. Dompu, Kabupaten Dompu",NUSA TENGGARA BARAT,84213.0,Indonesia,81338962241,,,-85.316.871,1.184.549.838,https://maps.google.com/?cid=0x0:0x26b53beb1ea4442d,
toko bangunan,Toko bahan makanan,UD FITRI QONITA,"Jl. Syech Moh., Dorotangga, Kec. Dompu, Kabupaten Dompu, Nusa Tenggara Bar. 84213","Dorotangga, Kec. Dompu, Kabupaten Dompu",NUSA TENGGARA BARAT,84213.0,Indonesia,82338750802,,,-85.281.227,1.184.661.183,https://maps.google.com/?cid=0x0:0xaaa33d2015f5776c,
toko bangunan,Toko Bahan Bangunan,UD Selamat,"CFP4+CRJ, Unnamed Road, Dorebara, Kec. Dompu, Kabupaten Dompu, Nusa Tenggara Bar. 84219","Unnamed Road, Dorebara, Kec. Dompu, Kabupaten Dompu",NUSA TENGGARA BARAT,84219.0,Indonesia,,,,-85.639.223,1.184.570.141,https://maps.google.com/?cid=0x0:0x3f8e70fa9cd6f99e,
toko bangunan,Toko Bahan Bangunan,Azizah plafon pvc,"Jl. Lele No.1, Bali, Kec. Dompu, Kabupaten Dompu, Nusa Tenggara Bar. 84213","Bali, Kec. Dompu, Kabupaten Dompu",NUSA TENGGARA BARAT,84213.0,Indonesia,81287663379,,,-85.354.589,1.184.610.978,https://maps.google.com/?cid=0x0:0x94239182ea395f34,
toko bangunan,Toko Bahan Bangunan,Pt Dua Nogo Sakti,"Jl. Syech Moh., Dorotangga, jado, Kabupaten Dompu, Nusa Tenggara Bar. 84213","Dorotangga, jado, Kabupaten Dompu",NUSA TENGGARA BARAT,84213.0,Indonesia,85706128299,,,-85.280.824,1.184.689.952,https://maps.google.com/?cid=0x0:0xa1d9a69a83f3af00,
toko bangunan,Toko Bahan Bangunan,UD.Raeesa,"CFXJ+R6V, Kareke, Kec. Dompu, Kabupaten Dompu, Nusa Tenggara Bar.","Kabupaten Dompu, Nusa Tenggara Bar.",NUSA TENGGARA BARAT,,Indonesia,,,,-85.503.778,1.184.805.569,https://maps.google.com/?cid=0x0:0x1dba2611c4a0f9d8,
toko bangunan,Toko Bahan Bangunan,UD Noval Bali 1 Dompu,"Lingkungan swete Bali 1, Kabupaten Dompu, Nusa Tenggara Bar. 84213",Kabupaten Dompu,NUSA TENGGARA BARAT,84213.0,Indonesia,85333140108,,,-85.288.085,1.184.613.026,https://maps.google.com/?cid=0x0:0x22070157cd77818a,
toko bangunan,toko bangunan,Nusa Tenggara Bar. 84217,"Kandai Satu, Kec. Dompu, Kabupaten Dompu, Nusa Tenggara Bar.","Kabupaten Dompu, Nusa Tenggara Bar.",NUSA TENGGARA BARAT,,Indonesia,,,,-85.495.421,1.184.601.175,https://maps.google.com/?cid=0x0:0x5e816e78d5a91ee2,
toko bangunan,Toko Bahan Bangunan,Toko Niaga Bangunan,"Deket Jl. Lkr. Utara, Karijawa, Kec. Dompu, Kabupaten Dompu, Nusa Tenggara Bar. 84216","Karijawa, Kec. Dompu, Kabupaten Dompu",NUSA TENGGARA BARAT,84216.0,Indonesia,82339774144,,,-85.320.637,1.184.537.654,https://maps.google.com/?cid=0x0:0x151f72cc40b0c79e,
toko bangunan,Toko Bahan Bangunan,Depo Sumber Bangunan,"Jl. Baru Karijawa gg PS No.33, Karijawa, Kec. Dompu, Kabupaten Dompu, Nusa Tenggara Bar. 84213","Karijawa, Kec. Dompu, Kabupaten Dompu",NUSA TENGGARA BARAT,84213.0,Indonesia,81213393271,,,-8.531.509,1.184.546.781,https://maps.google.com/?cid=0x0:0x74aa1c95593ff6e7,
toko bangunan,Toko Bahan Bangunan,TOKO TAUFIK,"Jl. . Jenderal Sudirman No.27, Bada, Kec. Dompu, Kabupaten Dompu, Nusa Tenggara Bar. 84213","Bada, Kec. Dompu, Kabupaten Dompu",NUSA TENGGARA BARAT,84213.0,Indonesia,37321160,,,-85.394.741,1.184.608.954,https://maps.google.com/?cid=0x0:0xa99b586cc9779c94,
toko bangunan,Toko Bahan Bangunan,Tb. Mataram,"FF66+78F, Jl. . Jenderal Sudirman, Bada, Kec. Dompu, Kabupaten Dompu, Nusa Tenggara Bar. 84213","Jl. . Jenderal Sudirman, Bada, Kec. Dompu, Kabupaten Dompu",NUSA TENGGARA BARAT,84213.0,Indonesia,,,,-85.393.228,1.184.608.038,https://maps.google.com/?cid=0x0:0x1a78f82c6f462f29,
toko bangunan,Toko Bahan Bangunan,Toko Bangunan Bage Rezo,"jln pahlawan no.10, Kandai Dua, Kec. Woja, Kabupaten Dompu, Nusa Tenggara Bar. 84219","Kandai Dua, Kec. Woja, Kabupaten Dompu",NUSA TENGGARA BARAT,84219.0,Indonesia,82339754936,,,-8.543.326,1.184.326.834,https://maps.google.com/?cid=0x0:0x9583b7cca9ab328,
toko bangunan,Toko Bahan Bangunan,UD Selamat,"CFP4+CRJ, Unnamed Road, Dorebara, Kec. Dompu, Kabupaten Dompu, Nusa Tenggara Bar. 84219","Unnamed Road, Dorebara, Kec. Dompu, Kabupaten Dompu",NUSA TENGGARA BARAT,84219.0,Indonesia,,,,-85.639.223,1.184.570.141,https://maps.google.com/?cid=0x0:0x3f8e70fa9cd6f99e,
toko bangunan,Toko Bahan Bangunan,Toko Jakarta Bahan Bangunan,"FC4X+MH6 Sebrang SD 02, Lingkungan Dore, RT.005/RW.003, Simpasai, Kec. Woja, Kabupaten Dompu, Nusa Tenggara Bar.","Kabupaten Dompu, Nusa Tenggara Bar.",NUSA TENGGARA BARAT,,Indonesia,85239000255,,,-85.433.357,1.184.489.045,https://maps.google.com/?cid=0x0:0xb20b1a0641dff591,
toko bangunan,Toko Bahan Bangunan,MR.DIY,"Jl. Soekarno-Hatta No.29, Bada, Kec. Dompu, Kabupaten Dompu, Nusa Tenggara Bar. 84213","Bada, Kec. Dompu, Kabupaten Dompu",NUSA TENGGARA BARAT,84213.0,Indonesia,2130022789,,,-85.381.058,1.184.636.809,https://maps.google.com/?cid=0x0:0x782ef44faba77107,
toko bangunan,Toko,Bintang Bangunan Jaya,"FF93+8XH, Jl. Lintas Sumbawa - Bima, Karijawa, Kec. Dompu, Kabupaten Dompu, Nusa Tenggara Bar. 84213","Jl. Lintas Sumbawa - Bima, Karijawa, Kec. Dompu, Kabupaten Dompu",NUSA TENGGARA BARAT,84213.0,Indonesia,81338962241,,,-85.316.871,1.184.549.838,https://maps.google.com/?cid=0x0:0x26b53beb1ea4442d,
toko bangunan,Toko Bahan Bangunan,Toko A'A tehnical,"FF66+W7Q, Jl. Lele, Bali, Kec. Dompu, Kabupaten Dompu, Nusa Tenggara Bar. 84213","Jl. Lele, Bali, Kec. Dompu, Kabupaten Dompu",NUSA TENGGARA BARAT,84213.0,Indonesia,82342792973,,,-85.376.715,1.184.607.318,https://maps.google.com/?cid=0x0:0xc95ec457333d49eb,
toko bangunan,Kantor Perusahaan,TB. Bangkit Bersama,"Dusun Dorongguni, Kareke, Kec. Dompu, Kabupaten Dompu, Nusa Tenggara Bar. 84219","Kareke, Kec. Dompu, Kabupaten Dompu",NUSA TENGGARA BARAT,84219.0,Indonesia,82340031984,,,-85.511.303,1.184.811.153,https://maps.google.com/?cid=0x0:0x503b570080f8a30a,
toko bangunan,Toko bahan makanan,Toko Putri,"CFV3+9R8, Kandai Satu, Kec. Dompu, Kabupaten Dompu, Nusa Tenggara Bar. 84217","Kandai Satu, Kec. Dompu, Kabupaten Dompu",NUSA TENGGARA BARAT,84217.0,Indonesia,37321132,,,-8.556.578,11.845.459,https://maps.google.com/?cid=0x0:0x7e86349385dca876,
toko bangunan,Toko Bahan Bangunan,Toko Mitra Bangunan,"Jl. Lintas Sumbawa - Bima No.501, Soriutu, Kec. Manggalewa, Kabupaten Dompu, Nusa Tenggara Bar. 84253","Soriutu, Kec. Manggalewa, Kabupaten Dompu",NUSA TENGGARA BARAT,84253.0,Indonesia,85333990765,,,-85.228.302,1.183.172.343,https://maps.google.com/?cid=0x0:0xd7314bf45ce0da44,
toko bangunan,Toko bahan makanan,Smart,"Jl. Baru Karijawa gg PS No.33, Karijawa, Kec. Dompu, Kabupaten Dompu, Nusa Tenggara Bar. 84213","Karijawa, Kec. Dompu, Kabupaten Dompu",NUSA TENGGARA BARAT,84213.0,Indonesia,81312243439,,,-85.314.562,1.184.548.222,https://maps.google.com/?cid=0x0:0x485a0ae2ef9fd899,
toko bangunan,Toko Perlengkapan Rumah,Toko Al-Hidayah,"Jl. Buntu Simpasai Woja, Kandai Dua, Kec. Woja, Kabupaten Dompu, Nusa Tenggara Bar. 84219","Kandai Dua, Kec. Woja, Kabupaten Dompu",NUSA TENGGARA BARAT,84219.0,Indonesia,81312976013,,,-85.393.217,1.184.407.717,https://maps.google.com/?cid=0x0:0xec856f1b31465ef7,
toko bangunan,,Kareke,"FF2C+HP8, Kareke, Kec. Dompu, Kabupaten Dompu, Nusa Tenggara Bar. 84211","Kareke, Kec. Dompu, Kabupaten Dompu",NUSA TENGGARA BARAT,84211.0,Indonesia,,,,-85.485.791,1.184.718.243,https://maps.google.com/?cid=0x0:0x9cbdebea3bb5de9,
toko bangunan,Toko Bahan Bangunan,Azizah plafon pvc,"Jl. Lele No.1, Bali, Kec. Dompu, Kabupaten Dompu, Nusa Tenggara Bar. 84213","Bali, Kec. Dompu, Kabupaten Dompu",NUSA TENGGARA BARAT,84213.0,Indonesia,81287663379,,,-85.354.589,1.184.610.978,https://maps.google.com/?cid=0x0:0x94239182ea395f34,
toko bangunan,Toko Swalayan,Bolly Deptstore Dompu,"FF65+4FH, Jl. Manuru Bata Dompu, Bada, Kec. Dompu, Kabupaten Dompu, Nusa Tenggara Bar. 84213","Jl. Manuru Bata Dompu, Bada, Kec. Dompu, Kabupaten Dompu",NUSA TENGGARA BARAT,84213.0,Indonesia,,,,-85.396.801,1.184.587.322,https://maps.google.com/?cid=0x0:0x5b99d2bfd3f4e4cf,
toko bangunan,Toko Bahan Bangunan,UD Noval Bali 1 Dompu,"Lingkungan swete Bali 1, Kabupaten Dompu, Nusa Tenggara Bar. 84213",Kabupaten Dompu,NUSA TENGGARA BARAT,84213.0,Indonesia,85333140108,,,-85.288.085,1.184.613.026,https://maps.google.com/?cid=0x0:0x22070157cd77818a,
toko bangunan,Toko Bahan Bangunan,Toko Bangunan Anugrah Bara,"C9XQ+WQM, Jl. Lintas Sumbawa - Bima, Bara, Kec. Woja, Kabupaten Dompu, Nusa Tenggara Bar. 84251","Jl. Lintas Sumbawa - Bima, Bara, Kec. Woja, Kabupaten Dompu",NUSA TENGGARA BARAT,84251.0,Indonesia,,,,-85.501.731,1.183.894.253,https://maps.google.com/?cid=0x0:0x7aef164de79ee975,
toko bangunan,Toko Bahan Bangunan,Depo Sumber Bangunan,"Jl. Baru Karijawa gg PS No.33, Karijawa, Kec. Dompu, Kabupaten Dompu, Nusa Tenggara Bar. 84213","Karijawa, Kec. Dompu, Kabupaten Dompu",NUSA TENGGARA BARAT,84213.0,Indonesia,81213393271,,,-8.531.509,1.184.546.781,https://maps.google.com/?cid=0x0:0x74aa1c95593ff6e7,
toko bangunan,toko bangunan,Nusa Tenggara Bar. 84219,"Kabupaten Dompu, Nusa Tenggara Bar.","Kabupaten Dompu, Nusa Tenggara Bar.",NUSA TENGGARA BARAT,,Indonesia,,,,-8.455.389,1.184.980.744,https://maps.google.com/?cid=0x0:0xd1ca28c719867916,
toko bangunan,Toko Bahan Bangunan,Toko Bangunan Bage Rezo,"jln pahlawan no.10, Kandai Dua, Kec. Woja, Kabupaten Dompu, Nusa Tenggara Bar. 84219","Kandai Dua, Kec. Woja, Kabupaten Dompu",NUSA TENGGARA BARAT,84219.0,Indonesia,82339754936,,,-8.543.326,1.184.326.834,https://maps.google.com/?cid=0x0:0x9583b7cca9ab328,
toko bangunan,Toko Bahan Bangunan,Toko Niaga Bangunan,"Deket Jl. Lkr. Utara, Karijawa, Kec. Dompu, Kabupaten Dompu, Nusa Tenggara Bar. 84216","Karijawa, Kec. Dompu, Kabupaten Dompu",NUSA TENGGARA BARAT,84216.0,Indonesia,82339774144,,,-85.320.637,1.184.537.654,https://maps.google.com/?cid=0x0:0x151f72cc40b0c79e,
toko bangunan,Toko Bahan Bangunan,Toko Bangunan Anugrah Bara,"C9XQ+WQM, Jl. Lintas Sumbawa - Bima, Bara, Kec. Woja, Kabupaten Dompu, Nusa Tenggara Bar. 84251","Jl. Lintas Sumbawa - Bima, Bara, Kec. Woja, Kabupaten Dompu",NUSA TENGGARA BARAT,84251.0,Indonesia,,,,-85.501.731,1.183.894.253,https://maps.google.com/?cid=0x0:0x7aef164de79ee975,
toko bangunan,Kantor Perusahaan,TB. Bangkit Bersama,"Dusun Dorongguni, Kareke, Kec. Dompu, Kabupaten Dompu, Nusa Tenggara Bar. 84219","Kareke, Kec. Dompu, Kabupaten Dompu",NUSA TENGGARA BARAT,84219.0,Indonesia,82340031984,,,-85.511.303,1.184.811.153,https://maps.google.com/?cid=0x0:0x503b570080f8a30a,
toko bangunan,Toko Bahan Bangunan,Toko Bahan Bangunan Anugerah Simpasai,"Jl. Buntu Simpasai Woja, Kandai Dua, Kec. Woja, Kabupaten Dompu, Nusa Tenggara Bar. 84218","Kandai Dua, Kec. Woja, Kabupaten Dompu",NUSA TENGGARA BARAT,84218.0,Indonesia,,,,-85.392.106,118.441.274,https://maps.google.com/?cid=0x0:0x4a5418154243ede5,
toko bangunan,Toko Bahan Bangunan,TK. Sentral Jaya,"Jl. . Jenderal Sudirman, Bada, Kec. Dompu, Kabupaten Dompu, Nusa Tenggara Bar. 84213","Bada, Kec. Dompu, Kabupaten Dompu",NUSA TENGGARA BARAT,84213.0,Indonesia,82145830000,,,-85.394.137,1.184.598.675,https://maps.google.com/?cid=0x0:0xaf5c5d430f1a62b7,
toko bangunan,Toko Bahan Bangunan,Golden Bangunan,"Unnamed Road Nusa Tenggara Bar. 84251, Matua, Kec. Woja, Kabupaten Dompu, Nusa Tenggara Bar. 84251","Matua, Kec. Woja, Kabupaten Dompu",NUSA TENGGARA BARAT,84251.0,Indonesia,8176931226,,,-85.290.136,1.184.167.336,https://maps.google.com/?cid=0x0:0x1fcc4f303b373f35,
toko bangunan,Toko Bahan Bangunan,Tb. Mataram,"FF66+78F, Jl. . Jenderal Sudirman, Bada, Kec. Dompu, Kabupaten Dompu, Nusa Tenggara Bar. 84213","Jl. . Jenderal Sudirman, Bada, Kec. Dompu, Kabupaten Dompu",NUSA TENGGARA BARAT,84213.0,Indonesia,,,,-85.393.228,1.184.608.038,https://maps.google.com/?cid=0x0:0x1a78f82c6f462f29,
toko bangunan,Toko Bahan Bangunan,MR.DIY,"Jl. Soekarno-Hatta No.29, Bada, Kec. Dompu, Kabupaten Dompu, Nusa Tenggara Bar. 84213","Bada, Kec. Dompu, Kabupaten Dompu",NUSA TENGGARA BARAT,84213.0,Indonesia,2130022789,,,-85.381.058,1.184.636.809,https://maps.google.com/?cid=0x0:0x782ef44faba77107,
toko bangunan,Toko Perlengkapan Rumah,Toko Al-Hidayah,"Jl. Buntu Simpasai Woja, Kandai Dua, Kec. Woja, Kabupaten Dompu, Nusa Tenggara Bar. 84219","Kandai Dua, Kec. Woja, Kabupaten Dompu",NUSA TENGGARA BARAT,84219.0,Indonesia,81312976013,,,-85.393.217,1.184.407.717,https://maps.google.com/?cid=0x0:0xec856f1b31465ef7,
toko bangunan,Toko,Bintang Bangunan Jaya,"FF93+8XH, Jl. Lintas Sumbawa - Bima, Karijawa, Kec. Dompu, Kabupaten Dompu, Nusa Tenggara Bar. 84213","Jl. Lintas Sumbawa - Bima, Karijawa, Kec. Dompu, Kabupaten Dompu",NUSA TENGGARA BARAT,84213.0,Indonesia,81338962241,,,-85.316.871,1.184.549.838,https://maps.google.com/?cid=0x0:0x26b53beb1ea4442d,
toko bangunan,Toko Bahan Bangunan,Toko Jakarta Bahan Bangunan,"FC4X+MH6 Sebrang SD 02, Lingkungan Dore, RT.005/RW.003, Simpasai, Kec. Woja, Kabupaten Dompu, Nusa Tenggara Bar.","Kabupaten Dompu, Nusa Tenggara Bar.",NUSA TENGGARA BARAT,,Indonesia,85239000255,,,-85.433.357,1.184.489.045,https://maps.google.com/?cid=0x0:0xb20b1a0641dff591,
toko bangunan,Toko Bahan Bangunan,UD Selamat,"CFP4+CRJ, Unnamed Road, Dorebara, Kec. Dompu, Kabupaten Dompu, Nusa Tenggara Bar. 84219","Unnamed Road, Dorebara, Kec. Dompu, Kabupaten Dompu",NUSA TENGGARA BARAT,84219.0,Indonesia,,,,-85.639.223,1.184.570.141,https://maps.google.com/?cid=0x0:0x3f8e70fa9cd6f99e,
toko bangunan,Toko Bahan Bangunan,TOKO TAUFIK,"Jl. . Jenderal Sudirman No.27, Bada, Kec. Dompu, Kabupaten Dompu, Nusa Tenggara Bar. 84213","Bada, Kec. Dompu, Kabupaten Dompu",NUSA TENGGARA BARAT,84213.0,Indonesia,37321160,,,-85.394.741,1.184.608.954,https://maps.google.com/?cid=0x0:0xa99b586cc9779c94,
toko bangunan,Toko Bahan Bangunan,YASINDO JAYA,"Jl. Lintas Sumbawa - Bima No.51, Matua, Kec. Woja, Kabupaten Dompu, Nusa Tenggara Bar. 84251","Matua, Kec. Woja, Kabupaten Dompu",NUSA TENGGARA BARAT,84251.0,Indonesia,81238569021,,,-85.465.252,1.184.207.831,https://maps.google.com/?cid=0x0:0x4feb8cea8d83a87b,
toko bangunan,Toko Bahan Bangunan,Toko A'A tehnical,"FF66+W7Q, Jl. Lele, Bali, Kec. Dompu, Kabupaten Dompu, Nusa Tenggara Bar. 84213","Jl. Lele, Bali, Kec. Dompu, Kabupaten Dompu",NUSA TENGGARA BARAT,84213.0,Indonesia,82342792973,,,-85.376.715,1.184.607.318,https://maps.google.com/?cid=0x0:0xc95ec457333d49eb,
toko bangunan,Toko Bahan Bangunan,Azizah plafon pvc,"Jl. Lele No.1, Bali, Kec. Dompu, Kabupaten Dompu, Nusa Tenggara Bar. 84213","Bali, Kec. Dompu, Kabupaten Dompu",NUSA TENGGARA BARAT,84213.0,Indonesia,81287663379,,,-85.354.589,1.184.610.978,https://maps.google.com/?cid=0x0:0x94239182ea395f34,
toko bangunan,Toko Bahan Bangunan,Ud. Zam Zam,"FC4R+5GH, Jl. Lintas Sumbawa - Bima, Simpasai, Kec. Woja, Kabupaten Dompu, Nusa Tenggara Bar. 84218","Jl. Lintas Sumbawa - Bima, Simpasai, Kec. Woja, Kabupaten Dompu",NUSA TENGGARA BARAT,84218.0,Indonesia,,,,-85.445.643,1.184.413.514,https://maps.google.com/?cid=0x0:0x1f0eee75cc4a17fe,
toko bangunan,Pusat Perbelanjaan,Toko Ais Jaya,"Jl. Sultan Hasanuddin No.48, Karijawa, Kec. Dompu, Kabupaten Dompu, Nusa Tenggara Bar. 84216","Karijawa, Kec. Dompu, Kabupaten Dompu",NUSA TENGGARA BARAT,84216.0,Indonesia,81287359191,,,-85.431.496,1.184.513.381,https://maps.google.com/?cid=0x0:0xa233f4e49727da3a,
toko bangunan,Toko Bahan Bangunan,Depo Sumber Bangunan,"Jl. Baru Karijawa gg PS No.33, Karijawa, Kec. Dompu, Kabupaten Dompu, Nusa Tenggara Bar. 84213","Karijawa, Kec. Dompu, Kabupaten Dompu",NUSA TENGGARA BARAT,84213.0,Indonesia,81213393271,,,-8.531.509,1.184.546.781,https://maps.google.com/?cid=0x0:0x74aa1c95593ff6e7,
toko bangunan,toko bangunan,Nusa Tenggara Bar. 84261,"Kabupaten Dompu, Nusa Tenggara Bar.","Kabupaten Dompu, Nusa Tenggara Bar.",NUSA TENGGARA BARAT,,Indonesia,,,,-83.860.783,1.179.951.862,https://maps.google.com/?cid=0x0:0x9ecbf848dd39c412,
toko bangunan,Toko Bahan Bangunan,Toko Bangunan Cipta Baru,"RPCP+56C, Kadindi Bar., Kec. Pekat, Kabupaten Dompu, Nusa Tenggara Bar. 84261","Kadindi Bar., Kec. Pekat, Kabupaten Dompu",NUSA TENGGARA BARAT,84261.0,Indonesia,,,,-81.795.655,1.177.355.298,https://maps.google.com/?cid=0x0:0x89769683e3be3be7,
toko bangunan,Toko Bahan Bangunan,UD CAHAYA BARU,"F672+8P7, Jl. Lintas Calabai, Tolo Kalo, Kec. Kempo, Kabupaten Dompu, Nusa Tenggara Bar. 84261","Jl. Lintas Calabai, Tolo Kalo, Kec. Kempo, Kabupaten Dompu",NUSA TENGGARA BARAT,84261.0,Indonesia,81246364408,,,-85.367.046,1.182.017.994,https://maps.google.com/?cid=0x0:0x20928192fee3343a,
toko bangunan,toko bangunan,TOKO BANGUNAN YUDEN,"Jl. Lintas Calabai, Soro, Kec. Kempo, Kabupaten Dompu, Nusa Tenggara Bar. 84261","Soro, Kec. Kempo, Kabupaten Dompu",NUSA TENGGARA BARAT,84261.0,Indonesia,,,,-85.561.749,1.182.357.938,https://maps.google.com/?cid=0x0:0x3466f511f298b528,
toko bangunan,toko bangunan,toko bangunan Cahaya Baru,"F58X+HVG, So Nggajah, Kec. Kempo, Kabupaten Dompu, Nusa Tenggara Bar. 84261","So Nggajah, Kec. Kempo, Kabupaten Dompu",NUSA TENGGARA BARAT,84261.0,Indonesia,,,,-85.335.624,1.181.997.126,https://maps.google.com/?cid=0x0:0x5a161a59cda59b82,
toko bangunan,Toko Bahan Bangunan,TB. BERKAT MAKMUR,"Jl. Masjid Abidin No.24, RT.8/RW.6, Pd. Bambu, Kec. Duren Sawit, Kota Jakarta Timur, Daerah Khusus Ibukota Jakarta 13430","RT.8/RW.6, Pd. Bambu, Kec. Duren Sawit, Kota Jakarta Timur",NUSA TENGGARA BARAT,13430.0,Indonesia,,,,-62.290.933,1.069.029.323,https://maps.google.com/?cid=0x0:0xa0e6cebea53b5c2a,
toko bangunan,toko bangunan,Toko Rejeki Baru,"C6RQ+FPP, Jl. Lintas Calabai, Soro, Kec. Kempo, Kabupaten Dompu, Nusa Tenggara Bar. 84261","Jl. Lintas Calabai, Soro, Kec. Kempo, Kabupaten Dompu",NUSA TENGGARA BARAT,84261.0,Indonesia,,,,-85.587.831,1.182.393.311,https://maps.google.com/?cid=0x0:0x6a8e30590be209d3,
toko bangunan,Toko Bahan Bangunan,Toko Bangunan Murah Jaya,"Jl. Pd. Klp. Sel., RT.2/RW.5, Pd. Klp., Kec. Duren Sawit, Kota Jakarta Timur, Daerah Khusus Ibukota Jakarta 13450","RT.2/RW.5, Pd. Klp., Kec. Duren Sawit, Kota Jakarta Timur",NUSA TENGGARA BARAT,13450.0,Indonesia,,,,-62.499.379,1.069.356.436,https://maps.google.com/?cid=0x0:0xe607a7de874d787e,
toko bangunan,Toko Bahan Bangunan,Toko Bangunan Bintang Mas,"Jl. Tanjung Duren Utara I No.4, Tj. Duren Utara, Kec. Grogol petamburan, Kota Jakarta Barat, Daerah Khusus Ibukota Jakarta 11470","Tj. Duren Utara, Kec. Grogol petamburan, Kota Jakarta Barat",NUSA TENGGARA BARAT,11470.0,Indonesia,87808780871,,,-61.726.339,1.067.869.704,https://maps.google.com/?cid=0x0:0x4644f7b05302e46a,
toko bangunan,Toko Bahan Bangunan,Depo Bangunan Kalimalang,"Jl. Raya Kalimalang No.46, Duren Sawit, Kec. Duren Sawit, Kota Jakarta Timur, Daerah Khusus Ibukota Jakarta 13440","Duren Sawit, Kec. Duren Sawit, Kota Jakarta Timur",NUSA TENGGARA BARAT,13440.0,Indonesia,81316750191,,,-62.474.768,106.920.699,https://maps.google.com/?cid=0x0:0x1bfbb5bc29f32006,
toko bangunan,Toko Bahan Bangunan,Material,"DPN Perkasa, Menara 165, Jl. TB Simatupang No.Kav.1 Lantai 4, Cilandak Tim., Ps. Minggu, Kota Jakarta Selatan, Daerah Khusus Ibukota Jakarta 12560","Menara 165, Jl. TB Simatupang No.Kav.1 Lantai 4, Cilandak Tim., Ps. Minggu, Kota Jakarta Selatan",NUSA TENGGARA BARAT,12560.0,Indonesia,81280250204,,,-62.919.797,1.068.097.858,https://maps.google.com/?cid=0x0:0x5d2ed7a1cd6a8387,
toko bangunan,Toko Bahan Bangunan,TB. ACC,"Jl. Otista Raya No.435, Bidara Cina, Kecamatan Jatinegara, Kota Jakarta Timur, Daerah Khusus Ibukota Jakarta 13330","Bidara Cina, Kecamatan Jatinegara, Kota Jakarta Timur",NUSA TENGGARA BARAT,13330.0,Indonesia,218194623,,,-62.425.242,106.869.277,https://maps.google.com/?cid=0x0:0x6f8ed1f97d6092a6,
toko bangunan,toko bangunan,Nusa Tenggara Bar. 84271,"Kec. Hu'u, Kabupaten Dompu, Nusa Tenggara Bar.","Kabupaten Dompu, Nusa Tenggara Bar.",NUSA TENGGARA BARAT,,Indonesia,,,,-87.839.226,1.184.630.376,https://maps.google.com/?cid=0x0:0x4669cd9d22c1e9e6,
toko bangunan,Toko Bahan Bangunan,TB. Ameerah Justin Jaya,"7C8W+C9Q, Rasabou, Kec. Hu'u, Kabupaten Dompu, Nusa Tenggara Bar. 84271","Rasabou, Kec. Hu'u, Kabupaten Dompu",NUSA TENGGARA BARAT,84271.0,Indonesia,85239050249,,,-87.329.419,1.184.466.227,https://maps.google.com/?cid=0x0:0xf08820de0e80b43a,
toko bangunan,Toko Bahan Bangunan,TB.BINTANG SELATAN,"69MW+FRJ, Huu, Kec. Hu'u, Kabupaten Dompu, Nusa Tenggara Bar.","Kabupaten Dompu, Nusa Tenggara Bar.",NUSA TENGGARA BARAT,,Indonesia,82340646824,,,-87.662.889,118.397.022,https://maps.google.com/?cid=0x0:0x4e3a609852bb293e,
toko bangunan,Toko,TOKO BUDI,"7C6P+4HW, Persiapan Jala, Kec. Hu'u, Kabupaten Dompu, Nusa Tenggara Bar. 84271","Persiapan Jala, Kec. Hu'u, Kabupaten Dompu",NUSA TENGGARA BARAT,84271.0,Indonesia,,,,-87.401.626,1.184.363.785,https://maps.google.com/?cid=0x0:0xab1122a218d0f461,
toko bangunan,Toko Bahan Bangunan,Depo Sumber Bangunan,"Jl. Baru Karijawa gg PS No.33, Karijawa, Kec. Dompu, Kabupaten Dompu, Nusa Tenggara Bar. 84213","Karijawa, Kec. Dompu, Kabupaten Dompu",NUSA TENGGARA BARAT,84213.0,Indonesia,81213393271,,,-8.531.509,1.184.546.781,https://maps.google.com/?cid=0x0:0x74aa1c95593ff6e7,
toko bangunan,Toko Bahan Bangunan,UD marada jaya,"6CVH+79Q, Daha, Kec. Hu'u, Kabupaten Dompu, Nusa Tenggara Bar. 84271","Daha, Kec. Hu'u, Kabupaten Dompu",NUSA TENGGARA BARAT,84271.0,Indonesia,,,,-87.569.688,1.184.285.272,https://maps.google.com/?cid=0x0:0xb93e50cc5111431,
toko bangunan,Toko Bahan Bangunan,Toko Niaga Bangunan,"Deket Jl. Lkr. Utara, Karijawa, Kec. Dompu, Kabupaten Dompu, Nusa Tenggara Bar. 84216","Karijawa, Kec. Dompu, Kabupaten Dompu",NUSA TENGGARA BARAT,84216.0,Indonesia,82339774144,,,-85.320.637,1.184.537.654,https://maps.google.com/?cid=0x0:0x151f72cc40b0c79e,
toko bangunan,Toko Bahan Bangunan,Toko Bangunan Bage Rezo,"jln pahlawan no.10, Kandai Dua, Kec. Woja, Kabupaten Dompu, Nusa Tenggara Bar. 84219","Kandai Dua, Kec. Woja, Kabupaten Dompu",NUSA TENGGARA BARAT,84219.0,Indonesia,82339754936,,,-8.543.326,1.184.326.834,https://maps.google.com/?cid=0x0:0x9583b7cca9ab328,
toko bangunan,toko bangunan,"UD sumber hu,u","59RP+X55, Huu, Kec. Hu'u, Kabupaten Dompu, Nusa Tenggara Bar. 84271","Huu, Kec. Hu'u, Kabupaten Dompu",NUSA TENGGARA BARAT,84271.0,Indonesia,82340924103,,,-88.075.182,1.183.855.961,https://maps.google.com/?cid=0x0:0x97c0565ce9956bf0,
toko bangunan,Toko Bahan Bangunan,Toko Bahan Bangunan Anugerah Simpasai,"Jl. Buntu Simpasai Woja, Kandai Dua, Kec. Woja, Kabupaten Dompu, Nusa Tenggara Bar. 84218","Kandai Dua, Kec. Woja, Kabupaten Dompu",NUSA TENGGARA BARAT,84218.0,Indonesia,,,,-85.392.106,118.441.274,https://maps.google.com/?cid=0x0:0x4a5418154243ede5,
toko bangunan,Pusat Perbelanjaan,Aisyah Bangunan,"CCWJ+3MX, Jl. Lintas Wawonduru, Wawonduru, Kec. Woja, Kabupaten Dompu, Nusa Tenggara Bar. 84219","Jl. Lintas Wawonduru, Wawonduru, Kec. Woja, Kabupaten Dompu",NUSA TENGGARA BARAT,84219.0,Indonesia,85238591234,,,-85.547.669,1.184.317.258,https://maps.google.com/?cid=0x0:0xc59019e1a3f0370,
toko bangunan,Toko Bahan Bangunan,Toko bangunan (UD.FITRAH),"7R2W+PV6, Kuang, Kec. Taliwang, Kabupaten Sumbawa Barat, Nusa Tenggara Bar. 84455","Kuang, Kec. Taliwang, Kabupaten Sumbawa Barat",NUSA TENGGARA BARAT,84455.0,Indonesia,,,,-87.482.188,1.168.471.476,https://maps.google.com/?cid=0x0:0x300faa66d2d782aa,
toko bangunan,Toko Bahan Bangunan,Yusuf Bagunan,"RQ83+6X9, Jl. Raya, kedindi atas, Calabai, Kadindi, Kec. Pekat, Kabupaten Dompu, Nusa Tenggara Bar. 84261","Jl. Raya, kedindi atas, Calabai, Kadindi, Kec. Pekat, Kabupaten Dompu",NUSA TENGGARA BARAT,84261.0,Indonesia,82359347889,,,-81.844.534,1.177.549.752,https://maps.google.com/?cid=0x0:0x4e6aed5d7a078f5f,
toko bangunan,Toko Bahan Bangunan,UD Selamat,"CFP4+CRJ, Unnamed Road, Dorebara, Kec. Dompu, Kabupaten Dompu, Nusa Tenggara Bar. 84219","Unnamed Road, Dorebara, Kec. Dompu, Kabupaten Dompu",NUSA TENGGARA BARAT,84219.0,Indonesia,,,,-85.639.223,1.184.570.141,https://maps.google.com/?cid=0x0:0x3f8e70fa9cd6f99e,
toko bangunan,Toko Bahan Bangunan,Toko Bangunan Cipta Baru,"RPCP+56C, Kadindi Bar., Kec. Pekat, Kabupaten Dompu, Nusa Tenggara Bar. 84261","Kadindi Bar., Kec. Pekat, Kabupaten Dompu",NUSA TENGGARA BARAT,84261.0,Indonesia,,,,-81.795.655,1.177.355.298,https://maps.google.com/?cid=0x0:0x89769683e3be3be7,
toko bangunan,Toko Bahan Bangunan,Depo Bangunan Toko,"JL St Syahrir, RT 005/01, Bugis, Kec. Taliwang, Kabupaten Sumbawa Barat, Nusa Tenggara Bar. 84355","RT 005/01, Bugis, Kec. Taliwang, Kabupaten Sumbawa Barat",NUSA TENGGARA BARAT,84355.0,Indonesia,37281797,,,-87.465.406,1.168.344.096,https://maps.google.com/?cid=0x0:0x1c089e160c4a5868,
toko bangunan,Toko Bahan Bangunan,Toko Senter Bangunan,"7R4W+QPW, Jl. Ps. Baru, Dalam, Kec. Taliwang, Kabupaten Sumbawa Barat, Nusa Tenggara Bar. 84455","Jl. Ps. Baru, Dalam, Kec. Taliwang, Kabupaten Sumbawa Barat",NUSA TENGGARA BARAT,84455.0,Indonesia,37281059,,,-87.430.177,1.168.468.144,https://maps.google.com/?cid=0x0:0x4caf7cd21eb7421c,
toko bangunan,Toko Bahan Bangunan,TOKO TAUFIK,"Jl. . Jenderal Sudirman No.27, Bada, Kec. Dompu, Kabupaten Dompu, Nusa Tenggara Bar. 84213","Bada, Kec. Dompu, Kabupaten Dompu",NUSA TENGGARA BARAT,84213.0,Indonesia,37321160,,,-85.394.741,1.184.608.954,https://maps.google.com/?cid=0x0:0xa99b586cc9779c94,
toko bangunan,toko bangunan,TOKO BANGUNAN YUDEN,"Jl. Lintas Calabai, Soro, Kec. Kempo, Kabupaten Dompu, Nusa Tenggara Bar. 84261","Soro, Kec. Kempo, Kabupaten Dompu",NUSA TENGGARA BARAT,84261.0,Indonesia,,,,-85.561.749,1.182.357.938,https://maps.google.com/?cid=0x0:0x3466f511f298b528,
toko bangunan,Toko Bahan Bangunan,UD. ADAM,"Depan Masjid Annur, Jl. Lintas Kiwu, Lasi, Kec. Kilo, Kabupaten Dompu, Nusa Tenggara Bar. 84252","Jl. Lintas Kiwu, Lasi, Kec. Kilo, Kabupaten Dompu",NUSA TENGGARA BARAT,84252.0,Indonesia,82339175124,,,-83.011.615,1.184.029.155,https://maps.google.com/?cid=0x0:0xa26013cedc598fa4,
toko bangunan,toko bangunan,Nusa Tenggara Bar. 84252,"Kec. Kilo, Kabupaten Dompu, Nusa Tenggara Bar.","Kabupaten Dompu, Nusa Tenggara Bar.",NUSA TENGGARA BARAT,,Indonesia,,,,-83.661.165,1.183.812.562,https://maps.google.com/?cid=0x0:0xc5fe1ded17f045e9,
toko bangunan,Pusat Perbelanjaan,Toko Bangunan EKA JAYA TALOKO,"J848+4V4 Toko Bangunan Eka Jaya, RT.011/RW.005, Kelurahan, Taloko, Kec. Sanggar, Kabupaten Bima, Nusa Tenggara Bar.","Kabupaten Bima, Nusa Tenggara Bar.",NUSA TENGGARA BARAT,,Indonesia,,,,-83.947.354,1.183.172.074,https://maps.google.com/?cid=0x0:0x20126781638ed32,
toko bangunan,Toko Bahan Bangunan,UD RIHUL,"PCCR+37, Kiwu, Kec. Kilo, Kabupaten Dompu, Nusa Tenggara Bar.","Kabupaten Dompu, Nusa Tenggara Bar.",NUSA TENGGARA BARAT,,Indonesia,,,,-82.797.679,1.184.407.191,https://maps.google.com/?cid=0x0:0xa3b3746b54f37d8e,
toko bangunan,Toko Bahan Bangunan,Depo Sumber Bangunan,"Jl. Baru Karijawa gg PS No.33, Karijawa, Kec. Dompu, Kabupaten Dompu, Nusa Tenggara Bar. 84213","Karijawa, Kec. Dompu, Kabupaten Dompu",NUSA TENGGARA BARAT,84213.0,Indonesia,81213393271,,,-8.531.509,1.184.546.781,https://maps.google.com/?cid=0x0:0x74aa1c95593ff6e7,
toko bangunan,Toko Bahan Bangunan,Toko Bahan Bangunan Anugerah Simpasai,"Jl. Buntu Simpasai Woja, Kandai Dua, Kec. Woja, Kabupaten Dompu, Nusa Tenggara Bar. 84218","Kandai Dua, Kec. Woja, Kabupaten Dompu",NUSA TENGGARA BARAT,84218.0,Indonesia,,,,-85.392.106,118.441.274,https://maps.google.com/?cid=0x0:0x4a5418154243ede5,
toko bangunan,Toko Bahan Bangunan,Toko Bangunan Bage Rezo,"jln pahlawan no.10, Kandai Dua, Kec. Woja, Kabupaten Dompu, Nusa Tenggara Bar. 84219","Kandai Dua, Kec. Woja, Kabupaten Dompu",NUSA TENGGARA BARAT,84219.0,Indonesia,82339754936,,,-8.543.326,1.184.326.834,https://maps.google.com/?cid=0x0:0x9583b7cca9ab328,
toko bangunan,Toko Bahan Bangunan,Toko Mitra Bangunan,"Jl. Lintas Sumbawa - Bima No.501, Soriutu, Kec. Manggalewa, Kabupaten Dompu, Nusa Tenggara Bar. 84253","Soriutu, Kec. Manggalewa, Kabupaten Dompu",NUSA TENGGARA BARAT,84253.0,Indonesia,85333990765,,,-85.228.302,1.183.172.343,https://maps.google.com/?cid=0x0:0xd7314bf45ce0da44,
toko bangunan,Toko Bahan Bangunan,Toko Jakarta Bahan Bangunan,"FC4X+MH6 Sebrang SD 02, Lingkungan Dore, RT.005/RW.003, Simpasai, Kec. Woja, Kabupaten Dompu, Nusa Tenggara Bar.","Kabupaten Dompu, Nusa Tenggara Bar.",NUSA TENGGARA BARAT,,Indonesia,85239000255,,,-85.433.357,1.184.489.045,https://maps.google.com/?cid=0x0:0xb20b1a0641dff591,
toko bangunan,Toko bahan makanan,Merpati Bangunan,"J7GW+5H9, Kore, Kec. Sanggar, Kabupaten Bima, Nusa Tenggara Bar. 84191","Kore, Kec. Sanggar, Kabupaten Bima",NUSA TENGGARA BARAT,84191.0,Indonesia,82139995580,,,-83.745.803,1.182.965,https://maps.google.com/?cid=0x0:0x9f48a9cd0765edfd,
toko bangunan,Toko,Toko Surya Jaya Kambu,"J88F+F27, Jambu, Kec. Kilo, Kabupaten Dompu, Nusa Tenggara Bar. 84252","Jambu, Kec. Kilo, Kabupaten Dompu",NUSA TENGGARA BARAT,84252.0,Indonesia,85237639967,,,-83.838.456,1.183.225.589,https://maps.google.com/?cid=0x0:0xdfa3885e3bf12f93,
toko bangunan,Toko Perlengkapan Rumah,Toko Al-Hidayah,"Jl. Buntu Simpasai Woja, Kandai Dua, Kec. Woja, Kabupaten Dompu, Nusa Tenggara Bar. 84219","Kandai Dua, Kec. Woja, Kabupaten Dompu",NUSA TENGGARA BARAT,84219.0,Indonesia,81312976013,,,-85.393.217,1.184.407.717,https://maps.google.com/?cid=0x0:0xec856f1b31465ef7,
toko bangunan,Toko Bahan Bangunan,DEPO SUMBER BANGUNAN BIMA,"Paruga, Kec. Rasanae Bar., Kab. Bima, Nusa Tenggara Bar. 84118","Kec. Rasanae Bar., Kab. Bima",NUSA TENGGARA BARAT,84118.0,Indonesia,8113833767,,,-84.542.875,1.187.178.281,https://maps.google.com/?cid=0x0:0x5695533ae32f5737,
toko bangunan,Toko Bahan Bangunan,UD Selamat,"CFP4+CRJ, Unnamed Road, Dorebara, Kec. Dompu, Kabupaten Dompu, Nusa Tenggara Bar. 84219","Unnamed Road, Dorebara, Kec. Dompu, Kabupaten Dompu",NUSA TENGGARA BARAT,84219.0,Indonesia,,,,-85.639.223,1.184.570.141,https://maps.google.com/?cid=0x0:0x3f8e70fa9cd6f99e,
toko bangunan,Toko Bahan Bangunan,UD.ABY MANDIRI,"G848+PXP, Unnamed Road, Lanci Jaya, Kec. Manggalewa, Kabupaten Dompu, Nusa Tenggara Bar. 84253","Unnamed Road, Lanci Jaya, Kec. Manggalewa, Kabupaten Dompu",NUSA TENGGARA BARAT,84253.0,Indonesia,81911495002,,,-84.931.622,1.183.174.476,https://maps.google.com/?cid=0x0:0x93c6bdae21c89e10,
toko bangunan,Toko Bahan Bangunan,PT Global Indo Bangunan Sumbawa Besar,"Jl. Lintas Sumbawa - Bima No.KM 3, Seketeng, Kec. Sumbawa, Kabupaten Sumbawa, Nusa Tenggara Bar. 84311","Seketeng, Kec. Sumbawa, Kabupaten Sumbawa",NUSA TENGGARA BARAT,84311.0,Indonesia,87756777889,,,-85.280.955,1.174.330.853,https://maps.google.com/?cid=0x0:0x82c0227d47c942f7,
toko bangunan,Toko Bahan Bangunan,TOKO TAUFIK,"Jl. . Jenderal Sudirman No.27, Bada, Kec. Dompu, Kabupaten Dompu, Nusa Tenggara Bar. 84213","Bada, Kec. Dompu, Kabupaten Dompu",NUSA TENGGARA BARAT,84213.0,Indonesia,37321160,,,-85.394.741,1.184.608.954,https://maps.google.com/?cid=0x0:0xa99b586cc9779c94,
toko bangunan,toko bangunan,Bahan rangka atap Mitra Baja Grosir,"G975+G5J, Dusun janamawar, Persiapan Teka Sire, Kec. Manggalewa, Kabupaten Dompu, Nusa Tenggara Bar.","Kabupaten Dompu, Nusa Tenggara Bar.",NUSA TENGGARA BARAT,,Indonesia,,,,-8.486.151,1.183.578.828,https://maps.google.com/?cid=0x0:0x3a35b3e4d3145e8d,
toko bangunan,Toko Bahan Bangunan,Toko Bahan Bangunan Kurnia Utama,"Jl. Raya Dramaga No.KM.7 No.6, RT.03/RW.03, Margajaya, Kec. Bogor Bar., Kota Bogor, Jawa Barat 16116","RT.03/RW.03, Margajaya, Kec. Bogor Bar., Kota Bogor",NUSA TENGGARA BARAT,16116.0,Indonesia,85158887191,,,-65.727.982,1.067.426.687,https://maps.google.com/?cid=0x0:0xdcac130a5da31f3d,
toko bangunan,Toko Bahan Bangunan,Toko Aneka Murah,"Jalan K.h Sholeh Iskandar (jalan Baru Salabenda ) Km 13.8 No. 1, RT.01/RW.04, Kayu Manis, Tanah Sereal, Bogor Regency, West Java 16169","RT.01/RW.04, Kayu Manis, Tanah Sereal, Bogor Regency",NUSA TENGGARA BARAT,16169.0,Indonesia,81219898588,,,-65.286.943,1.067.654.627,https://maps.google.com/?cid=0x0:0x22231d5e17fac1e3,
toko bangunan,Toko Bahan Bangunan,Toko Bangunan dan Jasa Konstruksi Terdekat Termurah Bojong Gede Klik Bangunan Tugu Macan,"Jl. Tugu Macan, RT.04/RW.06, Ragajaya, Kecamatan Bojonggede, Kabupaten Bogor, Jawa Barat 16921","RT.04/RW.06, Ragajaya, Kecamatan Bojonggede, Kabupaten Bogor",NUSA TENGGARA BARAT,16921.0,Indonesia,81112300178,,,-64.543.174,1.067.851.182,https://maps.google.com/?cid=0x0:0x10cba26dd5400f52,
toko bangunan,Toko Bahan Bangunan,TB. KARYA BANGUNAN PASIR GAOK,"Jl. Raya Rancabungur No.1, RT.1/RW.1, Rancabungur, Kec. Ranca Bungur, Kabupaten Bogor, Jawa Barat 16310","RT.1/RW.1, Rancabungur, Kec. Ranca Bungur, Kabupaten Bogor",NUSA TENGGARA BARAT,16310.0,Indonesia,,,,-65.410.314,1.067.161.793,https://maps.google.com/?cid=0x0:0xc237572f4676c999,
toko bangunan,Toko Bahan Bangunan,TB. Dika Mandiri,"Jl. Babakan Lio No.4, RT.01/RW.07, Balungbangjaya, Kec. Bogor Bar., Kota Bogor, Jawa Barat 16116","RT.01/RW.07, Balungbangjaya, Kec. Bogor Bar., Kota Bogor",NUSA TENGGARA BARAT,16116.0,Indonesia,,,,-65.587.806,1.067.366.325,https://maps.google.com/?cid=0x0:0x2455cc918013ebc9,
toko bangunan,Toko Bahan Bangunan,Klik Bangunan Tanah Sereal,"Jl. Sholeh Iskandar, RT.01/RW.04, Cibadak, Kec. Tanah Sereal, Kota Bogor, Jawa Barat 16168","RT.01/RW.04, Cibadak, Kec. Tanah Sereal, Kota Bogor",NUSA TENGGARA BARAT,16168.0,Indonesia,81112300198,,,-65.465.421,106.773.674,https://maps.google.com/?cid=0x0:0x95c0f3480eeb194a,
toko bangunan,Toko Bahan Bangunan,Depo Bangunan Bogor,"Jalan Sholeh Iskandar No.Km 6,6, RT.01/RW.11, Kedungbadak, Kec. Tanah Sereal, Kota Bogor, Jawa Barat 16163","RT.01/RW.11, Kedungbadak, Kec. Tanah Sereal, Kota Bogor",NUSA TENGGARA BARAT,16163.0,Indonesia,2517558181,,,-65.618.952,1.067.965.448,https://maps.google.com/?cid=0x0:0xff1a413cca7d2790,
toko bangunan,Toko Bahan Bangunan,Klik Bangunan Parung  Toko Bahan  Jasa Bangun Renovasi Rumah Ciseeng Bogor,"Jl. Raya Pahlawan, Cogreg, Kec. Parung, Kabupaten Bogor, Jawa Barat 16330","Cogreg, Kec. Parung, Kabupaten Bogor",NUSA TENGGARA BARAT,16330.0,Indonesia,82228202018,,,-6.424.455,1.066.929.309,https://maps.google.com/?cid=0x0:0x961f448ddad545af,
toko bangunan,Toko Bahan Bangunan,Toko Bangunan PD Karya Muda,"Jl. Sholeh Iskandar No.93, RT.04/RW.04, Cibadak, Kec. Tanah Sereal, Kota Bogor, Jawa Barat 16166","RT.04/RW.04, Cibadak, Kec. Tanah Sereal, Kota Bogor",NUSA TENGGARA BARAT,16166.0,Indonesia,87776593530,,,-6.549.167,106.774.592,https://maps.google.com/?cid=0x0:0x224f3cf59830352c,
toko bangunan,Toko Bahan Bangunan,TB. Kiara Bangunan,"GPFJ+632, Jl. Kemang Kiara, Kemang, Kec. Kemang, Kabupaten Bogor, Jawa Barat 16310","Jl. Kemang Kiara, Kemang, Kec. Kemang, Kabupaten Bogor",NUSA TENGGARA BARAT,16310.0,Indonesia,8567178088,,,-65.087.419,1.067.536.907,https://maps.google.com/?cid=0x0:0x8d829dd46a92320d,
toko bangunan,Pemasok Bahan Bangunan,Tb.Murah.indah.2,"No.6 Blok H6, Jl. Villa Ciomas No.6, Ciomas Rahayu, Kec. Ciomas, Kabupaten Bogor, Jawa Barat 16610","Jl. Villa Ciomas No.6, Ciomas Rahayu, Kec. Ciomas, Kabupaten Bogor",NUSA TENGGARA BARAT,16610.0,Indonesia,8111503339,,,-65.987.044,1.067.665.508,https://maps.google.com/?cid=0x0:0x1518195236c19b55,
toko bangunan,Toko Bahan Bangunan,Toko Niaga Bangunan,"Deket Jl. Lkr. Utara, Karijawa, Kec. Dompu, Kabupaten Dompu, Nusa Tenggara Bar. 84216","Karijawa, Kec. Dompu, Kabupaten Dompu",NUSA TENGGARA BARAT,84216.0,Indonesia,82339774144,,,-85.320.637,1.184.537.654,https://maps.google.com/?cid=0x0:0x151f72cc40b0c79e,
toko bangunan,toko bangunan,Nusa Tenggara Bar. 84216,"Kabupaten Dompu, Nusa Tenggara Bar.","Kabupaten Dompu, Nusa Tenggara Bar.",NUSA TENGGARA BARAT,,Indonesia,,,,-85.455.416,1.184.484.367,https://maps.google.com/?cid=0x0:0x588c0621b5331cf5,
toko bangunan,Toko Bahan Bangunan,Toko Bahan Bangunan Anugerah Simpasai,"Jl. Buntu Simpasai Woja, Kandai Dua, Kec. Woja, Kabupaten Dompu, Nusa Tenggara Bar. 84218","Kandai Dua, Kec. Woja, Kabupaten Dompu",NUSA TENGGARA BARAT,84218.0,Indonesia,,,,-85.392.106,118.441.274,https://maps.google.com/?cid=0x0:0x4a5418154243ede5,
toko bangunan,Pusat Perbelanjaan,Aisyah Bangunan,"CCWJ+3MX, Jl. Lintas Wawonduru, Wawonduru, Kec. Woja, Kabupaten Dompu, Nusa Tenggara Bar. 84219","Jl. Lintas Wawonduru, Wawonduru, Kec. Woja, Kabupaten Dompu",NUSA TENGGARA BARAT,84219.0,Indonesia,85238591234,,,-85.547.669,1.184.317.258,https://maps.google.com/?cid=0x0:0xc59019e1a3f0370,
toko bangunan,Toko Bahan Bangunan,Depo Sumber Bangunan,"Jl. Baru Karijawa gg PS No.33, Karijawa, Kec. Dompu, Kabupaten Dompu, Nusa Tenggara Bar. 84213","Karijawa, Kec. Dompu, Kabupaten Dompu",NUSA TENGGARA BARAT,84213.0,Indonesia,81213393271,,,-8.531.509,1.184.546.781,https://maps.google.com/?cid=0x0:0x74aa1c95593ff6e7,
toko bangunan,Toko Bahan Bangunan,Toko Bangunan Bage Rezo,"jln pahlawan no.10, Kandai Dua, Kec. Woja, Kabupaten Dompu, Nusa Tenggara Bar. 84219","Kandai Dua, Kec. Woja, Kabupaten Dompu",NUSA TENGGARA BARAT,84219.0,Indonesia,82339754936,,,-8.543.326,1.184.326.834,https://maps.google.com/?cid=0x0:0x9583b7cca9ab328,
toko bangunan,Toko Bahan Bangunan,Toko Bangunan Anugrah Bara,"C9XQ+WQM, Jl. Lintas Sumbawa - Bima, Bara, Kec. Woja, Kabupaten Dompu, Nusa Tenggara Bar. 84251","Jl. Lintas Sumbawa - Bima, Bara, Kec. Woja, Kabupaten Dompu",NUSA TENGGARA BARAT,84251.0,Indonesia,,,,-85.501.731,1.183.894.253,https://maps.google.com/?cid=0x0:0x7aef164de79ee975,
toko bangunan,Toko Bahan Bangunan,Toko A'A tehnical,"FF66+W7Q, Jl. Lele, Bali, Kec. Dompu, Kabupaten Dompu, Nusa Tenggara Bar. 84213","Jl. Lele, Bali, Kec. Dompu, Kabupaten Dompu",NUSA TENGGARA BARAT,84213.0,Indonesia,82342792973,,,-85.376.715,1.184.607.318,https://maps.google.com/?cid=0x0:0xc95ec457333d49eb,
toko bangunan,Toko Perlengkapan Rumah,Toko Al-Hidayah,"Jl. Buntu Simpasai Woja, Kandai Dua, Kec. Woja, Kabupaten Dompu, Nusa Tenggara Bar. 84219","Kandai Dua, Kec. Woja, Kabupaten Dompu",NUSA TENGGARA BARAT,84219.0,Indonesia,81312976013,,,-85.393.217,1.184.407.717,https://maps.google.com/?cid=0x0:0xec856f1b31465ef7,
toko bangunan,Toko,Bintang Bangunan Jaya,"FF93+8XH, Jl. Lintas Sumbawa - Bima, Karijawa, Kec. Dompu, Kabupaten Dompu, Nusa Tenggara Bar. 84213","Jl. Lintas Sumbawa - Bima, Karijawa, Kec. Dompu, Kabupaten Dompu",NUSA TENGGARA BARAT,84213.0,Indonesia,81338962241,,,-85.316.871,1.184.549.838,https://maps.google.com/?cid=0x0:0x26b53beb1ea4442d,
toko bangunan,Toko Bahan Bangunan,Ud. Zam Zam,"FC4R+5GH, Jl. Lintas Sumbawa - Bima, Simpasai, Kec. Woja, Kabupaten Dompu, Nusa Tenggara Bar. 84218","Jl. Lintas Sumbawa - Bima, Simpasai, Kec. Woja, Kabupaten Dompu",NUSA TENGGARA BARAT,84218.0,Indonesia,,,,-85.445.643,1.184.413.514,https://maps.google.com/?cid=0x0:0x1f0eee75cc4a17fe,
toko bangunan,Toko Bahan Bangunan,TK. Sentral Jaya,"Jl. . Jenderal Sudirman, Bada, Kec. Dompu, Kabupaten Dompu, Nusa Tenggara Bar. 84213","Bada, Kec. Dompu, Kabupaten Dompu",NUSA TENGGARA BARAT,84213.0,Indonesia,82145830000,,,-85.394.137,1.184.598.675,https://maps.google.com/?cid=0x0:0xaf5c5d430f1a62b7,
toko bangunan,Toko Bahan Bangunan,Tb. Mataram,"FF66+78F, Jl. . Jenderal Sudirman, Bada, Kec. Dompu, Kabupaten Dompu, Nusa Tenggara Bar. 84213","Jl. . Jenderal Sudirman, Bada, Kec. Dompu, Kabupaten Dompu",NUSA TENGGARA BARAT,84213.0,Indonesia,,,,-85.393.228,1.184.608.038,https://maps.google.com/?cid=0x0:0x1a78f82c6f462f29,
toko bangunan,Toko Bahan Bangunan,UD Selamat,"CFP4+CRJ, Unnamed Road, Dorebara, Kec. Dompu, Kabupaten Dompu, Nusa Tenggara Bar. 84219","Unnamed Road, Dorebara, Kec. Dompu, Kabupaten Dompu",NUSA TENGGARA BARAT,84219.0,Indonesia,,,,-85.639.223,1.184.570.141,https://maps.google.com/?cid=0x0:0x3f8e70fa9cd6f99e,
toko bangunan,Toko Bahan Bangunan,TOKO TAUFIK,"Jl. . Jenderal Sudirman No.27, Bada, Kec. Dompu, Kabupaten Dompu, Nusa Tenggara Bar. 84213","Bada, Kec. Dompu, Kabupaten Dompu",NUSA TENGGARA BARAT,84213.0,Indonesia,37321160,,,-85.394.741,1.184.608.954,https://maps.google.com/?cid=0x0:0xa99b586cc9779c94,
toko bangunan,Pusat Perbelanjaan,Toko Ais Jaya,"Jl. Sultan Hasanuddin No.48, Karijawa, Kec. Dompu, Kabupaten Dompu, Nusa Tenggara Bar. 84216","Karijawa, Kec. Dompu, Kabupaten Dompu",NUSA TENGGARA BARAT,84216.0,Indonesia,81287359191,,,-85.431.496,1.184.513.381,https://maps.google.com/?cid=0x0:0xa233f4e49727da3a,
toko bangunan,Toko bahan makanan,Toko Putri,"CFV3+9R8, Kandai Satu, Kec. Dompu, Kabupaten Dompu, Nusa Tenggara Bar. 84217","Kandai Satu, Kec. Dompu, Kabupaten Dompu",NUSA TENGGARA BARAT,84217.0,Indonesia,37321132,,,-8.556.578,11.845.459,https://maps.google.com/?cid=0x0:0x7e86349385dca876,
toko bangunan,Toko Bahan Bangunan,Azizah plafon pvc,"Jl. Lele No.1, Bali, Kec. Dompu, Kabupaten Dompu, Nusa Tenggara Bar. 84213","Bali, Kec. Dompu, Kabupaten Dompu",NUSA TENGGARA BARAT,84213.0,Indonesia,81287663379,,,-85.354.589,1.184.610.978,https://maps.google.com/?cid=0x0:0x94239182ea395f34,
toko bangunan,toko bangunan,TOKO BANGUNAN,"Kandai Dua, Kec. Woja, Kabupaten Dompu, Nusa Tenggara Bar.","Kabupaten Dompu, Nusa Tenggara Bar.",NUSA TENGGARA BARAT,,Indonesia,,,,-85.469.366,1.184.318.258,https://maps.google.com/?cid=0x0:0xfb67176edde2808f,
toko bangunan,Toko Bahan Bangunan,UD Noval Bali 1 Dompu,"Lingkungan swete Bali 1, Kabupaten Dompu, Nusa Tenggara Bar. 84213",Kabupaten Dompu,NUSA TENGGARA BARAT,84213.0,Indonesia,85333140108,,,-85.288.085,1.184.613.026,https://maps.google.com/?cid=0x0:0x22070157cd77818a,
toko bangunan,Toko Bahan Bangunan,YASINDO JAYA,"Jl. Lintas Sumbawa - Bima No.51, Matua, Kec. Woja, Kabupaten Dompu, Nusa Tenggara Bar. 84251","Matua, Kec. Woja, Kabupaten Dompu",NUSA TENGGARA BARAT,84251.0,Indonesia,81238569021,,,-85.465.252,1.184.207.831,https://maps.google.com/?cid=0x0:0x4feb8cea8d83a87b,
toko bangunan,Kantor Perusahaan,TB. Bangkit Bersama,"Dusun Dorongguni, Kareke, Kec. Dompu, Kabupaten Dompu, Nusa Tenggara Bar. 84219","Kareke, Kec. Dompu, Kabupaten Dompu",NUSA TENGGARA BARAT,84219.0,Indonesia,82340031984,,,-85.511.303,1.184.811.153,https://maps.google.com/?cid=0x0:0x503b570080f8a30a,
toko bangunan,toko bangunan,Nusa Tenggara Bar. 84218,"Kec. Woja, Kabupaten Dompu, Nusa Tenggara Bar.","Kabupaten Dompu, Nusa Tenggara Bar.",NUSA TENGGARA BARAT,,Indonesia,,,,-85.464.715,1.184.367.551,https://maps.google.com/?cid=0x0:0xb59074d297d4d9d7,
toko bangunan,Pusat Perbelanjaan,Aisyah Bangunan,"CCWJ+3MX, Jl. Lintas Wawonduru, Wawonduru, Kec. Woja, Kabupaten Dompu, Nusa Tenggara Bar. 84219","Jl. Lintas Wawonduru, Wawonduru, Kec. Woja, Kabupaten Dompu",NUSA TENGGARA BARAT,84219.0,Indonesia,85238591234,,,-85.547.669,1.184.317.258,https://maps.google.com/?cid=0x0:0xc59019e1a3f0370,
toko bangunan,Toko Bahan Bangunan,Toko Bangunan Bage Rezo,"jln pahlawan no.10, Kandai Dua, Kec. Woja, Kabupaten Dompu, Nusa Tenggara Bar. 84219","Kandai Dua, Kec. Woja, Kabupaten Dompu",NUSA TENGGARA BARAT,84219.0,Indonesia,82339754936,,,-8.543.326,1.184.326.834,https://maps.google.com/?cid=0x0:0x9583b7cca9ab328,
toko bangunan,Toko Bahan Bangunan,Toko Niaga Bangunan,"Deket Jl. Lkr. Utara, Karijawa, Kec. Dompu, Kabupaten Dompu, Nusa Tenggara Bar. 84216","Karijawa, Kec. Dompu, Kabupaten Dompu",NUSA TENGGARA BARAT,84216.0,Indonesia,82339774144,,,-85.320.637,1.184.537.654,https://maps.google.com/?cid=0x0:0x151f72cc40b0c79e,
toko bangunan,Toko Bahan Bangunan,Toko Bangunan Anugrah Bara,"C9XQ+WQM, Jl. Lintas Sumbawa - Bima, Bara, Kec. Woja, Kabupaten Dompu, Nusa Tenggara Bar. 84251","Jl. Lintas Sumbawa - Bima, Bara, Kec. Woja, Kabupaten Dompu",NUSA TENGGARA BARAT,84251.0,Indonesia,,,,-85.501.731,1.183.894.253,https://maps.google.com/?cid=0x0:0x7aef164de79ee975,
toko bangunan,Toko Bahan Bangunan,Toko Jakarta Bahan Bangunan,"FC4X+MH6 Sebrang SD 02, Lingkungan Dore, RT.005/RW.003, Simpasai, Kec. Woja, Kabupaten Dompu, Nusa Tenggara Bar.","Kabupaten Dompu, Nusa Tenggara Bar.",NUSA TENGGARA BARAT,,Indonesia,85239000255,,,-85.433.357,1.184.489.045,https://maps.google.com/?cid=0x0:0xb20b1a0641dff591,
toko bangunan,Toko Perlengkapan Rumah,Toko Al-Hidayah,"Jl. Buntu Simpasai Woja, Kandai Dua, Kec. Woja, Kabupaten Dompu, Nusa Tenggara Bar. 84219","Kandai Dua, Kec. Woja, Kabupaten Dompu",NUSA TENGGARA BARAT,84219.0,Indonesia,81312976013,,,-85.393.217,1.184.407.717,https://maps.google.com/?cid=0x0:0xec856f1b31465ef7,
toko bangunan,Toko Bahan Bangunan,Depo Sumber Bangunan,"Jl. Baru Karijawa gg PS No.33, Karijawa, Kec. Dompu, Kabupaten Dompu, Nusa Tenggara Bar. 84213","Karijawa, Kec. Dompu, Kabupaten Dompu",NUSA TENGGARA BARAT,84213.0,Indonesia,81213393271,,,-8.531.509,1.184.546.781,https://maps.google.com/?cid=0x0:0x74aa1c95593ff6e7,
toko bangunan,Toko Bahan Bangunan,Golden Bangunan,"Unnamed Road Nusa Tenggara Bar. 84251, Matua, Kec. Woja, Kabupaten Dompu, Nusa Tenggara Bar. 84251","Matua, Kec. Woja, Kabupaten Dompu",NUSA TENGGARA BARAT,84251.0,Indonesia,8176931226,,,-85.290.136,1.184.167.336,https://maps.google.com/?cid=0x0:0x1fcc4f303b373f35,
toko bangunan,Toko Bahan Bangunan,YASINDO JAYA,"Jl. Lintas Sumbawa - Bima No.51, Matua, Kec. Woja, Kabupaten Dompu, Nusa Tenggara Bar. 84251","Matua, Kec. Woja, Kabupaten Dompu",NUSA TENGGARA BARAT,84251.0,Indonesia,81238569021,,,-85.465.252,1.184.207.831,https://maps.google.com/?cid=0x0:0x4feb8cea8d83a87b,
toko bangunan,Toko Bahan Bangunan,Ud. Zam Zam,"FC4R+5GH, Jl. Lintas Sumbawa - Bima, Simpasai, Kec. Woja, Kabupaten Dompu, Nusa Tenggara Bar. 84218","Jl. Lintas Sumbawa - Bima, Simpasai, Kec. Woja, Kabupaten Dompu",NUSA TENGGARA BARAT,84218.0,Indonesia,,,,-85.445.643,1.184.413.514,https://maps.google.com/?cid=0x0:0x1f0eee75cc4a17fe,
toko bangunan,toko bangunan,TOKO BANGUNAN,"Kandai Dua, Kec. Woja, Kabupaten Dompu, Nusa Tenggara Bar.","Kabupaten Dompu, Nusa Tenggara Bar.",NUSA TENGGARA BARAT,,Indonesia,,,,-85.469.366,1.184.318.258,https://maps.google.com/?cid=0x0:0xfb67176edde2808f,
toko bangunan,Toko Bahan Bangunan,Toko A'A tehnical,"FF66+W7Q, Jl. Lele, Bali, Kec. Dompu, Kabupaten Dompu, Nusa Tenggara Bar. 84213","Jl. Lele, Bali, Kec. Dompu, Kabupaten Dompu",NUSA TENGGARA BARAT,84213.0,Indonesia,82342792973,,,-85.376.715,1.184.607.318,https://maps.google.com/?cid=0x0:0xc95ec457333d49eb,
toko bangunan,Toko,Bintang Bangunan Jaya,"FF93+8XH, Jl. Lintas Sumbawa - Bima, Karijawa, Kec. Dompu, Kabupaten Dompu, Nusa Tenggara Bar. 84213","Jl. Lintas Sumbawa - Bima, Karijawa, Kec. Dompu, Kabupaten Dompu",NUSA TENGGARA BARAT,84213.0,Indonesia,81338962241,,,-85.316.871,1.184.549.838,https://maps.google.com/?cid=0x0:0x26b53beb1ea4442d,
toko bangunan,Toko Bahan Bangunan,surya bangunan,"Jl. Lintas Sumbawa - Bima, Soriutu, Kec. Manggalewa, Kabupaten Dompu, Nusa Tenggara Bar.","Kabupaten Dompu, Nusa Tenggara Bar.",NUSA TENGGARA BARAT,,Indonesia,81338408886,,,-85.200.762,1.183.187.578,https://maps.google.com/?cid=0x0:0x52ef9d1d200d04a7,
toko bangunan,Toko Bahan Bangunan,TOKO TAUFIK,"Jl. . Jenderal Sudirman No.27, Bada, Kec. Dompu, Kabupaten Dompu, Nusa Tenggara Bar. 84213","Bada, Kec. Dompu, Kabupaten Dompu",NUSA TENGGARA BARAT,84213.0,Indonesia,37321160,,,-85.394.741,1.184.608.954,https://maps.google.com/?cid=0x0:0xa99b586cc9779c94,
toko bangunan,Toko Bahan Bangunan,Tb. Mataram,"FF66+78F, Jl. . Jenderal Sudirman, Bada, Kec. Dompu, Kabupaten Dompu, Nusa Tenggara Bar. 84213","Jl. . Jenderal Sudirman, Bada, Kec. Dompu, Kabupaten Dompu",NUSA TENGGARA BARAT,84213.0,Indonesia,,,,-85.393.228,1.184.608.038,https://maps.google.com/?cid=0x0:0x1a78f82c6f462f29,
toko bangunan,Toko Bahan Bangunan,Toko Bangunan Jonawan,"7P2J+4H5, Jl. Lintas Sumbawa - Bima, Brang Kolong, Kec. Plampang, Kabupaten Sumbawa, Nusa Tenggara Bar. 84383","Jl. Lintas Sumbawa - Bima, Brang Kolong, Kec. Plampang, Kabupaten Sumbawa",NUSA TENGGARA BARAT,84383.0,Indonesia,,,,-87.497.263,1.177.314.988,https://maps.google.com/?cid=0x0:0x168492a0befb48dc,
toko bangunan,Kantor Perusahaan,TB. Bangkit Bersama,"Dusun Dorongguni, Kareke, Kec. Dompu, Kabupaten Dompu, Nusa Tenggara Bar. 84219","Kareke, Kec. Dompu, Kabupaten Dompu",NUSA TENGGARA BARAT,84219.0,Indonesia,82340031984,,,-85.511.303,1.184.811.153,https://maps.google.com/?cid=0x0:0x503b570080f8a30a,
toko bangunan,Toko Bahan Bangunan,Toko Cipta Baru,"JL. Paok Motong, No. 08, Masbagik, Paok Motong, Kec. Selong, Kabupaten Lombok Timur, Nusa Tenggara Bar. 83661","No. 08, Masbagik, Paok Motong, Kec. Selong, Kabupaten Lombok Timur",NUSA TENGGARA BARAT,83661.0,Indonesia,818547933,,,-86.261.582,1.164.586.952,https://maps.google.com/?cid=0x0:0xe5122257035c1ef0,
toko bangunan,Toko Bahan Bangunan,TK. Sentral Jaya,"Jl. . Jenderal Sudirman, Bada, Kec. Dompu, Kabupaten Dompu, Nusa Tenggara Bar. 84213","Bada, Kec. Dompu, Kabupaten Dompu",NUSA TENGGARA BARAT,84213.0,Indonesia,82145830000,,,-85.394.137,1.184.598.675,https://maps.google.com/?cid=0x0:0xaf5c5d430f1a62b7,
toko bangunan,Toko Bahan Bangunan,Azizah plafon pvc,"Jl. Lele No.1, Bali, Kec. Dompu, Kabupaten Dompu, Nusa Tenggara Bar. 84213","Bali, Kec. Dompu, Kabupaten Dompu",NUSA TENGGARA BARAT,84213.0,Indonesia,81287663379,,,-85.354.589,1.184.610.978,https://maps.google.com/?cid=0x0:0x94239182ea395f34,
toko bangunan,Toko Bahan Bangunan,UD Selamat,"CFP4+CRJ, Unnamed Road, Dorebara, Kec. Dompu, Kabupaten Dompu, Nusa Tenggara Bar. 84219","Unnamed Road, Dorebara, Kec. Dompu, Kabupaten Dompu",NUSA TENGGARA BARAT,84219.0,Indonesia,,,,-85.639.223,1.184.570.141,https://maps.google.com/?cid=0x0:0x3f8e70fa9cd6f99e,
toko bangunan,Pusat Perbelanjaan,Toko Ais Jaya,"Jl. Sultan Hasanuddin No.48, Karijawa, Kec. Dompu, Kabupaten Dompu, Nusa Tenggara Bar. 84216","Karijawa, Kec. Dompu, Kabupaten Dompu",NUSA TENGGARA BARAT,84216.0,Indonesia,81287359191,,,-85.431.496,1.184.513.381,https://maps.google.com/?cid=0x0:0xa233f4e49727da3a,
toko bangunan,toko bangunan,Nusa Tenggara Bar. 84219,"Kabupaten Dompu, Nusa Tenggara Bar.","Kabupaten Dompu, Nusa Tenggara Bar.",NUSA TENGGARA BARAT,,Indonesia,,,,-8.455.389,1.184.980.744,https://maps.google.com/?cid=0x0:0xd1ca28c719867916,
toko bangunan,Toko Bahan Bangunan,Toko Bangunan Bage Rezo,"jln pahlawan no.10, Kandai Dua, Kec. Woja, Kabupaten Dompu, Nusa Tenggara Bar. 84219","Kandai Dua, Kec. Woja, Kabupaten Dompu",NUSA TENGGARA BARAT,84219.0,Indonesia,82339754936,,,-8.543.326,1.184.326.834,https://maps.google.com/?cid=0x0:0x9583b7cca9ab328,
toko bangunan,Pusat Perbelanjaan,Aisyah Bangunan,"CCWJ+3MX, Jl. Lintas Wawonduru, Wawonduru, Kec. Woja, Kabupaten Dompu, Nusa Tenggara Bar. 84219","Jl. Lintas Wawonduru, Wawonduru, Kec. Woja, Kabupaten Dompu",NUSA TENGGARA BARAT,84219.0,Indonesia,85238591234,,,-85.547.669,1.184.317.258,https://maps.google.com/?cid=0x0:0xc59019e1a3f0370,
toko bangunan,Toko Bahan Bangunan,Toko Niaga Bangunan,"Deket Jl. Lkr. Utara, Karijawa, Kec. Dompu, Kabupaten Dompu, Nusa Tenggara Bar. 84216","Karijawa, Kec. Dompu, Kabupaten Dompu",NUSA TENGGARA BARAT,84216.0,Indonesia,82339774144,,,-85.320.637,1.184.537.654,https://maps.google.com/?cid=0x0:0x151f72cc40b0c79e,
toko bangunan,Toko Bahan Bangunan,Toko Bahan Bangunan Anugerah Simpasai,"Jl. Buntu Simpasai Woja, Kandai Dua, Kec. Woja, Kabupaten Dompu, Nusa Tenggara Bar. 84218","Kandai Dua, Kec. Woja, Kabupaten Dompu",NUSA TENGGARA BARAT,84218.0,Indonesia,,,,-85.392.106,118.441.274,https://maps.google.com/?cid=0x0:0x4a5418154243ede5,
toko bangunan,Toko Bahan Bangunan,Toko Jakarta Bahan Bangunan,"FC4X+MH6 Sebrang SD 02, Lingkungan Dore, RT.005/RW.003, Simpasai, Kec. Woja, Kabupaten Dompu, Nusa Tenggara Bar.","Kabupaten Dompu, Nusa Tenggara Bar.",NUSA TENGGARA BARAT,,Indonesia,85239000255,,,-85.433.357,1.184.489.045,https://maps.google.com/?cid=0x0:0xb20b1a0641dff591,
toko bangunan,Toko Bahan Bangunan,YASINDO JAYA,"Jl. Lintas Sumbawa - Bima No.51, Matua, Kec. Woja, Kabupaten Dompu, Nusa Tenggara Bar. 84251","Matua, Kec. Woja, Kabupaten Dompu",NUSA TENGGARA BARAT,84251.0,Indonesia,81238569021,,,-85.465.252,1.184.207.831,https://maps.google.com/?cid=0x0:0x4feb8cea8d83a87b,
toko bangunan,Toko Bahan Bangunan,Depo Sumber Bangunan,"Jl. Baru Karijawa gg PS No.33, Karijawa, Kec. Dompu, Kabupaten Dompu, Nusa Tenggara Bar. 84213","Karijawa, Kec. Dompu, Kabupaten Dompu",NUSA TENGGARA BARAT,84213.0,Indonesia,81213393271,,,-8.531.509,1.184.546.781,https://maps.google.com/?cid=0x0:0x74aa1c95593ff6e7,
toko bangunan,Kantor Perusahaan,TB. Bangkit Bersama,"Dusun Dorongguni, Kareke, Kec. Dompu, Kabupaten Dompu, Nusa Tenggara Bar. 84219","Kareke, Kec. Dompu, Kabupaten Dompu",NUSA TENGGARA BARAT,84219.0,Indonesia,82340031984,,,-85.511.303,1.184.811.153,https://maps.google.com/?cid=0x0:0x503b570080f8a30a,
toko bangunan,Toko Bahan Bangunan,Golden Bangunan,"Unnamed Road Nusa Tenggara Bar. 84251, Matua, Kec. Woja, Kabupaten Dompu, Nusa Tenggara Bar. 84251","Matua, Kec. Woja, Kabupaten Dompu",NUSA TENGGARA BARAT,84251.0,Indonesia,8176931226,,,-85.290.136,1.184.167.336,https://maps.google.com/?cid=0x0:0x1fcc4f303b373f35,
toko bangunan,Toko Perlengkapan Rumah,Toko Al-Hidayah,"Jl. Buntu Simpasai Woja, Kandai Dua, Kec. Woja, Kabupaten Dompu, Nusa Tenggara Bar. 84219","Kandai Dua, Kec. Woja, Kabupaten Dompu",NUSA TENGGARA BARAT,84219.0,Indonesia,81312976013,,,-85.393.217,1.184.407.717,https://maps.google.com/?cid=0x0:0xec856f1b31465ef7,
toko bangunan,Toko Bahan Bangunan,Toko A'A tehnical,"FF66+W7Q, Jl. Lele, Bali, Kec. Dompu, Kabupaten Dompu, Nusa Tenggara Bar. 84213","Jl. Lele, Bali, Kec. Dompu, Kabupaten Dompu",NUSA TENGGARA BARAT,84213.0,Indonesia,82342792973,,,-85.376.715,1.184.607.318,https://maps.google.com/?cid=0x0:0xc95ec457333d49eb,
toko bangunan,Toko Bahan Bangunan,Tb. Mataram,"FF66+78F, Jl. . Jenderal Sudirman, Bada, Kec. Dompu, Kabupaten Dompu, Nusa Tenggara Bar. 84213","Jl. . Jenderal Sudirman, Bada, Kec. Dompu, Kabupaten Dompu",NUSA TENGGARA BARAT,84213.0,Indonesia,,,,-85.393.228,1.184.608.038,https://maps.google.com/?cid=0x0:0x1a78f82c6f462f29,
toko bangunan,Toko Bahan Bangunan,UD Selamat,"CFP4+CRJ, Unnamed Road, Dorebara, Kec. Dompu, Kabupaten Dompu, Nusa Tenggara Bar. 84219","Unnamed Road, Dorebara, Kec. Dompu, Kabupaten Dompu",NUSA TENGGARA BARAT,84219.0,Indonesia,,,,-85.639.223,1.184.570.141,https://maps.google.com/?cid=0x0:0x3f8e70fa9cd6f99e,
toko bangunan,Toko Bahan Bangunan,TK. Sentral Jaya,"Jl. . Jenderal Sudirman, Bada, Kec. Dompu, Kabupaten Dompu, Nusa Tenggara Bar. 84213","Bada, Kec. Dompu, Kabupaten Dompu",NUSA TENGGARA BARAT,84213.0,Indonesia,82145830000,,,-85.394.137,1.184.598.675,https://maps.google.com/?cid=0x0:0xaf5c5d430f1a62b7,
toko bangunan,Toko,Bintang Bangunan Jaya,"FF93+8XH, Jl. Lintas Sumbawa - Bima, Karijawa, Kec. Dompu, Kabupaten Dompu, Nusa Tenggara Bar. 84213","Jl. Lintas Sumbawa - Bima, Karijawa, Kec. Dompu, Kabupaten Dompu",NUSA TENGGARA BARAT,84213.0,Indonesia,81338962241,,,-85.316.871,1.184.549.838,https://maps.google.com/?cid=0x0:0x26b53beb1ea4442d,
toko bangunan,Toko Bahan Bangunan,TOKO TAUFIK,"Jl. . Jenderal Sudirman No.27, Bada, Kec. Dompu, Kabupaten Dompu, Nusa Tenggara Bar. 84213","Bada, Kec. Dompu, Kabupaten Dompu",NUSA TENGGARA BARAT,84213.0,Indonesia,37321160,,,-85.394.741,1.184.608.954,https://maps.google.com/?cid=0x0:0xa99b586cc9779c94,
toko bangunan,toko bangunan,TOKO BANGUNAN,"Kandai Dua, Kec. Woja, Kabupaten Dompu, Nusa Tenggara Bar.","Kabupaten Dompu, Nusa Tenggara Bar.",NUSA TENGGARA BARAT,,Indonesia,,,,-85.469.366,1.184.318.258,https://maps.google.com/?cid=0x0:0xfb67176edde2808f,
toko bangunan,Toko Bahan Bangunan,Ud. Zam Zam,"FC4R+5GH, Jl. Lintas Sumbawa - Bima, Simpasai, Kec. Woja, Kabupaten Dompu, Nusa Tenggara Bar. 84218","Jl. Lintas Sumbawa - Bima, Simpasai, Kec. Woja, Kabupaten Dompu",NUSA TENGGARA BARAT,84218.0,Indonesia,,,,-85.445.643,1.184.413.514,https://maps.google.com/?cid=0x0:0x1f0eee75cc4a17fe,
toko bangunan,Toko,Rizky bangunan,"HG6F+9CM, Bumi Pajo, Kec. Donggo, Kabupaten Bima, Nusa Tenggara Bar. 84219","Bumi Pajo, Kec. Donggo, Kabupaten Bima",NUSA TENGGARA BARAT,84219.0,Indonesia,,,,-84.392.598,1.185.238.432,https://maps.google.com/?cid=0x0:0xa52f0085d5561143,
toko bangunan,Toko Bahan Bangunan,Azizah plafon pvc,"Jl. Lele No.1, Bali, Kec. Dompu, Kabupaten Dompu, Nusa Tenggara Bar. 84213","Bali, Kec. Dompu, Kabupaten Dompu",NUSA TENGGARA BARAT,84213.0,Indonesia,81287663379,,,-85.354.589,1.184.610.978,https://maps.google.com/?cid=0x0:0x94239182ea395f34,
toko bangunan,Toko Bahan Bangunan,Toko Bangunan Anugrah Bara,"C9XQ+WQM, Jl. Lintas Sumbawa - Bima, Bara, Kec. Woja, Kabupaten Dompu, Nusa Tenggara Bar. 84251","Jl. Lintas Sumbawa - Bima, Bara, Kec. Woja, Kabupaten Dompu",NUSA TENGGARA BARAT,84251.0,Indonesia,,,,-85.501.731,1.183.894.253,https://maps.google.com/?cid=0x0:0x7aef164de79ee975,
toko bangunan,toko bangunan,Nusa Tenggara Bar. 84251,"Kec. Woja, Kabupaten Dompu, Nusa Tenggara Bar.","Kabupaten Dompu, Nusa Tenggara Bar.",NUSA TENGGARA BARAT,,Indonesia,,,,-85.434.837,1.183.812.562,https://maps.google.com/?cid=0x0:0xd559d9dfdafacdb4,
toko bangunan,Toko Bahan Bangunan,Toko Bangunan Bage Rezo,"jln pahlawan no.10, Kandai Dua, Kec. Woja, Kabupaten Dompu, Nusa Tenggara Bar. 84219","Kandai Dua, Kec. Woja, Kabupaten Dompu",NUSA TENGGARA BARAT,84219.0,Indonesia,82339754936,,,-8.543.326,1.184.326.834,https://maps.google.com/?cid=0x0:0x9583b7cca9ab328,
toko bangunan,Pusat Perbelanjaan,Aisyah Bangunan,"CCWJ+3MX, Jl. Lintas Wawonduru, Wawonduru, Kec. Woja, Kabupaten Dompu, Nusa Tenggara Bar. 84219","Jl. Lintas Wawonduru, Wawonduru, Kec. Woja, Kabupaten Dompu",NUSA TENGGARA BARAT,84219.0,Indonesia,85238591234,,,-85.547.669,1.184.317.258,https://maps.google.com/?cid=0x0:0xc59019e1a3f0370,
toko bangunan,Toko Bahan Bangunan,Golden Bangunan,"Unnamed Road Nusa Tenggara Bar. 84251, Matua, Kec. Woja, Kabupaten Dompu, Nusa Tenggara Bar. 84251","Matua, Kec. Woja, Kabupaten Dompu",NUSA TENGGARA BARAT,84251.0,Indonesia,8176931226,,,-85.290.136,1.184.167.336,https://maps.google.com/?cid=0x0:0x1fcc4f303b373f35,
toko bangunan,Toko Bahan Bangunan,Toko Bahan Bangunan Anugerah Simpasai,"Jl. Buntu Simpasai Woja, Kandai Dua, Kec. Woja, Kabupaten Dompu, Nusa Tenggara Bar. 84218","Kandai Dua, Kec. Woja, Kabupaten Dompu",NUSA TENGGARA BARAT,84218.0,Indonesia,,,,-85.392.106,118.441.274,https://maps.google.com/?cid=0x0:0x4a5418154243ede5,
toko bangunan,Toko Perlengkapan Rumah,Toko Al-Hidayah,"Jl. Buntu Simpasai Woja, Kandai Dua, Kec. Woja, Kabupaten Dompu, Nusa Tenggara Bar. 84219","Kandai Dua, Kec. Woja, Kabupaten Dompu",NUSA TENGGARA BARAT,84219.0,Indonesia,81312976013,,,-85.393.217,1.184.407.717,https://maps.google.com/?cid=0x0:0xec856f1b31465ef7,
toko bangunan,Toko Bahan Bangunan,Depo Sumber Bangunan,"Jl. Baru Karijawa gg PS No.33, Karijawa, Kec. Dompu, Kabupaten Dompu, Nusa Tenggara Bar. 84213","Karijawa, Kec. Dompu, Kabupaten Dompu",NUSA TENGGARA BARAT,84213.0,Indonesia,81213393271,,,-8.531.509,1.184.546.781,https://maps.google.com/?cid=0x0:0x74aa1c95593ff6e7,
toko bangunan,Toko Bahan Bangunan,Toko Jakarta Bahan Bangunan,"FC4X+MH6 Sebrang SD 02, Lingkungan Dore, RT.005/RW.003, Simpasai, Kec. Woja, Kabupaten Dompu, Nusa Tenggara Bar.","Kabupaten Dompu, Nusa Tenggara Bar.",NUSA TENGGARA BARAT,,Indonesia,85239000255,,,-85.433.357,1.184.489.045,https://maps.google.com/?cid=0x0:0xb20b1a0641dff591,
toko bangunan,Toko Bahan Bangunan,Toko Niaga Bangunan,"Deket Jl. Lkr. Utara, Karijawa, Kec. Dompu, Kabupaten Dompu, Nusa Tenggara Bar. 84216","Karijawa, Kec. Dompu, Kabupaten Dompu",NUSA TENGGARA BARAT,84216.0,Indonesia,82339774144,,,-85.320.637,1.184.537.654,https://maps.google.com/?cid=0x0:0x151f72cc40b0c79e,
toko bangunan,Kantor Perusahaan,Wawonduru kampo gudang,"CCGC+3VR, Wawonduru, Kec. Woja, Kabupaten Dompu, Nusa Tenggara Bar.","Kabupaten Dompu, Nusa Tenggara Bar.",NUSA TENGGARA BARAT,,Indonesia,,,,-85.747.656,1.184.221.519,https://maps.google.com/?cid=0x0:0xd109ef5082091643,
toko bangunan,toko bangunan,TOKO BANGUNAN,"Kandai Dua, Kec. Woja, Kabupaten Dompu, Nusa Tenggara Bar.","Kabupaten Dompu, Nusa Tenggara Bar.",NUSA TENGGARA BARAT,,Indonesia,,,,-85.469.366,1.184.318.258,https://maps.google.com/?cid=0x0:0xfb67176edde2808f,
toko bangunan,Toko Bahan Bangunan,Ud. Zam Zam,"FC4R+5GH, Jl. Lintas Sumbawa - Bima, Simpasai, Kec. Woja, Kabupaten Dompu, Nusa Tenggara Bar. 84218","Jl. Lintas Sumbawa - Bima, Simpasai, Kec. Woja, Kabupaten Dompu",NUSA TENGGARA BARAT,84218.0,Indonesia,,,,-85.445.643,1.184.413.514,https://maps.google.com/?cid=0x0:0x1f0eee75cc4a17fe,
toko bangunan,Toko Bahan Bangunan,surya bangunan,"Jl. Lintas Sumbawa - Bima, Soriutu, Kec. Manggalewa, Kabupaten Dompu, Nusa Tenggara Bar.","Kabupaten Dompu, Nusa Tenggara Bar.",NUSA TENGGARA BARAT,,Indonesia,81338408886,,,-85.200.762,1.183.187.578,https://maps.google.com/?cid=0x0:0x52ef9d1d200d04a7,
toko bangunan,Toko Bahan Bangunan,Toko Mitra Bangunan,"Jl. Lintas Sumbawa - Bima No.501, Soriutu, Kec. Manggalewa, Kabupaten Dompu, Nusa Tenggara Bar. 84253","Soriutu, Kec. Manggalewa, Kabupaten Dompu",NUSA TENGGARA BARAT,84253.0,Indonesia,85333990765,,,-85.228.302,1.183.172.343,https://maps.google.com/?cid=0x0:0xd7314bf45ce0da44,
toko bangunan,Toko Bahan Bangunan,Toko Cahaya Bone,"F8J9+GWW, Soriutu, Kec. Manggalewa, Kabupaten Dompu, Nusa Tenggara Bar. 84253","Soriutu, Kec. Manggalewa, Kabupaten Dompu",NUSA TENGGARA BARAT,84253.0,Indonesia,,,,-85.186.328,1.183.198.358,https://maps.google.com/?cid=0x0:0xd6e16935f07a4b07,
toko bangunan,toko bangunan,Bahan rangka atap Mitra Baja Grosir,"G975+G5J, Dusun janamawar, Persiapan Teka Sire, Kec. Manggalewa, Kabupaten Dompu, Nusa Tenggara Bar.","Kabupaten Dompu, Nusa Tenggara Bar.",NUSA TENGGARA BARAT,,Indonesia,,,,-8.486.151,1.183.578.828,https://maps.google.com/?cid=0x0:0x3a35b3e4d3145e8d,
toko bangunan,Toko Bahan Bangunan,Mapan Jaya,"F8JC+H57, Jl. Lintas Sumbawa - Bima, Soriutu, Kec. Manggalewa, Kabupaten Dompu, Nusa Tenggara Bar. 84253","Jl. Lintas Sumbawa - Bima, Soriutu, Kec. Manggalewa, Kabupaten Dompu",NUSA TENGGARA BARAT,84253.0,Indonesia,82146912395,,,-8.518.594,1.183.204.105,https://maps.google.com/?cid=0x0:0xac1f494f4861b180,
toko bangunan,toko bangunan,Toko Bangunan Ud.Tiga Putri Bara,"Bara, Kec. Woja, Kabupaten Dompu, Nusa Tenggara Bar.","Kabupaten Dompu, Nusa Tenggara Bar.",NUSA TENGGARA BARAT,,Indonesia,,,,-85.490.824,1.183.998.512,https://maps.google.com/?cid=0x0:0xd9986b79fb9a544c,
toko bangunan,Toko Bahan Bangunan,TB. Ameerah Justin Jaya,"7C8W+C9Q, Rasabou, Kec. Hu'u, Kabupaten Dompu, Nusa Tenggara Bar. 84271","Rasabou, Kec. Hu'u, Kabupaten Dompu",NUSA TENGGARA BARAT,84271.0,Indonesia,85239050249,,,-87.329.419,1.184.466.227,https://maps.google.com/?cid=0x0:0xf08820de0e80b43a,
toko bangunan,Kios,Kios Bang Ambons Kelontong,"CCX6+Q2, Bakajaya, Kec. Woja, Kabupaten Dompu, Nusa Tenggara Bar. 84251","Bakajaya, Kec. Woja, Kabupaten Dompu",NUSA TENGGARA BARAT,84251.0,Indonesia,,,,-85.504.969,1.184.101.079,https://maps.google.com/?cid=0x0:0xf0a0004907630528,
toko bangunan,toko bangunan,Pekat,"Calabai, Kec. Pekat, Kabupaten Dompu, Nusa Tenggara Bar.","Kabupaten Dompu, Nusa Tenggara Bar.",NUSA TENGGARA BARAT,,Indonesia,,,,-8.238.184,117.715.797,https://maps.google.com/?cid=0x0:0x5890663b56067254,
toko bangunan,Toko Bahan Bangunan,Yusuf Bagunan,"RQ83+6X9, Jl. Raya, kedindi atas, Calabai, Kadindi, Kec. Pekat, Kabupaten Dompu, Nusa Tenggara Bar. 84261","Jl. Raya, kedindi atas, Calabai, Kadindi, Kec. Pekat, Kabupaten Dompu",NUSA TENGGARA BARAT,84261.0,Indonesia,82359347889,,,-81.844.534,1.177.549.752,https://maps.google.com/?cid=0x0:0x4e6aed5d7a078f5f,
toko bangunan,Toko Bahan Bangunan,Toko Bangunan Bage Rezo,"jln pahlawan no.10, Kandai Dua, Kec. Woja, Kabupaten Dompu, Nusa Tenggara Bar. 84219","Kandai Dua, Kec. Woja, Kabupaten Dompu",NUSA TENGGARA BARAT,84219.0,Indonesia,82339754936,,,-8.543.326,1.184.326.834,https://maps.google.com/?cid=0x0:0x9583b7cca9ab328,
toko bangunan,Toko Bahan Bangunan,Depo Sumber Bangunan,"Jl. Baru Karijawa gg PS No.33, Karijawa, Kec. Dompu, Kabupaten Dompu, Nusa Tenggara Bar. 84213","Karijawa, Kec. Dompu, Kabupaten Dompu",NUSA TENGGARA BARAT,84213.0,Indonesia,81213393271,,,-8.531.509,1.184.546.781,https://maps.google.com/?cid=0x0:0x74aa1c95593ff6e7,
toko bangunan,Toko Bahan Bangunan,Toko Niaga Bangunan,"Deket Jl. Lkr. Utara, Karijawa, Kec. Dompu, Kabupaten Dompu, Nusa Tenggara Bar. 84216","Karijawa, Kec. Dompu, Kabupaten Dompu",NUSA TENGGARA BARAT,84216.0,Indonesia,82339774144,,,-85.320.637,1.184.537.654,https://maps.google.com/?cid=0x0:0x151f72cc40b0c79e,
toko bangunan,Toko Bahan Bangunan,TB. SEMBILAN PEKAT,"Persiapan Karombo, Kec. Pekat, Kabupaten Dompu, Nusa Tenggara Bar.","Kabupaten Dompu, Nusa Tenggara Bar.",NUSA TENGGARA BARAT,,Indonesia,85338621346,,,-81.864.219,1.177.165.222,https://maps.google.com/?cid=0x0:0x2b16144522c00d14,
toko bangunan,Toko Bahan Bangunan,Toko Cipta Baru,"JL. Paok Motong, No. 08, Masbagik, Paok Motong, Kec. Selong, Kabupaten Lombok Timur, Nusa Tenggara Bar. 83661","No. 08, Masbagik, Paok Motong, Kec. Selong, Kabupaten Lombok Timur",NUSA TENGGARA BARAT,83661.0,Indonesia,818547933,,,-86.261.582,1.164.586.952,https://maps.google.com/?cid=0x0:0xe5122257035c1ef0,
toko bangunan,Toko Bahan Bangunan,UD Maria Mandiri,"Kadindi Bar., Kec. Pekat, Kabupaten Dompu, Nusa Tenggara Bar. 84261","Kec. Pekat, Kabupaten Dompu",NUSA TENGGARA BARAT,84261.0,Indonesia,,,,-81.777.114,1.177.384.056,https://maps.google.com/?cid=0x0:0xf1ebcd84f1748636,
toko bangunan,Kantor Perusahaan,TB. Bangkit Bersama,"Dusun Dorongguni, Kareke, Kec. Dompu, Kabupaten Dompu, Nusa Tenggara Bar. 84219","Kareke, Kec. Dompu, Kabupaten Dompu",NUSA TENGGARA BARAT,84219.0,Indonesia,82340031984,,,-85.511.303,1.184.811.153,https://maps.google.com/?cid=0x0:0x503b570080f8a30a,
toko bangunan,Toko Lemari,Toko kaca,"RP8V+4PG, Jl. Datuk Anggrat, Kadindi Bar., Kec. Pekat, Kabupaten Dompu, Nusa Tenggara Bar. 84261","Jl. Datuk Anggrat, Kadindi Bar., Kec. Pekat, Kabupaten Dompu",NUSA TENGGARA BARAT,84261.0,Indonesia,,,,-81.846.821,1.177.443.348,https://maps.google.com/?cid=0x0:0xc71dc5ade9593fa1,
toko bangunan,Toko umum,Kadindi Barat Dompu,"RQ47+FF5, Kadindi, Kec. Pekat, Kabupaten Dompu, Nusa Tenggara Bar. 84261","Kadindi, Kec. Pekat, Kabupaten Dompu",NUSA TENGGARA BARAT,84261.0,Indonesia,,,,-81.938.601,1.177.637.249,https://maps.google.com/?cid=0x0:0x841af10ec59ef461,
toko bangunan,Toko Bahan Bangunan,TOKO ARSYIFA,"Sorinomo, Kec. Pekat, Kabupaten Dompu, Nusa Tenggara Bar. 84621","Kec. Pekat, Kabupaten Dompu",NUSA TENGGARA BARAT,84621.0,Indonesia,,,,-8.263.229,1.177.942.886,https://maps.google.com/?cid=0x0:0x8f99c927212d7c46,
toko bangunan,Toko Bahan Bangunan,Toko Abirafa Mandiri,"Jl. Lintas Calabai, Beringin Jaya, Kec. Pekat, Kabupaten Dompu, Nusa Tenggara Bar. 84261","Beringin Jaya, Kec. Pekat, Kabupaten Dompu",NUSA TENGGARA BARAT,84261.0,Indonesia,85239276266,,,-83.078.679,1.177.826.722,https://maps.google.com/?cid=0x0:0xcef1a181d8f0d4c1,
toko bangunan,Toko Bahan Bangunan,Ud.Mekar Sari,"MQVJ+32P, Jl. Lintas Calabai, Beringin Jaya, Kec. Pekat, Kabupaten Dompu, Nusa Tenggara Bar. 84261","Jl. Lintas Calabai, Beringin Jaya, Kec. Pekat, Kabupaten Dompu",NUSA TENGGARA BARAT,84261.0,Indonesia,82359396074,,,-83.076.265,1.177.801.368,https://maps.google.com/?cid=0x0:0x26d9c28a0245e166,
toko bangunan,Pusat Perbelanjaan,Toko Purnama Sorinomo,"Unnamed Road, Sorinomo, Kec. Pekat, Kabupaten Dompu, Nusa Tenggara Bar. 84261","Sorinomo, Kec. Pekat, Kabupaten Dompu",NUSA TENGGARA BARAT,84261.0,Indonesia,82340707041,,,-82.630.751,1.177.946.282,https://maps.google.com/?cid=0x0:0xaf5e3c7dd72dab46,
toko bangunan,Kantor Perusahaan,RAGA BANGUNAN (UD Wajah Baru),"RP8R+F4R, Jl. Datuk Anggrat, Kadindi Bar., Kec. Pekat, Kabupaten Dompu, Nusa Tenggara Bar. 84261","Jl. Datuk Anggrat, Kadindi Bar., Kec. Pekat, Kabupaten Dompu",NUSA TENGGARA BARAT,84261.0,Indonesia,,,,-81.837.599,1.177.404.778,https://maps.google.com/?cid=0x0:0x7abab6e4349502ef,
toko bangunan,Toko Bahan Bangunan,UD. LAMBA ANGGI,"RQ76+65C, Kadindi, Kec. Pekat, Kabupaten Dompu, Nusa Tenggara Bar. 84261","Kadindi, Kec. Pekat, Kabupaten Dompu",NUSA TENGGARA BARAT,84261.0,Indonesia,,,,-81.869.328,1.177.603.849,https://maps.google.com/?cid=0x0:0x13afc4a011b0c847,
toko bangunan,Toko Bahan Bangunan,Toko Mitra Bangunan,"Jl. Lintas Sumbawa - Bima No.501, Soriutu, Kec. Manggalewa, Kabupaten Dompu, Nusa Tenggara Bar. 84253","Soriutu, Kec. Manggalewa, Kabupaten Dompu",NUSA TENGGARA BARAT,84253.0,Indonesia,85333990765,,,-85.228.302,1.183.172.343,https://maps.google.com/?cid=0x0:0xd7314bf45ce0da44,
toko bangunan,toko bangunan,Nusa Tenggara Bar. 84253,"Kec. Manggalewa, Kabupaten Dompu, Nusa Tenggara Bar.","Kabupaten Dompu, Nusa Tenggara Bar.",NUSA TENGGARA BARAT,,Indonesia,,,,-85.185.083,1.183.228.165,https://maps.google.com/?cid=0x0:0x478db1c8ad8f6b79,
toko bangunan,Toko Bahan Bangunan,surya bangunan,"Jl. Lintas Sumbawa - Bima, Soriutu, Kec. Manggalewa, Kabupaten Dompu, Nusa Tenggara Bar.","Kabupaten Dompu, Nusa Tenggara Bar.",NUSA TENGGARA BARAT,,Indonesia,81338408886,,,-85.200.762,1.183.187.578,https://maps.google.com/?cid=0x0:0x52ef9d1d200d04a7,
toko bangunan,Toko Bahan Bangunan,Mapan Jaya,"F8JC+H57, Jl. Lintas Sumbawa - Bima, Soriutu, Kec. Manggalewa, Kabupaten Dompu, Nusa Tenggara Bar. 84253","Jl. Lintas Sumbawa - Bima, Soriutu, Kec. Manggalewa, Kabupaten Dompu",NUSA TENGGARA BARAT,84253.0,Indonesia,82146912395,,,-8.518.594,1.183.204.105,https://maps.google.com/?cid=0x0:0xac1f494f4861b180,
toko bangunan,Toko Bahan Bangunan,Toko Bangunan Anugrah Bara,"C9XQ+WQM, Jl. Lintas Sumbawa - Bima, Bara, Kec. Woja, Kabupaten Dompu, Nusa Tenggara Bar. 84251","Jl. Lintas Sumbawa - Bima, Bara, Kec. Woja, Kabupaten Dompu",NUSA TENGGARA BARAT,84251.0,Indonesia,,,,-85.501.731,1.183.894.253,https://maps.google.com/?cid=0x0:0x7aef164de79ee975,
toko bangunan,Toko Bahan Bangunan,UD Anugrah Gemilang,"Doromelo, Kec. Manggalewa, Kabupaten Dompu, Nusa Tenggara Bar. 84253","Kec. Manggalewa, Kabupaten Dompu",NUSA TENGGARA BARAT,84253.0,Indonesia,,,,-8.514.958,1.183.052.807,https://maps.google.com/?cid=0x0:0xc31d3e3d7899eb76,
toko bangunan,Toko Bahan Bangunan,Toko Bahan Bangunan Anugerah Simpasai,"Jl. Buntu Simpasai Woja, Kandai Dua, Kec. Woja, Kabupaten Dompu, Nusa Tenggara Bar. 84218","Kandai Dua, Kec. Woja, Kabupaten Dompu",NUSA TENGGARA BARAT,84218.0,Indonesia,,,,-85.392.106,118.441.274,https://maps.google.com/?cid=0x0:0x4a5418154243ede5,
toko bangunan,Toko Swalayan,Smart Swalayan Manggelewa,"Jl. Lintas Sumbawa - Bima, Soriutu, Kec. Manggalewa, Kabupaten Dompu, Nusa Tenggara Bar. 84253","Soriutu, Kec. Manggalewa, Kabupaten Dompu",NUSA TENGGARA BARAT,84253.0,Indonesia,,,,-85.188.231,1.183.210.474,https://maps.google.com/?cid=0x0:0xf42f0c1e8ff1c835,
toko bangunan,Grosir,AGEN BRILINK BAROKAH,"Lanci Jaya, Kec. Manggalewa, Kabupaten Dompu, Nusa Tenggara Bar. 84253","Kec. Manggalewa, Kabupaten Dompu",NUSA TENGGARA BARAT,84253.0,Indonesia,,,,-85.040.153,118.314.867,https://maps.google.com/?cid=0x0:0xc91c324e539723a2,
toko bangunan,Toko Bahan Bangunan,UD.ABY MANDIRI,"G848+PXP, Unnamed Road, Lanci Jaya, Kec. Manggalewa, Kabupaten Dompu, Nusa Tenggara Bar. 84253","Unnamed Road, Lanci Jaya, Kec. Manggalewa, Kabupaten Dompu",NUSA TENGGARA BARAT,84253.0,Indonesia,81911495002,,,-84.931.622,1.183.174.476,https://maps.google.com/?cid=0x0:0x93c6bdae21c89e10,
toko bangunan,Toko,UD. LESTARI,"F8J9+7J9, Soriutu, Kec. Manggalewa, Kabupaten Dompu, Nusa Tenggara Bar. 84253","Soriutu, Kec. Manggalewa, Kabupaten Dompu",NUSA TENGGARA BARAT,84253.0,Indonesia,,,,-8.519.326,1.183.191.117,https://maps.google.com/?cid=0x0:0x5b13be02e1747be4,
toko bangunan,Toko Bahan Bangunan,Toko Niaga Bangunan,"Deket Jl. Lkr. Utara, Karijawa, Kec. Dompu, Kabupaten Dompu, Nusa Tenggara Bar. 84216","Karijawa, Kec. Dompu, Kabupaten Dompu",NUSA TENGGARA BARAT,84216.0,Indonesia,82339774144,,,-85.320.637,1.184.537.654,https://maps.google.com/?cid=0x0:0x151f72cc40b0c79e,
toko bangunan,Toko Bahan Bangunan,Toko Bangunan Bage Rezo,"jln pahlawan no.10, Kandai Dua, Kec. Woja, Kabupaten Dompu, Nusa Tenggara Bar. 84219","Kandai Dua, Kec. Woja, Kabupaten Dompu",NUSA TENGGARA BARAT,84219.0,Indonesia,82339754936,,,-8.543.326,1.184.326.834,https://maps.google.com/?cid=0x0:0x9583b7cca9ab328,
toko bangunan,toko bangunan,Bahan rangka atap Mitra Baja Grosir,"G975+G5J, Dusun janamawar, Persiapan Teka Sire, Kec. Manggalewa, Kabupaten Dompu, Nusa Tenggara Bar.","Kabupaten Dompu, Nusa Tenggara Bar.",NUSA TENGGARA BARAT,,Indonesia,,,,-8.486.151,1.183.578.828,https://maps.google.com/?cid=0x0:0x3a35b3e4d3145e8d,
toko bangunan,Toko Bahan Bangunan,Golden Bangunan,"Unnamed Road Nusa Tenggara Bar. 84251, Matua, Kec. Woja, Kabupaten Dompu, Nusa Tenggara Bar. 84251","Matua, Kec. Woja, Kabupaten Dompu",NUSA TENGGARA BARAT,84251.0,Indonesia,8176931226,,,-85.290.136,1.184.167.336,https://maps.google.com/?cid=0x0:0x1fcc4f303b373f35,
toko bangunan,Pusat Perbelanjaan,Aisyah Bangunan,"CCWJ+3MX, Jl. Lintas Wawonduru, Wawonduru, Kec. Woja, Kabupaten Dompu, Nusa Tenggara Bar. 84219","Jl. Lintas Wawonduru, Wawonduru, Kec. Woja, Kabupaten Dompu",NUSA TENGGARA BARAT,84219.0,Indonesia,85238591234,,,-85.547.669,1.184.317.258,https://maps.google.com/?cid=0x0:0xc59019e1a3f0370,
toko bangunan,Toko Bahan Bangunan,YASINDO JAYA,"Jl. Lintas Sumbawa - Bima No.51, Matua, Kec. Woja, Kabupaten Dompu, Nusa Tenggara Bar. 84251","Matua, Kec. Woja, Kabupaten Dompu",NUSA TENGGARA BARAT,84251.0,Indonesia,81238569021,,,-85.465.252,1.184.207.831,https://maps.google.com/?cid=0x0:0x4feb8cea8d83a87b,
toko bangunan,Toko Bahan Bangunan,Depo Sumber Bangunan,"Jl. Baru Karijawa gg PS No.33, Karijawa, Kec. Dompu, Kabupaten Dompu, Nusa Tenggara Bar. 84213","Karijawa, Kec. Dompu, Kabupaten Dompu",NUSA TENGGARA BARAT,84213.0,Indonesia,81213393271,,,-8.531.509,1.184.546.781,https://maps.google.com/?cid=0x0:0x74aa1c95593ff6e7,
toko bangunan,Pusat Perbelanjaan,Toko Bangunan EKA JAYA TALOKO,"J848+4V4 Toko Bangunan Eka Jaya, RT.011/RW.005, Kelurahan, Taloko, Kec. Sanggar, Kabupaten Bima, Nusa Tenggara Bar.","Kabupaten Bima, Nusa Tenggara Bar.",NUSA TENGGARA BARAT,,Indonesia,,,,-83.947.354,1.183.172.074,https://maps.google.com/?cid=0x0:0x20126781638ed32,
toko bangunan,Kantor Perusahaan,TB. Bangkit Bersama,"Dusun Dorongguni, Kareke, Kec. Dompu, Kabupaten Dompu, Nusa Tenggara Bar. 84219","Kareke, Kec. Dompu, Kabupaten Dompu",NUSA TENGGARA BARAT,84219.0,Indonesia,82340031984,,,-85.511.303,1.184.811.153,https://maps.google.com/?cid=0x0:0x503b570080f8a30a,
toko bangunan,toko bangunan,Kec. Manggalewa,"Kabupaten Dompu, Nusa Tenggara Bar.","Kabupaten Dompu, Nusa Tenggara Bar.",NUSA TENGGARA BARAT,,Indonesia,,,,-85.188.164,1.183.190.713,https://maps.google.com/?cid=0x0:0xc8d51c9bf2029bb,
toko bangunan,toko bangunan,TOKO BANGUNAN,"Kandai Dua, Kec. Woja, Kabupaten Dompu, Nusa Tenggara Bar.","Kabupaten Dompu, Nusa Tenggara Bar.",NUSA TENGGARA BARAT,,Indonesia,,,,-85.469.366,1.184.318.258,https://maps.google.com/?cid=0x0:0xfb67176edde2808f,
toko bangunan,Toko Bahan Bangunan,Toko Bangunan Bage Rezo,"jln pahlawan no.10, Kandai Dua, Kec. Woja, Kabupaten Dompu, Nusa Tenggara Bar. 84219","Kandai Dua, Kec. Woja, Kabupaten Dompu",NUSA TENGGARA BARAT,84219.0,Indonesia,82339754936,,,-8.543.326,1.184.326.834,https://maps.google.com/?cid=0x0:0x9583b7cca9ab328,
toko bangunan,toko bangunan,Nusa Tenggara Bar. 84272,"Kec. Pajo, Kabupaten Dompu, Nusa Tenggara Bar.","Kabupaten Dompu, Nusa Tenggara Bar.",NUSA TENGGARA BARAT,,Indonesia,,,,-86.347.113,1.184.747.173,https://maps.google.com/?cid=0x0:0x2f0ce72fb3d1b4f4,
toko bangunan,Toko Bahan Bangunan,Toko Bangunan Anugrah Bara,"C9XQ+WQM, Jl. Lintas Sumbawa - Bima, Bara, Kec. Woja, Kabupaten Dompu, Nusa Tenggara Bar. 84251","Jl. Lintas Sumbawa - Bima, Bara, Kec. Woja, Kabupaten Dompu",NUSA TENGGARA BARAT,84251.0,Indonesia,,,,-85.501.731,1.183.894.253,https://maps.google.com/?cid=0x0:0x7aef164de79ee975,
toko bangunan,Toko Bahan Bangunan,Toko Bahan Bangunan Anugerah Simpasai,"Jl. Buntu Simpasai Woja, Kandai Dua, Kec. Woja, Kabupaten Dompu, Nusa Tenggara Bar. 84218","Kandai Dua, Kec. Woja, Kabupaten Dompu",NUSA TENGGARA BARAT,84218.0,Indonesia,,,,-85.392.106,118.441.274,https://maps.google.com/?cid=0x0:0x4a5418154243ede5,
toko bangunan,Toko Bahan Bangunan,Toko Niaga Bangunan,"Deket Jl. Lkr. Utara, Karijawa, Kec. Dompu, Kabupaten Dompu, Nusa Tenggara Bar. 84216","Karijawa, Kec. Dompu, Kabupaten Dompu",NUSA TENGGARA BARAT,84216.0,Indonesia,82339774144,,,-85.320.637,1.184.537.654,https://maps.google.com/?cid=0x0:0x151f72cc40b0c79e,
toko bangunan,Toko Bahan Bangunan,Depo Sumber Bangunan,"Jl. Baru Karijawa gg PS No.33, Karijawa, Kec. Dompu, Kabupaten Dompu, Nusa Tenggara Bar. 84213","Karijawa, Kec. Dompu, Kabupaten Dompu",NUSA TENGGARA BARAT,84213.0,Indonesia,81213393271,,,-8.531.509,1.184.546.781,https://maps.google.com/?cid=0x0:0x74aa1c95593ff6e7,
toko bangunan,Toko Bahan Bangunan,Toko Cipta Baru,"JL. Paok Motong, No. 08, Masbagik, Paok Motong, Kec. Selong, Kabupaten Lombok Timur, Nusa Tenggara Bar. 83661","No. 08, Masbagik, Paok Motong, Kec. Selong, Kabupaten Lombok Timur",NUSA TENGGARA BARAT,83661.0,Indonesia,818547933,,,-86.261.582,1.164.586.952,https://maps.google.com/?cid=0x0:0xe5122257035c1ef0,
toko bangunan,Kantor Perusahaan,TB. Bangkit Bersama,"Dusun Dorongguni, Kareke, Kec. Dompu, Kabupaten Dompu, Nusa Tenggara Bar. 84219","Kareke, Kec. Dompu, Kabupaten Dompu",NUSA TENGGARA BARAT,84219.0,Indonesia,82340031984,,,-85.511.303,1.184.811.153,https://maps.google.com/?cid=0x0:0x503b570080f8a30a,
toko bangunan,Toko Bahan Bangunan,Toko Jakarta Bahan Bangunan,"FC4X+MH6 Sebrang SD 02, Lingkungan Dore, RT.005/RW.003, Simpasai, Kec. Woja, Kabupaten Dompu, Nusa Tenggara Bar.","Kabupaten Dompu, Nusa Tenggara Bar.",NUSA TENGGARA BARAT,,Indonesia,85239000255,,,-85.433.357,1.184.489.045,https://maps.google.com/?cid=0x0:0xb20b1a0641dff591,
toko bangunan,Toko Bahan Bangunan,YASINDO JAYA,"Jl. Lintas Sumbawa - Bima No.51, Matua, Kec. Woja, Kabupaten Dompu, Nusa Tenggara Bar. 84251","Matua, Kec. Woja, Kabupaten Dompu",NUSA TENGGARA BARAT,84251.0,Indonesia,81238569021,,,-85.465.252,1.184.207.831,https://maps.google.com/?cid=0x0:0x4feb8cea8d83a87b,
toko bangunan,Toko Bahan Bangunan,Toko A'A tehnical,"FF66+W7Q, Jl. Lele, Bali, Kec. Dompu, Kabupaten Dompu, Nusa Tenggara Bar. 84213","Jl. Lele, Bali, Kec. Dompu, Kabupaten Dompu",NUSA TENGGARA BARAT,84213.0,Indonesia,82342792973,,,-85.376.715,1.184.607.318,https://maps.google.com/?cid=0x0:0xc95ec457333d49eb,
toko bangunan,Toko Perlengkapan Rumah,Toko Al-Hidayah,"Jl. Buntu Simpasai Woja, Kandai Dua, Kec. Woja, Kabupaten Dompu, Nusa Tenggara Bar. 84219","Kandai Dua, Kec. Woja, Kabupaten Dompu",NUSA TENGGARA BARAT,84219.0,Indonesia,81312976013,,,-85.393.217,1.184.407.717,https://maps.google.com/?cid=0x0:0xec856f1b31465ef7,
toko bangunan,Toko,Toko Bangunan 75,"CM6W+GJG, Tenga, Kec. Woha, Kabupaten Bima, Nusa Tenggara Bar. 84171","Tenga, Kec. Woha, Kabupaten Bima",NUSA TENGGARA BARAT,84171.0,Indonesia,37481070,,,-85.886.849,1.186.965.868,https://maps.google.com/?cid=0x0:0x2cc9126a4373acda,
toko bangunan,Toko Bahan Bangunan,Toko Humayroh,"Adu, Kec. Hu'u, Kabupaten Dompu, Nusa Tenggara Bar. 84271","Kec. Hu'u, Kabupaten Dompu",NUSA TENGGARA BARAT,84271.0,Indonesia,82340114443,,,-87.031.517,1.184.686.843,https://maps.google.com/?cid=0x0:0x6b2ff82fcbeb2a6,
toko bangunan,Toko Bahan Bangunan,Tb. Mataram,"FF66+78F, Jl. . Jenderal Sudirman, Bada, Kec. Dompu, Kabupaten Dompu, Nusa Tenggara Bar. 84213","Jl. . Jenderal Sudirman, Bada, Kec. Dompu, Kabupaten Dompu",NUSA TENGGARA BARAT,84213.0,Indonesia,,,,-85.393.228,1.184.608.038,https://maps.google.com/?cid=0x0:0x1a78f82c6f462f29,
toko bangunan,Toko Bahan Bangunan,Azizah plafon pvc,"Jl. Lele No.1, Bali, Kec. Dompu, Kabupaten Dompu, Nusa Tenggara Bar. 84213","Bali, Kec. Dompu, Kabupaten Dompu",NUSA TENGGARA BARAT,84213.0,Indonesia,81287663379,,,-85.354.589,1.184.610.978,https://maps.google.com/?cid=0x0:0x94239182ea395f34,
toko bangunan,Toko Bahan Bangunan,Toko Bangunan Jonawan,"7P2J+4H5, Jl. Lintas Sumbawa - Bima, Brang Kolong, Kec. Plampang, Kabupaten Sumbawa, Nusa Tenggara Bar. 84383","Jl. Lintas Sumbawa - Bima, Brang Kolong, Kec. Plampang, Kabupaten Sumbawa",NUSA TENGGARA BARAT,84383.0,Indonesia,,,,-87.497.263,1.177.314.988,https://maps.google.com/?cid=0x0:0x168492a0befb48dc,
toko bangunan,Toko Bahan Bangunan,UD Selamat,"CFP4+CRJ, Unnamed Road, Dorebara, Kec. Dompu, Kabupaten Dompu, Nusa Tenggara Bar. 84219","Unnamed Road, Dorebara, Kec. Dompu, Kabupaten Dompu",NUSA TENGGARA BARAT,84219.0,Indonesia,,,,-85.639.223,1.184.570.141,https://maps.google.com/?cid=0x0:0x3f8e70fa9cd6f99e,
toko bangunan,Toko Bahan Bangunan,TB. Abdi Jaya,"Jl. Pendidikan, Goa, Kec. Jereweh, Kabupaten Sumbawa Barat, Nusa Tenggara Bar. 84456","Goa, Kec. Jereweh, Kabupaten Sumbawa Barat",NUSA TENGGARA BARAT,84456.0,Indonesia,81803803804,,,-8.848.384,1.168.182.737,https://maps.google.com/?cid=0x0:0xbf9f143789caef6b,
toko bangunan,Toko Perlengkapan Rumah,Rais bangunan,"32QX+Q67, Kalola, Kec. Maniang Pajo, Kabupaten Wajo, Sulawesi Selatan 90952","Kalola, Kec. Maniang Pajo, Kabupaten Wajo",NUSA TENGGARA BARAT,90952.0,Indonesia,,,,-39.107.317,1.200.482.096,https://maps.google.com/?cid=0x0:0xb2bfa6ebdea87e87,
toko bangunan,Toko Bahan Bangunan,Ud. Zam Zam,"FC4R+5GH, Jl. Lintas Sumbawa - Bima, Simpasai, Kec. Woja, Kabupaten Dompu, Nusa Tenggara Bar. 84218","Jl. Lintas Sumbawa - Bima, Simpasai, Kec. Woja, Kabupaten Dompu",NUSA TENGGARA BARAT,84218.0,Indonesia,,,,-85.445.643,1.184.413.514,https://maps.google.com/?cid=0x0:0x1f0eee75cc4a17fe,
toko bangunan,Toko Bahan Bangunan,TOKO TAUFIK,"Jl. . Jenderal Sudirman No.27, Bada, Kec. Dompu, Kabupaten Dompu, Nusa Tenggara Bar. 84213","Bada, Kec. Dompu, Kabupaten Dompu",NUSA TENGGARA BARAT,84213.0,Indonesia,37321160,,,-85.394.741,1.184.608.954,https://maps.google.com/?cid=0x0:0xa99b586cc9779c94,
toko bangunan,Toko Bahan Bangunan,Tb.aneka bangunan,"32QX+9F7, Jl. Sengkang, Kalola, Kec. Maniang Pajo, Kabupaten Wajo, Sulawesi Selatan 90952","Jl. Sengkang, Kalola, Kec. Maniang Pajo, Kabupaten Wajo",NUSA TENGGARA BARAT,90952.0,Indonesia,,,,-39.115.446,1.200.486.746,https://maps.google.com/?cid=0x0:0x261108202fd56b69,
toko bangunan,Toko Bahan Bangunan,TK. Sentral Jaya,"Jl. . Jenderal Sudirman, Bada, Kec. Dompu, Kabupaten Dompu, Nusa Tenggara Bar. 84213","Bada, Kec. Dompu, Kabupaten Dompu",NUSA TENGGARA BARAT,84213.0,Indonesia,82145830000,,,-85.394.137,1.184.598.675,https://maps.google.com/?cid=0x0:0xaf5c5d430f1a62b7,
