Category,Real Category,Business Name,Address,City,State,Postal Code,Country,Phone,Email,Website,Latitude,Longitude,Map Link,Details Link
mall,mall,Nusa Tenggara Bar. 84211,"Kareke, Kec. Dompu, Kabupaten Dompu, Nusa Tenggara Bar.","Kabupaten Dompu, Nusa Tenggara Bar.",NUSA TENGGARA BARAT,,Indonesia,,,,-85.486.112,1.184.717.975,https://maps.google.com/?cid=0x0:0x19504ec7d1952ed4,
mall,Toko Pakaian,MAHATIRSTOREDOMPU,"Jl. Soekarno-Hatta No.2, Dorotangga, Kec. Dompu, Kabupaten Dompu, Nusa Tenggara Bar. 84212","Dorotangga, Kec. Dompu, Kabupaten Dompu",NUSA TENGGARA BARAT,84212.0,Indonesia,87866755381,,,-85.345.878,1.184.674.797,https://maps.google.com/?cid=0x0:0xeaad29fe013fa3e8,
mall,Toko Swalayan,Bolly Deptstore Dompu,"FF65+4FH, Jl. Manuru Bata Dompu, Bada, Kec. Dompu, Kabupaten Dompu, Nusa Tenggara Bar. 84213","Jl. Manuru Bata Dompu, Bada, Kec. Dompu, Kabupaten Dompu",NUSA TENGGARA BARAT,84213.0,Indonesia,,,,-85.396.801,1.184.587.322,https://maps.google.com/?cid=0x0:0x5b99d2bfd3f4e4cf,
mall,Pusat Perbelanjaan,IKM MART DOMPU,"FFHG+22P, Mangge Asi, Kec. Dompu, Kabupaten Dompu, Nusa Tenggara Bar. 84214","Mangge Asi, Kec. Dompu, Kabupaten Dompu",NUSA TENGGARA BARAT,84214.0,Indonesia,,,,-85.224.204,1.184.750.863,https://maps.google.com/?cid=0x0:0x599853f754953300,
mall,Toko,BUTIQ ABI UMI DOMPU,"Jl. Baru Pelita, Bada, Kec. Dompu, Kabupaten Dompu, Nusa Tenggara Bar. 84211","Bada, Kec. Dompu, Kabupaten Dompu",NUSA TENGGARA BARAT,84211.0,Indonesia,82339534413,,,-85.331.668,1.184.707.149,https://maps.google.com/?cid=0x0:0x968a362108475e5d,
mall,Pasar,Dompu Nusa tenggara barat,"FF6F+72C, Bada, Kec. Dompu, Kabupaten Dompu, Nusa Tenggara Bar.","Kabupaten Dompu, Nusa Tenggara Bar.",NUSA TENGGARA BARAT,,Indonesia,,,,-85.393.094,1.184.725.275,https://maps.google.com/?cid=0x0:0x35d4df9a05bceb53,
mall,Toko Swalayan,Hamed Mart,"FF57+XH2, Bada, Kec. Dompu, Kabupaten Dompu, Nusa Tenggara Bar. 84213","Bada, Kec. Dompu, Kabupaten Dompu",NUSA TENGGARA BARAT,84213.0,Indonesia,,,,-85.401.192,1.184.638.956,https://maps.google.com/?cid=0x0:0x10dc796abc285c31,
mall,Universitas,Rumah Sakit Umum Dompu,"Jl. Kesehatan No.1, Bada, Kec. Dompu, Kabupaten Dompu, Nusa Tenggara Bar. 84211","Bada, Kec. Dompu, Kabupaten Dompu",NUSA TENGGARA BARAT,84211.0,Indonesia,37321411,,,-85.406.656,1.184.649.095,https://maps.google.com/?cid=0x0:0xcf2839d19ebfcd60,
mall,Pusat Perbelanjaan,UD.Puncak Jado,"Jln.Cakalang Kompleks Pasar Bawah Kota Baru, Bada, Kec. Dompu, Kabupaten Dompu, Nusa Tenggara Bar. 84213","Bada, Kec. Dompu, Kabupaten Dompu",NUSA TENGGARA BARAT,84213.0,Indonesia,85339250001,,,-8.537.562,1.184.623.859,https://maps.google.com/?cid=0x0:0x43c02affbcdfbfb5,
mall,Toko,Escana dompu,"Jl. Ke Bima No.40-36, Karijawa, Kec. Dompu, Kabupaten Dompu, Nusa Tenggara Bar. 84216","Karijawa, Kec. Dompu, Kabupaten Dompu",NUSA TENGGARA BARAT,84216.0,Indonesia,87777432714,,,-85.426.836,1.184.522.298,https://maps.google.com/?cid=0x0:0xdfb357567961485a,
mall,Toko Obat Organik,CV APOTIK TANI,"Bada, Kec. Dompu, Kabupaten Dompu, Nusa Tenggara Bar. 84213","Kec. Dompu, Kabupaten Dompu",NUSA TENGGARA BARAT,84213.0,Indonesia,,,,-85.405.149,1.184.616.735,https://maps.google.com/?cid=0x0:0x2066fdbcd1d5b2df,
mall,Galeri Seni,gallery madu,"FF66+X5R, Jl. Mujair, Tanjung, Kec. Rasanae Bar., Kabupaten Dompu, Nusa Tenggara Bar. 84118","Jl. Mujair, Tanjung, Kec. Rasanae Bar., Kabupaten Dompu",NUSA TENGGARA BARAT,84118.0,Indonesia,85339200022,,,-85.375.127,118.460.394,https://maps.google.com/?cid=0x0:0xb10a5a2992b79f67,
mall,Toko Bunga,"Jual Bunga Mom pa,o","Jl. Sultan Hasanuddin No.10, Karijawa, Kec. Dompu, Kabupaten Dompu, Nusa Tenggara Bar. 84217","Karijawa, Kec. Dompu, Kabupaten Dompu",NUSA TENGGARA BARAT,84217.0,Indonesia,85338588930,,,-85.416.878,1.184.534.982,https://maps.google.com/?cid=0x0:0x4dcb955d3c5010,
mall,Toko bahan makanan,Toko H.Gasim,"Jl. Sultan Hasanuddin, Karijawa, Kec. Dompu, Kabupaten Dompu, Nusa Tenggara Bar. 84216","Karijawa, Kec. Dompu, Kabupaten Dompu",NUSA TENGGARA BARAT,84216.0,Indonesia,85333578806,,,-85.414.995,1.184.536.733,https://maps.google.com/?cid=0x0:0x631adae4e4f31a58,
mall,Toko,MARWAH STORE Fashion  Skincare,"Jl. Lintas Mbawi, Kandai Satu, Kec. Dompu, Kabupaten Dompu, Nusa Tenggara Bar. 84217","Kandai Satu, Kec. Dompu, Kabupaten Dompu",NUSA TENGGARA BARAT,84217.0,Indonesia,85237774464,,,-85.461.663,1.184.601.906,https://maps.google.com/?cid=0x0:0xb00914e9b9bfc228,
mall,Toko Barang Rumah Tangga Asia,Toko Bintang Hiburan Elektro..,"FF66+6F8, Bada, Kec. Dompu, Kabupaten Dompu, Nusa Tenggara Bar. 84212","Bada, Kec. Dompu, Kabupaten Dompu",NUSA TENGGARA BARAT,84212.0,Indonesia,82339055569,,,-85.394.632,1.184.611.978,https://maps.google.com/?cid=0x0:0xff0b04d2b2316abe,
mall,Toko umum,STOKIS HPAI HNI Nuha,"Jl. Soekarno-Hatta No.10, Dorotangga, Kec. Dompu, Kabupaten Dompu, Nusa Tenggara Bar. 84212","Dorotangga, Kec. Dompu, Kabupaten Dompu",NUSA TENGGARA BARAT,84212.0,Indonesia,217160498,,,-8.533.684,1.184.672.876,https://maps.google.com/?cid=0x0:0xd96a1ef51baa4bb4,
mall,Es Krim,MC FROZEN FOOD,"Jl. KH. Ahmad Dahlan No.37-16, Potu, Kec. Dompu, Kabupaten Dompu, Nusa Tenggara Bar. 84213","Potu, Kec. Dompu, Kabupaten Dompu",NUSA TENGGARA BARAT,84213.0,Indonesia,82266228081,,,-85.408.805,1.184.602.069,https://maps.google.com/?cid=0x0:0x82902f715261ebbc,
mall,Toko,Kios Hidup Baru,"FF89+G4C, Unnamed Road, Dorotangga, Kec. Dompu, Kabupaten Dompu, Nusa Tenggara Bar. 84212","Unnamed Road, Dorotangga, Kec. Dompu, Kabupaten Dompu",NUSA TENGGARA BARAT,84212.0,Indonesia,83129134774,,,-85.336.853,1.184.677.779,https://maps.google.com/?cid=0x0:0x94af213fa55191be,
mall,Toko Elektronik,Toko Niaga Teknik,"FF56+W73, Jl. Manuru Bata Dompu, Potu, Kec. Dompu, Kabupaten Dompu, Nusa Tenggara Bar. 84213","Jl. Manuru Bata Dompu, Potu, Kec. Dompu, Kabupaten Dompu",NUSA TENGGARA BARAT,84213.0,Indonesia,818366553,,,-85.402.271,1.184.606.593,https://maps.google.com/?cid=0x0:0x2b22eed0fdf541b8,
mall,Pusat Perbelanjaan,KING MART,"Jl. Imam Bonjol No.11, Kandai Dua, Kec. Woja, Kabupaten Dompu, Nusa Tenggara Bar. 84219","Kandai Dua, Kec. Woja, Kabupaten Dompu",NUSA TENGGARA BARAT,84219.0,Indonesia,85237116611,,,-85.471.951,1.184.319.843,https://maps.google.com/?cid=0x0:0x81310d17620a7593,
mall,Toko Organik,UD. Al Aisyah,"Jl. Ahmad Yani, Dorotangga, Kec. Dompu, Kabupaten Dompu, Nusa Tenggara Bar. 84212","Dorotangga, Kec. Dompu, Kabupaten Dompu",NUSA TENGGARA BARAT,84212.0,Indonesia,85338947510,,,-8.536.665,1.184.662.013,https://maps.google.com/?cid=0x0:0x272d71cc9bb4b6f1,
mall,Toko,NEW TEST V,"FC4Q+CHW MOBILE LEGEND BB, Kandai Dua, Kec. Woja, Kabupaten Dompu, Nusa Tenggara Bar. 84218","Kandai Dua, Kec. Woja, Kabupaten Dompu",NUSA TENGGARA BARAT,84218.0,Indonesia,82376207788,,,-85.438.842,118.438.938,https://maps.google.com/?cid=0x0:0x8bd929f7debc822a,
mall,Toko Kesehatan dan Kecantikan,Kingcell Dompu Karijawa,"FF53+FFW, Karijawa, Kec. Dompu, Kabupaten Dompu, Nusa Tenggara Bar. 84216","Karijawa, Kec. Dompu, Kabupaten Dompu",NUSA TENGGARA BARAT,84216.0,Indonesia,85337246003,,,-85.412.569,1.184.537.024,https://maps.google.com/?cid=0x0:0x1318387beeae697c,
mall,Toko Bahan Bangunan,Golden Bangunan,"Unnamed Road Nusa Tenggara Bar. 84251, Matua, Kec. Woja, Kabupaten Dompu, Nusa Tenggara Bar. 84251","Matua, Kec. Woja, Kabupaten Dompu",NUSA TENGGARA BARAT,84251.0,Indonesia,8176931226,,,-85.290.136,1.184.167.336,https://maps.google.com/?cid=0x0:0x1fcc4f303b373f35,
mall,Toko Pakaian,MAHATIRSTOREDOMPU,"Jl. Soekarno-Hatta No.2, Dorotangga, Kec. Dompu, Kabupaten Dompu, Nusa Tenggara Bar. 84212","Dorotangga, Kec. Dompu, Kabupaten Dompu",NUSA TENGGARA BARAT,84212.0,Indonesia,87866755381,,,-85.345.878,1.184.674.797,https://maps.google.com/?cid=0x0:0xeaad29fe013fa3e8,
mall,mall,Nusa Tenggara Bar. 84212,"Kec. Dompu, Kabupaten Dompu, Nusa Tenggara Bar.","Kabupaten Dompu, Nusa Tenggara Bar.",NUSA TENGGARA BARAT,,Indonesia,,,,-85.476.799,1.184.834.766,https://maps.google.com/?cid=0x0:0x6aea138ba2d36218,
mall,Pusat Perbelanjaan,IKM MART DOMPU,"FFHG+22P, Mangge Asi, Kec. Dompu, Kabupaten Dompu, Nusa Tenggara Bar. 84214","Mangge Asi, Kec. Dompu, Kabupaten Dompu",NUSA TENGGARA BARAT,84214.0,Indonesia,,,,-85.224.204,1.184.750.863,https://maps.google.com/?cid=0x0:0x599853f754953300,
mall,Toko Swalayan,Bolly Deptstore Dompu,"FF65+4FH, Jl. Manuru Bata Dompu, Bada, Kec. Dompu, Kabupaten Dompu, Nusa Tenggara Bar. 84213","Jl. Manuru Bata Dompu, Bada, Kec. Dompu, Kabupaten Dompu",NUSA TENGGARA BARAT,84213.0,Indonesia,,,,-85.396.801,1.184.587.322,https://maps.google.com/?cid=0x0:0x5b99d2bfd3f4e4cf,
mall,Kantor Perusahaan,PT.BIJAKSANA PERKASA UTAMA,"Jl. Nusa Jaya No.1, Bali, Kec. Dompu, Kabupaten Dompu, Nusa Tenggara Bar. 84213","Bali, Kec. Dompu, Kabupaten Dompu",NUSA TENGGARA BARAT,84213.0,Indonesia,81238782998,,,-85.313.359,118.459.736,https://maps.google.com/?cid=0x0:0x226a4cda179c428f,
mall,Grosir,Raja Grosir Colection Dompu,"FF56+V77, Jl. Mawa Adi, Bada, Kec. Dompu, Kabupaten Dompu, Nusa Tenggara Bar. 84213","Jl. Mawa Adi, Bada, Kec. Dompu, Kabupaten Dompu",NUSA TENGGARA BARAT,84213.0,Indonesia,85771913655,,,-85.403.331,1.184.606.722,https://maps.google.com/?cid=0x0:0x3c92704946ecb5c1,
mall,Toko,BUTIQ ABI UMI DOMPU,"Jl. Baru Pelita, Bada, Kec. Dompu, Kabupaten Dompu, Nusa Tenggara Bar. 84211","Bada, Kec. Dompu, Kabupaten Dompu",NUSA TENGGARA BARAT,84211.0,Indonesia,82339534413,,,-85.331.668,1.184.707.149,https://maps.google.com/?cid=0x0:0x968a362108475e5d,
mall,Pusat Perbelanjaan,Toko Ais Jaya,"Jl. Sultan Hasanuddin No.48, Karijawa, Kec. Dompu, Kabupaten Dompu, Nusa Tenggara Bar. 84216","Karijawa, Kec. Dompu, Kabupaten Dompu",NUSA TENGGARA BARAT,84216.0,Indonesia,81287359191,,,-85.431.496,1.184.513.381,https://maps.google.com/?cid=0x0:0xa233f4e49727da3a,
mall,Pusat Perbelanjaan,UD.Puncak Jado,"Jln.Cakalang Kompleks Pasar Bawah Kota Baru, Bada, Kec. Dompu, Kabupaten Dompu, Nusa Tenggara Bar. 84213","Bada, Kec. Dompu, Kabupaten Dompu",NUSA TENGGARA BARAT,84213.0,Indonesia,85339250001,,,-8.537.562,1.184.623.859,https://maps.google.com/?cid=0x0:0x43c02affbcdfbfb5,
mall,Toko Barang Rumah Tangga Asia,Toko Bintang Hiburan Elektro..,"FF66+6F8, Bada, Kec. Dompu, Kabupaten Dompu, Nusa Tenggara Bar. 84212","Bada, Kec. Dompu, Kabupaten Dompu",NUSA TENGGARA BARAT,84212.0,Indonesia,82339055569,,,-85.394.632,1.184.611.978,https://maps.google.com/?cid=0x0:0xff0b04d2b2316abe,
mall,Toko umum,STOKIS HPAI HNI Nuha,"Jl. Soekarno-Hatta No.10, Dorotangga, Kec. Dompu, Kabupaten Dompu, Nusa Tenggara Bar. 84212","Dorotangga, Kec. Dompu, Kabupaten Dompu",NUSA TENGGARA BARAT,84212.0,Indonesia,217160498,,,-8.533.684,1.184.672.876,https://maps.google.com/?cid=0x0:0xd96a1ef51baa4bb4,
mall,Pasar,Dompu Nusa tenggara barat,"FF6F+72C, Bada, Kec. Dompu, Kabupaten Dompu, Nusa Tenggara Bar.","Kabupaten Dompu, Nusa Tenggara Bar.",NUSA TENGGARA BARAT,,Indonesia,,,,-85.393.094,1.184.725.275,https://maps.google.com/?cid=0x0:0x35d4df9a05bceb53,
mall,Toko,UD. Sumber Karya,"FF95+XCF, Jl. Lkr. Utara, Bali, Kec. Dompu, Kabupaten Dompu, Nusa Tenggara Bar. 84213","Jl. Lkr. Utara, Bali, Kec. Dompu, Kabupaten Dompu",NUSA TENGGARA BARAT,84213.0,Indonesia,,,,-85.300.568,1.184.585.542,https://maps.google.com/?cid=0x0:0xddf008474fca8e75,
mall,Toko,Kios Hidup Baru,"FF89+G4C, Unnamed Road, Dorotangga, Kec. Dompu, Kabupaten Dompu, Nusa Tenggara Bar. 84212","Unnamed Road, Dorotangga, Kec. Dompu, Kabupaten Dompu",NUSA TENGGARA BARAT,84212.0,Indonesia,83129134774,,,-85.336.853,1.184.677.779,https://maps.google.com/?cid=0x0:0x94af213fa55191be,
mall,Toko Organik,UD. Al Aisyah,"Jl. Ahmad Yani, Dorotangga, Kec. Dompu, Kabupaten Dompu, Nusa Tenggara Bar. 84212","Dorotangga, Kec. Dompu, Kabupaten Dompu",NUSA TENGGARA BARAT,84212.0,Indonesia,85338947510,,,-8.536.665,1.184.662.013,https://maps.google.com/?cid=0x0:0x272d71cc9bb4b6f1,
mall,Toko Bahan Bangunan,Distributor Sarung Gajah Duduk Bima Dompu Sumbawa,"FC6W+R7H, Simpasai, Kec. Woja, Kabupaten Dompu, Nusa Tenggara Bar. 84216","Simpasai, Kec. Woja, Kabupaten Dompu",NUSA TENGGARA BARAT,84216.0,Indonesia,85238755545,,,-85.379.385,1.184.457.328,https://maps.google.com/?cid=0x0:0x6f681f8386052d8,
mall,Toko,Escana dompu,"Jl. Ke Bima No.40-36, Karijawa, Kec. Dompu, Kabupaten Dompu, Nusa Tenggara Bar. 84216","Karijawa, Kec. Dompu, Kabupaten Dompu",NUSA TENGGARA BARAT,84216.0,Indonesia,87777432714,,,-85.426.836,1.184.522.298,https://maps.google.com/?cid=0x0:0xdfb357567961485a,
mall,Galeri Seni,gallery madu,"FF66+X5R, Jl. Mujair, Tanjung, Kec. Rasanae Bar., Kabupaten Dompu, Nusa Tenggara Bar. 84118","Jl. Mujair, Tanjung, Kec. Rasanae Bar., Kabupaten Dompu",NUSA TENGGARA BARAT,84118.0,Indonesia,85339200022,,,-85.375.127,118.460.394,https://maps.google.com/?cid=0x0:0xb10a5a2992b79f67,
mall,Toko,Tempat Jual Beli Sarang Walet BINTANG 88 WALET,"Jl. Lele No.4, Bali, Kec. Dompu, Kabupaten Dompu, Nusa Tenggara Bar. 84213","Bali, Kec. Dompu, Kabupaten Dompu",NUSA TENGGARA BARAT,84213.0,Indonesia,88258525653,,,-85.354.589,1.184.610.978,https://maps.google.com/?cid=0x0:0x73fc729a92993855,
mall,Toko,Toko Sumarni,"FFJ5+7V3, Jl. Lintas Saneo, Persiapan Sorisakolo, Kec. Dompu, Kabupaten Dompu, Nusa Tenggara Bar. 84213","Jl. Lintas Saneo, Persiapan Sorisakolo, Kec. Dompu, Kabupaten Dompu",NUSA TENGGARA BARAT,84213.0,Indonesia,,,,-85.193.559,1.184.596.658,https://maps.google.com/?cid=0x0:0x5b825aeec116c59e,
mall,Pusat Perbelanjaan,KING MART,"Jl. Imam Bonjol No.11, Kandai Dua, Kec. Woja, Kabupaten Dompu, Nusa Tenggara Bar. 84219","Kandai Dua, Kec. Woja, Kabupaten Dompu",NUSA TENGGARA BARAT,84219.0,Indonesia,85237116611,,,-85.471.951,1.184.319.843,https://maps.google.com/?cid=0x0:0x81310d17620a7593,
mall,mall,Nusa Tenggara Bar. 84213,"Kec. Dompu, Kabupaten Dompu, Nusa Tenggara Bar.","Kabupaten Dompu, Nusa Tenggara Bar.",NUSA TENGGARA BARAT,,Indonesia,,,,-85.029.473,1.184.571.974,https://maps.google.com/?cid=0x0:0x36282ed0d4e435d1,
mall,Pusat Perbelanjaan,IKM MART DOMPU,"FFHG+22P, Mangge Asi, Kec. Dompu, Kabupaten Dompu, Nusa Tenggara Bar. 84214","Mangge Asi, Kec. Dompu, Kabupaten Dompu",NUSA TENGGARA BARAT,84214.0,Indonesia,,,,-85.224.204,1.184.750.863,https://maps.google.com/?cid=0x0:0x599853f754953300,
mall,Toko Swalayan,Bolly Deptstore Dompu,"FF65+4FH, Jl. Manuru Bata Dompu, Bada, Kec. Dompu, Kabupaten Dompu, Nusa Tenggara Bar. 84213","Jl. Manuru Bata Dompu, Bada, Kec. Dompu, Kabupaten Dompu",NUSA TENGGARA BARAT,84213.0,Indonesia,,,,-85.396.801,1.184.587.322,https://maps.google.com/?cid=0x0:0x5b99d2bfd3f4e4cf,
mall,Toko,UD. Sumber Karya,"FF95+XCF, Jl. Lkr. Utara, Bali, Kec. Dompu, Kabupaten Dompu, Nusa Tenggara Bar. 84213","Jl. Lkr. Utara, Bali, Kec. Dompu, Kabupaten Dompu",NUSA TENGGARA BARAT,84213.0,Indonesia,,,,-85.300.568,1.184.585.542,https://maps.google.com/?cid=0x0:0xddf008474fca8e75,
mall,Toko Pakaian,MAHATIRSTOREDOMPU,"Jl. Soekarno-Hatta No.2, Dorotangga, Kec. Dompu, Kabupaten Dompu, Nusa Tenggara Bar. 84212","Dorotangga, Kec. Dompu, Kabupaten Dompu",NUSA TENGGARA BARAT,84212.0,Indonesia,87866755381,,,-85.345.878,1.184.674.797,https://maps.google.com/?cid=0x0:0xeaad29fe013fa3e8,
mall,Toko Swalayan,Hamed Mart,"FF57+XH2, Bada, Kec. Dompu, Kabupaten Dompu, Nusa Tenggara Bar. 84213","Bada, Kec. Dompu, Kabupaten Dompu",NUSA TENGGARA BARAT,84213.0,Indonesia,,,,-85.401.192,1.184.638.956,https://maps.google.com/?cid=0x0:0x10dc796abc285c31,
mall,Pusat Perbelanjaan,UD.Puncak Jado,"Jln.Cakalang Kompleks Pasar Bawah Kota Baru, Bada, Kec. Dompu, Kabupaten Dompu, Nusa Tenggara Bar. 84213","Bada, Kec. Dompu, Kabupaten Dompu",NUSA TENGGARA BARAT,84213.0,Indonesia,85339250001,,,-8.537.562,1.184.623.859,https://maps.google.com/?cid=0x0:0x43c02affbcdfbfb5,
mall,Kantor Perusahaan,PT.BIJAKSANA PERKASA UTAMA,"Jl. Nusa Jaya No.1, Bali, Kec. Dompu, Kabupaten Dompu, Nusa Tenggara Bar. 84213","Bali, Kec. Dompu, Kabupaten Dompu",NUSA TENGGARA BARAT,84213.0,Indonesia,81238782998,,,-85.313.359,118.459.736,https://maps.google.com/?cid=0x0:0x226a4cda179c428f,
mall,Toko Bahan Bangunan,Distributor Sarung Gajah Duduk Bima Dompu Sumbawa,"FC6W+R7H, Simpasai, Kec. Woja, Kabupaten Dompu, Nusa Tenggara Bar. 84216","Simpasai, Kec. Woja, Kabupaten Dompu",NUSA TENGGARA BARAT,84216.0,Indonesia,85238755545,,,-85.379.385,1.184.457.328,https://maps.google.com/?cid=0x0:0x6f681f8386052d8,
mall,Pasar,Dompu Nusa tenggara barat,"FF6F+72C, Bada, Kec. Dompu, Kabupaten Dompu, Nusa Tenggara Bar.","Kabupaten Dompu, Nusa Tenggara Bar.",NUSA TENGGARA BARAT,,Indonesia,,,,-85.393.094,1.184.725.275,https://maps.google.com/?cid=0x0:0x35d4df9a05bceb53,
mall,Toko,Escana dompu,"Jl. Ke Bima No.40-36, Karijawa, Kec. Dompu, Kabupaten Dompu, Nusa Tenggara Bar. 84216","Karijawa, Kec. Dompu, Kabupaten Dompu",NUSA TENGGARA BARAT,84216.0,Indonesia,87777432714,,,-85.426.836,1.184.522.298,https://maps.google.com/?cid=0x0:0xdfb357567961485a,
mall,Toko,Toko Sumarni,"FFJ5+7V3, Jl. Lintas Saneo, Persiapan Sorisakolo, Kec. Dompu, Kabupaten Dompu, Nusa Tenggara Bar. 84213","Jl. Lintas Saneo, Persiapan Sorisakolo, Kec. Dompu, Kabupaten Dompu",NUSA TENGGARA BARAT,84213.0,Indonesia,,,,-85.193.559,1.184.596.658,https://maps.google.com/?cid=0x0:0x5b825aeec116c59e,
mall,Toko,BUTIQ ABI UMI DOMPU,"Jl. Baru Pelita, Bada, Kec. Dompu, Kabupaten Dompu, Nusa Tenggara Bar. 84211","Bada, Kec. Dompu, Kabupaten Dompu",NUSA TENGGARA BARAT,84211.0,Indonesia,82339534413,,,-85.331.668,1.184.707.149,https://maps.google.com/?cid=0x0:0x968a362108475e5d,
mall,Pusat Perbelanjaan,Toko Ais Jaya,"Jl. Sultan Hasanuddin No.48, Karijawa, Kec. Dompu, Kabupaten Dompu, Nusa Tenggara Bar. 84216","Karijawa, Kec. Dompu, Kabupaten Dompu",NUSA TENGGARA BARAT,84216.0,Indonesia,81287359191,,,-85.431.496,1.184.513.381,https://maps.google.com/?cid=0x0:0xa233f4e49727da3a,
mall,Toko Bahan Bangunan,Golden Bangunan,"Unnamed Road Nusa Tenggara Bar. 84251, Matua, Kec. Woja, Kabupaten Dompu, Nusa Tenggara Bar. 84251","Matua, Kec. Woja, Kabupaten Dompu",NUSA TENGGARA BARAT,84251.0,Indonesia,8176931226,,,-85.290.136,1.184.167.336,https://maps.google.com/?cid=0x0:0x1fcc4f303b373f35,
mall,Galeri Seni,gallery madu,"FF66+X5R, Jl. Mujair, Tanjung, Kec. Rasanae Bar., Kabupaten Dompu, Nusa Tenggara Bar. 84118","Jl. Mujair, Tanjung, Kec. Rasanae Bar., Kabupaten Dompu",NUSA TENGGARA BARAT,84118.0,Indonesia,85339200022,,,-85.375.127,118.460.394,https://maps.google.com/?cid=0x0:0xb10a5a2992b79f67,
mall,Komplek perumahan,CV. METIAN SEJAHTERA,"FF72+JH7, Jl. Baru Karijawa, Karijawa, Kec. Dompu, Kabupaten Dompu, Nusa Tenggara Bar. 84216","Jl. Baru Karijawa, Karijawa, Kec. Dompu, Kabupaten Dompu",NUSA TENGGARA BARAT,84216.0,Indonesia,81291517448,,,-85.359.504,1.184.514.249,https://maps.google.com/?cid=0x0:0x609d69246351371b,
mall,Toko Elektronik,Toko Niaga Teknik,"FF56+W73, Jl. Manuru Bata Dompu, Potu, Kec. Dompu, Kabupaten Dompu, Nusa Tenggara Bar. 84213","Jl. Manuru Bata Dompu, Potu, Kec. Dompu, Kabupaten Dompu",NUSA TENGGARA BARAT,84213.0,Indonesia,818366553,,,-85.402.271,1.184.606.593,https://maps.google.com/?cid=0x0:0x2b22eed0fdf541b8,
mall,Toko bahan makanan,Toko H.Gasim,"Jl. Sultan Hasanuddin, Karijawa, Kec. Dompu, Kabupaten Dompu, Nusa Tenggara Bar. 84216","Karijawa, Kec. Dompu, Kabupaten Dompu",NUSA TENGGARA BARAT,84216.0,Indonesia,85333578806,,,-85.414.995,1.184.536.733,https://maps.google.com/?cid=0x0:0x631adae4e4f31a58,
mall,Kios,NJ Mandiri,"G7HW+842, Nusa Jaya, Kec. Manggalewa, Kabupaten Dompu, Nusa Tenggara Bar. 84253","Nusa Jaya, Kec. Manggalewa, Kabupaten Dompu",NUSA TENGGARA BARAT,84253.0,Indonesia,82339672462,,,-84.717.401,1.182.952.749,https://maps.google.com/?cid=0x0:0xca437c4227ed53c1,
mall,Toko Obat Organik,CV APOTIK TANI,"Bada, Kec. Dompu, Kabupaten Dompu, Nusa Tenggara Bar. 84213","Kec. Dompu, Kabupaten Dompu",NUSA TENGGARA BARAT,84213.0,Indonesia,,,,-85.405.149,1.184.616.735,https://maps.google.com/?cid=0x0:0x2066fdbcd1d5b2df,
mall,Pusat Perbelanjaan,KING MART,"Jl. Imam Bonjol No.11, Kandai Dua, Kec. Woja, Kabupaten Dompu, Nusa Tenggara Bar. 84219","Kandai Dua, Kec. Woja, Kabupaten Dompu",NUSA TENGGARA BARAT,84219.0,Indonesia,85237116611,,,-85.471.951,1.184.319.843,https://maps.google.com/?cid=0x0:0x81310d17620a7593,
mall,Toko Kesehatan dan Kecantikan,Kingcell Dompu Karijawa,"FF53+FFW, Karijawa, Kec. Dompu, Kabupaten Dompu, Nusa Tenggara Bar. 84216","Karijawa, Kec. Dompu, Kabupaten Dompu",NUSA TENGGARA BARAT,84216.0,Indonesia,85337246003,,,-85.412.569,1.184.537.024,https://maps.google.com/?cid=0x0:0x1318387beeae697c,
mall,Toko Barang Rumah Tangga Asia,Toko Bintang Hiburan Elektro..,"FF66+6F8, Bada, Kec. Dompu, Kabupaten Dompu, Nusa Tenggara Bar. 84212","Bada, Kec. Dompu, Kabupaten Dompu",NUSA TENGGARA BARAT,84212.0,Indonesia,82339055569,,,-85.394.632,1.184.611.978,https://maps.google.com/?cid=0x0:0xff0b04d2b2316abe,
mall,Toko bahan makanan,Smart,"Jl. Baru Karijawa gg PS No.33, Karijawa, Kec. Dompu, Kabupaten Dompu, Nusa Tenggara Bar. 84213","Karijawa, Kec. Dompu, Kabupaten Dompu",NUSA TENGGARA BARAT,84213.0,Indonesia,81312243439,,,-85.314.562,1.184.548.222,https://maps.google.com/?cid=0x0:0x485a0ae2ef9fd899,
mall,Kantor Pemda,Kantor Bupati Dompu,"FF87+2QR, Jl. Beringin, Dorotangga, Kec. Dompu, Kabupaten Dompu, Nusa Tenggara Bar. 84213","Jl. Beringin, Dorotangga, Kec. Dompu, Kabupaten Dompu",NUSA TENGGARA BARAT,84213.0,Indonesia,373623552,,,-85.348.758,1.184.643.783,https://maps.google.com/?cid=0x0:0xade1f8bd9474f23f,
mall,Toko,Tempat Jual Beli Sarang Walet BINTANG 88 WALET,"Jl. Lele No.4, Bali, Kec. Dompu, Kabupaten Dompu, Nusa Tenggara Bar. 84213","Bali, Kec. Dompu, Kabupaten Dompu",NUSA TENGGARA BARAT,84213.0,Indonesia,88258525653,,,-85.354.589,1.184.610.978,https://maps.google.com/?cid=0x0:0x73fc729a92993855,
mall,mall,Nusa Tenggara Bar. 84214,"Kec. Dompu, Kabupaten Dompu, Nusa Tenggara Bar.","Kabupaten Dompu, Nusa Tenggara Bar.",NUSA TENGGARA BARAT,,Indonesia,,,,-85.235,1.184.776.372,https://maps.google.com/?cid=0x0:0x55f1573dc2143d57,
mall,Pusat Perbelanjaan,IKM MART DOMPU,"FFHG+22P, Mangge Asi, Kec. Dompu, Kabupaten Dompu, Nusa Tenggara Bar. 84214","Mangge Asi, Kec. Dompu, Kabupaten Dompu",NUSA TENGGARA BARAT,84214.0,Indonesia,,,,-85.224.204,1.184.750.863,https://maps.google.com/?cid=0x0:0x599853f754953300,
mall,Toko Pakaian,MAHATIRSTOREDOMPU,"Jl. Soekarno-Hatta No.2, Dorotangga, Kec. Dompu, Kabupaten Dompu, Nusa Tenggara Bar. 84212","Dorotangga, Kec. Dompu, Kabupaten Dompu",NUSA TENGGARA BARAT,84212.0,Indonesia,87866755381,,,-85.345.878,1.184.674.797,https://maps.google.com/?cid=0x0:0xeaad29fe013fa3e8,
mall,Toko Swalayan,Hamed Mart,"FF57+XH2, Bada, Kec. Dompu, Kabupaten Dompu, Nusa Tenggara Bar. 84213","Bada, Kec. Dompu, Kabupaten Dompu",NUSA TENGGARA BARAT,84213.0,Indonesia,,,,-85.401.192,1.184.638.956,https://maps.google.com/?cid=0x0:0x10dc796abc285c31,
mall,Pusat Perbelanjaan,KING MART,"Jl. Imam Bonjol No.11, Kandai Dua, Kec. Woja, Kabupaten Dompu, Nusa Tenggara Bar. 84219","Kandai Dua, Kec. Woja, Kabupaten Dompu",NUSA TENGGARA BARAT,84219.0,Indonesia,85237116611,,,-85.471.951,1.184.319.843,https://maps.google.com/?cid=0x0:0x81310d17620a7593,
mall,Grosir,Raja Grosir Colection Dompu,"FF56+V77, Jl. Mawa Adi, Bada, Kec. Dompu, Kabupaten Dompu, Nusa Tenggara Bar. 84213","Jl. Mawa Adi, Bada, Kec. Dompu, Kabupaten Dompu",NUSA TENGGARA BARAT,84213.0,Indonesia,85771913655,,,-85.403.331,1.184.606.722,https://maps.google.com/?cid=0x0:0x3c92704946ecb5c1,
mall,Pusat Perbelanjaan,Ms ULIL Jepara,"Dorebara, Kec. Dompu, Kabupaten Dompu, Nusa Tenggara Bar. 84219","Kec. Dompu, Kabupaten Dompu",NUSA TENGGARA BARAT,84219.0,Indonesia,87863113198,,,-85.689.546,1.184.539.498,https://maps.google.com/?cid=0x0:0xfc8bffccd49b9e88,
mall,Toko,UD. Sumber Karya,"FF95+XCF, Jl. Lkr. Utara, Bali, Kec. Dompu, Kabupaten Dompu, Nusa Tenggara Bar. 84213","Jl. Lkr. Utara, Bali, Kec. Dompu, Kabupaten Dompu",NUSA TENGGARA BARAT,84213.0,Indonesia,,,,-85.300.568,1.184.585.542,https://maps.google.com/?cid=0x0:0xddf008474fca8e75,
mall,Kantor Perusahaan,PT.BIJAKSANA PERKASA UTAMA,"Jl. Nusa Jaya No.1, Bali, Kec. Dompu, Kabupaten Dompu, Nusa Tenggara Bar. 84213","Bali, Kec. Dompu, Kabupaten Dompu",NUSA TENGGARA BARAT,84213.0,Indonesia,81238782998,,,-85.313.359,118.459.736,https://maps.google.com/?cid=0x0:0x226a4cda179c428f,
mall,Toko,BUTIQ ABI UMI DOMPU,"Jl. Baru Pelita, Bada, Kec. Dompu, Kabupaten Dompu, Nusa Tenggara Bar. 84211","Bada, Kec. Dompu, Kabupaten Dompu",NUSA TENGGARA BARAT,84211.0,Indonesia,82339534413,,,-85.331.668,1.184.707.149,https://maps.google.com/?cid=0x0:0x968a362108475e5d,
mall,Pusat Perbelanjaan,UD.Puncak Jado,"Jln.Cakalang Kompleks Pasar Bawah Kota Baru, Bada, Kec. Dompu, Kabupaten Dompu, Nusa Tenggara Bar. 84213","Bada, Kec. Dompu, Kabupaten Dompu",NUSA TENGGARA BARAT,84213.0,Indonesia,85339250001,,,-8.537.562,1.184.623.859,https://maps.google.com/?cid=0x0:0x43c02affbcdfbfb5,
mall,Pusat Perbelanjaan,Toko Ais Jaya,"Jl. Sultan Hasanuddin No.48, Karijawa, Kec. Dompu, Kabupaten Dompu, Nusa Tenggara Bar. 84216","Karijawa, Kec. Dompu, Kabupaten Dompu",NUSA TENGGARA BARAT,84216.0,Indonesia,81287359191,,,-85.431.496,1.184.513.381,https://maps.google.com/?cid=0x0:0xa233f4e49727da3a,
mall,Toko,Toko Sumarni,"FFJ5+7V3, Jl. Lintas Saneo, Persiapan Sorisakolo, Kec. Dompu, Kabupaten Dompu, Nusa Tenggara Bar. 84213","Jl. Lintas Saneo, Persiapan Sorisakolo, Kec. Dompu, Kabupaten Dompu",NUSA TENGGARA BARAT,84213.0,Indonesia,,,,-85.193.559,1.184.596.658,https://maps.google.com/?cid=0x0:0x5b825aeec116c59e,
mall,Pasar,Dompu Nusa tenggara barat,"FF6F+72C, Bada, Kec. Dompu, Kabupaten Dompu, Nusa Tenggara Bar.","Kabupaten Dompu, Nusa Tenggara Bar.",NUSA TENGGARA BARAT,,Indonesia,,,,-85.393.094,1.184.725.275,https://maps.google.com/?cid=0x0:0x35d4df9a05bceb53,
mall,Toko Bahan Bangunan,Distributor Sarung Gajah Duduk Bima Dompu Sumbawa,"FC6W+R7H, Simpasai, Kec. Woja, Kabupaten Dompu, Nusa Tenggara Bar. 84216","Simpasai, Kec. Woja, Kabupaten Dompu",NUSA TENGGARA BARAT,84216.0,Indonesia,85238755545,,,-85.379.385,1.184.457.328,https://maps.google.com/?cid=0x0:0x6f681f8386052d8,
mall,Toko,Escana dompu,"Jl. Ke Bima No.40-36, Karijawa, Kec. Dompu, Kabupaten Dompu, Nusa Tenggara Bar. 84216","Karijawa, Kec. Dompu, Kabupaten Dompu",NUSA TENGGARA BARAT,84216.0,Indonesia,87777432714,,,-85.426.836,1.184.522.298,https://maps.google.com/?cid=0x0:0xdfb357567961485a,
mall,Galeri Seni,gallery madu,"FF66+X5R, Jl. Mujair, Tanjung, Kec. Rasanae Bar., Kabupaten Dompu, Nusa Tenggara Bar. 84118","Jl. Mujair, Tanjung, Kec. Rasanae Bar., Kabupaten Dompu",NUSA TENGGARA BARAT,84118.0,Indonesia,85339200022,,,-85.375.127,118.460.394,https://maps.google.com/?cid=0x0:0xb10a5a2992b79f67,
mall,Toko umum,STOKIS HPAI HNI Nuha,"Jl. Soekarno-Hatta No.10, Dorotangga, Kec. Dompu, Kabupaten Dompu, Nusa Tenggara Bar. 84212","Dorotangga, Kec. Dompu, Kabupaten Dompu",NUSA TENGGARA BARAT,84212.0,Indonesia,217160498,,,-8.533.684,1.184.672.876,https://maps.google.com/?cid=0x0:0xd96a1ef51baa4bb4,
mall,Toko Organik,UD. Al Aisyah,"Jl. Ahmad Yani, Dorotangga, Kec. Dompu, Kabupaten Dompu, Nusa Tenggara Bar. 84212","Dorotangga, Kec. Dompu, Kabupaten Dompu",NUSA TENGGARA BARAT,84212.0,Indonesia,85338947510,,,-8.536.665,1.184.662.013,https://maps.google.com/?cid=0x0:0x272d71cc9bb4b6f1,
mall,Toko Barang Rumah Tangga Asia,Toko Bintang Hiburan Elektro..,"FF66+6F8, Bada, Kec. Dompu, Kabupaten Dompu, Nusa Tenggara Bar. 84212","Bada, Kec. Dompu, Kabupaten Dompu",NUSA TENGGARA BARAT,84212.0,Indonesia,82339055569,,,-85.394.632,1.184.611.978,https://maps.google.com/?cid=0x0:0xff0b04d2b2316abe,
mall,Toko Bahan Bangunan,Golden Bangunan,"Unnamed Road Nusa Tenggara Bar. 84251, Matua, Kec. Woja, Kabupaten Dompu, Nusa Tenggara Bar. 84251","Matua, Kec. Woja, Kabupaten Dompu",NUSA TENGGARA BARAT,84251.0,Indonesia,8176931226,,,-85.290.136,1.184.167.336,https://maps.google.com/?cid=0x0:0x1fcc4f303b373f35,
mall,Kantor Pemda,Kantor Bupati Dompu,"FF87+2QR, Jl. Beringin, Dorotangga, Kec. Dompu, Kabupaten Dompu, Nusa Tenggara Bar. 84213","Jl. Beringin, Dorotangga, Kec. Dompu, Kabupaten Dompu",NUSA TENGGARA BARAT,84213.0,Indonesia,373623552,,,-85.348.758,1.184.643.783,https://maps.google.com/?cid=0x0:0xade1f8bd9474f23f,
mall,Kantor Perusahaan,Komplek Gudang Pupuk Raba,"CFRH+953, Jl. Lintas Lakey, Dusun Raba Desa, Kareke, Kec. Dompu, Kabupaten Dompu, Nusa Tenggara Bar. 84214","Jl. Lintas Lakey, Dusun Raba Desa, Kareke, Kec. Dompu, Kabupaten Dompu",NUSA TENGGARA BARAT,84214.0,Indonesia,,,,-85.591.005,1.184.779.262,https://maps.google.com/?cid=0x0:0x9299f6abcd825536,
mall,mall,Nusa Tenggara Bar. 84217,"Kandai Satu, Kec. Dompu, Kabupaten Dompu, Nusa Tenggara Bar.","Kabupaten Dompu, Nusa Tenggara Bar.",NUSA TENGGARA BARAT,,Indonesia,,,,-85.495.421,1.184.601.175,https://maps.google.com/?cid=0x0:0x5e816e78d5a91ee2,
mall,Toko Pakaian,MAHATIRSTOREDOMPU,"Jl. Soekarno-Hatta No.2, Dorotangga, Kec. Dompu, Kabupaten Dompu, Nusa Tenggara Bar. 84212","Dorotangga, Kec. Dompu, Kabupaten Dompu",NUSA TENGGARA BARAT,84212.0,Indonesia,87866755381,,,-85.345.878,1.184.674.797,https://maps.google.com/?cid=0x0:0xeaad29fe013fa3e8,
mall,Toko Swalayan,Bolly Deptstore Dompu,"FF65+4FH, Jl. Manuru Bata Dompu, Bada, Kec. Dompu, Kabupaten Dompu, Nusa Tenggara Bar. 84213","Jl. Manuru Bata Dompu, Bada, Kec. Dompu, Kabupaten Dompu",NUSA TENGGARA BARAT,84213.0,Indonesia,,,,-85.396.801,1.184.587.322,https://maps.google.com/?cid=0x0:0x5b99d2bfd3f4e4cf,
mall,Pasar,Pasar Atas Dompu,"FF66+3MQ, Bada, Kec. Dompu, Kabupaten Dompu, Nusa Tenggara Bar. 84213","Bada, Kec. Dompu, Kabupaten Dompu",NUSA TENGGARA BARAT,84213.0,Indonesia,,,,-85.397.845,1.184.617.302,https://maps.google.com/?cid=0x0:0xb41c7f383662d8c4,
mall,Pusat Perbelanjaan,KING MART,"Jl. Imam Bonjol No.11, Kandai Dua, Kec. Woja, Kabupaten Dompu, Nusa Tenggara Bar. 84219","Kandai Dua, Kec. Woja, Kabupaten Dompu",NUSA TENGGARA BARAT,84219.0,Indonesia,85237116611,,,-85.471.951,1.184.319.843,https://maps.google.com/?cid=0x0:0x81310d17620a7593,
mall,Toko Swalayan,Hamed Mart,"FF57+XH2, Bada, Kec. Dompu, Kabupaten Dompu, Nusa Tenggara Bar. 84213","Bada, Kec. Dompu, Kabupaten Dompu",NUSA TENGGARA BARAT,84213.0,Indonesia,,,,-85.401.192,1.184.638.956,https://maps.google.com/?cid=0x0:0x10dc796abc285c31,
mall,Pusat Perbelanjaan,Ms ULIL Jepara,"Dorebara, Kec. Dompu, Kabupaten Dompu, Nusa Tenggara Bar. 84219","Kec. Dompu, Kabupaten Dompu",NUSA TENGGARA BARAT,84219.0,Indonesia,87863113198,,,-85.689.546,1.184.539.498,https://maps.google.com/?cid=0x0:0xfc8bffccd49b9e88,
mall,Grosir,Raja Grosir Colection Dompu,"FF56+V77, Jl. Mawa Adi, Bada, Kec. Dompu, Kabupaten Dompu, Nusa Tenggara Bar. 84213","Jl. Mawa Adi, Bada, Kec. Dompu, Kabupaten Dompu",NUSA TENGGARA BARAT,84213.0,Indonesia,85771913655,,,-85.403.331,1.184.606.722,https://maps.google.com/?cid=0x0:0x3c92704946ecb5c1,
mall,Toko,Escana dompu,"Jl. Ke Bima No.40-36, Karijawa, Kec. Dompu, Kabupaten Dompu, Nusa Tenggara Bar. 84216","Karijawa, Kec. Dompu, Kabupaten Dompu",NUSA TENGGARA BARAT,84216.0,Indonesia,87777432714,,,-85.426.836,1.184.522.298,https://maps.google.com/?cid=0x0:0xdfb357567961485a,
mall,Kantor Perusahaan,PT.BIJAKSANA PERKASA UTAMA,"Jl. Nusa Jaya No.1, Bali, Kec. Dompu, Kabupaten Dompu, Nusa Tenggara Bar. 84213","Bali, Kec. Dompu, Kabupaten Dompu",NUSA TENGGARA BARAT,84213.0,Indonesia,81238782998,,,-85.313.359,118.459.736,https://maps.google.com/?cid=0x0:0x226a4cda179c428f,
mall,Toko,UD. Sumber Karya,"FF95+XCF, Jl. Lkr. Utara, Bali, Kec. Dompu, Kabupaten Dompu, Nusa Tenggara Bar. 84213","Jl. Lkr. Utara, Bali, Kec. Dompu, Kabupaten Dompu",NUSA TENGGARA BARAT,84213.0,Indonesia,,,,-85.300.568,1.184.585.542,https://maps.google.com/?cid=0x0:0xddf008474fca8e75,
mall,Komplek perumahan,CV. METIAN SEJAHTERA,"FF72+JH7, Jl. Baru Karijawa, Karijawa, Kec. Dompu, Kabupaten Dompu, Nusa Tenggara Bar. 84216","Jl. Baru Karijawa, Karijawa, Kec. Dompu, Kabupaten Dompu",NUSA TENGGARA BARAT,84216.0,Indonesia,81291517448,,,-85.359.504,1.184.514.249,https://maps.google.com/?cid=0x0:0x609d69246351371b,
mall,Toko Kesehatan dan Kecantikan,Kingcell Dompu Karijawa,"FF53+FFW, Karijawa, Kec. Dompu, Kabupaten Dompu, Nusa Tenggara Bar. 84216","Karijawa, Kec. Dompu, Kabupaten Dompu",NUSA TENGGARA BARAT,84216.0,Indonesia,85337246003,,,-85.412.569,1.184.537.024,https://maps.google.com/?cid=0x0:0x1318387beeae697c,
mall,Pusat Perbelanjaan,UD.Puncak Jado,"Jln.Cakalang Kompleks Pasar Bawah Kota Baru, Bada, Kec. Dompu, Kabupaten Dompu, Nusa Tenggara Bar. 84213","Bada, Kec. Dompu, Kabupaten Dompu",NUSA TENGGARA BARAT,84213.0,Indonesia,85339250001,,,-8.537.562,1.184.623.859,https://maps.google.com/?cid=0x0:0x43c02affbcdfbfb5,
mall,Toko,NEW TEST V,"FC4Q+CHW MOBILE LEGEND BB, Kandai Dua, Kec. Woja, Kabupaten Dompu, Nusa Tenggara Bar. 84218","Kandai Dua, Kec. Woja, Kabupaten Dompu",NUSA TENGGARA BARAT,84218.0,Indonesia,82376207788,,,-85.438.842,118.438.938,https://maps.google.com/?cid=0x0:0x8bd929f7debc822a,
mall,Toko,MARWAH STORE Fashion  Skincare,"Jl. Lintas Mbawi, Kandai Satu, Kec. Dompu, Kabupaten Dompu, Nusa Tenggara Bar. 84217","Kandai Satu, Kec. Dompu, Kabupaten Dompu",NUSA TENGGARA BARAT,84217.0,Indonesia,85237774464,,,-85.461.663,1.184.601.906,https://maps.google.com/?cid=0x0:0xb00914e9b9bfc228,
mall,Toko Bunga,"Jual Bunga Mom pa,o","Jl. Sultan Hasanuddin No.10, Karijawa, Kec. Dompu, Kabupaten Dompu, Nusa Tenggara Bar. 84217","Karijawa, Kec. Dompu, Kabupaten Dompu",NUSA TENGGARA BARAT,84217.0,Indonesia,85338588930,,,-85.416.878,1.184.534.982,https://maps.google.com/?cid=0x0:0x4dcb955d3c5010,
mall,Toko Barang Rumah Tangga Asia,Toko Bintang Hiburan Elektro..,"FF66+6F8, Bada, Kec. Dompu, Kabupaten Dompu, Nusa Tenggara Bar. 84212","Bada, Kec. Dompu, Kabupaten Dompu",NUSA TENGGARA BARAT,84212.0,Indonesia,82339055569,,,-85.394.632,1.184.611.978,https://maps.google.com/?cid=0x0:0xff0b04d2b2316abe,
mall,Toko bahan makanan,Toko H.Gasim,"Jl. Sultan Hasanuddin, Karijawa, Kec. Dompu, Kabupaten Dompu, Nusa Tenggara Bar. 84216","Karijawa, Kec. Dompu, Kabupaten Dompu",NUSA TENGGARA BARAT,84216.0,Indonesia,85333578806,,,-85.414.995,1.184.536.733,https://maps.google.com/?cid=0x0:0x631adae4e4f31a58,
mall,Toko bahan makanan,Smart,"Jl. Baru Karijawa gg PS No.33, Karijawa, Kec. Dompu, Kabupaten Dompu, Nusa Tenggara Bar. 84213","Karijawa, Kec. Dompu, Kabupaten Dompu",NUSA TENGGARA BARAT,84213.0,Indonesia,81312243439,,,-85.314.562,1.184.548.222,https://maps.google.com/?cid=0x0:0x485a0ae2ef9fd899,
mall,Toko,BUTIQ ABI UMI DOMPU,"Jl. Baru Pelita, Bada, Kec. Dompu, Kabupaten Dompu, Nusa Tenggara Bar. 84211","Bada, Kec. Dompu, Kabupaten Dompu",NUSA TENGGARA BARAT,84211.0,Indonesia,82339534413,,,-85.331.668,1.184.707.149,https://maps.google.com/?cid=0x0:0x968a362108475e5d,
mall,Toko Elektronik,Toko Niaga Teknik,"FF56+W73, Jl. Manuru Bata Dompu, Potu, Kec. Dompu, Kabupaten Dompu, Nusa Tenggara Bar. 84213","Jl. Manuru Bata Dompu, Potu, Kec. Dompu, Kabupaten Dompu",NUSA TENGGARA BARAT,84213.0,Indonesia,818366553,,,-85.402.271,1.184.606.593,https://maps.google.com/?cid=0x0:0x2b22eed0fdf541b8,
mall,Galeri Seni,gallery madu,"FF66+X5R, Jl. Mujair, Tanjung, Kec. Rasanae Bar., Kabupaten Dompu, Nusa Tenggara Bar. 84118","Jl. Mujair, Tanjung, Kec. Rasanae Bar., Kabupaten Dompu",NUSA TENGGARA BARAT,84118.0,Indonesia,85339200022,,,-85.375.127,118.460.394,https://maps.google.com/?cid=0x0:0xb10a5a2992b79f67,
mall,Pusat Perbelanjaan,KING MART,"Jl. Imam Bonjol No.11, Kandai Dua, Kec. Woja, Kabupaten Dompu, Nusa Tenggara Bar. 84219","Kandai Dua, Kec. Woja, Kabupaten Dompu",NUSA TENGGARA BARAT,84219.0,Indonesia,85237116611,,,-85.471.951,1.184.319.843,https://maps.google.com/?cid=0x0:0x81310d17620a7593,
mall,mall,Nusa Tenggara Bar. 84219,"Kabupaten Dompu, Nusa Tenggara Bar.","Kabupaten Dompu, Nusa Tenggara Bar.",NUSA TENGGARA BARAT,,Indonesia,,,,-8.455.389,1.184.980.744,https://maps.google.com/?cid=0x0:0xd1ca28c719867916,
mall,Pusat Perbelanjaan,IKM MART DOMPU,"FFHG+22P, Mangge Asi, Kec. Dompu, Kabupaten Dompu, Nusa Tenggara Bar. 84214","Mangge Asi, Kec. Dompu, Kabupaten Dompu",NUSA TENGGARA BARAT,84214.0,Indonesia,,,,-85.224.204,1.184.750.863,https://maps.google.com/?cid=0x0:0x599853f754953300,
mall,Pusat Perbelanjaan,Ms ULIL Jepara,"Dorebara, Kec. Dompu, Kabupaten Dompu, Nusa Tenggara Bar. 84219","Kec. Dompu, Kabupaten Dompu",NUSA TENGGARA BARAT,84219.0,Indonesia,87863113198,,,-85.689.546,1.184.539.498,https://maps.google.com/?cid=0x0:0xfc8bffccd49b9e88,
mall,Toko Swalayan,Hamed Mart,"FF57+XH2, Bada, Kec. Dompu, Kabupaten Dompu, Nusa Tenggara Bar. 84213","Bada, Kec. Dompu, Kabupaten Dompu",NUSA TENGGARA BARAT,84213.0,Indonesia,,,,-85.401.192,1.184.638.956,https://maps.google.com/?cid=0x0:0x10dc796abc285c31,
mall,Toko Swalayan,Bolly Deptstore Dompu,"FF65+4FH, Jl. Manuru Bata Dompu, Bada, Kec. Dompu, Kabupaten Dompu, Nusa Tenggara Bar. 84213","Jl. Manuru Bata Dompu, Bada, Kec. Dompu, Kabupaten Dompu",NUSA TENGGARA BARAT,84213.0,Indonesia,,,,-85.396.801,1.184.587.322,https://maps.google.com/?cid=0x0:0x5b99d2bfd3f4e4cf,
mall,Toko Bahan Bangunan,Distributor Sarung Gajah Duduk Bima Dompu Sumbawa,"FC6W+R7H, Simpasai, Kec. Woja, Kabupaten Dompu, Nusa Tenggara Bar. 84216","Simpasai, Kec. Woja, Kabupaten Dompu",NUSA TENGGARA BARAT,84216.0,Indonesia,85238755545,,,-85.379.385,1.184.457.328,https://maps.google.com/?cid=0x0:0x6f681f8386052d8,
mall,Pusat Perbelanjaan,Toko Ais Jaya,"Jl. Sultan Hasanuddin No.48, Karijawa, Kec. Dompu, Kabupaten Dompu, Nusa Tenggara Bar. 84216","Karijawa, Kec. Dompu, Kabupaten Dompu",NUSA TENGGARA BARAT,84216.0,Indonesia,81287359191,,,-85.431.496,1.184.513.381,https://maps.google.com/?cid=0x0:0xa233f4e49727da3a,
mall,Grosir,Raja Grosir Colection Dompu,"FF56+V77, Jl. Mawa Adi, Bada, Kec. Dompu, Kabupaten Dompu, Nusa Tenggara Bar. 84213","Jl. Mawa Adi, Bada, Kec. Dompu, Kabupaten Dompu",NUSA TENGGARA BARAT,84213.0,Indonesia,85771913655,,,-85.403.331,1.184.606.722,https://maps.google.com/?cid=0x0:0x3c92704946ecb5c1,
mall,Area Mendaki,Puncak Doro Nowa,"FC56+45M, Bakajaya, Kec. Woja, Kabupaten Dompu, Nusa Tenggara Bar. 84251","Bakajaya, Kec. Woja, Kabupaten Dompu",NUSA TENGGARA BARAT,84251.0,Indonesia,87766641535,,,-85.421.511,1.184.104.202,https://maps.google.com/?cid=0x0:0x5399bcb2f9195a8b,
mall,Kantor Perusahaan,PT.BIJAKSANA PERKASA UTAMA,"Jl. Nusa Jaya No.1, Bali, Kec. Dompu, Kabupaten Dompu, Nusa Tenggara Bar. 84213","Bali, Kec. Dompu, Kabupaten Dompu",NUSA TENGGARA BARAT,84213.0,Indonesia,81238782998,,,-85.313.359,118.459.736,https://maps.google.com/?cid=0x0:0x226a4cda179c428f,
mall,Toko,NEW TEST V,"FC4Q+CHW MOBILE LEGEND BB, Kandai Dua, Kec. Woja, Kabupaten Dompu, Nusa Tenggara Bar. 84218","Kandai Dua, Kec. Woja, Kabupaten Dompu",NUSA TENGGARA BARAT,84218.0,Indonesia,82376207788,,,-85.438.842,118.438.938,https://maps.google.com/?cid=0x0:0x8bd929f7debc822a,
mall,Toko Bahan Bangunan,Golden Bangunan,"Unnamed Road Nusa Tenggara Bar. 84251, Matua, Kec. Woja, Kabupaten Dompu, Nusa Tenggara Bar. 84251","Matua, Kec. Woja, Kabupaten Dompu",NUSA TENGGARA BARAT,84251.0,Indonesia,8176931226,,,-85.290.136,1.184.167.336,https://maps.google.com/?cid=0x0:0x1fcc4f303b373f35,
mall,Toko,UD. Sumber Karya,"FF95+XCF, Jl. Lkr. Utara, Bali, Kec. Dompu, Kabupaten Dompu, Nusa Tenggara Bar. 84213","Jl. Lkr. Utara, Bali, Kec. Dompu, Kabupaten Dompu",NUSA TENGGARA BARAT,84213.0,Indonesia,,,,-85.300.568,1.184.585.542,https://maps.google.com/?cid=0x0:0xddf008474fca8e75,
mall,Toko,Escana dompu,"Jl. Ke Bima No.40-36, Karijawa, Kec. Dompu, Kabupaten Dompu, Nusa Tenggara Bar. 84216","Karijawa, Kec. Dompu, Kabupaten Dompu",NUSA TENGGARA BARAT,84216.0,Indonesia,87777432714,,,-85.426.836,1.184.522.298,https://maps.google.com/?cid=0x0:0xdfb357567961485a,
mall,Toko,BUTIQ ABI UMI DOMPU,"Jl. Baru Pelita, Bada, Kec. Dompu, Kabupaten Dompu, Nusa Tenggara Bar. 84211","Bada, Kec. Dompu, Kabupaten Dompu",NUSA TENGGARA BARAT,84211.0,Indonesia,82339534413,,,-85.331.668,1.184.707.149,https://maps.google.com/?cid=0x0:0x968a362108475e5d,
mall,Pusat Perbelanjaan,UD.Puncak Jado,"Jln.Cakalang Kompleks Pasar Bawah Kota Baru, Bada, Kec. Dompu, Kabupaten Dompu, Nusa Tenggara Bar. 84213","Bada, Kec. Dompu, Kabupaten Dompu",NUSA TENGGARA BARAT,84213.0,Indonesia,85339250001,,,-8.537.562,1.184.623.859,https://maps.google.com/?cid=0x0:0x43c02affbcdfbfb5,
mall,Pasar,Dompu Nusa tenggara barat,"FF6F+72C, Bada, Kec. Dompu, Kabupaten Dompu, Nusa Tenggara Bar.","Kabupaten Dompu, Nusa Tenggara Bar.",NUSA TENGGARA BARAT,,Indonesia,,,,-85.393.094,1.184.725.275,https://maps.google.com/?cid=0x0:0x35d4df9a05bceb53,
mall,Toko Kesehatan dan Kecantikan,Kingcell Dompu Karijawa,"FF53+FFW, Karijawa, Kec. Dompu, Kabupaten Dompu, Nusa Tenggara Bar. 84216","Karijawa, Kec. Dompu, Kabupaten Dompu",NUSA TENGGARA BARAT,84216.0,Indonesia,85337246003,,,-85.412.569,1.184.537.024,https://maps.google.com/?cid=0x0:0x1318387beeae697c,
mall,Toko Barang Rumah Tangga Asia,Toko Bintang Hiburan Elektro..,"FF66+6F8, Bada, Kec. Dompu, Kabupaten Dompu, Nusa Tenggara Bar. 84212","Bada, Kec. Dompu, Kabupaten Dompu",NUSA TENGGARA BARAT,84212.0,Indonesia,82339055569,,,-85.394.632,1.184.611.978,https://maps.google.com/?cid=0x0:0xff0b04d2b2316abe,
mall,Komplek perumahan,CV. METIAN SEJAHTERA,"FF72+JH7, Jl. Baru Karijawa, Karijawa, Kec. Dompu, Kabupaten Dompu, Nusa Tenggara Bar. 84216","Jl. Baru Karijawa, Karijawa, Kec. Dompu, Kabupaten Dompu",NUSA TENGGARA BARAT,84216.0,Indonesia,81291517448,,,-85.359.504,1.184.514.249,https://maps.google.com/?cid=0x0:0x609d69246351371b,
mall,mall,Nusa Tenggara Bar. 84261,"Kabupaten Dompu, Nusa Tenggara Bar.","Kabupaten Dompu, Nusa Tenggara Bar.",NUSA TENGGARA BARAT,,Indonesia,,,,-83.860.783,1.179.951.862,https://maps.google.com/?cid=0x0:0x9ecbf848dd39c412,
mall,mall,KECEMATAN KEMPO NTB DOMPU,"F66X+4VJ, Kempo, Kec. Kempo, Kabupaten Dompu, Nusa Tenggara Bar.","Kabupaten Dompu, Nusa Tenggara Bar.",NUSA TENGGARA BARAT,,Indonesia,,,,-85.396.584,1.182.496.493,https://maps.google.com/?cid=0x0:0xf8481457b2c7489a,
mall,mall,Kec. Kempo,"Kabupaten Dompu, Nusa Tenggara Bar.","Kabupaten Dompu, Nusa Tenggara Bar.",NUSA TENGGARA BARAT,,Indonesia,,,,-8.539.691,1.182.496.396,https://maps.google.com/?cid=0x0:0x383cd7701aafd185,
mall,Pusat Perbelanjaan,KING MART,"Jl. Imam Bonjol No.11, Kandai Dua, Kec. Woja, Kabupaten Dompu, Nusa Tenggara Bar. 84219","Kandai Dua, Kec. Woja, Kabupaten Dompu",NUSA TENGGARA BARAT,84219.0,Indonesia,85237116611,,,-85.471.951,1.184.319.843,https://maps.google.com/?cid=0x0:0x81310d17620a7593,
mall,Sekolah menengah,SDN No.2 KEMPO,"F64X+54J, Jl. Lintas Calabai, Kempo, Kec. Kempo, Kabupaten Dompu, Nusa Tenggara Bar. 84261","Jl. Lintas Calabai, Kempo, Kec. Kempo, Kabupaten Dompu",NUSA TENGGARA BARAT,84261.0,Indonesia,,,,-85.445.383,1.182.477.697,https://maps.google.com/?cid=0x0:0x178a336a406db953,
mall,Toko,Escana dompu,"Jl. Ke Bima No.40-36, Karijawa, Kec. Dompu, Kabupaten Dompu, Nusa Tenggara Bar. 84216","Karijawa, Kec. Dompu, Kabupaten Dompu",NUSA TENGGARA BARAT,84216.0,Indonesia,87777432714,,,-85.426.836,1.184.522.298,https://maps.google.com/?cid=0x0:0xdfb357567961485a,
mall,mall,KEMPO mart,"Jl. Raya, Kempo, Kec. Kempo, Kabupaten Dompu, Nusa Tenggara Bar. 84261","Kempo, Kec. Kempo, Kabupaten Dompu",NUSA TENGGARA BARAT,84261.0,Indonesia,,,,-8.547.095,118.247.567,https://maps.google.com/?cid=0x0:0xd653cbf33d01127d,
mall,mall,KIOS PANGERAN,"C6RQ+FW4, Jl. Lintas Calabai, Soro, Kec. Kempo, Kabupaten Dompu, Nusa Tenggara Bar. 84261","Jl. Lintas Calabai, Soro, Kec. Kempo, Kabupaten Dompu",NUSA TENGGARA BARAT,84261.0,Indonesia,,,,-85.588.717,1.182.398.227,https://maps.google.com/?cid=0x0:0xad09f3e2467c0b75,
mall,Toko bahan makanan,WA JAYA mart,"Jl. Datuk Anggrat Dusun Dasan Nangka, Kadindi timur, Kec. Pekat, Kabupaten Dompu, Nusa Tenggara Bar. 84261","Kadindi timur, Kec. Pekat, Kabupaten Dompu",NUSA TENGGARA BARAT,84261.0,Indonesia,82340135423,,,-81.854.229,1.177.516.003,https://maps.google.com/?cid=0x0:0x7de65e236c2b717e,
mall,Pusat Perbelanjaan,Kios Manikmas Wy.Gara,"F664+W4C, Unnamed Road, So Nggajah, Kec. Kempo, Kabupaten Dompu, Nusa Tenggara Bar. 84261","Unnamed Road, So Nggajah, Kec. Kempo, Kabupaten Dompu",NUSA TENGGARA BARAT,84261.0,Indonesia,87766935149,,,-85.376.938,1.182.052.588,https://maps.google.com/?cid=0x0:0x3123c69039253395,
mall,mall,Kios syamala putra putri,"F654+RQC, So Nggajah, Kec. Kempo, Kabupaten Dompu, Nusa Tenggara Bar. 84261","So Nggajah, Kec. Kempo, Kabupaten Dompu",NUSA TENGGARA BARAT,84261.0,Indonesia,81246520230,,,-85.404.456,1.182.069.056,https://maps.google.com/?cid=0x0:0x4d9c322c41fcd446,
mall,mall,Toko HANDIKA,"Soro, Kec. Kempo, Kabupaten Dompu, Nusa Tenggara Bar. 84261","Kec. Kempo, Kabupaten Dompu",NUSA TENGGARA BARAT,84261.0,Indonesia,,,,-85.588.201,1.182.395.601,https://maps.google.com/?cid=0x0:0x5cdff9b374edef54,
mall,Pusat Perbelanjaan,IKM MART DOMPU,"FFHG+22P, Mangge Asi, Kec. Dompu, Kabupaten Dompu, Nusa Tenggara Bar. 84214","Mangge Asi, Kec. Dompu, Kabupaten Dompu",NUSA TENGGARA BARAT,84214.0,Indonesia,,,,-85.224.204,1.184.750.863,https://maps.google.com/?cid=0x0:0x599853f754953300,
mall,Pusat Perbelanjaan,Central Park,"Jl. Letjen S. Parman No.Kav. 28, Tj. Duren Sel., Kec. Grogol petamburan, Kota Jakarta Barat, Daerah Khusus Ibukota Jakarta 11470","Tj. Duren Sel., Kec. Grogol petamburan, Kota Jakarta Barat",NUSA TENGGARA BARAT,11470.0,Indonesia,2156989999,,,-61.771.373,1.067.909.788,https://maps.google.com/?cid=0x0:0xe816d65037c3207a,
mall,mall,Nusa Tenggara Bar. 84271,"Kec. Hu'u, Kabupaten Dompu, Nusa Tenggara Bar.","Kabupaten Dompu, Nusa Tenggara Bar.",NUSA TENGGARA BARAT,,Indonesia,,,,-87.839.226,1.184.630.376,https://maps.google.com/?cid=0x0:0x4669cd9d22c1e9e6,
mall,Pusat Perbelanjaan,UD. Yeti Hu'u,"6CVH+MW9, Daha, Kec. Hu'u, Kabupaten Dompu, Nusa Tenggara Bar. 84271","Daha, Kec. Hu'u, Kabupaten Dompu",NUSA TENGGARA BARAT,84271.0,Indonesia,,,,-87.558.454,1.184.298.696,https://maps.google.com/?cid=0x0:0x52cd420bc77e5447,
mall,Pusat Perbelanjaan,TERIMAKASIH MART,"59WP+V5C, Huu, Kec. Hu'u, Kabupaten Dompu, Nusa Tenggara Bar. 84271","Huu, Kec. Hu'u, Kabupaten Dompu",NUSA TENGGARA BARAT,84271.0,Indonesia,,,,-8.802.431,118.384.848,https://maps.google.com/?cid=0x0:0xa280c93ccd0e5ab4,
mall,Pusat Perbelanjaan,Toko TerimaKasih Lakey,"59WM+8R9, Jl. Lintas Lakey, Huu, Kec. Hu'u, Kabupaten Dompu, Nusa Tenggara Bar. 84271","Jl. Lintas Lakey, Huu, Kec. Hu'u, Kabupaten Dompu",NUSA TENGGARA BARAT,84271.0,Indonesia,,,,-88.042.109,1.183.846.053,https://maps.google.com/?cid=0x0:0x484823e1c04c9255,
mall,Toko bahan makanan,Warung Sembako Ibu Mila,"7C2Q+6W2, Daha, Kec. Hu'u, Kabupaten Dompu, Nusa Tenggara Bar. 84271","Daha, Kec. Hu'u, Kabupaten Dompu",NUSA TENGGARA BARAT,84271.0,Indonesia,81904276577,,,-87.494.947,1.184.397.706,https://maps.google.com/?cid=0x0:0xe8c69dcfda387320,
mall,Pusat Perbelanjaan,Ms ULIL Jepara,"Dorebara, Kec. Dompu, Kabupaten Dompu, Nusa Tenggara Bar. 84219","Kec. Dompu, Kabupaten Dompu",NUSA TENGGARA BARAT,84219.0,Indonesia,87863113198,,,-85.689.546,1.184.539.498,https://maps.google.com/?cid=0x0:0xfc8bffccd49b9e88,
mall,Toko Swalayan,Toko Sembako The zheyn,"7C2Q+WQF, Daha, Kec. Hu'u, Kabupaten Dompu, Nusa Tenggara Bar.","Kabupaten Dompu, Nusa Tenggara Bar.",NUSA TENGGARA BARAT,,Indonesia,82340115599,,,-87.484,118.439.555,https://maps.google.com/?cid=0x0:0xbae236e152dd2817,
mall,Kios,Kios Melati,"8CXW+P8M, Lune, Kec. Pajo, Kabupaten Dompu, Nusa Tenggara Bar. 84272","Lune, Kec. Pajo, Kabupaten Dompu",NUSA TENGGARA BARAT,84272.0,Indonesia,,,,-86.504.454,1.184.453.925,https://maps.google.com/?cid=0x0:0xb55978ec9f2751c4,
mall,Toko sembako pemerintah,UD. YHANI,"Nusa Jaya, Kec. Manggalewa, Kabupaten Dompu, Nusa Tenggara Bar.","Kabupaten Dompu, Nusa Tenggara Bar.",NUSA TENGGARA BARAT,,Indonesia,,,,-84.804.857,1.183.058.224,https://maps.google.com/?cid=0x0:0xddcbabab5236c1f6,
mall,mall,Nusa Tenggara Bar. 84252,"Kec. Kilo, Kabupaten Dompu, Nusa Tenggara Bar.","Kabupaten Dompu, Nusa Tenggara Bar.",NUSA TENGGARA BARAT,,Indonesia,,,,-83.661.165,1.183.812.562,https://maps.google.com/?cid=0x0:0xc5fe1ded17f045e9,
mall,Pusat Perbelanjaan,KING MART,"Jl. Imam Bonjol No.11, Kandai Dua, Kec. Woja, Kabupaten Dompu, Nusa Tenggara Bar. 84219","Kandai Dua, Kec. Woja, Kabupaten Dompu",NUSA TENGGARA BARAT,84219.0,Indonesia,85237116611,,,-85.471.951,1.184.319.843,https://maps.google.com/?cid=0x0:0x81310d17620a7593,
mall,Kios,UD MAJU JAYA,"J8JP+WGH, Jl. Lintas Kilo, Mbuju, Kec. Kilo, Kabupaten Dompu, Nusa Tenggara Bar. 84252","Jl. Lintas Kilo, Mbuju, Kec. Kilo, Kabupaten Dompu",NUSA TENGGARA BARAT,84252.0,Indonesia,,,,-83.676.964,1.183.363.658,https://maps.google.com/?cid=0x0:0xc20ffec07325ce5e,
mall,Toko Perbaikan Ponsel,Dzakira Mobile Celuler,"J838+XQW, Jalan Lintas Bima, Taloko, Sanggar, Bima Regency, West Nusa Tenggara 84252","Jalan Lintas Bima, Taloko, Sanggar, Bima Regency",NUSA TENGGARA BARAT,84252.0,Indonesia,82339724314,,,-83.950.175,1.183.169.553,https://maps.google.com/?cid=0x0:0xca9ec80eac1aeb30,
mall,Toko,UD. Nurul Bima,"J838+WRH, Jalan Lintas Bima, Taloko, Sanggar, Bima Regency, West Nusa Tenggara 84252","Jalan Lintas Bima, Taloko, Sanggar, Bima Regency",NUSA TENGGARA BARAT,84252.0,Indonesia,82339724314,,,-83.951.861,1.183.170.969,https://maps.google.com/?cid=0x0:0x9e671b7aedebce84,
mall,Pasar,F2 Sanggar,"J7FX+CQ2, Kore, Kec. Sanggar, Kabupaten Bima, Nusa Tenggara Bar. 84191","Kore, Kec. Sanggar, Kabupaten Bima",NUSA TENGGARA BARAT,84191.0,Indonesia,,,,-83.764.879,1.182.993.848,https://maps.google.com/?cid=0x0:0x583cb9d663f34b42,
mall,mall,Toko Seven Mart,"MCX2+9R3, Lasi, Kec. Kilo, Kabupaten Dompu, Nusa Tenggara Bar. 84252","Lasi, Kec. Kilo, Kabupaten Dompu",NUSA TENGGARA BARAT,84252.0,Indonesia,,,,-83.016.095,1.184.020.615,https://maps.google.com/?cid=0x0:0xae554789f2bb8a92,
mall,Toko,UD. Taloko Jaya,"H8X8+7J8, Taloko, Kec. Sanggar, Kabupaten Bima, Nusa Tenggara Bar. 84252","Taloko, Kec. Sanggar, Kabupaten Bima",NUSA TENGGARA BARAT,84252.0,Indonesia,82340132332,,,-84.018.488,1.183.165.778,https://maps.google.com/?cid=0x0:0x40a8d31b24f88c26,
mall,Tujuan Wisata,Taropo kilo,"H8VQ+87H, Taropo, Kec. Kilo, Kabupaten Dompu, Nusa Tenggara Bar.","Kabupaten Dompu, Nusa Tenggara Bar.",NUSA TENGGARA BARAT,,Indonesia,82341306224,,,-8.406.676,1.183.382.333,https://maps.google.com/?cid=0x0:0x129493a3855c2481,
mall,Pusat Perbelanjaan,Mall Kota Kasablanka,"Jl. Raya Casablanca No.Kav 88, Menteng Dalam, Kec. Tebet, Kota Jakarta Selatan, Daerah Khusus Ibukota Jakarta 12870","Menteng Dalam, Kec. Tebet, Kota Jakarta Selatan",NUSA TENGGARA BARAT,12870.0,Indonesia,2129465000,,,-62.240.353,1.068.425.979,https://maps.google.com/?cid=0x0:0xaf54cb631563acce,
mall,Pusat Perbelanjaan,Toko ud prima sanggar,"J8F3+452, Sandue, Kec. Sanggar, Kabupaten Bima, Nusa Tenggara Bar.","Kabupaten Bima, Nusa Tenggara Bar.",NUSA TENGGARA BARAT,,Indonesia,,,,-83.772.318,1.183.029.049,https://maps.google.com/?cid=0x0:0x4b523467d5e1fd,
mall,Pusat Perbelanjaan,Summarecon Mall Kelapa Gading,"Jl. Boulevard Raya, Klp. Gading Tim., Kec. Klp. Gading, Jkt Utara, Daerah Khusus Ibukota Jakarta 14240","Klp. Gading Tim., Kec. Klp. Gading, Jkt Utara",NUSA TENGGARA BARAT,14240.0,Indonesia,214531101,,,-61.572.666,1.069.084.263,https://maps.google.com/?cid=0x0:0x1c1a278e20ff1c47,
mall,Komplek perumahan,CV. METIAN SEJAHTERA,"FF72+JH7, Jl. Baru Karijawa, Karijawa, Kec. Dompu, Kabupaten Dompu, Nusa Tenggara Bar. 84216","Jl. Baru Karijawa, Karijawa, Kec. Dompu, Kabupaten Dompu",NUSA TENGGARA BARAT,84216.0,Indonesia,81291517448,,,-85.359.504,1.184.514.249,https://maps.google.com/?cid=0x0:0x609d69246351371b,
mall,mall,Nusa Tenggara Bar. 84216,"Kabupaten Dompu, Nusa Tenggara Bar.","Kabupaten Dompu, Nusa Tenggara Bar.",NUSA TENGGARA BARAT,,Indonesia,,,,-85.455.416,1.184.484.367,https://maps.google.com/?cid=0x0:0x588c0621b5331cf5,
mall,Toko,NEW TEST V,"FC4Q+CHW MOBILE LEGEND BB, Kandai Dua, Kec. Woja, Kabupaten Dompu, Nusa Tenggara Bar. 84218","Kandai Dua, Kec. Woja, Kabupaten Dompu",NUSA TENGGARA BARAT,84218.0,Indonesia,82376207788,,,-85.438.842,118.438.938,https://maps.google.com/?cid=0x0:0x8bd929f7debc822a,
mall,Kantor Perusahaan,PT.BIJAKSANA PERKASA UTAMA,"Jl. Nusa Jaya No.1, Bali, Kec. Dompu, Kabupaten Dompu, Nusa Tenggara Bar. 84213","Bali, Kec. Dompu, Kabupaten Dompu",NUSA TENGGARA BARAT,84213.0,Indonesia,81238782998,,,-85.313.359,118.459.736,https://maps.google.com/?cid=0x0:0x226a4cda179c428f,
mall,Pusat Perbelanjaan,Toko Ais Jaya,"Jl. Sultan Hasanuddin No.48, Karijawa, Kec. Dompu, Kabupaten Dompu, Nusa Tenggara Bar. 84216","Karijawa, Kec. Dompu, Kabupaten Dompu",NUSA TENGGARA BARAT,84216.0,Indonesia,81287359191,,,-85.431.496,1.184.513.381,https://maps.google.com/?cid=0x0:0xa233f4e49727da3a,
mall,Grosir,Raja Grosir Colection Dompu,"FF56+V77, Jl. Mawa Adi, Bada, Kec. Dompu, Kabupaten Dompu, Nusa Tenggara Bar. 84213","Jl. Mawa Adi, Bada, Kec. Dompu, Kabupaten Dompu",NUSA TENGGARA BARAT,84213.0,Indonesia,85771913655,,,-85.403.331,1.184.606.722,https://maps.google.com/?cid=0x0:0x3c92704946ecb5c1,
mall,Toko Swalayan,Bolly Deptstore Dompu,"FF65+4FH, Jl. Manuru Bata Dompu, Bada, Kec. Dompu, Kabupaten Dompu, Nusa Tenggara Bar. 84213","Jl. Manuru Bata Dompu, Bada, Kec. Dompu, Kabupaten Dompu",NUSA TENGGARA BARAT,84213.0,Indonesia,,,,-85.396.801,1.184.587.322,https://maps.google.com/?cid=0x0:0x5b99d2bfd3f4e4cf,
mall,Toko,Escana dompu,"Jl. Ke Bima No.40-36, Karijawa, Kec. Dompu, Kabupaten Dompu, Nusa Tenggara Bar. 84216","Karijawa, Kec. Dompu, Kabupaten Dompu",NUSA TENGGARA BARAT,84216.0,Indonesia,87777432714,,,-85.426.836,1.184.522.298,https://maps.google.com/?cid=0x0:0xdfb357567961485a,
mall,Toko Kesehatan dan Kecantikan,Kingcell Dompu Karijawa,"FF53+FFW, Karijawa, Kec. Dompu, Kabupaten Dompu, Nusa Tenggara Bar. 84216","Karijawa, Kec. Dompu, Kabupaten Dompu",NUSA TENGGARA BARAT,84216.0,Indonesia,85337246003,,,-85.412.569,1.184.537.024,https://maps.google.com/?cid=0x0:0x1318387beeae697c,
mall,Toko bahan makanan,Toko H.Gasim,"Jl. Sultan Hasanuddin, Karijawa, Kec. Dompu, Kabupaten Dompu, Nusa Tenggara Bar. 84216","Karijawa, Kec. Dompu, Kabupaten Dompu",NUSA TENGGARA BARAT,84216.0,Indonesia,85333578806,,,-85.414.995,1.184.536.733,https://maps.google.com/?cid=0x0:0x631adae4e4f31a58,
mall,Toko,MARWAH STORE Fashion  Skincare,"Jl. Lintas Mbawi, Kandai Satu, Kec. Dompu, Kabupaten Dompu, Nusa Tenggara Bar. 84217","Kandai Satu, Kec. Dompu, Kabupaten Dompu",NUSA TENGGARA BARAT,84217.0,Indonesia,85237774464,,,-85.461.663,1.184.601.906,https://maps.google.com/?cid=0x0:0xb00914e9b9bfc228,
mall,Toko,UD. Sumber Karya,"FF95+XCF, Jl. Lkr. Utara, Bali, Kec. Dompu, Kabupaten Dompu, Nusa Tenggara Bar. 84213","Jl. Lkr. Utara, Bali, Kec. Dompu, Kabupaten Dompu",NUSA TENGGARA BARAT,84213.0,Indonesia,,,,-85.300.568,1.184.585.542,https://maps.google.com/?cid=0x0:0xddf008474fca8e75,
mall,Toko,Tempat Jual Beli Sarang Walet BINTANG 88 WALET,"Jl. Lele No.4, Bali, Kec. Dompu, Kabupaten Dompu, Nusa Tenggara Bar. 84213","Bali, Kec. Dompu, Kabupaten Dompu",NUSA TENGGARA BARAT,84213.0,Indonesia,88258525653,,,-85.354.589,1.184.610.978,https://maps.google.com/?cid=0x0:0x73fc729a92993855,
mall,Pasar,Dagang Duren Bangkok,"FCHX+J9V, Simpasai, Kec. Woja, Kabupaten Dompu, Nusa Tenggara Bar.","Kabupaten Dompu, Nusa Tenggara Bar.",NUSA TENGGARA BARAT,,Indonesia,,,,-85.208.913,1.184.484.367,https://maps.google.com/?cid=0x0:0x55410f28d4b98344,
mall,Galeri Seni,gallery madu,"FF66+X5R, Jl. Mujair, Tanjung, Kec. Rasanae Bar., Kabupaten Dompu, Nusa Tenggara Bar. 84118","Jl. Mujair, Tanjung, Kec. Rasanae Bar., Kabupaten Dompu",NUSA TENGGARA BARAT,84118.0,Indonesia,85339200022,,,-85.375.127,118.460.394,https://maps.google.com/?cid=0x0:0xb10a5a2992b79f67,
mall,Toko Bunga,"Jual Bunga Mom pa,o","Jl. Sultan Hasanuddin No.10, Karijawa, Kec. Dompu, Kabupaten Dompu, Nusa Tenggara Bar. 84217","Karijawa, Kec. Dompu, Kabupaten Dompu",NUSA TENGGARA BARAT,84217.0,Indonesia,85338588930,,,-85.416.878,1.184.534.982,https://maps.google.com/?cid=0x0:0x4dcb955d3c5010,
mall,Pusat Perbelanjaan,UD.Puncak Jado,"Jln.Cakalang Kompleks Pasar Bawah Kota Baru, Bada, Kec. Dompu, Kabupaten Dompu, Nusa Tenggara Bar. 84213","Bada, Kec. Dompu, Kabupaten Dompu",NUSA TENGGARA BARAT,84213.0,Indonesia,85339250001,,,-8.537.562,1.184.623.859,https://maps.google.com/?cid=0x0:0x43c02affbcdfbfb5,
mall,Toko Barang Rumah Tangga Asia,Toko Bintang Hiburan Elektro..,"FF66+6F8, Bada, Kec. Dompu, Kabupaten Dompu, Nusa Tenggara Bar. 84212","Bada, Kec. Dompu, Kabupaten Dompu",NUSA TENGGARA BARAT,84212.0,Indonesia,82339055569,,,-85.394.632,1.184.611.978,https://maps.google.com/?cid=0x0:0xff0b04d2b2316abe,
mall,Toko,Toko Sumarni,"FFJ5+7V3, Jl. Lintas Saneo, Persiapan Sorisakolo, Kec. Dompu, Kabupaten Dompu, Nusa Tenggara Bar. 84213","Jl. Lintas Saneo, Persiapan Sorisakolo, Kec. Dompu, Kabupaten Dompu",NUSA TENGGARA BARAT,84213.0,Indonesia,,,,-85.193.559,1.184.596.658,https://maps.google.com/?cid=0x0:0x5b825aeec116c59e,
mall,Pusat Perbelanjaan,KING MART,"Jl. Imam Bonjol No.11, Kandai Dua, Kec. Woja, Kabupaten Dompu, Nusa Tenggara Bar. 84219","Kandai Dua, Kec. Woja, Kabupaten Dompu",NUSA TENGGARA BARAT,84219.0,Indonesia,85237116611,,,-85.471.951,1.184.319.843,https://maps.google.com/?cid=0x0:0x81310d17620a7593,
mall,Toko Bahan Bangunan,Golden Bangunan,"Unnamed Road Nusa Tenggara Bar. 84251, Matua, Kec. Woja, Kabupaten Dompu, Nusa Tenggara Bar. 84251","Matua, Kec. Woja, Kabupaten Dompu",NUSA TENGGARA BARAT,84251.0,Indonesia,8176931226,,,-85.290.136,1.184.167.336,https://maps.google.com/?cid=0x0:0x1fcc4f303b373f35,
mall,Area Mendaki,Puncak Doro Nowa,"FC56+45M, Bakajaya, Kec. Woja, Kabupaten Dompu, Nusa Tenggara Bar. 84251","Bakajaya, Kec. Woja, Kabupaten Dompu",NUSA TENGGARA BARAT,84251.0,Indonesia,87766641535,,,-85.421.511,1.184.104.202,https://maps.google.com/?cid=0x0:0x5399bcb2f9195a8b,
mall,Toko Elektronik,Toko Niaga Teknik,"FF56+W73, Jl. Manuru Bata Dompu, Potu, Kec. Dompu, Kabupaten Dompu, Nusa Tenggara Bar. 84213","Jl. Manuru Bata Dompu, Potu, Kec. Dompu, Kabupaten Dompu",NUSA TENGGARA BARAT,84213.0,Indonesia,818366553,,,-85.402.271,1.184.606.593,https://maps.google.com/?cid=0x0:0x2b22eed0fdf541b8,
mall,mall,Nusa Tenggara Bar. 84218,"Kec. Woja, Kabupaten Dompu, Nusa Tenggara Bar.","Kabupaten Dompu, Nusa Tenggara Bar.",NUSA TENGGARA BARAT,,Indonesia,,,,-85.464.715,1.184.367.551,https://maps.google.com/?cid=0x0:0xb59074d297d4d9d7,
mall,Pusat Perbelanjaan,KING MART,"Jl. Imam Bonjol No.11, Kandai Dua, Kec. Woja, Kabupaten Dompu, Nusa Tenggara Bar. 84219","Kandai Dua, Kec. Woja, Kabupaten Dompu",NUSA TENGGARA BARAT,84219.0,Indonesia,85237116611,,,-85.471.951,1.184.319.843,https://maps.google.com/?cid=0x0:0x81310d17620a7593,
mall,Toko,NEW TEST V,"FC4Q+CHW MOBILE LEGEND BB, Kandai Dua, Kec. Woja, Kabupaten Dompu, Nusa Tenggara Bar. 84218","Kandai Dua, Kec. Woja, Kabupaten Dompu",NUSA TENGGARA BARAT,84218.0,Indonesia,82376207788,,,-85.438.842,118.438.938,https://maps.google.com/?cid=0x0:0x8bd929f7debc822a,
mall,Kantor Perusahaan,PT.BIJAKSANA PERKASA UTAMA,"Jl. Nusa Jaya No.1, Bali, Kec. Dompu, Kabupaten Dompu, Nusa Tenggara Bar. 84213","Bali, Kec. Dompu, Kabupaten Dompu",NUSA TENGGARA BARAT,84213.0,Indonesia,81238782998,,,-85.313.359,118.459.736,https://maps.google.com/?cid=0x0:0x226a4cda179c428f,
mall,Toko Bahan Bangunan,Distributor Sarung Gajah Duduk Bima Dompu Sumbawa,"FC6W+R7H, Simpasai, Kec. Woja, Kabupaten Dompu, Nusa Tenggara Bar. 84216","Simpasai, Kec. Woja, Kabupaten Dompu",NUSA TENGGARA BARAT,84216.0,Indonesia,85238755545,,,-85.379.385,1.184.457.328,https://maps.google.com/?cid=0x0:0x6f681f8386052d8,
mall,Komplek perumahan,CV. METIAN SEJAHTERA,"FF72+JH7, Jl. Baru Karijawa, Karijawa, Kec. Dompu, Kabupaten Dompu, Nusa Tenggara Bar. 84216","Jl. Baru Karijawa, Karijawa, Kec. Dompu, Kabupaten Dompu",NUSA TENGGARA BARAT,84216.0,Indonesia,81291517448,,,-85.359.504,1.184.514.249,https://maps.google.com/?cid=0x0:0x609d69246351371b,
mall,Toko Bahan Bangunan,Golden Bangunan,"Unnamed Road Nusa Tenggara Bar. 84251, Matua, Kec. Woja, Kabupaten Dompu, Nusa Tenggara Bar. 84251","Matua, Kec. Woja, Kabupaten Dompu",NUSA TENGGARA BARAT,84251.0,Indonesia,8176931226,,,-85.290.136,1.184.167.336,https://maps.google.com/?cid=0x0:0x1fcc4f303b373f35,
mall,Pusat Perbelanjaan,Toko Ais Jaya,"Jl. Sultan Hasanuddin No.48, Karijawa, Kec. Dompu, Kabupaten Dompu, Nusa Tenggara Bar. 84216","Karijawa, Kec. Dompu, Kabupaten Dompu",NUSA TENGGARA BARAT,84216.0,Indonesia,81287359191,,,-85.431.496,1.184.513.381,https://maps.google.com/?cid=0x0:0xa233f4e49727da3a,
mall,Toko Swalayan,Bolly Deptstore Dompu,"FF65+4FH, Jl. Manuru Bata Dompu, Bada, Kec. Dompu, Kabupaten Dompu, Nusa Tenggara Bar. 84213","Jl. Manuru Bata Dompu, Bada, Kec. Dompu, Kabupaten Dompu",NUSA TENGGARA BARAT,84213.0,Indonesia,,,,-85.396.801,1.184.587.322,https://maps.google.com/?cid=0x0:0x5b99d2bfd3f4e4cf,
mall,Grosir,Raja Grosir Colection Dompu,"FF56+V77, Jl. Mawa Adi, Bada, Kec. Dompu, Kabupaten Dompu, Nusa Tenggara Bar. 84213","Jl. Mawa Adi, Bada, Kec. Dompu, Kabupaten Dompu",NUSA TENGGARA BARAT,84213.0,Indonesia,85771913655,,,-85.403.331,1.184.606.722,https://maps.google.com/?cid=0x0:0x3c92704946ecb5c1,
mall,Toko,MARWAH STORE Fashion  Skincare,"Jl. Lintas Mbawi, Kandai Satu, Kec. Dompu, Kabupaten Dompu, Nusa Tenggara Bar. 84217","Kandai Satu, Kec. Dompu, Kabupaten Dompu",NUSA TENGGARA BARAT,84217.0,Indonesia,85237774464,,,-85.461.663,1.184.601.906,https://maps.google.com/?cid=0x0:0xb00914e9b9bfc228,
mall,Pasar,Dagang Duren Bangkok,"FCHX+J9V, Simpasai, Kec. Woja, Kabupaten Dompu, Nusa Tenggara Bar.","Kabupaten Dompu, Nusa Tenggara Bar.",NUSA TENGGARA BARAT,,Indonesia,,,,-85.208.913,1.184.484.367,https://maps.google.com/?cid=0x0:0x55410f28d4b98344,
mall,Pusat Perbelanjaan,TOKO PANDUR,"FC2H+R4W, Jl. Ke Bima, Montabaru, Kec. Woja, Kabupaten Dompu, Nusa Tenggara Bar. 84219","Jl. Ke Bima, Montabaru, Kec. Woja, Kabupaten Dompu",NUSA TENGGARA BARAT,84219.0,Indonesia,85337387770,,,-85.478.785,1.184.278.332,https://maps.google.com/?cid=0x0:0x5fb718fe67db2261,
mall,Toko,Escana dompu,"Jl. Ke Bima No.40-36, Karijawa, Kec. Dompu, Kabupaten Dompu, Nusa Tenggara Bar. 84216","Karijawa, Kec. Dompu, Kabupaten Dompu",NUSA TENGGARA BARAT,84216.0,Indonesia,87777432714,,,-85.426.836,1.184.522.298,https://maps.google.com/?cid=0x0:0xdfb357567961485a,
mall,Toko,Tempat Jual Beli Sarang Walet BINTANG 88 WALET,"Jl. Lele No.4, Bali, Kec. Dompu, Kabupaten Dompu, Nusa Tenggara Bar. 84213","Bali, Kec. Dompu, Kabupaten Dompu",NUSA TENGGARA BARAT,84213.0,Indonesia,88258525653,,,-85.354.589,1.184.610.978,https://maps.google.com/?cid=0x0:0x73fc729a92993855,
mall,Area Mendaki,Puncak Doro Nowa,"FC56+45M, Bakajaya, Kec. Woja, Kabupaten Dompu, Nusa Tenggara Bar. 84251","Bakajaya, Kec. Woja, Kabupaten Dompu",NUSA TENGGARA BARAT,84251.0,Indonesia,87766641535,,,-85.421.511,1.184.104.202,https://maps.google.com/?cid=0x0:0x5399bcb2f9195a8b,
mall,Toko,UD. Sumber Karya,"FF95+XCF, Jl. Lkr. Utara, Bali, Kec. Dompu, Kabupaten Dompu, Nusa Tenggara Bar. 84213","Jl. Lkr. Utara, Bali, Kec. Dompu, Kabupaten Dompu",NUSA TENGGARA BARAT,84213.0,Indonesia,,,,-85.300.568,1.184.585.542,https://maps.google.com/?cid=0x0:0xddf008474fca8e75,
mall,mall,Nusa Tenggara Bar. 84219,"Kabupaten Dompu, Nusa Tenggara Bar.","Kabupaten Dompu, Nusa Tenggara Bar.",NUSA TENGGARA BARAT,,Indonesia,,,,-8.455.389,1.184.980.744,https://maps.google.com/?cid=0x0:0xd1ca28c719867916,
mall,Pusat Perbelanjaan,KING MART,"Jl. Imam Bonjol No.11, Kandai Dua, Kec. Woja, Kabupaten Dompu, Nusa Tenggara Bar. 84219","Kandai Dua, Kec. Woja, Kabupaten Dompu",NUSA TENGGARA BARAT,84219.0,Indonesia,85237116611,,,-85.471.951,1.184.319.843,https://maps.google.com/?cid=0x0:0x81310d17620a7593,
mall,Kantor Perusahaan,PT.BIJAKSANA PERKASA UTAMA,"Jl. Nusa Jaya No.1, Bali, Kec. Dompu, Kabupaten Dompu, Nusa Tenggara Bar. 84213","Bali, Kec. Dompu, Kabupaten Dompu",NUSA TENGGARA BARAT,84213.0,Indonesia,81238782998,,,-85.313.359,118.459.736,https://maps.google.com/?cid=0x0:0x226a4cda179c428f,
mall,Toko,NEW TEST V,"FC4Q+CHW MOBILE LEGEND BB, Kandai Dua, Kec. Woja, Kabupaten Dompu, Nusa Tenggara Bar. 84218","Kandai Dua, Kec. Woja, Kabupaten Dompu",NUSA TENGGARA BARAT,84218.0,Indonesia,82376207788,,,-85.438.842,118.438.938,https://maps.google.com/?cid=0x0:0x8bd929f7debc822a,
mall,Area Mendaki,Puncak Doro Nowa,"FC56+45M, Bakajaya, Kec. Woja, Kabupaten Dompu, Nusa Tenggara Bar. 84251","Bakajaya, Kec. Woja, Kabupaten Dompu",NUSA TENGGARA BARAT,84251.0,Indonesia,87766641535,,,-85.421.511,1.184.104.202,https://maps.google.com/?cid=0x0:0x5399bcb2f9195a8b,
mall,Toko Bahan Bangunan,Golden Bangunan,"Unnamed Road Nusa Tenggara Bar. 84251, Matua, Kec. Woja, Kabupaten Dompu, Nusa Tenggara Bar. 84251","Matua, Kec. Woja, Kabupaten Dompu",NUSA TENGGARA BARAT,84251.0,Indonesia,8176931226,,,-85.290.136,1.184.167.336,https://maps.google.com/?cid=0x0:0x1fcc4f303b373f35,
mall,Toko Pakaian,MAHATIRSTOREDOMPU,"Jl. Soekarno-Hatta No.2, Dorotangga, Kec. Dompu, Kabupaten Dompu, Nusa Tenggara Bar. 84212","Dorotangga, Kec. Dompu, Kabupaten Dompu",NUSA TENGGARA BARAT,84212.0,Indonesia,87866755381,,,-85.345.878,1.184.674.797,https://maps.google.com/?cid=0x0:0xeaad29fe013fa3e8,
mall,Toko Swalayan,Bolly Deptstore Dompu,"FF65+4FH, Jl. Manuru Bata Dompu, Bada, Kec. Dompu, Kabupaten Dompu, Nusa Tenggara Bar. 84213","Jl. Manuru Bata Dompu, Bada, Kec. Dompu, Kabupaten Dompu",NUSA TENGGARA BARAT,84213.0,Indonesia,,,,-85.396.801,1.184.587.322,https://maps.google.com/?cid=0x0:0x5b99d2bfd3f4e4cf,
mall,Toko Swalayan,Hamed Mart,"FF57+XH2, Bada, Kec. Dompu, Kabupaten Dompu, Nusa Tenggara Bar. 84213","Bada, Kec. Dompu, Kabupaten Dompu",NUSA TENGGARA BARAT,84213.0,Indonesia,,,,-85.401.192,1.184.638.956,https://maps.google.com/?cid=0x0:0x10dc796abc285c31,
mall,Grosir,Raja Grosir Colection Dompu,"FF56+V77, Jl. Mawa Adi, Bada, Kec. Dompu, Kabupaten Dompu, Nusa Tenggara Bar. 84213","Jl. Mawa Adi, Bada, Kec. Dompu, Kabupaten Dompu",NUSA TENGGARA BARAT,84213.0,Indonesia,85771913655,,,-85.403.331,1.184.606.722,https://maps.google.com/?cid=0x0:0x3c92704946ecb5c1,
mall,Komplek perumahan,CV. METIAN SEJAHTERA,"FF72+JH7, Jl. Baru Karijawa, Karijawa, Kec. Dompu, Kabupaten Dompu, Nusa Tenggara Bar. 84216","Jl. Baru Karijawa, Karijawa, Kec. Dompu, Kabupaten Dompu",NUSA TENGGARA BARAT,84216.0,Indonesia,81291517448,,,-85.359.504,1.184.514.249,https://maps.google.com/?cid=0x0:0x609d69246351371b,
mall,Toko Bahan Bangunan,Distributor Sarung Gajah Duduk Bima Dompu Sumbawa,"FC6W+R7H, Simpasai, Kec. Woja, Kabupaten Dompu, Nusa Tenggara Bar. 84216","Simpasai, Kec. Woja, Kabupaten Dompu",NUSA TENGGARA BARAT,84216.0,Indonesia,85238755545,,,-85.379.385,1.184.457.328,https://maps.google.com/?cid=0x0:0x6f681f8386052d8,
mall,Pusat Perbelanjaan,IKM MART DOMPU,"FFHG+22P, Mangge Asi, Kec. Dompu, Kabupaten Dompu, Nusa Tenggara Bar. 84214","Mangge Asi, Kec. Dompu, Kabupaten Dompu",NUSA TENGGARA BARAT,84214.0,Indonesia,,,,-85.224.204,1.184.750.863,https://maps.google.com/?cid=0x0:0x599853f754953300,
mall,Toko,Toko Harum Baka Jaya,"FC27+GCR, Jl. Lintas Sumbawa - Bima, Bakajaya, Kec. Woja, Kabupaten Dompu, Nusa Tenggara Bar. 84251","Jl. Lintas Sumbawa - Bima, Bakajaya, Kec. Woja, Kabupaten Dompu",NUSA TENGGARA BARAT,84251.0,Indonesia,82237997000,,,-85.486.371,1.184.135.028,https://maps.google.com/?cid=0x0:0xb103901421ec0627,
mall,Pusat Perbelanjaan,MSC,"Ndano, Nae, Kec. Donggo, Kabupaten Bima, Nusa Tenggara Bar. 84162","Nae, Kec. Donggo, Kabupaten Bima",NUSA TENGGARA BARAT,84162.0,Indonesia,82340365128,,,-84.486.251,1.185.073.462,https://maps.google.com/?cid=0x0:0x3f828aba69c349f1,
mall,Pusat Perbelanjaan,Toko Ais Jaya,"Jl. Sultan Hasanuddin No.48, Karijawa, Kec. Dompu, Kabupaten Dompu, Nusa Tenggara Bar. 84216","Karijawa, Kec. Dompu, Kabupaten Dompu",NUSA TENGGARA BARAT,84216.0,Indonesia,81287359191,,,-85.431.496,1.184.513.381,https://maps.google.com/?cid=0x0:0xa233f4e49727da3a,
mall,Pusat Perbelanjaan,UD.Puncak Jado,"Jln.Cakalang Kompleks Pasar Bawah Kota Baru, Bada, Kec. Dompu, Kabupaten Dompu, Nusa Tenggara Bar. 84213","Bada, Kec. Dompu, Kabupaten Dompu",NUSA TENGGARA BARAT,84213.0,Indonesia,85339250001,,,-8.537.562,1.184.623.859,https://maps.google.com/?cid=0x0:0x43c02affbcdfbfb5,
mall,Toko,MARWAH STORE Fashion  Skincare,"Jl. Lintas Mbawi, Kandai Satu, Kec. Dompu, Kabupaten Dompu, Nusa Tenggara Bar. 84217","Kandai Satu, Kec. Dompu, Kabupaten Dompu",NUSA TENGGARA BARAT,84217.0,Indonesia,85237774464,,,-85.461.663,1.184.601.906,https://maps.google.com/?cid=0x0:0xb00914e9b9bfc228,
mall,Galeri Seni,gallery madu,"FF66+X5R, Jl. Mujair, Tanjung, Kec. Rasanae Bar., Kabupaten Dompu, Nusa Tenggara Bar. 84118","Jl. Mujair, Tanjung, Kec. Rasanae Bar., Kabupaten Dompu",NUSA TENGGARA BARAT,84118.0,Indonesia,85339200022,,,-85.375.127,118.460.394,https://maps.google.com/?cid=0x0:0xb10a5a2992b79f67,
mall,Pusat Perbelanjaan,TOKO PANDUR,"FC2H+R4W, Jl. Ke Bima, Montabaru, Kec. Woja, Kabupaten Dompu, Nusa Tenggara Bar. 84219","Jl. Ke Bima, Montabaru, Kec. Woja, Kabupaten Dompu",NUSA TENGGARA BARAT,84219.0,Indonesia,85337387770,,,-85.478.785,1.184.278.332,https://maps.google.com/?cid=0x0:0x5fb718fe67db2261,
mall,Toko,UD. Sumber Karya,"FF95+XCF, Jl. Lkr. Utara, Bali, Kec. Dompu, Kabupaten Dompu, Nusa Tenggara Bar. 84213","Jl. Lkr. Utara, Bali, Kec. Dompu, Kabupaten Dompu",NUSA TENGGARA BARAT,84213.0,Indonesia,,,,-85.300.568,1.184.585.542,https://maps.google.com/?cid=0x0:0xddf008474fca8e75,
mall,Toko,BUTIQ ABI UMI DOMPU,"Jl. Baru Pelita, Bada, Kec. Dompu, Kabupaten Dompu, Nusa Tenggara Bar. 84211","Bada, Kec. Dompu, Kabupaten Dompu",NUSA TENGGARA BARAT,84211.0,Indonesia,82339534413,,,-85.331.668,1.184.707.149,https://maps.google.com/?cid=0x0:0x968a362108475e5d,
mall,Kantor Perusahaan,UD.NILHAM Usaha Batako JULHAKIM,"CFH3+X57, Dorebara, Kec. Dompu, Kabupaten Dompu, Nusa Tenggara Bar. 84219","Dorebara, Kec. Dompu, Kabupaten Dompu",NUSA TENGGARA BARAT,84219.0,Indonesia,,,,-85.700.833,1.184.529.235,https://maps.google.com/?cid=0x0:0x5494f3deea86eff,
mall,Toko Bahan Bangunan,Golden Bangunan,"Unnamed Road Nusa Tenggara Bar. 84251, Matua, Kec. Woja, Kabupaten Dompu, Nusa Tenggara Bar. 84251","Matua, Kec. Woja, Kabupaten Dompu",NUSA TENGGARA BARAT,84251.0,Indonesia,8176931226,,,-85.290.136,1.184.167.336,https://maps.google.com/?cid=0x0:0x1fcc4f303b373f35,
mall,mall,Nusa Tenggara Bar. 84251,"Kec. Woja, Kabupaten Dompu, Nusa Tenggara Bar.","Kabupaten Dompu, Nusa Tenggara Bar.",NUSA TENGGARA BARAT,,Indonesia,,,,-85.434.837,1.183.812.562,https://maps.google.com/?cid=0x0:0xd559d9dfdafacdb4,
mall,Pusat Perbelanjaan,KING MART,"Jl. Imam Bonjol No.11, Kandai Dua, Kec. Woja, Kabupaten Dompu, Nusa Tenggara Bar. 84219","Kandai Dua, Kec. Woja, Kabupaten Dompu",NUSA TENGGARA BARAT,84219.0,Indonesia,85237116611,,,-85.471.951,1.184.319.843,https://maps.google.com/?cid=0x0:0x81310d17620a7593,
mall,Toko,Toko Harum Baka Jaya,"FC27+GCR, Jl. Lintas Sumbawa - Bima, Bakajaya, Kec. Woja, Kabupaten Dompu, Nusa Tenggara Bar. 84251","Jl. Lintas Sumbawa - Bima, Bakajaya, Kec. Woja, Kabupaten Dompu",NUSA TENGGARA BARAT,84251.0,Indonesia,82237997000,,,-85.486.371,1.184.135.028,https://maps.google.com/?cid=0x0:0xb103901421ec0627,
mall,Toko,NEW TEST V,"FC4Q+CHW MOBILE LEGEND BB, Kandai Dua, Kec. Woja, Kabupaten Dompu, Nusa Tenggara Bar. 84218","Kandai Dua, Kec. Woja, Kabupaten Dompu",NUSA TENGGARA BARAT,84218.0,Indonesia,82376207788,,,-85.438.842,118.438.938,https://maps.google.com/?cid=0x0:0x8bd929f7debc822a,
mall,mall,Kec. Woja,"Kabupaten Dompu, Nusa Tenggara Bar.","Kabupaten Dompu, Nusa Tenggara Bar.",NUSA TENGGARA BARAT,,Indonesia,,,,-85.470.487,1.184.317.451,https://maps.google.com/?cid=0x0:0x208b86a6d16215a,
mall,Gudang,CV Jaya Mantap Perkasa Depo Dompu (Distributor FMCG),"F96G+78X, Jl. Haji Abubakar Ahmad, Bara, Kec. Woja, Kabupaten Dompu, Nusa Tenggara Bar. 84251","Jl. Haji Abubakar Ahmad, Bara, Kec. Woja, Kabupaten Dompu",NUSA TENGGARA BARAT,84251.0,Indonesia,85239363093,,,-85.392.553,1.183.758.714,https://maps.google.com/?cid=0x0:0x594c79739f42eb21,
mall,Pusat Perbelanjaan,Ms ULIL Jepara,"Dorebara, Kec. Dompu, Kabupaten Dompu, Nusa Tenggara Bar. 84219","Kec. Dompu, Kabupaten Dompu",NUSA TENGGARA BARAT,84219.0,Indonesia,87863113198,,,-85.689.546,1.184.539.498,https://maps.google.com/?cid=0x0:0xfc8bffccd49b9e88,
mall,Toko Bahan Bangunan,Distributor Sarung Gajah Duduk Bima Dompu Sumbawa,"FC6W+R7H, Simpasai, Kec. Woja, Kabupaten Dompu, Nusa Tenggara Bar. 84216","Simpasai, Kec. Woja, Kabupaten Dompu",NUSA TENGGARA BARAT,84216.0,Indonesia,85238755545,,,-85.379.385,1.184.457.328,https://maps.google.com/?cid=0x0:0x6f681f8386052d8,
mall,Kantor Perusahaan,PT.BIJAKSANA PERKASA UTAMA,"Jl. Nusa Jaya No.1, Bali, Kec. Dompu, Kabupaten Dompu, Nusa Tenggara Bar. 84213","Bali, Kec. Dompu, Kabupaten Dompu",NUSA TENGGARA BARAT,84213.0,Indonesia,81238782998,,,-85.313.359,118.459.736,https://maps.google.com/?cid=0x0:0x226a4cda179c428f,
mall,Toko Swalayan,Bolly Deptstore Dompu,"FF65+4FH, Jl. Manuru Bata Dompu, Bada, Kec. Dompu, Kabupaten Dompu, Nusa Tenggara Bar. 84213","Jl. Manuru Bata Dompu, Bada, Kec. Dompu, Kabupaten Dompu",NUSA TENGGARA BARAT,84213.0,Indonesia,,,,-85.396.801,1.184.587.322,https://maps.google.com/?cid=0x0:0x5b99d2bfd3f4e4cf,
mall,Komplek perumahan,CV. METIAN SEJAHTERA,"FF72+JH7, Jl. Baru Karijawa, Karijawa, Kec. Dompu, Kabupaten Dompu, Nusa Tenggara Bar. 84216","Jl. Baru Karijawa, Karijawa, Kec. Dompu, Kabupaten Dompu",NUSA TENGGARA BARAT,84216.0,Indonesia,81291517448,,,-85.359.504,1.184.514.249,https://maps.google.com/?cid=0x0:0x609d69246351371b,
mall,Toko Pakaian,MAHATIRSTOREDOMPU,"Jl. Soekarno-Hatta No.2, Dorotangga, Kec. Dompu, Kabupaten Dompu, Nusa Tenggara Bar. 84212","Dorotangga, Kec. Dompu, Kabupaten Dompu",NUSA TENGGARA BARAT,84212.0,Indonesia,87866755381,,,-85.345.878,1.184.674.797,https://maps.google.com/?cid=0x0:0xeaad29fe013fa3e8,
mall,Pusat Perbelanjaan,TOKO PANDUR,"FC2H+R4W, Jl. Ke Bima, Montabaru, Kec. Woja, Kabupaten Dompu, Nusa Tenggara Bar. 84219","Jl. Ke Bima, Montabaru, Kec. Woja, Kabupaten Dompu",NUSA TENGGARA BARAT,84219.0,Indonesia,85337387770,,,-85.478.785,1.184.278.332,https://maps.google.com/?cid=0x0:0x5fb718fe67db2261,
mall,Toko bahan makanan,Bolly Dept Store Soriutu,"F8JC+C9V, Soriutu, Kec. Manggalewa, Kabupaten Dompu, Nusa Tenggara Bar. 84253","Soriutu, Kec. Manggalewa, Kabupaten Dompu",NUSA TENGGARA BARAT,84253.0,Indonesia,,,,-85.188.784,1.183.209.277,https://maps.google.com/?cid=0x0:0x4b7da3809c8c8b7f,
mall,Kafe,KITTY SHOO,"F8JC+HMV, Soriutu, Kec. Manggalewa, Kabupaten Dompu, Nusa Tenggara Bar. 84253","Soriutu, Kec. Manggalewa, Kabupaten Dompu",NUSA TENGGARA BARAT,84253.0,Indonesia,85239006077,,,-8.518.516,1.183.216.595,https://maps.google.com/?cid=0x0:0xbece6f6ac57b8cd2,
mall,Pusat Perbelanjaan,IKM MART DOMPU,"FFHG+22P, Mangge Asi, Kec. Dompu, Kabupaten Dompu, Nusa Tenggara Bar. 84214","Mangge Asi, Kec. Dompu, Kabupaten Dompu",NUSA TENGGARA BARAT,84214.0,Indonesia,,,,-85.224.204,1.184.750.863,https://maps.google.com/?cid=0x0:0x599853f754953300,
mall,Grosir,Raja Grosir Colection Dompu,"FF56+V77, Jl. Mawa Adi, Bada, Kec. Dompu, Kabupaten Dompu, Nusa Tenggara Bar. 84213","Jl. Mawa Adi, Bada, Kec. Dompu, Kabupaten Dompu",NUSA TENGGARA BARAT,84213.0,Indonesia,85771913655,,,-85.403.331,1.184.606.722,https://maps.google.com/?cid=0x0:0x3c92704946ecb5c1,
mall,Kantor Pemerintah,Desa bara,"F96P+QR9, Bara, Kec. Woja, Kabupaten Dompu, Nusa Tenggara Bar. 84251","Bara, Kec. Woja, Kabupaten Dompu",NUSA TENGGARA BARAT,84251.0,Indonesia,,,,-8.538.087,1.183.870.991,https://maps.google.com/?cid=0x0:0xdd6b9e893133b972,
mall,Toko Bunga,"Jual Bunga Mom pa,o","Jl. Sultan Hasanuddin No.10, Karijawa, Kec. Dompu, Kabupaten Dompu, Nusa Tenggara Bar. 84217","Karijawa, Kec. Dompu, Kabupaten Dompu",NUSA TENGGARA BARAT,84217.0,Indonesia,85338588930,,,-85.416.878,1.184.534.982,https://maps.google.com/?cid=0x0:0x4dcb955d3c5010,
mall,Pusat Perbelanjaan,Toko Ais Jaya,"Jl. Sultan Hasanuddin No.48, Karijawa, Kec. Dompu, Kabupaten Dompu, Nusa Tenggara Bar. 84216","Karijawa, Kec. Dompu, Kabupaten Dompu",NUSA TENGGARA BARAT,84216.0,Indonesia,81287359191,,,-85.431.496,1.184.513.381,https://maps.google.com/?cid=0x0:0xa233f4e49727da3a,
mall,Galeri Seni,gallery madu,"FF66+X5R, Jl. Mujair, Tanjung, Kec. Rasanae Bar., Kabupaten Dompu, Nusa Tenggara Bar. 84118","Jl. Mujair, Tanjung, Kec. Rasanae Bar., Kabupaten Dompu",NUSA TENGGARA BARAT,84118.0,Indonesia,85339200022,,,-85.375.127,118.460.394,https://maps.google.com/?cid=0x0:0xb10a5a2992b79f67,
mall,Toko,UD. Sumber Karya,"FF95+XCF, Jl. Lkr. Utara, Bali, Kec. Dompu, Kabupaten Dompu, Nusa Tenggara Bar. 84213","Jl. Lkr. Utara, Bali, Kec. Dompu, Kabupaten Dompu",NUSA TENGGARA BARAT,84213.0,Indonesia,,,,-85.300.568,1.184.585.542,https://maps.google.com/?cid=0x0:0xddf008474fca8e75,
mall,Toko,BUTIQ ABI UMI DOMPU,"Jl. Baru Pelita, Bada, Kec. Dompu, Kabupaten Dompu, Nusa Tenggara Bar. 84211","Bada, Kec. Dompu, Kabupaten Dompu",NUSA TENGGARA BARAT,84211.0,Indonesia,82339534413,,,-85.331.668,1.184.707.149,https://maps.google.com/?cid=0x0:0x968a362108475e5d,
mall,mall,Pekat,"Calabai, Kec. Pekat, Kabupaten Dompu, Nusa Tenggara Bar.","Kabupaten Dompu, Nusa Tenggara Bar.",NUSA TENGGARA BARAT,,Indonesia,,,,-8.238.184,117.715.797,https://maps.google.com/?cid=0x0:0x5890663b56067254,
mall,Pusat Perbelanjaan,Taha,"PQC3+GC2, Jl. Lintas Calabai, Beringin Jaya, Kec. Pekat, Kabupaten Dompu, Nusa Tenggara Bar. 84261","Jl. Lintas Calabai, Beringin Jaya, Kec. Pekat, Kabupaten Dompu",NUSA TENGGARA BARAT,84261.0,Indonesia,,,,-82.787.342,1.177.535.044,https://maps.google.com/?cid=0x0:0xaca1d588214909ad,
mall,Toko bahan makanan,WA JAYA mart,"Jl. Datuk Anggrat Dusun Dasan Nangka, Kadindi timur, Kec. Pekat, Kabupaten Dompu, Nusa Tenggara Bar. 84261","Kadindi timur, Kec. Pekat, Kabupaten Dompu",NUSA TENGGARA BARAT,84261.0,Indonesia,82340135423,,,-81.854.229,1.177.516.003,https://maps.google.com/?cid=0x0:0x7de65e236c2b717e,
mall,Pusat Perbelanjaan,Mal Ciputra Tangerang,"Jl. Citra Raya Boulevard, Ciakar, Kec. Panongan, Kabupaten Tangerang, Banten 15710","Ciakar, Kec. Panongan, Kabupaten Tangerang",NUSA TENGGARA BARAT,15710.0,Indonesia,2139715888,,,-62.609.367,1.065.248.651,https://maps.google.com/?cid=0x0:0x426b60f7dfe14e13,
mall,Pusat Perbelanjaan,CITRA RAYA SQUARE 2,"QG9C+9W3, Jl. Citra Raya Boulevard, Cikupa, Kec. Cikupa, Kabupaten Tangerang, Banten 15710","Jl. Citra Raya Boulevard, Cikupa, Kec. Cikupa, Kabupaten Tangerang",NUSA TENGGARA BARAT,15710.0,Indonesia,,,,-62.316.055,1.065.222.838,https://maps.google.com/?cid=0x0:0x867e75f1d92d025f,
mall,Dapur Umum,Yangs Braised Chicken Rice Mall Ciputra Tangerang,"Mall Ciputra Tanggerang, Ciakar, Kec. Panongan, Kabupaten Tangerang, Banten 15710","Ciakar, Kec. Panongan, Kabupaten Tangerang",NUSA TENGGARA BARAT,15710.0,Indonesia,,,,-62.610.117,1.065.248.165,https://maps.google.com/?cid=0x0:0x221464e3027c59d6,
mall,Stasiun Pengisian Kendaraan Listrik,SPKLU St. Pengisian,"PGQG+P3P, Ciakar, Kec. Panongan, Kabupaten Tangerang, Banten 15710","Ciakar, Kec. Panongan, Kabupaten Tangerang",NUSA TENGGARA BARAT,15710.0,Indonesia,,,,-62.606.697,1.065.252.145,https://maps.google.com/?cid=0x0:0x18a981b185a4002a,
mall,Toko Mebel,Selma Furniture Citra Raya Tangerang,"Mal Ciputra, Jl. Citra Raya Boulevard Lt.2 No.B1, Ciakar, Kec. Panongan, Kabupaten Tangerang, Banten 15710","Jl. Citra Raya Boulevard Lt.2 No.B1, Ciakar, Kec. Panongan, Kabupaten Tangerang",NUSA TENGGARA BARAT,15710.0,Indonesia,,,,-62.609.405,1.065.247.787,https://maps.google.com/?cid=0x0:0x34d4ebd1030c1760,
mall,Grosir,Manggelewa,"Soriutu, Kec. Manggalewa, Kabupaten Dompu, Nusa Tenggara Bar. 84253","Kec. Manggalewa, Kabupaten Dompu",NUSA TENGGARA BARAT,84253.0,Indonesia,,,,-85.158.107,118.325.739,https://maps.google.com/?cid=0x0:0x2a46720fdd5fd47c,
mall,mall,Nusa Tenggara Bar. 84253,"Kec. Manggalewa, Kabupaten Dompu, Nusa Tenggara Bar.","Kabupaten Dompu, Nusa Tenggara Bar.",NUSA TENGGARA BARAT,,Indonesia,,,,-85.185.083,1.183.228.165,https://maps.google.com/?cid=0x0:0x478db1c8ad8f6b79,
mall,Kios,NJ Mandiri,"G7HW+842, Nusa Jaya, Kec. Manggalewa, Kabupaten Dompu, Nusa Tenggara Bar. 84253","Nusa Jaya, Kec. Manggalewa, Kabupaten Dompu",NUSA TENGGARA BARAT,84253.0,Indonesia,82339672462,,,-84.717.401,1.182.952.749,https://maps.google.com/?cid=0x0:0xca437c4227ed53c1,
mall,Toko,UD FADILLAH,"F8J9+GJR, cabang, Soriutu, Kec. Manggalewa, Kabupaten Dompu, Nusa Tenggara Bar. 84253","cabang, Soriutu, Kec. Manggalewa, Kabupaten Dompu",NUSA TENGGARA BARAT,84253.0,Indonesia,81246990715,,,-85.186.275,1.183.190.109,https://maps.google.com/?cid=0x0:0x635bbb4e955e8f12,
mall,Pusat Perbelanjaan,UD.LESTARI BUMI,"G72X+R36, Suka Damai, Kec. Manggalewa, Kabupaten Dompu, Nusa Tenggara Bar. 84253","Suka Damai, Kec. Manggalewa, Kabupaten Dompu",NUSA TENGGARA BARAT,84253.0,Indonesia,87765866671,,,-84.979.612,1.182.976.505,https://maps.google.com/?cid=0x0:0xf9829bfef5e04354,
mall,Pusat Perbelanjaan,UD . Bagas Putra,"F8J8+J69, Jl. Lintas Calabai, Soriutu, Kec. Manggalewa, Kabupaten Dompu, Nusa Tenggara Bar. 84253","Jl. Lintas Calabai, Soriutu, Kec. Manggalewa, Kabupaten Dompu",NUSA TENGGARA BARAT,84253.0,Indonesia,82340264838,,,-85.184.544,1.183.156.058,https://maps.google.com/?cid=0x0:0xf4aedbf95845cabb,
mall,Pasar,Pasar tradisional soriutu,"F8JC+GF9, Jl. Lintas Sumbawa - Bima, Soriutu, Kec. Manggalewa, Kabupaten Dompu, Nusa Tenggara Bar. 84253","Jl. Lintas Sumbawa - Bima, Soriutu, Kec. Manggalewa, Kabupaten Dompu",NUSA TENGGARA BARAT,84253.0,Indonesia,3706421111,,,-8.518.719,1.183.212.465,https://maps.google.com/?cid=0x0:0x6f465530751c02c3,
mall,Pusat Perbelanjaan,KING MART,"Jl. Imam Bonjol No.11, Kandai Dua, Kec. Woja, Kabupaten Dompu, Nusa Tenggara Bar. 84219","Kandai Dua, Kec. Woja, Kabupaten Dompu",NUSA TENGGARA BARAT,84219.0,Indonesia,85237116611,,,-85.471.951,1.184.319.843,https://maps.google.com/?cid=0x0:0x81310d17620a7593,
mall,mall,julkifli,"F8CQ+JH8, Persiapan Teka Sire, Kec. Manggalewa, Kabupaten Dompu, Nusa Tenggara Bar.","Kabupaten Dompu, Nusa Tenggara Bar.",NUSA TENGGARA BARAT,,Indonesia,,,,-85.284.596,1.183.389.662,https://maps.google.com/?cid=0x0:0xcd41dc5157cc01b1,
mall,Toko umum,Kios Rita,"Jl. Lintas Sumbawa - Bima, Kwangko, Kec. Manggalewa, Kabupaten Dompu, Nusa Tenggara Bar.","Kabupaten Dompu, Nusa Tenggara Bar.",NUSA TENGGARA BARAT,,Indonesia,,,,-86.719.005,1.182.136.136,https://maps.google.com/?cid=0x0:0xacdd876a6ee4908b,
mall,Toko bahan makanan,Bolly Dept Store Soriutu,"F8JC+C9V, Soriutu, Kec. Manggalewa, Kabupaten Dompu, Nusa Tenggara Bar. 84253","Soriutu, Kec. Manggalewa, Kabupaten Dompu",NUSA TENGGARA BARAT,84253.0,Indonesia,,,,-85.188.784,1.183.209.277,https://maps.google.com/?cid=0x0:0x4b7da3809c8c8b7f,
mall,Pusat Perbelanjaan,Alif es cream,"G76J+6R8, Suka Damai, Kec. Manggalewa, Kabupaten Dompu, Nusa Tenggara Bar. 84383","Suka Damai, Kec. Manggalewa, Kabupaten Dompu",NUSA TENGGARA BARAT,84383.0,Indonesia,85337418825,,,-84.894.734,1.182.820.775,https://maps.google.com/?cid=0x0:0x90cfa2757c4f17a,
mall,Gudang,CV Jaya Mantap Perkasa Depo Dompu (Distributor FMCG),"F96G+78X, Jl. Haji Abubakar Ahmad, Bara, Kec. Woja, Kabupaten Dompu, Nusa Tenggara Bar. 84251","Jl. Haji Abubakar Ahmad, Bara, Kec. Woja, Kabupaten Dompu",NUSA TENGGARA BARAT,84251.0,Indonesia,85239363093,,,-85.392.553,1.183.758.714,https://maps.google.com/?cid=0x0:0x594c79739f42eb21,
mall,Toko Pakaian,MAHATIRSTOREDOMPU,"Jl. Soekarno-Hatta No.2, Dorotangga, Kec. Dompu, Kabupaten Dompu, Nusa Tenggara Bar. 84212","Dorotangga, Kec. Dompu, Kabupaten Dompu",NUSA TENGGARA BARAT,84212.0,Indonesia,87866755381,,,-85.345.878,1.184.674.797,https://maps.google.com/?cid=0x0:0xeaad29fe013fa3e8,
mall,Toko Mebel,UD Mebel karunia baru,"F8M5+5FR, Jl. Lintas Calabai, Doromelo, Kec. Manggalewa, Kabupaten Dompu, Nusa Tenggara Bar. 84253","Jl. Lintas Calabai, Doromelo, Kec. Manggalewa, Kabupaten Dompu",NUSA TENGGARA BARAT,84253.0,Indonesia,85333248471,,,-8.517.005,118.308.628,https://maps.google.com/?cid=0x0:0xb0cb97f08cad0ae8,
mall,Toko Bahan Bangunan,Golden Bangunan,"Unnamed Road Nusa Tenggara Bar. 84251, Matua, Kec. Woja, Kabupaten Dompu, Nusa Tenggara Bar. 84251","Matua, Kec. Woja, Kabupaten Dompu",NUSA TENGGARA BARAT,84251.0,Indonesia,8176931226,,,-85.290.136,1.184.167.336,https://maps.google.com/?cid=0x0:0x1fcc4f303b373f35,
mall,Pusat Perbelanjaan,IKM MART DOMPU,"FFHG+22P, Mangge Asi, Kec. Dompu, Kabupaten Dompu, Nusa Tenggara Bar. 84214","Mangge Asi, Kec. Dompu, Kabupaten Dompu",NUSA TENGGARA BARAT,84214.0,Indonesia,,,,-85.224.204,1.184.750.863,https://maps.google.com/?cid=0x0:0x599853f754953300,
mall,Pemasok Pupuk,UD TANI RIDHO,"G72Q+XWQ, Suka Damai, Kec. Manggalewa, Kabupaten Dompu, Nusa Tenggara Bar. 84253","Suka Damai, Kec. Manggalewa, Kabupaten Dompu",NUSA TENGGARA BARAT,84253.0,Indonesia,85237639459,,,-84.975.486,1.182.898.464,https://maps.google.com/?cid=0x0:0x6a4bb1e6905defcc,
mall,Pusat Perbelanjaan,Agen Aice Jumahir,"G76M+4MC, Suka Damai, Kec. Manggalewa, Kabupaten Dompu, Nusa Tenggara Bar. 84383","Suka Damai, Kec. Manggalewa, Kabupaten Dompu",NUSA TENGGARA BARAT,84383.0,Indonesia,85337801113,,,-84.896.762,1.182.841.492,https://maps.google.com/?cid=0x0:0x7de4d4b045f2e6a9,
mall,Toko sembako pemerintah,UD. YHANI,"Nusa Jaya, Kec. Manggalewa, Kabupaten Dompu, Nusa Tenggara Bar.","Kabupaten Dompu, Nusa Tenggara Bar.",NUSA TENGGARA BARAT,,Indonesia,,,,-84.804.857,1.183.058.224,https://maps.google.com/?cid=0x0:0xddcbabab5236c1f6,
mall,mall,Kec. Manggalewa,"Kabupaten Dompu, Nusa Tenggara Bar.","Kabupaten Dompu, Nusa Tenggara Bar.",NUSA TENGGARA BARAT,,Indonesia,,,,-85.188.164,1.183.190.713,https://maps.google.com/?cid=0x0:0xc8d51c9bf2029bb,
mall,Toko Swalayan,Smart Swalayan Manggelewa,"Jl. Lintas Sumbawa - Bima, Soriutu, Kec. Manggalewa, Kabupaten Dompu, Nusa Tenggara Bar. 84253","Soriutu, Kec. Manggalewa, Kabupaten Dompu",NUSA TENGGARA BARAT,84253.0,Indonesia,,,,-85.188.231,1.183.210.474,https://maps.google.com/?cid=0x0:0xf42f0c1e8ff1c835,
mall,mall,Nusa Tenggara Bar. 84272,"Kec. Pajo, Kabupaten Dompu, Nusa Tenggara Bar.","Kabupaten Dompu, Nusa Tenggara Bar.",NUSA TENGGARA BARAT,,Indonesia,,,,-86.347.113,1.184.747.173,https://maps.google.com/?cid=0x0:0x2f0ce72fb3d1b4f4,
mall,Kios,Kios Melati,"8CXW+P8M, Lune, Kec. Pajo, Kabupaten Dompu, Nusa Tenggara Bar. 84272","Lune, Kec. Pajo, Kabupaten Dompu",NUSA TENGGARA BARAT,84272.0,Indonesia,,,,-86.504.454,1.184.453.925,https://maps.google.com/?cid=0x0:0xb55978ec9f2751c4,
mall,Toko Pakaian,MAHATIRSTOREDOMPU,"Jl. Soekarno-Hatta No.2, Dorotangga, Kec. Dompu, Kabupaten Dompu, Nusa Tenggara Bar. 84212","Dorotangga, Kec. Dompu, Kabupaten Dompu",NUSA TENGGARA BARAT,84212.0,Indonesia,87866755381,,,-85.345.878,1.184.674.797,https://maps.google.com/?cid=0x0:0xeaad29fe013fa3e8,
mall,Toko Pakaian Olahraga,Jakarta Premium Outlets - Tangerang,"Jl. Jalur Sutera Boulevard No.41, RT.003/RW.006, Panunggangan Tim., Kec. Pinang, Kota Tangerang, Banten 15143","RT.003/RW.006, Panunggangan Tim., Kec. Pinang, Kota Tangerang",NUSA TENGGARA BARAT,15143.0,Indonesia,,,,-62.202.252,1.066.597.055,https://maps.google.com/?cid=0x0:0x8cd173626fe3f3c1,
mall,Pusat Perbelanjaan,Puri Indah Mall,"Jl. Puri Agung No.1, Kembangan Sel., Kec. Kembangan, Kota Jakarta Barat, Daerah Khusus Ibukota Jakarta 11610","Kembangan Sel., Kec. Kembangan, Kota Jakarta Barat",NUSA TENGGARA BARAT,11610.0,Indonesia,215822582,,,-61.890.746,1.067.334.914,https://maps.google.com/?cid=0x0:0x6653aecc17740a12,
mall,Pusat Perbelanjaan,Mall Taman Palem,"Jl. Kamal Raya Outer Ring Road, Cengkareng Tim., Kecamatan Cengkareng, Kota Jakarta Barat, Daerah Khusus Ibukota Jakarta 11730","Cengkareng Tim., Kecamatan Cengkareng, Kota Jakarta Barat",NUSA TENGGARA BARAT,11730.0,Indonesia,,,,-61.394.461,1.067.308.668,https://maps.google.com/?cid=0x0:0xb4b487d720269809,
mall,Pusat Perbelanjaan,Puri Indah Mall 2,"Jl. Puri Indah Raya No.RT.1 Blok Q.2, RT.1/RW.2, South Kembangan, Kembangan, West Jakarta City, Jakarta 11610","RT.1/RW.2, South Kembangan, Kembangan, West Jakarta City",NUSA TENGGARA BARAT,11610.0,Indonesia,215822582,,,-61.874.669,1.067.329.946,https://maps.google.com/?cid=0x0:0x14a49055c10b3f5b,
supermarket,supermarket,Nusa Tenggara Bar. 84211,"Kareke, Kec. Dompu, Kabupaten Dompu, Nusa Tenggara Bar.","Kabupaten Dompu, Nusa Tenggara Bar.",NUSA TENGGARA BARAT,,Indonesia,,,,-85.486.112,1.184.717.975,https://maps.google.com/?cid=0x0:0x19504ec7d1952ed4,
supermarket,Minimarket,Lancar market,"Jl. Nusantara No.30, Bada, Kec. Dompu, Kabupaten Dompu, Nusa Tenggara Bar. 84211","Bada, Kec. Dompu, Kabupaten Dompu",NUSA TENGGARA BARAT,84211.0,Indonesia,37321206,,,-85.394.981,1.184.613.568,https://maps.google.com/?cid=0x0:0x6dde2605e2d86bf1,
supermarket,Toko Swalayan,go-welly,"Bada, Kec. Dompu, Kabupaten Dompu, Nusa Tenggara Bar. 84211","Kec. Dompu, Kabupaten Dompu",NUSA TENGGARA BARAT,84211.0,Indonesia,81915817408,,,-85.403.793,1.184.643.847,https://maps.google.com/?cid=0x0:0x4dc31b55427996a9,
supermarket,Toserba,BOLLY JP,"Jl. Kartini No.11, Bada, Kec. Dompu, Kabupaten Dompu, Nusa Tenggara Bar. 84213","Bada, Kec. Dompu, Kabupaten Dompu",NUSA TENGGARA BARAT,84213.0,Indonesia,,,,-85.406.049,1.184.622.857,https://maps.google.com/?cid=0x0:0x772012d461930ab3,
supermarket,Minimarket,Holly Mart Dompu,"Jl. Nusantara No.22, Bada, Kec. Dompu, Kabupaten Dompu, Nusa Tenggara Bar. 84213","Bada, Kec. Dompu, Kabupaten Dompu",NUSA TENGGARA BARAT,84213.0,Indonesia,,,,-85.395.093,1.184.623.001,https://maps.google.com/?cid=0x0:0xeda111f4d75f310,
supermarket,Toko Swalayan,Bolly Deptstore Dompu,"FF65+4FH, Jl. Manuru Bata Dompu, Bada, Kec. Dompu, Kabupaten Dompu, Nusa Tenggara Bar. 84213","Jl. Manuru Bata Dompu, Bada, Kec. Dompu, Kabupaten Dompu",NUSA TENGGARA BARAT,84213.0,Indonesia,,,,-85.396.801,1.184.587.322,https://maps.google.com/?cid=0x0:0x5b99d2bfd3f4e4cf,
supermarket,Toko bahan makanan,Smart,"Jl. Baru Karijawa gg PS No.33, Karijawa, Kec. Dompu, Kabupaten Dompu, Nusa Tenggara Bar. 84213","Karijawa, Kec. Dompu, Kabupaten Dompu",NUSA TENGGARA BARAT,84213.0,Indonesia,81312243439,,,-85.314.562,1.184.548.222,https://maps.google.com/?cid=0x0:0x485a0ae2ef9fd899,
supermarket,Pusat Perbelanjaan,hamet market 2,"FF67+3H3, Jl. Nusantara, Bada, Kec. Dompu, Kabupaten Dompu, Nusa Tenggara Bar. 84213","Jl. Nusantara, Bada, Kec. Dompu, Kabupaten Dompu",NUSA TENGGARA BARAT,84213.0,Indonesia,81284565745,,,-85.398.636,1.184.639.204,https://maps.google.com/?cid=0x0:0xce1162dadead77da,
supermarket,Toko,Flash Mart,"FF57+GQR, Jl. Kesehatan, Bada, Kec. Dompu, Kabupaten Dompu, Nusa Tenggara Bar. 84213","Jl. Kesehatan, Bada, Kec. Dompu, Kabupaten Dompu",NUSA TENGGARA BARAT,84213.0,Indonesia,,,,-85.411.853,118.464.401,https://maps.google.com/?cid=0x0:0x3435ad1b3780a62d,
supermarket,Toko bahan makanan,Ruko Ibu Nur,"CFWG+M87, Jl. Lintas Lakey, Kareke, Kec. Dompu, Kabupaten Dompu, Nusa Tenggara Bar. 84211","Jl. Lintas Lakey, Kareke, Kec. Dompu, Kabupaten Dompu",NUSA TENGGARA BARAT,84211.0,Indonesia,82341482626,,,-85.533.283,1.184.758.093,https://maps.google.com/?cid=0x0:0x63cb431dec47a93a,
supermarket,Toko Bahan Bangunan,MR.DIY,"Jl. Soekarno-Hatta No.29, Bada, Kec. Dompu, Kabupaten Dompu, Nusa Tenggara Bar. 84213","Bada, Kec. Dompu, Kabupaten Dompu",NUSA TENGGARA BARAT,84213.0,Indonesia,2130022789,,,-85.381.058,1.184.636.809,https://maps.google.com/?cid=0x0:0x782ef44faba77107,
supermarket,Toko Swalayan,UD Anugrah,"CFWG+V6C, Jl. Lintas Lakey, Kareke, Kec. Dompu, Kabupaten Dompu, Nusa Tenggara Bar. 84211","Jl. Lintas Lakey, Kareke, Kec. Dompu, Kabupaten Dompu",NUSA TENGGARA BARAT,84211.0,Indonesia,82339743943,,,-85.528.098,1.184.755.113,https://maps.google.com/?cid=0x0:0xb63c91962857cc7e,
supermarket,Toko bahan makanan,UD AQILLA,"Jl. Mesjid Jisrul Jannah, Potu, Kec. Dompu, Kabupaten Dompu, Nusa Tenggara Bar. 84213","Potu, Kec. Dompu, Kabupaten Dompu",NUSA TENGGARA BARAT,84213.0,Indonesia,85333235664,,,-85.427.434,1.184.636.759,https://maps.google.com/?cid=0x0:0x398f4297e4032ff,
supermarket,Minimarket,Kios Deden,"Jl. Lintas Lakey No.117, Kareke, Kec. Dompu, Kabupaten Dompu, Nusa Tenggara Bar. 84211","Kareke, Kec. Dompu, Kabupaten Dompu",NUSA TENGGARA BARAT,84211.0,Indonesia,82341991837,,,-85.445.512,1.184.684.155,https://maps.google.com/?cid=0x0:0xa5f0caaee1f56673,
supermarket,Minimarket,SENTRAL MART KSB LINGKAR UTARA,"FFC6+CCX, Bali, Kec. Dompu, Kabupaten Dompu, Nusa Tenggara Bar. 84213","Bali, Kec. Dompu, Kabupaten Dompu",NUSA TENGGARA BARAT,84213.0,Indonesia,,,,-85.288.399,1.184.611.489,https://maps.google.com/?cid=0x0:0xa68250a9bf0ef496,
supermarket,Toko,Eqisupermmarket,"FC27+MF7, Jl. Lintas Sumbawa, Bakajaya, Kec. Woja, Kabupaten Dompu, Nusa Tenggara Bar. 84216","Jl. Lintas Sumbawa, Bakajaya, Kec. Woja, Kabupaten Dompu",NUSA TENGGARA BARAT,84216.0,Indonesia,85333646817,,,-85.483.465,1.184.136.661,https://maps.google.com/?cid=0x0:0xd829ddb0bc109a80,
supermarket,Toko,Magenda,"FF56+MWV, Jl. Syekh Abdul Gani, Potu, Kec. Dompu, Kabupaten Dompu, Nusa Tenggara Bar. 84213","Jl. Syekh Abdul Gani, Potu, Kec. Dompu, Kabupaten Dompu",NUSA TENGGARA BARAT,84213.0,Indonesia,,,,-85.407.656,1.184.623.021,https://maps.google.com/?cid=0x0:0x30f2c2998e3f49e6,
supermarket,Toko Pernak-Pernik,Toko Limasatu,"Jl Lingkungan Mantro, Bada, Kec. Dompu, Kabupaten Dompu, Nusa Tenggara Bar. 84211","Bada, Kec. Dompu, Kabupaten Dompu",NUSA TENGGARA BARAT,84211.0,Indonesia,87863782151,,,-85.393.394,1.184.602.826,https://maps.google.com/?cid=0x0:0x930d43a284ec64de,
supermarket,Toko,Sudirman,"FF66+GCP, Pasar Atas, JL Lele Bawah, Bada, Dompu, Bada, Kec. Dompu, Kabupaten Dompu, Nusa Tenggara Bar. 84211","Pasar Atas, JL Lele Bawah, Bada, Dompu, Bada, Kec. Dompu, Kabupaten Dompu",NUSA TENGGARA BARAT,84211.0,Indonesia,85934364581,,,-85.386.667,1.184.610.833,https://maps.google.com/?cid=0x0:0x9bc011733bf88fdf,
supermarket,Minimarket,UD. ALHAK Multysukses,"CFRH+HP8, Jl. Lintas Lakey, Kareke, Kec. Dompu, Kabupaten Dompu, Nusa Tenggara Bar. 84214","Jl. Lintas Lakey, Kareke, Kec. Dompu, Kabupaten Dompu",NUSA TENGGARA BARAT,84214.0,Indonesia,,,,-85.585.868,1.184.793.322,https://maps.google.com/?cid=0x0:0x5dc90ec41fc33c51,
supermarket,Kedai Kopi,Kopi Lain Hati Dompu,"Jl. Mawa Adi No.23, Bada, Kec. Dompu, Kabupaten Dompu, Nusa Tenggara Bar. 84211","Bada, Kec. Dompu, Kabupaten Dompu",NUSA TENGGARA BARAT,84211.0,Indonesia,81805077700,,,-85.400.614,1.184.607.247,https://maps.google.com/?cid=0x0:0xe906e1627858308,
supermarket,Toko Swalayan,Toko Sanggora,"FC8X+4R7, Jl. Lkr. Utara, Karijawa, Kec. Dompu, Kabupaten Dompu, Nusa Tenggara Bar. 84216","Jl. Lkr. Utara, Karijawa, Kec. Dompu, Kabupaten Dompu",NUSA TENGGARA BARAT,84216.0,Indonesia,,,,-85.347.009,1.184.495.497,https://maps.google.com/?cid=0x0:0x8377e76fdfd969d5,
supermarket,Toko Buah dan Sayuran,RUMAH BUAH DOROTANGGA,"Jl. Mahoni, Dorotangga, Kec. Dompu, Kabupaten Dompu, Nusa Tenggara Bar. 84212","Dorotangga, Kec. Dompu, Kabupaten Dompu",NUSA TENGGARA BARAT,84212.0,Indonesia,81918005577,,,-85.345.402,1.184.661.813,https://maps.google.com/?cid=0x0:0x28564760d2b094ec,
supermarket,Pasar,Lombok,"FF66+GCP, Pasar Atas, JL Lele Bawah, Bada, Dompu, Bada, Kec. Dompu, Kabupaten Dompu, Nusa Tenggara Bar. 84211","Pasar Atas, JL Lele Bawah, Bada, Dompu, Bada, Kec. Dompu, Kabupaten Dompu",NUSA TENGGARA BARAT,84211.0,Indonesia,85934364581,,,-85.386.667,1.184.610.833,https://maps.google.com/?cid=0x0:0xd8ba5b04cd0c6f2a,
supermarket,Minimarket,Holly Mart Dompu,"Jl. Nusantara No.22, Bada, Kec. Dompu, Kabupaten Dompu, Nusa Tenggara Bar. 84213","Bada, Kec. Dompu, Kabupaten Dompu",NUSA TENGGARA BARAT,84213.0,Indonesia,,,,-85.395.093,1.184.623.001,https://maps.google.com/?cid=0x0:0xeda111f4d75f310,
supermarket,supermarket,Nusa Tenggara Bar. 84212,"Kec. Dompu, Kabupaten Dompu, Nusa Tenggara Bar.","Kabupaten Dompu, Nusa Tenggara Bar.",NUSA TENGGARA BARAT,,Indonesia,,,,-85.476.799,1.184.834.766,https://maps.google.com/?cid=0x0:0x6aea138ba2d36218,
supermarket,Minimarket,Lancar market,"Jl. Nusantara No.30, Bada, Kec. Dompu, Kabupaten Dompu, Nusa Tenggara Bar. 84211","Bada, Kec. Dompu, Kabupaten Dompu",NUSA TENGGARA BARAT,84211.0,Indonesia,37321206,,,-85.394.981,1.184.613.568,https://maps.google.com/?cid=0x0:0x6dde2605e2d86bf1,
supermarket,Pusat Perbelanjaan,hamet market 2,"FF67+3H3, Jl. Nusantara, Bada, Kec. Dompu, Kabupaten Dompu, Nusa Tenggara Bar. 84213","Jl. Nusantara, Bada, Kec. Dompu, Kabupaten Dompu",NUSA TENGGARA BARAT,84213.0,Indonesia,81284565745,,,-85.398.636,1.184.639.204,https://maps.google.com/?cid=0x0:0xce1162dadead77da,
supermarket,Toko bahan makanan,Smart,"Jl. Baru Karijawa gg PS No.33, Karijawa, Kec. Dompu, Kabupaten Dompu, Nusa Tenggara Bar. 84213","Karijawa, Kec. Dompu, Kabupaten Dompu",NUSA TENGGARA BARAT,84213.0,Indonesia,81312243439,,,-85.314.562,1.184.548.222,https://maps.google.com/?cid=0x0:0x485a0ae2ef9fd899,
supermarket,Toko Swalayan,Toko Sanggora,"FC8X+4R7, Jl. Lkr. Utara, Karijawa, Kec. Dompu, Kabupaten Dompu, Nusa Tenggara Bar. 84216","Jl. Lkr. Utara, Karijawa, Kec. Dompu, Kabupaten Dompu",NUSA TENGGARA BARAT,84216.0,Indonesia,,,,-85.347.009,1.184.495.497,https://maps.google.com/?cid=0x0:0x8377e76fdfd969d5,
supermarket,Gudang,UD.KUSUMA SAKA,"FFGF+7G3, Mangge Asi, Kec. Dompu, Kabupaten Dompu, Nusa Tenggara Bar. 84214","Mangge Asi, Kec. Dompu, Kabupaten Dompu",NUSA TENGGARA BARAT,84214.0,Indonesia,,,,-85.243.628,1.184.738.032,https://maps.google.com/?cid=0x0:0xef0decd4cd2a244,
supermarket,Toserba,BOLLY JP,"Jl. Kartini No.11, Bada, Kec. Dompu, Kabupaten Dompu, Nusa Tenggara Bar. 84213","Bada, Kec. Dompu, Kabupaten Dompu",NUSA TENGGARA BARAT,84213.0,Indonesia,,,,-85.406.049,1.184.622.857,https://maps.google.com/?cid=0x0:0x772012d461930ab3,
supermarket,Toko Swalayan,go-welly,"Bada, Kec. Dompu, Kabupaten Dompu, Nusa Tenggara Bar. 84211","Kec. Dompu, Kabupaten Dompu",NUSA TENGGARA BARAT,84211.0,Indonesia,81915817408,,,-85.403.793,1.184.643.847,https://maps.google.com/?cid=0x0:0x4dc31b55427996a9,
supermarket,Toko Bahan Bangunan,MR.DIY,"Jl. Soekarno-Hatta No.29, Bada, Kec. Dompu, Kabupaten Dompu, Nusa Tenggara Bar. 84213","Bada, Kec. Dompu, Kabupaten Dompu",NUSA TENGGARA BARAT,84213.0,Indonesia,2130022789,,,-85.381.058,1.184.636.809,https://maps.google.com/?cid=0x0:0x782ef44faba77107,
supermarket,Minimarket,UD. ALHAK Multysukses,"CFRH+HP8, Jl. Lintas Lakey, Kareke, Kec. Dompu, Kabupaten Dompu, Nusa Tenggara Bar. 84214","Jl. Lintas Lakey, Kareke, Kec. Dompu, Kabupaten Dompu",NUSA TENGGARA BARAT,84214.0,Indonesia,,,,-85.585.868,1.184.793.322,https://maps.google.com/?cid=0x0:0x5dc90ec41fc33c51,
supermarket,Toko Buah dan Sayuran,RUMAH BUAH DOROTANGGA,"Jl. Mahoni, Dorotangga, Kec. Dompu, Kabupaten Dompu, Nusa Tenggara Bar. 84212","Dorotangga, Kec. Dompu, Kabupaten Dompu",NUSA TENGGARA BARAT,84212.0,Indonesia,81918005577,,,-85.345.402,1.184.661.813,https://maps.google.com/?cid=0x0:0x28564760d2b094ec,
supermarket,Toko Swalayan,UD Anugrah,"CFWG+V6C, Jl. Lintas Lakey, Kareke, Kec. Dompu, Kabupaten Dompu, Nusa Tenggara Bar. 84211","Jl. Lintas Lakey, Kareke, Kec. Dompu, Kabupaten Dompu",NUSA TENGGARA BARAT,84211.0,Indonesia,82339743943,,,-85.528.098,1.184.755.113,https://maps.google.com/?cid=0x0:0xb63c91962857cc7e,
supermarket,Toko bahan makanan,Ruko Ibu Nur,"CFWG+M87, Jl. Lintas Lakey, Kareke, Kec. Dompu, Kabupaten Dompu, Nusa Tenggara Bar. 84211","Jl. Lintas Lakey, Kareke, Kec. Dompu, Kabupaten Dompu",NUSA TENGGARA BARAT,84211.0,Indonesia,82341482626,,,-85.533.283,1.184.758.093,https://maps.google.com/?cid=0x0:0x63cb431dec47a93a,
supermarket,Toko,Flash Mart,"FF57+GQR, Jl. Kesehatan, Bada, Kec. Dompu, Kabupaten Dompu, Nusa Tenggara Bar. 84213","Jl. Kesehatan, Bada, Kec. Dompu, Kabupaten Dompu",NUSA TENGGARA BARAT,84213.0,Indonesia,,,,-85.411.853,118.464.401,https://maps.google.com/?cid=0x0:0x3435ad1b3780a62d,
supermarket,Toko,Tempat Jual Beli Sarang Walet BINTANG 88 WALET,"Jl. Lele No.4, Bali, Kec. Dompu, Kabupaten Dompu, Nusa Tenggara Bar. 84213","Bali, Kec. Dompu, Kabupaten Dompu",NUSA TENGGARA BARAT,84213.0,Indonesia,88258525653,,,-85.354.589,1.184.610.978,https://maps.google.com/?cid=0x0:0x73fc729a92993855,
supermarket,Toko,Magenda,"FF56+MWV, Jl. Syekh Abdul Gani, Potu, Kec. Dompu, Kabupaten Dompu, Nusa Tenggara Bar. 84213","Jl. Syekh Abdul Gani, Potu, Kec. Dompu, Kabupaten Dompu",NUSA TENGGARA BARAT,84213.0,Indonesia,,,,-85.407.656,1.184.623.021,https://maps.google.com/?cid=0x0:0x30f2c2998e3f49e6,
supermarket,Minimarket,Kios Deden,"Jl. Lintas Lakey No.117, Kareke, Kec. Dompu, Kabupaten Dompu, Nusa Tenggara Bar. 84211","Kareke, Kec. Dompu, Kabupaten Dompu",NUSA TENGGARA BARAT,84211.0,Indonesia,82341991837,,,-85.445.512,1.184.684.155,https://maps.google.com/?cid=0x0:0xa5f0caaee1f56673,
supermarket,Toko,Eqisupermmarket,"FC27+MF7, Jl. Lintas Sumbawa, Bakajaya, Kec. Woja, Kabupaten Dompu, Nusa Tenggara Bar. 84216","Jl. Lintas Sumbawa, Bakajaya, Kec. Woja, Kabupaten Dompu",NUSA TENGGARA BARAT,84216.0,Indonesia,85333646817,,,-85.483.465,1.184.136.661,https://maps.google.com/?cid=0x0:0xd829ddb0bc109a80,
supermarket,Toko Pernak-Pernik,Toko Limasatu,"Jl Lingkungan Mantro, Bada, Kec. Dompu, Kabupaten Dompu, Nusa Tenggara Bar. 84211","Bada, Kec. Dompu, Kabupaten Dompu",NUSA TENGGARA BARAT,84211.0,Indonesia,87863782151,,,-85.393.394,1.184.602.826,https://maps.google.com/?cid=0x0:0x930d43a284ec64de,
supermarket,Toko Swalayan,Bolly Deptstore Dompu,"FF65+4FH, Jl. Manuru Bata Dompu, Bada, Kec. Dompu, Kabupaten Dompu, Nusa Tenggara Bar. 84213","Jl. Manuru Bata Dompu, Bada, Kec. Dompu, Kabupaten Dompu",NUSA TENGGARA BARAT,84213.0,Indonesia,,,,-85.396.801,1.184.587.322,https://maps.google.com/?cid=0x0:0x5b99d2bfd3f4e4cf,
supermarket,Minimarket,HANSA Mart,"Jl. Mujair Lingk. Bali Barat No.14, RT./RW:/RW.003/001, Bali, Kec. Dompu, Kabupaten Dompu, Nusa Tenggara Bar. 64213","RT./RW:/RW.003/001, Bali, Kec. Dompu, Kabupaten Dompu",NUSA TENGGARA BARAT,64213.0,Indonesia,,,,-85.371.283,1.184.594.017,https://maps.google.com/?cid=0x0:0xda16184de2690cd6,
supermarket,Toko,Lana sneakers store dompu,"samping bakso cahaya, Jl. Soekarno-Hatta, Dorotangga, Kec. Dompu, Kabupaten Dompu, Nusa Tenggara Bar. 84212","Jl. Soekarno-Hatta, Dorotangga, Kec. Dompu, Kabupaten Dompu",NUSA TENGGARA BARAT,84212.0,Indonesia,85239525678,,,-85.341.713,11.846.762,https://maps.google.com/?cid=0x0:0x6d64e1b05e61e725,
supermarket,Toko Swalayan,Toko Putra Kediri,"FF64+965, Karijawa, Kec. Dompu, Kabupaten Dompu, Nusa Tenggara Bar. 84217","Karijawa, Kec. Dompu, Kabupaten Dompu",NUSA TENGGARA BARAT,84217.0,Indonesia,81915871233,,,-85.391.195,1.184.556.228,https://maps.google.com/?cid=0x0:0x5fccc13cc9623e0b,
supermarket,supermarket,Nusa Tenggara Bar. 84213,"Kec. Dompu, Kabupaten Dompu, Nusa Tenggara Bar.","Kabupaten Dompu, Nusa Tenggara Bar.",NUSA TENGGARA BARAT,,Indonesia,,,,-85.029.473,1.184.571.974,https://maps.google.com/?cid=0x0:0x36282ed0d4e435d1,
supermarket,Toko bahan makanan,Smart,"Jl. Baru Karijawa gg PS No.33, Karijawa, Kec. Dompu, Kabupaten Dompu, Nusa Tenggara Bar. 84213","Karijawa, Kec. Dompu, Kabupaten Dompu",NUSA TENGGARA BARAT,84213.0,Indonesia,81312243439,,,-85.314.562,1.184.548.222,https://maps.google.com/?cid=0x0:0x485a0ae2ef9fd899,
supermarket,Minimarket,Lancar market,"Jl. Nusantara No.30, Bada, Kec. Dompu, Kabupaten Dompu, Nusa Tenggara Bar. 84211","Bada, Kec. Dompu, Kabupaten Dompu",NUSA TENGGARA BARAT,84211.0,Indonesia,37321206,,,-85.394.981,1.184.613.568,https://maps.google.com/?cid=0x0:0x6dde2605e2d86bf1,
supermarket,Pusat Perbelanjaan,UD Ade jaya,"FF69+357, Bada, Kec. Dompu, Kabupaten Dompu, Nusa Tenggara Bar. 84213","Bada, Kec. Dompu, Kabupaten Dompu",NUSA TENGGARA BARAT,84213.0,Indonesia,82341490754,,,-85.398.283,1.184.679.331,https://maps.google.com/?cid=0x0:0x12108ef940c0e3f0,
supermarket,Minimarket,Holly Mart Dompu,"Jl. Nusantara No.22, Bada, Kec. Dompu, Kabupaten Dompu, Nusa Tenggara Bar. 84213","Bada, Kec. Dompu, Kabupaten Dompu",NUSA TENGGARA BARAT,84213.0,Indonesia,,,,-85.395.093,1.184.623.001,https://maps.google.com/?cid=0x0:0xeda111f4d75f310,
supermarket,Pusat Perbelanjaan,hamet market 2,"FF67+3H3, Jl. Nusantara, Bada, Kec. Dompu, Kabupaten Dompu, Nusa Tenggara Bar. 84213","Jl. Nusantara, Bada, Kec. Dompu, Kabupaten Dompu",NUSA TENGGARA BARAT,84213.0,Indonesia,81284565745,,,-85.398.636,1.184.639.204,https://maps.google.com/?cid=0x0:0xce1162dadead77da,
supermarket,Toko Swalayan,Toko Sanggora,"FC8X+4R7, Jl. Lkr. Utara, Karijawa, Kec. Dompu, Kabupaten Dompu, Nusa Tenggara Bar. 84216","Jl. Lkr. Utara, Karijawa, Kec. Dompu, Kabupaten Dompu",NUSA TENGGARA BARAT,84216.0,Indonesia,,,,-85.347.009,1.184.495.497,https://maps.google.com/?cid=0x0:0x8377e76fdfd969d5,
supermarket,Toko Bahan Bangunan,Depo Sumber Bangunan,"Jl. Baru Karijawa gg PS No.33, Karijawa, Kec. Dompu, Kabupaten Dompu, Nusa Tenggara Bar. 84213","Karijawa, Kec. Dompu, Kabupaten Dompu",NUSA TENGGARA BARAT,84213.0,Indonesia,81213393271,,,-8.531.509,1.184.546.781,https://maps.google.com/?cid=0x0:0x74aa1c95593ff6e7,
supermarket,Toserba,BOLLY JP,"Jl. Kartini No.11, Bada, Kec. Dompu, Kabupaten Dompu, Nusa Tenggara Bar. 84213","Bada, Kec. Dompu, Kabupaten Dompu",NUSA TENGGARA BARAT,84213.0,Indonesia,,,,-85.406.049,1.184.622.857,https://maps.google.com/?cid=0x0:0x772012d461930ab3,
supermarket,Minimarket,SENTRAL MART KSB LINGKAR UTARA,"FFC6+CCX, Bali, Kec. Dompu, Kabupaten Dompu, Nusa Tenggara Bar. 84213","Bali, Kec. Dompu, Kabupaten Dompu",NUSA TENGGARA BARAT,84213.0,Indonesia,,,,-85.288.399,1.184.611.489,https://maps.google.com/?cid=0x0:0xa68250a9bf0ef496,
supermarket,Toko Bahan Bangunan,MR.DIY,"Jl. Soekarno-Hatta No.29, Bada, Kec. Dompu, Kabupaten Dompu, Nusa Tenggara Bar. 84213","Bada, Kec. Dompu, Kabupaten Dompu",NUSA TENGGARA BARAT,84213.0,Indonesia,2130022789,,,-85.381.058,1.184.636.809,https://maps.google.com/?cid=0x0:0x782ef44faba77107,
supermarket,Toko,Flash Mart,"FF57+GQR, Jl. Kesehatan, Bada, Kec. Dompu, Kabupaten Dompu, Nusa Tenggara Bar. 84213","Jl. Kesehatan, Bada, Kec. Dompu, Kabupaten Dompu",NUSA TENGGARA BARAT,84213.0,Indonesia,,,,-85.411.853,118.464.401,https://maps.google.com/?cid=0x0:0x3435ad1b3780a62d,
supermarket,Gudang,UD.KUSUMA SAKA,"FFGF+7G3, Mangge Asi, Kec. Dompu, Kabupaten Dompu, Nusa Tenggara Bar. 84214","Mangge Asi, Kec. Dompu, Kabupaten Dompu",NUSA TENGGARA BARAT,84214.0,Indonesia,,,,-85.243.628,1.184.738.032,https://maps.google.com/?cid=0x0:0xef0decd4cd2a244,
supermarket,Toko Swalayan,go-welly,"Bada, Kec. Dompu, Kabupaten Dompu, Nusa Tenggara Bar. 84211","Kec. Dompu, Kabupaten Dompu",NUSA TENGGARA BARAT,84211.0,Indonesia,81915817408,,,-85.403.793,1.184.643.847,https://maps.google.com/?cid=0x0:0x4dc31b55427996a9,
supermarket,Layanan Pengiriman Uang,CAHAYA MART (AGEN BRILINK),"Jl. Lkr. Utara No.88, Karijawa, Kec. Dompu, Kabupaten Dompu, Nusa Tenggara Bar. 84213","Karijawa, Kec. Dompu, Kabupaten Dompu",NUSA TENGGARA BARAT,84213.0,Indonesia,,,,-85.320.386,1.184.537.426,https://maps.google.com/?cid=0x0:0xc3a2795956b5f51b,
supermarket,Toko,Toko Agam Dompu,"Jl. Lkr. Utara, Karijawa, Kec. Dompu, Kabupaten Dompu, Nusa Tenggara Bar.","Kabupaten Dompu, Nusa Tenggara Bar.",NUSA TENGGARA BARAT,,Indonesia,81338534210,,,-85.335.968,1.184.518.114,https://maps.google.com/?cid=0x0:0xda05dd891e684b5a,
supermarket,Toko,Tiga berlian,"FFF6+M6P, Bali, Kec. Dompu, Kabupaten Dompu, Nusa Tenggara Bar. 84213","Bali, Kec. Dompu, Kabupaten Dompu",NUSA TENGGARA BARAT,84213.0,Indonesia,,,,-85.258.463,1.184.605.995,https://maps.google.com/?cid=0x0:0x94b46bd6fe5efd91,
supermarket,Toko,Magenda,"FF56+MWV, Jl. Syekh Abdul Gani, Potu, Kec. Dompu, Kabupaten Dompu, Nusa Tenggara Bar. 84213","Jl. Syekh Abdul Gani, Potu, Kec. Dompu, Kabupaten Dompu",NUSA TENGGARA BARAT,84213.0,Indonesia,,,,-85.407.656,1.184.623.021,https://maps.google.com/?cid=0x0:0x30f2c2998e3f49e6,
supermarket,Toko,Tempat Jual Beli Sarang Walet BINTANG 88 WALET,"Jl. Lele No.4, Bali, Kec. Dompu, Kabupaten Dompu, Nusa Tenggara Bar. 84213","Bali, Kec. Dompu, Kabupaten Dompu",NUSA TENGGARA BARAT,84213.0,Indonesia,88258525653,,,-85.354.589,1.184.610.978,https://maps.google.com/?cid=0x0:0x73fc729a92993855,
supermarket,Toko bahan makanan,UD AQILLA,"Jl. Mesjid Jisrul Jannah, Potu, Kec. Dompu, Kabupaten Dompu, Nusa Tenggara Bar. 84213","Potu, Kec. Dompu, Kabupaten Dompu",NUSA TENGGARA BARAT,84213.0,Indonesia,85333235664,,,-85.427.434,1.184.636.759,https://maps.google.com/?cid=0x0:0x398f4297e4032ff,
supermarket,Toko,Toko Harapan Jaya Elektronik,"FF66+398, Bada, Kec. Dompu, Kabupaten Dompu, Nusa Tenggara Bar. 84213","Bada, Kec. Dompu, Kabupaten Dompu",NUSA TENGGARA BARAT,84213.0,Indonesia,373623536,,,-85.398.359,1.184.609.599,https://maps.google.com/?cid=0x0:0xb5de5ea2342eec05,
supermarket,Grosir,TOKO ISTANA KURMA,"Jl. Lele, Bali, Kec. Dompu, Kabupaten Dompu, Nusa Tenggara Bar. 84213","Bali, Kec. Dompu, Kabupaten Dompu",NUSA TENGGARA BARAT,84213.0,Indonesia,87866999209,,,-85.320.656,1.184.620.976,https://maps.google.com/?cid=0x0:0xdd1dee6d2053e05f,
supermarket,supermarket,Nusa Tenggara Bar. 84214,"Kec. Dompu, Kabupaten Dompu, Nusa Tenggara Bar.","Kabupaten Dompu, Nusa Tenggara Bar.",NUSA TENGGARA BARAT,,Indonesia,,,,-85.235,1.184.776.372,https://maps.google.com/?cid=0x0:0x55f1573dc2143d57,
supermarket,Minimarket,Lancar market,"Jl. Nusantara No.30, Bada, Kec. Dompu, Kabupaten Dompu, Nusa Tenggara Bar. 84211","Bada, Kec. Dompu, Kabupaten Dompu",NUSA TENGGARA BARAT,84211.0,Indonesia,37321206,,,-85.394.981,1.184.613.568,https://maps.google.com/?cid=0x0:0x6dde2605e2d86bf1,
supermarket,Gudang,UD.KUSUMA SAKA,"FFGF+7G3, Mangge Asi, Kec. Dompu, Kabupaten Dompu, Nusa Tenggara Bar. 84214","Mangge Asi, Kec. Dompu, Kabupaten Dompu",NUSA TENGGARA BARAT,84214.0,Indonesia,,,,-85.243.628,1.184.738.032,https://maps.google.com/?cid=0x0:0xef0decd4cd2a244,
supermarket,Pusat Perbelanjaan,UD Ade jaya,"FF69+357, Bada, Kec. Dompu, Kabupaten Dompu, Nusa Tenggara Bar. 84213","Bada, Kec. Dompu, Kabupaten Dompu",NUSA TENGGARA BARAT,84213.0,Indonesia,82341490754,,,-85.398.283,1.184.679.331,https://maps.google.com/?cid=0x0:0x12108ef940c0e3f0,
supermarket,Pusat Perbelanjaan,hamet market 2,"FF67+3H3, Jl. Nusantara, Bada, Kec. Dompu, Kabupaten Dompu, Nusa Tenggara Bar. 84213","Jl. Nusantara, Bada, Kec. Dompu, Kabupaten Dompu",NUSA TENGGARA BARAT,84213.0,Indonesia,81284565745,,,-85.398.636,1.184.639.204,https://maps.google.com/?cid=0x0:0xce1162dadead77da,
supermarket,Toko Swalayan,Bolly Deptstore Dompu,"FF65+4FH, Jl. Manuru Bata Dompu, Bada, Kec. Dompu, Kabupaten Dompu, Nusa Tenggara Bar. 84213","Jl. Manuru Bata Dompu, Bada, Kec. Dompu, Kabupaten Dompu",NUSA TENGGARA BARAT,84213.0,Indonesia,,,,-85.396.801,1.184.587.322,https://maps.google.com/?cid=0x0:0x5b99d2bfd3f4e4cf,
supermarket,Toserba,BOLLY JP,"Jl. Kartini No.11, Bada, Kec. Dompu, Kabupaten Dompu, Nusa Tenggara Bar. 84213","Bada, Kec. Dompu, Kabupaten Dompu",NUSA TENGGARA BARAT,84213.0,Indonesia,,,,-85.406.049,1.184.622.857,https://maps.google.com/?cid=0x0:0x772012d461930ab3,
supermarket,Toko Swalayan,Toko Sanggora,"FC8X+4R7, Jl. Lkr. Utara, Karijawa, Kec. Dompu, Kabupaten Dompu, Nusa Tenggara Bar. 84216","Jl. Lkr. Utara, Karijawa, Kec. Dompu, Kabupaten Dompu",NUSA TENGGARA BARAT,84216.0,Indonesia,,,,-85.347.009,1.184.495.497,https://maps.google.com/?cid=0x0:0x8377e76fdfd969d5,
supermarket,Toko Swalayan,go-welly,"Bada, Kec. Dompu, Kabupaten Dompu, Nusa Tenggara Bar. 84211","Kec. Dompu, Kabupaten Dompu",NUSA TENGGARA BARAT,84211.0,Indonesia,81915817408,,,-85.403.793,1.184.643.847,https://maps.google.com/?cid=0x0:0x4dc31b55427996a9,
supermarket,supermarket,HaBiyanQeel Market,"FFPP+R6H, Jl. Lintas Sumbawa - Bima, OO, Kec. Dompu, Kabupaten Dompu, Nusa Tenggara Bar. 84219","Jl. Lintas Sumbawa - Bima, OO, Kec. Dompu, Kabupaten Dompu",NUSA TENGGARA BARAT,84219.0,Indonesia,,,,-8.513.002,11.848.599,https://maps.google.com/?cid=0x0:0x9a518fd4ff30fe81,
supermarket,Minimarket,UD. ALHAK Multysukses,"CFRH+HP8, Jl. Lintas Lakey, Kareke, Kec. Dompu, Kabupaten Dompu, Nusa Tenggara Bar. 84214","Jl. Lintas Lakey, Kareke, Kec. Dompu, Kabupaten Dompu",NUSA TENGGARA BARAT,84214.0,Indonesia,,,,-85.585.868,1.184.793.322,https://maps.google.com/?cid=0x0:0x5dc90ec41fc33c51,
supermarket,Toko Komputer,Sentral Muslim Computer Dompu,"FFJJ+32X, OO, Kec. Dompu, Kabupaten Dompu, Nusa Tenggara Bar. 84214","OO, Kec. Dompu, Kabupaten Dompu",NUSA TENGGARA BARAT,84214.0,Indonesia,85338969696,,,-85.187.493,1.184.788.052,https://maps.google.com/?cid=0x0:0x7e73c18b4dfb993b,
supermarket,Toko bahan makanan,Toko Putri Sanggar,"Jl. Lintas Sumbawa - Bima No.81, OO, Kec. Dompu, Kabupaten Dompu, Nusa Tenggara Bar. 84214","OO, Kec. Dompu, Kabupaten Dompu",NUSA TENGGARA BARAT,84214.0,Indonesia,85239530037,,,-85.143.763,1.184.835.305,https://maps.google.com/?cid=0x0:0x6b350f1eadf0f6ca,
supermarket,Toko,Toko Sinar Pagi,"GF3F+QV8, JL. Empang, OO, Kec. Dompu, Kabupaten Dompu, Nusa Tenggara Bar. 84214","JL. Empang, OO, Kec. Dompu, Kabupaten Dompu",NUSA TENGGARA BARAT,84214.0,Indonesia,373691137,,,-849.559,11.847.471,https://maps.google.com/?cid=0x0:0x9ac08db2f02aabc3,
supermarket,supermarket,UD. HARAPAN KITA,"FFJH+MM8, Jl. Lintas Sumbawa - Bima, Karijawa, Kec. Dompu, Kabupaten Dompu, Nusa Tenggara Bar. 84214","Jl. Lintas Sumbawa - Bima, Karijawa, Kec. Dompu, Kabupaten Dompu",NUSA TENGGARA BARAT,84214.0,Indonesia,,,,-85.183.352,1.184.792.041,https://maps.google.com/?cid=0x0:0x858c80bf7d94dd72,
supermarket,Toko Buah dan Sayuran,RUMAH BUAH DOROTANGGA,"Jl. Mahoni, Dorotangga, Kec. Dompu, Kabupaten Dompu, Nusa Tenggara Bar. 84212","Dorotangga, Kec. Dompu, Kabupaten Dompu",NUSA TENGGARA BARAT,84212.0,Indonesia,81918005577,,,-85.345.402,1.184.661.813,https://maps.google.com/?cid=0x0:0x28564760d2b094ec,
supermarket,Toko bahan makanan,Ruko Ibu Nur,"CFWG+M87, Jl. Lintas Lakey, Kareke, Kec. Dompu, Kabupaten Dompu, Nusa Tenggara Bar. 84211","Jl. Lintas Lakey, Kareke, Kec. Dompu, Kabupaten Dompu",NUSA TENGGARA BARAT,84211.0,Indonesia,82341482626,,,-85.533.283,1.184.758.093,https://maps.google.com/?cid=0x0:0x63cb431dec47a93a,
supermarket,Toko,Eqisupermmarket,"FC27+MF7, Jl. Lintas Sumbawa, Bakajaya, Kec. Woja, Kabupaten Dompu, Nusa Tenggara Bar. 84216","Jl. Lintas Sumbawa, Bakajaya, Kec. Woja, Kabupaten Dompu",NUSA TENGGARA BARAT,84216.0,Indonesia,85333646817,,,-85.483.465,1.184.136.661,https://maps.google.com/?cid=0x0:0xd829ddb0bc109a80,
supermarket,Perusahaan Daerah Air Minum (PDAM),Perusahaan Daerah Air Minum,"GF3F+RF8, JL. Jurusan TVRI, OO, Kec. Dompu, Kabupaten Dompu, Nusa Tenggara Bar. 84214","JL. Jurusan TVRI, OO, Kec. Dompu, Kabupaten Dompu",NUSA TENGGARA BARAT,84214.0,Indonesia,37321274,,,-8.495.463,118.473.701,https://maps.google.com/?cid=0x0:0xf32dd2aa0b0cfa70,
supermarket,Kios,Kemuning,"jln. jeruk No.5, Potu, Kec. Dompu, Kabupaten Dompu, Nusa Tenggara Bar. 84214","Potu, Kec. Dompu, Kabupaten Dompu",NUSA TENGGARA BARAT,84214.0,Indonesia,83830329276,,,-85.416.006,1.184.630.823,https://maps.google.com/?cid=0x0:0x60cac130e3759f02,
supermarket,Minimarket,Holly Mart Dompu,"Jl. Nusantara No.22, Bada, Kec. Dompu, Kabupaten Dompu, Nusa Tenggara Bar. 84213","Bada, Kec. Dompu, Kabupaten Dompu",NUSA TENGGARA BARAT,84213.0,Indonesia,,,,-85.395.093,1.184.623.001,https://maps.google.com/?cid=0x0:0xeda111f4d75f310,
supermarket,Minimarket,SENTRAL MART KSB LINGKAR UTARA,"FFC6+CCX, Bali, Kec. Dompu, Kabupaten Dompu, Nusa Tenggara Bar. 84213","Bali, Kec. Dompu, Kabupaten Dompu",NUSA TENGGARA BARAT,84213.0,Indonesia,,,,-85.288.399,1.184.611.489,https://maps.google.com/?cid=0x0:0xa68250a9bf0ef496,
supermarket,Toko bahan makanan,UD AQILLA,"Jl. Mesjid Jisrul Jannah, Potu, Kec. Dompu, Kabupaten Dompu, Nusa Tenggara Bar. 84213","Potu, Kec. Dompu, Kabupaten Dompu",NUSA TENGGARA BARAT,84213.0,Indonesia,85333235664,,,-85.427.434,1.184.636.759,https://maps.google.com/?cid=0x0:0x398f4297e4032ff,
supermarket,Toko Elektronik,Toko HP ONLINE Millenial Store Dompu,"Jl. Lintas Sumbawa - Bima No.29, OO, Kec. Dompu, Kabupaten Dompu, Nusa Tenggara Bar. 84214","OO, Kec. Dompu, Kabupaten Dompu",NUSA TENGGARA BARAT,84214.0,Indonesia,85737078956,,,-85.177.339,1.184.788.427,https://maps.google.com/?cid=0x0:0xfa611c32dee6c967,
supermarket,Restoran,Lapak. PASTI DIA (Mama La Afan),"Jl. Lintas Sumbawa - Bima, Dorotangga, Kec. Dompu, Kabupaten Dompu, Nusa Tenggara Bar. 84214","Dorotangga, Kec. Dompu, Kabupaten Dompu",NUSA TENGGARA BARAT,84214.0,Indonesia,85338840144,,,-85.281.909,1.184.711.176,https://maps.google.com/?cid=0x0:0x439939f69131cd6c,
supermarket,Toko,Tempat Jual Beli Sarang Walet BINTANG 88 WALET,"Jl. Lele No.4, Bali, Kec. Dompu, Kabupaten Dompu, Nusa Tenggara Bar. 84213","Bali, Kec. Dompu, Kabupaten Dompu",NUSA TENGGARA BARAT,84213.0,Indonesia,88258525653,,,-85.354.589,1.184.610.978,https://maps.google.com/?cid=0x0:0x73fc729a92993855,
supermarket,supermarket,Nusa Tenggara Bar. 84219,"Kabupaten Dompu, Nusa Tenggara Bar.","Kabupaten Dompu, Nusa Tenggara Bar.",NUSA TENGGARA BARAT,,Indonesia,,,,-8.455.389,1.184.980.744,https://maps.google.com/?cid=0x0:0xd1ca28c719867916,
supermarket,Toko bahan makanan,Smart,"Jl. Baru Karijawa gg PS No.33, Karijawa, Kec. Dompu, Kabupaten Dompu, Nusa Tenggara Bar. 84213","Karijawa, Kec. Dompu, Kabupaten Dompu",NUSA TENGGARA BARAT,84213.0,Indonesia,81312243439,,,-85.314.562,1.184.548.222,https://maps.google.com/?cid=0x0:0x485a0ae2ef9fd899,
supermarket,Toko bahan makanan,Supermarket dan Grosir Agil Mandiri,"Matua, Kec. Woja, Kabupaten Dompu, Nusa Tenggara Bar. 84251","Kec. Woja, Kabupaten Dompu",NUSA TENGGARA BARAT,84251.0,Indonesia,81339732473,,,-85.472.611,1.184.209.301,https://maps.google.com/?cid=0x0:0x25c05e12a6e216b4,
supermarket,Toko,Eqisupermmarket,"FC27+MF7, Jl. Lintas Sumbawa, Bakajaya, Kec. Woja, Kabupaten Dompu, Nusa Tenggara Bar. 84216","Jl. Lintas Sumbawa, Bakajaya, Kec. Woja, Kabupaten Dompu",NUSA TENGGARA BARAT,84216.0,Indonesia,85333646817,,,-85.483.465,1.184.136.661,https://maps.google.com/?cid=0x0:0xd829ddb0bc109a80,
supermarket,Pusat Perbelanjaan,UD Ade jaya,"FF69+357, Bada, Kec. Dompu, Kabupaten Dompu, Nusa Tenggara Bar. 84213","Bada, Kec. Dompu, Kabupaten Dompu",NUSA TENGGARA BARAT,84213.0,Indonesia,82341490754,,,-85.398.283,1.184.679.331,https://maps.google.com/?cid=0x0:0x12108ef940c0e3f0,
supermarket,Toko Swalayan,Bolly Deptstore Dompu,"FF65+4FH, Jl. Manuru Bata Dompu, Bada, Kec. Dompu, Kabupaten Dompu, Nusa Tenggara Bar. 84213","Jl. Manuru Bata Dompu, Bada, Kec. Dompu, Kabupaten Dompu",NUSA TENGGARA BARAT,84213.0,Indonesia,,,,-85.396.801,1.184.587.322,https://maps.google.com/?cid=0x0:0x5b99d2bfd3f4e4cf,
supermarket,Pusat Perbelanjaan,hamet market 2,"FF67+3H3, Jl. Nusantara, Bada, Kec. Dompu, Kabupaten Dompu, Nusa Tenggara Bar. 84213","Jl. Nusantara, Bada, Kec. Dompu, Kabupaten Dompu",NUSA TENGGARA BARAT,84213.0,Indonesia,81284565745,,,-85.398.636,1.184.639.204,https://maps.google.com/?cid=0x0:0xce1162dadead77da,
supermarket,Toko bahan makanan,Toko Kita,"CCQH+XXF, Wawonduru, Kec. Woja, Kabupaten Dompu, Nusa Tenggara Bar. 84219","Wawonduru, Kec. Woja, Kabupaten Dompu",NUSA TENGGARA BARAT,84219.0,Indonesia,,,,-85.600.567,1.184.299.125,https://maps.google.com/?cid=0x0:0x3ccd7a1ae6bf9df7,
supermarket,Minimarket,Holly Mart Dompu,"Jl. Nusantara No.22, Bada, Kec. Dompu, Kabupaten Dompu, Nusa Tenggara Bar. 84213","Bada, Kec. Dompu, Kabupaten Dompu",NUSA TENGGARA BARAT,84213.0,Indonesia,,,,-85.395.093,1.184.623.001,https://maps.google.com/?cid=0x0:0xeda111f4d75f310,
supermarket,Kios,KIOS PAK ELO,"FC4M+H37, Kandai Dua, Kec. Woja, Kabupaten Dompu, Nusa Tenggara Bar. 84219","Kandai Dua, Kec. Woja, Kabupaten Dompu",NUSA TENGGARA BARAT,84219.0,Indonesia,,,,-85.435.971,1.184.326.674,https://maps.google.com/?cid=0x0:0x64088761929b2aad,
supermarket,Gudang,UD.KUSUMA SAKA,"FFGF+7G3, Mangge Asi, Kec. Dompu, Kabupaten Dompu, Nusa Tenggara Bar. 84214","Mangge Asi, Kec. Dompu, Kabupaten Dompu",NUSA TENGGARA BARAT,84214.0,Indonesia,,,,-85.243.628,1.184.738.032,https://maps.google.com/?cid=0x0:0xef0decd4cd2a244,
supermarket,supermarket,HaBiyanQeel Market,"FFPP+R6H, Jl. Lintas Sumbawa - Bima, OO, Kec. Dompu, Kabupaten Dompu, Nusa Tenggara Bar. 84219","Jl. Lintas Sumbawa - Bima, OO, Kec. Dompu, Kabupaten Dompu",NUSA TENGGARA BARAT,84219.0,Indonesia,85337357406,,,-8.513.002,11.848.599,https://maps.google.com/?cid=0x0:0x9a518fd4ff30fe81,
supermarket,Toko Swalayan,Toko mangga dua store,"CF6Q+49M, Ranggo, Kec. Pajo, Kabupaten Dompu, Nusa Tenggara Bar. 84272","Ranggo, Kec. Pajo, Kabupaten Dompu",NUSA TENGGARA BARAT,84272.0,Indonesia,82237137896,,,-85.896.719,1.184.884.105,https://maps.google.com/?cid=0x0:0x7f59992d4c4d1a14,
supermarket,Toserba,BOLLY JP,"Jl. Kartini No.11, Bada, Kec. Dompu, Kabupaten Dompu, Nusa Tenggara Bar. 84213","Bada, Kec. Dompu, Kabupaten Dompu",NUSA TENGGARA BARAT,84213.0,Indonesia,,,,-85.406.049,1.184.622.857,https://maps.google.com/?cid=0x0:0x772012d461930ab3,
supermarket,Toko Organik,Toko Herbal  Kosmetik (Nurhidayah Us'ud),"Mbawi, Kec. Dompu, Kabupaten Dompu, Nusa Tenggara Bar. 84219","Kec. Dompu, Kabupaten Dompu",NUSA TENGGARA BARAT,84219.0,Indonesia,85238727020,,,-86.115.203,1.184.398.248,https://maps.google.com/?cid=0x0:0x4745fcc1b5ee4f04,
supermarket,Minimarket,UD. ALHAK Multysukses,"CFRH+HP8, Jl. Lintas Lakey, Kareke, Kec. Dompu, Kabupaten Dompu, Nusa Tenggara Bar. 84214","Jl. Lintas Lakey, Kareke, Kec. Dompu, Kabupaten Dompu",NUSA TENGGARA BARAT,84214.0,Indonesia,,,,-85.585.868,1.184.793.322,https://maps.google.com/?cid=0x0:0x5dc90ec41fc33c51,
supermarket,Toko,Toko Agam Dompu,"Jl. Lkr. Utara, Karijawa, Kec. Dompu, Kabupaten Dompu, Nusa Tenggara Bar.","Kabupaten Dompu, Nusa Tenggara Bar.",NUSA TENGGARA BARAT,,Indonesia,81338534210,,,-85.335.968,1.184.518.114,https://maps.google.com/?cid=0x0:0xda05dd891e684b5a,
supermarket,Toko bahan makanan,Kios Kelapa Muda,"FC3J+6RW, Kandai Dua, Kec. Woja, Kabupaten Dompu, Nusa Tenggara Bar. 84219","Kandai Dua, Kec. Woja, Kabupaten Dompu",NUSA TENGGARA BARAT,84219.0,Indonesia,82237939991,,,-85.468.914,1.184.320.673,https://maps.google.com/?cid=0x0:0xdc27faef0666e47f,
supermarket,Toko,Magenda,"FF56+MWV, Jl. Syekh Abdul Gani, Potu, Kec. Dompu, Kabupaten Dompu, Nusa Tenggara Bar. 84213","Jl. Syekh Abdul Gani, Potu, Kec. Dompu, Kabupaten Dompu",NUSA TENGGARA BARAT,84213.0,Indonesia,,,,-85.407.656,1.184.623.021,https://maps.google.com/?cid=0x0:0x30f2c2998e3f49e6,
supermarket,Toko,Toko ARIATI,"FC4J+7W7, Kandai Dua, Kec. Woja, Kabupaten Dompu, Nusa Tenggara Bar. 84219","Kandai Dua, Kec. Woja, Kabupaten Dompu",NUSA TENGGARA BARAT,84219.0,Indonesia,,,,-8.544.344,1.184.322.911,https://maps.google.com/?cid=0x0:0x9a79bb80d8262894,
supermarket,Minimarket,Lancar market,"Jl. Nusantara No.30, Bada, Kec. Dompu, Kabupaten Dompu, Nusa Tenggara Bar. 84211","Bada, Kec. Dompu, Kabupaten Dompu",NUSA TENGGARA BARAT,84211.0,Indonesia,37321206,,,-85.394.981,1.184.613.568,https://maps.google.com/?cid=0x0:0x6dde2605e2d86bf1,
supermarket,Toko Swalayan,Toko Putra Kediri,"FF64+965, Karijawa, Kec. Dompu, Kabupaten Dompu, Nusa Tenggara Bar. 84217","Karijawa, Kec. Dompu, Kabupaten Dompu",NUSA TENGGARA BARAT,84217.0,Indonesia,81915871233,,,-85.391.195,1.184.556.228,https://maps.google.com/?cid=0x0:0x5fccc13cc9623e0b,
supermarket,Minimarket,ALFAMART KSB KANDAI DUA RIZKY MART,"FC6J+7RG, Kandai Dua, Kec. Woja, Kabupaten Dompu, Nusa Tenggara Bar. 84219","Kandai Dua, Kec. Woja, Kabupaten Dompu",NUSA TENGGARA BARAT,84219.0,Indonesia,,,,-85.392.913,118.432.068,https://maps.google.com/?cid=0x0:0xc59abc5561d862f6,
supermarket,Toko bahan makanan,UD AQILLA,"Jl. Mesjid Jisrul Jannah, Potu, Kec. Dompu, Kabupaten Dompu, Nusa Tenggara Bar. 84213","Potu, Kec. Dompu, Kabupaten Dompu",NUSA TENGGARA BARAT,84213.0,Indonesia,85333235664,,,-85.427.434,1.184.636.759,https://maps.google.com/?cid=0x0:0x398f4297e4032ff,
supermarket,Grosir,Toko Indra Jaya,"FC26+GVQ, Jl. Lintas Sumbawa - Bima, Bakajaya, Kec. Woja, Kabupaten Dompu, Nusa Tenggara Bar. 84251","Jl. Lintas Sumbawa - Bima, Bakajaya, Kec. Woja, Kabupaten Dompu",NUSA TENGGARA BARAT,84251.0,Indonesia,37322284,,,-85.486.525,1.184.122.479,https://maps.google.com/?cid=0x0:0x51e52037dfc326f8,
supermarket,supermarket,Nusa Tenggara Bar. 84261,"Kabupaten Dompu, Nusa Tenggara Bar.","Kabupaten Dompu, Nusa Tenggara Bar.",NUSA TENGGARA BARAT,,Indonesia,,,,-83.860.783,1.179.951.862,https://maps.google.com/?cid=0x0:0x9ecbf848dd39c412,
supermarket,Toko Swalayan,Toko Sinar Berkah,"F5M4+9F8, Tolo Kalo, Kec. Kempo, Kabupaten Dompu, Nusa Tenggara Bar. 84261","Tolo Kalo, Kec. Kempo, Kabupaten Dompu",NUSA TENGGARA BARAT,84261.0,Indonesia,85328728700,,,-85.165.827,1.181.561.909,https://maps.google.com/?cid=0x0:0x152af6efc5a438e1,
supermarket,Seafood,Ilmi Ikan,"C6RQ+V58, Soro, Kec. Kempo, Kabupaten Dompu, Nusa Tenggara Bar. 84261","Soro, Kec. Kempo, Kabupaten Dompu",NUSA TENGGARA BARAT,84261.0,Indonesia,85338234212,,,-85.578.351,1.182.379.639,https://maps.google.com/?cid=0x0:0xbb8b9e57891e7931,
supermarket,supermarket,KEMPO mart,"Jl. Raya, Kempo, Kec. Kempo, Kabupaten Dompu, Nusa Tenggara Bar. 84261","Kempo, Kec. Kempo, Kabupaten Dompu",NUSA TENGGARA BARAT,84261.0,Indonesia,,,,-8.547.095,118.247.567,https://maps.google.com/?cid=0x0:0xd653cbf33d01127d,
supermarket,Minimarket,SAKURA MART,"Jl. Lintas Calabai Desa No.99, Ta'a, Kec. Kempo, Kabupaten Dompu, Nusa Tenggara Bar. 84261","Ta'a, Kec. Kempo, Kabupaten Dompu",NUSA TENGGARA BARAT,84261.0,Indonesia,,,,-85.327.029,1.182.570.224,https://maps.google.com/?cid=0x0:0xb992987cf2895a52,
supermarket,Toko bahan makanan,Kios Anggun,"F66X+4WG, Jl. Lintas Calabai, Kempo, Kec. Kempo, Kabupaten Dompu, Nusa Tenggara Bar. 84261","Jl. Lintas Calabai, Kempo, Kec. Kempo, Kabupaten Dompu",NUSA TENGGARA BARAT,84261.0,Indonesia,,,,-8.539.693,1.182.498.153,https://maps.google.com/?cid=0x0:0x19f684ece8d49d25,
supermarket,Toko,Toko Abil Putra,"C6VR+7H4, Jl. Raya, Soro, Kec. Kempo, Kabupaten Dompu, Nusa Tenggara Bar. 84261","Jl. Raya, Soro, Kec. Kempo, Kabupaten Dompu",NUSA TENGGARA BARAT,84261.0,Indonesia,82340083570,,,-85.568.618,1.182.414.637,https://maps.google.com/?cid=0x0:0x6dddbaea8c75b077,
supermarket,supermarket,GINA Market,"depan kantor desa, timur, dusun nciu, Soro, Kec. Kempo, Kabupaten Dompu, Nusa Tenggara Bar. 84261","timur, dusun nciu, Soro, Kec. Kempo, Kabupaten Dompu",NUSA TENGGARA BARAT,84261.0,Indonesia,82122480881,,,-85.779.057,1.182.585.096,https://maps.google.com/?cid=0x0:0xb2e52e5eb5a4b522,
supermarket,Toko Swalayan,UD SINAR BARRU,"F5M4+C9M, Tolo Kalo, Kec. Kempo, Kabupaten Dompu, Nusa Tenggara Bar. 84261","Tolo Kalo, Kec. Kempo, Kabupaten Dompu",NUSA TENGGARA BARAT,84261.0,Indonesia,82340541942,,,-85.164.022,1.181.559.313,https://maps.google.com/?cid=0x0:0xda560f75e4e9b3c6,
supermarket,Toko bahan makanan,Sakura mart,"G63X+5V5, Ta'a, Kec. Kempo, Kabupaten Dompu, Nusa Tenggara Bar.","Kabupaten Dompu, Nusa Tenggara Bar.",NUSA TENGGARA BARAT,,Indonesia,,,,-84.971.228,1.182.497.386,https://maps.google.com/?cid=0x0:0xeb4a83682d4b1329,
supermarket,Peternakan Ikan,Kolam Lele Jumbo,"F5J5+36P, Tolo Kalo, Kec. Kempo, Kabupaten Dompu, Nusa Tenggara Bar. 84261","Tolo Kalo, Kec. Kempo, Kabupaten Dompu",NUSA TENGGARA BARAT,84261.0,Indonesia,,,,-85.197.947,1.181.580.846,https://maps.google.com/?cid=0x0:0x92c5a652fd9e4e94,
supermarket,Toko Swalayan,UD. Adis Putra,"Jl. Lintas Calabai, Ta'a, Kec. Kempo, Kabupaten Dompu, Nusa Tenggara Bar. 84261","Ta'a, Kec. Kempo, Kabupaten Dompu",NUSA TENGGARA BARAT,84261.0,Indonesia,,,,-85.397.955,1.182.536.991,https://maps.google.com/?cid=0x0:0xac77bf806f933877,
supermarket,Toko Swalayan,Toko Vega teguh,"Toko Vega teguh, Kempo, Kec. Kempo, Kabupaten Dompu, Nusa Tenggara Bar. 84261","Kempo, Kec. Kempo, Kabupaten Dompu",NUSA TENGGARA BARAT,84261.0,Indonesia,"8,5339E+11",,,-85.462.723,1.182.477.173,https://maps.google.com/?cid=0x0:0x28824a9edebee6db,
supermarket,Pemasok Pupuk,UD. Agro Makmur,"F7JR+JH2, Desa Dorokobo, Kec. Kempo, Kabupaten Dompu, Nusa Tenggara Bar. 84253","Desa Dorokobo, Kec. Kempo, Kabupaten Dompu",NUSA TENGGARA BARAT,84253.0,Indonesia,,,,-85.184.908,1.182.914.016,https://maps.google.com/?cid=0x0:0xc014c6ab07d35407,
supermarket,Toko,Eqisupermmarket,"FC27+MF7, Jl. Lintas Sumbawa, Bakajaya, Kec. Woja, Kabupaten Dompu, Nusa Tenggara Bar. 84216","Jl. Lintas Sumbawa, Bakajaya, Kec. Woja, Kabupaten Dompu",NUSA TENGGARA BARAT,84216.0,Indonesia,85333646817,,,-85.483.465,1.184.136.661,https://maps.google.com/?cid=0x0:0xd829ddb0bc109a80,
supermarket,Toko,Duni Store,"F754+Q38, Ta'a, Kec. Kempo, Kabupaten Dompu, Nusa Tenggara Bar. 84261","Ta'a, Kec. Kempo, Kabupaten Dompu",NUSA TENGGARA BARAT,84261.0,Indonesia,87845710807,,,-85.405.875,1.182.552.031,https://maps.google.com/?cid=0x0:0x2b44265e0accab7,
supermarket,Toko Bahan Bangunan,Toko CAHAYA BONE,"C6RQ+V7X, Soro, Kec. Kempo, Kabupaten Dompu, Nusa Tenggara Bar. 84261","Soro, Kec. Kempo, Kabupaten Dompu",NUSA TENGGARA BARAT,84261.0,Indonesia,,,,-8.557.768,1.182.382.492,https://maps.google.com/?cid=0x0:0x7998d941e311754c,
supermarket,Restoran,Songgajah,"So Nggajah, Kec. Kempo, Kabupaten Dompu, Nusa Tenggara Bar. 84261","Kec. Kempo, Kabupaten Dompu",NUSA TENGGARA BARAT,84261.0,Indonesia,8123949315,,,-85.370.558,1.182.036.119,https://maps.google.com/?cid=0x0:0xbe463687f7cda1c0,
supermarket,Toko bahan makanan,DELIMA,"F65X+JMF, Jl. Lintas Calabai, Kempo, Kec. Kempo, Kabupaten Dompu, Nusa Tenggara Bar. 84261","Jl. Lintas Calabai, Kempo, Kec. Kempo, Kabupaten Dompu",NUSA TENGGARA BARAT,84261.0,Indonesia,,,,-85.407.254,1.182.494.247,https://maps.google.com/?cid=0x0:0x7b70cff09e524d8a,
supermarket,Toko,Toko Surya Jaya Kambu,"J88F+F27, Jambu, Kec. Kilo, Kabupaten Dompu, Nusa Tenggara Bar. 84252","Jambu, Kec. Kilo, Kabupaten Dompu",NUSA TENGGARA BARAT,84252.0,Indonesia,85237639967,,,-83.838.456,1.183.225.589,https://maps.google.com/?cid=0x0:0xdfa3885e3bf12f93,
supermarket,supermarket,"HKE_aL72HeCN4-EP8uKZ8Qw-,null,null,1,null,""https://www.google.com/maps/preview/place/Cover+lagu/@-8.462889,118.7447156,3946a,13.1y/datau003d!4m2!3m1!1s0x4b7459f28b50d50f:0x40e5baef2d11f063""",,,NUSA TENGGARA BARAT,,Indonesia,81353864391,,,-8.462.889,1.187.447.156,https://maps.google.com/?cid=0x0:0x40e5baef2d11f063,
supermarket,Toko,Toko Bintang Rejeki,"C6RQ+9RW, Unnamed Road, Soro, Kec. Kempo, Kabupaten Dompu, Nusa Tenggara Bar. 84261","Unnamed Road, Soro, Kec. Kempo, Kabupaten Dompu",NUSA TENGGARA BARAT,84261.0,Indonesia,,,,-85.590.167,1.182.395.716,https://maps.google.com/?cid=0x0:0x7af00d35b9a33008,
supermarket,Toko,YUDEN PUTRA,"Jl. Lintas Calabai, Soro, Kec. Kempo, Kabupaten Dompu, Nusa Tenggara Bar. 84261","Soro, Kec. Kempo, Kabupaten Dompu",NUSA TENGGARA BARAT,84261.0,Indonesia,,,,-85.566.004,1.182.363.616,https://maps.google.com/?cid=0x0:0xca9fbfef4f3b9cba,
supermarket,Grosir,Toko Diwas,"F763+QW3, Ta'a, Kec. Kempo, Kabupaten Dompu, Nusa Tenggara Bar. 84261","Ta'a, Kec. Kempo, Kabupaten Dompu",NUSA TENGGARA BARAT,84261.0,Indonesia,,,,-85.381.245,118.254.812,https://maps.google.com/?cid=0x0:0x2bca98572106a5f7,
supermarket,Toko,Bali Upakara Dan Yadnya,"Doro Kobo, Kec. Kempo, Kabupaten Dompu, Nusa Tenggara Bar. 84261","Kec. Kempo, Kabupaten Dompu",NUSA TENGGARA BARAT,84261.0,Indonesia,81236329676,,,-85.183.808,118.277.039,https://maps.google.com/?cid=0x0:0x2984ac723d2a2c4e,
supermarket,supermarket,Nusa Tenggara Bar. 84271,"Kec. Hu'u, Kabupaten Dompu, Nusa Tenggara Bar.","Kabupaten Dompu, Nusa Tenggara Bar.",NUSA TENGGARA BARAT,,Indonesia,,,,-87.839.226,1.184.630.376,https://maps.google.com/?cid=0x0:0x4669cd9d22c1e9e6,
supermarket,Toko,Toko Sukrimart,"Jl. Lintas Lakey, Dusun Finis, Desa Hu'u, Kec. Hu'u, Kabupaten Dompu, Nusa Tenggara Bar. 84271","Dusun Finis, Desa Hu'u, Kec. Hu'u, Kabupaten Dompu",NUSA TENGGARA BARAT,84271.0,Indonesia,81353269102,,,-87.643.807,1.183.984.797,https://maps.google.com/?cid=0x0:0xe0f5d67b896794f1,
supermarket,Pusat Perbelanjaan,Merpati Mart,"Jl. Lintas Lakey, Huu, Kec. Hu'u, Kabupaten Dompu, Nusa Tenggara Bar. 84271","Huu, Kec. Hu'u, Kabupaten Dompu",NUSA TENGGARA BARAT,84271.0,Indonesia,81337283991,,,-8.803.926,1.183.826.962,https://maps.google.com/?cid=0x0:0x87dcc3240d122683,
supermarket,Toko bahan makanan,INARA MART,"Depan kantor, Jl. Lintas Lakey, Huu, Kec. Hu'u, Kabupaten Dompu, Nusa Tenggara Bar. 84271","Jl. Lintas Lakey, Huu, Kec. Hu'u, Kabupaten Dompu",NUSA TENGGARA BARAT,84271.0,Indonesia,82146721990,,,-8.767.358,118.396.871,https://maps.google.com/?cid=0x0:0x7cfc5da429e75735,
supermarket,Kantor Pemerintah,BUMDES Desa Hu'u,"69MW+4HW, Jl. Lintas Lakey, Huu, Kec. Hu'u, Kabupaten Dompu, Nusa Tenggara Bar. 84271","Jl. Lintas Lakey, Huu, Kec. Hu'u, Kabupaten Dompu",NUSA TENGGARA BARAT,84271.0,Indonesia,85337228119,,,-87.671.963,1.183.964.239,https://maps.google.com/?cid=0x0:0xfdffe19f8f3e04cf,
supermarket,Toko bahan makanan,DRAGON MART,"7C6Q+65W, Persiapan Jala, Kec. Hu'u, Kabupaten Dompu, Nusa Tenggara Bar. 84271","Persiapan Jala, Kec. Hu'u, Kabupaten Dompu",NUSA TENGGARA BARAT,84271.0,Indonesia,,,,-87.393.984,1.184.379.664,https://maps.google.com/?cid=0x0:0x4e3f86a1a5c374f3,
supermarket,Minimarket,Toko Rajawali Citra,"7C2Q+P8R, Unnamed Road, Daha, Kec. Hu'u, Kabupaten Dompu, Nusa Tenggara Bar. 84271","Unnamed Road, Daha, Kec. Hu'u, Kabupaten Dompu",NUSA TENGGARA BARAT,84271.0,Indonesia,,,,-87.481.302,1.184.382.607,https://maps.google.com/?cid=0x0:0x4b42c61dc6326088,
supermarket,Toko,"UD. KITA""""","7FG4+664, Jl. Lintas Lakey, Sawe, Kec. Hu'u, Kabupaten Dompu, Nusa Tenggara Bar. 84271","Jl. Lintas Lakey, Sawe, Kec. Hu'u, Kabupaten Dompu",NUSA TENGGARA BARAT,84271.0,Indonesia,85337424399,,,-87.244.887,1.184.555.677,https://maps.google.com/?cid=0x0:0xa7c82422580eb692,
supermarket,supermarket,Bensin Eceran UD ipul iwandai,"69JW+QH9, Jl. Lintas Lakey, Huu, Kec. Hu'u, Kabupaten Dompu, Nusa Tenggara Bar.","Kabupaten Dompu, Nusa Tenggara Bar.",NUSA TENGGARA BARAT,,Indonesia,81327969722,,,-87.691.457,1.183.958.486,https://maps.google.com/?cid=0x0:0xc786c274127d5157,
supermarket,Toko,DAHA JAYA ABADI,"Jl. Lintas Lakey, Daha, Kec. Hu'u, Kabupaten Dompu, Nusa Tenggara Bar. 84271","Daha, Kec. Hu'u, Kabupaten Dompu",NUSA TENGGARA BARAT,84271.0,Indonesia,85239027889,,,-8.747.935,1.184.376.534,https://maps.google.com/?cid=0x0:0x3550ca59aea1366f,
supermarket,Toko Swalayan,Ibu Fitri,"7C2Q+WQF, Daha, Kec. Hu'u, Kabupaten Dompu, Nusa Tenggara Bar.","Kabupaten Dompu, Nusa Tenggara Bar.",NUSA TENGGARA BARAT,,Indonesia,,,,-87.486.017,1.184.398.317,https://maps.google.com/?cid=0x0:0xdc109549dd5c3dd,
supermarket,Toko,UD.Anak Sayang,"59VP+W2F, Jl. Lintas Lakey, Lakey, Kabupaten Dompu, Nusa Tenggara Bar. 84271","Jl. Lintas Lakey, Lakey, Kabupaten Dompu",NUSA TENGGARA BARAT,84271.0,Indonesia,82339182280,,,-88.051.818,1.183.850.536,https://maps.google.com/?cid=0x0:0xea9993a47e096b1a,
supermarket,Salon Kecantikan,Toko PENGANTIN BARU,"Unnamed Road, Daha, Huu, Kec. Hu'u, Kabupaten Dompu, Nusa Tenggara Bar. 84271","Daha, Huu, Kec. Hu'u, Kabupaten Dompu",NUSA TENGGARA BARAT,84271.0,Indonesia,87766601974,,,-8.746.196,1.184.360.227,https://maps.google.com/?cid=0x0:0x3d962e30c3166cae,
supermarket,Kios,Kios Turaya,"7C6M+MCJ, Persiapan Jala, Kec. Hu'u, Kabupaten Dompu, Nusa Tenggara Bar. 84271","Persiapan Jala, Kec. Hu'u, Kabupaten Dompu",NUSA TENGGARA BARAT,84271.0,Indonesia,,,,-87.377.753,1.184.330.352,https://maps.google.com/?cid=0x0:0x675ae3d947069e5f,
supermarket,Toko,PT. TERBIT NUSA TENGGARA,"7FF3+598, Jl. Lintas Lakey, Sawe, Kec. Hu'u, Kabupaten Dompu, Nusa Tenggara Bar. 84271","Jl. Lintas Lakey, Sawe, Kec. Hu'u, Kabupaten Dompu",NUSA TENGGARA BARAT,84271.0,Indonesia,85238921968,,,-87.270.965,118.453.451,https://maps.google.com/?cid=0x0:0x442ec37d1b1e6cfb,
supermarket,Toko bahan makanan,Toko Sembako Ny Endang Iswan,"Rasabou, Kec. Hu'u, Kabupaten Dompu, Nusa Tenggara Bar. 82341","Kec. Hu'u, Kabupaten Dompu",NUSA TENGGARA BARAT,82341.0,Indonesia,82340950770,,,-87.470.625,1.184.601.175,https://maps.google.com/?cid=0x0:0xf0ad509df5f91f4b,
supermarket,Toko,TOKO SilVian,"7C6Q+FC2, Persiapan Jala, Kec. Hu'u, Kabupaten Dompu, Nusa Tenggara Bar. 84271","Persiapan Jala, Kec. Hu'u, Kabupaten Dompu",NUSA TENGGARA BARAT,84271.0,Indonesia,81339066558,,,-87.389.223,1.184.385.913,https://maps.google.com/?cid=0x0:0xab125fc9e74e7e75,
supermarket,Toko,Toko circle j jln lintas lakey cangga nangga doro,"59VtToko CIRCLE, Jl. Lintas Lakey, Huu, Kec. Hu'u, Kabupaten Dompu, Nusa Tenggara Bar. 84271","Jl. Lintas Lakey, Huu, Kec. Hu'u, Kabupaten Dompu",NUSA TENGGARA BARAT,84271.0,Indonesia,85137808785,,,-88.056.252,118.385.197,https://maps.google.com/?cid=0x0:0xdcc46acc393aa993,
supermarket,Toko Swalayan,Abdili Mart - Abdili Fam Group,"Rasabou, Kec. Hu'u, Kabupaten Dompu, Nusa Tenggara Bar. 84271","Kec. Hu'u, Kabupaten Dompu",NUSA TENGGARA BARAT,84271.0,Indonesia,81215407254,,,-87.402.715,1.184.358.083,https://maps.google.com/?cid=0x0:0xc9193b7966db323f,
supermarket,Toko,Eqisupermmarket,"FC27+MF7, Jl. Lintas Sumbawa, Bakajaya, Kec. Woja, Kabupaten Dompu, Nusa Tenggara Bar. 84216","Jl. Lintas Sumbawa, Bakajaya, Kec. Woja, Kabupaten Dompu",NUSA TENGGARA BARAT,84216.0,Indonesia,85333646817,,,-85.483.465,1.184.136.661,https://maps.google.com/?cid=0x0:0xd829ddb0bc109a80,
supermarket,Toko Bahan Bangunan,TB. Ameerah Justin Jaya,"7C8W+C9Q, Rasabou, Kec. Hu'u, Kabupaten Dompu, Nusa Tenggara Bar. 84271","Rasabou, Kec. Hu'u, Kabupaten Dompu",NUSA TENGGARA BARAT,84271.0,Indonesia,85239050249,,,-87.329.419,1.184.466.227,https://maps.google.com/?cid=0x0:0xf08820de0e80b43a,
supermarket,Minimarket,Holly Mart Dompu,"Jl. Nusantara No.22, Bada, Kec. Dompu, Kabupaten Dompu, Nusa Tenggara Bar. 84213","Bada, Kec. Dompu, Kabupaten Dompu",NUSA TENGGARA BARAT,84213.0,Indonesia,,,,-85.395.093,1.184.623.001,https://maps.google.com/?cid=0x0:0xeda111f4d75f310,
supermarket,Toko Swalayan,Toko Putra Kediri,"FF64+965, Karijawa, Kec. Dompu, Kabupaten Dompu, Nusa Tenggara Bar. 84217","Karijawa, Kec. Dompu, Kabupaten Dompu",NUSA TENGGARA BARAT,84217.0,Indonesia,81915871233,,,-85.391.195,1.184.556.228,https://maps.google.com/?cid=0x0:0x5fccc13cc9623e0b,
supermarket,Toko Swalayan,UD PUTRI CAHAYA,"9M84+54H, Jl. Lintas Sumbawa - Bima, Lape, Kec. Lape, Kabupaten Sumbawa, Nusa Tenggara Bar. 84382","Jl. Lintas Sumbawa - Bima, Lape, Kec. Lape, Kabupaten Sumbawa",NUSA TENGGARA BARAT,84382.0,Indonesia,,,,-86.345.693,1.176.553.539,https://maps.google.com/?cid=0x0:0x19e23364356fb794,
supermarket,Tujuan Wisata,Nanga Hu'u,"696J+54, Kec. Hu'u, Kabupaten Dompu, Nusa Tenggara Bar. 84271","Kec. Hu'u, Kabupaten Dompu",NUSA TENGGARA BARAT,84271.0,Indonesia,,,,-87.895.617,1.183.803.443,https://maps.google.com/?cid=0x0:0xe92ab8e4d863bda4,
supermarket,Toko bahan makanan,Ruby Supermarket  Dept. Store,"Jl. Pejanggik No.111F, Cilinaya, Kec. Cakranegara, Kota Mataram, Nusa Tenggara Bar. 83231","Cilinaya, Kec. Cakranegara, Kota Mataram",NUSA TENGGARA BARAT,83231.0,Indonesia,370624421,,,-8.587.131,1.161.217.675,https://maps.google.com/?cid=0x0:0xbcc8757d99c3f51f,
supermarket,Grosir,Toko Indra Jaya,"FC26+GVQ, Jl. Lintas Sumbawa - Bima, Bakajaya, Kec. Woja, Kabupaten Dompu, Nusa Tenggara Bar. 84251","Jl. Lintas Sumbawa - Bima, Bakajaya, Kec. Woja, Kabupaten Dompu",NUSA TENGGARA BARAT,84251.0,Indonesia,37322284,,,-85.486.525,1.184.122.479,https://maps.google.com/?cid=0x0:0x51e52037dfc326f8,
supermarket,Toko,TOKO BUDI,"7C6P+4HW, Persiapan Jala, Kec. Hu'u, Kabupaten Dompu, Nusa Tenggara Bar. 84271","Persiapan Jala, Kec. Hu'u, Kabupaten Dompu",NUSA TENGGARA BARAT,84271.0,Indonesia,,,,-87.401.626,1.184.363.785,https://maps.google.com/?cid=0x0:0xab1122a218d0f461,
supermarket,Perhimpunan Pengembang Perumahan,Huu,"69JW+QH9, Jl. Lintas Lakey, Huu, Kec. Hu'u, Kabupaten Dompu, Nusa Tenggara Bar.","Kabupaten Dompu, Nusa Tenggara Bar.",NUSA TENGGARA BARAT,,Indonesia,,,,-87.680.857,1.183.964.955,https://maps.google.com/?cid=0x0:0x19f0d927c7370056,
supermarket,supermarket,Nusa Tenggara Bar. 84252,"Kec. Kilo, Kabupaten Dompu, Nusa Tenggara Bar.","Kabupaten Dompu, Nusa Tenggara Bar.",NUSA TENGGARA BARAT,,Indonesia,,,,-83.661.165,1.183.812.562,https://maps.google.com/?cid=0x0:0xc5fe1ded17f045e9,
supermarket,Toko,Toko Merpati kilo,"M9RW+J86, Malaju, Kec. Kilo, Kabupaten Dompu, Nusa Tenggara Bar. 84252","Malaju, Kec. Kilo, Kabupaten Dompu",NUSA TENGGARA BARAT,84252.0,Indonesia,,,,-83.084.703,1.183.957.709,https://maps.google.com/?cid=0x0:0xe84d553df414381b,
supermarket,Toko,Toko Surya Jaya Kambu,"J88F+F27, Jambu, Kec. Kilo, Kabupaten Dompu, Nusa Tenggara Bar. 84252","Jambu, Kec. Kilo, Kabupaten Dompu",NUSA TENGGARA BARAT,84252.0,Indonesia,85237639967,,,-83.838.456,1.183.225.589,https://maps.google.com/?cid=0x0:0xdfa3885e3bf12f93,
supermarket,Toko,Kios dua putri,"PC25+XM5, Lasi, Kec. Kilo, Kabupaten Dompu, Nusa Tenggara Bar.","Kabupaten Dompu, Nusa Tenggara Bar.",NUSA TENGGARA BARAT,,Indonesia,85253359054,,,-82.976.007,1.184.092.411,https://maps.google.com/?cid=0x0:0x52ef764015caa68d,
supermarket,Toko Swalayan,"Toko Permata Hati, Malaju, Kilo","M9QV+5X3, Jl. Lintas Malaju, Malaju, Kec. Kilo, Kabupaten Dompu, Nusa Tenggara Bar. 84252","Jl. Lintas Malaju, Malaju, Kec. Kilo, Kabupaten Dompu",NUSA TENGGARA BARAT,84252.0,Indonesia,,,,-83.121.137,1.183.949.211,https://maps.google.com/?cid=0x0:0xa8ab8f98d2565c51,
supermarket,Kios,Toko SYAURAH RP,"Jl. Lintas Lasi, Malaju, Kec. Kilo, Kabupaten Dompu, Nusa Tenggara Bar. 84252","Malaju, Kec. Kilo, Kabupaten Dompu",NUSA TENGGARA BARAT,84252.0,Indonesia,82235295385,,,-83.097.644,1.183.948.853,https://maps.google.com/?cid=0x0:0x60828bea4d4c222f,
supermarket,Toko Swalayan,Kios Bobi,"M9QV+WMR, Malaju, Kec. Kilo, Kabupaten Dompu, Nusa Tenggara Bar. 84252","Malaju, Kec. Kilo, Kabupaten Dompu",NUSA TENGGARA BARAT,84252.0,Indonesia,,,,-83.101.375,1.183.941.406,https://maps.google.com/?cid=0x0:0xb1ece4c04df6d9c7,
supermarket,Kios,Kios Ummu Nurul Maghfiroh,"Taropo, Kec. Kilo, Kabupaten Dompu, Nusa Tenggara Bar.","Kabupaten Dompu, Nusa Tenggara Bar.",NUSA TENGGARA BARAT,,Indonesia,82339669355,,,-84.234.375,1.183.403.125,https://maps.google.com/?cid=0x0:0xa23911c9aa44f80c,
supermarket,Kios,Kios Bintang Lasi,"PC23+6WR, Jl. Lintas Kiwu, Lasi, Kec. Kilo, Kabupaten Dompu, Nusa Tenggara Bar. 84252","Jl. Lintas Kiwu, Lasi, Kec. Kilo, Kabupaten Dompu",NUSA TENGGARA BARAT,84252.0,Indonesia,,,,-82.993.856,1.184.047.764,https://maps.google.com/?cid=0x0:0x38271e3879d83513,
supermarket,Toko bahan makanan,TK. DIANULDZAKIR,"M9QR+V39, Jl. Lintas Dermaga Paropa, Malaju, Kec. Kilo, Kabupaten Dompu, Nusa Tenggara Bar. 84252","Jl. Lintas Dermaga Paropa, Malaju, Kec. Kilo, Kabupaten Dompu",NUSA TENGGARA BARAT,84252.0,Indonesia,,,,-83.103.129,1.183.902.372,https://maps.google.com/?cid=0x0:0xe06c5985e7781ca9,
supermarket,Pusat Perbelanjaan,UD Alif utama,"Jl. Lintas Malaju No.17, Malaju, Kec. Kilo, Kabupaten Dompu, Nusa Tenggara Bar. 84252","Malaju, Kec. Kilo, Kabupaten Dompu",NUSA TENGGARA BARAT,84252.0,Indonesia,,,,-83.313.319,1.183.912.684,https://maps.google.com/?cid=0x0:0x9c54b8ec1fbb0faf,
supermarket,supermarket,MUSTADIM,"H88P+H68, Taropo, Kec. Kilo, Kabupaten Dompu, Nusa Tenggara Bar. 84252","Taropo, Kec. Kilo, Kabupaten Dompu",NUSA TENGGARA BARAT,84252.0,Indonesia,,,,-8.432.933,1.183.363.101,https://maps.google.com/?cid=0x0:0xe01fa36b19d11b96,
supermarket,supermarket,Kios Acha Nur,"M9PX+V79 Saleko ese, Malaju, Kec. Kilo, Kabupaten Dompu, Nusa Tenggara Bar. 84213","Malaju, Kec. Kilo, Kabupaten Dompu",NUSA TENGGARA BARAT,84213.0,Indonesia,,,,-83.128.319,1.183.982.274,https://maps.google.com/?cid=0x0:0xc6652971fc3d809a,
supermarket,Toko Swalayan,UD MITRA TANI SYAHYUN,"H8X8+QQ2, Taloko, Kec. Sanggar, Kabupaten Bima, Nusa Tenggara Bar. 84252","Taloko, Kec. Sanggar, Kabupaten Bima",NUSA TENGGARA BARAT,84252.0,Indonesia,82339860085,,,-84.006.182,1.183.168.794,https://maps.google.com/?cid=0x0:0xc57c47c8da1167fe,
supermarket,Toserba,Kios Syaurah,"M9RV+4X7, Jl. Lintas Lasi, Malaju, Kec. Kilo, Kabupaten Dompu, Nusa Tenggara Bar. 84252","Jl. Lintas Lasi, Malaju, Kec. Kilo, Kabupaten Dompu",NUSA TENGGARA BARAT,84252.0,Indonesia,82341470018,,,-83.097.178,118.394.912,https://maps.google.com/?cid=0x0:0x6b62435fc107b705,
supermarket,Toko,UD. CHANDRA,"H88P+H68, Unnamed Road, Taropo, Kec. Kilo, Kabupaten Dompu, Nusa Tenggara Bar. 84252","Unnamed Road, Taropo, Kec. Kilo, Kabupaten Dompu",NUSA TENGGARA BARAT,84252.0,Indonesia,,,,-84.335.771,1.183.355.769,https://maps.google.com/?cid=0x0:0x294c960f5fd0e8b5,
supermarket,Toko bahan makanan,UD Muslimah,"PC23+6WR, Jl. Lintas Kiwu, Lasi, Kec. Kilo, Kabupaten Dompu, Nusa Tenggara Bar. 84252","Jl. Lintas Kiwu, Lasi, Kec. Kilo, Kabupaten Dompu",NUSA TENGGARA BARAT,84252.0,Indonesia,,,,-82.995.628,1.184.046.287,https://maps.google.com/?cid=0x0:0xfe97e4347011e0f1,
supermarket,Pusat Perbelanjaan,ud melody,"H8PR+PMQ, Mbuju, Kec. Kilo, Kabupaten Dompu, Nusa Tenggara Bar. 84252","Mbuju, Kec. Kilo, Kabupaten Dompu",NUSA TENGGARA BARAT,84252.0,Indonesia,,,,-84.131.681,1.183.417.443,https://maps.google.com/?cid=0x0:0xd8957b15a96b91e3,
supermarket,Toko,Kios Mbuju Jaya RA,"J8JP+R69, Mbuju, Kec. Kilo, Kabupaten Dompu, Nusa Tenggara Bar.","Kabupaten Dompu, Nusa Tenggara Bar.",NUSA TENGGARA BARAT,,Indonesia,81909699792,,,-83.679.685,118.335.599,https://maps.google.com/?cid=0x0:0x1476218e5942d9a1,
supermarket,Toko Perlengkapan Rumah,Merpati Baru Mart,"J7GW+6H8, Kore, Kec. Sanggar, Kabupaten Bima, Nusa Tenggara Bar. 84191","Kore, Kec. Sanggar, Kabupaten Bima",NUSA TENGGARA BARAT,84191.0,Indonesia,81216111126,,,-83.744.562,1.182.964.455,https://maps.google.com/?cid=0x0:0x3148d91ffed1b650,
supermarket,Komplek perumahan,All Swalayan Kilo 2,"3R66+FQJ, Jl. Imam Bonjol, Bungin Tim., Luwuk, Kabupaten Banggai, Sulawesi Tengah 94711","Jl. Imam Bonjol, Bungin Tim., Luwuk, Kabupaten Banggai",NUSA TENGGARA BARAT,94711.0,Indonesia,,,,-0.9387829,1.228.118.812,https://maps.google.com/?cid=0x0:0xce92f0cfce4eb916,
supermarket,Toko Bahan Bangunan,UD. ADAM,"Depan Masjid Annur, Jl. Lintas Kiwu, Lasi, Kec. Kilo, Kabupaten Dompu, Nusa Tenggara Bar. 84252","Jl. Lintas Kiwu, Lasi, Kec. Kilo, Kabupaten Dompu",NUSA TENGGARA BARAT,84252.0,Indonesia,82339175124,,,-83.011.615,1.184.029.155,https://maps.google.com/?cid=0x0:0xa26013cedc598fa4,
supermarket,Toko Swalayan,Super Indo Express Beji,"Jl. K.H.M. Usman No.87 6, RT.2/RW.5, Kukusan, Kecamatan Beji, Kota Depok, Jawa Barat 16425","RT.2/RW.5, Kukusan, Kecamatan Beji, Kota Depok",NUSA TENGGARA BARAT,16425.0,Indonesia,81213137035,,,-6.364.936,106.815.628,https://maps.google.com/?cid=0x0:0xefb207d353b31231,
supermarket,Toko bahan makanan,UD BINTORO,"J7FX+M6F, Kore, Kec. Sanggar, Kabupaten Bima, Nusa Tenggara Bar. 84191","Kore, Kec. Sanggar, Kabupaten Bima",NUSA TENGGARA BARAT,84191.0,Indonesia,,,,-8.375.822,118.298.056,https://maps.google.com/?cid=0x0:0xa58af394eeeac52a,
supermarket,Toko Elektronik,Arif Cell,"M9QV+HGF, Malaju, Kec. Kilo, Kabupaten Dompu, Nusa Tenggara Bar. 84252","Malaju, Kec. Kilo, Kabupaten Dompu",NUSA TENGGARA BARAT,84252.0,Indonesia,85333550055,,,-83.110.538,1.183.938.042,https://maps.google.com/?cid=0x0:0xb3c63fea010689a5,
supermarket,supermarket,Nusa Tenggara Bar. 84216,"Kabupaten Dompu, Nusa Tenggara Bar.","Kabupaten Dompu, Nusa Tenggara Bar.",NUSA TENGGARA BARAT,,Indonesia,,,,-85.455.416,1.184.484.367,https://maps.google.com/?cid=0x0:0x588c0621b5331cf5,
supermarket,Toko Swalayan,Toko Sanggora,"FC8X+4R7, Jl. Lkr. Utara, Karijawa, Kec. Dompu, Kabupaten Dompu, Nusa Tenggara Bar. 84216","Jl. Lkr. Utara, Karijawa, Kec. Dompu, Kabupaten Dompu",NUSA TENGGARA BARAT,84216.0,Indonesia,,,,-85.347.009,1.184.495.497,https://maps.google.com/?cid=0x0:0x8377e76fdfd969d5,
supermarket,Toko bahan makanan,Smart,"Jl. Baru Karijawa gg PS No.33, Karijawa, Kec. Dompu, Kabupaten Dompu, Nusa Tenggara Bar. 84213","Karijawa, Kec. Dompu, Kabupaten Dompu",NUSA TENGGARA BARAT,84213.0,Indonesia,81312243439,,,-85.314.562,1.184.548.222,https://maps.google.com/?cid=0x0:0x485a0ae2ef9fd899,
supermarket,Toko Swalayan,Toko Fitri,"FC5W+28W, Simpasai, Kec. Woja, Kabupaten Dompu, Nusa Tenggara Bar. 84216","Simpasai, Kec. Woja, Kabupaten Dompu",NUSA TENGGARA BARAT,84216.0,Indonesia,,,,-85.423.942,1.184.458.163,https://maps.google.com/?cid=0x0:0x1f6c4d25e4f79d2e,
supermarket,,UD Karya Maju Dua,"FC4V+CMG, Simpasai, Kec. Woja, Kabupaten Dompu, Nusa Tenggara Bar. 84216","Simpasai, Kec. Woja, Kabupaten Dompu",NUSA TENGGARA BARAT,84216.0,Indonesia,,,,-85.437.373,1.184.445.108,https://maps.google.com/?cid=0x0:0x50bbdbe724d485f4,
supermarket,Toko,Eqisupermmarket,"FC27+MF7, Jl. Lintas Sumbawa, Bakajaya, Kec. Woja, Kabupaten Dompu, Nusa Tenggara Bar. 84216","Jl. Lintas Sumbawa, Bakajaya, Kec. Woja, Kabupaten Dompu",NUSA TENGGARA BARAT,84216.0,Indonesia,85333646817,,,-85.483.465,1.184.136.661,https://maps.google.com/?cid=0x0:0xd829ddb0bc109a80,
supermarket,Toko Organik,Toko Nurjanah,"Jl. Lkr. Utara No.2015, Simpasai, Kec. Woja, Kabupaten Dompu, Nusa Tenggara Bar. 84216","Simpasai, Kec. Woja, Kabupaten Dompu",NUSA TENGGARA BARAT,84216.0,Indonesia,,,,-85.391.457,1.184.456.881,https://maps.google.com/?cid=0x0:0x755f87c11d9205c6,
supermarket,Toserba,BOLLY JP,"Jl. Kartini No.11, Bada, Kec. Dompu, Kabupaten Dompu, Nusa Tenggara Bar. 84213","Bada, Kec. Dompu, Kabupaten Dompu",NUSA TENGGARA BARAT,84213.0,Indonesia,,,,-85.406.049,1.184.622.857,https://maps.google.com/?cid=0x0:0x772012d461930ab3,
supermarket,Toko Swalayan,Bolly Deptstore Dompu,"FF65+4FH, Jl. Manuru Bata Dompu, Bada, Kec. Dompu, Kabupaten Dompu, Nusa Tenggara Bar. 84213","Jl. Manuru Bata Dompu, Bada, Kec. Dompu, Kabupaten Dompu",NUSA TENGGARA BARAT,84213.0,Indonesia,,,,-85.396.801,1.184.587.322,https://maps.google.com/?cid=0x0:0x5b99d2bfd3f4e4cf,
supermarket,Toko makanan beku,Toko EKA FROZEN FOOD,"Simpasai, Kec. Woja, Kabupaten Dompu, Nusa Tenggara Bar. 84216","Kec. Woja, Kabupaten Dompu",NUSA TENGGARA BARAT,84216.0,Indonesia,,,,-85.436.103,1.184.441.973,https://maps.google.com/?cid=0x0:0xda50b593eaf2b51c,
supermarket,Minimarket,Lancar market,"Jl. Nusantara No.30, Bada, Kec. Dompu, Kabupaten Dompu, Nusa Tenggara Bar. 84211","Bada, Kec. Dompu, Kabupaten Dompu",NUSA TENGGARA BARAT,84211.0,Indonesia,37321206,,,-85.394.981,1.184.613.568,https://maps.google.com/?cid=0x0:0x6dde2605e2d86bf1,
supermarket,Toko Swalayan,Toko Putra Kediri,"FF64+965, Karijawa, Kec. Dompu, Kabupaten Dompu, Nusa Tenggara Bar. 84217","Karijawa, Kec. Dompu, Kabupaten Dompu",NUSA TENGGARA BARAT,84217.0,Indonesia,81915871233,,,-85.391.195,1.184.556.228,https://maps.google.com/?cid=0x0:0x5fccc13cc9623e0b,
supermarket,Toko,Toko Nadila,"FC6W+M9C, Simpasai, Kec. Woja, Kabupaten Dompu, Nusa Tenggara Bar. 84216","Simpasai, Kec. Woja, Kabupaten Dompu",NUSA TENGGARA BARAT,84216.0,Indonesia,,,,-85.383.199,1.184.458.929,https://maps.google.com/?cid=0x0:0x87863a106bebb8d1,
supermarket,Grosir,Toko sembako WAICU JAYA,"FF42+MCC, Karijawa, Kec. Dompu, Kabupaten Dompu, Nusa Tenggara Bar. 84216","Karijawa, Kec. Dompu, Kabupaten Dompu",NUSA TENGGARA BARAT,84216.0,Indonesia,81351571112,,,-85.432.999,1.184.510.601,https://maps.google.com/?cid=0x0:0x3764668bc8f0f17a,
supermarket,Toko,Tempat Jual Beli Sarang Walet BINTANG 88 WALET,"Jl. Lele No.4, Bali, Kec. Dompu, Kabupaten Dompu, Nusa Tenggara Bar. 84213","Bali, Kec. Dompu, Kabupaten Dompu",NUSA TENGGARA BARAT,84213.0,Indonesia,88258525653,,,-85.354.589,1.184.610.978,https://maps.google.com/?cid=0x0:0x73fc729a92993855,
supermarket,Toko outlet,AMIE CAKES  Abon Tuna,"FC4X+H7C, Jl. Lintas Sumbawa - Bima, Simpasai, Kec. Woja, Kabupaten Dompu, Nusa Tenggara Bar. 84216","Jl. Lintas Sumbawa - Bima, Simpasai, Kec. Woja, Kabupaten Dompu",NUSA TENGGARA BARAT,84216.0,Indonesia,81805771325,,,-85.435.552,1.184.481.348,https://maps.google.com/?cid=0x0:0x4539ac9ca84811d0,
supermarket,Toko,Kios Bu Dewo,"FC5W+4F8, Simpasai, Kec. Woja, Kabupaten Dompu, Nusa Tenggara Bar. 84216","Simpasai, Kec. Woja, Kabupaten Dompu",NUSA TENGGARA BARAT,84216.0,Indonesia,,,,-85.422.331,1.184.462.339,https://maps.google.com/?cid=0x0:0x302d97ae0e2c385b,
supermarket,Toko Swalayan,Ss79 (Smart Shop Tujuh Sembilan),"Jl, Teuku Umar no 43, Nusa Tenggara Bar., Simpasai, Kec. Woja, Kabupaten Dompu, Nusa Tenggara Bar. 84216","Teuku Umar no 43, Nusa Tenggara Bar., Simpasai, Kec. Woja, Kabupaten Dompu",NUSA TENGGARA BARAT,84216.0,Indonesia,85338152505,,,-85.434.207,1.184.450.785,https://maps.google.com/?cid=0x0:0x74e394204a68f41b,
supermarket,Toko Kosmetik,Queen Kosmetik,"Jl. Lintas Sumbawa - Bima, Simpasai, Kec. Woja, Kabupaten Dompu, Nusa Tenggara Bar. 84215","Simpasai, Kec. Woja, Kabupaten Dompu",NUSA TENGGARA BARAT,84215.0,Indonesia,82147564137,,,-85.436.378,118.447.158,https://maps.google.com/?cid=0x0:0x432388db9c8b0329,
supermarket,Toko Bahan Bangunan,Toko Bahan Bangunan Anugerah Simpasai,"Jl. Buntu Simpasai Woja, Kandai Dua, Kec. Woja, Kabupaten Dompu, Nusa Tenggara Bar. 84218","Kandai Dua, Kec. Woja, Kabupaten Dompu",NUSA TENGGARA BARAT,84218.0,Indonesia,,,,-85.392.106,118.441.274,https://maps.google.com/?cid=0x0:0x4a5418154243ede5,
supermarket,Toko,Toko Agam Dompu,"Jl. Lkr. Utara, Karijawa, Kec. Dompu, Kabupaten Dompu, Nusa Tenggara Bar.","Kabupaten Dompu, Nusa Tenggara Bar.",NUSA TENGGARA BARAT,,Indonesia,81338534210,,,-85.335.968,1.184.518.114,https://maps.google.com/?cid=0x0:0xda05dd891e684b5a,
supermarket,Toko Mainan,Bowantucre. tbk. CV,"JL. Ade Irma, No No.76, Simpasai, Kec. Woja, Kabupaten Dompu, Nusa Tenggara Bar. 84216","No No.76, Simpasai, Kec. Woja, Kabupaten Dompu",NUSA TENGGARA BARAT,84216.0,Indonesia,3734866325,,,-8.541.947,118.448.226,https://maps.google.com/?cid=0x0:0x6af996b9937c5842,
supermarket,Komplek perumahan,GRAHA NYOMAN SUDIARSA,"FC5W+JMJ, Simpasai, Kec. Woja, Kabupaten Dompu, Nusa Tenggara Bar. 84216","Simpasai, Kec. Woja, Kabupaten Dompu",NUSA TENGGARA BARAT,84216.0,Indonesia,81933068239,,,-85.409.142,118.446.626,https://maps.google.com/?cid=0x0:0x1bce00ce43422c78,
supermarket,Toko Swalayan,TOKO St Nurrahmania,"FC6V+FX9, Jl. Buntu Simpasai Woja, Simpasai, Kec. Woja, Kabupaten Dompu, Nusa Tenggara Bar.","Kabupaten Dompu, Nusa Tenggara Bar.",NUSA TENGGARA BARAT,,Indonesia,,,,-85.388.285,1.184.449.789,https://maps.google.com/?cid=0x0:0xbe11ea2a75de6dbf,
supermarket,supermarket,Nusa Tenggara Bar. 84218,"Kec. Woja, Kabupaten Dompu, Nusa Tenggara Bar.","Kabupaten Dompu, Nusa Tenggara Bar.",NUSA TENGGARA BARAT,,Indonesia,,,,-85.464.715,1.184.367.551,https://maps.google.com/?cid=0x0:0xb59074d297d4d9d7,
supermarket,Toko umum,UD. Mitra Baru,"Kandai Dua, Kec. Woja, Kabupaten Dompu, Nusa Tenggara Bar. 84218","Kec. Woja, Kabupaten Dompu",NUSA TENGGARA BARAT,84218.0,Indonesia,,,,-85.463.442,1.184.354.029,https://maps.google.com/?cid=0x0:0xd20f96b600d7202a,
supermarket,Toko bahan makanan,Toko Kita,"CCQH+XXF, Wawonduru, Kec. Woja, Kabupaten Dompu, Nusa Tenggara Bar. 84219","Wawonduru, Kec. Woja, Kabupaten Dompu",NUSA TENGGARA BARAT,84219.0,Indonesia,,,,-85.600.567,1.184.299.125,https://maps.google.com/?cid=0x0:0x3ccd7a1ae6bf9df7,
supermarket,Toko bahan makanan,Supermarket dan Grosir Agil Mandiri,"Matua, Kec. Woja, Kabupaten Dompu, Nusa Tenggara Bar. 84251","Kec. Woja, Kabupaten Dompu",NUSA TENGGARA BARAT,84251.0,Indonesia,81339732473,,,-85.472.611,1.184.209.301,https://maps.google.com/?cid=0x0:0x25c05e12a6e216b4,
supermarket,Kios,KIOS PAK ELO,"FC4M+H37, Kandai Dua, Kec. Woja, Kabupaten Dompu, Nusa Tenggara Bar. 84219","Kandai Dua, Kec. Woja, Kabupaten Dompu",NUSA TENGGARA BARAT,84219.0,Indonesia,,,,-85.435.971,1.184.326.674,https://maps.google.com/?cid=0x0:0x64088761929b2aad,
supermarket,Toko bahan makanan,Smart,"Jl. Baru Karijawa gg PS No.33, Karijawa, Kec. Dompu, Kabupaten Dompu, Nusa Tenggara Bar. 84213","Karijawa, Kec. Dompu, Kabupaten Dompu",NUSA TENGGARA BARAT,84213.0,Indonesia,81312243439,,,-85.314.562,1.184.548.222,https://maps.google.com/?cid=0x0:0x485a0ae2ef9fd899,
supermarket,Toko Pakaian Anak,Negri Belanja 2,"FC3M+CH4, Kandai Dua, Kec. Woja, Kabupaten Dompu, Nusa Tenggara Bar. 84218","Kandai Dua, Kec. Woja, Kabupaten Dompu",NUSA TENGGARA BARAT,84218.0,Indonesia,85337151614,,,-85.464.859,1.184.339.496,https://maps.google.com/?cid=0x0:0x2fbb617be3871999,
supermarket,Toko Swalayan,Toko Fitri,"FC5W+28W, Simpasai, Kec. Woja, Kabupaten Dompu, Nusa Tenggara Bar. 84216","Simpasai, Kec. Woja, Kabupaten Dompu",NUSA TENGGARA BARAT,84216.0,Indonesia,,,,-85.423.942,1.184.458.163,https://maps.google.com/?cid=0x0:0x1f6c4d25e4f79d2e,
supermarket,Toko bahan makanan,Kios Kelapa Muda,"FC3J+6RW, Kandai Dua, Kec. Woja, Kabupaten Dompu, Nusa Tenggara Bar. 84219","Kandai Dua, Kec. Woja, Kabupaten Dompu",NUSA TENGGARA BARAT,84219.0,Indonesia,82237939991,,,-85.468.914,1.184.320.673,https://maps.google.com/?cid=0x0:0xdc27faef0666e47f,
supermarket,Toko,OAF Store,"FC4P+VJR, Kandai Dua, Kec. Woja, Kabupaten Dompu, Nusa Tenggara Bar. 84218","Kandai Dua, Kec. Woja, Kabupaten Dompu",NUSA TENGGARA BARAT,84218.0,Indonesia,82226758748,,,-8.542.751,1.184.365.113,https://maps.google.com/?cid=0x0:0x7d89dc180f8ac4fd,
supermarket,Toko,Eqisupermmarket,"FC27+MF7, Jl. Lintas Sumbawa, Bakajaya, Kec. Woja, Kabupaten Dompu, Nusa Tenggara Bar. 84216","Jl. Lintas Sumbawa, Bakajaya, Kec. Woja, Kabupaten Dompu",NUSA TENGGARA BARAT,84216.0,Indonesia,85333646817,,,-85.483.465,1.184.136.661,https://maps.google.com/?cid=0x0:0xd829ddb0bc109a80,
supermarket,Toko,Toko ARIATI,"FC4J+7W7, Kandai Dua, Kec. Woja, Kabupaten Dompu, Nusa Tenggara Bar. 84219","Kandai Dua, Kec. Woja, Kabupaten Dompu",NUSA TENGGARA BARAT,84219.0,Indonesia,,,,-8.544.344,1.184.322.911,https://maps.google.com/?cid=0x0:0x9a79bb80d8262894,
supermarket,Toko Bahan Bangunan,Toko Bahan Bangunan Anugerah Simpasai,"Jl. Buntu Simpasai Woja, Kandai Dua, Kec. Woja, Kabupaten Dompu, Nusa Tenggara Bar. 84218","Kandai Dua, Kec. Woja, Kabupaten Dompu",NUSA TENGGARA BARAT,84218.0,Indonesia,,,,-85.392.106,118.441.274,https://maps.google.com/?cid=0x0:0x4a5418154243ede5,
supermarket,Minimarket,ALFAMART KSB KANDAI DUA RIZKY MART,"FC6J+7RG, Kandai Dua, Kec. Woja, Kabupaten Dompu, Nusa Tenggara Bar. 84219","Kandai Dua, Kec. Woja, Kabupaten Dompu",NUSA TENGGARA BARAT,84219.0,Indonesia,,,,-85.392.913,118.432.068,https://maps.google.com/?cid=0x0:0xc59abc5561d862f6,
supermarket,Toko Organik,Toko Nurjanah,"Jl. Lkr. Utara No.2015, Simpasai, Kec. Woja, Kabupaten Dompu, Nusa Tenggara Bar. 84216","Simpasai, Kec. Woja, Kabupaten Dompu",NUSA TENGGARA BARAT,84216.0,Indonesia,,,,-85.391.457,1.184.456.881,https://maps.google.com/?cid=0x0:0x755f87c11d9205c6,
supermarket,Toko Perlengkapan Rumah,UD. Musab,"FC5Q+4F4, Kandai Dua, Kec. Woja, Kabupaten Dompu, Nusa Tenggara Bar. 84218","Kandai Dua, Kec. Woja, Kabupaten Dompu",NUSA TENGGARA BARAT,84218.0,Indonesia,81246139658,,,-85.422.341,1.184.386.302,https://maps.google.com/?cid=0x0:0x771f245eb28b9c9f,
supermarket,Minimarket,Alfamart,"FC2G+QMW, Montabaru, Kec. Woja, Kabupaten Dompu, Nusa Tenggara Bar.","Kabupaten Dompu, Nusa Tenggara Bar.",NUSA TENGGARA BARAT,,Indonesia,,,,-85.479.933,1.184.268.433,https://maps.google.com/?cid=0x0:0xdb38312c12f39501,
supermarket,,UD Karya Maju Dua,"FC4V+CMG, Simpasai, Kec. Woja, Kabupaten Dompu, Nusa Tenggara Bar. 84216","Simpasai, Kec. Woja, Kabupaten Dompu",NUSA TENGGARA BARAT,84216.0,Indonesia,,,,-85.437.373,1.184.445.108,https://maps.google.com/?cid=0x0:0x50bbdbe724d485f4,
supermarket,Toko,Safina Outdoor,"Jl. Lintas Terminal Ginte Lingkungan Bali bunga, Kandai Dua, Kec. Woja, Kabupaten Dompu, Nusa Tenggara Bar. 84218","Kandai Dua, Kec. Woja, Kabupaten Dompu",NUSA TENGGARA BARAT,84218.0,Indonesia,82341991745,,,-85.395.696,1.184.350.084,https://maps.google.com/?cid=0x0:0x57d6923616e5cf11,
supermarket,Toko makanan beku,Toko EKA FROZEN FOOD,"Simpasai, Kec. Woja, Kabupaten Dompu, Nusa Tenggara Bar. 84216","Kec. Woja, Kabupaten Dompu",NUSA TENGGARA BARAT,84216.0,Indonesia,,,,-85.436.103,1.184.441.973,https://maps.google.com/?cid=0x0:0xda50b593eaf2b51c,
supermarket,Toko Daging,Toko Daging MUFIDAH BEEF,"LINGK BALI BUNGA No.Kel, RT.RW 01/RW.RT 01, Kandai Dua, Kec. Woja, Kabupaten Dompu, Nusa Tenggara Bar. 84218","RT.RW 01/RW.RT 01, Kandai Dua, Kec. Woja, Kabupaten Dompu",NUSA TENGGARA BARAT,84218.0,Indonesia,82340554267,,,-85.441.574,1.184.326.096,https://maps.google.com/?cid=0x0:0x31b9f06a4e06cce3,
supermarket,Toko sembako pemerintah,IRADATUL KIRAM,"FC3P+F88, Kandai Dua, Kec. Woja, Kabupaten Dompu, Nusa Tenggara Bar. 84218","Kandai Dua, Kec. Woja, Kabupaten Dompu",NUSA TENGGARA BARAT,84218.0,Indonesia,,,,-85.463.375,1.184.358.281,https://maps.google.com/?cid=0x0:0xb2caf3811913641c,
supermarket,Toko Pakaian,Rumah Baju,"Depan PDAM, Jl. Lkr. Utara, Simpasai, Kec. Woja, Kabupaten Dompu, Nusa Tenggara Bar. 84218","Jl. Lkr. Utara, Simpasai, Kec. Woja, Kabupaten Dompu",NUSA TENGGARA BARAT,84218.0,Indonesia,82339513152,,,-8.539.337,1.184.457.432,https://maps.google.com/?cid=0x0:0xbd53de17ee0260c0,
supermarket,Toko Pakaian,Allbrand_store,"Balibunga, Kandai Dua, Kec. Woja, Kabupaten Dompu, Nusa Tenggara Bar. 84218","Kandai Dua, Kec. Woja, Kabupaten Dompu",NUSA TENGGARA BARAT,84218.0,Indonesia,81236677416,,,-8.543.321,1.184.322.196,https://maps.google.com/?cid=0x0:0x4ec7cb9b19631d84,
supermarket,Toko Bahan Bangunan,Ud. Zam Zam,"FC4R+5GH, Jl. Lintas Sumbawa - Bima, Simpasai, Kec. Woja, Kabupaten Dompu, Nusa Tenggara Bar. 84218","Jl. Lintas Sumbawa - Bima, Simpasai, Kec. Woja, Kabupaten Dompu",NUSA TENGGARA BARAT,84218.0,Indonesia,,,,-85.445.643,1.184.413.514,https://maps.google.com/?cid=0x0:0x1f0eee75cc4a17fe,
supermarket,supermarket,Nusa Tenggara Bar. 84219,"Kabupaten Dompu, Nusa Tenggara Bar.","Kabupaten Dompu, Nusa Tenggara Bar.",NUSA TENGGARA BARAT,,Indonesia,,,,-8.455.389,1.184.980.744,https://maps.google.com/?cid=0x0:0xd1ca28c719867916,
supermarket,Toko bahan makanan,Toko Kita,"CCQH+XXF, Wawonduru, Kec. Woja, Kabupaten Dompu, Nusa Tenggara Bar. 84219","Wawonduru, Kec. Woja, Kabupaten Dompu",NUSA TENGGARA BARAT,84219.0,Indonesia,,,,-85.600.567,1.184.299.125,https://maps.google.com/?cid=0x0:0x3ccd7a1ae6bf9df7,
supermarket,supermarket,HaBiyanQeel Market,"FFPP+R6H, Jl. Lintas Sumbawa - Bima, OO, Kec. Dompu, Kabupaten Dompu, Nusa Tenggara Bar. 84219","Jl. Lintas Sumbawa - Bima, OO, Kec. Dompu, Kabupaten Dompu",NUSA TENGGARA BARAT,84219.0,Indonesia,85337357406,,,-8.513.002,11.848.599,https://maps.google.com/?cid=0x0:0x9a518fd4ff30fe81,
supermarket,Kios,KIOS PAK ELO,"FC4M+H37, Kandai Dua, Kec. Woja, Kabupaten Dompu, Nusa Tenggara Bar. 84219","Kandai Dua, Kec. Woja, Kabupaten Dompu",NUSA TENGGARA BARAT,84219.0,Indonesia,,,,-85.435.971,1.184.326.674,https://maps.google.com/?cid=0x0:0x64088761929b2aad,
supermarket,Toko bahan makanan,Kios Kelapa Muda,"FC3J+6RW, Kandai Dua, Kec. Woja, Kabupaten Dompu, Nusa Tenggara Bar. 84219","Kandai Dua, Kec. Woja, Kabupaten Dompu",NUSA TENGGARA BARAT,84219.0,Indonesia,82237939991,,,-85.468.914,1.184.320.673,https://maps.google.com/?cid=0x0:0xdc27faef0666e47f,
supermarket,Toko bahan makanan,Smart,"Jl. Baru Karijawa gg PS No.33, Karijawa, Kec. Dompu, Kabupaten Dompu, Nusa Tenggara Bar. 84213","Karijawa, Kec. Dompu, Kabupaten Dompu",NUSA TENGGARA BARAT,84213.0,Indonesia,81312243439,,,-85.314.562,1.184.548.222,https://maps.google.com/?cid=0x0:0x485a0ae2ef9fd899,
supermarket,Toserba,BOLLY JP,"Jl. Kartini No.11, Bada, Kec. Dompu, Kabupaten Dompu, Nusa Tenggara Bar. 84213","Bada, Kec. Dompu, Kabupaten Dompu",NUSA TENGGARA BARAT,84213.0,Indonesia,,,,-85.406.049,1.184.622.857,https://maps.google.com/?cid=0x0:0x772012d461930ab3,
supermarket,Toko Swalayan,go-welly,"Bada, Kec. Dompu, Kabupaten Dompu, Nusa Tenggara Bar. 84211","Kec. Dompu, Kabupaten Dompu",NUSA TENGGARA BARAT,84211.0,Indonesia,81915817408,,,-85.403.793,1.184.643.847,https://maps.google.com/?cid=0x0:0x4dc31b55427996a9,
supermarket,Toko,Toko ARIATI,"FC4J+7W7, Kandai Dua, Kec. Woja, Kabupaten Dompu, Nusa Tenggara Bar. 84219","Kandai Dua, Kec. Woja, Kabupaten Dompu",NUSA TENGGARA BARAT,84219.0,Indonesia,,,,-8.544.344,1.184.322.911,https://maps.google.com/?cid=0x0:0x9a79bb80d8262894,
supermarket,Pusat Perbelanjaan,UD Ade jaya,"FF69+357, Bada, Kec. Dompu, Kabupaten Dompu, Nusa Tenggara Bar. 84213","Bada, Kec. Dompu, Kabupaten Dompu",NUSA TENGGARA BARAT,84213.0,Indonesia,82341490754,,,-85.398.283,1.184.679.331,https://maps.google.com/?cid=0x0:0x12108ef940c0e3f0,
supermarket,Gudang,UD. SAMAKAI,"F92V+8VR, Jl. Lintas Sumbawa - Bima, Bara, Kec. Woja, Kabupaten Dompu, Nusa Tenggara Bar. 84251","Jl. Lintas Sumbawa - Bima, Bara, Kec. Woja, Kabupaten Dompu",NUSA TENGGARA BARAT,84251.0,Indonesia,85337348616,,,-85.491.287,118.394.628,https://maps.google.com/?cid=0x0:0xbb2a17a23c0aae16,
supermarket,Pusat Perbelanjaan,hamet market 2,"FF67+3H3, Jl. Nusantara, Bada, Kec. Dompu, Kabupaten Dompu, Nusa Tenggara Bar. 84213","Jl. Nusantara, Bada, Kec. Dompu, Kabupaten Dompu",NUSA TENGGARA BARAT,84213.0,Indonesia,81284565745,,,-85.398.636,1.184.639.204,https://maps.google.com/?cid=0x0:0xce1162dadead77da,
supermarket,Toko Organik,Toko Nurjanah,"Jl. Lkr. Utara No.2015, Simpasai, Kec. Woja, Kabupaten Dompu, Nusa Tenggara Bar. 84216","Simpasai, Kec. Woja, Kabupaten Dompu",NUSA TENGGARA BARAT,84216.0,Indonesia,,,,-85.391.457,1.184.456.881,https://maps.google.com/?cid=0x0:0x755f87c11d9205c6,
supermarket,Toko,UD.NAUFAL CELL,"F92R+2G4, Bara, Kec. Woja, Kabupaten Dompu, Nusa Tenggara Bar.","Kabupaten Dompu, Nusa Tenggara Bar.",NUSA TENGGARA BARAT,,Indonesia,,,,-8.55,118.391.339,https://maps.google.com/?cid=0x0:0x64a0676542b87f44,
supermarket,Pusat Perbelanjaan,Toko Raja Pajo,"CF6Q+H6X, Ranggo, Kec. Pajo, Kabupaten Dompu, Nusa Tenggara Bar. 84272","Ranggo, Kec. Pajo, Kabupaten Dompu",NUSA TENGGARA BARAT,84272.0,Indonesia,82247796717,,,-8.588.508,1.184.881.181,https://maps.google.com/?cid=0x0:0x77d9163315f8488d,
supermarket,Toko Swalayan,Toko mangga dua store,"CF6Q+49M, Ranggo, Kec. Pajo, Kabupaten Dompu, Nusa Tenggara Bar. 84272","Ranggo, Kec. Pajo, Kabupaten Dompu",NUSA TENGGARA BARAT,84272.0,Indonesia,82237137896,,,-85.896.719,1.184.884.105,https://maps.google.com/?cid=0x0:0x7f59992d4c4d1a14,
supermarket,Gudang,UD.KUSUMA SAKA,"FFGF+7G3, Mangge Asi, Kec. Dompu, Kabupaten Dompu, Nusa Tenggara Bar. 84214","Mangge Asi, Kec. Dompu, Kabupaten Dompu",NUSA TENGGARA BARAT,84214.0,Indonesia,,,,-85.243.628,1.184.738.032,https://maps.google.com/?cid=0x0:0xef0decd4cd2a244,
supermarket,Toko Swalayan,Toko Putra Kediri,"FF64+965, Karijawa, Kec. Dompu, Kabupaten Dompu, Nusa Tenggara Bar. 84217","Karijawa, Kec. Dompu, Kabupaten Dompu",NUSA TENGGARA BARAT,84217.0,Indonesia,81915871233,,,-85.391.195,1.184.556.228,https://maps.google.com/?cid=0x0:0x5fccc13cc9623e0b,
supermarket,supermarket,Kios ibu hartati,"GFQ2+J68, Saneo, Kec. Woja, Kabupaten Dompu, Nusa Tenggara Bar. 84251","Saneo, Kec. Woja, Kabupaten Dompu",NUSA TENGGARA BARAT,84251.0,Indonesia,,,,-84.610.511,1.184.506.079,https://maps.google.com/?cid=0x0:0x6dc7d1093c778998,
supermarket,Toko,Tempat Jual Beli Sarang Walet BINTANG 88 WALET,"Jl. Lele No.4, Bali, Kec. Dompu, Kabupaten Dompu, Nusa Tenggara Bar. 84213","Bali, Kec. Dompu, Kabupaten Dompu",NUSA TENGGARA BARAT,84213.0,Indonesia,88258525653,,,-85.354.589,1.184.610.978,https://maps.google.com/?cid=0x0:0x73fc729a92993855,
supermarket,Toko bahan makanan,UD PRIMA,"CCWJ+3MX, Jl. Lintas Wawonduru, Wawonduru, Kec. Woja, Kabupaten Dompu, Nusa Tenggara Bar. 84219","Jl. Lintas Wawonduru, Wawonduru, Kec. Woja, Kabupaten Dompu",NUSA TENGGARA BARAT,84219.0,Indonesia,,,,-85.546.198,118.431.499,https://maps.google.com/?cid=0x0:0xd98a650f05a59123,
supermarket,Toko Organik,Toko Herbal  Kosmetik (Nurhidayah Us'ud),"Mbawi, Kec. Dompu, Kabupaten Dompu, Nusa Tenggara Bar. 84219","Kec. Dompu, Kabupaten Dompu",NUSA TENGGARA BARAT,84219.0,Indonesia,85238727020,,,-86.115.203,1.184.398.248,https://maps.google.com/?cid=0x0:0x4745fcc1b5ee4f04,
supermarket,Toko bahan makanan,Supermarket dan Grosir Agil Mandiri,"Matua, Kec. Woja, Kabupaten Dompu, Nusa Tenggara Bar. 84251","Kec. Woja, Kabupaten Dompu",NUSA TENGGARA BARAT,84251.0,Indonesia,81339732473,,,-85.472.611,1.184.209.301,https://maps.google.com/?cid=0x0:0x25c05e12a6e216b4,
supermarket,Toko Swalayan,Toko Sanggora,"FC8X+4R7, Jl. Lkr. Utara, Karijawa, Kec. Dompu, Kabupaten Dompu, Nusa Tenggara Bar. 84216","Jl. Lkr. Utara, Karijawa, Kec. Dompu, Kabupaten Dompu",NUSA TENGGARA BARAT,84216.0,Indonesia,,,,-85.347.009,1.184.495.497,https://maps.google.com/?cid=0x0:0x8377e76fdfd969d5,
supermarket,Toko Pakaian,Zia Official Store,"FC5M+FMJ, Jl. Buntu Simpasai Woja, RT.002/RW.001, Bali Bunga, Kec. Woja, Kabupaten Dompu, Nusa Tenggara Bar. 84219","Jl. Buntu Simpasai Woja, RT.002/RW.001, Bali Bunga, Kec. Woja, Kabupaten Dompu",NUSA TENGGARA BARAT,84219.0,Indonesia,82341398360,,,-85.412.808,1.184.341.353,https://maps.google.com/?cid=0x0:0x865397b305a5fffa,
supermarket,Grosir,Toko Indra Jaya,"FC26+GVQ, Jl. Lintas Sumbawa - Bima, Bakajaya, Kec. Woja, Kabupaten Dompu, Nusa Tenggara Bar. 84251","Jl. Lintas Sumbawa - Bima, Bakajaya, Kec. Woja, Kabupaten Dompu",NUSA TENGGARA BARAT,84251.0,Indonesia,37322284,,,-85.486.525,1.184.122.479,https://maps.google.com/?cid=0x0:0x51e52037dfc326f8,
supermarket,Minimarket,Lancar market,"Jl. Nusantara No.30, Bada, Kec. Dompu, Kabupaten Dompu, Nusa Tenggara Bar. 84211","Bada, Kec. Dompu, Kabupaten Dompu",NUSA TENGGARA BARAT,84211.0,Indonesia,37321206,,,-85.394.981,1.184.613.568,https://maps.google.com/?cid=0x0:0x6dde2605e2d86bf1,
supermarket,Toko,UD MITA DOMPU,"FC6V+F4W, Jl. Buntu Simpasai Woja, Kandai Dua, Kec. Woja, Kabupaten Dompu, Nusa Tenggara Bar. 84219","Jl. Buntu Simpasai Woja, Kandai Dua, Kec. Woja, Kabupaten Dompu",NUSA TENGGARA BARAT,84219.0,Indonesia,82339183779,,,-85.387.713,1.184.428.415,https://maps.google.com/?cid=0x0:0x7ca7621091e5401a,
supermarket,supermarket,Nusa Tenggara Bar. 84251,"Kec. Woja, Kabupaten Dompu, Nusa Tenggara Bar.","Kabupaten Dompu, Nusa Tenggara Bar.",NUSA TENGGARA BARAT,,Indonesia,,,,-85.434.837,1.183.812.562,https://maps.google.com/?cid=0x0:0xd559d9dfdafacdb4,
supermarket,Toko bahan makanan,Supermarket dan Grosir Agil Mandiri,"Matua, Kec. Woja, Kabupaten Dompu, Nusa Tenggara Bar. 84251","Kec. Woja, Kabupaten Dompu",NUSA TENGGARA BARAT,84251.0,Indonesia,81339732473,,,-85.472.611,1.184.209.301,https://maps.google.com/?cid=0x0:0x25c05e12a6e216b4,
supermarket,Minimarket,ALFAMART SENTRAL MART KSB BARA WOJA,"C9XR+V9X, Jl. Lintas Sumbawa - Bima, Bara, Kec. Woja, Kabupaten Dompu, Nusa Tenggara Bar. 84251","Jl. Lintas Sumbawa - Bima, Bara, Kec. Woja, Kabupaten Dompu",NUSA TENGGARA BARAT,84251.0,Indonesia,,,,-85.500.985,1.183.908.394,https://maps.google.com/?cid=0x0:0x338fe8c669e5035a,
supermarket,Toko bahan makanan,Toko Kita,"CCQH+XXF, Wawonduru, Kec. Woja, Kabupaten Dompu, Nusa Tenggara Bar. 84219","Wawonduru, Kec. Woja, Kabupaten Dompu",NUSA TENGGARA BARAT,84219.0,Indonesia,,,,-85.600.567,1.184.299.125,https://maps.google.com/?cid=0x0:0x3ccd7a1ae6bf9df7,
supermarket,Toko,Usaha baru (mama Baim ),"C9CH+4C2, Mumbu, Kec. Woja, Kabupaten Dompu, Nusa Tenggara Bar. 84251","Mumbu, Kec. Woja, Kabupaten Dompu",NUSA TENGGARA BARAT,84251.0,Indonesia,,,,-858.059,118.378.881,https://maps.google.com/?cid=0x0:0xb8923500533eea4c,
supermarket,Toko Pertanian,TP AYYUB TANI Woja Dompu,"C9XQ+VGC, Jl. Lintas Sumbawa - Bima, Bara, Kec. Woja, Kabupaten Dompu, Nusa Tenggara Bar. 84251","Jl. Lintas Sumbawa - Bima, Bara, Kec. Woja, Kabupaten Dompu",NUSA TENGGARA BARAT,84251.0,Indonesia,,,,-8.550.312,1.183.887.722,https://maps.google.com/?cid=0x0:0x84794c3ff5c222e0,
supermarket,Toko umum,UD. Mitra Baru,"Kandai Dua, Kec. Woja, Kabupaten Dompu, Nusa Tenggara Bar. 84218","Kec. Woja, Kabupaten Dompu",NUSA TENGGARA BARAT,84218.0,Indonesia,,,,-85.463.442,1.184.354.029,https://maps.google.com/?cid=0x0:0xd20f96b600d7202a,
supermarket,Gudang,UD. SAMAKAI,"F92V+8VR, Jl. Lintas Sumbawa - Bima, Bara, Kec. Woja, Kabupaten Dompu, Nusa Tenggara Bar. 84251","Jl. Lintas Sumbawa - Bima, Bara, Kec. Woja, Kabupaten Dompu",NUSA TENGGARA BARAT,84251.0,Indonesia,85337348616,,,-85.491.287,118.394.628,https://maps.google.com/?cid=0x0:0xbb2a17a23c0aae16,
supermarket,Pasar,Kompleks Pasar Wodi Bakajaya Woja Dompu NTB,"FC27+F2P, Bakajaya, Kec. Woja, Kabupaten Dompu, Nusa Tenggara Bar. 84251","Bakajaya, Kec. Woja, Kabupaten Dompu",NUSA TENGGARA BARAT,84251.0,Indonesia,81236263710,,,-85.487.976,1.184.125.708,https://maps.google.com/?cid=0x0:0x5a49dfc785e7cf50,
supermarket,Grosir,Toko Indra Jaya,"FC26+GVQ, Jl. Lintas Sumbawa - Bima, Bakajaya, Kec. Woja, Kabupaten Dompu, Nusa Tenggara Bar. 84251","Jl. Lintas Sumbawa - Bima, Bakajaya, Kec. Woja, Kabupaten Dompu",NUSA TENGGARA BARAT,84251.0,Indonesia,37322284,,,-85.486.525,1.184.122.479,https://maps.google.com/?cid=0x0:0x51e52037dfc326f8,
supermarket,Toko bahan makanan,Kios Kelapa Muda,"FC3J+6RW, Kandai Dua, Kec. Woja, Kabupaten Dompu, Nusa Tenggara Bar. 84219","Kandai Dua, Kec. Woja, Kabupaten Dompu",NUSA TENGGARA BARAT,84219.0,Indonesia,82237939991,,,-85.468.914,1.184.320.673,https://maps.google.com/?cid=0x0:0xdc27faef0666e47f,
supermarket,Toko,Toko Sinar Melati,"Bakajaya, Kec. Woja, Kabupaten Dompu, Nusa Tenggara Bar. 84251","Kec. Woja, Kabupaten Dompu",NUSA TENGGARA BARAT,84251.0,Indonesia,85338480472,,,-85.487.936,1.184.095.912,https://maps.google.com/?cid=0x0:0xee26e9938ca8431,
supermarket,Kios,KIOS PAK ELO,"FC4M+H37, Kandai Dua, Kec. Woja, Kabupaten Dompu, Nusa Tenggara Bar. 84219","Kandai Dua, Kec. Woja, Kabupaten Dompu",NUSA TENGGARA BARAT,84219.0,Indonesia,,,,-85.435.971,1.184.326.674,https://maps.google.com/?cid=0x0:0x64088761929b2aad,
supermarket,Toko,Toko ARIATI,"FC4J+7W7, Kandai Dua, Kec. Woja, Kabupaten Dompu, Nusa Tenggara Bar. 84219","Kandai Dua, Kec. Woja, Kabupaten Dompu",NUSA TENGGARA BARAT,84219.0,Indonesia,,,,-8.544.344,1.184.322.911,https://maps.google.com/?cid=0x0:0x9a79bb80d8262894,
supermarket,Minimarket,ALFAMART SENTRAL MART KSB MATUA DOMPU,"FC38+2GW, Matua, Kec. Woja, Kabupaten Dompu, Nusa Tenggara Bar. 84251","Matua, Kec. Woja, Kabupaten Dompu",NUSA TENGGARA BARAT,84251.0,Indonesia,,,,-85.473.817,1.184.163.881,https://maps.google.com/?cid=0x0:0xeaf9ac66b3fac1ec,
supermarket,Kios,Kios Bang Ambons Kelontong,"CCX6+Q2, Bakajaya, Kec. Woja, Kabupaten Dompu, Nusa Tenggara Bar. 84251","Bakajaya, Kec. Woja, Kabupaten Dompu",NUSA TENGGARA BARAT,84251.0,Indonesia,,,,-85.504.969,1.184.101.079,https://maps.google.com/?cid=0x0:0xf0a0004907630528,
supermarket,Toko,UD.NAUFAL CELL,"F92R+2G4, Bara, Kec. Woja, Kabupaten Dompu, Nusa Tenggara Bar.","Kabupaten Dompu, Nusa Tenggara Bar.",NUSA TENGGARA BARAT,,Indonesia,,,,-8.55,118.391.339,https://maps.google.com/?cid=0x0:0x64a0676542b87f44,
supermarket,Toko,Tokoh Ajeng jaya,"Dusun bolonduru, Wawonduru, Kec. Woja, Kabupaten Dompu, Nusa Tenggara Bar. 84251","Wawonduru, Kec. Woja, Kabupaten Dompu",NUSA TENGGARA BARAT,84251.0,Indonesia,85237478556,,,-8.575.725,1.184.250.456,https://maps.google.com/?cid=0x0:0x50884def9fc9d36e,
supermarket,Toko Bahan Bangunan,Toko Bangunan Anugrah Bara,"C9XQ+WQM, Jl. Lintas Sumbawa - Bima, Bara, Kec. Woja, Kabupaten Dompu, Nusa Tenggara Bar. 84251","Jl. Lintas Sumbawa - Bima, Bara, Kec. Woja, Kabupaten Dompu",NUSA TENGGARA BARAT,84251.0,Indonesia,,,,-85.501.731,1.183.894.253,https://maps.google.com/?cid=0x0:0x7aef164de79ee975,
supermarket,Minimarket,ALFAMART KSB KANDAI DUA RIZKY MART,"FC6J+7RG, Kandai Dua, Kec. Woja, Kabupaten Dompu, Nusa Tenggara Bar. 84219","Kandai Dua, Kec. Woja, Kabupaten Dompu",NUSA TENGGARA BARAT,84219.0,Indonesia,,,,-85.392.913,118.432.068,https://maps.google.com/?cid=0x0:0xc59abc5561d862f6,
supermarket,Toko Ponsel,HANA CELL,"Jl. Lintas Sumbawa No.21, Bakajaya, Kec. Woja, Kabupaten Dompu, Nusa Tenggara Bar. 84251","Bakajaya, Kec. Woja, Kabupaten Dompu",NUSA TENGGARA BARAT,84251.0,Indonesia,,,,-85.484.765,1.184.141.824,https://maps.google.com/?cid=0x0:0xe59b88ef388d8af6,
supermarket,Toko Pertanian,UD. Simpatik,"Dusun Sigi, Nowa, Kec. Woja, Kabupaten Dompu, Nusa Tenggara Bar. 84251","Nowa, Kec. Woja, Kabupaten Dompu",NUSA TENGGARA BARAT,84251.0,Indonesia,85333003475,,,-85.486.045,1.184.098.848,https://maps.google.com/?cid=0x0:0x24a135fa979f3f6c,
supermarket,Toko umum,Toko Putri Hafizah,"FC7C+GV9, Matua, Kec. Woja, Kabupaten Dompu, Nusa Tenggara Bar. 84251","Matua, Kec. Woja, Kabupaten Dompu",NUSA TENGGARA BARAT,84251.0,Indonesia,,,,-85.362.103,118.422.232,https://maps.google.com/?cid=0x0:0x91d56c0bfe4bdcda,
supermarket,supermarket,Pekat,"Calabai, Kec. Pekat, Kabupaten Dompu, Nusa Tenggara Bar.","Kabupaten Dompu, Nusa Tenggara Bar.",NUSA TENGGARA BARAT,,Indonesia,,,,-8.238.184,117.715.797,https://maps.google.com/?cid=0x0:0x5890663b56067254,
supermarket,Pasar,Pasar Minggu Pekat,"QP7G+MGV, Calabai, Kec. Pekat, Kabupaten Dompu, Nusa Tenggara Bar. 84261","Calabai, Kec. Pekat, Kabupaten Dompu",NUSA TENGGARA BARAT,84261.0,Indonesia,,,,-82.357.548,1.177.263.061,https://maps.google.com/?cid=0x0:0x1738c0b7ce8ea89a,
supermarket,Minimarket,SUKSES MART KSB PEKAT ALFAMART,"RP9J+PPR, Unnamed Road, Kadindi Bar., Kec. Pekat, Kabupaten Dompu, Nusa Tenggara Bar. 84261","Unnamed Road, Kadindi Bar., Kec. Pekat, Kabupaten Dompu",NUSA TENGGARA BARAT,84261.0,Indonesia,87762208555,,,-81.806.409,1.177.317.625,https://maps.google.com/?cid=0x0:0x2648d55a4619312d,
supermarket,supermarket,Toko Mentari,"QP68+P8F, desa, Calabai, Kec. Pekat, Kabupaten Dompu, Nusa Tenggara Bar. 84261","desa, Calabai, Kec. Pekat, Kabupaten Dompu",NUSA TENGGARA BARAT,84261.0,Indonesia,,,,-8.238.184,117.715.797,https://maps.google.com/?cid=0x0:0x84f4693c26d558e2,
supermarket,Minimarket,Holly Mart Dompu,"Jl. Nusantara No.22, Bada, Kec. Dompu, Kabupaten Dompu, Nusa Tenggara Bar. 84213","Bada, Kec. Dompu, Kabupaten Dompu",NUSA TENGGARA BARAT,84213.0,Indonesia,,,,-85.395.093,1.184.623.001,https://maps.google.com/?cid=0x0:0xeda111f4d75f310,
supermarket,Penginapan,Toko Sumbako exclusive,"PQF2+XX4, Unnamed Road, Beringin Jaya, Kec. Pekat, Kabupaten Dompu, Nusa Tenggara Bar. 84261","Unnamed Road, Beringin Jaya, Kec. Pekat, Kabupaten Dompu",NUSA TENGGARA BARAT,84261.0,Indonesia,85333699166,,,-8.275.106,1.177.524.643,https://maps.google.com/?cid=0x0:0x720fe442babda109,
supermarket,supermarket,Nusa Tenggara Bar. 84253,"Kec. Manggalewa, Kabupaten Dompu, Nusa Tenggara Bar.","Kabupaten Dompu, Nusa Tenggara Bar.",NUSA TENGGARA BARAT,,Indonesia,,,,-85.185.083,1.183.228.165,https://maps.google.com/?cid=0x0:0x478db1c8ad8f6b79,
supermarket,Toko Swalayan,Smart Swalayan Manggelewa,"Jl. Lintas Sumbawa - Bima, Soriutu, Kec. Manggalewa, Kabupaten Dompu, Nusa Tenggara Bar. 84253","Soriutu, Kec. Manggalewa, Kabupaten Dompu",NUSA TENGGARA BARAT,84253.0,Indonesia,,,,-85.188.231,1.183.210.474,https://maps.google.com/?cid=0x0:0xf42f0c1e8ff1c835,
supermarket,Toko,Montana Mart,"Soriutu, Kec. Manggalewa, Kabupaten Dompu, Nusa Tenggara Bar. 84253","Kec. Manggalewa, Kabupaten Dompu",NUSA TENGGARA BARAT,84253.0,Indonesia,,,,-85.189.054,118.323.354,https://maps.google.com/?cid=0x0:0xb4a1fd89d28197bf,
supermarket,Pusat Perbelanjaan,Bolly Supermarket,"F8JC+FCF, Jl. Lintas Sumbawa - Bima, Soriutu, Kec. Manggalewa, Kabupaten Dompu, Nusa Tenggara Bar. 84253","Jl. Lintas Sumbawa - Bima, Soriutu, Kec. Manggalewa, Kabupaten Dompu",NUSA TENGGARA BARAT,84253.0,Indonesia,,,,-85.188.237,1.183.210.477,https://maps.google.com/?cid=0x0:0xbc17709e6ab8a08d,
supermarket,Minimarket,GOLDEN MART KSO,"F8JC+GPQ, Jl. Lintas Sumbawa - Bima, Soriutu, Kec. Manggalewa, Kabupaten Dompu, Nusa Tenggara Bar. 84253","Jl. Lintas Sumbawa - Bima, Soriutu, Kec. Manggalewa, Kabupaten Dompu",NUSA TENGGARA BARAT,84253.0,Indonesia,,,,-8.518.654,1.183.218.483,https://maps.google.com/?cid=0x0:0x95795e24dbe53f1d,
supermarket,Toko,Best Mart,"Jl. Lintas Calabai No.18, Soriutu, Kec. Manggalewa, Kabupaten Dompu, Nusa Tenggara Bar. 84253","Soriutu, Kec. Manggalewa, Kabupaten Dompu",NUSA TENGGARA BARAT,84253.0,Indonesia,,,,-85.187.172,1.183.170.975,https://maps.google.com/?cid=0x0:0x50d848cc9c49053d,
supermarket,Toko Pertanian,TP UD UMAM GILMAN MANGGALEWA DOMPU,"Jl. Lintas Calabai No.18, Soriutu, Kec. Manggalewa, Kabupaten Dompu, Nusa Tenggara Bar. 84253","Soriutu, Kec. Manggalewa, Kabupaten Dompu",NUSA TENGGARA BARAT,84253.0,Indonesia,81339798588,,,-85.187.024,118.316.312,https://maps.google.com/?cid=0x0:0x7d5899d30fdec40,
supermarket,Toko,Toko Berkah Manggelewa,"Manggelewa, Kec. Kempo, Kabupaten Dompu, Nusa Tenggara Bar. 84217","Kec. Kempo, Kabupaten Dompu",NUSA TENGGARA BARAT,84217.0,Indonesia,82341957314,,,-85.185.358,1.183.184.071,https://maps.google.com/?cid=0x0:0xc86188770344d20b,
supermarket,Minimarket,Toko Merah Putih,"Jl. Lintas Calabai No.18, Soriutu, Kec. Manggalewa, Kabupaten Dompu, Nusa Tenggara Bar. 84253","Soriutu, Kec. Manggalewa, Kabupaten Dompu",NUSA TENGGARA BARAT,84253.0,Indonesia,82147111447,,,-85.186.397,1.183.160.333,https://maps.google.com/?cid=0x0:0x64439abc09a77113,
supermarket,Toko Pakaian,Toko Aladin Manggelewa,"Jl. Lintas Sumbawa - Bima, Soriutu, Kec. Manggalewa, Kabupaten Dompu, Nusa Tenggara Bar. 84253","Soriutu, Kec. Manggalewa, Kabupaten Dompu",NUSA TENGGARA BARAT,84253.0,Indonesia,85338883332,,,-85.202.624,1.183.183.998,https://maps.google.com/?cid=0x0:0x7d27ed044f66608b,
supermarket,Toko bahan makanan,Tk Arjuna,"F88V+R32, Persiapan Teka Sire, Kec. Manggalewa, Kabupaten Dompu, Nusa Tenggara Bar. 84253","Persiapan Teka Sire, Kec. Manggalewa, Kabupaten Dompu",NUSA TENGGARA BARAT,84253.0,Indonesia,,,,-85.329.982,1.183.426.273,https://maps.google.com/?cid=0x0:0xa704b5c24b32bfb4,
supermarket,Toko umum,Kios AAN D-BOOSTER,"Jl. Sukadamai 2, Suka Damai, Kec. Manggalewa, Kabupaten Dompu, Nusa Tenggara Bar. 84383","Suka Damai, Kec. Manggalewa, Kabupaten Dompu",NUSA TENGGARA BARAT,84383.0,Indonesia,,,,-84.846.014,1.182.892.438,https://maps.google.com/?cid=0x0:0xeb5c10495525dd0a,
supermarket,Toko Fotokopi,Grosir ATK UD L ASY,"G74X+MHR, Lanci Jaya, Kec. Manggalewa, Kabupaten Dompu, Nusa Tenggara Bar. 84253","Lanci Jaya, Kec. Manggalewa, Kabupaten Dompu",NUSA TENGGARA BARAT,84253.0,Indonesia,85338726098,,,-84.932.515,1.182.988.974,https://maps.google.com/?cid=0x0:0x766bab45072c5399,
supermarket,Toko,Tiga Mas ( Man ),"F8J8+H27, Jl. Lintas Calabai, Soriutu, Kec. Manggalewa, Kabupaten Dompu, Nusa Tenggara Bar. 84253","Jl. Lintas Calabai, Soriutu, Kec. Manggalewa, Kabupaten Dompu",NUSA TENGGARA BARAT,84253.0,Indonesia,82339629786,,,-85.185.867,118.315.055,https://maps.google.com/?cid=0x0:0x3f0b9b5b931a036f,
supermarket,Toko bahan makanan,Yj Mart,"F8J8+H92, Jl. Lintas Calabai, Soriutu, Kec. Manggalewa, Kabupaten Dompu, Nusa Tenggara Bar. 84253","Jl. Lintas Calabai, Soriutu, Kec. Manggalewa, Kabupaten Dompu",NUSA TENGGARA BARAT,84253.0,Indonesia,,,,-85.186.171,1.183.159.036,https://maps.google.com/?cid=0x0:0x1c702d979da331a8,
supermarket,Toko bahan makanan,INDRA MARKET,"F8JC+C3X Depan BRI unit kempo komplek, Jl. Ps. Soriutu, Soriutu, Kec. Manggalewa, Kabupaten Dompu, Nusa Tenggara Bar. 84253","Jl. Ps. Soriutu, Soriutu, Kec. Manggalewa, Kabupaten Dompu",NUSA TENGGARA BARAT,84253.0,Indonesia,,,,-85.188.988,1.183.202.418,https://maps.google.com/?cid=0x0:0x95b0e452ead20e46,
supermarket,Minimarket,ALFAMART SJB MART KSB SORIUTU,"Jl. Lintas Sumbawa - Bima pertokoan No.4, Doromelo, Kec. Manggalewa, Kabupaten Dompu, Nusa Tenggara Bar. 84253","Doromelo, Kec. Manggalewa, Kabupaten Dompu",NUSA TENGGARA BARAT,84253.0,Indonesia,,,,-85.199.485,1.183.185.177,https://maps.google.com/?cid=0x0:0xad6fc7f78ab23845,
supermarket,Toko umum,Gerai ainun,"F8G9+WP, Soriutu, Kec. Manggalewa, Kabupaten Dompu, Nusa Tenggara Bar.","Kabupaten Dompu, Nusa Tenggara Bar.",NUSA TENGGARA BARAT,,Indonesia,,,,-85.234.164,1.183.193.576,https://maps.google.com/?cid=0x0:0x157cdd833bf499e9,
supermarket,Toko bahan makanan,Toko Mas Jum,"F8M9+7V2, Soriutu, Kec. Manggalewa, Kabupaten Dompu, Nusa Tenggara Bar. 84253","Soriutu, Kec. Manggalewa, Kabupaten Dompu",NUSA TENGGARA BARAT,84253.0,Indonesia,,,,-85.168.618,118.319.644,https://maps.google.com/?cid=0x0:0x8571c93a62b2b6e1,
supermarket,,Toko Prima,"Jl. Lintas Sumbawa - Bima No.184, Soriutu, Kec. Manggalewa, Kabupaten Dompu, Nusa Tenggara Bar. 84253","Soriutu, Kec. Manggalewa, Kabupaten Dompu",NUSA TENGGARA BARAT,84253.0,Indonesia,,,,-85.186.629,1.183.242.218,https://maps.google.com/?cid=0x0:0xbb57e28be48a6e26,
supermarket,Pusat Perbelanjaan,I.mur mart,"Persiapan Teka Sire, Kec. Manggalewa, Kabupaten Dompu, Nusa Tenggara Bar.","Kabupaten Dompu, Nusa Tenggara Bar.",NUSA TENGGARA BARAT,,Indonesia,,,,-85.363.958,1.183.461.948,https://maps.google.com/?cid=0x0:0x7e311b5ef12a5b6a,
supermarket,supermarket,Kec. Manggalewa,"Kabupaten Dompu, Nusa Tenggara Bar.","Kabupaten Dompu, Nusa Tenggara Bar.",NUSA TENGGARA BARAT,,Indonesia,,,,-85.188.164,1.183.190.713,https://maps.google.com/?cid=0x0:0xc8d51c9bf2029bb,
supermarket,Pusat Perbelanjaan,Ud.Fitrah,"F8JH+22H, Jl. Lintas Sumbawa - Bima, Soriutu, Kec. Manggalewa, Kabupaten Dompu, Nusa Tenggara Bar. 84253","Jl. Lintas Sumbawa - Bima, Soriutu, Kec. Manggalewa, Kabupaten Dompu",NUSA TENGGARA BARAT,84253.0,Indonesia,,,,-85.199.309,1.183.276.143,https://maps.google.com/?cid=0x0:0x3978fc8ac3fb565e,
supermarket,supermarket,Nusa Tenggara Bar. 84272,"Kec. Pajo, Kabupaten Dompu, Nusa Tenggara Bar.","Kabupaten Dompu, Nusa Tenggara Bar.",NUSA TENGGARA BARAT,,Indonesia,,,,-86.347.113,1.184.747.173,https://maps.google.com/?cid=0x0:0x2f0ce72fb3d1b4f4,
supermarket,Toko bahan makanan,Fitriyani Stockis,"9FMR+C88, Desa tembalae, Jl. Lintas Lakey, Ranggo, Kec. Pajo, Kabupaten Dompu, Nusa Tenggara Bar. 84272","Desa tembalae, Jl. Lintas Lakey, Ranggo, Kec. Pajo, Kabupaten Dompu",NUSA TENGGARA BARAT,84272.0,Indonesia,82359143841,,,-86.164.643,1.184.908.155,https://maps.google.com/?cid=0x0:0xf7b389cb3a0921e6,
supermarket,Pusat Perbelanjaan,Toko Raja Pajo,"CF6Q+H6X, Ranggo, Kec. Pajo, Kabupaten Dompu, Nusa Tenggara Bar. 84272","Ranggo, Kec. Pajo, Kabupaten Dompu",NUSA TENGGARA BARAT,84272.0,Indonesia,82247796717,,,-8.588.508,1.184.881.181,https://maps.google.com/?cid=0x0:0x77d9163315f8488d,
supermarket,Toko Pertanian,TP UD. TO'A Pajo Dompu,"8CXR+8FW, Jl. Lintas Jambu, Jambu, Kec. Pajo, Kabupaten Dompu, Nusa Tenggara Bar. 84272","Jl. Lintas Jambu, Jambu, Kec. Pajo, Kabupaten Dompu",NUSA TENGGARA BARAT,84272.0,Indonesia,,,,-86.516.426,1.184.412.121,https://maps.google.com/?cid=0x0:0x41163f491374d66b,
supermarket,Kios,id.mart,"Ranggo, Kec. Pajo, Kabupaten Dompu, Nusa Tenggara Bar. 84272","Kec. Pajo, Kabupaten Dompu",NUSA TENGGARA BARAT,84272.0,Indonesia,85238611180,,,-86.096.936,118.491.622,https://maps.google.com/?cid=0x0:0x744beb052f9dcef0,
supermarket,Toko bahan makanan,TOKO ALFIAN,"9FJR+V66, Ranggo, Kec. Pajo, Kabupaten Dompu, Nusa Tenggara Bar. 84272","Ranggo, Kec. Pajo, Kabupaten Dompu",NUSA TENGGARA BARAT,84272.0,Indonesia,81334164142,,,-86.178.351,1.184.905.083,https://maps.google.com/?cid=0x0:0x48431c80c9490cf2,
supermarket,Toko Swalayan,Alexa Land,"8FWG+W86, Ranggo, Kec. Pajo, Kabupaten Dompu, Nusa Tenggara Bar. 84272","Ranggo, Kec. Pajo, Kabupaten Dompu",NUSA TENGGARA BARAT,84272.0,Indonesia,87863983833,,,-86.527.193,1.184.757.574,https://maps.google.com/?cid=0x0:0xc54761079d871f40,
supermarket,Minimarket,DIGER DARK,"9FRR+P52, Ranggo, Kec. Pajo, Kabupaten Dompu, Nusa Tenggara Bar. 84272","Ranggo, Kec. Pajo, Kabupaten Dompu",NUSA TENGGARA BARAT,84272.0,Indonesia,85339358311,,,-86.082.268,11.849.038,https://maps.google.com/?cid=0x0:0x25d59b4209988e12,
supermarket,Toko Swalayan,TOKO OKO ZAHIRA,"CF2Q+3H9, Jl. Lintas Lakey, Ranggo, Kec. Pajo, Kabupaten Dompu, Nusa Tenggara Bar. 84272","Jl. Lintas Lakey, Ranggo, Kec. Pajo, Kabupaten Dompu",NUSA TENGGARA BARAT,84272.0,Indonesia,,,,-85.998.341,1.184.889.818,https://maps.google.com/?cid=0x0:0x27e0593900e9ec30,
supermarket,Toko,UD. AYS RIZKILLAH,"9FQR+V4J, dsn.lawiti, Ranggo, Kec. Pajo, Kabupaten Dompu, Nusa Tenggara Bar. 84272","dsn.lawiti, Ranggo, Kec. Pajo, Kabupaten Dompu",NUSA TENGGARA BARAT,84272.0,Indonesia,,,,-86.102.814,1.184.902.708,https://maps.google.com/?cid=0x0:0xb11d2351d5908873,
supermarket,Toko bahan makanan,Toko nenek Zafran,"9FWQ+CX5, Jl. Lintas Lakey, Ranggo, Kec. Pajo, Kabupaten Dompu, Nusa Tenggara Bar. 84272","Jl. Lintas Lakey, Ranggo, Kec. Pajo, Kabupaten Dompu",NUSA TENGGARA BARAT,84272.0,Indonesia,85333055412,,,-86.039.819,1.184.899.819,https://maps.google.com/?cid=0x0:0x10fafc02df734e5,
supermarket,Toko bahan makanan,Supermarket dan Grosir Agil Mandiri,"Matua, Kec. Woja, Kabupaten Dompu, Nusa Tenggara Bar. 84251","Kec. Woja, Kabupaten Dompu",NUSA TENGGARA BARAT,84251.0,Indonesia,81339732473,,,-85.472.611,1.184.209.301,https://maps.google.com/?cid=0x0:0x25c05e12a6e216b4,
supermarket,Toko bahan makanan,Deden/Nukrah,"9FRR+92J, Jl. Lintas Lakey, Ranggo, Kec. Pajo, Kabupaten Dompu, Nusa Tenggara Bar. 84272","Jl. Lintas Lakey, Ranggo, Kec. Pajo, Kabupaten Dompu",NUSA TENGGARA BARAT,84272.0,Indonesia,85338648521,,,-86.090.459,1.184.900.069,https://maps.google.com/?cid=0x0:0x294876bf9f812ddd,
supermarket,Toko Organik,Toko Herbal  Kosmetik (Nurhidayah Us'ud),"Mbawi, Kec. Dompu, Kabupaten Dompu, Nusa Tenggara Bar. 84219","Kec. Dompu, Kabupaten Dompu",NUSA TENGGARA BARAT,84219.0,Indonesia,85238727020,,,-86.115.203,1.184.398.248,https://maps.google.com/?cid=0x0:0x4745fcc1b5ee4f04,
supermarket,Toko,TOKO DESRI SADIL JAYA,"CFPM+P6G, Jl. Lintas Lakey, dusun wera, Lepadi, Kec. Pajo, Kabupaten Dompu, Nusa Tenggara Bar. 84214","Jl. Lintas Lakey, dusun wera, Lepadi, Kec. Pajo, Kabupaten Dompu",NUSA TENGGARA BARAT,84214.0,Indonesia,,,,-85.631.968,118.483.066,https://maps.google.com/?cid=0x0:0x6ff8ec984fb8dd8d,
supermarket,Toko,Umair azizy,"9F8X+V68, Ranggo, Kec. Pajo, Kabupaten Dompu, Nusa Tenggara Bar.","Kabupaten Dompu, Nusa Tenggara Bar.",NUSA TENGGARA BARAT,,Indonesia,,,,-86.328.302,1.184.980.744,https://maps.google.com/?cid=0x0:0x68660a0211e8db04,
supermarket,Toko Swalayan,Toko Sanggora,"FC8X+4R7, Jl. Lkr. Utara, Karijawa, Kec. Dompu, Kabupaten Dompu, Nusa Tenggara Bar. 84216","Jl. Lkr. Utara, Karijawa, Kec. Dompu, Kabupaten Dompu",NUSA TENGGARA BARAT,84216.0,Indonesia,,,,-85.347.009,1.184.495.497,https://maps.google.com/?cid=0x0:0x8377e76fdfd969d5,
supermarket,Minimarket,Lancar market,"Jl. Nusantara No.30, Bada, Kec. Dompu, Kabupaten Dompu, Nusa Tenggara Bar. 84211","Bada, Kec. Dompu, Kabupaten Dompu",NUSA TENGGARA BARAT,84211.0,Indonesia,37321206,,,-85.394.981,1.184.613.568,https://maps.google.com/?cid=0x0:0x6dde2605e2d86bf1,
supermarket,Toko,Eqisupermmarket,"FC27+MF7, Jl. Lintas Sumbawa, Bakajaya, Kec. Woja, Kabupaten Dompu, Nusa Tenggara Bar. 84216","Jl. Lintas Sumbawa, Bakajaya, Kec. Woja, Kabupaten Dompu",NUSA TENGGARA BARAT,84216.0,Indonesia,85333646817,,,-85.483.465,1.184.136.661,https://maps.google.com/?cid=0x0:0xd829ddb0bc109a80,
supermarket,Apotek,Ria,"9FWQ+FH3, Ranggo, Kec. Pajo, Kabupaten Dompu, Nusa Tenggara Bar. 84272","Ranggo, Kec. Pajo, Kabupaten Dompu",NUSA TENGGARA BARAT,84272.0,Indonesia,,,,-86.038.518,1.184.889.129,https://maps.google.com/?cid=0x0:0x89513969b5d5c258,
supermarket,Toko Bunga,BonNery Buket dompu,"kios warna ungu, Jln lintas Lakey BTN, Masuk Gang samping SD No.07, Lepadi, Kec. Pajo, Kabupaten Dompu, Nusa Tenggara Bar. 84272","Jln lintas Lakey BTN, Masuk Gang samping SD No.07, Lepadi, Kec. Pajo, Kabupaten Dompu",NUSA TENGGARA BARAT,84272.0,Indonesia,,,,-85.755.749,1.184.860.736,https://maps.google.com/?cid=0x0:0xc9bf24c395a41e36,
supermarket,,GALAXY JAMBU,"Jl lintas felojanga Jl lintas felojanga, Kabupaten Dompu, Nusa Tenggara Bar.","Kabupaten Dompu, Nusa Tenggara Bar.",NUSA TENGGARA BARAT,,Indonesia,,,,-86.522.439,1.184.411.431,https://maps.google.com/?cid=0x0:0x213eafd3eccc6646,
supermarket,Toko Swalayan,Super Indo Daan Mogot,"Jl. Daan Mogot No.61, Tj. Duren Utara, Kecamatan Cengkareng, Kota Jakarta Barat, Daerah Khusus Ibukota Jakarta 11520","Tj. Duren Utara, Kecamatan Cengkareng, Kota Jakarta Barat",NUSA TENGGARA BARAT,11520.0,Indonesia,215660436,,,-6.165.783,106.781.983,https://maps.google.com/?cid=0x0:0x99d904a8251a68ad,
supermarket,Toko Swalayan,Super Indo Cinere,"Jl. Cinere Raya, RT.004/RW.8, Pangkalan Jati, Kec. Cinere, Kota Depok, Jawa Barat 16513","RT.004/RW.8, Pangkalan Jati, Kec. Cinere, Kota Depok",NUSA TENGGARA BARAT,16513.0,Indonesia,81213137035,,,-63.236.357,1.067.836.091,https://maps.google.com/?cid=0x0:0xcb3ab18bc7763d30,
supermarket,Toko Swalayan,Super Indo Cinere Raya,"Jl. Cinere Raya No.17, Cinere, Kec. Cinere, Kota Depok, Jawa Barat 16514","Cinere, Kec. Cinere, Kota Depok",NUSA TENGGARA BARAT,16514.0,Indonesia,,,,-63.285.756,1.067.853.393,https://maps.google.com/?cid=0x0:0xa1ab3e3c664ccad6,
supermarket,Toko makanan beku,Rumah Juliana frozen food,"Jl. Dua Sembilan No.46, RT.9/RW.7, Duren Sawit, Kec. Duren Sawit, Kota Jakarta Timur, Daerah Khusus Ibukota Jakarta 13440","RT.9/RW.7, Duren Sawit, Kec. Duren Sawit, Kota Jakarta Timur",NUSA TENGGARA BARAT,13440.0,Indonesia,83899731311,,,-62.441.179,1.069.158.252,https://maps.google.com/?cid=0x0:0x3c655e51978a7882,
supermarket,Toko Swalayan,Juragan Sembako,"Green sedayu bizpark Blok GS 11 no 71, RT.7/RW.6, Cakung Tim., Kec. Cakung, Kota Jakarta Timur, Daerah Khusus Ibukota Jakarta 53122","RT.7/RW.6, Cakung Tim., Kec. Cakung, Kota Jakarta Timur",NUSA TENGGARA BARAT,53122.0,Indonesia,81389713989,,,-61.691.709,1.069.477.775,https://maps.google.com/?cid=0x0:0xae6603b529a7ecb0,
supermarket,Toko Meja,PERO Indonesia,"Dharmo Adhira, Ruko Beverly, Jl. Pangeran Antasari No.67 4, RT.4/RW.1, Cilandak Bar., Kec. Cilandak, Kota Jakarta Selatan, Daerah Khusus Ibukota Jakarta 12410","Ruko Beverly, Jl. Pangeran Antasari No.67 4, RT.4/RW.1, Cilandak Bar., Kec. Cilandak, Kota Jakarta Selatan",NUSA TENGGARA BARAT,12410.0,Indonesia,2127820967,,,-62.879.496,1.068.066.094,https://maps.google.com/?cid=0x0:0xe74d8fc1b8b16a1c,
